{
  "0000": {
    "postcode": "0100000",
    "prefecture": "秋田県",
    "prefecture_kana": "アキタケン",
    "prefecture_code": 5,
    "city": "秋田市",
    "city_kana": "アキタシ",
    "town": "",
    "town_kana": "",
    "street": null,
    "office_name": null,
    "office_name_kana": null
  },
  "0001": {
    "postcode": "0100001",
    "prefecture": "秋田県",
    "prefecture_kana": "アキタケン",
    "prefecture_code": 5,
    "city": "秋田市",
    "city_kana": "アキタシ",
    "town": "中通",
    "town_kana": "ナカドオリ",
    "street": null,
    "office_name": null,
    "office_name_kana": null
  },
  "0002": {
    "postcode": "0100002",
    "prefecture": "秋田県",
    "prefecture_kana": "アキタケン",
    "prefecture_code": 5,
    "city": "秋田市",
    "city_kana": "アキタシ",
    "town": "東通仲町",
    "town_kana": "ヒガシドオリナカマチ",
    "street": null,
    "office_name": null,
    "office_name_kana": null
  },
  "0003": {
    "postcode": "0100003",
    "prefecture": "秋田県",
    "prefecture_kana": "アキタケン",
    "prefecture_code": 5,
    "city": "秋田市",
    "city_kana": "アキタシ",
    "town": "東通",
    "town_kana": "ヒガシドオリ",
    "street": null,
    "office_name": null,
    "office_name_kana": null
  },
  "0004": {
    "postcode": "0100004",
    "prefecture": "秋田県",
    "prefecture_kana": "アキタケン",
    "prefecture_code": 5,
    "city": "秋田市",
    "city_kana": "アキタシ",
    "town": "東通観音前",
    "town_kana": "ヒガシドオリカンノンマエ",
    "street": null,
    "office_name": null,
    "office_name_kana": null
  },
  "0005": {
    "postcode": "0100005",
    "prefecture": "秋田県",
    "prefecture_kana": "アキタケン",
    "prefecture_code": 5,
    "city": "秋田市",
    "city_kana": "アキタシ",
    "town": "東通明田",
    "town_kana": "ヒガシドオリミョウデン",
    "street": null,
    "office_name": null,
    "office_name_kana": null
  },
  "0006": {
    "postcode": "0100006",
    "prefecture": "秋田県",
    "prefecture_kana": "アキタケン",
    "prefecture_code": 5,
    "city": "秋田市",
    "city_kana": "アキタシ",
    "town": "東通館ノ越",
    "town_kana": "ヒガシドオリタテノコシ",
    "street": null,
    "office_name": null,
    "office_name_kana": null
  },
  "0011": {
    "postcode": "0100011",
    "prefecture": "秋田県",
    "prefecture_kana": "アキタケン",
    "prefecture_code": 5,
    "city": "秋田市",
    "city_kana": "アキタシ",
    "town": "南通亀の町",
    "town_kana": "ミナミドオリカメノチョウ",
    "street": null,
    "office_name": null,
    "office_name_kana": null
  },
  "0012": {
    "postcode": "0100012",
    "prefecture": "秋田県",
    "prefecture_kana": "アキタケン",
    "prefecture_code": 5,
    "city": "秋田市",
    "city_kana": "アキタシ",
    "town": "南通みその町",
    "town_kana": "ミナミドオリミソノマチ",
    "street": null,
    "office_name": null,
    "office_name_kana": null
  },
  "0013": {
    "postcode": "0100013",
    "prefecture": "秋田県",
    "prefecture_kana": "アキタケン",
    "prefecture_code": 5,
    "city": "秋田市",
    "city_kana": "アキタシ",
    "town": "南通築地",
    "town_kana": "ミナミドオリツキジ",
    "street": null,
    "office_name": null,
    "office_name_kana": null
  },
  "0014": {
    "postcode": "0100014",
    "prefecture": "秋田県",
    "prefecture_kana": "アキタケン",
    "prefecture_code": 5,
    "city": "秋田市",
    "city_kana": "アキタシ",
    "town": "南通宮田",
    "town_kana": "ミナミドオリミヤタ",
    "street": null,
    "office_name": null,
    "office_name_kana": null
  },
  "0021": {
    "postcode": "0100021",
    "prefecture": "秋田県",
    "prefecture_kana": "アキタケン",
    "prefecture_code": 5,
    "city": "秋田市",
    "city_kana": "アキタシ",
    "town": "楢山登町",
    "town_kana": "ナラヤマノボリマチ",
    "street": null,
    "office_name": null,
    "office_name_kana": null
  },
  "0022": {
    "postcode": "0100022",
    "prefecture": "秋田県",
    "prefecture_kana": "アキタケン",
    "prefecture_code": 5,
    "city": "秋田市",
    "city_kana": "アキタシ",
    "town": "楢山南中町",
    "town_kana": "ナラヤマミナミナカチョウ",
    "street": null,
    "office_name": null,
    "office_name_kana": null
  },
  "0023": {
    "postcode": "0100023",
    "prefecture": "秋田県",
    "prefecture_kana": "アキタケン",
    "prefecture_code": 5,
    "city": "秋田市",
    "city_kana": "アキタシ",
    "town": "楢山本町",
    "town_kana": "ナラヤマホンチョウ",
    "street": null,
    "office_name": null,
    "office_name_kana": null
  },
  "0024": {
    "postcode": "0100024",
    "prefecture": "秋田県",
    "prefecture_kana": "アキタケン",
    "prefecture_code": 5,
    "city": "秋田市",
    "city_kana": "アキタシ",
    "town": "楢山南新町上丁",
    "town_kana": "ナラヤマミナミシンマチカミチョウ",
    "street": null,
    "office_name": null,
    "office_name_kana": null
  },
  "0025": {
    "postcode": "0100025",
    "prefecture": "秋田県",
    "prefecture_kana": "アキタケン",
    "prefecture_code": 5,
    "city": "秋田市",
    "city_kana": "アキタシ",
    "town": "楢山佐竹町",
    "town_kana": "ナラヤマサタケマチ",
    "street": null,
    "office_name": null,
    "office_name_kana": null
  },
  "0026": {
    "postcode": "0100026",
    "prefecture": "秋田県",
    "prefecture_kana": "アキタケン",
    "prefecture_code": 5,
    "city": "秋田市",
    "city_kana": "アキタシ",
    "town": "楢山古川新町",
    "town_kana": "ナラヤマフルカワシンマチ",
    "street": null,
    "office_name": null,
    "office_name_kana": null
  },
  "0027": {
    "postcode": "0100027",
    "prefecture": "秋田県",
    "prefecture_kana": "アキタケン",
    "prefecture_code": 5,
    "city": "秋田市",
    "city_kana": "アキタシ",
    "town": "楢山南新町下丁",
    "town_kana": "ナラヤマミナミシンマチシモチョウ",
    "street": null,
    "office_name": null,
    "office_name_kana": null
  },
  "0028": {
    "postcode": "0100028",
    "prefecture": "秋田県",
    "prefecture_kana": "アキタケン",
    "prefecture_code": 5,
    "city": "秋田市",
    "city_kana": "アキタシ",
    "town": "楢山共和町",
    "town_kana": "ナラヤマキョウワマチ",
    "street": null,
    "office_name": null,
    "office_name_kana": null
  },
  "0029": {
    "postcode": "0100029",
    "prefecture": "秋田県",
    "prefecture_kana": "アキタケン",
    "prefecture_code": 5,
    "city": "秋田市",
    "city_kana": "アキタシ",
    "town": "楢山川口境",
    "town_kana": "ナラヤマカワグチサカイ",
    "street": null,
    "office_name": null,
    "office_name_kana": null
  },
  "0031": {
    "postcode": "0100031",
    "prefecture": "秋田県",
    "prefecture_kana": "アキタケン",
    "prefecture_code": 5,
    "city": "秋田市",
    "city_kana": "アキタシ",
    "town": "楢山大元町",
    "town_kana": "ナラヤマオオモトマチ",
    "street": null,
    "office_name": null,
    "office_name_kana": null
  },
  "0032": {
    "postcode": "0100032",
    "prefecture": "秋田県",
    "prefecture_kana": "アキタケン",
    "prefecture_code": 5,
    "city": "秋田市",
    "city_kana": "アキタシ",
    "town": "楢山太田町",
    "town_kana": "ナラヤマオオタマチ",
    "street": null,
    "office_name": null,
    "office_name_kana": null
  },
  "0033": {
    "postcode": "0100033",
    "prefecture": "秋田県",
    "prefecture_kana": "アキタケン",
    "prefecture_code": 5,
    "city": "秋田市",
    "city_kana": "アキタシ",
    "town": "楢山石塚町",
    "town_kana": "ナラヤマイシヅカチョウ",
    "street": null,
    "office_name": null,
    "office_name_kana": null
  },
  "0034": {
    "postcode": "0100034",
    "prefecture": "秋田県",
    "prefecture_kana": "アキタケン",
    "prefecture_code": 5,
    "city": "秋田市",
    "city_kana": "アキタシ",
    "town": "楢山",
    "town_kana": "ナラヤマ",
    "street": null,
    "office_name": null,
    "office_name_kana": null
  },
  "0035": {
    "postcode": "0100035",
    "prefecture": "秋田県",
    "prefecture_kana": "アキタケン",
    "prefecture_code": 5,
    "city": "秋田市",
    "city_kana": "アキタシ",
    "town": "楢山城南町",
    "town_kana": "ナラヤマジョウナンマチ",
    "street": null,
    "office_name": null,
    "office_name_kana": null
  },
  "0036": {
    "postcode": "0100036",
    "prefecture": "秋田県",
    "prefecture_kana": "アキタケン",
    "prefecture_code": 5,
    "city": "秋田市",
    "city_kana": "アキタシ",
    "town": "楢山金照町",
    "town_kana": "ナラヤマキンショウマチ",
    "street": null,
    "office_name": null,
    "office_name_kana": null
  },
  "0037": {
    "postcode": "0100037",
    "prefecture": "秋田県",
    "prefecture_kana": "アキタケン",
    "prefecture_code": 5,
    "city": "秋田市",
    "city_kana": "アキタシ",
    "town": "楢山愛宕下",
    "town_kana": "ナラヤマアタゴシタ",
    "street": null,
    "office_name": null,
    "office_name_kana": null
  },
  "0038": {
    "postcode": "0100038",
    "prefecture": "秋田県",
    "prefecture_kana": "アキタケン",
    "prefecture_code": 5,
    "city": "秋田市",
    "city_kana": "アキタシ",
    "town": "楢山城南新町",
    "town_kana": "ナラヤマジョウナンシンマチ",
    "street": null,
    "office_name": null,
    "office_name_kana": null
  },
  "0041": {
    "postcode": "0100041",
    "prefecture": "秋田県",
    "prefecture_kana": "アキタケン",
    "prefecture_code": 5,
    "city": "秋田市",
    "city_kana": "アキタシ",
    "town": "広面",
    "town_kana": "ヒロオモテ",
    "street": null,
    "office_name": null,
    "office_name_kana": null
  },
  "0042": {
    "postcode": "0100042",
    "prefecture": "秋田県",
    "prefecture_kana": "アキタケン",
    "prefecture_code": 5,
    "city": "秋田市",
    "city_kana": "アキタシ",
    "town": "桜",
    "town_kana": "サクラ",
    "street": null,
    "office_name": null,
    "office_name_kana": null
  },
  "0043": {
    "postcode": "0100043",
    "prefecture": "秋田県",
    "prefecture_kana": "アキタケン",
    "prefecture_code": 5,
    "city": "秋田市",
    "city_kana": "アキタシ",
    "town": "桜ガ丘",
    "town_kana": "サクラガオカ",
    "street": null,
    "office_name": null,
    "office_name_kana": null
  },
  "0044": {
    "postcode": "0100044",
    "prefecture": "秋田県",
    "prefecture_kana": "アキタケン",
    "prefecture_code": 5,
    "city": "秋田市",
    "city_kana": "アキタシ",
    "town": "横森",
    "town_kana": "ヨコモリ",
    "street": null,
    "office_name": null,
    "office_name_kana": null
  },
  "0051": {
    "postcode": "0100051",
    "prefecture": "秋田県",
    "prefecture_kana": "アキタケン",
    "prefecture_code": 5,
    "city": "秋田市",
    "city_kana": "アキタシ",
    "town": "下北手松崎",
    "town_kana": "シモキタテマツサキ",
    "street": null,
    "office_name": null,
    "office_name_kana": null
  },
  "0052": {
    "postcode": "0100052",
    "prefecture": "秋田県",
    "prefecture_kana": "アキタケン",
    "prefecture_code": 5,
    "city": "秋田市",
    "city_kana": "アキタシ",
    "town": "下北手柳館",
    "town_kana": "シモキタテヤナギタテ",
    "street": null,
    "office_name": null,
    "office_name_kana": null
  },
  "0053": {
    "postcode": "0100053",
    "prefecture": "秋田県",
    "prefecture_kana": "アキタケン",
    "prefecture_code": 5,
    "city": "秋田市",
    "city_kana": "アキタシ",
    "town": "下北手寒川",
    "town_kana": "シモキタテサムカワ",
    "street": null,
    "office_name": null,
    "office_name_kana": null
  },
  "0054": {
    "postcode": "0100054",
    "prefecture": "秋田県",
    "prefecture_kana": "アキタケン",
    "prefecture_code": 5,
    "city": "秋田市",
    "city_kana": "アキタシ",
    "town": "下北手宝川",
    "town_kana": "シモキタテタカラカワ",
    "street": null,
    "office_name": null,
    "office_name_kana": null
  },
  "0055": {
    "postcode": "0100055",
    "prefecture": "秋田県",
    "prefecture_kana": "アキタケン",
    "prefecture_code": 5,
    "city": "秋田市",
    "city_kana": "アキタシ",
    "town": "下北手通沢",
    "town_kana": "シモキタテトオリサワ",
    "street": null,
    "office_name": null,
    "office_name_kana": null
  },
  "0056": {
    "postcode": "0100056",
    "prefecture": "秋田県",
    "prefecture_kana": "アキタケン",
    "prefecture_code": 5,
    "city": "秋田市",
    "city_kana": "アキタシ",
    "town": "下北手黒川",
    "town_kana": "シモキタテクロカワ",
    "street": null,
    "office_name": null,
    "office_name_kana": null
  },
  "0057": {
    "postcode": "0100057",
    "prefecture": "秋田県",
    "prefecture_kana": "アキタケン",
    "prefecture_code": 5,
    "city": "秋田市",
    "city_kana": "アキタシ",
    "town": "下北手梨平",
    "town_kana": "シモキタテナシヒラ",
    "street": null,
    "office_name": null,
    "office_name_kana": null
  },
  "0058": {
    "postcode": "0100058",
    "prefecture": "秋田県",
    "prefecture_kana": "アキタケン",
    "prefecture_code": 5,
    "city": "秋田市",
    "city_kana": "アキタシ",
    "town": "下北手桜",
    "town_kana": "シモキタテサクラ",
    "street": null,
    "office_name": null,
    "office_name_kana": null
  },
  "0059": {
    "postcode": "0100059",
    "prefecture": "秋田県",
    "prefecture_kana": "アキタケン",
    "prefecture_code": 5,
    "city": "秋田市",
    "city_kana": "アキタシ",
    "town": "桜台",
    "town_kana": "サクラダイ",
    "street": null,
    "office_name": null,
    "office_name_kana": null
  },
  "0061": {
    "postcode": "0100061",
    "prefecture": "秋田県",
    "prefecture_kana": "アキタケン",
    "prefecture_code": 5,
    "city": "秋田市",
    "city_kana": "アキタシ",
    "town": "卸町",
    "town_kana": "オロシマチ",
    "street": null,
    "office_name": null,
    "office_name_kana": null
  },
  "0062": {
    "postcode": "0100062",
    "prefecture": "秋田県",
    "prefecture_kana": "アキタケン",
    "prefecture_code": 5,
    "city": "秋田市",
    "city_kana": "アキタシ",
    "town": "牛島東",
    "town_kana": "ウシジマヒガシ",
    "street": null,
    "office_name": null,
    "office_name_kana": null
  },
  "0063": {
    "postcode": "0100063",
    "prefecture": "秋田県",
    "prefecture_kana": "アキタケン",
    "prefecture_code": 5,
    "city": "秋田市",
    "city_kana": "アキタシ",
    "town": "牛島西",
    "town_kana": "ウシジマニシ",
    "street": null,
    "office_name": null,
    "office_name_kana": null
  },
  "0064": {
    "postcode": "0100064",
    "prefecture": "秋田県",
    "prefecture_kana": "アキタケン",
    "prefecture_code": 5,
    "city": "秋田市",
    "city_kana": "アキタシ",
    "town": "牛島",
    "town_kana": "ウシジマ",
    "street": null,
    "office_name": null,
    "office_name_kana": null
  },
  "0065": {
    "postcode": "0100065",
    "prefecture": "秋田県",
    "prefecture_kana": "アキタケン",
    "prefecture_code": 5,
    "city": "秋田市",
    "city_kana": "アキタシ",
    "town": "茨島",
    "town_kana": "バラジマ",
    "street": null,
    "office_name": null,
    "office_name_kana": null
  },
  "0066": {
    "postcode": "0100066",
    "prefecture": "秋田県",
    "prefecture_kana": "アキタケン",
    "prefecture_code": 5,
    "city": "秋田市",
    "city_kana": "アキタシ",
    "town": "牛島南",
    "town_kana": "ウシジマミナミ",
    "street": null,
    "office_name": null,
    "office_name_kana": null
  },
  "0101": [
    {
      "postcode": "0100101",
      "prefecture": "秋田県",
      "prefecture_kana": "アキタケン",
      "prefecture_code": 5,
      "city": "潟上市",
      "city_kana": "カタガミシ",
      "town": "天王",
      "town_kana": "テンノウ",
      "street": null,
      "office_name": null,
      "office_name_kana": null
    },
    {
      "postcode": "0100101",
      "prefecture": "秋田県",
      "prefecture_kana": "アキタケン",
      "prefecture_code": 5,
      "city": "潟上市",
      "city_kana": "カタガミシ",
      "town": "天王追分",
      "town_kana": "テンノウオイワケ",
      "street": null,
      "office_name": null,
      "office_name_kana": null
    },
    {
      "postcode": "0100101",
      "prefecture": "秋田県",
      "prefecture_kana": "アキタケン",
      "prefecture_code": 5,
      "city": "潟上市",
      "city_kana": "カタガミシ",
      "town": "天王追分西",
      "town_kana": "テンノウオイワケニシ",
      "street": null,
      "office_name": null,
      "office_name_kana": null
    },
    {
      "postcode": "0100101",
      "prefecture": "秋田県",
      "prefecture_kana": "アキタケン",
      "prefecture_code": 5,
      "city": "潟上市",
      "city_kana": "カタガミシ",
      "town": "天王上北野",
      "town_kana": "テンノウカミキタノ",
      "street": null,
      "office_name": null,
      "office_name_kana": null
    },
    {
      "postcode": "0100101",
      "prefecture": "秋田県",
      "prefecture_kana": "アキタケン",
      "prefecture_code": 5,
      "city": "潟上市",
      "city_kana": "カタガミシ",
      "town": "天王長沼",
      "town_kana": "テンノウナガヌマ",
      "street": null,
      "office_name": null,
      "office_name_kana": null
    }
  ],
  "0111": {
    "postcode": "0100111",
    "prefecture": "秋田県",
    "prefecture_kana": "アキタケン",
    "prefecture_code": 5,
    "city": "秋田市",
    "city_kana": "アキタシ",
    "town": "金足岩瀬",
    "town_kana": "カナアシイワセ",
    "street": null,
    "office_name": null,
    "office_name_kana": null
  },
  "0112": {
    "postcode": "0100112",
    "prefecture": "秋田県",
    "prefecture_kana": "アキタケン",
    "prefecture_code": 5,
    "city": "秋田市",
    "city_kana": "アキタシ",
    "town": "金足堀内",
    "town_kana": "カナアシホリウチ",
    "street": null,
    "office_name": null,
    "office_name_kana": null
  },
  "0113": {
    "postcode": "0100113",
    "prefecture": "秋田県",
    "prefecture_kana": "アキタケン",
    "prefecture_code": 5,
    "city": "秋田市",
    "city_kana": "アキタシ",
    "town": "金足浦山",
    "town_kana": "カナアシウラヤマ",
    "street": null,
    "office_name": null,
    "office_name_kana": null
  },
  "0114": {
    "postcode": "0100114",
    "prefecture": "秋田県",
    "prefecture_kana": "アキタケン",
    "prefecture_code": 5,
    "city": "秋田市",
    "city_kana": "アキタシ",
    "town": "金足下刈",
    "town_kana": "カナアシシタカリ",
    "street": null,
    "office_name": null,
    "office_name_kana": null
  },
  "0115": {
    "postcode": "0100115",
    "prefecture": "秋田県",
    "prefecture_kana": "アキタケン",
    "prefecture_code": 5,
    "city": "秋田市",
    "city_kana": "アキタシ",
    "town": "金足大清水",
    "town_kana": "カナアシオオシミズ",
    "street": null,
    "office_name": null,
    "office_name_kana": null
  },
  "0116": {
    "postcode": "0100116",
    "prefecture": "秋田県",
    "prefecture_kana": "アキタケン",
    "prefecture_code": 5,
    "city": "秋田市",
    "city_kana": "アキタシ",
    "town": "金足小泉",
    "town_kana": "カナアシコイズミ",
    "street": null,
    "office_name": null,
    "office_name_kana": null
  },
  "0121": {
    "postcode": "0100121",
    "prefecture": "秋田県",
    "prefecture_kana": "アキタケン",
    "prefecture_code": 5,
    "city": "秋田市",
    "city_kana": "アキタシ",
    "town": "金足黒川",
    "town_kana": "カナアシクロカワ",
    "street": null,
    "office_name": null,
    "office_name_kana": null
  },
  "0122": {
    "postcode": "0100122",
    "prefecture": "秋田県",
    "prefecture_kana": "アキタケン",
    "prefecture_code": 5,
    "city": "秋田市",
    "city_kana": "アキタシ",
    "town": "金足吉田",
    "town_kana": "カナアシヨシダ",
    "street": null,
    "office_name": null,
    "office_name_kana": null
  },
  "0123": {
    "postcode": "0100123",
    "prefecture": "秋田県",
    "prefecture_kana": "アキタケン",
    "prefecture_code": 5,
    "city": "秋田市",
    "city_kana": "アキタシ",
    "town": "金足片田",
    "town_kana": "カナアシカタダ",
    "street": null,
    "office_name": null,
    "office_name_kana": null
  },
  "0124": {
    "postcode": "0100124",
    "prefecture": "秋田県",
    "prefecture_kana": "アキタケン",
    "prefecture_code": 5,
    "city": "秋田市",
    "city_kana": "アキタシ",
    "town": "金足鳰崎",
    "town_kana": "カナアシニオザキ",
    "street": null,
    "office_name": null,
    "office_name_kana": null
  },
  "0125": {
    "postcode": "0100125",
    "prefecture": "秋田県",
    "prefecture_kana": "アキタケン",
    "prefecture_code": 5,
    "city": "秋田市",
    "city_kana": "アキタシ",
    "town": "金足高岡",
    "town_kana": "カナアシタカオカ",
    "street": null,
    "office_name": null,
    "office_name_kana": null
  },
  "0126": {
    "postcode": "0100126",
    "prefecture": "秋田県",
    "prefecture_kana": "アキタケン",
    "prefecture_code": 5,
    "city": "秋田市",
    "city_kana": "アキタシ",
    "town": "金足追分",
    "town_kana": "カナアシオイワケ",
    "street": null,
    "office_name": null,
    "office_name_kana": null
  },
  "0131": {
    "postcode": "0100131",
    "prefecture": "秋田県",
    "prefecture_kana": "アキタケン",
    "prefecture_code": 5,
    "city": "秋田市",
    "city_kana": "アキタシ",
    "town": "上新城白山",
    "town_kana": "カミシンジョウシラヤマ",
    "street": null,
    "office_name": null,
    "office_name_kana": null
  },
  "0132": {
    "postcode": "0100132",
    "prefecture": "秋田県",
    "prefecture_kana": "アキタケン",
    "prefecture_code": 5,
    "city": "秋田市",
    "city_kana": "アキタシ",
    "town": "上新城小又",
    "town_kana": "カミシンジョウオマタ",
    "street": null,
    "office_name": null,
    "office_name_kana": null
  },
  "0133": {
    "postcode": "0100133",
    "prefecture": "秋田県",
    "prefecture_kana": "アキタケン",
    "prefecture_code": 5,
    "city": "秋田市",
    "city_kana": "アキタシ",
    "town": "上新城湯ノ里",
    "town_kana": "カミシンジョウユノサト",
    "street": null,
    "office_name": null,
    "office_name_kana": null
  },
  "0134": {
    "postcode": "0100134",
    "prefecture": "秋田県",
    "prefecture_kana": "アキタケン",
    "prefecture_code": 5,
    "city": "秋田市",
    "city_kana": "アキタシ",
    "town": "上新城道川",
    "town_kana": "カミシンジョウミチカワ",
    "street": null,
    "office_name": null,
    "office_name_kana": null
  },
  "0135": {
    "postcode": "0100135",
    "prefecture": "秋田県",
    "prefecture_kana": "アキタケン",
    "prefecture_code": 5,
    "city": "秋田市",
    "city_kana": "アキタシ",
    "town": "上新城五十丁",
    "town_kana": "カミシンジョウゴジッチョウ",
    "street": null,
    "office_name": null,
    "office_name_kana": null
  },
  "0136": {
    "postcode": "0100136",
    "prefecture": "秋田県",
    "prefecture_kana": "アキタケン",
    "prefecture_code": 5,
    "city": "秋田市",
    "city_kana": "アキタシ",
    "town": "上新城中",
    "town_kana": "カミシンジョウナカ",
    "street": null,
    "office_name": null,
    "office_name_kana": null
  },
  "0137": {
    "postcode": "0100137",
    "prefecture": "秋田県",
    "prefecture_kana": "アキタケン",
    "prefecture_code": 5,
    "city": "秋田市",
    "city_kana": "アキタシ",
    "town": "上新城石名坂",
    "town_kana": "カミシンジョウイシナザカ",
    "street": null,
    "office_name": null,
    "office_name_kana": null
  },
  "0138": {
    "postcode": "0100138",
    "prefecture": "秋田県",
    "prefecture_kana": "アキタケン",
    "prefecture_code": 5,
    "city": "秋田市",
    "city_kana": "アキタシ",
    "town": "上新城保多野",
    "town_kana": "カミシンジョウホタノ",
    "street": null,
    "office_name": null,
    "office_name_kana": null
  },
  "0141": {
    "postcode": "0100141",
    "prefecture": "秋田県",
    "prefecture_kana": "アキタケン",
    "prefecture_code": 5,
    "city": "秋田市",
    "city_kana": "アキタシ",
    "town": "下新城長岡",
    "town_kana": "シモシンジョウナガオカ",
    "street": null,
    "office_name": null,
    "office_name_kana": null
  },
  "0142": {
    "postcode": "0100142",
    "prefecture": "秋田県",
    "prefecture_kana": "アキタケン",
    "prefecture_code": 5,
    "city": "秋田市",
    "city_kana": "アキタシ",
    "town": "下新城青崎",
    "town_kana": "シモシンジョウアオザキ",
    "street": null,
    "office_name": null,
    "office_name_kana": null
  },
  "0143": {
    "postcode": "0100143",
    "prefecture": "秋田県",
    "prefecture_kana": "アキタケン",
    "prefecture_code": 5,
    "city": "秋田市",
    "city_kana": "アキタシ",
    "town": "下新城小友",
    "town_kana": "シモシンジョウオトモ",
    "street": null,
    "office_name": null,
    "office_name_kana": null
  },
  "0144": {
    "postcode": "0100144",
    "prefecture": "秋田県",
    "prefecture_kana": "アキタケン",
    "prefecture_code": 5,
    "city": "秋田市",
    "city_kana": "アキタシ",
    "town": "下新城岩城",
    "town_kana": "シモシンジョウイワキ",
    "street": null,
    "office_name": null,
    "office_name_kana": null
  },
  "0145": {
    "postcode": "0100145",
    "prefecture": "秋田県",
    "prefecture_kana": "アキタケン",
    "prefecture_code": 5,
    "city": "秋田市",
    "city_kana": "アキタシ",
    "town": "下新城笠岡",
    "town_kana": "シモシンジョウカサオカ",
    "street": null,
    "office_name": null,
    "office_name_kana": null
  },
  "0146": {
    "postcode": "0100146",
    "prefecture": "秋田県",
    "prefecture_kana": "アキタケン",
    "prefecture_code": 5,
    "city": "秋田市",
    "city_kana": "アキタシ",
    "town": "下新城中野",
    "town_kana": "シモシンジョウナカノ",
    "street": null,
    "office_name": null,
    "office_name_kana": null
  },
  "0195": {
    "postcode": "0100195",
    "prefecture": "秋田県",
    "prefecture_kana": "アキタケン",
    "prefecture_code": 5,
    "city": "秋田市",
    "city_kana": "アキタシ",
    "town": "下新城中野",
    "town_kana": "シモシンジョウナカノ",
    "street": "字街道端西２４１−４３８",
    "office_name": "公立大学法人　秋田県立大学",
    "office_name_kana": "コウリツダイガクホウジン アキタケンリツダイガク"
  },
  "0201": {
    "postcode": "0100201",
    "prefecture": "秋田県",
    "prefecture_kana": "アキタケン",
    "prefecture_code": 5,
    "city": "潟上市",
    "city_kana": "カタガミシ",
    "town": "天王",
    "town_kana": "テンノウ",
    "street": null,
    "office_name": null,
    "office_name_kana": null
  },
  "0202": {
    "postcode": "0100202",
    "prefecture": "秋田県",
    "prefecture_kana": "アキタケン",
    "prefecture_code": 5,
    "city": "潟上市",
    "city_kana": "カタガミシ",
    "town": "天王大崎",
    "town_kana": "テンノウオオサキ",
    "street": null,
    "office_name": null,
    "office_name_kana": null
  },
  "0341": {
    "postcode": "0100341",
    "prefecture": "秋田県",
    "prefecture_kana": "アキタケン",
    "prefecture_code": 5,
    "city": "男鹿市",
    "city_kana": "オガシ",
    "town": "船越",
    "town_kana": "フナコシ",
    "street": null,
    "office_name": null,
    "office_name_kana": null
  },
  "0342": {
    "postcode": "0100342",
    "prefecture": "秋田県",
    "prefecture_kana": "アキタケン",
    "prefecture_code": 5,
    "city": "男鹿市",
    "city_kana": "オガシ",
    "town": "脇本脇本",
    "town_kana": "ワキモトワキモト",
    "street": null,
    "office_name": null,
    "office_name_kana": null
  },
  "0343": {
    "postcode": "0100343",
    "prefecture": "秋田県",
    "prefecture_kana": "アキタケン",
    "prefecture_code": 5,
    "city": "男鹿市",
    "city_kana": "オガシ",
    "town": "脇本田谷沢",
    "town_kana": "ワキモトタヤザワ",
    "street": null,
    "office_name": null,
    "office_name_kana": null
  },
  "0344": {
    "postcode": "0100344",
    "prefecture": "秋田県",
    "prefecture_kana": "アキタケン",
    "prefecture_code": 5,
    "city": "男鹿市",
    "city_kana": "オガシ",
    "town": "脇本富永",
    "town_kana": "ワキモトトミナガ",
    "street": null,
    "office_name": null,
    "office_name_kana": null
  },
  "0345": {
    "postcode": "0100345",
    "prefecture": "秋田県",
    "prefecture_kana": "アキタケン",
    "prefecture_code": 5,
    "city": "男鹿市",
    "city_kana": "オガシ",
    "town": "脇本浦田",
    "town_kana": "ワキモトウラダ",
    "street": null,
    "office_name": null,
    "office_name_kana": null
  },
  "0346": {
    "postcode": "0100346",
    "prefecture": "秋田県",
    "prefecture_kana": "アキタケン",
    "prefecture_code": 5,
    "city": "男鹿市",
    "city_kana": "オガシ",
    "town": "脇本樽沢",
    "town_kana": "ワキモトタルザワ",
    "street": null,
    "office_name": null,
    "office_name_kana": null
  },
  "0347": {
    "postcode": "0100347",
    "prefecture": "秋田県",
    "prefecture_kana": "アキタケン",
    "prefecture_code": 5,
    "city": "男鹿市",
    "city_kana": "オガシ",
    "town": "脇本百川",
    "town_kana": "ワキモトモモカワ",
    "street": null,
    "office_name": null,
    "office_name_kana": null
  },
  "0351": {
    "postcode": "0100351",
    "prefecture": "秋田県",
    "prefecture_kana": "アキタケン",
    "prefecture_code": 5,
    "city": "男鹿市",
    "city_kana": "オガシ",
    "town": "五里合箱井",
    "town_kana": "イリアイハコイ",
    "street": null,
    "office_name": null,
    "office_name_kana": null
  },
  "0352": {
    "postcode": "0100352",
    "prefecture": "秋田県",
    "prefecture_kana": "アキタケン",
    "prefecture_code": 5,
    "city": "男鹿市",
    "city_kana": "オガシ",
    "town": "五里合琴川",
    "town_kana": "イリアイコトガワ",
    "street": null,
    "office_name": null,
    "office_name_kana": null
  },
  "0353": {
    "postcode": "0100353",
    "prefecture": "秋田県",
    "prefecture_kana": "アキタケン",
    "prefecture_code": 5,
    "city": "男鹿市",
    "city_kana": "オガシ",
    "town": "五里合神谷",
    "town_kana": "イリアイカミヤ",
    "street": null,
    "office_name": null,
    "office_name_kana": null
  },
  "0354": {
    "postcode": "0100354",
    "prefecture": "秋田県",
    "prefecture_kana": "アキタケン",
    "prefecture_code": 5,
    "city": "男鹿市",
    "city_kana": "オガシ",
    "town": "五里合中石",
    "town_kana": "イリアイチュウイシ",
    "street": null,
    "office_name": null,
    "office_name_kana": null
  },
  "0355": {
    "postcode": "0100355",
    "prefecture": "秋田県",
    "prefecture_kana": "アキタケン",
    "prefecture_code": 5,
    "city": "男鹿市",
    "city_kana": "オガシ",
    "town": "五里合鮪川",
    "town_kana": "イリアイシビカワ",
    "street": null,
    "office_name": null,
    "office_name_kana": null
  },
  "0400": {
    "postcode": "0100400",
    "prefecture": "秋田県",
    "prefecture_kana": "アキタケン",
    "prefecture_code": 5,
    "city": "南秋田郡大潟村",
    "city_kana": "ミナミアキタグンオオガタムラ",
    "town": "",
    "town_kana": "",
    "street": null,
    "office_name": null,
    "office_name_kana": null
  },
  "0401": {
    "postcode": "0100401",
    "prefecture": "秋田県",
    "prefecture_kana": "アキタケン",
    "prefecture_code": 5,
    "city": "男鹿市",
    "city_kana": "オガシ",
    "town": "野石",
    "town_kana": "ノイシ",
    "street": null,
    "office_name": null,
    "office_name_kana": null
  },
  "0411": {
    "postcode": "0100411",
    "prefecture": "秋田県",
    "prefecture_kana": "アキタケン",
    "prefecture_code": 5,
    "city": "男鹿市",
    "city_kana": "オガシ",
    "town": "福米沢",
    "town_kana": "フクメザワ",
    "street": null,
    "office_name": null,
    "office_name_kana": null
  },
  "0412": {
    "postcode": "0100412",
    "prefecture": "秋田県",
    "prefecture_kana": "アキタケン",
    "prefecture_code": 5,
    "city": "男鹿市",
    "city_kana": "オガシ",
    "town": "本内",
    "town_kana": "ホンナイ",
    "street": null,
    "office_name": null,
    "office_name_kana": null
  },
  "0413": {
    "postcode": "0100413",
    "prefecture": "秋田県",
    "prefecture_kana": "アキタケン",
    "prefecture_code": 5,
    "city": "男鹿市",
    "city_kana": "オガシ",
    "town": "松木沢",
    "town_kana": "マツキサワ",
    "street": null,
    "office_name": null,
    "office_name_kana": null
  },
  "0421": {
    "postcode": "0100421",
    "prefecture": "秋田県",
    "prefecture_kana": "アキタケン",
    "prefecture_code": 5,
    "city": "男鹿市",
    "city_kana": "オガシ",
    "town": "鵜木",
    "town_kana": "ウノキ",
    "street": null,
    "office_name": null,
    "office_name_kana": null
  },
  "0422": {
    "postcode": "0100422",
    "prefecture": "秋田県",
    "prefecture_kana": "アキタケン",
    "prefecture_code": 5,
    "city": "男鹿市",
    "city_kana": "オガシ",
    "town": "角間崎",
    "town_kana": "カクマザキ",
    "street": null,
    "office_name": null,
    "office_name_kana": null
  },
  "0423": {
    "postcode": "0100423",
    "prefecture": "秋田県",
    "prefecture_kana": "アキタケン",
    "prefecture_code": 5,
    "city": "男鹿市",
    "city_kana": "オガシ",
    "town": "福川",
    "town_kana": "フクガワ",
    "street": null,
    "office_name": null,
    "office_name_kana": null
  },
  "0431": {
    "postcode": "0100431",
    "prefecture": "秋田県",
    "prefecture_kana": "アキタケン",
    "prefecture_code": 5,
    "city": "男鹿市",
    "city_kana": "オガシ",
    "town": "払戸",
    "town_kana": "フット",
    "street": null,
    "office_name": null,
    "office_name_kana": null
  },
  "0441": {
    "postcode": "0100441",
    "prefecture": "秋田県",
    "prefecture_kana": "アキタケン",
    "prefecture_code": 5,
    "city": "南秋田郡大潟村",
    "city_kana": "ミナミアキタグンオオガタムラ",
    "town": "北",
    "town_kana": "キタ",
    "street": null,
    "office_name": null,
    "office_name_kana": null
  },
  "0442": {
    "postcode": "0100442",
    "prefecture": "秋田県",
    "prefecture_kana": "アキタケン",
    "prefecture_code": 5,
    "city": "南秋田郡大潟村",
    "city_kana": "ミナミアキタグンオオガタムラ",
    "town": "東",
    "town_kana": "ヒガシ",
    "street": null,
    "office_name": null,
    "office_name_kana": null
  },
  "0443": {
    "postcode": "0100443",
    "prefecture": "秋田県",
    "prefecture_kana": "アキタケン",
    "prefecture_code": 5,
    "city": "南秋田郡大潟村",
    "city_kana": "ミナミアキタグンオオガタムラ",
    "town": "中央",
    "town_kana": "チュウオウ",
    "street": null,
    "office_name": null,
    "office_name_kana": null
  },
  "0444": {
    "postcode": "0100444",
    "prefecture": "秋田県",
    "prefecture_kana": "アキタケン",
    "prefecture_code": 5,
    "city": "南秋田郡大潟村",
    "city_kana": "ミナミアキタグンオオガタムラ",
    "town": "南",
    "town_kana": "ミナミ",
    "street": null,
    "office_name": null,
    "office_name_kana": null
  },
  "0445": {
    "postcode": "0100445",
    "prefecture": "秋田県",
    "prefecture_kana": "アキタケン",
    "prefecture_code": 5,
    "city": "南秋田郡大潟村",
    "city_kana": "ミナミアキタグンオオガタムラ",
    "town": "西",
    "town_kana": "ニシ",
    "street": null,
    "office_name": null,
    "office_name_kana": null
  },
  "0451": {
    "postcode": "0100451",
    "prefecture": "秋田県",
    "prefecture_kana": "アキタケン",
    "prefecture_code": 5,
    "city": "南秋田郡大潟村",
    "city_kana": "ミナミアキタグンオオガタムラ",
    "town": "大潟",
    "town_kana": "オオガタ",
    "street": null,
    "office_name": null,
    "office_name_kana": null
  },
  "0452": {
    "postcode": "0100452",
    "prefecture": "秋田県",
    "prefecture_kana": "アキタケン",
    "prefecture_code": 5,
    "city": "南秋田郡大潟村",
    "city_kana": "ミナミアキタグンオオガタムラ",
    "town": "方上",
    "town_kana": "カタガミ",
    "street": null,
    "office_name": null,
    "office_name_kana": null
  },
  "0453": {
    "postcode": "0100453",
    "prefecture": "秋田県",
    "prefecture_kana": "アキタケン",
    "prefecture_code": 5,
    "city": "南秋田郡大潟村",
    "city_kana": "ミナミアキタグンオオガタムラ",
    "town": "方口",
    "town_kana": "カタグチ",
    "street": null,
    "office_name": null,
    "office_name_kana": null
  },
  "0454": {
    "postcode": "0100454",
    "prefecture": "秋田県",
    "prefecture_kana": "アキタケン",
    "prefecture_code": 5,
    "city": "南秋田郡大潟村",
    "city_kana": "ミナミアキタグンオオガタムラ",
    "town": "中野",
    "town_kana": "ナカノ",
    "street": null,
    "office_name": null,
    "office_name_kana": null
  },
  "0455": {
    "postcode": "0100455",
    "prefecture": "秋田県",
    "prefecture_kana": "アキタケン",
    "prefecture_code": 5,
    "city": "南秋田郡大潟村",
    "city_kana": "ミナミアキタグンオオガタムラ",
    "town": "西野",
    "town_kana": "ニシノ",
    "street": null,
    "office_name": null,
    "office_name_kana": null
  },
  "0456": {
    "postcode": "0100456",
    "prefecture": "秋田県",
    "prefecture_kana": "アキタケン",
    "prefecture_code": 5,
    "city": "南秋田郡大潟村",
    "city_kana": "ミナミアキタグンオオガタムラ",
    "town": "東野",
    "town_kana": "ヒガシノ",
    "street": null,
    "office_name": null,
    "office_name_kana": null
  },
  "0492": {
    "postcode": "0100492",
    "prefecture": "秋田県",
    "prefecture_kana": "アキタケン",
    "prefecture_code": 5,
    "city": "南秋田郡大潟村",
    "city_kana": "ミナミアキタグンオオガタムラ",
    "town": "字西",
    "town_kana": null,
    "street": "４丁目８８",
    "office_name": "あきたこまち生産者協会",
    "office_name_kana": "アキタコマチセイサンシヤキヨウカイ"
  },
  "0493": {
    "postcode": "0100493",
    "prefecture": "秋田県",
    "prefecture_kana": "アキタケン",
    "prefecture_code": 5,
    "city": "男鹿市",
    "city_kana": "オガシ",
    "town": "角間崎",
    "town_kana": "カクマザキ",
    "street": "字家ノ下４５２番地",
    "office_name": "秋田県男鹿市役所若美庁舎",
    "office_name_kana": "アキタケンオガシヤクシヨワカミチヨウシヤ"
  },
  "0494": {
    "postcode": "0100494",
    "prefecture": "秋田県",
    "prefecture_kana": "アキタケン",
    "prefecture_code": 5,
    "city": "南秋田郡大潟村",
    "city_kana": "ミナミアキタグンオオガタムラ",
    "town": "字中央",
    "town_kana": null,
    "street": "１−１",
    "office_name": "大潟村役場",
    "office_name_kana": "オオガタムラヤクバ"
  },
  "0500": {
    "postcode": "0100500",
    "prefecture": "秋田県",
    "prefecture_kana": "アキタケン",
    "prefecture_code": 5,
    "city": "男鹿市",
    "city_kana": "オガシ",
    "town": "",
    "town_kana": "",
    "street": null,
    "office_name": null,
    "office_name_kana": null
  },
  "0501": {
    "postcode": "0100501",
    "prefecture": "秋田県",
    "prefecture_kana": "アキタケン",
    "prefecture_code": 5,
    "city": "男鹿市",
    "city_kana": "オガシ",
    "town": "船川港仁井山",
    "town_kana": "フナガワミナトニイヤマ",
    "street": null,
    "office_name": null,
    "office_name_kana": null
  },
  "0502": {
    "postcode": "0100502",
    "prefecture": "秋田県",
    "prefecture_kana": "アキタケン",
    "prefecture_code": 5,
    "city": "男鹿市",
    "city_kana": "オガシ",
    "town": "船川港比詰",
    "town_kana": "フナガワミナトヒヅメ",
    "street": null,
    "office_name": null,
    "office_name_kana": null
  },
  "0503": {
    "postcode": "0100503",
    "prefecture": "秋田県",
    "prefecture_kana": "アキタケン",
    "prefecture_code": 5,
    "city": "男鹿市",
    "city_kana": "オガシ",
    "town": "船川港金川",
    "town_kana": "フナガワミナトカネガワ",
    "street": null,
    "office_name": null,
    "office_name_kana": null
  },
  "0511": {
    "postcode": "0100511",
    "prefecture": "秋田県",
    "prefecture_kana": "アキタケン",
    "prefecture_code": 5,
    "city": "男鹿市",
    "city_kana": "オガシ",
    "town": "船川港船川",
    "town_kana": "フナガワミナトフナガワ",
    "street": null,
    "office_name": null,
    "office_name_kana": null
  },
  "0521": {
    "postcode": "0100521",
    "prefecture": "秋田県",
    "prefecture_kana": "アキタケン",
    "prefecture_code": 5,
    "city": "男鹿市",
    "city_kana": "オガシ",
    "town": "船川港南平沢",
    "town_kana": "フナガワミナトミナミヒラサワ",
    "street": null,
    "office_name": null,
    "office_name_kana": null
  },
  "0522": {
    "postcode": "0100522",
    "prefecture": "秋田県",
    "prefecture_kana": "アキタケン",
    "prefecture_code": 5,
    "city": "男鹿市",
    "city_kana": "オガシ",
    "town": "船川港増川",
    "town_kana": "フナガワミナトマスガワ",
    "street": null,
    "office_name": null,
    "office_name_kana": null
  },
  "0523": {
    "postcode": "0100523",
    "prefecture": "秋田県",
    "prefecture_kana": "アキタケン",
    "prefecture_code": 5,
    "city": "男鹿市",
    "city_kana": "オガシ",
    "town": "船川港女川",
    "town_kana": "フナガワミナトオンナガワ",
    "street": null,
    "office_name": null,
    "office_name_kana": null
  },
  "0531": {
    "postcode": "0100531",
    "prefecture": "秋田県",
    "prefecture_kana": "アキタケン",
    "prefecture_code": 5,
    "city": "男鹿市",
    "city_kana": "オガシ",
    "town": "船川港台島",
    "town_kana": "フナガワミナトダイシマ",
    "street": null,
    "office_name": null,
    "office_name_kana": null
  },
  "0532": {
    "postcode": "0100532",
    "prefecture": "秋田県",
    "prefecture_kana": "アキタケン",
    "prefecture_code": 5,
    "city": "男鹿市",
    "city_kana": "オガシ",
    "town": "船川港椿",
    "town_kana": "フナガワミナトツバキ",
    "street": null,
    "office_name": null,
    "office_name_kana": null
  },
  "0533": {
    "postcode": "0100533",
    "prefecture": "秋田県",
    "prefecture_kana": "アキタケン",
    "prefecture_code": 5,
    "city": "男鹿市",
    "city_kana": "オガシ",
    "town": "船川港双六",
    "town_kana": "フナガワミナトスゴロク",
    "street": null,
    "office_name": null,
    "office_name_kana": null
  },
  "0534": {
    "postcode": "0100534",
    "prefecture": "秋田県",
    "prefecture_kana": "アキタケン",
    "prefecture_code": 5,
    "city": "男鹿市",
    "city_kana": "オガシ",
    "town": "船川港小浜",
    "town_kana": "フナガワミナトコハマ",
    "street": null,
    "office_name": null,
    "office_name_kana": null
  },
  "0535": {
    "postcode": "0100535",
    "prefecture": "秋田県",
    "prefecture_kana": "アキタケン",
    "prefecture_code": 5,
    "city": "男鹿市",
    "city_kana": "オガシ",
    "town": "船川港本山門前",
    "town_kana": "フナガワミナトホンザンモンゼン",
    "street": null,
    "office_name": null,
    "office_name_kana": null
  },
  "0595": {
    "postcode": "0100595",
    "prefecture": "秋田県",
    "prefecture_kana": "アキタケン",
    "prefecture_code": 5,
    "city": "男鹿市",
    "city_kana": "オガシ",
    "town": "船川港船川",
    "town_kana": "フナガワミナトフナガワ",
    "street": "字泉台６６−１（男鹿郵便局私書箱第６号）",
    "office_name": "男鹿市役所",
    "office_name_kana": "オガシヤクシヨ"
  },
  "0661": {
    "postcode": "0100661",
    "prefecture": "秋田県",
    "prefecture_kana": "アキタケン",
    "prefecture_code": 5,
    "city": "男鹿市",
    "city_kana": "オガシ",
    "town": "男鹿中浜間口",
    "town_kana": "オガナカハママグチ",
    "street": null,
    "office_name": null,
    "office_name_kana": null
  },
  "0662": {
    "postcode": "0100662",
    "prefecture": "秋田県",
    "prefecture_kana": "アキタケン",
    "prefecture_code": 5,
    "city": "男鹿市",
    "city_kana": "オガシ",
    "town": "男鹿中中間口",
    "town_kana": "オガナカナカマグチ",
    "street": null,
    "office_name": null,
    "office_name_kana": null
  },
  "0663": {
    "postcode": "0100663",
    "prefecture": "秋田県",
    "prefecture_kana": "アキタケン",
    "prefecture_code": 5,
    "city": "男鹿市",
    "city_kana": "オガシ",
    "town": "男鹿中滝川",
    "town_kana": "オガナカタキガワ",
    "street": null,
    "office_name": null,
    "office_name_kana": null
  },
  "0664": {
    "postcode": "0100664",
    "prefecture": "秋田県",
    "prefecture_kana": "アキタケン",
    "prefecture_code": 5,
    "city": "男鹿市",
    "city_kana": "オガシ",
    "town": "男鹿中国有地内",
    "town_kana": "オガナカコクユウチナイ",
    "street": null,
    "office_name": null,
    "office_name_kana": null
  },
  "0665": {
    "postcode": "0100665",
    "prefecture": "秋田県",
    "prefecture_kana": "アキタケン",
    "prefecture_code": 5,
    "city": "男鹿市",
    "city_kana": "オガシ",
    "town": "男鹿中山町",
    "town_kana": "オガナカヤママチ",
    "street": null,
    "office_name": null,
    "office_name_kana": null
  },
  "0671": {
    "postcode": "0100671",
    "prefecture": "秋田県",
    "prefecture_kana": "アキタケン",
    "prefecture_code": 5,
    "city": "男鹿市",
    "city_kana": "オガシ",
    "town": "戸賀加茂青砂",
    "town_kana": "トガカモアオサ",
    "street": null,
    "office_name": null,
    "office_name_kana": null
  },
  "0672": {
    "postcode": "0100672",
    "prefecture": "秋田県",
    "prefecture_kana": "アキタケン",
    "prefecture_code": 5,
    "city": "男鹿市",
    "city_kana": "オガシ",
    "town": "戸賀浜塩谷",
    "town_kana": "トガハマシオヤ",
    "street": null,
    "office_name": null,
    "office_name_kana": null
  },
  "0673": {
    "postcode": "0100673",
    "prefecture": "秋田県",
    "prefecture_kana": "アキタケン",
    "prefecture_code": 5,
    "city": "男鹿市",
    "city_kana": "オガシ",
    "town": "戸賀塩浜",
    "town_kana": "トガシオハマ",
    "street": null,
    "office_name": null,
    "office_name_kana": null
  },
  "0674": {
    "postcode": "0100674",
    "prefecture": "秋田県",
    "prefecture_kana": "アキタケン",
    "prefecture_code": 5,
    "city": "男鹿市",
    "city_kana": "オガシ",
    "town": "戸賀戸賀",
    "town_kana": "トガトガ",
    "street": null,
    "office_name": null,
    "office_name_kana": null
  },
  "0675": {
    "postcode": "0100675",
    "prefecture": "秋田県",
    "prefecture_kana": "アキタケン",
    "prefecture_code": 5,
    "city": "男鹿市",
    "city_kana": "オガシ",
    "town": "北浦入道崎",
    "town_kana": "キタウラニュウドウザキ",
    "street": null,
    "office_name": null,
    "office_name_kana": null
  },
  "0676": {
    "postcode": "0100676",
    "prefecture": "秋田県",
    "prefecture_kana": "アキタケン",
    "prefecture_code": 5,
    "city": "男鹿市",
    "city_kana": "オガシ",
    "town": "北浦西黒沢",
    "town_kana": "キタウラニシクロサワ",
    "street": null,
    "office_name": null,
    "office_name_kana": null
  },
  "0681": {
    "postcode": "0100681",
    "prefecture": "秋田県",
    "prefecture_kana": "アキタケン",
    "prefecture_code": 5,
    "city": "男鹿市",
    "city_kana": "オガシ",
    "town": "北浦相川",
    "town_kana": "キタウラアイカワ",
    "street": null,
    "office_name": null,
    "office_name_kana": null
  },
  "0682": {
    "postcode": "0100682",
    "prefecture": "秋田県",
    "prefecture_kana": "アキタケン",
    "prefecture_code": 5,
    "city": "男鹿市",
    "city_kana": "オガシ",
    "town": "北浦表町",
    "town_kana": "キタウラオモテマチ",
    "street": null,
    "office_name": null,
    "office_name_kana": null
  },
  "0683": {
    "postcode": "0100683",
    "prefecture": "秋田県",
    "prefecture_kana": "アキタケン",
    "prefecture_code": 5,
    "city": "男鹿市",
    "city_kana": "オガシ",
    "town": "北浦北浦",
    "town_kana": "キタウラキタウラ",
    "street": null,
    "office_name": null,
    "office_name_kana": null
  },
  "0684": {
    "postcode": "0100684",
    "prefecture": "秋田県",
    "prefecture_kana": "アキタケン",
    "prefecture_code": 5,
    "city": "男鹿市",
    "city_kana": "オガシ",
    "town": "北浦安全寺",
    "town_kana": "キタウラアンゼンジ",
    "street": null,
    "office_name": null,
    "office_name_kana": null
  },
  "0685": {
    "postcode": "0100685",
    "prefecture": "秋田県",
    "prefecture_kana": "アキタケン",
    "prefecture_code": 5,
    "city": "男鹿市",
    "city_kana": "オガシ",
    "town": "北浦真山",
    "town_kana": "キタウラシンザン",
    "street": null,
    "office_name": null,
    "office_name_kana": null
  },
  "0686": {
    "postcode": "0100686",
    "prefecture": "秋田県",
    "prefecture_kana": "アキタケン",
    "prefecture_code": 5,
    "city": "男鹿市",
    "city_kana": "オガシ",
    "town": "北浦西水口",
    "town_kana": "キタウラニシミズグチ",
    "street": null,
    "office_name": null,
    "office_name_kana": null
  },
  "0687": {
    "postcode": "0100687",
    "prefecture": "秋田県",
    "prefecture_kana": "アキタケン",
    "prefecture_code": 5,
    "city": "男鹿市",
    "city_kana": "オガシ",
    "town": "北浦湯本",
    "town_kana": "キタウラユモト",
    "street": null,
    "office_name": null,
    "office_name_kana": null
  },
  "0688": {
    "postcode": "0100688",
    "prefecture": "秋田県",
    "prefecture_kana": "アキタケン",
    "prefecture_code": 5,
    "city": "男鹿市",
    "city_kana": "オガシ",
    "town": "北浦野村",
    "town_kana": "キタウラノムラ",
    "street": null,
    "office_name": null,
    "office_name_kana": null
  },
  "0802": {
    "postcode": "0100802",
    "prefecture": "秋田県",
    "prefecture_kana": "アキタケン",
    "prefecture_code": 5,
    "city": "秋田市",
    "city_kana": "アキタシ",
    "town": "外旭川",
    "town_kana": "ソトアサヒカワ",
    "street": null,
    "office_name": null,
    "office_name_kana": null
  },
  "0803": {
    "postcode": "0100803",
    "prefecture": "秋田県",
    "prefecture_kana": "アキタケン",
    "prefecture_code": 5,
    "city": "秋田市",
    "city_kana": "アキタシ",
    "town": "外旭川八柳",
    "town_kana": "ソトアサヒカワヤツヤナギ",
    "street": null,
    "office_name": null,
    "office_name_kana": null
  },
  "0804": {
    "postcode": "0100804",
    "prefecture": "秋田県",
    "prefecture_kana": "アキタケン",
    "prefecture_code": 5,
    "city": "秋田市",
    "city_kana": "アキタシ",
    "town": "外旭川八幡田",
    "town_kana": "ソトアサヒカワハチマンデン",
    "street": null,
    "office_name": null,
    "office_name_kana": null
  },
  "0811": {
    "postcode": "0100811",
    "prefecture": "秋田県",
    "prefecture_kana": "アキタケン",
    "prefecture_code": 5,
    "city": "秋田市",
    "city_kana": "アキタシ",
    "town": "泉釜ノ町",
    "town_kana": "イズミカマノマチ",
    "street": null,
    "office_name": null,
    "office_name_kana": null
  },
  "0812": {
    "postcode": "0100812",
    "prefecture": "秋田県",
    "prefecture_kana": "アキタケン",
    "prefecture_code": 5,
    "city": "秋田市",
    "city_kana": "アキタシ",
    "town": "泉三嶽根",
    "town_kana": "イズミミタケネ",
    "street": null,
    "office_name": null,
    "office_name_kana": null
  },
  "0813": {
    "postcode": "0100813",
    "prefecture": "秋田県",
    "prefecture_kana": "アキタケン",
    "prefecture_code": 5,
    "city": "秋田市",
    "city_kana": "アキタシ",
    "town": "泉一ノ坪",
    "town_kana": "イズミイチノツボ",
    "street": null,
    "office_name": null,
    "office_name_kana": null
  },
  "0814": {
    "postcode": "0100814",
    "prefecture": "秋田県",
    "prefecture_kana": "アキタケン",
    "prefecture_code": 5,
    "city": "秋田市",
    "city_kana": "アキタシ",
    "town": "泉東町",
    "town_kana": "イズミヒガシマチ",
    "street": null,
    "office_name": null,
    "office_name_kana": null
  },
  "0815": {
    "postcode": "0100815",
    "prefecture": "秋田県",
    "prefecture_kana": "アキタケン",
    "prefecture_code": 5,
    "city": "秋田市",
    "city_kana": "アキタシ",
    "town": "泉馬場",
    "town_kana": "イズミババ",
    "street": null,
    "office_name": null,
    "office_name_kana": null
  },
  "0816": {
    "postcode": "0100816",
    "prefecture": "秋田県",
    "prefecture_kana": "アキタケン",
    "prefecture_code": 5,
    "city": "秋田市",
    "city_kana": "アキタシ",
    "town": "泉",
    "town_kana": "イズミ",
    "street": null,
    "office_name": null,
    "office_name_kana": null
  },
  "0817": {
    "postcode": "0100817",
    "prefecture": "秋田県",
    "prefecture_kana": "アキタケン",
    "prefecture_code": 5,
    "city": "秋田市",
    "city_kana": "アキタシ",
    "town": "泉菅野",
    "town_kana": "イズミスガノ",
    "street": null,
    "office_name": null,
    "office_name_kana": null
  },
  "0821": {
    "postcode": "0100821",
    "prefecture": "秋田県",
    "prefecture_kana": "アキタケン",
    "prefecture_code": 5,
    "city": "秋田市",
    "city_kana": "アキタシ",
    "town": "濁川",
    "town_kana": "ニゴリカワ",
    "street": null,
    "office_name": null,
    "office_name_kana": null
  },
  "0822": {
    "postcode": "0100822",
    "prefecture": "秋田県",
    "prefecture_kana": "アキタケン",
    "prefecture_code": 5,
    "city": "秋田市",
    "city_kana": "アキタシ",
    "town": "添川",
    "town_kana": "ソエガワ",
    "street": null,
    "office_name": null,
    "office_name_kana": null
  },
  "0823": {
    "postcode": "0100823",
    "prefecture": "秋田県",
    "prefecture_kana": "アキタケン",
    "prefecture_code": 5,
    "city": "秋田市",
    "city_kana": "アキタシ",
    "town": "山内",
    "town_kana": "サンナイ",
    "street": null,
    "office_name": null,
    "office_name_kana": null
  },
  "0824": {
    "postcode": "0100824",
    "prefecture": "秋田県",
    "prefecture_kana": "アキタケン",
    "prefecture_code": 5,
    "city": "秋田市",
    "city_kana": "アキタシ",
    "town": "仁別",
    "town_kana": "ニベツ",
    "street": null,
    "office_name": null,
    "office_name_kana": null
  },
  "0825": {
    "postcode": "0100825",
    "prefecture": "秋田県",
    "prefecture_kana": "アキタケン",
    "prefecture_code": 5,
    "city": "秋田市",
    "city_kana": "アキタシ",
    "town": "柳田",
    "town_kana": "ヤナギダ",
    "street": null,
    "office_name": null,
    "office_name_kana": null
  },
  "0826": {
    "postcode": "0100826",
    "prefecture": "秋田県",
    "prefecture_kana": "アキタケン",
    "prefecture_code": 5,
    "city": "秋田市",
    "city_kana": "アキタシ",
    "town": "新藤田",
    "town_kana": "シントウダ",
    "street": null,
    "office_name": null,
    "office_name_kana": null
  },
  "0831": {
    "postcode": "0100831",
    "prefecture": "秋田県",
    "prefecture_kana": "アキタケン",
    "prefecture_code": 5,
    "city": "秋田市",
    "city_kana": "アキタシ",
    "town": "旭川清澄町",
    "town_kana": "アサヒカワキヨスミマチ",
    "street": null,
    "office_name": null,
    "office_name_kana": null
  },
  "0832": {
    "postcode": "0100832",
    "prefecture": "秋田県",
    "prefecture_kana": "アキタケン",
    "prefecture_code": 5,
    "city": "秋田市",
    "city_kana": "アキタシ",
    "town": "旭川新藤田西町",
    "town_kana": "アサヒカワシントウダニシマチ",
    "street": null,
    "office_name": null,
    "office_name_kana": null
  },
  "0833": {
    "postcode": "0100833",
    "prefecture": "秋田県",
    "prefecture_kana": "アキタケン",
    "prefecture_code": 5,
    "city": "秋田市",
    "city_kana": "アキタシ",
    "town": "旭川新藤田東町",
    "town_kana": "アサヒカワシントウダヒガシマチ",
    "street": null,
    "office_name": null,
    "office_name_kana": null
  },
  "0834": {
    "postcode": "0100834",
    "prefecture": "秋田県",
    "prefecture_kana": "アキタケン",
    "prefecture_code": 5,
    "city": "秋田市",
    "city_kana": "アキタシ",
    "town": "旭川南町",
    "town_kana": "アサヒカワミナミマチ",
    "street": null,
    "office_name": null,
    "office_name_kana": null
  },
  "0841": {
    "postcode": "0100841",
    "prefecture": "秋田県",
    "prefecture_kana": "アキタケン",
    "prefecture_code": 5,
    "city": "秋田市",
    "city_kana": "アキタシ",
    "town": "手形山西町",
    "town_kana": "テガタヤマニシマチ",
    "street": null,
    "office_name": null,
    "office_name_kana": null
  },
  "0842": {
    "postcode": "0100842",
    "prefecture": "秋田県",
    "prefecture_kana": "アキタケン",
    "prefecture_code": 5,
    "city": "秋田市",
    "city_kana": "アキタシ",
    "town": "手形山北町",
    "town_kana": "テガタヤマキタマチ",
    "street": null,
    "office_name": null,
    "office_name_kana": null
  },
  "0843": {
    "postcode": "0100843",
    "prefecture": "秋田県",
    "prefecture_kana": "アキタケン",
    "prefecture_code": 5,
    "city": "秋田市",
    "city_kana": "アキタシ",
    "town": "手形山東町",
    "town_kana": "テガタヤマヒガシマチ",
    "street": null,
    "office_name": null,
    "office_name_kana": null
  },
  "0844": {
    "postcode": "0100844",
    "prefecture": "秋田県",
    "prefecture_kana": "アキタケン",
    "prefecture_code": 5,
    "city": "秋田市",
    "city_kana": "アキタシ",
    "town": "手形山中町",
    "town_kana": "テガタヤマナカマチ",
    "street": null,
    "office_name": null,
    "office_name_kana": null
  },
  "0845": {
    "postcode": "0100845",
    "prefecture": "秋田県",
    "prefecture_kana": "アキタケン",
    "prefecture_code": 5,
    "city": "秋田市",
    "city_kana": "アキタシ",
    "town": "手形山南町",
    "town_kana": "テガタヤマミナミマチ",
    "street": null,
    "office_name": null,
    "office_name_kana": null
  },
  "0851": {
    "postcode": "0100851",
    "prefecture": "秋田県",
    "prefecture_kana": "アキタケン",
    "prefecture_code": 5,
    "city": "秋田市",
    "city_kana": "アキタシ",
    "town": "手形",
    "town_kana": "テガタ",
    "street": null,
    "office_name": null,
    "office_name_kana": null
  },
  "0852": {
    "postcode": "0100852",
    "prefecture": "秋田県",
    "prefecture_kana": "アキタケン",
    "prefecture_code": 5,
    "city": "秋田市",
    "city_kana": "アキタシ",
    "town": "手形学園町",
    "town_kana": "テガタガクエンマチ",
    "street": null,
    "office_name": null,
    "office_name_kana": null
  },
  "0853": {
    "postcode": "0100853",
    "prefecture": "秋田県",
    "prefecture_kana": "アキタケン",
    "prefecture_code": 5,
    "city": "秋田市",
    "city_kana": "アキタシ",
    "town": "蛇野",
    "town_kana": "ヘビノ",
    "street": null,
    "office_name": null,
    "office_name_kana": null
  },
  "0854": {
    "postcode": "0100854",
    "prefecture": "秋田県",
    "prefecture_kana": "アキタケン",
    "prefecture_code": 5,
    "city": "秋田市",
    "city_kana": "アキタシ",
    "town": "手形山崎町",
    "town_kana": "テガタヤマザキチョウ",
    "street": null,
    "office_name": null,
    "office_name_kana": null
  },
  "0861": {
    "postcode": "0100861",
    "prefecture": "秋田県",
    "prefecture_kana": "アキタケン",
    "prefecture_code": 5,
    "city": "秋田市",
    "city_kana": "アキタシ",
    "town": "手形からみでん",
    "town_kana": "テガタカラミデン",
    "street": null,
    "office_name": null,
    "office_name_kana": null
  },
  "0862": {
    "postcode": "0100862",
    "prefecture": "秋田県",
    "prefecture_kana": "アキタケン",
    "prefecture_code": 5,
    "city": "秋田市",
    "city_kana": "アキタシ",
    "town": "手形田中",
    "town_kana": "テガタタナカ",
    "street": null,
    "office_name": null,
    "office_name_kana": null
  },
  "0863": {
    "postcode": "0100863",
    "prefecture": "秋田県",
    "prefecture_kana": "アキタケン",
    "prefecture_code": 5,
    "city": "秋田市",
    "city_kana": "アキタシ",
    "town": "手形休下町",
    "town_kana": "テガタキュウカマチ",
    "street": null,
    "office_name": null,
    "office_name_kana": null
  },
  "0864": {
    "postcode": "0100864",
    "prefecture": "秋田県",
    "prefecture_kana": "アキタケン",
    "prefecture_code": 5,
    "city": "秋田市",
    "city_kana": "アキタシ",
    "town": "手形住吉町",
    "town_kana": "テガタスミヨシチョウ",
    "street": null,
    "office_name": null,
    "office_name_kana": null
  },
  "0865": {
    "postcode": "0100865",
    "prefecture": "秋田県",
    "prefecture_kana": "アキタケン",
    "prefecture_code": 5,
    "city": "秋田市",
    "city_kana": "アキタシ",
    "town": "手形新栄町",
    "town_kana": "テガタシンサカエマチ",
    "street": null,
    "office_name": null,
    "office_name_kana": null
  },
  "0871": {
    "postcode": "0100871",
    "prefecture": "秋田県",
    "prefecture_kana": "アキタケン",
    "prefecture_code": 5,
    "city": "秋田市",
    "city_kana": "アキタシ",
    "town": "千秋中島町",
    "town_kana": "センシュウナカジママチ",
    "street": null,
    "office_name": null,
    "office_name_kana": null
  },
  "0872": {
    "postcode": "0100872",
    "prefecture": "秋田県",
    "prefecture_kana": "アキタケン",
    "prefecture_code": 5,
    "city": "秋田市",
    "city_kana": "アキタシ",
    "town": "千秋北の丸",
    "town_kana": "センシュウキタノマル",
    "street": null,
    "office_name": null,
    "office_name_kana": null
  },
  "0873": {
    "postcode": "0100873",
    "prefecture": "秋田県",
    "prefecture_kana": "アキタケン",
    "prefecture_code": 5,
    "city": "秋田市",
    "city_kana": "アキタシ",
    "town": "千秋城下町",
    "town_kana": "センシュウジョウカマチ",
    "street": null,
    "office_name": null,
    "office_name_kana": null
  },
  "0874": {
    "postcode": "0100874",
    "prefecture": "秋田県",
    "prefecture_kana": "アキタケン",
    "prefecture_code": 5,
    "city": "秋田市",
    "city_kana": "アキタシ",
    "town": "千秋久保田町",
    "town_kana": "センシュウクボタマチ",
    "street": null,
    "office_name": null,
    "office_name_kana": null
  },
  "0875": {
    "postcode": "0100875",
    "prefecture": "秋田県",
    "prefecture_kana": "アキタケン",
    "prefecture_code": 5,
    "city": "秋田市",
    "city_kana": "アキタシ",
    "town": "千秋明徳町",
    "town_kana": "センシュウメイトクマチ",
    "street": null,
    "office_name": null,
    "office_name_kana": null
  },
  "0876": {
    "postcode": "0100876",
    "prefecture": "秋田県",
    "prefecture_kana": "アキタケン",
    "prefecture_code": 5,
    "city": "秋田市",
    "city_kana": "アキタシ",
    "town": "千秋公園",
    "town_kana": "センシュウコウエン",
    "street": null,
    "office_name": null,
    "office_name_kana": null
  },
  "0877": {
    "postcode": "0100877",
    "prefecture": "秋田県",
    "prefecture_kana": "アキタケン",
    "prefecture_code": 5,
    "city": "秋田市",
    "city_kana": "アキタシ",
    "town": "千秋矢留町",
    "town_kana": "センシュウヤドメマチ",
    "street": null,
    "office_name": null,
    "office_name_kana": null
  },
  "0901": {
    "postcode": "0100901",
    "prefecture": "秋田県",
    "prefecture_kana": "アキタケン",
    "prefecture_code": 5,
    "city": "秋田市",
    "city_kana": "アキタシ",
    "town": "保戸野桜町",
    "town_kana": "ホドノサクラマチ",
    "street": null,
    "office_name": null,
    "office_name_kana": null
  },
  "0902": {
    "postcode": "0100902",
    "prefecture": "秋田県",
    "prefecture_kana": "アキタケン",
    "prefecture_code": 5,
    "city": "秋田市",
    "city_kana": "アキタシ",
    "town": "保戸野金砂町",
    "town_kana": "ホドノカナサマチ",
    "street": null,
    "office_name": null,
    "office_name_kana": null
  },
  "0903": {
    "postcode": "0100903",
    "prefecture": "秋田県",
    "prefecture_kana": "アキタケン",
    "prefecture_code": 5,
    "city": "秋田市",
    "city_kana": "アキタシ",
    "town": "保戸野八丁",
    "town_kana": "ホドノハッチョウ",
    "street": null,
    "office_name": null,
    "office_name_kana": null
  },
  "0904": {
    "postcode": "0100904",
    "prefecture": "秋田県",
    "prefecture_kana": "アキタケン",
    "prefecture_code": 5,
    "city": "秋田市",
    "city_kana": "アキタシ",
    "town": "保戸野原の町",
    "town_kana": "ホドノハラノマチ",
    "street": null,
    "office_name": null,
    "office_name_kana": null
  },
  "0905": {
    "postcode": "0100905",
    "prefecture": "秋田県",
    "prefecture_kana": "アキタケン",
    "prefecture_code": 5,
    "city": "秋田市",
    "city_kana": "アキタシ",
    "town": "保戸野中町",
    "town_kana": "ホドノナカチョウ",
    "street": null,
    "office_name": null,
    "office_name_kana": null
  },
  "0911": {
    "postcode": "0100911",
    "prefecture": "秋田県",
    "prefecture_kana": "アキタケン",
    "prefecture_code": 5,
    "city": "秋田市",
    "city_kana": "アキタシ",
    "town": "保戸野すわ町",
    "town_kana": "ホドノスワチョウ",
    "street": null,
    "office_name": null,
    "office_name_kana": null
  },
  "0912": {
    "postcode": "0100912",
    "prefecture": "秋田県",
    "prefecture_kana": "アキタケン",
    "prefecture_code": 5,
    "city": "秋田市",
    "city_kana": "アキタシ",
    "town": "保戸野通町",
    "town_kana": "ホドノトオリマチ",
    "street": null,
    "office_name": null,
    "office_name_kana": null
  },
  "0913": {
    "postcode": "0100913",
    "prefecture": "秋田県",
    "prefecture_kana": "アキタケン",
    "prefecture_code": 5,
    "city": "秋田市",
    "city_kana": "アキタシ",
    "town": "保戸野鉄砲町",
    "town_kana": "ホドノテッポウマチ",
    "street": null,
    "office_name": null,
    "office_name_kana": null
  },
  "0914": {
    "postcode": "0100914",
    "prefecture": "秋田県",
    "prefecture_kana": "アキタケン",
    "prefecture_code": 5,
    "city": "秋田市",
    "city_kana": "アキタシ",
    "town": "保戸野千代田町",
    "town_kana": "ホドノチヨダマチ",
    "street": null,
    "office_name": null,
    "office_name_kana": null
  },
  "0915": {
    "postcode": "0100915",
    "prefecture": "秋田県",
    "prefecture_kana": "アキタケン",
    "prefecture_code": 5,
    "city": "秋田市",
    "city_kana": "アキタシ",
    "town": "保戸野",
    "town_kana": "ホドノ",
    "street": null,
    "office_name": null,
    "office_name_kana": null
  },
  "0916": {
    "postcode": "0100916",
    "prefecture": "秋田県",
    "prefecture_kana": "アキタケン",
    "prefecture_code": 5,
    "city": "秋田市",
    "city_kana": "アキタシ",
    "town": "泉北",
    "town_kana": "イズミキタ",
    "street": null,
    "office_name": null,
    "office_name_kana": null
  },
  "0917": {
    "postcode": "0100917",
    "prefecture": "秋田県",
    "prefecture_kana": "アキタケン",
    "prefecture_code": 5,
    "city": "秋田市",
    "city_kana": "アキタシ",
    "town": "泉中央",
    "town_kana": "イズミチュウオウ",
    "street": null,
    "office_name": null,
    "office_name_kana": null
  },
  "0918": {
    "postcode": "0100918",
    "prefecture": "秋田県",
    "prefecture_kana": "アキタケン",
    "prefecture_code": 5,
    "city": "秋田市",
    "city_kana": "アキタシ",
    "town": "泉南",
    "town_kana": "イズミミナミ",
    "street": null,
    "office_name": null,
    "office_name_kana": null
  },
  "0921": {
    "postcode": "0100921",
    "prefecture": "秋田県",
    "prefecture_kana": "アキタケン",
    "prefecture_code": 5,
    "city": "秋田市",
    "city_kana": "アキタシ",
    "town": "大町",
    "town_kana": "オオマチ",
    "street": null,
    "office_name": null,
    "office_name_kana": null
  },
  "0922": {
    "postcode": "0100922",
    "prefecture": "秋田県",
    "prefecture_kana": "アキタケン",
    "prefecture_code": 5,
    "city": "秋田市",
    "city_kana": "アキタシ",
    "town": "旭北栄町",
    "town_kana": "キョクホクサカエマチ",
    "street": null,
    "office_name": null,
    "office_name_kana": null
  },
  "0923": {
    "postcode": "0100923",
    "prefecture": "秋田県",
    "prefecture_kana": "アキタケン",
    "prefecture_code": 5,
    "city": "秋田市",
    "city_kana": "アキタシ",
    "town": "旭北錦町",
    "town_kana": "キョクホクニシキマチ",
    "street": null,
    "office_name": null,
    "office_name_kana": null
  },
  "0924": {
    "postcode": "0100924",
    "prefecture": "秋田県",
    "prefecture_kana": "アキタケン",
    "prefecture_code": 5,
    "city": "秋田市",
    "city_kana": "アキタシ",
    "town": "旭北寺町",
    "town_kana": "キョクホクテラマチ",
    "street": null,
    "office_name": null,
    "office_name_kana": null
  },
  "0925": {
    "postcode": "0100925",
    "prefecture": "秋田県",
    "prefecture_kana": "アキタケン",
    "prefecture_code": 5,
    "city": "秋田市",
    "city_kana": "アキタシ",
    "town": "旭南",
    "town_kana": "キョクナン",
    "street": null,
    "office_name": null,
    "office_name_kana": null
  },
  "0931": {
    "postcode": "0100931",
    "prefecture": "秋田県",
    "prefecture_kana": "アキタケン",
    "prefecture_code": 5,
    "city": "秋田市",
    "city_kana": "アキタシ",
    "town": "川元山下町",
    "town_kana": "カワモトヤマシタマチ",
    "street": null,
    "office_name": null,
    "office_name_kana": null
  },
  "0932": {
    "postcode": "0100932",
    "prefecture": "秋田県",
    "prefecture_kana": "アキタケン",
    "prefecture_code": 5,
    "city": "秋田市",
    "city_kana": "アキタシ",
    "town": "川元開和町",
    "town_kana": "カワモトカイワマチ",
    "street": null,
    "office_name": null,
    "office_name_kana": null
  },
  "0933": {
    "postcode": "0100933",
    "prefecture": "秋田県",
    "prefecture_kana": "アキタケン",
    "prefecture_code": 5,
    "city": "秋田市",
    "city_kana": "アキタシ",
    "town": "川元松丘町",
    "town_kana": "カワモトマツオカマチ",
    "street": null,
    "office_name": null,
    "office_name_kana": null
  },
  "0934": {
    "postcode": "0100934",
    "prefecture": "秋田県",
    "prefecture_kana": "アキタケン",
    "prefecture_code": 5,
    "city": "秋田市",
    "city_kana": "アキタシ",
    "town": "川元むつみ町",
    "town_kana": "カワモトムツミマチ",
    "street": null,
    "office_name": null,
    "office_name_kana": null
  },
  "0935": {
    "postcode": "0100935",
    "prefecture": "秋田県",
    "prefecture_kana": "アキタケン",
    "prefecture_code": 5,
    "city": "秋田市",
    "city_kana": "アキタシ",
    "town": "川元小川町",
    "town_kana": "カワモトオガワマチ",
    "street": null,
    "office_name": null,
    "office_name_kana": null
  },
  "0941": {
    "postcode": "0100941",
    "prefecture": "秋田県",
    "prefecture_kana": "アキタケン",
    "prefecture_code": 5,
    "city": "秋田市",
    "city_kana": "アキタシ",
    "town": "川尻町",
    "town_kana": "カワシリマチ",
    "street": null,
    "office_name": null,
    "office_name_kana": null
  },
  "0942": {
    "postcode": "0100942",
    "prefecture": "秋田県",
    "prefecture_kana": "アキタケン",
    "prefecture_code": 5,
    "city": "秋田市",
    "city_kana": "アキタシ",
    "town": "川尻大川町",
    "town_kana": "カワシリオオカワマチ",
    "street": null,
    "office_name": null,
    "office_name_kana": null
  },
  "0943": {
    "postcode": "0100943",
    "prefecture": "秋田県",
    "prefecture_kana": "アキタケン",
    "prefecture_code": 5,
    "city": "秋田市",
    "city_kana": "アキタシ",
    "town": "川尻御休町",
    "town_kana": "カワシリオヤスミマチ",
    "street": null,
    "office_name": null,
    "office_name_kana": null
  },
  "0944": {
    "postcode": "0100944",
    "prefecture": "秋田県",
    "prefecture_kana": "アキタケン",
    "prefecture_code": 5,
    "city": "秋田市",
    "city_kana": "アキタシ",
    "town": "川尻若葉町",
    "town_kana": "カワシリワカバマチ",
    "street": null,
    "office_name": null,
    "office_name_kana": null
  },
  "0945": {
    "postcode": "0100945",
    "prefecture": "秋田県",
    "prefecture_kana": "アキタケン",
    "prefecture_code": 5,
    "city": "秋田市",
    "city_kana": "アキタシ",
    "town": "川尻みよし町",
    "town_kana": "カワシリミヨシマチ",
    "street": null,
    "office_name": null,
    "office_name_kana": null
  },
  "0946": {
    "postcode": "0100946",
    "prefecture": "秋田県",
    "prefecture_kana": "アキタケン",
    "prefecture_code": 5,
    "city": "秋田市",
    "city_kana": "アキタシ",
    "town": "川尻総社町",
    "town_kana": "カワシリソウシャマチ",
    "street": null,
    "office_name": null,
    "office_name_kana": null
  },
  "0947": {
    "postcode": "0100947",
    "prefecture": "秋田県",
    "prefecture_kana": "アキタケン",
    "prefecture_code": 5,
    "city": "秋田市",
    "city_kana": "アキタシ",
    "town": "川尻上野町",
    "town_kana": "カワシリウエノマチ",
    "street": null,
    "office_name": null,
    "office_name_kana": null
  },
  "0948": {
    "postcode": "0100948",
    "prefecture": "秋田県",
    "prefecture_kana": "アキタケン",
    "prefecture_code": 5,
    "city": "秋田市",
    "city_kana": "アキタシ",
    "town": "川尻新川町",
    "town_kana": "カワシリシンカワマチ",
    "street": null,
    "office_name": null,
    "office_name_kana": null
  },
  "0951": {
    "postcode": "0100951",
    "prefecture": "秋田県",
    "prefecture_kana": "アキタケン",
    "prefecture_code": 5,
    "city": "秋田市",
    "city_kana": "アキタシ",
    "town": "山王",
    "town_kana": "サンノウ",
    "street": null,
    "office_name": null,
    "office_name_kana": null
  },
  "0952": {
    "postcode": "0100952",
    "prefecture": "秋田県",
    "prefecture_kana": "アキタケン",
    "prefecture_code": 5,
    "city": "秋田市",
    "city_kana": "アキタシ",
    "town": "山王新町",
    "town_kana": "サンノウシンマチ",
    "street": null,
    "office_name": null,
    "office_name_kana": null
  },
  "0953": {
    "postcode": "0100953",
    "prefecture": "秋田県",
    "prefecture_kana": "アキタケン",
    "prefecture_code": 5,
    "city": "秋田市",
    "city_kana": "アキタシ",
    "town": "山王中園町",
    "town_kana": "サンノウナカゾノマチ",
    "street": null,
    "office_name": null,
    "office_name_kana": null
  },
  "0954": {
    "postcode": "0100954",
    "prefecture": "秋田県",
    "prefecture_kana": "アキタケン",
    "prefecture_code": 5,
    "city": "秋田市",
    "city_kana": "アキタシ",
    "town": "山王沼田町",
    "town_kana": "サンノウヌマタマチ",
    "street": null,
    "office_name": null,
    "office_name_kana": null
  },
  "0955": {
    "postcode": "0100955",
    "prefecture": "秋田県",
    "prefecture_kana": "アキタケン",
    "prefecture_code": 5,
    "city": "秋田市",
    "city_kana": "アキタシ",
    "town": "山王中島町",
    "town_kana": "サンノウナカジママチ",
    "street": null,
    "office_name": null,
    "office_name_kana": null
  },
  "0956": {
    "postcode": "0100956",
    "prefecture": "秋田県",
    "prefecture_kana": "アキタケン",
    "prefecture_code": 5,
    "city": "秋田市",
    "city_kana": "アキタシ",
    "town": "山王臨海町",
    "town_kana": "サンノウリンカイマチ",
    "street": null,
    "office_name": null,
    "office_name_kana": null
  },
  "0961": {
    "postcode": "0100961",
    "prefecture": "秋田県",
    "prefecture_kana": "アキタケン",
    "prefecture_code": 5,
    "city": "秋田市",
    "city_kana": "アキタシ",
    "town": "八橋イサノ",
    "town_kana": "ヤバセイサノ",
    "street": null,
    "office_name": null,
    "office_name_kana": null
  },
  "0962": {
    "postcode": "0100962",
    "prefecture": "秋田県",
    "prefecture_kana": "アキタケン",
    "prefecture_code": 5,
    "city": "秋田市",
    "city_kana": "アキタシ",
    "town": "八橋大畑",
    "town_kana": "ヤバセオオハタ",
    "street": null,
    "office_name": null,
    "office_name_kana": null
  },
  "0963": {
    "postcode": "0100963",
    "prefecture": "秋田県",
    "prefecture_kana": "アキタケン",
    "prefecture_code": 5,
    "city": "秋田市",
    "city_kana": "アキタシ",
    "town": "八橋大沼町",
    "town_kana": "ヤバセオオヌマチョウ",
    "street": null,
    "office_name": null,
    "office_name_kana": null
  },
  "0964": {
    "postcode": "0100964",
    "prefecture": "秋田県",
    "prefecture_kana": "アキタケン",
    "prefecture_code": 5,
    "city": "秋田市",
    "city_kana": "アキタシ",
    "town": "八橋鯲沼町",
    "town_kana": "ヤバセドジョウヌママチ",
    "street": null,
    "office_name": null,
    "office_name_kana": null
  },
  "0965": {
    "postcode": "0100965",
    "prefecture": "秋田県",
    "prefecture_kana": "アキタケン",
    "prefecture_code": 5,
    "city": "秋田市",
    "city_kana": "アキタシ",
    "town": "八橋新川向",
    "town_kana": "ヤバセシンカワムカイ",
    "street": null,
    "office_name": null,
    "office_name_kana": null
  },
  "0966": {
    "postcode": "0100966",
    "prefecture": "秋田県",
    "prefecture_kana": "アキタケン",
    "prefecture_code": 5,
    "city": "秋田市",
    "city_kana": "アキタシ",
    "town": "高陽青柳町",
    "town_kana": "コウヨウアオヤギチョウ",
    "street": null,
    "office_name": null,
    "office_name_kana": null
  },
  "0967": {
    "postcode": "0100967",
    "prefecture": "秋田県",
    "prefecture_kana": "アキタケン",
    "prefecture_code": 5,
    "city": "秋田市",
    "city_kana": "アキタシ",
    "town": "高陽幸町",
    "town_kana": "コウヨウサイワイチョウ",
    "street": null,
    "office_name": null,
    "office_name_kana": null
  },
  "0971": {
    "postcode": "0100971",
    "prefecture": "秋田県",
    "prefecture_kana": "アキタケン",
    "prefecture_code": 5,
    "city": "秋田市",
    "city_kana": "アキタシ",
    "town": "八橋三和町",
    "town_kana": "ヤバセミワチョウ",
    "street": null,
    "office_name": null,
    "office_name_kana": null
  },
  "0972": {
    "postcode": "0100972",
    "prefecture": "秋田県",
    "prefecture_kana": "アキタケン",
    "prefecture_code": 5,
    "city": "秋田市",
    "city_kana": "アキタシ",
    "town": "八橋田五郎",
    "town_kana": "ヤバセタゴロウ",
    "street": null,
    "office_name": null,
    "office_name_kana": null
  },
  "0973": {
    "postcode": "0100973",
    "prefecture": "秋田県",
    "prefecture_kana": "アキタケン",
    "prefecture_code": 5,
    "city": "秋田市",
    "city_kana": "アキタシ",
    "town": "八橋本町",
    "town_kana": "ヤバセホンチョウ",
    "street": null,
    "office_name": null,
    "office_name_kana": null
  },
  "0974": {
    "postcode": "0100974",
    "prefecture": "秋田県",
    "prefecture_kana": "アキタケン",
    "prefecture_code": 5,
    "city": "秋田市",
    "city_kana": "アキタシ",
    "town": "八橋運動公園",
    "town_kana": "ヤバセウンドウコウエン",
    "street": null,
    "office_name": null,
    "office_name_kana": null
  },
  "0975": {
    "postcode": "0100975",
    "prefecture": "秋田県",
    "prefecture_kana": "アキタケン",
    "prefecture_code": 5,
    "city": "秋田市",
    "city_kana": "アキタシ",
    "town": "八橋",
    "town_kana": "ヤバセ",
    "street": null,
    "office_name": null,
    "office_name_kana": null
  },
  "0976": {
    "postcode": "0100976",
    "prefecture": "秋田県",
    "prefecture_kana": "アキタケン",
    "prefecture_code": 5,
    "city": "秋田市",
    "city_kana": "アキタシ",
    "town": "八橋南",
    "town_kana": "ヤバセミナミ",
    "street": null,
    "office_name": null,
    "office_name_kana": null
  },
  "0977": {
    "postcode": "0100977",
    "prefecture": "秋田県",
    "prefecture_kana": "アキタケン",
    "prefecture_code": 5,
    "city": "秋田市",
    "city_kana": "アキタシ",
    "town": "八橋大道東",
    "town_kana": "ヤバセダイドウヒガシ",
    "street": null,
    "office_name": null,
    "office_name_kana": null
  },
  "1101": {
    "postcode": "0101101",
    "prefecture": "秋田県",
    "prefecture_kana": "アキタケン",
    "prefecture_code": 5,
    "city": "秋田市",
    "city_kana": "アキタシ",
    "town": "太平八田",
    "town_kana": "タイヘイハッタ",
    "street": null,
    "office_name": null,
    "office_name_kana": null
  },
  "1102": {
    "postcode": "0101102",
    "prefecture": "秋田県",
    "prefecture_kana": "アキタケン",
    "prefecture_code": 5,
    "city": "秋田市",
    "city_kana": "アキタシ",
    "town": "太平目長崎",
    "town_kana": "タイヘイメナガサキ",
    "street": null,
    "office_name": null,
    "office_name_kana": null
  },
  "1103": {
    "postcode": "0101103",
    "prefecture": "秋田県",
    "prefecture_kana": "アキタケン",
    "prefecture_code": 5,
    "city": "秋田市",
    "city_kana": "アキタシ",
    "town": "太平中関",
    "town_kana": "タイヘイナカゼキ",
    "street": null,
    "office_name": null,
    "office_name_kana": null
  },
  "1104": {
    "postcode": "0101104",
    "prefecture": "秋田県",
    "prefecture_kana": "アキタケン",
    "prefecture_code": 5,
    "city": "秋田市",
    "city_kana": "アキタシ",
    "town": "太平寺庭",
    "town_kana": "タイヘイテラニワ",
    "street": null,
    "office_name": null,
    "office_name_kana": null
  },
  "1105": {
    "postcode": "0101105",
    "prefecture": "秋田県",
    "prefecture_kana": "アキタケン",
    "prefecture_code": 5,
    "city": "秋田市",
    "city_kana": "アキタシ",
    "town": "太平黒沢",
    "town_kana": "タイヘイクロサワ",
    "street": null,
    "office_name": null,
    "office_name_kana": null
  },
  "1106": {
    "postcode": "0101106",
    "prefecture": "秋田県",
    "prefecture_kana": "アキタケン",
    "prefecture_code": 5,
    "city": "秋田市",
    "city_kana": "アキタシ",
    "town": "太平山谷",
    "town_kana": "タイヘイヤマヤ",
    "street": null,
    "office_name": null,
    "office_name_kana": null
  },
  "1201": {
    "postcode": "0101201",
    "prefecture": "秋田県",
    "prefecture_kana": "アキタケン",
    "prefecture_code": 5,
    "city": "秋田市",
    "city_kana": "アキタシ",
    "town": "雄和田草川",
    "town_kana": "ユウワタクサガワ",
    "street": null,
    "office_name": null,
    "office_name_kana": null
  },
  "1202": {
    "postcode": "0101202",
    "prefecture": "秋田県",
    "prefecture_kana": "アキタケン",
    "prefecture_code": 5,
    "city": "秋田市",
    "city_kana": "アキタシ",
    "town": "雄和芝野新田",
    "town_kana": "ユウワシバノシンデン",
    "street": null,
    "office_name": null,
    "office_name_kana": null
  },
  "1203": {
    "postcode": "0101203",
    "prefecture": "秋田県",
    "prefecture_kana": "アキタケン",
    "prefecture_code": 5,
    "city": "秋田市",
    "city_kana": "アキタシ",
    "town": "雄和下黒瀬",
    "town_kana": "ユウワシモクロセ",
    "street": null,
    "office_name": null,
    "office_name_kana": null
  },
  "1211": {
    "postcode": "0101211",
    "prefecture": "秋田県",
    "prefecture_kana": "アキタケン",
    "prefecture_code": 5,
    "city": "秋田市",
    "city_kana": "アキタシ",
    "town": "雄和椿川",
    "town_kana": "ユウワツバキカワ",
    "street": null,
    "office_name": null,
    "office_name_kana": null
  },
  "1212": {
    "postcode": "0101212",
    "prefecture": "秋田県",
    "prefecture_kana": "アキタケン",
    "prefecture_code": 5,
    "city": "秋田市",
    "city_kana": "アキタシ",
    "town": "雄和平尾鳥",
    "town_kana": "ユウワヒラオトリ",
    "street": null,
    "office_name": null,
    "office_name_kana": null
  },
  "1221": {
    "postcode": "0101221",
    "prefecture": "秋田県",
    "prefecture_kana": "アキタケン",
    "prefecture_code": 5,
    "city": "秋田市",
    "city_kana": "アキタシ",
    "town": "雄和平沢",
    "town_kana": "ユウワヒラサワ",
    "street": null,
    "office_name": null,
    "office_name_kana": null
  },
  "1222": {
    "postcode": "0101222",
    "prefecture": "秋田県",
    "prefecture_kana": "アキタケン",
    "prefecture_code": 5,
    "city": "秋田市",
    "city_kana": "アキタシ",
    "town": "雄和石田",
    "town_kana": "ユウワイシダ",
    "street": null,
    "office_name": null,
    "office_name_kana": null
  },
  "1223": {
    "postcode": "0101223",
    "prefecture": "秋田県",
    "prefecture_kana": "アキタケン",
    "prefecture_code": 5,
    "city": "秋田市",
    "city_kana": "アキタシ",
    "town": "雄和妙法",
    "town_kana": "ユウワミョウホウ",
    "street": null,
    "office_name": null,
    "office_name_kana": null
  },
  "1224": {
    "postcode": "0101224",
    "prefecture": "秋田県",
    "prefecture_kana": "アキタケン",
    "prefecture_code": 5,
    "city": "秋田市",
    "city_kana": "アキタシ",
    "town": "雄和種沢",
    "town_kana": "ユウワタネザワ",
    "street": null,
    "office_name": null,
    "office_name_kana": null
  },
  "1225": {
    "postcode": "0101225",
    "prefecture": "秋田県",
    "prefecture_kana": "アキタケン",
    "prefecture_code": 5,
    "city": "秋田市",
    "city_kana": "アキタシ",
    "town": "雄和左手子",
    "town_kana": "ユウワサデコ",
    "street": null,
    "office_name": null,
    "office_name_kana": null
  },
  "1231": {
    "postcode": "0101231",
    "prefecture": "秋田県",
    "prefecture_kana": "アキタケン",
    "prefecture_code": 5,
    "city": "秋田市",
    "city_kana": "アキタシ",
    "town": "雄和相川",
    "town_kana": "ユウワアイカワ",
    "street": null,
    "office_name": null,
    "office_name_kana": null
  },
  "1232": {
    "postcode": "0101232",
    "prefecture": "秋田県",
    "prefecture_kana": "アキタケン",
    "prefecture_code": 5,
    "city": "秋田市",
    "city_kana": "アキタシ",
    "town": "雄和戸賀沢",
    "town_kana": "ユウワトガザワ",
    "street": null,
    "office_name": null,
    "office_name_kana": null
  },
  "1233": {
    "postcode": "0101233",
    "prefecture": "秋田県",
    "prefecture_kana": "アキタケン",
    "prefecture_code": 5,
    "city": "秋田市",
    "city_kana": "アキタシ",
    "town": "雄和女米木",
    "town_kana": "ユウワメメキ",
    "street": null,
    "office_name": null,
    "office_name_kana": null
  },
  "1292": {
    "postcode": "0101292",
    "prefecture": "秋田県",
    "prefecture_kana": "アキタケン",
    "prefecture_code": 5,
    "city": "秋田市",
    "city_kana": "アキタシ",
    "town": "雄和椿川",
    "town_kana": "ユウワツバキカワ",
    "street": "字奥椿岱１９３番地２",
    "office_name": "公立大学法人　国際教養大学",
    "office_name_kana": "コウリツダイガクホウジン コクサイキヨウヨウダイガク"
  },
  "1341": {
    "postcode": "0101341",
    "prefecture": "秋田県",
    "prefecture_kana": "アキタケン",
    "prefecture_code": 5,
    "city": "秋田市",
    "city_kana": "アキタシ",
    "town": "雄和新波",
    "town_kana": "ユウワアラワ",
    "street": null,
    "office_name": null,
    "office_name_kana": null
  },
  "1342": {
    "postcode": "0101342",
    "prefecture": "秋田県",
    "prefecture_kana": "アキタケン",
    "prefecture_code": 5,
    "city": "秋田市",
    "city_kana": "アキタシ",
    "town": "雄和神ケ村",
    "town_kana": "ユウワジンガムラ",
    "street": null,
    "office_name": null,
    "office_name_kana": null
  },
  "1343": {
    "postcode": "0101343",
    "prefecture": "秋田県",
    "prefecture_kana": "アキタケン",
    "prefecture_code": 5,
    "city": "秋田市",
    "city_kana": "アキタシ",
    "town": "雄和繋",
    "town_kana": "ユウワツナギ",
    "street": null,
    "office_name": null,
    "office_name_kana": null
  },
  "1344": {
    "postcode": "0101344",
    "prefecture": "秋田県",
    "prefecture_kana": "アキタケン",
    "prefecture_code": 5,
    "city": "秋田市",
    "city_kana": "アキタシ",
    "town": "雄和向野",
    "town_kana": "ユウワムカイノ",
    "street": null,
    "office_name": null,
    "office_name_kana": null
  },
  "1351": {
    "postcode": "0101351",
    "prefecture": "秋田県",
    "prefecture_kana": "アキタケン",
    "prefecture_code": 5,
    "city": "秋田市",
    "city_kana": "アキタシ",
    "town": "雄和碇田",
    "town_kana": "ユウワイカリダ",
    "street": null,
    "office_name": null,
    "office_name_kana": null
  },
  "1352": {
    "postcode": "0101352",
    "prefecture": "秋田県",
    "prefecture_kana": "アキタケン",
    "prefecture_code": 5,
    "city": "秋田市",
    "city_kana": "アキタシ",
    "town": "雄和萱ケ沢",
    "town_kana": "ユウワカヤガサワ",
    "street": null,
    "office_name": null,
    "office_name_kana": null
  },
  "1401": {
    "postcode": "0101401",
    "prefecture": "秋田県",
    "prefecture_kana": "アキタケン",
    "prefecture_code": 5,
    "city": "秋田市",
    "city_kana": "アキタシ",
    "town": "上北手大杉沢",
    "town_kana": "カミキタテオオスギサワ",
    "street": null,
    "office_name": null,
    "office_name_kana": null
  },
  "1402": {
    "postcode": "0101402",
    "prefecture": "秋田県",
    "prefecture_kana": "アキタケン",
    "prefecture_code": 5,
    "city": "秋田市",
    "city_kana": "アキタシ",
    "town": "上北手小山田",
    "town_kana": "カミキタテオヤマダ",
    "street": null,
    "office_name": null,
    "office_name_kana": null
  },
  "1403": {
    "postcode": "0101403",
    "prefecture": "秋田県",
    "prefecture_kana": "アキタケン",
    "prefecture_code": 5,
    "city": "秋田市",
    "city_kana": "アキタシ",
    "town": "上北手荒巻",
    "town_kana": "カミキタテアラマキ",
    "street": null,
    "office_name": null,
    "office_name_kana": null
  },
  "1404": {
    "postcode": "0101404",
    "prefecture": "秋田県",
    "prefecture_kana": "アキタケン",
    "prefecture_code": 5,
    "city": "秋田市",
    "city_kana": "アキタシ",
    "town": "上北手古野",
    "town_kana": "カミキタテコノ",
    "street": null,
    "office_name": null,
    "office_name_kana": null
  },
  "1405": {
    "postcode": "0101405",
    "prefecture": "秋田県",
    "prefecture_kana": "アキタケン",
    "prefecture_code": 5,
    "city": "秋田市",
    "city_kana": "アキタシ",
    "town": "上北手大山田",
    "town_kana": "カミキタテオオヤマダ",
    "street": null,
    "office_name": null,
    "office_name_kana": null
  },
  "1406": {
    "postcode": "0101406",
    "prefecture": "秋田県",
    "prefecture_kana": "アキタケン",
    "prefecture_code": 5,
    "city": "秋田市",
    "city_kana": "アキタシ",
    "town": "上北手猿田",
    "town_kana": "カミキタテサルタ",
    "street": null,
    "office_name": null,
    "office_name_kana": null
  },
  "1407": {
    "postcode": "0101407",
    "prefecture": "秋田県",
    "prefecture_kana": "アキタケン",
    "prefecture_code": 5,
    "city": "秋田市",
    "city_kana": "アキタシ",
    "town": "上北手百崎",
    "town_kana": "カミキタテモモザキ",
    "street": null,
    "office_name": null,
    "office_name_kana": null
  },
  "1408": {
    "postcode": "0101408",
    "prefecture": "秋田県",
    "prefecture_kana": "アキタケン",
    "prefecture_code": 5,
    "city": "秋田市",
    "city_kana": "アキタシ",
    "town": "上北手大戸",
    "town_kana": "カミキタテオオド",
    "street": null,
    "office_name": null,
    "office_name_kana": null
  },
  "1409": {
    "postcode": "0101409",
    "prefecture": "秋田県",
    "prefecture_kana": "アキタケン",
    "prefecture_code": 5,
    "city": "秋田市",
    "city_kana": "アキタシ",
    "town": "南ケ丘",
    "town_kana": "ミナミガオカ",
    "street": null,
    "office_name": null,
    "office_name_kana": null
  },
  "1411": {
    "postcode": "0101411",
    "prefecture": "秋田県",
    "prefecture_kana": "アキタケン",
    "prefecture_code": 5,
    "city": "秋田市",
    "city_kana": "アキタシ",
    "town": "上北手御所野",
    "town_kana": "カミキタテゴショノ",
    "street": null,
    "office_name": null,
    "office_name_kana": null
  },
  "1412": {
    "postcode": "0101412",
    "prefecture": "秋田県",
    "prefecture_kana": "アキタケン",
    "prefecture_code": 5,
    "city": "秋田市",
    "city_kana": "アキタシ",
    "town": "御所野下堤",
    "town_kana": "ゴショノシモツツミ",
    "street": null,
    "office_name": null,
    "office_name_kana": null
  },
  "1413": {
    "postcode": "0101413",
    "prefecture": "秋田県",
    "prefecture_kana": "アキタケン",
    "prefecture_code": 5,
    "city": "秋田市",
    "city_kana": "アキタシ",
    "town": "御所野地蔵田",
    "town_kana": "ゴショノジゾウデン",
    "street": null,
    "office_name": null,
    "office_name_kana": null
  },
  "1414": {
    "postcode": "0101414",
    "prefecture": "秋田県",
    "prefecture_kana": "アキタケン",
    "prefecture_code": 5,
    "city": "秋田市",
    "city_kana": "アキタシ",
    "town": "御所野元町",
    "town_kana": "ゴショノモトマチ",
    "street": null,
    "office_name": null,
    "office_name_kana": null
  },
  "1415": {
    "postcode": "0101415",
    "prefecture": "秋田県",
    "prefecture_kana": "アキタケン",
    "prefecture_code": 5,
    "city": "秋田市",
    "city_kana": "アキタシ",
    "town": "御所野湯本",
    "town_kana": "ゴショノユモト",
    "street": null,
    "office_name": null,
    "office_name_kana": null
  },
  "1416": {
    "postcode": "0101416",
    "prefecture": "秋田県",
    "prefecture_kana": "アキタケン",
    "prefecture_code": 5,
    "city": "秋田市",
    "city_kana": "アキタシ",
    "town": "四ツ小屋末戸松本",
    "town_kana": "ヨツゴヤスエドマツモト",
    "street": null,
    "office_name": null,
    "office_name_kana": null
  },
  "1417": {
    "postcode": "0101417",
    "prefecture": "秋田県",
    "prefecture_kana": "アキタケン",
    "prefecture_code": 5,
    "city": "秋田市",
    "city_kana": "アキタシ",
    "town": "四ツ小屋",
    "town_kana": "ヨツゴヤ",
    "street": null,
    "office_name": null,
    "office_name_kana": null
  },
  "1418": {
    "postcode": "0101418",
    "prefecture": "秋田県",
    "prefecture_kana": "アキタケン",
    "prefecture_code": 5,
    "city": "秋田市",
    "city_kana": "アキタシ",
    "town": "四ツ小屋小阿地",
    "town_kana": "ヨツゴヤコアジ",
    "street": null,
    "office_name": null,
    "office_name_kana": null
  },
  "1419": {
    "postcode": "0101419",
    "prefecture": "秋田県",
    "prefecture_kana": "アキタケン",
    "prefecture_code": 5,
    "city": "秋田市",
    "city_kana": "アキタシ",
    "town": "御所野堤台",
    "town_kana": "ゴショノツツミダイ",
    "street": null,
    "office_name": null,
    "office_name_kana": null
  },
  "1420": {
    "postcode": "0101420",
    "prefecture": "秋田県",
    "prefecture_kana": "アキタケン",
    "prefecture_code": 5,
    "city": "秋田市",
    "city_kana": "アキタシ",
    "town": "大住南",
    "town_kana": "オオスミミナミ",
    "street": null,
    "office_name": null,
    "office_name_kana": null
  },
  "1421": {
    "postcode": "0101421",
    "prefecture": "秋田県",
    "prefecture_kana": "アキタケン",
    "prefecture_code": 5,
    "city": "秋田市",
    "city_kana": "アキタシ",
    "town": "仁井田本町",
    "town_kana": "ニイダホンチョウ",
    "street": null,
    "office_name": null,
    "office_name_kana": null
  },
  "1422": {
    "postcode": "0101422",
    "prefecture": "秋田県",
    "prefecture_kana": "アキタケン",
    "prefecture_code": 5,
    "city": "秋田市",
    "city_kana": "アキタシ",
    "town": "仁井田目長田",
    "town_kana": "ニイダメナガタ",
    "street": null,
    "office_name": null,
    "office_name_kana": null
  },
  "1423": {
    "postcode": "0101423",
    "prefecture": "秋田県",
    "prefecture_kana": "アキタケン",
    "prefecture_code": 5,
    "city": "秋田市",
    "city_kana": "アキタシ",
    "town": "仁井田",
    "town_kana": "ニイダ",
    "street": null,
    "office_name": null,
    "office_name_kana": null
  },
  "1424": {
    "postcode": "0101424",
    "prefecture": "秋田県",
    "prefecture_kana": "アキタケン",
    "prefecture_code": 5,
    "city": "秋田市",
    "city_kana": "アキタシ",
    "town": "御野場",
    "town_kana": "オノバ",
    "street": null,
    "office_name": null,
    "office_name_kana": null
  },
  "1425": {
    "postcode": "0101425",
    "prefecture": "秋田県",
    "prefecture_kana": "アキタケン",
    "prefecture_code": 5,
    "city": "秋田市",
    "city_kana": "アキタシ",
    "town": "御野場新町",
    "town_kana": "オノバシンマチ",
    "street": null,
    "office_name": null,
    "office_name_kana": null
  },
  "1426": {
    "postcode": "0101426",
    "prefecture": "秋田県",
    "prefecture_kana": "アキタケン",
    "prefecture_code": 5,
    "city": "秋田市",
    "city_kana": "アキタシ",
    "town": "仁井田小中島",
    "town_kana": "ニイダコナカジマ",
    "street": null,
    "office_name": null,
    "office_name_kana": null
  },
  "1427": {
    "postcode": "0101427",
    "prefecture": "秋田県",
    "prefecture_kana": "アキタケン",
    "prefecture_code": 5,
    "city": "秋田市",
    "city_kana": "アキタシ",
    "town": "仁井田新田",
    "town_kana": "ニイダシンデン",
    "street": null,
    "office_name": null,
    "office_name_kana": null
  },
  "1428": {
    "postcode": "0101428",
    "prefecture": "秋田県",
    "prefecture_kana": "アキタケン",
    "prefecture_code": 5,
    "city": "秋田市",
    "city_kana": "アキタシ",
    "town": "大平台",
    "town_kana": "オオヒラダイ",
    "street": null,
    "office_name": null,
    "office_name_kana": null
  },
  "1429": {
    "postcode": "0101429",
    "prefecture": "秋田県",
    "prefecture_kana": "アキタケン",
    "prefecture_code": 5,
    "city": "秋田市",
    "city_kana": "アキタシ",
    "town": "山手台",
    "town_kana": "ヤマテダイ",
    "street": null,
    "office_name": null,
    "office_name_kana": null
  },
  "1431": {
    "postcode": "0101431",
    "prefecture": "秋田県",
    "prefecture_kana": "アキタケン",
    "prefecture_code": 5,
    "city": "秋田市",
    "city_kana": "アキタシ",
    "town": "仁井田二ツ屋",
    "town_kana": "ニイダフタツヤ",
    "street": null,
    "office_name": null,
    "office_name_kana": null
  },
  "1432": {
    "postcode": "0101432",
    "prefecture": "秋田県",
    "prefecture_kana": "アキタケン",
    "prefecture_code": 5,
    "city": "秋田市",
    "city_kana": "アキタシ",
    "town": "仁井田福島",
    "town_kana": "ニイダフクシマ",
    "street": null,
    "office_name": null,
    "office_name_kana": null
  },
  "1433": {
    "postcode": "0101433",
    "prefecture": "秋田県",
    "prefecture_kana": "アキタケン",
    "prefecture_code": 5,
    "city": "秋田市",
    "city_kana": "アキタシ",
    "town": "仁井田栄町",
    "town_kana": "ニイダサカエチョウ",
    "street": null,
    "office_name": null,
    "office_name_kana": null
  },
  "1434": {
    "postcode": "0101434",
    "prefecture": "秋田県",
    "prefecture_kana": "アキタケン",
    "prefecture_code": 5,
    "city": "秋田市",
    "city_kana": "アキタシ",
    "town": "仁井田蕗見町",
    "town_kana": "ニイダフキミチョウ",
    "street": null,
    "office_name": null,
    "office_name_kana": null
  },
  "1435": {
    "postcode": "0101435",
    "prefecture": "秋田県",
    "prefecture_kana": "アキタケン",
    "prefecture_code": 5,
    "city": "秋田市",
    "city_kana": "アキタシ",
    "town": "仁井田潟中町",
    "town_kana": "ニイダカタナカチョウ",
    "street": null,
    "office_name": null,
    "office_name_kana": null
  },
  "1436": {
    "postcode": "0101436",
    "prefecture": "秋田県",
    "prefecture_kana": "アキタケン",
    "prefecture_code": 5,
    "city": "秋田市",
    "city_kana": "アキタシ",
    "town": "大住",
    "town_kana": "オオスミ",
    "street": null,
    "office_name": null,
    "office_name_kana": null
  },
  "1437": {
    "postcode": "0101437",
    "prefecture": "秋田県",
    "prefecture_kana": "アキタケン",
    "prefecture_code": 5,
    "city": "秋田市",
    "city_kana": "アキタシ",
    "town": "仁井田緑町",
    "town_kana": "ニイダミドリチョウ",
    "street": null,
    "office_name": null,
    "office_name_kana": null
  },
  "1492": {
    "postcode": "0101492",
    "prefecture": "秋田県",
    "prefecture_kana": "アキタケン",
    "prefecture_code": 5,
    "city": "秋田市",
    "city_kana": "アキタシ",
    "town": "上北手猿田",
    "town_kana": "カミキタテサルタ",
    "street": "字苗代沢１７番地３",
    "office_name": "日本赤十字秋田短期大学",
    "office_name_kana": "ニツポンセキジユウジアキタタンキダイガク"
  },
  "1493": {
    "postcode": "0101493",
    "prefecture": "秋田県",
    "prefecture_kana": "アキタケン",
    "prefecture_code": 5,
    "city": "秋田市",
    "city_kana": "アキタシ",
    "town": "上北手猿田",
    "town_kana": "カミキタテサルタ",
    "street": "字苗代沢１７番地３",
    "office_name": "日本赤十字秋田看護大学",
    "office_name_kana": "ニツポンセキジユウジアキタカンゴダイガク"
  },
  "1501": {
    "postcode": "0101501",
    "prefecture": "秋田県",
    "prefecture_kana": "アキタケン",
    "prefecture_code": 5,
    "city": "秋田市",
    "city_kana": "アキタシ",
    "town": "下浜桂根",
    "town_kana": "シモハマカツラネ",
    "street": null,
    "office_name": null,
    "office_name_kana": null
  },
  "1502": {
    "postcode": "0101502",
    "prefecture": "秋田県",
    "prefecture_kana": "アキタケン",
    "prefecture_code": 5,
    "city": "秋田市",
    "city_kana": "アキタシ",
    "town": "下浜長浜",
    "town_kana": "シモハマナガハマ",
    "street": null,
    "office_name": null,
    "office_name_kana": null
  },
  "1503": {
    "postcode": "0101503",
    "prefecture": "秋田県",
    "prefecture_kana": "アキタケン",
    "prefecture_code": 5,
    "city": "秋田市",
    "city_kana": "アキタシ",
    "town": "下浜羽川",
    "town_kana": "シモハマハネカワ",
    "street": null,
    "office_name": null,
    "office_name_kana": null
  },
  "1504": {
    "postcode": "0101504",
    "prefecture": "秋田県",
    "prefecture_kana": "アキタケン",
    "prefecture_code": 5,
    "city": "秋田市",
    "city_kana": "アキタシ",
    "town": "下浜名ケ沢",
    "town_kana": "シモハマミョウガサワ",
    "street": null,
    "office_name": null,
    "office_name_kana": null
  },
  "1505": {
    "postcode": "0101505",
    "prefecture": "秋田県",
    "prefecture_kana": "アキタケン",
    "prefecture_code": 5,
    "city": "秋田市",
    "city_kana": "アキタシ",
    "town": "下浜八田",
    "town_kana": "シモハマハッタ",
    "street": null,
    "office_name": null,
    "office_name_kana": null
  },
  "1506": {
    "postcode": "0101506",
    "prefecture": "秋田県",
    "prefecture_kana": "アキタケン",
    "prefecture_code": 5,
    "city": "秋田市",
    "city_kana": "アキタシ",
    "town": "下浜楢田",
    "town_kana": "シモハマナラダ",
    "street": null,
    "office_name": null,
    "office_name_kana": null
  },
  "1601": {
    "postcode": "0101601",
    "prefecture": "秋田県",
    "prefecture_kana": "アキタケン",
    "prefecture_code": 5,
    "city": "秋田市",
    "city_kana": "アキタシ",
    "town": "向浜",
    "town_kana": "ムカイハマ",
    "street": null,
    "office_name": null,
    "office_name_kana": null
  },
  "1602": {
    "postcode": "0101602",
    "prefecture": "秋田県",
    "prefecture_kana": "アキタケン",
    "prefecture_code": 5,
    "city": "秋田市",
    "city_kana": "アキタシ",
    "town": "新屋下川原町",
    "town_kana": "アラヤシタカワラマチ",
    "street": null,
    "office_name": null,
    "office_name_kana": null
  },
  "1603": {
    "postcode": "0101603",
    "prefecture": "秋田県",
    "prefecture_kana": "アキタケン",
    "prefecture_code": 5,
    "city": "秋田市",
    "city_kana": "アキタシ",
    "town": "新屋勝平台",
    "town_kana": "アラヤカツヒラダイ",
    "street": null,
    "office_name": null,
    "office_name_kana": null
  },
  "1604": {
    "postcode": "0101604",
    "prefecture": "秋田県",
    "prefecture_kana": "アキタケン",
    "prefecture_code": 5,
    "city": "秋田市",
    "city_kana": "アキタシ",
    "town": "新屋松美町",
    "town_kana": "アラヤマツミマチ",
    "street": null,
    "office_name": null,
    "office_name_kana": null
  },
  "1605": {
    "postcode": "0101605",
    "prefecture": "秋田県",
    "prefecture_kana": "アキタケン",
    "prefecture_code": 5,
    "city": "秋田市",
    "city_kana": "アキタシ",
    "town": "新屋勝平町",
    "town_kana": "アラヤカツヒラマチ",
    "street": null,
    "office_name": null,
    "office_name_kana": null
  },
  "1606": {
    "postcode": "0101606",
    "prefecture": "秋田県",
    "prefecture_kana": "アキタケン",
    "prefecture_code": 5,
    "city": "秋田市",
    "city_kana": "アキタシ",
    "town": "新屋寿町",
    "town_kana": "アラヤコトブキマチ",
    "street": null,
    "office_name": null,
    "office_name_kana": null
  },
  "1607": {
    "postcode": "0101607",
    "prefecture": "秋田県",
    "prefecture_kana": "アキタケン",
    "prefecture_code": 5,
    "city": "秋田市",
    "city_kana": "アキタシ",
    "town": "新屋南浜町",
    "town_kana": "アラヤミナミハママチ",
    "street": null,
    "office_name": null,
    "office_name_kana": null
  },
  "1608": {
    "postcode": "0101608",
    "prefecture": "秋田県",
    "prefecture_kana": "アキタケン",
    "prefecture_code": 5,
    "city": "秋田市",
    "city_kana": "アキタシ",
    "town": "新屋北浜町",
    "town_kana": "アラヤキタハマチョウ",
    "street": null,
    "office_name": null,
    "office_name_kana": null
  },
  "1611": {
    "postcode": "0101611",
    "prefecture": "秋田県",
    "prefecture_kana": "アキタケン",
    "prefecture_code": 5,
    "city": "秋田市",
    "city_kana": "アキタシ",
    "town": "新屋天秤野",
    "town_kana": "アラヤテンビンノ",
    "street": null,
    "office_name": null,
    "office_name_kana": null
  },
  "1612": {
    "postcode": "0101612",
    "prefecture": "秋田県",
    "prefecture_kana": "アキタケン",
    "prefecture_code": 5,
    "city": "秋田市",
    "city_kana": "アキタシ",
    "town": "新屋豊町",
    "town_kana": "アラヤユタカマチ",
    "street": null,
    "office_name": null,
    "office_name_kana": null
  },
  "1613": {
    "postcode": "0101613",
    "prefecture": "秋田県",
    "prefecture_kana": "アキタケン",
    "prefecture_code": 5,
    "city": "秋田市",
    "city_kana": "アキタシ",
    "town": "新屋朝日町",
    "town_kana": "アラヤアサヒマチ",
    "street": null,
    "office_name": null,
    "office_name_kana": null
  },
  "1614": {
    "postcode": "0101614",
    "prefecture": "秋田県",
    "prefecture_kana": "アキタケン",
    "prefecture_code": 5,
    "city": "秋田市",
    "city_kana": "アキタシ",
    "town": "新屋割山町",
    "town_kana": "アラヤワリヤママチ",
    "street": null,
    "office_name": null,
    "office_name_kana": null
  },
  "1615": {
    "postcode": "0101615",
    "prefecture": "秋田県",
    "prefecture_kana": "アキタケン",
    "prefecture_code": 5,
    "city": "秋田市",
    "city_kana": "アキタシ",
    "town": "新屋船場町",
    "town_kana": "アラヤフナバマチ",
    "street": null,
    "office_name": null,
    "office_name_kana": null
  },
  "1616": {
    "postcode": "0101616",
    "prefecture": "秋田県",
    "prefecture_kana": "アキタケン",
    "prefecture_code": 5,
    "city": "秋田市",
    "city_kana": "アキタシ",
    "town": "新屋松美ガ丘南町",
    "town_kana": "アラヤマツミガオカミナミチョウ",
    "street": null,
    "office_name": null,
    "office_name_kana": null
  },
  "1617": {
    "postcode": "0101617",
    "prefecture": "秋田県",
    "prefecture_kana": "アキタケン",
    "prefecture_code": 5,
    "city": "秋田市",
    "city_kana": "アキタシ",
    "town": "新屋松美ガ丘東町",
    "town_kana": "アラヤマツミガオカヒガシチョウ",
    "street": null,
    "office_name": null,
    "office_name_kana": null
  },
  "1618": {
    "postcode": "0101618",
    "prefecture": "秋田県",
    "prefecture_kana": "アキタケン",
    "prefecture_code": 5,
    "city": "秋田市",
    "city_kana": "アキタシ",
    "town": "新屋松美ガ丘北町",
    "town_kana": "アラヤマツミガオカキタチョウ",
    "street": null,
    "office_name": null,
    "office_name_kana": null
  },
  "1621": {
    "postcode": "0101621",
    "prefecture": "秋田県",
    "prefecture_kana": "アキタケン",
    "prefecture_code": 5,
    "city": "秋田市",
    "city_kana": "アキタシ",
    "town": "新屋栗田町",
    "town_kana": "アラヤクリタマチ",
    "street": null,
    "office_name": null,
    "office_name_kana": null
  },
  "1622": {
    "postcode": "0101622",
    "prefecture": "秋田県",
    "prefecture_kana": "アキタケン",
    "prefecture_code": 5,
    "city": "秋田市",
    "city_kana": "アキタシ",
    "town": "新屋日吉町",
    "town_kana": "アラヤヒヨシマチ",
    "street": null,
    "office_name": null,
    "office_name_kana": null
  },
  "1623": {
    "postcode": "0101623",
    "prefecture": "秋田県",
    "prefecture_kana": "アキタケン",
    "prefecture_code": 5,
    "city": "秋田市",
    "city_kana": "アキタシ",
    "town": "新屋町",
    "town_kana": "アラヤマチ",
    "street": null,
    "office_name": null,
    "office_name_kana": null
  },
  "1631": {
    "postcode": "0101631",
    "prefecture": "秋田県",
    "prefecture_kana": "アキタケン",
    "prefecture_code": 5,
    "city": "秋田市",
    "city_kana": "アキタシ",
    "town": "新屋元町",
    "town_kana": "アラヤモトマチ",
    "street": null,
    "office_name": null,
    "office_name_kana": null
  },
  "1632": {
    "postcode": "0101632",
    "prefecture": "秋田県",
    "prefecture_kana": "アキタケン",
    "prefecture_code": 5,
    "city": "秋田市",
    "city_kana": "アキタシ",
    "town": "新屋大川町",
    "town_kana": "アラヤオオカワマチ",
    "street": null,
    "office_name": null,
    "office_name_kana": null
  },
  "1633": {
    "postcode": "0101633",
    "prefecture": "秋田県",
    "prefecture_kana": "アキタケン",
    "prefecture_code": 5,
    "city": "秋田市",
    "city_kana": "アキタシ",
    "town": "新屋鳥木町",
    "town_kana": "アラヤトリキマチ",
    "street": null,
    "office_name": null,
    "office_name_kana": null
  },
  "1634": {
    "postcode": "0101634",
    "prefecture": "秋田県",
    "prefecture_kana": "アキタケン",
    "prefecture_code": 5,
    "city": "秋田市",
    "city_kana": "アキタシ",
    "town": "新屋沖田町",
    "town_kana": "アラヤオキタマチ",
    "street": null,
    "office_name": null,
    "office_name_kana": null
  },
  "1635": {
    "postcode": "0101635",
    "prefecture": "秋田県",
    "prefecture_kana": "アキタケン",
    "prefecture_code": 5,
    "city": "秋田市",
    "city_kana": "アキタシ",
    "town": "新屋前野町",
    "town_kana": "アラヤマエノマチ",
    "street": null,
    "office_name": null,
    "office_name_kana": null
  },
  "1636": {
    "postcode": "0101636",
    "prefecture": "秋田県",
    "prefecture_kana": "アキタケン",
    "prefecture_code": 5,
    "city": "秋田市",
    "city_kana": "アキタシ",
    "town": "新屋比内町",
    "town_kana": "アラヤヒナイマチ",
    "street": null,
    "office_name": null,
    "office_name_kana": null
  },
  "1637": {
    "postcode": "0101637",
    "prefecture": "秋田県",
    "prefecture_kana": "アキタケン",
    "prefecture_code": 5,
    "city": "秋田市",
    "city_kana": "アキタシ",
    "town": "新屋扇町",
    "town_kana": "アラヤオオギマチ",
    "street": null,
    "office_name": null,
    "office_name_kana": null
  },
  "1638": {
    "postcode": "0101638",
    "prefecture": "秋田県",
    "prefecture_kana": "アキタケン",
    "prefecture_code": 5,
    "city": "秋田市",
    "city_kana": "アキタシ",
    "town": "新屋表町",
    "town_kana": "アラヤオモテマチ",
    "street": null,
    "office_name": null,
    "office_name_kana": null
  },
  "1641": {
    "postcode": "0101641",
    "prefecture": "秋田県",
    "prefecture_kana": "アキタケン",
    "prefecture_code": 5,
    "city": "秋田市",
    "city_kana": "アキタシ",
    "town": "新屋高美町",
    "town_kana": "アラヤタカミマチ",
    "street": null,
    "office_name": null,
    "office_name_kana": null
  },
  "1642": {
    "postcode": "0101642",
    "prefecture": "秋田県",
    "prefecture_kana": "アキタケン",
    "prefecture_code": 5,
    "city": "秋田市",
    "city_kana": "アキタシ",
    "town": "新屋渋谷町",
    "town_kana": "アラヤシブヤマチ",
    "street": null,
    "office_name": null,
    "office_name_kana": null
  },
  "1643": {
    "postcode": "0101643",
    "prefecture": "秋田県",
    "prefecture_kana": "アキタケン",
    "prefecture_code": 5,
    "city": "秋田市",
    "city_kana": "アキタシ",
    "town": "新屋田尻沢東町",
    "town_kana": "アラヤタジリザワヒガシマチ",
    "street": null,
    "office_name": null,
    "office_name_kana": null
  },
  "1644": {
    "postcode": "0101644",
    "prefecture": "秋田県",
    "prefecture_kana": "アキタケン",
    "prefecture_code": 5,
    "city": "秋田市",
    "city_kana": "アキタシ",
    "town": "新屋田尻沢中町",
    "town_kana": "アラヤタジリザワナカマチ",
    "street": null,
    "office_name": null,
    "office_name_kana": null
  },
  "1645": {
    "postcode": "0101645",
    "prefecture": "秋田県",
    "prefecture_kana": "アキタケン",
    "prefecture_code": 5,
    "city": "秋田市",
    "city_kana": "アキタシ",
    "town": "新屋田尻沢西町",
    "town_kana": "アラヤタジリザワニシマチ",
    "street": null,
    "office_name": null,
    "office_name_kana": null
  },
  "1651": {
    "postcode": "0101651",
    "prefecture": "秋田県",
    "prefecture_kana": "アキタケン",
    "prefecture_code": 5,
    "city": "秋田市",
    "city_kana": "アキタシ",
    "town": "豊岩石田坂",
    "town_kana": "トヨイワイシダザカ",
    "street": null,
    "office_name": null,
    "office_name_kana": null
  },
  "1652": {
    "postcode": "0101652",
    "prefecture": "秋田県",
    "prefecture_kana": "アキタケン",
    "prefecture_code": 5,
    "city": "秋田市",
    "city_kana": "アキタシ",
    "town": "豊岩豊巻",
    "town_kana": "トヨイワトヨマキ",
    "street": null,
    "office_name": null,
    "office_name_kana": null
  },
  "1653": {
    "postcode": "0101653",
    "prefecture": "秋田県",
    "prefecture_kana": "アキタケン",
    "prefecture_code": 5,
    "city": "秋田市",
    "city_kana": "アキタシ",
    "town": "豊岩小山",
    "town_kana": "トヨイワオヤマ",
    "street": null,
    "office_name": null,
    "office_name_kana": null
  },
  "1654": {
    "postcode": "0101654",
    "prefecture": "秋田県",
    "prefecture_kana": "アキタケン",
    "prefecture_code": 5,
    "city": "秋田市",
    "city_kana": "アキタシ",
    "town": "浜田",
    "town_kana": "ハマダ",
    "street": null,
    "office_name": null,
    "office_name_kana": null
  },
  "8501": {
    "postcode": "0108501",
    "prefecture": "秋田県",
    "prefecture_kana": "アキタケン",
    "prefecture_code": 5,
    "city": "秋田市",
    "city_kana": "アキタシ",
    "town": "東通仲町",
    "town_kana": "ヒガシドオリナカマチ",
    "street": "４−２",
    "office_name": "日本放送協会　秋田放送局",
    "office_name_kana": "ニホンホウソウキヨウカイ アキタホウソウキヨク"
  },
  "8502": {
    "postcode": "0108502",
    "prefecture": "秋田県",
    "prefecture_kana": "アキタケン",
    "prefecture_code": 5,
    "city": "秋田市",
    "city_kana": "アキタシ",
    "town": "手形学園町",
    "town_kana": "テガタガクエンマチ",
    "street": "１−１",
    "office_name": "国立大学法人　秋田大学",
    "office_name_kana": "コクリツダイガクホウジン アキタダイガク"
  },
  "8504": {
    "postcode": "0108504",
    "prefecture": "秋田県",
    "prefecture_kana": "アキタケン",
    "prefecture_code": 5,
    "city": "秋田市",
    "city_kana": "アキタシ",
    "town": "山王",
    "town_kana": "サンノウ",
    "street": "７丁目１−１",
    "office_name": "秋田地方・家庭・簡易裁判所",
    "office_name_kana": "アキタチホウ・カテイ・カンイ・サイバンシヨ"
  },
  "8505": {
    "postcode": "0108505",
    "prefecture": "秋田県",
    "prefecture_kana": "アキタケン",
    "prefecture_code": 5,
    "city": "秋田市",
    "city_kana": "アキタシ",
    "town": "中通",
    "town_kana": "ナカドオリ",
    "street": "２丁目６番１号",
    "office_name": "株式会社　そごう・西武　西武秋田店",
    "office_name_kana": "カブシキガイシヤ ソゴウ・セイブ セイブアキタテン"
  },
  "8506": {
    "postcode": "0108506",
    "prefecture": "秋田県",
    "prefecture_kana": "アキタケン",
    "prefecture_code": 5,
    "city": "秋田市",
    "city_kana": "アキタシ",
    "town": "東通仲町",
    "town_kana": "ヒガシドオリナカマチ",
    "street": "４番１号",
    "office_name": "秋田拠点センターアルヴェ",
    "office_name_kana": "アキタキヨテンセンタ-アルヴエ"
  },
  "8507": {
    "postcode": "0108507",
    "prefecture": "秋田県",
    "prefecture_kana": "アキタケン",
    "prefecture_code": 5,
    "city": "秋田市",
    "city_kana": "アキタシ",
    "town": "旭北錦町",
    "town_kana": "キョクホクニシキマチ",
    "street": "５−５０シティビル秋田２Ｆ",
    "office_name": "全国健康保険協会　秋田支部",
    "office_name_kana": "ゼンコクケンコウホケンキヨウカイ アキタシブ"
  },
  "8511": {
    "postcode": "0108511",
    "prefecture": "秋田県",
    "prefecture_kana": "アキタケン",
    "prefecture_code": 5,
    "city": "秋田市",
    "city_kana": "アキタシ",
    "town": "卸町",
    "town_kana": "オロシマチ",
    "street": "４丁目９番５号",
    "office_name": "株式会社　メディセオ",
    "office_name_kana": "カブシキガイシヤ メデイセオ"
  },
  "8515": {
    "postcode": "0108515",
    "prefecture": "秋田県",
    "prefecture_kana": "アキタケン",
    "prefecture_code": 5,
    "city": "秋田市",
    "city_kana": "アキタシ",
    "town": "下北手桜",
    "town_kana": "シモキタテサクラ",
    "street": "字守沢４６番１",
    "office_name": "学校法人　ノースアジア大学",
    "office_name_kana": "ガツコウホウジン ノ-スアジアダイガク"
  },
  "8518": {
    "postcode": "0108518",
    "prefecture": "秋田県",
    "prefecture_kana": "アキタケン",
    "prefecture_code": 5,
    "city": "秋田市",
    "city_kana": "アキタシ",
    "town": "南通築地",
    "town_kana": "ミナミドオリツキジ",
    "street": "１５−３６",
    "office_name": "株式会社　秋田ト一屋",
    "office_name_kana": "カブシキカイシヤ アキタトイチヤ"
  },
  "8520": {
    "postcode": "0108520",
    "prefecture": "秋田県",
    "prefecture_kana": "アキタケン",
    "prefecture_code": 5,
    "city": "秋田市",
    "city_kana": "アキタシ",
    "town": "楢山登町",
    "town_kana": "ナラヤマノボリマチ",
    "street": "１−２０",
    "office_name": "株式会社　相場商店",
    "office_name_kana": "カブシキガイシヤ アイバシヨウテン"
  },
  "8525": {
    "postcode": "0108525",
    "prefecture": "秋田県",
    "prefecture_kana": "アキタケン",
    "prefecture_code": 5,
    "city": "秋田市",
    "city_kana": "アキタシ",
    "town": "下北手桜",
    "town_kana": "シモキタテサクラ",
    "street": "字守沢８番地１",
    "office_name": "明桜高等学校",
    "office_name_kana": "メイオウコウトウガクコウ"
  },
  "8530": {
    "postcode": "0108530",
    "prefecture": "秋田県",
    "prefecture_kana": "アキタケン",
    "prefecture_code": 5,
    "city": "秋田市",
    "city_kana": "アキタシ",
    "town": "中通",
    "town_kana": "ナカドオリ",
    "street": "７丁目２−１",
    "office_name": "秋田ステーションビル　株式会社",
    "office_name_kana": "アキタステ-シヨンビル カブシキガイシヤ"
  },
  "8533": {
    "postcode": "0108533",
    "prefecture": "秋田県",
    "prefecture_kana": "アキタケン",
    "prefecture_code": 5,
    "city": "秋田市",
    "city_kana": "アキタシ",
    "town": "南通みその町",
    "town_kana": "ミナミドオリミソノマチ",
    "street": "４−８２",
    "office_name": "学校法人　聖霊学園",
    "office_name_kana": "ガツコウホウジン セイレイガクエン"
  },
  "8543": {
    "postcode": "0108543",
    "prefecture": "秋田県",
    "prefecture_kana": "アキタケン",
    "prefecture_code": 5,
    "city": "秋田市",
    "city_kana": "アキタシ",
    "town": "広面",
    "town_kana": "ヒロオモテ",
    "street": "字蓮沼４４番２",
    "office_name": "秋田大学医学部附属病院",
    "office_name_kana": "アキタダイガクイガクブフゾクビヨウイン"
  },
  "8550": {
    "postcode": "0108550",
    "prefecture": "秋田県",
    "prefecture_kana": "アキタケン",
    "prefecture_code": 5,
    "city": "秋田市",
    "city_kana": "アキタシ",
    "town": "中通",
    "town_kana": "ナカドオリ",
    "street": "５丁目９−１６",
    "office_name": "東北森林管理局",
    "office_name_kana": "トウホクシンリンカンリキヨク"
  },
  "8558": {
    "postcode": "0108558",
    "prefecture": "秋田県",
    "prefecture_kana": "アキタケン",
    "prefecture_code": 5,
    "city": "秋田市",
    "city_kana": "アキタシ",
    "town": "八橋南",
    "town_kana": "ヤバセミナミ",
    "street": "２丁目１０番１６号",
    "office_name": "全国農業協同組合連合会　秋田県本部",
    "office_name_kana": "ゼンコクノウギヨウキヨウドウクミアイレンゴウカイ アキタケンホンブ"
  },
  "8560": {
    "postcode": "0108560",
    "prefecture": "秋田県",
    "prefecture_kana": "アキタケン",
    "prefecture_code": 5,
    "city": "秋田市",
    "city_kana": "アキタシ",
    "town": "山王",
    "town_kana": "サンノウ",
    "street": "１丁目１−１",
    "office_name": "秋田市役所",
    "office_name_kana": "アキタシヤクシヨ"
  },
  "8564": {
    "postcode": "0108564",
    "prefecture": "秋田県",
    "prefecture_kana": "アキタケン",
    "prefecture_code": 5,
    "city": "秋田市",
    "city_kana": "アキタシ",
    "town": "卸町",
    "town_kana": "オロシマチ",
    "street": "３丁目４番１号",
    "office_name": "（株）　シグマ　ソリューションズ",
    "office_name_kana": "カブシキガイシヤ シグマ ソリユ-シヨンズ"
  },
  "8565": {
    "postcode": "0108565",
    "prefecture": "秋田県",
    "prefecture_kana": "アキタケン",
    "prefecture_code": 5,
    "city": "秋田市",
    "city_kana": "アキタシ",
    "town": "保戸野鉄砲町",
    "town_kana": "ホドノテッポウマチ",
    "street": "５−２０",
    "office_name": "日本年金機構　秋田年金事務所",
    "office_name_kana": "ニツポンネンキンキコウ アキタネンキンジムシヨ"
  },
  "8570": {
    "postcode": "0108570",
    "prefecture": "秋田県",
    "prefecture_kana": "アキタケン",
    "prefecture_code": 5,
    "city": "秋田市",
    "city_kana": "アキタシ",
    "town": "山王",
    "town_kana": "サンノウ",
    "street": "４丁目１−１",
    "office_name": "秋田県庁",
    "office_name_kana": "アキタケンチヨウ"
  },
  "8572": {
    "postcode": "0108572",
    "prefecture": "秋田県",
    "prefecture_kana": "アキタケン",
    "prefecture_code": 5,
    "city": "秋田市",
    "city_kana": "アキタシ",
    "town": "山王",
    "town_kana": "サンノウ",
    "street": "３丁目１番１号",
    "office_name": "秋田県庁　第二庁舎",
    "office_name_kana": "アキタケンチヨウ ダイニチヨウシヤ"
  },
  "8574": {
    "postcode": "0108574",
    "prefecture": "秋田県",
    "prefecture_kana": "アキタケン",
    "prefecture_code": 5,
    "city": "秋田市",
    "city_kana": "アキタシ",
    "town": "中通",
    "town_kana": "ナカドオリ",
    "street": "４丁目４番４号",
    "office_name": "東日本電信電話　株式会社　秋田支店",
    "office_name_kana": "ヒガシニツポンデンシンデンワ カブシキガイシヤ アキタシテン"
  },
  "8577": {
    "postcode": "0108577",
    "prefecture": "秋田県",
    "prefecture_kana": "アキタケン",
    "prefecture_code": 5,
    "city": "秋田市",
    "city_kana": "アキタシ",
    "town": "南通みその町",
    "town_kana": "ミナミドオリミソノマチ",
    "street": "３−１５",
    "office_name": "医療法人　明和会　中通総合病院",
    "office_name_kana": "イリヨウホウジン メイワカイ ナカドオリソウゴウビヨウイン"
  },
  "8580": {
    "postcode": "0108580",
    "prefecture": "秋田県",
    "prefecture_kana": "アキタケン",
    "prefecture_code": 5,
    "city": "秋田市",
    "city_kana": "アキタシ",
    "town": "山王",
    "town_kana": "サンノウ",
    "street": "３丁目１−１",
    "office_name": "秋田県教育委員会　秋田県教育庁",
    "office_name_kana": "アキタケンキヨウイクイインカイ アキタケンキヨウイクチヨウ"
  },
  "8588": {
    "postcode": "0108588",
    "prefecture": "秋田県",
    "prefecture_kana": "アキタケン",
    "prefecture_code": 5,
    "city": "秋田市",
    "city_kana": "アキタシ",
    "town": "中通",
    "town_kana": "ナカドオリ",
    "street": "２丁目１番１１号",
    "office_name": "東北電力ネットワーク　株式会社　秋田電力センター",
    "office_name_kana": "トウホクデンリヨクネツトワ-ク カブシキガイシヤ アキタデンリヨクセンタ-"
  },
  "8601": {
    "postcode": "0108601",
    "prefecture": "秋田県",
    "prefecture_kana": "アキタケン",
    "prefecture_code": 5,
    "city": "秋田市",
    "city_kana": "アキタシ",
    "town": "山王臨海町",
    "town_kana": "サンノウリンカイマチ",
    "street": "１−１（秋田中央郵便局私書箱第８号）",
    "office_name": "株式会社　秋田魁新報社",
    "office_name_kana": "カブシキガイシヤ アキタサキガケシンポウシヤ"
  },
  "8611": {
    "postcode": "0108611",
    "prefecture": "秋田県",
    "prefecture_kana": "アキタケン",
    "prefecture_code": 5,
    "city": "秋田市",
    "city_kana": "アキタシ",
    "town": "中通",
    "town_kana": "ナカドオリ",
    "street": "７丁目１番１−２号（秋田中央郵便局私書箱第４８号）",
    "office_name": "株式会社　秋田放送",
    "office_name_kana": "カブシキガイシヤ アキタホウソウ"
  },
  "8622": {
    "postcode": "0108622",
    "prefecture": "秋田県",
    "prefecture_kana": "アキタケン",
    "prefecture_code": 5,
    "city": "秋田市",
    "city_kana": "アキタシ",
    "town": "中通",
    "town_kana": "ナカドオリ",
    "street": "５丁目５−２",
    "office_name": "秋田南税務署",
    "office_name_kana": "アキタミナミゼイムシヨ"
  },
  "8633": {
    "postcode": "0108633",
    "prefecture": "秋田県",
    "prefecture_kana": "アキタケン",
    "prefecture_code": 5,
    "city": "秋田市",
    "city_kana": "アキタシ",
    "town": "中通",
    "town_kana": "ナカドオリ",
    "street": "２丁目４−１９（秋田中央郵便局私書箱第６７号）",
    "office_name": "商工組合　中央金庫　秋田支店",
    "office_name_kana": "シヨウコウクミアイ チユウオウキンコ アキタシテン"
  },
  "8655": {
    "postcode": "0108655",
    "prefecture": "秋田県",
    "prefecture_kana": "アキタケン",
    "prefecture_code": 5,
    "city": "秋田市",
    "city_kana": "アキタシ",
    "town": "山王",
    "town_kana": "サンノウ",
    "street": "３丁目２−１（秋田中央郵便局私書箱第５号）",
    "office_name": "株式会社　秋田銀行",
    "office_name_kana": "カブシキガイシヤ アキタギンコウ"
  },
  "8668": {
    "postcode": "0108668",
    "prefecture": "秋田県",
    "prefecture_kana": "アキタケン",
    "prefecture_code": 5,
    "city": "秋田市",
    "city_kana": "アキタシ",
    "town": "八橋本町",
    "town_kana": "ヤバセホンチョウ",
    "street": "３丁目２−１４（秋田中央郵便局私書箱第６０号）",
    "office_name": "秋田テレビ　株式会社",
    "office_name_kana": "アキタテレビ カブシキガイシヤ"
  },
  "8677": {
    "postcode": "0108677",
    "prefecture": "秋田県",
    "prefecture_kana": "アキタケン",
    "prefecture_code": 5,
    "city": "秋田市",
    "city_kana": "アキタシ",
    "town": "中通",
    "town_kana": "ナカドオリ",
    "street": "３丁目１−４１（秋田中央郵便局私書箱第１５号）",
    "office_name": "株式会社　北都銀行",
    "office_name_kana": "カブシキガイシヤ ホクトギンコウ"
  },
  "8678": {
    "postcode": "0108678",
    "prefecture": "秋田県",
    "prefecture_kana": "アキタケン",
    "prefecture_code": 5,
    "city": "秋田市",
    "city_kana": "アキタシ",
    "town": "川尻町",
    "town_kana": "カワシリマチ",
    "street": "字大川反１７０−９２（秋田中央郵便局私書箱第７４号）",
    "office_name": "富士フイルムＢＩ秋田　株式会社",
    "office_name_kana": "フジフイルムビ-アイアキタ カブシキガイシヤ"
  },
  "8794": {
    "postcode": "0108794",
    "prefecture": "秋田県",
    "prefecture_kana": "アキタケン",
    "prefecture_code": 5,
    "city": "秋田市",
    "city_kana": "アキタシ",
    "town": "中通",
    "town_kana": "ナカドオリ",
    "street": "２丁目２番１５号",
    "office_name": "株式会社　ゆうちょ銀行　秋田地域センター",
    "office_name_kana": "カブシキガイシヤユウチヨギンコウ アキタチイキセンタ-"
  }
}