{
  "0000": {
    "postcode": "0140000",
    "prefecture": "秋田県",
    "prefecture_kana": "アキタケン",
    "prefecture_code": 5,
    "city": "大仙市",
    "city_kana": "ダイセンシ",
    "town": "",
    "town_kana": "",
    "street": null,
    "office_name": null,
    "office_name_kana": null
  },
  "0001": {
    "postcode": "0140001",
    "prefecture": "秋田県",
    "prefecture_kana": "アキタケン",
    "prefecture_code": 5,
    "city": "大仙市",
    "city_kana": "ダイセンシ",
    "town": "花館",
    "town_kana": "ハナダテ",
    "street": null,
    "office_name": null,
    "office_name_kana": null
  },
  "0002": {
    "postcode": "0140002",
    "prefecture": "秋田県",
    "prefecture_kana": "アキタケン",
    "prefecture_code": 5,
    "city": "大仙市",
    "city_kana": "ダイセンシ",
    "town": "花館上町",
    "town_kana": "ハナダテカミチョウ",
    "street": null,
    "office_name": null,
    "office_name_kana": null
  },
  "0003": {
    "postcode": "0140003",
    "prefecture": "秋田県",
    "prefecture_kana": "アキタケン",
    "prefecture_code": 5,
    "city": "大仙市",
    "city_kana": "ダイセンシ",
    "town": "美原町",
    "town_kana": "ミハラチョウ",
    "street": null,
    "office_name": null,
    "office_name_kana": null
  },
  "0004": {
    "postcode": "0140004",
    "prefecture": "秋田県",
    "prefecture_kana": "アキタケン",
    "prefecture_code": 5,
    "city": "大仙市",
    "city_kana": "ダイセンシ",
    "town": "泉町",
    "town_kana": "イズミチョウ",
    "street": null,
    "office_name": null,
    "office_name_kana": null
  },
  "0005": {
    "postcode": "0140005",
    "prefecture": "秋田県",
    "prefecture_kana": "アキタケン",
    "prefecture_code": 5,
    "city": "大仙市",
    "city_kana": "ダイセンシ",
    "town": "花館柳町",
    "town_kana": "ハナダテヤナギマチ",
    "street": null,
    "office_name": null,
    "office_name_kana": null
  },
  "0006": {
    "postcode": "0140006",
    "prefecture": "秋田県",
    "prefecture_kana": "アキタケン",
    "prefecture_code": 5,
    "city": "大仙市",
    "city_kana": "ダイセンシ",
    "town": "花館中町",
    "town_kana": "ハナダテナカマチ",
    "street": null,
    "office_name": null,
    "office_name_kana": null
  },
  "0011": {
    "postcode": "0140011",
    "prefecture": "秋田県",
    "prefecture_kana": "アキタケン",
    "prefecture_code": 5,
    "city": "大仙市",
    "city_kana": "ダイセンシ",
    "town": "富士見町",
    "town_kana": "フジミチョウ",
    "street": null,
    "office_name": null,
    "office_name_kana": null
  },
  "0012": {
    "postcode": "0140012",
    "prefecture": "秋田県",
    "prefecture_kana": "アキタケン",
    "prefecture_code": 5,
    "city": "大仙市",
    "city_kana": "ダイセンシ",
    "town": "幸町",
    "town_kana": "サイワイチョウ",
    "street": null,
    "office_name": null,
    "office_name_kana": null
  },
  "0013": {
    "postcode": "0140013",
    "prefecture": "秋田県",
    "prefecture_kana": "アキタケン",
    "prefecture_code": 5,
    "city": "大仙市",
    "city_kana": "ダイセンシ",
    "town": "朝日町",
    "town_kana": "アサヒマチ",
    "street": null,
    "office_name": null,
    "office_name_kana": null
  },
  "0014": {
    "postcode": "0140014",
    "prefecture": "秋田県",
    "prefecture_kana": "アキタケン",
    "prefecture_code": 5,
    "city": "大仙市",
    "city_kana": "ダイセンシ",
    "town": "大曲福住町",
    "town_kana": "オオマガリフクズミチョウ",
    "street": null,
    "office_name": null,
    "office_name_kana": null
  },
  "0015": {
    "postcode": "0140015",
    "prefecture": "秋田県",
    "prefecture_kana": "アキタケン",
    "prefecture_code": 5,
    "city": "大仙市",
    "city_kana": "ダイセンシ",
    "town": "大曲白金町",
    "town_kana": "オオマガリシロガネチョウ",
    "street": null,
    "office_name": null,
    "office_name_kana": null
  },
  "0016": {
    "postcode": "0140016",
    "prefecture": "秋田県",
    "prefecture_kana": "アキタケン",
    "prefecture_code": 5,
    "city": "大仙市",
    "city_kana": "ダイセンシ",
    "town": "若竹町",
    "town_kana": "ワカタケチョウ",
    "street": null,
    "office_name": null,
    "office_name_kana": null
  },
  "0017": {
    "postcode": "0140017",
    "prefecture": "秋田県",
    "prefecture_kana": "アキタケン",
    "prefecture_code": 5,
    "city": "大仙市",
    "city_kana": "ダイセンシ",
    "town": "佐野町",
    "town_kana": "サノチョウ",
    "street": null,
    "office_name": null,
    "office_name_kana": null
  },
  "0021": {
    "postcode": "0140021",
    "prefecture": "秋田県",
    "prefecture_kana": "アキタケン",
    "prefecture_code": 5,
    "city": "大仙市",
    "city_kana": "ダイセンシ",
    "town": "福田町",
    "town_kana": "フクダチョウ",
    "street": null,
    "office_name": null,
    "office_name_kana": null
  },
  "0022": {
    "postcode": "0140022",
    "prefecture": "秋田県",
    "prefecture_kana": "アキタケン",
    "prefecture_code": 5,
    "city": "大仙市",
    "city_kana": "ダイセンシ",
    "town": "大花町",
    "town_kana": "オオハナチョウ",
    "street": null,
    "office_name": null,
    "office_name_kana": null
  },
  "0023": {
    "postcode": "0140023",
    "prefecture": "秋田県",
    "prefecture_kana": "アキタケン",
    "prefecture_code": 5,
    "city": "大仙市",
    "city_kana": "ダイセンシ",
    "town": "大曲黒瀬町",
    "town_kana": "オオマガリクロセチョウ",
    "street": null,
    "office_name": null,
    "office_name_kana": null
  },
  "0024": {
    "postcode": "0140024",
    "prefecture": "秋田県",
    "prefecture_kana": "アキタケン",
    "prefecture_code": 5,
    "city": "大仙市",
    "city_kana": "ダイセンシ",
    "town": "大曲中通町",
    "town_kana": "オオマガリナカドオリマチ",
    "street": null,
    "office_name": null,
    "office_name_kana": null
  },
  "0025": {
    "postcode": "0140025",
    "prefecture": "秋田県",
    "prefecture_kana": "アキタケン",
    "prefecture_code": 5,
    "city": "大仙市",
    "city_kana": "ダイセンシ",
    "town": "大曲大町",
    "town_kana": "オオマガリオオマチ",
    "street": null,
    "office_name": null,
    "office_name_kana": null
  },
  "0026": {
    "postcode": "0140026",
    "prefecture": "秋田県",
    "prefecture_kana": "アキタケン",
    "prefecture_code": 5,
    "city": "大仙市",
    "city_kana": "ダイセンシ",
    "town": "大曲丸の内町",
    "town_kana": "オオマガリマルノウチマチ",
    "street": null,
    "office_name": null,
    "office_name_kana": null
  },
  "0027": {
    "postcode": "0140027",
    "prefecture": "秋田県",
    "prefecture_kana": "アキタケン",
    "prefecture_code": 5,
    "city": "大仙市",
    "city_kana": "ダイセンシ",
    "town": "大曲通町",
    "town_kana": "オオマガリトオリマチ",
    "street": null,
    "office_name": null,
    "office_name_kana": null
  },
  "0031": {
    "postcode": "0140031",
    "prefecture": "秋田県",
    "prefecture_kana": "アキタケン",
    "prefecture_code": 5,
    "city": "大仙市",
    "city_kana": "ダイセンシ",
    "town": "大曲",
    "town_kana": "オオマガリ",
    "street": null,
    "office_name": null,
    "office_name_kana": null
  },
  "0032": {
    "postcode": "0140032",
    "prefecture": "秋田県",
    "prefecture_kana": "アキタケン",
    "prefecture_code": 5,
    "city": "大仙市",
    "city_kana": "ダイセンシ",
    "town": "東川",
    "town_kana": "ヒガシカワ",
    "street": null,
    "office_name": null,
    "office_name_kana": null
  },
  "0033": {
    "postcode": "0140033",
    "prefecture": "秋田県",
    "prefecture_kana": "アキタケン",
    "prefecture_code": 5,
    "city": "大仙市",
    "city_kana": "ダイセンシ",
    "town": "和合",
    "town_kana": "ワゴウ",
    "street": null,
    "office_name": null,
    "office_name_kana": null
  },
  "0034": {
    "postcode": "0140034",
    "prefecture": "秋田県",
    "prefecture_kana": "アキタケン",
    "prefecture_code": 5,
    "city": "大仙市",
    "city_kana": "ダイセンシ",
    "town": "大曲住吉町",
    "town_kana": "オオマガリスミヨシチョウ",
    "street": null,
    "office_name": null,
    "office_name_kana": null
  },
  "0041": {
    "postcode": "0140041",
    "prefecture": "秋田県",
    "prefecture_kana": "アキタケン",
    "prefecture_code": 5,
    "city": "大仙市",
    "city_kana": "ダイセンシ",
    "town": "大曲丸子町",
    "town_kana": "オオマガリマルコチョウ",
    "street": null,
    "office_name": null,
    "office_name_kana": null
  },
  "0042": {
    "postcode": "0140042",
    "prefecture": "秋田県",
    "prefecture_kana": "アキタケン",
    "prefecture_code": 5,
    "city": "大仙市",
    "city_kana": "ダイセンシ",
    "town": "大曲福見町",
    "town_kana": "オオマガリフクミチョウ",
    "street": null,
    "office_name": null,
    "office_name_kana": null
  },
  "0043": {
    "postcode": "0140043",
    "prefecture": "秋田県",
    "prefecture_kana": "アキタケン",
    "prefecture_code": 5,
    "city": "大仙市",
    "city_kana": "ダイセンシ",
    "town": "大曲戸巻町",
    "town_kana": "オオマガリトマキチョウ",
    "street": null,
    "office_name": null,
    "office_name_kana": null
  },
  "0044": {
    "postcode": "0140044",
    "prefecture": "秋田県",
    "prefecture_kana": "アキタケン",
    "prefecture_code": 5,
    "city": "大仙市",
    "city_kana": "ダイセンシ",
    "town": "戸蒔",
    "town_kana": "トマキ",
    "street": null,
    "office_name": null,
    "office_name_kana": null
  },
  "0045": {
    "postcode": "0140045",
    "prefecture": "秋田県",
    "prefecture_kana": "アキタケン",
    "prefecture_code": 5,
    "city": "大仙市",
    "city_kana": "ダイセンシ",
    "town": "大曲若葉町",
    "town_kana": "オオマガリワカバチョウ",
    "street": null,
    "office_name": null,
    "office_name_kana": null
  },
  "0046": {
    "postcode": "0140046",
    "prefecture": "秋田県",
    "prefecture_kana": "アキタケン",
    "prefecture_code": 5,
    "city": "大仙市",
    "city_kana": "ダイセンシ",
    "town": "大曲田町",
    "town_kana": "オオマガリタマチ",
    "street": null,
    "office_name": null,
    "office_name_kana": null
  },
  "0047": {
    "postcode": "0140047",
    "prefecture": "秋田県",
    "prefecture_kana": "アキタケン",
    "prefecture_code": 5,
    "city": "大仙市",
    "city_kana": "ダイセンシ",
    "town": "大曲須和町",
    "town_kana": "オオマガリスワチョウ",
    "street": null,
    "office_name": null,
    "office_name_kana": null
  },
  "0048": {
    "postcode": "0140048",
    "prefecture": "秋田県",
    "prefecture_kana": "アキタケン",
    "prefecture_code": 5,
    "city": "大仙市",
    "city_kana": "ダイセンシ",
    "town": "大曲上大町",
    "town_kana": "オオマガリカミオオマチ",
    "street": null,
    "office_name": null,
    "office_name_kana": null
  },
  "0051": {
    "postcode": "0140051",
    "prefecture": "秋田県",
    "prefecture_kana": "アキタケン",
    "prefecture_code": 5,
    "city": "大仙市",
    "city_kana": "ダイセンシ",
    "town": "大曲浜町",
    "town_kana": "オオマガリハマチョウ",
    "street": null,
    "office_name": null,
    "office_name_kana": null
  },
  "0052": {
    "postcode": "0140052",
    "prefecture": "秋田県",
    "prefecture_kana": "アキタケン",
    "prefecture_code": 5,
    "city": "大仙市",
    "city_kana": "ダイセンシ",
    "town": "大曲川原町",
    "town_kana": "オオマガリカワラチョウ",
    "street": null,
    "office_name": null,
    "office_name_kana": null
  },
  "0053": {
    "postcode": "0140053",
    "prefecture": "秋田県",
    "prefecture_kana": "アキタケン",
    "prefecture_code": 5,
    "city": "大仙市",
    "city_kana": "ダイセンシ",
    "town": "大曲花園町",
    "town_kana": "オオマガリハナゾノチョウ",
    "street": null,
    "office_name": null,
    "office_name_kana": null
  },
  "0054": {
    "postcode": "0140054",
    "prefecture": "秋田県",
    "prefecture_kana": "アキタケン",
    "prefecture_code": 5,
    "city": "大仙市",
    "city_kana": "ダイセンシ",
    "town": "大曲金谷町",
    "town_kana": "オオマガリカナヤチョウ",
    "street": null,
    "office_name": null,
    "office_name_kana": null
  },
  "0055": {
    "postcode": "0140055",
    "prefecture": "秋田県",
    "prefecture_kana": "アキタケン",
    "prefecture_code": 5,
    "city": "大仙市",
    "city_kana": "ダイセンシ",
    "town": "大曲あけぼの町",
    "town_kana": "オオマガリアケボノチョウ",
    "street": null,
    "office_name": null,
    "office_name_kana": null
  },
  "0056": {
    "postcode": "0140056",
    "prefecture": "秋田県",
    "prefecture_kana": "アキタケン",
    "prefecture_code": 5,
    "city": "大仙市",
    "city_kana": "ダイセンシ",
    "town": "大曲緑町",
    "town_kana": "オオマガリミドリチョウ",
    "street": null,
    "office_name": null,
    "office_name_kana": null
  },
  "0057": {
    "postcode": "0140057",
    "prefecture": "秋田県",
    "prefecture_kana": "アキタケン",
    "prefecture_code": 5,
    "city": "大仙市",
    "city_kana": "ダイセンシ",
    "town": "大曲船場町",
    "town_kana": "オオマガリフナバチョウ",
    "street": null,
    "office_name": null,
    "office_name_kana": null
  },
  "0061": {
    "postcode": "0140061",
    "prefecture": "秋田県",
    "prefecture_kana": "アキタケン",
    "prefecture_code": 5,
    "city": "大仙市",
    "city_kana": "ダイセンシ",
    "town": "大曲栄町",
    "town_kana": "オオマガリサカエチョウ",
    "street": null,
    "office_name": null,
    "office_name_kana": null
  },
  "0062": {
    "postcode": "0140062",
    "prefecture": "秋田県",
    "prefecture_kana": "アキタケン",
    "prefecture_code": 5,
    "city": "大仙市",
    "city_kana": "ダイセンシ",
    "town": "大曲上栄町",
    "town_kana": "オオマガリカミサカエチョウ",
    "street": null,
    "office_name": null,
    "office_name_kana": null
  },
  "0063": {
    "postcode": "0140063",
    "prefecture": "秋田県",
    "prefecture_kana": "アキタケン",
    "prefecture_code": 5,
    "city": "大仙市",
    "city_kana": "ダイセンシ",
    "town": "大曲日の出町",
    "town_kana": "オオマガリヒノデチョウ",
    "street": null,
    "office_name": null,
    "office_name_kana": null
  },
  "0064": {
    "postcode": "0140064",
    "prefecture": "秋田県",
    "prefecture_kana": "アキタケン",
    "prefecture_code": 5,
    "city": "大仙市",
    "city_kana": "ダイセンシ",
    "town": "小貫高畑",
    "town_kana": "オヌキタカバタケ",
    "street": null,
    "office_name": null,
    "office_name_kana": null
  },
  "0065": {
    "postcode": "0140065",
    "prefecture": "秋田県",
    "prefecture_kana": "アキタケン",
    "prefecture_code": 5,
    "city": "大仙市",
    "city_kana": "ダイセンシ",
    "town": "下深井",
    "town_kana": "シモフカイ",
    "street": null,
    "office_name": null,
    "office_name_kana": null
  },
  "0066": {
    "postcode": "0140066",
    "prefecture": "秋田県",
    "prefecture_kana": "アキタケン",
    "prefecture_code": 5,
    "city": "大仙市",
    "city_kana": "ダイセンシ",
    "town": "川目",
    "town_kana": "カワノメ",
    "street": null,
    "office_name": null,
    "office_name_kana": null
  },
  "0067": {
    "postcode": "0140067",
    "prefecture": "秋田県",
    "prefecture_kana": "アキタケン",
    "prefecture_code": 5,
    "city": "大仙市",
    "city_kana": "ダイセンシ",
    "town": "飯田",
    "town_kana": "イイダ",
    "street": null,
    "office_name": null,
    "office_name_kana": null
  },
  "0068": {
    "postcode": "0140068",
    "prefecture": "秋田県",
    "prefecture_kana": "アキタケン",
    "prefecture_code": 5,
    "city": "大仙市",
    "city_kana": "ダイセンシ",
    "town": "大曲飯田町",
    "town_kana": "オオマガリイイダチョウ",
    "street": null,
    "office_name": null,
    "office_name_kana": null
  },
  "0071": {
    "postcode": "0140071",
    "prefecture": "秋田県",
    "prefecture_kana": "アキタケン",
    "prefecture_code": 5,
    "city": "大仙市",
    "city_kana": "ダイセンシ",
    "town": "蛭川",
    "town_kana": "ヒルガワ",
    "street": null,
    "office_name": null,
    "office_name_kana": null
  },
  "0072": {
    "postcode": "0140072",
    "prefecture": "秋田県",
    "prefecture_kana": "アキタケン",
    "prefecture_code": 5,
    "city": "大仙市",
    "city_kana": "ダイセンシ",
    "town": "大曲西根",
    "town_kana": "オオマガリニシネ",
    "street": null,
    "office_name": null,
    "office_name_kana": null
  },
  "0073": {
    "postcode": "0140073",
    "prefecture": "秋田県",
    "prefecture_kana": "アキタケン",
    "prefecture_code": 5,
    "city": "大仙市",
    "city_kana": "ダイセンシ",
    "town": "内小友",
    "town_kana": "ウチオトモ",
    "street": null,
    "office_name": null,
    "office_name_kana": null
  },
  "0101": {
    "postcode": "0140101",
    "prefecture": "秋田県",
    "prefecture_kana": "アキタケン",
    "prefecture_code": 5,
    "city": "大仙市",
    "city_kana": "ダイセンシ",
    "town": "松倉",
    "town_kana": "マツクラ",
    "street": null,
    "office_name": null,
    "office_name_kana": null
  },
  "0102": {
    "postcode": "0140102",
    "prefecture": "秋田県",
    "prefecture_kana": "アキタケン",
    "prefecture_code": 5,
    "city": "大仙市",
    "city_kana": "ダイセンシ",
    "town": "四ツ屋",
    "town_kana": "ヨツヤ",
    "street": null,
    "office_name": null,
    "office_name_kana": null
  },
  "0103": {
    "postcode": "0140103",
    "prefecture": "秋田県",
    "prefecture_kana": "アキタケン",
    "prefecture_code": 5,
    "city": "大仙市",
    "city_kana": "ダイセンシ",
    "town": "高関上郷",
    "town_kana": "タカゼキカミゴウ",
    "street": null,
    "office_name": null,
    "office_name_kana": null
  },
  "0104": {
    "postcode": "0140104",
    "prefecture": "秋田県",
    "prefecture_kana": "アキタケン",
    "prefecture_code": 5,
    "city": "大仙市",
    "city_kana": "ダイセンシ",
    "town": "新谷地",
    "town_kana": "ニイヤジ",
    "street": null,
    "office_name": null,
    "office_name_kana": null
  },
  "0111": {
    "postcode": "0140111",
    "prefecture": "秋田県",
    "prefecture_kana": "アキタケン",
    "prefecture_code": 5,
    "city": "大仙市",
    "city_kana": "ダイセンシ",
    "town": "横堀",
    "town_kana": "ヨコボリ",
    "street": null,
    "office_name": null,
    "office_name_kana": null
  },
  "0112": {
    "postcode": "0140112",
    "prefecture": "秋田県",
    "prefecture_kana": "アキタケン",
    "prefecture_code": 5,
    "city": "大仙市",
    "city_kana": "ダイセンシ",
    "town": "板見内",
    "town_kana": "イタミナイ",
    "street": null,
    "office_name": null,
    "office_name_kana": null
  },
  "0113": {
    "postcode": "0140113",
    "prefecture": "秋田県",
    "prefecture_kana": "アキタケン",
    "prefecture_code": 5,
    "city": "大仙市",
    "city_kana": "ダイセンシ",
    "town": "堀見内",
    "town_kana": "ホリミナイ",
    "street": null,
    "office_name": null,
    "office_name_kana": null
  },
  "0114": {
    "postcode": "0140114",
    "prefecture": "秋田県",
    "prefecture_kana": "アキタケン",
    "prefecture_code": 5,
    "city": "大仙市",
    "city_kana": "ダイセンシ",
    "town": "福田",
    "town_kana": "フクダ",
    "street": null,
    "office_name": null,
    "office_name_kana": null
  },
  "0201": {
    "postcode": "0140201",
    "prefecture": "秋田県",
    "prefecture_kana": "アキタケン",
    "prefecture_code": 5,
    "city": "大仙市",
    "city_kana": "ダイセンシ",
    "town": "下鶯野",
    "town_kana": "シモウグイスノ",
    "street": null,
    "office_name": null,
    "office_name_kana": null
  },
  "0202": {
    "postcode": "0140202",
    "prefecture": "秋田県",
    "prefecture_kana": "アキタケン",
    "prefecture_code": 5,
    "city": "大仙市",
    "city_kana": "ダイセンシ",
    "town": "上鶯野",
    "town_kana": "カミウグイスノ",
    "street": null,
    "office_name": null,
    "office_name_kana": null
  },
  "0203": {
    "postcode": "0140203",
    "prefecture": "秋田県",
    "prefecture_kana": "アキタケン",
    "prefecture_code": 5,
    "city": "大仙市",
    "city_kana": "ダイセンシ",
    "town": "北長野",
    "town_kana": "キタナガノ",
    "street": null,
    "office_name": null,
    "office_name_kana": null
  },
  "0204": {
    "postcode": "0140204",
    "prefecture": "秋田県",
    "prefecture_kana": "アキタケン",
    "prefecture_code": 5,
    "city": "大仙市",
    "city_kana": "ダイセンシ",
    "town": "清水",
    "town_kana": "シミズ",
    "street": null,
    "office_name": null,
    "office_name_kana": null
  },
  "0205": {
    "postcode": "0140205",
    "prefecture": "秋田県",
    "prefecture_kana": "アキタケン",
    "prefecture_code": 5,
    "city": "大仙市",
    "city_kana": "ダイセンシ",
    "town": "鑓見内",
    "town_kana": "ヤリミナイ",
    "street": null,
    "office_name": null,
    "office_name_kana": null
  },
  "0206": {
    "postcode": "0140206",
    "prefecture": "秋田県",
    "prefecture_kana": "アキタケン",
    "prefecture_code": 5,
    "city": "大仙市",
    "city_kana": "ダイセンシ",
    "town": "長戸呂",
    "town_kana": "ナガトロ",
    "street": null,
    "office_name": null,
    "office_name_kana": null
  },
  "0207": {
    "postcode": "0140207",
    "prefecture": "秋田県",
    "prefecture_kana": "アキタケン",
    "prefecture_code": 5,
    "city": "大仙市",
    "city_kana": "ダイセンシ",
    "town": "長野",
    "town_kana": "ナガノ",
    "street": null,
    "office_name": null,
    "office_name_kana": null
  },
  "0292": {
    "postcode": "0140292",
    "prefecture": "秋田県",
    "prefecture_kana": "アキタケン",
    "prefecture_code": 5,
    "city": "大仙市",
    "city_kana": "ダイセンシ",
    "town": "北長野",
    "town_kana": "キタナガノ",
    "street": "字茶畑１４１",
    "office_name": "大仙市役所　中仙総合支所",
    "office_name_kana": "ダイセンシヤクシヨ ナカセンソウゴウシシヨ"
  },
  "0300": {
    "postcode": "0140300",
    "prefecture": "秋田県",
    "prefecture_kana": "アキタケン",
    "prefecture_code": 5,
    "city": "仙北市",
    "city_kana": "センボクシ",
    "town": "",
    "town_kana": "",
    "street": null,
    "office_name": null,
    "office_name_kana": null
  },
  "0301": {
    "postcode": "0140301",
    "prefecture": "秋田県",
    "prefecture_kana": "アキタケン",
    "prefecture_code": 5,
    "city": "仙北市",
    "city_kana": "センボクシ",
    "town": "角館町広久内",
    "town_kana": "カクノダテマチヒロクナイ",
    "street": null,
    "office_name": null,
    "office_name_kana": null
  },
  "0302": {
    "postcode": "0140302",
    "prefecture": "秋田県",
    "prefecture_kana": "アキタケン",
    "prefecture_code": 5,
    "city": "仙北市",
    "city_kana": "センボクシ",
    "town": "角館町白岩",
    "town_kana": "カクノダテマチシライワ",
    "street": null,
    "office_name": null,
    "office_name_kana": null
  },
  "0303": {
    "postcode": "0140303",
    "prefecture": "秋田県",
    "prefecture_kana": "アキタケン",
    "prefecture_code": 5,
    "city": "仙北市",
    "city_kana": "センボクシ",
    "town": "角館町薗田",
    "town_kana": "カクノダテマチソノダ",
    "street": null,
    "office_name": null,
    "office_name_kana": null
  },
  "0311": {
    "postcode": "0140311",
    "prefecture": "秋田県",
    "prefecture_kana": "アキタケン",
    "prefecture_code": 5,
    "city": "仙北市",
    "city_kana": "センボクシ",
    "town": "角館町田町上丁",
    "town_kana": "カクノダテマチタマチカミチョウ",
    "street": null,
    "office_name": null,
    "office_name_kana": null
  },
  "0312": {
    "postcode": "0140312",
    "prefecture": "秋田県",
    "prefecture_kana": "アキタケン",
    "prefecture_code": 5,
    "city": "仙北市",
    "city_kana": "センボクシ",
    "town": "角館町田町下丁",
    "town_kana": "カクノダテマチタマチシモチョウ",
    "street": null,
    "office_name": null,
    "office_name_kana": null
  },
  "0313": {
    "postcode": "0140313",
    "prefecture": "秋田県",
    "prefecture_kana": "アキタケン",
    "prefecture_code": 5,
    "city": "仙北市",
    "city_kana": "センボクシ",
    "town": "角館町下岩瀬町",
    "town_kana": "カクノダテマチシモイワセマチ",
    "street": null,
    "office_name": null,
    "office_name_kana": null
  },
  "0315": {
    "postcode": "0140315",
    "prefecture": "秋田県",
    "prefecture_kana": "アキタケン",
    "prefecture_code": 5,
    "city": "仙北市",
    "city_kana": "センボクシ",
    "town": "角館町下新町",
    "town_kana": "カクノダテマチシモシンマチ",
    "street": null,
    "office_name": null,
    "office_name_kana": null
  },
  "0316": {
    "postcode": "0140316",
    "prefecture": "秋田県",
    "prefecture_kana": "アキタケン",
    "prefecture_code": 5,
    "city": "仙北市",
    "city_kana": "センボクシ",
    "town": "角館町岩瀬町",
    "town_kana": "カクノダテマチイワセマチ",
    "street": null,
    "office_name": null,
    "office_name_kana": null
  },
  "0317": {
    "postcode": "0140317",
    "prefecture": "秋田県",
    "prefecture_kana": "アキタケン",
    "prefecture_code": 5,
    "city": "仙北市",
    "city_kana": "センボクシ",
    "town": "角館町下中町",
    "town_kana": "カクノダテマチシモナカマチ",
    "street": null,
    "office_name": null,
    "office_name_kana": null
  },
  "0318": {
    "postcode": "0140318",
    "prefecture": "秋田県",
    "prefecture_kana": "アキタケン",
    "prefecture_code": 5,
    "city": "仙北市",
    "city_kana": "センボクシ",
    "town": "角館町中町",
    "town_kana": "カクノダテマチナカマチ",
    "street": null,
    "office_name": null,
    "office_name_kana": null
  },
  "0321": {
    "postcode": "0140321",
    "prefecture": "秋田県",
    "prefecture_kana": "アキタケン",
    "prefecture_code": 5,
    "city": "仙北市",
    "city_kana": "センボクシ",
    "town": "角館町西勝楽町",
    "town_kana": "カクノダテマチニシカツラクマチ",
    "street": null,
    "office_name": null,
    "office_name_kana": null
  },
  "0322": {
    "postcode": "0140322",
    "prefecture": "秋田県",
    "prefecture_kana": "アキタケン",
    "prefecture_code": 5,
    "city": "仙北市",
    "city_kana": "センボクシ",
    "town": "角館町七日町",
    "town_kana": "カクノダテマチナノカマチ",
    "street": null,
    "office_name": null,
    "office_name_kana": null
  },
  "0323": {
    "postcode": "0140323",
    "prefecture": "秋田県",
    "prefecture_kana": "アキタケン",
    "prefecture_code": 5,
    "city": "仙北市",
    "city_kana": "センボクシ",
    "town": "角館町横町",
    "town_kana": "カクノダテマチヨコマチ",
    "street": null,
    "office_name": null,
    "office_name_kana": null
  },
  "0324": {
    "postcode": "0140324",
    "prefecture": "秋田県",
    "prefecture_kana": "アキタケン",
    "prefecture_code": 5,
    "city": "仙北市",
    "city_kana": "センボクシ",
    "town": "角館町小人町",
    "town_kana": "カクノダテマチコビトマチ",
    "street": null,
    "office_name": null,
    "office_name_kana": null
  },
  "0325": {
    "postcode": "0140325",
    "prefecture": "秋田県",
    "prefecture_kana": "アキタケン",
    "prefecture_code": 5,
    "city": "仙北市",
    "city_kana": "センボクシ",
    "town": "角館町東勝楽丁",
    "town_kana": "カクノダテマチヒガシカツラクチョウ",
    "street": null,
    "office_name": null,
    "office_name_kana": null
  },
  "0326": {
    "postcode": "0140326",
    "prefecture": "秋田県",
    "prefecture_kana": "アキタケン",
    "prefecture_code": 5,
    "city": "仙北市",
    "city_kana": "センボクシ",
    "town": "角館町山根町",
    "town_kana": "カクノダテマチヤマネマチ",
    "street": null,
    "office_name": null,
    "office_name_kana": null
  },
  "0327": {
    "postcode": "0140327",
    "prefecture": "秋田県",
    "prefecture_kana": "アキタケン",
    "prefecture_code": 5,
    "city": "仙北市",
    "city_kana": "センボクシ",
    "town": "角館町上新町",
    "town_kana": "カクノダテマチカミシンマチ",
    "street": null,
    "office_name": null,
    "office_name_kana": null
  },
  "0328": {
    "postcode": "0140328",
    "prefecture": "秋田県",
    "prefecture_kana": "アキタケン",
    "prefecture_code": 5,
    "city": "仙北市",
    "city_kana": "センボクシ",
    "town": "角館町竹原町",
    "town_kana": "カクノダテマチタケワラマチ",
    "street": null,
    "office_name": null,
    "office_name_kana": null
  },
  "0331": {
    "postcode": "0140331",
    "prefecture": "秋田県",
    "prefecture_kana": "アキタケン",
    "prefecture_code": 5,
    "city": "仙北市",
    "city_kana": "センボクシ",
    "town": "角館町表町下丁",
    "town_kana": "カクノダテマチオモテマチシモチョウ",
    "street": null,
    "office_name": null,
    "office_name_kana": null
  },
  "0332": {
    "postcode": "0140332",
    "prefecture": "秋田県",
    "prefecture_kana": "アキタケン",
    "prefecture_code": 5,
    "city": "仙北市",
    "city_kana": "センボクシ",
    "town": "角館町歩行町",
    "town_kana": "カクノダテマチオカチマチ",
    "street": null,
    "office_name": null,
    "office_name_kana": null
  },
  "0333": {
    "postcode": "0140333",
    "prefecture": "秋田県",
    "prefecture_kana": "アキタケン",
    "prefecture_code": 5,
    "city": "仙北市",
    "city_kana": "センボクシ",
    "town": "角館町川原町",
    "town_kana": "カクノダテマチカワラマチ",
    "street": null,
    "office_name": null,
    "office_name_kana": null
  },
  "0334": {
    "postcode": "0140334",
    "prefecture": "秋田県",
    "prefecture_kana": "アキタケン",
    "prefecture_code": 5,
    "city": "仙北市",
    "city_kana": "センボクシ",
    "town": "角館町表町上丁",
    "town_kana": "カクノダテマチオモテマチカミチョウ",
    "street": null,
    "office_name": null,
    "office_name_kana": null
  },
  "0335": {
    "postcode": "0140335",
    "prefecture": "秋田県",
    "prefecture_kana": "アキタケン",
    "prefecture_code": 5,
    "city": "仙北市",
    "city_kana": "センボクシ",
    "town": "角館町細越町",
    "town_kana": "カクノダテマチホソゴエマチ",
    "street": null,
    "office_name": null,
    "office_name_kana": null
  },
  "0336": {
    "postcode": "0140336",
    "prefecture": "秋田県",
    "prefecture_kana": "アキタケン",
    "prefecture_code": 5,
    "city": "仙北市",
    "city_kana": "センボクシ",
    "town": "角館町裏町",
    "town_kana": "カクノダテマチウラマチ",
    "street": null,
    "office_name": null,
    "office_name_kana": null
  },
  "0337": {
    "postcode": "0140337",
    "prefecture": "秋田県",
    "prefecture_kana": "アキタケン",
    "prefecture_code": 5,
    "city": "仙北市",
    "city_kana": "センボクシ",
    "town": "角館町古城",
    "town_kana": "カクノダテマチフルシロ",
    "street": null,
    "office_name": null,
    "office_name_kana": null
  },
  "0341": {
    "postcode": "0140341",
    "prefecture": "秋田県",
    "prefecture_kana": "アキタケン",
    "prefecture_code": 5,
    "city": "仙北市",
    "city_kana": "センボクシ",
    "town": "角館町雲然",
    "town_kana": "カクノダテマチクモシカリ",
    "street": null,
    "office_name": null,
    "office_name_kana": null
  },
  "0342": {
    "postcode": "0140342",
    "prefecture": "秋田県",
    "prefecture_kana": "アキタケン",
    "prefecture_code": 5,
    "city": "仙北市",
    "city_kana": "センボクシ",
    "town": "角館町八割",
    "town_kana": "カクノダテマチハチワリ",
    "street": null,
    "office_name": null,
    "office_name_kana": null
  },
  "0343": {
    "postcode": "0140343",
    "prefecture": "秋田県",
    "prefecture_kana": "アキタケン",
    "prefecture_code": 5,
    "city": "仙北市",
    "city_kana": "センボクシ",
    "town": "角館町下延",
    "town_kana": "カクノダテマチシモノブ",
    "street": null,
    "office_name": null,
    "office_name_kana": null
  },
  "0344": {
    "postcode": "0140344",
    "prefecture": "秋田県",
    "prefecture_kana": "アキタケン",
    "prefecture_code": 5,
    "city": "仙北市",
    "city_kana": "センボクシ",
    "town": "角館町西長野",
    "town_kana": "カクノダテマチニシナガノ",
    "street": null,
    "office_name": null,
    "office_name_kana": null
  },
  "0345": {
    "postcode": "0140345",
    "prefecture": "秋田県",
    "prefecture_kana": "アキタケン",
    "prefecture_code": 5,
    "city": "仙北市",
    "city_kana": "センボクシ",
    "town": "角館町山谷川崎",
    "town_kana": "カクノダテマチヤマヤカワサキ",
    "street": null,
    "office_name": null,
    "office_name_kana": null
  },
  "0346": {
    "postcode": "0140346",
    "prefecture": "秋田県",
    "prefecture_kana": "アキタケン",
    "prefecture_code": 5,
    "city": "仙北市",
    "city_kana": "センボクシ",
    "town": "角館町川原",
    "town_kana": "カクノダテマチカワラ",
    "street": null,
    "office_name": null,
    "office_name_kana": null
  },
  "0347": {
    "postcode": "0140347",
    "prefecture": "秋田県",
    "prefecture_kana": "アキタケン",
    "prefecture_code": 5,
    "city": "仙北市",
    "city_kana": "センボクシ",
    "town": "角館町小勝田",
    "town_kana": "カクノダテマチオガタ",
    "street": null,
    "office_name": null,
    "office_name_kana": null
  },
  "0351": {
    "postcode": "0140351",
    "prefecture": "秋田県",
    "prefecture_kana": "アキタケン",
    "prefecture_code": 5,
    "city": "仙北市",
    "city_kana": "センボクシ",
    "town": "角館町古城山",
    "town_kana": "カクノダテマチフルシロヤマ",
    "street": null,
    "office_name": null,
    "office_name_kana": null
  },
  "0352": {
    "postcode": "0140352",
    "prefecture": "秋田県",
    "prefecture_kana": "アキタケン",
    "prefecture_code": 5,
    "city": "仙北市",
    "city_kana": "センボクシ",
    "town": "角館町外ノ山",
    "town_kana": "カクノダテマチトノヤマ",
    "street": null,
    "office_name": null,
    "office_name_kana": null
  },
  "0353": {
    "postcode": "0140353",
    "prefecture": "秋田県",
    "prefecture_kana": "アキタケン",
    "prefecture_code": 5,
    "city": "仙北市",
    "city_kana": "センボクシ",
    "town": "角館町西菅沢",
    "town_kana": "カクノダテマチニシスガザワ",
    "street": null,
    "office_name": null,
    "office_name_kana": null
  },
  "0354": {
    "postcode": "0140354",
    "prefecture": "秋田県",
    "prefecture_kana": "アキタケン",
    "prefecture_code": 5,
    "city": "仙北市",
    "city_kana": "センボクシ",
    "town": "角館町水ノ目沢",
    "town_kana": "カクノダテマチミズノメサワ",
    "street": null,
    "office_name": null,
    "office_name_kana": null
  },
  "0355": {
    "postcode": "0140355",
    "prefecture": "秋田県",
    "prefecture_kana": "アキタケン",
    "prefecture_code": 5,
    "city": "仙北市",
    "city_kana": "センボクシ",
    "town": "角館町外ノ山官有地",
    "town_kana": "カクノダテマチトノヤマカンユウチ",
    "street": null,
    "office_name": null,
    "office_name_kana": null
  },
  "0356": {
    "postcode": "0140356",
    "prefecture": "秋田県",
    "prefecture_kana": "アキタケン",
    "prefecture_code": 5,
    "city": "仙北市",
    "city_kana": "センボクシ",
    "town": "角館町花場",
    "town_kana": "カクノダテマチハナバ",
    "street": null,
    "office_name": null,
    "office_name_kana": null
  },
  "0357": {
    "postcode": "0140357",
    "prefecture": "秋田県",
    "prefecture_kana": "アキタケン",
    "prefecture_code": 5,
    "city": "仙北市",
    "city_kana": "センボクシ",
    "town": "角館町花場下",
    "town_kana": "カクノダテマチハナバシタ",
    "street": null,
    "office_name": null,
    "office_name_kana": null
  },
  "0358": {
    "postcode": "0140358",
    "prefecture": "秋田県",
    "prefecture_kana": "アキタケン",
    "prefecture_code": 5,
    "city": "仙北市",
    "city_kana": "センボクシ",
    "town": "角館町川原町後",
    "town_kana": "カクノダテマチカワラマチウシロ",
    "street": null,
    "office_name": null,
    "office_name_kana": null
  },
  "0359": {
    "postcode": "0140359",
    "prefecture": "秋田県",
    "prefecture_kana": "アキタケン",
    "prefecture_code": 5,
    "city": "仙北市",
    "city_kana": "センボクシ",
    "town": "角館町北野",
    "town_kana": "カクノダテマチキタノ",
    "street": null,
    "office_name": null,
    "office_name_kana": null
  },
  "0361": {
    "postcode": "0140361",
    "prefecture": "秋田県",
    "prefecture_kana": "アキタケン",
    "prefecture_code": 5,
    "city": "仙北市",
    "city_kana": "センボクシ",
    "town": "角館町鳥木沢",
    "town_kana": "カクノダテマチトリキザワ",
    "street": null,
    "office_name": null,
    "office_name_kana": null
  },
  "0362": {
    "postcode": "0140362",
    "prefecture": "秋田県",
    "prefecture_kana": "アキタケン",
    "prefecture_code": 5,
    "city": "仙北市",
    "city_kana": "センボクシ",
    "town": "角館町金山下",
    "town_kana": "カクノダテマチカナヤマシタ",
    "street": null,
    "office_name": null,
    "office_name_kana": null
  },
  "0363": {
    "postcode": "0140363",
    "prefecture": "秋田県",
    "prefecture_kana": "アキタケン",
    "prefecture_code": 5,
    "city": "仙北市",
    "city_kana": "センボクシ",
    "town": "角館町下川原",
    "town_kana": "カクノダテマチシタガワラ",
    "street": null,
    "office_name": null,
    "office_name_kana": null
  },
  "0364": {
    "postcode": "0140364",
    "prefecture": "秋田県",
    "prefecture_kana": "アキタケン",
    "prefecture_code": 5,
    "city": "仙北市",
    "city_kana": "センボクシ",
    "town": "角館町大中嶋",
    "town_kana": "カクノダテマチオオナカジマ",
    "street": null,
    "office_name": null,
    "office_name_kana": null
  },
  "0365": {
    "postcode": "0140365",
    "prefecture": "秋田県",
    "prefecture_kana": "アキタケン",
    "prefecture_code": 5,
    "city": "仙北市",
    "city_kana": "センボクシ",
    "town": "角館町菅沢",
    "town_kana": "カクノダテマチスガザワ",
    "street": null,
    "office_name": null,
    "office_name_kana": null
  },
  "0366": {
    "postcode": "0140366",
    "prefecture": "秋田県",
    "prefecture_kana": "アキタケン",
    "prefecture_code": 5,
    "city": "仙北市",
    "city_kana": "センボクシ",
    "town": "角館町下菅沢",
    "town_kana": "カクノダテマチシモスガザワ",
    "street": null,
    "office_name": null,
    "office_name_kana": null
  },
  "0367": {
    "postcode": "0140367",
    "prefecture": "秋田県",
    "prefecture_kana": "アキタケン",
    "prefecture_code": 5,
    "city": "仙北市",
    "city_kana": "センボクシ",
    "town": "角館町勝楽",
    "town_kana": "カクノダテマチカツラク",
    "street": null,
    "office_name": null,
    "office_name_kana": null
  },
  "0368": {
    "postcode": "0140368",
    "prefecture": "秋田県",
    "prefecture_kana": "アキタケン",
    "prefecture_code": 5,
    "city": "仙北市",
    "city_kana": "センボクシ",
    "town": "角館町中菅沢",
    "town_kana": "カクノダテマチナカスガザワ",
    "street": null,
    "office_name": null,
    "office_name_kana": null
  },
  "0369": {
    "postcode": "0140369",
    "prefecture": "秋田県",
    "prefecture_kana": "アキタケン",
    "prefecture_code": 5,
    "city": "仙北市",
    "city_kana": "センボクシ",
    "town": "角館町上菅沢",
    "town_kana": "カクノダテマチカミスガザワ",
    "street": null,
    "office_name": null,
    "office_name_kana": null
  },
  "0371": {
    "postcode": "0140371",
    "prefecture": "秋田県",
    "prefecture_kana": "アキタケン",
    "prefecture_code": 5,
    "city": "仙北市",
    "city_kana": "センボクシ",
    "town": "角館町大風呂",
    "town_kana": "カクノダテマチオオフロ",
    "street": null,
    "office_name": null,
    "office_name_kana": null
  },
  "0372": {
    "postcode": "0140372",
    "prefecture": "秋田県",
    "prefecture_kana": "アキタケン",
    "prefecture_code": 5,
    "city": "仙北市",
    "city_kana": "センボクシ",
    "town": "角館町小館",
    "town_kana": "カクノダテマチコダテ",
    "street": null,
    "office_name": null,
    "office_name_kana": null
  },
  "0373": {
    "postcode": "0140373",
    "prefecture": "秋田県",
    "prefecture_kana": "アキタケン",
    "prefecture_code": 5,
    "city": "仙北市",
    "city_kana": "センボクシ",
    "town": "角館町岩瀬",
    "town_kana": "カクノダテマチイワセ",
    "street": null,
    "office_name": null,
    "office_name_kana": null
  },
  "0374": {
    "postcode": "0140374",
    "prefecture": "秋田県",
    "prefecture_kana": "アキタケン",
    "prefecture_code": 5,
    "city": "仙北市",
    "city_kana": "センボクシ",
    "town": "角館町上野",
    "town_kana": "カクノダテマチウワノ",
    "street": null,
    "office_name": null,
    "office_name_kana": null
  },
  "0375": {
    "postcode": "0140375",
    "prefecture": "秋田県",
    "prefecture_kana": "アキタケン",
    "prefecture_code": 5,
    "city": "仙北市",
    "city_kana": "センボクシ",
    "town": "角館町岩瀬下タ野",
    "town_kana": "カクノダテマチイワセシタノ",
    "street": null,
    "office_name": null,
    "office_name_kana": null
  },
  "0376": {
    "postcode": "0140376",
    "prefecture": "秋田県",
    "prefecture_kana": "アキタケン",
    "prefecture_code": 5,
    "city": "仙北市",
    "city_kana": "センボクシ",
    "town": "角館町西下タ野",
    "town_kana": "カクノダテマチニシシタノ",
    "street": null,
    "office_name": null,
    "office_name_kana": null
  },
  "0377": {
    "postcode": "0140377",
    "prefecture": "秋田県",
    "prefecture_kana": "アキタケン",
    "prefecture_code": 5,
    "city": "仙北市",
    "city_kana": "センボクシ",
    "town": "角館町西田",
    "town_kana": "カクノダテマチニシタ",
    "street": null,
    "office_name": null,
    "office_name_kana": null
  },
  "0378": {
    "postcode": "0140378",
    "prefecture": "秋田県",
    "prefecture_kana": "アキタケン",
    "prefecture_code": 5,
    "city": "仙北市",
    "city_kana": "センボクシ",
    "town": "角館町西野川原",
    "town_kana": "カクノダテマチニシノカワラ",
    "street": null,
    "office_name": null,
    "office_name_kana": null
  },
  "0379": {
    "postcode": "0140379",
    "prefecture": "秋田県",
    "prefecture_kana": "アキタケン",
    "prefecture_code": 5,
    "city": "仙北市",
    "city_kana": "センボクシ",
    "town": "角館町西北野",
    "town_kana": "カクノダテマチニシキタノ",
    "street": null,
    "office_name": null,
    "office_name_kana": null
  },
  "0392": {
    "postcode": "0140392",
    "prefecture": "秋田県",
    "prefecture_kana": "アキタケン",
    "prefecture_code": 5,
    "city": "仙北市",
    "city_kana": "センボクシ",
    "town": "角館町",
    "town_kana": null,
    "street": "中菅沢８１番地８",
    "office_name": "仙北市役所　角館庁舎",
    "office_name_kana": "センボクシヤクシヨ カクノダテチヨウシヤ"
  },
  "0393": {
    "postcode": "0140393",
    "prefecture": "秋田県",
    "prefecture_kana": "アキタケン",
    "prefecture_code": 5,
    "city": "仙北市",
    "city_kana": "センボクシ",
    "town": "角館町細越町",
    "town_kana": "カクノダテマチホソゴエマチ",
    "street": "３７",
    "office_name": "秋田県立　角館高等学校",
    "office_name_kana": "アキタケンリツ カクノダテコウトウガツコウ"
  },
  "0394": {
    "postcode": "0140394",
    "prefecture": "秋田県",
    "prefecture_kana": "アキタケン",
    "prefecture_code": 5,
    "city": "仙北市",
    "city_kana": "センボクシ",
    "town": "角館町",
    "town_kana": null,
    "street": "上野１８",
    "office_name": "仙北市立　角館総合病院",
    "office_name_kana": "センボクシリツ カクノダテソウゴウビヨウイン"
  },
  "0511": {
    "postcode": "0140511",
    "prefecture": "秋田県",
    "prefecture_kana": "アキタケン",
    "prefecture_code": 5,
    "city": "仙北市",
    "city_kana": "センボクシ",
    "town": "西木町西明寺",
    "town_kana": "ニシキチョウサイミョウジ",
    "street": null,
    "office_name": null,
    "office_name_kana": null
  },
  "0512": {
    "postcode": "0140512",
    "prefecture": "秋田県",
    "prefecture_kana": "アキタケン",
    "prefecture_code": 5,
    "city": "仙北市",
    "city_kana": "センボクシ",
    "town": "西木町上荒井",
    "town_kana": "ニシキチョウカミアライ",
    "street": null,
    "office_name": null,
    "office_name_kana": null
  },
  "0513": {
    "postcode": "0140513",
    "prefecture": "秋田県",
    "prefecture_kana": "アキタケン",
    "prefecture_code": 5,
    "city": "仙北市",
    "city_kana": "センボクシ",
    "town": "西木町小渕野",
    "town_kana": "ニシキチョウコブチノ",
    "street": null,
    "office_name": null,
    "office_name_kana": null
  },
  "0514": {
    "postcode": "0140514",
    "prefecture": "秋田県",
    "prefecture_kana": "アキタケン",
    "prefecture_code": 5,
    "city": "仙北市",
    "city_kana": "センボクシ",
    "town": "西木町西荒井",
    "town_kana": "ニシキチョウニシアライ",
    "street": null,
    "office_name": null,
    "office_name_kana": null
  },
  "0515": {
    "postcode": "0140515",
    "prefecture": "秋田県",
    "prefecture_kana": "アキタケン",
    "prefecture_code": 5,
    "city": "仙北市",
    "city_kana": "センボクシ",
    "town": "西木町門屋",
    "town_kana": "ニシキチョウカドヤ",
    "street": null,
    "office_name": null,
    "office_name_kana": null
  },
  "0516": {
    "postcode": "0140516",
    "prefecture": "秋田県",
    "prefecture_kana": "アキタケン",
    "prefecture_code": 5,
    "city": "仙北市",
    "city_kana": "センボクシ",
    "town": "西木町小山田",
    "town_kana": "ニシキチョウコヤマダ",
    "street": null,
    "office_name": null,
    "office_name_kana": null
  },
  "0592": {
    "postcode": "0140592",
    "prefecture": "秋田県",
    "prefecture_kana": "アキタケン",
    "prefecture_code": 5,
    "city": "仙北市",
    "city_kana": "センボクシ",
    "town": "西木町上荒井",
    "town_kana": "ニシキチョウカミアライ",
    "street": "字古堀田４７",
    "office_name": "仙北市役所　西木庁舎",
    "office_name_kana": "センボクシヤクシヨ ニシキチヨウシヤ"
  },
  "0601": {
    "postcode": "0140601",
    "prefecture": "秋田県",
    "prefecture_kana": "アキタケン",
    "prefecture_code": 5,
    "city": "仙北市",
    "city_kana": "センボクシ",
    "town": "西木町上桧木内",
    "town_kana": "ニシキチョウカミヒノキナイ",
    "street": null,
    "office_name": null,
    "office_name_kana": null
  },
  "0602": {
    "postcode": "0140602",
    "prefecture": "秋田県",
    "prefecture_kana": "アキタケン",
    "prefecture_code": 5,
    "city": "仙北市",
    "city_kana": "センボクシ",
    "town": "西木町桧木内",
    "town_kana": "ニシキチョウヒノキナイ",
    "street": null,
    "office_name": null,
    "office_name_kana": null
  },
  "0711": {
    "postcode": "0140711",
    "prefecture": "秋田県",
    "prefecture_kana": "アキタケン",
    "prefecture_code": 5,
    "city": "大仙市",
    "city_kana": "ダイセンシ",
    "town": "豊川",
    "town_kana": "トヨカワ",
    "street": null,
    "office_name": null,
    "office_name_kana": null
  },
  "0712": {
    "postcode": "0140712",
    "prefecture": "秋田県",
    "prefecture_kana": "アキタケン",
    "prefecture_code": 5,
    "city": "大仙市",
    "city_kana": "ダイセンシ",
    "town": "豊岡",
    "town_kana": "トヨオカ",
    "street": null,
    "office_name": null,
    "office_name_kana": null
  },
  "0713": {
    "postcode": "0140713",
    "prefecture": "秋田県",
    "prefecture_kana": "アキタケン",
    "prefecture_code": 5,
    "city": "大仙市",
    "city_kana": "ダイセンシ",
    "town": "栗沢",
    "town_kana": "クリサワ",
    "street": null,
    "office_name": null,
    "office_name_kana": null
  },
  "0714": {
    "postcode": "0140714",
    "prefecture": "秋田県",
    "prefecture_kana": "アキタケン",
    "prefecture_code": 5,
    "city": "大仙市",
    "city_kana": "ダイセンシ",
    "town": "大神成",
    "town_kana": "オオカンナリ",
    "street": null,
    "office_name": null,
    "office_name_kana": null
  },
  "0801": {
    "postcode": "0140801",
    "prefecture": "秋田県",
    "prefecture_kana": "アキタケン",
    "prefecture_code": 5,
    "city": "大仙市",
    "city_kana": "ダイセンシ",
    "town": "戸地谷",
    "town_kana": "トチヤ",
    "street": null,
    "office_name": null,
    "office_name_kana": null
  },
  "0802": {
    "postcode": "0140802",
    "prefecture": "秋田県",
    "prefecture_kana": "アキタケン",
    "prefecture_code": 5,
    "city": "大仙市",
    "city_kana": "ダイセンシ",
    "town": "払田",
    "town_kana": "ホッタ",
    "street": null,
    "office_name": null,
    "office_name_kana": null
  },
  "0803": {
    "postcode": "0140803",
    "prefecture": "秋田県",
    "prefecture_kana": "アキタケン",
    "prefecture_code": 5,
    "city": "大仙市",
    "city_kana": "ダイセンシ",
    "town": "上野田",
    "town_kana": "コウズケタ",
    "street": null,
    "office_name": null,
    "office_name_kana": null
  },
  "0804": {
    "postcode": "0140804",
    "prefecture": "秋田県",
    "prefecture_kana": "アキタケン",
    "prefecture_code": 5,
    "city": "大仙市",
    "city_kana": "ダイセンシ",
    "town": "橋本",
    "town_kana": "ハシモト",
    "street": null,
    "office_name": null,
    "office_name_kana": null
  },
  "0805": {
    "postcode": "0140805",
    "prefecture": "秋田県",
    "prefecture_kana": "アキタケン",
    "prefecture_code": 5,
    "city": "大仙市",
    "city_kana": "ダイセンシ",
    "town": "高梨",
    "town_kana": "タカナシ",
    "street": null,
    "office_name": null,
    "office_name_kana": null
  },
  "1111": {
    "postcode": "0141111",
    "prefecture": "秋田県",
    "prefecture_kana": "アキタケン",
    "prefecture_code": 5,
    "city": "仙北市",
    "city_kana": "センボクシ",
    "town": "田沢湖岡崎",
    "town_kana": "タザワコオカザキ",
    "street": null,
    "office_name": null,
    "office_name_kana": null
  },
  "1112": {
    "postcode": "0141112",
    "prefecture": "秋田県",
    "prefecture_kana": "アキタケン",
    "prefecture_code": 5,
    "city": "仙北市",
    "city_kana": "センボクシ",
    "town": "田沢湖梅沢",
    "town_kana": "タザワコウメザワ",
    "street": null,
    "office_name": null,
    "office_name_kana": null
  },
  "1113": {
    "postcode": "0141113",
    "prefecture": "秋田県",
    "prefecture_kana": "アキタケン",
    "prefecture_code": 5,
    "city": "仙北市",
    "city_kana": "センボクシ",
    "town": "田沢湖卒田",
    "town_kana": "タザワコソツダ",
    "street": null,
    "office_name": null,
    "office_name_kana": null
  },
  "1114": {
    "postcode": "0141114",
    "prefecture": "秋田県",
    "prefecture_kana": "アキタケン",
    "prefecture_code": 5,
    "city": "仙北市",
    "city_kana": "センボクシ",
    "town": "田沢湖神代",
    "town_kana": "タザワコジンダイ",
    "street": null,
    "office_name": null,
    "office_name_kana": null
  },
  "1115": {
    "postcode": "0141115",
    "prefecture": "秋田県",
    "prefecture_kana": "アキタケン",
    "prefecture_code": 5,
    "city": "仙北市",
    "city_kana": "センボクシ",
    "town": "田沢湖小松",
    "town_kana": "タザワココマツ",
    "street": null,
    "office_name": null,
    "office_name_kana": null
  },
  "1116": {
    "postcode": "0141116",
    "prefecture": "秋田県",
    "prefecture_kana": "アキタケン",
    "prefecture_code": 5,
    "city": "仙北市",
    "city_kana": "センボクシ",
    "town": "田沢湖角館東前郷",
    "town_kana": "タザワコカクノダテヒガシマエゴウ",
    "street": null,
    "office_name": null,
    "office_name_kana": null
  },
  "1192": {
    "postcode": "0141192",
    "prefecture": "秋田県",
    "prefecture_kana": "アキタケン",
    "prefecture_code": 5,
    "city": "仙北市",
    "city_kana": "センボクシ",
    "town": "田沢湖卒田",
    "town_kana": "タザワコソツダ",
    "street": "字早稲田４３０",
    "office_name": "株式会社　わらび座",
    "office_name_kana": "カブシキガイシヤ ワラビザ"
  },
  "1201": {
    "postcode": "0141201",
    "prefecture": "秋田県",
    "prefecture_kana": "アキタケン",
    "prefecture_code": 5,
    "city": "仙北市",
    "city_kana": "センボクシ",
    "town": "田沢湖生保内",
    "town_kana": "タザワコオボナイ",
    "street": null,
    "office_name": null,
    "office_name_kana": null
  },
  "1202": {
    "postcode": "0141202",
    "prefecture": "秋田県",
    "prefecture_kana": "アキタケン",
    "prefecture_code": 5,
    "city": "仙北市",
    "city_kana": "センボクシ",
    "town": "田沢湖刺巻",
    "town_kana": "タザワコサシマキ",
    "street": null,
    "office_name": null,
    "office_name_kana": null
  },
  "1203": {
    "postcode": "0141203",
    "prefecture": "秋田県",
    "prefecture_kana": "アキタケン",
    "prefecture_code": 5,
    "city": "仙北市",
    "city_kana": "センボクシ",
    "town": "田沢湖潟",
    "town_kana": "タザワコカタ",
    "street": null,
    "office_name": null,
    "office_name_kana": null
  },
  "1204": {
    "postcode": "0141204",
    "prefecture": "秋田県",
    "prefecture_kana": "アキタケン",
    "prefecture_code": 5,
    "city": "仙北市",
    "city_kana": "センボクシ",
    "town": "田沢湖田沢",
    "town_kana": "タザワコタザワ",
    "street": null,
    "office_name": null,
    "office_name_kana": null
  },
  "1205": {
    "postcode": "0141205",
    "prefecture": "秋田県",
    "prefecture_kana": "アキタケン",
    "prefecture_code": 5,
    "city": "仙北市",
    "city_kana": "センボクシ",
    "town": "田沢湖玉川",
    "town_kana": "タザワコタマガワ",
    "street": null,
    "office_name": null,
    "office_name_kana": null
  },
  "1298": {
    "postcode": "0141298",
    "prefecture": "秋田県",
    "prefecture_kana": "アキタケン",
    "prefecture_code": 5,
    "city": "仙北市",
    "city_kana": "センボクシ",
    "town": "田沢湖生保内",
    "town_kana": "タザワコオボナイ",
    "street": "字宮ノ後３０",
    "office_name": "仙北市役所　田沢湖庁舎",
    "office_name_kana": "センボクシヤクシヨ タザワコチヨウシヤ"
  },
  "1411": {
    "postcode": "0141411",
    "prefecture": "秋田県",
    "prefecture_kana": "アキタケン",
    "prefecture_code": 5,
    "city": "大仙市",
    "city_kana": "ダイセンシ",
    "town": "六郷西根",
    "town_kana": "ロクゴウニシネ",
    "street": null,
    "office_name": null,
    "office_name_kana": null
  },
  "1412": {
    "postcode": "0141412",
    "prefecture": "秋田県",
    "prefecture_kana": "アキタケン",
    "prefecture_code": 5,
    "city": "大仙市",
    "city_kana": "ダイセンシ",
    "town": "藤木",
    "town_kana": "フジキ",
    "street": null,
    "office_name": null,
    "office_name_kana": null
  },
  "1413": {
    "postcode": "0141413",
    "prefecture": "秋田県",
    "prefecture_kana": "アキタケン",
    "prefecture_code": 5,
    "city": "大仙市",
    "city_kana": "ダイセンシ",
    "town": "角間川町",
    "town_kana": "カクマガワマチ",
    "street": null,
    "office_name": null,
    "office_name_kana": null
  },
  "8501": {
    "postcode": "0148501",
    "prefecture": "秋田県",
    "prefecture_kana": "アキタケン",
    "prefecture_code": 5,
    "city": "大仙市",
    "city_kana": "ダイセンシ",
    "town": "堀見内",
    "town_kana": "ホリミナイ",
    "street": "字下田茂木添２８−１",
    "office_name": "株式会社　タニタ秋田",
    "office_name_kana": "カブシキガイシヤ タニタアキタ"
  },
  "8601": {
    "postcode": "0148601",
    "prefecture": "秋田県",
    "prefecture_kana": "アキタケン",
    "prefecture_code": 5,
    "city": "大仙市",
    "city_kana": "ダイセンシ",
    "town": "大曲花園町",
    "town_kana": "オオマガリハナゾノチョウ",
    "street": "１−１（大曲郵便局私書箱第１０号）",
    "office_name": "大仙市役所",
    "office_name_kana": "ダイセンシヤクシヨ"
  },
  "8611": {
    "postcode": "0148611",
    "prefecture": "秋田県",
    "prefecture_kana": "アキタケン",
    "prefecture_code": 5,
    "city": "大仙市",
    "city_kana": "ダイセンシ",
    "town": "大曲上栄町",
    "town_kana": "オオマガリカミサカエチョウ",
    "street": "９番４号",
    "office_name": "大曲税務署",
    "office_name_kana": "オオマガリゼイムシヨ"
  }
}