{
  "0000": {
    "postcode": "0200000",
    "prefecture": "岩手県",
    "prefecture_kana": "イワテケン",
    "prefecture_code": 3,
    "city": "盛岡市",
    "city_kana": "モリオカシ",
    "town": "",
    "town_kana": "",
    "street": null,
    "office_name": null,
    "office_name_kana": null
  },
  "0001": {
    "postcode": "0200001",
    "prefecture": "岩手県",
    "prefecture_kana": "イワテケン",
    "prefecture_code": 3,
    "city": "盛岡市",
    "city_kana": "モリオカシ",
    "town": "上米内",
    "town_kana": "カミヨナイ",
    "street": null,
    "office_name": null,
    "office_name_kana": null
  },
  "0002": {
    "postcode": "0200002",
    "prefecture": "岩手県",
    "prefecture_kana": "イワテケン",
    "prefecture_code": 3,
    "city": "盛岡市",
    "city_kana": "モリオカシ",
    "town": "桜台",
    "town_kana": "サクラダイ",
    "street": null,
    "office_name": null,
    "office_name_kana": null
  },
  "0003": {
    "postcode": "0200003",
    "prefecture": "岩手県",
    "prefecture_kana": "イワテケン",
    "prefecture_code": 3,
    "city": "盛岡市",
    "city_kana": "モリオカシ",
    "town": "下米内",
    "town_kana": "シモヨナイ",
    "street": null,
    "office_name": null,
    "office_name_kana": null
  },
  "0004": {
    "postcode": "0200004",
    "prefecture": "岩手県",
    "prefecture_kana": "イワテケン",
    "prefecture_code": 3,
    "city": "盛岡市",
    "city_kana": "モリオカシ",
    "town": "山岸",
    "town_kana": "ヤマギシ",
    "street": null,
    "office_name": null,
    "office_name_kana": null
  },
  "0005": {
    "postcode": "0200005",
    "prefecture": "岩手県",
    "prefecture_kana": "イワテケン",
    "prefecture_code": 3,
    "city": "盛岡市",
    "city_kana": "モリオカシ",
    "town": "紅葉が丘",
    "town_kana": "モミジガオカ",
    "street": null,
    "office_name": null,
    "office_name_kana": null
  },
  "0011": {
    "postcode": "0200011",
    "prefecture": "岩手県",
    "prefecture_kana": "イワテケン",
    "prefecture_code": 3,
    "city": "盛岡市",
    "city_kana": "モリオカシ",
    "town": "三ツ割",
    "town_kana": "ミツワリ",
    "street": null,
    "office_name": null,
    "office_name_kana": null
  },
  "0012": {
    "postcode": "0200012",
    "prefecture": "岩手県",
    "prefecture_kana": "イワテケン",
    "prefecture_code": 3,
    "city": "盛岡市",
    "city_kana": "モリオカシ",
    "town": "岩清水",
    "town_kana": "イワシミズ",
    "street": null,
    "office_name": null,
    "office_name_kana": null
  },
  "0013": {
    "postcode": "0200013",
    "prefecture": "岩手県",
    "prefecture_kana": "イワテケン",
    "prefecture_code": 3,
    "city": "盛岡市",
    "city_kana": "モリオカシ",
    "town": "愛宕町",
    "town_kana": "アタゴチョウ",
    "street": null,
    "office_name": null,
    "office_name_kana": null
  },
  "0014": {
    "postcode": "0200014",
    "prefecture": "岩手県",
    "prefecture_kana": "イワテケン",
    "prefecture_code": 3,
    "city": "盛岡市",
    "city_kana": "モリオカシ",
    "town": "愛宕下",
    "town_kana": "アタゴシタ",
    "street": null,
    "office_name": null,
    "office_name_kana": null
  },
  "0015": {
    "postcode": "0200015",
    "prefecture": "岩手県",
    "prefecture_kana": "イワテケン",
    "prefecture_code": 3,
    "city": "盛岡市",
    "city_kana": "モリオカシ",
    "town": "本町通",
    "town_kana": "ホンチョウドオリ",
    "street": null,
    "office_name": null,
    "office_name_kana": null
  },
  "0016": {
    "postcode": "0200016",
    "prefecture": "岩手県",
    "prefecture_kana": "イワテケン",
    "prefecture_code": 3,
    "city": "盛岡市",
    "city_kana": "モリオカシ",
    "town": "名須川町",
    "town_kana": "ナスカワチョウ",
    "street": null,
    "office_name": null,
    "office_name_kana": null
  },
  "0021": {
    "postcode": "0200021",
    "prefecture": "岩手県",
    "prefecture_kana": "イワテケン",
    "prefecture_code": 3,
    "city": "盛岡市",
    "city_kana": "モリオカシ",
    "town": "中央通",
    "town_kana": "チュウオウドオリ",
    "street": null,
    "office_name": null,
    "office_name_kana": null
  },
  "0022": {
    "postcode": "0200022",
    "prefecture": "岩手県",
    "prefecture_kana": "イワテケン",
    "prefecture_code": 3,
    "city": "盛岡市",
    "city_kana": "モリオカシ",
    "town": "大通",
    "town_kana": "オオドオリ",
    "street": null,
    "office_name": null,
    "office_name_kana": null
  },
  "0023": {
    "postcode": "0200023",
    "prefecture": "岩手県",
    "prefecture_kana": "イワテケン",
    "prefecture_code": 3,
    "city": "盛岡市",
    "city_kana": "モリオカシ",
    "town": "内丸",
    "town_kana": "ウチマル",
    "street": null,
    "office_name": null,
    "office_name_kana": null
  },
  "0024": {
    "postcode": "0200024",
    "prefecture": "岩手県",
    "prefecture_kana": "イワテケン",
    "prefecture_code": 3,
    "city": "盛岡市",
    "city_kana": "モリオカシ",
    "town": "菜園",
    "town_kana": "サイエン",
    "street": null,
    "office_name": null,
    "office_name_kana": null
  },
  "0025": {
    "postcode": "0200025",
    "prefecture": "岩手県",
    "prefecture_kana": "イワテケン",
    "prefecture_code": 3,
    "city": "盛岡市",
    "city_kana": "モリオカシ",
    "town": "大沢川原",
    "town_kana": "オオサワカワラ",
    "street": null,
    "office_name": null,
    "office_name_kana": null
  },
  "0026": {
    "postcode": "0200026",
    "prefecture": "岩手県",
    "prefecture_kana": "イワテケン",
    "prefecture_code": 3,
    "city": "盛岡市",
    "city_kana": "モリオカシ",
    "town": "開運橋通",
    "town_kana": "カイウンバシドオリ",
    "street": null,
    "office_name": null,
    "office_name_kana": null
  },
  "0031": {
    "postcode": "0200031",
    "prefecture": "岩手県",
    "prefecture_kana": "イワテケン",
    "prefecture_code": 3,
    "city": "盛岡市",
    "city_kana": "モリオカシ",
    "town": "北夕顔瀬町",
    "town_kana": "キタユウガオセチョウ",
    "street": null,
    "office_name": null,
    "office_name_kana": null
  },
  "0032": {
    "postcode": "0200032",
    "prefecture": "岩手県",
    "prefecture_kana": "イワテケン",
    "prefecture_code": 3,
    "city": "盛岡市",
    "city_kana": "モリオカシ",
    "town": "夕顔瀬町",
    "town_kana": "ユウガオセチョウ",
    "street": null,
    "office_name": null,
    "office_name_kana": null
  },
  "0033": {
    "postcode": "0200033",
    "prefecture": "岩手県",
    "prefecture_kana": "イワテケン",
    "prefecture_code": 3,
    "city": "盛岡市",
    "city_kana": "モリオカシ",
    "town": "盛岡駅前北通",
    "town_kana": "モリオカエキマエキタドオリ",
    "street": null,
    "office_name": null,
    "office_name_kana": null
  },
  "0034": {
    "postcode": "0200034",
    "prefecture": "岩手県",
    "prefecture_kana": "イワテケン",
    "prefecture_code": 3,
    "city": "盛岡市",
    "city_kana": "モリオカシ",
    "town": "盛岡駅前通",
    "town_kana": "モリオカエキマエドオリ",
    "street": null,
    "office_name": null,
    "office_name_kana": null
  },
  "0041": {
    "postcode": "0200041",
    "prefecture": "岩手県",
    "prefecture_kana": "イワテケン",
    "prefecture_code": 3,
    "city": "盛岡市",
    "city_kana": "モリオカシ",
    "town": "境田町",
    "town_kana": "サカイダチョウ",
    "street": null,
    "office_name": null,
    "office_name_kana": null
  },
  "0042": {
    "postcode": "0200042",
    "prefecture": "岩手県",
    "prefecture_kana": "イワテケン",
    "prefecture_code": 3,
    "city": "盛岡市",
    "city_kana": "モリオカシ",
    "town": "新田町",
    "town_kana": "シンデンチョウ",
    "street": null,
    "office_name": null,
    "office_name_kana": null
  },
  "0043": {
    "postcode": "0200043",
    "prefecture": "岩手県",
    "prefecture_kana": "イワテケン",
    "prefecture_code": 3,
    "city": "盛岡市",
    "city_kana": "モリオカシ",
    "town": "中川町",
    "town_kana": "ナカガワチョウ",
    "street": null,
    "office_name": null,
    "office_name_kana": null
  },
  "0044": {
    "postcode": "0200044",
    "prefecture": "岩手県",
    "prefecture_kana": "イワテケン",
    "prefecture_code": 3,
    "city": "盛岡市",
    "city_kana": "モリオカシ",
    "town": "城西町",
    "town_kana": "ジョウセイチョウ",
    "street": null,
    "office_name": null,
    "office_name_kana": null
  },
  "0045": {
    "postcode": "0200045",
    "prefecture": "岩手県",
    "prefecture_kana": "イワテケン",
    "prefecture_code": 3,
    "city": "盛岡市",
    "city_kana": "モリオカシ",
    "town": "盛岡駅西通",
    "town_kana": "モリオカエキニシトオリ",
    "street": null,
    "office_name": null,
    "office_name_kana": null
  },
  "0051": {
    "postcode": "0200051",
    "prefecture": "岩手県",
    "prefecture_kana": "イワテケン",
    "prefecture_code": 3,
    "city": "盛岡市",
    "city_kana": "モリオカシ",
    "town": "下太田",
    "town_kana": "シモオオタ",
    "street": null,
    "office_name": null,
    "office_name_kana": null
  },
  "0052": {
    "postcode": "0200052",
    "prefecture": "岩手県",
    "prefecture_kana": "イワテケン",
    "prefecture_code": 3,
    "city": "盛岡市",
    "city_kana": "モリオカシ",
    "town": "中太田",
    "town_kana": "ナカオオタ",
    "street": null,
    "office_name": null,
    "office_name_kana": null
  },
  "0053": {
    "postcode": "0200053",
    "prefecture": "岩手県",
    "prefecture_kana": "イワテケン",
    "prefecture_code": 3,
    "city": "盛岡市",
    "city_kana": "モリオカシ",
    "town": "上太田",
    "town_kana": "カミオオタ",
    "street": null,
    "office_name": null,
    "office_name_kana": null
  },
  "0054": {
    "postcode": "0200054",
    "prefecture": "岩手県",
    "prefecture_kana": "イワテケン",
    "prefecture_code": 3,
    "city": "盛岡市",
    "city_kana": "モリオカシ",
    "town": "猪去",
    "town_kana": "イサリ",
    "street": null,
    "office_name": null,
    "office_name_kana": null
  },
  "0055": {
    "postcode": "0200055",
    "prefecture": "岩手県",
    "prefecture_kana": "イワテケン",
    "prefecture_code": 3,
    "city": "盛岡市",
    "city_kana": "モリオカシ",
    "town": "繋",
    "town_kana": "ツナギ",
    "street": null,
    "office_name": null,
    "office_name_kana": null
  },
  "0061": {
    "postcode": "0200061",
    "prefecture": "岩手県",
    "prefecture_kana": "イワテケン",
    "prefecture_code": 3,
    "city": "盛岡市",
    "city_kana": "モリオカシ",
    "town": "北山",
    "town_kana": "キタヤマ",
    "street": null,
    "office_name": null,
    "office_name_kana": null
  },
  "0062": {
    "postcode": "0200062",
    "prefecture": "岩手県",
    "prefecture_kana": "イワテケン",
    "prefecture_code": 3,
    "city": "盛岡市",
    "city_kana": "モリオカシ",
    "town": "長田町",
    "town_kana": "ナガタチョウ",
    "street": null,
    "office_name": null,
    "office_name_kana": null
  },
  "0063": {
    "postcode": "0200063",
    "prefecture": "岩手県",
    "prefecture_kana": "イワテケン",
    "prefecture_code": 3,
    "city": "盛岡市",
    "city_kana": "モリオカシ",
    "town": "材木町",
    "town_kana": "ザイモクチョウ",
    "street": null,
    "office_name": null,
    "office_name_kana": null
  },
  "0064": {
    "postcode": "0200064",
    "prefecture": "岩手県",
    "prefecture_kana": "イワテケン",
    "prefecture_code": 3,
    "city": "盛岡市",
    "city_kana": "モリオカシ",
    "town": "梨木町",
    "town_kana": "ナシノキチョウ",
    "street": null,
    "office_name": null,
    "office_name_kana": null
  },
  "0065": {
    "postcode": "0200065",
    "prefecture": "岩手県",
    "prefecture_kana": "イワテケン",
    "prefecture_code": 3,
    "city": "盛岡市",
    "city_kana": "モリオカシ",
    "town": "西下台町",
    "town_kana": "ニシシタダイチョウ",
    "street": null,
    "office_name": null,
    "office_name_kana": null
  },
  "0066": [
    {
      "postcode": "0200066",
      "prefecture": "岩手県",
      "prefecture_kana": "イワテケン",
      "prefecture_code": 3,
      "city": "盛岡市",
      "city_kana": "モリオカシ",
      "town": "上田",
      "town_kana": "ウエダ",
      "street": null,
      "office_name": null,
      "office_name_kana": null
    },
    {
      "postcode": "0200066",
      "prefecture": "岩手県",
      "prefecture_kana": "イワテケン",
      "prefecture_code": 3,
      "city": "盛岡市",
      "city_kana": "モリオカシ",
      "town": "上田北山",
      "town_kana": "ウエダキタヤマ",
      "street": null,
      "office_name": null,
      "office_name_kana": null
    }
  ],
  "0101": {
    "postcode": "0200101",
    "prefecture": "岩手県",
    "prefecture_kana": "イワテケン",
    "prefecture_code": 3,
    "city": "盛岡市",
    "city_kana": "モリオカシ",
    "town": "岩脇町",
    "town_kana": "イワワキチョウ",
    "street": null,
    "office_name": null,
    "office_name_kana": null
  },
  "0102": {
    "postcode": "0200102",
    "prefecture": "岩手県",
    "prefecture_kana": "イワテケン",
    "prefecture_code": 3,
    "city": "盛岡市",
    "city_kana": "モリオカシ",
    "town": "上田",
    "town_kana": "ウエダ",
    "street": null,
    "office_name": null,
    "office_name_kana": null
  },
  "0103": {
    "postcode": "0200103",
    "prefecture": "岩手県",
    "prefecture_kana": "イワテケン",
    "prefecture_code": 3,
    "city": "盛岡市",
    "city_kana": "モリオカシ",
    "town": "西松園",
    "town_kana": "ニシマツゾノ",
    "street": null,
    "office_name": null,
    "office_name_kana": null
  },
  "0104": {
    "postcode": "0200104",
    "prefecture": "岩手県",
    "prefecture_kana": "イワテケン",
    "prefecture_code": 3,
    "city": "盛岡市",
    "city_kana": "モリオカシ",
    "town": "小鳥沢",
    "town_kana": "コトリザワ",
    "street": null,
    "office_name": null,
    "office_name_kana": null
  },
  "0105": {
    "postcode": "0200105",
    "prefecture": "岩手県",
    "prefecture_kana": "イワテケン",
    "prefecture_code": 3,
    "city": "盛岡市",
    "city_kana": "モリオカシ",
    "town": "北松園",
    "town_kana": "キタマツゾノ",
    "street": null,
    "office_name": null,
    "office_name_kana": null
  },
  "0106": {
    "postcode": "0200106",
    "prefecture": "岩手県",
    "prefecture_kana": "イワテケン",
    "prefecture_code": 3,
    "city": "盛岡市",
    "city_kana": "モリオカシ",
    "town": "東松園",
    "town_kana": "ヒガシマツゾノ",
    "street": null,
    "office_name": null,
    "office_name_kana": null
  },
  "0107": {
    "postcode": "0200107",
    "prefecture": "岩手県",
    "prefecture_kana": "イワテケン",
    "prefecture_code": 3,
    "city": "盛岡市",
    "city_kana": "モリオカシ",
    "town": "松園",
    "town_kana": "マツゾノ",
    "street": null,
    "office_name": null,
    "office_name_kana": null
  },
  "0108": {
    "postcode": "0200108",
    "prefecture": "岩手県",
    "prefecture_kana": "イワテケン",
    "prefecture_code": 3,
    "city": "盛岡市",
    "city_kana": "モリオカシ",
    "town": "東黒石野",
    "town_kana": "ヒガシクロイシノ",
    "street": null,
    "office_name": null,
    "office_name_kana": null
  },
  "0111": {
    "postcode": "0200111",
    "prefecture": "岩手県",
    "prefecture_kana": "イワテケン",
    "prefecture_code": 3,
    "city": "盛岡市",
    "city_kana": "モリオカシ",
    "town": "黒石野",
    "town_kana": "クロイシノ",
    "street": null,
    "office_name": null,
    "office_name_kana": null
  },
  "0112": {
    "postcode": "0200112",
    "prefecture": "岩手県",
    "prefecture_kana": "イワテケン",
    "prefecture_code": 3,
    "city": "盛岡市",
    "city_kana": "モリオカシ",
    "town": "東緑が丘",
    "town_kana": "ヒガシミドリガオカ",
    "street": null,
    "office_name": null,
    "office_name_kana": null
  },
  "0113": {
    "postcode": "0200113",
    "prefecture": "岩手県",
    "prefecture_kana": "イワテケン",
    "prefecture_code": 3,
    "city": "盛岡市",
    "city_kana": "モリオカシ",
    "town": "上田堤",
    "town_kana": "ウエダツツミ",
    "street": null,
    "office_name": null,
    "office_name_kana": null
  },
  "0114": {
    "postcode": "0200114",
    "prefecture": "岩手県",
    "prefecture_kana": "イワテケン",
    "prefecture_code": 3,
    "city": "盛岡市",
    "city_kana": "モリオカシ",
    "town": "高松",
    "town_kana": "タカマツ",
    "street": null,
    "office_name": null,
    "office_name_kana": null
  },
  "0115": {
    "postcode": "0200115",
    "prefecture": "岩手県",
    "prefecture_kana": "イワテケン",
    "prefecture_code": 3,
    "city": "盛岡市",
    "city_kana": "モリオカシ",
    "town": "館向町",
    "town_kana": "タテムカイチョウ",
    "street": null,
    "office_name": null,
    "office_name_kana": null
  },
  "0116": {
    "postcode": "0200116",
    "prefecture": "岩手県",
    "prefecture_kana": "イワテケン",
    "prefecture_code": 3,
    "city": "盛岡市",
    "city_kana": "モリオカシ",
    "town": "箱清水",
    "town_kana": "ハコシミズ",
    "street": null,
    "office_name": null,
    "office_name_kana": null
  },
  "0117": {
    "postcode": "0200117",
    "prefecture": "岩手県",
    "prefecture_kana": "イワテケン",
    "prefecture_code": 3,
    "city": "盛岡市",
    "city_kana": "モリオカシ",
    "town": "緑が丘",
    "town_kana": "ミドリガオカ",
    "street": null,
    "office_name": null,
    "office_name_kana": null
  },
  "0121": {
    "postcode": "0200121",
    "prefecture": "岩手県",
    "prefecture_kana": "イワテケン",
    "prefecture_code": 3,
    "city": "盛岡市",
    "city_kana": "モリオカシ",
    "town": "月が丘",
    "town_kana": "ツキガオカ",
    "street": null,
    "office_name": null,
    "office_name_kana": null
  },
  "0122": {
    "postcode": "0200122",
    "prefecture": "岩手県",
    "prefecture_kana": "イワテケン",
    "prefecture_code": 3,
    "city": "盛岡市",
    "city_kana": "モリオカシ",
    "town": "みたけ",
    "town_kana": "ミタケ",
    "street": null,
    "office_name": null,
    "office_name_kana": null
  },
  "0123": {
    "postcode": "0200123",
    "prefecture": "岩手県",
    "prefecture_kana": "イワテケン",
    "prefecture_code": 3,
    "city": "盛岡市",
    "city_kana": "モリオカシ",
    "town": "下厨川",
    "town_kana": "シモクリヤガワ",
    "street": null,
    "office_name": null,
    "office_name_kana": null
  },
  "0124": {
    "postcode": "0200124",
    "prefecture": "岩手県",
    "prefecture_kana": "イワテケン",
    "prefecture_code": 3,
    "city": "盛岡市",
    "city_kana": "モリオカシ",
    "town": "厨川",
    "town_kana": "クリヤガワ",
    "street": null,
    "office_name": null,
    "office_name_kana": null
  },
  "0125": {
    "postcode": "0200125",
    "prefecture": "岩手県",
    "prefecture_kana": "イワテケン",
    "prefecture_code": 3,
    "city": "盛岡市",
    "city_kana": "モリオカシ",
    "town": "上堂",
    "town_kana": "カミドウ",
    "street": null,
    "office_name": null,
    "office_name_kana": null
  },
  "0126": {
    "postcode": "0200126",
    "prefecture": "岩手県",
    "prefecture_kana": "イワテケン",
    "prefecture_code": 3,
    "city": "盛岡市",
    "city_kana": "モリオカシ",
    "town": "安倍館町",
    "town_kana": "アベタテチョウ",
    "street": null,
    "office_name": null,
    "office_name_kana": null
  },
  "0127": {
    "postcode": "0200127",
    "prefecture": "岩手県",
    "prefecture_kana": "イワテケン",
    "prefecture_code": 3,
    "city": "盛岡市",
    "city_kana": "モリオカシ",
    "town": "前九年",
    "town_kana": "ゼンクネン",
    "street": null,
    "office_name": null,
    "office_name_kana": null
  },
  "0131": {
    "postcode": "0200131",
    "prefecture": "岩手県",
    "prefecture_kana": "イワテケン",
    "prefecture_code": 3,
    "city": "盛岡市",
    "city_kana": "モリオカシ",
    "town": "中堤町",
    "town_kana": "ナカツツミチョウ",
    "street": null,
    "office_name": null,
    "office_name_kana": null
  },
  "0132": {
    "postcode": "0200132",
    "prefecture": "岩手県",
    "prefecture_kana": "イワテケン",
    "prefecture_code": 3,
    "city": "盛岡市",
    "city_kana": "モリオカシ",
    "town": "西青山",
    "town_kana": "ニシアオヤマ",
    "street": null,
    "office_name": null,
    "office_name_kana": null
  },
  "0133": {
    "postcode": "0200133",
    "prefecture": "岩手県",
    "prefecture_kana": "イワテケン",
    "prefecture_code": 3,
    "city": "盛岡市",
    "city_kana": "モリオカシ",
    "town": "青山",
    "town_kana": "アオヤマ",
    "street": null,
    "office_name": null,
    "office_name_kana": null
  },
  "0134": {
    "postcode": "0200134",
    "prefecture": "岩手県",
    "prefecture_kana": "イワテケン",
    "prefecture_code": 3,
    "city": "盛岡市",
    "city_kana": "モリオカシ",
    "town": "南青山町",
    "town_kana": "ミナミアオヤマチョウ",
    "street": null,
    "office_name": null,
    "office_name_kana": null
  },
  "0135": {
    "postcode": "0200135",
    "prefecture": "岩手県",
    "prefecture_kana": "イワテケン",
    "prefecture_code": 3,
    "city": "盛岡市",
    "city_kana": "モリオカシ",
    "town": "大新町",
    "town_kana": "ダイシンチョウ",
    "street": null,
    "office_name": null,
    "office_name_kana": null
  },
  "0136": {
    "postcode": "0200136",
    "prefecture": "岩手県",
    "prefecture_kana": "イワテケン",
    "prefecture_code": 3,
    "city": "盛岡市",
    "city_kana": "モリオカシ",
    "town": "北天昌寺町",
    "town_kana": "キタテンショウジチョウ",
    "street": null,
    "office_name": null,
    "office_name_kana": null
  },
  "0137": {
    "postcode": "0200137",
    "prefecture": "岩手県",
    "prefecture_kana": "イワテケン",
    "prefecture_code": 3,
    "city": "盛岡市",
    "city_kana": "モリオカシ",
    "town": "天昌寺町",
    "town_kana": "テンショウジチョウ",
    "street": null,
    "office_name": null,
    "office_name_kana": null
  },
  "0141": {
    "postcode": "0200141",
    "prefecture": "岩手県",
    "prefecture_kana": "イワテケン",
    "prefecture_code": 3,
    "city": "盛岡市",
    "city_kana": "モリオカシ",
    "town": "中屋敷町",
    "town_kana": "ナカヤシキチョウ",
    "street": null,
    "office_name": null,
    "office_name_kana": null
  },
  "0142": {
    "postcode": "0200142",
    "prefecture": "岩手県",
    "prefecture_kana": "イワテケン",
    "prefecture_code": 3,
    "city": "盛岡市",
    "city_kana": "モリオカシ",
    "town": "稲荷町",
    "town_kana": "イナリチョウ",
    "street": null,
    "office_name": null,
    "office_name_kana": null
  },
  "0143": {
    "postcode": "0200143",
    "prefecture": "岩手県",
    "prefecture_kana": "イワテケン",
    "prefecture_code": 3,
    "city": "盛岡市",
    "city_kana": "モリオカシ",
    "town": "上厨川",
    "town_kana": "カミクリヤガワ",
    "street": null,
    "office_name": null,
    "office_name_kana": null
  },
  "0144": {
    "postcode": "0200144",
    "prefecture": "岩手県",
    "prefecture_kana": "イワテケン",
    "prefecture_code": 3,
    "city": "盛岡市",
    "city_kana": "モリオカシ",
    "town": "土淵",
    "town_kana": "ツチブチ",
    "street": null,
    "office_name": null,
    "office_name_kana": null
  },
  "0145": {
    "postcode": "0200145",
    "prefecture": "岩手県",
    "prefecture_kana": "イワテケン",
    "prefecture_code": 3,
    "city": "盛岡市",
    "city_kana": "モリオカシ",
    "town": "平賀新田",
    "town_kana": "ヒラカシンデン",
    "street": null,
    "office_name": null,
    "office_name_kana": null
  },
  "0146": {
    "postcode": "0200146",
    "prefecture": "岩手県",
    "prefecture_kana": "イワテケン",
    "prefecture_code": 3,
    "city": "盛岡市",
    "city_kana": "モリオカシ",
    "town": "長橋町",
    "town_kana": "ナガハシチョウ",
    "street": null,
    "office_name": null,
    "office_name_kana": null
  },
  "0147": {
    "postcode": "0200147",
    "prefecture": "岩手県",
    "prefecture_kana": "イワテケン",
    "prefecture_code": 3,
    "city": "盛岡市",
    "city_kana": "モリオカシ",
    "town": "大館町",
    "town_kana": "オオダテチョウ",
    "street": null,
    "office_name": null,
    "office_name_kana": null
  },
  "0148": {
    "postcode": "0200148",
    "prefecture": "岩手県",
    "prefecture_kana": "イワテケン",
    "prefecture_code": 3,
    "city": "盛岡市",
    "city_kana": "モリオカシ",
    "town": "前潟",
    "town_kana": "マエガタ",
    "street": null,
    "office_name": null,
    "office_name_kana": null
  },
  "0182": {
    "postcode": "0200182",
    "prefecture": "岩手県",
    "prefecture_kana": "イワテケン",
    "prefecture_code": 3,
    "city": "盛岡市",
    "city_kana": "モリオカシ",
    "town": "みたけ",
    "town_kana": "ミタケ",
    "street": "２丁目２２−５０",
    "office_name": "株式会社　赤澤紙業",
    "office_name_kana": "カブシキガイシヤ アカザワシギヨウ"
  },
  "0184": {
    "postcode": "0200184",
    "prefecture": "岩手県",
    "prefecture_kana": "イワテケン",
    "prefecture_code": 3,
    "city": "盛岡市",
    "city_kana": "モリオカシ",
    "town": "青山",
    "town_kana": "アオヤマ",
    "street": "４丁目１０−５",
    "office_name": "山口北州印刷　株式会社",
    "office_name_kana": "ヤマグチホクシユウインサツ カブシキカイシヤ"
  },
  "0185": {
    "postcode": "0200185",
    "prefecture": "岩手県",
    "prefecture_kana": "イワテケン",
    "prefecture_code": 3,
    "city": "盛岡市",
    "city_kana": "モリオカシ",
    "town": "上堂",
    "town_kana": "カミドウ",
    "street": "１丁目１９−５５",
    "office_name": "株式会社　石田商会",
    "office_name_kana": "カブシキガイシヤ イシダシヨウカイ"
  },
  "0187": {
    "postcode": "0200187",
    "prefecture": "岩手県",
    "prefecture_kana": "イワテケン",
    "prefecture_code": 3,
    "city": "盛岡市",
    "city_kana": "モリオカシ",
    "town": "みたけ",
    "town_kana": "ミタケ",
    "street": "１丁目６−３０",
    "office_name": "菱和建設　株式会社",
    "office_name_kana": "リヨウワケンセツ カブシキガイシヤ"
  },
  "0196": {
    "postcode": "0200196",
    "prefecture": "岩手県",
    "prefecture_kana": "イワテケン",
    "prefecture_code": 3,
    "city": "盛岡市",
    "city_kana": "モリオカシ",
    "town": "みたけ",
    "town_kana": "ミタケ",
    "street": "３丁目３８−２０",
    "office_name": "財団法人　岩手県青少年会館",
    "office_name_kana": "ザイダンホウジン イワテケンセイシヨウネンカイカン"
  },
  "0198": {
    "postcode": "0200198",
    "prefecture": "岩手県",
    "prefecture_kana": "イワテケン",
    "prefecture_code": 3,
    "city": "盛岡市",
    "city_kana": "モリオカシ",
    "town": "下厨川",
    "town_kana": "シモクリヤガワ",
    "street": "字赤平４",
    "office_name": "独立行政法人　農業・食品産業技術総合研究機構　東北農業研究センター",
    "office_name_kana": "ドクリツギヨウセイホウジン ノウギヨウ・シヨクヒンサンギヨウギジユツソウゴウケンキユウキコウ トウホクノウギヨウケンキユウセンタ-"
  },
  "0201": {
    "postcode": "0200201",
    "prefecture": "岩手県",
    "prefecture_kana": "イワテケン",
    "prefecture_code": 3,
    "city": "盛岡市",
    "city_kana": "モリオカシ",
    "town": "日戸",
    "town_kana": "ヒノト",
    "street": null,
    "office_name": null,
    "office_name_kana": null
  },
  "0202": {
    "postcode": "0200202",
    "prefecture": "岩手県",
    "prefecture_kana": "イワテケン",
    "prefecture_code": 3,
    "city": "盛岡市",
    "city_kana": "モリオカシ",
    "town": "玉山",
    "town_kana": "タマヤマ",
    "street": null,
    "office_name": null,
    "office_name_kana": null
  },
  "0203": {
    "postcode": "0200203",
    "prefecture": "岩手県",
    "prefecture_kana": "イワテケン",
    "prefecture_code": 3,
    "city": "盛岡市",
    "city_kana": "モリオカシ",
    "town": "川又",
    "town_kana": "カワマタ",
    "street": null,
    "office_name": null,
    "office_name_kana": null
  },
  "0204": [
    {
      "postcode": "0200204",
      "prefecture": "岩手県",
      "prefecture_kana": "イワテケン",
      "prefecture_code": 3,
      "city": "盛岡市",
      "city_kana": "モリオカシ",
      "town": "上田",
      "town_kana": "ウエダ",
      "street": null,
      "office_name": null,
      "office_name_kana": null
    },
    {
      "postcode": "0200204",
      "prefecture": "岩手県",
      "prefecture_kana": "イワテケン",
      "prefecture_code": 3,
      "city": "盛岡市",
      "city_kana": "モリオカシ",
      "town": "上田糠森",
      "town_kana": "ウエダヌカモリ",
      "street": null,
      "office_name": null,
      "office_name_kana": null
    },
    {
      "postcode": "0200204",
      "prefecture": "岩手県",
      "prefecture_kana": "イワテケン",
      "prefecture_code": 3,
      "city": "盛岡市",
      "city_kana": "モリオカシ",
      "town": "上田小野松",
      "town_kana": "ウエダオノマツ",
      "street": null,
      "office_name": null,
      "office_name_kana": null
    }
  ],
  "0311": {
    "postcode": "0200311",
    "prefecture": "岩手県",
    "prefecture_kana": "イワテケン",
    "prefecture_code": 3,
    "city": "盛岡市",
    "city_kana": "モリオカシ",
    "town": "簗川",
    "town_kana": "ヤナガワ",
    "street": null,
    "office_name": null,
    "office_name_kana": null
  },
  "0312": {
    "postcode": "0200312",
    "prefecture": "岩手県",
    "prefecture_kana": "イワテケン",
    "prefecture_code": 3,
    "city": "盛岡市",
    "city_kana": "モリオカシ",
    "town": "砂子沢",
    "town_kana": "イサゴザワ",
    "street": null,
    "office_name": null,
    "office_name_kana": null
  },
  "0313": {
    "postcode": "0200313",
    "prefecture": "岩手県",
    "prefecture_kana": "イワテケン",
    "prefecture_code": 3,
    "city": "盛岡市",
    "city_kana": "モリオカシ",
    "town": "根田茂",
    "town_kana": "ネダモ",
    "street": null,
    "office_name": null,
    "office_name_kana": null
  },
  "0401": {
    "postcode": "0200401",
    "prefecture": "岩手県",
    "prefecture_kana": "イワテケン",
    "prefecture_code": 3,
    "city": "盛岡市",
    "city_kana": "モリオカシ",
    "town": "手代森",
    "town_kana": "テシロモリ",
    "street": null,
    "office_name": null,
    "office_name_kana": null
  },
  "0402": {
    "postcode": "0200402",
    "prefecture": "岩手県",
    "prefecture_kana": "イワテケン",
    "prefecture_code": 3,
    "city": "盛岡市",
    "city_kana": "モリオカシ",
    "town": "黒川",
    "town_kana": "クロカワ",
    "street": null,
    "office_name": null,
    "office_name_kana": null
  },
  "0403": {
    "postcode": "0200403",
    "prefecture": "岩手県",
    "prefecture_kana": "イワテケン",
    "prefecture_code": 3,
    "city": "盛岡市",
    "city_kana": "モリオカシ",
    "town": "乙部",
    "town_kana": "オトベ",
    "street": null,
    "office_name": null,
    "office_name_kana": null
  },
  "0404": {
    "postcode": "0200404",
    "prefecture": "岩手県",
    "prefecture_kana": "イワテケン",
    "prefecture_code": 3,
    "city": "盛岡市",
    "city_kana": "モリオカシ",
    "town": "大ケ生",
    "town_kana": "オオガユウ",
    "street": null,
    "office_name": null,
    "office_name_kana": null
  },
  "0495": {
    "postcode": "0200495",
    "prefecture": "岩手県",
    "prefecture_kana": "イワテケン",
    "prefecture_code": 3,
    "city": "盛岡市",
    "city_kana": "モリオカシ",
    "town": "黒川",
    "town_kana": "クロカワ",
    "street": "２３地割７０−１",
    "office_name": "白石食品工業　株式会社",
    "office_name_kana": "シライシシヨクヒンコウギヨウ カブシキガイシヤ"
  },
  "0496": {
    "postcode": "0200496",
    "prefecture": "岩手県",
    "prefecture_kana": "イワテケン",
    "prefecture_code": 3,
    "city": "盛岡市",
    "city_kana": "モリオカシ",
    "town": "乙部",
    "town_kana": "オトベ",
    "street": "５−１４６",
    "office_name": "株式会社　ベルジョイス乙部センター",
    "office_name_kana": "カブシキガイシヤ ベルジヨイスオトベセンタ-"
  },
  "0500": {
    "postcode": "0200500",
    "prefecture": "岩手県",
    "prefecture_kana": "イワテケン",
    "prefecture_code": 3,
    "city": "岩手郡雫石町",
    "city_kana": "イワテグンシズクイシチョウ",
    "town": "",
    "town_kana": "",
    "street": null,
    "office_name": null,
    "office_name_kana": null
  },
  "0501": {
    "postcode": "0200501",
    "prefecture": "岩手県",
    "prefecture_kana": "イワテケン",
    "prefecture_code": 3,
    "city": "岩手郡雫石町",
    "city_kana": "イワテグンシズクイシチョウ",
    "town": "仁佐瀬",
    "town_kana": "ニサセ",
    "street": null,
    "office_name": null,
    "office_name_kana": null
  },
  "0502": {
    "postcode": "0200502",
    "prefecture": "岩手県",
    "prefecture_kana": "イワテケン",
    "prefecture_code": 3,
    "city": "岩手郡雫石町",
    "city_kana": "イワテグンシズクイシチョウ",
    "town": "板橋",
    "town_kana": "イタバシ",
    "street": null,
    "office_name": null,
    "office_name_kana": null
  },
  "0503": {
    "postcode": "0200503",
    "prefecture": "岩手県",
    "prefecture_kana": "イワテケン",
    "prefecture_code": 3,
    "city": "岩手郡雫石町",
    "city_kana": "イワテグンシズクイシチョウ",
    "town": "七ツ森",
    "town_kana": "ナナツモリ",
    "street": null,
    "office_name": null,
    "office_name_kana": null
  },
  "0504": {
    "postcode": "0200504",
    "prefecture": "岩手県",
    "prefecture_kana": "イワテケン",
    "prefecture_code": 3,
    "city": "岩手郡雫石町",
    "city_kana": "イワテグンシズクイシチョウ",
    "town": "中沼",
    "town_kana": "ナカヌマ",
    "street": null,
    "office_name": null,
    "office_name_kana": null
  },
  "0505": {
    "postcode": "0200505",
    "prefecture": "岩手県",
    "prefecture_kana": "イワテケン",
    "prefecture_code": 3,
    "city": "岩手郡雫石町",
    "city_kana": "イワテグンシズクイシチョウ",
    "town": "中黒沢川",
    "town_kana": "ナカクロサワガワ",
    "street": null,
    "office_name": null,
    "office_name_kana": null
  },
  "0506": {
    "postcode": "0200506",
    "prefecture": "岩手県",
    "prefecture_kana": "イワテケン",
    "prefecture_code": 3,
    "city": "岩手郡雫石町",
    "city_kana": "イワテグンシズクイシチョウ",
    "town": "沼返",
    "town_kana": "ヌマガエシ",
    "street": null,
    "office_name": null,
    "office_name_kana": null
  },
  "0507": {
    "postcode": "0200507",
    "prefecture": "岩手県",
    "prefecture_kana": "イワテケン",
    "prefecture_code": 3,
    "city": "岩手郡雫石町",
    "city_kana": "イワテグンシズクイシチョウ",
    "town": "丸谷地",
    "town_kana": "マルヤチ",
    "street": null,
    "office_name": null,
    "office_name_kana": null
  },
  "0511": {
    "postcode": "0200511",
    "prefecture": "岩手県",
    "prefecture_kana": "イワテケン",
    "prefecture_code": 3,
    "city": "岩手郡雫石町",
    "city_kana": "イワテグンシズクイシチョウ",
    "town": "長畑",
    "town_kana": "ナガハタ",
    "street": null,
    "office_name": null,
    "office_name_kana": null
  },
  "0512": {
    "postcode": "0200512",
    "prefecture": "岩手県",
    "prefecture_kana": "イワテケン",
    "prefecture_code": 3,
    "city": "岩手郡雫石町",
    "city_kana": "イワテグンシズクイシチョウ",
    "town": "塩ケ森",
    "town_kana": "シオガモリ",
    "street": null,
    "office_name": null,
    "office_name_kana": null
  },
  "0513": {
    "postcode": "0200513",
    "prefecture": "岩手県",
    "prefecture_kana": "イワテケン",
    "prefecture_code": 3,
    "city": "岩手郡雫石町",
    "city_kana": "イワテグンシズクイシチョウ",
    "town": "下兎野",
    "town_kana": "シモウサギノ",
    "street": null,
    "office_name": null,
    "office_name_kana": null
  },
  "0514": {
    "postcode": "0200514",
    "prefecture": "岩手県",
    "prefecture_kana": "イワテケン",
    "prefecture_code": 3,
    "city": "岩手郡雫石町",
    "city_kana": "イワテグンシズクイシチョウ",
    "town": "野中",
    "town_kana": "ノナカ",
    "street": null,
    "office_name": null,
    "office_name_kana": null
  },
  "0515": {
    "postcode": "0200515",
    "prefecture": "岩手県",
    "prefecture_kana": "イワテケン",
    "prefecture_code": 3,
    "city": "岩手郡雫石町",
    "city_kana": "イワテグンシズクイシチョウ",
    "town": "下長根",
    "town_kana": "シモナガネ",
    "street": null,
    "office_name": null,
    "office_name_kana": null
  },
  "0517": {
    "postcode": "0200517",
    "prefecture": "岩手県",
    "prefecture_kana": "イワテケン",
    "prefecture_code": 3,
    "city": "岩手郡雫石町",
    "city_kana": "イワテグンシズクイシチョウ",
    "town": "黒沢川",
    "town_kana": "クロサワガワ",
    "street": null,
    "office_name": null,
    "office_name_kana": null
  },
  "0520": {
    "postcode": "0200520",
    "prefecture": "岩手県",
    "prefecture_kana": "イワテケン",
    "prefecture_code": 3,
    "city": "岩手郡雫石町",
    "city_kana": "イワテグンシズクイシチョウ",
    "town": "下町東",
    "town_kana": "シモマチヒガシ",
    "street": null,
    "office_name": null,
    "office_name_kana": null
  },
  "0521": {
    "postcode": "0200521",
    "prefecture": "岩手県",
    "prefecture_kana": "イワテケン",
    "prefecture_code": 3,
    "city": "岩手郡雫石町",
    "city_kana": "イワテグンシズクイシチョウ",
    "town": "麁津田",
    "town_kana": "ソツダ",
    "street": null,
    "office_name": null,
    "office_name_kana": null
  },
  "0522": {
    "postcode": "0200522",
    "prefecture": "岩手県",
    "prefecture_kana": "イワテケン",
    "prefecture_code": 3,
    "city": "岩手郡雫石町",
    "city_kana": "イワテグンシズクイシチョウ",
    "town": "下久保",
    "town_kana": "シモクボ",
    "street": null,
    "office_name": null,
    "office_name_kana": null
  },
  "0523": {
    "postcode": "0200523",
    "prefecture": "岩手県",
    "prefecture_kana": "イワテケン",
    "prefecture_code": 3,
    "city": "岩手郡雫石町",
    "city_kana": "イワテグンシズクイシチョウ",
    "town": "根堀",
    "town_kana": "ネホリ",
    "street": null,
    "office_name": null,
    "office_name_kana": null
  },
  "0524": {
    "postcode": "0200524",
    "prefecture": "岩手県",
    "prefecture_kana": "イワテケン",
    "prefecture_code": 3,
    "city": "岩手郡雫石町",
    "city_kana": "イワテグンシズクイシチョウ",
    "town": "寺の下",
    "town_kana": "テラノシタ",
    "street": null,
    "office_name": null,
    "office_name_kana": null
  },
  "0525": {
    "postcode": "0200525",
    "prefecture": "岩手県",
    "prefecture_kana": "イワテケン",
    "prefecture_code": 3,
    "city": "岩手郡雫石町",
    "city_kana": "イワテグンシズクイシチョウ",
    "town": "源大堂",
    "town_kana": "ゲンダイドウ",
    "street": null,
    "office_name": null,
    "office_name_kana": null
  },
  "0527": {
    "postcode": "0200527",
    "prefecture": "岩手県",
    "prefecture_kana": "イワテケン",
    "prefecture_code": 3,
    "city": "岩手郡雫石町",
    "city_kana": "イワテグンシズクイシチョウ",
    "town": "中町",
    "town_kana": "ナカマチ",
    "street": null,
    "office_name": null,
    "office_name_kana": null
  },
  "0528": {
    "postcode": "0200528",
    "prefecture": "岩手県",
    "prefecture_kana": "イワテケン",
    "prefecture_code": 3,
    "city": "岩手郡雫石町",
    "city_kana": "イワテグンシズクイシチョウ",
    "town": "下町",
    "town_kana": "シモマチ",
    "street": null,
    "office_name": null,
    "office_name_kana": null
  },
  "0529": {
    "postcode": "0200529",
    "prefecture": "岩手県",
    "prefecture_kana": "イワテケン",
    "prefecture_code": 3,
    "city": "岩手郡雫石町",
    "city_kana": "イワテグンシズクイシチョウ",
    "town": "下町西",
    "town_kana": "シモマチニシ",
    "street": null,
    "office_name": null,
    "office_name_kana": null
  },
  "0530": {
    "postcode": "0200530",
    "prefecture": "岩手県",
    "prefecture_kana": "イワテケン",
    "prefecture_code": 3,
    "city": "岩手郡雫石町",
    "city_kana": "イワテグンシズクイシチョウ",
    "town": "上町南",
    "town_kana": "カミマチミナミ",
    "street": null,
    "office_name": null,
    "office_name_kana": null
  },
  "0531": {
    "postcode": "0200531",
    "prefecture": "岩手県",
    "prefecture_kana": "イワテケン",
    "prefecture_code": 3,
    "city": "岩手郡雫石町",
    "city_kana": "イワテグンシズクイシチョウ",
    "town": "麻見田",
    "town_kana": "マミダ",
    "street": null,
    "office_name": null,
    "office_name_kana": null
  },
  "0532": {
    "postcode": "0200532",
    "prefecture": "岩手県",
    "prefecture_kana": "イワテケン",
    "prefecture_code": 3,
    "city": "岩手郡雫石町",
    "city_kana": "イワテグンシズクイシチョウ",
    "town": "払川",
    "town_kana": "ハライガワ",
    "street": null,
    "office_name": null,
    "office_name_kana": null
  },
  "0533": {
    "postcode": "0200533",
    "prefecture": "岩手県",
    "prefecture_kana": "イワテケン",
    "prefecture_code": 3,
    "city": "岩手郡雫石町",
    "city_kana": "イワテグンシズクイシチョウ",
    "town": "林",
    "town_kana": "ハヤシ",
    "street": null,
    "office_name": null,
    "office_name_kana": null
  },
  "0534": {
    "postcode": "0200534",
    "prefecture": "岩手県",
    "prefecture_kana": "イワテケン",
    "prefecture_code": 3,
    "city": "岩手郡雫石町",
    "city_kana": "イワテグンシズクイシチョウ",
    "town": "川原",
    "town_kana": "カワハラ",
    "street": null,
    "office_name": null,
    "office_name_kana": null
  },
  "0535": {
    "postcode": "0200535",
    "prefecture": "岩手県",
    "prefecture_kana": "イワテケン",
    "prefecture_code": 3,
    "city": "岩手郡雫石町",
    "city_kana": "イワテグンシズクイシチョウ",
    "town": "小日谷地",
    "town_kana": "コビヤチ",
    "street": null,
    "office_name": null,
    "office_name_kana": null
  },
  "0536": {
    "postcode": "0200536",
    "prefecture": "岩手県",
    "prefecture_kana": "イワテケン",
    "prefecture_code": 3,
    "city": "岩手郡雫石町",
    "city_kana": "イワテグンシズクイシチョウ",
    "town": "八卦",
    "town_kana": "ハツケ",
    "street": null,
    "office_name": null,
    "office_name_kana": null
  },
  "0537": {
    "postcode": "0200537",
    "prefecture": "岩手県",
    "prefecture_kana": "イワテケン",
    "prefecture_code": 3,
    "city": "岩手郡雫石町",
    "city_kana": "イワテグンシズクイシチョウ",
    "town": "上町西",
    "town_kana": "カミマチニシ",
    "street": null,
    "office_name": null,
    "office_name_kana": null
  },
  "0538": {
    "postcode": "0200538",
    "prefecture": "岩手県",
    "prefecture_kana": "イワテケン",
    "prefecture_code": 3,
    "city": "岩手郡雫石町",
    "city_kana": "イワテグンシズクイシチョウ",
    "town": "上町北",
    "town_kana": "カミマチキタ",
    "street": null,
    "office_name": null,
    "office_name_kana": null
  },
  "0539": {
    "postcode": "0200539",
    "prefecture": "岩手県",
    "prefecture_kana": "イワテケン",
    "prefecture_code": 3,
    "city": "岩手郡雫石町",
    "city_kana": "イワテグンシズクイシチョウ",
    "town": "上町東",
    "town_kana": "カミマチヒガシ",
    "street": null,
    "office_name": null,
    "office_name_kana": null
  },
  "0541": {
    "postcode": "0200541",
    "prefecture": "岩手県",
    "prefecture_kana": "イワテケン",
    "prefecture_code": 3,
    "city": "岩手郡雫石町",
    "city_kana": "イワテグンシズクイシチョウ",
    "town": "千刈田",
    "town_kana": "センガリダ",
    "street": null,
    "office_name": null,
    "office_name_kana": null
  },
  "0542": {
    "postcode": "0200542",
    "prefecture": "岩手県",
    "prefecture_kana": "イワテケン",
    "prefecture_code": 3,
    "city": "岩手郡雫石町",
    "city_kana": "イワテグンシズクイシチョウ",
    "town": "万田渡",
    "town_kana": "マンダワタリ",
    "street": null,
    "office_name": null,
    "office_name_kana": null
  },
  "0543": {
    "postcode": "0200543",
    "prefecture": "岩手県",
    "prefecture_kana": "イワテケン",
    "prefecture_code": 3,
    "city": "岩手郡雫石町",
    "city_kana": "イワテグンシズクイシチョウ",
    "town": "高前田",
    "town_kana": "タカマエダ",
    "street": null,
    "office_name": null,
    "office_name_kana": null
  },
  "0544": {
    "postcode": "0200544",
    "prefecture": "岩手県",
    "prefecture_kana": "イワテケン",
    "prefecture_code": 3,
    "city": "岩手郡雫石町",
    "city_kana": "イワテグンシズクイシチョウ",
    "town": "柿木",
    "town_kana": "カキキ",
    "street": null,
    "office_name": null,
    "office_name_kana": null
  },
  "0545": {
    "postcode": "0200545",
    "prefecture": "岩手県",
    "prefecture_kana": "イワテケン",
    "prefecture_code": 3,
    "city": "岩手郡雫石町",
    "city_kana": "イワテグンシズクイシチョウ",
    "town": "谷地",
    "town_kana": "ヤチ",
    "street": null,
    "office_name": null,
    "office_name_kana": null
  },
  "0546": {
    "postcode": "0200546",
    "prefecture": "岩手県",
    "prefecture_kana": "イワテケン",
    "prefecture_code": 3,
    "city": "岩手郡雫石町",
    "city_kana": "イワテグンシズクイシチョウ",
    "town": "稲荷下",
    "town_kana": "イナリシタ",
    "street": null,
    "office_name": null,
    "office_name_kana": null
  },
  "0547": {
    "postcode": "0200547",
    "prefecture": "岩手県",
    "prefecture_kana": "イワテケン",
    "prefecture_code": 3,
    "city": "岩手郡雫石町",
    "city_kana": "イワテグンシズクイシチョウ",
    "town": "晴山",
    "town_kana": "ハレヤマ",
    "street": null,
    "office_name": null,
    "office_name_kana": null
  },
  "0551": {
    "postcode": "0200551",
    "prefecture": "岩手県",
    "prefecture_kana": "イワテケン",
    "prefecture_code": 3,
    "city": "岩手郡雫石町",
    "city_kana": "イワテグンシズクイシチョウ",
    "town": "笹森",
    "town_kana": "ササモリ",
    "street": null,
    "office_name": null,
    "office_name_kana": null
  },
  "0552": {
    "postcode": "0200552",
    "prefecture": "岩手県",
    "prefecture_kana": "イワテケン",
    "prefecture_code": 3,
    "city": "岩手郡雫石町",
    "city_kana": "イワテグンシズクイシチョウ",
    "town": "下平",
    "town_kana": "シモダイラ",
    "street": null,
    "office_name": null,
    "office_name_kana": null
  },
  "0553": {
    "postcode": "0200553",
    "prefecture": "岩手県",
    "prefecture_kana": "イワテケン",
    "prefecture_code": 3,
    "city": "岩手郡雫石町",
    "city_kana": "イワテグンシズクイシチョウ",
    "town": "下曽根田",
    "town_kana": "シモソネダ",
    "street": null,
    "office_name": null,
    "office_name_kana": null
  },
  "0554": {
    "postcode": "0200554",
    "prefecture": "岩手県",
    "prefecture_kana": "イワテケン",
    "prefecture_code": 3,
    "city": "岩手郡雫石町",
    "city_kana": "イワテグンシズクイシチョウ",
    "town": "町裏",
    "town_kana": "マチウラ",
    "street": null,
    "office_name": null,
    "office_name_kana": null
  },
  "0555": {
    "postcode": "0200555",
    "prefecture": "岩手県",
    "prefecture_kana": "イワテケン",
    "prefecture_code": 3,
    "city": "岩手郡雫石町",
    "city_kana": "イワテグンシズクイシチョウ",
    "town": "上曽根田",
    "town_kana": "カミソネダ",
    "street": null,
    "office_name": null,
    "office_name_kana": null
  },
  "0556": {
    "postcode": "0200556",
    "prefecture": "岩手県",
    "prefecture_kana": "イワテケン",
    "prefecture_code": 3,
    "city": "岩手郡雫石町",
    "city_kana": "イワテグンシズクイシチョウ",
    "town": "名子",
    "town_kana": "ナゴ",
    "street": null,
    "office_name": null,
    "office_name_kana": null
  },
  "0557": {
    "postcode": "0200557",
    "prefecture": "岩手県",
    "prefecture_kana": "イワテケン",
    "prefecture_code": 3,
    "city": "岩手郡雫石町",
    "city_kana": "イワテグンシズクイシチョウ",
    "town": "上平",
    "town_kana": "カミダイラ",
    "street": null,
    "office_name": null,
    "office_name_kana": null
  },
  "0558": {
    "postcode": "0200558",
    "prefecture": "岩手県",
    "prefecture_kana": "イワテケン",
    "prefecture_code": 3,
    "city": "岩手郡雫石町",
    "city_kana": "イワテグンシズクイシチョウ",
    "town": "下笹森",
    "town_kana": "シモササモリ",
    "street": null,
    "office_name": null,
    "office_name_kana": null
  },
  "0559": {
    "postcode": "0200559",
    "prefecture": "岩手県",
    "prefecture_kana": "イワテケン",
    "prefecture_code": 3,
    "city": "岩手郡雫石町",
    "city_kana": "イワテグンシズクイシチョウ",
    "town": "上笹森",
    "town_kana": "カミササモリ",
    "street": null,
    "office_name": null,
    "office_name_kana": null
  },
  "0571": {
    "postcode": "0200571",
    "prefecture": "岩手県",
    "prefecture_kana": "イワテケン",
    "prefecture_code": 3,
    "city": "岩手郡雫石町",
    "city_kana": "イワテグンシズクイシチョウ",
    "town": "繋",
    "town_kana": "ツナギ",
    "street": null,
    "office_name": null,
    "office_name_kana": null
  },
  "0572": {
    "postcode": "0200572",
    "prefecture": "岩手県",
    "prefecture_kana": "イワテケン",
    "prefecture_code": 3,
    "city": "岩手郡雫石町",
    "city_kana": "イワテグンシズクイシチョウ",
    "town": "西安庭",
    "town_kana": "ニシアニワ",
    "street": null,
    "office_name": null,
    "office_name_kana": null
  },
  "0573": {
    "postcode": "0200573",
    "prefecture": "岩手県",
    "prefecture_kana": "イワテケン",
    "prefecture_code": 3,
    "city": "岩手郡雫石町",
    "city_kana": "イワテグンシズクイシチョウ",
    "town": "南畑",
    "town_kana": "ミナミハタ",
    "street": null,
    "office_name": null,
    "office_name_kana": null
  },
  "0574": {
    "postcode": "0200574",
    "prefecture": "岩手県",
    "prefecture_kana": "イワテケン",
    "prefecture_code": 3,
    "city": "岩手郡雫石町",
    "city_kana": "イワテグンシズクイシチョウ",
    "town": "鴬宿",
    "town_kana": "オウシュク",
    "street": null,
    "office_name": null,
    "office_name_kana": null
  },
  "0581": {
    "postcode": "0200581",
    "prefecture": "岩手県",
    "prefecture_kana": "イワテケン",
    "prefecture_code": 3,
    "city": "岩手郡雫石町",
    "city_kana": "イワテグンシズクイシチョウ",
    "town": "御明神",
    "town_kana": "オミョウジン",
    "street": null,
    "office_name": null,
    "office_name_kana": null
  },
  "0582": {
    "postcode": "0200582",
    "prefecture": "岩手県",
    "prefecture_kana": "イワテケン",
    "prefecture_code": 3,
    "city": "岩手郡雫石町",
    "city_kana": "イワテグンシズクイシチョウ",
    "town": "橋場",
    "town_kana": "ハシバ",
    "street": null,
    "office_name": null,
    "office_name_kana": null
  },
  "0583": {
    "postcode": "0200583",
    "prefecture": "岩手県",
    "prefecture_kana": "イワテケン",
    "prefecture_code": 3,
    "city": "岩手郡雫石町",
    "city_kana": "イワテグンシズクイシチョウ",
    "town": "上野",
    "town_kana": "ウワノ",
    "street": null,
    "office_name": null,
    "office_name_kana": null
  },
  "0584": {
    "postcode": "0200584",
    "prefecture": "岩手県",
    "prefecture_kana": "イワテケン",
    "prefecture_code": 3,
    "city": "岩手郡雫石町",
    "city_kana": "イワテグンシズクイシチョウ",
    "town": "西根",
    "town_kana": "ニシネ",
    "street": null,
    "office_name": null,
    "office_name_kana": null
  },
  "0585": {
    "postcode": "0200585",
    "prefecture": "岩手県",
    "prefecture_kana": "イワテケン",
    "prefecture_code": 3,
    "city": "岩手郡雫石町",
    "city_kana": "イワテグンシズクイシチョウ",
    "town": "長山",
    "town_kana": "ナガヤマ",
    "street": null,
    "office_name": null,
    "office_name_kana": null
  },
  "0592": {
    "postcode": "0200592",
    "prefecture": "岩手県",
    "prefecture_kana": "イワテケン",
    "prefecture_code": 3,
    "city": "岩手郡雫石町",
    "city_kana": "イワテグンシズクイシチョウ",
    "town": "町裏",
    "town_kana": "マチウラ",
    "street": "７５番地１",
    "office_name": "新岩手農業協同組合　雫石中央支所",
    "office_name_kana": "シンイワテノウギヨウキヨウドウクミアイシズクイシ チユウオウシシヨ"
  },
  "0593": {
    "postcode": "0200593",
    "prefecture": "岩手県",
    "prefecture_kana": "イワテケン",
    "prefecture_code": 3,
    "city": "岩手郡雫石町",
    "city_kana": "イワテグンシズクイシチョウ",
    "town": "",
    "town_kana": "",
    "street": "高倉温泉",
    "office_name": "株式会社　プリンスホテル　雫石プリンスホテル",
    "office_name_kana": "カブシキガイシヤ プリンスホテル シズクイシプリンスホテル"
  },
  "0595": {
    "postcode": "0200595",
    "prefecture": "岩手県",
    "prefecture_kana": "イワテケン",
    "prefecture_code": 3,
    "city": "岩手郡雫石町",
    "city_kana": "イワテグンシズクイシチョウ",
    "town": "千刈田",
    "town_kana": "センガリダ",
    "street": "５番地１",
    "office_name": "雫石町役場",
    "office_name_kana": "シズクイシチヨウヤクバ"
  },
  "0596": {
    "postcode": "0200596",
    "prefecture": "岩手県",
    "prefecture_kana": "イワテケン",
    "prefecture_code": 3,
    "city": "岩手郡雫石町",
    "city_kana": "イワテグンシズクイシチョウ",
    "town": "板橋",
    "town_kana": "イタバシ",
    "street": "６１番地１",
    "office_name": "盛岡セイコー工業　株式会社",
    "office_name_kana": "モリオカセイコ-コウギヨウ カブシキガイシヤ"
  },
  "0600": {
    "postcode": "0200600",
    "prefecture": "岩手県",
    "prefecture_kana": "イワテケン",
    "prefecture_code": 3,
    "city": "滝沢市",
    "city_kana": "タキザワシ",
    "town": "",
    "town_kana": "",
    "street": null,
    "office_name": null,
    "office_name_kana": null
  },
  "0601": {
    "postcode": "0200601",
    "prefecture": "岩手県",
    "prefecture_kana": "イワテケン",
    "prefecture_code": 3,
    "city": "滝沢市",
    "city_kana": "タキザワシ",
    "town": "後",
    "town_kana": "ウシロ",
    "street": null,
    "office_name": null,
    "office_name_kana": null
  },
  "0602": {
    "postcode": "0200602",
    "prefecture": "岩手県",
    "prefecture_kana": "イワテケン",
    "prefecture_code": 3,
    "city": "滝沢市",
    "city_kana": "タキザワシ",
    "town": "大森平",
    "town_kana": "オオモリダイラ",
    "street": null,
    "office_name": null,
    "office_name_kana": null
  },
  "0603": {
    "postcode": "0200603",
    "prefecture": "岩手県",
    "prefecture_kana": "イワテケン",
    "prefecture_code": 3,
    "city": "滝沢市",
    "city_kana": "タキザワシ",
    "town": "留が森",
    "town_kana": "トメガモリ",
    "street": null,
    "office_name": null,
    "office_name_kana": null
  },
  "0604": {
    "postcode": "0200604",
    "prefecture": "岩手県",
    "prefecture_kana": "イワテケン",
    "prefecture_code": 3,
    "city": "滝沢市",
    "city_kana": "タキザワシ",
    "town": "一本木",
    "town_kana": "イッポンギ",
    "street": null,
    "office_name": null,
    "office_name_kana": null
  },
  "0605": {
    "postcode": "0200605",
    "prefecture": "岩手県",
    "prefecture_kana": "イワテケン",
    "prefecture_code": 3,
    "city": "滝沢市",
    "city_kana": "タキザワシ",
    "town": "砂込",
    "town_kana": "スナコミ",
    "street": null,
    "office_name": null,
    "office_name_kana": null
  },
  "0606": {
    "postcode": "0200606",
    "prefecture": "岩手県",
    "prefecture_kana": "イワテケン",
    "prefecture_code": 3,
    "city": "滝沢市",
    "city_kana": "タキザワシ",
    "town": "加賀内",
    "town_kana": "カガナイ",
    "street": null,
    "office_name": null,
    "office_name_kana": null
  },
  "0607": {
    "postcode": "0200607",
    "prefecture": "岩手県",
    "prefecture_kana": "イワテケン",
    "prefecture_code": 3,
    "city": "滝沢市",
    "city_kana": "タキザワシ",
    "town": "弥兵エ林",
    "town_kana": "ヤヘイバヤシ",
    "street": null,
    "office_name": null,
    "office_name_kana": null
  },
  "0608": {
    "postcode": "0200608",
    "prefecture": "岩手県",
    "prefecture_kana": "イワテケン",
    "prefecture_code": 3,
    "city": "滝沢市",
    "city_kana": "タキザワシ",
    "town": "長太郎林",
    "town_kana": "チョウタロウバヤシ",
    "street": null,
    "office_name": null,
    "office_name_kana": null
  },
  "0609": {
    "postcode": "0200609",
    "prefecture": "岩手県",
    "prefecture_kana": "イワテケン",
    "prefecture_code": 3,
    "city": "滝沢市",
    "city_kana": "タキザワシ",
    "town": "柳原",
    "town_kana": "ヤナギハラ",
    "street": null,
    "office_name": null,
    "office_name_kana": null
  },
  "0611": {
    "postcode": "0200611",
    "prefecture": "岩手県",
    "prefecture_kana": "イワテケン",
    "prefecture_code": 3,
    "city": "滝沢市",
    "city_kana": "タキザワシ",
    "town": "巣子",
    "town_kana": "スゴ",
    "street": null,
    "office_name": null,
    "office_name_kana": null
  },
  "0612": {
    "postcode": "0200612",
    "prefecture": "岩手県",
    "prefecture_kana": "イワテケン",
    "prefecture_code": 3,
    "city": "滝沢市",
    "city_kana": "タキザワシ",
    "town": "柳沢",
    "town_kana": "ヤナギサワ",
    "street": null,
    "office_name": null,
    "office_name_kana": null
  },
  "0613": {
    "postcode": "0200613",
    "prefecture": "岩手県",
    "prefecture_kana": "イワテケン",
    "prefecture_code": 3,
    "city": "滝沢市",
    "city_kana": "タキザワシ",
    "town": "大石渡",
    "town_kana": "オオイシワタリ",
    "street": null,
    "office_name": null,
    "office_name_kana": null
  },
  "0614": {
    "postcode": "0200614",
    "prefecture": "岩手県",
    "prefecture_kana": "イワテケン",
    "prefecture_code": 3,
    "city": "滝沢市",
    "city_kana": "タキザワシ",
    "town": "上中村",
    "town_kana": "カミナカムラ",
    "street": null,
    "office_name": null,
    "office_name_kana": null
  },
  "0615": {
    "postcode": "0200615",
    "prefecture": "岩手県",
    "prefecture_kana": "イワテケン",
    "prefecture_code": 3,
    "city": "滝沢市",
    "city_kana": "タキザワシ",
    "town": "卯遠坂",
    "town_kana": "ウトウザカ",
    "street": null,
    "office_name": null,
    "office_name_kana": null
  },
  "0616": {
    "postcode": "0200616",
    "prefecture": "岩手県",
    "prefecture_kana": "イワテケン",
    "prefecture_code": 3,
    "city": "滝沢市",
    "city_kana": "タキザワシ",
    "town": "木賊川",
    "town_kana": "トクサガワ",
    "street": null,
    "office_name": null,
    "office_name_kana": null
  },
  "0617": {
    "postcode": "0200617",
    "prefecture": "岩手県",
    "prefecture_kana": "イワテケン",
    "prefecture_code": 3,
    "city": "滝沢市",
    "city_kana": "タキザワシ",
    "town": "湯舟沢",
    "town_kana": "ユブネザワ",
    "street": null,
    "office_name": null,
    "office_name_kana": null
  },
  "0618": {
    "postcode": "0200618",
    "prefecture": "岩手県",
    "prefecture_kana": "イワテケン",
    "prefecture_code": 3,
    "city": "滝沢市",
    "city_kana": "タキザワシ",
    "town": "岩手山",
    "town_kana": "イワテサン",
    "street": null,
    "office_name": null,
    "office_name_kana": null
  },
  "0619": {
    "postcode": "0200619",
    "prefecture": "岩手県",
    "prefecture_kana": "イワテケン",
    "prefecture_code": 3,
    "city": "滝沢市",
    "city_kana": "タキザワシ",
    "town": "上岩手山",
    "town_kana": "カミイワテサン",
    "street": null,
    "office_name": null,
    "office_name_kana": null
  },
  "0621": {
    "postcode": "0200621",
    "prefecture": "岩手県",
    "prefecture_kana": "イワテケン",
    "prefecture_code": 3,
    "city": "滝沢市",
    "city_kana": "タキザワシ",
    "town": "大崎",
    "town_kana": "オオサキ",
    "street": null,
    "office_name": null,
    "office_name_kana": null
  },
  "0622": {
    "postcode": "0200622",
    "prefecture": "岩手県",
    "prefecture_kana": "イワテケン",
    "prefecture_code": 3,
    "city": "滝沢市",
    "city_kana": "タキザワシ",
    "town": "野沢",
    "town_kana": "ノザワ",
    "street": null,
    "office_name": null,
    "office_name_kana": null
  },
  "0623": {
    "postcode": "0200623",
    "prefecture": "岩手県",
    "prefecture_kana": "イワテケン",
    "prefecture_code": 3,
    "city": "滝沢市",
    "city_kana": "タキザワシ",
    "town": "楢の木沢",
    "town_kana": "ナラノキサワ",
    "street": null,
    "office_name": null,
    "office_name_kana": null
  },
  "0624": {
    "postcode": "0200624",
    "prefecture": "岩手県",
    "prefecture_kana": "イワテケン",
    "prefecture_code": 3,
    "city": "滝沢市",
    "city_kana": "タキザワシ",
    "town": "妻の神",
    "town_kana": "サイノカミ",
    "street": null,
    "office_name": null,
    "office_name_kana": null
  },
  "0625": {
    "postcode": "0200625",
    "prefecture": "岩手県",
    "prefecture_kana": "イワテケン",
    "prefecture_code": 3,
    "city": "滝沢市",
    "city_kana": "タキザワシ",
    "town": "葉の木沢山",
    "town_kana": "ハノキサワヤマ",
    "street": null,
    "office_name": null,
    "office_name_kana": null
  },
  "0626": {
    "postcode": "0200626",
    "prefecture": "岩手県",
    "prefecture_kana": "イワテケン",
    "prefecture_code": 3,
    "city": "滝沢市",
    "city_kana": "タキザワシ",
    "town": "明神平",
    "town_kana": "ミョウジンダイラ",
    "street": null,
    "office_name": null,
    "office_name_kana": null
  },
  "0627": {
    "postcode": "0200627",
    "prefecture": "岩手県",
    "prefecture_kana": "イワテケン",
    "prefecture_code": 3,
    "city": "滝沢市",
    "city_kana": "タキザワシ",
    "town": "狼久保",
    "town_kana": "オイノクボ",
    "street": null,
    "office_name": null,
    "office_name_kana": null
  },
  "0631": {
    "postcode": "0200631",
    "prefecture": "岩手県",
    "prefecture_kana": "イワテケン",
    "prefecture_code": 3,
    "city": "滝沢市",
    "city_kana": "タキザワシ",
    "town": "根堀坂",
    "town_kana": "ネホリザカ",
    "street": null,
    "office_name": null,
    "office_name_kana": null
  },
  "0632": {
    "postcode": "0200632",
    "prefecture": "岩手県",
    "prefecture_kana": "イワテケン",
    "prefecture_code": 3,
    "city": "滝沢市",
    "city_kana": "タキザワシ",
    "town": "牧野林",
    "town_kana": "マキノバヤシ",
    "street": null,
    "office_name": null,
    "office_name_kana": null
  },
  "0633": {
    "postcode": "0200633",
    "prefecture": "岩手県",
    "prefecture_kana": "イワテケン",
    "prefecture_code": 3,
    "city": "滝沢市",
    "city_kana": "タキザワシ",
    "town": "穴口",
    "town_kana": "アナグチ",
    "street": null,
    "office_name": null,
    "office_name_kana": null
  },
  "0634": {
    "postcode": "0200634",
    "prefecture": "岩手県",
    "prefecture_kana": "イワテケン",
    "prefecture_code": 3,
    "city": "滝沢市",
    "city_kana": "タキザワシ",
    "town": "室小路",
    "town_kana": "ムロコウジ",
    "street": null,
    "office_name": null,
    "office_name_kana": null
  },
  "0635": {
    "postcode": "0200635",
    "prefecture": "岩手県",
    "prefecture_kana": "イワテケン",
    "prefecture_code": 3,
    "city": "滝沢市",
    "city_kana": "タキザワシ",
    "town": "耳取山",
    "town_kana": "ミミトリヤマ",
    "street": null,
    "office_name": null,
    "office_name_kana": null
  },
  "0636": {
    "postcode": "0200636",
    "prefecture": "岩手県",
    "prefecture_kana": "イワテケン",
    "prefecture_code": 3,
    "city": "滝沢市",
    "city_kana": "タキザワシ",
    "town": "大久保",
    "town_kana": "オオクボ",
    "street": null,
    "office_name": null,
    "office_name_kana": null
  },
  "0637": {
    "postcode": "0200637",
    "prefecture": "岩手県",
    "prefecture_kana": "イワテケン",
    "prefecture_code": 3,
    "city": "滝沢市",
    "city_kana": "タキザワシ",
    "town": "高屋敷平",
    "town_kana": "タカヤシキダイラ",
    "street": null,
    "office_name": null,
    "office_name_kana": null
  },
  "0638": {
    "postcode": "0200638",
    "prefecture": "岩手県",
    "prefecture_kana": "イワテケン",
    "prefecture_code": 3,
    "city": "滝沢市",
    "city_kana": "タキザワシ",
    "town": "土沢",
    "town_kana": "ツチザワ",
    "street": null,
    "office_name": null,
    "office_name_kana": null
  },
  "0641": {
    "postcode": "0200641",
    "prefecture": "岩手県",
    "prefecture_kana": "イワテケン",
    "prefecture_code": 3,
    "city": "滝沢市",
    "city_kana": "タキザワシ",
    "town": "祢宜屋敷",
    "town_kana": "ネギヤシキ",
    "street": null,
    "office_name": null,
    "office_name_kana": null
  },
  "0642": {
    "postcode": "0200642",
    "prefecture": "岩手県",
    "prefecture_kana": "イワテケン",
    "prefecture_code": 3,
    "city": "滝沢市",
    "city_kana": "タキザワシ",
    "town": "中村",
    "town_kana": "ナカムラ",
    "street": null,
    "office_name": null,
    "office_name_kana": null
  },
  "0643": {
    "postcode": "0200643",
    "prefecture": "岩手県",
    "prefecture_kana": "イワテケン",
    "prefecture_code": 3,
    "city": "滝沢市",
    "city_kana": "タキザワシ",
    "town": "外山",
    "town_kana": "ソトヤマ",
    "street": null,
    "office_name": null,
    "office_name_kana": null
  },
  "0644": {
    "postcode": "0200644",
    "prefecture": "岩手県",
    "prefecture_kana": "イワテケン",
    "prefecture_code": 3,
    "city": "滝沢市",
    "city_kana": "タキザワシ",
    "town": "平蔵沢",
    "town_kana": "ヘイゾウサワ",
    "street": null,
    "office_name": null,
    "office_name_kana": null
  },
  "0645": {
    "postcode": "0200645",
    "prefecture": "岩手県",
    "prefecture_kana": "イワテケン",
    "prefecture_code": 3,
    "city": "滝沢市",
    "city_kana": "タキザワシ",
    "town": "高屋敷",
    "town_kana": "タカヤシキ",
    "street": null,
    "office_name": null,
    "office_name_kana": null
  },
  "0646": {
    "postcode": "0200646",
    "prefecture": "岩手県",
    "prefecture_kana": "イワテケン",
    "prefecture_code": 3,
    "city": "滝沢市",
    "city_kana": "タキザワシ",
    "town": "黒沢",
    "town_kana": "クロサワ",
    "street": null,
    "office_name": null,
    "office_name_kana": null
  },
  "0651": {
    "postcode": "0200651",
    "prefecture": "岩手県",
    "prefecture_kana": "イワテケン",
    "prefecture_code": 3,
    "city": "滝沢市",
    "city_kana": "タキザワシ",
    "town": "鵜飼細谷地",
    "town_kana": "ウカイホソヤチ",
    "street": null,
    "office_name": null,
    "office_name_kana": null
  },
  "0652": {
    "postcode": "0200652",
    "prefecture": "岩手県",
    "prefecture_kana": "イワテケン",
    "prefecture_code": 3,
    "city": "滝沢市",
    "city_kana": "タキザワシ",
    "town": "鵜飼洞畑",
    "town_kana": "ウカイドウハタ",
    "street": null,
    "office_name": null,
    "office_name_kana": null
  },
  "0653": {
    "postcode": "0200653",
    "prefecture": "岩手県",
    "prefecture_kana": "イワテケン",
    "prefecture_code": 3,
    "city": "滝沢市",
    "city_kana": "タキザワシ",
    "town": "鵜飼迫",
    "town_kana": "ウカイハサマ",
    "street": null,
    "office_name": null,
    "office_name_kana": null
  },
  "0654": {
    "postcode": "0200654",
    "prefecture": "岩手県",
    "prefecture_kana": "イワテケン",
    "prefecture_code": 3,
    "city": "滝沢市",
    "city_kana": "タキザワシ",
    "town": "中鵜飼",
    "town_kana": "ナカウカイ",
    "street": null,
    "office_name": null,
    "office_name_kana": null
  },
  "0655": {
    "postcode": "0200655",
    "prefecture": "岩手県",
    "prefecture_kana": "イワテケン",
    "prefecture_code": 3,
    "city": "滝沢市",
    "city_kana": "タキザワシ",
    "town": "鵜飼御庭田",
    "town_kana": "ウカイオニワダ",
    "street": null,
    "office_name": null,
    "office_name_kana": null
  },
  "0656": {
    "postcode": "0200656",
    "prefecture": "岩手県",
    "prefecture_kana": "イワテケン",
    "prefecture_code": 3,
    "city": "滝沢市",
    "city_kana": "タキザワシ",
    "town": "鵜飼上山",
    "town_kana": "ウカイカミノヤマ",
    "street": null,
    "office_name": null,
    "office_name_kana": null
  },
  "0657": {
    "postcode": "0200657",
    "prefecture": "岩手県",
    "prefecture_kana": "イワテケン",
    "prefecture_code": 3,
    "city": "滝沢市",
    "city_kana": "タキザワシ",
    "town": "鵜飼鰍森",
    "town_kana": "ウカイカジカモリ",
    "street": null,
    "office_name": null,
    "office_name_kana": null
  },
  "0658": {
    "postcode": "0200658",
    "prefecture": "岩手県",
    "prefecture_kana": "イワテケン",
    "prefecture_code": 3,
    "city": "滝沢市",
    "city_kana": "タキザワシ",
    "town": "鵜飼清水沢",
    "town_kana": "ウカイシミズサワ",
    "street": null,
    "office_name": null,
    "office_name_kana": null
  },
  "0659": {
    "postcode": "0200659",
    "prefecture": "岩手県",
    "prefecture_kana": "イワテケン",
    "prefecture_code": 3,
    "city": "滝沢市",
    "city_kana": "タキザワシ",
    "town": "鵜飼外久保",
    "town_kana": "ウカイソトクボ",
    "street": null,
    "office_name": null,
    "office_name_kana": null
  },
  "0661": {
    "postcode": "0200661",
    "prefecture": "岩手県",
    "prefecture_kana": "イワテケン",
    "prefecture_code": 3,
    "city": "滝沢市",
    "city_kana": "タキザワシ",
    "town": "鵜飼白石",
    "town_kana": "ウカイシロイシ",
    "street": null,
    "office_name": null,
    "office_name_kana": null
  },
  "0662": {
    "postcode": "0200662",
    "prefecture": "岩手県",
    "prefecture_kana": "イワテケン",
    "prefecture_code": 3,
    "city": "滝沢市",
    "city_kana": "タキザワシ",
    "town": "鵜飼大緩",
    "town_kana": "ウカイオオダルミ",
    "street": null,
    "office_name": null,
    "office_name_kana": null
  },
  "0663": {
    "postcode": "0200663",
    "prefecture": "岩手県",
    "prefecture_kana": "イワテケン",
    "prefecture_code": 3,
    "city": "滝沢市",
    "city_kana": "タキザワシ",
    "town": "鵜飼諸葛川",
    "town_kana": "ウカイモロクズガワ",
    "street": null,
    "office_name": null,
    "office_name_kana": null
  },
  "0664": {
    "postcode": "0200664",
    "prefecture": "岩手県",
    "prefecture_kana": "イワテケン",
    "prefecture_code": 3,
    "city": "滝沢市",
    "city_kana": "タキザワシ",
    "town": "鵜飼笹森",
    "town_kana": "ウカイササモリ",
    "street": null,
    "office_name": null,
    "office_name_kana": null
  },
  "0665": {
    "postcode": "0200665",
    "prefecture": "岩手県",
    "prefecture_kana": "イワテケン",
    "prefecture_code": 3,
    "city": "滝沢市",
    "city_kana": "タキザワシ",
    "town": "下鵜飼",
    "town_kana": "シモウカイ",
    "street": null,
    "office_name": null,
    "office_name_kana": null
  },
  "0666": {
    "postcode": "0200666",
    "prefecture": "岩手県",
    "prefecture_kana": "イワテケン",
    "prefecture_code": 3,
    "city": "滝沢市",
    "city_kana": "タキザワシ",
    "town": "鵜飼先古川",
    "town_kana": "ウカイセンコガワ",
    "street": null,
    "office_name": null,
    "office_name_kana": null
  },
  "0667": {
    "postcode": "0200667",
    "prefecture": "岩手県",
    "prefecture_kana": "イワテケン",
    "prefecture_code": 3,
    "city": "滝沢市",
    "city_kana": "タキザワシ",
    "town": "鵜飼向新田",
    "town_kana": "ウカイムカイシンデン",
    "street": null,
    "office_name": null,
    "office_name_kana": null
  },
  "0668": {
    "postcode": "0200668",
    "prefecture": "岩手県",
    "prefecture_kana": "イワテケン",
    "prefecture_code": 3,
    "city": "滝沢市",
    "city_kana": "タキザワシ",
    "town": "鵜飼狐洞",
    "town_kana": "ウカイキツネホラ",
    "street": null,
    "office_name": null,
    "office_name_kana": null
  },
  "0671": {
    "postcode": "0200671",
    "prefecture": "岩手県",
    "prefecture_kana": "イワテケン",
    "prefecture_code": 3,
    "city": "滝沢市",
    "city_kana": "タキザワシ",
    "town": "鵜飼上高柳",
    "town_kana": "ウカイカミタカヤナギ",
    "street": null,
    "office_name": null,
    "office_name_kana": null
  },
  "0672": {
    "postcode": "0200672",
    "prefecture": "岩手県",
    "prefecture_kana": "イワテケン",
    "prefecture_code": 3,
    "city": "滝沢市",
    "city_kana": "タキザワシ",
    "town": "鵜飼下高柳",
    "town_kana": "ウカイシモタカヤナギ",
    "street": null,
    "office_name": null,
    "office_name_kana": null
  },
  "0673": {
    "postcode": "0200673",
    "prefecture": "岩手県",
    "prefecture_kana": "イワテケン",
    "prefecture_code": 3,
    "city": "滝沢市",
    "city_kana": "タキザワシ",
    "town": "鵜飼石留",
    "town_kana": "ウカイイシドメ",
    "street": null,
    "office_name": null,
    "office_name_kana": null
  },
  "0674": {
    "postcode": "0200674",
    "prefecture": "岩手県",
    "prefecture_kana": "イワテケン",
    "prefecture_code": 3,
    "city": "滝沢市",
    "city_kana": "タキザワシ",
    "town": "鵜飼高柳",
    "town_kana": "ウカイタカヤナギ",
    "street": null,
    "office_name": null,
    "office_name_kana": null
  },
  "0675": {
    "postcode": "0200675",
    "prefecture": "岩手県",
    "prefecture_kana": "イワテケン",
    "prefecture_code": 3,
    "city": "滝沢市",
    "city_kana": "タキザワシ",
    "town": "鵜飼滝向",
    "town_kana": "ウカイタキムカイ",
    "street": null,
    "office_name": null,
    "office_name_kana": null
  },
  "0676": {
    "postcode": "0200676",
    "prefecture": "岩手県",
    "prefecture_kana": "イワテケン",
    "prefecture_code": 3,
    "city": "滝沢市",
    "city_kana": "タキザワシ",
    "town": "鵜飼八人打",
    "town_kana": "ウカイハチニンウチ",
    "street": null,
    "office_name": null,
    "office_name_kana": null
  },
  "0677": {
    "postcode": "0200677",
    "prefecture": "岩手県",
    "prefecture_kana": "イワテケン",
    "prefecture_code": 3,
    "city": "滝沢市",
    "city_kana": "タキザワシ",
    "town": "鵜飼樋の口",
    "town_kana": "ウカイトイノクチ",
    "street": null,
    "office_name": null,
    "office_name_kana": null
  },
  "0678": {
    "postcode": "0200678",
    "prefecture": "岩手県",
    "prefecture_kana": "イワテケン",
    "prefecture_code": 3,
    "city": "滝沢市",
    "city_kana": "タキザワシ",
    "town": "鵜飼年毛",
    "town_kana": "ウカイトシモウ",
    "street": null,
    "office_name": null,
    "office_name_kana": null
  },
  "0681": {
    "postcode": "0200681",
    "prefecture": "岩手県",
    "prefecture_kana": "イワテケン",
    "prefecture_code": 3,
    "city": "滝沢市",
    "city_kana": "タキザワシ",
    "town": "鵜飼姥屋敷",
    "town_kana": "ウカイウバヤシキ",
    "street": null,
    "office_name": null,
    "office_name_kana": null
  },
  "0682": {
    "postcode": "0200682",
    "prefecture": "岩手県",
    "prefecture_kana": "イワテケン",
    "prefecture_code": 3,
    "city": "滝沢市",
    "city_kana": "タキザワシ",
    "town": "鵜飼臨安",
    "town_kana": "ウカイリンアン",
    "street": null,
    "office_name": null,
    "office_name_kana": null
  },
  "0683": {
    "postcode": "0200683",
    "prefecture": "岩手県",
    "prefecture_kana": "イワテケン",
    "prefecture_code": 3,
    "city": "滝沢市",
    "city_kana": "タキザワシ",
    "town": "鵜飼花平",
    "town_kana": "ウカイハナダイラ",
    "street": null,
    "office_name": null,
    "office_name_kana": null
  },
  "0684": {
    "postcode": "0200684",
    "prefecture": "岩手県",
    "prefecture_kana": "イワテケン",
    "prefecture_code": 3,
    "city": "滝沢市",
    "city_kana": "タキザワシ",
    "town": "鵜飼沼森",
    "town_kana": "ウカイヌマモリ",
    "street": null,
    "office_name": null,
    "office_name_kana": null
  },
  "0685": {
    "postcode": "0200685",
    "prefecture": "岩手県",
    "prefecture_kana": "イワテケン",
    "prefecture_code": 3,
    "city": "滝沢市",
    "city_kana": "タキザワシ",
    "town": "鵜飼安達",
    "town_kana": "ウカイアダチ",
    "street": null,
    "office_name": null,
    "office_name_kana": null
  },
  "0686": {
    "postcode": "0200686",
    "prefecture": "岩手県",
    "prefecture_kana": "イワテケン",
    "prefecture_code": 3,
    "city": "滝沢市",
    "city_kana": "タキザワシ",
    "town": "鵜飼鬼越",
    "town_kana": "ウカイオニコシ",
    "street": null,
    "office_name": null,
    "office_name_kana": null
  },
  "0687": {
    "postcode": "0200687",
    "prefecture": "岩手県",
    "prefecture_kana": "イワテケン",
    "prefecture_code": 3,
    "city": "滝沢市",
    "city_kana": "タキザワシ",
    "town": "上鵜飼",
    "town_kana": "カミウカイ",
    "street": null,
    "office_name": null,
    "office_name_kana": null
  },
  "0688": {
    "postcode": "0200688",
    "prefecture": "岩手県",
    "prefecture_kana": "イワテケン",
    "prefecture_code": 3,
    "city": "滝沢市",
    "city_kana": "タキザワシ",
    "town": "鵜飼上前田",
    "town_kana": "ウカイカミマエダ",
    "street": null,
    "office_name": null,
    "office_name_kana": null
  },
  "0690": {
    "postcode": "0200690",
    "prefecture": "岩手県",
    "prefecture_kana": "イワテケン",
    "prefecture_code": 3,
    "city": "滝沢市",
    "city_kana": "タキザワシ",
    "town": "土沢",
    "town_kana": "ツチザワ",
    "street": "２２０−３",
    "office_name": "いわて生活　協同組合",
    "office_name_kana": "イワテセイカツ キヨウドウクミアイ"
  },
  "0691": {
    "postcode": "0200691",
    "prefecture": "岩手県",
    "prefecture_kana": "イワテケン",
    "prefecture_code": 3,
    "city": "滝沢市",
    "city_kana": "タキザワシ",
    "town": "土沢",
    "town_kana": "ツチザワ",
    "street": "２２０−５",
    "office_name": "岩手県学校生活　協同組合",
    "office_name_kana": "イワテケンガツコウセイカツ キヨウドウクミアイ"
  },
  "0692": {
    "postcode": "0200692",
    "prefecture": "岩手県",
    "prefecture_kana": "イワテケン",
    "prefecture_code": 3,
    "city": "滝沢市",
    "city_kana": "タキザワシ",
    "town": "中鵜飼",
    "town_kana": "ナカウカイ",
    "street": "５５",
    "office_name": "滝沢市役所",
    "office_name_kana": "タキザワシヤクシヨ"
  },
  "0693": {
    "postcode": "0200693",
    "prefecture": "岩手県",
    "prefecture_kana": "イワテケン",
    "prefecture_code": 3,
    "city": "滝沢市",
    "city_kana": "タキザワシ",
    "town": "巣子",
    "town_kana": "スゴ",
    "street": "１５２−５２",
    "office_name": "岩手県立大学",
    "office_name_kana": "イワテケンリツダイガク"
  },
  "0694": {
    "postcode": "0200694",
    "prefecture": "岩手県",
    "prefecture_kana": "イワテケン",
    "prefecture_code": 3,
    "city": "滝沢市",
    "city_kana": "タキザワシ",
    "town": "砂込",
    "town_kana": "スナコミ",
    "street": "８０８",
    "office_name": "盛岡大学",
    "office_name_kana": "モリオカダイガク"
  },
  "0698": {
    "postcode": "0200698",
    "prefecture": "岩手県",
    "prefecture_kana": "イワテケン",
    "prefecture_code": 3,
    "city": "滝沢市",
    "city_kana": "タキザワシ",
    "town": "外山",
    "town_kana": "ソトヤマ",
    "street": "３０９",
    "office_name": "株式会社　ミクニ",
    "office_name_kana": "カブシキガイシヤ ミクニ"
  },
  "0701": {
    "postcode": "0200701",
    "prefecture": "岩手県",
    "prefecture_kana": "イワテケン",
    "prefecture_code": 3,
    "city": "滝沢市",
    "city_kana": "タキザワシ",
    "town": "大沢籠屋敷",
    "town_kana": "オオサワカゴヤシキ",
    "street": null,
    "office_name": null,
    "office_name_kana": null
  },
  "0702": {
    "postcode": "0200702",
    "prefecture": "岩手県",
    "prefecture_kana": "イワテケン",
    "prefecture_code": 3,
    "city": "滝沢市",
    "city_kana": "タキザワシ",
    "town": "大沢上鶴子",
    "town_kana": "オオサワカミツルコ",
    "street": null,
    "office_name": null,
    "office_name_kana": null
  },
  "0703": {
    "postcode": "0200703",
    "prefecture": "岩手県",
    "prefecture_kana": "イワテケン",
    "prefecture_code": 3,
    "city": "滝沢市",
    "city_kana": "タキザワシ",
    "town": "大沢堰合",
    "town_kana": "オオサワセキアイ",
    "street": null,
    "office_name": null,
    "office_name_kana": null
  },
  "0704": {
    "postcode": "0200704",
    "prefecture": "岩手県",
    "prefecture_kana": "イワテケン",
    "prefecture_code": 3,
    "city": "滝沢市",
    "city_kana": "タキザワシ",
    "town": "大沢谷地中",
    "town_kana": "オオサワヤチナカ",
    "street": null,
    "office_name": null,
    "office_name_kana": null
  },
  "0705": {
    "postcode": "0200705",
    "prefecture": "岩手県",
    "prefecture_kana": "イワテケン",
    "prefecture_code": 3,
    "city": "滝沢市",
    "city_kana": "タキザワシ",
    "town": "大沢二タ又",
    "town_kana": "オオサワフタマタ",
    "street": null,
    "office_name": null,
    "office_name_kana": null
  },
  "0706": {
    "postcode": "0200706",
    "prefecture": "岩手県",
    "prefecture_kana": "イワテケン",
    "prefecture_code": 3,
    "city": "滝沢市",
    "city_kana": "タキザワシ",
    "town": "大沢割田",
    "town_kana": "オオサワワッタ",
    "street": null,
    "office_name": null,
    "office_name_kana": null
  },
  "0707": {
    "postcode": "0200707",
    "prefecture": "岩手県",
    "prefecture_kana": "イワテケン",
    "prefecture_code": 3,
    "city": "滝沢市",
    "city_kana": "タキザワシ",
    "town": "大沢館",
    "town_kana": "オオサワタテ",
    "street": null,
    "office_name": null,
    "office_name_kana": null
  },
  "0708": {
    "postcode": "0200708",
    "prefecture": "岩手県",
    "prefecture_kana": "イワテケン",
    "prefecture_code": 3,
    "city": "滝沢市",
    "city_kana": "タキザワシ",
    "town": "大沢箸木平",
    "town_kana": "オオサワハシギダイラ",
    "street": null,
    "office_name": null,
    "office_name_kana": null
  },
  "0709": {
    "postcode": "0200709",
    "prefecture": "岩手県",
    "prefecture_kana": "イワテケン",
    "prefecture_code": 3,
    "city": "滝沢市",
    "city_kana": "タキザワシ",
    "town": "大沢外山野",
    "town_kana": "オオサワトヤマノ",
    "street": null,
    "office_name": null,
    "office_name_kana": null
  },
  "0710": {
    "postcode": "0200710",
    "prefecture": "岩手県",
    "prefecture_kana": "イワテケン",
    "prefecture_code": 3,
    "city": "滝沢市",
    "city_kana": "タキザワシ",
    "town": "大沢弥作畑",
    "town_kana": "オオサワヤサクハタ",
    "street": null,
    "office_name": null,
    "office_name_kana": null
  },
  "0711": {
    "postcode": "0200711",
    "prefecture": "岩手県",
    "prefecture_kana": "イワテケン",
    "prefecture_code": 3,
    "city": "滝沢市",
    "city_kana": "タキザワシ",
    "town": "大沢谷地上",
    "town_kana": "オオサワヤチガミ",
    "street": null,
    "office_name": null,
    "office_name_kana": null
  },
  "0712": {
    "postcode": "0200712",
    "prefecture": "岩手県",
    "prefecture_kana": "イワテケン",
    "prefecture_code": 3,
    "city": "滝沢市",
    "city_kana": "タキザワシ",
    "town": "大沢長坪",
    "town_kana": "オオサワナガツボ",
    "street": null,
    "office_name": null,
    "office_name_kana": null
  },
  "0713": {
    "postcode": "0200713",
    "prefecture": "岩手県",
    "prefecture_kana": "イワテケン",
    "prefecture_code": 3,
    "city": "滝沢市",
    "city_kana": "タキザワシ",
    "town": "大沢新道",
    "town_kana": "オオサワシンミチ",
    "street": null,
    "office_name": null,
    "office_name_kana": null
  },
  "0714": {
    "postcode": "0200714",
    "prefecture": "岩手県",
    "prefecture_kana": "イワテケン",
    "prefecture_code": 3,
    "city": "滝沢市",
    "city_kana": "タキザワシ",
    "town": "大沢舛村",
    "town_kana": "オオサワマスムラ",
    "street": null,
    "office_name": null,
    "office_name_kana": null
  },
  "0715": {
    "postcode": "0200715",
    "prefecture": "岩手県",
    "prefecture_kana": "イワテケン",
    "prefecture_code": 3,
    "city": "滝沢市",
    "city_kana": "タキザワシ",
    "town": "大沢下屋敷",
    "town_kana": "オオサワシモヤシキ",
    "street": null,
    "office_name": null,
    "office_name_kana": null
  },
  "0716": {
    "postcode": "0200716",
    "prefecture": "岩手県",
    "prefecture_kana": "イワテケン",
    "prefecture_code": 3,
    "city": "滝沢市",
    "city_kana": "タキザワシ",
    "town": "大沢米倉",
    "town_kana": "オオサワヨネクラ",
    "street": null,
    "office_name": null,
    "office_name_kana": null
  },
  "0717": {
    "postcode": "0200717",
    "prefecture": "岩手県",
    "prefecture_kana": "イワテケン",
    "prefecture_code": 3,
    "city": "滝沢市",
    "city_kana": "タキザワシ",
    "town": "大沢四つ家",
    "town_kana": "オオサワヨツヤ",
    "street": null,
    "office_name": null,
    "office_name_kana": null
  },
  "0718": {
    "postcode": "0200718",
    "prefecture": "岩手県",
    "prefecture_kana": "イワテケン",
    "prefecture_code": 3,
    "city": "滝沢市",
    "city_kana": "タキザワシ",
    "town": "大沢小谷地",
    "town_kana": "オオサワコヤチ",
    "street": null,
    "office_name": null,
    "office_name_kana": null
  },
  "0719": {
    "postcode": "0200719",
    "prefecture": "岩手県",
    "prefecture_kana": "イワテケン",
    "prefecture_code": 3,
    "city": "滝沢市",
    "city_kana": "タキザワシ",
    "town": "大沢鶴子",
    "town_kana": "オオサワツルコ",
    "street": null,
    "office_name": null,
    "office_name_kana": null
  },
  "0721": {
    "postcode": "0200721",
    "prefecture": "岩手県",
    "prefecture_kana": "イワテケン",
    "prefecture_code": 3,
    "city": "滝沢市",
    "city_kana": "タキザワシ",
    "town": "篠木中村",
    "town_kana": "シノギナカムラ",
    "street": null,
    "office_name": null,
    "office_name_kana": null
  },
  "0722": {
    "postcode": "0200722",
    "prefecture": "岩手県",
    "prefecture_kana": "イワテケン",
    "prefecture_code": 3,
    "city": "滝沢市",
    "city_kana": "タキザワシ",
    "town": "篠木上綾織",
    "town_kana": "シノギカミアヤオリ",
    "street": null,
    "office_name": null,
    "office_name_kana": null
  },
  "0723": {
    "postcode": "0200723",
    "prefecture": "岩手県",
    "prefecture_kana": "イワテケン",
    "prefecture_code": 3,
    "city": "滝沢市",
    "city_kana": "タキザワシ",
    "town": "篠木綾織",
    "town_kana": "シノギアヤオリ",
    "street": null,
    "office_name": null,
    "office_name_kana": null
  },
  "0724": {
    "postcode": "0200724",
    "prefecture": "岩手県",
    "prefecture_kana": "イワテケン",
    "prefecture_code": 3,
    "city": "滝沢市",
    "city_kana": "タキザワシ",
    "town": "篠木小谷地",
    "town_kana": "シノギコヤチ",
    "street": null,
    "office_name": null,
    "office_name_kana": null
  },
  "0725": {
    "postcode": "0200725",
    "prefecture": "岩手県",
    "prefecture_kana": "イワテケン",
    "prefecture_code": 3,
    "city": "滝沢市",
    "city_kana": "タキザワシ",
    "town": "篠木中屋敷",
    "town_kana": "シノギナカヤシキ",
    "street": null,
    "office_name": null,
    "office_name_kana": null
  },
  "0726": {
    "postcode": "0200726",
    "prefecture": "岩手県",
    "prefecture_kana": "イワテケン",
    "prefecture_code": 3,
    "city": "滝沢市",
    "city_kana": "タキザワシ",
    "town": "篠木荒屋",
    "town_kana": "シノギアラヤ",
    "street": null,
    "office_name": null,
    "office_name_kana": null
  },
  "0727": {
    "postcode": "0200727",
    "prefecture": "岩手県",
    "prefecture_kana": "イワテケン",
    "prefecture_code": 3,
    "city": "滝沢市",
    "city_kana": "タキザワシ",
    "town": "篠木鳥谷平",
    "town_kana": "シノギトヤヒラ",
    "street": null,
    "office_name": null,
    "office_name_kana": null
  },
  "0728": {
    "postcode": "0200728",
    "prefecture": "岩手県",
    "prefecture_kana": "イワテケン",
    "prefecture_code": 3,
    "city": "滝沢市",
    "city_kana": "タキザワシ",
    "town": "篠木上篠木",
    "town_kana": "シノギカミシノギ",
    "street": null,
    "office_name": null,
    "office_name_kana": null
  },
  "0731": {
    "postcode": "0200731",
    "prefecture": "岩手県",
    "prefecture_kana": "イワテケン",
    "prefecture_code": 3,
    "city": "滝沢市",
    "city_kana": "タキザワシ",
    "town": "篠木明法",
    "town_kana": "シノギミョウホウ",
    "street": null,
    "office_name": null,
    "office_name_kana": null
  },
  "0732": {
    "postcode": "0200732",
    "prefecture": "岩手県",
    "prefecture_kana": "イワテケン",
    "prefecture_code": 3,
    "city": "滝沢市",
    "city_kana": "タキザワシ",
    "town": "篠木樋の口",
    "town_kana": "シノギトイノクチ",
    "street": null,
    "office_name": null,
    "office_name_kana": null
  },
  "0733": {
    "postcode": "0200733",
    "prefecture": "岩手県",
    "prefecture_kana": "イワテケン",
    "prefecture_code": 3,
    "city": "滝沢市",
    "city_kana": "タキザワシ",
    "town": "篠木待場",
    "town_kana": "シノギマチバ",
    "street": null,
    "office_name": null,
    "office_name_kana": null
  },
  "0734": {
    "postcode": "0200734",
    "prefecture": "岩手県",
    "prefecture_kana": "イワテケン",
    "prefecture_code": 3,
    "city": "滝沢市",
    "city_kana": "タキザワシ",
    "town": "篠木上黒畑",
    "town_kana": "シノギカミクロハタ",
    "street": null,
    "office_name": null,
    "office_name_kana": null
  },
  "0735": {
    "postcode": "0200735",
    "prefecture": "岩手県",
    "prefecture_kana": "イワテケン",
    "prefecture_code": 3,
    "city": "滝沢市",
    "city_kana": "タキザワシ",
    "town": "篠木黒畑",
    "town_kana": "シノギクロハタ",
    "street": null,
    "office_name": null,
    "office_name_kana": null
  },
  "0736": {
    "postcode": "0200736",
    "prefecture": "岩手県",
    "prefecture_kana": "イワテケン",
    "prefecture_code": 3,
    "city": "滝沢市",
    "city_kana": "タキザワシ",
    "town": "篠木参郷",
    "town_kana": "シノギサンゴウ",
    "street": null,
    "office_name": null,
    "office_name_kana": null
  },
  "0737": {
    "postcode": "0200737",
    "prefecture": "岩手県",
    "prefecture_kana": "イワテケン",
    "prefecture_code": 3,
    "city": "滝沢市",
    "city_kana": "タキザワシ",
    "town": "篠木堤",
    "town_kana": "シノギツツミ",
    "street": null,
    "office_name": null,
    "office_name_kana": null
  },
  "0738": {
    "postcode": "0200738",
    "prefecture": "岩手県",
    "prefecture_kana": "イワテケン",
    "prefecture_code": 3,
    "city": "滝沢市",
    "city_kana": "タキザワシ",
    "town": "篠木参郷の森",
    "town_kana": "シノギサンゴウノモリ",
    "street": null,
    "office_name": null,
    "office_name_kana": null
  },
  "0741": {
    "postcode": "0200741",
    "prefecture": "岩手県",
    "prefecture_kana": "イワテケン",
    "prefecture_code": 3,
    "city": "滝沢市",
    "city_kana": "タキザワシ",
    "town": "篠木矢取森",
    "town_kana": "シノギヤトリモリ",
    "street": null,
    "office_name": null,
    "office_name_kana": null
  },
  "0742": {
    "postcode": "0200742",
    "prefecture": "岩手県",
    "prefecture_kana": "イワテケン",
    "prefecture_code": 3,
    "city": "滝沢市",
    "city_kana": "タキザワシ",
    "town": "篠木苧桶沢",
    "town_kana": "シノギオボケザワ",
    "street": null,
    "office_name": null,
    "office_name_kana": null
  },
  "0743": {
    "postcode": "0200743",
    "prefecture": "岩手県",
    "prefecture_kana": "イワテケン",
    "prefecture_code": 3,
    "city": "滝沢市",
    "city_kana": "タキザワシ",
    "town": "篠木外山",
    "town_kana": "シノギソトヤマ",
    "street": null,
    "office_name": null,
    "office_name_kana": null
  },
  "0744": {
    "postcode": "0200744",
    "prefecture": "岩手県",
    "prefecture_kana": "イワテケン",
    "prefecture_code": 3,
    "city": "滝沢市",
    "city_kana": "タキザワシ",
    "town": "篠木館が沢",
    "town_kana": "シノギタテガサワ",
    "street": null,
    "office_name": null,
    "office_name_kana": null
  },
  "0745": {
    "postcode": "0200745",
    "prefecture": "岩手県",
    "prefecture_kana": "イワテケン",
    "prefecture_code": 3,
    "city": "滝沢市",
    "city_kana": "タキザワシ",
    "town": "篠木大寺沢",
    "town_kana": "シノギオオテラサワ",
    "street": null,
    "office_name": null,
    "office_name_kana": null
  },
  "0746": {
    "postcode": "0200746",
    "prefecture": "岩手県",
    "prefecture_kana": "イワテケン",
    "prefecture_code": 3,
    "city": "滝沢市",
    "city_kana": "タキザワシ",
    "town": "篠木仁沢瀬",
    "town_kana": "シノギニサワセ",
    "street": null,
    "office_name": null,
    "office_name_kana": null
  },
  "0751": {
    "postcode": "0200751",
    "prefecture": "岩手県",
    "prefecture_kana": "イワテケン",
    "prefecture_code": 3,
    "city": "滝沢市",
    "city_kana": "タキザワシ",
    "town": "大釜千が窪",
    "town_kana": "オオガマセンガクボ",
    "street": null,
    "office_name": null,
    "office_name_kana": null
  },
  "0752": {
    "postcode": "0200752",
    "prefecture": "岩手県",
    "prefecture_kana": "イワテケン",
    "prefecture_code": 3,
    "city": "滝沢市",
    "city_kana": "タキザワシ",
    "town": "大釜白山",
    "town_kana": "オオガマシロヤマ",
    "street": null,
    "office_name": null,
    "office_name_kana": null
  },
  "0753": {
    "postcode": "0200753",
    "prefecture": "岩手県",
    "prefecture_kana": "イワテケン",
    "prefecture_code": 3,
    "city": "滝沢市",
    "city_kana": "タキザワシ",
    "town": "大釜細屋",
    "town_kana": "オオガマホソヤ",
    "street": null,
    "office_name": null,
    "office_name_kana": null
  },
  "0754": {
    "postcode": "0200754",
    "prefecture": "岩手県",
    "prefecture_kana": "イワテケン",
    "prefecture_code": 3,
    "city": "滝沢市",
    "city_kana": "タキザワシ",
    "town": "大釜上釜",
    "town_kana": "オオガマウワガマ",
    "street": null,
    "office_name": null,
    "office_name_kana": null
  },
  "0755": {
    "postcode": "0200755",
    "prefecture": "岩手県",
    "prefecture_kana": "イワテケン",
    "prefecture_code": 3,
    "city": "滝沢市",
    "city_kana": "タキザワシ",
    "town": "大釜釜口",
    "town_kana": "オオガマカマクチ",
    "street": null,
    "office_name": null,
    "office_name_kana": null
  },
  "0756": {
    "postcode": "0200756",
    "prefecture": "岩手県",
    "prefecture_kana": "イワテケン",
    "prefecture_code": 3,
    "city": "滝沢市",
    "city_kana": "タキザワシ",
    "town": "大釜高森",
    "town_kana": "オオガマタカモリ",
    "street": null,
    "office_name": null,
    "office_name_kana": null
  },
  "0757": {
    "postcode": "0200757",
    "prefecture": "岩手県",
    "prefecture_kana": "イワテケン",
    "prefecture_code": 3,
    "city": "滝沢市",
    "city_kana": "タキザワシ",
    "town": "大釜風林",
    "town_kana": "オオガマカザバヤシ",
    "street": null,
    "office_name": null,
    "office_name_kana": null
  },
  "0758": {
    "postcode": "0200758",
    "prefecture": "岩手県",
    "prefecture_kana": "イワテケン",
    "prefecture_code": 3,
    "city": "滝沢市",
    "city_kana": "タキザワシ",
    "town": "大釜大清水",
    "town_kana": "オオガマオオシミズ",
    "street": null,
    "office_name": null,
    "office_name_kana": null
  },
  "0761": {
    "postcode": "0200761",
    "prefecture": "岩手県",
    "prefecture_kana": "イワテケン",
    "prefecture_code": 3,
    "city": "滝沢市",
    "city_kana": "タキザワシ",
    "town": "大釜田の尻",
    "town_kana": "オオガマタノシリ",
    "street": null,
    "office_name": null,
    "office_name_kana": null
  },
  "0762": {
    "postcode": "0200762",
    "prefecture": "岩手県",
    "prefecture_kana": "イワテケン",
    "prefecture_code": 3,
    "city": "滝沢市",
    "city_kana": "タキザワシ",
    "town": "大釜外館",
    "town_kana": "オオガマトダテ",
    "street": null,
    "office_name": null,
    "office_name_kana": null
  },
  "0763": {
    "postcode": "0200763",
    "prefecture": "岩手県",
    "prefecture_kana": "イワテケン",
    "prefecture_code": 3,
    "city": "滝沢市",
    "city_kana": "タキザワシ",
    "town": "大釜大畑",
    "town_kana": "オオガマオオバタケ",
    "street": null,
    "office_name": null,
    "office_name_kana": null
  },
  "0764": {
    "postcode": "0200764",
    "prefecture": "岩手県",
    "prefecture_kana": "イワテケン",
    "prefecture_code": 3,
    "city": "滝沢市",
    "city_kana": "タキザワシ",
    "town": "大釜土井尻",
    "town_kana": "オオガマドイジリ",
    "street": null,
    "office_name": null,
    "office_name_kana": null
  },
  "0765": {
    "postcode": "0200765",
    "prefecture": "岩手県",
    "prefecture_kana": "イワテケン",
    "prefecture_code": 3,
    "city": "滝沢市",
    "city_kana": "タキザワシ",
    "town": "大釜小屋敷",
    "town_kana": "オオガマコヤシキ",
    "street": null,
    "office_name": null,
    "office_name_kana": null
  },
  "0766": {
    "postcode": "0200766",
    "prefecture": "岩手県",
    "prefecture_kana": "イワテケン",
    "prefecture_code": 3,
    "city": "滝沢市",
    "city_kana": "タキザワシ",
    "town": "大釜八幡前",
    "town_kana": "オオガマハチマンマエ",
    "street": null,
    "office_name": null,
    "office_name_kana": null
  },
  "0767": {
    "postcode": "0200767",
    "prefecture": "岩手県",
    "prefecture_kana": "イワテケン",
    "prefecture_code": 3,
    "city": "滝沢市",
    "city_kana": "タキザワシ",
    "town": "大釜中道",
    "town_kana": "オオガマナカミチ",
    "street": null,
    "office_name": null,
    "office_name_kana": null
  },
  "0768": {
    "postcode": "0200768",
    "prefecture": "岩手県",
    "prefecture_kana": "イワテケン",
    "prefecture_code": 3,
    "city": "滝沢市",
    "city_kana": "タキザワシ",
    "town": "大釜和田",
    "town_kana": "オオガマワダ",
    "street": null,
    "office_name": null,
    "office_name_kana": null
  },
  "0769": {
    "postcode": "0200769",
    "prefecture": "岩手県",
    "prefecture_kana": "イワテケン",
    "prefecture_code": 3,
    "city": "滝沢市",
    "city_kana": "タキザワシ",
    "town": "大釜荒屋敷",
    "town_kana": "オオガマアラヤシキ",
    "street": null,
    "office_name": null,
    "office_name_kana": null
  },
  "0771": {
    "postcode": "0200771",
    "prefecture": "岩手県",
    "prefecture_kana": "イワテケン",
    "prefecture_code": 3,
    "city": "滝沢市",
    "city_kana": "タキザワシ",
    "town": "大釜竹鼻",
    "town_kana": "オオガマタケハナ",
    "street": null,
    "office_name": null,
    "office_name_kana": null
  },
  "0772": {
    "postcode": "0200772",
    "prefecture": "岩手県",
    "prefecture_kana": "イワテケン",
    "prefecture_code": 3,
    "city": "滝沢市",
    "city_kana": "タキザワシ",
    "town": "大釜中瀬",
    "town_kana": "オオガマナカセ",
    "street": null,
    "office_name": null,
    "office_name_kana": null
  },
  "0773": {
    "postcode": "0200773",
    "prefecture": "岩手県",
    "prefecture_kana": "イワテケン",
    "prefecture_code": 3,
    "city": "滝沢市",
    "city_kana": "タキザワシ",
    "town": "大釜上竹鼻",
    "town_kana": "オオガマカミタケハナ",
    "street": null,
    "office_name": null,
    "office_name_kana": null
  },
  "0774": {
    "postcode": "0200774",
    "prefecture": "岩手県",
    "prefecture_kana": "イワテケン",
    "prefecture_code": 3,
    "city": "滝沢市",
    "city_kana": "タキザワシ",
    "town": "大釜塩の森",
    "town_kana": "オオガマシオノモリ",
    "street": null,
    "office_name": null,
    "office_name_kana": null
  },
  "0775": {
    "postcode": "0200775",
    "prefecture": "岩手県",
    "prefecture_kana": "イワテケン",
    "prefecture_code": 3,
    "city": "滝沢市",
    "city_kana": "タキザワシ",
    "town": "大釜沼袋",
    "town_kana": "オオガマヌマブクロ",
    "street": null,
    "office_name": null,
    "office_name_kana": null
  },
  "0776": {
    "postcode": "0200776",
    "prefecture": "岩手県",
    "prefecture_kana": "イワテケン",
    "prefecture_code": 3,
    "city": "滝沢市",
    "city_kana": "タキザワシ",
    "town": "大釜鬼が滝",
    "town_kana": "オオガマオニガタキ",
    "street": null,
    "office_name": null,
    "office_name_kana": null
  },
  "0777": {
    "postcode": "0200777",
    "prefecture": "岩手県",
    "prefecture_kana": "イワテケン",
    "prefecture_code": 3,
    "city": "滝沢市",
    "city_kana": "タキザワシ",
    "town": "大釜仁沢瀬",
    "town_kana": "オオガマニサワセ",
    "street": null,
    "office_name": null,
    "office_name_kana": null
  },
  "0778": {
    "postcode": "0200778",
    "prefecture": "岩手県",
    "prefecture_kana": "イワテケン",
    "prefecture_code": 3,
    "city": "滝沢市",
    "city_kana": "タキザワシ",
    "town": "大釜吉水",
    "town_kana": "オオガマヨシミズ",
    "street": null,
    "office_name": null,
    "office_name_kana": null
  },
  "0779": {
    "postcode": "0200779",
    "prefecture": "岩手県",
    "prefecture_kana": "イワテケン",
    "prefecture_code": 3,
    "city": "滝沢市",
    "city_kana": "タキザワシ",
    "town": "大釜吉清水",
    "town_kana": "オオガマヨシミズ",
    "street": null,
    "office_name": null,
    "office_name_kana": null
  },
  "0801": {
    "postcode": "0200801",
    "prefecture": "岩手県",
    "prefecture_kana": "イワテケン",
    "prefecture_code": 3,
    "city": "盛岡市",
    "city_kana": "モリオカシ",
    "town": "浅岸",
    "town_kana": "アサギシ",
    "street": null,
    "office_name": null,
    "office_name_kana": null
  },
  "0802": {
    "postcode": "0200802",
    "prefecture": "岩手県",
    "prefecture_kana": "イワテケン",
    "prefecture_code": 3,
    "city": "盛岡市",
    "city_kana": "モリオカシ",
    "town": "つつじが丘",
    "town_kana": "ツツジガオカ",
    "street": null,
    "office_name": null,
    "office_name_kana": null
  },
  "0803": {
    "postcode": "0200803",
    "prefecture": "岩手県",
    "prefecture_kana": "イワテケン",
    "prefecture_code": 3,
    "city": "盛岡市",
    "city_kana": "モリオカシ",
    "town": "新庄",
    "town_kana": "シンジョウ",
    "street": null,
    "office_name": null,
    "office_name_kana": null
  },
  "0804": {
    "postcode": "0200804",
    "prefecture": "岩手県",
    "prefecture_kana": "イワテケン",
    "prefecture_code": 3,
    "city": "盛岡市",
    "city_kana": "モリオカシ",
    "town": "東桜山",
    "town_kana": "ヒガシサクラヤマ",
    "street": null,
    "office_name": null,
    "office_name_kana": null
  },
  "0805": {
    "postcode": "0200805",
    "prefecture": "岩手県",
    "prefecture_kana": "イワテケン",
    "prefecture_code": 3,
    "city": "盛岡市",
    "city_kana": "モリオカシ",
    "town": "東新庄",
    "town_kana": "ヒガシシンジョウ",
    "street": null,
    "office_name": null,
    "office_name_kana": null
  },
  "0806": {
    "postcode": "0200806",
    "prefecture": "岩手県",
    "prefecture_kana": "イワテケン",
    "prefecture_code": 3,
    "city": "盛岡市",
    "city_kana": "モリオカシ",
    "town": "新庄町",
    "town_kana": "シンジョウチョウ",
    "street": null,
    "office_name": null,
    "office_name_kana": null
  },
  "0807": {
    "postcode": "0200807",
    "prefecture": "岩手県",
    "prefecture_kana": "イワテケン",
    "prefecture_code": 3,
    "city": "盛岡市",
    "city_kana": "モリオカシ",
    "town": "加賀野",
    "town_kana": "カガノ",
    "street": null,
    "office_name": null,
    "office_name_kana": null
  },
  "0811": {
    "postcode": "0200811",
    "prefecture": "岩手県",
    "prefecture_kana": "イワテケン",
    "prefecture_code": 3,
    "city": "盛岡市",
    "city_kana": "モリオカシ",
    "town": "川目町",
    "town_kana": "カワメチョウ",
    "street": null,
    "office_name": null,
    "office_name_kana": null
  },
  "0812": {
    "postcode": "0200812",
    "prefecture": "岩手県",
    "prefecture_kana": "イワテケン",
    "prefecture_code": 3,
    "city": "盛岡市",
    "city_kana": "モリオカシ",
    "town": "川目",
    "town_kana": "カワメ",
    "street": null,
    "office_name": null,
    "office_name_kana": null
  },
  "0813": {
    "postcode": "0200813",
    "prefecture": "岩手県",
    "prefecture_kana": "イワテケン",
    "prefecture_code": 3,
    "city": "盛岡市",
    "city_kana": "モリオカシ",
    "town": "東山",
    "town_kana": "ヒガシヤマ",
    "street": null,
    "office_name": null,
    "office_name_kana": null
  },
  "0814": {
    "postcode": "0200814",
    "prefecture": "岩手県",
    "prefecture_kana": "イワテケン",
    "prefecture_code": 3,
    "city": "盛岡市",
    "city_kana": "モリオカシ",
    "town": "東中野町",
    "town_kana": "ヒガシナカノチョウ",
    "street": null,
    "office_name": null,
    "office_name_kana": null
  },
  "0815": {
    "postcode": "0200815",
    "prefecture": "岩手県",
    "prefecture_kana": "イワテケン",
    "prefecture_code": 3,
    "city": "盛岡市",
    "city_kana": "モリオカシ",
    "town": "小杉山",
    "town_kana": "コスギヤマ",
    "street": null,
    "office_name": null,
    "office_name_kana": null
  },
  "0816": {
    "postcode": "0200816",
    "prefecture": "岩手県",
    "prefecture_kana": "イワテケン",
    "prefecture_code": 3,
    "city": "盛岡市",
    "city_kana": "モリオカシ",
    "town": "中野",
    "town_kana": "ナカノ",
    "street": null,
    "office_name": null,
    "office_name_kana": null
  },
  "0817": {
    "postcode": "0200817",
    "prefecture": "岩手県",
    "prefecture_kana": "イワテケン",
    "prefecture_code": 3,
    "city": "盛岡市",
    "city_kana": "モリオカシ",
    "town": "東中野",
    "town_kana": "ヒガシナカノ",
    "street": null,
    "office_name": null,
    "office_name_kana": null
  },
  "0821": {
    "postcode": "0200821",
    "prefecture": "岩手県",
    "prefecture_kana": "イワテケン",
    "prefecture_code": 3,
    "city": "盛岡市",
    "city_kana": "モリオカシ",
    "town": "山王町",
    "town_kana": "サンノウチョウ",
    "street": null,
    "office_name": null,
    "office_name_kana": null
  },
  "0822": {
    "postcode": "0200822",
    "prefecture": "岩手県",
    "prefecture_kana": "イワテケン",
    "prefecture_code": 3,
    "city": "盛岡市",
    "city_kana": "モリオカシ",
    "town": "茶畑",
    "town_kana": "チャバタケ",
    "street": null,
    "office_name": null,
    "office_name_kana": null
  },
  "0823": {
    "postcode": "0200823",
    "prefecture": "岩手県",
    "prefecture_kana": "イワテケン",
    "prefecture_code": 3,
    "city": "盛岡市",
    "city_kana": "モリオカシ",
    "town": "門",
    "town_kana": "カド",
    "street": null,
    "office_name": null,
    "office_name_kana": null
  },
  "0824": {
    "postcode": "0200824",
    "prefecture": "岩手県",
    "prefecture_kana": "イワテケン",
    "prefecture_code": 3,
    "city": "盛岡市",
    "city_kana": "モリオカシ",
    "town": "東安庭",
    "town_kana": "ヒガシアニワ",
    "street": null,
    "office_name": null,
    "office_name_kana": null
  },
  "0825": {
    "postcode": "0200825",
    "prefecture": "岩手県",
    "prefecture_kana": "イワテケン",
    "prefecture_code": 3,
    "city": "盛岡市",
    "city_kana": "モリオカシ",
    "town": "高崩",
    "town_kana": "タカクズレ",
    "street": null,
    "office_name": null,
    "office_name_kana": null
  },
  "0826": {
    "postcode": "0200826",
    "prefecture": "岩手県",
    "prefecture_kana": "イワテケン",
    "prefecture_code": 3,
    "city": "盛岡市",
    "city_kana": "モリオカシ",
    "town": "神子田町",
    "town_kana": "ミコダチョウ",
    "street": null,
    "office_name": null,
    "office_name_kana": null
  },
  "0827": {
    "postcode": "0200827",
    "prefecture": "岩手県",
    "prefecture_kana": "イワテケン",
    "prefecture_code": 3,
    "city": "盛岡市",
    "city_kana": "モリオカシ",
    "town": "鉈屋町",
    "town_kana": "ナタヤチョウ",
    "street": null,
    "office_name": null,
    "office_name_kana": null
  },
  "0828": {
    "postcode": "0200828",
    "prefecture": "岩手県",
    "prefecture_kana": "イワテケン",
    "prefecture_code": 3,
    "city": "盛岡市",
    "city_kana": "モリオカシ",
    "town": "大慈寺町",
    "town_kana": "ダイジジチョウ",
    "street": null,
    "office_name": null,
    "office_name_kana": null
  },
  "0831": {
    "postcode": "0200831",
    "prefecture": "岩手県",
    "prefecture_kana": "イワテケン",
    "prefecture_code": 3,
    "city": "盛岡市",
    "city_kana": "モリオカシ",
    "town": "三本柳",
    "town_kana": "サンボンヤナギ",
    "street": null,
    "office_name": null,
    "office_name_kana": null
  },
  "0832": {
    "postcode": "0200832",
    "prefecture": "岩手県",
    "prefecture_kana": "イワテケン",
    "prefecture_code": 3,
    "city": "盛岡市",
    "city_kana": "モリオカシ",
    "town": "東見前",
    "town_kana": "ヒガシミルマエ",
    "street": null,
    "office_name": null,
    "office_name_kana": null
  },
  "0833": {
    "postcode": "0200833",
    "prefecture": "岩手県",
    "prefecture_kana": "イワテケン",
    "prefecture_code": 3,
    "city": "盛岡市",
    "city_kana": "モリオカシ",
    "town": "西見前",
    "town_kana": "ニシミルマエ",
    "street": null,
    "office_name": null,
    "office_name_kana": null
  },
  "0834": {
    "postcode": "0200834",
    "prefecture": "岩手県",
    "prefecture_kana": "イワテケン",
    "prefecture_code": 3,
    "city": "盛岡市",
    "city_kana": "モリオカシ",
    "town": "永井",
    "town_kana": "ナガイ",
    "street": null,
    "office_name": null,
    "office_name_kana": null
  },
  "0835": {
    "postcode": "0200835",
    "prefecture": "岩手県",
    "prefecture_kana": "イワテケン",
    "prefecture_code": 3,
    "city": "盛岡市",
    "city_kana": "モリオカシ",
    "town": "津志田",
    "town_kana": "ツシダ",
    "street": null,
    "office_name": null,
    "office_name_kana": null
  },
  "0836": {
    "postcode": "0200836",
    "prefecture": "岩手県",
    "prefecture_kana": "イワテケン",
    "prefecture_code": 3,
    "city": "盛岡市",
    "city_kana": "モリオカシ",
    "town": "津志田西",
    "town_kana": "ツシダニシ",
    "street": null,
    "office_name": null,
    "office_name_kana": null
  },
  "0837": {
    "postcode": "0200837",
    "prefecture": "岩手県",
    "prefecture_kana": "イワテケン",
    "prefecture_code": 3,
    "city": "盛岡市",
    "city_kana": "モリオカシ",
    "town": "津志田町",
    "town_kana": "ツシダチョウ",
    "street": null,
    "office_name": null,
    "office_name_kana": null
  },
  "0838": {
    "postcode": "0200838",
    "prefecture": "岩手県",
    "prefecture_kana": "イワテケン",
    "prefecture_code": 3,
    "city": "盛岡市",
    "city_kana": "モリオカシ",
    "town": "津志田中央",
    "town_kana": "ツシダチュウオウ",
    "street": null,
    "office_name": null,
    "office_name_kana": null
  },
  "0839": {
    "postcode": "0200839",
    "prefecture": "岩手県",
    "prefecture_kana": "イワテケン",
    "prefecture_code": 3,
    "city": "盛岡市",
    "city_kana": "モリオカシ",
    "town": "津志田南",
    "town_kana": "ツシダミナミ",
    "street": null,
    "office_name": null,
    "office_name_kana": null
  },
  "0841": {
    "postcode": "0200841",
    "prefecture": "岩手県",
    "prefecture_kana": "イワテケン",
    "prefecture_code": 3,
    "city": "盛岡市",
    "city_kana": "モリオカシ",
    "town": "羽場",
    "town_kana": "ハバ",
    "street": null,
    "office_name": null,
    "office_name_kana": null
  },
  "0842": {
    "postcode": "0200842",
    "prefecture": "岩手県",
    "prefecture_kana": "イワテケン",
    "prefecture_code": 3,
    "city": "盛岡市",
    "city_kana": "モリオカシ",
    "town": "湯沢",
    "town_kana": "ユザワ",
    "street": null,
    "office_name": null,
    "office_name_kana": null
  },
  "0843": {
    "postcode": "0200843",
    "prefecture": "岩手県",
    "prefecture_kana": "イワテケン",
    "prefecture_code": 3,
    "city": "盛岡市",
    "city_kana": "モリオカシ",
    "town": "湯沢西",
    "town_kana": "ユザワニシ",
    "street": null,
    "office_name": null,
    "office_name_kana": null
  },
  "0844": {
    "postcode": "0200844",
    "prefecture": "岩手県",
    "prefecture_kana": "イワテケン",
    "prefecture_code": 3,
    "city": "盛岡市",
    "city_kana": "モリオカシ",
    "town": "湯沢東",
    "town_kana": "ユザワヒガシ",
    "street": null,
    "office_name": null,
    "office_name_kana": null
  },
  "0845": {
    "postcode": "0200845",
    "prefecture": "岩手県",
    "prefecture_kana": "イワテケン",
    "prefecture_code": 3,
    "city": "盛岡市",
    "city_kana": "モリオカシ",
    "town": "湯沢南",
    "town_kana": "ユザワミナミ",
    "street": null,
    "office_name": null,
    "office_name_kana": null
  },
  "0846": {
    "postcode": "0200846",
    "prefecture": "岩手県",
    "prefecture_kana": "イワテケン",
    "prefecture_code": 3,
    "city": "盛岡市",
    "city_kana": "モリオカシ",
    "town": "流通センター北",
    "town_kana": "リュウツウセンターキタ",
    "street": null,
    "office_name": null,
    "office_name_kana": null
  },
  "0851": {
    "postcode": "0200851",
    "prefecture": "岩手県",
    "prefecture_kana": "イワテケン",
    "prefecture_code": 3,
    "city": "盛岡市",
    "city_kana": "モリオカシ",
    "town": "向中野",
    "town_kana": "ムカイナカノ",
    "street": null,
    "office_name": null,
    "office_name_kana": null
  },
  "0852": {
    "postcode": "0200852",
    "prefecture": "岩手県",
    "prefecture_kana": "イワテケン",
    "prefecture_code": 3,
    "city": "盛岡市",
    "city_kana": "モリオカシ",
    "town": "飯岡新田",
    "town_kana": "イイオカシンデン",
    "street": null,
    "office_name": null,
    "office_name_kana": null
  },
  "0853": {
    "postcode": "0200853",
    "prefecture": "岩手県",
    "prefecture_kana": "イワテケン",
    "prefecture_code": 3,
    "city": "盛岡市",
    "city_kana": "モリオカシ",
    "town": "下飯岡",
    "town_kana": "シモイイオカ",
    "street": null,
    "office_name": null,
    "office_name_kana": null
  },
  "0854": {
    "postcode": "0200854",
    "prefecture": "岩手県",
    "prefecture_kana": "イワテケン",
    "prefecture_code": 3,
    "city": "盛岡市",
    "city_kana": "モリオカシ",
    "town": "上飯岡",
    "town_kana": "カミイイオカ",
    "street": null,
    "office_name": null,
    "office_name_kana": null
  },
  "0855": {
    "postcode": "0200855",
    "prefecture": "岩手県",
    "prefecture_kana": "イワテケン",
    "prefecture_code": 3,
    "city": "盛岡市",
    "city_kana": "モリオカシ",
    "town": "上鹿妻",
    "town_kana": "カミカヅマ",
    "street": null,
    "office_name": null,
    "office_name_kana": null
  },
  "0856": {
    "postcode": "0200856",
    "prefecture": "岩手県",
    "prefecture_kana": "イワテケン",
    "prefecture_code": 3,
    "city": "盛岡市",
    "city_kana": "モリオカシ",
    "town": "下鹿妻",
    "town_kana": "シモカヅマ",
    "street": null,
    "office_name": null,
    "office_name_kana": null
  },
  "0857": {
    "postcode": "0200857",
    "prefecture": "岩手県",
    "prefecture_kana": "イワテケン",
    "prefecture_code": 3,
    "city": "盛岡市",
    "city_kana": "モリオカシ",
    "town": "北飯岡",
    "town_kana": "キタイイオカ",
    "street": null,
    "office_name": null,
    "office_name_kana": null
  },
  "0861": {
    "postcode": "0200861",
    "prefecture": "岩手県",
    "prefecture_kana": "イワテケン",
    "prefecture_code": 3,
    "city": "盛岡市",
    "city_kana": "モリオカシ",
    "town": "仙北",
    "town_kana": "センボク",
    "street": null,
    "office_name": null,
    "office_name_kana": null
  },
  "0862": {
    "postcode": "0200862",
    "prefecture": "岩手県",
    "prefecture_kana": "イワテケン",
    "prefecture_code": 3,
    "city": "盛岡市",
    "city_kana": "モリオカシ",
    "town": "東仙北",
    "town_kana": "ヒガシセンボク",
    "street": null,
    "office_name": null,
    "office_name_kana": null
  },
  "0863": {
    "postcode": "0200863",
    "prefecture": "岩手県",
    "prefecture_kana": "イワテケン",
    "prefecture_code": 3,
    "city": "盛岡市",
    "city_kana": "モリオカシ",
    "town": "南仙北",
    "town_kana": "ミナミセンボク",
    "street": null,
    "office_name": null,
    "office_name_kana": null
  },
  "0864": {
    "postcode": "0200864",
    "prefecture": "岩手県",
    "prefecture_kana": "イワテケン",
    "prefecture_code": 3,
    "city": "盛岡市",
    "city_kana": "モリオカシ",
    "town": "西仙北",
    "town_kana": "ニシセンボク",
    "street": null,
    "office_name": null,
    "office_name_kana": null
  },
  "0865": {
    "postcode": "0200865",
    "prefecture": "岩手県",
    "prefecture_kana": "イワテケン",
    "prefecture_code": 3,
    "city": "盛岡市",
    "city_kana": "モリオカシ",
    "town": "仙北町",
    "town_kana": "センボクチョウ",
    "street": null,
    "office_name": null,
    "office_name_kana": null
  },
  "0866": {
    "postcode": "0200866",
    "prefecture": "岩手県",
    "prefecture_kana": "イワテケン",
    "prefecture_code": 3,
    "city": "盛岡市",
    "city_kana": "モリオカシ",
    "town": "本宮",
    "town_kana": "モトミヤ",
    "street": null,
    "office_name": null,
    "office_name_kana": null
  },
  "0871": {
    "postcode": "0200871",
    "prefecture": "岩手県",
    "prefecture_kana": "イワテケン",
    "prefecture_code": 3,
    "city": "盛岡市",
    "city_kana": "モリオカシ",
    "town": "中ノ橋通",
    "town_kana": "ナカノハシドオリ",
    "street": null,
    "office_name": null,
    "office_name_kana": null
  },
  "0872": {
    "postcode": "0200872",
    "prefecture": "岩手県",
    "prefecture_kana": "イワテケン",
    "prefecture_code": 3,
    "city": "盛岡市",
    "city_kana": "モリオカシ",
    "town": "八幡町",
    "town_kana": "ハチマンチョウ",
    "street": null,
    "office_name": null,
    "office_name_kana": null
  },
  "0873": {
    "postcode": "0200873",
    "prefecture": "岩手県",
    "prefecture_kana": "イワテケン",
    "prefecture_code": 3,
    "city": "盛岡市",
    "city_kana": "モリオカシ",
    "town": "松尾町",
    "town_kana": "マツオチョウ",
    "street": null,
    "office_name": null,
    "office_name_kana": null
  },
  "0874": {
    "postcode": "0200874",
    "prefecture": "岩手県",
    "prefecture_kana": "イワテケン",
    "prefecture_code": 3,
    "city": "盛岡市",
    "city_kana": "モリオカシ",
    "town": "南大通",
    "town_kana": "ミナミオオドオリ",
    "street": null,
    "office_name": null,
    "office_name_kana": null
  },
  "0875": {
    "postcode": "0200875",
    "prefecture": "岩手県",
    "prefecture_kana": "イワテケン",
    "prefecture_code": 3,
    "city": "盛岡市",
    "city_kana": "モリオカシ",
    "town": "清水町",
    "town_kana": "シミズチョウ",
    "street": null,
    "office_name": null,
    "office_name_kana": null
  },
  "0876": {
    "postcode": "0200876",
    "prefecture": "岩手県",
    "prefecture_kana": "イワテケン",
    "prefecture_code": 3,
    "city": "盛岡市",
    "city_kana": "モリオカシ",
    "town": "馬場町",
    "town_kana": "ババチョウ",
    "street": null,
    "office_name": null,
    "office_name_kana": null
  },
  "0877": {
    "postcode": "0200877",
    "prefecture": "岩手県",
    "prefecture_kana": "イワテケン",
    "prefecture_code": 3,
    "city": "盛岡市",
    "city_kana": "モリオカシ",
    "town": "下ノ橋町",
    "town_kana": "シモノハシチョウ",
    "street": null,
    "office_name": null,
    "office_name_kana": null
  },
  "0878": {
    "postcode": "0200878",
    "prefecture": "岩手県",
    "prefecture_kana": "イワテケン",
    "prefecture_code": 3,
    "city": "盛岡市",
    "city_kana": "モリオカシ",
    "town": "肴町",
    "town_kana": "サカナチョウ",
    "street": null,
    "office_name": null,
    "office_name_kana": null
  },
  "0881": {
    "postcode": "0200881",
    "prefecture": "岩手県",
    "prefecture_kana": "イワテケン",
    "prefecture_code": 3,
    "city": "盛岡市",
    "city_kana": "モリオカシ",
    "town": "天神町",
    "town_kana": "テンジンチョウ",
    "street": null,
    "office_name": null,
    "office_name_kana": null
  },
  "0882": {
    "postcode": "0200882",
    "prefecture": "岩手県",
    "prefecture_kana": "イワテケン",
    "prefecture_code": 3,
    "city": "盛岡市",
    "city_kana": "モリオカシ",
    "town": "住吉町",
    "town_kana": "スミヨシチョウ",
    "street": null,
    "office_name": null,
    "office_name_kana": null
  },
  "0883": {
    "postcode": "0200883",
    "prefecture": "岩手県",
    "prefecture_kana": "イワテケン",
    "prefecture_code": 3,
    "city": "盛岡市",
    "city_kana": "モリオカシ",
    "town": "志家町",
    "town_kana": "シケチョウ",
    "street": null,
    "office_name": null,
    "office_name_kana": null
  },
  "0884": {
    "postcode": "0200884",
    "prefecture": "岩手県",
    "prefecture_kana": "イワテケン",
    "prefecture_code": 3,
    "city": "盛岡市",
    "city_kana": "モリオカシ",
    "town": "神明町",
    "town_kana": "シンメイチョウ",
    "street": null,
    "office_name": null,
    "office_name_kana": null
  },
  "0885": {
    "postcode": "0200885",
    "prefecture": "岩手県",
    "prefecture_kana": "イワテケン",
    "prefecture_code": 3,
    "city": "盛岡市",
    "city_kana": "モリオカシ",
    "town": "紺屋町",
    "town_kana": "コンヤチョウ",
    "street": null,
    "office_name": null,
    "office_name_kana": null
  },
  "0886": {
    "postcode": "0200886",
    "prefecture": "岩手県",
    "prefecture_kana": "イワテケン",
    "prefecture_code": 3,
    "city": "盛岡市",
    "city_kana": "モリオカシ",
    "town": "若園町",
    "town_kana": "ワカソノチョウ",
    "street": null,
    "office_name": null,
    "office_name_kana": null
  },
  "0887": {
    "postcode": "0200887",
    "prefecture": "岩手県",
    "prefecture_kana": "イワテケン",
    "prefecture_code": 3,
    "city": "盛岡市",
    "city_kana": "モリオカシ",
    "town": "上ノ橋町",
    "town_kana": "カミノハシチョウ",
    "street": null,
    "office_name": null,
    "office_name_kana": null
  },
  "0891": {
    "postcode": "0200891",
    "prefecture": "岩手県",
    "prefecture_kana": "イワテケン",
    "prefecture_code": 3,
    "city": "紫波郡矢巾町",
    "city_kana": "シワグンヤハバチョウ",
    "town": "流通センター南",
    "town_kana": "リュウツウセンターミナミ",
    "street": null,
    "office_name": null,
    "office_name_kana": null
  },
  "8501": {
    "postcode": "0208501",
    "prefecture": "岩手県",
    "prefecture_kana": "イワテケン",
    "prefecture_code": 3,
    "city": "盛岡市",
    "city_kana": "モリオカシ",
    "town": "愛宕下",
    "town_kana": "アタゴシタ",
    "street": "１−１０",
    "office_name": "盛岡グランドホテル",
    "office_name_kana": "モリオカグランドホテル"
  },
  "8502": {
    "postcode": "0208502",
    "prefecture": "岩手県",
    "prefecture_kana": "イワテケン",
    "prefecture_code": 3,
    "city": "盛岡市",
    "city_kana": "モリオカシ",
    "town": "三本柳",
    "town_kana": "サンボンヤナギ",
    "street": "１０−２２−１",
    "office_name": "ＤＣＭ　株式会社",
    "office_name_kana": "デイ-シ-エム カブシキガイシヤ"
  },
  "8504": {
    "postcode": "0208504",
    "prefecture": "岩手県",
    "prefecture_kana": "イワテケン",
    "prefecture_code": 3,
    "city": "盛岡市",
    "city_kana": "モリオカシ",
    "town": "本町通",
    "town_kana": "ホンチョウドオリ",
    "street": "３丁目８−３７盛岡税務署内",
    "office_name": "仙台国税局業務センター　盛岡分室",
    "office_name_kana": "センダイコクゼイキヨクギヨウムセンタ- モリオカブンシツ"
  },
  "8505": {
    "postcode": "0208505",
    "prefecture": "岩手県",
    "prefecture_kana": "イワテケン",
    "prefecture_code": 3,
    "city": "盛岡市",
    "city_kana": "モリオカシ",
    "town": "内丸",
    "town_kana": "ウチマル",
    "street": "１９番１号",
    "office_name": "岩手医科大学附属　内丸メディカルセンター",
    "office_name_kana": "イワテイカダイガクフゾク ウチマルメデイカルセンタ-"
  },
  "8507": {
    "postcode": "0208507",
    "prefecture": "岩手県",
    "prefecture_kana": "イワテケン",
    "prefecture_code": 3,
    "city": "盛岡市",
    "city_kana": "モリオカシ",
    "town": "清水町",
    "town_kana": "シミズチョウ",
    "street": "１４−１２",
    "office_name": "盛岡商工会議所",
    "office_name_kana": "モリオカシヨウコウカイギシヨ"
  },
  "8508": {
    "postcode": "0208508",
    "prefecture": "岩手県",
    "prefecture_kana": "イワテケン",
    "prefecture_code": 3,
    "city": "盛岡市",
    "city_kana": "モリオカシ",
    "town": "中央通",
    "town_kana": "チュウオウドオリ",
    "street": "１丁目７−２５朝日生命盛岡中央通ビル",
    "office_name": "全国健康保険協会　岩手支部",
    "office_name_kana": "ゼンコクケンコウホケンキヨウカイ イワテシブ"
  },
  "8510": {
    "postcode": "0208510",
    "prefecture": "岩手県",
    "prefecture_kana": "イワテケン",
    "prefecture_code": 3,
    "city": "盛岡市",
    "city_kana": "モリオカシ",
    "town": "山王町",
    "town_kana": "サンノウチョウ",
    "street": "４−１",
    "office_name": "岩手県自治会館",
    "office_name_kana": "イワテケンジチカイカン"
  },
  "8511": {
    "postcode": "0208511",
    "prefecture": "岩手県",
    "prefecture_kana": "イワテケン",
    "prefecture_code": 3,
    "city": "盛岡市",
    "city_kana": "モリオカシ",
    "town": "松尾町",
    "town_kana": "マツオチョウ",
    "street": "１７−１３",
    "office_name": "盛岡社会保険事務所",
    "office_name_kana": "モリオカシヤカイホケンジムシヨ"
  },
  "8512": {
    "postcode": "0208512",
    "prefecture": "岩手県",
    "prefecture_kana": "イワテケン",
    "prefecture_code": 3,
    "city": "盛岡市",
    "city_kana": "モリオカシ",
    "town": "内丸",
    "town_kana": "ウチマル",
    "street": "２番１０号−７階",
    "office_name": "株式会社　エフエム岩手",
    "office_name_kana": "カブシキガイシヤ エフエムイワテ"
  },
  "8513": {
    "postcode": "0208513",
    "prefecture": "岩手県",
    "prefecture_kana": "イワテケン",
    "prefecture_code": 3,
    "city": "盛岡市",
    "city_kana": "モリオカシ",
    "town": "中ノ橋通",
    "town_kana": "ナカノハシドオリ",
    "street": "１丁目５−２３",
    "office_name": "株式会社　東山堂",
    "office_name_kana": "カブシキガイシヤ トウサンドウ"
  },
  "8515": {
    "postcode": "0208515",
    "prefecture": "岩手県",
    "prefecture_kana": "イワテケン",
    "prefecture_code": 3,
    "city": "盛岡市",
    "city_kana": "モリオカシ",
    "town": "上田",
    "town_kana": "ウエダ",
    "street": "３丁目２−１",
    "office_name": "岩手県立　盛岡第一高等学校",
    "office_name_kana": "イワテケンリツ モリオカダイイチコウトウガツコウ"
  },
  "8518": {
    "postcode": "0208518",
    "prefecture": "岩手県",
    "prefecture_kana": "イワテケン",
    "prefecture_code": 3,
    "city": "盛岡市",
    "city_kana": "モリオカシ",
    "town": "盛岡駅前通",
    "town_kana": "モリオカエキマエドオリ",
    "street": "１番４４号",
    "office_name": "盛岡ターミナルビル　株式会社",
    "office_name_kana": "モリオカタ-ミナルビル カブシキガイシヤ"
  },
  "8520": {
    "postcode": "0208520",
    "prefecture": "岩手県",
    "prefecture_kana": "イワテケン",
    "prefecture_code": 3,
    "city": "盛岡市",
    "city_kana": "モリオカシ",
    "town": "内丸",
    "town_kana": "ウチマル",
    "street": "９−１",
    "office_name": "盛岡地方裁判所",
    "office_name_kana": "モリオカチホウサイバンシヨ"
  },
  "8521": {
    "postcode": "0208521",
    "prefecture": "岩手県",
    "prefecture_kana": "イワテケン",
    "prefecture_code": 3,
    "city": "盛岡市",
    "city_kana": "モリオカシ",
    "town": "紺屋町",
    "town_kana": "コンヤチョウ",
    "street": "１番２５号",
    "office_name": "東北電力　株式会社　岩手支店",
    "office_name_kana": "トウホクデンリヨク カブシキガイシヤ イワテシテン"
  },
  "8522": {
    "postcode": "0208522",
    "prefecture": "岩手県",
    "prefecture_kana": "イワテケン",
    "prefecture_code": 3,
    "city": "盛岡市",
    "city_kana": "モリオカシ",
    "town": "盛岡駅西通",
    "town_kana": "モリオカエキニシトオリ",
    "street": "１丁目９番１５号盛岡第二合同庁舎５Ｆ",
    "office_name": "岩手労働局",
    "office_name_kana": "イワテロウドウキヨク"
  },
  "8523": {
    "postcode": "0208523",
    "prefecture": "岩手県",
    "prefecture_kana": "イワテケン",
    "prefecture_code": 3,
    "city": "盛岡市",
    "city_kana": "モリオカシ",
    "town": "盛岡駅西通",
    "town_kana": "モリオカエキニシトオリ",
    "street": "一丁目９番１５号盛岡第２合同庁舎６階",
    "office_name": "盛岡労働基準監督署",
    "office_name_kana": "モリオカロウドウキジユンカントクシヨ"
  },
  "8525": {
    "postcode": "0208525",
    "prefecture": "岩手県",
    "prefecture_kana": "イワテケン",
    "prefecture_code": 3,
    "city": "盛岡市",
    "city_kana": "モリオカシ",
    "town": "内丸",
    "town_kana": "ウチマル",
    "street": "２−５",
    "office_name": "ＪＴＢ　盛岡支店",
    "office_name_kana": "ジエイテイビイ モリオカシテン"
  },
  "8526": {
    "postcode": "0208526",
    "prefecture": "岩手県",
    "prefecture_kana": "イワテケン",
    "prefecture_code": 3,
    "city": "盛岡市",
    "city_kana": "モリオカシ",
    "town": "紺屋町",
    "town_kana": "コンヤチョウ",
    "street": "１番２５号",
    "office_name": "東北電力ネットワーク　株式会社　岩手支社",
    "office_name_kana": "トウホクデンリヨクネツトワ-ク カブシキガイシヤ イワテシシヤ"
  },
  "8527": {
    "postcode": "0208527",
    "prefecture": "岩手県",
    "prefecture_kana": "イワテケン",
    "prefecture_code": 3,
    "city": "盛岡市",
    "city_kana": "モリオカシ",
    "town": "紺屋町",
    "town_kana": "コンヤチョウ",
    "street": "１番２５号",
    "office_name": "東北電力ネットワーク　株式会社　盛岡電力センター",
    "office_name_kana": "トウホクデンリヨクネツトワ-ク カブシキガイシヤ モリオカデンリヨクセンタ-"
  },
  "8530": {
    "postcode": "0208530",
    "prefecture": "岩手県",
    "prefecture_kana": "イワテケン",
    "prefecture_code": 3,
    "city": "盛岡市",
    "city_kana": "モリオカシ",
    "town": "内丸",
    "town_kana": "ウチマル",
    "street": "１２−２",
    "office_name": "盛岡市役所",
    "office_name_kana": "モリオカシヤクシヨ"
  },
  "8531": {
    "postcode": "0208531",
    "prefecture": "岩手県",
    "prefecture_kana": "イワテケン",
    "prefecture_code": 3,
    "city": "盛岡市",
    "city_kana": "モリオカシ",
    "town": "若園町",
    "town_kana": "ワカソノチョウ",
    "street": "２−１８",
    "office_name": "盛岡市役所　若園町分庁舎",
    "office_name_kana": "モリオカシヤクシヨ ワカゾノチヨウブンチヨウシヤ"
  },
  "8532": {
    "postcode": "0208532",
    "prefecture": "岩手県",
    "prefecture_kana": "イワテケン",
    "prefecture_code": 3,
    "city": "盛岡市",
    "city_kana": "モリオカシ",
    "town": "津志田",
    "town_kana": "ツシダ",
    "street": "１４地割３７−２",
    "office_name": "盛岡市役所　都南総合支所",
    "office_name_kana": "モリオカシヤクシヨ トナンソウゴウシシヨ"
  },
  "8533": {
    "postcode": "0208533",
    "prefecture": "岩手県",
    "prefecture_kana": "イワテケン",
    "prefecture_code": 3,
    "city": "盛岡市",
    "city_kana": "モリオカシ",
    "town": "盛岡駅前通",
    "town_kana": "モリオカエキマエドオリ",
    "street": "１−４１",
    "office_name": "東日本旅客鉄道　株式会社　盛岡支社",
    "office_name_kana": "ヒガシニホンリヨカクテツドウ カブシキガイシヤ モリオカシシヤ"
  },
  "8538": {
    "postcode": "0208538",
    "prefecture": "岩手県",
    "prefecture_kana": "イワテケン",
    "prefecture_code": 3,
    "city": "盛岡市",
    "city_kana": "モリオカシ",
    "town": "盛岡駅前北通",
    "town_kana": "モリオカエキマエキタドオリ",
    "street": "１番１０号橋市盛岡ビル５階",
    "office_name": "東北農政局　盛岡地域センター",
    "office_name_kana": "トウホクノウセイキヨク モリオカチイキセンタ-"
  },
  "8540": {
    "postcode": "0208540",
    "prefecture": "岩手県",
    "prefecture_kana": "イワテケン",
    "prefecture_code": 3,
    "city": "盛岡市",
    "city_kana": "モリオカシ",
    "town": "内丸",
    "town_kana": "ウチマル",
    "street": "８−１０",
    "office_name": "岩手県　警察本部",
    "office_name_kana": "イワテケン ケイサツホンブ"
  },
  "8543": {
    "postcode": "0208543",
    "prefecture": "岩手県",
    "prefecture_kana": "イワテケン",
    "prefecture_code": 3,
    "city": "盛岡市",
    "city_kana": "モリオカシ",
    "town": "上田",
    "town_kana": "ウエダ",
    "street": "２丁目３−１",
    "office_name": "岩手県立　杜陵高等学校",
    "office_name_kana": "イワテケンリツ トリヨウコウトウガツコウ"
  },
  "8544": {
    "postcode": "0208544",
    "prefecture": "岩手県",
    "prefecture_kana": "イワテケン",
    "prefecture_code": 3,
    "city": "盛岡市",
    "city_kana": "モリオカシ",
    "town": "松尾町",
    "town_kana": "マツオチョウ",
    "street": "１７−１０",
    "office_name": "株式会社　アイシーエス",
    "office_name_kana": "カブシキガイシヤ アイシ-エス"
  },
  "8550": {
    "postcode": "0208550",
    "prefecture": "岩手県",
    "prefecture_kana": "イワテケン",
    "prefecture_code": 3,
    "city": "盛岡市",
    "city_kana": "モリオカシ",
    "town": "上田",
    "town_kana": "ウエダ",
    "street": "３丁目１８−８",
    "office_name": "岩手大学　（本部関係）",
    "office_name_kana": "イワテダイガク (ホンブカンケイ)"
  },
  "8551": {
    "postcode": "0208551",
    "prefecture": "岩手県",
    "prefecture_kana": "イワテケン",
    "prefecture_code": 3,
    "city": "盛岡市",
    "city_kana": "モリオカシ",
    "town": "上田",
    "town_kana": "ウエダ",
    "street": "４丁目３−５",
    "office_name": "岩手大学　工学部",
    "office_name_kana": "イワテダイガク コウガクブ"
  },
  "8553": {
    "postcode": "0208553",
    "prefecture": "岩手県",
    "prefecture_kana": "イワテケン",
    "prefecture_code": 3,
    "city": "盛岡市",
    "city_kana": "モリオカシ",
    "town": "中ノ橋通",
    "town_kana": "ナカノハシドオリ",
    "street": "１丁目１４−２１",
    "office_name": "協同組合　日専連盛岡",
    "office_name_kana": "キヨウドウクミアイ ニツセンレンモリオカ"
  },
  "8555": {
    "postcode": "0208555",
    "prefecture": "岩手県",
    "prefecture_kana": "イワテケン",
    "prefecture_code": 3,
    "city": "盛岡市",
    "city_kana": "モリオカシ",
    "town": "上田",
    "town_kana": "ウエダ",
    "street": "４丁目１−３",
    "office_name": "日本放送協会　盛岡放送局",
    "office_name_kana": "ニツポンホウソウキヨウカイ モリオカホウソウキヨク"
  },
  "8557": {
    "postcode": "0208557",
    "prefecture": "岩手県",
    "prefecture_kana": "イワテケン",
    "prefecture_code": 3,
    "city": "盛岡市",
    "city_kana": "モリオカシ",
    "town": "中ノ橋通",
    "town_kana": "ナカノハシドオリ",
    "street": "１丁目１４番２１号",
    "office_name": "株式会社　日専連パートナーズ",
    "office_name_kana": "カブシキガイシヤ ニツセンレンパ-トナ-ズ"
  },
  "8558": {
    "postcode": "0208558",
    "prefecture": "岩手県",
    "prefecture_kana": "イワテケン",
    "prefecture_code": 3,
    "city": "盛岡市",
    "city_kana": "モリオカシ",
    "town": "中央通",
    "town_kana": "チュウオウドオリ",
    "street": "１丁目２−２",
    "office_name": "東日本電信電話　株式会社　岩手支店",
    "office_name_kana": "ヒガシニホンデンシンデンワ カブシキガイシヤ イワテシテン"
  },
  "8560": {
    "postcode": "0208560",
    "prefecture": "岩手県",
    "prefecture_kana": "イワテケン",
    "prefecture_code": 3,
    "city": "盛岡市",
    "city_kana": "モリオカシ",
    "town": "三本柳",
    "town_kana": "サンボンヤナギ",
    "street": "６地割１−１",
    "office_name": "盛岡赤十字病院",
    "office_name_kana": "モリオカセキジユウジビヨウイン"
  },
  "8561": {
    "postcode": "0208561",
    "prefecture": "岩手県",
    "prefecture_kana": "イワテケン",
    "prefecture_code": 3,
    "city": "盛岡市",
    "city_kana": "モリオカシ",
    "town": "南大通",
    "town_kana": "ミナミオオドオリ",
    "street": "２丁目３−２０",
    "office_name": "株式会社　木津屋本店",
    "office_name_kana": "カブシキガイシヤ キヅヤホンテン"
  },
  "8566": {
    "postcode": "0208566",
    "prefecture": "岩手県",
    "prefecture_kana": "イワテケン",
    "prefecture_code": 3,
    "city": "盛岡市",
    "city_kana": "モリオカシ",
    "town": "志家町",
    "town_kana": "シケチョウ",
    "street": "６−１",
    "office_name": "株式会社　ＩＢＣ岩手放送",
    "office_name_kana": "カブシキカイシヤ アイビイシイイワテホウソウ"
  },
  "8567": {
    "postcode": "0208567",
    "prefecture": "岩手県",
    "prefecture_kana": "イワテケン",
    "prefecture_code": 3,
    "city": "盛岡市",
    "city_kana": "モリオカシ",
    "town": "羽場",
    "town_kana": "ハバ",
    "street": "１０地割１００番地",
    "office_name": "盛岡市中央御売市場",
    "office_name_kana": "モリオカシチユウオウオロシウリシジヨウ"
  },
  "8570": {
    "postcode": "0208570",
    "prefecture": "岩手県",
    "prefecture_kana": "イワテケン",
    "prefecture_code": 3,
    "city": "盛岡市",
    "city_kana": "モリオカシ",
    "town": "内丸",
    "town_kana": "ウチマル",
    "street": "１０−１",
    "office_name": "岩手県庁",
    "office_name_kana": "イワテケンチヨウ"
  },
  "8573": {
    "postcode": "0208573",
    "prefecture": "岩手県",
    "prefecture_kana": "イワテケン",
    "prefecture_code": 3,
    "city": "盛岡市",
    "city_kana": "モリオカシ",
    "town": "中ノ橋通",
    "town_kana": "ナカノハシドオリ",
    "street": "一丁目６番８号",
    "office_name": "ななっく　株式会社",
    "office_name_kana": "ナナツク カブシキガイシヤ"
  },
  "8575": {
    "postcode": "0208575",
    "prefecture": "岩手県",
    "prefecture_kana": "イワテケン",
    "prefecture_code": 3,
    "city": "盛岡市",
    "city_kana": "モリオカシ",
    "town": "盛岡駅西通",
    "town_kana": "モリオカエキニシトオリ",
    "street": "２丁目９番１号",
    "office_name": "株式会社　ワイズマン",
    "office_name_kana": "カブシキガイシヤ ワイズマン"
  },
  "8577": {
    "postcode": "0208577",
    "prefecture": "岩手県",
    "prefecture_kana": "イワテケン",
    "prefecture_code": 3,
    "city": "盛岡市",
    "city_kana": "モリオカシ",
    "town": "飯岡新田",
    "town_kana": "イイオカシンデン",
    "street": "１丁目３６−１",
    "office_name": "岩手県衛生研究所",
    "office_name_kana": "イワテケンエイセイケンキユウジヨ"
  },
  "8580": {
    "postcode": "0208580",
    "prefecture": "岩手県",
    "prefecture_kana": "イワテケン",
    "prefecture_code": 3,
    "city": "盛岡市",
    "city_kana": "モリオカシ",
    "town": "開運橋通",
    "town_kana": "カイウンバシドオリ",
    "street": "５−１",
    "office_name": "東京海上日動火災保険　株式会社　盛岡支店",
    "office_name_kana": "トウキヨウカイジヨウニチドウカサイホケン カブシキカイシヤ モリオカシテン"
  },
  "8584": {
    "postcode": "0208584",
    "prefecture": "岩手県",
    "prefecture_kana": "イワテケン",
    "prefecture_code": 3,
    "city": "盛岡市",
    "city_kana": "モリオカシ",
    "town": "菜園",
    "town_kana": "サイエン",
    "street": "２丁目８番２０号",
    "office_name": "一般社団法人　岩手県医師会",
    "office_name_kana": "イツパンシヤダンホウジン イワテケンイシカイ"
  },
  "8585": {
    "postcode": "0208585",
    "prefecture": "岩手県",
    "prefecture_kana": "イワテケン",
    "prefecture_code": 3,
    "city": "盛岡市",
    "city_kana": "モリオカシ",
    "town": "北飯岡",
    "town_kana": "キタイイオカ",
    "street": "四丁目８番５０号",
    "office_name": "公益財団法人　岩手県予防医学協会",
    "office_name_kana": "コウエキザイダンホウジン イワテケンヨボウイガクキヨウカイ"
  },
  "8586": {
    "postcode": "0208586",
    "prefecture": "岩手県",
    "prefecture_kana": "イワテケン",
    "prefecture_code": 3,
    "city": "盛岡市",
    "city_kana": "モリオカシ",
    "town": "長田町",
    "town_kana": "ナガタチョウ",
    "street": "２−２０",
    "office_name": "東日本ハウス　株式会社",
    "office_name_kana": "ヒガシニホンハウス カブシキカイシヤ"
  },
  "8588": {
    "postcode": "0208588",
    "prefecture": "岩手県",
    "prefecture_kana": "イワテケン",
    "prefecture_code": 3,
    "city": "盛岡市",
    "city_kana": "モリオカシ",
    "town": "本宮",
    "town_kana": "モトミヤ",
    "street": "５丁目５番５号",
    "office_name": "株式会社　タカヤ",
    "office_name_kana": "カブシキガイシヤ タカヤ"
  },
  "8601": {
    "postcode": "0208601",
    "prefecture": "岩手県",
    "prefecture_kana": "イワテケン",
    "prefecture_code": 3,
    "city": "盛岡市",
    "city_kana": "モリオカシ",
    "town": "長田町",
    "town_kana": "ナガタチョウ",
    "street": "６−７（盛岡中央郵便局私書箱第３４号）",
    "office_name": "東北労働金庫　岩手県本部",
    "office_name_kana": "トウホクロウドウキンコ イワテケンホンブ"
  },
  "8602": {
    "postcode": "0208602",
    "prefecture": "岩手県",
    "prefecture_kana": "イワテケン",
    "prefecture_code": 3,
    "city": "盛岡市",
    "city_kana": "モリオカシ",
    "town": "大通",
    "town_kana": "オオドオリ",
    "street": "３丁目３−１０（盛岡中央郵便局私書箱第４８号）",
    "office_name": "日本生命保険　相互会社　盛岡支社",
    "office_name_kana": "ニホンセイメイホケン ソウゴカイシヤ モリオカシシヤ"
  },
  "8605": {
    "postcode": "0208605",
    "prefecture": "岩手県",
    "prefecture_kana": "イワテケン",
    "prefecture_code": 3,
    "city": "盛岡市",
    "city_kana": "モリオカシ",
    "town": "大通",
    "town_kana": "オオドオリ",
    "street": "１丁目２−１",
    "office_name": "全国農業協同組合連合会　岩手県本部",
    "office_name_kana": "ゼンコクノウギヨウキヨウドウクミアイレンゴウカイ イワテケンホンブ"
  },
  "8606": {
    "postcode": "0208606",
    "prefecture": "岩手県",
    "prefecture_kana": "イワテケン",
    "prefecture_code": 3,
    "city": "盛岡市",
    "city_kana": "モリオカシ",
    "town": "内丸",
    "town_kana": "ウチマル",
    "street": "３−１（盛岡中央郵便局私書箱第４７号）",
    "office_name": "株式会社　東北銀行",
    "office_name_kana": "カブシキガイシヤ トウホクギンコウ"
  },
  "8610": {
    "postcode": "0208610",
    "prefecture": "岩手県",
    "prefecture_kana": "イワテケン",
    "prefecture_code": 3,
    "city": "盛岡市",
    "city_kana": "モリオカシ",
    "town": "菜園",
    "town_kana": "サイエン",
    "street": "２丁目７−２１",
    "office_name": "国民生活金融公庫　盛岡支店",
    "office_name_kana": "コクミンセイカツキンユウコウコ モリオカシテン"
  },
  "8611": {
    "postcode": "0208611",
    "prefecture": "岩手県",
    "prefecture_kana": "イワテケン",
    "prefecture_code": 3,
    "city": "紫波郡矢巾町",
    "city_kana": "シワグンヤハバチョウ",
    "town": "流通センター南",
    "town_kana": "リュウツウセンターミナミ",
    "street": "１丁目７−１６（岩手流通センター内郵便局私書箱第４５号）",
    "office_name": "岩手繊維　株式会社",
    "office_name_kana": "イワテセンイ カブシキガイシヤ"
  },
  "8612": {
    "postcode": "0208612",
    "prefecture": "岩手県",
    "prefecture_kana": "イワテケン",
    "prefecture_code": 3,
    "city": "紫波郡矢巾町",
    "city_kana": "シワグンヤハバチョウ",
    "town": "流通センター南",
    "town_kana": "リュウツウセンターミナミ",
    "street": "１丁目６−１６（岩手流通センター内郵便局私書箱第６４号）",
    "office_name": "エビー　株式会社",
    "office_name_kana": "エビ- カブシキガイシヤ"
  },
  "8620": {
    "postcode": "0208620",
    "prefecture": "岩手県",
    "prefecture_kana": "イワテケン",
    "prefecture_code": 3,
    "city": "盛岡市",
    "city_kana": "モリオカシ",
    "town": "中央通",
    "town_kana": "チュウオウドオリ",
    "street": "１丁目１−２３（盛岡中央郵便局私書箱第８３号）",
    "office_name": "株式会社　三田商店",
    "office_name_kana": "カブシキカイシヤ ミタシヨウテン"
  },
  "8622": {
    "postcode": "0208622",
    "prefecture": "岩手県",
    "prefecture_kana": "イワテケン",
    "prefecture_code": 3,
    "city": "盛岡市",
    "city_kana": "モリオカシ",
    "town": "内丸",
    "town_kana": "ウチマル",
    "street": "３−７（盛岡中央郵便局私書箱第２６号）",
    "office_name": "岩手日報社",
    "office_name_kana": "イワテニツポウシヤ"
  },
  "8633": {
    "postcode": "0208633",
    "prefecture": "岩手県",
    "prefecture_kana": "イワテケン",
    "prefecture_code": 3,
    "city": "盛岡市",
    "city_kana": "モリオカシ",
    "town": "本宮",
    "town_kana": "モトミヤ",
    "street": "５丁目２−２５（盛岡中央郵便局私書箱第３３号）",
    "office_name": "株式会社　岩手めんこいテレビ",
    "office_name_kana": "カブシキガイシヤ イワテメンコイテレビ"
  },
  "8641": {
    "postcode": "0208641",
    "prefecture": "岩手県",
    "prefecture_kana": "イワテケン",
    "prefecture_code": 3,
    "city": "盛岡市",
    "city_kana": "モリオカシ",
    "town": "中ノ橋通",
    "town_kana": "ナカノハシドオリ",
    "street": "１丁目４−６（盛岡中央郵便局私書箱第３５号）",
    "office_name": "盛岡信用金庫",
    "office_name_kana": "モリオカシンヨウキンコ"
  },
  "8650": {
    "postcode": "0208650",
    "prefecture": "岩手県",
    "prefecture_kana": "イワテケン",
    "prefecture_code": 3,
    "city": "盛岡市",
    "city_kana": "モリオカシ",
    "town": "内丸",
    "town_kana": "ウチマル",
    "street": "２−１０（盛岡中央郵便局私書箱第４５号）",
    "office_name": "株式会社　テレビ岩手",
    "office_name_kana": "カブシキガイシヤ テレビイワテ"
  },
  "8655": {
    "postcode": "0208655",
    "prefecture": "岩手県",
    "prefecture_kana": "イワテケン",
    "prefecture_code": 3,
    "city": "盛岡市",
    "city_kana": "モリオカシ",
    "town": "菜園",
    "town_kana": "サイエン",
    "street": "１丁目１０−１（盛岡中央郵便局私書箱第２号）",
    "office_name": "株式会社　川徳",
    "office_name_kana": "カブシキガイシヤ カワトク"
  },
  "8661": {
    "postcode": "0208661",
    "prefecture": "岩手県",
    "prefecture_kana": "イワテケン",
    "prefecture_code": 3,
    "city": "紫波郡矢巾町",
    "city_kana": "シワグンヤハバチョウ",
    "town": "流通センター南",
    "town_kana": "リュウツウセンターミナミ",
    "street": "１丁目９−５（岩手流通センター内郵便局私書箱第７９号）",
    "office_name": "株式会社　木津屋本店",
    "office_name_kana": "カブシキガイシヤ キヅヤホンテン"
  },
  "8666": {
    "postcode": "0208666",
    "prefecture": "岩手県",
    "prefecture_kana": "イワテケン",
    "prefecture_code": 3,
    "city": "盛岡市",
    "city_kana": "モリオカシ",
    "town": "中央通",
    "town_kana": "チュウオウドオリ",
    "street": "１丁目６−７（盛岡中央郵便局私書箱第３２号）",
    "office_name": "株式会社　北日本銀行",
    "office_name_kana": "カブシキカイシヤ キタニツポンギンコウ"
  },
  "8667": {
    "postcode": "0208667",
    "prefecture": "岩手県",
    "prefecture_kana": "イワテケン",
    "prefecture_code": 3,
    "city": "盛岡市",
    "city_kana": "モリオカシ",
    "town": "湯沢",
    "town_kana": "ユザワ",
    "street": "１６地割１５−４（岩手流通センター内郵便局私書箱第７３号）",
    "office_name": "株式会社　熊善商店",
    "office_name_kana": "カブシキガイシヤ クマゼンシヨウテン"
  },
  "8672": {
    "postcode": "0208672",
    "prefecture": "岩手県",
    "prefecture_kana": "イワテケン",
    "prefecture_code": 3,
    "city": "盛岡市",
    "city_kana": "モリオカシ",
    "town": "流通センター北",
    "town_kana": "リュウツウセンターキタ",
    "street": "１丁目１０−５（岩手流通センター内郵便局私書箱第１１０号）",
    "office_name": "第一開明　株式会社",
    "office_name_kana": "ダイイチカイメイ カブシキガイシヤ"
  },
  "8677": {
    "postcode": "0208677",
    "prefecture": "岩手県",
    "prefecture_kana": "イワテケン",
    "prefecture_code": 3,
    "city": "盛岡市",
    "city_kana": "モリオカシ",
    "town": "本町通",
    "town_kana": "ホンチョウドオリ",
    "street": "３丁目８−３７",
    "office_name": "盛岡税務署",
    "office_name_kana": "モリオカゼイムシヨ"
  },
  "8678": {
    "postcode": "0208678",
    "prefecture": "岩手県",
    "prefecture_kana": "イワテケン",
    "prefecture_code": 3,
    "city": "紫波郡矢巾町",
    "city_kana": "シワグンヤハバチョウ",
    "town": "流通センター南",
    "town_kana": "リュウツウセンターミナミ",
    "street": "３丁目３−１（岩手流通センター内郵便局私書箱第１７８号）",
    "office_name": "東北住建　株式会社",
    "office_name_kana": "トウホクジユウケン カブシキガイシヤ"
  },
  "8686": {
    "postcode": "0208686",
    "prefecture": "岩手県",
    "prefecture_kana": "イワテケン",
    "prefecture_code": 3,
    "city": "紫波郡矢巾町",
    "city_kana": "シワグンヤハバチョウ",
    "town": "流通センター南",
    "town_kana": "リュウツウセンターミナミ",
    "street": "１丁目９−１７（岩手流通センター内郵便局私書箱第８３号）",
    "office_name": "株式会社　東流社　北東北支店　盛岡営業所",
    "office_name_kana": "カブシキガイシヤ トウリユウシヤ キタトウホクシテン モリオカエイギヨウシヨ"
  },
  "8688": {
    "postcode": "0208688",
    "prefecture": "岩手県",
    "prefecture_kana": "イワテケン",
    "prefecture_code": 3,
    "city": "盛岡市",
    "city_kana": "モリオカシ",
    "town": "中央通",
    "town_kana": "チュウオウドオリ",
    "street": "１丁目２−３（盛岡中央郵便局私書箱第９号）",
    "office_name": "株式会社　岩手銀行",
    "office_name_kana": "カブシキガイシヤ イワテギンコウ"
  },
  "8794": {
    "postcode": "0208794",
    "prefecture": "岩手県",
    "prefecture_kana": "イワテケン",
    "prefecture_code": 3,
    "city": "盛岡市",
    "city_kana": "モリオカシ",
    "town": "中央通",
    "town_kana": "チュウオウドオリ",
    "street": "１丁目１２−７仁王惣門ビル",
    "office_name": "岩手地域センター",
    "office_name_kana": "イワテチイキセンタ-"
  }
}