{
  "0000": {
    "postcode": "0250000",
    "prefecture": "岩手県",
    "prefecture_kana": "イワテケン",
    "prefecture_code": 3,
    "city": "花巻市",
    "city_kana": "ハナマキシ",
    "town": "",
    "town_kana": "",
    "street": null,
    "office_name": null,
    "office_name_kana": null
  },
  "0001": {
    "postcode": "0250001",
    "prefecture": "岩手県",
    "prefecture_kana": "イワテケン",
    "prefecture_code": 3,
    "city": "花巻市",
    "city_kana": "ハナマキシ",
    "town": "天下田",
    "town_kana": "テンカダ",
    "street": null,
    "office_name": null,
    "office_name_kana": null
  },
  "0002": {
    "postcode": "0250002",
    "prefecture": "岩手県",
    "prefecture_kana": "イワテケン",
    "prefecture_code": 3,
    "city": "花巻市",
    "city_kana": "ハナマキシ",
    "town": "西宮野目",
    "town_kana": "ニシミヤノメ",
    "street": null,
    "office_name": null,
    "office_name_kana": null
  },
  "0003": {
    "postcode": "0250003",
    "prefecture": "岩手県",
    "prefecture_kana": "イワテケン",
    "prefecture_code": 3,
    "city": "花巻市",
    "city_kana": "ハナマキシ",
    "town": "東宮野目",
    "town_kana": "ヒガシミヤノメ",
    "street": null,
    "office_name": null,
    "office_name_kana": null
  },
  "0004": {
    "postcode": "0250004",
    "prefecture": "岩手県",
    "prefecture_kana": "イワテケン",
    "prefecture_code": 3,
    "city": "花巻市",
    "city_kana": "ハナマキシ",
    "town": "葛",
    "town_kana": "クズ",
    "street": null,
    "office_name": null,
    "office_name_kana": null
  },
  "0005": {
    "postcode": "0250005",
    "prefecture": "岩手県",
    "prefecture_kana": "イワテケン",
    "prefecture_code": 3,
    "city": "花巻市",
    "city_kana": "ハナマキシ",
    "town": "田力",
    "town_kana": "タチカラ",
    "street": null,
    "office_name": null,
    "office_name_kana": null
  },
  "0006": {
    "postcode": "0250006",
    "prefecture": "岩手県",
    "prefecture_kana": "イワテケン",
    "prefecture_code": 3,
    "city": "花巻市",
    "city_kana": "ハナマキシ",
    "town": "下似内",
    "town_kana": "シモニタナイ",
    "street": null,
    "office_name": null,
    "office_name_kana": null
  },
  "0007": {
    "postcode": "0250007",
    "prefecture": "岩手県",
    "prefecture_kana": "イワテケン",
    "prefecture_code": 3,
    "city": "花巻市",
    "city_kana": "ハナマキシ",
    "town": "上似内",
    "town_kana": "カミニタナイ",
    "street": null,
    "office_name": null,
    "office_name_kana": null
  },
  "0008": {
    "postcode": "0250008",
    "prefecture": "岩手県",
    "prefecture_kana": "イワテケン",
    "prefecture_code": 3,
    "city": "花巻市",
    "city_kana": "ハナマキシ",
    "town": "空港南",
    "town_kana": "クウコウミナミ",
    "street": null,
    "office_name": null,
    "office_name_kana": null
  },
  "0011": {
    "postcode": "0250011",
    "prefecture": "岩手県",
    "prefecture_kana": "イワテケン",
    "prefecture_code": 3,
    "city": "花巻市",
    "city_kana": "ハナマキシ",
    "town": "矢沢",
    "town_kana": "ヤサワ",
    "street": null,
    "office_name": null,
    "office_name_kana": null
  },
  "0012": {
    "postcode": "0250012",
    "prefecture": "岩手県",
    "prefecture_kana": "イワテケン",
    "prefecture_code": 3,
    "city": "花巻市",
    "city_kana": "ハナマキシ",
    "town": "胡四王",
    "town_kana": "コシオウ",
    "street": null,
    "office_name": null,
    "office_name_kana": null
  },
  "0013": {
    "postcode": "0250013",
    "prefecture": "岩手県",
    "prefecture_kana": "イワテケン",
    "prefecture_code": 3,
    "city": "花巻市",
    "city_kana": "ハナマキシ",
    "town": "幸田",
    "town_kana": "コウダ",
    "street": null,
    "office_name": null,
    "office_name_kana": null
  },
  "0014": {
    "postcode": "0250014",
    "prefecture": "岩手県",
    "prefecture_kana": "イワテケン",
    "prefecture_code": 3,
    "city": "花巻市",
    "city_kana": "ハナマキシ",
    "town": "高松",
    "town_kana": "タカマツ",
    "street": null,
    "office_name": null,
    "office_name_kana": null
  },
  "0015": {
    "postcode": "0250015",
    "prefecture": "岩手県",
    "prefecture_kana": "イワテケン",
    "prefecture_code": 3,
    "city": "花巻市",
    "city_kana": "ハナマキシ",
    "town": "東十二丁目",
    "town_kana": "ヒガシジュウニチョウメ",
    "street": null,
    "office_name": null,
    "office_name_kana": null
  },
  "0016": {
    "postcode": "0250016",
    "prefecture": "岩手県",
    "prefecture_kana": "イワテケン",
    "prefecture_code": 3,
    "city": "花巻市",
    "city_kana": "ハナマキシ",
    "town": "高木",
    "town_kana": "タカキ",
    "street": null,
    "office_name": null,
    "office_name_kana": null
  },
  "0021": {
    "postcode": "0250021",
    "prefecture": "岩手県",
    "prefecture_kana": "イワテケン",
    "prefecture_code": 3,
    "city": "花巻市",
    "city_kana": "ハナマキシ",
    "town": "南城",
    "town_kana": "ナンジョウ",
    "street": null,
    "office_name": null,
    "office_name_kana": null
  },
  "0022": {
    "postcode": "0250022",
    "prefecture": "岩手県",
    "prefecture_kana": "イワテケン",
    "prefecture_code": 3,
    "city": "花巻市",
    "city_kana": "ハナマキシ",
    "town": "十二丁目",
    "town_kana": "ジュウニチョウメ",
    "street": null,
    "office_name": null,
    "office_name_kana": null
  },
  "0023": {
    "postcode": "0250023",
    "prefecture": "岩手県",
    "prefecture_kana": "イワテケン",
    "prefecture_code": 3,
    "city": "花巻市",
    "city_kana": "ハナマキシ",
    "town": "成田",
    "town_kana": "ナリタ",
    "street": null,
    "office_name": null,
    "office_name_kana": null
  },
  "0024": {
    "postcode": "0250024",
    "prefecture": "岩手県",
    "prefecture_kana": "イワテケン",
    "prefecture_code": 3,
    "city": "花巻市",
    "city_kana": "ハナマキシ",
    "town": "山の神",
    "town_kana": "ヤマノカミ",
    "street": null,
    "office_name": null,
    "office_name_kana": null
  },
  "0025": {
    "postcode": "0250025",
    "prefecture": "岩手県",
    "prefecture_kana": "イワテケン",
    "prefecture_code": 3,
    "city": "花巻市",
    "city_kana": "ハナマキシ",
    "town": "下根子",
    "town_kana": "シモネコ",
    "street": null,
    "office_name": null,
    "office_name_kana": null
  },
  "0026": {
    "postcode": "0250026",
    "prefecture": "岩手県",
    "prefecture_kana": "イワテケン",
    "prefecture_code": 3,
    "city": "花巻市",
    "city_kana": "ハナマキシ",
    "town": "大谷地",
    "town_kana": "オオヤチ",
    "street": null,
    "office_name": null,
    "office_name_kana": null
  },
  "0031": {
    "postcode": "0250031",
    "prefecture": "岩手県",
    "prefecture_kana": "イワテケン",
    "prefecture_code": 3,
    "city": "花巻市",
    "city_kana": "ハナマキシ",
    "town": "不動",
    "town_kana": "フドウ",
    "street": null,
    "office_name": null,
    "office_name_kana": null
  },
  "0032": {
    "postcode": "0250032",
    "prefecture": "岩手県",
    "prefecture_kana": "イワテケン",
    "prefecture_code": 3,
    "city": "花巻市",
    "city_kana": "ハナマキシ",
    "town": "上諏訪",
    "town_kana": "カミスワ",
    "street": null,
    "office_name": null,
    "office_name_kana": null
  },
  "0033": {
    "postcode": "0250033",
    "prefecture": "岩手県",
    "prefecture_kana": "イワテケン",
    "prefecture_code": 3,
    "city": "花巻市",
    "city_kana": "ハナマキシ",
    "town": "諏訪",
    "town_kana": "スワ",
    "street": null,
    "office_name": null,
    "office_name_kana": null
  },
  "0034": {
    "postcode": "0250034",
    "prefecture": "岩手県",
    "prefecture_kana": "イワテケン",
    "prefecture_code": 3,
    "city": "花巻市",
    "city_kana": "ハナマキシ",
    "town": "南諏訪町",
    "town_kana": "ミナミスワチョウ",
    "street": null,
    "office_name": null,
    "office_name_kana": null
  },
  "0035": {
    "postcode": "0250035",
    "prefecture": "岩手県",
    "prefecture_kana": "イワテケン",
    "prefecture_code": 3,
    "city": "花巻市",
    "city_kana": "ハナマキシ",
    "town": "実相寺",
    "town_kana": "ジツソウジ",
    "street": null,
    "office_name": null,
    "office_name_kana": null
  },
  "0036": {
    "postcode": "0250036",
    "prefecture": "岩手県",
    "prefecture_kana": "イワテケン",
    "prefecture_code": 3,
    "city": "花巻市",
    "city_kana": "ハナマキシ",
    "town": "中根子",
    "town_kana": "ナカネコ",
    "street": null,
    "office_name": null,
    "office_name_kana": null
  },
  "0037": {
    "postcode": "0250037",
    "prefecture": "岩手県",
    "prefecture_kana": "イワテケン",
    "prefecture_code": 3,
    "city": "花巻市",
    "city_kana": "ハナマキシ",
    "town": "太田",
    "town_kana": "オオタ",
    "street": null,
    "office_name": null,
    "office_name_kana": null
  },
  "0038": {
    "postcode": "0250038",
    "prefecture": "岩手県",
    "prefecture_kana": "イワテケン",
    "prefecture_code": 3,
    "city": "花巻市",
    "city_kana": "ハナマキシ",
    "town": "不動町",
    "town_kana": "フドウチョウ",
    "street": null,
    "office_name": null,
    "office_name_kana": null
  },
  "0039": {
    "postcode": "0250039",
    "prefecture": "岩手県",
    "prefecture_kana": "イワテケン",
    "prefecture_code": 3,
    "city": "花巻市",
    "city_kana": "ハナマキシ",
    "town": "諏訪町",
    "town_kana": "スワチョウ",
    "street": null,
    "office_name": null,
    "office_name_kana": null
  },
  "0041": {
    "postcode": "0250041",
    "prefecture": "岩手県",
    "prefecture_kana": "イワテケン",
    "prefecture_code": 3,
    "city": "花巻市",
    "city_kana": "ハナマキシ",
    "town": "膝立",
    "town_kana": "ヒザタテ",
    "street": null,
    "office_name": null,
    "office_name_kana": null
  },
  "0042": {
    "postcode": "0250042",
    "prefecture": "岩手県",
    "prefecture_kana": "イワテケン",
    "prefecture_code": 3,
    "city": "花巻市",
    "city_kana": "ハナマキシ",
    "town": "円万寺",
    "town_kana": "エンマンジ",
    "street": null,
    "office_name": null,
    "office_name_kana": null
  },
  "0043": {
    "postcode": "0250043",
    "prefecture": "岩手県",
    "prefecture_kana": "イワテケン",
    "prefecture_code": 3,
    "city": "花巻市",
    "city_kana": "ハナマキシ",
    "town": "上根子",
    "town_kana": "カミネコ",
    "street": null,
    "office_name": null,
    "office_name_kana": null
  },
  "0044": [
    {
      "postcode": "0250044",
      "prefecture": "岩手県",
      "prefecture_kana": "イワテケン",
      "prefecture_code": 3,
      "city": "花巻市",
      "city_kana": "ハナマキシ",
      "town": "湯口",
      "town_kana": "ユグチ",
      "street": null,
      "office_name": null,
      "office_name_kana": null
    },
    {
      "postcode": "0250044",
      "prefecture": "岩手県",
      "prefecture_kana": "イワテケン",
      "prefecture_code": 3,
      "city": "花巻市",
      "city_kana": "ハナマキシ",
      "town": "湯口石川原",
      "town_kana": "ユグチイシカワラ",
      "street": null,
      "office_name": null,
      "office_name_kana": null
    },
    {
      "postcode": "0250044",
      "prefecture": "岩手県",
      "prefecture_kana": "イワテケン",
      "prefecture_code": 3,
      "city": "花巻市",
      "city_kana": "ハナマキシ",
      "town": "湯口田屋",
      "town_kana": "ユグチタヤ",
      "street": null,
      "office_name": null,
      "office_name_kana": null
    },
    {
      "postcode": "0250044",
      "prefecture": "岩手県",
      "prefecture_kana": "イワテケン",
      "prefecture_code": 3,
      "city": "花巻市",
      "city_kana": "ハナマキシ",
      "town": "湯口二ツ堰",
      "town_kana": "ユグチフタツゼキ",
      "street": null,
      "office_name": null,
      "office_name_kana": null
    },
    {
      "postcode": "0250044",
      "prefecture": "岩手県",
      "prefecture_kana": "イワテケン",
      "prefecture_code": 3,
      "city": "花巻市",
      "city_kana": "ハナマキシ",
      "town": "湯口的場",
      "town_kana": "ユグチマトバ",
      "street": null,
      "office_name": null,
      "office_name_kana": null
    }
  ],
  "0045": {
    "postcode": "0250045",
    "prefecture": "岩手県",
    "prefecture_kana": "イワテケン",
    "prefecture_code": 3,
    "city": "花巻市",
    "city_kana": "ハナマキシ",
    "town": "西晴山",
    "town_kana": "ニシハレヤマ",
    "street": null,
    "office_name": null,
    "office_name_kana": null
  },
  "0046": {
    "postcode": "0250046",
    "prefecture": "岩手県",
    "prefecture_kana": "イワテケン",
    "prefecture_code": 3,
    "city": "花巻市",
    "city_kana": "ハナマキシ",
    "town": "鍋倉",
    "town_kana": "ナベクラ",
    "street": null,
    "office_name": null,
    "office_name_kana": null
  },
  "0051": {
    "postcode": "0250051",
    "prefecture": "岩手県",
    "prefecture_kana": "イワテケン",
    "prefecture_code": 3,
    "city": "花巻市",
    "city_kana": "ハナマキシ",
    "town": "南新田",
    "town_kana": "ミナミシンデン",
    "street": null,
    "office_name": null,
    "office_name_kana": null
  },
  "0052": {
    "postcode": "0250052",
    "prefecture": "岩手県",
    "prefecture_kana": "イワテケン",
    "prefecture_code": 3,
    "city": "花巻市",
    "city_kana": "ハナマキシ",
    "town": "野田",
    "town_kana": "ノダ",
    "street": null,
    "office_name": null,
    "office_name_kana": null
  },
  "0053": {
    "postcode": "0250053",
    "prefecture": "岩手県",
    "prefecture_kana": "イワテケン",
    "prefecture_code": 3,
    "city": "花巻市",
    "city_kana": "ハナマキシ",
    "town": "中北万丁目",
    "town_kana": "ナカキタマンチョウメ",
    "street": null,
    "office_name": null,
    "office_name_kana": null
  },
  "0054": {
    "postcode": "0250054",
    "prefecture": "岩手県",
    "prefecture_kana": "イワテケン",
    "prefecture_code": 3,
    "city": "花巻市",
    "city_kana": "ハナマキシ",
    "town": "下北万丁目",
    "town_kana": "シモキタマンチョウメ",
    "street": null,
    "office_name": null,
    "office_name_kana": null
  },
  "0055": {
    "postcode": "0250055",
    "prefecture": "岩手県",
    "prefecture_kana": "イワテケン",
    "prefecture_code": 3,
    "city": "花巻市",
    "city_kana": "ハナマキシ",
    "town": "南万丁目",
    "town_kana": "ミナミマンチョウメ",
    "street": null,
    "office_name": null,
    "office_name_kana": null
  },
  "0056": {
    "postcode": "0250056",
    "prefecture": "岩手県",
    "prefecture_kana": "イワテケン",
    "prefecture_code": 3,
    "city": "花巻市",
    "city_kana": "ハナマキシ",
    "town": "上北万丁目",
    "town_kana": "カミキタマンチョウメ",
    "street": null,
    "office_name": null,
    "office_name_kana": null
  },
  "0057": {
    "postcode": "0250057",
    "prefecture": "岩手県",
    "prefecture_kana": "イワテケン",
    "prefecture_code": 3,
    "city": "花巻市",
    "city_kana": "ハナマキシ",
    "town": "新田",
    "town_kana": "シンデン",
    "street": null,
    "office_name": null,
    "office_name_kana": null
  },
  "0058": {
    "postcode": "0250058",
    "prefecture": "岩手県",
    "prefecture_kana": "イワテケン",
    "prefecture_code": 3,
    "city": "花巻市",
    "city_kana": "ハナマキシ",
    "town": "一本杉",
    "town_kana": "イッポンスギ",
    "street": null,
    "office_name": null,
    "office_name_kana": null
  },
  "0061": {
    "postcode": "0250061",
    "prefecture": "岩手県",
    "prefecture_kana": "イワテケン",
    "prefecture_code": 3,
    "city": "花巻市",
    "city_kana": "ハナマキシ",
    "town": "本館",
    "town_kana": "モトダテ",
    "street": null,
    "office_name": null,
    "office_name_kana": null
  },
  "0062": {
    "postcode": "0250062",
    "prefecture": "岩手県",
    "prefecture_kana": "イワテケン",
    "prefecture_code": 3,
    "city": "花巻市",
    "city_kana": "ハナマキシ",
    "town": "上小舟渡",
    "town_kana": "カミコブナト",
    "street": null,
    "office_name": null,
    "office_name_kana": null
  },
  "0063": {
    "postcode": "0250063",
    "prefecture": "岩手県",
    "prefecture_kana": "イワテケン",
    "prefecture_code": 3,
    "city": "花巻市",
    "city_kana": "ハナマキシ",
    "town": "下小舟渡",
    "town_kana": "シモコブナト",
    "street": null,
    "office_name": null,
    "office_name_kana": null
  },
  "0064": {
    "postcode": "0250064",
    "prefecture": "岩手県",
    "prefecture_kana": "イワテケン",
    "prefecture_code": 3,
    "city": "花巻市",
    "city_kana": "ハナマキシ",
    "town": "桜台",
    "town_kana": "サクラダイ",
    "street": null,
    "office_name": null,
    "office_name_kana": null
  },
  "0065": {
    "postcode": "0250065",
    "prefecture": "岩手県",
    "prefecture_kana": "イワテケン",
    "prefecture_code": 3,
    "city": "花巻市",
    "city_kana": "ハナマキシ",
    "town": "星が丘",
    "town_kana": "ホシガオカ",
    "street": null,
    "office_name": null,
    "office_name_kana": null
  },
  "0066": {
    "postcode": "0250066",
    "prefecture": "岩手県",
    "prefecture_kana": "イワテケン",
    "prefecture_code": 3,
    "city": "花巻市",
    "city_kana": "ハナマキシ",
    "town": "松園町",
    "town_kana": "マツゾノチョウ",
    "street": null,
    "office_name": null,
    "office_name_kana": null
  },
  "0067": {
    "postcode": "0250067",
    "prefecture": "岩手県",
    "prefecture_kana": "イワテケン",
    "prefecture_code": 3,
    "city": "花巻市",
    "city_kana": "ハナマキシ",
    "town": "浅沢",
    "town_kana": "アサザワ",
    "street": null,
    "office_name": null,
    "office_name_kana": null
  },
  "0068": {
    "postcode": "0250068",
    "prefecture": "岩手県",
    "prefecture_kana": "イワテケン",
    "prefecture_code": 3,
    "city": "花巻市",
    "city_kana": "ハナマキシ",
    "town": "下幅",
    "town_kana": "シタハバ",
    "street": null,
    "office_name": null,
    "office_name_kana": null
  },
  "0071": {
    "postcode": "0250071",
    "prefecture": "岩手県",
    "prefecture_kana": "イワテケン",
    "prefecture_code": 3,
    "city": "花巻市",
    "city_kana": "ハナマキシ",
    "town": "愛宕町",
    "town_kana": "アタゴチョウ",
    "street": null,
    "office_name": null,
    "office_name_kana": null
  },
  "0072": {
    "postcode": "0250072",
    "prefecture": "岩手県",
    "prefecture_kana": "イワテケン",
    "prefecture_code": 3,
    "city": "花巻市",
    "city_kana": "ハナマキシ",
    "town": "四日町",
    "town_kana": "ヨッカマチ",
    "street": null,
    "office_name": null,
    "office_name_kana": null
  },
  "0073": {
    "postcode": "0250073",
    "prefecture": "岩手県",
    "prefecture_kana": "イワテケン",
    "prefecture_code": 3,
    "city": "花巻市",
    "city_kana": "ハナマキシ",
    "town": "一日市",
    "town_kana": "ヒトイチ",
    "street": null,
    "office_name": null,
    "office_name_kana": null
  },
  "0074": {
    "postcode": "0250074",
    "prefecture": "岩手県",
    "prefecture_kana": "イワテケン",
    "prefecture_code": 3,
    "city": "花巻市",
    "city_kana": "ハナマキシ",
    "town": "坂本町",
    "town_kana": "サカモトチョウ",
    "street": null,
    "office_name": null,
    "office_name_kana": null
  },
  "0075": {
    "postcode": "0250075",
    "prefecture": "岩手県",
    "prefecture_kana": "イワテケン",
    "prefecture_code": 3,
    "city": "花巻市",
    "city_kana": "ハナマキシ",
    "town": "花城町",
    "town_kana": "カジョウマチ",
    "street": null,
    "office_name": null,
    "office_name_kana": null
  },
  "0076": {
    "postcode": "0250076",
    "prefecture": "岩手県",
    "prefecture_kana": "イワテケン",
    "prefecture_code": 3,
    "city": "花巻市",
    "city_kana": "ハナマキシ",
    "town": "城内",
    "town_kana": "ジョウナイ",
    "street": null,
    "office_name": null,
    "office_name_kana": null
  },
  "0077": {
    "postcode": "0250077",
    "prefecture": "岩手県",
    "prefecture_kana": "イワテケン",
    "prefecture_code": 3,
    "city": "花巻市",
    "city_kana": "ハナマキシ",
    "town": "仲町",
    "town_kana": "ナカマチ",
    "street": null,
    "office_name": null,
    "office_name_kana": null
  },
  "0078": {
    "postcode": "0250078",
    "prefecture": "岩手県",
    "prefecture_kana": "イワテケン",
    "prefecture_code": 3,
    "city": "花巻市",
    "city_kana": "ハナマキシ",
    "town": "吹張町",
    "town_kana": "フツパリチョウ",
    "street": null,
    "office_name": null,
    "office_name_kana": null
  },
  "0079": {
    "postcode": "0250079",
    "prefecture": "岩手県",
    "prefecture_kana": "イワテケン",
    "prefecture_code": 3,
    "city": "花巻市",
    "city_kana": "ハナマキシ",
    "town": "末広町",
    "town_kana": "スエヒロチョウ",
    "street": null,
    "office_name": null,
    "office_name_kana": null
  },
  "0081": {
    "postcode": "0250081",
    "prefecture": "岩手県",
    "prefecture_kana": "イワテケン",
    "prefecture_code": 3,
    "city": "花巻市",
    "city_kana": "ハナマキシ",
    "town": "里川口町",
    "town_kana": "サトカワグチマチ",
    "street": null,
    "office_name": null,
    "office_name_kana": null
  },
  "0082": {
    "postcode": "0250082",
    "prefecture": "岩手県",
    "prefecture_kana": "イワテケン",
    "prefecture_code": 3,
    "city": "花巻市",
    "city_kana": "ハナマキシ",
    "town": "御田屋町",
    "town_kana": "オタヤチョウ",
    "street": null,
    "office_name": null,
    "office_name_kana": null
  },
  "0083": {
    "postcode": "0250083",
    "prefecture": "岩手県",
    "prefecture_kana": "イワテケン",
    "prefecture_code": 3,
    "city": "花巻市",
    "city_kana": "ハナマキシ",
    "town": "高田",
    "town_kana": "タカダ",
    "street": null,
    "office_name": null,
    "office_name_kana": null
  },
  "0084": {
    "postcode": "0250084",
    "prefecture": "岩手県",
    "prefecture_kana": "イワテケン",
    "prefecture_code": 3,
    "city": "花巻市",
    "city_kana": "ハナマキシ",
    "town": "桜町",
    "town_kana": "サクラマチ",
    "street": null,
    "office_name": null,
    "office_name_kana": null
  },
  "0085": {
    "postcode": "0250085",
    "prefecture": "岩手県",
    "prefecture_kana": "イワテケン",
    "prefecture_code": 3,
    "city": "花巻市",
    "city_kana": "ハナマキシ",
    "town": "双葉町",
    "town_kana": "フタバチョウ",
    "street": null,
    "office_name": null,
    "office_name_kana": null
  },
  "0086": {
    "postcode": "0250086",
    "prefecture": "岩手県",
    "prefecture_kana": "イワテケン",
    "prefecture_code": 3,
    "city": "花巻市",
    "city_kana": "ハナマキシ",
    "town": "鍛治町",
    "town_kana": "カジマチ",
    "street": null,
    "office_name": null,
    "office_name_kana": null
  },
  "0087": {
    "postcode": "0250087",
    "prefecture": "岩手県",
    "prefecture_kana": "イワテケン",
    "prefecture_code": 3,
    "city": "花巻市",
    "city_kana": "ハナマキシ",
    "town": "上町",
    "town_kana": "カミチョウ",
    "street": null,
    "office_name": null,
    "office_name_kana": null
  },
  "0088": {
    "postcode": "0250088",
    "prefecture": "岩手県",
    "prefecture_kana": "イワテケン",
    "prefecture_code": 3,
    "city": "花巻市",
    "city_kana": "ハナマキシ",
    "town": "東町",
    "town_kana": "アズマチョウ",
    "street": null,
    "office_name": null,
    "office_name_kana": null
  },
  "0089": {
    "postcode": "0250089",
    "prefecture": "岩手県",
    "prefecture_kana": "イワテケン",
    "prefecture_code": 3,
    "city": "花巻市",
    "city_kana": "ハナマキシ",
    "town": "豊沢町",
    "town_kana": "トヨサワチョウ",
    "street": null,
    "office_name": null,
    "office_name_kana": null
  },
  "0091": {
    "postcode": "0250091",
    "prefecture": "岩手県",
    "prefecture_kana": "イワテケン",
    "prefecture_code": 3,
    "city": "花巻市",
    "city_kana": "ハナマキシ",
    "town": "西大通り",
    "town_kana": "ニシオオドオリ",
    "street": null,
    "office_name": null,
    "office_name_kana": null
  },
  "0092": {
    "postcode": "0250092",
    "prefecture": "岩手県",
    "prefecture_kana": "イワテケン",
    "prefecture_code": 3,
    "city": "花巻市",
    "city_kana": "ハナマキシ",
    "town": "大通り",
    "town_kana": "オオドオリ",
    "street": null,
    "office_name": null,
    "office_name_kana": null
  },
  "0093": {
    "postcode": "0250093",
    "prefecture": "岩手県",
    "prefecture_kana": "イワテケン",
    "prefecture_code": 3,
    "city": "花巻市",
    "city_kana": "ハナマキシ",
    "town": "南川原町",
    "town_kana": "ミナミカワラチョウ",
    "street": null,
    "office_name": null,
    "office_name_kana": null
  },
  "0094": {
    "postcode": "0250094",
    "prefecture": "岩手県",
    "prefecture_kana": "イワテケン",
    "prefecture_code": 3,
    "city": "花巻市",
    "city_kana": "ハナマキシ",
    "town": "桜木町",
    "town_kana": "サクラギチョウ",
    "street": null,
    "office_name": null,
    "office_name_kana": null
  },
  "0095": {
    "postcode": "0250095",
    "prefecture": "岩手県",
    "prefecture_kana": "イワテケン",
    "prefecture_code": 3,
    "city": "花巻市",
    "city_kana": "ハナマキシ",
    "town": "石神町",
    "town_kana": "イシガミチョウ",
    "street": null,
    "office_name": null,
    "office_name_kana": null
  },
  "0096": {
    "postcode": "0250096",
    "prefecture": "岩手県",
    "prefecture_kana": "イワテケン",
    "prefecture_code": 3,
    "city": "花巻市",
    "city_kana": "ハナマキシ",
    "town": "藤沢町",
    "town_kana": "フジサワチョウ",
    "street": null,
    "office_name": null,
    "office_name_kana": null
  },
  "0097": {
    "postcode": "0250097",
    "prefecture": "岩手県",
    "prefecture_kana": "イワテケン",
    "prefecture_code": 3,
    "city": "花巻市",
    "city_kana": "ハナマキシ",
    "town": "若葉町",
    "town_kana": "ワカバチョウ",
    "street": null,
    "office_name": null,
    "office_name_kana": null
  },
  "0098": {
    "postcode": "0250098",
    "prefecture": "岩手県",
    "prefecture_kana": "イワテケン",
    "prefecture_code": 3,
    "city": "花巻市",
    "city_kana": "ハナマキシ",
    "town": "材木町",
    "town_kana": "ザイモクチョウ",
    "street": null,
    "office_name": null,
    "office_name_kana": null
  },
  "0131": {
    "postcode": "0250131",
    "prefecture": "岩手県",
    "prefecture_kana": "イワテケン",
    "prefecture_code": 3,
    "city": "花巻市",
    "city_kana": "ハナマキシ",
    "town": "轟木",
    "town_kana": "トドロキ",
    "street": null,
    "office_name": null,
    "office_name_kana": null
  },
  "0132": {
    "postcode": "0250132",
    "prefecture": "岩手県",
    "prefecture_kana": "イワテケン",
    "prefecture_code": 3,
    "city": "花巻市",
    "city_kana": "ハナマキシ",
    "town": "北笹間",
    "town_kana": "キタササマ",
    "street": null,
    "office_name": null,
    "office_name_kana": null
  },
  "0133": {
    "postcode": "0250133",
    "prefecture": "岩手県",
    "prefecture_kana": "イワテケン",
    "prefecture_code": 3,
    "city": "花巻市",
    "city_kana": "ハナマキシ",
    "town": "中笹間",
    "town_kana": "ナカササマ",
    "street": null,
    "office_name": null,
    "office_name_kana": null
  },
  "0134": {
    "postcode": "0250134",
    "prefecture": "岩手県",
    "prefecture_kana": "イワテケン",
    "prefecture_code": 3,
    "city": "花巻市",
    "city_kana": "ハナマキシ",
    "town": "南笹間",
    "town_kana": "ミナミササマ",
    "street": null,
    "office_name": null,
    "office_name_kana": null
  },
  "0135": {
    "postcode": "0250135",
    "prefecture": "岩手県",
    "prefecture_kana": "イワテケン",
    "prefecture_code": 3,
    "city": "花巻市",
    "city_kana": "ハナマキシ",
    "town": "栃内",
    "town_kana": "トチナイ",
    "street": null,
    "office_name": null,
    "office_name_kana": null
  },
  "0136": {
    "postcode": "0250136",
    "prefecture": "岩手県",
    "prefecture_kana": "イワテケン",
    "prefecture_code": 3,
    "city": "花巻市",
    "city_kana": "ハナマキシ",
    "town": "横志田",
    "town_kana": "ヨコシダ",
    "street": null,
    "office_name": null,
    "office_name_kana": null
  },
  "0137": {
    "postcode": "0250137",
    "prefecture": "岩手県",
    "prefecture_kana": "イワテケン",
    "prefecture_code": 3,
    "city": "花巻市",
    "city_kana": "ハナマキシ",
    "town": "尻平川",
    "town_kana": "シリタイラガワ",
    "street": null,
    "office_name": null,
    "office_name_kana": null
  },
  "0244": {
    "postcode": "0250244",
    "prefecture": "岩手県",
    "prefecture_kana": "イワテケン",
    "prefecture_code": 3,
    "city": "花巻市",
    "city_kana": "ハナマキシ",
    "town": "湯口",
    "town_kana": "ユグチ",
    "street": null,
    "office_name": null,
    "office_name_kana": null
  },
  "0251": {
    "postcode": "0250251",
    "prefecture": "岩手県",
    "prefecture_kana": "イワテケン",
    "prefecture_code": 3,
    "city": "花巻市",
    "city_kana": "ハナマキシ",
    "town": "豊沢",
    "town_kana": "トヨサワ",
    "street": null,
    "office_name": null,
    "office_name_kana": null
  },
  "0252": {
    "postcode": "0250252",
    "prefecture": "岩手県",
    "prefecture_kana": "イワテケン",
    "prefecture_code": 3,
    "city": "花巻市",
    "city_kana": "ハナマキシ",
    "town": "鉛",
    "town_kana": "ナマリ",
    "street": null,
    "office_name": null,
    "office_name_kana": null
  },
  "0253": {
    "postcode": "0250253",
    "prefecture": "岩手県",
    "prefecture_kana": "イワテケン",
    "prefecture_code": 3,
    "city": "花巻市",
    "city_kana": "ハナマキシ",
    "town": "下シ沢",
    "town_kana": "クタシザワ",
    "street": null,
    "office_name": null,
    "office_name_kana": null
  },
  "0301": {
    "postcode": "0250301",
    "prefecture": "岩手県",
    "prefecture_kana": "イワテケン",
    "prefecture_code": 3,
    "city": "花巻市",
    "city_kana": "ハナマキシ",
    "town": "北湯口",
    "town_kana": "キタユグチ",
    "street": null,
    "office_name": null,
    "office_name_kana": null
  },
  "0302": {
    "postcode": "0250302",
    "prefecture": "岩手県",
    "prefecture_kana": "イワテケン",
    "prefecture_code": 3,
    "city": "花巻市",
    "city_kana": "ハナマキシ",
    "town": "糠塚",
    "town_kana": "ヌカヅカ",
    "street": null,
    "office_name": null,
    "office_name_kana": null
  },
  "0303": {
    "postcode": "0250303",
    "prefecture": "岩手県",
    "prefecture_kana": "イワテケン",
    "prefecture_code": 3,
    "city": "花巻市",
    "city_kana": "ハナマキシ",
    "town": "大畑",
    "town_kana": "オオハタ",
    "street": null,
    "office_name": null,
    "office_name_kana": null
  },
  "0304": {
    "postcode": "0250304",
    "prefecture": "岩手県",
    "prefecture_kana": "イワテケン",
    "prefecture_code": 3,
    "city": "花巻市",
    "city_kana": "ハナマキシ",
    "town": "湯本",
    "town_kana": "ユモト",
    "street": null,
    "office_name": null,
    "office_name_kana": null
  },
  "0305": {
    "postcode": "0250305",
    "prefecture": "岩手県",
    "prefecture_kana": "イワテケン",
    "prefecture_code": 3,
    "city": "花巻市",
    "city_kana": "ハナマキシ",
    "town": "台",
    "town_kana": "ダイ",
    "street": null,
    "office_name": null,
    "office_name_kana": null
  },
  "0311": {
    "postcode": "0250311",
    "prefecture": "岩手県",
    "prefecture_kana": "イワテケン",
    "prefecture_code": 3,
    "city": "花巻市",
    "city_kana": "ハナマキシ",
    "town": "卸町",
    "town_kana": "オロシマチ",
    "street": null,
    "office_name": null,
    "office_name_kana": null
  },
  "0312": {
    "postcode": "0250312",
    "prefecture": "岩手県",
    "prefecture_kana": "イワテケン",
    "prefecture_code": 3,
    "city": "花巻市",
    "city_kana": "ハナマキシ",
    "town": "二枚橋",
    "town_kana": "ニマイバシ",
    "street": null,
    "office_name": null,
    "office_name_kana": null
  },
  "0313": {
    "postcode": "0250313",
    "prefecture": "岩手県",
    "prefecture_kana": "イワテケン",
    "prefecture_code": 3,
    "city": "花巻市",
    "city_kana": "ハナマキシ",
    "town": "二枚橋町北",
    "town_kana": "ニマイバシマチキタ",
    "street": null,
    "office_name": null,
    "office_name_kana": null
  },
  "0314": {
    "postcode": "0250314",
    "prefecture": "岩手県",
    "prefecture_kana": "イワテケン",
    "prefecture_code": 3,
    "city": "花巻市",
    "city_kana": "ハナマキシ",
    "town": "二枚橋町大通り",
    "town_kana": "ニマイバシマチオオドオリ",
    "street": null,
    "office_name": null,
    "office_name_kana": null
  },
  "0315": {
    "postcode": "0250315",
    "prefecture": "岩手県",
    "prefecture_kana": "イワテケン",
    "prefecture_code": 3,
    "city": "花巻市",
    "city_kana": "ハナマキシ",
    "town": "二枚橋町南",
    "town_kana": "ニマイバシマチミナミ",
    "street": null,
    "office_name": null,
    "office_name_kana": null
  },
  "0321": {
    "postcode": "0250321",
    "prefecture": "岩手県",
    "prefecture_kana": "イワテケン",
    "prefecture_code": 3,
    "city": "花巻市",
    "city_kana": "ハナマキシ",
    "town": "金矢",
    "town_kana": "カナヤ",
    "street": null,
    "office_name": null,
    "office_name_kana": null
  },
  "0322": {
    "postcode": "0250322",
    "prefecture": "岩手県",
    "prefecture_kana": "イワテケン",
    "prefecture_code": 3,
    "city": "花巻市",
    "city_kana": "ハナマキシ",
    "town": "狼沢",
    "town_kana": "オオカミザワ",
    "street": null,
    "office_name": null,
    "office_name_kana": null
  },
  "0323": {
    "postcode": "0250323",
    "prefecture": "岩手県",
    "prefecture_kana": "イワテケン",
    "prefecture_code": 3,
    "city": "花巻市",
    "city_kana": "ハナマキシ",
    "town": "椚ノ目",
    "town_kana": "クヌギノメ",
    "street": null,
    "office_name": null,
    "office_name_kana": null
  },
  "0324": {
    "postcode": "0250324",
    "prefecture": "岩手県",
    "prefecture_kana": "イワテケン",
    "prefecture_code": 3,
    "city": "花巻市",
    "city_kana": "ハナマキシ",
    "town": "小瀬川",
    "town_kana": "コセガワ",
    "street": null,
    "office_name": null,
    "office_name_kana": null
  },
  "0392": {
    "postcode": "0250392",
    "prefecture": "岩手県",
    "prefecture_kana": "イワテケン",
    "prefecture_code": 3,
    "city": "花巻市",
    "city_kana": "ハナマキシ",
    "town": "湯本",
    "town_kana": "ユモト",
    "street": "第１地割１２５",
    "office_name": "花巻温泉　株式会社",
    "office_name_kana": "ハナマキオンセン カブシキガイシヤ"
  },
  "0393": {
    "postcode": "0250393",
    "prefecture": "岩手県",
    "prefecture_kana": "イワテケン",
    "prefecture_code": 3,
    "city": "花巻市",
    "city_kana": "ハナマキシ",
    "town": "空港南",
    "town_kana": "クウコウミナミ",
    "street": "２丁目１８番地",
    "office_name": "株式会社　小田島",
    "office_name_kana": "カブシキガイシヤ オダシマ"
  },
  "0394": {
    "postcode": "0250394",
    "prefecture": "岩手県",
    "prefecture_kana": "イワテケン",
    "prefecture_code": 3,
    "city": "花巻市",
    "city_kana": "ハナマキシ",
    "town": "大畑",
    "town_kana": "オオハタ",
    "street": "第１０地割１０９番地",
    "office_name": "株式会社　オプトル　花巻事業所",
    "office_name_kana": "カブシキガイシヤ オプトル ハナマキジギヨウシヨ"
  },
  "0395": {
    "postcode": "0250395",
    "prefecture": "岩手県",
    "prefecture_kana": "イワテケン",
    "prefecture_code": 3,
    "city": "花巻市",
    "city_kana": "ハナマキシ",
    "town": "北湯口",
    "town_kana": "キタユグチ",
    "street": "第２地割８２−１",
    "office_name": "岩手県立　総合教育センター",
    "office_name_kana": "イワテケンリツ ソウゴウキヨウイクセンタ-"
  },
  "8501": {
    "postcode": "0258501",
    "prefecture": "岩手県",
    "prefecture_kana": "イワテケン",
    "prefecture_code": 3,
    "city": "花巻市",
    "city_kana": "ハナマキシ",
    "town": "下根子",
    "town_kana": "シモネコ",
    "street": "４５０−３",
    "office_name": "学校法人　富士大学",
    "office_name_kana": "ガツコウホウジン フジダイガク"
  },
  "8601": {
    "postcode": "0258601",
    "prefecture": "岩手県",
    "prefecture_kana": "イワテケン",
    "prefecture_code": 3,
    "city": "花巻市",
    "city_kana": "ハナマキシ",
    "town": "花城町",
    "town_kana": "カジョウマチ",
    "street": "９−３０",
    "office_name": "花巻市役所",
    "office_name_kana": "ハナマキシヤクシヨ"
  },
  "8602": {
    "postcode": "0258602",
    "prefecture": "岩手県",
    "prefecture_kana": "イワテケン",
    "prefecture_code": 3,
    "city": "花巻市",
    "city_kana": "ハナマキシ",
    "town": "材木町",
    "town_kana": "ザイモクチョウ",
    "street": "８−２０",
    "office_name": "花巻　税務署",
    "office_name_kana": "ハナマキ ゼイムシヨ"
  }
}