{
  "0000": {
    "postcode": "0310000",
    "prefecture": "青森県",
    "prefecture_kana": "アオモリケン",
    "prefecture_code": 2,
    "city": "八戸市",
    "city_kana": "ハチノヘシ",
    "town": "",
    "town_kana": "",
    "street": null,
    "office_name": null,
    "office_name_kana": null
  },
  "0001": {
    "postcode": "0310001",
    "prefecture": "青森県",
    "prefecture_kana": "アオモリケン",
    "prefecture_code": 2,
    "city": "八戸市",
    "city_kana": "ハチノヘシ",
    "town": "類家",
    "town_kana": "ルイケ",
    "street": null,
    "office_name": null,
    "office_name_kana": null
  },
  "0002": {
    "postcode": "0310002",
    "prefecture": "青森県",
    "prefecture_kana": "アオモリケン",
    "prefecture_code": 2,
    "city": "八戸市",
    "city_kana": "ハチノヘシ",
    "town": "中居林",
    "town_kana": "ナカイバヤシ",
    "street": null,
    "office_name": null,
    "office_name_kana": null
  },
  "0003": {
    "postcode": "0310003",
    "prefecture": "青森県",
    "prefecture_kana": "アオモリケン",
    "prefecture_code": 2,
    "city": "八戸市",
    "city_kana": "ハチノヘシ",
    "town": "吹上",
    "town_kana": "フキアゲ",
    "street": null,
    "office_name": null,
    "office_name_kana": null
  },
  "0004": {
    "postcode": "0310004",
    "prefecture": "青森県",
    "prefecture_kana": "アオモリケン",
    "prefecture_code": 2,
    "city": "八戸市",
    "city_kana": "ハチノヘシ",
    "town": "南類家",
    "town_kana": "ミナミルイケ",
    "street": null,
    "office_name": null,
    "office_name_kana": null
  },
  "0007": [
    {
      "postcode": "0310007",
      "prefecture": "青森県",
      "prefecture_kana": "アオモリケン",
      "prefecture_code": 2,
      "city": "八戸市",
      "city_kana": "ハチノヘシ",
      "town": "櫛引",
      "town_kana": "クシビキ",
      "street": null,
      "office_name": null,
      "office_name_kana": null
    },
    {
      "postcode": "0310007",
      "prefecture": "青森県",
      "prefecture_kana": "アオモリケン",
      "prefecture_code": 2,
      "city": "八戸市",
      "city_kana": "ハチノヘシ",
      "town": "櫛引土橋",
      "town_kana": "クシビキツチハシ",
      "street": null,
      "office_name": null,
      "office_name_kana": null
    }
  ],
  "0011": {
    "postcode": "0310011",
    "prefecture": "青森県",
    "prefecture_kana": "アオモリケン",
    "prefecture_code": 2,
    "city": "八戸市",
    "city_kana": "ハチノヘシ",
    "town": "田向",
    "town_kana": "タムカイ",
    "street": null,
    "office_name": null,
    "office_name_kana": null
  },
  "0012": {
    "postcode": "0310012",
    "prefecture": "青森県",
    "prefecture_kana": "アオモリケン",
    "prefecture_code": 2,
    "city": "八戸市",
    "city_kana": "ハチノヘシ",
    "town": "十日市",
    "town_kana": "トオカイチ",
    "street": null,
    "office_name": null,
    "office_name_kana": null
  },
  "0013": {
    "postcode": "0310013",
    "prefecture": "青森県",
    "prefecture_kana": "アオモリケン",
    "prefecture_code": 2,
    "city": "八戸市",
    "city_kana": "ハチノヘシ",
    "town": "石手洗",
    "town_kana": "イシテアライ",
    "street": null,
    "office_name": null,
    "office_name_kana": null
  },
  "0021": {
    "postcode": "0310021",
    "prefecture": "青森県",
    "prefecture_kana": "アオモリケン",
    "prefecture_code": 2,
    "city": "八戸市",
    "city_kana": "ハチノヘシ",
    "town": "長者",
    "town_kana": "チョウジャ",
    "street": null,
    "office_name": null,
    "office_name_kana": null
  },
  "0022": {
    "postcode": "0310022",
    "prefecture": "青森県",
    "prefecture_kana": "アオモリケン",
    "prefecture_code": 2,
    "city": "八戸市",
    "city_kana": "ハチノヘシ",
    "town": "糠塚",
    "town_kana": "ヌカヅカ",
    "street": null,
    "office_name": null,
    "office_name_kana": null
  },
  "0023": {
    "postcode": "0310023",
    "prefecture": "青森県",
    "prefecture_kana": "アオモリケン",
    "prefecture_code": 2,
    "city": "八戸市",
    "city_kana": "ハチノヘシ",
    "town": "是川",
    "town_kana": "コレカワ",
    "street": null,
    "office_name": null,
    "office_name_kana": null
  },
  "0031": {
    "postcode": "0310031",
    "prefecture": "青森県",
    "prefecture_kana": "アオモリケン",
    "prefecture_code": 2,
    "city": "八戸市",
    "city_kana": "ハチノヘシ",
    "town": "番町",
    "town_kana": "バンチョウ",
    "street": null,
    "office_name": null,
    "office_name_kana": null
  },
  "0032": {
    "postcode": "0310032",
    "prefecture": "青森県",
    "prefecture_kana": "アオモリケン",
    "prefecture_code": 2,
    "city": "八戸市",
    "city_kana": "ハチノヘシ",
    "town": "三日町",
    "town_kana": "ミッカマチ",
    "street": null,
    "office_name": null,
    "office_name_kana": null
  },
  "0033": {
    "postcode": "0310033",
    "prefecture": "青森県",
    "prefecture_kana": "アオモリケン",
    "prefecture_code": 2,
    "city": "八戸市",
    "city_kana": "ハチノヘシ",
    "town": "六日町",
    "town_kana": "ムイカマチ",
    "street": null,
    "office_name": null,
    "office_name_kana": null
  },
  "0034": {
    "postcode": "0310034",
    "prefecture": "青森県",
    "prefecture_kana": "アオモリケン",
    "prefecture_code": 2,
    "city": "八戸市",
    "city_kana": "ハチノヘシ",
    "town": "鷹匠小路",
    "town_kana": "タカショウコウジ",
    "street": null,
    "office_name": null,
    "office_name_kana": null
  },
  "0035": {
    "postcode": "0310035",
    "prefecture": "青森県",
    "prefecture_kana": "アオモリケン",
    "prefecture_code": 2,
    "city": "八戸市",
    "city_kana": "ハチノヘシ",
    "town": "寺横町",
    "town_kana": "テラヨコチョウ",
    "street": null,
    "office_name": null,
    "office_name_kana": null
  },
  "0036": {
    "postcode": "0310036",
    "prefecture": "青森県",
    "prefecture_kana": "アオモリケン",
    "prefecture_code": 2,
    "city": "八戸市",
    "city_kana": "ハチノヘシ",
    "town": "大工町",
    "town_kana": "ダイクマチ",
    "street": null,
    "office_name": null,
    "office_name_kana": null
  },
  "0037": {
    "postcode": "0310037",
    "prefecture": "青森県",
    "prefecture_kana": "アオモリケン",
    "prefecture_code": 2,
    "city": "八戸市",
    "city_kana": "ハチノヘシ",
    "town": "鍛冶町",
    "town_kana": "カジチョウ",
    "street": null,
    "office_name": null,
    "office_name_kana": null
  },
  "0038": {
    "postcode": "0310038",
    "prefecture": "青森県",
    "prefecture_kana": "アオモリケン",
    "prefecture_code": 2,
    "city": "八戸市",
    "city_kana": "ハチノヘシ",
    "town": "山伏小路",
    "town_kana": "ヤマブシコウジ",
    "street": null,
    "office_name": null,
    "office_name_kana": null
  },
  "0039": {
    "postcode": "0310039",
    "prefecture": "青森県",
    "prefecture_kana": "アオモリケン",
    "prefecture_code": 2,
    "city": "八戸市",
    "city_kana": "ハチノヘシ",
    "town": "鳥屋部町",
    "town_kana": "トヤベチョウ",
    "street": null,
    "office_name": null,
    "office_name_kana": null
  },
  "0041": {
    "postcode": "0310041",
    "prefecture": "青森県",
    "prefecture_kana": "アオモリケン",
    "prefecture_code": 2,
    "city": "八戸市",
    "city_kana": "ハチノヘシ",
    "town": "廿三日町",
    "town_kana": "ニジュウサンニチマチ",
    "street": null,
    "office_name": null,
    "office_name_kana": null
  },
  "0042": {
    "postcode": "0310042",
    "prefecture": "青森県",
    "prefecture_kana": "アオモリケン",
    "prefecture_code": 2,
    "city": "八戸市",
    "city_kana": "ハチノヘシ",
    "town": "十三日町",
    "town_kana": "ジュウサンニチマチ",
    "street": null,
    "office_name": null,
    "office_name_kana": null
  },
  "0043": {
    "postcode": "0310043",
    "prefecture": "青森県",
    "prefecture_kana": "アオモリケン",
    "prefecture_code": 2,
    "city": "八戸市",
    "city_kana": "ハチノヘシ",
    "town": "十六日町",
    "town_kana": "ジュウロクニチマチ",
    "street": null,
    "office_name": null,
    "office_name_kana": null
  },
  "0044": {
    "postcode": "0310044",
    "prefecture": "青森県",
    "prefecture_kana": "アオモリケン",
    "prefecture_code": 2,
    "city": "八戸市",
    "city_kana": "ハチノヘシ",
    "town": "廿六日町",
    "town_kana": "ニジュウロクニチマチ",
    "street": null,
    "office_name": null,
    "office_name_kana": null
  },
  "0045": {
    "postcode": "0310045",
    "prefecture": "青森県",
    "prefecture_kana": "アオモリケン",
    "prefecture_code": 2,
    "city": "八戸市",
    "city_kana": "ハチノヘシ",
    "town": "本鍛冶町",
    "town_kana": "モトカジチョウ",
    "street": null,
    "office_name": null,
    "office_name_kana": null
  },
  "0046": {
    "postcode": "0310046",
    "prefecture": "青森県",
    "prefecture_kana": "アオモリケン",
    "prefecture_code": 2,
    "city": "八戸市",
    "city_kana": "ハチノヘシ",
    "town": "町組町",
    "town_kana": "マチクミチョウ",
    "street": null,
    "office_name": null,
    "office_name_kana": null
  },
  "0047": {
    "postcode": "0310047",
    "prefecture": "青森県",
    "prefecture_kana": "アオモリケン",
    "prefecture_code": 2,
    "city": "八戸市",
    "city_kana": "ハチノヘシ",
    "town": "常番町",
    "town_kana": "ジョウバンチョウ",
    "street": null,
    "office_name": null,
    "office_name_kana": null
  },
  "0051": {
    "postcode": "0310051",
    "prefecture": "青森県",
    "prefecture_kana": "アオモリケン",
    "prefecture_code": 2,
    "city": "八戸市",
    "city_kana": "ハチノヘシ",
    "town": "堤町",
    "town_kana": "ツツミチョウ",
    "street": null,
    "office_name": null,
    "office_name_kana": null
  },
  "0052": {
    "postcode": "0310052",
    "prefecture": "青森県",
    "prefecture_kana": "アオモリケン",
    "prefecture_code": 2,
    "city": "八戸市",
    "city_kana": "ハチノヘシ",
    "town": "本徒士町",
    "town_kana": "モトカジシチョウ",
    "street": null,
    "office_name": null,
    "office_name_kana": null
  },
  "0053": {
    "postcode": "0310053",
    "prefecture": "青森県",
    "prefecture_kana": "アオモリケン",
    "prefecture_code": 2,
    "city": "八戸市",
    "city_kana": "ハチノヘシ",
    "town": "徒士町",
    "town_kana": "カジシチョウ",
    "street": null,
    "office_name": null,
    "office_name_kana": null
  },
  "0054": {
    "postcode": "0310054",
    "prefecture": "青森県",
    "prefecture_kana": "アオモリケン",
    "prefecture_code": 2,
    "city": "八戸市",
    "city_kana": "ハチノヘシ",
    "town": "稲荷町",
    "town_kana": "イナリチョウ",
    "street": null,
    "office_name": null,
    "office_name_kana": null
  },
  "0055": {
    "postcode": "0310055",
    "prefecture": "青森県",
    "prefecture_kana": "アオモリケン",
    "prefecture_code": 2,
    "city": "八戸市",
    "city_kana": "ハチノヘシ",
    "town": "荒町",
    "town_kana": "アラマチ",
    "street": null,
    "office_name": null,
    "office_name_kana": null
  },
  "0056": {
    "postcode": "0310056",
    "prefecture": "青森県",
    "prefecture_kana": "アオモリケン",
    "prefecture_code": 2,
    "city": "八戸市",
    "city_kana": "ハチノヘシ",
    "town": "新荒町",
    "town_kana": "シンアラマチ",
    "street": null,
    "office_name": null,
    "office_name_kana": null
  },
  "0057": {
    "postcode": "0310057",
    "prefecture": "青森県",
    "prefecture_kana": "アオモリケン",
    "prefecture_code": 2,
    "city": "八戸市",
    "city_kana": "ハチノヘシ",
    "town": "上徒士町",
    "town_kana": "カミカジシチョウ",
    "street": null,
    "office_name": null,
    "office_name_kana": null
  },
  "0058": {
    "postcode": "0310058",
    "prefecture": "青森県",
    "prefecture_kana": "アオモリケン",
    "prefecture_code": 2,
    "city": "八戸市",
    "city_kana": "ハチノヘシ",
    "town": "上組町",
    "town_kana": "カミクミチョウ",
    "street": null,
    "office_name": null,
    "office_name_kana": null
  },
  "0071": {
    "postcode": "0310071",
    "prefecture": "青森県",
    "prefecture_kana": "アオモリケン",
    "prefecture_code": 2,
    "city": "八戸市",
    "city_kana": "ハチノヘシ",
    "town": "沼館",
    "town_kana": "ヌマダテ",
    "street": null,
    "office_name": null,
    "office_name_kana": null
  },
  "0072": {
    "postcode": "0310072",
    "prefecture": "青森県",
    "prefecture_kana": "アオモリケン",
    "prefecture_code": 2,
    "city": "八戸市",
    "city_kana": "ハチノヘシ",
    "town": "城下",
    "town_kana": "シロシタ",
    "street": null,
    "office_name": null,
    "office_name_kana": null
  },
  "0073": {
    "postcode": "0310073",
    "prefecture": "青森県",
    "prefecture_kana": "アオモリケン",
    "prefecture_code": 2,
    "city": "八戸市",
    "city_kana": "ハチノヘシ",
    "town": "売市",
    "town_kana": "ウルイチ",
    "street": null,
    "office_name": null,
    "office_name_kana": null
  },
  "0074": {
    "postcode": "0310074",
    "prefecture": "青森県",
    "prefecture_kana": "アオモリケン",
    "prefecture_code": 2,
    "city": "八戸市",
    "city_kana": "ハチノヘシ",
    "town": "馬場町",
    "town_kana": "ババチョウ",
    "street": null,
    "office_name": null,
    "office_name_kana": null
  },
  "0075": {
    "postcode": "0310075",
    "prefecture": "青森県",
    "prefecture_kana": "アオモリケン",
    "prefecture_code": 2,
    "city": "八戸市",
    "city_kana": "ハチノヘシ",
    "town": "内丸",
    "town_kana": "ウチマル",
    "street": null,
    "office_name": null,
    "office_name_kana": null
  },
  "0076": {
    "postcode": "0310076",
    "prefecture": "青森県",
    "prefecture_kana": "アオモリケン",
    "prefecture_code": 2,
    "city": "八戸市",
    "city_kana": "ハチノヘシ",
    "town": "堀端町",
    "town_kana": "ホリバタチョウ",
    "street": null,
    "office_name": null,
    "office_name_kana": null
  },
  "0077": {
    "postcode": "0310077",
    "prefecture": "青森県",
    "prefecture_kana": "アオモリケン",
    "prefecture_code": 2,
    "city": "八戸市",
    "city_kana": "ハチノヘシ",
    "town": "長根",
    "town_kana": "ナガネ",
    "street": null,
    "office_name": null,
    "office_name_kana": null
  },
  "0081": {
    "postcode": "0310081",
    "prefecture": "青森県",
    "prefecture_kana": "アオモリケン",
    "prefecture_code": 2,
    "city": "八戸市",
    "city_kana": "ハチノヘシ",
    "town": "柏崎",
    "town_kana": "カシワザキ",
    "street": null,
    "office_name": null,
    "office_name_kana": null
  },
  "0082": {
    "postcode": "0310082",
    "prefecture": "青森県",
    "prefecture_kana": "アオモリケン",
    "prefecture_code": 2,
    "city": "八戸市",
    "city_kana": "ハチノヘシ",
    "town": "常海町",
    "town_kana": "ジョウカイチョウ",
    "street": null,
    "office_name": null,
    "office_name_kana": null
  },
  "0083": {
    "postcode": "0310083",
    "prefecture": "青森県",
    "prefecture_kana": "アオモリケン",
    "prefecture_code": 2,
    "city": "八戸市",
    "city_kana": "ハチノヘシ",
    "town": "窪町",
    "town_kana": "クボチョウ",
    "street": null,
    "office_name": null,
    "office_name_kana": null
  },
  "0084": {
    "postcode": "0310084",
    "prefecture": "青森県",
    "prefecture_kana": "アオモリケン",
    "prefecture_code": 2,
    "city": "八戸市",
    "city_kana": "ハチノヘシ",
    "town": "十八日町",
    "town_kana": "ジュウハチニチマチ",
    "street": null,
    "office_name": null,
    "office_name_kana": null
  },
  "0085": {
    "postcode": "0310085",
    "prefecture": "青森県",
    "prefecture_kana": "アオモリケン",
    "prefecture_code": 2,
    "city": "八戸市",
    "city_kana": "ハチノヘシ",
    "town": "十一日町",
    "town_kana": "ジュウイチニチマチ",
    "street": null,
    "office_name": null,
    "office_name_kana": null
  },
  "0086": {
    "postcode": "0310086",
    "prefecture": "青森県",
    "prefecture_kana": "アオモリケン",
    "prefecture_code": 2,
    "city": "八戸市",
    "city_kana": "ハチノヘシ",
    "town": "八日町",
    "town_kana": "ヨウカマチ",
    "street": null,
    "office_name": null,
    "office_name_kana": null
  },
  "0087": {
    "postcode": "0310087",
    "prefecture": "青森県",
    "prefecture_kana": "アオモリケン",
    "prefecture_code": 2,
    "city": "八戸市",
    "city_kana": "ハチノヘシ",
    "town": "朔日町",
    "town_kana": "ツイタチマチ",
    "street": null,
    "office_name": null,
    "office_name_kana": null
  },
  "0088": {
    "postcode": "0310088",
    "prefecture": "青森県",
    "prefecture_kana": "アオモリケン",
    "prefecture_code": 2,
    "city": "八戸市",
    "city_kana": "ハチノヘシ",
    "town": "岩泉町",
    "town_kana": "イワイズミチョウ",
    "street": null,
    "office_name": null,
    "office_name_kana": null
  },
  "0089": {
    "postcode": "0310089",
    "prefecture": "青森県",
    "prefecture_kana": "アオモリケン",
    "prefecture_code": 2,
    "city": "八戸市",
    "city_kana": "ハチノヘシ",
    "town": "長横町",
    "town_kana": "ナガヨコチョウ",
    "street": null,
    "office_name": null,
    "office_name_kana": null
  },
  "0111": {
    "postcode": "0310111",
    "prefecture": "青森県",
    "prefecture_kana": "アオモリケン",
    "prefecture_code": 2,
    "city": "八戸市",
    "city_kana": "ハチノヘシ",
    "town": "南郷市野沢",
    "town_kana": "ナンゴウイチノサワ",
    "street": null,
    "office_name": null,
    "office_name_kana": null
  },
  "0112": {
    "postcode": "0310112",
    "prefecture": "青森県",
    "prefecture_kana": "アオモリケン",
    "prefecture_code": 2,
    "city": "八戸市",
    "city_kana": "ハチノヘシ",
    "town": "南郷大森",
    "town_kana": "ナンゴウオオモリ",
    "street": null,
    "office_name": null,
    "office_name_kana": null
  },
  "0113": {
    "postcode": "0310113",
    "prefecture": "青森県",
    "prefecture_kana": "アオモリケン",
    "prefecture_code": 2,
    "city": "八戸市",
    "city_kana": "ハチノヘシ",
    "town": "南郷泉清水",
    "town_kana": "ナンゴウイズミシミズ",
    "street": null,
    "office_name": null,
    "office_name_kana": null
  },
  "0114": {
    "postcode": "0310114",
    "prefecture": "青森県",
    "prefecture_kana": "アオモリケン",
    "prefecture_code": 2,
    "city": "八戸市",
    "city_kana": "ハチノヘシ",
    "town": "南郷中野",
    "town_kana": "ナンゴウナカノ",
    "street": null,
    "office_name": null,
    "office_name_kana": null
  },
  "0115": {
    "postcode": "0310115",
    "prefecture": "青森県",
    "prefecture_kana": "アオモリケン",
    "prefecture_code": 2,
    "city": "八戸市",
    "city_kana": "ハチノヘシ",
    "town": "南郷泥障作",
    "town_kana": "ナンゴウアオヅクリ",
    "street": null,
    "office_name": null,
    "office_name_kana": null
  },
  "0201": {
    "postcode": "0310201",
    "prefecture": "青森県",
    "prefecture_kana": "アオモリケン",
    "prefecture_code": 2,
    "city": "八戸市",
    "city_kana": "ハチノヘシ",
    "town": "南郷頃巻沢",
    "town_kana": "ナンゴウコロマキサワ",
    "street": null,
    "office_name": null,
    "office_name_kana": null
  },
  "0202": {
    "postcode": "0310202",
    "prefecture": "青森県",
    "prefecture_kana": "アオモリケン",
    "prefecture_code": 2,
    "city": "八戸市",
    "city_kana": "ハチノヘシ",
    "town": "南郷島守",
    "town_kana": "ナンゴウシマモリ",
    "street": null,
    "office_name": null,
    "office_name_kana": null
  },
  "0801": {
    "postcode": "0310801",
    "prefecture": "青森県",
    "prefecture_kana": "アオモリケン",
    "prefecture_code": 2,
    "city": "八戸市",
    "city_kana": "ハチノヘシ",
    "town": "江陽",
    "town_kana": "コウヨウ",
    "street": null,
    "office_name": null,
    "office_name_kana": null
  },
  "0802": {
    "postcode": "0310802",
    "prefecture": "青森県",
    "prefecture_kana": "アオモリケン",
    "prefecture_code": 2,
    "city": "八戸市",
    "city_kana": "ハチノヘシ",
    "town": "小中野",
    "town_kana": "コナカノ",
    "street": null,
    "office_name": null,
    "office_name_kana": null
  },
  "0803": {
    "postcode": "0310803",
    "prefecture": "青森県",
    "prefecture_kana": "アオモリケン",
    "prefecture_code": 2,
    "city": "八戸市",
    "city_kana": "ハチノヘシ",
    "town": "諏訪",
    "town_kana": "スワ",
    "street": null,
    "office_name": null,
    "office_name_kana": null
  },
  "0804": {
    "postcode": "0310804",
    "prefecture": "青森県",
    "prefecture_kana": "アオモリケン",
    "prefecture_code": 2,
    "city": "八戸市",
    "city_kana": "ハチノヘシ",
    "town": "青葉",
    "town_kana": "アオバ",
    "street": null,
    "office_name": null,
    "office_name_kana": null
  },
  "0811": {
    "postcode": "0310811",
    "prefecture": "青森県",
    "prefecture_kana": "アオモリケン",
    "prefecture_code": 2,
    "city": "八戸市",
    "city_kana": "ハチノヘシ",
    "town": "新湊",
    "town_kana": "シンミナト",
    "street": null,
    "office_name": null,
    "office_name_kana": null
  },
  "0812": {
    "postcode": "0310812",
    "prefecture": "青森県",
    "prefecture_kana": "アオモリケン",
    "prefecture_code": 2,
    "city": "八戸市",
    "city_kana": "ハチノヘシ",
    "town": "湊町",
    "town_kana": "ミナトマチ",
    "street": null,
    "office_name": null,
    "office_name_kana": null
  },
  "0813": {
    "postcode": "0310813",
    "prefecture": "青森県",
    "prefecture_kana": "アオモリケン",
    "prefecture_code": 2,
    "city": "八戸市",
    "city_kana": "ハチノヘシ",
    "town": "新井田",
    "town_kana": "ニイダ",
    "street": null,
    "office_name": null,
    "office_name_kana": null
  },
  "0814": {
    "postcode": "0310814",
    "prefecture": "青森県",
    "prefecture_kana": "アオモリケン",
    "prefecture_code": 2,
    "city": "八戸市",
    "city_kana": "ハチノヘシ",
    "town": "妙",
    "town_kana": "ミョウ",
    "street": null,
    "office_name": null,
    "office_name_kana": null
  },
  "0815": {
    "postcode": "0310815",
    "prefecture": "青森県",
    "prefecture_kana": "アオモリケン",
    "prefecture_code": 2,
    "city": "八戸市",
    "city_kana": "ハチノヘシ",
    "town": "松館",
    "town_kana": "マツダテ",
    "street": null,
    "office_name": null,
    "office_name_kana": null
  },
  "0816": {
    "postcode": "0310816",
    "prefecture": "青森県",
    "prefecture_kana": "アオモリケン",
    "prefecture_code": 2,
    "city": "八戸市",
    "city_kana": "ハチノヘシ",
    "town": "新井田西",
    "town_kana": "ニイダニシ",
    "street": null,
    "office_name": null,
    "office_name_kana": null
  },
  "0821": {
    "postcode": "0310821",
    "prefecture": "青森県",
    "prefecture_kana": "アオモリケン",
    "prefecture_code": 2,
    "city": "八戸市",
    "city_kana": "ハチノヘシ",
    "town": "白銀",
    "town_kana": "シロガネ",
    "street": null,
    "office_name": null,
    "office_name_kana": null
  },
  "0822": {
    "postcode": "0310822",
    "prefecture": "青森県",
    "prefecture_kana": "アオモリケン",
    "prefecture_code": 2,
    "city": "八戸市",
    "city_kana": "ハチノヘシ",
    "town": "白銀町",
    "town_kana": "シロガネマチ",
    "street": null,
    "office_name": null,
    "office_name_kana": null
  },
  "0823": {
    "postcode": "0310823",
    "prefecture": "青森県",
    "prefecture_kana": "アオモリケン",
    "prefecture_code": 2,
    "city": "八戸市",
    "city_kana": "ハチノヘシ",
    "town": "湊高台",
    "town_kana": "ミナトタカダイ",
    "street": null,
    "office_name": null,
    "office_name_kana": null
  },
  "0824": {
    "postcode": "0310824",
    "prefecture": "青森県",
    "prefecture_kana": "アオモリケン",
    "prefecture_code": 2,
    "city": "八戸市",
    "city_kana": "ハチノヘシ",
    "town": "旭ケ丘",
    "town_kana": "アサヒガオカ",
    "street": null,
    "office_name": null,
    "office_name_kana": null
  },
  "0831": {
    "postcode": "0310831",
    "prefecture": "青森県",
    "prefecture_kana": "アオモリケン",
    "prefecture_code": 2,
    "city": "八戸市",
    "city_kana": "ハチノヘシ",
    "town": "築港街",
    "town_kana": "チッコウガイ",
    "street": null,
    "office_name": null,
    "office_name_kana": null
  },
  "0832": {
    "postcode": "0310832",
    "prefecture": "青森県",
    "prefecture_kana": "アオモリケン",
    "prefecture_code": 2,
    "city": "八戸市",
    "city_kana": "ハチノヘシ",
    "town": "白銀台",
    "town_kana": "シロガネダイ",
    "street": null,
    "office_name": null,
    "office_name_kana": null
  },
  "0833": {
    "postcode": "0310833",
    "prefecture": "青森県",
    "prefecture_kana": "アオモリケン",
    "prefecture_code": 2,
    "city": "八戸市",
    "city_kana": "ハチノヘシ",
    "town": "大久保",
    "town_kana": "オオクボ",
    "street": null,
    "office_name": null,
    "office_name_kana": null
  },
  "0834": {
    "postcode": "0310834",
    "prefecture": "青森県",
    "prefecture_kana": "アオモリケン",
    "prefecture_code": 2,
    "city": "八戸市",
    "city_kana": "ハチノヘシ",
    "town": "桜ケ丘",
    "town_kana": "サクラガオカ",
    "street": null,
    "office_name": null,
    "office_name_kana": null
  },
  "0841": {
    "postcode": "0310841",
    "prefecture": "青森県",
    "prefecture_kana": "アオモリケン",
    "prefecture_code": 2,
    "city": "八戸市",
    "city_kana": "ハチノヘシ",
    "town": "鮫町",
    "town_kana": "サメマチ",
    "street": null,
    "office_name": null,
    "office_name_kana": null
  },
  "0842": {
    "postcode": "0310842",
    "prefecture": "青森県",
    "prefecture_kana": "アオモリケン",
    "prefecture_code": 2,
    "city": "八戸市",
    "city_kana": "ハチノヘシ",
    "town": "岬台",
    "town_kana": "ミサキダイ",
    "street": null,
    "office_name": null,
    "office_name_kana": null
  },
  "0843": {
    "postcode": "0310843",
    "prefecture": "青森県",
    "prefecture_kana": "アオモリケン",
    "prefecture_code": 2,
    "city": "八戸市",
    "city_kana": "ハチノヘシ",
    "town": "金浜",
    "town_kana": "カネハマ",
    "street": null,
    "office_name": null,
    "office_name_kana": null
  },
  "0844": {
    "postcode": "0310844",
    "prefecture": "青森県",
    "prefecture_kana": "アオモリケン",
    "prefecture_code": 2,
    "city": "八戸市",
    "city_kana": "ハチノヘシ",
    "town": "美保野",
    "town_kana": "ミホノ",
    "street": null,
    "office_name": null,
    "office_name_kana": null
  },
  "8501": {
    "postcode": "0318501",
    "prefecture": "青森県",
    "prefecture_kana": "アオモリケン",
    "prefecture_code": 2,
    "city": "八戸市",
    "city_kana": "ハチノヘシ",
    "town": "大字妙",
    "town_kana": null,
    "street": "字大開８８−１",
    "office_name": "八戸工業大学",
    "office_name_kana": "ハチノヘコウギヨウダイガク"
  },
  "8504": {
    "postcode": "0318504",
    "prefecture": "青森県",
    "prefecture_kana": "アオモリケン",
    "prefecture_code": 2,
    "city": "八戸市",
    "city_kana": "ハチノヘシ",
    "town": "築港街",
    "town_kana": "チッコウガイ",
    "street": "１丁目１−４",
    "office_name": "マルヨ水産　株式会社",
    "office_name_kana": "マルヨスイサン カブシキガイシヤ"
  },
  "8505": {
    "postcode": "0318505",
    "prefecture": "青森県",
    "prefecture_kana": "アオモリケン",
    "prefecture_code": 2,
    "city": "八戸市",
    "city_kana": "ハチノヘシ",
    "town": "大字妙",
    "town_kana": null,
    "street": "字大開６７",
    "office_name": "八戸工業大学第二高等学校",
    "office_name_kana": "ハチノヘコウギヨウダイガクダイニコウトウガツコウ"
  },
  "8507": {
    "postcode": "0318507",
    "prefecture": "青森県",
    "prefecture_kana": "アオモリケン",
    "prefecture_code": 2,
    "city": "八戸市",
    "city_kana": "ハチノヘシ",
    "town": "湊高台",
    "town_kana": "ミナトタカダイ",
    "street": "６丁目１４−５",
    "office_name": "光星学院高等学校",
    "office_name_kana": "コウセイガクインコウトウガツコウ"
  },
  "8510": {
    "postcode": "0318510",
    "prefecture": "青森県",
    "prefecture_kana": "アオモリケン",
    "prefecture_code": 2,
    "city": "八戸市",
    "city_kana": "ハチノヘシ",
    "town": "城下",
    "town_kana": "シロシタ",
    "street": "１丁目１６−２５",
    "office_name": "八戸警察署",
    "office_name_kana": "ハチノヘケイサツシヨ"
  },
  "8511": {
    "postcode": "0318511",
    "prefecture": "青森県",
    "prefecture_kana": "アオモリケン",
    "prefecture_code": 2,
    "city": "八戸市",
    "city_kana": "ハチノヘシ",
    "town": "大字堀端町",
    "town_kana": null,
    "street": "２−３",
    "office_name": "八戸商工会議所",
    "office_name_kana": "ハチノヘシヨウコウカイギシヨ"
  },
  "8520": {
    "postcode": "0318520",
    "prefecture": "青森県",
    "prefecture_kana": "アオモリケン",
    "prefecture_code": 2,
    "city": "八戸市",
    "city_kana": "ハチノヘシ",
    "town": "売市",
    "town_kana": "ウルイチ",
    "street": "３丁目２−１６イシガメビル１階",
    "office_name": "株式会社　帝国データバンク　八戸支店",
    "office_name_kana": "カブシキガイシヤ テイコクデ-タバンク ハチノヘシテン"
  },
  "8533": {
    "postcode": "0318533",
    "prefecture": "青森県",
    "prefecture_kana": "アオモリケン",
    "prefecture_code": 2,
    "city": "八戸市",
    "city_kana": "ハチノヘシ",
    "town": "大字十三日町",
    "town_kana": null,
    "street": "１３",
    "office_name": "株式会社　三春屋",
    "office_name_kana": "カブシキガイシヤ ミハルヤ"
  },
  "8538": {
    "postcode": "0318538",
    "prefecture": "青森県",
    "prefecture_kana": "アオモリケン",
    "prefecture_code": 2,
    "city": "八戸市",
    "city_kana": "ハチノヘシ",
    "town": "江陽",
    "town_kana": "コウヨウ",
    "street": "２丁目１４−１",
    "office_name": "長崎屋　八戸店",
    "office_name_kana": "ナガサキヤ ハチノヘテン"
  },
  "8543": {
    "postcode": "0318543",
    "prefecture": "青森県",
    "prefecture_kana": "アオモリケン",
    "prefecture_code": 2,
    "city": "八戸市",
    "city_kana": "ハチノヘシ",
    "town": "大字十三日町",
    "town_kana": null,
    "street": "１番地",
    "office_name": "有限会社　ヴィアノヴァ",
    "office_name_kana": "ユウゲンガイシヤ ヴイアノヴア"
  },
  "8544": {
    "postcode": "0318544",
    "prefecture": "青森県",
    "prefecture_kana": "アオモリケン",
    "prefecture_code": 2,
    "city": "八戸市",
    "city_kana": "ハチノヘシ",
    "town": "大字美保野",
    "town_kana": null,
    "street": "１３番地９８",
    "office_name": "学校法人　光星学院　本部事務局",
    "office_name_kana": "ガツコウホウジン コウセイガクイン ホンブジムキヨク"
  },
  "8545": {
    "postcode": "0318545",
    "prefecture": "青森県",
    "prefecture_kana": "アオモリケン",
    "prefecture_code": 2,
    "city": "八戸市",
    "city_kana": "ハチノヘシ",
    "town": "湊高台",
    "town_kana": "ミナトタカダイ",
    "street": "２丁目４−６",
    "office_name": "医療法人　平成会",
    "office_name_kana": "イリヨウホウジン ヘイセイカイ"
  },
  "8551": {
    "postcode": "0318551",
    "prefecture": "青森県",
    "prefecture_kana": "アオモリケン",
    "prefecture_code": 2,
    "city": "八戸市",
    "city_kana": "ハチノヘシ",
    "town": "大字白銀町",
    "town_kana": null,
    "street": "字南ケ丘１番地",
    "office_name": "青森労災病院",
    "office_name_kana": "アオモリロウサイビヨウイン"
  },
  "8555": {
    "postcode": "0318555",
    "prefecture": "青森県",
    "prefecture_kana": "アオモリケン",
    "prefecture_code": 2,
    "city": "八戸市",
    "city_kana": "ハチノヘシ",
    "town": "大字田向",
    "town_kana": null,
    "street": "字毘沙門平１",
    "office_name": "八戸市立　市民病院",
    "office_name_kana": "ハチノヘシリツ シミンビヨウイン"
  },
  "8558": {
    "postcode": "0318558",
    "prefecture": "青森県",
    "prefecture_kana": "アオモリケン",
    "prefecture_code": 2,
    "city": "八戸市",
    "city_kana": "ハチノヘシ",
    "town": "城下",
    "town_kana": "シロシタ",
    "street": "３丁目１３−１４",
    "office_name": "株式会社　ヒグチ",
    "office_name_kana": "カブシキガイシヤ ヒグチ"
  },
  "8570": {
    "postcode": "0318570",
    "prefecture": "青森県",
    "prefecture_kana": "アオモリケン",
    "prefecture_code": 2,
    "city": "八戸市",
    "city_kana": "ハチノヘシ",
    "town": "吹上",
    "town_kana": "フキアゲ",
    "street": "１丁目１５−９０",
    "office_name": "株式会社　八戸パークホテル",
    "office_name_kana": "カブシキガイシヤ ハチノヘパ-クホテル"
  },
  "8577": {
    "postcode": "0318577",
    "prefecture": "青森県",
    "prefecture_kana": "アオモリケン",
    "prefecture_code": 2,
    "city": "八戸市",
    "city_kana": "ハチノヘシ",
    "town": "江陽",
    "town_kana": "コウヨウ",
    "street": "４丁目１０−２４",
    "office_name": "株式会社　ヤマヨ",
    "office_name_kana": "カブシキガイシヤ ヤマヨ"
  },
  "8585": {
    "postcode": "0318585",
    "prefecture": "青森県",
    "prefecture_kana": "アオモリケン",
    "prefecture_code": 2,
    "city": "八戸市",
    "city_kana": "ハチノヘシ",
    "town": "江陽",
    "town_kana": "コウヨウ",
    "street": "２丁目１４−１",
    "office_name": "ラピア　（八戸ショッピングセンター）",
    "office_name_kana": "ラピア (ハチノヘシヨツピングセンタ-)"
  },
  "8588": {
    "postcode": "0318588",
    "prefecture": "青森県",
    "prefecture_kana": "アオモリケン",
    "prefecture_code": 2,
    "city": "八戸市",
    "city_kana": "ハチノヘシ",
    "town": "大字美保野",
    "town_kana": null,
    "street": "１３−９８",
    "office_name": "八戸大学",
    "office_name_kana": "ハチノヘダイガク"
  },
  "8601": {
    "postcode": "0318601",
    "prefecture": "青森県",
    "prefecture_kana": "アオモリケン",
    "prefecture_code": 2,
    "city": "八戸市",
    "city_kana": "ハチノヘシ",
    "town": "城下",
    "town_kana": "シロシタ",
    "street": "１丁目３−１２（八戸郵便局私書箱第４０号）",
    "office_name": "株式会社　デーリー東北新聞社",
    "office_name_kana": "カブシキガイシヤ デ-リ-トウホクシンブンシヤ"
  },
  "8608": {
    "postcode": "0318608",
    "prefecture": "青森県",
    "prefecture_kana": "アオモリケン",
    "prefecture_code": 2,
    "city": "八戸市",
    "city_kana": "ハチノヘシ",
    "town": "大字河原木",
    "town_kana": null,
    "street": "字海岸１６−４（八戸郵便局私書箱第１４号）",
    "office_name": "八戸港湾運送　株式会社",
    "office_name_kana": "ハチノヘコウワンウンソウ カブシキガイシヤ"
  },
  "8611": {
    "postcode": "0318611",
    "prefecture": "青森県",
    "prefecture_kana": "アオモリケン",
    "prefecture_code": 2,
    "city": "八戸市",
    "city_kana": "ハチノヘシ",
    "town": "江陽",
    "town_kana": "コウヨウ",
    "street": "２丁目９−４５",
    "office_name": "八戸税務署",
    "office_name_kana": "ハチノヘゼイムシヨ"
  },
  "8617": {
    "postcode": "0318617",
    "prefecture": "青森県",
    "prefecture_kana": "アオモリケン",
    "prefecture_code": 2,
    "city": "八戸市",
    "city_kana": "ハチノヘシ",
    "town": "大字河原木",
    "town_kana": null,
    "street": "字遠山新田５−２（八戸郵便局私書箱第１７号）",
    "office_name": "大平洋金属　株式会社　八戸製造所",
    "office_name_kana": "タイヘイヨウキンゾク カブシキガイシヤ ハチノヘセイゾウシヨ"
  },
  "8655": {
    "postcode": "0318655",
    "prefecture": "青森県",
    "prefecture_kana": "アオモリケン",
    "prefecture_code": 2,
    "city": "八戸市",
    "city_kana": "ハチノヘシ",
    "town": "大字廿三日町",
    "town_kana": null,
    "street": "２",
    "office_name": "株式会社　吉田産業",
    "office_name_kana": "カブシキガイシヤ ヨシダサンギヨウ"
  },
  "8686": {
    "postcode": "0318686",
    "prefecture": "青森県",
    "prefecture_kana": "アオモリケン",
    "prefecture_code": 2,
    "city": "八戸市",
    "city_kana": "ハチノヘシ",
    "town": "内丸",
    "town_kana": "ウチマル",
    "street": "１丁目１−１",
    "office_name": "八戸市役所",
    "office_name_kana": "ハチノヘシヤクシヨ"
  }
}