{
  "0000": {
    "postcode": "0340000",
    "prefecture": "青森県",
    "prefecture_kana": "アオモリケン",
    "prefecture_code": 2,
    "city": "十和田市",
    "city_kana": "トワダシ",
    "town": "",
    "town_kana": "",
    "street": null,
    "office_name": null,
    "office_name_kana": null
  },
  "0001": {
    "postcode": "0340001",
    "prefecture": "青森県",
    "prefecture_kana": "アオモリケン",
    "prefecture_code": 2,
    "city": "十和田市",
    "city_kana": "トワダシ",
    "town": "三本木",
    "town_kana": "サンボンギ",
    "street": null,
    "office_name": null,
    "office_name_kana": null
  },
  "0002": {
    "postcode": "0340002",
    "prefecture": "青森県",
    "prefecture_kana": "アオモリケン",
    "prefecture_code": 2,
    "city": "十和田市",
    "city_kana": "トワダシ",
    "town": "元町西",
    "town_kana": "モトマチニシ",
    "street": null,
    "office_name": null,
    "office_name_kana": null
  },
  "0003": {
    "postcode": "0340003",
    "prefecture": "青森県",
    "prefecture_kana": "アオモリケン",
    "prefecture_code": 2,
    "city": "十和田市",
    "city_kana": "トワダシ",
    "town": "元町東",
    "town_kana": "モトマチヒガシ",
    "street": null,
    "office_name": null,
    "office_name_kana": null
  },
  "0004": {
    "postcode": "0340004",
    "prefecture": "青森県",
    "prefecture_kana": "アオモリケン",
    "prefecture_code": 2,
    "city": "十和田市",
    "city_kana": "トワダシ",
    "town": "ひがしの",
    "town_kana": "ヒガシノ",
    "street": null,
    "office_name": null,
    "office_name_kana": null
  },
  "0005": {
    "postcode": "0340005",
    "prefecture": "青森県",
    "prefecture_kana": "アオモリケン",
    "prefecture_code": 2,
    "city": "十和田市",
    "city_kana": "トワダシ",
    "town": "一本木沢",
    "town_kana": "イッポンギサワ",
    "street": null,
    "office_name": null,
    "office_name_kana": null
  },
  "0011": {
    "postcode": "0340011",
    "prefecture": "青森県",
    "prefecture_kana": "アオモリケン",
    "prefecture_code": 2,
    "city": "十和田市",
    "city_kana": "トワダシ",
    "town": "稲生町",
    "town_kana": "イナオイチョウ",
    "street": null,
    "office_name": null,
    "office_name_kana": null
  },
  "0012": {
    "postcode": "0340012",
    "prefecture": "青森県",
    "prefecture_kana": "アオモリケン",
    "prefecture_code": 2,
    "city": "十和田市",
    "city_kana": "トワダシ",
    "town": "東一番町",
    "town_kana": "ヒガシ1バンチョウ",
    "street": null,
    "office_name": null,
    "office_name_kana": null
  },
  "0013": {
    "postcode": "0340013",
    "prefecture": "青森県",
    "prefecture_kana": "アオモリケン",
    "prefecture_code": 2,
    "city": "十和田市",
    "city_kana": "トワダシ",
    "town": "東十一番町",
    "town_kana": "ヒガシ11バンチョウ",
    "street": null,
    "office_name": null,
    "office_name_kana": null
  },
  "0014": {
    "postcode": "0340014",
    "prefecture": "青森県",
    "prefecture_kana": "アオモリケン",
    "prefecture_code": 2,
    "city": "十和田市",
    "city_kana": "トワダシ",
    "town": "東二十一番町",
    "town_kana": "ヒガシ21バンチョウ",
    "street": null,
    "office_name": null,
    "office_name_kana": null
  },
  "0015": {
    "postcode": "0340015",
    "prefecture": "青森県",
    "prefecture_kana": "アオモリケン",
    "prefecture_code": 2,
    "city": "十和田市",
    "city_kana": "トワダシ",
    "town": "東二十二番町",
    "town_kana": "ヒガシ22バンチョウ",
    "street": null,
    "office_name": null,
    "office_name_kana": null
  },
  "0016": {
    "postcode": "0340016",
    "prefecture": "青森県",
    "prefecture_kana": "アオモリケン",
    "prefecture_code": 2,
    "city": "十和田市",
    "city_kana": "トワダシ",
    "town": "東十二番町",
    "town_kana": "ヒガシ12バンチョウ",
    "street": null,
    "office_name": null,
    "office_name_kana": null
  },
  "0017": {
    "postcode": "0340017",
    "prefecture": "青森県",
    "prefecture_kana": "アオモリケン",
    "prefecture_code": 2,
    "city": "十和田市",
    "city_kana": "トワダシ",
    "town": "東二番町",
    "town_kana": "ヒガシ2バンチョウ",
    "street": null,
    "office_name": null,
    "office_name_kana": null
  },
  "0021": {
    "postcode": "0340021",
    "prefecture": "青森県",
    "prefecture_kana": "アオモリケン",
    "prefecture_code": 2,
    "city": "十和田市",
    "city_kana": "トワダシ",
    "town": "東二十三番町",
    "town_kana": "ヒガシ23バンチョウ",
    "street": null,
    "office_name": null,
    "office_name_kana": null
  },
  "0022": {
    "postcode": "0340022",
    "prefecture": "青森県",
    "prefecture_kana": "アオモリケン",
    "prefecture_code": 2,
    "city": "十和田市",
    "city_kana": "トワダシ",
    "town": "東二十四番町",
    "town_kana": "ヒガシ24バンチョウ",
    "street": null,
    "office_name": null,
    "office_name_kana": null
  },
  "0023": {
    "postcode": "0340023",
    "prefecture": "青森県",
    "prefecture_kana": "アオモリケン",
    "prefecture_code": 2,
    "city": "十和田市",
    "city_kana": "トワダシ",
    "town": "東十三番町",
    "town_kana": "ヒガシ13バンチョウ",
    "street": null,
    "office_name": null,
    "office_name_kana": null
  },
  "0024": {
    "postcode": "0340024",
    "prefecture": "青森県",
    "prefecture_kana": "アオモリケン",
    "prefecture_code": 2,
    "city": "十和田市",
    "city_kana": "トワダシ",
    "town": "東十四番町",
    "town_kana": "ヒガシ14バンチョウ",
    "street": null,
    "office_name": null,
    "office_name_kana": null
  },
  "0031": {
    "postcode": "0340031",
    "prefecture": "青森県",
    "prefecture_kana": "アオモリケン",
    "prefecture_code": 2,
    "city": "十和田市",
    "city_kana": "トワダシ",
    "town": "東三番町",
    "town_kana": "ヒガシ3バンチョウ",
    "street": null,
    "office_name": null,
    "office_name_kana": null
  },
  "0032": {
    "postcode": "0340032",
    "prefecture": "青森県",
    "prefecture_kana": "アオモリケン",
    "prefecture_code": 2,
    "city": "十和田市",
    "city_kana": "トワダシ",
    "town": "東四番町",
    "town_kana": "ヒガシ4バンチョウ",
    "street": null,
    "office_name": null,
    "office_name_kana": null
  },
  "0033": {
    "postcode": "0340033",
    "prefecture": "青森県",
    "prefecture_kana": "アオモリケン",
    "prefecture_code": 2,
    "city": "十和田市",
    "city_kana": "トワダシ",
    "town": "東五番町",
    "town_kana": "ヒガシ5バンチョウ",
    "street": null,
    "office_name": null,
    "office_name_kana": null
  },
  "0034": {
    "postcode": "0340034",
    "prefecture": "青森県",
    "prefecture_kana": "アオモリケン",
    "prefecture_code": 2,
    "city": "十和田市",
    "city_kana": "トワダシ",
    "town": "東十五番町",
    "town_kana": "ヒガシ15バンチョウ",
    "street": null,
    "office_name": null,
    "office_name_kana": null
  },
  "0035": {
    "postcode": "0340035",
    "prefecture": "青森県",
    "prefecture_kana": "アオモリケン",
    "prefecture_code": 2,
    "city": "十和田市",
    "city_kana": "トワダシ",
    "town": "東十六番町",
    "town_kana": "ヒガシ16バンチョウ",
    "street": null,
    "office_name": null,
    "office_name_kana": null
  },
  "0036": {
    "postcode": "0340036",
    "prefecture": "青森県",
    "prefecture_kana": "アオモリケン",
    "prefecture_code": 2,
    "city": "十和田市",
    "city_kana": "トワダシ",
    "town": "東六番町",
    "town_kana": "ヒガシ6バンチョウ",
    "street": null,
    "office_name": null,
    "office_name_kana": null
  },
  "0037": {
    "postcode": "0340037",
    "prefecture": "青森県",
    "prefecture_kana": "アオモリケン",
    "prefecture_code": 2,
    "city": "十和田市",
    "city_kana": "トワダシ",
    "town": "穂並町",
    "town_kana": "ホナミチョウ",
    "street": null,
    "office_name": null,
    "office_name_kana": null
  },
  "0038": {
    "postcode": "0340038",
    "prefecture": "青森県",
    "prefecture_kana": "アオモリケン",
    "prefecture_code": 2,
    "city": "十和田市",
    "city_kana": "トワダシ",
    "town": "西六番町",
    "town_kana": "ニシ6バンチョウ",
    "street": null,
    "office_name": null,
    "office_name_kana": null
  },
  "0041": {
    "postcode": "0340041",
    "prefecture": "青森県",
    "prefecture_kana": "アオモリケン",
    "prefecture_code": 2,
    "city": "十和田市",
    "city_kana": "トワダシ",
    "town": "相坂",
    "town_kana": "オウサカ",
    "street": null,
    "office_name": null,
    "office_name_kana": null
  },
  "0051": {
    "postcode": "0340051",
    "prefecture": "青森県",
    "prefecture_kana": "アオモリケン",
    "prefecture_code": 2,
    "city": "十和田市",
    "city_kana": "トワダシ",
    "town": "伝法寺",
    "town_kana": "デンポウジ",
    "street": null,
    "office_name": null,
    "office_name_kana": null
  },
  "0052": {
    "postcode": "0340052",
    "prefecture": "青森県",
    "prefecture_kana": "アオモリケン",
    "prefecture_code": 2,
    "city": "十和田市",
    "city_kana": "トワダシ",
    "town": "藤島",
    "town_kana": "フジシマ",
    "street": null,
    "office_name": null,
    "office_name_kana": null
  },
  "0061": {
    "postcode": "0340061",
    "prefecture": "青森県",
    "prefecture_kana": "アオモリケン",
    "prefecture_code": 2,
    "city": "十和田市",
    "city_kana": "トワダシ",
    "town": "切田",
    "town_kana": "キリダ",
    "street": null,
    "office_name": null,
    "office_name_kana": null
  },
  "0071": {
    "postcode": "0340071",
    "prefecture": "青森県",
    "prefecture_kana": "アオモリケン",
    "prefecture_code": 2,
    "city": "十和田市",
    "city_kana": "トワダシ",
    "town": "赤沼",
    "town_kana": "アカヌマ",
    "street": null,
    "office_name": null,
    "office_name_kana": null
  },
  "0081": {
    "postcode": "0340081",
    "prefecture": "青森県",
    "prefecture_kana": "アオモリケン",
    "prefecture_code": 2,
    "city": "十和田市",
    "city_kana": "トワダシ",
    "town": "西十三番町",
    "town_kana": "ニシ13バンチョウ",
    "street": null,
    "office_name": null,
    "office_name_kana": null
  },
  "0082": {
    "postcode": "0340082",
    "prefecture": "青森県",
    "prefecture_kana": "アオモリケン",
    "prefecture_code": 2,
    "city": "十和田市",
    "city_kana": "トワダシ",
    "town": "西二番町",
    "town_kana": "ニシ2バンチョウ",
    "street": null,
    "office_name": null,
    "office_name_kana": null
  },
  "0083": {
    "postcode": "0340083",
    "prefecture": "青森県",
    "prefecture_kana": "アオモリケン",
    "prefecture_code": 2,
    "city": "十和田市",
    "city_kana": "トワダシ",
    "town": "西三番町",
    "town_kana": "ニシ3バンチョウ",
    "street": null,
    "office_name": null,
    "office_name_kana": null
  },
  "0084": {
    "postcode": "0340084",
    "prefecture": "青森県",
    "prefecture_kana": "アオモリケン",
    "prefecture_code": 2,
    "city": "十和田市",
    "city_kana": "トワダシ",
    "town": "西四番町",
    "town_kana": "ニシ4バンチョウ",
    "street": null,
    "office_name": null,
    "office_name_kana": null
  },
  "0085": {
    "postcode": "0340085",
    "prefecture": "青森県",
    "prefecture_kana": "アオモリケン",
    "prefecture_code": 2,
    "city": "十和田市",
    "city_kana": "トワダシ",
    "town": "西五番町",
    "town_kana": "ニシ5バンチョウ",
    "street": null,
    "office_name": null,
    "office_name_kana": null
  },
  "0086": {
    "postcode": "0340086",
    "prefecture": "青森県",
    "prefecture_kana": "アオモリケン",
    "prefecture_code": 2,
    "city": "十和田市",
    "city_kana": "トワダシ",
    "town": "西十六番町",
    "town_kana": "ニシ16バンチョウ",
    "street": null,
    "office_name": null,
    "office_name_kana": null
  },
  "0087": {
    "postcode": "0340087",
    "prefecture": "青森県",
    "prefecture_kana": "アオモリケン",
    "prefecture_code": 2,
    "city": "十和田市",
    "city_kana": "トワダシ",
    "town": "西十五番町",
    "town_kana": "ニシ15バンチョウ",
    "street": null,
    "office_name": null,
    "office_name_kana": null
  },
  "0088": {
    "postcode": "0340088",
    "prefecture": "青森県",
    "prefecture_kana": "アオモリケン",
    "prefecture_code": 2,
    "city": "十和田市",
    "city_kana": "トワダシ",
    "town": "西十四番町",
    "town_kana": "ニシ14バンチョウ",
    "street": null,
    "office_name": null,
    "office_name_kana": null
  },
  "0089": {
    "postcode": "0340089",
    "prefecture": "青森県",
    "prefecture_kana": "アオモリケン",
    "prefecture_code": 2,
    "city": "十和田市",
    "city_kana": "トワダシ",
    "town": "西二十三番町",
    "town_kana": "ニシ23バンチョウ",
    "street": null,
    "office_name": null,
    "office_name_kana": null
  },
  "0091": {
    "postcode": "0340091",
    "prefecture": "青森県",
    "prefecture_kana": "アオモリケン",
    "prefecture_code": 2,
    "city": "十和田市",
    "city_kana": "トワダシ",
    "town": "西十一番町",
    "town_kana": "ニシ11バンチョウ",
    "street": null,
    "office_name": null,
    "office_name_kana": null
  },
  "0092": {
    "postcode": "0340092",
    "prefecture": "青森県",
    "prefecture_kana": "アオモリケン",
    "prefecture_code": 2,
    "city": "十和田市",
    "city_kana": "トワダシ",
    "town": "西一番町",
    "town_kana": "ニシ1バンチョウ",
    "street": null,
    "office_name": null,
    "office_name_kana": null
  },
  "0093": {
    "postcode": "0340093",
    "prefecture": "青森県",
    "prefecture_kana": "アオモリケン",
    "prefecture_code": 2,
    "city": "十和田市",
    "city_kana": "トワダシ",
    "town": "西十二番町",
    "town_kana": "ニシ12バンチョウ",
    "street": null,
    "office_name": null,
    "office_name_kana": null
  },
  "0094": {
    "postcode": "0340094",
    "prefecture": "青森県",
    "prefecture_kana": "アオモリケン",
    "prefecture_code": 2,
    "city": "十和田市",
    "city_kana": "トワダシ",
    "town": "西二十二番町",
    "town_kana": "ニシ22バンチョウ",
    "street": null,
    "office_name": null,
    "office_name_kana": null
  },
  "0095": {
    "postcode": "0340095",
    "prefecture": "青森県",
    "prefecture_kana": "アオモリケン",
    "prefecture_code": 2,
    "city": "十和田市",
    "city_kana": "トワダシ",
    "town": "西二十一番町",
    "town_kana": "ニシ21バンチョウ",
    "street": null,
    "office_name": null,
    "office_name_kana": null
  },
  "0101": {
    "postcode": "0340101",
    "prefecture": "青森県",
    "prefecture_kana": "アオモリケン",
    "prefecture_code": 2,
    "city": "十和田市",
    "city_kana": "トワダシ",
    "town": "馬洗場",
    "town_kana": "ウマアライバ",
    "street": null,
    "office_name": null,
    "office_name_kana": null
  },
  "0102": {
    "postcode": "0340102",
    "prefecture": "青森県",
    "prefecture_kana": "アオモリケン",
    "prefecture_code": 2,
    "city": "十和田市",
    "city_kana": "トワダシ",
    "town": "大沢田",
    "town_kana": "オオサワダ",
    "street": null,
    "office_name": null,
    "office_name_kana": null
  },
  "0103": {
    "postcode": "0340103",
    "prefecture": "青森県",
    "prefecture_kana": "アオモリケン",
    "prefecture_code": 2,
    "city": "十和田市",
    "city_kana": "トワダシ",
    "town": "立崎",
    "town_kana": "タチザキ",
    "street": null,
    "office_name": null,
    "office_name_kana": null
  },
  "0104": {
    "postcode": "0340104",
    "prefecture": "青森県",
    "prefecture_kana": "アオモリケン",
    "prefecture_code": 2,
    "city": "十和田市",
    "city_kana": "トワダシ",
    "town": "豊ケ岡",
    "town_kana": "トヨガオカ",
    "street": null,
    "office_name": null,
    "office_name_kana": null
  },
  "0105": {
    "postcode": "0340105",
    "prefecture": "青森県",
    "prefecture_kana": "アオモリケン",
    "prefecture_code": 2,
    "city": "十和田市",
    "city_kana": "トワダシ",
    "town": "八斗沢",
    "town_kana": "ハットザワ",
    "street": null,
    "office_name": null,
    "office_name_kana": null
  },
  "0106": {
    "postcode": "0340106",
    "prefecture": "青森県",
    "prefecture_kana": "アオモリケン",
    "prefecture_code": 2,
    "city": "十和田市",
    "city_kana": "トワダシ",
    "town": "深持",
    "town_kana": "フカモチ",
    "street": null,
    "office_name": null,
    "office_name_kana": null
  },
  "0107": {
    "postcode": "0340107",
    "prefecture": "青森県",
    "prefecture_kana": "アオモリケン",
    "prefecture_code": 2,
    "city": "十和田市",
    "city_kana": "トワダシ",
    "town": "洞内",
    "town_kana": "ホラナイ",
    "street": null,
    "office_name": null,
    "office_name_kana": null
  },
  "0211": {
    "postcode": "0340211",
    "prefecture": "青森県",
    "prefecture_kana": "アオモリケン",
    "prefecture_code": 2,
    "city": "十和田市",
    "city_kana": "トワダシ",
    "town": "大不動",
    "town_kana": "オオフドウ",
    "street": null,
    "office_name": null,
    "office_name_kana": null
  },
  "0212": {
    "postcode": "0340212",
    "prefecture": "青森県",
    "prefecture_kana": "アオモリケン",
    "prefecture_code": 2,
    "city": "十和田市",
    "city_kana": "トワダシ",
    "town": "米田",
    "town_kana": "マイタ",
    "street": null,
    "office_name": null,
    "office_name_kana": null
  },
  "0213": {
    "postcode": "0340213",
    "prefecture": "青森県",
    "prefecture_kana": "アオモリケン",
    "prefecture_code": 2,
    "city": "十和田市",
    "city_kana": "トワダシ",
    "town": "滝沢",
    "town_kana": "タキサワ",
    "street": null,
    "office_name": null,
    "office_name_kana": null
  },
  "0301": {
    "postcode": "0340301",
    "prefecture": "青森県",
    "prefecture_kana": "アオモリケン",
    "prefecture_code": 2,
    "city": "十和田市",
    "city_kana": "トワダシ",
    "town": "奥瀬",
    "town_kana": "オクセ",
    "street": null,
    "office_name": null,
    "office_name_kana": null
  },
  "0302": {
    "postcode": "0340302",
    "prefecture": "青森県",
    "prefecture_kana": "アオモリケン",
    "prefecture_code": 2,
    "city": "十和田市",
    "city_kana": "トワダシ",
    "town": "沢田",
    "town_kana": "サワダ",
    "street": null,
    "office_name": null,
    "office_name_kana": null
  },
  "0303": {
    "postcode": "0340303",
    "prefecture": "青森県",
    "prefecture_kana": "アオモリケン",
    "prefecture_code": 2,
    "city": "十和田市",
    "city_kana": "トワダシ",
    "town": "法量",
    "town_kana": "ホウリョウ",
    "street": null,
    "office_name": null,
    "office_name_kana": null
  },
  "0392": {
    "postcode": "0340392",
    "prefecture": "青森県",
    "prefecture_kana": "アオモリケン",
    "prefecture_code": 2,
    "city": "十和田市",
    "city_kana": "トワダシ",
    "town": "奥瀬",
    "town_kana": "オクセ",
    "street": "字中平７０−３",
    "office_name": "十和田市役所　十和田湖支所",
    "office_name_kana": "トワダシヤクシヨ トワダコシシヨ"
  },
  "0393": {
    "postcode": "0340393",
    "prefecture": "青森県",
    "prefecture_kana": "アオモリケン",
    "prefecture_code": 2,
    "city": "十和田市",
    "city_kana": "トワダシ",
    "town": "奥瀬",
    "town_kana": "オクセ",
    "street": "字堰道１６番地１",
    "office_name": "八甲田農業協同組合　十和田湖支店",
    "office_name_kana": "ハツコウダノウギヨウキヨウドウクミアイ トワダコシテン"
  },
  "0398": {
    "postcode": "0340398",
    "prefecture": "青森県",
    "prefecture_kana": "アオモリケン",
    "prefecture_code": 2,
    "city": "十和田市",
    "city_kana": "トワダシ",
    "town": "奥瀬",
    "town_kana": "オクセ",
    "street": "字栃久保２３１",
    "office_name": "奥入瀬渓流グランドホテル",
    "office_name_kana": "オイラセケイリユウグランドホテル"
  },
  "8565": {
    "postcode": "0348565",
    "prefecture": "青森県",
    "prefecture_kana": "アオモリケン",
    "prefecture_code": 2,
    "city": "十和田市",
    "city_kana": "トワダシ",
    "town": "西三番町",
    "town_kana": "ニシ3バンチョウ",
    "street": "７番１号",
    "office_name": "東北電力ネットワーク　株式会社　十和田電力センター",
    "office_name_kana": "トウホクデンリヨクネツトワ-ク カブシキガイシヤ トワダデンリヨクセンタ-"
  },
  "8578": {
    "postcode": "0348578",
    "prefecture": "青森県",
    "prefecture_kana": "アオモリケン",
    "prefecture_code": 2,
    "city": "十和田市",
    "city_kana": "トワダシ",
    "town": "大字相坂",
    "town_kana": null,
    "street": "字高清水７８−９２",
    "office_name": "青森県立　三本木農業高等学校",
    "office_name_kana": "アオモリケンリツ サンボンギノウギヨウコウトウガツコウ"
  },
  "8605": {
    "postcode": "0348605",
    "prefecture": "青森県",
    "prefecture_kana": "アオモリケン",
    "prefecture_code": 2,
    "city": "十和田市",
    "city_kana": "トワダシ",
    "town": "稲生町",
    "town_kana": "イナオイチョウ",
    "street": "１５−１（十和田郵便局私書箱第５号）",
    "office_name": "株式会社　青森銀行　十和田支店",
    "office_name_kana": "カブシキガイシヤ アオモリギンコウ トワダシテン"
  },
  "8613": {
    "postcode": "0348613",
    "prefecture": "青森県",
    "prefecture_kana": "アオモリケン",
    "prefecture_code": 2,
    "city": "十和田市",
    "city_kana": "トワダシ",
    "town": "西二番町",
    "town_kana": "ニシ2バンチョウ",
    "street": "１４−１２十和田奥入瀬合同庁舎",
    "office_name": "十和田税務署",
    "office_name_kana": "トワダゼイムシヨ"
  },
  "8615": {
    "postcode": "0348615",
    "prefecture": "青森県",
    "prefecture_kana": "アオモリケン",
    "prefecture_code": 2,
    "city": "十和田市",
    "city_kana": "トワダシ",
    "town": "西十二番町",
    "town_kana": "ニシ12バンチョウ",
    "street": "６−１（十和田郵便局私書箱第１５号）",
    "office_name": "十和田市役所",
    "office_name_kana": "トワダシヤクシヨ"
  },
  "8618": {
    "postcode": "0348618",
    "prefecture": "青森県",
    "prefecture_kana": "アオモリケン",
    "prefecture_code": 2,
    "city": "十和田市",
    "city_kana": "トワダシ",
    "town": "大字三本木",
    "town_kana": null,
    "street": "字里ノ沢１−２５９（十和田郵便局私書箱第１８号）",
    "office_name": "株式会社　ササキコーポレーション",
    "office_name_kana": "カブシキガイシヤ ササキコ-ポレ-シヨン"
  },
  "8628": {
    "postcode": "0348628",
    "prefecture": "青森県",
    "prefecture_kana": "アオモリケン",
    "prefecture_code": 2,
    "city": "十和田市",
    "city_kana": "トワダシ",
    "town": "東二十三番町",
    "town_kana": "ヒガシ23バンチョウ",
    "street": "３５−１（十和田郵便局私書箱第２８号）",
    "office_name": "北里大学　獣医畜産学部",
    "office_name_kana": "キタサトダイガク ジユウイチクサンガクブ"
  }
}