{
  "0000": {
    "postcode": "0370000",
    "prefecture": "青森県",
    "prefecture_kana": "アオモリケン",
    "prefecture_code": 2,
    "city": "五所川原市",
    "city_kana": "ゴショガワラシ",
    "town": "",
    "town_kana": "",
    "street": null,
    "office_name": null,
    "office_name_kana": null
  },
  "0001": {
    "postcode": "0370001",
    "prefecture": "青森県",
    "prefecture_kana": "アオモリケン",
    "prefecture_code": 2,
    "city": "五所川原市",
    "city_kana": "ゴショガワラシ",
    "town": "下岩崎",
    "town_kana": "シモイワサキ",
    "street": null,
    "office_name": null,
    "office_name_kana": null
  },
  "0002": {
    "postcode": "0370002",
    "prefecture": "青森県",
    "prefecture_kana": "アオモリケン",
    "prefecture_code": 2,
    "city": "五所川原市",
    "city_kana": "ゴショガワラシ",
    "town": "飯詰",
    "town_kana": "イイヅメ",
    "street": null,
    "office_name": null,
    "office_name_kana": null
  },
  "0003": {
    "postcode": "0370003",
    "prefecture": "青森県",
    "prefecture_kana": "アオモリケン",
    "prefecture_code": 2,
    "city": "五所川原市",
    "city_kana": "ゴショガワラシ",
    "town": "吹畑",
    "town_kana": "フキハタ",
    "street": null,
    "office_name": null,
    "office_name_kana": null
  },
  "0004": {
    "postcode": "0370004",
    "prefecture": "青森県",
    "prefecture_kana": "アオモリケン",
    "prefecture_code": 2,
    "city": "五所川原市",
    "city_kana": "ゴショガワラシ",
    "town": "唐笠柳",
    "town_kana": "カラカサヤナギ",
    "street": null,
    "office_name": null,
    "office_name_kana": null
  },
  "0005": {
    "postcode": "0370005",
    "prefecture": "青森県",
    "prefecture_kana": "アオモリケン",
    "prefecture_code": 2,
    "city": "五所川原市",
    "city_kana": "ゴショガワラシ",
    "town": "石岡",
    "town_kana": "イシオカ",
    "street": null,
    "office_name": null,
    "office_name_kana": null
  },
  "0006": {
    "postcode": "0370006",
    "prefecture": "青森県",
    "prefecture_kana": "アオモリケン",
    "prefecture_code": 2,
    "city": "五所川原市",
    "city_kana": "ゴショガワラシ",
    "town": "松島町",
    "town_kana": "マツシマチョウ",
    "street": null,
    "office_name": null,
    "office_name_kana": null
  },
  "0011": {
    "postcode": "0370011",
    "prefecture": "青森県",
    "prefecture_kana": "アオモリケン",
    "prefecture_code": 2,
    "city": "五所川原市",
    "city_kana": "ゴショガワラシ",
    "town": "金山",
    "town_kana": "カネヤマ",
    "street": null,
    "office_name": null,
    "office_name_kana": null
  },
  "0012": {
    "postcode": "0370012",
    "prefecture": "青森県",
    "prefecture_kana": "アオモリケン",
    "prefecture_code": 2,
    "city": "五所川原市",
    "city_kana": "ゴショガワラシ",
    "town": "水野尾",
    "town_kana": "ミズノオ",
    "street": null,
    "office_name": null,
    "office_name_kana": null
  },
  "0013": {
    "postcode": "0370013",
    "prefecture": "青森県",
    "prefecture_kana": "アオモリケン",
    "prefecture_code": 2,
    "city": "五所川原市",
    "city_kana": "ゴショガワラシ",
    "town": "米田",
    "town_kana": "ヨネタ",
    "street": null,
    "office_name": null,
    "office_name_kana": null
  },
  "0014": {
    "postcode": "0370014",
    "prefecture": "青森県",
    "prefecture_kana": "アオモリケン",
    "prefecture_code": 2,
    "city": "五所川原市",
    "city_kana": "ゴショガワラシ",
    "town": "稲実",
    "town_kana": "イナミ",
    "street": null,
    "office_name": null,
    "office_name_kana": null
  },
  "0015": {
    "postcode": "0370015",
    "prefecture": "青森県",
    "prefecture_kana": "アオモリケン",
    "prefecture_code": 2,
    "city": "五所川原市",
    "city_kana": "ゴショガワラシ",
    "town": "姥萢",
    "town_kana": "ウバヤチ",
    "street": null,
    "office_name": null,
    "office_name_kana": null
  },
  "0016": {
    "postcode": "0370016",
    "prefecture": "青森県",
    "prefecture_kana": "アオモリケン",
    "prefecture_code": 2,
    "city": "五所川原市",
    "city_kana": "ゴショガワラシ",
    "town": "一ツ谷",
    "town_kana": "ヒトツヤ",
    "street": null,
    "office_name": null,
    "office_name_kana": null
  },
  "0017": {
    "postcode": "0370017",
    "prefecture": "青森県",
    "prefecture_kana": "アオモリケン",
    "prefecture_code": 2,
    "city": "五所川原市",
    "city_kana": "ゴショガワラシ",
    "town": "漆川",
    "town_kana": "ウルシカワ",
    "street": null,
    "office_name": null,
    "office_name_kana": null
  },
  "0021": {
    "postcode": "0370021",
    "prefecture": "青森県",
    "prefecture_kana": "アオモリケン",
    "prefecture_code": 2,
    "city": "五所川原市",
    "city_kana": "ゴショガワラシ",
    "town": "中泉",
    "town_kana": "ナカイズミ",
    "street": null,
    "office_name": null,
    "office_name_kana": null
  },
  "0022": {
    "postcode": "0370022",
    "prefecture": "青森県",
    "prefecture_kana": "アオモリケン",
    "prefecture_code": 2,
    "city": "五所川原市",
    "city_kana": "ゴショガワラシ",
    "town": "梅田",
    "town_kana": "ウメタ",
    "street": null,
    "office_name": null,
    "office_name_kana": null
  },
  "0023": {
    "postcode": "0370023",
    "prefecture": "青森県",
    "prefecture_kana": "アオモリケン",
    "prefecture_code": 2,
    "city": "五所川原市",
    "city_kana": "ゴショガワラシ",
    "town": "広田",
    "town_kana": "ヒロタ",
    "street": null,
    "office_name": null,
    "office_name_kana": null
  },
  "0024": {
    "postcode": "0370024",
    "prefecture": "青森県",
    "prefecture_kana": "アオモリケン",
    "prefecture_code": 2,
    "city": "五所川原市",
    "city_kana": "ゴショガワラシ",
    "town": "みどり町",
    "town_kana": "ミドリチョウ",
    "street": null,
    "office_name": null,
    "office_name_kana": null
  },
  "0025": {
    "postcode": "0370025",
    "prefecture": "青森県",
    "prefecture_kana": "アオモリケン",
    "prefecture_code": 2,
    "city": "五所川原市",
    "city_kana": "ゴショガワラシ",
    "town": "七ツ館",
    "town_kana": "ナナツダテ",
    "street": null,
    "office_name": null,
    "office_name_kana": null
  },
  "0032": {
    "postcode": "0370032",
    "prefecture": "青森県",
    "prefecture_kana": "アオモリケン",
    "prefecture_code": 2,
    "city": "五所川原市",
    "city_kana": "ゴショガワラシ",
    "town": "烏森",
    "town_kana": "カラスモリ",
    "street": null,
    "office_name": null,
    "office_name_kana": null
  },
  "0033": {
    "postcode": "0370033",
    "prefecture": "青森県",
    "prefecture_kana": "アオモリケン",
    "prefecture_code": 2,
    "city": "五所川原市",
    "city_kana": "ゴショガワラシ",
    "town": "鎌谷町",
    "town_kana": "カマヤチョウ",
    "street": null,
    "office_name": null,
    "office_name_kana": null
  },
  "0034": {
    "postcode": "0370034",
    "prefecture": "青森県",
    "prefecture_kana": "アオモリケン",
    "prefecture_code": 2,
    "city": "五所川原市",
    "city_kana": "ゴショガワラシ",
    "town": "八重菊",
    "town_kana": "ヤエギク",
    "street": null,
    "office_name": null,
    "office_name_kana": null
  },
  "0035": {
    "postcode": "0370035",
    "prefecture": "青森県",
    "prefecture_kana": "アオモリケン",
    "prefecture_code": 2,
    "city": "五所川原市",
    "city_kana": "ゴショガワラシ",
    "town": "湊",
    "town_kana": "ミナト",
    "street": null,
    "office_name": null,
    "office_name_kana": null
  },
  "0036": {
    "postcode": "0370036",
    "prefecture": "青森県",
    "prefecture_kana": "アオモリケン",
    "prefecture_code": 2,
    "city": "五所川原市",
    "city_kana": "ゴショガワラシ",
    "town": "中央",
    "town_kana": "チュウオウ",
    "street": null,
    "office_name": null,
    "office_name_kana": null
  },
  "0041": {
    "postcode": "0370041",
    "prefecture": "青森県",
    "prefecture_kana": "アオモリケン",
    "prefecture_code": 2,
    "city": "五所川原市",
    "city_kana": "ゴショガワラシ",
    "town": "田町",
    "town_kana": "タマチ",
    "street": null,
    "office_name": null,
    "office_name_kana": null
  },
  "0042": {
    "postcode": "0370042",
    "prefecture": "青森県",
    "prefecture_kana": "アオモリケン",
    "prefecture_code": 2,
    "city": "五所川原市",
    "city_kana": "ゴショガワラシ",
    "town": "不魚住",
    "town_kana": "ウオスマズ",
    "street": null,
    "office_name": null,
    "office_name_kana": null
  },
  "0043": {
    "postcode": "0370043",
    "prefecture": "青森県",
    "prefecture_kana": "アオモリケン",
    "prefecture_code": 2,
    "city": "五所川原市",
    "city_kana": "ゴショガワラシ",
    "town": "蓮沼",
    "town_kana": "ハスヌマ",
    "street": null,
    "office_name": null,
    "office_name_kana": null
  },
  "0044": {
    "postcode": "0370044",
    "prefecture": "青森県",
    "prefecture_kana": "アオモリケン",
    "prefecture_code": 2,
    "city": "五所川原市",
    "city_kana": "ゴショガワラシ",
    "town": "元町",
    "town_kana": "モトマチ",
    "street": null,
    "office_name": null,
    "office_name_kana": null
  },
  "0045": {
    "postcode": "0370045",
    "prefecture": "青森県",
    "prefecture_kana": "アオモリケン",
    "prefecture_code": 2,
    "city": "五所川原市",
    "city_kana": "ゴショガワラシ",
    "town": "新町",
    "town_kana": "シンマチ",
    "street": null,
    "office_name": null,
    "office_name_kana": null
  },
  "0046": {
    "postcode": "0370046",
    "prefecture": "青森県",
    "prefecture_kana": "アオモリケン",
    "prefecture_code": 2,
    "city": "五所川原市",
    "city_kana": "ゴショガワラシ",
    "town": "栄町",
    "town_kana": "サカエマチ",
    "street": null,
    "office_name": null,
    "office_name_kana": null
  },
  "0051": {
    "postcode": "0370051",
    "prefecture": "青森県",
    "prefecture_kana": "アオモリケン",
    "prefecture_code": 2,
    "city": "五所川原市",
    "city_kana": "ゴショガワラシ",
    "town": "弥生町",
    "town_kana": "ヤヨイチョウ",
    "street": null,
    "office_name": null,
    "office_name_kana": null
  },
  "0052": {
    "postcode": "0370052",
    "prefecture": "青森県",
    "prefecture_kana": "アオモリケン",
    "prefecture_code": 2,
    "city": "五所川原市",
    "city_kana": "ゴショガワラシ",
    "town": "東町",
    "town_kana": "アズマチョウ",
    "street": null,
    "office_name": null,
    "office_name_kana": null
  },
  "0053": {
    "postcode": "0370053",
    "prefecture": "青森県",
    "prefecture_kana": "アオモリケン",
    "prefecture_code": 2,
    "city": "五所川原市",
    "city_kana": "ゴショガワラシ",
    "town": "布屋町",
    "town_kana": "ヌノヤチョウ",
    "street": null,
    "office_name": null,
    "office_name_kana": null
  },
  "0054": {
    "postcode": "0370054",
    "prefecture": "青森県",
    "prefecture_kana": "アオモリケン",
    "prefecture_code": 2,
    "city": "五所川原市",
    "city_kana": "ゴショガワラシ",
    "town": "上平井町",
    "town_kana": "カミヒライマチ",
    "street": null,
    "office_name": null,
    "office_name_kana": null
  },
  "0055": {
    "postcode": "0370055",
    "prefecture": "青森県",
    "prefecture_kana": "アオモリケン",
    "prefecture_code": 2,
    "city": "五所川原市",
    "city_kana": "ゴショガワラシ",
    "town": "柏原町",
    "town_kana": "カシワバラチョウ",
    "street": null,
    "office_name": null,
    "office_name_kana": null
  },
  "0056": {
    "postcode": "0370056",
    "prefecture": "青森県",
    "prefecture_kana": "アオモリケン",
    "prefecture_code": 2,
    "city": "五所川原市",
    "city_kana": "ゴショガワラシ",
    "town": "末広町",
    "town_kana": "スエヒロチョウ",
    "street": null,
    "office_name": null,
    "office_name_kana": null
  },
  "0057": {
    "postcode": "0370057",
    "prefecture": "青森県",
    "prefecture_kana": "アオモリケン",
    "prefecture_code": 2,
    "city": "五所川原市",
    "city_kana": "ゴショガワラシ",
    "town": "幾島町",
    "town_kana": "イクシマチョウ",
    "street": null,
    "office_name": null,
    "office_name_kana": null
  },
  "0058": {
    "postcode": "0370058",
    "prefecture": "青森県",
    "prefecture_kana": "アオモリケン",
    "prefecture_code": 2,
    "city": "五所川原市",
    "city_kana": "ゴショガワラシ",
    "town": "錦町",
    "town_kana": "ニシキチョウ",
    "street": null,
    "office_name": null,
    "office_name_kana": null
  },
  "0061": {
    "postcode": "0370061",
    "prefecture": "青森県",
    "prefecture_kana": "アオモリケン",
    "prefecture_code": 2,
    "city": "五所川原市",
    "city_kana": "ゴショガワラシ",
    "town": "雛田",
    "town_kana": "ヒナタ",
    "street": null,
    "office_name": null,
    "office_name_kana": null
  },
  "0062": {
    "postcode": "0370062",
    "prefecture": "青森県",
    "prefecture_kana": "アオモリケン",
    "prefecture_code": 2,
    "city": "五所川原市",
    "city_kana": "ゴショガワラシ",
    "town": "旭町",
    "town_kana": "アサヒチョウ",
    "street": null,
    "office_name": null,
    "office_name_kana": null
  },
  "0063": {
    "postcode": "0370063",
    "prefecture": "青森県",
    "prefecture_kana": "アオモリケン",
    "prefecture_code": 2,
    "city": "五所川原市",
    "city_kana": "ゴショガワラシ",
    "town": "大町",
    "town_kana": "オオマチ",
    "street": null,
    "office_name": null,
    "office_name_kana": null
  },
  "0064": {
    "postcode": "0370064",
    "prefecture": "青森県",
    "prefecture_kana": "アオモリケン",
    "prefecture_code": 2,
    "city": "五所川原市",
    "city_kana": "ゴショガワラシ",
    "town": "下平井町",
    "town_kana": "シモヒライマチ",
    "street": null,
    "office_name": null,
    "office_name_kana": null
  },
  "0065": {
    "postcode": "0370065",
    "prefecture": "青森県",
    "prefecture_kana": "アオモリケン",
    "prefecture_code": 2,
    "city": "五所川原市",
    "city_kana": "ゴショガワラシ",
    "town": "幾世森",
    "town_kana": "イクセモリ",
    "street": null,
    "office_name": null,
    "office_name_kana": null
  },
  "0066": {
    "postcode": "0370066",
    "prefecture": "青森県",
    "prefecture_kana": "アオモリケン",
    "prefecture_code": 2,
    "city": "五所川原市",
    "city_kana": "ゴショガワラシ",
    "town": "中平井町",
    "town_kana": "ナカヒライマチ",
    "street": null,
    "office_name": null,
    "office_name_kana": null
  },
  "0067": {
    "postcode": "0370067",
    "prefecture": "青森県",
    "prefecture_kana": "アオモリケン",
    "prefecture_code": 2,
    "city": "五所川原市",
    "city_kana": "ゴショガワラシ",
    "town": "敷島町",
    "town_kana": "シキシマチョウ",
    "street": null,
    "office_name": null,
    "office_name_kana": null
  },
  "0068": {
    "postcode": "0370068",
    "prefecture": "青森県",
    "prefecture_kana": "アオモリケン",
    "prefecture_code": 2,
    "city": "五所川原市",
    "city_kana": "ゴショガワラシ",
    "town": "長橋",
    "town_kana": "ナガハシ",
    "street": null,
    "office_name": null,
    "office_name_kana": null
  },
  "0069": {
    "postcode": "0370069",
    "prefecture": "青森県",
    "prefecture_kana": "アオモリケン",
    "prefecture_code": 2,
    "city": "五所川原市",
    "city_kana": "ゴショガワラシ",
    "town": "若葉",
    "town_kana": "ワカバ",
    "street": null,
    "office_name": null,
    "office_name_kana": null
  },
  "0071": {
    "postcode": "0370071",
    "prefecture": "青森県",
    "prefecture_kana": "アオモリケン",
    "prefecture_code": 2,
    "city": "五所川原市",
    "city_kana": "ゴショガワラシ",
    "town": "本町",
    "town_kana": "ホンチョウ",
    "street": null,
    "office_name": null,
    "office_name_kana": null
  },
  "0072": {
    "postcode": "0370072",
    "prefecture": "青森県",
    "prefecture_kana": "アオモリケン",
    "prefecture_code": 2,
    "city": "五所川原市",
    "city_kana": "ゴショガワラシ",
    "town": "川端町",
    "town_kana": "カワバタチョウ",
    "street": null,
    "office_name": null,
    "office_name_kana": null
  },
  "0073": {
    "postcode": "0370073",
    "prefecture": "青森県",
    "prefecture_kana": "アオモリケン",
    "prefecture_code": 2,
    "city": "五所川原市",
    "city_kana": "ゴショガワラシ",
    "town": "柳町",
    "town_kana": "ヤナギマチ",
    "street": null,
    "office_name": null,
    "office_name_kana": null
  },
  "0074": {
    "postcode": "0370074",
    "prefecture": "青森県",
    "prefecture_kana": "アオモリケン",
    "prefecture_code": 2,
    "city": "五所川原市",
    "city_kana": "ゴショガワラシ",
    "town": "岩木町",
    "town_kana": "イワキチョウ",
    "street": null,
    "office_name": null,
    "office_name_kana": null
  },
  "0075": {
    "postcode": "0370075",
    "prefecture": "青森県",
    "prefecture_kana": "アオモリケン",
    "prefecture_code": 2,
    "city": "五所川原市",
    "city_kana": "ゴショガワラシ",
    "town": "寺町",
    "town_kana": "テラマチ",
    "street": null,
    "office_name": null,
    "office_name_kana": null
  },
  "0076": {
    "postcode": "0370076",
    "prefecture": "青森県",
    "prefecture_kana": "アオモリケン",
    "prefecture_code": 2,
    "city": "五所川原市",
    "city_kana": "ゴショガワラシ",
    "town": "小曲",
    "town_kana": "コマガリ",
    "street": null,
    "office_name": null,
    "office_name_kana": null
  },
  "0081": {
    "postcode": "0370081",
    "prefecture": "青森県",
    "prefecture_kana": "アオモリケン",
    "prefecture_code": 2,
    "city": "五所川原市",
    "city_kana": "ゴショガワラシ",
    "town": "新宮",
    "town_kana": "シンミヤ",
    "street": null,
    "office_name": null,
    "office_name_kana": null
  },
  "0082": {
    "postcode": "0370082",
    "prefecture": "青森県",
    "prefecture_kana": "アオモリケン",
    "prefecture_code": 2,
    "city": "五所川原市",
    "city_kana": "ゴショガワラシ",
    "town": "種井",
    "town_kana": "タネイ",
    "street": null,
    "office_name": null,
    "office_name_kana": null
  },
  "0083": {
    "postcode": "0370083",
    "prefecture": "青森県",
    "prefecture_kana": "アオモリケン",
    "prefecture_code": 2,
    "city": "五所川原市",
    "city_kana": "ゴショガワラシ",
    "town": "新宮町",
    "town_kana": "シンミヤチョウ",
    "street": null,
    "office_name": null,
    "office_name_kana": null
  },
  "0084": {
    "postcode": "0370084",
    "prefecture": "青森県",
    "prefecture_kana": "アオモリケン",
    "prefecture_code": 2,
    "city": "五所川原市",
    "city_kana": "ゴショガワラシ",
    "town": "蘇鉄",
    "town_kana": "ソテツ",
    "street": null,
    "office_name": null,
    "office_name_kana": null
  },
  "0085": {
    "postcode": "0370085",
    "prefecture": "青森県",
    "prefecture_kana": "アオモリケン",
    "prefecture_code": 2,
    "city": "五所川原市",
    "city_kana": "ゴショガワラシ",
    "town": "芭蕉",
    "town_kana": "バショウ",
    "street": null,
    "office_name": null,
    "office_name_kana": null
  },
  "0086": {
    "postcode": "0370086",
    "prefecture": "青森県",
    "prefecture_kana": "アオモリケン",
    "prefecture_code": 2,
    "city": "五所川原市",
    "city_kana": "ゴショガワラシ",
    "town": "田川",
    "town_kana": "タガワ",
    "street": null,
    "office_name": null,
    "office_name_kana": null
  },
  "0087": {
    "postcode": "0370087",
    "prefecture": "青森県",
    "prefecture_kana": "アオモリケン",
    "prefecture_code": 2,
    "city": "五所川原市",
    "city_kana": "ゴショガワラシ",
    "town": "高瀬",
    "town_kana": "タカセ",
    "street": null,
    "office_name": null,
    "office_name_kana": null
  },
  "0088": {
    "postcode": "0370088",
    "prefecture": "青森県",
    "prefecture_kana": "アオモリケン",
    "prefecture_code": 2,
    "city": "五所川原市",
    "city_kana": "ゴショガワラシ",
    "town": "鶴ケ岡",
    "town_kana": "ツルガオカ",
    "street": null,
    "office_name": null,
    "office_name_kana": null
  },
  "0089": {
    "postcode": "0370089",
    "prefecture": "青森県",
    "prefecture_kana": "アオモリケン",
    "prefecture_code": 2,
    "city": "五所川原市",
    "city_kana": "ゴショガワラシ",
    "town": "藻川",
    "town_kana": "モガワ",
    "street": null,
    "office_name": null,
    "office_name_kana": null
  },
  "0091": {
    "postcode": "0370091",
    "prefecture": "青森県",
    "prefecture_kana": "アオモリケン",
    "prefecture_code": 2,
    "city": "五所川原市",
    "city_kana": "ゴショガワラシ",
    "town": "太刀打",
    "town_kana": "タチウチ",
    "street": null,
    "office_name": null,
    "office_name_kana": null
  },
  "0092": {
    "postcode": "0370092",
    "prefecture": "青森県",
    "prefecture_kana": "アオモリケン",
    "prefecture_code": 2,
    "city": "五所川原市",
    "city_kana": "ゴショガワラシ",
    "town": "沖飯詰",
    "town_kana": "オキイイヅメ",
    "street": null,
    "office_name": null,
    "office_name_kana": null
  },
  "0093": {
    "postcode": "0370093",
    "prefecture": "青森県",
    "prefecture_kana": "アオモリケン",
    "prefecture_code": 2,
    "city": "五所川原市",
    "city_kana": "ゴショガワラシ",
    "town": "一野坪",
    "town_kana": "イチノツボ",
    "street": null,
    "office_name": null,
    "office_name_kana": null
  },
  "0094": {
    "postcode": "0370094",
    "prefecture": "青森県",
    "prefecture_kana": "アオモリケン",
    "prefecture_code": 2,
    "city": "五所川原市",
    "city_kana": "ゴショガワラシ",
    "town": "川山",
    "town_kana": "カワヤマ",
    "street": null,
    "office_name": null,
    "office_name_kana": null
  },
  "0095": {
    "postcode": "0370095",
    "prefecture": "青森県",
    "prefecture_kana": "アオモリケン",
    "prefecture_code": 2,
    "city": "五所川原市",
    "city_kana": "ゴショガワラシ",
    "town": "桜田",
    "town_kana": "サクラダ",
    "street": null,
    "office_name": null,
    "office_name_kana": null
  },
  "0096": {
    "postcode": "0370096",
    "prefecture": "青森県",
    "prefecture_kana": "アオモリケン",
    "prefecture_code": 2,
    "city": "五所川原市",
    "city_kana": "ゴショガワラシ",
    "town": "毘沙門",
    "town_kana": "ビシャモン",
    "street": null,
    "office_name": null,
    "office_name_kana": null
  },
  "0097": {
    "postcode": "0370097",
    "prefecture": "青森県",
    "prefecture_kana": "アオモリケン",
    "prefecture_code": 2,
    "city": "五所川原市",
    "city_kana": "ゴショガワラシ",
    "town": "長富",
    "town_kana": "ナガトミ",
    "street": null,
    "office_name": null,
    "office_name_kana": null
  },
  "0101": {
    "postcode": "0370101",
    "prefecture": "青森県",
    "prefecture_kana": "アオモリケン",
    "prefecture_code": 2,
    "city": "つがる市",
    "city_kana": "ツガルシ",
    "town": "稲垣町下繁田",
    "town_kana": "イナガキチョウシモシゲタ",
    "street": null,
    "office_name": null,
    "office_name_kana": null
  },
  "0102": {
    "postcode": "0370102",
    "prefecture": "青森県",
    "prefecture_kana": "アオモリケン",
    "prefecture_code": 2,
    "city": "つがる市",
    "city_kana": "ツガルシ",
    "town": "稲垣町繁田",
    "town_kana": "イナガキチョウシゲタ",
    "street": null,
    "office_name": null,
    "office_name_kana": null
  },
  "0103": {
    "postcode": "0370103",
    "prefecture": "青森県",
    "prefecture_kana": "アオモリケン",
    "prefecture_code": 2,
    "city": "つがる市",
    "city_kana": "ツガルシ",
    "town": "稲垣町穂積",
    "town_kana": "イナガキチョウホヅミ",
    "street": null,
    "office_name": null,
    "office_name_kana": null
  },
  "0104": {
    "postcode": "0370104",
    "prefecture": "青森県",
    "prefecture_kana": "アオモリケン",
    "prefecture_code": 2,
    "city": "つがる市",
    "city_kana": "ツガルシ",
    "town": "稲垣町豊川",
    "town_kana": "イナガキチョウトヨカワ",
    "street": null,
    "office_name": null,
    "office_name_kana": null
  },
  "0105": {
    "postcode": "0370105",
    "prefecture": "青森県",
    "prefecture_kana": "アオモリケン",
    "prefecture_code": 2,
    "city": "つがる市",
    "city_kana": "ツガルシ",
    "town": "稲垣町福富",
    "town_kana": "イナガキチョウフクトミ",
    "street": null,
    "office_name": null,
    "office_name_kana": null
  },
  "0106": {
    "postcode": "0370106",
    "prefecture": "青森県",
    "prefecture_kana": "アオモリケン",
    "prefecture_code": 2,
    "city": "つがる市",
    "city_kana": "ツガルシ",
    "town": "稲垣町沼崎",
    "town_kana": "イナガキチョウヌマザキ",
    "street": null,
    "office_name": null,
    "office_name_kana": null
  },
  "0107": {
    "postcode": "0370107",
    "prefecture": "青森県",
    "prefecture_kana": "アオモリケン",
    "prefecture_code": 2,
    "city": "つがる市",
    "city_kana": "ツガルシ",
    "town": "稲垣町沼舘",
    "town_kana": "イナガキチョウヌマダテ",
    "street": null,
    "office_name": null,
    "office_name_kana": null
  },
  "0108": {
    "postcode": "0370108",
    "prefecture": "青森県",
    "prefecture_kana": "アオモリケン",
    "prefecture_code": 2,
    "city": "つがる市",
    "city_kana": "ツガルシ",
    "town": "稲垣町吉出",
    "town_kana": "イナガキチョウヨシデ",
    "street": null,
    "office_name": null,
    "office_name_kana": null
  },
  "0109": {
    "postcode": "0370109",
    "prefecture": "青森県",
    "prefecture_kana": "アオモリケン",
    "prefecture_code": 2,
    "city": "つがる市",
    "city_kana": "ツガルシ",
    "town": "稲垣町千年",
    "town_kana": "イナガキチョウチトセ",
    "street": null,
    "office_name": null,
    "office_name_kana": null
  },
  "0201": {
    "postcode": "0370201",
    "prefecture": "青森県",
    "prefecture_kana": "アオモリケン",
    "prefecture_code": 2,
    "city": "五所川原市",
    "city_kana": "ゴショガワラシ",
    "town": "金木町川倉",
    "town_kana": "カナギチョウカワクラ",
    "street": null,
    "office_name": null,
    "office_name_kana": null
  },
  "0202": {
    "postcode": "0370202",
    "prefecture": "青森県",
    "prefecture_kana": "アオモリケン",
    "prefecture_code": 2,
    "city": "五所川原市",
    "city_kana": "ゴショガワラシ",
    "town": "金木町",
    "town_kana": "カナギチョウ",
    "street": null,
    "office_name": null,
    "office_name_kana": null
  },
  "0203": {
    "postcode": "0370203",
    "prefecture": "青森県",
    "prefecture_kana": "アオモリケン",
    "prefecture_code": 2,
    "city": "五所川原市",
    "city_kana": "ゴショガワラシ",
    "town": "金木町喜良市",
    "town_kana": "カナギチョウキライチ",
    "street": null,
    "office_name": null,
    "office_name_kana": null
  },
  "0204": {
    "postcode": "0370204",
    "prefecture": "青森県",
    "prefecture_kana": "アオモリケン",
    "prefecture_code": 2,
    "city": "五所川原市",
    "city_kana": "ゴショガワラシ",
    "town": "金木町嘉瀬",
    "town_kana": "カナギチョウカセ",
    "street": null,
    "office_name": null,
    "office_name_kana": null
  },
  "0205": {
    "postcode": "0370205",
    "prefecture": "青森県",
    "prefecture_kana": "アオモリケン",
    "prefecture_code": 2,
    "city": "五所川原市",
    "city_kana": "ゴショガワラシ",
    "town": "金木町中柏木",
    "town_kana": "カナギチョウナカカシワギ",
    "street": null,
    "office_name": null,
    "office_name_kana": null
  },
  "0206": {
    "postcode": "0370206",
    "prefecture": "青森県",
    "prefecture_kana": "アオモリケン",
    "prefecture_code": 2,
    "city": "五所川原市",
    "city_kana": "ゴショガワラシ",
    "town": "金木町神原",
    "town_kana": "カナギチョウカンバラ",
    "street": null,
    "office_name": null,
    "office_name_kana": null
  },
  "0207": {
    "postcode": "0370207",
    "prefecture": "青森県",
    "prefecture_kana": "アオモリケン",
    "prefecture_code": 2,
    "city": "五所川原市",
    "city_kana": "ゴショガワラシ",
    "town": "金木町蒔田",
    "town_kana": "カナギチョウマキタ",
    "street": null,
    "office_name": null,
    "office_name_kana": null
  },
  "0208": {
    "postcode": "0370208",
    "prefecture": "青森県",
    "prefecture_kana": "アオモリケン",
    "prefecture_code": 2,
    "city": "五所川原市",
    "city_kana": "ゴショガワラシ",
    "town": "金木町藤枝",
    "town_kana": "カナギチョウフジエダ",
    "street": null,
    "office_name": null,
    "office_name_kana": null
  },
  "0300": {
    "postcode": "0370300",
    "prefecture": "青森県",
    "prefecture_kana": "アオモリケン",
    "prefecture_code": 2,
    "city": "北津軽郡中泊町",
    "city_kana": "キタツガルグンナカドマリマチ",
    "town": "",
    "town_kana": "",
    "street": null,
    "office_name": null,
    "office_name_kana": null
  },
  "0301": {
    "postcode": "0370301",
    "prefecture": "青森県",
    "prefecture_kana": "アオモリケン",
    "prefecture_code": 2,
    "city": "北津軽郡中泊町",
    "city_kana": "キタツガルグンナカドマリマチ",
    "town": "今泉",
    "town_kana": "イマイズミ",
    "street": null,
    "office_name": null,
    "office_name_kana": null
  },
  "0302": {
    "postcode": "0370302",
    "prefecture": "青森県",
    "prefecture_kana": "アオモリケン",
    "prefecture_code": 2,
    "city": "北津軽郡中泊町",
    "city_kana": "キタツガルグンナカドマリマチ",
    "town": "薄市",
    "town_kana": "ウスイチ",
    "street": null,
    "office_name": null,
    "office_name_kana": null
  },
  "0303": {
    "postcode": "0370303",
    "prefecture": "青森県",
    "prefecture_kana": "アオモリケン",
    "prefecture_code": 2,
    "city": "北津軽郡中泊町",
    "city_kana": "キタツガルグンナカドマリマチ",
    "town": "高根",
    "town_kana": "タカネ",
    "street": null,
    "office_name": null,
    "office_name_kana": null
  },
  "0304": {
    "postcode": "0370304",
    "prefecture": "青森県",
    "prefecture_kana": "アオモリケン",
    "prefecture_code": 2,
    "city": "北津軽郡中泊町",
    "city_kana": "キタツガルグンナカドマリマチ",
    "town": "尾別",
    "town_kana": "オッペツ",
    "street": null,
    "office_name": null,
    "office_name_kana": null
  },
  "0305": {
    "postcode": "0370305",
    "prefecture": "青森県",
    "prefecture_kana": "アオモリケン",
    "prefecture_code": 2,
    "city": "北津軽郡中泊町",
    "city_kana": "キタツガルグンナカドマリマチ",
    "town": "中里",
    "town_kana": "ナカサト",
    "street": null,
    "office_name": null,
    "office_name_kana": null
  },
  "0306": {
    "postcode": "0370306",
    "prefecture": "青森県",
    "prefecture_kana": "アオモリケン",
    "prefecture_code": 2,
    "city": "北津軽郡中泊町",
    "city_kana": "キタツガルグンナカドマリマチ",
    "town": "宮川",
    "town_kana": "ミヤカワ",
    "street": null,
    "office_name": null,
    "office_name_kana": null
  },
  "0307": {
    "postcode": "0370307",
    "prefecture": "青森県",
    "prefecture_kana": "アオモリケン",
    "prefecture_code": 2,
    "city": "北津軽郡中泊町",
    "city_kana": "キタツガルグンナカドマリマチ",
    "town": "宮野沢",
    "town_kana": "ミヤノサワ",
    "street": null,
    "office_name": null,
    "office_name_kana": null
  },
  "0308": {
    "postcode": "0370308",
    "prefecture": "青森県",
    "prefecture_kana": "アオモリケン",
    "prefecture_code": 2,
    "city": "北津軽郡中泊町",
    "city_kana": "キタツガルグンナカドマリマチ",
    "town": "深郷田",
    "town_kana": "フコウダ",
    "street": null,
    "office_name": null,
    "office_name_kana": null
  },
  "0309": {
    "postcode": "0370309",
    "prefecture": "青森県",
    "prefecture_kana": "アオモリケン",
    "prefecture_code": 2,
    "city": "北津軽郡中泊町",
    "city_kana": "キタツガルグンナカドマリマチ",
    "town": "八幡",
    "town_kana": "ハチマン",
    "street": null,
    "office_name": null,
    "office_name_kana": null
  },
  "0311": {
    "postcode": "0370311",
    "prefecture": "青森県",
    "prefecture_kana": "アオモリケン",
    "prefecture_code": 2,
    "city": "北津軽郡中泊町",
    "city_kana": "キタツガルグンナカドマリマチ",
    "town": "大沢内",
    "town_kana": "オオサワナイ",
    "street": null,
    "office_name": null,
    "office_name_kana": null
  },
  "0312": {
    "postcode": "0370312",
    "prefecture": "青森県",
    "prefecture_kana": "アオモリケン",
    "prefecture_code": 2,
    "city": "北津軽郡中泊町",
    "city_kana": "キタツガルグンナカドマリマチ",
    "town": "豊島",
    "town_kana": "トヨシマ",
    "street": null,
    "office_name": null,
    "office_name_kana": null
  },
  "0313": {
    "postcode": "0370313",
    "prefecture": "青森県",
    "prefecture_kana": "アオモリケン",
    "prefecture_code": 2,
    "city": "北津軽郡中泊町",
    "city_kana": "キタツガルグンナカドマリマチ",
    "town": "富野",
    "town_kana": "トミノ",
    "street": null,
    "office_name": null,
    "office_name_kana": null
  },
  "0314": {
    "postcode": "0370314",
    "prefecture": "青森県",
    "prefecture_kana": "アオモリケン",
    "prefecture_code": 2,
    "city": "北津軽郡中泊町",
    "city_kana": "キタツガルグンナカドマリマチ",
    "town": "福浦",
    "town_kana": "フクウラ",
    "street": null,
    "office_name": null,
    "office_name_kana": null
  },
  "0315": {
    "postcode": "0370315",
    "prefecture": "青森県",
    "prefecture_kana": "アオモリケン",
    "prefecture_code": 2,
    "city": "北津軽郡中泊町",
    "city_kana": "キタツガルグンナカドマリマチ",
    "town": "豊岡",
    "town_kana": "トヨオカ",
    "street": null,
    "office_name": null,
    "office_name_kana": null
  },
  "0316": {
    "postcode": "0370316",
    "prefecture": "青森県",
    "prefecture_kana": "アオモリケン",
    "prefecture_code": 2,
    "city": "北津軽郡中泊町",
    "city_kana": "キタツガルグンナカドマリマチ",
    "town": "芦野",
    "town_kana": "アシノ",
    "street": null,
    "office_name": null,
    "office_name_kana": null
  },
  "0317": {
    "postcode": "0370317",
    "prefecture": "青森県",
    "prefecture_kana": "アオモリケン",
    "prefecture_code": 2,
    "city": "北津軽郡中泊町",
    "city_kana": "キタツガルグンナカドマリマチ",
    "town": "長泥",
    "town_kana": "ナガドロ",
    "street": null,
    "office_name": null,
    "office_name_kana": null
  },
  "0318": {
    "postcode": "0370318",
    "prefecture": "青森県",
    "prefecture_kana": "アオモリケン",
    "prefecture_code": 2,
    "city": "北津軽郡中泊町",
    "city_kana": "キタツガルグンナカドマリマチ",
    "town": "田茂木",
    "town_kana": "タモギ",
    "street": null,
    "office_name": null,
    "office_name_kana": null
  },
  "0392": {
    "postcode": "0370392",
    "prefecture": "青森県",
    "prefecture_kana": "アオモリケン",
    "prefecture_code": 2,
    "city": "北津軽郡中泊町",
    "city_kana": "キタツガルグンナカドマリマチ",
    "town": "大字中里",
    "town_kana": null,
    "street": "字亀山４３４番地１",
    "office_name": "中泊町役場",
    "office_name_kana": "ナカドマリマチヤクバ"
  },
  "0401": {
    "postcode": "0370401",
    "prefecture": "青森県",
    "prefecture_kana": "アオモリケン",
    "prefecture_code": 2,
    "city": "五所川原市",
    "city_kana": "ゴショガワラシ",
    "town": "相内",
    "town_kana": "アイウチ",
    "street": null,
    "office_name": null,
    "office_name_kana": null
  },
  "0402": {
    "postcode": "0370402",
    "prefecture": "青森県",
    "prefecture_kana": "アオモリケン",
    "prefecture_code": 2,
    "city": "五所川原市",
    "city_kana": "ゴショガワラシ",
    "town": "太田",
    "town_kana": "オオタ",
    "street": null,
    "office_name": null,
    "office_name_kana": null
  },
  "0403": {
    "postcode": "0370403",
    "prefecture": "青森県",
    "prefecture_kana": "アオモリケン",
    "prefecture_code": 2,
    "city": "五所川原市",
    "city_kana": "ゴショガワラシ",
    "town": "十三",
    "town_kana": "ジュウサン",
    "street": null,
    "office_name": null,
    "office_name_kana": null
  },
  "0404": {
    "postcode": "0370404",
    "prefecture": "青森県",
    "prefecture_kana": "アオモリケン",
    "prefecture_code": 2,
    "city": "五所川原市",
    "city_kana": "ゴショガワラシ",
    "town": "磯松",
    "town_kana": "イソマツ",
    "street": null,
    "office_name": null,
    "office_name_kana": null
  },
  "0405": {
    "postcode": "0370405",
    "prefecture": "青森県",
    "prefecture_kana": "アオモリケン",
    "prefecture_code": 2,
    "city": "五所川原市",
    "city_kana": "ゴショガワラシ",
    "town": "脇元",
    "town_kana": "ワキモト",
    "street": null,
    "office_name": null,
    "office_name_kana": null
  },
  "0511": {
    "postcode": "0370511",
    "prefecture": "青森県",
    "prefecture_kana": "アオモリケン",
    "prefecture_code": 2,
    "city": "北津軽郡中泊町",
    "city_kana": "キタツガルグンナカドマリマチ",
    "town": "小泊砂山",
    "town_kana": "コドマリスナヤマ",
    "street": null,
    "office_name": null,
    "office_name_kana": null
  },
  "0512": {
    "postcode": "0370512",
    "prefecture": "青森県",
    "prefecture_kana": "アオモリケン",
    "prefecture_code": 2,
    "city": "北津軽郡中泊町",
    "city_kana": "キタツガルグンナカドマリマチ",
    "town": "小泊朝間",
    "town_kana": "コドマリアサマ",
    "street": null,
    "office_name": null,
    "office_name_kana": null
  },
  "0513": {
    "postcode": "0370513",
    "prefecture": "青森県",
    "prefecture_kana": "アオモリケン",
    "prefecture_code": 2,
    "city": "北津軽郡中泊町",
    "city_kana": "キタツガルグンナカドマリマチ",
    "town": "小泊割長根",
    "town_kana": "コドマリワリナガネ",
    "street": null,
    "office_name": null,
    "office_name_kana": null
  },
  "0514": {
    "postcode": "0370514",
    "prefecture": "青森県",
    "prefecture_kana": "アオモリケン",
    "prefecture_code": 2,
    "city": "北津軽郡中泊町",
    "city_kana": "キタツガルグンナカドマリマチ",
    "town": "小泊浜野",
    "town_kana": "コドマリハマノ",
    "street": null,
    "office_name": null,
    "office_name_kana": null
  },
  "0515": {
    "postcode": "0370515",
    "prefecture": "青森県",
    "prefecture_kana": "アオモリケン",
    "prefecture_code": 2,
    "city": "北津軽郡中泊町",
    "city_kana": "キタツガルグンナカドマリマチ",
    "town": "小泊築上",
    "town_kana": "コドマリツキアゲ",
    "street": null,
    "office_name": null,
    "office_name_kana": null
  },
  "0516": {
    "postcode": "0370516",
    "prefecture": "青森県",
    "prefecture_kana": "アオモリケン",
    "prefecture_code": 2,
    "city": "北津軽郡中泊町",
    "city_kana": "キタツガルグンナカドマリマチ",
    "town": "小泊山崎",
    "town_kana": "コドマリヤマザキ",
    "street": null,
    "office_name": null,
    "office_name_kana": null
  },
  "0521": {
    "postcode": "0370521",
    "prefecture": "青森県",
    "prefecture_kana": "アオモリケン",
    "prefecture_code": 2,
    "city": "北津軽郡中泊町",
    "city_kana": "キタツガルグンナカドマリマチ",
    "town": "小泊折戸",
    "town_kana": "コドマリオリト",
    "street": null,
    "office_name": null,
    "office_name_kana": null
  },
  "0522": {
    "postcode": "0370522",
    "prefecture": "青森県",
    "prefecture_kana": "アオモリケン",
    "prefecture_code": 2,
    "city": "北津軽郡中泊町",
    "city_kana": "キタツガルグンナカドマリマチ",
    "town": "小泊小泊",
    "town_kana": "コドマリコドマリ",
    "street": null,
    "office_name": null,
    "office_name_kana": null
  },
  "0523": {
    "postcode": "0370523",
    "prefecture": "青森県",
    "prefecture_kana": "アオモリケン",
    "prefecture_code": 2,
    "city": "北津軽郡中泊町",
    "city_kana": "キタツガルグンナカドマリマチ",
    "town": "小泊稲荷",
    "town_kana": "コドマリイナリ",
    "street": null,
    "office_name": null,
    "office_name_kana": null
  },
  "0524": {
    "postcode": "0370524",
    "prefecture": "青森県",
    "prefecture_kana": "アオモリケン",
    "prefecture_code": 2,
    "city": "北津軽郡中泊町",
    "city_kana": "キタツガルグンナカドマリマチ",
    "town": "小泊水澗",
    "town_kana": "コドマリミズノマ",
    "street": null,
    "office_name": null,
    "office_name_kana": null
  },
  "0525": {
    "postcode": "0370525",
    "prefecture": "青森県",
    "prefecture_kana": "アオモリケン",
    "prefecture_code": 2,
    "city": "北津軽郡中泊町",
    "city_kana": "キタツガルグンナカドマリマチ",
    "town": "小泊鮫貝",
    "town_kana": "コドマリサメガイ",
    "street": null,
    "office_name": null,
    "office_name_kana": null
  },
  "0531": {
    "postcode": "0370531",
    "prefecture": "青森県",
    "prefecture_kana": "アオモリケン",
    "prefecture_code": 2,
    "city": "北津軽郡中泊町",
    "city_kana": "キタツガルグンナカドマリマチ",
    "town": "小泊長坂",
    "town_kana": "コドマリナガサカ",
    "street": null,
    "office_name": null,
    "office_name_kana": null
  },
  "0532": {
    "postcode": "0370532",
    "prefecture": "青森県",
    "prefecture_kana": "アオモリケン",
    "prefecture_code": 2,
    "city": "北津軽郡中泊町",
    "city_kana": "キタツガルグンナカドマリマチ",
    "town": "小泊梨子木平",
    "town_kana": "コドマリナシキタイラ",
    "street": null,
    "office_name": null,
    "office_name_kana": null
  },
  "0533": {
    "postcode": "0370533",
    "prefecture": "青森県",
    "prefecture_kana": "アオモリケン",
    "prefecture_code": 2,
    "city": "北津軽郡中泊町",
    "city_kana": "キタツガルグンナカドマリマチ",
    "town": "小泊白倉",
    "town_kana": "コドマリシロクラ",
    "street": null,
    "office_name": null,
    "office_name_kana": null
  },
  "0534": {
    "postcode": "0370534",
    "prefecture": "青森県",
    "prefecture_kana": "アオモリケン",
    "prefecture_code": 2,
    "city": "北津軽郡中泊町",
    "city_kana": "キタツガルグンナカドマリマチ",
    "town": "小泊漆流",
    "town_kana": "コドマリウルシナガレ",
    "street": null,
    "office_name": null,
    "office_name_kana": null
  },
  "0535": {
    "postcode": "0370535",
    "prefecture": "青森県",
    "prefecture_kana": "アオモリケン",
    "prefecture_code": 2,
    "city": "北津軽郡中泊町",
    "city_kana": "キタツガルグンナカドマリマチ",
    "town": "小泊尾崎道",
    "town_kana": "コドマリオサキミチ",
    "street": null,
    "office_name": null,
    "office_name_kana": null
  },
  "0536": {
    "postcode": "0370536",
    "prefecture": "青森県",
    "prefecture_kana": "アオモリケン",
    "prefecture_code": 2,
    "city": "北津軽郡中泊町",
    "city_kana": "キタツガルグンナカドマリマチ",
    "town": "小泊中間",
    "town_kana": "コドマリナカマ",
    "street": null,
    "office_name": null,
    "office_name_kana": null
  },
  "0537": {
    "postcode": "0370537",
    "prefecture": "青森県",
    "prefecture_kana": "アオモリケン",
    "prefecture_code": 2,
    "city": "北津軽郡中泊町",
    "city_kana": "キタツガルグンナカドマリマチ",
    "town": "小泊渕岩",
    "town_kana": "コドマリフチイワ",
    "street": null,
    "office_name": null,
    "office_name_kana": null
  },
  "0538": {
    "postcode": "0370538",
    "prefecture": "青森県",
    "prefecture_kana": "アオモリケン",
    "prefecture_code": 2,
    "city": "北津軽郡中泊町",
    "city_kana": "キタツガルグンナカドマリマチ",
    "town": "小泊下前",
    "town_kana": "コドマリシタマエ",
    "street": null,
    "office_name": null,
    "office_name_kana": null
  },
  "0541": {
    "postcode": "0370541",
    "prefecture": "青森県",
    "prefecture_kana": "アオモリケン",
    "prefecture_code": 2,
    "city": "北津軽郡中泊町",
    "city_kana": "キタツガルグンナカドマリマチ",
    "town": "小泊嗽沢",
    "town_kana": "コドマリウガイサワ",
    "street": null,
    "office_name": null,
    "office_name_kana": null
  },
  "0542": {
    "postcode": "0370542",
    "prefecture": "青森県",
    "prefecture_kana": "アオモリケン",
    "prefecture_code": 2,
    "city": "北津軽郡中泊町",
    "city_kana": "キタツガルグンナカドマリマチ",
    "town": "小泊大山長根",
    "town_kana": "コドマリオオヤマナガネ",
    "street": null,
    "office_name": null,
    "office_name_kana": null
  },
  "0543": {
    "postcode": "0370543",
    "prefecture": "青森県",
    "prefecture_kana": "アオモリケン",
    "prefecture_code": 2,
    "city": "北津軽郡中泊町",
    "city_kana": "キタツガルグンナカドマリマチ",
    "town": "小泊坊主沢",
    "town_kana": "コドマリボウズサワ",
    "street": null,
    "office_name": null,
    "office_name_kana": null
  },
  "0601": {
    "postcode": "0370601",
    "prefecture": "青森県",
    "prefecture_kana": "アオモリケン",
    "prefecture_code": 2,
    "city": "五所川原市",
    "city_kana": "ゴショガワラシ",
    "town": "戸沢",
    "town_kana": "トザワ",
    "street": null,
    "office_name": null,
    "office_name_kana": null
  },
  "0602": {
    "postcode": "0370602",
    "prefecture": "青森県",
    "prefecture_kana": "アオモリケン",
    "prefecture_code": 2,
    "city": "五所川原市",
    "city_kana": "ゴショガワラシ",
    "town": "松野木",
    "town_kana": "マツノキ",
    "street": null,
    "office_name": null,
    "office_name_kana": null
  },
  "0611": {
    "postcode": "0370611",
    "prefecture": "青森県",
    "prefecture_kana": "アオモリケン",
    "prefecture_code": 2,
    "city": "五所川原市",
    "city_kana": "ゴショガワラシ",
    "town": "神山",
    "town_kana": "カミヤマ",
    "street": null,
    "office_name": null,
    "office_name_kana": null
  },
  "0612": {
    "postcode": "0370612",
    "prefecture": "青森県",
    "prefecture_kana": "アオモリケン",
    "prefecture_code": 2,
    "city": "五所川原市",
    "city_kana": "ゴショガワラシ",
    "town": "福山",
    "town_kana": "フクヤマ",
    "street": null,
    "office_name": null,
    "office_name_kana": null
  },
  "0613": {
    "postcode": "0370613",
    "prefecture": "青森県",
    "prefecture_kana": "アオモリケン",
    "prefecture_code": 2,
    "city": "五所川原市",
    "city_kana": "ゴショガワラシ",
    "town": "浅井",
    "town_kana": "アサイ",
    "street": null,
    "office_name": null,
    "office_name_kana": null
  },
  "0614": {
    "postcode": "0370614",
    "prefecture": "青森県",
    "prefecture_kana": "アオモリケン",
    "prefecture_code": 2,
    "city": "五所川原市",
    "city_kana": "ゴショガワラシ",
    "town": "野里",
    "town_kana": "ノザト",
    "street": null,
    "office_name": null,
    "office_name_kana": null
  },
  "0621": {
    "postcode": "0370621",
    "prefecture": "青森県",
    "prefecture_kana": "アオモリケン",
    "prefecture_code": 2,
    "city": "五所川原市",
    "city_kana": "ゴショガワラシ",
    "town": "豊成",
    "town_kana": "トヨナリ",
    "street": null,
    "office_name": null,
    "office_name_kana": null
  },
  "0622": {
    "postcode": "0370622",
    "prefecture": "青森県",
    "prefecture_kana": "アオモリケン",
    "prefecture_code": 2,
    "city": "五所川原市",
    "city_kana": "ゴショガワラシ",
    "town": "原子",
    "town_kana": "ハラコ",
    "street": null,
    "office_name": null,
    "office_name_kana": null
  },
  "0623": {
    "postcode": "0370623",
    "prefecture": "青森県",
    "prefecture_kana": "アオモリケン",
    "prefecture_code": 2,
    "city": "五所川原市",
    "city_kana": "ゴショガワラシ",
    "town": "俵元",
    "town_kana": "タワラモト",
    "street": null,
    "office_name": null,
    "office_name_kana": null
  },
  "0631": {
    "postcode": "0370631",
    "prefecture": "青森県",
    "prefecture_kana": "アオモリケン",
    "prefecture_code": 2,
    "city": "五所川原市",
    "city_kana": "ゴショガワラシ",
    "town": "前田野目",
    "town_kana": "マエダノメ",
    "street": null,
    "office_name": null,
    "office_name_kana": null
  },
  "0632": {
    "postcode": "0370632",
    "prefecture": "青森県",
    "prefecture_kana": "アオモリケン",
    "prefecture_code": 2,
    "city": "五所川原市",
    "city_kana": "ゴショガワラシ",
    "town": "高野",
    "town_kana": "コウヤ",
    "street": null,
    "office_name": null,
    "office_name_kana": null
  },
  "0641": {
    "postcode": "0370641",
    "prefecture": "青森県",
    "prefecture_kana": "アオモリケン",
    "prefecture_code": 2,
    "city": "五所川原市",
    "city_kana": "ゴショガワラシ",
    "town": "羽野木沢",
    "town_kana": "ハノキザワ",
    "street": null,
    "office_name": null,
    "office_name_kana": null
  },
  "0642": {
    "postcode": "0370642",
    "prefecture": "青森県",
    "prefecture_kana": "アオモリケン",
    "prefecture_code": 2,
    "city": "五所川原市",
    "city_kana": "ゴショガワラシ",
    "town": "持子沢",
    "town_kana": "モッコザワ",
    "street": null,
    "office_name": null,
    "office_name_kana": null
  },
  "8601": {
    "postcode": "0378601",
    "prefecture": "青森県",
    "prefecture_kana": "アオモリケン",
    "prefecture_code": 2,
    "city": "五所川原市",
    "city_kana": "ゴショガワラシ",
    "town": "字東町",
    "town_kana": null,
    "street": "１７番地の５",
    "office_name": "株式会社　五所川原エフエム",
    "office_name_kana": "カブシキガイシヤ ゴシヨガワラエフエム"
  },
  "8655": {
    "postcode": "0378655",
    "prefecture": "青森県",
    "prefecture_kana": "アオモリケン",
    "prefecture_code": 2,
    "city": "五所川原市",
    "city_kana": "ゴショガワラシ",
    "town": "大字唐笠柳",
    "town_kana": null,
    "street": "字藤巻５０７番地１０",
    "office_name": "青森地方法務局　五所川原支局",
    "office_name_kana": "アオモリチホウホウムキヨク ゴシヨガワラシキヨク"
  },
  "8686": {
    "postcode": "0378686",
    "prefecture": "青森県",
    "prefecture_kana": "アオモリケン",
    "prefecture_code": 2,
    "city": "五所川原市",
    "city_kana": "ゴショガワラシ",
    "town": "字布屋町",
    "town_kana": null,
    "street": "４１番地１",
    "office_name": "五所川原市役所",
    "office_name_kana": "ゴシヨガワラシヤクシヨ"
  }
}