{
  "0100": {
    "postcode": "0490100",
    "prefecture": "北海道",
    "prefecture_kana": "ホッカイドウ",
    "prefecture_code": 1,
    "city": "北斗市",
    "city_kana": "ホクトシ",
    "town": "",
    "town_kana": "",
    "street": null,
    "office_name": null,
    "office_name_kana": null
  },
  "0101": {
    "postcode": "0490101",
    "prefecture": "北海道",
    "prefecture_kana": "ホッカイドウ",
    "prefecture_code": 1,
    "city": "北斗市",
    "city_kana": "ホクトシ",
    "town": "追分",
    "town_kana": "オイワケ",
    "street": null,
    "office_name": null,
    "office_name_kana": null
  },
  "0111": {
    "postcode": "0490111",
    "prefecture": "北海道",
    "prefecture_kana": "ホッカイドウ",
    "prefecture_code": 1,
    "city": "北斗市",
    "city_kana": "ホクトシ",
    "town": "七重浜",
    "town_kana": "ナナエハマ",
    "street": null,
    "office_name": null,
    "office_name_kana": null
  },
  "0121": {
    "postcode": "0490121",
    "prefecture": "北海道",
    "prefecture_kana": "ホッカイドウ",
    "prefecture_code": 1,
    "city": "北斗市",
    "city_kana": "ホクトシ",
    "town": "久根別",
    "town_kana": "クネベツ",
    "street": null,
    "office_name": null,
    "office_name_kana": null
  },
  "0122": {
    "postcode": "0490122",
    "prefecture": "北海道",
    "prefecture_kana": "ホッカイドウ",
    "prefecture_code": 1,
    "city": "北斗市",
    "city_kana": "ホクトシ",
    "town": "東浜",
    "town_kana": "ヒガシハマ",
    "street": null,
    "office_name": null,
    "office_name_kana": null
  },
  "0131": {
    "postcode": "0490131",
    "prefecture": "北海道",
    "prefecture_kana": "ホッカイドウ",
    "prefecture_code": 1,
    "city": "北斗市",
    "city_kana": "ホクトシ",
    "town": "富川",
    "town_kana": "トミガワ",
    "street": null,
    "office_name": null,
    "office_name_kana": null
  },
  "0132": {
    "postcode": "0490132",
    "prefecture": "北海道",
    "prefecture_kana": "ホッカイドウ",
    "prefecture_code": 1,
    "city": "北斗市",
    "city_kana": "ホクトシ",
    "town": "館野",
    "town_kana": "ダテノ",
    "street": null,
    "office_name": null,
    "office_name_kana": null
  },
  "0133": {
    "postcode": "0490133",
    "prefecture": "北海道",
    "prefecture_kana": "ホッカイドウ",
    "prefecture_code": 1,
    "city": "北斗市",
    "city_kana": "ホクトシ",
    "town": "柳沢",
    "town_kana": "ヤナギサワ",
    "street": null,
    "office_name": null,
    "office_name_kana": null
  },
  "0134": {
    "postcode": "0490134",
    "prefecture": "北海道",
    "prefecture_kana": "ホッカイドウ",
    "prefecture_code": 1,
    "city": "北斗市",
    "city_kana": "ホクトシ",
    "town": "三好",
    "town_kana": "ミヨシ",
    "street": null,
    "office_name": null,
    "office_name_kana": null
  },
  "0135": {
    "postcode": "0490135",
    "prefecture": "北海道",
    "prefecture_kana": "ホッカイドウ",
    "prefecture_code": 1,
    "city": "北斗市",
    "city_kana": "ホクトシ",
    "town": "水無",
    "town_kana": "ミズナシ",
    "street": null,
    "office_name": null,
    "office_name_kana": null
  },
  "0136": {
    "postcode": "0490136",
    "prefecture": "北海道",
    "prefecture_kana": "ホッカイドウ",
    "prefecture_code": 1,
    "city": "北斗市",
    "city_kana": "ホクトシ",
    "town": "峨朗",
    "town_kana": "ガロウ",
    "street": null,
    "office_name": null,
    "office_name_kana": null
  },
  "0141": {
    "postcode": "0490141",
    "prefecture": "北海道",
    "prefecture_kana": "ホッカイドウ",
    "prefecture_code": 1,
    "city": "北斗市",
    "city_kana": "ホクトシ",
    "town": "谷好",
    "town_kana": "タニヨシ",
    "street": null,
    "office_name": null,
    "office_name_kana": null
  },
  "0142": {
    "postcode": "0490142",
    "prefecture": "北海道",
    "prefecture_kana": "ホッカイドウ",
    "prefecture_code": 1,
    "city": "北斗市",
    "city_kana": "ホクトシ",
    "town": "昭和",
    "town_kana": "ショウワ",
    "street": null,
    "office_name": null,
    "office_name_kana": null
  },
  "0143": {
    "postcode": "0490143",
    "prefecture": "北海道",
    "prefecture_kana": "ホッカイドウ",
    "prefecture_code": 1,
    "city": "北斗市",
    "city_kana": "ホクトシ",
    "town": "公園通",
    "town_kana": "コウエンドオリ",
    "street": null,
    "office_name": null,
    "office_name_kana": null
  },
  "0151": {
    "postcode": "0490151",
    "prefecture": "北海道",
    "prefecture_kana": "ホッカイドウ",
    "prefecture_code": 1,
    "city": "北斗市",
    "city_kana": "ホクトシ",
    "town": "桜岱",
    "town_kana": "サクラタイ",
    "street": null,
    "office_name": null,
    "office_name_kana": null
  },
  "0152": {
    "postcode": "0490152",
    "prefecture": "北海道",
    "prefecture_kana": "ホッカイドウ",
    "prefecture_code": 1,
    "city": "北斗市",
    "city_kana": "ホクトシ",
    "town": "押上",
    "town_kana": "オシアゲ",
    "street": null,
    "office_name": null,
    "office_name_kana": null
  },
  "0153": {
    "postcode": "0490153",
    "prefecture": "北海道",
    "prefecture_kana": "ホッカイドウ",
    "prefecture_code": 1,
    "city": "北斗市",
    "city_kana": "ホクトシ",
    "town": "大工川",
    "town_kana": "ダイクガワ",
    "street": null,
    "office_name": null,
    "office_name_kana": null
  },
  "0154": {
    "postcode": "0490154",
    "prefecture": "北海道",
    "prefecture_kana": "ホッカイドウ",
    "prefecture_code": 1,
    "city": "北斗市",
    "city_kana": "ホクトシ",
    "town": "添山",
    "town_kana": "ソエヤマ",
    "street": null,
    "office_name": null,
    "office_name_kana": null
  },
  "0155": {
    "postcode": "0490155",
    "prefecture": "北海道",
    "prefecture_kana": "ホッカイドウ",
    "prefecture_code": 1,
    "city": "北斗市",
    "city_kana": "ホクトシ",
    "town": "中野",
    "town_kana": "ナカノ",
    "street": null,
    "office_name": null,
    "office_name_kana": null
  },
  "0156": {
    "postcode": "0490156",
    "prefecture": "北海道",
    "prefecture_kana": "ホッカイドウ",
    "prefecture_code": 1,
    "city": "北斗市",
    "city_kana": "ホクトシ",
    "town": "中野通",
    "town_kana": "ナカノドオリ",
    "street": null,
    "office_name": null,
    "office_name_kana": null
  },
  "0157": {
    "postcode": "0490157",
    "prefecture": "北海道",
    "prefecture_kana": "ホッカイドウ",
    "prefecture_code": 1,
    "city": "北斗市",
    "city_kana": "ホクトシ",
    "town": "清川",
    "town_kana": "キヨカワ",
    "street": null,
    "office_name": null,
    "office_name_kana": null
  },
  "0158": {
    "postcode": "0490158",
    "prefecture": "北海道",
    "prefecture_kana": "ホッカイドウ",
    "prefecture_code": 1,
    "city": "北斗市",
    "city_kana": "ホクトシ",
    "town": "野崎",
    "town_kana": "ノザキ",
    "street": null,
    "office_name": null,
    "office_name_kana": null
  },
  "0161": {
    "postcode": "0490161",
    "prefecture": "北海道",
    "prefecture_kana": "ホッカイドウ",
    "prefecture_code": 1,
    "city": "北斗市",
    "city_kana": "ホクトシ",
    "town": "飯生",
    "town_kana": "イナリ",
    "street": null,
    "office_name": null,
    "office_name_kana": null
  },
  "0162": {
    "postcode": "0490162",
    "prefecture": "北海道",
    "prefecture_kana": "ホッカイドウ",
    "prefecture_code": 1,
    "city": "北斗市",
    "city_kana": "ホクトシ",
    "town": "中央",
    "town_kana": "チュウオウ",
    "street": null,
    "office_name": null,
    "office_name_kana": null
  },
  "0171": {
    "postcode": "0490171",
    "prefecture": "北海道",
    "prefecture_kana": "ホッカイドウ",
    "prefecture_code": 1,
    "city": "北斗市",
    "city_kana": "ホクトシ",
    "town": "常盤",
    "town_kana": "トキワ",
    "street": null,
    "office_name": null,
    "office_name_kana": null
  },
  "0192": {
    "postcode": "0490192",
    "prefecture": "北海道",
    "prefecture_kana": "ホッカイドウ",
    "prefecture_code": 1,
    "city": "北斗市",
    "city_kana": "ホクトシ",
    "town": "中央",
    "town_kana": "チュウオウ",
    "street": "１丁目３番１０号",
    "office_name": "北斗市役所",
    "office_name_kana": "ホクトシヤクシヨ"
  },
  "0193": {
    "postcode": "0490193",
    "prefecture": "北海道",
    "prefecture_kana": "ホッカイドウ",
    "prefecture_code": 1,
    "city": "北斗市",
    "city_kana": "ホクトシ",
    "town": "谷好",
    "town_kana": "タニヨシ",
    "street": "１丁目１５１番地",
    "office_name": "太平洋セメント　株式会社　上磯工場",
    "office_name_kana": "タイヘイヨウセメント カブシキガイシヤ カミイソコウジヨウ"
  },
  "0281": {
    "postcode": "0490281",
    "prefecture": "北海道",
    "prefecture_kana": "ホッカイドウ",
    "prefecture_code": 1,
    "city": "北斗市",
    "city_kana": "ホクトシ",
    "town": "茂辺地",
    "town_kana": "モヘジ",
    "street": null,
    "office_name": null,
    "office_name_kana": null
  },
  "0282": {
    "postcode": "0490282",
    "prefecture": "北海道",
    "prefecture_kana": "ホッカイドウ",
    "prefecture_code": 1,
    "city": "北斗市",
    "city_kana": "ホクトシ",
    "town": "当別",
    "town_kana": "トウベツ",
    "street": null,
    "office_name": null,
    "office_name_kana": null
  },
  "0283": {
    "postcode": "0490283",
    "prefecture": "北海道",
    "prefecture_kana": "ホッカイドウ",
    "prefecture_code": 1,
    "city": "北斗市",
    "city_kana": "ホクトシ",
    "town": "三ツ石",
    "town_kana": "ミツイシ",
    "street": null,
    "office_name": null,
    "office_name_kana": null
  },
  "0284": {
    "postcode": "0490284",
    "prefecture": "北海道",
    "prefecture_kana": "ホッカイドウ",
    "prefecture_code": 1,
    "city": "北斗市",
    "city_kana": "ホクトシ",
    "town": "湯ノ沢",
    "town_kana": "ユノサワ",
    "street": null,
    "office_name": null,
    "office_name_kana": null
  },
  "0285": {
    "postcode": "0490285",
    "prefecture": "北海道",
    "prefecture_kana": "ホッカイドウ",
    "prefecture_code": 1,
    "city": "北斗市",
    "city_kana": "ホクトシ",
    "town": "茂辺地市ノ渡",
    "town_kana": "モヘジイチノワタリ",
    "street": null,
    "office_name": null,
    "office_name_kana": null
  },
  "0286": {
    "postcode": "0490286",
    "prefecture": "北海道",
    "prefecture_kana": "ホッカイドウ",
    "prefecture_code": 1,
    "city": "北斗市",
    "city_kana": "ホクトシ",
    "town": "矢不来",
    "town_kana": "ヤフライ",
    "street": null,
    "office_name": null,
    "office_name_kana": null
  },
  "0400": {
    "postcode": "0490400",
    "prefecture": "北海道",
    "prefecture_kana": "ホッカイドウ",
    "prefecture_code": 1,
    "city": "上磯郡木古内町",
    "city_kana": "カミイソグンキコナイチョウ",
    "town": "",
    "town_kana": "",
    "street": null,
    "office_name": null,
    "office_name_kana": null
  },
  "0401": {
    "postcode": "0490401",
    "prefecture": "北海道",
    "prefecture_kana": "ホッカイドウ",
    "prefecture_code": 1,
    "city": "上磯郡木古内町",
    "city_kana": "カミイソグンキコナイチョウ",
    "town": "大釜谷",
    "town_kana": "オオカマヤ",
    "street": null,
    "office_name": null,
    "office_name_kana": null
  },
  "0402": {
    "postcode": "0490402",
    "prefecture": "北海道",
    "prefecture_kana": "ホッカイドウ",
    "prefecture_code": 1,
    "city": "上磯郡木古内町",
    "city_kana": "カミイソグンキコナイチョウ",
    "town": "御宮野",
    "town_kana": "オミヤノ",
    "street": null,
    "office_name": null,
    "office_name_kana": null
  },
  "0403": {
    "postcode": "0490403",
    "prefecture": "北海道",
    "prefecture_kana": "ホッカイドウ",
    "prefecture_code": 1,
    "city": "上磯郡木古内町",
    "city_kana": "カミイソグンキコナイチョウ",
    "town": "釜谷",
    "town_kana": "カマヤ",
    "street": null,
    "office_name": null,
    "office_name_kana": null
  },
  "0404": {
    "postcode": "0490404",
    "prefecture": "北海道",
    "prefecture_kana": "ホッカイドウ",
    "prefecture_code": 1,
    "city": "上磯郡木古内町",
    "city_kana": "カミイソグンキコナイチョウ",
    "town": "亀川",
    "town_kana": "カメカワ",
    "street": null,
    "office_name": null,
    "office_name_kana": null
  },
  "0405": {
    "postcode": "0490405",
    "prefecture": "北海道",
    "prefecture_kana": "ホッカイドウ",
    "prefecture_code": 1,
    "city": "上磯郡木古内町",
    "city_kana": "カミイソグンキコナイチョウ",
    "town": "泉沢",
    "town_kana": "イズミサワ",
    "street": null,
    "office_name": null,
    "office_name_kana": null
  },
  "0406": {
    "postcode": "0490406",
    "prefecture": "北海道",
    "prefecture_kana": "ホッカイドウ",
    "prefecture_code": 1,
    "city": "上磯郡木古内町",
    "city_kana": "カミイソグンキコナイチョウ",
    "town": "二乃岱",
    "town_kana": "ニノタイ",
    "street": null,
    "office_name": null,
    "office_name_kana": null
  },
  "0407": {
    "postcode": "0490407",
    "prefecture": "北海道",
    "prefecture_kana": "ホッカイドウ",
    "prefecture_code": 1,
    "city": "上磯郡木古内町",
    "city_kana": "カミイソグンキコナイチョウ",
    "town": "橋呉",
    "town_kana": "ハシクレ",
    "street": null,
    "office_name": null,
    "office_name_kana": null
  },
  "0408": {
    "postcode": "0490408",
    "prefecture": "北海道",
    "prefecture_kana": "ホッカイドウ",
    "prefecture_code": 1,
    "city": "上磯郡木古内町",
    "city_kana": "カミイソグンキコナイチョウ",
    "town": "幸連",
    "town_kana": "コウレン",
    "street": null,
    "office_name": null,
    "office_name_kana": null
  },
  "0411": {
    "postcode": "0490411",
    "prefecture": "北海道",
    "prefecture_kana": "ホッカイドウ",
    "prefecture_code": 1,
    "city": "上磯郡木古内町",
    "city_kana": "カミイソグンキコナイチョウ",
    "town": "札苅",
    "town_kana": "サツカリ",
    "street": null,
    "office_name": null,
    "office_name_kana": null
  },
  "0412": {
    "postcode": "0490412",
    "prefecture": "北海道",
    "prefecture_kana": "ホッカイドウ",
    "prefecture_code": 1,
    "city": "上磯郡木古内町",
    "city_kana": "カミイソグンキコナイチョウ",
    "town": "大平",
    "town_kana": "オオヒラ",
    "street": null,
    "office_name": null,
    "office_name_kana": null
  },
  "0421": {
    "postcode": "0490421",
    "prefecture": "北海道",
    "prefecture_kana": "ホッカイドウ",
    "prefecture_code": 1,
    "city": "上磯郡木古内町",
    "city_kana": "カミイソグンキコナイチョウ",
    "town": "前浜",
    "town_kana": "マエハマ",
    "street": null,
    "office_name": null,
    "office_name_kana": null
  },
  "0422": {
    "postcode": "0490422",
    "prefecture": "北海道",
    "prefecture_kana": "ホッカイドウ",
    "prefecture_code": 1,
    "city": "上磯郡木古内町",
    "city_kana": "カミイソグンキコナイチョウ",
    "town": "本町",
    "town_kana": "ホンチョウ",
    "street": null,
    "office_name": null,
    "office_name_kana": null
  },
  "0431": {
    "postcode": "0490431",
    "prefecture": "北海道",
    "prefecture_kana": "ホッカイドウ",
    "prefecture_code": 1,
    "city": "上磯郡木古内町",
    "city_kana": "カミイソグンキコナイチョウ",
    "town": "木古内",
    "town_kana": "キコナイ",
    "street": null,
    "office_name": null,
    "office_name_kana": null
  },
  "0441": {
    "postcode": "0490441",
    "prefecture": "北海道",
    "prefecture_kana": "ホッカイドウ",
    "prefecture_code": 1,
    "city": "上磯郡木古内町",
    "city_kana": "カミイソグンキコナイチョウ",
    "town": "中野",
    "town_kana": "ナカノ",
    "street": null,
    "office_name": null,
    "office_name_kana": null
  },
  "0451": {
    "postcode": "0490451",
    "prefecture": "北海道",
    "prefecture_kana": "ホッカイドウ",
    "prefecture_code": 1,
    "city": "上磯郡木古内町",
    "city_kana": "カミイソグンキコナイチョウ",
    "town": "新道",
    "town_kana": "シンミチ",
    "street": null,
    "office_name": null,
    "office_name_kana": null
  },
  "0452": {
    "postcode": "0490452",
    "prefecture": "北海道",
    "prefecture_kana": "ホッカイドウ",
    "prefecture_code": 1,
    "city": "上磯郡木古内町",
    "city_kana": "カミイソグンキコナイチョウ",
    "town": "建川",
    "town_kana": "タテカワ",
    "street": null,
    "office_name": null,
    "office_name_kana": null
  },
  "0453": {
    "postcode": "0490453",
    "prefecture": "北海道",
    "prefecture_kana": "ホッカイドウ",
    "prefecture_code": 1,
    "city": "上磯郡木古内町",
    "city_kana": "カミイソグンキコナイチョウ",
    "town": "大川",
    "town_kana": "オオカワ",
    "street": null,
    "office_name": null,
    "office_name_kana": null
  },
  "0454": {
    "postcode": "0490454",
    "prefecture": "北海道",
    "prefecture_kana": "ホッカイドウ",
    "prefecture_code": 1,
    "city": "上磯郡木古内町",
    "city_kana": "カミイソグンキコナイチョウ",
    "town": "瓜谷",
    "town_kana": "ウリヤ",
    "street": null,
    "office_name": null,
    "office_name_kana": null
  },
  "0455": {
    "postcode": "0490455",
    "prefecture": "北海道",
    "prefecture_kana": "ホッカイドウ",
    "prefecture_code": 1,
    "city": "上磯郡木古内町",
    "city_kana": "カミイソグンキコナイチョウ",
    "town": "鶴岡",
    "town_kana": "ツルオカ",
    "street": null,
    "office_name": null,
    "office_name_kana": null
  },
  "0561": {
    "postcode": "0490561",
    "prefecture": "北海道",
    "prefecture_kana": "ホッカイドウ",
    "prefecture_code": 1,
    "city": "檜山郡上ノ国町",
    "city_kana": "ヒヤマグンカミノクニチョウ",
    "town": "神明",
    "town_kana": "シンメイ",
    "street": null,
    "office_name": null,
    "office_name_kana": null
  },
  "0562": {
    "postcode": "0490562",
    "prefecture": "北海道",
    "prefecture_kana": "ホッカイドウ",
    "prefecture_code": 1,
    "city": "檜山郡上ノ国町",
    "city_kana": "ヒヤマグンカミノクニチョウ",
    "town": "湯ノ岱",
    "town_kana": "ユノタイ",
    "street": null,
    "office_name": null,
    "office_name_kana": null
  },
  "0563": {
    "postcode": "0490563",
    "prefecture": "北海道",
    "prefecture_kana": "ホッカイドウ",
    "prefecture_code": 1,
    "city": "檜山郡上ノ国町",
    "city_kana": "ヒヤマグンカミノクニチョウ",
    "town": "宮越",
    "town_kana": "ミヤコシ",
    "street": null,
    "office_name": null,
    "office_name_kana": null
  },
  "0564": {
    "postcode": "0490564",
    "prefecture": "北海道",
    "prefecture_kana": "ホッカイドウ",
    "prefecture_code": 1,
    "city": "檜山郡上ノ国町",
    "city_kana": "ヒヤマグンカミノクニチョウ",
    "town": "早瀬",
    "town_kana": "ハヤセ",
    "street": null,
    "office_name": null,
    "office_name_kana": null
  },
  "0600": {
    "postcode": "0490600",
    "prefecture": "北海道",
    "prefecture_kana": "ホッカイドウ",
    "prefecture_code": 1,
    "city": "檜山郡上ノ国町",
    "city_kana": "ヒヤマグンカミノクニチョウ",
    "town": "",
    "town_kana": "",
    "street": null,
    "office_name": null,
    "office_name_kana": null
  },
  "0601": {
    "postcode": "0490601",
    "prefecture": "北海道",
    "prefecture_kana": "ホッカイドウ",
    "prefecture_code": 1,
    "city": "檜山郡上ノ国町",
    "city_kana": "ヒヤマグンカミノクニチョウ",
    "town": "勝山",
    "town_kana": "カツヤマ",
    "street": null,
    "office_name": null,
    "office_name_kana": null
  },
  "0602": {
    "postcode": "0490602",
    "prefecture": "北海道",
    "prefecture_kana": "ホッカイドウ",
    "prefecture_code": 1,
    "city": "檜山郡上ノ国町",
    "city_kana": "ヒヤマグンカミノクニチョウ",
    "town": "原歌",
    "town_kana": "ハラウタ",
    "street": null,
    "office_name": null,
    "office_name_kana": null
  },
  "0603": {
    "postcode": "0490603",
    "prefecture": "北海道",
    "prefecture_kana": "ホッカイドウ",
    "prefecture_code": 1,
    "city": "檜山郡上ノ国町",
    "city_kana": "ヒヤマグンカミノクニチョウ",
    "town": "大崎",
    "town_kana": "オオサキ",
    "street": null,
    "office_name": null,
    "office_name_kana": null
  },
  "0604": {
    "postcode": "0490604",
    "prefecture": "北海道",
    "prefecture_kana": "ホッカイドウ",
    "prefecture_code": 1,
    "city": "檜山郡上ノ国町",
    "city_kana": "ヒヤマグンカミノクニチョウ",
    "town": "大安在",
    "town_kana": "オオアンザイ",
    "street": null,
    "office_name": null,
    "office_name_kana": null
  },
  "0605": {
    "postcode": "0490605",
    "prefecture": "北海道",
    "prefecture_kana": "ホッカイドウ",
    "prefecture_code": 1,
    "city": "檜山郡上ノ国町",
    "city_kana": "ヒヤマグンカミノクニチョウ",
    "town": "小安在",
    "town_kana": "コアンザイ",
    "street": null,
    "office_name": null,
    "office_name_kana": null
  },
  "0606": {
    "postcode": "0490606",
    "prefecture": "北海道",
    "prefecture_kana": "ホッカイドウ",
    "prefecture_code": 1,
    "city": "檜山郡上ノ国町",
    "city_kana": "ヒヤマグンカミノクニチョウ",
    "town": "木ノ子",
    "town_kana": "キノコ",
    "street": null,
    "office_name": null,
    "office_name_kana": null
  },
  "0607": {
    "postcode": "0490607",
    "prefecture": "北海道",
    "prefecture_kana": "ホッカイドウ",
    "prefecture_code": 1,
    "city": "檜山郡上ノ国町",
    "city_kana": "ヒヤマグンカミノクニチョウ",
    "town": "扇石",
    "town_kana": "オウギイシ",
    "street": null,
    "office_name": null,
    "office_name_kana": null
  },
  "0608": {
    "postcode": "0490608",
    "prefecture": "北海道",
    "prefecture_kana": "ホッカイドウ",
    "prefecture_code": 1,
    "city": "檜山郡上ノ国町",
    "city_kana": "ヒヤマグンカミノクニチョウ",
    "town": "汐吹",
    "town_kana": "シオフキ",
    "street": null,
    "office_name": null,
    "office_name_kana": null
  },
  "0611": {
    "postcode": "0490611",
    "prefecture": "北海道",
    "prefecture_kana": "ホッカイドウ",
    "prefecture_code": 1,
    "city": "檜山郡上ノ国町",
    "city_kana": "ヒヤマグンカミノクニチョウ",
    "town": "大留",
    "town_kana": "オオドメ",
    "street": null,
    "office_name": null,
    "office_name_kana": null
  },
  "0612": {
    "postcode": "0490612",
    "prefecture": "北海道",
    "prefecture_kana": "ホッカイドウ",
    "prefecture_code": 1,
    "city": "檜山郡上ノ国町",
    "city_kana": "ヒヤマグンカミノクニチョウ",
    "town": "上ノ国",
    "town_kana": "カミノクニ",
    "street": null,
    "office_name": null,
    "office_name_kana": null
  },
  "0613": {
    "postcode": "0490613",
    "prefecture": "北海道",
    "prefecture_kana": "ホッカイドウ",
    "prefecture_code": 1,
    "city": "檜山郡上ノ国町",
    "city_kana": "ヒヤマグンカミノクニチョウ",
    "town": "向浜",
    "town_kana": "ムカイハマ",
    "street": null,
    "office_name": null,
    "office_name_kana": null
  },
  "0621": {
    "postcode": "0490621",
    "prefecture": "北海道",
    "prefecture_kana": "ホッカイドウ",
    "prefecture_code": 1,
    "city": "檜山郡上ノ国町",
    "city_kana": "ヒヤマグンカミノクニチョウ",
    "town": "内郷",
    "town_kana": "ウチゴウ",
    "street": null,
    "office_name": null,
    "office_name_kana": null
  },
  "0622": {
    "postcode": "0490622",
    "prefecture": "北海道",
    "prefecture_kana": "ホッカイドウ",
    "prefecture_code": 1,
    "city": "檜山郡上ノ国町",
    "city_kana": "ヒヤマグンカミノクニチョウ",
    "town": "北村",
    "town_kana": "キタムラ",
    "street": null,
    "office_name": null,
    "office_name_kana": null
  },
  "0623": {
    "postcode": "0490623",
    "prefecture": "北海道",
    "prefecture_kana": "ホッカイドウ",
    "prefecture_code": 1,
    "city": "檜山郡上ノ国町",
    "city_kana": "ヒヤマグンカミノクニチョウ",
    "town": "新村",
    "town_kana": "シンムラ",
    "street": null,
    "office_name": null,
    "office_name_kana": null
  },
  "0624": {
    "postcode": "0490624",
    "prefecture": "北海道",
    "prefecture_kana": "ホッカイドウ",
    "prefecture_code": 1,
    "city": "檜山郡上ノ国町",
    "city_kana": "ヒヤマグンカミノクニチョウ",
    "town": "中須田",
    "town_kana": "ナカスダ",
    "street": null,
    "office_name": null,
    "office_name_kana": null
  },
  "0625": {
    "postcode": "0490625",
    "prefecture": "北海道",
    "prefecture_kana": "ホッカイドウ",
    "prefecture_code": 1,
    "city": "檜山郡上ノ国町",
    "city_kana": "ヒヤマグンカミノクニチョウ",
    "town": "豊田",
    "town_kana": "トヨタ",
    "street": null,
    "office_name": null,
    "office_name_kana": null
  },
  "0626": {
    "postcode": "0490626",
    "prefecture": "北海道",
    "prefecture_kana": "ホッカイドウ",
    "prefecture_code": 1,
    "city": "檜山郡上ノ国町",
    "city_kana": "ヒヤマグンカミノクニチョウ",
    "town": "桂岡",
    "town_kana": "カツラオカ",
    "street": null,
    "office_name": null,
    "office_name_kana": null
  },
  "0627": {
    "postcode": "0490627",
    "prefecture": "北海道",
    "prefecture_kana": "ホッカイドウ",
    "prefecture_code": 1,
    "city": "檜山郡上ノ国町",
    "city_kana": "ヒヤマグンカミノクニチョウ",
    "town": "小森",
    "town_kana": "コモリ",
    "street": null,
    "office_name": null,
    "office_name_kana": null
  },
  "0692": {
    "postcode": "0490692",
    "prefecture": "北海道",
    "prefecture_kana": "ホッカイドウ",
    "prefecture_code": 1,
    "city": "檜山郡上ノ国町",
    "city_kana": "ヒヤマグンカミノクニチョウ",
    "town": "字大留",
    "town_kana": null,
    "street": "２４４−９（上ノ国郵便局私書箱第２号）",
    "office_name": "江差信用金庫　上ノ国支店",
    "office_name_kana": "エサシシンヨウキンコ カミノクニシテン"
  },
  "0693": {
    "postcode": "0490693",
    "prefecture": "北海道",
    "prefecture_kana": "ホッカイドウ",
    "prefecture_code": 1,
    "city": "檜山郡上ノ国町",
    "city_kana": "ヒヤマグンカミノクニチョウ",
    "town": "字大留",
    "town_kana": null,
    "street": "１２２−１",
    "office_name": "株式会社　カイト",
    "office_name_kana": "カブシキガイシヤ カイト"
  },
  "0695": {
    "postcode": "0490695",
    "prefecture": "北海道",
    "prefecture_kana": "ホッカイドウ",
    "prefecture_code": 1,
    "city": "檜山郡上ノ国町",
    "city_kana": "ヒヤマグンカミノクニチョウ",
    "town": "字大留",
    "town_kana": null,
    "street": "３５１番地",
    "office_name": "北海道上ノ国高等学校",
    "office_name_kana": "ホツカイドウカミノクニコウトウガツコウ"
  },
  "0697": {
    "postcode": "0490697",
    "prefecture": "北海道",
    "prefecture_kana": "ホッカイドウ",
    "prefecture_code": 1,
    "city": "檜山郡上ノ国町",
    "city_kana": "ヒヤマグンカミノクニチョウ",
    "town": "字大留",
    "town_kana": null,
    "street": "２４６番地",
    "office_name": "新函館農業協同組合　上ノ国支店",
    "office_name_kana": "シンハコダテノウギヨウキヨウドウクミアイ カミノクニシテン"
  },
  "0698": {
    "postcode": "0490698",
    "prefecture": "北海道",
    "prefecture_kana": "ホッカイドウ",
    "prefecture_code": 1,
    "city": "檜山郡上ノ国町",
    "city_kana": "ヒヤマグンカミノクニチョウ",
    "town": "字大留",
    "town_kana": null,
    "street": "１００番地",
    "office_name": "上ノ国町役場",
    "office_name_kana": "カミノクニチヨウヤクバ"
  },
  "0741": {
    "postcode": "0490741",
    "prefecture": "北海道",
    "prefecture_kana": "ホッカイドウ",
    "prefecture_code": 1,
    "city": "檜山郡上ノ国町",
    "city_kana": "ヒヤマグンカミノクニチョウ",
    "town": "石崎",
    "town_kana": "イシザキ",
    "street": null,
    "office_name": null,
    "office_name_kana": null
  },
  "0742": {
    "postcode": "0490742",
    "prefecture": "北海道",
    "prefecture_kana": "ホッカイドウ",
    "prefecture_code": 1,
    "city": "檜山郡上ノ国町",
    "city_kana": "ヒヤマグンカミノクニチョウ",
    "town": "館野",
    "town_kana": "タテノ",
    "street": null,
    "office_name": null,
    "office_name_kana": null
  },
  "0743": {
    "postcode": "0490743",
    "prefecture": "北海道",
    "prefecture_kana": "ホッカイドウ",
    "prefecture_code": 1,
    "city": "檜山郡上ノ国町",
    "city_kana": "ヒヤマグンカミノクニチョウ",
    "town": "小砂子",
    "town_kana": "チイサゴ",
    "street": null,
    "office_name": null,
    "office_name_kana": null
  },
  "0744": {
    "postcode": "0490744",
    "prefecture": "北海道",
    "prefecture_kana": "ホッカイドウ",
    "prefecture_code": 1,
    "city": "檜山郡上ノ国町",
    "city_kana": "ヒヤマグンカミノクニチョウ",
    "town": "早川",
    "town_kana": "ハヤカワ",
    "street": null,
    "office_name": null,
    "office_name_kana": null
  },
  "1100": {
    "postcode": "0491100",
    "prefecture": "北海道",
    "prefecture_kana": "ホッカイドウ",
    "prefecture_code": 1,
    "city": "上磯郡知内町",
    "city_kana": "カミイソグンシリウチチョウ",
    "town": "",
    "town_kana": "",
    "street": null,
    "office_name": null,
    "office_name_kana": null
  },
  "1101": {
    "postcode": "0491101",
    "prefecture": "北海道",
    "prefecture_kana": "ホッカイドウ",
    "prefecture_code": 1,
    "city": "上磯郡知内町",
    "city_kana": "カミイソグンシリウチチョウ",
    "town": "中ノ川",
    "town_kana": "ナカノカワ",
    "street": null,
    "office_name": null,
    "office_name_kana": null
  },
  "1102": {
    "postcode": "0491102",
    "prefecture": "北海道",
    "prefecture_kana": "ホッカイドウ",
    "prefecture_code": 1,
    "city": "上磯郡知内町",
    "city_kana": "カミイソグンシリウチチョウ",
    "town": "森越",
    "town_kana": "モリコシ",
    "street": null,
    "office_name": null,
    "office_name_kana": null
  },
  "1103": {
    "postcode": "0491103",
    "prefecture": "北海道",
    "prefecture_kana": "ホッカイドウ",
    "prefecture_code": 1,
    "city": "上磯郡知内町",
    "city_kana": "カミイソグンシリウチチョウ",
    "town": "重内",
    "town_kana": "オモナイ",
    "street": null,
    "office_name": null,
    "office_name_kana": null
  },
  "1104": {
    "postcode": "0491104",
    "prefecture": "北海道",
    "prefecture_kana": "ホッカイドウ",
    "prefecture_code": 1,
    "city": "上磯郡知内町",
    "city_kana": "カミイソグンシリウチチョウ",
    "town": "涌元",
    "town_kana": "ワキモト",
    "street": null,
    "office_name": null,
    "office_name_kana": null
  },
  "1105": {
    "postcode": "0491105",
    "prefecture": "北海道",
    "prefecture_kana": "ホッカイドウ",
    "prefecture_code": 1,
    "city": "上磯郡知内町",
    "city_kana": "カミイソグンシリウチチョウ",
    "town": "小谷石",
    "town_kana": "コタニイシ",
    "street": null,
    "office_name": null,
    "office_name_kana": null
  },
  "1106": {
    "postcode": "0491106",
    "prefecture": "北海道",
    "prefecture_kana": "ホッカイドウ",
    "prefecture_code": 1,
    "city": "上磯郡知内町",
    "city_kana": "カミイソグンシリウチチョウ",
    "town": "元町",
    "town_kana": "モトマチ",
    "street": null,
    "office_name": null,
    "office_name_kana": null
  },
  "1107": {
    "postcode": "0491107",
    "prefecture": "北海道",
    "prefecture_kana": "ホッカイドウ",
    "prefecture_code": 1,
    "city": "上磯郡知内町",
    "city_kana": "カミイソグンシリウチチョウ",
    "town": "上雷",
    "town_kana": "ジョウライ",
    "street": null,
    "office_name": null,
    "office_name_kana": null
  },
  "1221": {
    "postcode": "0491221",
    "prefecture": "北海道",
    "prefecture_kana": "ホッカイドウ",
    "prefecture_code": 1,
    "city": "上磯郡知内町",
    "city_kana": "カミイソグンシリウチチョウ",
    "town": "湯ノ里",
    "town_kana": "ユノサト",
    "street": null,
    "office_name": null,
    "office_name_kana": null
  },
  "1300": {
    "postcode": "0491300",
    "prefecture": "北海道",
    "prefecture_kana": "ホッカイドウ",
    "prefecture_code": 1,
    "city": "松前郡福島町",
    "city_kana": "マツマエグンフクシマチョウ",
    "town": "",
    "town_kana": "",
    "street": null,
    "office_name": null,
    "office_name_kana": null
  },
  "1301": {
    "postcode": "0491301",
    "prefecture": "北海道",
    "prefecture_kana": "ホッカイドウ",
    "prefecture_code": 1,
    "city": "松前郡福島町",
    "city_kana": "マツマエグンフクシマチョウ",
    "town": "白符",
    "town_kana": "シラフ",
    "street": null,
    "office_name": null,
    "office_name_kana": null
  },
  "1302": {
    "postcode": "0491302",
    "prefecture": "北海道",
    "prefecture_kana": "ホッカイドウ",
    "prefecture_code": 1,
    "city": "松前郡福島町",
    "city_kana": "マツマエグンフクシマチョウ",
    "town": "日向",
    "town_kana": "ヒュウガ",
    "street": null,
    "office_name": null,
    "office_name_kana": null
  },
  "1311": {
    "postcode": "0491311",
    "prefecture": "北海道",
    "prefecture_kana": "ホッカイドウ",
    "prefecture_code": 1,
    "city": "松前郡福島町",
    "city_kana": "マツマエグンフクシマチョウ",
    "town": "桧倉",
    "town_kana": "ヒクラ",
    "street": null,
    "office_name": null,
    "office_name_kana": null
  },
  "1312": [
    {
      "postcode": "0491312",
      "prefecture": "北海道",
      "prefecture_kana": "ホッカイドウ",
      "prefecture_code": 1,
      "city": "松前郡福島町",
      "city_kana": "マツマエグンフクシマチョウ",
      "town": "上町",
      "town_kana": "ウエマチ",
      "street": null,
      "office_name": null,
      "office_name_kana": null
    },
    {
      "postcode": "0491312",
      "prefecture": "北海道",
      "prefecture_kana": "ホッカイドウ",
      "prefecture_code": 1,
      "city": "松前郡福島町",
      "city_kana": "マツマエグンフクシマチョウ",
      "town": "川原町",
      "town_kana": "カワラマチ",
      "street": null,
      "office_name": null,
      "office_name_kana": null
    },
    {
      "postcode": "0491312",
      "prefecture": "北海道",
      "prefecture_kana": "ホッカイドウ",
      "prefecture_code": 1,
      "city": "松前郡福島町",
      "city_kana": "マツマエグンフクシマチョウ",
      "town": "館古",
      "town_kana": "タテコ",
      "street": null,
      "office_name": null,
      "office_name_kana": null
    },
    {
      "postcode": "0491312",
      "prefecture": "北海道",
      "prefecture_kana": "ホッカイドウ",
      "prefecture_code": 1,
      "city": "松前郡福島町",
      "city_kana": "マツマエグンフクシマチョウ",
      "town": "福島",
      "town_kana": "フクシマ",
      "street": null,
      "office_name": null,
      "office_name_kana": null
    },
    {
      "postcode": "0491312",
      "prefecture": "北海道",
      "prefecture_kana": "ホッカイドウ",
      "prefecture_code": 1,
      "city": "松前郡福島町",
      "city_kana": "マツマエグンフクシマチョウ",
      "town": "本町",
      "town_kana": "ホンチョウ",
      "street": null,
      "office_name": null,
      "office_name_kana": null
    },
    {
      "postcode": "0491312",
      "prefecture": "北海道",
      "prefecture_kana": "ホッカイドウ",
      "prefecture_code": 1,
      "city": "松前郡福島町",
      "city_kana": "マツマエグンフクシマチョウ",
      "town": "吉田町",
      "town_kana": "ヨシダマチ",
      "street": null,
      "office_name": null,
      "office_name_kana": null
    }
  ],
  "1321": [
    {
      "postcode": "0491321",
      "prefecture": "北海道",
      "prefecture_kana": "ホッカイドウ",
      "prefecture_code": 1,
      "city": "松前郡福島町",
      "city_kana": "マツマエグンフクシマチョウ",
      "town": "月崎",
      "town_kana": "ツキサキ",
      "street": null,
      "office_name": null,
      "office_name_kana": null
    },
    {
      "postcode": "0491321",
      "prefecture": "北海道",
      "prefecture_kana": "ホッカイドウ",
      "prefecture_code": 1,
      "city": "松前郡福島町",
      "city_kana": "マツマエグンフクシマチョウ",
      "town": "丸山団地",
      "town_kana": "マルヤマダンチ",
      "street": null,
      "office_name": null,
      "office_name_kana": null
    },
    {
      "postcode": "0491321",
      "prefecture": "北海道",
      "prefecture_kana": "ホッカイドウ",
      "prefecture_code": 1,
      "city": "松前郡福島町",
      "city_kana": "マツマエグンフクシマチョウ",
      "town": "緑町",
      "town_kana": "ミドリチョウ",
      "street": null,
      "office_name": null,
      "office_name_kana": null
    }
  ],
  "1322": {
    "postcode": "0491322",
    "prefecture": "北海道",
    "prefecture_kana": "ホッカイドウ",
    "prefecture_code": 1,
    "city": "松前郡福島町",
    "city_kana": "マツマエグンフクシマチョウ",
    "town": "塩釜",
    "town_kana": "シオガマ",
    "street": null,
    "office_name": null,
    "office_name_kana": null
  },
  "1323": {
    "postcode": "0491323",
    "prefecture": "北海道",
    "prefecture_kana": "ホッカイドウ",
    "prefecture_code": 1,
    "city": "松前郡福島町",
    "city_kana": "マツマエグンフクシマチョウ",
    "town": "浦和",
    "town_kana": "ウラワ",
    "street": null,
    "office_name": null,
    "office_name_kana": null
  },
  "1324": {
    "postcode": "0491324",
    "prefecture": "北海道",
    "prefecture_kana": "ホッカイドウ",
    "prefecture_code": 1,
    "city": "松前郡福島町",
    "city_kana": "マツマエグンフクシマチョウ",
    "town": "日の出",
    "town_kana": "ヒノデ",
    "street": null,
    "office_name": null,
    "office_name_kana": null
  },
  "1325": {
    "postcode": "0491325",
    "prefecture": "北海道",
    "prefecture_kana": "ホッカイドウ",
    "prefecture_code": 1,
    "city": "松前郡福島町",
    "city_kana": "マツマエグンフクシマチョウ",
    "town": "岩部",
    "town_kana": "イワベ",
    "street": null,
    "office_name": null,
    "office_name_kana": null
  },
  "1331": [
    {
      "postcode": "0491331",
      "prefecture": "北海道",
      "prefecture_kana": "ホッカイドウ",
      "prefecture_code": 1,
      "city": "松前郡福島町",
      "city_kana": "マツマエグンフクシマチョウ",
      "town": "新栄町",
      "town_kana": "シンエイチョウ",
      "street": null,
      "office_name": null,
      "office_name_kana": null
    },
    {
      "postcode": "0491331",
      "prefecture": "北海道",
      "prefecture_kana": "ホッカイドウ",
      "prefecture_code": 1,
      "city": "松前郡福島町",
      "city_kana": "マツマエグンフクシマチョウ",
      "town": "三岳",
      "town_kana": "ミタケ",
      "street": null,
      "office_name": null,
      "office_name_kana": null
    }
  ],
  "1332": {
    "postcode": "0491332",
    "prefecture": "北海道",
    "prefecture_kana": "ホッカイドウ",
    "prefecture_code": 1,
    "city": "松前郡福島町",
    "city_kana": "マツマエグンフクシマチョウ",
    "town": "千軒",
    "town_kana": "センゲン",
    "street": null,
    "office_name": null,
    "office_name_kana": null
  },
  "1392": {
    "postcode": "0491392",
    "prefecture": "北海道",
    "prefecture_kana": "ホッカイドウ",
    "prefecture_code": 1,
    "city": "松前郡福島町",
    "city_kana": "マツマエグンフクシマチョウ",
    "town": "字福島",
    "town_kana": null,
    "street": "８２０",
    "office_name": "福島町役場",
    "office_name_kana": "フクシマチヨウヤクバ"
  },
  "1451": {
    "postcode": "0491451",
    "prefecture": "北海道",
    "prefecture_kana": "ホッカイドウ",
    "prefecture_code": 1,
    "city": "松前郡福島町",
    "city_kana": "マツマエグンフクシマチョウ",
    "town": "宮歌",
    "town_kana": "ミヤウタ",
    "street": null,
    "office_name": null,
    "office_name_kana": null
  },
  "1452": {
    "postcode": "0491452",
    "prefecture": "北海道",
    "prefecture_kana": "ホッカイドウ",
    "prefecture_code": 1,
    "city": "松前郡福島町",
    "city_kana": "マツマエグンフクシマチョウ",
    "town": "豊浜",
    "town_kana": "トヨハマ",
    "street": null,
    "office_name": null,
    "office_name_kana": null
  },
  "1453": [
    {
      "postcode": "0491453",
      "prefecture": "北海道",
      "prefecture_kana": "ホッカイドウ",
      "prefecture_code": 1,
      "city": "松前郡福島町",
      "city_kana": "マツマエグンフクシマチョウ",
      "town": "美山",
      "town_kana": "ミヤマ",
      "street": null,
      "office_name": null,
      "office_name_kana": null
    },
    {
      "postcode": "0491453",
      "prefecture": "北海道",
      "prefecture_kana": "ホッカイドウ",
      "prefecture_code": 1,
      "city": "松前郡福島町",
      "city_kana": "マツマエグンフクシマチョウ",
      "town": "吉岡",
      "town_kana": "ヨシオカ",
      "street": null,
      "office_name": null,
      "office_name_kana": null
    }
  ],
  "1454": {
    "postcode": "0491454",
    "prefecture": "北海道",
    "prefecture_kana": "ホッカイドウ",
    "prefecture_code": 1,
    "city": "松前郡福島町",
    "city_kana": "マツマエグンフクシマチョウ",
    "town": "館崎",
    "town_kana": "タテサキ",
    "street": null,
    "office_name": null,
    "office_name_kana": null
  },
  "1455": {
    "postcode": "0491455",
    "prefecture": "北海道",
    "prefecture_kana": "ホッカイドウ",
    "prefecture_code": 1,
    "city": "松前郡福島町",
    "city_kana": "マツマエグンフクシマチョウ",
    "town": "吉野",
    "town_kana": "ヨシノ",
    "street": null,
    "office_name": null,
    "office_name_kana": null
  },
  "1456": {
    "postcode": "0491456",
    "prefecture": "北海道",
    "prefecture_kana": "ホッカイドウ",
    "prefecture_code": 1,
    "city": "松前郡福島町",
    "city_kana": "マツマエグンフクシマチョウ",
    "town": "松浦",
    "town_kana": "マツウラ",
    "street": null,
    "office_name": null,
    "office_name_kana": null
  },
  "1500": {
    "postcode": "0491500",
    "prefecture": "北海道",
    "prefecture_kana": "ホッカイドウ",
    "prefecture_code": 1,
    "city": "松前郡松前町",
    "city_kana": "マツマエグンマツマエチョウ",
    "town": "",
    "town_kana": "",
    "street": null,
    "office_name": null,
    "office_name_kana": null
  },
  "1501": {
    "postcode": "0491501",
    "prefecture": "北海道",
    "prefecture_kana": "ホッカイドウ",
    "prefecture_code": 1,
    "city": "松前郡松前町",
    "city_kana": "マツマエグンマツマエチョウ",
    "town": "建石",
    "town_kana": "タテイシ",
    "street": null,
    "office_name": null,
    "office_name_kana": null
  },
  "1502": {
    "postcode": "0491502",
    "prefecture": "北海道",
    "prefecture_kana": "ホッカイドウ",
    "prefecture_code": 1,
    "city": "松前郡松前町",
    "city_kana": "マツマエグンマツマエチョウ",
    "town": "弁天",
    "town_kana": "ベンテン",
    "street": null,
    "office_name": null,
    "office_name_kana": null
  },
  "1503": {
    "postcode": "0491503",
    "prefecture": "北海道",
    "prefecture_kana": "ホッカイドウ",
    "prefecture_code": 1,
    "city": "松前郡松前町",
    "city_kana": "マツマエグンマツマエチョウ",
    "town": "大磯",
    "town_kana": "オオイソ",
    "street": null,
    "office_name": null,
    "office_name_kana": null
  },
  "1504": {
    "postcode": "0491504",
    "prefecture": "北海道",
    "prefecture_kana": "ホッカイドウ",
    "prefecture_code": 1,
    "city": "松前郡松前町",
    "city_kana": "マツマエグンマツマエチョウ",
    "town": "愛宕",
    "town_kana": "アタゴ",
    "street": null,
    "office_name": null,
    "office_name_kana": null
  },
  "1505": {
    "postcode": "0491505",
    "prefecture": "北海道",
    "prefecture_kana": "ホッカイドウ",
    "prefecture_code": 1,
    "city": "松前郡松前町",
    "city_kana": "マツマエグンマツマエチョウ",
    "town": "博多",
    "town_kana": "ハカタ",
    "street": null,
    "office_name": null,
    "office_name_kana": null
  },
  "1506": {
    "postcode": "0491506",
    "prefecture": "北海道",
    "prefecture_kana": "ホッカイドウ",
    "prefecture_code": 1,
    "city": "松前郡松前町",
    "city_kana": "マツマエグンマツマエチョウ",
    "town": "唐津",
    "town_kana": "カラツ",
    "street": null,
    "office_name": null,
    "office_name_kana": null
  },
  "1507": {
    "postcode": "0491507",
    "prefecture": "北海道",
    "prefecture_kana": "ホッカイドウ",
    "prefecture_code": 1,
    "city": "松前郡松前町",
    "city_kana": "マツマエグンマツマエチョウ",
    "town": "西館",
    "town_kana": "ニシダテ",
    "street": null,
    "office_name": null,
    "office_name_kana": null
  },
  "1511": {
    "postcode": "0491511",
    "prefecture": "北海道",
    "prefecture_kana": "ホッカイドウ",
    "prefecture_code": 1,
    "city": "松前郡松前町",
    "city_kana": "マツマエグンマツマエチョウ",
    "town": "松城",
    "town_kana": "マツシロ",
    "street": null,
    "office_name": null,
    "office_name_kana": null
  },
  "1512": {
    "postcode": "0491512",
    "prefecture": "北海道",
    "prefecture_kana": "ホッカイドウ",
    "prefecture_code": 1,
    "city": "松前郡松前町",
    "city_kana": "マツマエグンマツマエチョウ",
    "town": "福山",
    "town_kana": "フクヤマ",
    "street": null,
    "office_name": null,
    "office_name_kana": null
  },
  "1513": {
    "postcode": "0491513",
    "prefecture": "北海道",
    "prefecture_kana": "ホッカイドウ",
    "prefecture_code": 1,
    "city": "松前郡松前町",
    "city_kana": "マツマエグンマツマエチョウ",
    "town": "神明",
    "town_kana": "シンメイ",
    "street": null,
    "office_name": null,
    "office_name_kana": null
  },
  "1514": {
    "postcode": "0491514",
    "prefecture": "北海道",
    "prefecture_kana": "ホッカイドウ",
    "prefecture_code": 1,
    "city": "松前郡松前町",
    "city_kana": "マツマエグンマツマエチョウ",
    "town": "豊岡",
    "town_kana": "トヨオカ",
    "street": null,
    "office_name": null,
    "office_name_kana": null
  },
  "1515": {
    "postcode": "0491515",
    "prefecture": "北海道",
    "prefecture_kana": "ホッカイドウ",
    "prefecture_code": 1,
    "city": "松前郡松前町",
    "city_kana": "マツマエグンマツマエチョウ",
    "town": "月島",
    "town_kana": "ツキシマ",
    "street": null,
    "office_name": null,
    "office_name_kana": null
  },
  "1516": {
    "postcode": "0491516",
    "prefecture": "北海道",
    "prefecture_kana": "ホッカイドウ",
    "prefecture_code": 1,
    "city": "松前郡松前町",
    "city_kana": "マツマエグンマツマエチョウ",
    "town": "東山",
    "town_kana": "ヒガシヤマ",
    "street": null,
    "office_name": null,
    "office_name_kana": null
  },
  "1517": {
    "postcode": "0491517",
    "prefecture": "北海道",
    "prefecture_kana": "ホッカイドウ",
    "prefecture_code": 1,
    "city": "松前郡松前町",
    "city_kana": "マツマエグンマツマエチョウ",
    "town": "朝日",
    "town_kana": "アサヒ",
    "street": null,
    "office_name": null,
    "office_name_kana": null
  },
  "1521": {
    "postcode": "0491521",
    "prefecture": "北海道",
    "prefecture_kana": "ホッカイドウ",
    "prefecture_code": 1,
    "city": "松前郡松前町",
    "city_kana": "マツマエグンマツマエチョウ",
    "town": "上川",
    "town_kana": "カミカワ",
    "street": null,
    "office_name": null,
    "office_name_kana": null
  },
  "1522": {
    "postcode": "0491522",
    "prefecture": "北海道",
    "prefecture_kana": "ホッカイドウ",
    "prefecture_code": 1,
    "city": "松前郡松前町",
    "city_kana": "マツマエグンマツマエチョウ",
    "town": "大沢",
    "town_kana": "オオサワ",
    "street": null,
    "office_name": null,
    "office_name_kana": null
  },
  "1523": {
    "postcode": "0491523",
    "prefecture": "北海道",
    "prefecture_kana": "ホッカイドウ",
    "prefecture_code": 1,
    "city": "松前郡松前町",
    "city_kana": "マツマエグンマツマエチョウ",
    "town": "荒谷",
    "town_kana": "アラヤ",
    "street": null,
    "office_name": null,
    "office_name_kana": null
  },
  "1524": {
    "postcode": "0491524",
    "prefecture": "北海道",
    "prefecture_kana": "ホッカイドウ",
    "prefecture_code": 1,
    "city": "松前郡松前町",
    "city_kana": "マツマエグンマツマエチョウ",
    "town": "白神",
    "town_kana": "シラカミ",
    "street": null,
    "office_name": null,
    "office_name_kana": null
  },
  "1592": {
    "postcode": "0491592",
    "prefecture": "北海道",
    "prefecture_kana": "ホッカイドウ",
    "prefecture_code": 1,
    "city": "松前郡松前町",
    "city_kana": "マツマエグンマツマエチョウ",
    "town": "字福山",
    "town_kana": null,
    "street": "２４８",
    "office_name": "松前町役場",
    "office_name_kana": "マツマエチヨウヤクバ"
  },
  "1593": {
    "postcode": "0491593",
    "prefecture": "北海道",
    "prefecture_kana": "ホッカイドウ",
    "prefecture_code": 1,
    "city": "松前郡松前町",
    "city_kana": "マツマエグンマツマエチョウ",
    "town": "字大磯",
    "town_kana": null,
    "street": "１７４−１",
    "office_name": "松前町立松前病院",
    "office_name_kana": "マツマエチヨウリツマツマエビヨウイン"
  },
  "1594": {
    "postcode": "0491594",
    "prefecture": "北海道",
    "prefecture_kana": "ホッカイドウ",
    "prefecture_code": 1,
    "city": "松前郡松前町",
    "city_kana": "マツマエグンマツマエチョウ",
    "town": "字神明",
    "town_kana": null,
    "street": "３０",
    "office_name": "松前町教育委員会",
    "office_name_kana": "マツマエチヨウキヨウイクイインカイ"
  },
  "1641": {
    "postcode": "0491641",
    "prefecture": "北海道",
    "prefecture_kana": "ホッカイドウ",
    "prefecture_code": 1,
    "city": "松前郡松前町",
    "city_kana": "マツマエグンマツマエチョウ",
    "town": "館浜",
    "town_kana": "タテハマ",
    "street": null,
    "office_name": null,
    "office_name_kana": null
  },
  "1642": {
    "postcode": "0491642",
    "prefecture": "北海道",
    "prefecture_kana": "ホッカイドウ",
    "prefecture_code": 1,
    "city": "松前郡松前町",
    "city_kana": "マツマエグンマツマエチョウ",
    "town": "札前",
    "town_kana": "サツマエ",
    "street": null,
    "office_name": null,
    "office_name_kana": null
  },
  "1643": {
    "postcode": "0491643",
    "prefecture": "北海道",
    "prefecture_kana": "ホッカイドウ",
    "prefecture_code": 1,
    "city": "松前郡松前町",
    "city_kana": "マツマエグンマツマエチョウ",
    "town": "赤神",
    "town_kana": "アカガミ",
    "street": null,
    "office_name": null,
    "office_name_kana": null
  },
  "1644": {
    "postcode": "0491644",
    "prefecture": "北海道",
    "prefecture_kana": "ホッカイドウ",
    "prefecture_code": 1,
    "city": "松前郡松前町",
    "city_kana": "マツマエグンマツマエチョウ",
    "town": "静浦",
    "town_kana": "シズウラ",
    "street": null,
    "office_name": null,
    "office_name_kana": null
  },
  "1645": {
    "postcode": "0491645",
    "prefecture": "北海道",
    "prefecture_kana": "ホッカイドウ",
    "prefecture_code": 1,
    "city": "松前郡松前町",
    "city_kana": "マツマエグンマツマエチョウ",
    "town": "茂草",
    "town_kana": "モグサ",
    "street": null,
    "office_name": null,
    "office_name_kana": null
  },
  "1761": {
    "postcode": "0491761",
    "prefecture": "北海道",
    "prefecture_kana": "ホッカイドウ",
    "prefecture_code": 1,
    "city": "松前郡松前町",
    "city_kana": "マツマエグンマツマエチョウ",
    "town": "神山",
    "town_kana": "カミヤマ",
    "street": null,
    "office_name": null,
    "office_name_kana": null
  },
  "1762": {
    "postcode": "0491762",
    "prefecture": "北海道",
    "prefecture_kana": "ホッカイドウ",
    "prefecture_code": 1,
    "city": "松前郡松前町",
    "city_kana": "マツマエグンマツマエチョウ",
    "town": "原口",
    "town_kana": "ハラグチ",
    "street": null,
    "office_name": null,
    "office_name_kana": null
  },
  "1763": {
    "postcode": "0491763",
    "prefecture": "北海道",
    "prefecture_kana": "ホッカイドウ",
    "prefecture_code": 1,
    "city": "松前郡松前町",
    "city_kana": "マツマエグンマツマエチョウ",
    "town": "白坂",
    "town_kana": "シラサカ",
    "street": null,
    "office_name": null,
    "office_name_kana": null
  },
  "1764": {
    "postcode": "0491764",
    "prefecture": "北海道",
    "prefecture_kana": "ホッカイドウ",
    "prefecture_code": 1,
    "city": "松前郡松前町",
    "city_kana": "マツマエグンマツマエチョウ",
    "town": "二越",
    "town_kana": "フタゴエ",
    "street": null,
    "office_name": null,
    "office_name_kana": null
  },
  "1771": {
    "postcode": "0491771",
    "prefecture": "北海道",
    "prefecture_kana": "ホッカイドウ",
    "prefecture_code": 1,
    "city": "松前郡松前町",
    "city_kana": "マツマエグンマツマエチョウ",
    "town": "江良",
    "town_kana": "エラ",
    "street": null,
    "office_name": null,
    "office_name_kana": null
  },
  "1781": {
    "postcode": "0491781",
    "prefecture": "北海道",
    "prefecture_kana": "ホッカイドウ",
    "prefecture_code": 1,
    "city": "松前郡松前町",
    "city_kana": "マツマエグンマツマエチョウ",
    "town": "大津",
    "town_kana": "オオツ",
    "street": null,
    "office_name": null,
    "office_name_kana": null
  },
  "1782": {
    "postcode": "0491782",
    "prefecture": "北海道",
    "prefecture_kana": "ホッカイドウ",
    "prefecture_code": 1,
    "city": "松前郡松前町",
    "city_kana": "マツマエグンマツマエチョウ",
    "town": "高野",
    "town_kana": "タカノ",
    "street": null,
    "office_name": null,
    "office_name_kana": null
  },
  "1783": {
    "postcode": "0491783",
    "prefecture": "北海道",
    "prefecture_kana": "ホッカイドウ",
    "prefecture_code": 1,
    "city": "松前郡松前町",
    "city_kana": "マツマエグンマツマエチョウ",
    "town": "清部",
    "town_kana": "キヨベ",
    "street": null,
    "office_name": null,
    "office_name_kana": null
  },
  "1784": {
    "postcode": "0491784",
    "prefecture": "北海道",
    "prefecture_kana": "ホッカイドウ",
    "prefecture_code": 1,
    "city": "松前郡松前町",
    "city_kana": "マツマエグンマツマエチョウ",
    "town": "小浜",
    "town_kana": "コハマ",
    "street": null,
    "office_name": null,
    "office_name_kana": null
  },
  "2141": {
    "postcode": "0492141",
    "prefecture": "北海道",
    "prefecture_kana": "ホッカイドウ",
    "prefecture_code": 1,
    "city": "茅部郡森町",
    "city_kana": "カヤベグンモリマチ",
    "town": "駒ケ岳",
    "town_kana": "コマガタケ",
    "street": null,
    "office_name": null,
    "office_name_kana": null
  },
  "2142": {
    "postcode": "0492142",
    "prefecture": "北海道",
    "prefecture_kana": "ホッカイドウ",
    "prefecture_code": 1,
    "city": "茅部郡森町",
    "city_kana": "カヤベグンモリマチ",
    "town": "赤井川",
    "town_kana": "アカイガワ",
    "street": null,
    "office_name": null,
    "office_name_kana": null
  },
  "2192": {
    "postcode": "0492192",
    "prefecture": "北海道",
    "prefecture_kana": "ホッカイドウ",
    "prefecture_code": 1,
    "city": "茅部郡森町",
    "city_kana": "カヤベグンモリマチ",
    "town": "字赤井川",
    "town_kana": null,
    "street": "２２９",
    "office_name": "グリーンピア大沼",
    "office_name_kana": "グリ-ンピアオオヌマ"
  },
  "2221": {
    "postcode": "0492221",
    "prefecture": "北海道",
    "prefecture_kana": "ホッカイドウ",
    "prefecture_code": 1,
    "city": "茅部郡森町",
    "city_kana": "カヤベグンモリマチ",
    "town": "砂原西",
    "town_kana": "サワラニシ",
    "street": null,
    "office_name": null,
    "office_name_kana": null
  },
  "2222": {
    "postcode": "0492222",
    "prefecture": "北海道",
    "prefecture_kana": "ホッカイドウ",
    "prefecture_code": 1,
    "city": "茅部郡森町",
    "city_kana": "カヤベグンモリマチ",
    "town": "砂原",
    "town_kana": "サワラ",
    "street": null,
    "office_name": null,
    "office_name_kana": null
  },
  "2223": {
    "postcode": "0492223",
    "prefecture": "北海道",
    "prefecture_kana": "ホッカイドウ",
    "prefecture_code": 1,
    "city": "茅部郡森町",
    "city_kana": "カヤベグンモリマチ",
    "town": "砂原東",
    "town_kana": "サワラヒガシ",
    "street": null,
    "office_name": null,
    "office_name_kana": null
  },
  "2300": {
    "postcode": "0492300",
    "prefecture": "北海道",
    "prefecture_kana": "ホッカイドウ",
    "prefecture_code": 1,
    "city": "茅部郡森町",
    "city_kana": "カヤベグンモリマチ",
    "town": "",
    "town_kana": "",
    "street": null,
    "office_name": null,
    "office_name_kana": null
  },
  "2301": {
    "postcode": "0492301",
    "prefecture": "北海道",
    "prefecture_kana": "ホッカイドウ",
    "prefecture_code": 1,
    "city": "茅部郡森町",
    "city_kana": "カヤベグンモリマチ",
    "town": "尾白内町",
    "town_kana": "オシロナイチョウ",
    "street": null,
    "office_name": null,
    "office_name_kana": null
  },
  "2302": {
    "postcode": "0492302",
    "prefecture": "北海道",
    "prefecture_kana": "ホッカイドウ",
    "prefecture_code": 1,
    "city": "茅部郡森町",
    "city_kana": "カヤベグンモリマチ",
    "town": "港町",
    "town_kana": "ミナトマチ",
    "street": null,
    "office_name": null,
    "office_name_kana": null
  },
  "2303": {
    "postcode": "0492303",
    "prefecture": "北海道",
    "prefecture_kana": "ホッカイドウ",
    "prefecture_code": 1,
    "city": "茅部郡森町",
    "city_kana": "カヤベグンモリマチ",
    "town": "東森町",
    "town_kana": "ヒガシモリチョウ",
    "street": null,
    "office_name": null,
    "office_name_kana": null
  },
  "2304": {
    "postcode": "0492304",
    "prefecture": "北海道",
    "prefecture_kana": "ホッカイドウ",
    "prefecture_code": 1,
    "city": "茅部郡森町",
    "city_kana": "カヤベグンモリマチ",
    "town": "新川町",
    "town_kana": "シンカワチョウ",
    "street": null,
    "office_name": null,
    "office_name_kana": null
  },
  "2305": {
    "postcode": "0492305",
    "prefecture": "北海道",
    "prefecture_kana": "ホッカイドウ",
    "prefecture_code": 1,
    "city": "茅部郡森町",
    "city_kana": "カヤベグンモリマチ",
    "town": "常盤町",
    "town_kana": "トキワチョウ",
    "street": null,
    "office_name": null,
    "office_name_kana": null
  },
  "2306": {
    "postcode": "0492306",
    "prefecture": "北海道",
    "prefecture_kana": "ホッカイドウ",
    "prefecture_code": 1,
    "city": "茅部郡森町",
    "city_kana": "カヤベグンモリマチ",
    "town": "姫川",
    "town_kana": "ヒメカワ",
    "street": null,
    "office_name": null,
    "office_name_kana": null
  },
  "2307": {
    "postcode": "0492307",
    "prefecture": "北海道",
    "prefecture_kana": "ホッカイドウ",
    "prefecture_code": 1,
    "city": "茅部郡森町",
    "city_kana": "カヤベグンモリマチ",
    "town": "白川",
    "town_kana": "シラカワ",
    "street": null,
    "office_name": null,
    "office_name_kana": null
  },
  "2308": {
    "postcode": "0492308",
    "prefecture": "北海道",
    "prefecture_kana": "ホッカイドウ",
    "prefecture_code": 1,
    "city": "茅部郡森町",
    "city_kana": "カヤベグンモリマチ",
    "town": "栄町",
    "town_kana": "サカエマチ",
    "street": null,
    "office_name": null,
    "office_name_kana": null
  },
  "2311": {
    "postcode": "0492311",
    "prefecture": "北海道",
    "prefecture_kana": "ホッカイドウ",
    "prefecture_code": 1,
    "city": "茅部郡森町",
    "city_kana": "カヤベグンモリマチ",
    "town": "上台町",
    "town_kana": "ウワダイチョウ",
    "street": null,
    "office_name": null,
    "office_name_kana": null
  },
  "2312": {
    "postcode": "0492312",
    "prefecture": "北海道",
    "prefecture_kana": "ホッカイドウ",
    "prefecture_code": 1,
    "city": "茅部郡森町",
    "city_kana": "カヤベグンモリマチ",
    "town": "霞台",
    "town_kana": "カスミダイ",
    "street": null,
    "office_name": null,
    "office_name_kana": null
  },
  "2313": {
    "postcode": "0492313",
    "prefecture": "北海道",
    "prefecture_kana": "ホッカイドウ",
    "prefecture_code": 1,
    "city": "茅部郡森町",
    "city_kana": "カヤベグンモリマチ",
    "town": "森川町",
    "town_kana": "モリカワチョウ",
    "street": null,
    "office_name": null,
    "office_name_kana": null
  },
  "2321": {
    "postcode": "0492321",
    "prefecture": "北海道",
    "prefecture_kana": "ホッカイドウ",
    "prefecture_code": 1,
    "city": "茅部郡森町",
    "city_kana": "カヤベグンモリマチ",
    "town": "鷲ノ木町",
    "town_kana": "ワシノキチョウ",
    "street": null,
    "office_name": null,
    "office_name_kana": null
  },
  "2322": {
    "postcode": "0492322",
    "prefecture": "北海道",
    "prefecture_kana": "ホッカイドウ",
    "prefecture_code": 1,
    "city": "茅部郡森町",
    "city_kana": "カヤベグンモリマチ",
    "town": "富士見町",
    "town_kana": "フジミチョウ",
    "street": null,
    "office_name": null,
    "office_name_kana": null
  },
  "2323": {
    "postcode": "0492323",
    "prefecture": "北海道",
    "prefecture_kana": "ホッカイドウ",
    "prefecture_code": 1,
    "city": "茅部郡森町",
    "city_kana": "カヤベグンモリマチ",
    "town": "鳥崎町",
    "town_kana": "トリザキチョウ",
    "street": null,
    "office_name": null,
    "office_name_kana": null
  },
  "2324": {
    "postcode": "0492324",
    "prefecture": "北海道",
    "prefecture_kana": "ホッカイドウ",
    "prefecture_code": 1,
    "city": "茅部郡森町",
    "city_kana": "カヤベグンモリマチ",
    "town": "栗ケ丘",
    "town_kana": "クリガオカ",
    "street": null,
    "office_name": null,
    "office_name_kana": null
  },
  "2325": {
    "postcode": "0492325",
    "prefecture": "北海道",
    "prefecture_kana": "ホッカイドウ",
    "prefecture_code": 1,
    "city": "茅部郡森町",
    "city_kana": "カヤベグンモリマチ",
    "town": "本町",
    "town_kana": "ホンチョウ",
    "street": null,
    "office_name": null,
    "office_name_kana": null
  },
  "2326": {
    "postcode": "0492326",
    "prefecture": "北海道",
    "prefecture_kana": "ホッカイドウ",
    "prefecture_code": 1,
    "city": "茅部郡森町",
    "city_kana": "カヤベグンモリマチ",
    "town": "御幸町",
    "town_kana": "ミユキチョウ",
    "street": null,
    "office_name": null,
    "office_name_kana": null
  },
  "2327": {
    "postcode": "0492327",
    "prefecture": "北海道",
    "prefecture_kana": "ホッカイドウ",
    "prefecture_code": 1,
    "city": "茅部郡森町",
    "city_kana": "カヤベグンモリマチ",
    "town": "清澄町",
    "town_kana": "キヨズミチョウ",
    "street": null,
    "office_name": null,
    "office_name_kana": null
  },
  "2392": {
    "postcode": "0492392",
    "prefecture": "北海道",
    "prefecture_kana": "ホッカイドウ",
    "prefecture_code": 1,
    "city": "茅部郡森町",
    "city_kana": "カヤベグンモリマチ",
    "town": "字御幸町",
    "town_kana": null,
    "street": "１１５番地（森郵便局私書箱第７号）",
    "office_name": "渡島信用金庫",
    "office_name_kana": "オシマシンヨウキンコ"
  },
  "2393": {
    "postcode": "0492393",
    "prefecture": "北海道",
    "prefecture_kana": "ホッカイドウ",
    "prefecture_code": 1,
    "city": "茅部郡森町",
    "city_kana": "カヤベグンモリマチ",
    "town": "字御幸町",
    "town_kana": null,
    "street": "１４４−１（森郵便局私書箱第１０号）",
    "office_name": "森町役場",
    "office_name_kana": "モリマチヤクバ"
  },
  "2394": {
    "postcode": "0492394",
    "prefecture": "北海道",
    "prefecture_kana": "ホッカイドウ",
    "prefecture_code": 1,
    "city": "茅部郡森町",
    "city_kana": "カヤベグンモリマチ",
    "town": "字上台町",
    "town_kana": null,
    "street": "３２６−４８",
    "office_name": "北海道森高等学校",
    "office_name_kana": "ホツカイドウモリコウトウガツコウ"
  },
  "2461": {
    "postcode": "0492461",
    "prefecture": "北海道",
    "prefecture_kana": "ホッカイドウ",
    "prefecture_code": 1,
    "city": "茅部郡森町",
    "city_kana": "カヤベグンモリマチ",
    "town": "三岱",
    "town_kana": "サンタイ",
    "street": null,
    "office_name": null,
    "office_name_kana": null
  },
  "2462": {
    "postcode": "0492462",
    "prefecture": "北海道",
    "prefecture_kana": "ホッカイドウ",
    "prefecture_code": 1,
    "city": "茅部郡森町",
    "city_kana": "カヤベグンモリマチ",
    "town": "濁川",
    "town_kana": "ニゴリカワ",
    "street": null,
    "office_name": null,
    "office_name_kana": null
  },
  "2463": {
    "postcode": "0492463",
    "prefecture": "北海道",
    "prefecture_kana": "ホッカイドウ",
    "prefecture_code": 1,
    "city": "茅部郡森町",
    "city_kana": "カヤベグンモリマチ",
    "town": "石倉町",
    "town_kana": "イシクラチョウ",
    "street": null,
    "office_name": null,
    "office_name_kana": null
  },
  "2464": {
    "postcode": "0492464",
    "prefecture": "北海道",
    "prefecture_kana": "ホッカイドウ",
    "prefecture_code": 1,
    "city": "茅部郡森町",
    "city_kana": "カヤベグンモリマチ",
    "town": "本茅部町",
    "town_kana": "ホンカヤベチョウ",
    "street": null,
    "office_name": null,
    "office_name_kana": null
  },
  "2465": {
    "postcode": "0492465",
    "prefecture": "北海道",
    "prefecture_kana": "ホッカイドウ",
    "prefecture_code": 1,
    "city": "茅部郡森町",
    "city_kana": "カヤベグンモリマチ",
    "town": "蛯谷町",
    "town_kana": "エビヤチョウ",
    "street": null,
    "office_name": null,
    "office_name_kana": null
  },
  "2561": {
    "postcode": "0492561",
    "prefecture": "北海道",
    "prefecture_kana": "ホッカイドウ",
    "prefecture_code": 1,
    "city": "二海郡八雲町",
    "city_kana": "フタミグンヤクモチョウ",
    "town": "旭丘",
    "town_kana": "アサヒオカ",
    "street": null,
    "office_name": null,
    "office_name_kana": null
  },
  "2562": {
    "postcode": "0492562",
    "prefecture": "北海道",
    "prefecture_kana": "ホッカイドウ",
    "prefecture_code": 1,
    "city": "二海郡八雲町",
    "city_kana": "フタミグンヤクモチョウ",
    "town": "落部",
    "town_kana": "オトシベ",
    "street": null,
    "office_name": null,
    "office_name_kana": null
  },
  "2563": {
    "postcode": "0492563",
    "prefecture": "北海道",
    "prefecture_kana": "ホッカイドウ",
    "prefecture_code": 1,
    "city": "二海郡八雲町",
    "city_kana": "フタミグンヤクモチョウ",
    "town": "栄浜",
    "town_kana": "サカエハマ",
    "street": null,
    "office_name": null,
    "office_name_kana": null
  },
  "2564": {
    "postcode": "0492564",
    "prefecture": "北海道",
    "prefecture_kana": "ホッカイドウ",
    "prefecture_code": 1,
    "city": "二海郡八雲町",
    "city_kana": "フタミグンヤクモチョウ",
    "town": "入沢",
    "town_kana": "イリサワ",
    "street": null,
    "office_name": null,
    "office_name_kana": null
  },
  "2565": {
    "postcode": "0492565",
    "prefecture": "北海道",
    "prefecture_kana": "ホッカイドウ",
    "prefecture_code": 1,
    "city": "二海郡八雲町",
    "city_kana": "フタミグンヤクモチョウ",
    "town": "下の湯",
    "town_kana": "シモノユ",
    "street": null,
    "office_name": null,
    "office_name_kana": null
  },
  "2566": {
    "postcode": "0492566",
    "prefecture": "北海道",
    "prefecture_kana": "ホッカイドウ",
    "prefecture_code": 1,
    "city": "二海郡八雲町",
    "city_kana": "フタミグンヤクモチョウ",
    "town": "上の湯",
    "town_kana": "カミノユ",
    "street": null,
    "office_name": null,
    "office_name_kana": null
  },
  "2671": {
    "postcode": "0492671",
    "prefecture": "北海道",
    "prefecture_kana": "ホッカイドウ",
    "prefecture_code": 1,
    "city": "二海郡八雲町",
    "city_kana": "フタミグンヤクモチョウ",
    "town": "山越",
    "town_kana": "ヤマコシ",
    "street": null,
    "office_name": null,
    "office_name_kana": null
  },
  "2672": {
    "postcode": "0492672",
    "prefecture": "北海道",
    "prefecture_kana": "ホッカイドウ",
    "prefecture_code": 1,
    "city": "二海郡八雲町",
    "city_kana": "フタミグンヤクモチョウ",
    "town": "野田生",
    "town_kana": "ノダオイ",
    "street": null,
    "office_name": null,
    "office_name_kana": null
  },
  "2673": {
    "postcode": "0492673",
    "prefecture": "北海道",
    "prefecture_kana": "ホッカイドウ",
    "prefecture_code": 1,
    "city": "二海郡八雲町",
    "city_kana": "フタミグンヤクモチョウ",
    "town": "東野",
    "town_kana": "ヒガシノ",
    "street": null,
    "office_name": null,
    "office_name_kana": null
  },
  "2674": {
    "postcode": "0492674",
    "prefecture": "北海道",
    "prefecture_kana": "ホッカイドウ",
    "prefecture_code": 1,
    "city": "二海郡八雲町",
    "city_kana": "フタミグンヤクモチョウ",
    "town": "わらび野",
    "town_kana": "ワラビノ",
    "street": null,
    "office_name": null,
    "office_name_kana": null
  },
  "2675": {
    "postcode": "0492675",
    "prefecture": "北海道",
    "prefecture_kana": "ホッカイドウ",
    "prefecture_code": 1,
    "city": "二海郡八雲町",
    "city_kana": "フタミグンヤクモチョウ",
    "town": "桜野",
    "town_kana": "サクラノ",
    "street": null,
    "office_name": null,
    "office_name_kana": null
  },
  "3100": {
    "postcode": "0493100",
    "prefecture": "北海道",
    "prefecture_kana": "ホッカイドウ",
    "prefecture_code": 1,
    "city": "二海郡八雲町",
    "city_kana": "フタミグンヤクモチョウ",
    "town": "",
    "town_kana": "",
    "street": null,
    "office_name": null,
    "office_name_kana": null
  },
  "3101": {
    "postcode": "0493101",
    "prefecture": "北海道",
    "prefecture_kana": "ホッカイドウ",
    "prefecture_code": 1,
    "city": "二海郡八雲町",
    "city_kana": "フタミグンヤクモチョウ",
    "town": "元町",
    "town_kana": "モトマチ",
    "street": null,
    "office_name": null,
    "office_name_kana": null
  },
  "3102": {
    "postcode": "0493102",
    "prefecture": "北海道",
    "prefecture_kana": "ホッカイドウ",
    "prefecture_code": 1,
    "city": "二海郡八雲町",
    "city_kana": "フタミグンヤクモチョウ",
    "town": "東町",
    "town_kana": "ヒガシチョウ",
    "street": null,
    "office_name": null,
    "office_name_kana": null
  },
  "3103": {
    "postcode": "0493103",
    "prefecture": "北海道",
    "prefecture_kana": "ホッカイドウ",
    "prefecture_code": 1,
    "city": "二海郡八雲町",
    "city_kana": "フタミグンヤクモチョウ",
    "town": "豊河町",
    "town_kana": "トヨカワチョウ",
    "street": null,
    "office_name": null,
    "office_name_kana": null
  },
  "3104": {
    "postcode": "0493104",
    "prefecture": "北海道",
    "prefecture_kana": "ホッカイドウ",
    "prefecture_code": 1,
    "city": "二海郡八雲町",
    "city_kana": "フタミグンヤクモチョウ",
    "town": "内浦町",
    "town_kana": "ウチウラチョウ",
    "street": null,
    "office_name": null,
    "office_name_kana": null
  },
  "3105": {
    "postcode": "0493105",
    "prefecture": "北海道",
    "prefecture_kana": "ホッカイドウ",
    "prefecture_code": 1,
    "city": "二海郡八雲町",
    "city_kana": "フタミグンヤクモチョウ",
    "town": "東雲町",
    "town_kana": "シノノメチョウ",
    "street": null,
    "office_name": null,
    "office_name_kana": null
  },
  "3106": {
    "postcode": "0493106",
    "prefecture": "北海道",
    "prefecture_kana": "ホッカイドウ",
    "prefecture_code": 1,
    "city": "二海郡八雲町",
    "city_kana": "フタミグンヤクモチョウ",
    "town": "富士見町",
    "town_kana": "フジミチョウ",
    "street": null,
    "office_name": null,
    "office_name_kana": null
  },
  "3107": {
    "postcode": "0493107",
    "prefecture": "北海道",
    "prefecture_kana": "ホッカイドウ",
    "prefecture_code": 1,
    "city": "二海郡八雲町",
    "city_kana": "フタミグンヤクモチョウ",
    "town": "本町",
    "town_kana": "ホンチョウ",
    "street": null,
    "office_name": null,
    "office_name_kana": null
  },
  "3111": {
    "postcode": "0493111",
    "prefecture": "北海道",
    "prefecture_kana": "ホッカイドウ",
    "prefecture_code": 1,
    "city": "二海郡八雲町",
    "city_kana": "フタミグンヤクモチョウ",
    "town": "住初町",
    "town_kana": "スミゾメチョウ",
    "street": null,
    "office_name": null,
    "office_name_kana": null
  },
  "3112": {
    "postcode": "0493112",
    "prefecture": "北海道",
    "prefecture_kana": "ホッカイドウ",
    "prefecture_code": 1,
    "city": "二海郡八雲町",
    "city_kana": "フタミグンヤクモチョウ",
    "town": "末広町",
    "town_kana": "スエヒロチョウ",
    "street": null,
    "office_name": null,
    "office_name_kana": null
  },
  "3113": {
    "postcode": "0493113",
    "prefecture": "北海道",
    "prefecture_kana": "ホッカイドウ",
    "prefecture_code": 1,
    "city": "二海郡八雲町",
    "city_kana": "フタミグンヤクモチョウ",
    "town": "相生町",
    "town_kana": "アイオイチョウ",
    "street": null,
    "office_name": null,
    "office_name_kana": null
  },
  "3114": {
    "postcode": "0493114",
    "prefecture": "北海道",
    "prefecture_kana": "ホッカイドウ",
    "prefecture_code": 1,
    "city": "二海郡八雲町",
    "city_kana": "フタミグンヤクモチョウ",
    "town": "三杉町",
    "town_kana": "ミスギチョウ",
    "street": null,
    "office_name": null,
    "office_name_kana": null
  },
  "3115": {
    "postcode": "0493115",
    "prefecture": "北海道",
    "prefecture_kana": "ホッカイドウ",
    "prefecture_code": 1,
    "city": "二海郡八雲町",
    "city_kana": "フタミグンヤクモチョウ",
    "town": "出雲町",
    "town_kana": "イズモチョウ",
    "street": null,
    "office_name": null,
    "office_name_kana": null
  },
  "3116": {
    "postcode": "0493116",
    "prefecture": "北海道",
    "prefecture_kana": "ホッカイドウ",
    "prefecture_code": 1,
    "city": "二海郡八雲町",
    "city_kana": "フタミグンヤクモチョウ",
    "town": "宮園町",
    "town_kana": "ミヤゾノチョウ",
    "street": null,
    "office_name": null,
    "office_name_kana": null
  },
  "3117": {
    "postcode": "0493117",
    "prefecture": "北海道",
    "prefecture_kana": "ホッカイドウ",
    "prefecture_code": 1,
    "city": "二海郡八雲町",
    "city_kana": "フタミグンヤクモチョウ",
    "town": "栄町",
    "town_kana": "サカエチョウ",
    "street": null,
    "office_name": null,
    "office_name_kana": null
  },
  "3118": {
    "postcode": "0493118",
    "prefecture": "北海道",
    "prefecture_kana": "ホッカイドウ",
    "prefecture_code": 1,
    "city": "二海郡八雲町",
    "city_kana": "フタミグンヤクモチョウ",
    "town": "緑町",
    "town_kana": "ミドリチョウ",
    "street": null,
    "office_name": null,
    "office_name_kana": null
  },
  "3121": [
    {
      "postcode": "0493121",
      "prefecture": "北海道",
      "prefecture_kana": "ホッカイドウ",
      "prefecture_code": 1,
      "city": "二海郡八雲町",
      "city_kana": "フタミグンヤクモチョウ",
      "town": "上八雲",
      "town_kana": "カミヤクモ",
      "street": null,
      "office_name": null,
      "office_name_kana": null
    },
    {
      "postcode": "0493121",
      "prefecture": "北海道",
      "prefecture_kana": "ホッカイドウ",
      "prefecture_code": 1,
      "city": "二海郡八雲町",
      "city_kana": "フタミグンヤクモチョウ",
      "town": "富咲",
      "town_kana": "トミサキ",
      "street": null,
      "office_name": null,
      "office_name_kana": null
    }
  ],
  "3122": {
    "postcode": "0493122",
    "prefecture": "北海道",
    "prefecture_kana": "ホッカイドウ",
    "prefecture_code": 1,
    "city": "二海郡八雲町",
    "city_kana": "フタミグンヤクモチョウ",
    "town": "花浦",
    "town_kana": "ハナウラ",
    "street": null,
    "office_name": null,
    "office_name_kana": null
  },
  "3123": {
    "postcode": "0493123",
    "prefecture": "北海道",
    "prefecture_kana": "ホッカイドウ",
    "prefecture_code": 1,
    "city": "二海郡八雲町",
    "city_kana": "フタミグンヤクモチョウ",
    "town": "立岩",
    "town_kana": "タテイワ",
    "street": null,
    "office_name": null,
    "office_name_kana": null
  },
  "3124": {
    "postcode": "0493124",
    "prefecture": "北海道",
    "prefecture_kana": "ホッカイドウ",
    "prefecture_code": 1,
    "city": "二海郡八雲町",
    "city_kana": "フタミグンヤクモチョウ",
    "town": "浜松",
    "town_kana": "ハママツ",
    "street": null,
    "office_name": null,
    "office_name_kana": null
  },
  "3125": {
    "postcode": "0493125",
    "prefecture": "北海道",
    "prefecture_kana": "ホッカイドウ",
    "prefecture_code": 1,
    "city": "二海郡八雲町",
    "city_kana": "フタミグンヤクモチョウ",
    "town": "熱田",
    "town_kana": "アツタ",
    "street": null,
    "office_name": null,
    "office_name_kana": null
  },
  "3126": {
    "postcode": "0493126",
    "prefecture": "北海道",
    "prefecture_kana": "ホッカイドウ",
    "prefecture_code": 1,
    "city": "二海郡八雲町",
    "city_kana": "フタミグンヤクモチョウ",
    "town": "大新",
    "town_kana": "オオシン",
    "street": null,
    "office_name": null,
    "office_name_kana": null
  },
  "3127": {
    "postcode": "0493127",
    "prefecture": "北海道",
    "prefecture_kana": "ホッカイドウ",
    "prefecture_code": 1,
    "city": "二海郡八雲町",
    "city_kana": "フタミグンヤクモチョウ",
    "town": "春日",
    "town_kana": "カスガ",
    "street": null,
    "office_name": null,
    "office_name_kana": null
  },
  "3128": {
    "postcode": "0493128",
    "prefecture": "北海道",
    "prefecture_kana": "ホッカイドウ",
    "prefecture_code": 1,
    "city": "二海郡八雲町",
    "city_kana": "フタミグンヤクモチョウ",
    "town": "鉛川",
    "town_kana": "ナマリカワ",
    "street": null,
    "office_name": null,
    "office_name_kana": null
  },
  "3192": {
    "postcode": "0493192",
    "prefecture": "北海道",
    "prefecture_kana": "ホッカイドウ",
    "prefecture_code": 1,
    "city": "二海郡八雲町",
    "city_kana": "フタミグンヤクモチョウ",
    "town": "住初町",
    "town_kana": "スミゾメチョウ",
    "street": "１３８番地（八雲郵便局私書箱第１号）",
    "office_name": "八雲町役場",
    "office_name_kana": "ヤクモチヨウヤクバ"
  },
  "3197": {
    "postcode": "0493197",
    "prefecture": "北海道",
    "prefecture_kana": "ホッカイドウ",
    "prefecture_code": 1,
    "city": "二海郡八雲町",
    "city_kana": "フタミグンヤクモチョウ",
    "town": "東雲町",
    "town_kana": "シノノメチョウ",
    "street": "５０番地",
    "office_name": "八雲総合病院",
    "office_name_kana": "ヤクモソウゴウビヨウイン"
  },
  "3198": {
    "postcode": "0493198",
    "prefecture": "北海道",
    "prefecture_kana": "ホッカイドウ",
    "prefecture_code": 1,
    "city": "二海郡八雲町",
    "city_kana": "フタミグンヤクモチョウ",
    "town": "宮園町",
    "town_kana": "ミヤゾノチョウ",
    "street": "１２８番地",
    "office_name": "独立行政法人　国立病院機構　八雲病院",
    "office_name_kana": "ドクリツギヨウセイホウジン コクリツビヨウインキコウ ヤクモビヨウイン"
  },
  "3341": {
    "postcode": "0493341",
    "prefecture": "北海道",
    "prefecture_kana": "ホッカイドウ",
    "prefecture_code": 1,
    "city": "二海郡八雲町",
    "city_kana": "フタミグンヤクモチョウ",
    "town": "黒岩",
    "town_kana": "クロイワ",
    "street": null,
    "office_name": null,
    "office_name_kana": null
  },
  "3342": {
    "postcode": "0493342",
    "prefecture": "北海道",
    "prefecture_kana": "ホッカイドウ",
    "prefecture_code": 1,
    "city": "二海郡八雲町",
    "city_kana": "フタミグンヤクモチョウ",
    "town": "山崎",
    "town_kana": "ヤマザキ",
    "street": null,
    "office_name": null,
    "office_name_kana": null
  },
  "3461": {
    "postcode": "0493461",
    "prefecture": "北海道",
    "prefecture_kana": "ホッカイドウ",
    "prefecture_code": 1,
    "city": "山越郡長万部町",
    "city_kana": "ヤマコシグンオシャマンベチョウ",
    "town": "花岡",
    "town_kana": "ハナオカ",
    "street": null,
    "office_name": null,
    "office_name_kana": null
  },
  "3462": {
    "postcode": "0493462",
    "prefecture": "北海道",
    "prefecture_kana": "ホッカイドウ",
    "prefecture_code": 1,
    "city": "山越郡長万部町",
    "city_kana": "ヤマコシグンオシャマンベチョウ",
    "town": "国縫",
    "town_kana": "クンヌイ",
    "street": null,
    "office_name": null,
    "office_name_kana": null
  },
  "3463": {
    "postcode": "0493463",
    "prefecture": "北海道",
    "prefecture_kana": "ホッカイドウ",
    "prefecture_code": 1,
    "city": "山越郡長万部町",
    "city_kana": "ヤマコシグンオシャマンベチョウ",
    "town": "豊野",
    "town_kana": "トヨノ",
    "street": null,
    "office_name": null,
    "office_name_kana": null
  },
  "3464": {
    "postcode": "0493464",
    "prefecture": "北海道",
    "prefecture_kana": "ホッカイドウ",
    "prefecture_code": 1,
    "city": "山越郡長万部町",
    "city_kana": "ヤマコシグンオシャマンベチョウ",
    "town": "豊津",
    "town_kana": "トヨツ",
    "street": null,
    "office_name": null,
    "office_name_kana": null
  },
  "3465": {
    "postcode": "0493465",
    "prefecture": "北海道",
    "prefecture_kana": "ホッカイドウ",
    "prefecture_code": 1,
    "city": "山越郡長万部町",
    "city_kana": "ヤマコシグンオシャマンベチョウ",
    "town": "茶屋川",
    "town_kana": "チャヤガワ",
    "street": null,
    "office_name": null,
    "office_name_kana": null
  },
  "3500": {
    "postcode": "0493500",
    "prefecture": "北海道",
    "prefecture_kana": "ホッカイドウ",
    "prefecture_code": 1,
    "city": "山越郡長万部町",
    "city_kana": "ヤマコシグンオシャマンベチョウ",
    "town": "",
    "town_kana": "",
    "street": null,
    "office_name": null,
    "office_name_kana": null
  },
  "3501": [
    {
      "postcode": "0493501",
      "prefecture": "北海道",
      "prefecture_kana": "ホッカイドウ",
      "prefecture_code": 1,
      "city": "山越郡長万部町",
      "city_kana": "ヤマコシグンオシャマンベチョウ",
      "town": "大峰",
      "town_kana": "オオミネ",
      "street": null,
      "office_name": null,
      "office_name_kana": null
    },
    {
      "postcode": "0493501",
      "prefecture": "北海道",
      "prefecture_kana": "ホッカイドウ",
      "prefecture_code": 1,
      "city": "山越郡長万部町",
      "city_kana": "ヤマコシグンオシャマンベチョウ",
      "town": "双葉",
      "town_kana": "フタバ",
      "street": null,
      "office_name": null,
      "office_name_kana": null
    }
  ],
  "3502": {
    "postcode": "0493502",
    "prefecture": "北海道",
    "prefecture_kana": "ホッカイドウ",
    "prefecture_code": 1,
    "city": "山越郡長万部町",
    "city_kana": "ヤマコシグンオシャマンベチョウ",
    "town": "知来",
    "town_kana": "チライ",
    "street": null,
    "office_name": null,
    "office_name_kana": null
  },
  "3503": {
    "postcode": "0493503",
    "prefecture": "北海道",
    "prefecture_kana": "ホッカイドウ",
    "prefecture_code": 1,
    "city": "山越郡長万部町",
    "city_kana": "ヤマコシグンオシャマンベチョウ",
    "town": "蕨岱",
    "town_kana": "ワラビタイ",
    "street": null,
    "office_name": null,
    "office_name_kana": null
  },
  "3504": {
    "postcode": "0493504",
    "prefecture": "北海道",
    "prefecture_kana": "ホッカイドウ",
    "prefecture_code": 1,
    "city": "山越郡長万部町",
    "city_kana": "ヤマコシグンオシャマンベチョウ",
    "town": "美畑",
    "town_kana": "ビハタ",
    "street": null,
    "office_name": null,
    "office_name_kana": null
  },
  "3511": {
    "postcode": "0493511",
    "prefecture": "北海道",
    "prefecture_kana": "ホッカイドウ",
    "prefecture_code": 1,
    "city": "山越郡長万部町",
    "city_kana": "ヤマコシグンオシャマンベチョウ",
    "town": "大浜",
    "town_kana": "オオハマ",
    "street": null,
    "office_name": null,
    "office_name_kana": null
  },
  "3512": {
    "postcode": "0493512",
    "prefecture": "北海道",
    "prefecture_kana": "ホッカイドウ",
    "prefecture_code": 1,
    "city": "山越郡長万部町",
    "city_kana": "ヤマコシグンオシャマンベチョウ",
    "town": "中の沢",
    "town_kana": "ナカノサワ",
    "street": null,
    "office_name": null,
    "office_name_kana": null
  },
  "3513": {
    "postcode": "0493513",
    "prefecture": "北海道",
    "prefecture_kana": "ホッカイドウ",
    "prefecture_code": 1,
    "city": "山越郡長万部町",
    "city_kana": "ヤマコシグンオシャマンベチョウ",
    "town": "平里",
    "town_kana": "ヒラサト",
    "street": null,
    "office_name": null,
    "office_name_kana": null
  },
  "3514": {
    "postcode": "0493514",
    "prefecture": "北海道",
    "prefecture_kana": "ホッカイドウ",
    "prefecture_code": 1,
    "city": "山越郡長万部町",
    "city_kana": "ヤマコシグンオシャマンベチョウ",
    "town": "富野",
    "town_kana": "トミノ",
    "street": null,
    "office_name": null,
    "office_name_kana": null
  },
  "3515": {
    "postcode": "0493515",
    "prefecture": "北海道",
    "prefecture_kana": "ホッカイドウ",
    "prefecture_code": 1,
    "city": "山越郡長万部町",
    "city_kana": "ヤマコシグンオシャマンベチョウ",
    "town": "栗岡",
    "town_kana": "クリオカ",
    "street": null,
    "office_name": null,
    "office_name_kana": null
  },
  "3516": {
    "postcode": "0493516",
    "prefecture": "北海道",
    "prefecture_kana": "ホッカイドウ",
    "prefecture_code": 1,
    "city": "山越郡長万部町",
    "city_kana": "ヤマコシグンオシャマンベチョウ",
    "town": "栄原",
    "town_kana": "サカエハラ",
    "street": null,
    "office_name": null,
    "office_name_kana": null
  },
  "3517": {
    "postcode": "0493517",
    "prefecture": "北海道",
    "prefecture_kana": "ホッカイドウ",
    "prefecture_code": 1,
    "city": "山越郡長万部町",
    "city_kana": "ヤマコシグンオシャマンベチョウ",
    "town": "共立",
    "town_kana": "キョウリツ",
    "street": null,
    "office_name": null,
    "office_name_kana": null
  },
  "3518": {
    "postcode": "0493518",
    "prefecture": "北海道",
    "prefecture_kana": "ホッカイドウ",
    "prefecture_code": 1,
    "city": "山越郡長万部町",
    "city_kana": "ヤマコシグンオシャマンベチョウ",
    "town": "静狩",
    "town_kana": "シズカリ",
    "street": null,
    "office_name": null,
    "office_name_kana": null
  },
  "3519": {
    "postcode": "0493519",
    "prefecture": "北海道",
    "prefecture_kana": "ホッカイドウ",
    "prefecture_code": 1,
    "city": "山越郡長万部町",
    "city_kana": "ヤマコシグンオシャマンベチョウ",
    "town": "旭浜",
    "town_kana": "アサヒハマ",
    "street": null,
    "office_name": null,
    "office_name_kana": null
  },
  "3521": [
    {
      "postcode": "0493521",
      "prefecture": "北海道",
      "prefecture_kana": "ホッカイドウ",
      "prefecture_code": 1,
      "city": "山越郡長万部町",
      "city_kana": "ヤマコシグンオシャマンベチョウ",
      "town": "曙町",
      "town_kana": "アケボノチョウ",
      "street": null,
      "office_name": null,
      "office_name_kana": null
    },
    {
      "postcode": "0493521",
      "prefecture": "北海道",
      "prefecture_kana": "ホッカイドウ",
      "prefecture_code": 1,
      "city": "山越郡長万部町",
      "city_kana": "ヤマコシグンオシャマンベチョウ",
      "town": "大町",
      "town_kana": "オオマチ",
      "street": null,
      "office_name": null,
      "office_name_kana": null
    },
    {
      "postcode": "0493521",
      "prefecture": "北海道",
      "prefecture_kana": "ホッカイドウ",
      "prefecture_code": 1,
      "city": "山越郡長万部町",
      "city_kana": "ヤマコシグンオシャマンベチョウ",
      "town": "長万部",
      "town_kana": "オシャマンベ",
      "street": null,
      "office_name": null,
      "office_name_kana": null
    },
    {
      "postcode": "0493521",
      "prefecture": "北海道",
      "prefecture_kana": "ホッカイドウ",
      "prefecture_code": 1,
      "city": "山越郡長万部町",
      "city_kana": "ヤマコシグンオシャマンベチョウ",
      "town": "温泉町",
      "town_kana": "オンセンマチ",
      "street": null,
      "office_name": null,
      "office_name_kana": null
    },
    {
      "postcode": "0493521",
      "prefecture": "北海道",
      "prefecture_kana": "ホッカイドウ",
      "prefecture_code": 1,
      "city": "山越郡長万部町",
      "city_kana": "ヤマコシグンオシャマンベチョウ",
      "town": "新開町",
      "town_kana": "シンカイチョウ",
      "street": null,
      "office_name": null,
      "office_name_kana": null
    },
    {
      "postcode": "0493521",
      "prefecture": "北海道",
      "prefecture_kana": "ホッカイドウ",
      "prefecture_code": 1,
      "city": "山越郡長万部町",
      "city_kana": "ヤマコシグンオシャマンベチョウ",
      "town": "陣屋町",
      "town_kana": "ジンヤマチ",
      "street": null,
      "office_name": null,
      "office_name_kana": null
    },
    {
      "postcode": "0493521",
      "prefecture": "北海道",
      "prefecture_kana": "ホッカイドウ",
      "prefecture_code": 1,
      "city": "山越郡長万部町",
      "city_kana": "ヤマコシグンオシャマンベチョウ",
      "town": "住吉町",
      "town_kana": "スミヨシチョウ",
      "street": null,
      "office_name": null,
      "office_name_kana": null
    },
    {
      "postcode": "0493521",
      "prefecture": "北海道",
      "prefecture_kana": "ホッカイドウ",
      "prefecture_code": 1,
      "city": "山越郡長万部町",
      "city_kana": "ヤマコシグンオシャマンベチョウ",
      "town": "高砂町",
      "town_kana": "タカサゴチョウ",
      "street": null,
      "office_name": null,
      "office_name_kana": null
    },
    {
      "postcode": "0493521",
      "prefecture": "北海道",
      "prefecture_kana": "ホッカイドウ",
      "prefecture_code": 1,
      "city": "山越郡長万部町",
      "city_kana": "ヤマコシグンオシャマンベチョウ",
      "town": "本町",
      "town_kana": "ホンチョウ",
      "street": null,
      "office_name": null,
      "office_name_kana": null
    },
    {
      "postcode": "0493521",
      "prefecture": "北海道",
      "prefecture_kana": "ホッカイドウ",
      "prefecture_code": 1,
      "city": "山越郡長万部町",
      "city_kana": "ヤマコシグンオシャマンベチョウ",
      "town": "南栄町",
      "town_kana": "ミナミサカエチョウ",
      "street": null,
      "office_name": null,
      "office_name_kana": null
    },
    {
      "postcode": "0493521",
      "prefecture": "北海道",
      "prefecture_kana": "ホッカイドウ",
      "prefecture_code": 1,
      "city": "山越郡長万部町",
      "city_kana": "ヤマコシグンオシャマンベチョウ",
      "town": "元町",
      "town_kana": "モトマチ",
      "street": null,
      "office_name": null,
      "office_name_kana": null
    }
  ],
  "3592": {
    "postcode": "0493592",
    "prefecture": "北海道",
    "prefecture_kana": "ホッカイドウ",
    "prefecture_code": 1,
    "city": "山越郡長万部町",
    "city_kana": "ヤマコシグンオシャマンベチョウ",
    "town": "字長万部",
    "town_kana": null,
    "street": "４５３（長万部郵便局私書箱第１号）",
    "office_name": "長万部町役場",
    "office_name_kana": "オシヤマンベチヨウヤクバ"
  },
  "4151": {
    "postcode": "0494151",
    "prefecture": "北海道",
    "prefecture_kana": "ホッカイドウ",
    "prefecture_code": 1,
    "city": "瀬棚郡今金町",
    "city_kana": "セタナグンイマカネチョウ",
    "town": "美利河",
    "town_kana": "ピリカ",
    "street": null,
    "office_name": null,
    "office_name_kana": null
  },
  "4152": {
    "postcode": "0494152",
    "prefecture": "北海道",
    "prefecture_kana": "ホッカイドウ",
    "prefecture_code": 1,
    "city": "瀬棚郡今金町",
    "city_kana": "セタナグンイマカネチョウ",
    "town": "宮島",
    "town_kana": "ミヤジマ",
    "street": null,
    "office_name": null,
    "office_name_kana": null
  },
  "4153": {
    "postcode": "0494153",
    "prefecture": "北海道",
    "prefecture_kana": "ホッカイドウ",
    "prefecture_code": 1,
    "city": "瀬棚郡今金町",
    "city_kana": "セタナグンイマカネチョウ",
    "town": "花石",
    "town_kana": "ハナイシ",
    "street": null,
    "office_name": null,
    "office_name_kana": null
  },
  "4154": {
    "postcode": "0494154",
    "prefecture": "北海道",
    "prefecture_kana": "ホッカイドウ",
    "prefecture_code": 1,
    "city": "瀬棚郡今金町",
    "city_kana": "セタナグンイマカネチョウ",
    "town": "中里",
    "town_kana": "ナカサト",
    "street": null,
    "office_name": null,
    "office_name_kana": null
  },
  "4155": {
    "postcode": "0494155",
    "prefecture": "北海道",
    "prefecture_kana": "ホッカイドウ",
    "prefecture_code": 1,
    "city": "瀬棚郡今金町",
    "city_kana": "セタナグンイマカネチョウ",
    "town": "奥沢",
    "town_kana": "オクサワ",
    "street": null,
    "office_name": null,
    "office_name_kana": null
  },
  "4156": {
    "postcode": "0494156",
    "prefecture": "北海道",
    "prefecture_kana": "ホッカイドウ",
    "prefecture_code": 1,
    "city": "瀬棚郡今金町",
    "city_kana": "セタナグンイマカネチョウ",
    "town": "住吉",
    "town_kana": "スミヨシ",
    "street": null,
    "office_name": null,
    "office_name_kana": null
  },
  "4157": {
    "postcode": "0494157",
    "prefecture": "北海道",
    "prefecture_kana": "ホッカイドウ",
    "prefecture_code": 1,
    "city": "瀬棚郡今金町",
    "city_kana": "セタナグンイマカネチョウ",
    "town": "上種川",
    "town_kana": "カミタネガワ",
    "street": null,
    "office_name": null,
    "office_name_kana": null
  },
  "4300": {
    "postcode": "0494300",
    "prefecture": "北海道",
    "prefecture_kana": "ホッカイドウ",
    "prefecture_code": 1,
    "city": "瀬棚郡今金町",
    "city_kana": "セタナグンイマカネチョウ",
    "town": "",
    "town_kana": "",
    "street": null,
    "office_name": null,
    "office_name_kana": null
  },
  "4301": {
    "postcode": "0494301",
    "prefecture": "北海道",
    "prefecture_kana": "ホッカイドウ",
    "prefecture_code": 1,
    "city": "瀬棚郡今金町",
    "city_kana": "セタナグンイマカネチョウ",
    "town": "東町",
    "town_kana": "アズマチョウ",
    "street": null,
    "office_name": null,
    "office_name_kana": null
  },
  "4302": {
    "postcode": "0494302",
    "prefecture": "北海道",
    "prefecture_kana": "ホッカイドウ",
    "prefecture_code": 1,
    "city": "瀬棚郡今金町",
    "city_kana": "セタナグンイマカネチョウ",
    "town": "日の出町",
    "town_kana": "ヒノデチョウ",
    "street": null,
    "office_name": null,
    "office_name_kana": null
  },
  "4303": {
    "postcode": "0494303",
    "prefecture": "北海道",
    "prefecture_kana": "ホッカイドウ",
    "prefecture_code": 1,
    "city": "瀬棚郡今金町",
    "city_kana": "セタナグンイマカネチョウ",
    "town": "曙町",
    "town_kana": "アケボノチョウ",
    "street": null,
    "office_name": null,
    "office_name_kana": null
  },
  "4304": {
    "postcode": "0494304",
    "prefecture": "北海道",
    "prefecture_kana": "ホッカイドウ",
    "prefecture_code": 1,
    "city": "瀬棚郡今金町",
    "city_kana": "セタナグンイマカネチョウ",
    "town": "寒昇",
    "town_kana": "カンノボリ",
    "street": null,
    "office_name": null,
    "office_name_kana": null
  },
  "4305": {
    "postcode": "0494305",
    "prefecture": "北海道",
    "prefecture_kana": "ホッカイドウ",
    "prefecture_code": 1,
    "city": "瀬棚郡今金町",
    "city_kana": "セタナグンイマカネチョウ",
    "town": "南栄町",
    "town_kana": "ナンエイチョウ",
    "street": null,
    "office_name": null,
    "office_name_kana": null
  },
  "4306": {
    "postcode": "0494306",
    "prefecture": "北海道",
    "prefecture_kana": "ホッカイドウ",
    "prefecture_code": 1,
    "city": "瀬棚郡今金町",
    "city_kana": "セタナグンイマカネチョウ",
    "town": "高美町",
    "town_kana": "タカミチョウ",
    "street": null,
    "office_name": null,
    "office_name_kana": null
  },
  "4307": {
    "postcode": "0494307",
    "prefecture": "北海道",
    "prefecture_kana": "ホッカイドウ",
    "prefecture_code": 1,
    "city": "瀬棚郡今金町",
    "city_kana": "セタナグンイマカネチョウ",
    "town": "八幡町",
    "town_kana": "ハチマンチョウ",
    "street": null,
    "office_name": null,
    "office_name_kana": null
  },
  "4308": {
    "postcode": "0494308",
    "prefecture": "北海道",
    "prefecture_kana": "ホッカイドウ",
    "prefecture_code": 1,
    "city": "瀬棚郡今金町",
    "city_kana": "セタナグンイマカネチョウ",
    "town": "今金",
    "town_kana": "イマカネ",
    "street": null,
    "office_name": null,
    "office_name_kana": null
  },
  "4311": {
    "postcode": "0494311",
    "prefecture": "北海道",
    "prefecture_kana": "ホッカイドウ",
    "prefecture_code": 1,
    "city": "瀬棚郡今金町",
    "city_kana": "セタナグンイマカネチョウ",
    "town": "栄町",
    "town_kana": "サカエチョウ",
    "street": null,
    "office_name": null,
    "office_name_kana": null
  },
  "4312": {
    "postcode": "0494312",
    "prefecture": "北海道",
    "prefecture_kana": "ホッカイドウ",
    "prefecture_code": 1,
    "city": "瀬棚郡今金町",
    "city_kana": "セタナグンイマカネチョウ",
    "town": "旭町",
    "town_kana": "アサヒチョウ",
    "street": null,
    "office_name": null,
    "office_name_kana": null
  },
  "4313": {
    "postcode": "0494313",
    "prefecture": "北海道",
    "prefecture_kana": "ホッカイドウ",
    "prefecture_code": 1,
    "city": "瀬棚郡今金町",
    "city_kana": "セタナグンイマカネチョウ",
    "town": "本町",
    "town_kana": "ホンチョウ",
    "street": null,
    "office_name": null,
    "office_name_kana": null
  },
  "4314": {
    "postcode": "0494314",
    "prefecture": "北海道",
    "prefecture_kana": "ホッカイドウ",
    "prefecture_code": 1,
    "city": "瀬棚郡今金町",
    "city_kana": "セタナグンイマカネチョウ",
    "town": "昭和町",
    "town_kana": "ショウワチョウ",
    "street": null,
    "office_name": null,
    "office_name_kana": null
  },
  "4315": {
    "postcode": "0494315",
    "prefecture": "北海道",
    "prefecture_kana": "ホッカイドウ",
    "prefecture_code": 1,
    "city": "瀬棚郡今金町",
    "city_kana": "セタナグンイマカネチョウ",
    "town": "末広町",
    "town_kana": "スエヒロチョウ",
    "street": null,
    "office_name": null,
    "office_name_kana": null
  },
  "4316": {
    "postcode": "0494316",
    "prefecture": "北海道",
    "prefecture_kana": "ホッカイドウ",
    "prefecture_code": 1,
    "city": "瀬棚郡今金町",
    "city_kana": "セタナグンイマカネチョウ",
    "town": "南町",
    "town_kana": "ミナミチョウ",
    "street": null,
    "office_name": null,
    "office_name_kana": null
  },
  "4317": {
    "postcode": "0494317",
    "prefecture": "北海道",
    "prefecture_kana": "ホッカイドウ",
    "prefecture_code": 1,
    "city": "瀬棚郡今金町",
    "city_kana": "セタナグンイマカネチョウ",
    "town": "緑町",
    "town_kana": "ミドリチョウ",
    "street": null,
    "office_name": null,
    "office_name_kana": null
  },
  "4318": {
    "postcode": "0494318",
    "prefecture": "北海道",
    "prefecture_kana": "ホッカイドウ",
    "prefecture_code": 1,
    "city": "瀬棚郡今金町",
    "city_kana": "セタナグンイマカネチョウ",
    "town": "大和町",
    "town_kana": "ヤマトチョウ",
    "street": null,
    "office_name": null,
    "office_name_kana": null
  },
  "4321": {
    "postcode": "0494321",
    "prefecture": "北海道",
    "prefecture_kana": "ホッカイドウ",
    "prefecture_code": 1,
    "city": "瀬棚郡今金町",
    "city_kana": "セタナグンイマカネチョウ",
    "town": "鈴岡",
    "town_kana": "スズオカ",
    "street": null,
    "office_name": null,
    "office_name_kana": null
  },
  "4322": {
    "postcode": "0494322",
    "prefecture": "北海道",
    "prefecture_kana": "ホッカイドウ",
    "prefecture_code": 1,
    "city": "瀬棚郡今金町",
    "city_kana": "セタナグンイマカネチョウ",
    "town": "御影",
    "town_kana": "ミカゲ",
    "street": null,
    "office_name": null,
    "office_name_kana": null
  },
  "4323": {
    "postcode": "0494323",
    "prefecture": "北海道",
    "prefecture_kana": "ホッカイドウ",
    "prefecture_code": 1,
    "city": "瀬棚郡今金町",
    "city_kana": "セタナグンイマカネチョウ",
    "town": "光台",
    "town_kana": "ヒカリダイ",
    "street": null,
    "office_name": null,
    "office_name_kana": null
  },
  "4324": {
    "postcode": "0494324",
    "prefecture": "北海道",
    "prefecture_kana": "ホッカイドウ",
    "prefecture_code": 1,
    "city": "瀬棚郡今金町",
    "city_kana": "セタナグンイマカネチョウ",
    "town": "種川",
    "town_kana": "タネカワ",
    "street": null,
    "office_name": null,
    "office_name_kana": null
  },
  "4325": {
    "postcode": "0494325",
    "prefecture": "北海道",
    "prefecture_kana": "ホッカイドウ",
    "prefecture_code": 1,
    "city": "瀬棚郡今金町",
    "city_kana": "セタナグンイマカネチョウ",
    "town": "稲穂",
    "town_kana": "イナホ",
    "street": null,
    "office_name": null,
    "office_name_kana": null
  },
  "4326": {
    "postcode": "0494326",
    "prefecture": "北海道",
    "prefecture_kana": "ホッカイドウ",
    "prefecture_code": 1,
    "city": "瀬棚郡今金町",
    "city_kana": "セタナグンイマカネチョウ",
    "town": "商工団地",
    "town_kana": "ショウコウダンチ",
    "street": null,
    "office_name": null,
    "office_name_kana": null
  },
  "4327": {
    "postcode": "0494327",
    "prefecture": "北海道",
    "prefecture_kana": "ホッカイドウ",
    "prefecture_code": 1,
    "city": "瀬棚郡今金町",
    "city_kana": "セタナグンイマカネチョウ",
    "town": "神丘",
    "town_kana": "カミオカ",
    "street": null,
    "office_name": null,
    "office_name_kana": null
  },
  "4331": {
    "postcode": "0494331",
    "prefecture": "北海道",
    "prefecture_kana": "ホッカイドウ",
    "prefecture_code": 1,
    "city": "瀬棚郡今金町",
    "city_kana": "セタナグンイマカネチョウ",
    "town": "田代",
    "town_kana": "タシロ",
    "street": null,
    "office_name": null,
    "office_name_kana": null
  },
  "4332": {
    "postcode": "0494332",
    "prefecture": "北海道",
    "prefecture_kana": "ホッカイドウ",
    "prefecture_code": 1,
    "city": "瀬棚郡今金町",
    "city_kana": "セタナグンイマカネチョウ",
    "town": "白石",
    "town_kana": "シライシ",
    "street": null,
    "office_name": null,
    "office_name_kana": null
  },
  "4333": {
    "postcode": "0494333",
    "prefecture": "北海道",
    "prefecture_kana": "ホッカイドウ",
    "prefecture_code": 1,
    "city": "瀬棚郡今金町",
    "city_kana": "セタナグンイマカネチョウ",
    "town": "日進",
    "town_kana": "ニッシン",
    "street": null,
    "office_name": null,
    "office_name_kana": null
  },
  "4334": {
    "postcode": "0494334",
    "prefecture": "北海道",
    "prefecture_kana": "ホッカイドウ",
    "prefecture_code": 1,
    "city": "瀬棚郡今金町",
    "city_kana": "セタナグンイマカネチョウ",
    "town": "八束",
    "town_kana": "ヤツカ",
    "street": null,
    "office_name": null,
    "office_name_kana": null
  },
  "4335": {
    "postcode": "0494335",
    "prefecture": "北海道",
    "prefecture_kana": "ホッカイドウ",
    "prefecture_code": 1,
    "city": "瀬棚郡今金町",
    "city_kana": "セタナグンイマカネチョウ",
    "town": "金原",
    "town_kana": "キンバラ",
    "street": null,
    "office_name": null,
    "office_name_kana": null
  },
  "4336": {
    "postcode": "0494336",
    "prefecture": "北海道",
    "prefecture_kana": "ホッカイドウ",
    "prefecture_code": 1,
    "city": "瀬棚郡今金町",
    "city_kana": "セタナグンイマカネチョウ",
    "town": "鈴金",
    "town_kana": "スズカネ",
    "street": null,
    "office_name": null,
    "office_name_kana": null
  },
  "4337": {
    "postcode": "0494337",
    "prefecture": "北海道",
    "prefecture_kana": "ホッカイドウ",
    "prefecture_code": 1,
    "city": "瀬棚郡今金町",
    "city_kana": "セタナグンイマカネチョウ",
    "town": "豊田",
    "town_kana": "トヨタ",
    "street": null,
    "office_name": null,
    "office_name_kana": null
  },
  "4393": {
    "postcode": "0494393",
    "prefecture": "北海道",
    "prefecture_kana": "ホッカイドウ",
    "prefecture_code": 1,
    "city": "瀬棚郡今金町",
    "city_kana": "セタナグンイマカネチョウ",
    "town": "字今金",
    "town_kana": null,
    "street": "４８番地１",
    "office_name": "今金町役場",
    "office_name_kana": "イマカネチヨウヤクバ"
  },
  "4397": {
    "postcode": "0494397",
    "prefecture": "北海道",
    "prefecture_kana": "ホッカイドウ",
    "prefecture_code": 1,
    "city": "瀬棚郡今金町",
    "city_kana": "セタナグンイマカネチョウ",
    "town": "字今金",
    "town_kana": null,
    "street": "１４１番地",
    "office_name": "今金町農業協同組合",
    "office_name_kana": "イマカネチヨウノウギヨウキヨウドウクミアイ"
  },
  "4431": {
    "postcode": "0494431",
    "prefecture": "北海道",
    "prefecture_kana": "ホッカイドウ",
    "prefecture_code": 1,
    "city": "久遠郡せたな町",
    "city_kana": "クドウグンセタナチョウ",
    "town": "北檜山区小倉山",
    "town_kana": "キタヒヤマクオグラヤマ",
    "street": null,
    "office_name": null,
    "office_name_kana": null
  },
  "4432": {
    "postcode": "0494432",
    "prefecture": "北海道",
    "prefecture_kana": "ホッカイドウ",
    "prefecture_code": 1,
    "city": "久遠郡せたな町",
    "city_kana": "クドウグンセタナチョウ",
    "town": "北檜山区東丹羽",
    "town_kana": "キタヒヤマクヒガシニワ",
    "street": null,
    "office_name": null,
    "office_name_kana": null
  },
  "4433": {
    "postcode": "0494433",
    "prefecture": "北海道",
    "prefecture_kana": "ホッカイドウ",
    "prefecture_code": 1,
    "city": "久遠郡せたな町",
    "city_kana": "クドウグンセタナチョウ",
    "town": "北檜山区丹羽",
    "town_kana": "キタヒヤマクニワ",
    "street": null,
    "office_name": null,
    "office_name_kana": null
  },
  "4434": {
    "postcode": "0494434",
    "prefecture": "北海道",
    "prefecture_kana": "ホッカイドウ",
    "prefecture_code": 1,
    "city": "久遠郡せたな町",
    "city_kana": "クドウグンセタナチョウ",
    "town": "北檜山区西丹羽",
    "town_kana": "キタヒヤマクニシニワ",
    "street": null,
    "office_name": null,
    "office_name_kana": null
  },
  "4500": {
    "postcode": "0494500",
    "prefecture": "北海道",
    "prefecture_kana": "ホッカイドウ",
    "prefecture_code": 1,
    "city": "久遠郡せたな町",
    "city_kana": "クドウグンセタナチョウ",
    "town": "",
    "town_kana": "",
    "street": null,
    "office_name": null,
    "office_name_kana": null
  },
  "4501": {
    "postcode": "0494501",
    "prefecture": "北海道",
    "prefecture_kana": "ホッカイドウ",
    "prefecture_code": 1,
    "city": "久遠郡せたな町",
    "city_kana": "クドウグンセタナチョウ",
    "town": "北檜山区北檜山",
    "town_kana": "キタヒヤマクキタヒヤマ",
    "street": null,
    "office_name": null,
    "office_name_kana": null
  },
  "4511": {
    "postcode": "0494511",
    "prefecture": "北海道",
    "prefecture_kana": "ホッカイドウ",
    "prefecture_code": 1,
    "city": "久遠郡せたな町",
    "city_kana": "クドウグンセタナチョウ",
    "town": "北檜山区松岡",
    "town_kana": "キタヒヤマクマツオカ",
    "street": null,
    "office_name": null,
    "office_name_kana": null
  },
  "4512": {
    "postcode": "0494512",
    "prefecture": "北海道",
    "prefecture_kana": "ホッカイドウ",
    "prefecture_code": 1,
    "city": "久遠郡せたな町",
    "city_kana": "クドウグンセタナチョウ",
    "town": "北檜山区徳島",
    "town_kana": "キタヒヤマクトクシマ",
    "street": null,
    "office_name": null,
    "office_name_kana": null
  },
  "4513": {
    "postcode": "0494513",
    "prefecture": "北海道",
    "prefecture_kana": "ホッカイドウ",
    "prefecture_code": 1,
    "city": "久遠郡せたな町",
    "city_kana": "クドウグンセタナチョウ",
    "town": "北檜山区愛知",
    "town_kana": "キタヒヤマクアイチ",
    "street": null,
    "office_name": null,
    "office_name_kana": null
  },
  "4514": {
    "postcode": "0494514",
    "prefecture": "北海道",
    "prefecture_kana": "ホッカイドウ",
    "prefecture_code": 1,
    "city": "久遠郡せたな町",
    "city_kana": "クドウグンセタナチョウ",
    "town": "北檜山区豊岡",
    "town_kana": "キタヒヤマクトヨオカ",
    "street": null,
    "office_name": null,
    "office_name_kana": null
  },
  "4515": {
    "postcode": "0494515",
    "prefecture": "北海道",
    "prefecture_kana": "ホッカイドウ",
    "prefecture_code": 1,
    "city": "久遠郡せたな町",
    "city_kana": "クドウグンセタナチョウ",
    "town": "北檜山区兜野",
    "town_kana": "キタヒヤマクカブトノ",
    "street": null,
    "office_name": null,
    "office_name_kana": null
  },
  "4516": {
    "postcode": "0494516",
    "prefecture": "北海道",
    "prefecture_kana": "ホッカイドウ",
    "prefecture_code": 1,
    "city": "久遠郡せたな町",
    "city_kana": "クドウグンセタナチョウ",
    "town": "北檜山区共和",
    "town_kana": "キタヒヤマクキョウワ",
    "street": null,
    "office_name": null,
    "office_name_kana": null
  },
  "4517": {
    "postcode": "0494517",
    "prefecture": "北海道",
    "prefecture_kana": "ホッカイドウ",
    "prefecture_code": 1,
    "city": "久遠郡せたな町",
    "city_kana": "クドウグンセタナチョウ",
    "town": "北檜山区太櫓",
    "town_kana": "キタヒヤマクフトロ",
    "street": null,
    "office_name": null,
    "office_name_kana": null
  },
  "4518": {
    "postcode": "0494518",
    "prefecture": "北海道",
    "prefecture_kana": "ホッカイドウ",
    "prefecture_code": 1,
    "city": "久遠郡せたな町",
    "city_kana": "クドウグンセタナチョウ",
    "town": "北檜山区新成",
    "town_kana": "キタヒヤマクシンセイ",
    "street": null,
    "office_name": null,
    "office_name_kana": null
  },
  "4592": {
    "postcode": "0494592",
    "prefecture": "北海道",
    "prefecture_kana": "ホッカイドウ",
    "prefecture_code": 1,
    "city": "久遠郡せたな町",
    "city_kana": "クドウグンセタナチョウ",
    "town": "北檜山区徳島",
    "town_kana": "キタヒヤマクトクシマ",
    "street": "６３番地１",
    "office_name": "せたな町役場",
    "office_name_kana": "セタナチヨウヤクバ"
  },
  "4595": {
    "postcode": "0494595",
    "prefecture": "北海道",
    "prefecture_kana": "ホッカイドウ",
    "prefecture_code": 1,
    "city": "久遠郡せたな町",
    "city_kana": "クドウグンセタナチョウ",
    "town": "北檜山区北檜山",
    "town_kana": "キタヒヤマクキタヒヤマ",
    "street": "２０番地",
    "office_name": "北檜山町農業協同組合",
    "office_name_kana": "キタヒヤマチヨウノウギヨウキヨウドウクミアイ"
  },
  "4751": {
    "postcode": "0494751",
    "prefecture": "北海道",
    "prefecture_kana": "ホッカイドウ",
    "prefecture_code": 1,
    "city": "久遠郡せたな町",
    "city_kana": "クドウグンセタナチョウ",
    "town": "北檜山区栄",
    "town_kana": "キタヒヤマクサカエ",
    "street": null,
    "office_name": null,
    "office_name_kana": null
  },
  "4752": {
    "postcode": "0494752",
    "prefecture": "北海道",
    "prefecture_kana": "ホッカイドウ",
    "prefecture_code": 1,
    "city": "久遠郡せたな町",
    "city_kana": "クドウグンセタナチョウ",
    "town": "北檜山区若松",
    "town_kana": "キタヒヤマクワカマツ",
    "street": null,
    "office_name": null,
    "office_name_kana": null
  },
  "4753": {
    "postcode": "0494753",
    "prefecture": "北海道",
    "prefecture_kana": "ホッカイドウ",
    "prefecture_code": 1,
    "city": "久遠郡せたな町",
    "city_kana": "クドウグンセタナチョウ",
    "town": "北檜山区小川",
    "town_kana": "キタヒヤマクコガワ",
    "street": null,
    "office_name": null,
    "office_name_kana": null
  },
  "4754": {
    "postcode": "0494754",
    "prefecture": "北海道",
    "prefecture_kana": "ホッカイドウ",
    "prefecture_code": 1,
    "city": "久遠郡せたな町",
    "city_kana": "クドウグンセタナチョウ",
    "town": "北檜山区二俣",
    "town_kana": "キタヒヤマクフタマタ",
    "street": null,
    "office_name": null,
    "office_name_kana": null
  },
  "4755": {
    "postcode": "0494755",
    "prefecture": "北海道",
    "prefecture_kana": "ホッカイドウ",
    "prefecture_code": 1,
    "city": "久遠郡せたな町",
    "city_kana": "クドウグンセタナチョウ",
    "town": "北檜山区富里",
    "town_kana": "キタヒヤマクトミサト",
    "street": null,
    "office_name": null,
    "office_name_kana": null
  },
  "4801": [
    {
      "postcode": "0494801",
      "prefecture": "北海道",
      "prefecture_kana": "ホッカイドウ",
      "prefecture_code": 1,
      "city": "久遠郡せたな町",
      "city_kana": "クドウグンセタナチョウ",
      "town": "瀬棚区本町",
      "town_kana": "セタナクホンチョウ",
      "street": null,
      "office_name": null,
      "office_name_kana": null
    },
    {
      "postcode": "0494801",
      "prefecture": "北海道",
      "prefecture_kana": "ホッカイドウ",
      "prefecture_code": 1,
      "city": "久遠郡せたな町",
      "city_kana": "クドウグンセタナチョウ",
      "town": "瀬棚区本町１区",
      "town_kana": "セタナクホンチョウ1ク",
      "street": null,
      "office_name": null,
      "office_name_kana": null
    }
  ],
  "4802": [
    {
      "postcode": "0494802",
      "prefecture": "北海道",
      "prefecture_kana": "ホッカイドウ",
      "prefecture_code": 1,
      "city": "久遠郡せたな町",
      "city_kana": "クドウグンセタナチョウ",
      "town": "瀬棚区本町",
      "town_kana": "セタナクホンチョウ",
      "street": null,
      "office_name": null,
      "office_name_kana": null
    },
    {
      "postcode": "0494802",
      "prefecture": "北海道",
      "prefecture_kana": "ホッカイドウ",
      "prefecture_code": 1,
      "city": "久遠郡せたな町",
      "city_kana": "クドウグンセタナチョウ",
      "town": "瀬棚区本町２区",
      "town_kana": "セタナクホンチョウ2ク",
      "street": null,
      "office_name": null,
      "office_name_kana": null
    }
  ],
  "4803": [
    {
      "postcode": "0494803",
      "prefecture": "北海道",
      "prefecture_kana": "ホッカイドウ",
      "prefecture_code": 1,
      "city": "久遠郡せたな町",
      "city_kana": "クドウグンセタナチョウ",
      "town": "瀬棚区本町",
      "town_kana": "セタナクホンチョウ",
      "street": null,
      "office_name": null,
      "office_name_kana": null
    },
    {
      "postcode": "0494803",
      "prefecture": "北海道",
      "prefecture_kana": "ホッカイドウ",
      "prefecture_code": 1,
      "city": "久遠郡せたな町",
      "city_kana": "クドウグンセタナチョウ",
      "town": "瀬棚区本町３区",
      "town_kana": "セタナクホンチョウ3ク",
      "street": null,
      "office_name": null,
      "office_name_kana": null
    }
  ],
  "4804": [
    {
      "postcode": "0494804",
      "prefecture": "北海道",
      "prefecture_kana": "ホッカイドウ",
      "prefecture_code": 1,
      "city": "久遠郡せたな町",
      "city_kana": "クドウグンセタナチョウ",
      "town": "瀬棚区本町",
      "town_kana": "セタナクホンチョウ",
      "street": null,
      "office_name": null,
      "office_name_kana": null
    },
    {
      "postcode": "0494804",
      "prefecture": "北海道",
      "prefecture_kana": "ホッカイドウ",
      "prefecture_code": 1,
      "city": "久遠郡せたな町",
      "city_kana": "クドウグンセタナチョウ",
      "town": "瀬棚区本町４区",
      "town_kana": "セタナクホンチョウ4ク",
      "street": null,
      "office_name": null,
      "office_name_kana": null
    }
  ],
  "4805": [
    {
      "postcode": "0494805",
      "prefecture": "北海道",
      "prefecture_kana": "ホッカイドウ",
      "prefecture_code": 1,
      "city": "久遠郡せたな町",
      "city_kana": "クドウグンセタナチョウ",
      "town": "瀬棚区本町",
      "town_kana": "セタナクホンチョウ",
      "street": null,
      "office_name": null,
      "office_name_kana": null
    },
    {
      "postcode": "0494805",
      "prefecture": "北海道",
      "prefecture_kana": "ホッカイドウ",
      "prefecture_code": 1,
      "city": "久遠郡せたな町",
      "city_kana": "クドウグンセタナチョウ",
      "town": "瀬棚区本町５区",
      "town_kana": "セタナクホンチョウ5ク",
      "street": null,
      "office_name": null,
      "office_name_kana": null
    }
  ],
  "4811": [
    {
      "postcode": "0494811",
      "prefecture": "北海道",
      "prefecture_kana": "ホッカイドウ",
      "prefecture_code": 1,
      "city": "久遠郡せたな町",
      "city_kana": "クドウグンセタナチョウ",
      "town": "瀬棚区本町",
      "town_kana": "セタナクホンチョウ",
      "street": null,
      "office_name": null,
      "office_name_kana": null
    },
    {
      "postcode": "0494811",
      "prefecture": "北海道",
      "prefecture_kana": "ホッカイドウ",
      "prefecture_code": 1,
      "city": "久遠郡せたな町",
      "city_kana": "クドウグンセタナチョウ",
      "town": "瀬棚区本町６区",
      "town_kana": "セタナクホンチョウ6ク",
      "street": null,
      "office_name": null,
      "office_name_kana": null
    }
  ],
  "4812": [
    {
      "postcode": "0494812",
      "prefecture": "北海道",
      "prefecture_kana": "ホッカイドウ",
      "prefecture_code": 1,
      "city": "久遠郡せたな町",
      "city_kana": "クドウグンセタナチョウ",
      "town": "瀬棚区本町",
      "town_kana": "セタナクホンチョウ",
      "street": null,
      "office_name": null,
      "office_name_kana": null
    },
    {
      "postcode": "0494812",
      "prefecture": "北海道",
      "prefecture_kana": "ホッカイドウ",
      "prefecture_code": 1,
      "city": "久遠郡せたな町",
      "city_kana": "クドウグンセタナチョウ",
      "town": "瀬棚区本町７区",
      "town_kana": "セタナクホンチョウ7ク",
      "street": null,
      "office_name": null,
      "office_name_kana": null
    }
  ],
  "4813": [
    {
      "postcode": "0494813",
      "prefecture": "北海道",
      "prefecture_kana": "ホッカイドウ",
      "prefecture_code": 1,
      "city": "久遠郡せたな町",
      "city_kana": "クドウグンセタナチョウ",
      "town": "瀬棚区本町",
      "town_kana": "セタナクホンチョウ",
      "street": null,
      "office_name": null,
      "office_name_kana": null
    },
    {
      "postcode": "0494813",
      "prefecture": "北海道",
      "prefecture_kana": "ホッカイドウ",
      "prefecture_code": 1,
      "city": "久遠郡せたな町",
      "city_kana": "クドウグンセタナチョウ",
      "town": "瀬棚区本町８区",
      "town_kana": "セタナクホンチョウ8ク",
      "street": null,
      "office_name": null,
      "office_name_kana": null
    }
  ],
  "4814": [
    {
      "postcode": "0494814",
      "prefecture": "北海道",
      "prefecture_kana": "ホッカイドウ",
      "prefecture_code": 1,
      "city": "久遠郡せたな町",
      "city_kana": "クドウグンセタナチョウ",
      "town": "瀬棚区本町",
      "town_kana": "セタナクホンチョウ",
      "street": null,
      "office_name": null,
      "office_name_kana": null
    },
    {
      "postcode": "0494814",
      "prefecture": "北海道",
      "prefecture_kana": "ホッカイドウ",
      "prefecture_code": 1,
      "city": "久遠郡せたな町",
      "city_kana": "クドウグンセタナチョウ",
      "town": "瀬棚区本町９区",
      "town_kana": "セタナクホンチョウ9ク",
      "street": null,
      "office_name": null,
      "office_name_kana": null
    }
  ],
  "4815": [
    {
      "postcode": "0494815",
      "prefecture": "北海道",
      "prefecture_kana": "ホッカイドウ",
      "prefecture_code": 1,
      "city": "久遠郡せたな町",
      "city_kana": "クドウグンセタナチョウ",
      "town": "瀬棚区本町",
      "town_kana": "セタナクホンチョウ",
      "street": null,
      "office_name": null,
      "office_name_kana": null
    },
    {
      "postcode": "0494815",
      "prefecture": "北海道",
      "prefecture_kana": "ホッカイドウ",
      "prefecture_code": 1,
      "city": "久遠郡せたな町",
      "city_kana": "クドウグンセタナチョウ",
      "town": "瀬棚区本町１０区",
      "town_kana": "セタナクホンチョウ10ク",
      "street": null,
      "office_name": null,
      "office_name_kana": null
    }
  ],
  "4816": {
    "postcode": "0494816",
    "prefecture": "北海道",
    "prefecture_kana": "ホッカイドウ",
    "prefecture_code": 1,
    "city": "久遠郡せたな町",
    "city_kana": "クドウグンセタナチョウ",
    "town": "瀬棚区本町",
    "town_kana": "セタナクホンチョウ",
    "street": null,
    "office_name": null,
    "office_name_kana": null
  },
  "4821": {
    "postcode": "0494821",
    "prefecture": "北海道",
    "prefecture_kana": "ホッカイドウ",
    "prefecture_code": 1,
    "city": "久遠郡せたな町",
    "city_kana": "クドウグンセタナチョウ",
    "town": "瀬棚区三本杉",
    "town_kana": "セタナクサンボンスギ",
    "street": null,
    "office_name": null,
    "office_name_kana": null
  },
  "4822": {
    "postcode": "0494822",
    "prefecture": "北海道",
    "prefecture_kana": "ホッカイドウ",
    "prefecture_code": 1,
    "city": "久遠郡せたな町",
    "city_kana": "クドウグンセタナチョウ",
    "town": "瀬棚区元浦",
    "town_kana": "セタナクモトウラ",
    "street": null,
    "office_name": null,
    "office_name_kana": null
  },
  "4823": {
    "postcode": "0494823",
    "prefecture": "北海道",
    "prefecture_kana": "ホッカイドウ",
    "prefecture_code": 1,
    "city": "久遠郡せたな町",
    "city_kana": "クドウグンセタナチョウ",
    "town": "瀬棚区島歌",
    "town_kana": "セタナクシマウタ",
    "street": null,
    "office_name": null,
    "office_name_kana": null
  },
  "4824": {
    "postcode": "0494824",
    "prefecture": "北海道",
    "prefecture_kana": "ホッカイドウ",
    "prefecture_code": 1,
    "city": "久遠郡せたな町",
    "city_kana": "クドウグンセタナチョウ",
    "town": "瀬棚区北島歌",
    "town_kana": "セタナクキタシマウタ",
    "street": null,
    "office_name": null,
    "office_name_kana": null
  },
  "4825": {
    "postcode": "0494825",
    "prefecture": "北海道",
    "prefecture_kana": "ホッカイドウ",
    "prefecture_code": 1,
    "city": "久遠郡せたな町",
    "city_kana": "クドウグンセタナチョウ",
    "town": "瀬棚区西大里",
    "town_kana": "セタナクニシオオサト",
    "street": null,
    "office_name": null,
    "office_name_kana": null
  },
  "4826": {
    "postcode": "0494826",
    "prefecture": "北海道",
    "prefecture_kana": "ホッカイドウ",
    "prefecture_code": 1,
    "city": "久遠郡せたな町",
    "city_kana": "クドウグンセタナチョウ",
    "town": "瀬棚区東大里",
    "town_kana": "セタナクヒガシオオサト",
    "street": null,
    "office_name": null,
    "office_name_kana": null
  },
  "4827": {
    "postcode": "0494827",
    "prefecture": "北海道",
    "prefecture_kana": "ホッカイドウ",
    "prefecture_code": 1,
    "city": "久遠郡せたな町",
    "city_kana": "クドウグンセタナチョウ",
    "town": "瀬棚区共和",
    "town_kana": "セタナクキョウワ",
    "street": null,
    "office_name": null,
    "office_name_kana": null
  },
  "4828": {
    "postcode": "0494828",
    "prefecture": "北海道",
    "prefecture_kana": "ホッカイドウ",
    "prefecture_code": 1,
    "city": "久遠郡せたな町",
    "city_kana": "クドウグンセタナチョウ",
    "town": "瀬棚区南川",
    "town_kana": "セタナクミナミカワ",
    "street": null,
    "office_name": null,
    "office_name_kana": null
  },
  "5141": {
    "postcode": "0495141",
    "prefecture": "北海道",
    "prefecture_kana": "ホッカイドウ",
    "prefecture_code": 1,
    "city": "山越郡長万部町",
    "city_kana": "ヤマコシグンオシャマンベチョウ",
    "town": "静狩",
    "town_kana": "シズカリ",
    "street": null,
    "office_name": null,
    "office_name_kana": null
  },
  "5331": {
    "postcode": "0495331",
    "prefecture": "北海道",
    "prefecture_kana": "ホッカイドウ",
    "prefecture_code": 1,
    "city": "虻田郡豊浦町",
    "city_kana": "アブタグントヨウラチョウ",
    "town": "豊泉",
    "town_kana": "トヨイズミ",
    "street": null,
    "office_name": null,
    "office_name_kana": null
  },
  "5332": {
    "postcode": "0495332",
    "prefecture": "北海道",
    "prefecture_kana": "ホッカイドウ",
    "prefecture_code": 1,
    "city": "虻田郡豊浦町",
    "city_kana": "アブタグントヨウラチョウ",
    "town": "大岸",
    "town_kana": "オオキシ",
    "street": null,
    "office_name": null,
    "office_name_kana": null
  },
  "5333": {
    "postcode": "0495333",
    "prefecture": "北海道",
    "prefecture_kana": "ホッカイドウ",
    "prefecture_code": 1,
    "city": "虻田郡豊浦町",
    "city_kana": "アブタグントヨウラチョウ",
    "town": "礼文華",
    "town_kana": "レブンゲ",
    "street": null,
    "office_name": null,
    "office_name_kana": null
  },
  "5400": {
    "postcode": "0495400",
    "prefecture": "北海道",
    "prefecture_kana": "ホッカイドウ",
    "prefecture_code": 1,
    "city": "虻田郡豊浦町",
    "city_kana": "アブタグントヨウラチョウ",
    "town": "",
    "town_kana": "",
    "street": null,
    "office_name": null,
    "office_name_kana": null
  },
  "5401": {
    "postcode": "0495401",
    "prefecture": "北海道",
    "prefecture_kana": "ホッカイドウ",
    "prefecture_code": 1,
    "city": "虻田郡豊浦町",
    "city_kana": "アブタグントヨウラチョウ",
    "town": "山梨",
    "town_kana": "ヤマナシ",
    "street": null,
    "office_name": null,
    "office_name_kana": null
  },
  "5402": {
    "postcode": "0495402",
    "prefecture": "北海道",
    "prefecture_kana": "ホッカイドウ",
    "prefecture_code": 1,
    "city": "虻田郡豊浦町",
    "city_kana": "アブタグントヨウラチョウ",
    "town": "大和",
    "town_kana": "ヤマト",
    "street": null,
    "office_name": null,
    "office_name_kana": null
  },
  "5403": {
    "postcode": "0495403",
    "prefecture": "北海道",
    "prefecture_kana": "ホッカイドウ",
    "prefecture_code": 1,
    "city": "虻田郡豊浦町",
    "city_kana": "アブタグントヨウラチョウ",
    "town": "美和",
    "town_kana": "ミワ",
    "street": null,
    "office_name": null,
    "office_name_kana": null
  },
  "5404": {
    "postcode": "0495404",
    "prefecture": "北海道",
    "prefecture_kana": "ホッカイドウ",
    "prefecture_code": 1,
    "city": "虻田郡豊浦町",
    "city_kana": "アブタグントヨウラチョウ",
    "town": "桜",
    "town_kana": "サクラ",
    "street": null,
    "office_name": null,
    "office_name_kana": null
  },
  "5405": {
    "postcode": "0495405",
    "prefecture": "北海道",
    "prefecture_kana": "ホッカイドウ",
    "prefecture_code": 1,
    "city": "虻田郡豊浦町",
    "city_kana": "アブタグントヨウラチョウ",
    "town": "高岡",
    "town_kana": "タカオカ",
    "street": null,
    "office_name": null,
    "office_name_kana": null
  },
  "5406": {
    "postcode": "0495406",
    "prefecture": "北海道",
    "prefecture_kana": "ホッカイドウ",
    "prefecture_code": 1,
    "city": "虻田郡豊浦町",
    "city_kana": "アブタグントヨウラチョウ",
    "town": "新山梨",
    "town_kana": "シンヤマナシ",
    "street": null,
    "office_name": null,
    "office_name_kana": null
  },
  "5407": {
    "postcode": "0495407",
    "prefecture": "北海道",
    "prefecture_kana": "ホッカイドウ",
    "prefecture_code": 1,
    "city": "虻田郡豊浦町",
    "city_kana": "アブタグントヨウラチョウ",
    "town": "上泉",
    "town_kana": "カミイズミ",
    "street": null,
    "office_name": null,
    "office_name_kana": null
  },
  "5408": {
    "postcode": "0495408",
    "prefecture": "北海道",
    "prefecture_kana": "ホッカイドウ",
    "prefecture_code": 1,
    "city": "虻田郡豊浦町",
    "city_kana": "アブタグントヨウラチョウ",
    "town": "新富",
    "town_kana": "シントミ",
    "street": null,
    "office_name": null,
    "office_name_kana": null
  },
  "5411": {
    "postcode": "0495411",
    "prefecture": "北海道",
    "prefecture_kana": "ホッカイドウ",
    "prefecture_code": 1,
    "city": "虻田郡豊浦町",
    "city_kana": "アブタグントヨウラチョウ",
    "town": "東雲町",
    "town_kana": "シノノメチョウ",
    "street": null,
    "office_name": null,
    "office_name_kana": null
  },
  "5412": {
    "postcode": "0495412",
    "prefecture": "北海道",
    "prefecture_kana": "ホッカイドウ",
    "prefecture_code": 1,
    "city": "虻田郡豊浦町",
    "city_kana": "アブタグントヨウラチョウ",
    "town": "旭町",
    "town_kana": "アサヒチョウ",
    "street": null,
    "office_name": null,
    "office_name_kana": null
  },
  "5413": {
    "postcode": "0495413",
    "prefecture": "北海道",
    "prefecture_kana": "ホッカイドウ",
    "prefecture_code": 1,
    "city": "虻田郡豊浦町",
    "city_kana": "アブタグントヨウラチョウ",
    "town": "海岸町",
    "town_kana": "カイガンチョウ",
    "street": null,
    "office_name": null,
    "office_name_kana": null
  },
  "5414": {
    "postcode": "0495414",
    "prefecture": "北海道",
    "prefecture_kana": "ホッカイドウ",
    "prefecture_code": 1,
    "city": "虻田郡豊浦町",
    "city_kana": "アブタグントヨウラチョウ",
    "town": "幸町",
    "town_kana": "サイワイチョウ",
    "street": null,
    "office_name": null,
    "office_name_kana": null
  },
  "5415": {
    "postcode": "0495415",
    "prefecture": "北海道",
    "prefecture_kana": "ホッカイドウ",
    "prefecture_code": 1,
    "city": "虻田郡豊浦町",
    "city_kana": "アブタグントヨウラチョウ",
    "town": "浜町",
    "town_kana": "ハマチョウ",
    "street": null,
    "office_name": null,
    "office_name_kana": null
  },
  "5416": {
    "postcode": "0495416",
    "prefecture": "北海道",
    "prefecture_kana": "ホッカイドウ",
    "prefecture_code": 1,
    "city": "虻田郡豊浦町",
    "city_kana": "アブタグントヨウラチョウ",
    "town": "船見町",
    "town_kana": "フナミチョウ",
    "street": null,
    "office_name": null,
    "office_name_kana": null
  },
  "5492": {
    "postcode": "0495492",
    "prefecture": "北海道",
    "prefecture_kana": "ホッカイドウ",
    "prefecture_code": 1,
    "city": "虻田郡豊浦町",
    "city_kana": "アブタグントヨウラチョウ",
    "town": "字船見町",
    "town_kana": null,
    "street": "１０（豊浦郵便局私書箱第２号）",
    "office_name": "豊浦町役場",
    "office_name_kana": "トヨウラチヨウヤクバ"
  },
  "5600": {
    "postcode": "0495600",
    "prefecture": "北海道",
    "prefecture_kana": "ホッカイドウ",
    "prefecture_code": 1,
    "city": "虻田郡洞爺湖町",
    "city_kana": "アブタグントウヤコチョウ",
    "town": "",
    "town_kana": "",
    "street": null,
    "office_name": null,
    "office_name_kana": null
  },
  "5601": {
    "postcode": "0495601",
    "prefecture": "北海道",
    "prefecture_kana": "ホッカイドウ",
    "prefecture_code": 1,
    "city": "虻田郡洞爺湖町",
    "city_kana": "アブタグントウヤコチョウ",
    "town": "青葉町",
    "town_kana": "アオバチョウ",
    "street": null,
    "office_name": null,
    "office_name_kana": null
  },
  "5602": {
    "postcode": "0495602",
    "prefecture": "北海道",
    "prefecture_kana": "ホッカイドウ",
    "prefecture_code": 1,
    "city": "虻田郡洞爺湖町",
    "city_kana": "アブタグントウヤコチョウ",
    "town": "泉",
    "town_kana": "イズミ",
    "street": null,
    "office_name": null,
    "office_name_kana": null
  },
  "5603": {
    "postcode": "0495603",
    "prefecture": "北海道",
    "prefecture_kana": "ホッカイドウ",
    "prefecture_code": 1,
    "city": "虻田郡洞爺湖町",
    "city_kana": "アブタグントウヤコチョウ",
    "town": "入江",
    "town_kana": "イリエ",
    "street": null,
    "office_name": null,
    "office_name_kana": null
  },
  "5604": {
    "postcode": "0495604",
    "prefecture": "北海道",
    "prefecture_kana": "ホッカイドウ",
    "prefecture_code": 1,
    "city": "虻田郡洞爺湖町",
    "city_kana": "アブタグントウヤコチョウ",
    "town": "栄町",
    "town_kana": "サカエチョウ",
    "street": null,
    "office_name": null,
    "office_name_kana": null
  },
  "5605": {
    "postcode": "0495605",
    "prefecture": "北海道",
    "prefecture_kana": "ホッカイドウ",
    "prefecture_code": 1,
    "city": "虻田郡洞爺湖町",
    "city_kana": "アブタグントウヤコチョウ",
    "town": "高砂町",
    "town_kana": "タカサゴチョウ",
    "street": null,
    "office_name": null,
    "office_name_kana": null
  },
  "5611": {
    "postcode": "0495611",
    "prefecture": "北海道",
    "prefecture_kana": "ホッカイドウ",
    "prefecture_code": 1,
    "city": "虻田郡洞爺湖町",
    "city_kana": "アブタグントウヤコチョウ",
    "town": "旭町",
    "town_kana": "アサヒチョウ",
    "street": null,
    "office_name": null,
    "office_name_kana": null
  },
  "5612": {
    "postcode": "0495612",
    "prefecture": "北海道",
    "prefecture_kana": "ホッカイドウ",
    "prefecture_code": 1,
    "city": "虻田郡洞爺湖町",
    "city_kana": "アブタグントウヤコチョウ",
    "town": "大磯町",
    "town_kana": "オオイソチョウ",
    "street": null,
    "office_name": null,
    "office_name_kana": null
  },
  "5613": {
    "postcode": "0495613",
    "prefecture": "北海道",
    "prefecture_kana": "ホッカイドウ",
    "prefecture_code": 1,
    "city": "虻田郡洞爺湖町",
    "city_kana": "アブタグントウヤコチョウ",
    "town": "清水",
    "town_kana": "シミズ",
    "street": null,
    "office_name": null,
    "office_name_kana": null
  },
  "5614": {
    "postcode": "0495614",
    "prefecture": "北海道",
    "prefecture_kana": "ホッカイドウ",
    "prefecture_code": 1,
    "city": "虻田郡洞爺湖町",
    "city_kana": "アブタグントウヤコチョウ",
    "town": "浜町",
    "town_kana": "ハマチョウ",
    "street": null,
    "office_name": null,
    "office_name_kana": null
  },
  "5615": {
    "postcode": "0495615",
    "prefecture": "北海道",
    "prefecture_kana": "ホッカイドウ",
    "prefecture_code": 1,
    "city": "虻田郡洞爺湖町",
    "city_kana": "アブタグントウヤコチョウ",
    "town": "本町",
    "town_kana": "ホンチョウ",
    "street": null,
    "office_name": null,
    "office_name_kana": null
  },
  "5616": {
    "postcode": "0495616",
    "prefecture": "北海道",
    "prefecture_kana": "ホッカイドウ",
    "prefecture_code": 1,
    "city": "虻田郡洞爺湖町",
    "city_kana": "アブタグントウヤコチョウ",
    "town": "三豊",
    "town_kana": "ミトヨ",
    "street": null,
    "office_name": null,
    "office_name_kana": null
  },
  "5692": {
    "postcode": "0495692",
    "prefecture": "北海道",
    "prefecture_kana": "ホッカイドウ",
    "prefecture_code": 1,
    "city": "虻田郡洞爺湖町",
    "city_kana": "アブタグントウヤコチョウ",
    "town": "栄町",
    "town_kana": "サカエチョウ",
    "street": "５８番地",
    "office_name": "洞爺湖町役場",
    "office_name_kana": "トウヤコチヨウヤクバ"
  },
  "5721": {
    "postcode": "0495721",
    "prefecture": "北海道",
    "prefecture_kana": "ホッカイドウ",
    "prefecture_code": 1,
    "city": "虻田郡洞爺湖町",
    "city_kana": "アブタグントウヤコチョウ",
    "town": "洞爺湖温泉",
    "town_kana": "トウヤコオンセン",
    "street": null,
    "office_name": null,
    "office_name_kana": null
  },
  "5722": {
    "postcode": "0495722",
    "prefecture": "北海道",
    "prefecture_kana": "ホッカイドウ",
    "prefecture_code": 1,
    "city": "虻田郡洞爺湖町",
    "city_kana": "アブタグントウヤコチョウ",
    "town": "清水",
    "town_kana": "シミズ",
    "street": null,
    "office_name": null,
    "office_name_kana": null
  },
  "5723": {
    "postcode": "0495723",
    "prefecture": "北海道",
    "prefecture_kana": "ホッカイドウ",
    "prefecture_code": 1,
    "city": "虻田郡洞爺湖町",
    "city_kana": "アブタグントウヤコチョウ",
    "town": "月浦",
    "town_kana": "ツキウラ",
    "street": null,
    "office_name": null,
    "office_name_kana": null
  },
  "5724": {
    "postcode": "0495724",
    "prefecture": "北海道",
    "prefecture_kana": "ホッカイドウ",
    "prefecture_code": 1,
    "city": "虻田郡洞爺湖町",
    "city_kana": "アブタグントウヤコチョウ",
    "town": "花和",
    "town_kana": "ハナワ",
    "street": null,
    "office_name": null,
    "office_name_kana": null
  },
  "5731": {
    "postcode": "0495731",
    "prefecture": "北海道",
    "prefecture_kana": "ホッカイドウ",
    "prefecture_code": 1,
    "city": "有珠郡壮瞥町",
    "city_kana": "ウスグンソウベツチョウ",
    "town": "洞爺湖温泉",
    "town_kana": "トウヤコオンセン",
    "street": null,
    "office_name": null,
    "office_name_kana": null
  },
  "5801": {
    "postcode": "0495801",
    "prefecture": "北海道",
    "prefecture_kana": "ホッカイドウ",
    "prefecture_code": 1,
    "city": "虻田郡洞爺湖町",
    "city_kana": "アブタグントウヤコチョウ",
    "town": "旭浦",
    "town_kana": "アサヒウラ",
    "street": null,
    "office_name": null,
    "office_name_kana": null
  },
  "5802": {
    "postcode": "0495802",
    "prefecture": "北海道",
    "prefecture_kana": "ホッカイドウ",
    "prefecture_code": 1,
    "city": "虻田郡洞爺湖町",
    "city_kana": "アブタグントウヤコチョウ",
    "town": "洞爺町",
    "town_kana": "トウヤマチ",
    "street": null,
    "office_name": null,
    "office_name_kana": null
  },
  "5811": {
    "postcode": "0495811",
    "prefecture": "北海道",
    "prefecture_kana": "ホッカイドウ",
    "prefecture_code": 1,
    "city": "虻田郡洞爺湖町",
    "city_kana": "アブタグントウヤコチョウ",
    "town": "岩屋",
    "town_kana": "イワヤ",
    "street": null,
    "office_name": null,
    "office_name_kana": null
  },
  "5812": {
    "postcode": "0495812",
    "prefecture": "北海道",
    "prefecture_kana": "ホッカイドウ",
    "prefecture_code": 1,
    "city": "虻田郡洞爺湖町",
    "city_kana": "アブタグントウヤコチョウ",
    "town": "川東",
    "town_kana": "カワヒガシ",
    "street": null,
    "office_name": null,
    "office_name_kana": null
  },
  "5813": {
    "postcode": "0495813",
    "prefecture": "北海道",
    "prefecture_kana": "ホッカイドウ",
    "prefecture_code": 1,
    "city": "虻田郡洞爺湖町",
    "city_kana": "アブタグントウヤコチョウ",
    "town": "財田",
    "town_kana": "タカラダ",
    "street": null,
    "office_name": null,
    "office_name_kana": null
  },
  "5814": {
    "postcode": "0495814",
    "prefecture": "北海道",
    "prefecture_kana": "ホッカイドウ",
    "prefecture_code": 1,
    "city": "虻田郡洞爺湖町",
    "city_kana": "アブタグントウヤコチョウ",
    "town": "早月",
    "town_kana": "ハヤツキ",
    "street": null,
    "office_name": null,
    "office_name_kana": null
  },
  "5821": {
    "postcode": "0495821",
    "prefecture": "北海道",
    "prefecture_kana": "ホッカイドウ",
    "prefecture_code": 1,
    "city": "虻田郡洞爺湖町",
    "city_kana": "アブタグントウヤコチョウ",
    "town": "大原",
    "town_kana": "オオハラ",
    "street": null,
    "office_name": null,
    "office_name_kana": null
  },
  "5822": {
    "postcode": "0495822",
    "prefecture": "北海道",
    "prefecture_kana": "ホッカイドウ",
    "prefecture_code": 1,
    "city": "虻田郡洞爺湖町",
    "city_kana": "アブタグントウヤコチョウ",
    "town": "富丘",
    "town_kana": "トミオカ",
    "street": null,
    "office_name": null,
    "office_name_kana": null
  },
  "5831": {
    "postcode": "0495831",
    "prefecture": "北海道",
    "prefecture_kana": "ホッカイドウ",
    "prefecture_code": 1,
    "city": "虻田郡洞爺湖町",
    "city_kana": "アブタグントウヤコチョウ",
    "town": "香川",
    "town_kana": "カガワ",
    "street": null,
    "office_name": null,
    "office_name_kana": null
  },
  "5832": {
    "postcode": "0495832",
    "prefecture": "北海道",
    "prefecture_kana": "ホッカイドウ",
    "prefecture_code": 1,
    "city": "虻田郡洞爺湖町",
    "city_kana": "アブタグントウヤコチョウ",
    "town": "成香",
    "town_kana": "ナルカ",
    "street": null,
    "office_name": null,
    "office_name_kana": null
  },
  "5833": {
    "postcode": "0495833",
    "prefecture": "北海道",
    "prefecture_kana": "ホッカイドウ",
    "prefecture_code": 1,
    "city": "虻田郡洞爺湖町",
    "city_kana": "アブタグントウヤコチョウ",
    "town": "伏見",
    "town_kana": "フシミ",
    "street": null,
    "office_name": null,
    "office_name_kana": null
  },
  "5892": {
    "postcode": "0495892",
    "prefecture": "北海道",
    "prefecture_kana": "ホッカイドウ",
    "prefecture_code": 1,
    "city": "虻田郡洞爺湖町",
    "city_kana": "アブタグントウヤコチョウ",
    "town": "洞爺町",
    "town_kana": "トウヤマチ",
    "street": "５４番地４１",
    "office_name": "洞爺温泉病院",
    "office_name_kana": "トウヤオンセンビヨウイン"
  }
}