{
  "0000": {
    "postcode": "0530000",
    "prefecture": "北海道",
    "prefecture_kana": "ホッカイドウ",
    "prefecture_code": 1,
    "city": "苫小牧市",
    "city_kana": "トマコマイシ",
    "town": "",
    "town_kana": "",
    "street": null,
    "office_name": null,
    "office_name_kana": null
  },
  "0001": {
    "postcode": "0530001",
    "prefecture": "北海道",
    "prefecture_kana": "ホッカイドウ",
    "prefecture_code": 1,
    "city": "苫小牧市",
    "city_kana": "トマコマイシ",
    "town": "一本松町",
    "town_kana": "イッポンマツチョウ",
    "street": null,
    "office_name": null,
    "office_name_kana": null
  },
  "0002": {
    "postcode": "0530002",
    "prefecture": "北海道",
    "prefecture_kana": "ホッカイドウ",
    "prefecture_code": 1,
    "city": "苫小牧市",
    "city_kana": "トマコマイシ",
    "town": "晴海町",
    "town_kana": "ハルミチョウ",
    "street": null,
    "office_name": null,
    "office_name_kana": null
  },
  "0003": {
    "postcode": "0530003",
    "prefecture": "北海道",
    "prefecture_kana": "ホッカイドウ",
    "prefecture_code": 1,
    "city": "苫小牧市",
    "city_kana": "トマコマイシ",
    "town": "入船町",
    "town_kana": "イリフネチョウ",
    "street": null,
    "office_name": null,
    "office_name_kana": null
  },
  "0004": {
    "postcode": "0530004",
    "prefecture": "北海道",
    "prefecture_kana": "ホッカイドウ",
    "prefecture_code": 1,
    "city": "苫小牧市",
    "city_kana": "トマコマイシ",
    "town": "港町",
    "town_kana": "ミナトマチ",
    "street": null,
    "office_name": null,
    "office_name_kana": null
  },
  "0005": {
    "postcode": "0530005",
    "prefecture": "北海道",
    "prefecture_kana": "ホッカイドウ",
    "prefecture_code": 1,
    "city": "苫小牧市",
    "city_kana": "トマコマイシ",
    "town": "元中野町",
    "town_kana": "モトナカノチョウ",
    "street": null,
    "office_name": null,
    "office_name_kana": null
  },
  "0006": {
    "postcode": "0530006",
    "prefecture": "北海道",
    "prefecture_kana": "ホッカイドウ",
    "prefecture_code": 1,
    "city": "苫小牧市",
    "city_kana": "トマコマイシ",
    "town": "新中野町",
    "town_kana": "シンナカノチョウ",
    "street": null,
    "office_name": null,
    "office_name_kana": null
  },
  "0007": {
    "postcode": "0530007",
    "prefecture": "北海道",
    "prefecture_kana": "ホッカイドウ",
    "prefecture_code": 1,
    "city": "苫小牧市",
    "city_kana": "トマコマイシ",
    "town": "船見町",
    "town_kana": "フナミチョウ",
    "street": null,
    "office_name": null,
    "office_name_kana": null
  },
  "0011": {
    "postcode": "0530011",
    "prefecture": "北海道",
    "prefecture_kana": "ホッカイドウ",
    "prefecture_code": 1,
    "city": "苫小牧市",
    "city_kana": "トマコマイシ",
    "town": "末広町",
    "town_kana": "スエヒロチョウ",
    "street": null,
    "office_name": null,
    "office_name_kana": null
  },
  "0012": {
    "postcode": "0530012",
    "prefecture": "北海道",
    "prefecture_kana": "ホッカイドウ",
    "prefecture_code": 1,
    "city": "苫小牧市",
    "city_kana": "トマコマイシ",
    "town": "汐見町",
    "town_kana": "シオミチョウ",
    "street": null,
    "office_name": null,
    "office_name_kana": null
  },
  "0013": {
    "postcode": "0530013",
    "prefecture": "北海道",
    "prefecture_kana": "ホッカイドウ",
    "prefecture_code": 1,
    "city": "苫小牧市",
    "city_kana": "トマコマイシ",
    "town": "高砂町",
    "town_kana": "タカサゴチョウ",
    "street": null,
    "office_name": null,
    "office_name_kana": null
  },
  "0014": {
    "postcode": "0530014",
    "prefecture": "北海道",
    "prefecture_kana": "ホッカイドウ",
    "prefecture_code": 1,
    "city": "苫小牧市",
    "city_kana": "トマコマイシ",
    "town": "浜町",
    "town_kana": "ハマチョウ",
    "street": null,
    "office_name": null,
    "office_name_kana": null
  },
  "0015": {
    "postcode": "0530015",
    "prefecture": "北海道",
    "prefecture_kana": "ホッカイドウ",
    "prefecture_code": 1,
    "city": "苫小牧市",
    "city_kana": "トマコマイシ",
    "town": "本幸町",
    "town_kana": "ホンコウチョウ",
    "street": null,
    "office_name": null,
    "office_name_kana": null
  },
  "0016": {
    "postcode": "0530016",
    "prefecture": "北海道",
    "prefecture_kana": "ホッカイドウ",
    "prefecture_code": 1,
    "city": "苫小牧市",
    "city_kana": "トマコマイシ",
    "town": "寿町",
    "town_kana": "コトブキチョウ",
    "street": null,
    "office_name": null,
    "office_name_kana": null
  },
  "0017": {
    "postcode": "0530017",
    "prefecture": "北海道",
    "prefecture_kana": "ホッカイドウ",
    "prefecture_code": 1,
    "city": "苫小牧市",
    "city_kana": "トマコマイシ",
    "town": "栄町",
    "town_kana": "サカエマチ",
    "street": null,
    "office_name": null,
    "office_name_kana": null
  },
  "0018": {
    "postcode": "0530018",
    "prefecture": "北海道",
    "prefecture_kana": "ホッカイドウ",
    "prefecture_code": 1,
    "city": "苫小牧市",
    "city_kana": "トマコマイシ",
    "town": "旭町",
    "town_kana": "アサヒマチ",
    "street": null,
    "office_name": null,
    "office_name_kana": null
  },
  "0021": {
    "postcode": "0530021",
    "prefecture": "北海道",
    "prefecture_kana": "ホッカイドウ",
    "prefecture_code": 1,
    "city": "苫小牧市",
    "city_kana": "トマコマイシ",
    "town": "若草町",
    "town_kana": "ワカクサチョウ",
    "street": null,
    "office_name": null,
    "office_name_kana": null
  },
  "0022": {
    "postcode": "0530022",
    "prefecture": "北海道",
    "prefecture_kana": "ホッカイドウ",
    "prefecture_code": 1,
    "city": "苫小牧市",
    "city_kana": "トマコマイシ",
    "town": "表町",
    "town_kana": "オモテマチ",
    "street": null,
    "office_name": null,
    "office_name_kana": null
  },
  "0023": {
    "postcode": "0530023",
    "prefecture": "北海道",
    "prefecture_kana": "ホッカイドウ",
    "prefecture_code": 1,
    "city": "苫小牧市",
    "city_kana": "トマコマイシ",
    "town": "錦町",
    "town_kana": "ニシキマチ",
    "street": null,
    "office_name": null,
    "office_name_kana": null
  },
  "0024": {
    "postcode": "0530024",
    "prefecture": "北海道",
    "prefecture_kana": "ホッカイドウ",
    "prefecture_code": 1,
    "city": "苫小牧市",
    "city_kana": "トマコマイシ",
    "town": "大町",
    "town_kana": "オオマチ",
    "street": null,
    "office_name": null,
    "office_name_kana": null
  },
  "0025": {
    "postcode": "0530025",
    "prefecture": "北海道",
    "prefecture_kana": "ホッカイドウ",
    "prefecture_code": 1,
    "city": "苫小牧市",
    "city_kana": "トマコマイシ",
    "town": "本町",
    "town_kana": "ホンチョウ",
    "street": null,
    "office_name": null,
    "office_name_kana": null
  },
  "0026": {
    "postcode": "0530026",
    "prefecture": "北海道",
    "prefecture_kana": "ホッカイドウ",
    "prefecture_code": 1,
    "city": "苫小牧市",
    "city_kana": "トマコマイシ",
    "town": "幸町",
    "town_kana": "サイワイチョウ",
    "street": null,
    "office_name": null,
    "office_name_kana": null
  },
  "0027": {
    "postcode": "0530027",
    "prefecture": "北海道",
    "prefecture_kana": "ホッカイドウ",
    "prefecture_code": 1,
    "city": "苫小牧市",
    "city_kana": "トマコマイシ",
    "town": "王子町",
    "town_kana": "オウジマチ",
    "street": null,
    "office_name": null,
    "office_name_kana": null
  },
  "0031": {
    "postcode": "0530031",
    "prefecture": "北海道",
    "prefecture_kana": "ホッカイドウ",
    "prefecture_code": 1,
    "city": "苫小牧市",
    "city_kana": "トマコマイシ",
    "town": "春日町",
    "town_kana": "カスガチョウ",
    "street": null,
    "office_name": null,
    "office_name_kana": null
  },
  "0032": {
    "postcode": "0530032",
    "prefecture": "北海道",
    "prefecture_kana": "ホッカイドウ",
    "prefecture_code": 1,
    "city": "苫小牧市",
    "city_kana": "トマコマイシ",
    "town": "緑町",
    "town_kana": "ミドリマチ",
    "street": null,
    "office_name": null,
    "office_name_kana": null
  },
  "0033": {
    "postcode": "0530033",
    "prefecture": "北海道",
    "prefecture_kana": "ホッカイドウ",
    "prefecture_code": 1,
    "city": "苫小牧市",
    "city_kana": "トマコマイシ",
    "town": "木場町",
    "town_kana": "キバチョウ",
    "street": null,
    "office_name": null,
    "office_name_kana": null
  },
  "0034": {
    "postcode": "0530034",
    "prefecture": "北海道",
    "prefecture_kana": "ホッカイドウ",
    "prefecture_code": 1,
    "city": "苫小牧市",
    "city_kana": "トマコマイシ",
    "town": "清水町",
    "town_kana": "シミズチョウ",
    "street": null,
    "office_name": null,
    "office_name_kana": null
  },
  "0035": {
    "postcode": "0530035",
    "prefecture": "北海道",
    "prefecture_kana": "ホッカイドウ",
    "prefecture_code": 1,
    "city": "苫小牧市",
    "city_kana": "トマコマイシ",
    "town": "高丘",
    "town_kana": "タカオカ",
    "street": null,
    "office_name": null,
    "office_name_kana": null
  },
  "0041": {
    "postcode": "0530041",
    "prefecture": "北海道",
    "prefecture_kana": "ホッカイドウ",
    "prefecture_code": 1,
    "city": "苫小牧市",
    "city_kana": "トマコマイシ",
    "town": "美園町",
    "town_kana": "ミソノチョウ",
    "street": null,
    "office_name": null,
    "office_name_kana": null
  },
  "0042": {
    "postcode": "0530042",
    "prefecture": "北海道",
    "prefecture_kana": "ホッカイドウ",
    "prefecture_code": 1,
    "city": "苫小牧市",
    "city_kana": "トマコマイシ",
    "town": "三光町",
    "town_kana": "サンコウチョウ",
    "street": null,
    "office_name": null,
    "office_name_kana": null
  },
  "0043": {
    "postcode": "0530043",
    "prefecture": "北海道",
    "prefecture_kana": "ホッカイドウ",
    "prefecture_code": 1,
    "city": "苫小牧市",
    "city_kana": "トマコマイシ",
    "town": "日の出町",
    "town_kana": "ヒノデチョウ",
    "street": null,
    "office_name": null,
    "office_name_kana": null
  },
  "0044": {
    "postcode": "0530044",
    "prefecture": "北海道",
    "prefecture_kana": "ホッカイドウ",
    "prefecture_code": 1,
    "city": "苫小牧市",
    "city_kana": "トマコマイシ",
    "town": "音羽町",
    "town_kana": "オトワチョウ",
    "street": null,
    "office_name": null,
    "office_name_kana": null
  },
  "0045": {
    "postcode": "0530045",
    "prefecture": "北海道",
    "prefecture_kana": "ホッカイドウ",
    "prefecture_code": 1,
    "city": "苫小牧市",
    "city_kana": "トマコマイシ",
    "town": "双葉町",
    "town_kana": "フタバチョウ",
    "street": null,
    "office_name": null,
    "office_name_kana": null
  },
  "0046": {
    "postcode": "0530046",
    "prefecture": "北海道",
    "prefecture_kana": "ホッカイドウ",
    "prefecture_code": 1,
    "city": "苫小牧市",
    "city_kana": "トマコマイシ",
    "town": "住吉町",
    "town_kana": "スミヨシチョウ",
    "street": null,
    "office_name": null,
    "office_name_kana": null
  },
  "0047": {
    "postcode": "0530047",
    "prefecture": "北海道",
    "prefecture_kana": "ホッカイドウ",
    "prefecture_code": 1,
    "city": "苫小牧市",
    "city_kana": "トマコマイシ",
    "town": "泉町",
    "town_kana": "イズミチョウ",
    "street": null,
    "office_name": null,
    "office_name_kana": null
  },
  "0051": {
    "postcode": "0530051",
    "prefecture": "北海道",
    "prefecture_kana": "ホッカイドウ",
    "prefecture_code": 1,
    "city": "苫小牧市",
    "city_kana": "トマコマイシ",
    "town": "明野元町",
    "town_kana": "アケノモトマチ",
    "street": null,
    "office_name": null,
    "office_name_kana": null
  },
  "0052": {
    "postcode": "0530052",
    "prefecture": "北海道",
    "prefecture_kana": "ホッカイドウ",
    "prefecture_code": 1,
    "city": "苫小牧市",
    "city_kana": "トマコマイシ",
    "town": "新開町",
    "town_kana": "シンカイチョウ",
    "street": null,
    "office_name": null,
    "office_name_kana": null
  },
  "0053": {
    "postcode": "0530053",
    "prefecture": "北海道",
    "prefecture_kana": "ホッカイドウ",
    "prefecture_code": 1,
    "city": "苫小牧市",
    "city_kana": "トマコマイシ",
    "town": "柳町",
    "town_kana": "ヤナギチョウ",
    "street": null,
    "office_name": null,
    "office_name_kana": null
  },
  "0054": {
    "postcode": "0530054",
    "prefecture": "北海道",
    "prefecture_kana": "ホッカイドウ",
    "prefecture_code": 1,
    "city": "苫小牧市",
    "city_kana": "トマコマイシ",
    "town": "明野新町",
    "town_kana": "アケノシンマチ",
    "street": null,
    "office_name": null,
    "office_name_kana": null
  },
  "0055": {
    "postcode": "0530055",
    "prefecture": "北海道",
    "prefecture_kana": "ホッカイドウ",
    "prefecture_code": 1,
    "city": "苫小牧市",
    "city_kana": "トマコマイシ",
    "town": "新明町",
    "town_kana": "シンメイチョウ",
    "street": null,
    "office_name": null,
    "office_name_kana": null
  },
  "0056": {
    "postcode": "0530056",
    "prefecture": "北海道",
    "prefecture_kana": "ホッカイドウ",
    "prefecture_code": 1,
    "city": "苫小牧市",
    "city_kana": "トマコマイシ",
    "town": "あけぼの町",
    "town_kana": "アケボノチョウ",
    "street": null,
    "office_name": null,
    "office_name_kana": null
  },
  "0801": {
    "postcode": "0530801",
    "prefecture": "北海道",
    "prefecture_kana": "ホッカイドウ",
    "prefecture_code": 1,
    "city": "苫小牧市",
    "city_kana": "トマコマイシ",
    "town": "白金町",
    "town_kana": "シロガネチョウ",
    "street": null,
    "office_name": null,
    "office_name_kana": null
  },
  "0802": {
    "postcode": "0530802",
    "prefecture": "北海道",
    "prefecture_kana": "ホッカイドウ",
    "prefecture_code": 1,
    "city": "苫小牧市",
    "city_kana": "トマコマイシ",
    "town": "弥生町",
    "town_kana": "ヤヨイチョウ",
    "street": null,
    "office_name": null,
    "office_name_kana": null
  },
  "0803": {
    "postcode": "0530803",
    "prefecture": "北海道",
    "prefecture_kana": "ホッカイドウ",
    "prefecture_code": 1,
    "city": "苫小牧市",
    "city_kana": "トマコマイシ",
    "town": "矢代町",
    "town_kana": "ヤシロチョウ",
    "street": null,
    "office_name": null,
    "office_name_kana": null
  },
  "0804": {
    "postcode": "0530804",
    "prefecture": "北海道",
    "prefecture_kana": "ホッカイドウ",
    "prefecture_code": 1,
    "city": "苫小牧市",
    "city_kana": "トマコマイシ",
    "town": "元町",
    "town_kana": "モトマチ",
    "street": null,
    "office_name": null,
    "office_name_kana": null
  },
  "0805": {
    "postcode": "0530805",
    "prefecture": "北海道",
    "prefecture_kana": "ホッカイドウ",
    "prefecture_code": 1,
    "city": "苫小牧市",
    "city_kana": "トマコマイシ",
    "town": "新富町",
    "town_kana": "シントミチョウ",
    "street": null,
    "office_name": null,
    "office_name_kana": null
  },
  "0806": {
    "postcode": "0530806",
    "prefecture": "北海道",
    "prefecture_kana": "ホッカイドウ",
    "prefecture_code": 1,
    "city": "苫小牧市",
    "city_kana": "トマコマイシ",
    "town": "大成町",
    "town_kana": "タイセイチョウ",
    "street": null,
    "office_name": null,
    "office_name_kana": null
  },
  "0807": {
    "postcode": "0530807",
    "prefecture": "北海道",
    "prefecture_kana": "ホッカイドウ",
    "prefecture_code": 1,
    "city": "苫小牧市",
    "city_kana": "トマコマイシ",
    "town": "青葉町",
    "town_kana": "アオバチョウ",
    "street": null,
    "office_name": null,
    "office_name_kana": null
  },
  "0811": {
    "postcode": "0530811",
    "prefecture": "北海道",
    "prefecture_kana": "ホッカイドウ",
    "prefecture_code": 1,
    "city": "苫小牧市",
    "city_kana": "トマコマイシ",
    "town": "光洋町",
    "town_kana": "コウヨウチョウ",
    "street": null,
    "office_name": null,
    "office_name_kana": null
  },
  "0812": {
    "postcode": "0530812",
    "prefecture": "北海道",
    "prefecture_kana": "ホッカイドウ",
    "prefecture_code": 1,
    "city": "苫小牧市",
    "city_kana": "トマコマイシ",
    "town": "有明町",
    "town_kana": "アリアケチョウ",
    "street": null,
    "office_name": null,
    "office_name_kana": null
  },
  "0813": {
    "postcode": "0530813",
    "prefecture": "北海道",
    "prefecture_kana": "ホッカイドウ",
    "prefecture_code": 1,
    "city": "苫小牧市",
    "city_kana": "トマコマイシ",
    "town": "小糸井町",
    "town_kana": "コイトイチョウ",
    "street": null,
    "office_name": null,
    "office_name_kana": null
  },
  "0814": {
    "postcode": "0530814",
    "prefecture": "北海道",
    "prefecture_kana": "ホッカイドウ",
    "prefecture_code": 1,
    "city": "苫小牧市",
    "city_kana": "トマコマイシ",
    "town": "糸井",
    "town_kana": "イトイ",
    "street": null,
    "office_name": null,
    "office_name_kana": null
  },
  "0815": {
    "postcode": "0530815",
    "prefecture": "北海道",
    "prefecture_kana": "ホッカイドウ",
    "prefecture_code": 1,
    "city": "苫小牧市",
    "city_kana": "トマコマイシ",
    "town": "永福町",
    "town_kana": "エイフクチョウ",
    "street": null,
    "office_name": null,
    "office_name_kana": null
  },
  "0816": {
    "postcode": "0530816",
    "prefecture": "北海道",
    "prefecture_kana": "ホッカイドウ",
    "prefecture_code": 1,
    "city": "苫小牧市",
    "city_kana": "トマコマイシ",
    "town": "日吉町",
    "town_kana": "ヒヨシチョウ",
    "street": null,
    "office_name": null,
    "office_name_kana": null
  },
  "0821": {
    "postcode": "0530821",
    "prefecture": "北海道",
    "prefecture_kana": "ホッカイドウ",
    "prefecture_code": 1,
    "city": "苫小牧市",
    "city_kana": "トマコマイシ",
    "town": "しらかば町",
    "town_kana": "シラカバチョウ",
    "street": null,
    "office_name": null,
    "office_name_kana": null
  },
  "0822": {
    "postcode": "0530822",
    "prefecture": "北海道",
    "prefecture_kana": "ホッカイドウ",
    "prefecture_code": 1,
    "city": "苫小牧市",
    "city_kana": "トマコマイシ",
    "town": "川沿町",
    "town_kana": "カワゾエチョウ",
    "street": null,
    "office_name": null,
    "office_name_kana": null
  },
  "0823": {
    "postcode": "0530823",
    "prefecture": "北海道",
    "prefecture_kana": "ホッカイドウ",
    "prefecture_code": 1,
    "city": "苫小牧市",
    "city_kana": "トマコマイシ",
    "town": "柏木町",
    "town_kana": "カシワギチョウ",
    "street": null,
    "office_name": null,
    "office_name_kana": null
  },
  "0831": {
    "postcode": "0530831",
    "prefecture": "北海道",
    "prefecture_kana": "ホッカイドウ",
    "prefecture_code": 1,
    "city": "苫小牧市",
    "city_kana": "トマコマイシ",
    "town": "豊川町",
    "town_kana": "トヨカワチョウ",
    "street": null,
    "office_name": null,
    "office_name_kana": null
  },
  "0832": {
    "postcode": "0530832",
    "prefecture": "北海道",
    "prefecture_kana": "ホッカイドウ",
    "prefecture_code": 1,
    "city": "苫小牧市",
    "city_kana": "トマコマイシ",
    "town": "桜木町",
    "town_kana": "サクラギチョウ",
    "street": null,
    "office_name": null,
    "office_name_kana": null
  },
  "0833": {
    "postcode": "0530833",
    "prefecture": "北海道",
    "prefecture_kana": "ホッカイドウ",
    "prefecture_code": 1,
    "city": "苫小牧市",
    "city_kana": "トマコマイシ",
    "town": "日新町",
    "town_kana": "ニッシンチョウ",
    "street": null,
    "office_name": null,
    "office_name_kana": null
  },
  "0841": {
    "postcode": "0530841",
    "prefecture": "北海道",
    "prefecture_kana": "ホッカイドウ",
    "prefecture_code": 1,
    "city": "苫小牧市",
    "city_kana": "トマコマイシ",
    "town": "松風町",
    "town_kana": "マツカゼチョウ",
    "street": null,
    "office_name": null,
    "office_name_kana": null
  },
  "0842": {
    "postcode": "0530842",
    "prefecture": "北海道",
    "prefecture_kana": "ホッカイドウ",
    "prefecture_code": 1,
    "city": "苫小牧市",
    "city_kana": "トマコマイシ",
    "town": "有珠の沢町",
    "town_kana": "ウスノサワチョウ",
    "street": null,
    "office_name": null,
    "office_name_kana": null
  },
  "0843": {
    "postcode": "0530843",
    "prefecture": "北海道",
    "prefecture_kana": "ホッカイドウ",
    "prefecture_code": 1,
    "city": "苫小牧市",
    "city_kana": "トマコマイシ",
    "town": "桜坂町",
    "town_kana": "サクラザカチョウ",
    "street": null,
    "office_name": null,
    "office_name_kana": null
  },
  "0844": {
    "postcode": "0530844",
    "prefecture": "北海道",
    "prefecture_kana": "ホッカイドウ",
    "prefecture_code": 1,
    "city": "苫小牧市",
    "city_kana": "トマコマイシ",
    "town": "宮の森町",
    "town_kana": "ミヤノモリチョウ",
    "street": null,
    "office_name": null,
    "office_name_kana": null
  },
  "0845": {
    "postcode": "0530845",
    "prefecture": "北海道",
    "prefecture_kana": "ホッカイドウ",
    "prefecture_code": 1,
    "city": "苫小牧市",
    "city_kana": "トマコマイシ",
    "town": "はまなす町",
    "town_kana": "ハマナスチョウ",
    "street": null,
    "office_name": null,
    "office_name_kana": null
  },
  "0851": {
    "postcode": "0530851",
    "prefecture": "北海道",
    "prefecture_kana": "ホッカイドウ",
    "prefecture_code": 1,
    "city": "苫小牧市",
    "city_kana": "トマコマイシ",
    "town": "山手町",
    "town_kana": "ヤマテチョウ",
    "street": null,
    "office_name": null,
    "office_name_kana": null
  },
  "0852": {
    "postcode": "0530852",
    "prefecture": "北海道",
    "prefecture_kana": "ホッカイドウ",
    "prefecture_code": 1,
    "city": "苫小牧市",
    "city_kana": "トマコマイシ",
    "town": "北光町",
    "town_kana": "ホッコウチョウ",
    "street": null,
    "office_name": null,
    "office_name_kana": null
  },
  "0853": {
    "postcode": "0530853",
    "prefecture": "北海道",
    "prefecture_kana": "ホッカイドウ",
    "prefecture_code": 1,
    "city": "苫小牧市",
    "city_kana": "トマコマイシ",
    "town": "花園町",
    "town_kana": "ハナゾノチョウ",
    "street": null,
    "office_name": null,
    "office_name_kana": null
  },
  "0854": {
    "postcode": "0530854",
    "prefecture": "北海道",
    "prefecture_kana": "ホッカイドウ",
    "prefecture_code": 1,
    "city": "苫小牧市",
    "city_kana": "トマコマイシ",
    "town": "啓北町",
    "town_kana": "ケイホクチョウ",
    "street": null,
    "office_name": null,
    "office_name_kana": null
  },
  "0855": {
    "postcode": "0530855",
    "prefecture": "北海道",
    "prefecture_kana": "ホッカイドウ",
    "prefecture_code": 1,
    "city": "苫小牧市",
    "city_kana": "トマコマイシ",
    "town": "見山町",
    "town_kana": "ミヤマチョウ",
    "street": null,
    "office_name": null,
    "office_name_kana": null
  },
  "8505": {
    "postcode": "0538505",
    "prefecture": "北海道",
    "prefecture_kana": "ホッカイドウ",
    "prefecture_code": 1,
    "city": "苫小牧市",
    "city_kana": "トマコマイシ",
    "town": "一本松町",
    "town_kana": "イッポンマツチョウ",
    "street": "１２番地１",
    "office_name": "光陽商事　（株）",
    "office_name_kana": "コウヨウシヨウジ カブシキガイシヤ"
  },
  "8506": {
    "postcode": "0538506",
    "prefecture": "北海道",
    "prefecture_kana": "ホッカイドウ",
    "prefecture_code": 1,
    "city": "苫小牧市",
    "city_kana": "トマコマイシ",
    "town": "若草町",
    "town_kana": "ワカクサチョウ",
    "street": "３丁目４番８号",
    "office_name": "医療法人　王子総合病院",
    "office_name_kana": "イリヨウホウジンオウジソウゴウビヨウイン"
  },
  "8511": {
    "postcode": "0538511",
    "prefecture": "北海道",
    "prefecture_kana": "ホッカイドウ",
    "prefecture_code": 1,
    "city": "苫小牧市",
    "city_kana": "トマコマイシ",
    "town": "入船町",
    "town_kana": "イリフネチョウ",
    "street": "３丁目４番２１号",
    "office_name": "苫小牧埠頭　株式会社",
    "office_name_kana": "トマコマイフトウ カブシキガイシヤ"
  },
  "8522": {
    "postcode": "0538522",
    "prefecture": "北海道",
    "prefecture_kana": "ホッカイドウ",
    "prefecture_code": 1,
    "city": "苫小牧市",
    "city_kana": "トマコマイシ",
    "town": "元中野町",
    "town_kana": "モトナカノチョウ",
    "street": "２丁目１３番２４号",
    "office_name": "ナラサキスタックス　（株）",
    "office_name_kana": "ナラサキスタツクス カブシキガイシヤ"
  },
  "8533": {
    "postcode": "0538533",
    "prefecture": "北海道",
    "prefecture_kana": "ホッカイドウ",
    "prefecture_code": 1,
    "city": "苫小牧市",
    "city_kana": "トマコマイシ",
    "town": "字糸井",
    "town_kana": null,
    "street": "１４１番地",
    "office_name": "（株）　三星",
    "office_name_kana": "カブシキガイシヤ ミツボシ"
  },
  "8540": {
    "postcode": "0538540",
    "prefecture": "北海道",
    "prefecture_kana": "ホッカイドウ",
    "prefecture_code": 1,
    "city": "苫小牧市",
    "city_kana": "トマコマイシ",
    "town": "港町",
    "town_kana": "ミナトマチ",
    "street": "１丁目６番１５号",
    "office_name": "苫小牧労働基準監督署",
    "office_name_kana": "トマコマイロウドウキジユンカントクシヨ"
  },
  "8541": {
    "postcode": "0538541",
    "prefecture": "北海道",
    "prefecture_kana": "ホッカイドウ",
    "prefecture_code": 1,
    "city": "苫小牧市",
    "city_kana": "トマコマイシ",
    "town": "美園町",
    "town_kana": "ミソノチョウ",
    "street": "１丁目９番３号",
    "office_name": "駒澤大学附属　苫小牧高等学校",
    "office_name_kana": "コマザワダイガクフゾク トマコマイコウトウガツコウ"
  },
  "8555": {
    "postcode": "0538555",
    "prefecture": "北海道",
    "prefecture_kana": "ホッカイドウ",
    "prefecture_code": 1,
    "city": "苫小牧市",
    "city_kana": "トマコマイシ",
    "town": "清水町",
    "town_kana": "シミズチョウ",
    "street": "２丁目１２番２０号",
    "office_name": "北海道苫小牧東高等学校",
    "office_name_kana": "ホツカイドウトマコマイヒガシコウトウガツコウ"
  },
  "8570": {
    "postcode": "0538570",
    "prefecture": "北海道",
    "prefecture_kana": "ホッカイドウ",
    "prefecture_code": 1,
    "city": "苫小牧市",
    "city_kana": "トマコマイシ",
    "town": "旭町",
    "town_kana": "アサヒマチ",
    "street": "２丁目４番２０号",
    "office_name": "社団法人　苫小牧市医師会",
    "office_name_kana": "シヤダンホウジン トマコマイシイシカイ"
  },
  "8588": {
    "postcode": "0538588",
    "prefecture": "北海道",
    "prefecture_kana": "ホッカイドウ",
    "prefecture_code": 1,
    "city": "苫小牧市",
    "city_kana": "トマコマイシ",
    "town": "若草町",
    "town_kana": "ワカクサチョウ",
    "street": "２丁目１番１４号",
    "office_name": "苫小牧年金事務所",
    "office_name_kana": "トマコマイネンキンジムシヨ"
  },
  "8609": {
    "postcode": "0538609",
    "prefecture": "北海道",
    "prefecture_kana": "ホッカイドウ",
    "prefecture_code": 1,
    "city": "苫小牧市",
    "city_kana": "トマコマイシ",
    "town": "港町",
    "town_kana": "ミナトマチ",
    "street": "１丁目６番１５号",
    "office_name": "苫小牧公共職業安定所",
    "office_name_kana": "トマコマイコウキヨウシヨクギヨウアンテイシヨ"
  },
  "8611": {
    "postcode": "0538611",
    "prefecture": "北海道",
    "prefecture_kana": "ホッカイドウ",
    "prefecture_code": 1,
    "city": "苫小牧市",
    "city_kana": "トマコマイシ",
    "town": "若草町",
    "town_kana": "ワカクサチョウ",
    "street": "３丁目１番８号",
    "office_name": "（株）　苫小牧民報社",
    "office_name_kana": "カブシキガイシヤ トマコマイミンポウシヤ"
  },
  "8619": {
    "postcode": "0538619",
    "prefecture": "北海道",
    "prefecture_kana": "ホッカイドウ",
    "prefecture_code": 1,
    "city": "苫小牧市",
    "city_kana": "トマコマイシ",
    "town": "旭町",
    "town_kana": "アサヒマチ",
    "street": "３丁目６番１３号",
    "office_name": "日本電信電話　（株）　苫小牧支店",
    "office_name_kana": "ニホンデンシンデンワ カブシキガイシヤ トマコマイシテン"
  },
  "8653": {
    "postcode": "0538653",
    "prefecture": "北海道",
    "prefecture_kana": "ホッカイドウ",
    "prefecture_code": 1,
    "city": "苫小牧市",
    "city_kana": "トマコマイシ",
    "town": "若草町",
    "town_kana": "ワカクサチョウ",
    "street": "５丁目５番３号（苫小牧郵便局私書箱第１１号）",
    "office_name": "ホクレン農業協同組合連合会　苫小牧支所",
    "office_name_kana": "ホクレンノウギヨウキヨウドウクミアイレンゴウカイ トマコマイシシヨ"
  },
  "8654": {
    "postcode": "0538654",
    "prefecture": "北海道",
    "prefecture_kana": "ホッカイドウ",
    "prefecture_code": 1,
    "city": "苫小牧市",
    "city_kana": "トマコマイシ",
    "town": "表町",
    "town_kana": "オモテマチ",
    "street": "３丁目１番６号（苫小牧郵便局私書箱第２０号）",
    "office_name": "苫小牧信用金庫",
    "office_name_kana": "トマコマイシンヨウキンコ"
  },
  "8666": {
    "postcode": "0538666",
    "prefecture": "北海道",
    "prefecture_kana": "ホッカイドウ",
    "prefecture_code": 1,
    "city": "苫小牧市",
    "city_kana": "トマコマイシ",
    "town": "錦町",
    "town_kana": "ニシキマチ",
    "street": "１丁目１番１号日本生命苫小牧ビル６Ｆ（苫小牧郵便局私書箱第８号）",
    "office_name": "日本生命保険　相互会社　苫小牧支社",
    "office_name_kana": "ニホンセイメイホケン ソウゴガイシヤ トマコマイシシヤ"
  },
  "8711": {
    "postcode": "0538711",
    "prefecture": "北海道",
    "prefecture_kana": "ホッカイドウ",
    "prefecture_code": 1,
    "city": "苫小牧市",
    "city_kana": "トマコマイシ",
    "town": "王子町",
    "town_kana": "オウジマチ",
    "street": "２丁目１番１号（苫小牧郵便局私書箱第１号）",
    "office_name": "王子製紙　株式会社　苫小牧工場",
    "office_name_kana": "オウジセイシ カブシキガイシヤ トマコマイコウジヨウ"
  },
  "8722": {
    "postcode": "0538722",
    "prefecture": "北海道",
    "prefecture_kana": "ホッカイドウ",
    "prefecture_code": 1,
    "city": "苫小牧市",
    "city_kana": "トマコマイシ",
    "town": "旭町",
    "town_kana": "アサヒマチ",
    "street": "４丁目５番６号（苫小牧郵便局私書箱第９号）",
    "office_name": "苫小牧市役所",
    "office_name_kana": "トマコマイシヤクシヨ"
  }
}