{
  "0000": {
    "postcode": "0590000",
    "prefecture": "北海道",
    "prefecture_kana": "ホッカイドウ",
    "prefecture_code": 1,
    "city": "登別市",
    "city_kana": "ノボリベツシ",
    "town": "",
    "town_kana": "",
    "street": null,
    "office_name": null,
    "office_name_kana": null
  },
  "0001": {
    "postcode": "0590001",
    "prefecture": "北海道",
    "prefecture_kana": "ホッカイドウ",
    "prefecture_code": 1,
    "city": "登別市",
    "city_kana": "ノボリベツシ",
    "town": "新栄町",
    "town_kana": "シンエイチョウ",
    "street": null,
    "office_name": null,
    "office_name_kana": null
  },
  "0002": {
    "postcode": "0590002",
    "prefecture": "北海道",
    "prefecture_kana": "ホッカイドウ",
    "prefecture_code": 1,
    "city": "登別市",
    "city_kana": "ノボリベツシ",
    "town": "幸町",
    "town_kana": "サイワイチョウ",
    "street": null,
    "office_name": null,
    "office_name_kana": null
  },
  "0003": {
    "postcode": "0590003",
    "prefecture": "北海道",
    "prefecture_kana": "ホッカイドウ",
    "prefecture_code": 1,
    "city": "登別市",
    "city_kana": "ノボリベツシ",
    "town": "千歳町",
    "town_kana": "チトセチョウ",
    "street": null,
    "office_name": null,
    "office_name_kana": null
  },
  "0004": {
    "postcode": "0590004",
    "prefecture": "北海道",
    "prefecture_kana": "ホッカイドウ",
    "prefecture_code": 1,
    "city": "登別市",
    "city_kana": "ノボリベツシ",
    "town": "来馬町",
    "town_kana": "ライバチョウ",
    "street": null,
    "office_name": null,
    "office_name_kana": null
  },
  "0005": {
    "postcode": "0590005",
    "prefecture": "北海道",
    "prefecture_kana": "ホッカイドウ",
    "prefecture_code": 1,
    "city": "登別市",
    "city_kana": "ノボリベツシ",
    "town": "札内町",
    "town_kana": "サツナイチョウ",
    "street": null,
    "office_name": null,
    "office_name_kana": null
  },
  "0011": {
    "postcode": "0590011",
    "prefecture": "北海道",
    "prefecture_kana": "ホッカイドウ",
    "prefecture_code": 1,
    "city": "登別市",
    "city_kana": "ノボリベツシ",
    "town": "常盤町",
    "town_kana": "トキワチョウ",
    "street": null,
    "office_name": null,
    "office_name_kana": null
  },
  "0012": {
    "postcode": "0590012",
    "prefecture": "北海道",
    "prefecture_kana": "ホッカイドウ",
    "prefecture_code": 1,
    "city": "登別市",
    "city_kana": "ノボリベツシ",
    "town": "中央町",
    "town_kana": "チュウオウチョウ",
    "street": null,
    "office_name": null,
    "office_name_kana": null
  },
  "0013": {
    "postcode": "0590013",
    "prefecture": "北海道",
    "prefecture_kana": "ホッカイドウ",
    "prefecture_code": 1,
    "city": "登別市",
    "city_kana": "ノボリベツシ",
    "town": "幌別町",
    "town_kana": "ホロベツチョウ",
    "street": null,
    "office_name": null,
    "office_name_kana": null
  },
  "0014": {
    "postcode": "0590014",
    "prefecture": "北海道",
    "prefecture_kana": "ホッカイドウ",
    "prefecture_code": 1,
    "city": "登別市",
    "city_kana": "ノボリベツシ",
    "town": "富士町",
    "town_kana": "フジチョウ",
    "street": null,
    "office_name": null,
    "office_name_kana": null
  },
  "0015": {
    "postcode": "0590015",
    "prefecture": "北海道",
    "prefecture_kana": "ホッカイドウ",
    "prefecture_code": 1,
    "city": "登別市",
    "city_kana": "ノボリベツシ",
    "town": "新川町",
    "town_kana": "シンカワチョウ",
    "street": null,
    "office_name": null,
    "office_name_kana": null
  },
  "0016": {
    "postcode": "0590016",
    "prefecture": "北海道",
    "prefecture_kana": "ホッカイドウ",
    "prefecture_code": 1,
    "city": "登別市",
    "city_kana": "ノボリベツシ",
    "town": "片倉町",
    "town_kana": "カタクラチョウ",
    "street": null,
    "office_name": null,
    "office_name_kana": null
  },
  "0017": {
    "postcode": "0590017",
    "prefecture": "北海道",
    "prefecture_kana": "ホッカイドウ",
    "prefecture_code": 1,
    "city": "登別市",
    "city_kana": "ノボリベツシ",
    "town": "柏木町",
    "town_kana": "カシワギチョウ",
    "street": null,
    "office_name": null,
    "office_name_kana": null
  },
  "0021": {
    "postcode": "0590021",
    "prefecture": "北海道",
    "prefecture_kana": "ホッカイドウ",
    "prefecture_code": 1,
    "city": "登別市",
    "city_kana": "ノボリベツシ",
    "town": "鉱山町",
    "town_kana": "コウザンチョウ",
    "street": null,
    "office_name": null,
    "office_name_kana": null
  },
  "0022": {
    "postcode": "0590022",
    "prefecture": "北海道",
    "prefecture_kana": "ホッカイドウ",
    "prefecture_code": 1,
    "city": "登別市",
    "city_kana": "ノボリベツシ",
    "town": "川上町",
    "town_kana": "カワカミチョウ",
    "street": null,
    "office_name": null,
    "office_name_kana": null
  },
  "0023": {
    "postcode": "0590023",
    "prefecture": "北海道",
    "prefecture_kana": "ホッカイドウ",
    "prefecture_code": 1,
    "city": "登別市",
    "city_kana": "ノボリベツシ",
    "town": "桜木町",
    "town_kana": "サクラギチョウ",
    "street": null,
    "office_name": null,
    "office_name_kana": null
  },
  "0024": {
    "postcode": "0590024",
    "prefecture": "北海道",
    "prefecture_kana": "ホッカイドウ",
    "prefecture_code": 1,
    "city": "登別市",
    "city_kana": "ノボリベツシ",
    "town": "緑町",
    "town_kana": "ミドリチョウ",
    "street": null,
    "office_name": null,
    "office_name_kana": null
  },
  "0025": {
    "postcode": "0590025",
    "prefecture": "北海道",
    "prefecture_kana": "ホッカイドウ",
    "prefecture_code": 1,
    "city": "登別市",
    "city_kana": "ノボリベツシ",
    "town": "大和町",
    "town_kana": "ヤマトチョウ",
    "street": null,
    "office_name": null,
    "office_name_kana": null
  },
  "0026": {
    "postcode": "0590026",
    "prefecture": "北海道",
    "prefecture_kana": "ホッカイドウ",
    "prefecture_code": 1,
    "city": "登別市",
    "city_kana": "ノボリベツシ",
    "town": "若山町",
    "town_kana": "ワカヤマチョウ",
    "street": null,
    "office_name": null,
    "office_name_kana": null
  },
  "0027": {
    "postcode": "0590027",
    "prefecture": "北海道",
    "prefecture_kana": "ホッカイドウ",
    "prefecture_code": 1,
    "city": "登別市",
    "city_kana": "ノボリベツシ",
    "town": "青葉町",
    "town_kana": "アオバチョウ",
    "street": null,
    "office_name": null,
    "office_name_kana": null
  },
  "0028": {
    "postcode": "0590028",
    "prefecture": "北海道",
    "prefecture_kana": "ホッカイドウ",
    "prefecture_code": 1,
    "city": "登別市",
    "city_kana": "ノボリベツシ",
    "town": "富岸町",
    "town_kana": "トンケシチョウ",
    "street": null,
    "office_name": null,
    "office_name_kana": null
  },
  "0031": {
    "postcode": "0590031",
    "prefecture": "北海道",
    "prefecture_kana": "ホッカイドウ",
    "prefecture_code": 1,
    "city": "登別市",
    "city_kana": "ノボリベツシ",
    "town": "上鷲別町",
    "town_kana": "カミワシベツチョウ",
    "street": null,
    "office_name": null,
    "office_name_kana": null
  },
  "0032": {
    "postcode": "0590032",
    "prefecture": "北海道",
    "prefecture_kana": "ホッカイドウ",
    "prefecture_code": 1,
    "city": "登別市",
    "city_kana": "ノボリベツシ",
    "town": "新生町",
    "town_kana": "シンセイチョウ",
    "street": null,
    "office_name": null,
    "office_name_kana": null
  },
  "0033": {
    "postcode": "0590033",
    "prefecture": "北海道",
    "prefecture_kana": "ホッカイドウ",
    "prefecture_code": 1,
    "city": "登別市",
    "city_kana": "ノボリベツシ",
    "town": "栄町",
    "town_kana": "サカエチョウ",
    "street": null,
    "office_name": null,
    "office_name_kana": null
  },
  "0034": {
    "postcode": "0590034",
    "prefecture": "北海道",
    "prefecture_kana": "ホッカイドウ",
    "prefecture_code": 1,
    "city": "登別市",
    "city_kana": "ノボリベツシ",
    "town": "鷲別町",
    "town_kana": "ワシベツチョウ",
    "street": null,
    "office_name": null,
    "office_name_kana": null
  },
  "0035": {
    "postcode": "0590035",
    "prefecture": "北海道",
    "prefecture_kana": "ホッカイドウ",
    "prefecture_code": 1,
    "city": "登別市",
    "city_kana": "ノボリベツシ",
    "town": "若草町",
    "town_kana": "ワカクサチョウ",
    "street": null,
    "office_name": null,
    "office_name_kana": null
  },
  "0036": {
    "postcode": "0590036",
    "prefecture": "北海道",
    "prefecture_kana": "ホッカイドウ",
    "prefecture_code": 1,
    "city": "登別市",
    "city_kana": "ノボリベツシ",
    "town": "美園町",
    "town_kana": "ミソノチョウ",
    "street": null,
    "office_name": null,
    "office_name_kana": null
  },
  "0151": {
    "postcode": "0590151",
    "prefecture": "北海道",
    "prefecture_kana": "ホッカイドウ",
    "prefecture_code": 1,
    "city": "伊達市",
    "city_kana": "ダテシ",
    "town": "有珠町",
    "town_kana": "ウスチョウ",
    "street": null,
    "office_name": null,
    "office_name_kana": null
  },
  "0152": {
    "postcode": "0590152",
    "prefecture": "北海道",
    "prefecture_kana": "ホッカイドウ",
    "prefecture_code": 1,
    "city": "伊達市",
    "city_kana": "ダテシ",
    "town": "北有珠町",
    "town_kana": "キタウスチョウ",
    "street": null,
    "office_name": null,
    "office_name_kana": null
  },
  "0153": {
    "postcode": "0590153",
    "prefecture": "北海道",
    "prefecture_kana": "ホッカイドウ",
    "prefecture_code": 1,
    "city": "伊達市",
    "city_kana": "ダテシ",
    "town": "大平町",
    "town_kana": "オオダイラチョウ",
    "street": null,
    "office_name": null,
    "office_name_kana": null
  },
  "0154": {
    "postcode": "0590154",
    "prefecture": "北海道",
    "prefecture_kana": "ホッカイドウ",
    "prefecture_code": 1,
    "city": "伊達市",
    "city_kana": "ダテシ",
    "town": "東有珠町",
    "town_kana": "ヒガシウスチョウ",
    "street": null,
    "office_name": null,
    "office_name_kana": null
  },
  "0155": {
    "postcode": "0590155",
    "prefecture": "北海道",
    "prefecture_kana": "ホッカイドウ",
    "prefecture_code": 1,
    "city": "伊達市",
    "city_kana": "ダテシ",
    "town": "若生町",
    "town_kana": "ワッカオイチョウ",
    "street": null,
    "office_name": null,
    "office_name_kana": null
  },
  "0156": {
    "postcode": "0590156",
    "prefecture": "北海道",
    "prefecture_kana": "ホッカイドウ",
    "prefecture_code": 1,
    "city": "伊達市",
    "city_kana": "ダテシ",
    "town": "南有珠町",
    "town_kana": "ミナミウスチョウ",
    "street": null,
    "office_name": null,
    "office_name_kana": null
  },
  "0157": {
    "postcode": "0590157",
    "prefecture": "北海道",
    "prefecture_kana": "ホッカイドウ",
    "prefecture_code": 1,
    "city": "伊達市",
    "city_kana": "ダテシ",
    "town": "向有珠町",
    "town_kana": "ムカイウスチョウ",
    "street": null,
    "office_name": null,
    "office_name_kana": null
  },
  "0271": {
    "postcode": "0590271",
    "prefecture": "北海道",
    "prefecture_kana": "ホッカイドウ",
    "prefecture_code": 1,
    "city": "伊達市",
    "city_kana": "ダテシ",
    "town": "南黄金町",
    "town_kana": "ミナミコガネチョウ",
    "street": null,
    "office_name": null,
    "office_name_kana": null
  },
  "0272": {
    "postcode": "0590272",
    "prefecture": "北海道",
    "prefecture_kana": "ホッカイドウ",
    "prefecture_code": 1,
    "city": "伊達市",
    "city_kana": "ダテシ",
    "town": "北黄金町",
    "town_kana": "キタコガネチョウ",
    "street": null,
    "office_name": null,
    "office_name_kana": null
  },
  "0273": {
    "postcode": "0590273",
    "prefecture": "北海道",
    "prefecture_kana": "ホッカイドウ",
    "prefecture_code": 1,
    "city": "伊達市",
    "city_kana": "ダテシ",
    "town": "南稀府町",
    "town_kana": "ミナミマレフチョウ",
    "street": null,
    "office_name": null,
    "office_name_kana": null
  },
  "0274": {
    "postcode": "0590274",
    "prefecture": "北海道",
    "prefecture_kana": "ホッカイドウ",
    "prefecture_code": 1,
    "city": "伊達市",
    "city_kana": "ダテシ",
    "town": "中稀府町",
    "town_kana": "ナカマレフチョウ",
    "street": null,
    "office_name": null,
    "office_name_kana": null
  },
  "0275": {
    "postcode": "0590275",
    "prefecture": "北海道",
    "prefecture_kana": "ホッカイドウ",
    "prefecture_code": 1,
    "city": "伊達市",
    "city_kana": "ダテシ",
    "town": "北稀府町",
    "town_kana": "キタマレフチョウ",
    "street": null,
    "office_name": null,
    "office_name_kana": null
  },
  "0461": {
    "postcode": "0590461",
    "prefecture": "北海道",
    "prefecture_kana": "ホッカイドウ",
    "prefecture_code": 1,
    "city": "登別市",
    "city_kana": "ノボリベツシ",
    "town": "札内町",
    "town_kana": "サツナイチョウ",
    "street": null,
    "office_name": null,
    "office_name_kana": null
  },
  "0462": {
    "postcode": "0590462",
    "prefecture": "北海道",
    "prefecture_kana": "ホッカイドウ",
    "prefecture_code": 1,
    "city": "登別市",
    "city_kana": "ノボリベツシ",
    "town": "富浦町",
    "town_kana": "トミウラチョウ",
    "street": null,
    "office_name": null,
    "office_name_kana": null
  },
  "0463": {
    "postcode": "0590463",
    "prefecture": "北海道",
    "prefecture_kana": "ホッカイドウ",
    "prefecture_code": 1,
    "city": "登別市",
    "city_kana": "ノボリベツシ",
    "town": "中登別町",
    "town_kana": "ナカノボリベツチョウ",
    "street": null,
    "office_name": null,
    "office_name_kana": null
  },
  "0464": {
    "postcode": "0590464",
    "prefecture": "北海道",
    "prefecture_kana": "ホッカイドウ",
    "prefecture_code": 1,
    "city": "登別市",
    "city_kana": "ノボリベツシ",
    "town": "登別東町",
    "town_kana": "ノボリベツヒガシチョウ",
    "street": null,
    "office_name": null,
    "office_name_kana": null
  },
  "0465": {
    "postcode": "0590465",
    "prefecture": "北海道",
    "prefecture_kana": "ホッカイドウ",
    "prefecture_code": 1,
    "city": "登別市",
    "city_kana": "ノボリベツシ",
    "town": "登別本町",
    "town_kana": "ノボリベツホンチョウ",
    "street": null,
    "office_name": null,
    "office_name_kana": null
  },
  "0466": {
    "postcode": "0590466",
    "prefecture": "北海道",
    "prefecture_kana": "ホッカイドウ",
    "prefecture_code": 1,
    "city": "登別市",
    "city_kana": "ノボリベツシ",
    "town": "登別港町",
    "town_kana": "ノボリベツミナトチョウ",
    "street": null,
    "office_name": null,
    "office_name_kana": null
  },
  "0492": {
    "postcode": "0590492",
    "prefecture": "北海道",
    "prefecture_kana": "ホッカイドウ",
    "prefecture_code": 1,
    "city": "登別市",
    "city_kana": "ノボリベツシ",
    "town": "登別東町",
    "town_kana": "ノボリベツヒガシチョウ",
    "street": "１丁目２２番地",
    "office_name": "株式会社　北海道マリンパーク",
    "office_name_kana": "カブシキガイシヤ ホツカイドウマリンパ-ク"
  },
  "0493": {
    "postcode": "0590493",
    "prefecture": "北海道",
    "prefecture_kana": "ホッカイドウ",
    "prefecture_code": 1,
    "city": "登別市",
    "city_kana": "ノボリベツシ",
    "town": "中登別町",
    "town_kana": "ナカノボリベツチョウ",
    "street": "２４番地",
    "office_name": "医療法人社団　千寿会　三愛病院",
    "office_name_kana": "イリヨウホウジンシヤダン センジユカイ サンアイビヨウイン"
  },
  "0496": {
    "postcode": "0590496",
    "prefecture": "北海道",
    "prefecture_kana": "ホッカイドウ",
    "prefecture_code": 1,
    "city": "登別市",
    "city_kana": "ノボリベツシ",
    "town": "富浦町",
    "town_kana": "トミウラチョウ",
    "street": "１丁目４１番地１",
    "office_name": "マルヒラ　渡辺水産　株式会社",
    "office_name_kana": "マルヒラ ワタナベスイサン カブシキガイシヤ"
  },
  "0551": {
    "postcode": "0590551",
    "prefecture": "北海道",
    "prefecture_kana": "ホッカイドウ",
    "prefecture_code": 1,
    "city": "登別市",
    "city_kana": "ノボリベツシ",
    "town": "登別温泉町",
    "town_kana": "ノボリベツオンセンチョウ",
    "street": null,
    "office_name": null,
    "office_name_kana": null
  },
  "0552": {
    "postcode": "0590552",
    "prefecture": "北海道",
    "prefecture_kana": "ホッカイドウ",
    "prefecture_code": 1,
    "city": "登別市",
    "city_kana": "ノボリベツシ",
    "town": "上登別町",
    "town_kana": "カミノボリベツチョウ",
    "street": null,
    "office_name": null,
    "office_name_kana": null
  },
  "0553": {
    "postcode": "0590553",
    "prefecture": "北海道",
    "prefecture_kana": "ホッカイドウ",
    "prefecture_code": 1,
    "city": "登別市",
    "city_kana": "ノボリベツシ",
    "town": "カルルス町",
    "town_kana": "カルルスチョウ",
    "street": null,
    "office_name": null,
    "office_name_kana": null
  },
  "0592": {
    "postcode": "0590592",
    "prefecture": "北海道",
    "prefecture_kana": "ホッカイドウ",
    "prefecture_code": 1,
    "city": "登別市",
    "city_kana": "ノボリベツシ",
    "town": "登別温泉町",
    "town_kana": "ノボリベツオンセンチョウ",
    "street": "１５４",
    "office_name": "株式会社　登別グランドホテル",
    "office_name_kana": "カブシキガイシヤ ノボリベツグランドホテル"
  },
  "0595": {
    "postcode": "0590595",
    "prefecture": "北海道",
    "prefecture_kana": "ホッカイドウ",
    "prefecture_code": 1,
    "city": "登別市",
    "city_kana": "ノボリベツシ",
    "town": "登別温泉町",
    "town_kana": "ノボリベツオンセンチョウ",
    "street": "５５",
    "office_name": "株式会社　第一滝本館",
    "office_name_kana": "カブシキガイシヤ ダイイチタキモトカン"
  },
  "0596": {
    "postcode": "0590596",
    "prefecture": "北海道",
    "prefecture_kana": "ホッカイドウ",
    "prefecture_code": 1,
    "city": "登別市",
    "city_kana": "ノボリベツシ",
    "town": "登別温泉町",
    "town_kana": "ノボリベツオンセンチョウ",
    "street": "２０３−１",
    "office_name": "登別プリンスホテル　石水亭",
    "office_name_kana": "ノボリベツプリンスホテル セキスイテイ"
  },
  "0598": {
    "postcode": "0590598",
    "prefecture": "北海道",
    "prefecture_kana": "ホッカイドウ",
    "prefecture_code": 1,
    "city": "登別市",
    "city_kana": "ノボリベツシ",
    "town": "登別東町",
    "town_kana": "ノボリベツヒガシチョウ",
    "street": "３丁目１０番２２",
    "office_name": "独立行政法人　地域医療機能推進機構　登別病院",
    "office_name_kana": "ドクリツギヨウセイホウジン チイキイリヨウキノウスイシンキコウ ノボリベツビヨウイン"
  },
  "0641": {
    "postcode": "0590641",
    "prefecture": "北海道",
    "prefecture_kana": "ホッカイドウ",
    "prefecture_code": 1,
    "city": "白老郡白老町",
    "city_kana": "シラオイグンシラオイチョウ",
    "town": "虎杖浜",
    "town_kana": "コジョウハマ",
    "street": null,
    "office_name": null,
    "office_name_kana": null
  },
  "0642": {
    "postcode": "0590642",
    "prefecture": "北海道",
    "prefecture_kana": "ホッカイドウ",
    "prefecture_code": 1,
    "city": "白老郡白老町",
    "city_kana": "シラオイグンシラオイチョウ",
    "town": "竹浦",
    "town_kana": "タケウラ",
    "street": null,
    "office_name": null,
    "office_name_kana": null
  },
  "0900": {
    "postcode": "0590900",
    "prefecture": "北海道",
    "prefecture_kana": "ホッカイドウ",
    "prefecture_code": 1,
    "city": "白老郡白老町",
    "city_kana": "シラオイグンシラオイチョウ",
    "town": "",
    "town_kana": "",
    "street": null,
    "office_name": null,
    "office_name_kana": null
  },
  "0901": {
    "postcode": "0590901",
    "prefecture": "北海道",
    "prefecture_kana": "ホッカイドウ",
    "prefecture_code": 1,
    "city": "白老郡白老町",
    "city_kana": "シラオイグンシラオイチョウ",
    "town": "社台",
    "town_kana": "シャダイ",
    "street": null,
    "office_name": null,
    "office_name_kana": null
  },
  "0902": {
    "postcode": "0590902",
    "prefecture": "北海道",
    "prefecture_kana": "ホッカイドウ",
    "prefecture_code": 1,
    "city": "白老郡白老町",
    "city_kana": "シラオイグンシラオイチョウ",
    "town": "若草町",
    "town_kana": "ワカクサチョウ",
    "street": null,
    "office_name": null,
    "office_name_kana": null
  },
  "0903": {
    "postcode": "0590903",
    "prefecture": "北海道",
    "prefecture_kana": "ホッカイドウ",
    "prefecture_code": 1,
    "city": "白老郡白老町",
    "city_kana": "シラオイグンシラオイチョウ",
    "town": "日の出町",
    "town_kana": "ヒノデチョウ",
    "street": null,
    "office_name": null,
    "office_name_kana": null
  },
  "0904": {
    "postcode": "0590904",
    "prefecture": "北海道",
    "prefecture_kana": "ホッカイドウ",
    "prefecture_code": 1,
    "city": "白老郡白老町",
    "city_kana": "シラオイグンシラオイチョウ",
    "town": "東町",
    "town_kana": "ヒガシマチ",
    "street": null,
    "office_name": null,
    "office_name_kana": null
  },
  "0905": {
    "postcode": "0590905",
    "prefecture": "北海道",
    "prefecture_kana": "ホッカイドウ",
    "prefecture_code": 1,
    "city": "白老郡白老町",
    "city_kana": "シラオイグンシラオイチョウ",
    "town": "大町",
    "town_kana": "オオマチ",
    "street": null,
    "office_name": null,
    "office_name_kana": null
  },
  "0906": {
    "postcode": "0590906",
    "prefecture": "北海道",
    "prefecture_kana": "ホッカイドウ",
    "prefecture_code": 1,
    "city": "白老郡白老町",
    "city_kana": "シラオイグンシラオイチョウ",
    "town": "本町",
    "town_kana": "ホンチョウ",
    "street": null,
    "office_name": null,
    "office_name_kana": null
  },
  "0907": {
    "postcode": "0590907",
    "prefecture": "北海道",
    "prefecture_kana": "ホッカイドウ",
    "prefecture_code": 1,
    "city": "白老郡白老町",
    "city_kana": "シラオイグンシラオイチョウ",
    "town": "末広町",
    "town_kana": "スエヒロチョウ",
    "street": null,
    "office_name": null,
    "office_name_kana": null
  },
  "0908": {
    "postcode": "0590908",
    "prefecture": "北海道",
    "prefecture_kana": "ホッカイドウ",
    "prefecture_code": 1,
    "city": "白老郡白老町",
    "city_kana": "シラオイグンシラオイチョウ",
    "town": "緑丘",
    "town_kana": "ミドリガオカ",
    "street": null,
    "office_name": null,
    "office_name_kana": null
  },
  "0911": {
    "postcode": "0590911",
    "prefecture": "北海道",
    "prefecture_kana": "ホッカイドウ",
    "prefecture_code": 1,
    "city": "白老郡白老町",
    "city_kana": "シラオイグンシラオイチョウ",
    "town": "森野",
    "town_kana": "モリノ",
    "street": null,
    "office_name": null,
    "office_name_kana": null
  },
  "0912": {
    "postcode": "0590912",
    "prefecture": "北海道",
    "prefecture_kana": "ホッカイドウ",
    "prefecture_code": 1,
    "city": "白老郡白老町",
    "city_kana": "シラオイグンシラオイチョウ",
    "town": "陣屋町",
    "town_kana": "ジンヤマチ",
    "street": null,
    "office_name": null,
    "office_name_kana": null
  },
  "0913": {
    "postcode": "0590913",
    "prefecture": "北海道",
    "prefecture_kana": "ホッカイドウ",
    "prefecture_code": 1,
    "city": "白老郡白老町",
    "city_kana": "シラオイグンシラオイチョウ",
    "town": "緑町",
    "town_kana": "ミドリマチ",
    "street": null,
    "office_name": null,
    "office_name_kana": null
  },
  "0914": {
    "postcode": "0590914",
    "prefecture": "北海道",
    "prefecture_kana": "ホッカイドウ",
    "prefecture_code": 1,
    "city": "白老郡白老町",
    "city_kana": "シラオイグンシラオイチョウ",
    "town": "栄町",
    "town_kana": "サカエマチ",
    "street": null,
    "office_name": null,
    "office_name_kana": null
  },
  "0915": {
    "postcode": "0590915",
    "prefecture": "北海道",
    "prefecture_kana": "ホッカイドウ",
    "prefecture_code": 1,
    "city": "白老郡白老町",
    "city_kana": "シラオイグンシラオイチョウ",
    "town": "川沿",
    "town_kana": "カワゾエ",
    "street": null,
    "office_name": null,
    "office_name_kana": null
  },
  "0916": {
    "postcode": "0590916",
    "prefecture": "北海道",
    "prefecture_kana": "ホッカイドウ",
    "prefecture_code": 1,
    "city": "白老郡白老町",
    "city_kana": "シラオイグンシラオイチョウ",
    "town": "高砂町",
    "town_kana": "タカサゴチョウ",
    "street": null,
    "office_name": null,
    "office_name_kana": null
  },
  "0921": {
    "postcode": "0590921",
    "prefecture": "北海道",
    "prefecture_kana": "ホッカイドウ",
    "prefecture_code": 1,
    "city": "白老郡白老町",
    "city_kana": "シラオイグンシラオイチョウ",
    "town": "石山",
    "town_kana": "イシヤマ",
    "street": null,
    "office_name": null,
    "office_name_kana": null
  },
  "0922": {
    "postcode": "0590922",
    "prefecture": "北海道",
    "prefecture_kana": "ホッカイドウ",
    "prefecture_code": 1,
    "city": "白老郡白老町",
    "city_kana": "シラオイグンシラオイチョウ",
    "town": "萩野",
    "town_kana": "ハギノ",
    "street": null,
    "office_name": null,
    "office_name_kana": null
  },
  "0923": {
    "postcode": "0590923",
    "prefecture": "北海道",
    "prefecture_kana": "ホッカイドウ",
    "prefecture_code": 1,
    "city": "白老郡白老町",
    "city_kana": "シラオイグンシラオイチョウ",
    "town": "北吉原",
    "town_kana": "キタヨシハラ",
    "street": null,
    "office_name": null,
    "office_name_kana": null
  },
  "0993": {
    "postcode": "0590993",
    "prefecture": "北海道",
    "prefecture_kana": "ホッカイドウ",
    "prefecture_code": 1,
    "city": "白老郡白老町",
    "city_kana": "シラオイグンシラオイチョウ",
    "town": "字北吉原",
    "town_kana": null,
    "street": "１８１番地",
    "office_name": "日本製紙　株式会社　白老工場",
    "office_name_kana": "ニツポンセイシ カブシキガイシヤ シラオイコウジヨウ"
  },
  "0995": {
    "postcode": "0590995",
    "prefecture": "北海道",
    "prefecture_kana": "ホッカイドウ",
    "prefecture_code": 1,
    "city": "白老郡白老町",
    "city_kana": "シラオイグンシラオイチョウ",
    "town": "大町",
    "town_kana": "オオマチ",
    "street": "１丁目１−１",
    "office_name": "白老町役場",
    "office_name_kana": "シラオイチヨウヤクバ"
  },
  "0997": {
    "postcode": "0590997",
    "prefecture": "北海道",
    "prefecture_kana": "ホッカイドウ",
    "prefecture_code": 1,
    "city": "白老郡白老町",
    "city_kana": "シラオイグンシラオイチョウ",
    "town": "字石山",
    "town_kana": null,
    "street": "２０番地の２４",
    "office_name": "白老町消防本部",
    "office_name_kana": "シラオイチヨウシヨウボウホンブ"
  },
  "0998": {
    "postcode": "0590998",
    "prefecture": "北海道",
    "prefecture_kana": "ホッカイドウ",
    "prefecture_code": 1,
    "city": "白老郡白老町",
    "city_kana": "シラオイグンシラオイチョウ",
    "town": "緑丘",
    "town_kana": "ミドリガオカ",
    "street": "４丁目６７６",
    "office_name": "北海道栄高等学校",
    "office_name_kana": "ホツカイドウサカエコウトウガツコウ"
  },
  "1261": {
    "postcode": "0591261",
    "prefecture": "北海道",
    "prefecture_kana": "ホッカイドウ",
    "prefecture_code": 1,
    "city": "苫小牧市",
    "city_kana": "トマコマイシ",
    "town": "ときわ町",
    "town_kana": "トキワチョウ",
    "street": null,
    "office_name": null,
    "office_name_kana": null
  },
  "1262": {
    "postcode": "0591262",
    "prefecture": "北海道",
    "prefecture_kana": "ホッカイドウ",
    "prefecture_code": 1,
    "city": "苫小牧市",
    "city_kana": "トマコマイシ",
    "town": "美原町",
    "town_kana": "ミハラマチ",
    "street": null,
    "office_name": null,
    "office_name_kana": null
  },
  "1263": {
    "postcode": "0591263",
    "prefecture": "北海道",
    "prefecture_kana": "ホッカイドウ",
    "prefecture_code": 1,
    "city": "苫小牧市",
    "city_kana": "トマコマイシ",
    "town": "青雲町",
    "town_kana": "セイウンチョウ",
    "street": null,
    "office_name": null,
    "office_name_kana": null
  },
  "1264": {
    "postcode": "0591264",
    "prefecture": "北海道",
    "prefecture_kana": "ホッカイドウ",
    "prefecture_code": 1,
    "city": "苫小牧市",
    "city_kana": "トマコマイシ",
    "town": "宮前町",
    "town_kana": "ミヤマエチョウ",
    "street": null,
    "office_name": null,
    "office_name_kana": null
  },
  "1265": {
    "postcode": "0591265",
    "prefecture": "北海道",
    "prefecture_kana": "ホッカイドウ",
    "prefecture_code": 1,
    "city": "苫小牧市",
    "city_kana": "トマコマイシ",
    "town": "樽前",
    "town_kana": "タルマエ",
    "street": null,
    "office_name": null,
    "office_name_kana": null
  },
  "1266": {
    "postcode": "0591266",
    "prefecture": "北海道",
    "prefecture_kana": "ホッカイドウ",
    "prefecture_code": 1,
    "city": "苫小牧市",
    "city_kana": "トマコマイシ",
    "town": "錦西町",
    "town_kana": "キンセイチョウ",
    "street": null,
    "office_name": null,
    "office_name_kana": null
  },
  "1271": {
    "postcode": "0591271",
    "prefecture": "北海道",
    "prefecture_kana": "ホッカイドウ",
    "prefecture_code": 1,
    "city": "苫小牧市",
    "city_kana": "トマコマイシ",
    "town": "澄川町",
    "town_kana": "スミカワチョウ",
    "street": null,
    "office_name": null,
    "office_name_kana": null
  },
  "1272": {
    "postcode": "0591272",
    "prefecture": "北海道",
    "prefecture_kana": "ホッカイドウ",
    "prefecture_code": 1,
    "city": "苫小牧市",
    "city_kana": "トマコマイシ",
    "town": "のぞみ町",
    "town_kana": "ノゾミチョウ",
    "street": null,
    "office_name": null,
    "office_name_kana": null
  },
  "1273": {
    "postcode": "0591273",
    "prefecture": "北海道",
    "prefecture_kana": "ホッカイドウ",
    "prefecture_code": 1,
    "city": "苫小牧市",
    "city_kana": "トマコマイシ",
    "town": "明徳町",
    "town_kana": "メイトクチョウ",
    "street": null,
    "office_name": null,
    "office_name_kana": null
  },
  "1274": {
    "postcode": "0591274",
    "prefecture": "北海道",
    "prefecture_kana": "ホッカイドウ",
    "prefecture_code": 1,
    "city": "苫小牧市",
    "city_kana": "トマコマイシ",
    "town": "もえぎ町",
    "town_kana": "モエギチョウ",
    "street": null,
    "office_name": null,
    "office_name_kana": null
  },
  "1275": {
    "postcode": "0591275",
    "prefecture": "北海道",
    "prefecture_kana": "ホッカイドウ",
    "prefecture_code": 1,
    "city": "苫小牧市",
    "city_kana": "トマコマイシ",
    "town": "錦岡",
    "town_kana": "ニシキオカ",
    "street": null,
    "office_name": null,
    "office_name_kana": null
  },
  "1276": {
    "postcode": "0591276",
    "prefecture": "北海道",
    "prefecture_kana": "ホッカイドウ",
    "prefecture_code": 1,
    "city": "苫小牧市",
    "city_kana": "トマコマイシ",
    "town": "はまなす町",
    "town_kana": "ハマナスチョウ",
    "street": null,
    "office_name": null,
    "office_name_kana": null
  },
  "1277": {
    "postcode": "0591277",
    "prefecture": "北海道",
    "prefecture_kana": "ホッカイドウ",
    "prefecture_code": 1,
    "city": "苫小牧市",
    "city_kana": "トマコマイシ",
    "town": "北星町",
    "town_kana": "ホクセイチョウ",
    "street": null,
    "office_name": null,
    "office_name_kana": null
  },
  "1292": {
    "postcode": "0591292",
    "prefecture": "北海道",
    "prefecture_kana": "ホッカイドウ",
    "prefecture_code": 1,
    "city": "苫小牧市",
    "city_kana": "トマコマイシ",
    "town": "字錦岡",
    "town_kana": null,
    "street": "５２１−２９３",
    "office_name": "苫小牧駒澤大学",
    "office_name_kana": "トマコマイコマザワダイガク"
  },
  "1301": {
    "postcode": "0591301",
    "prefecture": "北海道",
    "prefecture_kana": "ホッカイドウ",
    "prefecture_code": 1,
    "city": "苫小牧市",
    "city_kana": "トマコマイシ",
    "town": "東開町",
    "town_kana": "トウカイチョウ",
    "street": null,
    "office_name": null,
    "office_name_kana": null
  },
  "1302": {
    "postcode": "0591302",
    "prefecture": "北海道",
    "prefecture_kana": "ホッカイドウ",
    "prefecture_code": 1,
    "city": "苫小牧市",
    "city_kana": "トマコマイシ",
    "town": "拓勇西町",
    "town_kana": "タクユウニシマチ",
    "street": null,
    "office_name": null,
    "office_name_kana": null
  },
  "1303": {
    "postcode": "0591303",
    "prefecture": "北海道",
    "prefecture_kana": "ホッカイドウ",
    "prefecture_code": 1,
    "city": "苫小牧市",
    "city_kana": "トマコマイシ",
    "town": "拓勇東町",
    "town_kana": "タクユウヒガシマチ",
    "street": null,
    "office_name": null,
    "office_name_kana": null
  },
  "1304": {
    "postcode": "0591304",
    "prefecture": "北海道",
    "prefecture_kana": "ホッカイドウ",
    "prefecture_code": 1,
    "city": "苫小牧市",
    "city_kana": "トマコマイシ",
    "town": "北栄町",
    "town_kana": "ホクエイチョウ",
    "street": null,
    "office_name": null,
    "office_name_kana": null
  },
  "1305": {
    "postcode": "0591305",
    "prefecture": "北海道",
    "prefecture_kana": "ホッカイドウ",
    "prefecture_code": 1,
    "city": "苫小牧市",
    "city_kana": "トマコマイシ",
    "town": "沼ノ端中央",
    "town_kana": "ヌマノハタチュウオウ",
    "street": null,
    "office_name": null,
    "office_name_kana": null
  },
  "1306": {
    "postcode": "0591306",
    "prefecture": "北海道",
    "prefecture_kana": "ホッカイドウ",
    "prefecture_code": 1,
    "city": "苫小牧市",
    "city_kana": "トマコマイシ",
    "town": "ウトナイ北",
    "town_kana": "ウトナイキタ",
    "street": null,
    "office_name": null,
    "office_name_kana": null
  },
  "1307": {
    "postcode": "0591307",
    "prefecture": "北海道",
    "prefecture_kana": "ホッカイドウ",
    "prefecture_code": 1,
    "city": "苫小牧市",
    "city_kana": "トマコマイシ",
    "town": "ウトナイ南",
    "town_kana": "ウトナイミナミ",
    "street": null,
    "office_name": null,
    "office_name_kana": null
  },
  "1361": {
    "postcode": "0591361",
    "prefecture": "北海道",
    "prefecture_kana": "ホッカイドウ",
    "prefecture_code": 1,
    "city": "苫小牧市",
    "city_kana": "トマコマイシ",
    "town": "美沢",
    "town_kana": "ミサワ",
    "street": null,
    "office_name": null,
    "office_name_kana": null
  },
  "1362": {
    "postcode": "0591362",
    "prefecture": "北海道",
    "prefecture_kana": "ホッカイドウ",
    "prefecture_code": 1,
    "city": "苫小牧市",
    "city_kana": "トマコマイシ",
    "town": "柏原",
    "town_kana": "カシワハラ",
    "street": null,
    "office_name": null,
    "office_name_kana": null
  },
  "1363": {
    "postcode": "0591363",
    "prefecture": "北海道",
    "prefecture_kana": "ホッカイドウ",
    "prefecture_code": 1,
    "city": "苫小牧市",
    "city_kana": "トマコマイシ",
    "town": "静川",
    "town_kana": "シズカワ",
    "street": null,
    "office_name": null,
    "office_name_kana": null
  },
  "1364": {
    "postcode": "0591364",
    "prefecture": "北海道",
    "prefecture_kana": "ホッカイドウ",
    "prefecture_code": 1,
    "city": "苫小牧市",
    "city_kana": "トマコマイシ",
    "town": "沼ノ端",
    "town_kana": "ヌマノハタ",
    "street": null,
    "office_name": null,
    "office_name_kana": null
  },
  "1365": {
    "postcode": "0591365",
    "prefecture": "北海道",
    "prefecture_kana": "ホッカイドウ",
    "prefecture_code": 1,
    "city": "苫小牧市",
    "city_kana": "トマコマイシ",
    "town": "植苗",
    "town_kana": "ウエナエ",
    "street": null,
    "office_name": null,
    "office_name_kana": null
  },
  "1366": {
    "postcode": "0591366",
    "prefecture": "北海道",
    "prefecture_kana": "ホッカイドウ",
    "prefecture_code": 1,
    "city": "苫小牧市",
    "city_kana": "トマコマイシ",
    "town": "あけぼの町",
    "town_kana": "アケボノチョウ",
    "street": null,
    "office_name": null,
    "office_name_kana": null
  },
  "1371": {
    "postcode": "0591371",
    "prefecture": "北海道",
    "prefecture_kana": "ホッカイドウ",
    "prefecture_code": 1,
    "city": "苫小牧市",
    "city_kana": "トマコマイシ",
    "town": "弁天",
    "town_kana": "ベンテン",
    "street": null,
    "office_name": null,
    "office_name_kana": null
  },
  "1372": {
    "postcode": "0591372",
    "prefecture": "北海道",
    "prefecture_kana": "ホッカイドウ",
    "prefecture_code": 1,
    "city": "苫小牧市",
    "city_kana": "トマコマイシ",
    "town": "勇払",
    "town_kana": "ユウフツ",
    "street": null,
    "office_name": null,
    "office_name_kana": null
  },
  "1373": {
    "postcode": "0591373",
    "prefecture": "北海道",
    "prefecture_kana": "ホッカイドウ",
    "prefecture_code": 1,
    "city": "苫小牧市",
    "city_kana": "トマコマイシ",
    "town": "真砂町",
    "town_kana": "マサゴチョウ",
    "street": null,
    "office_name": null,
    "office_name_kana": null
  },
  "1374": {
    "postcode": "0591374",
    "prefecture": "北海道",
    "prefecture_kana": "ホッカイドウ",
    "prefecture_code": 1,
    "city": "苫小牧市",
    "city_kana": "トマコマイシ",
    "town": "晴海町",
    "town_kana": "ハルミチョウ",
    "street": null,
    "office_name": null,
    "office_name_kana": null
  },
  "1375": {
    "postcode": "0591375",
    "prefecture": "北海道",
    "prefecture_kana": "ホッカイドウ",
    "prefecture_code": 1,
    "city": "苫小牧市",
    "city_kana": "トマコマイシ",
    "town": "一本松町",
    "town_kana": "イッポンマツチョウ",
    "street": null,
    "office_name": null,
    "office_name_kana": null
  },
  "1392": {
    "postcode": "0591392",
    "prefecture": "北海道",
    "prefecture_kana": "ホッカイドウ",
    "prefecture_code": 1,
    "city": "苫小牧市",
    "city_kana": "トマコマイシ",
    "town": "真砂町",
    "town_kana": "マサゴチョウ",
    "street": "２５番地１号",
    "office_name": "出光興産　（株）　北海道製油所",
    "office_name_kana": "イデミツコウサン (カブ) ホツカイドウセイユジヨ"
  },
  "1393": {
    "postcode": "0591393",
    "prefecture": "北海道",
    "prefecture_kana": "ホッカイドウ",
    "prefecture_code": 1,
    "city": "苫小牧市",
    "city_kana": "トマコマイシ",
    "town": "字勇払",
    "town_kana": null,
    "street": "１４５−１",
    "office_name": "トヨタ自動車北海道　株式会社",
    "office_name_kana": "トヨタジドウシヤホツカイドウ カブシキガイシヤ"
  },
  "1394": {
    "postcode": "0591394",
    "prefecture": "北海道",
    "prefecture_kana": "ホッカイドウ",
    "prefecture_code": 1,
    "city": "苫小牧市",
    "city_kana": "トマコマイシ",
    "town": "晴海町",
    "town_kana": "ハルミチョウ",
    "street": "２３−１",
    "office_name": "株式会社　イワクラ",
    "office_name_kana": "カブシキカイシヤ イワクラ"
  },
  "1395": {
    "postcode": "0591395",
    "prefecture": "北海道",
    "prefecture_kana": "ホッカイドウ",
    "prefecture_code": 1,
    "city": "苫小牧市",
    "city_kana": "トマコマイシ",
    "town": "字勇払",
    "town_kana": null,
    "street": "１４３番地",
    "office_name": "日本製紙　（株）　勇払工場",
    "office_name_kana": "ニホンセイシ カブシキガイシヤ ユウフツコウジヨウ"
  },
  "1396": {
    "postcode": "0591396",
    "prefecture": "北海道",
    "prefecture_kana": "ホッカイドウ",
    "prefecture_code": 1,
    "city": "苫小牧市",
    "city_kana": "トマコマイシ",
    "town": "字勇払",
    "town_kana": null,
    "street": "１４５−２５９",
    "office_name": "豊田通商　株式会社　北海道支店",
    "office_name_kana": "トヨタツウシヨウ カブシキガイシヤ ホツカイドウシテン"
  },
  "1431": {
    "postcode": "0591431",
    "prefecture": "北海道",
    "prefecture_kana": "ホッカイドウ",
    "prefecture_code": 1,
    "city": "勇払郡安平町",
    "city_kana": "ユウフツグンアビラチョウ",
    "town": "早来新栄",
    "town_kana": "ハヤキタシンエイ",
    "street": null,
    "office_name": null,
    "office_name_kana": null
  },
  "1432": {
    "postcode": "0591432",
    "prefecture": "北海道",
    "prefecture_kana": "ホッカイドウ",
    "prefecture_code": 1,
    "city": "勇払郡安平町",
    "city_kana": "ユウフツグンアビラチョウ",
    "town": "早来源武",
    "town_kana": "ハヤキタゲンブ",
    "street": null,
    "office_name": null,
    "office_name_kana": null
  },
  "1433": {
    "postcode": "0591433",
    "prefecture": "北海道",
    "prefecture_kana": "ホッカイドウ",
    "prefecture_code": 1,
    "city": "勇払郡安平町",
    "city_kana": "ユウフツグンアビラチョウ",
    "town": "遠浅",
    "town_kana": "トアサ",
    "street": null,
    "office_name": null,
    "office_name_kana": null
  },
  "1434": {
    "postcode": "0591434",
    "prefecture": "北海道",
    "prefecture_kana": "ホッカイドウ",
    "prefecture_code": 1,
    "city": "勇払郡安平町",
    "city_kana": "ユウフツグンアビラチョウ",
    "town": "早来富岡",
    "town_kana": "ハヤキタトミオカ",
    "street": null,
    "office_name": null,
    "office_name_kana": null
  },
  "1500": {
    "postcode": "0591500",
    "prefecture": "北海道",
    "prefecture_kana": "ホッカイドウ",
    "prefecture_code": 1,
    "city": "勇払郡安平町",
    "city_kana": "ユウフツグンアビラチョウ",
    "town": "",
    "town_kana": "",
    "street": null,
    "office_name": null,
    "office_name_kana": null
  },
  "1501": {
    "postcode": "0591501",
    "prefecture": "北海道",
    "prefecture_kana": "ホッカイドウ",
    "prefecture_code": 1,
    "city": "勇払郡安平町",
    "city_kana": "ユウフツグンアビラチョウ",
    "town": "早来大町",
    "town_kana": "ハヤキタオオマチ",
    "street": null,
    "office_name": null,
    "office_name_kana": null
  },
  "1502": {
    "postcode": "0591502",
    "prefecture": "北海道",
    "prefecture_kana": "ホッカイドウ",
    "prefecture_code": 1,
    "city": "勇払郡安平町",
    "city_kana": "ユウフツグンアビラチョウ",
    "town": "早来北進",
    "town_kana": "ハヤキタホクシン",
    "street": null,
    "office_name": null,
    "office_name_kana": null
  },
  "1503": {
    "postcode": "0591503",
    "prefecture": "北海道",
    "prefecture_kana": "ホッカイドウ",
    "prefecture_code": 1,
    "city": "勇払郡安平町",
    "city_kana": "ユウフツグンアビラチョウ",
    "town": "東早来",
    "town_kana": "ヒガシハヤキタ",
    "street": null,
    "office_name": null,
    "office_name_kana": null
  },
  "1504": {
    "postcode": "0591504",
    "prefecture": "北海道",
    "prefecture_kana": "ホッカイドウ",
    "prefecture_code": 1,
    "city": "勇払郡安平町",
    "city_kana": "ユウフツグンアビラチョウ",
    "town": "早来守田",
    "town_kana": "ハヤキタモリタ",
    "street": null,
    "office_name": null,
    "office_name_kana": null
  },
  "1505": {
    "postcode": "0591505",
    "prefecture": "北海道",
    "prefecture_kana": "ホッカイドウ",
    "prefecture_code": 1,
    "city": "勇払郡安平町",
    "city_kana": "ユウフツグンアビラチョウ",
    "town": "早来栄町",
    "town_kana": "ハヤキタサカエマチ",
    "street": null,
    "office_name": null,
    "office_name_kana": null
  },
  "1506": {
    "postcode": "0591506",
    "prefecture": "北海道",
    "prefecture_kana": "ホッカイドウ",
    "prefecture_code": 1,
    "city": "勇払郡安平町",
    "city_kana": "ユウフツグンアビラチョウ",
    "town": "早来北町",
    "town_kana": "ハヤキタキタマチ",
    "street": null,
    "office_name": null,
    "office_name_kana": null
  },
  "1511": {
    "postcode": "0591511",
    "prefecture": "北海道",
    "prefecture_kana": "ホッカイドウ",
    "prefecture_code": 1,
    "city": "勇払郡安平町",
    "city_kana": "ユウフツグンアビラチョウ",
    "town": "安平",
    "town_kana": "アビラ",
    "street": null,
    "office_name": null,
    "office_name_kana": null
  },
  "1512": {
    "postcode": "0591512",
    "prefecture": "北海道",
    "prefecture_kana": "ホッカイドウ",
    "prefecture_code": 1,
    "city": "勇払郡安平町",
    "city_kana": "ユウフツグンアビラチョウ",
    "town": "早来瑞穂",
    "town_kana": "ハヤキタミズホ",
    "street": null,
    "office_name": null,
    "office_name_kana": null
  },
  "1513": {
    "postcode": "0591513",
    "prefecture": "北海道",
    "prefecture_kana": "ホッカイドウ",
    "prefecture_code": 1,
    "city": "勇払郡安平町",
    "city_kana": "ユウフツグンアビラチョウ",
    "town": "早来緑丘",
    "town_kana": "ハヤキタミドリオカ",
    "street": null,
    "office_name": null,
    "office_name_kana": null
  },
  "1592": {
    "postcode": "0591592",
    "prefecture": "北海道",
    "prefecture_kana": "ホッカイドウ",
    "prefecture_code": 1,
    "city": "勇払郡安平町",
    "city_kana": "ユウフツグンアビラチョウ",
    "town": "早来大町",
    "town_kana": "ハヤキタオオマチ",
    "street": "６７番地（早来雪だるま郵便局私書箱第２号）",
    "office_name": "北央信用組合　早来支店",
    "office_name_kana": "ホクオウシンヨウクミアイ ハヤキタシテン"
  },
  "1593": {
    "postcode": "0591593",
    "prefecture": "北海道",
    "prefecture_kana": "ホッカイドウ",
    "prefecture_code": 1,
    "city": "勇払郡安平町",
    "city_kana": "ユウフツグンアビラチョウ",
    "town": "早来栄町",
    "town_kana": "ハヤキタサカエマチ",
    "street": "１７３番地５",
    "office_name": "とまこまい広域農業協同組合　早来支所",
    "office_name_kana": "トマコマイコウイキノウギヨウキヨウドウクミアイ ハヤキタシシヨ"
  },
  "1594": {
    "postcode": "0591594",
    "prefecture": "北海道",
    "prefecture_kana": "ホッカイドウ",
    "prefecture_code": 1,
    "city": "勇払郡安平町",
    "city_kana": "ユウフツグンアビラチョウ",
    "town": "早来大町",
    "town_kana": "ハヤキタオオマチ",
    "street": "１１１番地（早来雪だるま郵便局私書箱第１号）",
    "office_name": "株式会社　北海道銀行　早来支店",
    "office_name_kana": "カブシキガイシヤ ホツカイドウギンコウ ハヤキタシテン"
  },
  "1595": {
    "postcode": "0591595",
    "prefecture": "北海道",
    "prefecture_kana": "ホッカイドウ",
    "prefecture_code": 1,
    "city": "勇払郡安平町",
    "city_kana": "ユウフツグンアビラチョウ",
    "town": "早来大町",
    "town_kana": "ハヤキタオオマチ",
    "street": "９５番地",
    "office_name": "安平町役場",
    "office_name_kana": "アビラチヨウヤクバ"
  },
  "1596": {
    "postcode": "0591596",
    "prefecture": "北海道",
    "prefecture_kana": "ホッカイドウ",
    "prefecture_code": 1,
    "city": "勇払郡安平町",
    "city_kana": "ユウフツグンアビラチョウ",
    "town": "早来大町",
    "town_kana": "ハヤキタオオマチ",
    "street": "３４番地１号",
    "office_name": "早来町商工会",
    "office_name_kana": "ハヤキタチヨウシヨウコウカイ"
  },
  "1600": {
    "postcode": "0591600",
    "prefecture": "北海道",
    "prefecture_kana": "ホッカイドウ",
    "prefecture_code": 1,
    "city": "勇払郡厚真町",
    "city_kana": "ユウフツグンアツマチョウ",
    "town": "",
    "town_kana": "",
    "street": null,
    "office_name": null,
    "office_name_kana": null
  },
  "1601": {
    "postcode": "0591601",
    "prefecture": "北海道",
    "prefecture_kana": "ホッカイドウ",
    "prefecture_code": 1,
    "city": "勇払郡厚真町",
    "city_kana": "ユウフツグンアツマチョウ",
    "town": "京町",
    "town_kana": "キョウマチ",
    "street": null,
    "office_name": null,
    "office_name_kana": null
  },
  "1602": {
    "postcode": "0591602",
    "prefecture": "北海道",
    "prefecture_kana": "ホッカイドウ",
    "prefecture_code": 1,
    "city": "勇払郡厚真町",
    "city_kana": "ユウフツグンアツマチョウ",
    "town": "表町",
    "town_kana": "オモテマチ",
    "street": null,
    "office_name": null,
    "office_name_kana": null
  },
  "1603": {
    "postcode": "0591603",
    "prefecture": "北海道",
    "prefecture_kana": "ホッカイドウ",
    "prefecture_code": 1,
    "city": "勇払郡厚真町",
    "city_kana": "ユウフツグンアツマチョウ",
    "town": "本町",
    "town_kana": "ホンチョウ",
    "street": null,
    "office_name": null,
    "office_name_kana": null
  },
  "1604": {
    "postcode": "0591604",
    "prefecture": "北海道",
    "prefecture_kana": "ホッカイドウ",
    "prefecture_code": 1,
    "city": "勇払郡厚真町",
    "city_kana": "ユウフツグンアツマチョウ",
    "town": "錦町",
    "town_kana": "ニシキマチ",
    "street": null,
    "office_name": null,
    "office_name_kana": null
  },
  "1605": {
    "postcode": "0591605",
    "prefecture": "北海道",
    "prefecture_kana": "ホッカイドウ",
    "prefecture_code": 1,
    "city": "勇払郡厚真町",
    "city_kana": "ユウフツグンアツマチョウ",
    "town": "本郷",
    "town_kana": "ホンゴウ",
    "street": null,
    "office_name": null,
    "office_name_kana": null
  },
  "1606": {
    "postcode": "0591606",
    "prefecture": "北海道",
    "prefecture_kana": "ホッカイドウ",
    "prefecture_code": 1,
    "city": "勇払郡厚真町",
    "city_kana": "ユウフツグンアツマチョウ",
    "town": "朝日",
    "town_kana": "アサヒ",
    "street": null,
    "office_name": null,
    "office_name_kana": null
  },
  "1611": {
    "postcode": "0591611",
    "prefecture": "北海道",
    "prefecture_kana": "ホッカイドウ",
    "prefecture_code": 1,
    "city": "勇払郡厚真町",
    "city_kana": "ユウフツグンアツマチョウ",
    "town": "幌里",
    "town_kana": "ホロサト",
    "street": null,
    "office_name": null,
    "office_name_kana": null
  },
  "1612": {
    "postcode": "0591612",
    "prefecture": "北海道",
    "prefecture_kana": "ホッカイドウ",
    "prefecture_code": 1,
    "city": "勇払郡厚真町",
    "city_kana": "ユウフツグンアツマチョウ",
    "town": "桜丘",
    "town_kana": "サクラオカ",
    "street": null,
    "office_name": null,
    "office_name_kana": null
  },
  "1613": {
    "postcode": "0591613",
    "prefecture": "北海道",
    "prefecture_kana": "ホッカイドウ",
    "prefecture_code": 1,
    "city": "勇払郡厚真町",
    "city_kana": "ユウフツグンアツマチョウ",
    "town": "吉野",
    "town_kana": "ヨシノ",
    "street": null,
    "office_name": null,
    "office_name_kana": null
  },
  "1614": {
    "postcode": "0591614",
    "prefecture": "北海道",
    "prefecture_kana": "ホッカイドウ",
    "prefecture_code": 1,
    "city": "勇払郡厚真町",
    "city_kana": "ユウフツグンアツマチョウ",
    "town": "富里",
    "town_kana": "トミサト",
    "street": null,
    "office_name": null,
    "office_name_kana": null
  },
  "1615": {
    "postcode": "0591615",
    "prefecture": "北海道",
    "prefecture_kana": "ホッカイドウ",
    "prefecture_code": 1,
    "city": "勇払郡厚真町",
    "city_kana": "ユウフツグンアツマチョウ",
    "town": "高丘",
    "town_kana": "タカオカ",
    "street": null,
    "office_name": null,
    "office_name_kana": null
  },
  "1616": {
    "postcode": "0591616",
    "prefecture": "北海道",
    "prefecture_kana": "ホッカイドウ",
    "prefecture_code": 1,
    "city": "勇払郡厚真町",
    "city_kana": "ユウフツグンアツマチョウ",
    "town": "幌内",
    "town_kana": "ホロナイ",
    "street": null,
    "office_name": null,
    "office_name_kana": null
  },
  "1621": {
    "postcode": "0591621",
    "prefecture": "北海道",
    "prefecture_kana": "ホッカイドウ",
    "prefecture_code": 1,
    "city": "勇払郡厚真町",
    "city_kana": "ユウフツグンアツマチョウ",
    "town": "東和",
    "town_kana": "トウワ",
    "street": null,
    "office_name": null,
    "office_name_kana": null
  },
  "1622": {
    "postcode": "0591622",
    "prefecture": "北海道",
    "prefecture_kana": "ホッカイドウ",
    "prefecture_code": 1,
    "city": "勇払郡厚真町",
    "city_kana": "ユウフツグンアツマチョウ",
    "town": "宇隆",
    "town_kana": "ウリュウ",
    "street": null,
    "office_name": null,
    "office_name_kana": null
  },
  "1623": {
    "postcode": "0591623",
    "prefecture": "北海道",
    "prefecture_kana": "ホッカイドウ",
    "prefecture_code": 1,
    "city": "勇払郡厚真町",
    "city_kana": "ユウフツグンアツマチョウ",
    "town": "新町",
    "town_kana": "シンマチ",
    "street": null,
    "office_name": null,
    "office_name_kana": null
  },
  "1624": {
    "postcode": "0591624",
    "prefecture": "北海道",
    "prefecture_kana": "ホッカイドウ",
    "prefecture_code": 1,
    "city": "勇払郡厚真町",
    "city_kana": "ユウフツグンアツマチョウ",
    "town": "豊沢",
    "town_kana": "トヨサワ",
    "street": null,
    "office_name": null,
    "office_name_kana": null
  },
  "1625": {
    "postcode": "0591625",
    "prefecture": "北海道",
    "prefecture_kana": "ホッカイドウ",
    "prefecture_code": 1,
    "city": "勇払郡厚真町",
    "city_kana": "ユウフツグンアツマチョウ",
    "town": "美里",
    "town_kana": "ミサト",
    "street": null,
    "office_name": null,
    "office_name_kana": null
  },
  "1692": {
    "postcode": "0591692",
    "prefecture": "北海道",
    "prefecture_kana": "ホッカイドウ",
    "prefecture_code": 1,
    "city": "勇払郡厚真町",
    "city_kana": "ユウフツグンアツマチョウ",
    "town": "京町",
    "town_kana": "キョウマチ",
    "street": "１２０",
    "office_name": "厚真町役場",
    "office_name_kana": "アツマチヨウヤクバ"
  },
  "1693": {
    "postcode": "0591693",
    "prefecture": "北海道",
    "prefecture_kana": "ホッカイドウ",
    "prefecture_code": 1,
    "city": "勇払郡厚真町",
    "city_kana": "ユウフツグンアツマチョウ",
    "town": "錦町",
    "town_kana": "ニシキマチ",
    "street": "１０−２",
    "office_name": "とまこまい広域農業協同組合　厚真支所",
    "office_name_kana": "トマコマイコウイキノウギヨウキヨウドウクミアイ アツマシシヨ"
  },
  "1741": {
    "postcode": "0591741",
    "prefecture": "北海道",
    "prefecture_kana": "ホッカイドウ",
    "prefecture_code": 1,
    "city": "勇払郡厚真町",
    "city_kana": "ユウフツグンアツマチョウ",
    "town": "上厚真",
    "town_kana": "カミアツマ",
    "street": null,
    "office_name": null,
    "office_name_kana": null
  },
  "1742": {
    "postcode": "0591742",
    "prefecture": "北海道",
    "prefecture_kana": "ホッカイドウ",
    "prefecture_code": 1,
    "city": "勇払郡厚真町",
    "city_kana": "ユウフツグンアツマチョウ",
    "town": "浜厚真",
    "town_kana": "ハマアツマ",
    "street": null,
    "office_name": null,
    "office_name_kana": null
  },
  "1743": {
    "postcode": "0591743",
    "prefecture": "北海道",
    "prefecture_kana": "ホッカイドウ",
    "prefecture_code": 1,
    "city": "勇払郡厚真町",
    "city_kana": "ユウフツグンアツマチョウ",
    "town": "共和",
    "town_kana": "キョウワ",
    "street": null,
    "office_name": null,
    "office_name_kana": null
  },
  "1744": {
    "postcode": "0591744",
    "prefecture": "北海道",
    "prefecture_kana": "ホッカイドウ",
    "prefecture_code": 1,
    "city": "勇払郡厚真町",
    "city_kana": "ユウフツグンアツマチョウ",
    "town": "共栄",
    "town_kana": "キョウエイ",
    "street": null,
    "office_name": null,
    "office_name_kana": null
  },
  "1745": {
    "postcode": "0591745",
    "prefecture": "北海道",
    "prefecture_kana": "ホッカイドウ",
    "prefecture_code": 1,
    "city": "勇払郡厚真町",
    "city_kana": "ユウフツグンアツマチョウ",
    "town": "豊川",
    "town_kana": "トヨカワ",
    "street": null,
    "office_name": null,
    "office_name_kana": null
  },
  "1746": {
    "postcode": "0591746",
    "prefecture": "北海道",
    "prefecture_kana": "ホッカイドウ",
    "prefecture_code": 1,
    "city": "勇払郡厚真町",
    "city_kana": "ユウフツグンアツマチョウ",
    "town": "上野",
    "town_kana": "ウエノ",
    "street": null,
    "office_name": null,
    "office_name_kana": null
  },
  "1747": {
    "postcode": "0591747",
    "prefecture": "北海道",
    "prefecture_kana": "ホッカイドウ",
    "prefecture_code": 1,
    "city": "勇払郡厚真町",
    "city_kana": "ユウフツグンアツマチョウ",
    "town": "富野",
    "town_kana": "トミノ",
    "street": null,
    "office_name": null,
    "office_name_kana": null
  },
  "1748": {
    "postcode": "0591748",
    "prefecture": "北海道",
    "prefecture_kana": "ホッカイドウ",
    "prefecture_code": 1,
    "city": "勇払郡厚真町",
    "city_kana": "ユウフツグンアツマチョウ",
    "town": "厚和",
    "town_kana": "コウワ",
    "street": null,
    "office_name": null,
    "office_name_kana": null
  },
  "1749": {
    "postcode": "0591749",
    "prefecture": "北海道",
    "prefecture_kana": "ホッカイドウ",
    "prefecture_code": 1,
    "city": "勇払郡厚真町",
    "city_kana": "ユウフツグンアツマチョウ",
    "town": "清住",
    "town_kana": "キヨズミ",
    "street": null,
    "office_name": null,
    "office_name_kana": null
  },
  "1751": {
    "postcode": "0591751",
    "prefecture": "北海道",
    "prefecture_kana": "ホッカイドウ",
    "prefecture_code": 1,
    "city": "勇払郡厚真町",
    "city_kana": "ユウフツグンアツマチョウ",
    "town": "鯉沼",
    "town_kana": "コイヌマ",
    "street": null,
    "office_name": null,
    "office_name_kana": null
  },
  "1752": {
    "postcode": "0591752",
    "prefecture": "北海道",
    "prefecture_kana": "ホッカイドウ",
    "prefecture_code": 1,
    "city": "勇払郡厚真町",
    "city_kana": "ユウフツグンアツマチョウ",
    "town": "軽舞",
    "town_kana": "カルマイ",
    "street": null,
    "office_name": null,
    "office_name_kana": null
  },
  "1753": {
    "postcode": "0591753",
    "prefecture": "北海道",
    "prefecture_kana": "ホッカイドウ",
    "prefecture_code": 1,
    "city": "勇払郡厚真町",
    "city_kana": "ユウフツグンアツマチョウ",
    "town": "豊丘",
    "town_kana": "トヨオカ",
    "street": null,
    "office_name": null,
    "office_name_kana": null
  },
  "1754": {
    "postcode": "0591754",
    "prefecture": "北海道",
    "prefecture_kana": "ホッカイドウ",
    "prefecture_code": 1,
    "city": "勇払郡厚真町",
    "city_kana": "ユウフツグンアツマチョウ",
    "town": "鹿沼",
    "town_kana": "シカヌマ",
    "street": null,
    "office_name": null,
    "office_name_kana": null
  },
  "1911": {
    "postcode": "0591911",
    "prefecture": "北海道",
    "prefecture_kana": "ホッカイドウ",
    "prefecture_code": 1,
    "city": "勇払郡安平町",
    "city_kana": "ユウフツグンアビラチョウ",
    "town": "追分本町",
    "town_kana": "オイワケホンチョウ",
    "street": null,
    "office_name": null,
    "office_name_kana": null
  },
  "1921": {
    "postcode": "0591921",
    "prefecture": "北海道",
    "prefecture_kana": "ホッカイドウ",
    "prefecture_code": 1,
    "city": "勇払郡安平町",
    "city_kana": "ユウフツグンアビラチョウ",
    "town": "追分柏が丘",
    "town_kana": "オイワケカシワガオカ",
    "street": null,
    "office_name": null,
    "office_name_kana": null
  },
  "1931": {
    "postcode": "0591931",
    "prefecture": "北海道",
    "prefecture_kana": "ホッカイドウ",
    "prefecture_code": 1,
    "city": "勇払郡安平町",
    "city_kana": "ユウフツグンアビラチョウ",
    "town": "追分中央",
    "town_kana": "オイワケチュウオウ",
    "street": null,
    "office_name": null,
    "office_name_kana": null
  },
  "1941": {
    "postcode": "0591941",
    "prefecture": "北海道",
    "prefecture_kana": "ホッカイドウ",
    "prefecture_code": 1,
    "city": "勇払郡安平町",
    "city_kana": "ユウフツグンアビラチョウ",
    "town": "追分青葉",
    "town_kana": "オイワケアオバ",
    "street": null,
    "office_name": null,
    "office_name_kana": null
  },
  "1942": {
    "postcode": "0591942",
    "prefecture": "北海道",
    "prefecture_kana": "ホッカイドウ",
    "prefecture_code": 1,
    "city": "勇払郡安平町",
    "city_kana": "ユウフツグンアビラチョウ",
    "town": "追分白樺",
    "town_kana": "オイワケシラカバ",
    "street": null,
    "office_name": null,
    "office_name_kana": null
  },
  "1951": {
    "postcode": "0591951",
    "prefecture": "北海道",
    "prefecture_kana": "ホッカイドウ",
    "prefecture_code": 1,
    "city": "勇払郡安平町",
    "city_kana": "ユウフツグンアビラチョウ",
    "town": "追分若草",
    "town_kana": "オイワケワカクサ",
    "street": null,
    "office_name": null,
    "office_name_kana": null
  },
  "1961": {
    "postcode": "0591961",
    "prefecture": "北海道",
    "prefecture_kana": "ホッカイドウ",
    "prefecture_code": 1,
    "city": "勇払郡安平町",
    "city_kana": "ユウフツグンアビラチョウ",
    "town": "追分花園",
    "town_kana": "オイワケハナゾノ",
    "street": null,
    "office_name": null,
    "office_name_kana": null
  },
  "1971": {
    "postcode": "0591971",
    "prefecture": "北海道",
    "prefecture_kana": "ホッカイドウ",
    "prefecture_code": 1,
    "city": "勇払郡安平町",
    "city_kana": "ユウフツグンアビラチョウ",
    "town": "追分緑が丘",
    "town_kana": "オイワケミドリガオカ",
    "street": null,
    "office_name": null,
    "office_name_kana": null
  },
  "1982": {
    "postcode": "0591982",
    "prefecture": "北海道",
    "prefecture_kana": "ホッカイドウ",
    "prefecture_code": 1,
    "city": "勇払郡安平町",
    "city_kana": "ユウフツグンアビラチョウ",
    "town": "追分美園",
    "town_kana": "オイワケミソノ",
    "street": null,
    "office_name": null,
    "office_name_kana": null
  },
  "1983": {
    "postcode": "0591983",
    "prefecture": "北海道",
    "prefecture_kana": "ホッカイドウ",
    "prefecture_code": 1,
    "city": "勇払郡安平町",
    "city_kana": "ユウフツグンアビラチョウ",
    "town": "追分旭",
    "town_kana": "オイワケアサヒ",
    "street": null,
    "office_name": null,
    "office_name_kana": null
  },
  "1984": {
    "postcode": "0591984",
    "prefecture": "北海道",
    "prefecture_kana": "ホッカイドウ",
    "prefecture_code": 1,
    "city": "勇払郡安平町",
    "city_kana": "ユウフツグンアビラチョウ",
    "town": "追分向陽",
    "town_kana": "オイワケコウヨウ",
    "street": null,
    "office_name": null,
    "office_name_kana": null
  },
  "1985": {
    "postcode": "0591985",
    "prefecture": "北海道",
    "prefecture_kana": "ホッカイドウ",
    "prefecture_code": 1,
    "city": "勇払郡安平町",
    "city_kana": "ユウフツグンアビラチョウ",
    "town": "追分春日",
    "town_kana": "オイワケカスガ",
    "street": null,
    "office_name": null,
    "office_name_kana": null
  },
  "1986": {
    "postcode": "0591986",
    "prefecture": "北海道",
    "prefecture_kana": "ホッカイドウ",
    "prefecture_code": 1,
    "city": "勇払郡安平町",
    "city_kana": "ユウフツグンアビラチョウ",
    "town": "追分弥生",
    "town_kana": "オイワケヤヨイ",
    "street": null,
    "office_name": null,
    "office_name_kana": null
  },
  "1987": {
    "postcode": "0591987",
    "prefecture": "北海道",
    "prefecture_kana": "ホッカイドウ",
    "prefecture_code": 1,
    "city": "勇払郡安平町",
    "city_kana": "ユウフツグンアビラチョウ",
    "town": "追分豊栄",
    "town_kana": "オイワケホウエイ",
    "street": null,
    "office_name": null,
    "office_name_kana": null
  },
  "2121": {
    "postcode": "0592121",
    "prefecture": "北海道",
    "prefecture_kana": "ホッカイドウ",
    "prefecture_code": 1,
    "city": "沙流郡日高町",
    "city_kana": "サルグンヒダカチョウ",
    "town": "門別本町",
    "town_kana": "モンベツホンチョウ",
    "street": null,
    "office_name": null,
    "office_name_kana": null
  },
  "2122": {
    "postcode": "0592122",
    "prefecture": "北海道",
    "prefecture_kana": "ホッカイドウ",
    "prefecture_code": 1,
    "city": "沙流郡日高町",
    "city_kana": "サルグンヒダカチョウ",
    "town": "緑町",
    "town_kana": "ミドリチョウ",
    "street": null,
    "office_name": null,
    "office_name_kana": null
  },
  "2123": {
    "postcode": "0592123",
    "prefecture": "北海道",
    "prefecture_kana": "ホッカイドウ",
    "prefecture_code": 1,
    "city": "沙流郡日高町",
    "city_kana": "サルグンヒダカチョウ",
    "town": "幾千世",
    "town_kana": "イクチセ",
    "street": null,
    "office_name": null,
    "office_name_kana": null
  },
  "2124": {
    "postcode": "0592124",
    "prefecture": "北海道",
    "prefecture_kana": "ホッカイドウ",
    "prefecture_code": 1,
    "city": "沙流郡日高町",
    "city_kana": "サルグンヒダカチョウ",
    "town": "庫富",
    "town_kana": "クラトミ",
    "street": null,
    "office_name": null,
    "office_name_kana": null
  },
  "2125": {
    "postcode": "0592125",
    "prefecture": "北海道",
    "prefecture_kana": "ホッカイドウ",
    "prefecture_code": 1,
    "city": "沙流郡日高町",
    "city_kana": "サルグンヒダカチョウ",
    "town": "広富",
    "town_kana": "ヒロトミ",
    "street": null,
    "office_name": null,
    "office_name_kana": null
  },
  "2126": {
    "postcode": "0592126",
    "prefecture": "北海道",
    "prefecture_kana": "ホッカイドウ",
    "prefecture_code": 1,
    "city": "沙流郡日高町",
    "city_kana": "サルグンヒダカチョウ",
    "town": "豊郷",
    "town_kana": "トヨサト",
    "street": null,
    "office_name": null,
    "office_name_kana": null
  },
  "2127": {
    "postcode": "0592127",
    "prefecture": "北海道",
    "prefecture_kana": "ホッカイドウ",
    "prefecture_code": 1,
    "city": "沙流郡日高町",
    "city_kana": "サルグンヒダカチョウ",
    "town": "旭町",
    "town_kana": "アサヒチョウ",
    "street": null,
    "office_name": null,
    "office_name_kana": null
  },
  "2192": {
    "postcode": "0592192",
    "prefecture": "北海道",
    "prefecture_kana": "ホッカイドウ",
    "prefecture_code": 1,
    "city": "沙流郡日高町",
    "city_kana": "サルグンヒダカチョウ",
    "town": "門別本町",
    "town_kana": "モンベツホンチョウ",
    "street": "２１０番地１号",
    "office_name": "日高町役場",
    "office_name_kana": "ヒダカチヨウヤクバ"
  },
  "2241": {
    "postcode": "0592241",
    "prefecture": "北海道",
    "prefecture_kana": "ホッカイドウ",
    "prefecture_code": 1,
    "city": "沙流郡日高町",
    "city_kana": "サルグンヒダカチョウ",
    "town": "豊田",
    "town_kana": "トヨタ",
    "street": null,
    "office_name": null,
    "office_name_kana": null
  },
  "2242": {
    "postcode": "0592242",
    "prefecture": "北海道",
    "prefecture_kana": "ホッカイドウ",
    "prefecture_code": 1,
    "city": "沙流郡日高町",
    "city_kana": "サルグンヒダカチョウ",
    "town": "美原",
    "town_kana": "ミハラ",
    "street": null,
    "office_name": null,
    "office_name_kana": null
  },
  "2243": {
    "postcode": "0592243",
    "prefecture": "北海道",
    "prefecture_kana": "ホッカイドウ",
    "prefecture_code": 1,
    "city": "沙流郡日高町",
    "city_kana": "サルグンヒダカチョウ",
    "town": "厚賀町",
    "town_kana": "アツガチョウ",
    "street": null,
    "office_name": null,
    "office_name_kana": null
  },
  "2244": {
    "postcode": "0592244",
    "prefecture": "北海道",
    "prefecture_kana": "ホッカイドウ",
    "prefecture_code": 1,
    "city": "沙流郡日高町",
    "city_kana": "サルグンヒダカチョウ",
    "town": "賀張",
    "town_kana": "カバリ",
    "street": null,
    "office_name": null,
    "office_name_kana": null
  },
  "2245": {
    "postcode": "0592245",
    "prefecture": "北海道",
    "prefecture_kana": "ホッカイドウ",
    "prefecture_code": 1,
    "city": "沙流郡日高町",
    "city_kana": "サルグンヒダカチョウ",
    "town": "清畠",
    "town_kana": "キヨハタ",
    "street": null,
    "office_name": null,
    "office_name_kana": null
  },
  "2251": {
    "postcode": "0592251",
    "prefecture": "北海道",
    "prefecture_kana": "ホッカイドウ",
    "prefecture_code": 1,
    "city": "新冠郡新冠町",
    "city_kana": "ニイカップグンニイカップチョウ",
    "town": "共栄",
    "town_kana": "キョウエイ",
    "street": null,
    "office_name": null,
    "office_name_kana": null
  },
  "2252": {
    "postcode": "0592252",
    "prefecture": "北海道",
    "prefecture_kana": "ホッカイドウ",
    "prefecture_code": 1,
    "city": "新冠郡新冠町",
    "city_kana": "ニイカップグンニイカップチョウ",
    "town": "東川",
    "town_kana": "ヒガシカワ",
    "street": null,
    "office_name": null,
    "office_name_kana": null
  },
  "2253": {
    "postcode": "0592253",
    "prefecture": "北海道",
    "prefecture_kana": "ホッカイドウ",
    "prefecture_code": 1,
    "city": "新冠郡新冠町",
    "city_kana": "ニイカップグンニイカップチョウ",
    "town": "大狩部",
    "town_kana": "オオカリベ",
    "street": null,
    "office_name": null,
    "office_name_kana": null
  },
  "2331": {
    "postcode": "0592331",
    "prefecture": "北海道",
    "prefecture_kana": "ホッカイドウ",
    "prefecture_code": 1,
    "city": "沙流郡日高町",
    "city_kana": "サルグンヒダカチョウ",
    "town": "正和",
    "town_kana": "ショウワ",
    "street": null,
    "office_name": null,
    "office_name_kana": null
  },
  "2332": {
    "postcode": "0592332",
    "prefecture": "北海道",
    "prefecture_kana": "ホッカイドウ",
    "prefecture_code": 1,
    "city": "沙流郡日高町",
    "city_kana": "サルグンヒダカチョウ",
    "town": "三和",
    "town_kana": "ミワ",
    "street": null,
    "office_name": null,
    "office_name_kana": null
  },
  "2341": {
    "postcode": "0592341",
    "prefecture": "北海道",
    "prefecture_kana": "ホッカイドウ",
    "prefecture_code": 1,
    "city": "新冠郡新冠町",
    "city_kana": "ニイカップグンニイカップチョウ",
    "town": "新和",
    "town_kana": "シンワ",
    "street": null,
    "office_name": null,
    "office_name_kana": null
  },
  "2342": {
    "postcode": "0592342",
    "prefecture": "北海道",
    "prefecture_kana": "ホッカイドウ",
    "prefecture_code": 1,
    "city": "新冠郡新冠町",
    "city_kana": "ニイカップグンニイカップチョウ",
    "town": "里平",
    "town_kana": "リビラ",
    "street": null,
    "office_name": null,
    "office_name_kana": null
  },
  "2343": {
    "postcode": "0592343",
    "prefecture": "北海道",
    "prefecture_kana": "ホッカイドウ",
    "prefecture_code": 1,
    "city": "新冠郡新冠町",
    "city_kana": "ニイカップグンニイカップチョウ",
    "town": "太陽",
    "town_kana": "タイヨウ",
    "street": null,
    "office_name": null,
    "office_name_kana": null
  },
  "2344": {
    "postcode": "0592344",
    "prefecture": "北海道",
    "prefecture_kana": "ホッカイドウ",
    "prefecture_code": 1,
    "city": "新冠郡新冠町",
    "city_kana": "ニイカップグンニイカップチョウ",
    "town": "美宇",
    "town_kana": "ビウ",
    "street": null,
    "office_name": null,
    "office_name_kana": null
  },
  "2400": {
    "postcode": "0592400",
    "prefecture": "北海道",
    "prefecture_kana": "ホッカイドウ",
    "prefecture_code": 1,
    "city": "新冠郡新冠町",
    "city_kana": "ニイカップグンニイカップチョウ",
    "town": "",
    "town_kana": "",
    "street": null,
    "office_name": null,
    "office_name_kana": null
  },
  "2401": {
    "postcode": "0592401",
    "prefecture": "北海道",
    "prefecture_kana": "ホッカイドウ",
    "prefecture_code": 1,
    "city": "新冠郡新冠町",
    "city_kana": "ニイカップグンニイカップチョウ",
    "town": "本町",
    "town_kana": "ホンチョウ",
    "street": null,
    "office_name": null,
    "office_name_kana": null
  },
  "2402": {
    "postcode": "0592402",
    "prefecture": "北海道",
    "prefecture_kana": "ホッカイドウ",
    "prefecture_code": 1,
    "city": "新冠郡新冠町",
    "city_kana": "ニイカップグンニイカップチョウ",
    "town": "中央町",
    "town_kana": "チュウオウチョウ",
    "street": null,
    "office_name": null,
    "office_name_kana": null
  },
  "2403": {
    "postcode": "0592403",
    "prefecture": "北海道",
    "prefecture_kana": "ホッカイドウ",
    "prefecture_code": 1,
    "city": "新冠郡新冠町",
    "city_kana": "ニイカップグンニイカップチョウ",
    "town": "北星町",
    "town_kana": "ホクセイチョウ",
    "street": null,
    "office_name": null,
    "office_name_kana": null
  },
  "2404": {
    "postcode": "0592404",
    "prefecture": "北海道",
    "prefecture_kana": "ホッカイドウ",
    "prefecture_code": 1,
    "city": "新冠郡新冠町",
    "city_kana": "ニイカップグンニイカップチョウ",
    "town": "東町",
    "town_kana": "アズマチョウ",
    "street": null,
    "office_name": null,
    "office_name_kana": null
  },
  "2411": {
    "postcode": "0592411",
    "prefecture": "北海道",
    "prefecture_kana": "ホッカイドウ",
    "prefecture_code": 1,
    "city": "新冠郡新冠町",
    "city_kana": "ニイカップグンニイカップチョウ",
    "town": "大狩部",
    "town_kana": "オオカリベ",
    "street": null,
    "office_name": null,
    "office_name_kana": null
  },
  "2412": {
    "postcode": "0592412",
    "prefecture": "北海道",
    "prefecture_kana": "ホッカイドウ",
    "prefecture_code": 1,
    "city": "新冠郡新冠町",
    "city_kana": "ニイカップグンニイカップチョウ",
    "town": "節婦町",
    "town_kana": "セップチョウ",
    "street": null,
    "office_name": null,
    "office_name_kana": null
  },
  "2413": {
    "postcode": "0592413",
    "prefecture": "北海道",
    "prefecture_kana": "ホッカイドウ",
    "prefecture_code": 1,
    "city": "新冠郡新冠町",
    "city_kana": "ニイカップグンニイカップチョウ",
    "town": "高江",
    "town_kana": "タカエ",
    "street": null,
    "office_name": null,
    "office_name_kana": null
  },
  "2414": {
    "postcode": "0592414",
    "prefecture": "北海道",
    "prefecture_kana": "ホッカイドウ",
    "prefecture_code": 1,
    "city": "新冠郡新冠町",
    "city_kana": "ニイカップグンニイカップチョウ",
    "town": "朝日",
    "town_kana": "アサヒ",
    "street": null,
    "office_name": null,
    "office_name_kana": null
  },
  "2415": {
    "postcode": "0592415",
    "prefecture": "北海道",
    "prefecture_kana": "ホッカイドウ",
    "prefecture_code": 1,
    "city": "新冠郡新冠町",
    "city_kana": "ニイカップグンニイカップチョウ",
    "town": "緑丘",
    "town_kana": "ミドリオカ",
    "street": null,
    "office_name": null,
    "office_name_kana": null
  },
  "2416": {
    "postcode": "0592416",
    "prefecture": "北海道",
    "prefecture_kana": "ホッカイドウ",
    "prefecture_code": 1,
    "city": "新冠郡新冠町",
    "city_kana": "ニイカップグンニイカップチョウ",
    "town": "古岸",
    "town_kana": "フルギシ",
    "street": null,
    "office_name": null,
    "office_name_kana": null
  },
  "2417": {
    "postcode": "0592417",
    "prefecture": "北海道",
    "prefecture_kana": "ホッカイドウ",
    "prefecture_code": 1,
    "city": "新冠郡新冠町",
    "city_kana": "ニイカップグンニイカップチョウ",
    "town": "東泊津",
    "town_kana": "ヒガシハクツ",
    "street": null,
    "office_name": null,
    "office_name_kana": null
  },
  "2418": {
    "postcode": "0592418",
    "prefecture": "北海道",
    "prefecture_kana": "ホッカイドウ",
    "prefecture_code": 1,
    "city": "新冠郡新冠町",
    "city_kana": "ニイカップグンニイカップチョウ",
    "town": "西泊津",
    "town_kana": "ニシハクツ",
    "street": null,
    "office_name": null,
    "office_name_kana": null
  },
  "2421": {
    "postcode": "0592421",
    "prefecture": "北海道",
    "prefecture_kana": "ホッカイドウ",
    "prefecture_code": 1,
    "city": "新冠郡新冠町",
    "city_kana": "ニイカップグンニイカップチョウ",
    "town": "若園",
    "town_kana": "ワカゾノ",
    "street": null,
    "office_name": null,
    "office_name_kana": null
  },
  "2422": {
    "postcode": "0592422",
    "prefecture": "北海道",
    "prefecture_kana": "ホッカイドウ",
    "prefecture_code": 1,
    "city": "新冠郡新冠町",
    "city_kana": "ニイカップグンニイカップチョウ",
    "town": "岩清水",
    "town_kana": "イワシミズ",
    "street": null,
    "office_name": null,
    "office_name_kana": null
  },
  "2423": {
    "postcode": "0592423",
    "prefecture": "北海道",
    "prefecture_kana": "ホッカイドウ",
    "prefecture_code": 1,
    "city": "新冠郡新冠町",
    "city_kana": "ニイカップグンニイカップチョウ",
    "town": "泉",
    "town_kana": "イズミ",
    "street": null,
    "office_name": null,
    "office_name_kana": null
  },
  "2424": {
    "postcode": "0592424",
    "prefecture": "北海道",
    "prefecture_kana": "ホッカイドウ",
    "prefecture_code": 1,
    "city": "新冠郡新冠町",
    "city_kana": "ニイカップグンニイカップチョウ",
    "town": "新栄",
    "town_kana": "シンエイ",
    "street": null,
    "office_name": null,
    "office_name_kana": null
  },
  "2425": {
    "postcode": "0592425",
    "prefecture": "北海道",
    "prefecture_kana": "ホッカイドウ",
    "prefecture_code": 1,
    "city": "新冠郡新冠町",
    "city_kana": "ニイカップグンニイカップチョウ",
    "town": "明和",
    "town_kana": "メイワ",
    "street": null,
    "office_name": null,
    "office_name_kana": null
  },
  "2426": {
    "postcode": "0592426",
    "prefecture": "北海道",
    "prefecture_kana": "ホッカイドウ",
    "prefecture_code": 1,
    "city": "新冠郡新冠町",
    "city_kana": "ニイカップグンニイカップチョウ",
    "town": "万世",
    "town_kana": "バンセイ",
    "street": null,
    "office_name": null,
    "office_name_kana": null
  },
  "2427": {
    "postcode": "0592427",
    "prefecture": "北海道",
    "prefecture_kana": "ホッカイドウ",
    "prefecture_code": 1,
    "city": "新冠郡新冠町",
    "city_kana": "ニイカップグンニイカップチョウ",
    "town": "大富",
    "town_kana": "オオトミ",
    "street": null,
    "office_name": null,
    "office_name_kana": null
  },
  "2492": {
    "postcode": "0592492",
    "prefecture": "北海道",
    "prefecture_kana": "ホッカイドウ",
    "prefecture_code": 1,
    "city": "新冠郡新冠町",
    "city_kana": "ニイカップグンニイカップチョウ",
    "town": "字北星町",
    "town_kana": null,
    "street": "３番地の２",
    "office_name": "新冠町役場",
    "office_name_kana": "ニイカツプチヨウヤクバ"
  },
  "2561": {
    "postcode": "0592561",
    "prefecture": "北海道",
    "prefecture_kana": "ホッカイドウ",
    "prefecture_code": 1,
    "city": "日高郡新ひだか町",
    "city_kana": "ヒダカグンシンヒダカチョウ",
    "town": "東静内",
    "town_kana": "ヒガシシズナイ",
    "street": null,
    "office_name": null,
    "office_name_kana": null
  },
  "2562": {
    "postcode": "0592562",
    "prefecture": "北海道",
    "prefecture_kana": "ホッカイドウ",
    "prefecture_code": 1,
    "city": "日高郡新ひだか町",
    "city_kana": "ヒダカグンシンヒダカチョウ",
    "town": "静内浦和",
    "town_kana": "シズナイウラワ",
    "street": null,
    "office_name": null,
    "office_name_kana": null
  },
  "2563": {
    "postcode": "0592563",
    "prefecture": "北海道",
    "prefecture_kana": "ホッカイドウ",
    "prefecture_code": 1,
    "city": "日高郡新ひだか町",
    "city_kana": "ヒダカグンシンヒダカチョウ",
    "town": "静内川合",
    "town_kana": "シズナイカワアイ",
    "street": null,
    "office_name": null,
    "office_name_kana": null
  },
  "2564": {
    "postcode": "0592564",
    "prefecture": "北海道",
    "prefecture_kana": "ホッカイドウ",
    "prefecture_code": 1,
    "city": "日高郡新ひだか町",
    "city_kana": "ヒダカグンシンヒダカチョウ",
    "town": "静内西川",
    "town_kana": "シズナイニシカワ",
    "street": null,
    "office_name": null,
    "office_name_kana": null
  },
  "2565": {
    "postcode": "0592565",
    "prefecture": "北海道",
    "prefecture_kana": "ホッカイドウ",
    "prefecture_code": 1,
    "city": "日高郡新ひだか町",
    "city_kana": "ヒダカグンシンヒダカチョウ",
    "town": "静内春立",
    "town_kana": "シズナイハルタチ",
    "street": null,
    "office_name": null,
    "office_name_kana": null
  },
  "2566": {
    "postcode": "0592566",
    "prefecture": "北海道",
    "prefecture_kana": "ホッカイドウ",
    "prefecture_code": 1,
    "city": "日高郡新ひだか町",
    "city_kana": "ヒダカグンシンヒダカチョウ",
    "town": "静内東別",
    "town_kana": "シズナイトウベツ",
    "street": null,
    "office_name": null,
    "office_name_kana": null
  },
  "2571": {
    "postcode": "0592571",
    "prefecture": "北海道",
    "prefecture_kana": "ホッカイドウ",
    "prefecture_code": 1,
    "city": "日高郡新ひだか町",
    "city_kana": "ヒダカグンシンヒダカチョウ",
    "town": "三石西端",
    "town_kana": "ミツイシニシハタ",
    "street": null,
    "office_name": null,
    "office_name_kana": null
  },
  "2598": {
    "postcode": "0592598",
    "prefecture": "北海道",
    "prefecture_kana": "ホッカイドウ",
    "prefecture_code": 1,
    "city": "日高郡新ひだか町",
    "city_kana": "ヒダカグンシンヒダカチョウ",
    "town": "静内浦和",
    "town_kana": "シズナイウラワ",
    "street": "１２５",
    "office_name": "陸上自衛隊　静内駐屯地",
    "office_name_kana": "リクジヨウジエイタイ シズナイチユウトンチ"
  },
  "3101": {
    "postcode": "0593101",
    "prefecture": "北海道",
    "prefecture_kana": "ホッカイドウ",
    "prefecture_code": 1,
    "city": "日高郡新ひだか町",
    "city_kana": "ヒダカグンシンヒダカチョウ",
    "town": "三石富沢",
    "town_kana": "ミツイシトミサワ",
    "street": null,
    "office_name": null,
    "office_name_kana": null
  },
  "3102": {
    "postcode": "0593102",
    "prefecture": "北海道",
    "prefecture_kana": "ホッカイドウ",
    "prefecture_code": 1,
    "city": "日高郡新ひだか町",
    "city_kana": "ヒダカグンシンヒダカチョウ",
    "town": "三石福畑",
    "town_kana": "ミツイシフクハタ",
    "street": null,
    "office_name": null,
    "office_name_kana": null
  },
  "3103": {
    "postcode": "0593103",
    "prefecture": "北海道",
    "prefecture_kana": "ホッカイドウ",
    "prefecture_code": 1,
    "city": "日高郡新ひだか町",
    "city_kana": "ヒダカグンシンヒダカチョウ",
    "town": "三石豊岡",
    "town_kana": "ミツイシトヨオカ",
    "street": null,
    "office_name": null,
    "office_name_kana": null
  },
  "3104": {
    "postcode": "0593104",
    "prefecture": "北海道",
    "prefecture_kana": "ホッカイドウ",
    "prefecture_code": 1,
    "city": "日高郡新ひだか町",
    "city_kana": "ヒダカグンシンヒダカチョウ",
    "town": "三石蓬栄",
    "town_kana": "ミツイシホウエイ",
    "street": null,
    "office_name": null,
    "office_name_kana": null
  },
  "3105": {
    "postcode": "0593105",
    "prefecture": "北海道",
    "prefecture_kana": "ホッカイドウ",
    "prefecture_code": 1,
    "city": "日高郡新ひだか町",
    "city_kana": "ヒダカグンシンヒダカチョウ",
    "town": "三石東蓬莱",
    "town_kana": "ミツイシヒガシホウライ",
    "street": null,
    "office_name": null,
    "office_name_kana": null
  },
  "3106": {
    "postcode": "0593106",
    "prefecture": "北海道",
    "prefecture_kana": "ホッカイドウ",
    "prefecture_code": 1,
    "city": "日高郡新ひだか町",
    "city_kana": "ヒダカグンシンヒダカチョウ",
    "town": "三石西蓬莱",
    "town_kana": "ミツイシニシホウライ",
    "street": null,
    "office_name": null,
    "office_name_kana": null
  },
  "3107": {
    "postcode": "0593107",
    "prefecture": "北海道",
    "prefecture_kana": "ホッカイドウ",
    "prefecture_code": 1,
    "city": "日高郡新ひだか町",
    "city_kana": "ヒダカグンシンヒダカチョウ",
    "town": "三石旭町",
    "town_kana": "ミツイシアサヒチョウ",
    "street": null,
    "office_name": null,
    "office_name_kana": null
  },
  "3108": {
    "postcode": "0593108",
    "prefecture": "北海道",
    "prefecture_kana": "ホッカイドウ",
    "prefecture_code": 1,
    "city": "日高郡新ひだか町",
    "city_kana": "ヒダカグンシンヒダカチョウ",
    "town": "三石本町",
    "town_kana": "ミツイシホンチョウ",
    "street": null,
    "office_name": null,
    "office_name_kana": null
  },
  "3111": {
    "postcode": "0593111",
    "prefecture": "北海道",
    "prefecture_kana": "ホッカイドウ",
    "prefecture_code": 1,
    "city": "日高郡新ひだか町",
    "city_kana": "ヒダカグンシンヒダカチョウ",
    "town": "三石越海町",
    "town_kana": "ミツイシコシウミチョウ",
    "street": null,
    "office_name": null,
    "office_name_kana": null
  },
  "3112": {
    "postcode": "0593112",
    "prefecture": "北海道",
    "prefecture_kana": "ホッカイドウ",
    "prefecture_code": 1,
    "city": "日高郡新ひだか町",
    "city_kana": "ヒダカグンシンヒダカチョウ",
    "town": "三石港町",
    "town_kana": "ミツイシミナトチョウ",
    "street": null,
    "office_name": null,
    "office_name_kana": null
  },
  "3195": {
    "postcode": "0593195",
    "prefecture": "北海道",
    "prefecture_kana": "ホッカイドウ",
    "prefecture_code": 1,
    "city": "日高郡新ひだか町",
    "city_kana": "ヒダカグンシンヒダカチョウ",
    "town": "三石本町",
    "town_kana": "ミツイシホンチョウ",
    "street": "２１２（三石郵便局私書箱第２号）",
    "office_name": "新ひだか町役場　三石総合支所",
    "office_name_kana": "シンヒダカチヨウヤクバ ミツイシソウゴウシシヨ"
  },
  "3231": {
    "postcode": "0593231",
    "prefecture": "北海道",
    "prefecture_kana": "ホッカイドウ",
    "prefecture_code": 1,
    "city": "日高郡新ひだか町",
    "city_kana": "ヒダカグンシンヒダカチョウ",
    "town": "三石本桐",
    "town_kana": "ミツイシホンキリ",
    "street": null,
    "office_name": null,
    "office_name_kana": null
  },
  "3232": {
    "postcode": "0593232",
    "prefecture": "北海道",
    "prefecture_kana": "ホッカイドウ",
    "prefecture_code": 1,
    "city": "日高郡新ひだか町",
    "city_kana": "ヒダカグンシンヒダカチョウ",
    "town": "三石美野和",
    "town_kana": "ミツイシミノワ",
    "street": null,
    "office_name": null,
    "office_name_kana": null
  },
  "3233": {
    "postcode": "0593233",
    "prefecture": "北海道",
    "prefecture_kana": "ホッカイドウ",
    "prefecture_code": 1,
    "city": "日高郡新ひだか町",
    "city_kana": "ヒダカグンシンヒダカチョウ",
    "town": "三石鳧舞",
    "town_kana": "ミツイシケリマイ",
    "street": null,
    "office_name": null,
    "office_name_kana": null
  },
  "3351": {
    "postcode": "0593351",
    "prefecture": "北海道",
    "prefecture_kana": "ホッカイドウ",
    "prefecture_code": 1,
    "city": "日高郡新ひだか町",
    "city_kana": "ヒダカグンシンヒダカチョウ",
    "town": "三石歌笛",
    "town_kana": "ミツイシウタフエ",
    "street": null,
    "office_name": null,
    "office_name_kana": null
  },
  "3352": {
    "postcode": "0593352",
    "prefecture": "北海道",
    "prefecture_kana": "ホッカイドウ",
    "prefecture_code": 1,
    "city": "日高郡新ひだか町",
    "city_kana": "ヒダカグンシンヒダカチョウ",
    "town": "三石稲見",
    "town_kana": "ミツイシイナミ",
    "street": null,
    "office_name": null,
    "office_name_kana": null
  },
  "3353": {
    "postcode": "0593353",
    "prefecture": "北海道",
    "prefecture_kana": "ホッカイドウ",
    "prefecture_code": 1,
    "city": "日高郡新ひだか町",
    "city_kana": "ヒダカグンシンヒダカチョウ",
    "town": "三石清瀬",
    "town_kana": "ミツイシキヨセ",
    "street": null,
    "office_name": null,
    "office_name_kana": null
  },
  "3354": {
    "postcode": "0593354",
    "prefecture": "北海道",
    "prefecture_kana": "ホッカイドウ",
    "prefecture_code": 1,
    "city": "日高郡新ひだか町",
    "city_kana": "ヒダカグンシンヒダカチョウ",
    "town": "三石川上",
    "town_kana": "ミツイシカワカミ",
    "street": null,
    "office_name": null,
    "office_name_kana": null
  },
  "3355": {
    "postcode": "0593355",
    "prefecture": "北海道",
    "prefecture_kana": "ホッカイドウ",
    "prefecture_code": 1,
    "city": "日高郡新ひだか町",
    "city_kana": "ヒダカグンシンヒダカチョウ",
    "town": "三石美河",
    "town_kana": "ミツイシミカワ",
    "street": null,
    "office_name": null,
    "office_name_kana": null
  },
  "3451": {
    "postcode": "0593451",
    "prefecture": "北海道",
    "prefecture_kana": "ホッカイドウ",
    "prefecture_code": 1,
    "city": "浦河郡浦河町",
    "city_kana": "ウラカワグンウラカワチョウ",
    "town": "荻伏町",
    "town_kana": "オギフシチョウ",
    "street": null,
    "office_name": null,
    "office_name_kana": null
  },
  "3453": {
    "postcode": "0593453",
    "prefecture": "北海道",
    "prefecture_kana": "ホッカイドウ",
    "prefecture_code": 1,
    "city": "浦河郡浦河町",
    "city_kana": "ウラカワグンウラカワチョウ",
    "town": "瑞穂",
    "town_kana": "ミズホ",
    "street": null,
    "office_name": null,
    "office_name_kana": null
  },
  "3454": {
    "postcode": "0593454",
    "prefecture": "北海道",
    "prefecture_kana": "ホッカイドウ",
    "prefecture_code": 1,
    "city": "浦河郡浦河町",
    "city_kana": "ウラカワグンウラカワチョウ",
    "town": "野深",
    "town_kana": "ノブカ",
    "street": null,
    "office_name": null,
    "office_name_kana": null
  },
  "3461": {
    "postcode": "0593461",
    "prefecture": "北海道",
    "prefecture_kana": "ホッカイドウ",
    "prefecture_code": 1,
    "city": "浦河郡浦河町",
    "city_kana": "ウラカワグンウラカワチョウ",
    "town": "東栄",
    "town_kana": "トウエイ",
    "street": null,
    "office_name": null,
    "office_name_kana": null
  },
  "3462": {
    "postcode": "0593462",
    "prefecture": "北海道",
    "prefecture_kana": "ホッカイドウ",
    "prefecture_code": 1,
    "city": "浦河郡浦河町",
    "city_kana": "ウラカワグンウラカワチョウ",
    "town": "富里",
    "town_kana": "トミサト",
    "street": null,
    "office_name": null,
    "office_name_kana": null
  },
  "3463": {
    "postcode": "0593463",
    "prefecture": "北海道",
    "prefecture_kana": "ホッカイドウ",
    "prefecture_code": 1,
    "city": "浦河郡浦河町",
    "city_kana": "ウラカワグンウラカワチョウ",
    "town": "姉茶",
    "town_kana": "アネチャ",
    "street": null,
    "office_name": null,
    "office_name_kana": null
  },
  "8601": {
    "postcode": "0598601",
    "prefecture": "北海道",
    "prefecture_kana": "ホッカイドウ",
    "prefecture_code": 1,
    "city": "登別市",
    "city_kana": "ノボリベツシ",
    "town": "札内町",
    "town_kana": "サツナイチョウ",
    "street": "１８４−３",
    "office_name": "日本工学院北海道専門学校",
    "office_name_kana": "ニホンコウガクインホツカイドウセンモンガツコウ"
  },
  "8701": {
    "postcode": "0598701",
    "prefecture": "北海道",
    "prefecture_kana": "ホッカイドウ",
    "prefecture_code": 1,
    "city": "登別市",
    "city_kana": "ノボリベツシ",
    "town": "中央町",
    "town_kana": "チュウオウチョウ",
    "street": "６丁目１１番地",
    "office_name": "登別市役所",
    "office_name_kana": "ノボリベツシヤクシヨ"
  }
}