{
  "0000": {
    "postcode": "0620000",
    "prefecture": "北海道",
    "prefecture_kana": "ホッカイドウ",
    "prefecture_code": 1,
    "city": "札幌市豊平区",
    "city_kana": "サッポロシトヨヒラク",
    "town": "",
    "town_kana": "",
    "street": null,
    "office_name": null,
    "office_name_kana": null
  },
  "0001": {
    "postcode": "0620001",
    "prefecture": "北海道",
    "prefecture_kana": "ホッカイドウ",
    "prefecture_code": 1,
    "city": "札幌市豊平区",
    "city_kana": "サッポロシトヨヒラク",
    "town": "美園一条",
    "town_kana": "ミソノ1ジョウ",
    "street": null,
    "office_name": null,
    "office_name_kana": null
  },
  "0002": {
    "postcode": "0620002",
    "prefecture": "北海道",
    "prefecture_kana": "ホッカイドウ",
    "prefecture_code": 1,
    "city": "札幌市豊平区",
    "city_kana": "サッポロシトヨヒラク",
    "town": "美園二条",
    "town_kana": "ミソノ2ジョウ",
    "street": null,
    "office_name": null,
    "office_name_kana": null
  },
  "0003": {
    "postcode": "0620003",
    "prefecture": "北海道",
    "prefecture_kana": "ホッカイドウ",
    "prefecture_code": 1,
    "city": "札幌市豊平区",
    "city_kana": "サッポロシトヨヒラク",
    "town": "美園三条",
    "town_kana": "ミソノ3ジョウ",
    "street": null,
    "office_name": null,
    "office_name_kana": null
  },
  "0004": {
    "postcode": "0620004",
    "prefecture": "北海道",
    "prefecture_kana": "ホッカイドウ",
    "prefecture_code": 1,
    "city": "札幌市豊平区",
    "city_kana": "サッポロシトヨヒラク",
    "town": "美園四条",
    "town_kana": "ミソノ4ジョウ",
    "street": null,
    "office_name": null,
    "office_name_kana": null
  },
  "0005": {
    "postcode": "0620005",
    "prefecture": "北海道",
    "prefecture_kana": "ホッカイドウ",
    "prefecture_code": 1,
    "city": "札幌市豊平区",
    "city_kana": "サッポロシトヨヒラク",
    "town": "美園五条",
    "town_kana": "ミソノ5ジョウ",
    "street": null,
    "office_name": null,
    "office_name_kana": null
  },
  "0006": {
    "postcode": "0620006",
    "prefecture": "北海道",
    "prefecture_kana": "ホッカイドウ",
    "prefecture_code": 1,
    "city": "札幌市豊平区",
    "city_kana": "サッポロシトヨヒラク",
    "town": "美園六条",
    "town_kana": "ミソノ6ジョウ",
    "street": null,
    "office_name": null,
    "office_name_kana": null
  },
  "0007": {
    "postcode": "0620007",
    "prefecture": "北海道",
    "prefecture_kana": "ホッカイドウ",
    "prefecture_code": 1,
    "city": "札幌市豊平区",
    "city_kana": "サッポロシトヨヒラク",
    "town": "美園七条",
    "town_kana": "ミソノ7ジョウ",
    "street": null,
    "office_name": null,
    "office_name_kana": null
  },
  "0008": {
    "postcode": "0620008",
    "prefecture": "北海道",
    "prefecture_kana": "ホッカイドウ",
    "prefecture_code": 1,
    "city": "札幌市豊平区",
    "city_kana": "サッポロシトヨヒラク",
    "town": "美園八条",
    "town_kana": "ミソノ8ジョウ",
    "street": null,
    "office_name": null,
    "office_name_kana": null
  },
  "0009": {
    "postcode": "0620009",
    "prefecture": "北海道",
    "prefecture_kana": "ホッカイドウ",
    "prefecture_code": 1,
    "city": "札幌市豊平区",
    "city_kana": "サッポロシトヨヒラク",
    "town": "美園九条",
    "town_kana": "ミソノ9ジョウ",
    "street": null,
    "office_name": null,
    "office_name_kana": null
  },
  "0010": {
    "postcode": "0620010",
    "prefecture": "北海道",
    "prefecture_kana": "ホッカイドウ",
    "prefecture_code": 1,
    "city": "札幌市豊平区",
    "city_kana": "サッポロシトヨヒラク",
    "town": "美園十条",
    "town_kana": "ミソノ10ジョウ",
    "street": null,
    "office_name": null,
    "office_name_kana": null
  },
  "0011": {
    "postcode": "0620011",
    "prefecture": "北海道",
    "prefecture_kana": "ホッカイドウ",
    "prefecture_code": 1,
    "city": "札幌市豊平区",
    "city_kana": "サッポロシトヨヒラク",
    "town": "美園十一条",
    "town_kana": "ミソノ11ジョウ",
    "street": null,
    "office_name": null,
    "office_name_kana": null
  },
  "0012": {
    "postcode": "0620012",
    "prefecture": "北海道",
    "prefecture_kana": "ホッカイドウ",
    "prefecture_code": 1,
    "city": "札幌市豊平区",
    "city_kana": "サッポロシトヨヒラク",
    "town": "美園十二条",
    "town_kana": "ミソノ12ジョウ",
    "street": null,
    "office_name": null,
    "office_name_kana": null
  },
  "0020": {
    "postcode": "0620020",
    "prefecture": "北海道",
    "prefecture_kana": "ホッカイドウ",
    "prefecture_code": 1,
    "city": "札幌市豊平区",
    "city_kana": "サッポロシトヨヒラク",
    "town": "月寒中央通",
    "town_kana": "ツキサムチュウオウドオリ",
    "street": null,
    "office_name": null,
    "office_name_kana": null
  },
  "0021": {
    "postcode": "0620021",
    "prefecture": "北海道",
    "prefecture_kana": "ホッカイドウ",
    "prefecture_code": 1,
    "city": "札幌市豊平区",
    "city_kana": "サッポロシトヨヒラク",
    "town": "月寒西一条",
    "town_kana": "ツキサムニシ1ジョウ",
    "street": null,
    "office_name": null,
    "office_name_kana": null
  },
  "0022": {
    "postcode": "0620022",
    "prefecture": "北海道",
    "prefecture_kana": "ホッカイドウ",
    "prefecture_code": 1,
    "city": "札幌市豊平区",
    "city_kana": "サッポロシトヨヒラク",
    "town": "月寒西二条",
    "town_kana": "ツキサムニシ2ジョウ",
    "street": null,
    "office_name": null,
    "office_name_kana": null
  },
  "0023": {
    "postcode": "0620023",
    "prefecture": "北海道",
    "prefecture_kana": "ホッカイドウ",
    "prefecture_code": 1,
    "city": "札幌市豊平区",
    "city_kana": "サッポロシトヨヒラク",
    "town": "月寒西三条",
    "town_kana": "ツキサムニシ3ジョウ",
    "street": null,
    "office_name": null,
    "office_name_kana": null
  },
  "0024": {
    "postcode": "0620024",
    "prefecture": "北海道",
    "prefecture_kana": "ホッカイドウ",
    "prefecture_code": 1,
    "city": "札幌市豊平区",
    "city_kana": "サッポロシトヨヒラク",
    "town": "月寒西四条",
    "town_kana": "ツキサムニシ4ジョウ",
    "street": null,
    "office_name": null,
    "office_name_kana": null
  },
  "0025": {
    "postcode": "0620025",
    "prefecture": "北海道",
    "prefecture_kana": "ホッカイドウ",
    "prefecture_code": 1,
    "city": "札幌市豊平区",
    "city_kana": "サッポロシトヨヒラク",
    "town": "月寒西五条",
    "town_kana": "ツキサムニシ5ジョウ",
    "street": null,
    "office_name": null,
    "office_name_kana": null
  },
  "0031": {
    "postcode": "0620031",
    "prefecture": "北海道",
    "prefecture_kana": "ホッカイドウ",
    "prefecture_code": 1,
    "city": "札幌市豊平区",
    "city_kana": "サッポロシトヨヒラク",
    "town": "西岡一条",
    "town_kana": "ニシオカ1ジョウ",
    "street": null,
    "office_name": null,
    "office_name_kana": null
  },
  "0032": {
    "postcode": "0620032",
    "prefecture": "北海道",
    "prefecture_kana": "ホッカイドウ",
    "prefecture_code": 1,
    "city": "札幌市豊平区",
    "city_kana": "サッポロシトヨヒラク",
    "town": "西岡二条",
    "town_kana": "ニシオカ2ジョウ",
    "street": null,
    "office_name": null,
    "office_name_kana": null
  },
  "0033": {
    "postcode": "0620033",
    "prefecture": "北海道",
    "prefecture_kana": "ホッカイドウ",
    "prefecture_code": 1,
    "city": "札幌市豊平区",
    "city_kana": "サッポロシトヨヒラク",
    "town": "西岡三条",
    "town_kana": "ニシオカ3ジョウ",
    "street": null,
    "office_name": null,
    "office_name_kana": null
  },
  "0034": {
    "postcode": "0620034",
    "prefecture": "北海道",
    "prefecture_kana": "ホッカイドウ",
    "prefecture_code": 1,
    "city": "札幌市豊平区",
    "city_kana": "サッポロシトヨヒラク",
    "town": "西岡四条",
    "town_kana": "ニシオカ4ジョウ",
    "street": null,
    "office_name": null,
    "office_name_kana": null
  },
  "0035": {
    "postcode": "0620035",
    "prefecture": "北海道",
    "prefecture_kana": "ホッカイドウ",
    "prefecture_code": 1,
    "city": "札幌市豊平区",
    "city_kana": "サッポロシトヨヒラク",
    "town": "西岡五条",
    "town_kana": "ニシオカ5ジョウ",
    "street": null,
    "office_name": null,
    "office_name_kana": null
  },
  "0039": {
    "postcode": "0620039",
    "prefecture": "北海道",
    "prefecture_kana": "ホッカイドウ",
    "prefecture_code": 1,
    "city": "札幌市豊平区",
    "city_kana": "サッポロシトヨヒラク",
    "town": "西岡",
    "town_kana": "ニシオカ",
    "street": null,
    "office_name": null,
    "office_name_kana": null
  },
  "0041": {
    "postcode": "0620041",
    "prefecture": "北海道",
    "prefecture_kana": "ホッカイドウ",
    "prefecture_code": 1,
    "city": "札幌市豊平区",
    "city_kana": "サッポロシトヨヒラク",
    "town": "福住一条",
    "town_kana": "フクズミ1ジョウ",
    "street": null,
    "office_name": null,
    "office_name_kana": null
  },
  "0042": {
    "postcode": "0620042",
    "prefecture": "北海道",
    "prefecture_kana": "ホッカイドウ",
    "prefecture_code": 1,
    "city": "札幌市豊平区",
    "city_kana": "サッポロシトヨヒラク",
    "town": "福住二条",
    "town_kana": "フクズミ2ジョウ",
    "street": null,
    "office_name": null,
    "office_name_kana": null
  },
  "0043": {
    "postcode": "0620043",
    "prefecture": "北海道",
    "prefecture_kana": "ホッカイドウ",
    "prefecture_code": 1,
    "city": "札幌市豊平区",
    "city_kana": "サッポロシトヨヒラク",
    "town": "福住三条",
    "town_kana": "フクズミ3ジョウ",
    "street": null,
    "office_name": null,
    "office_name_kana": null
  },
  "0045": {
    "postcode": "0620045",
    "prefecture": "北海道",
    "prefecture_kana": "ホッカイドウ",
    "prefecture_code": 1,
    "city": "札幌市豊平区",
    "city_kana": "サッポロシトヨヒラク",
    "town": "羊ケ丘",
    "town_kana": "ヒツジガオカ",
    "street": null,
    "office_name": null,
    "office_name_kana": null
  },
  "0051": {
    "postcode": "0620051",
    "prefecture": "北海道",
    "prefecture_kana": "ホッカイドウ",
    "prefecture_code": 1,
    "city": "札幌市豊平区",
    "city_kana": "サッポロシトヨヒラク",
    "town": "月寒東一条",
    "town_kana": "ツキサムヒガシ1ジョウ",
    "street": null,
    "office_name": null,
    "office_name_kana": null
  },
  "0052": {
    "postcode": "0620052",
    "prefecture": "北海道",
    "prefecture_kana": "ホッカイドウ",
    "prefecture_code": 1,
    "city": "札幌市豊平区",
    "city_kana": "サッポロシトヨヒラク",
    "town": "月寒東二条",
    "town_kana": "ツキサムヒガシ2ジョウ",
    "street": null,
    "office_name": null,
    "office_name_kana": null
  },
  "0053": {
    "postcode": "0620053",
    "prefecture": "北海道",
    "prefecture_kana": "ホッカイドウ",
    "prefecture_code": 1,
    "city": "札幌市豊平区",
    "city_kana": "サッポロシトヨヒラク",
    "town": "月寒東三条",
    "town_kana": "ツキサムヒガシ3ジョウ",
    "street": null,
    "office_name": null,
    "office_name_kana": null
  },
  "0054": {
    "postcode": "0620054",
    "prefecture": "北海道",
    "prefecture_kana": "ホッカイドウ",
    "prefecture_code": 1,
    "city": "札幌市豊平区",
    "city_kana": "サッポロシトヨヒラク",
    "town": "月寒東四条",
    "town_kana": "ツキサムヒガシ4ジョウ",
    "street": null,
    "office_name": null,
    "office_name_kana": null
  },
  "0055": {
    "postcode": "0620055",
    "prefecture": "北海道",
    "prefecture_kana": "ホッカイドウ",
    "prefecture_code": 1,
    "city": "札幌市豊平区",
    "city_kana": "サッポロシトヨヒラク",
    "town": "月寒東五条",
    "town_kana": "ツキサムヒガシ5ジョウ",
    "street": null,
    "office_name": null,
    "office_name_kana": null
  },
  "0901": {
    "postcode": "0620901",
    "prefecture": "北海道",
    "prefecture_kana": "ホッカイドウ",
    "prefecture_code": 1,
    "city": "札幌市豊平区",
    "city_kana": "サッポロシトヨヒラク",
    "town": "豊平一条",
    "town_kana": "トヨヒラ1ジョウ",
    "street": null,
    "office_name": null,
    "office_name_kana": null
  },
  "0902": {
    "postcode": "0620902",
    "prefecture": "北海道",
    "prefecture_kana": "ホッカイドウ",
    "prefecture_code": 1,
    "city": "札幌市豊平区",
    "city_kana": "サッポロシトヨヒラク",
    "town": "豊平二条",
    "town_kana": "トヨヒラ2ジョウ",
    "street": null,
    "office_name": null,
    "office_name_kana": null
  },
  "0903": {
    "postcode": "0620903",
    "prefecture": "北海道",
    "prefecture_kana": "ホッカイドウ",
    "prefecture_code": 1,
    "city": "札幌市豊平区",
    "city_kana": "サッポロシトヨヒラク",
    "town": "豊平三条",
    "town_kana": "トヨヒラ3ジョウ",
    "street": null,
    "office_name": null,
    "office_name_kana": null
  },
  "0904": {
    "postcode": "0620904",
    "prefecture": "北海道",
    "prefecture_kana": "ホッカイドウ",
    "prefecture_code": 1,
    "city": "札幌市豊平区",
    "city_kana": "サッポロシトヨヒラク",
    "town": "豊平四条",
    "town_kana": "トヨヒラ4ジョウ",
    "street": null,
    "office_name": null,
    "office_name_kana": null
  },
  "0905": {
    "postcode": "0620905",
    "prefecture": "北海道",
    "prefecture_kana": "ホッカイドウ",
    "prefecture_code": 1,
    "city": "札幌市豊平区",
    "city_kana": "サッポロシトヨヒラク",
    "town": "豊平五条",
    "town_kana": "トヨヒラ5ジョウ",
    "street": null,
    "office_name": null,
    "office_name_kana": null
  },
  "0906": {
    "postcode": "0620906",
    "prefecture": "北海道",
    "prefecture_kana": "ホッカイドウ",
    "prefecture_code": 1,
    "city": "札幌市豊平区",
    "city_kana": "サッポロシトヨヒラク",
    "town": "豊平六条",
    "town_kana": "トヨヒラ6ジョウ",
    "street": null,
    "office_name": null,
    "office_name_kana": null
  },
  "0907": {
    "postcode": "0620907",
    "prefecture": "北海道",
    "prefecture_kana": "ホッカイドウ",
    "prefecture_code": 1,
    "city": "札幌市豊平区",
    "city_kana": "サッポロシトヨヒラク",
    "town": "豊平七条",
    "town_kana": "トヨヒラ7ジョウ",
    "street": null,
    "office_name": null,
    "office_name_kana": null
  },
  "0908": {
    "postcode": "0620908",
    "prefecture": "北海道",
    "prefecture_kana": "ホッカイドウ",
    "prefecture_code": 1,
    "city": "札幌市豊平区",
    "city_kana": "サッポロシトヨヒラク",
    "town": "豊平八条",
    "town_kana": "トヨヒラ8ジョウ",
    "street": null,
    "office_name": null,
    "office_name_kana": null
  },
  "0909": {
    "postcode": "0620909",
    "prefecture": "北海道",
    "prefecture_kana": "ホッカイドウ",
    "prefecture_code": 1,
    "city": "札幌市豊平区",
    "city_kana": "サッポロシトヨヒラク",
    "town": "豊平九条",
    "town_kana": "トヨヒラ9ジョウ",
    "street": null,
    "office_name": null,
    "office_name_kana": null
  },
  "0911": {
    "postcode": "0620911",
    "prefecture": "北海道",
    "prefecture_kana": "ホッカイドウ",
    "prefecture_code": 1,
    "city": "札幌市豊平区",
    "city_kana": "サッポロシトヨヒラク",
    "town": "旭町",
    "town_kana": "アサヒマチ",
    "street": null,
    "office_name": null,
    "office_name_kana": null
  },
  "0912": {
    "postcode": "0620912",
    "prefecture": "北海道",
    "prefecture_kana": "ホッカイドウ",
    "prefecture_code": 1,
    "city": "札幌市豊平区",
    "city_kana": "サッポロシトヨヒラク",
    "town": "水車町",
    "town_kana": "スイシャチョウ",
    "street": null,
    "office_name": null,
    "office_name_kana": null
  },
  "0921": {
    "postcode": "0620921",
    "prefecture": "北海道",
    "prefecture_kana": "ホッカイドウ",
    "prefecture_code": 1,
    "city": "札幌市豊平区",
    "city_kana": "サッポロシトヨヒラク",
    "town": "中の島一条",
    "town_kana": "ナカノシマ1ジョウ",
    "street": null,
    "office_name": null,
    "office_name_kana": null
  },
  "0922": {
    "postcode": "0620922",
    "prefecture": "北海道",
    "prefecture_kana": "ホッカイドウ",
    "prefecture_code": 1,
    "city": "札幌市豊平区",
    "city_kana": "サッポロシトヨヒラク",
    "town": "中の島二条",
    "town_kana": "ナカノシマ2ジョウ",
    "street": null,
    "office_name": null,
    "office_name_kana": null
  },
  "0931": {
    "postcode": "0620931",
    "prefecture": "北海道",
    "prefecture_kana": "ホッカイドウ",
    "prefecture_code": 1,
    "city": "札幌市豊平区",
    "city_kana": "サッポロシトヨヒラク",
    "town": "平岸一条",
    "town_kana": "ヒラギシ1ジョウ",
    "street": null,
    "office_name": null,
    "office_name_kana": null
  },
  "0932": {
    "postcode": "0620932",
    "prefecture": "北海道",
    "prefecture_kana": "ホッカイドウ",
    "prefecture_code": 1,
    "city": "札幌市豊平区",
    "city_kana": "サッポロシトヨヒラク",
    "town": "平岸二条",
    "town_kana": "ヒラギシ2ジョウ",
    "street": null,
    "office_name": null,
    "office_name_kana": null
  },
  "0933": {
    "postcode": "0620933",
    "prefecture": "北海道",
    "prefecture_kana": "ホッカイドウ",
    "prefecture_code": 1,
    "city": "札幌市豊平区",
    "city_kana": "サッポロシトヨヒラク",
    "town": "平岸三条",
    "town_kana": "ヒラギシ3ジョウ",
    "street": null,
    "office_name": null,
    "office_name_kana": null
  },
  "0934": {
    "postcode": "0620934",
    "prefecture": "北海道",
    "prefecture_kana": "ホッカイドウ",
    "prefecture_code": 1,
    "city": "札幌市豊平区",
    "city_kana": "サッポロシトヨヒラク",
    "town": "平岸四条",
    "town_kana": "ヒラギシ4ジョウ",
    "street": null,
    "office_name": null,
    "office_name_kana": null
  },
  "0935": {
    "postcode": "0620935",
    "prefecture": "北海道",
    "prefecture_kana": "ホッカイドウ",
    "prefecture_code": 1,
    "city": "札幌市豊平区",
    "city_kana": "サッポロシトヨヒラク",
    "town": "平岸五条",
    "town_kana": "ヒラギシ5ジョウ",
    "street": null,
    "office_name": null,
    "office_name_kana": null
  },
  "0936": {
    "postcode": "0620936",
    "prefecture": "北海道",
    "prefecture_kana": "ホッカイドウ",
    "prefecture_code": 1,
    "city": "札幌市豊平区",
    "city_kana": "サッポロシトヨヒラク",
    "town": "平岸六条",
    "town_kana": "ヒラギシ6ジョウ",
    "street": null,
    "office_name": null,
    "office_name_kana": null
  },
  "0937": {
    "postcode": "0620937",
    "prefecture": "北海道",
    "prefecture_kana": "ホッカイドウ",
    "prefecture_code": 1,
    "city": "札幌市豊平区",
    "city_kana": "サッポロシトヨヒラク",
    "town": "平岸七条",
    "town_kana": "ヒラギシ7ジョウ",
    "street": null,
    "office_name": null,
    "office_name_kana": null
  },
  "0938": {
    "postcode": "0620938",
    "prefecture": "北海道",
    "prefecture_kana": "ホッカイドウ",
    "prefecture_code": 1,
    "city": "札幌市豊平区",
    "city_kana": "サッポロシトヨヒラク",
    "town": "平岸八条",
    "town_kana": "ヒラギシ8ジョウ",
    "street": null,
    "office_name": null,
    "office_name_kana": null
  },
  "8501": {
    "postcode": "0628501",
    "prefecture": "北海道",
    "prefecture_kana": "ホッカイドウ",
    "prefecture_code": 1,
    "city": "札幌市豊平区",
    "city_kana": "サッポロシトヨヒラク",
    "town": "平岸四条",
    "town_kana": "ヒラギシ4ジョウ",
    "street": "１３丁目１０番１７号",
    "office_name": "北海道テレビ放送　株式会社　（ＨＴＢ）",
    "office_name_kana": "ホツカイドウテレビホウソウ カブシキガイシヤ (エイチテイ-ビ-)"
  },
  "8510": {
    "postcode": "0628510",
    "prefecture": "北海道",
    "prefecture_kana": "ホッカイドウ",
    "prefecture_code": 1,
    "city": "札幌市豊平区",
    "city_kana": "サッポロシトヨヒラク",
    "town": "月寒東一条",
    "town_kana": "ツキサムヒガシ1ジョウ",
    "street": "１８丁目５番１号",
    "office_name": "日糧製パン　株式会社",
    "office_name_kana": "ニチリヨウセイパン カブシキガイシヤ"
  },
  "8511": {
    "postcode": "0628511",
    "prefecture": "北海道",
    "prefecture_kana": "ホッカイドウ",
    "prefecture_code": 1,
    "city": "札幌市豊平区",
    "city_kana": "サッポロシトヨヒラク",
    "town": "月寒東二条",
    "town_kana": "ツキサムヒガシ2ジョウ",
    "street": "８丁目３−１",
    "office_name": "札幌開発建設部　札幌道路事務所",
    "office_name_kana": "サツポロカイハツケンセツブ サツポロドウロジムシヨ"
  },
  "8513": {
    "postcode": "0628513",
    "prefecture": "北海道",
    "prefecture_kana": "ホッカイドウ",
    "prefecture_code": 1,
    "city": "札幌市豊平区",
    "city_kana": "サッポロシトヨヒラク",
    "town": "平岸一条",
    "town_kana": "ヒラギシ1ジョウ",
    "street": "１２丁目１番２５号",
    "office_name": "社会医療法人柏葉会　札幌柏葉会病院",
    "office_name_kana": "シヤカイイリヨウホウジンハクヨウカイ サツポロハクヨウカイビヨウイン"
  },
  "8514": {
    "postcode": "0628514",
    "prefecture": "北海道",
    "prefecture_kana": "ホッカイドウ",
    "prefecture_code": 1,
    "city": "札幌市豊平区",
    "city_kana": "サッポロシトヨヒラク",
    "town": "月寒東一条",
    "town_kana": "ツキサムヒガシ1ジョウ",
    "street": "１５丁目１６番１号",
    "office_name": "株式会社　ヤナセ　札幌支店",
    "office_name_kana": "カブシキガイシヤ ヤナセ サツポロシテン"
  },
  "8516": {
    "postcode": "0628516",
    "prefecture": "北海道",
    "prefecture_kana": "ホッカイドウ",
    "prefecture_code": 1,
    "city": "札幌市豊平区",
    "city_kana": "サッポロシトヨヒラク",
    "town": "羊ケ丘",
    "town_kana": "ヒツジガオカ",
    "street": "７番地",
    "office_name": "森林総合研究所　北海道支所",
    "office_name_kana": "シンリンソウゴウケンキユウジヨ ホツカイドウシシヨ"
  },
  "8517": {
    "postcode": "0628517",
    "prefecture": "北海道",
    "prefecture_kana": "ホッカイドウ",
    "prefecture_code": 1,
    "city": "札幌市豊平区",
    "city_kana": "サッポロシトヨヒラク",
    "town": "月寒東二条",
    "town_kana": "ツキサムヒガシ2ジョウ",
    "street": "１７丁目２番１号",
    "office_name": "国立研究開発法人　産業技術総合研究所　北海道センター",
    "office_name_kana": "コクリツケンキユウカイハツホウジン サンギヨウギジユツソウゴウケンキユウシヨ ホツカイドウセンタ-"
  },
  "8520": {
    "postcode": "0628520",
    "prefecture": "北海道",
    "prefecture_kana": "ホッカイドウ",
    "prefecture_code": 1,
    "city": "札幌市豊平区",
    "city_kana": "サッポロシトヨヒラク",
    "town": "西岡三条",
    "town_kana": "ニシオカ3ジョウ",
    "street": "７丁目３番１号",
    "office_name": "札幌大学",
    "office_name_kana": "サツポロダイガク"
  },
  "8530": {
    "postcode": "0628530",
    "prefecture": "北海道",
    "prefecture_kana": "ホッカイドウ",
    "prefecture_code": 1,
    "city": "札幌市豊平区",
    "city_kana": "サッポロシトヨヒラク",
    "town": "福住一条",
    "town_kana": "フクズミ1ジョウ",
    "street": "４丁目１３番１３号",
    "office_name": "北海道信用農業協同組合連合会　事務センター",
    "office_name_kana": "ホツカイドウシンヨウノウギヨウキヨウドウクミアイレンゴウカイ ジムセンタ-"
  },
  "8532": {
    "postcode": "0628532",
    "prefecture": "北海道",
    "prefecture_kana": "ホッカイドウ",
    "prefecture_code": 1,
    "city": "札幌市豊平区",
    "city_kana": "サッポロシトヨヒラク",
    "town": "福住三条",
    "town_kana": "フクズミ3ジョウ",
    "street": "２丁目４−５",
    "office_name": "矢崎総業北海道販売　株式会社",
    "office_name_kana": "ヤザキソウギヨウホツカイドウハンバイ カブシキガイシヤ"
  },
  "8539": {
    "postcode": "0628539",
    "prefecture": "北海道",
    "prefecture_kana": "ホッカイドウ",
    "prefecture_code": 1,
    "city": "札幌市豊平区",
    "city_kana": "サッポロシトヨヒラク",
    "town": "平岸三条",
    "town_kana": "ヒラギシ3ジョウ",
    "street": "７丁目９番６号",
    "office_name": "株式会社　シージーシー　北海道本部",
    "office_name_kana": "カブシキカイシヤ シ-ジ-シ- ホツカイドウホンブ"
  },
  "8555": {
    "postcode": "0628555",
    "prefecture": "北海道",
    "prefecture_kana": "ホッカイドウ",
    "prefecture_code": 1,
    "city": "札幌市豊平区",
    "city_kana": "サッポロシトヨヒラク",
    "town": "羊ケ丘",
    "town_kana": "ヒツジガオカ",
    "street": "１番地",
    "office_name": "独立行政法人　農業・食品産業技術総合研究機構　北海道農業研究センター",
    "office_name_kana": "ドクリツギヨウセイホウジン ノウギヨウ・シヨクヒンサンギヨウギジユツソウゴウケンキユウキコウ ホツカイドウノウギヨウケンキユウセンタ-"
  },
  "8558": {
    "postcode": "0628558",
    "prefecture": "北海道",
    "prefecture_kana": "ホッカイドウ",
    "prefecture_code": 1,
    "city": "札幌市豊平区",
    "city_kana": "サッポロシトヨヒラク",
    "town": "美園三条",
    "town_kana": "ミソノ3ジョウ",
    "street": "６丁目３番１０号",
    "office_name": "札幌トヨペット　株式会社",
    "office_name_kana": "サツポロトヨペツト カブシキカイシヤ"
  },
  "8570": {
    "postcode": "0628570",
    "prefecture": "北海道",
    "prefecture_kana": "ホッカイドウ",
    "prefecture_code": 1,
    "city": "札幌市豊平区",
    "city_kana": "サッポロシトヨヒラク",
    "town": "豊平六条",
    "town_kana": "トヨヒラ6ジョウ",
    "street": "３丁目２番１号",
    "office_name": "札幌市下水道局",
    "office_name_kana": "サツポロシゲスイドウキヨク"
  },
  "8572": {
    "postcode": "0628572",
    "prefecture": "北海道",
    "prefecture_kana": "ホッカイドウ",
    "prefecture_code": 1,
    "city": "札幌市豊平区",
    "city_kana": "サッポロシトヨヒラク",
    "town": "豊平五条",
    "town_kana": "トヨヒラ5ジョウ",
    "street": "１１丁目１番１４",
    "office_name": "財団法人　北海道体育協会",
    "office_name_kana": "ザイダンホウジン ホツカイドウタイイクキヨウカイ"
  },
  "8575": {
    "postcode": "0628575",
    "prefecture": "北海道",
    "prefecture_kana": "ホッカイドウ",
    "prefecture_code": 1,
    "city": "札幌市豊平区",
    "city_kana": "サッポロシトヨヒラク",
    "town": "平岸二条",
    "town_kana": "ヒラギシ2ジョウ",
    "street": "５丁目２−１４第５平岸グランドビル２Ｆ",
    "office_name": "（株）　エフエムとよひら",
    "office_name_kana": "カブシキガイシヤ エフエムトヨヒラ"
  },
  "8601": {
    "postcode": "0628601",
    "prefecture": "北海道",
    "prefecture_kana": "ホッカイドウ",
    "prefecture_code": 1,
    "city": "札幌市豊平区",
    "city_kana": "サッポロシトヨヒラク",
    "town": "旭町",
    "town_kana": "アサヒマチ",
    "street": "４丁目１−４１",
    "office_name": "北海高等学校",
    "office_name_kana": "ホツカイコウトウガツコウ"
  },
  "8602": {
    "postcode": "0628602",
    "prefecture": "北海道",
    "prefecture_kana": "ホッカイドウ",
    "prefecture_code": 1,
    "city": "札幌市豊平区",
    "city_kana": "サッポロシトヨヒラク",
    "town": "平岸一条",
    "town_kana": "ヒラギシ1ジョウ",
    "street": "３丁目１番地３４号",
    "office_name": "独立行政法人　土木研究所　寒地土木研究所",
    "office_name_kana": "ドクリツギヨウセイホウジン ドボクケンキユウジヨ カンチドボクケンキユウジヨ"
  },
  "8603": {
    "postcode": "0628603",
    "prefecture": "北海道",
    "prefecture_kana": "ホッカイドウ",
    "prefecture_code": 1,
    "city": "札幌市豊平区",
    "city_kana": "サッポロシトヨヒラク",
    "town": "旭町",
    "town_kana": "アサヒマチ",
    "street": "４丁目１番４２号",
    "office_name": "北海学園札幌高等学校",
    "office_name_kana": "ホツカイガクエンサツポロコウトウガツコウ"
  },
  "8605": {
    "postcode": "0628605",
    "prefecture": "北海道",
    "prefecture_kana": "ホッカイドウ",
    "prefecture_code": 1,
    "city": "札幌市豊平区",
    "city_kana": "サッポロシトヨヒラク",
    "town": "旭町",
    "town_kana": "アサヒマチ",
    "street": "４丁目",
    "office_name": "北海学園大学",
    "office_name_kana": "ホツカイガクエンダイガク"
  },
  "8607": {
    "postcode": "0628607",
    "prefecture": "北海道",
    "prefecture_kana": "ホッカイドウ",
    "prefecture_code": 1,
    "city": "札幌市豊平区",
    "city_kana": "サッポロシトヨヒラク",
    "town": "豊平六条",
    "town_kana": "トヨヒラ6ジョウ",
    "street": "６丁目１０番",
    "office_name": "北海商科大学",
    "office_name_kana": "ホツカイシヨウカダイガク"
  },
  "8608": {
    "postcode": "0628608",
    "prefecture": "北海道",
    "prefecture_kana": "ホッカイドウ",
    "prefecture_code": 1,
    "city": "札幌市豊平区",
    "city_kana": "サッポロシトヨヒラク",
    "town": "豊平六条",
    "town_kana": "トヨヒラ6ジョウ",
    "street": "８丁目１番１１号",
    "office_name": "岩倉建材　株式会社",
    "office_name_kana": "イワクラケンザイ カブシキガイシヤ"
  },
  "8609": {
    "postcode": "0628609",
    "prefecture": "北海道",
    "prefecture_kana": "ホッカイドウ",
    "prefecture_code": 1,
    "city": "札幌市豊平区",
    "city_kana": "サッポロシトヨヒラク",
    "town": "月寒東一条",
    "town_kana": "ツキサムヒガシ1ジョウ",
    "street": "３丁目２−１０",
    "office_name": "札幌東公共職業安定所",
    "office_name_kana": "サツポロヒガシコウキヨウシヨクギヨウアンテイシヨ"
  },
  "8612": {
    "postcode": "0628612",
    "prefecture": "北海道",
    "prefecture_kana": "ホッカイドウ",
    "prefecture_code": 1,
    "city": "札幌市豊平区",
    "city_kana": "サッポロシトヨヒラク",
    "town": "平岸六条",
    "town_kana": "ヒラギシ6ジョウ",
    "street": "１０丁目",
    "office_name": "札幌市豊平区役所",
    "office_name_kana": "サツポロシトヨヒラクヤクシヨ"
  },
  "8617": {
    "postcode": "0628617",
    "prefecture": "北海道",
    "prefecture_kana": "ホッカイドウ",
    "prefecture_code": 1,
    "city": "札幌市豊平区",
    "city_kana": "サッポロシトヨヒラク",
    "town": "豊平六条",
    "town_kana": "トヨヒラ6ジョウ",
    "street": "６丁目",
    "office_name": "丸彦渡辺建設　株式会社",
    "office_name_kana": "マルヒコワタナベケンセツ カブシキガイシヤ"
  },
  "8618": {
    "postcode": "0628618",
    "prefecture": "北海道",
    "prefecture_kana": "ホッカイドウ",
    "prefecture_code": 1,
    "city": "札幌市豊平区",
    "city_kana": "サッポロシトヨヒラク",
    "town": "中の島一条",
    "town_kana": "ナカノシマ1ジョウ",
    "street": "８丁目３番１８号",
    "office_name": "独立行政法人　地域医療機能推進機構北海道病院",
    "office_name_kana": "ドクリツギヨウセイホウジン チイキイリヨウキノウスイシンキコウホツカイドウビヨウイン"
  },
  "8622": {
    "postcode": "0628622",
    "prefecture": "北海道",
    "prefecture_kana": "ホッカイドウ",
    "prefecture_code": 1,
    "city": "札幌市豊平区",
    "city_kana": "サッポロシトヨヒラク",
    "town": "平岸３条",
    "town_kana": null,
    "street": "５丁目４番２２号",
    "office_name": "株式会社　コナミデジタルエンタテインメント",
    "office_name_kana": "カブシキガイシヤ コナミデジタルエンタテインメント"
  },
  "8624": {
    "postcode": "0628624",
    "prefecture": "北海道",
    "prefecture_kana": "ホッカイドウ",
    "prefecture_code": 1,
    "city": "札幌市豊平区",
    "city_kana": "サッポロシトヨヒラク",
    "town": "月寒東二条",
    "town_kana": "ツキサムヒガシ2ジョウ",
    "street": "１８丁目７番地",
    "office_name": "株式会社　ジェイコム札幌",
    "office_name_kana": "カブシキガイシヤ ジエイコムサツポロ"
  },
  "8630": {
    "postcode": "0628630",
    "prefecture": "北海道",
    "prefecture_kana": "ホッカイドウ",
    "prefecture_code": 1,
    "city": "札幌市豊平区",
    "city_kana": "サッポロシトヨヒラク",
    "town": "月寒東一条",
    "town_kana": "ツキサムヒガシ1ジョウ",
    "street": "１６丁目１番４３号",
    "office_name": "日本道路　株式会社　北海道支店",
    "office_name_kana": "ニツポンドウロ カブシキガイシヤ ホツカイドウシテン"
  },
  "8631": {
    "postcode": "0628631",
    "prefecture": "北海道",
    "prefecture_kana": "ホッカイドウ",
    "prefecture_code": 1,
    "city": "札幌市豊平区",
    "city_kana": "サッポロシトヨヒラク",
    "town": "平岸一条",
    "town_kana": "ヒラギシ1ジョウ",
    "street": "８丁目５番１２号",
    "office_name": "財団法人　北海道薬剤師会",
    "office_name_kana": "ザイダンホウジン ホツカイドウヤクザイシカイ"
  },
  "8633": {
    "postcode": "0628633",
    "prefecture": "北海道",
    "prefecture_kana": "ホッカイドウ",
    "prefecture_code": 1,
    "city": "札幌市豊平区",
    "city_kana": "サッポロシトヨヒラク",
    "town": "水車町",
    "town_kana": "スイシャチョウ",
    "street": "５丁目１０−１０",
    "office_name": "イワクラホーム　株式会社",
    "office_name_kana": "イワクラホ-ム カブシキガイシヤ"
  },
  "8635": {
    "postcode": "0628635",
    "prefecture": "北海道",
    "prefecture_kana": "ホッカイドウ",
    "prefecture_code": 1,
    "city": "札幌市豊平区",
    "city_kana": "サッポロシトヨヒラク",
    "town": "平岸六条",
    "town_kana": "ヒラギシ6ジョウ",
    "street": "１４丁目６４８番",
    "office_name": "株式会社　ベルコ",
    "office_name_kana": "カブシキガイシヤ ベルコ"
  },
  "8641": {
    "postcode": "0628641",
    "prefecture": "北海道",
    "prefecture_kana": "ホッカイドウ",
    "prefecture_code": 1,
    "city": "札幌市豊平区",
    "city_kana": "サッポロシトヨヒラク",
    "town": "平岸五条",
    "town_kana": "ヒラギシ5ジョウ",
    "street": "８丁目２−１０イースト平岸",
    "office_name": "札幌市南部市税事務所",
    "office_name_kana": "サツポロシナンブシゼイジムシヨ"
  },
  "8642": {
    "postcode": "0628642",
    "prefecture": "北海道",
    "prefecture_kana": "ホッカイドウ",
    "prefecture_code": 1,
    "city": "札幌市豊平区",
    "city_kana": "サッポロシトヨヒラク",
    "town": "平岸三条",
    "town_kana": "ヒラギシ3ジョウ",
    "street": "２丁目１番２４号",
    "office_name": "株式会社　本の店　岩本",
    "office_name_kana": "カブシキガイシヤ ホンノミセ イワモト"
  },
  "8666": {
    "postcode": "0628666",
    "prefecture": "北海道",
    "prefecture_kana": "ホッカイドウ",
    "prefecture_code": 1,
    "city": "札幌市豊平区",
    "city_kana": "サッポロシトヨヒラク",
    "town": "美園三条",
    "town_kana": "ミソノ3ジョウ",
    "street": "６丁目３番１号",
    "office_name": "トヨタカローラ札幌　（株）",
    "office_name_kana": "トヨタカロ-ラサツポロ カブ"
  },
  "8668": {
    "postcode": "0628668",
    "prefecture": "北海道",
    "prefecture_kana": "ホッカイドウ",
    "prefecture_code": 1,
    "city": "札幌市豊平区",
    "city_kana": "サッポロシトヨヒラク",
    "town": "月寒東一条",
    "town_kana": "ツキサムヒガシ1ジョウ",
    "street": "１６丁目１−１",
    "office_name": "ヤナセオートモーティブ　株式会社　札幌支店（アウディ月寒）",
    "office_name_kana": "ヤナセオ-トモ-テイブ カブシキガイシヤ サツポロシテン(アウデイツキサム)"
  },
  "8686": {
    "postcode": "0628686",
    "prefecture": "北海道",
    "prefecture_kana": "ホッカイドウ",
    "prefecture_code": 1,
    "city": "札幌市豊平区",
    "city_kana": "サッポロシトヨヒラク",
    "town": "福住一条",
    "town_kana": "フクズミ1ジョウ",
    "street": "４丁目１３番１３号（豊平郵便局私書箱第３２号）",
    "office_name": "（株）　ＪＡ北海道情報センター",
    "office_name_kana": "(カブ) ジエイエイホツカイドウジヨウホウセンタ-"
  }
}