{
  "0000": {
    "postcode": "0700000",
    "prefecture": "北海道",
    "prefecture_kana": "ホッカイドウ",
    "prefecture_code": 1,
    "city": "旭川市",
    "city_kana": "アサヒカワシ",
    "town": "",
    "town_kana": "",
    "street": null,
    "office_name": null,
    "office_name_kana": null
  },
  "0001": {
    "postcode": "0700001",
    "prefecture": "北海道",
    "prefecture_kana": "ホッカイドウ",
    "prefecture_code": 1,
    "city": "旭川市",
    "city_kana": "アサヒカワシ",
    "town": "新富１条",
    "town_kana": "シントミ1ジョウ",
    "street": null,
    "office_name": null,
    "office_name_kana": null
  },
  "0002": {
    "postcode": "0700002",
    "prefecture": "北海道",
    "prefecture_kana": "ホッカイドウ",
    "prefecture_code": 1,
    "city": "旭川市",
    "city_kana": "アサヒカワシ",
    "town": "新富２条",
    "town_kana": "シントミ2ジョウ",
    "street": null,
    "office_name": null,
    "office_name_kana": null
  },
  "0003": {
    "postcode": "0700003",
    "prefecture": "北海道",
    "prefecture_kana": "ホッカイドウ",
    "prefecture_code": 1,
    "city": "旭川市",
    "city_kana": "アサヒカワシ",
    "town": "新富３条",
    "town_kana": "シントミ3ジョウ",
    "street": null,
    "office_name": null,
    "office_name_kana": null
  },
  "0010": {
    "postcode": "0700010",
    "prefecture": "北海道",
    "prefecture_kana": "ホッカイドウ",
    "prefecture_code": 1,
    "city": "旭川市",
    "city_kana": "アサヒカワシ",
    "town": "大雪通",
    "town_kana": "タイセツドオリ",
    "street": null,
    "office_name": null,
    "office_name_kana": null
  },
  "0011": {
    "postcode": "0700011",
    "prefecture": "北海道",
    "prefecture_kana": "ホッカイドウ",
    "prefecture_code": 1,
    "city": "旭川市",
    "city_kana": "アサヒカワシ",
    "town": "パルプ町１条",
    "town_kana": "パルプチョウ1ジョウ",
    "street": null,
    "office_name": null,
    "office_name_kana": null
  },
  "0012": {
    "postcode": "0700012",
    "prefecture": "北海道",
    "prefecture_kana": "ホッカイドウ",
    "prefecture_code": 1,
    "city": "旭川市",
    "city_kana": "アサヒカワシ",
    "town": "パルプ町２条",
    "town_kana": "パルプチョウ2ジョウ",
    "street": null,
    "office_name": null,
    "office_name_kana": null
  },
  "0013": {
    "postcode": "0700013",
    "prefecture": "北海道",
    "prefecture_kana": "ホッカイドウ",
    "prefecture_code": 1,
    "city": "旭川市",
    "city_kana": "アサヒカワシ",
    "town": "パルプ町",
    "town_kana": "パルプチョウ",
    "street": null,
    "office_name": null,
    "office_name_kana": null
  },
  "0014": {
    "postcode": "0700014",
    "prefecture": "北海道",
    "prefecture_kana": "ホッカイドウ",
    "prefecture_code": 1,
    "city": "旭川市",
    "city_kana": "アサヒカワシ",
    "town": "新星町",
    "town_kana": "シンセイチョウ",
    "street": null,
    "office_name": null,
    "office_name_kana": null
  },
  "0021": {
    "postcode": "0700021",
    "prefecture": "北海道",
    "prefecture_kana": "ホッカイドウ",
    "prefecture_code": 1,
    "city": "旭川市",
    "city_kana": "アサヒカワシ",
    "town": "東１条",
    "town_kana": "ヒガシ1ジョウ",
    "street": null,
    "office_name": null,
    "office_name_kana": null
  },
  "0022": {
    "postcode": "0700022",
    "prefecture": "北海道",
    "prefecture_kana": "ホッカイドウ",
    "prefecture_code": 1,
    "city": "旭川市",
    "city_kana": "アサヒカワシ",
    "town": "東２条",
    "town_kana": "ヒガシ2ジョウ",
    "street": null,
    "office_name": null,
    "office_name_kana": null
  },
  "0023": {
    "postcode": "0700023",
    "prefecture": "北海道",
    "prefecture_kana": "ホッカイドウ",
    "prefecture_code": 1,
    "city": "旭川市",
    "city_kana": "アサヒカワシ",
    "town": "東３条",
    "town_kana": "ヒガシ3ジョウ",
    "street": null,
    "office_name": null,
    "office_name_kana": null
  },
  "0024": {
    "postcode": "0700024",
    "prefecture": "北海道",
    "prefecture_kana": "ホッカイドウ",
    "prefecture_code": 1,
    "city": "旭川市",
    "city_kana": "アサヒカワシ",
    "town": "東４条",
    "town_kana": "ヒガシ4ジョウ",
    "street": null,
    "office_name": null,
    "office_name_kana": null
  },
  "0025": {
    "postcode": "0700025",
    "prefecture": "北海道",
    "prefecture_kana": "ホッカイドウ",
    "prefecture_code": 1,
    "city": "旭川市",
    "city_kana": "アサヒカワシ",
    "town": "東５条",
    "town_kana": "ヒガシ5ジョウ",
    "street": null,
    "office_name": null,
    "office_name_kana": null
  },
  "0026": {
    "postcode": "0700026",
    "prefecture": "北海道",
    "prefecture_kana": "ホッカイドウ",
    "prefecture_code": 1,
    "city": "旭川市",
    "city_kana": "アサヒカワシ",
    "town": "東６条",
    "town_kana": "ヒガシ6ジョウ",
    "street": null,
    "office_name": null,
    "office_name_kana": null
  },
  "0027": {
    "postcode": "0700027",
    "prefecture": "北海道",
    "prefecture_kana": "ホッカイドウ",
    "prefecture_code": 1,
    "city": "旭川市",
    "city_kana": "アサヒカワシ",
    "town": "東７条",
    "town_kana": "ヒガシ7ジョウ",
    "street": null,
    "office_name": null,
    "office_name_kana": null
  },
  "0028": {
    "postcode": "0700028",
    "prefecture": "北海道",
    "prefecture_kana": "ホッカイドウ",
    "prefecture_code": 1,
    "city": "旭川市",
    "city_kana": "アサヒカワシ",
    "town": "東８条",
    "town_kana": "ヒガシ8ジョウ",
    "street": null,
    "office_name": null,
    "office_name_kana": null
  },
  "0029": {
    "postcode": "0700029",
    "prefecture": "北海道",
    "prefecture_kana": "ホッカイドウ",
    "prefecture_code": 1,
    "city": "旭川市",
    "city_kana": "アサヒカワシ",
    "town": "金星町",
    "town_kana": "キンセイチョウ",
    "street": null,
    "office_name": null,
    "office_name_kana": null
  },
  "0030": {
    "postcode": "0700030",
    "prefecture": "北海道",
    "prefecture_kana": "ホッカイドウ",
    "prefecture_code": 1,
    "city": "旭川市",
    "city_kana": "アサヒカワシ",
    "town": "宮下通",
    "town_kana": "ミヤシタドオリ",
    "street": null,
    "office_name": null,
    "office_name_kana": null
  },
  "0031": {
    "postcode": "0700031",
    "prefecture": "北海道",
    "prefecture_kana": "ホッカイドウ",
    "prefecture_code": 1,
    "city": "旭川市",
    "city_kana": "アサヒカワシ",
    "town": "１条通",
    "town_kana": "1ジョウドオリ",
    "street": null,
    "office_name": null,
    "office_name_kana": null
  },
  "0032": {
    "postcode": "0700032",
    "prefecture": "北海道",
    "prefecture_kana": "ホッカイドウ",
    "prefecture_code": 1,
    "city": "旭川市",
    "city_kana": "アサヒカワシ",
    "town": "２条通",
    "town_kana": "2ジョウドオリ",
    "street": null,
    "office_name": null,
    "office_name_kana": null
  },
  "0033": {
    "postcode": "0700033",
    "prefecture": "北海道",
    "prefecture_kana": "ホッカイドウ",
    "prefecture_code": 1,
    "city": "旭川市",
    "city_kana": "アサヒカワシ",
    "town": "３条通",
    "town_kana": "3ジョウドオリ",
    "street": null,
    "office_name": null,
    "office_name_kana": null
  },
  "0034": {
    "postcode": "0700034",
    "prefecture": "北海道",
    "prefecture_kana": "ホッカイドウ",
    "prefecture_code": 1,
    "city": "旭川市",
    "city_kana": "アサヒカワシ",
    "town": "４条通",
    "town_kana": "4ジョウドオリ",
    "street": null,
    "office_name": null,
    "office_name_kana": null
  },
  "0035": {
    "postcode": "0700035",
    "prefecture": "北海道",
    "prefecture_kana": "ホッカイドウ",
    "prefecture_code": 1,
    "city": "旭川市",
    "city_kana": "アサヒカワシ",
    "town": "５条通",
    "town_kana": "5ジョウドオリ",
    "street": null,
    "office_name": null,
    "office_name_kana": null
  },
  "0036": {
    "postcode": "0700036",
    "prefecture": "北海道",
    "prefecture_kana": "ホッカイドウ",
    "prefecture_code": 1,
    "city": "旭川市",
    "city_kana": "アサヒカワシ",
    "town": "６条通",
    "town_kana": "6ジョウドオリ",
    "street": null,
    "office_name": null,
    "office_name_kana": null
  },
  "0037": {
    "postcode": "0700037",
    "prefecture": "北海道",
    "prefecture_kana": "ホッカイドウ",
    "prefecture_code": 1,
    "city": "旭川市",
    "city_kana": "アサヒカワシ",
    "town": "７条通",
    "town_kana": "7ジョウドオリ",
    "street": null,
    "office_name": null,
    "office_name_kana": null
  },
  "0038": {
    "postcode": "0700038",
    "prefecture": "北海道",
    "prefecture_kana": "ホッカイドウ",
    "prefecture_code": 1,
    "city": "旭川市",
    "city_kana": "アサヒカワシ",
    "town": "８条通",
    "town_kana": "8ジョウドオリ",
    "street": null,
    "office_name": null,
    "office_name_kana": null
  },
  "0039": {
    "postcode": "0700039",
    "prefecture": "北海道",
    "prefecture_kana": "ホッカイドウ",
    "prefecture_code": 1,
    "city": "旭川市",
    "city_kana": "アサヒカワシ",
    "town": "９条通",
    "town_kana": "9ジョウドオリ",
    "street": null,
    "office_name": null,
    "office_name_kana": null
  },
  "0040": {
    "postcode": "0700040",
    "prefecture": "北海道",
    "prefecture_kana": "ホッカイドウ",
    "prefecture_code": 1,
    "city": "旭川市",
    "city_kana": "アサヒカワシ",
    "town": "１０条通",
    "town_kana": "10ジョウドオリ",
    "street": null,
    "office_name": null,
    "office_name_kana": null
  },
  "0041": {
    "postcode": "0700041",
    "prefecture": "北海道",
    "prefecture_kana": "ホッカイドウ",
    "prefecture_code": 1,
    "city": "旭川市",
    "city_kana": "アサヒカワシ",
    "town": "上常盤町",
    "town_kana": "カミトキワチョウ",
    "street": null,
    "office_name": null,
    "office_name_kana": null
  },
  "0042": {
    "postcode": "0700042",
    "prefecture": "北海道",
    "prefecture_kana": "ホッカイドウ",
    "prefecture_code": 1,
    "city": "旭川市",
    "city_kana": "アサヒカワシ",
    "town": "中常盤町",
    "town_kana": "ナカトキワチョウ",
    "street": null,
    "office_name": null,
    "office_name_kana": null
  },
  "0043": {
    "postcode": "0700043",
    "prefecture": "北海道",
    "prefecture_kana": "ホッカイドウ",
    "prefecture_code": 1,
    "city": "旭川市",
    "city_kana": "アサヒカワシ",
    "town": "常盤通",
    "town_kana": "トキワドオリ",
    "street": null,
    "office_name": null,
    "office_name_kana": null
  },
  "0044": {
    "postcode": "0700044",
    "prefecture": "北海道",
    "prefecture_kana": "ホッカイドウ",
    "prefecture_code": 1,
    "city": "旭川市",
    "city_kana": "アサヒカワシ",
    "town": "常磐公園",
    "town_kana": "トキワコウエン",
    "street": null,
    "office_name": null,
    "office_name_kana": null
  },
  "0052": {
    "postcode": "0700052",
    "prefecture": "北海道",
    "prefecture_kana": "ホッカイドウ",
    "prefecture_code": 1,
    "city": "旭川市",
    "city_kana": "アサヒカワシ",
    "town": "２条西",
    "town_kana": "2ジョウニシ",
    "street": null,
    "office_name": null,
    "office_name_kana": null
  },
  "0053": {
    "postcode": "0700053",
    "prefecture": "北海道",
    "prefecture_kana": "ホッカイドウ",
    "prefecture_code": 1,
    "city": "旭川市",
    "city_kana": "アサヒカワシ",
    "town": "３条西",
    "town_kana": "3ジョウニシ",
    "street": null,
    "office_name": null,
    "office_name_kana": null
  },
  "0054": {
    "postcode": "0700054",
    "prefecture": "北海道",
    "prefecture_kana": "ホッカイドウ",
    "prefecture_code": 1,
    "city": "旭川市",
    "city_kana": "アサヒカワシ",
    "town": "４条西",
    "town_kana": "4ジョウニシ",
    "street": null,
    "office_name": null,
    "office_name_kana": null
  },
  "0055": {
    "postcode": "0700055",
    "prefecture": "北海道",
    "prefecture_kana": "ホッカイドウ",
    "prefecture_code": 1,
    "city": "旭川市",
    "city_kana": "アサヒカワシ",
    "town": "５条西",
    "town_kana": "5ジョウニシ",
    "street": null,
    "office_name": null,
    "office_name_kana": null
  },
  "0056": {
    "postcode": "0700056",
    "prefecture": "北海道",
    "prefecture_kana": "ホッカイドウ",
    "prefecture_code": 1,
    "city": "旭川市",
    "city_kana": "アサヒカワシ",
    "town": "６条西",
    "town_kana": "6ジョウニシ",
    "street": null,
    "office_name": null,
    "office_name_kana": null
  },
  "0057": {
    "postcode": "0700057",
    "prefecture": "北海道",
    "prefecture_kana": "ホッカイドウ",
    "prefecture_code": 1,
    "city": "旭川市",
    "city_kana": "アサヒカワシ",
    "town": "７条西",
    "town_kana": "7ジョウニシ",
    "street": null,
    "office_name": null,
    "office_name_kana": null
  },
  "0058": {
    "postcode": "0700058",
    "prefecture": "北海道",
    "prefecture_kana": "ホッカイドウ",
    "prefecture_code": 1,
    "city": "旭川市",
    "city_kana": "アサヒカワシ",
    "town": "８条西",
    "town_kana": "8ジョウニシ",
    "street": null,
    "office_name": null,
    "office_name_kana": null
  },
  "0059": {
    "postcode": "0700059",
    "prefecture": "北海道",
    "prefecture_kana": "ホッカイドウ",
    "prefecture_code": 1,
    "city": "旭川市",
    "city_kana": "アサヒカワシ",
    "town": "９条西",
    "town_kana": "9ジョウニシ",
    "street": null,
    "office_name": null,
    "office_name_kana": null
  },
  "0061": {
    "postcode": "0700061",
    "prefecture": "北海道",
    "prefecture_kana": "ホッカイドウ",
    "prefecture_code": 1,
    "city": "旭川市",
    "city_kana": "アサヒカワシ",
    "town": "曙１条",
    "town_kana": "アケボノ1ジョウ",
    "street": null,
    "office_name": null,
    "office_name_kana": null
  },
  "0062": {
    "postcode": "0700062",
    "prefecture": "北海道",
    "prefecture_kana": "ホッカイドウ",
    "prefecture_code": 1,
    "city": "旭川市",
    "city_kana": "アサヒカワシ",
    "town": "曙２条",
    "town_kana": "アケボノ2ジョウ",
    "street": null,
    "office_name": null,
    "office_name_kana": null
  },
  "0063": {
    "postcode": "0700063",
    "prefecture": "北海道",
    "prefecture_kana": "ホッカイドウ",
    "prefecture_code": 1,
    "city": "旭川市",
    "city_kana": "アサヒカワシ",
    "town": "曙３条",
    "town_kana": "アケボノ3ジョウ",
    "street": null,
    "office_name": null,
    "office_name_kana": null
  },
  "0072": {
    "postcode": "0700072",
    "prefecture": "北海道",
    "prefecture_kana": "ホッカイドウ",
    "prefecture_code": 1,
    "city": "旭川市",
    "city_kana": "アサヒカワシ",
    "town": "曙北２条",
    "town_kana": "アケボノキタ2ジョウ",
    "street": null,
    "office_name": null,
    "office_name_kana": null
  },
  "0073": {
    "postcode": "0700073",
    "prefecture": "北海道",
    "prefecture_kana": "ホッカイドウ",
    "prefecture_code": 1,
    "city": "旭川市",
    "city_kana": "アサヒカワシ",
    "town": "曙北３条",
    "town_kana": "アケボノキタ3ジョウ",
    "street": null,
    "office_name": null,
    "office_name_kana": null
  },
  "0081": {
    "postcode": "0700081",
    "prefecture": "北海道",
    "prefecture_kana": "ホッカイドウ",
    "prefecture_code": 1,
    "city": "旭川市",
    "city_kana": "アサヒカワシ",
    "town": "亀吉１条",
    "town_kana": "カメキチ1ジョウ",
    "street": null,
    "office_name": null,
    "office_name_kana": null
  },
  "0082": {
    "postcode": "0700082",
    "prefecture": "北海道",
    "prefecture_kana": "ホッカイドウ",
    "prefecture_code": 1,
    "city": "旭川市",
    "city_kana": "アサヒカワシ",
    "town": "亀吉２条",
    "town_kana": "カメキチ2ジョウ",
    "street": null,
    "office_name": null,
    "office_name_kana": null
  },
  "0083": {
    "postcode": "0700083",
    "prefecture": "北海道",
    "prefecture_kana": "ホッカイドウ",
    "prefecture_code": 1,
    "city": "旭川市",
    "city_kana": "アサヒカワシ",
    "town": "亀吉３条",
    "town_kana": "カメキチ3ジョウ",
    "street": null,
    "office_name": null,
    "office_name_kana": null
  },
  "0810": {
    "postcode": "0700810",
    "prefecture": "北海道",
    "prefecture_kana": "ホッカイドウ",
    "prefecture_code": 1,
    "city": "旭川市",
    "city_kana": "アサヒカワシ",
    "town": "本町",
    "town_kana": "モトマチ",
    "street": null,
    "office_name": null,
    "office_name_kana": null
  },
  "0811": {
    "postcode": "0700811",
    "prefecture": "北海道",
    "prefecture_kana": "ホッカイドウ",
    "prefecture_code": 1,
    "city": "旭川市",
    "city_kana": "アサヒカワシ",
    "town": "川端町１条",
    "town_kana": "カワバタチョウ1ジョウ",
    "street": null,
    "office_name": null,
    "office_name_kana": null
  },
  "0812": {
    "postcode": "0700812",
    "prefecture": "北海道",
    "prefecture_kana": "ホッカイドウ",
    "prefecture_code": 1,
    "city": "旭川市",
    "city_kana": "アサヒカワシ",
    "town": "川端町２条",
    "town_kana": "カワバタチョウ2ジョウ",
    "street": null,
    "office_name": null,
    "office_name_kana": null
  },
  "0813": {
    "postcode": "0700813",
    "prefecture": "北海道",
    "prefecture_kana": "ホッカイドウ",
    "prefecture_code": 1,
    "city": "旭川市",
    "city_kana": "アサヒカワシ",
    "town": "川端町３条",
    "town_kana": "カワバタチョウ3ジョウ",
    "street": null,
    "office_name": null,
    "office_name_kana": null
  },
  "0814": {
    "postcode": "0700814",
    "prefecture": "北海道",
    "prefecture_kana": "ホッカイドウ",
    "prefecture_code": 1,
    "city": "旭川市",
    "city_kana": "アサヒカワシ",
    "town": "川端町４条",
    "town_kana": "カワバタチョウ4ジョウ",
    "street": null,
    "office_name": null,
    "office_name_kana": null
  },
  "0815": {
    "postcode": "0700815",
    "prefecture": "北海道",
    "prefecture_kana": "ホッカイドウ",
    "prefecture_code": 1,
    "city": "旭川市",
    "city_kana": "アサヒカワシ",
    "town": "川端町５条",
    "town_kana": "カワバタチョウ5ジョウ",
    "street": null,
    "office_name": null,
    "office_name_kana": null
  },
  "0816": {
    "postcode": "0700816",
    "prefecture": "北海道",
    "prefecture_kana": "ホッカイドウ",
    "prefecture_code": 1,
    "city": "旭川市",
    "city_kana": "アサヒカワシ",
    "town": "川端町６条",
    "town_kana": "カワバタチョウ6ジョウ",
    "street": null,
    "office_name": null,
    "office_name_kana": null
  },
  "0817": {
    "postcode": "0700817",
    "prefecture": "北海道",
    "prefecture_kana": "ホッカイドウ",
    "prefecture_code": 1,
    "city": "旭川市",
    "city_kana": "アサヒカワシ",
    "town": "川端町７条",
    "town_kana": "カワバタチョウ7ジョウ",
    "street": null,
    "office_name": null,
    "office_name_kana": null
  },
  "0821": {
    "postcode": "0700821",
    "prefecture": "北海道",
    "prefecture_kana": "ホッカイドウ",
    "prefecture_code": 1,
    "city": "旭川市",
    "city_kana": "アサヒカワシ",
    "town": "近文町",
    "town_kana": "チカブミチョウ",
    "street": null,
    "office_name": null,
    "office_name_kana": null
  },
  "0822": {
    "postcode": "0700822",
    "prefecture": "北海道",
    "prefecture_kana": "ホッカイドウ",
    "prefecture_code": 1,
    "city": "旭川市",
    "city_kana": "アサヒカワシ",
    "town": "旭岡",
    "town_kana": "アサヒガオカ",
    "street": null,
    "office_name": null,
    "office_name_kana": null
  },
  "0823": {
    "postcode": "0700823",
    "prefecture": "北海道",
    "prefecture_kana": "ホッカイドウ",
    "prefecture_code": 1,
    "city": "旭川市",
    "city_kana": "アサヒカワシ",
    "town": "緑町",
    "town_kana": "ミドリマチ",
    "street": null,
    "office_name": null,
    "office_name_kana": null
  },
  "0824": {
    "postcode": "0700824",
    "prefecture": "北海道",
    "prefecture_kana": "ホッカイドウ",
    "prefecture_code": 1,
    "city": "旭川市",
    "city_kana": "アサヒカワシ",
    "town": "錦町",
    "town_kana": "ニシキマチ",
    "street": null,
    "office_name": null,
    "office_name_kana": null
  },
  "0825": {
    "postcode": "0700825",
    "prefecture": "北海道",
    "prefecture_kana": "ホッカイドウ",
    "prefecture_code": 1,
    "city": "旭川市",
    "city_kana": "アサヒカワシ",
    "town": "北門町",
    "town_kana": "ホクモンチョウ",
    "street": null,
    "office_name": null,
    "office_name_kana": null
  },
  "0831": {
    "postcode": "0700831",
    "prefecture": "北海道",
    "prefecture_kana": "ホッカイドウ",
    "prefecture_code": 1,
    "city": "旭川市",
    "city_kana": "アサヒカワシ",
    "town": "旭町１条",
    "town_kana": "アサヒマチ1ジョウ",
    "street": null,
    "office_name": null,
    "office_name_kana": null
  },
  "0832": {
    "postcode": "0700832",
    "prefecture": "北海道",
    "prefecture_kana": "ホッカイドウ",
    "prefecture_code": 1,
    "city": "旭川市",
    "city_kana": "アサヒカワシ",
    "town": "旭町２条",
    "town_kana": "アサヒマチ2ジョウ",
    "street": null,
    "office_name": null,
    "office_name_kana": null
  },
  "0841": {
    "postcode": "0700841",
    "prefecture": "北海道",
    "prefecture_kana": "ホッカイドウ",
    "prefecture_code": 1,
    "city": "旭川市",
    "city_kana": "アサヒカワシ",
    "town": "大町１条",
    "town_kana": "オオマチ1ジョウ",
    "street": null,
    "office_name": null,
    "office_name_kana": null
  },
  "0842": {
    "postcode": "0700842",
    "prefecture": "北海道",
    "prefecture_kana": "ホッカイドウ",
    "prefecture_code": 1,
    "city": "旭川市",
    "city_kana": "アサヒカワシ",
    "town": "大町２条",
    "town_kana": "オオマチ2ジョウ",
    "street": null,
    "office_name": null,
    "office_name_kana": null
  },
  "0843": {
    "postcode": "0700843",
    "prefecture": "北海道",
    "prefecture_kana": "ホッカイドウ",
    "prefecture_code": 1,
    "city": "旭川市",
    "city_kana": "アサヒカワシ",
    "town": "大町３条",
    "town_kana": "オオマチ3ジョウ",
    "street": null,
    "office_name": null,
    "office_name_kana": null
  },
  "0864": {
    "postcode": "0700864",
    "prefecture": "北海道",
    "prefecture_kana": "ホッカイドウ",
    "prefecture_code": 1,
    "city": "旭川市",
    "city_kana": "アサヒカワシ",
    "town": "住吉４条",
    "town_kana": "スミヨシ4ジョウ",
    "street": null,
    "office_name": null,
    "office_name_kana": null
  },
  "0865": {
    "postcode": "0700865",
    "prefecture": "北海道",
    "prefecture_kana": "ホッカイドウ",
    "prefecture_code": 1,
    "city": "旭川市",
    "city_kana": "アサヒカワシ",
    "town": "住吉５条",
    "town_kana": "スミヨシ5ジョウ",
    "street": null,
    "office_name": null,
    "office_name_kana": null
  },
  "0866": {
    "postcode": "0700866",
    "prefecture": "北海道",
    "prefecture_kana": "ホッカイドウ",
    "prefecture_code": 1,
    "city": "旭川市",
    "city_kana": "アサヒカワシ",
    "town": "住吉６条",
    "town_kana": "スミヨシ6ジョウ",
    "street": null,
    "office_name": null,
    "office_name_kana": null
  },
  "0867": {
    "postcode": "0700867",
    "prefecture": "北海道",
    "prefecture_kana": "ホッカイドウ",
    "prefecture_code": 1,
    "city": "旭川市",
    "city_kana": "アサヒカワシ",
    "town": "住吉７条",
    "town_kana": "スミヨシ7ジョウ",
    "street": null,
    "office_name": null,
    "office_name_kana": null
  },
  "0871": {
    "postcode": "0700871",
    "prefecture": "北海道",
    "prefecture_kana": "ホッカイドウ",
    "prefecture_code": 1,
    "city": "旭川市",
    "city_kana": "アサヒカワシ",
    "town": "春光１条",
    "town_kana": "シュンコウ1ジョウ",
    "street": null,
    "office_name": null,
    "office_name_kana": null
  },
  "0872": {
    "postcode": "0700872",
    "prefecture": "北海道",
    "prefecture_kana": "ホッカイドウ",
    "prefecture_code": 1,
    "city": "旭川市",
    "city_kana": "アサヒカワシ",
    "town": "春光２条",
    "town_kana": "シュンコウ2ジョウ",
    "street": null,
    "office_name": null,
    "office_name_kana": null
  },
  "0873": {
    "postcode": "0700873",
    "prefecture": "北海道",
    "prefecture_kana": "ホッカイドウ",
    "prefecture_code": 1,
    "city": "旭川市",
    "city_kana": "アサヒカワシ",
    "town": "春光３条",
    "town_kana": "シュンコウ3ジョウ",
    "street": null,
    "office_name": null,
    "office_name_kana": null
  },
  "0874": {
    "postcode": "0700874",
    "prefecture": "北海道",
    "prefecture_kana": "ホッカイドウ",
    "prefecture_code": 1,
    "city": "旭川市",
    "city_kana": "アサヒカワシ",
    "town": "春光４条",
    "town_kana": "シュンコウ4ジョウ",
    "street": null,
    "office_name": null,
    "office_name_kana": null
  },
  "0875": {
    "postcode": "0700875",
    "prefecture": "北海道",
    "prefecture_kana": "ホッカイドウ",
    "prefecture_code": 1,
    "city": "旭川市",
    "city_kana": "アサヒカワシ",
    "town": "春光５条",
    "town_kana": "シュンコウ5ジョウ",
    "street": null,
    "office_name": null,
    "office_name_kana": null
  },
  "0876": {
    "postcode": "0700876",
    "prefecture": "北海道",
    "prefecture_kana": "ホッカイドウ",
    "prefecture_code": 1,
    "city": "旭川市",
    "city_kana": "アサヒカワシ",
    "town": "春光６条",
    "town_kana": "シュンコウ6ジョウ",
    "street": null,
    "office_name": null,
    "office_name_kana": null
  },
  "0877": {
    "postcode": "0700877",
    "prefecture": "北海道",
    "prefecture_kana": "ホッカイドウ",
    "prefecture_code": 1,
    "city": "旭川市",
    "city_kana": "アサヒカワシ",
    "town": "春光７条",
    "town_kana": "シュンコウ7ジョウ",
    "street": null,
    "office_name": null,
    "office_name_kana": null
  },
  "0901": {
    "postcode": "0700901",
    "prefecture": "北海道",
    "prefecture_kana": "ホッカイドウ",
    "prefecture_code": 1,
    "city": "旭川市",
    "city_kana": "アサヒカワシ",
    "town": "花咲町",
    "town_kana": "ハナサキチョウ",
    "street": null,
    "office_name": null,
    "office_name_kana": null
  },
  "0902": {
    "postcode": "0700902",
    "prefecture": "北海道",
    "prefecture_kana": "ホッカイドウ",
    "prefecture_code": 1,
    "city": "旭川市",
    "city_kana": "アサヒカワシ",
    "town": "春光町",
    "town_kana": "シュンコウチョウ",
    "street": null,
    "office_name": null,
    "office_name_kana": null
  },
  "0971": {
    "postcode": "0700971",
    "prefecture": "北海道",
    "prefecture_kana": "ホッカイドウ",
    "prefecture_code": 1,
    "city": "旭川市",
    "city_kana": "アサヒカワシ",
    "town": "４区１条",
    "town_kana": "4ク1ジョウ",
    "street": null,
    "office_name": null,
    "office_name_kana": null
  },
  "0972": {
    "postcode": "0700972",
    "prefecture": "北海道",
    "prefecture_kana": "ホッカイドウ",
    "prefecture_code": 1,
    "city": "旭川市",
    "city_kana": "アサヒカワシ",
    "town": "４区２条",
    "town_kana": "4ク2ジョウ",
    "street": null,
    "office_name": null,
    "office_name_kana": null
  },
  "0973": {
    "postcode": "0700973",
    "prefecture": "北海道",
    "prefecture_kana": "ホッカイドウ",
    "prefecture_code": 1,
    "city": "旭川市",
    "city_kana": "アサヒカワシ",
    "town": "４区３条",
    "town_kana": "4ク3ジョウ",
    "street": null,
    "office_name": null,
    "office_name_kana": null
  },
  "8001": {
    "postcode": "0708001",
    "prefecture": "北海道",
    "prefecture_kana": "ホッカイドウ",
    "prefecture_code": 1,
    "city": "旭川市",
    "city_kana": "アサヒカワシ",
    "town": "神楽１条",
    "town_kana": "カグラ1ジョウ",
    "street": null,
    "office_name": null,
    "office_name_kana": null
  },
  "8002": {
    "postcode": "0708002",
    "prefecture": "北海道",
    "prefecture_kana": "ホッカイドウ",
    "prefecture_code": 1,
    "city": "旭川市",
    "city_kana": "アサヒカワシ",
    "town": "神楽２条",
    "town_kana": "カグラ2ジョウ",
    "street": null,
    "office_name": null,
    "office_name_kana": null
  },
  "8003": {
    "postcode": "0708003",
    "prefecture": "北海道",
    "prefecture_kana": "ホッカイドウ",
    "prefecture_code": 1,
    "city": "旭川市",
    "city_kana": "アサヒカワシ",
    "town": "神楽３条",
    "town_kana": "カグラ3ジョウ",
    "street": null,
    "office_name": null,
    "office_name_kana": null
  },
  "8004": {
    "postcode": "0708004",
    "prefecture": "北海道",
    "prefecture_kana": "ホッカイドウ",
    "prefecture_code": 1,
    "city": "旭川市",
    "city_kana": "アサヒカワシ",
    "town": "神楽４条",
    "town_kana": "カグラ4ジョウ",
    "street": null,
    "office_name": null,
    "office_name_kana": null
  },
  "8005": {
    "postcode": "0708005",
    "prefecture": "北海道",
    "prefecture_kana": "ホッカイドウ",
    "prefecture_code": 1,
    "city": "旭川市",
    "city_kana": "アサヒカワシ",
    "town": "神楽５条",
    "town_kana": "カグラ5ジョウ",
    "street": null,
    "office_name": null,
    "office_name_kana": null
  },
  "8006": {
    "postcode": "0708006",
    "prefecture": "北海道",
    "prefecture_kana": "ホッカイドウ",
    "prefecture_code": 1,
    "city": "旭川市",
    "city_kana": "アサヒカワシ",
    "town": "神楽６条",
    "town_kana": "カグラ6ジョウ",
    "street": null,
    "office_name": null,
    "office_name_kana": null
  },
  "8007": {
    "postcode": "0708007",
    "prefecture": "北海道",
    "prefecture_kana": "ホッカイドウ",
    "prefecture_code": 1,
    "city": "旭川市",
    "city_kana": "アサヒカワシ",
    "town": "神楽７条",
    "town_kana": "カグラ7ジョウ",
    "street": null,
    "office_name": null,
    "office_name_kana": null
  },
  "8011": {
    "postcode": "0708011",
    "prefecture": "北海道",
    "prefecture_kana": "ホッカイドウ",
    "prefecture_code": 1,
    "city": "旭川市",
    "city_kana": "アサヒカワシ",
    "town": "神居１条",
    "town_kana": "カムイ1ジョウ",
    "street": null,
    "office_name": null,
    "office_name_kana": null
  },
  "8012": {
    "postcode": "0708012",
    "prefecture": "北海道",
    "prefecture_kana": "ホッカイドウ",
    "prefecture_code": 1,
    "city": "旭川市",
    "city_kana": "アサヒカワシ",
    "town": "神居２条",
    "town_kana": "カムイ2ジョウ",
    "street": null,
    "office_name": null,
    "office_name_kana": null
  },
  "8013": {
    "postcode": "0708013",
    "prefecture": "北海道",
    "prefecture_kana": "ホッカイドウ",
    "prefecture_code": 1,
    "city": "旭川市",
    "city_kana": "アサヒカワシ",
    "town": "神居３条",
    "town_kana": "カムイ3ジョウ",
    "street": null,
    "office_name": null,
    "office_name_kana": null
  },
  "8014": {
    "postcode": "0708014",
    "prefecture": "北海道",
    "prefecture_kana": "ホッカイドウ",
    "prefecture_code": 1,
    "city": "旭川市",
    "city_kana": "アサヒカワシ",
    "town": "神居４条",
    "town_kana": "カムイ4ジョウ",
    "street": null,
    "office_name": null,
    "office_name_kana": null
  },
  "8015": {
    "postcode": "0708015",
    "prefecture": "北海道",
    "prefecture_kana": "ホッカイドウ",
    "prefecture_code": 1,
    "city": "旭川市",
    "city_kana": "アサヒカワシ",
    "town": "神居５条",
    "town_kana": "カムイ5ジョウ",
    "street": null,
    "office_name": null,
    "office_name_kana": null
  },
  "8016": {
    "postcode": "0708016",
    "prefecture": "北海道",
    "prefecture_kana": "ホッカイドウ",
    "prefecture_code": 1,
    "city": "旭川市",
    "city_kana": "アサヒカワシ",
    "town": "神居６条",
    "town_kana": "カムイ6ジョウ",
    "street": null,
    "office_name": null,
    "office_name_kana": null
  },
  "8017": {
    "postcode": "0708017",
    "prefecture": "北海道",
    "prefecture_kana": "ホッカイドウ",
    "prefecture_code": 1,
    "city": "旭川市",
    "city_kana": "アサヒカワシ",
    "town": "神居７条",
    "town_kana": "カムイ7ジョウ",
    "street": null,
    "office_name": null,
    "office_name_kana": null
  },
  "8018": {
    "postcode": "0708018",
    "prefecture": "北海道",
    "prefecture_kana": "ホッカイドウ",
    "prefecture_code": 1,
    "city": "旭川市",
    "city_kana": "アサヒカワシ",
    "town": "神居８条",
    "town_kana": "カムイ8ジョウ",
    "street": null,
    "office_name": null,
    "office_name_kana": null
  },
  "8019": {
    "postcode": "0708019",
    "prefecture": "北海道",
    "prefecture_kana": "ホッカイドウ",
    "prefecture_code": 1,
    "city": "旭川市",
    "city_kana": "アサヒカワシ",
    "town": "神居９条",
    "town_kana": "カムイ9ジョウ",
    "street": null,
    "office_name": null,
    "office_name_kana": null
  },
  "8021": {
    "postcode": "0708021",
    "prefecture": "北海道",
    "prefecture_kana": "ホッカイドウ",
    "prefecture_code": 1,
    "city": "旭川市",
    "city_kana": "アサヒカワシ",
    "town": "神居町忠和",
    "town_kana": "カムイチョウチュウワ",
    "street": null,
    "office_name": null,
    "office_name_kana": null
  },
  "8022": {
    "postcode": "0708022",
    "prefecture": "北海道",
    "prefecture_kana": "ホッカイドウ",
    "prefecture_code": 1,
    "city": "旭川市",
    "city_kana": "アサヒカワシ",
    "town": "神居町台場",
    "town_kana": "カムイチョウダイバ",
    "street": null,
    "office_name": null,
    "office_name_kana": null
  },
  "8023": {
    "postcode": "0708023",
    "prefecture": "北海道",
    "prefecture_kana": "ホッカイドウ",
    "prefecture_code": 1,
    "city": "旭川市",
    "city_kana": "アサヒカワシ",
    "town": "神居町春志内",
    "town_kana": "カムイチョウハルシナイ",
    "street": null,
    "office_name": null,
    "office_name_kana": null
  },
  "8024": {
    "postcode": "0708024",
    "prefecture": "北海道",
    "prefecture_kana": "ホッカイドウ",
    "prefecture_code": 1,
    "city": "旭川市",
    "city_kana": "アサヒカワシ",
    "town": "神居町富沢",
    "town_kana": "カムイチョウトミサワ",
    "street": null,
    "office_name": null,
    "office_name_kana": null
  },
  "8025": {
    "postcode": "0708025",
    "prefecture": "北海道",
    "prefecture_kana": "ホッカイドウ",
    "prefecture_code": 1,
    "city": "旭川市",
    "city_kana": "アサヒカワシ",
    "town": "神居町富岡",
    "town_kana": "カムイチョウトミオカ",
    "street": null,
    "office_name": null,
    "office_name_kana": null
  },
  "8026": {
    "postcode": "0708026",
    "prefecture": "北海道",
    "prefecture_kana": "ホッカイドウ",
    "prefecture_code": 1,
    "city": "旭川市",
    "city_kana": "アサヒカワシ",
    "town": "神居町神岡",
    "town_kana": "カムイチョウカミオカ",
    "street": null,
    "office_name": null,
    "office_name_kana": null
  },
  "8027": {
    "postcode": "0708027",
    "prefecture": "北海道",
    "prefecture_kana": "ホッカイドウ",
    "prefecture_code": 1,
    "city": "旭川市",
    "city_kana": "アサヒカワシ",
    "town": "台場東",
    "town_kana": "ダイバヒガシ",
    "street": null,
    "office_name": null,
    "office_name_kana": null
  },
  "8028": {
    "postcode": "0708028",
    "prefecture": "北海道",
    "prefecture_kana": "ホッカイドウ",
    "prefecture_code": 1,
    "city": "旭川市",
    "city_kana": "アサヒカワシ",
    "town": "南が丘",
    "town_kana": "ミナミガオカ",
    "street": null,
    "office_name": null,
    "office_name_kana": null
  },
  "8031": {
    "postcode": "0708031",
    "prefecture": "北海道",
    "prefecture_kana": "ホッカイドウ",
    "prefecture_code": 1,
    "city": "旭川市",
    "city_kana": "アサヒカワシ",
    "town": "神居町神華",
    "town_kana": "カムイチョウシンカ",
    "street": null,
    "office_name": null,
    "office_name_kana": null
  },
  "8032": {
    "postcode": "0708032",
    "prefecture": "北海道",
    "prefecture_kana": "ホッカイドウ",
    "prefecture_code": 1,
    "city": "旭川市",
    "city_kana": "アサヒカワシ",
    "town": "神居町共栄",
    "town_kana": "カムイチョウキョウエイ",
    "street": null,
    "office_name": null,
    "office_name_kana": null
  },
  "8033": {
    "postcode": "0708033",
    "prefecture": "北海道",
    "prefecture_kana": "ホッカイドウ",
    "prefecture_code": 1,
    "city": "旭川市",
    "city_kana": "アサヒカワシ",
    "town": "神居町雨紛",
    "town_kana": "カムイチョウウブン",
    "street": null,
    "office_name": null,
    "office_name_kana": null
  },
  "8034": {
    "postcode": "0708034",
    "prefecture": "北海道",
    "prefecture_kana": "ホッカイドウ",
    "prefecture_code": 1,
    "city": "旭川市",
    "city_kana": "アサヒカワシ",
    "town": "神居町上雨紛",
    "town_kana": "カムイチョウカミウブン",
    "street": null,
    "office_name": null,
    "office_name_kana": null
  },
  "8041": {
    "postcode": "0708041",
    "prefecture": "北海道",
    "prefecture_kana": "ホッカイドウ",
    "prefecture_code": 1,
    "city": "旭川市",
    "city_kana": "アサヒカワシ",
    "town": "忠和１条",
    "town_kana": "チュウワ1ジョウ",
    "street": null,
    "office_name": null,
    "office_name_kana": null
  },
  "8042": {
    "postcode": "0708042",
    "prefecture": "北海道",
    "prefecture_kana": "ホッカイドウ",
    "prefecture_code": 1,
    "city": "旭川市",
    "city_kana": "アサヒカワシ",
    "town": "忠和２条",
    "town_kana": "チュウワ2ジョウ",
    "street": null,
    "office_name": null,
    "office_name_kana": null
  },
  "8043": {
    "postcode": "0708043",
    "prefecture": "北海道",
    "prefecture_kana": "ホッカイドウ",
    "prefecture_code": 1,
    "city": "旭川市",
    "city_kana": "アサヒカワシ",
    "town": "忠和３条",
    "town_kana": "チュウワ3ジョウ",
    "street": null,
    "office_name": null,
    "office_name_kana": null
  },
  "8044": {
    "postcode": "0708044",
    "prefecture": "北海道",
    "prefecture_kana": "ホッカイドウ",
    "prefecture_code": 1,
    "city": "旭川市",
    "city_kana": "アサヒカワシ",
    "town": "忠和４条",
    "town_kana": "チュウワ4ジョウ",
    "street": null,
    "office_name": null,
    "office_name_kana": null
  },
  "8045": {
    "postcode": "0708045",
    "prefecture": "北海道",
    "prefecture_kana": "ホッカイドウ",
    "prefecture_code": 1,
    "city": "旭川市",
    "city_kana": "アサヒカワシ",
    "town": "忠和５条",
    "town_kana": "チュウワ5ジョウ",
    "street": null,
    "office_name": null,
    "office_name_kana": null
  },
  "8046": {
    "postcode": "0708046",
    "prefecture": "北海道",
    "prefecture_kana": "ホッカイドウ",
    "prefecture_code": 1,
    "city": "旭川市",
    "city_kana": "アサヒカワシ",
    "town": "忠和６条",
    "town_kana": "チュウワ6ジョウ",
    "street": null,
    "office_name": null,
    "office_name_kana": null
  },
  "8047": {
    "postcode": "0708047",
    "prefecture": "北海道",
    "prefecture_kana": "ホッカイドウ",
    "prefecture_code": 1,
    "city": "旭川市",
    "city_kana": "アサヒカワシ",
    "town": "忠和７条",
    "town_kana": "チュウワ7ジョウ",
    "street": null,
    "office_name": null,
    "office_name_kana": null
  },
  "8048": {
    "postcode": "0708048",
    "prefecture": "北海道",
    "prefecture_kana": "ホッカイドウ",
    "prefecture_code": 1,
    "city": "旭川市",
    "city_kana": "アサヒカワシ",
    "town": "忠和８条",
    "town_kana": "チュウワ8ジョウ",
    "street": null,
    "office_name": null,
    "office_name_kana": null
  },
  "8049": {
    "postcode": "0708049",
    "prefecture": "北海道",
    "prefecture_kana": "ホッカイドウ",
    "prefecture_code": 1,
    "city": "旭川市",
    "city_kana": "アサヒカワシ",
    "town": "忠和９条",
    "town_kana": "チュウワ9ジョウ",
    "street": null,
    "office_name": null,
    "office_name_kana": null
  },
  "8051": {
    "postcode": "0708051",
    "prefecture": "北海道",
    "prefecture_kana": "ホッカイドウ",
    "prefecture_code": 1,
    "city": "旭川市",
    "city_kana": "アサヒカワシ",
    "town": "江丹別町嵐山",
    "town_kana": "エタンベツチョウアラシヤマ",
    "street": null,
    "office_name": null,
    "office_name_kana": null
  },
  "8052": {
    "postcode": "0708052",
    "prefecture": "北海道",
    "prefecture_kana": "ホッカイドウ",
    "prefecture_code": 1,
    "city": "旭川市",
    "city_kana": "アサヒカワシ",
    "town": "江丹別町春日",
    "town_kana": "エタンベツチョウカスガ",
    "street": null,
    "office_name": null,
    "office_name_kana": null
  },
  "8053": {
    "postcode": "0708053",
    "prefecture": "北海道",
    "prefecture_kana": "ホッカイドウ",
    "prefecture_code": 1,
    "city": "旭川市",
    "city_kana": "アサヒカワシ",
    "town": "江丹別町共和",
    "town_kana": "エタンベツチョウキョウワ",
    "street": null,
    "office_name": null,
    "office_name_kana": null
  },
  "8061": {
    "postcode": "0708061",
    "prefecture": "北海道",
    "prefecture_kana": "ホッカイドウ",
    "prefecture_code": 1,
    "city": "旭川市",
    "city_kana": "アサヒカワシ",
    "town": "高砂台",
    "town_kana": "タカサゴダイ",
    "street": null,
    "office_name": null,
    "office_name_kana": null
  },
  "8071": {
    "postcode": "0708071",
    "prefecture": "北海道",
    "prefecture_kana": "ホッカイドウ",
    "prefecture_code": 1,
    "city": "旭川市",
    "city_kana": "アサヒカワシ",
    "town": "台場１条",
    "town_kana": "ダイバ1ジョウ",
    "street": null,
    "office_name": null,
    "office_name_kana": null
  },
  "8072": {
    "postcode": "0708072",
    "prefecture": "北海道",
    "prefecture_kana": "ホッカイドウ",
    "prefecture_code": 1,
    "city": "旭川市",
    "city_kana": "アサヒカワシ",
    "town": "台場２条",
    "town_kana": "ダイバ2ジョウ",
    "street": null,
    "office_name": null,
    "office_name_kana": null
  },
  "8073": {
    "postcode": "0708073",
    "prefecture": "北海道",
    "prefecture_kana": "ホッカイドウ",
    "prefecture_code": 1,
    "city": "旭川市",
    "city_kana": "アサヒカワシ",
    "town": "台場３条",
    "town_kana": "ダイバ3ジョウ",
    "street": null,
    "office_name": null,
    "office_name_kana": null
  },
  "8074": {
    "postcode": "0708074",
    "prefecture": "北海道",
    "prefecture_kana": "ホッカイドウ",
    "prefecture_code": 1,
    "city": "旭川市",
    "city_kana": "アサヒカワシ",
    "town": "台場４条",
    "town_kana": "ダイバ4ジョウ",
    "street": null,
    "office_name": null,
    "office_name_kana": null
  },
  "8502": {
    "postcode": "0708502",
    "prefecture": "北海道",
    "prefecture_kana": "ホッカイドウ",
    "prefecture_code": 1,
    "city": "旭川市",
    "city_kana": "アサヒカワシ",
    "town": "宮下通",
    "town_kana": "ミヤシタドオリ",
    "street": "１０丁目",
    "office_name": "株式会社　湯浅",
    "office_name_kana": "カブシキガイシヤ ユアサ"
  },
  "8503": {
    "postcode": "0708503",
    "prefecture": "北海道",
    "prefecture_kana": "ホッカイドウ",
    "prefecture_code": 1,
    "city": "旭川市",
    "city_kana": "アサヒカワシ",
    "town": "三条通",
    "town_kana": "3ジョウドオリ",
    "street": "１５丁目右１号",
    "office_name": "株式会社　丸善三番館",
    "office_name_kana": "カブシキガイシヤ マルゼンサンバンカン"
  },
  "8505": {
    "postcode": "0708505",
    "prefecture": "北海道",
    "prefecture_kana": "ホッカイドウ",
    "prefecture_code": 1,
    "city": "旭川市",
    "city_kana": "アサヒカワシ",
    "town": "宮下通",
    "town_kana": "ミヤシタドオリ",
    "street": "２丁目１９５４番地２号",
    "office_name": "日本年金機構　旭川年金事務所",
    "office_name_kana": "ニツポンネンキンキコウ アサヒカワネンキンジムシヨ"
  },
  "8507": {
    "postcode": "0708507",
    "prefecture": "北海道",
    "prefecture_kana": "ホッカイドウ",
    "prefecture_code": 1,
    "city": "旭川市",
    "city_kana": "アサヒカワシ",
    "town": "一条通",
    "town_kana": "1ジョウドオリ",
    "street": "８丁目右１号",
    "office_name": "株式会社　そごう・西武　西武旭川店",
    "office_name_kana": "カブシキカイシヤ ソゴウ・セイブ セイブアサヒカワテン"
  },
  "8510": {
    "postcode": "0708510",
    "prefecture": "北海道",
    "prefecture_kana": "ホッカイドウ",
    "prefecture_code": 1,
    "city": "旭川市",
    "city_kana": "アサヒカワシ",
    "town": "五条通",
    "town_kana": "5ジョウドオリ",
    "street": "８丁目ＮＴＴ５条ビル",
    "office_name": "（株）　ＮＴＴ東日本北海道　１１６旭川センター",
    "office_name_kana": "カブシキガイシヤ エヌテイテイヒガシニホンホツカイドウ イチイチロクアサヒカワセンタ-"
  },
  "8515": {
    "postcode": "0708515",
    "prefecture": "北海道",
    "prefecture_kana": "ホッカイドウ",
    "prefecture_code": 1,
    "city": "旭川市",
    "city_kana": "アサヒカワシ",
    "town": "四条通",
    "town_kana": "4ジョウドオリ",
    "street": "１６丁目左６",
    "office_name": "旭川ガス　（株）",
    "office_name_kana": "アサヒカワガス カブシキガイシヤ"
  },
  "8520": {
    "postcode": "0708520",
    "prefecture": "北海道",
    "prefecture_kana": "ホッカイドウ",
    "prefecture_code": 1,
    "city": "旭川市",
    "city_kana": "アサヒカワシ",
    "town": "十条通",
    "town_kana": "10ジョウドオリ",
    "street": "１０丁目ＮＴＴ１０条ビル",
    "office_name": "（株）　ＮＴＴ東日本北海道　旭川支店",
    "office_name_kana": "カブシキガイシヤ エヌテイテイヒガシニホンホツカイドウ アサヒカワシテン"
  },
  "8521": {
    "postcode": "0708521",
    "prefecture": "北海道",
    "prefecture_kana": "ホッカイドウ",
    "prefecture_code": 1,
    "city": "旭川市",
    "city_kana": "アサヒカワシ",
    "town": "六条通",
    "town_kana": "6ジョウドオリ",
    "street": "１０丁目",
    "office_name": "旭川中央警察署",
    "office_name_kana": "アサヒカワチユウオウケイサツシヨ"
  },
  "8525": {
    "postcode": "0708525",
    "prefecture": "北海道",
    "prefecture_kana": "ホッカイドウ",
    "prefecture_code": 1,
    "city": "旭川市",
    "city_kana": "アサヒカワシ",
    "town": "七条通",
    "town_kana": "7ジョウドオリ",
    "street": "９丁目４８番地",
    "office_name": "旭川市役所",
    "office_name_kana": "アサヒカワシヤクシヨ"
  },
  "8530": {
    "postcode": "0708530",
    "prefecture": "北海道",
    "prefecture_kana": "ホッカイドウ",
    "prefecture_code": 1,
    "city": "旭川市",
    "city_kana": "アサヒカワシ",
    "town": "曙一条",
    "town_kana": "アケボノ1ジョウ",
    "street": "１丁目",
    "office_name": "総合病院　旭川赤十字病院",
    "office_name_kana": "ソウゴウビヨウイン アサヒカワセキジユウジビヨウイン"
  },
  "8540": {
    "postcode": "0708540",
    "prefecture": "北海道",
    "prefecture_kana": "ホッカイドウ",
    "prefecture_code": 1,
    "city": "旭川市",
    "city_kana": "アサヒカワシ",
    "town": "常盤通",
    "town_kana": "トキワドオリ",
    "street": "１丁目",
    "office_name": "旭川商工会議所",
    "office_name_kana": "アサヒカワシヨウコウカイギシヨ"
  },
  "8541": {
    "postcode": "0708541",
    "prefecture": "北海道",
    "prefecture_kana": "ホッカイドウ",
    "prefecture_code": 1,
    "city": "旭川市",
    "city_kana": "アサヒカワシ",
    "town": "上常盤町",
    "town_kana": "カミトキワチョウ",
    "street": "１丁目",
    "office_name": "旭川市水道局",
    "office_name_kana": "アサヒカワシスイドウキヨク"
  },
  "8550": {
    "postcode": "0708550",
    "prefecture": "北海道",
    "prefecture_kana": "ホッカイドウ",
    "prefecture_code": 1,
    "city": "旭川市",
    "city_kana": "アサヒカワシ",
    "town": "神楽三条",
    "town_kana": "カグラ3ジョウ",
    "street": "５丁目３番１１号",
    "office_name": "北海道森林管理局　旭川事務所",
    "office_name_kana": "ホツカイドウシンリンカンリキヨク アサヒカワジムシヨ"
  },
  "8560": {
    "postcode": "0708560",
    "prefecture": "北海道",
    "prefecture_kana": "ホッカイドウ",
    "prefecture_code": 1,
    "city": "旭川市",
    "city_kana": "アサヒカワシ",
    "town": "神居八条",
    "town_kana": "カムイ8ジョウ",
    "street": "１丁目１番２７号",
    "office_name": "旭川トヨペット　株式会社",
    "office_name_kana": "アサヒカワトヨペツト カブシキカイシヤ"
  },
  "8567": {
    "postcode": "0708567",
    "prefecture": "北海道",
    "prefecture_kana": "ホッカイドウ",
    "prefecture_code": 1,
    "city": "旭川市",
    "city_kana": "アサヒカワシ",
    "town": "南が丘",
    "town_kana": "ミナミガオカ",
    "street": "３丁目１番１号",
    "office_name": "（株）　北海道伝統美術工芸村",
    "office_name_kana": "カブシキガイシヤ ホツカイドウデントウビジユツコウゲイムラ"
  },
  "8601": {
    "postcode": "0708601",
    "prefecture": "北海道",
    "prefecture_kana": "ホッカイドウ",
    "prefecture_code": 1,
    "city": "旭川市",
    "city_kana": "アサヒカワシ",
    "town": "神居町忠和",
    "town_kana": "カムイチョウチュウワ",
    "street": "２２４番地",
    "office_name": "北海道東海大学　旭川校舎",
    "office_name_kana": "ホツカイドウトウカイダイガク アサヒカワコウシヤ"
  },
  "8610": {
    "postcode": "0708610",
    "prefecture": "北海道",
    "prefecture_kana": "ホッカイドウ",
    "prefecture_code": 1,
    "city": "旭川市",
    "city_kana": "アサヒカワシ",
    "town": "金星町",
    "town_kana": "キンセイチョウ",
    "street": "１丁目１番６５号",
    "office_name": "市立旭川病院",
    "office_name_kana": "シリツアサヒカワビヨウイン"
  },
  "8611": {
    "postcode": "0708611",
    "prefecture": "北海道",
    "prefecture_kana": "ホッカイドウ",
    "prefecture_code": 1,
    "city": "旭川市",
    "city_kana": "アサヒカワシ",
    "town": "パルプ町",
    "town_kana": "パルプチョウ",
    "street": "５０５番地１",
    "office_name": "日本製紙　株式会社　旭川工場",
    "office_name_kana": "ニツポンセイシ カブシキカイシヤ アサヒカワコウジヨウ"
  },
  "8612": {
    "postcode": "0708612",
    "prefecture": "北海道",
    "prefecture_kana": "ホッカイドウ",
    "prefecture_code": 1,
    "city": "旭川市",
    "city_kana": "アサヒカワシ",
    "town": "東七条",
    "town_kana": "ヒガシ7ジョウ",
    "street": "３丁目２番１１号",
    "office_name": "株式会社　アーバンライフ　建築総合研究所",
    "office_name_kana": "カブシキガイシヤ ア-バンライフ ケンチクソウゴウケンキユウシヨ"
  },
  "8616": {
    "postcode": "0708616",
    "prefecture": "北海道",
    "prefecture_kana": "ホッカイドウ",
    "prefecture_code": 1,
    "city": "旭川市",
    "city_kana": "アサヒカワシ",
    "town": "東三条",
    "town_kana": "ヒガシ3ジョウ",
    "street": "５丁目１−４４",
    "office_name": "北海道旭川土木現業所",
    "office_name_kana": "ホツカイドウアサヒカワドボクゲンギヨウシヨ"
  },
  "8621": {
    "postcode": "0708621",
    "prefecture": "北海道",
    "prefecture_kana": "ホッカイドウ",
    "prefecture_code": 1,
    "city": "旭川市",
    "city_kana": "アサヒカワシ",
    "town": "北門町",
    "town_kana": "ホクモンチョウ",
    "street": "９丁目",
    "office_name": "北海道教育大学　教育学部　旭川校",
    "office_name_kana": "ホツカイドウキヨウイクダイガク キヨウイクガクブ アサヒカワコウ"
  },
  "8630": {
    "postcode": "0708630",
    "prefecture": "北海道",
    "prefecture_kana": "ホッカイドウ",
    "prefecture_code": 1,
    "city": "旭川市",
    "city_kana": "アサヒカワシ",
    "town": "春光町",
    "town_kana": "シュンコウチョウ",
    "street": "国有無番地",
    "office_name": "陸上自衛隊　旭川駐屯地",
    "office_name_kana": "リクジヨウジエイタイ アサヒカワチユウトンチ"
  },
  "8636": {
    "postcode": "0708636",
    "prefecture": "北海道",
    "prefecture_kana": "ホッカイドウ",
    "prefecture_code": 1,
    "city": "旭川市",
    "city_kana": "アサヒカワシ",
    "town": "花咲町",
    "town_kana": "ハナサキチョウ",
    "street": "４丁目２２７２−１５",
    "office_name": "旭川地方検察庁",
    "office_name_kana": "アサヒカワチホウケンサツチヨウ"
  },
  "8639": {
    "postcode": "0708639",
    "prefecture": "北海道",
    "prefecture_kana": "ホッカイドウ",
    "prefecture_code": 1,
    "city": "旭川市",
    "city_kana": "アサヒカワシ",
    "town": "春光町",
    "town_kana": "シュンコウチョウ",
    "street": "１０番地",
    "office_name": "イオン北海道　株式会社　イオン旭川春光店",
    "office_name_kana": "イオンホツカイドウ カブシキガイシヤ イオンアサヒカワシユンコウテン"
  },
  "8640": {
    "postcode": "0708640",
    "prefecture": "北海道",
    "prefecture_kana": "ホッカイドウ",
    "prefecture_code": 1,
    "city": "旭川市",
    "city_kana": "アサヒカワシ",
    "town": "花咲町",
    "town_kana": "ハナサキチョウ",
    "street": "４丁目２２７２−１６",
    "office_name": "旭川地方裁判所",
    "office_name_kana": "アサヒカワチホウサイバンシヨ"
  },
  "8641": {
    "postcode": "0708641",
    "prefecture": "北海道",
    "prefecture_kana": "ホッカイドウ",
    "prefecture_code": 1,
    "city": "旭川市",
    "city_kana": "アサヒカワシ",
    "town": "花咲町",
    "town_kana": "ハナサキチョウ",
    "street": "４丁目２２７２−１６",
    "office_name": "旭川家庭裁判所",
    "office_name_kana": "アサヒカワカテイサイバンシヨ"
  },
  "8642": {
    "postcode": "0708642",
    "prefecture": "北海道",
    "prefecture_kana": "ホッカイドウ",
    "prefecture_code": 1,
    "city": "旭川市",
    "city_kana": "アサヒカワシ",
    "town": "花咲町",
    "town_kana": "ハナサキチョウ",
    "street": "４丁目２２７２−１６",
    "office_name": "旭川簡易裁判所",
    "office_name_kana": "アサヒカワカンイサイバンシヨ"
  },
  "8644": {
    "postcode": "0708644",
    "prefecture": "北海道",
    "prefecture_kana": "ホッカイドウ",
    "prefecture_code": 1,
    "city": "旭川市",
    "city_kana": "アサヒカワシ",
    "town": "花咲町",
    "town_kana": "ハナサキチョウ",
    "street": "７丁目４０４８番地",
    "office_name": "独立行政法人　国立病院機構　旭川医療センター",
    "office_name_kana": "ドクリツギヨウセイホウジン コクリツビヨウインキコウ アサヒカワイリヨウセンタ-"
  },
  "8650": {
    "postcode": "0708650",
    "prefecture": "北海道",
    "prefecture_kana": "ホッカイドウ",
    "prefecture_code": 1,
    "city": "旭川市",
    "city_kana": "アサヒカワシ",
    "town": "一条通",
    "town_kana": "1ジョウドオリ",
    "street": "１０丁目左３号（旭川中央郵便局私書箱第７４号）",
    "office_name": "山室繊維　株式会社",
    "office_name_kana": "ヤマムロセンイ カブシキガイシヤ"
  },
  "8651": {
    "postcode": "0708651",
    "prefecture": "北海道",
    "prefecture_kana": "ホッカイドウ",
    "prefecture_code": 1,
    "city": "旭川市",
    "city_kana": "アサヒカワシ",
    "town": "三条通",
    "town_kana": "3ジョウドオリ",
    "street": "９丁目（旭川中央郵便局私書箱第１８号）",
    "office_name": "日本生命保険　相互会社　旭川支社",
    "office_name_kana": "ニホンセイメイホケン ソウゴガイシヤ アサヒカワシシヤ"
  },
  "8653": {
    "postcode": "0708653",
    "prefecture": "北海道",
    "prefecture_kana": "ホッカイドウ",
    "prefecture_code": 1,
    "city": "旭川市",
    "city_kana": "アサヒカワシ",
    "town": "宮下通",
    "town_kana": "ミヤシタドオリ",
    "street": "１４丁目（旭川中央郵便局私書箱第５３号）",
    "office_name": "上川生産連農業会館　管理協議会",
    "office_name_kana": "カミカワセイサンレンノウギヨウカイカン カンリキヨウギカイ"
  },
  "8660": {
    "postcode": "0708660",
    "prefecture": "北海道",
    "prefecture_kana": "ホッカイドウ",
    "prefecture_code": 1,
    "city": "旭川市",
    "city_kana": "アサヒカワシ",
    "town": "四条通",
    "town_kana": "4ジョウドオリ",
    "street": "８丁目（旭川中央郵便局私書箱第３３号）",
    "office_name": "旭川信用金庫",
    "office_name_kana": "アサヒカワシンヨウキンコ"
  },
  "8666": {
    "postcode": "0708666",
    "prefecture": "北海道",
    "prefecture_kana": "ホッカイドウ",
    "prefecture_code": 1,
    "city": "旭川市",
    "city_kana": "アサヒカワシ",
    "town": "一条通",
    "town_kana": "1ジョウドオリ",
    "street": "１３丁目（旭川中央郵便局私書箱第１４３号）",
    "office_name": "株式会社　キシイ",
    "office_name_kana": "カブシキカイシヤ キシイ"
  },
  "8670": {
    "postcode": "0708670",
    "prefecture": "北海道",
    "prefecture_kana": "ホッカイドウ",
    "prefecture_code": 1,
    "city": "旭川市",
    "city_kana": "アサヒカワシ",
    "town": "三条通",
    "town_kana": "3ジョウドオリ",
    "street": "１０丁目２１８９番地（旭川中央郵便局私書箱第１２号）",
    "office_name": "株式会社　北陸銀行　旭川支店",
    "office_name_kana": "カブシキガイシヤ ホクリクギンコウ アサヒカワシテン"
  },
  "8676": {
    "postcode": "0708676",
    "prefecture": "北海道",
    "prefecture_kana": "ホッカイドウ",
    "prefecture_code": 1,
    "city": "旭川市",
    "city_kana": "アサヒカワシ",
    "town": "神居四条",
    "town_kana": "カムイ4ジョウ",
    "street": "１丁目１番３７号",
    "office_name": "旭川日産自動車　株式会社",
    "office_name_kana": "アサヒカワニツサンジドウシヤ カブシキカイシヤ"
  },
  "8680": {
    "postcode": "0708680",
    "prefecture": "北海道",
    "prefecture_kana": "ホッカイドウ",
    "prefecture_code": 1,
    "city": "旭川市",
    "city_kana": "アサヒカワシ",
    "town": "六条通",
    "town_kana": "6ジョウドオリ",
    "street": "６丁目（旭川中央郵便局私書箱第９８号）",
    "office_name": "日本放送協会　旭川放送局",
    "office_name_kana": "ニツポンホウソウキヨウカイ アサヒカワホウソウキヨク"
  },
  "8686": {
    "postcode": "0708686",
    "prefecture": "北海道",
    "prefecture_kana": "ホッカイドウ",
    "prefecture_code": 1,
    "city": "旭川市",
    "city_kana": "アサヒカワシ",
    "town": "五条通",
    "town_kana": "5ジョウドオリ",
    "street": "９丁目６４４番地",
    "office_name": "北海道労働金庫　旭川支店",
    "office_name_kana": "ホツカイドウロウドウキンコ アサヒカワシテン"
  },
  "8688": {
    "postcode": "0708688",
    "prefecture": "北海道",
    "prefecture_kana": "ホッカイドウ",
    "prefecture_code": 1,
    "city": "旭川市",
    "city_kana": "アサヒカワシ",
    "town": "二条通",
    "town_kana": "2ジョウドオリ",
    "street": "１５丁目左８号（旭川中央郵便局私書箱第２５号）",
    "office_name": "株式会社　谷内",
    "office_name_kana": "カブシキガイシヤ タニウチ"
  },
  "8701": {
    "postcode": "0708701",
    "prefecture": "北海道",
    "prefecture_kana": "ホッカイドウ",
    "prefecture_code": 1,
    "city": "旭川市",
    "city_kana": "アサヒカワシ",
    "town": "二条通",
    "town_kana": "2ジョウドオリ",
    "street": "８丁目（旭川中央郵便局私書箱第５１号）",
    "office_name": "協同組合　日専連旭川",
    "office_name_kana": "キヨウドウクミアイ ニツセンレンアサヒカワ"
  },
  "8710": {
    "postcode": "0708710",
    "prefecture": "北海道",
    "prefecture_kana": "ホッカイドウ",
    "prefecture_code": 1,
    "city": "旭川市",
    "city_kana": "アサヒカワシ",
    "town": "四条通",
    "town_kana": "4ジョウドオリ",
    "street": "１０丁目（旭川中央郵便局私書箱第１号）",
    "office_name": "（株）　北洋銀行　旭川中央支店",
    "office_name_kana": "カブシキガイシヤ ホクヨウギンコウ アサヒカワチユウオウシテン"
  },
  "8711": {
    "postcode": "0708711",
    "prefecture": "北海道",
    "prefecture_kana": "ホッカイドウ",
    "prefecture_code": 1,
    "city": "旭川市",
    "city_kana": "アサヒカワシ",
    "town": "四条通",
    "town_kana": "4ジョウドオリ",
    "street": "２丁目（旭川中央郵便局私書箱第９７号）",
    "office_name": "旭川トヨタ自動車　株式会社",
    "office_name_kana": "アサヒカワトヨタジドウシヤ カブシキカイシヤ"
  },
  "8720": {
    "postcode": "0708720",
    "prefecture": "北海道",
    "prefecture_kana": "ホッカイドウ",
    "prefecture_code": 1,
    "city": "旭川市",
    "city_kana": "アサヒカワシ",
    "town": "四条通",
    "town_kana": "4ジョウドオリ",
    "street": "９丁目１７０３番地７５号北洋ビル（旭川中央郵便局私書箱第５号）",
    "office_name": "株式会社　北海道新聞　旭川支社",
    "office_name_kana": "カブシキカイシヤ ホツカイドウシンブン アサヒカワシシヤ"
  },
  "8722": {
    "postcode": "0708722",
    "prefecture": "北海道",
    "prefecture_kana": "ホッカイドウ",
    "prefecture_code": 1,
    "city": "旭川市",
    "city_kana": "アサヒカワシ",
    "town": "一条通",
    "town_kana": "1ジョウドオリ",
    "street": "１５丁目（旭川中央郵便局私書箱第１３３号）",
    "office_name": "旭陽電機　株式会社",
    "office_name_kana": "キヨクヨウデンキ カブシキガイシヤ"
  },
  "8770": {
    "postcode": "0708770",
    "prefecture": "北海道",
    "prefecture_kana": "ホッカイドウ",
    "prefecture_code": 1,
    "city": "旭川市",
    "city_kana": "アサヒカワシ",
    "town": "神居八条",
    "town_kana": "カムイ8ジョウ",
    "street": "１丁目１番２７号旭川トヨペット３階",
    "office_name": "ネッツトヨタたいせつ　株式会社　神居オフィス",
    "office_name_kana": "ネツツトヨタタイセツ カブシキガイシヤ カムイオフイス"
  }
}