{
  "0101": {
    "postcode": "0880101",
    "prefecture": "北海道",
    "prefecture_kana": "ホッカイドウ",
    "prefecture_code": 1,
    "city": "釧路市",
    "city_kana": "クシロシ",
    "town": "音別町馬主来",
    "town_kana": "オンベツチョウパシクル",
    "street": null,
    "office_name": null,
    "office_name_kana": null
  },
  "0102": [
    {
      "postcode": "0880102",
      "prefecture": "北海道",
      "prefecture_kana": "ホッカイドウ",
      "prefecture_code": 1,
      "city": "釧路市",
      "city_kana": "クシロシ",
      "town": "音別町中音別",
      "town_kana": "オンベツチョウナカオンベツ",
      "street": null,
      "office_name": null,
      "office_name_kana": null
    },
    {
      "postcode": "0880102",
      "prefecture": "北海道",
      "prefecture_kana": "ホッカイドウ",
      "prefecture_code": 1,
      "city": "釧路市",
      "city_kana": "クシロシ",
      "town": "音別町中音別光和",
      "town_kana": "オンベツチョウナカオンベツコウワ",
      "street": null,
      "office_name": null,
      "office_name_kana": null
    }
  ],
  "0103": [
    {
      "postcode": "0880103",
      "prefecture": "北海道",
      "prefecture_kana": "ホッカイドウ",
      "prefecture_code": 1,
      "city": "釧路市",
      "city_kana": "クシロシ",
      "town": "音別町中音別",
      "town_kana": "オンベツチョウナカオンベツ",
      "street": null,
      "office_name": null,
      "office_name_kana": null
    },
    {
      "postcode": "0880103",
      "prefecture": "北海道",
      "prefecture_kana": "ホッカイドウ",
      "prefecture_code": 1,
      "city": "釧路市",
      "city_kana": "クシロシ",
      "town": "音別町中音別北栄",
      "town_kana": "オンベツチョウナカオンベツホクエイ",
      "street": null,
      "office_name": null,
      "office_name_kana": null
    }
  ],
  "0104": [
    {
      "postcode": "0880104",
      "prefecture": "北海道",
      "prefecture_kana": "ホッカイドウ",
      "prefecture_code": 1,
      "city": "釧路市",
      "city_kana": "クシロシ",
      "town": "音別町音別原野基線",
      "town_kana": "オンベツチョウオンベツゲンヤキセン",
      "street": null,
      "office_name": null,
      "office_name_kana": null
    },
    {
      "postcode": "0880104",
      "prefecture": "北海道",
      "prefecture_kana": "ホッカイドウ",
      "prefecture_code": 1,
      "city": "釧路市",
      "city_kana": "クシロシ",
      "town": "音別町音別原野基線二俣",
      "town_kana": "オンベツチョウオンベツゲンヤキセンフタマタ",
      "street": null,
      "office_name": null,
      "office_name_kana": null
    }
  ],
  "0105": {
    "postcode": "0880105",
    "prefecture": "北海道",
    "prefecture_kana": "ホッカイドウ",
    "prefecture_code": 1,
    "city": "釧路市",
    "city_kana": "クシロシ",
    "town": "音別町ムリ",
    "town_kana": "オンベツチョウムリ",
    "street": null,
    "office_name": null,
    "office_name_kana": null
  },
  "0106": {
    "postcode": "0880106",
    "prefecture": "北海道",
    "prefecture_kana": "ホッカイドウ",
    "prefecture_code": 1,
    "city": "釧路市",
    "city_kana": "クシロシ",
    "town": "音別町ヌプキベツ",
    "town_kana": "オンベツチョウヌプキベツ",
    "street": null,
    "office_name": null,
    "office_name_kana": null
  },
  "0107": {
    "postcode": "0880107",
    "prefecture": "北海道",
    "prefecture_kana": "ホッカイドウ",
    "prefecture_code": 1,
    "city": "釧路市",
    "city_kana": "クシロシ",
    "town": "音別町チヤンベツ",
    "town_kana": "オンベツチョウチャンベツ",
    "street": null,
    "office_name": null,
    "office_name_kana": null
  },
  "0108": [
    {
      "postcode": "0880108",
      "prefecture": "北海道",
      "prefecture_kana": "ホッカイドウ",
      "prefecture_code": 1,
      "city": "釧路市",
      "city_kana": "クシロシ",
      "town": "音別町音別原野基線",
      "town_kana": "オンベツチョウオンベツゲンヤキセン",
      "street": null,
      "office_name": null,
      "office_name_kana": null
    },
    {
      "postcode": "0880108",
      "prefecture": "北海道",
      "prefecture_kana": "ホッカイドウ",
      "prefecture_code": 1,
      "city": "釧路市",
      "city_kana": "クシロシ",
      "town": "音別町音別原野基線二俣川向",
      "town_kana": "オンベツチョウオンベツゲンヤキセンフタマタカワムカイ",
      "street": null,
      "office_name": null,
      "office_name_kana": null
    }
  ],
  "0109": {
    "postcode": "0880109",
    "prefecture": "北海道",
    "prefecture_kana": "ホッカイドウ",
    "prefecture_code": 1,
    "city": "釧路市",
    "city_kana": "クシロシ",
    "town": "音別町音別原野東",
    "town_kana": "オンベツチョウオンベツゲンヤヒガシ",
    "street": null,
    "office_name": null,
    "office_name_kana": null
  },
  "0111": {
    "postcode": "0880111",
    "prefecture": "北海道",
    "prefecture_kana": "ホッカイドウ",
    "prefecture_code": 1,
    "city": "釧路市",
    "city_kana": "クシロシ",
    "town": "音別町パシクル湖畔",
    "town_kana": "オンベツチョウパシクルコハン",
    "street": null,
    "office_name": null,
    "office_name_kana": null
  },
  "0112": [
    {
      "postcode": "0880112",
      "prefecture": "北海道",
      "prefecture_kana": "ホッカイドウ",
      "prefecture_code": 1,
      "city": "釧路市",
      "city_kana": "クシロシ",
      "town": "音別町中音別",
      "town_kana": "オンベツチョウナカオンベツ",
      "street": null,
      "office_name": null,
      "office_name_kana": null
    },
    {
      "postcode": "0880112",
      "prefecture": "北海道",
      "prefecture_kana": "ホッカイドウ",
      "prefecture_code": 1,
      "city": "釧路市",
      "city_kana": "クシロシ",
      "town": "音別町中音別チノミ台",
      "town_kana": "オンベツチョウナカオンベツチノミダイ",
      "street": null,
      "office_name": null,
      "office_name_kana": null
    }
  ],
  "0113": {
    "postcode": "0880113",
    "prefecture": "北海道",
    "prefecture_kana": "ホッカイドウ",
    "prefecture_code": 1,
    "city": "釧路市",
    "city_kana": "クシロシ",
    "town": "音別町風連",
    "town_kana": "オンベツチョウフウレン",
    "street": null,
    "office_name": null,
    "office_name_kana": null
  },
  "0114": {
    "postcode": "0880114",
    "prefecture": "北海道",
    "prefecture_kana": "ホッカイドウ",
    "prefecture_code": 1,
    "city": "釧路市",
    "city_kana": "クシロシ",
    "town": "音別町海光",
    "town_kana": "オンベツチョウカイコウ",
    "street": null,
    "office_name": null,
    "office_name_kana": null
  },
  "0115": {
    "postcode": "0880115",
    "prefecture": "北海道",
    "prefecture_kana": "ホッカイドウ",
    "prefecture_code": 1,
    "city": "釧路市",
    "city_kana": "クシロシ",
    "town": "音別町本町",
    "town_kana": "オンベツチョウモトマチ",
    "street": null,
    "office_name": null,
    "office_name_kana": null
  },
  "0116": {
    "postcode": "0880116",
    "prefecture": "北海道",
    "prefecture_kana": "ホッカイドウ",
    "prefecture_code": 1,
    "city": "釧路市",
    "city_kana": "クシロシ",
    "town": "音別町中園",
    "town_kana": "オンベツチョウナカゾノ",
    "street": null,
    "office_name": null,
    "office_name_kana": null
  },
  "0117": {
    "postcode": "0880117",
    "prefecture": "北海道",
    "prefecture_kana": "ホッカイドウ",
    "prefecture_code": 1,
    "city": "釧路市",
    "city_kana": "クシロシ",
    "town": "音別町朝日",
    "town_kana": "オンベツチョウアサヒ",
    "street": null,
    "office_name": null,
    "office_name_kana": null
  },
  "0118": {
    "postcode": "0880118",
    "prefecture": "北海道",
    "prefecture_kana": "ホッカイドウ",
    "prefecture_code": 1,
    "city": "釧路市",
    "city_kana": "クシロシ",
    "town": "音別町中音別",
    "town_kana": "オンベツチョウナカオンベツ",
    "street": null,
    "office_name": null,
    "office_name_kana": null
  },
  "0121": {
    "postcode": "0880121",
    "prefecture": "北海道",
    "prefecture_kana": "ホッカイドウ",
    "prefecture_code": 1,
    "city": "釧路市",
    "city_kana": "クシロシ",
    "town": "音別町若草",
    "town_kana": "オンベツチョウワカクサ",
    "street": null,
    "office_name": null,
    "office_name_kana": null
  },
  "0122": {
    "postcode": "0880122",
    "prefecture": "北海道",
    "prefecture_kana": "ホッカイドウ",
    "prefecture_code": 1,
    "city": "釧路市",
    "city_kana": "クシロシ",
    "town": "音別町あけぼの",
    "town_kana": "オンベツチョウアケボノ",
    "street": null,
    "office_name": null,
    "office_name_kana": null
  },
  "0123": {
    "postcode": "0880123",
    "prefecture": "北海道",
    "prefecture_kana": "ホッカイドウ",
    "prefecture_code": 1,
    "city": "釧路市",
    "city_kana": "クシロシ",
    "town": "音別町川東",
    "town_kana": "オンベツチョウカワヒガシ",
    "street": null,
    "office_name": null,
    "office_name_kana": null
  },
  "0124": {
    "postcode": "0880124",
    "prefecture": "北海道",
    "prefecture_kana": "ホッカイドウ",
    "prefecture_code": 1,
    "city": "釧路市",
    "city_kana": "クシロシ",
    "town": "音別町緑町",
    "town_kana": "オンベツチョウミドリマチ",
    "street": null,
    "office_name": null,
    "office_name_kana": null
  },
  "0125": {
    "postcode": "0880125",
    "prefecture": "北海道",
    "prefecture_kana": "ホッカイドウ",
    "prefecture_code": 1,
    "city": "釧路市",
    "city_kana": "クシロシ",
    "town": "音別町共栄",
    "town_kana": "オンベツチョウキョウエイ",
    "street": null,
    "office_name": null,
    "office_name_kana": null
  },
  "0126": [
    {
      "postcode": "0880126",
      "prefecture": "北海道",
      "prefecture_kana": "ホッカイドウ",
      "prefecture_code": 1,
      "city": "釧路市",
      "city_kana": "クシロシ",
      "town": "音別町音別原野西",
      "town_kana": "オンベツチョウオンベツゲンヤニシ",
      "street": null,
      "office_name": null,
      "office_name_kana": null
    },
    {
      "postcode": "0880126",
      "prefecture": "北海道",
      "prefecture_kana": "ホッカイドウ",
      "prefecture_code": 1,
      "city": "釧路市",
      "city_kana": "クシロシ",
      "town": "音別町音別原野西川西",
      "town_kana": "オンベツチョウオンベツゲンヤニシカワニシ",
      "street": null,
      "office_name": null,
      "office_name_kana": null
    }
  ],
  "0131": {
    "postcode": "0880131",
    "prefecture": "北海道",
    "prefecture_kana": "ホッカイドウ",
    "prefecture_code": 1,
    "city": "釧路市",
    "city_kana": "クシロシ",
    "town": "音別町ノトロ",
    "town_kana": "オンベツチョウノトロ",
    "street": null,
    "office_name": null,
    "office_name_kana": null
  },
  "0132": [
    {
      "postcode": "0880132",
      "prefecture": "北海道",
      "prefecture_kana": "ホッカイドウ",
      "prefecture_code": 1,
      "city": "釧路市",
      "city_kana": "クシロシ",
      "town": "音別町尺別",
      "town_kana": "オンベツチョウシャクベツ",
      "street": null,
      "office_name": null,
      "office_name_kana": null
    },
    {
      "postcode": "0880132",
      "prefecture": "北海道",
      "prefecture_kana": "ホッカイドウ",
      "prefecture_code": 1,
      "city": "釧路市",
      "city_kana": "クシロシ",
      "town": "音別町尺別岐線",
      "town_kana": "オンベツチョウシャクベツキセン",
      "street": null,
      "office_name": null,
      "office_name_kana": null
    }
  ],
  "0133": {
    "postcode": "0880133",
    "prefecture": "北海道",
    "prefecture_kana": "ホッカイドウ",
    "prefecture_code": 1,
    "city": "釧路市",
    "city_kana": "クシロシ",
    "town": "音別町尺別",
    "town_kana": "オンベツチョウシャクベツ",
    "street": null,
    "office_name": null,
    "office_name_kana": null
  },
  "0134": {
    "postcode": "0880134",
    "prefecture": "北海道",
    "prefecture_kana": "ホッカイドウ",
    "prefecture_code": 1,
    "city": "釧路市",
    "city_kana": "クシロシ",
    "town": "音別町キナシ別",
    "town_kana": "オンベツチョウキナシベツ",
    "street": null,
    "office_name": null,
    "office_name_kana": null
  },
  "0135": {
    "postcode": "0880135",
    "prefecture": "北海道",
    "prefecture_kana": "ホッカイドウ",
    "prefecture_code": 1,
    "city": "釧路市",
    "city_kana": "クシロシ",
    "town": "音別町直別",
    "town_kana": "オンベツチョウチョクベツ",
    "street": null,
    "office_name": null,
    "office_name_kana": null
  },
  "0181": {
    "postcode": "0880181",
    "prefecture": "北海道",
    "prefecture_kana": "ホッカイドウ",
    "prefecture_code": 1,
    "city": "十勝郡浦幌町",
    "city_kana": "トカチグンウラホロチョウ",
    "town": "直別",
    "town_kana": "チョクベツ",
    "street": null,
    "office_name": null,
    "office_name_kana": null
  },
  "0192": {
    "postcode": "0880192",
    "prefecture": "北海道",
    "prefecture_kana": "ホッカイドウ",
    "prefecture_code": 1,
    "city": "釧路市",
    "city_kana": "クシロシ",
    "town": "音別町中園",
    "town_kana": "オンベツチョウナカゾノ",
    "street": "１丁目１３４番地",
    "office_name": "釧路市音別町行政センター",
    "office_name_kana": "クシロシオンベツチヨウギヨウセイセンタ-"
  },
  "0193": {
    "postcode": "0880193",
    "prefecture": "北海道",
    "prefecture_kana": "ホッカイドウ",
    "prefecture_code": 1,
    "city": "釧路市",
    "city_kana": "クシロシ",
    "town": "音別町朝日",
    "town_kana": "オンベツチョウアサヒ",
    "street": "１丁目１３",
    "office_name": "株式会社　大塚製薬工場　釧路工場",
    "office_name_kana": "カブシキガイシヤ オオツカセイヤクコウジヨウ クシロコウジヨウ"
  },
  "0300": {
    "postcode": "0880300",
    "prefecture": "北海道",
    "prefecture_kana": "ホッカイドウ",
    "prefecture_code": 1,
    "city": "白糠郡白糠町",
    "city_kana": "シラヌカグンシラヌカチョウ",
    "town": "",
    "town_kana": "",
    "street": null,
    "office_name": null,
    "office_name_kana": null
  },
  "0301": {
    "postcode": "0880301",
    "prefecture": "北海道",
    "prefecture_kana": "ホッカイドウ",
    "prefecture_code": 1,
    "city": "白糠郡白糠町",
    "city_kana": "シラヌカグンシラヌカチョウ",
    "town": "東一条南",
    "town_kana": "ヒガシ1ジョウミナミ",
    "street": null,
    "office_name": null,
    "office_name_kana": null
  },
  "0302": {
    "postcode": "0880302",
    "prefecture": "北海道",
    "prefecture_kana": "ホッカイドウ",
    "prefecture_code": 1,
    "city": "白糠郡白糠町",
    "city_kana": "シラヌカグンシラヌカチョウ",
    "town": "東二条南",
    "town_kana": "ヒガシ2ジョウミナミ",
    "street": null,
    "office_name": null,
    "office_name_kana": null
  },
  "0303": {
    "postcode": "0880303",
    "prefecture": "北海道",
    "prefecture_kana": "ホッカイドウ",
    "prefecture_code": 1,
    "city": "白糠郡白糠町",
    "city_kana": "シラヌカグンシラヌカチョウ",
    "town": "東三条南",
    "town_kana": "ヒガシ3ジョウミナミ",
    "street": null,
    "office_name": null,
    "office_name_kana": null
  },
  "0304": {
    "postcode": "0880304",
    "prefecture": "北海道",
    "prefecture_kana": "ホッカイドウ",
    "prefecture_code": 1,
    "city": "白糠郡白糠町",
    "city_kana": "シラヌカグンシラヌカチョウ",
    "town": "岬",
    "town_kana": "ミサキ",
    "street": null,
    "office_name": null,
    "office_name_kana": null
  },
  "0305": {
    "postcode": "0880305",
    "prefecture": "北海道",
    "prefecture_kana": "ホッカイドウ",
    "prefecture_code": 1,
    "city": "白糠郡白糠町",
    "city_kana": "シラヌカグンシラヌカチョウ",
    "town": "刺牛",
    "town_kana": "サシウシ",
    "street": null,
    "office_name": null,
    "office_name_kana": null
  },
  "0311": {
    "postcode": "0880311",
    "prefecture": "北海道",
    "prefecture_kana": "ホッカイドウ",
    "prefecture_code": 1,
    "city": "白糠郡白糠町",
    "city_kana": "シラヌカグンシラヌカチョウ",
    "town": "西一条南",
    "town_kana": "ニシ1ジョウミナミ",
    "street": null,
    "office_name": null,
    "office_name_kana": null
  },
  "0312": {
    "postcode": "0880312",
    "prefecture": "北海道",
    "prefecture_kana": "ホッカイドウ",
    "prefecture_code": 1,
    "city": "白糠郡白糠町",
    "city_kana": "シラヌカグンシラヌカチョウ",
    "town": "西二条南",
    "town_kana": "ニシ2ジョウミナミ",
    "street": null,
    "office_name": null,
    "office_name_kana": null
  },
  "0321": {
    "postcode": "0880321",
    "prefecture": "北海道",
    "prefecture_kana": "ホッカイドウ",
    "prefecture_code": 1,
    "city": "白糠郡白糠町",
    "city_kana": "シラヌカグンシラヌカチョウ",
    "town": "西一条北",
    "town_kana": "ニシ1ジョウキタ",
    "street": null,
    "office_name": null,
    "office_name_kana": null
  },
  "0322": {
    "postcode": "0880322",
    "prefecture": "北海道",
    "prefecture_kana": "ホッカイドウ",
    "prefecture_code": 1,
    "city": "白糠郡白糠町",
    "city_kana": "シラヌカグンシラヌカチョウ",
    "town": "西二条北",
    "town_kana": "ニシ2ジョウキタ",
    "street": null,
    "office_name": null,
    "office_name_kana": null
  },
  "0323": {
    "postcode": "0880323",
    "prefecture": "北海道",
    "prefecture_kana": "ホッカイドウ",
    "prefecture_code": 1,
    "city": "白糠郡白糠町",
    "city_kana": "シラヌカグンシラヌカチョウ",
    "town": "西四条北",
    "town_kana": "ニシ4ジョウキタ",
    "street": null,
    "office_name": null,
    "office_name_kana": null
  },
  "0324": {
    "postcode": "0880324",
    "prefecture": "北海道",
    "prefecture_kana": "ホッカイドウ",
    "prefecture_code": 1,
    "city": "白糠郡白糠町",
    "city_kana": "シラヌカグンシラヌカチョウ",
    "town": "西五条北",
    "town_kana": "ニシ5ジョウキタ",
    "street": null,
    "office_name": null,
    "office_name_kana": null
  },
  "0325": {
    "postcode": "0880325",
    "prefecture": "北海道",
    "prefecture_kana": "ホッカイドウ",
    "prefecture_code": 1,
    "city": "白糠郡白糠町",
    "city_kana": "シラヌカグンシラヌカチョウ",
    "town": "西三条北",
    "town_kana": "ニシ3ジョウキタ",
    "street": null,
    "office_name": null,
    "office_name_kana": null
  },
  "0326": {
    "postcode": "0880326",
    "prefecture": "北海道",
    "prefecture_kana": "ホッカイドウ",
    "prefecture_code": 1,
    "city": "白糠郡白糠町",
    "city_kana": "シラヌカグンシラヌカチョウ",
    "town": "西六条北",
    "town_kana": "ニシ6ジョウキタ",
    "street": null,
    "office_name": null,
    "office_name_kana": null
  },
  "0331": {
    "postcode": "0880331",
    "prefecture": "北海道",
    "prefecture_kana": "ホッカイドウ",
    "prefecture_code": 1,
    "city": "白糠郡白糠町",
    "city_kana": "シラヌカグンシラヌカチョウ",
    "town": "東一条北",
    "town_kana": "ヒガシ1ジョウキタ",
    "street": null,
    "office_name": null,
    "office_name_kana": null
  },
  "0332": {
    "postcode": "0880332",
    "prefecture": "北海道",
    "prefecture_kana": "ホッカイドウ",
    "prefecture_code": 1,
    "city": "白糠郡白糠町",
    "city_kana": "シラヌカグンシラヌカチョウ",
    "town": "東二条北",
    "town_kana": "ヒガシ2ジョウキタ",
    "street": null,
    "office_name": null,
    "office_name_kana": null
  },
  "0333": {
    "postcode": "0880333",
    "prefecture": "北海道",
    "prefecture_kana": "ホッカイドウ",
    "prefecture_code": 1,
    "city": "白糠郡白糠町",
    "city_kana": "シラヌカグンシラヌカチョウ",
    "town": "東三条北",
    "town_kana": "ヒガシ3ジョウキタ",
    "street": null,
    "office_name": null,
    "office_name_kana": null
  },
  "0341": [
    {
      "postcode": "0880341",
      "prefecture": "北海道",
      "prefecture_kana": "ホッカイドウ",
      "prefecture_code": 1,
      "city": "白糠郡白糠町",
      "city_kana": "シラヌカグンシラヌカチョウ",
      "town": "大苗",
      "town_kana": "オオナエ",
      "street": null,
      "office_name": null,
      "office_name_kana": null
    },
    {
      "postcode": "0880341",
      "prefecture": "北海道",
      "prefecture_kana": "ホッカイドウ",
      "prefecture_code": 1,
      "city": "白糠郡白糠町",
      "city_kana": "シラヌカグンシラヌカチョウ",
      "town": "下茶路",
      "town_kana": "シモチャロ",
      "street": null,
      "office_name": null,
      "office_name_kana": null
    },
    {
      "postcode": "0880341",
      "prefecture": "北海道",
      "prefecture_kana": "ホッカイドウ",
      "prefecture_code": 1,
      "city": "白糠郡白糠町",
      "city_kana": "シラヌカグンシラヌカチョウ",
      "town": "相互",
      "town_kana": "ソウゴ",
      "street": null,
      "office_name": null,
      "office_name_kana": null
    },
    {
      "postcode": "0880341",
      "prefecture": "北海道",
      "prefecture_kana": "ホッカイドウ",
      "prefecture_code": 1,
      "city": "白糠郡白糠町",
      "city_kana": "シラヌカグンシラヌカチョウ",
      "town": "西茶路",
      "town_kana": "ニシチャロ",
      "street": null,
      "office_name": null,
      "office_name_kana": null
    },
    {
      "postcode": "0880341",
      "prefecture": "北海道",
      "prefecture_kana": "ホッカイドウ",
      "prefecture_code": 1,
      "city": "白糠郡白糠町",
      "city_kana": "シラヌカグンシラヌカチョウ",
      "town": "東茶路",
      "town_kana": "ヒガシチャロ",
      "street": null,
      "office_name": null,
      "office_name_kana": null
    }
  ],
  "0342": [
    {
      "postcode": "0880342",
      "prefecture": "北海道",
      "prefecture_kana": "ホッカイドウ",
      "prefecture_code": 1,
      "city": "白糠郡白糠町",
      "city_kana": "シラヌカグンシラヌカチョウ",
      "town": "御札部",
      "town_kana": "オサッペ",
      "street": null,
      "office_name": null,
      "office_name_kana": null
    },
    {
      "postcode": "0880342",
      "prefecture": "北海道",
      "prefecture_kana": "ホッカイドウ",
      "prefecture_code": 1,
      "city": "白糠郡白糠町",
      "city_kana": "シラヌカグンシラヌカチョウ",
      "town": "御仁田",
      "town_kana": "オニタ",
      "street": null,
      "office_name": null,
      "office_name_kana": null
    },
    {
      "postcode": "0880342",
      "prefecture": "北海道",
      "prefecture_kana": "ホッカイドウ",
      "prefecture_code": 1,
      "city": "白糠郡白糠町",
      "city_kana": "シラヌカグンシラヌカチョウ",
      "town": "川西",
      "town_kana": "カワニシ",
      "street": null,
      "office_name": null,
      "office_name_kana": null
    },
    {
      "postcode": "0880342",
      "prefecture": "北海道",
      "prefecture_kana": "ホッカイドウ",
      "prefecture_code": 1,
      "city": "白糠郡白糠町",
      "city_kana": "シラヌカグンシラヌカチョウ",
      "town": "高台",
      "town_kana": "タカダイ",
      "street": null,
      "office_name": null,
      "office_name_kana": null
    },
    {
      "postcode": "0880342",
      "prefecture": "北海道",
      "prefecture_kana": "ホッカイドウ",
      "prefecture_code": 1,
      "city": "白糠郡白糠町",
      "city_kana": "シラヌカグンシラヌカチョウ",
      "town": "鍛高",
      "town_kana": "タンタカ",
      "street": null,
      "office_name": null,
      "office_name_kana": null
    },
    {
      "postcode": "0880342",
      "prefecture": "北海道",
      "prefecture_kana": "ホッカイドウ",
      "prefecture_code": 1,
      "city": "白糠郡白糠町",
      "city_kana": "シラヌカグンシラヌカチョウ",
      "town": "茶路",
      "town_kana": "チャロ",
      "street": null,
      "office_name": null,
      "office_name_kana": null
    },
    {
      "postcode": "0880342",
      "prefecture": "北海道",
      "prefecture_kana": "ホッカイドウ",
      "prefecture_code": 1,
      "city": "白糠郡白糠町",
      "city_kana": "シラヌカグンシラヌカチョウ",
      "town": "茶路共栄",
      "town_kana": "チャロキョウエイ",
      "street": null,
      "office_name": null,
      "office_name_kana": null
    },
    {
      "postcode": "0880342",
      "prefecture": "北海道",
      "prefecture_kana": "ホッカイドウ",
      "prefecture_code": 1,
      "city": "白糠郡白糠町",
      "city_kana": "シラヌカグンシラヌカチョウ",
      "town": "中茶路",
      "town_kana": "ナカチャロ",
      "street": null,
      "office_name": null,
      "office_name_kana": null
    },
    {
      "postcode": "0880342",
      "prefecture": "北海道",
      "prefecture_kana": "ホッカイドウ",
      "prefecture_code": 1,
      "city": "白糠郡白糠町",
      "city_kana": "シラヌカグンシラヌカチョウ",
      "town": "松川",
      "town_kana": "マツカワ",
      "street": null,
      "office_name": null,
      "office_name_kana": null
    }
  ],
  "0343": [
    {
      "postcode": "0880343",
      "prefecture": "北海道",
      "prefecture_kana": "ホッカイドウ",
      "prefecture_code": 1,
      "city": "白糠郡白糠町",
      "city_kana": "シラヌカグンシラヌカチョウ",
      "town": "上茶路",
      "town_kana": "カミチャロ",
      "street": null,
      "office_name": null,
      "office_name_kana": null
    },
    {
      "postcode": "0880343",
      "prefecture": "北海道",
      "prefecture_kana": "ホッカイドウ",
      "prefecture_code": 1,
      "city": "白糠郡白糠町",
      "city_kana": "シラヌカグンシラヌカチョウ",
      "town": "新縫別",
      "town_kana": "シンヌイベツ",
      "street": null,
      "office_name": null,
      "office_name_kana": null
    },
    {
      "postcode": "0880343",
      "prefecture": "北海道",
      "prefecture_kana": "ホッカイドウ",
      "prefecture_code": 1,
      "city": "白糠郡白糠町",
      "city_kana": "シラヌカグンシラヌカチョウ",
      "town": "縫別",
      "town_kana": "ヌイベツ",
      "street": null,
      "office_name": null,
      "office_name_kana": null
    },
    {
      "postcode": "0880343",
      "prefecture": "北海道",
      "prefecture_kana": "ホッカイドウ",
      "prefecture_code": 1,
      "city": "白糠郡白糠町",
      "city_kana": "シラヌカグンシラヌカチョウ",
      "town": "南大曲",
      "town_kana": "ミナミオオマガリ",
      "street": null,
      "office_name": null,
      "office_name_kana": null
    },
    {
      "postcode": "0880343",
      "prefecture": "北海道",
      "prefecture_kana": "ホッカイドウ",
      "prefecture_code": 1,
      "city": "白糠郡白糠町",
      "city_kana": "シラヌカグンシラヌカチョウ",
      "town": "南上茶路",
      "town_kana": "ミナミカミチャロ",
      "street": null,
      "office_name": null,
      "office_name_kana": null
    }
  ],
  "0344": [
    {
      "postcode": "0880344",
      "prefecture": "北海道",
      "prefecture_kana": "ホッカイドウ",
      "prefecture_code": 1,
      "city": "白糠郡白糠町",
      "city_kana": "シラヌカグンシラヌカチョウ",
      "town": "左股",
      "town_kana": "ヒダリマタ",
      "street": null,
      "office_name": null,
      "office_name_kana": null
    },
    {
      "postcode": "0880344",
      "prefecture": "北海道",
      "prefecture_kana": "ホッカイドウ",
      "prefecture_code": 1,
      "city": "白糠郡白糠町",
      "city_kana": "シラヌカグンシラヌカチョウ",
      "town": "二股",
      "town_kana": "フタマタ",
      "street": null,
      "office_name": null,
      "office_name_kana": null
    },
    {
      "postcode": "0880344",
      "prefecture": "北海道",
      "prefecture_kana": "ホッカイドウ",
      "prefecture_code": 1,
      "city": "白糠郡白糠町",
      "city_kana": "シラヌカグンシラヌカチョウ",
      "town": "右股",
      "town_kana": "ミギマタ",
      "street": null,
      "office_name": null,
      "office_name_kana": null
    }
  ],
  "0351": [
    {
      "postcode": "0880351",
      "prefecture": "北海道",
      "prefecture_kana": "ホッカイドウ",
      "prefecture_code": 1,
      "city": "白糠郡白糠町",
      "city_kana": "シラヌカグンシラヌカチョウ",
      "town": "橋西",
      "town_kana": "キョウセイ",
      "street": null,
      "office_name": null,
      "office_name_kana": null
    },
    {
      "postcode": "0880351",
      "prefecture": "北海道",
      "prefecture_kana": "ホッカイドウ",
      "prefecture_code": 1,
      "city": "白糠郡白糠町",
      "city_kana": "シラヌカグンシラヌカチョウ",
      "town": "坂の丘",
      "town_kana": "サカノオカ",
      "street": null,
      "office_name": null,
      "office_name_kana": null
    },
    {
      "postcode": "0880351",
      "prefecture": "北海道",
      "prefecture_kana": "ホッカイドウ",
      "prefecture_code": 1,
      "city": "白糠郡白糠町",
      "city_kana": "シラヌカグンシラヌカチョウ",
      "town": "下和天別",
      "town_kana": "シモワテンベツ",
      "street": null,
      "office_name": null,
      "office_name_kana": null
    },
    {
      "postcode": "0880351",
      "prefecture": "北海道",
      "prefecture_kana": "ホッカイドウ",
      "prefecture_code": 1,
      "city": "白糠郡白糠町",
      "city_kana": "シラヌカグンシラヌカチョウ",
      "town": "和天別",
      "town_kana": "ワテンベツ",
      "street": null,
      "office_name": null,
      "office_name_kana": null
    }
  ],
  "0352": [
    {
      "postcode": "0880352",
      "prefecture": "北海道",
      "prefecture_kana": "ホッカイドウ",
      "prefecture_code": 1,
      "city": "白糠郡白糠町",
      "city_kana": "シラヌカグンシラヌカチョウ",
      "town": "川島",
      "town_kana": "カワシマ",
      "street": null,
      "office_name": null,
      "office_name_kana": null
    },
    {
      "postcode": "0880352",
      "prefecture": "北海道",
      "prefecture_kana": "ホッカイドウ",
      "prefecture_code": 1,
      "city": "白糠郡白糠町",
      "city_kana": "シラヌカグンシラヌカチョウ",
      "town": "大秋",
      "town_kana": "タイシュウ",
      "street": null,
      "office_name": null,
      "office_name_kana": null
    },
    {
      "postcode": "0880352",
      "prefecture": "北海道",
      "prefecture_kana": "ホッカイドウ",
      "prefecture_code": 1,
      "city": "白糠郡白糠町",
      "city_kana": "シラヌカグンシラヌカチョウ",
      "town": "馬主来",
      "town_kana": "パシクル",
      "street": null,
      "office_name": null,
      "office_name_kana": null
    },
    {
      "postcode": "0880352",
      "prefecture": "北海道",
      "prefecture_kana": "ホッカイドウ",
      "prefecture_code": 1,
      "city": "白糠郡白糠町",
      "city_kana": "シラヌカグンシラヌカチョウ",
      "town": "緑",
      "town_kana": "ミドリ",
      "street": null,
      "office_name": null,
      "office_name_kana": null
    }
  ],
  "0353": [
    {
      "postcode": "0880353",
      "prefecture": "北海道",
      "prefecture_kana": "ホッカイドウ",
      "prefecture_code": 1,
      "city": "白糠郡白糠町",
      "city_kana": "シラヌカグンシラヌカチョウ",
      "town": "大沢",
      "town_kana": "オオサワ",
      "street": null,
      "office_name": null,
      "office_name_kana": null
    },
    {
      "postcode": "0880353",
      "prefecture": "北海道",
      "prefecture_kana": "ホッカイドウ",
      "prefecture_code": 1,
      "city": "白糠郡白糠町",
      "city_kana": "シラヌカグンシラヌカチョウ",
      "town": "大平",
      "town_kana": "オオヒラ",
      "street": null,
      "office_name": null,
      "office_name_kana": null
    },
    {
      "postcode": "0880353",
      "prefecture": "北海道",
      "prefecture_kana": "ホッカイドウ",
      "prefecture_code": 1,
      "city": "白糠郡白糠町",
      "city_kana": "シラヌカグンシラヌカチョウ",
      "town": "河原",
      "town_kana": "カワハラ",
      "street": null,
      "office_name": null,
      "office_name_kana": null
    },
    {
      "postcode": "0880353",
      "prefecture": "北海道",
      "prefecture_kana": "ホッカイドウ",
      "prefecture_code": 1,
      "city": "白糠郡白糠町",
      "city_kana": "シラヌカグンシラヌカチョウ",
      "town": "恋隠",
      "town_kana": "コイカクシ",
      "street": null,
      "office_name": null,
      "office_name_kana": null
    },
    {
      "postcode": "0880353",
      "prefecture": "北海道",
      "prefecture_kana": "ホッカイドウ",
      "prefecture_code": 1,
      "city": "白糠郡白糠町",
      "city_kana": "シラヌカグンシラヌカチョウ",
      "town": "中和天別",
      "town_kana": "ナカワテンベツ",
      "street": null,
      "office_name": null,
      "office_name_kana": null
    },
    {
      "postcode": "0880353",
      "prefecture": "北海道",
      "prefecture_kana": "ホッカイドウ",
      "prefecture_code": 1,
      "city": "白糠郡白糠町",
      "city_kana": "シラヌカグンシラヌカチョウ",
      "town": "本郷",
      "town_kana": "ホンゴウ",
      "street": null,
      "office_name": null,
      "office_name_kana": null
    }
  ],
  "0392": {
    "postcode": "0880392",
    "prefecture": "北海道",
    "prefecture_kana": "ホッカイドウ",
    "prefecture_code": 1,
    "city": "白糠郡白糠町",
    "city_kana": "シラヌカグンシラヌカチョウ",
    "town": "西一条南",
    "town_kana": "ニシ1ジョウミナミ",
    "street": "１丁目１番地１号（白糠郵便局私書箱第６号）",
    "office_name": "白糠町役場",
    "office_name_kana": "シラヌカチヨウヤクバ"
  },
  "0393": {
    "postcode": "0880393",
    "prefecture": "北海道",
    "prefecture_kana": "ホッカイドウ",
    "prefecture_code": 1,
    "city": "白糠郡白糠町",
    "city_kana": "シラヌカグンシラヌカチョウ",
    "town": "西一条北",
    "town_kana": "ニシ1ジョウキタ",
    "street": "２丁目２−２３",
    "office_name": "白糠町農業　協同組合",
    "office_name_kana": "シラヌカチヨウノウギヨウ キヨウドウクミアイ"
  },
  "0394": {
    "postcode": "0880394",
    "prefecture": "北海道",
    "prefecture_kana": "ホッカイドウ",
    "prefecture_code": 1,
    "city": "白糠郡白糠町",
    "city_kana": "シラヌカグンシラヌカチョウ",
    "town": "岬",
    "town_kana": "ミサキ",
    "street": "１丁目２−４２",
    "office_name": "白糠町漁業　協同組合",
    "office_name_kana": "シラヌカチヨウギヨギヨウ キヨウドウクミアイ"
  },
  "0395": {
    "postcode": "0880395",
    "prefecture": "北海道",
    "prefecture_kana": "ホッカイドウ",
    "prefecture_code": 1,
    "city": "白糠郡白糠町",
    "city_kana": "シラヌカグンシラヌカチョウ",
    "town": "東一条南",
    "town_kana": "ヒガシ1ジョウミナミ",
    "street": "２丁目",
    "office_name": "白糠町商工会",
    "office_name_kana": "シラヌカチヨウシヨウコウカイ"
  },
  "0560": {
    "postcode": "0880560",
    "prefecture": "北海道",
    "prefecture_kana": "ホッカイドウ",
    "prefecture_code": 1,
    "city": "白糠郡白糠町",
    "city_kana": "シラヌカグンシラヌカチョウ",
    "town": "庶路宮下",
    "town_kana": "ショロミヤシタ",
    "street": null,
    "office_name": null,
    "office_name_kana": null
  },
  "0561": {
    "postcode": "0880561",
    "prefecture": "北海道",
    "prefecture_kana": "ホッカイドウ",
    "prefecture_code": 1,
    "city": "白糠郡白糠町",
    "city_kana": "シラヌカグンシラヌカチョウ",
    "town": "大楽毛",
    "town_kana": "オタノシケ",
    "street": null,
    "office_name": null,
    "office_name_kana": null
  },
  "0562": [
    {
      "postcode": "0880562",
      "prefecture": "北海道",
      "prefecture_kana": "ホッカイドウ",
      "prefecture_code": 1,
      "city": "白糠郡白糠町",
      "city_kana": "シラヌカグンシラヌカチョウ",
      "town": "コイトイ",
      "town_kana": "コイトイ",
      "street": null,
      "office_name": null,
      "office_name_kana": null
    },
    {
      "postcode": "0880562",
      "prefecture": "北海道",
      "prefecture_kana": "ホッカイドウ",
      "prefecture_code": 1,
      "city": "白糠郡白糠町",
      "city_kana": "シラヌカグンシラヌカチョウ",
      "town": "恋問",
      "town_kana": "コイトイ",
      "street": null,
      "office_name": null,
      "office_name_kana": null
    }
  ],
  "0563": {
    "postcode": "0880563",
    "prefecture": "北海道",
    "prefecture_kana": "ホッカイドウ",
    "prefecture_code": 1,
    "city": "白糠郡白糠町",
    "city_kana": "シラヌカグンシラヌカチョウ",
    "town": "庶路甲区",
    "town_kana": "ショロコウク",
    "street": null,
    "office_name": null,
    "office_name_kana": null
  },
  "0564": [
    {
      "postcode": "0880564",
      "prefecture": "北海道",
      "prefecture_kana": "ホッカイドウ",
      "prefecture_code": 1,
      "city": "白糠郡白糠町",
      "city_kana": "シラヌカグンシラヌカチョウ",
      "town": "庶路",
      "town_kana": "ショロ",
      "street": null,
      "office_name": null,
      "office_name_kana": null
    },
    {
      "postcode": "0880564",
      "prefecture": "北海道",
      "prefecture_kana": "ホッカイドウ",
      "prefecture_code": 1,
      "city": "白糠郡白糠町",
      "city_kana": "シラヌカグンシラヌカチョウ",
      "town": "庶路１区",
      "town_kana": "ショロ1ク",
      "street": null,
      "office_name": null,
      "office_name_kana": null
    }
  ],
  "0565": [
    {
      "postcode": "0880565",
      "prefecture": "北海道",
      "prefecture_kana": "ホッカイドウ",
      "prefecture_code": 1,
      "city": "白糠郡白糠町",
      "city_kana": "シラヌカグンシラヌカチョウ",
      "town": "庶路",
      "town_kana": "ショロ",
      "street": null,
      "office_name": null,
      "office_name_kana": null
    },
    {
      "postcode": "0880565",
      "prefecture": "北海道",
      "prefecture_kana": "ホッカイドウ",
      "prefecture_code": 1,
      "city": "白糠郡白糠町",
      "city_kana": "シラヌカグンシラヌカチョウ",
      "town": "庶路２区",
      "town_kana": "ショロ2ク",
      "street": null,
      "office_name": null,
      "office_name_kana": null
    }
  ],
  "0566": [
    {
      "postcode": "0880566",
      "prefecture": "北海道",
      "prefecture_kana": "ホッカイドウ",
      "prefecture_code": 1,
      "city": "白糠郡白糠町",
      "city_kana": "シラヌカグンシラヌカチョウ",
      "town": "庶路",
      "town_kana": "ショロ",
      "street": null,
      "office_name": null,
      "office_name_kana": null
    },
    {
      "postcode": "0880566",
      "prefecture": "北海道",
      "prefecture_kana": "ホッカイドウ",
      "prefecture_code": 1,
      "city": "白糠郡白糠町",
      "city_kana": "シラヌカグンシラヌカチョウ",
      "town": "庶路宮下",
      "town_kana": "ショロミヤシタ",
      "street": null,
      "office_name": null,
      "office_name_kana": null
    }
  ],
  "0567": {
    "postcode": "0880567",
    "prefecture": "北海道",
    "prefecture_kana": "ホッカイドウ",
    "prefecture_code": 1,
    "city": "白糠郡白糠町",
    "city_kana": "シラヌカグンシラヌカチョウ",
    "town": "庶路",
    "town_kana": "ショロ",
    "street": null,
    "office_name": null,
    "office_name_kana": null
  },
  "0568": {
    "postcode": "0880568",
    "prefecture": "北海道",
    "prefecture_kana": "ホッカイドウ",
    "prefecture_code": 1,
    "city": "白糠郡白糠町",
    "city_kana": "シラヌカグンシラヌカチョウ",
    "town": "庶路乙区",
    "town_kana": "ショロオツク",
    "street": null,
    "office_name": null,
    "office_name_kana": null
  },
  "0569": {
    "postcode": "0880569",
    "prefecture": "北海道",
    "prefecture_kana": "ホッカイドウ",
    "prefecture_code": 1,
    "city": "白糠郡白糠町",
    "city_kana": "シラヌカグンシラヌカチョウ",
    "town": "工業団地",
    "town_kana": "コウギョウダンチ",
    "street": null,
    "office_name": null,
    "office_name_kana": null
  },
  "0571": [
    {
      "postcode": "0880571",
      "prefecture": "北海道",
      "prefecture_kana": "ホッカイドウ",
      "prefecture_code": 1,
      "city": "白糠郡白糠町",
      "city_kana": "シラヌカグンシラヌカチョウ",
      "town": "西庶路西一条北",
      "town_kana": "ニシショロニシ1ジョウキタ",
      "street": null,
      "office_name": null,
      "office_name_kana": null
    },
    {
      "postcode": "0880571",
      "prefecture": "北海道",
      "prefecture_kana": "ホッカイドウ",
      "prefecture_code": 1,
      "city": "白糠郡白糠町",
      "city_kana": "シラヌカグンシラヌカチョウ",
      "town": "西庶路西二条北",
      "town_kana": "ニシショロニシ2ジョウキタ",
      "street": null,
      "office_name": null,
      "office_name_kana": null
    },
    {
      "postcode": "0880571",
      "prefecture": "北海道",
      "prefecture_kana": "ホッカイドウ",
      "prefecture_code": 1,
      "city": "白糠郡白糠町",
      "city_kana": "シラヌカグンシラヌカチョウ",
      "town": "西庶路西三条北",
      "town_kana": "ニシショロニシ3ジョウキタ",
      "street": null,
      "office_name": null,
      "office_name_kana": null
    }
  ],
  "0572": [
    {
      "postcode": "0880572",
      "prefecture": "北海道",
      "prefecture_kana": "ホッカイドウ",
      "prefecture_code": 1,
      "city": "白糠郡白糠町",
      "city_kana": "シラヌカグンシラヌカチョウ",
      "town": "西庶路西一条南",
      "town_kana": "ニシショロニシ1ジョウミナミ",
      "street": null,
      "office_name": null,
      "office_name_kana": null
    },
    {
      "postcode": "0880572",
      "prefecture": "北海道",
      "prefecture_kana": "ホッカイドウ",
      "prefecture_code": 1,
      "city": "白糠郡白糠町",
      "city_kana": "シラヌカグンシラヌカチョウ",
      "town": "西庶路西二条南",
      "town_kana": "ニシショロニシ2ジョウミナミ",
      "street": null,
      "office_name": null,
      "office_name_kana": null
    },
    {
      "postcode": "0880572",
      "prefecture": "北海道",
      "prefecture_kana": "ホッカイドウ",
      "prefecture_code": 1,
      "city": "白糠郡白糠町",
      "city_kana": "シラヌカグンシラヌカチョウ",
      "town": "西庶路西三条南",
      "town_kana": "ニシショロニシ3ジョウミナミ",
      "street": null,
      "office_name": null,
      "office_name_kana": null
    },
    {
      "postcode": "0880572",
      "prefecture": "北海道",
      "prefecture_kana": "ホッカイドウ",
      "prefecture_code": 1,
      "city": "白糠郡白糠町",
      "city_kana": "シラヌカグンシラヌカチョウ",
      "town": "西庶路西四条南",
      "town_kana": "ニシショロニシ4ジョウミナミ",
      "street": null,
      "office_name": null,
      "office_name_kana": null
    },
    {
      "postcode": "0880572",
      "prefecture": "北海道",
      "prefecture_kana": "ホッカイドウ",
      "prefecture_code": 1,
      "city": "白糠郡白糠町",
      "city_kana": "シラヌカグンシラヌカチョウ",
      "town": "西庶路西五条南",
      "town_kana": "ニシショロニシ5ジョウミナミ",
      "street": null,
      "office_name": null,
      "office_name_kana": null
    }
  ],
  "0573": [
    {
      "postcode": "0880573",
      "prefecture": "北海道",
      "prefecture_kana": "ホッカイドウ",
      "prefecture_code": 1,
      "city": "白糠郡白糠町",
      "city_kana": "シラヌカグンシラヌカチョウ",
      "town": "西庶路東一条北",
      "town_kana": "ニシショロヒガシ1ジョウキタ",
      "street": null,
      "office_name": null,
      "office_name_kana": null
    },
    {
      "postcode": "0880573",
      "prefecture": "北海道",
      "prefecture_kana": "ホッカイドウ",
      "prefecture_code": 1,
      "city": "白糠郡白糠町",
      "city_kana": "シラヌカグンシラヌカチョウ",
      "town": "西庶路東二条北",
      "town_kana": "ニシショロヒガシ2ジョウキタ",
      "street": null,
      "office_name": null,
      "office_name_kana": null
    },
    {
      "postcode": "0880573",
      "prefecture": "北海道",
      "prefecture_kana": "ホッカイドウ",
      "prefecture_code": 1,
      "city": "白糠郡白糠町",
      "city_kana": "シラヌカグンシラヌカチョウ",
      "town": "西庶路東三条北",
      "town_kana": "ニシショロヒガシ3ジョウキタ",
      "street": null,
      "office_name": null,
      "office_name_kana": null
    }
  ],
  "0574": [
    {
      "postcode": "0880574",
      "prefecture": "北海道",
      "prefecture_kana": "ホッカイドウ",
      "prefecture_code": 1,
      "city": "白糠郡白糠町",
      "city_kana": "シラヌカグンシラヌカチョウ",
      "town": "西庶路東一条南",
      "town_kana": "ニシショロヒガシ1ジョウミナミ",
      "street": null,
      "office_name": null,
      "office_name_kana": null
    },
    {
      "postcode": "0880574",
      "prefecture": "北海道",
      "prefecture_kana": "ホッカイドウ",
      "prefecture_code": 1,
      "city": "白糠郡白糠町",
      "city_kana": "シラヌカグンシラヌカチョウ",
      "town": "西庶路東二条南",
      "town_kana": "ニシショロヒガシ2ジョウミナミ",
      "street": null,
      "office_name": null,
      "office_name_kana": null
    },
    {
      "postcode": "0880574",
      "prefecture": "北海道",
      "prefecture_kana": "ホッカイドウ",
      "prefecture_code": 1,
      "city": "白糠郡白糠町",
      "city_kana": "シラヌカグンシラヌカチョウ",
      "town": "西庶路東三条南",
      "town_kana": "ニシショロヒガシ3ジョウミナミ",
      "street": null,
      "office_name": null,
      "office_name_kana": null
    }
  ],
  "0575": {
    "postcode": "0880575",
    "prefecture": "北海道",
    "prefecture_kana": "ホッカイドウ",
    "prefecture_code": 1,
    "city": "白糠郡白糠町",
    "city_kana": "シラヌカグンシラヌカチョウ",
    "town": "西庶路学園通",
    "town_kana": "ニシショロガクエンドオリ",
    "street": null,
    "office_name": null,
    "office_name_kana": null
  },
  "0581": {
    "postcode": "0880581",
    "prefecture": "北海道",
    "prefecture_kana": "ホッカイドウ",
    "prefecture_code": 1,
    "city": "白糠郡白糠町",
    "city_kana": "シラヌカグンシラヌカチョウ",
    "town": "乳呑",
    "town_kana": "チノミ",
    "street": null,
    "office_name": null,
    "office_name_kana": null
  },
  "0582": {
    "postcode": "0880582",
    "prefecture": "北海道",
    "prefecture_kana": "ホッカイドウ",
    "prefecture_code": 1,
    "city": "白糠郡白糠町",
    "city_kana": "シラヌカグンシラヌカチョウ",
    "town": "中庶路",
    "town_kana": "ナカショロ",
    "street": null,
    "office_name": null,
    "office_name_kana": null
  },
  "0583": {
    "postcode": "0880583",
    "prefecture": "北海道",
    "prefecture_kana": "ホッカイドウ",
    "prefecture_code": 1,
    "city": "白糠郡白糠町",
    "city_kana": "シラヌカグンシラヌカチョウ",
    "town": "上庶路",
    "town_kana": "カミショロ",
    "street": null,
    "office_name": null,
    "office_name_kana": null
  },
  "0584": {
    "postcode": "0880584",
    "prefecture": "北海道",
    "prefecture_kana": "ホッカイドウ",
    "prefecture_code": 1,
    "city": "白糠郡白糠町",
    "city_kana": "シラヌカグンシラヌカチョウ",
    "town": "泊別",
    "town_kana": "トマリベツ",
    "street": null,
    "office_name": null,
    "office_name_kana": null
  },
  "0585": {
    "postcode": "0880585",
    "prefecture": "北海道",
    "prefecture_kana": "ホッカイドウ",
    "prefecture_code": 1,
    "city": "白糠郡白糠町",
    "city_kana": "シラヌカグンシラヌカチョウ",
    "town": "暁",
    "town_kana": "アカツキ",
    "street": null,
    "office_name": null,
    "office_name_kana": null
  },
  "0586": {
    "postcode": "0880586",
    "prefecture": "北海道",
    "prefecture_kana": "ホッカイドウ",
    "prefecture_code": 1,
    "city": "白糠郡白糠町",
    "city_kana": "シラヌカグンシラヌカチョウ",
    "town": "庶路東",
    "town_kana": "ショロヒガシ",
    "street": null,
    "office_name": null,
    "office_name_kana": null
  },
  "0587": {
    "postcode": "0880587",
    "prefecture": "北海道",
    "prefecture_kana": "ホッカイドウ",
    "prefecture_code": 1,
    "city": "白糠郡白糠町",
    "city_kana": "シラヌカグンシラヌカチョウ",
    "town": "庶路西",
    "town_kana": "ショロニシ",
    "street": null,
    "office_name": null,
    "office_name_kana": null
  },
  "0592": {
    "postcode": "0880592",
    "prefecture": "北海道",
    "prefecture_kana": "ホッカイドウ",
    "prefecture_code": 1,
    "city": "白糠郡白糠町",
    "city_kana": "シラヌカグンシラヌカチョウ",
    "town": "西庶路東三条北",
    "town_kana": "ニシショロヒガシ3ジョウキタ",
    "street": "３丁目",
    "office_name": "東和食品　株式会社",
    "office_name_kana": "トウワシヨクヒン カブシキガイシヤ"
  },
  "0595": {
    "postcode": "0880595",
    "prefecture": "北海道",
    "prefecture_kana": "ホッカイドウ",
    "prefecture_code": 1,
    "city": "白糠郡白糠町",
    "city_kana": "シラヌカグンシラヌカチョウ",
    "town": "庶路甲区",
    "town_kana": "ショロコウク",
    "street": "６−５７７",
    "office_name": "株式会社　釧路丸水",
    "office_name_kana": "カブシキガイシヤ クシロマルスイ"
  },
  "0598": {
    "postcode": "0880598",
    "prefecture": "北海道",
    "prefecture_kana": "ホッカイドウ",
    "prefecture_code": 1,
    "city": "白糠郡白糠町",
    "city_kana": "シラヌカグンシラヌカチョウ",
    "town": "庶路甲区",
    "town_kana": "ショロコウク",
    "street": "６−５８４",
    "office_name": "広洋水産　株式会社",
    "office_name_kana": "コウヨウスイサン カブシキガイシヤ"
  },
  "0600": {
    "postcode": "0880600",
    "prefecture": "北海道",
    "prefecture_kana": "ホッカイドウ",
    "prefecture_code": 1,
    "city": "釧路郡釧路町",
    "city_kana": "クシログンクシロチョウ",
    "town": "",
    "town_kana": "",
    "street": null,
    "office_name": null,
    "office_name_kana": null
  },
  "0601": {
    "postcode": "0880601",
    "prefecture": "北海道",
    "prefecture_kana": "ホッカイドウ",
    "prefecture_code": 1,
    "city": "釧路郡釧路町",
    "city_kana": "クシログンクシロチョウ",
    "town": "上別保原野",
    "town_kana": "カミベッポゲンヤ",
    "street": null,
    "office_name": null,
    "office_name_kana": null
  },
  "0602": {
    "postcode": "0880602",
    "prefecture": "北海道",
    "prefecture_kana": "ホッカイドウ",
    "prefecture_code": 1,
    "city": "釧路郡釧路町",
    "city_kana": "クシログンクシロチョウ",
    "town": "別保東",
    "town_kana": "ベッポヒガシ",
    "street": null,
    "office_name": null,
    "office_name_kana": null
  },
  "0603": {
    "postcode": "0880603",
    "prefecture": "北海道",
    "prefecture_kana": "ホッカイドウ",
    "prefecture_code": 1,
    "city": "釧路郡釧路町",
    "city_kana": "クシログンクシロチョウ",
    "town": "別保南",
    "town_kana": "ベッポミナミ",
    "street": null,
    "office_name": null,
    "office_name_kana": null
  },
  "0604": {
    "postcode": "0880604",
    "prefecture": "北海道",
    "prefecture_kana": "ホッカイドウ",
    "prefecture_code": 1,
    "city": "釧路郡釧路町",
    "city_kana": "クシログンクシロチョウ",
    "town": "別保",
    "town_kana": "ベッポ",
    "street": null,
    "office_name": null,
    "office_name_kana": null
  },
  "0605": {
    "postcode": "0880605",
    "prefecture": "北海道",
    "prefecture_kana": "ホッカイドウ",
    "prefecture_code": 1,
    "city": "釧路郡釧路町",
    "city_kana": "クシログンクシロチョウ",
    "town": "別保原野",
    "town_kana": "ベッポゲンヤ",
    "street": null,
    "office_name": null,
    "office_name_kana": null
  },
  "0606": {
    "postcode": "0880606",
    "prefecture": "北海道",
    "prefecture_kana": "ホッカイドウ",
    "prefecture_code": 1,
    "city": "釧路郡釧路町",
    "city_kana": "クシログンクシロチョウ",
    "town": "中央",
    "town_kana": "チュウオウ",
    "street": null,
    "office_name": null,
    "office_name_kana": null
  },
  "0607": {
    "postcode": "0880607",
    "prefecture": "北海道",
    "prefecture_kana": "ホッカイドウ",
    "prefecture_code": 1,
    "city": "釧路郡釧路町",
    "city_kana": "クシログンクシロチョウ",
    "town": "床丹",
    "town_kana": "トコタン",
    "street": null,
    "office_name": null,
    "office_name_kana": null
  },
  "0608": {
    "postcode": "0880608",
    "prefecture": "北海道",
    "prefecture_kana": "ホッカイドウ",
    "prefecture_code": 1,
    "city": "釧路郡釧路町",
    "city_kana": "クシログンクシロチョウ",
    "town": "釧望台",
    "town_kana": "センボウダイ",
    "street": null,
    "office_name": null,
    "office_name_kana": null
  },
  "0609": {
    "postcode": "0880609",
    "prefecture": "北海道",
    "prefecture_kana": "ホッカイドウ",
    "prefecture_code": 1,
    "city": "釧路郡釧路町",
    "city_kana": "クシログンクシロチョウ",
    "town": "共和",
    "town_kana": "キョウワ",
    "street": null,
    "office_name": null,
    "office_name_kana": null
  },
  "0611": {
    "postcode": "0880611",
    "prefecture": "北海道",
    "prefecture_kana": "ホッカイドウ",
    "prefecture_code": 1,
    "city": "釧路郡釧路町",
    "city_kana": "クシログンクシロチョウ",
    "town": "豊美",
    "town_kana": "トヨミ",
    "street": null,
    "office_name": null,
    "office_name_kana": null
  },
  "0612": {
    "postcode": "0880612",
    "prefecture": "北海道",
    "prefecture_kana": "ホッカイドウ",
    "prefecture_code": 1,
    "city": "釧路郡釧路町",
    "city_kana": "クシログンクシロチョウ",
    "town": "雁来",
    "town_kana": "カリキ",
    "street": null,
    "office_name": null,
    "office_name_kana": null
  },
  "0613": {
    "postcode": "0880613",
    "prefecture": "北海道",
    "prefecture_kana": "ホッカイドウ",
    "prefecture_code": 1,
    "city": "釧路郡釧路町",
    "city_kana": "クシログンクシロチョウ",
    "town": "若葉",
    "town_kana": "ワカバ",
    "street": null,
    "office_name": null,
    "office_name_kana": null
  },
  "0614": {
    "postcode": "0880614",
    "prefecture": "北海道",
    "prefecture_kana": "ホッカイドウ",
    "prefecture_code": 1,
    "city": "釧路郡釧路町",
    "city_kana": "クシログンクシロチョウ",
    "town": "国誉",
    "town_kana": "コクヨ",
    "street": null,
    "office_name": null,
    "office_name_kana": null
  },
  "0615": {
    "postcode": "0880615",
    "prefecture": "北海道",
    "prefecture_kana": "ホッカイドウ",
    "prefecture_code": 1,
    "city": "釧路郡釧路町",
    "city_kana": "クシログンクシロチョウ",
    "town": "睦",
    "town_kana": "ムツミ",
    "street": null,
    "office_name": null,
    "office_name_kana": null
  },
  "0616": {
    "postcode": "0880616",
    "prefecture": "北海道",
    "prefecture_kana": "ホッカイドウ",
    "prefecture_code": 1,
    "city": "釧路郡釧路町",
    "city_kana": "クシログンクシロチョウ",
    "town": "曙",
    "town_kana": "アケボノ",
    "street": null,
    "office_name": null,
    "office_name_kana": null
  },
  "0617": {
    "postcode": "0880617",
    "prefecture": "北海道",
    "prefecture_kana": "ホッカイドウ",
    "prefecture_code": 1,
    "city": "釧路郡釧路町",
    "city_kana": "クシログンクシロチョウ",
    "town": "北都",
    "town_kana": "ホクト",
    "street": null,
    "office_name": null,
    "office_name_kana": null
  },
  "0618": {
    "postcode": "0880618",
    "prefecture": "北海道",
    "prefecture_kana": "ホッカイドウ",
    "prefecture_code": 1,
    "city": "釧路郡釧路町",
    "city_kana": "クシログンクシロチョウ",
    "town": "富原",
    "town_kana": "トミハラ",
    "street": null,
    "office_name": null,
    "office_name_kana": null
  },
  "0621": {
    "postcode": "0880621",
    "prefecture": "北海道",
    "prefecture_kana": "ホッカイドウ",
    "prefecture_code": 1,
    "city": "釧路郡釧路町",
    "city_kana": "クシログンクシロチョウ",
    "town": "桂木",
    "town_kana": "カツラギ",
    "street": null,
    "office_name": null,
    "office_name_kana": null
  },
  "0622": {
    "postcode": "0880622",
    "prefecture": "北海道",
    "prefecture_kana": "ホッカイドウ",
    "prefecture_code": 1,
    "city": "釧路郡釧路町",
    "city_kana": "クシログンクシロチョウ",
    "town": "木場",
    "town_kana": "キバ",
    "street": null,
    "office_name": null,
    "office_name_kana": null
  },
  "0623": {
    "postcode": "0880623",
    "prefecture": "北海道",
    "prefecture_kana": "ホッカイドウ",
    "prefecture_code": 1,
    "city": "釧路郡釧路町",
    "city_kana": "クシログンクシロチョウ",
    "town": "光和",
    "town_kana": "コウワ",
    "street": null,
    "office_name": null,
    "office_name_kana": null
  },
  "0624": {
    "postcode": "0880624",
    "prefecture": "北海道",
    "prefecture_kana": "ホッカイドウ",
    "prefecture_code": 1,
    "city": "釧路郡釧路町",
    "city_kana": "クシログンクシロチョウ",
    "town": "新開",
    "town_kana": "シンカイ",
    "street": null,
    "office_name": null,
    "office_name_kana": null
  },
  "0625": {
    "postcode": "0880625",
    "prefecture": "北海道",
    "prefecture_kana": "ホッカイドウ",
    "prefecture_code": 1,
    "city": "釧路郡釧路町",
    "city_kana": "クシログンクシロチョウ",
    "town": "北見団地",
    "town_kana": "キタミダンチ",
    "street": null,
    "office_name": null,
    "office_name_kana": null
  },
  "0626": {
    "postcode": "0880626",
    "prefecture": "北海道",
    "prefecture_kana": "ホッカイドウ",
    "prefecture_code": 1,
    "city": "釧路郡釧路町",
    "city_kana": "クシログンクシロチョウ",
    "town": "桂",
    "town_kana": "カツラ",
    "street": null,
    "office_name": null,
    "office_name_kana": null
  },
  "0627": {
    "postcode": "0880627",
    "prefecture": "北海道",
    "prefecture_kana": "ホッカイドウ",
    "prefecture_code": 1,
    "city": "釧路郡釧路町",
    "city_kana": "クシログンクシロチョウ",
    "town": "東陽西",
    "town_kana": "トウヨウニシ",
    "street": null,
    "office_name": null,
    "office_name_kana": null
  },
  "0628": {
    "postcode": "0880628",
    "prefecture": "北海道",
    "prefecture_kana": "ホッカイドウ",
    "prefecture_code": 1,
    "city": "釧路郡釧路町",
    "city_kana": "クシログンクシロチョウ",
    "town": "東陽大通西",
    "town_kana": "トウヨウオオドオリニシ",
    "street": null,
    "office_name": null,
    "office_name_kana": null
  },
  "0692": {
    "postcode": "0880692",
    "prefecture": "北海道",
    "prefecture_kana": "ホッカイドウ",
    "prefecture_code": 1,
    "city": "釧路郡釧路町",
    "city_kana": "クシログンクシロチョウ",
    "town": "別保",
    "town_kana": "ベッポ",
    "street": "１丁目１",
    "office_name": "釧路町役場",
    "office_name_kana": "クシロチヨウヤクバ"
  },
  "0771": {
    "postcode": "0880771",
    "prefecture": "北海道",
    "prefecture_kana": "ホッカイドウ",
    "prefecture_code": 1,
    "city": "厚岸郡厚岸町",
    "city_kana": "アッケシグンアッケシチョウ",
    "town": "上尾幌",
    "town_kana": "カミオボロ",
    "street": null,
    "office_name": null,
    "office_name_kana": null
  },
  "0831": [
    {
      "postcode": "0880831",
      "prefecture": "北海道",
      "prefecture_kana": "ホッカイドウ",
      "prefecture_code": 1,
      "city": "釧路郡釧路町",
      "city_kana": "クシログンクシロチョウ",
      "town": "仙鳳趾村",
      "town_kana": "センポウシムラ",
      "street": null,
      "office_name": null,
      "office_name_kana": null
    },
    {
      "postcode": "0880831",
      "prefecture": "北海道",
      "prefecture_kana": "ホッカイドウ",
      "prefecture_code": 1,
      "city": "釧路郡釧路町",
      "city_kana": "クシログンクシロチョウ",
      "town": "仙鳳趾村仙鳳趾",
      "town_kana": "センポウシムラセンポウシ",
      "street": null,
      "office_name": null,
      "office_name_kana": null
    }
  ],
  "0832": [
    {
      "postcode": "0880832",
      "prefecture": "北海道",
      "prefecture_kana": "ホッカイドウ",
      "prefecture_code": 1,
      "city": "釧路郡釧路町",
      "city_kana": "クシログンクシロチョウ",
      "town": "仙鳳趾村",
      "town_kana": "センポウシムラ",
      "street": null,
      "office_name": null,
      "office_name_kana": null
    },
    {
      "postcode": "0880832",
      "prefecture": "北海道",
      "prefecture_kana": "ホッカイドウ",
      "prefecture_code": 1,
      "city": "釧路郡釧路町",
      "city_kana": "クシログンクシロチョウ",
      "town": "仙鳳趾村知方学",
      "town_kana": "センポウシムラチッポマナイ",
      "street": null,
      "office_name": null,
      "office_name_kana": null
    }
  ],
  "0833": [
    {
      "postcode": "0880833",
      "prefecture": "北海道",
      "prefecture_kana": "ホッカイドウ",
      "prefecture_code": 1,
      "city": "釧路郡釧路町",
      "city_kana": "クシログンクシロチョウ",
      "town": "仙鳳趾村",
      "town_kana": "センポウシムラ",
      "street": null,
      "office_name": null,
      "office_name_kana": null
    },
    {
      "postcode": "0880833",
      "prefecture": "北海道",
      "prefecture_kana": "ホッカイドウ",
      "prefecture_code": 1,
      "city": "釧路郡釧路町",
      "city_kana": "クシログンクシロチョウ",
      "town": "仙鳳趾村老者舞",
      "town_kana": "センポウシムラオシャマップ",
      "street": null,
      "office_name": null,
      "office_name_kana": null
    }
  ],
  "0834": [
    {
      "postcode": "0880834",
      "prefecture": "北海道",
      "prefecture_kana": "ホッカイドウ",
      "prefecture_code": 1,
      "city": "釧路郡釧路町",
      "city_kana": "クシログンクシロチョウ",
      "town": "仙鳳趾村",
      "town_kana": "センポウシムラ",
      "street": null,
      "office_name": null,
      "office_name_kana": null
    },
    {
      "postcode": "0880834",
      "prefecture": "北海道",
      "prefecture_kana": "ホッカイドウ",
      "prefecture_code": 1,
      "city": "釧路郡釧路町",
      "city_kana": "クシログンクシロチョウ",
      "town": "仙鳳趾村汐見",
      "town_kana": "センポウシムラシオミ",
      "street": null,
      "office_name": null,
      "office_name_kana": null
    }
  ],
  "0835": [
    {
      "postcode": "0880835",
      "prefecture": "北海道",
      "prefecture_kana": "ホッカイドウ",
      "prefecture_code": 1,
      "city": "釧路郡釧路町",
      "city_kana": "クシログンクシロチョウ",
      "town": "仙鳳趾村",
      "town_kana": "センポウシムラ",
      "street": null,
      "office_name": null,
      "office_name_kana": null
    },
    {
      "postcode": "0880835",
      "prefecture": "北海道",
      "prefecture_kana": "ホッカイドウ",
      "prefecture_code": 1,
      "city": "釧路郡釧路町",
      "city_kana": "クシログンクシロチョウ",
      "town": "仙鳳趾村オタクパウシ",
      "town_kana": "センポウシムラオタクパウシ",
      "street": null,
      "office_name": null,
      "office_name_kana": null
    }
  ],
  "0871": {
    "postcode": "0880871",
    "prefecture": "北海道",
    "prefecture_kana": "ホッカイドウ",
    "prefecture_code": 1,
    "city": "厚岸郡厚岸町",
    "city_kana": "アッケシグンアッケシチョウ",
    "town": "尾幌",
    "town_kana": "オボロ",
    "street": null,
    "office_name": null,
    "office_name_kana": null
  },
  "0872": {
    "postcode": "0880872",
    "prefecture": "北海道",
    "prefecture_kana": "ホッカイドウ",
    "prefecture_code": 1,
    "city": "厚岸郡厚岸町",
    "city_kana": "アッケシグンアッケシチョウ",
    "town": "来別",
    "town_kana": "ライベツ",
    "street": null,
    "office_name": null,
    "office_name_kana": null
  },
  "0873": {
    "postcode": "0880873",
    "prefecture": "北海道",
    "prefecture_kana": "ホッカイドウ",
    "prefecture_code": 1,
    "city": "厚岸郡厚岸町",
    "city_kana": "アッケシグンアッケシチョウ",
    "town": "乙幌",
    "town_kana": "オッポロ",
    "street": null,
    "office_name": null,
    "office_name_kana": null
  },
  "0874": {
    "postcode": "0880874",
    "prefecture": "北海道",
    "prefecture_kana": "ホッカイドウ",
    "prefecture_code": 1,
    "city": "厚岸郡厚岸町",
    "city_kana": "アッケシグンアッケシチョウ",
    "town": "門静",
    "town_kana": "モンシズ",
    "street": null,
    "office_name": null,
    "office_name_kana": null
  },
  "0875": {
    "postcode": "0880875",
    "prefecture": "北海道",
    "prefecture_kana": "ホッカイドウ",
    "prefecture_code": 1,
    "city": "厚岸郡厚岸町",
    "city_kana": "アッケシグンアッケシチョウ",
    "town": "苫多",
    "town_kana": "トマタ",
    "street": null,
    "office_name": null,
    "office_name_kana": null
  },
  "0876": {
    "postcode": "0880876",
    "prefecture": "北海道",
    "prefecture_kana": "ホッカイドウ",
    "prefecture_code": 1,
    "city": "厚岸郡厚岸町",
    "city_kana": "アッケシグンアッケシチョウ",
    "town": "沖万別",
    "town_kana": "オキマンベツ",
    "street": null,
    "office_name": null,
    "office_name_kana": null
  },
  "0877": {
    "postcode": "0880877",
    "prefecture": "北海道",
    "prefecture_kana": "ホッカイドウ",
    "prefecture_code": 1,
    "city": "厚岸郡厚岸町",
    "city_kana": "アッケシグンアッケシチョウ",
    "town": "敏内",
    "town_kana": "ビンナイ",
    "street": null,
    "office_name": null,
    "office_name_kana": null
  },
  "0878": {
    "postcode": "0880878",
    "prefecture": "北海道",
    "prefecture_kana": "ホッカイドウ",
    "prefecture_code": 1,
    "city": "厚岸郡厚岸町",
    "city_kana": "アッケシグンアッケシチョウ",
    "town": "ルークシュポール",
    "town_kana": "ルークシュポール",
    "street": null,
    "office_name": null,
    "office_name_kana": null
  },
  "1100": {
    "postcode": "0881100",
    "prefecture": "北海道",
    "prefecture_kana": "ホッカイドウ",
    "prefecture_code": 1,
    "city": "厚岸郡厚岸町",
    "city_kana": "アッケシグンアッケシチョウ",
    "town": "",
    "town_kana": "",
    "street": null,
    "office_name": null,
    "office_name_kana": null
  },
  "1101": [
    {
      "postcode": "0881101",
      "prefecture": "北海道",
      "prefecture_kana": "ホッカイドウ",
      "prefecture_code": 1,
      "city": "厚岸郡厚岸町",
      "city_kana": "アッケシグンアッケシチョウ",
      "town": "糸魚沢",
      "town_kana": "イトイザワ",
      "street": null,
      "office_name": null,
      "office_name_kana": null
    },
    {
      "postcode": "0881101",
      "prefecture": "北海道",
      "prefecture_kana": "ホッカイドウ",
      "prefecture_code": 1,
      "city": "厚岸郡厚岸町",
      "city_kana": "アッケシグンアッケシチョウ",
      "town": "神岩",
      "town_kana": "カムイワ",
      "street": null,
      "office_name": null,
      "office_name_kana": null
    },
    {
      "postcode": "0881101",
      "prefecture": "北海道",
      "prefecture_kana": "ホッカイドウ",
      "prefecture_code": 1,
      "city": "厚岸郡厚岸町",
      "city_kana": "アッケシグンアッケシチョウ",
      "town": "チライカリベツ",
      "town_kana": "チライカリベツ",
      "street": null,
      "office_name": null,
      "office_name_kana": null
    },
    {
      "postcode": "0881101",
      "prefecture": "北海道",
      "prefecture_kana": "ホッカイドウ",
      "prefecture_code": 1,
      "city": "厚岸郡厚岸町",
      "city_kana": "アッケシグンアッケシチョウ",
      "town": "別寒辺牛",
      "town_kana": "ベカンベウシ",
      "street": null,
      "office_name": null,
      "office_name_kana": null
    },
    {
      "postcode": "0881101",
      "prefecture": "北海道",
      "prefecture_kana": "ホッカイドウ",
      "prefecture_code": 1,
      "city": "厚岸郡厚岸町",
      "city_kana": "アッケシグンアッケシチョウ",
      "town": "ホロニタイ",
      "town_kana": "ホロニタイ",
      "street": null,
      "office_name": null,
      "office_name_kana": null
    },
    {
      "postcode": "0881101",
      "prefecture": "北海道",
      "prefecture_kana": "ホッカイドウ",
      "prefecture_code": 1,
      "city": "厚岸郡厚岸町",
      "city_kana": "アッケシグンアッケシチョウ",
      "town": "若松",
      "town_kana": "ワカマツ",
      "street": null,
      "office_name": null,
      "office_name_kana": null
    }
  ],
  "1102": {
    "postcode": "0881102",
    "prefecture": "北海道",
    "prefecture_kana": "ホッカイドウ",
    "prefecture_code": 1,
    "city": "厚岸郡厚岸町",
    "city_kana": "アッケシグンアッケシチョウ",
    "town": "登喜岱",
    "town_kana": "トキタイ",
    "street": null,
    "office_name": null,
    "office_name_kana": null
  },
  "1103": {
    "postcode": "0881103",
    "prefecture": "北海道",
    "prefecture_kana": "ホッカイドウ",
    "prefecture_code": 1,
    "city": "厚岸郡厚岸町",
    "city_kana": "アッケシグンアッケシチョウ",
    "town": "小島",
    "town_kana": "コジマ",
    "street": null,
    "office_name": null,
    "office_name_kana": null
  },
  "1104": {
    "postcode": "0881104",
    "prefecture": "北海道",
    "prefecture_kana": "ホッカイドウ",
    "prefecture_code": 1,
    "city": "厚岸郡厚岸町",
    "city_kana": "アッケシグンアッケシチョウ",
    "town": "大黒島",
    "town_kana": "ダイコクジマ",
    "street": null,
    "office_name": null,
    "office_name_kana": null
  },
  "1105": {
    "postcode": "0881105",
    "prefecture": "北海道",
    "prefecture_kana": "ホッカイドウ",
    "prefecture_code": 1,
    "city": "厚岸郡厚岸町",
    "city_kana": "アッケシグンアッケシチョウ",
    "town": "末広",
    "town_kana": "マビロ",
    "street": null,
    "office_name": null,
    "office_name_kana": null
  },
  "1106": {
    "postcode": "0881106",
    "prefecture": "北海道",
    "prefecture_kana": "ホッカイドウ",
    "prefecture_code": 1,
    "city": "厚岸郡厚岸町",
    "city_kana": "アッケシグンアッケシチョウ",
    "town": "東梅",
    "town_kana": "トウバイ",
    "street": null,
    "office_name": null,
    "office_name_kana": null
  },
  "1107": {
    "postcode": "0881107",
    "prefecture": "北海道",
    "prefecture_kana": "ホッカイドウ",
    "prefecture_code": 1,
    "city": "厚岸郡厚岸町",
    "city_kana": "アッケシグンアッケシチョウ",
    "town": "床潭",
    "town_kana": "トコタン",
    "street": null,
    "office_name": null,
    "office_name_kana": null
  },
  "1108": {
    "postcode": "0881108",
    "prefecture": "北海道",
    "prefecture_kana": "ホッカイドウ",
    "prefecture_code": 1,
    "city": "厚岸郡厚岸町",
    "city_kana": "アッケシグンアッケシチョウ",
    "town": "筑紫恋",
    "town_kana": "ツクシコイ",
    "street": null,
    "office_name": null,
    "office_name_kana": null
  },
  "1111": {
    "postcode": "0881111",
    "prefecture": "北海道",
    "prefecture_kana": "ホッカイドウ",
    "prefecture_code": 1,
    "city": "厚岸郡厚岸町",
    "city_kana": "アッケシグンアッケシチョウ",
    "town": "奔渡",
    "town_kana": "ポント",
    "street": null,
    "office_name": null,
    "office_name_kana": null
  },
  "1112": {
    "postcode": "0881112",
    "prefecture": "北海道",
    "prefecture_kana": "ホッカイドウ",
    "prefecture_code": 1,
    "city": "厚岸郡厚岸町",
    "city_kana": "アッケシグンアッケシチョウ",
    "town": "有明",
    "town_kana": "アリアケ",
    "street": null,
    "office_name": null,
    "office_name_kana": null
  },
  "1113": {
    "postcode": "0881113",
    "prefecture": "北海道",
    "prefecture_kana": "ホッカイドウ",
    "prefecture_code": 1,
    "city": "厚岸郡厚岸町",
    "city_kana": "アッケシグンアッケシチョウ",
    "town": "愛冠",
    "town_kana": "アイカップ",
    "street": null,
    "office_name": null,
    "office_name_kana": null
  },
  "1114": {
    "postcode": "0881114",
    "prefecture": "北海道",
    "prefecture_kana": "ホッカイドウ",
    "prefecture_code": 1,
    "city": "厚岸郡厚岸町",
    "city_kana": "アッケシグンアッケシチョウ",
    "town": "湾月",
    "town_kana": "ワンゲツ",
    "street": null,
    "office_name": null,
    "office_name_kana": null
  },
  "1115": {
    "postcode": "0881115",
    "prefecture": "北海道",
    "prefecture_kana": "ホッカイドウ",
    "prefecture_code": 1,
    "city": "厚岸郡厚岸町",
    "city_kana": "アッケシグンアッケシチョウ",
    "town": "梅香",
    "town_kana": "バイカ",
    "street": null,
    "office_name": null,
    "office_name_kana": null
  },
  "1116": {
    "postcode": "0881116",
    "prefecture": "北海道",
    "prefecture_kana": "ホッカイドウ",
    "prefecture_code": 1,
    "city": "厚岸郡厚岸町",
    "city_kana": "アッケシグンアッケシチョウ",
    "town": "松葉",
    "town_kana": "マツバ",
    "street": null,
    "office_name": null,
    "office_name_kana": null
  },
  "1117": {
    "postcode": "0881117",
    "prefecture": "北海道",
    "prefecture_kana": "ホッカイドウ",
    "prefecture_code": 1,
    "city": "厚岸郡厚岸町",
    "city_kana": "アッケシグンアッケシチョウ",
    "town": "御供",
    "town_kana": "オソナエ",
    "street": null,
    "office_name": null,
    "office_name_kana": null
  },
  "1118": [
    {
      "postcode": "0881118",
      "prefecture": "北海道",
      "prefecture_kana": "ホッカイドウ",
      "prefecture_code": 1,
      "city": "厚岸郡厚岸町",
      "city_kana": "アッケシグンアッケシチョウ",
      "town": "若竹",
      "town_kana": "ワカタケ",
      "street": null,
      "office_name": null,
      "office_name_kana": null
    },
    {
      "postcode": "0881118",
      "prefecture": "北海道",
      "prefecture_kana": "ホッカイドウ",
      "prefecture_code": 1,
      "city": "厚岸郡厚岸町",
      "city_kana": "アッケシグンアッケシチョウ",
      "town": "若竹町",
      "town_kana": "ワカタケチョウ",
      "street": null,
      "office_name": null,
      "office_name_kana": null
    }
  ],
  "1119": {
    "postcode": "0881119",
    "prefecture": "北海道",
    "prefecture_kana": "ホッカイドウ",
    "prefecture_code": 1,
    "city": "厚岸郡厚岸町",
    "city_kana": "アッケシグンアッケシチョウ",
    "town": "住の江",
    "town_kana": "スミノエ",
    "street": null,
    "office_name": null,
    "office_name_kana": null
  },
  "1120": {
    "postcode": "0881120",
    "prefecture": "北海道",
    "prefecture_kana": "ホッカイドウ",
    "prefecture_code": 1,
    "city": "厚岸郡厚岸町",
    "city_kana": "アッケシグンアッケシチョウ",
    "town": "山の手",
    "town_kana": "ヤマノテ",
    "street": null,
    "office_name": null,
    "office_name_kana": null
  },
  "1124": {
    "postcode": "0881124",
    "prefecture": "北海道",
    "prefecture_kana": "ホッカイドウ",
    "prefecture_code": 1,
    "city": "厚岸郡厚岸町",
    "city_kana": "アッケシグンアッケシチョウ",
    "town": "宮園",
    "town_kana": "ミヤゾノ",
    "street": null,
    "office_name": null,
    "office_name_kana": null
  },
  "1125": {
    "postcode": "0881125",
    "prefecture": "北海道",
    "prefecture_kana": "ホッカイドウ",
    "prefecture_code": 1,
    "city": "厚岸郡厚岸町",
    "city_kana": "アッケシグンアッケシチョウ",
    "town": "白浜",
    "town_kana": "シラハマ",
    "street": null,
    "office_name": null,
    "office_name_kana": null
  },
  "1126": {
    "postcode": "0881126",
    "prefecture": "北海道",
    "prefecture_kana": "ホッカイドウ",
    "prefecture_code": 1,
    "city": "厚岸郡厚岸町",
    "city_kana": "アッケシグンアッケシチョウ",
    "town": "門静",
    "town_kana": "モンシズ",
    "street": null,
    "office_name": null,
    "office_name_kana": null
  },
  "1128": {
    "postcode": "0881128",
    "prefecture": "北海道",
    "prefecture_kana": "ホッカイドウ",
    "prefecture_code": 1,
    "city": "厚岸郡厚岸町",
    "city_kana": "アッケシグンアッケシチョウ",
    "town": "港町",
    "town_kana": "ミナトマチ",
    "street": null,
    "office_name": null,
    "office_name_kana": null
  },
  "1129": {
    "postcode": "0881129",
    "prefecture": "北海道",
    "prefecture_kana": "ホッカイドウ",
    "prefecture_code": 1,
    "city": "厚岸郡厚岸町",
    "city_kana": "アッケシグンアッケシチョウ",
    "town": "光栄",
    "town_kana": "コウエイ",
    "street": null,
    "office_name": null,
    "office_name_kana": null
  },
  "1130": {
    "postcode": "0881130",
    "prefecture": "北海道",
    "prefecture_kana": "ホッカイドウ",
    "prefecture_code": 1,
    "city": "厚岸郡厚岸町",
    "city_kana": "アッケシグンアッケシチョウ",
    "town": "太田南",
    "town_kana": "オオタミナミ",
    "street": null,
    "office_name": null,
    "office_name_kana": null
  },
  "1131": {
    "postcode": "0881131",
    "prefecture": "北海道",
    "prefecture_kana": "ホッカイドウ",
    "prefecture_code": 1,
    "city": "厚岸郡厚岸町",
    "city_kana": "アッケシグンアッケシチョウ",
    "town": "太田",
    "town_kana": "オオタ",
    "street": null,
    "office_name": null,
    "office_name_kana": null
  },
  "1132": {
    "postcode": "0881132",
    "prefecture": "北海道",
    "prefecture_kana": "ホッカイドウ",
    "prefecture_code": 1,
    "city": "厚岸郡厚岸町",
    "city_kana": "アッケシグンアッケシチョウ",
    "town": "太田東",
    "town_kana": "オオタヒガシ",
    "street": null,
    "office_name": null,
    "office_name_kana": null
  },
  "1133": {
    "postcode": "0881133",
    "prefecture": "北海道",
    "prefecture_kana": "ホッカイドウ",
    "prefecture_code": 1,
    "city": "厚岸郡厚岸町",
    "city_kana": "アッケシグンアッケシチョウ",
    "town": "太田宏陽",
    "town_kana": "オオタコウヨウ",
    "street": null,
    "office_name": null,
    "office_name_kana": null
  },
  "1134": {
    "postcode": "0881134",
    "prefecture": "北海道",
    "prefecture_kana": "ホッカイドウ",
    "prefecture_code": 1,
    "city": "厚岸郡厚岸町",
    "city_kana": "アッケシグンアッケシチョウ",
    "town": "太田西",
    "town_kana": "オオタニシ",
    "street": null,
    "office_name": null,
    "office_name_kana": null
  },
  "1135": {
    "postcode": "0881135",
    "prefecture": "北海道",
    "prefecture_kana": "ホッカイドウ",
    "prefecture_code": 1,
    "city": "厚岸郡厚岸町",
    "city_kana": "アッケシグンアッケシチョウ",
    "town": "太田北",
    "town_kana": "オオタキタ",
    "street": null,
    "office_name": null,
    "office_name_kana": null
  },
  "1136": {
    "postcode": "0881136",
    "prefecture": "北海道",
    "prefecture_kana": "ホッカイドウ",
    "prefecture_code": 1,
    "city": "厚岸郡厚岸町",
    "city_kana": "アッケシグンアッケシチョウ",
    "town": "大別",
    "town_kana": "オオベツ",
    "street": null,
    "office_name": null,
    "office_name_kana": null
  },
  "1137": {
    "postcode": "0881137",
    "prefecture": "北海道",
    "prefecture_kana": "ホッカイドウ",
    "prefecture_code": 1,
    "city": "厚岸郡厚岸町",
    "city_kana": "アッケシグンアッケシチョウ",
    "town": "片無去",
    "town_kana": "カタムサリ",
    "street": null,
    "office_name": null,
    "office_name_kana": null
  },
  "1138": {
    "postcode": "0881138",
    "prefecture": "北海道",
    "prefecture_kana": "ホッカイドウ",
    "prefecture_code": 1,
    "city": "厚岸郡厚岸町",
    "city_kana": "アッケシグンアッケシチョウ",
    "town": "セタニウシ",
    "town_kana": "セタニウシ",
    "street": null,
    "office_name": null,
    "office_name_kana": null
  },
  "1139": {
    "postcode": "0881139",
    "prefecture": "北海道",
    "prefecture_kana": "ホッカイドウ",
    "prefecture_code": 1,
    "city": "厚岸郡厚岸町",
    "city_kana": "アッケシグンアッケシチョウ",
    "town": "サッテベツ",
    "town_kana": "サッテベツ",
    "street": null,
    "office_name": null,
    "office_name_kana": null
  },
  "1140": {
    "postcode": "0881140",
    "prefecture": "北海道",
    "prefecture_kana": "ホッカイドウ",
    "prefecture_code": 1,
    "city": "厚岸郡厚岸町",
    "city_kana": "アッケシグンアッケシチョウ",
    "town": "サンヌシ",
    "town_kana": "サンヌシ",
    "street": null,
    "office_name": null,
    "office_name_kana": null
  },
  "1141": {
    "postcode": "0881141",
    "prefecture": "北海道",
    "prefecture_kana": "ホッカイドウ",
    "prefecture_code": 1,
    "city": "厚岸郡厚岸町",
    "city_kana": "アッケシグンアッケシチョウ",
    "town": "太田１の通り",
    "town_kana": "オオタ1ノトオリ",
    "street": null,
    "office_name": null,
    "office_name_kana": null
  },
  "1142": {
    "postcode": "0881142",
    "prefecture": "北海道",
    "prefecture_kana": "ホッカイドウ",
    "prefecture_code": 1,
    "city": "厚岸郡厚岸町",
    "city_kana": "アッケシグンアッケシチョウ",
    "town": "太田２の通り",
    "town_kana": "オオタ2ノトオリ",
    "street": null,
    "office_name": null,
    "office_name_kana": null
  },
  "1143": {
    "postcode": "0881143",
    "prefecture": "北海道",
    "prefecture_kana": "ホッカイドウ",
    "prefecture_code": 1,
    "city": "厚岸郡厚岸町",
    "city_kana": "アッケシグンアッケシチョウ",
    "town": "太田３の通り",
    "town_kana": "オオタ3ノトオリ",
    "street": null,
    "office_name": null,
    "office_name_kana": null
  },
  "1144": {
    "postcode": "0881144",
    "prefecture": "北海道",
    "prefecture_kana": "ホッカイドウ",
    "prefecture_code": 1,
    "city": "厚岸郡厚岸町",
    "city_kana": "アッケシグンアッケシチョウ",
    "town": "太田４の通り",
    "town_kana": "オオタ4ノトオリ",
    "street": null,
    "office_name": null,
    "office_name_kana": null
  },
  "1145": {
    "postcode": "0881145",
    "prefecture": "北海道",
    "prefecture_kana": "ホッカイドウ",
    "prefecture_code": 1,
    "city": "厚岸郡厚岸町",
    "city_kana": "アッケシグンアッケシチョウ",
    "town": "太田５の通り",
    "town_kana": "オオタ5ノトオリ",
    "street": null,
    "office_name": null,
    "office_name_kana": null
  },
  "1146": {
    "postcode": "0881146",
    "prefecture": "北海道",
    "prefecture_kana": "ホッカイドウ",
    "prefecture_code": 1,
    "city": "厚岸郡厚岸町",
    "city_kana": "アッケシグンアッケシチョウ",
    "town": "太田６の通り",
    "town_kana": "オオタ6ノトオリ",
    "street": null,
    "office_name": null,
    "office_name_kana": null
  },
  "1147": {
    "postcode": "0881147",
    "prefecture": "北海道",
    "prefecture_kana": "ホッカイドウ",
    "prefecture_code": 1,
    "city": "厚岸郡厚岸町",
    "city_kana": "アッケシグンアッケシチョウ",
    "town": "太田７の通り",
    "town_kana": "オオタ7ノトオリ",
    "street": null,
    "office_name": null,
    "office_name_kana": null
  },
  "1148": {
    "postcode": "0881148",
    "prefecture": "北海道",
    "prefecture_kana": "ホッカイドウ",
    "prefecture_code": 1,
    "city": "厚岸郡厚岸町",
    "city_kana": "アッケシグンアッケシチョウ",
    "town": "太田８の通り",
    "town_kana": "オオタ8ノトオリ",
    "street": null,
    "office_name": null,
    "office_name_kana": null
  },
  "1149": {
    "postcode": "0881149",
    "prefecture": "北海道",
    "prefecture_kana": "ホッカイドウ",
    "prefecture_code": 1,
    "city": "厚岸郡厚岸町",
    "city_kana": "アッケシグンアッケシチョウ",
    "town": "太田９の通り",
    "town_kana": "オオタ9ノトオリ",
    "street": null,
    "office_name": null,
    "office_name_kana": null
  },
  "1151": {
    "postcode": "0881151",
    "prefecture": "北海道",
    "prefecture_kana": "ホッカイドウ",
    "prefecture_code": 1,
    "city": "厚岸郡厚岸町",
    "city_kana": "アッケシグンアッケシチョウ",
    "town": "真栄",
    "town_kana": "シンエイ",
    "street": null,
    "office_name": null,
    "office_name_kana": null
  },
  "1192": {
    "postcode": "0881192",
    "prefecture": "北海道",
    "prefecture_kana": "ホッカイドウ",
    "prefecture_code": 1,
    "city": "厚岸郡厚岸町",
    "city_kana": "アッケシグンアッケシチョウ",
    "town": "真栄",
    "town_kana": "シンエイ",
    "street": "３丁目１番地",
    "office_name": "厚岸町役場",
    "office_name_kana": "アツケシチヨウヤクバ"
  },
  "1193": {
    "postcode": "0881193",
    "prefecture": "北海道",
    "prefecture_kana": "ホッカイドウ",
    "prefecture_code": 1,
    "city": "厚岸郡厚岸町",
    "city_kana": "アッケシグンアッケシチョウ",
    "town": "真栄",
    "town_kana": "シンエイ",
    "street": "１丁目１６９番地",
    "office_name": "大地みらい信用金庫　厚岸支店",
    "office_name_kana": "ダイチミライシンヨウキンコ アツケシシテン"
  },
  "1195": {
    "postcode": "0881195",
    "prefecture": "北海道",
    "prefecture_kana": "ホッカイドウ",
    "prefecture_code": 1,
    "city": "厚岸郡厚岸町",
    "city_kana": "アッケシグンアッケシチョウ",
    "town": "住の江",
    "town_kana": "スミノエ",
    "street": "１丁目１番地",
    "office_name": "町立厚岸病院",
    "office_name_kana": "チヨウリツアツケシビヨウイン"
  },
  "1301": {
    "postcode": "0881301",
    "prefecture": "北海道",
    "prefecture_kana": "ホッカイドウ",
    "prefecture_code": 1,
    "city": "厚岸郡浜中町",
    "city_kana": "アッケシグンハマナカチョウ",
    "town": "一番沢",
    "town_kana": "イチバンサワ",
    "street": null,
    "office_name": null,
    "office_name_kana": null
  },
  "1302": {
    "postcode": "0881302",
    "prefecture": "北海道",
    "prefecture_kana": "ホッカイドウ",
    "prefecture_code": 1,
    "city": "厚岸郡浜中町",
    "city_kana": "アッケシグンハマナカチョウ",
    "town": "二番沢",
    "town_kana": "ニバンサワ",
    "street": null,
    "office_name": null,
    "office_name_kana": null
  },
  "1303": {
    "postcode": "0881303",
    "prefecture": "北海道",
    "prefecture_kana": "ホッカイドウ",
    "prefecture_code": 1,
    "city": "厚岸郡浜中町",
    "city_kana": "アッケシグンハマナカチョウ",
    "town": "三番沢",
    "town_kana": "サンバンサワ",
    "street": null,
    "office_name": null,
    "office_name_kana": null
  },
  "1304": {
    "postcode": "0881304",
    "prefecture": "北海道",
    "prefecture_kana": "ホッカイドウ",
    "prefecture_code": 1,
    "city": "厚岸郡浜中町",
    "city_kana": "アッケシグンハマナカチョウ",
    "town": "四番沢",
    "town_kana": "ヨバンサワ",
    "street": null,
    "office_name": null,
    "office_name_kana": null
  },
  "1306": {
    "postcode": "0881306",
    "prefecture": "北海道",
    "prefecture_kana": "ホッカイドウ",
    "prefecture_code": 1,
    "city": "厚岸郡浜中町",
    "city_kana": "アッケシグンハマナカチョウ",
    "town": "六番沢",
    "town_kana": "ロクバンサワ",
    "street": null,
    "office_name": null,
    "office_name_kana": null
  },
  "1360": [
    {
      "postcode": "0881360",
      "prefecture": "北海道",
      "prefecture_kana": "ホッカイドウ",
      "prefecture_code": 1,
      "city": "厚岸郡浜中町",
      "city_kana": "アッケシグンハマナカチョウ",
      "town": "散布村",
      "town_kana": "チリップムラ",
      "street": null,
      "office_name": null,
      "office_name_kana": null
    },
    {
      "postcode": "0881360",
      "prefecture": "北海道",
      "prefecture_kana": "ホッカイドウ",
      "prefecture_code": 1,
      "city": "厚岸郡浜中町",
      "city_kana": "アッケシグンハマナカチョウ",
      "town": "散布村北の沢",
      "town_kana": "チリップムラキタノサワ",
      "street": null,
      "office_name": null,
      "office_name_kana": null
    }
  ],
  "1361": {
    "postcode": "0881361",
    "prefecture": "北海道",
    "prefecture_kana": "ホッカイドウ",
    "prefecture_code": 1,
    "city": "厚岸郡浜中町",
    "city_kana": "アッケシグンハマナカチョウ",
    "town": "茶内緑",
    "town_kana": "チャナイミドリ",
    "street": null,
    "office_name": null,
    "office_name_kana": null
  },
  "1362": {
    "postcode": "0881362",
    "prefecture": "北海道",
    "prefecture_kana": "ホッカイドウ",
    "prefecture_code": 1,
    "city": "厚岸郡浜中町",
    "city_kana": "アッケシグンハマナカチョウ",
    "town": "茶内本町",
    "town_kana": "チャナイモトマチ",
    "street": null,
    "office_name": null,
    "office_name_kana": null
  },
  "1363": {
    "postcode": "0881363",
    "prefecture": "北海道",
    "prefecture_kana": "ホッカイドウ",
    "prefecture_code": 1,
    "city": "厚岸郡浜中町",
    "city_kana": "アッケシグンハマナカチョウ",
    "town": "茶内栄",
    "town_kana": "チャナイサカエ",
    "street": null,
    "office_name": null,
    "office_name_kana": null
  },
  "1364": {
    "postcode": "0881364",
    "prefecture": "北海道",
    "prefecture_kana": "ホッカイドウ",
    "prefecture_code": 1,
    "city": "厚岸郡浜中町",
    "city_kana": "アッケシグンハマナカチョウ",
    "town": "茶内若葉",
    "town_kana": "チャナイワカバ",
    "street": null,
    "office_name": null,
    "office_name_kana": null
  },
  "1365": {
    "postcode": "0881365",
    "prefecture": "北海道",
    "prefecture_kana": "ホッカイドウ",
    "prefecture_code": 1,
    "city": "厚岸郡浜中町",
    "city_kana": "アッケシグンハマナカチョウ",
    "town": "茶内橋北東",
    "town_kana": "チャナイキョウホクヒガシ",
    "street": null,
    "office_name": null,
    "office_name_kana": null
  },
  "1366": {
    "postcode": "0881366",
    "prefecture": "北海道",
    "prefecture_kana": "ホッカイドウ",
    "prefecture_code": 1,
    "city": "厚岸郡浜中町",
    "city_kana": "アッケシグンハマナカチョウ",
    "town": "茶内橋北西",
    "town_kana": "チャナイキョウホクニシ",
    "street": null,
    "office_name": null,
    "office_name_kana": null
  },
  "1367": {
    "postcode": "0881367",
    "prefecture": "北海道",
    "prefecture_kana": "ホッカイドウ",
    "prefecture_code": 1,
    "city": "厚岸郡浜中町",
    "city_kana": "アッケシグンハマナカチョウ",
    "town": "茶内旭",
    "town_kana": "チャナイアサヒ",
    "street": null,
    "office_name": null,
    "office_name_kana": null
  },
  "1368": [
    {
      "postcode": "0881368",
      "prefecture": "北海道",
      "prefecture_kana": "ホッカイドウ",
      "prefecture_code": 1,
      "city": "厚岸郡浜中町",
      "city_kana": "アッケシグンハマナカチョウ",
      "town": "茶内基線",
      "town_kana": "チャナイキセン",
      "street": null,
      "office_name": null,
      "office_name_kana": null
    },
    {
      "postcode": "0881368",
      "prefecture": "北海道",
      "prefecture_kana": "ホッカイドウ",
      "prefecture_code": 1,
      "city": "厚岸郡浜中町",
      "city_kana": "アッケシグンハマナカチョウ",
      "town": "茶内東１線",
      "town_kana": "チャナイヒガシ1セン",
      "street": null,
      "office_name": null,
      "office_name_kana": null
    },
    {
      "postcode": "0881368",
      "prefecture": "北海道",
      "prefecture_kana": "ホッカイドウ",
      "prefecture_code": 1,
      "city": "厚岸郡浜中町",
      "city_kana": "アッケシグンハマナカチョウ",
      "town": "茶内東２線",
      "town_kana": "チャナイヒガシ2セン",
      "street": null,
      "office_name": null,
      "office_name_kana": null
    }
  ],
  "1369": {
    "postcode": "0881369",
    "prefecture": "北海道",
    "prefecture_kana": "ホッカイドウ",
    "prefecture_code": 1,
    "city": "厚岸郡浜中町",
    "city_kana": "アッケシグンハマナカチョウ",
    "town": "茶内西",
    "town_kana": "チャナイニシ",
    "street": null,
    "office_name": null,
    "office_name_kana": null
  },
  "1370": {
    "postcode": "0881370",
    "prefecture": "北海道",
    "prefecture_kana": "ホッカイドウ",
    "prefecture_code": 1,
    "city": "厚岸郡浜中町",
    "city_kana": "アッケシグンハマナカチョウ",
    "town": "西円朱別西",
    "town_kana": "ニシエンシュベツニシ",
    "street": null,
    "office_name": null,
    "office_name_kana": null
  },
  "1371": {
    "postcode": "0881371",
    "prefecture": "北海道",
    "prefecture_kana": "ホッカイドウ",
    "prefecture_code": 1,
    "city": "厚岸郡浜中町",
    "city_kana": "アッケシグンハマナカチョウ",
    "town": "円朱別西",
    "town_kana": "エンシュベツニシ",
    "street": null,
    "office_name": null,
    "office_name_kana": null
  },
  "1389": {
    "postcode": "0881389",
    "prefecture": "北海道",
    "prefecture_kana": "ホッカイドウ",
    "prefecture_code": 1,
    "city": "厚岸郡厚岸町",
    "city_kana": "アッケシグンアッケシチョウ",
    "town": "トライベツ",
    "town_kana": "トライベツ",
    "street": null,
    "office_name": null,
    "office_name_kana": null
  },
  "1401": {
    "postcode": "0881401",
    "prefecture": "北海道",
    "prefecture_kana": "ホッカイドウ",
    "prefecture_code": 1,
    "city": "厚岸郡浜中町",
    "city_kana": "アッケシグンハマナカチョウ",
    "town": "榊町",
    "town_kana": "サカキマチ",
    "street": null,
    "office_name": null,
    "office_name_kana": null
  },
  "1402": [
    {
      "postcode": "0881402",
      "prefecture": "北海道",
      "prefecture_kana": "ホッカイドウ",
      "prefecture_code": 1,
      "city": "厚岸郡浜中町",
      "city_kana": "アッケシグンハマナカチョウ",
      "town": "後静",
      "town_kana": "シリシズ",
      "street": null,
      "office_name": null,
      "office_name_kana": null
    },
    {
      "postcode": "0881402",
      "prefecture": "北海道",
      "prefecture_kana": "ホッカイドウ",
      "prefecture_code": 1,
      "city": "厚岸郡浜中町",
      "city_kana": "アッケシグンハマナカチョウ",
      "town": "横浜",
      "town_kana": "ヨコハマ",
      "street": null,
      "office_name": null,
      "office_name_kana": null
    }
  ],
  "1403": [
    {
      "postcode": "0881403",
      "prefecture": "北海道",
      "prefecture_kana": "ホッカイドウ",
      "prefecture_code": 1,
      "city": "厚岸郡浜中町",
      "city_kana": "アッケシグンハマナカチョウ",
      "town": "アザラップ",
      "town_kana": "アザラップ",
      "street": null,
      "office_name": null,
      "office_name_kana": null
    },
    {
      "postcode": "0881403",
      "prefecture": "北海道",
      "prefecture_kana": "ホッカイドウ",
      "prefecture_code": 1,
      "city": "厚岸郡浜中町",
      "city_kana": "アッケシグンハマナカチョウ",
      "town": "幌戸",
      "town_kana": "ポロト",
      "street": null,
      "office_name": null,
      "office_name_kana": null
    }
  ],
  "1404": {
    "postcode": "0881404",
    "prefecture": "北海道",
    "prefecture_kana": "ホッカイドウ",
    "prefecture_code": 1,
    "city": "厚岸郡浜中町",
    "city_kana": "アッケシグンハマナカチョウ",
    "town": "ムギカラシナイ",
    "town_kana": "ムギカラシナイ",
    "street": null,
    "office_name": null,
    "office_name_kana": null
  },
  "1405": {
    "postcode": "0881405",
    "prefecture": "北海道",
    "prefecture_kana": "ホッカイドウ",
    "prefecture_code": 1,
    "city": "厚岸郡浜中町",
    "city_kana": "アッケシグンハマナカチョウ",
    "town": "奔幌戸",
    "town_kana": "ポンポロト",
    "street": null,
    "office_name": null,
    "office_name_kana": null
  },
  "1406": [
    {
      "postcode": "0881406",
      "prefecture": "北海道",
      "prefecture_kana": "ホッカイドウ",
      "prefecture_code": 1,
      "city": "厚岸郡浜中町",
      "city_kana": "アッケシグンハマナカチョウ",
      "town": "赤泊",
      "town_kana": "アカドマリ",
      "street": null,
      "office_name": null,
      "office_name_kana": null
    },
    {
      "postcode": "0881406",
      "prefecture": "北海道",
      "prefecture_kana": "ホッカイドウ",
      "prefecture_code": 1,
      "city": "厚岸郡浜中町",
      "city_kana": "アッケシグンハマナカチョウ",
      "town": "羨古丹",
      "town_kana": "ウラヤコタン",
      "street": null,
      "office_name": null,
      "office_name_kana": null
    }
  ],
  "1407": {
    "postcode": "0881407",
    "prefecture": "北海道",
    "prefecture_kana": "ホッカイドウ",
    "prefecture_code": 1,
    "city": "厚岸郡浜中町",
    "city_kana": "アッケシグンハマナカチョウ",
    "town": "榊町西",
    "town_kana": "サカキマチニシ",
    "street": null,
    "office_name": null,
    "office_name_kana": null
  },
  "1408": {
    "postcode": "0881408",
    "prefecture": "北海道",
    "prefecture_kana": "ホッカイドウ",
    "prefecture_code": 1,
    "city": "厚岸郡浜中町",
    "city_kana": "アッケシグンハマナカチョウ",
    "town": "大津屋沢",
    "town_kana": "オオツヤザワ",
    "street": null,
    "office_name": null,
    "office_name_kana": null
  },
  "1409": {
    "postcode": "0881409",
    "prefecture": "北海道",
    "prefecture_kana": "ホッカイドウ",
    "prefecture_code": 1,
    "city": "厚岸郡浜中町",
    "city_kana": "アッケシグンハマナカチョウ",
    "town": "走古潭",
    "town_kana": "ハシリコタン",
    "street": null,
    "office_name": null,
    "office_name_kana": null
  },
  "1412": [
    {
      "postcode": "0881412",
      "prefecture": "北海道",
      "prefecture_kana": "ホッカイドウ",
      "prefecture_code": 1,
      "city": "厚岸郡浜中町",
      "city_kana": "アッケシグンハマナカチョウ",
      "town": "後静村",
      "town_kana": "シリシズムラ",
      "street": null,
      "office_name": null,
      "office_name_kana": null
    },
    {
      "postcode": "0881412",
      "prefecture": "北海道",
      "prefecture_kana": "ホッカイドウ",
      "prefecture_code": 1,
      "city": "厚岸郡浜中町",
      "city_kana": "アッケシグンハマナカチョウ",
      "town": "後静村熊牛原野",
      "town_kana": "シリシズムラクマウシゲンヤ",
      "street": null,
      "office_name": null,
      "office_name_kana": null
    }
  ],
  "1485": {
    "postcode": "0881485",
    "prefecture": "北海道",
    "prefecture_kana": "ホッカイドウ",
    "prefecture_code": 1,
    "city": "厚岸郡浜中町",
    "city_kana": "アッケシグンハマナカチョウ",
    "town": "浜中",
    "town_kana": "ハマナカ",
    "street": null,
    "office_name": null,
    "office_name_kana": null
  },
  "1486": {
    "postcode": "0881486",
    "prefecture": "北海道",
    "prefecture_kana": "ホッカイドウ",
    "prefecture_code": 1,
    "city": "厚岸郡浜中町",
    "city_kana": "アッケシグンハマナカチョウ",
    "town": "熊牛",
    "town_kana": "クマウシ",
    "street": null,
    "office_name": null,
    "office_name_kana": null
  },
  "1487": [
    {
      "postcode": "0881487",
      "prefecture": "北海道",
      "prefecture_kana": "ホッカイドウ",
      "prefecture_code": 1,
      "city": "厚岸郡浜中町",
      "city_kana": "アッケシグンハマナカチョウ",
      "town": "茶内東３線",
      "town_kana": "チャナイヒガシ3セン",
      "street": null,
      "office_name": null,
      "office_name_kana": null
    },
    {
      "postcode": "0881487",
      "prefecture": "北海道",
      "prefecture_kana": "ホッカイドウ",
      "prefecture_code": 1,
      "city": "厚岸郡浜中町",
      "city_kana": "アッケシグンハマナカチョウ",
      "town": "茶内東４線",
      "town_kana": "チャナイヒガシ4セン",
      "street": null,
      "office_name": null,
      "office_name_kana": null
    },
    {
      "postcode": "0881487",
      "prefecture": "北海道",
      "prefecture_kana": "ホッカイドウ",
      "prefecture_code": 1,
      "city": "厚岸郡浜中町",
      "city_kana": "アッケシグンハマナカチョウ",
      "town": "茶内東５線",
      "town_kana": "チャナイヒガシ5セン",
      "street": null,
      "office_name": null,
      "office_name_kana": null
    },
    {
      "postcode": "0881487",
      "prefecture": "北海道",
      "prefecture_kana": "ホッカイドウ",
      "prefecture_code": 1,
      "city": "厚岸郡浜中町",
      "city_kana": "アッケシグンハマナカチョウ",
      "town": "茶内東６線",
      "town_kana": "チャナイヒガシ6セン",
      "street": null,
      "office_name": null,
      "office_name_kana": null
    }
  ],
  "1500": {
    "postcode": "0881500",
    "prefecture": "北海道",
    "prefecture_kana": "ホッカイドウ",
    "prefecture_code": 1,
    "city": "厚岸郡浜中町",
    "city_kana": "アッケシグンハマナカチョウ",
    "town": "",
    "town_kana": "",
    "street": null,
    "office_name": null,
    "office_name_kana": null
  },
  "1511": {
    "postcode": "0881511",
    "prefecture": "北海道",
    "prefecture_kana": "ホッカイドウ",
    "prefecture_code": 1,
    "city": "厚岸郡浜中町",
    "city_kana": "アッケシグンハマナカチョウ",
    "town": "霧多布東一条",
    "town_kana": "キリタップヒガシ1ジョウ",
    "street": null,
    "office_name": null,
    "office_name_kana": null
  },
  "1512": {
    "postcode": "0881512",
    "prefecture": "北海道",
    "prefecture_kana": "ホッカイドウ",
    "prefecture_code": 1,
    "city": "厚岸郡浜中町",
    "city_kana": "アッケシグンハマナカチョウ",
    "town": "霧多布東二条",
    "town_kana": "キリタップヒガシ2ジョウ",
    "street": null,
    "office_name": null,
    "office_name_kana": null
  },
  "1513": {
    "postcode": "0881513",
    "prefecture": "北海道",
    "prefecture_kana": "ホッカイドウ",
    "prefecture_code": 1,
    "city": "厚岸郡浜中町",
    "city_kana": "アッケシグンハマナカチョウ",
    "town": "霧多布東三条",
    "town_kana": "キリタップヒガシ3ジョウ",
    "street": null,
    "office_name": null,
    "office_name_kana": null
  },
  "1514": {
    "postcode": "0881514",
    "prefecture": "北海道",
    "prefecture_kana": "ホッカイドウ",
    "prefecture_code": 1,
    "city": "厚岸郡浜中町",
    "city_kana": "アッケシグンハマナカチョウ",
    "town": "霧多布東四条",
    "town_kana": "キリタップヒガシ4ジョウ",
    "street": null,
    "office_name": null,
    "office_name_kana": null
  },
  "1522": {
    "postcode": "0881522",
    "prefecture": "北海道",
    "prefecture_kana": "ホッカイドウ",
    "prefecture_code": 1,
    "city": "厚岸郡浜中町",
    "city_kana": "アッケシグンハマナカチョウ",
    "town": "湯沸",
    "town_kana": "トウフツ",
    "street": null,
    "office_name": null,
    "office_name_kana": null
  },
  "1524": {
    "postcode": "0881524",
    "prefecture": "北海道",
    "prefecture_kana": "ホッカイドウ",
    "prefecture_code": 1,
    "city": "厚岸郡浜中町",
    "city_kana": "アッケシグンハマナカチョウ",
    "town": "暮帰別東",
    "town_kana": "ボキベツヒガシ",
    "street": null,
    "office_name": null,
    "office_name_kana": null
  },
  "1525": {
    "postcode": "0881525",
    "prefecture": "北海道",
    "prefecture_kana": "ホッカイドウ",
    "prefecture_code": 1,
    "city": "厚岸郡浜中町",
    "city_kana": "アッケシグンハマナカチョウ",
    "town": "暮帰別西",
    "town_kana": "ボキベツニシ",
    "street": null,
    "office_name": null,
    "office_name_kana": null
  },
  "1526": {
    "postcode": "0881526",
    "prefecture": "北海道",
    "prefecture_kana": "ホッカイドウ",
    "prefecture_code": 1,
    "city": "厚岸郡浜中町",
    "city_kana": "アッケシグンハマナカチョウ",
    "town": "新川",
    "town_kana": "シンカワ",
    "street": null,
    "office_name": null,
    "office_name_kana": null
  },
  "1527": {
    "postcode": "0881527",
    "prefecture": "北海道",
    "prefecture_kana": "ホッカイドウ",
    "prefecture_code": 1,
    "city": "厚岸郡浜中町",
    "city_kana": "アッケシグンハマナカチョウ",
    "town": "新川東",
    "town_kana": "シンカワヒガシ",
    "street": null,
    "office_name": null,
    "office_name_kana": null
  },
  "1528": {
    "postcode": "0881528",
    "prefecture": "北海道",
    "prefecture_kana": "ホッカイドウ",
    "prefecture_code": 1,
    "city": "厚岸郡浜中町",
    "city_kana": "アッケシグンハマナカチョウ",
    "town": "新川西",
    "town_kana": "シンカワニシ",
    "street": null,
    "office_name": null,
    "office_name_kana": null
  },
  "1531": {
    "postcode": "0881531",
    "prefecture": "北海道",
    "prefecture_kana": "ホッカイドウ",
    "prefecture_code": 1,
    "city": "厚岸郡浜中町",
    "city_kana": "アッケシグンハマナカチョウ",
    "town": "仲の浜",
    "town_kana": "ナカノハマ",
    "street": null,
    "office_name": null,
    "office_name_kana": null
  },
  "1532": {
    "postcode": "0881532",
    "prefecture": "北海道",
    "prefecture_kana": "ホッカイドウ",
    "prefecture_code": 1,
    "city": "厚岸郡浜中町",
    "city_kana": "アッケシグンハマナカチョウ",
    "town": "琵琶瀬",
    "town_kana": "ビワセ",
    "street": null,
    "office_name": null,
    "office_name_kana": null
  },
  "1534": {
    "postcode": "0881534",
    "prefecture": "北海道",
    "prefecture_kana": "ホッカイドウ",
    "prefecture_code": 1,
    "city": "厚岸郡浜中町",
    "city_kana": "アッケシグンハマナカチョウ",
    "town": "渡散布",
    "town_kana": "ワタリチリップ",
    "street": null,
    "office_name": null,
    "office_name_kana": null
  },
  "1535": {
    "postcode": "0881535",
    "prefecture": "北海道",
    "prefecture_kana": "ホッカイドウ",
    "prefecture_code": 1,
    "city": "厚岸郡浜中町",
    "city_kana": "アッケシグンハマナカチョウ",
    "town": "養老散布",
    "town_kana": "ヨウロウチリップ",
    "street": null,
    "office_name": null,
    "office_name_kana": null
  },
  "1536": {
    "postcode": "0881536",
    "prefecture": "北海道",
    "prefecture_kana": "ホッカイドウ",
    "prefecture_code": 1,
    "city": "厚岸郡浜中町",
    "city_kana": "アッケシグンハマナカチョウ",
    "town": "火散布",
    "town_kana": "ヒチリップ",
    "street": null,
    "office_name": null,
    "office_name_kana": null
  },
  "1537": {
    "postcode": "0881537",
    "prefecture": "北海道",
    "prefecture_kana": "ホッカイドウ",
    "prefecture_code": 1,
    "city": "厚岸郡浜中町",
    "city_kana": "アッケシグンハマナカチョウ",
    "town": "丸山散布",
    "town_kana": "マルヤマチリップ",
    "street": null,
    "office_name": null,
    "office_name_kana": null
  },
  "1538": {
    "postcode": "0881538",
    "prefecture": "北海道",
    "prefecture_kana": "ホッカイドウ",
    "prefecture_code": 1,
    "city": "厚岸郡浜中町",
    "city_kana": "アッケシグンハマナカチョウ",
    "town": "藻散布",
    "town_kana": "モチリップ",
    "street": null,
    "office_name": null,
    "office_name_kana": null
  },
  "1551": {
    "postcode": "0881551",
    "prefecture": "北海道",
    "prefecture_kana": "ホッカイドウ",
    "prefecture_code": 1,
    "city": "厚岸郡浜中町",
    "city_kana": "アッケシグンハマナカチョウ",
    "town": "霧多布西一条",
    "town_kana": "キリタップニシ1ジョウ",
    "street": null,
    "office_name": null,
    "office_name_kana": null
  },
  "1552": {
    "postcode": "0881552",
    "prefecture": "北海道",
    "prefecture_kana": "ホッカイドウ",
    "prefecture_code": 1,
    "city": "厚岸郡浜中町",
    "city_kana": "アッケシグンハマナカチョウ",
    "town": "霧多布西二条",
    "town_kana": "キリタップニシ2ジョウ",
    "street": null,
    "office_name": null,
    "office_name_kana": null
  },
  "1553": {
    "postcode": "0881553",
    "prefecture": "北海道",
    "prefecture_kana": "ホッカイドウ",
    "prefecture_code": 1,
    "city": "厚岸郡浜中町",
    "city_kana": "アッケシグンハマナカチョウ",
    "town": "霧多布西三条",
    "town_kana": "キリタップニシ3ジョウ",
    "street": null,
    "office_name": null,
    "office_name_kana": null
  },
  "1554": {
    "postcode": "0881554",
    "prefecture": "北海道",
    "prefecture_kana": "ホッカイドウ",
    "prefecture_code": 1,
    "city": "厚岸郡浜中町",
    "city_kana": "アッケシグンハマナカチョウ",
    "town": "霧多布西四条",
    "town_kana": "キリタップニシ4ジョウ",
    "street": null,
    "office_name": null,
    "office_name_kana": null
  },
  "1561": {
    "postcode": "0881561",
    "prefecture": "北海道",
    "prefecture_kana": "ホッカイドウ",
    "prefecture_code": 1,
    "city": "厚岸郡浜中町",
    "city_kana": "アッケシグンハマナカチョウ",
    "town": "霧多布湿原",
    "town_kana": "キリタップシツゲン",
    "street": null,
    "office_name": null,
    "office_name_kana": null
  },
  "1571": {
    "postcode": "0881571",
    "prefecture": "北海道",
    "prefecture_kana": "ホッカイドウ",
    "prefecture_code": 1,
    "city": "厚岸郡浜中町",
    "city_kana": "アッケシグンハマナカチョウ",
    "town": "道有林",
    "town_kana": "ドウユウリン",
    "street": null,
    "office_name": null,
    "office_name_kana": null
  },
  "1592": {
    "postcode": "0881592",
    "prefecture": "北海道",
    "prefecture_kana": "ホッカイドウ",
    "prefecture_code": 1,
    "city": "厚岸郡浜中町",
    "city_kana": "アッケシグンハマナカチョウ",
    "town": "霧多布東四条",
    "town_kana": "キリタップヒガシ4ジョウ",
    "street": "１丁目３５番地１",
    "office_name": "浜中町役場",
    "office_name_kana": "ハマナカチヨウヤクバ"
  },
  "1641": {
    "postcode": "0881641",
    "prefecture": "北海道",
    "prefecture_kana": "ホッカイドウ",
    "prefecture_code": 1,
    "city": "厚岸郡浜中町",
    "city_kana": "アッケシグンハマナカチョウ",
    "town": "姉別基線",
    "town_kana": "アネベツキセン",
    "street": null,
    "office_name": null,
    "office_name_kana": null
  },
  "1643": {
    "postcode": "0881643",
    "prefecture": "北海道",
    "prefecture_kana": "ホッカイドウ",
    "prefecture_code": 1,
    "city": "厚岸郡浜中町",
    "city_kana": "アッケシグンハマナカチョウ",
    "town": "貰人",
    "town_kana": "モウライト",
    "street": null,
    "office_name": null,
    "office_name_kana": null
  },
  "1644": {
    "postcode": "0881644",
    "prefecture": "北海道",
    "prefecture_kana": "ホッカイドウ",
    "prefecture_code": 1,
    "city": "厚岸郡浜中町",
    "city_kana": "アッケシグンハマナカチョウ",
    "town": "恵茶人",
    "town_kana": "エサシト",
    "street": null,
    "office_name": null,
    "office_name_kana": null
  },
  "1645": {
    "postcode": "0881645",
    "prefecture": "北海道",
    "prefecture_kana": "ホッカイドウ",
    "prefecture_code": 1,
    "city": "厚岸郡浜中町",
    "city_kana": "アッケシグンハマナカチョウ",
    "town": "仙鳳趾",
    "town_kana": "センポウジ",
    "street": null,
    "office_name": null,
    "office_name_kana": null
  },
  "1646": {
    "postcode": "0881646",
    "prefecture": "北海道",
    "prefecture_kana": "ホッカイドウ",
    "prefecture_code": 1,
    "city": "厚岸郡浜中町",
    "city_kana": "アッケシグンハマナカチョウ",
    "town": "姉別",
    "town_kana": "アネベツ",
    "street": null,
    "office_name": null,
    "office_name_kana": null
  },
  "1647": {
    "postcode": "0881647",
    "prefecture": "北海道",
    "prefecture_kana": "ホッカイドウ",
    "prefecture_code": 1,
    "city": "厚岸郡浜中町",
    "city_kana": "アッケシグンハマナカチョウ",
    "town": "姉別南",
    "town_kana": "アネベツミナミ",
    "street": null,
    "office_name": null,
    "office_name_kana": null
  },
  "1648": {
    "postcode": "0881648",
    "prefecture": "北海道",
    "prefecture_kana": "ホッカイドウ",
    "prefecture_code": 1,
    "city": "厚岸郡浜中町",
    "city_kana": "アッケシグンハマナカチョウ",
    "town": "姉別北",
    "town_kana": "アネベツキタ",
    "street": null,
    "office_name": null,
    "office_name_kana": null
  },
  "1649": {
    "postcode": "0881649",
    "prefecture": "北海道",
    "prefecture_kana": "ホッカイドウ",
    "prefecture_code": 1,
    "city": "厚岸郡浜中町",
    "city_kana": "アッケシグンハマナカチョウ",
    "town": "姉別緑栄",
    "town_kana": "アネベツリョクエイ",
    "street": null,
    "office_name": null,
    "office_name_kana": null
  },
  "1781": {
    "postcode": "0881781",
    "prefecture": "北海道",
    "prefecture_kana": "ホッカイドウ",
    "prefecture_code": 1,
    "city": "根室市",
    "city_kana": "ネムロシ",
    "town": "落石西",
    "town_kana": "オチイシニシ",
    "street": null,
    "office_name": null,
    "office_name_kana": null
  },
  "1782": {
    "postcode": "0881782",
    "prefecture": "北海道",
    "prefecture_kana": "ホッカイドウ",
    "prefecture_code": 1,
    "city": "根室市",
    "city_kana": "ネムロシ",
    "town": "落石東",
    "town_kana": "オチイシヒガシ",
    "street": null,
    "office_name": null,
    "office_name_kana": null
  },
  "1783": {
    "postcode": "0881783",
    "prefecture": "北海道",
    "prefecture_kana": "ホッカイドウ",
    "prefecture_code": 1,
    "city": "根室市",
    "city_kana": "ネムロシ",
    "town": "浜松",
    "town_kana": "ハママツ",
    "street": null,
    "office_name": null,
    "office_name_kana": null
  },
  "1784": {
    "postcode": "0881784",
    "prefecture": "北海道",
    "prefecture_kana": "ホッカイドウ",
    "prefecture_code": 1,
    "city": "根室市",
    "city_kana": "ネムロシ",
    "town": "昆布盛",
    "town_kana": "コンブモリ",
    "street": null,
    "office_name": null,
    "office_name_kana": null
  },
  "1785": {
    "postcode": "0881785",
    "prefecture": "北海道",
    "prefecture_kana": "ホッカイドウ",
    "prefecture_code": 1,
    "city": "根室市",
    "city_kana": "ネムロシ",
    "town": "長節",
    "town_kana": "チョウブシ",
    "street": null,
    "office_name": null,
    "office_name_kana": null
  },
  "2140": {
    "postcode": "0882140",
    "prefecture": "北海道",
    "prefecture_kana": "ホッカイドウ",
    "prefecture_code": 1,
    "city": "釧路郡釧路町",
    "city_kana": "クシログンクシロチョウ",
    "town": "細岡",
    "town_kana": "ホソオカ",
    "street": null,
    "office_name": null,
    "office_name_kana": null
  },
  "2141": {
    "postcode": "0882141",
    "prefecture": "北海道",
    "prefecture_kana": "ホッカイドウ",
    "prefecture_code": 1,
    "city": "釧路郡釧路町",
    "city_kana": "クシログンクシロチョウ",
    "town": "達古武",
    "town_kana": "タッコブ",
    "street": null,
    "office_name": null,
    "office_name_kana": null
  },
  "2142": {
    "postcode": "0882142",
    "prefecture": "北海道",
    "prefecture_kana": "ホッカイドウ",
    "prefecture_code": 1,
    "city": "釧路郡釧路町",
    "city_kana": "クシログンクシロチョウ",
    "town": "遠野",
    "town_kana": "トオヤ",
    "street": null,
    "office_name": null,
    "office_name_kana": null
  },
  "2143": {
    "postcode": "0882143",
    "prefecture": "北海道",
    "prefecture_kana": "ホッカイドウ",
    "prefecture_code": 1,
    "city": "釧路郡釧路町",
    "city_kana": "クシログンクシロチョウ",
    "town": "河畔",
    "town_kana": "カハン",
    "street": null,
    "office_name": null,
    "office_name_kana": null
  },
  "2144": {
    "postcode": "0882144",
    "prefecture": "北海道",
    "prefecture_kana": "ホッカイドウ",
    "prefecture_code": 1,
    "city": "釧路郡釧路町",
    "city_kana": "クシログンクシロチョウ",
    "town": "鳥里",
    "town_kana": "トリサト",
    "street": null,
    "office_name": null,
    "office_name_kana": null
  },
  "2145": {
    "postcode": "0882145",
    "prefecture": "北海道",
    "prefecture_kana": "ホッカイドウ",
    "prefecture_code": 1,
    "city": "釧路郡釧路町",
    "city_kana": "クシログンクシロチョウ",
    "town": "遠矢",
    "town_kana": "トオヤ",
    "street": null,
    "office_name": null,
    "office_name_kana": null
  },
  "2146": {
    "postcode": "0882146",
    "prefecture": "北海道",
    "prefecture_kana": "ホッカイドウ",
    "prefecture_code": 1,
    "city": "釧路郡釧路町",
    "city_kana": "クシログンクシロチョウ",
    "town": "鳥通西",
    "town_kana": "トリトウシニシ",
    "street": null,
    "office_name": null,
    "office_name_kana": null
  },
  "2147": {
    "postcode": "0882147",
    "prefecture": "北海道",
    "prefecture_kana": "ホッカイドウ",
    "prefecture_code": 1,
    "city": "釧路郡釧路町",
    "city_kana": "クシログンクシロチョウ",
    "town": "鳥通東",
    "town_kana": "トリトウシヒガシ",
    "street": null,
    "office_name": null,
    "office_name_kana": null
  },
  "2148": {
    "postcode": "0882148",
    "prefecture": "北海道",
    "prefecture_kana": "ホッカイドウ",
    "prefecture_code": 1,
    "city": "釧路郡釧路町",
    "city_kana": "クシログンクシロチョウ",
    "town": "鳥通",
    "town_kana": "トリトウシ",
    "street": null,
    "office_name": null,
    "office_name_kana": null
  },
  "2151": {
    "postcode": "0882151",
    "prefecture": "北海道",
    "prefecture_kana": "ホッカイドウ",
    "prefecture_code": 1,
    "city": "釧路郡釧路町",
    "city_kana": "クシログンクシロチョウ",
    "town": "よし野",
    "town_kana": "ヨシノ",
    "street": null,
    "office_name": null,
    "office_name_kana": null
  },
  "2152": {
    "postcode": "0882152",
    "prefecture": "北海道",
    "prefecture_kana": "ホッカイドウ",
    "prefecture_code": 1,
    "city": "釧路郡釧路町",
    "city_kana": "クシログンクシロチョウ",
    "town": "南陽台",
    "town_kana": "ナンヨウダイ",
    "street": null,
    "office_name": null,
    "office_name_kana": null
  },
  "2153": {
    "postcode": "0882153",
    "prefecture": "北海道",
    "prefecture_kana": "ホッカイドウ",
    "prefecture_code": 1,
    "city": "釧路郡釧路町",
    "city_kana": "クシログンクシロチョウ",
    "town": "緑",
    "town_kana": "ミドリ",
    "street": null,
    "office_name": null,
    "office_name_kana": null
  },
  "2154": {
    "postcode": "0882154",
    "prefecture": "北海道",
    "prefecture_kana": "ホッカイドウ",
    "prefecture_code": 1,
    "city": "釧路郡釧路町",
    "city_kana": "クシログンクシロチョウ",
    "town": "柏東",
    "town_kana": "カシワヒガシ",
    "street": null,
    "office_name": null,
    "office_name_kana": null
  },
  "2155": {
    "postcode": "0882155",
    "prefecture": "北海道",
    "prefecture_kana": "ホッカイドウ",
    "prefecture_code": 1,
    "city": "釧路郡釧路町",
    "city_kana": "クシログンクシロチョウ",
    "town": "柏西",
    "town_kana": "カシワニシ",
    "street": null,
    "office_name": null,
    "office_name_kana": null
  },
  "2156": {
    "postcode": "0882156",
    "prefecture": "北海道",
    "prefecture_kana": "ホッカイドウ",
    "prefecture_code": 1,
    "city": "釧路郡釧路町",
    "city_kana": "クシログンクシロチョウ",
    "town": "遠矢南",
    "town_kana": "トオヤミナミ",
    "street": null,
    "office_name": null,
    "office_name_kana": null
  },
  "2157": {
    "postcode": "0882157",
    "prefecture": "北海道",
    "prefecture_kana": "ホッカイドウ",
    "prefecture_code": 1,
    "city": "釧路郡釧路町",
    "city_kana": "クシログンクシロチョウ",
    "town": "わらび",
    "town_kana": "ワラビ",
    "street": null,
    "office_name": null,
    "office_name_kana": null
  },
  "2261": {
    "postcode": "0882261",
    "prefecture": "北海道",
    "prefecture_kana": "ホッカイドウ",
    "prefecture_code": 1,
    "city": "川上郡標茶町",
    "city_kana": "カワカミグンシベチャチョウ",
    "town": "塘路",
    "town_kana": "トウロ",
    "street": null,
    "office_name": null,
    "office_name_kana": null
  },
  "2262": {
    "postcode": "0882262",
    "prefecture": "北海道",
    "prefecture_kana": "ホッカイドウ",
    "prefecture_code": 1,
    "city": "川上郡標茶町",
    "city_kana": "カワカミグンシベチャチョウ",
    "town": "ウライヤ",
    "town_kana": "ウライヤ",
    "street": null,
    "office_name": null,
    "office_name_kana": null
  },
  "2263": {
    "postcode": "0882263",
    "prefecture": "北海道",
    "prefecture_kana": "ホッカイドウ",
    "prefecture_code": 1,
    "city": "川上郡標茶町",
    "city_kana": "カワカミグンシベチャチョウ",
    "town": "沼ノ上",
    "town_kana": "ヌマノカミ",
    "street": null,
    "office_name": null,
    "office_name_kana": null
  },
  "2264": {
    "postcode": "0882264",
    "prefecture": "北海道",
    "prefecture_kana": "ホッカイドウ",
    "prefecture_code": 1,
    "city": "川上郡標茶町",
    "city_kana": "カワカミグンシベチャチョウ",
    "town": "塘路原野",
    "town_kana": "トウロゲンヤ",
    "street": null,
    "office_name": null,
    "office_name_kana": null
  },
  "2265": [
    {
      "postcode": "0882265",
      "prefecture": "北海道",
      "prefecture_kana": "ホッカイドウ",
      "prefecture_code": 1,
      "city": "川上郡標茶町",
      "city_kana": "カワカミグンシベチャチョウ",
      "town": "シラルトロ",
      "town_kana": "シラルトロ",
      "street": null,
      "office_name": null,
      "office_name_kana": null
    },
    {
      "postcode": "0882265",
      "prefecture": "北海道",
      "prefecture_kana": "ホッカイドウ",
      "prefecture_code": 1,
      "city": "川上郡標茶町",
      "city_kana": "カワカミグンシベチャチョウ",
      "town": "塘路",
      "town_kana": "トウロ",
      "street": null,
      "office_name": null,
      "office_name_kana": null
    }
  ],
  "2266": [
    {
      "postcode": "0882266",
      "prefecture": "北海道",
      "prefecture_kana": "ホッカイドウ",
      "prefecture_code": 1,
      "city": "川上郡標茶町",
      "city_kana": "カワカミグンシベチャチョウ",
      "town": "茅沼",
      "town_kana": "カヤヌマ",
      "street": null,
      "office_name": null,
      "office_name_kana": null
    },
    {
      "postcode": "0882266",
      "prefecture": "北海道",
      "prefecture_kana": "ホッカイドウ",
      "prefecture_code": 1,
      "city": "川上郡標茶町",
      "city_kana": "カワカミグンシベチャチョウ",
      "town": "コツタロ原野",
      "town_kana": "コツタロゲンヤ",
      "street": null,
      "office_name": null,
      "office_name_kana": null
    }
  ],
  "2271": {
    "postcode": "0882271",
    "prefecture": "北海道",
    "prefecture_kana": "ホッカイドウ",
    "prefecture_code": 1,
    "city": "川上郡標茶町",
    "city_kana": "カワカミグンシベチャチョウ",
    "town": "阿歴内",
    "town_kana": "アレキナイ",
    "street": null,
    "office_name": null,
    "office_name_kana": null
  },
  "2272": {
    "postcode": "0882272",
    "prefecture": "北海道",
    "prefecture_kana": "ホッカイドウ",
    "prefecture_code": 1,
    "city": "川上郡標茶町",
    "city_kana": "カワカミグンシベチャチョウ",
    "town": "阿歴内原野",
    "town_kana": "アレキナイゲンヤ",
    "street": null,
    "office_name": null,
    "office_name_kana": null
  },
  "2273": {
    "postcode": "0882273",
    "prefecture": "北海道",
    "prefecture_kana": "ホッカイドウ",
    "prefecture_code": 1,
    "city": "川上郡標茶町",
    "city_kana": "カワカミグンシベチャチョウ",
    "town": "西和",
    "town_kana": "セイワ",
    "street": null,
    "office_name": null,
    "office_name_kana": null
  },
  "2274": {
    "postcode": "0882274",
    "prefecture": "北海道",
    "prefecture_kana": "ホッカイドウ",
    "prefecture_code": 1,
    "city": "川上郡標茶町",
    "city_kana": "カワカミグンシベチャチョウ",
    "town": "東阿歴内",
    "town_kana": "ヒガシアレキナイ",
    "street": null,
    "office_name": null,
    "office_name_kana": null
  },
  "2275": {
    "postcode": "0882275",
    "prefecture": "北海道",
    "prefecture_kana": "ホッカイドウ",
    "prefecture_code": 1,
    "city": "川上郡標茶町",
    "city_kana": "カワカミグンシベチャチョウ",
    "town": "北片無去",
    "town_kana": "キタカタムサリ",
    "street": null,
    "office_name": null,
    "office_name_kana": null
  },
  "2300": {
    "postcode": "0882300",
    "prefecture": "北海道",
    "prefecture_kana": "ホッカイドウ",
    "prefecture_code": 1,
    "city": "川上郡標茶町",
    "city_kana": "カワカミグンシベチャチョウ",
    "town": "",
    "town_kana": "",
    "street": null,
    "office_name": null,
    "office_name_kana": null
  },
  "2301": {
    "postcode": "0882301",
    "prefecture": "北海道",
    "prefecture_kana": "ホッカイドウ",
    "prefecture_code": 1,
    "city": "川上郡標茶町",
    "city_kana": "カワカミグンシベチャチョウ",
    "town": "旭",
    "town_kana": "アサヒ",
    "street": null,
    "office_name": null,
    "office_name_kana": null
  },
  "2302": {
    "postcode": "0882302",
    "prefecture": "北海道",
    "prefecture_kana": "ホッカイドウ",
    "prefecture_code": 1,
    "city": "川上郡標茶町",
    "city_kana": "カワカミグンシベチャチョウ",
    "town": "富士",
    "town_kana": "フジ",
    "street": null,
    "office_name": null,
    "office_name_kana": null
  },
  "2303": {
    "postcode": "0882303",
    "prefecture": "北海道",
    "prefecture_kana": "ホッカイドウ",
    "prefecture_code": 1,
    "city": "川上郡標茶町",
    "city_kana": "カワカミグンシベチャチョウ",
    "town": "桜",
    "town_kana": "サクラ",
    "street": null,
    "office_name": null,
    "office_name_kana": null
  },
  "2304": {
    "postcode": "0882304",
    "prefecture": "北海道",
    "prefecture_kana": "ホッカイドウ",
    "prefecture_code": 1,
    "city": "川上郡標茶町",
    "city_kana": "カワカミグンシベチャチョウ",
    "town": "平和",
    "town_kana": "ヘイワ",
    "street": null,
    "office_name": null,
    "office_name_kana": null
  },
  "2305": {
    "postcode": "0882305",
    "prefecture": "北海道",
    "prefecture_kana": "ホッカイドウ",
    "prefecture_code": 1,
    "city": "川上郡標茶町",
    "city_kana": "カワカミグンシベチャチョウ",
    "town": "麻生",
    "town_kana": "アザブ",
    "street": null,
    "office_name": null,
    "office_name_kana": null
  },
  "2311": {
    "postcode": "0882311",
    "prefecture": "北海道",
    "prefecture_kana": "ホッカイドウ",
    "prefecture_code": 1,
    "city": "川上郡標茶町",
    "city_kana": "カワカミグンシベチャチョウ",
    "town": "開運",
    "town_kana": "カイウン",
    "street": null,
    "office_name": null,
    "office_name_kana": null
  },
  "2312": {
    "postcode": "0882312",
    "prefecture": "北海道",
    "prefecture_kana": "ホッカイドウ",
    "prefecture_code": 1,
    "city": "川上郡標茶町",
    "city_kana": "カワカミグンシベチャチョウ",
    "town": "川上",
    "town_kana": "カワカミ",
    "street": null,
    "office_name": null,
    "office_name_kana": null
  },
  "2313": {
    "postcode": "0882313",
    "prefecture": "北海道",
    "prefecture_kana": "ホッカイドウ",
    "prefecture_code": 1,
    "city": "川上郡標茶町",
    "city_kana": "カワカミグンシベチャチョウ",
    "town": "常盤",
    "town_kana": "トキワ",
    "street": null,
    "office_name": null,
    "office_name_kana": null
  },
  "2314": {
    "postcode": "0882314",
    "prefecture": "北海道",
    "prefecture_kana": "ホッカイドウ",
    "prefecture_code": 1,
    "city": "川上郡標茶町",
    "city_kana": "カワカミグンシベチャチョウ",
    "town": "標茶",
    "town_kana": "シベチャ",
    "street": null,
    "office_name": null,
    "office_name_kana": null
  },
  "2321": {
    "postcode": "0882321",
    "prefecture": "北海道",
    "prefecture_kana": "ホッカイドウ",
    "prefecture_code": 1,
    "city": "川上郡標茶町",
    "city_kana": "カワカミグンシベチャチョウ",
    "town": "上チャンベツ",
    "town_kana": "カミチャンベツ",
    "street": null,
    "office_name": null,
    "office_name_kana": null
  },
  "2322": {
    "postcode": "0882322",
    "prefecture": "北海道",
    "prefecture_kana": "ホッカイドウ",
    "prefecture_code": 1,
    "city": "川上郡標茶町",
    "city_kana": "カワカミグンシベチャチョウ",
    "town": "中チャンベツ",
    "town_kana": "ナカチャンベツ",
    "street": null,
    "office_name": null,
    "office_name_kana": null
  },
  "2323": {
    "postcode": "0882323",
    "prefecture": "北海道",
    "prefecture_kana": "ホッカイドウ",
    "prefecture_code": 1,
    "city": "川上郡標茶町",
    "city_kana": "カワカミグンシベチャチョウ",
    "town": "下チャンベツ",
    "town_kana": "シモチャンベツ",
    "street": null,
    "office_name": null,
    "office_name_kana": null
  },
  "2324": {
    "postcode": "0882324",
    "prefecture": "北海道",
    "prefecture_kana": "ホッカイドウ",
    "prefecture_code": 1,
    "city": "川上郡標茶町",
    "city_kana": "カワカミグンシベチャチョウ",
    "town": "雷別",
    "town_kana": "ライベツ",
    "street": null,
    "office_name": null,
    "office_name_kana": null
  },
  "2331": [
    {
      "postcode": "0882331",
      "prefecture": "北海道",
      "prefecture_kana": "ホッカイドウ",
      "prefecture_code": 1,
      "city": "川上郡標茶町",
      "city_kana": "カワカミグンシベチャチョウ",
      "town": "オソツベツ",
      "town_kana": "オソツベツ",
      "street": null,
      "office_name": null,
      "office_name_kana": null
    },
    {
      "postcode": "0882331",
      "prefecture": "北海道",
      "prefecture_kana": "ホッカイドウ",
      "prefecture_code": 1,
      "city": "川上郡標茶町",
      "city_kana": "カワカミグンシベチャチョウ",
      "town": "下オソツベツ",
      "town_kana": "シモオソツベツ",
      "street": null,
      "office_name": null,
      "office_name_kana": null
    }
  ],
  "2332": {
    "postcode": "0882332",
    "prefecture": "北海道",
    "prefecture_kana": "ホッカイドウ",
    "prefecture_code": 1,
    "city": "川上郡標茶町",
    "city_kana": "カワカミグンシベチャチョウ",
    "town": "中オソツベツ",
    "town_kana": "ナカオソツベツ",
    "street": null,
    "office_name": null,
    "office_name_kana": null
  },
  "2333": {
    "postcode": "0882333",
    "prefecture": "北海道",
    "prefecture_kana": "ホッカイドウ",
    "prefecture_code": 1,
    "city": "川上郡標茶町",
    "city_kana": "カワカミグンシベチャチョウ",
    "town": "上オソツベツ",
    "town_kana": "カミオソツベツ",
    "street": null,
    "office_name": null,
    "office_name_kana": null
  },
  "2334": {
    "postcode": "0882334",
    "prefecture": "北海道",
    "prefecture_kana": "ホッカイドウ",
    "prefecture_code": 1,
    "city": "川上郡標茶町",
    "city_kana": "カワカミグンシベチャチョウ",
    "town": "厚生",
    "town_kana": "コウセイ",
    "street": null,
    "office_name": null,
    "office_name_kana": null
  },
  "2335": {
    "postcode": "0882335",
    "prefecture": "北海道",
    "prefecture_kana": "ホッカイドウ",
    "prefecture_code": 1,
    "city": "川上郡標茶町",
    "city_kana": "カワカミグンシベチャチョウ",
    "town": "五十石",
    "town_kana": "ゴジュウコク",
    "street": null,
    "office_name": null,
    "office_name_kana": null
  },
  "2336": {
    "postcode": "0882336",
    "prefecture": "北海道",
    "prefecture_kana": "ホッカイドウ",
    "prefecture_code": 1,
    "city": "川上郡標茶町",
    "city_kana": "カワカミグンシベチャチョウ",
    "town": "ルルラン",
    "town_kana": "ルルラン",
    "street": null,
    "office_name": null,
    "office_name_kana": null
  },
  "2337": [
    {
      "postcode": "0882337",
      "prefecture": "北海道",
      "prefecture_kana": "ホッカイドウ",
      "prefecture_code": 1,
      "city": "川上郡標茶町",
      "city_kana": "カワカミグンシベチャチョウ",
      "town": "北標茶",
      "town_kana": "キタシベチャ",
      "street": null,
      "office_name": null,
      "office_name_kana": null
    },
    {
      "postcode": "0882337",
      "prefecture": "北海道",
      "prefecture_kana": "ホッカイドウ",
      "prefecture_code": 1,
      "city": "川上郡標茶町",
      "city_kana": "カワカミグンシベチャチョウ",
      "town": "栄",
      "town_kana": "サカエ",
      "street": null,
      "office_name": null,
      "office_name_kana": null
    }
  ],
  "2338": {
    "postcode": "0882338",
    "prefecture": "北海道",
    "prefecture_kana": "ホッカイドウ",
    "prefecture_code": 1,
    "city": "川上郡標茶町",
    "city_kana": "カワカミグンシベチャチョウ",
    "town": "南標茶",
    "town_kana": "ミナミシベチャ",
    "street": null,
    "office_name": null,
    "office_name_kana": null
  },
  "2339": [
    {
      "postcode": "0882339",
      "prefecture": "北海道",
      "prefecture_kana": "ホッカイドウ",
      "prefecture_code": 1,
      "city": "川上郡標茶町",
      "city_kana": "カワカミグンシベチャチョウ",
      "town": "上多和",
      "town_kana": "カミタワ",
      "street": null,
      "office_name": null,
      "office_name_kana": null
    },
    {
      "postcode": "0882339",
      "prefecture": "北海道",
      "prefecture_kana": "ホッカイドウ",
      "prefecture_code": 1,
      "city": "川上郡標茶町",
      "city_kana": "カワカミグンシベチャチョウ",
      "town": "多和",
      "town_kana": "タワ",
      "street": null,
      "office_name": null,
      "office_name_kana": null
    }
  ],
  "2380": {
    "postcode": "0882380",
    "prefecture": "北海道",
    "prefecture_kana": "ホッカイドウ",
    "prefecture_code": 1,
    "city": "川上郡標茶町",
    "city_kana": "カワカミグンシベチャチョウ",
    "town": "クチョロ原野",
    "town_kana": "クチョロゲンヤ",
    "street": null,
    "office_name": null,
    "office_name_kana": null
  },
  "2381": {
    "postcode": "0882381",
    "prefecture": "北海道",
    "prefecture_kana": "ホッカイドウ",
    "prefecture_code": 1,
    "city": "川上郡標茶町",
    "city_kana": "カワカミグンシベチャチョウ",
    "town": "中久著呂市街",
    "town_kana": "ナカクチョロシガイ",
    "street": null,
    "office_name": null,
    "office_name_kana": null
  },
  "2382": {
    "postcode": "0882382",
    "prefecture": "北海道",
    "prefecture_kana": "ホッカイドウ",
    "prefecture_code": 1,
    "city": "川上郡標茶町",
    "city_kana": "カワカミグンシベチャチョウ",
    "town": "中久著呂",
    "town_kana": "ナカクチョロ",
    "street": null,
    "office_name": null,
    "office_name_kana": null
  },
  "2388": {
    "postcode": "0882388",
    "prefecture": "北海道",
    "prefecture_kana": "ホッカイドウ",
    "prefecture_code": 1,
    "city": "川上郡標茶町",
    "city_kana": "カワカミグンシベチャチョウ",
    "town": "コッタロ",
    "town_kana": "コッタロ",
    "street": null,
    "office_name": null,
    "office_name_kana": null
  },
  "2389": {
    "postcode": "0882389",
    "prefecture": "北海道",
    "prefecture_kana": "ホッカイドウ",
    "prefecture_code": 1,
    "city": "川上郡標茶町",
    "city_kana": "カワカミグンシベチャチョウ",
    "town": "ヌマオロ原野",
    "town_kana": "ヌマオロゲンヤ",
    "street": null,
    "office_name": null,
    "office_name_kana": null
  },
  "2461": {
    "postcode": "0882461",
    "prefecture": "北海道",
    "prefecture_kana": "ホッカイドウ",
    "prefecture_code": 1,
    "city": "川上郡標茶町",
    "city_kana": "カワカミグンシベチャチョウ",
    "town": "虹別市街",
    "town_kana": "ニジベツシガイ",
    "street": null,
    "office_name": null,
    "office_name_kana": null
  },
  "2462": {
    "postcode": "0882462",
    "prefecture": "北海道",
    "prefecture_kana": "ホッカイドウ",
    "prefecture_code": 1,
    "city": "川上郡標茶町",
    "city_kana": "カワカミグンシベチャチョウ",
    "town": "虹別",
    "town_kana": "ニジベツ",
    "street": null,
    "office_name": null,
    "office_name_kana": null
  },
  "2463": [
    {
      "postcode": "0882463",
      "prefecture": "北海道",
      "prefecture_kana": "ホッカイドウ",
      "prefecture_code": 1,
      "city": "川上郡標茶町",
      "city_kana": "カワカミグンシベチャチョウ",
      "town": "虹別",
      "town_kana": "ニジベツ",
      "street": null,
      "office_name": null,
      "office_name_kana": null
    },
    {
      "postcode": "0882463",
      "prefecture": "北海道",
      "prefecture_kana": "ホッカイドウ",
      "prefecture_code": 1,
      "city": "川上郡標茶町",
      "city_kana": "カワカミグンシベチャチョウ",
      "town": "虹別上虹",
      "town_kana": "ニジベツカミニジ",
      "street": null,
      "office_name": null,
      "office_name_kana": null
    }
  ],
  "2464": [
    {
      "postcode": "0882464",
      "prefecture": "北海道",
      "prefecture_kana": "ホッカイドウ",
      "prefecture_code": 1,
      "city": "川上郡標茶町",
      "city_kana": "カワカミグンシベチャチョウ",
      "town": "虹別",
      "town_kana": "ニジベツ",
      "street": null,
      "office_name": null,
      "office_name_kana": null
    },
    {
      "postcode": "0882464",
      "prefecture": "北海道",
      "prefecture_kana": "ホッカイドウ",
      "prefecture_code": 1,
      "city": "川上郡標茶町",
      "city_kana": "カワカミグンシベチャチョウ",
      "town": "虹別中虹",
      "town_kana": "ニジベツナカニジ",
      "street": null,
      "office_name": null,
      "office_name_kana": null
    }
  ],
  "2465": [
    {
      "postcode": "0882465",
      "prefecture": "北海道",
      "prefecture_kana": "ホッカイドウ",
      "prefecture_code": 1,
      "city": "川上郡標茶町",
      "city_kana": "カワカミグンシベチャチョウ",
      "town": "虹別",
      "town_kana": "ニジベツ",
      "street": null,
      "office_name": null,
      "office_name_kana": null
    },
    {
      "postcode": "0882465",
      "prefecture": "北海道",
      "prefecture_kana": "ホッカイドウ",
      "prefecture_code": 1,
      "city": "川上郡標茶町",
      "city_kana": "カワカミグンシベチャチョウ",
      "town": "虹別萩野",
      "town_kana": "ニジベツハギノ",
      "street": null,
      "office_name": null,
      "office_name_kana": null
    }
  ],
  "2561": {
    "postcode": "0882561",
    "prefecture": "北海道",
    "prefecture_kana": "ホッカイドウ",
    "prefecture_code": 1,
    "city": "野付郡別海町",
    "city_kana": "ノツケグンベツカイチョウ",
    "town": "西春別駅前柏町",
    "town_kana": "ニシシュンベツエキマエカシワチョウ",
    "street": null,
    "office_name": null,
    "office_name_kana": null
  },
  "2562": {
    "postcode": "0882562",
    "prefecture": "北海道",
    "prefecture_kana": "ホッカイドウ",
    "prefecture_code": 1,
    "city": "野付郡別海町",
    "city_kana": "ノツケグンベツカイチョウ",
    "town": "西春別駅前栄町",
    "town_kana": "ニシシュンベツエキマエサカエチョウ",
    "street": null,
    "office_name": null,
    "office_name_kana": null
  },
  "2563": {
    "postcode": "0882563",
    "prefecture": "北海道",
    "prefecture_kana": "ホッカイドウ",
    "prefecture_code": 1,
    "city": "野付郡別海町",
    "city_kana": "ノツケグンベツカイチョウ",
    "town": "西春別駅前錦町",
    "town_kana": "ニシシュンベツエキマエニシキチョウ",
    "street": null,
    "office_name": null,
    "office_name_kana": null
  },
  "2564": {
    "postcode": "0882564",
    "prefecture": "北海道",
    "prefecture_kana": "ホッカイドウ",
    "prefecture_code": 1,
    "city": "野付郡別海町",
    "city_kana": "ノツケグンベツカイチョウ",
    "town": "西春別駅前西町",
    "town_kana": "ニシシュンベツエキマエニシチョウ",
    "street": null,
    "office_name": null,
    "office_name_kana": null
  },
  "2565": {
    "postcode": "0882565",
    "prefecture": "北海道",
    "prefecture_kana": "ホッカイドウ",
    "prefecture_code": 1,
    "city": "野付郡別海町",
    "city_kana": "ノツケグンベツカイチョウ",
    "town": "西春別駅前寿町",
    "town_kana": "ニシシュンベツエキマエコトブキチョウ",
    "street": null,
    "office_name": null,
    "office_name_kana": null
  },
  "2566": {
    "postcode": "0882566",
    "prefecture": "北海道",
    "prefecture_kana": "ホッカイドウ",
    "prefecture_code": 1,
    "city": "野付郡別海町",
    "city_kana": "ノツケグンベツカイチョウ",
    "town": "西春別駅前曙町",
    "town_kana": "ニシシュンベツエキマエアケボノチョウ",
    "street": null,
    "office_name": null,
    "office_name_kana": null
  },
  "2571": {
    "postcode": "0882571",
    "prefecture": "北海道",
    "prefecture_kana": "ホッカイドウ",
    "prefecture_code": 1,
    "city": "野付郡別海町",
    "city_kana": "ノツケグンベツカイチョウ",
    "town": "西春別幸町",
    "town_kana": "ニシシュンベツサイワイチョウ",
    "street": null,
    "office_name": null,
    "office_name_kana": null
  },
  "2572": {
    "postcode": "0882572",
    "prefecture": "北海道",
    "prefecture_kana": "ホッカイドウ",
    "prefecture_code": 1,
    "city": "野付郡別海町",
    "city_kana": "ノツケグンベツカイチョウ",
    "town": "西春別清川町",
    "town_kana": "ニシシュンベツキヨカワチョウ",
    "street": null,
    "office_name": null,
    "office_name_kana": null
  },
  "2573": {
    "postcode": "0882573",
    "prefecture": "北海道",
    "prefecture_kana": "ホッカイドウ",
    "prefecture_code": 1,
    "city": "野付郡別海町",
    "city_kana": "ノツケグンベツカイチョウ",
    "town": "西春別本久町",
    "town_kana": "ニシシュンベツホンキュウチョウ",
    "street": null,
    "office_name": null,
    "office_name_kana": null
  },
  "2574": {
    "postcode": "0882574",
    "prefecture": "北海道",
    "prefecture_kana": "ホッカイドウ",
    "prefecture_code": 1,
    "city": "野付郡別海町",
    "city_kana": "ノツケグンベツカイチョウ",
    "town": "西春別昭栄町",
    "town_kana": "ニシシュンベツショウエイチョウ",
    "street": null,
    "office_name": null,
    "office_name_kana": null
  },
  "2575": {
    "postcode": "0882575",
    "prefecture": "北海道",
    "prefecture_kana": "ホッカイドウ",
    "prefecture_code": 1,
    "city": "野付郡別海町",
    "city_kana": "ノツケグンベツカイチョウ",
    "town": "西春別宮園町",
    "town_kana": "ニシシュンベツミヤゾノチョウ",
    "street": null,
    "office_name": null,
    "office_name_kana": null
  },
  "2576": {
    "postcode": "0882576",
    "prefecture": "北海道",
    "prefecture_kana": "ホッカイドウ",
    "prefecture_code": 1,
    "city": "野付郡別海町",
    "city_kana": "ノツケグンベツカイチョウ",
    "town": "西春別",
    "town_kana": "ニシシュンベツ",
    "street": null,
    "office_name": null,
    "office_name_kana": null
  },
  "2577": {
    "postcode": "0882577",
    "prefecture": "北海道",
    "prefecture_kana": "ホッカイドウ",
    "prefecture_code": 1,
    "city": "野付郡別海町",
    "city_kana": "ノツケグンベツカイチョウ",
    "town": "矢臼別",
    "town_kana": "ヤウスベツ",
    "street": null,
    "office_name": null,
    "office_name_kana": null
  },
  "2578": {
    "postcode": "0882578",
    "prefecture": "北海道",
    "prefecture_kana": "ホッカイドウ",
    "prefecture_code": 1,
    "city": "野付郡別海町",
    "city_kana": "ノツケグンベツカイチョウ",
    "town": "泉川",
    "town_kana": "イズミカワ",
    "street": null,
    "office_name": null,
    "office_name_kana": null
  },
  "2592": {
    "postcode": "0882592",
    "prefecture": "北海道",
    "prefecture_kana": "ホッカイドウ",
    "prefecture_code": 1,
    "city": "野付郡別海町",
    "city_kana": "ノツケグンベツカイチョウ",
    "town": "西春別駅前寿町",
    "town_kana": "ニシシュンベツエキマエコトブキチョウ",
    "street": "１５番地",
    "office_name": "道東あさひ農業協同組合　西春別支所",
    "office_name_kana": "ドウトウアサヒノウギヨウキヨウドウクミアイ ニシシユンベツシシヨ"
  },
  "2593": {
    "postcode": "0882593",
    "prefecture": "北海道",
    "prefecture_kana": "ホッカイドウ",
    "prefecture_code": 1,
    "city": "野付郡別海町",
    "city_kana": "ノツケグンベツカイチョウ",
    "town": "西春別",
    "town_kana": "ニシシュンベツ",
    "street": "４２−１",
    "office_name": "陸上自衛隊　別海駐屯地",
    "office_name_kana": "リクジヨウジエイタイ ベツカイチユウトンチ"
  },
  "2601": {
    "postcode": "0882601",
    "prefecture": "北海道",
    "prefecture_kana": "ホッカイドウ",
    "prefecture_code": 1,
    "city": "野付郡別海町",
    "city_kana": "ノツケグンベツカイチョウ",
    "town": "大成",
    "town_kana": "タイセイ",
    "street": null,
    "office_name": null,
    "office_name_kana": null
  },
  "2602": {
    "postcode": "0882602",
    "prefecture": "北海道",
    "prefecture_kana": "ホッカイドウ",
    "prefecture_code": 1,
    "city": "野付郡別海町",
    "city_kana": "ノツケグンベツカイチョウ",
    "town": "本別",
    "town_kana": "ホンベツ",
    "street": null,
    "office_name": null,
    "office_name_kana": null
  },
  "2681": {
    "postcode": "0882681",
    "prefecture": "北海道",
    "prefecture_kana": "ホッカイドウ",
    "prefecture_code": 1,
    "city": "標津郡中標津町",
    "city_kana": "シベツグンナカシベツチョウ",
    "town": "当幌",
    "town_kana": "トウホロ",
    "street": null,
    "office_name": null,
    "office_name_kana": null
  },
  "2682": {
    "postcode": "0882682",
    "prefecture": "北海道",
    "prefecture_kana": "ホッカイドウ",
    "prefecture_code": 1,
    "city": "標津郡中標津町",
    "city_kana": "シベツグンナカシベツチョウ",
    "town": "計根別",
    "town_kana": "ケネベツ",
    "street": null,
    "office_name": null,
    "office_name_kana": null
  },
  "2683": {
    "postcode": "0882683",
    "prefecture": "北海道",
    "prefecture_kana": "ホッカイドウ",
    "prefecture_code": 1,
    "city": "標津郡中標津町",
    "city_kana": "シベツグンナカシベツチョウ",
    "town": "上標津",
    "town_kana": "カミシベツ",
    "street": null,
    "office_name": null,
    "office_name_kana": null
  },
  "2684": {
    "postcode": "0882684",
    "prefecture": "北海道",
    "prefecture_kana": "ホッカイドウ",
    "prefecture_code": 1,
    "city": "標津郡中標津町",
    "city_kana": "シベツグンナカシベツチョウ",
    "town": "養老牛",
    "town_kana": "ヨウロウウシ",
    "street": null,
    "office_name": null,
    "office_name_kana": null
  },
  "2685": {
    "postcode": "0882685",
    "prefecture": "北海道",
    "prefecture_kana": "ホッカイドウ",
    "prefecture_code": 1,
    "city": "標津郡中標津町",
    "city_kana": "シベツグンナカシベツチョウ",
    "town": "西竹",
    "town_kana": "ニシタケ",
    "street": null,
    "office_name": null,
    "office_name_kana": null
  },
  "2686": {
    "postcode": "0882686",
    "prefecture": "北海道",
    "prefecture_kana": "ホッカイドウ",
    "prefecture_code": 1,
    "city": "標津郡中標津町",
    "city_kana": "シベツグンナカシベツチョウ",
    "town": "俣落",
    "town_kana": "マタオチ",
    "street": null,
    "office_name": null,
    "office_name_kana": null
  },
  "2721": {
    "postcode": "0882721",
    "prefecture": "北海道",
    "prefecture_kana": "ホッカイドウ",
    "prefecture_code": 1,
    "city": "野付郡別海町",
    "city_kana": "ノツケグンベツカイチョウ",
    "town": "上春別緑町",
    "town_kana": "カミシュンベツミドリチョウ",
    "street": null,
    "office_name": null,
    "office_name_kana": null
  },
  "2722": {
    "postcode": "0882722",
    "prefecture": "北海道",
    "prefecture_kana": "ホッカイドウ",
    "prefecture_code": 1,
    "city": "野付郡別海町",
    "city_kana": "ノツケグンベツカイチョウ",
    "town": "上春別旭町",
    "town_kana": "カミシュンベツアサヒチョウ",
    "street": null,
    "office_name": null,
    "office_name_kana": null
  },
  "2723": {
    "postcode": "0882723",
    "prefecture": "北海道",
    "prefecture_kana": "ホッカイドウ",
    "prefecture_code": 1,
    "city": "野付郡別海町",
    "city_kana": "ノツケグンベツカイチョウ",
    "town": "上春別南町",
    "town_kana": "カミシュンベツミナミチョウ",
    "street": null,
    "office_name": null,
    "office_name_kana": null
  },
  "2724": {
    "postcode": "0882724",
    "prefecture": "北海道",
    "prefecture_kana": "ホッカイドウ",
    "prefecture_code": 1,
    "city": "野付郡別海町",
    "city_kana": "ノツケグンベツカイチョウ",
    "town": "上春別栄町",
    "town_kana": "カミシュンベツサカエチョウ",
    "street": null,
    "office_name": null,
    "office_name_kana": null
  },
  "2725": {
    "postcode": "0882725",
    "prefecture": "北海道",
    "prefecture_kana": "ホッカイドウ",
    "prefecture_code": 1,
    "city": "野付郡別海町",
    "city_kana": "ノツケグンベツカイチョウ",
    "town": "上春別",
    "town_kana": "カミシュンベツ",
    "street": null,
    "office_name": null,
    "office_name_kana": null
  },
  "3141": {
    "postcode": "0883141",
    "prefecture": "北海道",
    "prefecture_kana": "ホッカイドウ",
    "prefecture_code": 1,
    "city": "川上郡標茶町",
    "city_kana": "カワカミグンシベチャチョウ",
    "town": "多和",
    "town_kana": "タワ",
    "street": null,
    "office_name": null,
    "office_name_kana": null
  },
  "3142": {
    "postcode": "0883142",
    "prefecture": "北海道",
    "prefecture_kana": "ホッカイドウ",
    "prefecture_code": 1,
    "city": "川上郡標茶町",
    "city_kana": "カワカミグンシベチャチョウ",
    "town": "上磯分内",
    "town_kana": "カミイソブンナイ",
    "street": null,
    "office_name": null,
    "office_name_kana": null
  },
  "3143": {
    "postcode": "0883143",
    "prefecture": "北海道",
    "prefecture_kana": "ホッカイドウ",
    "prefecture_code": 1,
    "city": "川上郡標茶町",
    "city_kana": "カワカミグンシベチャチョウ",
    "town": "磯分内美幌",
    "town_kana": "イソブンナイビホロ",
    "street": null,
    "office_name": null,
    "office_name_kana": null
  },
  "3144": {
    "postcode": "0883144",
    "prefecture": "北海道",
    "prefecture_kana": "ホッカイドウ",
    "prefecture_code": 1,
    "city": "川上郡標茶町",
    "city_kana": "カワカミグンシベチャチョウ",
    "town": "中多和",
    "town_kana": "ナカタワ",
    "street": null,
    "office_name": null,
    "office_name_kana": null
  },
  "3145": {
    "postcode": "0883145",
    "prefecture": "北海道",
    "prefecture_kana": "ホッカイドウ",
    "prefecture_code": 1,
    "city": "川上郡標茶町",
    "city_kana": "カワカミグンシベチャチョウ",
    "town": "熊牛原野",
    "town_kana": "クマウシゲンヤ",
    "street": null,
    "office_name": null,
    "office_name_kana": null
  },
  "3146": {
    "postcode": "0883146",
    "prefecture": "北海道",
    "prefecture_kana": "ホッカイドウ",
    "prefecture_code": 1,
    "city": "川上郡標茶町",
    "city_kana": "カワカミグンシベチャチョウ",
    "town": "磯分内下",
    "town_kana": "イソブンナイシモ",
    "street": null,
    "office_name": null,
    "office_name_kana": null
  },
  "3147": {
    "postcode": "0883147",
    "prefecture": "北海道",
    "prefecture_kana": "ホッカイドウ",
    "prefecture_code": 1,
    "city": "川上郡標茶町",
    "city_kana": "カワカミグンシベチャチョウ",
    "town": "磯分内市街",
    "town_kana": "イソブンナイシガイ",
    "street": null,
    "office_name": null,
    "office_name_kana": null
  },
  "3148": {
    "postcode": "0883148",
    "prefecture": "北海道",
    "prefecture_kana": "ホッカイドウ",
    "prefecture_code": 1,
    "city": "川上郡標茶町",
    "city_kana": "カワカミグンシベチャチョウ",
    "town": "磯分内福島",
    "town_kana": "イソブンナイフクシマ",
    "street": null,
    "office_name": null,
    "office_name_kana": null
  },
  "3149": {
    "postcode": "0883149",
    "prefecture": "北海道",
    "prefecture_kana": "ホッカイドウ",
    "prefecture_code": 1,
    "city": "川上郡標茶町",
    "city_kana": "カワカミグンシベチャチョウ",
    "town": "磯分内乙西",
    "town_kana": "イソブンナイオツニシ",
    "street": null,
    "office_name": null,
    "office_name_kana": null
  },
  "3151": {
    "postcode": "0883151",
    "prefecture": "北海道",
    "prefecture_kana": "ホッカイドウ",
    "prefecture_code": 1,
    "city": "川上郡標茶町",
    "city_kana": "カワカミグンシベチャチョウ",
    "town": "磯分内上",
    "town_kana": "イソブンナイカミ",
    "street": null,
    "office_name": null,
    "office_name_kana": null
  },
  "3152": {
    "postcode": "0883152",
    "prefecture": "北海道",
    "prefecture_kana": "ホッカイドウ",
    "prefecture_code": 1,
    "city": "川上郡標茶町",
    "city_kana": "カワカミグンシベチャチョウ",
    "town": "磯分内協盛",
    "town_kana": "イソブンナイキョウセイ",
    "street": null,
    "office_name": null,
    "office_name_kana": null
  },
  "3153": {
    "postcode": "0883153",
    "prefecture": "北海道",
    "prefecture_kana": "ホッカイドウ",
    "prefecture_code": 1,
    "city": "川上郡標茶町",
    "city_kana": "カワカミグンシベチャチョウ",
    "town": "磯分内小林",
    "town_kana": "イソブンナイコバヤシ",
    "street": null,
    "office_name": null,
    "office_name_kana": null
  },
  "3154": {
    "postcode": "0883154",
    "prefecture": "北海道",
    "prefecture_kana": "ホッカイドウ",
    "prefecture_code": 1,
    "city": "川上郡標茶町",
    "city_kana": "カワカミグンシベチャチョウ",
    "town": "栄",
    "town_kana": "サカエ",
    "street": null,
    "office_name": null,
    "office_name_kana": null
  },
  "3155": {
    "postcode": "0883155",
    "prefecture": "北海道",
    "prefecture_kana": "ホッカイドウ",
    "prefecture_code": 1,
    "city": "川上郡標茶町",
    "city_kana": "カワカミグンシベチャチョウ",
    "town": "磯分内平泉",
    "town_kana": "イソブンナイヒライズミ",
    "street": null,
    "office_name": null,
    "office_name_kana": null
  },
  "3156": {
    "postcode": "0883156",
    "prefecture": "北海道",
    "prefecture_kana": "ホッカイドウ",
    "prefecture_code": 1,
    "city": "川上郡標茶町",
    "city_kana": "カワカミグンシベチャチョウ",
    "town": "磯分内平和",
    "town_kana": "イソブンナイヘイワ",
    "street": null,
    "office_name": null,
    "office_name_kana": null
  },
  "3157": {
    "postcode": "0883157",
    "prefecture": "北海道",
    "prefecture_kana": "ホッカイドウ",
    "prefecture_code": 1,
    "city": "川上郡標茶町",
    "city_kana": "カワカミグンシベチャチョウ",
    "town": "磯分内憩",
    "town_kana": "イソブンナイコイ",
    "street": null,
    "office_name": null,
    "office_name_kana": null
  },
  "3200": {
    "postcode": "0883200",
    "prefecture": "北海道",
    "prefecture_kana": "ホッカイドウ",
    "prefecture_code": 1,
    "city": "川上郡弟子屈町",
    "city_kana": "カワカミグンテシカガチョウ",
    "town": "",
    "town_kana": "",
    "street": null,
    "office_name": null,
    "office_name_kana": null
  },
  "3201": {
    "postcode": "0883201",
    "prefecture": "北海道",
    "prefecture_kana": "ホッカイドウ",
    "prefecture_code": 1,
    "city": "川上郡弟子屈町",
    "city_kana": "カワカミグンテシカガチョウ",
    "town": "摩周",
    "town_kana": "マシュウ",
    "street": null,
    "office_name": null,
    "office_name_kana": null
  },
  "3202": {
    "postcode": "0883202",
    "prefecture": "北海道",
    "prefecture_kana": "ホッカイドウ",
    "prefecture_code": 1,
    "city": "川上郡弟子屈町",
    "city_kana": "カワカミグンテシカガチョウ",
    "town": "鈴蘭",
    "town_kana": "スズラン",
    "street": null,
    "office_name": null,
    "office_name_kana": null
  },
  "3203": {
    "postcode": "0883203",
    "prefecture": "北海道",
    "prefecture_kana": "ホッカイドウ",
    "prefecture_code": 1,
    "city": "川上郡弟子屈町",
    "city_kana": "カワカミグンテシカガチョウ",
    "town": "湯の島",
    "town_kana": "ユノシマ",
    "street": null,
    "office_name": null,
    "office_name_kana": null
  },
  "3204": {
    "postcode": "0883204",
    "prefecture": "北海道",
    "prefecture_kana": "ホッカイドウ",
    "prefecture_code": 1,
    "city": "川上郡弟子屈町",
    "city_kana": "カワカミグンテシカガチョウ",
    "town": "朝日",
    "town_kana": "アサヒ",
    "street": null,
    "office_name": null,
    "office_name_kana": null
  },
  "3211": {
    "postcode": "0883211",
    "prefecture": "北海道",
    "prefecture_kana": "ホッカイドウ",
    "prefecture_code": 1,
    "city": "川上郡弟子屈町",
    "city_kana": "カワカミグンテシカガチョウ",
    "town": "中央",
    "town_kana": "チュウオウ",
    "street": null,
    "office_name": null,
    "office_name_kana": null
  },
  "3212": {
    "postcode": "0883212",
    "prefecture": "北海道",
    "prefecture_kana": "ホッカイドウ",
    "prefecture_code": 1,
    "city": "川上郡弟子屈町",
    "city_kana": "カワカミグンテシカガチョウ",
    "town": "泉",
    "town_kana": "イズミ",
    "street": null,
    "office_name": null,
    "office_name_kana": null
  },
  "3213": {
    "postcode": "0883213",
    "prefecture": "北海道",
    "prefecture_kana": "ホッカイドウ",
    "prefecture_code": 1,
    "city": "川上郡弟子屈町",
    "city_kana": "カワカミグンテシカガチョウ",
    "town": "桜丘",
    "town_kana": "サクラオカ",
    "street": null,
    "office_name": null,
    "office_name_kana": null
  },
  "3214": {
    "postcode": "0883214",
    "prefecture": "北海道",
    "prefecture_kana": "ホッカイドウ",
    "prefecture_code": 1,
    "city": "川上郡弟子屈町",
    "city_kana": "カワカミグンテシカガチョウ",
    "town": "高栄",
    "town_kana": "コウエイ",
    "street": null,
    "office_name": null,
    "office_name_kana": null
  },
  "3215": {
    "postcode": "0883215",
    "prefecture": "北海道",
    "prefecture_kana": "ホッカイドウ",
    "prefecture_code": 1,
    "city": "川上郡弟子屈町",
    "city_kana": "カワカミグンテシカガチョウ",
    "town": "美里",
    "town_kana": "ミサト",
    "street": null,
    "office_name": null,
    "office_name_kana": null
  },
  "3221": [
    {
      "postcode": "0883221",
      "prefecture": "北海道",
      "prefecture_kana": "ホッカイドウ",
      "prefecture_code": 1,
      "city": "川上郡弟子屈町",
      "city_kana": "カワカミグンテシカガチョウ",
      "town": "鐺別",
      "town_kana": "トウベツ",
      "street": null,
      "office_name": null,
      "office_name_kana": null
    },
    {
      "postcode": "0883221",
      "prefecture": "北海道",
      "prefecture_kana": "ホッカイドウ",
      "prefecture_code": 1,
      "city": "川上郡弟子屈町",
      "city_kana": "カワカミグンテシカガチョウ",
      "town": "鐺別原野",
      "town_kana": "トウベツゲンヤ",
      "street": null,
      "office_name": null,
      "office_name_kana": null
    }
  ],
  "3222": {
    "postcode": "0883222",
    "prefecture": "北海道",
    "prefecture_kana": "ホッカイドウ",
    "prefecture_code": 1,
    "city": "川上郡弟子屈町",
    "city_kana": "カワカミグンテシカガチョウ",
    "town": "弟子屈原野",
    "town_kana": "テシカガゲンヤ",
    "street": null,
    "office_name": null,
    "office_name_kana": null
  },
  "3223": {
    "postcode": "0883223",
    "prefecture": "北海道",
    "prefecture_kana": "ホッカイドウ",
    "prefecture_code": 1,
    "city": "川上郡弟子屈町",
    "city_kana": "カワカミグンテシカガチョウ",
    "town": "仁多",
    "town_kana": "ニタ",
    "street": null,
    "office_name": null,
    "office_name_kana": null
  },
  "3224": {
    "postcode": "0883224",
    "prefecture": "北海道",
    "prefecture_kana": "ホッカイドウ",
    "prefecture_code": 1,
    "city": "川上郡弟子屈町",
    "city_kana": "カワカミグンテシカガチョウ",
    "town": "平和",
    "town_kana": "ヘイワ",
    "street": null,
    "office_name": null,
    "office_name_kana": null
  },
  "3225": {
    "postcode": "0883225",
    "prefecture": "北海道",
    "prefecture_kana": "ホッカイドウ",
    "prefecture_code": 1,
    "city": "川上郡弟子屈町",
    "city_kana": "カワカミグンテシカガチョウ",
    "town": "最栄利別",
    "town_kana": "モエリベツ",
    "street": null,
    "office_name": null,
    "office_name_kana": null
  },
  "3226": {
    "postcode": "0883226",
    "prefecture": "北海道",
    "prefecture_kana": "ホッカイドウ",
    "prefecture_code": 1,
    "city": "川上郡弟子屈町",
    "city_kana": "カワカミグンテシカガチョウ",
    "town": "奥オソベツ",
    "town_kana": "オクオソベツ",
    "street": null,
    "office_name": null,
    "office_name_kana": null
  },
  "3227": {
    "postcode": "0883227",
    "prefecture": "北海道",
    "prefecture_kana": "ホッカイドウ",
    "prefecture_code": 1,
    "city": "川上郡弟子屈町",
    "city_kana": "カワカミグンテシカガチョウ",
    "town": "重内",
    "town_kana": "オモナイ",
    "street": null,
    "office_name": null,
    "office_name_kana": null
  },
  "3228": {
    "postcode": "0883228",
    "prefecture": "北海道",
    "prefecture_kana": "ホッカイドウ",
    "prefecture_code": 1,
    "city": "川上郡弟子屈町",
    "city_kana": "カワカミグンテシカガチョウ",
    "town": "奥春別",
    "town_kana": "オクシュンベツ",
    "street": null,
    "office_name": null,
    "office_name_kana": null
  },
  "3271": {
    "postcode": "0883271",
    "prefecture": "北海道",
    "prefecture_kana": "ホッカイドウ",
    "prefecture_code": 1,
    "city": "川上郡弟子屈町",
    "city_kana": "カワカミグンテシカガチョウ",
    "town": "南弟子屈",
    "town_kana": "ミナミテシカガ",
    "street": null,
    "office_name": null,
    "office_name_kana": null
  },
  "3292": {
    "postcode": "0883292",
    "prefecture": "北海道",
    "prefecture_kana": "ホッカイドウ",
    "prefecture_code": 1,
    "city": "川上郡弟子屈町",
    "city_kana": "カワカミグンテシカガチョウ",
    "town": "中央",
    "town_kana": "チュウオウ",
    "street": "２丁目３番１号",
    "office_name": "弟子屈町",
    "office_name_kana": "テシカガチヨウ"
  },
  "3293": {
    "postcode": "0883293",
    "prefecture": "北海道",
    "prefecture_kana": "ホッカイドウ",
    "prefecture_code": 1,
    "city": "川上郡弟子屈町",
    "city_kana": "カワカミグンテシカガチョウ",
    "town": "奥春別原野",
    "town_kana": null,
    "street": "４５線西１００−４７",
    "office_name": "薬学検定事務局　細見",
    "office_name_kana": "ヤクガクケンテイジムキヨク ホソミ"
  },
  "3331": [
    {
      "postcode": "0883331",
      "prefecture": "北海道",
      "prefecture_kana": "ホッカイドウ",
      "prefecture_code": 1,
      "city": "川上郡弟子屈町",
      "city_kana": "カワカミグンテシカガチョウ",
      "town": "美留和",
      "town_kana": "ビルワ",
      "street": null,
      "office_name": null,
      "office_name_kana": null
    },
    {
      "postcode": "0883331",
      "prefecture": "北海道",
      "prefecture_kana": "ホッカイドウ",
      "prefecture_code": 1,
      "city": "川上郡弟子屈町",
      "city_kana": "カワカミグンテシカガチョウ",
      "town": "美留和原野",
      "town_kana": "ビルワゲンヤ",
      "street": null,
      "office_name": null,
      "office_name_kana": null
    }
  ],
  "3332": [
    {
      "postcode": "0883332",
      "prefecture": "北海道",
      "prefecture_kana": "ホッカイドウ",
      "prefecture_code": 1,
      "city": "川上郡弟子屈町",
      "city_kana": "カワカミグンテシカガチョウ",
      "town": "札友内",
      "town_kana": "サツトモナイ",
      "street": null,
      "office_name": null,
      "office_name_kana": null
    },
    {
      "postcode": "0883332",
      "prefecture": "北海道",
      "prefecture_kana": "ホッカイドウ",
      "prefecture_code": 1,
      "city": "川上郡弟子屈町",
      "city_kana": "カワカミグンテシカガチョウ",
      "town": "札友内原野",
      "town_kana": "サツトモナイゲンヤ",
      "street": null,
      "office_name": null,
      "office_name_kana": null
    }
  ],
  "3341": [
    {
      "postcode": "0883341",
      "prefecture": "北海道",
      "prefecture_kana": "ホッカイドウ",
      "prefecture_code": 1,
      "city": "川上郡弟子屈町",
      "city_kana": "カワカミグンテシカガチョウ",
      "town": "屈斜路",
      "town_kana": "クッシャロ",
      "street": null,
      "office_name": null,
      "office_name_kana": null
    },
    {
      "postcode": "0883341",
      "prefecture": "北海道",
      "prefecture_kana": "ホッカイドウ",
      "prefecture_code": 1,
      "city": "川上郡弟子屈町",
      "city_kana": "カワカミグンテシカガチョウ",
      "town": "屈斜路原野",
      "town_kana": "クッシャロゲンヤ",
      "street": null,
      "office_name": null,
      "office_name_kana": null
    }
  ],
  "3351": [
    {
      "postcode": "0883351",
      "prefecture": "北海道",
      "prefecture_kana": "ホッカイドウ",
      "prefecture_code": 1,
      "city": "川上郡弟子屈町",
      "city_kana": "カワカミグンテシカガチョウ",
      "town": "池の湯",
      "town_kana": "イケノユ",
      "street": null,
      "office_name": null,
      "office_name_kana": null
    },
    {
      "postcode": "0883351",
      "prefecture": "北海道",
      "prefecture_kana": "ホッカイドウ",
      "prefecture_code": 1,
      "city": "川上郡弟子屈町",
      "city_kana": "カワカミグンテシカガチョウ",
      "town": "屈斜路市街地",
      "town_kana": "クッシャロシガイチ",
      "street": null,
      "office_name": null,
      "office_name_kana": null
    },
    {
      "postcode": "0883351",
      "prefecture": "北海道",
      "prefecture_kana": "ホッカイドウ",
      "prefecture_code": 1,
      "city": "川上郡弟子屈町",
      "city_kana": "カワカミグンテシカガチョウ",
      "town": "古丹",
      "town_kana": "コタン",
      "street": null,
      "office_name": null,
      "office_name_kana": null
    },
    {
      "postcode": "0883351",
      "prefecture": "北海道",
      "prefecture_kana": "ホッカイドウ",
      "prefecture_code": 1,
      "city": "川上郡弟子屈町",
      "city_kana": "カワカミグンテシカガチョウ",
      "town": "砂湯",
      "town_kana": "スナユ",
      "street": null,
      "office_name": null,
      "office_name_kana": null
    }
  ],
  "3395": {
    "postcode": "0883395",
    "prefecture": "北海道",
    "prefecture_kana": "ホッカイドウ",
    "prefecture_code": 1,
    "city": "川上郡弟子屈町",
    "city_kana": "カワカミグンテシカガチョウ",
    "town": "字屈斜路",
    "town_kana": null,
    "street": "３３６番地１号",
    "office_name": "屈斜路プリンスホテル",
    "office_name_kana": "クツシヤロプリンスホテル"
  },
  "3461": [
    {
      "postcode": "0883461",
      "prefecture": "北海道",
      "prefecture_kana": "ホッカイドウ",
      "prefecture_code": 1,
      "city": "川上郡弟子屈町",
      "city_kana": "カワカミグンテシカガチョウ",
      "town": "跡佐登",
      "town_kana": "アトサノボリ",
      "street": null,
      "office_name": null,
      "office_name_kana": null
    },
    {
      "postcode": "0883461",
      "prefecture": "北海道",
      "prefecture_kana": "ホッカイドウ",
      "prefecture_code": 1,
      "city": "川上郡弟子屈町",
      "city_kana": "カワカミグンテシカガチョウ",
      "town": "跡佐登原野",
      "town_kana": "アトサノボリゲンヤ",
      "street": null,
      "office_name": null,
      "office_name_kana": null
    }
  ],
  "3462": {
    "postcode": "0883462",
    "prefecture": "北海道",
    "prefecture_kana": "ホッカイドウ",
    "prefecture_code": 1,
    "city": "川上郡弟子屈町",
    "city_kana": "カワカミグンテシカガチョウ",
    "town": "川湯駅前",
    "town_kana": "カワユエキマエ",
    "street": null,
    "office_name": null,
    "office_name_kana": null
  },
  "3463": {
    "postcode": "0883463",
    "prefecture": "北海道",
    "prefecture_kana": "ホッカイドウ",
    "prefecture_code": 1,
    "city": "川上郡弟子屈町",
    "city_kana": "カワカミグンテシカガチョウ",
    "town": "アトサヌプリ原野",
    "town_kana": "アトサヌプリゲンヤ",
    "street": null,
    "office_name": null,
    "office_name_kana": null
  },
  "3464": {
    "postcode": "0883464",
    "prefecture": "北海道",
    "prefecture_kana": "ホッカイドウ",
    "prefecture_code": 1,
    "city": "川上郡弟子屈町",
    "city_kana": "カワカミグンテシカガチョウ",
    "town": "サワンチサップ",
    "town_kana": "サワンチサップ",
    "street": null,
    "office_name": null,
    "office_name_kana": null
  },
  "3465": {
    "postcode": "0883465",
    "prefecture": "北海道",
    "prefecture_kana": "ホッカイドウ",
    "prefecture_code": 1,
    "city": "川上郡弟子屈町",
    "city_kana": "カワカミグンテシカガチョウ",
    "town": "川湯温泉",
    "town_kana": "カワユオンセン",
    "street": null,
    "office_name": null,
    "office_name_kana": null
  }
}