{
  "0000": {
    "postcode": "0930000",
    "prefecture": "北海道",
    "prefecture_kana": "ホッカイドウ",
    "prefecture_code": 1,
    "city": "網走市",
    "city_kana": "アバシリシ",
    "town": "",
    "town_kana": "",
    "street": null,
    "office_name": null,
    "office_name_kana": null
  },
  "0001": {
    "postcode": "0930001",
    "prefecture": "北海道",
    "prefecture_kana": "ホッカイドウ",
    "prefecture_code": 1,
    "city": "網走市",
    "city_kana": "アバシリシ",
    "town": "南一条東",
    "town_kana": "ミナミ1ジョウヒガシ",
    "street": null,
    "office_name": null,
    "office_name_kana": null
  },
  "0002": {
    "postcode": "0930002",
    "prefecture": "北海道",
    "prefecture_kana": "ホッカイドウ",
    "prefecture_code": 1,
    "city": "網走市",
    "city_kana": "アバシリシ",
    "town": "南二条東",
    "town_kana": "ミナミ2ジョウヒガシ",
    "street": null,
    "office_name": null,
    "office_name_kana": null
  },
  "0003": {
    "postcode": "0930003",
    "prefecture": "北海道",
    "prefecture_kana": "ホッカイドウ",
    "prefecture_code": 1,
    "city": "網走市",
    "city_kana": "アバシリシ",
    "town": "南三条東",
    "town_kana": "ミナミ3ジョウヒガシ",
    "street": null,
    "office_name": null,
    "office_name_kana": null
  },
  "0004": {
    "postcode": "0930004",
    "prefecture": "北海道",
    "prefecture_kana": "ホッカイドウ",
    "prefecture_code": 1,
    "city": "網走市",
    "city_kana": "アバシリシ",
    "town": "南四条東",
    "town_kana": "ミナミ4ジョウヒガシ",
    "street": null,
    "office_name": null,
    "office_name_kana": null
  },
  "0005": {
    "postcode": "0930005",
    "prefecture": "北海道",
    "prefecture_kana": "ホッカイドウ",
    "prefecture_code": 1,
    "city": "網走市",
    "city_kana": "アバシリシ",
    "town": "南五条東",
    "town_kana": "ミナミ5ジョウヒガシ",
    "street": null,
    "office_name": null,
    "office_name_kana": null
  },
  "0006": {
    "postcode": "0930006",
    "prefecture": "北海道",
    "prefecture_kana": "ホッカイドウ",
    "prefecture_code": 1,
    "city": "網走市",
    "city_kana": "アバシリシ",
    "town": "南六条東",
    "town_kana": "ミナミ6ジョウヒガシ",
    "street": null,
    "office_name": null,
    "office_name_kana": null
  },
  "0007": {
    "postcode": "0930007",
    "prefecture": "北海道",
    "prefecture_kana": "ホッカイドウ",
    "prefecture_code": 1,
    "city": "網走市",
    "city_kana": "アバシリシ",
    "town": "南七条東",
    "town_kana": "ミナミ7ジョウヒガシ",
    "street": null,
    "office_name": null,
    "office_name_kana": null
  },
  "0008": {
    "postcode": "0930008",
    "prefecture": "北海道",
    "prefecture_kana": "ホッカイドウ",
    "prefecture_code": 1,
    "city": "網走市",
    "city_kana": "アバシリシ",
    "town": "南八条東",
    "town_kana": "ミナミ8ジョウヒガシ",
    "street": null,
    "office_name": null,
    "office_name_kana": null
  },
  "0009": {
    "postcode": "0930009",
    "prefecture": "北海道",
    "prefecture_kana": "ホッカイドウ",
    "prefecture_code": 1,
    "city": "網走市",
    "city_kana": "アバシリシ",
    "town": "南九条東",
    "town_kana": "ミナミ9ジョウヒガシ",
    "street": null,
    "office_name": null,
    "office_name_kana": null
  },
  "0010": {
    "postcode": "0930010",
    "prefecture": "北海道",
    "prefecture_kana": "ホッカイドウ",
    "prefecture_code": 1,
    "city": "網走市",
    "city_kana": "アバシリシ",
    "town": "南十条東",
    "town_kana": "ミナミ10ジョウヒガシ",
    "street": null,
    "office_name": null,
    "office_name_kana": null
  },
  "0011": {
    "postcode": "0930011",
    "prefecture": "北海道",
    "prefecture_kana": "ホッカイドウ",
    "prefecture_code": 1,
    "city": "網走市",
    "city_kana": "アバシリシ",
    "town": "南一条西",
    "town_kana": "ミナミ1ジョウニシ",
    "street": null,
    "office_name": null,
    "office_name_kana": null
  },
  "0012": {
    "postcode": "0930012",
    "prefecture": "北海道",
    "prefecture_kana": "ホッカイドウ",
    "prefecture_code": 1,
    "city": "網走市",
    "city_kana": "アバシリシ",
    "town": "南二条西",
    "town_kana": "ミナミ2ジョウニシ",
    "street": null,
    "office_name": null,
    "office_name_kana": null
  },
  "0013": {
    "postcode": "0930013",
    "prefecture": "北海道",
    "prefecture_kana": "ホッカイドウ",
    "prefecture_code": 1,
    "city": "網走市",
    "city_kana": "アバシリシ",
    "town": "南三条西",
    "town_kana": "ミナミ3ジョウニシ",
    "street": null,
    "office_name": null,
    "office_name_kana": null
  },
  "0014": {
    "postcode": "0930014",
    "prefecture": "北海道",
    "prefecture_kana": "ホッカイドウ",
    "prefecture_code": 1,
    "city": "網走市",
    "city_kana": "アバシリシ",
    "town": "南四条西",
    "town_kana": "ミナミ4ジョウニシ",
    "street": null,
    "office_name": null,
    "office_name_kana": null
  },
  "0015": {
    "postcode": "0930015",
    "prefecture": "北海道",
    "prefecture_kana": "ホッカイドウ",
    "prefecture_code": 1,
    "city": "網走市",
    "city_kana": "アバシリシ",
    "town": "南五条西",
    "town_kana": "ミナミ5ジョウニシ",
    "street": null,
    "office_name": null,
    "office_name_kana": null
  },
  "0016": {
    "postcode": "0930016",
    "prefecture": "北海道",
    "prefecture_kana": "ホッカイドウ",
    "prefecture_code": 1,
    "city": "網走市",
    "city_kana": "アバシリシ",
    "town": "南六条西",
    "town_kana": "ミナミ6ジョウニシ",
    "street": null,
    "office_name": null,
    "office_name_kana": null
  },
  "0017": {
    "postcode": "0930017",
    "prefecture": "北海道",
    "prefecture_kana": "ホッカイドウ",
    "prefecture_code": 1,
    "city": "網走市",
    "city_kana": "アバシリシ",
    "town": "南七条西",
    "town_kana": "ミナミ7ジョウニシ",
    "street": null,
    "office_name": null,
    "office_name_kana": null
  },
  "0018": {
    "postcode": "0930018",
    "prefecture": "北海道",
    "prefecture_kana": "ホッカイドウ",
    "prefecture_code": 1,
    "city": "網走市",
    "city_kana": "アバシリシ",
    "town": "南八条西",
    "town_kana": "ミナミ8ジョウニシ",
    "street": null,
    "office_name": null,
    "office_name_kana": null
  },
  "0019": {
    "postcode": "0930019",
    "prefecture": "北海道",
    "prefecture_kana": "ホッカイドウ",
    "prefecture_code": 1,
    "city": "網走市",
    "city_kana": "アバシリシ",
    "town": "南九条西",
    "town_kana": "ミナミ9ジョウニシ",
    "street": null,
    "office_name": null,
    "office_name_kana": null
  },
  "0020": {
    "postcode": "0930020",
    "prefecture": "北海道",
    "prefecture_kana": "ホッカイドウ",
    "prefecture_code": 1,
    "city": "網走市",
    "city_kana": "アバシリシ",
    "town": "南十条西",
    "town_kana": "ミナミ10ジョウニシ",
    "street": null,
    "office_name": null,
    "office_name_kana": null
  },
  "0021": {
    "postcode": "0930021",
    "prefecture": "北海道",
    "prefecture_kana": "ホッカイドウ",
    "prefecture_code": 1,
    "city": "網走市",
    "city_kana": "アバシリシ",
    "town": "南十一条西",
    "town_kana": "ミナミ11ジョウニシ",
    "street": null,
    "office_name": null,
    "office_name_kana": null
  },
  "0022": {
    "postcode": "0930022",
    "prefecture": "北海道",
    "prefecture_kana": "ホッカイドウ",
    "prefecture_code": 1,
    "city": "網走市",
    "city_kana": "アバシリシ",
    "town": "南十二条西",
    "town_kana": "ミナミ12ジョウニシ",
    "street": null,
    "office_name": null,
    "office_name_kana": null
  },
  "0023": {
    "postcode": "0930023",
    "prefecture": "北海道",
    "prefecture_kana": "ホッカイドウ",
    "prefecture_code": 1,
    "city": "網走市",
    "city_kana": "アバシリシ",
    "town": "南十三条西",
    "town_kana": "ミナミ13ジョウニシ",
    "street": null,
    "office_name": null,
    "office_name_kana": null
  },
  "0024": {
    "postcode": "0930024",
    "prefecture": "北海道",
    "prefecture_kana": "ホッカイドウ",
    "prefecture_code": 1,
    "city": "網走市",
    "city_kana": "アバシリシ",
    "town": "南十四条西",
    "town_kana": "ミナミ14ジョウニシ",
    "street": null,
    "office_name": null,
    "office_name_kana": null
  },
  "0031": {
    "postcode": "0930031",
    "prefecture": "北海道",
    "prefecture_kana": "ホッカイドウ",
    "prefecture_code": 1,
    "city": "網走市",
    "city_kana": "アバシリシ",
    "town": "台町",
    "town_kana": "ダイマチ",
    "street": null,
    "office_name": null,
    "office_name_kana": null
  },
  "0032": {
    "postcode": "0930032",
    "prefecture": "北海道",
    "prefecture_kana": "ホッカイドウ",
    "prefecture_code": 1,
    "city": "網走市",
    "city_kana": "アバシリシ",
    "town": "港町",
    "town_kana": "ミナトマチ",
    "street": null,
    "office_name": null,
    "office_name_kana": null
  },
  "0033": {
    "postcode": "0930033",
    "prefecture": "北海道",
    "prefecture_kana": "ホッカイドウ",
    "prefecture_code": 1,
    "city": "網走市",
    "city_kana": "アバシリシ",
    "town": "駒場北",
    "town_kana": "コマバキタ",
    "street": null,
    "office_name": null,
    "office_name_kana": null
  },
  "0034": {
    "postcode": "0930034",
    "prefecture": "北海道",
    "prefecture_kana": "ホッカイドウ",
    "prefecture_code": 1,
    "city": "網走市",
    "city_kana": "アバシリシ",
    "town": "つくしケ丘",
    "town_kana": "ツクシガオカ",
    "street": null,
    "office_name": null,
    "office_name_kana": null
  },
  "0035": {
    "postcode": "0930035",
    "prefecture": "北海道",
    "prefecture_kana": "ホッカイドウ",
    "prefecture_code": 1,
    "city": "網走市",
    "city_kana": "アバシリシ",
    "town": "駒場南",
    "town_kana": "コマバミナミ",
    "street": null,
    "office_name": null,
    "office_name_kana": null
  },
  "0041": {
    "postcode": "0930041",
    "prefecture": "北海道",
    "prefecture_kana": "ホッカイドウ",
    "prefecture_code": 1,
    "city": "網走市",
    "city_kana": "アバシリシ",
    "town": "桂町",
    "town_kana": "カツラマチ",
    "street": null,
    "office_name": null,
    "office_name_kana": null
  },
  "0042": {
    "postcode": "0930042",
    "prefecture": "北海道",
    "prefecture_kana": "ホッカイドウ",
    "prefecture_code": 1,
    "city": "網走市",
    "city_kana": "アバシリシ",
    "town": "潮見",
    "town_kana": "シオミ",
    "street": null,
    "office_name": null,
    "office_name_kana": null
  },
  "0043": {
    "postcode": "0930043",
    "prefecture": "北海道",
    "prefecture_kana": "ホッカイドウ",
    "prefecture_code": 1,
    "city": "網走市",
    "city_kana": "アバシリシ",
    "town": "錦町",
    "town_kana": "ニシキマチ",
    "street": null,
    "office_name": null,
    "office_name_kana": null
  },
  "0044": {
    "postcode": "0930044",
    "prefecture": "北海道",
    "prefecture_kana": "ホッカイドウ",
    "prefecture_code": 1,
    "city": "網走市",
    "city_kana": "アバシリシ",
    "town": "天都山",
    "town_kana": "テントザン",
    "street": null,
    "office_name": null,
    "office_name_kana": null
  },
  "0045": {
    "postcode": "0930045",
    "prefecture": "北海道",
    "prefecture_kana": "ホッカイドウ",
    "prefecture_code": 1,
    "city": "網走市",
    "city_kana": "アバシリシ",
    "town": "大曲",
    "town_kana": "オオマガリ",
    "street": null,
    "office_name": null,
    "office_name_kana": null
  },
  "0046": {
    "postcode": "0930046",
    "prefecture": "北海道",
    "prefecture_kana": "ホッカイドウ",
    "prefecture_code": 1,
    "city": "網走市",
    "city_kana": "アバシリシ",
    "town": "新町",
    "town_kana": "シンマチ",
    "street": null,
    "office_name": null,
    "office_name_kana": null
  },
  "0051": {
    "postcode": "0930051",
    "prefecture": "北海道",
    "prefecture_kana": "ホッカイドウ",
    "prefecture_code": 1,
    "city": "網走市",
    "city_kana": "アバシリシ",
    "town": "北一条東",
    "town_kana": "キタ1ジョウヒガシ",
    "street": null,
    "office_name": null,
    "office_name_kana": null
  },
  "0052": {
    "postcode": "0930052",
    "prefecture": "北海道",
    "prefecture_kana": "ホッカイドウ",
    "prefecture_code": 1,
    "city": "網走市",
    "city_kana": "アバシリシ",
    "town": "北二条東",
    "town_kana": "キタ2ジョウヒガシ",
    "street": null,
    "office_name": null,
    "office_name_kana": null
  },
  "0053": {
    "postcode": "0930053",
    "prefecture": "北海道",
    "prefecture_kana": "ホッカイドウ",
    "prefecture_code": 1,
    "city": "網走市",
    "city_kana": "アバシリシ",
    "town": "北三条東",
    "town_kana": "キタ3ジョウヒガシ",
    "street": null,
    "office_name": null,
    "office_name_kana": null
  },
  "0054": {
    "postcode": "0930054",
    "prefecture": "北海道",
    "prefecture_kana": "ホッカイドウ",
    "prefecture_code": 1,
    "city": "網走市",
    "city_kana": "アバシリシ",
    "town": "北四条東",
    "town_kana": "キタ4ジョウヒガシ",
    "street": null,
    "office_name": null,
    "office_name_kana": null
  },
  "0055": {
    "postcode": "0930055",
    "prefecture": "北海道",
    "prefecture_kana": "ホッカイドウ",
    "prefecture_code": 1,
    "city": "網走市",
    "city_kana": "アバシリシ",
    "town": "北五条東",
    "town_kana": "キタ5ジョウヒガシ",
    "street": null,
    "office_name": null,
    "office_name_kana": null
  },
  "0056": {
    "postcode": "0930056",
    "prefecture": "北海道",
    "prefecture_kana": "ホッカイドウ",
    "prefecture_code": 1,
    "city": "網走市",
    "city_kana": "アバシリシ",
    "town": "北六条東",
    "town_kana": "キタ6ジョウヒガシ",
    "street": null,
    "office_name": null,
    "office_name_kana": null
  },
  "0057": {
    "postcode": "0930057",
    "prefecture": "北海道",
    "prefecture_kana": "ホッカイドウ",
    "prefecture_code": 1,
    "city": "網走市",
    "city_kana": "アバシリシ",
    "town": "北七条東",
    "town_kana": "キタ7ジョウヒガシ",
    "street": null,
    "office_name": null,
    "office_name_kana": null
  },
  "0058": {
    "postcode": "0930058",
    "prefecture": "北海道",
    "prefecture_kana": "ホッカイドウ",
    "prefecture_code": 1,
    "city": "網走市",
    "city_kana": "アバシリシ",
    "town": "北八条東",
    "town_kana": "キタ8ジョウヒガシ",
    "street": null,
    "office_name": null,
    "office_name_kana": null
  },
  "0059": {
    "postcode": "0930059",
    "prefecture": "北海道",
    "prefecture_kana": "ホッカイドウ",
    "prefecture_code": 1,
    "city": "網走市",
    "city_kana": "アバシリシ",
    "town": "北九条東",
    "town_kana": "キタ9ジョウヒガシ",
    "street": null,
    "office_name": null,
    "office_name_kana": null
  },
  "0060": {
    "postcode": "0930060",
    "prefecture": "北海道",
    "prefecture_kana": "ホッカイドウ",
    "prefecture_code": 1,
    "city": "網走市",
    "city_kana": "アバシリシ",
    "town": "北十条東",
    "town_kana": "キタ10ジョウヒガシ",
    "street": null,
    "office_name": null,
    "office_name_kana": null
  },
  "0061": {
    "postcode": "0930061",
    "prefecture": "北海道",
    "prefecture_kana": "ホッカイドウ",
    "prefecture_code": 1,
    "city": "網走市",
    "city_kana": "アバシリシ",
    "town": "北十一条東",
    "town_kana": "キタ11ジョウヒガシ",
    "street": null,
    "office_name": null,
    "office_name_kana": null
  },
  "0062": {
    "postcode": "0930062",
    "prefecture": "北海道",
    "prefecture_kana": "ホッカイドウ",
    "prefecture_code": 1,
    "city": "網走市",
    "city_kana": "アバシリシ",
    "town": "北十二条東",
    "town_kana": "キタ12ジョウヒガシ",
    "street": null,
    "office_name": null,
    "office_name_kana": null
  },
  "0071": {
    "postcode": "0930071",
    "prefecture": "北海道",
    "prefecture_kana": "ホッカイドウ",
    "prefecture_code": 1,
    "city": "網走市",
    "city_kana": "アバシリシ",
    "town": "北一条西",
    "town_kana": "キタ1ジョウニシ",
    "street": null,
    "office_name": null,
    "office_name_kana": null
  },
  "0072": {
    "postcode": "0930072",
    "prefecture": "北海道",
    "prefecture_kana": "ホッカイドウ",
    "prefecture_code": 1,
    "city": "網走市",
    "city_kana": "アバシリシ",
    "town": "北二条西",
    "town_kana": "キタ2ジョウニシ",
    "street": null,
    "office_name": null,
    "office_name_kana": null
  },
  "0073": {
    "postcode": "0930073",
    "prefecture": "北海道",
    "prefecture_kana": "ホッカイドウ",
    "prefecture_code": 1,
    "city": "網走市",
    "city_kana": "アバシリシ",
    "town": "北三条西",
    "town_kana": "キタ3ジョウニシ",
    "street": null,
    "office_name": null,
    "office_name_kana": null
  },
  "0074": {
    "postcode": "0930074",
    "prefecture": "北海道",
    "prefecture_kana": "ホッカイドウ",
    "prefecture_code": 1,
    "city": "網走市",
    "city_kana": "アバシリシ",
    "town": "北四条西",
    "town_kana": "キタ4ジョウニシ",
    "street": null,
    "office_name": null,
    "office_name_kana": null
  },
  "0075": {
    "postcode": "0930075",
    "prefecture": "北海道",
    "prefecture_kana": "ホッカイドウ",
    "prefecture_code": 1,
    "city": "網走市",
    "city_kana": "アバシリシ",
    "town": "北五条西",
    "town_kana": "キタ5ジョウニシ",
    "street": null,
    "office_name": null,
    "office_name_kana": null
  },
  "0076": {
    "postcode": "0930076",
    "prefecture": "北海道",
    "prefecture_kana": "ホッカイドウ",
    "prefecture_code": 1,
    "city": "網走市",
    "city_kana": "アバシリシ",
    "town": "北六条西",
    "town_kana": "キタ6ジョウニシ",
    "street": null,
    "office_name": null,
    "office_name_kana": null
  },
  "0077": {
    "postcode": "0930077",
    "prefecture": "北海道",
    "prefecture_kana": "ホッカイドウ",
    "prefecture_code": 1,
    "city": "網走市",
    "city_kana": "アバシリシ",
    "town": "北七条西",
    "town_kana": "キタ7ジョウニシ",
    "street": null,
    "office_name": null,
    "office_name_kana": null
  },
  "0078": {
    "postcode": "0930078",
    "prefecture": "北海道",
    "prefecture_kana": "ホッカイドウ",
    "prefecture_code": 1,
    "city": "網走市",
    "city_kana": "アバシリシ",
    "town": "北八条西",
    "town_kana": "キタ8ジョウニシ",
    "street": null,
    "office_name": null,
    "office_name_kana": null
  },
  "0079": {
    "postcode": "0930079",
    "prefecture": "北海道",
    "prefecture_kana": "ホッカイドウ",
    "prefecture_code": 1,
    "city": "網走市",
    "city_kana": "アバシリシ",
    "town": "北九条西",
    "town_kana": "キタ9ジョウニシ",
    "street": null,
    "office_name": null,
    "office_name_kana": null
  },
  "0080": {
    "postcode": "0930080",
    "prefecture": "北海道",
    "prefecture_kana": "ホッカイドウ",
    "prefecture_code": 1,
    "city": "網走市",
    "city_kana": "アバシリシ",
    "town": "北十条西",
    "town_kana": "キタ10ジョウニシ",
    "street": null,
    "office_name": null,
    "office_name_kana": null
  },
  "0081": {
    "postcode": "0930081",
    "prefecture": "北海道",
    "prefecture_kana": "ホッカイドウ",
    "prefecture_code": 1,
    "city": "網走市",
    "city_kana": "アバシリシ",
    "town": "北十一条西",
    "town_kana": "キタ11ジョウニシ",
    "street": null,
    "office_name": null,
    "office_name_kana": null
  },
  "0082": {
    "postcode": "0930082",
    "prefecture": "北海道",
    "prefecture_kana": "ホッカイドウ",
    "prefecture_code": 1,
    "city": "網走市",
    "city_kana": "アバシリシ",
    "town": "北十二条西",
    "town_kana": "キタ12ジョウニシ",
    "street": null,
    "office_name": null,
    "office_name_kana": null
  },
  "0083": {
    "postcode": "0930083",
    "prefecture": "北海道",
    "prefecture_kana": "ホッカイドウ",
    "prefecture_code": 1,
    "city": "網走市",
    "city_kana": "アバシリシ",
    "town": "海岸町",
    "town_kana": "カイガンチョウ",
    "street": null,
    "office_name": null,
    "office_name_kana": null
  },
  "0084": {
    "postcode": "0930084",
    "prefecture": "北海道",
    "prefecture_kana": "ホッカイドウ",
    "prefecture_code": 1,
    "city": "網走市",
    "city_kana": "アバシリシ",
    "town": "向陽ケ丘",
    "town_kana": "コウヨウガオカ",
    "street": null,
    "office_name": null,
    "office_name_kana": null
  },
  "0085": {
    "postcode": "0930085",
    "prefecture": "北海道",
    "prefecture_kana": "ホッカイドウ",
    "prefecture_code": 1,
    "city": "網走市",
    "city_kana": "アバシリシ",
    "town": "明治",
    "town_kana": "メイジ",
    "street": null,
    "office_name": null,
    "office_name_kana": null
  },
  "0086": {
    "postcode": "0930086",
    "prefecture": "北海道",
    "prefecture_kana": "ホッカイドウ",
    "prefecture_code": 1,
    "city": "網走市",
    "city_kana": "アバシリシ",
    "town": "二ツ岩",
    "town_kana": "フタツイワ",
    "street": null,
    "office_name": null,
    "office_name_kana": null
  },
  "0087": {
    "postcode": "0930087",
    "prefecture": "北海道",
    "prefecture_kana": "ホッカイドウ",
    "prefecture_code": 1,
    "city": "網走市",
    "city_kana": "アバシリシ",
    "town": "美岬",
    "town_kana": "ミサキ",
    "street": null,
    "office_name": null,
    "office_name_kana": null
  },
  "0088": {
    "postcode": "0930088",
    "prefecture": "北海道",
    "prefecture_kana": "ホッカイドウ",
    "prefecture_code": 1,
    "city": "網走市",
    "city_kana": "アバシリシ",
    "town": "三眺",
    "town_kana": "サンチョウ",
    "street": null,
    "office_name": null,
    "office_name_kana": null
  },
  "0089": {
    "postcode": "0930089",
    "prefecture": "北海道",
    "prefecture_kana": "ホッカイドウ",
    "prefecture_code": 1,
    "city": "網走市",
    "city_kana": "アバシリシ",
    "town": "緑町",
    "town_kana": "ミドリマチ",
    "street": null,
    "office_name": null,
    "office_name_kana": null
  },
  "0090": {
    "postcode": "0930090",
    "prefecture": "北海道",
    "prefecture_kana": "ホッカイドウ",
    "prefecture_code": 1,
    "city": "網走市",
    "city_kana": "アバシリシ",
    "town": "文化",
    "town_kana": "ブンカ",
    "street": null,
    "office_name": null,
    "office_name_kana": null
  },
  "0131": {
    "postcode": "0930131",
    "prefecture": "北海道",
    "prefecture_kana": "ホッカイドウ",
    "prefecture_code": 1,
    "city": "網走市",
    "city_kana": "アバシリシ",
    "town": "能取港町",
    "town_kana": "ノトロミナトマチ",
    "street": null,
    "office_name": null,
    "office_name_kana": null
  },
  "0132": {
    "postcode": "0930132",
    "prefecture": "北海道",
    "prefecture_kana": "ホッカイドウ",
    "prefecture_code": 1,
    "city": "網走市",
    "city_kana": "アバシリシ",
    "town": "二見ケ岡",
    "town_kana": "フタミガオカ",
    "street": null,
    "office_name": null,
    "office_name_kana": null
  },
  "0133": {
    "postcode": "0930133",
    "prefecture": "北海道",
    "prefecture_kana": "ホッカイドウ",
    "prefecture_code": 1,
    "city": "網走市",
    "city_kana": "アバシリシ",
    "town": "嘉多山",
    "town_kana": "カタヤマ",
    "street": null,
    "office_name": null,
    "office_name_kana": null
  },
  "0134": {
    "postcode": "0930134",
    "prefecture": "北海道",
    "prefecture_kana": "ホッカイドウ",
    "prefecture_code": 1,
    "city": "網走市",
    "city_kana": "アバシリシ",
    "town": "越歳",
    "town_kana": "コシトシ",
    "street": null,
    "office_name": null,
    "office_name_kana": null
  },
  "0135": {
    "postcode": "0930135",
    "prefecture": "北海道",
    "prefecture_kana": "ホッカイドウ",
    "prefecture_code": 1,
    "city": "網走市",
    "city_kana": "アバシリシ",
    "town": "卯原内",
    "town_kana": "ウバラナイ",
    "street": null,
    "office_name": null,
    "office_name_kana": null
  },
  "0136": {
    "postcode": "0930136",
    "prefecture": "北海道",
    "prefecture_kana": "ホッカイドウ",
    "prefecture_code": 1,
    "city": "網走市",
    "city_kana": "アバシリシ",
    "town": "平和",
    "town_kana": "ヘイワ",
    "street": null,
    "office_name": null,
    "office_name_kana": null
  },
  "0202": {
    "postcode": "0930202",
    "prefecture": "北海道",
    "prefecture_kana": "ホッカイドウ",
    "prefecture_code": 1,
    "city": "北見市",
    "city_kana": "キタミシ",
    "town": "常呂町東浜",
    "town_kana": "トコロチョウヒガシハマ",
    "street": null,
    "office_name": null,
    "office_name_kana": null
  },
  "0210": {
    "postcode": "0930210",
    "prefecture": "北海道",
    "prefecture_kana": "ホッカイドウ",
    "prefecture_code": 1,
    "city": "北見市",
    "city_kana": "キタミシ",
    "town": "常呂町常呂",
    "town_kana": "トコロチョウトコロ",
    "street": null,
    "office_name": null,
    "office_name_kana": null
  },
  "0213": {
    "postcode": "0930213",
    "prefecture": "北海道",
    "prefecture_kana": "ホッカイドウ",
    "prefecture_code": 1,
    "city": "北見市",
    "city_kana": "キタミシ",
    "town": "常呂町土佐",
    "town_kana": "トコロチョウトサ",
    "street": null,
    "office_name": null,
    "office_name_kana": null
  },
  "0214": {
    "postcode": "0930214",
    "prefecture": "北海道",
    "prefecture_kana": "ホッカイドウ",
    "prefecture_code": 1,
    "city": "北見市",
    "city_kana": "キタミシ",
    "town": "常呂町共立",
    "town_kana": "トコロチョウキョウリツ",
    "street": null,
    "office_name": null,
    "office_name_kana": null
  },
  "0215": {
    "postcode": "0930215",
    "prefecture": "北海道",
    "prefecture_kana": "ホッカイドウ",
    "prefecture_code": 1,
    "city": "北見市",
    "city_kana": "キタミシ",
    "town": "常呂町岐阜",
    "town_kana": "トコロチョウギフ",
    "street": null,
    "office_name": null,
    "office_name_kana": null
  },
  "0216": {
    "postcode": "0930216",
    "prefecture": "北海道",
    "prefecture_kana": "ホッカイドウ",
    "prefecture_code": 1,
    "city": "北見市",
    "city_kana": "キタミシ",
    "town": "常呂町栄浦",
    "town_kana": "トコロチョウサカエウラ",
    "street": null,
    "office_name": null,
    "office_name_kana": null
  },
  "0241": {
    "postcode": "0930241",
    "prefecture": "北海道",
    "prefecture_kana": "ホッカイドウ",
    "prefecture_code": 1,
    "city": "網走市",
    "city_kana": "アバシリシ",
    "town": "能取",
    "town_kana": "ノトリ",
    "street": null,
    "office_name": null,
    "office_name_kana": null
  },
  "0292": {
    "postcode": "0930292",
    "prefecture": "北海道",
    "prefecture_kana": "ホッカイドウ",
    "prefecture_code": 1,
    "city": "北見市",
    "city_kana": "キタミシ",
    "town": "常呂町字常呂",
    "town_kana": null,
    "street": "３２３番地",
    "office_name": "北見市役所　常呂総合支所",
    "office_name_kana": "キタミシヤクシヨ トコロソウゴウシシヨ"
  },
  "0331": {
    "postcode": "0930331",
    "prefecture": "北海道",
    "prefecture_kana": "ホッカイドウ",
    "prefecture_code": 1,
    "city": "北見市",
    "city_kana": "キタミシ",
    "town": "常呂町豊川",
    "town_kana": "トコロチョウトヨカワ",
    "street": null,
    "office_name": null,
    "office_name_kana": null
  },
  "0332": {
    "postcode": "0930332",
    "prefecture": "北海道",
    "prefecture_kana": "ホッカイドウ",
    "prefecture_code": 1,
    "city": "北見市",
    "city_kana": "キタミシ",
    "town": "常呂町富丘",
    "town_kana": "トコロチョウトミオカ",
    "street": null,
    "office_name": null,
    "office_name_kana": null
  },
  "0333": {
    "postcode": "0930333",
    "prefecture": "北海道",
    "prefecture_kana": "ホッカイドウ",
    "prefecture_code": 1,
    "city": "北見市",
    "city_kana": "キタミシ",
    "town": "常呂町福山",
    "town_kana": "トコロチョウフクヤマ",
    "street": null,
    "office_name": null,
    "office_name_kana": null
  },
  "0334": {
    "postcode": "0930334",
    "prefecture": "北海道",
    "prefecture_kana": "ホッカイドウ",
    "prefecture_code": 1,
    "city": "北見市",
    "city_kana": "キタミシ",
    "town": "常呂町日吉",
    "town_kana": "トコロチョウヒヨシ",
    "street": null,
    "office_name": null,
    "office_name_kana": null
  },
  "0335": {
    "postcode": "0930335",
    "prefecture": "北海道",
    "prefecture_kana": "ホッカイドウ",
    "prefecture_code": 1,
    "city": "北見市",
    "city_kana": "キタミシ",
    "town": "常呂町吉野",
    "town_kana": "トコロチョウヨシノ",
    "street": null,
    "office_name": null,
    "office_name_kana": null
  },
  "0336": {
    "postcode": "0930336",
    "prefecture": "北海道",
    "prefecture_kana": "ホッカイドウ",
    "prefecture_code": 1,
    "city": "北見市",
    "city_kana": "キタミシ",
    "town": "常呂町登",
    "town_kana": "トコロチョウノボリ",
    "street": null,
    "office_name": null,
    "office_name_kana": null
  },
  "0421": {
    "postcode": "0930421",
    "prefecture": "北海道",
    "prefecture_kana": "ホッカイドウ",
    "prefecture_code": 1,
    "city": "常呂郡佐呂間町",
    "city_kana": "トコログンサロマチョウ",
    "town": "浪速",
    "town_kana": "ナニワ",
    "street": null,
    "office_name": null,
    "office_name_kana": null
  },
  "0422": {
    "postcode": "0930422",
    "prefecture": "北海道",
    "prefecture_kana": "ホッカイドウ",
    "prefecture_code": 1,
    "city": "常呂郡佐呂間町",
    "city_kana": "トコログンサロマチョウ",
    "town": "幌岩",
    "town_kana": "ホロイワ",
    "street": null,
    "office_name": null,
    "office_name_kana": null
  },
  "0423": {
    "postcode": "0930423",
    "prefecture": "北海道",
    "prefecture_kana": "ホッカイドウ",
    "prefecture_code": 1,
    "city": "常呂郡佐呂間町",
    "city_kana": "トコログンサロマチョウ",
    "town": "浜佐呂間",
    "town_kana": "ハマサロマ",
    "street": null,
    "office_name": null,
    "office_name_kana": null
  },
  "0424": {
    "postcode": "0930424",
    "prefecture": "北海道",
    "prefecture_kana": "ホッカイドウ",
    "prefecture_code": 1,
    "city": "常呂郡佐呂間町",
    "city_kana": "トコログンサロマチョウ",
    "town": "仁倉",
    "town_kana": "ニクラ",
    "street": null,
    "office_name": null,
    "office_name_kana": null
  },
  "0500": {
    "postcode": "0930500",
    "prefecture": "北海道",
    "prefecture_kana": "ホッカイドウ",
    "prefecture_code": 1,
    "city": "常呂郡佐呂間町",
    "city_kana": "トコログンサロマチョウ",
    "town": "",
    "town_kana": "",
    "street": null,
    "office_name": null,
    "office_name_kana": null
  },
  "0501": {
    "postcode": "0930501",
    "prefecture": "北海道",
    "prefecture_kana": "ホッカイドウ",
    "prefecture_code": 1,
    "city": "常呂郡佐呂間町",
    "city_kana": "トコログンサロマチョウ",
    "town": "宮前町",
    "town_kana": "ミヤマエチョウ",
    "street": null,
    "office_name": null,
    "office_name_kana": null
  },
  "0502": {
    "postcode": "0930502",
    "prefecture": "北海道",
    "prefecture_kana": "ホッカイドウ",
    "prefecture_code": 1,
    "city": "常呂郡佐呂間町",
    "city_kana": "トコログンサロマチョウ",
    "town": "永代町",
    "town_kana": "エイダイチョウ",
    "street": null,
    "office_name": null,
    "office_name_kana": null
  },
  "0503": {
    "postcode": "0930503",
    "prefecture": "北海道",
    "prefecture_kana": "ホッカイドウ",
    "prefecture_code": 1,
    "city": "常呂郡佐呂間町",
    "city_kana": "トコログンサロマチョウ",
    "town": "幸町",
    "town_kana": "サイワイチョウ",
    "street": null,
    "office_name": null,
    "office_name_kana": null
  },
  "0504": {
    "postcode": "0930504",
    "prefecture": "北海道",
    "prefecture_kana": "ホッカイドウ",
    "prefecture_code": 1,
    "city": "常呂郡佐呂間町",
    "city_kana": "トコログンサロマチョウ",
    "town": "西富",
    "town_kana": "ニシトミ",
    "street": null,
    "office_name": null,
    "office_name_kana": null
  },
  "0505": {
    "postcode": "0930505",
    "prefecture": "北海道",
    "prefecture_kana": "ホッカイドウ",
    "prefecture_code": 1,
    "city": "常呂郡佐呂間町",
    "city_kana": "トコログンサロマチョウ",
    "town": "北",
    "town_kana": "キタ",
    "street": null,
    "office_name": null,
    "office_name_kana": null
  },
  "0506": {
    "postcode": "0930506",
    "prefecture": "北海道",
    "prefecture_kana": "ホッカイドウ",
    "prefecture_code": 1,
    "city": "常呂郡佐呂間町",
    "city_kana": "トコログンサロマチョウ",
    "town": "富武士",
    "town_kana": "トップシ",
    "street": null,
    "office_name": null,
    "office_name_kana": null
  },
  "0507": {
    "postcode": "0930507",
    "prefecture": "北海道",
    "prefecture_kana": "ホッカイドウ",
    "prefecture_code": 1,
    "city": "常呂郡佐呂間町",
    "city_kana": "トコログンサロマチョウ",
    "town": "東",
    "town_kana": "ヒガシ",
    "street": null,
    "office_name": null,
    "office_name_kana": null
  },
  "0508": {
    "postcode": "0930508",
    "prefecture": "北海道",
    "prefecture_kana": "ホッカイドウ",
    "prefecture_code": 1,
    "city": "常呂郡佐呂間町",
    "city_kana": "トコログンサロマチョウ",
    "town": "知来",
    "town_kana": "チライ",
    "street": null,
    "office_name": null,
    "office_name_kana": null
  },
  "0532": {
    "postcode": "0930532",
    "prefecture": "北海道",
    "prefecture_kana": "ホッカイドウ",
    "prefecture_code": 1,
    "city": "常呂郡佐呂間町",
    "city_kana": "トコログンサロマチョウ",
    "town": "若里",
    "town_kana": "ワカサト",
    "street": null,
    "office_name": null,
    "office_name_kana": null
  },
  "0592": {
    "postcode": "0930592",
    "prefecture": "北海道",
    "prefecture_kana": "ホッカイドウ",
    "prefecture_code": 1,
    "city": "常呂郡佐呂間町",
    "city_kana": "トコログンサロマチョウ",
    "town": "字永代町",
    "town_kana": null,
    "street": "３−１",
    "office_name": "佐呂間町役場",
    "office_name_kana": "サロマチヨウヤクバ"
  },
  "0593": {
    "postcode": "0930593",
    "prefecture": "北海道",
    "prefecture_kana": "ホッカイドウ",
    "prefecture_code": 1,
    "city": "常呂郡佐呂間町",
    "city_kana": "トコログンサロマチョウ",
    "town": "字永代町",
    "town_kana": null,
    "street": "５７番地",
    "office_name": "佐呂間町農業協同組合",
    "office_name_kana": "サロマチヨウノウギヨウキヨウドウクミアイ"
  },
  "0594": {
    "postcode": "0930594",
    "prefecture": "北海道",
    "prefecture_kana": "ホッカイドウ",
    "prefecture_code": 1,
    "city": "常呂郡佐呂間町",
    "city_kana": "トコログンサロマチョウ",
    "town": "字富武士",
    "town_kana": null,
    "street": "番外地",
    "office_name": "佐呂間漁業協同組合",
    "office_name_kana": "サロマギヨギヨウキヨウドウクミアイ"
  },
  "0651": {
    "postcode": "0930651",
    "prefecture": "北海道",
    "prefecture_kana": "ホッカイドウ",
    "prefecture_code": 1,
    "city": "紋別郡湧別町",
    "city_kana": "モンベツグンユウベツチョウ",
    "town": "計呂地",
    "town_kana": "ケロチ",
    "street": null,
    "office_name": null,
    "office_name_kana": null
  },
  "0652": {
    "postcode": "0930652",
    "prefecture": "北海道",
    "prefecture_kana": "ホッカイドウ",
    "prefecture_code": 1,
    "city": "紋別郡湧別町",
    "city_kana": "モンベツグンユウベツチョウ",
    "town": "志撫子",
    "town_kana": "シブシ",
    "street": null,
    "office_name": null,
    "office_name_kana": null
  },
  "0731": {
    "postcode": "0930731",
    "prefecture": "北海道",
    "prefecture_kana": "ホッカイドウ",
    "prefecture_code": 1,
    "city": "紋別郡湧別町",
    "city_kana": "モンベツグンユウベツチョウ",
    "town": "芭露",
    "town_kana": "バロウ",
    "street": null,
    "office_name": null,
    "office_name_kana": null
  },
  "0732": {
    "postcode": "0930732",
    "prefecture": "北海道",
    "prefecture_kana": "ホッカイドウ",
    "prefecture_code": 1,
    "city": "紋別郡湧別町",
    "city_kana": "モンベツグンユウベツチョウ",
    "town": "上芭露",
    "town_kana": "カミバロウ",
    "street": null,
    "office_name": null,
    "office_name_kana": null
  },
  "0733": {
    "postcode": "0930733",
    "prefecture": "北海道",
    "prefecture_kana": "ホッカイドウ",
    "prefecture_code": 1,
    "city": "紋別郡湧別町",
    "city_kana": "モンベツグンユウベツチョウ",
    "town": "西芭露",
    "town_kana": "ニシバロウ",
    "street": null,
    "office_name": null,
    "office_name_kana": null
  },
  "0734": {
    "postcode": "0930734",
    "prefecture": "北海道",
    "prefecture_kana": "ホッカイドウ",
    "prefecture_code": 1,
    "city": "紋別郡湧別町",
    "city_kana": "モンベツグンユウベツチョウ",
    "town": "東芭露",
    "town_kana": "ヒガシバロウ",
    "street": null,
    "office_name": null,
    "office_name_kana": null
  },
  "0735": {
    "postcode": "0930735",
    "prefecture": "北海道",
    "prefecture_kana": "ホッカイドウ",
    "prefecture_code": 1,
    "city": "紋別郡湧別町",
    "city_kana": "モンベツグンユウベツチョウ",
    "town": "福島",
    "town_kana": "フクシマ",
    "street": null,
    "office_name": null,
    "office_name_kana": null
  },
  "8544": {
    "postcode": "0938544",
    "prefecture": "北海道",
    "prefecture_kana": "ホッカイドウ",
    "prefecture_code": 1,
    "city": "網走市",
    "city_kana": "アバシリシ",
    "town": "新町",
    "town_kana": "シンマチ",
    "street": "２丁目６番１号",
    "office_name": "北海道開発局　網走開発建設部",
    "office_name_kana": "ホツカイドウカイハツキヨク アバシリカイハツケンセツブ"
  },
  "8555": {
    "postcode": "0938555",
    "prefecture": "北海道",
    "prefecture_kana": "ホッカイドウ",
    "prefecture_code": 1,
    "city": "網走市",
    "city_kana": "アバシリシ",
    "town": "南六条東",
    "town_kana": "ミナミ6ジョウヒガシ",
    "street": "４丁目",
    "office_name": "網走市役所",
    "office_name_kana": "アバシリシヤクシヨ"
  },
  "8585": {
    "postcode": "0938585",
    "prefecture": "北海道",
    "prefecture_kana": "ホッカイドウ",
    "prefecture_code": 1,
    "city": "網走市",
    "city_kana": "アバシリシ",
    "town": "北七条西",
    "town_kana": "キタ7ジョウニシ",
    "street": "３丁目",
    "office_name": "北海道オホーツク総合振興局",
    "office_name_kana": "ホツカイドウオホ-ツクソウゴウシンコウキヨク"
  },
  "8609": {
    "postcode": "0938609",
    "prefecture": "北海道",
    "prefecture_kana": "ホッカイドウ",
    "prefecture_code": 1,
    "city": "網走市",
    "city_kana": "アバシリシ",
    "town": "大曲",
    "town_kana": "オオマガリ",
    "street": "１丁目１番３号",
    "office_name": "網走公共職業安定所",
    "office_name_kana": "アバシリコウキヨウシヨクギヨウアンテイシヨ"
  },
  "8619": {
    "postcode": "0938619",
    "prefecture": "北海道",
    "prefecture_kana": "ホッカイドウ",
    "prefecture_code": 1,
    "city": "網走市",
    "city_kana": "アバシリシ",
    "town": "北七条西",
    "town_kana": "キタ7ジョウニシ",
    "street": "３丁目",
    "office_name": "北海道教育庁網走教育局",
    "office_name_kana": "ホツカイドウキヨウイクチヨウアバシリキヨウイクキヨク"
  },
  "8650": {
    "postcode": "0938650",
    "prefecture": "北海道",
    "prefecture_kana": "ホッカイドウ",
    "prefecture_code": 1,
    "city": "網走市",
    "city_kana": "アバシリシ",
    "town": "南四条西",
    "town_kana": "ミナミ4ジョウニシ",
    "street": "１丁目８番地（網走郵便局私書箱第７号）",
    "office_name": "網走信用金庫　本店",
    "office_name_kana": "アバシリシンヨウキンコ ホンテン"
  },
  "8670": {
    "postcode": "0938670",
    "prefecture": "北海道",
    "prefecture_kana": "ホッカイドウ",
    "prefecture_code": 1,
    "city": "網走市",
    "city_kana": "アバシリシ",
    "town": "北七条西",
    "town_kana": "キタ7ジョウニシ",
    "street": "３丁目",
    "office_name": "北海道オホーツク総合振興局　網走建設管理部",
    "office_name_kana": "ホツカイドウオホ-ツクソウゴウシンコウキヨク アバシリケンセツカンリブ"
  },
  "8680": {
    "postcode": "0938680",
    "prefecture": "北海道",
    "prefecture_kana": "ホッカイドウ",
    "prefecture_code": 1,
    "city": "網走市",
    "city_kana": "アバシリシ",
    "town": "南四条東",
    "town_kana": "ミナミ4ジョウヒガシ",
    "street": "２丁目１番地（網走郵便局私書箱第２９号）",
    "office_name": "（株）　北洋銀行　網走支店",
    "office_name_kana": "カブシキガイシヤ ホクヨウギンコウ アバシリシテン"
  },
  "8686": {
    "postcode": "0938686",
    "prefecture": "北海道",
    "prefecture_kana": "ホッカイドウ",
    "prefecture_code": 1,
    "city": "網走市",
    "city_kana": "アバシリシ",
    "town": "南五条東",
    "town_kana": "ミナミ5ジョウヒガシ",
    "street": "１丁目６番地（網走郵便局私書箱第４０号）",
    "office_name": "釧路信用組合　網走支店",
    "office_name_kana": "クシロシンヨウクミアイ アバシリシテン"
  },
  "8710": {
    "postcode": "0938710",
    "prefecture": "北海道",
    "prefecture_kana": "ホッカイドウ",
    "prefecture_code": 1,
    "city": "網走市",
    "city_kana": "アバシリシ",
    "town": "南六条東",
    "town_kana": "ミナミ6ジョウヒガシ",
    "street": "７丁目５番地（網走郵便局私書箱第４３号）",
    "office_name": "（株）　光和",
    "office_name_kana": "カブシキガイシヤ コウワ"
  },
  "8711": {
    "postcode": "0938711",
    "prefecture": "北海道",
    "prefecture_kana": "ホッカイドウ",
    "prefecture_code": 1,
    "city": "網走市",
    "city_kana": "アバシリシ",
    "town": "駒場南",
    "town_kana": "コマバミナミ",
    "street": "１丁目１番１０号（網走郵便局私書箱第１１号）",
    "office_name": "島田建設　（株）",
    "office_name_kana": "シマダケンセツ カブシキガイシヤ"
  },
  "8728": {
    "postcode": "0938728",
    "prefecture": "北海道",
    "prefecture_kana": "ホッカイドウ",
    "prefecture_code": 1,
    "city": "網走市",
    "city_kana": "アバシリシ",
    "town": "南四条東",
    "town_kana": "ミナミ4ジョウヒガシ",
    "street": "２丁目１０番地（網走郵便局私書箱第３号）",
    "office_name": "オホーツク網走農業協同組合",
    "office_name_kana": "オホ-ツクアバシリノウギヨウキヨウドウクミアイ"
  }
}