{
  "0071": {
    "postcode": "1020071",
    "prefecture": "東京都",
    "prefecture_kana": "トウキョウト",
    "prefecture_code": 13,
    "city": "千代田区",
    "city_kana": "チヨダク",
    "town": "富士見",
    "town_kana": "フジミ",
    "street": null,
    "office_name": null,
    "office_name_kana": null
  },
  "0072": {
    "postcode": "1020072",
    "prefecture": "東京都",
    "prefecture_kana": "トウキョウト",
    "prefecture_code": 13,
    "city": "千代田区",
    "city_kana": "チヨダク",
    "town": "飯田橋",
    "town_kana": "イイダバシ",
    "street": null,
    "office_name": null,
    "office_name_kana": null
  },
  "0073": {
    "postcode": "1020073",
    "prefecture": "東京都",
    "prefecture_kana": "トウキョウト",
    "prefecture_code": 13,
    "city": "千代田区",
    "city_kana": "チヨダク",
    "town": "九段北",
    "town_kana": "クダンキタ",
    "street": null,
    "office_name": null,
    "office_name_kana": null
  },
  "0074": {
    "postcode": "1020074",
    "prefecture": "東京都",
    "prefecture_kana": "トウキョウト",
    "prefecture_code": 13,
    "city": "千代田区",
    "city_kana": "チヨダク",
    "town": "九段南",
    "town_kana": "クダンミナミ",
    "street": null,
    "office_name": null,
    "office_name_kana": null
  },
  "0075": {
    "postcode": "1020075",
    "prefecture": "東京都",
    "prefecture_kana": "トウキョウト",
    "prefecture_code": 13,
    "city": "千代田区",
    "city_kana": "チヨダク",
    "town": "三番町",
    "town_kana": "サンバンチョウ",
    "street": null,
    "office_name": null,
    "office_name_kana": null
  },
  "0076": {
    "postcode": "1020076",
    "prefecture": "東京都",
    "prefecture_kana": "トウキョウト",
    "prefecture_code": 13,
    "city": "千代田区",
    "city_kana": "チヨダク",
    "town": "五番町",
    "town_kana": "ゴバンチョウ",
    "street": null,
    "office_name": null,
    "office_name_kana": null
  },
  "0081": {
    "postcode": "1020081",
    "prefecture": "東京都",
    "prefecture_kana": "トウキョウト",
    "prefecture_code": 13,
    "city": "千代田区",
    "city_kana": "チヨダク",
    "town": "四番町",
    "town_kana": "ヨンバンチョウ",
    "street": null,
    "office_name": null,
    "office_name_kana": null
  },
  "0082": {
    "postcode": "1020082",
    "prefecture": "東京都",
    "prefecture_kana": "トウキョウト",
    "prefecture_code": 13,
    "city": "千代田区",
    "city_kana": "チヨダク",
    "town": "一番町",
    "town_kana": "イチバンチョウ",
    "street": null,
    "office_name": null,
    "office_name_kana": null
  },
  "0083": {
    "postcode": "1020083",
    "prefecture": "東京都",
    "prefecture_kana": "トウキョウト",
    "prefecture_code": 13,
    "city": "千代田区",
    "city_kana": "チヨダク",
    "town": "麹町",
    "town_kana": "コウジマチ",
    "street": null,
    "office_name": null,
    "office_name_kana": null
  },
  "0084": {
    "postcode": "1020084",
    "prefecture": "東京都",
    "prefecture_kana": "トウキョウト",
    "prefecture_code": 13,
    "city": "千代田区",
    "city_kana": "チヨダク",
    "town": "二番町",
    "town_kana": "ニバンチョウ",
    "street": null,
    "office_name": null,
    "office_name_kana": null
  },
  "0085": {
    "postcode": "1020085",
    "prefecture": "東京都",
    "prefecture_kana": "トウキョウト",
    "prefecture_code": 13,
    "city": "千代田区",
    "city_kana": "チヨダク",
    "town": "六番町",
    "town_kana": "ロクバンチョウ",
    "street": null,
    "office_name": null,
    "office_name_kana": null
  },
  "0091": {
    "postcode": "1020091",
    "prefecture": "東京都",
    "prefecture_kana": "トウキョウト",
    "prefecture_code": 13,
    "city": "千代田区",
    "city_kana": "チヨダク",
    "town": "北の丸公園",
    "town_kana": "キタノマルコウエン",
    "street": null,
    "office_name": null,
    "office_name_kana": null
  },
  "0092": {
    "postcode": "1020092",
    "prefecture": "東京都",
    "prefecture_kana": "トウキョウト",
    "prefecture_code": 13,
    "city": "千代田区",
    "city_kana": "チヨダク",
    "town": "隼町",
    "town_kana": "ハヤブサチョウ",
    "street": null,
    "office_name": null,
    "office_name_kana": null
  },
  "0093": {
    "postcode": "1020093",
    "prefecture": "東京都",
    "prefecture_kana": "トウキョウト",
    "prefecture_code": 13,
    "city": "千代田区",
    "city_kana": "チヨダク",
    "town": "平河町",
    "town_kana": "ヒラカワチョウ",
    "street": null,
    "office_name": null,
    "office_name_kana": null
  },
  "0094": {
    "postcode": "1020094",
    "prefecture": "東京都",
    "prefecture_kana": "トウキョウト",
    "prefecture_code": 13,
    "city": "千代田区",
    "city_kana": "チヨダク",
    "town": "紀尾井町",
    "town_kana": "キオイチョウ",
    "street": null,
    "office_name": null,
    "office_name_kana": null
  },
  "8005": {
    "postcode": "1028005",
    "prefecture": "東京都",
    "prefecture_kana": "トウキョウト",
    "prefecture_code": 13,
    "city": "千代田区",
    "city_kana": "チヨダク",
    "town": "九段南",
    "town_kana": "クダンミナミ",
    "street": "４−８−２８",
    "office_name": "日本大学　通信教育部",
    "office_name_kana": "ニホンダイガク ツウシンキヨウイクブ"
  },
  "8008": {
    "postcode": "1028008",
    "prefecture": "東京都",
    "prefecture_kana": "トウキョウト",
    "prefecture_code": 13,
    "city": "千代田区",
    "city_kana": "チヨダク",
    "town": "紀尾井町",
    "town_kana": "キオイチョウ",
    "street": "３−２３",
    "office_name": "株式会社　文藝春秋",
    "office_name_kana": "カブシキカイシヤ ブンゲイシユンジユウ"
  },
  "8011": {
    "postcode": "1028011",
    "prefecture": "東京都",
    "prefecture_kana": "トウキョウト",
    "prefecture_code": 13,
    "city": "千代田区",
    "city_kana": "チヨダク",
    "town": "六番町",
    "town_kana": "ロクバンチョウ",
    "street": "４−６",
    "office_name": "財団法人　ＪＫＡ",
    "office_name_kana": "ザイダンホウジン ジエ-ケ-エ-"
  },
  "8012": {
    "postcode": "1028012",
    "prefecture": "東京都",
    "prefecture_kana": "トウキョウト",
    "prefecture_code": 13,
    "city": "千代田区",
    "city_kana": "チヨダク",
    "town": "二番町",
    "town_kana": "ニバンチョウ",
    "street": "５−２５二番町センタービル１Ｆ〜６Ｆ",
    "office_name": "独立行政法人　国際協力機構",
    "office_name_kana": "ドクリツギヨウセイホウジン コクサイキヨウリヨクキコウ"
  },
  "8015": {
    "postcode": "1028015",
    "prefecture": "東京都",
    "prefecture_kana": "トウキョウト",
    "prefecture_code": 13,
    "city": "千代田区",
    "city_kana": "チヨダク",
    "town": "一番町",
    "town_kana": "イチバンチョウ",
    "street": "２１",
    "office_name": "プルデンシャル　ジブラルタ　ファイナンシャル生命保険　株式会社",
    "office_name_kana": "プルデンシヤル ジブラルタ フアイナンシヤルセイメイホケン カブシキガイシヤ"
  },
  "8016": {
    "postcode": "1028016",
    "prefecture": "東京都",
    "prefecture_kana": "トウキョウト",
    "prefecture_code": 13,
    "city": "千代田区",
    "city_kana": "チヨダク",
    "town": "富士見",
    "town_kana": "フジミ",
    "street": "２丁目７−２ステージビルディング１４階",
    "office_name": "全国健康保険協会　船員保険部",
    "office_name_kana": "ゼンコクケンコウホケンキヨウカイ センインホケンブ"
  },
  "8018": {
    "postcode": "1028018",
    "prefecture": "東京都",
    "prefecture_kana": "トウキョウト",
    "prefecture_code": 13,
    "city": "千代田区",
    "city_kana": "チヨダク",
    "town": "三番町",
    "town_kana": "サンバンチョウ",
    "street": "６−２三番町弥生館４階",
    "office_name": "ダイヤル・サービス　株式会社",
    "office_name_kana": "ダイヤル・サ-ビス カブシキガイシヤ"
  },
  "8019": {
    "postcode": "1028019",
    "prefecture": "東京都",
    "prefecture_kana": "トウキョウト",
    "prefecture_code": 13,
    "city": "千代田区",
    "city_kana": "チヨダク",
    "town": "五番町",
    "town_kana": "ゴバンチョウ",
    "street": "６−２ホーマットホライゾンビル５Ｆ",
    "office_name": "株式会社　マッグガーデン",
    "office_name_kana": "カブシキガイシヤ マツグガ-デン"
  },
  "8022": {
    "postcode": "1028022",
    "prefecture": "東京都",
    "prefecture_kana": "トウキョウト",
    "prefecture_code": 13,
    "city": "千代田区",
    "city_kana": "チヨダク",
    "town": "麹町",
    "town_kana": "コウジマチ",
    "street": "１丁目６番４号",
    "office_name": "ＳＡＰジャパン　株式会社",
    "office_name_kana": "エスエ-ピ-ジヤパン カブシキガイシヤ"
  },
  "8025": {
    "postcode": "1028025",
    "prefecture": "東京都",
    "prefecture_kana": "トウキョウト",
    "prefecture_code": 13,
    "city": "千代田区",
    "city_kana": "チヨダク",
    "town": "紀尾井町",
    "town_kana": "キオイチョウ",
    "street": "３−２３",
    "office_name": "株式会社　オズマピーアール",
    "office_name_kana": "カブシキガイシヤ オズマピ-ア-ル"
  },
  "8026": {
    "postcode": "1028026",
    "prefecture": "東京都",
    "prefecture_kana": "トウキョウト",
    "prefecture_code": 13,
    "city": "千代田区",
    "city_kana": "チヨダク",
    "town": "五番町",
    "town_kana": "ゴバンチョウ",
    "street": "４番地５号五番町コスモビル２階",
    "office_name": "株式会社　美術出版社",
    "office_name_kana": "カブシキガイシヤ ビジユツシユツパンシヤ"
  },
  "8030": {
    "postcode": "1028030",
    "prefecture": "東京都",
    "prefecture_kana": "トウキョウト",
    "prefecture_code": 13,
    "city": "千代田区",
    "city_kana": "チヨダク",
    "town": "麹町",
    "town_kana": "コウジマチ",
    "street": "３−３−６",
    "office_name": "丸三証券　株式会社",
    "office_name_kana": "マルサンシヨウケン カブシキガイシヤ"
  },
  "8050": {
    "postcode": "1028050",
    "prefecture": "東京都",
    "prefecture_kana": "トウキョウト",
    "prefecture_code": 13,
    "city": "千代田区",
    "city_kana": "チヨダク",
    "town": "紀尾井町",
    "town_kana": "キオイチョウ",
    "street": "３−１２紀尾井町ビル１６Ｆ",
    "office_name": "ネイチャーケア・ジャパン　株式会社",
    "office_name_kana": "ネイチヤ-ケア・ジヤパン カブシキガイシヤ"
  },
  "8055": {
    "postcode": "1028055",
    "prefecture": "東京都",
    "prefecture_kana": "トウキョウト",
    "prefecture_code": 13,
    "city": "千代田区",
    "city_kana": "チヨダク",
    "town": "紀尾井町",
    "town_kana": "キオイチョウ",
    "street": "１−２",
    "office_name": "赤坂プリンスクラシックハウス",
    "office_name_kana": "アカサカプリンスクラシツクハウス"
  },
  "8077": {
    "postcode": "1028077",
    "prefecture": "東京都",
    "prefecture_kana": "トウキョウト",
    "prefecture_code": 13,
    "city": "千代田区",
    "city_kana": "チヨダク",
    "town": "五番町",
    "town_kana": "ゴバンチョウ",
    "street": "３−１五番町グランドビル",
    "office_name": "株式会社　ＫＡＤＯＫＡＷＡ",
    "office_name_kana": "カブシキカイシヤ カドカワ"
  },
  "8080": {
    "postcode": "1028080",
    "prefecture": "東京都",
    "prefecture_kana": "トウキョウト",
    "prefecture_code": 13,
    "city": "千代田区",
    "city_kana": "チヨダク",
    "town": "麹町",
    "town_kana": "コウジマチ",
    "street": "１丁目７",
    "office_name": "株式会社　エフエム東京",
    "office_name_kana": "カブシキガイシヤ エフエムトウキヨウ"
  },
  "8081": {
    "postcode": "1028081",
    "prefecture": "東京都",
    "prefecture_kana": "トウキョウト",
    "prefecture_code": 13,
    "city": "千代田区",
    "city_kana": "チヨダク",
    "town": "九段南",
    "town_kana": "クダンミナミ",
    "street": "１丁目１−１０",
    "office_name": "国家公務員　共済組合連合会　（連合会代表）",
    "office_name_kana": "コツカコウムイン キヨウサイクミアイレンゴウカイ (レンゴウカイダイヒヨウ)"
  },
  "8082": {
    "postcode": "1028082",
    "prefecture": "東京都",
    "prefecture_kana": "トウキョウト",
    "prefecture_code": 13,
    "city": "千代田区",
    "city_kana": "チヨダク",
    "town": "九段南",
    "town_kana": "クダンミナミ",
    "street": "１丁目１−１０",
    "office_name": "国家公務員　共済組合連合会　（年金部）",
    "office_name_kana": "コツカコウムイン キヨウサイクミアイレンゴウカイ (ネンキンブ)"
  },
  "8083": {
    "postcode": "1028083",
    "prefecture": "東京都",
    "prefecture_kana": "トウキョウト",
    "prefecture_code": 13,
    "city": "千代田区",
    "city_kana": "チヨダク",
    "town": "九段南",
    "town_kana": "クダンミナミ",
    "street": "１丁目１−１０",
    "office_name": "国家公務員　共済組合連合会　（旧令年金部）",
    "office_name_kana": "コツカコウムイン キヨウサイクミアイレンゴウカイ (キユウレイネンキンブ)"
  },
  "8085": {
    "postcode": "1028085",
    "prefecture": "東京都",
    "prefecture_kana": "トウキョウト",
    "prefecture_code": 13,
    "city": "千代田区",
    "city_kana": "チヨダク",
    "town": "九段南",
    "town_kana": "クダンミナミ",
    "street": "１丁目６−１１",
    "office_name": "中央労働基準監督署",
    "office_name_kana": "チユウオウロウドウキジユンカントクシヨ"
  },
  "8088": {
    "postcode": "1028088",
    "prefecture": "東京都",
    "prefecture_kana": "トウキョウト",
    "prefecture_code": 13,
    "city": "千代田区",
    "city_kana": "チヨダク",
    "town": "九段南",
    "town_kana": "クダンミナミ",
    "street": "４−７−１５ＪＰＲ市ヶ谷ビル４階",
    "office_name": "ＪＰ損保サービス　株式会社",
    "office_name_kana": "ジエイピ-ソンポサ-ビス カブシキガイシヤ"
  },
  "8102": {
    "postcode": "1028102",
    "prefecture": "東京都",
    "prefecture_kana": "トウキョウト",
    "prefecture_code": 13,
    "city": "千代田区",
    "city_kana": "チヨダク",
    "town": "飯田橋",
    "town_kana": "イイダバシ",
    "street": "３丁目３−１",
    "office_name": "古久根建設　株式会社",
    "office_name_kana": "コクネケンセツ カブシキガイシヤ"
  },
  "8103": {
    "postcode": "1028103",
    "prefecture": "東京都",
    "prefecture_kana": "トウキョウト",
    "prefecture_code": 13,
    "city": "千代田区",
    "city_kana": "チヨダク",
    "town": "麹町",
    "town_kana": "コウジマチ",
    "street": "３−３−４ＫＤＸ麹町ビル８階",
    "office_name": "株式会社　アイ・イーシー",
    "office_name_kana": "カブシキガイシヤ アイ・イ-シ-"
  },
  "8109": {
    "postcode": "1028109",
    "prefecture": "東京都",
    "prefecture_kana": "トウキョウト",
    "prefecture_code": 13,
    "city": "千代田区",
    "city_kana": "チヨダク",
    "town": "九段北",
    "town_kana": "クダンキタ",
    "street": "４丁目２−１",
    "office_name": "株式会社　アシスト",
    "office_name_kana": "カブシキガイシヤ アシスト"
  },
  "8110": {
    "postcode": "1028110",
    "prefecture": "東京都",
    "prefecture_kana": "トウキョウト",
    "prefecture_code": 13,
    "city": "千代田区",
    "city_kana": "チヨダク",
    "town": "一番町",
    "town_kana": "イチバンチョウ",
    "street": "６一番町ＳＱＵＡＲＥ",
    "office_name": "株式会社　潮出版社",
    "office_name_kana": "カブシキガイシヤ ウシオシユツパンシヤ"
  },
  "8111": {
    "postcode": "1028111",
    "prefecture": "東京都",
    "prefecture_kana": "トウキョウト",
    "prefecture_code": 13,
    "city": "千代田区",
    "city_kana": "チヨダク",
    "town": "飯田橋",
    "town_kana": "イイダバシ",
    "street": "３丁目６−５",
    "office_name": "昭和アルミニウム　株式会社",
    "office_name_kana": "シヨウワアルミニウム カブシキガイシヤ"
  },
  "8112": {
    "postcode": "1028112",
    "prefecture": "東京都",
    "prefecture_kana": "トウキョウト",
    "prefecture_code": 13,
    "city": "千代田区",
    "city_kana": "チヨダク",
    "town": "飯田橋",
    "town_kana": "イイダバシ",
    "street": "３丁目１３−１",
    "office_name": "大和ハウス工業　株式会社",
    "office_name_kana": "ダイワハウスコウギヨウ カブシキガイシヤ"
  },
  "8113": {
    "postcode": "1028113",
    "prefecture": "東京都",
    "prefecture_kana": "トウキョウト",
    "prefecture_code": 13,
    "city": "千代田区",
    "city_kana": "チヨダク",
    "town": "飯田橋",
    "town_kana": "イイダバシ",
    "street": "３−１０−３東京しごとセンター７階",
    "office_name": "東京都職業能力開発協会",
    "office_name_kana": "トウキヨウトシヨクギヨウノウリヨクカイハツキヨウカイ"
  },
  "8115": {
    "postcode": "1028115",
    "prefecture": "東京都",
    "prefecture_kana": "トウキョウト",
    "prefecture_code": 13,
    "city": "千代田区",
    "city_kana": "チヨダク",
    "town": "飯田橋",
    "town_kana": "イイダバシ",
    "street": "２丁目１０−１０",
    "office_name": "オンワード商事　株式会社",
    "office_name_kana": "オンワ-ドシヨウジ カブシキガイシヤ"
  },
  "8117": {
    "postcode": "1028117",
    "prefecture": "東京都",
    "prefecture_kana": "トウキョウト",
    "prefecture_code": 13,
    "city": "千代田区",
    "city_kana": "チヨダク",
    "town": "飯田橋",
    "town_kana": "イイダバシ",
    "street": "２丁目１８−３",
    "office_name": "株式会社　日建設計",
    "office_name_kana": "カブシキガイシヤ ニツケンセツケイ"
  },
  "8118": {
    "postcode": "1028118",
    "prefecture": "東京都",
    "prefecture_kana": "トウキョウト",
    "prefecture_code": 13,
    "city": "千代田区",
    "city_kana": "チヨダク",
    "town": "九段北",
    "town_kana": "クダンキタ",
    "street": "３丁目３−５",
    "office_name": "新村印刷　株式会社",
    "office_name_kana": "ニイムラインサツ カブシキガイシヤ"
  },
  "8119": {
    "postcode": "1028119",
    "prefecture": "東京都",
    "prefecture_kana": "トウキョウト",
    "prefecture_code": 13,
    "city": "千代田区",
    "city_kana": "チヨダク",
    "town": "麹町",
    "town_kana": "コウジマチ",
    "street": "１−６−２アーバンネット麹町ビル",
    "office_name": "一般財団法人　全国消防協会",
    "office_name_kana": "イツパンザイダンホウジン ゼンコクシヨウボウキヨウカイ"
  },
  "8120": {
    "postcode": "1028120",
    "prefecture": "東京都",
    "prefecture_kana": "トウキョウト",
    "prefecture_code": 13,
    "city": "千代田区",
    "city_kana": "チヨダク",
    "town": "飯田橋",
    "town_kana": "イイダバシ",
    "street": "１丁目１２−７",
    "office_name": "ゼネラルエレクトリックキャピタルカーシステム　株式会社",
    "office_name_kana": "ゼネラルエレクトリツクキヤピタルカ-システム カブシキガイシヤ"
  },
  "8122": {
    "postcode": "1028122",
    "prefecture": "東京都",
    "prefecture_kana": "トウキョウト",
    "prefecture_code": 13,
    "city": "千代田区",
    "city_kana": "チヨダク",
    "town": "飯田橋",
    "town_kana": "イイダバシ",
    "street": "２丁目１６−９",
    "office_name": "東亜販売　株式会社",
    "office_name_kana": "トウアハンバイ カブシキガイシヤ"
  },
  "8123": {
    "postcode": "1028123",
    "prefecture": "東京都",
    "prefecture_kana": "トウキョウト",
    "prefecture_code": 13,
    "city": "千代田区",
    "city_kana": "チヨダク",
    "town": "飯田橋",
    "town_kana": "イイダバシ",
    "street": "３丁目１１−６",
    "office_name": "日販アイ・ピー・エス　株式会社",
    "office_name_kana": "ニツパンアイ.ピ-.エス カブシキガイシヤ"
  },
  "8124": {
    "postcode": "1028124",
    "prefecture": "東京都",
    "prefecture_kana": "トウキョウト",
    "prefecture_code": 13,
    "city": "千代田区",
    "city_kana": "チヨダク",
    "town": "紀尾井町",
    "town_kana": "キオイチョウ",
    "street": "１−３東京ガーデンテラス紀尾井町紀尾井タワー２４階",
    "office_name": "株式会社　ＩＤＣフロンティア",
    "office_name_kana": "カブシキガイシヤ アイデイ-シ-フロンテイア"
  },
  "8125": {
    "postcode": "1028125",
    "prefecture": "東京都",
    "prefecture_kana": "トウキョウト",
    "prefecture_code": 13,
    "city": "千代田区",
    "city_kana": "チヨダク",
    "town": "飯田橋",
    "town_kana": "イイダバシ",
    "street": "３丁目３番７号",
    "office_name": "セントラル総合開発　株式会社",
    "office_name_kana": "セントラルソウゴウカイハツ カブシキガイシヤ"
  },
  "8128": {
    "postcode": "1028128",
    "prefecture": "東京都",
    "prefecture_kana": "トウキョウト",
    "prefecture_code": 13,
    "city": "千代田区",
    "city_kana": "チヨダク",
    "town": "飯田橋",
    "town_kana": "イイダバシ",
    "street": "２丁目１０−１０",
    "office_name": "アコム　株式会社",
    "office_name_kana": "アコム カブシキカイシヤ"
  },
  "8130": {
    "postcode": "1028130",
    "prefecture": "東京都",
    "prefecture_kana": "トウキョウト",
    "prefecture_code": 13,
    "city": "千代田区",
    "city_kana": "チヨダク",
    "town": "飯田橋",
    "town_kana": "イイダバシ",
    "street": "３丁目１０−８",
    "office_name": "株式会社　ホテルエドモント",
    "office_name_kana": "カブシキカイシヤ ホテルエドモント"
  },
  "8131": {
    "postcode": "1028131",
    "prefecture": "東京都",
    "prefecture_kana": "トウキョウト",
    "prefecture_code": 13,
    "city": "千代田区",
    "city_kana": "チヨダク",
    "town": "富士見",
    "town_kana": "フジミ",
    "street": "１丁目１−８",
    "office_name": "トッパン・フォームズ　株式会社",
    "office_name_kana": "トツパン.フオ-ムズ カブシキガイシヤ"
  },
  "8132": {
    "postcode": "1028132",
    "prefecture": "東京都",
    "prefecture_kana": "トウキョウト",
    "prefecture_code": 13,
    "city": "千代田区",
    "city_kana": "チヨダク",
    "town": "富士見",
    "town_kana": "フジミ",
    "street": "２丁目１５−３",
    "office_name": "法政大学　（保健体育部）",
    "office_name_kana": "ホウセイダイガク ホケンタイイクブ"
  },
  "8138": {
    "postcode": "1028138",
    "prefecture": "東京都",
    "prefecture_kana": "トウキョウト",
    "prefecture_code": 13,
    "city": "千代田区",
    "city_kana": "チヨダク",
    "town": "富士見",
    "town_kana": "フジミ",
    "street": "２丁目１４番１５号",
    "office_name": "在日本朝鮮人総聯合会　中央本部　（朝鮮総聯中央本部）",
    "office_name_kana": "ザイニホンチヨウセンジンソウレンゴウカイ チユウオウホンブ (チヨウセンソウレンチユウオウホンブ)"
  },
  "8139": {
    "postcode": "1028139",
    "prefecture": "東京都",
    "prefecture_kana": "トウキョウト",
    "prefecture_code": 13,
    "city": "千代田区",
    "city_kana": "チヨダク",
    "town": "富士見",
    "town_kana": "フジミ",
    "street": "１丁目３−８",
    "office_name": "株式会社　田中歯科器械店",
    "office_name_kana": "カブシキガイシヤ タナカシカキカイテン"
  },
  "8140": {
    "postcode": "1028140",
    "prefecture": "東京都",
    "prefecture_kana": "トウキョウト",
    "prefecture_code": 13,
    "city": "千代田区",
    "city_kana": "チヨダク",
    "town": "富士見",
    "town_kana": "フジミ",
    "street": "１丁目６−１",
    "office_name": "三和電気工業　株式会社　営業本部",
    "office_name_kana": "サンワデンキコウギヨウ カブシキガイシヤ エイギヨウホンブ"
  },
  "8141": {
    "postcode": "1028141",
    "prefecture": "東京都",
    "prefecture_kana": "トウキョウト",
    "prefecture_code": 13,
    "city": "千代田区",
    "city_kana": "チヨダク",
    "town": "富士見",
    "town_kana": "フジミ",
    "street": "１丁目２−２７",
    "office_name": "株式会社　ＩＤＧコミュニケーションズ",
    "office_name_kana": "カブシキガイシヤ アイデイジ-コミユニケ-シヨンズ"
  },
  "8142": {
    "postcode": "1028142",
    "prefecture": "東京都",
    "prefecture_kana": "トウキョウト",
    "prefecture_code": 13,
    "city": "千代田区",
    "city_kana": "チヨダク",
    "town": "富士見",
    "town_kana": "フジミ",
    "street": "１丁目４−４",
    "office_name": "株式会社　鐵原",
    "office_name_kana": "カブシキガイシヤ テツゲン"
  },
  "8144": {
    "postcode": "1028144",
    "prefecture": "東京都",
    "prefecture_kana": "トウキョウト",
    "prefecture_code": 13,
    "city": "千代田区",
    "city_kana": "チヨダク",
    "town": "富士見",
    "town_kana": "フジミ",
    "street": "２−１３−３",
    "office_name": "株式会社　富士見書房",
    "office_name_kana": "カブシキガイシヤ フジミシヨボウ"
  },
  "8150": {
    "postcode": "1028150",
    "prefecture": "東京都",
    "prefecture_kana": "トウキョウト",
    "prefecture_code": 13,
    "city": "千代田区",
    "city_kana": "チヨダク",
    "town": "富士見",
    "town_kana": "フジミ",
    "street": "２丁目１５−１１",
    "office_name": "アコム　株式会社",
    "office_name_kana": "アコム カブシキガイシヤ"
  },
  "8151": {
    "postcode": "1028151",
    "prefecture": "東京都",
    "prefecture_kana": "トウキョウト",
    "prefecture_code": 13,
    "city": "千代田区",
    "city_kana": "チヨダク",
    "town": "富士見",
    "town_kana": "フジミ",
    "street": "２丁目１０−２",
    "office_name": "前田建設工業　株式会社",
    "office_name_kana": "マエダケンセツコウギヨウ カブシキガイシヤ"
  },
  "8152": {
    "postcode": "1028152",
    "prefecture": "東京都",
    "prefecture_kana": "トウキョウト",
    "prefecture_code": 13,
    "city": "千代田区",
    "city_kana": "チヨダク",
    "town": "富士見",
    "town_kana": "フジミ",
    "street": "２丁目１１−３",
    "office_name": "株式会社　研究社本社",
    "office_name_kana": "カブシキガイシヤ ケンキユウシヤホンシヤ"
  },
  "8155": {
    "postcode": "1028155",
    "prefecture": "東京都",
    "prefecture_kana": "トウキョウト",
    "prefecture_code": 13,
    "city": "千代田区",
    "city_kana": "チヨダク",
    "town": "一番町",
    "town_kana": "イチバンチョウ",
    "street": "４番地４",
    "office_name": "株式会社　保健同人社",
    "office_name_kana": "カブシキガイシヤ ホケンドウジンシヤ"
  },
  "8160": {
    "postcode": "1028160",
    "prefecture": "東京都",
    "prefecture_kana": "トウキョウト",
    "prefecture_code": 13,
    "city": "千代田区",
    "city_kana": "チヨダク",
    "town": "富士見",
    "town_kana": "フジミ",
    "street": "２丁目１７−１",
    "office_name": "法政大学",
    "office_name_kana": "ホウセイダイガク"
  },
  "8161": {
    "postcode": "1028161",
    "prefecture": "東京都",
    "prefecture_kana": "トウキョウト",
    "prefecture_code": 13,
    "city": "千代田区",
    "city_kana": "チヨダク",
    "town": "富士見",
    "town_kana": "フジミ",
    "street": "２丁目１０−４１",
    "office_name": "東京警察病院",
    "office_name_kana": "トウキヨウケイサツビヨウイン"
  },
  "8166": {
    "postcode": "1028166",
    "prefecture": "東京都",
    "prefecture_kana": "トウキョウト",
    "prefecture_code": 13,
    "city": "千代田区",
    "city_kana": "チヨダク",
    "town": "富士見",
    "town_kana": "フジミ",
    "street": "１丁目１１−５",
    "office_name": "伊藤忠テクノソリューションズ　株式会社",
    "office_name_kana": "イトウチユウテクノソリユ-シヨンズ カブシキガイシヤ"
  },
  "8170": {
    "postcode": "1028170",
    "prefecture": "東京都",
    "prefecture_kana": "トウキョウト",
    "prefecture_code": 13,
    "city": "千代田区",
    "city_kana": "チヨダク",
    "town": "富士見",
    "town_kana": "フジミ",
    "street": "１丁目１１−２１",
    "office_name": "高山工業　株式会社",
    "office_name_kana": "タカヤマコウギヨウ カブシキガイシヤ"
  },
  "8171": {
    "postcode": "1028171",
    "prefecture": "東京都",
    "prefecture_kana": "トウキョウト",
    "prefecture_code": 13,
    "city": "千代田区",
    "city_kana": "チヨダク",
    "town": "富士見",
    "town_kana": "フジミ",
    "street": "１丁目２−２１",
    "office_name": "ピー・シー・エー　株式会社",
    "office_name_kana": "ピ-・シ-・エ- カブシキガイシヤ"
  },
  "8172": {
    "postcode": "1028172",
    "prefecture": "東京都",
    "prefecture_kana": "トウキョウト",
    "prefecture_code": 13,
    "city": "千代田区",
    "city_kana": "チヨダク",
    "town": "富士見",
    "town_kana": "フジミ",
    "street": "１丁目１１−２",
    "office_name": "日本化薬　株式会社",
    "office_name_kana": "ニホンカヤク カブシキガイシヤ"
  },
  "8175": {
    "postcode": "1028175",
    "prefecture": "東京都",
    "prefecture_kana": "トウキョウト",
    "prefecture_code": 13,
    "city": "千代田区",
    "city_kana": "チヨダク",
    "town": "富士見",
    "town_kana": "フジミ",
    "street": "２丁目１５−１０",
    "office_name": "ダイダン　株式会社　東京本社",
    "office_name_kana": "ダイダン カブシキガイシヤ トウキヨウホンシヤ"
  },
  "8176": {
    "postcode": "1028176",
    "prefecture": "東京都",
    "prefecture_kana": "トウキョウト",
    "prefecture_code": 13,
    "city": "千代田区",
    "city_kana": "チヨダク",
    "town": "富士見",
    "town_kana": "フジミ",
    "street": "１丁目６−１富士見ビル",
    "office_name": "ミシュランタイヤグループ",
    "office_name_kana": "ミシユランタイヤグル-プ"
  },
  "8177": {
    "postcode": "1028177",
    "prefecture": "東京都",
    "prefecture_kana": "トウキョウト",
    "prefecture_code": 13,
    "city": "千代田区",
    "city_kana": "チヨダク",
    "town": "富士見",
    "town_kana": "フジミ",
    "street": "２丁目１３番３号",
    "office_name": "株式会社　ＫＡＤＯＫＡＷＡ",
    "office_name_kana": "カブシキカイシヤ カドカワ"
  },
  "8178": {
    "postcode": "1028178",
    "prefecture": "東京都",
    "prefecture_kana": "トウキョウト",
    "prefecture_code": 13,
    "city": "千代田区",
    "city_kana": "チヨダク",
    "town": "富士見",
    "town_kana": "フジミ",
    "street": "２丁目１５−１",
    "office_name": "学校法人　嘉悦学園",
    "office_name_kana": "ガツコウホウジン カエツガクエン"
  },
  "8181": {
    "postcode": "1028181",
    "prefecture": "東京都",
    "prefecture_kana": "トウキョウト",
    "prefecture_code": 13,
    "city": "千代田区",
    "city_kana": "チヨダク",
    "town": "九段北",
    "town_kana": "クダンキタ",
    "street": "１丁目８−１０",
    "office_name": "株式会社　日刊工業新聞社",
    "office_name_kana": "カブシキガイシヤ ニツカンコウギヨウシンブンシヤ"
  },
  "8182": {
    "postcode": "1028182",
    "prefecture": "東京都",
    "prefecture_kana": "トウキョウト",
    "prefecture_code": 13,
    "city": "千代田区",
    "city_kana": "チヨダク",
    "town": "九段北",
    "town_kana": "クダンキタ",
    "street": "４丁目２−３８",
    "office_name": "常盤工業　株式会社",
    "office_name_kana": "トキワコウギヨウ カブシキガイシヤ"
  },
  "8184": {
    "postcode": "1028184",
    "prefecture": "東京都",
    "prefecture_kana": "トウキョウト",
    "prefecture_code": 13,
    "city": "千代田区",
    "city_kana": "チヨダク",
    "town": "九段北",
    "town_kana": "クダンキタ",
    "street": "１丁目１４−１９乳業会館",
    "office_name": "社団法人　日本アイスクリーム協会",
    "office_name_kana": "シヤダンホウジン ニホンアイスクリ-ムキヨウカイ"
  },
  "8185": {
    "postcode": "1028185",
    "prefecture": "東京都",
    "prefecture_kana": "トウキョウト",
    "prefecture_code": 13,
    "city": "千代田区",
    "city_kana": "チヨダク",
    "town": "九段北",
    "town_kana": "クダンキタ",
    "street": "２丁目４−１",
    "office_name": "学校法人　白百合学園",
    "office_name_kana": "ガツコウホウジン シラユリガクエン"
  },
  "8186": {
    "postcode": "1028186",
    "prefecture": "東京都",
    "prefecture_kana": "トウキョウト",
    "prefecture_code": 13,
    "city": "千代田区",
    "city_kana": "チヨダク",
    "town": "九段北",
    "town_kana": "クダンキタ",
    "street": "３丁目２−４メヂカルフレンドビル",
    "office_name": "株式会社　椿本チエイン　東京支社",
    "office_name_kana": "カブシキガイシヤ ツバキモトチエイン トウキヨウシシヤ"
  },
  "8187": {
    "postcode": "1028187",
    "prefecture": "東京都",
    "prefecture_kana": "トウキョウト",
    "prefecture_code": 13,
    "city": "千代田区",
    "city_kana": "チヨダク",
    "town": "九段北",
    "town_kana": "クダンキタ",
    "street": "４丁目２−２９",
    "office_name": "株式会社　世界文化社",
    "office_name_kana": "カブシキガイシヤ セカイブンカシヤ"
  },
  "8188": {
    "postcode": "1028188",
    "prefecture": "東京都",
    "prefecture_kana": "トウキョウト",
    "prefecture_code": 13,
    "city": "千代田区",
    "city_kana": "チヨダク",
    "town": "九段北",
    "town_kana": "クダンキタ",
    "street": "１丁目１３−５",
    "office_name": "日本地所　株式会社",
    "office_name_kana": "ニホンジシヨ カブシキガイシヤ"
  },
  "8190": {
    "postcode": "1028190",
    "prefecture": "東京都",
    "prefecture_kana": "トウキョウト",
    "prefecture_code": 13,
    "city": "千代田区",
    "city_kana": "チヨダク",
    "town": "九段北",
    "town_kana": "クダンキタ",
    "street": "４−２−２９",
    "office_name": "株式会社　Ｂｅｇｉｎ",
    "office_name_kana": "カブシキガイシヤ ビギン"
  },
  "8191": {
    "postcode": "1028191",
    "prefecture": "東京都",
    "prefecture_kana": "トウキョウト",
    "prefecture_code": 13,
    "city": "千代田区",
    "city_kana": "チヨダク",
    "town": "九段北",
    "town_kana": "クダンキタ",
    "street": "４−２−２９",
    "office_name": "株式会社　家庭画報ビジネスパートナーズ",
    "office_name_kana": "カブシキガイシヤ カテイガホウビジネスパ-トナ-ズ"
  },
  "8192": {
    "postcode": "1028192",
    "prefecture": "東京都",
    "prefecture_kana": "トウキョウト",
    "prefecture_code": 13,
    "city": "千代田区",
    "city_kana": "チヨダク",
    "town": "九段北",
    "town_kana": "クダンキタ",
    "street": "４−２−２９",
    "office_name": "株式会社　世界文化ワンダーグループ",
    "office_name_kana": "カブシキガイシヤ セカイブンカワンダ-グル-プ"
  },
  "8193": {
    "postcode": "1028193",
    "prefecture": "東京都",
    "prefecture_kana": "トウキョウト",
    "prefecture_code": 13,
    "city": "千代田区",
    "city_kana": "チヨダク",
    "town": "九段北",
    "town_kana": "クダンキタ",
    "street": "４−２−２９",
    "office_name": "株式会社　ワンダーネットワーク",
    "office_name_kana": "カブシキガイシヤ ワンダ-ネツトワ-ク"
  },
  "8194": {
    "postcode": "1028194",
    "prefecture": "東京都",
    "prefecture_kana": "トウキョウト",
    "prefecture_code": 13,
    "city": "千代田区",
    "city_kana": "チヨダク",
    "town": "九段北",
    "town_kana": "クダンキタ",
    "street": "４−２−２９",
    "office_name": "株式会社　ワンダーウェルネス",
    "office_name_kana": "カブシキガイシヤ ワンダ-ウエルネス"
  },
  "8195": {
    "postcode": "1028195",
    "prefecture": "東京都",
    "prefecture_kana": "トウキョウト",
    "prefecture_code": 13,
    "city": "千代田区",
    "city_kana": "チヨダク",
    "town": "九段北",
    "town_kana": "クダンキタ",
    "street": "４−２−２９",
    "office_name": "株式会社　世界文化ブックス",
    "office_name_kana": "カブシキガイシヤ セカイブンカブツクス"
  },
  "8201": {
    "postcode": "1028201",
    "prefecture": "東京都",
    "prefecture_kana": "トウキョウト",
    "prefecture_code": 13,
    "city": "千代田区",
    "city_kana": "チヨダク",
    "town": "九段北",
    "town_kana": "クダンキタ",
    "street": "１丁目１４−６",
    "office_name": "住宅・都市整備公団",
    "office_name_kana": "ジユウタク・トシセイビコウダン"
  },
  "8205": {
    "postcode": "1028205",
    "prefecture": "東京都",
    "prefecture_kana": "トウキョウト",
    "prefecture_code": 13,
    "city": "千代田区",
    "city_kana": "チヨダク",
    "town": "九段北",
    "town_kana": "クダンキタ",
    "street": "１丁目１４−１６",
    "office_name": "株式会社　テクノ大手",
    "office_name_kana": "カブシキカイシヤ テクノオオテ"
  },
  "8211": {
    "postcode": "1028211",
    "prefecture": "東京都",
    "prefecture_kana": "トウキョウト",
    "prefecture_code": 13,
    "city": "千代田区",
    "city_kana": "チヨダク",
    "town": "九段北",
    "town_kana": "クダンキタ",
    "street": "４丁目２−４",
    "office_name": "株式会社　千修",
    "office_name_kana": "カブシキガイシヤ センシユウ"
  },
  "8215": {
    "postcode": "1028215",
    "prefecture": "東京都",
    "prefecture_kana": "トウキョウト",
    "prefecture_code": 13,
    "city": "千代田区",
    "city_kana": "チヨダク",
    "town": "九段北",
    "town_kana": "クダンキタ",
    "street": "４丁目３−１一口坂中央ビル",
    "office_name": "前田建設工業　株式会社　関東支社・東京支店",
    "office_name_kana": "マエダケンセツコウギヨウ カブシキカイシヤ カントウシシヤ.トウキヨウシテン"
  },
  "8221": {
    "postcode": "1028221",
    "prefecture": "東京都",
    "prefecture_kana": "トウキョウト",
    "prefecture_code": 13,
    "city": "千代田区",
    "city_kana": "チヨダク",
    "town": "紀尾井町",
    "town_kana": "キオイチョウ",
    "street": "１−３東京ガーデンテラス紀尾井町紀尾井タワー２１階",
    "office_name": "株式会社　Ｊコミックテラス",
    "office_name_kana": "カブシキガイシヤ ジエイコミツクテラス"
  },
  "8222": {
    "postcode": "1028222",
    "prefecture": "東京都",
    "prefecture_kana": "トウキョウト",
    "prefecture_code": 13,
    "city": "千代田区",
    "city_kana": "チヨダク",
    "town": "九段北",
    "town_kana": "クダンキタ",
    "street": "４丁目３−２９",
    "office_name": "ニチレキ　株式会社",
    "office_name_kana": "ニチレキ カブシキガイシヤ"
  },
  "8223": {
    "postcode": "1028223",
    "prefecture": "東京都",
    "prefecture_kana": "トウキョウト",
    "prefecture_code": 13,
    "city": "千代田区",
    "city_kana": "チヨダク",
    "town": "紀尾井町",
    "town_kana": "キオイチョウ",
    "street": "１−３東京ガーデンテラス紀尾井町紀尾井タワー２３階",
    "office_name": "ワイジェイＦＸ　株式会社",
    "office_name_kana": "ワイジエイエフエツクス カブシキガイシヤ"
  },
  "8224": {
    "postcode": "1028224",
    "prefecture": "東京都",
    "prefecture_kana": "トウキョウト",
    "prefecture_code": 13,
    "city": "千代田区",
    "city_kana": "チヨダク",
    "town": "紀尾井町",
    "town_kana": "キオイチョウ",
    "street": "１−３東京ガーデンテラス紀尾井町紀尾井タワー２４階",
    "office_name": "ワイズ・インシュアランス　株式会社",
    "office_name_kana": "ワイズ・インシユアランス カブシキガイシヤ"
  },
  "8225": {
    "postcode": "1028225",
    "prefecture": "東京都",
    "prefecture_kana": "トウキョウト",
    "prefecture_code": 13,
    "city": "千代田区",
    "city_kana": "チヨダク",
    "town": "九段南",
    "town_kana": "クダンミナミ",
    "street": "１丁目１−１５九段第２合同庁舎",
    "office_name": "東京法務局",
    "office_name_kana": "トウキヨウホウムキヨク"
  },
  "8226": {
    "postcode": "1028226",
    "prefecture": "東京都",
    "prefecture_kana": "トウキョウト",
    "prefecture_code": 13,
    "city": "千代田区",
    "city_kana": "チヨダク",
    "town": "九段南",
    "town_kana": "クダンミナミ",
    "street": "１丁目１−１５",
    "office_name": "東京法務局",
    "office_name_kana": "トウキヨウホウムキヨク"
  },
  "8228": {
    "postcode": "1028228",
    "prefecture": "東京都",
    "prefecture_kana": "トウキョウト",
    "prefecture_code": 13,
    "city": "千代田区",
    "city_kana": "チヨダク",
    "town": "九段北",
    "town_kana": "クダンキタ",
    "street": "１丁目１１−２",
    "office_name": "株式会社　カントー",
    "office_name_kana": "カブシキガイシヤ カント-"
  },
  "8230": {
    "postcode": "1028230",
    "prefecture": "東京都",
    "prefecture_kana": "トウキョウト",
    "prefecture_code": 13,
    "city": "千代田区",
    "city_kana": "チヨダク",
    "town": "九段北",
    "town_kana": "クダンキタ",
    "street": "４−１−３４九段明善堂ビル",
    "office_name": "株式会社　コーエーテクモゲームス",
    "office_name_kana": "カブシキガイシヤ コ-エ-テクモゲ-ムス"
  },
  "8231": {
    "postcode": "1028231",
    "prefecture": "東京都",
    "prefecture_kana": "トウキョウト",
    "prefecture_code": 13,
    "city": "千代田区",
    "city_kana": "チヨダク",
    "town": "九段北",
    "town_kana": "クダンキタ",
    "street": "１丁目９−１２九段下ビル６Ｆ",
    "office_name": "石垣食品　株式会社",
    "office_name_kana": "イシガキシヨクヒン カブシキガイシヤ"
  },
  "8232": {
    "postcode": "1028232",
    "prefecture": "東京都",
    "prefecture_kana": "トウキョウト",
    "prefecture_code": 13,
    "city": "千代田区",
    "city_kana": "チヨダク",
    "town": "九段南",
    "town_kana": "クダンミナミ",
    "street": "３丁目９番１４号ＨＦ九段南ビル",
    "office_name": "株式会社　少年写真新聞社",
    "office_name_kana": "カブシキガイシヤ シヨウネンシヤシンシンブンシヤ"
  },
  "8234": {
    "postcode": "1028234",
    "prefecture": "東京都",
    "prefecture_kana": "トウキョウト",
    "prefecture_code": 13,
    "city": "千代田区",
    "city_kana": "チヨダク",
    "town": "九段北",
    "town_kana": "クダンキタ",
    "street": "１丁目１２−３０",
    "office_name": "社団法人　建設荷役車両安全技術協会",
    "office_name_kana": "シヤダンホウジン ケンセツニヤクシヤリヨウアンゼンギジユツキヨウカイ"
  },
  "8235": {
    "postcode": "1028235",
    "prefecture": "東京都",
    "prefecture_kana": "トウキョウト",
    "prefecture_code": 13,
    "city": "千代田区",
    "city_kana": "チヨダク",
    "town": "九段南",
    "town_kana": "クダンミナミ",
    "street": "１丁目３番１号",
    "office_name": "日本電子計算　株式会社",
    "office_name_kana": "ニホンデンシケイサン カブシキガイシヤ"
  },
  "8236": {
    "postcode": "1028236",
    "prefecture": "東京都",
    "prefecture_kana": "トウキョウト",
    "prefecture_code": 13,
    "city": "千代田区",
    "city_kana": "チヨダク",
    "town": "九段北",
    "town_kana": "クダンキタ",
    "street": "４−２−３５",
    "office_name": "ライト工業　株式会社",
    "office_name_kana": "ライトコウギヨウ カブシキガイシヤ"
  },
  "8238": {
    "postcode": "1028238",
    "prefecture": "東京都",
    "prefecture_kana": "トウキョウト",
    "prefecture_code": 13,
    "city": "千代田区",
    "city_kana": "チヨダク",
    "town": "麹町",
    "town_kana": "コウジマチ",
    "street": "３丁目−１",
    "office_name": "株式会社　昭文社",
    "office_name_kana": "カブシキガイシヤ シヨウブンシヤ"
  },
  "8240": {
    "postcode": "1028240",
    "prefecture": "東京都",
    "prefecture_kana": "トウキョウト",
    "prefecture_code": 13,
    "city": "千代田区",
    "city_kana": "チヨダク",
    "town": "九段北",
    "town_kana": "クダンキタ",
    "street": "３丁目３−１２",
    "office_name": "法政大学　就職部",
    "office_name_kana": "ホウセイダイガク シユウシヨクブ"
  },
  "8241": {
    "postcode": "1028241",
    "prefecture": "東京都",
    "prefecture_kana": "トウキョウト",
    "prefecture_code": 13,
    "city": "千代田区",
    "city_kana": "チヨダク",
    "town": "九段北",
    "town_kana": "クダンキタ",
    "street": "４丁目１−２０",
    "office_name": "社団法人　東京都歯科医師会",
    "office_name_kana": "シヤダンホウジン トウキヨウトシカイシカイ"
  },
  "8246": {
    "postcode": "1028246",
    "prefecture": "東京都",
    "prefecture_kana": "トウキョウト",
    "prefecture_code": 13,
    "city": "千代田区",
    "city_kana": "チヨダク",
    "town": "九段北",
    "town_kana": "クダンキタ",
    "street": "３−１−１",
    "office_name": "靖国神社",
    "office_name_kana": "ヤスクニジンジヤ"
  },
  "8250": {
    "postcode": "1028250",
    "prefecture": "東京都",
    "prefecture_kana": "トウキョウト",
    "prefecture_code": 13,
    "city": "千代田区",
    "city_kana": "チヨダク",
    "town": "九段北",
    "town_kana": "クダンキタ",
    "street": "４丁目１番７号",
    "office_name": "丸紅メタル　株式会社",
    "office_name_kana": "マルベニメタル カブシキガイシヤ"
  },
  "8251": {
    "postcode": "1028251",
    "prefecture": "東京都",
    "prefecture_kana": "トウキョウト",
    "prefecture_code": 13,
    "city": "千代田区",
    "city_kana": "チヨダク",
    "town": "五番町",
    "town_kana": "ゴバンチョウ",
    "street": "１２−５",
    "office_name": "日本大学大学院総合科学研究科",
    "office_name_kana": "ニホンダイガクダイガクイン ソウゴウカガクケンキユウカ"
  },
  "8255": {
    "postcode": "1028255",
    "prefecture": "東京都",
    "prefecture_kana": "トウキョウト",
    "prefecture_code": 13,
    "city": "千代田区",
    "city_kana": "チヨダク",
    "town": "九段南",
    "town_kana": "クダンミナミ",
    "street": "２丁目３−１４靖国九段南ビル",
    "office_name": "富士通　株式会社",
    "office_name_kana": "フジツウ カブシキガイシヤ"
  },
  "8260": {
    "postcode": "1028260",
    "prefecture": "東京都",
    "prefecture_kana": "トウキョウト",
    "prefecture_code": 13,
    "city": "千代田区",
    "city_kana": "チヨダク",
    "town": "九段南",
    "town_kana": "クダンミナミ",
    "street": "４丁目３−１２",
    "office_name": "株式会社　培風館",
    "office_name_kana": "カブシキガイシヤ バイフウカン"
  },
  "8264": {
    "postcode": "1028264",
    "prefecture": "東京都",
    "prefecture_kana": "トウキョウト",
    "prefecture_code": 13,
    "city": "千代田区",
    "city_kana": "チヨダク",
    "town": "九段南",
    "town_kana": "クダンミナミ",
    "street": "４丁目４−１",
    "office_name": "日本公認会計士協会",
    "office_name_kana": "ニホンコウニンカイケイシキヨウカイ"
  },
  "8265": {
    "postcode": "1028265",
    "prefecture": "東京都",
    "prefecture_kana": "トウキョウト",
    "prefecture_code": 13,
    "city": "千代田区",
    "city_kana": "チヨダク",
    "town": "九段南",
    "town_kana": "クダンミナミ",
    "street": "４丁目８−１３",
    "office_name": "東京乗用旅客自動車厚生年金基金",
    "office_name_kana": "トウキヨウジヨウヨウリヨキヤクジドウシヤコウセイネンキンキキン"
  },
  "8272": {
    "postcode": "1028272",
    "prefecture": "東京都",
    "prefecture_kana": "トウキョウト",
    "prefecture_code": 13,
    "city": "千代田区",
    "city_kana": "チヨダク",
    "town": "九段南",
    "town_kana": "クダンミナミ",
    "street": "１丁目６−１７",
    "office_name": "日本鉄鋼建材リース　株式会社",
    "office_name_kana": "ニホンテツコウケンザイリ-ス カブシキガイシヤ"
  },
  "8273": {
    "postcode": "1028273",
    "prefecture": "東京都",
    "prefecture_kana": "トウキョウト",
    "prefecture_code": 13,
    "city": "千代田区",
    "city_kana": "チヨダク",
    "town": "九段南",
    "town_kana": "クダンミナミ",
    "street": "４−８−１６ゼンセン同盟会館内",
    "office_name": "ＵＡゼンセン",
    "office_name_kana": "ユ-エイゼンセン"
  },
  "8274": {
    "postcode": "1028274",
    "prefecture": "東京都",
    "prefecture_kana": "トウキョウト",
    "prefecture_code": 13,
    "city": "千代田区",
    "city_kana": "チヨダク",
    "town": "九段南",
    "town_kana": "クダンミナミ",
    "street": "４−８−１９ＣＩＲＣＬＥＳ＋市ケ谷駅前",
    "office_name": "ＵＡゼンセン　共済事業局",
    "office_name_kana": "ユ-エイゼンセン キヨウサイジギヨウキヨク"
  },
  "8275": {
    "postcode": "1028275",
    "prefecture": "東京都",
    "prefecture_kana": "トウキョウト",
    "prefecture_code": 13,
    "city": "千代田区",
    "city_kana": "チヨダク",
    "town": "九段南",
    "town_kana": "クダンミナミ",
    "street": "４丁目８−２４",
    "office_name": "日本大学　本部",
    "office_name_kana": "ニホンダイガク ホンブ"
  },
  "8277": {
    "postcode": "1028277",
    "prefecture": "東京都",
    "prefecture_kana": "トウキョウト",
    "prefecture_code": 13,
    "city": "千代田区",
    "city_kana": "チヨダク",
    "town": "九段南",
    "town_kana": "クダンミナミ",
    "street": "４丁目７−３",
    "office_name": "能美防災　株式会社",
    "office_name_kana": "ノウミボウサイ カブシキガイシヤ"
  },
  "8282": {
    "postcode": "1028282",
    "prefecture": "東京都",
    "prefecture_kana": "トウキョウト",
    "prefecture_code": 13,
    "city": "千代田区",
    "city_kana": "チヨダク",
    "town": "紀尾井町",
    "town_kana": "キオイチョウ",
    "street": "１−３東京ガーデンテラス紀尾井町紀尾井タワー",
    "office_name": "ＬＩＮＥヤフー　株式会社",
    "office_name_kana": "ラインヤフ- カブシキガイシヤ"
  },
  "8288": {
    "postcode": "1028288",
    "prefecture": "東京都",
    "prefecture_kana": "トウキョウト",
    "prefecture_code": 13,
    "city": "千代田区",
    "city_kana": "チヨダク",
    "town": "九段南",
    "town_kana": "クダンミナミ",
    "street": "４丁目８−３２",
    "office_name": "財団法人　東京顕微鏡院",
    "office_name_kana": "ザイダンホウジン トウキヨウケンビキヨウイン"
  },
  "8301": {
    "postcode": "1028301",
    "prefecture": "東京都",
    "prefecture_kana": "トウキョウト",
    "prefecture_code": 13,
    "city": "千代田区",
    "city_kana": "チヨダク",
    "town": "麹町",
    "town_kana": "コウジマチ",
    "street": "１丁目６番９号ＤＩＫ麹町ビル７０３号室",
    "office_name": "株式会社　カー・アンド・ドライバー",
    "office_name_kana": "カブシキガイシヤ カ-・アンド・ドライバ-"
  },
  "8303": {
    "postcode": "1028303",
    "prefecture": "東京都",
    "prefecture_kana": "トウキョウト",
    "prefecture_code": 13,
    "city": "千代田区",
    "city_kana": "チヨダク",
    "town": "九段南",
    "town_kana": "クダンミナミ",
    "street": "４丁目６−１３−７０４",
    "office_name": "株式会社　プレゼントハウス",
    "office_name_kana": "カブシキガイシヤ プレゼントハウス"
  },
  "8305": {
    "postcode": "1028305",
    "prefecture": "東京都",
    "prefecture_kana": "トウキョウト",
    "prefecture_code": 13,
    "city": "千代田区",
    "city_kana": "チヨダク",
    "town": "九段南",
    "town_kana": "クダンミナミ",
    "street": "１丁目２−１",
    "office_name": "厚生労働省　東京労働局",
    "office_name_kana": "コウセイロウドウシヨウ トウキヨウロウドウキヨク"
  },
  "8309": {
    "postcode": "1028309",
    "prefecture": "東京都",
    "prefecture_kana": "トウキョウト",
    "prefecture_code": 13,
    "city": "千代田区",
    "city_kana": "チヨダク",
    "town": "九段南",
    "town_kana": "クダンミナミ",
    "street": "１丁目２−１",
    "office_name": "厚生労働省　関東信越厚生局　麻薬取締部",
    "office_name_kana": "コウセイロウドウシヨウ カントウシンエツコウセイキヨク マヤクトリシマリブ"
  },
  "8310": {
    "postcode": "1028310",
    "prefecture": "東京都",
    "prefecture_kana": "トウキョウト",
    "prefecture_code": 13,
    "city": "千代田区",
    "city_kana": "チヨダク",
    "town": "九段南",
    "town_kana": "クダンミナミ",
    "street": "４丁目７−１３",
    "office_name": "朝日エティック　株式会社",
    "office_name_kana": "アサヒエテイツク カブシキガイシヤ"
  },
  "8311": {
    "postcode": "1028311",
    "prefecture": "東京都",
    "prefecture_kana": "トウキョウト",
    "prefecture_code": 13,
    "city": "千代田区",
    "city_kana": "チヨダク",
    "town": "九段南",
    "town_kana": "クダンミナミ",
    "street": "１丁目１−１５",
    "office_name": "麹町税務署",
    "office_name_kana": "コウジマチゼイムシヨ"
  },
  "8313": {
    "postcode": "1028313",
    "prefecture": "東京都",
    "prefecture_kana": "トウキョウト",
    "prefecture_code": 13,
    "city": "千代田区",
    "city_kana": "チヨダク",
    "town": "麹町",
    "town_kana": "コウジマチ",
    "street": "４−３−２９パシフィックシティ麹町３階",
    "office_name": "角川シネプレックス　株式会社",
    "office_name_kana": "カドカワシネプレツクス カブシキガイシヤ"
  },
  "8314": {
    "postcode": "1028314",
    "prefecture": "東京都",
    "prefecture_kana": "トウキョウト",
    "prefecture_code": 13,
    "city": "千代田区",
    "city_kana": "チヨダク",
    "town": "九段南",
    "town_kana": "クダンミナミ",
    "street": "２丁目３−１４靖国九段南ビル",
    "office_name": "丸紅インフォテック　株式会社",
    "office_name_kana": "マルベニインフオテツク カブシキガイシヤ"
  },
  "8321": {
    "postcode": "1028321",
    "prefecture": "東京都",
    "prefecture_kana": "トウキョウト",
    "prefecture_code": 13,
    "city": "千代田区",
    "city_kana": "チヨダク",
    "town": "北の丸公園",
    "town_kana": "キタノマルコウエン",
    "street": "２−３",
    "office_name": "財団法人　日本武道館",
    "office_name_kana": "ザイダンホウジン ニツポンブドウカン"
  },
  "8322": {
    "postcode": "1028322",
    "prefecture": "東京都",
    "prefecture_kana": "トウキョウト",
    "prefecture_code": 13,
    "city": "千代田区",
    "city_kana": "チヨダク",
    "town": "北の丸公園",
    "town_kana": "キタノマルコウエン",
    "street": "３",
    "office_name": "東京国立近代美術館",
    "office_name_kana": "トウキヨウコクリツキンダイビジユツカン"
  },
  "8324": {
    "postcode": "1028324",
    "prefecture": "東京都",
    "prefecture_kana": "トウキョウト",
    "prefecture_code": 13,
    "city": "千代田区",
    "city_kana": "チヨダク",
    "town": "紀尾井町",
    "town_kana": "キオイチョウ",
    "street": "３番２３号",
    "office_name": "株式会社　リビングくらしＨＯＷ研究所",
    "office_name_kana": "カブシキカイシヤ リビングクラシハウケンキユウジヨ"
  },
  "8331": {
    "postcode": "1028331",
    "prefecture": "東京都",
    "prefecture_kana": "トウキョウト",
    "prefecture_code": 13,
    "city": "千代田区",
    "city_kana": "チヨダク",
    "town": "一番町",
    "town_kana": "イチバンチョウ",
    "street": "２１",
    "office_name": "株式会社　ＰＨＰ研究所",
    "office_name_kana": "カブシキガイシヤ ピ-エイチピ-ケンキユウシヨ"
  },
  "8332": {
    "postcode": "1028332",
    "prefecture": "東京都",
    "prefecture_kana": "トウキョウト",
    "prefecture_code": 13,
    "city": "千代田区",
    "city_kana": "チヨダク",
    "town": "三番町",
    "town_kana": "サンバンチョウ",
    "street": "２番地",
    "office_name": "飛島建設　株式会社",
    "office_name_kana": "トビシマケンセツ カブシキガイシヤ"
  },
  "8333": {
    "postcode": "1028333",
    "prefecture": "東京都",
    "prefecture_kana": "トウキョウト",
    "prefecture_code": 13,
    "city": "千代田区",
    "city_kana": "チヨダク",
    "town": "三番町",
    "town_kana": "サンバンチョウ",
    "street": "６−５",
    "office_name": "三喜商事　株式会社",
    "office_name_kana": "サンキシヨウジ カブシキガイシヤ"
  },
  "8336": {
    "postcode": "1028336",
    "prefecture": "東京都",
    "prefecture_kana": "トウキョウト",
    "prefecture_code": 13,
    "city": "千代田区",
    "city_kana": "チヨダク",
    "town": "三番町",
    "town_kana": "サンバンチョウ",
    "street": "６−１６",
    "office_name": "学校法人　二松学舎",
    "office_name_kana": "ガツコウホウジン ニシヨウガクシヤ"
  },
  "8341": {
    "postcode": "1028341",
    "prefecture": "東京都",
    "prefecture_kana": "トウキョウト",
    "prefecture_code": 13,
    "city": "千代田区",
    "city_kana": "チヨダク",
    "town": "三番町",
    "town_kana": "サンバンチョウ",
    "street": "２２",
    "office_name": "学校法人　東京家政学院",
    "office_name_kana": "ガツコウホウジン トウキヨウカセイガクイン"
  },
  "8343": {
    "postcode": "1028343",
    "prefecture": "東京都",
    "prefecture_kana": "トウキョウト",
    "prefecture_code": 13,
    "city": "千代田区",
    "city_kana": "チヨダク",
    "town": "九段南",
    "town_kana": "クダンミナミ",
    "street": "一丁目６番５号",
    "office_name": "株式会社　ミスミ　カスタマー・サービス・センター",
    "office_name_kana": "カブシキガイシヤ ミスミ カスタマ-・サ-ビス・センタ-"
  },
  "8349": {
    "postcode": "1028349",
    "prefecture": "東京都",
    "prefecture_kana": "トウキョウト",
    "prefecture_code": 13,
    "city": "千代田区",
    "city_kana": "チヨダク",
    "town": "三番町",
    "town_kana": "サンバンチョウ",
    "street": "８−１三番町東急ビル７Ｆ",
    "office_name": "株式会社　オークネット",
    "office_name_kana": "カブシキガイシヤ オ-クネツト"
  },
  "8350": {
    "postcode": "1028350",
    "prefecture": "東京都",
    "prefecture_kana": "トウキョウト",
    "prefecture_code": 13,
    "city": "千代田区",
    "city_kana": "チヨダク",
    "town": "麹町",
    "town_kana": "コウジマチ",
    "street": "１丁目６番４号",
    "office_name": "株式会社　日新",
    "office_name_kana": "カブシキガイシヤ ニツシン"
  },
  "8353": {
    "postcode": "1028353",
    "prefecture": "東京都",
    "prefecture_kana": "トウキョウト",
    "prefecture_code": 13,
    "city": "千代田区",
    "city_kana": "チヨダク",
    "town": "六番町",
    "town_kana": "ロクバンチョウ",
    "street": "４−５",
    "office_name": "（株）　ソニー・ミュージックエンタテインメント",
    "office_name_kana": "(カブ) ソニ-・ミユ-ジツクエンタテインメント"
  },
  "8356": {
    "postcode": "1028356",
    "prefecture": "東京都",
    "prefecture_kana": "トウキョウト",
    "prefecture_code": 13,
    "city": "千代田区",
    "city_kana": "チヨダク",
    "town": "三番町",
    "town_kana": "サンバンチョウ",
    "street": "５",
    "office_name": "社団法人　第二地方銀行協会",
    "office_name_kana": "シヤダンホウジン ダイニチホウギンコウキヨウカイ"
  },
  "8357": {
    "postcode": "1028357",
    "prefecture": "東京都",
    "prefecture_kana": "トウキョウト",
    "prefecture_code": 13,
    "city": "千代田区",
    "city_kana": "チヨダク",
    "town": "三番町",
    "town_kana": "サンバンチョウ",
    "street": "１２番地",
    "office_name": "学校法人　大妻学院　大妻女子大学　大妻女子大学短期大学部　大妻中学校　大妻高等学校",
    "office_name_kana": "ガツコウホウジン オオツマガクイン オオツマジヨシダイガク オオツマジヨシダイガクタンキダイガクブ オオツマチユウガツコウ オオツマコウトウガツコウ"
  },
  "8362": {
    "postcode": "1028362",
    "prefecture": "東京都",
    "prefecture_kana": "トウキョウト",
    "prefecture_code": 13,
    "city": "千代田区",
    "city_kana": "チヨダク",
    "town": "四番町",
    "town_kana": "ヨンバンチョウ",
    "street": "４−２",
    "office_name": "東工コーセン　株式会社",
    "office_name_kana": "トウコウコ-セン カブシキガイシヤ"
  },
  "8364": {
    "postcode": "1028364",
    "prefecture": "東京都",
    "prefecture_kana": "トウキョウト",
    "prefecture_code": 13,
    "city": "千代田区",
    "city_kana": "チヨダク",
    "town": "九段南",
    "town_kana": "クダンミナミ",
    "street": "１丁目２−１",
    "office_name": "九段ＰＦＩサービス　（株）",
    "office_name_kana": "クダンピ-エフアイサ-ビス カブシキガイシヤ"
  },
  "8370": {
    "postcode": "1028370",
    "prefecture": "東京都",
    "prefecture_kana": "トウキョウト",
    "prefecture_code": 13,
    "city": "千代田区",
    "city_kana": "チヨダク",
    "town": "四番町",
    "town_kana": "ヨンバンチョウ",
    "street": "６−１１",
    "office_name": "株式会社　伊勢半",
    "office_name_kana": "カブシキカイシヤ イセハン"
  },
  "8371": {
    "postcode": "1028371",
    "prefecture": "東京都",
    "prefecture_kana": "トウキョウト",
    "prefecture_code": 13,
    "city": "千代田区",
    "city_kana": "チヨダク",
    "town": "麹町",
    "town_kana": "コウジマチ",
    "street": "５丁目７−２ＭＦＰＲ麹町ビル",
    "office_name": "株式会社　三省堂",
    "office_name_kana": "カブシキガイシヤ サンセイドウ"
  },
  "8372": {
    "postcode": "1028372",
    "prefecture": "東京都",
    "prefecture_kana": "トウキョウト",
    "prefecture_code": 13,
    "city": "千代田区",
    "city_kana": "チヨダク",
    "town": "五番町",
    "town_kana": "ゴバンチョウ",
    "street": "１−１",
    "office_name": "株式会社　明光商会",
    "office_name_kana": "カブシキガイシヤ メイコウシヨウカイ"
  },
  "8373": {
    "postcode": "1028373",
    "prefecture": "東京都",
    "prefecture_kana": "トウキョウト",
    "prefecture_code": 13,
    "city": "千代田区",
    "city_kana": "チヨダク",
    "town": "一番町",
    "town_kana": "イチバンチョウ",
    "street": "１２",
    "office_name": "冨士機材　（株）",
    "office_name_kana": "フジキザイ (カブ)"
  },
  "8377": {
    "postcode": "1028377",
    "prefecture": "東京都",
    "prefecture_kana": "トウキョウト",
    "prefecture_code": 13,
    "city": "千代田区",
    "city_kana": "チヨダク",
    "town": "五番町",
    "town_kana": "ゴバンチョウ",
    "street": "５",
    "office_name": "実教出版　株式会社",
    "office_name_kana": "ジツキヨウシユツパン カブシキガイシヤ"
  },
  "8381": {
    "postcode": "1028381",
    "prefecture": "東京都",
    "prefecture_kana": "トウキョウト",
    "prefecture_code": 13,
    "city": "千代田区",
    "city_kana": "チヨダク",
    "town": "一番町",
    "town_kana": "イチバンチョウ",
    "street": "１",
    "office_name": "英国大使館",
    "office_name_kana": "イギリスタイシカン"
  },
  "8382": {
    "postcode": "1028382",
    "prefecture": "東京都",
    "prefecture_kana": "トウキョウト",
    "prefecture_code": 13,
    "city": "千代田区",
    "city_kana": "チヨダク",
    "town": "一番町",
    "town_kana": "イチバンチョウ",
    "street": "６−６",
    "office_name": "東京硝子　株式会社",
    "office_name_kana": "トウキヨウガラス カブシキガイシヤ"
  },
  "8383": {
    "postcode": "1028383",
    "prefecture": "東京都",
    "prefecture_kana": "トウキョウト",
    "prefecture_code": 13,
    "city": "千代田区",
    "city_kana": "チヨダク",
    "town": "一番町",
    "town_kana": "イチバンチョウ",
    "street": "２３−３",
    "office_name": "コープケミカル　株式会社",
    "office_name_kana": "コ-プケミカル カブシキガイシヤ"
  },
  "8388": {
    "postcode": "1028388",
    "prefecture": "東京都",
    "prefecture_kana": "トウキョウト",
    "prefecture_code": 13,
    "city": "千代田区",
    "city_kana": "チヨダク",
    "town": "一番町",
    "town_kana": "イチバンチョウ",
    "street": "２５",
    "office_name": "株式会社　宝島社",
    "office_name_kana": "カブシキガイシヤ タカラジマシヤ"
  },
  "8401": {
    "postcode": "1028401",
    "prefecture": "東京都",
    "prefecture_kana": "トウキョウト",
    "prefecture_code": 13,
    "city": "千代田区",
    "city_kana": "チヨダク",
    "town": "紀尾井町",
    "town_kana": "キオイチョウ",
    "street": "３−２３文芸春秋ビル新館",
    "office_name": "株式会社　リビングプロシード",
    "office_name_kana": "カブシキガイシヤ リビングプロシ-ド"
  },
  "8402": {
    "postcode": "1028402",
    "prefecture": "東京都",
    "prefecture_kana": "トウキョウト",
    "prefecture_code": 13,
    "city": "千代田区",
    "city_kana": "チヨダク",
    "town": "一番町",
    "town_kana": "イチバンチョウ",
    "street": "１６共同ビル",
    "office_name": "フェデラルエクスプレスジャパン　株式会社",
    "office_name_kana": "フエデラルエクスプレスジヤパン カブシキガイシヤ"
  },
  "8404": {
    "postcode": "1028404",
    "prefecture": "東京都",
    "prefecture_kana": "トウキョウト",
    "prefecture_code": 13,
    "city": "千代田区",
    "city_kana": "チヨダク",
    "town": "九段北",
    "town_kana": "クダンキタ",
    "street": "１丁目１３番５号",
    "office_name": "三菱電機エンジニアリング　株式会社",
    "office_name_kana": "ミツビシデンキエンジニアリング カブシキガイシヤ"
  },
  "8405": {
    "postcode": "1028405",
    "prefecture": "東京都",
    "prefecture_kana": "トウキョウト",
    "prefecture_code": 13,
    "city": "千代田区",
    "city_kana": "チヨダク",
    "town": "一番町",
    "town_kana": "イチバンチョウ",
    "street": "２９−６",
    "office_name": "株式会社　ぶんか社",
    "office_name_kana": "カブシキカイシヤ ブンカシヤ"
  },
  "8406": {
    "postcode": "1028406",
    "prefecture": "東京都",
    "prefecture_kana": "トウキョウト",
    "prefecture_code": 13,
    "city": "千代田区",
    "city_kana": "チヨダク",
    "town": "一番町",
    "town_kana": "イチバンチョウ",
    "street": "２９−６",
    "office_name": "株式会社　ぶんか社　営業局",
    "office_name_kana": "カブシキガイシヤ ブンカシヤ エイギヨウキヨク"
  },
  "8407": {
    "postcode": "1028407",
    "prefecture": "東京都",
    "prefecture_kana": "トウキョウト",
    "prefecture_code": 13,
    "city": "千代田区",
    "city_kana": "チヨダク",
    "town": "一番町",
    "town_kana": "イチバンチョウ",
    "street": "２９−６",
    "office_name": "株式会社　ぶんか社　編集局",
    "office_name_kana": "カブシキカイシヤ ブンカシヤ ヘンシユウキヨク"
  },
  "8410": {
    "postcode": "1028410",
    "prefecture": "東京都",
    "prefecture_kana": "トウキョウト",
    "prefecture_code": 13,
    "city": "千代田区",
    "city_kana": "チヨダク",
    "town": "一番町",
    "town_kana": "イチバンチョウ",
    "street": "２２−１一番町セントラルビル",
    "office_name": "三進興産　株式会社",
    "office_name_kana": "サンシンコウサン カブシキガイシヤ"
  },
  "8411": {
    "postcode": "1028411",
    "prefecture": "東京都",
    "prefecture_kana": "トウキョウト",
    "prefecture_code": 13,
    "city": "千代田区",
    "city_kana": "チヨダク",
    "town": "一番町",
    "town_kana": "イチバンチョウ",
    "street": "１９番地",
    "office_name": "公益社団法人　全国農業共済協会",
    "office_name_kana": "コウエキシヤダンホウジン ゼンコクノウギヨウキヨウサイキヨウカイ"
  },
  "8414": {
    "postcode": "1028414",
    "prefecture": "東京都",
    "prefecture_kana": "トウキョウト",
    "prefecture_code": 13,
    "city": "千代田区",
    "city_kana": "チヨダク",
    "town": "三番町",
    "town_kana": "サンバンチョウ",
    "street": "９−１５ホスピタルプラザビル",
    "office_name": "一般社団法人　日本病院会",
    "office_name_kana": "イツパンシヤダンホウジン ニホンビヨウインカイ"
  },
  "8417": {
    "postcode": "1028417",
    "prefecture": "東京都",
    "prefecture_kana": "トウキョウト",
    "prefecture_code": 13,
    "city": "千代田区",
    "city_kana": "チヨダク",
    "town": "二番町",
    "town_kana": "ニバンチョウ",
    "street": "８−８",
    "office_name": "株式会社　ヨーク",
    "office_name_kana": "カブシキガイシヤ ヨ-ク"
  },
  "8419": {
    "postcode": "1028419",
    "prefecture": "東京都",
    "prefecture_kana": "トウキョウト",
    "prefecture_code": 13,
    "city": "千代田区",
    "city_kana": "チヨダク",
    "town": "一番町",
    "town_kana": "イチバンチョウ",
    "street": "２５番地",
    "office_name": "地方公共団体情報システム機構",
    "office_name_kana": "チホウコウキヨウダンタイジヨウホウシステムキコウ"
  },
  "8420": {
    "postcode": "1028420",
    "prefecture": "東京都",
    "prefecture_kana": "トウキョウト",
    "prefecture_code": 13,
    "city": "千代田区",
    "city_kana": "チヨダク",
    "town": "麹町",
    "town_kana": "コウジマチ",
    "street": "１丁目７番２号相互半蔵門ビル４階",
    "office_name": "オーロラ　株式会社",
    "office_name_kana": "オ-ロラ カブシキガイシヤ"
  },
  "8421": {
    "postcode": "1028421",
    "prefecture": "東京都",
    "prefecture_kana": "トウキョウト",
    "prefecture_code": 13,
    "city": "千代田区",
    "city_kana": "チヨダク",
    "town": "二番町",
    "town_kana": "ニバンチョウ",
    "street": "４−２",
    "office_name": "電設工業　健康保険組合",
    "office_name_kana": "デンセツコウギヨウ ケンコウホケンクミアイ"
  },
  "8424": {
    "postcode": "1028424",
    "prefecture": "東京都",
    "prefecture_kana": "トウキョウト",
    "prefecture_code": 13,
    "city": "千代田区",
    "city_kana": "チヨダク",
    "town": "飯田橋",
    "town_kana": "イイダバシ",
    "street": "２丁目１−１１",
    "office_name": "大日本商事　（株）",
    "office_name_kana": "ダイニツポンシヨウジ (カブ)"
  },
  "8426": {
    "postcode": "1028426",
    "prefecture": "東京都",
    "prefecture_kana": "トウキョウト",
    "prefecture_code": 13,
    "city": "千代田区",
    "city_kana": "チヨダク",
    "town": "二番町",
    "town_kana": "ニバンチョウ",
    "street": "８−８",
    "office_name": "株式会社　セブン・ミールサービス",
    "office_name_kana": "カブシキガイシヤ セブン・ミ-ルサ-ビス"
  },
  "8430": {
    "postcode": "1028430",
    "prefecture": "東京都",
    "prefecture_kana": "トウキョウト",
    "prefecture_code": 13,
    "city": "千代田区",
    "city_kana": "チヨダク",
    "town": "二番町",
    "town_kana": "ニバンチョウ",
    "street": "５−１",
    "office_name": "第一火災海上保険　相互会社",
    "office_name_kana": "ダイイチカサイカイジヨウホケン ソウゴガイシヤ"
  },
  "8433": {
    "postcode": "1028433",
    "prefecture": "東京都",
    "prefecture_kana": "トウキョウト",
    "prefecture_code": 13,
    "city": "千代田区",
    "city_kana": "チヨダク",
    "town": "二番町",
    "town_kana": "ニバンチョウ",
    "street": "１１−５",
    "office_name": "株式会社　細川洋行",
    "office_name_kana": "カブシキガイシヤ ホソカワヨウコウ"
  },
  "8437": {
    "postcode": "1028437",
    "prefecture": "東京都",
    "prefecture_kana": "トウキョウト",
    "prefecture_code": 13,
    "city": "千代田区",
    "city_kana": "チヨダク",
    "town": "二番町",
    "town_kana": "ニバンチョウ",
    "street": "４−５",
    "office_name": "株式会社　セブン・カードサービス",
    "office_name_kana": "カブシキガイシヤ セブン・カ-ドサ-ビス"
  },
  "8440": {
    "postcode": "1028440",
    "prefecture": "東京都",
    "prefecture_kana": "トウキョウト",
    "prefecture_code": 13,
    "city": "千代田区",
    "city_kana": "チヨダク",
    "town": "二番町",
    "town_kana": "ニバンチョウ",
    "street": "３−１３",
    "office_name": "株式会社　サンテック",
    "office_name_kana": "カブシキガイシヤ サンテツク"
  },
  "8441": {
    "postcode": "1028441",
    "prefecture": "東京都",
    "prefecture_kana": "トウキョウト",
    "prefecture_code": 13,
    "city": "千代田区",
    "city_kana": "チヨダク",
    "town": "富士見",
    "town_kana": "フジミ",
    "street": "１丁目８−１９住友不動産千代田富士見ビル１１階・１２階",
    "office_name": "丸紅エネルギー　株式会社",
    "office_name_kana": "マルベニエネルギ- カブシキガイシヤ"
  },
  "8445": {
    "postcode": "1028445",
    "prefecture": "東京都",
    "prefecture_kana": "トウキョウト",
    "prefecture_code": 13,
    "city": "千代田区",
    "city_kana": "チヨダク",
    "town": "富士見",
    "town_kana": "フジミ",
    "street": "２丁目１７−１",
    "office_name": "法政大学　通信教育部",
    "office_name_kana": "ホウセイダイガク ツウシンキヨウイクブ"
  },
  "8448": {
    "postcode": "1028448",
    "prefecture": "東京都",
    "prefecture_kana": "トウキョウト",
    "prefecture_code": 13,
    "city": "千代田区",
    "city_kana": "チヨダク",
    "town": "一番町",
    "town_kana": "イチバンチョウ",
    "street": "２５番地全国町村議員会館６階",
    "office_name": "地方職員共済組合団体共済部",
    "office_name_kana": "チホウシヨクインキヨウサイクミアイダンタイキヨウサイブ"
  },
  "8450": {
    "postcode": "1028450",
    "prefecture": "東京都",
    "prefecture_kana": "トウキョウト",
    "prefecture_code": 13,
    "city": "千代田区",
    "city_kana": "チヨダク",
    "town": "二番町",
    "town_kana": "ニバンチョウ",
    "street": "８−８",
    "office_name": "（株）　イトーヨーカ堂",
    "office_name_kana": "(カブ) イト-ヨ-カド-"
  },
  "8451": {
    "postcode": "1028451",
    "prefecture": "東京都",
    "prefecture_kana": "トウキョウト",
    "prefecture_code": 13,
    "city": "千代田区",
    "city_kana": "チヨダク",
    "town": "四番町",
    "town_kana": "ヨンバンチョウ",
    "street": "５",
    "office_name": "東亜建設工業　株式会社",
    "office_name_kana": "トウアケンセツコウギヨウ カブシキガイシヤ"
  },
  "8452": {
    "postcode": "1028452",
    "prefecture": "東京都",
    "prefecture_kana": "トウキョウト",
    "prefecture_code": 13,
    "city": "千代田区",
    "city_kana": "チヨダク",
    "town": "二番町",
    "town_kana": "ニバンチョウ",
    "street": "８−８",
    "office_name": "株式会社　セブン＆アイ・ホールディングス",
    "office_name_kana": "カブシキガイシヤ セブンアンドアイ・ホ-ルデイングス"
  },
  "8455": {
    "postcode": "1028455",
    "prefecture": "東京都",
    "prefecture_kana": "トウキョウト",
    "prefecture_code": 13,
    "city": "千代田区",
    "city_kana": "チヨダク",
    "town": "二番町",
    "town_kana": "ニバンチョウ",
    "street": "８−８",
    "office_name": "株式会社　セブン—イレブン・ジャパン",
    "office_name_kana": "カブシキガイシヤ セブン-イレブン・ジヤパン"
  },
  "8459": {
    "postcode": "1028459",
    "prefecture": "東京都",
    "prefecture_kana": "トウキョウト",
    "prefecture_code": 13,
    "city": "千代田区",
    "city_kana": "チヨダク",
    "town": "四番町",
    "town_kana": "ヨンバンチョウ",
    "street": "７",
    "office_name": "興研　株式会社",
    "office_name_kana": "コウケン カブシキガイシヤ"
  },
  "8460": {
    "postcode": "1028460",
    "prefecture": "東京都",
    "prefecture_kana": "トウキョウト",
    "prefecture_code": 13,
    "city": "千代田区",
    "city_kana": "チヨダク",
    "town": "飯田橋",
    "town_kana": "イイダバシ",
    "street": "３丁目１０−１０",
    "office_name": "ＫＤＤＩ　株式会社",
    "office_name_kana": "ケイデイデイアイ カブシキガイシヤ"
  },
  "8461": {
    "postcode": "1028461",
    "prefecture": "東京都",
    "prefecture_kana": "トウキョウト",
    "prefecture_code": 13,
    "city": "千代田区",
    "city_kana": "チヨダク",
    "town": "飯田橋",
    "town_kana": "イイダバシ",
    "street": "３丁目１０−１０",
    "office_name": "ＫＤＤＩ　株式会社",
    "office_name_kana": "ケイデイ-デイ-アイ カブシキガイシヤ"
  },
  "8462": {
    "postcode": "1028462",
    "prefecture": "東京都",
    "prefecture_kana": "トウキョウト",
    "prefecture_code": 13,
    "city": "千代田区",
    "city_kana": "チヨダク",
    "town": "飯田橋",
    "town_kana": "イイダバシ",
    "street": "３丁目１０−１０",
    "office_name": "ＫＤＤＩ　株式会社",
    "office_name_kana": "ケイデイデイアイ カブシキガイシヤ"
  },
  "8464": {
    "postcode": "1028464",
    "prefecture": "東京都",
    "prefecture_kana": "トウキョウト",
    "prefecture_code": 13,
    "city": "千代田区",
    "city_kana": "チヨダク",
    "town": "六番町",
    "town_kana": "ロクバンチョウ",
    "street": "１",
    "office_name": "全日本自治団体　労働組合",
    "office_name_kana": "ゼンニホンジチダンタイ ロウドウクミアイ"
  },
  "8465": {
    "postcode": "1028465",
    "prefecture": "東京都",
    "prefecture_kana": "トウキョウト",
    "prefecture_code": 13,
    "city": "千代田区",
    "city_kana": "チヨダク",
    "town": "六番町",
    "town_kana": "ロクバンチョウ",
    "street": "６−２８",
    "office_name": "住友大阪セメント　株式会社",
    "office_name_kana": "スミトモオオサカセメント カブシキガイシヤ"
  },
  "8466": {
    "postcode": "1028466",
    "prefecture": "東京都",
    "prefecture_kana": "トウキョウト",
    "prefecture_code": 13,
    "city": "千代田区",
    "city_kana": "チヨダク",
    "town": "二番町",
    "town_kana": "ニバンチョウ",
    "street": "８−８",
    "office_name": "株式会社　セブンドリーム・ドットコム",
    "office_name_kana": "カブシキガイシヤ セブンドリ-ム・ドツトコム"
  },
  "8468": {
    "postcode": "1028468",
    "prefecture": "東京都",
    "prefecture_kana": "トウキョウト",
    "prefecture_code": 13,
    "city": "千代田区",
    "city_kana": "チヨダク",
    "town": "六番町",
    "town_kana": "ロクバンチョウ",
    "street": "４番地",
    "office_name": "バクスター　株式会社",
    "office_name_kana": "バクスタ- カブシキカイシヤ"
  },
  "8470": {
    "postcode": "1028470",
    "prefecture": "東京都",
    "prefecture_kana": "トウキョウト",
    "prefecture_code": 13,
    "city": "千代田区",
    "city_kana": "チヨダク",
    "town": "六番町",
    "town_kana": "ロクバンチョウ",
    "street": "１４−１",
    "office_name": "学校法人　雙葉学園",
    "office_name_kana": "ガツコウホウジン フタバガクエン"
  },
  "8474": {
    "postcode": "1028474",
    "prefecture": "東京都",
    "prefecture_kana": "トウキョウト",
    "prefecture_code": 13,
    "city": "千代田区",
    "city_kana": "チヨダク",
    "town": "麹町",
    "town_kana": "コウジマチ",
    "street": "１丁目３",
    "office_name": "財団法人　河川情報センター",
    "office_name_kana": "ザイダンホウジン カセンジヨウホウセンタ-"
  },
  "8477": {
    "postcode": "1028477",
    "prefecture": "東京都",
    "prefecture_kana": "トウキョウト",
    "prefecture_code": 13,
    "city": "千代田区",
    "city_kana": "チヨダク",
    "town": "麹町",
    "town_kana": "コウジマチ",
    "street": "１丁目７",
    "office_name": "プルデンシャル生命保険　株式会社",
    "office_name_kana": "プルデンシヤルセイメイホケン カブシキガイシヤ"
  },
  "8484": {
    "postcode": "1028484",
    "prefecture": "東京都",
    "prefecture_kana": "トウキョウト",
    "prefecture_code": 13,
    "city": "千代田区",
    "city_kana": "チヨダク",
    "town": "麹町",
    "town_kana": "コウジマチ",
    "street": "１丁目１０麹町広洋ビル",
    "office_name": "トラベラー　株式会社",
    "office_name_kana": "トラベラ- カブシキガイシヤ"
  },
  "8488": {
    "postcode": "1028488",
    "prefecture": "東京都",
    "prefecture_kana": "トウキョウト",
    "prefecture_code": 13,
    "city": "千代田区",
    "city_kana": "チヨダク",
    "town": "九段北",
    "town_kana": "クダンキタ",
    "street": "１丁目１１−５森会館",
    "office_name": "株式会社　スポーツマーケティングプロパティーズ",
    "office_name_kana": "カブシキガイシヤ スポ-ツマ-ケテイングプロパテイ-ズ"
  },
  "8489": {
    "postcode": "1028489",
    "prefecture": "東京都",
    "prefecture_kana": "トウキョウト",
    "prefecture_code": 13,
    "city": "千代田区",
    "city_kana": "チヨダク",
    "town": "麹町",
    "town_kana": "コウジマチ",
    "street": "２−４−１麹町大通りビル８階",
    "office_name": "日東紡績　株式会社",
    "office_name_kana": "ニツトウボウセキ カブシキガイシヤ"
  },
  "8502": {
    "postcode": "1028502",
    "prefecture": "東京都",
    "prefecture_kana": "トウキョウト",
    "prefecture_code": 13,
    "city": "千代田区",
    "city_kana": "チヨダク",
    "town": "九段北",
    "town_kana": "クダンキタ",
    "street": "４−１−２０",
    "office_name": "一般財団法人　歯科医療振興財団",
    "office_name_kana": "イツパンザイダンホウジン シカイリヨウシンコウザイダン"
  },
  "8503": {
    "postcode": "1028503",
    "prefecture": "東京都",
    "prefecture_kana": "トウキョウト",
    "prefecture_code": 13,
    "city": "千代田区",
    "city_kana": "チヨダク",
    "town": "麹町",
    "town_kana": "コウジマチ",
    "street": "５丁目２−１",
    "office_name": "株式会社　オリエントコーポレーション",
    "office_name_kana": "カブシキガイシヤ オリエントコ-ポレ-シヨン"
  },
  "8504": {
    "postcode": "1028504",
    "prefecture": "東京都",
    "prefecture_kana": "トウキョウト",
    "prefecture_code": 13,
    "city": "千代田区",
    "city_kana": "チヨダク",
    "town": "麹町",
    "town_kana": "コウジマチ",
    "street": "５丁目２−１",
    "office_name": "株式会社　オリエントコーポレーション　首都圏管理センター",
    "office_name_kana": "カブシキガイシヤ オリエントコ-ポレ-シヨン シユトケンカンリセンタ-"
  },
  "8506": {
    "postcode": "1028506",
    "prefecture": "東京都",
    "prefecture_kana": "トウキョウト",
    "prefecture_code": 13,
    "city": "千代田区",
    "city_kana": "チヨダク",
    "town": "麹町",
    "town_kana": "コウジマチ",
    "street": "１丁目１−１",
    "office_name": "株式会社　ワコール　東京支社",
    "office_name_kana": "カブシキカイシヤ ワコ-ル トウキヨウシシヤ"
  },
  "8508": {
    "postcode": "1028508",
    "prefecture": "東京都",
    "prefecture_kana": "トウキョウト",
    "prefecture_code": 13,
    "city": "千代田区",
    "city_kana": "チヨダク",
    "town": "飯田橋",
    "town_kana": "イイダバシ",
    "street": "３丁目６番５号",
    "office_name": "医療法人社団　こころとからだの元氣プラザ",
    "office_name_kana": "イリヨウホウジンシヤダン ココロトカラダノゲンキプラザ"
  },
  "8510": {
    "postcode": "1028510",
    "prefecture": "東京都",
    "prefecture_kana": "トウキョウト",
    "prefecture_code": 13,
    "city": "千代田区",
    "city_kana": "チヨダク",
    "town": "一番町",
    "town_kana": "イチバンチョウ",
    "street": "２１番地",
    "office_name": "ジブラルタ生命保険　株式会社",
    "office_name_kana": "ジブラルタセイメイホケン カブシキガイシヤ"
  },
  "8511": {
    "postcode": "1028511",
    "prefecture": "東京都",
    "prefecture_kana": "トウキョウト",
    "prefecture_code": 13,
    "city": "千代田区",
    "city_kana": "チヨダク",
    "town": "麹町",
    "town_kana": "コウジマチ",
    "street": "４丁目５",
    "office_name": "株式会社　アダック",
    "office_name_kana": "カブシキガイシヤ アダツク"
  },
  "8512": {
    "postcode": "1028512",
    "prefecture": "東京都",
    "prefecture_kana": "トウキョウト",
    "prefecture_code": 13,
    "city": "千代田区",
    "city_kana": "チヨダク",
    "town": "九段南",
    "town_kana": "クダンミナミ",
    "street": "４−６−１３−７０４",
    "office_name": "株式会社　日本エディターズ",
    "office_name_kana": "カブシキガイシヤ ニホンエデイタ-ズ"
  },
  "8513": {
    "postcode": "1028513",
    "prefecture": "東京都",
    "prefecture_kana": "トウキョウト",
    "prefecture_code": 13,
    "city": "千代田区",
    "city_kana": "チヨダク",
    "town": "九段南",
    "town_kana": "クダンミナミ",
    "street": "一丁目６番５号",
    "office_name": "株式会社　ＤＴダイナミクス",
    "office_name_kana": "カブシキガイシヤ デイ-テイ-ダイナミクス"
  },
  "8515": {
    "postcode": "1028515",
    "prefecture": "東京都",
    "prefecture_kana": "トウキョウト",
    "prefecture_code": 13,
    "city": "千代田区",
    "city_kana": "チヨダク",
    "town": "紀尾井町",
    "town_kana": "キオイチョウ",
    "street": "３−２３文芸春秋ビル新館",
    "office_name": "株式会社　サンケイリビング新聞社",
    "office_name_kana": "カブシキガイシヤ サンケイリビングシンブンシヤ"
  },
  "8516": {
    "postcode": "1028516",
    "prefecture": "東京都",
    "prefecture_kana": "トウキョウト",
    "prefecture_code": 13,
    "city": "千代田区",
    "city_kana": "チヨダク",
    "town": "麹町",
    "town_kana": "コウジマチ",
    "street": "１丁目４",
    "office_name": "松井証券　株式会社",
    "office_name_kana": "マツイシヨウケン カブシキガイシヤ"
  },
  "8519": {
    "postcode": "1028519",
    "prefecture": "東京都",
    "prefecture_kana": "トウキョウト",
    "prefecture_code": 13,
    "city": "千代田区",
    "city_kana": "チヨダク",
    "town": "麹町",
    "town_kana": "コウジマチ",
    "street": "４丁目２番地６住友不動産麹町ファーストビル",
    "office_name": "株式会社　ポプラ社",
    "office_name_kana": "カブシキガイシヤ ポプラシヤ"
  },
  "8520": {
    "postcode": "1028520",
    "prefecture": "東京都",
    "prefecture_kana": "トウキョウト",
    "prefecture_code": 13,
    "city": "千代田区",
    "city_kana": "チヨダク",
    "town": "麹町",
    "town_kana": "コウジマチ",
    "street": "１丁目１０−１",
    "office_name": "株式会社　ミカミ",
    "office_name_kana": "カブシキガイシヤ ミカミ"
  },
  "8522": {
    "postcode": "1028522",
    "prefecture": "東京都",
    "prefecture_kana": "トウキョウト",
    "prefecture_code": 13,
    "city": "千代田区",
    "city_kana": "チヨダク",
    "town": "三番町",
    "town_kana": "サンバンチョウ",
    "street": "３−８泉館三番町",
    "office_name": "株式会社　協同宣伝",
    "office_name_kana": "カブシキガイシヤ キヨウドウセンデン"
  },
  "8525": {
    "postcode": "1028525",
    "prefecture": "東京都",
    "prefecture_kana": "トウキョウト",
    "prefecture_code": 13,
    "city": "千代田区",
    "city_kana": "チヨダク",
    "town": "紀尾井町",
    "town_kana": "キオイチョウ",
    "street": "１−３東京ガーデンテラス紀尾井町紀尾井タワー",
    "office_name": "メットライフ生命保険　株式会社",
    "office_name_kana": "メツトライフセイメイホケン カブシキガイシヤ"
  },
  "8528": {
    "postcode": "1028528",
    "prefecture": "東京都",
    "prefecture_kana": "トウキョウト",
    "prefecture_code": 13,
    "city": "千代田区",
    "city_kana": "チヨダク",
    "town": "麹町",
    "town_kana": "コウジマチ",
    "street": "３−２",
    "office_name": "株式会社　生産日本社",
    "office_name_kana": "カブシキガイシヤ セイサンニホンシヤ"
  },
  "8529": {
    "postcode": "1028529",
    "prefecture": "東京都",
    "prefecture_kana": "トウキョウト",
    "prefecture_code": 13,
    "city": "千代田区",
    "city_kana": "チヨダク",
    "town": "麹町",
    "town_kana": "コウジマチ",
    "street": "５丁目１−６",
    "office_name": "真柄建設　株式会社　東京支店",
    "office_name_kana": "マガラケンセツ カブシキガイシヤ トウキヨウシテン"
  },
  "8530": {
    "postcode": "1028530",
    "prefecture": "東京都",
    "prefecture_kana": "トウキョウト",
    "prefecture_code": 13,
    "city": "千代田区",
    "city_kana": "チヨダク",
    "town": "麹町",
    "town_kana": "コウジマチ",
    "street": "５丁目７−２（第３１森ビル６階）",
    "office_name": "サントリー　株式会社",
    "office_name_kana": "サントリ- カブシキガイシヤ"
  },
  "8531": {
    "postcode": "1028531",
    "prefecture": "東京都",
    "prefecture_kana": "トウキョウト",
    "prefecture_code": 13,
    "city": "千代田区",
    "city_kana": "チヨダク",
    "town": "麹町",
    "town_kana": "コウジマチ",
    "street": "１丁目６−９",
    "office_name": "クレジット債権管理組合",
    "office_name_kana": "クレジツトサイケンカンリクミアイ"
  },
  "8532": {
    "postcode": "1028532",
    "prefecture": "東京都",
    "prefecture_kana": "トウキョウト",
    "prefecture_code": 13,
    "city": "千代田区",
    "city_kana": "チヨダク",
    "town": "平河町",
    "town_kana": "ヒラカワチョウ",
    "street": "一丁目五番九号厚生会館",
    "office_name": "全国土木建築　国民健康保険組合　関東事務所",
    "office_name_kana": "ゼンコクドボクケンチク コクミンケンコウホケンクミアイ カントウジムシヨ"
  },
  "8533": {
    "postcode": "1028533",
    "prefecture": "東京都",
    "prefecture_kana": "トウキョウト",
    "prefecture_code": 13,
    "city": "千代田区",
    "city_kana": "チヨダク",
    "town": "麹町",
    "town_kana": "コウジマチ",
    "street": "４丁目４−１ＴＫ麹町ビル８Ｆ",
    "office_name": "株式会社　エスコム",
    "office_name_kana": "カブシキガイシヤ エスコム"
  },
  "8539": {
    "postcode": "1028539",
    "prefecture": "東京都",
    "prefecture_kana": "トウキョウト",
    "prefecture_code": 13,
    "city": "千代田区",
    "city_kana": "チヨダク",
    "town": "麹町",
    "town_kana": "コウジマチ",
    "street": "５−４",
    "office_name": "日本工営　株式会社",
    "office_name_kana": "ニホンコウエイ カブシキガイシヤ"
  },
  "8540": {
    "postcode": "1028540",
    "prefecture": "東京都",
    "prefecture_kana": "トウキョウト",
    "prefecture_code": 13,
    "city": "千代田区",
    "city_kana": "チヨダク",
    "town": "麹町",
    "town_kana": "コウジマチ",
    "street": "４丁目１−４西脇ビル",
    "office_name": "株式会社　かんき出版",
    "office_name_kana": "カブシキガイシヤ カンキシユツパン"
  },
  "8541": {
    "postcode": "1028541",
    "prefecture": "東京都",
    "prefecture_kana": "トウキョウト",
    "prefecture_code": 13,
    "city": "千代田区",
    "city_kana": "チヨダク",
    "town": "紀尾井町",
    "town_kana": "キオイチョウ",
    "street": "３−２７",
    "office_name": "海洋水産資源開発センター",
    "office_name_kana": "カイヨウスイサンシゲンカイハツセンタ-"
  },
  "8543": {
    "postcode": "1028543",
    "prefecture": "東京都",
    "prefecture_kana": "トウキョウト",
    "prefecture_code": 13,
    "city": "千代田区",
    "city_kana": "チヨダク",
    "town": "紀尾井町",
    "town_kana": "キオイチョウ",
    "street": "３−１２",
    "office_name": "扶桑レクセル　株式会社",
    "office_name_kana": "フソウレクセル カブシキガイシヤ"
  },
  "8552": {
    "postcode": "1028552",
    "prefecture": "東京都",
    "prefecture_kana": "トウキョウト",
    "prefecture_code": 13,
    "city": "千代田区",
    "city_kana": "チヨダク",
    "town": "富士見",
    "town_kana": "フジミ",
    "street": "２丁目１３−１２",
    "office_name": "株式会社　ＫＡＤＯＫＡＷＡ",
    "office_name_kana": "カブシキカイシヤ カドカワ"
  },
  "8553": {
    "postcode": "1028553",
    "prefecture": "東京都",
    "prefecture_kana": "トウキョウト",
    "prefecture_code": 13,
    "city": "千代田区",
    "city_kana": "チヨダク",
    "town": "紀尾井町",
    "town_kana": "キオイチョウ",
    "street": "３−２３",
    "office_name": "伊藤園　新俳句大賞事務局",
    "office_name_kana": "イトウエン シンハイクタイシヨウジムキヨク"
  },
  "8554": {
    "postcode": "1028554",
    "prefecture": "東京都",
    "prefecture_kana": "トウキョウト",
    "prefecture_code": 13,
    "city": "千代田区",
    "city_kana": "チヨダク",
    "town": "紀尾井町",
    "town_kana": "キオイチョウ",
    "street": "７−１",
    "office_name": "上智大学　（上智学院）",
    "office_name_kana": "ジヨウチダイガク (ジヨウチガクイン)"
  },
  "8555": {
    "postcode": "1028555",
    "prefecture": "東京都",
    "prefecture_kana": "トウキョウト",
    "prefecture_code": 13,
    "city": "千代田区",
    "city_kana": "チヨダク",
    "town": "紀尾井町",
    "town_kana": "キオイチョウ",
    "street": "３−６秀和紀尾井町パークビル６Ｆ",
    "office_name": "財団法人　新エネルギー財団",
    "office_name_kana": "ザイダンホウジン シンエネルギ-ザイダン"
  },
  "8556": {
    "postcode": "1028556",
    "prefecture": "東京都",
    "prefecture_kana": "トウキョウト",
    "prefecture_code": 13,
    "city": "千代田区",
    "city_kana": "チヨダク",
    "town": "平河町",
    "town_kana": "ヒラカワチョウ",
    "street": "２丁目７番５号砂防会館本館７階",
    "office_name": "公益社団法人　全国自治体病院協議会",
    "office_name_kana": "コウエキシヤダンホウジン ゼンコクジチタイビヨウインキヨウギカイ"
  },
  "8557": {
    "postcode": "1028557",
    "prefecture": "東京都",
    "prefecture_kana": "トウキョウト",
    "prefecture_code": 13,
    "city": "千代田区",
    "city_kana": "チヨダク",
    "town": "紀尾井町",
    "town_kana": "キオイチョウ",
    "street": "３−２８",
    "office_name": "ＭＢＥ　紀尾井町店",
    "office_name_kana": "メムビ-イ- キオイチヨウテン"
  },
  "8558": {
    "postcode": "1028558",
    "prefecture": "東京都",
    "prefecture_kana": "トウキョウト",
    "prefecture_code": 13,
    "city": "千代田区",
    "city_kana": "チヨダク",
    "town": "紀尾井町",
    "town_kana": "キオイチョウ",
    "street": "３−１２",
    "office_name": "株式会社　スタッフ・サービス　千代田支社",
    "office_name_kana": "カブシキガイシヤ スタツフ.サ-ビス チヨダシシヤ"
  },
  "8559": {
    "postcode": "1028559",
    "prefecture": "東京都",
    "prefecture_kana": "トウキョウト",
    "prefecture_code": 13,
    "city": "千代田区",
    "city_kana": "チヨダク",
    "town": "紀尾井町",
    "town_kana": "キオイチョウ",
    "street": "３−２３文藝春秋ビル新館",
    "office_name": "公益社団法人　日本文藝家協会",
    "office_name_kana": "コウエキシヤダンホウジン ニホンブンゲイカキヨウカイ"
  },
  "8560": {
    "postcode": "1028560",
    "prefecture": "東京都",
    "prefecture_kana": "トウキョウト",
    "prefecture_code": 13,
    "city": "千代田区",
    "city_kana": "チヨダク",
    "town": "紀尾井町",
    "town_kana": "キオイチョウ",
    "street": "６−３",
    "office_name": "ハウス食品　株式会社",
    "office_name_kana": "ハウスシヨクヒン カブシキカイシヤ"
  },
  "8561": {
    "postcode": "1028561",
    "prefecture": "東京都",
    "prefecture_kana": "トウキョウト",
    "prefecture_code": 13,
    "city": "千代田区",
    "city_kana": "チヨダク",
    "town": "紀尾井町",
    "town_kana": "キオイチョウ",
    "street": "４番５号",
    "office_name": "一般社団法人　倫理研究所",
    "office_name_kana": "イツパンシヤダンホウジン リンリケンキユウジヨ"
  },
  "8563": {
    "postcode": "1028563",
    "prefecture": "東京都",
    "prefecture_kana": "トウキョウト",
    "prefecture_code": 13,
    "city": "千代田区",
    "city_kana": "チヨダク",
    "town": "紀尾井町",
    "town_kana": "キオイチョウ",
    "street": "４−１ニューオータニガーデンコート１４Ｆ",
    "office_name": "リコーリース　株式会社",
    "office_name_kana": "リコ-リ-ス カブシキガイシヤ"
  },
  "8564": {
    "postcode": "1028564",
    "prefecture": "東京都",
    "prefecture_kana": "トウキョウト",
    "prefecture_code": 13,
    "city": "千代田区",
    "city_kana": "チヨダク",
    "town": "平河町",
    "town_kana": "ヒラカワチョウ",
    "street": "１−５−９厚生会館",
    "office_name": "全国土木建築国民健康保険組合",
    "office_name_kana": "ゼンコクドボクケンチクコクミンケンコウホケンクミアイ"
  },
  "8565": {
    "postcode": "1028565",
    "prefecture": "東京都",
    "prefecture_kana": "トウキョウト",
    "prefecture_code": 13,
    "city": "千代田区",
    "city_kana": "チヨダク",
    "town": "紀尾井町",
    "town_kana": "キオイチョウ",
    "street": "４−１",
    "office_name": "株式会社　オータニコーポレーション",
    "office_name_kana": "カブシキガイシヤ オ-タニコ-ポレ-シヨン"
  },
  "8566": {
    "postcode": "1028566",
    "prefecture": "東京都",
    "prefecture_kana": "トウキョウト",
    "prefecture_code": 13,
    "city": "千代田区",
    "city_kana": "チヨダク",
    "town": "紀尾井町",
    "town_kana": "キオイチョウ",
    "street": "３番６号",
    "office_name": "岩田地崎建設　株式会社",
    "office_name_kana": "イワタチザキケンセツ カブシキガイシヤ"
  },
  "8567": {
    "postcode": "1028567",
    "prefecture": "東京都",
    "prefecture_kana": "トウキョウト",
    "prefecture_code": 13,
    "city": "千代田区",
    "city_kana": "チヨダク",
    "town": "紀尾井町",
    "town_kana": "キオイチョウ",
    "street": "４−７",
    "office_name": "財団法人　日本海事協会",
    "office_name_kana": "ザイダンホウジン ニツポンカイジキヨウカイ"
  },
  "8569": {
    "postcode": "1028569",
    "prefecture": "東京都",
    "prefecture_kana": "トウキョウト",
    "prefecture_code": 13,
    "city": "千代田区",
    "city_kana": "チヨダク",
    "town": "紀尾井町",
    "town_kana": "キオイチョウ",
    "street": "３−６",
    "office_name": "株式会社　ニッポン放送プロジェクト",
    "office_name_kana": "カブシキガイシヤ ニツポンホウソウプロジエクト"
  },
  "8570": {
    "postcode": "1028570",
    "prefecture": "東京都",
    "prefecture_kana": "トウキョウト",
    "prefecture_code": 13,
    "city": "千代田区",
    "city_kana": "チヨダク",
    "town": "紀尾井町",
    "town_kana": "キオイチョウ",
    "street": "３−３",
    "office_name": "ビーエーエスエフジャパン　株式会社",
    "office_name_kana": "ビ-エ-エスエフジヤパン カブシキガイシヤ"
  },
  "8571": {
    "postcode": "1028571",
    "prefecture": "東京都",
    "prefecture_kana": "トウキョウト",
    "prefecture_code": 13,
    "city": "千代田区",
    "city_kana": "チヨダク",
    "town": "紀尾井町",
    "town_kana": "キオイチョウ",
    "street": "７−１",
    "office_name": "ＳＪハウス",
    "office_name_kana": "エスジエイハウス"
  },
  "8573": {
    "postcode": "1028573",
    "prefecture": "東京都",
    "prefecture_kana": "トウキョウト",
    "prefecture_code": 13,
    "city": "千代田区",
    "city_kana": "チヨダク",
    "town": "飯田橋",
    "town_kana": "イイダバシ",
    "street": "２丁目１８−４",
    "office_name": "株式会社　大塚商会",
    "office_name_kana": "カブシキガイシヤ オオツカシヨウカイ"
  },
  "8577": {
    "postcode": "1028577",
    "prefecture": "東京都",
    "prefecture_kana": "トウキョウト",
    "prefecture_code": 13,
    "city": "千代田区",
    "city_kana": "チヨダク",
    "town": "紀尾井町",
    "town_kana": "キオイチョウ",
    "street": "３−２３",
    "office_name": "社団法人　日本民間放送連盟",
    "office_name_kana": "シヤダンホウジン ニホンミンカンホウソウレンメイ"
  },
  "8578": {
    "postcode": "1028578",
    "prefecture": "東京都",
    "prefecture_kana": "トウキョウト",
    "prefecture_code": 13,
    "city": "千代田区",
    "city_kana": "チヨダク",
    "town": "紀尾井町",
    "town_kana": "キオイチョウ",
    "street": "４番１号",
    "office_name": "株式会社　ニュー・オータニ",
    "office_name_kana": "カブシキガイシヤ ニユ-・オ-タニ"
  },
  "8580": {
    "postcode": "1028580",
    "prefecture": "東京都",
    "prefecture_kana": "トウキョウト",
    "prefecture_code": 13,
    "city": "千代田区",
    "city_kana": "チヨダク",
    "town": "紀尾井町",
    "town_kana": "キオイチョウ",
    "street": "６−１２紀尾井町福田家ビル",
    "office_name": "株式会社　インフィニトラベルインフォメーション",
    "office_name_kana": "カブシキカイシヤ インフイニトラベルインフオメ-シヨン"
  },
  "8582": {
    "postcode": "1028582",
    "prefecture": "東京都",
    "prefecture_kana": "トウキョウト",
    "prefecture_code": 13,
    "city": "千代田区",
    "city_kana": "チヨダク",
    "town": "九段南",
    "town_kana": "クダンミナミ",
    "street": "一丁目６番５号",
    "office_name": "株式会社　ミスミ",
    "office_name_kana": "カブシキガイシヤ ミスミ"
  },
  "8583": {
    "postcode": "1028583",
    "prefecture": "東京都",
    "prefecture_kana": "トウキョウト",
    "prefecture_code": 13,
    "city": "千代田区",
    "city_kana": "チヨダク",
    "town": "九段南",
    "town_kana": "クダンミナミ",
    "street": "一丁目６番５号",
    "office_name": "株式会社　ミスミグループ本社",
    "office_name_kana": "カブシキガイシヤ ミスミグル-プホンシヤ"
  },
  "8585": {
    "postcode": "1028585",
    "prefecture": "東京都",
    "prefecture_kana": "トウキョウト",
    "prefecture_code": 13,
    "city": "千代田区",
    "city_kana": "チヨダク",
    "town": "紀尾井町",
    "town_kana": "キオイチョウ",
    "street": "１−２",
    "office_name": "ザ・プリンスギャラリー　東京紀尾井町",
    "office_name_kana": "ザ・プリンスギヤラリ- トウキヨウキオイチヨウ"
  },
  "8586": {
    "postcode": "1028586",
    "prefecture": "東京都",
    "prefecture_kana": "トウキョウト",
    "prefecture_code": 13,
    "city": "千代田区",
    "city_kana": "チヨダク",
    "town": "紀尾井町",
    "town_kana": "キオイチョウ",
    "street": "４番１号",
    "office_name": "エイチアールティーニューオータニ　株式会社",
    "office_name_kana": "エイチア-ルテイ-ニユ-オ-タニ カブシキガイシヤ"
  },
  "8588": {
    "postcode": "1028588",
    "prefecture": "東京都",
    "prefecture_kana": "トウキョウト",
    "prefecture_code": 13,
    "city": "千代田区",
    "city_kana": "チヨダク",
    "town": "三番町",
    "town_kana": "サンバンチョウ",
    "street": "６−８警察共済ビル",
    "office_name": "警察共済組合　本部",
    "office_name_kana": "ケイサツキヨウサイクミアイ ホンブ"
  },
  "8601": {
    "postcode": "1028601",
    "prefecture": "東京都",
    "prefecture_kana": "トウキョウト",
    "prefecture_code": 13,
    "city": "千代田区",
    "city_kana": "チヨダク",
    "town": "平河町",
    "town_kana": "ヒラカワチョウ",
    "street": "２丁目４−９地共済センタービル",
    "office_name": "地方職員　共済組合",
    "office_name_kana": "チホウシヨクイン キヨウサイクミアイ"
  },
  "8602": {
    "postcode": "1028602",
    "prefecture": "東京都",
    "prefecture_kana": "トウキョウト",
    "prefecture_code": 13,
    "city": "千代田区",
    "city_kana": "チヨダク",
    "town": "麹町",
    "town_kana": "コウジマチ",
    "street": "３丁目７−４秩父屋ビル７階",
    "office_name": "株式会社　放送出版プロモーション",
    "office_name_kana": "カブシキガイシヤ ホウソウシユツパンプロモ-シヨン"
  },
  "8603": {
    "postcode": "1028603",
    "prefecture": "東京都",
    "prefecture_kana": "トウキョウト",
    "prefecture_code": 13,
    "city": "千代田区",
    "city_kana": "チヨダク",
    "town": "平河町",
    "town_kana": "ヒラカワチョウ",
    "street": "２丁目６−４",
    "office_name": "社団法人　日本船主協会",
    "office_name_kana": "シヤダンホウジン ニホンセンシユキヨウカイ"
  },
  "8604": {
    "postcode": "1028604",
    "prefecture": "東京都",
    "prefecture_kana": "トウキョウト",
    "prefecture_code": 13,
    "city": "千代田区",
    "city_kana": "チヨダク",
    "town": "麹町",
    "town_kana": "コウジマチ",
    "street": "３丁目７−４秩父屋ビル７階",
    "office_name": "株式会社　放送出版エージェンシー",
    "office_name_kana": "カブシキガイシヤ ホウソウシユツパンエ-ジエンシ-"
  },
  "8606": {
    "postcode": "1028606",
    "prefecture": "東京都",
    "prefecture_kana": "トウキョウト",
    "prefecture_code": 13,
    "city": "千代田区",
    "city_kana": "チヨダク",
    "town": "平河町",
    "town_kana": "ヒラカワチョウ",
    "street": "２丁目１番１号住友不動産平河町ビル",
    "office_name": "ＬＶＭＨフレグランスブランズ　株式会社",
    "office_name_kana": "エルヴイエムエイチフレグランスブランズ カブシキガイシヤ"
  },
  "8607": {
    "postcode": "1028607",
    "prefecture": "東京都",
    "prefecture_kana": "トウキョウト",
    "prefecture_code": 13,
    "city": "千代田区",
    "city_kana": "チヨダク",
    "town": "三番町",
    "town_kana": "サンバンチョウ",
    "street": "６−８警察共済ビル",
    "office_name": "警察職員生活協同組合",
    "office_name_kana": "ケイサツシヨクインセイカツキヨウドウクミアイ"
  },
  "8609": {
    "postcode": "1028609",
    "prefecture": "東京都",
    "prefecture_kana": "トウキョウト",
    "prefecture_code": 13,
    "city": "千代田区",
    "city_kana": "チヨダク",
    "town": "平河町",
    "town_kana": "ヒラカワチョウ",
    "street": "２丁目１３−３",
    "office_name": "株式会社　読売情報開発　読売ファミリー・サークル",
    "office_name_kana": "カブシキガイシヤ ヨミウリジヨウホウカイハツ ヨミウリフアミリ-・サ-クル"
  },
  "8610": {
    "postcode": "1028610",
    "prefecture": "東京都",
    "prefecture_kana": "トウキョウト",
    "prefecture_code": 13,
    "city": "千代田区",
    "city_kana": "チヨダク",
    "town": "平河町",
    "town_kana": "ヒラカワチョウ",
    "street": "２丁目４−２全国都市会館内",
    "office_name": "生活協同組合全国都市職員災害共済会",
    "office_name_kana": "セイカツキヨウドウクミアイゼンコクトシシヨクインサイガイキヨウサイカイ"
  },
  "8611": {
    "postcode": "1028611",
    "prefecture": "東京都",
    "prefecture_kana": "トウキョウト",
    "prefecture_code": 13,
    "city": "千代田区",
    "city_kana": "チヨダク",
    "town": "平河町",
    "town_kana": "ヒラカワチョウ",
    "street": "２丁目４−１６",
    "office_name": "株式会社　システム収納センター",
    "office_name_kana": "カブシキガイシヤ システムシユウノウセンタ-"
  },
  "8612": {
    "postcode": "1028612",
    "prefecture": "東京都",
    "prefecture_kana": "トウキョウト",
    "prefecture_code": 13,
    "city": "千代田区",
    "city_kana": "チヨダク",
    "town": "麹町",
    "town_kana": "コウジマチ",
    "street": "１−７相互半蔵門ビル２Ｆ",
    "office_name": "株式会社　水中造形センター",
    "office_name_kana": "カブシキガイシヤ スイチユウゾウケイセンタ-"
  },
  "8613": {
    "postcode": "1028613",
    "prefecture": "東京都",
    "prefecture_kana": "トウキョウト",
    "prefecture_code": 13,
    "city": "千代田区",
    "city_kana": "チヨダク",
    "town": "平河町",
    "town_kana": "ヒラカワチョウ",
    "street": "１丁目２−１０",
    "office_name": "伊藤忠フアインケミカル　株式会社",
    "office_name_kana": "イトウチユウフアインケミカル カブシキガイシヤ"
  },
  "8614": {
    "postcode": "1028614",
    "prefecture": "東京都",
    "prefecture_kana": "トウキョウト",
    "prefecture_code": 13,
    "city": "千代田区",
    "city_kana": "チヨダク",
    "town": "平河町",
    "town_kana": "ヒラカワチョウ",
    "street": "１丁目１−８",
    "office_name": "住銀保証　株式会社",
    "office_name_kana": "スミギンホシヨウ カブシキガイシヤ"
  },
  "8617": {
    "postcode": "1028617",
    "prefecture": "東京都",
    "prefecture_kana": "トウキョウト",
    "prefecture_code": 13,
    "city": "千代田区",
    "city_kana": "チヨダク",
    "town": "九段南",
    "town_kana": "クダンミナミ",
    "street": "３丁目５番９号",
    "office_name": "株式会社　ディーエムジェイ",
    "office_name_kana": "カブシキガイシヤ デイ-エムジエイ"
  },
  "8618": {
    "postcode": "1028618",
    "prefecture": "東京都",
    "prefecture_kana": "トウキョウト",
    "prefecture_code": 13,
    "city": "千代田区",
    "city_kana": "チヨダク",
    "town": "平河町",
    "town_kana": "ヒラカワチョウ",
    "street": "２丁目１３−３",
    "office_name": "（株）　読売情報開発",
    "office_name_kana": "(カブ) ヨミウリジヨウホウカイハツ"
  },
  "8619": {
    "postcode": "1028619",
    "prefecture": "東京都",
    "prefecture_kana": "トウキョウト",
    "prefecture_code": 13,
    "city": "千代田区",
    "city_kana": "チヨダク",
    "town": "平河町",
    "town_kana": "ヒラカワチョウ",
    "street": "２丁目１３−３読売情報開発ビル５Ｆ",
    "office_name": "（株）　読売ハートサービス",
    "office_name_kana": "(カブ) ヨミウリハ-トサ-ビス"
  },
  "8620": {
    "postcode": "1028620",
    "prefecture": "東京都",
    "prefecture_kana": "トウキョウト",
    "prefecture_code": 13,
    "city": "千代田区",
    "city_kana": "チヨダク",
    "town": "平河町",
    "town_kana": "ヒラカワチョウ",
    "street": "１丁目８−３",
    "office_name": "株式会社　ブティック社",
    "office_name_kana": "カブシキガイシヤ ブテイツクシヤ"
  },
  "8621": {
    "postcode": "1028621",
    "prefecture": "東京都",
    "prefecture_kana": "トウキョウト",
    "prefecture_code": 13,
    "city": "千代田区",
    "city_kana": "チヨダク",
    "town": "平河町",
    "town_kana": "ヒラカワチョウ",
    "street": "１丁目４−９",
    "office_name": "株式会社　みらい建設グループ",
    "office_name_kana": "カブシキガイシヤ ミライケンセツグル-プ"
  },
  "8622": {
    "postcode": "1028622",
    "prefecture": "東京都",
    "prefecture_kana": "トウキョウト",
    "prefecture_code": 13,
    "city": "千代田区",
    "city_kana": "チヨダク",
    "town": "紀尾井町",
    "town_kana": "キオイチョウ",
    "street": "１番３号東京ガーデンテラス紀尾井町紀尾井タワー２２階",
    "office_name": "株式会社　カービュー",
    "office_name_kana": "カブシキガイシヤ カ-ビユ-"
  },
  "8626": {
    "postcode": "1028626",
    "prefecture": "東京都",
    "prefecture_kana": "トウキョウト",
    "prefecture_code": 13,
    "city": "千代田区",
    "city_kana": "チヨダク",
    "town": "九段南",
    "town_kana": "クダンミナミ",
    "street": "３丁目５−９（麹町郵便局私書箱第１００号）",
    "office_name": "日本能力科学アカデミー",
    "office_name_kana": "ニホンノウリヨクカガクアカデミ-"
  },
  "8627": {
    "postcode": "1028627",
    "prefecture": "東京都",
    "prefecture_kana": "トウキョウト",
    "prefecture_code": 13,
    "city": "千代田区",
    "city_kana": "チヨダク",
    "town": "九段南",
    "town_kana": "クダンミナミ",
    "street": "３丁目５番９号",
    "office_name": "株式会社　全日本通教",
    "office_name_kana": "カブシキガイシヤ ゼンニホンツウキヨウ"
  },
  "8628": {
    "postcode": "1028628",
    "prefecture": "東京都",
    "prefecture_kana": "トウキョウト",
    "prefecture_code": 13,
    "city": "千代田区",
    "city_kana": "チヨダク",
    "town": "九段南",
    "town_kana": "クダンミナミ",
    "street": "２丁目１−２１",
    "office_name": "きんでん　東京本社",
    "office_name_kana": "キンデン トウキヨウホンシヤ"
  },
  "8630": {
    "postcode": "1028630",
    "prefecture": "東京都",
    "prefecture_kana": "トウキョウト",
    "prefecture_code": 13,
    "city": "千代田区",
    "city_kana": "チヨダク",
    "town": "平河町",
    "town_kana": "ヒラカワチョウ",
    "street": "２丁目７番９号ＪＡ共済ビル",
    "office_name": "全国共済農業協同組合連合会　全国本部",
    "office_name_kana": "ゼンコクキヨウサイノウギヨウキヨウドウクミアイレンゴウカイ ゼンコクホンブ"
  },
  "8631": {
    "postcode": "1028631",
    "prefecture": "東京都",
    "prefecture_kana": "トウキョウト",
    "prefecture_code": 13,
    "city": "千代田区",
    "city_kana": "チヨダク",
    "town": "平河町",
    "town_kana": "ヒラカワチョウ",
    "street": "１丁目１−１ニューワダビル",
    "office_name": "野村貿易　株式会社",
    "office_name_kana": "ノムラボウエキ カブシキガイシヤ"
  },
  "8632": {
    "postcode": "1028632",
    "prefecture": "東京都",
    "prefecture_kana": "トウキョウト",
    "prefecture_code": 13,
    "city": "千代田区",
    "city_kana": "チヨダク",
    "town": "九段南",
    "town_kana": "クダンミナミ",
    "street": "３丁目５−９（麹町郵便局私書箱第１０４号）",
    "office_name": "プリメイト",
    "office_name_kana": "プリメイト"
  },
  "8633": {
    "postcode": "1028633",
    "prefecture": "東京都",
    "prefecture_kana": "トウキョウト",
    "prefecture_code": 13,
    "city": "千代田区",
    "city_kana": "チヨダク",
    "town": "麹町",
    "town_kana": "コウジマチ",
    "street": "一丁目１０番麹町広洋ビル２階",
    "office_name": "株式会社　たいよう共済",
    "office_name_kana": "カブシキガイシヤ タイヨウキヨウサイ"
  },
  "8635": {
    "postcode": "1028635",
    "prefecture": "東京都",
    "prefecture_kana": "トウキョウト",
    "prefecture_code": 13,
    "city": "千代田区",
    "city_kana": "チヨダク",
    "town": "平河町",
    "town_kana": "ヒラカワチョウ",
    "street": "２丁目４−２",
    "office_name": "全国市長会",
    "office_name_kana": "ゼンコクシチヨウカイ"
  },
  "8637": {
    "postcode": "1028637",
    "prefecture": "東京都",
    "prefecture_kana": "トウキョウト",
    "prefecture_code": 13,
    "city": "千代田区",
    "city_kana": "チヨダク",
    "town": "九段南",
    "town_kana": "クダンミナミ",
    "street": "３丁目５番９号",
    "office_name": "株式会社　全日本通販",
    "office_name_kana": "カブシキガイシヤ ゼンニホンツウハン"
  },
  "8639": {
    "postcode": "1028639",
    "prefecture": "東京都",
    "prefecture_kana": "トウキョウト",
    "prefecture_code": 13,
    "city": "千代田区",
    "city_kana": "チヨダク",
    "town": "平河町",
    "town_kana": "ヒラカワチョウ",
    "street": "２−７−５砂防会館４Ｆ",
    "office_name": "あしなが育英会",
    "office_name_kana": "アシナガイクエイカイ"
  },
  "8642": {
    "postcode": "1028642",
    "prefecture": "東京都",
    "prefecture_kana": "トウキョウト",
    "prefecture_code": 13,
    "city": "千代田区",
    "city_kana": "チヨダク",
    "town": "平河町",
    "town_kana": "ヒラカワチョウ",
    "street": "２丁目７−４",
    "office_name": "株式会社　ユーラシア旅行社",
    "office_name_kana": "カブシキガイシヤ ユ-ラシアリヨコウシヤ"
  },
  "8643": {
    "postcode": "1028643",
    "prefecture": "東京都",
    "prefecture_kana": "トウキョウト",
    "prefecture_code": 13,
    "city": "千代田区",
    "city_kana": "チヨダク",
    "town": "平河町",
    "town_kana": "ヒラカワチョウ",
    "street": "２−１３−１２",
    "office_name": "公益財団法人　日本生産性本部",
    "office_name_kana": "コウエキザイダンホウジン ニホンセイサンセイホンブ"
  },
  "8644": {
    "postcode": "1028644",
    "prefecture": "東京都",
    "prefecture_kana": "トウキョウト",
    "prefecture_code": 13,
    "city": "千代田区",
    "city_kana": "チヨダク",
    "town": "二番町",
    "town_kana": "ニバンチョウ",
    "street": "１４番地日テレ麹町ビル南館３Ｆ",
    "office_name": "株式会社　ビーエス日本（ビーエス日テレ）",
    "office_name_kana": "カブシキガイシヤ ビ-エスニツポン(ビ-エスニツテレ)"
  },
  "8645": {
    "postcode": "1028645",
    "prefecture": "東京都",
    "prefecture_kana": "トウキョウト",
    "prefecture_code": 13,
    "city": "千代田区",
    "city_kana": "チヨダク",
    "town": "平河町",
    "town_kana": "ヒラカワチョウ",
    "street": "２丁目６−２",
    "office_name": "セコム損害保険　株式会社",
    "office_name_kana": "セコムソンガイホケン カブシキガイシヤ"
  },
  "8650": {
    "postcode": "1028650",
    "prefecture": "東京都",
    "prefecture_kana": "トウキョウト",
    "prefecture_code": 13,
    "city": "千代田区",
    "city_kana": "チヨダク",
    "town": "麹町",
    "town_kana": "コウジマチ",
    "street": "５丁目１番地",
    "office_name": "財形住宅金融　株式会社",
    "office_name_kana": "ザイケイジユウタクキンユウ カブシキガイシヤ"
  },
  "8651": {
    "postcode": "1028651",
    "prefecture": "東京都",
    "prefecture_kana": "トウキョウト",
    "prefecture_code": 13,
    "city": "千代田区",
    "city_kana": "チヨダク",
    "town": "隼町",
    "town_kana": "ハヤブサチョウ",
    "street": "４−２",
    "office_name": "最高裁判所",
    "office_name_kana": "サイコウサイバンシヨ"
  },
  "8655": {
    "postcode": "1028655",
    "prefecture": "東京都",
    "prefecture_kana": "トウキョウト",
    "prefecture_code": 13,
    "city": "千代田区",
    "city_kana": "チヨダク",
    "town": "平河町",
    "town_kana": "ヒラカワチョウ",
    "street": "２丁目１番１号住友不動産平河町ビル",
    "office_name": "パルファン・クリスチャン・ディオール・ジャポン　株式会社",
    "office_name_kana": "パルフアン・クリスチヤン・デイオ-ル・ジヤポン カブシキガシヤ"
  },
  "8656": {
    "postcode": "1028656",
    "prefecture": "東京都",
    "prefecture_kana": "トウキョウト",
    "prefecture_code": 13,
    "city": "千代田区",
    "city_kana": "チヨダク",
    "town": "隼町",
    "town_kana": "ハヤブサチョウ",
    "street": "４−１",
    "office_name": "日本芸術文化振興会",
    "office_name_kana": "ニホンゲイジユツブンカシンコウカイ"
  },
  "8660": {
    "postcode": "1028660",
    "prefecture": "東京都",
    "prefecture_kana": "トウキョウト",
    "prefecture_code": 13,
    "city": "千代田区",
    "city_kana": "チヨダク",
    "town": "麹町",
    "town_kana": "コウジマチ",
    "street": "６−１−１（麹町郵便局私書箱第７号）",
    "office_name": "株式会社　あおぞら銀行",
    "office_name_kana": "カブシキガイシヤ アオゾラギンコウ"
  },
  "8666": {
    "postcode": "1028666",
    "prefecture": "東京都",
    "prefecture_kana": "トウキョウト",
    "prefecture_code": 13,
    "city": "千代田区",
    "city_kana": "チヨダク",
    "town": "四番町",
    "town_kana": "ヨンバンチョウ",
    "street": "５−３（麹町郵便局私書箱第２号）",
    "office_name": "独立行政法人　科学技術振興機構",
    "office_name_kana": "ドクリツギヨウセイホウジン カガクギジユツシンコウキコウ"
  },
  "8667": {
    "postcode": "1028667",
    "prefecture": "東京都",
    "prefecture_kana": "トウキョウト",
    "prefecture_code": 13,
    "city": "千代田区",
    "city_kana": "チヨダク",
    "town": "九段北",
    "town_kana": "クダンキタ",
    "street": "１丁目１３−１２",
    "office_name": "万有製薬　株式会社",
    "office_name_kana": "バンユウセイヤク カブシキガイシヤ"
  },
  "8668": {
    "postcode": "1028668",
    "prefecture": "東京都",
    "prefecture_kana": "トウキョウト",
    "prefecture_code": 13,
    "city": "千代田区",
    "city_kana": "チヨダク",
    "town": "五番町",
    "town_kana": "ゴバンチョウ",
    "street": "７−２（麹町郵便局私書箱第２０号）",
    "office_name": "財団法人　日本棋院",
    "office_name_kana": "ザイダンホウジン ニホンキイン"
  },
  "8671": {
    "postcode": "1028671",
    "prefecture": "東京都",
    "prefecture_kana": "トウキョウト",
    "prefecture_code": 13,
    "city": "千代田区",
    "city_kana": "チヨダク",
    "town": "九段南",
    "town_kana": "クダンミナミ",
    "street": "３丁目５−９（麹町郵便局私書箱第９８号）",
    "office_name": "株式会社　エルヴィジョン",
    "office_name_kana": "カブシキガイシヤ エルヴイジヨン"
  },
  "8677": {
    "postcode": "1028677",
    "prefecture": "東京都",
    "prefecture_kana": "トウキョウト",
    "prefecture_code": 13,
    "city": "千代田区",
    "city_kana": "チヨダク",
    "town": "九段南",
    "town_kana": "クダンミナミ",
    "street": "４丁目３−１５（麹町郵便局私書箱第６０号）",
    "office_name": "株式会社　日本金融通信社　（ニッキン）",
    "office_name_kana": "カブシキカイシヤ ニホンキンユウツウシンシヤ"
  },
  "8678": {
    "postcode": "1028678",
    "prefecture": "東京都",
    "prefecture_kana": "トウキョウト",
    "prefecture_code": 13,
    "city": "千代田区",
    "city_kana": "チヨダク",
    "town": "一番町",
    "town_kana": "イチバンチョウ",
    "street": "３１（麹町郵便局私書箱第１８号）",
    "office_name": "株式会社　錢高組　東京本社・支社",
    "office_name_kana": "カブシキガイシヤ ゼニタカグミ トウキヨウホンシヤ.シシヤ"
  },
  "8679": {
    "postcode": "1028679",
    "prefecture": "東京都",
    "prefecture_kana": "トウキョウト",
    "prefecture_code": 13,
    "city": "千代田区",
    "city_kana": "チヨダク",
    "town": "五番町",
    "town_kana": "ゴバンチョウ",
    "street": "１２−１（麹町郵便局私書箱第７９号）",
    "office_name": "株式会社　ソニー・マガジンズ",
    "office_name_kana": "カブシキガイシヤ ソニ-・マガジンズ"
  },
  "8680": {
    "postcode": "1028680",
    "prefecture": "東京都",
    "prefecture_kana": "トウキョウト",
    "prefecture_code": 13,
    "city": "千代田区",
    "city_kana": "チヨダク",
    "town": "九段北",
    "town_kana": "クダンキタ",
    "street": "４丁目２−２９（麹町郵便局私書箱第５７号）",
    "office_name": "株式会社　世界文化社",
    "office_name_kana": "カブシキガイシヤ セカイブンカシヤ"
  },
  "8685": {
    "postcode": "1028685",
    "prefecture": "東京都",
    "prefecture_kana": "トウキョウト",
    "prefecture_code": 13,
    "city": "千代田区",
    "city_kana": "チヨダク",
    "town": "紀尾井町",
    "town_kana": "キオイチョウ",
    "street": "３−６紀尾井町パークビル８Ｆ",
    "office_name": "株式会社　角川ヘラルド・ピクチャーズ",
    "office_name_kana": "カブシキガイシヤ カドカワヘラルド・ピクチヤ-ズ"
  },
  "8688": {
    "postcode": "1028688",
    "prefecture": "東京都",
    "prefecture_kana": "トウキョウト",
    "prefecture_code": 13,
    "city": "千代田区",
    "city_kana": "チヨダク",
    "town": "九段南",
    "town_kana": "クダンミナミ",
    "street": "１丁目２−１（麹町郵便局私書箱第９号）",
    "office_name": "東京都千代田区役所",
    "office_name_kana": "トウキヨウトチヨダクヤクシヨ"
  },
  "8689": {
    "postcode": "1028689",
    "prefecture": "東京都",
    "prefecture_kana": "トウキョウト",
    "prefecture_code": 13,
    "city": "千代田区",
    "city_kana": "チヨダク",
    "town": "一番町",
    "town_kana": "イチバンチョウ",
    "street": "１５−２１（麹町郵便局私書箱第４４号）",
    "office_name": "株式会社　第一学習社",
    "office_name_kana": "カブシキガイシヤ ダイイチガクシユウシヤ"
  },
  "8730": {
    "postcode": "1028730",
    "prefecture": "東京都",
    "prefecture_kana": "トウキョウト",
    "prefecture_code": 13,
    "city": "千代田区",
    "city_kana": "チヨダク",
    "town": "麹町",
    "town_kana": "コウジマチ",
    "street": "３丁目６番地住友不動産麹町ビル３号館",
    "office_name": "ダイトロン　株式会社",
    "office_name_kana": "ダイトロン カブシキガイシヤ"
  },
  "8795": {
    "postcode": "1028795",
    "prefecture": "東京都",
    "prefecture_kana": "トウキョウト",
    "prefecture_code": 13,
    "city": "千代田区",
    "city_kana": "チヨダク",
    "town": "九段南",
    "town_kana": "クダンミナミ",
    "street": "１丁目２−１",
    "office_name": "総務省　関東総合通信局",
    "office_name_kana": "ソウムシヨウ カントウソウゴウツウシンキヨク"
  },
  "8798": {
    "postcode": "1028798",
    "prefecture": "東京都",
    "prefecture_kana": "トウキョウト",
    "prefecture_code": 13,
    "city": "千代田区",
    "city_kana": "チヨダク",
    "town": "富士見",
    "town_kana": "フジミ",
    "street": "２丁目１４−２３",
    "office_name": "東京逓信病院",
    "office_name_kana": "トウキヨウテイシンビヨウイン"
  }
}