{
  "0014": {
    "postcode": "1080014",
    "prefecture": "東京都",
    "prefecture_kana": "トウキョウト",
    "prefecture_code": 13,
    "city": "港区",
    "city_kana": "ミナトク",
    "town": "芝",
    "town_kana": "シバ",
    "street": null,
    "office_name": null,
    "office_name_kana": null
  },
  "0022": {
    "postcode": "1080022",
    "prefecture": "東京都",
    "prefecture_kana": "トウキョウト",
    "prefecture_code": 13,
    "city": "港区",
    "city_kana": "ミナトク",
    "town": "海岸",
    "town_kana": "カイガン",
    "street": null,
    "office_name": null,
    "office_name_kana": null
  },
  "0023": {
    "postcode": "1080023",
    "prefecture": "東京都",
    "prefecture_kana": "トウキョウト",
    "prefecture_code": 13,
    "city": "港区",
    "city_kana": "ミナトク",
    "town": "芝浦",
    "town_kana": "シバウラ",
    "street": null,
    "office_name": null,
    "office_name_kana": null
  },
  "0071": {
    "postcode": "1080071",
    "prefecture": "東京都",
    "prefecture_kana": "トウキョウト",
    "prefecture_code": 13,
    "city": "港区",
    "city_kana": "ミナトク",
    "town": "白金台",
    "town_kana": "シロカネダイ",
    "street": null,
    "office_name": null,
    "office_name_kana": null
  },
  "0072": {
    "postcode": "1080072",
    "prefecture": "東京都",
    "prefecture_kana": "トウキョウト",
    "prefecture_code": 13,
    "city": "港区",
    "city_kana": "ミナトク",
    "town": "白金",
    "town_kana": "シロカネ",
    "street": null,
    "office_name": null,
    "office_name_kana": null
  },
  "0073": {
    "postcode": "1080073",
    "prefecture": "東京都",
    "prefecture_kana": "トウキョウト",
    "prefecture_code": 13,
    "city": "港区",
    "city_kana": "ミナトク",
    "town": "三田",
    "town_kana": "ミタ",
    "street": null,
    "office_name": null,
    "office_name_kana": null
  },
  "0074": {
    "postcode": "1080074",
    "prefecture": "東京都",
    "prefecture_kana": "トウキョウト",
    "prefecture_code": 13,
    "city": "港区",
    "city_kana": "ミナトク",
    "town": "高輪",
    "town_kana": "タカナワ",
    "street": null,
    "office_name": null,
    "office_name_kana": null
  },
  "0075": {
    "postcode": "1080075",
    "prefecture": "東京都",
    "prefecture_kana": "トウキョウト",
    "prefecture_code": 13,
    "city": "港区",
    "city_kana": "ミナトク",
    "town": "港南",
    "town_kana": "コウナン",
    "street": null,
    "office_name": null,
    "office_name_kana": null
  },
  "6001": {
    "postcode": "1086001",
    "prefecture": "東京都",
    "prefecture_kana": "トウキョウト",
    "prefecture_code": 13,
    "city": "港区",
    "city_kana": "ミナトク",
    "town": "港南品川インターシティＡ棟　１階",
    "town_kana": "コウナンシナガワインターシティAトウ1カイ",
    "street": null,
    "office_name": null,
    "office_name_kana": null
  },
  "6002": {
    "postcode": "1086002",
    "prefecture": "東京都",
    "prefecture_kana": "トウキョウト",
    "prefecture_code": 13,
    "city": "港区",
    "city_kana": "ミナトク",
    "town": "港南品川インターシティＡ棟　２階",
    "town_kana": "コウナンシナガワインターシティAトウ2カイ",
    "street": null,
    "office_name": null,
    "office_name_kana": null
  },
  "6003": {
    "postcode": "1086003",
    "prefecture": "東京都",
    "prefecture_kana": "トウキョウト",
    "prefecture_code": 13,
    "city": "港区",
    "city_kana": "ミナトク",
    "town": "港南品川インターシティＡ棟　３階",
    "town_kana": "コウナンシナガワインターシティAトウ3カイ",
    "street": null,
    "office_name": null,
    "office_name_kana": null
  },
  "6004": {
    "postcode": "1086004",
    "prefecture": "東京都",
    "prefecture_kana": "トウキョウト",
    "prefecture_code": 13,
    "city": "港区",
    "city_kana": "ミナトク",
    "town": "港南品川インターシティＡ棟　４階",
    "town_kana": "コウナンシナガワインターシティAトウ4カイ",
    "street": null,
    "office_name": null,
    "office_name_kana": null
  },
  "6005": {
    "postcode": "1086005",
    "prefecture": "東京都",
    "prefecture_kana": "トウキョウト",
    "prefecture_code": 13,
    "city": "港区",
    "city_kana": "ミナトク",
    "town": "港南品川インターシティＡ棟　５階",
    "town_kana": "コウナンシナガワインターシティAトウ5カイ",
    "street": null,
    "office_name": null,
    "office_name_kana": null
  },
  "6006": {
    "postcode": "1086006",
    "prefecture": "東京都",
    "prefecture_kana": "トウキョウト",
    "prefecture_code": 13,
    "city": "港区",
    "city_kana": "ミナトク",
    "town": "港南品川インターシティＡ棟　６階",
    "town_kana": "コウナンシナガワインターシティAトウ6カイ",
    "street": null,
    "office_name": null,
    "office_name_kana": null
  },
  "6007": {
    "postcode": "1086007",
    "prefecture": "東京都",
    "prefecture_kana": "トウキョウト",
    "prefecture_code": 13,
    "city": "港区",
    "city_kana": "ミナトク",
    "town": "港南品川インターシティＡ棟　７階",
    "town_kana": "コウナンシナガワインターシティAトウ7カイ",
    "street": null,
    "office_name": null,
    "office_name_kana": null
  },
  "6008": {
    "postcode": "1086008",
    "prefecture": "東京都",
    "prefecture_kana": "トウキョウト",
    "prefecture_code": 13,
    "city": "港区",
    "city_kana": "ミナトク",
    "town": "港南品川インターシティＡ棟　８階",
    "town_kana": "コウナンシナガワインターシティAトウ8カイ",
    "street": null,
    "office_name": null,
    "office_name_kana": null
  },
  "6009": {
    "postcode": "1086009",
    "prefecture": "東京都",
    "prefecture_kana": "トウキョウト",
    "prefecture_code": 13,
    "city": "港区",
    "city_kana": "ミナトク",
    "town": "港南品川インターシティＡ棟　９階",
    "town_kana": "コウナンシナガワインターシティAトウ9カイ",
    "street": null,
    "office_name": null,
    "office_name_kana": null
  },
  "6010": {
    "postcode": "1086010",
    "prefecture": "東京都",
    "prefecture_kana": "トウキョウト",
    "prefecture_code": 13,
    "city": "港区",
    "city_kana": "ミナトク",
    "town": "港南品川インターシティＡ棟　１０階",
    "town_kana": "コウナンシナガワインターシティAトウ10カイ",
    "street": null,
    "office_name": null,
    "office_name_kana": null
  },
  "6011": {
    "postcode": "1086011",
    "prefecture": "東京都",
    "prefecture_kana": "トウキョウト",
    "prefecture_code": 13,
    "city": "港区",
    "city_kana": "ミナトク",
    "town": "港南品川インターシティＡ棟　１１階",
    "town_kana": "コウナンシナガワインターシティAトウ11カイ",
    "street": null,
    "office_name": null,
    "office_name_kana": null
  },
  "6012": {
    "postcode": "1086012",
    "prefecture": "東京都",
    "prefecture_kana": "トウキョウト",
    "prefecture_code": 13,
    "city": "港区",
    "city_kana": "ミナトク",
    "town": "港南品川インターシティＡ棟　１２階",
    "town_kana": "コウナンシナガワインターシティAトウ12カイ",
    "street": null,
    "office_name": null,
    "office_name_kana": null
  },
  "6013": {
    "postcode": "1086013",
    "prefecture": "東京都",
    "prefecture_kana": "トウキョウト",
    "prefecture_code": 13,
    "city": "港区",
    "city_kana": "ミナトク",
    "town": "港南品川インターシティＡ棟　１３階",
    "town_kana": "コウナンシナガワインターシティAトウ13カイ",
    "street": null,
    "office_name": null,
    "office_name_kana": null
  },
  "6014": {
    "postcode": "1086014",
    "prefecture": "東京都",
    "prefecture_kana": "トウキョウト",
    "prefecture_code": 13,
    "city": "港区",
    "city_kana": "ミナトク",
    "town": "港南品川インターシティＡ棟　１４階",
    "town_kana": "コウナンシナガワインターシティAトウ14カイ",
    "street": null,
    "office_name": null,
    "office_name_kana": null
  },
  "6015": {
    "postcode": "1086015",
    "prefecture": "東京都",
    "prefecture_kana": "トウキョウト",
    "prefecture_code": 13,
    "city": "港区",
    "city_kana": "ミナトク",
    "town": "港南品川インターシティＡ棟　１５階",
    "town_kana": "コウナンシナガワインターシティAトウ15カイ",
    "street": null,
    "office_name": null,
    "office_name_kana": null
  },
  "6016": {
    "postcode": "1086016",
    "prefecture": "東京都",
    "prefecture_kana": "トウキョウト",
    "prefecture_code": 13,
    "city": "港区",
    "city_kana": "ミナトク",
    "town": "港南品川インターシティＡ棟　１６階",
    "town_kana": "コウナンシナガワインターシティAトウ16カイ",
    "street": null,
    "office_name": null,
    "office_name_kana": null
  },
  "6017": {
    "postcode": "1086017",
    "prefecture": "東京都",
    "prefecture_kana": "トウキョウト",
    "prefecture_code": 13,
    "city": "港区",
    "city_kana": "ミナトク",
    "town": "港南品川インターシティＡ棟　１７階",
    "town_kana": "コウナンシナガワインターシティAトウ17カイ",
    "street": null,
    "office_name": null,
    "office_name_kana": null
  },
  "6018": {
    "postcode": "1086018",
    "prefecture": "東京都",
    "prefecture_kana": "トウキョウト",
    "prefecture_code": 13,
    "city": "港区",
    "city_kana": "ミナトク",
    "town": "港南品川インターシティＡ棟　１８階",
    "town_kana": "コウナンシナガワインターシティAトウ18カイ",
    "street": null,
    "office_name": null,
    "office_name_kana": null
  },
  "6019": {
    "postcode": "1086019",
    "prefecture": "東京都",
    "prefecture_kana": "トウキョウト",
    "prefecture_code": 13,
    "city": "港区",
    "city_kana": "ミナトク",
    "town": "港南品川インターシティＡ棟　１９階",
    "town_kana": "コウナンシナガワインターシティAトウ19カイ",
    "street": null,
    "office_name": null,
    "office_name_kana": null
  },
  "6020": {
    "postcode": "1086020",
    "prefecture": "東京都",
    "prefecture_kana": "トウキョウト",
    "prefecture_code": 13,
    "city": "港区",
    "city_kana": "ミナトク",
    "town": "港南品川インターシティＡ棟　２０階",
    "town_kana": "コウナンシナガワインターシティAトウ20カイ",
    "street": null,
    "office_name": null,
    "office_name_kana": null
  },
  "6021": {
    "postcode": "1086021",
    "prefecture": "東京都",
    "prefecture_kana": "トウキョウト",
    "prefecture_code": 13,
    "city": "港区",
    "city_kana": "ミナトク",
    "town": "港南品川インターシティＡ棟　２１階",
    "town_kana": "コウナンシナガワインターシティAトウ21カイ",
    "street": null,
    "office_name": null,
    "office_name_kana": null
  },
  "6022": {
    "postcode": "1086022",
    "prefecture": "東京都",
    "prefecture_kana": "トウキョウト",
    "prefecture_code": 13,
    "city": "港区",
    "city_kana": "ミナトク",
    "town": "港南品川インターシティＡ棟　２２階",
    "town_kana": "コウナンシナガワインターシティAトウ22カイ",
    "street": null,
    "office_name": null,
    "office_name_kana": null
  },
  "6023": {
    "postcode": "1086023",
    "prefecture": "東京都",
    "prefecture_kana": "トウキョウト",
    "prefecture_code": 13,
    "city": "港区",
    "city_kana": "ミナトク",
    "town": "港南品川インターシティＡ棟　２３階",
    "town_kana": "コウナンシナガワインターシティAトウ23カイ",
    "street": null,
    "office_name": null,
    "office_name_kana": null
  },
  "6024": {
    "postcode": "1086024",
    "prefecture": "東京都",
    "prefecture_kana": "トウキョウト",
    "prefecture_code": 13,
    "city": "港区",
    "city_kana": "ミナトク",
    "town": "港南品川インターシティＡ棟　２４階",
    "town_kana": "コウナンシナガワインターシティAトウ24カイ",
    "street": null,
    "office_name": null,
    "office_name_kana": null
  },
  "6025": {
    "postcode": "1086025",
    "prefecture": "東京都",
    "prefecture_kana": "トウキョウト",
    "prefecture_code": 13,
    "city": "港区",
    "city_kana": "ミナトク",
    "town": "港南品川インターシティＡ棟　２５階",
    "town_kana": "コウナンシナガワインターシティAトウ25カイ",
    "street": null,
    "office_name": null,
    "office_name_kana": null
  },
  "6026": {
    "postcode": "1086026",
    "prefecture": "東京都",
    "prefecture_kana": "トウキョウト",
    "prefecture_code": 13,
    "city": "港区",
    "city_kana": "ミナトク",
    "town": "港南品川インターシティＡ棟　２６階",
    "town_kana": "コウナンシナガワインターシティAトウ26カイ",
    "street": null,
    "office_name": null,
    "office_name_kana": null
  },
  "6027": {
    "postcode": "1086027",
    "prefecture": "東京都",
    "prefecture_kana": "トウキョウト",
    "prefecture_code": 13,
    "city": "港区",
    "city_kana": "ミナトク",
    "town": "港南品川インターシティＡ棟　２７階",
    "town_kana": "コウナンシナガワインターシティAトウ27カイ",
    "street": null,
    "office_name": null,
    "office_name_kana": null
  },
  "6028": {
    "postcode": "1086028",
    "prefecture": "東京都",
    "prefecture_kana": "トウキョウト",
    "prefecture_code": 13,
    "city": "港区",
    "city_kana": "ミナトク",
    "town": "港南品川インターシティＡ棟　２８階",
    "town_kana": "コウナンシナガワインターシティAトウ28カイ",
    "street": null,
    "office_name": null,
    "office_name_kana": null
  },
  "6029": {
    "postcode": "1086029",
    "prefecture": "東京都",
    "prefecture_kana": "トウキョウト",
    "prefecture_code": 13,
    "city": "港区",
    "city_kana": "ミナトク",
    "town": "港南品川インターシティＡ棟　２９階",
    "town_kana": "コウナンシナガワインターシティAトウ29カイ",
    "street": null,
    "office_name": null,
    "office_name_kana": null
  },
  "6030": {
    "postcode": "1086030",
    "prefecture": "東京都",
    "prefecture_kana": "トウキョウト",
    "prefecture_code": 13,
    "city": "港区",
    "city_kana": "ミナトク",
    "town": "港南品川インターシティＡ棟　３０階",
    "town_kana": "コウナンシナガワインターシティAトウ30カイ",
    "street": null,
    "office_name": null,
    "office_name_kana": null
  },
  "6031": {
    "postcode": "1086031",
    "prefecture": "東京都",
    "prefecture_kana": "トウキョウト",
    "prefecture_code": 13,
    "city": "港区",
    "city_kana": "ミナトク",
    "town": "港南品川インターシティＡ棟　３１階",
    "town_kana": "コウナンシナガワインターシティAトウ31カイ",
    "street": null,
    "office_name": null,
    "office_name_kana": null
  },
  "6032": {
    "postcode": "1086032",
    "prefecture": "東京都",
    "prefecture_kana": "トウキョウト",
    "prefecture_code": 13,
    "city": "港区",
    "city_kana": "ミナトク",
    "town": "港南品川インターシティＡ棟　３２階",
    "town_kana": "コウナンシナガワインターシティAトウ32カイ",
    "street": null,
    "office_name": null,
    "office_name_kana": null
  },
  "6090": {
    "postcode": "1086090",
    "prefecture": "東京都",
    "prefecture_kana": "トウキョウト",
    "prefecture_code": 13,
    "city": "港区",
    "city_kana": "ミナトク",
    "town": "港南品川インターシティＡ棟",
    "town_kana": "コウナンシナガワインターシティAトウ",
    "street": null,
    "office_name": null,
    "office_name_kana": null
  },
  "6101": {
    "postcode": "1086101",
    "prefecture": "東京都",
    "prefecture_kana": "トウキョウト",
    "prefecture_code": 13,
    "city": "港区",
    "city_kana": "ミナトク",
    "town": "港南品川インターシティＢ棟　１階",
    "town_kana": "コウナンシナガワインターシティBトウ1カイ",
    "street": null,
    "office_name": null,
    "office_name_kana": null
  },
  "6102": {
    "postcode": "1086102",
    "prefecture": "東京都",
    "prefecture_kana": "トウキョウト",
    "prefecture_code": 13,
    "city": "港区",
    "city_kana": "ミナトク",
    "town": "港南品川インターシティＢ棟　２階",
    "town_kana": "コウナンシナガワインターシティBトウ2カイ",
    "street": null,
    "office_name": null,
    "office_name_kana": null
  },
  "6103": {
    "postcode": "1086103",
    "prefecture": "東京都",
    "prefecture_kana": "トウキョウト",
    "prefecture_code": 13,
    "city": "港区",
    "city_kana": "ミナトク",
    "town": "港南品川インターシティＢ棟　３階",
    "town_kana": "コウナンシナガワインターシティBトウ3カイ",
    "street": null,
    "office_name": null,
    "office_name_kana": null
  },
  "6104": {
    "postcode": "1086104",
    "prefecture": "東京都",
    "prefecture_kana": "トウキョウト",
    "prefecture_code": 13,
    "city": "港区",
    "city_kana": "ミナトク",
    "town": "港南品川インターシティＢ棟　４階",
    "town_kana": "コウナンシナガワインターシティBトウ4カイ",
    "street": null,
    "office_name": null,
    "office_name_kana": null
  },
  "6105": {
    "postcode": "1086105",
    "prefecture": "東京都",
    "prefecture_kana": "トウキョウト",
    "prefecture_code": 13,
    "city": "港区",
    "city_kana": "ミナトク",
    "town": "港南品川インターシティＢ棟　５階",
    "town_kana": "コウナンシナガワインターシティBトウ5カイ",
    "street": null,
    "office_name": null,
    "office_name_kana": null
  },
  "6106": {
    "postcode": "1086106",
    "prefecture": "東京都",
    "prefecture_kana": "トウキョウト",
    "prefecture_code": 13,
    "city": "港区",
    "city_kana": "ミナトク",
    "town": "港南品川インターシティＢ棟　６階",
    "town_kana": "コウナンシナガワインターシティBトウ6カイ",
    "street": null,
    "office_name": null,
    "office_name_kana": null
  },
  "6107": {
    "postcode": "1086107",
    "prefecture": "東京都",
    "prefecture_kana": "トウキョウト",
    "prefecture_code": 13,
    "city": "港区",
    "city_kana": "ミナトク",
    "town": "港南品川インターシティＢ棟　７階",
    "town_kana": "コウナンシナガワインターシティBトウ7カイ",
    "street": null,
    "office_name": null,
    "office_name_kana": null
  },
  "6108": {
    "postcode": "1086108",
    "prefecture": "東京都",
    "prefecture_kana": "トウキョウト",
    "prefecture_code": 13,
    "city": "港区",
    "city_kana": "ミナトク",
    "town": "港南品川インターシティＢ棟　８階",
    "town_kana": "コウナンシナガワインターシティBトウ8カイ",
    "street": null,
    "office_name": null,
    "office_name_kana": null
  },
  "6109": {
    "postcode": "1086109",
    "prefecture": "東京都",
    "prefecture_kana": "トウキョウト",
    "prefecture_code": 13,
    "city": "港区",
    "city_kana": "ミナトク",
    "town": "港南品川インターシティＢ棟　９階",
    "town_kana": "コウナンシナガワインターシティBトウ9カイ",
    "street": null,
    "office_name": null,
    "office_name_kana": null
  },
  "6110": {
    "postcode": "1086110",
    "prefecture": "東京都",
    "prefecture_kana": "トウキョウト",
    "prefecture_code": 13,
    "city": "港区",
    "city_kana": "ミナトク",
    "town": "港南品川インターシティＢ棟　１０階",
    "town_kana": "コウナンシナガワインターシティBトウ10カイ",
    "street": null,
    "office_name": null,
    "office_name_kana": null
  },
  "6111": {
    "postcode": "1086111",
    "prefecture": "東京都",
    "prefecture_kana": "トウキョウト",
    "prefecture_code": 13,
    "city": "港区",
    "city_kana": "ミナトク",
    "town": "港南品川インターシティＢ棟　１１階",
    "town_kana": "コウナンシナガワインターシティBトウ11カイ",
    "street": null,
    "office_name": null,
    "office_name_kana": null
  },
  "6112": {
    "postcode": "1086112",
    "prefecture": "東京都",
    "prefecture_kana": "トウキョウト",
    "prefecture_code": 13,
    "city": "港区",
    "city_kana": "ミナトク",
    "town": "港南品川インターシティＢ棟　１２階",
    "town_kana": "コウナンシナガワインターシティBトウ12カイ",
    "street": null,
    "office_name": null,
    "office_name_kana": null
  },
  "6113": {
    "postcode": "1086113",
    "prefecture": "東京都",
    "prefecture_kana": "トウキョウト",
    "prefecture_code": 13,
    "city": "港区",
    "city_kana": "ミナトク",
    "town": "港南品川インターシティＢ棟　１３階",
    "town_kana": "コウナンシナガワインターシティBトウ13カイ",
    "street": null,
    "office_name": null,
    "office_name_kana": null
  },
  "6114": {
    "postcode": "1086114",
    "prefecture": "東京都",
    "prefecture_kana": "トウキョウト",
    "prefecture_code": 13,
    "city": "港区",
    "city_kana": "ミナトク",
    "town": "港南品川インターシティＢ棟　１４階",
    "town_kana": "コウナンシナガワインターシティBトウ14カイ",
    "street": null,
    "office_name": null,
    "office_name_kana": null
  },
  "6115": {
    "postcode": "1086115",
    "prefecture": "東京都",
    "prefecture_kana": "トウキョウト",
    "prefecture_code": 13,
    "city": "港区",
    "city_kana": "ミナトク",
    "town": "港南品川インターシティＢ棟　１５階",
    "town_kana": "コウナンシナガワインターシティBトウ15カイ",
    "street": null,
    "office_name": null,
    "office_name_kana": null
  },
  "6116": {
    "postcode": "1086116",
    "prefecture": "東京都",
    "prefecture_kana": "トウキョウト",
    "prefecture_code": 13,
    "city": "港区",
    "city_kana": "ミナトク",
    "town": "港南品川インターシティＢ棟　１６階",
    "town_kana": "コウナンシナガワインターシティBトウ16カイ",
    "street": null,
    "office_name": null,
    "office_name_kana": null
  },
  "6117": {
    "postcode": "1086117",
    "prefecture": "東京都",
    "prefecture_kana": "トウキョウト",
    "prefecture_code": 13,
    "city": "港区",
    "city_kana": "ミナトク",
    "town": "港南品川インターシティＢ棟　１７階",
    "town_kana": "コウナンシナガワインターシティBトウ17カイ",
    "street": null,
    "office_name": null,
    "office_name_kana": null
  },
  "6118": {
    "postcode": "1086118",
    "prefecture": "東京都",
    "prefecture_kana": "トウキョウト",
    "prefecture_code": 13,
    "city": "港区",
    "city_kana": "ミナトク",
    "town": "港南品川インターシティＢ棟　１８階",
    "town_kana": "コウナンシナガワインターシティBトウ18カイ",
    "street": null,
    "office_name": null,
    "office_name_kana": null
  },
  "6119": {
    "postcode": "1086119",
    "prefecture": "東京都",
    "prefecture_kana": "トウキョウト",
    "prefecture_code": 13,
    "city": "港区",
    "city_kana": "ミナトク",
    "town": "港南品川インターシティＢ棟　１９階",
    "town_kana": "コウナンシナガワインターシティBトウ19カイ",
    "street": null,
    "office_name": null,
    "office_name_kana": null
  },
  "6120": {
    "postcode": "1086120",
    "prefecture": "東京都",
    "prefecture_kana": "トウキョウト",
    "prefecture_code": 13,
    "city": "港区",
    "city_kana": "ミナトク",
    "town": "港南品川インターシティＢ棟　２０階",
    "town_kana": "コウナンシナガワインターシティBトウ20カイ",
    "street": null,
    "office_name": null,
    "office_name_kana": null
  },
  "6121": {
    "postcode": "1086121",
    "prefecture": "東京都",
    "prefecture_kana": "トウキョウト",
    "prefecture_code": 13,
    "city": "港区",
    "city_kana": "ミナトク",
    "town": "港南品川インターシティＢ棟　２１階",
    "town_kana": "コウナンシナガワインターシティBトウ21カイ",
    "street": null,
    "office_name": null,
    "office_name_kana": null
  },
  "6122": {
    "postcode": "1086122",
    "prefecture": "東京都",
    "prefecture_kana": "トウキョウト",
    "prefecture_code": 13,
    "city": "港区",
    "city_kana": "ミナトク",
    "town": "港南品川インターシティＢ棟　２２階",
    "town_kana": "コウナンシナガワインターシティBトウ22カイ",
    "street": null,
    "office_name": null,
    "office_name_kana": null
  },
  "6123": {
    "postcode": "1086123",
    "prefecture": "東京都",
    "prefecture_kana": "トウキョウト",
    "prefecture_code": 13,
    "city": "港区",
    "city_kana": "ミナトク",
    "town": "港南品川インターシティＢ棟　２３階",
    "town_kana": "コウナンシナガワインターシティBトウ23カイ",
    "street": null,
    "office_name": null,
    "office_name_kana": null
  },
  "6124": {
    "postcode": "1086124",
    "prefecture": "東京都",
    "prefecture_kana": "トウキョウト",
    "prefecture_code": 13,
    "city": "港区",
    "city_kana": "ミナトク",
    "town": "港南品川インターシティＢ棟　２４階",
    "town_kana": "コウナンシナガワインターシティBトウ24カイ",
    "street": null,
    "office_name": null,
    "office_name_kana": null
  },
  "6125": {
    "postcode": "1086125",
    "prefecture": "東京都",
    "prefecture_kana": "トウキョウト",
    "prefecture_code": 13,
    "city": "港区",
    "city_kana": "ミナトク",
    "town": "港南品川インターシティＢ棟　２５階",
    "town_kana": "コウナンシナガワインターシティBトウ25カイ",
    "street": null,
    "office_name": null,
    "office_name_kana": null
  },
  "6126": {
    "postcode": "1086126",
    "prefecture": "東京都",
    "prefecture_kana": "トウキョウト",
    "prefecture_code": 13,
    "city": "港区",
    "city_kana": "ミナトク",
    "town": "港南品川インターシティＢ棟　２６階",
    "town_kana": "コウナンシナガワインターシティBトウ26カイ",
    "street": null,
    "office_name": null,
    "office_name_kana": null
  },
  "6127": {
    "postcode": "1086127",
    "prefecture": "東京都",
    "prefecture_kana": "トウキョウト",
    "prefecture_code": 13,
    "city": "港区",
    "city_kana": "ミナトク",
    "town": "港南品川インターシティＢ棟　２７階",
    "town_kana": "コウナンシナガワインターシティBトウ27カイ",
    "street": null,
    "office_name": null,
    "office_name_kana": null
  },
  "6128": {
    "postcode": "1086128",
    "prefecture": "東京都",
    "prefecture_kana": "トウキョウト",
    "prefecture_code": 13,
    "city": "港区",
    "city_kana": "ミナトク",
    "town": "港南品川インターシティＢ棟　２８階",
    "town_kana": "コウナンシナガワインターシティBトウ28カイ",
    "street": null,
    "office_name": null,
    "office_name_kana": null
  },
  "6129": {
    "postcode": "1086129",
    "prefecture": "東京都",
    "prefecture_kana": "トウキョウト",
    "prefecture_code": 13,
    "city": "港区",
    "city_kana": "ミナトク",
    "town": "港南品川インターシティＢ棟　２９階",
    "town_kana": "コウナンシナガワインターシティBトウ29カイ",
    "street": null,
    "office_name": null,
    "office_name_kana": null
  },
  "6130": {
    "postcode": "1086130",
    "prefecture": "東京都",
    "prefecture_kana": "トウキョウト",
    "prefecture_code": 13,
    "city": "港区",
    "city_kana": "ミナトク",
    "town": "港南品川インターシティＢ棟　３０階",
    "town_kana": "コウナンシナガワインターシティBトウ30カイ",
    "street": null,
    "office_name": null,
    "office_name_kana": null
  },
  "6131": {
    "postcode": "1086131",
    "prefecture": "東京都",
    "prefecture_kana": "トウキョウト",
    "prefecture_code": 13,
    "city": "港区",
    "city_kana": "ミナトク",
    "town": "港南品川インターシティＢ棟　３１階",
    "town_kana": "コウナンシナガワインターシティBトウ31カイ",
    "street": null,
    "office_name": null,
    "office_name_kana": null
  },
  "6190": {
    "postcode": "1086190",
    "prefecture": "東京都",
    "prefecture_kana": "トウキョウト",
    "prefecture_code": 13,
    "city": "港区",
    "city_kana": "ミナトク",
    "town": "港南品川インターシティＢ棟",
    "town_kana": "コウナンシナガワインターシティBトウ",
    "street": null,
    "office_name": null,
    "office_name_kana": null
  },
  "6201": {
    "postcode": "1086201",
    "prefecture": "東京都",
    "prefecture_kana": "トウキョウト",
    "prefecture_code": 13,
    "city": "港区",
    "city_kana": "ミナトク",
    "town": "港南品川インターシティＣ棟　１階",
    "town_kana": "コウナンシナガワインターシティCトウ1カイ",
    "street": null,
    "office_name": null,
    "office_name_kana": null
  },
  "6202": {
    "postcode": "1086202",
    "prefecture": "東京都",
    "prefecture_kana": "トウキョウト",
    "prefecture_code": 13,
    "city": "港区",
    "city_kana": "ミナトク",
    "town": "港南品川インターシティＣ棟　２階",
    "town_kana": "コウナンシナガワインターシティCトウ2カイ",
    "street": null,
    "office_name": null,
    "office_name_kana": null
  },
  "6203": {
    "postcode": "1086203",
    "prefecture": "東京都",
    "prefecture_kana": "トウキョウト",
    "prefecture_code": 13,
    "city": "港区",
    "city_kana": "ミナトク",
    "town": "港南品川インターシティＣ棟　３階",
    "town_kana": "コウナンシナガワインターシティCトウ3カイ",
    "street": null,
    "office_name": null,
    "office_name_kana": null
  },
  "6204": {
    "postcode": "1086204",
    "prefecture": "東京都",
    "prefecture_kana": "トウキョウト",
    "prefecture_code": 13,
    "city": "港区",
    "city_kana": "ミナトク",
    "town": "港南品川インターシティＣ棟　４階",
    "town_kana": "コウナンシナガワインターシティCトウ4カイ",
    "street": null,
    "office_name": null,
    "office_name_kana": null
  },
  "6205": {
    "postcode": "1086205",
    "prefecture": "東京都",
    "prefecture_kana": "トウキョウト",
    "prefecture_code": 13,
    "city": "港区",
    "city_kana": "ミナトク",
    "town": "港南品川インターシティＣ棟　５階",
    "town_kana": "コウナンシナガワインターシティCトウ5カイ",
    "street": null,
    "office_name": null,
    "office_name_kana": null
  },
  "6206": {
    "postcode": "1086206",
    "prefecture": "東京都",
    "prefecture_kana": "トウキョウト",
    "prefecture_code": 13,
    "city": "港区",
    "city_kana": "ミナトク",
    "town": "港南品川インターシティＣ棟　６階",
    "town_kana": "コウナンシナガワインターシティCトウ6カイ",
    "street": null,
    "office_name": null,
    "office_name_kana": null
  },
  "6207": {
    "postcode": "1086207",
    "prefecture": "東京都",
    "prefecture_kana": "トウキョウト",
    "prefecture_code": 13,
    "city": "港区",
    "city_kana": "ミナトク",
    "town": "港南品川インターシティＣ棟　７階",
    "town_kana": "コウナンシナガワインターシティCトウ7カイ",
    "street": null,
    "office_name": null,
    "office_name_kana": null
  },
  "6208": {
    "postcode": "1086208",
    "prefecture": "東京都",
    "prefecture_kana": "トウキョウト",
    "prefecture_code": 13,
    "city": "港区",
    "city_kana": "ミナトク",
    "town": "港南品川インターシティＣ棟　８階",
    "town_kana": "コウナンシナガワインターシティCトウ8カイ",
    "street": null,
    "office_name": null,
    "office_name_kana": null
  },
  "6209": {
    "postcode": "1086209",
    "prefecture": "東京都",
    "prefecture_kana": "トウキョウト",
    "prefecture_code": 13,
    "city": "港区",
    "city_kana": "ミナトク",
    "town": "港南品川インターシティＣ棟　９階",
    "town_kana": "コウナンシナガワインターシティCトウ9カイ",
    "street": null,
    "office_name": null,
    "office_name_kana": null
  },
  "6210": {
    "postcode": "1086210",
    "prefecture": "東京都",
    "prefecture_kana": "トウキョウト",
    "prefecture_code": 13,
    "city": "港区",
    "city_kana": "ミナトク",
    "town": "港南品川インターシティＣ棟　１０階",
    "town_kana": "コウナンシナガワインターシティCトウ10カイ",
    "street": null,
    "office_name": null,
    "office_name_kana": null
  },
  "6211": {
    "postcode": "1086211",
    "prefecture": "東京都",
    "prefecture_kana": "トウキョウト",
    "prefecture_code": 13,
    "city": "港区",
    "city_kana": "ミナトク",
    "town": "港南品川インターシティＣ棟　１１階",
    "town_kana": "コウナンシナガワインターシティCトウ11カイ",
    "street": null,
    "office_name": null,
    "office_name_kana": null
  },
  "6212": {
    "postcode": "1086212",
    "prefecture": "東京都",
    "prefecture_kana": "トウキョウト",
    "prefecture_code": 13,
    "city": "港区",
    "city_kana": "ミナトク",
    "town": "港南品川インターシティＣ棟　１２階",
    "town_kana": "コウナンシナガワインターシティCトウ12カイ",
    "street": null,
    "office_name": null,
    "office_name_kana": null
  },
  "6213": {
    "postcode": "1086213",
    "prefecture": "東京都",
    "prefecture_kana": "トウキョウト",
    "prefecture_code": 13,
    "city": "港区",
    "city_kana": "ミナトク",
    "town": "港南品川インターシティＣ棟　１３階",
    "town_kana": "コウナンシナガワインターシティCトウ13カイ",
    "street": null,
    "office_name": null,
    "office_name_kana": null
  },
  "6214": {
    "postcode": "1086214",
    "prefecture": "東京都",
    "prefecture_kana": "トウキョウト",
    "prefecture_code": 13,
    "city": "港区",
    "city_kana": "ミナトク",
    "town": "港南品川インターシティＣ棟　１４階",
    "town_kana": "コウナンシナガワインターシティCトウ14カイ",
    "street": null,
    "office_name": null,
    "office_name_kana": null
  },
  "6215": {
    "postcode": "1086215",
    "prefecture": "東京都",
    "prefecture_kana": "トウキョウト",
    "prefecture_code": 13,
    "city": "港区",
    "city_kana": "ミナトク",
    "town": "港南品川インターシティＣ棟　１５階",
    "town_kana": "コウナンシナガワインターシティCトウ15カイ",
    "street": null,
    "office_name": null,
    "office_name_kana": null
  },
  "6216": {
    "postcode": "1086216",
    "prefecture": "東京都",
    "prefecture_kana": "トウキョウト",
    "prefecture_code": 13,
    "city": "港区",
    "city_kana": "ミナトク",
    "town": "港南品川インターシティＣ棟　１６階",
    "town_kana": "コウナンシナガワインターシティCトウ16カイ",
    "street": null,
    "office_name": null,
    "office_name_kana": null
  },
  "6217": {
    "postcode": "1086217",
    "prefecture": "東京都",
    "prefecture_kana": "トウキョウト",
    "prefecture_code": 13,
    "city": "港区",
    "city_kana": "ミナトク",
    "town": "港南品川インターシティＣ棟　１７階",
    "town_kana": "コウナンシナガワインターシティCトウ17カイ",
    "street": null,
    "office_name": null,
    "office_name_kana": null
  },
  "6218": {
    "postcode": "1086218",
    "prefecture": "東京都",
    "prefecture_kana": "トウキョウト",
    "prefecture_code": 13,
    "city": "港区",
    "city_kana": "ミナトク",
    "town": "港南品川インターシティＣ棟　１８階",
    "town_kana": "コウナンシナガワインターシティCトウ18カイ",
    "street": null,
    "office_name": null,
    "office_name_kana": null
  },
  "6219": {
    "postcode": "1086219",
    "prefecture": "東京都",
    "prefecture_kana": "トウキョウト",
    "prefecture_code": 13,
    "city": "港区",
    "city_kana": "ミナトク",
    "town": "港南品川インターシティＣ棟　１９階",
    "town_kana": "コウナンシナガワインターシティCトウ19カイ",
    "street": null,
    "office_name": null,
    "office_name_kana": null
  },
  "6220": {
    "postcode": "1086220",
    "prefecture": "東京都",
    "prefecture_kana": "トウキョウト",
    "prefecture_code": 13,
    "city": "港区",
    "city_kana": "ミナトク",
    "town": "港南品川インターシティＣ棟　２０階",
    "town_kana": "コウナンシナガワインターシティCトウ20カイ",
    "street": null,
    "office_name": null,
    "office_name_kana": null
  },
  "6221": {
    "postcode": "1086221",
    "prefecture": "東京都",
    "prefecture_kana": "トウキョウト",
    "prefecture_code": 13,
    "city": "港区",
    "city_kana": "ミナトク",
    "town": "港南品川インターシティＣ棟　２１階",
    "town_kana": "コウナンシナガワインターシティCトウ21カイ",
    "street": null,
    "office_name": null,
    "office_name_kana": null
  },
  "6222": {
    "postcode": "1086222",
    "prefecture": "東京都",
    "prefecture_kana": "トウキョウト",
    "prefecture_code": 13,
    "city": "港区",
    "city_kana": "ミナトク",
    "town": "港南品川インターシティＣ棟　２２階",
    "town_kana": "コウナンシナガワインターシティCトウ22カイ",
    "street": null,
    "office_name": null,
    "office_name_kana": null
  },
  "6223": {
    "postcode": "1086223",
    "prefecture": "東京都",
    "prefecture_kana": "トウキョウト",
    "prefecture_code": 13,
    "city": "港区",
    "city_kana": "ミナトク",
    "town": "港南品川インターシティＣ棟　２３階",
    "town_kana": "コウナンシナガワインターシティCトウ23カイ",
    "street": null,
    "office_name": null,
    "office_name_kana": null
  },
  "6224": {
    "postcode": "1086224",
    "prefecture": "東京都",
    "prefecture_kana": "トウキョウト",
    "prefecture_code": 13,
    "city": "港区",
    "city_kana": "ミナトク",
    "town": "港南品川インターシティＣ棟　２４階",
    "town_kana": "コウナンシナガワインターシティCトウ24カイ",
    "street": null,
    "office_name": null,
    "office_name_kana": null
  },
  "6225": {
    "postcode": "1086225",
    "prefecture": "東京都",
    "prefecture_kana": "トウキョウト",
    "prefecture_code": 13,
    "city": "港区",
    "city_kana": "ミナトク",
    "town": "港南品川インターシティＣ棟　２５階",
    "town_kana": "コウナンシナガワインターシティCトウ25カイ",
    "street": null,
    "office_name": null,
    "office_name_kana": null
  },
  "6226": {
    "postcode": "1086226",
    "prefecture": "東京都",
    "prefecture_kana": "トウキョウト",
    "prefecture_code": 13,
    "city": "港区",
    "city_kana": "ミナトク",
    "town": "港南品川インターシティＣ棟　２６階",
    "town_kana": "コウナンシナガワインターシティCトウ26カイ",
    "street": null,
    "office_name": null,
    "office_name_kana": null
  },
  "6227": {
    "postcode": "1086227",
    "prefecture": "東京都",
    "prefecture_kana": "トウキョウト",
    "prefecture_code": 13,
    "city": "港区",
    "city_kana": "ミナトク",
    "town": "港南品川インターシティＣ棟　２７階",
    "town_kana": "コウナンシナガワインターシティCトウ27カイ",
    "street": null,
    "office_name": null,
    "office_name_kana": null
  },
  "6228": {
    "postcode": "1086228",
    "prefecture": "東京都",
    "prefecture_kana": "トウキョウト",
    "prefecture_code": 13,
    "city": "港区",
    "city_kana": "ミナトク",
    "town": "港南品川インターシティＣ棟　２８階",
    "town_kana": "コウナンシナガワインターシティCトウ28カイ",
    "street": null,
    "office_name": null,
    "office_name_kana": null
  },
  "6229": {
    "postcode": "1086229",
    "prefecture": "東京都",
    "prefecture_kana": "トウキョウト",
    "prefecture_code": 13,
    "city": "港区",
    "city_kana": "ミナトク",
    "town": "港南品川インターシティＣ棟　２９階",
    "town_kana": "コウナンシナガワインターシティCトウ29カイ",
    "street": null,
    "office_name": null,
    "office_name_kana": null
  },
  "6230": {
    "postcode": "1086230",
    "prefecture": "東京都",
    "prefecture_kana": "トウキョウト",
    "prefecture_code": 13,
    "city": "港区",
    "city_kana": "ミナトク",
    "town": "港南品川インターシティＣ棟　３０階",
    "town_kana": "コウナンシナガワインターシティCトウ30カイ",
    "street": null,
    "office_name": null,
    "office_name_kana": null
  },
  "6231": {
    "postcode": "1086231",
    "prefecture": "東京都",
    "prefecture_kana": "トウキョウト",
    "prefecture_code": 13,
    "city": "港区",
    "city_kana": "ミナトク",
    "town": "港南品川インターシティＣ棟　３１階",
    "town_kana": "コウナンシナガワインターシティCトウ31カイ",
    "street": null,
    "office_name": null,
    "office_name_kana": null
  },
  "6290": {
    "postcode": "1086290",
    "prefecture": "東京都",
    "prefecture_kana": "トウキョウト",
    "prefecture_code": 13,
    "city": "港区",
    "city_kana": "ミナトク",
    "town": "港南品川インターシティＣ棟",
    "town_kana": "コウナンシナガワインターシティCトウ",
    "street": null,
    "office_name": null,
    "office_name_kana": null
  },
  "6301": {
    "postcode": "1086301",
    "prefecture": "東京都",
    "prefecture_kana": "トウキョウト",
    "prefecture_code": 13,
    "city": "港区",
    "city_kana": "ミナトク",
    "town": "三田住友不動産三田ツインビル西館　１階",
    "town_kana": "ミタスミトモフドウサンミタツインビルニシカン1カイ",
    "street": null,
    "office_name": null,
    "office_name_kana": null
  },
  "6302": {
    "postcode": "1086302",
    "prefecture": "東京都",
    "prefecture_kana": "トウキョウト",
    "prefecture_code": 13,
    "city": "港区",
    "city_kana": "ミナトク",
    "town": "三田住友不動産三田ツインビル西館　２階",
    "town_kana": "ミタスミトモフドウサンミタツインビルニシカン2カイ",
    "street": null,
    "office_name": null,
    "office_name_kana": null
  },
  "6303": {
    "postcode": "1086303",
    "prefecture": "東京都",
    "prefecture_kana": "トウキョウト",
    "prefecture_code": 13,
    "city": "港区",
    "city_kana": "ミナトク",
    "town": "三田住友不動産三田ツインビル西館　３階",
    "town_kana": "ミタスミトモフドウサンミタツインビルニシカン3カイ",
    "street": null,
    "office_name": null,
    "office_name_kana": null
  },
  "6304": {
    "postcode": "1086304",
    "prefecture": "東京都",
    "prefecture_kana": "トウキョウト",
    "prefecture_code": 13,
    "city": "港区",
    "city_kana": "ミナトク",
    "town": "三田住友不動産三田ツインビル西館　４階",
    "town_kana": "ミタスミトモフドウサンミタツインビルニシカン4カイ",
    "street": null,
    "office_name": null,
    "office_name_kana": null
  },
  "6305": {
    "postcode": "1086305",
    "prefecture": "東京都",
    "prefecture_kana": "トウキョウト",
    "prefecture_code": 13,
    "city": "港区",
    "city_kana": "ミナトク",
    "town": "三田住友不動産三田ツインビル西館　５階",
    "town_kana": "ミタスミトモフドウサンミタツインビルニシカン5カイ",
    "street": null,
    "office_name": null,
    "office_name_kana": null
  },
  "6306": {
    "postcode": "1086306",
    "prefecture": "東京都",
    "prefecture_kana": "トウキョウト",
    "prefecture_code": 13,
    "city": "港区",
    "city_kana": "ミナトク",
    "town": "三田住友不動産三田ツインビル西館　６階",
    "town_kana": "ミタスミトモフドウサンミタツインビルニシカン6カイ",
    "street": null,
    "office_name": null,
    "office_name_kana": null
  },
  "6307": {
    "postcode": "1086307",
    "prefecture": "東京都",
    "prefecture_kana": "トウキョウト",
    "prefecture_code": 13,
    "city": "港区",
    "city_kana": "ミナトク",
    "town": "三田住友不動産三田ツインビル西館　７階",
    "town_kana": "ミタスミトモフドウサンミタツインビルニシカン7カイ",
    "street": null,
    "office_name": null,
    "office_name_kana": null
  },
  "6308": {
    "postcode": "1086308",
    "prefecture": "東京都",
    "prefecture_kana": "トウキョウト",
    "prefecture_code": 13,
    "city": "港区",
    "city_kana": "ミナトク",
    "town": "三田住友不動産三田ツインビル西館　８階",
    "town_kana": "ミタスミトモフドウサンミタツインビルニシカン8カイ",
    "street": null,
    "office_name": null,
    "office_name_kana": null
  },
  "6309": {
    "postcode": "1086309",
    "prefecture": "東京都",
    "prefecture_kana": "トウキョウト",
    "prefecture_code": 13,
    "city": "港区",
    "city_kana": "ミナトク",
    "town": "三田住友不動産三田ツインビル西館　９階",
    "town_kana": "ミタスミトモフドウサンミタツインビルニシカン9カイ",
    "street": null,
    "office_name": null,
    "office_name_kana": null
  },
  "6310": {
    "postcode": "1086310",
    "prefecture": "東京都",
    "prefecture_kana": "トウキョウト",
    "prefecture_code": 13,
    "city": "港区",
    "city_kana": "ミナトク",
    "town": "三田住友不動産三田ツインビル西館　１０階",
    "town_kana": "ミタスミトモフドウサンミタツインビルニシカン10カイ",
    "street": null,
    "office_name": null,
    "office_name_kana": null
  },
  "6311": {
    "postcode": "1086311",
    "prefecture": "東京都",
    "prefecture_kana": "トウキョウト",
    "prefecture_code": 13,
    "city": "港区",
    "city_kana": "ミナトク",
    "town": "三田住友不動産三田ツインビル西館　１１階",
    "town_kana": "ミタスミトモフドウサンミタツインビルニシカン11カイ",
    "street": null,
    "office_name": null,
    "office_name_kana": null
  },
  "6312": {
    "postcode": "1086312",
    "prefecture": "東京都",
    "prefecture_kana": "トウキョウト",
    "prefecture_code": 13,
    "city": "港区",
    "city_kana": "ミナトク",
    "town": "三田住友不動産三田ツインビル西館　１２階",
    "town_kana": "ミタスミトモフドウサンミタツインビルニシカン12カイ",
    "street": null,
    "office_name": null,
    "office_name_kana": null
  },
  "6313": {
    "postcode": "1086313",
    "prefecture": "東京都",
    "prefecture_kana": "トウキョウト",
    "prefecture_code": 13,
    "city": "港区",
    "city_kana": "ミナトク",
    "town": "三田住友不動産三田ツインビル西館　１３階",
    "town_kana": "ミタスミトモフドウサンミタツインビルニシカン13カイ",
    "street": null,
    "office_name": null,
    "office_name_kana": null
  },
  "6314": {
    "postcode": "1086314",
    "prefecture": "東京都",
    "prefecture_kana": "トウキョウト",
    "prefecture_code": 13,
    "city": "港区",
    "city_kana": "ミナトク",
    "town": "三田住友不動産三田ツインビル西館　１４階",
    "town_kana": "ミタスミトモフドウサンミタツインビルニシカン14カイ",
    "street": null,
    "office_name": null,
    "office_name_kana": null
  },
  "6315": {
    "postcode": "1086315",
    "prefecture": "東京都",
    "prefecture_kana": "トウキョウト",
    "prefecture_code": 13,
    "city": "港区",
    "city_kana": "ミナトク",
    "town": "三田住友不動産三田ツインビル西館　１５階",
    "town_kana": "ミタスミトモフドウサンミタツインビルニシカン15カイ",
    "street": null,
    "office_name": null,
    "office_name_kana": null
  },
  "6316": {
    "postcode": "1086316",
    "prefecture": "東京都",
    "prefecture_kana": "トウキョウト",
    "prefecture_code": 13,
    "city": "港区",
    "city_kana": "ミナトク",
    "town": "三田住友不動産三田ツインビル西館　１６階",
    "town_kana": "ミタスミトモフドウサンミタツインビルニシカン16カイ",
    "street": null,
    "office_name": null,
    "office_name_kana": null
  },
  "6317": {
    "postcode": "1086317",
    "prefecture": "東京都",
    "prefecture_kana": "トウキョウト",
    "prefecture_code": 13,
    "city": "港区",
    "city_kana": "ミナトク",
    "town": "三田住友不動産三田ツインビル西館　１７階",
    "town_kana": "ミタスミトモフドウサンミタツインビルニシカン17カイ",
    "street": null,
    "office_name": null,
    "office_name_kana": null
  },
  "6318": {
    "postcode": "1086318",
    "prefecture": "東京都",
    "prefecture_kana": "トウキョウト",
    "prefecture_code": 13,
    "city": "港区",
    "city_kana": "ミナトク",
    "town": "三田住友不動産三田ツインビル西館　１８階",
    "town_kana": "ミタスミトモフドウサンミタツインビルニシカン18カイ",
    "street": null,
    "office_name": null,
    "office_name_kana": null
  },
  "6319": {
    "postcode": "1086319",
    "prefecture": "東京都",
    "prefecture_kana": "トウキョウト",
    "prefecture_code": 13,
    "city": "港区",
    "city_kana": "ミナトク",
    "town": "三田住友不動産三田ツインビル西館　１９階",
    "town_kana": "ミタスミトモフドウサンミタツインビルニシカン19カイ",
    "street": null,
    "office_name": null,
    "office_name_kana": null
  },
  "6320": {
    "postcode": "1086320",
    "prefecture": "東京都",
    "prefecture_kana": "トウキョウト",
    "prefecture_code": 13,
    "city": "港区",
    "city_kana": "ミナトク",
    "town": "三田住友不動産三田ツインビル西館　２０階",
    "town_kana": "ミタスミトモフドウサンミタツインビルニシカン20カイ",
    "street": null,
    "office_name": null,
    "office_name_kana": null
  },
  "6321": {
    "postcode": "1086321",
    "prefecture": "東京都",
    "prefecture_kana": "トウキョウト",
    "prefecture_code": 13,
    "city": "港区",
    "city_kana": "ミナトク",
    "town": "三田住友不動産三田ツインビル西館　２１階",
    "town_kana": "ミタスミトモフドウサンミタツインビルニシカン21カイ",
    "street": null,
    "office_name": null,
    "office_name_kana": null
  },
  "6322": {
    "postcode": "1086322",
    "prefecture": "東京都",
    "prefecture_kana": "トウキョウト",
    "prefecture_code": 13,
    "city": "港区",
    "city_kana": "ミナトク",
    "town": "三田住友不動産三田ツインビル西館　２２階",
    "town_kana": "ミタスミトモフドウサンミタツインビルニシカン22カイ",
    "street": null,
    "office_name": null,
    "office_name_kana": null
  },
  "6323": {
    "postcode": "1086323",
    "prefecture": "東京都",
    "prefecture_kana": "トウキョウト",
    "prefecture_code": 13,
    "city": "港区",
    "city_kana": "ミナトク",
    "town": "三田住友不動産三田ツインビル西館　２３階",
    "town_kana": "ミタスミトモフドウサンミタツインビルニシカン23カイ",
    "street": null,
    "office_name": null,
    "office_name_kana": null
  },
  "6324": {
    "postcode": "1086324",
    "prefecture": "東京都",
    "prefecture_kana": "トウキョウト",
    "prefecture_code": 13,
    "city": "港区",
    "city_kana": "ミナトク",
    "town": "三田住友不動産三田ツインビル西館　２４階",
    "town_kana": "ミタスミトモフドウサンミタツインビルニシカン24カイ",
    "street": null,
    "office_name": null,
    "office_name_kana": null
  },
  "6325": {
    "postcode": "1086325",
    "prefecture": "東京都",
    "prefecture_kana": "トウキョウト",
    "prefecture_code": 13,
    "city": "港区",
    "city_kana": "ミナトク",
    "town": "三田住友不動産三田ツインビル西館　２５階",
    "town_kana": "ミタスミトモフドウサンミタツインビルニシカン25カイ",
    "street": null,
    "office_name": null,
    "office_name_kana": null
  },
  "6326": {
    "postcode": "1086326",
    "prefecture": "東京都",
    "prefecture_kana": "トウキョウト",
    "prefecture_code": 13,
    "city": "港区",
    "city_kana": "ミナトク",
    "town": "三田住友不動産三田ツインビル西館　２６階",
    "town_kana": "ミタスミトモフドウサンミタツインビルニシカン26カイ",
    "street": null,
    "office_name": null,
    "office_name_kana": null
  },
  "6327": {
    "postcode": "1086327",
    "prefecture": "東京都",
    "prefecture_kana": "トウキョウト",
    "prefecture_code": 13,
    "city": "港区",
    "city_kana": "ミナトク",
    "town": "三田住友不動産三田ツインビル西館　２７階",
    "town_kana": "ミタスミトモフドウサンミタツインビルニシカン27カイ",
    "street": null,
    "office_name": null,
    "office_name_kana": null
  },
  "6328": {
    "postcode": "1086328",
    "prefecture": "東京都",
    "prefecture_kana": "トウキョウト",
    "prefecture_code": 13,
    "city": "港区",
    "city_kana": "ミナトク",
    "town": "三田住友不動産三田ツインビル西館　２８階",
    "town_kana": "ミタスミトモフドウサンミタツインビルニシカン28カイ",
    "street": null,
    "office_name": null,
    "office_name_kana": null
  },
  "6329": {
    "postcode": "1086329",
    "prefecture": "東京都",
    "prefecture_kana": "トウキョウト",
    "prefecture_code": 13,
    "city": "港区",
    "city_kana": "ミナトク",
    "town": "三田住友不動産三田ツインビル西館　２９階",
    "town_kana": "ミタスミトモフドウサンミタツインビルニシカン29カイ",
    "street": null,
    "office_name": null,
    "office_name_kana": null
  },
  "6330": {
    "postcode": "1086330",
    "prefecture": "東京都",
    "prefecture_kana": "トウキョウト",
    "prefecture_code": 13,
    "city": "港区",
    "city_kana": "ミナトク",
    "town": "三田住友不動産三田ツインビル西館　３０階",
    "town_kana": "ミタスミトモフドウサンミタツインビルニシカン30カイ",
    "street": null,
    "office_name": null,
    "office_name_kana": null
  },
  "6350": {
    "postcode": "1086350",
    "prefecture": "東京都",
    "prefecture_kana": "トウキョウト",
    "prefecture_code": 13,
    "city": "港区",
    "city_kana": "ミナトク",
    "town": "三田",
    "town_kana": "ミタ",
    "street": "３丁目５−２７住友不動産三田ツインビル西館７階",
    "office_name": "ＳＭＢＣファイナンスサービス　株式会社",
    "office_name_kana": "エスエムビ-シ-フアイナンスサ-ビス カブシキガイシヤ"
  },
  "6363": {
    "postcode": "1086363",
    "prefecture": "東京都",
    "prefecture_kana": "トウキョウト",
    "prefecture_code": 13,
    "city": "港区",
    "city_kana": "ミナトク",
    "town": "三田",
    "town_kana": "ミタ",
    "street": "３丁目５番２７号住友不動産三田ツインビル西館７階",
    "office_name": "ＳＭＢＣ電子債権記録　株式会社",
    "office_name_kana": "エスエムビ-シ-デンシサイケンキロク カブシキガイシヤ"
  },
  "6390": {
    "postcode": "1086390",
    "prefecture": "東京都",
    "prefecture_kana": "トウキョウト",
    "prefecture_code": 13,
    "city": "港区",
    "city_kana": "ミナトク",
    "town": "三田住友不動産三田ツインビル西館",
    "town_kana": "ミタスミトモフドウサンミタツインビルニシカン",
    "street": null,
    "office_name": null,
    "office_name_kana": null
  },
  "8001": {
    "postcode": "1088001",
    "prefecture": "東京都",
    "prefecture_kana": "トウキョウト",
    "prefecture_code": 13,
    "city": "港区",
    "city_kana": "ミナトク",
    "town": "芝",
    "town_kana": "シバ",
    "street": "５丁目７−１ＮＥＣ本社ビル",
    "office_name": "日本電気　株式会社",
    "office_name_kana": "ニツポンデンキ カブシキガイシヤ"
  },
  "8005": {
    "postcode": "1088005",
    "prefecture": "東京都",
    "prefecture_kana": "トウキョウト",
    "prefecture_code": 13,
    "city": "港区",
    "city_kana": "ミナトク",
    "town": "港南",
    "town_kana": "コウナン",
    "street": "１−８−１５Ｗビル",
    "office_name": "ＥＮＥＯＳ　株式会社",
    "office_name_kana": "エネオス カブシキガイシヤ"
  },
  "8011": {
    "postcode": "1088011",
    "prefecture": "東京都",
    "prefecture_kana": "トウキョウト",
    "prefecture_code": 13,
    "city": "港区",
    "city_kana": "ミナトク",
    "town": "港南",
    "town_kana": "コウナン",
    "street": "２丁目１６−６",
    "office_name": "キヤノンマーケティングジャパン　株式会社",
    "office_name_kana": "キヤノンマ-ケテイングジヤパン カブシキガイシヤ"
  },
  "8015": {
    "postcode": "1088015",
    "prefecture": "東京都",
    "prefecture_kana": "トウキョウト",
    "prefecture_code": 13,
    "city": "港区",
    "city_kana": "ミナトク",
    "town": "芝",
    "town_kana": "シバ",
    "street": "五丁目３３番１１号",
    "office_name": "三菱重工業　株式会社",
    "office_name_kana": "ミツビシジユウコウギヨウ カブシキガイシヤ"
  },
  "8020": {
    "postcode": "1088020",
    "prefecture": "東京都",
    "prefecture_kana": "トウキョウト",
    "prefecture_code": 13,
    "city": "港区",
    "city_kana": "ミナトク",
    "town": "白金",
    "town_kana": "シロカネ",
    "street": "１丁目１７−３ＮＢＦプラチナタワー１５Ｆ",
    "office_name": "アクサ生命保険　株式会社",
    "office_name_kana": "アクサセイメイホケン カブシキガイシヤ"
  },
  "8050": {
    "postcode": "1088050",
    "prefecture": "東京都",
    "prefecture_kana": "トウキョウト",
    "prefecture_code": 13,
    "city": "港区",
    "city_kana": "ミナトク",
    "town": "白金",
    "town_kana": "シロカネ",
    "street": "１丁目１７−３ＮＢＦプラチナタワー２Ｆ",
    "office_name": "サクサ　株式会社",
    "office_name_kana": "サクサ カブシキガイシヤ"
  },
  "8071": {
    "postcode": "1088071",
    "prefecture": "東京都",
    "prefecture_kana": "トウキョウト",
    "prefecture_code": 13,
    "city": "港区",
    "city_kana": "ミナトク",
    "town": "芝浦",
    "town_kana": "シバウラ",
    "street": "４丁目５−４",
    "office_name": "株式会社　ジャパンタイムズ",
    "office_name_kana": "カブシキガイシヤ ジヤパンタイムズ"
  },
  "8080": {
    "postcode": "1088080",
    "prefecture": "東京都",
    "prefecture_kana": "トウキョウト",
    "prefecture_code": 13,
    "city": "港区",
    "city_kana": "ミナトク",
    "town": "海岸",
    "town_kana": "カイガン",
    "street": "３丁目２０−２０",
    "office_name": "クラシエホールディングス　株式会社",
    "office_name_kana": "クラシエホ-ルデイングス カブシキガイシヤ"
  },
  "8117": {
    "postcode": "1088117",
    "prefecture": "東京都",
    "prefecture_kana": "トウキョウト",
    "prefecture_code": 13,
    "city": "港区",
    "city_kana": "ミナトク",
    "town": "港南",
    "town_kana": "コウナン",
    "street": "２丁目１６−４",
    "office_name": "株式会社　セディナ",
    "office_name_kana": "カブシキガイシヤ セデイナ"
  },
  "8118": {
    "postcode": "1088118",
    "prefecture": "東京都",
    "prefecture_kana": "トウキョウト",
    "prefecture_code": 13,
    "city": "港区",
    "city_kana": "ミナトク",
    "town": "芝浦",
    "town_kana": "シバウラ",
    "street": "３−４−１グランパークタワー",
    "office_name": "エヌ・ティ・ティ・コミュニケーションズ　株式会社",
    "office_name_kana": "エヌ・テイ・テイ・コミユニケ-シヨンズ カブシキガイシヤ"
  },
  "8201": {
    "postcode": "1088201",
    "prefecture": "東京都",
    "prefecture_kana": "トウキョウト",
    "prefecture_code": 13,
    "city": "港区",
    "city_kana": "ミナトク",
    "town": "港南",
    "town_kana": "コウナン",
    "street": "２丁目１６−１",
    "office_name": "ＫＤＤＩ　株式会社",
    "office_name_kana": "ケイデイ-デイ-アイ カブシキガイシヤ"
  },
  "8202": {
    "postcode": "1088202",
    "prefecture": "東京都",
    "prefecture_kana": "トウキョウト",
    "prefecture_code": 13,
    "city": "港区",
    "city_kana": "ミナトク",
    "town": "芝浦",
    "town_kana": "シバウラ",
    "street": "３−４−１田町グランパークタワー１５Ｆ",
    "office_name": "ＮＴＴテクノクロス　株式会社",
    "office_name_kana": "エヌ・テイ・テイ・テクノクロス カブシキガイシヤ"
  },
  "8203": {
    "postcode": "1088203",
    "prefecture": "東京都",
    "prefecture_kana": "トウキョウト",
    "prefecture_code": 13,
    "city": "港区",
    "city_kana": "ミナトク",
    "town": "港南",
    "town_kana": "コウナン",
    "street": "１丁目６番３１号品川東急ビル",
    "office_name": "外国人技能実習機構　東京事務所",
    "office_name_kana": "ガイコクジンギノウジツシユウキコウ トウキヨウジムシヨ"
  },
  "8206": {
    "postcode": "1088206",
    "prefecture": "東京都",
    "prefecture_kana": "トウキョウト",
    "prefecture_code": 13,
    "city": "港区",
    "city_kana": "ミナトク",
    "town": "港南",
    "town_kana": "コウナン",
    "street": "１丁目２番７０号品川シーズンテラス２５階",
    "office_name": "公益財団法人　ＪＫＡ",
    "office_name_kana": "コウエキザイダンホウジン ジエ-ケ-エ-"
  },
  "8207": {
    "postcode": "1088207",
    "prefecture": "東京都",
    "prefecture_kana": "トウキョウト",
    "prefecture_code": 13,
    "city": "港区",
    "city_kana": "ミナトク",
    "town": "港南",
    "town_kana": "コウナン",
    "street": "２−１５−３品川インターシティＣ棟",
    "office_name": "株式会社　富士通マーケティング",
    "office_name_kana": "カブシキガイシヤ フジツウマ-ケテイング"
  },
  "8208": {
    "postcode": "1088208",
    "prefecture": "東京都",
    "prefecture_kana": "トウキョウト",
    "prefecture_code": 13,
    "city": "港区",
    "city_kana": "ミナトク",
    "town": "港南",
    "town_kana": "コウナン",
    "street": "２丁目３番１３号",
    "office_name": "豊田通商　株式会社",
    "office_name_kana": "トヨタツウシヨウ カブシキガイシヤ"
  },
  "8209": {
    "postcode": "1088209",
    "prefecture": "東京都",
    "prefecture_kana": "トウキョウト",
    "prefecture_code": 13,
    "city": "港区",
    "city_kana": "ミナトク",
    "town": "港南",
    "town_kana": "コウナン",
    "street": "１丁目２番７０号品川シーズンテラスビル１２階",
    "office_name": "株式会社　ＪＡＬＵＸ",
    "office_name_kana": "カブシキガイシヤ ジヤルツクス"
  },
  "8210": {
    "postcode": "1088210",
    "prefecture": "東京都",
    "prefecture_kana": "トウキョウト",
    "prefecture_code": 13,
    "city": "港区",
    "city_kana": "ミナトク",
    "town": "港南",
    "town_kana": "コウナン",
    "street": "２−１５−３品川インターシティＣ棟１２Ｆ",
    "office_name": "株式会社　ソラスト",
    "office_name_kana": "カブシキガイシヤ ソラスト"
  },
  "8211": {
    "postcode": "1088211",
    "prefecture": "東京都",
    "prefecture_kana": "トウキョウト",
    "prefecture_code": 13,
    "city": "港区",
    "city_kana": "ミナトク",
    "town": "港南",
    "town_kana": "コウナン",
    "street": "２丁目１６−１",
    "office_name": "大東建託　株式会社",
    "office_name_kana": "ダイトウケンタク カブシキガイシヤ"
  },
  "8212": {
    "postcode": "1088212",
    "prefecture": "東京都",
    "prefecture_kana": "トウキョウト",
    "prefecture_code": 13,
    "city": "港区",
    "city_kana": "ミナトク",
    "town": "港南",
    "town_kana": "コウナン",
    "street": "１−６−４１品川クリスタルスクエア８Ｆ",
    "office_name": "ＦＤＫ　株式会社",
    "office_name_kana": "エフ・デイ-・ケイ カブシキカイシヤ"
  },
  "8216": {
    "postcode": "1088216",
    "prefecture": "東京都",
    "prefecture_kana": "トウキョウト",
    "prefecture_code": 13,
    "city": "港区",
    "city_kana": "ミナトク",
    "town": "港南",
    "town_kana": "コウナン",
    "street": "２丁目３番１３号品川フロントビル１１階",
    "office_name": "豊通ケミプラス　株式会社",
    "office_name_kana": "トヨツウケミプラス カブシキガイシヤ"
  },
  "8217": {
    "postcode": "1088217",
    "prefecture": "東京都",
    "prefecture_kana": "トウキョウト",
    "prefecture_code": 13,
    "city": "港区",
    "city_kana": "ミナトク",
    "town": "港南",
    "town_kana": "コウナン",
    "street": "２−１６−２太陽生命品川ビル１２階",
    "office_name": "株式会社　山善",
    "office_name_kana": "カブシキガイシヤ ヤマゼン"
  },
  "8220": {
    "postcode": "1088220",
    "prefecture": "東京都",
    "prefecture_kana": "トウキョウト",
    "prefecture_code": 13,
    "city": "港区",
    "city_kana": "ミナトク",
    "town": "港南",
    "town_kana": "コウナン",
    "street": "１−２−７０品川シーズンテラス１９Ｆ・２０Ｆ",
    "office_name": "株式会社　丹青社",
    "office_name_kana": "カブシキカイシヤ タンセイシヤ"
  },
  "8222": {
    "postcode": "1088222",
    "prefecture": "東京都",
    "prefecture_kana": "トウキョウト",
    "prefecture_code": 13,
    "city": "港区",
    "city_kana": "ミナトク",
    "town": "港南",
    "town_kana": "コウナン",
    "street": "２丁目１６−２太陽生命品川ビル",
    "office_name": "椿本興業　（株）　東京本社",
    "office_name_kana": "ツバキモトコウギヨウ カブシキガイシヤ トウキヨウホンシヤ"
  },
  "8224": {
    "postcode": "1088224",
    "prefecture": "東京都",
    "prefecture_kana": "トウキョウト",
    "prefecture_code": 13,
    "city": "港区",
    "city_kana": "ミナトク",
    "town": "港南",
    "town_kana": "コウナン",
    "street": "１丁目２番７０号（品川シーズンテラス）",
    "office_name": "日立金属　株式会社",
    "office_name_kana": "ヒタチキンゾク カブシキガイシヤ"
  },
  "8225": {
    "postcode": "1088225",
    "prefecture": "東京都",
    "prefecture_kana": "トウキョウト",
    "prefecture_code": 13,
    "city": "港区",
    "city_kana": "ミナトク",
    "town": "港南",
    "town_kana": "コウナン",
    "street": "２−１６−６",
    "office_name": "キヤノンシステムアンドサポート　株式会社",
    "office_name_kana": "キヤノンシステムアンドサポ-ト カブシキガイシヤ"
  },
  "8230": {
    "postcode": "1088230",
    "prefecture": "東京都",
    "prefecture_kana": "トウキョウト",
    "prefecture_code": 13,
    "city": "港区",
    "city_kana": "ミナトク",
    "town": "港南",
    "town_kana": "コウナン",
    "street": "２−１８−１ＪＲ品川イーストビル",
    "office_name": "株式会社　ダイセル",
    "office_name_kana": "カブシキガイシヤ ダイセル"
  },
  "8231": {
    "postcode": "1088231",
    "prefecture": "東京都",
    "prefecture_kana": "トウキョウト",
    "prefecture_code": 13,
    "city": "港区",
    "city_kana": "ミナトク",
    "town": "港南",
    "town_kana": "コウナン",
    "street": "２−１８−１ＪＲ品川イーストビル１５Ｆ",
    "office_name": "ダイセルミライズ　株式会社",
    "office_name_kana": "ダイセルミライズ カブシキガイシヤ"
  },
  "8232": {
    "postcode": "1088232",
    "prefecture": "東京都",
    "prefecture_kana": "トウキョウト",
    "prefecture_code": 13,
    "city": "港区",
    "city_kana": "ミナトク",
    "town": "港南",
    "town_kana": "コウナン",
    "street": "２丁目１８−１",
    "office_name": "ダイセルバリューコーティング　（株）",
    "office_name_kana": "ダイセルバリユ-コ-テイング (カブ)"
  },
  "8233": {
    "postcode": "1088233",
    "prefecture": "東京都",
    "prefecture_kana": "トウキョウト",
    "prefecture_code": 13,
    "city": "港区",
    "city_kana": "ミナトク",
    "town": "港南",
    "town_kana": "コウナン",
    "street": "２丁目１８−１",
    "office_name": "ダイセル物流　株式会社",
    "office_name_kana": "ダイセルブツリユウ カブシキガイシヤ"
  },
  "8234": {
    "postcode": "1088234",
    "prefecture": "東京都",
    "prefecture_kana": "トウキョウト",
    "prefecture_code": 13,
    "city": "港区",
    "city_kana": "ミナトク",
    "town": "港南",
    "town_kana": "コウナン",
    "street": "２丁目１８−１",
    "office_name": "共栄殖産　（株）　東京営業所",
    "office_name_kana": "キヨウエイシヨクサン (カブ) トウキヨウエイギヨウシヨ"
  },
  "8240": {
    "postcode": "1088240",
    "prefecture": "東京都",
    "prefecture_kana": "トウキョウト",
    "prefecture_code": 13,
    "city": "港区",
    "city_kana": "ミナトク",
    "town": "港南",
    "town_kana": "コウナン",
    "street": "２−１６−４グランドセントラルタワー１０Ｆ",
    "office_name": "日本サムスン　株式会社",
    "office_name_kana": "ニホンサムスン カブシキガイシヤ"
  },
  "8241": {
    "postcode": "1088241",
    "prefecture": "東京都",
    "prefecture_kana": "トウキョウト",
    "prefecture_code": 13,
    "city": "港区",
    "city_kana": "ミナトク",
    "town": "港南",
    "town_kana": "コウナン",
    "street": "２丁目１６−４品川グランドセントラルタワー",
    "office_name": "大塚ホールディングス　株式会社",
    "office_name_kana": "オオツカホ-ルデイングス カブシキガイシヤ"
  },
  "8242": {
    "postcode": "1088242",
    "prefecture": "東京都",
    "prefecture_kana": "トウキョウト",
    "prefecture_code": 13,
    "city": "港区",
    "city_kana": "ミナトク",
    "town": "港南",
    "town_kana": "コウナン",
    "street": "２丁目１６番４号品川グランドセントラルタワー",
    "office_name": "大塚製薬　株式会社",
    "office_name_kana": "オオツカセイヤク カブシキガイシヤ"
  },
  "8243": {
    "postcode": "1088243",
    "prefecture": "東京都",
    "prefecture_kana": "トウキョウト",
    "prefecture_code": 13,
    "city": "港区",
    "city_kana": "ミナトク",
    "town": "港南",
    "town_kana": "コウナン",
    "street": "１丁目８番２３号ＳｈｉｎａｇａｗａＨＥＡＲＴ１３階",
    "office_name": "日本特殊陶業　株式会社　東京支社",
    "office_name_kana": "ニツポントクシユトウギヨウ カブシキガイシヤ トウキヨウシシヤ"
  },
  "8248": {
    "postcode": "1088248",
    "prefecture": "東京都",
    "prefecture_kana": "トウキョウト",
    "prefecture_code": 13,
    "city": "港区",
    "city_kana": "ミナトク",
    "town": "港南",
    "town_kana": "コウナン",
    "street": "２丁目１６番２号",
    "office_name": "マクセル　株式会社",
    "office_name_kana": "マクセル カブシキガイシヤ"
  },
  "8250": {
    "postcode": "1088250",
    "prefecture": "東京都",
    "prefecture_kana": "トウキョウト",
    "prefecture_code": 13,
    "city": "港区",
    "city_kana": "ミナトク",
    "town": "港南",
    "town_kana": "コウナン",
    "street": "２丁目１８−１ＪＲ品川イーストビル",
    "office_name": "株式会社　日立製作所　情報・通信システム社",
    "office_name_kana": "カブシキカイシヤ ヒタチセイサクシヨ ジヨウホウ・ツウシンシステムシヤ"
  },
  "8255": {
    "postcode": "1088255",
    "prefecture": "東京都",
    "prefecture_kana": "トウキョウト",
    "prefecture_code": 13,
    "city": "港区",
    "city_kana": "ミナトク",
    "town": "港南",
    "town_kana": "コウナン",
    "street": "５丁目５−３０",
    "office_name": "東京入国管理局",
    "office_name_kana": "トウキヨウニユウコクカンリキヨク"
  },
  "8270": {
    "postcode": "1088270",
    "prefecture": "東京都",
    "prefecture_kana": "トウキョウト",
    "prefecture_code": 13,
    "city": "港区",
    "city_kana": "ミナトク",
    "town": "港南",
    "town_kana": "コウナン",
    "street": "１−６−２７",
    "office_name": "株式会社　ソニー・コンピュータエンタテインメント",
    "office_name_kana": "カブシキガイシヤ ソニ-・コンピユ-タエンタテインメント"
  },
  "8275": {
    "postcode": "1088275",
    "prefecture": "東京都",
    "prefecture_kana": "トウキョウト",
    "prefecture_code": 13,
    "city": "港区",
    "city_kana": "ミナトク",
    "town": "港南",
    "town_kana": "コウナン",
    "street": "２丁目１６−１",
    "office_name": "日本トーター　株式会社",
    "office_name_kana": "ニツポント-タ- カブシキガイシヤ"
  },
  "8276": {
    "postcode": "1088276",
    "prefecture": "東京都",
    "prefecture_kana": "トウキョウト",
    "prefecture_code": 13,
    "city": "港区",
    "city_kana": "ミナトク",
    "town": "港南",
    "town_kana": "コウナン",
    "street": "５丁目５−３０",
    "office_name": "法務省　入国管理局　登録課分室",
    "office_name_kana": "ホウムシヨウ ニユウコクカンリキヨク トウロクカブンシツ"
  },
  "8280": {
    "postcode": "1088280",
    "prefecture": "東京都",
    "prefecture_kana": "トウキョウト",
    "prefecture_code": 13,
    "city": "港区",
    "city_kana": "ミナトク",
    "town": "港南",
    "town_kana": "コウナン",
    "street": "２丁目１８−１ＪＲ品川イーストビル１３階",
    "office_name": "ポリプラスチックス　株式会社",
    "office_name_kana": "ポリプラスチツクス カブシキガイシヤ"
  },
  "8282": {
    "postcode": "1088282",
    "prefecture": "東京都",
    "prefecture_kana": "トウキョウト",
    "prefecture_code": 13,
    "city": "港区",
    "city_kana": "ミナトク",
    "town": "港南",
    "town_kana": "コウナン",
    "street": "２丁目１６−１品川イーストワンタワー",
    "office_name": "ストリングスホテル東京インターコンチネンタル",
    "office_name_kana": "ストリングスホテルトウキヨウインタ-コンチネンタル"
  },
  "8288": {
    "postcode": "1088288",
    "prefecture": "東京都",
    "prefecture_kana": "トウキョウト",
    "prefecture_code": 13,
    "city": "港区",
    "city_kana": "ミナトク",
    "town": "港南",
    "town_kana": "コウナン",
    "street": "２−１６−２太陽生命品川ビル２７階",
    "office_name": "日本システム技術　株式会社",
    "office_name_kana": "ニホンシステムギジユツ カブシキガイシヤ"
  },
  "8301": {
    "postcode": "1088301",
    "prefecture": "東京都",
    "prefecture_kana": "トウキョウト",
    "prefecture_code": 13,
    "city": "港区",
    "city_kana": "ミナトク",
    "town": "三田",
    "town_kana": "ミタ",
    "street": "１−４−２８三田国際ビル１０Ｆ",
    "office_name": "株式会社　アイスター商事",
    "office_name_kana": "カブシキガイシヤ アイスタ-シヨウジ"
  },
  "8303": {
    "postcode": "1088303",
    "prefecture": "東京都",
    "prefecture_kana": "トウキョウト",
    "prefecture_code": 13,
    "city": "港区",
    "city_kana": "ミナトク",
    "town": "三田",
    "town_kana": "ミタ",
    "street": "３丁目１２−１５",
    "office_name": "住友電設　株式会社",
    "office_name_kana": "スミトモデンセツ カブシキガイシヤ"
  },
  "8305": {
    "postcode": "1088305",
    "prefecture": "東京都",
    "prefecture_kana": "トウキョウト",
    "prefecture_code": 13,
    "city": "港区",
    "city_kana": "ミナトク",
    "town": "三田",
    "town_kana": "ミタ",
    "street": "１丁目４−２８",
    "office_name": "株式会社　ＮＥＣライベックス",
    "office_name_kana": "カブシキガイシヤ エヌイ-シ-ライベツクス"
  },
  "8307": {
    "postcode": "1088307",
    "prefecture": "東京都",
    "prefecture_kana": "トウキョウト",
    "prefecture_code": 13,
    "city": "港区",
    "city_kana": "ミナトク",
    "town": "白金",
    "town_kana": "シロカネ",
    "street": "１丁目１７番３号",
    "office_name": "フジテック　株式会社　東京本社",
    "office_name_kana": "フジテツク カブシキガイシヤ トウキヨウホンシヤ"
  },
  "8308": {
    "postcode": "1088308",
    "prefecture": "東京都",
    "prefecture_kana": "トウキョウト",
    "prefecture_code": 13,
    "city": "港区",
    "city_kana": "ミナトク",
    "town": "三田",
    "town_kana": "ミタ",
    "street": "３−１３−１２三田ＭＴビル２Ｆ",
    "office_name": "株式会社　朝日旅行",
    "office_name_kana": "カブシキガイシヤ アサヒリヨコウ"
  },
  "8310": {
    "postcode": "1088310",
    "prefecture": "東京都",
    "prefecture_kana": "トウキョウト",
    "prefecture_code": 13,
    "city": "港区",
    "city_kana": "ミナトク",
    "town": "芝浦",
    "town_kana": "シバウラ",
    "street": "３丁目１番３５号",
    "office_name": "株式会社　バンダイナムコアミューズメント",
    "office_name_kana": "カブシキガイシヤ バンダイナムコアミユ-ズメント"
  },
  "8313": {
    "postcode": "1088313",
    "prefecture": "東京都",
    "prefecture_kana": "トウキョウト",
    "prefecture_code": 13,
    "city": "港区",
    "city_kana": "ミナトク",
    "town": "三田",
    "town_kana": "ミタ",
    "street": "１−４−２８三田国際ビル１０Ｆ",
    "office_name": "株式会社　一点",
    "office_name_kana": "カブシキガイシヤ イツテン"
  },
  "8315": {
    "postcode": "1088315",
    "prefecture": "東京都",
    "prefecture_kana": "トウキョウト",
    "prefecture_code": 13,
    "city": "港区",
    "city_kana": "ミナトク",
    "town": "三田",
    "town_kana": "ミタ",
    "street": "１丁目４番１０号",
    "office_name": "港区　みなと保健所",
    "office_name_kana": "ミナトク ミナトホケンジヨ"
  },
  "8316": {
    "postcode": "1088316",
    "prefecture": "東京都",
    "prefecture_kana": "トウキョウト",
    "prefecture_code": 13,
    "city": "港区",
    "city_kana": "ミナトク",
    "town": "三田",
    "town_kana": "ミタ",
    "street": "三丁目５番１９号",
    "office_name": "京セラ　株式会社　東京事業所",
    "office_name_kana": "キヨウセラ カブシキガイシヤ トウキヨウジギヨウシヨ"
  },
  "8322": {
    "postcode": "1088322",
    "prefecture": "東京都",
    "prefecture_kana": "トウキョウト",
    "prefecture_code": 13,
    "city": "港区",
    "city_kana": "ミナトク",
    "town": "三田",
    "town_kana": "ミタ",
    "street": "３丁目１３−１６三田４３ＭＴビル１３階",
    "office_name": "双信電機　株式会社",
    "office_name_kana": "ソウシンデンキ カブシキガイシヤ"
  },
  "8325": {
    "postcode": "1088325",
    "prefecture": "東京都",
    "prefecture_kana": "トウキョウト",
    "prefecture_code": 13,
    "city": "港区",
    "city_kana": "ミナトク",
    "town": "三田",
    "town_kana": "ミタ",
    "street": "２丁目１７−２５",
    "office_name": "株式会社　新進商会",
    "office_name_kana": "カブシキガイシヤ シンシンシヨウカイ"
  },
  "8326": {
    "postcode": "1088326",
    "prefecture": "東京都",
    "prefecture_kana": "トウキョウト",
    "prefecture_code": 13,
    "city": "港区",
    "city_kana": "ミナトク",
    "town": "三田",
    "town_kana": "ミタ",
    "street": "１丁目１０−３",
    "office_name": "全日本電機電子情報関連産業　労働組合連合会",
    "office_name_kana": "ゼンニホンデンキデンシジヨウホウカンレンサンギヨウ ロウドウクミアイレンゴウカイ"
  },
  "8328": {
    "postcode": "1088328",
    "prefecture": "東京都",
    "prefecture_kana": "トウキョウト",
    "prefecture_code": 13,
    "city": "港区",
    "city_kana": "ミナトク",
    "town": "三田",
    "town_kana": "ミタ",
    "street": "３丁目１２−１６三光ビル７階",
    "office_name": "株式会社　ゼネシス　東京支店",
    "office_name_kana": "カブシキガイシヤ ゼネシス トウキヨウシテン"
  },
  "8329": {
    "postcode": "1088329",
    "prefecture": "東京都",
    "prefecture_kana": "トウキョウト",
    "prefecture_code": 13,
    "city": "港区",
    "city_kana": "ミナトク",
    "town": "三田",
    "town_kana": "ミタ",
    "street": "一丁目４番３号",
    "office_name": "国際医療福祉大学三田病院",
    "office_name_kana": "コクサイイリヨウフクシダイガクミタビヨウイン"
  },
  "8331": {
    "postcode": "1088331",
    "prefecture": "東京都",
    "prefecture_kana": "トウキョウト",
    "prefecture_code": 13,
    "city": "港区",
    "city_kana": "ミナトク",
    "town": "芝浦",
    "town_kana": "シバウラ",
    "street": "３−１−１ｍｓｂＴａｍａｃｈｉステーションタワーＮ４１Ｆ",
    "office_name": "ＴＤ　ＳＹＮＮＥＸ　株式会社",
    "office_name_kana": "テイ-デイ-シネツクス カブシキガイシヤ"
  },
  "8333": {
    "postcode": "1088333",
    "prefecture": "東京都",
    "prefecture_kana": "トウキョウト",
    "prefecture_code": 13,
    "city": "港区",
    "city_kana": "ミナトク",
    "town": "三田",
    "town_kana": "ミタ",
    "street": "１丁目４−２８",
    "office_name": "矢崎総業　株式会社",
    "office_name_kana": "ヤザキソウギヨウ カブシキガイシヤ"
  },
  "8334": {
    "postcode": "1088334",
    "prefecture": "東京都",
    "prefecture_kana": "トウキョウト",
    "prefecture_code": 13,
    "city": "港区",
    "city_kana": "ミナトク",
    "town": "三田",
    "town_kana": "ミタ",
    "street": "３丁目１−１２",
    "office_name": "立川ブラインド工業　株式会社",
    "office_name_kana": "タチカワブラインドコウギヨウ カブシキガイシヤ"
  },
  "8341": {
    "postcode": "1088341",
    "prefecture": "東京都",
    "prefecture_kana": "トウキョウト",
    "prefecture_code": 13,
    "city": "港区",
    "city_kana": "ミナトク",
    "town": "三田",
    "town_kana": "ミタ",
    "street": "４丁目１２−１８",
    "office_name": "福西電機　株式会社",
    "office_name_kana": "フクニシデンキ カブシキガイシヤ"
  },
  "8345": {
    "postcode": "1088345",
    "prefecture": "東京都",
    "prefecture_kana": "トウキョウト",
    "prefecture_code": 13,
    "city": "港区",
    "city_kana": "ミナトク",
    "town": "三田",
    "town_kana": "ミタ",
    "street": "２丁目１５−４５",
    "office_name": "慶應義塾",
    "office_name_kana": "ケイオウギジユク"
  },
  "8350": {
    "postcode": "1088350",
    "prefecture": "東京都",
    "prefecture_kana": "トウキョウト",
    "prefecture_code": 13,
    "city": "港区",
    "city_kana": "ミナトク",
    "town": "三田",
    "town_kana": "ミタ",
    "street": "１丁目４−２８１１Ｆ",
    "office_name": "株式会社　サニクリーン　本部",
    "office_name_kana": "カブシキガイシヤ サニクリ-ン ホンブ"
  },
  "8355": {
    "postcode": "1088355",
    "prefecture": "東京都",
    "prefecture_kana": "トウキョウト",
    "prefecture_code": 13,
    "city": "港区",
    "city_kana": "ミナトク",
    "town": "三田",
    "town_kana": "ミタ",
    "street": "３丁目４−１０",
    "office_name": "株式会社　阪急交通社",
    "office_name_kana": "カブシキガイシヤ ハンキユウコウツウシヤ"
  },
  "8358": {
    "postcode": "1088358",
    "prefecture": "東京都",
    "prefecture_kana": "トウキョウト",
    "prefecture_code": 13,
    "city": "港区",
    "city_kana": "ミナトク",
    "town": "三田",
    "town_kana": "ミタ",
    "street": "３丁目２−２３",
    "office_name": "財団法人　香川育英会",
    "office_name_kana": "ザイダンホウジンカガワイクエイカイ"
  },
  "8360": {
    "postcode": "1088360",
    "prefecture": "東京都",
    "prefecture_kana": "トウキョウト",
    "prefecture_code": 13,
    "city": "港区",
    "city_kana": "ミナトク",
    "town": "三田",
    "town_kana": "ミタ",
    "street": "３丁目４−１９ＤＫＳＨ三田ビルディング",
    "office_name": "ＤＫＳＨジャパン　株式会社",
    "office_name_kana": "デイ-ケ-エスエイチジヤパン カブシキガイシヤ"
  },
  "8361": {
    "postcode": "1088361",
    "prefecture": "東京都",
    "prefecture_kana": "トウキョウト",
    "prefecture_code": 13,
    "city": "港区",
    "city_kana": "ミナトク",
    "town": "三田",
    "town_kana": "ミタ",
    "street": "２丁目１−１４",
    "office_name": "オーストラリア大使館　ＡＵＳＴＲＡＬＩＡＮ　ＥＭＢＡＳＳＹ",
    "office_name_kana": "オ-ストラリアタイシカン オ-ストラリアエンバシイ"
  },
  "8372": {
    "postcode": "1088372",
    "prefecture": "東京都",
    "prefecture_kana": "トウキョウト",
    "prefecture_code": 13,
    "city": "港区",
    "city_kana": "ミナトク",
    "town": "芝",
    "town_kana": "シバ",
    "street": "４−４−５三田労働基準協会ビル３Ｆ",
    "office_name": "社団法人　日本作業環境測定協会",
    "office_name_kana": "シヤダンホウジン ニホンサギヨウカンキヨウソクテイキヨウカイ"
  },
  "8373": {
    "postcode": "1088373",
    "prefecture": "東京都",
    "prefecture_kana": "トウキョウト",
    "prefecture_code": 13,
    "city": "港区",
    "city_kana": "ミナトク",
    "town": "芝",
    "town_kana": "シバ",
    "street": "４丁目６−５",
    "office_name": "宇都宮螺子　株式会社",
    "office_name_kana": "ウツノミヤラシ カブシキガイシヤ"
  },
  "8375": {
    "postcode": "1088375",
    "prefecture": "東京都",
    "prefecture_kana": "トウキョウト",
    "prefecture_code": 13,
    "city": "港区",
    "city_kana": "ミナトク",
    "town": "三田",
    "town_kana": "ミタ",
    "street": "３−１１−３６三田日東ダイビル６階",
    "office_name": "株式会社　東京機械製作所",
    "office_name_kana": "カブシキガイシヤ トウキヨウキカイセイサクシヨ"
  },
  "8379": {
    "postcode": "1088379",
    "prefecture": "東京都",
    "prefecture_kana": "トウキョウト",
    "prefecture_code": 13,
    "city": "港区",
    "city_kana": "ミナトク",
    "town": "高輪",
    "town_kana": "タカナワ",
    "street": "１−３−１３",
    "office_name": "株式会社　インボイス",
    "office_name_kana": "カブシキカイシヤ インボイス"
  },
  "8380": {
    "postcode": "1088380",
    "prefecture": "東京都",
    "prefecture_kana": "トウキョウト",
    "prefecture_code": 13,
    "city": "港区",
    "city_kana": "ミナトク",
    "town": "芝",
    "town_kana": "シバ",
    "street": "５−２５−１１ヒューリック三田ビル４階・５階",
    "office_name": "株式会社　テノックス",
    "office_name_kana": "カブシキガイシヤ テノツクス"
  },
  "8381": {
    "postcode": "1088381",
    "prefecture": "東京都",
    "prefecture_kana": "トウキョウト",
    "prefecture_code": 13,
    "city": "港区",
    "city_kana": "ミナトク",
    "town": "芝",
    "town_kana": "シバ",
    "street": "５丁目６番地１号",
    "office_name": "株式会社　奥村組　東京支社",
    "office_name_kana": "カブシキガイシヤ オクムラグミ トウキヨウシシヤ"
  },
  "8383": {
    "postcode": "1088383",
    "prefecture": "東京都",
    "prefecture_kana": "トウキョウト",
    "prefecture_code": 13,
    "city": "港区",
    "city_kana": "ミナトク",
    "town": "芝",
    "town_kana": "シバ",
    "street": "４丁目６−６",
    "office_name": "株式会社　長谷工コミュニティ",
    "office_name_kana": "カブシキガイシヤ ハセコウコミユニテイ"
  },
  "8384": {
    "postcode": "1088384",
    "prefecture": "東京都",
    "prefecture_kana": "トウキョウト",
    "prefecture_code": 13,
    "city": "港区",
    "city_kana": "ミナトク",
    "town": "芝",
    "town_kana": "シバ",
    "street": "５丁目３３−１",
    "office_name": "森永乳業　株式会社",
    "office_name_kana": "モリナガニユウギヨウ カブシキガイシヤ"
  },
  "8385": {
    "postcode": "1088385",
    "prefecture": "東京都",
    "prefecture_kana": "トウキョウト",
    "prefecture_code": 13,
    "city": "港区",
    "city_kana": "ミナトク",
    "town": "芝",
    "town_kana": "シバ",
    "street": "５−３４−７田町センタービル",
    "office_name": "理想科学工業　株式会社",
    "office_name_kana": "リソウカガクコウギヨウ カブシキガイシヤ"
  },
  "8386": {
    "postcode": "1088386",
    "prefecture": "東京都",
    "prefecture_kana": "トウキョウト",
    "prefecture_code": 13,
    "city": "港区",
    "city_kana": "ミナトク",
    "town": "芝",
    "town_kana": "シバ",
    "street": "４−１７−５田町プレイスビル３Ｆ",
    "office_name": "オックスフォード大学出版局　株式会社",
    "office_name_kana": "オツクスフオ-ドダイガクシユツパンキヨク カブシキガイシヤ"
  },
  "8388": {
    "postcode": "1088388",
    "prefecture": "東京都",
    "prefecture_kana": "トウキョウト",
    "prefecture_code": 13,
    "city": "港区",
    "city_kana": "ミナトク",
    "town": "高輪",
    "town_kana": "タカナワ",
    "street": "２−２１−４３ＹＣＣ高輪ビル",
    "office_name": "横浜化成　株式会社",
    "office_name_kana": "ヨコハマカセイ カブシキガイシヤ"
  },
  "8389": {
    "postcode": "1088389",
    "prefecture": "東京都",
    "prefecture_kana": "トウキョウト",
    "prefecture_code": 13,
    "city": "港区",
    "city_kana": "ミナトク",
    "town": "芝",
    "town_kana": "シバ",
    "street": "５丁目２６−３０",
    "office_name": "合成化学産業　労働組合連合",
    "office_name_kana": "ゴウセイカガクサンギヨウ ロウドウクミアイレンゴウ"
  },
  "8403": {
    "postcode": "1088403",
    "prefecture": "東京都",
    "prefecture_kana": "トウキョウト",
    "prefecture_code": 13,
    "city": "港区",
    "city_kana": "ミナトク",
    "town": "芝",
    "town_kana": "シバ",
    "street": "５丁目３３−１",
    "office_name": "森永製菓　株式会社",
    "office_name_kana": "モリナガセイカ カブシキガイシヤ"
  },
  "8404": {
    "postcode": "1088404",
    "prefecture": "東京都",
    "prefecture_kana": "トウキョウト",
    "prefecture_code": 13,
    "city": "港区",
    "city_kana": "ミナトク",
    "town": "芝",
    "town_kana": "シバ",
    "street": "４丁目４−１２",
    "office_name": "三信電気　株式会社",
    "office_name_kana": "サンシンデンキ カブシキガイシヤ"
  },
  "8405": {
    "postcode": "1088405",
    "prefecture": "東京都",
    "prefecture_kana": "トウキョウト",
    "prefecture_code": 13,
    "city": "港区",
    "city_kana": "ミナトク",
    "town": "芝",
    "town_kana": "シバ",
    "street": "４−１−２３三田ＮＮビル２１階",
    "office_name": "サーモス　株式会社",
    "office_name_kana": "サ-モス カブシキガイシヤ"
  },
  "8407": {
    "postcode": "1088407",
    "prefecture": "東京都",
    "prefecture_kana": "トウキョウト",
    "prefecture_code": 13,
    "city": "港区",
    "city_kana": "ミナトク",
    "town": "芝浦",
    "town_kana": "シバウラ",
    "street": "３−１−２１田町ステーションタワーＳ２９階",
    "office_name": "三菱自動車ファイナンス　株式会社",
    "office_name_kana": "ミツビシジドウシヤフアイナンス カブシキガイシヤ"
  },
  "8410": {
    "postcode": "1088410",
    "prefecture": "東京都",
    "prefecture_kana": "トウキョウト",
    "prefecture_code": 13,
    "city": "港区",
    "city_kana": "ミナトク",
    "town": "芝浦",
    "town_kana": "シバウラ",
    "street": "３丁目１番２１号田町ステーションタワーＳ",
    "office_name": "三菱自動車工業　株式会社",
    "office_name_kana": "ミツビシジドウシヤコウギヨウ カブシキガイシヤ"
  },
  "8411": {
    "postcode": "1088411",
    "prefecture": "東京都",
    "prefecture_kana": "トウキョウト",
    "prefecture_code": 13,
    "city": "港区",
    "city_kana": "ミナトク",
    "town": "芝",
    "town_kana": "シバ",
    "street": "五丁目３３番１１号",
    "office_name": "三菱オートリース　株式会社",
    "office_name_kana": "ミツビシオ-トリ-ス カブシキガイシヤ"
  },
  "8414": {
    "postcode": "1088414",
    "prefecture": "東京都",
    "prefecture_kana": "トウキョウト",
    "prefecture_code": 13,
    "city": "港区",
    "city_kana": "ミナトク",
    "town": "芝",
    "town_kana": "シバ",
    "street": "５丁目２６−２０",
    "office_name": "社団法人　日本建築学会",
    "office_name_kana": "シヤダンホウジン ニホンケンチクガツカイ"
  },
  "8415": {
    "postcode": "1088415",
    "prefecture": "東京都",
    "prefecture_kana": "トウキョウト",
    "prefecture_code": 13,
    "city": "港区",
    "city_kana": "ミナトク",
    "town": "芝",
    "town_kana": "シバ",
    "street": "４丁目１−２３",
    "office_name": "三菱化学メディア　株式会社",
    "office_name_kana": "ミツビシカガクメデイア カブシキガイシヤ"
  },
  "8416": {
    "postcode": "1088416",
    "prefecture": "東京都",
    "prefecture_kana": "トウキョウト",
    "prefecture_code": 13,
    "city": "港区",
    "city_kana": "ミナトク",
    "town": "芝",
    "town_kana": "シバ",
    "street": "５−３４−６新田町ビル１１階",
    "office_name": "株式会社　コスモスイニシア",
    "office_name_kana": "カブシキガイシヤ コスモスイニシア"
  },
  "8417": {
    "postcode": "1088417",
    "prefecture": "東京都",
    "prefecture_kana": "トウキョウト",
    "prefecture_code": 13,
    "city": "港区",
    "city_kana": "ミナトク",
    "town": "芝",
    "town_kana": "シバ",
    "street": "５−３３−７徳栄ビル５、６Ｆ",
    "office_name": "株式会社　コスモスイニシア",
    "office_name_kana": "カブシキガイシヤ コスモスイニシア"
  },
  "8420": {
    "postcode": "1088420",
    "prefecture": "東京都",
    "prefecture_kana": "トウキョウト",
    "prefecture_code": 13,
    "city": "港区",
    "city_kana": "ミナトク",
    "town": "芝",
    "town_kana": "シバ",
    "street": "５丁目２９−２３明生田町ビル",
    "office_name": "日本電気　株式会社",
    "office_name_kana": "ニツポンデンキ カブシキガイシヤ"
  },
  "8421": {
    "postcode": "1088421",
    "prefecture": "東京都",
    "prefecture_kana": "トウキョウト",
    "prefecture_code": 13,
    "city": "港区",
    "city_kana": "ミナトク",
    "town": "芝",
    "town_kana": "シバ",
    "street": "５丁目３４−２春日ビル",
    "office_name": "日本電気　株式会社",
    "office_name_kana": "ニツポンデンキ カブシキガイシヤ"
  },
  "8423": {
    "postcode": "1088423",
    "prefecture": "東京都",
    "prefecture_kana": "トウキョウト",
    "prefecture_code": 13,
    "city": "港区",
    "city_kana": "ミナトク",
    "town": "芝",
    "town_kana": "シバ",
    "street": "５丁目２１−６芝ダイビル",
    "office_name": "日本電気　株式会社",
    "office_name_kana": "ニツポンデンキ カブシキガイシヤ"
  },
  "8424": {
    "postcode": "1088424",
    "prefecture": "東京都",
    "prefecture_kana": "トウキョウト",
    "prefecture_code": 13,
    "city": "港区",
    "city_kana": "ミナトク",
    "town": "芝",
    "town_kana": "シバ",
    "street": "５丁目３３−８第一田町ビル",
    "office_name": "日本電気　株式会社",
    "office_name_kana": "ニホンデンキ カブシキガイシヤ"
  },
  "8425": {
    "postcode": "1088425",
    "prefecture": "東京都",
    "prefecture_kana": "トウキョウト",
    "prefecture_code": 13,
    "city": "港区",
    "city_kana": "ミナトク",
    "town": "芝",
    "town_kana": "シバ",
    "street": "５丁目３３−１森永プラザビル",
    "office_name": "日本電気　株式会社",
    "office_name_kana": "ニツポンデンキ カブシキガイシヤ"
  },
  "8432": {
    "postcode": "1088432",
    "prefecture": "東京都",
    "prefecture_kana": "トウキョウト",
    "prefecture_code": 13,
    "city": "港区",
    "city_kana": "ミナトク",
    "town": "海岸",
    "town_kana": "カイガン",
    "street": "３−９−４５東京労働局海岸庁舎",
    "office_name": "東京労働局　需給調整事業部",
    "office_name_kana": "トウキヨウロウドウキヨク ジユキユウチヨウセイジギヨウブ"
  },
  "8439": {
    "postcode": "1088439",
    "prefecture": "東京都",
    "prefecture_kana": "トウキョウト",
    "prefecture_code": 13,
    "city": "港区",
    "city_kana": "ミナトク",
    "town": "海岸",
    "town_kana": "カイガン",
    "street": "３丁目１４−１１オンワード樫山芝浦第３ビル",
    "office_name": "（株）　オンワード樫山",
    "office_name_kana": "カブシキガイシヤ オンワ-ドカシヤマ"
  },
  "8444": {
    "postcode": "1088444",
    "prefecture": "東京都",
    "prefecture_kana": "トウキョウト",
    "prefecture_code": 13,
    "city": "港区",
    "city_kana": "ミナトク",
    "town": "海岸",
    "town_kana": "カイガン",
    "street": "３丁目２０−２０ヨコソ−レインボータワー８Ｆ",
    "office_name": "アプライドマテリアルズジャパン　株式会社",
    "office_name_kana": "アプライドマテリアルズジヤパン カブシキガイシヤ"
  },
  "8448": {
    "postcode": "1088448",
    "prefecture": "東京都",
    "prefecture_kana": "トウキョウト",
    "prefecture_code": 13,
    "city": "港区",
    "city_kana": "ミナトク",
    "town": "海岸",
    "town_kana": "カイガン",
    "street": "３丁目２２−３４",
    "office_name": "栗林運輸　株式会社",
    "office_name_kana": "クリバヤシウンユ カブシキガイシヤ"
  },
  "8456": {
    "postcode": "1088456",
    "prefecture": "東京都",
    "prefecture_kana": "トウキョウト",
    "prefecture_code": 13,
    "city": "港区",
    "city_kana": "ミナトク",
    "town": "海岸",
    "town_kana": "カイガン",
    "street": "３丁目４−２０",
    "office_name": "ケイヒン　株式会社",
    "office_name_kana": "ケイヒン カブシキガイシヤ"
  },
  "8466": {
    "postcode": "1088466",
    "prefecture": "東京都",
    "prefecture_kana": "トウキョウト",
    "prefecture_code": 13,
    "city": "港区",
    "city_kana": "ミナトク",
    "town": "港南",
    "town_kana": "コウナン",
    "street": "２丁目１６番２号",
    "office_name": "日本カーバイド工業　株式会社",
    "office_name_kana": "ニツポンカ-バイドコウギヨウ カブシキガイシヤ"
  },
  "8468": {
    "postcode": "1088468",
    "prefecture": "東京都",
    "prefecture_kana": "トウキョウト",
    "prefecture_code": 13,
    "city": "港区",
    "city_kana": "ミナトク",
    "town": "港南",
    "town_kana": "コウナン",
    "street": "１丁目８−２３ＳｈｉｎａｇａｗａＨＥＡＲＴ４階",
    "office_name": "イギン　株式会社　東京本社",
    "office_name_kana": "イギン カブシキガイシヤ トウキヨウホンシヤ"
  },
  "8470": {
    "postcode": "1088470",
    "prefecture": "東京都",
    "prefecture_kana": "トウキョウト",
    "prefecture_code": 13,
    "city": "港区",
    "city_kana": "ミナトク",
    "town": "港南",
    "town_kana": "コウナン",
    "street": "１−７−１８",
    "office_name": "水ｉｎｇ　株式会社",
    "office_name_kana": "スイング カブシキカイシヤ"
  },
  "8477": {
    "postcode": "1088477",
    "prefecture": "東京都",
    "prefecture_kana": "トウキョウト",
    "prefecture_code": 13,
    "city": "港区",
    "city_kana": "ミナトク",
    "town": "港南",
    "town_kana": "コウナン",
    "street": "４丁目５−７",
    "office_name": "東京海洋大学",
    "office_name_kana": "トウキヨウカイヨウダイガク"
  },
  "8478": {
    "postcode": "1088478",
    "prefecture": "東京都",
    "prefecture_kana": "トウキョウト",
    "prefecture_code": 13,
    "city": "港区",
    "city_kana": "ミナトク",
    "town": "港南",
    "town_kana": "コウナン",
    "street": "１丁目６−３５",
    "office_name": "大同特殊鋼　株式会社　東京本社",
    "office_name_kana": "ダイドウトクシユコウ カブシキガイシヤ トウキヨウホンシヤ"
  },
  "8501": {
    "postcode": "1088501",
    "prefecture": "東京都",
    "prefecture_kana": "トウキョウト",
    "prefecture_code": 13,
    "city": "港区",
    "city_kana": "ミナトク",
    "town": "港南",
    "town_kana": "コウナン",
    "street": "２丁目１３−４０",
    "office_name": "東洋水産　株式会社",
    "office_name_kana": "トウヨウスイサン カブシキガイシヤ"
  },
  "8502": {
    "postcode": "1088502",
    "prefecture": "東京都",
    "prefecture_kana": "トウキョウト",
    "prefecture_code": 13,
    "city": "港区",
    "city_kana": "ミナトク",
    "town": "港南",
    "town_kana": "コウナン",
    "street": "２丁目１５−２",
    "office_name": "株式会社　大林組　東京本社　品川事務所",
    "office_name_kana": "カブシキガイシヤ オオバヤシグミ トウキヨウホンシヤ シナガワジムシヨ"
  },
  "8503": {
    "postcode": "1088503",
    "prefecture": "東京都",
    "prefecture_kana": "トウキョウト",
    "prefecture_code": 13,
    "city": "港区",
    "city_kana": "ミナトク",
    "town": "芝浦",
    "town_kana": "シバウラ",
    "street": "３−１−１",
    "office_name": "サントリー田町オフィス",
    "office_name_kana": "サントリ-タマチオフイス"
  },
  "8504": {
    "postcode": "1088504",
    "prefecture": "東京都",
    "prefecture_kana": "トウキョウト",
    "prefecture_code": 13,
    "city": "港区",
    "city_kana": "ミナトク",
    "town": "芝浦",
    "town_kana": "シバウラ",
    "street": "３丁目１番１号田町ステーションタワーＮ３１階",
    "office_name": "昭光通商　株式会社",
    "office_name_kana": "シヨウコウツウシヨウ カブシキカイシヤ"
  },
  "8505": {
    "postcode": "1088505",
    "prefecture": "東京都",
    "prefecture_kana": "トウキョウト",
    "prefecture_code": 13,
    "city": "港区",
    "city_kana": "ミナトク",
    "town": "港南",
    "town_kana": "コウナン",
    "street": "１−９−１",
    "office_name": "株式会社　ＮＴＴデータ",
    "office_name_kana": "カブシキカイシヤ エヌ・テイ・テイ・デ-タ"
  },
  "8506": {
    "postcode": "1088506",
    "prefecture": "東京都",
    "prefecture_kana": "トウキョウト",
    "prefecture_code": 13,
    "city": "港区",
    "city_kana": "ミナトク",
    "town": "芝浦",
    "town_kana": "シバウラ",
    "street": "２丁目１２番１０号",
    "office_name": "ＴＨＫ　株式会社",
    "office_name_kana": "テイエチケ- カブシキカイシヤ"
  },
  "8507": {
    "postcode": "1088507",
    "prefecture": "東京都",
    "prefecture_kana": "トウキョウト",
    "prefecture_code": 13,
    "city": "港区",
    "city_kana": "ミナトク",
    "town": "港南",
    "town_kana": "コウナン",
    "street": "２−１３−３７フィリップスビル",
    "office_name": "株式会社　フィリップスエレクトロニクスジャパン",
    "office_name_kana": "カブシキガイシヤ フイリツプスエレクトロニクスジヤパン"
  },
  "8508": {
    "postcode": "1088508",
    "prefecture": "東京都",
    "prefecture_kana": "トウキョウト",
    "prefecture_code": 13,
    "city": "港区",
    "city_kana": "ミナトク",
    "town": "芝浦",
    "town_kana": "シバウラ",
    "street": "４丁目１６番２３号",
    "office_name": "ピコ　株式会社",
    "office_name_kana": "ピコ カブシキガイシヤ"
  },
  "8509": {
    "postcode": "1088509",
    "prefecture": "東京都",
    "prefecture_kana": "トウキョウト",
    "prefecture_code": 13,
    "city": "港区",
    "city_kana": "ミナトク",
    "town": "芝浦",
    "town_kana": "シバウラ",
    "street": "３丁目４番１号グランパークタワー内",
    "office_name": "日本エア・リキード　株式会社",
    "office_name_kana": "ニホンエア・リキ-ド カブシキガイシヤ"
  },
  "8510": {
    "postcode": "1088510",
    "prefecture": "東京都",
    "prefecture_kana": "トウキョウト",
    "prefecture_code": 13,
    "city": "港区",
    "city_kana": "ミナトク",
    "town": "港南",
    "town_kana": "コウナン",
    "street": "２丁目３−１３品川フロントビル",
    "office_name": "株式会社　ネクスティエレクトロニクス",
    "office_name_kana": "カブシキガイシヤ ネクステイエレクトロニクス"
  },
  "8511": {
    "postcode": "1088511",
    "prefecture": "東京都",
    "prefecture_kana": "トウキョウト",
    "prefecture_code": 13,
    "city": "港区",
    "city_kana": "ミナトク",
    "town": "芝浦",
    "town_kana": "シバウラ",
    "street": "４−１３−２３ＭＳ芝浦ビル９階",
    "office_name": "ＩＴＸ　株式会社",
    "office_name_kana": "アイ・テイ-・エツクス カブシキガイシヤ"
  },
  "8512": {
    "postcode": "1088512",
    "prefecture": "東京都",
    "prefecture_kana": "トウキョウト",
    "prefecture_code": 13,
    "city": "港区",
    "city_kana": "ミナトク",
    "town": "芝浦",
    "town_kana": "シバウラ",
    "street": "２丁目１５−６",
    "office_name": "東京コカコーラボトリング　株式会社",
    "office_name_kana": "トウキヨウコカコ-ラボトリング カブシキガイシヤ"
  },
  "8515": {
    "postcode": "1088515",
    "prefecture": "東京都",
    "prefecture_kana": "トウキョウト",
    "prefecture_code": 13,
    "city": "港区",
    "city_kana": "ミナトク",
    "town": "芝浦",
    "town_kana": "シバウラ",
    "street": "三丁目９番１４号",
    "office_name": "ＮＥＣネッツエスアイ　株式会社",
    "office_name_kana": "エヌイ-シ-ネツツエスアイ カブシキガイシヤ"
  },
  "8520": {
    "postcode": "1088520",
    "prefecture": "東京都",
    "prefecture_kana": "トウキョウト",
    "prefecture_code": 13,
    "city": "港区",
    "city_kana": "ミナトク",
    "town": "三田",
    "town_kana": "ミタ",
    "street": "３−２−６",
    "office_name": "株式会社　タツノ",
    "office_name_kana": "カブシキガイシヤ タツノ"
  },
  "8521": {
    "postcode": "1088521",
    "prefecture": "東京都",
    "prefecture_kana": "トウキョウト",
    "prefecture_code": 13,
    "city": "港区",
    "city_kana": "ミナトク",
    "town": "芝浦",
    "town_kana": "シバウラ",
    "street": "４丁目１３番２３号",
    "office_name": "テクノレント　株式会社",
    "office_name_kana": "テクノレント カブシキカイシヤ"
  },
  "8522": {
    "postcode": "1088522",
    "prefecture": "東京都",
    "prefecture_kana": "トウキョウト",
    "prefecture_code": 13,
    "city": "港区",
    "city_kana": "ミナトク",
    "town": "芝",
    "town_kana": "シバ",
    "street": "５−３６−７三田ベルジュビル２０階",
    "office_name": "株式会社　ニフコ　東京支社",
    "office_name_kana": "カブシキガイシヤ ニフコ トウキヨウシシヤ"
  },
  "8523": {
    "postcode": "1088523",
    "prefecture": "東京都",
    "prefecture_kana": "トウキョウト",
    "prefecture_code": 13,
    "city": "港区",
    "city_kana": "ミナトク",
    "town": "芝浦",
    "town_kana": "シバウラ",
    "street": "４丁目２−１９",
    "office_name": "太洋日産自動車販売　株式会社",
    "office_name_kana": "タイヨウニツサンジドウシヤハンバイ カブシキガイシヤ"
  },
  "8525": {
    "postcode": "1088525",
    "prefecture": "東京都",
    "prefecture_kana": "トウキョウト",
    "prefecture_code": 13,
    "city": "港区",
    "city_kana": "ミナトク",
    "town": "芝浦",
    "town_kana": "シバウラ",
    "street": "３丁目４−１グランパークタワー",
    "office_name": "伊藤忠エネクス　株式会社",
    "office_name_kana": "イトウチユウエネクス カブシキガイシヤ"
  },
  "8530": {
    "postcode": "1088530",
    "prefecture": "東京都",
    "prefecture_kana": "トウキョウト",
    "prefecture_code": 13,
    "city": "港区",
    "city_kana": "ミナトク",
    "town": "芝浦",
    "town_kana": "シバウラ",
    "street": "４丁目１３−２３",
    "office_name": "監査法人　トーマツ",
    "office_name_kana": "カンサホウジン ト-マツ"
  },
  "8532": {
    "postcode": "1088532",
    "prefecture": "東京都",
    "prefecture_kana": "トウキョウト",
    "prefecture_code": 13,
    "city": "港区",
    "city_kana": "ミナトク",
    "town": "芝浦",
    "town_kana": "シバウラ",
    "street": "２丁目５−１",
    "office_name": "あすか製薬　株式会社",
    "office_name_kana": "アスカセイヤク カブシキガイシヤ"
  },
  "8533": {
    "postcode": "1088533",
    "prefecture": "東京都",
    "prefecture_kana": "トウキョウト",
    "prefecture_code": 13,
    "city": "港区",
    "city_kana": "ミナトク",
    "town": "芝浦",
    "town_kana": "シバウラ",
    "street": "４丁目８−３３",
    "office_name": "株式会社　関電工",
    "office_name_kana": "カブシキガイシヤ カンデンコウ"
  },
  "8536": {
    "postcode": "1088536",
    "prefecture": "東京都",
    "prefecture_kana": "トウキョウト",
    "prefecture_code": 13,
    "city": "港区",
    "city_kana": "ミナトク",
    "town": "芝浦",
    "town_kana": "シバウラ",
    "street": "３丁目１９−２６トッパン芝浦ビル",
    "office_name": "株式会社　トッパン・コスモ",
    "office_name_kana": "カブシキガイシヤ トツパン.コスモ"
  },
  "8539": {
    "postcode": "1088539",
    "prefecture": "東京都",
    "prefecture_kana": "トウキョウト",
    "prefecture_code": 13,
    "city": "港区",
    "city_kana": "ミナトク",
    "town": "芝浦",
    "town_kana": "シバウラ",
    "street": "３−１９−２６",
    "office_name": "凸版印刷　株式会社　エレクトロニクス事業本部",
    "office_name_kana": "トツパンインサツ カブシキガイシヤ エレクトロニクスジギヨウホンブ"
  },
  "8540": {
    "postcode": "1088540",
    "prefecture": "東京都",
    "prefecture_kana": "トウキョウト",
    "prefecture_code": 13,
    "city": "港区",
    "city_kana": "ミナトク",
    "town": "芝浦",
    "town_kana": "シバウラ",
    "street": "２丁目１−１３",
    "office_name": "株式会社　ダイトーコーポレーション",
    "office_name_kana": "カブシキガイシヤ ダイト-コ-ポレ-シヨン"
  },
  "8543": {
    "postcode": "1088543",
    "prefecture": "東京都",
    "prefecture_kana": "トウキョウト",
    "prefecture_code": 13,
    "city": "港区",
    "city_kana": "ミナトク",
    "town": "芝浦",
    "town_kana": "シバウラ",
    "street": "２丁目１５−４",
    "office_name": "中野冷機　株式会社",
    "office_name_kana": "ナカノレイキ カブシキガイシヤ"
  },
  "8545": {
    "postcode": "1088545",
    "prefecture": "東京都",
    "prefecture_kana": "トウキョウト",
    "prefecture_code": 13,
    "city": "港区",
    "city_kana": "ミナトク",
    "town": "芝浦",
    "town_kana": "シバウラ",
    "street": "３丁目１１−４",
    "office_name": "株式会社　タカマコンペテイションプロダクト",
    "office_name_kana": "カブシキガイシヤ タカマコンペテイシヨンプロダクト"
  },
  "8550": {
    "postcode": "1088550",
    "prefecture": "東京都",
    "prefecture_kana": "トウキョウト",
    "prefecture_code": 13,
    "city": "港区",
    "city_kana": "ミナトク",
    "town": "芝浦",
    "town_kana": "シバウラ",
    "street": "２丁目１０−５",
    "office_name": "五十嵐冷蔵　株式会社",
    "office_name_kana": "イガラシレイゾウ カブシキガイシヤ"
  },
  "8551": {
    "postcode": "1088551",
    "prefecture": "東京都",
    "prefecture_kana": "トウキョウト",
    "prefecture_code": 13,
    "city": "港区",
    "city_kana": "ミナトク",
    "town": "芝浦",
    "town_kana": "シバウラ",
    "street": "４丁目１０−１６",
    "office_name": "沖電気工業　株式会社",
    "office_name_kana": "オキデンキコウギヨウ カブシキガイシヤ"
  },
  "8552": {
    "postcode": "1088552",
    "prefecture": "東京都",
    "prefecture_kana": "トウキョウト",
    "prefecture_code": 13,
    "city": "港区",
    "city_kana": "ミナトク",
    "town": "芝浦",
    "town_kana": "シバウラ",
    "street": "３丁目１６−４",
    "office_name": "株式会社　スマイルドラッグ",
    "office_name_kana": "カブシキガイシヤ スマイルドラツグ"
  },
  "8553": {
    "postcode": "1088553",
    "prefecture": "東京都",
    "prefecture_kana": "トウキョウト",
    "prefecture_code": 13,
    "city": "港区",
    "city_kana": "ミナトク",
    "town": "芝浦",
    "town_kana": "シバウラ",
    "street": "４丁目９−２５芝浦スクエアビル１５Ｆ",
    "office_name": "株式会社　ＩＴサービス　芝浦事業所",
    "office_name_kana": "カブシキガイシヤ アイテイ-サ-ビス シバウラジギヨウシヨ"
  },
  "8555": {
    "postcode": "1088555",
    "prefecture": "東京都",
    "prefecture_kana": "トウキョウト",
    "prefecture_code": 13,
    "city": "港区",
    "city_kana": "ミナトク",
    "town": "芝浦",
    "town_kana": "シバウラ",
    "street": "４−９−２５芝浦スクエアビル",
    "office_name": "株式会社　オリコフォレントインシュア",
    "office_name_kana": "カブシキガイシヤ オリコフオレントインシユア"
  },
  "8556": {
    "postcode": "1088556",
    "prefecture": "東京都",
    "prefecture_kana": "トウキョウト",
    "prefecture_code": 13,
    "city": "港区",
    "city_kana": "ミナトク",
    "town": "芝",
    "town_kana": "シバ",
    "street": "４−１４−１第二田町ビル",
    "office_name": "日本電気　株式会社　第二田町ビル",
    "office_name_kana": "ニツポンデンキ カブシキガイシヤ ダイニタマチビル"
  },
  "8557": {
    "postcode": "1088557",
    "prefecture": "東京都",
    "prefecture_kana": "トウキョウト",
    "prefecture_code": 13,
    "city": "港区",
    "city_kana": "ミナトク",
    "town": "芝浦",
    "town_kana": "シバウラ",
    "street": "２丁目１１−５五十嵐ビル",
    "office_name": "日本電気　株式会社",
    "office_name_kana": "ニツポンデンキ カブシキガイシヤ"
  },
  "8558": {
    "postcode": "1088558",
    "prefecture": "東京都",
    "prefecture_kana": "トウキョウト",
    "prefecture_code": 13,
    "city": "港区",
    "city_kana": "ミナトク",
    "town": "芝浦",
    "town_kana": "シバウラ",
    "street": "４丁目１４−２２大東田町ビル",
    "office_name": "日本電気　株式会社",
    "office_name_kana": "ニツポンデンキ カブシキガイシヤ"
  },
  "8560": {
    "postcode": "1088560",
    "prefecture": "東京都",
    "prefecture_kana": "トウキョウト",
    "prefecture_code": 13,
    "city": "港区",
    "city_kana": "ミナトク",
    "town": "芝浦",
    "town_kana": "シバウラ",
    "street": "４丁目６番１４号",
    "office_name": "日本コンクリート工業　株式会社",
    "office_name_kana": "ニツポンコンクリ-トコウギヨウ カブシキカイシヤ"
  },
  "8564": {
    "postcode": "1088564",
    "prefecture": "東京都",
    "prefecture_kana": "トウキョウト",
    "prefecture_code": 13,
    "city": "港区",
    "city_kana": "ミナトク",
    "town": "芝浦",
    "town_kana": "シバウラ",
    "street": "４丁目９−２５芝浦スクエアビル４Ｆ",
    "office_name": "（株）　コスモ総合研究所",
    "office_name_kana": "(カブ) コスモソウゴウケンキユウジヨ"
  },
  "8566": {
    "postcode": "1088566",
    "prefecture": "東京都",
    "prefecture_kana": "トウキョウト",
    "prefecture_code": 13,
    "city": "港区",
    "city_kana": "ミナトク",
    "town": "芝浦",
    "town_kana": "シバウラ",
    "street": "３丁目１番２１号",
    "office_name": "エイ・エイ・ピー・シー・ジャパン　株式会社　プルマン東京田町",
    "office_name_kana": "エイ・エイ・ピ-・シ-・ジヤパン カブシキガイシヤ プルマントウキヨウタマチ"
  },
  "8568": {
    "postcode": "1088568",
    "prefecture": "東京都",
    "prefecture_kana": "トウキョウト",
    "prefecture_code": 13,
    "city": "港区",
    "city_kana": "ミナトク",
    "town": "高輪",
    "town_kana": "タカナワ",
    "street": "２丁目１７−１１",
    "office_name": "ヤマハ　株式会社　東京営業事務所",
    "office_name_kana": "ヤマハ カブシキガイシヤ トウキヨウエイギヨウジムシヨ"
  },
  "8570": {
    "postcode": "1088570",
    "prefecture": "東京都",
    "prefecture_kana": "トウキョウト",
    "prefecture_code": 13,
    "city": "港区",
    "city_kana": "ミナトク",
    "town": "高輪",
    "town_kana": "タカナワ",
    "street": "２丁目１５番２１号",
    "office_name": "株式会社　コシダテック",
    "office_name_kana": "カブシキガイシヤ コシダテツク"
  },
  "8571": {
    "postcode": "1088571",
    "prefecture": "東京都",
    "prefecture_kana": "トウキョウト",
    "prefecture_code": 13,
    "city": "港区",
    "city_kana": "ミナトク",
    "town": "三田",
    "town_kana": "ミタ",
    "street": "３−１０−１アーバンネット三田ビル８Ｆ",
    "office_name": "株式会社　日本能率協会コンサルティング",
    "office_name_kana": "カブシキガイシヤ ニホンノウリツキヨウカイコンサルテイング"
  },
  "8573": {
    "postcode": "1088573",
    "prefecture": "東京都",
    "prefecture_kana": "トウキョウト",
    "prefecture_code": 13,
    "city": "港区",
    "city_kana": "ミナトク",
    "town": "高輪",
    "town_kana": "タカナワ",
    "street": "２−２１−４６",
    "office_name": "株式会社　ドウシシャ",
    "office_name_kana": "カブシキガイシヤ ドウシシヤ"
  },
  "8575": {
    "postcode": "1088575",
    "prefecture": "東京都",
    "prefecture_kana": "トウキョウト",
    "prefecture_code": 13,
    "city": "港区",
    "city_kana": "ミナトク",
    "town": "三田",
    "town_kana": "ミタ",
    "street": "３−５−１９住友不動産東京三田ガーデンタワー",
    "office_name": "ユニ・チャーム　株式会社",
    "office_name_kana": "ユニ・チヤ-ム カブシキガイシヤ"
  },
  "8580": {
    "postcode": "1088580",
    "prefecture": "東京都",
    "prefecture_kana": "トウキョウト",
    "prefecture_code": 13,
    "city": "港区",
    "city_kana": "ミナトク",
    "town": "高輪",
    "town_kana": "タカナワ",
    "street": "３丁目２３−１７",
    "office_name": "東芝キヤリア　株式会社",
    "office_name_kana": "トウシバキヤリア カブシキガイシヤ"
  },
  "8581": {
    "postcode": "1088581",
    "prefecture": "東京都",
    "prefecture_kana": "トウキョウト",
    "prefecture_code": 13,
    "city": "港区",
    "city_kana": "ミナトク",
    "town": "高輪",
    "town_kana": "タカナワ",
    "street": "１丁目１６−２５",
    "office_name": "東京都　港区役所高輪支所",
    "office_name_kana": "トウキヨウト ミナトクヤクシヨタカナワシシヨ"
  },
  "8582": {
    "postcode": "1088582",
    "prefecture": "東京都",
    "prefecture_kana": "トウキョウト",
    "prefecture_code": 13,
    "city": "港区",
    "city_kana": "ミナトク",
    "town": "高輪",
    "town_kana": "タカナワ",
    "street": "１−４−１０−８Ｆ",
    "office_name": "株式会社　ビー・エム・ディー",
    "office_name_kana": "カブシキガイシヤ ビ-・エム・デイ-"
  },
  "8583": {
    "postcode": "1088583",
    "prefecture": "東京都",
    "prefecture_kana": "トウキョウト",
    "prefecture_code": 13,
    "city": "港区",
    "city_kana": "ミナトク",
    "town": "高輪",
    "town_kana": "タカナワ",
    "street": "３−２２−１２",
    "office_name": "独立行政法人　地域医療機能推進機構",
    "office_name_kana": "ドクリツギヨウセイホウジン チイキイリヨウキノウスイシンキコウ"
  },
  "8585": {
    "postcode": "1088585",
    "prefecture": "東京都",
    "prefecture_kana": "トウキョウト",
    "prefecture_code": 13,
    "city": "港区",
    "city_kana": "ミナトク",
    "town": "高輪",
    "town_kana": "タカナワ",
    "street": "４丁目５−６",
    "office_name": "社団法人　日本フラワーデザイナー協会",
    "office_name_kana": "シヤダンホウジン ニツポンフラワ-デザイナ-キヨウカイ"
  },
  "8586": {
    "postcode": "1088586",
    "prefecture": "東京都",
    "prefecture_kana": "トウキョウト",
    "prefecture_code": 13,
    "city": "港区",
    "city_kana": "ミナトク",
    "town": "高輪",
    "town_kana": "タカナワ",
    "street": "２−１９−１９",
    "office_name": "日本トムソン　株式会社",
    "office_name_kana": "ニホントムソン カブシキガイシヤ"
  },
  "8588": {
    "postcode": "1088588",
    "prefecture": "東京都",
    "prefecture_kana": "トウキョウト",
    "prefecture_code": 13,
    "city": "港区",
    "city_kana": "ミナトク",
    "town": "港南",
    "town_kana": "コウナン",
    "street": "１−２−７０品川シーズンテラス２４Ｆ",
    "office_name": "テクマトリックス　株式会社",
    "office_name_kana": "テクマトリツクス カブシキガイシヤ"
  },
  "8602": {
    "postcode": "1088602",
    "prefecture": "東京都",
    "prefecture_kana": "トウキョウト",
    "prefecture_code": 13,
    "city": "港区",
    "city_kana": "ミナトク",
    "town": "高輪",
    "town_kana": "タカナワ",
    "street": "３丁目１３−２２",
    "office_name": "国民生活センター",
    "office_name_kana": "コクミンセイカツセンタ-"
  },
  "8606": {
    "postcode": "1088606",
    "prefecture": "東京都",
    "prefecture_kana": "トウキョウト",
    "prefecture_code": 13,
    "city": "港区",
    "city_kana": "ミナトク",
    "town": "高輪",
    "town_kana": "タカナワ",
    "street": "３丁目１０−１１",
    "office_name": "東京船員保険病院",
    "office_name_kana": "トウキヨウセンインホケンビヨウイン"
  },
  "8607": {
    "postcode": "1088607",
    "prefecture": "東京都",
    "prefecture_kana": "トウキョウト",
    "prefecture_code": 13,
    "city": "港区",
    "city_kana": "ミナトク",
    "town": "高輪",
    "town_kana": "タカナワ",
    "street": "４丁目６−１２",
    "office_name": "財団法人　日本ユニセフ協会",
    "office_name_kana": "ザイダンホウジン ニホンユニセフキヨウカイ"
  },
  "8611": {
    "postcode": "1088611",
    "prefecture": "東京都",
    "prefecture_kana": "トウキョウト",
    "prefecture_code": 13,
    "city": "港区",
    "city_kana": "ミナトク",
    "town": "高輪",
    "town_kana": "タカナワ",
    "street": "４丁目１０番３０号",
    "office_name": "品川プリンスホテル",
    "office_name_kana": "シナガワプリンスホテル"
  },
  "8612": {
    "postcode": "1088612",
    "prefecture": "東京都",
    "prefecture_kana": "トウキョウト",
    "prefecture_code": 13,
    "city": "港区",
    "city_kana": "ミナトク",
    "town": "高輪",
    "town_kana": "タカナワ",
    "street": "３丁目１３−１",
    "office_name": "高輪プリンスホテル　新高輪プリンスホテル",
    "office_name_kana": "タカナワプリンスホテル シンタカナワプリンスホテル"
  },
  "8615": {
    "postcode": "1088615",
    "prefecture": "東京都",
    "prefecture_kana": "トウキョウト",
    "prefecture_code": 13,
    "city": "港区",
    "city_kana": "ミナトク",
    "town": "高輪",
    "town_kana": "タカナワ",
    "street": "４丁目１０−１８",
    "office_name": "株式会社　レアソン",
    "office_name_kana": "カブシキガイシヤ レアソン"
  },
  "8616": {
    "postcode": "1088616",
    "prefecture": "東京都",
    "prefecture_kana": "トウキョウト",
    "prefecture_code": 13,
    "city": "港区",
    "city_kana": "ミナトク",
    "town": "高輪",
    "town_kana": "タカナワ",
    "street": "３丁目２２番１２号",
    "office_name": "地域医療機能推進機構健康保険組合",
    "office_name_kana": "チイキイリヨウキノウスイシンキコウケンコウホケンクミアイ"
  },
  "8617": {
    "postcode": "1088617",
    "prefecture": "東京都",
    "prefecture_kana": "トウキョウト",
    "prefecture_code": 13,
    "city": "港区",
    "city_kana": "ミナトク",
    "town": "高輪",
    "town_kana": "タカナワ",
    "street": "４−１０−１８京急第１ビル１３Ｆ",
    "office_name": "株式会社　くもん出版",
    "office_name_kana": "カブシキガイシヤ クモンシユツパン"
  },
  "8622": {
    "postcode": "1088622",
    "prefecture": "東京都",
    "prefecture_kana": "トウキョウト",
    "prefecture_code": 13,
    "city": "港区",
    "city_kana": "ミナトク",
    "town": "高輪",
    "town_kana": "タカナワ",
    "street": "３丁目１３−２２",
    "office_name": "品川税務署",
    "office_name_kana": "シナガワゼイムシヨ"
  },
  "8628": {
    "postcode": "1088628",
    "prefecture": "東京都",
    "prefecture_kana": "トウキョウト",
    "prefecture_code": 13,
    "city": "港区",
    "city_kana": "ミナトク",
    "town": "高輪",
    "town_kana": "タカナワ",
    "street": "３丁目１９−１５",
    "office_name": "株式会社　二葉",
    "office_name_kana": "カブシキガイシヤ フタバ"
  },
  "8631": {
    "postcode": "1088631",
    "prefecture": "東京都",
    "prefecture_kana": "トウキョウト",
    "prefecture_code": 13,
    "city": "港区",
    "city_kana": "ミナトク",
    "town": "白金台",
    "town_kana": "シロカネダイ",
    "street": "１丁目１−１",
    "office_name": "八芳園",
    "office_name_kana": "ハツポウエン"
  },
  "8632": {
    "postcode": "1088632",
    "prefecture": "東京都",
    "prefecture_kana": "トウキョウト",
    "prefecture_code": 13,
    "city": "港区",
    "city_kana": "ミナトク",
    "town": "白金台",
    "town_kana": "シロカネダイ",
    "street": "１丁目１−５０",
    "office_name": "株式会社　近鉄ホテルシステムズ",
    "office_name_kana": "カブシキガイシヤ キンテツホテルシステムズ"
  },
  "8633": {
    "postcode": "1088633",
    "prefecture": "東京都",
    "prefecture_kana": "トウキョウト",
    "prefecture_code": 13,
    "city": "港区",
    "city_kana": "ミナトク",
    "town": "白金台",
    "town_kana": "シロカネダイ",
    "street": "２丁目２５−１",
    "office_name": "株式会社　ヤマプラス",
    "office_name_kana": "カブシキガイシヤ ヤマプラス"
  },
  "8636": {
    "postcode": "1088636",
    "prefecture": "東京都",
    "prefecture_kana": "トウキョウト",
    "prefecture_code": 13,
    "city": "港区",
    "city_kana": "ミナトク",
    "town": "白金台",
    "town_kana": "シロカネダイ",
    "street": "１丁目２−３７",
    "office_name": "明治学院大学",
    "office_name_kana": "メイジガクインダイガク"
  },
  "8638": {
    "postcode": "1088638",
    "prefecture": "東京都",
    "prefecture_kana": "トウキョウト",
    "prefecture_code": 13,
    "city": "港区",
    "city_kana": "ミナトク",
    "town": "白金台",
    "town_kana": "シロカネダイ",
    "street": "３丁目２番１０号白金台ビル２階",
    "office_name": "株式会社　日本教育新聞社",
    "office_name_kana": "カブシキガイシヤ ニホンキヨウイクシンブンシヤ"
  },
  "8639": {
    "postcode": "1088639",
    "prefecture": "東京都",
    "prefecture_kana": "トウキョウト",
    "prefecture_code": 13,
    "city": "港区",
    "city_kana": "ミナトク",
    "town": "白金台",
    "town_kana": "シロカネダイ",
    "street": "４−６−１",
    "office_name": "東京大学医科学研究所",
    "office_name_kana": "トウキヨウダイガクイカガクケンキユウシヨ"
  },
  "8640": {
    "postcode": "1088640",
    "prefecture": "東京都",
    "prefecture_kana": "トウキョウト",
    "prefecture_code": 13,
    "city": "港区",
    "city_kana": "ミナトク",
    "town": "白金台",
    "town_kana": "シロカネダイ",
    "street": "１丁目１−５０",
    "office_name": "株式会社　都ホテル東京",
    "office_name_kana": "カブシキガイシヤ ミヤコホテルトウキヨウ"
  },
  "8641": {
    "postcode": "1088641",
    "prefecture": "東京都",
    "prefecture_kana": "トウキョウト",
    "prefecture_code": 13,
    "city": "港区",
    "city_kana": "ミナトク",
    "town": "白金",
    "town_kana": "シロカネ",
    "street": "５丁目９−１",
    "office_name": "学校法人　北里研究所",
    "office_name_kana": "ガツコウホウジン キタサトケンキユウシヨ"
  },
  "8642": {
    "postcode": "1088642",
    "prefecture": "東京都",
    "prefecture_kana": "トウキョウト",
    "prefecture_code": 13,
    "city": "港区",
    "city_kana": "ミナトク",
    "town": "白金",
    "town_kana": "シロカネ",
    "street": "５丁目９−１",
    "office_name": "北里研究所病院",
    "office_name_kana": "キタサトケンキユウシヨビヨウイン"
  },
  "8648": {
    "postcode": "1088648",
    "prefecture": "東京都",
    "prefecture_kana": "トウキョウト",
    "prefecture_code": 13,
    "city": "港区",
    "city_kana": "ミナトク",
    "town": "白金",
    "town_kana": "シロカネ",
    "street": "１丁目１７−３ＮＢＦプラチナタワー２Ｆ",
    "office_name": "サクサビジネスシステム　株式会社",
    "office_name_kana": "サクサビジネスシステム カブシキガイシヤ"
  },
  "8650": {
    "postcode": "1088650",
    "prefecture": "東京都",
    "prefecture_kana": "トウキョウト",
    "prefecture_code": 13,
    "city": "港区",
    "city_kana": "ミナトク",
    "town": "白金",
    "town_kana": "シロカネ",
    "street": "１丁目１７−３ＮＢＦプラチナタワー１２Ｆ",
    "office_name": "さくら情報システム　株式会社",
    "office_name_kana": "サクラジヨウホウシステム カブシキガイシヤ"
  },
  "8707": {
    "postcode": "1088707",
    "prefecture": "東京都",
    "prefecture_kana": "トウキョウト",
    "prefecture_code": 13,
    "city": "港区",
    "city_kana": "ミナトク",
    "town": "三田",
    "town_kana": "ミタ",
    "street": "３丁目１２−１２（高輪郵便局私書箱第１８号）",
    "office_name": "一般財団法人　日本モーターボート競走会",
    "office_name_kana": "イツパンザイダンホウジン ニツポンモ-タ-ボ-トキヨウソウカイ"
  },
  "8710": {
    "postcode": "1088710",
    "prefecture": "東京都",
    "prefecture_kana": "トウキョウト",
    "prefecture_code": 13,
    "city": "港区",
    "city_kana": "ミナトク",
    "town": "港南",
    "town_kana": "コウナン",
    "street": "１丁目８−３５（高輪郵便局私書箱第２６号）",
    "office_name": "コクヨ　（株）　品川オフィス",
    "office_name_kana": "コクヨ (カブ) シナガワオフイス"
  },
  "8713": {
    "postcode": "1088713",
    "prefecture": "東京都",
    "prefecture_kana": "トウキョウト",
    "prefecture_code": 13,
    "city": "港区",
    "city_kana": "ミナトク",
    "town": "芝浦",
    "town_kana": "シバウラ",
    "street": "４丁目８番３号（高輪郵便局私書箱第１３号）",
    "office_name": "トヨタモビリティ東京　株式会社",
    "office_name_kana": "トヨタモビリテイトウキヨウ カブシキガイシヤ"
  }
}