{
  "0841": {
    "postcode": "1230841",
    "prefecture": "東京都",
    "prefecture_kana": "トウキョウト",
    "prefecture_code": 13,
    "city": "足立区",
    "city_kana": "アダチク",
    "town": "西新井",
    "town_kana": "ニシアライ",
    "street": null,
    "office_name": null,
    "office_name_kana": null
  },
  "0842": {
    "postcode": "1230842",
    "prefecture": "東京都",
    "prefecture_kana": "トウキョウト",
    "prefecture_code": 13,
    "city": "足立区",
    "city_kana": "アダチク",
    "town": "栗原",
    "town_kana": "クリハラ",
    "street": null,
    "office_name": null,
    "office_name_kana": null
  },
  "0843": {
    "postcode": "1230843",
    "prefecture": "東京都",
    "prefecture_kana": "トウキョウト",
    "prefecture_code": 13,
    "city": "足立区",
    "city_kana": "アダチク",
    "town": "西新井栄町",
    "town_kana": "ニシアライサカエチョウ",
    "street": null,
    "office_name": null,
    "office_name_kana": null
  },
  "0844": {
    "postcode": "1230844",
    "prefecture": "東京都",
    "prefecture_kana": "トウキョウト",
    "prefecture_code": 13,
    "city": "足立区",
    "city_kana": "アダチク",
    "town": "興野",
    "town_kana": "オキノ",
    "street": null,
    "office_name": null,
    "office_name_kana": null
  },
  "0845": {
    "postcode": "1230845",
    "prefecture": "東京都",
    "prefecture_kana": "トウキョウト",
    "prefecture_code": 13,
    "city": "足立区",
    "city_kana": "アダチク",
    "town": "西新井本町",
    "town_kana": "ニシアライホンチョウ",
    "street": null,
    "office_name": null,
    "office_name_kana": null
  },
  "0851": {
    "postcode": "1230851",
    "prefecture": "東京都",
    "prefecture_kana": "トウキョウト",
    "prefecture_code": 13,
    "city": "足立区",
    "city_kana": "アダチク",
    "town": "梅田",
    "town_kana": "ウメダ",
    "street": null,
    "office_name": null,
    "office_name_kana": null
  },
  "0852": {
    "postcode": "1230852",
    "prefecture": "東京都",
    "prefecture_kana": "トウキョウト",
    "prefecture_code": 13,
    "city": "足立区",
    "city_kana": "アダチク",
    "town": "関原",
    "town_kana": "セキバラ",
    "street": null,
    "office_name": null,
    "office_name_kana": null
  },
  "0853": {
    "postcode": "1230853",
    "prefecture": "東京都",
    "prefecture_kana": "トウキョウト",
    "prefecture_code": 13,
    "city": "足立区",
    "city_kana": "アダチク",
    "town": "本木",
    "town_kana": "モトキ",
    "street": null,
    "office_name": null,
    "office_name_kana": null
  },
  "0854": {
    "postcode": "1230854",
    "prefecture": "東京都",
    "prefecture_kana": "トウキョウト",
    "prefecture_code": 13,
    "city": "足立区",
    "city_kana": "アダチク",
    "town": "本木東町",
    "town_kana": "モトキヒガシマチ",
    "street": null,
    "office_name": null,
    "office_name_kana": null
  },
  "0855": {
    "postcode": "1230855",
    "prefecture": "東京都",
    "prefecture_kana": "トウキョウト",
    "prefecture_code": 13,
    "city": "足立区",
    "city_kana": "アダチク",
    "town": "本木南町",
    "town_kana": "モトキミナミマチ",
    "street": null,
    "office_name": null,
    "office_name_kana": null
  },
  "0856": {
    "postcode": "1230856",
    "prefecture": "東京都",
    "prefecture_kana": "トウキョウト",
    "prefecture_code": 13,
    "city": "足立区",
    "city_kana": "アダチク",
    "town": "本木西町",
    "town_kana": "モトキニシマチ",
    "street": null,
    "office_name": null,
    "office_name_kana": null
  },
  "0857": {
    "postcode": "1230857",
    "prefecture": "東京都",
    "prefecture_kana": "トウキョウト",
    "prefecture_code": 13,
    "city": "足立区",
    "city_kana": "アダチク",
    "town": "本木北町",
    "town_kana": "モトキキタマチ",
    "street": null,
    "office_name": null,
    "office_name_kana": null
  },
  "0861": {
    "postcode": "1230861",
    "prefecture": "東京都",
    "prefecture_kana": "トウキョウト",
    "prefecture_code": 13,
    "city": "足立区",
    "city_kana": "アダチク",
    "town": "加賀",
    "town_kana": "カガ",
    "street": null,
    "office_name": null,
    "office_name_kana": null
  },
  "0862": {
    "postcode": "1230862",
    "prefecture": "東京都",
    "prefecture_kana": "トウキョウト",
    "prefecture_code": 13,
    "city": "足立区",
    "city_kana": "アダチク",
    "town": "皿沼",
    "town_kana": "サラヌマ",
    "street": null,
    "office_name": null,
    "office_name_kana": null
  },
  "0863": {
    "postcode": "1230863",
    "prefecture": "東京都",
    "prefecture_kana": "トウキョウト",
    "prefecture_code": 13,
    "city": "足立区",
    "city_kana": "アダチク",
    "town": "谷在家",
    "town_kana": "ヤザイケ",
    "street": null,
    "office_name": null,
    "office_name_kana": null
  },
  "0864": {
    "postcode": "1230864",
    "prefecture": "東京都",
    "prefecture_kana": "トウキョウト",
    "prefecture_code": 13,
    "city": "足立区",
    "city_kana": "アダチク",
    "town": "鹿浜",
    "town_kana": "シカハマ",
    "street": null,
    "office_name": null,
    "office_name_kana": null
  },
  "0865": {
    "postcode": "1230865",
    "prefecture": "東京都",
    "prefecture_kana": "トウキョウト",
    "prefecture_code": 13,
    "city": "足立区",
    "city_kana": "アダチク",
    "town": "新田",
    "town_kana": "シンデン",
    "street": null,
    "office_name": null,
    "office_name_kana": null
  },
  "0871": {
    "postcode": "1230871",
    "prefecture": "東京都",
    "prefecture_kana": "トウキョウト",
    "prefecture_code": 13,
    "city": "足立区",
    "city_kana": "アダチク",
    "town": "椿",
    "town_kana": "ツバキ",
    "street": null,
    "office_name": null,
    "office_name_kana": null
  },
  "0872": {
    "postcode": "1230872",
    "prefecture": "東京都",
    "prefecture_kana": "トウキョウト",
    "prefecture_code": 13,
    "city": "足立区",
    "city_kana": "アダチク",
    "town": "江北",
    "town_kana": "コウホク",
    "street": null,
    "office_name": null,
    "office_name_kana": null
  },
  "0873": {
    "postcode": "1230873",
    "prefecture": "東京都",
    "prefecture_kana": "トウキョウト",
    "prefecture_code": 13,
    "city": "足立区",
    "city_kana": "アダチク",
    "town": "扇",
    "town_kana": "オウギ",
    "street": null,
    "office_name": null,
    "office_name_kana": null
  },
  "0874": {
    "postcode": "1230874",
    "prefecture": "東京都",
    "prefecture_kana": "トウキョウト",
    "prefecture_code": 13,
    "city": "足立区",
    "city_kana": "アダチク",
    "town": "堀之内",
    "town_kana": "ホリノウチ",
    "street": null,
    "office_name": null,
    "office_name_kana": null
  },
  "8501": {
    "postcode": "1238501",
    "prefecture": "東京都",
    "prefecture_kana": "トウキョウト",
    "prefecture_code": 13,
    "city": "足立区",
    "city_kana": "アダチク",
    "town": "栗原",
    "town_kana": "クリハラ",
    "street": "３丁目１０−１６",
    "office_name": "西新井税務署",
    "office_name_kana": "ニシアライゼイムシヨ"
  },
  "8503": {
    "postcode": "1238503",
    "prefecture": "東京都",
    "prefecture_kana": "トウキョウト",
    "prefecture_code": 13,
    "city": "足立区",
    "city_kana": "アダチク",
    "town": "西新井本町",
    "town_kana": "ニシアライホンチョウ",
    "street": "２丁目１２−１２",
    "office_name": "森宮電機　株式会社",
    "office_name_kana": "モリミヤデンキ カブシキガイシヤ"
  },
  "8505": {
    "postcode": "1238505",
    "prefecture": "東京都",
    "prefecture_kana": "トウキョウト",
    "prefecture_code": 13,
    "city": "足立区",
    "city_kana": "アダチク",
    "town": "堀之内",
    "town_kana": "ホリノウチ",
    "street": "１丁目１３−１０",
    "office_name": "富双合成　株式会社",
    "office_name_kana": "フソウゴウセイ カブシキガイシヤ"
  },
  "8506": {
    "postcode": "1238506",
    "prefecture": "東京都",
    "prefecture_kana": "トウキョウト",
    "prefecture_code": 13,
    "city": "足立区",
    "city_kana": "アダチク",
    "town": "堀之内",
    "town_kana": "ホリノウチ",
    "street": "１丁目１５−３",
    "office_name": "信州名鉄運輸　株式会社",
    "office_name_kana": "シンシユウメイテツウンユ カブシキガイシヤ"
  },
  "8507": {
    "postcode": "1238507",
    "prefecture": "東京都",
    "prefecture_kana": "トウキョウト",
    "prefecture_code": 13,
    "city": "足立区",
    "city_kana": "アダチク",
    "town": "谷在家",
    "town_kana": "ヤザイケ",
    "street": "３丁目２５番１１号",
    "office_name": "株式会社　ハイロジック　東京支店",
    "office_name_kana": "カブシキガイシヤ ハイロジツク トウキヨウシテン"
  },
  "8508": {
    "postcode": "1238508",
    "prefecture": "東京都",
    "prefecture_kana": "トウキョウト",
    "prefecture_code": 13,
    "city": "足立区",
    "city_kana": "アダチク",
    "town": "谷在家",
    "town_kana": "ヤザイケ",
    "street": "３丁目２９−５",
    "office_name": "イーダ　株式会社",
    "office_name_kana": "イ-ダ カブシキガイシヤ"
  },
  "8509": {
    "postcode": "1238509",
    "prefecture": "東京都",
    "prefecture_kana": "トウキョウト",
    "prefecture_code": 13,
    "city": "足立区",
    "city_kana": "アダチク",
    "town": "鹿浜",
    "town_kana": "シカハマ",
    "street": "３丁目３−３",
    "office_name": "株式会社　アベルコ",
    "office_name_kana": "カブシキガイシヤ アベルコ"
  },
  "8511": {
    "postcode": "1238511",
    "prefecture": "東京都",
    "prefecture_kana": "トウキョウト",
    "prefecture_code": 13,
    "city": "足立区",
    "city_kana": "アダチク",
    "town": "新田",
    "town_kana": "シンデン",
    "street": "３丁目８−２２",
    "office_name": "並木精密宝石　株式会社",
    "office_name_kana": "ナミキセイミツホウセキ カブシキガイシヤ"
  },
  "8512": {
    "postcode": "1238512",
    "prefecture": "東京都",
    "prefecture_kana": "トウキョウト",
    "prefecture_code": 13,
    "city": "足立区",
    "city_kana": "アダチク",
    "town": "西新井栄町",
    "town_kana": "ニシアライサカエチョウ",
    "street": "２丁目８番１５号",
    "office_name": "東京都足立都税事務所",
    "office_name_kana": "トウキヨウトアダチトゼイジムシヨ"
  },
  "8514": {
    "postcode": "1238514",
    "prefecture": "東京都",
    "prefecture_kana": "トウキョウト",
    "prefecture_code": 13,
    "city": "足立区",
    "city_kana": "アダチク",
    "town": "江北",
    "town_kana": "コウホク",
    "street": "４丁目９−１",
    "office_name": "丸石自転車　株式会社　東京工場",
    "office_name_kana": "マルイシジテンシヤ カブシキガイシヤ トウキヨウコウジヨウ"
  },
  "8517": {
    "postcode": "1238517",
    "prefecture": "東京都",
    "prefecture_kana": "トウキョウト",
    "prefecture_code": 13,
    "city": "足立区",
    "city_kana": "アダチク",
    "town": "江北",
    "town_kana": "コウホク",
    "street": "５丁目５−５",
    "office_name": "水道局　足立西営業所",
    "office_name_kana": "スイドウキヨク アダチニシエイギヨウシヨ"
  },
  "8540": {
    "postcode": "1238540",
    "prefecture": "東京都",
    "prefecture_kana": "トウキョウト",
    "prefecture_code": 13,
    "city": "足立区",
    "city_kana": "アダチク",
    "town": "西新井栄町",
    "town_kana": "ニシアライサカエチョウ",
    "street": "１丁目１６−１",
    "office_name": "警視庁　西新井警察署",
    "office_name_kana": "ケイシチヨウ ニシアライケイサツシヨ"
  },
  "8558": {
    "postcode": "1238558",
    "prefecture": "東京都",
    "prefecture_kana": "トウキョウト",
    "prefecture_code": 13,
    "city": "足立区",
    "city_kana": "アダチク",
    "town": "江北",
    "town_kana": "コウホク",
    "street": "４丁目３３番１号",
    "office_name": "東京女子医科大学附属足立医療センター",
    "office_name_kana": "トウキヨウジヨシイカダイガクフゾクアダチイリヨウセンタ-"
  },
  "8588": {
    "postcode": "1238588",
    "prefecture": "東京都",
    "prefecture_kana": "トウキョウト",
    "prefecture_code": 13,
    "city": "足立区",
    "city_kana": "アダチク",
    "town": "堀之内",
    "town_kana": "ホリノウチ",
    "street": "１丁目１４−２０",
    "office_name": "トークシステム　株式会社",
    "office_name_kana": "ト-クシステム カブシキガイシヤ"
  }
}