{
  "0000": {
    "postcode": "1300000",
    "prefecture": "東京都",
    "prefecture_kana": "トウキョウト",
    "prefecture_code": 13,
    "city": "墨田区",
    "city_kana": "スミダク",
    "town": "",
    "town_kana": "",
    "street": null,
    "office_name": null,
    "office_name_kana": null
  },
  "0001": {
    "postcode": "1300001",
    "prefecture": "東京都",
    "prefecture_kana": "トウキョウト",
    "prefecture_code": 13,
    "city": "墨田区",
    "city_kana": "スミダク",
    "town": "吾妻橋",
    "town_kana": "アヅマバシ",
    "street": null,
    "office_name": null,
    "office_name_kana": null
  },
  "0002": {
    "postcode": "1300002",
    "prefecture": "東京都",
    "prefecture_kana": "トウキョウト",
    "prefecture_code": 13,
    "city": "墨田区",
    "city_kana": "スミダク",
    "town": "業平",
    "town_kana": "ナリヒラ",
    "street": null,
    "office_name": null,
    "office_name_kana": null
  },
  "0003": {
    "postcode": "1300003",
    "prefecture": "東京都",
    "prefecture_kana": "トウキョウト",
    "prefecture_code": 13,
    "city": "墨田区",
    "city_kana": "スミダク",
    "town": "横川",
    "town_kana": "ヨコカワ",
    "street": null,
    "office_name": null,
    "office_name_kana": null
  },
  "0004": {
    "postcode": "1300004",
    "prefecture": "東京都",
    "prefecture_kana": "トウキョウト",
    "prefecture_code": 13,
    "city": "墨田区",
    "city_kana": "スミダク",
    "town": "本所",
    "town_kana": "ホンジョ",
    "street": null,
    "office_name": null,
    "office_name_kana": null
  },
  "0005": {
    "postcode": "1300005",
    "prefecture": "東京都",
    "prefecture_kana": "トウキョウト",
    "prefecture_code": 13,
    "city": "墨田区",
    "city_kana": "スミダク",
    "town": "東駒形",
    "town_kana": "ヒガシコマガタ",
    "street": null,
    "office_name": null,
    "office_name_kana": null
  },
  "0011": {
    "postcode": "1300011",
    "prefecture": "東京都",
    "prefecture_kana": "トウキョウト",
    "prefecture_code": 13,
    "city": "墨田区",
    "city_kana": "スミダク",
    "town": "石原",
    "town_kana": "イシワラ",
    "street": null,
    "office_name": null,
    "office_name_kana": null
  },
  "0012": {
    "postcode": "1300012",
    "prefecture": "東京都",
    "prefecture_kana": "トウキョウト",
    "prefecture_code": 13,
    "city": "墨田区",
    "city_kana": "スミダク",
    "town": "太平",
    "town_kana": "タイヘイ",
    "street": null,
    "office_name": null,
    "office_name_kana": null
  },
  "0013": {
    "postcode": "1300013",
    "prefecture": "東京都",
    "prefecture_kana": "トウキョウト",
    "prefecture_code": 13,
    "city": "墨田区",
    "city_kana": "スミダク",
    "town": "錦糸",
    "town_kana": "キンシ",
    "street": null,
    "office_name": null,
    "office_name_kana": null
  },
  "0014": {
    "postcode": "1300014",
    "prefecture": "東京都",
    "prefecture_kana": "トウキョウト",
    "prefecture_code": 13,
    "city": "墨田区",
    "city_kana": "スミダク",
    "town": "亀沢",
    "town_kana": "カメザワ",
    "street": null,
    "office_name": null,
    "office_name_kana": null
  },
  "0015": {
    "postcode": "1300015",
    "prefecture": "東京都",
    "prefecture_kana": "トウキョウト",
    "prefecture_code": 13,
    "city": "墨田区",
    "city_kana": "スミダク",
    "town": "横網",
    "town_kana": "ヨコアミ",
    "street": null,
    "office_name": null,
    "office_name_kana": null
  },
  "0021": {
    "postcode": "1300021",
    "prefecture": "東京都",
    "prefecture_kana": "トウキョウト",
    "prefecture_code": 13,
    "city": "墨田区",
    "city_kana": "スミダク",
    "town": "緑",
    "town_kana": "ミドリ",
    "street": null,
    "office_name": null,
    "office_name_kana": null
  },
  "0022": {
    "postcode": "1300022",
    "prefecture": "東京都",
    "prefecture_kana": "トウキョウト",
    "prefecture_code": 13,
    "city": "墨田区",
    "city_kana": "スミダク",
    "town": "江東橋",
    "town_kana": "コウトウバシ",
    "street": null,
    "office_name": null,
    "office_name_kana": null
  },
  "0023": {
    "postcode": "1300023",
    "prefecture": "東京都",
    "prefecture_kana": "トウキョウト",
    "prefecture_code": 13,
    "city": "墨田区",
    "city_kana": "スミダク",
    "town": "立川",
    "town_kana": "タテカワ",
    "street": null,
    "office_name": null,
    "office_name_kana": null
  },
  "0024": {
    "postcode": "1300024",
    "prefecture": "東京都",
    "prefecture_kana": "トウキョウト",
    "prefecture_code": 13,
    "city": "墨田区",
    "city_kana": "スミダク",
    "town": "菊川",
    "town_kana": "キクカワ",
    "street": null,
    "office_name": null,
    "office_name_kana": null
  },
  "0025": {
    "postcode": "1300025",
    "prefecture": "東京都",
    "prefecture_kana": "トウキョウト",
    "prefecture_code": 13,
    "city": "墨田区",
    "city_kana": "スミダク",
    "town": "千歳",
    "town_kana": "チトセ",
    "street": null,
    "office_name": null,
    "office_name_kana": null
  },
  "0026": {
    "postcode": "1300026",
    "prefecture": "東京都",
    "prefecture_kana": "トウキョウト",
    "prefecture_code": 13,
    "city": "墨田区",
    "city_kana": "スミダク",
    "town": "両国",
    "town_kana": "リョウゴク",
    "street": null,
    "office_name": null,
    "office_name_kana": null
  },
  "8501": {
    "postcode": "1308501",
    "prefecture": "東京都",
    "prefecture_kana": "トウキョウト",
    "prefecture_code": 13,
    "city": "墨田区",
    "city_kana": "スミダク",
    "town": "錦糸",
    "town_kana": "キンシ",
    "street": "３丁目７−１",
    "office_name": "株式会社　ハセガワ",
    "office_name_kana": "カブシキガイシヤ ハセガワ"
  },
  "8503": {
    "postcode": "1308503",
    "prefecture": "東京都",
    "prefecture_kana": "トウキョウト",
    "prefecture_code": 13,
    "city": "墨田区",
    "city_kana": "スミダク",
    "town": "錦糸",
    "town_kana": "キンシ",
    "street": "３丁目９−８",
    "office_name": "株式会社　大和研材商会",
    "office_name_kana": "カブシキガイシヤ ヤマトケンザイシヨウカイ"
  },
  "8504": {
    "postcode": "1308504",
    "prefecture": "東京都",
    "prefecture_kana": "トウキョウト",
    "prefecture_code": 13,
    "city": "墨田区",
    "city_kana": "スミダク",
    "town": "緑",
    "town_kana": "ミドリ",
    "street": "３丁目９−２",
    "office_name": "株式会社　ロゴスコーポレーション",
    "office_name_kana": "カブシキガイシヤ ロゴスコ-ポレ-シヨン"
  },
  "8505": {
    "postcode": "1308505",
    "prefecture": "東京都",
    "prefecture_kana": "トウキョウト",
    "prefecture_code": 13,
    "city": "墨田区",
    "city_kana": "スミダク",
    "town": "横網",
    "town_kana": "ヨコアミ",
    "street": "１丁目１０−５",
    "office_name": "株式会社　新藤コーポレーション",
    "office_name_kana": "カブシキガイシヤ シンドウコ-ポレ-シヨン"
  },
  "8506": {
    "postcode": "1308506",
    "prefecture": "東京都",
    "prefecture_kana": "トウキョウト",
    "prefecture_code": 13,
    "city": "墨田区",
    "city_kana": "スミダク",
    "town": "緑",
    "town_kana": "ミドリ",
    "street": "４−３９−７−１０１",
    "office_name": "株式会社　ミノウラ",
    "office_name_kana": "カブシキガイシヤ ミノウラ"
  },
  "8507": {
    "postcode": "1308507",
    "prefecture": "東京都",
    "prefecture_kana": "トウキョウト",
    "prefecture_code": 13,
    "city": "墨田区",
    "city_kana": "スミダク",
    "town": "錦糸",
    "town_kana": "キンシ",
    "street": "１丁目５−１５",
    "office_name": "ヤバネスポーツ　株式会社",
    "office_name_kana": "ヤバネスポ-ツ カブシキガイシヤ"
  },
  "8508": {
    "postcode": "1308508",
    "prefecture": "東京都",
    "prefecture_kana": "トウキョウト",
    "prefecture_code": 13,
    "city": "墨田区",
    "city_kana": "スミダク",
    "town": "亀沢",
    "town_kana": "カメザワ",
    "street": "１丁目３−７",
    "office_name": "ハクバ写真産業　株式会社",
    "office_name_kana": "ハクバシヤシンサンギヨウ カブシキガイシヤ"
  },
  "8509": {
    "postcode": "1308509",
    "prefecture": "東京都",
    "prefecture_kana": "トウキョウト",
    "prefecture_code": 13,
    "city": "墨田区",
    "city_kana": "スミダク",
    "town": "両国",
    "town_kana": "リョウゴク",
    "street": "４丁目３１−１６",
    "office_name": "大東信用金庫",
    "office_name_kana": "ダイトウシンヨウキンコ"
  },
  "8510": {
    "postcode": "1308510",
    "prefecture": "東京都",
    "prefecture_kana": "トウキョウト",
    "prefecture_code": 13,
    "city": "墨田区",
    "city_kana": "スミダク",
    "town": "菊川",
    "town_kana": "キクカワ",
    "street": "３丁目２０−７",
    "office_name": "株式会社　ローズマダム",
    "office_name_kana": "カブシキガイシヤ ロ-ズマダム"
  },
  "8511": {
    "postcode": "1308511",
    "prefecture": "東京都",
    "prefecture_kana": "トウキョウト",
    "prefecture_code": 13,
    "city": "墨田区",
    "city_kana": "スミダク",
    "town": "緑",
    "town_kana": "ミドリ",
    "street": "１丁目２５−５",
    "office_name": "千代田管鉄　株式会社",
    "office_name_kana": "チヨダカンテツ カブシキガイシヤ"
  },
  "8512": {
    "postcode": "1308512",
    "prefecture": "東京都",
    "prefecture_kana": "トウキョウト",
    "prefecture_code": 13,
    "city": "墨田区",
    "city_kana": "スミダク",
    "town": "錦糸",
    "town_kana": "キンシ",
    "street": "１丁目７−７",
    "office_name": "石塚電子　株式会社",
    "office_name_kana": "イシヅカデンシ カブシキガイシヤ"
  },
  "8513": {
    "postcode": "1308513",
    "prefecture": "東京都",
    "prefecture_kana": "トウキョウト",
    "prefecture_code": 13,
    "city": "墨田区",
    "city_kana": "スミダク",
    "town": "立川",
    "town_kana": "タテカワ",
    "street": "４丁目１５−３",
    "office_name": "電気硝子建材　株式会社",
    "office_name_kana": "デンキガラスケンザイ カブシキガイシヤ"
  },
  "8514": {
    "postcode": "1308514",
    "prefecture": "東京都",
    "prefecture_kana": "トウキョウト",
    "prefecture_code": 13,
    "city": "墨田区",
    "city_kana": "スミダク",
    "town": "亀沢",
    "town_kana": "カメザワ",
    "street": "４丁目１４−１０",
    "office_name": "東京文具　株式会社",
    "office_name_kana": "トウキヨウブング カブシキガイシヤ"
  },
  "8515": {
    "postcode": "1308515",
    "prefecture": "東京都",
    "prefecture_kana": "トウキョウト",
    "prefecture_code": 13,
    "city": "墨田区",
    "city_kana": "スミダク",
    "town": "千歳",
    "town_kana": "チトセ",
    "street": "３丁目１７−７",
    "office_name": "助野靴下　株式会社　東京支店",
    "office_name_kana": "スケノクツシタ カブシキガイシヤ トウキヨウシテン"
  },
  "8516": {
    "postcode": "1308516",
    "prefecture": "東京都",
    "prefecture_kana": "トウキョウト",
    "prefecture_code": 13,
    "city": "墨田区",
    "city_kana": "スミダク",
    "town": "江東橋",
    "town_kana": "コウトウバシ",
    "street": "１丁目３−６",
    "office_name": "株式会社　吉田製作所",
    "office_name_kana": "カブシキガイシヤ ヨシダセイサクジヨ"
  },
  "8517": {
    "postcode": "1308517",
    "prefecture": "東京都",
    "prefecture_kana": "トウキョウト",
    "prefecture_code": 13,
    "city": "墨田区",
    "city_kana": "スミダク",
    "town": "千歳",
    "town_kana": "チトセ",
    "street": "３丁目１８−９",
    "office_name": "ツバメ石油　株式会社",
    "office_name_kana": "ツバメセキユ カブシキガイシヤ"
  },
  "8518": {
    "postcode": "1308518",
    "prefecture": "東京都",
    "prefecture_kana": "トウキョウト",
    "prefecture_code": 13,
    "city": "墨田区",
    "city_kana": "スミダク",
    "town": "江東橋",
    "town_kana": "コウトウバシ",
    "street": "３丁目９−１０",
    "office_name": "株式会社　丸井　錦糸町店",
    "office_name_kana": "カブシキガイシヤ マルイ キンシチヨウテン"
  },
  "8520": {
    "postcode": "1308520",
    "prefecture": "東京都",
    "prefecture_kana": "トウキョウト",
    "prefecture_code": 13,
    "city": "墨田区",
    "city_kana": "スミダク",
    "town": "亀沢",
    "town_kana": "カメザワ",
    "street": "１丁目４−７",
    "office_name": "渡辺パイプ　株式会社",
    "office_name_kana": "ワタナベパイプ カブシキガイシヤ"
  },
  "8521": {
    "postcode": "1308521",
    "prefecture": "東京都",
    "prefecture_kana": "トウキョウト",
    "prefecture_code": 13,
    "city": "墨田区",
    "city_kana": "スミダク",
    "town": "亀沢",
    "town_kana": "カメザワ",
    "street": "３丁目２２−１",
    "office_name": "ＹＫＫ　ＡＰ　株式会社",
    "office_name_kana": "ワイケイケイ エ-ピ- カブシキガイシヤ"
  },
  "8522": {
    "postcode": "1308522",
    "prefecture": "東京都",
    "prefecture_kana": "トウキョウト",
    "prefecture_code": 13,
    "city": "墨田区",
    "city_kana": "スミダク",
    "town": "本所",
    "town_kana": "ホンジョ",
    "street": "３丁目２１番１０号",
    "office_name": "坂田建設　株式会社",
    "office_name_kana": "サカタケンセツ カブシキガイシヤ"
  },
  "8525": {
    "postcode": "1308525",
    "prefecture": "東京都",
    "prefecture_kana": "トウキョウト",
    "prefecture_code": 13,
    "city": "墨田区",
    "city_kana": "スミダク",
    "town": "菊川",
    "town_kana": "キクカワ",
    "street": "２丁目２３−１２",
    "office_name": "ピップトウキョウ　株式会社　メディカル事業部",
    "office_name_kana": "ピツプトウキヨウ カブシキガイシヤ メデイカルジギヨウブ"
  },
  "8528": {
    "postcode": "1308528",
    "prefecture": "東京都",
    "prefecture_kana": "トウキョウト",
    "prefecture_code": 13,
    "city": "墨田区",
    "city_kana": "スミダク",
    "town": "緑",
    "town_kana": "ミドリ",
    "street": "１丁目２７番８号",
    "office_name": "ナイガイ　株式会社",
    "office_name_kana": "ナイガイ カブシキガイシヤ"
  },
  "8530": {
    "postcode": "1308530",
    "prefecture": "東京都",
    "prefecture_kana": "トウキョウト",
    "prefecture_code": 13,
    "city": "墨田区",
    "city_kana": "スミダク",
    "town": "緑",
    "town_kana": "ミドリ",
    "street": "４丁目５−１２",
    "office_name": "岡部バルブ工業　株式会社",
    "office_name_kana": "オカベバルブコウギヨウ カブシキガイシヤ"
  },
  "8531": {
    "postcode": "1308531",
    "prefecture": "東京都",
    "prefecture_kana": "トウキョウト",
    "prefecture_code": 13,
    "city": "墨田区",
    "city_kana": "スミダク",
    "town": "錦糸",
    "town_kana": "キンシ",
    "street": "３丁目２−１アルカイースト",
    "office_name": "三井金属エンジニアリング　株式会社",
    "office_name_kana": "ミツイキンゾクエンジニアリング カブシキガイシヤ"
  },
  "8533": {
    "postcode": "1308533",
    "prefecture": "東京都",
    "prefecture_kana": "トウキョウト",
    "prefecture_code": 13,
    "city": "墨田区",
    "city_kana": "スミダク",
    "town": "錦糸",
    "town_kana": "キンシ",
    "street": "２丁目１１−１",
    "office_name": "協和自動車　株式会社",
    "office_name_kana": "キヨウワジドウシヤ カブシキガイシヤ"
  },
  "8534": {
    "postcode": "1308534",
    "prefecture": "東京都",
    "prefecture_kana": "トウキョウト",
    "prefecture_code": 13,
    "city": "墨田区",
    "city_kana": "スミダク",
    "town": "錦糸",
    "town_kana": "キンシ",
    "street": "１丁目５−１４",
    "office_name": "株式会社　サンヨー堂",
    "office_name_kana": "カブシキガイシヤ サンヨ-ドウ"
  },
  "8535": {
    "postcode": "1308535",
    "prefecture": "東京都",
    "prefecture_kana": "トウキョウト",
    "prefecture_code": 13,
    "city": "墨田区",
    "city_kana": "スミダク",
    "town": "江東橋",
    "town_kana": "コウトウバシ",
    "street": "４丁目２７−１４",
    "office_name": "株式会社　東京楽天地",
    "office_name_kana": "カブシキガイシヤ トウキヨウラクテンチ"
  },
  "8538": {
    "postcode": "1308538",
    "prefecture": "東京都",
    "prefecture_kana": "トウキョウト",
    "prefecture_code": 13,
    "city": "墨田区",
    "city_kana": "スミダク",
    "town": "両国",
    "town_kana": "リョウゴク",
    "street": "３丁目１９−３",
    "office_name": "近江屋写真用品　株式会社",
    "office_name_kana": "オオミヤシヤシンヨウヒン カブシキガイシヤ"
  },
  "8539": {
    "postcode": "1308539",
    "prefecture": "東京都",
    "prefecture_kana": "トウキョウト",
    "prefecture_code": 13,
    "city": "墨田区",
    "city_kana": "スミダク",
    "town": "江東橋",
    "town_kana": "コウトウバシ",
    "street": "３丁目９−３",
    "office_name": "国宝商事　株式会社",
    "office_name_kana": "コクホウシヨウジ カブシキガイシヤ"
  },
  "8543": {
    "postcode": "1308543",
    "prefecture": "東京都",
    "prefecture_kana": "トウキョウト",
    "prefecture_code": 13,
    "city": "墨田区",
    "city_kana": "スミダク",
    "town": "太平",
    "town_kana": "タイヘイ",
    "street": "４丁目３−８",
    "office_name": "株式会社　昭電",
    "office_name_kana": "カブシキガイシヤ シヨウデン"
  },
  "8545": {
    "postcode": "1308545",
    "prefecture": "東京都",
    "prefecture_kana": "トウキョウト",
    "prefecture_code": 13,
    "city": "墨田区",
    "city_kana": "スミダク",
    "town": "両国",
    "town_kana": "リョウゴク",
    "street": "４丁目３５−９",
    "office_name": "東京東信用金庫",
    "office_name_kana": "トウキヨウヒガシシンヨウキンコ"
  },
  "8546": {
    "postcode": "1308546",
    "prefecture": "東京都",
    "prefecture_kana": "トウキョウト",
    "prefecture_code": 13,
    "city": "墨田区",
    "city_kana": "スミダク",
    "town": "菊川",
    "town_kana": "キクカワ",
    "street": "３丁目１７番２号",
    "office_name": "さくらカード　株式会社",
    "office_name_kana": "サクラカ-ド カブシキガイシヤ"
  },
  "8548": {
    "postcode": "1308548",
    "prefecture": "東京都",
    "prefecture_kana": "トウキョウト",
    "prefecture_code": 13,
    "city": "墨田区",
    "city_kana": "スミダク",
    "town": "菊川",
    "town_kana": "キクカワ",
    "street": "３丁目１７−２",
    "office_name": "株式会社　セディナ",
    "office_name_kana": "カブシキガイシヤ セデイナ"
  },
  "8553": {
    "postcode": "1308553",
    "prefecture": "東京都",
    "prefecture_kana": "トウキョウト",
    "prefecture_code": 13,
    "city": "墨田区",
    "city_kana": "スミダク",
    "town": "両国",
    "town_kana": "リョウゴク",
    "street": "４丁目３０番７号",
    "office_name": "東京都金属プレス工業健康保険組合",
    "office_name_kana": "トウキヨウトキンゾクプレスコウギヨウケンコウホケンクミアイ"
  },
  "8554": {
    "postcode": "1308554",
    "prefecture": "東京都",
    "prefecture_kana": "トウキョウト",
    "prefecture_code": 13,
    "city": "墨田区",
    "city_kana": "スミダク",
    "town": "両国",
    "town_kana": "リョウゴク",
    "street": "４−３０−７金属プレス会館７Ｆ",
    "office_name": "ＪＭＳＡ福祉企業年金基金",
    "office_name_kana": "ジヤムサフクシキギヨウネンキンキキン"
  },
  "8555": {
    "postcode": "1308555",
    "prefecture": "東京都",
    "prefecture_kana": "トウキョウト",
    "prefecture_code": 13,
    "city": "墨田区",
    "city_kana": "スミダク",
    "town": "菊川",
    "town_kana": "キクカワ",
    "street": "３丁目１−１１",
    "office_name": "株式会社　ティムコ",
    "office_name_kana": "カブシキガイシヤ テイムコ"
  },
  "8556": {
    "postcode": "1308556",
    "prefecture": "東京都",
    "prefecture_kana": "トウキョウト",
    "prefecture_code": 13,
    "city": "墨田区",
    "city_kana": "スミダク",
    "town": "両国",
    "town_kana": "リョウゴク",
    "street": "２丁目１０−１４",
    "office_name": "日本電技　株式会社",
    "office_name_kana": "ニホンデンギ カブシキガイシヤ"
  },
  "8557": {
    "postcode": "1308557",
    "prefecture": "東京都",
    "prefecture_kana": "トウキョウト",
    "prefecture_code": 13,
    "city": "墨田区",
    "city_kana": "スミダク",
    "town": "錦糸",
    "town_kana": "キンシ",
    "street": "３丁目２−１アルカイースト",
    "office_name": "エイアイジー・スター生命保険　株式会社",
    "office_name_kana": "エイアイジ-・スタ-セイメイホケン カブシキガイシヤ"
  },
  "8558": {
    "postcode": "1308558",
    "prefecture": "東京都",
    "prefecture_kana": "トウキョウト",
    "prefecture_code": 13,
    "city": "墨田区",
    "city_kana": "スミダク",
    "town": "両国",
    "town_kana": "リョウゴク",
    "street": "２丁目１０−１４両国シティコアビル９Ｆ",
    "office_name": "株式会社　アイフルホームテクノロジー",
    "office_name_kana": "カブシキガイシヤ アイフルホ-ムテクノロジ-"
  },
  "8561": {
    "postcode": "1308561",
    "prefecture": "東京都",
    "prefecture_kana": "トウキョウト",
    "prefecture_code": 13,
    "city": "墨田区",
    "city_kana": "スミダク",
    "town": "太平",
    "town_kana": "タイヘイ",
    "street": "４−１−３オリナスタワー",
    "office_name": "メットライフ生命保険　株式会社",
    "office_name_kana": "メツトライフセイメイホケン カブシキガイシヤ"
  },
  "8563": {
    "postcode": "1308563",
    "prefecture": "東京都",
    "prefecture_kana": "トウキョウト",
    "prefecture_code": 13,
    "city": "墨田区",
    "city_kana": "スミダク",
    "town": "錦糸",
    "town_kana": "キンシ",
    "street": "１−２−４アルカウエスト８Ｆ",
    "office_name": "サンデン・リテールシステム　株式会社",
    "office_name_kana": "サンデン・リテ-ルシステム カブシキガイシヤ"
  },
  "8565": {
    "postcode": "1308565",
    "prefecture": "東京都",
    "prefecture_kana": "トウキョウト",
    "prefecture_code": 13,
    "city": "墨田区",
    "city_kana": "スミダク",
    "town": "錦糸",
    "town_kana": "キンシ",
    "street": "１丁目２−１",
    "office_name": "学校法人　東京ＩＴ会計法律学園",
    "office_name_kana": "ガツコウホウジン トウキヨウアイテイ-カイケイホウリツガクエン"
  },
  "8566": {
    "postcode": "1308566",
    "prefecture": "東京都",
    "prefecture_kana": "トウキョウト",
    "prefecture_code": 13,
    "city": "墨田区",
    "city_kana": "スミダク",
    "town": "亀沢",
    "town_kana": "カメザワ",
    "street": "４丁目１７−２",
    "office_name": "大井工業　株式会社",
    "office_name_kana": "オオイコウギヨウ カブシキガイシヤ"
  },
  "8567": {
    "postcode": "1308567",
    "prefecture": "東京都",
    "prefecture_kana": "トウキョウト",
    "prefecture_code": 13,
    "city": "墨田区",
    "city_kana": "スミダク",
    "town": "緑",
    "town_kana": "ミドリ",
    "street": "１丁目２−１０",
    "office_name": "マルヤマエクセル　株式会社",
    "office_name_kana": "マルヤマエクセル カブシキガイシヤ"
  },
  "8570": {
    "postcode": "1308570",
    "prefecture": "東京都",
    "prefecture_kana": "トウキョウト",
    "prefecture_code": 13,
    "city": "墨田区",
    "city_kana": "スミダク",
    "town": "緑",
    "town_kana": "ミドリ",
    "street": "４丁目１５−３",
    "office_name": "ロンシール工業　株式会社",
    "office_name_kana": "ロンシ-ルコウギヨウ カブシキガイシヤ"
  },
  "8575": {
    "postcode": "1308575",
    "prefecture": "東京都",
    "prefecture_kana": "トウキョウト",
    "prefecture_code": 13,
    "city": "墨田区",
    "city_kana": "スミダク",
    "town": "江東橋",
    "town_kana": "コウトウバシ",
    "street": "４丁目２３−１５",
    "office_name": "東京都立墨東病院",
    "office_name_kana": "トウキヨウトリツボクトウビヨウイン"
  },
  "8577": {
    "postcode": "1308577",
    "prefecture": "東京都",
    "prefecture_kana": "トウキョウト",
    "prefecture_code": 13,
    "city": "墨田区",
    "city_kana": "スミダク",
    "town": "両国",
    "town_kana": "リョウゴク",
    "street": "２丁目１−３",
    "office_name": "アカツキ商事　株式会社",
    "office_name_kana": "アカツキシヨウジ カブシキガイシヤ"
  },
  "8580": {
    "postcode": "1308580",
    "prefecture": "東京都",
    "prefecture_kana": "トウキョウト",
    "prefecture_code": 13,
    "city": "墨田区",
    "city_kana": "スミダク",
    "town": "江東橋",
    "town_kana": "コウトウバシ",
    "street": "３丁目１４−５",
    "office_name": "株式会社　錦糸町ステーションビル",
    "office_name_kana": "カブシキガイシヤ キンシチヨウステ-シヨンビル"
  },
  "8583": {
    "postcode": "1308583",
    "prefecture": "東京都",
    "prefecture_kana": "トウキョウト",
    "prefecture_code": 13,
    "city": "墨田区",
    "city_kana": "スミダク",
    "town": "菊川",
    "town_kana": "キクカワ",
    "street": "３丁目１７−２",
    "office_name": "エムシーエス債権管理回収　株式会社",
    "office_name_kana": "エムシ-エスサイケンカンリカイシユウ カブシキガイシヤ"
  },
  "8584": {
    "postcode": "1308584",
    "prefecture": "東京都",
    "prefecture_kana": "トウキョウト",
    "prefecture_code": 13,
    "city": "墨田区",
    "city_kana": "スミダク",
    "town": "錦糸",
    "town_kana": "キンシ",
    "street": "１丁目２番１号アルカセントラル６階",
    "office_name": "ライオンハイジーン　株式会社",
    "office_name_kana": "ライオンハイジ-ン カブシキガイシヤ"
  },
  "8585": {
    "postcode": "1308585",
    "prefecture": "東京都",
    "prefecture_kana": "トウキョウト",
    "prefecture_code": 13,
    "city": "墨田区",
    "city_kana": "スミダク",
    "town": "東駒形",
    "town_kana": "ヒガシコマガタ",
    "street": "１−１４−１財協ビル",
    "office_name": "一般財団法人　大蔵財務協会",
    "office_name_kana": "イツパンザイダンホウジン オオクラザイムキヨウカイ"
  },
  "8588": {
    "postcode": "1308588",
    "prefecture": "東京都",
    "prefecture_kana": "トウキョウト",
    "prefecture_code": 13,
    "city": "墨田区",
    "city_kana": "スミダク",
    "town": "千歳",
    "town_kana": "チトセ",
    "street": "２丁目３−９",
    "office_name": "ダイオーミウラ　株式会社",
    "office_name_kana": "ダイオ-ミウラ カブシキガイシヤ"
  },
  "8601": {
    "postcode": "1308601",
    "prefecture": "東京都",
    "prefecture_kana": "トウキョウト",
    "prefecture_code": 13,
    "city": "墨田区",
    "city_kana": "スミダク",
    "town": "業平",
    "town_kana": "ナリヒラ",
    "street": "５丁目１−１２",
    "office_name": "オーベクス　株式会社",
    "office_name_kana": "オ-ベクス カブシキガイシヤ"
  },
  "8602": {
    "postcode": "1308602",
    "prefecture": "東京都",
    "prefecture_kana": "トウキョウト",
    "prefecture_code": 13,
    "city": "墨田区",
    "city_kana": "スミダク",
    "town": "吾妻橋",
    "town_kana": "アヅマバシ",
    "street": "１丁目２３−１",
    "office_name": "アサヒビール　株式会社",
    "office_name_kana": "アサヒビ-ル カブシキガイシヤ"
  },
  "8603": {
    "postcode": "1308603",
    "prefecture": "東京都",
    "prefecture_kana": "トウキョウト",
    "prefecture_code": 13,
    "city": "墨田区",
    "city_kana": "スミダク",
    "town": "横川",
    "town_kana": "ヨコカワ",
    "street": "１丁目１７−７",
    "office_name": "日本たばこ産業　株式会社　東京工場",
    "office_name_kana": "ニホンタバコサンギヨウ カブシキガイシヤ トウキヨウコウジヨウ"
  },
  "8604": {
    "postcode": "1308604",
    "prefecture": "東京都",
    "prefecture_kana": "トウキョウト",
    "prefecture_code": 13,
    "city": "墨田区",
    "city_kana": "スミダク",
    "town": "本所",
    "town_kana": "ホンジョ",
    "street": "１丁目２５−７",
    "office_name": "石川玩具　株式会社",
    "office_name_kana": "イシカワガング カブシキガイシヤ"
  },
  "8605": {
    "postcode": "1308605",
    "prefecture": "東京都",
    "prefecture_kana": "トウキョウト",
    "prefecture_code": 13,
    "city": "墨田区",
    "city_kana": "スミダク",
    "town": "本所",
    "town_kana": "ホンジョ",
    "street": "３丁目２０−４",
    "office_name": "西武商事　株式会社",
    "office_name_kana": "セイブシヨウジ カブシキガイシヤ"
  },
  "8606": {
    "postcode": "1308606",
    "prefecture": "東京都",
    "prefecture_kana": "トウキョウト",
    "prefecture_code": 13,
    "city": "墨田区",
    "city_kana": "スミダク",
    "town": "江東橋",
    "town_kana": "コウトウバシ",
    "street": "３−３−７",
    "office_name": "一般財団法人　自然環境研究センター",
    "office_name_kana": "イツパンザイダンホウジン シゼンカンキヨウケンキユウセンタ-"
  },
  "8608": {
    "postcode": "1308608",
    "prefecture": "東京都",
    "prefecture_kana": "トウキョウト",
    "prefecture_code": 13,
    "city": "墨田区",
    "city_kana": "スミダク",
    "town": "業平",
    "town_kana": "ナリヒラ",
    "street": "１−７−４",
    "office_name": "東京都墨田都税事務所",
    "office_name_kana": "トウキヨウトスミダトゼイジムシヨ"
  },
  "8609": {
    "postcode": "1308609",
    "prefecture": "東京都",
    "prefecture_kana": "トウキョウト",
    "prefecture_code": 13,
    "city": "墨田区",
    "city_kana": "スミダク",
    "town": "江東橋",
    "town_kana": "コウトウバシ",
    "street": "２丁目１９−１２",
    "office_name": "墨田　公共職業安定所",
    "office_name_kana": "スミダ コウキヨウシヨクギヨウアンテイシヨ"
  },
  "8611": {
    "postcode": "1308611",
    "prefecture": "東京都",
    "prefecture_kana": "トウキョウト",
    "prefecture_code": 13,
    "city": "墨田区",
    "city_kana": "スミダク",
    "town": "東駒形",
    "town_kana": "ヒガシコマガタ",
    "street": "４丁目２２−４",
    "office_name": "社団法人　日本玩具協会",
    "office_name_kana": "シヤダンホウジン ニホンガングキヨウカイ"
  },
  "8612": {
    "postcode": "1308612",
    "prefecture": "東京都",
    "prefecture_kana": "トウキョウト",
    "prefecture_code": 13,
    "city": "墨田区",
    "city_kana": "スミダク",
    "town": "錦糸",
    "town_kana": "キンシ",
    "street": "１−２−１アルカセントラル６階",
    "office_name": "向島労働基準監督署",
    "office_name_kana": "ムコウジマロウドウキジユンカントクシヨ"
  },
  "8615": {
    "postcode": "1308615",
    "prefecture": "東京都",
    "prefecture_kana": "トウキョウト",
    "prefecture_code": 13,
    "city": "墨田区",
    "city_kana": "スミダク",
    "town": "横網",
    "town_kana": "ヨコアミ",
    "street": "２丁目２−２５",
    "office_name": "安田学園",
    "office_name_kana": "ヤスダガクエン"
  },
  "8625": {
    "postcode": "1308625",
    "prefecture": "東京都",
    "prefecture_kana": "トウキョウト",
    "prefecture_code": 13,
    "city": "墨田区",
    "city_kana": "スミダク",
    "town": "太平",
    "town_kana": "タイヘイ",
    "street": "４丁目１−３オリナスタワー",
    "office_name": "ＡＩＧエジソン生命保険　株式会社",
    "office_name_kana": "エイアイジ-エジソンセイメイホケン カブシキガイシヤ"
  },
  "8628": {
    "postcode": "1308628",
    "prefecture": "東京都",
    "prefecture_kana": "トウキョウト",
    "prefecture_code": 13,
    "city": "墨田区",
    "city_kana": "スミダク",
    "town": "横川",
    "town_kana": "ヨコカワ",
    "street": "５−７−４",
    "office_name": "すみだ保健子育て総合センター",
    "office_name_kana": "スミダホケンコソダテソウゴウセンタ-"
  },
  "8633": {
    "postcode": "1308633",
    "prefecture": "東京都",
    "prefecture_kana": "トウキョウト",
    "prefecture_code": 13,
    "city": "墨田区",
    "city_kana": "スミダク",
    "town": "横網",
    "town_kana": "ヨコアミ",
    "street": "１丁目１１番１号",
    "office_name": "株式会社　報知新聞社",
    "office_name_kana": "カブシキガイシヤ ホウチシンブンシヤ"
  },
  "8636": {
    "postcode": "1308636",
    "prefecture": "東京都",
    "prefecture_kana": "トウキョウト",
    "prefecture_code": 13,
    "city": "墨田区",
    "city_kana": "スミダク",
    "town": "錦糸",
    "town_kana": "キンシ",
    "street": "４丁目１６−７",
    "office_name": "東京簡易裁判所　墨田庁舎",
    "office_name_kana": "トウキヨウカンイサイバンシヨ スミダチヨウシヤ"
  },
  "8637": {
    "postcode": "1308637",
    "prefecture": "東京都",
    "prefecture_kana": "トウキョウト",
    "prefecture_code": 13,
    "city": "墨田区",
    "city_kana": "スミダク",
    "town": "錦糸",
    "town_kana": "キンシ",
    "street": "４丁目１６−７",
    "office_name": "東京簡易裁判所　墨田庁舎",
    "office_name_kana": "トウキヨウカンイサイバンシヨ スミダチヨウシヤ"
  },
  "8640": {
    "postcode": "1308640",
    "prefecture": "東京都",
    "prefecture_kana": "トウキョウト",
    "prefecture_code": 13,
    "city": "墨田区",
    "city_kana": "スミダク",
    "town": "吾妻橋",
    "town_kana": "アヅマバシ",
    "street": "１丁目２３−２０",
    "office_name": "墨田区役所",
    "office_name_kana": "スミダクヤクシヨ"
  },
  "8642": {
    "postcode": "1308642",
    "prefecture": "東京都",
    "prefecture_kana": "トウキョウト",
    "prefecture_code": 13,
    "city": "墨田区",
    "city_kana": "スミダク",
    "town": "石原",
    "town_kana": "イシワラ",
    "street": "１丁目２−１２",
    "office_name": "田中商事　株式会社",
    "office_name_kana": "タナカシヨウジ カブシキガイシヤ"
  },
  "8650": {
    "postcode": "1308650",
    "prefecture": "東京都",
    "prefecture_kana": "トウキョウト",
    "prefecture_code": 13,
    "city": "墨田区",
    "city_kana": "スミダク",
    "town": "緑",
    "town_kana": "ミドリ",
    "street": "１−２６−１",
    "office_name": "明治乳業　株式会社　東京支社",
    "office_name_kana": "メイジニユウギヨウ カブシキガイシヤ トウキヨウシシヤ"
  },
  "8655": {
    "postcode": "1308655",
    "prefecture": "東京都",
    "prefecture_kana": "トウキョウト",
    "prefecture_code": 13,
    "city": "墨田区",
    "city_kana": "スミダク",
    "town": "本所",
    "town_kana": "ホンジョ",
    "street": "３丁目６−６",
    "office_name": "株式会社　三喜",
    "office_name_kana": "カブシキガイシヤ サンキ"
  },
  "8660": {
    "postcode": "1308660",
    "prefecture": "東京都",
    "prefecture_kana": "トウキョウト",
    "prefecture_code": 13,
    "city": "墨田区",
    "city_kana": "スミダク",
    "town": "太平",
    "town_kana": "タイヘイ",
    "street": "４丁目１−３オリナスタワー",
    "office_name": "エイアイジー・スター生命保険　株式会社",
    "office_name_kana": "エイアイジ-・スタ-セイメイホケン カブシキガイシヤ"
  },
  "8666": {
    "postcode": "1308666",
    "prefecture": "東京都",
    "prefecture_kana": "トウキョウト",
    "prefecture_code": 13,
    "city": "墨田区",
    "city_kana": "スミダク",
    "town": "吾妻橋",
    "town_kana": "アヅマバシ",
    "street": "３丁目１１−１",
    "office_name": "株式会社　小森コーポレーション",
    "office_name_kana": "カブシキガイシヤ コモリコ-ポレ-シヨン"
  },
  "8668": {
    "postcode": "1308668",
    "prefecture": "東京都",
    "prefecture_kana": "トウキョウト",
    "prefecture_code": 13,
    "city": "墨田区",
    "city_kana": "スミダク",
    "town": "本所",
    "town_kana": "ホンジョ",
    "street": "２−１６−２",
    "office_name": "オキナ　株式会社",
    "office_name_kana": "オキナ カブシキガイシヤ"
  },
  "8671": {
    "postcode": "1308671",
    "prefecture": "東京都",
    "prefecture_kana": "トウキョウト",
    "prefecture_code": 13,
    "city": "墨田区",
    "city_kana": "スミダク",
    "town": "石原",
    "town_kana": "イシワラ",
    "street": "４丁目２５−１２",
    "office_name": "クラヤ商事　株式会社",
    "office_name_kana": "クラヤシヨウジ カブシキガイシヤ"
  },
  "8686": {
    "postcode": "1308686",
    "prefecture": "東京都",
    "prefecture_kana": "トウキョウト",
    "prefecture_code": 13,
    "city": "墨田区",
    "city_kana": "スミダク",
    "town": "業平",
    "town_kana": "ナリヒラ",
    "street": "１丁目７−２",
    "office_name": "本所税務署",
    "office_name_kana": "ホンジヨゼイムシヨ"
  },
  "8701": {
    "postcode": "1308701",
    "prefecture": "東京都",
    "prefecture_kana": "トウキョウト",
    "prefecture_code": 13,
    "city": "墨田区",
    "city_kana": "スミダク",
    "town": "横網",
    "town_kana": "ヨコアミ",
    "street": "２丁目５−１４（本所郵便局私書箱第５１号）",
    "office_name": "株式会社　東京鋲兼",
    "office_name_kana": "カブシキガイシヤ トウキヨウビヨウカネ"
  },
  "8706": {
    "postcode": "1308706",
    "prefecture": "東京都",
    "prefecture_kana": "トウキョウト",
    "prefecture_code": 13,
    "city": "墨田区",
    "city_kana": "スミダク",
    "town": "太平",
    "town_kana": "タイヘイ",
    "street": "４丁目１９−８（本所郵便局私書箱第６号）",
    "office_name": "株式会社　ミドリ",
    "office_name_kana": "カブシキガイシヤ ミドリ"
  },
  "8710": {
    "postcode": "1308710",
    "prefecture": "東京都",
    "prefecture_kana": "トウキョウト",
    "prefecture_code": 13,
    "city": "墨田区",
    "city_kana": "スミダク",
    "town": "両国",
    "town_kana": "リョウゴク",
    "street": "３丁目４−１１（本所郵便局私書箱第１４号）",
    "office_name": "東興商事　株式会社",
    "office_name_kana": "トウコウシヨウジ カブシキガイシヤ"
  },
  "8720": {
    "postcode": "1308720",
    "prefecture": "東京都",
    "prefecture_kana": "トウキョウト",
    "prefecture_code": 13,
    "city": "墨田区",
    "city_kana": "スミダク",
    "town": "亀沢",
    "town_kana": "カメザワ",
    "street": "２丁目１６−８（本所郵便局私書箱第３１号）",
    "office_name": "株式会社　ヤマモリ",
    "office_name_kana": "カブシキガイシヤ ヤマモリ"
  }
}