{
  "0003": {
    "postcode": "1340003",
    "prefecture": "東京都",
    "prefecture_kana": "トウキョウト",
    "prefecture_code": 13,
    "city": "江戸川区",
    "city_kana": "エドガワク",
    "town": "春江町",
    "town_kana": "ハルエチョウ",
    "street": null,
    "office_name": null,
    "office_name_kana": null
  },
  "0013": {
    "postcode": "1340013",
    "prefecture": "東京都",
    "prefecture_kana": "トウキョウト",
    "prefecture_code": 13,
    "city": "江戸川区",
    "city_kana": "エドガワク",
    "town": "江戸川",
    "town_kana": "エドガワ",
    "street": null,
    "office_name": null,
    "office_name_kana": null
  },
  "0015": {
    "postcode": "1340015",
    "prefecture": "東京都",
    "prefecture_kana": "トウキョウト",
    "prefecture_code": 13,
    "city": "江戸川区",
    "city_kana": "エドガワク",
    "town": "西瑞江",
    "town_kana": "ニシミズエ",
    "street": null,
    "office_name": null,
    "office_name_kana": null
  },
  "0081": {
    "postcode": "1340081",
    "prefecture": "東京都",
    "prefecture_kana": "トウキョウト",
    "prefecture_code": 13,
    "city": "江戸川区",
    "city_kana": "エドガワク",
    "town": "北葛西",
    "town_kana": "キタカサイ",
    "street": null,
    "office_name": null,
    "office_name_kana": null
  },
  "0082": {
    "postcode": "1340082",
    "prefecture": "東京都",
    "prefecture_kana": "トウキョウト",
    "prefecture_code": 13,
    "city": "江戸川区",
    "city_kana": "エドガワク",
    "town": "宇喜田町",
    "town_kana": "ウキタチョウ",
    "street": null,
    "office_name": null,
    "office_name_kana": null
  },
  "0083": {
    "postcode": "1340083",
    "prefecture": "東京都",
    "prefecture_kana": "トウキョウト",
    "prefecture_code": 13,
    "city": "江戸川区",
    "city_kana": "エドガワク",
    "town": "中葛西",
    "town_kana": "ナカカサイ",
    "street": null,
    "office_name": null,
    "office_name_kana": null
  },
  "0084": {
    "postcode": "1340084",
    "prefecture": "東京都",
    "prefecture_kana": "トウキョウト",
    "prefecture_code": 13,
    "city": "江戸川区",
    "city_kana": "エドガワク",
    "town": "東葛西",
    "town_kana": "ヒガシカサイ",
    "street": null,
    "office_name": null,
    "office_name_kana": null
  },
  "0085": {
    "postcode": "1340085",
    "prefecture": "東京都",
    "prefecture_kana": "トウキョウト",
    "prefecture_code": 13,
    "city": "江戸川区",
    "city_kana": "エドガワク",
    "town": "南葛西",
    "town_kana": "ミナミカサイ",
    "street": null,
    "office_name": null,
    "office_name_kana": null
  },
  "0086": {
    "postcode": "1340086",
    "prefecture": "東京都",
    "prefecture_kana": "トウキョウト",
    "prefecture_code": 13,
    "city": "江戸川区",
    "city_kana": "エドガワク",
    "town": "臨海町",
    "town_kana": "リンカイチョウ",
    "street": null,
    "office_name": null,
    "office_name_kana": null
  },
  "0087": {
    "postcode": "1340087",
    "prefecture": "東京都",
    "prefecture_kana": "トウキョウト",
    "prefecture_code": 13,
    "city": "江戸川区",
    "city_kana": "エドガワク",
    "town": "清新町",
    "town_kana": "セイシンチョウ",
    "street": null,
    "office_name": null,
    "office_name_kana": null
  },
  "0088": {
    "postcode": "1340088",
    "prefecture": "東京都",
    "prefecture_kana": "トウキョウト",
    "prefecture_code": 13,
    "city": "江戸川区",
    "city_kana": "エドガワク",
    "town": "西葛西",
    "town_kana": "ニシカサイ",
    "street": null,
    "office_name": null,
    "office_name_kana": null
  },
  "0091": {
    "postcode": "1340091",
    "prefecture": "東京都",
    "prefecture_kana": "トウキョウト",
    "prefecture_code": 13,
    "city": "江戸川区",
    "city_kana": "エドガワク",
    "town": "船堀",
    "town_kana": "フナボリ",
    "street": null,
    "office_name": null,
    "office_name_kana": null
  },
  "0092": {
    "postcode": "1340092",
    "prefecture": "東京都",
    "prefecture_kana": "トウキョウト",
    "prefecture_code": 13,
    "city": "江戸川区",
    "city_kana": "エドガワク",
    "town": "一之江町",
    "town_kana": "イチノエチョウ",
    "street": null,
    "office_name": null,
    "office_name_kana": null
  },
  "0093": {
    "postcode": "1340093",
    "prefecture": "東京都",
    "prefecture_kana": "トウキョウト",
    "prefecture_code": 13,
    "city": "江戸川区",
    "city_kana": "エドガワク",
    "town": "二之江町",
    "town_kana": "ニノエチョウ",
    "street": null,
    "office_name": null,
    "office_name_kana": null
  },
  "8502": {
    "postcode": "1348502",
    "prefecture": "東京都",
    "prefecture_kana": "トウキョウト",
    "prefecture_code": 13,
    "city": "江戸川区",
    "city_kana": "エドガワク",
    "town": "中葛西",
    "town_kana": "ナカカサイ",
    "street": "７丁目５−９",
    "office_name": "株式会社　白子",
    "office_name_kana": "カブシキガイシヤ シラコ"
  },
  "8503": {
    "postcode": "1348503",
    "prefecture": "東京都",
    "prefecture_kana": "トウキョウト",
    "prefecture_code": 13,
    "city": "江戸川区",
    "city_kana": "エドガワク",
    "town": "中葛西",
    "town_kana": "ナカカサイ",
    "street": "３丁目３７−４",
    "office_name": "スターツ　株式会社",
    "office_name_kana": "スタ-ツ カブシキガイシヤ"
  },
  "8507": {
    "postcode": "1348507",
    "prefecture": "東京都",
    "prefecture_kana": "トウキョウト",
    "prefecture_code": 13,
    "city": "江戸川区",
    "city_kana": "エドガワク",
    "town": "中葛西",
    "town_kana": "ナカカサイ",
    "street": "５丁目３８−８",
    "office_name": "（株）　ノニ２１",
    "office_name_kana": "(カブ) ノニ21"
  },
  "8515": {
    "postcode": "1348515",
    "prefecture": "東京都",
    "prefecture_kana": "トウキョウト",
    "prefecture_code": 13,
    "city": "江戸川区",
    "city_kana": "エドガワク",
    "town": "中葛西",
    "town_kana": "ナカカサイ",
    "street": "３丁目３７−９彦本第３ビル６階",
    "office_name": "スターツデベロップメント　株式会社",
    "office_name_kana": "スタ-ツデベロツプメント カブシキガイシヤ"
  },
  "8520": {
    "postcode": "1348520",
    "prefecture": "東京都",
    "prefecture_kana": "トウキョウト",
    "prefecture_code": 13,
    "city": "江戸川区",
    "city_kana": "エドガワク",
    "town": "東葛西",
    "town_kana": "ヒガシカサイ",
    "street": "３丁目１７−９",
    "office_name": "月島食品工業　株式会社",
    "office_name_kana": "ツキシマシヨクヒンコウギヨウ カブシキガイシヤ"
  },
  "8533": {
    "postcode": "1348533",
    "prefecture": "東京都",
    "prefecture_kana": "トウキョウト",
    "prefecture_code": 13,
    "city": "江戸川区",
    "city_kana": "エドガワク",
    "town": "東葛西",
    "town_kana": "ヒガシカサイ",
    "street": "９丁目３−１",
    "office_name": "日本ロール製造　株式会社",
    "office_name_kana": "ニツポンロ-ルセイゾウ カブシキガイシヤ"
  },
  "8555": {
    "postcode": "1348555",
    "prefecture": "東京都",
    "prefecture_kana": "トウキョウト",
    "prefecture_code": 13,
    "city": "江戸川区",
    "city_kana": "エドガワク",
    "town": "南葛西",
    "town_kana": "ミナミカサイ",
    "street": "１丁目１１−１",
    "office_name": "東京都立葛西南高等学校",
    "office_name_kana": "トウキヨウトリツカサイミナミコウトウガツコウ"
  },
  "8570": {
    "postcode": "1348570",
    "prefecture": "東京都",
    "prefecture_kana": "トウキョウト",
    "prefecture_code": 13,
    "city": "江戸川区",
    "city_kana": "エドガワク",
    "town": "臨海町",
    "town_kana": "リンカイチョウ",
    "street": "４丁目３−１",
    "office_name": "センコー　株式会社",
    "office_name_kana": "センコ- カブシキガイシヤ"
  },
  "8575": {
    "postcode": "1348575",
    "prefecture": "東京都",
    "prefecture_kana": "トウキョウト",
    "prefecture_code": 13,
    "city": "江戸川区",
    "city_kana": "エドガワク",
    "town": "臨海町",
    "town_kana": "リンカイチョウ",
    "street": "５丁目２−２",
    "office_name": "イプソス　株式会社",
    "office_name_kana": "イプソス カブシキガイシヤ"
  },
  "8576": {
    "postcode": "1348576",
    "prefecture": "東京都",
    "prefecture_kana": "トウキョウト",
    "prefecture_code": 13,
    "city": "江戸川区",
    "city_kana": "エドガワク",
    "town": "臨海町",
    "town_kana": "リンカイチョウ",
    "street": "３丁目６−３",
    "office_name": "バニーコルアート　株式会社",
    "office_name_kana": "バニ-コルア-ト カブシキガイシヤ"
  },
  "8577": {
    "postcode": "1348577",
    "prefecture": "東京都",
    "prefecture_kana": "トウキョウト",
    "prefecture_code": 13,
    "city": "江戸川区",
    "city_kana": "エドガワク",
    "town": "臨海町",
    "town_kana": "リンカイチョウ",
    "street": "３丁目３番３号",
    "office_name": "株式会社　ユー・エス・エス",
    "office_name_kana": "カブシキカイシヤ ユ-・エス・エス"
  },
  "8585": {
    "postcode": "1348585",
    "prefecture": "東京都",
    "prefecture_kana": "トウキョウト",
    "prefecture_code": 13,
    "city": "江戸川区",
    "city_kana": "エドガワク",
    "town": "臨海町",
    "town_kana": "リンカイチョウ",
    "street": "５丁目２−２",
    "office_name": "株式会社　アテナ",
    "office_name_kana": "カブシキガイシヤ アテナ"
  },
  "8586": {
    "postcode": "1348586",
    "prefecture": "東京都",
    "prefecture_kana": "トウキョウト",
    "prefecture_code": 13,
    "city": "江戸川区",
    "city_kana": "エドガワク",
    "town": "臨海町",
    "town_kana": "リンカイチョウ",
    "street": "３丁目６−２",
    "office_name": "株式会社　マリモクラフト",
    "office_name_kana": "カブシキガイシヤ マリモクラフト"
  },
  "8587": {
    "postcode": "1348587",
    "prefecture": "東京都",
    "prefecture_kana": "トウキョウト",
    "prefecture_code": 13,
    "city": "江戸川区",
    "city_kana": "エドガワク",
    "town": "臨海町",
    "town_kana": "リンカイチョウ",
    "street": "６−２−３",
    "office_name": "東京都葛西臨海水族園",
    "office_name_kana": "トウキヨウトカサイリンカイスイゾクエン"
  },
  "8588": {
    "postcode": "1348588",
    "prefecture": "東京都",
    "prefecture_kana": "トウキョウト",
    "prefecture_code": 13,
    "city": "江戸川区",
    "city_kana": "エドガワク",
    "town": "臨海町",
    "town_kana": "リンカイチョウ",
    "street": "３丁目６−３",
    "office_name": "アドレス通商　株式会社",
    "office_name_kana": "アドレスツウシヨウ カブシキガイシヤ"
  },
  "8601": {
    "postcode": "1348601",
    "prefecture": "東京都",
    "prefecture_kana": "トウキョウト",
    "prefecture_code": 13,
    "city": "江戸川区",
    "city_kana": "エドガワク",
    "town": "西葛西",
    "town_kana": "ニシカサイ",
    "street": "４丁目２−２０",
    "office_name": "江戸川区スポーツセンター",
    "office_name_kana": "エドガワクスポ-ツセンタ-"
  },
  "8602": {
    "postcode": "1348602",
    "prefecture": "東京都",
    "prefecture_kana": "トウキョウト",
    "prefecture_code": 13,
    "city": "江戸川区",
    "city_kana": "エドガワク",
    "town": "西葛西",
    "town_kana": "ニシカサイ",
    "street": "７丁目９−１７",
    "office_name": "株式会社　ニチベイパーツ",
    "office_name_kana": "カブシキガイシヤ ニチベイパ-ツ"
  },
  "8603": {
    "postcode": "1348603",
    "prefecture": "東京都",
    "prefecture_kana": "トウキョウト",
    "prefecture_code": 13,
    "city": "江戸川区",
    "city_kana": "エドガワク",
    "town": "西葛西",
    "town_kana": "ニシカサイ",
    "street": "３丁目９−１９",
    "office_name": "ジャスコ　株式会社　葛西店",
    "office_name_kana": "ジヤスコ カブシキガイシヤ カサイテン"
  },
  "8609": {
    "postcode": "1348609",
    "prefecture": "東京都",
    "prefecture_kana": "トウキョウト",
    "prefecture_code": 13,
    "city": "江戸川区",
    "city_kana": "エドガワク",
    "town": "西葛西",
    "town_kana": "ニシカサイ",
    "street": "３丁目２２−３６",
    "office_name": "みずほ情報総研　（株）",
    "office_name_kana": "ミズホジヨウホウソウケン カブシキガイシヤ"
  },
  "8610": {
    "postcode": "1348610",
    "prefecture": "東京都",
    "prefecture_kana": "トウキョウト",
    "prefecture_code": 13,
    "city": "江戸川区",
    "city_kana": "エドガワク",
    "town": "西葛西",
    "town_kana": "ニシカサイ",
    "street": "５丁目１０−２４葛西テクノビル",
    "office_name": "ＮＴＴ　データ通信　株式会社",
    "office_name_kana": "エヌテイテイ デ-タツウシン カブシキガイシヤ"
  },
  "8612": {
    "postcode": "1348612",
    "prefecture": "東京都",
    "prefecture_kana": "トウキョウト",
    "prefecture_code": 13,
    "city": "江戸川区",
    "city_kana": "エドガワク",
    "town": "西葛西",
    "town_kana": "ニシカサイ",
    "street": "７丁目２０−１",
    "office_name": "山一興産　株式会社",
    "office_name_kana": "ヤマイチコウサン カブシキガイシヤ"
  },
  "8622": {
    "postcode": "1348622",
    "prefecture": "東京都",
    "prefecture_kana": "トウキョウト",
    "prefecture_code": 13,
    "city": "江戸川区",
    "city_kana": "エドガワク",
    "town": "船堀",
    "town_kana": "フナボリ",
    "street": "２丁目２３−４",
    "office_name": "懸賞ＴＶ　株式会社",
    "office_name_kana": "ケンシヨウテイ-ブイ (カブ)"
  },
  "8630": {
    "postcode": "1348630",
    "prefecture": "東京都",
    "prefecture_kana": "トウキョウト",
    "prefecture_code": 13,
    "city": "江戸川区",
    "city_kana": "エドガワク",
    "town": "北葛西",
    "town_kana": "キタカサイ",
    "street": "１丁目１６−１３",
    "office_name": "第一三共　株式会社　葛西研究開発センター",
    "office_name_kana": "ダイイチサンキヨウ カブシキガイシヤ カサイケンキユウカイハツセンタ-"
  },
  "8631": {
    "postcode": "1348631",
    "prefecture": "東京都",
    "prefecture_kana": "トウキョウト",
    "prefecture_code": 13,
    "city": "江戸川区",
    "city_kana": "エドガワク",
    "town": "北葛西",
    "town_kana": "キタカサイ",
    "street": "３丁目５−１７",
    "office_name": "丸泰土木　株式会社",
    "office_name_kana": "マルタイドボク カブシキガイシヤ"
  },
  "8640": {
    "postcode": "1348640",
    "prefecture": "東京都",
    "prefecture_kana": "トウキョウト",
    "prefecture_code": 13,
    "city": "江戸川区",
    "city_kana": "エドガワク",
    "town": "西瑞江",
    "town_kana": "ニシミズエ",
    "street": "４丁目１５",
    "office_name": "カツデン　株式会社",
    "office_name_kana": "カツデン カブシキガイシヤ"
  },
  "8642": {
    "postcode": "1348642",
    "prefecture": "東京都",
    "prefecture_kana": "トウキョウト",
    "prefecture_code": 13,
    "city": "江戸川区",
    "city_kana": "エドガワク",
    "town": "西瑞江",
    "town_kana": "ニシミズエ",
    "street": "４丁目１２",
    "office_name": "株式会社　ライト",
    "office_name_kana": "カブシキガイシヤ ライト"
  },
  "8686": {
    "postcode": "1348686",
    "prefecture": "東京都",
    "prefecture_kana": "トウキョウト",
    "prefecture_code": 13,
    "city": "江戸川区",
    "city_kana": "エドガワク",
    "town": "西葛西",
    "town_kana": "ニシカサイ",
    "street": "６丁目２４−１６（葛西郵便局私書箱第３号）",
    "office_name": "株式会社　リケン",
    "office_name_kana": "カブシキガイシヤ リケン"
  },
  "8702": {
    "postcode": "1348702",
    "prefecture": "東京都",
    "prefecture_kana": "トウキョウト",
    "prefecture_code": 13,
    "city": "江戸川区",
    "city_kana": "エドガワク",
    "town": "中葛西",
    "town_kana": "ナカカサイ",
    "street": "５丁目３４−８",
    "office_name": "（株）　三井住友銀行　葛西支店",
    "office_name_kana": "(カブ) ミツイスミトモギンコウ カサイシテン"
  }
}