{
  "0071": {
    "postcode": "1360071",
    "prefecture": "東京都",
    "prefecture_kana": "トウキョウト",
    "prefecture_code": 13,
    "city": "江東区",
    "city_kana": "コウトウク",
    "town": "亀戸",
    "town_kana": "カメイド",
    "street": null,
    "office_name": null,
    "office_name_kana": null
  },
  "0072": {
    "postcode": "1360072",
    "prefecture": "東京都",
    "prefecture_kana": "トウキョウト",
    "prefecture_code": 13,
    "city": "江東区",
    "city_kana": "コウトウク",
    "town": "大島",
    "town_kana": "オオジマ",
    "street": null,
    "office_name": null,
    "office_name_kana": null
  },
  "0073": {
    "postcode": "1360073",
    "prefecture": "東京都",
    "prefecture_kana": "トウキョウト",
    "prefecture_code": 13,
    "city": "江東区",
    "city_kana": "コウトウク",
    "town": "北砂",
    "town_kana": "キタスナ",
    "street": null,
    "office_name": null,
    "office_name_kana": null
  },
  "0074": {
    "postcode": "1360074",
    "prefecture": "東京都",
    "prefecture_kana": "トウキョウト",
    "prefecture_code": 13,
    "city": "江東区",
    "city_kana": "コウトウク",
    "town": "東砂",
    "town_kana": "ヒガシスナ",
    "street": null,
    "office_name": null,
    "office_name_kana": null
  },
  "0075": {
    "postcode": "1360075",
    "prefecture": "東京都",
    "prefecture_kana": "トウキョウト",
    "prefecture_code": 13,
    "city": "江東区",
    "city_kana": "コウトウク",
    "town": "新砂",
    "town_kana": "シンスナ",
    "street": null,
    "office_name": null,
    "office_name_kana": null
  },
  "0076": {
    "postcode": "1360076",
    "prefecture": "東京都",
    "prefecture_kana": "トウキョウト",
    "prefecture_code": 13,
    "city": "江東区",
    "city_kana": "コウトウク",
    "town": "南砂",
    "town_kana": "ミナミスナ",
    "street": null,
    "office_name": null,
    "office_name_kana": null
  },
  "0081": {
    "postcode": "1360081",
    "prefecture": "東京都",
    "prefecture_kana": "トウキョウト",
    "prefecture_code": 13,
    "city": "江東区",
    "city_kana": "コウトウク",
    "town": "夢の島",
    "town_kana": "ユメノシマ",
    "street": null,
    "office_name": null,
    "office_name_kana": null
  },
  "0082": {
    "postcode": "1360082",
    "prefecture": "東京都",
    "prefecture_kana": "トウキョウト",
    "prefecture_code": 13,
    "city": "江東区",
    "city_kana": "コウトウク",
    "town": "新木場",
    "town_kana": "シンキバ",
    "street": null,
    "office_name": null,
    "office_name_kana": null
  },
  "0083": {
    "postcode": "1360083",
    "prefecture": "東京都",
    "prefecture_kana": "トウキョウト",
    "prefecture_code": 13,
    "city": "江東区",
    "city_kana": "コウトウク",
    "town": "若洲",
    "town_kana": "ワカス",
    "street": null,
    "office_name": null,
    "office_name_kana": null
  },
  "8405": {
    "postcode": "1368405",
    "prefecture": "東京都",
    "prefecture_kana": "トウキョウト",
    "prefecture_code": 13,
    "city": "江東区",
    "city_kana": "コウトウク",
    "town": "新木場",
    "town_kana": "シンキバ",
    "street": "１丁目７−２２新木場タワー",
    "office_name": "ＪＫホールディングス　株式会社",
    "office_name_kana": "ジエイケ-ホ-ルデイングス カブシキガイシヤ"
  },
  "8501": {
    "postcode": "1368501",
    "prefecture": "東京都",
    "prefecture_kana": "トウキョウト",
    "prefecture_code": 13,
    "city": "江東区",
    "city_kana": "コウトウク",
    "town": "亀戸",
    "town_kana": "カメイド",
    "street": "６丁目４１−１２",
    "office_name": "川鉄建材",
    "office_name_kana": "カワテツケンザイ"
  },
  "8502": {
    "postcode": "1368502",
    "prefecture": "東京都",
    "prefecture_kana": "トウキョウト",
    "prefecture_code": 13,
    "city": "江東区",
    "city_kana": "コウトウク",
    "town": "亀戸",
    "town_kana": "カメイド",
    "street": "６丁目２０−７",
    "office_name": "三洋工業",
    "office_name_kana": "サンヨウコウギヨウ"
  },
  "8505": {
    "postcode": "1368505",
    "prefecture": "東京都",
    "prefecture_kana": "トウキョウト",
    "prefecture_code": 13,
    "city": "江東区",
    "city_kana": "コウトウク",
    "town": "亀戸",
    "town_kana": "カメイド",
    "street": "２丁目１７−８",
    "office_name": "江東東税務署",
    "office_name_kana": "コウトウヒガシゼイムシヨ"
  },
  "8507": {
    "postcode": "1368507",
    "prefecture": "東京都",
    "prefecture_kana": "トウキョウト",
    "prefecture_code": 13,
    "city": "江東区",
    "city_kana": "コウトウク",
    "town": "亀戸",
    "town_kana": "カメイド",
    "street": "２丁目２５−１４",
    "office_name": "翼システム",
    "office_name_kana": "ツバサシステム"
  },
  "8512": {
    "postcode": "1368512",
    "prefecture": "東京都",
    "prefecture_kana": "トウキョウト",
    "prefecture_code": 13,
    "city": "江東区",
    "city_kana": "コウトウク",
    "town": "亀戸",
    "town_kana": "カメイド",
    "street": "６丁目４１−６",
    "office_name": "セイコーインスツルメンツ　株式会社",
    "office_name_kana": "セイコ-インスツルメンツ カブシキガイシヤ"
  },
  "8513": {
    "postcode": "1368513",
    "prefecture": "東京都",
    "prefecture_kana": "トウキョウト",
    "prefecture_code": 13,
    "city": "江東区",
    "city_kana": "コウトウク",
    "town": "亀戸",
    "town_kana": "カメイド",
    "street": "２丁目２１−１３",
    "office_name": "亀戸労働基準監督署",
    "office_name_kana": "カメイドロウドウキジユンカントクシヨ"
  },
  "8515": {
    "postcode": "1368515",
    "prefecture": "東京都",
    "prefecture_kana": "トウキョウト",
    "prefecture_code": 13,
    "city": "江東区",
    "city_kana": "コウトウク",
    "town": "亀戸",
    "town_kana": "カメイド",
    "street": "９丁目１１−１",
    "office_name": "日本化学工業　株式会社",
    "office_name_kana": "ニホンカガクコウギヨウ"
  },
  "8517": {
    "postcode": "1368517",
    "prefecture": "東京都",
    "prefecture_kana": "トウキョウト",
    "prefecture_code": 13,
    "city": "江東区",
    "city_kana": "コウトウク",
    "town": "新砂",
    "town_kana": "シンスナ",
    "street": "１丁目７−２７",
    "office_name": "大末建設　株式会社",
    "office_name_kana": "ダイスエケンセツ カブシキガイシヤ"
  },
  "8521": {
    "postcode": "1368521",
    "prefecture": "東京都",
    "prefecture_kana": "トウキョウト",
    "prefecture_code": 13,
    "city": "江東区",
    "city_kana": "コウトウク",
    "town": "亀戸",
    "town_kana": "カメイド",
    "street": "１丁目１−６",
    "office_name": "ヤマト特殊鋼　株式会社",
    "office_name_kana": "ヤマトトクシユコウ カブシキガイシヤ"
  },
  "8522": {
    "postcode": "1368522",
    "prefecture": "東京都",
    "prefecture_kana": "トウキョウト",
    "prefecture_code": 13,
    "city": "江東区",
    "city_kana": "コウトウク",
    "town": "亀戸",
    "town_kana": "カメイド",
    "street": "１丁目８−９",
    "office_name": "サンコーコンサルタント　株式会社",
    "office_name_kana": "サンコ-コンサルタント カブシキガイシヤ"
  },
  "8523": {
    "postcode": "1368523",
    "prefecture": "東京都",
    "prefecture_kana": "トウキョウト",
    "prefecture_code": 13,
    "city": "江東区",
    "city_kana": "コウトウク",
    "town": "亀戸",
    "town_kana": "カメイド",
    "street": "１丁目５−７ＮＤタワービル（城東郵便局私書箱第２３号）",
    "office_name": "みずほ信託銀行　株式会社",
    "office_name_kana": "ミズホシンタクギンコウ カブシキカイシヤ"
  },
  "8525": {
    "postcode": "1368525",
    "prefecture": "東京都",
    "prefecture_kana": "トウキョウト",
    "prefecture_code": 13,
    "city": "江東区",
    "city_kana": "コウトウク",
    "town": "亀戸",
    "town_kana": "カメイド",
    "street": "５丁目１６−９",
    "office_name": "日本年金機構　江東年金事務所",
    "office_name_kana": "ニツポンネンキンキコウ コウトウネンキンジムシヨ"
  },
  "8531": {
    "postcode": "1368531",
    "prefecture": "東京都",
    "prefecture_kana": "トウキョウト",
    "prefecture_code": 13,
    "city": "江東区",
    "city_kana": "コウトウク",
    "town": "大島",
    "town_kana": "オオジマ",
    "street": "３丁目２−６",
    "office_name": "吉野工業所",
    "office_name_kana": "ヨシノコウギヨウシヨ"
  },
  "8533": {
    "postcode": "1368533",
    "prefecture": "東京都",
    "prefecture_kana": "トウキョウト",
    "prefecture_code": 13,
    "city": "江東区",
    "city_kana": "コウトウク",
    "town": "大島",
    "town_kana": "オオジマ",
    "street": "３丁目１−３",
    "office_name": "江東都税事務所",
    "office_name_kana": "コウトウトゼイジムシヨ"
  },
  "8535": {
    "postcode": "1368535",
    "prefecture": "東京都",
    "prefecture_kana": "トウキョウト",
    "prefecture_code": 13,
    "city": "江東区",
    "city_kana": "コウトウク",
    "town": "大島",
    "town_kana": "オオジマ",
    "street": "２−１−１",
    "office_name": "株式会社　ＬＩＸＩＬ　ＷＩＮＧビル",
    "office_name_kana": "カブシキガイシヤ リクシル ウイングビル"
  },
  "8540": {
    "postcode": "1368540",
    "prefecture": "東京都",
    "prefecture_kana": "トウキョウト",
    "prefecture_code": 13,
    "city": "江東区",
    "city_kana": "コウトウク",
    "town": "大島",
    "town_kana": "オオジマ",
    "street": "１丁目２−２３",
    "office_name": "昭電",
    "office_name_kana": "シヨウデン"
  },
  "8543": {
    "postcode": "1368543",
    "prefecture": "東京都",
    "prefecture_kana": "トウキョウト",
    "prefecture_code": 13,
    "city": "江東区",
    "city_kana": "コウトウク",
    "town": "新木場",
    "town_kana": "シンキバ",
    "street": "１−７−２２",
    "office_name": "物林　株式会社",
    "office_name_kana": "ブツリン カブシキガイシヤ"
  },
  "8550": {
    "postcode": "1368550",
    "prefecture": "東京都",
    "prefecture_kana": "トウキョウト",
    "prefecture_code": 13,
    "city": "江東区",
    "city_kana": "コウトウク",
    "town": "大島",
    "town_kana": "オオジマ",
    "street": "２丁目８−６",
    "office_name": "多田建設　株式会社",
    "office_name_kana": "タダケンセツ カブシキガイシヤ"
  },
  "8555": {
    "postcode": "1368555",
    "prefecture": "東京都",
    "prefecture_kana": "トウキョウト",
    "prefecture_code": 13,
    "city": "江東区",
    "city_kana": "コウトウク",
    "town": "亀戸",
    "town_kana": "カメイド",
    "street": "１丁目５−７日鐵ＮＤタワー",
    "office_name": "日本レジャーカードシステム　株式会社",
    "office_name_kana": "ニホンレジヤ-カ-ドシステム カブシキガイシヤ"
  },
  "8556": {
    "postcode": "1368556",
    "prefecture": "東京都",
    "prefecture_kana": "トウキョウト",
    "prefecture_code": 13,
    "city": "江東区",
    "city_kana": "コウトウク",
    "town": "新木場",
    "town_kana": "シンキバ",
    "street": "２−６−８",
    "office_name": "Ｂｉｚｅｘ　新木場センター",
    "office_name_kana": "ビゼツクス シンキバセンタ-"
  },
  "8560": {
    "postcode": "1368560",
    "prefecture": "東京都",
    "prefecture_kana": "トウキョウト",
    "prefecture_code": 13,
    "city": "江東区",
    "city_kana": "コウトウク",
    "town": "南砂",
    "town_kana": "ミナミスナ",
    "street": "１丁目８−２東水工ビル",
    "office_name": "日本テレコム　株式会社",
    "office_name_kana": "ニツポンテレコム カブシキガイシヤ"
  },
  "8570": {
    "postcode": "1368570",
    "prefecture": "東京都",
    "prefecture_kana": "トウキョウト",
    "prefecture_code": 13,
    "city": "江東区",
    "city_kana": "コウトウク",
    "town": "新砂",
    "town_kana": "シンスナ",
    "street": "１丁目１−１",
    "office_name": "株式会社　竹中土木",
    "office_name_kana": "カブシキガイシヤ タケナカドボク"
  },
  "8575": {
    "postcode": "1368575",
    "prefecture": "東京都",
    "prefecture_kana": "トウキョウト",
    "prefecture_code": 13,
    "city": "江東区",
    "city_kana": "コウトウク",
    "town": "新木場",
    "town_kana": "シンキバ",
    "street": "１丁目１８−１１",
    "office_name": "株式会社　ぎょうせい",
    "office_name_kana": "カブシキガイシヤ ギヨウセイ"
  },
  "8577": {
    "postcode": "1368577",
    "prefecture": "東京都",
    "prefecture_kana": "トウキョウト",
    "prefecture_code": 13,
    "city": "江東区",
    "city_kana": "コウトウク",
    "town": "亀戸",
    "town_kana": "カメイド",
    "street": "１丁目５−７日鐵ＮＤタワー１２Ｆ",
    "office_name": "基礎地盤コンサルタンツ　株式会社",
    "office_name_kana": "キソジバンコンサルタンツ カブシキガイシヤ"
  },
  "8580": {
    "postcode": "1368580",
    "prefecture": "東京都",
    "prefecture_kana": "トウキョウト",
    "prefecture_code": 13,
    "city": "江東区",
    "city_kana": "コウトウク",
    "town": "南砂",
    "town_kana": "ミナミスナ",
    "street": "３丁目３−４",
    "office_name": "丸文　株式会社　南砂事業所",
    "office_name_kana": "マルブン カブシキガイシヤ ミナミスナジギヨウシヨ"
  },
  "8581": {
    "postcode": "1368581",
    "prefecture": "東京都",
    "prefecture_kana": "トウキョウト",
    "prefecture_code": 13,
    "city": "江東区",
    "city_kana": "コウトウク",
    "town": "南砂",
    "town_kana": "ミナミスナ",
    "street": "２丁目７−５",
    "office_name": "（株）　ＣＲＣ総合研究所",
    "office_name_kana": "(カブ) シ-ア-ルシ-ソウゴウケンキユウシヨ"
  },
  "8585": {
    "postcode": "1368585",
    "prefecture": "東京都",
    "prefecture_kana": "トウキョウト",
    "prefecture_code": 13,
    "city": "江東区",
    "city_kana": "コウトウク",
    "town": "新砂",
    "town_kana": "シンスナ",
    "street": "３丁目１番１８号",
    "office_name": "アシックスジャパン　株式会社",
    "office_name_kana": "アシツクスジヤパン カブシキガイシヤ"
  },
  "8588": {
    "postcode": "1368588",
    "prefecture": "東京都",
    "prefecture_kana": "トウキョウト",
    "prefecture_code": 13,
    "city": "江東区",
    "city_kana": "コウトウク",
    "town": "南砂",
    "town_kana": "ミナミスナ",
    "street": "２丁目１１−１",
    "office_name": "川崎重工業　株式会社　東京設計事務所",
    "office_name_kana": "カワサキジユウコウギヨウ カブシキガイシヤ トウキヨウセツケイジムシヨ"
  },
  "8589": {
    "postcode": "1368589",
    "prefecture": "東京都",
    "prefecture_kana": "トウキョウト",
    "prefecture_code": 13,
    "city": "江東区",
    "city_kana": "コウトウク",
    "town": "大島",
    "town_kana": "オオジマ",
    "street": "２丁目７番１５号",
    "office_name": "株式会社　志正堂",
    "office_name_kana": "カブシキガイシヤ シセイドウ"
  },
  "8603": {
    "postcode": "1368603",
    "prefecture": "東京都",
    "prefecture_kana": "トウキョウト",
    "prefecture_code": 13,
    "city": "江東区",
    "city_kana": "コウトウク",
    "town": "新木場",
    "town_kana": "シンキバ",
    "street": "１丁目６−２６",
    "office_name": "（株）　徳間書店",
    "office_name_kana": "(カブ) トクマシヨテン"
  },
  "8605": {
    "postcode": "1368605",
    "prefecture": "東京都",
    "prefecture_kana": "トウキョウト",
    "prefecture_code": 13,
    "city": "江東区",
    "city_kana": "コウトウク",
    "town": "新木場",
    "town_kana": "シンキバ",
    "street": "１−１６−８",
    "office_name": "株式会社　銘林",
    "office_name_kana": "カブシキガイシヤ メイリン"
  },
  "8607": {
    "postcode": "1368607",
    "prefecture": "東京都",
    "prefecture_kana": "トウキョウト",
    "prefecture_code": 13,
    "city": "江東区",
    "city_kana": "コウトウク",
    "town": "新木場",
    "town_kana": "シンキバ",
    "street": "４丁目１２−２２",
    "office_name": "内田食品　株式会社",
    "office_name_kana": "ウチダシヨクヒン カブシキガイシヤ"
  },
  "8608": {
    "postcode": "1368608",
    "prefecture": "東京都",
    "prefecture_kana": "トウキョウト",
    "prefecture_code": 13,
    "city": "江東区",
    "city_kana": "コウトウク",
    "town": "新木場",
    "town_kana": "シンキバ",
    "street": "１丁目１８番６号",
    "office_name": "ＮＥＣソリューションイノベータ　株式会社",
    "office_name_kana": "エヌイ-シ-ソリユ-シヨンイノベ-タ カブシキガイシヤ"
  },
  "8612": {
    "postcode": "1368612",
    "prefecture": "東京都",
    "prefecture_kana": "トウキョウト",
    "prefecture_code": 13,
    "city": "江東区",
    "city_kana": "コウトウク",
    "town": "新木場",
    "town_kana": "シンキバ",
    "street": "３丁目７−９",
    "office_name": "東京集成材工業　株式会社　東京営業所",
    "office_name_kana": "トウキヨウシユウセイザイコウギヨウ カブシキガイシヤ トウキヨウエイギヨウシヨ"
  },
  "8615": {
    "postcode": "1368615",
    "prefecture": "東京都",
    "prefecture_kana": "トウキョウト",
    "prefecture_code": 13,
    "city": "江東区",
    "city_kana": "コウトウク",
    "town": "新木場",
    "town_kana": "シンキバ",
    "street": "１丁目４−７",
    "office_name": "株式会社　もくもく",
    "office_name_kana": "カブシキガイシヤ モクモク"
  },
  "8620": {
    "postcode": "1368620",
    "prefecture": "東京都",
    "prefecture_kana": "トウキョウト",
    "prefecture_code": 13,
    "city": "江東区",
    "city_kana": "コウトウク",
    "town": "亀戸",
    "town_kana": "カメイド",
    "street": "１丁目８−８",
    "office_name": "ヤバネスポーツ　株式会社",
    "office_name_kana": "ヤバネスポ-ツ カブシキガイシヤ"
  },
  "8622": {
    "postcode": "1368622",
    "prefecture": "東京都",
    "prefecture_kana": "トウキョウト",
    "prefecture_code": 13,
    "city": "江東区",
    "city_kana": "コウトウク",
    "town": "新木場",
    "town_kana": "シンキバ",
    "street": "３丁目２−１２",
    "office_name": "兼松日産農林　株式会社",
    "office_name_kana": "カネマツニツサンノウリン カブシキガイシヤ"
  },
  "8626": {
    "postcode": "1368626",
    "prefecture": "東京都",
    "prefecture_kana": "トウキョウト",
    "prefecture_code": 13,
    "city": "江東区",
    "city_kana": "コウトウク",
    "town": "新木場",
    "town_kana": "シンキバ",
    "street": "１丁目４−５",
    "office_name": "株式会社　西林",
    "office_name_kana": "カブシキガイシヤ ニシバヤシ"
  },
  "8627": {
    "postcode": "1368627",
    "prefecture": "東京都",
    "prefecture_kana": "トウキョウト",
    "prefecture_code": 13,
    "city": "江東区",
    "city_kana": "コウトウク",
    "town": "新木場",
    "town_kana": "シンキバ",
    "street": "１丁目１８番７号",
    "office_name": "ＮＥＣソリューションイノベータ　株式会社",
    "office_name_kana": "エヌイ-シ-ソリユ-シヨンイノベ-タ カブシキガイシヤ"
  },
  "8630": {
    "postcode": "1368630",
    "prefecture": "東京都",
    "prefecture_kana": "トウキョウト",
    "prefecture_code": 13,
    "city": "江東区",
    "city_kana": "コウトウク",
    "town": "新木場",
    "town_kana": "シンキバ",
    "street": "１丁目３−１６",
    "office_name": "江戸川木材工業　株式会社",
    "office_name_kana": "エドガワモクザイコウギヨウ カブシキガイシヤ"
  },
  "8631": {
    "postcode": "1368631",
    "prefecture": "東京都",
    "prefecture_kana": "トウキョウト",
    "prefecture_code": 13,
    "city": "江東区",
    "city_kana": "コウトウク",
    "town": "新砂",
    "town_kana": "シンスナ",
    "street": "１−２−８",
    "office_name": "オルガノ　株式会社",
    "office_name_kana": "オルガノ カブシキガイシヤ"
  },
  "8635": {
    "postcode": "1368635",
    "prefecture": "東京都",
    "prefecture_kana": "トウキョウト",
    "prefecture_code": 13,
    "city": "江東区",
    "city_kana": "コウトウク",
    "town": "新砂",
    "town_kana": "シンスナ",
    "street": "１丁目６−２７",
    "office_name": "ＪＳＴ　株式会社",
    "office_name_kana": "ジエイエステイ カブシキガイシヤ"
  },
  "8637": {
    "postcode": "1368637",
    "prefecture": "東京都",
    "prefecture_kana": "トウキョウト",
    "prefecture_code": 13,
    "city": "江東区",
    "city_kana": "コウトウク",
    "town": "新砂",
    "town_kana": "シンスナ",
    "street": "１丁目３−３",
    "office_name": "株式会社　インテック",
    "office_name_kana": "カブシキガイシヤ インテツク"
  },
  "8640": {
    "postcode": "1368640",
    "prefecture": "東京都",
    "prefecture_kana": "トウキョウト",
    "prefecture_code": 13,
    "city": "江東区",
    "city_kana": "コウトウク",
    "town": "新砂",
    "town_kana": "シンスナ",
    "street": "１−２−３",
    "office_name": "株式会社　日本デジタル研究所",
    "office_name_kana": "カブシキガイシヤ ニホンデジタルケンキユウジヨ"
  },
  "8648": {
    "postcode": "1368648",
    "prefecture": "東京都",
    "prefecture_kana": "トウキョウト",
    "prefecture_code": 13,
    "city": "江東区",
    "city_kana": "コウトウク",
    "town": "新砂",
    "town_kana": "シンスナ",
    "street": "２丁目３−４３",
    "office_name": "株式会社　ＩＨＩ　砂町工場",
    "office_name_kana": "カブシキガイシヤ アイエイチアイ スナマチコウジヨウ"
  },
  "8651": {
    "postcode": "1368651",
    "prefecture": "東京都",
    "prefecture_kana": "トウキョウト",
    "prefecture_code": 13,
    "city": "江東区",
    "city_kana": "コウトウク",
    "town": "新砂",
    "town_kana": "シンスナ",
    "street": "３−２−９",
    "office_name": "Ｘフロンティア",
    "office_name_kana": "エツクスフロンテイア"
  },
  "8666": [
    {
      "postcode": "1368666",
      "prefecture": "東京都",
      "prefecture_kana": "トウキョウト",
      "prefecture_code": 13,
      "city": "江東区",
      "city_kana": "コウトウク",
      "town": "南砂",
      "town_kana": "ミナミスナ",
      "street": "２−１１−１",
      "office_name": "トーヨーカネツ　株式会社",
      "office_name_kana": "ト-ヨ-カネツ カブシキガイシヤ"
    },
    {
      "postcode": "1368666",
      "prefecture": "東京都",
      "prefecture_kana": "トウキョウト",
      "prefecture_code": 13,
      "city": "江東区",
      "city_kana": "コウトウク",
      "town": "南砂",
      "town_kana": "ミナミスナ",
      "street": "２丁目１１番１号",
      "office_name": "トーヨーカネツソリューションズ　株式会社",
      "office_name_kana": "ト-ヨ-カネツソリユ-シヨンズ カブシキガイシヤ"
    }
  ],
  "8668": {
    "postcode": "1368668",
    "prefecture": "東京都",
    "prefecture_kana": "トウキョウト",
    "prefecture_code": 13,
    "city": "江東区",
    "city_kana": "コウトウク",
    "town": "南砂",
    "town_kana": "ミナミスナ",
    "street": "３丁目３−４同興ビル３階",
    "office_name": "マルゼン商事　株式会社",
    "office_name_kana": "マルゼンシヨウジ カブシキガイシヤ"
  },
  "8670": {
    "postcode": "1368670",
    "prefecture": "東京都",
    "prefecture_kana": "トウキョウト",
    "prefecture_code": 13,
    "city": "江東区",
    "city_kana": "コウトウク",
    "town": "東砂",
    "town_kana": "ヒガシスナ",
    "street": "２丁目１４−５",
    "office_name": "パラマウントベッド　株式会社",
    "office_name_kana": "パラマウントベツド カブシキガイシヤ"
  },
  "8671": {
    "postcode": "1368671",
    "prefecture": "東京都",
    "prefecture_kana": "トウキョウト",
    "prefecture_code": 13,
    "city": "江東区",
    "city_kana": "コウトウク",
    "town": "東砂",
    "town_kana": "ヒガシスナ",
    "street": "２−１４−５",
    "office_name": "パラマウントベッドホールディングス　株式会社",
    "office_name_kana": "パラマウントベツドホ-ルデイングス カブシキガイシヤ"
  },
  "8675": {
    "postcode": "1368675",
    "prefecture": "東京都",
    "prefecture_kana": "トウキョウト",
    "prefecture_code": 13,
    "city": "江東区",
    "city_kana": "コウトウク",
    "town": "南砂",
    "town_kana": "ミナミスナ",
    "street": "２丁目５−１５",
    "office_name": "ヤマトシステム開発　株式会社",
    "office_name_kana": "ヤマトシステムカイハツ カブシキガイシヤ"
  },
  "8677": {
    "postcode": "1368677",
    "prefecture": "東京都",
    "prefecture_kana": "トウキョウト",
    "prefecture_code": 13,
    "city": "江東区",
    "city_kana": "コウトウク",
    "town": "亀戸",
    "town_kana": "カメイド",
    "street": "１丁目５番７号日鐵ＮＤタワー",
    "office_name": "みずほ信託銀行　トラスト事務センター",
    "office_name_kana": "ミズホシンタクギンコウ トラストジムセンタ-"
  },
  "8680": {
    "postcode": "1368680",
    "prefecture": "東京都",
    "prefecture_kana": "トウキョウト",
    "prefecture_code": 13,
    "city": "江東区",
    "city_kana": "コウトウク",
    "town": "南砂",
    "town_kana": "ミナミスナ",
    "street": "７−１２−４",
    "office_name": "株式会社　ビームスホールディングス　ビームストランスファーセンター",
    "office_name_kana": "カブシキガイシヤ ビ-ムスホ-ルデイングス ビ-ムストランスフア-センタ-"
  },
  "8686": {
    "postcode": "1368686",
    "prefecture": "東京都",
    "prefecture_kana": "トウキョウト",
    "prefecture_code": 13,
    "city": "江東区",
    "city_kana": "コウトウク",
    "town": "南砂",
    "town_kana": "ミナミスナ",
    "street": "２−３６−１１",
    "office_name": "株式会社　三越伊勢丹通信販売",
    "office_name_kana": "カブシキガイシヤ ミツコシイセタンツウシンハンバイ"
  },
  "8711": {
    "postcode": "1368711",
    "prefecture": "東京都",
    "prefecture_kana": "トウキョウト",
    "prefecture_code": 13,
    "city": "江東区",
    "city_kana": "コウトウク",
    "town": "大島",
    "town_kana": "オオジマ",
    "street": "２丁目２番１号",
    "office_name": "日本ヒューレット・パッカード　株式会社",
    "office_name_kana": "ニホンヒユ-レツト・パツカ-ド カブシキガイシヤ"
  },
  "8723": {
    "postcode": "1368723",
    "prefecture": "東京都",
    "prefecture_kana": "トウキョウト",
    "prefecture_code": 13,
    "city": "江東区",
    "city_kana": "コウトウク",
    "town": "亀戸",
    "town_kana": "カメイド",
    "street": "１丁目３−４（城東郵便局私書箱第９号）",
    "office_name": "株式会社　東京ダンケ",
    "office_name_kana": "カブシキガイシヤ トウキヨウダンケ"
  },
  "8733": {
    "postcode": "1368733",
    "prefecture": "東京都",
    "prefecture_kana": "トウキョウト",
    "prefecture_code": 13,
    "city": "江東区",
    "city_kana": "コウトウク",
    "town": "亀戸",
    "town_kana": "カメイド",
    "street": "１丁目５−７（城東郵便局私書箱第６号）",
    "office_name": "日鉄商事　株式会社",
    "office_name_kana": "ニツテツシヨウジ カブシキガイシヤ"
  },
  "8880": {
    "postcode": "1368880",
    "prefecture": "東京都",
    "prefecture_kana": "トウキョウト",
    "prefecture_code": 13,
    "city": "江東区",
    "city_kana": "コウトウク",
    "town": "南砂",
    "town_kana": "ミナミスナ",
    "street": "２丁目７−５",
    "office_name": "株式会社　鴻池組",
    "office_name_kana": "カブシキガイシヤ コウノイケグミ"
  },
  "8881": {
    "postcode": "1368881",
    "prefecture": "東京都",
    "prefecture_kana": "トウキョウト",
    "prefecture_code": 13,
    "city": "江東区",
    "city_kana": "コウトウク",
    "town": "南砂",
    "town_kana": "ミナミスナ",
    "street": "７−１１−２４",
    "office_name": "株式会社　ミキモト",
    "office_name_kana": "(カ) ミキモト"
  },
  "8888": {
    "postcode": "1368888",
    "prefecture": "東京都",
    "prefecture_kana": "トウキョウト",
    "prefecture_code": 13,
    "city": "江東区",
    "city_kana": "コウトウク",
    "town": "新砂",
    "town_kana": "シンスナ",
    "street": "２丁目２番８号",
    "office_name": "佐川急便　株式会社　東京本社",
    "office_name_kana": "サガワキユウビン カブシキガイシヤ トウキヨウホンシヤ"
  },
  "8908": {
    "postcode": "1368908",
    "prefecture": "東京都",
    "prefecture_kana": "トウキョウト",
    "prefecture_code": 13,
    "city": "江東区",
    "city_kana": "コウトウク",
    "town": "新砂",
    "town_kana": "シンスナ",
    "street": "１−２−１０",
    "office_name": "株式会社　明治",
    "office_name_kana": "カブシキガイシヤ メイジ"
  }
}