{
  "0000": {
    "postcode": "1400000",
    "prefecture": "東京都",
    "prefecture_kana": "トウキョウト",
    "prefecture_code": 13,
    "city": "品川区",
    "city_kana": "シナガワク",
    "town": "",
    "town_kana": "",
    "street": null,
    "office_name": null,
    "office_name_kana": null
  },
  "0001": {
    "postcode": "1400001",
    "prefecture": "東京都",
    "prefecture_kana": "トウキョウト",
    "prefecture_code": 13,
    "city": "品川区",
    "city_kana": "シナガワク",
    "town": "北品川",
    "town_kana": "キタシナガワ",
    "street": null,
    "office_name": null,
    "office_name_kana": null
  },
  "0002": {
    "postcode": "1400002",
    "prefecture": "東京都",
    "prefecture_kana": "トウキョウト",
    "prefecture_code": 13,
    "city": "品川区",
    "city_kana": "シナガワク",
    "town": "東品川",
    "town_kana": "ヒガシシナガワ",
    "street": null,
    "office_name": null,
    "office_name_kana": null
  },
  "0003": {
    "postcode": "1400003",
    "prefecture": "東京都",
    "prefecture_kana": "トウキョウト",
    "prefecture_code": 13,
    "city": "品川区",
    "city_kana": "シナガワク",
    "town": "八潮",
    "town_kana": "ヤシオ",
    "street": null,
    "office_name": null,
    "office_name_kana": null
  },
  "0004": {
    "postcode": "1400004",
    "prefecture": "東京都",
    "prefecture_kana": "トウキョウト",
    "prefecture_code": 13,
    "city": "品川区",
    "city_kana": "シナガワク",
    "town": "南品川",
    "town_kana": "ミナミシナガワ",
    "street": null,
    "office_name": null,
    "office_name_kana": null
  },
  "0005": {
    "postcode": "1400005",
    "prefecture": "東京都",
    "prefecture_kana": "トウキョウト",
    "prefecture_code": 13,
    "city": "品川区",
    "city_kana": "シナガワク",
    "town": "広町",
    "town_kana": "ヒロマチ",
    "street": null,
    "office_name": null,
    "office_name_kana": null
  },
  "0011": {
    "postcode": "1400011",
    "prefecture": "東京都",
    "prefecture_kana": "トウキョウト",
    "prefecture_code": 13,
    "city": "品川区",
    "city_kana": "シナガワク",
    "town": "東大井",
    "town_kana": "ヒガシオオイ",
    "street": null,
    "office_name": null,
    "office_name_kana": null
  },
  "0012": {
    "postcode": "1400012",
    "prefecture": "東京都",
    "prefecture_kana": "トウキョウト",
    "prefecture_code": 13,
    "city": "品川区",
    "city_kana": "シナガワク",
    "town": "勝島",
    "town_kana": "カツシマ",
    "street": null,
    "office_name": null,
    "office_name_kana": null
  },
  "0013": {
    "postcode": "1400013",
    "prefecture": "東京都",
    "prefecture_kana": "トウキョウト",
    "prefecture_code": 13,
    "city": "品川区",
    "city_kana": "シナガワク",
    "town": "南大井",
    "town_kana": "ミナミオオイ",
    "street": null,
    "office_name": null,
    "office_name_kana": null
  },
  "0014": {
    "postcode": "1400014",
    "prefecture": "東京都",
    "prefecture_kana": "トウキョウト",
    "prefecture_code": 13,
    "city": "品川区",
    "city_kana": "シナガワク",
    "town": "大井",
    "town_kana": "オオイ",
    "street": null,
    "office_name": null,
    "office_name_kana": null
  },
  "0015": {
    "postcode": "1400015",
    "prefecture": "東京都",
    "prefecture_kana": "トウキョウト",
    "prefecture_code": 13,
    "city": "品川区",
    "city_kana": "シナガワク",
    "town": "西大井",
    "town_kana": "ニシオオイ",
    "street": null,
    "office_name": null,
    "office_name_kana": null
  },
  "8450": {
    "postcode": "1408450",
    "prefecture": "東京都",
    "prefecture_kana": "トウキョウト",
    "prefecture_code": 13,
    "city": "品川区",
    "city_kana": "シナガワク",
    "town": "南大井",
    "town_kana": "ミナミオオイ",
    "street": "六丁目２７番１８号日立大森第二別館",
    "office_name": "株式会社　イトーヨーカ堂",
    "office_name_kana": "カブシキガイシヤ イト-ヨ-カド-"
  },
  "8502": {
    "postcode": "1408502",
    "prefecture": "東京都",
    "prefecture_kana": "トウキョウト",
    "prefecture_code": 13,
    "city": "品川区",
    "city_kana": "シナガワク",
    "town": "南大井",
    "town_kana": "ミナミオオイ",
    "street": "６丁目２１−１２",
    "office_name": "日立電子サービス　株式会社　システム事業本部",
    "office_name_kana": "ヒタチデンシサ-ビス カブシキガイシヤ システムジギヨウホンブ"
  },
  "8503": {
    "postcode": "1408503",
    "prefecture": "東京都",
    "prefecture_kana": "トウキョウト",
    "prefecture_code": 13,
    "city": "品川区",
    "city_kana": "シナガワク",
    "town": "大井",
    "town_kana": "オオイ",
    "street": "１−２０−６",
    "office_name": "株式会社　日本理化工業所",
    "office_name_kana": "カブシキガイシヤ ニホンリカコウギヨウシヨ"
  },
  "8506": {
    "postcode": "1408506",
    "prefecture": "東京都",
    "prefecture_kana": "トウキョウト",
    "prefecture_code": 13,
    "city": "品川区",
    "city_kana": "シナガワク",
    "town": "東品川",
    "town_kana": "ヒガシシナガワ",
    "street": "４丁目１２−２",
    "office_name": "三菱総研ＤＣＳ　株式会社",
    "office_name_kana": "ミツビシソウケンデイ-シ-エス カブシキガイシヤ"
  },
  "8507": {
    "postcode": "1408507",
    "prefecture": "東京都",
    "prefecture_kana": "トウキョウト",
    "prefecture_code": 13,
    "city": "品川区",
    "city_kana": "シナガワク",
    "town": "大井",
    "town_kana": "オオイ",
    "street": "１丁目２２−１３",
    "office_name": "米山紙商事　株式会社",
    "office_name_kana": "ヨネヤマシシヨウジ カブシキガイシヤ"
  },
  "8509": {
    "postcode": "1408509",
    "prefecture": "東京都",
    "prefecture_kana": "トウキョウト",
    "prefecture_code": 13,
    "city": "品川区",
    "city_kana": "シナガワク",
    "town": "東品川",
    "town_kana": "ヒガシシナガワ",
    "street": "２丁目３番１４号",
    "office_name": "日本サブウェイ　合同会社",
    "office_name_kana": "ニホンサブウエイ ゴウドウガイシヤ"
  },
  "8511": {
    "postcode": "1408511",
    "prefecture": "東京都",
    "prefecture_kana": "トウキョウト",
    "prefecture_code": 13,
    "city": "品川区",
    "city_kana": "シナガワク",
    "town": "大井",
    "town_kana": "オオイ",
    "street": "１丁目４７−１",
    "office_name": "株式会社　ニッセイコム",
    "office_name_kana": "カブシキカイシヤ ニツセイコム"
  },
  "8512": {
    "postcode": "1408512",
    "prefecture": "東京都",
    "prefecture_kana": "トウキョウト",
    "prefecture_code": 13,
    "city": "品川区",
    "city_kana": "シナガワク",
    "town": "南大井",
    "town_kana": "ミナミオオイ",
    "street": "６−２３−１日立大森ビル",
    "office_name": "株式会社　日立製作所　情報・通信システム社",
    "office_name_kana": "カブシキカイシヤ ヒタチセイサクシヨ ジヨウホウ・ツウシンシステムシヤ"
  },
  "8515": {
    "postcode": "1408515",
    "prefecture": "東京都",
    "prefecture_kana": "トウキョウト",
    "prefecture_code": 13,
    "city": "品川区",
    "city_kana": "シナガワク",
    "town": "大井",
    "town_kana": "オオイ",
    "street": "１丁目４７−１",
    "office_name": "大成温調　株式会社",
    "office_name_kana": "タイセイオンチヨウ カブシキガイシヤ"
  },
  "8516": {
    "postcode": "1408516",
    "prefecture": "東京都",
    "prefecture_kana": "トウキョウト",
    "prefecture_code": 13,
    "city": "品川区",
    "city_kana": "シナガワク",
    "town": "大井",
    "town_kana": "オオイ",
    "street": "１丁目２３−３",
    "office_name": "フクビ化学工業",
    "office_name_kana": "フクビカガクコウギヨウ"
  },
  "8521": {
    "postcode": "1408521",
    "prefecture": "東京都",
    "prefecture_kana": "トウキョウト",
    "prefecture_code": 13,
    "city": "品川区",
    "city_kana": "シナガワク",
    "town": "東大井",
    "town_kana": "ヒガシオオイ",
    "street": "１丁目６−１",
    "office_name": "前田硝子　株式会社",
    "office_name_kana": "マエダガラス カブシキガイシヤ"
  },
  "8522": {
    "postcode": "1408522",
    "prefecture": "東京都",
    "prefecture_kana": "トウキョウト",
    "prefecture_code": 13,
    "city": "品川区",
    "city_kana": "シナガワク",
    "town": "東大井",
    "town_kana": "ヒガシオオイ",
    "street": "６−３−２２",
    "office_name": "医療法人社団緑野会　東京品川病院",
    "office_name_kana": "イリヨウホウジンシヤダンミドリノカイ トウキヨウシナガワビヨウイン"
  },
  "8523": {
    "postcode": "1408523",
    "prefecture": "東京都",
    "prefecture_kana": "トウキョウト",
    "prefecture_code": 13,
    "city": "品川区",
    "city_kana": "シナガワク",
    "town": "東大井",
    "town_kana": "ヒガシオオイ",
    "street": "１丁目９−３５",
    "office_name": "日産プリンス東京販売　株式会社",
    "office_name_kana": "ニツサンプリンストウキヨウハンバイ カブシキガイシヤ"
  },
  "8525": {
    "postcode": "1408525",
    "prefecture": "東京都",
    "prefecture_kana": "トウキョウト",
    "prefecture_code": 13,
    "city": "品川区",
    "city_kana": "シナガワク",
    "town": "東大井",
    "town_kana": "ヒガシオオイ",
    "street": "１丁目８−１０",
    "office_name": "ドウシシャ　東京本社",
    "office_name_kana": "ドウシシヤ トウキヨウホンシヤ"
  },
  "8526": {
    "postcode": "1408526",
    "prefecture": "東京都",
    "prefecture_kana": "トウキョウト",
    "prefecture_code": 13,
    "city": "品川区",
    "city_kana": "シナガワク",
    "town": "東品川",
    "town_kana": "ヒガシシナガワ",
    "street": "２−４−１１",
    "office_name": "キヤノンＭＪアイティグループホールディングス　株式会社",
    "office_name_kana": "キヤノンエムジエ-アイテイグル-プホ-ルデイングス カブシキガイシヤ"
  },
  "8529": {
    "postcode": "1408529",
    "prefecture": "東京都",
    "prefecture_kana": "トウキョウト",
    "prefecture_code": 13,
    "city": "品川区",
    "city_kana": "シナガワク",
    "town": "東品川",
    "town_kana": "ヒガシシナガワ",
    "street": "４丁目１２−２",
    "office_name": "プリマハム　（株）",
    "office_name_kana": "プリマハム カブシキガイシヤ"
  },
  "8530": {
    "postcode": "1408530",
    "prefecture": "東京都",
    "prefecture_kana": "トウキョウト",
    "prefecture_code": 13,
    "city": "品川区",
    "city_kana": "シナガワク",
    "town": "東大井",
    "town_kana": "ヒガシオオイ",
    "street": "１丁目８−１９",
    "office_name": "シンワ　株式会社",
    "office_name_kana": "シンワ カブシキガイシヤ"
  },
  "8531": {
    "postcode": "1408531",
    "prefecture": "東京都",
    "prefecture_kana": "トウキョウト",
    "prefecture_code": 13,
    "city": "品川区",
    "city_kana": "シナガワク",
    "town": "南大井",
    "town_kana": "ミナミオオイ",
    "street": "６丁目２６−３大森ベルポートＤ館９階",
    "office_name": "光文工業　株式会社",
    "office_name_kana": "コウブンコウギヨウ カブシキガイシヤ"
  },
  "8533": {
    "postcode": "1408533",
    "prefecture": "東京都",
    "prefecture_kana": "トウキョウト",
    "prefecture_code": 13,
    "city": "品川区",
    "city_kana": "シナガワク",
    "town": "東大井",
    "town_kana": "ヒガシオオイ",
    "street": "２丁目６−９",
    "office_name": "株式会社　理研オプテック",
    "office_name_kana": "カブシキガイシヤ リケンオプテツク"
  },
  "8536": {
    "postcode": "1408536",
    "prefecture": "東京都",
    "prefecture_kana": "トウキョウト",
    "prefecture_code": 13,
    "city": "品川区",
    "city_kana": "シナガワク",
    "town": "南大井",
    "town_kana": "ミナミオオイ",
    "street": "３丁目２８−３大森プラザビル",
    "office_name": "株式会社　東京書芸館",
    "office_name_kana": "カブシキガイシヤ トウキヨウシヨゲイカン"
  },
  "8537": {
    "postcode": "1408537",
    "prefecture": "東京都",
    "prefecture_kana": "トウキョウト",
    "prefecture_code": 13,
    "city": "品川区",
    "city_kana": "シナガワク",
    "town": "東大井",
    "town_kana": "ヒガシオオイ",
    "street": "５−２３−３７",
    "office_name": "三菱鉛筆　株式会社",
    "office_name_kana": "ミツビシエンピツ カブシキガイシヤ"
  },
  "8538": {
    "postcode": "1408538",
    "prefecture": "東京都",
    "prefecture_kana": "トウキョウト",
    "prefecture_code": 13,
    "city": "品川区",
    "city_kana": "シナガワク",
    "town": "東大井",
    "town_kana": "ヒガシオオイ",
    "street": "１丁目９−３７",
    "office_name": "株式会社　加藤製作所",
    "office_name_kana": "カブシキガイシヤ カトウセイサクシヨ"
  },
  "8539": {
    "postcode": "1408539",
    "prefecture": "東京都",
    "prefecture_kana": "トウキョウト",
    "prefecture_code": 13,
    "city": "品川区",
    "city_kana": "シナガワク",
    "town": "東大井",
    "town_kana": "ヒガシオオイ",
    "street": "５丁目２２−５",
    "office_name": "三愛石油",
    "office_name_kana": "サンアイセキユ"
  },
  "8540": {
    "postcode": "1408540",
    "prefecture": "東京都",
    "prefecture_kana": "トウキョウト",
    "prefecture_code": 13,
    "city": "品川区",
    "city_kana": "シナガワク",
    "town": "南大井",
    "town_kana": "ミナミオオイ",
    "street": "３丁目２−６",
    "office_name": "株式会社　シンクロン",
    "office_name_kana": "カブシキガイシヤ シンクロン"
  },
  "8541": {
    "postcode": "1408541",
    "prefecture": "東京都",
    "prefecture_kana": "トウキョウト",
    "prefecture_code": 13,
    "city": "品川区",
    "city_kana": "シナガワク",
    "town": "東品川",
    "town_kana": "ヒガシシナガワ",
    "street": "３丁目３１−８",
    "office_name": "ハイデルベルグ・ジャパン　株式会社",
    "office_name_kana": "ハイデルベルグ・ジヤパン カブシキガイシヤ"
  },
  "8543": {
    "postcode": "1408543",
    "prefecture": "東京都",
    "prefecture_kana": "トウキョウト",
    "prefecture_code": 13,
    "city": "品川区",
    "city_kana": "シナガワク",
    "town": "南大井",
    "town_kana": "ミナミオオイ",
    "street": "３丁目２−２",
    "office_name": "田中商事　株式会社",
    "office_name_kana": "タナカシヨウジ カブシキガイシヤ"
  },
  "8547": {
    "postcode": "1408547",
    "prefecture": "東京都",
    "prefecture_kana": "トウキョウト",
    "prefecture_code": 13,
    "city": "品川区",
    "city_kana": "シナガワク",
    "town": "南大井",
    "town_kana": "ミナミオオイ",
    "street": "５丁目１９−８",
    "office_name": "インターワイヤード　株式会社",
    "office_name_kana": "インタ-ワイヤ-ド カブシキガイシヤ"
  },
  "8548": {
    "postcode": "1408548",
    "prefecture": "東京都",
    "prefecture_kana": "トウキョウト",
    "prefecture_code": 13,
    "city": "品川区",
    "city_kana": "シナガワク",
    "town": "南大井",
    "town_kana": "ミナミオオイ",
    "street": "６丁目２２番７号（品川郵便局私書箱第１４０号）",
    "office_name": "企業年金ビジネスサービス　株式会社",
    "office_name_kana": "キギヨウネンキンビジネスサ-ビス カブシキガイシヤ"
  },
  "8549": {
    "postcode": "1408549",
    "prefecture": "東京都",
    "prefecture_kana": "トウキョウト",
    "prefecture_code": 13,
    "city": "品川区",
    "city_kana": "シナガワク",
    "town": "南大井",
    "town_kana": "ミナミオオイ",
    "street": "６丁目２２番７号（品川郵便局私書箱第１４０号）",
    "office_name": "企業年金ビジネスサービス　株式会社",
    "office_name_kana": "キギヨウネンキンビジネスサ-ビス カブシキガイシヤ"
  },
  "8551": {
    "postcode": "1408551",
    "prefecture": "東京都",
    "prefecture_kana": "トウキョウト",
    "prefecture_code": 13,
    "city": "品川区",
    "city_kana": "シナガワク",
    "town": "南大井",
    "town_kana": "ミナミオオイ",
    "street": "３丁目２８−１０",
    "office_name": "平河ヒューテック　株式会社",
    "office_name_kana": "ヒラガヒユ-テツク カブシキガイシヤ"
  },
  "8552": {
    "postcode": "1408552",
    "prefecture": "東京都",
    "prefecture_kana": "トウキョウト",
    "prefecture_code": 13,
    "city": "品川区",
    "city_kana": "シナガワク",
    "town": "南大井",
    "town_kana": "ミナミオオイ",
    "street": "２丁目９番９号",
    "office_name": "下田工業　株式会社　東京支社",
    "office_name_kana": "シモダコウギヨウ カブシキガイシヤ トウキヨウシシヤ"
  },
  "8554": {
    "postcode": "1408554",
    "prefecture": "東京都",
    "prefecture_kana": "トウキョウト",
    "prefecture_code": 13,
    "city": "品川区",
    "city_kana": "シナガワク",
    "town": "東品川",
    "town_kana": "ヒガシシナガワ",
    "street": "２−２−４３Ｔ２ビル３Ｆ",
    "office_name": "株式会社　ＧＳＴＶ",
    "office_name_kana": "カブシキガイシヤ ジ-エステイ-ブイ"
  },
  "8558": {
    "postcode": "1408558",
    "prefecture": "東京都",
    "prefecture_kana": "トウキョウト",
    "prefecture_code": 13,
    "city": "品川区",
    "city_kana": "シナガワク",
    "town": "南大井",
    "town_kana": "ミナミオオイ",
    "street": "３丁目１８−７",
    "office_name": "株式会社　竹虎",
    "office_name_kana": "カブシキガイシヤ タケトラ"
  },
  "8560": {
    "postcode": "1408560",
    "prefecture": "東京都",
    "prefecture_kana": "トウキョウト",
    "prefecture_code": 13,
    "city": "品川区",
    "city_kana": "シナガワク",
    "town": "南大井",
    "town_kana": "ミナミオオイ",
    "street": "６丁目８−２",
    "office_name": "（株）　東京測器研究所",
    "office_name_kana": "(カ) トウキヨウソクキケンキユウジヨ"
  },
  "8563": {
    "postcode": "1408563",
    "prefecture": "東京都",
    "prefecture_kana": "トウキョウト",
    "prefecture_code": 13,
    "city": "品川区",
    "city_kana": "シナガワク",
    "town": "南大井",
    "town_kana": "ミナミオオイ",
    "street": "２丁目１０−６",
    "office_name": "ニッサン・モータースポーツ・インターナショナル　株式会社",
    "office_name_kana": "ニツサン・モ-タ-スポ-ツ・インタ-ナシヨナル カブシキガイシヤ"
  },
  "8566": {
    "postcode": "1408566",
    "prefecture": "東京都",
    "prefecture_kana": "トウキョウト",
    "prefecture_code": 13,
    "city": "品川区",
    "city_kana": "シナガワク",
    "town": "南大井",
    "town_kana": "ミナミオオイ",
    "street": "６丁目５−８",
    "office_name": "サンワサプライ　（株）　東京サプライセンター",
    "office_name_kana": "サンワサプライ カブシキガイシヤ トウキヨウサプライセンタ-"
  },
  "8567": {
    "postcode": "1408567",
    "prefecture": "東京都",
    "prefecture_kana": "トウキョウト",
    "prefecture_code": 13,
    "city": "品川区",
    "city_kana": "シナガワク",
    "town": "南大井",
    "town_kana": "ミナミオオイ",
    "street": "６丁目２６−１",
    "office_name": "富士通サポートアンドサービス　株式会社",
    "office_name_kana": "フジツウサポ-トアンドサ-ビス カブシキガイシヤ"
  },
  "8571": {
    "postcode": "1408571",
    "prefecture": "東京都",
    "prefecture_kana": "トウキョウト",
    "prefecture_code": 13,
    "city": "品川区",
    "city_kana": "シナガワク",
    "town": "南大井",
    "town_kana": "ミナミオオイ",
    "street": "６丁目２６−２",
    "office_name": "株式会社　日平トヤマ",
    "office_name_kana": "カブシキガイシヤ ニツペイトヤマ"
  },
  "8572": {
    "postcode": "1408572",
    "prefecture": "東京都",
    "prefecture_kana": "トウキョウト",
    "prefecture_code": 13,
    "city": "品川区",
    "city_kana": "シナガワク",
    "town": "南大井",
    "town_kana": "ミナミオオイ",
    "street": "６丁目２７−１８日立大森第二別館",
    "office_name": "株式会社　日立製作所　情報・通信グループ",
    "office_name_kana": "カブシキカイシヤ ヒタチセイサクシヨ ジヨウホウ・ツウシングル-プ"
  },
  "8573": {
    "postcode": "1408573",
    "prefecture": "東京都",
    "prefecture_kana": "トウキョウト",
    "prefecture_code": 13,
    "city": "品川区",
    "city_kana": "シナガワク",
    "town": "南大井",
    "town_kana": "ミナミオオイ",
    "street": "６丁目２６−２大森ベルポートＢ館",
    "office_name": "株式会社　日立製作所　情報・通信グループ",
    "office_name_kana": "カブシキカイシヤ ヒタチセイサクシヨ ジヨウホウ・ツウシングル-プ"
  },
  "8574": {
    "postcode": "1408574",
    "prefecture": "東京都",
    "prefecture_kana": "トウキョウト",
    "prefecture_code": 13,
    "city": "品川区",
    "city_kana": "シナガワク",
    "town": "南大井",
    "town_kana": "ミナミオオイ",
    "street": "六丁目２６−１大森ベルポートＡ館",
    "office_name": "株式会社　日立製作所デジタルシステム＆サービス統括本部",
    "office_name_kana": "カブシキカイシヤ ヒタチセイサクシヨデジタルシステムアンドサ-ビストウカツホンブ"
  },
  "8576": {
    "postcode": "1408576",
    "prefecture": "東京都",
    "prefecture_kana": "トウキョウト",
    "prefecture_code": 13,
    "city": "品川区",
    "city_kana": "シナガワク",
    "town": "南大井",
    "town_kana": "ミナミオオイ",
    "street": "６丁目２０−１２",
    "office_name": "（株）　ロキテクノ",
    "office_name_kana": "(カブ) ロキテクノ"
  },
  "8580": {
    "postcode": "1408580",
    "prefecture": "東京都",
    "prefecture_kana": "トウキョウト",
    "prefecture_code": 13,
    "city": "品川区",
    "city_kana": "シナガワク",
    "town": "勝島",
    "town_kana": "カツシマ",
    "street": "１丁目５−２１",
    "office_name": "テクノレント　株式会社",
    "office_name_kana": "テクノレント カブシキガイシヤ"
  },
  "8583": {
    "postcode": "1408583",
    "prefecture": "東京都",
    "prefecture_kana": "トウキョウト",
    "prefecture_code": 13,
    "city": "品川区",
    "city_kana": "シナガワク",
    "town": "東品川",
    "town_kana": "ヒガシシナガワ",
    "street": "１−３９−９",
    "office_name": "株式会社　セガ",
    "office_name_kana": "カブシキガイシヤ セガ"
  },
  "8584": {
    "postcode": "1408584",
    "prefecture": "東京都",
    "prefecture_kana": "トウキョウト",
    "prefecture_code": 13,
    "city": "品川区",
    "city_kana": "シナガワク",
    "town": "東品川",
    "town_kana": "ヒガシシナガワ",
    "street": "４−１２−１品川シーサイドサウスタワー１７Ｆ",
    "office_name": "ジャックス債権回収サービス　株式会社",
    "office_name_kana": "ジヤツクスサイケンカイシユウサ-ビス カブシキガイシヤ"
  },
  "8586": {
    "postcode": "1408586",
    "prefecture": "東京都",
    "prefecture_kana": "トウキョウト",
    "prefecture_code": 13,
    "city": "品川区",
    "city_kana": "シナガワク",
    "town": "東品川",
    "town_kana": "ヒガシシナガワ",
    "street": "四丁目１２番４号品川シーサイドパークタワー",
    "office_name": "ＦＣＬコンポーネント　株式会社",
    "office_name_kana": "エフシ-エルコンポ-ネント カブシキガイシヤ"
  },
  "8590": {
    "postcode": "1408590",
    "prefecture": "東京都",
    "prefecture_kana": "トウキョウト",
    "prefecture_code": 13,
    "city": "品川区",
    "city_kana": "シナガワク",
    "town": "東品川",
    "town_kana": "ヒガシシナガワ",
    "street": "４丁目５−１５",
    "office_name": "株式会社　バンダイナムコゲームス",
    "office_name_kana": "カブシキガイシヤ バンダイナムコゲ-ムス"
  },
  "8601": {
    "postcode": "1408601",
    "prefecture": "東京都",
    "prefecture_kana": "トウキョウト",
    "prefecture_code": 13,
    "city": "品川区",
    "city_kana": "シナガワク",
    "town": "西大井",
    "town_kana": "ニシオオイ",
    "street": "１丁目５−２０",
    "office_name": "株式会社　ニコン　本社",
    "office_name_kana": "カブシキガイシヤ ニコン ホンシヤ"
  },
  "8602": {
    "postcode": "1408602",
    "prefecture": "東京都",
    "prefecture_kana": "トウキョウト",
    "prefecture_code": 13,
    "city": "品川区",
    "city_kana": "シナガワク",
    "town": "東品川",
    "town_kana": "ヒガシシナガワ",
    "street": "２丁目３番１１号",
    "office_name": "ＪＴＢ",
    "office_name_kana": "ジエイテイビ-"
  },
  "8611": {
    "postcode": "1408611",
    "prefecture": "東京都",
    "prefecture_kana": "トウキョウト",
    "prefecture_code": 13,
    "city": "品川区",
    "city_kana": "シナガワク",
    "town": "東品川",
    "town_kana": "ヒガシシナガワ",
    "street": "３丁目２０−１７",
    "office_name": "株式会社　サンゲツ　東京店",
    "office_name_kana": "カブシキガイシヤ サンゲツ トウキヨウテン"
  },
  "8614": {
    "postcode": "1408614",
    "prefecture": "東京都",
    "prefecture_kana": "トウキョウト",
    "prefecture_code": 13,
    "city": "品川区",
    "city_kana": "シナガワク",
    "town": "東品川",
    "town_kana": "ヒガシシナガワ",
    "street": "２丁目５−８",
    "office_name": "株式会社　コスモトレード＆サービス",
    "office_name_kana": "カブシキガイシヤ コスモトレ-ドアンドサ-ビス"
  },
  "8615": {
    "postcode": "1408615",
    "prefecture": "東京都",
    "prefecture_kana": "トウキョウト",
    "prefecture_code": 13,
    "city": "品川区",
    "city_kana": "シナガワク",
    "town": "東品川",
    "town_kana": "ヒガシシナガワ",
    "street": "２丁目６−１０",
    "office_name": "寺田倉庫　株式会社",
    "office_name_kana": "テラダソウコ カブシキガイシヤ"
  },
  "8616": {
    "postcode": "1408616",
    "prefecture": "東京都",
    "prefecture_kana": "トウキョウト",
    "prefecture_code": 13,
    "city": "品川区",
    "city_kana": "シナガワク",
    "town": "東品川",
    "town_kana": "ヒガシシナガワ",
    "street": "２丁目５−８",
    "office_name": "ベークライト商事　株式会社",
    "office_name_kana": "ベ-クライトシヨウジ カブシキガイシヤ"
  },
  "8617": {
    "postcode": "1408617",
    "prefecture": "東京都",
    "prefecture_kana": "トウキョウト",
    "prefecture_code": 13,
    "city": "品川区",
    "city_kana": "シナガワク",
    "town": "東品川",
    "town_kana": "ヒガシシナガワ",
    "street": "２丁目２−２４",
    "office_name": "ダウ・ケミカル日本　株式会社",
    "office_name_kana": "ダウ.ケミカルニホン カブシキガイシヤ"
  },
  "8619": {
    "postcode": "1408619",
    "prefecture": "東京都",
    "prefecture_kana": "トウキョウト",
    "prefecture_code": 13,
    "city": "品川区",
    "city_kana": "シナガワク",
    "town": "東品川",
    "town_kana": "ヒガシシナガワ",
    "street": "２丁目４番１１号野村不動産天王洲ビル",
    "office_name": "株式会社　アクセス国際ネットワーク",
    "office_name_kana": "カブシキガイシヤ アクセスコクサイネツトワ-ク"
  },
  "8621": {
    "postcode": "1408621",
    "prefecture": "東京都",
    "prefecture_kana": "トウキョウト",
    "prefecture_code": 13,
    "city": "品川区",
    "city_kana": "シナガワク",
    "town": "勝島",
    "town_kana": "カツシマ",
    "street": "一丁目５番１３号グランロジテラス品川",
    "office_name": "ネットワンシステムズ　株式会社",
    "office_name_kana": "ネツトワンシステムズ カブシキガイシヤ"
  },
  "8625": {
    "postcode": "1408625",
    "prefecture": "東京都",
    "prefecture_kana": "トウキョウト",
    "prefecture_code": 13,
    "city": "品川区",
    "city_kana": "シナガワク",
    "town": "東品川",
    "town_kana": "ヒガシシナガワ",
    "street": "２丁目４−１１",
    "office_name": "ＪＡＬ　マイレージバンク日本地区会員事務局",
    "office_name_kana": "ジヤル マイレ-ジバンクニホンチクカイインケンジムキヨク"
  },
  "8626": {
    "postcode": "1408626",
    "prefecture": "東京都",
    "prefecture_kana": "トウキョウト",
    "prefecture_code": 13,
    "city": "品川区",
    "city_kana": "シナガワク",
    "town": "東品川",
    "town_kana": "ヒガシシナガワ",
    "street": "２丁目２−２０天王洲郵船ビル１３階",
    "office_name": "アイ・シー・アイ・ジャパン　株式会社",
    "office_name_kana": "アイ.シ-.アイ.ジヤパン カブシキガイシヤ"
  },
  "8628": {
    "postcode": "1408628",
    "prefecture": "東京都",
    "prefecture_kana": "トウキョウト",
    "prefecture_code": 13,
    "city": "品川区",
    "city_kana": "シナガワク",
    "town": "東品川",
    "town_kana": "ヒガシシナガワ",
    "street": "２丁目２−２０天王洲郵船ビル",
    "office_name": "日本軽金属",
    "office_name_kana": "ニツポンケイキンゾク"
  },
  "8630": {
    "postcode": "1408630",
    "prefecture": "東京都",
    "prefecture_kana": "トウキョウト",
    "prefecture_code": 13,
    "city": "品川区",
    "city_kana": "シナガワク",
    "town": "東品川",
    "town_kana": "ヒガシシナガワ",
    "street": "２丁目２−２４",
    "office_name": "株式会社　ＵＥＸ",
    "office_name_kana": "カブシキガイシヤ ウエツクス"
  },
  "8631": {
    "postcode": "1408631",
    "prefecture": "東京都",
    "prefecture_kana": "トウキョウト",
    "prefecture_code": 13,
    "city": "品川区",
    "city_kana": "シナガワク",
    "town": "東品川",
    "town_kana": "ヒガシシナガワ",
    "street": "２丁目３−１２",
    "office_name": "株式会社　ナイキジャパン",
    "office_name_kana": "カブシキガイシヤ ナイキジヤパン"
  },
  "8634": {
    "postcode": "1408634",
    "prefecture": "東京都",
    "prefecture_kana": "トウキョウト",
    "prefecture_code": 13,
    "city": "品川区",
    "city_kana": "シナガワク",
    "town": "東品川",
    "town_kana": "ヒガシシナガワ",
    "street": "２−２−２０",
    "office_name": "日軽産業　株式会社",
    "office_name_kana": "ニツケイサンギヨウ カブシキカイシヤ"
  },
  "8637": {
    "postcode": "1408637",
    "prefecture": "東京都",
    "prefecture_kana": "トウキョウト",
    "prefecture_code": 13,
    "city": "品川区",
    "city_kana": "シナガワク",
    "town": "東品川",
    "town_kana": "ヒガシシナガワ",
    "street": "２−４−１１",
    "office_name": "日本航空　株式会社",
    "office_name_kana": "ニホンコウクウ カブシキガイシヤ"
  },
  "8640": {
    "postcode": "1408640",
    "prefecture": "東京都",
    "prefecture_kana": "トウキョウト",
    "prefecture_code": 13,
    "city": "品川区",
    "city_kana": "シナガワク",
    "town": "東品川",
    "town_kana": "ヒガシシナガワ",
    "street": "４丁目３−１",
    "office_name": "東芝ライテック",
    "office_name_kana": "トウシバライテツク"
  },
  "8644": {
    "postcode": "1408644",
    "prefecture": "東京都",
    "prefecture_kana": "トウキョウト",
    "prefecture_code": 13,
    "city": "品川区",
    "city_kana": "シナガワク",
    "town": "東品川",
    "town_kana": "ヒガシシナガワ",
    "street": "２丁目５−８天王州パークサイドビル",
    "office_name": "株式会社　東機貿　天王州オフィス",
    "office_name_kana": "カブシキガイシヤ トウキボウ テンノウズオフイス"
  },
  "8650": {
    "postcode": "1408650",
    "prefecture": "東京都",
    "prefecture_kana": "トウキョウト",
    "prefecture_code": 13,
    "city": "品川区",
    "city_kana": "シナガワク",
    "town": "東品川",
    "town_kana": "ヒガシシナガワ",
    "street": "２丁目２−４",
    "office_name": "キヤノンシステムアンドサポート　株式会社",
    "office_name_kana": "キヤノンシステムアンドサポ-ト カブシキガイシヤ"
  },
  "8653": {
    "postcode": "1408653",
    "prefecture": "東京都",
    "prefecture_kana": "トウキョウト",
    "prefecture_code": 13,
    "city": "品川区",
    "city_kana": "シナガワク",
    "town": "東品川",
    "town_kana": "ヒガシシナガワ",
    "street": "２丁目４−１１",
    "office_name": "株式会社　ジャルキャピタル",
    "office_name_kana": "カブシキガイシヤ ジヤルキヤピタル"
  },
  "8654": {
    "postcode": "1408654",
    "prefecture": "東京都",
    "prefecture_kana": "トウキョウト",
    "prefecture_code": 13,
    "city": "品川区",
    "city_kana": "シナガワク",
    "town": "東品川",
    "town_kana": "ヒガシシナガワ",
    "street": "４丁目１２番３号",
    "office_name": "ソニーネットワークコミュニケーションズ　株式会社",
    "office_name_kana": "ソニ-ネツトワ-クコミユニケ-シヨンズ カブシキガイシヤ"
  },
  "8655": {
    "postcode": "1408655",
    "prefecture": "東京都",
    "prefecture_kana": "トウキョウト",
    "prefecture_code": 13,
    "city": "品川区",
    "city_kana": "シナガワク",
    "town": "東品川",
    "town_kana": "ヒガシシナガワ",
    "street": "３丁目３２−３",
    "office_name": "（株）　リコー　システムセンター",
    "office_name_kana": "カブシキガイシヤ リコ- システムセンタ-"
  },
  "8656": {
    "postcode": "1408656",
    "prefecture": "東京都",
    "prefecture_kana": "トウキョウト",
    "prefecture_code": 13,
    "city": "品川区",
    "city_kana": "シナガワク",
    "town": "東品川",
    "town_kana": "ヒガシシナガワ",
    "street": "２−４−１１野村不動産天王洲ビル",
    "office_name": "株式会社　ジャルカード",
    "office_name_kana": "カブシキガイシヤ ジヤルカ-ド"
  },
  "8658": {
    "postcode": "1408658",
    "prefecture": "東京都",
    "prefecture_kana": "トウキョウト",
    "prefecture_code": 13,
    "city": "品川区",
    "city_kana": "シナガワク",
    "town": "東品川",
    "town_kana": "ヒガシシナガワ",
    "street": "２丁目４−１１",
    "office_name": "株式会社　ジャルパック",
    "office_name_kana": "カブシキガイシヤ ジヤルパツク"
  },
  "8660": {
    "postcode": "1408660",
    "prefecture": "東京都",
    "prefecture_kana": "トウキョウト",
    "prefecture_code": 13,
    "city": "品川区",
    "city_kana": "シナガワク",
    "town": "南品川",
    "town_kana": "ミナミシナガワ",
    "street": "２丁目２−１３",
    "office_name": "東芝ライテック",
    "office_name_kana": "トウシバライテツク"
  },
  "8661": {
    "postcode": "1408661",
    "prefecture": "東京都",
    "prefecture_kana": "トウキョウト",
    "prefecture_code": 13,
    "city": "品川区",
    "city_kana": "シナガワク",
    "town": "南品川",
    "town_kana": "ミナミシナガワ",
    "street": "５丁目１１−４５",
    "office_name": "（株）　恒陽社印刷",
    "office_name_kana": "(カブ) コウヨウシヤインサツ"
  },
  "8663": {
    "postcode": "1408663",
    "prefecture": "東京都",
    "prefecture_kana": "トウキョウト",
    "prefecture_code": 13,
    "city": "品川区",
    "city_kana": "シナガワク",
    "town": "東品川",
    "town_kana": "ヒガシシナガワ",
    "street": "２丁目２番２４号",
    "office_name": "ＡＯＩ　ＴＹＯ　Ｈｏｌｄｉｎｇｓ　株式会社",
    "office_name_kana": "アオイ テイ-ワイオ- ホ-ルデイングス カブシキガイシヤ"
  },
  "8666": {
    "postcode": "1408666",
    "prefecture": "東京都",
    "prefecture_kana": "トウキョウト",
    "prefecture_code": 13,
    "city": "品川区",
    "city_kana": "シナガワク",
    "town": "南品川",
    "town_kana": "ミナミシナガワ",
    "street": "４丁目９−５",
    "office_name": "（株）　日光商会",
    "office_name_kana": "カブシキガイシヤ ニツコウシヨウカイ"
  },
  "8668": {
    "postcode": "1408668",
    "prefecture": "東京都",
    "prefecture_kana": "トウキョウト",
    "prefecture_code": 13,
    "city": "品川区",
    "city_kana": "シナガワク",
    "town": "南品川",
    "town_kana": "ミナミシナガワ",
    "street": "４丁目２−３６",
    "office_name": "山岸塗装　株式会社　本社",
    "office_name_kana": "ヤマギシトソウ カブシキガイシヤ ホンシヤ"
  },
  "8669": {
    "postcode": "1408669",
    "prefecture": "東京都",
    "prefecture_kana": "トウキョウト",
    "prefecture_code": 13,
    "city": "品川区",
    "city_kana": "シナガワク",
    "town": "南品川",
    "town_kana": "ミナミシナガワ",
    "street": "６−４−６",
    "office_name": "三和テッキ　株式会社",
    "office_name_kana": "サンワテツキ カブシキガイシヤ"
  },
  "8670": {
    "postcode": "1408670",
    "prefecture": "東京都",
    "prefecture_kana": "トウキョウト",
    "prefecture_code": 13,
    "city": "品川区",
    "city_kana": "シナガワク",
    "town": "南品川",
    "town_kana": "ミナミシナガワ",
    "street": "６丁目１−５",
    "office_name": "東洋紙業　株式会社　東京本社",
    "office_name_kana": "トウヨウシギヨウ カブシキガイシヤ トウキヨウホンシヤ"
  },
  "8672": {
    "postcode": "1408672",
    "prefecture": "東京都",
    "prefecture_kana": "トウキョウト",
    "prefecture_code": 13,
    "city": "品川区",
    "city_kana": "シナガワク",
    "town": "南品川",
    "town_kana": "ミナミシナガワ",
    "street": "２丁目６番１２号",
    "office_name": "株式会社　シミズシンテック　東京支店",
    "office_name_kana": "カブシキガイシヤ シミズシンテツク トウキヨウシテン"
  },
  "8675": [
    {
      "postcode": "1408675",
      "prefecture": "東京都",
      "prefecture_kana": "トウキョウト",
      "prefecture_code": 13,
      "city": "品川区",
      "city_kana": "シナガワク",
      "town": "南品川",
      "town_kana": "ミナミシナガワ",
      "street": "４−１−１５",
      "office_name": "日本ペイント・インダストリアルコーティングス　株式会社",
      "office_name_kana": "ニツポンペイント・インダストリアルコ-テイングス カブシキガイシヤ"
    },
    {
      "postcode": "1408675",
      "prefecture": "東京都",
      "prefecture_kana": "トウキョウト",
      "prefecture_code": 13,
      "city": "品川区",
      "city_kana": "シナガワク",
      "town": "南品川",
      "town_kana": "ミナミシナガワ",
      "street": "４−１−１５",
      "office_name": "日本ペイント・オートモーティブコーティングス　株式会社",
      "office_name_kana": "ニツポンペイント・オ-トモ-テイブコ-テイングス カブシキガイシヤ"
    },
    {
      "postcode": "1408675",
      "prefecture": "東京都",
      "prefecture_kana": "トウキョウト",
      "prefecture_code": 13,
      "city": "品川区",
      "city_kana": "シナガワク",
      "town": "南品川",
      "town_kana": "ミナミシナガワ",
      "street": "４−１−１５",
      "office_name": "日本ペイント・サーフケミカルズ　株式会社",
      "office_name_kana": "ニツポンペイント・サ-フケミカルズ カブシキガイシヤ"
    },
    {
      "postcode": "1408675",
      "prefecture": "東京都",
      "prefecture_kana": "トウキョウト",
      "prefecture_code": 13,
      "city": "品川区",
      "city_kana": "シナガワク",
      "town": "南品川",
      "town_kana": "ミナミシナガワ",
      "street": "４−１−１５",
      "office_name": "日本ペイントホールディングス　株式会社",
      "office_name_kana": "ニツポンペイントホ-ルデイングス カブシキガイシヤ"
    }
  ],
  "8676": {
    "postcode": "1408676",
    "prefecture": "東京都",
    "prefecture_kana": "トウキョウト",
    "prefecture_code": 13,
    "city": "品川区",
    "city_kana": "シナガワク",
    "town": "南品川",
    "town_kana": "ミナミシナガワ",
    "street": "６−３−１０",
    "office_name": "扶桑電機工業　株式会社",
    "office_name_kana": "フソウデンキコウギヨウ カブシキガイシヤ"
  },
  "8677": {
    "postcode": "1408677",
    "prefecture": "東京都",
    "prefecture_kana": "トウキョウト",
    "prefecture_code": 13,
    "city": "品川区",
    "city_kana": "シナガワク",
    "town": "南品川",
    "town_kana": "ミナミシナガワ",
    "street": "４−７−１６",
    "office_name": "日本ペイント　株式会社",
    "office_name_kana": "ニツポンペイント カブシキガイシヤ"
  },
  "8678": {
    "postcode": "1408678",
    "prefecture": "東京都",
    "prefecture_kana": "トウキョウト",
    "prefecture_code": 13,
    "city": "品川区",
    "city_kana": "シナガワク",
    "town": "南品川",
    "town_kana": "ミナミシナガワ",
    "street": "２丁目１６−６",
    "office_name": "株式会社　古西電機",
    "office_name_kana": "カブシキガイシヤ コニシデンキ"
  },
  "8680": {
    "postcode": "1408680",
    "prefecture": "東京都",
    "prefecture_kana": "トウキョウト",
    "prefecture_code": 13,
    "city": "品川区",
    "city_kana": "シナガワク",
    "town": "北品川",
    "town_kana": "キタシナガワ",
    "street": "３丁目６−７",
    "office_name": "丸磯建設　株式会社　本社、東京支店",
    "office_name_kana": "マルイソケンセツ カブシキガイシヤ ホンシヤ.トウキヨウシテン"
  },
  "8682": {
    "postcode": "1408682",
    "prefecture": "東京都",
    "prefecture_kana": "トウキョウト",
    "prefecture_code": 13,
    "city": "品川区",
    "city_kana": "シナガワク",
    "town": "東大井",
    "town_kana": "ヒガシオオイ",
    "street": "１−１２−５",
    "office_name": "自動車安全運転センター　東京都事務所",
    "office_name_kana": "ジドウシヤアンゼンウンテンセンタ- トウキヨウトジムシヨ"
  },
  "8687": {
    "postcode": "1408687",
    "prefecture": "東京都",
    "prefecture_kana": "トウキョウト",
    "prefecture_code": 13,
    "city": "品川区",
    "city_kana": "シナガワク",
    "town": "東品川",
    "town_kana": "ヒガシシナガワ",
    "street": "４丁目１２−８品川シーサイドイーストタワー８Ｆ",
    "office_name": "日本ゼネラルモーターズ　株式会社",
    "office_name_kana": "ニホンゼネラルモ-タ-ズ カブシキガイシヤ"
  },
  "8688": {
    "postcode": "1408688",
    "prefecture": "東京都",
    "prefecture_kana": "トウキョウト",
    "prefecture_code": 13,
    "city": "品川区",
    "city_kana": "シナガワク",
    "town": "北品川",
    "town_kana": "キタシナガワ",
    "street": "１丁目１９−４",
    "office_name": "沖電気工事　株式会社",
    "office_name_kana": "オキデンキコウジ カブシキガイシヤ"
  },
  "8702": {
    "postcode": "1408702",
    "prefecture": "東京都",
    "prefecture_kana": "トウキョウト",
    "prefecture_code": 13,
    "city": "品川区",
    "city_kana": "シナガワク",
    "town": "北品川",
    "town_kana": "キタシナガワ",
    "street": "４−１０−９",
    "office_name": "株式会社　勝亦電機製作所",
    "office_name_kana": "カブシキガイシヤ カツマタデンキセイサクジヨ"
  },
  "8707": {
    "postcode": "1408707",
    "prefecture": "東京都",
    "prefecture_kana": "トウキョウト",
    "prefecture_code": 13,
    "city": "品川区",
    "city_kana": "シナガワク",
    "town": "北品川",
    "town_kana": "キタシナガワ",
    "street": "３丁目３−１２",
    "office_name": "品川女子学院",
    "office_name_kana": "シナガワジヨシガクイン"
  },
  "8709": {
    "postcode": "1408709",
    "prefecture": "東京都",
    "prefecture_kana": "トウキョウト",
    "prefecture_code": 13,
    "city": "品川区",
    "city_kana": "シナガワク",
    "town": "北品川",
    "town_kana": "キタシナガワ",
    "street": "４丁目１１−９",
    "office_name": "社団法人　日本生花通信配達協会",
    "office_name_kana": "シヤダンホウジン ニホンセイカツウシンハイタツキヨウカイ"
  },
  "8710": {
    "postcode": "1408710",
    "prefecture": "東京都",
    "prefecture_kana": "トウキョウト",
    "prefecture_code": 13,
    "city": "品川区",
    "city_kana": "シナガワク",
    "town": "広町",
    "town_kana": "ヒロマチ",
    "street": "１丁目２−５８",
    "office_name": "第一三共　株式会社　品川研究開発センター",
    "office_name_kana": "ダイイチサンキヨウ カブシキガイシヤ シナガワケンキユウカイハツセンタ-"
  },
  "8711": {
    "postcode": "1408711",
    "prefecture": "東京都",
    "prefecture_kana": "トウキョウト",
    "prefecture_code": 13,
    "city": "品川区",
    "city_kana": "シナガワク",
    "town": "広町",
    "town_kana": "ヒロマチ",
    "street": "１丁目４−２２",
    "office_name": "株式会社　寺岡製作所",
    "office_name_kana": "カブシキガイシヤ テラオカセイサクジヨ"
  },
  "8715": {
    "postcode": "1408715",
    "prefecture": "東京都",
    "prefecture_kana": "トウキョウト",
    "prefecture_code": 13,
    "city": "品川区",
    "city_kana": "シナガワク",
    "town": "広町",
    "town_kana": "ヒロマチ",
    "street": "２丁目１−３６",
    "office_name": "品川区役所",
    "office_name_kana": "シナガワクヤクシヨ"
  },
  "8716": {
    "postcode": "1408716",
    "prefecture": "東京都",
    "prefecture_kana": "トウキョウト",
    "prefecture_code": 13,
    "city": "品川区",
    "city_kana": "シナガワク",
    "town": "広町",
    "town_kana": "ヒロマチ",
    "street": "２丁目１−３６",
    "office_name": "東京都品川都税事務所",
    "office_name_kana": "トウキヨウトシナガワトゼイジムシヨ"
  },
  "8717": {
    "postcode": "1408717",
    "prefecture": "東京都",
    "prefecture_kana": "トウキョウト",
    "prefecture_code": 13,
    "city": "品川区",
    "city_kana": "シナガワク",
    "town": "広町",
    "town_kana": "ヒロマチ",
    "street": "２丁目１−３６",
    "office_name": "法務局　品川出張所",
    "office_name_kana": "ホウムキヨク シナガワシユツチヨウジヨ"
  },
  "8721": {
    "postcode": "1408721",
    "prefecture": "東京都",
    "prefecture_kana": "トウキョウト",
    "prefecture_code": 13,
    "city": "品川区",
    "city_kana": "シナガワク",
    "town": "南品川",
    "town_kana": "ミナミシナガワ",
    "street": "３丁目６−３３（品川郵便局私書箱第２１号）",
    "office_name": "山下電気　株式会社",
    "office_name_kana": "ヤマシタデンキ カブシキガイシヤ"
  },
  "8722": {
    "postcode": "1408722",
    "prefecture": "東京都",
    "prefecture_kana": "トウキョウト",
    "prefecture_code": 13,
    "city": "品川区",
    "city_kana": "シナガワク",
    "town": "南大井",
    "town_kana": "ミナミオオイ",
    "street": "６−２６−１",
    "office_name": "いすゞ自動車　株式会社",
    "office_name_kana": "イスズジドウシヤ カブシキガイシヤ"
  },
  "8788": {
    "postcode": "1408788",
    "prefecture": "東京都",
    "prefecture_kana": "トウキョウト",
    "prefecture_code": 13,
    "city": "品川区",
    "city_kana": "シナガワク",
    "town": "東品川",
    "town_kana": "ヒガシシナガワ",
    "street": "４丁目１２−３",
    "office_name": "東京都民銀行　楽天支店",
    "office_name_kana": "トウキヨウトミンギンコウ ラクテンシテン"
  },
  "8810": {
    "postcode": "1408810",
    "prefecture": "東京都",
    "prefecture_kana": "トウキョウト",
    "prefecture_code": 13,
    "city": "品川区",
    "city_kana": "シナガワク",
    "town": "東品川",
    "town_kana": "ヒガシシナガワ",
    "street": "３−３２−４２",
    "office_name": "京セラ　株式会社　東京事業所",
    "office_name_kana": "キヨウセラ カブシキガイシヤ トウキヨウジギヨウシヨ"
  }
}