{
  "0000": {
    "postcode": "1440000",
    "prefecture": "東京都",
    "prefecture_kana": "トウキョウト",
    "prefecture_code": 13,
    "city": "大田区",
    "city_kana": "オオタク",
    "town": "",
    "town_kana": "",
    "street": null,
    "office_name": null,
    "office_name_kana": null
  },
  "0031": {
    "postcode": "1440031",
    "prefecture": "東京都",
    "prefecture_kana": "トウキョウト",
    "prefecture_code": 13,
    "city": "大田区",
    "city_kana": "オオタク",
    "town": "東蒲田",
    "town_kana": "ヒガシカマタ",
    "street": null,
    "office_name": null,
    "office_name_kana": null
  },
  "0032": {
    "postcode": "1440032",
    "prefecture": "東京都",
    "prefecture_kana": "トウキョウト",
    "prefecture_code": 13,
    "city": "大田区",
    "city_kana": "オオタク",
    "town": "北糀谷",
    "town_kana": "キタコウジヤ",
    "street": null,
    "office_name": null,
    "office_name_kana": null
  },
  "0033": {
    "postcode": "1440033",
    "prefecture": "東京都",
    "prefecture_kana": "トウキョウト",
    "prefecture_code": 13,
    "city": "大田区",
    "city_kana": "オオタク",
    "town": "東糀谷",
    "town_kana": "ヒガシコウジヤ",
    "street": null,
    "office_name": null,
    "office_name_kana": null
  },
  "0034": {
    "postcode": "1440034",
    "prefecture": "東京都",
    "prefecture_kana": "トウキョウト",
    "prefecture_code": 13,
    "city": "大田区",
    "city_kana": "オオタク",
    "town": "西糀谷",
    "town_kana": "ニシコウジヤ",
    "street": null,
    "office_name": null,
    "office_name_kana": null
  },
  "0035": {
    "postcode": "1440035",
    "prefecture": "東京都",
    "prefecture_kana": "トウキョウト",
    "prefecture_code": 13,
    "city": "大田区",
    "city_kana": "オオタク",
    "town": "南蒲田",
    "town_kana": "ミナミカマタ",
    "street": null,
    "office_name": null,
    "office_name_kana": null
  },
  "0041": {
    "postcode": "1440041",
    "prefecture": "東京都",
    "prefecture_kana": "トウキョウト",
    "prefecture_code": 13,
    "city": "大田区",
    "city_kana": "オオタク",
    "town": "羽田空港",
    "town_kana": "ハネダクウコウ",
    "street": null,
    "office_name": null,
    "office_name_kana": null
  },
  "0042": {
    "postcode": "1440042",
    "prefecture": "東京都",
    "prefecture_kana": "トウキョウト",
    "prefecture_code": 13,
    "city": "大田区",
    "city_kana": "オオタク",
    "town": "羽田旭町",
    "town_kana": "ハネダアサヒチョウ",
    "street": null,
    "office_name": null,
    "office_name_kana": null
  },
  "0043": {
    "postcode": "1440043",
    "prefecture": "東京都",
    "prefecture_kana": "トウキョウト",
    "prefecture_code": 13,
    "city": "大田区",
    "city_kana": "オオタク",
    "town": "羽田",
    "town_kana": "ハネダ",
    "street": null,
    "office_name": null,
    "office_name_kana": null
  },
  "0044": {
    "postcode": "1440044",
    "prefecture": "東京都",
    "prefecture_kana": "トウキョウト",
    "prefecture_code": 13,
    "city": "大田区",
    "city_kana": "オオタク",
    "town": "本羽田",
    "town_kana": "ホンハネダ",
    "street": null,
    "office_name": null,
    "office_name_kana": null
  },
  "0045": {
    "postcode": "1440045",
    "prefecture": "東京都",
    "prefecture_kana": "トウキョウト",
    "prefecture_code": 13,
    "city": "大田区",
    "city_kana": "オオタク",
    "town": "南六郷",
    "town_kana": "ミナミロクゴウ",
    "street": null,
    "office_name": null,
    "office_name_kana": null
  },
  "0046": {
    "postcode": "1440046",
    "prefecture": "東京都",
    "prefecture_kana": "トウキョウト",
    "prefecture_code": 13,
    "city": "大田区",
    "city_kana": "オオタク",
    "town": "東六郷",
    "town_kana": "ヒガシロクゴウ",
    "street": null,
    "office_name": null,
    "office_name_kana": null
  },
  "0047": {
    "postcode": "1440047",
    "prefecture": "東京都",
    "prefecture_kana": "トウキョウト",
    "prefecture_code": 13,
    "city": "大田区",
    "city_kana": "オオタク",
    "town": "萩中",
    "town_kana": "ハギナカ",
    "street": null,
    "office_name": null,
    "office_name_kana": null
  },
  "0051": {
    "postcode": "1440051",
    "prefecture": "東京都",
    "prefecture_kana": "トウキョウト",
    "prefecture_code": 13,
    "city": "大田区",
    "city_kana": "オオタク",
    "town": "西蒲田",
    "town_kana": "ニシカマタ",
    "street": null,
    "office_name": null,
    "office_name_kana": null
  },
  "0052": {
    "postcode": "1440052",
    "prefecture": "東京都",
    "prefecture_kana": "トウキョウト",
    "prefecture_code": 13,
    "city": "大田区",
    "city_kana": "オオタク",
    "town": "蒲田",
    "town_kana": "カマタ",
    "street": null,
    "office_name": null,
    "office_name_kana": null
  },
  "0053": {
    "postcode": "1440053",
    "prefecture": "東京都",
    "prefecture_kana": "トウキョウト",
    "prefecture_code": 13,
    "city": "大田区",
    "city_kana": "オオタク",
    "town": "蒲田本町",
    "town_kana": "カマタホンチョウ",
    "street": null,
    "office_name": null,
    "office_name_kana": null
  },
  "0054": {
    "postcode": "1440054",
    "prefecture": "東京都",
    "prefecture_kana": "トウキョウト",
    "prefecture_code": 13,
    "city": "大田区",
    "city_kana": "オオタク",
    "town": "新蒲田",
    "town_kana": "シンカマタ",
    "street": null,
    "office_name": null,
    "office_name_kana": null
  },
  "0055": {
    "postcode": "1440055",
    "prefecture": "東京都",
    "prefecture_kana": "トウキョウト",
    "prefecture_code": 13,
    "city": "大田区",
    "city_kana": "オオタク",
    "town": "仲六郷",
    "town_kana": "ナカロクゴウ",
    "street": null,
    "office_name": null,
    "office_name_kana": null
  },
  "0056": {
    "postcode": "1440056",
    "prefecture": "東京都",
    "prefecture_kana": "トウキョウト",
    "prefecture_code": 13,
    "city": "大田区",
    "city_kana": "オオタク",
    "town": "西六郷",
    "town_kana": "ニシロクゴウ",
    "street": null,
    "office_name": null,
    "office_name_kana": null
  },
  "8505": {
    "postcode": "1448505",
    "prefecture": "東京都",
    "prefecture_kana": "トウキョウト",
    "prefecture_code": 13,
    "city": "大田区",
    "city_kana": "オオタク",
    "town": "蒲田本町",
    "town_kana": "カマタホンチョウ",
    "street": "１丁目２番５号ネクストサイト蒲田ビル",
    "office_name": "株式会社　巴商会",
    "office_name_kana": "カブシキガイシヤ トモエシヨウカイ"
  },
  "8506": {
    "postcode": "1448506",
    "prefecture": "東京都",
    "prefecture_kana": "トウキョウト",
    "prefecture_code": 13,
    "city": "大田区",
    "city_kana": "オオタク",
    "town": "東六郷",
    "town_kana": "ヒガシロクゴウ",
    "street": "２丁目１８−２",
    "office_name": "東京都立六郷工科高等学校",
    "office_name_kana": "トウキヨウトリツロクゴウコウカコウトウガツコウ"
  },
  "8510": {
    "postcode": "1448510",
    "prefecture": "東京都",
    "prefecture_kana": "トウキョウト",
    "prefecture_code": 13,
    "city": "大田区",
    "city_kana": "オオタク",
    "town": "羽田旭町",
    "town_kana": "ハネダアサヒチョウ",
    "street": "１１−１",
    "office_name": "株式会社　荏原製作所",
    "office_name_kana": "カブシキガイシヤ エバラセイサクシヨ"
  },
  "8511": {
    "postcode": "1448511",
    "prefecture": "東京都",
    "prefecture_kana": "トウキョウト",
    "prefecture_code": 13,
    "city": "大田区",
    "city_kana": "オオタク",
    "town": "新蒲田",
    "town_kana": "シンカマタ",
    "street": "１−１８−２２",
    "office_name": "東京都大田都税事務所",
    "office_name_kana": "トウキヨウトオオタトゼイジムシヨ"
  },
  "8513": {
    "postcode": "1448513",
    "prefecture": "東京都",
    "prefecture_kana": "トウキョウト",
    "prefecture_code": 13,
    "city": "大田区",
    "city_kana": "オオタク",
    "town": "東六郷",
    "town_kana": "ヒガシロクゴウ",
    "street": "３−１５−８",
    "office_name": "日本調理機　株式会社",
    "office_name_kana": "ニホンチヨウリキ カブシキガイシヤ"
  },
  "8515": {
    "postcode": "1448515",
    "prefecture": "東京都",
    "prefecture_kana": "トウキョウト",
    "prefecture_code": 13,
    "city": "大田区",
    "city_kana": "オオタク",
    "town": "羽田空港",
    "town_kana": "ハネダクウコウ",
    "street": "３丁目３−２",
    "office_name": "全日本空輸　株式会社　羽田空港　第１ターミナル",
    "office_name_kana": "ゼンニツポンクウユ カブシキガイシヤ ハネダクウコウダイイチタ-ミナル"
  },
  "8516": {
    "postcode": "1448516",
    "prefecture": "東京都",
    "prefecture_kana": "トウキョウト",
    "prefecture_code": 13,
    "city": "大田区",
    "city_kana": "オオタク",
    "town": "西蒲田",
    "town_kana": "ニシカマタ",
    "street": "７丁目５０−１１",
    "office_name": "株式会社　丸昌",
    "office_name_kana": "カブシキガイシヤ マルシヨウ"
  },
  "8522": {
    "postcode": "1448522",
    "prefecture": "東京都",
    "prefecture_kana": "トウキョウト",
    "prefecture_code": 13,
    "city": "大田区",
    "city_kana": "オオタク",
    "town": "蒲田",
    "town_kana": "カマタ",
    "street": "５丁目２６−８",
    "office_name": "株式会社　加登屋",
    "office_name_kana": "カブシキガイシヤ カドヤ"
  },
  "8525": {
    "postcode": "1448525",
    "prefecture": "東京都",
    "prefecture_kana": "トウキョウト",
    "prefecture_code": 13,
    "city": "大田区",
    "city_kana": "オオタク",
    "town": "羽田空港",
    "town_kana": "ハネダクウコウ",
    "street": "３丁目４−２",
    "office_name": "全日本空輸　株式会社　羽田空港　第２ターミナル",
    "office_name_kana": "ゼンニツポンクウユ カブシキガイシヤ ハネダクウコウダイニタ-ミナル"
  },
  "8531": {
    "postcode": "1448531",
    "prefecture": "東京都",
    "prefecture_kana": "トウキョウト",
    "prefecture_code": 13,
    "city": "大田区",
    "city_kana": "オオタク",
    "town": "羽田",
    "town_kana": "ハネダ",
    "street": "１丁目２−１２",
    "office_name": "株式会社　セガ",
    "office_name_kana": "カブシキカイシヤ セガ"
  },
  "8532": {
    "postcode": "1448532",
    "prefecture": "東京都",
    "prefecture_kana": "トウキョウト",
    "prefecture_code": 13,
    "city": "大田区",
    "city_kana": "オオタク",
    "town": "東糀谷",
    "town_kana": "ヒガシコウジヤ",
    "street": "２丁目１２−１４",
    "office_name": "株式会社　セガ",
    "office_name_kana": "カブシキカイシヤ セガ"
  },
  "8533": {
    "postcode": "1448533",
    "prefecture": "東京都",
    "prefecture_kana": "トウキョウト",
    "prefecture_code": 13,
    "city": "大田区",
    "city_kana": "オオタク",
    "town": "本羽田",
    "town_kana": "ホンハネダ",
    "street": "３丁目１１−５",
    "office_name": "東京都立　つばさ総合高等学校",
    "office_name_kana": "トウキヨウトリツ ツバサソウゴウコウトウガツコウ"
  },
  "8535": {
    "postcode": "1448535",
    "prefecture": "東京都",
    "prefecture_kana": "トウキョウト",
    "prefecture_code": 13,
    "city": "大田区",
    "city_kana": "オオタク",
    "town": "西蒲田",
    "town_kana": "ニシカマタ",
    "street": "５−２３−２２",
    "office_name": "東京工科大学",
    "office_name_kana": "トウキヨウコウカダイガク"
  },
  "8536": {
    "postcode": "1448536",
    "prefecture": "東京都",
    "prefecture_kana": "トウキョウト",
    "prefecture_code": 13,
    "city": "大田区",
    "city_kana": "オオタク",
    "town": "西蒲田",
    "town_kana": "ニシカマタ",
    "street": "５−２３−２２",
    "office_name": "東京工科大学附属日本語学校",
    "office_name_kana": "トウキヨウコウカダイガクフゾクニホンゴガツコウ"
  },
  "8544": [
    {
      "postcode": "1448544",
      "prefecture": "東京都",
      "prefecture_kana": "トウキョウト",
      "prefecture_code": 13,
      "city": "大田区",
      "city_kana": "オオタク",
      "town": "本羽田",
      "town_kana": "ホンハネダ",
      "street": "１丁目４番１号",
      "office_name": "蒲田女子高等学校",
      "office_name_kana": "カマタジヨシコウトウガツコウ"
    },
    {
      "postcode": "1448544",
      "prefecture": "東京都",
      "prefecture_kana": "トウキョウト",
      "prefecture_code": 13,
      "city": "大田区",
      "city_kana": "オオタク",
      "town": "本羽田",
      "town_kana": "ホンハネダ",
      "street": "１丁目４番１号",
      "office_name": "蒲田保育専門学校",
      "office_name_kana": "カマタホイクセンモンガツコウ"
    },
    {
      "postcode": "1448544",
      "prefecture": "東京都",
      "prefecture_kana": "トウキョウト",
      "prefecture_code": 13,
      "city": "大田区",
      "city_kana": "オオタク",
      "town": "本羽田",
      "town_kana": "ホンハネダ",
      "street": "１丁目４番１号",
      "office_name": "蒲田保育専門学校附属幼稚園",
      "office_name_kana": "カマタホイクセンモンガツコウフゾクヨウチエン"
    }
  ],
  "8550": {
    "postcode": "1448550",
    "prefecture": "東京都",
    "prefecture_kana": "トウキョウト",
    "prefecture_code": 13,
    "city": "大田区",
    "city_kana": "オオタク",
    "town": "仲六郷",
    "town_kana": "ナカロクゴウ",
    "street": "４丁目３２−５",
    "office_name": "五十鈴　株式会社",
    "office_name_kana": "イスズ カブシキガイシヤ"
  },
  "8551": {
    "postcode": "1448551",
    "prefecture": "東京都",
    "prefecture_kana": "トウキョウト",
    "prefecture_code": 13,
    "city": "大田区",
    "city_kana": "オオタク",
    "town": "南蒲田",
    "town_kana": "ミナミカマタ",
    "street": "２丁目１６番４６号",
    "office_name": "東京計器　株式会社",
    "office_name_kana": "トウキヨウケイキ カブシキガイシヤ"
  },
  "8555": {
    "postcode": "1448555",
    "prefecture": "東京都",
    "prefecture_kana": "トウキョウト",
    "prefecture_code": 13,
    "city": "大田区",
    "city_kana": "オオタク",
    "town": "南蒲田",
    "town_kana": "ミナミカマタ",
    "street": "１丁目２１−１２",
    "office_name": "日本防蝕工業　株式会社",
    "office_name_kana": "ニホンボウシヨクコウギヨウ カブシキガイシヤ"
  },
  "8566": {
    "postcode": "1448566",
    "prefecture": "東京都",
    "prefecture_kana": "トウキョウト",
    "prefecture_code": 13,
    "city": "大田区",
    "city_kana": "オオタク",
    "town": "南蒲田",
    "town_kana": "ミナミカマタ",
    "street": "２−１６−２テクノポート大樹生命ビル６階",
    "office_name": "山一電機　株式会社",
    "office_name_kana": "ヤマイチデンキ カブシキガイシヤ"
  },
  "8570": {
    "postcode": "1448570",
    "prefecture": "東京都",
    "prefecture_kana": "トウキョウト",
    "prefecture_code": 13,
    "city": "大田区",
    "city_kana": "オオタク",
    "town": "蒲田",
    "town_kana": "カマタ",
    "street": "５丁目１５−８蒲田月村ビル４階",
    "office_name": "東京南部法律事務所",
    "office_name_kana": "トウキヨウナンブホウリツジムシヨ"
  },
  "8575": {
    "postcode": "1448575",
    "prefecture": "東京都",
    "prefecture_kana": "トウキョウト",
    "prefecture_code": 13,
    "city": "大田区",
    "city_kana": "オオタク",
    "town": "羽田空港",
    "town_kana": "ハネダクウコウ",
    "street": "２−６−５",
    "office_name": "全日本空輸　株式会社　国際旅客ターミナル",
    "office_name_kana": "ゼンニツポンクウユ カブシキガイシヤ コクサイリヨカクタ-ミナル"
  },
  "8577": {
    "postcode": "1448577",
    "prefecture": "東京都",
    "prefecture_kana": "トウキョウト",
    "prefecture_code": 13,
    "city": "大田区",
    "city_kana": "オオタク",
    "town": "西蒲田",
    "town_kana": "ニシカマタ",
    "street": "８丁目４−４岸東海ビル５Ｆ・６Ｆ",
    "office_name": "石川島建機　株式会社　東京本部",
    "office_name_kana": "イシカワシマケンキ カブシキガイシヤ トウキヨウホンブ"
  },
  "8580": {
    "postcode": "1448580",
    "prefecture": "東京都",
    "prefecture_kana": "トウキョウト",
    "prefecture_code": 13,
    "city": "大田区",
    "city_kana": "オオタク",
    "town": "新蒲田",
    "town_kana": "シンカマタ",
    "street": "１丁目１８−２３",
    "office_name": "大田区立新蒲田福祉センター",
    "office_name_kana": "オオタクリツシンカマタフクシセンタ-"
  },
  "8581": {
    "postcode": "1448581",
    "prefecture": "東京都",
    "prefecture_kana": "トウキョウト",
    "prefecture_code": 13,
    "city": "大田区",
    "city_kana": "オオタク",
    "town": "南蒲田",
    "town_kana": "ミナミカマタ",
    "street": "２−１６−２テクノポート大樹生命ビル５階",
    "office_name": "山一電機　株式会社",
    "office_name_kana": "ヤマイチデンキ カブシキガイシヤ"
  },
  "8588": {
    "postcode": "1448588",
    "prefecture": "東京都",
    "prefecture_kana": "トウキョウト",
    "prefecture_code": 13,
    "city": "大田区",
    "city_kana": "オオタク",
    "town": "新蒲田",
    "town_kana": "シンカマタ",
    "street": "１−１７−２５",
    "office_name": "富士通　株式会社　Ｆｕｊｉｔｓｕ　Ｓｏｌｕｔｉｏｎ　Ｓｑｕａｒｅ",
    "office_name_kana": "フジツウ カブシキカイシヤ フジツウソリユ-シヨンスクエア"
  },
  "8602": {
    "postcode": "1448602",
    "prefecture": "東京都",
    "prefecture_kana": "トウキョウト",
    "prefecture_code": 13,
    "city": "大田区",
    "city_kana": "オオタク",
    "town": "蒲田",
    "town_kana": "カマタ",
    "street": "５丁目４５−９",
    "office_name": "株式会社　エヌエス商事",
    "office_name_kana": "カブシキガイシヤ エヌエスシヨウジ"
  },
  "8611": {
    "postcode": "1448611",
    "prefecture": "東京都",
    "prefecture_kana": "トウキョウト",
    "prefecture_code": 13,
    "city": "大田区",
    "city_kana": "オオタク",
    "town": "本羽田",
    "town_kana": "ホンハネダ",
    "street": "２丁目１６−１０",
    "office_name": "イーター電機工業　株式会社",
    "office_name_kana": "イ-タ-デンキコウギヨウ カブシキガイシヤ"
  },
  "8621": {
    "postcode": "1448621",
    "prefecture": "東京都",
    "prefecture_kana": "トウキョウト",
    "prefecture_code": 13,
    "city": "大田区",
    "city_kana": "オオタク",
    "town": "蒲田",
    "town_kana": "カマタ",
    "street": "５丁目１３−１４",
    "office_name": "大田区役所",
    "office_name_kana": "オオタクヤクシヨ"
  },
  "8622": {
    "postcode": "1448622",
    "prefecture": "東京都",
    "prefecture_kana": "トウキョウト",
    "prefecture_code": 13,
    "city": "大田区",
    "city_kana": "オオタク",
    "town": "蒲田",
    "town_kana": "カマタ",
    "street": "５丁目１３−１４",
    "office_name": "大田区役所",
    "office_name_kana": "オオタクヤクシヨ"
  },
  "8623": {
    "postcode": "1448623",
    "prefecture": "東京都",
    "prefecture_kana": "トウキョウト",
    "prefecture_code": 13,
    "city": "大田区",
    "city_kana": "オオタク",
    "town": "蒲田",
    "town_kana": "カマタ",
    "street": "５丁目３７番１号ニッセイアロマスクエア５階",
    "office_name": "大田区教育委員会",
    "office_name_kana": "オオタクキヨウイクイインカイ"
  },
  "8626": {
    "postcode": "1448626",
    "prefecture": "東京都",
    "prefecture_kana": "トウキョウト",
    "prefecture_code": 13,
    "city": "大田区",
    "city_kana": "オオタク",
    "town": "西蒲田",
    "town_kana": "ニシカマタ",
    "street": "８丁目１６番６号",
    "office_name": "ソレキア　株式会社",
    "office_name_kana": "ソレキア カブシキガイシヤ"
  },
  "8650": {
    "postcode": "1448650",
    "prefecture": "東京都",
    "prefecture_kana": "トウキョウト",
    "prefecture_code": 13,
    "city": "大田区",
    "city_kana": "オオタク",
    "town": "西蒲田",
    "town_kana": "ニシカマタ",
    "street": "５−２３−２２",
    "office_name": "学校法人　片柳学園",
    "office_name_kana": "ガツコウホウジン カタヤナギガクエン"
  },
  "8655": {
    "postcode": "1448655",
    "prefecture": "東京都",
    "prefecture_kana": "トウキョウト",
    "prefecture_code": 13,
    "city": "大田区",
    "city_kana": "オオタク",
    "town": "西蒲田",
    "town_kana": "ニシカマタ",
    "street": "５丁目２３−２２",
    "office_name": "学校法人　片柳学園　日本工学院専門学校",
    "office_name_kana": "ガツコウホウジン カタヤナギガクエン ニホンコウガクインセンモンガツコウ"
  },
  "8656": {
    "postcode": "1448656",
    "prefecture": "東京都",
    "prefecture_kana": "トウキョウト",
    "prefecture_code": 13,
    "city": "大田区",
    "city_kana": "オオタク",
    "town": "東蒲田",
    "town_kana": "ヒガシカマタ",
    "street": "２丁目２９−１５",
    "office_name": "蒲田ゴム　株式会社",
    "office_name_kana": "カマタゴム カブシキガイシヤ"
  },
  "8660": {
    "postcode": "1448660",
    "prefecture": "東京都",
    "prefecture_kana": "トウキョウト",
    "prefecture_code": 13,
    "city": "大田区",
    "city_kana": "オオタク",
    "town": "西蒲田",
    "town_kana": "ニシカマタ",
    "street": "８丁目３−１４",
    "office_name": "ユザワヤ商事　株式会社",
    "office_name_kana": "ユザワヤシヨウジ カブシキガイシヤ"
  },
  "8661": {
    "postcode": "1448661",
    "prefecture": "東京都",
    "prefecture_kana": "トウキョウト",
    "prefecture_code": 13,
    "city": "大田区",
    "city_kana": "オオタク",
    "town": "西蒲田",
    "town_kana": "ニシカマタ",
    "street": "７丁目２５−７",
    "office_name": "大一商事　株式会社",
    "office_name_kana": "ダイイチシヨウジ カブシキガイシヤ"
  },
  "8666": {
    "postcode": "1448666",
    "prefecture": "東京都",
    "prefecture_kana": "トウキョウト",
    "prefecture_code": 13,
    "city": "大田区",
    "city_kana": "オオタク",
    "town": "蒲田",
    "town_kana": "カマタ",
    "street": "５−１５−８",
    "office_name": "株式会社　メガネドラッグ",
    "office_name_kana": "カブシキガイシヤ メガネドラツグ"
  },
  "8677": {
    "postcode": "1448677",
    "prefecture": "東京都",
    "prefecture_kana": "トウキョウト",
    "prefecture_code": 13,
    "city": "大田区",
    "city_kana": "オオタク",
    "town": "羽田",
    "town_kana": "ハネダ",
    "street": "５丁目１−１３",
    "office_name": "荏原テクノサーブ　株式会社",
    "office_name_kana": "エバラテクノサ-ブ カブシキガイシヤ"
  },
  "8678": {
    "postcode": "1448678",
    "prefecture": "東京都",
    "prefecture_kana": "トウキョウト",
    "prefecture_code": 13,
    "city": "大田区",
    "city_kana": "オオタク",
    "town": "西蒲田",
    "town_kana": "ニシカマタ",
    "street": "８丁目３−３",
    "office_name": "ソレキア　株式会社",
    "office_name_kana": "ソレキア カブシキガイシヤ"
  }
}