{
  "0051": {
    "postcode": "1510051",
    "prefecture": "東京都",
    "prefecture_kana": "トウキョウト",
    "prefecture_code": 13,
    "city": "渋谷区",
    "city_kana": "シブヤク",
    "town": "千駄ヶ谷",
    "town_kana": "センダガヤ",
    "street": null,
    "office_name": null,
    "office_name_kana": null
  },
  "0052": {
    "postcode": "1510052",
    "prefecture": "東京都",
    "prefecture_kana": "トウキョウト",
    "prefecture_code": 13,
    "city": "渋谷区",
    "city_kana": "シブヤク",
    "town": "代々木神園町",
    "town_kana": "ヨヨギカミゾノチョウ",
    "street": null,
    "office_name": null,
    "office_name_kana": null
  },
  "0053": {
    "postcode": "1510053",
    "prefecture": "東京都",
    "prefecture_kana": "トウキョウト",
    "prefecture_code": 13,
    "city": "渋谷区",
    "city_kana": "シブヤク",
    "town": "代々木",
    "town_kana": "ヨヨギ",
    "street": null,
    "office_name": null,
    "office_name_kana": null
  },
  "0061": {
    "postcode": "1510061",
    "prefecture": "東京都",
    "prefecture_kana": "トウキョウト",
    "prefecture_code": 13,
    "city": "渋谷区",
    "city_kana": "シブヤク",
    "town": "初台",
    "town_kana": "ハツダイ",
    "street": null,
    "office_name": null,
    "office_name_kana": null
  },
  "0062": {
    "postcode": "1510062",
    "prefecture": "東京都",
    "prefecture_kana": "トウキョウト",
    "prefecture_code": 13,
    "city": "渋谷区",
    "city_kana": "シブヤク",
    "town": "元代々木町",
    "town_kana": "モトヨヨギチョウ",
    "street": null,
    "office_name": null,
    "office_name_kana": null
  },
  "0063": {
    "postcode": "1510063",
    "prefecture": "東京都",
    "prefecture_kana": "トウキョウト",
    "prefecture_code": 13,
    "city": "渋谷区",
    "city_kana": "シブヤク",
    "town": "富ヶ谷",
    "town_kana": "トミガヤ",
    "street": null,
    "office_name": null,
    "office_name_kana": null
  },
  "0064": {
    "postcode": "1510064",
    "prefecture": "東京都",
    "prefecture_kana": "トウキョウト",
    "prefecture_code": 13,
    "city": "渋谷区",
    "city_kana": "シブヤク",
    "town": "上原",
    "town_kana": "ウエハラ",
    "street": null,
    "office_name": null,
    "office_name_kana": null
  },
  "0065": {
    "postcode": "1510065",
    "prefecture": "東京都",
    "prefecture_kana": "トウキョウト",
    "prefecture_code": 13,
    "city": "渋谷区",
    "city_kana": "シブヤク",
    "town": "大山町",
    "town_kana": "オオヤマチョウ",
    "street": null,
    "office_name": null,
    "office_name_kana": null
  },
  "0066": {
    "postcode": "1510066",
    "prefecture": "東京都",
    "prefecture_kana": "トウキョウト",
    "prefecture_code": 13,
    "city": "渋谷区",
    "city_kana": "シブヤク",
    "town": "西原",
    "town_kana": "ニシハラ",
    "street": null,
    "office_name": null,
    "office_name_kana": null
  },
  "0071": {
    "postcode": "1510071",
    "prefecture": "東京都",
    "prefecture_kana": "トウキョウト",
    "prefecture_code": 13,
    "city": "渋谷区",
    "city_kana": "シブヤク",
    "town": "本町",
    "town_kana": "ホンマチ",
    "street": null,
    "office_name": null,
    "office_name_kana": null
  },
  "0072": {
    "postcode": "1510072",
    "prefecture": "東京都",
    "prefecture_kana": "トウキョウト",
    "prefecture_code": 13,
    "city": "渋谷区",
    "city_kana": "シブヤク",
    "town": "幡ヶ谷",
    "town_kana": "ハタガヤ",
    "street": null,
    "office_name": null,
    "office_name_kana": null
  },
  "0073": {
    "postcode": "1510073",
    "prefecture": "東京都",
    "prefecture_kana": "トウキョウト",
    "prefecture_code": 13,
    "city": "渋谷区",
    "city_kana": "シブヤク",
    "town": "笹塚",
    "town_kana": "ササヅカ",
    "street": null,
    "office_name": null,
    "office_name_kana": null
  },
  "8070": {
    "postcode": "1518070",
    "prefecture": "東京都",
    "prefecture_kana": "トウキョウト",
    "prefecture_code": 13,
    "city": "渋谷区",
    "city_kana": "シブヤク",
    "town": "代々木",
    "town_kana": "ヨヨギ",
    "street": "２丁目１−１",
    "office_name": "積水ハウス　株式会社",
    "office_name_kana": "セキスイハウス カブシキガイシヤ"
  },
  "8401": {
    "postcode": "1518401",
    "prefecture": "東京都",
    "prefecture_kana": "トウキョウト",
    "prefecture_code": 13,
    "city": "渋谷区",
    "city_kana": "シブヤク",
    "town": "代々木",
    "town_kana": "ヨヨギ",
    "street": "３丁目４０−７",
    "office_name": "株式会社　アートネイチャー",
    "office_name_kana": "カブシキガイシヤ ア-トネイチヤ-"
  },
  "8404": {
    "postcode": "1518404",
    "prefecture": "東京都",
    "prefecture_kana": "トウキョウト",
    "prefecture_code": 13,
    "city": "渋谷区",
    "city_kana": "シブヤク",
    "town": "代々木",
    "town_kana": "ヨヨギ",
    "street": "１丁目２２−１",
    "office_name": "ジャパンシステム　株式会社",
    "office_name_kana": "ジヤパンシステム カブシキガイシヤ"
  },
  "8502": {
    "postcode": "1518502",
    "prefecture": "東京都",
    "prefecture_kana": "トウキョウト",
    "prefecture_code": 13,
    "city": "渋谷区",
    "city_kana": "シブヤク",
    "town": "千駄ヶ谷",
    "town_kana": "センダガヤ",
    "street": "１−２０−６",
    "office_name": "株式会社　郵愛",
    "office_name_kana": "カブシキカイシヤ ユウアイ"
  },
  "8503": {
    "postcode": "1518503",
    "prefecture": "東京都",
    "prefecture_kana": "トウキョウト",
    "prefecture_code": 13,
    "city": "渋谷区",
    "city_kana": "シブヤク",
    "town": "千駄ヶ谷",
    "town_kana": "センダガヤ",
    "street": "４丁目２５−２",
    "office_name": "株式会社　フジタ　東京支店",
    "office_name_kana": "カブシキガイシヤ フジタ トウキヨウシテン"
  },
  "8504": {
    "postcode": "1518504",
    "prefecture": "東京都",
    "prefecture_kana": "トウキョウト",
    "prefecture_code": 13,
    "city": "渋谷区",
    "city_kana": "シブヤク",
    "town": "代々木",
    "town_kana": "ヨヨギ",
    "street": "２丁目４−９新宿三信ビル",
    "office_name": "（株）　かんそうしん",
    "office_name_kana": "カブシキガイシヤ カンソウシン"
  },
  "8505": {
    "postcode": "1518505",
    "prefecture": "東京都",
    "prefecture_kana": "トウキョウト",
    "prefecture_code": 13,
    "city": "渋谷区",
    "city_kana": "シブヤク",
    "town": "代々木",
    "town_kana": "ヨヨギ",
    "street": "３丁目４６−１８",
    "office_name": "社団法人　日本理容美容教育センター",
    "office_name_kana": "シヤダンホウジン ニホンリヨウビヨウキヨウイクセンタ-"
  },
  "8506": {
    "postcode": "1518506",
    "prefecture": "東京都",
    "prefecture_kana": "トウキョウト",
    "prefecture_code": 13,
    "city": "渋谷区",
    "city_kana": "シブヤク",
    "town": "千駄ヶ谷",
    "town_kana": "センダガヤ",
    "street": "４丁目２４−１３",
    "office_name": "株式会社　大京",
    "office_name_kana": "カブシキガイシヤ ダイキヨウ"
  },
  "8507": {
    "postcode": "1518507",
    "prefecture": "東京都",
    "prefecture_kana": "トウキョウト",
    "prefecture_code": 13,
    "city": "渋谷区",
    "city_kana": "シブヤク",
    "town": "千駄ヶ谷",
    "town_kana": "センダガヤ",
    "street": "３丁目５０−１１",
    "office_name": "明星食品　株式会社",
    "office_name_kana": "ミヨウジヨウシヨクヒン カブシキガイシヤ"
  },
  "8510": {
    "postcode": "1518510",
    "prefecture": "東京都",
    "prefecture_kana": "トウキョウト",
    "prefecture_code": 13,
    "city": "渋谷区",
    "city_kana": "シブヤク",
    "town": "千駄ヶ谷",
    "town_kana": "センダガヤ",
    "street": "３丁目１−１",
    "office_name": "イトキン　株式会社",
    "office_name_kana": "イトキン カブシキガイシヤ"
  },
  "8511": {
    "postcode": "1518511",
    "prefecture": "東京都",
    "prefecture_kana": "トウキョウト",
    "prefecture_code": 13,
    "city": "渋谷区",
    "city_kana": "シブヤク",
    "town": "富ヶ谷",
    "town_kana": "トミガヤ",
    "street": "１丁目１−１",
    "office_name": "株式会社　ソキア",
    "office_name_kana": "カブシキガイシヤ ソキア"
  },
  "8516": {
    "postcode": "1518516",
    "prefecture": "東京都",
    "prefecture_kana": "トウキョウト",
    "prefecture_code": 13,
    "city": "渋谷区",
    "city_kana": "シブヤク",
    "town": "千駄ヶ谷",
    "town_kana": "センダガヤ",
    "street": "１丁目１８−５",
    "office_name": "公益社団法人　日本将棋連盟",
    "office_name_kana": "コウエキシヤダンホウジン ニホンシヨウギレンメイ"
  },
  "8517": {
    "postcode": "1518517",
    "prefecture": "東京都",
    "prefecture_kana": "トウキョウト",
    "prefecture_code": 13,
    "city": "渋谷区",
    "city_kana": "シブヤク",
    "town": "代々木",
    "town_kana": "ヨヨギ",
    "street": "２丁目１−１新宿マインズタワー２８Ｆ",
    "office_name": "株式会社　パソナソフトバンク",
    "office_name_kana": "カブシキガイシヤ パソナソフトバンク"
  },
  "8518": {
    "postcode": "1518518",
    "prefecture": "東京都",
    "prefecture_kana": "トウキョウト",
    "prefecture_code": 13,
    "city": "渋谷区",
    "city_kana": "シブヤク",
    "town": "代々木",
    "town_kana": "ヨヨギ",
    "street": "２丁目１−１新宿マインズタワー１５Ｆ",
    "office_name": "テイーポール　株式会社",
    "office_name_kana": "テイ-ポ-ル カブシキガイシヤ"
  },
  "8519": {
    "postcode": "1518519",
    "prefecture": "東京都",
    "prefecture_kana": "トウキョウト",
    "prefecture_code": 13,
    "city": "渋谷区",
    "city_kana": "シブヤク",
    "town": "代々木",
    "town_kana": "ヨヨギ",
    "street": "３丁目３８−７",
    "office_name": "トータルライフサービス　株式会社",
    "office_name_kana": "ト-タルライフサ-ビス カブシキガイシヤ"
  },
  "8520": {
    "postcode": "1518520",
    "prefecture": "東京都",
    "prefecture_kana": "トウキョウト",
    "prefecture_code": 13,
    "city": "渋谷区",
    "city_kana": "シブヤク",
    "town": "千駄ヶ谷",
    "town_kana": "センダガヤ",
    "street": "５丁目２４−３",
    "office_name": "ＮＴＴドコモ　代々木ビル",
    "office_name_kana": "エヌテイ-テイ-ドコモ ヨヨギビル"
  },
  "8521": {
    "postcode": "1518521",
    "prefecture": "東京都",
    "prefecture_kana": "トウキョウト",
    "prefecture_code": 13,
    "city": "渋谷区",
    "city_kana": "シブヤク",
    "town": "代々木",
    "town_kana": "ヨヨギ",
    "street": "３丁目２２−１",
    "office_name": "学校法人　文化学園",
    "office_name_kana": "ガツコウホウジン ブンカガクエン"
  },
  "8522": {
    "postcode": "1518522",
    "prefecture": "東京都",
    "prefecture_kana": "トウキョウト",
    "prefecture_code": 13,
    "city": "渋谷区",
    "city_kana": "シブヤク",
    "town": "代々木",
    "town_kana": "ヨヨギ",
    "street": "３丁目２２−１",
    "office_name": "文化服装学院",
    "office_name_kana": "ブンカフクソウガクイン"
  },
  "8523": {
    "postcode": "1518523",
    "prefecture": "東京都",
    "prefecture_kana": "トウキョウト",
    "prefecture_code": 13,
    "city": "渋谷区",
    "city_kana": "シブヤク",
    "town": "代々木",
    "town_kana": "ヨヨギ",
    "street": "３丁目２２−１",
    "office_name": "文化女子大学",
    "office_name_kana": "ブンカジヨシダイガク"
  },
  "8524": {
    "postcode": "1518524",
    "prefecture": "東京都",
    "prefecture_kana": "トウキョウト",
    "prefecture_code": 13,
    "city": "渋谷区",
    "city_kana": "シブヤク",
    "town": "代々木",
    "town_kana": "ヨヨギ",
    "street": "３丁目２２−１",
    "office_name": "文化出版局",
    "office_name_kana": "ブンカシユツパンキヨク"
  },
  "8525": {
    "postcode": "1518525",
    "prefecture": "東京都",
    "prefecture_kana": "トウキョウト",
    "prefecture_code": 13,
    "city": "渋谷区",
    "city_kana": "シブヤク",
    "town": "初台",
    "town_kana": "ハツダイ",
    "street": "１丁目４６−３シモモトビル５Ｆ",
    "office_name": "日本交通公社教育旅行　東京西支店",
    "office_name_kana": "ニホンコウツウコウシヤキヨウイクリヨコウ トウキヨウニシシテン"
  },
  "8527": {
    "postcode": "1518527",
    "prefecture": "東京都",
    "prefecture_kana": "トウキョウト",
    "prefecture_code": 13,
    "city": "渋谷区",
    "city_kana": "シブヤク",
    "town": "元代々木町",
    "town_kana": "モトヨヨギチョウ",
    "street": "３０−１３",
    "office_name": "マクセル　株式会社",
    "office_name_kana": "マクセル カブシキカイシヤ"
  },
  "8528": {
    "postcode": "1518528",
    "prefecture": "東京都",
    "prefecture_kana": "トウキョウト",
    "prefecture_code": 13,
    "city": "渋谷区",
    "city_kana": "シブヤク",
    "town": "代々木",
    "town_kana": "ヨヨギ",
    "street": "２丁目１−３",
    "office_name": "東日本旅客鉄道　株式会社　ＪＲ東京総合病院",
    "office_name_kana": "ヒガシニホンリヨカクテツドウ カブシキガイシヤ ジエイア-ルトウキヨウソウゴウビヨウイン"
  },
  "8529": {
    "postcode": "1518529",
    "prefecture": "東京都",
    "prefecture_kana": "トウキョウト",
    "prefecture_code": 13,
    "city": "渋谷区",
    "city_kana": "シブヤク",
    "town": "代々木",
    "town_kana": "ヨヨギ",
    "street": "３丁目２２−１",
    "office_name": "文化学園服飾博物館",
    "office_name_kana": "ブンカガクエンフクシヨクハクブツカン"
  },
  "8530": {
    "postcode": "1518530",
    "prefecture": "東京都",
    "prefecture_kana": "トウキョウト",
    "prefecture_code": 13,
    "city": "渋谷区",
    "city_kana": "シブヤク",
    "town": "代々木",
    "town_kana": "ヨヨギ",
    "street": "３丁目２５−３",
    "office_name": "あいおいニッセイ同和損害保険　株式会社",
    "office_name_kana": "アイオイニツセイドウワソンガイホケン カブシキガイシヤ"
  },
  "8531": {
    "postcode": "1518531",
    "prefecture": "東京都",
    "prefecture_kana": "トウキョウト",
    "prefecture_code": 13,
    "city": "渋谷区",
    "city_kana": "シブヤク",
    "town": "代々木",
    "town_kana": "ヨヨギ",
    "street": "２丁目１２−１０全労済会館６Ｆ",
    "office_name": "全国労働者　共済生活　共同組合　再共済連合会",
    "office_name_kana": "ゼンコクロウドウシヤ キヨウサイセイカツ キヨウドウクミアイ サイキヨウサイレンゴウカイ"
  },
  "8532": {
    "postcode": "1518532",
    "prefecture": "東京都",
    "prefecture_kana": "トウキョウト",
    "prefecture_code": 13,
    "city": "渋谷区",
    "city_kana": "シブヤク",
    "town": "千駄ヶ谷",
    "town_kana": "センダガヤ",
    "street": "４丁目８−１６",
    "office_name": "株式会社　エム・エム・エフ",
    "office_name_kana": "カブシキガイシヤ エム・エム・エフ"
  },
  "8533": {
    "postcode": "1518533",
    "prefecture": "東京都",
    "prefecture_kana": "トウキョウト",
    "prefecture_code": 13,
    "city": "渋谷区",
    "city_kana": "シブヤク",
    "town": "笹塚",
    "town_kana": "ササヅカ",
    "street": "１丁目５０−１笹塚ＮＡビルディング",
    "office_name": "マイクロソフト　株式会社",
    "office_name_kana": "マイクロソフト カブシキガイシヤ"
  },
  "8534": {
    "postcode": "1518534",
    "prefecture": "東京都",
    "prefecture_kana": "トウキョウト",
    "prefecture_code": 13,
    "city": "渋谷区",
    "city_kana": "シブヤク",
    "town": "代々木",
    "town_kana": "ヨヨギ",
    "street": "２丁目２−２",
    "office_name": "鉄道情報システム　株式会社　本社",
    "office_name_kana": "テツドウジヨウホウシステム カブシキガイシヤ ホンシヤ"
  },
  "8535": {
    "postcode": "1518535",
    "prefecture": "東京都",
    "prefecture_kana": "トウキョウト",
    "prefecture_code": 13,
    "city": "渋谷区",
    "city_kana": "シブヤク",
    "town": "笹塚",
    "town_kana": "ササヅカ",
    "street": "１丁目５４番５号",
    "office_name": "ニッタン　株式会社",
    "office_name_kana": "ニツタン カブシキガイシヤ"
  },
  "8536": {
    "postcode": "1518536",
    "prefecture": "東京都",
    "prefecture_kana": "トウキョウト",
    "prefecture_code": 13,
    "city": "渋谷区",
    "city_kana": "シブヤク",
    "town": "千駄ヶ谷",
    "town_kana": "センダガヤ",
    "street": "３丁目５４−１",
    "office_name": "株式会社　アトリエサブ",
    "office_name_kana": "カブシキガイシヤ アトリエサブ"
  },
  "8537": {
    "postcode": "1518537",
    "prefecture": "東京都",
    "prefecture_kana": "トウキョウト",
    "prefecture_code": 13,
    "city": "渋谷区",
    "city_kana": "シブヤク",
    "town": "千駄ヶ谷",
    "town_kana": "センダガヤ",
    "street": "５丁目２７−５",
    "office_name": "日本製粉　株式会社",
    "office_name_kana": "ニツポンセイフン カブシキガイシヤ"
  },
  "8538": {
    "postcode": "1518538",
    "prefecture": "東京都",
    "prefecture_kana": "トウキョウト",
    "prefecture_code": 13,
    "city": "渋谷区",
    "city_kana": "シブヤク",
    "town": "千駄ヶ谷",
    "town_kana": "センダガヤ",
    "street": "５丁目３１−１１住友不動産新宿南口ビル１３階",
    "office_name": "一般社団法人　日本経営協会",
    "office_name_kana": "イツパンシヤダンホウジン ニホンケイエイキヨウカイ"
  },
  "8539": {
    "postcode": "1518539",
    "prefecture": "東京都",
    "prefecture_kana": "トウキョウト",
    "prefecture_code": 13,
    "city": "渋谷区",
    "city_kana": "シブヤク",
    "town": "代々木",
    "town_kana": "ヨヨギ",
    "street": "１丁目５３−１",
    "office_name": "山野美容専門学校",
    "office_name_kana": "ヤマノビヨウセンモンガツコウ"
  },
  "8540": {
    "postcode": "1518540",
    "prefecture": "東京都",
    "prefecture_kana": "トウキョウト",
    "prefecture_code": 13,
    "city": "渋谷区",
    "city_kana": "シブヤク",
    "town": "上原",
    "town_kana": "ウエハラ",
    "street": "３丁目６−１２",
    "office_name": "（社）　日本音楽著作権協会",
    "office_name_kana": "シヤダンホウジン ニホンオンガクチヨサクケンキヨウカイ"
  },
  "8541": {
    "postcode": "1518541",
    "prefecture": "東京都",
    "prefecture_kana": "トウキョウト",
    "prefecture_code": 13,
    "city": "渋谷区",
    "city_kana": "シブヤク",
    "town": "笹塚",
    "town_kana": "ササヅカ",
    "street": "１丁目５０−１",
    "office_name": "株式会社　中村屋",
    "office_name_kana": "カブシキガイシヤ ナカムラヤ"
  },
  "8542": {
    "postcode": "1518542",
    "prefecture": "東京都",
    "prefecture_kana": "トウキョウト",
    "prefecture_code": 13,
    "city": "渋谷区",
    "city_kana": "シブヤク",
    "town": "千駄ヶ谷",
    "town_kana": "センダガヤ",
    "street": "３丁目５３−２ＢＩＺ原宿２Ｆ",
    "office_name": "株式会社　有働音楽事務所",
    "office_name_kana": "カブシキガイシヤ ウドウオンガクジムシヨ"
  },
  "8543": {
    "postcode": "1518543",
    "prefecture": "東京都",
    "prefecture_kana": "トウキョウト",
    "prefecture_code": 13,
    "city": "渋谷区",
    "city_kana": "シブヤク",
    "town": "本町",
    "town_kana": "ホンマチ",
    "street": "１丁目６−２",
    "office_name": "カシオ計算機　（株）",
    "office_name_kana": "カシオケイサンキ カブシキガイシヤ"
  },
  "8544": {
    "postcode": "1518544",
    "prefecture": "東京都",
    "prefecture_kana": "トウキョウト",
    "prefecture_code": 13,
    "city": "渋谷区",
    "city_kana": "シブヤク",
    "town": "代々木",
    "town_kana": "ヨヨギ",
    "street": "３丁目２２−７新宿文化クイントビル",
    "office_name": "株式会社　スクウェア・エニックス",
    "office_name_kana": "カブシキガイシヤ スクウエア・エニツクス"
  },
  "8545": {
    "postcode": "1518545",
    "prefecture": "東京都",
    "prefecture_kana": "トウキョウト",
    "prefecture_code": 13,
    "city": "渋谷区",
    "city_kana": "シブヤク",
    "town": "代々木",
    "town_kana": "ヨヨギ",
    "street": "５丁目１４−１２",
    "office_name": "財団法人　電気安全環境研究所",
    "office_name_kana": "ザイダンホウジン デンキアンゼンカンキヨウケンキユウジヨ"
  },
  "8546": {
    "postcode": "1518546",
    "prefecture": "東京都",
    "prefecture_kana": "トウキョウト",
    "prefecture_code": 13,
    "city": "渋谷区",
    "city_kana": "シブヤク",
    "town": "千駄ヶ谷",
    "town_kana": "センダガヤ",
    "street": "４−３−１５号東京都渋谷合同庁舎４〜７階",
    "office_name": "東京都渋谷都税事務所",
    "office_name_kana": "トウキヨウトシブヤトゼイジムシヨ"
  },
  "8547": {
    "postcode": "1518547",
    "prefecture": "東京都",
    "prefecture_kana": "トウキョウト",
    "prefecture_code": 13,
    "city": "渋谷区",
    "city_kana": "シブヤク",
    "town": "代々木",
    "town_kana": "ヨヨギ",
    "street": "３丁目２２−１",
    "office_name": "文化ファッション大学院大学",
    "office_name_kana": "ブンカフアツシヨンダイガクインダイガク"
  },
  "8548": {
    "postcode": "1518548",
    "prefecture": "東京都",
    "prefecture_kana": "トウキョウト",
    "prefecture_code": 13,
    "city": "渋谷区",
    "city_kana": "シブヤク",
    "town": "代々木",
    "town_kana": "ヨヨギ",
    "street": "５丁目３８−６",
    "office_name": "株式会社　ガーリック事務所",
    "office_name_kana": "カブシキガイシヤ ガ-リツクジムシヨ"
  },
  "8549": {
    "postcode": "1518549",
    "prefecture": "東京都",
    "prefecture_kana": "トウキョウト",
    "prefecture_code": 13,
    "city": "渋谷区",
    "city_kana": "シブヤク",
    "town": "幡ヶ谷",
    "town_kana": "ハタガヤ",
    "street": "２丁目６−５梅村ビル８Ｆ",
    "office_name": "株式会社　ウェットウエア",
    "office_name_kana": "カブシキガイシヤ ウエツトウエア"
  },
  "8550": {
    "postcode": "1518550",
    "prefecture": "東京都",
    "prefecture_kana": "トウキョウト",
    "prefecture_code": 13,
    "city": "渋谷区",
    "city_kana": "シブヤク",
    "town": "本町",
    "town_kana": "ホンマチ",
    "street": "３−４７−１０",
    "office_name": "株式会社　伊藤園",
    "office_name_kana": "カブシキカイシヤ イトウエン"
  },
  "8552": {
    "postcode": "1518552",
    "prefecture": "東京都",
    "prefecture_kana": "トウキョウト",
    "prefecture_code": 13,
    "city": "渋谷区",
    "city_kana": "シブヤク",
    "town": "代々木",
    "town_kana": "ヨヨギ",
    "street": "１丁目６０−１１",
    "office_name": "東京興産　株式会社／東興管理　株式会社",
    "office_name_kana": "トウキヨウコウサン カブシキガイシヤ/トウコウカンリ カブシキガイシヤ"
  },
  "8554": {
    "postcode": "1518554",
    "prefecture": "東京都",
    "prefecture_kana": "トウキョウト",
    "prefecture_code": 13,
    "city": "渋谷区",
    "city_kana": "シブヤク",
    "town": "富ヶ谷",
    "town_kana": "トミガヤ",
    "street": "１丁目１２−１０",
    "office_name": "（株）　イッセイ　ミヤケ",
    "office_name_kana": "カブシキガイシヤ イツセイ ミヤケ"
  },
  "8555": {
    "postcode": "1518555",
    "prefecture": "東京都",
    "prefecture_kana": "トウキョウト",
    "prefecture_code": 13,
    "city": "渋谷区",
    "city_kana": "シブヤク",
    "town": "代々木",
    "town_kana": "ヨヨギ",
    "street": "１丁目３８−２",
    "office_name": "財団法人　企業経営通信学院",
    "office_name_kana": "ザイダンホウジン キギヨウケイエイツウシンガクイン"
  },
  "8558": {
    "postcode": "1518558",
    "prefecture": "東京都",
    "prefecture_kana": "トウキョウト",
    "prefecture_code": 13,
    "city": "渋谷区",
    "city_kana": "シブヤク",
    "town": "代々木",
    "town_kana": "ヨヨギ",
    "street": "２丁目１−１新宿マインズタワー６Ｆ〜１３Ｆ",
    "office_name": "独立行政法人　国際協力機構",
    "office_name_kana": "ドクリツギヨウセイホウジン コクサイキヨウリヨクキコウ"
  },
  "8559": {
    "postcode": "1518559",
    "prefecture": "東京都",
    "prefecture_kana": "トウキョウト",
    "prefecture_code": 13,
    "city": "渋谷区",
    "city_kana": "シブヤク",
    "town": "代々木",
    "town_kana": "ヨヨギ",
    "street": "２丁目２５−７",
    "office_name": "学校法人　高宮学園代々木ゼミナール",
    "office_name_kana": "ガツコウホウジン タカミヤガクエンヨヨギゼミナ-ル"
  },
  "8561": {
    "postcode": "1518561",
    "prefecture": "東京都",
    "prefecture_kana": "トウキョウト",
    "prefecture_code": 13,
    "city": "渋谷区",
    "city_kana": "シブヤク",
    "town": "代々木",
    "town_kana": "ヨヨギ",
    "street": "４丁目３１−６西新宿松屋ビル",
    "office_name": "株式会社　イセキ開発工機",
    "office_name_kana": "カブシキガイシヤ イセキカイハツコウキ"
  },
  "8562": {
    "postcode": "1518562",
    "prefecture": "東京都",
    "prefecture_kana": "トウキョウト",
    "prefecture_code": 13,
    "city": "渋谷区",
    "city_kana": "シブヤク",
    "town": "初台",
    "town_kana": "ハツダイ",
    "street": "１丁目４７−１小田急西新宿ビル",
    "office_name": "株式会社　アグレックス",
    "office_name_kana": "カブシキガイシヤ アグレツクス"
  },
  "8563": {
    "postcode": "1518563",
    "prefecture": "東京都",
    "prefecture_kana": "トウキョウト",
    "prefecture_code": 13,
    "city": "渋谷区",
    "city_kana": "シブヤク",
    "town": "千駄ヶ谷",
    "town_kana": "センダガヤ",
    "street": "５丁目２５−５",
    "office_name": "アボットジャパン　株式会社",
    "office_name_kana": "アボツトジヤパン カブシキガイシヤ"
  },
  "8565": {
    "postcode": "1518565",
    "prefecture": "東京都",
    "prefecture_kana": "トウキョウト",
    "prefecture_code": 13,
    "city": "渋谷区",
    "city_kana": "シブヤク",
    "town": "幡ヶ谷",
    "town_kana": "ハタガヤ",
    "street": "１丁目３１−１０",
    "office_name": "帝国石油　（株）",
    "office_name_kana": "テイコクセキユ カブシキガイシヤ"
  },
  "8566": {
    "postcode": "1518566",
    "prefecture": "東京都",
    "prefecture_kana": "トウキョウト",
    "prefecture_code": 13,
    "city": "渋谷区",
    "city_kana": "シブヤク",
    "town": "千駄ヶ谷",
    "town_kana": "センダガヤ",
    "street": "４丁目６−１５ＧＳＫビル",
    "office_name": "グラクソスミスクライン　株式会社",
    "office_name_kana": "グラクソスミスクライン カブシキガイシヤ"
  },
  "8567": {
    "postcode": "1518567",
    "prefecture": "東京都",
    "prefecture_kana": "トウキョウト",
    "prefecture_code": 13,
    "city": "渋谷区",
    "city_kana": "シブヤク",
    "town": "代々木",
    "town_kana": "ヨヨギ",
    "street": "４−３１−６西新宿松屋ビル７階",
    "office_name": "ＹＫＴ　株式会社",
    "office_name_kana": "ワイケイテイ カブシキガイシヤ"
  },
  "8568": {
    "postcode": "1518568",
    "prefecture": "東京都",
    "prefecture_kana": "トウキョウト",
    "prefecture_code": 13,
    "city": "渋谷区",
    "city_kana": "シブヤク",
    "town": "千駄ヶ谷",
    "town_kana": "センダガヤ",
    "street": "５丁目１０−６",
    "office_name": "東京税理士会",
    "office_name_kana": "トウキヨウゼイリシカイ"
  },
  "8569": {
    "postcode": "1518569",
    "prefecture": "東京都",
    "prefecture_kana": "トウキョウト",
    "prefecture_code": 13,
    "city": "渋谷区",
    "city_kana": "シブヤク",
    "town": "笹塚",
    "town_kana": "ササヅカ",
    "street": "１丁目４７番１号メルクマール京王笹塚６階",
    "office_name": "日本電波工業　株式会社　本社事務所",
    "office_name_kana": "ニホンデンパコウギヨウ カブシキガイシヤ ホンシヤジムシヨ"
  },
  "8570": {
    "postcode": "1518570",
    "prefecture": "東京都",
    "prefecture_kana": "トウキョウト",
    "prefecture_code": 13,
    "city": "渋谷区",
    "city_kana": "シブヤク",
    "town": "千駄ヶ谷",
    "town_kana": "センダガヤ",
    "street": "４丁目２５−２",
    "office_name": "株式会社　フジタ",
    "office_name_kana": "カブシキガイシヤ フジタ"
  },
  "8571": {
    "postcode": "1518571",
    "prefecture": "東京都",
    "prefecture_kana": "トウキョウト",
    "prefecture_code": 13,
    "city": "渋谷区",
    "city_kana": "シブヤク",
    "town": "代々木",
    "town_kana": "ヨヨギ",
    "street": "２丁目１２−１０",
    "office_name": "全国労働者　共済生活　協同組合連合会",
    "office_name_kana": "ゼンコクロウドウシヤ キヨウサイセイカツ キヨウドウクミアイレンゴウカイ"
  },
  "8572": {
    "postcode": "1518572",
    "prefecture": "東京都",
    "prefecture_kana": "トウキョウト",
    "prefecture_code": 13,
    "city": "渋谷区",
    "city_kana": "シブヤク",
    "town": "代々木",
    "town_kana": "ヨヨギ",
    "street": "１丁目２０−２ロレアルビル",
    "office_name": "日本ロレアル　（株）",
    "office_name_kana": "ニホンロレアル カブシキガイシヤ"
  },
  "8573": {
    "postcode": "1518573",
    "prefecture": "東京都",
    "prefecture_kana": "トウキョウト",
    "prefecture_code": 13,
    "city": "渋谷区",
    "city_kana": "シブヤク",
    "town": "代々木",
    "town_kana": "ヨヨギ",
    "street": "１丁目２１−１０代々木クロダビル",
    "office_name": "日本ロレアル　（株）",
    "office_name_kana": "ニホンロレアル カブシキガイシヤ"
  },
  "8574": {
    "postcode": "1518574",
    "prefecture": "東京都",
    "prefecture_kana": "トウキョウト",
    "prefecture_code": 13,
    "city": "渋谷区",
    "city_kana": "シブヤク",
    "town": "代々木",
    "town_kana": "ヨヨギ",
    "street": "１丁目５３−１",
    "office_name": "山野医療専門学校",
    "office_name_kana": "ヤマノイリヨウセンモンガツコウ"
  },
  "8576": {
    "postcode": "1518576",
    "prefecture": "東京都",
    "prefecture_kana": "トウキョウト",
    "prefecture_code": 13,
    "city": "渋谷区",
    "city_kana": "シブヤク",
    "town": "西原",
    "town_kana": "ニシハラ",
    "street": "１丁目２９−２",
    "office_name": "株式会社　エス・シー・アライアンス",
    "office_name_kana": "カブシキガイシヤ エス・シ-・アライアンス"
  },
  "8577": {
    "postcode": "1518577",
    "prefecture": "東京都",
    "prefecture_kana": "トウキョウト",
    "prefecture_code": 13,
    "city": "渋谷区",
    "city_kana": "シブヤク",
    "town": "幡ヶ谷",
    "town_kana": "ハタガヤ",
    "street": "２丁目１−１０−１０１",
    "office_name": "有限会社　ヨシムラエンタープライズ",
    "office_name_kana": "ユウゲンガイシヤ ヨシムラエンタ-プライズ"
  },
  "8578": {
    "postcode": "1518578",
    "prefecture": "東京都",
    "prefecture_kana": "トウキョウト",
    "prefecture_code": 13,
    "city": "渋谷区",
    "city_kana": "シブヤク",
    "town": "代々木",
    "town_kana": "ヨヨギ",
    "street": "２丁目２−２",
    "office_name": "ＪＲ東日本　（株）　本社",
    "office_name_kana": "ジエイア-ルヒガシニホン カブシキガイシヤ ホンシヤ"
  },
  "8580": {
    "postcode": "1518580",
    "prefecture": "東京都",
    "prefecture_kana": "トウキョウト",
    "prefecture_code": 13,
    "city": "渋谷区",
    "city_kana": "シブヤク",
    "town": "千駄ヶ谷",
    "town_kana": "センダガヤ",
    "street": "５丁目２４−２",
    "office_name": "株式会社　高島屋　新宿店",
    "office_name_kana": "カブシキカイシヤ タカシマヤ シンジユクテン"
  },
  "8582": {
    "postcode": "1518582",
    "prefecture": "東京都",
    "prefecture_kana": "トウキョウト",
    "prefecture_code": 13,
    "city": "渋谷区",
    "city_kana": "シブヤク",
    "town": "代々木",
    "town_kana": "ヨヨギ",
    "street": "４−３１−８",
    "office_name": "日本瓦斯　株式会社",
    "office_name_kana": "ニホンガス カブシキガイシヤ"
  },
  "8583": {
    "postcode": "1518583",
    "prefecture": "東京都",
    "prefecture_kana": "トウキョウト",
    "prefecture_code": 13,
    "city": "渋谷区",
    "city_kana": "シブヤク",
    "town": "代々木",
    "town_kana": "ヨヨギ",
    "street": "２丁目２−１",
    "office_name": "小田急サザンタワー",
    "office_name_kana": "オダキユウサザンタワ-"
  },
  "8584": {
    "postcode": "1518584",
    "prefecture": "東京都",
    "prefecture_kana": "トウキョウト",
    "prefecture_code": 13,
    "city": "渋谷区",
    "city_kana": "シブヤク",
    "town": "幡ヶ谷",
    "town_kana": "ハタガヤ",
    "street": "２丁目４４−１",
    "office_name": "テルモ　（株）",
    "office_name_kana": "テルモ カブシキガイシヤ"
  },
  "8585": {
    "postcode": "1518585",
    "prefecture": "東京都",
    "prefecture_kana": "トウキョウト",
    "prefecture_code": 13,
    "city": "渋谷区",
    "city_kana": "シブヤク",
    "town": "代々木",
    "town_kana": "ヨヨギ",
    "street": "２丁目１１−１７",
    "office_name": "株式会社　ホーメスト",
    "office_name_kana": "カブシキガイシヤ ホ-メスト"
  },
  "8586": {
    "postcode": "1518586",
    "prefecture": "東京都",
    "prefecture_kana": "トウキョウト",
    "prefecture_code": 13,
    "city": "渋谷区",
    "city_kana": "シブヤク",
    "town": "千駄ヶ谷",
    "town_kana": "センダガヤ",
    "street": "４丁目２６−７",
    "office_name": "日本共産党　中央委員会",
    "office_name_kana": "ニホンキヨウサントウ チユウオウイインカイ"
  },
  "8587": {
    "postcode": "1518587",
    "prefecture": "東京都",
    "prefecture_kana": "トウキョウト",
    "prefecture_code": 13,
    "city": "渋谷区",
    "city_kana": "シブヤク",
    "town": "笹塚",
    "town_kana": "ササヅカ",
    "street": "１−４８−３住友不動産笹塚太陽ビル５階",
    "office_name": "櫻護謨　株式会社",
    "office_name_kana": "サクラゴム カブシキガイシヤ"
  },
  "8590": {
    "postcode": "1518590",
    "prefecture": "東京都",
    "prefecture_kana": "トウキョウト",
    "prefecture_code": 13,
    "city": "渋谷区",
    "city_kana": "シブヤク",
    "town": "代々木",
    "town_kana": "ヨヨギ",
    "street": "３丁目３８−７",
    "office_name": "コンフェックス　株式会社",
    "office_name_kana": "コンフエツクス カブシキガイシヤ"
  },
  "8591": {
    "postcode": "1518591",
    "prefecture": "東京都",
    "prefecture_kana": "トウキョウト",
    "prefecture_code": 13,
    "city": "渋谷区",
    "city_kana": "シブヤク",
    "town": "千駄ヶ谷",
    "town_kana": "センダガヤ",
    "street": "１−２０−６",
    "office_name": "日本郵政グループ労働者共済生活協同組合",
    "office_name_kana": "ニツポンユウセイグル-プロウドウシヤキヨウサイセイカツキヨウドウクミアイ"
  },
  "8592": {
    "postcode": "1518592",
    "prefecture": "東京都",
    "prefecture_kana": "トウキョウト",
    "prefecture_code": 13,
    "city": "渋谷区",
    "city_kana": "シブヤク",
    "town": "代々木",
    "town_kana": "ヨヨギ",
    "street": "２丁目１番５号ＪＲ南新宿ビル１１階",
    "office_name": "株式会社　アインファーマシーズ",
    "office_name_kana": "カブシキガイシヤ アインフア-マシ-ズ"
  },
  "8600": {
    "postcode": "1518600",
    "prefecture": "東京都",
    "prefecture_kana": "トウキョウト",
    "prefecture_code": 13,
    "city": "渋谷区",
    "city_kana": "シブヤク",
    "town": "上原",
    "town_kana": "ウエハラ",
    "street": "３丁目６−６オークハウス２０１",
    "office_name": "株式会社　フリップサイド",
    "office_name_kana": "カブシキガイシヤ フリツプサイド"
  },
  "8601": {
    "postcode": "1518601",
    "prefecture": "東京都",
    "prefecture_kana": "トウキョウト",
    "prefecture_code": 13,
    "city": "渋谷区",
    "city_kana": "シブヤク",
    "town": "代々木",
    "town_kana": "ヨヨギ",
    "street": "３丁目２２番７号",
    "office_name": "兼松コミュニケーションズ　株式会社",
    "office_name_kana": "カネマツコミユニケ-シヨンズ カブシキガイシヤ"
  },
  "8651": {
    "postcode": "1518651",
    "prefecture": "東京都",
    "prefecture_kana": "トウキョウト",
    "prefecture_code": 13,
    "city": "渋谷区",
    "city_kana": "シブヤク",
    "town": "笹塚",
    "town_kana": "ササヅカ",
    "street": "１−４７−１（代々木郵便局私書箱第４０号）",
    "office_name": "マニュライフ生命保険　株式会社",
    "office_name_kana": "マニユライフセイメイホケン カブシキカイシヤ"
  },
  "8652": {
    "postcode": "1518652",
    "prefecture": "東京都",
    "prefecture_kana": "トウキョウト",
    "prefecture_code": 13,
    "city": "渋谷区",
    "city_kana": "シブヤク",
    "town": "笹塚",
    "town_kana": "ササヅカ",
    "street": "２−２６−２（代々木郵便局私書箱第８０号）",
    "office_name": "マニュライフ生命保険　株式会社",
    "office_name_kana": "マニユライフセイメイホケン カブシキカイシヤ"
  },
  "8653": {
    "postcode": "1518653",
    "prefecture": "東京都",
    "prefecture_kana": "トウキョウト",
    "prefecture_code": 13,
    "city": "渋谷区",
    "city_kana": "シブヤク",
    "town": "笹塚",
    "town_kana": "ササヅカ",
    "street": "２−２６−２（代々木郵便局私書箱第１００号）",
    "office_name": "マニュライフ生命保険　株式会社",
    "office_name_kana": "マニユライフセイメイホケン カブシキカイシヤ"
  },
  "8671": {
    "postcode": "1518671",
    "prefecture": "東京都",
    "prefecture_kana": "トウキョウト",
    "prefecture_code": 13,
    "city": "渋谷区",
    "city_kana": "シブヤク",
    "town": "初台",
    "town_kana": "ハツダイ",
    "street": "１丁目２５−７（代々木郵便局私書箱第７６号）",
    "office_name": "日本園芸協会",
    "office_name_kana": "ニホンエンゲイキヨウカイ"
  },
  "8672": {
    "postcode": "1518672",
    "prefecture": "東京都",
    "prefecture_kana": "トウキョウト",
    "prefecture_code": 13,
    "city": "渋谷区",
    "city_kana": "シブヤク",
    "town": "千駄ヶ谷",
    "town_kana": "センダガヤ",
    "street": "４丁目２−１２",
    "office_name": "株式会社　東京書道教育会",
    "office_name_kana": "カブシキガイシヤ トウキヨウシヨドウキヨウイクカイ"
  },
  "8673": {
    "postcode": "1518673",
    "prefecture": "東京都",
    "prefecture_kana": "トウキョウト",
    "prefecture_code": 13,
    "city": "渋谷区",
    "city_kana": "シブヤク",
    "town": "千駄ヶ谷",
    "town_kana": "センダガヤ",
    "street": "３丁目４−１５（代々木郵便局私書箱第７７号）",
    "office_name": "（株）　いいもの王国",
    "office_name_kana": "カブシキガイシヤ イイモノオウコク"
  },
  "8674": {
    "postcode": "1518674",
    "prefecture": "東京都",
    "prefecture_kana": "トウキョウト",
    "prefecture_code": 13,
    "city": "渋谷区",
    "city_kana": "シブヤク",
    "town": "代々木",
    "town_kana": "ヨヨギ",
    "street": "２丁目１２−２（代々木郵便局私書箱第６５号）",
    "office_name": "株式会社　カタログハウス",
    "office_name_kana": "カブシキガイシヤ カタログハウス"
  },
  "8675": {
    "postcode": "1518675",
    "prefecture": "東京都",
    "prefecture_kana": "トウキョウト",
    "prefecture_code": 13,
    "city": "渋谷区",
    "city_kana": "シブヤク",
    "town": "千駄ヶ谷",
    "town_kana": "センダガヤ",
    "street": "４丁目２６−７（代々木郵便局私書箱第６２号）",
    "office_name": "赤旗編集局",
    "office_name_kana": "アカハタヘンシユウキヨク"
  },
  "8676": {
    "postcode": "1518676",
    "prefecture": "東京都",
    "prefecture_kana": "トウキョウト",
    "prefecture_code": 13,
    "city": "渋谷区",
    "city_kana": "シブヤク",
    "town": "幡ヶ谷",
    "town_kana": "ハタガヤ",
    "street": "１丁目３０−１４（代々木郵便局私書箱第４号）",
    "office_name": "文化書道学会",
    "office_name_kana": "ブンカシヨドウガツカイ"
  },
  "8677": [
    {
      "postcode": "1518677",
      "prefecture": "東京都",
      "prefecture_kana": "トウキョウト",
      "prefecture_code": 13,
      "city": "渋谷区",
      "city_kana": "シブヤク",
      "town": "富ヶ谷",
      "town_kana": "トミガヤ",
      "street": "２丁目２８番４号（代々木郵便局私書箱第２２号）",
      "office_name": "学校法人　東海大学",
      "office_name_kana": "ガツコウホウジン トウカイダイガク"
    },
    {
      "postcode": "1518677",
      "prefecture": "東京都",
      "prefecture_kana": "トウキョウト",
      "prefecture_code": 13,
      "city": "渋谷区",
      "city_kana": "シブヤク",
      "town": "富ヶ谷",
      "town_kana": "トミガヤ",
      "street": "２丁目１０番２号（代々木郵便局私書箱第２２号）",
      "office_name": "学校法人　東海大学",
      "office_name_kana": "ガツコウホウジン トウカイダイガク"
    }
  ]
}