{
  "0000": {
    "postcode": "1540000",
    "prefecture": "東京都",
    "prefecture_kana": "トウキョウト",
    "prefecture_code": 13,
    "city": "世田谷区",
    "city_kana": "セタガヤク",
    "town": "",
    "town_kana": "",
    "street": null,
    "office_name": null,
    "office_name_kana": null
  },
  "0001": {
    "postcode": "1540001",
    "prefecture": "東京都",
    "prefecture_kana": "トウキョウト",
    "prefecture_code": 13,
    "city": "世田谷区",
    "city_kana": "セタガヤク",
    "town": "池尻",
    "town_kana": "イケジリ",
    "street": null,
    "office_name": null,
    "office_name_kana": null
  },
  "0002": {
    "postcode": "1540002",
    "prefecture": "東京都",
    "prefecture_kana": "トウキョウト",
    "prefecture_code": 13,
    "city": "世田谷区",
    "city_kana": "セタガヤク",
    "town": "下馬",
    "town_kana": "シモウマ",
    "street": null,
    "office_name": null,
    "office_name_kana": null
  },
  "0003": {
    "postcode": "1540003",
    "prefecture": "東京都",
    "prefecture_kana": "トウキョウト",
    "prefecture_code": 13,
    "city": "世田谷区",
    "city_kana": "セタガヤク",
    "town": "野沢",
    "town_kana": "ノザワ",
    "street": null,
    "office_name": null,
    "office_name_kana": null
  },
  "0004": {
    "postcode": "1540004",
    "prefecture": "東京都",
    "prefecture_kana": "トウキョウト",
    "prefecture_code": 13,
    "city": "世田谷区",
    "city_kana": "セタガヤク",
    "town": "太子堂",
    "town_kana": "タイシドウ",
    "street": null,
    "office_name": null,
    "office_name_kana": null
  },
  "0005": {
    "postcode": "1540005",
    "prefecture": "東京都",
    "prefecture_kana": "トウキョウト",
    "prefecture_code": 13,
    "city": "世田谷区",
    "city_kana": "セタガヤク",
    "town": "三宿",
    "town_kana": "ミシュク",
    "street": null,
    "office_name": null,
    "office_name_kana": null
  },
  "0011": {
    "postcode": "1540011",
    "prefecture": "東京都",
    "prefecture_kana": "トウキョウト",
    "prefecture_code": 13,
    "city": "世田谷区",
    "city_kana": "セタガヤク",
    "town": "上馬",
    "town_kana": "カミウマ",
    "street": null,
    "office_name": null,
    "office_name_kana": null
  },
  "0012": {
    "postcode": "1540012",
    "prefecture": "東京都",
    "prefecture_kana": "トウキョウト",
    "prefecture_code": 13,
    "city": "世田谷区",
    "city_kana": "セタガヤク",
    "town": "駒沢",
    "town_kana": "コマザワ",
    "street": null,
    "office_name": null,
    "office_name_kana": null
  },
  "0013": {
    "postcode": "1540013",
    "prefecture": "東京都",
    "prefecture_kana": "トウキョウト",
    "prefecture_code": 13,
    "city": "世田谷区",
    "city_kana": "セタガヤク",
    "town": "駒沢公園",
    "town_kana": "コマザワコウエン",
    "street": null,
    "office_name": null,
    "office_name_kana": null
  },
  "0014": {
    "postcode": "1540014",
    "prefecture": "東京都",
    "prefecture_kana": "トウキョウト",
    "prefecture_code": 13,
    "city": "世田谷区",
    "city_kana": "セタガヤク",
    "town": "新町",
    "town_kana": "シンマチ",
    "street": null,
    "office_name": null,
    "office_name_kana": null
  },
  "0015": {
    "postcode": "1540015",
    "prefecture": "東京都",
    "prefecture_kana": "トウキョウト",
    "prefecture_code": 13,
    "city": "世田谷区",
    "city_kana": "セタガヤク",
    "town": "桜新町",
    "town_kana": "サクラシンマチ",
    "street": null,
    "office_name": null,
    "office_name_kana": null
  },
  "0016": {
    "postcode": "1540016",
    "prefecture": "東京都",
    "prefecture_kana": "トウキョウト",
    "prefecture_code": 13,
    "city": "世田谷区",
    "city_kana": "セタガヤク",
    "town": "弦巻",
    "town_kana": "ツルマキ",
    "street": null,
    "office_name": null,
    "office_name_kana": null
  },
  "0017": {
    "postcode": "1540017",
    "prefecture": "東京都",
    "prefecture_kana": "トウキョウト",
    "prefecture_code": 13,
    "city": "世田谷区",
    "city_kana": "セタガヤク",
    "town": "世田谷",
    "town_kana": "セタガヤ",
    "street": null,
    "office_name": null,
    "office_name_kana": null
  },
  "0021": {
    "postcode": "1540021",
    "prefecture": "東京都",
    "prefecture_kana": "トウキョウト",
    "prefecture_code": 13,
    "city": "世田谷区",
    "city_kana": "セタガヤク",
    "town": "豪徳寺",
    "town_kana": "ゴウトクジ",
    "street": null,
    "office_name": null,
    "office_name_kana": null
  },
  "0022": {
    "postcode": "1540022",
    "prefecture": "東京都",
    "prefecture_kana": "トウキョウト",
    "prefecture_code": 13,
    "city": "世田谷区",
    "city_kana": "セタガヤク",
    "town": "梅丘",
    "town_kana": "ウメガオカ",
    "street": null,
    "office_name": null,
    "office_name_kana": null
  },
  "0023": {
    "postcode": "1540023",
    "prefecture": "東京都",
    "prefecture_kana": "トウキョウト",
    "prefecture_code": 13,
    "city": "世田谷区",
    "city_kana": "セタガヤク",
    "town": "若林",
    "town_kana": "ワカバヤシ",
    "street": null,
    "office_name": null,
    "office_name_kana": null
  },
  "0024": {
    "postcode": "1540024",
    "prefecture": "東京都",
    "prefecture_kana": "トウキョウト",
    "prefecture_code": 13,
    "city": "世田谷区",
    "city_kana": "セタガヤク",
    "town": "三軒茶屋",
    "town_kana": "サンゲンヂャヤ",
    "street": null,
    "office_name": null,
    "office_name_kana": null
  },
  "8503": {
    "postcode": "1548503",
    "prefecture": "東京都",
    "prefecture_kana": "トウキョウト",
    "prefecture_code": 13,
    "city": "世田谷区",
    "city_kana": "セタガヤク",
    "town": "若林",
    "town_kana": "ワカバヤシ",
    "street": "１丁目２０−１１",
    "office_name": "（株）　東京メガネ",
    "office_name_kana": "カブシキガイシヤ トウキヨウメガネ"
  },
  "8504": {
    "postcode": "1548504",
    "prefecture": "東京都",
    "prefecture_kana": "トウキョウト",
    "prefecture_code": 13,
    "city": "世田谷区",
    "city_kana": "セタガヤク",
    "town": "世田谷",
    "town_kana": "セタガヤ",
    "street": "４丁目２１−２７",
    "office_name": "世田谷区役所",
    "office_name_kana": "セタガヤクヤクシヨ"
  },
  "8505": {
    "postcode": "1548505",
    "prefecture": "東京都",
    "prefecture_kana": "トウキョウト",
    "prefecture_code": 13,
    "city": "世田谷区",
    "city_kana": "セタガヤク",
    "town": "若林",
    "town_kana": "ワカバヤシ",
    "street": "１丁目１８−１３",
    "office_name": "丸幸製茶販売　（株）",
    "office_name_kana": "マルコウセイチヤハンバイ カブシキガイシヤ"
  },
  "8506": {
    "postcode": "1548506",
    "prefecture": "東京都",
    "prefecture_kana": "トウキョウト",
    "prefecture_code": 13,
    "city": "世田谷区",
    "city_kana": "セタガヤク",
    "town": "新町",
    "town_kana": "シンマチ",
    "street": "３丁目５−３",
    "office_name": "昭和オプトロニクス　株式会社",
    "office_name_kana": "シヨウワオプトロニクス カブシキガイシヤ"
  },
  "8509": {
    "postcode": "1548509",
    "prefecture": "東京都",
    "prefecture_kana": "トウキョウト",
    "prefecture_code": 13,
    "city": "世田谷区",
    "city_kana": "セタガヤク",
    "town": "下馬",
    "town_kana": "シモウマ",
    "street": "６−１５−４",
    "office_name": "株式会社　コスミック出版",
    "office_name_kana": "カブシキガイシヤ コスミツクシユツパン"
  },
  "8510": {
    "postcode": "1548510",
    "prefecture": "東京都",
    "prefecture_kana": "トウキョウト",
    "prefecture_code": 13,
    "city": "世田谷区",
    "city_kana": "セタガヤク",
    "town": "桜新町",
    "town_kana": "サクラシンマチ",
    "street": "２丁目１９番５号",
    "office_name": "株式会社　エヌ・ユー・エス",
    "office_name_kana": "カブシキガイシヤ エヌ・ユ-・エス"
  },
  "8511": {
    "postcode": "1548511",
    "prefecture": "東京都",
    "prefecture_kana": "トウキョウト",
    "prefecture_code": 13,
    "city": "世田谷区",
    "city_kana": "セタガヤク",
    "town": "池尻",
    "town_kana": "イケジリ",
    "street": "１丁目２−２４",
    "office_name": "防衛省　技術研究本部電子装備研究所",
    "office_name_kana": "ボウエイシヨウ ギジユツケンキユウホンブデンシソウビケンキユウジヨ"
  },
  "8515": {
    "postcode": "1548515",
    "prefecture": "東京都",
    "prefecture_kana": "トウキョウト",
    "prefecture_code": 13,
    "city": "世田谷区",
    "city_kana": "セタガヤク",
    "town": "世田谷",
    "town_kana": "セタガヤ",
    "street": "４丁目２８−１",
    "office_name": "国士舘大学",
    "office_name_kana": "コクシカンダイガク"
  },
  "8516": {
    "postcode": "1548516",
    "prefecture": "東京都",
    "prefecture_kana": "トウキョウト",
    "prefecture_code": 13,
    "city": "世田谷区",
    "city_kana": "セタガヤク",
    "town": "三軒茶屋",
    "town_kana": "サンゲンヂャヤ",
    "street": "２丁目１１−２４サンタワーズＡ棟７０１",
    "office_name": "株式会社　グレイスファミリー",
    "office_name_kana": "カブシキガイシヤ グレイスフアミリ-"
  },
  "8520": {
    "postcode": "1548520",
    "prefecture": "東京都",
    "prefecture_kana": "トウキョウト",
    "prefecture_code": 13,
    "city": "世田谷区",
    "city_kana": "セタガヤク",
    "town": "太子堂",
    "town_kana": "タイシドウ",
    "street": "４丁目１−１キャロットタワー２０Ｆ",
    "office_name": "三菱電機システムサービス　株式会社",
    "office_name_kana": "ミツビシデンキシステムサ-ビス カブシキガイシヤ"
  },
  "8521": {
    "postcode": "1548521",
    "prefecture": "東京都",
    "prefecture_kana": "トウキョウト",
    "prefecture_code": 13,
    "city": "世田谷区",
    "city_kana": "セタガヤク",
    "town": "新町",
    "town_kana": "シンマチ",
    "street": "１丁目２１−１２",
    "office_name": "旭日電気工業　（株）",
    "office_name_kana": "キヨクジツデンキコウギヨウ カブシキガイシヤ"
  },
  "8523": {
    "postcode": "1548523",
    "prefecture": "東京都",
    "prefecture_kana": "トウキョウト",
    "prefecture_code": 13,
    "city": "世田谷区",
    "city_kana": "セタガヤク",
    "town": "若林",
    "town_kana": "ワカバヤシ",
    "street": "４丁目２２−１４",
    "office_name": "世田谷税務署",
    "office_name_kana": "セタガヤゼイムシヨ"
  },
  "8525": {
    "postcode": "1548525",
    "prefecture": "東京都",
    "prefecture_kana": "トウキョウト",
    "prefecture_code": 13,
    "city": "世田谷区",
    "city_kana": "セタガヤク",
    "town": "駒沢",
    "town_kana": "コマザワ",
    "street": "１丁目２３−１",
    "office_name": "駒澤大学",
    "office_name_kana": "コマザワダイガク"
  },
  "8530": {
    "postcode": "1548530",
    "prefecture": "東京都",
    "prefecture_kana": "トウキョウト",
    "prefecture_code": 13,
    "city": "世田谷区",
    "city_kana": "セタガヤク",
    "town": "池尻",
    "town_kana": "イケジリ",
    "street": "２丁目７−３",
    "office_name": "国土情報開発　株式会社",
    "office_name_kana": "コクドジヨウホウカイハツ カブシキガイシヤ"
  },
  "8532": {
    "postcode": "1548532",
    "prefecture": "東京都",
    "prefecture_kana": "トウキョウト",
    "prefecture_code": 13,
    "city": "世田谷区",
    "city_kana": "セタガヤク",
    "town": "池尻",
    "town_kana": "イケジリ",
    "street": "１丁目２−２４",
    "office_name": "自衛隊中央病院",
    "office_name_kana": "ジエイタイチユウオウビヨウイン"
  },
  "8533": {
    "postcode": "1548533",
    "prefecture": "東京都",
    "prefecture_kana": "トウキョウト",
    "prefecture_code": 13,
    "city": "世田谷区",
    "city_kana": "セタガヤク",
    "town": "太子堂",
    "town_kana": "タイシドウ",
    "street": "１丁目７−５７",
    "office_name": "昭和女子大学",
    "office_name_kana": "シヨウワジヨシダイガク"
  },
  "8536": {
    "postcode": "1548536",
    "prefecture": "東京都",
    "prefecture_kana": "トウキョウト",
    "prefecture_code": 13,
    "city": "世田谷区",
    "city_kana": "セタガヤク",
    "town": "上馬",
    "town_kana": "カミウマ",
    "street": "３丁目１５−２１",
    "office_name": "（株）　ニューズヴァリュー",
    "office_name_kana": "(カブ) ニユ-ズヴアリユ-"
  },
  "8539": {
    "postcode": "1548539",
    "prefecture": "東京都",
    "prefecture_kana": "トウキョウト",
    "prefecture_code": 13,
    "city": "世田谷区",
    "city_kana": "セタガヤク",
    "town": "三軒茶屋",
    "town_kana": "サンゲンヂャヤ",
    "street": "２丁目１１−２２",
    "office_name": "エム・シー・エム・ジャパン　（株）",
    "office_name_kana": "エム・シ-・エム・ジヤパン カブシキガイシヤ"
  },
  "8543": {
    "postcode": "1548543",
    "prefecture": "東京都",
    "prefecture_kana": "トウキョウト",
    "prefecture_code": 13,
    "city": "世田谷区",
    "city_kana": "セタガヤク",
    "town": "新町",
    "town_kana": "シンマチ",
    "street": "３丁目１−３",
    "office_name": "東京電力　世田谷支社",
    "office_name_kana": "トウキヨウデンリヨク セタガヤシシヤ"
  },
  "8544": {
    "postcode": "1548544",
    "prefecture": "東京都",
    "prefecture_kana": "トウキョウト",
    "prefecture_code": 13,
    "city": "世田谷区",
    "city_kana": "セタガヤク",
    "town": "池尻",
    "town_kana": "イケジリ",
    "street": "２丁目２３−１１",
    "office_name": "学校法人　食糧学院",
    "office_name_kana": "ガツコウホウジン シヨクリヨウガクイン"
  },
  "8545": {
    "postcode": "1548545",
    "prefecture": "東京都",
    "prefecture_kana": "トウキョウト",
    "prefecture_code": 13,
    "city": "世田谷区",
    "city_kana": "セタガヤク",
    "town": "三軒茶屋",
    "town_kana": "サンゲンヂャヤ",
    "street": "２丁目１１−２２サンタワーズセンタービル１０Ｆ",
    "office_name": "公益財団法人　プラン・インターナショナル・ジャパン",
    "office_name_kana": "コウエキザイダンホウジン プラン・インタ-ナシヨナル・ジヤパン"
  },
  "8551": {
    "postcode": "1548551",
    "prefecture": "東京都",
    "prefecture_kana": "トウキョウト",
    "prefecture_code": 13,
    "city": "世田谷区",
    "city_kana": "セタガヤク",
    "town": "若林",
    "town_kana": "ワカバヤシ",
    "street": "１丁目１８−１０",
    "office_name": "オットージャパン　株式会社",
    "office_name_kana": "オツト-ジヤパン カブシキガイシヤ"
  },
  "8552": {
    "postcode": "1548552",
    "prefecture": "東京都",
    "prefecture_kana": "トウキョウト",
    "prefecture_code": 13,
    "city": "世田谷区",
    "city_kana": "セタガヤク",
    "town": "三軒茶屋",
    "town_kana": "サンゲンヂャヤ",
    "street": "１丁目２２−３",
    "office_name": "株式会社　コア",
    "office_name_kana": "カブシキガイシヤ コア"
  },
  "8553": {
    "postcode": "1548553",
    "prefecture": "東京都",
    "prefecture_kana": "トウキョウト",
    "prefecture_code": 13,
    "city": "世田谷区",
    "city_kana": "セタガヤク",
    "town": "若林",
    "town_kana": "ワカバヤシ",
    "street": "４丁目３２−１",
    "office_name": "国士舘中学校・高等学校",
    "office_name_kana": "コクシカンチユウガツコウ・コウトウガツコウ"
  },
  "8554": {
    "postcode": "1548554",
    "prefecture": "東京都",
    "prefecture_kana": "トウキョウト",
    "prefecture_code": 13,
    "city": "世田谷区",
    "city_kana": "セタガヤク",
    "town": "世田谷",
    "town_kana": "セタガヤ",
    "street": "４丁目２１−２７",
    "office_name": "世田谷区役所",
    "office_name_kana": "セタガヤクヤクシヨ"
  },
  "8555": {
    "postcode": "1548555",
    "prefecture": "東京都",
    "prefecture_kana": "トウキョウト",
    "prefecture_code": 13,
    "city": "世田谷区",
    "city_kana": "セタガヤク",
    "town": "世田谷",
    "town_kana": "セタガヤ",
    "street": "１丁目３０−１２",
    "office_name": "世田谷社会保険事務所",
    "office_name_kana": "セタガヤシヤカイホケンジムシヨ"
  },
  "8560": {
    "postcode": "1548560",
    "prefecture": "東京都",
    "prefecture_kana": "トウキョウト",
    "prefecture_code": 13,
    "city": "世田谷区",
    "city_kana": "セタガヤク",
    "town": "池尻",
    "town_kana": "イケジリ",
    "street": "３丁目１−３",
    "office_name": "武藤工業　株式会社",
    "office_name_kana": "ムトウコウギヨウ カブシキガイシヤ"
  },
  "8565": {
    "postcode": "1548565",
    "prefecture": "東京都",
    "prefecture_kana": "トウキョウト",
    "prefecture_code": 13,
    "city": "世田谷区",
    "city_kana": "セタガヤク",
    "town": "三宿",
    "town_kana": "ミシュク",
    "street": "２丁目１４−１１",
    "office_name": "セントラル工商　株式会社",
    "office_name_kana": "セントラルコウシヨウ カブシキガイシヤ"
  },
  "8566": {
    "postcode": "1548566",
    "prefecture": "東京都",
    "prefecture_kana": "トウキョウト",
    "prefecture_code": 13,
    "city": "世田谷区",
    "city_kana": "セタガヤク",
    "town": "池尻",
    "town_kana": "イケジリ",
    "street": "１丁目２−２４",
    "office_name": "陸上自衛隊衛生学校",
    "office_name_kana": "リクジヨウジエイタイエイセイガツコウ"
  },
  "8567": {
    "postcode": "1548567",
    "prefecture": "東京都",
    "prefecture_kana": "トウキョウト",
    "prefecture_code": 13,
    "city": "世田谷区",
    "city_kana": "セタガヤク",
    "town": "若林",
    "town_kana": "ワカバヤシ",
    "street": "１丁目１８−１０",
    "office_name": "エディー・バウアー・ジャパン　株式会社",
    "office_name_kana": "エデイ-・バウア-・ジヤパン カブシキガイシヤ"
  },
  "8568": {
    "postcode": "1548568",
    "prefecture": "東京都",
    "prefecture_kana": "トウキョウト",
    "prefecture_code": 13,
    "city": "世田谷区",
    "city_kana": "セタガヤク",
    "town": "世田谷",
    "town_kana": "セタガヤ",
    "street": "３丁目１１−３",
    "office_name": "東京医療保健大学",
    "office_name_kana": "トウキヨウイリヨウホケンダイガク"
  },
  "8570": {
    "postcode": "1548570",
    "prefecture": "東京都",
    "prefecture_kana": "トウキョウト",
    "prefecture_code": 13,
    "city": "世田谷区",
    "city_kana": "セタガヤク",
    "town": "池尻",
    "town_kana": "イケジリ",
    "street": "３丁目３０−１２",
    "office_name": "チャコット　株式会社　営業センター",
    "office_name_kana": "チヤコツト カブシキガイシヤ エイギヨウセンタ-"
  },
  "8571": {
    "postcode": "1548571",
    "prefecture": "東京都",
    "prefecture_kana": "トウキョウト",
    "prefecture_code": 13,
    "city": "世田谷区",
    "city_kana": "セタガヤク",
    "town": "太子堂",
    "town_kana": "タイシドウ",
    "street": "１丁目７",
    "office_name": "昭和女子大学　オープンカレッジ",
    "office_name_kana": "シヨウワジヨシダイガク オ-プンカレツジ"
  },
  "8577": {
    "postcode": "1548577",
    "prefecture": "東京都",
    "prefecture_kana": "トウキョウト",
    "prefecture_code": 13,
    "city": "世田谷区",
    "city_kana": "セタガヤク",
    "town": "若林",
    "town_kana": "ワカバヤシ",
    "street": "４−２２−１３",
    "office_name": "東京都世田谷都税事務所",
    "office_name_kana": "トウキヨウトセタガヤトゼイジムシヨ"
  },
  "8580": {
    "postcode": "1548580",
    "prefecture": "東京都",
    "prefecture_kana": "トウキョウト",
    "prefecture_code": 13,
    "city": "世田谷区",
    "city_kana": "セタガヤク",
    "town": "桜新町",
    "town_kana": "サクラシンマチ",
    "street": "２丁目５−５",
    "office_name": "株式会社　東京特殊印刷工業",
    "office_name_kana": "カブシキガイシヤ トウキヨウトクシユインサツコウギヨウ"
  },
  "8581": {
    "postcode": "1548581",
    "prefecture": "東京都",
    "prefecture_kana": "トウキョウト",
    "prefecture_code": 13,
    "city": "世田谷区",
    "city_kana": "セタガヤク",
    "town": "世田谷",
    "town_kana": "セタガヤ",
    "street": "１丁目２３−３",
    "office_name": "世田谷信用金庫",
    "office_name_kana": "セタガヤシンヨウキンコ"
  },
  "8582": {
    "postcode": "1548582",
    "prefecture": "東京都",
    "prefecture_kana": "トウキョウト",
    "prefecture_code": 13,
    "city": "世田谷区",
    "city_kana": "セタガヤク",
    "town": "三軒茶屋",
    "town_kana": "サンゲンヂャヤ",
    "street": "２丁目１１−２２サンタワーズセンタービル４・５Ｆ",
    "office_name": "株式会社　テック・インデックス",
    "office_name_kana": "カブシキガイシヤ テツク・インデツクス"
  },
  "8584": {
    "postcode": "1548584",
    "prefecture": "東京都",
    "prefecture_kana": "トウキョウト",
    "prefecture_code": 13,
    "city": "世田谷区",
    "city_kana": "セタガヤク",
    "town": "桜新町",
    "town_kana": "サクラシンマチ",
    "street": "１丁目３４−６",
    "office_name": "ロイヤル　（株）　東京本部",
    "office_name_kana": "ロイヤル カブシキガイシヤ トウキヨウホンブ"
  },
  "8585": {
    "postcode": "1548585",
    "prefecture": "東京都",
    "prefecture_kana": "トウキョウト",
    "prefecture_code": 13,
    "city": "世田谷区",
    "city_kana": "セタガヤク",
    "town": "駒沢",
    "town_kana": "コマザワ",
    "street": "３丁目１５−１",
    "office_name": "いであ　株式会社",
    "office_name_kana": "イデア カブシキガイシヤ"
  },
  "8589": {
    "postcode": "1548589",
    "prefecture": "東京都",
    "prefecture_kana": "トウキョウト",
    "prefecture_code": 13,
    "city": "世田谷区",
    "city_kana": "セタガヤク",
    "town": "世田谷",
    "town_kana": "セタガヤ",
    "street": "４丁目１９番１０号",
    "office_name": "世田谷区　住民票集中管理・住居表示",
    "office_name_kana": "セタガヤク ジユウミンヒヨウシユウチユウカンリ・ジユウキヨヒヨウジ"
  },
  "8703": {
    "postcode": "1548703",
    "prefecture": "東京都",
    "prefecture_kana": "トウキョウト",
    "prefecture_code": 13,
    "city": "目黒区",
    "city_kana": "メグロク",
    "town": "下目黒",
    "town_kana": "シモメグロ",
    "street": "１丁目６−６（世田谷郵便局私書箱第５０号）",
    "office_name": "株式会社　グローバル",
    "office_name_kana": "カブシキガイシヤ グロ-バル"
  },
  "8732": {
    "postcode": "1548732",
    "prefecture": "東京都",
    "prefecture_kana": "トウキョウト",
    "prefecture_code": 13,
    "city": "世田谷区",
    "city_kana": "セタガヤク",
    "town": "太子堂",
    "town_kana": "タイシドウ",
    "street": "１丁目１３−１３",
    "office_name": "東京都水道局　世田谷営業所",
    "office_name_kana": "トウキヨウトスイドウキヨク セタガヤエイギヨウシヨ"
  }
}