{
  "0031": {
    "postcode": "1550031",
    "prefecture": "東京都",
    "prefecture_kana": "トウキョウト",
    "prefecture_code": 13,
    "city": "世田谷区",
    "city_kana": "セタガヤク",
    "town": "北沢",
    "town_kana": "キタザワ",
    "street": null,
    "office_name": null,
    "office_name_kana": null
  },
  "0032": {
    "postcode": "1550032",
    "prefecture": "東京都",
    "prefecture_kana": "トウキョウト",
    "prefecture_code": 13,
    "city": "世田谷区",
    "city_kana": "セタガヤク",
    "town": "代沢",
    "town_kana": "ダイザワ",
    "street": null,
    "office_name": null,
    "office_name_kana": null
  },
  "0033": {
    "postcode": "1550033",
    "prefecture": "東京都",
    "prefecture_kana": "トウキョウト",
    "prefecture_code": 13,
    "city": "世田谷区",
    "city_kana": "セタガヤク",
    "town": "代田",
    "town_kana": "ダイタ",
    "street": null,
    "office_name": null,
    "office_name_kana": null
  },
  "8610": {
    "postcode": "1558610",
    "prefecture": "東京都",
    "prefecture_kana": "トウキョウト",
    "prefecture_code": 13,
    "city": "世田谷区",
    "city_kana": "セタガヤク",
    "town": "北沢",
    "town_kana": "キタザワ",
    "street": "１丁目１６−１０",
    "office_name": "学校法人　松蔭学園",
    "office_name_kana": "ガツコウホウジン シヨウインガクエン"
  },
  "8626": {
    "postcode": "1558626",
    "prefecture": "東京都",
    "prefecture_kana": "トウキョウト",
    "prefecture_code": 13,
    "city": "世田谷区",
    "city_kana": "セタガヤク",
    "town": "代沢",
    "town_kana": "ダイザワ",
    "street": "５丁目２−１１",
    "office_name": "（株）　第二書房",
    "office_name_kana": "カブシキガイシヤ ダイニシヨボウ"
  },
  "8633": {
    "postcode": "1558633",
    "prefecture": "東京都",
    "prefecture_kana": "トウキョウト",
    "prefecture_code": 13,
    "city": "世田谷区",
    "city_kana": "セタガヤク",
    "town": "代田",
    "town_kana": "ダイタ",
    "street": "６丁目６−２５",
    "office_name": "小林製薬工業　株式会社",
    "office_name_kana": "コバヤシセイヤクコウギヨウ カブシキガイシヤ"
  },
  "8655": {
    "postcode": "1558655",
    "prefecture": "東京都",
    "prefecture_kana": "トウキョウト",
    "prefecture_code": 13,
    "city": "世田谷区",
    "city_kana": "セタガヤク",
    "town": "代沢",
    "town_kana": "ダイザワ",
    "street": "４−４３−１１",
    "office_name": "東邦薬品　株式会社",
    "office_name_kana": "トウホウヤクヒン カブシキガイシヤ"
  },
  "8663": {
    "postcode": "1558663",
    "prefecture": "東京都",
    "prefecture_kana": "トウキョウト",
    "prefecture_code": 13,
    "city": "世田谷区",
    "city_kana": "セタガヤク",
    "town": "北沢",
    "town_kana": "キタザワ",
    "street": "１丁目４１−２２",
    "office_name": "（財）　秋田県育英会　東京寮",
    "office_name_kana": "ザイダンホウジン アキタケンイクエイカイ トウキヨウリヨウ"
  },
  "8668": {
    "postcode": "1558668",
    "prefecture": "東京都",
    "prefecture_kana": "トウキョウト",
    "prefecture_code": 13,
    "city": "世田谷区",
    "city_kana": "セタガヤク",
    "town": "代田",
    "town_kana": "ダイタ",
    "street": "６丁目１２−３９",
    "office_name": "学校法人　成徳学園",
    "office_name_kana": "ガツコウホウジン セイトクガクエン"
  }
}