{
  "0000": {
    "postcode": "1600000",
    "prefecture": "東京都",
    "prefecture_kana": "トウキョウト",
    "prefecture_code": 13,
    "city": "新宿区",
    "city_kana": "シンジュクク",
    "town": "",
    "town_kana": "",
    "street": null,
    "office_name": null,
    "office_name_kana": null
  },
  "0001": {
    "postcode": "1600001",
    "prefecture": "東京都",
    "prefecture_kana": "トウキョウト",
    "prefecture_code": 13,
    "city": "新宿区",
    "city_kana": "シンジュクク",
    "town": "片町",
    "town_kana": "カタマチ",
    "street": null,
    "office_name": null,
    "office_name_kana": null
  },
  "0002": {
    "postcode": "1600002",
    "prefecture": "東京都",
    "prefecture_kana": "トウキョウト",
    "prefecture_code": 13,
    "city": "新宿区",
    "city_kana": "シンジュクク",
    "town": "四谷坂町",
    "town_kana": "ヨツヤサカマチ",
    "street": null,
    "office_name": null,
    "office_name_kana": null
  },
  "0003": {
    "postcode": "1600003",
    "prefecture": "東京都",
    "prefecture_kana": "トウキョウト",
    "prefecture_code": 13,
    "city": "新宿区",
    "city_kana": "シンジュクク",
    "town": "四谷本塩町",
    "town_kana": "ヨツヤホンシオチョウ",
    "street": null,
    "office_name": null,
    "office_name_kana": null
  },
  "0004": {
    "postcode": "1600004",
    "prefecture": "東京都",
    "prefecture_kana": "トウキョウト",
    "prefecture_code": 13,
    "city": "新宿区",
    "city_kana": "シンジュクク",
    "town": "四谷",
    "town_kana": "ヨツヤ",
    "street": null,
    "office_name": null,
    "office_name_kana": null
  },
  "0005": {
    "postcode": "1600005",
    "prefecture": "東京都",
    "prefecture_kana": "トウキョウト",
    "prefecture_code": 13,
    "city": "新宿区",
    "city_kana": "シンジュクク",
    "town": "愛住町",
    "town_kana": "アイズミチョウ",
    "street": null,
    "office_name": null,
    "office_name_kana": null
  },
  "0006": {
    "postcode": "1600006",
    "prefecture": "東京都",
    "prefecture_kana": "トウキョウト",
    "prefecture_code": 13,
    "city": "新宿区",
    "city_kana": "シンジュクク",
    "town": "舟町",
    "town_kana": "フナマチ",
    "street": null,
    "office_name": null,
    "office_name_kana": null
  },
  "0007": {
    "postcode": "1600007",
    "prefecture": "東京都",
    "prefecture_kana": "トウキョウト",
    "prefecture_code": 13,
    "city": "新宿区",
    "city_kana": "シンジュクク",
    "town": "荒木町",
    "town_kana": "アラキチョウ",
    "street": null,
    "office_name": null,
    "office_name_kana": null
  },
  "0008": {
    "postcode": "1600008",
    "prefecture": "東京都",
    "prefecture_kana": "トウキョウト",
    "prefecture_code": 13,
    "city": "新宿区",
    "city_kana": "シンジュクク",
    "town": "四谷三栄町",
    "town_kana": "ヨツヤサンエイチョウ",
    "street": null,
    "office_name": null,
    "office_name_kana": null
  },
  "0011": {
    "postcode": "1600011",
    "prefecture": "東京都",
    "prefecture_kana": "トウキョウト",
    "prefecture_code": 13,
    "city": "新宿区",
    "city_kana": "シンジュクク",
    "town": "若葉",
    "town_kana": "ワカバ",
    "street": null,
    "office_name": null,
    "office_name_kana": null
  },
  "0012": {
    "postcode": "1600012",
    "prefecture": "東京都",
    "prefecture_kana": "トウキョウト",
    "prefecture_code": 13,
    "city": "新宿区",
    "city_kana": "シンジュクク",
    "town": "南元町",
    "town_kana": "ミナミモトマチ",
    "street": null,
    "office_name": null,
    "office_name_kana": null
  },
  "0013": {
    "postcode": "1600013",
    "prefecture": "東京都",
    "prefecture_kana": "トウキョウト",
    "prefecture_code": 13,
    "city": "新宿区",
    "city_kana": "シンジュクク",
    "town": "霞ケ丘町",
    "town_kana": "カスミガオカマチ",
    "street": null,
    "office_name": null,
    "office_name_kana": null
  },
  "0014": {
    "postcode": "1600014",
    "prefecture": "東京都",
    "prefecture_kana": "トウキョウト",
    "prefecture_code": 13,
    "city": "新宿区",
    "city_kana": "シンジュクク",
    "town": "内藤町",
    "town_kana": "ナイトウマチ",
    "street": null,
    "office_name": null,
    "office_name_kana": null
  },
  "0015": {
    "postcode": "1600015",
    "prefecture": "東京都",
    "prefecture_kana": "トウキョウト",
    "prefecture_code": 13,
    "city": "新宿区",
    "city_kana": "シンジュクク",
    "town": "大京町",
    "town_kana": "ダイキョウチョウ",
    "street": null,
    "office_name": null,
    "office_name_kana": null
  },
  "0016": {
    "postcode": "1600016",
    "prefecture": "東京都",
    "prefecture_kana": "トウキョウト",
    "prefecture_code": 13,
    "city": "新宿区",
    "city_kana": "シンジュクク",
    "town": "信濃町",
    "town_kana": "シナノマチ",
    "street": null,
    "office_name": null,
    "office_name_kana": null
  },
  "0017": {
    "postcode": "1600017",
    "prefecture": "東京都",
    "prefecture_kana": "トウキョウト",
    "prefecture_code": 13,
    "city": "新宿区",
    "city_kana": "シンジュクク",
    "town": "左門町",
    "town_kana": "サモンチョウ",
    "street": null,
    "office_name": null,
    "office_name_kana": null
  },
  "0018": {
    "postcode": "1600018",
    "prefecture": "東京都",
    "prefecture_kana": "トウキョウト",
    "prefecture_code": 13,
    "city": "新宿区",
    "city_kana": "シンジュクク",
    "town": "須賀町",
    "town_kana": "スガチョウ",
    "street": null,
    "office_name": null,
    "office_name_kana": null
  },
  "0021": {
    "postcode": "1600021",
    "prefecture": "東京都",
    "prefecture_kana": "トウキョウト",
    "prefecture_code": 13,
    "city": "新宿区",
    "city_kana": "シンジュクク",
    "town": "歌舞伎町",
    "town_kana": "カブキチョウ",
    "street": null,
    "office_name": null,
    "office_name_kana": null
  },
  "0022": {
    "postcode": "1600022",
    "prefecture": "東京都",
    "prefecture_kana": "トウキョウト",
    "prefecture_code": 13,
    "city": "新宿区",
    "city_kana": "シンジュクク",
    "town": "新宿",
    "town_kana": "シンジュク",
    "street": null,
    "office_name": null,
    "office_name_kana": null
  },
  "0023": {
    "postcode": "1600023",
    "prefecture": "東京都",
    "prefecture_kana": "トウキョウト",
    "prefecture_code": 13,
    "city": "新宿区",
    "city_kana": "シンジュクク",
    "town": "西新宿",
    "town_kana": "ニシシンジュク",
    "street": null,
    "office_name": null,
    "office_name_kana": null
  },
  "6101": {
    "postcode": "1606101",
    "prefecture": "東京都",
    "prefecture_kana": "トウキョウト",
    "prefecture_code": 13,
    "city": "新宿区",
    "city_kana": "シンジュクク",
    "town": "西新宿住友不動産新宿グランドタワー　１階",
    "town_kana": "ニシシンジュクスミトモフドウサンシンジュクグランドタワー1カイ",
    "street": null,
    "office_name": null,
    "office_name_kana": null
  },
  "6102": {
    "postcode": "1606102",
    "prefecture": "東京都",
    "prefecture_kana": "トウキョウト",
    "prefecture_code": 13,
    "city": "新宿区",
    "city_kana": "シンジュクク",
    "town": "西新宿住友不動産新宿グランドタワー　２階",
    "town_kana": "ニシシンジュクスミトモフドウサンシンジュクグランドタワー2カイ",
    "street": null,
    "office_name": null,
    "office_name_kana": null
  },
  "6103": {
    "postcode": "1606103",
    "prefecture": "東京都",
    "prefecture_kana": "トウキョウト",
    "prefecture_code": 13,
    "city": "新宿区",
    "city_kana": "シンジュクク",
    "town": "西新宿住友不動産新宿グランドタワー　３階",
    "town_kana": "ニシシンジュクスミトモフドウサンシンジュクグランドタワー3カイ",
    "street": null,
    "office_name": null,
    "office_name_kana": null
  },
  "6104": {
    "postcode": "1606104",
    "prefecture": "東京都",
    "prefecture_kana": "トウキョウト",
    "prefecture_code": 13,
    "city": "新宿区",
    "city_kana": "シンジュクク",
    "town": "西新宿住友不動産新宿グランドタワー　４階",
    "town_kana": "ニシシンジュクスミトモフドウサンシンジュクグランドタワー4カイ",
    "street": null,
    "office_name": null,
    "office_name_kana": null
  },
  "6105": {
    "postcode": "1606105",
    "prefecture": "東京都",
    "prefecture_kana": "トウキョウト",
    "prefecture_code": 13,
    "city": "新宿区",
    "city_kana": "シンジュクク",
    "town": "西新宿住友不動産新宿グランドタワー　５階",
    "town_kana": "ニシシンジュクスミトモフドウサンシンジュクグランドタワー5カイ",
    "street": null,
    "office_name": null,
    "office_name_kana": null
  },
  "6106": {
    "postcode": "1606106",
    "prefecture": "東京都",
    "prefecture_kana": "トウキョウト",
    "prefecture_code": 13,
    "city": "新宿区",
    "city_kana": "シンジュクク",
    "town": "西新宿住友不動産新宿グランドタワー　６階",
    "town_kana": "ニシシンジュクスミトモフドウサンシンジュクグランドタワー6カイ",
    "street": null,
    "office_name": null,
    "office_name_kana": null
  },
  "6107": {
    "postcode": "1606107",
    "prefecture": "東京都",
    "prefecture_kana": "トウキョウト",
    "prefecture_code": 13,
    "city": "新宿区",
    "city_kana": "シンジュクク",
    "town": "西新宿住友不動産新宿グランドタワー　７階",
    "town_kana": "ニシシンジュクスミトモフドウサンシンジュクグランドタワー7カイ",
    "street": null,
    "office_name": null,
    "office_name_kana": null
  },
  "6108": {
    "postcode": "1606108",
    "prefecture": "東京都",
    "prefecture_kana": "トウキョウト",
    "prefecture_code": 13,
    "city": "新宿区",
    "city_kana": "シンジュクク",
    "town": "西新宿住友不動産新宿グランドタワー　８階",
    "town_kana": "ニシシンジュクスミトモフドウサンシンジュクグランドタワー8カイ",
    "street": null,
    "office_name": null,
    "office_name_kana": null
  },
  "6109": {
    "postcode": "1606109",
    "prefecture": "東京都",
    "prefecture_kana": "トウキョウト",
    "prefecture_code": 13,
    "city": "新宿区",
    "city_kana": "シンジュクク",
    "town": "西新宿住友不動産新宿グランドタワー　９階",
    "town_kana": "ニシシンジュクスミトモフドウサンシンジュクグランドタワー9カイ",
    "street": null,
    "office_name": null,
    "office_name_kana": null
  },
  "6110": {
    "postcode": "1606110",
    "prefecture": "東京都",
    "prefecture_kana": "トウキョウト",
    "prefecture_code": 13,
    "city": "新宿区",
    "city_kana": "シンジュクク",
    "town": "西新宿住友不動産新宿グランドタワー　１０階",
    "town_kana": "ニシシンジュクスミトモフドウサンシンジュクグランドタワー10カイ",
    "street": null,
    "office_name": null,
    "office_name_kana": null
  },
  "6111": {
    "postcode": "1606111",
    "prefecture": "東京都",
    "prefecture_kana": "トウキョウト",
    "prefecture_code": 13,
    "city": "新宿区",
    "city_kana": "シンジュクク",
    "town": "西新宿住友不動産新宿グランドタワー　１１階",
    "town_kana": "ニシシンジュクスミトモフドウサンシンジュクグランドタワー11カイ",
    "street": null,
    "office_name": null,
    "office_name_kana": null
  },
  "6112": {
    "postcode": "1606112",
    "prefecture": "東京都",
    "prefecture_kana": "トウキョウト",
    "prefecture_code": 13,
    "city": "新宿区",
    "city_kana": "シンジュクク",
    "town": "西新宿住友不動産新宿グランドタワー　１２階",
    "town_kana": "ニシシンジュクスミトモフドウサンシンジュクグランドタワー12カイ",
    "street": null,
    "office_name": null,
    "office_name_kana": null
  },
  "6113": {
    "postcode": "1606113",
    "prefecture": "東京都",
    "prefecture_kana": "トウキョウト",
    "prefecture_code": 13,
    "city": "新宿区",
    "city_kana": "シンジュクク",
    "town": "西新宿住友不動産新宿グランドタワー　１３階",
    "town_kana": "ニシシンジュクスミトモフドウサンシンジュクグランドタワー13カイ",
    "street": null,
    "office_name": null,
    "office_name_kana": null
  },
  "6114": {
    "postcode": "1606114",
    "prefecture": "東京都",
    "prefecture_kana": "トウキョウト",
    "prefecture_code": 13,
    "city": "新宿区",
    "city_kana": "シンジュクク",
    "town": "西新宿住友不動産新宿グランドタワー　１４階",
    "town_kana": "ニシシンジュクスミトモフドウサンシンジュクグランドタワー14カイ",
    "street": null,
    "office_name": null,
    "office_name_kana": null
  },
  "6115": {
    "postcode": "1606115",
    "prefecture": "東京都",
    "prefecture_kana": "トウキョウト",
    "prefecture_code": 13,
    "city": "新宿区",
    "city_kana": "シンジュクク",
    "town": "西新宿住友不動産新宿グランドタワー　１５階",
    "town_kana": "ニシシンジュクスミトモフドウサンシンジュクグランドタワー15カイ",
    "street": null,
    "office_name": null,
    "office_name_kana": null
  },
  "6116": {
    "postcode": "1606116",
    "prefecture": "東京都",
    "prefecture_kana": "トウキョウト",
    "prefecture_code": 13,
    "city": "新宿区",
    "city_kana": "シンジュクク",
    "town": "西新宿住友不動産新宿グランドタワー　１６階",
    "town_kana": "ニシシンジュクスミトモフドウサンシンジュクグランドタワー16カイ",
    "street": null,
    "office_name": null,
    "office_name_kana": null
  },
  "6117": {
    "postcode": "1606117",
    "prefecture": "東京都",
    "prefecture_kana": "トウキョウト",
    "prefecture_code": 13,
    "city": "新宿区",
    "city_kana": "シンジュクク",
    "town": "西新宿住友不動産新宿グランドタワー　１７階",
    "town_kana": "ニシシンジュクスミトモフドウサンシンジュクグランドタワー17カイ",
    "street": null,
    "office_name": null,
    "office_name_kana": null
  },
  "6118": {
    "postcode": "1606118",
    "prefecture": "東京都",
    "prefecture_kana": "トウキョウト",
    "prefecture_code": 13,
    "city": "新宿区",
    "city_kana": "シンジュクク",
    "town": "西新宿住友不動産新宿グランドタワー　１８階",
    "town_kana": "ニシシンジュクスミトモフドウサンシンジュクグランドタワー18カイ",
    "street": null,
    "office_name": null,
    "office_name_kana": null
  },
  "6119": {
    "postcode": "1606119",
    "prefecture": "東京都",
    "prefecture_kana": "トウキョウト",
    "prefecture_code": 13,
    "city": "新宿区",
    "city_kana": "シンジュクク",
    "town": "西新宿住友不動産新宿グランドタワー　１９階",
    "town_kana": "ニシシンジュクスミトモフドウサンシンジュクグランドタワー19カイ",
    "street": null,
    "office_name": null,
    "office_name_kana": null
  },
  "6120": {
    "postcode": "1606120",
    "prefecture": "東京都",
    "prefecture_kana": "トウキョウト",
    "prefecture_code": 13,
    "city": "新宿区",
    "city_kana": "シンジュクク",
    "town": "西新宿住友不動産新宿グランドタワー　２０階",
    "town_kana": "ニシシンジュクスミトモフドウサンシンジュクグランドタワー20カイ",
    "street": null,
    "office_name": null,
    "office_name_kana": null
  },
  "6121": {
    "postcode": "1606121",
    "prefecture": "東京都",
    "prefecture_kana": "トウキョウト",
    "prefecture_code": 13,
    "city": "新宿区",
    "city_kana": "シンジュクク",
    "town": "西新宿住友不動産新宿グランドタワー　２１階",
    "town_kana": "ニシシンジュクスミトモフドウサンシンジュクグランドタワー21カイ",
    "street": null,
    "office_name": null,
    "office_name_kana": null
  },
  "6122": {
    "postcode": "1606122",
    "prefecture": "東京都",
    "prefecture_kana": "トウキョウト",
    "prefecture_code": 13,
    "city": "新宿区",
    "city_kana": "シンジュクク",
    "town": "西新宿住友不動産新宿グランドタワー　２２階",
    "town_kana": "ニシシンジュクスミトモフドウサンシンジュクグランドタワー22カイ",
    "street": null,
    "office_name": null,
    "office_name_kana": null
  },
  "6123": {
    "postcode": "1606123",
    "prefecture": "東京都",
    "prefecture_kana": "トウキョウト",
    "prefecture_code": 13,
    "city": "新宿区",
    "city_kana": "シンジュクク",
    "town": "西新宿住友不動産新宿グランドタワー　２３階",
    "town_kana": "ニシシンジュクスミトモフドウサンシンジュクグランドタワー23カイ",
    "street": null,
    "office_name": null,
    "office_name_kana": null
  },
  "6124": {
    "postcode": "1606124",
    "prefecture": "東京都",
    "prefecture_kana": "トウキョウト",
    "prefecture_code": 13,
    "city": "新宿区",
    "city_kana": "シンジュクク",
    "town": "西新宿住友不動産新宿グランドタワー　２４階",
    "town_kana": "ニシシンジュクスミトモフドウサンシンジュクグランドタワー24カイ",
    "street": null,
    "office_name": null,
    "office_name_kana": null
  },
  "6125": {
    "postcode": "1606125",
    "prefecture": "東京都",
    "prefecture_kana": "トウキョウト",
    "prefecture_code": 13,
    "city": "新宿区",
    "city_kana": "シンジュクク",
    "town": "西新宿住友不動産新宿グランドタワー　２５階",
    "town_kana": "ニシシンジュクスミトモフドウサンシンジュクグランドタワー25カイ",
    "street": null,
    "office_name": null,
    "office_name_kana": null
  },
  "6126": {
    "postcode": "1606126",
    "prefecture": "東京都",
    "prefecture_kana": "トウキョウト",
    "prefecture_code": 13,
    "city": "新宿区",
    "city_kana": "シンジュクク",
    "town": "西新宿住友不動産新宿グランドタワー　２６階",
    "town_kana": "ニシシンジュクスミトモフドウサンシンジュクグランドタワー26カイ",
    "street": null,
    "office_name": null,
    "office_name_kana": null
  },
  "6127": {
    "postcode": "1606127",
    "prefecture": "東京都",
    "prefecture_kana": "トウキョウト",
    "prefecture_code": 13,
    "city": "新宿区",
    "city_kana": "シンジュクク",
    "town": "西新宿住友不動産新宿グランドタワー　２７階",
    "town_kana": "ニシシンジュクスミトモフドウサンシンジュクグランドタワー27カイ",
    "street": null,
    "office_name": null,
    "office_name_kana": null
  },
  "6128": {
    "postcode": "1606128",
    "prefecture": "東京都",
    "prefecture_kana": "トウキョウト",
    "prefecture_code": 13,
    "city": "新宿区",
    "city_kana": "シンジュクク",
    "town": "西新宿住友不動産新宿グランドタワー　２８階",
    "town_kana": "ニシシンジュクスミトモフドウサンシンジュクグランドタワー28カイ",
    "street": null,
    "office_name": null,
    "office_name_kana": null
  },
  "6129": {
    "postcode": "1606129",
    "prefecture": "東京都",
    "prefecture_kana": "トウキョウト",
    "prefecture_code": 13,
    "city": "新宿区",
    "city_kana": "シンジュクク",
    "town": "西新宿住友不動産新宿グランドタワー　２９階",
    "town_kana": "ニシシンジュクスミトモフドウサンシンジュクグランドタワー29カイ",
    "street": null,
    "office_name": null,
    "office_name_kana": null
  },
  "6130": {
    "postcode": "1606130",
    "prefecture": "東京都",
    "prefecture_kana": "トウキョウト",
    "prefecture_code": 13,
    "city": "新宿区",
    "city_kana": "シンジュクク",
    "town": "西新宿住友不動産新宿グランドタワー　３０階",
    "town_kana": "ニシシンジュクスミトモフドウサンシンジュクグランドタワー30カイ",
    "street": null,
    "office_name": null,
    "office_name_kana": null
  },
  "6131": {
    "postcode": "1606131",
    "prefecture": "東京都",
    "prefecture_kana": "トウキョウト",
    "prefecture_code": 13,
    "city": "新宿区",
    "city_kana": "シンジュクク",
    "town": "西新宿住友不動産新宿グランドタワー　３１階",
    "town_kana": "ニシシンジュクスミトモフドウサンシンジュクグランドタワー31カイ",
    "street": null,
    "office_name": null,
    "office_name_kana": null
  },
  "6132": {
    "postcode": "1606132",
    "prefecture": "東京都",
    "prefecture_kana": "トウキョウト",
    "prefecture_code": 13,
    "city": "新宿区",
    "city_kana": "シンジュクク",
    "town": "西新宿住友不動産新宿グランドタワー　３２階",
    "town_kana": "ニシシンジュクスミトモフドウサンシンジュクグランドタワー32カイ",
    "street": null,
    "office_name": null,
    "office_name_kana": null
  },
  "6133": {
    "postcode": "1606133",
    "prefecture": "東京都",
    "prefecture_kana": "トウキョウト",
    "prefecture_code": 13,
    "city": "新宿区",
    "city_kana": "シンジュクク",
    "town": "西新宿住友不動産新宿グランドタワー　３３階",
    "town_kana": "ニシシンジュクスミトモフドウサンシンジュクグランドタワー33カイ",
    "street": null,
    "office_name": null,
    "office_name_kana": null
  },
  "6134": {
    "postcode": "1606134",
    "prefecture": "東京都",
    "prefecture_kana": "トウキョウト",
    "prefecture_code": 13,
    "city": "新宿区",
    "city_kana": "シンジュクク",
    "town": "西新宿住友不動産新宿グランドタワー　３４階",
    "town_kana": "ニシシンジュクスミトモフドウサンシンジュクグランドタワー34カイ",
    "street": null,
    "office_name": null,
    "office_name_kana": null
  },
  "6135": {
    "postcode": "1606135",
    "prefecture": "東京都",
    "prefecture_kana": "トウキョウト",
    "prefecture_code": 13,
    "city": "新宿区",
    "city_kana": "シンジュクク",
    "town": "西新宿住友不動産新宿グランドタワー　３５階",
    "town_kana": "ニシシンジュクスミトモフドウサンシンジュクグランドタワー35カイ",
    "street": null,
    "office_name": null,
    "office_name_kana": null
  },
  "6136": {
    "postcode": "1606136",
    "prefecture": "東京都",
    "prefecture_kana": "トウキョウト",
    "prefecture_code": 13,
    "city": "新宿区",
    "city_kana": "シンジュクク",
    "town": "西新宿住友不動産新宿グランドタワー　３６階",
    "town_kana": "ニシシンジュクスミトモフドウサンシンジュクグランドタワー36カイ",
    "street": null,
    "office_name": null,
    "office_name_kana": null
  },
  "6137": {
    "postcode": "1606137",
    "prefecture": "東京都",
    "prefecture_kana": "トウキョウト",
    "prefecture_code": 13,
    "city": "新宿区",
    "city_kana": "シンジュクク",
    "town": "西新宿住友不動産新宿グランドタワー　３７階",
    "town_kana": "ニシシンジュクスミトモフドウサンシンジュクグランドタワー37カイ",
    "street": null,
    "office_name": null,
    "office_name_kana": null
  },
  "6138": {
    "postcode": "1606138",
    "prefecture": "東京都",
    "prefecture_kana": "トウキョウト",
    "prefecture_code": 13,
    "city": "新宿区",
    "city_kana": "シンジュクク",
    "town": "西新宿住友不動産新宿グランドタワー　３８階",
    "town_kana": "ニシシンジュクスミトモフドウサンシンジュクグランドタワー38カイ",
    "street": null,
    "office_name": null,
    "office_name_kana": null
  },
  "6139": {
    "postcode": "1606139",
    "prefecture": "東京都",
    "prefecture_kana": "トウキョウト",
    "prefecture_code": 13,
    "city": "新宿区",
    "city_kana": "シンジュクク",
    "town": "西新宿住友不動産新宿グランドタワー　３９階",
    "town_kana": "ニシシンジュクスミトモフドウサンシンジュクグランドタワー39カイ",
    "street": null,
    "office_name": null,
    "office_name_kana": null
  },
  "6190": {
    "postcode": "1606190",
    "prefecture": "東京都",
    "prefecture_kana": "トウキョウト",
    "prefecture_code": 13,
    "city": "新宿区",
    "city_kana": "シンジュクク",
    "town": "西新宿住友不動産新宿グランドタワー",
    "town_kana": "ニシシンジュクスミトモフドウサンシンジュクグランドタワー",
    "street": null,
    "office_name": null,
    "office_name_kana": null
  },
  "8001": {
    "postcode": "1608001",
    "prefecture": "東京都",
    "prefecture_kana": "トウキョウト",
    "prefecture_code": 13,
    "city": "新宿区",
    "city_kana": "シンジュクク",
    "town": "西新宿",
    "town_kana": "ニシシンジュク",
    "street": "一丁目５番１号",
    "office_name": "株式会社　小田急百貨店",
    "office_name_kana": "カブシキガイシヤ オダキユウヒヤツカテン"
  },
  "8011": {
    "postcode": "1608011",
    "prefecture": "東京都",
    "prefecture_kana": "トウキョウト",
    "prefecture_code": 13,
    "city": "新宿区",
    "city_kana": "シンジュクク",
    "town": "新宿",
    "town_kana": "シンジュク",
    "street": "３−１４−１",
    "office_name": "株式会社　三越伊勢丹　伊勢丹新宿店",
    "office_name_kana": "カブシキガイシヤ ミツコシイセタン イセタンシンジユクテン"
  },
  "8070": {
    "postcode": "1608070",
    "prefecture": "東京都",
    "prefecture_kana": "トウキョウト",
    "prefecture_code": 13,
    "city": "新宿区",
    "city_kana": "シンジュクク",
    "town": "信濃町",
    "town_kana": "シナノマチ",
    "street": "１８",
    "office_name": "聖教新聞社",
    "office_name_kana": "セイキヨウシンブンシヤ"
  },
  "8301": {
    "postcode": "1608301",
    "prefecture": "東京都",
    "prefecture_kana": "トウキョウト",
    "prefecture_code": 13,
    "city": "新宿区",
    "city_kana": "シンジュクク",
    "town": "西新宿",
    "town_kana": "ニシシンジュク",
    "street": "７丁目８−１０オークラヤビル",
    "office_name": "株式会社　秀栄興産",
    "office_name_kana": "カブシキガイシヤ シユウエイコウサン"
  },
  "8304": {
    "postcode": "1608304",
    "prefecture": "東京都",
    "prefecture_kana": "トウキョウト",
    "prefecture_code": 13,
    "city": "新宿区",
    "city_kana": "シンジュクク",
    "town": "西新宿",
    "town_kana": "ニシシンジュク",
    "street": "７丁目５−８",
    "office_name": "東京都新宿都税事務所",
    "office_name_kana": "トウキヨウトシンジユクトゼイジムシヨ"
  },
  "8306": {
    "postcode": "1608306",
    "prefecture": "東京都",
    "prefecture_kana": "トウキョウト",
    "prefecture_code": 13,
    "city": "新宿区",
    "city_kana": "シンジュクク",
    "town": "西新宿",
    "town_kana": "ニシシンジュク",
    "street": "５丁目２５−１１",
    "office_name": "株式会社　日本小児医事出版社",
    "office_name_kana": "カブシキガイシヤ ニホンシヨウニイジシユツパンシヤ"
  },
  "8309": {
    "postcode": "1608309",
    "prefecture": "東京都",
    "prefecture_kana": "トウキョウト",
    "prefecture_code": 13,
    "city": "新宿区",
    "city_kana": "シンジュクク",
    "town": "西新宿",
    "town_kana": "ニシシンジュク",
    "street": "１丁目８−３小田急明治生命ビル",
    "office_name": "小田急電鉄　株式会社",
    "office_name_kana": "オダキユウデンテツ カブシキガイシヤ"
  },
  "8311": {
    "postcode": "1608311",
    "prefecture": "東京都",
    "prefecture_kana": "トウキョウト",
    "prefecture_code": 13,
    "city": "新宿区",
    "city_kana": "シンジュクク",
    "town": "西新宿",
    "town_kana": "ニシシンジュク",
    "street": "５丁目１０−１４西新宿橋谷田ビル２Ｆ",
    "office_name": "有限会社　森野ウレタン社",
    "office_name_kana": "ユウゲンガイシヤ モリノウレタンシヤ"
  },
  "8313": {
    "postcode": "1608313",
    "prefecture": "東京都",
    "prefecture_kana": "トウキョウト",
    "prefecture_code": 13,
    "city": "新宿区",
    "city_kana": "シンジュクク",
    "town": "西新宿",
    "town_kana": "ニシシンジュク",
    "street": "１−２６−１",
    "office_name": "損害保険ジャパン　株式会社",
    "office_name_kana": "ソンガイホケンジヤパン カブシキガイシヤ"
  },
  "8316": {
    "postcode": "1608316",
    "prefecture": "東京都",
    "prefecture_kana": "トウキョウト",
    "prefecture_code": 13,
    "city": "新宿区",
    "city_kana": "シンジュクク",
    "town": "西新宿",
    "town_kana": "ニシシンジュク",
    "street": "１丁目７−２スバルビル",
    "office_name": "富士重工業　株式会社",
    "office_name_kana": "フジジユウコウギヨウ カブシキガイシヤ"
  },
  "8319": {
    "postcode": "1608319",
    "prefecture": "東京都",
    "prefecture_kana": "トウキョウト",
    "prefecture_code": 13,
    "city": "新宿区",
    "city_kana": "シンジュクク",
    "town": "西新宿",
    "town_kana": "ニシシンジュク",
    "street": "１丁目５−１",
    "office_name": "株式会社　ビックカメラ　新宿西口店",
    "office_name_kana": "カブシキガイシヤ ビツクカメラ シンジユクニシグチテン"
  },
  "8321": {
    "postcode": "1608321",
    "prefecture": "東京都",
    "prefecture_kana": "トウキョウト",
    "prefecture_code": 13,
    "city": "新宿区",
    "city_kana": "シンジュクク",
    "town": "西新宿",
    "town_kana": "ニシシンジュク",
    "street": "１丁目１−４",
    "office_name": "株式会社　京王百貨店",
    "office_name_kana": "カブシキガイシヤ ケイオウヒヤツカテン"
  },
  "8330": {
    "postcode": "1608330",
    "prefecture": "東京都",
    "prefecture_kana": "トウキョウト",
    "prefecture_code": 13,
    "city": "新宿区",
    "city_kana": "シンジュクク",
    "town": "西新宿",
    "town_kana": "ニシシンジュク",
    "street": "２丁目２−１",
    "office_name": "株式会社　京王プラザホテル",
    "office_name_kana": "カブシキガイシヤ ケイオウプラザホテル"
  },
  "8331": {
    "postcode": "1608331",
    "prefecture": "東京都",
    "prefecture_kana": "トウキョウト",
    "prefecture_code": 13,
    "city": "新宿区",
    "city_kana": "シンジュクク",
    "town": "西新宿",
    "town_kana": "ニシシンジュク",
    "street": "７丁目５−２５西新宿木村屋ビルディング",
    "office_name": "三井不動産住宅サービス　株式会社",
    "office_name_kana": "ミツイフドウサンジユウタクサ-ビス カブシキガイシヤ"
  },
  "8334": {
    "postcode": "1608334",
    "prefecture": "東京都",
    "prefecture_kana": "トウキョウト",
    "prefecture_code": 13,
    "city": "新宿区",
    "city_kana": "シンジュクク",
    "town": "西新宿",
    "town_kana": "ニシシンジュク",
    "street": "３丁目２−１１新宿三井２号館１４Ｆ",
    "office_name": "株式会社　三松",
    "office_name_kana": "カブシキガイシヤ ミマツ"
  },
  "8336": {
    "postcode": "1608336",
    "prefecture": "東京都",
    "prefecture_kana": "トウキョウト",
    "prefecture_code": 13,
    "city": "新宿区",
    "city_kana": "シンジュクク",
    "town": "西新宿",
    "town_kana": "ニシシンジュク",
    "street": "３丁目２−９",
    "office_name": "新宿ワシントンホテル",
    "office_name_kana": "シンジユクワシントンホテル"
  },
  "8338": {
    "postcode": "1608338",
    "prefecture": "東京都",
    "prefecture_kana": "トウキョウト",
    "prefecture_code": 13,
    "city": "新宿区",
    "city_kana": "シンジュクク",
    "town": "西新宿",
    "town_kana": "ニシシンジュク",
    "street": "１−２６−１",
    "office_name": "損害保険ジャパン　株式会社",
    "office_name_kana": "ソンガイホケンジヤパン カブシキガイシヤ"
  },
  "8341": {
    "postcode": "1608341",
    "prefecture": "東京都",
    "prefecture_kana": "トウキョウト",
    "prefecture_code": 13,
    "city": "新宿区",
    "city_kana": "シンジュクク",
    "town": "新宿",
    "town_kana": "シンジュク",
    "street": "５−１５−５新宿三光町ビル",
    "office_name": "株式会社　ＤｅＮＡトラベル",
    "office_name_kana": "カブシキガイシヤ デイ-エヌエ-トラベル"
  },
  "8347": {
    "postcode": "1608347",
    "prefecture": "東京都",
    "prefecture_kana": "トウキョウト",
    "prefecture_code": 13,
    "city": "新宿区",
    "city_kana": "シンジュクク",
    "town": "西新宿",
    "town_kana": "ニシシンジュク",
    "street": "６−１０−１日土地西新宿ビル２０Ｆ",
    "office_name": "ＨＯＹＡ　株式会社",
    "office_name_kana": "ホ-ヤ カブシキガイシヤ"
  },
  "8351": {
    "postcode": "1608351",
    "prefecture": "東京都",
    "prefecture_kana": "トウキョウト",
    "prefecture_code": 13,
    "city": "新宿区",
    "city_kana": "シンジュクク",
    "town": "新宿",
    "town_kana": "シンジュク",
    "street": "５−１４−６長府新宿ビル",
    "office_name": "野村不動産パートナーズ　株式会社",
    "office_name_kana": "ノムラフドウサンパ-トナ-ズ カブシキガイシヤ"
  },
  "8352": {
    "postcode": "1608352",
    "prefecture": "東京都",
    "prefecture_kana": "トウキョウト",
    "prefecture_code": 13,
    "city": "新宿区",
    "city_kana": "シンジュクク",
    "town": "西新宿",
    "town_kana": "ニシシンジュク",
    "street": "８−１７−１住友不動産新宿グランドタワー３９階",
    "office_name": "アニコム損害保険　株式会社",
    "office_name_kana": "アニコムソンガイホケン カブシキガイシヤ"
  },
  "8353": {
    "postcode": "1608353",
    "prefecture": "東京都",
    "prefecture_kana": "トウキョウト",
    "prefecture_code": 13,
    "city": "新宿区",
    "city_kana": "シンジュクク",
    "town": "西新宿",
    "town_kana": "ニシシンジュク",
    "street": "７丁目７番３０小田急西新宿Ｏ−ＰＬＡＣＥ",
    "office_name": "（公財）　東京都防災・建築まちづくりセンター",
    "office_name_kana": "(コウザイ) トウキヨウトボウサイ・ケンチクマチヅクリセンタ-"
  },
  "8354": {
    "postcode": "1608354",
    "prefecture": "東京都",
    "prefecture_kana": "トウキョウト",
    "prefecture_code": 13,
    "city": "新宿区",
    "city_kana": "シンジュクク",
    "town": "西新宿",
    "town_kana": "ニシシンジュク",
    "street": "１−２２−２新宿サンエービル５階",
    "office_name": "株式会社　Ｂｏｈｎｅｓ",
    "office_name_kana": "カブシキガイシヤ ボ-ネス"
  },
  "8358": {
    "postcode": "1608358",
    "prefecture": "東京都",
    "prefecture_kana": "トウキョウト",
    "prefecture_code": 13,
    "city": "新宿区",
    "city_kana": "シンジュクク",
    "town": "西新宿",
    "town_kana": "ニシシンジュク",
    "street": "１丁目５−１",
    "office_name": "株式会社　ビックピーカン",
    "office_name_kana": "カブシキガイシヤ ビツクピ-カン"
  },
  "8366": {
    "postcode": "1608366",
    "prefecture": "東京都",
    "prefecture_kana": "トウキョウト",
    "prefecture_code": 13,
    "city": "新宿区",
    "city_kana": "シンジュクク",
    "town": "西新宿",
    "town_kana": "ニシシンジュク",
    "street": "６丁目２４−１西新宿三井ビルディング６Ｆ",
    "office_name": "日本テキサス・インスツルメンツ　株式会社",
    "office_name_kana": "ニホンテキサス・インスツルメンツ カブシキガイシヤ"
  },
  "8368": {
    "postcode": "1608368",
    "prefecture": "東京都",
    "prefecture_kana": "トウキョウト",
    "prefecture_code": 13,
    "city": "新宿区",
    "city_kana": "シンジュクク",
    "town": "西新宿",
    "town_kana": "ニシシンジュク",
    "street": "１丁目２３−７新宿ファーストウエスト１６Ｆ",
    "office_name": "富国生命保険　相互会社　新宿支社",
    "office_name_kana": "フコクセイメイホケン ソウゴカイシヤ シンジユクシシヤ"
  },
  "8373": {
    "postcode": "1608373",
    "prefecture": "東京都",
    "prefecture_kana": "トウキョウト",
    "prefecture_code": 13,
    "city": "新宿区",
    "city_kana": "シンジュクク",
    "town": "西新宿",
    "town_kana": "ニシシンジュク",
    "street": "１−２４−１エステック情報ビル１６Ｆ",
    "office_name": "全保連　株式会社",
    "office_name_kana": "ゼンホレン カブシキガイシヤ"
  },
  "8374": {
    "postcode": "1608374",
    "prefecture": "東京都",
    "prefecture_kana": "トウキョウト",
    "prefecture_code": 13,
    "city": "新宿区",
    "city_kana": "シンジュクク",
    "town": "西新宿",
    "town_kana": "ニシシンジュク",
    "street": "６丁目１２−３０",
    "office_name": "芸能花伝舎",
    "office_name_kana": "ゲイノウカデンシヤ"
  },
  "8375": {
    "postcode": "1608375",
    "prefecture": "東京都",
    "prefecture_kana": "トウキョウト",
    "prefecture_code": 13,
    "city": "新宿区",
    "city_kana": "シンジュクク",
    "town": "西新宿",
    "town_kana": "ニシシンジュク",
    "street": "１丁目２３−７新宿ファーストウエスト",
    "office_name": "株式会社　シー・アイ・シー",
    "office_name_kana": "カブシキガイシヤ シ-・アイ-・シ-"
  },
  "8378": {
    "postcode": "1608378",
    "prefecture": "東京都",
    "prefecture_kana": "トウキョウト",
    "prefecture_code": 13,
    "city": "新宿区",
    "city_kana": "シンジュクク",
    "town": "西新宿",
    "town_kana": "ニシシンジュク",
    "street": "４−３２−２２",
    "office_name": "株式会社　フジタ　東京支店",
    "office_name_kana": "カブシキカイシヤ フジタ トウキヨウシテン"
  },
  "8389": {
    "postcode": "1608389",
    "prefecture": "東京都",
    "prefecture_kana": "トウキョウト",
    "prefecture_code": 13,
    "city": "新宿区",
    "city_kana": "シンジュクク",
    "town": "四谷",
    "town_kana": "ヨツヤ",
    "street": "３丁目３−１富士・国保連ビル７Ｆ",
    "office_name": "社団法人　日本薬剤師会",
    "office_name_kana": "シヤダンホウジン ニホンヤクザイシカイ"
  },
  "8401": {
    "postcode": "1608401",
    "prefecture": "東京都",
    "prefecture_kana": "トウキョウト",
    "prefecture_code": 13,
    "city": "新宿区",
    "city_kana": "シンジュクク",
    "town": "新宿",
    "town_kana": "シンジュク",
    "street": "３丁目３０−１１",
    "office_name": "大和証券　株式会社　新宿支店",
    "office_name_kana": "ダイワシヨウケン カブシキガイシヤ シンジユクシテン"
  },
  "8402": {
    "postcode": "1608402",
    "prefecture": "東京都",
    "prefecture_kana": "トウキョウト",
    "prefecture_code": 13,
    "city": "新宿区",
    "city_kana": "シンジュクク",
    "town": "新宿",
    "town_kana": "シンジュク",
    "street": "６丁目１−１",
    "office_name": "学校法人　東京医科大学",
    "office_name_kana": "ガツコウホウジン トウキヨウイカダイガク"
  },
  "8403": {
    "postcode": "1608403",
    "prefecture": "東京都",
    "prefecture_kana": "トウキョウト",
    "prefecture_code": 13,
    "city": "新宿区",
    "city_kana": "シンジュクク",
    "town": "四谷",
    "town_kana": "ヨツヤ",
    "street": "４丁目１６−３日本生命新宿御苑前ビル",
    "office_name": "川辺　株式会社",
    "office_name_kana": "カワベ カブシキガイシヤ"
  },
  "8407": {
    "postcode": "1608407",
    "prefecture": "東京都",
    "prefecture_kana": "トウキョウト",
    "prefecture_code": 13,
    "city": "新宿区",
    "city_kana": "シンジュクク",
    "town": "新宿",
    "town_kana": "シンジュク",
    "street": "７丁目２６−９フィオーレ東京",
    "office_name": "財団法人　東京社会保険協会",
    "office_name_kana": "ザイダンホウジン トウキヨウシヤカイホケンキヨウカイ"
  },
  "8408": {
    "postcode": "1608408",
    "prefecture": "東京都",
    "prefecture_kana": "トウキョウト",
    "prefecture_code": 13,
    "city": "新宿区",
    "city_kana": "シンジュクク",
    "town": "新宿",
    "town_kana": "シンジュク",
    "street": "５丁目１７番１８号Ｈ＆Ｉビル",
    "office_name": "株式会社　エムアイカード",
    "office_name_kana": "カブシキガイシヤ エムアイカ-ド"
  },
  "8409": {
    "postcode": "1608409",
    "prefecture": "東京都",
    "prefecture_kana": "トウキョウト",
    "prefecture_code": 13,
    "city": "新宿区",
    "city_kana": "シンジュクク",
    "town": "新宿",
    "town_kana": "シンジュク",
    "street": "１−４−１２",
    "office_name": "日本ハウズイング　株式会社",
    "office_name_kana": "ニホンハウズイング カブシキガイシヤ"
  },
  "8410": {
    "postcode": "1608410",
    "prefecture": "東京都",
    "prefecture_kana": "トウキョウト",
    "prefecture_code": 13,
    "city": "新宿区",
    "city_kana": "シンジュクク",
    "town": "新宿",
    "town_kana": "シンジュク",
    "street": "１丁目３１番１２号",
    "office_name": "日本ハウズイング　株式会社",
    "office_name_kana": "ニホンハウズイング カブシキガイシヤ"
  },
  "8411": {
    "postcode": "1608411",
    "prefecture": "東京都",
    "prefecture_kana": "トウキョウト",
    "prefecture_code": 13,
    "city": "新宿区",
    "city_kana": "シンジュクク",
    "town": "新宿",
    "town_kana": "シンジュク",
    "street": "５丁目８−１",
    "office_name": "日神不動産　株式会社",
    "office_name_kana": "ニツシンフドウサン カブシキガイシヤ"
  },
  "8415": {
    "postcode": "1608415",
    "prefecture": "東京都",
    "prefecture_kana": "トウキョウト",
    "prefecture_code": 13,
    "city": "新宿区",
    "city_kana": "シンジュクク",
    "town": "新宿",
    "town_kana": "シンジュク",
    "street": "７丁目２７−１９",
    "office_name": "ネッツトヨタ東京　株式会社",
    "office_name_kana": "ネツツトヨタ カブシキガイシヤ"
  },
  "8420": {
    "postcode": "1608420",
    "prefecture": "東京都",
    "prefecture_kana": "トウキョウト",
    "prefecture_code": 13,
    "city": "新宿区",
    "city_kana": "シンジュクク",
    "town": "新宿",
    "town_kana": "シンジュク",
    "street": "１丁目１０−７",
    "office_name": "株式会社　マースエンジニアリング",
    "office_name_kana": "カブシキガイシヤ マ-スエンジニアリング"
  },
  "8422": {
    "postcode": "1608422",
    "prefecture": "東京都",
    "prefecture_kana": "トウキョウト",
    "prefecture_code": 13,
    "city": "新宿区",
    "city_kana": "シンジュクク",
    "town": "新宿",
    "town_kana": "シンジュク",
    "street": "３丁目１番１３号",
    "office_name": "キーウェアソリューションズ　株式会社",
    "office_name_kana": "キ-ウエアソリユ-シヨンズ カブシキガイシヤ"
  },
  "8423": {
    "postcode": "1608423",
    "prefecture": "東京都",
    "prefecture_kana": "トウキョウト",
    "prefecture_code": 13,
    "city": "新宿区",
    "city_kana": "シンジュクク",
    "town": "新宿",
    "town_kana": "シンジュク",
    "street": "２−１９−１ビッグス新宿ビル８階",
    "office_name": "オートビジネスサービス　株式会社",
    "office_name_kana": "オ-トビジネスサ-ビス カブシキガイシヤ"
  },
  "8429": {
    "postcode": "1608429",
    "prefecture": "東京都",
    "prefecture_kana": "トウキョウト",
    "prefecture_code": 13,
    "city": "新宿区",
    "city_kana": "シンジュクク",
    "town": "新宿",
    "town_kana": "シンジュク",
    "street": "１丁目６−３",
    "office_name": "株式会社　アデランス",
    "office_name_kana": "カブシキガイシヤ アデランス"
  },
  "8430": {
    "postcode": "1608430",
    "prefecture": "東京都",
    "prefecture_kana": "トウキョウト",
    "prefecture_code": 13,
    "city": "新宿区",
    "city_kana": "シンジュクク",
    "town": "新宿",
    "town_kana": "シンジュク",
    "street": "６丁目２７番３０号新宿イーストサイドスクエア",
    "office_name": "株式会社　スクウェア・エニックス",
    "office_name_kana": "カブシキガイシヤ スクウエア・エニツクス"
  },
  "8433": {
    "postcode": "1608433",
    "prefecture": "東京都",
    "prefecture_kana": "トウキョウト",
    "prefecture_code": 13,
    "city": "新宿区",
    "city_kana": "シンジュクク",
    "town": "新宿",
    "town_kana": "シンジュク",
    "street": "５丁目６−１１",
    "office_name": "株式会社　佐藤秀",
    "office_name_kana": "カブシキガイシヤ サトウヒデ"
  },
  "8441": {
    "postcode": "1608441",
    "prefecture": "東京都",
    "prefecture_kana": "トウキョウト",
    "prefecture_code": 13,
    "city": "新宿区",
    "city_kana": "シンジュクク",
    "town": "新宿",
    "town_kana": "シンジュク",
    "street": "３丁目１番２４号京王新宿三丁目ビル",
    "office_name": "廣告社　株式会社",
    "office_name_kana": "コウコクシヤ カブシキガイシヤ"
  },
  "8444": {
    "postcode": "1608444",
    "prefecture": "東京都",
    "prefecture_kana": "トウキョウト",
    "prefecture_code": 13,
    "city": "新宿区",
    "city_kana": "シンジュクク",
    "town": "新宿",
    "town_kana": "シンジュク",
    "street": "１丁目２−７あいおい損保・新宿東共同ビル",
    "office_name": "あいおい損害保険　株式会社",
    "office_name_kana": "アイオイソンガイホケン カブシキガイシヤ"
  },
  "8447": {
    "postcode": "1608447",
    "prefecture": "東京都",
    "prefecture_kana": "トウキョウト",
    "prefecture_code": 13,
    "city": "新宿区",
    "city_kana": "シンジュクク",
    "town": "新宿",
    "town_kana": "シンジュク",
    "street": "６丁目２７番３０号新宿イーストサイドスクエア２階",
    "office_name": "株式会社　タイトー",
    "office_name_kana": "カブシキガイシヤ タイト-"
  },
  "8450": {
    "postcode": "1608450",
    "prefecture": "東京都",
    "prefecture_kana": "トウキョウト",
    "prefecture_code": 13,
    "city": "新宿区",
    "city_kana": "シンジュクク",
    "town": "四谷",
    "town_kana": "ヨツヤ",
    "street": "４丁目３４−１新宿御苑前アネックスビル４Ｆ",
    "office_name": "株式会社　長谷工コミュニティ　東京支店",
    "office_name_kana": "カブシキガイシヤ ハセコウコミユニテイ トウキヨウシテン"
  },
  "8461": {
    "postcode": "1608461",
    "prefecture": "東京都",
    "prefecture_kana": "トウキョウト",
    "prefecture_code": 13,
    "city": "新宿区",
    "city_kana": "シンジュクク",
    "town": "新宿",
    "town_kana": "シンジュク",
    "street": "６−２７−３０新宿イーストサイドスクエア７Ｆ",
    "office_name": "株式会社　三栄",
    "office_name_kana": "カブシキガイシヤ サンエイ"
  },
  "8463": {
    "postcode": "1608463",
    "prefecture": "東京都",
    "prefecture_kana": "トウキョウト",
    "prefecture_code": 13,
    "city": "新宿区",
    "city_kana": "シンジュクク",
    "town": "新宿",
    "town_kana": "シンジュク",
    "street": "６−２７−３０新宿イーストサイドスクエア７Ｆ",
    "office_name": "株式会社　サンズ",
    "office_name_kana": "カブシキガイシヤ サンズ"
  },
  "8466": {
    "postcode": "1608466",
    "prefecture": "東京都",
    "prefecture_kana": "トウキョウト",
    "prefecture_code": 13,
    "city": "新宿区",
    "city_kana": "シンジュクク",
    "town": "歌舞伎町",
    "town_kana": "カブキチョウ",
    "street": "１丁目１９番１号",
    "office_name": "ホテルグレイスリー新宿",
    "office_name_kana": "ホテルグレイスリ-シンジユク"
  },
  "8472": {
    "postcode": "1608472",
    "prefecture": "東京都",
    "prefecture_kana": "トウキョウト",
    "prefecture_code": 13,
    "city": "新宿区",
    "city_kana": "シンジュクク",
    "town": "歌舞伎町",
    "town_kana": "カブキチョウ",
    "street": "１丁目４−１",
    "office_name": "新宿区役所　地域調整課　文化国際課",
    "office_name_kana": "シンジユククヤクシヨ チイキチヨウセイカ ブンカコクサイカ"
  },
  "8484": {
    "postcode": "1608484",
    "prefecture": "東京都",
    "prefecture_kana": "トウキョウト",
    "prefecture_code": 13,
    "city": "新宿区",
    "city_kana": "シンジュクク",
    "town": "歌舞伎町",
    "town_kana": "カブキチョウ",
    "street": "１丁目４−１",
    "office_name": "新宿区役所",
    "office_name_kana": "シンジユククヤクシヨ"
  },
  "8485": {
    "postcode": "1608485",
    "prefecture": "東京都",
    "prefecture_kana": "トウキョウト",
    "prefecture_code": 13,
    "city": "新宿区",
    "city_kana": "シンジュクク",
    "town": "歌舞伎町",
    "town_kana": "カブキチョウ",
    "street": "１丁目４−１",
    "office_name": "新宿区役所　総務部　税務課",
    "office_name_kana": "シンジユククヤクシヨ ソウムブ ゼイムカ"
  },
  "8486": {
    "postcode": "1608486",
    "prefecture": "東京都",
    "prefecture_kana": "トウキョウト",
    "prefecture_code": 13,
    "city": "新宿区",
    "city_kana": "シンジュクク",
    "town": "新宿",
    "town_kana": "シンジュク",
    "street": "５−３−１",
    "office_name": "株式会社　ヨドバシカメラ",
    "office_name_kana": "カブシキガイシヤ ヨドバシカメラ"
  },
  "8487": {
    "postcode": "1608487",
    "prefecture": "東京都",
    "prefecture_kana": "トウキョウト",
    "prefecture_code": 13,
    "city": "新宿区",
    "city_kana": "シンジュクク",
    "town": "歌舞伎町",
    "town_kana": "カブキチョウ",
    "street": "１丁目３０−１",
    "office_name": "新宿プリンスホテル",
    "office_name_kana": "シンジユクプリンスホテル"
  },
  "8488": {
    "postcode": "1608488",
    "prefecture": "東京都",
    "prefecture_kana": "トウキョウト",
    "prefecture_code": 13,
    "city": "新宿区",
    "city_kana": "シンジュクク",
    "town": "歌舞伎町",
    "town_kana": "カブキチョウ",
    "street": "２丁目４４−１",
    "office_name": "財団法人　東京都保険医療公社　大久保病院",
    "office_name_kana": "ザイダンホウジン トウキヨウトホケンイリヨウコウシヤ オオクボビヨウイン"
  },
  "8489": {
    "postcode": "1608489",
    "prefecture": "東京都",
    "prefecture_kana": "トウキョウト",
    "prefecture_code": 13,
    "city": "新宿区",
    "city_kana": "シンジュクク",
    "town": "歌舞伎町",
    "town_kana": "カブキチョウ",
    "street": "２丁目４２−１０",
    "office_name": "新宿公共職業安定所",
    "office_name_kana": "シンジユクコウキヨウシヨクギヨウアンテイジヨ"
  },
  "8501": {
    "postcode": "1608501",
    "prefecture": "東京都",
    "prefecture_kana": "トウキョウト",
    "prefecture_code": 13,
    "city": "新宿区",
    "city_kana": "シンジュクク",
    "town": "左門町",
    "town_kana": "サモンチョウ",
    "street": "４四谷アネックス",
    "office_name": "株式会社　サンミュージックプロダクション",
    "office_name_kana": "カブシキガイシヤ サンミユ-ジツクプロダクシヨン"
  },
  "8504": {
    "postcode": "1608504",
    "prefecture": "東京都",
    "prefecture_kana": "トウキョウト",
    "prefecture_code": 13,
    "city": "新宿区",
    "city_kana": "シンジュクク",
    "town": "四谷",
    "town_kana": "ヨツヤ",
    "street": "３−２−１フロントプレイス四谷",
    "office_name": "独立行政法人　農業者年金基金",
    "office_name_kana": "ドクリツギヨウセイホウジン ノウギヨウシヤネンキンキキン"
  },
  "8507": {
    "postcode": "1608507",
    "prefecture": "東京都",
    "prefecture_kana": "トウキョウト",
    "prefecture_code": 13,
    "city": "新宿区",
    "city_kana": "シンジュクク",
    "town": "四谷",
    "town_kana": "ヨツヤ",
    "street": "１丁目６番１号６階",
    "office_name": "全国健康保険協会　本部",
    "office_name_kana": "ゼンコクケンコウホケンキヨウカイ ホンブ"
  },
  "8509": {
    "postcode": "1608509",
    "prefecture": "東京都",
    "prefecture_kana": "トウキョウト",
    "prefecture_code": 13,
    "city": "新宿区",
    "city_kana": "シンジュクク",
    "town": "四谷",
    "town_kana": "ヨツヤ",
    "street": "４−１６−３川辺新宿御苑前ビル５階",
    "office_name": "一般社団法人　輿論科学協会",
    "office_name_kana": "イツパンシヤダンホウジン ヨロンカガクキヨウカイ"
  },
  "8510": {
    "postcode": "1608510",
    "prefecture": "東京都",
    "prefecture_kana": "トウキョウト",
    "prefecture_code": 13,
    "city": "新宿区",
    "city_kana": "シンジュクク",
    "town": "四谷",
    "town_kana": "ヨツヤ",
    "street": "１丁目６番１号コモレ四谷・四谷タワー５階",
    "office_name": "新菱冷熱工業　株式会社",
    "office_name_kana": "シンリヨウレイネツコウギヨウ カブシキガイシヤ"
  },
  "8511": {
    "postcode": "1608511",
    "prefecture": "東京都",
    "prefecture_kana": "トウキョウト",
    "prefecture_code": 13,
    "city": "新宿区",
    "city_kana": "シンジュクク",
    "town": "四谷",
    "town_kana": "ヨツヤ",
    "street": "４丁目１",
    "office_name": "大塚刷毛製造　（株）",
    "office_name_kana": "オオツカハケセイゾウ カブシキガイシヤ"
  },
  "8512": {
    "postcode": "1608512",
    "prefecture": "東京都",
    "prefecture_kana": "トウキョウト",
    "prefecture_code": 13,
    "city": "新宿区",
    "city_kana": "シンジュクク",
    "town": "四谷",
    "town_kana": "ヨツヤ",
    "street": "４丁目２８−７",
    "office_name": "生活協同組合　東京マイコープ",
    "office_name_kana": "セイカツキヨウドウクミアイ トウキヨウマイコ-プ"
  },
  "8515": {
    "postcode": "1608515",
    "prefecture": "東京都",
    "prefecture_kana": "トウキョウト",
    "prefecture_code": 13,
    "city": "新宿区",
    "city_kana": "シンジュクク",
    "town": "四谷",
    "town_kana": "ヨツヤ",
    "street": "１丁目７",
    "office_name": "持田製薬　（株）",
    "office_name_kana": "モチダセイヤク カブシキガイシヤ"
  },
  "8516": {
    "postcode": "1608516",
    "prefecture": "東京都",
    "prefecture_kana": "トウキョウト",
    "prefecture_code": 13,
    "city": "新宿区",
    "city_kana": "シンジュクク",
    "town": "四谷",
    "town_kana": "ヨツヤ",
    "street": "１−６−１四谷タワー１６階",
    "office_name": "なないろ生命保険　株式会社",
    "office_name_kana": "ナナイロセイメイホケン カブシキガイシヤ"
  },
  "8519": {
    "postcode": "1608519",
    "prefecture": "東京都",
    "prefecture_kana": "トウキョウト",
    "prefecture_code": 13,
    "city": "新宿区",
    "city_kana": "シンジュクク",
    "town": "南元町",
    "town_kana": "ミナミモトマチ",
    "street": "１９",
    "office_name": "社団法人　金融財政事情研究会",
    "office_name_kana": "シヤダンホウジン キンユウザイセイジジヨウケンキユウカイ"
  },
  "8520": {
    "postcode": "1608520",
    "prefecture": "東京都",
    "prefecture_kana": "トウキョウト",
    "prefecture_code": 13,
    "city": "新宿区",
    "city_kana": "シンジュクク",
    "town": "南元町",
    "town_kana": "ミナミモトマチ",
    "street": "１９",
    "office_name": "株式会社　きんざい",
    "office_name_kana": "カブシキガイシヤ キンザイ"
  },
  "8521": {
    "postcode": "1608521",
    "prefecture": "東京都",
    "prefecture_kana": "トウキョウト",
    "prefecture_code": 13,
    "city": "新宿区",
    "city_kana": "シンジュクク",
    "town": "南元町",
    "town_kana": "ミナミモトマチ",
    "street": "１８",
    "office_name": "公明機関紙局",
    "office_name_kana": "コウメイキカンシキヨク"
  },
  "8522": {
    "postcode": "1608522",
    "prefecture": "東京都",
    "prefecture_kana": "トウキョウト",
    "prefecture_code": 13,
    "city": "新宿区",
    "city_kana": "シンジュクク",
    "town": "南元町",
    "town_kana": "ミナミモトマチ",
    "street": "６−２",
    "office_name": "女子学生会館　「明泉」",
    "office_name_kana": "ジヨシガクセイカイカン <メイセン>"
  },
  "8524": {
    "postcode": "1608524",
    "prefecture": "東京都",
    "prefecture_kana": "トウキョウト",
    "prefecture_code": 13,
    "city": "新宿区",
    "city_kana": "シンジュクク",
    "town": "新宿",
    "town_kana": "シンジュク",
    "street": "６丁目２８−１",
    "office_name": "日清食品　株式会社　東京本社",
    "office_name_kana": "ニツシンシヨクヒン カブシキガイシヤ トウキヨウホンシヤ"
  },
  "8529": {
    "postcode": "1608529",
    "prefecture": "東京都",
    "prefecture_kana": "トウキョウト",
    "prefecture_code": 13,
    "city": "新宿区",
    "city_kana": "シンジュクク",
    "town": "荒木町",
    "town_kana": "アラキチョウ",
    "street": "２−３",
    "office_name": "社団法人　金融財政事情研究会　検定センター",
    "office_name_kana": "シヤダンホウジン キンユウザイセイジジヨウケンキユウカイ ケンテイセンタ-"
  },
  "8530": {
    "postcode": "1608530",
    "prefecture": "東京都",
    "prefecture_kana": "トウキョウト",
    "prefecture_code": 13,
    "city": "新宿区",
    "city_kana": "シンジュクク",
    "town": "四谷三栄町",
    "town_kana": "ヨツヤサンエイチョウ",
    "street": "７番７号",
    "office_name": "四谷税務署",
    "office_name_kana": "ヨツヤゼイムシヨ"
  },
  "8535": {
    "postcode": "1608535",
    "prefecture": "東京都",
    "prefecture_kana": "トウキョウト",
    "prefecture_code": 13,
    "city": "新宿区",
    "city_kana": "シンジュクク",
    "town": "信濃町",
    "town_kana": "シナノマチ",
    "street": "３４番ＪＲ信濃町ビル５階",
    "office_name": "あんしん財団　災害防止部",
    "office_name_kana": "アンシンザイダン サイガイボウシブ"
  },
  "8543": {
    "postcode": "1608543",
    "prefecture": "東京都",
    "prefecture_kana": "トウキョウト",
    "prefecture_code": 13,
    "city": "新宿区",
    "city_kana": "シンジュクク",
    "town": "四谷坂町",
    "town_kana": "ヨツヤサカマチ",
    "street": "１２番２１号",
    "office_name": "コモンズ　株式会社",
    "office_name_kana": "コモンズ カブシキガイシヤ"
  },
  "8547": {
    "postcode": "1608547",
    "prefecture": "東京都",
    "prefecture_kana": "トウキョウト",
    "prefecture_code": 13,
    "city": "新宿区",
    "city_kana": "シンジュクク",
    "town": "新宿",
    "town_kana": "シンジュク",
    "street": "６−２７−３０新宿イーストサイドスクエア７Ｆ",
    "office_name": "株式会社　三栄",
    "office_name_kana": "カブシキガイシヤ サンエイ"
  },
  "8565": {
    "postcode": "1608565",
    "prefecture": "東京都",
    "prefecture_kana": "トウキョウト",
    "prefecture_code": 13,
    "city": "新宿区",
    "city_kana": "シンジュクク",
    "town": "大京町",
    "town_kana": "ダイキョウチョウ",
    "street": "２２−１",
    "office_name": "株式会社　ポプラ社",
    "office_name_kana": "カブシキガイシヤ ポプラシヤ"
  },
  "8571": {
    "postcode": "1608571",
    "prefecture": "東京都",
    "prefecture_kana": "トウキョウト",
    "prefecture_code": 13,
    "city": "新宿区",
    "city_kana": "シンジュクク",
    "town": "愛住町",
    "town_kana": "アイズミチョウ",
    "street": "２２第三山田ビル４Ｆ",
    "office_name": "株式会社　太田出版",
    "office_name_kana": "カブシキカイシヤ オオタシユツパン"
  },
  "8575": {
    "postcode": "1608575",
    "prefecture": "東京都",
    "prefecture_kana": "トウキョウト",
    "prefecture_code": 13,
    "city": "新宿区",
    "city_kana": "シンジュクク",
    "town": "四谷本塩町",
    "town_kana": "ヨツヤホンシオチョウ",
    "street": "５番１号",
    "office_name": "雪印メグミルク　株式会社",
    "office_name_kana": "ユキジルシメグミルク カブシキカイシヤ"
  },
  "8577": {
    "postcode": "1608577",
    "prefecture": "東京都",
    "prefecture_kana": "トウキョウト",
    "prefecture_code": 13,
    "city": "新宿区",
    "city_kana": "シンジュクク",
    "town": "西新宿",
    "town_kana": "ニシシンジュク",
    "street": "７丁目５−２５",
    "office_name": "三井住友建設　株式会社",
    "office_name_kana": "ミツイスミトモケンセツ カブシキガイシヤ"
  },
  "8580": {
    "postcode": "1608580",
    "prefecture": "東京都",
    "prefecture_kana": "トウキョウト",
    "prefecture_code": 13,
    "city": "新宿区",
    "city_kana": "シンジュクク",
    "town": "内藤町",
    "town_kana": "ナイトウマチ",
    "street": "１",
    "office_name": "株式会社　ワニマガジン社",
    "office_name_kana": "カブシキガイシヤ ワニマガジンシヤ"
  },
  "8581": [
    {
      "postcode": "1608581",
      "prefecture": "東京都",
      "prefecture_kana": "トウキョウト",
      "prefecture_code": 13,
      "city": "新宿区",
      "city_kana": "シンジュクク",
      "town": "内藤町",
      "town_kana": "ナイトウマチ",
      "street": "８７番",
      "office_name": "新宿区　四谷特別出張所",
      "office_name_kana": "シンジユクク ヨツヤトクベツシユツチヨウジヨ"
    },
    {
      "postcode": "1608581",
      "prefecture": "東京都",
      "prefecture_kana": "トウキョウト",
      "prefecture_code": 13,
      "city": "新宿区",
      "city_kana": "シンジュクク",
      "town": "内藤町",
      "town_kana": "ナイトウマチ",
      "street": "８７番",
      "office_name": "四谷区民ホール",
      "office_name_kana": "ヨツヤクミンホ-ル"
    },
    {
      "postcode": "1608581",
      "prefecture": "東京都",
      "prefecture_kana": "トウキョウト",
      "prefecture_code": 13,
      "city": "新宿区",
      "city_kana": "シンジュクク",
      "town": "内藤町",
      "town_kana": "ナイトウマチ",
      "street": "８７番",
      "office_name": "四谷地域センター",
      "office_name_kana": "ヨツヤチイキセンタ-"
    },
    {
      "postcode": "1608581",
      "prefecture": "東京都",
      "prefecture_kana": "トウキョウト",
      "prefecture_code": 13,
      "city": "新宿区",
      "city_kana": "シンジュクク",
      "town": "内藤町",
      "town_kana": "ナイトウマチ",
      "street": "８７番",
      "office_name": "四谷図書館",
      "office_name_kana": "ヨツヤトシヨカン"
    }
  ],
  "8582": {
    "postcode": "1608582",
    "prefecture": "東京都",
    "prefecture_kana": "トウキョウト",
    "prefecture_code": 13,
    "city": "新宿区",
    "city_kana": "シンジュクク",
    "town": "信濃町",
    "town_kana": "シナノマチ",
    "street": "３５",
    "office_name": "慶應義塾大学　医学部",
    "office_name_kana": "ケイオウギジユクダイガク イガクブ"
  },
  "8583": {
    "postcode": "1608583",
    "prefecture": "東京都",
    "prefecture_kana": "トウキョウト",
    "prefecture_code": 13,
    "city": "新宿区",
    "city_kana": "シンジュクク",
    "town": "信濃町",
    "town_kana": "シナノマチ",
    "street": "３２",
    "office_name": "創価学会",
    "office_name_kana": "ソウカガツカイ"
  },
  "8587": {
    "postcode": "1608587",
    "prefecture": "東京都",
    "prefecture_kana": "トウキョウト",
    "prefecture_code": 13,
    "city": "新宿区",
    "city_kana": "シンジュクク",
    "town": "内藤町",
    "town_kana": "ナイトウマチ",
    "street": "８７四谷区民センター３・４Ｆ",
    "office_name": "東京都水道局　新宿営業所",
    "office_name_kana": "トウキヨウトスイドウキヨク シンジユクエイギヨウシヨ"
  },
  "8588": {
    "postcode": "1608588",
    "prefecture": "東京都",
    "prefecture_kana": "トウキョウト",
    "prefecture_code": 13,
    "city": "新宿区",
    "city_kana": "シンジュクク",
    "town": "信濃町",
    "town_kana": "シナノマチ",
    "street": "８",
    "office_name": "（財）　民主音楽協会",
    "office_name_kana": "ザイダンホウジン ミンシユオンガクキヨウカイ"
  },
  "8589": {
    "postcode": "1608589",
    "prefecture": "東京都",
    "prefecture_kana": "トウキョウト",
    "prefecture_code": 13,
    "city": "新宿区",
    "city_kana": "シンジュクク",
    "town": "信濃町",
    "town_kana": "シナノマチ",
    "street": "３４ＪＲ信濃町ビル",
    "office_name": "東鉄工業　株式会社",
    "office_name_kana": "トウテツコウギヨウ (カ"
  },
  "8601": {
    "postcode": "1608601",
    "prefecture": "東京都",
    "prefecture_kana": "トウキョウト",
    "prefecture_code": 13,
    "city": "新宿区",
    "city_kana": "シンジュクク",
    "town": "新宿",
    "town_kana": "シンジュク",
    "street": "５丁目９−２",
    "office_name": "日本年金機構　新宿年金事務所",
    "office_name_kana": "ニツポンネンキンキコウ シンジユクネンキンジムシヨ"
  },
  "8680": {
    "postcode": "1608680",
    "prefecture": "東京都",
    "prefecture_kana": "トウキョウト",
    "prefecture_code": 13,
    "city": "新宿区",
    "city_kana": "シンジュクク",
    "town": "信濃町",
    "town_kana": "シナノマチ",
    "street": "３４ＪＲ信濃町ビル５Ｆ",
    "office_name": "あんしん財団　「楽しいイベント」係",
    "office_name_kana": "アンシンザイダン <タノシイイベント>ガカリ"
  },
  "8801": [
    {
      "postcode": "1608801",
      "prefecture": "東京都",
      "prefecture_kana": "トウキョウト",
      "prefecture_code": 13,
      "city": "新宿区",
      "city_kana": "シンジュクク",
      "town": "新宿",
      "town_kana": "シンジュク",
      "street": "４−１−６ＪＲ新宿ミライナタワー３１階",
      "office_name": "エプソン販売　株式会社",
      "office_name_kana": "エプソンハンバイ カブシキガイシヤ"
    },
    {
      "postcode": "1608801",
      "prefecture": "東京都",
      "prefecture_kana": "トウキョウト",
      "prefecture_code": 13,
      "city": "新宿区",
      "city_kana": "シンジュクク",
      "town": "新宿",
      "town_kana": "シンジュク",
      "street": "４−１−６ＪＲ新宿ミライナタワー３１階",
      "office_name": "セイコーエプソン　株式会社",
      "office_name_kana": "セイコ-エプソン カブシキガイシヤ"
    }
  ],
  "8812": {
    "postcode": "1608812",
    "prefecture": "東京都",
    "prefecture_kana": "トウキョウト",
    "prefecture_code": 13,
    "city": "新宿区",
    "city_kana": "シンジュクク",
    "town": "新宿",
    "town_kana": "シンジュク",
    "street": "６−２７−３０新宿イーストサイドスクエア",
    "office_name": "シティグループ・サービス・ジャパン　株式会社",
    "office_name_kana": "シテイグル-プ・サ-ビス・ジヤパン カブシキガイシヤ"
  },
  "8910": {
    "postcode": "1608910",
    "prefecture": "東京都",
    "prefecture_kana": "トウキョウト",
    "prefecture_code": 13,
    "city": "新宿区",
    "city_kana": "シンジュクク",
    "town": "新宿",
    "town_kana": "シンジュク",
    "street": "１丁目１−１３",
    "office_name": "伯東　株式会社",
    "office_name_kana": "ハクトウ カブシキガイシヤ"
  }
}