{
  "0000": {
    "postcode": "1660000",
    "prefecture": "東京都",
    "prefecture_kana": "トウキョウト",
    "prefecture_code": 13,
    "city": "杉並区",
    "city_kana": "スギナミク",
    "town": "",
    "town_kana": "",
    "street": null,
    "office_name": null,
    "office_name_kana": null
  },
  "0001": {
    "postcode": "1660001",
    "prefecture": "東京都",
    "prefecture_kana": "トウキョウト",
    "prefecture_code": 13,
    "city": "杉並区",
    "city_kana": "スギナミク",
    "town": "阿佐谷北",
    "town_kana": "アサガヤキタ",
    "street": null,
    "office_name": null,
    "office_name_kana": null
  },
  "0002": {
    "postcode": "1660002",
    "prefecture": "東京都",
    "prefecture_kana": "トウキョウト",
    "prefecture_code": 13,
    "city": "杉並区",
    "city_kana": "スギナミク",
    "town": "高円寺北",
    "town_kana": "コウエンジキタ",
    "street": null,
    "office_name": null,
    "office_name_kana": null
  },
  "0003": {
    "postcode": "1660003",
    "prefecture": "東京都",
    "prefecture_kana": "トウキョウト",
    "prefecture_code": 13,
    "city": "杉並区",
    "city_kana": "スギナミク",
    "town": "高円寺南",
    "town_kana": "コウエンジミナミ",
    "street": null,
    "office_name": null,
    "office_name_kana": null
  },
  "0004": {
    "postcode": "1660004",
    "prefecture": "東京都",
    "prefecture_kana": "トウキョウト",
    "prefecture_code": 13,
    "city": "杉並区",
    "city_kana": "スギナミク",
    "town": "阿佐谷南",
    "town_kana": "アサガヤミナミ",
    "street": null,
    "office_name": null,
    "office_name_kana": null
  },
  "0011": {
    "postcode": "1660011",
    "prefecture": "東京都",
    "prefecture_kana": "トウキョウト",
    "prefecture_code": 13,
    "city": "杉並区",
    "city_kana": "スギナミク",
    "town": "梅里",
    "town_kana": "ウメザト",
    "street": null,
    "office_name": null,
    "office_name_kana": null
  },
  "0012": {
    "postcode": "1660012",
    "prefecture": "東京都",
    "prefecture_kana": "トウキョウト",
    "prefecture_code": 13,
    "city": "杉並区",
    "city_kana": "スギナミク",
    "town": "和田",
    "town_kana": "ワダ",
    "street": null,
    "office_name": null,
    "office_name_kana": null
  },
  "0013": {
    "postcode": "1660013",
    "prefecture": "東京都",
    "prefecture_kana": "トウキョウト",
    "prefecture_code": 13,
    "city": "杉並区",
    "city_kana": "スギナミク",
    "town": "堀ノ内",
    "town_kana": "ホリノウチ",
    "street": null,
    "office_name": null,
    "office_name_kana": null
  },
  "0014": {
    "postcode": "1660014",
    "prefecture": "東京都",
    "prefecture_kana": "トウキョウト",
    "prefecture_code": 13,
    "city": "杉並区",
    "city_kana": "スギナミク",
    "town": "松ノ木",
    "town_kana": "マツノキ",
    "street": null,
    "office_name": null,
    "office_name_kana": null
  },
  "0015": {
    "postcode": "1660015",
    "prefecture": "東京都",
    "prefecture_kana": "トウキョウト",
    "prefecture_code": 13,
    "city": "杉並区",
    "city_kana": "スギナミク",
    "town": "成田東",
    "town_kana": "ナリタヒガシ",
    "street": null,
    "office_name": null,
    "office_name_kana": null
  },
  "0016": {
    "postcode": "1660016",
    "prefecture": "東京都",
    "prefecture_kana": "トウキョウト",
    "prefecture_code": 13,
    "city": "杉並区",
    "city_kana": "スギナミク",
    "town": "成田西",
    "town_kana": "ナリタニシ",
    "street": null,
    "office_name": null,
    "office_name_kana": null
  },
  "8501": {
    "postcode": "1668501",
    "prefecture": "東京都",
    "prefecture_kana": "トウキョウト",
    "prefecture_code": 13,
    "city": "杉並区",
    "city_kana": "スギナミク",
    "town": "成田東",
    "town_kana": "ナリタヒガシ",
    "street": "４丁目１５−８",
    "office_name": "杉並税務署",
    "office_name_kana": "スギナミゼイムシヨ"
  },
  "8502": {
    "postcode": "1668502",
    "prefecture": "東京都",
    "prefecture_kana": "トウキョウト",
    "prefecture_code": 13,
    "city": "杉並区",
    "city_kana": "スギナミク",
    "town": "成田東",
    "town_kana": "ナリタヒガシ",
    "street": "５丁目３９−１１",
    "office_name": "東京都杉並都税事務所",
    "office_name_kana": "トウキヨウトスギナミトゼイジムシヨ"
  },
  "8503": {
    "postcode": "1668503",
    "prefecture": "東京都",
    "prefecture_kana": "トウキョウト",
    "prefecture_code": 13,
    "city": "杉並区",
    "city_kana": "スギナミク",
    "town": "成田東",
    "town_kana": "ナリタヒガシ",
    "street": "４丁目３８−２５",
    "office_name": "東京都水道局　杉並東営業所",
    "office_name_kana": "トウキヨウトスイドウキヨク スギナミヒガシエイギヨウシヨ"
  },
  "8520": {
    "postcode": "1668520",
    "prefecture": "東京都",
    "prefecture_kana": "トウキョウト",
    "prefecture_code": 13,
    "city": "杉並区",
    "city_kana": "スギナミク",
    "town": "堀ノ内",
    "town_kana": "ホリノウチ",
    "street": "２丁目１７−１８",
    "office_name": "武蔵野産業　株式会社",
    "office_name_kana": "ムサシノサンギヨウ カブシキガイシヤ"
  },
  "8531": {
    "postcode": "1668531",
    "prefecture": "東京都",
    "prefecture_kana": "トウキョウト",
    "prefecture_code": 13,
    "city": "杉並区",
    "city_kana": "スギナミク",
    "town": "和田",
    "town_kana": "ワダ",
    "street": "２丁目７−１",
    "office_name": "立花産業　株式会社",
    "office_name_kana": "タチバナサンギヨウ カブシキガイシヤ"
  },
  "8532": {
    "postcode": "1668532",
    "prefecture": "東京都",
    "prefecture_kana": "トウキョウト",
    "prefecture_code": 13,
    "city": "杉並区",
    "city_kana": "スギナミク",
    "town": "和田",
    "town_kana": "ワダ",
    "street": "３−３０−２２",
    "office_name": "全国大学生活協同組合連合会",
    "office_name_kana": "ゼンコクダイガクセイカツキヨウドウクミアイレンゴウカイ"
  },
  "8533": {
    "postcode": "1668533",
    "prefecture": "東京都",
    "prefecture_kana": "トウキョウト",
    "prefecture_code": 13,
    "city": "杉並区",
    "city_kana": "スギナミク",
    "town": "和田",
    "town_kana": "ワダ",
    "street": "１丁目２１−７",
    "office_name": "救心製薬　株式会社",
    "office_name_kana": "キユウシンセイヤク カブシキガイシヤ"
  },
  "8535": {
    "postcode": "1668535",
    "prefecture": "東京都",
    "prefecture_kana": "トウキョウト",
    "prefecture_code": 13,
    "city": "杉並区",
    "city_kana": "スギナミク",
    "town": "和田",
    "town_kana": "ワダ",
    "street": "２丁目７−１",
    "office_name": "株式会社　佼成出版社",
    "office_name_kana": "カブシキガイシヤ コウセイシユツパンシヤ"
  },
  "8537": {
    "postcode": "1668537",
    "prefecture": "東京都",
    "prefecture_kana": "トウキョウト",
    "prefecture_code": 13,
    "city": "杉並区",
    "city_kana": "スギナミク",
    "town": "和田",
    "town_kana": "ワダ",
    "street": "２−１１−１",
    "office_name": "立正佼成会",
    "office_name_kana": "リツシヨウコウセイカイ"
  },
  "8538": {
    "postcode": "1668538",
    "prefecture": "東京都",
    "prefecture_kana": "トウキョウト",
    "prefecture_code": 13,
    "city": "杉並区",
    "city_kana": "スギナミク",
    "town": "和田",
    "town_kana": "ワダ",
    "street": "１丁目４９−８",
    "office_name": "学校法人　女子美術大学",
    "office_name_kana": "ガツコウホウジン ジヨシビジユツダイガク"
  },
  "8539": {
    "postcode": "1668539",
    "prefecture": "東京都",
    "prefecture_kana": "トウキョウト",
    "prefecture_code": 13,
    "city": "杉並区",
    "city_kana": "スギナミク",
    "town": "和田",
    "town_kana": "ワダ",
    "street": "１丁目２９−１１",
    "office_name": "社団法人　日本印刷技術協会",
    "office_name_kana": "シヤダンホウジン ニホンインサツギジユツキヨウカイ"
  },
  "8540": {
    "postcode": "1668540",
    "prefecture": "東京都",
    "prefecture_kana": "トウキョウト",
    "prefecture_code": 13,
    "city": "杉並区",
    "city_kana": "スギナミク",
    "town": "高円寺南",
    "town_kana": "コウエンジミナミ",
    "street": "４丁目１５−１１",
    "office_name": "白石建設　株式会社",
    "office_name_kana": "シライシケンセツ カブシキガイシヤ"
  },
  "8542": {
    "postcode": "1668542",
    "prefecture": "東京都",
    "prefecture_kana": "トウキョウト",
    "prefecture_code": 13,
    "city": "杉並区",
    "city_kana": "スギナミク",
    "town": "高円寺南",
    "town_kana": "コウエンジミナミ",
    "street": "４丁目４５−１０",
    "office_name": "学校法人　中央ゼミナール",
    "office_name_kana": "ガツコウホウジン チユウオウゼミナ-ル"
  },
  "8545": {
    "postcode": "1668545",
    "prefecture": "東京都",
    "prefecture_kana": "トウキョウト",
    "prefecture_code": 13,
    "city": "杉並区",
    "city_kana": "スギナミク",
    "town": "高円寺南",
    "town_kana": "コウエンジミナミ",
    "street": "２丁目４４−５",
    "office_name": "（株）　桐原書店",
    "office_name_kana": "カブシキガイシヤ キリハラシヨテン"
  },
  "8565": {
    "postcode": "1668565",
    "prefecture": "東京都",
    "prefecture_kana": "トウキョウト",
    "prefecture_code": 13,
    "city": "杉並区",
    "city_kana": "スギナミク",
    "town": "高円寺北",
    "town_kana": "コウエンジキタ",
    "street": "２丁目３−１７高円寺ＮＫビル",
    "office_name": "株式会社　ヴァル研究所",
    "office_name_kana": "カブシキガイシヤ ヴアルケンキユウシヨ"
  },
  "8566": {
    "postcode": "1668566",
    "prefecture": "東京都",
    "prefecture_kana": "トウキョウト",
    "prefecture_code": 13,
    "city": "杉並区",
    "city_kana": "スギナミク",
    "town": "高円寺北",
    "town_kana": "コウエンジキタ",
    "street": "２丁目３−１７高円寺ＮＫビル",
    "office_name": "株式会社　ヴァル研究所",
    "office_name_kana": "カブシキガイシヤ ヴアルケンキユウシヨ"
  },
  "8567": {
    "postcode": "1668567",
    "prefecture": "東京都",
    "prefecture_kana": "トウキョウト",
    "prefecture_code": 13,
    "city": "杉並区",
    "city_kana": "スギナミク",
    "town": "高円寺北",
    "town_kana": "コウエンジキタ",
    "street": "３丁目４−２１",
    "office_name": "学校法人　立志舎",
    "office_name_kana": "ガツコウホウジン リツシシヤ"
  },
  "8570": {
    "postcode": "1668570",
    "prefecture": "東京都",
    "prefecture_kana": "トウキョウト",
    "prefecture_code": 13,
    "city": "杉並区",
    "city_kana": "スギナミク",
    "town": "阿佐谷南",
    "town_kana": "アサガヤミナミ",
    "street": "１丁目１５−１",
    "office_name": "杉並区役所",
    "office_name_kana": "スギナミクヤクシヨ"
  },
  "8577": {
    "postcode": "1668577",
    "prefecture": "東京都",
    "prefecture_kana": "トウキョウト",
    "prefecture_code": 13,
    "city": "杉並区",
    "city_kana": "スギナミク",
    "town": "阿佐谷南",
    "town_kana": "アサガヤミナミ",
    "street": "３丁目３５−２１",
    "office_name": "株式会社　細田工務店",
    "office_name_kana": "カブシキガイシヤ ホソダコウムテン"
  },
  "8578": {
    "postcode": "1668578",
    "prefecture": "東京都",
    "prefecture_kana": "トウキョウト",
    "prefecture_code": 13,
    "city": "杉並区",
    "city_kana": "スギナミク",
    "town": "阿佐谷南",
    "town_kana": "アサガヤミナミ",
    "street": "１丁目３２−１０",
    "office_name": "（株）　大丸ピーコック",
    "office_name_kana": "カブシキガイシヤ ダイマルピ-コツク"
  },
  "8588": {
    "postcode": "1668588",
    "prefecture": "東京都",
    "prefecture_kana": "トウキョウト",
    "prefecture_code": 13,
    "city": "杉並区",
    "city_kana": "スギナミク",
    "town": "阿佐谷北",
    "town_kana": "アサガヤキタ",
    "street": "１丁目７−３",
    "office_name": "医療法人財団　河北総合病院",
    "office_name_kana": "イリヨウホウジンザイダン カワキタソウゴウビヨウイン"
  }
}