{
  "0000": {
    "postcode": "1800000",
    "prefecture": "東京都",
    "prefecture_kana": "トウキョウト",
    "prefecture_code": 13,
    "city": "武蔵野市",
    "city_kana": "ムサシノシ",
    "town": "",
    "town_kana": "",
    "street": null,
    "office_name": null,
    "office_name_kana": null
  },
  "0001": {
    "postcode": "1800001",
    "prefecture": "東京都",
    "prefecture_kana": "トウキョウト",
    "prefecture_code": 13,
    "city": "武蔵野市",
    "city_kana": "ムサシノシ",
    "town": "吉祥寺北町",
    "town_kana": "キチジョウジキタマチ",
    "street": null,
    "office_name": null,
    "office_name_kana": null
  },
  "0002": {
    "postcode": "1800002",
    "prefecture": "東京都",
    "prefecture_kana": "トウキョウト",
    "prefecture_code": 13,
    "city": "武蔵野市",
    "city_kana": "ムサシノシ",
    "town": "吉祥寺東町",
    "town_kana": "キチジョウジヒガシチョウ",
    "street": null,
    "office_name": null,
    "office_name_kana": null
  },
  "0003": {
    "postcode": "1800003",
    "prefecture": "東京都",
    "prefecture_kana": "トウキョウト",
    "prefecture_code": 13,
    "city": "武蔵野市",
    "city_kana": "ムサシノシ",
    "town": "吉祥寺南町",
    "town_kana": "キチジョウジミナミチョウ",
    "street": null,
    "office_name": null,
    "office_name_kana": null
  },
  "0004": {
    "postcode": "1800004",
    "prefecture": "東京都",
    "prefecture_kana": "トウキョウト",
    "prefecture_code": 13,
    "city": "武蔵野市",
    "city_kana": "ムサシノシ",
    "town": "吉祥寺本町",
    "town_kana": "キチジョウジホンチョウ",
    "street": null,
    "office_name": null,
    "office_name_kana": null
  },
  "0005": {
    "postcode": "1800005",
    "prefecture": "東京都",
    "prefecture_kana": "トウキョウト",
    "prefecture_code": 13,
    "city": "武蔵野市",
    "city_kana": "ムサシノシ",
    "town": "御殿山",
    "town_kana": "ゴテンヤマ",
    "street": null,
    "office_name": null,
    "office_name_kana": null
  },
  "0006": {
    "postcode": "1800006",
    "prefecture": "東京都",
    "prefecture_kana": "トウキョウト",
    "prefecture_code": 13,
    "city": "武蔵野市",
    "city_kana": "ムサシノシ",
    "town": "中町",
    "town_kana": "ナカチョウ",
    "street": null,
    "office_name": null,
    "office_name_kana": null
  },
  "0011": {
    "postcode": "1800011",
    "prefecture": "東京都",
    "prefecture_kana": "トウキョウト",
    "prefecture_code": 13,
    "city": "武蔵野市",
    "city_kana": "ムサシノシ",
    "town": "八幡町",
    "town_kana": "ヤハタチョウ",
    "street": null,
    "office_name": null,
    "office_name_kana": null
  },
  "0012": {
    "postcode": "1800012",
    "prefecture": "東京都",
    "prefecture_kana": "トウキョウト",
    "prefecture_code": 13,
    "city": "武蔵野市",
    "city_kana": "ムサシノシ",
    "town": "緑町",
    "town_kana": "ミドリチョウ",
    "street": null,
    "office_name": null,
    "office_name_kana": null
  },
  "0013": {
    "postcode": "1800013",
    "prefecture": "東京都",
    "prefecture_kana": "トウキョウト",
    "prefecture_code": 13,
    "city": "武蔵野市",
    "city_kana": "ムサシノシ",
    "town": "西久保",
    "town_kana": "ニシクボ",
    "street": null,
    "office_name": null,
    "office_name_kana": null
  },
  "0014": {
    "postcode": "1800014",
    "prefecture": "東京都",
    "prefecture_kana": "トウキョウト",
    "prefecture_code": 13,
    "city": "武蔵野市",
    "city_kana": "ムサシノシ",
    "town": "関前",
    "town_kana": "セキマエ",
    "street": null,
    "office_name": null,
    "office_name_kana": null
  },
  "0021": {
    "postcode": "1800021",
    "prefecture": "東京都",
    "prefecture_kana": "トウキョウト",
    "prefecture_code": 13,
    "city": "武蔵野市",
    "city_kana": "ムサシノシ",
    "town": "桜堤",
    "town_kana": "サクラヅツミ",
    "street": null,
    "office_name": null,
    "office_name_kana": null
  },
  "0022": {
    "postcode": "1800022",
    "prefecture": "東京都",
    "prefecture_kana": "トウキョウト",
    "prefecture_code": 13,
    "city": "武蔵野市",
    "city_kana": "ムサシノシ",
    "town": "境",
    "town_kana": "サカイ",
    "street": null,
    "office_name": null,
    "office_name_kana": null
  },
  "0023": {
    "postcode": "1800023",
    "prefecture": "東京都",
    "prefecture_kana": "トウキョウト",
    "prefecture_code": 13,
    "city": "武蔵野市",
    "city_kana": "ムサシノシ",
    "town": "境南町",
    "town_kana": "キョウナンチョウ",
    "street": null,
    "office_name": null,
    "office_name_kana": null
  },
  "8505": {
    "postcode": "1808505",
    "prefecture": "東京都",
    "prefecture_kana": "トウキョウト",
    "prefecture_code": 13,
    "city": "武蔵野市",
    "city_kana": "ムサシノシ",
    "town": "吉祥寺本町",
    "town_kana": "キチジョウジホンチョウ",
    "street": "２丁目１６−３",
    "office_name": "学校法人　井之頭学園藤村女子中学・高等学校",
    "office_name_kana": "ガク) イノガシラガクエン フジムラジヨシチユウガク・コウトウガツコウ"
  },
  "8508": {
    "postcode": "1808508",
    "prefecture": "東京都",
    "prefecture_kana": "トウキョウト",
    "prefecture_code": 13,
    "city": "武蔵野市",
    "city_kana": "ムサシノシ",
    "town": "吉祥寺本町",
    "town_kana": "キチジョウジホンチョウ",
    "street": "２丁目６−８",
    "office_name": "株式会社　日本マイクロニクス",
    "office_name_kana": "カブシキガイシヤ ニホンマイクロニクス"
  },
  "8517": {
    "postcode": "1808517",
    "prefecture": "東京都",
    "prefecture_kana": "トウキョウト",
    "prefecture_code": 13,
    "city": "武蔵野市",
    "city_kana": "ムサシノシ",
    "town": "吉祥寺本町",
    "town_kana": "キチジョウジホンチョウ",
    "street": "１丁目１７−１２吉祥寺永楽ビル３階",
    "office_name": "サンケイリビング新聞社　武蔵野本部",
    "office_name_kana": "サンケイリビングシンブンシヤ ムサシノホンブ"
  },
  "8519": {
    "postcode": "1808519",
    "prefecture": "東京都",
    "prefecture_kana": "トウキョウト",
    "prefecture_code": 13,
    "city": "武蔵野市",
    "city_kana": "ムサシノシ",
    "town": "吉祥寺本町",
    "town_kana": "キチジョウジホンチョウ",
    "street": "２丁目３−１",
    "office_name": "株式会社　東急百貨店　吉祥寺店",
    "office_name_kana": "カブシキガイシヤ トウキユウヒヤツカテン キチジヨウジテン"
  },
  "8520": {
    "postcode": "1808520",
    "prefecture": "東京都",
    "prefecture_kana": "トウキョウト",
    "prefecture_code": 13,
    "city": "武蔵野市",
    "city_kana": "ムサシノシ",
    "town": "吉祥寺本町",
    "town_kana": "キチジョウジホンチョウ",
    "street": "１−５−１",
    "office_name": "株式会社　パルコ　吉祥寺店",
    "office_name_kana": "カブシキガイシヤ パルコ キチジヨウジテン"
  },
  "8522": {
    "postcode": "1808522",
    "prefecture": "東京都",
    "prefecture_kana": "トウキョウト",
    "prefecture_code": 13,
    "city": "武蔵野市",
    "city_kana": "ムサシノシ",
    "town": "吉祥寺本町",
    "town_kana": "キチジョウジホンチョウ",
    "street": "３丁目２７−１",
    "office_name": "武蔵野税務署",
    "office_name_kana": "ムサシノゼイムシヨ"
  },
  "8527": {
    "postcode": "1808527",
    "prefecture": "東京都",
    "prefecture_kana": "トウキョウト",
    "prefecture_code": 13,
    "city": "武蔵野市",
    "city_kana": "ムサシノシ",
    "town": "吉祥寺本町",
    "town_kana": "キチジョウジホンチョウ",
    "street": "２−３４−９ヴェルメゾン本町３０３号",
    "office_name": "株式会社　冬水社",
    "office_name_kana": "カブシキガイシヤ トウスイシヤ"
  },
  "8531": {
    "postcode": "1808531",
    "prefecture": "東京都",
    "prefecture_kana": "トウキョウト",
    "prefecture_code": 13,
    "city": "武蔵野市",
    "city_kana": "ムサシノシ",
    "town": "中町",
    "town_kana": "ナカチョウ",
    "street": "１丁目２０−８",
    "office_name": "大樹生命　武蔵野統括営業部",
    "office_name_kana": "タイジユセイメイ ムサシノトウカツエイギヨウブ"
  },
  "8533": {
    "postcode": "1808533",
    "prefecture": "東京都",
    "prefecture_kana": "トウキョウト",
    "prefecture_code": 13,
    "city": "武蔵野市",
    "city_kana": "ムサシノシ",
    "town": "中町",
    "town_kana": "ナカチョウ",
    "street": "２丁目４−５",
    "office_name": "名糖運輸　株式会社",
    "office_name_kana": "メイトウウンユ カブシキガイシヤ"
  },
  "8566": {
    "postcode": "1808566",
    "prefecture": "東京都",
    "prefecture_kana": "トウキョウト",
    "prefecture_code": 13,
    "city": "武蔵野市",
    "city_kana": "ムサシノシ",
    "town": "吉祥寺東町",
    "town_kana": "キチジョウジヒガシチョウ",
    "street": "３丁目３−７",
    "office_name": "学校法人　武蔵野美術大学　武蔵野美術学園　武蔵野美術大学短期大学部　通信教育部",
    "office_name_kana": "ガツコウホウジン ムサシノビジユツダイガク ムサシノビジユツガクエン ムサシノビジユツダイガクタンキダイガクブ ツウシンキヨウイクブ"
  },
  "8571": {
    "postcode": "1808571",
    "prefecture": "東京都",
    "prefecture_kana": "トウキョウト",
    "prefecture_code": 13,
    "city": "武蔵野市",
    "city_kana": "ムサシノシ",
    "town": "西久保",
    "town_kana": "ニシクボ",
    "street": "１丁目６−２７",
    "office_name": "多摩信用金庫　武蔵野支店",
    "office_name_kana": "タマシンヨウキンコ ムサシノシテン"
  },
  "8577": {
    "postcode": "1808577",
    "prefecture": "東京都",
    "prefecture_kana": "トウキョウト",
    "prefecture_code": 13,
    "city": "武蔵野市",
    "city_kana": "ムサシノシ",
    "town": "西久保",
    "town_kana": "ニシクボ",
    "street": "１丁目６−２４",
    "office_name": "東京電力　株式会社　武蔵野支社",
    "office_name_kana": "トウキヨウデンリヨク カブシキガイシヤ ムサシノシシヤ"
  },
  "8580": {
    "postcode": "1808580",
    "prefecture": "東京都",
    "prefecture_kana": "トウキョウト",
    "prefecture_code": 13,
    "city": "武蔵野市",
    "city_kana": "ムサシノシ",
    "town": "西久保",
    "town_kana": "ニシクボ",
    "street": "１丁目２５−８",
    "office_name": "株式会社　すかいらーくホールディングス",
    "office_name_kana": "カブシキカイシヤ スカイラ-クホ-ルデイングス"
  },
  "8602": {
    "postcode": "1808602",
    "prefecture": "東京都",
    "prefecture_kana": "トウキョウト",
    "prefecture_code": 13,
    "city": "武蔵野市",
    "city_kana": "ムサシノシ",
    "town": "境南町",
    "town_kana": "キョウナンチョウ",
    "street": "１丁目７−１",
    "office_name": "日本獣医畜産大学",
    "office_name_kana": "ニホンジユウイチクサンダイガク"
  },
  "8608": {
    "postcode": "1808608",
    "prefecture": "東京都",
    "prefecture_kana": "トウキョウト",
    "prefecture_code": 13,
    "city": "武蔵野市",
    "city_kana": "ムサシノシ",
    "town": "西久保",
    "town_kana": "ニシクボ",
    "street": "１丁目２５−８第２ビル３Ｆ",
    "office_name": "株式会社　すかいらーくＤ＆Ｍ",
    "office_name_kana": "カブシキガイシヤ スカイラ-クデイ-アンドエム"
  },
  "8610": {
    "postcode": "1808610",
    "prefecture": "東京都",
    "prefecture_kana": "トウキョウト",
    "prefecture_code": 13,
    "city": "武蔵野市",
    "city_kana": "ムサシノシ",
    "town": "境南町",
    "town_kana": "キョウナンチョウ",
    "street": "１丁目２６−１",
    "office_name": "武蔵野赤十字病院",
    "office_name_kana": "ムサシノセキジユウジビヨウイン"
  },
  "8611": {
    "postcode": "1808611",
    "prefecture": "東京都",
    "prefecture_kana": "トウキョウト",
    "prefecture_code": 13,
    "city": "武蔵野市",
    "city_kana": "ムサシノシ",
    "town": "境南町",
    "town_kana": "キョウナンチョウ",
    "street": "５丁目１−２１",
    "office_name": "ユニダックス　株式会社",
    "office_name_kana": "ユニダツクス カブシキガイシヤ"
  },
  "8618": {
    "postcode": "1808618",
    "prefecture": "東京都",
    "prefecture_kana": "トウキョウト",
    "prefecture_code": 13,
    "city": "武蔵野市",
    "city_kana": "ムサシノシ",
    "town": "境南町",
    "town_kana": "キョウナンチョウ",
    "street": "１丁目２６−３３",
    "office_name": "日本赤十字武蔵野短期大学",
    "office_name_kana": "ニホンセキジユウジムサシノタンキダイガク"
  },
  "8629": {
    "postcode": "1808629",
    "prefecture": "東京都",
    "prefecture_kana": "トウキョウト",
    "prefecture_code": 13,
    "city": "武蔵野市",
    "city_kana": "ムサシノシ",
    "town": "境",
    "town_kana": "サカイ",
    "street": "５丁目８番",
    "office_name": "学校法人　亜細亜学園",
    "office_name_kana": "ガツコウホウジン アジアガクエン"
  },
  "8633": {
    "postcode": "1808633",
    "prefecture": "東京都",
    "prefecture_kana": "トウキョウト",
    "prefecture_code": 13,
    "city": "武蔵野市",
    "city_kana": "ムサシノシ",
    "town": "吉祥寺北町",
    "town_kana": "キチジョウジキタマチ",
    "street": "３丁目３−１",
    "office_name": "学校法人　成蹊学園（成蹊大学・成蹊高等学校・成蹊中学校・成蹊小学校）",
    "office_name_kana": "ガツコウホウジン セイケイガクエン(セイケイダイガク・セイケイコウトウガツコウ・セイケイチユウガツコウ・セイケイシヨウガツコウ)"
  },
  "8750": {
    "postcode": "1808750",
    "prefecture": "東京都",
    "prefecture_kana": "トウキョウト",
    "prefecture_code": 13,
    "city": "武蔵野市",
    "city_kana": "ムサシノシ",
    "town": "中町",
    "town_kana": "ナカチョウ",
    "street": "２丁目９−３２（武蔵野郵便局私書箱第６号）",
    "office_name": "横河電機　株式会社",
    "office_name_kana": "ヨコカワデンキ カブシキガイシヤ"
  },
  "8777": {
    "postcode": "1808777",
    "prefecture": "東京都",
    "prefecture_kana": "トウキョウト",
    "prefecture_code": 13,
    "city": "武蔵野市",
    "city_kana": "ムサシノシ",
    "town": "緑町",
    "town_kana": "ミドリチョウ",
    "street": "２丁目２−２８",
    "office_name": "武蔵野市役所",
    "office_name_kana": "ムサシノシヤクシヨ"
  }
}