{
  "0000": {
    "postcode": "1820000",
    "prefecture": "東京都",
    "prefecture_kana": "トウキョウト",
    "prefecture_code": 13,
    "city": "調布市",
    "city_kana": "チョウフシ",
    "town": "",
    "town_kana": "",
    "street": null,
    "office_name": null,
    "office_name_kana": null
  },
  "0001": {
    "postcode": "1820001",
    "prefecture": "東京都",
    "prefecture_kana": "トウキョウト",
    "prefecture_code": 13,
    "city": "調布市",
    "city_kana": "チョウフシ",
    "town": "緑ケ丘",
    "town_kana": "ミドリガオカ",
    "street": null,
    "office_name": null,
    "office_name_kana": null
  },
  "0002": {
    "postcode": "1820002",
    "prefecture": "東京都",
    "prefecture_kana": "トウキョウト",
    "prefecture_code": 13,
    "city": "調布市",
    "city_kana": "チョウフシ",
    "town": "仙川町",
    "town_kana": "センガワチョウ",
    "street": null,
    "office_name": null,
    "office_name_kana": null
  },
  "0003": {
    "postcode": "1820003",
    "prefecture": "東京都",
    "prefecture_kana": "トウキョウト",
    "prefecture_code": 13,
    "city": "調布市",
    "city_kana": "チョウフシ",
    "town": "若葉町",
    "town_kana": "ワカバチョウ",
    "street": null,
    "office_name": null,
    "office_name_kana": null
  },
  "0004": {
    "postcode": "1820004",
    "prefecture": "東京都",
    "prefecture_kana": "トウキョウト",
    "prefecture_code": 13,
    "city": "調布市",
    "city_kana": "チョウフシ",
    "town": "入間町",
    "town_kana": "イリマチョウ",
    "street": null,
    "office_name": null,
    "office_name_kana": null
  },
  "0005": {
    "postcode": "1820005",
    "prefecture": "東京都",
    "prefecture_kana": "トウキョウト",
    "prefecture_code": 13,
    "city": "調布市",
    "city_kana": "チョウフシ",
    "town": "東つつじケ丘",
    "town_kana": "ヒガシツツジガオカ",
    "street": null,
    "office_name": null,
    "office_name_kana": null
  },
  "0006": {
    "postcode": "1820006",
    "prefecture": "東京都",
    "prefecture_kana": "トウキョウト",
    "prefecture_code": 13,
    "city": "調布市",
    "city_kana": "チョウフシ",
    "town": "西つつじケ丘",
    "town_kana": "ニシツツジガオカ",
    "street": null,
    "office_name": null,
    "office_name_kana": null
  },
  "0007": {
    "postcode": "1820007",
    "prefecture": "東京都",
    "prefecture_kana": "トウキョウト",
    "prefecture_code": 13,
    "city": "調布市",
    "city_kana": "チョウフシ",
    "town": "菊野台",
    "town_kana": "キクノダイ",
    "street": null,
    "office_name": null,
    "office_name_kana": null
  },
  "0011": {
    "postcode": "1820011",
    "prefecture": "東京都",
    "prefecture_kana": "トウキョウト",
    "prefecture_code": 13,
    "city": "調布市",
    "city_kana": "チョウフシ",
    "town": "深大寺北町",
    "town_kana": "ジンダイジキタマチ",
    "street": null,
    "office_name": null,
    "office_name_kana": null
  },
  "0012": {
    "postcode": "1820012",
    "prefecture": "東京都",
    "prefecture_kana": "トウキョウト",
    "prefecture_code": 13,
    "city": "調布市",
    "city_kana": "チョウフシ",
    "town": "深大寺東町",
    "town_kana": "ジンダイジヒガシマチ",
    "street": null,
    "office_name": null,
    "office_name_kana": null
  },
  "0013": {
    "postcode": "1820013",
    "prefecture": "東京都",
    "prefecture_kana": "トウキョウト",
    "prefecture_code": 13,
    "city": "調布市",
    "city_kana": "チョウフシ",
    "town": "深大寺南町",
    "town_kana": "ジンダイジミナミマチ",
    "street": null,
    "office_name": null,
    "office_name_kana": null
  },
  "0014": {
    "postcode": "1820014",
    "prefecture": "東京都",
    "prefecture_kana": "トウキョウト",
    "prefecture_code": 13,
    "city": "調布市",
    "city_kana": "チョウフシ",
    "town": "柴崎",
    "town_kana": "シバサキ",
    "street": null,
    "office_name": null,
    "office_name_kana": null
  },
  "0015": {
    "postcode": "1820015",
    "prefecture": "東京都",
    "prefecture_kana": "トウキョウト",
    "prefecture_code": 13,
    "city": "調布市",
    "city_kana": "チョウフシ",
    "town": "八雲台",
    "town_kana": "ヤグモダイ",
    "street": null,
    "office_name": null,
    "office_name_kana": null
  },
  "0016": {
    "postcode": "1820016",
    "prefecture": "東京都",
    "prefecture_kana": "トウキョウト",
    "prefecture_code": 13,
    "city": "調布市",
    "city_kana": "チョウフシ",
    "town": "佐須町",
    "town_kana": "サズマチ",
    "street": null,
    "office_name": null,
    "office_name_kana": null
  },
  "0017": {
    "postcode": "1820017",
    "prefecture": "東京都",
    "prefecture_kana": "トウキョウト",
    "prefecture_code": 13,
    "city": "調布市",
    "city_kana": "チョウフシ",
    "town": "深大寺元町",
    "town_kana": "ジンダイジモトマチ",
    "street": null,
    "office_name": null,
    "office_name_kana": null
  },
  "0021": {
    "postcode": "1820021",
    "prefecture": "東京都",
    "prefecture_kana": "トウキョウト",
    "prefecture_code": 13,
    "city": "調布市",
    "city_kana": "チョウフシ",
    "town": "調布ケ丘",
    "town_kana": "チョウフガオカ",
    "street": null,
    "office_name": null,
    "office_name_kana": null
  },
  "0022": {
    "postcode": "1820022",
    "prefecture": "東京都",
    "prefecture_kana": "トウキョウト",
    "prefecture_code": 13,
    "city": "調布市",
    "city_kana": "チョウフシ",
    "town": "国領町",
    "town_kana": "コクリョウチョウ",
    "street": null,
    "office_name": null,
    "office_name_kana": null
  },
  "0023": {
    "postcode": "1820023",
    "prefecture": "東京都",
    "prefecture_kana": "トウキョウト",
    "prefecture_code": 13,
    "city": "調布市",
    "city_kana": "チョウフシ",
    "town": "染地",
    "town_kana": "ソメチ",
    "street": null,
    "office_name": null,
    "office_name_kana": null
  },
  "0024": {
    "postcode": "1820024",
    "prefecture": "東京都",
    "prefecture_kana": "トウキョウト",
    "prefecture_code": 13,
    "city": "調布市",
    "city_kana": "チョウフシ",
    "town": "布田",
    "town_kana": "フダ",
    "street": null,
    "office_name": null,
    "office_name_kana": null
  },
  "0025": {
    "postcode": "1820025",
    "prefecture": "東京都",
    "prefecture_kana": "トウキョウト",
    "prefecture_code": 13,
    "city": "調布市",
    "city_kana": "チョウフシ",
    "town": "多摩川",
    "town_kana": "タマガワ",
    "street": null,
    "office_name": null,
    "office_name_kana": null
  },
  "0026": {
    "postcode": "1820026",
    "prefecture": "東京都",
    "prefecture_kana": "トウキョウト",
    "prefecture_code": 13,
    "city": "調布市",
    "city_kana": "チョウフシ",
    "town": "小島町",
    "town_kana": "コジマチョウ",
    "street": null,
    "office_name": null,
    "office_name_kana": null
  },
  "0031": {
    "postcode": "1820031",
    "prefecture": "東京都",
    "prefecture_kana": "トウキョウト",
    "prefecture_code": 13,
    "city": "調布市",
    "city_kana": "チョウフシ",
    "town": "野水",
    "town_kana": "ノミズ",
    "street": null,
    "office_name": null,
    "office_name_kana": null
  },
  "0032": {
    "postcode": "1820032",
    "prefecture": "東京都",
    "prefecture_kana": "トウキョウト",
    "prefecture_code": 13,
    "city": "調布市",
    "city_kana": "チョウフシ",
    "town": "西町",
    "town_kana": "ニシマチ",
    "street": null,
    "office_name": null,
    "office_name_kana": null
  },
  "0033": {
    "postcode": "1820033",
    "prefecture": "東京都",
    "prefecture_kana": "トウキョウト",
    "prefecture_code": 13,
    "city": "調布市",
    "city_kana": "チョウフシ",
    "town": "富士見町",
    "town_kana": "フジミチョウ",
    "street": null,
    "office_name": null,
    "office_name_kana": null
  },
  "0034": {
    "postcode": "1820034",
    "prefecture": "東京都",
    "prefecture_kana": "トウキョウト",
    "prefecture_code": 13,
    "city": "調布市",
    "city_kana": "チョウフシ",
    "town": "下石原",
    "town_kana": "シモイシワラ",
    "street": null,
    "office_name": null,
    "office_name_kana": null
  },
  "0035": {
    "postcode": "1820035",
    "prefecture": "東京都",
    "prefecture_kana": "トウキョウト",
    "prefecture_code": 13,
    "city": "調布市",
    "city_kana": "チョウフシ",
    "town": "上石原",
    "town_kana": "カミイシワラ",
    "street": null,
    "office_name": null,
    "office_name_kana": null
  },
  "0036": {
    "postcode": "1820036",
    "prefecture": "東京都",
    "prefecture_kana": "トウキョウト",
    "prefecture_code": 13,
    "city": "調布市",
    "city_kana": "チョウフシ",
    "town": "飛田給",
    "town_kana": "トビタキュウ",
    "street": null,
    "office_name": null,
    "office_name_kana": null
  },
  "8001": {
    "postcode": "1828001",
    "prefecture": "東京都",
    "prefecture_kana": "トウキョウト",
    "prefecture_code": 13,
    "city": "調布市",
    "city_kana": "チョウフシ",
    "town": "小島町",
    "town_kana": "コジマチョウ",
    "street": "２丁目４８−２６（調布郵便局私書箱第５０号）",
    "office_name": "アフラック調布サウスゲートビル",
    "office_name_kana": "アフラツクチヨウフサウスゲ-トビル"
  },
  "8006": {
    "postcode": "1828006",
    "prefecture": "東京都",
    "prefecture_kana": "トウキョウト",
    "prefecture_code": 13,
    "city": "調布市",
    "city_kana": "チョウフシ",
    "town": "小島町",
    "town_kana": "コジマチョウ",
    "street": "２丁目３３−２（調布郵便局私書箱第４８号）",
    "office_name": "アフラック　調布スクエアビル",
    "office_name_kana": "アフラツク チヨウフスクエアビル"
  },
  "8508": {
    "postcode": "1828508",
    "prefecture": "東京都",
    "prefecture_kana": "トウキョウト",
    "prefecture_code": 13,
    "city": "調布市",
    "city_kana": "チョウフシ",
    "town": "深大寺東町",
    "town_kana": "ジンダイジヒガシマチ",
    "street": "４丁目３５−３",
    "office_name": "消防大学校",
    "office_name_kana": "シヨウボウダイガツコウ"
  },
  "8510": {
    "postcode": "1828510",
    "prefecture": "東京都",
    "prefecture_kana": "トウキョウト",
    "prefecture_code": 13,
    "city": "調布市",
    "city_kana": "チョウフシ",
    "town": "若葉町",
    "town_kana": "ワカバチョウ",
    "street": "１丁目４１−１",
    "office_name": "桐朋学園　女子部門",
    "office_name_kana": "トウホウガクエン ジヨシブモン"
  },
  "8511": {
    "postcode": "1828511",
    "prefecture": "東京都",
    "prefecture_kana": "トウキョウト",
    "prefecture_code": 13,
    "city": "調布市",
    "city_kana": "チョウフシ",
    "town": "小島町",
    "town_kana": "コジマチョウ",
    "street": "２丁目３５−１",
    "office_name": "調布市役所",
    "office_name_kana": "チヨウフシヤクシヨ"
  },
  "8512": {
    "postcode": "1828512",
    "prefecture": "東京都",
    "prefecture_kana": "トウキョウト",
    "prefecture_code": 13,
    "city": "調布市",
    "city_kana": "チョウフシ",
    "town": "小島町",
    "town_kana": "コジマチョウ",
    "street": "２丁目５６−３",
    "office_name": "林建設　株式会社",
    "office_name_kana": "ハヤシケンセツ カブシキガイシヤ"
  },
  "8520": {
    "postcode": "1828520",
    "prefecture": "東京都",
    "prefecture_kana": "トウキョウト",
    "prefecture_code": 13,
    "city": "調布市",
    "city_kana": "チョウフシ",
    "town": "調布ケ丘",
    "town_kana": "チョウフガオカ",
    "street": "３丁目５−１",
    "office_name": "株式会社　共和電業",
    "office_name_kana": "カブシキガイシヤ キヨウワデンギヨウ"
  },
  "8522": {
    "postcode": "1828522",
    "prefecture": "東京都",
    "prefecture_kana": "トウキョウト",
    "prefecture_code": 13,
    "city": "調布市",
    "city_kana": "チョウフシ",
    "town": "深大寺東町",
    "town_kana": "ジンダイジヒガシマチ",
    "street": "７丁目４４番地１",
    "office_name": "国立研究開発法人　宇宙航空研究開発機構",
    "office_name_kana": "コクリツケンキユウカイハツホウジン ウチユウコウクウケンキユウカイハツキコウ"
  },
  "8525": {
    "postcode": "1828525",
    "prefecture": "東京都",
    "prefecture_kana": "トウキョウト",
    "prefecture_code": 13,
    "city": "調布市",
    "city_kana": "チョウフシ",
    "town": "緑ケ丘",
    "town_kana": "ミドリガオカ",
    "street": "１丁目２５",
    "office_name": "白百合女子大学",
    "office_name_kana": "シラユリジヨシダイガク"
  },
  "8555": {
    "postcode": "1828555",
    "prefecture": "東京都",
    "prefecture_kana": "トウキョウト",
    "prefecture_code": 13,
    "city": "調布市",
    "city_kana": "チョウフシ",
    "town": "富士見町",
    "town_kana": "フジミチョウ",
    "street": "２丁目１３",
    "office_name": "株式会社　東京現像所",
    "office_name_kana": "カブシキガイシヤ トウキヨウゲンゾウシヨ"
  },
  "8558": {
    "postcode": "1828558",
    "prefecture": "東京都",
    "prefecture_kana": "トウキョウト",
    "prefecture_code": 13,
    "city": "調布市",
    "city_kana": "チョウフシ",
    "town": "仙川町",
    "town_kana": "センガワチョウ",
    "street": "２丁目５",
    "office_name": "キユーピー　株式会社　仙川工場",
    "office_name_kana": "キユ-ピ- カブシキガイシヤ センガワコウジヨウ"
  },
  "8567": {
    "postcode": "1828567",
    "prefecture": "東京都",
    "prefecture_kana": "トウキョウト",
    "prefecture_code": 13,
    "city": "調布市",
    "city_kana": "チョウフシ",
    "town": "仙川町",
    "town_kana": "センガワチョウ",
    "street": "２丁目１９−５",
    "office_name": "小田急バス　株式会社",
    "office_name_kana": "オダキユウバス カブシキガイシヤ"
  },
  "8570": {
    "postcode": "1828570",
    "prefecture": "東京都",
    "prefecture_kana": "トウキョウト",
    "prefecture_code": 13,
    "city": "調布市",
    "city_kana": "チョウフシ",
    "town": "国領町",
    "town_kana": "コクリョウチョウ",
    "street": "８丁目３−１",
    "office_name": "東京慈恵会　医科大学",
    "office_name_kana": "トウキヨウジケイカイ イカダイガク"
  },
  "8585": {
    "postcode": "1828585",
    "prefecture": "東京都",
    "prefecture_kana": "トウキョウト",
    "prefecture_code": 13,
    "city": "調布市",
    "city_kana": "チョウフシ",
    "town": "調布ケ丘",
    "town_kana": "チョウフガオカ",
    "street": "１丁目５−１",
    "office_name": "電気通信大学",
    "office_name_kana": "デンキツウシンダイガク"
  },
  "8601": {
    "postcode": "1828601",
    "prefecture": "東京都",
    "prefecture_kana": "トウキョウト",
    "prefecture_code": 13,
    "city": "調布市",
    "city_kana": "チョウフシ",
    "town": "国領町",
    "town_kana": "コクリョウチョウ",
    "street": "４丁目３４−１（調布郵便局私書箱第７号）",
    "office_name": "第百生命保険　相互会社",
    "office_name_kana": "ダイヒヤクセイメイホケン ソウゴガイシヤ"
  },
  "8602": {
    "postcode": "1828602",
    "prefecture": "東京都",
    "prefecture_kana": "トウキョウト",
    "prefecture_code": 13,
    "city": "調布市",
    "city_kana": "チョウフシ",
    "town": "柴崎",
    "town_kana": "シバサキ",
    "street": "２丁目１−３（調布郵便局私書箱第１１号）",
    "office_name": "島田理化工業　（株）",
    "office_name_kana": "シマダリカコウギヨウ カブシキガイシヤ"
  },
  "8621": {
    "postcode": "1828621",
    "prefecture": "東京都",
    "prefecture_kana": "トウキョウト",
    "prefecture_code": 13,
    "city": "調布市",
    "city_kana": "チョウフシ",
    "town": "国領町",
    "town_kana": "コクリョウチョウ",
    "street": "４丁目３４−１（調布郵便局私書箱第２０号）",
    "office_name": "マニュライフ・センチュリー生命保険　株式会社",
    "office_name_kana": "マニユライフ・センチユリ-セイメイホケン カブシキガイシヤ"
  }
}