{
  "0000": {
    "postcode": "1860000",
    "prefecture": "東京都",
    "prefecture_kana": "トウキョウト",
    "prefecture_code": 13,
    "city": "国立市",
    "city_kana": "クニタチシ",
    "town": "",
    "town_kana": "",
    "street": null,
    "office_name": null,
    "office_name_kana": null
  },
  "0001": {
    "postcode": "1860001",
    "prefecture": "東京都",
    "prefecture_kana": "トウキョウト",
    "prefecture_code": 13,
    "city": "国立市",
    "city_kana": "クニタチシ",
    "town": "北",
    "town_kana": "キタ",
    "street": null,
    "office_name": null,
    "office_name_kana": null
  },
  "0002": {
    "postcode": "1860002",
    "prefecture": "東京都",
    "prefecture_kana": "トウキョウト",
    "prefecture_code": 13,
    "city": "国立市",
    "city_kana": "クニタチシ",
    "town": "東",
    "town_kana": "ヒガシ",
    "street": null,
    "office_name": null,
    "office_name_kana": null
  },
  "0003": {
    "postcode": "1860003",
    "prefecture": "東京都",
    "prefecture_kana": "トウキョウト",
    "prefecture_code": 13,
    "city": "国立市",
    "city_kana": "クニタチシ",
    "town": "富士見台",
    "town_kana": "フジミダイ",
    "street": null,
    "office_name": null,
    "office_name_kana": null
  },
  "0004": {
    "postcode": "1860004",
    "prefecture": "東京都",
    "prefecture_kana": "トウキョウト",
    "prefecture_code": 13,
    "city": "国立市",
    "city_kana": "クニタチシ",
    "town": "中",
    "town_kana": "ナカ",
    "street": null,
    "office_name": null,
    "office_name_kana": null
  },
  "0005": {
    "postcode": "1860005",
    "prefecture": "東京都",
    "prefecture_kana": "トウキョウト",
    "prefecture_code": 13,
    "city": "国立市",
    "city_kana": "クニタチシ",
    "town": "西",
    "town_kana": "ニシ",
    "street": null,
    "office_name": null,
    "office_name_kana": null
  },
  "0011": {
    "postcode": "1860011",
    "prefecture": "東京都",
    "prefecture_kana": "トウキョウト",
    "prefecture_code": 13,
    "city": "国立市",
    "city_kana": "クニタチシ",
    "town": "谷保",
    "town_kana": "ヤホ",
    "street": null,
    "office_name": null,
    "office_name_kana": null
  },
  "0012": {
    "postcode": "1860012",
    "prefecture": "東京都",
    "prefecture_kana": "トウキョウト",
    "prefecture_code": 13,
    "city": "国立市",
    "city_kana": "クニタチシ",
    "town": "泉",
    "town_kana": "イズミ",
    "street": null,
    "office_name": null,
    "office_name_kana": null
  },
  "0013": {
    "postcode": "1860013",
    "prefecture": "東京都",
    "prefecture_kana": "トウキョウト",
    "prefecture_code": 13,
    "city": "国立市",
    "city_kana": "クニタチシ",
    "town": "青柳",
    "town_kana": "アオヤギ",
    "street": null,
    "office_name": null,
    "office_name_kana": null
  },
  "0014": {
    "postcode": "1860014",
    "prefecture": "東京都",
    "prefecture_kana": "トウキョウト",
    "prefecture_code": 13,
    "city": "国立市",
    "city_kana": "クニタチシ",
    "town": "石田",
    "town_kana": "イシダ",
    "street": null,
    "office_name": null,
    "office_name_kana": null
  },
  "0015": {
    "postcode": "1860015",
    "prefecture": "東京都",
    "prefecture_kana": "トウキョウト",
    "prefecture_code": 13,
    "city": "国立市",
    "city_kana": "クニタチシ",
    "town": "矢川",
    "town_kana": "ヤガワ",
    "street": null,
    "office_name": null,
    "office_name_kana": null
  },
  "8001": {
    "postcode": "1868001",
    "prefecture": "東京都",
    "prefecture_kana": "トウキョウト",
    "prefecture_code": 13,
    "city": "国立市",
    "city_kana": "クニタチシ",
    "town": "富士見台",
    "town_kana": "フジミダイ",
    "street": "２丁目３６番地２（国立郵便局私書箱第１２号）",
    "office_name": "学校法人　ＮＨＫ学園",
    "office_name_kana": "ガツコウホウジン エヌエイチケイガクエン"
  },
  "8501": {
    "postcode": "1868501",
    "prefecture": "東京都",
    "prefecture_kana": "トウキョウト",
    "prefecture_code": 13,
    "city": "国立市",
    "city_kana": "クニタチシ",
    "town": "富士見台",
    "town_kana": "フジミダイ",
    "street": "２丁目４７−１",
    "office_name": "国立市役所",
    "office_name_kana": "クニタチシヤクシヨ"
  },
  "8505": {
    "postcode": "1868505",
    "prefecture": "東京都",
    "prefecture_kana": "トウキョウト",
    "prefecture_code": 13,
    "city": "国立市",
    "city_kana": "クニタチシ",
    "town": "東",
    "town_kana": "ヒガシ",
    "street": "１丁目４−１５−６Ｆ",
    "office_name": "ユアサ商事　株式会社　西関東営業所",
    "office_name_kana": "ユアサシヨウジ カブシキガイシヤ ニシカントウエイギヨウシヨ"
  },
  "8519": {
    "postcode": "1868519",
    "prefecture": "東京都",
    "prefecture_kana": "トウキョウト",
    "prefecture_code": 13,
    "city": "国立市",
    "city_kana": "クニタチシ",
    "town": "中",
    "town_kana": "ナカ",
    "street": "１丁目８−５",
    "office_name": "進学舎",
    "office_name_kana": "シンガクシヤ"
  },
  "8585": {
    "postcode": "1868585",
    "prefecture": "東京都",
    "prefecture_kana": "トウキョウト",
    "prefecture_code": 13,
    "city": "国立市",
    "city_kana": "クニタチシ",
    "town": "東",
    "town_kana": "ヒガシ",
    "street": "１丁目７−５弥生ビル",
    "office_name": "株式会社　セカンドスタッフ（パラダイスレコード）",
    "office_name_kana": "カブシキガイシヤ セカンドスタツフ(パラダイスレコ-ド)"
  },
  "8601": {
    "postcode": "1868601",
    "prefecture": "東京都",
    "prefecture_kana": "トウキョウト",
    "prefecture_code": 13,
    "city": "国立市",
    "city_kana": "クニタチシ",
    "town": "中",
    "town_kana": "ナカ",
    "street": "２丁目１",
    "office_name": "一橋大学",
    "office_name_kana": "ヒトツバシダイガク"
  },
  "8602": {
    "postcode": "1868602",
    "prefecture": "東京都",
    "prefecture_kana": "トウキョウト",
    "prefecture_code": 13,
    "city": "国立市",
    "city_kana": "クニタチシ",
    "town": "中",
    "town_kana": "ナカ",
    "street": "２丁目１",
    "office_name": "一橋大学付属図書館",
    "office_name_kana": "ヒトツバシダイガクフヅクトシヨカン"
  },
  "8603": {
    "postcode": "1868603",
    "prefecture": "東京都",
    "prefecture_kana": "トウキョウト",
    "prefecture_code": 13,
    "city": "国立市",
    "city_kana": "クニタチシ",
    "town": "中",
    "town_kana": "ナカ",
    "street": "２丁目１",
    "office_name": "一橋大学経済研究所",
    "office_name_kana": "ヒトツバシダイガクケイザイケンキユウジヨ"
  },
  "8611": {
    "postcode": "1868611",
    "prefecture": "東京都",
    "prefecture_kana": "トウキョウト",
    "prefecture_code": 13,
    "city": "国立市",
    "city_kana": "クニタチシ",
    "town": "東",
    "town_kana": "ヒガシ",
    "street": "１丁目４",
    "office_name": "ＥＮＡ",
    "office_name_kana": "エナ"
  },
  "8619": {
    "postcode": "1868619",
    "prefecture": "東京都",
    "prefecture_kana": "トウキョウト",
    "prefecture_code": 13,
    "city": "国立市",
    "city_kana": "クニタチシ",
    "town": "中",
    "town_kana": "ナカ",
    "street": "１丁目８−３３",
    "office_name": "進研社",
    "office_name_kana": "シンケンシヤ"
  },
  "8650": {
    "postcode": "1868650",
    "prefecture": "東京都",
    "prefecture_kana": "トウキョウト",
    "prefecture_code": 13,
    "city": "国立市",
    "city_kana": "クニタチシ",
    "town": "泉",
    "town_kana": "イズミ",
    "street": "５丁目１１番地",
    "office_name": "株式会社　ヤクルト本社　中央研究所",
    "office_name_kana": "カブシキガイシヤ ヤクルトホンシヤ チユウオウケンキユウジヨ"
  },
  "8666": {
    "postcode": "1868666",
    "prefecture": "東京都",
    "prefecture_kana": "トウキョウト",
    "prefecture_code": 13,
    "city": "国立市",
    "city_kana": "クニタチシ",
    "town": "富士見台",
    "town_kana": "フジミダイ",
    "street": "２丁目４３−４",
    "office_name": "切手趣味研究会",
    "office_name_kana": "キツテシユミケンキユウカイ"
  },
  "8668": {
    "postcode": "1868668",
    "prefecture": "東京都",
    "prefecture_kana": "トウキョウト",
    "prefecture_code": 13,
    "city": "国立市",
    "city_kana": "クニタチシ",
    "town": "富士見台",
    "town_kana": "フジミダイ",
    "street": "４丁目３０−１",
    "office_name": "東京女子体育大学",
    "office_name_kana": "トウキヨウジヨシタイイクダイガク"
  },
  "8680": {
    "postcode": "1868680",
    "prefecture": "東京都",
    "prefecture_kana": "トウキョウト",
    "prefecture_code": 13,
    "city": "国立市",
    "city_kana": "クニタチシ",
    "town": "谷保",
    "town_kana": "ヤホ",
    "street": "６丁目２番地の１",
    "office_name": "東京多摩青果　株式会社",
    "office_name_kana": "トウキヨウタマセイカ カブシキカイシヤ"
  },
  "8686": {
    "postcode": "1868686",
    "prefecture": "東京都",
    "prefecture_kana": "トウキョウト",
    "prefecture_code": 13,
    "city": "国立市",
    "city_kana": "クニタチシ",
    "town": "中",
    "town_kana": "ナカ",
    "street": "１丁目９−５２（国立郵便局私書箱第１号）",
    "office_name": "多摩中央信用金庫　国立支店",
    "office_name_kana": "タマチユウオウシンヨウキンコ クニタチシテン"
  },
  "8688": {
    "postcode": "1868688",
    "prefecture": "東京都",
    "prefecture_kana": "トウキョウト",
    "prefecture_code": 13,
    "city": "国立市",
    "city_kana": "クニタチシ",
    "town": "東",
    "town_kana": "ヒガシ",
    "street": "１丁目４−１１（国立郵便局私書箱第２号）",
    "office_name": "大和證券　国立支店",
    "office_name_kana": "ダイワシヨウケン クニタチシテン"
  },
  "8797": {
    "postcode": "1868797",
    "prefecture": "東京都",
    "prefecture_kana": "トウキョウト",
    "prefecture_code": 13,
    "city": "国立市",
    "city_kana": "クニタチシ",
    "town": "西",
    "town_kana": "ニシ",
    "street": "２丁目１８−４",
    "office_name": "郵政大学校",
    "office_name_kana": "ユウセイダイガツコウ"
  },
  "8798": {
    "postcode": "1868798",
    "prefecture": "東京都",
    "prefecture_kana": "トウキョウト",
    "prefecture_code": 13,
    "city": "国立市",
    "city_kana": "クニタチシ",
    "town": "西",
    "town_kana": "ニシ",
    "street": "２丁目１８−４",
    "office_name": "中央郵政研修センター",
    "office_name_kana": "チユウオウユウセイケンシユウセンタ-"
  }
}