{
  "0000": {
    "postcode": "1900000",
    "prefecture": "東京都",
    "prefecture_kana": "トウキョウト",
    "prefecture_code": 13,
    "city": "立川市",
    "city_kana": "タチカワシ",
    "town": "",
    "town_kana": "",
    "street": null,
    "office_name": null,
    "office_name_kana": null
  },
  "0001": {
    "postcode": "1900001",
    "prefecture": "東京都",
    "prefecture_kana": "トウキョウト",
    "prefecture_code": 13,
    "city": "立川市",
    "city_kana": "タチカワシ",
    "town": "若葉町",
    "town_kana": "ワカバチョウ",
    "street": null,
    "office_name": null,
    "office_name_kana": null
  },
  "0002": {
    "postcode": "1900002",
    "prefecture": "東京都",
    "prefecture_kana": "トウキョウト",
    "prefecture_code": 13,
    "city": "立川市",
    "city_kana": "タチカワシ",
    "town": "幸町",
    "town_kana": "サイワイチョウ",
    "street": null,
    "office_name": null,
    "office_name_kana": null
  },
  "0003": {
    "postcode": "1900003",
    "prefecture": "東京都",
    "prefecture_kana": "トウキョウト",
    "prefecture_code": 13,
    "city": "立川市",
    "city_kana": "タチカワシ",
    "town": "栄町",
    "town_kana": "サカエチョウ",
    "street": null,
    "office_name": null,
    "office_name_kana": null
  },
  "0004": {
    "postcode": "1900004",
    "prefecture": "東京都",
    "prefecture_kana": "トウキョウト",
    "prefecture_code": 13,
    "city": "立川市",
    "city_kana": "タチカワシ",
    "town": "柏町",
    "town_kana": "カシワチョウ",
    "street": null,
    "office_name": null,
    "office_name_kana": null
  },
  "0011": {
    "postcode": "1900011",
    "prefecture": "東京都",
    "prefecture_kana": "トウキョウト",
    "prefecture_code": 13,
    "city": "立川市",
    "city_kana": "タチカワシ",
    "town": "高松町",
    "town_kana": "タカマツチョウ",
    "street": null,
    "office_name": null,
    "office_name_kana": null
  },
  "0012": {
    "postcode": "1900012",
    "prefecture": "東京都",
    "prefecture_kana": "トウキョウト",
    "prefecture_code": 13,
    "city": "立川市",
    "city_kana": "タチカワシ",
    "town": "曙町",
    "town_kana": "アケボノチョウ",
    "street": null,
    "office_name": null,
    "office_name_kana": null
  },
  "0013": {
    "postcode": "1900013",
    "prefecture": "東京都",
    "prefecture_kana": "トウキョウト",
    "prefecture_code": 13,
    "city": "立川市",
    "city_kana": "タチカワシ",
    "town": "富士見町",
    "town_kana": "フジミチョウ",
    "street": null,
    "office_name": null,
    "office_name_kana": null
  },
  "0014": {
    "postcode": "1900014",
    "prefecture": "東京都",
    "prefecture_kana": "トウキョウト",
    "prefecture_code": 13,
    "city": "立川市",
    "city_kana": "タチカワシ",
    "town": "緑町",
    "town_kana": "ミドリチョウ",
    "street": null,
    "office_name": null,
    "office_name_kana": null
  },
  "0015": {
    "postcode": "1900015",
    "prefecture": "東京都",
    "prefecture_kana": "トウキョウト",
    "prefecture_code": 13,
    "city": "立川市",
    "city_kana": "タチカワシ",
    "town": "泉町",
    "town_kana": "イズミチョウ",
    "street": null,
    "office_name": null,
    "office_name_kana": null
  },
  "0021": {
    "postcode": "1900021",
    "prefecture": "東京都",
    "prefecture_kana": "トウキョウト",
    "prefecture_code": 13,
    "city": "立川市",
    "city_kana": "タチカワシ",
    "town": "羽衣町",
    "town_kana": "ハゴロモチョウ",
    "street": null,
    "office_name": null,
    "office_name_kana": null
  },
  "0022": {
    "postcode": "1900022",
    "prefecture": "東京都",
    "prefecture_kana": "トウキョウト",
    "prefecture_code": 13,
    "city": "立川市",
    "city_kana": "タチカワシ",
    "town": "錦町",
    "town_kana": "ニシキチョウ",
    "street": null,
    "office_name": null,
    "office_name_kana": null
  },
  "0023": {
    "postcode": "1900023",
    "prefecture": "東京都",
    "prefecture_kana": "トウキョウト",
    "prefecture_code": 13,
    "city": "立川市",
    "city_kana": "タチカワシ",
    "town": "柴崎町",
    "town_kana": "シバサキチョウ",
    "street": null,
    "office_name": null,
    "office_name_kana": null
  },
  "0031": {
    "postcode": "1900031",
    "prefecture": "東京都",
    "prefecture_kana": "トウキョウト",
    "prefecture_code": 13,
    "city": "立川市",
    "city_kana": "タチカワシ",
    "town": "砂川町",
    "town_kana": "スナガワチョウ",
    "street": null,
    "office_name": null,
    "office_name_kana": null
  },
  "0032": {
    "postcode": "1900032",
    "prefecture": "東京都",
    "prefecture_kana": "トウキョウト",
    "prefecture_code": 13,
    "city": "立川市",
    "city_kana": "タチカワシ",
    "town": "上砂町",
    "town_kana": "カミスナチョウ",
    "street": null,
    "office_name": null,
    "office_name_kana": null
  },
  "0033": {
    "postcode": "1900033",
    "prefecture": "東京都",
    "prefecture_kana": "トウキョウト",
    "prefecture_code": 13,
    "city": "立川市",
    "city_kana": "タチカワシ",
    "town": "一番町",
    "town_kana": "イチバンチョウ",
    "street": null,
    "office_name": null,
    "office_name_kana": null
  },
  "0034": {
    "postcode": "1900034",
    "prefecture": "東京都",
    "prefecture_kana": "トウキョウト",
    "prefecture_code": 13,
    "city": "立川市",
    "city_kana": "タチカワシ",
    "town": "西砂町",
    "town_kana": "ニシスナチョウ",
    "street": null,
    "office_name": null,
    "office_name_kana": null
  },
  "0100": [
    {
      "postcode": "1900100",
      "prefecture": "東京都",
      "prefecture_kana": "トウキョウト",
      "prefecture_code": 13,
      "city": "あきる野市",
      "city_kana": "アキルノシ",
      "town": "",
      "town_kana": "",
      "street": null,
      "office_name": null,
      "office_name_kana": null
    },
    {
      "postcode": "1900100",
      "prefecture": "東京都",
      "prefecture_kana": "トウキョウト",
      "prefecture_code": 13,
      "city": "西多摩郡日の出町",
      "city_kana": "ニシタマグンヒノデマチ",
      "town": "",
      "town_kana": "",
      "street": null,
      "office_name": null,
      "office_name_kana": null
    }
  ],
  "0141": {
    "postcode": "1900141",
    "prefecture": "東京都",
    "prefecture_kana": "トウキョウト",
    "prefecture_code": 13,
    "city": "あきる野市",
    "city_kana": "アキルノシ",
    "town": "横沢",
    "town_kana": "ヨコサワ",
    "street": null,
    "office_name": null,
    "office_name_kana": null
  },
  "0142": {
    "postcode": "1900142",
    "prefecture": "東京都",
    "prefecture_kana": "トウキョウト",
    "prefecture_code": 13,
    "city": "あきる野市",
    "city_kana": "アキルノシ",
    "town": "伊奈",
    "town_kana": "イナ",
    "street": null,
    "office_name": null,
    "office_name_kana": null
  },
  "0143": {
    "postcode": "1900143",
    "prefecture": "東京都",
    "prefecture_kana": "トウキョウト",
    "prefecture_code": 13,
    "city": "あきる野市",
    "city_kana": "アキルノシ",
    "town": "上ノ台",
    "town_kana": "ウエノダイ",
    "street": null,
    "office_name": null,
    "office_name_kana": null
  },
  "0144": {
    "postcode": "1900144",
    "prefecture": "東京都",
    "prefecture_kana": "トウキョウト",
    "prefecture_code": 13,
    "city": "あきる野市",
    "city_kana": "アキルノシ",
    "town": "山田",
    "town_kana": "ヤマダ",
    "street": null,
    "office_name": null,
    "office_name_kana": null
  },
  "0151": {
    "postcode": "1900151",
    "prefecture": "東京都",
    "prefecture_kana": "トウキョウト",
    "prefecture_code": 13,
    "city": "あきる野市",
    "city_kana": "アキルノシ",
    "town": "小和田",
    "town_kana": "コワダ",
    "street": null,
    "office_name": null,
    "office_name_kana": null
  },
  "0152": {
    "postcode": "1900152",
    "prefecture": "東京都",
    "prefecture_kana": "トウキョウト",
    "prefecture_code": 13,
    "city": "あきる野市",
    "city_kana": "アキルノシ",
    "town": "留原",
    "town_kana": "トトハラ",
    "street": null,
    "office_name": null,
    "office_name_kana": null
  },
  "0153": {
    "postcode": "1900153",
    "prefecture": "東京都",
    "prefecture_kana": "トウキョウト",
    "prefecture_code": 13,
    "city": "あきる野市",
    "city_kana": "アキルノシ",
    "town": "小峰台",
    "town_kana": "コミネダイ",
    "street": null,
    "office_name": null,
    "office_name_kana": null
  },
  "0154": {
    "postcode": "1900154",
    "prefecture": "東京都",
    "prefecture_kana": "トウキョウト",
    "prefecture_code": 13,
    "city": "あきる野市",
    "city_kana": "アキルノシ",
    "town": "高尾",
    "town_kana": "タカオ",
    "street": null,
    "office_name": null,
    "office_name_kana": null
  },
  "0155": {
    "postcode": "1900155",
    "prefecture": "東京都",
    "prefecture_kana": "トウキョウト",
    "prefecture_code": 13,
    "city": "あきる野市",
    "city_kana": "アキルノシ",
    "town": "網代",
    "town_kana": "アジロ",
    "street": null,
    "office_name": null,
    "office_name_kana": null
  },
  "0161": {
    "postcode": "1900161",
    "prefecture": "東京都",
    "prefecture_kana": "トウキョウト",
    "prefecture_code": 13,
    "city": "あきる野市",
    "city_kana": "アキルノシ",
    "town": "入野",
    "town_kana": "イリノ",
    "street": null,
    "office_name": null,
    "office_name_kana": null
  },
  "0162": {
    "postcode": "1900162",
    "prefecture": "東京都",
    "prefecture_kana": "トウキョウト",
    "prefecture_code": 13,
    "city": "あきる野市",
    "city_kana": "アキルノシ",
    "town": "三内",
    "town_kana": "サンナイ",
    "street": null,
    "office_name": null,
    "office_name_kana": null
  },
  "0163": {
    "postcode": "1900163",
    "prefecture": "東京都",
    "prefecture_kana": "トウキョウト",
    "prefecture_code": 13,
    "city": "あきる野市",
    "city_kana": "アキルノシ",
    "town": "舘谷",
    "town_kana": "タテヤ",
    "street": null,
    "office_name": null,
    "office_name_kana": null
  },
  "0164": {
    "postcode": "1900164",
    "prefecture": "東京都",
    "prefecture_kana": "トウキョウト",
    "prefecture_code": 13,
    "city": "あきる野市",
    "city_kana": "アキルノシ",
    "town": "五日市",
    "town_kana": "イツカイチ",
    "street": null,
    "office_name": null,
    "office_name_kana": null
  },
  "0165": {
    "postcode": "1900165",
    "prefecture": "東京都",
    "prefecture_kana": "トウキョウト",
    "prefecture_code": 13,
    "city": "あきる野市",
    "city_kana": "アキルノシ",
    "town": "小中野",
    "town_kana": "コナカノ",
    "street": null,
    "office_name": null,
    "office_name_kana": null
  },
  "0166": {
    "postcode": "1900166",
    "prefecture": "東京都",
    "prefecture_kana": "トウキョウト",
    "prefecture_code": 13,
    "city": "あきる野市",
    "city_kana": "アキルノシ",
    "town": "舘谷台",
    "town_kana": "タテヤダイ",
    "street": null,
    "office_name": null,
    "office_name_kana": null
  },
  "0171": {
    "postcode": "1900171",
    "prefecture": "東京都",
    "prefecture_kana": "トウキョウト",
    "prefecture_code": 13,
    "city": "あきる野市",
    "city_kana": "アキルノシ",
    "town": "養沢",
    "town_kana": "ヨウザワ",
    "street": null,
    "office_name": null,
    "office_name_kana": null
  },
  "0172": {
    "postcode": "1900172",
    "prefecture": "東京都",
    "prefecture_kana": "トウキョウト",
    "prefecture_code": 13,
    "city": "あきる野市",
    "city_kana": "アキルノシ",
    "town": "深沢",
    "town_kana": "フカサワ",
    "street": null,
    "office_name": null,
    "office_name_kana": null
  },
  "0173": {
    "postcode": "1900173",
    "prefecture": "東京都",
    "prefecture_kana": "トウキョウト",
    "prefecture_code": 13,
    "city": "あきる野市",
    "city_kana": "アキルノシ",
    "town": "戸倉",
    "town_kana": "トクラ",
    "street": null,
    "office_name": null,
    "office_name_kana": null
  },
  "0174": {
    "postcode": "1900174",
    "prefecture": "東京都",
    "prefecture_kana": "トウキョウト",
    "prefecture_code": 13,
    "city": "あきる野市",
    "city_kana": "アキルノシ",
    "town": "乙津",
    "town_kana": "オツ",
    "street": null,
    "office_name": null,
    "office_name_kana": null
  },
  "0181": {
    "postcode": "1900181",
    "prefecture": "東京都",
    "prefecture_kana": "トウキョウト",
    "prefecture_code": 13,
    "city": "西多摩郡日の出町",
    "city_kana": "ニシタマグンヒノデマチ",
    "town": "大久野",
    "town_kana": "オオグノ",
    "street": null,
    "office_name": null,
    "office_name_kana": null
  },
  "0182": {
    "postcode": "1900182",
    "prefecture": "東京都",
    "prefecture_kana": "トウキョウト",
    "prefecture_code": 13,
    "city": "西多摩郡日の出町",
    "city_kana": "ニシタマグンヒノデマチ",
    "town": "平井",
    "town_kana": "ヒライ",
    "street": null,
    "office_name": null,
    "office_name_kana": null
  },
  "0192": {
    "postcode": "1900192",
    "prefecture": "東京都",
    "prefecture_kana": "トウキョウト",
    "prefecture_code": 13,
    "city": "西多摩郡日の出町",
    "city_kana": "ニシタマグンヒノデマチ",
    "town": "大字平井",
    "town_kana": null,
    "street": "２７８０",
    "office_name": "日の出町役場",
    "office_name_kana": "ヒノデマチヤクバ"
  },
  "0200": {
    "postcode": "1900200",
    "prefecture": "東京都",
    "prefecture_kana": "トウキョウト",
    "prefecture_code": 13,
    "city": "西多摩郡檜原村",
    "city_kana": "ニシタマグンヒノハラムラ",
    "town": "",
    "town_kana": "",
    "street": null,
    "office_name": null,
    "office_name_kana": null
  },
  "0201": {
    "postcode": "1900201",
    "prefecture": "東京都",
    "prefecture_kana": "トウキョウト",
    "prefecture_code": 13,
    "city": "西多摩郡檜原村",
    "city_kana": "ニシタマグンヒノハラムラ",
    "town": "倉掛",
    "town_kana": "クラカケ",
    "street": null,
    "office_name": null,
    "office_name_kana": null
  },
  "0202": {
    "postcode": "1900202",
    "prefecture": "東京都",
    "prefecture_kana": "トウキョウト",
    "prefecture_code": 13,
    "city": "西多摩郡檜原村",
    "city_kana": "ニシタマグンヒノハラムラ",
    "town": "藤原",
    "town_kana": "フジワラ",
    "street": null,
    "office_name": null,
    "office_name_kana": null
  },
  "0203": {
    "postcode": "1900203",
    "prefecture": "東京都",
    "prefecture_kana": "トウキョウト",
    "prefecture_code": 13,
    "city": "西多摩郡檜原村",
    "city_kana": "ニシタマグンヒノハラムラ",
    "town": "神戸",
    "town_kana": "カノト",
    "street": null,
    "office_name": null,
    "office_name_kana": null
  },
  "0204": {
    "postcode": "1900204",
    "prefecture": "東京都",
    "prefecture_kana": "トウキョウト",
    "prefecture_code": 13,
    "city": "西多摩郡檜原村",
    "city_kana": "ニシタマグンヒノハラムラ",
    "town": "小沢",
    "town_kana": "オザワ",
    "street": null,
    "office_name": null,
    "office_name_kana": null
  },
  "0205": {
    "postcode": "1900205",
    "prefecture": "東京都",
    "prefecture_kana": "トウキョウト",
    "prefecture_code": 13,
    "city": "西多摩郡檜原村",
    "city_kana": "ニシタマグンヒノハラムラ",
    "town": "樋里",
    "town_kana": "ヒザト",
    "street": null,
    "office_name": null,
    "office_name_kana": null
  },
  "0211": {
    "postcode": "1900211",
    "prefecture": "東京都",
    "prefecture_kana": "トウキョウト",
    "prefecture_code": 13,
    "city": "西多摩郡檜原村",
    "city_kana": "ニシタマグンヒノハラムラ",
    "town": "三都郷",
    "town_kana": "ミツゴ",
    "street": null,
    "office_name": null,
    "office_name_kana": null
  },
  "0212": {
    "postcode": "1900212",
    "prefecture": "東京都",
    "prefecture_kana": "トウキョウト",
    "prefecture_code": 13,
    "city": "西多摩郡檜原村",
    "city_kana": "ニシタマグンヒノハラムラ",
    "town": "上元郷",
    "town_kana": "カミモトゴウ",
    "street": null,
    "office_name": null,
    "office_name_kana": null
  },
  "0213": {
    "postcode": "1900213",
    "prefecture": "東京都",
    "prefecture_kana": "トウキョウト",
    "prefecture_code": 13,
    "city": "西多摩郡檜原村",
    "city_kana": "ニシタマグンヒノハラムラ",
    "town": "下元郷",
    "town_kana": "シモモトゴウ",
    "street": null,
    "office_name": null,
    "office_name_kana": null
  },
  "0214": {
    "postcode": "1900214",
    "prefecture": "東京都",
    "prefecture_kana": "トウキョウト",
    "prefecture_code": 13,
    "city": "西多摩郡檜原村",
    "city_kana": "ニシタマグンヒノハラムラ",
    "town": "本宿",
    "town_kana": "モトシュク",
    "street": null,
    "office_name": null,
    "office_name_kana": null
  },
  "0221": {
    "postcode": "1900221",
    "prefecture": "東京都",
    "prefecture_kana": "トウキョウト",
    "prefecture_code": 13,
    "city": "西多摩郡檜原村",
    "city_kana": "ニシタマグンヒノハラムラ",
    "town": "数馬",
    "town_kana": "カズマ",
    "street": null,
    "office_name": null,
    "office_name_kana": null
  },
  "0222": {
    "postcode": "1900222",
    "prefecture": "東京都",
    "prefecture_kana": "トウキョウト",
    "prefecture_code": 13,
    "city": "西多摩郡檜原村",
    "city_kana": "ニシタマグンヒノハラムラ",
    "town": "人里",
    "town_kana": "ヘンボリ",
    "street": null,
    "office_name": null,
    "office_name_kana": null
  },
  "0223": {
    "postcode": "1900223",
    "prefecture": "東京都",
    "prefecture_kana": "トウキョウト",
    "prefecture_code": 13,
    "city": "西多摩郡檜原村",
    "city_kana": "ニシタマグンヒノハラムラ",
    "town": "南郷",
    "town_kana": "ナンゴウ",
    "street": null,
    "office_name": null,
    "office_name_kana": null
  },
  "1200": {
    "postcode": "1901200",
    "prefecture": "東京都",
    "prefecture_kana": "トウキョウト",
    "prefecture_code": 13,
    "city": "西多摩郡瑞穂町",
    "city_kana": "ニシタマグンミズホマチ",
    "town": "",
    "town_kana": "",
    "street": null,
    "office_name": null,
    "office_name_kana": null
  },
  "1201": {
    "postcode": "1901201",
    "prefecture": "東京都",
    "prefecture_kana": "トウキョウト",
    "prefecture_code": 13,
    "city": "西多摩郡瑞穂町",
    "city_kana": "ニシタマグンミズホマチ",
    "town": "二本木",
    "town_kana": "ニホンギ",
    "street": null,
    "office_name": null,
    "office_name_kana": null
  },
  "1202": {
    "postcode": "1901202",
    "prefecture": "東京都",
    "prefecture_kana": "トウキョウト",
    "prefecture_code": 13,
    "city": "西多摩郡瑞穂町",
    "city_kana": "ニシタマグンミズホマチ",
    "town": "駒形富士山",
    "town_kana": "コマガタフジヤマ",
    "street": null,
    "office_name": null,
    "office_name_kana": null
  },
  "1203": {
    "postcode": "1901203",
    "prefecture": "東京都",
    "prefecture_kana": "トウキョウト",
    "prefecture_code": 13,
    "city": "西多摩郡瑞穂町",
    "city_kana": "ニシタマグンミズホマチ",
    "town": "高根",
    "town_kana": "タカネ",
    "street": null,
    "office_name": null,
    "office_name_kana": null
  },
  "1204": {
    "postcode": "1901204",
    "prefecture": "東京都",
    "prefecture_kana": "トウキョウト",
    "prefecture_code": 13,
    "city": "西多摩郡瑞穂町",
    "city_kana": "ニシタマグンミズホマチ",
    "town": "富士山栗原新田",
    "town_kana": "フジヤマクリハラシンデン",
    "street": null,
    "office_name": null,
    "office_name_kana": null
  },
  "1211": {
    "postcode": "1901211",
    "prefecture": "東京都",
    "prefecture_kana": "トウキョウト",
    "prefecture_code": 13,
    "city": "西多摩郡瑞穂町",
    "city_kana": "ニシタマグンミズホマチ",
    "town": "石畑",
    "town_kana": "イシハタ",
    "street": null,
    "office_name": null,
    "office_name_kana": null
  },
  "1212": {
    "postcode": "1901212",
    "prefecture": "東京都",
    "prefecture_kana": "トウキョウト",
    "prefecture_code": 13,
    "city": "西多摩郡瑞穂町",
    "city_kana": "ニシタマグンミズホマチ",
    "town": "殿ケ谷",
    "town_kana": "トノガヤ",
    "street": null,
    "office_name": null,
    "office_name_kana": null
  },
  "1213": {
    "postcode": "1901213",
    "prefecture": "東京都",
    "prefecture_kana": "トウキョウト",
    "prefecture_code": 13,
    "city": "西多摩郡瑞穂町",
    "city_kana": "ニシタマグンミズホマチ",
    "town": "武蔵",
    "town_kana": "ムサシ",
    "street": null,
    "office_name": null,
    "office_name_kana": null
  },
  "1214": {
    "postcode": "1901214",
    "prefecture": "東京都",
    "prefecture_kana": "トウキョウト",
    "prefecture_code": 13,
    "city": "西多摩郡瑞穂町",
    "city_kana": "ニシタマグンミズホマチ",
    "town": "むさし野",
    "town_kana": "ムサシノ",
    "street": null,
    "office_name": null,
    "office_name_kana": null
  },
  "1221": {
    "postcode": "1901221",
    "prefecture": "東京都",
    "prefecture_kana": "トウキョウト",
    "prefecture_code": 13,
    "city": "西多摩郡瑞穂町",
    "city_kana": "ニシタマグンミズホマチ",
    "town": "箱根ケ崎",
    "town_kana": "ハコネガサキ",
    "street": null,
    "office_name": null,
    "office_name_kana": null
  },
  "1222": {
    "postcode": "1901222",
    "prefecture": "東京都",
    "prefecture_kana": "トウキョウト",
    "prefecture_code": 13,
    "city": "西多摩郡瑞穂町",
    "city_kana": "ニシタマグンミズホマチ",
    "town": "箱根ケ崎東松原",
    "town_kana": "ハコネガサキヒガシマツバラ",
    "street": null,
    "office_name": null,
    "office_name_kana": null
  },
  "1223": {
    "postcode": "1901223",
    "prefecture": "東京都",
    "prefecture_kana": "トウキョウト",
    "prefecture_code": 13,
    "city": "西多摩郡瑞穂町",
    "city_kana": "ニシタマグンミズホマチ",
    "town": "箱根ケ崎西松原",
    "town_kana": "ハコネガサキニシマツバラ",
    "street": null,
    "office_name": null,
    "office_name_kana": null
  },
  "1224": {
    "postcode": "1901224",
    "prefecture": "東京都",
    "prefecture_kana": "トウキョウト",
    "prefecture_code": 13,
    "city": "西多摩郡瑞穂町",
    "city_kana": "ニシタマグンミズホマチ",
    "town": "南平",
    "town_kana": "ミナミダイラ",
    "street": null,
    "office_name": null,
    "office_name_kana": null
  },
  "1231": {
    "postcode": "1901231",
    "prefecture": "東京都",
    "prefecture_kana": "トウキョウト",
    "prefecture_code": 13,
    "city": "西多摩郡瑞穂町",
    "city_kana": "ニシタマグンミズホマチ",
    "town": "長岡長谷部",
    "town_kana": "ナガオカハセベ",
    "street": null,
    "office_name": null,
    "office_name_kana": null
  },
  "1232": {
    "postcode": "1901232",
    "prefecture": "東京都",
    "prefecture_kana": "トウキョウト",
    "prefecture_code": 13,
    "city": "西多摩郡瑞穂町",
    "city_kana": "ニシタマグンミズホマチ",
    "town": "長岡",
    "town_kana": "ナガオカ",
    "street": null,
    "office_name": null,
    "office_name_kana": null
  },
  "1233": {
    "postcode": "1901233",
    "prefecture": "東京都",
    "prefecture_kana": "トウキョウト",
    "prefecture_code": 13,
    "city": "西多摩郡瑞穂町",
    "city_kana": "ニシタマグンミズホマチ",
    "town": "長岡下師岡",
    "town_kana": "ナガオカシモモロオカ",
    "street": null,
    "office_name": null,
    "office_name_kana": null
  },
  "1234": {
    "postcode": "1901234",
    "prefecture": "東京都",
    "prefecture_kana": "トウキョウト",
    "prefecture_code": 13,
    "city": "西多摩郡瑞穂町",
    "city_kana": "ニシタマグンミズホマチ",
    "town": "長岡藤橋",
    "town_kana": "ナガオカフジハシ",
    "street": null,
    "office_name": null,
    "office_name_kana": null
  },
  "1292": {
    "postcode": "1901292",
    "prefecture": "東京都",
    "prefecture_kana": "トウキョウト",
    "prefecture_code": 13,
    "city": "西多摩郡瑞穂町",
    "city_kana": "ニシタマグンミズホマチ",
    "town": "大字箱根ケ崎",
    "town_kana": null,
    "street": "２３３５",
    "office_name": "瑞穂町役場",
    "office_name_kana": "ミズホマチヤクバ"
  },
  "1293": {
    "postcode": "1901293",
    "prefecture": "東京都",
    "prefecture_kana": "トウキョウト",
    "prefecture_code": 13,
    "city": "西多摩郡瑞穂町",
    "city_kana": "ニシタマグンミズホマチ",
    "town": "箱根ケ崎東松原",
    "town_kana": "ハコネガサキヒガシマツバラ",
    "street": "２６−１７",
    "office_name": "株式会社　桝屋",
    "office_name_kana": "カブシキガイシヤ マスヤ"
  },
  "1295": {
    "postcode": "1901295",
    "prefecture": "東京都",
    "prefecture_kana": "トウキョウト",
    "prefecture_code": 13,
    "city": "西多摩郡瑞穂町",
    "city_kana": "ニシタマグンミズホマチ",
    "town": "箱根ケ崎東松原",
    "town_kana": "ハコネガサキヒガシマツバラ",
    "street": "１０番地２２",
    "office_name": "株式会社　ソニック",
    "office_name_kana": "カブシキガイシヤ ソニツク"
  },
  "1297": {
    "postcode": "1901297",
    "prefecture": "東京都",
    "prefecture_kana": "トウキョウト",
    "prefecture_code": 13,
    "city": "西多摩郡瑞穂町",
    "city_kana": "ニシタマグンミズホマチ",
    "town": "大字殿ケ谷",
    "town_kana": null,
    "street": "２２９",
    "office_name": "株式会社　ＩＨＩ",
    "office_name_kana": "カブシキガイシヤ アイエイチアイ"
  },
  "1298": {
    "postcode": "1901298",
    "prefecture": "東京都",
    "prefecture_kana": "トウキョウト",
    "prefecture_code": 13,
    "city": "西多摩郡瑞穂町",
    "city_kana": "ニシタマグンミズホマチ",
    "town": "二本木",
    "town_kana": "ニホンギ",
    "street": "４６１−２",
    "office_name": "株式会社　日本アクセス　西多摩センター",
    "office_name_kana": "カブシキガイシヤ ニツポンアクセス ニシタマセンタ-"
  },
  "8501": {
    "postcode": "1908501",
    "prefecture": "東京都",
    "prefecture_kana": "トウキョウト",
    "prefecture_code": 13,
    "city": "立川市",
    "city_kana": "タチカワシ",
    "town": "緑町",
    "town_kana": "ミドリチョウ",
    "street": "５",
    "office_name": "陸上自衛隊　立川駐屯地",
    "office_name_kana": "リクジヨウジエイタイ タチカワチユウトンチ"
  },
  "8503": {
    "postcode": "1908503",
    "prefecture": "東京都",
    "prefecture_kana": "トウキョウト",
    "prefecture_code": 13,
    "city": "立川市",
    "city_kana": "タチカワシ",
    "town": "曙町",
    "town_kana": "アケボノチョウ",
    "street": "２丁目３４−７ファーレイーストビル１０Ｆ",
    "office_name": "住宅・都市整備公団　東京支社　北多摩営業所",
    "office_name_kana": "ジユウタク・トシセイビコウダン トウキヨウシシヤ キタタマエイギヨウシヨ"
  },
  "8505": {
    "postcode": "1908505",
    "prefecture": "東京都",
    "prefecture_kana": "トウキョウト",
    "prefecture_code": 13,
    "city": "立川市",
    "city_kana": "タチカワシ",
    "town": "幸町",
    "town_kana": "サイワイチョウ",
    "street": "３丁目３２−５",
    "office_name": "株式会社　和凰",
    "office_name_kana": "カブシキガイシヤ ワコウ"
  },
  "8506": {
    "postcode": "1908506",
    "prefecture": "東京都",
    "prefecture_kana": "トウキョウト",
    "prefecture_code": 13,
    "city": "立川市",
    "city_kana": "タチカワシ",
    "town": "曙町",
    "town_kana": "アケボノチョウ",
    "street": "２丁目２−２５",
    "office_name": "第一デパート　（株式会社　サビアコーポレーション）",
    "office_name_kana": "ダイイチデパ-ト (カブシキガイシヤ サビアコ-ポレ-シヨン)"
  },
  "8507": {
    "postcode": "1908507",
    "prefecture": "東京都",
    "prefecture_kana": "トウキョウト",
    "prefecture_code": 13,
    "city": "立川市",
    "city_kana": "タチカワシ",
    "town": "曙町",
    "town_kana": "アケボノチョウ",
    "street": "２丁目３９−３",
    "office_name": "株式会社　高島屋　立川店",
    "office_name_kana": "カブシキガイシヤ タカシマヤ タチカワテン"
  },
  "8508": {
    "postcode": "1908508",
    "prefecture": "東京都",
    "prefecture_kana": "トウキョウト",
    "prefecture_code": 13,
    "city": "立川市",
    "city_kana": "タチカワシ",
    "town": "富士見町",
    "town_kana": "フジミチョウ",
    "street": "６丁目４９−１８",
    "office_name": "多摩運送　株式会社",
    "office_name_kana": "タマウンソウ カブシキガイシヤ"
  },
  "8510": {
    "postcode": "1908510",
    "prefecture": "東京都",
    "prefecture_kana": "トウキョウト",
    "prefecture_code": 13,
    "city": "立川市",
    "city_kana": "タチカワシ",
    "town": "曙町",
    "town_kana": "アケボノチョウ",
    "street": "２丁目１０−１ふどうやビル５階",
    "office_name": "株式会社　日本旅行　立川支店",
    "office_name_kana": "カブシキガイシヤ ニホンリヨコウ タチカワシテン"
  },
  "8511": {
    "postcode": "1908511",
    "prefecture": "東京都",
    "prefecture_kana": "トウキョウト",
    "prefecture_code": 13,
    "city": "立川市",
    "city_kana": "タチカワシ",
    "town": "曙町",
    "town_kana": "アケボノチョウ",
    "street": "２丁目５−１",
    "office_name": "株式会社　伊勢丹　立川店",
    "office_name_kana": "カブシキガイシヤ イセタン タチカワシテン"
  },
  "8513": {
    "postcode": "1908513",
    "prefecture": "東京都",
    "prefecture_kana": "トウキョウト",
    "prefecture_code": 13,
    "city": "立川市",
    "city_kana": "タチカワシ",
    "town": "曙町",
    "town_kana": "アケボノチョウ",
    "street": "２丁目３４−１３",
    "office_name": "日本信販　株式会社　西関東統括部",
    "office_name_kana": "ニホンシンパン カブシキガイシヤ ニシカントウトウカツブ"
  },
  "8514": {
    "postcode": "1908514",
    "prefecture": "東京都",
    "prefecture_kana": "トウキョウト",
    "prefecture_code": 13,
    "city": "立川市",
    "city_kana": "タチカワシ",
    "town": "曙町",
    "town_kana": "アケボノチョウ",
    "street": "２丁目３９−３高島屋８Ｆ",
    "office_name": "株式会社　東京スター銀行　立川支店",
    "office_name_kana": "カブシキガイシヤ トウキヨウスタ-ギンコウ タチカワシテン"
  },
  "8515": {
    "postcode": "1908515",
    "prefecture": "東京都",
    "prefecture_kana": "トウキョウト",
    "prefecture_code": 13,
    "city": "立川市",
    "city_kana": "タチカワシ",
    "town": "泉町",
    "town_kana": "イズミチョウ",
    "street": "９３５",
    "office_name": "軽貨急配シーエス　株式会社　立川支店",
    "office_name_kana": "ケイカキユウハイシ-エス カブシキガイシヤ タチカワシテン"
  },
  "8516": {
    "postcode": "1908516",
    "prefecture": "東京都",
    "prefecture_kana": "トウキョウト",
    "prefecture_code": 13,
    "city": "立川市",
    "city_kana": "タチカワシ",
    "town": "緑町",
    "town_kana": "ミドリチョウ",
    "street": "４−２",
    "office_name": "立川労働基準監督署",
    "office_name_kana": "タチカワロウドウキジユンカントクシヨ"
  },
  "8517": {
    "postcode": "1908517",
    "prefecture": "東京都",
    "prefecture_kana": "トウキョウト",
    "prefecture_code": 13,
    "city": "立川市",
    "city_kana": "タチカワシ",
    "town": "栄町",
    "town_kana": "サカエチョウ",
    "street": "６丁目１−１",
    "office_name": "株式会社　いなげや",
    "office_name_kana": "カブシキガイシヤ イナゲヤ"
  },
  "8518": {
    "postcode": "1908518",
    "prefecture": "東京都",
    "prefecture_kana": "トウキョウト",
    "prefecture_code": 13,
    "city": "立川市",
    "city_kana": "タチカワシ",
    "town": "緑町",
    "town_kana": "ミドリチョウ",
    "street": "１０−３",
    "office_name": "国立極地研究所",
    "office_name_kana": "コクリツキヨクチケンキユウシヨ"
  },
  "8519": {
    "postcode": "1908519",
    "prefecture": "東京都",
    "prefecture_kana": "トウキョウト",
    "prefecture_code": 13,
    "city": "立川市",
    "city_kana": "タチカワシ",
    "town": "柴崎町",
    "town_kana": "シバサキチョウ",
    "street": "１丁目２−１３",
    "office_name": "宗教法人　真如苑",
    "office_name_kana": "シユウキヨウホウジン シンニヨエン"
  },
  "8520": {
    "postcode": "1908520",
    "prefecture": "東京都",
    "prefecture_kana": "トウキョウト",
    "prefecture_code": 13,
    "city": "立川市",
    "city_kana": "タチカワシ",
    "town": "柏町",
    "town_kana": "カシワチョウ",
    "street": "５丁目５−１",
    "office_name": "学校法人　国立音楽大学",
    "office_name_kana": "ガツコウホウジン クニタチオンガクダイガク"
  },
  "8522": {
    "postcode": "1908522",
    "prefecture": "東京都",
    "prefecture_kana": "トウキョウト",
    "prefecture_code": 13,
    "city": "立川市",
    "city_kana": "タチカワシ",
    "town": "柏町",
    "town_kana": "カシワチョウ",
    "street": "１丁目６−１",
    "office_name": "超音波工業　株式会社",
    "office_name_kana": "チヨウオンパコウギヨウ カブシキガイシヤ"
  },
  "8528": {
    "postcode": "1908528",
    "prefecture": "東京都",
    "prefecture_kana": "トウキョウト",
    "prefecture_code": 13,
    "city": "立川市",
    "city_kana": "タチカワシ",
    "town": "曙町",
    "town_kana": "アケボノチョウ",
    "street": "２丁目２２−２０",
    "office_name": "オリックス・クレジット　株式会社",
    "office_name_kana": "オリツクス・クレジツト カブシキガイシヤ"
  },
  "8530": {
    "postcode": "1908530",
    "prefecture": "東京都",
    "prefecture_kana": "トウキョウト",
    "prefecture_code": 13,
    "city": "立川市",
    "city_kana": "タチカワシ",
    "town": "緑町",
    "town_kana": "ミドリチョウ",
    "street": "３１７３",
    "office_name": "昭和記念公園　パークス共同体　国営昭和記念公園　管理センター",
    "office_name_kana": "シヨウワキネンコウエン パ-クスキヨウドウタイ コクエイシヨウワキネンコウエン カンリセンタ-"
  },
  "8531": {
    "postcode": "1908531",
    "prefecture": "東京都",
    "prefecture_kana": "トウキョウト",
    "prefecture_code": 13,
    "city": "立川市",
    "city_kana": "タチカワシ",
    "town": "錦町",
    "town_kana": "ニシキチョウ",
    "street": "４丁目２−２２",
    "office_name": "国家公務員共済組合連合会　立川病院",
    "office_name_kana": "コツカコウムインキヨウサイクミアイレンゴウカイ タチカワビヨウイン"
  },
  "8535": {
    "postcode": "1908535",
    "prefecture": "東京都",
    "prefecture_kana": "トウキョウト",
    "prefecture_code": 13,
    "city": "立川市",
    "city_kana": "タチカワシ",
    "town": "高松町",
    "town_kana": "タカマツチョウ",
    "street": "１丁目１００−３８",
    "office_name": "財団法人　東京顕微鏡院",
    "office_name_kana": "ザイダンホウジン トウキヨウケンビキヨウイン"
  },
  "8536": {
    "postcode": "1908536",
    "prefecture": "東京都",
    "prefecture_kana": "トウキョウト",
    "prefecture_code": 13,
    "city": "立川市",
    "city_kana": "タチカワシ",
    "town": "曙町",
    "town_kana": "アケボノチョウ",
    "street": "１丁目３１−２遠藤創進ビル",
    "office_name": "株式会社　ＮＴＴドコモ　多摩支店",
    "office_name_kana": "カブシキガイシヤ エヌテイテイドコモ タマシテン"
  },
  "8537": {
    "postcode": "1908537",
    "prefecture": "東京都",
    "prefecture_kana": "トウキョウト",
    "prefecture_code": 13,
    "city": "立川市",
    "city_kana": "タチカワシ",
    "town": "曙町",
    "town_kana": "アケボノチョウ",
    "street": "１丁目２５−１２",
    "office_name": "ＮＥＣ三栄　株式会社",
    "office_name_kana": "エヌイ-シ-サンエイ カブシキガイシヤ"
  },
  "8539": {
    "postcode": "1908539",
    "prefecture": "東京都",
    "prefecture_kana": "トウキョウト",
    "prefecture_code": 13,
    "city": "立川市",
    "city_kana": "タチカワシ",
    "town": "栄町",
    "town_kana": "サカエチョウ",
    "street": "６−１−１立飛ビル６号館別館",
    "office_name": "株式会社　ジェイコム多摩",
    "office_name_kana": "カブシキガイシヤ ジエイコムタマ"
  },
  "8540": {
    "postcode": "1908540",
    "prefecture": "東京都",
    "prefecture_kana": "トウキョウト",
    "prefecture_code": 13,
    "city": "立川市",
    "city_kana": "タチカワシ",
    "town": "曙町",
    "town_kana": "アケボノチョウ",
    "street": "１丁目２７−１０",
    "office_name": "読売新聞　東京本社　立川支局",
    "office_name_kana": "ヨミウリシンブン トウキヨウホンシヤ タチカワシキヨク"
  },
  "8542": {
    "postcode": "1908542",
    "prefecture": "東京都",
    "prefecture_kana": "トウキョウト",
    "prefecture_code": 13,
    "city": "立川市",
    "city_kana": "タチカワシ",
    "town": "緑町",
    "town_kana": "ミドリチョウ",
    "street": "４−５壽屋ビル",
    "office_name": "株式会社　壽屋",
    "office_name_kana": "カブシキガイシヤ コトブキヤ"
  },
  "8543": {
    "postcode": "1908543",
    "prefecture": "東京都",
    "prefecture_kana": "トウキョウト",
    "prefecture_code": 13,
    "city": "立川市",
    "city_kana": "タチカワシ",
    "town": "錦町",
    "town_kana": "ニシキチョウ",
    "street": "６丁目３−１",
    "office_name": "東京都立多摩社会教育会館",
    "office_name_kana": "トウキヨウトリツタマシヤカイキヨウイクカイカン"
  },
  "8544": {
    "postcode": "1908544",
    "prefecture": "東京都",
    "prefecture_kana": "トウキョウト",
    "prefecture_code": 13,
    "city": "立川市",
    "city_kana": "タチカワシ",
    "town": "緑町",
    "town_kana": "ミドリチョウ",
    "street": "６−３",
    "office_name": "東京地方検察庁　立川支部",
    "office_name_kana": "トウキヨウチホウケンサツチヨウ タチカワシブ"
  },
  "8550": {
    "postcode": "1908550",
    "prefecture": "東京都",
    "prefecture_kana": "トウキョウト",
    "prefecture_code": 13,
    "city": "立川市",
    "city_kana": "タチカワシ",
    "town": "曙町",
    "town_kana": "アケボノチョウ",
    "street": "２丁目３６−２",
    "office_name": "あいおいニッセイ同和損害保険　株式会社",
    "office_name_kana": "アイオイニツセイドウワソンガイホケン カブシキガイシヤ"
  },
  "8551": {
    "postcode": "1908551",
    "prefecture": "東京都",
    "prefecture_kana": "トウキョウト",
    "prefecture_code": 13,
    "city": "立川市",
    "city_kana": "タチカワシ",
    "town": "曙町",
    "town_kana": "アケボノチョウ",
    "street": "２丁目８番３号新鈴春ビル",
    "office_name": "株式会社　日本政策金融公庫　立川支店",
    "office_name_kana": "カブシキガイシヤ ニツポンセイサクキンユウコウコ タチカワシテン"
  },
  "8554": {
    "postcode": "1908554",
    "prefecture": "東京都",
    "prefecture_kana": "トウキョウト",
    "prefecture_code": 13,
    "city": "立川市",
    "city_kana": "タチカワシ",
    "town": "柴崎町",
    "town_kana": "シバサキチョウ",
    "street": "３丁目２−１",
    "office_name": "ジェイアール東日本商業開発　株式会社　（グランデュオ）",
    "office_name_kana": "ジエイア-ルヒガシニホンシヨウギヨウカイハツ カブシキガイシヤ (グランデユオ)"
  },
  "8555": {
    "postcode": "1908555",
    "prefecture": "東京都",
    "prefecture_kana": "トウキョウト",
    "prefecture_code": 13,
    "city": "立川市",
    "city_kana": "タチカワシ",
    "town": "柴崎町",
    "town_kana": "シバサキチョウ",
    "street": "６丁目１８−１０",
    "office_name": "株式会社　田島",
    "office_name_kana": "カブシキガイシヤ タジマ"
  },
  "8557": {
    "postcode": "1908557",
    "prefecture": "東京都",
    "prefecture_kana": "トウキョウト",
    "prefecture_code": 13,
    "city": "立川市",
    "city_kana": "タチカワシ",
    "town": "高松町",
    "town_kana": "タカマツチョウ",
    "street": "３丁目１−５",
    "office_name": "森永乳業　株式会社　多摩支店",
    "office_name_kana": "モリナガニユウギヨウ カブシキガイシヤ タマシテン"
  },
  "8558": {
    "postcode": "1908558",
    "prefecture": "東京都",
    "prefecture_kana": "トウキョウト",
    "prefecture_code": 13,
    "city": "立川市",
    "city_kana": "タチカワシ",
    "town": "緑町",
    "town_kana": "ミドリチョウ",
    "street": "３１７３",
    "office_name": "国土交通省　関東地方整備局　国営昭和記念公園事務所",
    "office_name_kana": "コクドコウツウシヨウ カントウチホウセイビキヨク コクエイシヨウワキネンコウエンジムシヨ"
  },
  "8560": {
    "postcode": "1908560",
    "prefecture": "東京都",
    "prefecture_kana": "トウキョウト",
    "prefecture_code": 13,
    "city": "立川市",
    "city_kana": "タチカワシ",
    "town": "泉町",
    "town_kana": "イズミチョウ",
    "street": "９３５−１",
    "office_name": "株式会社　日本アクセス　東京西支店",
    "office_name_kana": "カブシキガイシヤ ニホンアクセス トウキヨウニシシテン"
  },
  "8561": {
    "postcode": "1908561",
    "prefecture": "東京都",
    "prefecture_kana": "トウキョウト",
    "prefecture_code": 13,
    "city": "立川市",
    "city_kana": "タチカワシ",
    "town": "緑町",
    "town_kana": "ミドリチョウ",
    "street": "１０−２",
    "office_name": "大学共同利用機関法人　人間文化研究機構　国立国語研究所",
    "office_name_kana": "ダイガクキヨウドウリヨウキカンホウジン ニンゲンブンカケンキユウキコウ コクリツコクゴケンキユウシヨ"
  },
  "8562": {
    "postcode": "1908562",
    "prefecture": "東京都",
    "prefecture_kana": "トウキョウト",
    "prefecture_code": 13,
    "city": "立川市",
    "city_kana": "タチカワシ",
    "town": "緑町",
    "town_kana": "ミドリチョウ",
    "street": "１０−３",
    "office_name": "情報・システム研究機構　統計数理研究所",
    "office_name_kana": "ジヨウホウ・システムケンキユウキコウ トウケイスウリケンキユウシヨ"
  },
  "8565": {
    "postcode": "1908565",
    "prefecture": "東京都",
    "prefecture_kana": "トウキョウト",
    "prefecture_code": 13,
    "city": "立川市",
    "city_kana": "タチカワシ",
    "town": "緑町",
    "town_kana": "ミドリチョウ",
    "street": "４番地の２立川地方合同庁舎４階・５階",
    "office_name": "立川税務署",
    "office_name_kana": "タチカワゼイムシヨ"
  },
  "8566": {
    "postcode": "1908566",
    "prefecture": "東京都",
    "prefecture_kana": "トウキョウト",
    "prefecture_code": 13,
    "city": "立川市",
    "city_kana": "タチカワシ",
    "town": "柏町",
    "town_kana": "カシワチョウ",
    "street": "１丁目２６−４",
    "office_name": "株式会社　セレモア",
    "office_name_kana": "カブシキガイシヤ セレモア"
  },
  "8571": {
    "postcode": "1908571",
    "prefecture": "東京都",
    "prefecture_kana": "トウキョウト",
    "prefecture_code": 13,
    "city": "立川市",
    "city_kana": "タチカワシ",
    "town": "緑町",
    "town_kana": "ミドリチョウ",
    "street": "１０−４",
    "office_name": "東京地方裁判所　立川支部",
    "office_name_kana": "トウキヨウチホウサイバンシヨ タチカワシブ"
  },
  "8572": {
    "postcode": "1908572",
    "prefecture": "東京都",
    "prefecture_kana": "トウキョウト",
    "prefecture_code": 13,
    "city": "立川市",
    "city_kana": "タチカワシ",
    "town": "緑町",
    "town_kana": "ミドリチョウ",
    "street": "１０−４",
    "office_name": "立川簡易裁判所",
    "office_name_kana": "タチカワカンイサイバンシヨ"
  },
  "8573": {
    "postcode": "1908573",
    "prefecture": "東京都",
    "prefecture_kana": "トウキョウト",
    "prefecture_code": 13,
    "city": "立川市",
    "city_kana": "タチカワシ",
    "town": "錦町",
    "town_kana": "ニシキチョウ",
    "street": "１丁目１２−１",
    "office_name": "東京都市町村　職員共済組合",
    "office_name_kana": "トウキヨウトシチヨウソン シヨクインキヨウサイクミアイ"
  },
  "8575": {
    "postcode": "1908575",
    "prefecture": "東京都",
    "prefecture_kana": "トウキョウト",
    "prefecture_code": 13,
    "city": "立川市",
    "city_kana": "タチカワシ",
    "town": "緑町",
    "town_kana": "ミドリチョウ",
    "street": "４−２",
    "office_name": "関東財務局　立川出張所",
    "office_name_kana": "カントウザイムキヨク タチカワシユツチヨウジヨ"
  },
  "8578": {
    "postcode": "1908578",
    "prefecture": "東京都",
    "prefecture_kana": "トウキョウト",
    "prefecture_code": 13,
    "city": "立川市",
    "city_kana": "タチカワシ",
    "town": "緑町",
    "town_kana": "ミドリチョウ",
    "street": "４−１",
    "office_name": "社会医療法人社団　健生会　立川相互病院",
    "office_name_kana": "シヤカイイリヨウホウジンシヤダン ケンセイカイ タチカワソウゴビヨウイン"
  },
  "8579": {
    "postcode": "1908579",
    "prefecture": "東京都",
    "prefecture_kana": "トウキョウト",
    "prefecture_code": 13,
    "city": "立川市",
    "city_kana": "タチカワシ",
    "town": "緑町",
    "town_kana": "ミドリチョウ",
    "street": "３２５６",
    "office_name": "独立行政法人　国立病院機構本部　ＤＭＡＴ事務局",
    "office_name_kana": "ドクリツギヨウセイホウジン コクリツビヨウインキコウホンブ デイ-マツトジムキヨク"
  },
  "8581": {
    "postcode": "1908581",
    "prefecture": "東京都",
    "prefecture_kana": "トウキョウト",
    "prefecture_code": 13,
    "city": "立川市",
    "city_kana": "タチカワシ",
    "town": "緑町",
    "town_kana": "ミドリチョウ",
    "street": "３５９１",
    "office_name": "自治大学校",
    "office_name_kana": "ジチダイガツコウ"
  },
  "8582": {
    "postcode": "1908582",
    "prefecture": "東京都",
    "prefecture_kana": "トウキョウト",
    "prefecture_code": 13,
    "city": "立川市",
    "city_kana": "タチカワシ",
    "town": "曙町",
    "town_kana": "アケボノチョウ",
    "street": "２丁目２０−５立川ニッセイＡＨビル１Ｆ",
    "office_name": "日本生命保険　相互会社　東京西支社",
    "office_name_kana": "ニホンセイメイホケン ソウゴガイシヤ トウキヨウニシシシヤ"
  },
  "8583": {
    "postcode": "1908583",
    "prefecture": "東京都",
    "prefecture_kana": "トウキョウト",
    "prefecture_code": 13,
    "city": "立川市",
    "city_kana": "タチカワシ",
    "town": "泉町",
    "town_kana": "イズミチョウ",
    "street": "９３５−４",
    "office_name": "東京都立砂川高等学校",
    "office_name_kana": "トウキヨウトリツスナガワコウトウガツコウ"
  },
  "8586": {
    "postcode": "1908586",
    "prefecture": "東京都",
    "prefecture_kana": "トウキョウト",
    "prefecture_code": 13,
    "city": "立川市",
    "city_kana": "タチカワシ",
    "town": "栄町",
    "town_kana": "サカエチョウ",
    "street": "６丁目１−３",
    "office_name": "横河電機　株式会社　立川オフィス",
    "office_name_kana": "ヨコガワデンキ カブシキガイシヤ タチカワオフイス"
  },
  "8588": {
    "postcode": "1908588",
    "prefecture": "東京都",
    "prefecture_kana": "トウキョウト",
    "prefecture_code": 13,
    "city": "立川市",
    "city_kana": "タチカワシ",
    "town": "曙町",
    "town_kana": "アケボノチョウ",
    "street": "２丁目１０−１ふどうやビル７階",
    "office_name": "サンケイリビング新聞社　多摩本部",
    "office_name_kana": "サンケイリビングシンブンシヤ タマホンブ"
  },
  "8589": {
    "postcode": "1908589",
    "prefecture": "東京都",
    "prefecture_kana": "トウキョウト",
    "prefecture_code": 13,
    "city": "立川市",
    "city_kana": "タチカワシ",
    "town": "緑町",
    "town_kana": "ミドリチョウ",
    "street": "１０−４",
    "office_name": "東京家庭裁判所　立川支部",
    "office_name_kana": "トウキヨウカテイサイバンシヨ タチカワシブ"
  },
  "8590": {
    "postcode": "1908590",
    "prefecture": "東京都",
    "prefecture_kana": "トウキョウト",
    "prefecture_code": 13,
    "city": "立川市",
    "city_kana": "タチカワシ",
    "town": "緑町",
    "town_kana": "ミドリチョウ",
    "street": "３２５６番地",
    "office_name": "東京医療保健大学　国立病院機構立川キャンパス",
    "office_name_kana": "トウキヨウイリヨウホケンダイガク コクリツビヨウインキコウタチカワキヤンパス"
  },
  "8609": {
    "postcode": "1908609",
    "prefecture": "東京都",
    "prefecture_kana": "トウキョウト",
    "prefecture_code": 13,
    "city": "立川市",
    "city_kana": "タチカワシ",
    "town": "緑町",
    "town_kana": "ミドリチョウ",
    "street": "４−２立川地方合同庁舎",
    "office_name": "立川公共職業安定所",
    "office_name_kana": "タチカワコウキヨウシヨクギヨウアンテイジヨ"
  },
  "8666": {
    "postcode": "1908666",
    "prefecture": "東京都",
    "prefecture_kana": "トウキョウト",
    "prefecture_code": 13,
    "city": "立川市",
    "city_kana": "タチカワシ",
    "town": "泉町",
    "town_kana": "イズミチョウ",
    "street": "１１５６番９号",
    "office_name": "立川市役所",
    "office_name_kana": "タチカワシヤクシヨ"
  },
  "8680": {
    "postcode": "1908680",
    "prefecture": "東京都",
    "prefecture_kana": "トウキョウト",
    "prefecture_code": 13,
    "city": "立川市",
    "city_kana": "タチカワシ",
    "town": "泉町",
    "town_kana": "イズミチョウ",
    "street": "８４１（立川郵便局私書箱第１６号）",
    "office_name": "立飛企業　株式会社",
    "office_name_kana": "タチヒキギヨウ カブシキガイシヤ"
  },
  "8681": {
    "postcode": "1908681",
    "prefecture": "東京都",
    "prefecture_kana": "トウキョウト",
    "prefecture_code": 13,
    "city": "立川市",
    "city_kana": "タチカワシ",
    "town": "緑町",
    "town_kana": "ミドリチョウ",
    "street": "３番地の４（立川郵便局私書箱第６号）",
    "office_name": "多摩信用金庫",
    "office_name_kana": "タマシンヨウキンコ"
  },
  "8686": {
    "postcode": "1908686",
    "prefecture": "東京都",
    "prefecture_kana": "トウキョウト",
    "prefecture_code": 13,
    "city": "立川市",
    "city_kana": "タチカワシ",
    "town": "曙町",
    "town_kana": "アケボノチョウ",
    "street": "２丁目７−１６（立川郵便局私書箱第２１号）",
    "office_name": "大和証券　株式会社　立川支店",
    "office_name_kana": "ダイワシヨウケン カブシキガイシヤ タチカワシテン"
  },
  "8688": {
    "postcode": "1908688",
    "prefecture": "東京都",
    "prefecture_kana": "トウキョウト",
    "prefecture_code": 13,
    "city": "立川市",
    "city_kana": "タチカワシ",
    "town": "高松町",
    "town_kana": "タカマツチョウ",
    "street": "１丁目１００（立川郵便局私書箱第１０号）",
    "office_name": "新立川航空機　株式会社",
    "office_name_kana": "シンタチカワコウクウキ カブシキガイシヤ"
  }
}