{
  "0000": {
    "postcode": "1920000",
    "prefecture": "東京都",
    "prefecture_kana": "トウキョウト",
    "prefecture_code": 13,
    "city": "八王子市",
    "city_kana": "ハチオウジシ",
    "town": "",
    "town_kana": "",
    "street": null,
    "office_name": null,
    "office_name_kana": null
  },
  "0001": {
    "postcode": "1920001",
    "prefecture": "東京都",
    "prefecture_kana": "トウキョウト",
    "prefecture_code": 13,
    "city": "八王子市",
    "city_kana": "ハチオウジシ",
    "town": "戸吹町",
    "town_kana": "トブキマチ",
    "street": null,
    "office_name": null,
    "office_name_kana": null
  },
  "0002": {
    "postcode": "1920002",
    "prefecture": "東京都",
    "prefecture_kana": "トウキョウト",
    "prefecture_code": 13,
    "city": "八王子市",
    "city_kana": "ハチオウジシ",
    "town": "高月町",
    "town_kana": "タカツキマチ",
    "street": null,
    "office_name": null,
    "office_name_kana": null
  },
  "0003": {
    "postcode": "1920003",
    "prefecture": "東京都",
    "prefecture_kana": "トウキョウト",
    "prefecture_code": 13,
    "city": "八王子市",
    "city_kana": "ハチオウジシ",
    "town": "丹木町",
    "town_kana": "タンギマチ",
    "street": null,
    "office_name": null,
    "office_name_kana": null
  },
  "0004": {
    "postcode": "1920004",
    "prefecture": "東京都",
    "prefecture_kana": "トウキョウト",
    "prefecture_code": 13,
    "city": "八王子市",
    "city_kana": "ハチオウジシ",
    "town": "加住町",
    "town_kana": "カスミマチ",
    "street": null,
    "office_name": null,
    "office_name_kana": null
  },
  "0005": {
    "postcode": "1920005",
    "prefecture": "東京都",
    "prefecture_kana": "トウキョウト",
    "prefecture_code": 13,
    "city": "八王子市",
    "city_kana": "ハチオウジシ",
    "town": "宮下町",
    "town_kana": "ミヤシタマチ",
    "street": null,
    "office_name": null,
    "office_name_kana": null
  },
  "0011": {
    "postcode": "1920011",
    "prefecture": "東京都",
    "prefecture_kana": "トウキョウト",
    "prefecture_code": 13,
    "city": "八王子市",
    "city_kana": "ハチオウジシ",
    "town": "滝山町",
    "town_kana": "タキヤママチ",
    "street": null,
    "office_name": null,
    "office_name_kana": null
  },
  "0012": {
    "postcode": "1920012",
    "prefecture": "東京都",
    "prefecture_kana": "トウキョウト",
    "prefecture_code": 13,
    "city": "八王子市",
    "city_kana": "ハチオウジシ",
    "town": "左入町",
    "town_kana": "サニュウマチ",
    "street": null,
    "office_name": null,
    "office_name_kana": null
  },
  "0013": {
    "postcode": "1920013",
    "prefecture": "東京都",
    "prefecture_kana": "トウキョウト",
    "prefecture_code": 13,
    "city": "八王子市",
    "city_kana": "ハチオウジシ",
    "town": "梅坪町",
    "town_kana": "ウメツボマチ",
    "street": null,
    "office_name": null,
    "office_name_kana": null
  },
  "0014": {
    "postcode": "1920014",
    "prefecture": "東京都",
    "prefecture_kana": "トウキョウト",
    "prefecture_code": 13,
    "city": "八王子市",
    "city_kana": "ハチオウジシ",
    "town": "みつい台",
    "town_kana": "ミツイダイ",
    "street": null,
    "office_name": null,
    "office_name_kana": null
  },
  "0015": {
    "postcode": "1920015",
    "prefecture": "東京都",
    "prefecture_kana": "トウキョウト",
    "prefecture_code": 13,
    "city": "八王子市",
    "city_kana": "ハチオウジシ",
    "town": "中野町",
    "town_kana": "ナカノマチ",
    "street": null,
    "office_name": null,
    "office_name_kana": null
  },
  "0016": {
    "postcode": "1920016",
    "prefecture": "東京都",
    "prefecture_kana": "トウキョウト",
    "prefecture_code": 13,
    "city": "八王子市",
    "city_kana": "ハチオウジシ",
    "town": "谷野町",
    "town_kana": "ヤノマチ",
    "street": null,
    "office_name": null,
    "office_name_kana": null
  },
  "0021": {
    "postcode": "1920021",
    "prefecture": "東京都",
    "prefecture_kana": "トウキョウト",
    "prefecture_code": 13,
    "city": "八王子市",
    "city_kana": "ハチオウジシ",
    "town": "丸山町",
    "town_kana": "マルヤマチョウ",
    "street": null,
    "office_name": null,
    "office_name_kana": null
  },
  "0022": {
    "postcode": "1920022",
    "prefecture": "東京都",
    "prefecture_kana": "トウキョウト",
    "prefecture_code": 13,
    "city": "八王子市",
    "city_kana": "ハチオウジシ",
    "town": "平町",
    "town_kana": "タイラマチ",
    "street": null,
    "office_name": null,
    "office_name_kana": null
  },
  "0023": {
    "postcode": "1920023",
    "prefecture": "東京都",
    "prefecture_kana": "トウキョウト",
    "prefecture_code": 13,
    "city": "八王子市",
    "city_kana": "ハチオウジシ",
    "town": "久保山町",
    "town_kana": "クボヤマチョウ",
    "street": null,
    "office_name": null,
    "office_name_kana": null
  },
  "0024": {
    "postcode": "1920024",
    "prefecture": "東京都",
    "prefecture_kana": "トウキョウト",
    "prefecture_code": 13,
    "city": "八王子市",
    "city_kana": "ハチオウジシ",
    "town": "宇津木町",
    "town_kana": "ウツキマチ",
    "street": null,
    "office_name": null,
    "office_name_kana": null
  },
  "0025": {
    "postcode": "1920025",
    "prefecture": "東京都",
    "prefecture_kana": "トウキョウト",
    "prefecture_code": 13,
    "city": "八王子市",
    "city_kana": "ハチオウジシ",
    "town": "尾崎町",
    "town_kana": "オサキマチ",
    "street": null,
    "office_name": null,
    "office_name_kana": null
  },
  "0031": {
    "postcode": "1920031",
    "prefecture": "東京都",
    "prefecture_kana": "トウキョウト",
    "prefecture_code": 13,
    "city": "八王子市",
    "city_kana": "ハチオウジシ",
    "town": "小宮町",
    "town_kana": "コミヤマチ",
    "street": null,
    "office_name": null,
    "office_name_kana": null
  },
  "0032": {
    "postcode": "1920032",
    "prefecture": "東京都",
    "prefecture_kana": "トウキョウト",
    "prefecture_code": 13,
    "city": "八王子市",
    "city_kana": "ハチオウジシ",
    "town": "石川町",
    "town_kana": "イシカワマチ",
    "street": null,
    "office_name": null,
    "office_name_kana": null
  },
  "0033": {
    "postcode": "1920033",
    "prefecture": "東京都",
    "prefecture_kana": "トウキョウト",
    "prefecture_code": 13,
    "city": "八王子市",
    "city_kana": "ハチオウジシ",
    "town": "高倉町",
    "town_kana": "タカクラマチ",
    "street": null,
    "office_name": null,
    "office_name_kana": null
  },
  "0034": {
    "postcode": "1920034",
    "prefecture": "東京都",
    "prefecture_kana": "トウキョウト",
    "prefecture_code": 13,
    "city": "八王子市",
    "city_kana": "ハチオウジシ",
    "town": "大谷町",
    "town_kana": "オオヤマチ",
    "street": null,
    "office_name": null,
    "office_name_kana": null
  },
  "0041": {
    "postcode": "1920041",
    "prefecture": "東京都",
    "prefecture_kana": "トウキョウト",
    "prefecture_code": 13,
    "city": "八王子市",
    "city_kana": "ハチオウジシ",
    "town": "中野上町",
    "town_kana": "ナカノカミチョウ",
    "street": null,
    "office_name": null,
    "office_name_kana": null
  },
  "0042": {
    "postcode": "1920042",
    "prefecture": "東京都",
    "prefecture_kana": "トウキョウト",
    "prefecture_code": 13,
    "city": "八王子市",
    "city_kana": "ハチオウジシ",
    "town": "中野山王",
    "town_kana": "ナカノサンノウ",
    "street": null,
    "office_name": null,
    "office_name_kana": null
  },
  "0043": {
    "postcode": "1920043",
    "prefecture": "東京都",
    "prefecture_kana": "トウキョウト",
    "prefecture_code": 13,
    "city": "八王子市",
    "city_kana": "ハチオウジシ",
    "town": "暁町",
    "town_kana": "アカツキチョウ",
    "street": null,
    "office_name": null,
    "office_name_kana": null
  },
  "0044": {
    "postcode": "1920044",
    "prefecture": "東京都",
    "prefecture_kana": "トウキョウト",
    "prefecture_code": 13,
    "city": "八王子市",
    "city_kana": "ハチオウジシ",
    "town": "富士見町",
    "town_kana": "フジミチョウ",
    "street": null,
    "office_name": null,
    "office_name_kana": null
  },
  "0045": {
    "postcode": "1920045",
    "prefecture": "東京都",
    "prefecture_kana": "トウキョウト",
    "prefecture_code": 13,
    "city": "八王子市",
    "city_kana": "ハチオウジシ",
    "town": "大和田町",
    "town_kana": "オオワダマチ",
    "street": null,
    "office_name": null,
    "office_name_kana": null
  },
  "0046": {
    "postcode": "1920046",
    "prefecture": "東京都",
    "prefecture_kana": "トウキョウト",
    "prefecture_code": 13,
    "city": "八王子市",
    "city_kana": "ハチオウジシ",
    "town": "明神町",
    "town_kana": "ミョウジンチョウ",
    "street": null,
    "office_name": null,
    "office_name_kana": null
  },
  "0051": {
    "postcode": "1920051",
    "prefecture": "東京都",
    "prefecture_kana": "トウキョウト",
    "prefecture_code": 13,
    "city": "八王子市",
    "city_kana": "ハチオウジシ",
    "town": "元本郷町",
    "town_kana": "モトホンゴウチョウ",
    "street": null,
    "office_name": null,
    "office_name_kana": null
  },
  "0052": {
    "postcode": "1920052",
    "prefecture": "東京都",
    "prefecture_kana": "トウキョウト",
    "prefecture_code": 13,
    "city": "八王子市",
    "city_kana": "ハチオウジシ",
    "town": "本郷町",
    "town_kana": "ホンゴウチョウ",
    "street": null,
    "office_name": null,
    "office_name_kana": null
  },
  "0053": {
    "postcode": "1920053",
    "prefecture": "東京都",
    "prefecture_kana": "トウキョウト",
    "prefecture_code": 13,
    "city": "八王子市",
    "city_kana": "ハチオウジシ",
    "town": "八幡町",
    "town_kana": "ハチマンチョウ",
    "street": null,
    "office_name": null,
    "office_name_kana": null
  },
  "0054": {
    "postcode": "1920054",
    "prefecture": "東京都",
    "prefecture_kana": "トウキョウト",
    "prefecture_code": 13,
    "city": "八王子市",
    "city_kana": "ハチオウジシ",
    "town": "小門町",
    "town_kana": "オカドマチ",
    "street": null,
    "office_name": null,
    "office_name_kana": null
  },
  "0055": {
    "postcode": "1920055",
    "prefecture": "東京都",
    "prefecture_kana": "トウキョウト",
    "prefecture_code": 13,
    "city": "八王子市",
    "city_kana": "ハチオウジシ",
    "town": "八木町",
    "town_kana": "ヤギチョウ",
    "street": null,
    "office_name": null,
    "office_name_kana": null
  },
  "0056": {
    "postcode": "1920056",
    "prefecture": "東京都",
    "prefecture_kana": "トウキョウト",
    "prefecture_code": 13,
    "city": "八王子市",
    "city_kana": "ハチオウジシ",
    "town": "追分町",
    "town_kana": "オイワケチョウ",
    "street": null,
    "office_name": null,
    "office_name_kana": null
  },
  "0061": {
    "postcode": "1920061",
    "prefecture": "東京都",
    "prefecture_kana": "トウキョウト",
    "prefecture_code": 13,
    "city": "八王子市",
    "city_kana": "ハチオウジシ",
    "town": "平岡町",
    "town_kana": "ヒラオカチョウ",
    "street": null,
    "office_name": null,
    "office_name_kana": null
  },
  "0062": {
    "postcode": "1920062",
    "prefecture": "東京都",
    "prefecture_kana": "トウキョウト",
    "prefecture_code": 13,
    "city": "八王子市",
    "city_kana": "ハチオウジシ",
    "town": "大横町",
    "town_kana": "オオヨコチョウ",
    "street": null,
    "office_name": null,
    "office_name_kana": null
  },
  "0063": {
    "postcode": "1920063",
    "prefecture": "東京都",
    "prefecture_kana": "トウキョウト",
    "prefecture_code": 13,
    "city": "八王子市",
    "city_kana": "ハチオウジシ",
    "town": "元横山町",
    "town_kana": "モトヨコヤマチョウ",
    "street": null,
    "office_name": null,
    "office_name_kana": null
  },
  "0064": {
    "postcode": "1920064",
    "prefecture": "東京都",
    "prefecture_kana": "トウキョウト",
    "prefecture_code": 13,
    "city": "八王子市",
    "city_kana": "ハチオウジシ",
    "town": "田町",
    "town_kana": "タマチ",
    "street": null,
    "office_name": null,
    "office_name_kana": null
  },
  "0065": {
    "postcode": "1920065",
    "prefecture": "東京都",
    "prefecture_kana": "トウキョウト",
    "prefecture_code": 13,
    "city": "八王子市",
    "city_kana": "ハチオウジシ",
    "town": "新町",
    "town_kana": "シンチョウ",
    "street": null,
    "office_name": null,
    "office_name_kana": null
  },
  "0066": {
    "postcode": "1920066",
    "prefecture": "東京都",
    "prefecture_kana": "トウキョウト",
    "prefecture_code": 13,
    "city": "八王子市",
    "city_kana": "ハチオウジシ",
    "town": "本町",
    "town_kana": "ホンチョウ",
    "street": null,
    "office_name": null,
    "office_name_kana": null
  },
  "0071": {
    "postcode": "1920071",
    "prefecture": "東京都",
    "prefecture_kana": "トウキョウト",
    "prefecture_code": 13,
    "city": "八王子市",
    "city_kana": "ハチオウジシ",
    "town": "八日町",
    "town_kana": "ヨウカマチ",
    "street": null,
    "office_name": null,
    "office_name_kana": null
  },
  "0072": {
    "postcode": "1920072",
    "prefecture": "東京都",
    "prefecture_kana": "トウキョウト",
    "prefecture_code": 13,
    "city": "八王子市",
    "city_kana": "ハチオウジシ",
    "town": "南町",
    "town_kana": "ミナミチョウ",
    "street": null,
    "office_name": null,
    "office_name_kana": null
  },
  "0073": {
    "postcode": "1920073",
    "prefecture": "東京都",
    "prefecture_kana": "トウキョウト",
    "prefecture_code": 13,
    "city": "八王子市",
    "city_kana": "ハチオウジシ",
    "town": "寺町",
    "town_kana": "テラマチ",
    "street": null,
    "office_name": null,
    "office_name_kana": null
  },
  "0074": {
    "postcode": "1920074",
    "prefecture": "東京都",
    "prefecture_kana": "トウキョウト",
    "prefecture_code": 13,
    "city": "八王子市",
    "city_kana": "ハチオウジシ",
    "town": "天神町",
    "town_kana": "テンジンチョウ",
    "street": null,
    "office_name": null,
    "office_name_kana": null
  },
  "0075": {
    "postcode": "1920075",
    "prefecture": "東京都",
    "prefecture_kana": "トウキョウト",
    "prefecture_code": 13,
    "city": "八王子市",
    "city_kana": "ハチオウジシ",
    "town": "南新町",
    "town_kana": "ミナミシンチョウ",
    "street": null,
    "office_name": null,
    "office_name_kana": null
  },
  "0081": {
    "postcode": "1920081",
    "prefecture": "東京都",
    "prefecture_kana": "トウキョウト",
    "prefecture_code": 13,
    "city": "八王子市",
    "city_kana": "ハチオウジシ",
    "town": "横山町",
    "town_kana": "ヨコヤマチョウ",
    "street": null,
    "office_name": null,
    "office_name_kana": null
  },
  "0082": {
    "postcode": "1920082",
    "prefecture": "東京都",
    "prefecture_kana": "トウキョウト",
    "prefecture_code": 13,
    "city": "八王子市",
    "city_kana": "ハチオウジシ",
    "town": "東町",
    "town_kana": "アズマチョウ",
    "street": null,
    "office_name": null,
    "office_name_kana": null
  },
  "0083": {
    "postcode": "1920083",
    "prefecture": "東京都",
    "prefecture_kana": "トウキョウト",
    "prefecture_code": 13,
    "city": "八王子市",
    "city_kana": "ハチオウジシ",
    "town": "旭町",
    "town_kana": "アサヒチョウ",
    "street": null,
    "office_name": null,
    "office_name_kana": null
  },
  "0084": {
    "postcode": "1920084",
    "prefecture": "東京都",
    "prefecture_kana": "トウキョウト",
    "prefecture_code": 13,
    "city": "八王子市",
    "city_kana": "ハチオウジシ",
    "town": "三崎町",
    "town_kana": "ミサキチョウ",
    "street": null,
    "office_name": null,
    "office_name_kana": null
  },
  "0085": {
    "postcode": "1920085",
    "prefecture": "東京都",
    "prefecture_kana": "トウキョウト",
    "prefecture_code": 13,
    "city": "八王子市",
    "city_kana": "ハチオウジシ",
    "town": "中町",
    "town_kana": "ナカチョウ",
    "street": null,
    "office_name": null,
    "office_name_kana": null
  },
  "0151": {
    "postcode": "1920151",
    "prefecture": "東京都",
    "prefecture_kana": "トウキョウト",
    "prefecture_code": 13,
    "city": "八王子市",
    "city_kana": "ハチオウジシ",
    "town": "上川町",
    "town_kana": "カミカワマチ",
    "street": null,
    "office_name": null,
    "office_name_kana": null
  },
  "0152": {
    "postcode": "1920152",
    "prefecture": "東京都",
    "prefecture_kana": "トウキョウト",
    "prefecture_code": 13,
    "city": "八王子市",
    "city_kana": "ハチオウジシ",
    "town": "美山町",
    "town_kana": "ミヤマチョウ",
    "street": null,
    "office_name": null,
    "office_name_kana": null
  },
  "0153": {
    "postcode": "1920153",
    "prefecture": "東京都",
    "prefecture_kana": "トウキョウト",
    "prefecture_code": 13,
    "city": "八王子市",
    "city_kana": "ハチオウジシ",
    "town": "西寺方町",
    "town_kana": "ニシテラカタマチ",
    "street": null,
    "office_name": null,
    "office_name_kana": null
  },
  "0154": {
    "postcode": "1920154",
    "prefecture": "東京都",
    "prefecture_kana": "トウキョウト",
    "prefecture_code": 13,
    "city": "八王子市",
    "city_kana": "ハチオウジシ",
    "town": "下恩方町",
    "town_kana": "シモオンガタマチ",
    "street": null,
    "office_name": null,
    "office_name_kana": null
  },
  "0155": {
    "postcode": "1920155",
    "prefecture": "東京都",
    "prefecture_kana": "トウキョウト",
    "prefecture_code": 13,
    "city": "八王子市",
    "city_kana": "ハチオウジシ",
    "town": "小津町",
    "town_kana": "オツマチ",
    "street": null,
    "office_name": null,
    "office_name_kana": null
  },
  "0156": {
    "postcode": "1920156",
    "prefecture": "東京都",
    "prefecture_kana": "トウキョウト",
    "prefecture_code": 13,
    "city": "八王子市",
    "city_kana": "ハチオウジシ",
    "town": "上恩方町",
    "town_kana": "カミオンガタマチ",
    "street": null,
    "office_name": null,
    "office_name_kana": null
  },
  "0351": {
    "postcode": "1920351",
    "prefecture": "東京都",
    "prefecture_kana": "トウキョウト",
    "prefecture_code": 13,
    "city": "八王子市",
    "city_kana": "ハチオウジシ",
    "town": "東中野",
    "town_kana": "ヒガシナカノ",
    "street": null,
    "office_name": null,
    "office_name_kana": null
  },
  "0352": {
    "postcode": "1920352",
    "prefecture": "東京都",
    "prefecture_kana": "トウキョウト",
    "prefecture_code": 13,
    "city": "八王子市",
    "city_kana": "ハチオウジシ",
    "town": "大塚",
    "town_kana": "オオツカ",
    "street": null,
    "office_name": null,
    "office_name_kana": null
  },
  "0353": {
    "postcode": "1920353",
    "prefecture": "東京都",
    "prefecture_kana": "トウキョウト",
    "prefecture_code": 13,
    "city": "八王子市",
    "city_kana": "ハチオウジシ",
    "town": "鹿島",
    "town_kana": "カシマ",
    "street": null,
    "office_name": null,
    "office_name_kana": null
  },
  "0354": {
    "postcode": "1920354",
    "prefecture": "東京都",
    "prefecture_kana": "トウキョウト",
    "prefecture_code": 13,
    "city": "八王子市",
    "city_kana": "ハチオウジシ",
    "town": "松が谷",
    "town_kana": "マツガヤ",
    "street": null,
    "office_name": null,
    "office_name_kana": null
  },
  "0355": {
    "postcode": "1920355",
    "prefecture": "東京都",
    "prefecture_kana": "トウキョウト",
    "prefecture_code": 13,
    "city": "八王子市",
    "city_kana": "ハチオウジシ",
    "town": "堀之内",
    "town_kana": "ホリノウチ",
    "street": null,
    "office_name": null,
    "office_name_kana": null
  },
  "0361": {
    "postcode": "1920361",
    "prefecture": "東京都",
    "prefecture_kana": "トウキョウト",
    "prefecture_code": 13,
    "city": "八王子市",
    "city_kana": "ハチオウジシ",
    "town": "越野",
    "town_kana": "コシノ",
    "street": null,
    "office_name": null,
    "office_name_kana": null
  },
  "0362": {
    "postcode": "1920362",
    "prefecture": "東京都",
    "prefecture_kana": "トウキョウト",
    "prefecture_code": 13,
    "city": "八王子市",
    "city_kana": "ハチオウジシ",
    "town": "松木",
    "town_kana": "マツギ",
    "street": null,
    "office_name": null,
    "office_name_kana": null
  },
  "0363": {
    "postcode": "1920363",
    "prefecture": "東京都",
    "prefecture_kana": "トウキョウト",
    "prefecture_code": 13,
    "city": "八王子市",
    "city_kana": "ハチオウジシ",
    "town": "別所",
    "town_kana": "ベッショ",
    "street": null,
    "office_name": null,
    "office_name_kana": null
  },
  "0364": {
    "postcode": "1920364",
    "prefecture": "東京都",
    "prefecture_kana": "トウキョウト",
    "prefecture_code": 13,
    "city": "八王子市",
    "city_kana": "ハチオウジシ",
    "town": "南大沢",
    "town_kana": "ミナミオオサワ",
    "street": null,
    "office_name": null,
    "office_name_kana": null
  },
  "0371": {
    "postcode": "1920371",
    "prefecture": "東京都",
    "prefecture_kana": "トウキョウト",
    "prefecture_code": 13,
    "city": "八王子市",
    "city_kana": "ハチオウジシ",
    "town": "南陽台",
    "town_kana": "ナンヨウダイ",
    "street": null,
    "office_name": null,
    "office_name_kana": null
  },
  "0372": {
    "postcode": "1920372",
    "prefecture": "東京都",
    "prefecture_kana": "トウキョウト",
    "prefecture_code": 13,
    "city": "八王子市",
    "city_kana": "ハチオウジシ",
    "town": "下柚木",
    "town_kana": "シモユギ",
    "street": null,
    "office_name": null,
    "office_name_kana": null
  },
  "0373": {
    "postcode": "1920373",
    "prefecture": "東京都",
    "prefecture_kana": "トウキョウト",
    "prefecture_code": 13,
    "city": "八王子市",
    "city_kana": "ハチオウジシ",
    "town": "上柚木",
    "town_kana": "カミユギ",
    "street": null,
    "office_name": null,
    "office_name_kana": null
  },
  "0374": {
    "postcode": "1920374",
    "prefecture": "東京都",
    "prefecture_kana": "トウキョウト",
    "prefecture_code": 13,
    "city": "八王子市",
    "city_kana": "ハチオウジシ",
    "town": "中山",
    "town_kana": "ナカヤマ",
    "street": null,
    "office_name": null,
    "office_name_kana": null
  },
  "0375": {
    "postcode": "1920375",
    "prefecture": "東京都",
    "prefecture_kana": "トウキョウト",
    "prefecture_code": 13,
    "city": "八王子市",
    "city_kana": "ハチオウジシ",
    "town": "鑓水",
    "town_kana": "ヤリミズ",
    "street": null,
    "office_name": null,
    "office_name_kana": null
  },
  "0392": {
    "postcode": "1920392",
    "prefecture": "東京都",
    "prefecture_kana": "トウキョウト",
    "prefecture_code": 13,
    "city": "八王子市",
    "city_kana": "ハチオウジシ",
    "town": "堀之内",
    "town_kana": "ホリノウチ",
    "street": "１４３２−１",
    "office_name": "東京薬科大学",
    "office_name_kana": "トウキヨウヤツカダイガク"
  },
  "0393": {
    "postcode": "1920393",
    "prefecture": "東京都",
    "prefecture_kana": "トウキョウト",
    "prefecture_code": 13,
    "city": "八王子市",
    "city_kana": "ハチオウジシ",
    "town": "東中野",
    "town_kana": "ヒガシナカノ",
    "street": "７４２−１",
    "office_name": "中央大学",
    "office_name_kana": "チユウオウダイガク"
  },
  "0394": {
    "postcode": "1920394",
    "prefecture": "東京都",
    "prefecture_kana": "トウキョウト",
    "prefecture_code": 13,
    "city": "八王子市",
    "city_kana": "ハチオウジシ",
    "town": "鑓水",
    "town_kana": "ヤリミズ",
    "street": "２丁目１７２３",
    "office_name": "学校法人　多摩美術大学　八王子校舎",
    "office_name_kana": "ガツコウホウジン タマビジユツダイガク ハチオウジコウシヤ"
  },
  "0395": {
    "postcode": "1920395",
    "prefecture": "東京都",
    "prefecture_kana": "トウキョウト",
    "prefecture_code": 13,
    "city": "八王子市",
    "city_kana": "ハチオウジシ",
    "town": "大塚",
    "town_kana": "オオツカ",
    "street": "３５９",
    "office_name": "帝京大学　八王子校舎",
    "office_name_kana": "テイキヨウダイガク ハチオウジコウシヤ"
  },
  "0396": {
    "postcode": "1920396",
    "prefecture": "東京都",
    "prefecture_kana": "トウキョウト",
    "prefecture_code": 13,
    "city": "八王子市",
    "city_kana": "ハチオウジシ",
    "town": "鑓水",
    "town_kana": "ヤリミズ",
    "street": "５３０",
    "office_name": "山野美容芸術短期大学",
    "office_name_kana": "ヤマノビヨウゲイジユツタンキダイガク"
  },
  "0397": {
    "postcode": "1920397",
    "prefecture": "東京都",
    "prefecture_kana": "トウキョウト",
    "prefecture_code": 13,
    "city": "八王子市",
    "city_kana": "ハチオウジシ",
    "town": "南大沢",
    "town_kana": "ミナミオオサワ",
    "street": "１丁目１",
    "office_name": "東京都立大学",
    "office_name_kana": "トウキヨウトリツダイガク"
  },
  "0398": {
    "postcode": "1920398",
    "prefecture": "東京都",
    "prefecture_kana": "トウキョウト",
    "prefecture_code": 13,
    "city": "八王子市",
    "city_kana": "ハチオウジシ",
    "town": "南大沢",
    "town_kana": "ミナミオオサワ",
    "street": "４−３−３",
    "office_name": "株式会社　スリーボンド",
    "office_name_kana": "カブシキガイシヤ スリ-ボンド"
  },
  "0902": {
    "postcode": "1920902",
    "prefecture": "東京都",
    "prefecture_kana": "トウキョウト",
    "prefecture_code": 13,
    "city": "八王子市",
    "city_kana": "ハチオウジシ",
    "town": "上野町",
    "town_kana": "ウエノマチ",
    "street": null,
    "office_name": null,
    "office_name_kana": null
  },
  "0903": {
    "postcode": "1920903",
    "prefecture": "東京都",
    "prefecture_kana": "トウキョウト",
    "prefecture_code": 13,
    "city": "八王子市",
    "city_kana": "ハチオウジシ",
    "town": "万町",
    "town_kana": "ヨロズチョウ",
    "street": null,
    "office_name": null,
    "office_name_kana": null
  },
  "0904": {
    "postcode": "1920904",
    "prefecture": "東京都",
    "prefecture_kana": "トウキョウト",
    "prefecture_code": 13,
    "city": "八王子市",
    "city_kana": "ハチオウジシ",
    "town": "子安町",
    "town_kana": "コヤスマチ",
    "street": null,
    "office_name": null,
    "office_name_kana": null
  },
  "0906": {
    "postcode": "1920906",
    "prefecture": "東京都",
    "prefecture_kana": "トウキョウト",
    "prefecture_code": 13,
    "city": "八王子市",
    "city_kana": "ハチオウジシ",
    "town": "北野町",
    "town_kana": "キタノマチ",
    "street": null,
    "office_name": null,
    "office_name_kana": null
  },
  "0907": {
    "postcode": "1920907",
    "prefecture": "東京都",
    "prefecture_kana": "トウキョウト",
    "prefecture_code": 13,
    "city": "八王子市",
    "city_kana": "ハチオウジシ",
    "town": "長沼町",
    "town_kana": "ナガヌママチ",
    "street": null,
    "office_name": null,
    "office_name_kana": null
  },
  "0911": {
    "postcode": "1920911",
    "prefecture": "東京都",
    "prefecture_kana": "トウキョウト",
    "prefecture_code": 13,
    "city": "八王子市",
    "city_kana": "ハチオウジシ",
    "town": "打越町",
    "town_kana": "ウチコシマチ",
    "street": null,
    "office_name": null,
    "office_name_kana": null
  },
  "0912": {
    "postcode": "1920912",
    "prefecture": "東京都",
    "prefecture_kana": "トウキョウト",
    "prefecture_code": 13,
    "city": "八王子市",
    "city_kana": "ハチオウジシ",
    "town": "絹ケ丘",
    "town_kana": "キヌガオカ",
    "street": null,
    "office_name": null,
    "office_name_kana": null
  },
  "0913": {
    "postcode": "1920913",
    "prefecture": "東京都",
    "prefecture_kana": "トウキョウト",
    "prefecture_code": 13,
    "city": "八王子市",
    "city_kana": "ハチオウジシ",
    "town": "北野台",
    "town_kana": "キタノダイ",
    "street": null,
    "office_name": null,
    "office_name_kana": null
  },
  "0914": {
    "postcode": "1920914",
    "prefecture": "東京都",
    "prefecture_kana": "トウキョウト",
    "prefecture_code": 13,
    "city": "八王子市",
    "city_kana": "ハチオウジシ",
    "town": "片倉町",
    "town_kana": "カタクラマチ",
    "street": null,
    "office_name": null,
    "office_name_kana": null
  },
  "0915": {
    "postcode": "1920915",
    "prefecture": "東京都",
    "prefecture_kana": "トウキョウト",
    "prefecture_code": 13,
    "city": "八王子市",
    "city_kana": "ハチオウジシ",
    "town": "宇津貫町",
    "town_kana": "ウツヌキマチ",
    "street": null,
    "office_name": null,
    "office_name_kana": null
  },
  "0916": {
    "postcode": "1920916",
    "prefecture": "東京都",
    "prefecture_kana": "トウキョウト",
    "prefecture_code": 13,
    "city": "八王子市",
    "city_kana": "ハチオウジシ",
    "town": "みなみ野",
    "town_kana": "ミナミノ",
    "street": null,
    "office_name": null,
    "office_name_kana": null
  },
  "0917": {
    "postcode": "1920917",
    "prefecture": "東京都",
    "prefecture_kana": "トウキョウト",
    "prefecture_code": 13,
    "city": "八王子市",
    "city_kana": "ハチオウジシ",
    "town": "西片倉",
    "town_kana": "ニシカタクラ",
    "street": null,
    "office_name": null,
    "office_name_kana": null
  },
  "0918": {
    "postcode": "1920918",
    "prefecture": "東京都",
    "prefecture_kana": "トウキョウト",
    "prefecture_code": 13,
    "city": "八王子市",
    "city_kana": "ハチオウジシ",
    "town": "兵衛",
    "town_kana": "ヒョウエ",
    "street": null,
    "office_name": null,
    "office_name_kana": null
  },
  "0919": {
    "postcode": "1920919",
    "prefecture": "東京都",
    "prefecture_kana": "トウキョウト",
    "prefecture_code": 13,
    "city": "八王子市",
    "city_kana": "ハチオウジシ",
    "town": "七国",
    "town_kana": "ナナクニ",
    "street": null,
    "office_name": null,
    "office_name_kana": null
  },
  "0981": {
    "postcode": "1920981",
    "prefecture": "東京都",
    "prefecture_kana": "トウキョウト",
    "prefecture_code": 13,
    "city": "八王子市",
    "city_kana": "ハチオウジシ",
    "town": "片倉町",
    "town_kana": "カタクラマチ",
    "street": "１４０４−１",
    "office_name": "学校法人　片柳学園",
    "office_name_kana": "ガツコウホウジン カタヤナギガクエン"
  },
  "0982": {
    "postcode": "1920982",
    "prefecture": "東京都",
    "prefecture_kana": "トウキョウト",
    "prefecture_code": 13,
    "city": "八王子市",
    "city_kana": "ハチオウジシ",
    "town": "片倉町",
    "town_kana": "カタクラマチ",
    "street": "１４０４−１",
    "office_name": "学校法人　片柳学園　東京工科大学",
    "office_name_kana": "ガツコウホウジン カタヤナギガクエン トウキヨウコウカダイガク"
  },
  "0983": {
    "postcode": "1920983",
    "prefecture": "東京都",
    "prefecture_kana": "トウキョウト",
    "prefecture_code": 13,
    "city": "八王子市",
    "city_kana": "ハチオウジシ",
    "town": "片倉町",
    "town_kana": "カタクラマチ",
    "street": "１４０４番１号",
    "office_name": "日本工学院八王子専門学校",
    "office_name_kana": "ニホンコウガクインハチオウジセンモンガツコウ"
  },
  "0986": {
    "postcode": "1920986",
    "prefecture": "東京都",
    "prefecture_kana": "トウキョウト",
    "prefecture_code": 13,
    "city": "八王子市",
    "city_kana": "ハチオウジシ",
    "town": "片倉町",
    "town_kana": "カタクラマチ",
    "street": "９７７番地",
    "office_name": "日本文化大學",
    "office_name_kana": "ニホンブンカダイガク"
  },
  "0988": {
    "postcode": "1920988",
    "prefecture": "東京都",
    "prefecture_kana": "トウキョウト",
    "prefecture_code": 13,
    "city": "八王子市",
    "city_kana": "ハチオウジシ",
    "town": "北野町",
    "town_kana": "キタノマチ",
    "street": "５５９−６番地",
    "office_name": "日本水産　株式会社　八王子総合工場",
    "office_name_kana": "ニツポンスイサン カブシキカイシヤ ハチオウジソウゴウコウジヨウ"
  },
  "0989": {
    "postcode": "1920989",
    "prefecture": "東京都",
    "prefecture_kana": "トウキョウト",
    "prefecture_code": 13,
    "city": "八王子市",
    "city_kana": "ハチオウジシ",
    "town": "北野町",
    "town_kana": "キタノマチ",
    "street": "５８４−３０",
    "office_name": "八王子総合卸売センター　株式会社",
    "office_name_kana": "ハチオウジソウゴウオロシウリセンタ- カブシキガイシヤ"
  },
  "0991": {
    "postcode": "1920991",
    "prefecture": "東京都",
    "prefecture_kana": "トウキョウト",
    "prefecture_code": 13,
    "city": "八王子市",
    "city_kana": "ハチオウジシ",
    "town": "七国",
    "town_kana": "ナナクニ",
    "street": "１丁目３２−３",
    "office_name": "株式会社　ニッスイ　東京イノベーションセンター",
    "office_name_kana": "カブシキガイシヤ ニツスイ トウキヨウイノベ-シヨンセンタ-"
  },
  "0992": {
    "postcode": "1920992",
    "prefecture": "東京都",
    "prefecture_kana": "トウキョウト",
    "prefecture_code": 13,
    "city": "八王子市",
    "city_kana": "ハチオウジシ",
    "town": "宇津貫町",
    "town_kana": "ウツヌキマチ",
    "street": "１５５６番地",
    "office_name": "東京造形大学",
    "office_name_kana": "トウキヨウゾウケイダイガク"
  },
  "0993": {
    "postcode": "1920993",
    "prefecture": "東京都",
    "prefecture_kana": "トウキョウト",
    "prefecture_code": 13,
    "city": "八王子市",
    "city_kana": "ハチオウジシ",
    "town": "子安町",
    "town_kana": "コヤスマチ",
    "street": "１丁目１６−２５",
    "office_name": "東京電力　株式会社　多摩支店",
    "office_name_kana": "トウキヨウデンリヨク カブシキガイシヤ タマシテン"
  },
  "0996": {
    "postcode": "1920996",
    "prefecture": "東京都",
    "prefecture_kana": "トウキョウト",
    "prefecture_code": 13,
    "city": "八王子市",
    "city_kana": "ハチオウジシ",
    "town": "みなみ野",
    "town_kana": "ミナミノ",
    "street": "４−３３−１",
    "office_name": "株式会社　八王子エフエム",
    "office_name_kana": "カブシキガイシヤ ハチオウジエフエム"
  },
  "8501": {
    "postcode": "1928501",
    "prefecture": "東京都",
    "prefecture_kana": "トウキョウト",
    "prefecture_code": 13,
    "city": "八王子市",
    "city_kana": "ハチオウジシ",
    "town": "元本郷町",
    "town_kana": "モトホンゴウチョウ",
    "street": "３丁目２４−１",
    "office_name": "八王子市役所",
    "office_name_kana": "ハチオウジシヤクシヨ"
  },
  "8502": {
    "postcode": "1928502",
    "prefecture": "東京都",
    "prefecture_kana": "トウキョウト",
    "prefecture_code": 13,
    "city": "八王子市",
    "city_kana": "ハチオウジシ",
    "town": "旭町",
    "town_kana": "アサヒチョウ",
    "street": "１−８",
    "office_name": "東日本旅客鉄道　株式会社　八王子支社",
    "office_name_kana": "ヒガシニホンリヨカクテツドウ カブシキガイシヤ ハチオウジシシヤ"
  },
  "8505": {
    "postcode": "1928505",
    "prefecture": "東京都",
    "prefecture_kana": "トウキョウト",
    "prefecture_code": 13,
    "city": "八王子市",
    "city_kana": "ハチオウジシ",
    "town": "石川町",
    "town_kana": "イシカワマチ",
    "street": "２９７０",
    "office_name": "コニカミノルタ　東京サイト八王子",
    "office_name_kana": "コニカミノルタ トウキヨウサイトハチオウジ"
  },
  "8506": {
    "postcode": "1928506",
    "prefecture": "東京都",
    "prefecture_kana": "トウキョウト",
    "prefecture_code": 13,
    "city": "八王子市",
    "city_kana": "ハチオウジシ",
    "town": "南新町",
    "town_kana": "ミナミシンチョウ",
    "street": "４−１",
    "office_name": "八王子社会保険事務所",
    "office_name_kana": "ハチオウジシヤカイホケンジムシヨ"
  },
  "8507": {
    "postcode": "1928507",
    "prefecture": "東京都",
    "prefecture_kana": "トウキョウト",
    "prefecture_code": 13,
    "city": "八王子市",
    "city_kana": "ハチオウジシ",
    "town": "石川町",
    "town_kana": "イシカワマチ",
    "street": "２９５１",
    "office_name": "オリンパス光学工業　株式会社　技術開発センター石川",
    "office_name_kana": "オリンパスコウガクコウギヨウ カブシキガイシヤ ギジユツカイハツセンタ-イシカワ"
  },
  "8508": {
    "postcode": "1928508",
    "prefecture": "東京都",
    "prefecture_kana": "トウキョウト",
    "prefecture_code": 13,
    "city": "八王子市",
    "city_kana": "ハチオウジシ",
    "town": "宮下町",
    "town_kana": "ミヤシタマチ",
    "street": "４７６",
    "office_name": "杏林大学",
    "office_name_kana": "キヨウリンダイガク"
  },
  "8510": {
    "postcode": "1928510",
    "prefecture": "東京都",
    "prefecture_kana": "トウキョウト",
    "prefecture_code": 13,
    "city": "八王子市",
    "city_kana": "ハチオウジシ",
    "town": "高倉町",
    "town_kana": "タカクラマチ",
    "street": "９−１",
    "office_name": "アジレント・テクノロジー　株式会社",
    "office_name_kana": "アジレント・テクノロジ- カブシキカイシヤ"
  },
  "8512": {
    "postcode": "1928512",
    "prefecture": "東京都",
    "prefecture_kana": "トウキョウト",
    "prefecture_code": 13,
    "city": "八王子市",
    "city_kana": "ハチオウジシ",
    "town": "久保山町",
    "town_kana": "クボヤマチョウ",
    "street": "２丁目３",
    "office_name": "オリンパス光学工業　株式会社　技術開発センター宇津木",
    "office_name_kana": "オリンパスコウガクコウギヨウ カブシキガイシヤ ギジユツカイハツセンタ-ウツギ"
  },
  "8515": {
    "postcode": "1928515",
    "prefecture": "東京都",
    "prefecture_kana": "トウキョウト",
    "prefecture_code": 13,
    "city": "八王子市",
    "city_kana": "ハチオウジシ",
    "town": "石川町",
    "town_kana": "イシカワマチ",
    "street": "２９６８−２",
    "office_name": "株式会社　東京精密",
    "office_name_kana": "カブシキガイシヤ トウキヨウセイミツ"
  },
  "8516": {
    "postcode": "1928516",
    "prefecture": "東京都",
    "prefecture_kana": "トウキョウト",
    "prefecture_code": 13,
    "city": "八王子市",
    "city_kana": "ハチオウジシ",
    "town": "明神町",
    "town_kana": "ミョウジンチョウ",
    "street": "４丁目２１−１",
    "office_name": "八王子簡易裁判所",
    "office_name_kana": "ハチオウジカンイサイバンシヨ"
  },
  "8518": {
    "postcode": "1928518",
    "prefecture": "東京都",
    "prefecture_kana": "トウキョウト",
    "prefecture_code": 13,
    "city": "八王子市",
    "city_kana": "ハチオウジシ",
    "town": "高倉町",
    "town_kana": "タカクラマチ",
    "street": "９番１号",
    "office_name": "ＭＳ＆ＡＤ八王子センター　ＭＳ＆ＡＤ事務サービス　株式会社",
    "office_name_kana": "エムエスアンドエイデイ-ハチオウジセンタ- エムエスアンドエイデイ-ジムサ-ビス カブシキガイシヤ"
  },
  "8520": {
    "postcode": "1928520",
    "prefecture": "東京都",
    "prefecture_kana": "トウキョウト",
    "prefecture_code": 13,
    "city": "八王子市",
    "city_kana": "ハチオウジシ",
    "town": "大横町",
    "town_kana": "オオヨコチョウ",
    "street": "１１−１",
    "office_name": "八王子商工会議所",
    "office_name_kana": "ハチオウジシヨウコウカイギシヨ"
  },
  "8522": {
    "postcode": "1928522",
    "prefecture": "東京都",
    "prefecture_kana": "トウキョウト",
    "prefecture_code": 13,
    "city": "八王子市",
    "city_kana": "ハチオウジシ",
    "town": "石川町",
    "town_kana": "イシカワマチ",
    "street": "２９５１−４",
    "office_name": "株式会社　ニレコ",
    "office_name_kana": "カブシキガイシヤ ニレコ"
  },
  "8525": {
    "postcode": "1928525",
    "prefecture": "東京都",
    "prefecture_kana": "トウキョウト",
    "prefecture_code": 13,
    "city": "八王子市",
    "city_kana": "ハチオウジシ",
    "town": "石川町",
    "town_kana": "イシカワマチ",
    "street": "２９６７−３",
    "office_name": "株式会社　ＪＶＣ　ケンウッド",
    "office_name_kana": "カブシキガイシヤ ジエイヴイシイ ケンウツド"
  },
  "8532": {
    "postcode": "1928532",
    "prefecture": "東京都",
    "prefecture_kana": "トウキョウト",
    "prefecture_code": 13,
    "city": "八王子市",
    "city_kana": "ハチオウジシ",
    "town": "元本郷町",
    "town_kana": "モトホンゴウチョウ",
    "street": "１丁目９−９",
    "office_name": "中央電子　株式会社",
    "office_name_kana": "チユウオウデンシ カブシキガイシヤ"
  },
  "8533": {
    "postcode": "1928533",
    "prefecture": "東京都",
    "prefecture_kana": "トウキョウト",
    "prefecture_code": 13,
    "city": "八王子市",
    "city_kana": "ハチオウジシ",
    "town": "本郷町",
    "town_kana": "ホンゴウチョウ",
    "street": "８−１２",
    "office_name": "双葉産業　（株）",
    "office_name_kana": "フタバサンギヨウ (カ"
  },
  "8535": {
    "postcode": "1928535",
    "prefecture": "東京都",
    "prefecture_kana": "トウキョウト",
    "prefecture_code": 13,
    "city": "八王子市",
    "city_kana": "ハチオウジシ",
    "town": "小宮町",
    "town_kana": "コミヤマチ",
    "street": "５１",
    "office_name": "（株）　エスアールエル　八王子ラボラトリー",
    "office_name_kana": "(カブ) エスア-ルエル ハチオウジラボラトリ-"
  },
  "8536": {
    "postcode": "1928536",
    "prefecture": "東京都",
    "prefecture_kana": "トウキョウト",
    "prefecture_code": 13,
    "city": "八王子市",
    "city_kana": "ハチオウジシ",
    "town": "本町",
    "town_kana": "ホンチョウ",
    "street": "２４−８",
    "office_name": "読売新聞　東京本社　八王子支局",
    "office_name_kana": "ヨミウリシンブン トウキヨウホンシヤ ハチオウジシキヨク"
  },
  "8537": {
    "postcode": "1928537",
    "prefecture": "東京都",
    "prefecture_kana": "トウキョウト",
    "prefecture_code": 13,
    "city": "八王子市",
    "city_kana": "ハチオウジシ",
    "town": "石川町",
    "town_kana": "イシカワマチ",
    "street": "２９６７−５",
    "office_name": "日本分光　株式会社",
    "office_name_kana": "ニホンブンコウ カブシキガイシヤ"
  },
  "8550": {
    "postcode": "1928550",
    "prefecture": "東京都",
    "prefecture_kana": "トウキョウト",
    "prefecture_code": 13,
    "city": "八王子市",
    "city_kana": "ハチオウジシ",
    "town": "高倉町",
    "town_kana": "タカクラマチ",
    "street": "９−１",
    "office_name": "キーサイト・テクノロジー　株式会社",
    "office_name_kana": "キ-サイト・テクノロジ- カブシキカイシヤ"
  },
  "8551": {
    "postcode": "1928551",
    "prefecture": "東京都",
    "prefecture_kana": "トウキョウト",
    "prefecture_code": 13,
    "city": "八王子市",
    "city_kana": "ハチオウジシ",
    "town": "左入町",
    "town_kana": "サニュウマチ",
    "street": "７８７番地",
    "office_name": "株式会社　村内ファニチャーアクセス",
    "office_name_kana": "カブシキガイシヤ ムラウチフアニチヤ-アクセス"
  },
  "8553": {
    "postcode": "1928553",
    "prefecture": "東京都",
    "prefecture_kana": "トウキョウト",
    "prefecture_code": 13,
    "city": "八王子市",
    "city_kana": "ハチオウジシ",
    "town": "明神町",
    "town_kana": "ミョウジンチョウ",
    "street": "４丁目２１−２",
    "office_name": "東京地方検察庁　八王子支部",
    "office_name_kana": "トウキヨウチホウケンサツチヨウ ハチオウジシブ"
  },
  "8556": {
    "postcode": "1928556",
    "prefecture": "東京都",
    "prefecture_kana": "トウキョウト",
    "prefecture_code": 13,
    "city": "八王子市",
    "city_kana": "ハチオウジシ",
    "town": "石川町",
    "town_kana": "イシカワマチ",
    "street": "２９５１−５",
    "office_name": "カシオ計算機　株式会社　八王子研究所",
    "office_name_kana": "カシオケイサンキ カブシキガイシヤ ハチオウジケンキユウジヨ"
  },
  "8558": {
    "postcode": "1928558",
    "prefecture": "東京都",
    "prefecture_kana": "トウキョウト",
    "prefecture_code": 13,
    "city": "八王子市",
    "city_kana": "ハチオウジシ",
    "town": "明神町",
    "town_kana": "ミョウジンチョウ",
    "street": "２丁目２４−６",
    "office_name": "（株）　関電工　多摩支店",
    "office_name_kana": "(カブ) カンデンコウ タマシテン"
  },
  "8560": {
    "postcode": "1928560",
    "prefecture": "東京都",
    "prefecture_kana": "トウキョウト",
    "prefecture_code": 13,
    "city": "八王子市",
    "city_kana": "ハチオウジシ",
    "town": "石川町",
    "town_kana": "イシカワマチ",
    "street": "２９７０−３",
    "office_name": "アマゾン八王子フルフィルメントセンター",
    "office_name_kana": "アマゾンハチオウジフルフイルメントセンタ-"
  },
  "8562": {
    "postcode": "1928562",
    "prefecture": "東京都",
    "prefecture_kana": "トウキョウト",
    "prefecture_code": 13,
    "city": "八王子市",
    "city_kana": "ハチオウジシ",
    "town": "明神町",
    "town_kana": "ミョウジンチョウ",
    "street": "４−２０−１",
    "office_name": "東京都立南多摩中等教育学校",
    "office_name_kana": "トウキヨウトリツミナミタマチユウトウキヨウイクガツコウ"
  },
  "8565": {
    "postcode": "1928565",
    "prefecture": "東京都",
    "prefecture_kana": "トウキョウト",
    "prefecture_code": 13,
    "city": "八王子市",
    "city_kana": "ハチオウジシ",
    "town": "明神町",
    "town_kana": "ミョウジンチョウ",
    "street": "４丁目２１番３号",
    "office_name": "八王子税務署",
    "office_name_kana": "ハチオウジゼイムシヨ"
  },
  "8566": {
    "postcode": "1928566",
    "prefecture": "東京都",
    "prefecture_kana": "トウキョウト",
    "prefecture_code": 13,
    "city": "八王子市",
    "city_kana": "ハチオウジシ",
    "town": "明神町",
    "town_kana": "ミョウジンチョウ",
    "street": "４丁目９−８",
    "office_name": "横河計測　株式会社",
    "office_name_kana": "ヨコカワケイソク カブシキガイシヤ"
  },
  "8568": {
    "postcode": "1928568",
    "prefecture": "東京都",
    "prefecture_kana": "トウキョウト",
    "prefecture_code": 13,
    "city": "八王子市",
    "city_kana": "ハチオウジシ",
    "town": "高倉町",
    "town_kana": "タカクラマチ",
    "street": "６８番１",
    "office_name": "東京都立八王子東高等学校",
    "office_name_kana": "トウキヨウトリツハチオウジヒガシコウトウガツコウ"
  },
  "8577": {
    "postcode": "1928577",
    "prefecture": "東京都",
    "prefecture_kana": "トウキョウト",
    "prefecture_code": 13,
    "city": "八王子市",
    "city_kana": "ハチオウジシ",
    "town": "丹木町",
    "town_kana": "タンギマチ",
    "street": "１丁目２３６",
    "office_name": "学校法人　創価大学",
    "office_name_kana": "ガツコウホウジン ソウカダイガク"
  },
  "8585": {
    "postcode": "1928585",
    "prefecture": "東京都",
    "prefecture_kana": "トウキョウト",
    "prefecture_code": 13,
    "city": "八王子市",
    "city_kana": "ハチオウジシ",
    "town": "東町",
    "town_kana": "アズマチョウ",
    "street": "９−８八王子東町センタービル２Ｆ",
    "office_name": "日本ヒューレット・パッカード　合同会社",
    "office_name_kana": "ニホンヒユ-レツト・パツカ-ド ゴウドウカイシヤ"
  },
  "8611": {
    "postcode": "1928611",
    "prefecture": "東京都",
    "prefecture_kana": "トウキョウト",
    "prefecture_code": 13,
    "city": "八王子市",
    "city_kana": "ハチオウジシ",
    "town": "明神町",
    "town_kana": "ミョウジンチョウ",
    "street": "３丁目１９−２",
    "office_name": "東京都八王子都税事務所",
    "office_name_kana": "トウキヨウトハチオウジトゼイジムシヨ"
  },
  "8622": {
    "postcode": "1928622",
    "prefecture": "東京都",
    "prefecture_kana": "トウキョウト",
    "prefecture_code": 13,
    "city": "八王子市",
    "city_kana": "ハチオウジシ",
    "town": "中野町",
    "town_kana": "ナカノマチ",
    "street": "２６４７−２",
    "office_name": "工学院大学附属中学・高等学校",
    "office_name_kana": "コウガクインダイガクフゾクチユウガク.コウトウガツコウ"
  },
  "8633": {
    "postcode": "1928633",
    "prefecture": "東京都",
    "prefecture_kana": "トウキョウト",
    "prefecture_code": 13,
    "city": "八王子市",
    "city_kana": "ハチオウジシ",
    "town": "小門町",
    "town_kana": "オカドマチ",
    "street": "５３番地",
    "office_name": "日本コンテック　株式会社　産業資材部",
    "office_name_kana": "ニホンコンテツク カブシキガイシヤ サンギヨウシザイブ"
  },
  "8644": {
    "postcode": "1928644",
    "prefecture": "東京都",
    "prefecture_kana": "トウキョウト",
    "prefecture_code": 13,
    "city": "八王子市",
    "city_kana": "ハチオウジシ",
    "town": "明神町",
    "town_kana": "ミョウジンチョウ",
    "street": "３丁目２６−１",
    "office_name": "日本銀刺ワーム",
    "office_name_kana": "ニホンギンシワ-ム"
  },
  "8648": {
    "postcode": "1928648",
    "prefecture": "東京都",
    "prefecture_kana": "トウキョウト",
    "prefecture_code": 13,
    "city": "八王子市",
    "city_kana": "ハチオウジシ",
    "town": "宇津木町",
    "town_kana": "ウツキマチ",
    "street": "２３１",
    "office_name": "中日本高速道路　（株）　八王子支社",
    "office_name_kana": "ナカニホンコウソクドウロ カブシキガイシヤ ハチオウジシシヤ"
  },
  "8650": {
    "postcode": "1928650",
    "prefecture": "東京都",
    "prefecture_kana": "トウキョウト",
    "prefecture_code": 13,
    "city": "八王子市",
    "city_kana": "ハチオウジシ",
    "town": "横山町",
    "town_kana": "ヨコヤマチョウ",
    "street": "２−５（八王子郵便局私書箱第２８号）",
    "office_name": "商工中金　八王子支店",
    "office_name_kana": "シヨウコウチユウキン ハチオウジシテン"
  },
  "8655": {
    "postcode": "1928655",
    "prefecture": "東京都",
    "prefecture_kana": "トウキョウト",
    "prefecture_code": 13,
    "city": "八王子市",
    "city_kana": "ハチオウジシ",
    "town": "旭町",
    "town_kana": "アサヒチョウ",
    "street": "８−１０（八王子郵便局私書箱第１５号）",
    "office_name": "大和證券　八王子支店",
    "office_name_kana": "ダイワシヨウケン ハチオウジシテン"
  },
  "8702": {
    "postcode": "1928702",
    "prefecture": "東京都",
    "prefecture_kana": "トウキョウト",
    "prefecture_code": 13,
    "city": "八王子市",
    "city_kana": "ハチオウジシ",
    "town": "元本郷町",
    "town_kana": "モトホンゴウチョウ",
    "street": "３丁目２４−１（八王子郵便局私書箱第２号）",
    "office_name": "八王子市役所　市民部市民課",
    "office_name_kana": "ハチオウジシヤクシヨ シミンブシミンカ"
  }
}