{
  "0000": {
    "postcode": "1960000",
    "prefecture": "東京都",
    "prefecture_kana": "トウキョウト",
    "prefecture_code": 13,
    "city": "昭島市",
    "city_kana": "アキシマシ",
    "town": "",
    "town_kana": "",
    "street": null,
    "office_name": null,
    "office_name_kana": null
  },
  "0001": {
    "postcode": "1960001",
    "prefecture": "東京都",
    "prefecture_kana": "トウキョウト",
    "prefecture_code": 13,
    "city": "昭島市",
    "city_kana": "アキシマシ",
    "town": "美堀町",
    "town_kana": "ミホリチョウ",
    "street": null,
    "office_name": null,
    "office_name_kana": null
  },
  "0002": {
    "postcode": "1960002",
    "prefecture": "東京都",
    "prefecture_kana": "トウキョウト",
    "prefecture_code": 13,
    "city": "昭島市",
    "city_kana": "アキシマシ",
    "town": "拝島町",
    "town_kana": "ハイジマチョウ",
    "street": null,
    "office_name": null,
    "office_name_kana": null
  },
  "0003": {
    "postcode": "1960003",
    "prefecture": "東京都",
    "prefecture_kana": "トウキョウト",
    "prefecture_code": 13,
    "city": "昭島市",
    "city_kana": "アキシマシ",
    "town": "松原町",
    "town_kana": "マツバラチョウ",
    "street": null,
    "office_name": null,
    "office_name_kana": null
  },
  "0004": {
    "postcode": "1960004",
    "prefecture": "東京都",
    "prefecture_kana": "トウキョウト",
    "prefecture_code": 13,
    "city": "昭島市",
    "city_kana": "アキシマシ",
    "town": "緑町",
    "town_kana": "ミドリチョウ",
    "street": null,
    "office_name": null,
    "office_name_kana": null
  },
  "0005": {
    "postcode": "1960005",
    "prefecture": "東京都",
    "prefecture_kana": "トウキョウト",
    "prefecture_code": 13,
    "city": "昭島市",
    "city_kana": "アキシマシ",
    "town": "代官山",
    "town_kana": "ダイカンヤマ",
    "street": null,
    "office_name": null,
    "office_name_kana": null
  },
  "0011": {
    "postcode": "1960011",
    "prefecture": "東京都",
    "prefecture_kana": "トウキョウト",
    "prefecture_code": 13,
    "city": "昭島市",
    "city_kana": "アキシマシ",
    "town": "上川原町",
    "town_kana": "ジョウガワラチョウ",
    "street": null,
    "office_name": null,
    "office_name_kana": null
  },
  "0012": {
    "postcode": "1960012",
    "prefecture": "東京都",
    "prefecture_kana": "トウキョウト",
    "prefecture_code": 13,
    "city": "昭島市",
    "city_kana": "アキシマシ",
    "town": "つつじが丘",
    "town_kana": "ツツジガオカ",
    "street": null,
    "office_name": null,
    "office_name_kana": null
  },
  "0013": {
    "postcode": "1960013",
    "prefecture": "東京都",
    "prefecture_kana": "トウキョウト",
    "prefecture_code": 13,
    "city": "昭島市",
    "city_kana": "アキシマシ",
    "town": "大神町",
    "town_kana": "オオガミチョウ",
    "street": null,
    "office_name": null,
    "office_name_kana": null
  },
  "0014": {
    "postcode": "1960014",
    "prefecture": "東京都",
    "prefecture_kana": "トウキョウト",
    "prefecture_code": 13,
    "city": "昭島市",
    "city_kana": "アキシマシ",
    "town": "田中町",
    "town_kana": "タナカチョウ",
    "street": null,
    "office_name": null,
    "office_name_kana": null
  },
  "0015": {
    "postcode": "1960015",
    "prefecture": "東京都",
    "prefecture_kana": "トウキョウト",
    "prefecture_code": 13,
    "city": "昭島市",
    "city_kana": "アキシマシ",
    "town": "昭和町",
    "town_kana": "ショウワチョウ",
    "street": null,
    "office_name": null,
    "office_name_kana": null
  },
  "0021": {
    "postcode": "1960021",
    "prefecture": "東京都",
    "prefecture_kana": "トウキョウト",
    "prefecture_code": 13,
    "city": "昭島市",
    "city_kana": "アキシマシ",
    "town": "武蔵野",
    "town_kana": "ムサシノ",
    "street": null,
    "office_name": null,
    "office_name_kana": null
  },
  "0022": {
    "postcode": "1960022",
    "prefecture": "東京都",
    "prefecture_kana": "トウキョウト",
    "prefecture_code": 13,
    "city": "昭島市",
    "city_kana": "アキシマシ",
    "town": "中神町",
    "town_kana": "ナカガミチョウ",
    "street": null,
    "office_name": null,
    "office_name_kana": null
  },
  "0023": {
    "postcode": "1960023",
    "prefecture": "東京都",
    "prefecture_kana": "トウキョウト",
    "prefecture_code": 13,
    "city": "昭島市",
    "city_kana": "アキシマシ",
    "town": "築地町",
    "town_kana": "ツイジチョウ",
    "street": null,
    "office_name": null,
    "office_name_kana": null
  },
  "0024": {
    "postcode": "1960024",
    "prefecture": "東京都",
    "prefecture_kana": "トウキョウト",
    "prefecture_code": 13,
    "city": "昭島市",
    "city_kana": "アキシマシ",
    "town": "宮沢町",
    "town_kana": "ミヤザワチョウ",
    "street": null,
    "office_name": null,
    "office_name_kana": null
  },
  "0025": {
    "postcode": "1960025",
    "prefecture": "東京都",
    "prefecture_kana": "トウキョウト",
    "prefecture_code": 13,
    "city": "昭島市",
    "city_kana": "アキシマシ",
    "town": "朝日町",
    "town_kana": "アサヒチョウ",
    "street": null,
    "office_name": null,
    "office_name_kana": null
  },
  "0031": {
    "postcode": "1960031",
    "prefecture": "東京都",
    "prefecture_kana": "トウキョウト",
    "prefecture_code": 13,
    "city": "昭島市",
    "city_kana": "アキシマシ",
    "town": "福島町",
    "town_kana": "フクジマチョウ",
    "street": null,
    "office_name": null,
    "office_name_kana": null
  },
  "0032": {
    "postcode": "1960032",
    "prefecture": "東京都",
    "prefecture_kana": "トウキョウト",
    "prefecture_code": 13,
    "city": "昭島市",
    "city_kana": "アキシマシ",
    "town": "郷地町",
    "town_kana": "ゴウチチョウ",
    "street": null,
    "office_name": null,
    "office_name_kana": null
  },
  "0033": {
    "postcode": "1960033",
    "prefecture": "東京都",
    "prefecture_kana": "トウキョウト",
    "prefecture_code": 13,
    "city": "昭島市",
    "city_kana": "アキシマシ",
    "town": "東町",
    "town_kana": "アズマチョウ",
    "street": null,
    "office_name": null,
    "office_name_kana": null
  },
  "0034": {
    "postcode": "1960034",
    "prefecture": "東京都",
    "prefecture_kana": "トウキョウト",
    "prefecture_code": 13,
    "city": "昭島市",
    "city_kana": "アキシマシ",
    "town": "玉川町",
    "town_kana": "タマガワチョウ",
    "street": null,
    "office_name": null,
    "office_name_kana": null
  },
  "0035": {
    "postcode": "1960035",
    "prefecture": "東京都",
    "prefecture_kana": "トウキョウト",
    "prefecture_code": 13,
    "city": "昭島市",
    "city_kana": "アキシマシ",
    "town": "もくせいの杜",
    "town_kana": "モクセイノモリ",
    "street": null,
    "office_name": null,
    "office_name_kana": null
  },
  "8501": {
    "postcode": "1968501",
    "prefecture": "東京都",
    "prefecture_kana": "トウキョウト",
    "prefecture_code": 13,
    "city": "昭島市",
    "city_kana": "アキシマシ",
    "town": "武蔵野",
    "town_kana": "ムサシノ",
    "street": "３丁目９−１８",
    "office_name": "スタック電子　株式会社",
    "office_name_kana": "スタツクデンシ カブシキガイシヤ"
  },
  "8510": {
    "postcode": "1968510",
    "prefecture": "東京都",
    "prefecture_kana": "トウキョウト",
    "prefecture_code": 13,
    "city": "昭島市",
    "city_kana": "アキシマシ",
    "town": "武蔵野",
    "town_kana": "ムサシノ",
    "street": "３丁目３−１",
    "office_name": "ＨＯＹＡ　株式会社　昭島工場",
    "office_name_kana": "ホ-ヤ カブシキガイシヤ アキシマコウジヨウ"
  },
  "8511": {
    "postcode": "1968511",
    "prefecture": "東京都",
    "prefecture_kana": "トウキョウト",
    "prefecture_code": 13,
    "city": "昭島市",
    "city_kana": "アキシマシ",
    "town": "田中町",
    "town_kana": "タナカチョウ",
    "street": "１丁目１７−１",
    "office_name": "昭島市役所",
    "office_name_kana": "アキシマシヤクシヨ"
  },
  "8522": {
    "postcode": "1968522",
    "prefecture": "東京都",
    "prefecture_kana": "トウキョウト",
    "prefecture_code": 13,
    "city": "昭島市",
    "city_kana": "アキシマシ",
    "town": "代官山",
    "town_kana": "ダイカンヤマ",
    "street": "３丁目１−１",
    "office_name": "昭和飛行機工業　株式会社",
    "office_name_kana": "シヨウワヒコウキコウギヨウ カブシキガイシヤ"
  },
  "8533": {
    "postcode": "1968533",
    "prefecture": "東京都",
    "prefecture_kana": "トウキョウト",
    "prefecture_code": 13,
    "city": "昭島市",
    "city_kana": "アキシマシ",
    "town": "代官山",
    "town_kana": "ダイカンヤマ",
    "street": "２丁目６−１",
    "office_name": "ＭＯＲＩＰＡＲＫ　ＯｕｔｄｏｏｒＶｉｌｌａｇｅ",
    "office_name_kana": "モリパ-ク アウトドアヴイレツジ"
  },
  "8550": {
    "postcode": "1968550",
    "prefecture": "東京都",
    "prefecture_kana": "トウキョウト",
    "prefecture_code": 13,
    "city": "昭島市",
    "city_kana": "アキシマシ",
    "town": "つつじが丘",
    "town_kana": "ツツジガオカ",
    "street": "１丁目１番１０９号",
    "office_name": "フォスター電機　株式会社",
    "office_name_kana": "フオスタ-デンキ カブシキガイシヤ"
  },
  "8555": {
    "postcode": "1968555",
    "prefecture": "東京都",
    "prefecture_kana": "トウキョウト",
    "prefecture_code": 13,
    "city": "昭島市",
    "city_kana": "アキシマシ",
    "town": "武蔵野",
    "town_kana": "ムサシノ",
    "street": "３丁目１−１",
    "office_name": "日本航空電子工業　株式会社",
    "office_name_kana": "ニホンコウクウデンシコウギヨウ カブシキガイシヤ"
  },
  "8558": {
    "postcode": "1968558",
    "prefecture": "東京都",
    "prefecture_kana": "トウキョウト",
    "prefecture_code": 13,
    "city": "昭島市",
    "city_kana": "アキシマシ",
    "town": "武蔵野",
    "town_kana": "ムサシノ",
    "street": "３丁目１−２",
    "office_name": "日本電子　株式会社",
    "office_name_kana": "ニホンデンシ カブシキガイシヤ"
  },
  "8560": {
    "postcode": "1968560",
    "prefecture": "東京都",
    "prefecture_kana": "トウキョウト",
    "prefecture_code": 13,
    "city": "昭島市",
    "city_kana": "アキシマシ",
    "town": "もくせいの杜",
    "town_kana": "モクセイノモリ",
    "street": "２丁目１番９号",
    "office_name": "東日本成人矯正医療センター",
    "office_name_kana": "ヒガシニホンセイジンキヨウセイイリヨウセンタ-"
  },
  "8570": [
    {
      "postcode": "1968570",
      "prefecture": "東京都",
      "prefecture_kana": "トウキョウト",
      "prefecture_code": 13,
      "city": "昭島市",
      "city_kana": "アキシマシ",
      "town": "もくせいの杜",
      "town_kana": "モクセイノモリ",
      "street": "２−１−１８",
      "office_name": "法務省　国連アジア極東犯罪防止研修所",
      "office_name_kana": "ホウムシヨウ コクレンアジアキヨクトウハンザイボウシケンシユウジヨ"
    },
    {
      "postcode": "1968570",
      "prefecture": "東京都",
      "prefecture_kana": "トウキョウト",
      "prefecture_code": 13,
      "city": "昭島市",
      "city_kana": "アキシマシ",
      "town": "もくせいの杜",
      "town_kana": "モクセイノモリ",
      "street": "２−１−１８",
      "office_name": "法務省　法務総合研究所国際協力部",
      "office_name_kana": "ホウムシヨウ ホウムソウゴウケンキユウジヨコクサイキヨウリヨクブ"
    }
  ],
  "8580": {
    "postcode": "1968580",
    "prefecture": "東京都",
    "prefecture_kana": "トウキョウト",
    "prefecture_code": 13,
    "city": "昭島市",
    "city_kana": "アキシマシ",
    "town": "もくせいの杜",
    "town_kana": "モクセイノモリ",
    "street": "２丁目１番２０号",
    "office_name": "法務省　矯正研修所",
    "office_name_kana": "ホウムシヨウ キヨウセイケンシユウジヨ"
  },
  "8585": {
    "postcode": "1968585",
    "prefecture": "東京都",
    "prefecture_kana": "トウキョウト",
    "prefecture_code": 13,
    "city": "昭島市",
    "city_kana": "アキシマシ",
    "town": "代官山",
    "town_kana": "ダイカンヤマ",
    "street": "１丁目５−１",
    "office_name": "株式会社　三井Ｅ＆Ｓパワーシステムズ",
    "office_name_kana": "カブシキカイシヤ ミツイイ-アンドエスパワ-システムズ"
  },
  "8588": {
    "postcode": "1968588",
    "prefecture": "東京都",
    "prefecture_kana": "トウキョウト",
    "prefecture_code": 13,
    "city": "昭島市",
    "city_kana": "アキシマシ",
    "town": "福島町",
    "town_kana": "フクジマチョウ",
    "street": "３丁目１２−８",
    "office_name": "協立包装材　（株）",
    "office_name_kana": "キヨウリツホウソウザイ (カブ)"
  },
  "8601": {
    "postcode": "1968601",
    "prefecture": "東京都",
    "prefecture_kana": "トウキョウト",
    "prefecture_code": 13,
    "city": "昭島市",
    "city_kana": "アキシマシ",
    "town": "代官山",
    "town_kana": "ダイカンヤマ",
    "street": "１丁目３−１",
    "office_name": "アーバンリゾーツ昭和の森　株式会社",
    "office_name_kana": "ア-バンリゾ-ツシヨウワノモリ (カブ)"
  },
  "8611": {
    "postcode": "1968611",
    "prefecture": "東京都",
    "prefecture_kana": "トウキョウト",
    "prefecture_code": 13,
    "city": "昭島市",
    "city_kana": "アキシマシ",
    "town": "松原町",
    "town_kana": "マツバラチョウ",
    "street": "３丁目３−７",
    "office_name": "株式会社　タチエス",
    "office_name_kana": "カブシキガイシヤ タチエス"
  },
  "8666": {
    "postcode": "1968666",
    "prefecture": "東京都",
    "prefecture_kana": "トウキョウト",
    "prefecture_code": 13,
    "city": "昭島市",
    "city_kana": "アキシマシ",
    "town": "松原町",
    "town_kana": "マツバラチョウ",
    "street": "３丁目９−１２",
    "office_name": "株式会社　リガク",
    "office_name_kana": "(カブ) リガク"
  },
  "8668": {
    "postcode": "1968668",
    "prefecture": "東京都",
    "prefecture_kana": "トウキョウト",
    "prefecture_code": 13,
    "city": "昭島市",
    "city_kana": "アキシマシ",
    "town": "つつじが丘",
    "town_kana": "ツツジガオカ",
    "street": "１丁目１−１１０",
    "office_name": "日本ゼネラルモーターズ　株式会社／デルファイ・オートモーティブ・システムズ",
    "office_name_kana": "ニホンゼネラルモ-タ-ズ カブシキガイシヤ/デルフアイ.オ-トモ-テイブ.システムズ"
  },
  "8686": {
    "postcode": "1968686",
    "prefecture": "東京都",
    "prefecture_kana": "トウキョウト",
    "prefecture_code": 13,
    "city": "昭島市",
    "city_kana": "アキシマシ",
    "town": "代官山",
    "town_kana": "ダイカンヤマ",
    "street": "３丁目２−１",
    "office_name": "株式会社　ＩＨＩ",
    "office_name_kana": "カブシキカイシヤ アイエイチアイ"
  }
}