{
  "0000": [
    {
      "postcode": "1980000",
      "prefecture": "東京都",
      "prefecture_kana": "トウキョウト",
      "prefecture_code": 13,
      "city": "青梅市",
      "city_kana": "オウメシ",
      "town": "",
      "town_kana": "",
      "street": null,
      "office_name": null,
      "office_name_kana": null
    },
    {
      "postcode": "1980000",
      "prefecture": "東京都",
      "prefecture_kana": "トウキョウト",
      "prefecture_code": 13,
      "city": "西多摩郡奥多摩町",
      "city_kana": "ニシタマグンオクタママチ",
      "town": "",
      "town_kana": "",
      "street": null,
      "office_name": null,
      "office_name_kana": null
    }
  ],
  "0001": {
    "postcode": "1980001",
    "prefecture": "東京都",
    "prefecture_kana": "トウキョウト",
    "prefecture_code": 13,
    "city": "青梅市",
    "city_kana": "オウメシ",
    "town": "成木",
    "town_kana": "ナリキ",
    "street": null,
    "office_name": null,
    "office_name_kana": null
  },
  "0002": {
    "postcode": "1980002",
    "prefecture": "東京都",
    "prefecture_kana": "トウキョウト",
    "prefecture_code": 13,
    "city": "青梅市",
    "city_kana": "オウメシ",
    "town": "富岡",
    "town_kana": "トミオカ",
    "street": null,
    "office_name": null,
    "office_name_kana": null
  },
  "0003": {
    "postcode": "1980003",
    "prefecture": "東京都",
    "prefecture_kana": "トウキョウト",
    "prefecture_code": 13,
    "city": "青梅市",
    "city_kana": "オウメシ",
    "town": "小曾木",
    "town_kana": "オソキ",
    "street": null,
    "office_name": null,
    "office_name_kana": null
  },
  "0004": {
    "postcode": "1980004",
    "prefecture": "東京都",
    "prefecture_kana": "トウキョウト",
    "prefecture_code": 13,
    "city": "青梅市",
    "city_kana": "オウメシ",
    "town": "根ケ布",
    "town_kana": "ネカブ",
    "street": null,
    "office_name": null,
    "office_name_kana": null
  },
  "0005": {
    "postcode": "1980005",
    "prefecture": "東京都",
    "prefecture_kana": "トウキョウト",
    "prefecture_code": 13,
    "city": "青梅市",
    "city_kana": "オウメシ",
    "town": "黒沢",
    "town_kana": "クロサワ",
    "street": null,
    "office_name": null,
    "office_name_kana": null
  },
  "0011": {
    "postcode": "1980011",
    "prefecture": "東京都",
    "prefecture_kana": "トウキョウト",
    "prefecture_code": 13,
    "city": "青梅市",
    "city_kana": "オウメシ",
    "town": "塩船",
    "town_kana": "シオブネ",
    "street": null,
    "office_name": null,
    "office_name_kana": null
  },
  "0012": {
    "postcode": "1980012",
    "prefecture": "東京都",
    "prefecture_kana": "トウキョウト",
    "prefecture_code": 13,
    "city": "青梅市",
    "city_kana": "オウメシ",
    "town": "谷野",
    "town_kana": "ヤノ",
    "street": null,
    "office_name": null,
    "office_name_kana": null
  },
  "0013": {
    "postcode": "1980013",
    "prefecture": "東京都",
    "prefecture_kana": "トウキョウト",
    "prefecture_code": 13,
    "city": "青梅市",
    "city_kana": "オウメシ",
    "town": "木野下",
    "town_kana": "キノシタ",
    "street": null,
    "office_name": null,
    "office_name_kana": null
  },
  "0014": {
    "postcode": "1980014",
    "prefecture": "東京都",
    "prefecture_kana": "トウキョウト",
    "prefecture_code": 13,
    "city": "青梅市",
    "city_kana": "オウメシ",
    "town": "大門",
    "town_kana": "ダイモン",
    "street": null,
    "office_name": null,
    "office_name_kana": null
  },
  "0015": {
    "postcode": "1980015",
    "prefecture": "東京都",
    "prefecture_kana": "トウキョウト",
    "prefecture_code": 13,
    "city": "青梅市",
    "city_kana": "オウメシ",
    "town": "吹上",
    "town_kana": "フキアゲ",
    "street": null,
    "office_name": null,
    "office_name_kana": null
  },
  "0021": {
    "postcode": "1980021",
    "prefecture": "東京都",
    "prefecture_kana": "トウキョウト",
    "prefecture_code": 13,
    "city": "青梅市",
    "city_kana": "オウメシ",
    "town": "今寺",
    "town_kana": "イマデラ",
    "street": null,
    "office_name": null,
    "office_name_kana": null
  },
  "0022": {
    "postcode": "1980022",
    "prefecture": "東京都",
    "prefecture_kana": "トウキョウト",
    "prefecture_code": 13,
    "city": "青梅市",
    "city_kana": "オウメシ",
    "town": "藤橋",
    "town_kana": "フジハシ",
    "street": null,
    "office_name": null,
    "office_name_kana": null
  },
  "0023": {
    "postcode": "1980023",
    "prefecture": "東京都",
    "prefecture_kana": "トウキョウト",
    "prefecture_code": 13,
    "city": "青梅市",
    "city_kana": "オウメシ",
    "town": "今井",
    "town_kana": "イマイ",
    "street": null,
    "office_name": null,
    "office_name_kana": null
  },
  "0024": {
    "postcode": "1980024",
    "prefecture": "東京都",
    "prefecture_kana": "トウキョウト",
    "prefecture_code": 13,
    "city": "青梅市",
    "city_kana": "オウメシ",
    "town": "新町",
    "town_kana": "シンマチ",
    "street": null,
    "office_name": null,
    "office_name_kana": null
  },
  "0025": {
    "postcode": "1980025",
    "prefecture": "東京都",
    "prefecture_kana": "トウキョウト",
    "prefecture_code": 13,
    "city": "青梅市",
    "city_kana": "オウメシ",
    "town": "末広町",
    "town_kana": "スエヒロチョウ",
    "street": null,
    "office_name": null,
    "office_name_kana": null
  },
  "0031": {
    "postcode": "1980031",
    "prefecture": "東京都",
    "prefecture_kana": "トウキョウト",
    "prefecture_code": 13,
    "city": "青梅市",
    "city_kana": "オウメシ",
    "town": "師岡町",
    "town_kana": "モロオカチョウ",
    "street": null,
    "office_name": null,
    "office_name_kana": null
  },
  "0032": {
    "postcode": "1980032",
    "prefecture": "東京都",
    "prefecture_kana": "トウキョウト",
    "prefecture_code": 13,
    "city": "青梅市",
    "city_kana": "オウメシ",
    "town": "野上町",
    "town_kana": "ノガミチョウ",
    "street": null,
    "office_name": null,
    "office_name_kana": null
  },
  "0036": {
    "postcode": "1980036",
    "prefecture": "東京都",
    "prefecture_kana": "トウキョウト",
    "prefecture_code": 13,
    "city": "青梅市",
    "city_kana": "オウメシ",
    "town": "河辺町",
    "town_kana": "カベマチ",
    "street": null,
    "office_name": null,
    "office_name_kana": null
  },
  "0041": {
    "postcode": "1980041",
    "prefecture": "東京都",
    "prefecture_kana": "トウキョウト",
    "prefecture_code": 13,
    "city": "青梅市",
    "city_kana": "オウメシ",
    "town": "勝沼",
    "town_kana": "カツヌマ",
    "street": null,
    "office_name": null,
    "office_name_kana": null
  },
  "0042": {
    "postcode": "1980042",
    "prefecture": "東京都",
    "prefecture_kana": "トウキョウト",
    "prefecture_code": 13,
    "city": "青梅市",
    "city_kana": "オウメシ",
    "town": "東青梅",
    "town_kana": "ヒガシオウメ",
    "street": null,
    "office_name": null,
    "office_name_kana": null
  },
  "0043": {
    "postcode": "1980043",
    "prefecture": "東京都",
    "prefecture_kana": "トウキョウト",
    "prefecture_code": 13,
    "city": "青梅市",
    "city_kana": "オウメシ",
    "town": "千ケ瀬町",
    "town_kana": "チガセマチ",
    "street": null,
    "office_name": null,
    "office_name_kana": null
  },
  "0044": {
    "postcode": "1980044",
    "prefecture": "東京都",
    "prefecture_kana": "トウキョウト",
    "prefecture_code": 13,
    "city": "青梅市",
    "city_kana": "オウメシ",
    "town": "西分町",
    "town_kana": "ニシワケチョウ",
    "street": null,
    "office_name": null,
    "office_name_kana": null
  },
  "0046": {
    "postcode": "1980046",
    "prefecture": "東京都",
    "prefecture_kana": "トウキョウト",
    "prefecture_code": 13,
    "city": "青梅市",
    "city_kana": "オウメシ",
    "town": "日向和田",
    "town_kana": "ヒナタワダ",
    "street": null,
    "office_name": null,
    "office_name_kana": null
  },
  "0051": {
    "postcode": "1980051",
    "prefecture": "東京都",
    "prefecture_kana": "トウキョウト",
    "prefecture_code": 13,
    "city": "青梅市",
    "city_kana": "オウメシ",
    "town": "友田町",
    "town_kana": "トモダマチ",
    "street": null,
    "office_name": null,
    "office_name_kana": null
  },
  "0052": {
    "postcode": "1980052",
    "prefecture": "東京都",
    "prefecture_kana": "トウキョウト",
    "prefecture_code": 13,
    "city": "青梅市",
    "city_kana": "オウメシ",
    "town": "長淵",
    "town_kana": "ナガブチ",
    "street": null,
    "office_name": null,
    "office_name_kana": null
  },
  "0053": {
    "postcode": "1980053",
    "prefecture": "東京都",
    "prefecture_kana": "トウキョウト",
    "prefecture_code": 13,
    "city": "青梅市",
    "city_kana": "オウメシ",
    "town": "駒木町",
    "town_kana": "コマキチョウ",
    "street": null,
    "office_name": null,
    "office_name_kana": null
  },
  "0061": {
    "postcode": "1980061",
    "prefecture": "東京都",
    "prefecture_kana": "トウキョウト",
    "prefecture_code": 13,
    "city": "青梅市",
    "city_kana": "オウメシ",
    "town": "畑中",
    "town_kana": "ハタナカ",
    "street": null,
    "office_name": null,
    "office_name_kana": null
  },
  "0062": {
    "postcode": "1980062",
    "prefecture": "東京都",
    "prefecture_kana": "トウキョウト",
    "prefecture_code": 13,
    "city": "青梅市",
    "city_kana": "オウメシ",
    "town": "和田町",
    "town_kana": "ワダマチ",
    "street": null,
    "office_name": null,
    "office_name_kana": null
  },
  "0063": {
    "postcode": "1980063",
    "prefecture": "東京都",
    "prefecture_kana": "トウキョウト",
    "prefecture_code": 13,
    "city": "青梅市",
    "city_kana": "オウメシ",
    "town": "梅郷",
    "town_kana": "バイゴウ",
    "street": null,
    "office_name": null,
    "office_name_kana": null
  },
  "0064": {
    "postcode": "1980064",
    "prefecture": "東京都",
    "prefecture_kana": "トウキョウト",
    "prefecture_code": 13,
    "city": "青梅市",
    "city_kana": "オウメシ",
    "town": "柚木町",
    "town_kana": "ユギマチ",
    "street": null,
    "office_name": null,
    "office_name_kana": null
  },
  "0081": {
    "postcode": "1980081",
    "prefecture": "東京都",
    "prefecture_kana": "トウキョウト",
    "prefecture_code": 13,
    "city": "青梅市",
    "city_kana": "オウメシ",
    "town": "上町",
    "town_kana": "カミチョウ",
    "street": null,
    "office_name": null,
    "office_name_kana": null
  },
  "0082": {
    "postcode": "1980082",
    "prefecture": "東京都",
    "prefecture_kana": "トウキョウト",
    "prefecture_code": 13,
    "city": "青梅市",
    "city_kana": "オウメシ",
    "town": "仲町",
    "town_kana": "ナカチョウ",
    "street": null,
    "office_name": null,
    "office_name_kana": null
  },
  "0083": {
    "postcode": "1980083",
    "prefecture": "東京都",
    "prefecture_kana": "トウキョウト",
    "prefecture_code": 13,
    "city": "青梅市",
    "city_kana": "オウメシ",
    "town": "本町",
    "town_kana": "ホンチョウ",
    "street": null,
    "office_name": null,
    "office_name_kana": null
  },
  "0084": {
    "postcode": "1980084",
    "prefecture": "東京都",
    "prefecture_kana": "トウキョウト",
    "prefecture_code": 13,
    "city": "青梅市",
    "city_kana": "オウメシ",
    "town": "住江町",
    "town_kana": "スミエチョウ",
    "street": null,
    "office_name": null,
    "office_name_kana": null
  },
  "0085": {
    "postcode": "1980085",
    "prefecture": "東京都",
    "prefecture_kana": "トウキョウト",
    "prefecture_code": 13,
    "city": "青梅市",
    "city_kana": "オウメシ",
    "town": "滝ノ上町",
    "town_kana": "タキノウエチョウ",
    "street": null,
    "office_name": null,
    "office_name_kana": null
  },
  "0086": {
    "postcode": "1980086",
    "prefecture": "東京都",
    "prefecture_kana": "トウキョウト",
    "prefecture_code": 13,
    "city": "青梅市",
    "city_kana": "オウメシ",
    "town": "大柳町",
    "town_kana": "オオヤナチョウ",
    "street": null,
    "office_name": null,
    "office_name_kana": null
  },
  "0087": {
    "postcode": "1980087",
    "prefecture": "東京都",
    "prefecture_kana": "トウキョウト",
    "prefecture_code": 13,
    "city": "青梅市",
    "city_kana": "オウメシ",
    "town": "天ケ瀬町",
    "town_kana": "アマガセチョウ",
    "street": null,
    "office_name": null,
    "office_name_kana": null
  },
  "0088": {
    "postcode": "1980088",
    "prefecture": "東京都",
    "prefecture_kana": "トウキョウト",
    "prefecture_code": 13,
    "city": "青梅市",
    "city_kana": "オウメシ",
    "town": "裏宿町",
    "town_kana": "ウラジュクチョウ",
    "street": null,
    "office_name": null,
    "office_name_kana": null
  },
  "0089": {
    "postcode": "1980089",
    "prefecture": "東京都",
    "prefecture_kana": "トウキョウト",
    "prefecture_code": 13,
    "city": "青梅市",
    "city_kana": "オウメシ",
    "town": "森下町",
    "town_kana": "モリシタチョウ",
    "street": null,
    "office_name": null,
    "office_name_kana": null
  },
  "0101": {
    "postcode": "1980101",
    "prefecture": "東京都",
    "prefecture_kana": "トウキョウト",
    "prefecture_code": 13,
    "city": "西多摩郡奥多摩町",
    "city_kana": "ニシタマグンオクタママチ",
    "town": "大丹波",
    "town_kana": "オオタバ",
    "street": null,
    "office_name": null,
    "office_name_kana": null
  },
  "0102": {
    "postcode": "1980102",
    "prefecture": "東京都",
    "prefecture_kana": "トウキョウト",
    "prefecture_code": 13,
    "city": "西多摩郡奥多摩町",
    "city_kana": "ニシタマグンオクタママチ",
    "town": "川井",
    "town_kana": "カワイ",
    "street": null,
    "office_name": null,
    "office_name_kana": null
  },
  "0103": {
    "postcode": "1980103",
    "prefecture": "東京都",
    "prefecture_kana": "トウキョウト",
    "prefecture_code": 13,
    "city": "西多摩郡奥多摩町",
    "city_kana": "ニシタマグンオクタママチ",
    "town": "梅沢",
    "town_kana": "ウメザワ",
    "street": null,
    "office_name": null,
    "office_name_kana": null
  },
  "0104": {
    "postcode": "1980104",
    "prefecture": "東京都",
    "prefecture_kana": "トウキョウト",
    "prefecture_code": 13,
    "city": "西多摩郡奥多摩町",
    "city_kana": "ニシタマグンオクタママチ",
    "town": "丹三郎",
    "town_kana": "タンザブロウ",
    "street": null,
    "office_name": null,
    "office_name_kana": null
  },
  "0105": {
    "postcode": "1980105",
    "prefecture": "東京都",
    "prefecture_kana": "トウキョウト",
    "prefecture_code": 13,
    "city": "西多摩郡奥多摩町",
    "city_kana": "ニシタマグンオクタママチ",
    "town": "小丹波",
    "town_kana": "コタバ",
    "street": null,
    "office_name": null,
    "office_name_kana": null
  },
  "0106": {
    "postcode": "1980106",
    "prefecture": "東京都",
    "prefecture_kana": "トウキョウト",
    "prefecture_code": 13,
    "city": "西多摩郡奥多摩町",
    "city_kana": "ニシタマグンオクタママチ",
    "town": "棚沢",
    "town_kana": "タナザワ",
    "street": null,
    "office_name": null,
    "office_name_kana": null
  },
  "0107": {
    "postcode": "1980107",
    "prefecture": "東京都",
    "prefecture_kana": "トウキョウト",
    "prefecture_code": 13,
    "city": "西多摩郡奥多摩町",
    "city_kana": "ニシタマグンオクタママチ",
    "town": "白丸",
    "town_kana": "シロマル",
    "street": null,
    "office_name": null,
    "office_name_kana": null
  },
  "0171": {
    "postcode": "1980171",
    "prefecture": "東京都",
    "prefecture_kana": "トウキョウト",
    "prefecture_code": 13,
    "city": "青梅市",
    "city_kana": "オウメシ",
    "town": "二俣尾",
    "town_kana": "フタマタオ",
    "street": null,
    "office_name": null,
    "office_name_kana": null
  },
  "0172": {
    "postcode": "1980172",
    "prefecture": "東京都",
    "prefecture_kana": "トウキョウト",
    "prefecture_code": 13,
    "city": "青梅市",
    "city_kana": "オウメシ",
    "town": "沢井",
    "town_kana": "サワイ",
    "street": null,
    "office_name": null,
    "office_name_kana": null
  },
  "0173": {
    "postcode": "1980173",
    "prefecture": "東京都",
    "prefecture_kana": "トウキョウト",
    "prefecture_code": 13,
    "city": "青梅市",
    "city_kana": "オウメシ",
    "town": "御岳本町",
    "town_kana": "ミタケホンチョウ",
    "street": null,
    "office_name": null,
    "office_name_kana": null
  },
  "0174": {
    "postcode": "1980174",
    "prefecture": "東京都",
    "prefecture_kana": "トウキョウト",
    "prefecture_code": 13,
    "city": "青梅市",
    "city_kana": "オウメシ",
    "town": "御岳",
    "town_kana": "ミタケ",
    "street": null,
    "office_name": null,
    "office_name_kana": null
  },
  "0175": {
    "postcode": "1980175",
    "prefecture": "東京都",
    "prefecture_kana": "トウキョウト",
    "prefecture_code": 13,
    "city": "青梅市",
    "city_kana": "オウメシ",
    "town": "御岳山",
    "town_kana": "ミタケサン",
    "street": null,
    "office_name": null,
    "office_name_kana": null
  },
  "0211": {
    "postcode": "1980211",
    "prefecture": "東京都",
    "prefecture_kana": "トウキョウト",
    "prefecture_code": 13,
    "city": "西多摩郡奥多摩町",
    "city_kana": "ニシタマグンオクタママチ",
    "town": "日原",
    "town_kana": "ニッパラ",
    "street": null,
    "office_name": null,
    "office_name_kana": null
  },
  "0212": {
    "postcode": "1980212",
    "prefecture": "東京都",
    "prefecture_kana": "トウキョウト",
    "prefecture_code": 13,
    "city": "西多摩郡奥多摩町",
    "city_kana": "ニシタマグンオクタママチ",
    "town": "氷川",
    "town_kana": "ヒカワ",
    "street": null,
    "office_name": null,
    "office_name_kana": null
  },
  "0213": {
    "postcode": "1980213",
    "prefecture": "東京都",
    "prefecture_kana": "トウキョウト",
    "prefecture_code": 13,
    "city": "西多摩郡奥多摩町",
    "city_kana": "ニシタマグンオクタママチ",
    "town": "海沢",
    "town_kana": "ウナザワ",
    "street": null,
    "office_name": null,
    "office_name_kana": null
  },
  "0221": {
    "postcode": "1980221",
    "prefecture": "東京都",
    "prefecture_kana": "トウキョウト",
    "prefecture_code": 13,
    "city": "西多摩郡奥多摩町",
    "city_kana": "ニシタマグンオクタママチ",
    "town": "留浦",
    "town_kana": "トズラ",
    "street": null,
    "office_name": null,
    "office_name_kana": null
  },
  "0222": {
    "postcode": "1980222",
    "prefecture": "東京都",
    "prefecture_kana": "トウキョウト",
    "prefecture_code": 13,
    "city": "西多摩郡奥多摩町",
    "city_kana": "ニシタマグンオクタママチ",
    "town": "境",
    "town_kana": "サカイ",
    "street": null,
    "office_name": null,
    "office_name_kana": null
  },
  "0223": {
    "postcode": "1980223",
    "prefecture": "東京都",
    "prefecture_kana": "トウキョウト",
    "prefecture_code": 13,
    "city": "西多摩郡奥多摩町",
    "city_kana": "ニシタマグンオクタママチ",
    "town": "原",
    "town_kana": "ハラ",
    "street": null,
    "office_name": null,
    "office_name_kana": null
  },
  "0224": {
    "postcode": "1980224",
    "prefecture": "東京都",
    "prefecture_kana": "トウキョウト",
    "prefecture_code": 13,
    "city": "西多摩郡奥多摩町",
    "city_kana": "ニシタマグンオクタママチ",
    "town": "河内",
    "town_kana": "コウチ",
    "street": null,
    "office_name": null,
    "office_name_kana": null
  },
  "0225": {
    "postcode": "1980225",
    "prefecture": "東京都",
    "prefecture_kana": "トウキョウト",
    "prefecture_code": 13,
    "city": "西多摩郡奥多摩町",
    "city_kana": "ニシタマグンオクタママチ",
    "town": "川野",
    "town_kana": "カワノ",
    "street": null,
    "office_name": null,
    "office_name_kana": null
  },
  "8501": {
    "postcode": "1988501",
    "prefecture": "東京都",
    "prefecture_kana": "トウキョウト",
    "prefecture_code": 13,
    "city": "青梅市",
    "city_kana": "オウメシ",
    "town": "末広町",
    "town_kana": "スエヒロチョウ",
    "street": "２−９−１４ランドポート青梅Ⅲ",
    "office_name": "アマゾン青梅ＦＣ",
    "office_name_kana": "アマゾンオウメエフシ-"
  },
  "8510": {
    "postcode": "1988510",
    "prefecture": "東京都",
    "prefecture_kana": "トウキョウト",
    "prefecture_code": 13,
    "city": "青梅市",
    "city_kana": "オウメシ",
    "town": "今井",
    "town_kana": "イマイ",
    "street": "３丁目７−２０",
    "office_name": "株式会社　東邦製作所",
    "office_name_kana": "カブシキガイシヤ トウホウセイサクシヨ"
  },
  "8512": {
    "postcode": "1988512",
    "prefecture": "東京都",
    "prefecture_kana": "トウキョウト",
    "prefecture_code": 13,
    "city": "青梅市",
    "city_kana": "オウメシ",
    "town": "新町",
    "town_kana": "シンマチ",
    "street": "６丁目１６−３",
    "office_name": "株式会社　日立製作所　マイクロデバイス事業部",
    "office_name_kana": "カブシキガイシヤ ヒタチセイサクシヨ マイクロデバイスジギヨウブ"
  },
  "8522": {
    "postcode": "1988522",
    "prefecture": "東京都",
    "prefecture_kana": "トウキョウト",
    "prefecture_code": 13,
    "city": "青梅市",
    "city_kana": "オウメシ",
    "town": "長淵",
    "town_kana": "ナガブチ",
    "street": "５丁目２５１",
    "office_name": "ホットマン　株式会社",
    "office_name_kana": "ホツトマン カブシキガイシヤ"
  },
  "8525": {
    "postcode": "1988525",
    "prefecture": "東京都",
    "prefecture_kana": "トウキョウト",
    "prefecture_code": 13,
    "city": "青梅市",
    "city_kana": "オウメシ",
    "town": "新町",
    "town_kana": "シンマチ",
    "street": "３−３−１宇源ビル３・４階",
    "office_name": "日本年金機構　青梅年金事務所",
    "office_name_kana": "ニツポンネンキンキコウ オウメネンキンジムシヨ"
  },
  "8531": {
    "postcode": "1988531",
    "prefecture": "東京都",
    "prefecture_kana": "トウキョウト",
    "prefecture_code": 13,
    "city": "青梅市",
    "city_kana": "オウメシ",
    "town": "根ケ布",
    "town_kana": "ネカブ",
    "street": "２丁目７２２",
    "office_name": "社会福祉法人　聖明福祉協会",
    "office_name_kana": "シヤカイフクシホウジン セイメイフクシキヨウカイ"
  },
  "8555": {
    "postcode": "1988555",
    "prefecture": "東京都",
    "prefecture_kana": "トウキョウト",
    "prefecture_code": 13,
    "city": "青梅市",
    "city_kana": "オウメシ",
    "town": "今井",
    "town_kana": "イマイ",
    "street": "３丁目１０番６号",
    "office_name": "株式会社　テラミクロス",
    "office_name_kana": "カブシキガイシヤ テラミクロス"
  },
  "8577": {
    "postcode": "1988577",
    "prefecture": "東京都",
    "prefecture_kana": "トウキョウト",
    "prefecture_code": 13,
    "city": "青梅市",
    "city_kana": "オウメシ",
    "town": "今井",
    "town_kana": "イマイ",
    "street": "３丁目７番１９号",
    "office_name": "株式会社　日立ハイテク　青梅事業所",
    "office_name_kana": "カブシキガイシヤ ヒタチハイテク オウメジギヨウシヨ"
  },
  "8585": {
    "postcode": "1988585",
    "prefecture": "東京都",
    "prefecture_kana": "トウキョウト",
    "prefecture_code": 13,
    "city": "青梅市",
    "city_kana": "オウメシ",
    "town": "上町",
    "town_kana": "カミチョウ",
    "street": "３７３",
    "office_name": "青梅商工会議所",
    "office_name_kana": "オウメシヨウコウカイギシヨ"
  },
  "8588": {
    "postcode": "1988588",
    "prefecture": "東京都",
    "prefecture_kana": "トウキョウト",
    "prefecture_code": 13,
    "city": "青梅市",
    "city_kana": "オウメシ",
    "town": "友田町",
    "town_kana": "トモダマチ",
    "street": "５丁目３５０",
    "office_name": "株式会社　オザム",
    "office_name_kana": "カブシキガイシヤ オザム"
  },
  "8601": {
    "postcode": "1988601",
    "prefecture": "東京都",
    "prefecture_kana": "トウキョウト",
    "prefecture_code": 13,
    "city": "青梅市",
    "city_kana": "オウメシ",
    "town": "末広町",
    "town_kana": "スエヒロチョウ",
    "street": "１丁目６−１",
    "office_name": "住友金属鉱山　株式会社　電子事業本部",
    "office_name_kana": "スミトモキンゾクコウザン カブシキガイシヤ デンシジギヨウホンブ"
  },
  "8611": {
    "postcode": "1988611",
    "prefecture": "東京都",
    "prefecture_kana": "トウキョウト",
    "prefecture_code": 13,
    "city": "青梅市",
    "city_kana": "オウメシ",
    "town": "新町",
    "town_kana": "シンマチ",
    "street": "６丁目１６−２",
    "office_name": "日立ライティング　株式会社　青梅事業所",
    "office_name_kana": "ヒタチライテイング カブシキガイシヤ オウメジギヨウシヨ"
  },
  "8655": {
    "postcode": "1988655",
    "prefecture": "東京都",
    "prefecture_kana": "トウキョウト",
    "prefecture_code": 13,
    "city": "青梅市",
    "city_kana": "オウメシ",
    "town": "長淵",
    "town_kana": "ナガブチ",
    "street": "２丁目５９０",
    "office_name": "明星大学　青梅キャンパス",
    "office_name_kana": "メイセイダイガク オウメキヤンパス"
  },
  "8666": {
    "postcode": "1988666",
    "prefecture": "東京都",
    "prefecture_kana": "トウキョウト",
    "prefecture_code": 13,
    "city": "青梅市",
    "city_kana": "オウメシ",
    "town": "新町",
    "town_kana": "シンマチ",
    "street": "９丁目２１５７",
    "office_name": "アジアエレクトロニクス　株式会社",
    "office_name_kana": "アジアエレクトロニクス カブシキカイシヤ"
  },
  "8700": {
    "postcode": "1988700",
    "prefecture": "東京都",
    "prefecture_kana": "トウキョウト",
    "prefecture_code": 13,
    "city": "青梅市",
    "city_kana": "オウメシ",
    "town": "東青梅",
    "town_kana": "ヒガシオウメ",
    "street": "１丁目１１−１（青梅郵便局私書箱第１６号）",
    "office_name": "青梅市役所",
    "office_name_kana": "オウメシヤクシヨ"
  },
  "8701": {
    "postcode": "1988701",
    "prefecture": "東京都",
    "prefecture_kana": "トウキョウト",
    "prefecture_code": 13,
    "city": "青梅市",
    "city_kana": "オウメシ",
    "town": "東青梅",
    "town_kana": "ヒガシオウメ",
    "street": "１丁目１１−１（青梅郵便局私書箱第１６号）",
    "office_name": "青梅市役所",
    "office_name_kana": "オウメシヤクシヨ"
  },
  "8710": {
    "postcode": "1988710",
    "prefecture": "東京都",
    "prefecture_kana": "トウキョウト",
    "prefecture_code": 13,
    "city": "青梅市",
    "city_kana": "オウメシ",
    "town": "末広町",
    "town_kana": "スエヒロチョウ",
    "street": "２丁目９番（青梅郵便局私書箱第９号）",
    "office_name": "株式会社　東芝　青梅事業所",
    "office_name_kana": "カブシキガイシヤ トウシバ オウメジギヨウシヨ"
  },
  "8711": {
    "postcode": "1988711",
    "prefecture": "東京都",
    "prefecture_kana": "トウキョウト",
    "prefecture_code": 13,
    "city": "青梅市",
    "city_kana": "オウメシ",
    "town": "末広町",
    "town_kana": "スエヒロチョウ",
    "street": "１丁目７−２",
    "office_name": "株式会社　共立",
    "office_name_kana": "カブシキガイシヤ キヨウリツ"
  },
  "8722": {
    "postcode": "1988722",
    "prefecture": "東京都",
    "prefecture_kana": "トウキョウト",
    "prefecture_code": 13,
    "city": "青梅市",
    "city_kana": "オウメシ",
    "town": "勝沼",
    "town_kana": "カツヌマ",
    "street": "３丁目６５（青梅郵便局私書箱第１２号）",
    "office_name": "青梅信用金庫",
    "office_name_kana": "オウメシンヨウキンコ"
  },
  "8760": {
    "postcode": "1988760",
    "prefecture": "東京都",
    "prefecture_kana": "トウキョウト",
    "prefecture_code": 13,
    "city": "青梅市",
    "city_kana": "オウメシ",
    "town": "末広町",
    "town_kana": "スエヒロチョウ",
    "street": "１丁目７−２",
    "office_name": "（株）　やまびこ",
    "office_name_kana": "(カブ) ヤマビコ"
  }
}