{
  "0000": [
    {
      "postcode": "2060000",
      "prefecture": "東京都",
      "prefecture_kana": "トウキョウト",
      "prefecture_code": 13,
      "city": "多摩市",
      "city_kana": "タマシ",
      "town": "",
      "town_kana": "",
      "street": null,
      "office_name": null,
      "office_name_kana": null
    },
    {
      "postcode": "2060000",
      "prefecture": "東京都",
      "prefecture_kana": "トウキョウト",
      "prefecture_code": 13,
      "city": "稲城市",
      "city_kana": "イナギシ",
      "town": "",
      "town_kana": "",
      "street": null,
      "office_name": null,
      "office_name_kana": null
    }
  ],
  "0001": {
    "postcode": "2060001",
    "prefecture": "東京都",
    "prefecture_kana": "トウキョウト",
    "prefecture_code": 13,
    "city": "多摩市",
    "city_kana": "タマシ",
    "town": "和田",
    "town_kana": "ワダ",
    "street": null,
    "office_name": null,
    "office_name_kana": null
  },
  "0002": {
    "postcode": "2060002",
    "prefecture": "東京都",
    "prefecture_kana": "トウキョウト",
    "prefecture_code": 13,
    "city": "多摩市",
    "city_kana": "タマシ",
    "town": "一ノ宮",
    "town_kana": "イチノミヤ",
    "street": null,
    "office_name": null,
    "office_name_kana": null
  },
  "0003": {
    "postcode": "2060003",
    "prefecture": "東京都",
    "prefecture_kana": "トウキョウト",
    "prefecture_code": 13,
    "city": "多摩市",
    "city_kana": "タマシ",
    "town": "東寺方",
    "town_kana": "ヒガシテラガタ",
    "street": null,
    "office_name": null,
    "office_name_kana": null
  },
  "0004": {
    "postcode": "2060004",
    "prefecture": "東京都",
    "prefecture_kana": "トウキョウト",
    "prefecture_code": 13,
    "city": "多摩市",
    "city_kana": "タマシ",
    "town": "百草",
    "town_kana": "モグサ",
    "street": null,
    "office_name": null,
    "office_name_kana": null
  },
  "0011": {
    "postcode": "2060011",
    "prefecture": "東京都",
    "prefecture_kana": "トウキョウト",
    "prefecture_code": 13,
    "city": "多摩市",
    "city_kana": "タマシ",
    "town": "関戸",
    "town_kana": "セキド",
    "street": null,
    "office_name": null,
    "office_name_kana": null
  },
  "0012": {
    "postcode": "2060012",
    "prefecture": "東京都",
    "prefecture_kana": "トウキョウト",
    "prefecture_code": 13,
    "city": "多摩市",
    "city_kana": "タマシ",
    "town": "貝取",
    "town_kana": "カイドリ",
    "street": null,
    "office_name": null,
    "office_name_kana": null
  },
  "0013": {
    "postcode": "2060013",
    "prefecture": "東京都",
    "prefecture_kana": "トウキョウト",
    "prefecture_code": 13,
    "city": "多摩市",
    "city_kana": "タマシ",
    "town": "桜ヶ丘",
    "town_kana": "サクラガオカ",
    "street": null,
    "office_name": null,
    "office_name_kana": null
  },
  "0014": {
    "postcode": "2060014",
    "prefecture": "東京都",
    "prefecture_kana": "トウキョウト",
    "prefecture_code": 13,
    "city": "多摩市",
    "city_kana": "タマシ",
    "town": "乞田",
    "town_kana": "コッタ",
    "street": null,
    "office_name": null,
    "office_name_kana": null
  },
  "0015": {
    "postcode": "2060015",
    "prefecture": "東京都",
    "prefecture_kana": "トウキョウト",
    "prefecture_code": 13,
    "city": "多摩市",
    "city_kana": "タマシ",
    "town": "落川",
    "town_kana": "オチカワ",
    "street": null,
    "office_name": null,
    "office_name_kana": null
  },
  "0021": {
    "postcode": "2060021",
    "prefecture": "東京都",
    "prefecture_kana": "トウキョウト",
    "prefecture_code": 13,
    "city": "多摩市",
    "city_kana": "タマシ",
    "town": "連光寺",
    "town_kana": "レンコウジ",
    "street": null,
    "office_name": null,
    "office_name_kana": null
  },
  "0022": {
    "postcode": "2060022",
    "prefecture": "東京都",
    "prefecture_kana": "トウキョウト",
    "prefecture_code": 13,
    "city": "多摩市",
    "city_kana": "タマシ",
    "town": "聖ヶ丘",
    "town_kana": "ヒジリガオカ",
    "street": null,
    "office_name": null,
    "office_name_kana": null
  },
  "0023": {
    "postcode": "2060023",
    "prefecture": "東京都",
    "prefecture_kana": "トウキョウト",
    "prefecture_code": 13,
    "city": "多摩市",
    "city_kana": "タマシ",
    "town": "馬引沢",
    "town_kana": "マヒキザワ",
    "street": null,
    "office_name": null,
    "office_name_kana": null
  },
  "0024": {
    "postcode": "2060024",
    "prefecture": "東京都",
    "prefecture_kana": "トウキョウト",
    "prefecture_code": 13,
    "city": "多摩市",
    "city_kana": "タマシ",
    "town": "諏訪",
    "town_kana": "スワ",
    "street": null,
    "office_name": null,
    "office_name_kana": null
  },
  "0025": {
    "postcode": "2060025",
    "prefecture": "東京都",
    "prefecture_kana": "トウキョウト",
    "prefecture_code": 13,
    "city": "多摩市",
    "city_kana": "タマシ",
    "town": "永山",
    "town_kana": "ナガヤマ",
    "street": null,
    "office_name": null,
    "office_name_kana": null
  },
  "0031": {
    "postcode": "2060031",
    "prefecture": "東京都",
    "prefecture_kana": "トウキョウト",
    "prefecture_code": 13,
    "city": "多摩市",
    "city_kana": "タマシ",
    "town": "豊ヶ丘",
    "town_kana": "トヨガオカ",
    "street": null,
    "office_name": null,
    "office_name_kana": null
  },
  "0032": {
    "postcode": "2060032",
    "prefecture": "東京都",
    "prefecture_kana": "トウキョウト",
    "prefecture_code": 13,
    "city": "多摩市",
    "city_kana": "タマシ",
    "town": "南野",
    "town_kana": "ミナミノ",
    "street": null,
    "office_name": null,
    "office_name_kana": null
  },
  "0033": {
    "postcode": "2060033",
    "prefecture": "東京都",
    "prefecture_kana": "トウキョウト",
    "prefecture_code": 13,
    "city": "多摩市",
    "city_kana": "タマシ",
    "town": "落合",
    "town_kana": "オチアイ",
    "street": null,
    "office_name": null,
    "office_name_kana": null
  },
  "0034": {
    "postcode": "2060034",
    "prefecture": "東京都",
    "prefecture_kana": "トウキョウト",
    "prefecture_code": 13,
    "city": "多摩市",
    "city_kana": "タマシ",
    "town": "鶴牧",
    "town_kana": "ツルマキ",
    "street": null,
    "office_name": null,
    "office_name_kana": null
  },
  "0035": {
    "postcode": "2060035",
    "prefecture": "東京都",
    "prefecture_kana": "トウキョウト",
    "prefecture_code": 13,
    "city": "多摩市",
    "city_kana": "タマシ",
    "town": "唐木田",
    "town_kana": "カラキダ",
    "street": null,
    "office_name": null,
    "office_name_kana": null
  },
  "0036": {
    "postcode": "2060036",
    "prefecture": "東京都",
    "prefecture_kana": "トウキョウト",
    "prefecture_code": 13,
    "city": "多摩市",
    "city_kana": "タマシ",
    "town": "中沢",
    "town_kana": "ナカザワ",
    "street": null,
    "office_name": null,
    "office_name_kana": null
  },
  "0041": {
    "postcode": "2060041",
    "prefecture": "東京都",
    "prefecture_kana": "トウキョウト",
    "prefecture_code": 13,
    "city": "多摩市",
    "city_kana": "タマシ",
    "town": "愛宕",
    "town_kana": "アタゴ",
    "street": null,
    "office_name": null,
    "office_name_kana": null
  },
  "0042": {
    "postcode": "2060042",
    "prefecture": "東京都",
    "prefecture_kana": "トウキョウト",
    "prefecture_code": 13,
    "city": "多摩市",
    "city_kana": "タマシ",
    "town": "山王下",
    "town_kana": "サンノウシタ",
    "street": null,
    "office_name": null,
    "office_name_kana": null
  },
  "0801": {
    "postcode": "2060801",
    "prefecture": "東京都",
    "prefecture_kana": "トウキョウト",
    "prefecture_code": 13,
    "city": "稲城市",
    "city_kana": "イナギシ",
    "town": "大丸",
    "town_kana": "オオマル",
    "street": null,
    "office_name": null,
    "office_name_kana": null
  },
  "0802": {
    "postcode": "2060802",
    "prefecture": "東京都",
    "prefecture_kana": "トウキョウト",
    "prefecture_code": 13,
    "city": "稲城市",
    "city_kana": "イナギシ",
    "town": "東長沼",
    "town_kana": "ヒガシナガヌマ",
    "street": null,
    "office_name": null,
    "office_name_kana": null
  },
  "0803": {
    "postcode": "2060803",
    "prefecture": "東京都",
    "prefecture_kana": "トウキョウト",
    "prefecture_code": 13,
    "city": "稲城市",
    "city_kana": "イナギシ",
    "town": "向陽台",
    "town_kana": "コウヨウダイ",
    "street": null,
    "office_name": null,
    "office_name_kana": null
  },
  "0804": {
    "postcode": "2060804",
    "prefecture": "東京都",
    "prefecture_kana": "トウキョウト",
    "prefecture_code": 13,
    "city": "稲城市",
    "city_kana": "イナギシ",
    "town": "百村",
    "town_kana": "モムラ",
    "street": null,
    "office_name": null,
    "office_name_kana": null
  },
  "0811": {
    "postcode": "2060811",
    "prefecture": "東京都",
    "prefecture_kana": "トウキョウト",
    "prefecture_code": 13,
    "city": "稲城市",
    "city_kana": "イナギシ",
    "town": "押立",
    "town_kana": "オシタテ",
    "street": null,
    "office_name": null,
    "office_name_kana": null
  },
  "0812": {
    "postcode": "2060812",
    "prefecture": "東京都",
    "prefecture_kana": "トウキョウト",
    "prefecture_code": 13,
    "city": "稲城市",
    "city_kana": "イナギシ",
    "town": "矢野口",
    "town_kana": "ヤノクチ",
    "street": null,
    "office_name": null,
    "office_name_kana": null
  },
  "0821": {
    "postcode": "2060821",
    "prefecture": "東京都",
    "prefecture_kana": "トウキョウト",
    "prefecture_code": 13,
    "city": "稲城市",
    "city_kana": "イナギシ",
    "town": "長峰",
    "town_kana": "ナガミネ",
    "street": null,
    "office_name": null,
    "office_name_kana": null
  },
  "0822": {
    "postcode": "2060822",
    "prefecture": "東京都",
    "prefecture_kana": "トウキョウト",
    "prefecture_code": 13,
    "city": "稲城市",
    "city_kana": "イナギシ",
    "town": "坂浜",
    "town_kana": "サカハマ",
    "street": null,
    "office_name": null,
    "office_name_kana": null
  },
  "0823": {
    "postcode": "2060823",
    "prefecture": "東京都",
    "prefecture_kana": "トウキョウト",
    "prefecture_code": 13,
    "city": "稲城市",
    "city_kana": "イナギシ",
    "town": "平尾",
    "town_kana": "ヒラオ",
    "street": null,
    "office_name": null,
    "office_name_kana": null
  },
  "0824": {
    "postcode": "2060824",
    "prefecture": "東京都",
    "prefecture_kana": "トウキョウト",
    "prefecture_code": 13,
    "city": "稲城市",
    "city_kana": "イナギシ",
    "town": "若葉台",
    "town_kana": "ワカバダイ",
    "street": null,
    "office_name": null,
    "office_name_kana": null
  },
  "8502": {
    "postcode": "2068502",
    "prefecture": "東京都",
    "prefecture_kana": "トウキョウト",
    "prefecture_code": 13,
    "city": "多摩市",
    "city_kana": "タマシ",
    "town": "関戸",
    "town_kana": "セキド",
    "street": "１丁目９−１",
    "office_name": "京王電鉄　株式会社",
    "office_name_kana": "ケイオウデンテツ カブシキガイシヤ"
  },
  "8505": {
    "postcode": "2068505",
    "prefecture": "東京都",
    "prefecture_kana": "トウキョウト",
    "prefecture_code": 13,
    "city": "稲城市",
    "city_kana": "イナギシ",
    "town": "百村",
    "town_kana": "モムラ",
    "street": "２１１１",
    "office_name": "生活協同組合　東京マイコープ",
    "office_name_kana": "セイカツキヨウドウクミアイ トウキヨウマイコ-プ"
  },
  "8510": {
    "postcode": "2068510",
    "prefecture": "東京都",
    "prefecture_kana": "トウキョウト",
    "prefecture_code": 13,
    "city": "多摩市",
    "city_kana": "タマシ",
    "town": "鶴牧",
    "town_kana": "ツルマキ",
    "street": "２丁目１−１",
    "office_name": "東京海上日動火災保険　株式会社",
    "office_name_kana": "トウキヨウカイジヨウニチドウカサイホケン カブシキガイシヤ"
  },
  "8511": {
    "postcode": "2068511",
    "prefecture": "東京都",
    "prefecture_kana": "トウキョウト",
    "prefecture_code": 13,
    "city": "稲城市",
    "city_kana": "イナギシ",
    "town": "坂浜",
    "town_kana": "サカハマ",
    "street": "２３８",
    "office_name": "学校法人　駒澤学園",
    "office_name_kana": "ガツコウホウジン コマザワガクエン"
  },
  "8512": {
    "postcode": "2068512",
    "prefecture": "東京都",
    "prefecture_kana": "トウキョウト",
    "prefecture_code": 13,
    "city": "多摩市",
    "city_kana": "タマシ",
    "town": "永山",
    "town_kana": "ナガヤマ",
    "street": "１丁目７−１",
    "office_name": "日本医科大学付属多摩永山病院",
    "office_name_kana": "ニホンイカダイガクフゾクタマナガヤマビヨウイン"
  },
  "8515": {
    "postcode": "2068515",
    "prefecture": "東京都",
    "prefecture_kana": "トウキョウト",
    "prefecture_code": 13,
    "city": "多摩市",
    "city_kana": "タマシ",
    "town": "永山",
    "town_kana": "ナガヤマ",
    "street": "７丁目３−１",
    "office_name": "国士舘大学　体育学部",
    "office_name_kana": "コクシカンダイガク タイイクガクブ"
  },
  "8520": {
    "postcode": "2068520",
    "prefecture": "東京都",
    "prefecture_kana": "トウキョウト",
    "prefecture_code": 13,
    "city": "多摩市",
    "city_kana": "タマシ",
    "town": "関戸",
    "town_kana": "セキド",
    "street": "１丁目７−５",
    "office_name": "大和證券　株式会社　多摩支店",
    "office_name_kana": "ダイワシヨウケン カブシキガイシヤ タマシテン"
  },
  "8522": {
    "postcode": "2068522",
    "prefecture": "東京都",
    "prefecture_kana": "トウキョウト",
    "prefecture_code": 13,
    "city": "多摩市",
    "city_kana": "タマシ",
    "town": "関戸",
    "town_kana": "セキド",
    "street": "１丁目７−４",
    "office_name": "株式会社　京王ストア",
    "office_name_kana": "カブシキガイシヤ ケイオウストア"
  },
  "8525": {
    "postcode": "2068525",
    "prefecture": "東京都",
    "prefecture_kana": "トウキョウト",
    "prefecture_code": 13,
    "city": "多摩市",
    "city_kana": "タマシ",
    "town": "永山",
    "town_kana": "ナガヤマ",
    "street": "６丁目２４−１",
    "office_name": "ミタニマイクロニクス　株式会社",
    "office_name_kana": "ミタニマイクロニクス カブシキガイシヤ"
  },
  "8530": {
    "postcode": "2068530",
    "prefecture": "東京都",
    "prefecture_kana": "トウキョウト",
    "prefecture_code": 13,
    "city": "多摩市",
    "city_kana": "タマシ",
    "town": "落合",
    "town_kana": "オチアイ",
    "street": "１丁目４７",
    "office_name": "ティアック　株式会社",
    "office_name_kana": "テイアツク カブシキガイシヤ"
  },
  "8540": {
    "postcode": "2068540",
    "prefecture": "東京都",
    "prefecture_kana": "トウキョウト",
    "prefecture_code": 13,
    "city": "多摩市",
    "city_kana": "タマシ",
    "town": "唐木田",
    "town_kana": "カラキダ",
    "street": "２丁目７−１",
    "office_name": "大妻学院　多摩校",
    "office_name_kana": "オオツマガクイン タマコウ"
  },
  "8543": {
    "postcode": "2068543",
    "prefecture": "東京都",
    "prefecture_kana": "トウキョウト",
    "prefecture_code": 13,
    "city": "多摩市",
    "city_kana": "タマシ",
    "town": "落合",
    "town_kana": "オチアイ",
    "street": "１丁目４６−１",
    "office_name": "三越　多摩センター店",
    "office_name_kana": "ミツコシ タマセンタ-テン"
  },
  "8551": {
    "postcode": "2068551",
    "prefecture": "東京都",
    "prefecture_kana": "トウキョウト",
    "prefecture_code": 13,
    "city": "多摩市",
    "city_kana": "タマシ",
    "town": "鶴牧",
    "town_kana": "ツルマキ",
    "street": "２丁目１１番地１",
    "office_name": "ＪＵＫＩ　株式会社",
    "office_name_kana": "ジユ-キ カブシキガイシヤ"
  },
  "8555": {
    "postcode": "2068555",
    "prefecture": "東京都",
    "prefecture_kana": "トウキョウト",
    "prefecture_code": 13,
    "city": "稲城市",
    "city_kana": "イナギシ",
    "town": "矢野口",
    "town_kana": "ヤノクチ",
    "street": "１７７６",
    "office_name": "富士通フロンテック　株式会社",
    "office_name_kana": "フジツウフロンテツク カブシキガイシヤ"
  },
  "8561": {
    "postcode": "2068561",
    "prefecture": "東京都",
    "prefecture_kana": "トウキョウト",
    "prefecture_code": 13,
    "city": "多摩市",
    "city_kana": "タマシ",
    "town": "和田",
    "town_kana": "ワダ",
    "street": "１２５４−６",
    "office_name": "帝京大学小学校",
    "office_name_kana": "テイキヨウダイガクシヨウガツコウ"
  },
  "8566": {
    "postcode": "2068566",
    "prefecture": "東京都",
    "prefecture_kana": "トウキョウト",
    "prefecture_code": 13,
    "city": "稲城市",
    "city_kana": "イナギシ",
    "town": "矢野口",
    "town_kana": "ヤノクチ",
    "street": "４０１５−１",
    "office_name": "株式会社　よみうりランド",
    "office_name_kana": "カブシキガイシヤ ヨミウリランド"
  },
  "8567": {
    "postcode": "2068567",
    "prefecture": "東京都",
    "prefecture_kana": "トウキョウト",
    "prefecture_code": 13,
    "city": "多摩市",
    "city_kana": "タマシ",
    "town": "鶴牧",
    "town_kana": "ツルマキ",
    "street": "２丁目１１−２",
    "office_name": "ミツミ電機　株式会社",
    "office_name_kana": "ミツミデンキ カブシキガイシヤ"
  },
  "8577": {
    "postcode": "2068577",
    "prefecture": "東京都",
    "prefecture_kana": "トウキョウト",
    "prefecture_code": 13,
    "city": "稲城市",
    "city_kana": "イナギシ",
    "town": "大丸",
    "town_kana": "オオマル",
    "street": "２２２０",
    "office_name": "日本フイルコン　株式会社　東京事務所",
    "office_name_kana": "ニホンフイルコン カブシキガイシヤ トウキヨウジムシヨ"
  },
  "8585": {
    "postcode": "2068585",
    "prefecture": "東京都",
    "prefecture_kana": "トウキョウト",
    "prefecture_code": 13,
    "city": "多摩市",
    "city_kana": "タマシ",
    "town": "関戸",
    "town_kana": "セキド",
    "street": "４丁目８−３",
    "office_name": "トヨタ西東京カローラ　株式会社",
    "office_name_kana": "トヨタニシトウキヨウカロ-ラ カブシキガイシヤ"
  },
  "8586": {
    "postcode": "2068586",
    "prefecture": "東京都",
    "prefecture_kana": "トウキョウト",
    "prefecture_code": 13,
    "city": "多摩市",
    "city_kana": "タマシ",
    "town": "南野",
    "town_kana": "ミナミノ",
    "street": "２丁目１０番１号",
    "office_name": "恵泉女学園大学",
    "office_name_kana": "ケイセンジヨガクエンダイガク"
  },
  "8588": {
    "postcode": "2068588",
    "prefecture": "東京都",
    "prefecture_kana": "トウキョウト",
    "prefecture_code": 13,
    "city": "多摩市",
    "city_kana": "タマシ",
    "town": "落合",
    "town_kana": "オチアイ",
    "street": "１丁目３１",
    "office_name": "株式会社　サンリオエンターテイメント",
    "office_name_kana": "カブシキガイシヤ サンリオエンタ-テイメント"
  },
  "8601": {
    "postcode": "2068601",
    "prefecture": "東京都",
    "prefecture_kana": "トウキョウト",
    "prefecture_code": 13,
    "city": "稲城市",
    "city_kana": "イナギシ",
    "town": "東長沼",
    "town_kana": "ヒガシナガヌマ",
    "street": "２１１１",
    "office_name": "稲城市役所",
    "office_name_kana": "イナギシヤクシヨ"
  },
  "8611": {
    "postcode": "2068611",
    "prefecture": "東京都",
    "prefecture_kana": "トウキョウト",
    "prefecture_code": 13,
    "city": "多摩市",
    "city_kana": "タマシ",
    "town": "鶴牧",
    "town_kana": "ツルマキ",
    "street": "１丁目２３（多摩郵便局私書箱第１号）",
    "office_name": "朝日生命保険　相互会社　多摩本社",
    "office_name_kana": "アサヒセイメイホケン ソウゴガイシヤ タマホンシヤ"
  },
  "8666": {
    "postcode": "2068666",
    "prefecture": "東京都",
    "prefecture_kana": "トウキョウト",
    "prefecture_code": 13,
    "city": "多摩市",
    "city_kana": "タマシ",
    "town": "関戸",
    "town_kana": "セキド",
    "street": "６丁目１２−１",
    "office_name": "多摩市役所",
    "office_name_kana": "タマシヤクシヨ"
  },
  "8686": {
    "postcode": "2068686",
    "prefecture": "東京都",
    "prefecture_kana": "トウキョウト",
    "prefecture_code": 13,
    "city": "多摩市",
    "city_kana": "タマシ",
    "town": "落合",
    "town_kana": "オチアイ",
    "street": "１丁目３４（多摩郵便局私書箱第５号）",
    "office_name": "株式会社　ベネッセコーポレーション",
    "office_name_kana": "カブシキガイシヤ ベネツセコ-ポレ-シヨン"
  }
}