{
  "0000": {
    "postcode": "2110000",
    "prefecture": "神奈川県",
    "prefecture_kana": "カナガワケン",
    "prefecture_code": 14,
    "city": "川崎市中原区",
    "city_kana": "カワサキシナカハラク",
    "town": "",
    "town_kana": "",
    "street": null,
    "office_name": null,
    "office_name_kana": null
  },
  "0001": {
    "postcode": "2110001",
    "prefecture": "神奈川県",
    "prefecture_kana": "カナガワケン",
    "prefecture_code": 14,
    "city": "川崎市中原区",
    "city_kana": "カワサキシナカハラク",
    "town": "上丸子八幡町",
    "town_kana": "カミマルコハチマンチョウ",
    "street": null,
    "office_name": null,
    "office_name_kana": null
  },
  "0002": {
    "postcode": "2110002",
    "prefecture": "神奈川県",
    "prefecture_kana": "カナガワケン",
    "prefecture_code": 14,
    "city": "川崎市中原区",
    "city_kana": "カワサキシナカハラク",
    "town": "上丸子山王町",
    "town_kana": "カミマルコサンノウチョウ",
    "street": null,
    "office_name": null,
    "office_name_kana": null
  },
  "0003": {
    "postcode": "2110003",
    "prefecture": "神奈川県",
    "prefecture_kana": "カナガワケン",
    "prefecture_code": 14,
    "city": "川崎市中原区",
    "city_kana": "カワサキシナカハラク",
    "town": "上丸子",
    "town_kana": "カミマルコ",
    "street": null,
    "office_name": null,
    "office_name_kana": null
  },
  "0004": {
    "postcode": "2110004",
    "prefecture": "神奈川県",
    "prefecture_kana": "カナガワケン",
    "prefecture_code": 14,
    "city": "川崎市中原区",
    "city_kana": "カワサキシナカハラク",
    "town": "新丸子東",
    "town_kana": "シンマルコヒガシ",
    "street": null,
    "office_name": null,
    "office_name_kana": null
  },
  "0005": {
    "postcode": "2110005",
    "prefecture": "神奈川県",
    "prefecture_kana": "カナガワケン",
    "prefecture_code": 14,
    "city": "川崎市中原区",
    "city_kana": "カワサキシナカハラク",
    "town": "新丸子町",
    "town_kana": "シンマルコマチ",
    "street": null,
    "office_name": null,
    "office_name_kana": null
  },
  "0006": {
    "postcode": "2110006",
    "prefecture": "神奈川県",
    "prefecture_kana": "カナガワケン",
    "prefecture_code": 14,
    "city": "川崎市中原区",
    "city_kana": "カワサキシナカハラク",
    "town": "丸子通",
    "town_kana": "マルコドオリ",
    "street": null,
    "office_name": null,
    "office_name_kana": null
  },
  "0007": {
    "postcode": "2110007",
    "prefecture": "神奈川県",
    "prefecture_kana": "カナガワケン",
    "prefecture_code": 14,
    "city": "川崎市中原区",
    "city_kana": "カワサキシナカハラク",
    "town": "上丸子天神町",
    "town_kana": "カミマルコテンジンチョウ",
    "street": null,
    "office_name": null,
    "office_name_kana": null
  },
  "0011": {
    "postcode": "2110011",
    "prefecture": "神奈川県",
    "prefecture_kana": "カナガワケン",
    "prefecture_code": 14,
    "city": "川崎市中原区",
    "city_kana": "カワサキシナカハラク",
    "town": "下沼部",
    "town_kana": "シモヌマベ",
    "street": null,
    "office_name": null,
    "office_name_kana": null
  },
  "0012": {
    "postcode": "2110012",
    "prefecture": "神奈川県",
    "prefecture_kana": "カナガワケン",
    "prefecture_code": 14,
    "city": "川崎市中原区",
    "city_kana": "カワサキシナカハラク",
    "town": "中丸子",
    "town_kana": "ナカマルコ",
    "street": null,
    "office_name": null,
    "office_name_kana": null
  },
  "0013": {
    "postcode": "2110013",
    "prefecture": "神奈川県",
    "prefecture_kana": "カナガワケン",
    "prefecture_code": 14,
    "city": "川崎市中原区",
    "city_kana": "カワサキシナカハラク",
    "town": "上平間",
    "town_kana": "カミヒラマ",
    "street": null,
    "office_name": null,
    "office_name_kana": null
  },
  "0014": {
    "postcode": "2110014",
    "prefecture": "神奈川県",
    "prefecture_kana": "カナガワケン",
    "prefecture_code": 14,
    "city": "川崎市中原区",
    "city_kana": "カワサキシナカハラク",
    "town": "田尻町",
    "town_kana": "タジリチョウ",
    "street": null,
    "office_name": null,
    "office_name_kana": null
  },
  "0015": {
    "postcode": "2110015",
    "prefecture": "神奈川県",
    "prefecture_kana": "カナガワケン",
    "prefecture_code": 14,
    "city": "川崎市中原区",
    "city_kana": "カワサキシナカハラク",
    "town": "北谷町",
    "town_kana": "キタヤチョウ",
    "street": null,
    "office_name": null,
    "office_name_kana": null
  },
  "0016": {
    "postcode": "2110016",
    "prefecture": "神奈川県",
    "prefecture_kana": "カナガワケン",
    "prefecture_code": 14,
    "city": "川崎市中原区",
    "city_kana": "カワサキシナカハラク",
    "town": "市ノ坪",
    "town_kana": "イチノツボ",
    "street": null,
    "office_name": null,
    "office_name_kana": null
  },
  "0021": {
    "postcode": "2110021",
    "prefecture": "神奈川県",
    "prefecture_kana": "カナガワケン",
    "prefecture_code": 14,
    "city": "川崎市中原区",
    "city_kana": "カワサキシナカハラク",
    "town": "木月住吉町",
    "town_kana": "キヅキスミヨシチョウ",
    "street": null,
    "office_name": null,
    "office_name_kana": null
  },
  "0022": {
    "postcode": "2110022",
    "prefecture": "神奈川県",
    "prefecture_kana": "カナガワケン",
    "prefecture_code": 14,
    "city": "川崎市中原区",
    "city_kana": "カワサキシナカハラク",
    "town": "苅宿",
    "town_kana": "カリヤド",
    "street": null,
    "office_name": null,
    "office_name_kana": null
  },
  "0023": {
    "postcode": "2110023",
    "prefecture": "神奈川県",
    "prefecture_kana": "カナガワケン",
    "prefecture_code": 14,
    "city": "川崎市中原区",
    "city_kana": "カワサキシナカハラク",
    "town": "大倉町",
    "town_kana": "オオクラチョウ",
    "street": null,
    "office_name": null,
    "office_name_kana": null
  },
  "0024": {
    "postcode": "2110024",
    "prefecture": "神奈川県",
    "prefecture_kana": "カナガワケン",
    "prefecture_code": 14,
    "city": "川崎市中原区",
    "city_kana": "カワサキシナカハラク",
    "town": "西加瀬",
    "town_kana": "ニシカセ",
    "street": null,
    "office_name": null,
    "office_name_kana": null
  },
  "0025": {
    "postcode": "2110025",
    "prefecture": "神奈川県",
    "prefecture_kana": "カナガワケン",
    "prefecture_code": 14,
    "city": "川崎市中原区",
    "city_kana": "カワサキシナカハラク",
    "town": "木月",
    "town_kana": "キヅキ",
    "street": null,
    "office_name": null,
    "office_name_kana": null
  },
  "0031": {
    "postcode": "2110031",
    "prefecture": "神奈川県",
    "prefecture_kana": "カナガワケン",
    "prefecture_code": 14,
    "city": "川崎市中原区",
    "city_kana": "カワサキシナカハラク",
    "town": "木月大町",
    "town_kana": "キヅキオオマチ",
    "street": null,
    "office_name": null,
    "office_name_kana": null
  },
  "0032": {
    "postcode": "2110032",
    "prefecture": "神奈川県",
    "prefecture_kana": "カナガワケン",
    "prefecture_code": 14,
    "city": "川崎市中原区",
    "city_kana": "カワサキシナカハラク",
    "town": "木月伊勢町",
    "town_kana": "キヅキイセチョウ",
    "street": null,
    "office_name": null,
    "office_name_kana": null
  },
  "0033": {
    "postcode": "2110033",
    "prefecture": "神奈川県",
    "prefecture_kana": "カナガワケン",
    "prefecture_code": 14,
    "city": "川崎市中原区",
    "city_kana": "カワサキシナカハラク",
    "town": "木月祗園町",
    "town_kana": "キヅキギオンチョウ",
    "street": null,
    "office_name": null,
    "office_name_kana": null
  },
  "0034": {
    "postcode": "2110034",
    "prefecture": "神奈川県",
    "prefecture_kana": "カナガワケン",
    "prefecture_code": 14,
    "city": "川崎市中原区",
    "city_kana": "カワサキシナカハラク",
    "town": "井田中ノ町",
    "town_kana": "イダナカノチョウ",
    "street": null,
    "office_name": null,
    "office_name_kana": null
  },
  "0035": {
    "postcode": "2110035",
    "prefecture": "神奈川県",
    "prefecture_kana": "カナガワケン",
    "prefecture_code": 14,
    "city": "川崎市中原区",
    "city_kana": "カワサキシナカハラク",
    "town": "井田",
    "town_kana": "イダ",
    "street": null,
    "office_name": null,
    "office_name_kana": null
  },
  "0036": {
    "postcode": "2110036",
    "prefecture": "神奈川県",
    "prefecture_kana": "カナガワケン",
    "prefecture_code": 14,
    "city": "川崎市中原区",
    "city_kana": "カワサキシナカハラク",
    "town": "井田杉山町",
    "town_kana": "イダスギヤマチョウ",
    "street": null,
    "office_name": null,
    "office_name_kana": null
  },
  "0037": {
    "postcode": "2110037",
    "prefecture": "神奈川県",
    "prefecture_kana": "カナガワケン",
    "prefecture_code": 14,
    "city": "川崎市中原区",
    "city_kana": "カワサキシナカハラク",
    "town": "井田三舞町",
    "town_kana": "イダサンマイチョウ",
    "street": null,
    "office_name": null,
    "office_name_kana": null
  },
  "0041": {
    "postcode": "2110041",
    "prefecture": "神奈川県",
    "prefecture_kana": "カナガワケン",
    "prefecture_code": 14,
    "city": "川崎市中原区",
    "city_kana": "カワサキシナカハラク",
    "town": "下小田中",
    "town_kana": "シモコダナカ",
    "street": null,
    "office_name": null,
    "office_name_kana": null
  },
  "0042": {
    "postcode": "2110042",
    "prefecture": "神奈川県",
    "prefecture_kana": "カナガワケン",
    "prefecture_code": 14,
    "city": "川崎市中原区",
    "city_kana": "カワサキシナカハラク",
    "town": "下新城",
    "town_kana": "シモシンジョウ",
    "street": null,
    "office_name": null,
    "office_name_kana": null
  },
  "0043": {
    "postcode": "2110043",
    "prefecture": "神奈川県",
    "prefecture_kana": "カナガワケン",
    "prefecture_code": 14,
    "city": "川崎市中原区",
    "city_kana": "カワサキシナカハラク",
    "town": "新城中町",
    "town_kana": "シンジョウナカチョウ",
    "street": null,
    "office_name": null,
    "office_name_kana": null
  },
  "0044": {
    "postcode": "2110044",
    "prefecture": "神奈川県",
    "prefecture_kana": "カナガワケン",
    "prefecture_code": 14,
    "city": "川崎市中原区",
    "city_kana": "カワサキシナカハラク",
    "town": "新城",
    "town_kana": "シンジョウ",
    "street": null,
    "office_name": null,
    "office_name_kana": null
  },
  "0045": {
    "postcode": "2110045",
    "prefecture": "神奈川県",
    "prefecture_kana": "カナガワケン",
    "prefecture_code": 14,
    "city": "川崎市中原区",
    "city_kana": "カワサキシナカハラク",
    "town": "上新城",
    "town_kana": "カミシンジョウ",
    "street": null,
    "office_name": null,
    "office_name_kana": null
  },
  "0051": {
    "postcode": "2110051",
    "prefecture": "神奈川県",
    "prefecture_kana": "カナガワケン",
    "prefecture_code": 14,
    "city": "川崎市中原区",
    "city_kana": "カワサキシナカハラク",
    "town": "宮内",
    "town_kana": "ミヤウチ",
    "street": null,
    "office_name": null,
    "office_name_kana": null
  },
  "0052": {
    "postcode": "2110052",
    "prefecture": "神奈川県",
    "prefecture_kana": "カナガワケン",
    "prefecture_code": 14,
    "city": "川崎市中原区",
    "city_kana": "カワサキシナカハラク",
    "town": "等々力",
    "town_kana": "トドロキ",
    "street": null,
    "office_name": null,
    "office_name_kana": null
  },
  "0053": {
    "postcode": "2110053",
    "prefecture": "神奈川県",
    "prefecture_kana": "カナガワケン",
    "prefecture_code": 14,
    "city": "川崎市中原区",
    "city_kana": "カワサキシナカハラク",
    "town": "上小田中",
    "town_kana": "カミコダナカ",
    "street": null,
    "office_name": null,
    "office_name_kana": null
  },
  "0061": {
    "postcode": "2110061",
    "prefecture": "神奈川県",
    "prefecture_kana": "カナガワケン",
    "prefecture_code": 14,
    "city": "川崎市中原区",
    "city_kana": "カワサキシナカハラク",
    "town": "小杉",
    "town_kana": "コスギ",
    "street": null,
    "office_name": null,
    "office_name_kana": null
  },
  "0062": {
    "postcode": "2110062",
    "prefecture": "神奈川県",
    "prefecture_kana": "カナガワケン",
    "prefecture_code": 14,
    "city": "川崎市中原区",
    "city_kana": "カワサキシナカハラク",
    "town": "小杉陣屋町",
    "town_kana": "コスギジンヤチョウ",
    "street": null,
    "office_name": null,
    "office_name_kana": null
  },
  "0063": {
    "postcode": "2110063",
    "prefecture": "神奈川県",
    "prefecture_kana": "カナガワケン",
    "prefecture_code": 14,
    "city": "川崎市中原区",
    "city_kana": "カワサキシナカハラク",
    "town": "小杉町",
    "town_kana": "コスギマチ",
    "street": null,
    "office_name": null,
    "office_name_kana": null
  },
  "0064": {
    "postcode": "2110064",
    "prefecture": "神奈川県",
    "prefecture_kana": "カナガワケン",
    "prefecture_code": 14,
    "city": "川崎市中原区",
    "city_kana": "カワサキシナカハラク",
    "town": "今井南町",
    "town_kana": "イマイミナミチョウ",
    "street": null,
    "office_name": null,
    "office_name_kana": null
  },
  "0065": {
    "postcode": "2110065",
    "prefecture": "神奈川県",
    "prefecture_kana": "カナガワケン",
    "prefecture_code": 14,
    "city": "川崎市中原区",
    "city_kana": "カワサキシナカハラク",
    "town": "今井仲町",
    "town_kana": "イマイナカマチ",
    "street": null,
    "office_name": null,
    "office_name_kana": null
  },
  "0066": {
    "postcode": "2110066",
    "prefecture": "神奈川県",
    "prefecture_kana": "カナガワケン",
    "prefecture_code": 14,
    "city": "川崎市中原区",
    "city_kana": "カワサキシナカハラク",
    "town": "今井西町",
    "town_kana": "イマイニシマチ",
    "street": null,
    "office_name": null,
    "office_name_kana": null
  },
  "0067": {
    "postcode": "2110067",
    "prefecture": "神奈川県",
    "prefecture_kana": "カナガワケン",
    "prefecture_code": 14,
    "city": "川崎市中原区",
    "city_kana": "カワサキシナカハラク",
    "town": "今井上町",
    "town_kana": "イマイカミチョウ",
    "street": null,
    "office_name": null,
    "office_name_kana": null
  },
  "0068": {
    "postcode": "2110068",
    "prefecture": "神奈川県",
    "prefecture_kana": "カナガワケン",
    "prefecture_code": 14,
    "city": "川崎市中原区",
    "city_kana": "カワサキシナカハラク",
    "town": "小杉御殿町",
    "town_kana": "コスギゴテンチョウ",
    "street": null,
    "office_name": null,
    "office_name_kana": null
  },
  "8501": {
    "postcode": "2118501",
    "prefecture": "神奈川県",
    "prefecture_kana": "カナガワケン",
    "prefecture_code": 14,
    "city": "川崎市中原区",
    "city_kana": "カワサキシナカハラク",
    "town": "今井上町",
    "town_kana": "イマイカミチョウ",
    "street": "５３",
    "office_name": "キヤノン　株式会社　小杉事業所",
    "office_name_kana": "キヤノン カブシキガイシヤ コスギジギヨウシヨ"
  },
  "8502": {
    "postcode": "2118502",
    "prefecture": "神奈川県",
    "prefecture_kana": "カナガワケン",
    "prefecture_code": 14,
    "city": "川崎市中原区",
    "city_kana": "カワサキシナカハラク",
    "town": "市ノ坪",
    "town_kana": "イチノツボ",
    "street": "３７０",
    "office_name": "東横化学　株式会社",
    "office_name_kana": "トウヨコカガク カブシキガイシヤ"
  },
  "8505": {
    "postcode": "2118505",
    "prefecture": "神奈川県",
    "prefecture_kana": "カナガワケン",
    "prefecture_code": 14,
    "city": "川崎市中原区",
    "city_kana": "カワサキシナカハラク",
    "town": "中丸子",
    "town_kana": "ナカマルコ",
    "street": "５８８",
    "office_name": "株式会社　ドメス",
    "office_name_kana": "カブシキガイシヤ ドメス"
  },
  "8510": {
    "postcode": "2118510",
    "prefecture": "神奈川県",
    "prefecture_kana": "カナガワケン",
    "prefecture_code": 14,
    "city": "川崎市中原区",
    "city_kana": "カワサキシナカハラク",
    "town": "木月住吉町",
    "town_kana": "キヅキスミヨシチョウ",
    "street": "１−１",
    "office_name": "関東労災病院",
    "office_name_kana": "カントウロウサイビヨウイン"
  },
  "8511": {
    "postcode": "2118511",
    "prefecture": "神奈川県",
    "prefecture_kana": "カナガワケン",
    "prefecture_code": 14,
    "city": "川崎市中原区",
    "city_kana": "カワサキシナカハラク",
    "town": "木月大町",
    "town_kana": "キヅキオオマチ",
    "street": "１９８",
    "office_name": "第一メール　株式会社",
    "office_name_kana": "ダイイチメ-ル カブシキガイシヤ"
  },
  "8522": {
    "postcode": "2118522",
    "prefecture": "神奈川県",
    "prefecture_kana": "カナガワケン",
    "prefecture_code": 14,
    "city": "川崎市中原区",
    "city_kana": "カワサキシナカハラク",
    "town": "大倉町",
    "town_kana": "オオクラチョウ",
    "street": "１０",
    "office_name": "三菱ふそうトラック・バス　株式会社　川崎製作所",
    "office_name_kana": "ミツビシフソウトラツク・バス カブシキカイシヤ カワサキセイサクシヨ"
  },
  "8530": {
    "postcode": "2118530",
    "prefecture": "神奈川県",
    "prefecture_kana": "カナガワケン",
    "prefecture_code": 14,
    "city": "川崎市中原区",
    "city_kana": "カワサキシナカハラク",
    "town": "苅宿",
    "town_kana": "カリヤド",
    "street": "４５−１",
    "office_name": "帝国通信工業　株式会社",
    "office_name_kana": "テイコクツウシンコウギヨウ カブシキガイシヤ"
  },
  "8533": {
    "postcode": "2118533",
    "prefecture": "神奈川県",
    "prefecture_kana": "カナガワケン",
    "prefecture_code": 14,
    "city": "川崎市中原区",
    "city_kana": "カワサキシナカハラク",
    "town": "小杉町",
    "town_kana": "コスギマチ",
    "street": "１−３８３",
    "office_name": "日本医科大学武蔵小杉病院",
    "office_name_kana": "ニホンイカダイガクムサシコスギビヨウイン"
  },
  "8550": {
    "postcode": "2118550",
    "prefecture": "神奈川県",
    "prefecture_kana": "カナガワケン",
    "prefecture_code": 14,
    "city": "川崎市中原区",
    "city_kana": "カワサキシナカハラク",
    "town": "市ノ坪",
    "town_kana": "イチノツボ",
    "street": "１５０",
    "office_name": "株式会社　東計電算",
    "office_name_kana": "カブシキガイシヤ トウケイデンサン"
  },
  "8555": {
    "postcode": "2118555",
    "prefecture": "神奈川県",
    "prefecture_kana": "カナガワケン",
    "prefecture_code": 14,
    "city": "川崎市中原区",
    "city_kana": "カワサキシナカハラク",
    "town": "宮内",
    "town_kana": "ミヤウチ",
    "street": "２丁目５−２",
    "office_name": "株式会社　テクノ",
    "office_name_kana": "カブシキガイシヤ テクノ"
  },
  "8566": {
    "postcode": "2118566",
    "prefecture": "神奈川県",
    "prefecture_kana": "カナガワケン",
    "prefecture_code": 14,
    "city": "川崎市中原区",
    "city_kana": "カワサキシナカハラク",
    "town": "小杉町",
    "town_kana": "コスギマチ",
    "street": "１丁目４０３武蔵小杉タワープレイス",
    "office_name": "かわさき市民放送　株式会社",
    "office_name_kana": "カワサキシミンホウソウ カブシキガイシヤ"
  },
  "8570": {
    "postcode": "2118570",
    "prefecture": "神奈川県",
    "prefecture_kana": "カナガワケン",
    "prefecture_code": 14,
    "city": "川崎市中原区",
    "city_kana": "カワサキシナカハラク",
    "town": "小杉町",
    "town_kana": "コスギマチ",
    "street": "３丁目２４５",
    "office_name": "中原区役所",
    "office_name_kana": "ナカハラクヤクシヨ"
  },
  "8577": {
    "postcode": "2118577",
    "prefecture": "神奈川県",
    "prefecture_kana": "カナガワケン",
    "prefecture_code": 14,
    "city": "川崎市中原区",
    "city_kana": "カワサキシナカハラク",
    "town": "今井南町",
    "town_kana": "イマイミナミチョウ",
    "street": "１０番４１号",
    "office_name": "三木プーリ　株式会社",
    "office_name_kana": "ミキプ-リ カブシキガイシヤ"
  },
  "8585": {
    "postcode": "2118585",
    "prefecture": "神奈川県",
    "prefecture_kana": "カナガワケン",
    "prefecture_code": 14,
    "city": "川崎市中原区",
    "city_kana": "カワサキシナカハラク",
    "town": "下小田中",
    "town_kana": "シモコダナカ",
    "street": "２丁目１２−８",
    "office_name": "沖電線　株式会社",
    "office_name_kana": "オキデンセン カブシキガイシヤ"
  },
  "8588": {
    "postcode": "2118588",
    "prefecture": "神奈川県",
    "prefecture_kana": "カナガワケン",
    "prefecture_code": 14,
    "city": "川崎市中原区",
    "city_kana": "カワサキシナカハラク",
    "town": "上小田中",
    "town_kana": "カミコダナカ",
    "street": "４丁目１−１",
    "office_name": "富士通　（株）　Ｆｕｊｉｔｓｕ　Ｔｅｃｈｎｏｌｏｇｙ　Ｐａｒｋ",
    "office_name_kana": "フジツウ カブシキカイシヤ フジツウテクノロジ-パ-ク"
  },
  "8601": {
    "postcode": "2118601",
    "prefecture": "神奈川県",
    "prefecture_kana": "カナガワケン",
    "prefecture_code": 14,
    "city": "川崎市中原区",
    "city_kana": "カワサキシナカハラク",
    "town": "下沼部",
    "town_kana": "シモヌマベ",
    "street": "１７５３",
    "office_name": "ＮＥＣビジネスインテリジェンス　株式会社",
    "office_name_kana": "エヌイ-シ-ビジネスインテリジエンス カブシキカイシヤ"
  },
  "8611": {
    "postcode": "2118611",
    "prefecture": "神奈川県",
    "prefecture_kana": "カナガワケン",
    "prefecture_code": 14,
    "city": "川崎市中原区",
    "city_kana": "カワサキシナカハラク",
    "town": "下沼部",
    "town_kana": "シモヌマベ",
    "street": "１７５３番地",
    "office_name": "パイオニアプラズマディスプレイ　株式会社",
    "office_name_kana": "パイオニアプラズマデイスプレイ カブシキガイシヤ"
  },
  "8619": {
    "postcode": "2118619",
    "prefecture": "神奈川県",
    "prefecture_kana": "カナガワケン",
    "prefecture_code": 14,
    "city": "川崎市中原区",
    "city_kana": "カワサキシナカハラク",
    "town": "小杉町",
    "town_kana": "コスギマチ",
    "street": "三丁目４７２番地",
    "office_name": "武蔵小杉東急スクエア",
    "office_name_kana": "ムサシコスギトウキユウスクエア"
  },
  "8666": {
    "postcode": "2118666",
    "prefecture": "神奈川県",
    "prefecture_kana": "カナガワケン",
    "prefecture_code": 14,
    "city": "川崎市中原区",
    "city_kana": "カワサキシナカハラク",
    "town": "下沼部",
    "town_kana": "シモヌマベ",
    "street": "１７５３",
    "office_name": "日本電気　株式会社　玉川事業場",
    "office_name_kana": "ニツポンデンキ カブシキガイシヤ タマガワジギヨウジヨウ"
  },
  "8675": {
    "postcode": "2118675",
    "prefecture": "神奈川県",
    "prefecture_kana": "カナガワケン",
    "prefecture_code": 14,
    "city": "川崎市中原区",
    "city_kana": "カワサキシナカハラク",
    "town": "市ノ坪",
    "town_kana": "イチノツボ",
    "street": "１６０",
    "office_name": "信号器材　株式会社",
    "office_name_kana": "シンゴウキザイ カブシキガイシヤ"
  }
}