{
  "0000": {
    "postcode": "2120000",
    "prefecture": "神奈川県",
    "prefecture_kana": "カナガワケン",
    "prefecture_code": 14,
    "city": "川崎市幸区",
    "city_kana": "カワサキシサイワイク",
    "town": "",
    "town_kana": "",
    "street": null,
    "office_name": null,
    "office_name_kana": null
  },
  "0001": {
    "postcode": "2120001",
    "prefecture": "神奈川県",
    "prefecture_kana": "カナガワケン",
    "prefecture_code": 14,
    "city": "川崎市幸区",
    "city_kana": "カワサキシサイワイク",
    "town": "小向東芝町",
    "town_kana": "コムカイトウシバチョウ",
    "street": null,
    "office_name": null,
    "office_name_kana": null
  },
  "0002": {
    "postcode": "2120002",
    "prefecture": "神奈川県",
    "prefecture_kana": "カナガワケン",
    "prefecture_code": 14,
    "city": "川崎市幸区",
    "city_kana": "カワサキシサイワイク",
    "town": "小向仲野町",
    "town_kana": "コムカイナカノチョウ",
    "street": null,
    "office_name": null,
    "office_name_kana": null
  },
  "0003": {
    "postcode": "2120003",
    "prefecture": "神奈川県",
    "prefecture_kana": "カナガワケン",
    "prefecture_code": 14,
    "city": "川崎市幸区",
    "city_kana": "カワサキシサイワイク",
    "town": "小向町",
    "town_kana": "コムカイチョウ",
    "street": null,
    "office_name": null,
    "office_name_kana": null
  },
  "0004": {
    "postcode": "2120004",
    "prefecture": "神奈川県",
    "prefecture_kana": "カナガワケン",
    "prefecture_code": 14,
    "city": "川崎市幸区",
    "city_kana": "カワサキシサイワイク",
    "town": "小向西町",
    "town_kana": "コムカイニシマチ",
    "street": null,
    "office_name": null,
    "office_name_kana": null
  },
  "0005": {
    "postcode": "2120005",
    "prefecture": "神奈川県",
    "prefecture_kana": "カナガワケン",
    "prefecture_code": 14,
    "city": "川崎市幸区",
    "city_kana": "カワサキシサイワイク",
    "town": "戸手",
    "town_kana": "トテ",
    "street": null,
    "office_name": null,
    "office_name_kana": null
  },
  "0006": {
    "postcode": "2120006",
    "prefecture": "神奈川県",
    "prefecture_kana": "カナガワケン",
    "prefecture_code": 14,
    "city": "川崎市幸区",
    "city_kana": "カワサキシサイワイク",
    "town": "遠藤町",
    "town_kana": "エンドウマチ",
    "street": null,
    "office_name": null,
    "office_name_kana": null
  },
  "0007": {
    "postcode": "2120007",
    "prefecture": "神奈川県",
    "prefecture_kana": "カナガワケン",
    "prefecture_code": 14,
    "city": "川崎市幸区",
    "city_kana": "カワサキシサイワイク",
    "town": "河原町",
    "town_kana": "カワラマチ",
    "street": null,
    "office_name": null,
    "office_name_kana": null
  },
  "0011": {
    "postcode": "2120011",
    "prefecture": "神奈川県",
    "prefecture_kana": "カナガワケン",
    "prefecture_code": 14,
    "city": "川崎市幸区",
    "city_kana": "カワサキシサイワイク",
    "town": "幸町",
    "town_kana": "サイワイチョウ",
    "street": null,
    "office_name": null,
    "office_name_kana": null
  },
  "0012": {
    "postcode": "2120012",
    "prefecture": "神奈川県",
    "prefecture_kana": "カナガワケン",
    "prefecture_code": 14,
    "city": "川崎市幸区",
    "city_kana": "カワサキシサイワイク",
    "town": "中幸町",
    "town_kana": "ナカサイワイチョウ",
    "street": null,
    "office_name": null,
    "office_name_kana": null
  },
  "0013": {
    "postcode": "2120013",
    "prefecture": "神奈川県",
    "prefecture_kana": "カナガワケン",
    "prefecture_code": 14,
    "city": "川崎市幸区",
    "city_kana": "カワサキシサイワイク",
    "town": "堀川町",
    "town_kana": "ホリカワチョウ",
    "street": null,
    "office_name": null,
    "office_name_kana": null
  },
  "0014": {
    "postcode": "2120014",
    "prefecture": "神奈川県",
    "prefecture_kana": "カナガワケン",
    "prefecture_code": 14,
    "city": "川崎市幸区",
    "city_kana": "カワサキシサイワイク",
    "town": "大宮町",
    "town_kana": "オオミヤチョウ",
    "street": null,
    "office_name": null,
    "office_name_kana": null
  },
  "0015": {
    "postcode": "2120015",
    "prefecture": "神奈川県",
    "prefecture_kana": "カナガワケン",
    "prefecture_code": 14,
    "city": "川崎市幸区",
    "city_kana": "カワサキシサイワイク",
    "town": "柳町",
    "town_kana": "ヤナギチョウ",
    "street": null,
    "office_name": null,
    "office_name_kana": null
  },
  "0016": {
    "postcode": "2120016",
    "prefecture": "神奈川県",
    "prefecture_kana": "カナガワケン",
    "prefecture_code": 14,
    "city": "川崎市幸区",
    "city_kana": "カワサキシサイワイク",
    "town": "南幸町",
    "town_kana": "ミナミサイワイチョウ",
    "street": null,
    "office_name": null,
    "office_name_kana": null
  },
  "0021": {
    "postcode": "2120021",
    "prefecture": "神奈川県",
    "prefecture_kana": "カナガワケン",
    "prefecture_code": 14,
    "city": "川崎市幸区",
    "city_kana": "カワサキシサイワイク",
    "town": "都町",
    "town_kana": "ミヤコチョウ",
    "street": null,
    "office_name": null,
    "office_name_kana": null
  },
  "0022": {
    "postcode": "2120022",
    "prefecture": "神奈川県",
    "prefecture_kana": "カナガワケン",
    "prefecture_code": 14,
    "city": "川崎市幸区",
    "city_kana": "カワサキシサイワイク",
    "town": "神明町",
    "town_kana": "シンメイチョウ",
    "street": null,
    "office_name": null,
    "office_name_kana": null
  },
  "0023": {
    "postcode": "2120023",
    "prefecture": "神奈川県",
    "prefecture_kana": "カナガワケン",
    "prefecture_code": 14,
    "city": "川崎市幸区",
    "city_kana": "カワサキシサイワイク",
    "town": "戸手本町",
    "town_kana": "トテホンマチ",
    "street": null,
    "office_name": null,
    "office_name_kana": null
  },
  "0024": {
    "postcode": "2120024",
    "prefecture": "神奈川県",
    "prefecture_kana": "カナガワケン",
    "prefecture_code": 14,
    "city": "川崎市幸区",
    "city_kana": "カワサキシサイワイク",
    "town": "塚越",
    "town_kana": "ツカゴシ",
    "street": null,
    "office_name": null,
    "office_name_kana": null
  },
  "0025": {
    "postcode": "2120025",
    "prefecture": "神奈川県",
    "prefecture_kana": "カナガワケン",
    "prefecture_code": 14,
    "city": "川崎市幸区",
    "city_kana": "カワサキシサイワイク",
    "town": "古川町",
    "town_kana": "フルカワマチ",
    "street": null,
    "office_name": null,
    "office_name_kana": null
  },
  "0026": {
    "postcode": "2120026",
    "prefecture": "神奈川県",
    "prefecture_kana": "カナガワケン",
    "prefecture_code": 14,
    "city": "川崎市幸区",
    "city_kana": "カワサキシサイワイク",
    "town": "紺屋町",
    "town_kana": "コンヤマチ",
    "street": null,
    "office_name": null,
    "office_name_kana": null
  },
  "0027": {
    "postcode": "2120027",
    "prefecture": "神奈川県",
    "prefecture_kana": "カナガワケン",
    "prefecture_code": 14,
    "city": "川崎市幸区",
    "city_kana": "カワサキシサイワイク",
    "town": "新塚越",
    "town_kana": "シンツカゴシ",
    "street": null,
    "office_name": null,
    "office_name_kana": null
  },
  "0031": {
    "postcode": "2120031",
    "prefecture": "神奈川県",
    "prefecture_kana": "カナガワケン",
    "prefecture_code": 14,
    "city": "川崎市幸区",
    "city_kana": "カワサキシサイワイク",
    "town": "新小倉",
    "town_kana": "シンオグラ",
    "street": null,
    "office_name": null,
    "office_name_kana": null
  },
  "0032": {
    "postcode": "2120032",
    "prefecture": "神奈川県",
    "prefecture_kana": "カナガワケン",
    "prefecture_code": 14,
    "city": "川崎市幸区",
    "city_kana": "カワサキシサイワイク",
    "town": "新川崎",
    "town_kana": "シンカワサキ",
    "street": null,
    "office_name": null,
    "office_name_kana": null
  },
  "0033": {
    "postcode": "2120033",
    "prefecture": "神奈川県",
    "prefecture_kana": "カナガワケン",
    "prefecture_code": 14,
    "city": "川崎市幸区",
    "city_kana": "カワサキシサイワイク",
    "town": "東小倉",
    "town_kana": "ヒガシオグラ",
    "street": null,
    "office_name": null,
    "office_name_kana": null
  },
  "0051": {
    "postcode": "2120051",
    "prefecture": "神奈川県",
    "prefecture_kana": "カナガワケン",
    "prefecture_code": 14,
    "city": "川崎市幸区",
    "city_kana": "カワサキシサイワイク",
    "town": "東古市場",
    "town_kana": "ヒガシフルイチバ",
    "street": null,
    "office_name": null,
    "office_name_kana": null
  },
  "0052": {
    "postcode": "2120052",
    "prefecture": "神奈川県",
    "prefecture_kana": "カナガワケン",
    "prefecture_code": 14,
    "city": "川崎市幸区",
    "city_kana": "カワサキシサイワイク",
    "town": "古市場",
    "town_kana": "フルイチバ",
    "street": null,
    "office_name": null,
    "office_name_kana": null
  },
  "0053": {
    "postcode": "2120053",
    "prefecture": "神奈川県",
    "prefecture_kana": "カナガワケン",
    "prefecture_code": 14,
    "city": "川崎市幸区",
    "city_kana": "カワサキシサイワイク",
    "town": "下平間",
    "town_kana": "シモヒラマ",
    "street": null,
    "office_name": null,
    "office_name_kana": null
  },
  "0054": {
    "postcode": "2120054",
    "prefecture": "神奈川県",
    "prefecture_kana": "カナガワケン",
    "prefecture_code": 14,
    "city": "川崎市幸区",
    "city_kana": "カワサキシサイワイク",
    "town": "小倉",
    "town_kana": "オグラ",
    "street": null,
    "office_name": null,
    "office_name_kana": null
  },
  "0055": {
    "postcode": "2120055",
    "prefecture": "神奈川県",
    "prefecture_kana": "カナガワケン",
    "prefecture_code": 14,
    "city": "川崎市幸区",
    "city_kana": "カワサキシサイワイク",
    "town": "南加瀬",
    "town_kana": "ミナミカセ",
    "street": null,
    "office_name": null,
    "office_name_kana": null
  },
  "0056": {
    "postcode": "2120056",
    "prefecture": "神奈川県",
    "prefecture_kana": "カナガワケン",
    "prefecture_code": 14,
    "city": "川崎市幸区",
    "city_kana": "カワサキシサイワイク",
    "town": "矢上",
    "town_kana": "ヤガミ",
    "street": null,
    "office_name": null,
    "office_name_kana": null
  },
  "0057": {
    "postcode": "2120057",
    "prefecture": "神奈川県",
    "prefecture_kana": "カナガワケン",
    "prefecture_code": 14,
    "city": "川崎市幸区",
    "city_kana": "カワサキシサイワイク",
    "town": "北加瀬",
    "town_kana": "キタカセ",
    "street": null,
    "office_name": null,
    "office_name_kana": null
  },
  "0058": {
    "postcode": "2120058",
    "prefecture": "神奈川県",
    "prefecture_kana": "カナガワケン",
    "prefecture_code": 14,
    "city": "川崎市幸区",
    "city_kana": "カワサキシサイワイク",
    "town": "鹿島田",
    "town_kana": "カシマダ",
    "street": null,
    "office_name": null,
    "office_name_kana": null
  },
  "8502": {
    "postcode": "2128502",
    "prefecture": "神奈川県",
    "prefecture_kana": "カナガワケン",
    "prefecture_code": 14,
    "city": "川崎市幸区",
    "city_kana": "カワサキシサイワイク",
    "town": "堀川町",
    "town_kana": "ホリカワチョウ",
    "street": "５８０ソリッドスクエア東館３階",
    "office_name": "タタ・エレクシー・リミテッド",
    "office_name_kana": "タタ・エレクシ-・リミテツド"
  },
  "8505": {
    "postcode": "2128505",
    "prefecture": "神奈川県",
    "prefecture_kana": "カナガワケン",
    "prefecture_code": 14,
    "city": "川崎市幸区",
    "city_kana": "カワサキシサイワイク",
    "town": "堀川町",
    "town_kana": "ホリカワチョウ",
    "street": "５８０番地ソリッドスクエア西館２０階",
    "office_name": "ＪＢアドバンスト・テクノロジー　株式会社",
    "office_name_kana": "ジエイビ-アドバンスト・テクノロジ- カブシキガイシヤ"
  },
  "8508": {
    "postcode": "2128508",
    "prefecture": "神奈川県",
    "prefecture_kana": "カナガワケン",
    "prefecture_code": 14,
    "city": "川崎市幸区",
    "city_kana": "カワサキシサイワイク",
    "town": "神明町",
    "town_kana": "シンメイチョウ",
    "street": "２丁目３７−２",
    "office_name": "田中製菓　株式会社",
    "office_name_kana": "タナカセイカ カブシキガイシヤ"
  },
  "8509": {
    "postcode": "2128509",
    "prefecture": "神奈川県",
    "prefecture_kana": "カナガワケン",
    "prefecture_code": 14,
    "city": "川崎市幸区",
    "city_kana": "カワサキシサイワイク",
    "town": "塚越",
    "town_kana": "ツカゴシ",
    "street": "４丁目３２０番地１",
    "office_name": "大陽日酸　株式会社　関東支社",
    "office_name_kana": "タイヨウニツサン カブシキガイシヤ カントウシシヤ"
  },
  "8510": {
    "postcode": "2128510",
    "prefecture": "神奈川県",
    "prefecture_kana": "カナガワケン",
    "prefecture_code": 14,
    "city": "川崎市幸区",
    "city_kana": "カワサキシサイワイク",
    "town": "新小倉",
    "town_kana": "シンオグラ",
    "street": "１−１",
    "office_name": "富士通　（株）　Ｆｕｊｉｔｓｕ　Ｄｅｖｅｌｏｐｍｅｎｔ　Ｃｅｎｔｅｒ",
    "office_name_kana": "フジツウ カブシキカイシヤ フジツウ デベロツプメントセンタ-"
  },
  "8511": {
    "postcode": "2128511",
    "prefecture": "神奈川県",
    "prefecture_kana": "カナガワケン",
    "prefecture_code": 14,
    "city": "川崎市幸区",
    "city_kana": "カワサキシサイワイク",
    "town": "堀川町",
    "town_kana": "ホリカワチョウ",
    "street": "５８０番地ソリッドスクエア西館１０階",
    "office_name": "キグナス石油販売　株式会社",
    "office_name_kana": "キグナスセキユハンバイ カブシキガイシヤ"
  },
  "8525": [
    {
      "postcode": "2128525",
      "prefecture": "神奈川県",
      "prefecture_kana": "カナガワケン",
      "prefecture_code": 14,
      "city": "川崎市幸区",
      "city_kana": "カワサキシサイワイク",
      "town": "堀川町",
      "town_kana": "ホリカワチョウ",
      "street": "５８０番地ソリッドスクエア東館６階",
      "office_name": "株式会社　東邦事業",
      "office_name_kana": "カブシキガイシヤ トウホウジギヨウ"
    },
    {
      "postcode": "2128525",
      "prefecture": "神奈川県",
      "prefecture_kana": "カナガワケン",
      "prefecture_code": 14,
      "city": "川崎市幸区",
      "city_kana": "カワサキシサイワイク",
      "town": "堀川町",
      "town_kana": "ホリカワチョウ",
      "street": "５８０番地ソリッドスクエア東館６階",
      "office_name": "和幸商事　株式会社",
      "office_name_kana": "ワコウシヨウジ カブシキガイシヤ"
    },
    {
      "postcode": "2128525",
      "prefecture": "神奈川県",
      "prefecture_kana": "カナガワケン",
      "prefecture_code": 14,
      "city": "川崎市幸区",
      "city_kana": "カワサキシサイワイク",
      "town": "堀川町",
      "town_kana": "ホリカワチョウ",
      "street": "５８０番地ソリッドスクエア東館６階",
      "office_name": "和幸フーズ　株式会社",
      "office_name_kana": "ワコウフ-ズ カブシキガイシヤ"
    },
    {
      "postcode": "2128525",
      "prefecture": "神奈川県",
      "prefecture_kana": "カナガワケン",
      "prefecture_code": 14,
      "city": "川崎市幸区",
      "city_kana": "カワサキシサイワイク",
      "town": "堀川町",
      "town_kana": "ホリカワチョウ",
      "street": "５８０番地ソリッドスクエア東館６階",
      "office_name": "ＷＡＫＯ　ＧＲＯＵＰ　ＨＯＬＤＩＮＧＳ　株式会社",
      "office_name_kana": "ワコウ グル-プ ホ-ルデイングス カブシキガイシヤ"
    }
  ],
  "8530": {
    "postcode": "2128530",
    "prefecture": "神奈川県",
    "prefecture_kana": "カナガワケン",
    "prefecture_code": 14,
    "city": "川崎市幸区",
    "city_kana": "カワサキシサイワイク",
    "town": "塚越",
    "town_kana": "ツカゴシ",
    "street": "３丁目４５１番地",
    "office_name": "キヤノン　株式会社　矢向事業所",
    "office_name_kana": "キヤノン カブシキガイシヤ ヤコウジギヨウシヨ"
  },
  "8551": {
    "postcode": "2128551",
    "prefecture": "神奈川県",
    "prefecture_kana": "カナガワケン",
    "prefecture_code": 14,
    "city": "川崎市幸区",
    "city_kana": "カワサキシサイワイク",
    "town": "大宮町",
    "town_kana": "オオミヤチョウ",
    "street": "１３１０（ミューザ川崎セントラルタワー）",
    "office_name": "東芝プラントシステム　株式会社",
    "office_name_kana": "トウシバプラントシステム カブシキガイシヤ"
  },
  "8554": {
    "postcode": "2128554",
    "prefecture": "神奈川県",
    "prefecture_kana": "カナガワケン",
    "prefecture_code": 14,
    "city": "川崎市幸区",
    "city_kana": "カワサキシサイワイク",
    "town": "大宮町",
    "town_kana": "オオミヤチョウ",
    "street": "１３１０番地",
    "office_name": "ミューザ川崎　管理組合",
    "office_name_kana": "ミユ-ザカワサキ カンリクミアイ"
  },
  "8557": {
    "postcode": "2128557",
    "prefecture": "神奈川県",
    "prefecture_kana": "カナガワケン",
    "prefecture_code": 14,
    "city": "川崎市幸区",
    "city_kana": "カワサキシサイワイク",
    "town": "大宮町",
    "town_kana": "オオミヤチョウ",
    "street": "１３１０番地",
    "office_name": "ミューザ川崎シンフォニーホール",
    "office_name_kana": "ミユ-ザカワサキシンフオニ-ホ-ル"
  },
  "8560": {
    "postcode": "2128560",
    "prefecture": "神奈川県",
    "prefecture_kana": "カナガワケン",
    "prefecture_code": 14,
    "city": "川崎市幸区",
    "city_kana": "カワサキシサイワイク",
    "town": "堀川町",
    "town_kana": "ホリカワチョウ",
    "street": "５８０番地１６",
    "office_name": "黒田精工　株式会社",
    "office_name_kana": "クロダセイコウ カブシキガイシヤ"
  },
  "8564": {
    "postcode": "2128564",
    "prefecture": "神奈川県",
    "prefecture_kana": "カナガワケン",
    "prefecture_code": 14,
    "city": "川崎市幸区",
    "city_kana": "カワサキシサイワイク",
    "town": "堀川町",
    "town_kana": "ホリカワチョウ",
    "street": "６６−２興和川崎西口ビル１９階",
    "office_name": "株式会社　中央コンピュータシステム",
    "office_name_kana": "カブシキガイシヤ チユウオウコンピユ-タシステム"
  },
  "8566": {
    "postcode": "2128566",
    "prefecture": "神奈川県",
    "prefecture_kana": "カナガワケン",
    "prefecture_code": 14,
    "city": "川崎市幸区",
    "city_kana": "カワサキシサイワイク",
    "town": "大宮町",
    "town_kana": "オオミヤチョウ",
    "street": "１３１０番地ミューザ川崎セントラルタワー２５Ｆ",
    "office_name": "日本トイザらス　（株）",
    "office_name_kana": "ニホントイザラス カブシキガイシヤ"
  },
  "8567": {
    "postcode": "2128567",
    "prefecture": "神奈川県",
    "prefecture_kana": "カナガワケン",
    "prefecture_code": 14,
    "city": "川崎市幸区",
    "city_kana": "カワサキシサイワイク",
    "town": "鹿島田",
    "town_kana": "カシマダ",
    "street": "８９０日立システムプラザ新川崎",
    "office_name": "株式会社　日立製作所　情報システム事業部",
    "office_name_kana": "カブシキガイシヤ ヒタチセイサクジヨ ジヨウホウシステムジギヨウブ"
  },
  "8570": {
    "postcode": "2128570",
    "prefecture": "神奈川県",
    "prefecture_kana": "カナガワケン",
    "prefecture_code": 14,
    "city": "川崎市幸区",
    "city_kana": "カワサキシサイワイク",
    "town": "戸手本町",
    "town_kana": "トテホンマチ",
    "street": "１丁目１１番１号",
    "office_name": "川崎市　幸区役所",
    "office_name_kana": "カワサキシ サイワイクヤクシヨ"
  },
  "8572": {
    "postcode": "2128572",
    "prefecture": "神奈川県",
    "prefecture_kana": "カナガワケン",
    "prefecture_code": 14,
    "city": "川崎市幸区",
    "city_kana": "カワサキシサイワイク",
    "town": "堀川町",
    "town_kana": "ホリカワチョウ",
    "street": "７２番地",
    "office_name": "株式会社　東芝　川崎事業所",
    "office_name_kana": "カブシキガイシヤ トウシバ カワサキジギヨウシヨ"
  },
  "8576": {
    "postcode": "2128576",
    "prefecture": "神奈川県",
    "prefecture_kana": "カナガワケン",
    "prefecture_code": 14,
    "city": "川崎市幸区",
    "city_kana": "カワサキシサイワイク",
    "town": "堀川町",
    "town_kana": "ホリカワチョウ",
    "street": "７２−１",
    "office_name": "ラゾーナ川崎プラザ",
    "office_name_kana": "ラゾ-ナカワサキプラザ"
  },
  "8577": {
    "postcode": "2128577",
    "prefecture": "神奈川県",
    "prefecture_kana": "カナガワケン",
    "prefecture_code": 14,
    "city": "川崎市幸区",
    "city_kana": "カワサキシサイワイク",
    "town": "小向東芝町",
    "town_kana": "コムカイトウシバチョウ",
    "street": "１番地",
    "office_name": "東芝健康保険組合",
    "office_name_kana": "トウシバケンコウホケンクミアイ"
  },
  "8581": {
    "postcode": "2128581",
    "prefecture": "神奈川県",
    "prefecture_kana": "カナガワケン",
    "prefecture_code": 14,
    "city": "川崎市幸区",
    "city_kana": "カワサキシサイワイク",
    "town": "小向東芝町",
    "town_kana": "コムカイトウシバチョウ",
    "street": "１番地",
    "office_name": "株式会社　東芝　小向工場",
    "office_name_kana": "カブシキガイシヤ トウシバ コムカイコウジヨウ"
  },
  "8582": {
    "postcode": "2128582",
    "prefecture": "神奈川県",
    "prefecture_kana": "カナガワケン",
    "prefecture_code": 14,
    "city": "川崎市幸区",
    "city_kana": "カワサキシサイワイク",
    "town": "小向東芝町",
    "town_kana": "コムカイトウシバチョウ",
    "street": "１番地",
    "office_name": "株式会社　東芝　研究開発センター",
    "office_name_kana": "カブシキガイシヤ トウシバ ケンキユウカイハツセンタ-"
  },
  "8583": {
    "postcode": "2128583",
    "prefecture": "神奈川県",
    "prefecture_kana": "カナガワケン",
    "prefecture_code": 14,
    "city": "川崎市幸区",
    "city_kana": "カワサキシサイワイク",
    "town": "小向東芝町",
    "town_kana": "コムカイトウシバチョウ",
    "street": "１番地",
    "office_name": "東芝デバイス＆ストレージ　株式会社",
    "office_name_kana": "トウシバデバイスアンドストレ-ジ カブシキカイシヤ"
  },
  "8584": {
    "postcode": "2128584",
    "prefecture": "神奈川県",
    "prefecture_kana": "カナガワケン",
    "prefecture_code": 14,
    "city": "川崎市幸区",
    "city_kana": "カワサキシサイワイク",
    "town": "堀川町",
    "town_kana": "ホリカワチョウ",
    "street": "７２−１",
    "office_name": "株式会社　ビックカメラ",
    "office_name_kana": "カブシキガイシヤ ビツクカメラ"
  },
  "8585": {
    "postcode": "2128585",
    "prefecture": "神奈川県",
    "prefecture_kana": "カナガワケン",
    "prefecture_code": 14,
    "city": "川崎市幸区",
    "city_kana": "カワサキシサイワイク",
    "town": "堀川町",
    "town_kana": "ホリカワチョウ",
    "street": "７２番地３４",
    "office_name": "株式会社　東芝スマートコミュニティセンター",
    "office_name_kana": "カブシキガイシヤ トウシバスマ-トコミユニテイセンタ-"
  },
  "8602": {
    "postcode": "2128602",
    "prefecture": "神奈川県",
    "prefecture_kana": "カナガワケン",
    "prefecture_code": 14,
    "city": "川崎市幸区",
    "city_kana": "カワサキシサイワイク",
    "town": "柳町",
    "town_kana": "ヤナギチョウ",
    "street": "７０−１",
    "office_name": "キヤノン　株式会社　川崎事業所",
    "office_name_kana": "キヤノン カブシキカイシヤ カワサキジギヨウシヨ"
  },
  "8603": {
    "postcode": "2128603",
    "prefecture": "神奈川県",
    "prefecture_kana": "カナガワケン",
    "prefecture_code": 14,
    "city": "川崎市幸区",
    "city_kana": "カワサキシサイワイク",
    "town": "小向東芝町",
    "town_kana": "コムカイトウシバチョウ",
    "street": "１番地",
    "office_name": "ディー・ティー・ファインエレクトロニクス　株式会社",
    "office_name_kana": "デイ-・テイ-・フアインエレクトロニクス カブシキガイシヤ"
  },
  "8604": {
    "postcode": "2128604",
    "prefecture": "神奈川県",
    "prefecture_kana": "カナガワケン",
    "prefecture_code": 14,
    "city": "川崎市幸区",
    "city_kana": "カワサキシサイワイク",
    "town": "鹿島田",
    "town_kana": "カシマダ",
    "street": "１−１−２新川崎三井ビルディングＷ棟２４階",
    "office_name": "ＴＴヒューマンアセットサービス　株式会社",
    "office_name_kana": "テイ-テイ-ヒユ-マンアセツトサ-ビス カブシキガイシヤ"
  }
}