{
  "0000": {
    "postcode": "2150000",
    "prefecture": "神奈川県",
    "prefecture_kana": "カナガワケン",
    "prefecture_code": 14,
    "city": "川崎市麻生区",
    "city_kana": "カワサキシアサオク",
    "town": "",
    "town_kana": "",
    "street": null,
    "office_name": null,
    "office_name_kana": null
  },
  "0001": {
    "postcode": "2150001",
    "prefecture": "神奈川県",
    "prefecture_kana": "カナガワケン",
    "prefecture_code": 14,
    "city": "川崎市麻生区",
    "city_kana": "カワサキシアサオク",
    "town": "細山",
    "town_kana": "ホソヤマ",
    "street": null,
    "office_name": null,
    "office_name_kana": null
  },
  "0002": {
    "postcode": "2150002",
    "prefecture": "神奈川県",
    "prefecture_kana": "カナガワケン",
    "prefecture_code": 14,
    "city": "川崎市麻生区",
    "city_kana": "カワサキシアサオク",
    "town": "多摩美",
    "town_kana": "タマミ",
    "street": null,
    "office_name": null,
    "office_name_kana": null
  },
  "0003": {
    "postcode": "2150003",
    "prefecture": "神奈川県",
    "prefecture_kana": "カナガワケン",
    "prefecture_code": 14,
    "city": "川崎市麻生区",
    "city_kana": "カワサキシアサオク",
    "town": "高石",
    "town_kana": "タカイシ",
    "street": null,
    "office_name": null,
    "office_name_kana": null
  },
  "0004": {
    "postcode": "2150004",
    "prefecture": "神奈川県",
    "prefecture_kana": "カナガワケン",
    "prefecture_code": 14,
    "city": "川崎市麻生区",
    "city_kana": "カワサキシアサオク",
    "town": "万福寺",
    "town_kana": "マンプクジ",
    "street": null,
    "office_name": null,
    "office_name_kana": null
  },
  "0005": {
    "postcode": "2150005",
    "prefecture": "神奈川県",
    "prefecture_kana": "カナガワケン",
    "prefecture_code": 14,
    "city": "川崎市麻生区",
    "city_kana": "カワサキシアサオク",
    "town": "千代ケ丘",
    "town_kana": "チヨガオカ",
    "street": null,
    "office_name": null,
    "office_name_kana": null
  },
  "0006": {
    "postcode": "2150006",
    "prefecture": "神奈川県",
    "prefecture_kana": "カナガワケン",
    "prefecture_code": 14,
    "city": "川崎市麻生区",
    "city_kana": "カワサキシアサオク",
    "town": "金程",
    "town_kana": "カナホド",
    "street": null,
    "office_name": null,
    "office_name_kana": null
  },
  "0007": {
    "postcode": "2150007",
    "prefecture": "神奈川県",
    "prefecture_kana": "カナガワケン",
    "prefecture_code": 14,
    "city": "川崎市麻生区",
    "city_kana": "カワサキシアサオク",
    "town": "向原",
    "town_kana": "ムカイバラ",
    "street": null,
    "office_name": null,
    "office_name_kana": null
  },
  "0011": {
    "postcode": "2150011",
    "prefecture": "神奈川県",
    "prefecture_kana": "カナガワケン",
    "prefecture_code": 14,
    "city": "川崎市麻生区",
    "city_kana": "カワサキシアサオク",
    "town": "百合丘",
    "town_kana": "ユリガオカ",
    "street": null,
    "office_name": null,
    "office_name_kana": null
  },
  "0012": {
    "postcode": "2150012",
    "prefecture": "神奈川県",
    "prefecture_kana": "カナガワケン",
    "prefecture_code": 14,
    "city": "川崎市麻生区",
    "city_kana": "カワサキシアサオク",
    "town": "東百合丘",
    "town_kana": "ヒガシユリガオカ",
    "street": null,
    "office_name": null,
    "office_name_kana": null
  },
  "0013": {
    "postcode": "2150013",
    "prefecture": "神奈川県",
    "prefecture_kana": "カナガワケン",
    "prefecture_code": 14,
    "city": "川崎市麻生区",
    "city_kana": "カワサキシアサオク",
    "town": "王禅寺",
    "town_kana": "オウゼンジ",
    "street": null,
    "office_name": null,
    "office_name_kana": null
  },
  "0014": {
    "postcode": "2150014",
    "prefecture": "神奈川県",
    "prefecture_kana": "カナガワケン",
    "prefecture_code": 14,
    "city": "川崎市麻生区",
    "city_kana": "カワサキシアサオク",
    "town": "白山",
    "town_kana": "ハクサン",
    "street": null,
    "office_name": null,
    "office_name_kana": null
  },
  "0015": {
    "postcode": "2150015",
    "prefecture": "神奈川県",
    "prefecture_kana": "カナガワケン",
    "prefecture_code": 14,
    "city": "川崎市麻生区",
    "city_kana": "カワサキシアサオク",
    "town": "虹ケ丘",
    "town_kana": "ニジガオカ",
    "street": null,
    "office_name": null,
    "office_name_kana": null
  },
  "0016": {
    "postcode": "2150016",
    "prefecture": "神奈川県",
    "prefecture_kana": "カナガワケン",
    "prefecture_code": 14,
    "city": "川崎市麻生区",
    "city_kana": "カワサキシアサオク",
    "town": "早野",
    "town_kana": "ハヤノ",
    "street": null,
    "office_name": null,
    "office_name_kana": null
  },
  "0017": {
    "postcode": "2150017",
    "prefecture": "神奈川県",
    "prefecture_kana": "カナガワケン",
    "prefecture_code": 14,
    "city": "川崎市麻生区",
    "city_kana": "カワサキシアサオク",
    "town": "王禅寺西",
    "town_kana": "オウゼンジニシ",
    "street": null,
    "office_name": null,
    "office_name_kana": null
  },
  "0018": {
    "postcode": "2150018",
    "prefecture": "神奈川県",
    "prefecture_kana": "カナガワケン",
    "prefecture_code": 14,
    "city": "川崎市麻生区",
    "city_kana": "カワサキシアサオク",
    "town": "王禅寺東",
    "town_kana": "オウゼンジヒガシ",
    "street": null,
    "office_name": null,
    "office_name_kana": null
  },
  "0021": {
    "postcode": "2150021",
    "prefecture": "神奈川県",
    "prefecture_kana": "カナガワケン",
    "prefecture_code": 14,
    "city": "川崎市麻生区",
    "city_kana": "カワサキシアサオク",
    "town": "上麻生",
    "town_kana": "カミアサオ",
    "street": null,
    "office_name": null,
    "office_name_kana": null
  },
  "0022": {
    "postcode": "2150022",
    "prefecture": "神奈川県",
    "prefecture_kana": "カナガワケン",
    "prefecture_code": 14,
    "city": "川崎市麻生区",
    "city_kana": "カワサキシアサオク",
    "town": "下麻生",
    "town_kana": "シモアサオ",
    "street": null,
    "office_name": null,
    "office_name_kana": null
  },
  "0023": {
    "postcode": "2150023",
    "prefecture": "神奈川県",
    "prefecture_kana": "カナガワケン",
    "prefecture_code": 14,
    "city": "川崎市麻生区",
    "city_kana": "カワサキシアサオク",
    "town": "片平",
    "town_kana": "カタヒラ",
    "street": null,
    "office_name": null,
    "office_name_kana": null
  },
  "0024": {
    "postcode": "2150024",
    "prefecture": "神奈川県",
    "prefecture_kana": "カナガワケン",
    "prefecture_code": 14,
    "city": "川崎市麻生区",
    "city_kana": "カワサキシアサオク",
    "town": "白鳥",
    "town_kana": "シラトリ",
    "street": null,
    "office_name": null,
    "office_name_kana": null
  },
  "0025": {
    "postcode": "2150025",
    "prefecture": "神奈川県",
    "prefecture_kana": "カナガワケン",
    "prefecture_code": 14,
    "city": "川崎市麻生区",
    "city_kana": "カワサキシアサオク",
    "town": "五力田",
    "town_kana": "ゴリキダ",
    "street": null,
    "office_name": null,
    "office_name_kana": null
  },
  "0026": {
    "postcode": "2150026",
    "prefecture": "神奈川県",
    "prefecture_kana": "カナガワケン",
    "prefecture_code": 14,
    "city": "川崎市麻生区",
    "city_kana": "カワサキシアサオク",
    "town": "古沢",
    "town_kana": "フルサワ",
    "street": null,
    "office_name": null,
    "office_name_kana": null
  },
  "0027": {
    "postcode": "2150027",
    "prefecture": "神奈川県",
    "prefecture_kana": "カナガワケン",
    "prefecture_code": 14,
    "city": "川崎市麻生区",
    "city_kana": "カワサキシアサオク",
    "town": "岡上",
    "town_kana": "オカガミ",
    "street": null,
    "office_name": null,
    "office_name_kana": null
  },
  "0031": {
    "postcode": "2150031",
    "prefecture": "神奈川県",
    "prefecture_kana": "カナガワケン",
    "prefecture_code": 14,
    "city": "川崎市麻生区",
    "city_kana": "カワサキシアサオク",
    "town": "栗平",
    "town_kana": "クリヒラ",
    "street": null,
    "office_name": null,
    "office_name_kana": null
  },
  "0032": {
    "postcode": "2150032",
    "prefecture": "神奈川県",
    "prefecture_kana": "カナガワケン",
    "prefecture_code": 14,
    "city": "川崎市麻生区",
    "city_kana": "カワサキシアサオク",
    "town": "栗木台",
    "town_kana": "クリギダイ",
    "street": null,
    "office_name": null,
    "office_name_kana": null
  },
  "0033": {
    "postcode": "2150033",
    "prefecture": "神奈川県",
    "prefecture_kana": "カナガワケン",
    "prefecture_code": 14,
    "city": "川崎市麻生区",
    "city_kana": "カワサキシアサオク",
    "town": "栗木",
    "town_kana": "クリギ",
    "street": null,
    "office_name": null,
    "office_name_kana": null
  },
  "0034": {
    "postcode": "2150034",
    "prefecture": "神奈川県",
    "prefecture_kana": "カナガワケン",
    "prefecture_code": 14,
    "city": "川崎市麻生区",
    "city_kana": "カワサキシアサオク",
    "town": "南黒川",
    "town_kana": "ミナミクロカワ",
    "street": null,
    "office_name": null,
    "office_name_kana": null
  },
  "0035": {
    "postcode": "2150035",
    "prefecture": "神奈川県",
    "prefecture_kana": "カナガワケン",
    "prefecture_code": 14,
    "city": "川崎市麻生区",
    "city_kana": "カワサキシアサオク",
    "town": "黒川",
    "town_kana": "クロカワ",
    "street": null,
    "office_name": null,
    "office_name_kana": null
  },
  "0036": {
    "postcode": "2150036",
    "prefecture": "神奈川県",
    "prefecture_kana": "カナガワケン",
    "prefecture_code": 14,
    "city": "川崎市麻生区",
    "city_kana": "カワサキシアサオク",
    "town": "はるひ野",
    "town_kana": "ハルヒノ",
    "street": null,
    "office_name": null,
    "office_name_kana": null
  },
  "8509": {
    "postcode": "2158509",
    "prefecture": "神奈川県",
    "prefecture_kana": "カナガワケン",
    "prefecture_code": 14,
    "city": "川崎市麻生区",
    "city_kana": "カワサキシアサオク",
    "town": "南黒川",
    "town_kana": "ミナミクロカワ",
    "street": "７番１号",
    "office_name": "株式会社　ジェイコムせたまち",
    "office_name_kana": "カブシキガイシヤ ジエイコムセタマチ"
  },
  "8510": {
    "postcode": "2158510",
    "prefecture": "神奈川県",
    "prefecture_kana": "カナガワケン",
    "prefecture_code": 14,
    "city": "川崎市麻生区",
    "city_kana": "カワサキシアサオク",
    "town": "栗木",
    "town_kana": "クリギ",
    "street": "２丁目６番２３号",
    "office_name": "株式会社　光和電機",
    "office_name_kana": "カブシキガイシヤ コウワデンキ"
  },
  "8511": {
    "postcode": "2158511",
    "prefecture": "神奈川県",
    "prefecture_kana": "カナガワケン",
    "prefecture_code": 14,
    "city": "川崎市麻生区",
    "city_kana": "カワサキシアサオク",
    "town": "万福寺",
    "town_kana": "マンプクジ",
    "street": "１丁目１２−２−２階",
    "office_name": "株式会社　エリアブレインＭＹＴＯＷＮ編集部",
    "office_name_kana": "カブシキガイシヤ エリアブレインマイタウンヘンシユウブ"
  },
  "8515": {
    "postcode": "2158515",
    "prefecture": "神奈川県",
    "prefecture_kana": "カナガワケン",
    "prefecture_code": 14,
    "city": "川崎市麻生区",
    "city_kana": "カワサキシアサオク",
    "town": "万福寺",
    "town_kana": "マンプクジ",
    "street": "１丁目１４−１",
    "office_name": "（株）　ＮＴＴソルコ新百合ヶ丘センター",
    "office_name_kana": "(カブ) エヌ・テイ・テイソルコシンユリガオカセンタ-"
  },
  "8520": {
    "postcode": "2158520",
    "prefecture": "神奈川県",
    "prefecture_kana": "カナガワケン",
    "prefecture_code": 14,
    "city": "川崎市麻生区",
    "city_kana": "カワサキシアサオク",
    "town": "万福寺",
    "town_kana": "マンプクジ",
    "street": "６丁目７−２",
    "office_name": "聖マリアンナ医科大学附属研究所ブレスト＆イメージング先端医療センター附属クリニック",
    "office_name_kana": "セイマリアンナイカダイガクフゾクケンキユウジヨブレストアンドイメ-ジングセンタンイリヨウセンタ-フゾククリニツク"
  },
  "8521": {
    "postcode": "2158521",
    "prefecture": "神奈川県",
    "prefecture_kana": "カナガワケン",
    "prefecture_code": 14,
    "city": "川崎市麻生区",
    "city_kana": "カワサキシアサオク",
    "town": "栗木",
    "town_kana": "クリギ",
    "street": "２丁目６−１５",
    "office_name": "神津精機　株式会社",
    "office_name_kana": "コウヅセイキ"
  },
  "8527": {
    "postcode": "2158527",
    "prefecture": "神奈川県",
    "prefecture_kana": "カナガワケン",
    "prefecture_code": 14,
    "city": "川崎市麻生区",
    "city_kana": "カワサキシアサオク",
    "town": "上麻生",
    "town_kana": "カミアサオ",
    "street": "１丁目３−９",
    "office_name": "神奈川県麻生県税事務所",
    "office_name_kana": "カナガワケンアサオケンゼイジムシヨ"
  },
  "8530": {
    "postcode": "2158530",
    "prefecture": "神奈川県",
    "prefecture_kana": "カナガワケン",
    "prefecture_code": 14,
    "city": "川崎市麻生区",
    "city_kana": "カワサキシアサオク",
    "town": "栗木",
    "town_kana": "クリギ",
    "street": "２丁目４番１６号",
    "office_name": "株式会社　シグマ",
    "office_name_kana": "カブシキガイシヤ シグマ"
  },
  "8542": {
    "postcode": "2158542",
    "prefecture": "神奈川県",
    "prefecture_kana": "カナガワケン",
    "prefecture_code": 14,
    "city": "川崎市麻生区",
    "city_kana": "カワサキシアサオク",
    "town": "東百合丘",
    "town_kana": "ヒガシユリガオカ",
    "street": "３丁目４−１",
    "office_name": "調布学園女子短期大学",
    "office_name_kana": "チヨウフガクエンジヨシタンキダイガク"
  },
  "8550": {
    "postcode": "2158550",
    "prefecture": "神奈川県",
    "prefecture_kana": "カナガワケン",
    "prefecture_code": 14,
    "city": "川崎市麻生区",
    "city_kana": "カワサキシアサオク",
    "town": "栗木",
    "town_kana": "クリギ",
    "street": "２丁目５番１号",
    "office_name": "キヤノンアネルバ　株式会社",
    "office_name_kana": "キヤノンアネルバ カブシキガイシヤ"
  },
  "8558": {
    "postcode": "2158558",
    "prefecture": "神奈川県",
    "prefecture_kana": "カナガワケン",
    "prefecture_code": 14,
    "city": "川崎市麻生区",
    "city_kana": "カワサキシアサオク",
    "town": "上麻生",
    "town_kana": "カミアサオ",
    "street": "１丁目１１−１",
    "office_name": "昭和音楽大学",
    "office_name_kana": "シヨウワオンガクダイガク"
  },
  "8566": {
    "postcode": "2158566",
    "prefecture": "神奈川県",
    "prefecture_kana": "カナガワケン",
    "prefecture_code": 14,
    "city": "川崎市麻生区",
    "city_kana": "カワサキシアサオク",
    "town": "上麻生",
    "town_kana": "カミアサオ",
    "street": "６丁目２９番１８号",
    "office_name": "川崎市郵送請求事務センター",
    "office_name_kana": "カワサキシユウソウセイキユウジムセンタ-"
  },
  "8570": {
    "postcode": "2158570",
    "prefecture": "神奈川県",
    "prefecture_kana": "カナガワケン",
    "prefecture_code": 14,
    "city": "川崎市麻生区",
    "city_kana": "カワサキシアサオク",
    "town": "万福寺",
    "town_kana": "マンプクジ",
    "street": "１丁目５−１",
    "office_name": "麻生区役所",
    "office_name_kana": "アサオクヤクシヨ"
  },
  "8576": {
    "postcode": "2158576",
    "prefecture": "神奈川県",
    "prefecture_kana": "カナガワケン",
    "prefecture_code": 14,
    "city": "川崎市麻生区",
    "city_kana": "カワサキシアサオク",
    "town": "万福寺",
    "town_kana": "マンプクジ",
    "street": "１丁目２番２号新百合トウェンティワン５階",
    "office_name": "川崎市　しんゆり市税事務所",
    "office_name_kana": "カワサキシ シンユリシゼイジムシヨ"
  },
  "8585": {
    "postcode": "2158585",
    "prefecture": "神奈川県",
    "prefecture_kana": "カナガワケン",
    "prefecture_code": 14,
    "city": "川崎市麻生区",
    "city_kana": "カワサキシアサオク",
    "town": "上麻生",
    "town_kana": "カミアサオ",
    "street": "１丁目３−１４",
    "office_name": "川崎西税務署",
    "office_name_kana": "カワサキニシゼイムシヨ"
  },
  "8588": {
    "postcode": "2158588",
    "prefecture": "神奈川県",
    "prefecture_kana": "カナガワケン",
    "prefecture_code": 14,
    "city": "川崎市麻生区",
    "city_kana": "カワサキシアサオク",
    "town": "南黒川",
    "town_kana": "ミナミクロカワ",
    "street": "６−２",
    "office_name": "株式会社　Ｓｏｈｗａ＆Ｓｏｐｈｉａ　Ｔｅｃｈｎｏｌｏｇｉｅｓ",
    "office_name_kana": "カブシキガイシヤ ソ-ワアンドソフイア テクノロジ-ズ"
  }
}