{
  "0000": {
    "postcode": "2210000",
    "prefecture": "神奈川県",
    "prefecture_kana": "カナガワケン",
    "prefecture_code": 14,
    "city": "横浜市神奈川区",
    "city_kana": "ヨコハマシカナガワク",
    "town": "",
    "town_kana": "",
    "street": null,
    "office_name": null,
    "office_name_kana": null
  },
  "0001": {
    "postcode": "2210001",
    "prefecture": "神奈川県",
    "prefecture_kana": "カナガワケン",
    "prefecture_code": 14,
    "city": "横浜市神奈川区",
    "city_kana": "ヨコハマシカナガワク",
    "town": "西寺尾",
    "town_kana": "ニシテラオ",
    "street": null,
    "office_name": null,
    "office_name_kana": null
  },
  "0002": {
    "postcode": "2210002",
    "prefecture": "神奈川県",
    "prefecture_kana": "カナガワケン",
    "prefecture_code": 14,
    "city": "横浜市神奈川区",
    "city_kana": "ヨコハマシカナガワク",
    "town": "大口通",
    "town_kana": "オオグチドオリ",
    "street": null,
    "office_name": null,
    "office_name_kana": null
  },
  "0003": {
    "postcode": "2210003",
    "prefecture": "神奈川県",
    "prefecture_kana": "カナガワケン",
    "prefecture_code": 14,
    "city": "横浜市神奈川区",
    "city_kana": "ヨコハマシカナガワク",
    "town": "大口仲町",
    "town_kana": "オオグチナカマチ",
    "street": null,
    "office_name": null,
    "office_name_kana": null
  },
  "0004": {
    "postcode": "2210004",
    "prefecture": "神奈川県",
    "prefecture_kana": "カナガワケン",
    "prefecture_code": 14,
    "city": "横浜市神奈川区",
    "city_kana": "ヨコハマシカナガワク",
    "town": "西大口",
    "town_kana": "ニシオオグチ",
    "street": null,
    "office_name": null,
    "office_name_kana": null
  },
  "0005": {
    "postcode": "2210005",
    "prefecture": "神奈川県",
    "prefecture_kana": "カナガワケン",
    "prefecture_code": 14,
    "city": "横浜市神奈川区",
    "city_kana": "ヨコハマシカナガワク",
    "town": "松見町",
    "town_kana": "マツミチョウ",
    "street": null,
    "office_name": null,
    "office_name_kana": null
  },
  "0011": {
    "postcode": "2210011",
    "prefecture": "神奈川県",
    "prefecture_kana": "カナガワケン",
    "prefecture_code": 14,
    "city": "横浜市神奈川区",
    "city_kana": "ヨコハマシカナガワク",
    "town": "神之木台",
    "town_kana": "カミノキダイ",
    "street": null,
    "office_name": null,
    "office_name_kana": null
  },
  "0012": {
    "postcode": "2210012",
    "prefecture": "神奈川県",
    "prefecture_kana": "カナガワケン",
    "prefecture_code": 14,
    "city": "横浜市神奈川区",
    "city_kana": "ヨコハマシカナガワク",
    "town": "子安台",
    "town_kana": "コヤスダイ",
    "street": null,
    "office_name": null,
    "office_name_kana": null
  },
  "0013": {
    "postcode": "2210013",
    "prefecture": "神奈川県",
    "prefecture_kana": "カナガワケン",
    "prefecture_code": 14,
    "city": "横浜市神奈川区",
    "city_kana": "ヨコハマシカナガワク",
    "town": "新子安",
    "town_kana": "シンコヤス",
    "street": null,
    "office_name": null,
    "office_name_kana": null
  },
  "0014": {
    "postcode": "2210014",
    "prefecture": "神奈川県",
    "prefecture_kana": "カナガワケン",
    "prefecture_code": 14,
    "city": "横浜市神奈川区",
    "city_kana": "ヨコハマシカナガワク",
    "town": "入江",
    "town_kana": "イリエ",
    "street": null,
    "office_name": null,
    "office_name_kana": null
  },
  "0015": {
    "postcode": "2210015",
    "prefecture": "神奈川県",
    "prefecture_kana": "カナガワケン",
    "prefecture_code": 14,
    "city": "横浜市神奈川区",
    "city_kana": "ヨコハマシカナガワク",
    "town": "神之木町",
    "town_kana": "カミノキチョウ",
    "street": null,
    "office_name": null,
    "office_name_kana": null
  },
  "0021": {
    "postcode": "2210021",
    "prefecture": "神奈川県",
    "prefecture_kana": "カナガワケン",
    "prefecture_code": 14,
    "city": "横浜市神奈川区",
    "city_kana": "ヨコハマシカナガワク",
    "town": "子安通",
    "town_kana": "コヤスドオリ",
    "street": null,
    "office_name": null,
    "office_name_kana": null
  },
  "0022": {
    "postcode": "2210022",
    "prefecture": "神奈川県",
    "prefecture_kana": "カナガワケン",
    "prefecture_code": 14,
    "city": "横浜市神奈川区",
    "city_kana": "ヨコハマシカナガワク",
    "town": "守屋町",
    "town_kana": "モリヤチョウ",
    "street": null,
    "office_name": null,
    "office_name_kana": null
  },
  "0023": {
    "postcode": "2210023",
    "prefecture": "神奈川県",
    "prefecture_kana": "カナガワケン",
    "prefecture_code": 14,
    "city": "横浜市神奈川区",
    "city_kana": "ヨコハマシカナガワク",
    "town": "宝町",
    "town_kana": "タカラチョウ",
    "street": null,
    "office_name": null,
    "office_name_kana": null
  },
  "0024": {
    "postcode": "2210024",
    "prefecture": "神奈川県",
    "prefecture_kana": "カナガワケン",
    "prefecture_code": 14,
    "city": "横浜市神奈川区",
    "city_kana": "ヨコハマシカナガワク",
    "town": "恵比須町",
    "town_kana": "エビスチョウ",
    "street": null,
    "office_name": null,
    "office_name_kana": null
  },
  "0031": {
    "postcode": "2210031",
    "prefecture": "神奈川県",
    "prefecture_kana": "カナガワケン",
    "prefecture_code": 14,
    "city": "横浜市神奈川区",
    "city_kana": "ヨコハマシカナガワク",
    "town": "新浦島町",
    "town_kana": "シンウラシマチョウ",
    "street": null,
    "office_name": null,
    "office_name_kana": null
  },
  "0032": {
    "postcode": "2210032",
    "prefecture": "神奈川県",
    "prefecture_kana": "カナガワケン",
    "prefecture_code": 14,
    "city": "横浜市神奈川区",
    "city_kana": "ヨコハマシカナガワク",
    "town": "出田町",
    "town_kana": "イズタチョウ",
    "street": null,
    "office_name": null,
    "office_name_kana": null
  },
  "0033": {
    "postcode": "2210033",
    "prefecture": "神奈川県",
    "prefecture_kana": "カナガワケン",
    "prefecture_code": 14,
    "city": "横浜市神奈川区",
    "city_kana": "ヨコハマシカナガワク",
    "town": "鈴繁町",
    "town_kana": "スズシゲチョウ",
    "street": null,
    "office_name": null,
    "office_name_kana": null
  },
  "0034": {
    "postcode": "2210034",
    "prefecture": "神奈川県",
    "prefecture_kana": "カナガワケン",
    "prefecture_code": 14,
    "city": "横浜市神奈川区",
    "city_kana": "ヨコハマシカナガワク",
    "town": "瑞穂町",
    "town_kana": "ミズホチョウ",
    "street": null,
    "office_name": null,
    "office_name_kana": null
  },
  "0035": {
    "postcode": "2210035",
    "prefecture": "神奈川県",
    "prefecture_kana": "カナガワケン",
    "prefecture_code": 14,
    "city": "横浜市神奈川区",
    "city_kana": "ヨコハマシカナガワク",
    "town": "星野町",
    "town_kana": "ホシノチョウ",
    "street": null,
    "office_name": null,
    "office_name_kana": null
  },
  "0036": {
    "postcode": "2210036",
    "prefecture": "神奈川県",
    "prefecture_kana": "カナガワケン",
    "prefecture_code": 14,
    "city": "横浜市神奈川区",
    "city_kana": "ヨコハマシカナガワク",
    "town": "千若町",
    "town_kana": "チワカチョウ",
    "street": null,
    "office_name": null,
    "office_name_kana": null
  },
  "0041": {
    "postcode": "2210041",
    "prefecture": "神奈川県",
    "prefecture_kana": "カナガワケン",
    "prefecture_code": 14,
    "city": "横浜市神奈川区",
    "city_kana": "ヨコハマシカナガワク",
    "town": "亀住町",
    "town_kana": "カメズミチョウ",
    "street": null,
    "office_name": null,
    "office_name_kana": null
  },
  "0042": {
    "postcode": "2210042",
    "prefecture": "神奈川県",
    "prefecture_kana": "カナガワケン",
    "prefecture_code": 14,
    "city": "横浜市神奈川区",
    "city_kana": "ヨコハマシカナガワク",
    "town": "浦島町",
    "town_kana": "ウラシマチョウ",
    "street": null,
    "office_name": null,
    "office_name_kana": null
  },
  "0043": {
    "postcode": "2210043",
    "prefecture": "神奈川県",
    "prefecture_kana": "カナガワケン",
    "prefecture_code": 14,
    "city": "横浜市神奈川区",
    "city_kana": "ヨコハマシカナガワク",
    "town": "新町",
    "town_kana": "シンマチ",
    "street": null,
    "office_name": null,
    "office_name_kana": null
  },
  "0044": {
    "postcode": "2210044",
    "prefecture": "神奈川県",
    "prefecture_kana": "カナガワケン",
    "prefecture_code": 14,
    "city": "横浜市神奈川区",
    "city_kana": "ヨコハマシカナガワク",
    "town": "東神奈川",
    "town_kana": "ヒガシカナガワ",
    "street": null,
    "office_name": null,
    "office_name_kana": null
  },
  "0045": {
    "postcode": "2210045",
    "prefecture": "神奈川県",
    "prefecture_kana": "カナガワケン",
    "prefecture_code": 14,
    "city": "横浜市神奈川区",
    "city_kana": "ヨコハマシカナガワク",
    "town": "神奈川",
    "town_kana": "カナガワ",
    "street": null,
    "office_name": null,
    "office_name_kana": null
  },
  "0046": {
    "postcode": "2210046",
    "prefecture": "神奈川県",
    "prefecture_kana": "カナガワケン",
    "prefecture_code": 14,
    "city": "横浜市神奈川区",
    "city_kana": "ヨコハマシカナガワク",
    "town": "神奈川本町",
    "town_kana": "カナガワホンチョウ",
    "street": null,
    "office_name": null,
    "office_name_kana": null
  },
  "0051": {
    "postcode": "2210051",
    "prefecture": "神奈川県",
    "prefecture_kana": "カナガワケン",
    "prefecture_code": 14,
    "city": "横浜市神奈川区",
    "city_kana": "ヨコハマシカナガワク",
    "town": "幸ケ谷",
    "town_kana": "コウガヤ",
    "street": null,
    "office_name": null,
    "office_name_kana": null
  },
  "0052": {
    "postcode": "2210052",
    "prefecture": "神奈川県",
    "prefecture_kana": "カナガワケン",
    "prefecture_code": 14,
    "city": "横浜市神奈川区",
    "city_kana": "ヨコハマシカナガワク",
    "town": "栄町",
    "town_kana": "サカエチョウ",
    "street": null,
    "office_name": null,
    "office_name_kana": null
  },
  "0053": {
    "postcode": "2210053",
    "prefecture": "神奈川県",
    "prefecture_kana": "カナガワケン",
    "prefecture_code": 14,
    "city": "横浜市神奈川区",
    "city_kana": "ヨコハマシカナガワク",
    "town": "橋本町",
    "town_kana": "ハシモトチョウ",
    "street": null,
    "office_name": null,
    "office_name_kana": null
  },
  "0054": {
    "postcode": "2210054",
    "prefecture": "神奈川県",
    "prefecture_kana": "カナガワケン",
    "prefecture_code": 14,
    "city": "横浜市神奈川区",
    "city_kana": "ヨコハマシカナガワク",
    "town": "山内町",
    "town_kana": "ヤマノウチチョウ",
    "street": null,
    "office_name": null,
    "office_name_kana": null
  },
  "0055": {
    "postcode": "2210055",
    "prefecture": "神奈川県",
    "prefecture_kana": "カナガワケン",
    "prefecture_code": 14,
    "city": "横浜市神奈川区",
    "city_kana": "ヨコハマシカナガワク",
    "town": "大野町",
    "town_kana": "オオノチョウ",
    "street": null,
    "office_name": null,
    "office_name_kana": null
  },
  "0056": {
    "postcode": "2210056",
    "prefecture": "神奈川県",
    "prefecture_kana": "カナガワケン",
    "prefecture_code": 14,
    "city": "横浜市神奈川区",
    "city_kana": "ヨコハマシカナガワク",
    "town": "金港町",
    "town_kana": "キンコウチョウ",
    "street": null,
    "office_name": null,
    "office_name_kana": null
  },
  "0057": {
    "postcode": "2210057",
    "prefecture": "神奈川県",
    "prefecture_kana": "カナガワケン",
    "prefecture_code": 14,
    "city": "横浜市神奈川区",
    "city_kana": "ヨコハマシカナガワク",
    "town": "青木町",
    "town_kana": "アオキチョウ",
    "street": null,
    "office_name": null,
    "office_name_kana": null
  },
  "0061": {
    "postcode": "2210061",
    "prefecture": "神奈川県",
    "prefecture_kana": "カナガワケン",
    "prefecture_code": 14,
    "city": "横浜市神奈川区",
    "city_kana": "ヨコハマシカナガワク",
    "town": "七島町",
    "town_kana": "ナナシマチョウ",
    "street": null,
    "office_name": null,
    "office_name_kana": null
  },
  "0062": {
    "postcode": "2210062",
    "prefecture": "神奈川県",
    "prefecture_kana": "カナガワケン",
    "prefecture_code": 14,
    "city": "横浜市神奈川区",
    "city_kana": "ヨコハマシカナガワク",
    "town": "浦島丘",
    "town_kana": "ウラシマオカ",
    "street": null,
    "office_name": null,
    "office_name_kana": null
  },
  "0063": {
    "postcode": "2210063",
    "prefecture": "神奈川県",
    "prefecture_kana": "カナガワケン",
    "prefecture_code": 14,
    "city": "横浜市神奈川区",
    "city_kana": "ヨコハマシカナガワク",
    "town": "立町",
    "town_kana": "タテマチ",
    "street": null,
    "office_name": null,
    "office_name_kana": null
  },
  "0064": {
    "postcode": "2210064",
    "prefecture": "神奈川県",
    "prefecture_kana": "カナガワケン",
    "prefecture_code": 14,
    "city": "横浜市神奈川区",
    "city_kana": "ヨコハマシカナガワク",
    "town": "鳥越",
    "town_kana": "トリゴエ",
    "street": null,
    "office_name": null,
    "office_name_kana": null
  },
  "0065": {
    "postcode": "2210065",
    "prefecture": "神奈川県",
    "prefecture_kana": "カナガワケン",
    "prefecture_code": 14,
    "city": "横浜市神奈川区",
    "city_kana": "ヨコハマシカナガワク",
    "town": "白楽",
    "town_kana": "ハクラク",
    "street": null,
    "office_name": null,
    "office_name_kana": null
  },
  "0071": {
    "postcode": "2210071",
    "prefecture": "神奈川県",
    "prefecture_kana": "カナガワケン",
    "prefecture_code": 14,
    "city": "横浜市神奈川区",
    "city_kana": "ヨコハマシカナガワク",
    "town": "白幡仲町",
    "town_kana": "シラハタナカチョウ",
    "street": null,
    "office_name": null,
    "office_name_kana": null
  },
  "0072": {
    "postcode": "2210072",
    "prefecture": "神奈川県",
    "prefecture_kana": "カナガワケン",
    "prefecture_code": 14,
    "city": "横浜市神奈川区",
    "city_kana": "ヨコハマシカナガワク",
    "town": "白幡東町",
    "town_kana": "シラハタヒガシチョウ",
    "street": null,
    "office_name": null,
    "office_name_kana": null
  },
  "0073": {
    "postcode": "2210073",
    "prefecture": "神奈川県",
    "prefecture_kana": "カナガワケン",
    "prefecture_code": 14,
    "city": "横浜市神奈川区",
    "city_kana": "ヨコハマシカナガワク",
    "town": "白幡南町",
    "town_kana": "シラハタミナミチョウ",
    "street": null,
    "office_name": null,
    "office_name_kana": null
  },
  "0074": {
    "postcode": "2210074",
    "prefecture": "神奈川県",
    "prefecture_kana": "カナガワケン",
    "prefecture_code": 14,
    "city": "横浜市神奈川区",
    "city_kana": "ヨコハマシカナガワク",
    "town": "白幡西町",
    "town_kana": "シラハタニシチョウ",
    "street": null,
    "office_name": null,
    "office_name_kana": null
  },
  "0075": {
    "postcode": "2210075",
    "prefecture": "神奈川県",
    "prefecture_kana": "カナガワケン",
    "prefecture_code": 14,
    "city": "横浜市神奈川区",
    "city_kana": "ヨコハマシカナガワク",
    "town": "白幡上町",
    "town_kana": "シラハタカミチョウ",
    "street": null,
    "office_name": null,
    "office_name_kana": null
  },
  "0076": {
    "postcode": "2210076",
    "prefecture": "神奈川県",
    "prefecture_kana": "カナガワケン",
    "prefecture_code": 14,
    "city": "横浜市神奈川区",
    "city_kana": "ヨコハマシカナガワク",
    "town": "白幡町",
    "town_kana": "シラハタチョウ",
    "street": null,
    "office_name": null,
    "office_name_kana": null
  },
  "0077": {
    "postcode": "2210077",
    "prefecture": "神奈川県",
    "prefecture_kana": "カナガワケン",
    "prefecture_code": 14,
    "city": "横浜市神奈川区",
    "city_kana": "ヨコハマシカナガワク",
    "town": "白幡向町",
    "town_kana": "シラハタムカイチョウ",
    "street": null,
    "office_name": null,
    "office_name_kana": null
  },
  "0801": {
    "postcode": "2210801",
    "prefecture": "神奈川県",
    "prefecture_kana": "カナガワケン",
    "prefecture_code": 14,
    "city": "横浜市神奈川区",
    "city_kana": "ヨコハマシカナガワク",
    "town": "神大寺",
    "town_kana": "カンダイジ",
    "street": null,
    "office_name": null,
    "office_name_kana": null
  },
  "0802": {
    "postcode": "2210802",
    "prefecture": "神奈川県",
    "prefecture_kana": "カナガワケン",
    "prefecture_code": 14,
    "city": "横浜市神奈川区",
    "city_kana": "ヨコハマシカナガワク",
    "town": "六角橋",
    "town_kana": "ロッカクバシ",
    "street": null,
    "office_name": null,
    "office_name_kana": null
  },
  "0803": {
    "postcode": "2210803",
    "prefecture": "神奈川県",
    "prefecture_kana": "カナガワケン",
    "prefecture_code": 14,
    "city": "横浜市神奈川区",
    "city_kana": "ヨコハマシカナガワク",
    "town": "中丸",
    "town_kana": "ナカマル",
    "street": null,
    "office_name": null,
    "office_name_kana": null
  },
  "0804": {
    "postcode": "2210804",
    "prefecture": "神奈川県",
    "prefecture_kana": "カナガワケン",
    "prefecture_code": 14,
    "city": "横浜市神奈川区",
    "city_kana": "ヨコハマシカナガワク",
    "town": "栗田谷",
    "town_kana": "クリタヤ",
    "street": null,
    "office_name": null,
    "office_name_kana": null
  },
  "0811": {
    "postcode": "2210811",
    "prefecture": "神奈川県",
    "prefecture_kana": "カナガワケン",
    "prefecture_code": 14,
    "city": "横浜市神奈川区",
    "city_kana": "ヨコハマシカナガワク",
    "town": "斎藤分町",
    "town_kana": "サイトウブンチョウ",
    "street": null,
    "office_name": null,
    "office_name_kana": null
  },
  "0812": {
    "postcode": "2210812",
    "prefecture": "神奈川県",
    "prefecture_kana": "カナガワケン",
    "prefecture_code": 14,
    "city": "横浜市神奈川区",
    "city_kana": "ヨコハマシカナガワク",
    "town": "平川町",
    "town_kana": "ヒラカワチョウ",
    "street": null,
    "office_name": null,
    "office_name_kana": null
  },
  "0813": {
    "postcode": "2210813",
    "prefecture": "神奈川県",
    "prefecture_kana": "カナガワケン",
    "prefecture_code": 14,
    "city": "横浜市神奈川区",
    "city_kana": "ヨコハマシカナガワク",
    "town": "二本榎",
    "town_kana": "ニホンエノキ",
    "street": null,
    "office_name": null,
    "office_name_kana": null
  },
  "0814": {
    "postcode": "2210814",
    "prefecture": "神奈川県",
    "prefecture_kana": "カナガワケン",
    "prefecture_code": 14,
    "city": "横浜市神奈川区",
    "city_kana": "ヨコハマシカナガワク",
    "town": "旭ケ丘",
    "town_kana": "アサヒガオカ",
    "street": null,
    "office_name": null,
    "office_name_kana": null
  },
  "0821": {
    "postcode": "2210821",
    "prefecture": "神奈川県",
    "prefecture_kana": "カナガワケン",
    "prefecture_code": 14,
    "city": "横浜市神奈川区",
    "city_kana": "ヨコハマシカナガワク",
    "town": "富家町",
    "town_kana": "トミヤチョウ",
    "street": null,
    "office_name": null,
    "office_name_kana": null
  },
  "0822": {
    "postcode": "2210822",
    "prefecture": "神奈川県",
    "prefecture_kana": "カナガワケン",
    "prefecture_code": 14,
    "city": "横浜市神奈川区",
    "city_kana": "ヨコハマシカナガワク",
    "town": "西神奈川",
    "town_kana": "ニシカナガワ",
    "street": null,
    "office_name": null,
    "office_name_kana": null
  },
  "0823": {
    "postcode": "2210823",
    "prefecture": "神奈川県",
    "prefecture_kana": "カナガワケン",
    "prefecture_code": 14,
    "city": "横浜市神奈川区",
    "city_kana": "ヨコハマシカナガワク",
    "town": "二ツ谷町",
    "town_kana": "フタツヤチョウ",
    "street": null,
    "office_name": null,
    "office_name_kana": null
  },
  "0824": {
    "postcode": "2210824",
    "prefecture": "神奈川県",
    "prefecture_kana": "カナガワケン",
    "prefecture_code": 14,
    "city": "横浜市神奈川区",
    "city_kana": "ヨコハマシカナガワク",
    "town": "広台太田町",
    "town_kana": "ヒロダイオオタマチ",
    "street": null,
    "office_name": null,
    "office_name_kana": null
  },
  "0825": {
    "postcode": "2210825",
    "prefecture": "神奈川県",
    "prefecture_kana": "カナガワケン",
    "prefecture_code": 14,
    "city": "横浜市神奈川区",
    "city_kana": "ヨコハマシカナガワク",
    "town": "反町",
    "town_kana": "タンマチ",
    "street": null,
    "office_name": null,
    "office_name_kana": null
  },
  "0831": {
    "postcode": "2210831",
    "prefecture": "神奈川県",
    "prefecture_kana": "カナガワケン",
    "prefecture_code": 14,
    "city": "横浜市神奈川区",
    "city_kana": "ヨコハマシカナガワク",
    "town": "上反町",
    "town_kana": "カミタンマチ",
    "street": null,
    "office_name": null,
    "office_name_kana": null
  },
  "0832": {
    "postcode": "2210832",
    "prefecture": "神奈川県",
    "prefecture_kana": "カナガワケン",
    "prefecture_code": 14,
    "city": "横浜市神奈川区",
    "city_kana": "ヨコハマシカナガワク",
    "town": "桐畑",
    "town_kana": "キリバタケ",
    "street": null,
    "office_name": null,
    "office_name_kana": null
  },
  "0833": {
    "postcode": "2210833",
    "prefecture": "神奈川県",
    "prefecture_kana": "カナガワケン",
    "prefecture_code": 14,
    "city": "横浜市神奈川区",
    "city_kana": "ヨコハマシカナガワク",
    "town": "高島台",
    "town_kana": "タカシマダイ",
    "street": null,
    "office_name": null,
    "office_name_kana": null
  },
  "0834": {
    "postcode": "2210834",
    "prefecture": "神奈川県",
    "prefecture_kana": "カナガワケン",
    "prefecture_code": 14,
    "city": "横浜市神奈川区",
    "city_kana": "ヨコハマシカナガワク",
    "town": "台町",
    "town_kana": "ダイマチ",
    "street": null,
    "office_name": null,
    "office_name_kana": null
  },
  "0835": {
    "postcode": "2210835",
    "prefecture": "神奈川県",
    "prefecture_kana": "カナガワケン",
    "prefecture_code": 14,
    "city": "横浜市神奈川区",
    "city_kana": "ヨコハマシカナガワク",
    "town": "鶴屋町",
    "town_kana": "ツルヤチョウ",
    "street": null,
    "office_name": null,
    "office_name_kana": null
  },
  "0841": {
    "postcode": "2210841",
    "prefecture": "神奈川県",
    "prefecture_kana": "カナガワケン",
    "prefecture_code": 14,
    "city": "横浜市神奈川区",
    "city_kana": "ヨコハマシカナガワク",
    "town": "松本町",
    "town_kana": "マツモトチョウ",
    "street": null,
    "office_name": null,
    "office_name_kana": null
  },
  "0842": {
    "postcode": "2210842",
    "prefecture": "神奈川県",
    "prefecture_kana": "カナガワケン",
    "prefecture_code": 14,
    "city": "横浜市神奈川区",
    "city_kana": "ヨコハマシカナガワク",
    "town": "泉町",
    "town_kana": "イズミチョウ",
    "street": null,
    "office_name": null,
    "office_name_kana": null
  },
  "0843": {
    "postcode": "2210843",
    "prefecture": "神奈川県",
    "prefecture_kana": "カナガワケン",
    "prefecture_code": 14,
    "city": "横浜市神奈川区",
    "city_kana": "ヨコハマシカナガワク",
    "town": "松ケ丘",
    "town_kana": "マツガオカ",
    "street": null,
    "office_name": null,
    "office_name_kana": null
  },
  "0844": {
    "postcode": "2210844",
    "prefecture": "神奈川県",
    "prefecture_kana": "カナガワケン",
    "prefecture_code": 14,
    "city": "横浜市神奈川区",
    "city_kana": "ヨコハマシカナガワク",
    "town": "沢渡",
    "town_kana": "サワタリ",
    "street": null,
    "office_name": null,
    "office_name_kana": null
  },
  "0851": {
    "postcode": "2210851",
    "prefecture": "神奈川県",
    "prefecture_kana": "カナガワケン",
    "prefecture_code": 14,
    "city": "横浜市神奈川区",
    "city_kana": "ヨコハマシカナガワク",
    "town": "三ツ沢中町",
    "town_kana": "ミツザワナカマチ",
    "street": null,
    "office_name": null,
    "office_name_kana": null
  },
  "0852": {
    "postcode": "2210852",
    "prefecture": "神奈川県",
    "prefecture_kana": "カナガワケン",
    "prefecture_code": 14,
    "city": "横浜市神奈川区",
    "city_kana": "ヨコハマシカナガワク",
    "town": "三ツ沢下町",
    "town_kana": "ミツザワシモマチ",
    "street": null,
    "office_name": null,
    "office_name_kana": null
  },
  "0853": {
    "postcode": "2210853",
    "prefecture": "神奈川県",
    "prefecture_kana": "カナガワケン",
    "prefecture_code": 14,
    "city": "横浜市神奈川区",
    "city_kana": "ヨコハマシカナガワク",
    "town": "三ツ沢東町",
    "town_kana": "ミツザワヒガシマチ",
    "street": null,
    "office_name": null,
    "office_name_kana": null
  },
  "0854": {
    "postcode": "2210854",
    "prefecture": "神奈川県",
    "prefecture_kana": "カナガワケン",
    "prefecture_code": 14,
    "city": "横浜市神奈川区",
    "city_kana": "ヨコハマシカナガワク",
    "town": "三ツ沢南町",
    "town_kana": "ミツザワミナミマチ",
    "street": null,
    "office_name": null,
    "office_name_kana": null
  },
  "0855": {
    "postcode": "2210855",
    "prefecture": "神奈川県",
    "prefecture_kana": "カナガワケン",
    "prefecture_code": 14,
    "city": "横浜市神奈川区",
    "city_kana": "ヨコハマシカナガワク",
    "town": "三ツ沢西町",
    "town_kana": "ミツザワニシマチ",
    "street": null,
    "office_name": null,
    "office_name_kana": null
  },
  "0856": {
    "postcode": "2210856",
    "prefecture": "神奈川県",
    "prefecture_kana": "カナガワケン",
    "prefecture_code": 14,
    "city": "横浜市神奈川区",
    "city_kana": "ヨコハマシカナガワク",
    "town": "三ツ沢上町",
    "town_kana": "ミツザワカミマチ",
    "street": null,
    "office_name": null,
    "office_name_kana": null
  },
  "0862": {
    "postcode": "2210862",
    "prefecture": "神奈川県",
    "prefecture_kana": "カナガワケン",
    "prefecture_code": 14,
    "city": "横浜市神奈川区",
    "city_kana": "ヨコハマシカナガワク",
    "town": "三枚町",
    "town_kana": "サンマイチョウ",
    "street": null,
    "office_name": null,
    "office_name_kana": null
  },
  "0863": {
    "postcode": "2210863",
    "prefecture": "神奈川県",
    "prefecture_kana": "カナガワケン",
    "prefecture_code": 14,
    "city": "横浜市神奈川区",
    "city_kana": "ヨコハマシカナガワク",
    "town": "羽沢町",
    "town_kana": "ハザワチョウ",
    "street": null,
    "office_name": null,
    "office_name_kana": null
  },
  "0864": {
    "postcode": "2210864",
    "prefecture": "神奈川県",
    "prefecture_kana": "カナガワケン",
    "prefecture_code": 14,
    "city": "横浜市神奈川区",
    "city_kana": "ヨコハマシカナガワク",
    "town": "菅田町",
    "town_kana": "スゲタチョウ",
    "street": null,
    "office_name": null,
    "office_name_kana": null
  },
  "0865": {
    "postcode": "2210865",
    "prefecture": "神奈川県",
    "prefecture_kana": "カナガワケン",
    "prefecture_code": 14,
    "city": "横浜市神奈川区",
    "city_kana": "ヨコハマシカナガワク",
    "town": "片倉",
    "town_kana": "カタクラ",
    "street": null,
    "office_name": null,
    "office_name_kana": null
  },
  "0866": {
    "postcode": "2210866",
    "prefecture": "神奈川県",
    "prefecture_kana": "カナガワケン",
    "prefecture_code": 14,
    "city": "横浜市神奈川区",
    "city_kana": "ヨコハマシカナガワク",
    "town": "羽沢南",
    "town_kana": "ハザワミナミ",
    "street": null,
    "office_name": null,
    "office_name_kana": null
  },
  "8510": {
    "postcode": "2218510",
    "prefecture": "神奈川県",
    "prefecture_kana": "カナガワケン",
    "prefecture_code": 14,
    "city": "横浜市神奈川区",
    "city_kana": "ヨコハマシカナガワク",
    "town": "鶴屋町",
    "town_kana": "ツルヤチョウ",
    "street": "２−２１−８第１安田ビル４Ｆ",
    "office_name": "株式会社　ぱど　横浜支局",
    "office_name_kana": "カブシキガイシヤ パド ヨコハマシキヨク"
  },
  "8511": {
    "postcode": "2218511",
    "prefecture": "神奈川県",
    "prefecture_kana": "カナガワケン",
    "prefecture_code": 14,
    "city": "横浜市神奈川区",
    "city_kana": "ヨコハマシカナガワク",
    "town": "東神奈川",
    "town_kana": "ヒガシカナガワ",
    "street": "２丁目４３−１",
    "office_name": "楠原輸送　株式会社",
    "office_name_kana": "クスハラユソウ カブシキガイシヤ"
  },
  "8517": {
    "postcode": "2218517",
    "prefecture": "神奈川県",
    "prefecture_kana": "カナガワケン",
    "prefecture_code": 14,
    "city": "横浜市神奈川区",
    "city_kana": "ヨコハマシカナガワク",
    "town": "恵比須町",
    "town_kana": "エビスチョウ",
    "street": "８番地",
    "office_name": "昭和電工　株式会社　横浜事業所",
    "office_name_kana": "シヨウワデンコウ カブシキガイシヤ ヨコハマジギヨウシヨ"
  },
  "8520": {
    "postcode": "2218520",
    "prefecture": "神奈川県",
    "prefecture_kana": "カナガワケン",
    "prefecture_code": 14,
    "city": "横浜市神奈川区",
    "city_kana": "ヨコハマシカナガワク",
    "town": "新浦島町",
    "town_kana": "シンウラシマチョウ",
    "street": "１丁目１−２５",
    "office_name": "株式会社　インテック",
    "office_name_kana": "カブシキガイシヤ インテツク"
  },
  "8522": {
    "postcode": "2218522",
    "prefecture": "神奈川県",
    "prefecture_kana": "カナガワケン",
    "prefecture_code": 14,
    "city": "横浜市神奈川区",
    "city_kana": "ヨコハマシカナガワク",
    "town": "新浦島町",
    "town_kana": "シンウラシマチョウ",
    "street": "１丁目１−２５",
    "office_name": "株式会社　インテックコスモセンター",
    "office_name_kana": "カブシキカイシヤ インテツクコスモセンタ-"
  },
  "8523": {
    "postcode": "2218523",
    "prefecture": "神奈川県",
    "prefecture_kana": "カナガワケン",
    "prefecture_code": 14,
    "city": "横浜市神奈川区",
    "city_kana": "ヨコハマシカナガワク",
    "town": "新子安",
    "town_kana": "シンコヤス",
    "street": "１丁目１８−１",
    "office_name": "横浜マリノス　株式会社",
    "office_name_kana": "ヨコハママリノス カブシキガイシヤ"
  },
  "8529": {
    "postcode": "2218529",
    "prefecture": "神奈川県",
    "prefecture_kana": "カナガワケン",
    "prefecture_code": 14,
    "city": "横浜市神奈川区",
    "city_kana": "ヨコハマシカナガワク",
    "town": "新浦島町",
    "town_kana": "シンウラシマチョウ",
    "street": "一丁目１番地２５ＧＲＣ横浜ベイリサーチパーク６階",
    "office_name": "国立研究開発法人　水産研究・教育機構",
    "office_name_kana": "コクリツケンキユウカイハツホウジン スイサンケンキユウ・キヨウイクキコウ"
  },
  "8537": {
    "postcode": "2218537",
    "prefecture": "神奈川県",
    "prefecture_kana": "カナガワケン",
    "prefecture_code": 14,
    "city": "横浜市神奈川区",
    "city_kana": "ヨコハマシカナガワク",
    "town": "栄町",
    "town_kana": "サカエチョウ",
    "street": "７−１",
    "office_name": "千代田火災海上保険　株式会社　神奈川自動車支店",
    "office_name_kana": "チヨダカサイカイジヨウホケン カブシキガイシヤ カナガワジドウシヤシテン"
  },
  "8540": {
    "postcode": "2218540",
    "prefecture": "神奈川県",
    "prefecture_kana": "カナガワケン",
    "prefecture_code": 14,
    "city": "横浜市神奈川区",
    "city_kana": "ヨコハマシカナガワク",
    "town": "金港町",
    "town_kana": "キンコウチョウ",
    "street": "３−１コンカード横浜８Ｆ",
    "office_name": "コマツ物流　株式会社",
    "office_name_kana": "コマツブツリユウ カブシキカイシヤ"
  },
  "8550": {
    "postcode": "2218550",
    "prefecture": "神奈川県",
    "prefecture_kana": "カナガワケン",
    "prefecture_code": 14,
    "city": "横浜市神奈川区",
    "city_kana": "ヨコハマシカナガワク",
    "town": "入江",
    "town_kana": "イリエ",
    "street": "２丁目５番１２号",
    "office_name": "三菱鉛筆　株式会社　横浜事業所",
    "office_name_kana": "ミツビシエンピツ カブシキガイシヤ ヨコハマジギヨウシヨ"
  },
  "8558": {
    "postcode": "2218558",
    "prefecture": "神奈川県",
    "prefecture_kana": "カナガワケン",
    "prefecture_code": 14,
    "city": "横浜市神奈川区",
    "city_kana": "ヨコハマシカナガワク",
    "town": "新浦島町",
    "town_kana": "シンウラシマチョウ",
    "street": "１丁目１−２５",
    "office_name": "キリンエンジニアリング　株式会社",
    "office_name_kana": "キリンエンジニアリング カブシキガイシヤ"
  },
  "8560": {
    "postcode": "2218560",
    "prefecture": "神奈川県",
    "prefecture_kana": "カナガワケン",
    "prefecture_code": 14,
    "city": "横浜市神奈川区",
    "city_kana": "ヨコハマシカナガワク",
    "town": "栄町",
    "town_kana": "サカエチョウ",
    "street": "１−１",
    "office_name": "日立キャピタル　株式会社　神奈川支店",
    "office_name_kana": "ヒタチキヤピタル カブシキガイシヤ カナガワシテン"
  },
  "8588": {
    "postcode": "2218588",
    "prefecture": "神奈川県",
    "prefecture_kana": "カナガワケン",
    "prefecture_code": 14,
    "city": "横浜市神奈川区",
    "city_kana": "ヨコハマシカナガワク",
    "town": "金港町",
    "town_kana": "キンコウチョウ",
    "street": "７−３金港ビル四階",
    "office_name": "株式会社　カナセキユニオン",
    "office_name_kana": "カブシキガイシヤ カナセキユニオン"
  },
  "8611": {
    "postcode": "2218611",
    "prefecture": "神奈川県",
    "prefecture_kana": "カナガワケン",
    "prefecture_code": 14,
    "city": "横浜市神奈川区",
    "city_kana": "ヨコハマシカナガワク",
    "town": "反町",
    "town_kana": "タンマチ",
    "street": "１丁目６−２",
    "office_name": "ミツワ電機　株式会社　横浜支店",
    "office_name_kana": "ミツワデンキ カブシキガイシヤ ヨコハマシテン"
  },
  "8623": {
    "postcode": "2218623",
    "prefecture": "神奈川県",
    "prefecture_kana": "カナガワケン",
    "prefecture_code": 14,
    "city": "横浜市神奈川区",
    "city_kana": "ヨコハマシカナガワク",
    "town": "新子安",
    "town_kana": "シンコヤス",
    "street": "１丁目３３",
    "office_name": "日産自動車",
    "office_name_kana": "ニツサンジドウシヤ"
  },
  "8666": {
    "postcode": "2218666",
    "prefecture": "神奈川県",
    "prefecture_kana": "カナガワケン",
    "prefecture_code": 14,
    "city": "横浜市神奈川区",
    "city_kana": "ヨコハマシカナガワク",
    "town": "台町",
    "town_kana": "ダイマチ",
    "street": "１５番地１",
    "office_name": "株式会社　スルガコーポレーション",
    "office_name_kana": "カブシキガイシヤ スルガコ-ポレ-シヨン"
  },
  "8686": {
    "postcode": "2218686",
    "prefecture": "神奈川県",
    "prefecture_kana": "カナガワケン",
    "prefecture_code": 14,
    "city": "横浜市神奈川区",
    "city_kana": "ヨコハマシカナガワク",
    "town": "六角橋",
    "town_kana": "ロッカクバシ",
    "street": "３丁目２７−１",
    "office_name": "神奈川大学",
    "office_name_kana": "カナガワダイガク"
  },
  "8701": {
    "postcode": "2218701",
    "prefecture": "神奈川県",
    "prefecture_kana": "カナガワケン",
    "prefecture_code": 14,
    "city": "横浜市神奈川区",
    "city_kana": "ヨコハマシカナガワク",
    "town": "片倉",
    "town_kana": "カタクラ",
    "street": "１丁目２−２３",
    "office_name": "松下電工　株式会社　横浜ショウルーム",
    "office_name_kana": "マツシタデンコウ カブシキガイシヤ ヨコハマシヨウル-ム"
  },
  "8702": {
    "postcode": "2218702",
    "prefecture": "神奈川県",
    "prefecture_kana": "カナガワケン",
    "prefecture_code": 14,
    "city": "横浜市神奈川区",
    "city_kana": "ヨコハマシカナガワク",
    "town": "鶴屋町",
    "town_kana": "ツルヤチョウ",
    "street": "３丁目３２−１",
    "office_name": "日本発条　株式会社　横浜分室",
    "office_name_kana": "ニホンハツジヨウ カブシキガイシヤ ヨコハマブンシツ"
  },
  "8703": {
    "postcode": "2218703",
    "prefecture": "神奈川県",
    "prefecture_kana": "カナガワケン",
    "prefecture_code": 14,
    "city": "横浜市神奈川区",
    "city_kana": "ヨコハマシカナガワク",
    "town": "鶴屋町",
    "town_kana": "ツルヤチョウ",
    "street": "２丁目２３番地２",
    "office_name": "株式会社　ハリマビステム",
    "office_name_kana": "カブシキガイシヤ ハリマビステム"
  },
  "8705": {
    "postcode": "2218705",
    "prefecture": "神奈川県",
    "prefecture_kana": "カナガワケン",
    "prefecture_code": 14,
    "city": "横浜市神奈川区",
    "city_kana": "ヨコハマシカナガワク",
    "town": "鶴屋町",
    "town_kana": "ツルヤチョウ",
    "street": "３丁目３３番８号アサヒビルヂング８階",
    "office_name": "株式会社　ベリテ",
    "office_name_kana": "カブシキガイシヤ ベリテ"
  },
  "8712": {
    "postcode": "2218712",
    "prefecture": "神奈川県",
    "prefecture_kana": "カナガワケン",
    "prefecture_code": 14,
    "city": "横浜市神奈川区",
    "city_kana": "ヨコハマシカナガワク",
    "town": "羽沢町",
    "town_kana": "ハザワチョウ",
    "street": "１６３８−１",
    "office_name": "東邦電気　株式会社",
    "office_name_kana": "トウホウデンキ カブシキガイシヤ"
  },
  "8718": {
    "postcode": "2218718",
    "prefecture": "神奈川県",
    "prefecture_kana": "カナガワケン",
    "prefecture_code": 14,
    "city": "横浜市神奈川区",
    "city_kana": "ヨコハマシカナガワク",
    "town": "片倉",
    "town_kana": "カタクラ",
    "street": "２−１−８",
    "office_name": "一般社団法人　日本自動車連盟　神奈川支部",
    "office_name_kana": "イツパンシヤダンホウジン ニホンジドウシヤレンメイ カナガワシブ"
  },
  "8741": {
    "postcode": "2218741",
    "prefecture": "神奈川県",
    "prefecture_kana": "カナガワケン",
    "prefecture_code": 14,
    "city": "横浜市神奈川区",
    "city_kana": "ヨコハマシカナガワク",
    "town": "片倉",
    "town_kana": "カタクラ",
    "street": "２丁目３７番１１号",
    "office_name": "株式会社　創健社",
    "office_name_kana": "カブシキガイシヤ ソウケンシヤ"
  },
  "8765": {
    "postcode": "2218765",
    "prefecture": "神奈川県",
    "prefecture_kana": "カナガワケン",
    "prefecture_code": 14,
    "city": "横浜市神奈川区",
    "city_kana": "ヨコハマシカナガワク",
    "town": "鶴屋町",
    "town_kana": "ツルヤチョウ",
    "street": "２丁目２１−８第一安田ビル",
    "office_name": "明和管理　株式会社",
    "office_name_kana": "メイワカンリ カブシキガイシヤ"
  }
}