{
  "0000": {
    "postcode": "2220000",
    "prefecture": "神奈川県",
    "prefecture_kana": "カナガワケン",
    "prefecture_code": 14,
    "city": "横浜市港北区",
    "city_kana": "ヨコハマシコウホクク",
    "town": "",
    "town_kana": "",
    "street": null,
    "office_name": null,
    "office_name_kana": null
  },
  "0001": {
    "postcode": "2220001",
    "prefecture": "神奈川県",
    "prefecture_kana": "カナガワケン",
    "prefecture_code": 14,
    "city": "横浜市港北区",
    "city_kana": "ヨコハマシコウホクク",
    "town": "樽町",
    "town_kana": "タルマチ",
    "street": null,
    "office_name": null,
    "office_name_kana": null
  },
  "0002": {
    "postcode": "2220002",
    "prefecture": "神奈川県",
    "prefecture_kana": "カナガワケン",
    "prefecture_code": 14,
    "city": "横浜市港北区",
    "city_kana": "ヨコハマシコウホクク",
    "town": "師岡町",
    "town_kana": "モロオカチョウ",
    "street": null,
    "office_name": null,
    "office_name_kana": null
  },
  "0003": {
    "postcode": "2220003",
    "prefecture": "神奈川県",
    "prefecture_kana": "カナガワケン",
    "prefecture_code": 14,
    "city": "横浜市港北区",
    "city_kana": "ヨコハマシコウホクク",
    "town": "大曽根",
    "town_kana": "オオソネ",
    "street": null,
    "office_name": null,
    "office_name_kana": null
  },
  "0004": {
    "postcode": "2220004",
    "prefecture": "神奈川県",
    "prefecture_kana": "カナガワケン",
    "prefecture_code": 14,
    "city": "横浜市港北区",
    "city_kana": "ヨコハマシコウホクク",
    "town": "大曽根台",
    "town_kana": "オオソネダイ",
    "street": null,
    "office_name": null,
    "office_name_kana": null
  },
  "0011": {
    "postcode": "2220011",
    "prefecture": "神奈川県",
    "prefecture_kana": "カナガワケン",
    "prefecture_code": 14,
    "city": "横浜市港北区",
    "city_kana": "ヨコハマシコウホクク",
    "town": "菊名",
    "town_kana": "キクナ",
    "street": null,
    "office_name": null,
    "office_name_kana": null
  },
  "0012": {
    "postcode": "2220012",
    "prefecture": "神奈川県",
    "prefecture_kana": "カナガワケン",
    "prefecture_code": 14,
    "city": "横浜市港北区",
    "city_kana": "ヨコハマシコウホクク",
    "town": "富士塚",
    "town_kana": "フジヅカ",
    "street": null,
    "office_name": null,
    "office_name_kana": null
  },
  "0013": {
    "postcode": "2220013",
    "prefecture": "神奈川県",
    "prefecture_kana": "カナガワケン",
    "prefecture_code": 14,
    "city": "横浜市港北区",
    "city_kana": "ヨコハマシコウホクク",
    "town": "錦が丘",
    "town_kana": "ニシキガオカ",
    "street": null,
    "office_name": null,
    "office_name_kana": null
  },
  "0021": {
    "postcode": "2220021",
    "prefecture": "神奈川県",
    "prefecture_kana": "カナガワケン",
    "prefecture_code": 14,
    "city": "横浜市港北区",
    "city_kana": "ヨコハマシコウホクク",
    "town": "篠原北",
    "town_kana": "シノハラキタ",
    "street": null,
    "office_name": null,
    "office_name_kana": null
  },
  "0022": {
    "postcode": "2220022",
    "prefecture": "神奈川県",
    "prefecture_kana": "カナガワケン",
    "prefecture_code": 14,
    "city": "横浜市港北区",
    "city_kana": "ヨコハマシコウホクク",
    "town": "篠原東",
    "town_kana": "シノハラヒガシ",
    "street": null,
    "office_name": null,
    "office_name_kana": null
  },
  "0023": {
    "postcode": "2220023",
    "prefecture": "神奈川県",
    "prefecture_kana": "カナガワケン",
    "prefecture_code": 14,
    "city": "横浜市港北区",
    "city_kana": "ヨコハマシコウホクク",
    "town": "仲手原",
    "town_kana": "ナカテハラ",
    "street": null,
    "office_name": null,
    "office_name_kana": null
  },
  "0024": {
    "postcode": "2220024",
    "prefecture": "神奈川県",
    "prefecture_kana": "カナガワケン",
    "prefecture_code": 14,
    "city": "横浜市港北区",
    "city_kana": "ヨコハマシコウホクク",
    "town": "篠原台町",
    "town_kana": "シノハラダイマチ",
    "street": null,
    "office_name": null,
    "office_name_kana": null
  },
  "0025": {
    "postcode": "2220025",
    "prefecture": "神奈川県",
    "prefecture_kana": "カナガワケン",
    "prefecture_code": 14,
    "city": "横浜市港北区",
    "city_kana": "ヨコハマシコウホクク",
    "town": "篠原西町",
    "town_kana": "シノハラニシチョウ",
    "street": null,
    "office_name": null,
    "office_name_kana": null
  },
  "0026": {
    "postcode": "2220026",
    "prefecture": "神奈川県",
    "prefecture_kana": "カナガワケン",
    "prefecture_code": 14,
    "city": "横浜市港北区",
    "city_kana": "ヨコハマシコウホクク",
    "town": "篠原町",
    "town_kana": "シノハラチョウ",
    "street": null,
    "office_name": null,
    "office_name_kana": null
  },
  "0032": {
    "postcode": "2220032",
    "prefecture": "神奈川県",
    "prefecture_kana": "カナガワケン",
    "prefecture_code": 14,
    "city": "横浜市港北区",
    "city_kana": "ヨコハマシコウホクク",
    "town": "大豆戸町",
    "town_kana": "マメドチョウ",
    "street": null,
    "office_name": null,
    "office_name_kana": null
  },
  "0033": {
    "postcode": "2220033",
    "prefecture": "神奈川県",
    "prefecture_kana": "カナガワケン",
    "prefecture_code": 14,
    "city": "横浜市港北区",
    "city_kana": "ヨコハマシコウホクク",
    "town": "新横浜",
    "town_kana": "シンヨコハマ",
    "street": null,
    "office_name": null,
    "office_name_kana": null
  },
  "0034": {
    "postcode": "2220034",
    "prefecture": "神奈川県",
    "prefecture_kana": "カナガワケン",
    "prefecture_code": 14,
    "city": "横浜市港北区",
    "city_kana": "ヨコハマシコウホクク",
    "town": "岸根町",
    "town_kana": "キシネチョウ",
    "street": null,
    "office_name": null,
    "office_name_kana": null
  },
  "0035": {
    "postcode": "2220035",
    "prefecture": "神奈川県",
    "prefecture_kana": "カナガワケン",
    "prefecture_code": 14,
    "city": "横浜市港北区",
    "city_kana": "ヨコハマシコウホクク",
    "town": "鳥山町",
    "town_kana": "トリヤマチョウ",
    "street": null,
    "office_name": null,
    "office_name_kana": null
  },
  "0036": {
    "postcode": "2220036",
    "prefecture": "神奈川県",
    "prefecture_kana": "カナガワケン",
    "prefecture_code": 14,
    "city": "横浜市港北区",
    "city_kana": "ヨコハマシコウホクク",
    "town": "小机町",
    "town_kana": "コヅクエチョウ",
    "street": null,
    "office_name": null,
    "office_name_kana": null
  },
  "0037": {
    "postcode": "2220037",
    "prefecture": "神奈川県",
    "prefecture_kana": "カナガワケン",
    "prefecture_code": 14,
    "city": "横浜市港北区",
    "city_kana": "ヨコハマシコウホクク",
    "town": "大倉山",
    "town_kana": "オオクラヤマ",
    "street": null,
    "office_name": null,
    "office_name_kana": null
  },
  "8501": {
    "postcode": "2228501",
    "prefecture": "神奈川県",
    "prefecture_kana": "カナガワケン",
    "prefecture_code": 14,
    "city": "横浜市港北区",
    "city_kana": "ヨコハマシコウホクク",
    "town": "新横浜",
    "town_kana": "シンヨコハマ",
    "street": "２丁目４−９",
    "office_name": "全労済　神奈川県本部",
    "office_name_kana": "ゼンロウサイ カナガワケンホンブ"
  },
  "8505": {
    "postcode": "2228505",
    "prefecture": "神奈川県",
    "prefecture_kana": "カナガワケン",
    "prefecture_code": 14,
    "city": "横浜市港北区",
    "city_kana": "ヨコハマシコウホクク",
    "town": "新横浜",
    "town_kana": "シンヨコハマ",
    "street": "３丁目１−１",
    "office_name": "株式会社　図研",
    "office_name_kana": "カブシキガイシヤ ズケン"
  },
  "8507": {
    "postcode": "2228507",
    "prefecture": "神奈川県",
    "prefecture_kana": "カナガワケン",
    "prefecture_code": 14,
    "city": "横浜市港北区",
    "city_kana": "ヨコハマシコウホクク",
    "town": "新横浜",
    "town_kana": "シンヨコハマ",
    "street": "３丁目９番３号",
    "office_name": "株式会社　小野測器",
    "office_name_kana": "カブシキガイシヤ オノソツキ"
  },
  "8508": {
    "postcode": "2228508",
    "prefecture": "神奈川県",
    "prefecture_kana": "カナガワケン",
    "prefecture_code": 14,
    "city": "横浜市港北区",
    "city_kana": "ヨコハマシコウホクク",
    "town": "新横浜",
    "town_kana": "シンヨコハマ",
    "street": "２丁目１００−４５",
    "office_name": "富士通エレクトロニクス　株式会社",
    "office_name_kana": "フジツウエレクトロニクス カブシキガイシヤ"
  },
  "8509": {
    "postcode": "2228509",
    "prefecture": "神奈川県",
    "prefecture_kana": "カナガワケン",
    "prefecture_code": 14,
    "city": "横浜市港北区",
    "city_kana": "ヨコハマシコウホクク",
    "town": "新横浜",
    "town_kana": "シンヨコハマ",
    "street": "３丁目９−１８",
    "office_name": "中日本高速道路　（株）　横浜支社",
    "office_name_kana": "ナカニホンコウソクドウロ (カブ) ヨコハマシシヤ"
  },
  "8511": {
    "postcode": "2228511",
    "prefecture": "神奈川県",
    "prefecture_kana": "カナガワケン",
    "prefecture_code": 14,
    "city": "横浜市港北区",
    "city_kana": "ヨコハマシコウホクク",
    "town": "新横浜",
    "town_kana": "シンヨコハマ",
    "street": "２丁目１３−１２",
    "office_name": "株式会社　日能研",
    "office_name_kana": "カブシキガイシヤ ニチノウケン"
  },
  "8515": {
    "postcode": "2228515",
    "prefecture": "神奈川県",
    "prefecture_kana": "カナガワケン",
    "prefecture_code": 14,
    "city": "横浜市港北区",
    "city_kana": "ヨコハマシコウホクク",
    "town": "新横浜",
    "town_kana": "シンヨコハマ",
    "street": "２丁目１９番１７",
    "office_name": "中央労働金庫　業務集中センター",
    "office_name_kana": "チユウオウロウドウキンコ ギヨウムシユウチユウセンタ-"
  },
  "8520": {
    "postcode": "2228520",
    "prefecture": "神奈川県",
    "prefecture_kana": "カナガワケン",
    "prefecture_code": 14,
    "city": "横浜市港北区",
    "city_kana": "ヨコハマシコウホクク",
    "town": "新横浜",
    "town_kana": "シンヨコハマ",
    "street": "２丁目４−１８ＮＥＣ新横浜第二ビル",
    "office_name": "ＮＥＣモバイリング　株式会社",
    "office_name_kana": "エヌイ-シ-モバイリング カブシキガイシヤ"
  },
  "8523": {
    "postcode": "2228523",
    "prefecture": "神奈川県",
    "prefecture_kana": "カナガワケン",
    "prefecture_code": 14,
    "city": "横浜市港北区",
    "city_kana": "ヨコハマシコウホクク",
    "town": "新横浜",
    "town_kana": "シンヨコハマ",
    "street": "２丁目１３−１２",
    "office_name": "株式会社　エヌ・ティ・エス",
    "office_name_kana": "カブシキガイシヤ エヌ・テイ・エス"
  },
  "8525": {
    "postcode": "2228525",
    "prefecture": "神奈川県",
    "prefecture_kana": "カナガワケン",
    "prefecture_code": 14,
    "city": "横浜市港北区",
    "city_kana": "ヨコハマシコウホクク",
    "town": "新横浜",
    "town_kana": "シンヨコハマ",
    "street": "３丁目１９−１ＬＩＶＭＯライジングビル１０Ｆ",
    "office_name": "株式会社　チップワンストップ",
    "office_name_kana": "カブシキガイシヤ チツプワンストツプ"
  },
  "8530": {
    "postcode": "2228530",
    "prefecture": "神奈川県",
    "prefecture_kana": "カナガワケン",
    "prefecture_code": 14,
    "city": "横浜市港北区",
    "city_kana": "ヨコハマシコウホクク",
    "town": "新横浜",
    "town_kana": "シンヨコハマ",
    "street": "３丁目２−３",
    "office_name": "株式会社　リコー　新横浜事業所",
    "office_name_kana": "カブシキガイシヤ リコ- シンヨコハマジギヨウシヨ"
  },
  "8533": {
    "postcode": "2228533",
    "prefecture": "神奈川県",
    "prefecture_kana": "カナガワケン",
    "prefecture_code": 14,
    "city": "横浜市港北区",
    "city_kana": "ヨコハマシコウホクク",
    "town": "新横浜",
    "town_kana": "シンヨコハマ",
    "street": "３丁目４",
    "office_name": "新横浜プリンスホテル",
    "office_name_kana": "シンヨコハマプリンスホテル"
  },
  "8550": {
    "postcode": "2228550",
    "prefecture": "神奈川県",
    "prefecture_kana": "カナガワケン",
    "prefecture_code": 14,
    "city": "横浜市港北区",
    "city_kana": "ヨコハマシコウホクク",
    "town": "大豆戸町",
    "town_kana": "マメドチョウ",
    "street": "５２８−５",
    "office_name": "神奈川税務署",
    "office_name_kana": "カナガワゼイムシヨ"
  },
  "8552": {
    "postcode": "2228552",
    "prefecture": "神奈川県",
    "prefecture_kana": "カナガワケン",
    "prefecture_code": 14,
    "city": "横浜市港北区",
    "city_kana": "ヨコハマシコウホクク",
    "town": "新横浜",
    "town_kana": "シンヨコハマ",
    "street": "２丁目１０−１",
    "office_name": "レーザーテック　株式会社",
    "office_name_kana": "レ-ザ-テツク カブシキガイシヤ"
  },
  "8556": {
    "postcode": "2228556",
    "prefecture": "神奈川県",
    "prefecture_kana": "カナガワケン",
    "prefecture_code": 14,
    "city": "横浜市港北区",
    "city_kana": "ヨコハマシコウホクク",
    "town": "新横浜",
    "town_kana": "シンヨコハマ",
    "street": "３丁目１８番１６号新横浜交通ビル７Ｆ",
    "office_name": "アクサ損害保険　株式会社",
    "office_name_kana": "アクサソンガイホケン カブシキガイシヤ"
  },
  "8558": {
    "postcode": "2228558",
    "prefecture": "神奈川県",
    "prefecture_kana": "カナガワケン",
    "prefecture_code": 14,
    "city": "横浜市港北区",
    "city_kana": "ヨコハマシコウホクク",
    "town": "大豆戸町",
    "town_kana": "マメドチョウ",
    "street": "２７５",
    "office_name": "アマノ　株式会社",
    "office_name_kana": "アマノ カブシキガイシヤ"
  },
  "8561": {
    "postcode": "2228561",
    "prefecture": "神奈川県",
    "prefecture_kana": "カナガワケン",
    "prefecture_code": 14,
    "city": "横浜市港北区",
    "city_kana": "ヨコハマシコウホクク",
    "town": "新横浜",
    "town_kana": "シンヨコハマ",
    "street": "１丁目６−３",
    "office_name": "株式会社　マクニカ",
    "office_name_kana": "カブシキカイシヤ マクニカ"
  },
  "8562": {
    "postcode": "2228562",
    "prefecture": "神奈川県",
    "prefecture_kana": "カナガワケン",
    "prefecture_code": 14,
    "city": "横浜市港北区",
    "city_kana": "ヨコハマシコウホクク",
    "town": "新横浜",
    "town_kana": "シンヨコハマ",
    "street": "１−５−５",
    "office_name": "マクニカネットワークス　株式会社",
    "office_name_kana": "マクニカネツトワ-クス カブシキガイシヤ"
  },
  "8563": {
    "postcode": "2228563",
    "prefecture": "神奈川県",
    "prefecture_kana": "カナガワケン",
    "prefecture_code": 14,
    "city": "横浜市港北区",
    "city_kana": "ヨコハマシコウホクク",
    "town": "新横浜",
    "town_kana": "シンヨコハマ",
    "street": "１−５−５",
    "office_name": "株式会社　マクニカ",
    "office_name_kana": "カブシキガイシヤ マクニカ"
  },
  "8564": {
    "postcode": "2228564",
    "prefecture": "神奈川県",
    "prefecture_kana": "カナガワケン",
    "prefecture_code": 14,
    "city": "横浜市港北区",
    "city_kana": "ヨコハマシコウホクク",
    "town": "菊名",
    "town_kana": "キクナ",
    "street": "７丁目３−２２",
    "office_name": "アマノマネジメントサービス　株式会社",
    "office_name_kana": "アマノマネジメントサ-ビス カブシキガイシヤ"
  },
  "8565": {
    "postcode": "2228565",
    "prefecture": "神奈川県",
    "prefecture_kana": "カナガワケン",
    "prefecture_code": 14,
    "city": "横浜市港北区",
    "city_kana": "ヨコハマシコウホクク",
    "town": "菊名",
    "town_kana": "キクナ",
    "street": "７丁目３−２２",
    "office_name": "アマノメンテナンスエンジニアリング　株式会社",
    "office_name_kana": "アマノメンテナンスエンジニアリング カブシキガイシヤ"
  },
  "8566": {
    "postcode": "2228566",
    "prefecture": "神奈川県",
    "prefecture_kana": "カナガワケン",
    "prefecture_code": 14,
    "city": "横浜市港北区",
    "city_kana": "ヨコハマシコウホクク",
    "town": "菊名",
    "town_kana": "キクナ",
    "street": "７丁目３番１３号",
    "office_name": "ヒロセ電機　株式会社　菊名事業所",
    "office_name_kana": "ヒロセデンキ カブシキガイシヤ キクナジギヨウシヨ"
  },
  "8575": {
    "postcode": "2228575",
    "prefecture": "神奈川県",
    "prefecture_kana": "カナガワケン",
    "prefecture_code": 14,
    "city": "横浜市港北区",
    "city_kana": "ヨコハマシコウホクク",
    "town": "新横浜",
    "town_kana": "シンヨコハマ",
    "street": "２丁目４−８ローム新横浜駅前ビル",
    "office_name": "ローム新横浜駅前ビル　ラピスセミコンダクタ　株式会社　ラピステクノロジー　株式会社",
    "office_name_kana": "ロ-ムシンヨコハマエキマエビル ラピスセミコンダクタ カブシキガイシヤ ラピステクノロジ- カブシキガイシヤ"
  },
  "8577": {
    "postcode": "2228577",
    "prefecture": "神奈川県",
    "prefecture_kana": "カナガワケン",
    "prefecture_code": 14,
    "city": "横浜市港北区",
    "city_kana": "ヨコハマシコウホクク",
    "town": "新横浜",
    "town_kana": "シンヨコハマ",
    "street": "２丁目２−８奈良ビル８Ｆ",
    "office_name": "株式会社　聘珍樓",
    "office_name_kana": "カブシキガイシヤ ヘイチンロウ"
  },
  "8580": {
    "postcode": "2228580",
    "prefecture": "神奈川県",
    "prefecture_kana": "カナガワケン",
    "prefecture_code": 14,
    "city": "横浜市港北区",
    "city_kana": "ヨコハマシコウホクク",
    "town": "新横浜",
    "town_kana": "シンヨコハマ",
    "street": "３丁目１７−６",
    "office_name": "イノテック　株式会社",
    "office_name_kana": "イノテツク カブシキガイシヤ"
  },
  "8585": {
    "postcode": "2228585",
    "prefecture": "神奈川県",
    "prefecture_kana": "カナガワケン",
    "prefecture_code": 14,
    "city": "横浜市港北区",
    "city_kana": "ヨコハマシコウホクク",
    "town": "新横浜",
    "town_kana": "シンヨコハマ",
    "street": "１丁目１９−２０ＳＵＮＨＡＭＡＤＡＢＬＤＧ．４Ｆ",
    "office_name": "日本ランズエンド　株式会社",
    "office_name_kana": "ニホンランズエンド カブシキガイシヤ"
  },
  "8586": {
    "postcode": "2228586",
    "prefecture": "神奈川県",
    "prefecture_kana": "カナガワケン",
    "prefecture_code": 14,
    "city": "横浜市港北区",
    "city_kana": "ヨコハマシコウホクク",
    "town": "新横浜",
    "town_kana": "シンヨコハマ",
    "street": "２丁目１３−１３",
    "office_name": "イノマイクロ　株式会社",
    "office_name_kana": "イノマイクロ カブシキガイシヤ"
  },
  "8622": {
    "postcode": "2228622",
    "prefecture": "神奈川県",
    "prefecture_kana": "カナガワケン",
    "prefecture_code": 14,
    "city": "横浜市港北区",
    "city_kana": "ヨコハマシコウホクク",
    "town": "大豆戸町",
    "town_kana": "マメドチョウ",
    "street": "８８（港北郵便局私書箱第２２号）",
    "office_name": "社団法人　書燈社",
    "office_name_kana": "シヤダンホウジン シヨトウシヤ"
  },
  "8652": {
    "postcode": "2228652",
    "prefecture": "神奈川県",
    "prefecture_kana": "カナガワケン",
    "prefecture_code": 14,
    "city": "横浜市港北区",
    "city_kana": "ヨコハマシコウホクク",
    "town": "新横浜",
    "town_kana": "シンヨコハマ",
    "street": "２丁目５−１１（港北郵便局私書箱第５２号）",
    "office_name": "ユーコープかながわ",
    "office_name_kana": "ユ-コ-プカナガワ"
  }
}