{
  "0001": {
    "postcode": "2250001",
    "prefecture": "神奈川県",
    "prefecture_kana": "カナガワケン",
    "prefecture_code": 14,
    "city": "横浜市青葉区",
    "city_kana": "ヨコハマシアオバク",
    "town": "美しが丘西",
    "town_kana": "ウツクシガオカニシ",
    "street": null,
    "office_name": null,
    "office_name_kana": null
  },
  "0002": {
    "postcode": "2250002",
    "prefecture": "神奈川県",
    "prefecture_kana": "カナガワケン",
    "prefecture_code": 14,
    "city": "横浜市青葉区",
    "city_kana": "ヨコハマシアオバク",
    "town": "美しが丘",
    "town_kana": "ウツクシガオカ",
    "street": null,
    "office_name": null,
    "office_name_kana": null
  },
  "0003": {
    "postcode": "2250003",
    "prefecture": "神奈川県",
    "prefecture_kana": "カナガワケン",
    "prefecture_code": 14,
    "city": "横浜市青葉区",
    "city_kana": "ヨコハマシアオバク",
    "town": "新石川",
    "town_kana": "シンイシカワ",
    "street": null,
    "office_name": null,
    "office_name_kana": null
  },
  "0004": {
    "postcode": "2250004",
    "prefecture": "神奈川県",
    "prefecture_kana": "カナガワケン",
    "prefecture_code": 14,
    "city": "横浜市青葉区",
    "city_kana": "ヨコハマシアオバク",
    "town": "元石川町",
    "town_kana": "モトイシカワチョウ",
    "street": null,
    "office_name": null,
    "office_name_kana": null
  },
  "0005": {
    "postcode": "2250005",
    "prefecture": "神奈川県",
    "prefecture_kana": "カナガワケン",
    "prefecture_code": 14,
    "city": "横浜市青葉区",
    "city_kana": "ヨコハマシアオバク",
    "town": "荏子田",
    "town_kana": "エコダ",
    "street": null,
    "office_name": null,
    "office_name_kana": null
  },
  "0011": {
    "postcode": "2250011",
    "prefecture": "神奈川県",
    "prefecture_kana": "カナガワケン",
    "prefecture_code": 14,
    "city": "横浜市青葉区",
    "city_kana": "ヨコハマシアオバク",
    "town": "あざみ野",
    "town_kana": "アザミノ",
    "street": null,
    "office_name": null,
    "office_name_kana": null
  },
  "0012": {
    "postcode": "2250012",
    "prefecture": "神奈川県",
    "prefecture_kana": "カナガワケン",
    "prefecture_code": 14,
    "city": "横浜市青葉区",
    "city_kana": "ヨコハマシアオバク",
    "town": "あざみ野南",
    "town_kana": "アザミノミナミ",
    "street": null,
    "office_name": null,
    "office_name_kana": null
  },
  "0013": {
    "postcode": "2250013",
    "prefecture": "神奈川県",
    "prefecture_kana": "カナガワケン",
    "prefecture_code": 14,
    "city": "横浜市青葉区",
    "city_kana": "ヨコハマシアオバク",
    "town": "荏田町",
    "town_kana": "エダチョウ",
    "street": null,
    "office_name": null,
    "office_name_kana": null
  },
  "0014": {
    "postcode": "2250014",
    "prefecture": "神奈川県",
    "prefecture_kana": "カナガワケン",
    "prefecture_code": 14,
    "city": "横浜市青葉区",
    "city_kana": "ヨコハマシアオバク",
    "town": "荏田西",
    "town_kana": "エダニシ",
    "street": null,
    "office_name": null,
    "office_name_kana": null
  },
  "0015": {
    "postcode": "2250015",
    "prefecture": "神奈川県",
    "prefecture_kana": "カナガワケン",
    "prefecture_code": 14,
    "city": "横浜市青葉区",
    "city_kana": "ヨコハマシアオバク",
    "town": "荏田北",
    "town_kana": "エダキタ",
    "street": null,
    "office_name": null,
    "office_name_kana": null
  },
  "0016": {
    "postcode": "2250016",
    "prefecture": "神奈川県",
    "prefecture_kana": "カナガワケン",
    "prefecture_code": 14,
    "city": "横浜市青葉区",
    "city_kana": "ヨコハマシアオバク",
    "town": "みすずが丘",
    "town_kana": "ミスズガオカ",
    "street": null,
    "office_name": null,
    "office_name_kana": null
  },
  "0021": {
    "postcode": "2250021",
    "prefecture": "神奈川県",
    "prefecture_kana": "カナガワケン",
    "prefecture_code": 14,
    "city": "横浜市青葉区",
    "city_kana": "ヨコハマシアオバク",
    "town": "すすき野",
    "town_kana": "ススキノ",
    "street": null,
    "office_name": null,
    "office_name_kana": null
  },
  "0022": {
    "postcode": "2250022",
    "prefecture": "神奈川県",
    "prefecture_kana": "カナガワケン",
    "prefecture_code": 14,
    "city": "横浜市青葉区",
    "city_kana": "ヨコハマシアオバク",
    "town": "黒須田",
    "town_kana": "クロスダ",
    "street": null,
    "office_name": null,
    "office_name_kana": null
  },
  "0023": {
    "postcode": "2250023",
    "prefecture": "神奈川県",
    "prefecture_kana": "カナガワケン",
    "prefecture_code": 14,
    "city": "横浜市青葉区",
    "city_kana": "ヨコハマシアオバク",
    "town": "大場町",
    "town_kana": "オオバチョウ",
    "street": null,
    "office_name": null,
    "office_name_kana": null
  },
  "0024": {
    "postcode": "2250024",
    "prefecture": "神奈川県",
    "prefecture_kana": "カナガワケン",
    "prefecture_code": 14,
    "city": "横浜市青葉区",
    "city_kana": "ヨコハマシアオバク",
    "town": "市ケ尾町",
    "town_kana": "イチガオチョウ",
    "street": null,
    "office_name": null,
    "office_name_kana": null
  },
  "0025": {
    "postcode": "2250025",
    "prefecture": "神奈川県",
    "prefecture_kana": "カナガワケン",
    "prefecture_code": 14,
    "city": "横浜市青葉区",
    "city_kana": "ヨコハマシアオバク",
    "town": "鉄町",
    "town_kana": "クロガネチョウ",
    "street": null,
    "office_name": null,
    "office_name_kana": null
  },
  "0026": {
    "postcode": "2250026",
    "prefecture": "神奈川県",
    "prefecture_kana": "カナガワケン",
    "prefecture_code": 14,
    "city": "横浜市青葉区",
    "city_kana": "ヨコハマシアオバク",
    "town": "もみの木台",
    "town_kana": "モミノキダイ",
    "street": null,
    "office_name": null,
    "office_name_kana": null
  },
  "8501": {
    "postcode": "2258501",
    "prefecture": "神奈川県",
    "prefecture_kana": "カナガワケン",
    "prefecture_code": 14,
    "city": "横浜市青葉区",
    "city_kana": "ヨコハマシアオバク",
    "town": "荏田町",
    "town_kana": "エダチョウ",
    "street": "１４７４−４",
    "office_name": "株式会社　ジャンボ",
    "office_name_kana": "カブシキガイシヤ ジヤンボ"
  },
  "8502": {
    "postcode": "2258502",
    "prefecture": "神奈川県",
    "prefecture_kana": "カナガワケン",
    "prefecture_code": 14,
    "city": "横浜市青葉区",
    "city_kana": "ヨコハマシアオバク",
    "town": "鉄町",
    "town_kana": "クロガネチョウ",
    "street": "１６１４",
    "office_name": "学校法人　桐蔭学園",
    "office_name_kana": "ガツコウホウジン トウインガクエン"
  },
  "8503": {
    "postcode": "2258503",
    "prefecture": "神奈川県",
    "prefecture_kana": "カナガワケン",
    "prefecture_code": 14,
    "city": "横浜市青葉区",
    "city_kana": "ヨコハマシアオバク",
    "town": "鉄町",
    "town_kana": "クロガネチョウ",
    "street": "１６１４番地",
    "office_name": "桐蔭横浜大学",
    "office_name_kana": "トウインヨコハマダイガク"
  },
  "8508": {
    "postcode": "2258508",
    "prefecture": "神奈川県",
    "prefecture_kana": "カナガワケン",
    "prefecture_code": 14,
    "city": "横浜市青葉区",
    "city_kana": "ヨコハマシアオバク",
    "town": "新石川",
    "town_kana": "シンイシカワ",
    "street": "２丁目１４−１０",
    "office_name": "アキュフェーズ　株式会社",
    "office_name_kana": "アキユフエ-ズ カブシキガイシヤ"
  },
  "8513": {
    "postcode": "2258513",
    "prefecture": "神奈川県",
    "prefecture_kana": "カナガワケン",
    "prefecture_code": 14,
    "city": "横浜市青葉区",
    "city_kana": "ヨコハマシアオバク",
    "town": "市ケ尾町",
    "town_kana": "イチガオチョウ",
    "street": "２７−５",
    "office_name": "緑県税事務所",
    "office_name_kana": "ミドリケンゼイジムシヨ"
  },
  "8522": {
    "postcode": "2258522",
    "prefecture": "神奈川県",
    "prefecture_kana": "カナガワケン",
    "prefecture_code": 14,
    "city": "横浜市青葉区",
    "city_kana": "ヨコハマシアオバク",
    "town": "あざみ野",
    "town_kana": "アザミノ",
    "street": "１丁目４番地１３",
    "office_name": "株式会社　タカラ　東京本社",
    "office_name_kana": "カブシキガイシヤ タカラ トウキヨウホンシヤ"
  },
  "8525": {
    "postcode": "2258525",
    "prefecture": "神奈川県",
    "prefecture_kana": "カナガワケン",
    "prefecture_code": 14,
    "city": "横浜市青葉区",
    "city_kana": "ヨコハマシアオバク",
    "town": "市ケ尾町",
    "town_kana": "イチガオチョウ",
    "street": "１１７０−１クリザンテム市が尾１階",
    "office_name": "トップツアー　株式会社　個人旅行事業部（ＷＥＢ販売センター・提携販売センター）",
    "office_name_kana": "トツプツア- カブシキガイシヤ コジンリヨコウジギヨウブ(ウエブハンバイセンタ-・テイケイハンバイセンタ-)"
  },
  "8530": {
    "postcode": "2258530",
    "prefecture": "神奈川県",
    "prefecture_kana": "カナガワケン",
    "prefecture_code": 14,
    "city": "横浜市青葉区",
    "city_kana": "ヨコハマシアオバク",
    "town": "新石川",
    "town_kana": "シンイシカワ",
    "street": "２−１−１５",
    "office_name": "たまプラーザ　テラス　リンクプラザ",
    "office_name_kana": "タマプラ-ザ テラス リンクプラザ"
  },
  "8535": {
    "postcode": "2258535",
    "prefecture": "神奈川県",
    "prefecture_kana": "カナガワケン",
    "prefecture_code": 14,
    "city": "横浜市青葉区",
    "city_kana": "ヨコハマシアオバク",
    "town": "新石川",
    "town_kana": "シンイシカワ",
    "street": "２丁目２番地１",
    "office_name": "たまプラーザテラス",
    "office_name_kana": "タマプラ-ザテラス"
  },
  "8539": {
    "postcode": "2258539",
    "prefecture": "神奈川県",
    "prefecture_kana": "カナガワケン",
    "prefecture_code": 14,
    "city": "横浜市青葉区",
    "city_kana": "ヨコハマシアオバク",
    "town": "美しが丘",
    "town_kana": "ウツクシガオカ",
    "street": "４丁目５４−６",
    "office_name": "株式会社　ブルックス",
    "office_name_kana": "カブシキガイシヤ ブルツクス"
  },
  "8550": {
    "postcode": "2258550",
    "prefecture": "神奈川県",
    "prefecture_kana": "カナガワケン",
    "prefecture_code": 14,
    "city": "横浜市青葉区",
    "city_kana": "ヨコハマシアオバク",
    "town": "市ケ尾町",
    "town_kana": "イチガオチョウ",
    "street": "２２−３",
    "office_name": "緑税務署",
    "office_name_kana": "ミドリゼイムシヨ"
  },
  "8560": {
    "postcode": "2258560",
    "prefecture": "神奈川県",
    "prefecture_kana": "カナガワケン",
    "prefecture_code": 14,
    "city": "横浜市青葉区",
    "city_kana": "ヨコハマシアオバク",
    "town": "市ケ尾町",
    "town_kana": "イチガオチョウ",
    "street": "５４１−１",
    "office_name": "イッツ・コミュニケーションズ　（株）",
    "office_name_kana": "イツツ・コミユニケ-シヨンズ (カブ)"
  },
  "8585": {
    "postcode": "2258585",
    "prefecture": "神奈川県",
    "prefecture_kana": "カナガワケン",
    "prefecture_code": 14,
    "city": "横浜市青葉区",
    "city_kana": "ヨコハマシアオバク",
    "town": "あざみ野",
    "town_kana": "アザミノ",
    "street": "１丁目２４−７",
    "office_name": "劇団四季　（四季　株式会社）",
    "office_name_kana": "ゲキダンシキ (シキ カブシキガイシヤ)"
  }
}