{
  "0000": {
    "postcode": "2260000",
    "prefecture": "神奈川県",
    "prefecture_kana": "カナガワケン",
    "prefecture_code": 14,
    "city": "横浜市緑区",
    "city_kana": "ヨコハマシミドリク",
    "town": "",
    "town_kana": "",
    "street": null,
    "office_name": null,
    "office_name_kana": null
  },
  "0001": {
    "postcode": "2260001",
    "prefecture": "神奈川県",
    "prefecture_kana": "カナガワケン",
    "prefecture_code": 14,
    "city": "横浜市緑区",
    "city_kana": "ヨコハマシミドリク",
    "town": "東本郷町",
    "town_kana": "ヒガシホンゴウチョウ",
    "street": null,
    "office_name": null,
    "office_name_kana": null
  },
  "0002": {
    "postcode": "2260002",
    "prefecture": "神奈川県",
    "prefecture_kana": "カナガワケン",
    "prefecture_code": 14,
    "city": "横浜市緑区",
    "city_kana": "ヨコハマシミドリク",
    "town": "東本郷",
    "town_kana": "ヒガシホンゴウ",
    "street": null,
    "office_name": null,
    "office_name_kana": null
  },
  "0003": {
    "postcode": "2260003",
    "prefecture": "神奈川県",
    "prefecture_kana": "カナガワケン",
    "prefecture_code": 14,
    "city": "横浜市緑区",
    "city_kana": "ヨコハマシミドリク",
    "town": "鴨居",
    "town_kana": "カモイ",
    "street": null,
    "office_name": null,
    "office_name_kana": null
  },
  "0004": {
    "postcode": "2260004",
    "prefecture": "神奈川県",
    "prefecture_kana": "カナガワケン",
    "prefecture_code": 14,
    "city": "横浜市緑区",
    "city_kana": "ヨコハマシミドリク",
    "town": "鴨居町",
    "town_kana": "カモイチョウ",
    "street": null,
    "office_name": null,
    "office_name_kana": null
  },
  "0005": {
    "postcode": "2260005",
    "prefecture": "神奈川県",
    "prefecture_kana": "カナガワケン",
    "prefecture_code": 14,
    "city": "横浜市緑区",
    "city_kana": "ヨコハマシミドリク",
    "town": "竹山",
    "town_kana": "タケヤマ",
    "street": null,
    "office_name": null,
    "office_name_kana": null
  },
  "0006": {
    "postcode": "2260006",
    "prefecture": "神奈川県",
    "prefecture_kana": "カナガワケン",
    "prefecture_code": 14,
    "city": "横浜市緑区",
    "city_kana": "ヨコハマシミドリク",
    "town": "白山",
    "town_kana": "ハクサン",
    "street": null,
    "office_name": null,
    "office_name_kana": null
  },
  "0012": {
    "postcode": "2260012",
    "prefecture": "神奈川県",
    "prefecture_kana": "カナガワケン",
    "prefecture_code": 14,
    "city": "横浜市緑区",
    "city_kana": "ヨコハマシミドリク",
    "town": "上山",
    "town_kana": "カミヤマ",
    "street": null,
    "office_name": null,
    "office_name_kana": null
  },
  "0013": {
    "postcode": "2260013",
    "prefecture": "神奈川県",
    "prefecture_kana": "カナガワケン",
    "prefecture_code": 14,
    "city": "横浜市緑区",
    "city_kana": "ヨコハマシミドリク",
    "town": "寺山町",
    "town_kana": "テラヤマチョウ",
    "street": null,
    "office_name": null,
    "office_name_kana": null
  },
  "0014": {
    "postcode": "2260014",
    "prefecture": "神奈川県",
    "prefecture_kana": "カナガワケン",
    "prefecture_code": 14,
    "city": "横浜市緑区",
    "city_kana": "ヨコハマシミドリク",
    "town": "台村町",
    "town_kana": "ダイムラチョウ",
    "street": null,
    "office_name": null,
    "office_name_kana": null
  },
  "0015": {
    "postcode": "2260015",
    "prefecture": "神奈川県",
    "prefecture_kana": "カナガワケン",
    "prefecture_code": 14,
    "city": "横浜市緑区",
    "city_kana": "ヨコハマシミドリク",
    "town": "三保町",
    "town_kana": "ミホチョウ",
    "street": null,
    "office_name": null,
    "office_name_kana": null
  },
  "0016": {
    "postcode": "2260016",
    "prefecture": "神奈川県",
    "prefecture_kana": "カナガワケン",
    "prefecture_code": 14,
    "city": "横浜市緑区",
    "city_kana": "ヨコハマシミドリク",
    "town": "霧が丘",
    "town_kana": "キリガオカ",
    "street": null,
    "office_name": null,
    "office_name_kana": null
  },
  "0017": {
    "postcode": "2260017",
    "prefecture": "神奈川県",
    "prefecture_kana": "カナガワケン",
    "prefecture_code": 14,
    "city": "横浜市緑区",
    "city_kana": "ヨコハマシミドリク",
    "town": "新治町",
    "town_kana": "ニイハルチョウ",
    "street": null,
    "office_name": null,
    "office_name_kana": null
  },
  "0018": {
    "postcode": "2260018",
    "prefecture": "神奈川県",
    "prefecture_kana": "カナガワケン",
    "prefecture_code": 14,
    "city": "横浜市緑区",
    "city_kana": "ヨコハマシミドリク",
    "town": "長津田みなみ台",
    "town_kana": "ナガツタミナミダイ",
    "street": null,
    "office_name": null,
    "office_name_kana": null
  },
  "0019": {
    "postcode": "2260019",
    "prefecture": "神奈川県",
    "prefecture_kana": "カナガワケン",
    "prefecture_code": 14,
    "city": "横浜市緑区",
    "city_kana": "ヨコハマシミドリク",
    "town": "中山",
    "town_kana": "ナカヤマ",
    "street": null,
    "office_name": null,
    "office_name_kana": null
  },
  "0021": {
    "postcode": "2260021",
    "prefecture": "神奈川県",
    "prefecture_kana": "カナガワケン",
    "prefecture_code": 14,
    "city": "横浜市緑区",
    "city_kana": "ヨコハマシミドリク",
    "town": "北八朔町",
    "town_kana": "キタハッサクチョウ",
    "street": null,
    "office_name": null,
    "office_name_kana": null
  },
  "0022": {
    "postcode": "2260022",
    "prefecture": "神奈川県",
    "prefecture_kana": "カナガワケン",
    "prefecture_code": 14,
    "city": "横浜市緑区",
    "city_kana": "ヨコハマシミドリク",
    "town": "青砥町",
    "town_kana": "アオトチョウ",
    "street": null,
    "office_name": null,
    "office_name_kana": null
  },
  "0023": {
    "postcode": "2260023",
    "prefecture": "神奈川県",
    "prefecture_kana": "カナガワケン",
    "prefecture_code": 14,
    "city": "横浜市緑区",
    "city_kana": "ヨコハマシミドリク",
    "town": "小山町",
    "town_kana": "コヤマチョウ",
    "street": null,
    "office_name": null,
    "office_name_kana": null
  },
  "0024": {
    "postcode": "2260024",
    "prefecture": "神奈川県",
    "prefecture_kana": "カナガワケン",
    "prefecture_code": 14,
    "city": "横浜市緑区",
    "city_kana": "ヨコハマシミドリク",
    "town": "西八朔町",
    "town_kana": "ニシハッサクチョウ",
    "street": null,
    "office_name": null,
    "office_name_kana": null
  },
  "0025": {
    "postcode": "2260025",
    "prefecture": "神奈川県",
    "prefecture_kana": "カナガワケン",
    "prefecture_code": 14,
    "city": "横浜市緑区",
    "city_kana": "ヨコハマシミドリク",
    "town": "十日市場町",
    "town_kana": "トオカイチバチョウ",
    "street": null,
    "office_name": null,
    "office_name_kana": null
  },
  "0026": {
    "postcode": "2260026",
    "prefecture": "神奈川県",
    "prefecture_kana": "カナガワケン",
    "prefecture_code": 14,
    "city": "横浜市緑区",
    "city_kana": "ヨコハマシミドリク",
    "town": "長津田町",
    "town_kana": "ナガツタチョウ",
    "street": null,
    "office_name": null,
    "office_name_kana": null
  },
  "0027": {
    "postcode": "2260027",
    "prefecture": "神奈川県",
    "prefecture_kana": "カナガワケン",
    "prefecture_code": 14,
    "city": "横浜市緑区",
    "city_kana": "ヨコハマシミドリク",
    "town": "長津田",
    "town_kana": "ナガツタ",
    "street": null,
    "office_name": null,
    "office_name_kana": null
  },
  "0028": {
    "postcode": "2260028",
    "prefecture": "神奈川県",
    "prefecture_kana": "カナガワケン",
    "prefecture_code": 14,
    "city": "横浜市緑区",
    "city_kana": "ヨコハマシミドリク",
    "town": "いぶき野",
    "town_kana": "イブキノ",
    "street": null,
    "office_name": null,
    "office_name_kana": null
  },
  "0029": {
    "postcode": "2260029",
    "prefecture": "神奈川県",
    "prefecture_kana": "カナガワケン",
    "prefecture_code": 14,
    "city": "横浜市緑区",
    "city_kana": "ヨコハマシミドリク",
    "town": "森の台",
    "town_kana": "モリノダイ",
    "street": null,
    "office_name": null,
    "office_name_kana": null
  },
  "8501": {
    "postcode": "2268501",
    "prefecture": "神奈川県",
    "prefecture_kana": "カナガワケン",
    "prefecture_code": 14,
    "city": "横浜市緑区",
    "city_kana": "ヨコハマシミドリク",
    "town": "長津田町",
    "town_kana": "ナガツタチョウ",
    "street": "４２５９",
    "office_name": "国立大学法人　東京工業大学",
    "office_name_kana": "コクリツダイガクホウジン トウキヨウコウギヨウダイガク"
  },
  "8502": {
    "postcode": "2268502",
    "prefecture": "神奈川県",
    "prefecture_kana": "カナガワケン",
    "prefecture_code": 14,
    "city": "横浜市緑区",
    "city_kana": "ヨコハマシミドリク",
    "town": "長津田町",
    "town_kana": "ナガツタチョウ",
    "street": "４２５９",
    "office_name": "国立大学法人　東京工業大学",
    "office_name_kana": "コクリツダイガクホウジン トウキヨウコウギヨウダイガク"
  },
  "8503": {
    "postcode": "2268503",
    "prefecture": "神奈川県",
    "prefecture_kana": "カナガワケン",
    "prefecture_code": 14,
    "city": "横浜市緑区",
    "city_kana": "ヨコハマシミドリク",
    "town": "長津田町",
    "town_kana": "ナガツタチョウ",
    "street": "４２５９",
    "office_name": "国立大学法人　東京工業大学",
    "office_name_kana": "コクリツダイガクホウジン トウキヨウコウギヨウダイガク"
  },
  "8507": {
    "postcode": "2268507",
    "prefecture": "神奈川県",
    "prefecture_kana": "カナガワケン",
    "prefecture_code": 14,
    "city": "横浜市緑区",
    "city_kana": "ヨコハマシミドリク",
    "town": "白山",
    "town_kana": "ハクサン",
    "street": "１丁目１６−１",
    "office_name": "株式会社　小野測器",
    "office_name_kana": "カブシキガイシヤ オノソツキ"
  },
  "8510": {
    "postcode": "2268510",
    "prefecture": "神奈川県",
    "prefecture_kana": "カナガワケン",
    "prefecture_code": 14,
    "city": "横浜市緑区",
    "city_kana": "ヨコハマシミドリク",
    "town": "長津田町",
    "town_kana": "ナガツタチョウ",
    "street": "４２５９−３",
    "office_name": "独立行政法人　中小企業基盤整備機構　東工大横浜ベンチャープラザ",
    "office_name_kana": "ドクリツギヨウセイホウジン チユウシヨウキギヨウキバンセイビキコウ トウコウダイヨコハマベンチヤ-プラザ"
  },
  "8512": {
    "postcode": "2268512",
    "prefecture": "神奈川県",
    "prefecture_kana": "カナガワケン",
    "prefecture_code": 14,
    "city": "横浜市緑区",
    "city_kana": "ヨコハマシミドリク",
    "town": "中山",
    "town_kana": "ナカヤマ",
    "street": "２丁目４−１",
    "office_name": "京セラ　株式会社　横浜中山事業所",
    "office_name_kana": "キヨウセラ カブシキガイシヤ ヨコハマナカヤマジギヨウシヨ"
  },
  "8525": {
    "postcode": "2268525",
    "prefecture": "神奈川県",
    "prefecture_kana": "カナガワケン",
    "prefecture_code": 14,
    "city": "横浜市緑区",
    "city_kana": "ヨコハマシミドリク",
    "town": "白山",
    "town_kana": "ハクサン",
    "street": "１丁目１６−２",
    "office_name": "株式会社　ＪＶＣケンウッド　白山事業所",
    "office_name_kana": "カブシキガイシヤ ジエイブイシ-ケンウツド ハクサンジギヨウシヨ"
  },
  "8555": {
    "postcode": "2268555",
    "prefecture": "神奈川県",
    "prefecture_kana": "カナガワケン",
    "prefecture_code": 14,
    "city": "横浜市緑区",
    "city_kana": "ヨコハマシミドリク",
    "town": "十日市場町",
    "town_kana": "トオカイチバチョウ",
    "street": "１８６５",
    "office_name": "昭和大学　保健医療学部",
    "office_name_kana": "シヨウワダイガク ホケンイリヨウガクブ"
  },
  "8570": {
    "postcode": "2268570",
    "prefecture": "神奈川県",
    "prefecture_kana": "カナガワケン",
    "prefecture_code": 14,
    "city": "横浜市緑区",
    "city_kana": "ヨコハマシミドリク",
    "town": "寺山町",
    "town_kana": "テラヤマチョウ",
    "street": "１１８",
    "office_name": "緑区役所",
    "office_name_kana": "ミドリクヤクシヨ"
  }
}