{
  "0000": {
    "postcode": "2430000",
    "prefecture": "神奈川県",
    "prefecture_kana": "カナガワケン",
    "prefecture_code": 14,
    "city": "厚木市",
    "city_kana": "アツギシ",
    "town": "",
    "town_kana": "",
    "street": null,
    "office_name": null,
    "office_name_kana": null
  },
  "0001": {
    "postcode": "2430001",
    "prefecture": "神奈川県",
    "prefecture_kana": "カナガワケン",
    "prefecture_code": 14,
    "city": "厚木市",
    "city_kana": "アツギシ",
    "town": "東町",
    "town_kana": "ヒガシチョウ",
    "street": null,
    "office_name": null,
    "office_name_kana": null
  },
  "0002": {
    "postcode": "2430002",
    "prefecture": "神奈川県",
    "prefecture_kana": "カナガワケン",
    "prefecture_code": 14,
    "city": "厚木市",
    "city_kana": "アツギシ",
    "town": "元町",
    "town_kana": "モトチョウ",
    "street": null,
    "office_name": null,
    "office_name_kana": null
  },
  "0003": {
    "postcode": "2430003",
    "prefecture": "神奈川県",
    "prefecture_kana": "カナガワケン",
    "prefecture_code": 14,
    "city": "厚木市",
    "city_kana": "アツギシ",
    "town": "寿町",
    "town_kana": "コトブキチョウ",
    "street": null,
    "office_name": null,
    "office_name_kana": null
  },
  "0004": {
    "postcode": "2430004",
    "prefecture": "神奈川県",
    "prefecture_kana": "カナガワケン",
    "prefecture_code": 14,
    "city": "厚木市",
    "city_kana": "アツギシ",
    "town": "水引",
    "town_kana": "ミズヒキ",
    "street": null,
    "office_name": null,
    "office_name_kana": null
  },
  "0005": {
    "postcode": "2430005",
    "prefecture": "神奈川県",
    "prefecture_kana": "カナガワケン",
    "prefecture_code": 14,
    "city": "厚木市",
    "city_kana": "アツギシ",
    "town": "松枝",
    "town_kana": "マツエ",
    "street": null,
    "office_name": null,
    "office_name_kana": null
  },
  "0006": {
    "postcode": "2430006",
    "prefecture": "神奈川県",
    "prefecture_kana": "カナガワケン",
    "prefecture_code": 14,
    "city": "厚木市",
    "city_kana": "アツギシ",
    "town": "吾妻町",
    "town_kana": "アヅマチョウ",
    "street": null,
    "office_name": null,
    "office_name_kana": null
  },
  "0007": {
    "postcode": "2430007",
    "prefecture": "神奈川県",
    "prefecture_kana": "カナガワケン",
    "prefecture_code": 14,
    "city": "厚木市",
    "city_kana": "アツギシ",
    "town": "厚木",
    "town_kana": "アツギ",
    "street": null,
    "office_name": null,
    "office_name_kana": null
  },
  "0011": {
    "postcode": "2430011",
    "prefecture": "神奈川県",
    "prefecture_kana": "カナガワケン",
    "prefecture_code": 14,
    "city": "厚木市",
    "city_kana": "アツギシ",
    "town": "厚木町",
    "town_kana": "アツギチョウ",
    "street": null,
    "office_name": null,
    "office_name_kana": null
  },
  "0012": {
    "postcode": "2430012",
    "prefecture": "神奈川県",
    "prefecture_kana": "カナガワケン",
    "prefecture_code": 14,
    "city": "厚木市",
    "city_kana": "アツギシ",
    "town": "幸町",
    "town_kana": "サイワイチョウ",
    "street": null,
    "office_name": null,
    "office_name_kana": null
  },
  "0013": {
    "postcode": "2430013",
    "prefecture": "神奈川県",
    "prefecture_kana": "カナガワケン",
    "prefecture_code": 14,
    "city": "厚木市",
    "city_kana": "アツギシ",
    "town": "泉町",
    "town_kana": "イズミチョウ",
    "street": null,
    "office_name": null,
    "office_name_kana": null
  },
  "0014": {
    "postcode": "2430014",
    "prefecture": "神奈川県",
    "prefecture_kana": "カナガワケン",
    "prefecture_code": 14,
    "city": "厚木市",
    "city_kana": "アツギシ",
    "town": "旭町",
    "town_kana": "アサヒチョウ",
    "street": null,
    "office_name": null,
    "office_name_kana": null
  },
  "0015": {
    "postcode": "2430015",
    "prefecture": "神奈川県",
    "prefecture_kana": "カナガワケン",
    "prefecture_code": 14,
    "city": "厚木市",
    "city_kana": "アツギシ",
    "town": "南町",
    "town_kana": "ミナミチョウ",
    "street": null,
    "office_name": null,
    "office_name_kana": null
  },
  "0016": {
    "postcode": "2430016",
    "prefecture": "神奈川県",
    "prefecture_kana": "カナガワケン",
    "prefecture_code": 14,
    "city": "厚木市",
    "city_kana": "アツギシ",
    "town": "田村町",
    "town_kana": "タムラチョウ",
    "street": null,
    "office_name": null,
    "office_name_kana": null
  },
  "0017": {
    "postcode": "2430017",
    "prefecture": "神奈川県",
    "prefecture_kana": "カナガワケン",
    "prefecture_code": 14,
    "city": "厚木市",
    "city_kana": "アツギシ",
    "town": "栄町",
    "town_kana": "サカエチョウ",
    "street": null,
    "office_name": null,
    "office_name_kana": null
  },
  "0018": {
    "postcode": "2430018",
    "prefecture": "神奈川県",
    "prefecture_kana": "カナガワケン",
    "prefecture_code": 14,
    "city": "厚木市",
    "city_kana": "アツギシ",
    "town": "中町",
    "town_kana": "ナカチョウ",
    "street": null,
    "office_name": null,
    "office_name_kana": null
  },
  "0021": {
    "postcode": "2430021",
    "prefecture": "神奈川県",
    "prefecture_kana": "カナガワケン",
    "prefecture_code": 14,
    "city": "厚木市",
    "city_kana": "アツギシ",
    "town": "岡田",
    "town_kana": "オカタ",
    "street": null,
    "office_name": null,
    "office_name_kana": null
  },
  "0022": {
    "postcode": "2430022",
    "prefecture": "神奈川県",
    "prefecture_kana": "カナガワケン",
    "prefecture_code": 14,
    "city": "厚木市",
    "city_kana": "アツギシ",
    "town": "酒井",
    "town_kana": "サカイ",
    "street": null,
    "office_name": null,
    "office_name_kana": null
  },
  "0023": {
    "postcode": "2430023",
    "prefecture": "神奈川県",
    "prefecture_kana": "カナガワケン",
    "prefecture_code": 14,
    "city": "厚木市",
    "city_kana": "アツギシ",
    "town": "戸田",
    "town_kana": "トダ",
    "street": null,
    "office_name": null,
    "office_name_kana": null
  },
  "0024": {
    "postcode": "2430024",
    "prefecture": "神奈川県",
    "prefecture_kana": "カナガワケン",
    "prefecture_code": 14,
    "city": "厚木市",
    "city_kana": "アツギシ",
    "town": "長沼",
    "town_kana": "ナガヌマ",
    "street": null,
    "office_name": null,
    "office_name_kana": null
  },
  "0025": {
    "postcode": "2430025",
    "prefecture": "神奈川県",
    "prefecture_kana": "カナガワケン",
    "prefecture_code": 14,
    "city": "厚木市",
    "city_kana": "アツギシ",
    "town": "上落合",
    "town_kana": "カミオチアイ",
    "street": null,
    "office_name": null,
    "office_name_kana": null
  },
  "0026": {
    "postcode": "2430026",
    "prefecture": "神奈川県",
    "prefecture_kana": "カナガワケン",
    "prefecture_code": 14,
    "city": "厚木市",
    "city_kana": "アツギシ",
    "town": "下津古久",
    "town_kana": "シモツコク",
    "street": null,
    "office_name": null,
    "office_name_kana": null
  },
  "0027": {
    "postcode": "2430027",
    "prefecture": "神奈川県",
    "prefecture_kana": "カナガワケン",
    "prefecture_code": 14,
    "city": "厚木市",
    "city_kana": "アツギシ",
    "town": "愛甲東",
    "town_kana": "アイコウヒガシ",
    "street": null,
    "office_name": null,
    "office_name_kana": null
  },
  "0028": {
    "postcode": "2430028",
    "prefecture": "神奈川県",
    "prefecture_kana": "カナガワケン",
    "prefecture_code": 14,
    "city": "厚木市",
    "city_kana": "アツギシ",
    "town": "愛甲西",
    "town_kana": "アイコウニシ",
    "street": null,
    "office_name": null,
    "office_name_kana": null
  },
  "0031": {
    "postcode": "2430031",
    "prefecture": "神奈川県",
    "prefecture_kana": "カナガワケン",
    "prefecture_code": 14,
    "city": "厚木市",
    "city_kana": "アツギシ",
    "town": "戸室",
    "town_kana": "トムロ",
    "street": null,
    "office_name": null,
    "office_name_kana": null
  },
  "0032": {
    "postcode": "2430032",
    "prefecture": "神奈川県",
    "prefecture_kana": "カナガワケン",
    "prefecture_code": 14,
    "city": "厚木市",
    "city_kana": "アツギシ",
    "town": "恩名",
    "town_kana": "オンナ",
    "street": null,
    "office_name": null,
    "office_name_kana": null
  },
  "0033": {
    "postcode": "2430033",
    "prefecture": "神奈川県",
    "prefecture_kana": "カナガワケン",
    "prefecture_code": 14,
    "city": "厚木市",
    "city_kana": "アツギシ",
    "town": "温水",
    "town_kana": "ヌルミズ",
    "street": null,
    "office_name": null,
    "office_name_kana": null
  },
  "0034": {
    "postcode": "2430034",
    "prefecture": "神奈川県",
    "prefecture_kana": "カナガワケン",
    "prefecture_code": 14,
    "city": "厚木市",
    "city_kana": "アツギシ",
    "town": "船子",
    "town_kana": "フナコ",
    "street": null,
    "office_name": null,
    "office_name_kana": null
  },
  "0035": {
    "postcode": "2430035",
    "prefecture": "神奈川県",
    "prefecture_kana": "カナガワケン",
    "prefecture_code": 14,
    "city": "厚木市",
    "city_kana": "アツギシ",
    "town": "愛甲",
    "town_kana": "アイコウ",
    "street": null,
    "office_name": null,
    "office_name_kana": null
  },
  "0036": {
    "postcode": "2430036",
    "prefecture": "神奈川県",
    "prefecture_kana": "カナガワケン",
    "prefecture_code": 14,
    "city": "厚木市",
    "city_kana": "アツギシ",
    "town": "長谷",
    "town_kana": "ハセ",
    "street": null,
    "office_name": null,
    "office_name_kana": null
  },
  "0037": {
    "postcode": "2430037",
    "prefecture": "神奈川県",
    "prefecture_kana": "カナガワケン",
    "prefecture_code": 14,
    "city": "厚木市",
    "city_kana": "アツギシ",
    "town": "毛利台",
    "town_kana": "モウリダイ",
    "street": null,
    "office_name": null,
    "office_name_kana": null
  },
  "0038": {
    "postcode": "2430038",
    "prefecture": "神奈川県",
    "prefecture_kana": "カナガワケン",
    "prefecture_code": 14,
    "city": "厚木市",
    "city_kana": "アツギシ",
    "town": "愛名",
    "town_kana": "アイナ",
    "street": null,
    "office_name": null,
    "office_name_kana": null
  },
  "0039": {
    "postcode": "2430039",
    "prefecture": "神奈川県",
    "prefecture_kana": "カナガワケン",
    "prefecture_code": 14,
    "city": "厚木市",
    "city_kana": "アツギシ",
    "town": "温水西",
    "town_kana": "ヌルミズニシ",
    "street": null,
    "office_name": null,
    "office_name_kana": null
  },
  "0041": {
    "postcode": "2430041",
    "prefecture": "神奈川県",
    "prefecture_kana": "カナガワケン",
    "prefecture_code": 14,
    "city": "厚木市",
    "city_kana": "アツギシ",
    "town": "緑ケ丘",
    "town_kana": "ミドリガオカ",
    "street": null,
    "office_name": null,
    "office_name_kana": null
  },
  "0100": {
    "postcode": "2430100",
    "prefecture": "神奈川県",
    "prefecture_kana": "カナガワケン",
    "prefecture_code": 14,
    "city": "愛甲郡清川村",
    "city_kana": "アイコウグンキヨカワムラ",
    "town": "",
    "town_kana": "",
    "street": null,
    "office_name": null,
    "office_name_kana": null
  },
  "0111": {
    "postcode": "2430111",
    "prefecture": "神奈川県",
    "prefecture_kana": "カナガワケン",
    "prefecture_code": 14,
    "city": "愛甲郡清川村",
    "city_kana": "アイコウグンキヨカワムラ",
    "town": "宮ヶ瀬",
    "town_kana": "ミヤガセ",
    "street": null,
    "office_name": null,
    "office_name_kana": null
  },
  "0112": {
    "postcode": "2430112",
    "prefecture": "神奈川県",
    "prefecture_kana": "カナガワケン",
    "prefecture_code": 14,
    "city": "愛甲郡清川村",
    "city_kana": "アイコウグンキヨカワムラ",
    "town": "煤ヶ谷",
    "town_kana": "ススガヤ",
    "street": null,
    "office_name": null,
    "office_name_kana": null
  },
  "0121": {
    "postcode": "2430121",
    "prefecture": "神奈川県",
    "prefecture_kana": "カナガワケン",
    "prefecture_code": 14,
    "city": "厚木市",
    "city_kana": "アツギシ",
    "town": "七沢",
    "town_kana": "ナナサワ",
    "street": null,
    "office_name": null,
    "office_name_kana": null
  },
  "0122": {
    "postcode": "2430122",
    "prefecture": "神奈川県",
    "prefecture_kana": "カナガワケン",
    "prefecture_code": 14,
    "city": "厚木市",
    "city_kana": "アツギシ",
    "town": "森の里",
    "town_kana": "モリノサト",
    "street": null,
    "office_name": null,
    "office_name_kana": null
  },
  "0123": {
    "postcode": "2430123",
    "prefecture": "神奈川県",
    "prefecture_kana": "カナガワケン",
    "prefecture_code": 14,
    "city": "厚木市",
    "city_kana": "アツギシ",
    "town": "森の里青山",
    "town_kana": "モリノサトアオヤマ",
    "street": null,
    "office_name": null,
    "office_name_kana": null
  },
  "0124": {
    "postcode": "2430124",
    "prefecture": "神奈川県",
    "prefecture_kana": "カナガワケン",
    "prefecture_code": 14,
    "city": "厚木市",
    "city_kana": "アツギシ",
    "town": "森の里若宮",
    "town_kana": "モリノサトワカミヤ",
    "street": null,
    "office_name": null,
    "office_name_kana": null
  },
  "0125": {
    "postcode": "2430125",
    "prefecture": "神奈川県",
    "prefecture_kana": "カナガワケン",
    "prefecture_code": 14,
    "city": "厚木市",
    "city_kana": "アツギシ",
    "town": "小野",
    "town_kana": "オノ",
    "street": null,
    "office_name": null,
    "office_name_kana": null
  },
  "0126": {
    "postcode": "2430126",
    "prefecture": "神奈川県",
    "prefecture_kana": "カナガワケン",
    "prefecture_code": 14,
    "city": "厚木市",
    "city_kana": "アツギシ",
    "town": "岡津古久",
    "town_kana": "オカツコク",
    "street": null,
    "office_name": null,
    "office_name_kana": null
  },
  "0127": {
    "postcode": "2430127",
    "prefecture": "神奈川県",
    "prefecture_kana": "カナガワケン",
    "prefecture_code": 14,
    "city": "厚木市",
    "city_kana": "アツギシ",
    "town": "森の里紅葉台",
    "town_kana": "モリノサトモミジダイ",
    "street": null,
    "office_name": null,
    "office_name_kana": null
  },
  "0192": {
    "postcode": "2430192",
    "prefecture": "神奈川県",
    "prefecture_kana": "カナガワケン",
    "prefecture_code": 14,
    "city": "厚木市",
    "city_kana": "アツギシ",
    "town": "岡津古久",
    "town_kana": "オカツコク",
    "street": "５６０−２",
    "office_name": "日産自動車　株式会社　日産テクニカルセンター",
    "office_name_kana": "ニツサンジドウシヤ カブシキガイシヤ ニツサンテクニカルセンタ-"
  },
  "0193": {
    "postcode": "2430193",
    "prefecture": "神奈川県",
    "prefecture_kana": "カナガワケン",
    "prefecture_code": 14,
    "city": "厚木市",
    "city_kana": "アツギシ",
    "town": "森の里若宮",
    "town_kana": "モリノサトワカミヤ",
    "street": "５−１",
    "office_name": "キヤノン　株式会社　中央研究所",
    "office_name_kana": "キヤノン カブシキガイシヤ チユウオウケンキユウシヨ"
  },
  "0195": {
    "postcode": "2430195",
    "prefecture": "神奈川県",
    "prefecture_kana": "カナガワケン",
    "prefecture_code": 14,
    "city": "愛甲郡清川村",
    "city_kana": "アイコウグンキヨカワムラ",
    "town": "煤ヶ谷",
    "town_kana": "ススガヤ",
    "street": "２２１６番地",
    "office_name": "清川村役場",
    "office_name_kana": "キヨカワムラヤクバ"
  },
  "0197": {
    "postcode": "2430197",
    "prefecture": "神奈川県",
    "prefecture_kana": "カナガワケン",
    "prefecture_code": 14,
    "city": "厚木市",
    "city_kana": "アツギシ",
    "town": "森の里若宮",
    "town_kana": "モリノサトワカミヤ",
    "street": "１０−１",
    "office_name": "富士通　（株）　厚木研究所",
    "office_name_kana": "フジツウ カブシキカイシヤ アツギケンキユウシヨ"
  },
  "0198": {
    "postcode": "2430198",
    "prefecture": "神奈川県",
    "prefecture_kana": "カナガワケン",
    "prefecture_code": 14,
    "city": "厚木市",
    "city_kana": "アツギシ",
    "town": "森の里若宮",
    "town_kana": "モリノサトワカミヤ",
    "street": "３−１",
    "office_name": "Ｎ・Ｔ・Ｔ・基礎技術総合研究所",
    "office_name_kana": "エヌ・テイ・テイ・キソギジユツソウゴウケンキユウシヨ"
  },
  "0201": {
    "postcode": "2430201",
    "prefecture": "神奈川県",
    "prefecture_kana": "カナガワケン",
    "prefecture_code": 14,
    "city": "厚木市",
    "city_kana": "アツギシ",
    "town": "上荻野",
    "town_kana": "カミオギノ",
    "street": null,
    "office_name": null,
    "office_name_kana": null
  },
  "0202": {
    "postcode": "2430202",
    "prefecture": "神奈川県",
    "prefecture_kana": "カナガワケン",
    "prefecture_code": 14,
    "city": "厚木市",
    "city_kana": "アツギシ",
    "town": "中荻野",
    "town_kana": "ナカオギノ",
    "street": null,
    "office_name": null,
    "office_name_kana": null
  },
  "0203": {
    "postcode": "2430203",
    "prefecture": "神奈川県",
    "prefecture_kana": "カナガワケン",
    "prefecture_code": 14,
    "city": "厚木市",
    "city_kana": "アツギシ",
    "town": "下荻野",
    "town_kana": "シモオギノ",
    "street": null,
    "office_name": null,
    "office_name_kana": null
  },
  "0204": {
    "postcode": "2430204",
    "prefecture": "神奈川県",
    "prefecture_kana": "カナガワケン",
    "prefecture_code": 14,
    "city": "厚木市",
    "city_kana": "アツギシ",
    "town": "鳶尾",
    "town_kana": "トビオ",
    "street": null,
    "office_name": null,
    "office_name_kana": null
  },
  "0205": {
    "postcode": "2430205",
    "prefecture": "神奈川県",
    "prefecture_kana": "カナガワケン",
    "prefecture_code": 14,
    "city": "厚木市",
    "city_kana": "アツギシ",
    "town": "棚沢",
    "town_kana": "タナザワ",
    "street": null,
    "office_name": null,
    "office_name_kana": null
  },
  "0206": {
    "postcode": "2430206",
    "prefecture": "神奈川県",
    "prefecture_kana": "カナガワケン",
    "prefecture_code": 14,
    "city": "厚木市",
    "city_kana": "アツギシ",
    "town": "下川入",
    "town_kana": "シモカワイリ",
    "street": null,
    "office_name": null,
    "office_name_kana": null
  },
  "0207": {
    "postcode": "2430207",
    "prefecture": "神奈川県",
    "prefecture_kana": "カナガワケン",
    "prefecture_code": 14,
    "city": "厚木市",
    "city_kana": "アツギシ",
    "town": "まつかげ台",
    "town_kana": "マツカゲダイ",
    "street": null,
    "office_name": null,
    "office_name_kana": null
  },
  "0208": {
    "postcode": "2430208",
    "prefecture": "神奈川県",
    "prefecture_kana": "カナガワケン",
    "prefecture_code": 14,
    "city": "厚木市",
    "city_kana": "アツギシ",
    "town": "みはる野",
    "town_kana": "ミハルノ",
    "street": null,
    "office_name": null,
    "office_name_kana": null
  },
  "0211": {
    "postcode": "2430211",
    "prefecture": "神奈川県",
    "prefecture_kana": "カナガワケン",
    "prefecture_code": 14,
    "city": "厚木市",
    "city_kana": "アツギシ",
    "town": "三田",
    "town_kana": "サンダ",
    "street": null,
    "office_name": null,
    "office_name_kana": null
  },
  "0212": {
    "postcode": "2430212",
    "prefecture": "神奈川県",
    "prefecture_kana": "カナガワケン",
    "prefecture_code": 14,
    "city": "厚木市",
    "city_kana": "アツギシ",
    "town": "及川",
    "town_kana": "オイガワ",
    "street": null,
    "office_name": null,
    "office_name_kana": null
  },
  "0213": {
    "postcode": "2430213",
    "prefecture": "神奈川県",
    "prefecture_kana": "カナガワケン",
    "prefecture_code": 14,
    "city": "厚木市",
    "city_kana": "アツギシ",
    "town": "飯山",
    "town_kana": "イイヤマ",
    "street": null,
    "office_name": null,
    "office_name_kana": null
  },
  "0214": {
    "postcode": "2430214",
    "prefecture": "神奈川県",
    "prefecture_kana": "カナガワケン",
    "prefecture_code": 14,
    "city": "厚木市",
    "city_kana": "アツギシ",
    "town": "下古沢",
    "town_kana": "シモフルサワ",
    "street": null,
    "office_name": null,
    "office_name_kana": null
  },
  "0215": {
    "postcode": "2430215",
    "prefecture": "神奈川県",
    "prefecture_kana": "カナガワケン",
    "prefecture_code": 14,
    "city": "厚木市",
    "city_kana": "アツギシ",
    "town": "上古沢",
    "town_kana": "カミフルサワ",
    "street": null,
    "office_name": null,
    "office_name_kana": null
  },
  "0216": {
    "postcode": "2430216",
    "prefecture": "神奈川県",
    "prefecture_kana": "カナガワケン",
    "prefecture_code": 14,
    "city": "厚木市",
    "city_kana": "アツギシ",
    "town": "宮の里",
    "town_kana": "ミヤノサト",
    "street": null,
    "office_name": null,
    "office_name_kana": null
  },
  "0217": {
    "postcode": "2430217",
    "prefecture": "神奈川県",
    "prefecture_kana": "カナガワケン",
    "prefecture_code": 14,
    "city": "厚木市",
    "city_kana": "アツギシ",
    "town": "三田南",
    "town_kana": "サンダミナミ",
    "street": null,
    "office_name": null,
    "office_name_kana": null
  },
  "0218": {
    "postcode": "2430218",
    "prefecture": "神奈川県",
    "prefecture_kana": "カナガワケン",
    "prefecture_code": 14,
    "city": "厚木市",
    "city_kana": "アツギシ",
    "town": "飯山南",
    "town_kana": "イイヤマミナミ",
    "street": null,
    "office_name": null,
    "office_name_kana": null
  },
  "0281": {
    "postcode": "2430281",
    "prefecture": "神奈川県",
    "prefecture_kana": "カナガワケン",
    "prefecture_code": 14,
    "city": "厚木市",
    "city_kana": "アツギシ",
    "town": "上依知",
    "town_kana": "カミエチ",
    "street": "３０３４",
    "office_name": "日本フルハーフ　株式会社",
    "office_name_kana": "ニツポンフルハ-フ カブシキガイシヤ"
  },
  "0292": {
    "postcode": "2430292",
    "prefecture": "神奈川県",
    "prefecture_kana": "カナガワケン",
    "prefecture_code": 14,
    "city": "厚木市",
    "city_kana": "アツギシ",
    "town": "下荻野",
    "town_kana": "シモオギノ",
    "street": "１０３０",
    "office_name": "神奈川工科大学",
    "office_name_kana": "カナガワコウカダイガク"
  },
  "0297": {
    "postcode": "2430297",
    "prefecture": "神奈川県",
    "prefecture_kana": "カナガワケン",
    "prefecture_code": 14,
    "city": "厚木市",
    "city_kana": "アツギシ",
    "town": "飯山南",
    "town_kana": "イイヤマミナミ",
    "street": "５丁目４５−１",
    "office_name": "東京工芸大学",
    "office_name_kana": "トウキヨウコウゲイダイガク"
  },
  "0298": {
    "postcode": "2430298",
    "prefecture": "神奈川県",
    "prefecture_kana": "カナガワケン",
    "prefecture_code": 14,
    "city": "厚木市",
    "city_kana": "アツギシ",
    "town": "下荻野",
    "town_kana": "シモオギノ",
    "street": "１００５",
    "office_name": "株式会社　リコー　厚木事業所",
    "office_name_kana": "カブシキガイシヤ リコ- アツギジギヨウシヨ"
  },
  "0300": {
    "postcode": "2430300",
    "prefecture": "神奈川県",
    "prefecture_kana": "カナガワケン",
    "prefecture_code": 14,
    "city": "愛甲郡愛川町",
    "city_kana": "アイコウグンアイカワマチ",
    "town": "",
    "town_kana": "",
    "street": null,
    "office_name": null,
    "office_name_kana": null
  },
  "0301": {
    "postcode": "2430301",
    "prefecture": "神奈川県",
    "prefecture_kana": "カナガワケン",
    "prefecture_code": 14,
    "city": "愛甲郡愛川町",
    "city_kana": "アイコウグンアイカワマチ",
    "town": "角田",
    "town_kana": "スミダ",
    "street": null,
    "office_name": null,
    "office_name_kana": null
  },
  "0302": {
    "postcode": "2430302",
    "prefecture": "神奈川県",
    "prefecture_kana": "カナガワケン",
    "prefecture_code": 14,
    "city": "愛甲郡愛川町",
    "city_kana": "アイコウグンアイカワマチ",
    "town": "春日台",
    "town_kana": "カスガダイ",
    "street": null,
    "office_name": null,
    "office_name_kana": null
  },
  "0303": {
    "postcode": "2430303",
    "prefecture": "神奈川県",
    "prefecture_kana": "カナガワケン",
    "prefecture_code": 14,
    "city": "愛甲郡愛川町",
    "city_kana": "アイコウグンアイカワマチ",
    "town": "中津",
    "town_kana": "ナカツ",
    "street": null,
    "office_name": null,
    "office_name_kana": null
  },
  "0304": {
    "postcode": "2430304",
    "prefecture": "神奈川県",
    "prefecture_kana": "カナガワケン",
    "prefecture_code": 14,
    "city": "愛甲郡愛川町",
    "city_kana": "アイコウグンアイカワマチ",
    "town": "棚沢",
    "town_kana": "タナザワ",
    "street": null,
    "office_name": null,
    "office_name_kana": null
  },
  "0305": {
    "postcode": "2430305",
    "prefecture": "神奈川県",
    "prefecture_kana": "カナガワケン",
    "prefecture_code": 14,
    "city": "愛甲郡愛川町",
    "city_kana": "アイコウグンアイカワマチ",
    "town": "八菅山",
    "town_kana": "ハスゲサン",
    "street": null,
    "office_name": null,
    "office_name_kana": null
  },
  "0306": {
    "postcode": "2430306",
    "prefecture": "神奈川県",
    "prefecture_kana": "カナガワケン",
    "prefecture_code": 14,
    "city": "愛甲郡愛川町",
    "city_kana": "アイコウグンアイカワマチ",
    "town": "田代",
    "town_kana": "タシロ",
    "street": null,
    "office_name": null,
    "office_name_kana": null
  },
  "0307": {
    "postcode": "2430307",
    "prefecture": "神奈川県",
    "prefecture_kana": "カナガワケン",
    "prefecture_code": 14,
    "city": "愛甲郡愛川町",
    "city_kana": "アイコウグンアイカワマチ",
    "town": "半原",
    "town_kana": "ハンバラ",
    "street": null,
    "office_name": null,
    "office_name_kana": null
  },
  "0308": {
    "postcode": "2430308",
    "prefecture": "神奈川県",
    "prefecture_kana": "カナガワケン",
    "prefecture_code": 14,
    "city": "愛甲郡愛川町",
    "city_kana": "アイコウグンアイカワマチ",
    "town": "三増",
    "town_kana": "ミマセ",
    "street": null,
    "office_name": null,
    "office_name_kana": null
  },
  "0392": {
    "postcode": "2430392",
    "prefecture": "神奈川県",
    "prefecture_kana": "カナガワケン",
    "prefecture_code": 14,
    "city": "愛甲郡愛川町",
    "city_kana": "アイコウグンアイカワマチ",
    "town": "角田",
    "town_kana": "スミダ",
    "street": "２５１−１",
    "office_name": "愛川町役場",
    "office_name_kana": "アイカワマチヤクバ"
  },
  "0393": {
    "postcode": "2430393",
    "prefecture": "神奈川県",
    "prefecture_kana": "カナガワケン",
    "prefecture_code": 14,
    "city": "愛甲郡愛川町",
    "city_kana": "アイコウグンアイカワマチ",
    "town": "中津",
    "town_kana": "ナカツ",
    "street": "４０２５−１厚木Ⅲロジスティクスセンター５ＦＯｕｔｂｏｕｎｄ１〜１０番バースＩｎｂｏｕｎｄ１１〜１９番バース",
    "office_name": "アマゾン厚木ＴＣ　ＸＪＥ２",
    "office_name_kana": "アマゾンアツギテイ-シ- エツクスジエイイ-ツ-"
  },
  "0400": {
    "postcode": "2430400",
    "prefecture": "神奈川県",
    "prefecture_kana": "カナガワケン",
    "prefecture_code": 14,
    "city": "海老名市",
    "city_kana": "エビナシ",
    "town": "",
    "town_kana": "",
    "street": null,
    "office_name": null,
    "office_name_kana": null
  },
  "0401": {
    "postcode": "2430401",
    "prefecture": "神奈川県",
    "prefecture_kana": "カナガワケン",
    "prefecture_code": 14,
    "city": "海老名市",
    "city_kana": "エビナシ",
    "town": "東柏ケ谷",
    "town_kana": "ヒガシカシワガヤ",
    "street": null,
    "office_name": null,
    "office_name_kana": null
  },
  "0402": {
    "postcode": "2430402",
    "prefecture": "神奈川県",
    "prefecture_kana": "カナガワケン",
    "prefecture_code": 14,
    "city": "海老名市",
    "city_kana": "エビナシ",
    "town": "柏ケ谷",
    "town_kana": "カシワガヤ",
    "street": null,
    "office_name": null,
    "office_name_kana": null
  },
  "0403": {
    "postcode": "2430403",
    "prefecture": "神奈川県",
    "prefecture_kana": "カナガワケン",
    "prefecture_code": 14,
    "city": "海老名市",
    "city_kana": "エビナシ",
    "town": "望地",
    "town_kana": "モウチ",
    "street": null,
    "office_name": null,
    "office_name_kana": null
  },
  "0404": {
    "postcode": "2430404",
    "prefecture": "神奈川県",
    "prefecture_kana": "カナガワケン",
    "prefecture_code": 14,
    "city": "海老名市",
    "city_kana": "エビナシ",
    "town": "勝瀬",
    "town_kana": "カツセ",
    "street": null,
    "office_name": null,
    "office_name_kana": null
  },
  "0405": {
    "postcode": "2430405",
    "prefecture": "神奈川県",
    "prefecture_kana": "カナガワケン",
    "prefecture_code": 14,
    "city": "海老名市",
    "city_kana": "エビナシ",
    "town": "国分南",
    "town_kana": "コクブミナミ",
    "street": null,
    "office_name": null,
    "office_name_kana": null
  },
  "0406": {
    "postcode": "2430406",
    "prefecture": "神奈川県",
    "prefecture_kana": "カナガワケン",
    "prefecture_code": 14,
    "city": "海老名市",
    "city_kana": "エビナシ",
    "town": "国分北",
    "town_kana": "コクブキタ",
    "street": null,
    "office_name": null,
    "office_name_kana": null
  },
  "0410": {
    "postcode": "2430410",
    "prefecture": "神奈川県",
    "prefecture_kana": "カナガワケン",
    "prefecture_code": 14,
    "city": "海老名市",
    "city_kana": "エビナシ",
    "town": "杉久保北",
    "town_kana": "スギクボキタ",
    "street": null,
    "office_name": null,
    "office_name_kana": null
  },
  "0411": {
    "postcode": "2430411",
    "prefecture": "神奈川県",
    "prefecture_kana": "カナガワケン",
    "prefecture_code": 14,
    "city": "海老名市",
    "city_kana": "エビナシ",
    "town": "大谷",
    "town_kana": "オオヤ",
    "street": null,
    "office_name": null,
    "office_name_kana": null
  },
  "0412": {
    "postcode": "2430412",
    "prefecture": "神奈川県",
    "prefecture_kana": "カナガワケン",
    "prefecture_code": 14,
    "city": "海老名市",
    "city_kana": "エビナシ",
    "town": "浜田町",
    "town_kana": "ハマダチョウ",
    "street": null,
    "office_name": null,
    "office_name_kana": null
  },
  "0413": {
    "postcode": "2430413",
    "prefecture": "神奈川県",
    "prefecture_kana": "カナガワケン",
    "prefecture_code": 14,
    "city": "海老名市",
    "city_kana": "エビナシ",
    "town": "国分寺台",
    "town_kana": "コクブンジダイ",
    "street": null,
    "office_name": null,
    "office_name_kana": null
  },
  "0414": {
    "postcode": "2430414",
    "prefecture": "神奈川県",
    "prefecture_kana": "カナガワケン",
    "prefecture_code": 14,
    "city": "海老名市",
    "city_kana": "エビナシ",
    "town": "杉久保",
    "town_kana": "スギクボ",
    "street": null,
    "office_name": null,
    "office_name_kana": null
  },
  "0415": {
    "postcode": "2430415",
    "prefecture": "神奈川県",
    "prefecture_kana": "カナガワケン",
    "prefecture_code": 14,
    "city": "海老名市",
    "city_kana": "エビナシ",
    "town": "上河内",
    "town_kana": "カミゴウチ",
    "street": null,
    "office_name": null,
    "office_name_kana": null
  },
  "0416": {
    "postcode": "2430416",
    "prefecture": "神奈川県",
    "prefecture_kana": "カナガワケン",
    "prefecture_code": 14,
    "city": "海老名市",
    "city_kana": "エビナシ",
    "town": "中河内",
    "town_kana": "ナカゴウチ",
    "street": null,
    "office_name": null,
    "office_name_kana": null
  },
  "0417": {
    "postcode": "2430417",
    "prefecture": "神奈川県",
    "prefecture_kana": "カナガワケン",
    "prefecture_code": 14,
    "city": "海老名市",
    "city_kana": "エビナシ",
    "town": "本郷",
    "town_kana": "ホンゴウ",
    "street": null,
    "office_name": null,
    "office_name_kana": null
  },
  "0418": {
    "postcode": "2430418",
    "prefecture": "神奈川県",
    "prefecture_kana": "カナガワケン",
    "prefecture_code": 14,
    "city": "海老名市",
    "city_kana": "エビナシ",
    "town": "大谷南",
    "town_kana": "オオヤミナミ",
    "street": null,
    "office_name": null,
    "office_name_kana": null
  },
  "0419": {
    "postcode": "2430419",
    "prefecture": "神奈川県",
    "prefecture_kana": "カナガワケン",
    "prefecture_code": 14,
    "city": "海老名市",
    "city_kana": "エビナシ",
    "town": "大谷北",
    "town_kana": "オオヤキタ",
    "street": null,
    "office_name": null,
    "office_name_kana": null
  },
  "0421": {
    "postcode": "2430421",
    "prefecture": "神奈川県",
    "prefecture_kana": "カナガワケン",
    "prefecture_code": 14,
    "city": "海老名市",
    "city_kana": "エビナシ",
    "town": "さつき町",
    "town_kana": "サツキチョウ",
    "street": null,
    "office_name": null,
    "office_name_kana": null
  },
  "0422": {
    "postcode": "2430422",
    "prefecture": "神奈川県",
    "prefecture_kana": "カナガワケン",
    "prefecture_code": 14,
    "city": "海老名市",
    "city_kana": "エビナシ",
    "town": "中新田",
    "town_kana": "ナカシンデン",
    "street": null,
    "office_name": null,
    "office_name_kana": null
  },
  "0423": {
    "postcode": "2430423",
    "prefecture": "神奈川県",
    "prefecture_kana": "カナガワケン",
    "prefecture_code": 14,
    "city": "海老名市",
    "city_kana": "エビナシ",
    "town": "今里",
    "town_kana": "イマザト",
    "street": null,
    "office_name": null,
    "office_name_kana": null
  },
  "0424": {
    "postcode": "2430424",
    "prefecture": "神奈川県",
    "prefecture_kana": "カナガワケン",
    "prefecture_code": 14,
    "city": "海老名市",
    "city_kana": "エビナシ",
    "town": "社家",
    "town_kana": "シャケ",
    "street": null,
    "office_name": null,
    "office_name_kana": null
  },
  "0425": {
    "postcode": "2430425",
    "prefecture": "神奈川県",
    "prefecture_kana": "カナガワケン",
    "prefecture_code": 14,
    "city": "海老名市",
    "city_kana": "エビナシ",
    "town": "中野",
    "town_kana": "ナカノ",
    "street": null,
    "office_name": null,
    "office_name_kana": null
  },
  "0426": {
    "postcode": "2430426",
    "prefecture": "神奈川県",
    "prefecture_kana": "カナガワケン",
    "prefecture_code": 14,
    "city": "海老名市",
    "city_kana": "エビナシ",
    "town": "門沢橋",
    "town_kana": "カドサワバシ",
    "street": null,
    "office_name": null,
    "office_name_kana": null
  },
  "0427": {
    "postcode": "2430427",
    "prefecture": "神奈川県",
    "prefecture_kana": "カナガワケン",
    "prefecture_code": 14,
    "city": "海老名市",
    "city_kana": "エビナシ",
    "town": "杉久保南",
    "town_kana": "スギクボミナミ",
    "street": null,
    "office_name": null,
    "office_name_kana": null
  },
  "0431": {
    "postcode": "2430431",
    "prefecture": "神奈川県",
    "prefecture_kana": "カナガワケン",
    "prefecture_code": 14,
    "city": "海老名市",
    "city_kana": "エビナシ",
    "town": "上今泉",
    "town_kana": "カミイマイズミ",
    "street": null,
    "office_name": null,
    "office_name_kana": null
  },
  "0432": {
    "postcode": "2430432",
    "prefecture": "神奈川県",
    "prefecture_kana": "カナガワケン",
    "prefecture_code": 14,
    "city": "海老名市",
    "city_kana": "エビナシ",
    "town": "中央",
    "town_kana": "チュウオウ",
    "street": null,
    "office_name": null,
    "office_name_kana": null
  },
  "0433": {
    "postcode": "2430433",
    "prefecture": "神奈川県",
    "prefecture_kana": "カナガワケン",
    "prefecture_code": 14,
    "city": "海老名市",
    "city_kana": "エビナシ",
    "town": "河原口",
    "town_kana": "カワラグチ",
    "street": null,
    "office_name": null,
    "office_name_kana": null
  },
  "0434": {
    "postcode": "2430434",
    "prefecture": "神奈川県",
    "prefecture_kana": "カナガワケン",
    "prefecture_code": 14,
    "city": "海老名市",
    "city_kana": "エビナシ",
    "town": "上郷",
    "town_kana": "カミゴウ",
    "street": null,
    "office_name": null,
    "office_name_kana": null
  },
  "0435": {
    "postcode": "2430435",
    "prefecture": "神奈川県",
    "prefecture_kana": "カナガワケン",
    "prefecture_code": 14,
    "city": "海老名市",
    "city_kana": "エビナシ",
    "town": "下今泉",
    "town_kana": "シモイマイズミ",
    "street": null,
    "office_name": null,
    "office_name_kana": null
  },
  "0436": {
    "postcode": "2430436",
    "prefecture": "神奈川県",
    "prefecture_kana": "カナガワケン",
    "prefecture_code": 14,
    "city": "海老名市",
    "city_kana": "エビナシ",
    "town": "扇町",
    "town_kana": "オウギチョウ",
    "street": null,
    "office_name": null,
    "office_name_kana": null
  },
  "0437": {
    "postcode": "2430437",
    "prefecture": "神奈川県",
    "prefecture_kana": "カナガワケン",
    "prefecture_code": 14,
    "city": "海老名市",
    "city_kana": "エビナシ",
    "town": "泉",
    "town_kana": "イズミ",
    "street": null,
    "office_name": null,
    "office_name_kana": null
  },
  "0438": {
    "postcode": "2430438",
    "prefecture": "神奈川県",
    "prefecture_kana": "カナガワケン",
    "prefecture_code": 14,
    "city": "海老名市",
    "city_kana": "エビナシ",
    "town": "めぐみ町",
    "town_kana": "メグミチョウ",
    "street": null,
    "office_name": null,
    "office_name_kana": null
  },
  "0460": {
    "postcode": "2430460",
    "prefecture": "神奈川県",
    "prefecture_kana": "カナガワケン",
    "prefecture_code": 14,
    "city": "海老名市",
    "city_kana": "エビナシ",
    "town": "泉",
    "town_kana": "イズミ",
    "street": "二丁目７番１号",
    "office_name": "リコーテクノロジーセンター",
    "office_name_kana": "リコ-テクノロジ-センタ-"
  },
  "0480": {
    "postcode": "2430480",
    "prefecture": "神奈川県",
    "prefecture_kana": "カナガワケン",
    "prefecture_code": 14,
    "city": "海老名市",
    "city_kana": "エビナシ",
    "town": "中新田",
    "town_kana": "ナカシンデン",
    "street": "３２９０ＭＦＬＰ海老名Ⅰ３Ｆ",
    "office_name": "アマゾン海老名ＩＸＤ",
    "office_name_kana": "アマゾンエビナアイエツクスデイ-"
  },
  "0482": {
    "postcode": "2430482",
    "prefecture": "神奈川県",
    "prefecture_kana": "カナガワケン",
    "prefecture_code": 14,
    "city": "海老名市",
    "city_kana": "エビナシ",
    "town": "扇町",
    "town_kana": "オウギチョウ",
    "street": "１３番１号",
    "office_name": "ららぽーと海老名",
    "office_name_kana": "ララポ-トエビナ"
  },
  "0483": {
    "postcode": "2430483",
    "prefecture": "神奈川県",
    "prefecture_kana": "カナガワケン",
    "prefecture_code": 14,
    "city": "海老名市",
    "city_kana": "エビナシ",
    "town": "中央",
    "town_kana": "チュウオウ",
    "street": "１丁目６−１小田急ビナウォーク３番館",
    "office_name": "株式会社　丸井　マルイファミリー海老名",
    "office_name_kana": "カブシキカイシヤ マルイ マルイフアミリ-エビナ"
  },
  "0484": {
    "postcode": "2430484",
    "prefecture": "神奈川県",
    "prefecture_kana": "カナガワケン",
    "prefecture_code": 14,
    "city": "海老名市",
    "city_kana": "エビナシ",
    "town": "中央",
    "town_kana": "チュウオウ",
    "street": "１−１３−１ビナウォーク４番館",
    "office_name": "ビナウォーク４番館",
    "office_name_kana": "ビナウオ-クヨンバンカン"
  },
  "0485": {
    "postcode": "2430485",
    "prefecture": "神奈川県",
    "prefecture_kana": "カナガワケン",
    "prefecture_code": 14,
    "city": "海老名市",
    "city_kana": "エビナシ",
    "town": "中央",
    "town_kana": "チュウオウ",
    "street": "１−４−１ビナウォーク５番館",
    "office_name": "ビナウォーク管理センター",
    "office_name_kana": "ビナウオ-クカンリセンタ-"
  },
  "0486": {
    "postcode": "2430486",
    "prefecture": "神奈川県",
    "prefecture_kana": "カナガワケン",
    "prefecture_code": 14,
    "city": "海老名市",
    "city_kana": "エビナシ",
    "town": "中央",
    "town_kana": "チュウオウ",
    "street": "１−２−１ビナウォーク６番館",
    "office_name": "ＴＯＨＯシネマズ海老名",
    "office_name_kana": "トウホウシネマズエビナ"
  },
  "0487": {
    "postcode": "2430487",
    "prefecture": "神奈川県",
    "prefecture_kana": "カナガワケン",
    "prefecture_code": 14,
    "city": "海老名市",
    "city_kana": "エビナシ",
    "town": "今里",
    "town_kana": "イマザト",
    "street": "３−２６−１１",
    "office_name": "オイシックスステーション",
    "office_name_kana": "オイシツクスステ-シヨン"
  },
  "0488": {
    "postcode": "2430488",
    "prefecture": "神奈川県",
    "prefecture_kana": "カナガワケン",
    "prefecture_code": 14,
    "city": "海老名市",
    "city_kana": "エビナシ",
    "town": "中新田",
    "town_kana": "ナカシンデン",
    "street": "３２９０−３８ＭＦＬＰ海老名Ｉ２Ｆ",
    "office_name": "アマゾン海老名中新田ＴＣ　ＸＪＥ１",
    "office_name_kana": "アマゾンエビナナカシンデンテイ-シ- エツクスジエイイ-ワン"
  },
  "0489": {
    "postcode": "2430489",
    "prefecture": "神奈川県",
    "prefecture_kana": "カナガワケン",
    "prefecture_code": 14,
    "city": "海老名市",
    "city_kana": "エビナシ",
    "town": "めぐみ町",
    "town_kana": "メグミチョウ",
    "street": "２番２号",
    "office_name": "小田急電鉄　株式会社",
    "office_name_kana": "オダキユウデンテツ カブシキガイシヤ"
  },
  "0492": {
    "postcode": "2430492",
    "prefecture": "神奈川県",
    "prefecture_kana": "カナガワケン",
    "prefecture_code": 14,
    "city": "海老名市",
    "city_kana": "エビナシ",
    "town": "勝瀬",
    "town_kana": "カツセ",
    "street": "１７５番地の１",
    "office_name": "海老名市役所",
    "office_name_kana": "エビナシヤクシヨ"
  },
  "0493": {
    "postcode": "2430493",
    "prefecture": "神奈川県",
    "prefecture_kana": "カナガワケン",
    "prefecture_code": 14,
    "city": "海老名市",
    "city_kana": "エビナシ",
    "town": "大谷北",
    "town_kana": "オオヤキタ",
    "street": "１丁目３番２号",
    "office_name": "アツギ　株式会社",
    "office_name_kana": "アツギ カブシキガイシヤ"
  },
  "0494": {
    "postcode": "2430494",
    "prefecture": "神奈川県",
    "prefecture_kana": "カナガワケン",
    "prefecture_code": 14,
    "city": "海老名市",
    "city_kana": "エビナシ",
    "town": "本郷",
    "town_kana": "ホンゴウ",
    "street": "２２７４番地",
    "office_name": "富士フィルムビジネスイノベーション　株式会社　海老名事業所",
    "office_name_kana": "フジフイルムビジネスイノベ-シヨン カブシキカイシヤ エビナジギヨウシヨ"
  },
  "0496": {
    "postcode": "2430496",
    "prefecture": "神奈川県",
    "prefecture_kana": "カナガワケン",
    "prefecture_code": 14,
    "city": "海老名市",
    "city_kana": "エビナシ",
    "town": "中新田",
    "town_kana": "ナカシンデン",
    "street": "４丁目７番１号",
    "office_name": "ものみの塔聖書冊子協会",
    "office_name_kana": "モノミノトウセイシヨサツシキヨウカイ"
  },
  "0497": {
    "postcode": "2430497",
    "prefecture": "神奈川県",
    "prefecture_kana": "カナガワケン",
    "prefecture_code": 14,
    "city": "海老名市",
    "city_kana": "エビナシ",
    "town": "本郷",
    "town_kana": "ホンゴウ",
    "street": "２２７４番地",
    "office_name": "富士フイルムマニュファクチャリング　株式会社　海老名（本社）",
    "office_name_kana": "フジフイルムマニユフアクチヤリング カブシキガイシヤ エビナ(ホンシヤ)"
  },
  "0801": {
    "postcode": "2430801",
    "prefecture": "神奈川県",
    "prefecture_kana": "カナガワケン",
    "prefecture_code": 14,
    "city": "厚木市",
    "city_kana": "アツギシ",
    "town": "上依知",
    "town_kana": "カミエチ",
    "street": null,
    "office_name": null,
    "office_name_kana": null
  },
  "0802": {
    "postcode": "2430802",
    "prefecture": "神奈川県",
    "prefecture_kana": "カナガワケン",
    "prefecture_code": 14,
    "city": "厚木市",
    "city_kana": "アツギシ",
    "town": "猿ケ島",
    "town_kana": "サルガシマ",
    "street": null,
    "office_name": null,
    "office_name_kana": null
  },
  "0803": {
    "postcode": "2430803",
    "prefecture": "神奈川県",
    "prefecture_kana": "カナガワケン",
    "prefecture_code": 14,
    "city": "厚木市",
    "city_kana": "アツギシ",
    "town": "山際",
    "town_kana": "ヤマギワ",
    "street": null,
    "office_name": null,
    "office_name_kana": null
  },
  "0804": {
    "postcode": "2430804",
    "prefecture": "神奈川県",
    "prefecture_kana": "カナガワケン",
    "prefecture_code": 14,
    "city": "厚木市",
    "city_kana": "アツギシ",
    "town": "関口",
    "town_kana": "セキグチ",
    "street": null,
    "office_name": null,
    "office_name_kana": null
  },
  "0805": {
    "postcode": "2430805",
    "prefecture": "神奈川県",
    "prefecture_kana": "カナガワケン",
    "prefecture_code": 14,
    "city": "厚木市",
    "city_kana": "アツギシ",
    "town": "中依知",
    "town_kana": "ナカエチ",
    "street": null,
    "office_name": null,
    "office_name_kana": null
  },
  "0806": {
    "postcode": "2430806",
    "prefecture": "神奈川県",
    "prefecture_kana": "カナガワケン",
    "prefecture_code": 14,
    "city": "厚木市",
    "city_kana": "アツギシ",
    "town": "下依知",
    "town_kana": "シモエチ",
    "street": null,
    "office_name": null,
    "office_name_kana": null
  },
  "0807": {
    "postcode": "2430807",
    "prefecture": "神奈川県",
    "prefecture_kana": "カナガワケン",
    "prefecture_code": 14,
    "city": "厚木市",
    "city_kana": "アツギシ",
    "town": "金田",
    "town_kana": "カネダ",
    "street": null,
    "office_name": null,
    "office_name_kana": null
  },
  "0811": {
    "postcode": "2430811",
    "prefecture": "神奈川県",
    "prefecture_kana": "カナガワケン",
    "prefecture_code": 14,
    "city": "厚木市",
    "city_kana": "アツギシ",
    "town": "妻田",
    "town_kana": "ツマダ",
    "street": null,
    "office_name": null,
    "office_name_kana": null
  },
  "0812": {
    "postcode": "2430812",
    "prefecture": "神奈川県",
    "prefecture_kana": "カナガワケン",
    "prefecture_code": 14,
    "city": "厚木市",
    "city_kana": "アツギシ",
    "town": "妻田北",
    "town_kana": "ツマダキタ",
    "street": null,
    "office_name": null,
    "office_name_kana": null
  },
  "0813": {
    "postcode": "2430813",
    "prefecture": "神奈川県",
    "prefecture_kana": "カナガワケン",
    "prefecture_code": 14,
    "city": "厚木市",
    "city_kana": "アツギシ",
    "town": "妻田東",
    "town_kana": "ツマダヒガシ",
    "street": null,
    "office_name": null,
    "office_name_kana": null
  },
  "0814": {
    "postcode": "2430814",
    "prefecture": "神奈川県",
    "prefecture_kana": "カナガワケン",
    "prefecture_code": 14,
    "city": "厚木市",
    "city_kana": "アツギシ",
    "town": "妻田南",
    "town_kana": "ツマダミナミ",
    "street": null,
    "office_name": null,
    "office_name_kana": null
  },
  "0815": {
    "postcode": "2430815",
    "prefecture": "神奈川県",
    "prefecture_kana": "カナガワケン",
    "prefecture_code": 14,
    "city": "厚木市",
    "city_kana": "アツギシ",
    "town": "妻田西",
    "town_kana": "ツマダニシ",
    "street": null,
    "office_name": null,
    "office_name_kana": null
  },
  "0816": {
    "postcode": "2430816",
    "prefecture": "神奈川県",
    "prefecture_kana": "カナガワケン",
    "prefecture_code": 14,
    "city": "厚木市",
    "city_kana": "アツギシ",
    "town": "林",
    "town_kana": "ハヤシ",
    "street": null,
    "office_name": null,
    "office_name_kana": null
  },
  "0817": {
    "postcode": "2430817",
    "prefecture": "神奈川県",
    "prefecture_kana": "カナガワケン",
    "prefecture_code": 14,
    "city": "厚木市",
    "city_kana": "アツギシ",
    "town": "王子",
    "town_kana": "オウジ",
    "street": null,
    "office_name": null,
    "office_name_kana": null
  },
  "8501": {
    "postcode": "2438501",
    "prefecture": "神奈川県",
    "prefecture_kana": "カナガワケン",
    "prefecture_code": 14,
    "city": "厚木市",
    "city_kana": "アツギシ",
    "town": "温水",
    "town_kana": "ヌルミズ",
    "street": "４２８",
    "office_name": "ソニー学園湘北短期大学",
    "office_name_kana": "ソニ-ガクエンシヨウホクタンキダイガク"
  },
  "8505": {
    "postcode": "2438505",
    "prefecture": "神奈川県",
    "prefecture_kana": "カナガワケン",
    "prefecture_code": 14,
    "city": "厚木市",
    "city_kana": "アツギシ",
    "town": "酒井",
    "town_kana": "サカイ",
    "street": "３１５１番地",
    "office_name": "株式会社　シーアールイー　厚木営業所",
    "office_name_kana": "カブシキガイシヤ シ-ア-ルイ- アツギエイギヨウシヨ"
  },
  "8510": {
    "postcode": "2438510",
    "prefecture": "神奈川県",
    "prefecture_kana": "カナガワケン",
    "prefecture_code": 14,
    "city": "厚木市",
    "city_kana": "アツギシ",
    "town": "恩名",
    "town_kana": "オンナ",
    "street": "四丁目７番１号",
    "office_name": "日立オートモティブシステムズ　株式会社",
    "office_name_kana": "ヒタチオ-トモテイブシステムズ カブシキガイシヤ"
  },
  "8511": {
    "postcode": "2438511",
    "prefecture": "神奈川県",
    "prefecture_kana": "カナガワケン",
    "prefecture_code": 14,
    "city": "厚木市",
    "city_kana": "アツギシ",
    "town": "中町",
    "town_kana": "ナカチョウ",
    "street": "３丁目１７−１７",
    "office_name": "厚木市役所",
    "office_name_kana": "アツギシヤクシヨ"
  },
  "8521": {
    "postcode": "2438521",
    "prefecture": "神奈川県",
    "prefecture_kana": "カナガワケン",
    "prefecture_code": 14,
    "city": "厚木市",
    "city_kana": "アツギシ",
    "town": "関口",
    "town_kana": "セキグチ",
    "street": "８０８",
    "office_name": "昭和音楽大学",
    "office_name_kana": "シヨウワオンガクダイガク"
  },
  "8522": {
    "postcode": "2438522",
    "prefecture": "神奈川県",
    "prefecture_kana": "カナガワケン",
    "prefecture_code": 14,
    "city": "厚木市",
    "city_kana": "アツギシ",
    "town": "水引",
    "town_kana": "ミズヒキ",
    "street": "２−３−１（厚木合同庁舎内）",
    "office_name": "厚木県税事務所",
    "office_name_kana": "アツギケンゼイジムシヨ"
  },
  "8531": {
    "postcode": "2438531",
    "prefecture": "神奈川県",
    "prefecture_kana": "カナガワケン",
    "prefecture_code": 14,
    "city": "厚木市",
    "city_kana": "アツギシ",
    "town": "中町",
    "town_kana": "ナカチョウ",
    "street": "３−１１−１８Ｆｌｏｓ厚木２Ｆ",
    "office_name": "森久保薬品　株式会社",
    "office_name_kana": "モリクボヤクヒン カブシキガイシヤ"
  },
  "8533": {
    "postcode": "2438533",
    "prefecture": "神奈川県",
    "prefecture_kana": "カナガワケン",
    "prefecture_code": 14,
    "city": "厚木市",
    "city_kana": "アツギシ",
    "town": "酒井",
    "town_kana": "サカイ",
    "street": "１６０１",
    "office_name": "ミツミ電機　株式会社　厚木事業所",
    "office_name_kana": "ミツミデンキ カブシキガイシヤ アツギジギヨウシヨ"
  },
  "8550": {
    "postcode": "2438550",
    "prefecture": "神奈川県",
    "prefecture_kana": "カナガワケン",
    "prefecture_code": 14,
    "city": "厚木市",
    "city_kana": "アツギシ",
    "town": "温水",
    "town_kana": "ヌルミズ",
    "street": "４９−１",
    "office_name": "湘南厚木クリニック",
    "office_name_kana": "シヨウナンアツギクリニツク"
  },
  "8551": {
    "postcode": "2438551",
    "prefecture": "神奈川県",
    "prefecture_kana": "カナガワケン",
    "prefecture_code": 14,
    "city": "厚木市",
    "city_kana": "アツギシ",
    "town": "温水",
    "town_kana": "ヌルミズ",
    "street": "１１８−１",
    "office_name": "湘南厚木病院",
    "office_name_kana": "シヨウナンアツギビヨウイン"
  },
  "8555": {
    "postcode": "2438555",
    "prefecture": "神奈川県",
    "prefecture_kana": "カナガワケン",
    "prefecture_code": 14,
    "city": "厚木市",
    "city_kana": "アツギシ",
    "town": "恩名",
    "town_kana": "オンナ",
    "street": "５−１−１",
    "office_name": "アンリツ　株式会社",
    "office_name_kana": "アンリツ カブシキガイシヤ"
  },
  "8571": {
    "postcode": "2438571",
    "prefecture": "神奈川県",
    "prefecture_kana": "カナガワケン",
    "prefecture_code": 14,
    "city": "厚木市",
    "city_kana": "アツギシ",
    "town": "船子",
    "town_kana": "フナコ",
    "street": "２３２",
    "office_name": "東名厚木病院",
    "office_name_kana": "トウメイアツギビヨウイン"
  },
  "8577": {
    "postcode": "2438577",
    "prefecture": "神奈川県",
    "prefecture_kana": "カナガワケン",
    "prefecture_code": 14,
    "city": "厚木市",
    "city_kana": "アツギシ",
    "town": "水引",
    "town_kana": "ミズヒキ",
    "street": "１丁目１０−７",
    "office_name": "厚木税務署",
    "office_name_kana": "アツギゼイムシヨ"
  },
  "8588": {
    "postcode": "2438588",
    "prefecture": "神奈川県",
    "prefecture_kana": "カナガワケン",
    "prefecture_code": 14,
    "city": "厚木市",
    "city_kana": "アツギシ",
    "town": "水引",
    "town_kana": "ミズヒキ",
    "street": "１丁目１６−３６",
    "office_name": "厚木市立病院",
    "office_name_kana": "アツギシリツビヨウイン"
  },
  "8601": {
    "postcode": "2438601",
    "prefecture": "神奈川県",
    "prefecture_kana": "カナガワケン",
    "prefecture_code": 14,
    "city": "厚木市",
    "city_kana": "アツギシ",
    "town": "中町",
    "town_kana": "ナカチョウ",
    "street": "４丁目１４−１（厚木郵便局私書箱第２７号）",
    "office_name": "大和証券",
    "office_name_kana": "ダイワシヨウケン"
  },
  "8604": {
    "postcode": "2438604",
    "prefecture": "神奈川県",
    "prefecture_kana": "カナガワケン",
    "prefecture_code": 14,
    "city": "厚木市",
    "city_kana": "アツギシ",
    "town": "中町",
    "town_kana": "ナカチョウ",
    "street": "２丁目２−２０（厚木郵便局私書箱第３７号）",
    "office_name": "野村證券（株）厚木支店",
    "office_name_kana": "ノムラシヨウケン(カブ)アツギシテン"
  },
  "8689": {
    "postcode": "2438689",
    "prefecture": "神奈川県",
    "prefecture_kana": "カナガワケン",
    "prefecture_code": 14,
    "city": "厚木市",
    "city_kana": "アツギシ",
    "town": "戸田",
    "town_kana": "トダ",
    "street": "２５００−１",
    "office_name": "鴻池運輸　株式会社　関東支店　厚木流通センター営業所",
    "office_name_kana": "コウノイケウンユ カブシキガイシヤ カントウシテン アツギリユウツウセンタ-エイギヨウシヨ"
  }
}