{
  "0000": {
    "postcode": "2450000",
    "prefecture": "神奈川県",
    "prefecture_kana": "カナガワケン",
    "prefecture_code": 14,
    "city": "横浜市泉区",
    "city_kana": "ヨコハマシイズミク",
    "town": "",
    "town_kana": "",
    "street": null,
    "office_name": null,
    "office_name_kana": null
  },
  "0001": {
    "postcode": "2450001",
    "prefecture": "神奈川県",
    "prefecture_kana": "カナガワケン",
    "prefecture_code": 14,
    "city": "横浜市泉区",
    "city_kana": "ヨコハマシイズミク",
    "town": "池の谷",
    "town_kana": "イケノタニ",
    "street": null,
    "office_name": null,
    "office_name_kana": null
  },
  "0002": {
    "postcode": "2450002",
    "prefecture": "神奈川県",
    "prefecture_kana": "カナガワケン",
    "prefecture_code": 14,
    "city": "横浜市泉区",
    "city_kana": "ヨコハマシイズミク",
    "town": "緑園",
    "town_kana": "リョクエン",
    "street": null,
    "office_name": null,
    "office_name_kana": null
  },
  "0003": {
    "postcode": "2450003",
    "prefecture": "神奈川県",
    "prefecture_kana": "カナガワケン",
    "prefecture_code": 14,
    "city": "横浜市泉区",
    "city_kana": "ヨコハマシイズミク",
    "town": "岡津町",
    "town_kana": "オカツチョウ",
    "street": null,
    "office_name": null,
    "office_name_kana": null
  },
  "0004": {
    "postcode": "2450004",
    "prefecture": "神奈川県",
    "prefecture_kana": "カナガワケン",
    "prefecture_code": 14,
    "city": "横浜市泉区",
    "city_kana": "ヨコハマシイズミク",
    "town": "領家",
    "town_kana": "リョウケ",
    "street": null,
    "office_name": null,
    "office_name_kana": null
  },
  "0005": {
    "postcode": "2450005",
    "prefecture": "神奈川県",
    "prefecture_kana": "カナガワケン",
    "prefecture_code": 14,
    "city": "横浜市泉区",
    "city_kana": "ヨコハマシイズミク",
    "town": "白百合",
    "town_kana": "シラユリ",
    "street": null,
    "office_name": null,
    "office_name_kana": null
  },
  "0006": {
    "postcode": "2450006",
    "prefecture": "神奈川県",
    "prefecture_kana": "カナガワケン",
    "prefecture_code": 14,
    "city": "横浜市泉区",
    "city_kana": "ヨコハマシイズミク",
    "town": "西が岡",
    "town_kana": "ニシガオカ",
    "street": null,
    "office_name": null,
    "office_name_kana": null
  },
  "0007": {
    "postcode": "2450007",
    "prefecture": "神奈川県",
    "prefecture_kana": "カナガワケン",
    "prefecture_code": 14,
    "city": "横浜市泉区",
    "city_kana": "ヨコハマシイズミク",
    "town": "桂坂",
    "town_kana": "カツラザカ",
    "street": null,
    "office_name": null,
    "office_name_kana": null
  },
  "0008": {
    "postcode": "2450008",
    "prefecture": "神奈川県",
    "prefecture_kana": "カナガワケン",
    "prefecture_code": 14,
    "city": "横浜市泉区",
    "city_kana": "ヨコハマシイズミク",
    "town": "弥生台",
    "town_kana": "ヤヨイダイ",
    "street": null,
    "office_name": null,
    "office_name_kana": null
  },
  "0009": {
    "postcode": "2450009",
    "prefecture": "神奈川県",
    "prefecture_kana": "カナガワケン",
    "prefecture_code": 14,
    "city": "横浜市泉区",
    "city_kana": "ヨコハマシイズミク",
    "town": "新橋町",
    "town_kana": "シンバシチョウ",
    "street": null,
    "office_name": null,
    "office_name_kana": null
  },
  "0011": {
    "postcode": "2450011",
    "prefecture": "神奈川県",
    "prefecture_kana": "カナガワケン",
    "prefecture_code": 14,
    "city": "横浜市泉区",
    "city_kana": "ヨコハマシイズミク",
    "town": "中田町",
    "town_kana": "ナカタチョウ",
    "street": null,
    "office_name": null,
    "office_name_kana": null
  },
  "0012": {
    "postcode": "2450012",
    "prefecture": "神奈川県",
    "prefecture_kana": "カナガワケン",
    "prefecture_code": 14,
    "city": "横浜市泉区",
    "city_kana": "ヨコハマシイズミク",
    "town": "中田北",
    "town_kana": "ナカタキタ",
    "street": null,
    "office_name": null,
    "office_name_kana": null
  },
  "0013": {
    "postcode": "2450013",
    "prefecture": "神奈川県",
    "prefecture_kana": "カナガワケン",
    "prefecture_code": 14,
    "city": "横浜市泉区",
    "city_kana": "ヨコハマシイズミク",
    "town": "中田東",
    "town_kana": "ナカタヒガシ",
    "street": null,
    "office_name": null,
    "office_name_kana": null
  },
  "0014": {
    "postcode": "2450014",
    "prefecture": "神奈川県",
    "prefecture_kana": "カナガワケン",
    "prefecture_code": 14,
    "city": "横浜市泉区",
    "city_kana": "ヨコハマシイズミク",
    "town": "中田南",
    "town_kana": "ナカタミナミ",
    "street": null,
    "office_name": null,
    "office_name_kana": null
  },
  "0015": {
    "postcode": "2450015",
    "prefecture": "神奈川県",
    "prefecture_kana": "カナガワケン",
    "prefecture_code": 14,
    "city": "横浜市泉区",
    "city_kana": "ヨコハマシイズミク",
    "town": "中田西",
    "town_kana": "ナカタニシ",
    "street": null,
    "office_name": null,
    "office_name_kana": null
  },
  "0016": {
    "postcode": "2450016",
    "prefecture": "神奈川県",
    "prefecture_kana": "カナガワケン",
    "prefecture_code": 14,
    "city": "横浜市泉区",
    "city_kana": "ヨコハマシイズミク",
    "town": "和泉町",
    "town_kana": "イズミチョウ",
    "street": null,
    "office_name": null,
    "office_name_kana": null
  },
  "0017": {
    "postcode": "2450017",
    "prefecture": "神奈川県",
    "prefecture_kana": "カナガワケン",
    "prefecture_code": 14,
    "city": "横浜市泉区",
    "city_kana": "ヨコハマシイズミク",
    "town": "下飯田町",
    "town_kana": "シモイイダチョウ",
    "street": null,
    "office_name": null,
    "office_name_kana": null
  },
  "0018": {
    "postcode": "2450018",
    "prefecture": "神奈川県",
    "prefecture_kana": "カナガワケン",
    "prefecture_code": 14,
    "city": "横浜市泉区",
    "city_kana": "ヨコハマシイズミク",
    "town": "上飯田町",
    "town_kana": "カミイイダチョウ",
    "street": null,
    "office_name": null,
    "office_name_kana": null
  },
  "0019": {
    "postcode": "2450019",
    "prefecture": "神奈川県",
    "prefecture_kana": "カナガワケン",
    "prefecture_code": 14,
    "city": "横浜市泉区",
    "city_kana": "ヨコハマシイズミク",
    "town": "ゆめが丘",
    "town_kana": "ユメガオカ",
    "street": null,
    "office_name": null,
    "office_name_kana": null
  },
  "0021": {
    "postcode": "2450021",
    "prefecture": "神奈川県",
    "prefecture_kana": "カナガワケン",
    "prefecture_code": 14,
    "city": "横浜市泉区",
    "city_kana": "ヨコハマシイズミク",
    "town": "下和泉",
    "town_kana": "シモイズミ",
    "street": null,
    "office_name": null,
    "office_name_kana": null
  },
  "0022": {
    "postcode": "2450022",
    "prefecture": "神奈川県",
    "prefecture_kana": "カナガワケン",
    "prefecture_code": 14,
    "city": "横浜市泉区",
    "city_kana": "ヨコハマシイズミク",
    "town": "和泉が丘",
    "town_kana": "イズミガオカ",
    "street": null,
    "office_name": null,
    "office_name_kana": null
  },
  "0023": {
    "postcode": "2450023",
    "prefecture": "神奈川県",
    "prefecture_kana": "カナガワケン",
    "prefecture_code": 14,
    "city": "横浜市泉区",
    "city_kana": "ヨコハマシイズミク",
    "town": "和泉中央南",
    "town_kana": "イズミチュウオウミナミ",
    "street": null,
    "office_name": null,
    "office_name_kana": null
  },
  "0024": {
    "postcode": "2450024",
    "prefecture": "神奈川県",
    "prefecture_kana": "カナガワケン",
    "prefecture_code": 14,
    "city": "横浜市泉区",
    "city_kana": "ヨコハマシイズミク",
    "town": "和泉中央北",
    "town_kana": "イズミチュウオウキタ",
    "street": null,
    "office_name": null,
    "office_name_kana": null
  },
  "0051": {
    "postcode": "2450051",
    "prefecture": "神奈川県",
    "prefecture_kana": "カナガワケン",
    "prefecture_code": 14,
    "city": "横浜市戸塚区",
    "city_kana": "ヨコハマシトツカク",
    "town": "名瀬町",
    "town_kana": "ナセチョウ",
    "street": null,
    "office_name": null,
    "office_name_kana": null
  },
  "0052": {
    "postcode": "2450052",
    "prefecture": "神奈川県",
    "prefecture_kana": "カナガワケン",
    "prefecture_code": 14,
    "city": "横浜市戸塚区",
    "city_kana": "ヨコハマシトツカク",
    "town": "秋葉町",
    "town_kana": "アキバチョウ",
    "street": null,
    "office_name": null,
    "office_name_kana": null
  },
  "0053": {
    "postcode": "2450053",
    "prefecture": "神奈川県",
    "prefecture_kana": "カナガワケン",
    "prefecture_code": 14,
    "city": "横浜市戸塚区",
    "city_kana": "ヨコハマシトツカク",
    "town": "上矢部町",
    "town_kana": "カミヤベチョウ",
    "street": null,
    "office_name": null,
    "office_name_kana": null
  },
  "0061": {
    "postcode": "2450061",
    "prefecture": "神奈川県",
    "prefecture_kana": "カナガワケン",
    "prefecture_code": 14,
    "city": "横浜市戸塚区",
    "city_kana": "ヨコハマシトツカク",
    "town": "汲沢",
    "town_kana": "グミザワ",
    "street": null,
    "office_name": null,
    "office_name_kana": null
  },
  "0062": {
    "postcode": "2450062",
    "prefecture": "神奈川県",
    "prefecture_kana": "カナガワケン",
    "prefecture_code": 14,
    "city": "横浜市戸塚区",
    "city_kana": "ヨコハマシトツカク",
    "town": "汲沢町",
    "town_kana": "グミザワチョウ",
    "street": null,
    "office_name": null,
    "office_name_kana": null
  },
  "0063": {
    "postcode": "2450063",
    "prefecture": "神奈川県",
    "prefecture_kana": "カナガワケン",
    "prefecture_code": 14,
    "city": "横浜市戸塚区",
    "city_kana": "ヨコハマシトツカク",
    "town": "原宿",
    "town_kana": "ハラジュク",
    "street": null,
    "office_name": null,
    "office_name_kana": null
  },
  "0064": {
    "postcode": "2450064",
    "prefecture": "神奈川県",
    "prefecture_kana": "カナガワケン",
    "prefecture_code": 14,
    "city": "横浜市戸塚区",
    "city_kana": "ヨコハマシトツカク",
    "town": "影取町",
    "town_kana": "カゲトリチョウ",
    "street": null,
    "office_name": null,
    "office_name_kana": null
  },
  "0065": {
    "postcode": "2450065",
    "prefecture": "神奈川県",
    "prefecture_kana": "カナガワケン",
    "prefecture_code": 14,
    "city": "横浜市戸塚区",
    "city_kana": "ヨコハマシトツカク",
    "town": "東俣野町",
    "town_kana": "ヒガシマタノチョウ",
    "street": null,
    "office_name": null,
    "office_name_kana": null
  },
  "0066": {
    "postcode": "2450066",
    "prefecture": "神奈川県",
    "prefecture_kana": "カナガワケン",
    "prefecture_code": 14,
    "city": "横浜市戸塚区",
    "city_kana": "ヨコハマシトツカク",
    "town": "俣野町",
    "town_kana": "マタノチョウ",
    "street": null,
    "office_name": null,
    "office_name_kana": null
  },
  "0067": {
    "postcode": "2450067",
    "prefecture": "神奈川県",
    "prefecture_kana": "カナガワケン",
    "prefecture_code": 14,
    "city": "横浜市戸塚区",
    "city_kana": "ヨコハマシトツカク",
    "town": "深谷町",
    "town_kana": "フカヤチョウ",
    "street": null,
    "office_name": null,
    "office_name_kana": null
  },
  "8510": {
    "postcode": "2458510",
    "prefecture": "神奈川県",
    "prefecture_kana": "カナガワケン",
    "prefecture_code": 14,
    "city": "横浜市戸塚区",
    "city_kana": "ヨコハマシトツカク",
    "town": "東俣野町",
    "town_kana": "ヒガシマタノチョウ",
    "street": "１７６０",
    "office_name": "株式会社　ミツバ　横浜本社",
    "office_name_kana": "カブシキガイシヤ ミツバ ヨコハマホンシヤ"
  },
  "8542": {
    "postcode": "2458542",
    "prefecture": "神奈川県",
    "prefecture_kana": "カナガワケン",
    "prefecture_code": 14,
    "city": "横浜市戸塚区",
    "city_kana": "ヨコハマシトツカク",
    "town": "上矢部町",
    "town_kana": "カミヤベチョウ",
    "street": "６９０",
    "office_name": "かもめプロペラ　株式会社",
    "office_name_kana": "カモメプロペラ カブシキガイシヤ"
  },
  "8550": {
    "postcode": "2458550",
    "prefecture": "神奈川県",
    "prefecture_kana": "カナガワケン",
    "prefecture_code": 14,
    "city": "横浜市戸塚区",
    "city_kana": "ヨコハマシトツカク",
    "town": "上矢部町",
    "town_kana": "カミヤベチョウ",
    "street": "１９６８",
    "office_name": "日本貿易印刷　株式会社",
    "office_name_kana": "ニホンボウエキインサツ カブシキガイシヤ"
  },
  "8555": {
    "postcode": "2458555",
    "prefecture": "神奈川県",
    "prefecture_kana": "カナガワケン",
    "prefecture_code": 14,
    "city": "横浜市泉区",
    "city_kana": "ヨコハマシイズミク",
    "town": "和泉中央南",
    "town_kana": "イズミチュウオウミナミ",
    "street": "三丁目２番４６号",
    "office_name": "ユージエム　株式会社",
    "office_name_kana": "ユ-ジエム カブシキガイシヤ"
  },
  "8558": {
    "postcode": "2458558",
    "prefecture": "神奈川県",
    "prefecture_kana": "カナガワケン",
    "prefecture_code": 14,
    "city": "横浜市戸塚区",
    "city_kana": "ヨコハマシトツカク",
    "town": "上矢部町",
    "town_kana": "カミヤベチョウ",
    "street": "２３８４",
    "office_name": "株式会社　日産クリエイティブサービス",
    "office_name_kana": "カブシキガイシヤ ニツサンクリエイテイブサ-ビス"
  },
  "8560": {
    "postcode": "2458560",
    "prefecture": "神奈川県",
    "prefecture_kana": "カナガワケン",
    "prefecture_code": 14,
    "city": "横浜市戸塚区",
    "city_kana": "ヨコハマシトツカク",
    "town": "汲沢町",
    "town_kana": "グミザワチョウ",
    "street": "５６",
    "office_name": "医療法人　横浜博萌会　西横浜国際総合病院",
    "office_name_kana": "イリヨウホウジン ヨコハマハクホウカイ ニシヨコハマコクサイソウゴウビヨウイン"
  },
  "8575": {
    "postcode": "2458575",
    "prefecture": "神奈川県",
    "prefecture_kana": "カナガワケン",
    "prefecture_code": 14,
    "city": "横浜市戸塚区",
    "city_kana": "ヨコハマシトツカク",
    "town": "原宿",
    "town_kana": "ハラジュク",
    "street": "３丁目６０−２",
    "office_name": "独立行政法人　国立病院機構　横浜医療センター",
    "office_name_kana": "ドクリツギヨウセイホウジン コクリツビヨウインキコウ ヨコハマイリヨウセンタ-"
  },
  "8577": {
    "postcode": "2458577",
    "prefecture": "神奈川県",
    "prefecture_kana": "カナガワケン",
    "prefecture_code": 14,
    "city": "横浜市戸塚区",
    "city_kana": "ヨコハマシトツカク",
    "town": "上矢部町",
    "town_kana": "カミヤベチョウ",
    "street": "２３３６",
    "office_name": "三池工業　株式会社",
    "office_name_kana": "ミツイケコウギヨウ カブシキガイシヤ"
  },
  "8589": {
    "postcode": "2458589",
    "prefecture": "神奈川県",
    "prefecture_kana": "カナガワケン",
    "prefecture_code": 14,
    "city": "横浜市戸塚区",
    "city_kana": "ヨコハマシトツカク",
    "town": "俣野町",
    "town_kana": "マタノチョウ",
    "street": "６０１",
    "office_name": "横浜薬科大学",
    "office_name_kana": "ヨコハマヤツカダイガク"
  },
  "8650": {
    "postcode": "2458650",
    "prefecture": "神奈川県",
    "prefecture_kana": "カナガワケン",
    "prefecture_code": 14,
    "city": "横浜市泉区",
    "city_kana": "ヨコハマシイズミク",
    "town": "緑園",
    "town_kana": "リョクエン",
    "street": "４丁目５番３号",
    "office_name": "フェリス女学院大学",
    "office_name_kana": "フエリスジヨガクインダイガク"
  },
  "8651": {
    "postcode": "2458651",
    "prefecture": "神奈川県",
    "prefecture_kana": "カナガワケン",
    "prefecture_code": 14,
    "city": "横浜市泉区",
    "city_kana": "ヨコハマシイズミク",
    "town": "緑園",
    "town_kana": "リョクエン",
    "street": "４丁目５番３号",
    "office_name": "フェリス女学院大学附属図書館",
    "office_name_kana": "フエリスジヨガクインダイガクフゾクトシヨカン"
  }
}