{
  "0000": {
    "postcode": "2500000",
    "prefecture": "神奈川県",
    "prefecture_kana": "カナガワケン",
    "prefecture_code": 14,
    "city": "小田原市",
    "city_kana": "オダワラシ",
    "town": "",
    "town_kana": "",
    "street": null,
    "office_name": null,
    "office_name_kana": null
  },
  "0001": {
    "postcode": "2500001",
    "prefecture": "神奈川県",
    "prefecture_kana": "カナガワケン",
    "prefecture_code": 14,
    "city": "小田原市",
    "city_kana": "オダワラシ",
    "town": "扇町",
    "town_kana": "オウギチョウ",
    "street": null,
    "office_name": null,
    "office_name_kana": null
  },
  "0002": {
    "postcode": "2500002",
    "prefecture": "神奈川県",
    "prefecture_kana": "カナガワケン",
    "prefecture_code": 14,
    "city": "小田原市",
    "city_kana": "オダワラシ",
    "town": "寿町",
    "town_kana": "コトブキチョウ",
    "street": null,
    "office_name": null,
    "office_name_kana": null
  },
  "0003": {
    "postcode": "2500003",
    "prefecture": "神奈川県",
    "prefecture_kana": "カナガワケン",
    "prefecture_code": 14,
    "city": "小田原市",
    "city_kana": "オダワラシ",
    "town": "東町",
    "town_kana": "ヒガシチョウ",
    "street": null,
    "office_name": null,
    "office_name_kana": null
  },
  "0004": {
    "postcode": "2500004",
    "prefecture": "神奈川県",
    "prefecture_kana": "カナガワケン",
    "prefecture_code": 14,
    "city": "小田原市",
    "city_kana": "オダワラシ",
    "town": "浜町",
    "town_kana": "ハマチョウ",
    "street": null,
    "office_name": null,
    "office_name_kana": null
  },
  "0005": {
    "postcode": "2500005",
    "prefecture": "神奈川県",
    "prefecture_kana": "カナガワケン",
    "prefecture_code": 14,
    "city": "小田原市",
    "city_kana": "オダワラシ",
    "town": "中町",
    "town_kana": "ナカチョウ",
    "street": null,
    "office_name": null,
    "office_name_kana": null
  },
  "0011": {
    "postcode": "2500011",
    "prefecture": "神奈川県",
    "prefecture_kana": "カナガワケン",
    "prefecture_code": 14,
    "city": "小田原市",
    "city_kana": "オダワラシ",
    "town": "栄町",
    "town_kana": "サカエチョウ",
    "street": null,
    "office_name": null,
    "office_name_kana": null
  },
  "0012": {
    "postcode": "2500012",
    "prefecture": "神奈川県",
    "prefecture_kana": "カナガワケン",
    "prefecture_code": 14,
    "city": "小田原市",
    "city_kana": "オダワラシ",
    "town": "本町",
    "town_kana": "ホンチョウ",
    "street": null,
    "office_name": null,
    "office_name_kana": null
  },
  "0013": {
    "postcode": "2500013",
    "prefecture": "神奈川県",
    "prefecture_kana": "カナガワケン",
    "prefecture_code": 14,
    "city": "小田原市",
    "city_kana": "オダワラシ",
    "town": "南町",
    "town_kana": "ミナミチョウ",
    "street": null,
    "office_name": null,
    "office_name_kana": null
  },
  "0014": {
    "postcode": "2500014",
    "prefecture": "神奈川県",
    "prefecture_kana": "カナガワケン",
    "prefecture_code": 14,
    "city": "小田原市",
    "city_kana": "オダワラシ",
    "town": "城内",
    "town_kana": "ジョウナイ",
    "street": null,
    "office_name": null,
    "office_name_kana": null
  },
  "0021": {
    "postcode": "2500021",
    "prefecture": "神奈川県",
    "prefecture_kana": "カナガワケン",
    "prefecture_code": 14,
    "city": "小田原市",
    "city_kana": "オダワラシ",
    "town": "早川",
    "town_kana": "ハヤカワ",
    "street": null,
    "office_name": null,
    "office_name_kana": null
  },
  "0022": {
    "postcode": "2500022",
    "prefecture": "神奈川県",
    "prefecture_kana": "カナガワケン",
    "prefecture_code": 14,
    "city": "小田原市",
    "city_kana": "オダワラシ",
    "town": "石橋",
    "town_kana": "イシバシ",
    "street": null,
    "office_name": null,
    "office_name_kana": null
  },
  "0023": {
    "postcode": "2500023",
    "prefecture": "神奈川県",
    "prefecture_kana": "カナガワケン",
    "prefecture_code": 14,
    "city": "小田原市",
    "city_kana": "オダワラシ",
    "town": "米神",
    "town_kana": "コメカミ",
    "street": null,
    "office_name": null,
    "office_name_kana": null
  },
  "0024": {
    "postcode": "2500024",
    "prefecture": "神奈川県",
    "prefecture_kana": "カナガワケン",
    "prefecture_code": 14,
    "city": "小田原市",
    "city_kana": "オダワラシ",
    "town": "根府川",
    "town_kana": "ネブカワ",
    "street": null,
    "office_name": null,
    "office_name_kana": null
  },
  "0025": {
    "postcode": "2500025",
    "prefecture": "神奈川県",
    "prefecture_kana": "カナガワケン",
    "prefecture_code": 14,
    "city": "小田原市",
    "city_kana": "オダワラシ",
    "town": "江之浦",
    "town_kana": "エノウラ",
    "street": null,
    "office_name": null,
    "office_name_kana": null
  },
  "0031": {
    "postcode": "2500031",
    "prefecture": "神奈川県",
    "prefecture_kana": "カナガワケン",
    "prefecture_code": 14,
    "city": "小田原市",
    "city_kana": "オダワラシ",
    "town": "入生田",
    "town_kana": "イリュウダ",
    "street": null,
    "office_name": null,
    "office_name_kana": null
  },
  "0032": {
    "postcode": "2500032",
    "prefecture": "神奈川県",
    "prefecture_kana": "カナガワケン",
    "prefecture_code": 14,
    "city": "小田原市",
    "city_kana": "オダワラシ",
    "town": "風祭",
    "town_kana": "カザマツリ",
    "street": null,
    "office_name": null,
    "office_name_kana": null
  },
  "0033": {
    "postcode": "2500033",
    "prefecture": "神奈川県",
    "prefecture_kana": "カナガワケン",
    "prefecture_code": 14,
    "city": "小田原市",
    "city_kana": "オダワラシ",
    "town": "水之尾",
    "town_kana": "ミズノオ",
    "street": null,
    "office_name": null,
    "office_name_kana": null
  },
  "0034": {
    "postcode": "2500034",
    "prefecture": "神奈川県",
    "prefecture_kana": "カナガワケン",
    "prefecture_code": 14,
    "city": "小田原市",
    "city_kana": "オダワラシ",
    "town": "板橋",
    "town_kana": "イタバシ",
    "street": null,
    "office_name": null,
    "office_name_kana": null
  },
  "0035": {
    "postcode": "2500035",
    "prefecture": "神奈川県",
    "prefecture_kana": "カナガワケン",
    "prefecture_code": 14,
    "city": "小田原市",
    "city_kana": "オダワラシ",
    "town": "南板橋",
    "town_kana": "ミナミイタバシ",
    "street": null,
    "office_name": null,
    "office_name_kana": null
  },
  "0041": {
    "postcode": "2500041",
    "prefecture": "神奈川県",
    "prefecture_kana": "カナガワケン",
    "prefecture_code": 14,
    "city": "小田原市",
    "city_kana": "オダワラシ",
    "town": "池上",
    "town_kana": "イケガミ",
    "street": null,
    "office_name": null,
    "office_name_kana": null
  },
  "0042": {
    "postcode": "2500042",
    "prefecture": "神奈川県",
    "prefecture_kana": "カナガワケン",
    "prefecture_code": 14,
    "city": "小田原市",
    "city_kana": "オダワラシ",
    "town": "荻窪",
    "town_kana": "オギクボ",
    "street": null,
    "office_name": null,
    "office_name_kana": null
  },
  "0043": {
    "postcode": "2500043",
    "prefecture": "神奈川県",
    "prefecture_kana": "カナガワケン",
    "prefecture_code": 14,
    "city": "小田原市",
    "city_kana": "オダワラシ",
    "town": "谷津",
    "town_kana": "ヤツ",
    "street": null,
    "office_name": null,
    "office_name_kana": null
  },
  "0044": {
    "postcode": "2500044",
    "prefecture": "神奈川県",
    "prefecture_kana": "カナガワケン",
    "prefecture_code": 14,
    "city": "小田原市",
    "city_kana": "オダワラシ",
    "town": "緑",
    "town_kana": "ミドリ",
    "street": null,
    "office_name": null,
    "office_name_kana": null
  },
  "0045": {
    "postcode": "2500045",
    "prefecture": "神奈川県",
    "prefecture_kana": "カナガワケン",
    "prefecture_code": 14,
    "city": "小田原市",
    "city_kana": "オダワラシ",
    "town": "城山",
    "town_kana": "シロヤマ",
    "street": null,
    "office_name": null,
    "office_name_kana": null
  },
  "0046": {
    "postcode": "2500046",
    "prefecture": "神奈川県",
    "prefecture_kana": "カナガワケン",
    "prefecture_code": 14,
    "city": "小田原市",
    "city_kana": "オダワラシ",
    "town": "十字",
    "town_kana": "ジュウジ",
    "street": null,
    "office_name": null,
    "office_name_kana": null
  },
  "0051": {
    "postcode": "2500051",
    "prefecture": "神奈川県",
    "prefecture_kana": "カナガワケン",
    "prefecture_code": 14,
    "city": "小田原市",
    "city_kana": "オダワラシ",
    "town": "北ノ窪",
    "town_kana": "キタノクボ",
    "street": null,
    "office_name": null,
    "office_name_kana": null
  },
  "0052": {
    "postcode": "2500052",
    "prefecture": "神奈川県",
    "prefecture_kana": "カナガワケン",
    "prefecture_code": 14,
    "city": "小田原市",
    "city_kana": "オダワラシ",
    "town": "府川",
    "town_kana": "フカワ",
    "street": null,
    "office_name": null,
    "office_name_kana": null
  },
  "0053": {
    "postcode": "2500053",
    "prefecture": "神奈川県",
    "prefecture_kana": "カナガワケン",
    "prefecture_code": 14,
    "city": "小田原市",
    "city_kana": "オダワラシ",
    "town": "穴部",
    "town_kana": "アナベ",
    "street": null,
    "office_name": null,
    "office_name_kana": null
  },
  "0054": {
    "postcode": "2500054",
    "prefecture": "神奈川県",
    "prefecture_kana": "カナガワケン",
    "prefecture_code": 14,
    "city": "小田原市",
    "city_kana": "オダワラシ",
    "town": "多古",
    "town_kana": "タコ",
    "street": null,
    "office_name": null,
    "office_name_kana": null
  },
  "0055": {
    "postcode": "2500055",
    "prefecture": "神奈川県",
    "prefecture_kana": "カナガワケン",
    "prefecture_code": 14,
    "city": "小田原市",
    "city_kana": "オダワラシ",
    "town": "久野",
    "town_kana": "クノ",
    "street": null,
    "office_name": null,
    "office_name_kana": null
  },
  "0056": {
    "postcode": "2500056",
    "prefecture": "神奈川県",
    "prefecture_kana": "カナガワケン",
    "prefecture_code": 14,
    "city": "小田原市",
    "city_kana": "オダワラシ",
    "town": "井細田",
    "town_kana": "イサイダ",
    "street": null,
    "office_name": null,
    "office_name_kana": null
  },
  "0100": {
    "postcode": "2500100",
    "prefecture": "神奈川県",
    "prefecture_kana": "カナガワケン",
    "prefecture_code": 14,
    "city": "南足柄市",
    "city_kana": "ミナミアシガラシ",
    "town": "",
    "town_kana": "",
    "street": null,
    "office_name": null,
    "office_name_kana": null
  },
  "0101": {
    "postcode": "2500101",
    "prefecture": "神奈川県",
    "prefecture_kana": "カナガワケン",
    "prefecture_code": 14,
    "city": "南足柄市",
    "city_kana": "ミナミアシガラシ",
    "town": "班目",
    "town_kana": "マダラメ",
    "street": null,
    "office_name": null,
    "office_name_kana": null
  },
  "0102": {
    "postcode": "2500102",
    "prefecture": "神奈川県",
    "prefecture_kana": "カナガワケン",
    "prefecture_code": 14,
    "city": "南足柄市",
    "city_kana": "ミナミアシガラシ",
    "town": "千津島",
    "town_kana": "センヅシマ",
    "street": null,
    "office_name": null,
    "office_name_kana": null
  },
  "0103": {
    "postcode": "2500103",
    "prefecture": "神奈川県",
    "prefecture_kana": "カナガワケン",
    "prefecture_code": 14,
    "city": "南足柄市",
    "city_kana": "ミナミアシガラシ",
    "town": "壗下",
    "town_kana": "ママシタ",
    "street": null,
    "office_name": null,
    "office_name_kana": null
  },
  "0104": {
    "postcode": "2500104",
    "prefecture": "神奈川県",
    "prefecture_kana": "カナガワケン",
    "prefecture_code": 14,
    "city": "南足柄市",
    "city_kana": "ミナミアシガラシ",
    "town": "向田",
    "town_kana": "ムカイダ",
    "street": null,
    "office_name": null,
    "office_name_kana": null
  },
  "0105": {
    "postcode": "2500105",
    "prefecture": "神奈川県",
    "prefecture_kana": "カナガワケン",
    "prefecture_code": 14,
    "city": "南足柄市",
    "city_kana": "ミナミアシガラシ",
    "town": "関本",
    "town_kana": "セキモト",
    "street": null,
    "office_name": null,
    "office_name_kana": null
  },
  "0106": {
    "postcode": "2500106",
    "prefecture": "神奈川県",
    "prefecture_kana": "カナガワケン",
    "prefecture_code": 14,
    "city": "南足柄市",
    "city_kana": "ミナミアシガラシ",
    "town": "怒田",
    "town_kana": "ヌダ",
    "street": null,
    "office_name": null,
    "office_name_kana": null
  },
  "0107": {
    "postcode": "2500107",
    "prefecture": "神奈川県",
    "prefecture_kana": "カナガワケン",
    "prefecture_code": 14,
    "city": "南足柄市",
    "city_kana": "ミナミアシガラシ",
    "town": "小市",
    "town_kana": "コイチ",
    "street": null,
    "office_name": null,
    "office_name_kana": null
  },
  "0111": {
    "postcode": "2500111",
    "prefecture": "神奈川県",
    "prefecture_kana": "カナガワケン",
    "prefecture_code": 14,
    "city": "南足柄市",
    "city_kana": "ミナミアシガラシ",
    "town": "竹松",
    "town_kana": "タケマツ",
    "street": null,
    "office_name": null,
    "office_name_kana": null
  },
  "0112": {
    "postcode": "2500112",
    "prefecture": "神奈川県",
    "prefecture_kana": "カナガワケン",
    "prefecture_code": 14,
    "city": "南足柄市",
    "city_kana": "ミナミアシガラシ",
    "town": "和田河原",
    "town_kana": "ワダガハラ",
    "street": null,
    "office_name": null,
    "office_name_kana": null
  },
  "0113": {
    "postcode": "2500113",
    "prefecture": "神奈川県",
    "prefecture_kana": "カナガワケン",
    "prefecture_code": 14,
    "city": "南足柄市",
    "city_kana": "ミナミアシガラシ",
    "town": "岩原",
    "town_kana": "イワハラ",
    "street": null,
    "office_name": null,
    "office_name_kana": null
  },
  "0114": {
    "postcode": "2500114",
    "prefecture": "神奈川県",
    "prefecture_kana": "カナガワケン",
    "prefecture_code": 14,
    "city": "南足柄市",
    "city_kana": "ミナミアシガラシ",
    "town": "北窪",
    "town_kana": "キタクボ",
    "street": null,
    "office_name": null,
    "office_name_kana": null
  },
  "0115": {
    "postcode": "2500115",
    "prefecture": "神奈川県",
    "prefecture_kana": "カナガワケン",
    "prefecture_code": 14,
    "city": "南足柄市",
    "city_kana": "ミナミアシガラシ",
    "town": "沼田",
    "town_kana": "ヌマタ",
    "street": null,
    "office_name": null,
    "office_name_kana": null
  },
  "0116": {
    "postcode": "2500116",
    "prefecture": "神奈川県",
    "prefecture_kana": "カナガワケン",
    "prefecture_code": 14,
    "city": "南足柄市",
    "city_kana": "ミナミアシガラシ",
    "town": "三竹",
    "town_kana": "ミタケ",
    "street": null,
    "office_name": null,
    "office_name_kana": null
  },
  "0117": {
    "postcode": "2500117",
    "prefecture": "神奈川県",
    "prefecture_kana": "カナガワケン",
    "prefecture_code": 14,
    "city": "南足柄市",
    "city_kana": "ミナミアシガラシ",
    "town": "塚原",
    "town_kana": "ツカハラ",
    "street": null,
    "office_name": null,
    "office_name_kana": null
  },
  "0121": {
    "postcode": "2500121",
    "prefecture": "神奈川県",
    "prefecture_kana": "カナガワケン",
    "prefecture_code": 14,
    "city": "南足柄市",
    "city_kana": "ミナミアシガラシ",
    "town": "広町",
    "town_kana": "ヒロマチ",
    "street": null,
    "office_name": null,
    "office_name_kana": null
  },
  "0122": {
    "postcode": "2500122",
    "prefecture": "神奈川県",
    "prefecture_kana": "カナガワケン",
    "prefecture_code": 14,
    "city": "南足柄市",
    "city_kana": "ミナミアシガラシ",
    "town": "飯沢",
    "town_kana": "イイザワ",
    "street": null,
    "office_name": null,
    "office_name_kana": null
  },
  "0123": {
    "postcode": "2500123",
    "prefecture": "神奈川県",
    "prefecture_kana": "カナガワケン",
    "prefecture_code": 14,
    "city": "南足柄市",
    "city_kana": "ミナミアシガラシ",
    "town": "中沼",
    "town_kana": "ナカヌマ",
    "street": null,
    "office_name": null,
    "office_name_kana": null
  },
  "0124": {
    "postcode": "2500124",
    "prefecture": "神奈川県",
    "prefecture_kana": "カナガワケン",
    "prefecture_code": 14,
    "city": "南足柄市",
    "city_kana": "ミナミアシガラシ",
    "town": "生駒",
    "town_kana": "イコマ",
    "street": null,
    "office_name": null,
    "office_name_kana": null
  },
  "0125": {
    "postcode": "2500125",
    "prefecture": "神奈川県",
    "prefecture_kana": "カナガワケン",
    "prefecture_code": 14,
    "city": "南足柄市",
    "city_kana": "ミナミアシガラシ",
    "town": "駒形新宿",
    "town_kana": "コマガタシンシュク",
    "street": null,
    "office_name": null,
    "office_name_kana": null
  },
  "0126": {
    "postcode": "2500126",
    "prefecture": "神奈川県",
    "prefecture_kana": "カナガワケン",
    "prefecture_code": 14,
    "city": "南足柄市",
    "city_kana": "ミナミアシガラシ",
    "town": "狩野",
    "town_kana": "カノ",
    "street": null,
    "office_name": null,
    "office_name_kana": null
  },
  "0127": {
    "postcode": "2500127",
    "prefecture": "神奈川県",
    "prefecture_kana": "カナガワケン",
    "prefecture_code": 14,
    "city": "南足柄市",
    "city_kana": "ミナミアシガラシ",
    "town": "大雄町",
    "town_kana": "ダイユウチョウ",
    "street": null,
    "office_name": null,
    "office_name_kana": null
  },
  "0131": {
    "postcode": "2500131",
    "prefecture": "神奈川県",
    "prefecture_kana": "カナガワケン",
    "prefecture_code": 14,
    "city": "南足柄市",
    "city_kana": "ミナミアシガラシ",
    "town": "内山",
    "town_kana": "ウチヤマ",
    "street": null,
    "office_name": null,
    "office_name_kana": null
  },
  "0132": {
    "postcode": "2500132",
    "prefecture": "神奈川県",
    "prefecture_kana": "カナガワケン",
    "prefecture_code": 14,
    "city": "南足柄市",
    "city_kana": "ミナミアシガラシ",
    "town": "弘西寺",
    "town_kana": "コウサイジ",
    "street": null,
    "office_name": null,
    "office_name_kana": null
  },
  "0133": {
    "postcode": "2500133",
    "prefecture": "神奈川県",
    "prefecture_kana": "カナガワケン",
    "prefecture_code": 14,
    "city": "南足柄市",
    "city_kana": "ミナミアシガラシ",
    "town": "福泉",
    "town_kana": "フクセン",
    "street": null,
    "office_name": null,
    "office_name_kana": null
  },
  "0134": {
    "postcode": "2500134",
    "prefecture": "神奈川県",
    "prefecture_kana": "カナガワケン",
    "prefecture_code": 14,
    "city": "南足柄市",
    "city_kana": "ミナミアシガラシ",
    "town": "雨坪",
    "town_kana": "アマツボ",
    "street": null,
    "office_name": null,
    "office_name_kana": null
  },
  "0135": {
    "postcode": "2500135",
    "prefecture": "神奈川県",
    "prefecture_kana": "カナガワケン",
    "prefecture_code": 14,
    "city": "南足柄市",
    "city_kana": "ミナミアシガラシ",
    "town": "苅野",
    "town_kana": "カリノ",
    "street": null,
    "office_name": null,
    "office_name_kana": null
  },
  "0136": {
    "postcode": "2500136",
    "prefecture": "神奈川県",
    "prefecture_kana": "カナガワケン",
    "prefecture_code": 14,
    "city": "南足柄市",
    "city_kana": "ミナミアシガラシ",
    "town": "矢倉沢",
    "town_kana": "ヤグラザワ",
    "street": null,
    "office_name": null,
    "office_name_kana": null
  },
  "0192": {
    "postcode": "2500192",
    "prefecture": "神奈川県",
    "prefecture_kana": "カナガワケン",
    "prefecture_code": 14,
    "city": "南足柄市",
    "city_kana": "ミナミアシガラシ",
    "town": "関本",
    "town_kana": "セキモト",
    "street": "４４０番地",
    "office_name": "南足柄市役所",
    "office_name_kana": "ミナミアシガラシヤクシヨ"
  },
  "0193": {
    "postcode": "2500193",
    "prefecture": "神奈川県",
    "prefecture_kana": "カナガワケン",
    "prefecture_code": 14,
    "city": "南足柄市",
    "city_kana": "ミナミアシガラシ",
    "town": "中沼",
    "town_kana": "ナカヌマ",
    "street": "２１０",
    "office_name": "富士フイルム　株式会社　神奈川事業場",
    "office_name_kana": "フジフイルム カブシキガイシヤ カナガワジギヨウジヨウ"
  },
  "0201": {
    "postcode": "2500201",
    "prefecture": "神奈川県",
    "prefecture_kana": "カナガワケン",
    "prefecture_code": 14,
    "city": "小田原市",
    "city_kana": "オダワラシ",
    "town": "曽我大沢",
    "town_kana": "ソガオオサワ",
    "street": null,
    "office_name": null,
    "office_name_kana": null
  },
  "0202": {
    "postcode": "2500202",
    "prefecture": "神奈川県",
    "prefecture_kana": "カナガワケン",
    "prefecture_code": 14,
    "city": "小田原市",
    "city_kana": "オダワラシ",
    "town": "上曽我",
    "town_kana": "カミソガ",
    "street": null,
    "office_name": null,
    "office_name_kana": null
  },
  "0203": {
    "postcode": "2500203",
    "prefecture": "神奈川県",
    "prefecture_kana": "カナガワケン",
    "prefecture_code": 14,
    "city": "小田原市",
    "city_kana": "オダワラシ",
    "town": "曽我岸",
    "town_kana": "ソガキシ",
    "street": null,
    "office_name": null,
    "office_name_kana": null
  },
  "0204": {
    "postcode": "2500204",
    "prefecture": "神奈川県",
    "prefecture_kana": "カナガワケン",
    "prefecture_code": 14,
    "city": "小田原市",
    "city_kana": "オダワラシ",
    "town": "曽我谷津",
    "town_kana": "ソガヤツ",
    "street": null,
    "office_name": null,
    "office_name_kana": null
  },
  "0205": {
    "postcode": "2500205",
    "prefecture": "神奈川県",
    "prefecture_kana": "カナガワケン",
    "prefecture_code": 14,
    "city": "小田原市",
    "city_kana": "オダワラシ",
    "town": "曽我別所",
    "town_kana": "ソガベッショ",
    "street": null,
    "office_name": null,
    "office_name_kana": null
  },
  "0206": {
    "postcode": "2500206",
    "prefecture": "神奈川県",
    "prefecture_kana": "カナガワケン",
    "prefecture_code": 14,
    "city": "小田原市",
    "city_kana": "オダワラシ",
    "town": "曽我原",
    "town_kana": "ソガハラ",
    "street": null,
    "office_name": null,
    "office_name_kana": null
  },
  "0207": {
    "postcode": "2500207",
    "prefecture": "神奈川県",
    "prefecture_kana": "カナガワケン",
    "prefecture_code": 14,
    "city": "小田原市",
    "city_kana": "オダワラシ",
    "town": "曽我光海",
    "town_kana": "ソガコウミ",
    "street": null,
    "office_name": null,
    "office_name_kana": null
  },
  "0208": {
    "postcode": "2500208",
    "prefecture": "神奈川県",
    "prefecture_kana": "カナガワケン",
    "prefecture_code": 14,
    "city": "小田原市",
    "city_kana": "オダワラシ",
    "town": "下大井",
    "town_kana": "シモオオイ",
    "street": null,
    "office_name": null,
    "office_name_kana": null
  },
  "0211": {
    "postcode": "2500211",
    "prefecture": "神奈川県",
    "prefecture_kana": "カナガワケン",
    "prefecture_code": 14,
    "city": "小田原市",
    "city_kana": "オダワラシ",
    "town": "鬼柳",
    "town_kana": "オニヤナギ",
    "street": null,
    "office_name": null,
    "office_name_kana": null
  },
  "0212": {
    "postcode": "2500212",
    "prefecture": "神奈川県",
    "prefecture_kana": "カナガワケン",
    "prefecture_code": 14,
    "city": "小田原市",
    "city_kana": "オダワラシ",
    "town": "西大友",
    "town_kana": "ニシオオドモ",
    "street": null,
    "office_name": null,
    "office_name_kana": null
  },
  "0213": {
    "postcode": "2500213",
    "prefecture": "神奈川県",
    "prefecture_kana": "カナガワケン",
    "prefecture_code": 14,
    "city": "小田原市",
    "city_kana": "オダワラシ",
    "town": "東大友",
    "town_kana": "ヒガシオオドモ",
    "street": null,
    "office_name": null,
    "office_name_kana": null
  },
  "0214": {
    "postcode": "2500214",
    "prefecture": "神奈川県",
    "prefecture_kana": "カナガワケン",
    "prefecture_code": 14,
    "city": "小田原市",
    "city_kana": "オダワラシ",
    "town": "永塚",
    "town_kana": "ナガツカ",
    "street": null,
    "office_name": null,
    "office_name_kana": null
  },
  "0215": {
    "postcode": "2500215",
    "prefecture": "神奈川県",
    "prefecture_kana": "カナガワケン",
    "prefecture_code": 14,
    "city": "小田原市",
    "city_kana": "オダワラシ",
    "town": "千代",
    "town_kana": "チヨ",
    "street": null,
    "office_name": null,
    "office_name_kana": null
  },
  "0216": {
    "postcode": "2500216",
    "prefecture": "神奈川県",
    "prefecture_kana": "カナガワケン",
    "prefecture_code": 14,
    "city": "小田原市",
    "city_kana": "オダワラシ",
    "town": "高田",
    "town_kana": "タカタ",
    "street": null,
    "office_name": null,
    "office_name_kana": null
  },
  "0217": {
    "postcode": "2500217",
    "prefecture": "神奈川県",
    "prefecture_kana": "カナガワケン",
    "prefecture_code": 14,
    "city": "小田原市",
    "city_kana": "オダワラシ",
    "town": "別堀",
    "town_kana": "ベッポリ",
    "street": null,
    "office_name": null,
    "office_name_kana": null
  },
  "0218": {
    "postcode": "2500218",
    "prefecture": "神奈川県",
    "prefecture_kana": "カナガワケン",
    "prefecture_code": 14,
    "city": "小田原市",
    "city_kana": "オダワラシ",
    "town": "延清",
    "town_kana": "ノブキヨ",
    "street": null,
    "office_name": null,
    "office_name_kana": null
  },
  "0280": {
    "postcode": "2500280",
    "prefecture": "神奈川県",
    "prefecture_kana": "カナガワケン",
    "prefecture_code": 14,
    "city": "小田原市",
    "city_kana": "オダワラシ",
    "town": "高田",
    "town_kana": "タカタ",
    "street": "３４５",
    "office_name": "日本曹達　株式会社　小田原研究所",
    "office_name_kana": "ニホンソ-ダ カブシキガイシヤ オダワラケンキユウシヨ"
  },
  "0292": {
    "postcode": "2500292",
    "prefecture": "神奈川県",
    "prefecture_kana": "カナガワケン",
    "prefecture_code": 14,
    "city": "小田原市",
    "city_kana": "オダワラシ",
    "town": "鬼柳",
    "town_kana": "オニヤナギ",
    "street": "１３８−２４",
    "office_name": "株式会社　竿好",
    "office_name_kana": "カブシキガイシヤ サオヨシ"
  },
  "0293": {
    "postcode": "2500293",
    "prefecture": "神奈川県",
    "prefecture_kana": "カナガワケン",
    "prefecture_code": 14,
    "city": "小田原市",
    "city_kana": "オダワラシ",
    "town": "西大友",
    "town_kana": "ニシオオドモ",
    "street": "２０５−２",
    "office_name": "愛光電気　株式会社",
    "office_name_kana": "アイコウデンキ カブシキガイシヤ"
  },
  "0294": {
    "postcode": "2500294",
    "prefecture": "神奈川県",
    "prefecture_kana": "カナガワケン",
    "prefecture_code": 14,
    "city": "小田原市",
    "city_kana": "オダワラシ",
    "town": "鬼柳",
    "town_kana": "オニヤナギ",
    "street": "１８４−６",
    "office_name": "有限会社　ルートフィッシィング",
    "office_name_kana": "ユウゲンガイシヤ ル-トフイツシイング"
  },
  "0295": {
    "postcode": "2500295",
    "prefecture": "神奈川県",
    "prefecture_kana": "カナガワケン",
    "prefecture_code": 14,
    "city": "小田原市",
    "city_kana": "オダワラシ",
    "town": "高田",
    "town_kana": "タカタ",
    "street": "３１３",
    "office_name": "日本インジェクタ　株式会社",
    "office_name_kana": "ニホンインジエクタ カブシキガイシヤ"
  },
  "0296": {
    "postcode": "2500296",
    "prefecture": "神奈川県",
    "prefecture_kana": "カナガワケン",
    "prefecture_code": 14,
    "city": "小田原市",
    "city_kana": "オダワラシ",
    "town": "高田",
    "town_kana": "タカタ",
    "street": "４０１",
    "office_name": "小田原市水道局",
    "office_name_kana": "オダワラシスイドウキヨク"
  },
  "0298": {
    "postcode": "2500298",
    "prefecture": "神奈川県",
    "prefecture_kana": "カナガワケン",
    "prefecture_code": 14,
    "city": "小田原市",
    "city_kana": "オダワラシ",
    "town": "鬼柳",
    "town_kana": "オニヤナギ",
    "street": "１７２−１３",
    "office_name": "株式会社　大川",
    "office_name_kana": "カブシキガイシヤ オオカワ"
  },
  "0311": {
    "postcode": "2500311",
    "prefecture": "神奈川県",
    "prefecture_kana": "カナガワケン",
    "prefecture_code": 14,
    "city": "足柄下郡箱根町",
    "city_kana": "アシガラシモグンハコネマチ",
    "town": "湯本",
    "town_kana": "ユモト",
    "street": null,
    "office_name": null,
    "office_name_kana": null
  },
  "0312": {
    "postcode": "2500312",
    "prefecture": "神奈川県",
    "prefecture_kana": "カナガワケン",
    "prefecture_code": 14,
    "city": "足柄下郡箱根町",
    "city_kana": "アシガラシモグンハコネマチ",
    "town": "湯本茶屋",
    "town_kana": "ユモトチャヤ",
    "street": null,
    "office_name": null,
    "office_name_kana": null
  },
  "0313": {
    "postcode": "2500313",
    "prefecture": "神奈川県",
    "prefecture_kana": "カナガワケン",
    "prefecture_code": 14,
    "city": "足柄下郡箱根町",
    "city_kana": "アシガラシモグンハコネマチ",
    "town": "須雲川",
    "town_kana": "スクモガワ",
    "street": null,
    "office_name": null,
    "office_name_kana": null
  },
  "0314": {
    "postcode": "2500314",
    "prefecture": "神奈川県",
    "prefecture_kana": "カナガワケン",
    "prefecture_code": 14,
    "city": "足柄下郡箱根町",
    "city_kana": "アシガラシモグンハコネマチ",
    "town": "畑宿",
    "town_kana": "ハタジュク",
    "street": null,
    "office_name": null,
    "office_name_kana": null
  },
  "0315": {
    "postcode": "2500315",
    "prefecture": "神奈川県",
    "prefecture_kana": "カナガワケン",
    "prefecture_code": 14,
    "city": "足柄下郡箱根町",
    "city_kana": "アシガラシモグンハコネマチ",
    "town": "塔之澤",
    "town_kana": "トウノサワ",
    "street": null,
    "office_name": null,
    "office_name_kana": null
  },
  "0392": {
    "postcode": "2500392",
    "prefecture": "神奈川県",
    "prefecture_kana": "カナガワケン",
    "prefecture_code": 14,
    "city": "足柄下郡箱根町",
    "city_kana": "アシガラシモグンハコネマチ",
    "town": "湯本",
    "town_kana": "ユモト",
    "street": "２５６−１",
    "office_name": "富士屋ホテル　株式会社　湯本富士屋ホテル",
    "office_name_kana": "フジヤホテル カブシキガイシヤ ユモトフジヤホテル"
  },
  "0398": {
    "postcode": "2500398",
    "prefecture": "神奈川県",
    "prefecture_kana": "カナガワケン",
    "prefecture_code": 14,
    "city": "足柄下郡箱根町",
    "city_kana": "アシガラシモグンハコネマチ",
    "town": "湯本",
    "town_kana": "ユモト",
    "street": "２５６",
    "office_name": "箱根町役場",
    "office_name_kana": "ハコネマチヤクバ"
  },
  "0401": {
    "postcode": "2500401",
    "prefecture": "神奈川県",
    "prefecture_kana": "カナガワケン",
    "prefecture_code": 14,
    "city": "足柄下郡箱根町",
    "city_kana": "アシガラシモグンハコネマチ",
    "town": "宮城野",
    "town_kana": "ミヤギノ",
    "street": null,
    "office_name": null,
    "office_name_kana": null
  },
  "0402": {
    "postcode": "2500402",
    "prefecture": "神奈川県",
    "prefecture_kana": "カナガワケン",
    "prefecture_code": 14,
    "city": "足柄下郡箱根町",
    "city_kana": "アシガラシモグンハコネマチ",
    "town": "木賀",
    "town_kana": "キガ",
    "street": null,
    "office_name": null,
    "office_name_kana": null
  },
  "0403": {
    "postcode": "2500403",
    "prefecture": "神奈川県",
    "prefecture_kana": "カナガワケン",
    "prefecture_code": 14,
    "city": "足柄下郡箱根町",
    "city_kana": "アシガラシモグンハコネマチ",
    "town": "底倉",
    "town_kana": "ソコクラ",
    "street": null,
    "office_name": null,
    "office_name_kana": null
  },
  "0404": {
    "postcode": "2500404",
    "prefecture": "神奈川県",
    "prefecture_kana": "カナガワケン",
    "prefecture_code": 14,
    "city": "足柄下郡箱根町",
    "city_kana": "アシガラシモグンハコネマチ",
    "town": "宮ノ下",
    "town_kana": "ミヤノシタ",
    "street": null,
    "office_name": null,
    "office_name_kana": null
  },
  "0405": {
    "postcode": "2500405",
    "prefecture": "神奈川県",
    "prefecture_kana": "カナガワケン",
    "prefecture_code": 14,
    "city": "足柄下郡箱根町",
    "city_kana": "アシガラシモグンハコネマチ",
    "town": "大平台",
    "town_kana": "オオヒラダイ",
    "street": null,
    "office_name": null,
    "office_name_kana": null
  },
  "0406": {
    "postcode": "2500406",
    "prefecture": "神奈川県",
    "prefecture_kana": "カナガワケン",
    "prefecture_code": 14,
    "city": "足柄下郡箱根町",
    "city_kana": "アシガラシモグンハコネマチ",
    "town": "小涌谷",
    "town_kana": "コワクダニ",
    "street": null,
    "office_name": null,
    "office_name_kana": null
  },
  "0407": {
    "postcode": "2500407",
    "prefecture": "神奈川県",
    "prefecture_kana": "カナガワケン",
    "prefecture_code": 14,
    "city": "足柄下郡箱根町",
    "city_kana": "アシガラシモグンハコネマチ",
    "town": "二ノ平",
    "town_kana": "ニノタイラ",
    "street": null,
    "office_name": null,
    "office_name_kana": null
  },
  "0408": {
    "postcode": "2500408",
    "prefecture": "神奈川県",
    "prefecture_kana": "カナガワケン",
    "prefecture_code": 14,
    "city": "足柄下郡箱根町",
    "city_kana": "アシガラシモグンハコネマチ",
    "town": "強羅",
    "town_kana": "ゴウラ",
    "street": null,
    "office_name": null,
    "office_name_kana": null
  },
  "0493": {
    "postcode": "2500493",
    "prefecture": "神奈川県",
    "prefecture_kana": "カナガワケン",
    "prefecture_code": 14,
    "city": "足柄下郡箱根町",
    "city_kana": "アシガラシモグンハコネマチ",
    "town": "ニノ平",
    "town_kana": null,
    "street": "１１２１",
    "office_name": "公益財団法人　彫刻の森芸術文化財団　彫刻の森美術館",
    "office_name_kana": "コウエキザイダンホウジン チヨウコクノモリゲイジユツブンカザイダン チヨウコクノモリビジユツカン"
  },
  "0500": {
    "postcode": "2500500",
    "prefecture": "神奈川県",
    "prefecture_kana": "カナガワケン",
    "prefecture_code": 14,
    "city": "足柄下郡箱根町",
    "city_kana": "アシガラシモグンハコネマチ",
    "town": "",
    "town_kana": "",
    "street": null,
    "office_name": null,
    "office_name_kana": null
  },
  "0521": {
    "postcode": "2500521",
    "prefecture": "神奈川県",
    "prefecture_kana": "カナガワケン",
    "prefecture_code": 14,
    "city": "足柄下郡箱根町",
    "city_kana": "アシガラシモグンハコネマチ",
    "town": "箱根",
    "town_kana": "ハコネ",
    "street": null,
    "office_name": null,
    "office_name_kana": null
  },
  "0522": {
    "postcode": "2500522",
    "prefecture": "神奈川県",
    "prefecture_kana": "カナガワケン",
    "prefecture_code": 14,
    "city": "足柄下郡箱根町",
    "city_kana": "アシガラシモグンハコネマチ",
    "town": "元箱根",
    "town_kana": "モトハコネ",
    "street": null,
    "office_name": null,
    "office_name_kana": null
  },
  "0523": {
    "postcode": "2500523",
    "prefecture": "神奈川県",
    "prefecture_kana": "カナガワケン",
    "prefecture_code": 14,
    "city": "足柄下郡箱根町",
    "city_kana": "アシガラシモグンハコネマチ",
    "town": "芦之湯",
    "town_kana": "アシノユ",
    "street": null,
    "office_name": null,
    "office_name_kana": null
  },
  "0592": {
    "postcode": "2500592",
    "prefecture": "神奈川県",
    "prefecture_kana": "カナガワケン",
    "prefecture_code": 14,
    "city": "足柄下郡箱根町",
    "city_kana": "アシガラシモグンハコネマチ",
    "town": "元箱根",
    "town_kana": "モトハコネ",
    "street": "１４４",
    "office_name": "箱根プリンスホテル",
    "office_name_kana": "ハコネプリンスホテル"
  },
  "0631": {
    "postcode": "2500631",
    "prefecture": "神奈川県",
    "prefecture_kana": "カナガワケン",
    "prefecture_code": 14,
    "city": "足柄下郡箱根町",
    "city_kana": "アシガラシモグンハコネマチ",
    "town": "仙石原",
    "town_kana": "センゴクハラ",
    "street": null,
    "office_name": null,
    "office_name_kana": null
  },
  "0851": {
    "postcode": "2500851",
    "prefecture": "神奈川県",
    "prefecture_kana": "カナガワケン",
    "prefecture_code": 14,
    "city": "小田原市",
    "city_kana": "オダワラシ",
    "town": "曽比",
    "town_kana": "ソビ",
    "street": null,
    "office_name": null,
    "office_name_kana": null
  },
  "0852": {
    "postcode": "2500852",
    "prefecture": "神奈川県",
    "prefecture_kana": "カナガワケン",
    "prefecture_code": 14,
    "city": "小田原市",
    "city_kana": "オダワラシ",
    "town": "栢山",
    "town_kana": "カヤマ",
    "street": null,
    "office_name": null,
    "office_name_kana": null
  },
  "0853": {
    "postcode": "2500853",
    "prefecture": "神奈川県",
    "prefecture_kana": "カナガワケン",
    "prefecture_code": 14,
    "city": "小田原市",
    "city_kana": "オダワラシ",
    "town": "堀之内",
    "town_kana": "ホリノウチ",
    "street": null,
    "office_name": null,
    "office_name_kana": null
  },
  "0854": {
    "postcode": "2500854",
    "prefecture": "神奈川県",
    "prefecture_kana": "カナガワケン",
    "prefecture_code": 14,
    "city": "小田原市",
    "city_kana": "オダワラシ",
    "town": "飯田岡",
    "town_kana": "イイダオカ",
    "street": null,
    "office_name": null,
    "office_name_kana": null
  },
  "0855": {
    "postcode": "2500855",
    "prefecture": "神奈川県",
    "prefecture_kana": "カナガワケン",
    "prefecture_code": 14,
    "city": "小田原市",
    "city_kana": "オダワラシ",
    "town": "清水新田",
    "town_kana": "シミズシンデン",
    "street": null,
    "office_name": null,
    "office_name_kana": null
  },
  "0856": {
    "postcode": "2500856",
    "prefecture": "神奈川県",
    "prefecture_kana": "カナガワケン",
    "prefecture_code": 14,
    "city": "小田原市",
    "city_kana": "オダワラシ",
    "town": "新屋",
    "town_kana": "アラヤ",
    "street": null,
    "office_name": null,
    "office_name_kana": null
  },
  "0857": {
    "postcode": "2500857",
    "prefecture": "神奈川県",
    "prefecture_kana": "カナガワケン",
    "prefecture_code": 14,
    "city": "小田原市",
    "city_kana": "オダワラシ",
    "town": "柳新田",
    "town_kana": "ヤナギシンデン",
    "street": null,
    "office_name": null,
    "office_name_kana": null
  },
  "0858": {
    "postcode": "2500858",
    "prefecture": "神奈川県",
    "prefecture_kana": "カナガワケン",
    "prefecture_code": 14,
    "city": "小田原市",
    "city_kana": "オダワラシ",
    "town": "小台",
    "town_kana": "コダイ",
    "street": null,
    "office_name": null,
    "office_name_kana": null
  },
  "0861": {
    "postcode": "2500861",
    "prefecture": "神奈川県",
    "prefecture_kana": "カナガワケン",
    "prefecture_code": 14,
    "city": "小田原市",
    "city_kana": "オダワラシ",
    "town": "桑原",
    "town_kana": "クワハラ",
    "street": null,
    "office_name": null,
    "office_name_kana": null
  },
  "0862": {
    "postcode": "2500862",
    "prefecture": "神奈川県",
    "prefecture_kana": "カナガワケン",
    "prefecture_code": 14,
    "city": "小田原市",
    "city_kana": "オダワラシ",
    "town": "成田",
    "town_kana": "ナルダ",
    "street": null,
    "office_name": null,
    "office_name_kana": null
  },
  "0863": {
    "postcode": "2500863",
    "prefecture": "神奈川県",
    "prefecture_kana": "カナガワケン",
    "prefecture_code": 14,
    "city": "小田原市",
    "city_kana": "オダワラシ",
    "town": "飯泉",
    "town_kana": "イイズミ",
    "street": null,
    "office_name": null,
    "office_name_kana": null
  },
  "0864": {
    "postcode": "2500864",
    "prefecture": "神奈川県",
    "prefecture_kana": "カナガワケン",
    "prefecture_code": 14,
    "city": "小田原市",
    "city_kana": "オダワラシ",
    "town": "穴部新田",
    "town_kana": "アナベシンデン",
    "street": null,
    "office_name": null,
    "office_name_kana": null
  },
  "0865": {
    "postcode": "2500865",
    "prefecture": "神奈川県",
    "prefecture_kana": "カナガワケン",
    "prefecture_code": 14,
    "city": "小田原市",
    "city_kana": "オダワラシ",
    "town": "蓮正寺",
    "town_kana": "レンショウジ",
    "street": null,
    "office_name": null,
    "office_name_kana": null
  },
  "0866": {
    "postcode": "2500866",
    "prefecture": "神奈川県",
    "prefecture_kana": "カナガワケン",
    "prefecture_code": 14,
    "city": "小田原市",
    "city_kana": "オダワラシ",
    "town": "中曽根",
    "town_kana": "ナカゾネ",
    "street": null,
    "office_name": null,
    "office_name_kana": null
  },
  "0871": {
    "postcode": "2500871",
    "prefecture": "神奈川県",
    "prefecture_kana": "カナガワケン",
    "prefecture_code": 14,
    "city": "小田原市",
    "city_kana": "オダワラシ",
    "town": "下堀",
    "town_kana": "シモボリ",
    "street": null,
    "office_name": null,
    "office_name_kana": null
  },
  "0872": {
    "postcode": "2500872",
    "prefecture": "神奈川県",
    "prefecture_kana": "カナガワケン",
    "prefecture_code": 14,
    "city": "小田原市",
    "city_kana": "オダワラシ",
    "town": "中里",
    "town_kana": "ナカザト",
    "street": null,
    "office_name": null,
    "office_name_kana": null
  },
  "0873": {
    "postcode": "2500873",
    "prefecture": "神奈川県",
    "prefecture_kana": "カナガワケン",
    "prefecture_code": 14,
    "city": "小田原市",
    "city_kana": "オダワラシ",
    "town": "矢作",
    "town_kana": "ヤハギ",
    "street": null,
    "office_name": null,
    "office_name_kana": null
  },
  "0874": {
    "postcode": "2500874",
    "prefecture": "神奈川県",
    "prefecture_kana": "カナガワケン",
    "prefecture_code": 14,
    "city": "小田原市",
    "city_kana": "オダワラシ",
    "town": "鴨宮",
    "town_kana": "カモノミヤ",
    "street": null,
    "office_name": null,
    "office_name_kana": null
  },
  "0875": {
    "postcode": "2500875",
    "prefecture": "神奈川県",
    "prefecture_kana": "カナガワケン",
    "prefecture_code": 14,
    "city": "小田原市",
    "city_kana": "オダワラシ",
    "town": "南鴨宮",
    "town_kana": "ミナミカモノミヤ",
    "street": null,
    "office_name": null,
    "office_name_kana": null
  },
  "0876": {
    "postcode": "2500876",
    "prefecture": "神奈川県",
    "prefecture_kana": "カナガワケン",
    "prefecture_code": 14,
    "city": "小田原市",
    "city_kana": "オダワラシ",
    "town": "中新田",
    "town_kana": "ナカシンデン",
    "street": null,
    "office_name": null,
    "office_name_kana": null
  },
  "0877": {
    "postcode": "2500877",
    "prefecture": "神奈川県",
    "prefecture_kana": "カナガワケン",
    "prefecture_code": 14,
    "city": "小田原市",
    "city_kana": "オダワラシ",
    "town": "上新田",
    "town_kana": "カミシンデン",
    "street": null,
    "office_name": null,
    "office_name_kana": null
  },
  "0878": {
    "postcode": "2500878",
    "prefecture": "神奈川県",
    "prefecture_kana": "カナガワケン",
    "prefecture_code": 14,
    "city": "小田原市",
    "city_kana": "オダワラシ",
    "town": "下新田",
    "town_kana": "シモシンデン",
    "street": null,
    "office_name": null,
    "office_name_kana": null
  },
  "8511": {
    "postcode": "2508511",
    "prefecture": "神奈川県",
    "prefecture_kana": "カナガワケン",
    "prefecture_code": 14,
    "city": "小田原市",
    "city_kana": "オダワラシ",
    "town": "荻窪",
    "town_kana": "オギクボ",
    "street": "４４０",
    "office_name": "小田原税務署",
    "office_name_kana": "オダワラゼイムシヨ"
  },
  "8555": {
    "postcode": "2508555",
    "prefecture": "神奈川県",
    "prefecture_kana": "カナガワケン",
    "prefecture_code": 14,
    "city": "小田原市",
    "city_kana": "オダワラシ",
    "town": "荻窪",
    "town_kana": "オギクボ",
    "street": "３００",
    "office_name": "小田原市役所",
    "office_name_kana": "オダワラシヤクシヨ"
  },
  "8560": {
    "postcode": "2508560",
    "prefecture": "神奈川県",
    "prefecture_kana": "カナガワケン",
    "prefecture_code": 14,
    "city": "小田原市",
    "city_kana": "オダワラシ",
    "town": "扇町",
    "town_kana": "オウギチョウ",
    "street": "４−５−１",
    "office_name": "アマゾン　小田原ＦＣ　入庫係",
    "office_name_kana": "アマゾン オダワラエフシ- ニユウコガカリ"
  },
  "8588": {
    "postcode": "2508588",
    "prefecture": "神奈川県",
    "prefecture_kana": "カナガワケン",
    "prefecture_code": 14,
    "city": "小田原市",
    "city_kana": "オダワラシ",
    "town": "城山",
    "town_kana": "シロヤマ",
    "street": "１丁目２−２５",
    "office_name": "国際医療福祉大学　小田原保健医療学部",
    "office_name_kana": "コクサイイリヨウフクシダイガク オダワラホケンイリヨウガクブ"
  }
}