{
  "0000": {
    "postcode": "2570000",
    "prefecture": "神奈川県",
    "prefecture_kana": "カナガワケン",
    "prefecture_code": 14,
    "city": "秦野市",
    "city_kana": "ハダノシ",
    "town": "",
    "town_kana": "",
    "street": null,
    "office_name": null,
    "office_name_kana": null
  },
  "0001": {
    "postcode": "2570001",
    "prefecture": "神奈川県",
    "prefecture_kana": "カナガワケン",
    "prefecture_code": 14,
    "city": "秦野市",
    "city_kana": "ハダノシ",
    "town": "鶴巻北",
    "town_kana": "ツルマキキタ",
    "street": null,
    "office_name": null,
    "office_name_kana": null
  },
  "0002": {
    "postcode": "2570002",
    "prefecture": "神奈川県",
    "prefecture_kana": "カナガワケン",
    "prefecture_code": 14,
    "city": "秦野市",
    "city_kana": "ハダノシ",
    "town": "鶴巻南",
    "town_kana": "ツルマキミナミ",
    "street": null,
    "office_name": null,
    "office_name_kana": null
  },
  "0003": {
    "postcode": "2570003",
    "prefecture": "神奈川県",
    "prefecture_kana": "カナガワケン",
    "prefecture_code": 14,
    "city": "秦野市",
    "city_kana": "ハダノシ",
    "town": "南矢名",
    "town_kana": "ミナミヤナ",
    "street": null,
    "office_name": null,
    "office_name_kana": null
  },
  "0004": {
    "postcode": "2570004",
    "prefecture": "神奈川県",
    "prefecture_kana": "カナガワケン",
    "prefecture_code": 14,
    "city": "秦野市",
    "city_kana": "ハダノシ",
    "town": "下大槻",
    "town_kana": "シモオオヅキ",
    "street": null,
    "office_name": null,
    "office_name_kana": null
  },
  "0005": {
    "postcode": "2570005",
    "prefecture": "神奈川県",
    "prefecture_kana": "カナガワケン",
    "prefecture_code": 14,
    "city": "秦野市",
    "city_kana": "ハダノシ",
    "town": "上大槻",
    "town_kana": "カミオオヅキ",
    "street": null,
    "office_name": null,
    "office_name_kana": null
  },
  "0006": {
    "postcode": "2570006",
    "prefecture": "神奈川県",
    "prefecture_kana": "カナガワケン",
    "prefecture_code": 14,
    "city": "秦野市",
    "city_kana": "ハダノシ",
    "town": "北矢名",
    "town_kana": "キタヤナ",
    "street": null,
    "office_name": null,
    "office_name_kana": null
  },
  "0007": {
    "postcode": "2570007",
    "prefecture": "神奈川県",
    "prefecture_kana": "カナガワケン",
    "prefecture_code": 14,
    "city": "秦野市",
    "city_kana": "ハダノシ",
    "town": "鶴巻",
    "town_kana": "ツルマキ",
    "street": null,
    "office_name": null,
    "office_name_kana": null
  },
  "0011": {
    "postcode": "2570011",
    "prefecture": "神奈川県",
    "prefecture_kana": "カナガワケン",
    "prefecture_code": 14,
    "city": "秦野市",
    "city_kana": "ハダノシ",
    "town": "尾尻",
    "town_kana": "オジリ",
    "street": null,
    "office_name": null,
    "office_name_kana": null
  },
  "0012": {
    "postcode": "2570012",
    "prefecture": "神奈川県",
    "prefecture_kana": "カナガワケン",
    "prefecture_code": 14,
    "city": "秦野市",
    "city_kana": "ハダノシ",
    "town": "西大竹",
    "town_kana": "ニシオオダケ",
    "street": null,
    "office_name": null,
    "office_name_kana": null
  },
  "0013": {
    "postcode": "2570013",
    "prefecture": "神奈川県",
    "prefecture_kana": "カナガワケン",
    "prefecture_code": 14,
    "city": "秦野市",
    "city_kana": "ハダノシ",
    "town": "南が丘",
    "town_kana": "ミナミガオカ",
    "street": null,
    "office_name": null,
    "office_name_kana": null
  },
  "0014": {
    "postcode": "2570014",
    "prefecture": "神奈川県",
    "prefecture_kana": "カナガワケン",
    "prefecture_code": 14,
    "city": "秦野市",
    "city_kana": "ハダノシ",
    "town": "今泉",
    "town_kana": "イマイズミ",
    "street": null,
    "office_name": null,
    "office_name_kana": null
  },
  "0015": {
    "postcode": "2570015",
    "prefecture": "神奈川県",
    "prefecture_kana": "カナガワケン",
    "prefecture_code": 14,
    "city": "秦野市",
    "city_kana": "ハダノシ",
    "town": "平沢",
    "town_kana": "ヒラサワ",
    "street": null,
    "office_name": null,
    "office_name_kana": null
  },
  "0016": {
    "postcode": "2570016",
    "prefecture": "神奈川県",
    "prefecture_kana": "カナガワケン",
    "prefecture_code": 14,
    "city": "秦野市",
    "city_kana": "ハダノシ",
    "town": "栃窪",
    "town_kana": "トチクボ",
    "street": null,
    "office_name": null,
    "office_name_kana": null
  },
  "0017": {
    "postcode": "2570017",
    "prefecture": "神奈川県",
    "prefecture_kana": "カナガワケン",
    "prefecture_code": 14,
    "city": "秦野市",
    "city_kana": "ハダノシ",
    "town": "立野台",
    "town_kana": "タテノダイ",
    "street": null,
    "office_name": null,
    "office_name_kana": null
  },
  "0018": {
    "postcode": "2570018",
    "prefecture": "神奈川県",
    "prefecture_kana": "カナガワケン",
    "prefecture_code": 14,
    "city": "秦野市",
    "city_kana": "ハダノシ",
    "town": "今泉台",
    "town_kana": "イマイズミダイ",
    "street": null,
    "office_name": null,
    "office_name_kana": null
  },
  "0021": {
    "postcode": "2570021",
    "prefecture": "神奈川県",
    "prefecture_kana": "カナガワケン",
    "prefecture_code": 14,
    "city": "秦野市",
    "city_kana": "ハダノシ",
    "town": "蓑毛",
    "town_kana": "ミノゲ",
    "street": null,
    "office_name": null,
    "office_name_kana": null
  },
  "0022": {
    "postcode": "2570022",
    "prefecture": "神奈川県",
    "prefecture_kana": "カナガワケン",
    "prefecture_code": 14,
    "city": "秦野市",
    "city_kana": "ハダノシ",
    "town": "小蓑毛",
    "town_kana": "コミノゲ",
    "street": null,
    "office_name": null,
    "office_name_kana": null
  },
  "0023": {
    "postcode": "2570023",
    "prefecture": "神奈川県",
    "prefecture_kana": "カナガワケン",
    "prefecture_code": 14,
    "city": "秦野市",
    "city_kana": "ハダノシ",
    "town": "寺山",
    "town_kana": "テラヤマ",
    "street": null,
    "office_name": null,
    "office_name_kana": null
  },
  "0024": {
    "postcode": "2570024",
    "prefecture": "神奈川県",
    "prefecture_kana": "カナガワケン",
    "prefecture_code": 14,
    "city": "秦野市",
    "city_kana": "ハダノシ",
    "town": "名古木",
    "town_kana": "ナガヌキ",
    "street": null,
    "office_name": null,
    "office_name_kana": null
  },
  "0025": {
    "postcode": "2570025",
    "prefecture": "神奈川県",
    "prefecture_kana": "カナガワケン",
    "prefecture_code": 14,
    "city": "秦野市",
    "city_kana": "ハダノシ",
    "town": "落合",
    "town_kana": "オチアイ",
    "street": null,
    "office_name": null,
    "office_name_kana": null
  },
  "0026": {
    "postcode": "2570026",
    "prefecture": "神奈川県",
    "prefecture_kana": "カナガワケン",
    "prefecture_code": 14,
    "city": "秦野市",
    "city_kana": "ハダノシ",
    "town": "下落合",
    "town_kana": "シモオチアイ",
    "street": null,
    "office_name": null,
    "office_name_kana": null
  },
  "0027": {
    "postcode": "2570027",
    "prefecture": "神奈川県",
    "prefecture_kana": "カナガワケン",
    "prefecture_code": 14,
    "city": "秦野市",
    "city_kana": "ハダノシ",
    "town": "西田原",
    "town_kana": "ニシタワラ",
    "street": null,
    "office_name": null,
    "office_name_kana": null
  },
  "0028": {
    "postcode": "2570028",
    "prefecture": "神奈川県",
    "prefecture_kana": "カナガワケン",
    "prefecture_code": 14,
    "city": "秦野市",
    "city_kana": "ハダノシ",
    "town": "東田原",
    "town_kana": "ヒガシタワラ",
    "street": null,
    "office_name": null,
    "office_name_kana": null
  },
  "0031": {
    "postcode": "2570031",
    "prefecture": "神奈川県",
    "prefecture_kana": "カナガワケン",
    "prefecture_code": 14,
    "city": "秦野市",
    "city_kana": "ハダノシ",
    "town": "曽屋",
    "town_kana": "ソヤ",
    "street": null,
    "office_name": null,
    "office_name_kana": null
  },
  "0032": {
    "postcode": "2570032",
    "prefecture": "神奈川県",
    "prefecture_kana": "カナガワケン",
    "prefecture_code": 14,
    "city": "秦野市",
    "city_kana": "ハダノシ",
    "town": "河原町",
    "town_kana": "カワラマチ",
    "street": null,
    "office_name": null,
    "office_name_kana": null
  },
  "0033": {
    "postcode": "2570033",
    "prefecture": "神奈川県",
    "prefecture_kana": "カナガワケン",
    "prefecture_code": 14,
    "city": "秦野市",
    "city_kana": "ハダノシ",
    "town": "室町",
    "town_kana": "ムロマチ",
    "street": null,
    "office_name": null,
    "office_name_kana": null
  },
  "0034": {
    "postcode": "2570034",
    "prefecture": "神奈川県",
    "prefecture_kana": "カナガワケン",
    "prefecture_code": 14,
    "city": "秦野市",
    "city_kana": "ハダノシ",
    "town": "大秦町",
    "town_kana": "タイシンチョウ",
    "street": null,
    "office_name": null,
    "office_name_kana": null
  },
  "0035": {
    "postcode": "2570035",
    "prefecture": "神奈川県",
    "prefecture_kana": "カナガワケン",
    "prefecture_code": 14,
    "city": "秦野市",
    "city_kana": "ハダノシ",
    "town": "本町",
    "town_kana": "ホンチョウ",
    "street": null,
    "office_name": null,
    "office_name_kana": null
  },
  "0036": {
    "postcode": "2570036",
    "prefecture": "神奈川県",
    "prefecture_kana": "カナガワケン",
    "prefecture_code": 14,
    "city": "秦野市",
    "city_kana": "ハダノシ",
    "town": "元町",
    "town_kana": "モトマチ",
    "street": null,
    "office_name": null,
    "office_name_kana": null
  },
  "0037": {
    "postcode": "2570037",
    "prefecture": "神奈川県",
    "prefecture_kana": "カナガワケン",
    "prefecture_code": 14,
    "city": "秦野市",
    "city_kana": "ハダノシ",
    "town": "末広町",
    "town_kana": "スエヒロチョウ",
    "street": null,
    "office_name": null,
    "office_name_kana": null
  },
  "0041": {
    "postcode": "2570041",
    "prefecture": "神奈川県",
    "prefecture_kana": "カナガワケン",
    "prefecture_code": 14,
    "city": "秦野市",
    "city_kana": "ハダノシ",
    "town": "入船町",
    "town_kana": "イリフネチョウ",
    "street": null,
    "office_name": null,
    "office_name_kana": null
  },
  "0042": {
    "postcode": "2570042",
    "prefecture": "神奈川県",
    "prefecture_kana": "カナガワケン",
    "prefecture_code": 14,
    "city": "秦野市",
    "city_kana": "ハダノシ",
    "town": "寿町",
    "town_kana": "コトブキチョウ",
    "street": null,
    "office_name": null,
    "office_name_kana": null
  },
  "0043": {
    "postcode": "2570043",
    "prefecture": "神奈川県",
    "prefecture_kana": "カナガワケン",
    "prefecture_code": 14,
    "city": "秦野市",
    "city_kana": "ハダノシ",
    "town": "栄町",
    "town_kana": "サカエチョウ",
    "street": null,
    "office_name": null,
    "office_name_kana": null
  },
  "0044": {
    "postcode": "2570044",
    "prefecture": "神奈川県",
    "prefecture_kana": "カナガワケン",
    "prefecture_code": 14,
    "city": "秦野市",
    "city_kana": "ハダノシ",
    "town": "文京町",
    "town_kana": "ブンキョウチョウ",
    "street": null,
    "office_name": null,
    "office_name_kana": null
  },
  "0045": {
    "postcode": "2570045",
    "prefecture": "神奈川県",
    "prefecture_kana": "カナガワケン",
    "prefecture_code": 14,
    "city": "秦野市",
    "city_kana": "ハダノシ",
    "town": "桜町",
    "town_kana": "サクラチョウ",
    "street": null,
    "office_name": null,
    "office_name_kana": null
  },
  "0046": {
    "postcode": "2570046",
    "prefecture": "神奈川県",
    "prefecture_kana": "カナガワケン",
    "prefecture_code": 14,
    "city": "秦野市",
    "city_kana": "ハダノシ",
    "town": "ひばりケ丘",
    "town_kana": "ヒバリガオカ",
    "street": null,
    "office_name": null,
    "office_name_kana": null
  },
  "0047": {
    "postcode": "2570047",
    "prefecture": "神奈川県",
    "prefecture_kana": "カナガワケン",
    "prefecture_code": 14,
    "city": "秦野市",
    "city_kana": "ハダノシ",
    "town": "水神町",
    "town_kana": "スイジンチョウ",
    "street": null,
    "office_name": null,
    "office_name_kana": null
  },
  "0048": {
    "postcode": "2570048",
    "prefecture": "神奈川県",
    "prefecture_kana": "カナガワケン",
    "prefecture_code": 14,
    "city": "秦野市",
    "city_kana": "ハダノシ",
    "town": "幸町",
    "town_kana": "サイワイチョウ",
    "street": null,
    "office_name": null,
    "office_name_kana": null
  },
  "0051": {
    "postcode": "2570051",
    "prefecture": "神奈川県",
    "prefecture_kana": "カナガワケン",
    "prefecture_code": 14,
    "city": "秦野市",
    "city_kana": "ハダノシ",
    "town": "今川町",
    "town_kana": "イマガワチョウ",
    "street": null,
    "office_name": null,
    "office_name_kana": null
  },
  "0052": {
    "postcode": "2570052",
    "prefecture": "神奈川県",
    "prefecture_kana": "カナガワケン",
    "prefecture_code": 14,
    "city": "秦野市",
    "city_kana": "ハダノシ",
    "town": "上今川町",
    "town_kana": "カミイマガワチョウ",
    "street": null,
    "office_name": null,
    "office_name_kana": null
  },
  "0053": {
    "postcode": "2570053",
    "prefecture": "神奈川県",
    "prefecture_kana": "カナガワケン",
    "prefecture_code": 14,
    "city": "秦野市",
    "city_kana": "ハダノシ",
    "town": "清水町",
    "town_kana": "シミズチョウ",
    "street": null,
    "office_name": null,
    "office_name_kana": null
  },
  "0054": {
    "postcode": "2570054",
    "prefecture": "神奈川県",
    "prefecture_kana": "カナガワケン",
    "prefecture_code": 14,
    "city": "秦野市",
    "city_kana": "ハダノシ",
    "town": "緑町",
    "town_kana": "ミドリチョウ",
    "street": null,
    "office_name": null,
    "office_name_kana": null
  },
  "0055": {
    "postcode": "2570055",
    "prefecture": "神奈川県",
    "prefecture_kana": "カナガワケン",
    "prefecture_code": 14,
    "city": "秦野市",
    "city_kana": "ハダノシ",
    "town": "鈴張町",
    "town_kana": "スズハリチョウ",
    "street": null,
    "office_name": null,
    "office_name_kana": null
  },
  "0056": {
    "postcode": "2570056",
    "prefecture": "神奈川県",
    "prefecture_kana": "カナガワケン",
    "prefecture_code": 14,
    "city": "秦野市",
    "city_kana": "ハダノシ",
    "town": "新町",
    "town_kana": "シンチョウ",
    "street": null,
    "office_name": null,
    "office_name_kana": null
  },
  "0057": {
    "postcode": "2570057",
    "prefecture": "神奈川県",
    "prefecture_kana": "カナガワケン",
    "prefecture_code": 14,
    "city": "秦野市",
    "city_kana": "ハダノシ",
    "town": "富士見町",
    "town_kana": "フジミチョウ",
    "street": null,
    "office_name": null,
    "office_name_kana": null
  },
  "0061": [
    {
      "postcode": "2570061",
      "prefecture": "神奈川県",
      "prefecture_kana": "カナガワケン",
      "prefecture_code": 14,
      "city": "愛甲郡清川村",
      "city_kana": "アイコウグンキヨカワムラ",
      "town": "煤ヶ谷",
      "town_kana": "ススガヤ",
      "street": null,
      "office_name": null,
      "office_name_kana": null
    },
    {
      "postcode": "2570061",
      "prefecture": "神奈川県",
      "prefecture_kana": "カナガワケン",
      "prefecture_code": 14,
      "city": "愛甲郡清川村",
      "city_kana": "アイコウグンキヨカワムラ",
      "town": "煤ヶ谷丹沢山札掛",
      "town_kana": "ススガヤタンザワヤマフダカケ",
      "street": null,
      "office_name": null,
      "office_name_kana": null
    }
  ],
  "8501": {
    "postcode": "2578501",
    "prefecture": "神奈川県",
    "prefecture_kana": "カナガワケン",
    "prefecture_code": 14,
    "city": "秦野市",
    "city_kana": "ハダノシ",
    "town": "桜町",
    "town_kana": "サクラチョウ",
    "street": "１丁目３−２",
    "office_name": "秦野市役所",
    "office_name_kana": "ハダノシヤクシヨ"
  },
  "8502": {
    "postcode": "2578502",
    "prefecture": "神奈川県",
    "prefecture_kana": "カナガワケン",
    "prefecture_code": 14,
    "city": "秦野市",
    "city_kana": "ハダノシ",
    "town": "曽屋",
    "town_kana": "ソヤ",
    "street": "５００",
    "office_name": "株式会社　ＹＤＫテクノロジーズ",
    "office_name_kana": "カブシキガイシヤ ワイデイ-ケ-テクノロジ-ズ"
  },
  "8511": {
    "postcode": "2578511",
    "prefecture": "神奈川県",
    "prefecture_kana": "カナガワケン",
    "prefecture_code": 14,
    "city": "秦野市",
    "city_kana": "ハダノシ",
    "town": "曽屋",
    "town_kana": "ソヤ",
    "street": "１２０４番地",
    "office_name": "京セラ　株式会社　神奈川秦野工場",
    "office_name_kana": "キヨウセラ カブシキガイシヤ カナガワハダノコウジヨウ"
  },
  "8523": {
    "postcode": "2578523",
    "prefecture": "神奈川県",
    "prefecture_kana": "カナガワケン",
    "prefecture_code": 14,
    "city": "秦野市",
    "city_kana": "ハダノシ",
    "town": "落合",
    "town_kana": "オチアイ",
    "street": "７２９−５",
    "office_name": "食品薬品安全センター",
    "office_name_kana": "シヨクヒンヤクヒンアンゼンセンタ-"
  },
  "8533": {
    "postcode": "2578533",
    "prefecture": "神奈川県",
    "prefecture_kana": "カナガワケン",
    "prefecture_code": 14,
    "city": "秦野市",
    "city_kana": "ハダノシ",
    "town": "曽屋",
    "town_kana": "ソヤ",
    "street": "１０４１",
    "office_name": "東京電力",
    "office_name_kana": "トウキヨウデンリヨク"
  },
  "8555": {
    "postcode": "2578555",
    "prefecture": "神奈川県",
    "prefecture_kana": "カナガワケン",
    "prefecture_code": 14,
    "city": "秦野市",
    "city_kana": "ハダノシ",
    "town": "曽屋",
    "town_kana": "ソヤ",
    "street": "４００",
    "office_name": "スタンレー電気　株式会社",
    "office_name_kana": "スタンレ-デンキ カブシキガイシヤ"
  },
  "8566": {
    "postcode": "2578566",
    "prefecture": "神奈川県",
    "prefecture_kana": "カナガワケン",
    "prefecture_code": 14,
    "city": "秦野市",
    "city_kana": "ハダノシ",
    "town": "曽屋",
    "town_kana": "ソヤ",
    "street": "３０",
    "office_name": "クアーズテック　合同会社　秦野事業所",
    "office_name_kana": "クア-ズテツク ゴウドウガイシヤ ハダノジギヨウシヨ"
  },
  "8577": {
    "postcode": "2578577",
    "prefecture": "神奈川県",
    "prefecture_kana": "カナガワケン",
    "prefecture_code": 14,
    "city": "秦野市",
    "city_kana": "ハダノシ",
    "town": "曽屋",
    "town_kana": "ソヤ",
    "street": "２４２",
    "office_name": "スタンレー電気　株式会社　秦野製作所　秦野テクニカルセンター",
    "office_name_kana": "スタンレ-デンキ カブシキガイシヤ ハタノセイサクシヨ ハタノテクニカルセンタ-"
  },
  "8584": {
    "postcode": "2578584",
    "prefecture": "神奈川県",
    "prefecture_kana": "カナガワケン",
    "prefecture_code": 14,
    "city": "秦野市",
    "city_kana": "ハダノシ",
    "town": "名古木",
    "town_kana": "ナガヌキ",
    "street": "１４６９",
    "office_name": "日立インフォメーション・テクノロジー",
    "office_name_kana": "ヒタチインフオメ-シヨン・テクノロジ-"
  },
  "8585": {
    "postcode": "2578585",
    "prefecture": "神奈川県",
    "prefecture_kana": "カナガワケン",
    "prefecture_code": 14,
    "city": "秦野市",
    "city_kana": "ハダノシ",
    "town": "落合",
    "town_kana": "オチアイ",
    "street": "６６６−１",
    "office_name": "国立療養所　神奈川病院",
    "office_name_kana": "コクリツリヨウヨウジヨ カナガワビヨウイン"
  },
  "8588": {
    "postcode": "2578588",
    "prefecture": "神奈川県",
    "prefecture_kana": "カナガワケン",
    "prefecture_code": 14,
    "city": "秦野市",
    "city_kana": "ハダノシ",
    "town": "平沢",
    "town_kana": "ヒラサワ",
    "street": "２５５０−１",
    "office_name": "秦野商工会議所",
    "office_name_kana": "ハダノシヨウコウカイギシヨ"
  }
}