{
  "0100": [
    {
      "postcode": "2590100",
      "prefecture": "神奈川県",
      "prefecture_kana": "カナガワケン",
      "prefecture_code": 14,
      "city": "中郡二宮町",
      "city_kana": "ナカグンニノミヤマチ",
      "town": "",
      "town_kana": "",
      "street": null,
      "office_name": null,
      "office_name_kana": null
    },
    {
      "postcode": "2590100",
      "prefecture": "神奈川県",
      "prefecture_kana": "カナガワケン",
      "prefecture_code": 14,
      "city": "足柄上郡中井町",
      "city_kana": "アシガラカミグンナカイマチ",
      "town": "",
      "town_kana": "",
      "street": null,
      "office_name": null,
      "office_name_kana": null
    }
  ],
  "0101": {
    "postcode": "2590101",
    "prefecture": "神奈川県",
    "prefecture_kana": "カナガワケン",
    "prefecture_code": 14,
    "city": "中郡大磯町",
    "city_kana": "ナカグンオオイソマチ",
    "town": "寺坂",
    "town_kana": "テラサカ",
    "street": null,
    "office_name": null,
    "office_name_kana": null
  },
  "0102": {
    "postcode": "2590102",
    "prefecture": "神奈川県",
    "prefecture_kana": "カナガワケン",
    "prefecture_code": 14,
    "city": "中郡大磯町",
    "city_kana": "ナカグンオオイソマチ",
    "town": "生沢",
    "town_kana": "イクサワ",
    "street": null,
    "office_name": null,
    "office_name_kana": null
  },
  "0103": {
    "postcode": "2590103",
    "prefecture": "神奈川県",
    "prefecture_kana": "カナガワケン",
    "prefecture_code": 14,
    "city": "中郡大磯町",
    "city_kana": "ナカグンオオイソマチ",
    "town": "虫窪",
    "town_kana": "ムシクボ",
    "street": null,
    "office_name": null,
    "office_name_kana": null
  },
  "0104": {
    "postcode": "2590104",
    "prefecture": "神奈川県",
    "prefecture_kana": "カナガワケン",
    "prefecture_code": 14,
    "city": "中郡大磯町",
    "city_kana": "ナカグンオオイソマチ",
    "town": "西久保",
    "town_kana": "ニシクボ",
    "street": null,
    "office_name": null,
    "office_name_kana": null
  },
  "0105": {
    "postcode": "2590105",
    "prefecture": "神奈川県",
    "prefecture_kana": "カナガワケン",
    "prefecture_code": 14,
    "city": "中郡大磯町",
    "city_kana": "ナカグンオオイソマチ",
    "town": "黒岩",
    "town_kana": "クロイワ",
    "street": null,
    "office_name": null,
    "office_name_kana": null
  },
  "0111": {
    "postcode": "2590111",
    "prefecture": "神奈川県",
    "prefecture_kana": "カナガワケン",
    "prefecture_code": 14,
    "city": "中郡大磯町",
    "city_kana": "ナカグンオオイソマチ",
    "town": "国府本郷",
    "town_kana": "コクフホンゴウ",
    "street": null,
    "office_name": null,
    "office_name_kana": null
  },
  "0112": {
    "postcode": "2590112",
    "prefecture": "神奈川県",
    "prefecture_kana": "カナガワケン",
    "prefecture_code": 14,
    "city": "中郡大磯町",
    "city_kana": "ナカグンオオイソマチ",
    "town": "国府新宿",
    "town_kana": "コクフシンシュク",
    "street": null,
    "office_name": null,
    "office_name_kana": null
  },
  "0113": {
    "postcode": "2590113",
    "prefecture": "神奈川県",
    "prefecture_kana": "カナガワケン",
    "prefecture_code": 14,
    "city": "中郡大磯町",
    "city_kana": "ナカグンオオイソマチ",
    "town": "石神台",
    "town_kana": "イシガミダイ",
    "street": null,
    "office_name": null,
    "office_name_kana": null
  },
  "0114": {
    "postcode": "2590114",
    "prefecture": "神奈川県",
    "prefecture_kana": "カナガワケン",
    "prefecture_code": 14,
    "city": "中郡大磯町",
    "city_kana": "ナカグンオオイソマチ",
    "town": "月京",
    "town_kana": "ガッキョウ",
    "street": null,
    "office_name": null,
    "office_name_kana": null
  },
  "0121": {
    "postcode": "2590121",
    "prefecture": "神奈川県",
    "prefecture_kana": "カナガワケン",
    "prefecture_code": 14,
    "city": "中郡二宮町",
    "city_kana": "ナカグンニノミヤマチ",
    "town": "松根",
    "town_kana": "マツネ",
    "street": null,
    "office_name": null,
    "office_name_kana": null
  },
  "0122": {
    "postcode": "2590122",
    "prefecture": "神奈川県",
    "prefecture_kana": "カナガワケン",
    "prefecture_code": 14,
    "city": "中郡二宮町",
    "city_kana": "ナカグンニノミヤマチ",
    "town": "富士見が丘",
    "town_kana": "フジミガオカ",
    "street": null,
    "office_name": null,
    "office_name_kana": null
  },
  "0123": {
    "postcode": "2590123",
    "prefecture": "神奈川県",
    "prefecture_kana": "カナガワケン",
    "prefecture_code": 14,
    "city": "中郡二宮町",
    "city_kana": "ナカグンニノミヤマチ",
    "town": "二宮",
    "town_kana": "ニノミヤ",
    "street": null,
    "office_name": null,
    "office_name_kana": null
  },
  "0124": {
    "postcode": "2590124",
    "prefecture": "神奈川県",
    "prefecture_kana": "カナガワケン",
    "prefecture_code": 14,
    "city": "中郡二宮町",
    "city_kana": "ナカグンニノミヤマチ",
    "town": "山西",
    "town_kana": "ヤマニシ",
    "street": null,
    "office_name": null,
    "office_name_kana": null
  },
  "0125": {
    "postcode": "2590125",
    "prefecture": "神奈川県",
    "prefecture_kana": "カナガワケン",
    "prefecture_code": 14,
    "city": "中郡二宮町",
    "city_kana": "ナカグンニノミヤマチ",
    "town": "川匂",
    "town_kana": "カワワ",
    "street": null,
    "office_name": null,
    "office_name_kana": null
  },
  "0131": {
    "postcode": "2590131",
    "prefecture": "神奈川県",
    "prefecture_kana": "カナガワケン",
    "prefecture_code": 14,
    "city": "中郡二宮町",
    "city_kana": "ナカグンニノミヤマチ",
    "town": "中里",
    "town_kana": "ナカザト",
    "street": null,
    "office_name": null,
    "office_name_kana": null
  },
  "0132": {
    "postcode": "2590132",
    "prefecture": "神奈川県",
    "prefecture_kana": "カナガワケン",
    "prefecture_code": 14,
    "city": "中郡二宮町",
    "city_kana": "ナカグンニノミヤマチ",
    "town": "緑が丘",
    "town_kana": "ミドリガオカ",
    "street": null,
    "office_name": null,
    "office_name_kana": null
  },
  "0133": {
    "postcode": "2590133",
    "prefecture": "神奈川県",
    "prefecture_kana": "カナガワケン",
    "prefecture_code": 14,
    "city": "中郡二宮町",
    "city_kana": "ナカグンニノミヤマチ",
    "town": "百合が丘",
    "town_kana": "ユリガオカ",
    "street": null,
    "office_name": null,
    "office_name_kana": null
  },
  "0134": {
    "postcode": "2590134",
    "prefecture": "神奈川県",
    "prefecture_kana": "カナガワケン",
    "prefecture_code": 14,
    "city": "中郡二宮町",
    "city_kana": "ナカグンニノミヤマチ",
    "town": "一色",
    "town_kana": "イシキ",
    "street": null,
    "office_name": null,
    "office_name_kana": null
  },
  "0141": {
    "postcode": "2590141",
    "prefecture": "神奈川県",
    "prefecture_kana": "カナガワケン",
    "prefecture_code": 14,
    "city": "足柄上郡中井町",
    "city_kana": "アシガラカミグンナカイマチ",
    "town": "遠藤",
    "town_kana": "エンドウ",
    "street": null,
    "office_name": null,
    "office_name_kana": null
  },
  "0142": {
    "postcode": "2590142",
    "prefecture": "神奈川県",
    "prefecture_kana": "カナガワケン",
    "prefecture_code": 14,
    "city": "足柄上郡中井町",
    "city_kana": "アシガラカミグンナカイマチ",
    "town": "久所",
    "town_kana": "グゾ",
    "street": null,
    "office_name": null,
    "office_name_kana": null
  },
  "0143": {
    "postcode": "2590143",
    "prefecture": "神奈川県",
    "prefecture_kana": "カナガワケン",
    "prefecture_code": 14,
    "city": "足柄上郡中井町",
    "city_kana": "アシガラカミグンナカイマチ",
    "town": "北田",
    "town_kana": "キタダ",
    "street": null,
    "office_name": null,
    "office_name_kana": null
  },
  "0144": {
    "postcode": "2590144",
    "prefecture": "神奈川県",
    "prefecture_kana": "カナガワケン",
    "prefecture_code": 14,
    "city": "足柄上郡中井町",
    "city_kana": "アシガラカミグンナカイマチ",
    "town": "半分形",
    "town_kana": "ハブガタ",
    "street": null,
    "office_name": null,
    "office_name_kana": null
  },
  "0145": {
    "postcode": "2590145",
    "prefecture": "神奈川県",
    "prefecture_kana": "カナガワケン",
    "prefecture_code": 14,
    "city": "足柄上郡中井町",
    "city_kana": "アシガラカミグンナカイマチ",
    "town": "田中",
    "town_kana": "タナカ",
    "street": null,
    "office_name": null,
    "office_name_kana": null
  },
  "0146": {
    "postcode": "2590146",
    "prefecture": "神奈川県",
    "prefecture_kana": "カナガワケン",
    "prefecture_code": 14,
    "city": "足柄上郡中井町",
    "city_kana": "アシガラカミグンナカイマチ",
    "town": "古怒田",
    "town_kana": "コヌタ",
    "street": null,
    "office_name": null,
    "office_name_kana": null
  },
  "0147": {
    "postcode": "2590147",
    "prefecture": "神奈川県",
    "prefecture_kana": "カナガワケン",
    "prefecture_code": 14,
    "city": "足柄上郡中井町",
    "city_kana": "アシガラカミグンナカイマチ",
    "town": "鴨沢",
    "town_kana": "カモザワ",
    "street": null,
    "office_name": null,
    "office_name_kana": null
  },
  "0148": {
    "postcode": "2590148",
    "prefecture": "神奈川県",
    "prefecture_kana": "カナガワケン",
    "prefecture_code": 14,
    "city": "足柄上郡中井町",
    "city_kana": "アシガラカミグンナカイマチ",
    "town": "雑色",
    "town_kana": "ゾウシキ",
    "street": null,
    "office_name": null,
    "office_name_kana": null
  },
  "0151": {
    "postcode": "2590151",
    "prefecture": "神奈川県",
    "prefecture_kana": "カナガワケン",
    "prefecture_code": 14,
    "city": "足柄上郡中井町",
    "city_kana": "アシガラカミグンナカイマチ",
    "town": "井ノ口",
    "town_kana": "イノクチ",
    "street": null,
    "office_name": null,
    "office_name_kana": null
  },
  "0152": {
    "postcode": "2590152",
    "prefecture": "神奈川県",
    "prefecture_kana": "カナガワケン",
    "prefecture_code": 14,
    "city": "足柄上郡中井町",
    "city_kana": "アシガラカミグンナカイマチ",
    "town": "藤沢",
    "town_kana": "フジサワ",
    "street": null,
    "office_name": null,
    "office_name_kana": null
  },
  "0153": {
    "postcode": "2590153",
    "prefecture": "神奈川県",
    "prefecture_kana": "カナガワケン",
    "prefecture_code": 14,
    "city": "足柄上郡中井町",
    "city_kana": "アシガラカミグンナカイマチ",
    "town": "比奈窪",
    "town_kana": "ヒナクボ",
    "street": null,
    "office_name": null,
    "office_name_kana": null
  },
  "0154": {
    "postcode": "2590154",
    "prefecture": "神奈川県",
    "prefecture_kana": "カナガワケン",
    "prefecture_code": 14,
    "city": "足柄上郡中井町",
    "city_kana": "アシガラカミグンナカイマチ",
    "town": "岩倉",
    "town_kana": "イワクラ",
    "street": null,
    "office_name": null,
    "office_name_kana": null
  },
  "0155": {
    "postcode": "2590155",
    "prefecture": "神奈川県",
    "prefecture_kana": "カナガワケン",
    "prefecture_code": 14,
    "city": "足柄上郡中井町",
    "city_kana": "アシガラカミグンナカイマチ",
    "town": "松本",
    "town_kana": "マツモト",
    "street": null,
    "office_name": null,
    "office_name_kana": null
  },
  "0156": {
    "postcode": "2590156",
    "prefecture": "神奈川県",
    "prefecture_kana": "カナガワケン",
    "prefecture_code": 14,
    "city": "足柄上郡中井町",
    "city_kana": "アシガラカミグンナカイマチ",
    "town": "境別所",
    "town_kana": "サカイベッショ",
    "street": null,
    "office_name": null,
    "office_name_kana": null
  },
  "0157": {
    "postcode": "2590157",
    "prefecture": "神奈川県",
    "prefecture_kana": "カナガワケン",
    "prefecture_code": 14,
    "city": "足柄上郡中井町",
    "city_kana": "アシガラカミグンナカイマチ",
    "town": "境",
    "town_kana": "サカイ",
    "street": null,
    "office_name": null,
    "office_name_kana": null
  },
  "0180": {
    "postcode": "2590180",
    "prefecture": "神奈川県",
    "prefecture_kana": "カナガワケン",
    "prefecture_code": 14,
    "city": "足柄上郡中井町",
    "city_kana": "アシガラカミグンナカイマチ",
    "town": "境",
    "town_kana": "サカイ",
    "street": "７８１番地",
    "office_name": "株式会社　日立情報通信エンジニアリング　中井本社",
    "office_name_kana": "カブシキガイシヤ ヒタチジヨウホウツウシンエンジニアリング ナカイホンシヤ"
  },
  "0181": {
    "postcode": "2590181",
    "prefecture": "神奈川県",
    "prefecture_kana": "カナガワケン",
    "prefecture_code": 14,
    "city": "足柄上郡中井町",
    "city_kana": "アシガラカミグンナカイマチ",
    "town": "久所",
    "town_kana": "グゾ",
    "street": "８４−１",
    "office_name": "株式会社　日立システムズ",
    "office_name_kana": "カブシキガイシヤ ヒタチシステムズ"
  },
  "0192": {
    "postcode": "2590192",
    "prefecture": "神奈川県",
    "prefecture_kana": "カナガワケン",
    "prefecture_code": 14,
    "city": "足柄上郡中井町",
    "city_kana": "アシガラカミグンナカイマチ",
    "town": "久所",
    "town_kana": "グゾ",
    "street": "３００",
    "office_name": "ファインテック製品事業本部",
    "office_name_kana": "フアインテツクセイヒンジギヨウホンブ"
  },
  "0193": {
    "postcode": "2590193",
    "prefecture": "神奈川県",
    "prefecture_kana": "カナガワケン",
    "prefecture_code": 14,
    "city": "中郡大磯町",
    "city_kana": "ナカグンオオイソマチ",
    "town": "国府本郷",
    "town_kana": "コクフホンゴウ",
    "street": "５４６",
    "office_name": "大磯プリンスホテル",
    "office_name_kana": "オオイソプリンスホテル"
  },
  "0194": {
    "postcode": "2590194",
    "prefecture": "神奈川県",
    "prefecture_kana": "カナガワケン",
    "prefecture_code": 14,
    "city": "足柄上郡中井町",
    "city_kana": "アシガラカミグンナカイマチ",
    "town": "藤沢",
    "town_kana": "フジサワ",
    "street": "４５４番地",
    "office_name": "有限会社　富士見グリーンサービス",
    "office_name_kana": "ユウゲンガイシヤ フジミグリ-ンサ-ビス"
  },
  "0196": {
    "postcode": "2590196",
    "prefecture": "神奈川県",
    "prefecture_kana": "カナガワケン",
    "prefecture_code": 14,
    "city": "中郡二宮町",
    "city_kana": "ナカグンニノミヤマチ",
    "town": "二宮",
    "town_kana": "ニノミヤ",
    "street": "９６１",
    "office_name": "二宮町役場",
    "office_name_kana": "ニノミヤマチヤクバ"
  },
  "0197": {
    "postcode": "2590197",
    "prefecture": "神奈川県",
    "prefecture_kana": "カナガワケン",
    "prefecture_code": 14,
    "city": "足柄上郡中井町",
    "city_kana": "アシガラカミグンナカイマチ",
    "town": "比奈窪",
    "town_kana": "ヒナクボ",
    "street": "５６",
    "office_name": "中井町役場",
    "office_name_kana": "ナカイマチヤクバ"
  },
  "0200": {
    "postcode": "2590200",
    "prefecture": "神奈川県",
    "prefecture_kana": "カナガワケン",
    "prefecture_code": 14,
    "city": "足柄下郡真鶴町",
    "city_kana": "アシガラシモグンマナヅルマチ",
    "town": "",
    "town_kana": "",
    "street": null,
    "office_name": null,
    "office_name_kana": null
  },
  "0201": {
    "postcode": "2590201",
    "prefecture": "神奈川県",
    "prefecture_kana": "カナガワケン",
    "prefecture_code": 14,
    "city": "足柄下郡真鶴町",
    "city_kana": "アシガラシモグンマナヅルマチ",
    "town": "真鶴",
    "town_kana": "マナツル",
    "street": null,
    "office_name": null,
    "office_name_kana": null
  },
  "0202": {
    "postcode": "2590202",
    "prefecture": "神奈川県",
    "prefecture_kana": "カナガワケン",
    "prefecture_code": 14,
    "city": "足柄下郡真鶴町",
    "city_kana": "アシガラシモグンマナヅルマチ",
    "town": "岩",
    "town_kana": "イワ",
    "street": null,
    "office_name": null,
    "office_name_kana": null
  },
  "0300": {
    "postcode": "2590300",
    "prefecture": "神奈川県",
    "prefecture_kana": "カナガワケン",
    "prefecture_code": 14,
    "city": "足柄下郡湯河原町",
    "city_kana": "アシガラシモグンユガワラマチ",
    "town": "",
    "town_kana": "",
    "street": null,
    "office_name": null,
    "office_name_kana": null
  },
  "0301": {
    "postcode": "2590301",
    "prefecture": "神奈川県",
    "prefecture_kana": "カナガワケン",
    "prefecture_code": 14,
    "city": "足柄下郡湯河原町",
    "city_kana": "アシガラシモグンユガワラマチ",
    "town": "中央",
    "town_kana": "チュウオウ",
    "street": null,
    "office_name": null,
    "office_name_kana": null
  },
  "0302": {
    "postcode": "2590302",
    "prefecture": "神奈川県",
    "prefecture_kana": "カナガワケン",
    "prefecture_code": 14,
    "city": "足柄下郡湯河原町",
    "city_kana": "アシガラシモグンユガワラマチ",
    "town": "門川",
    "town_kana": "モンガワ",
    "street": null,
    "office_name": null,
    "office_name_kana": null
  },
  "0303": {
    "postcode": "2590303",
    "prefecture": "神奈川県",
    "prefecture_kana": "カナガワケン",
    "prefecture_code": 14,
    "city": "足柄下郡湯河原町",
    "city_kana": "アシガラシモグンユガワラマチ",
    "town": "土肥",
    "town_kana": "ドイ",
    "street": null,
    "office_name": null,
    "office_name_kana": null
  },
  "0304": {
    "postcode": "2590304",
    "prefecture": "神奈川県",
    "prefecture_kana": "カナガワケン",
    "prefecture_code": 14,
    "city": "足柄下郡湯河原町",
    "city_kana": "アシガラシモグンユガワラマチ",
    "town": "宮下",
    "town_kana": "ミヤシタ",
    "street": null,
    "office_name": null,
    "office_name_kana": null
  },
  "0305": {
    "postcode": "2590305",
    "prefecture": "神奈川県",
    "prefecture_kana": "カナガワケン",
    "prefecture_code": 14,
    "city": "足柄下郡湯河原町",
    "city_kana": "アシガラシモグンユガワラマチ",
    "town": "城堀",
    "town_kana": "シロホリ",
    "street": null,
    "office_name": null,
    "office_name_kana": null
  },
  "0311": {
    "postcode": "2590311",
    "prefecture": "神奈川県",
    "prefecture_kana": "カナガワケン",
    "prefecture_code": 14,
    "city": "足柄下郡湯河原町",
    "city_kana": "アシガラシモグンユガワラマチ",
    "town": "福浦",
    "town_kana": "フクウラ",
    "street": null,
    "office_name": null,
    "office_name_kana": null
  },
  "0312": {
    "postcode": "2590312",
    "prefecture": "神奈川県",
    "prefecture_kana": "カナガワケン",
    "prefecture_code": 14,
    "city": "足柄下郡湯河原町",
    "city_kana": "アシガラシモグンユガワラマチ",
    "town": "吉浜",
    "town_kana": "ヨシハマ",
    "street": null,
    "office_name": null,
    "office_name_kana": null
  },
  "0313": {
    "postcode": "2590313",
    "prefecture": "神奈川県",
    "prefecture_kana": "カナガワケン",
    "prefecture_code": 14,
    "city": "足柄下郡湯河原町",
    "city_kana": "アシガラシモグンユガワラマチ",
    "town": "鍛冶屋",
    "town_kana": "カジヤ",
    "street": null,
    "office_name": null,
    "office_name_kana": null
  },
  "0314": {
    "postcode": "2590314",
    "prefecture": "神奈川県",
    "prefecture_kana": "カナガワケン",
    "prefecture_code": 14,
    "city": "足柄下郡湯河原町",
    "city_kana": "アシガラシモグンユガワラマチ",
    "town": "宮上",
    "town_kana": "ミヤカミ",
    "street": null,
    "office_name": null,
    "office_name_kana": null
  },
  "0316": {
    "postcode": "2590316",
    "prefecture": "神奈川県",
    "prefecture_kana": "カナガワケン",
    "prefecture_code": 14,
    "city": "足柄下郡湯河原町",
    "city_kana": "アシガラシモグンユガワラマチ",
    "town": "福浦吉浜",
    "town_kana": "フクウラヨシハマ",
    "street": null,
    "office_name": null,
    "office_name_kana": null
  },
  "0317": {
    "postcode": "2590317",
    "prefecture": "神奈川県",
    "prefecture_kana": "カナガワケン",
    "prefecture_code": 14,
    "city": "足柄下郡湯河原町",
    "city_kana": "アシガラシモグンユガワラマチ",
    "town": "福浦鍛冶屋",
    "town_kana": "フクウラカジヤ",
    "street": null,
    "office_name": null,
    "office_name_kana": null
  },
  "0318": {
    "postcode": "2590318",
    "prefecture": "神奈川県",
    "prefecture_kana": "カナガワケン",
    "prefecture_code": 14,
    "city": "足柄下郡湯河原町",
    "city_kana": "アシガラシモグンユガワラマチ",
    "town": "吉浜福浦",
    "town_kana": "ヨシハマフクウラ",
    "street": null,
    "office_name": null,
    "office_name_kana": null
  },
  "0392": {
    "postcode": "2590392",
    "prefecture": "神奈川県",
    "prefecture_kana": "カナガワケン",
    "prefecture_code": 14,
    "city": "足柄下郡湯河原町",
    "city_kana": "アシガラシモグンユガワラマチ",
    "town": "中央",
    "town_kana": "チュウオウ",
    "street": "２丁目２−１",
    "office_name": "湯河原町役場",
    "office_name_kana": "ユガワラマチヤクバ"
  },
  "0393": {
    "postcode": "2590393",
    "prefecture": "神奈川県",
    "prefecture_kana": "カナガワケン",
    "prefecture_code": 14,
    "city": "足柄下郡湯河原町",
    "city_kana": "アシガラシモグンユガワラマチ",
    "town": "土肥",
    "town_kana": "ドイ",
    "street": "１丁目１５−４",
    "office_name": "株式会社　ちぼり",
    "office_name_kana": "カブシキガイシヤ チボリ"
  },
  "0395": {
    "postcode": "2590395",
    "prefecture": "神奈川県",
    "prefecture_kana": "カナガワケン",
    "prefecture_code": 14,
    "city": "足柄下郡湯河原町",
    "city_kana": "アシガラシモグンユガワラマチ",
    "town": "吉浜",
    "town_kana": "ヨシハマ",
    "street": "１８５５",
    "office_name": "財団法人　日本老人福祉財団　湯河原ゆうゆうの里",
    "office_name_kana": "ザイダンホウジン ニホンロウジンフクシザイダン ユガワラユウユウノサト"
  },
  "0396": {
    "postcode": "2590396",
    "prefecture": "神奈川県",
    "prefecture_kana": "カナガワケン",
    "prefecture_code": 14,
    "city": "足柄下郡湯河原町",
    "city_kana": "アシガラシモグンユガワラマチ",
    "town": "中央",
    "town_kana": "チュウオウ",
    "street": "２−２１−６",
    "office_name": "独立行政法人　地域医療機能推進機構　湯河原病院",
    "office_name_kana": "ドクリツギヨウセイホウジン チイキイリヨウキノウスイシンキコウ ユガワラビヨウイン"
  },
  "1100": {
    "postcode": "2591100",
    "prefecture": "神奈川県",
    "prefecture_kana": "カナガワケン",
    "prefecture_code": 14,
    "city": "伊勢原市",
    "city_kana": "イセハラシ",
    "town": "",
    "town_kana": "",
    "street": null,
    "office_name": null,
    "office_name_kana": null
  },
  "1101": {
    "postcode": "2591101",
    "prefecture": "神奈川県",
    "prefecture_kana": "カナガワケン",
    "prefecture_code": 14,
    "city": "伊勢原市",
    "city_kana": "イセハラシ",
    "town": "日向",
    "town_kana": "ヒナタ",
    "street": null,
    "office_name": null,
    "office_name_kana": null
  },
  "1102": {
    "postcode": "2591102",
    "prefecture": "神奈川県",
    "prefecture_kana": "カナガワケン",
    "prefecture_code": 14,
    "city": "伊勢原市",
    "city_kana": "イセハラシ",
    "town": "子易",
    "town_kana": "コヤス",
    "street": null,
    "office_name": null,
    "office_name_kana": null
  },
  "1103": {
    "postcode": "2591103",
    "prefecture": "神奈川県",
    "prefecture_kana": "カナガワケン",
    "prefecture_code": 14,
    "city": "伊勢原市",
    "city_kana": "イセハラシ",
    "town": "三ノ宮",
    "town_kana": "サンノミヤ",
    "street": null,
    "office_name": null,
    "office_name_kana": null
  },
  "1104": {
    "postcode": "2591104",
    "prefecture": "神奈川県",
    "prefecture_kana": "カナガワケン",
    "prefecture_code": 14,
    "city": "伊勢原市",
    "city_kana": "イセハラシ",
    "town": "坪ノ内",
    "town_kana": "ツボノウチ",
    "street": null,
    "office_name": null,
    "office_name_kana": null
  },
  "1105": {
    "postcode": "2591105",
    "prefecture": "神奈川県",
    "prefecture_kana": "カナガワケン",
    "prefecture_code": 14,
    "city": "伊勢原市",
    "city_kana": "イセハラシ",
    "town": "大住台",
    "town_kana": "オオスミダイ",
    "street": null,
    "office_name": null,
    "office_name_kana": null
  },
  "1106": {
    "postcode": "2591106",
    "prefecture": "神奈川県",
    "prefecture_kana": "カナガワケン",
    "prefecture_code": 14,
    "city": "伊勢原市",
    "city_kana": "イセハラシ",
    "town": "善波",
    "town_kana": "ゼンバ",
    "street": null,
    "office_name": null,
    "office_name_kana": null
  },
  "1107": {
    "postcode": "2591107",
    "prefecture": "神奈川県",
    "prefecture_kana": "カナガワケン",
    "prefecture_code": 14,
    "city": "伊勢原市",
    "city_kana": "イセハラシ",
    "town": "大山",
    "town_kana": "オオヤマ",
    "street": null,
    "office_name": null,
    "office_name_kana": null
  },
  "1111": {
    "postcode": "2591111",
    "prefecture": "神奈川県",
    "prefecture_kana": "カナガワケン",
    "prefecture_code": 14,
    "city": "伊勢原市",
    "city_kana": "イセハラシ",
    "town": "西富岡",
    "town_kana": "ニシトミオカ",
    "street": null,
    "office_name": null,
    "office_name_kana": null
  },
  "1112": {
    "postcode": "2591112",
    "prefecture": "神奈川県",
    "prefecture_kana": "カナガワケン",
    "prefecture_code": 14,
    "city": "伊勢原市",
    "city_kana": "イセハラシ",
    "town": "東富岡",
    "town_kana": "ヒガシトミオカ",
    "street": null,
    "office_name": null,
    "office_name_kana": null
  },
  "1113": {
    "postcode": "2591113",
    "prefecture": "神奈川県",
    "prefecture_kana": "カナガワケン",
    "prefecture_code": 14,
    "city": "伊勢原市",
    "city_kana": "イセハラシ",
    "town": "粟窪",
    "town_kana": "アワクボ",
    "street": null,
    "office_name": null,
    "office_name_kana": null
  },
  "1114": {
    "postcode": "2591114",
    "prefecture": "神奈川県",
    "prefecture_kana": "カナガワケン",
    "prefecture_code": 14,
    "city": "伊勢原市",
    "city_kana": "イセハラシ",
    "town": "高森",
    "town_kana": "タカモリ",
    "street": null,
    "office_name": null,
    "office_name_kana": null
  },
  "1115": {
    "postcode": "2591115",
    "prefecture": "神奈川県",
    "prefecture_kana": "カナガワケン",
    "prefecture_code": 14,
    "city": "伊勢原市",
    "city_kana": "イセハラシ",
    "town": "高森台",
    "town_kana": "タカモリダイ",
    "street": null,
    "office_name": null,
    "office_name_kana": null
  },
  "1116": {
    "postcode": "2591116",
    "prefecture": "神奈川県",
    "prefecture_kana": "カナガワケン",
    "prefecture_code": 14,
    "city": "伊勢原市",
    "city_kana": "イセハラシ",
    "town": "石田",
    "town_kana": "イシダ",
    "street": null,
    "office_name": null,
    "office_name_kana": null
  },
  "1117": {
    "postcode": "2591117",
    "prefecture": "神奈川県",
    "prefecture_kana": "カナガワケン",
    "prefecture_code": 14,
    "city": "伊勢原市",
    "city_kana": "イセハラシ",
    "town": "東成瀬",
    "town_kana": "ヒガシナルセ",
    "street": null,
    "office_name": null,
    "office_name_kana": null
  },
  "1118": {
    "postcode": "2591118",
    "prefecture": "神奈川県",
    "prefecture_kana": "カナガワケン",
    "prefecture_code": 14,
    "city": "伊勢原市",
    "city_kana": "イセハラシ",
    "town": "見附島",
    "town_kana": "ミツケジマ",
    "street": null,
    "office_name": null,
    "office_name_kana": null
  },
  "1121": {
    "postcode": "2591121",
    "prefecture": "神奈川県",
    "prefecture_kana": "カナガワケン",
    "prefecture_code": 14,
    "city": "伊勢原市",
    "city_kana": "イセハラシ",
    "town": "下落合",
    "town_kana": "シモオチアイ",
    "street": null,
    "office_name": null,
    "office_name_kana": null
  },
  "1122": {
    "postcode": "2591122",
    "prefecture": "神奈川県",
    "prefecture_kana": "カナガワケン",
    "prefecture_code": 14,
    "city": "伊勢原市",
    "city_kana": "イセハラシ",
    "town": "小稲葉",
    "town_kana": "コイナバ",
    "street": null,
    "office_name": null,
    "office_name_kana": null
  },
  "1123": {
    "postcode": "2591123",
    "prefecture": "神奈川県",
    "prefecture_kana": "カナガワケン",
    "prefecture_code": 14,
    "city": "伊勢原市",
    "city_kana": "イセハラシ",
    "town": "下谷",
    "town_kana": "シモヤ",
    "street": null,
    "office_name": null,
    "office_name_kana": null
  },
  "1124": {
    "postcode": "2591124",
    "prefecture": "神奈川県",
    "prefecture_kana": "カナガワケン",
    "prefecture_code": 14,
    "city": "伊勢原市",
    "city_kana": "イセハラシ",
    "town": "上平間",
    "town_kana": "カミヒラマ",
    "street": null,
    "office_name": null,
    "office_name_kana": null
  },
  "1125": {
    "postcode": "2591125",
    "prefecture": "神奈川県",
    "prefecture_kana": "カナガワケン",
    "prefecture_code": 14,
    "city": "伊勢原市",
    "city_kana": "イセハラシ",
    "town": "下平間",
    "town_kana": "シモヒラマ",
    "street": null,
    "office_name": null,
    "office_name_kana": null
  },
  "1126": {
    "postcode": "2591126",
    "prefecture": "神奈川県",
    "prefecture_kana": "カナガワケン",
    "prefecture_code": 14,
    "city": "伊勢原市",
    "city_kana": "イセハラシ",
    "town": "沼目",
    "town_kana": "ヌマメ",
    "street": null,
    "office_name": null,
    "office_name_kana": null
  },
  "1127": {
    "postcode": "2591127",
    "prefecture": "神奈川県",
    "prefecture_kana": "カナガワケン",
    "prefecture_code": 14,
    "city": "伊勢原市",
    "city_kana": "イセハラシ",
    "town": "上谷",
    "town_kana": "カミヤ",
    "street": null,
    "office_name": null,
    "office_name_kana": null
  },
  "1128": {
    "postcode": "2591128",
    "prefecture": "神奈川県",
    "prefecture_kana": "カナガワケン",
    "prefecture_code": 14,
    "city": "伊勢原市",
    "city_kana": "イセハラシ",
    "town": "歌川",
    "town_kana": "ウタガワ",
    "street": null,
    "office_name": null,
    "office_name_kana": null
  },
  "1131": {
    "postcode": "2591131",
    "prefecture": "神奈川県",
    "prefecture_kana": "カナガワケン",
    "prefecture_code": 14,
    "city": "伊勢原市",
    "city_kana": "イセハラシ",
    "town": "伊勢原",
    "town_kana": "イセハラ",
    "street": null,
    "office_name": null,
    "office_name_kana": null
  },
  "1132": {
    "postcode": "2591132",
    "prefecture": "神奈川県",
    "prefecture_kana": "カナガワケン",
    "prefecture_code": 14,
    "city": "伊勢原市",
    "city_kana": "イセハラシ",
    "town": "桜台",
    "town_kana": "サクラダイ",
    "street": null,
    "office_name": null,
    "office_name_kana": null
  },
  "1133": {
    "postcode": "2591133",
    "prefecture": "神奈川県",
    "prefecture_kana": "カナガワケン",
    "prefecture_code": 14,
    "city": "伊勢原市",
    "city_kana": "イセハラシ",
    "town": "東大竹",
    "town_kana": "ヒガシオオダケ",
    "street": null,
    "office_name": null,
    "office_name_kana": null
  },
  "1134": {
    "postcode": "2591134",
    "prefecture": "神奈川県",
    "prefecture_kana": "カナガワケン",
    "prefecture_code": 14,
    "city": "伊勢原市",
    "city_kana": "イセハラシ",
    "town": "八幡台",
    "town_kana": "ハチマンダイ",
    "street": null,
    "office_name": null,
    "office_name_kana": null
  },
  "1135": {
    "postcode": "2591135",
    "prefecture": "神奈川県",
    "prefecture_kana": "カナガワケン",
    "prefecture_code": 14,
    "city": "伊勢原市",
    "city_kana": "イセハラシ",
    "town": "岡崎",
    "town_kana": "オカザキ",
    "street": null,
    "office_name": null,
    "office_name_kana": null
  },
  "1136": {
    "postcode": "2591136",
    "prefecture": "神奈川県",
    "prefecture_kana": "カナガワケン",
    "prefecture_code": 14,
    "city": "伊勢原市",
    "city_kana": "イセハラシ",
    "town": "串橋",
    "town_kana": "クシハシ",
    "street": null,
    "office_name": null,
    "office_name_kana": null
  },
  "1137": {
    "postcode": "2591137",
    "prefecture": "神奈川県",
    "prefecture_kana": "カナガワケン",
    "prefecture_code": 14,
    "city": "伊勢原市",
    "city_kana": "イセハラシ",
    "town": "笠窪",
    "town_kana": "カサクボ",
    "street": null,
    "office_name": null,
    "office_name_kana": null
  },
  "1138": {
    "postcode": "2591138",
    "prefecture": "神奈川県",
    "prefecture_kana": "カナガワケン",
    "prefecture_code": 14,
    "city": "伊勢原市",
    "city_kana": "イセハラシ",
    "town": "神戸",
    "town_kana": "ゴウド",
    "street": null,
    "office_name": null,
    "office_name_kana": null
  },
  "1141": {
    "postcode": "2591141",
    "prefecture": "神奈川県",
    "prefecture_kana": "カナガワケン",
    "prefecture_code": 14,
    "city": "伊勢原市",
    "city_kana": "イセハラシ",
    "town": "上粕屋",
    "town_kana": "カミカスヤ",
    "street": null,
    "office_name": null,
    "office_name_kana": null
  },
  "1142": {
    "postcode": "2591142",
    "prefecture": "神奈川県",
    "prefecture_kana": "カナガワケン",
    "prefecture_code": 14,
    "city": "伊勢原市",
    "city_kana": "イセハラシ",
    "town": "田中",
    "town_kana": "タナカ",
    "street": null,
    "office_name": null,
    "office_name_kana": null
  },
  "1143": {
    "postcode": "2591143",
    "prefecture": "神奈川県",
    "prefecture_kana": "カナガワケン",
    "prefecture_code": 14,
    "city": "伊勢原市",
    "city_kana": "イセハラシ",
    "town": "下糟屋",
    "town_kana": "シモカスヤ",
    "street": null,
    "office_name": null,
    "office_name_kana": null
  },
  "1144": {
    "postcode": "2591144",
    "prefecture": "神奈川県",
    "prefecture_kana": "カナガワケン",
    "prefecture_code": 14,
    "city": "伊勢原市",
    "city_kana": "イセハラシ",
    "town": "池端",
    "town_kana": "イケバタ",
    "street": null,
    "office_name": null,
    "office_name_kana": null
  },
  "1145": {
    "postcode": "2591145",
    "prefecture": "神奈川県",
    "prefecture_kana": "カナガワケン",
    "prefecture_code": 14,
    "city": "伊勢原市",
    "city_kana": "イセハラシ",
    "town": "板戸",
    "town_kana": "イタド",
    "street": null,
    "office_name": null,
    "office_name_kana": null
  },
  "1146": {
    "postcode": "2591146",
    "prefecture": "神奈川県",
    "prefecture_kana": "カナガワケン",
    "prefecture_code": 14,
    "city": "伊勢原市",
    "city_kana": "イセハラシ",
    "town": "鈴川",
    "town_kana": "スズカワ",
    "street": null,
    "office_name": null,
    "office_name_kana": null
  },
  "1147": {
    "postcode": "2591147",
    "prefecture": "神奈川県",
    "prefecture_kana": "カナガワケン",
    "prefecture_code": 14,
    "city": "伊勢原市",
    "city_kana": "イセハラシ",
    "town": "白根",
    "town_kana": "シラネ",
    "street": null,
    "office_name": null,
    "office_name_kana": null
  },
  "1148": {
    "postcode": "2591148",
    "prefecture": "神奈川県",
    "prefecture_kana": "カナガワケン",
    "prefecture_code": 14,
    "city": "伊勢原市",
    "city_kana": "イセハラシ",
    "town": "下糟屋東",
    "town_kana": "シモカスヤヒガシ",
    "street": null,
    "office_name": null,
    "office_name_kana": null
  },
  "1185": {
    "postcode": "2591185",
    "prefecture": "神奈川県",
    "prefecture_kana": "カナガワケン",
    "prefecture_code": 14,
    "city": "伊勢原市",
    "city_kana": "イセハラシ",
    "town": "見附島",
    "town_kana": "ミツケジマ",
    "street": "４１１",
    "office_name": "学校法人　向上学園",
    "office_name_kana": "ガツコウホウジン コウジヨウガクエン"
  },
  "1186": {
    "postcode": "2591186",
    "prefecture": "神奈川県",
    "prefecture_kana": "カナガワケン",
    "prefecture_code": 14,
    "city": "伊勢原市",
    "city_kana": "イセハラシ",
    "town": "石田",
    "town_kana": "イシダ",
    "street": "１００ＭＦＬＰ厚木Ⅱ",
    "office_name": "アマゾンジャパン伊勢原ＦＣ",
    "office_name_kana": "アマゾンジヤパンイセハラエフシ-"
  },
  "1187": {
    "postcode": "2591187",
    "prefecture": "神奈川県",
    "prefecture_kana": "カナガワケン",
    "prefecture_code": 14,
    "city": "伊勢原市",
    "city_kana": "イセハラシ",
    "town": "田中",
    "town_kana": "タナカ",
    "street": "３４５",
    "office_name": "ＪＡ神奈川県厚生連　伊勢原協同病院",
    "office_name_kana": "ジエイエ-カナガワケンコウセイレン イセハラキヨウドウビヨウイン"
  },
  "1188": {
    "postcode": "2591188",
    "prefecture": "神奈川県",
    "prefecture_kana": "カナガワケン",
    "prefecture_code": 14,
    "city": "伊勢原市",
    "city_kana": "イセハラシ",
    "town": "田中",
    "town_kana": "タナカ",
    "street": "３４８（伊勢原郵便局私書箱第８号）",
    "office_name": "伊勢原市役所",
    "office_name_kana": "イセハラシヤクシヨ"
  },
  "1192": {
    "postcode": "2591192",
    "prefecture": "神奈川県",
    "prefecture_kana": "カナガワケン",
    "prefecture_code": 14,
    "city": "伊勢原市",
    "city_kana": "イセハラシ",
    "town": "板戸",
    "town_kana": "イタド",
    "street": "８０",
    "office_name": "市光工業　株式会社",
    "office_name_kana": "イチコウコウギヨウ カブシキガイシヤ"
  },
  "1193": {
    "postcode": "2591193",
    "prefecture": "神奈川県",
    "prefecture_kana": "カナガワケン",
    "prefecture_code": 14,
    "city": "伊勢原市",
    "city_kana": "イセハラシ",
    "town": "下糟屋",
    "town_kana": "シモカスヤ",
    "street": "１４３",
    "office_name": "東海大学医学部付属病院",
    "office_name_kana": "トウカイダイガクイガクブフゾクビヨウイン"
  },
  "1196": {
    "postcode": "2591196",
    "prefecture": "神奈川県",
    "prefecture_kana": "カナガワケン",
    "prefecture_code": 14,
    "city": "伊勢原市",
    "city_kana": "イセハラシ",
    "town": "石田",
    "town_kana": "イシダ",
    "street": "２００（伊勢原郵便局私書箱第５号）",
    "office_name": "株式会社　アマダ",
    "office_name_kana": "カブシキガイシヤ アマダ"
  },
  "1197": {
    "postcode": "2591197",
    "prefecture": "神奈川県",
    "prefecture_kana": "カナガワケン",
    "prefecture_code": 14,
    "city": "伊勢原市",
    "city_kana": "イセハラシ",
    "town": "上粕屋",
    "town_kana": "カミカスヤ",
    "street": "１５７３",
    "office_name": "産能大学",
    "office_name_kana": "サンノウダイガク"
  },
  "1198": {
    "postcode": "2591198",
    "prefecture": "神奈川県",
    "prefecture_kana": "カナガワケン",
    "prefecture_code": 14,
    "city": "伊勢原市",
    "city_kana": "イセハラシ",
    "town": "鈴川",
    "town_kana": "スズカワ",
    "street": "６",
    "office_name": "株式会社　アマダプレスシステム",
    "office_name_kana": "カブシキガイシヤ アマダプレスシステム"
  },
  "1201": {
    "postcode": "2591201",
    "prefecture": "神奈川県",
    "prefecture_kana": "カナガワケン",
    "prefecture_code": 14,
    "city": "平塚市",
    "city_kana": "ヒラツカシ",
    "town": "南金目",
    "town_kana": "ミナミカナメ",
    "street": null,
    "office_name": null,
    "office_name_kana": null
  },
  "1202": {
    "postcode": "2591202",
    "prefecture": "神奈川県",
    "prefecture_kana": "カナガワケン",
    "prefecture_code": 14,
    "city": "平塚市",
    "city_kana": "ヒラツカシ",
    "town": "千須谷",
    "town_kana": "センズヤ",
    "street": null,
    "office_name": null,
    "office_name_kana": null
  },
  "1203": {
    "postcode": "2591203",
    "prefecture": "神奈川県",
    "prefecture_kana": "カナガワケン",
    "prefecture_code": 14,
    "city": "平塚市",
    "city_kana": "ヒラツカシ",
    "town": "下吉沢",
    "town_kana": "シモキチサワ",
    "street": null,
    "office_name": null,
    "office_name_kana": null
  },
  "1204": {
    "postcode": "2591204",
    "prefecture": "神奈川県",
    "prefecture_kana": "カナガワケン",
    "prefecture_code": 14,
    "city": "平塚市",
    "city_kana": "ヒラツカシ",
    "town": "上吉沢",
    "town_kana": "カミキチサワ",
    "street": null,
    "office_name": null,
    "office_name_kana": null
  },
  "1205": {
    "postcode": "2591205",
    "prefecture": "神奈川県",
    "prefecture_kana": "カナガワケン",
    "prefecture_code": 14,
    "city": "平塚市",
    "city_kana": "ヒラツカシ",
    "town": "土屋",
    "town_kana": "ツチヤ",
    "street": null,
    "office_name": null,
    "office_name_kana": null
  },
  "1206": {
    "postcode": "2591206",
    "prefecture": "神奈川県",
    "prefecture_kana": "カナガワケン",
    "prefecture_code": 14,
    "city": "平塚市",
    "city_kana": "ヒラツカシ",
    "town": "真田",
    "town_kana": "サナダ",
    "street": null,
    "office_name": null,
    "office_name_kana": null
  },
  "1207": {
    "postcode": "2591207",
    "prefecture": "神奈川県",
    "prefecture_kana": "カナガワケン",
    "prefecture_code": 14,
    "city": "平塚市",
    "city_kana": "ヒラツカシ",
    "town": "北金目",
    "town_kana": "キタカナメ",
    "street": null,
    "office_name": null,
    "office_name_kana": null
  },
  "1211": {
    "postcode": "2591211",
    "prefecture": "神奈川県",
    "prefecture_kana": "カナガワケン",
    "prefecture_code": 14,
    "city": "平塚市",
    "city_kana": "ヒラツカシ",
    "town": "ふじみ野",
    "town_kana": "フジミノ",
    "street": null,
    "office_name": null,
    "office_name_kana": null
  },
  "1212": {
    "postcode": "2591212",
    "prefecture": "神奈川県",
    "prefecture_kana": "カナガワケン",
    "prefecture_code": 14,
    "city": "平塚市",
    "city_kana": "ヒラツカシ",
    "town": "岡崎",
    "town_kana": "オカザキ",
    "street": null,
    "office_name": null,
    "office_name_kana": null
  },
  "1213": {
    "postcode": "2591213",
    "prefecture": "神奈川県",
    "prefecture_kana": "カナガワケン",
    "prefecture_code": 14,
    "city": "平塚市",
    "city_kana": "ヒラツカシ",
    "town": "片岡",
    "town_kana": "カタオカ",
    "street": null,
    "office_name": null,
    "office_name_kana": null
  },
  "1214": {
    "postcode": "2591214",
    "prefecture": "神奈川県",
    "prefecture_kana": "カナガワケン",
    "prefecture_code": 14,
    "city": "平塚市",
    "city_kana": "ヒラツカシ",
    "town": "飯島",
    "town_kana": "イイジマ",
    "street": null,
    "office_name": null,
    "office_name_kana": null
  },
  "1215": {
    "postcode": "2591215",
    "prefecture": "神奈川県",
    "prefecture_kana": "カナガワケン",
    "prefecture_code": 14,
    "city": "平塚市",
    "city_kana": "ヒラツカシ",
    "town": "寺田縄",
    "town_kana": "テラダナワ",
    "street": null,
    "office_name": null,
    "office_name_kana": null
  },
  "1216": {
    "postcode": "2591216",
    "prefecture": "神奈川県",
    "prefecture_kana": "カナガワケン",
    "prefecture_code": 14,
    "city": "平塚市",
    "city_kana": "ヒラツカシ",
    "town": "入野",
    "town_kana": "イノ",
    "street": null,
    "office_name": null,
    "office_name_kana": null
  },
  "1217": {
    "postcode": "2591217",
    "prefecture": "神奈川県",
    "prefecture_kana": "カナガワケン",
    "prefecture_code": 14,
    "city": "平塚市",
    "city_kana": "ヒラツカシ",
    "town": "長持",
    "town_kana": "ナガモチ",
    "street": null,
    "office_name": null,
    "office_name_kana": null
  },
  "1218": {
    "postcode": "2591218",
    "prefecture": "神奈川県",
    "prefecture_kana": "カナガワケン",
    "prefecture_code": 14,
    "city": "平塚市",
    "city_kana": "ヒラツカシ",
    "town": "入部",
    "town_kana": "イリブ",
    "street": null,
    "office_name": null,
    "office_name_kana": null
  },
  "1219": {
    "postcode": "2591219",
    "prefecture": "神奈川県",
    "prefecture_kana": "カナガワケン",
    "prefecture_code": 14,
    "city": "平塚市",
    "city_kana": "ヒラツカシ",
    "town": "広川",
    "town_kana": "ヒロカワ",
    "street": null,
    "office_name": null,
    "office_name_kana": null
  },
  "1220": {
    "postcode": "2591220",
    "prefecture": "神奈川県",
    "prefecture_kana": "カナガワケン",
    "prefecture_code": 14,
    "city": "平塚市",
    "city_kana": "ヒラツカシ",
    "town": "めぐみが丘",
    "town_kana": "メグミガオカ",
    "street": null,
    "office_name": null,
    "office_name_kana": null
  },
  "1292": {
    "postcode": "2591292",
    "prefecture": "神奈川県",
    "prefecture_kana": "カナガワケン",
    "prefecture_code": 14,
    "city": "平塚市",
    "city_kana": "ヒラツカシ",
    "town": "北金目",
    "town_kana": "キタカナメ",
    "street": "四丁目１番１号",
    "office_name": "東海大学　湘南校舎",
    "office_name_kana": "トウカイダイガク シヨウナンコウシヤ"
  },
  "1301": {
    "postcode": "2591301",
    "prefecture": "神奈川県",
    "prefecture_kana": "カナガワケン",
    "prefecture_code": 14,
    "city": "秦野市",
    "city_kana": "ハダノシ",
    "town": "羽根",
    "town_kana": "ハネ",
    "street": null,
    "office_name": null,
    "office_name_kana": null
  },
  "1302": {
    "postcode": "2591302",
    "prefecture": "神奈川県",
    "prefecture_kana": "カナガワケン",
    "prefecture_code": 14,
    "city": "秦野市",
    "city_kana": "ハダノシ",
    "town": "菩提",
    "town_kana": "ボダイ",
    "street": null,
    "office_name": null,
    "office_name_kana": null
  },
  "1303": {
    "postcode": "2591303",
    "prefecture": "神奈川県",
    "prefecture_kana": "カナガワケン",
    "prefecture_code": 14,
    "city": "秦野市",
    "city_kana": "ハダノシ",
    "town": "三屋",
    "town_kana": "サンヤ",
    "street": null,
    "office_name": null,
    "office_name_kana": null
  },
  "1304": {
    "postcode": "2591304",
    "prefecture": "神奈川県",
    "prefecture_kana": "カナガワケン",
    "prefecture_code": 14,
    "city": "秦野市",
    "city_kana": "ハダノシ",
    "town": "堀山下",
    "town_kana": "ホリヤマシタ",
    "street": null,
    "office_name": null,
    "office_name_kana": null
  },
  "1305": {
    "postcode": "2591305",
    "prefecture": "神奈川県",
    "prefecture_kana": "カナガワケン",
    "prefecture_code": 14,
    "city": "秦野市",
    "city_kana": "ハダノシ",
    "town": "堀川",
    "town_kana": "ホリカワ",
    "street": null,
    "office_name": null,
    "office_name_kana": null
  },
  "1306": {
    "postcode": "2591306",
    "prefecture": "神奈川県",
    "prefecture_kana": "カナガワケン",
    "prefecture_code": 14,
    "city": "秦野市",
    "city_kana": "ハダノシ",
    "town": "戸川",
    "town_kana": "トカワ",
    "street": null,
    "office_name": null,
    "office_name_kana": null
  },
  "1307": {
    "postcode": "2591307",
    "prefecture": "神奈川県",
    "prefecture_kana": "カナガワケン",
    "prefecture_code": 14,
    "city": "秦野市",
    "city_kana": "ハダノシ",
    "town": "横野",
    "town_kana": "ヨコノ",
    "street": null,
    "office_name": null,
    "office_name_kana": null
  },
  "1311": {
    "postcode": "2591311",
    "prefecture": "神奈川県",
    "prefecture_kana": "カナガワケン",
    "prefecture_code": 14,
    "city": "秦野市",
    "city_kana": "ハダノシ",
    "town": "弥生町",
    "town_kana": "ヤヨイチョウ",
    "street": null,
    "office_name": null,
    "office_name_kana": null
  },
  "1312": {
    "postcode": "2591312",
    "prefecture": "神奈川県",
    "prefecture_kana": "カナガワケン",
    "prefecture_code": 14,
    "city": "秦野市",
    "city_kana": "ハダノシ",
    "town": "春日町",
    "town_kana": "カスガチョウ",
    "street": null,
    "office_name": null,
    "office_name_kana": null
  },
  "1313": {
    "postcode": "2591313",
    "prefecture": "神奈川県",
    "prefecture_kana": "カナガワケン",
    "prefecture_code": 14,
    "city": "秦野市",
    "city_kana": "ハダノシ",
    "town": "松原町",
    "town_kana": "マツバラチョウ",
    "street": null,
    "office_name": null,
    "office_name_kana": null
  },
  "1314": {
    "postcode": "2591314",
    "prefecture": "神奈川県",
    "prefecture_kana": "カナガワケン",
    "prefecture_code": 14,
    "city": "秦野市",
    "city_kana": "ハダノシ",
    "town": "若松町",
    "town_kana": "ワカマツチョウ",
    "street": null,
    "office_name": null,
    "office_name_kana": null
  },
  "1315": {
    "postcode": "2591315",
    "prefecture": "神奈川県",
    "prefecture_kana": "カナガワケン",
    "prefecture_code": 14,
    "city": "秦野市",
    "city_kana": "ハダノシ",
    "town": "柳町",
    "town_kana": "ヤナギチョウ",
    "street": null,
    "office_name": null,
    "office_name_kana": null
  },
  "1316": {
    "postcode": "2591316",
    "prefecture": "神奈川県",
    "prefecture_kana": "カナガワケン",
    "prefecture_code": 14,
    "city": "秦野市",
    "city_kana": "ハダノシ",
    "town": "沼代新町",
    "town_kana": "ヌマシロシンチョウ",
    "street": null,
    "office_name": null,
    "office_name_kana": null
  },
  "1317": {
    "postcode": "2591317",
    "prefecture": "神奈川県",
    "prefecture_kana": "カナガワケン",
    "prefecture_code": 14,
    "city": "秦野市",
    "city_kana": "ハダノシ",
    "town": "並木町",
    "town_kana": "ナミキチョウ",
    "street": null,
    "office_name": null,
    "office_name_kana": null
  },
  "1321": {
    "postcode": "2591321",
    "prefecture": "神奈川県",
    "prefecture_kana": "カナガワケン",
    "prefecture_code": 14,
    "city": "秦野市",
    "city_kana": "ハダノシ",
    "town": "曲松",
    "town_kana": "マガリマツ",
    "street": null,
    "office_name": null,
    "office_name_kana": null
  },
  "1322": {
    "postcode": "2591322",
    "prefecture": "神奈川県",
    "prefecture_kana": "カナガワケン",
    "prefecture_code": 14,
    "city": "秦野市",
    "city_kana": "ハダノシ",
    "town": "渋沢",
    "town_kana": "シブサワ",
    "street": null,
    "office_name": null,
    "office_name_kana": null
  },
  "1323": {
    "postcode": "2591323",
    "prefecture": "神奈川県",
    "prefecture_kana": "カナガワケン",
    "prefecture_code": 14,
    "city": "秦野市",
    "city_kana": "ハダノシ",
    "town": "栃窪",
    "town_kana": "トチクボ",
    "street": null,
    "office_name": null,
    "office_name_kana": null
  },
  "1324": {
    "postcode": "2591324",
    "prefecture": "神奈川県",
    "prefecture_kana": "カナガワケン",
    "prefecture_code": 14,
    "city": "秦野市",
    "city_kana": "ハダノシ",
    "town": "千村",
    "town_kana": "チムラ",
    "street": null,
    "office_name": null,
    "office_name_kana": null
  },
  "1325": {
    "postcode": "2591325",
    "prefecture": "神奈川県",
    "prefecture_kana": "カナガワケン",
    "prefecture_code": 14,
    "city": "秦野市",
    "city_kana": "ハダノシ",
    "town": "萩が丘",
    "town_kana": "ハギガオカ",
    "street": null,
    "office_name": null,
    "office_name_kana": null
  },
  "1326": {
    "postcode": "2591326",
    "prefecture": "神奈川県",
    "prefecture_kana": "カナガワケン",
    "prefecture_code": 14,
    "city": "秦野市",
    "city_kana": "ハダノシ",
    "town": "渋沢上",
    "town_kana": "シブサワカミ",
    "street": null,
    "office_name": null,
    "office_name_kana": null
  },
  "1331": {
    "postcode": "2591331",
    "prefecture": "神奈川県",
    "prefecture_kana": "カナガワケン",
    "prefecture_code": 14,
    "city": "秦野市",
    "city_kana": "ハダノシ",
    "town": "堀西",
    "town_kana": "ホリニシ",
    "street": null,
    "office_name": null,
    "office_name_kana": null
  },
  "1332": {
    "postcode": "2591332",
    "prefecture": "神奈川県",
    "prefecture_kana": "カナガワケン",
    "prefecture_code": 14,
    "city": "秦野市",
    "city_kana": "ハダノシ",
    "town": "菖蒲",
    "town_kana": "ショウブ",
    "street": null,
    "office_name": null,
    "office_name_kana": null
  },
  "1333": {
    "postcode": "2591333",
    "prefecture": "神奈川県",
    "prefecture_kana": "カナガワケン",
    "prefecture_code": 14,
    "city": "秦野市",
    "city_kana": "ハダノシ",
    "town": "八沢",
    "town_kana": "ハッサワ",
    "street": null,
    "office_name": null,
    "office_name_kana": null
  },
  "1334": {
    "postcode": "2591334",
    "prefecture": "神奈川県",
    "prefecture_kana": "カナガワケン",
    "prefecture_code": 14,
    "city": "秦野市",
    "city_kana": "ハダノシ",
    "town": "柳川",
    "town_kana": "ヤナガワ",
    "street": null,
    "office_name": null,
    "office_name_kana": null
  },
  "1335": {
    "postcode": "2591335",
    "prefecture": "神奈川県",
    "prefecture_kana": "カナガワケン",
    "prefecture_code": 14,
    "city": "秦野市",
    "city_kana": "ハダノシ",
    "town": "三廻部",
    "town_kana": "ミクルベ",
    "street": null,
    "office_name": null,
    "office_name_kana": null
  }
}