{
  "0000": {
    "postcode": "2610000",
    "prefecture": "千葉県",
    "prefecture_kana": "チバケン",
    "prefecture_code": 12,
    "city": "千葉市美浜区",
    "city_kana": "チバシミハマク",
    "town": "",
    "town_kana": "",
    "street": null,
    "office_name": null,
    "office_name_kana": null
  },
  "0001": {
    "postcode": "2610001",
    "prefecture": "千葉県",
    "prefecture_kana": "チバケン",
    "prefecture_code": 12,
    "city": "千葉市美浜区",
    "city_kana": "チバシミハマク",
    "town": "幸町",
    "town_kana": "サイワイチョウ",
    "street": null,
    "office_name": null,
    "office_name_kana": null
  },
  "0002": {
    "postcode": "2610002",
    "prefecture": "千葉県",
    "prefecture_kana": "チバケン",
    "prefecture_code": 12,
    "city": "千葉市美浜区",
    "city_kana": "チバシミハマク",
    "town": "新港",
    "town_kana": "シンミナト",
    "street": null,
    "office_name": null,
    "office_name_kana": null
  },
  "0003": {
    "postcode": "2610003",
    "prefecture": "千葉県",
    "prefecture_kana": "チバケン",
    "prefecture_code": 12,
    "city": "千葉市美浜区",
    "city_kana": "チバシミハマク",
    "town": "高浜",
    "town_kana": "タカハマ",
    "street": null,
    "office_name": null,
    "office_name_kana": null
  },
  "0004": {
    "postcode": "2610004",
    "prefecture": "千葉県",
    "prefecture_kana": "チバケン",
    "prefecture_code": 12,
    "city": "千葉市美浜区",
    "city_kana": "チバシミハマク",
    "town": "高洲",
    "town_kana": "タカス",
    "street": null,
    "office_name": null,
    "office_name_kana": null
  },
  "0005": {
    "postcode": "2610005",
    "prefecture": "千葉県",
    "prefecture_kana": "チバケン",
    "prefecture_code": 12,
    "city": "千葉市美浜区",
    "city_kana": "チバシミハマク",
    "town": "稲毛海岸",
    "town_kana": "イナゲカイガン",
    "street": null,
    "office_name": null,
    "office_name_kana": null
  },
  "0011": {
    "postcode": "2610011",
    "prefecture": "千葉県",
    "prefecture_kana": "チバケン",
    "prefecture_code": 12,
    "city": "千葉市美浜区",
    "city_kana": "チバシミハマク",
    "town": "真砂",
    "town_kana": "マサゴ",
    "street": null,
    "office_name": null,
    "office_name_kana": null
  },
  "0012": {
    "postcode": "2610012",
    "prefecture": "千葉県",
    "prefecture_kana": "チバケン",
    "prefecture_code": 12,
    "city": "千葉市美浜区",
    "city_kana": "チバシミハマク",
    "town": "磯辺",
    "town_kana": "イソベ",
    "street": null,
    "office_name": null,
    "office_name_kana": null
  },
  "0013": {
    "postcode": "2610013",
    "prefecture": "千葉県",
    "prefecture_kana": "チバケン",
    "prefecture_code": 12,
    "city": "千葉市美浜区",
    "city_kana": "チバシミハマク",
    "town": "打瀬",
    "town_kana": "ウタセ",
    "street": null,
    "office_name": null,
    "office_name_kana": null
  },
  "0014": {
    "postcode": "2610014",
    "prefecture": "千葉県",
    "prefecture_kana": "チバケン",
    "prefecture_code": 12,
    "city": "千葉市美浜区",
    "city_kana": "チバシミハマク",
    "town": "若葉",
    "town_kana": "ワカバ",
    "street": null,
    "office_name": null,
    "office_name_kana": null
  },
  "0021": {
    "postcode": "2610021",
    "prefecture": "千葉県",
    "prefecture_kana": "チバケン",
    "prefecture_code": 12,
    "city": "千葉市美浜区",
    "city_kana": "チバシミハマク",
    "town": "ひび野",
    "town_kana": "ヒビノ",
    "street": null,
    "office_name": null,
    "office_name_kana": null
  },
  "0022": {
    "postcode": "2610022",
    "prefecture": "千葉県",
    "prefecture_kana": "チバケン",
    "prefecture_code": 12,
    "city": "千葉市美浜区",
    "city_kana": "チバシミハマク",
    "town": "美浜",
    "town_kana": "ミハマ",
    "street": null,
    "office_name": null,
    "office_name_kana": null
  },
  "0023": {
    "postcode": "2610023",
    "prefecture": "千葉県",
    "prefecture_kana": "チバケン",
    "prefecture_code": 12,
    "city": "千葉市美浜区",
    "city_kana": "チバシミハマク",
    "town": "中瀬",
    "town_kana": "ナカセ",
    "street": null,
    "office_name": null,
    "office_name_kana": null
  },
  "0024": {
    "postcode": "2610024",
    "prefecture": "千葉県",
    "prefecture_kana": "チバケン",
    "prefecture_code": 12,
    "city": "千葉市美浜区",
    "city_kana": "チバシミハマク",
    "town": "豊砂",
    "town_kana": "トヨスナ",
    "street": null,
    "office_name": null,
    "office_name_kana": null
  },
  "0025": {
    "postcode": "2610025",
    "prefecture": "千葉県",
    "prefecture_kana": "チバケン",
    "prefecture_code": 12,
    "city": "千葉市美浜区",
    "city_kana": "チバシミハマク",
    "town": "浜田",
    "town_kana": "ハマダ",
    "street": null,
    "office_name": null,
    "office_name_kana": null
  },
  "0026": {
    "postcode": "2610026",
    "prefecture": "千葉県",
    "prefecture_kana": "チバケン",
    "prefecture_code": 12,
    "city": "千葉市美浜区",
    "city_kana": "チバシミハマク",
    "town": "幕張西",
    "town_kana": "マクハリニシ",
    "street": null,
    "office_name": null,
    "office_name_kana": null
  },
  "7101": {
    "postcode": "2617101",
    "prefecture": "千葉県",
    "prefecture_kana": "チバケン",
    "prefecture_code": 12,
    "city": "千葉市美浜区",
    "city_kana": "チバシミハマク",
    "town": "中瀬ワールドビジネスガーデン　１階",
    "town_kana": "ナカセワールドビジネスガーデン1カイ",
    "street": null,
    "office_name": null,
    "office_name_kana": null
  },
  "7102": {
    "postcode": "2617102",
    "prefecture": "千葉県",
    "prefecture_kana": "チバケン",
    "prefecture_code": 12,
    "city": "千葉市美浜区",
    "city_kana": "チバシミハマク",
    "town": "中瀬ワールドビジネスガーデン　２階",
    "town_kana": "ナカセワールドビジネスガーデン2カイ",
    "street": null,
    "office_name": null,
    "office_name_kana": null
  },
  "7103": {
    "postcode": "2617103",
    "prefecture": "千葉県",
    "prefecture_kana": "チバケン",
    "prefecture_code": 12,
    "city": "千葉市美浜区",
    "city_kana": "チバシミハマク",
    "town": "中瀬ワールドビジネスガーデン　３階",
    "town_kana": "ナカセワールドビジネスガーデン3カイ",
    "street": null,
    "office_name": null,
    "office_name_kana": null
  },
  "7104": {
    "postcode": "2617104",
    "prefecture": "千葉県",
    "prefecture_kana": "チバケン",
    "prefecture_code": 12,
    "city": "千葉市美浜区",
    "city_kana": "チバシミハマク",
    "town": "中瀬ワールドビジネスガーデン　４階",
    "town_kana": "ナカセワールドビジネスガーデン4カイ",
    "street": null,
    "office_name": null,
    "office_name_kana": null
  },
  "7105": {
    "postcode": "2617105",
    "prefecture": "千葉県",
    "prefecture_kana": "チバケン",
    "prefecture_code": 12,
    "city": "千葉市美浜区",
    "city_kana": "チバシミハマク",
    "town": "中瀬ワールドビジネスガーデン　５階",
    "town_kana": "ナカセワールドビジネスガーデン5カイ",
    "street": null,
    "office_name": null,
    "office_name_kana": null
  },
  "7106": {
    "postcode": "2617106",
    "prefecture": "千葉県",
    "prefecture_kana": "チバケン",
    "prefecture_code": 12,
    "city": "千葉市美浜区",
    "city_kana": "チバシミハマク",
    "town": "中瀬ワールドビジネスガーデン　６階",
    "town_kana": "ナカセワールドビジネスガーデン6カイ",
    "street": null,
    "office_name": null,
    "office_name_kana": null
  },
  "7107": {
    "postcode": "2617107",
    "prefecture": "千葉県",
    "prefecture_kana": "チバケン",
    "prefecture_code": 12,
    "city": "千葉市美浜区",
    "city_kana": "チバシミハマク",
    "town": "中瀬ワールドビジネスガーデン　７階",
    "town_kana": "ナカセワールドビジネスガーデン7カイ",
    "street": null,
    "office_name": null,
    "office_name_kana": null
  },
  "7108": {
    "postcode": "2617108",
    "prefecture": "千葉県",
    "prefecture_kana": "チバケン",
    "prefecture_code": 12,
    "city": "千葉市美浜区",
    "city_kana": "チバシミハマク",
    "town": "中瀬ワールドビジネスガーデン　８階",
    "town_kana": "ナカセワールドビジネスガーデン8カイ",
    "street": null,
    "office_name": null,
    "office_name_kana": null
  },
  "7109": {
    "postcode": "2617109",
    "prefecture": "千葉県",
    "prefecture_kana": "チバケン",
    "prefecture_code": 12,
    "city": "千葉市美浜区",
    "city_kana": "チバシミハマク",
    "town": "中瀬ワールドビジネスガーデン　９階",
    "town_kana": "ナカセワールドビジネスガーデン9カイ",
    "street": null,
    "office_name": null,
    "office_name_kana": null
  },
  "7110": {
    "postcode": "2617110",
    "prefecture": "千葉県",
    "prefecture_kana": "チバケン",
    "prefecture_code": 12,
    "city": "千葉市美浜区",
    "city_kana": "チバシミハマク",
    "town": "中瀬ワールドビジネスガーデン　１０階",
    "town_kana": "ナカセワールドビジネスガーデン10カイ",
    "street": null,
    "office_name": null,
    "office_name_kana": null
  },
  "7111": {
    "postcode": "2617111",
    "prefecture": "千葉県",
    "prefecture_kana": "チバケン",
    "prefecture_code": 12,
    "city": "千葉市美浜区",
    "city_kana": "チバシミハマク",
    "town": "中瀬ワールドビジネスガーデン　１１階",
    "town_kana": "ナカセワールドビジネスガーデン11カイ",
    "street": null,
    "office_name": null,
    "office_name_kana": null
  },
  "7112": {
    "postcode": "2617112",
    "prefecture": "千葉県",
    "prefecture_kana": "チバケン",
    "prefecture_code": 12,
    "city": "千葉市美浜区",
    "city_kana": "チバシミハマク",
    "town": "中瀬ワールドビジネスガーデン　１２階",
    "town_kana": "ナカセワールドビジネスガーデン12カイ",
    "street": null,
    "office_name": null,
    "office_name_kana": null
  },
  "7113": {
    "postcode": "2617113",
    "prefecture": "千葉県",
    "prefecture_kana": "チバケン",
    "prefecture_code": 12,
    "city": "千葉市美浜区",
    "city_kana": "チバシミハマク",
    "town": "中瀬ワールドビジネスガーデン　１３階",
    "town_kana": "ナカセワールドビジネスガーデン13カイ",
    "street": null,
    "office_name": null,
    "office_name_kana": null
  },
  "7114": {
    "postcode": "2617114",
    "prefecture": "千葉県",
    "prefecture_kana": "チバケン",
    "prefecture_code": 12,
    "city": "千葉市美浜区",
    "city_kana": "チバシミハマク",
    "town": "中瀬ワールドビジネスガーデン　１４階",
    "town_kana": "ナカセワールドビジネスガーデン14カイ",
    "street": null,
    "office_name": null,
    "office_name_kana": null
  },
  "7115": {
    "postcode": "2617115",
    "prefecture": "千葉県",
    "prefecture_kana": "チバケン",
    "prefecture_code": 12,
    "city": "千葉市美浜区",
    "city_kana": "チバシミハマク",
    "town": "中瀬ワールドビジネスガーデン　１５階",
    "town_kana": "ナカセワールドビジネスガーデン15カイ",
    "street": null,
    "office_name": null,
    "office_name_kana": null
  },
  "7116": {
    "postcode": "2617116",
    "prefecture": "千葉県",
    "prefecture_kana": "チバケン",
    "prefecture_code": 12,
    "city": "千葉市美浜区",
    "city_kana": "チバシミハマク",
    "town": "中瀬ワールドビジネスガーデン　１６階",
    "town_kana": "ナカセワールドビジネスガーデン16カイ",
    "street": null,
    "office_name": null,
    "office_name_kana": null
  },
  "7117": {
    "postcode": "2617117",
    "prefecture": "千葉県",
    "prefecture_kana": "チバケン",
    "prefecture_code": 12,
    "city": "千葉市美浜区",
    "city_kana": "チバシミハマク",
    "town": "中瀬ワールドビジネスガーデン　１７階",
    "town_kana": "ナカセワールドビジネスガーデン17カイ",
    "street": null,
    "office_name": null,
    "office_name_kana": null
  },
  "7118": {
    "postcode": "2617118",
    "prefecture": "千葉県",
    "prefecture_kana": "チバケン",
    "prefecture_code": 12,
    "city": "千葉市美浜区",
    "city_kana": "チバシミハマク",
    "town": "中瀬ワールドビジネスガーデン　１８階",
    "town_kana": "ナカセワールドビジネスガーデン18カイ",
    "street": null,
    "office_name": null,
    "office_name_kana": null
  },
  "7119": {
    "postcode": "2617119",
    "prefecture": "千葉県",
    "prefecture_kana": "チバケン",
    "prefecture_code": 12,
    "city": "千葉市美浜区",
    "city_kana": "チバシミハマク",
    "town": "中瀬ワールドビジネスガーデン　１９階",
    "town_kana": "ナカセワールドビジネスガーデン19カイ",
    "street": null,
    "office_name": null,
    "office_name_kana": null
  },
  "7120": {
    "postcode": "2617120",
    "prefecture": "千葉県",
    "prefecture_kana": "チバケン",
    "prefecture_code": 12,
    "city": "千葉市美浜区",
    "city_kana": "チバシミハマク",
    "town": "中瀬ワールドビジネスガーデン　２０階",
    "town_kana": "ナカセワールドビジネスガーデン20カイ",
    "street": null,
    "office_name": null,
    "office_name_kana": null
  },
  "7121": {
    "postcode": "2617121",
    "prefecture": "千葉県",
    "prefecture_kana": "チバケン",
    "prefecture_code": 12,
    "city": "千葉市美浜区",
    "city_kana": "チバシミハマク",
    "town": "中瀬ワールドビジネスガーデン　２１階",
    "town_kana": "ナカセワールドビジネスガーデン21カイ",
    "street": null,
    "office_name": null,
    "office_name_kana": null
  },
  "7122": {
    "postcode": "2617122",
    "prefecture": "千葉県",
    "prefecture_kana": "チバケン",
    "prefecture_code": 12,
    "city": "千葉市美浜区",
    "city_kana": "チバシミハマク",
    "town": "中瀬ワールドビジネスガーデン　２２階",
    "town_kana": "ナカセワールドビジネスガーデン22カイ",
    "street": null,
    "office_name": null,
    "office_name_kana": null
  },
  "7123": {
    "postcode": "2617123",
    "prefecture": "千葉県",
    "prefecture_kana": "チバケン",
    "prefecture_code": 12,
    "city": "千葉市美浜区",
    "city_kana": "チバシミハマク",
    "town": "中瀬ワールドビジネスガーデン　２３階",
    "town_kana": "ナカセワールドビジネスガーデン23カイ",
    "street": null,
    "office_name": null,
    "office_name_kana": null
  },
  "7124": {
    "postcode": "2617124",
    "prefecture": "千葉県",
    "prefecture_kana": "チバケン",
    "prefecture_code": 12,
    "city": "千葉市美浜区",
    "city_kana": "チバシミハマク",
    "town": "中瀬ワールドビジネスガーデン　２４階",
    "town_kana": "ナカセワールドビジネスガーデン24カイ",
    "street": null,
    "office_name": null,
    "office_name_kana": null
  },
  "7125": {
    "postcode": "2617125",
    "prefecture": "千葉県",
    "prefecture_kana": "チバケン",
    "prefecture_code": 12,
    "city": "千葉市美浜区",
    "city_kana": "チバシミハマク",
    "town": "中瀬ワールドビジネスガーデン　２５階",
    "town_kana": "ナカセワールドビジネスガーデン25カイ",
    "street": null,
    "office_name": null,
    "office_name_kana": null
  },
  "7126": {
    "postcode": "2617126",
    "prefecture": "千葉県",
    "prefecture_kana": "チバケン",
    "prefecture_code": 12,
    "city": "千葉市美浜区",
    "city_kana": "チバシミハマク",
    "town": "中瀬ワールドビジネスガーデン　２６階",
    "town_kana": "ナカセワールドビジネスガーデン26カイ",
    "street": null,
    "office_name": null,
    "office_name_kana": null
  },
  "7127": {
    "postcode": "2617127",
    "prefecture": "千葉県",
    "prefecture_kana": "チバケン",
    "prefecture_code": 12,
    "city": "千葉市美浜区",
    "city_kana": "チバシミハマク",
    "town": "中瀬ワールドビジネスガーデン　２７階",
    "town_kana": "ナカセワールドビジネスガーデン27カイ",
    "street": null,
    "office_name": null,
    "office_name_kana": null
  },
  "7128": {
    "postcode": "2617128",
    "prefecture": "千葉県",
    "prefecture_kana": "チバケン",
    "prefecture_code": 12,
    "city": "千葉市美浜区",
    "city_kana": "チバシミハマク",
    "town": "中瀬ワールドビジネスガーデン　２８階",
    "town_kana": "ナカセワールドビジネスガーデン28カイ",
    "street": null,
    "office_name": null,
    "office_name_kana": null
  },
  "7129": {
    "postcode": "2617129",
    "prefecture": "千葉県",
    "prefecture_kana": "チバケン",
    "prefecture_code": 12,
    "city": "千葉市美浜区",
    "city_kana": "チバシミハマク",
    "town": "中瀬ワールドビジネスガーデン　２９階",
    "town_kana": "ナカセワールドビジネスガーデン29カイ",
    "street": null,
    "office_name": null,
    "office_name_kana": null
  },
  "7130": {
    "postcode": "2617130",
    "prefecture": "千葉県",
    "prefecture_kana": "チバケン",
    "prefecture_code": 12,
    "city": "千葉市美浜区",
    "city_kana": "チバシミハマク",
    "town": "中瀬ワールドビジネスガーデン　３０階",
    "town_kana": "ナカセワールドビジネスガーデン30カイ",
    "street": null,
    "office_name": null,
    "office_name_kana": null
  },
  "7131": {
    "postcode": "2617131",
    "prefecture": "千葉県",
    "prefecture_kana": "チバケン",
    "prefecture_code": 12,
    "city": "千葉市美浜区",
    "city_kana": "チバシミハマク",
    "town": "中瀬ワールドビジネスガーデン　３１階",
    "town_kana": "ナカセワールドビジネスガーデン31カイ",
    "street": null,
    "office_name": null,
    "office_name_kana": null
  },
  "7132": {
    "postcode": "2617132",
    "prefecture": "千葉県",
    "prefecture_kana": "チバケン",
    "prefecture_code": 12,
    "city": "千葉市美浜区",
    "city_kana": "チバシミハマク",
    "town": "中瀬ワールドビジネスガーデン　３２階",
    "town_kana": "ナカセワールドビジネスガーデン32カイ",
    "street": null,
    "office_name": null,
    "office_name_kana": null
  },
  "7133": {
    "postcode": "2617133",
    "prefecture": "千葉県",
    "prefecture_kana": "チバケン",
    "prefecture_code": 12,
    "city": "千葉市美浜区",
    "city_kana": "チバシミハマク",
    "town": "中瀬ワールドビジネスガーデン　３３階",
    "town_kana": "ナカセワールドビジネスガーデン33カイ",
    "street": null,
    "office_name": null,
    "office_name_kana": null
  },
  "7134": {
    "postcode": "2617134",
    "prefecture": "千葉県",
    "prefecture_kana": "チバケン",
    "prefecture_code": 12,
    "city": "千葉市美浜区",
    "city_kana": "チバシミハマク",
    "town": "中瀬ワールドビジネスガーデン　３４階",
    "town_kana": "ナカセワールドビジネスガーデン34カイ",
    "street": null,
    "office_name": null,
    "office_name_kana": null
  },
  "7135": {
    "postcode": "2617135",
    "prefecture": "千葉県",
    "prefecture_kana": "チバケン",
    "prefecture_code": 12,
    "city": "千葉市美浜区",
    "city_kana": "チバシミハマク",
    "town": "中瀬ワールドビジネスガーデン　３５階",
    "town_kana": "ナカセワールドビジネスガーデン35カイ",
    "street": null,
    "office_name": null,
    "office_name_kana": null
  },
  "7190": {
    "postcode": "2617190",
    "prefecture": "千葉県",
    "prefecture_kana": "チバケン",
    "prefecture_code": 12,
    "city": "千葉市美浜区",
    "city_kana": "チバシミハマク",
    "town": "中瀬ワールドビジネスガーデン",
    "town_kana": "ナカセワールドビジネスガーデン",
    "street": null,
    "office_name": null,
    "office_name_kana": null
  },
  "8501": {
    "postcode": "2618501",
    "prefecture": "千葉県",
    "prefecture_kana": "チバケン",
    "prefecture_code": 12,
    "city": "千葉市美浜区",
    "city_kana": "チバシミハマク",
    "town": "中瀬",
    "town_kana": "ナカセ",
    "street": "１丁目３",
    "office_name": "幕張テクノガーデン",
    "office_name_kana": "マクハリテクノガ-デン"
  },
  "8502": {
    "postcode": "2618502",
    "prefecture": "千葉県",
    "prefecture_kana": "チバケン",
    "prefecture_code": 12,
    "city": "千葉市美浜区",
    "city_kana": "チバシミハマク",
    "town": "真砂",
    "town_kana": "マサゴ",
    "street": "１丁目２−２",
    "office_name": "東京歯科大学",
    "office_name_kana": "トウキヨウシカダイガク"
  },
  "8503": {
    "postcode": "2618503",
    "prefecture": "千葉県",
    "prefecture_kana": "チバケン",
    "prefecture_code": 12,
    "city": "千葉市美浜区",
    "city_kana": "チバシミハマク",
    "town": "高洲",
    "town_kana": "タカス",
    "street": "３−１３−２",
    "office_name": "イオンリテール　株式会社　稲毛海岸事務所",
    "office_name_kana": "イオンリテ-ル カブシキガイシヤ イナゲカイガンジムシヨ"
  },
  "8504": {
    "postcode": "2618504",
    "prefecture": "千葉県",
    "prefecture_kana": "チバケン",
    "prefecture_code": 12,
    "city": "千葉市美浜区",
    "city_kana": "チバシミハマク",
    "town": "中瀬",
    "town_kana": "ナカセ",
    "street": "１−５−１",
    "office_name": "株式会社　イオンファンタジー",
    "office_name_kana": "カブシキガイシヤ イオンフアンタジ-"
  },
  "8507": {
    "postcode": "2618507",
    "prefecture": "千葉県",
    "prefecture_kana": "チバケン",
    "prefecture_code": 12,
    "city": "千葉市美浜区",
    "city_kana": "チバシミハマク",
    "town": "中瀬",
    "town_kana": "ナカセ",
    "street": "１−８",
    "office_name": "セイコーインスツル　株式会社",
    "office_name_kana": "セイコ-インスツル カブシキガイシヤ"
  },
  "8508": {
    "postcode": "2618508",
    "prefecture": "千葉県",
    "prefecture_kana": "チバケン",
    "prefecture_code": 12,
    "city": "千葉市美浜区",
    "city_kana": "チバシミハマク",
    "town": "真砂",
    "town_kana": "マサゴ",
    "street": "４−１−４",
    "office_name": "千葉県千葉西県税事務所",
    "office_name_kana": "チバケンチバニシケンゼイジムシヨ"
  },
  "8510": {
    "postcode": "2618510",
    "prefecture": "千葉県",
    "prefecture_kana": "チバケン",
    "prefecture_code": 12,
    "city": "千葉市美浜区",
    "city_kana": "チバシミハマク",
    "town": "中瀬",
    "town_kana": "ナカセ",
    "street": "１−３",
    "office_name": "株式会社　ウェザーニューズ",
    "office_name_kana": "カブシキガイシヤ ウエザ-ニユ-ズ"
  },
  "8511": {
    "postcode": "2618511",
    "prefecture": "千葉県",
    "prefecture_kana": "チバケン",
    "prefecture_code": 12,
    "city": "千葉市美浜区",
    "city_kana": "チバシミハマク",
    "town": "中瀬",
    "town_kana": "ナカセ",
    "street": "１−１",
    "office_name": "キンドリルジャパン　株式会社　幕張事業所",
    "office_name_kana": "キンドリルジヤパン カブシキガイシヤ マクハリジギヨウシヨ"
  },
  "8512": {
    "postcode": "2618512",
    "prefecture": "千葉県",
    "prefecture_kana": "チバケン",
    "prefecture_code": 12,
    "city": "千葉市美浜区",
    "city_kana": "チバシミハマク",
    "town": "幸町",
    "town_kana": "サイワイチョウ",
    "street": "１丁目６−５",
    "office_name": "株式会社　京葉銀行　幸町センター",
    "office_name_kana": "カブシキガイシヤ ケイヨウギンコウ サイワイチヨウセンタ-"
  },
  "8513": {
    "postcode": "2618513",
    "prefecture": "千葉県",
    "prefecture_kana": "チバケン",
    "prefecture_code": 12,
    "city": "千葉市美浜区",
    "city_kana": "チバシミハマク",
    "town": "高洲",
    "town_kana": "タカス",
    "street": "３−１３−１",
    "office_name": "イオンリテール　株式会社　ジャスコマリンピア店",
    "office_name_kana": "イオンリテ-ル カブシキガイシヤ ジヤスコマリンピアテン"
  },
  "8515": {
    "postcode": "2618515",
    "prefecture": "千葉県",
    "prefecture_kana": "チバケン",
    "prefecture_code": 12,
    "city": "千葉市美浜区",
    "city_kana": "チバシミハマク",
    "town": "中瀬",
    "town_kana": "ナカセ",
    "street": "１丁目５−１",
    "office_name": "イオン　株式会社",
    "office_name_kana": "イオン カブシキガイシヤ"
  },
  "8520": {
    "postcode": "2618520",
    "prefecture": "千葉県",
    "prefecture_kana": "チバケン",
    "prefecture_code": 12,
    "city": "千葉市美浜区",
    "city_kana": "チバシミハマク",
    "town": "中瀬",
    "town_kana": "ナカセ",
    "street": "１丁目９番２号",
    "office_name": "シャープ　株式会社　幕張事業所",
    "office_name_kana": "シヤ-プ カブシキガイシヤ マクハリジギヨウシヨ"
  },
  "8521": {
    "postcode": "2618521",
    "prefecture": "千葉県",
    "prefecture_kana": "チバケン",
    "prefecture_code": 12,
    "city": "千葉市美浜区",
    "city_kana": "チバシミハマク",
    "town": "幸町",
    "town_kana": "サイワイチョウ",
    "street": "１丁目２１−１９",
    "office_name": "東京電力　株式会社　千葉支社",
    "office_name_kana": "トウキヨウデンリヨク カブシキガイシヤ チバシシヤ"
  },
  "8522": {
    "postcode": "2618522",
    "prefecture": "千葉県",
    "prefecture_kana": "チバケン",
    "prefecture_code": 12,
    "city": "千葉市美浜区",
    "city_kana": "チバシミハマク",
    "town": "中瀬",
    "town_kana": "ナカセ",
    "street": "１−１",
    "office_name": "日本アイ・ビー・エム　株式会社　幕張事業所",
    "office_name_kana": "ニホンアイ・ビ-・エム カブシキガイシヤ マクハリジギヨウシヨ"
  },
  "8528": {
    "postcode": "2618528",
    "prefecture": "千葉県",
    "prefecture_kana": "チバケン",
    "prefecture_code": 12,
    "city": "千葉市美浜区",
    "city_kana": "チバシミハマク",
    "town": "新港",
    "town_kana": "シンミナト",
    "street": "６８−１",
    "office_name": "アマゾン千葉みなとＦＣ",
    "office_name_kana": "アマゾンチバミナトエフシ-"
  },
  "8530": {
    "postcode": "2618530",
    "prefecture": "千葉県",
    "prefecture_kana": "チバケン",
    "prefecture_code": 12,
    "city": "千葉市美浜区",
    "city_kana": "チバシミハマク",
    "town": "新港",
    "town_kana": "シンミナト",
    "street": "２２",
    "office_name": "山崎製パン　株式会社千葉工場",
    "office_name_kana": "ヤマザキセイパン カブシキガイシヤチバコウジヨウ"
  },
  "8533": {
    "postcode": "2618533",
    "prefecture": "千葉県",
    "prefecture_kana": "チバケン",
    "prefecture_code": 12,
    "city": "千葉市美浜区",
    "city_kana": "チバシミハマク",
    "town": "ひび野",
    "town_kana": "ヒビノ",
    "street": "２−１−１",
    "office_name": "株式会社　ＱＶＣジャパン",
    "office_name_kana": "カブシキガイシヤ キユ-ヴイ-シ-ジヤパン"
  },
  "8535": {
    "postcode": "2618535",
    "prefecture": "千葉県",
    "prefecture_kana": "チバケン",
    "prefecture_code": 12,
    "city": "千葉市美浜区",
    "city_kana": "チバシミハマク",
    "town": "豊砂",
    "town_kana": "トヨスナ",
    "street": "１−１",
    "office_name": "イオンモール　幕張新都心",
    "office_name_kana": "イオンモ-ル マクハリシントシン"
  },
  "8539": {
    "postcode": "2618539",
    "prefecture": "千葉県",
    "prefecture_kana": "チバケン",
    "prefecture_code": 12,
    "city": "千葉市美浜区",
    "city_kana": "チバシミハマク",
    "town": "中瀬",
    "town_kana": "ナカセ",
    "street": "一丁目５番地１",
    "office_name": "イオンモール　株式会社",
    "office_name_kana": "イオンモ-ル カブシキガイシヤ"
  },
  "8541": {
    "postcode": "2618541",
    "prefecture": "千葉県",
    "prefecture_kana": "チバケン",
    "prefecture_code": 12,
    "city": "千葉市美浜区",
    "city_kana": "チバシミハマク",
    "town": "中瀬",
    "town_kana": "ナカセ",
    "street": "２−６−１ＷＢＧマリブイースト５Ｆ",
    "office_name": "イオンコンパス　（株）　オペレーションセンター　ハガキ事務局",
    "office_name_kana": "イオンコンパス (カ) オペレ-シヨンセンタ- ハガキジムキヨク"
  },
  "8544": {
    "postcode": "2618544",
    "prefecture": "千葉県",
    "prefecture_kana": "チバケン",
    "prefecture_code": 12,
    "city": "千葉市美浜区",
    "city_kana": "チバシミハマク",
    "town": "中瀬",
    "town_kana": "ナカセ",
    "street": "１−７−２",
    "office_name": "キヤノンマーケティングジャパン　株式会社　幕張事業所",
    "office_name_kana": "キヤノンマ-ケテイングジヤパン カブシキカイシヤ マクハリジギヨウシヨ"
  },
  "8545": {
    "postcode": "2618545",
    "prefecture": "千葉県",
    "prefecture_kana": "チバケン",
    "prefecture_code": 12,
    "city": "千葉市美浜区",
    "city_kana": "チバシミハマク",
    "town": "若葉",
    "town_kana": "ワカバ",
    "street": "３−２−２",
    "office_name": "日本貿易振興機構（ジェトロ）　アジア経済研究所",
    "office_name_kana": "ニホンボウエキシンコウキコウ(ジエトロ) アジアケイザイケンキユウジヨ"
  },
  "8550": {
    "postcode": "2618550",
    "prefecture": "千葉県",
    "prefecture_kana": "チバケン",
    "prefecture_code": 12,
    "city": "千葉市美浜区",
    "city_kana": "チバシミハマク",
    "town": "中瀬",
    "town_kana": "ナカセ",
    "street": "２−１",
    "office_name": "幕張メッセ",
    "office_name_kana": "マクハリメツセ"
  },
  "8552": {
    "postcode": "2618552",
    "prefecture": "千葉県",
    "prefecture_kana": "チバケン",
    "prefecture_code": 12,
    "city": "千葉市美浜区",
    "city_kana": "チバシミハマク",
    "town": "中瀬",
    "town_kana": "ナカセ",
    "street": "１丁目３番地幕張テクノガーデンＤ棟５階",
    "office_name": "千葉県企業局",
    "office_name_kana": "チバケンキギヨウキヨク"
  },
  "8554": {
    "postcode": "2618554",
    "prefecture": "千葉県",
    "prefecture_kana": "チバケン",
    "prefecture_code": 12,
    "city": "千葉市美浜区",
    "city_kana": "チバシミハマク",
    "town": "中瀬",
    "town_kana": "ナカセ",
    "street": "１丁目３幕張テクノガーデンＤ棟２１階",
    "office_name": "株式会社　大地を守る会",
    "office_name_kana": "カブシキガイシヤ ダイチヲマモルカイ"
  },
  "8558": {
    "postcode": "2618558",
    "prefecture": "千葉県",
    "prefecture_kana": "チバケン",
    "prefecture_code": 12,
    "city": "千葉市美浜区",
    "city_kana": "チバシミハマク",
    "town": "若葉",
    "town_kana": "ワカバ",
    "street": "３−１−２",
    "office_name": "独立行政法人　高齢・障害・求職者雇用支援機構",
    "office_name_kana": "ドクリツギヨウセイホウジン コウレイ・シヨウガイ・キユウシヨクシヤコヨウシエンキコウ"
  },
  "8560": {
    "postcode": "2618560",
    "prefecture": "千葉県",
    "prefecture_kana": "チバケン",
    "prefecture_code": 12,
    "city": "千葉市美浜区",
    "city_kana": "チバシミハマク",
    "town": "浜田",
    "town_kana": "ハマダ",
    "street": "２丁目１番",
    "office_name": "千葉県警察　千葉運転免許センター",
    "office_name_kana": "チバケンケイサツ チバウンテンメンキヨセンタ-"
  },
  "8561": {
    "postcode": "2618561",
    "prefecture": "千葉県",
    "prefecture_kana": "チバケン",
    "prefecture_code": 12,
    "city": "千葉市美浜区",
    "city_kana": "チバシミハマク",
    "town": "中瀬",
    "town_kana": "ナカセ",
    "street": "１−３幕張テクノガーデンＢ棟４Ｆ",
    "office_name": "Ｓａｎｓａｎ　株式会社　ＢｉｌｌＯｎｅセンター",
    "office_name_kana": "サンサン カブシキガイシヤ ビルワンセンタ-"
  },
  "8566": {
    "postcode": "2618566",
    "prefecture": "千葉県",
    "prefecture_kana": "チバケン",
    "prefecture_code": 12,
    "city": "千葉市美浜区",
    "city_kana": "チバシミハマク",
    "town": "中瀬",
    "town_kana": "ナカセ",
    "street": "１丁目９−１",
    "office_name": "スターツアメニティー　株式会社",
    "office_name_kana": "スタ-ツアメニテイ- カブシキカイシヤ"
  },
  "8568": {
    "postcode": "2618568",
    "prefecture": "千葉県",
    "prefecture_kana": "チバケン",
    "prefecture_code": 12,
    "city": "千葉市美浜区",
    "city_kana": "チバシミハマク",
    "town": "中瀬",
    "town_kana": "ナカセ",
    "street": "１丁目７−１",
    "office_name": "住友ケミカルエンジニアリング　株式会社",
    "office_name_kana": "スミトモケミカルエンジニアリング カブシキガイシヤ"
  },
  "8575": {
    "postcode": "2618575",
    "prefecture": "千葉県",
    "prefecture_kana": "チバケン",
    "prefecture_code": 12,
    "city": "千葉市美浜区",
    "city_kana": "チバシミハマク",
    "town": "中瀬",
    "town_kana": "ナカセ",
    "street": "２丁目６ワールドビジネスガーデンマリブウエスト１３Ｆ",
    "office_name": "（株）　日産フィナンシャルサービス",
    "office_name_kana": "(カブ) ニツサンフイナンシヤルサ-ビス"
  },
  "8577": {
    "postcode": "2618577",
    "prefecture": "千葉県",
    "prefecture_kana": "チバケン",
    "prefecture_code": 12,
    "city": "千葉市美浜区",
    "city_kana": "チバシミハマク",
    "town": "中瀬",
    "town_kana": "ナカセ",
    "street": "一丁目１０番１",
    "office_name": "株式会社　キッツ",
    "office_name_kana": "カブシキガイシヤ キツツ"
  },
  "8580": {
    "postcode": "2618580",
    "prefecture": "千葉県",
    "prefecture_kana": "チバケン",
    "prefecture_code": 12,
    "city": "千葉市美浜区",
    "city_kana": "チバシミハマク",
    "town": "真砂",
    "town_kana": "マサゴ",
    "street": "５丁目２０番７号",
    "office_name": "株式会社　ソード",
    "office_name_kana": "カブシキガイシヤ ソ-ド"
  },
  "8581": {
    "postcode": "2618581",
    "prefecture": "千葉県",
    "prefecture_kana": "チバケン",
    "prefecture_code": 12,
    "city": "千葉市美浜区",
    "city_kana": "チバシミハマク",
    "town": "真砂",
    "town_kana": "マサゴ",
    "street": "５丁目１５−２",
    "office_name": "千葉市　美浜保健福祉センター",
    "office_name_kana": "チバシ ミハマホケンフクシセンタ-"
  },
  "8582": {
    "postcode": "2618582",
    "prefecture": "千葉県",
    "prefecture_kana": "チバケン",
    "prefecture_code": 12,
    "city": "千葉市美浜区",
    "city_kana": "チバシミハマク",
    "town": "真砂",
    "town_kana": "マサゴ",
    "street": "５丁目１５番１号",
    "office_name": "千葉市　西部市税事務所",
    "office_name_kana": "チバシ セイブシゼイジムシヨ"
  },
  "8585": {
    "postcode": "2618585",
    "prefecture": "千葉県",
    "prefecture_kana": "チバケン",
    "prefecture_code": 12,
    "city": "千葉市美浜区",
    "city_kana": "チバシミハマク",
    "town": "稲毛海岸",
    "town_kana": "イナゲカイガン",
    "street": "４丁目５番１号",
    "office_name": "千葉トヨペット　株式会社",
    "office_name_kana": "チバトヨペツト カブシキガイシヤ"
  },
  "8586": {
    "postcode": "2618586",
    "prefecture": "千葉県",
    "prefecture_kana": "チバケン",
    "prefecture_code": 12,
    "city": "千葉市美浜区",
    "city_kana": "チバシミハマク",
    "town": "若葉",
    "town_kana": "ワカバ",
    "street": "２丁目１１",
    "office_name": "放送大学",
    "office_name_kana": "ホウソウダイガク"
  },
  "8587": {
    "postcode": "2618587",
    "prefecture": "千葉県",
    "prefecture_kana": "チバケン",
    "prefecture_code": 12,
    "city": "千葉市美浜区",
    "city_kana": "チバシミハマク",
    "town": "美浜",
    "town_kana": "ミハマ",
    "street": "１",
    "office_name": "株式会社　千葉ロッテマリーンズ",
    "office_name_kana": "カブシキガイシヤ チバロツテマリ-ンズ"
  },
  "8588": {
    "postcode": "2618588",
    "prefecture": "千葉県",
    "prefecture_kana": "チバケン",
    "prefecture_code": 12,
    "city": "千葉市美浜区",
    "city_kana": "チバシミハマク",
    "town": "中瀬",
    "town_kana": "ナカセ",
    "street": "１−９−３",
    "office_name": "富士通　株式会社",
    "office_name_kana": "フジツウ カブシキガイシヤ"
  },
  "8601": {
    "postcode": "2618601",
    "prefecture": "千葉県",
    "prefecture_kana": "チバケン",
    "prefecture_code": 12,
    "city": "千葉市美浜区",
    "city_kana": "チバシミハマク",
    "town": "中瀬",
    "town_kana": "ナカセ",
    "street": "一丁目１番地幕張テクニカルセンターＤ棟６Ｆ",
    "office_name": "東洋エンジニアリング　株式会社",
    "office_name_kana": "トウヨウエンジニアリング カブシキガイシヤ"
  },
  "8602": {
    "postcode": "2618602",
    "prefecture": "千葉県",
    "prefecture_kana": "チバケン",
    "prefecture_code": 12,
    "city": "千葉市美浜区",
    "city_kana": "チバシミハマク",
    "town": "中瀬",
    "town_kana": "ナカセ",
    "street": "一丁目１番地幕張テクニカルセンターＥ棟５Ｆ",
    "office_name": "テックプロジェクトサービス　株式会社",
    "office_name_kana": "テツクプロジエクトサ-ビス カブシキガイシヤ"
  },
  "8603": {
    "postcode": "2618603",
    "prefecture": "千葉県",
    "prefecture_kana": "チバケン",
    "prefecture_code": 12,
    "city": "千葉市美浜区",
    "city_kana": "チバシミハマク",
    "town": "中瀬",
    "town_kana": "ナカセ",
    "street": "一丁目１番地幕張テクニカルセンターＤ棟５Ｆ",
    "office_name": "テックビジネスサービス　株式会社",
    "office_name_kana": "テツクビジネスサ-ビス カブシキガイシヤ"
  },
  "8609": {
    "postcode": "2618609",
    "prefecture": "千葉県",
    "prefecture_kana": "チバケン",
    "prefecture_code": 12,
    "city": "千葉市美浜区",
    "city_kana": "チバシミハマク",
    "town": "幸町",
    "town_kana": "サイワイチョウ",
    "street": "１丁目１番３号",
    "office_name": "千葉公共職業安定所",
    "office_name_kana": "チバコウキヨウシヨクギヨウアンテイシヨ"
  },
  "8686": {
    "postcode": "2618686",
    "prefecture": "千葉県",
    "prefecture_kana": "チバケン",
    "prefecture_code": 12,
    "city": "千葉市美浜区",
    "city_kana": "チバシミハマク",
    "town": "若葉",
    "town_kana": "ワカバ",
    "street": "２丁目１１（美浜郵便局私書箱第５号）",
    "office_name": "放送大学",
    "office_name_kana": "ホウソウダイガク"
  },
  "8733": {
    "postcode": "2618733",
    "prefecture": "千葉県",
    "prefecture_kana": "チバケン",
    "prefecture_code": 12,
    "city": "千葉市美浜区",
    "city_kana": "チバシミハマク",
    "town": "真砂",
    "town_kana": "マサゴ",
    "street": "５丁目１５番１号",
    "office_name": "美浜区役所",
    "office_name_kana": "ミハマクヤクシヨ"
  }
}