{
  "0000": {
    "postcode": "2630000",
    "prefecture": "千葉県",
    "prefecture_kana": "チバケン",
    "prefecture_code": 12,
    "city": "千葉市稲毛区",
    "city_kana": "チバシイナゲク",
    "town": "",
    "town_kana": "",
    "street": null,
    "office_name": null,
    "office_name_kana": null
  },
  "0001": {
    "postcode": "2630001",
    "prefecture": "千葉県",
    "prefecture_kana": "チバケン",
    "prefecture_code": 12,
    "city": "千葉市稲毛区",
    "city_kana": "チバシイナゲク",
    "town": "長沼原町",
    "town_kana": "ナガヌマハラチョウ",
    "street": null,
    "office_name": null,
    "office_name_kana": null
  },
  "0002": {
    "postcode": "2630002",
    "prefecture": "千葉県",
    "prefecture_kana": "チバケン",
    "prefecture_code": 12,
    "city": "千葉市稲毛区",
    "city_kana": "チバシイナゲク",
    "town": "山王町",
    "town_kana": "サンノウチョウ",
    "street": null,
    "office_name": null,
    "office_name_kana": null
  },
  "0003": {
    "postcode": "2630003",
    "prefecture": "千葉県",
    "prefecture_kana": "チバケン",
    "prefecture_code": 12,
    "city": "千葉市稲毛区",
    "city_kana": "チバシイナゲク",
    "town": "小深町",
    "town_kana": "コブケチョウ",
    "street": null,
    "office_name": null,
    "office_name_kana": null
  },
  "0004": {
    "postcode": "2630004",
    "prefecture": "千葉県",
    "prefecture_kana": "チバケン",
    "prefecture_code": 12,
    "city": "千葉市稲毛区",
    "city_kana": "チバシイナゲク",
    "town": "六方町",
    "town_kana": "ロッポウチョウ",
    "street": null,
    "office_name": null,
    "office_name_kana": null
  },
  "0005": {
    "postcode": "2630005",
    "prefecture": "千葉県",
    "prefecture_kana": "チバケン",
    "prefecture_code": 12,
    "city": "千葉市稲毛区",
    "city_kana": "チバシイナゲク",
    "town": "長沼町",
    "town_kana": "ナガヌマチョウ",
    "street": null,
    "office_name": null,
    "office_name_kana": null
  },
  "0011": {
    "postcode": "2630011",
    "prefecture": "千葉県",
    "prefecture_kana": "チバケン",
    "prefecture_code": 12,
    "city": "千葉市稲毛区",
    "city_kana": "チバシイナゲク",
    "town": "天台町",
    "town_kana": "テンダイチョウ",
    "street": null,
    "office_name": null,
    "office_name_kana": null
  },
  "0012": {
    "postcode": "2630012",
    "prefecture": "千葉県",
    "prefecture_kana": "チバケン",
    "prefecture_code": 12,
    "city": "千葉市稲毛区",
    "city_kana": "チバシイナゲク",
    "town": "萩台町",
    "town_kana": "ハギダイチョウ",
    "street": null,
    "office_name": null,
    "office_name_kana": null
  },
  "0013": {
    "postcode": "2630013",
    "prefecture": "千葉県",
    "prefecture_kana": "チバケン",
    "prefecture_code": 12,
    "city": "千葉市稲毛区",
    "city_kana": "チバシイナゲク",
    "town": "千草台",
    "town_kana": "チグサダイ",
    "street": null,
    "office_name": null,
    "office_name_kana": null
  },
  "0014": {
    "postcode": "2630014",
    "prefecture": "千葉県",
    "prefecture_kana": "チバケン",
    "prefecture_code": 12,
    "city": "千葉市稲毛区",
    "city_kana": "チバシイナゲク",
    "town": "作草部町",
    "town_kana": "サクサベチョウ",
    "street": null,
    "office_name": null,
    "office_name_kana": null
  },
  "0015": {
    "postcode": "2630015",
    "prefecture": "千葉県",
    "prefecture_kana": "チバケン",
    "prefecture_code": 12,
    "city": "千葉市稲毛区",
    "city_kana": "チバシイナゲク",
    "town": "作草部",
    "town_kana": "サクサベ",
    "street": null,
    "office_name": null,
    "office_name_kana": null
  },
  "0016": {
    "postcode": "2630016",
    "prefecture": "千葉県",
    "prefecture_kana": "チバケン",
    "prefecture_code": 12,
    "city": "千葉市稲毛区",
    "city_kana": "チバシイナゲク",
    "town": "天台",
    "town_kana": "テンダイ",
    "street": null,
    "office_name": null,
    "office_name_kana": null
  },
  "0021": {
    "postcode": "2630021",
    "prefecture": "千葉県",
    "prefecture_kana": "チバケン",
    "prefecture_code": 12,
    "city": "千葉市稲毛区",
    "city_kana": "チバシイナゲク",
    "town": "轟町",
    "town_kana": "トドロキチョウ",
    "street": null,
    "office_name": null,
    "office_name_kana": null
  },
  "0022": {
    "postcode": "2630022",
    "prefecture": "千葉県",
    "prefecture_kana": "チバケン",
    "prefecture_code": 12,
    "city": "千葉市稲毛区",
    "city_kana": "チバシイナゲク",
    "town": "弥生町",
    "town_kana": "ヤヨイチョウ",
    "street": null,
    "office_name": null,
    "office_name_kana": null
  },
  "0023": {
    "postcode": "2630023",
    "prefecture": "千葉県",
    "prefecture_kana": "チバケン",
    "prefecture_code": 12,
    "city": "千葉市稲毛区",
    "city_kana": "チバシイナゲク",
    "town": "緑町",
    "town_kana": "ミドリチョウ",
    "street": null,
    "office_name": null,
    "office_name_kana": null
  },
  "0024": {
    "postcode": "2630024",
    "prefecture": "千葉県",
    "prefecture_kana": "チバケン",
    "prefecture_code": 12,
    "city": "千葉市稲毛区",
    "city_kana": "チバシイナゲク",
    "town": "穴川",
    "town_kana": "アナガワ",
    "street": null,
    "office_name": null,
    "office_name_kana": null
  },
  "0025": {
    "postcode": "2630025",
    "prefecture": "千葉県",
    "prefecture_kana": "チバケン",
    "prefecture_code": 12,
    "city": "千葉市稲毛区",
    "city_kana": "チバシイナゲク",
    "town": "穴川町",
    "town_kana": "アナガワチョウ",
    "street": null,
    "office_name": null,
    "office_name_kana": null
  },
  "0031": {
    "postcode": "2630031",
    "prefecture": "千葉県",
    "prefecture_kana": "チバケン",
    "prefecture_code": 12,
    "city": "千葉市稲毛区",
    "city_kana": "チバシイナゲク",
    "town": "稲毛東",
    "town_kana": "イナゲヒガシ",
    "street": null,
    "office_name": null,
    "office_name_kana": null
  },
  "0032": {
    "postcode": "2630032",
    "prefecture": "千葉県",
    "prefecture_kana": "チバケン",
    "prefecture_code": 12,
    "city": "千葉市稲毛区",
    "city_kana": "チバシイナゲク",
    "town": "稲毛台町",
    "town_kana": "イナゲダイチョウ",
    "street": null,
    "office_name": null,
    "office_name_kana": null
  },
  "0033": {
    "postcode": "2630033",
    "prefecture": "千葉県",
    "prefecture_kana": "チバケン",
    "prefecture_code": 12,
    "city": "千葉市稲毛区",
    "city_kana": "チバシイナゲク",
    "town": "稲丘町",
    "town_kana": "イナオカチョウ",
    "street": null,
    "office_name": null,
    "office_name_kana": null
  },
  "0034": {
    "postcode": "2630034",
    "prefecture": "千葉県",
    "prefecture_kana": "チバケン",
    "prefecture_code": 12,
    "city": "千葉市稲毛区",
    "city_kana": "チバシイナゲク",
    "town": "稲毛",
    "town_kana": "イナゲ",
    "street": null,
    "office_name": null,
    "office_name_kana": null
  },
  "0035": {
    "postcode": "2630035",
    "prefecture": "千葉県",
    "prefecture_kana": "チバケン",
    "prefecture_code": 12,
    "city": "千葉市稲毛区",
    "city_kana": "チバシイナゲク",
    "town": "稲毛町",
    "town_kana": "イナゲチョウ",
    "street": null,
    "office_name": null,
    "office_name_kana": null
  },
  "0041": {
    "postcode": "2630041",
    "prefecture": "千葉県",
    "prefecture_kana": "チバケン",
    "prefecture_code": 12,
    "city": "千葉市稲毛区",
    "city_kana": "チバシイナゲク",
    "town": "黒砂台",
    "town_kana": "クロスナダイ",
    "street": null,
    "office_name": null,
    "office_name_kana": null
  },
  "0042": {
    "postcode": "2630042",
    "prefecture": "千葉県",
    "prefecture_kana": "チバケン",
    "prefecture_code": 12,
    "city": "千葉市稲毛区",
    "city_kana": "チバシイナゲク",
    "town": "黒砂",
    "town_kana": "クロスナ",
    "street": null,
    "office_name": null,
    "office_name_kana": null
  },
  "0043": {
    "postcode": "2630043",
    "prefecture": "千葉県",
    "prefecture_kana": "チバケン",
    "prefecture_code": 12,
    "city": "千葉市稲毛区",
    "city_kana": "チバシイナゲク",
    "town": "小仲台",
    "town_kana": "コナカダイ",
    "street": null,
    "office_name": null,
    "office_name_kana": null
  },
  "0044": {
    "postcode": "2630044",
    "prefecture": "千葉県",
    "prefecture_kana": "チバケン",
    "prefecture_code": 12,
    "city": "千葉市稲毛区",
    "city_kana": "チバシイナゲク",
    "town": "小中台町",
    "town_kana": "コナカダイチョウ",
    "street": null,
    "office_name": null,
    "office_name_kana": null
  },
  "0051": {
    "postcode": "2630051",
    "prefecture": "千葉県",
    "prefecture_kana": "チバケン",
    "prefecture_code": 12,
    "city": "千葉市稲毛区",
    "city_kana": "チバシイナゲク",
    "town": "園生町",
    "town_kana": "ソンノウチョウ",
    "street": null,
    "office_name": null,
    "office_name_kana": null
  },
  "0052": {
    "postcode": "2630052",
    "prefecture": "千葉県",
    "prefecture_kana": "チバケン",
    "prefecture_code": 12,
    "city": "千葉市稲毛区",
    "city_kana": "チバシイナゲク",
    "town": "あやめ台",
    "town_kana": "アヤメダイ",
    "street": null,
    "office_name": null,
    "office_name_kana": null
  },
  "0053": {
    "postcode": "2630053",
    "prefecture": "千葉県",
    "prefecture_kana": "チバケン",
    "prefecture_code": 12,
    "city": "千葉市稲毛区",
    "city_kana": "チバシイナゲク",
    "town": "柏台",
    "town_kana": "カシワダイ",
    "street": null,
    "office_name": null,
    "office_name_kana": null
  },
  "0054": {
    "postcode": "2630054",
    "prefecture": "千葉県",
    "prefecture_kana": "チバケン",
    "prefecture_code": 12,
    "city": "千葉市稲毛区",
    "city_kana": "チバシイナゲク",
    "town": "宮野木町",
    "town_kana": "ミヤノギチョウ",
    "street": null,
    "office_name": null,
    "office_name_kana": null
  },
  "8505": {
    "postcode": "2638505",
    "prefecture": "千葉県",
    "prefecture_kana": "チバケン",
    "prefecture_code": 12,
    "city": "千葉市稲毛区",
    "city_kana": "チバシイナゲク",
    "town": "長沼原町",
    "town_kana": "ナガヌマハラチョウ",
    "street": "７３１−１７",
    "office_name": "大和リース　株式会社　千葉支店",
    "office_name_kana": "ダイワリ-ス カブシキガイシヤ チバシテン"
  },
  "8506": {
    "postcode": "2638506",
    "prefecture": "千葉県",
    "prefecture_kana": "チバケン",
    "prefecture_code": 12,
    "city": "千葉市稲毛区",
    "city_kana": "チバシイナゲク",
    "town": "長沼町",
    "town_kana": "ナガヌマチョウ",
    "street": "３３４−２",
    "office_name": "二宮産業　株式会社",
    "office_name_kana": "ニノミヤサンギヨウ カブシキガイシヤ"
  },
  "8512": {
    "postcode": "2638512",
    "prefecture": "千葉県",
    "prefecture_kana": "チバケン",
    "prefecture_code": 12,
    "city": "千葉市稲毛区",
    "city_kana": "チバシイナゲク",
    "town": "山王町",
    "town_kana": "サンノウチョウ",
    "street": "２９５番地３",
    "office_name": "財団法人　日本分析センター",
    "office_name_kana": "ザイダンホウジン ニホンブンセキセンタ-"
  },
  "8522": {
    "postcode": "2638522",
    "prefecture": "千葉県",
    "prefecture_kana": "チバケン",
    "prefecture_code": 12,
    "city": "千葉市稲毛区",
    "city_kana": "チバシイナゲク",
    "town": "弥生町",
    "town_kana": "ヤヨイチョウ",
    "street": "１−３３",
    "office_name": "国立大学法人　千葉大学",
    "office_name_kana": "コクリツダイガクホウジン チバダイガク"
  },
  "8533": {
    "postcode": "2638533",
    "prefecture": "千葉県",
    "prefecture_kana": "チバケン",
    "prefecture_code": 12,
    "city": "千葉市稲毛区",
    "city_kana": "チバシイナゲク",
    "town": "穴川",
    "town_kana": "アナガワ",
    "street": "３−３−１７",
    "office_name": "（株）　スズケン　千葉支店",
    "office_name_kana": "(カブ) スズケン チバシテン"
  },
  "8550": {
    "postcode": "2638550",
    "prefecture": "千葉県",
    "prefecture_kana": "チバケン",
    "prefecture_code": 12,
    "city": "千葉市稲毛区",
    "city_kana": "チバシイナゲク",
    "town": "穴川",
    "town_kana": "アナガワ",
    "street": "４丁目１２番４号",
    "office_name": "千葉市稲毛保健福祉センター",
    "office_name_kana": "チバシイナゲホケンフクシセンタ-"
  },
  "8555": {
    "postcode": "2638555",
    "prefecture": "千葉県",
    "prefecture_kana": "チバケン",
    "prefecture_code": 12,
    "city": "千葉市稲毛区",
    "city_kana": "チバシイナゲク",
    "town": "穴川",
    "town_kana": "アナガワ",
    "street": "４丁目９−１",
    "office_name": "国立研究開発法人　量子科学技術研究開発機構　放射線医学総合研究所",
    "office_name_kana": "コクリツケンキユウカイハツホウジン リヨウシカガクギジユツケンキユウカイハツキコウ ホウシヤセンイガクソウゴウケンキユウシヨ"
  },
  "8560": {
    "postcode": "2638560",
    "prefecture": "千葉県",
    "prefecture_kana": "チバケン",
    "prefecture_code": 12,
    "city": "千葉市稲毛区",
    "city_kana": "チバシイナゲク",
    "town": "穴川",
    "town_kana": "アナガワ",
    "street": "４丁目１２番１号",
    "office_name": "千葉市区政事務センター",
    "office_name_kana": "チバシクセイジムセンタ-"
  },
  "8566": {
    "postcode": "2638566",
    "prefecture": "千葉県",
    "prefecture_kana": "チバケン",
    "prefecture_code": 12,
    "city": "千葉市稲毛区",
    "city_kana": "チバシイナゲク",
    "town": "天台",
    "town_kana": "テンダイ",
    "street": "６丁目４番３号",
    "office_name": "千葉県国民健康保険団体連合会",
    "office_name_kana": "チバケンコクミンケンコウホケンダンタイレンゴウカイ"
  },
  "8577": {
    "postcode": "2638577",
    "prefecture": "千葉県",
    "prefecture_kana": "チバケン",
    "prefecture_code": 12,
    "city": "千葉市稲毛区",
    "city_kana": "チバシイナゲク",
    "town": "小仲台",
    "town_kana": "コナカダイ",
    "street": "５丁目１０番２号",
    "office_name": "千葉県教育庁　千葉地方出張所",
    "office_name_kana": "チバケンキヨウイクチヨウ チバチホウシユツチヨウジヨ"
  },
  "8585": {
    "postcode": "2638585",
    "prefecture": "千葉県",
    "prefecture_kana": "チバケン",
    "prefecture_code": 12,
    "city": "千葉市稲毛区",
    "city_kana": "チバシイナゲク",
    "town": "轟町",
    "town_kana": "トドロキチョウ",
    "street": "４丁目３−３０",
    "office_name": "千葉経済大学附属高等学校",
    "office_name_kana": "チバケイザイダイガクフゾクコウトウガツコウ"
  },
  "8588": {
    "postcode": "2638588",
    "prefecture": "千葉県",
    "prefecture_kana": "チバケン",
    "prefecture_code": 12,
    "city": "千葉市稲毛区",
    "city_kana": "チバシイナゲク",
    "town": "穴川",
    "town_kana": "アナガワ",
    "street": "１丁目５−２１",
    "office_name": "敬愛大学",
    "office_name_kana": "ケイアイダイガク"
  },
  "8733": {
    "postcode": "2638733",
    "prefecture": "千葉県",
    "prefecture_kana": "チバケン",
    "prefecture_code": 12,
    "city": "千葉市稲毛区",
    "city_kana": "チバシイナゲク",
    "town": "穴川",
    "town_kana": "アナガワ",
    "street": "４丁目１２−１",
    "office_name": "稲毛区役所",
    "office_name_kana": "イナゲクヤクシヨ"
  }
}