{
  "0000": {
    "postcode": "2640000",
    "prefecture": "千葉県",
    "prefecture_kana": "チバケン",
    "prefecture_code": 12,
    "city": "千葉市若葉区",
    "city_kana": "チバシワカバク",
    "town": "",
    "town_kana": "",
    "street": null,
    "office_name": null,
    "office_name_kana": null
  },
  "0001": {
    "postcode": "2640001",
    "prefecture": "千葉県",
    "prefecture_kana": "チバケン",
    "prefecture_code": 12,
    "city": "千葉市若葉区",
    "city_kana": "チバシワカバク",
    "town": "金親町",
    "town_kana": "カネオヤチョウ",
    "street": null,
    "office_name": null,
    "office_name_kana": null
  },
  "0002": {
    "postcode": "2640002",
    "prefecture": "千葉県",
    "prefecture_kana": "チバケン",
    "prefecture_code": 12,
    "city": "千葉市若葉区",
    "city_kana": "チバシワカバク",
    "town": "千城台東",
    "town_kana": "チシロダイヒガシ",
    "street": null,
    "office_name": null,
    "office_name_kana": null
  },
  "0003": {
    "postcode": "2640003",
    "prefecture": "千葉県",
    "prefecture_kana": "チバケン",
    "prefecture_code": 12,
    "city": "千葉市若葉区",
    "city_kana": "チバシワカバク",
    "town": "千城台南",
    "town_kana": "チシロダイミナミ",
    "street": null,
    "office_name": null,
    "office_name_kana": null
  },
  "0004": {
    "postcode": "2640004",
    "prefecture": "千葉県",
    "prefecture_kana": "チバケン",
    "prefecture_code": 12,
    "city": "千葉市若葉区",
    "city_kana": "チバシワカバク",
    "town": "千城台西",
    "town_kana": "チシロダイニシ",
    "street": null,
    "office_name": null,
    "office_name_kana": null
  },
  "0005": {
    "postcode": "2640005",
    "prefecture": "千葉県",
    "prefecture_kana": "チバケン",
    "prefecture_code": 12,
    "city": "千葉市若葉区",
    "city_kana": "チバシワカバク",
    "town": "千城台北",
    "town_kana": "チシロダイキタ",
    "street": null,
    "office_name": null,
    "office_name_kana": null
  },
  "0006": {
    "postcode": "2640006",
    "prefecture": "千葉県",
    "prefecture_kana": "チバケン",
    "prefecture_code": 12,
    "city": "千葉市若葉区",
    "city_kana": "チバシワカバク",
    "town": "小倉台",
    "town_kana": "オグラダイ",
    "street": null,
    "office_name": null,
    "office_name_kana": null
  },
  "0007": {
    "postcode": "2640007",
    "prefecture": "千葉県",
    "prefecture_kana": "チバケン",
    "prefecture_code": 12,
    "city": "千葉市若葉区",
    "city_kana": "チバシワカバク",
    "town": "小倉町",
    "town_kana": "オグラチョウ",
    "street": null,
    "office_name": null,
    "office_name_kana": null
  },
  "0011": {
    "postcode": "2640011",
    "prefecture": "千葉県",
    "prefecture_kana": "チバケン",
    "prefecture_code": 12,
    "city": "千葉市若葉区",
    "city_kana": "チバシワカバク",
    "town": "大草町",
    "town_kana": "オオクサチョウ",
    "street": null,
    "office_name": null,
    "office_name_kana": null
  },
  "0012": {
    "postcode": "2640012",
    "prefecture": "千葉県",
    "prefecture_kana": "チバケン",
    "prefecture_code": 12,
    "city": "千葉市若葉区",
    "city_kana": "チバシワカバク",
    "town": "坂月町",
    "town_kana": "サカヅキチョウ",
    "street": null,
    "office_name": null,
    "office_name_kana": null
  },
  "0013": {
    "postcode": "2640013",
    "prefecture": "千葉県",
    "prefecture_kana": "チバケン",
    "prefecture_code": 12,
    "city": "千葉市若葉区",
    "city_kana": "チバシワカバク",
    "town": "太田町",
    "town_kana": "オオタチョウ",
    "street": null,
    "office_name": null,
    "office_name_kana": null
  },
  "0014": {
    "postcode": "2640014",
    "prefecture": "千葉県",
    "prefecture_kana": "チバケン",
    "prefecture_code": 12,
    "city": "千葉市若葉区",
    "city_kana": "チバシワカバク",
    "town": "北大宮台",
    "town_kana": "キタオオミヤダイ",
    "street": null,
    "office_name": null,
    "office_name_kana": null
  },
  "0015": {
    "postcode": "2640015",
    "prefecture": "千葉県",
    "prefecture_kana": "チバケン",
    "prefecture_code": 12,
    "city": "千葉市若葉区",
    "city_kana": "チバシワカバク",
    "town": "大宮台",
    "town_kana": "オオミヤダイ",
    "street": null,
    "office_name": null,
    "office_name_kana": null
  },
  "0016": {
    "postcode": "2640016",
    "prefecture": "千葉県",
    "prefecture_kana": "チバケン",
    "prefecture_code": 12,
    "city": "千葉市若葉区",
    "city_kana": "チバシワカバク",
    "town": "大宮町",
    "town_kana": "オオミヤチョウ",
    "street": null,
    "office_name": null,
    "office_name_kana": null
  },
  "0017": {
    "postcode": "2640017",
    "prefecture": "千葉県",
    "prefecture_kana": "チバケン",
    "prefecture_code": 12,
    "city": "千葉市若葉区",
    "city_kana": "チバシワカバク",
    "town": "加曽利町",
    "town_kana": "カソリチョウ",
    "street": null,
    "office_name": null,
    "office_name_kana": null
  },
  "0020": {
    "postcode": "2640020",
    "prefecture": "千葉県",
    "prefecture_kana": "チバケン",
    "prefecture_code": 12,
    "city": "千葉市若葉区",
    "city_kana": "チバシワカバク",
    "town": "貝塚",
    "town_kana": "カイヅカ",
    "street": null,
    "office_name": null,
    "office_name_kana": null
  },
  "0021": {
    "postcode": "2640021",
    "prefecture": "千葉県",
    "prefecture_kana": "チバケン",
    "prefecture_code": 12,
    "city": "千葉市若葉区",
    "city_kana": "チバシワカバク",
    "town": "若松町",
    "town_kana": "ワカマツチョウ",
    "street": null,
    "office_name": null,
    "office_name_kana": null
  },
  "0023": {
    "postcode": "2640023",
    "prefecture": "千葉県",
    "prefecture_kana": "チバケン",
    "prefecture_code": 12,
    "city": "千葉市若葉区",
    "city_kana": "チバシワカバク",
    "town": "貝塚町",
    "town_kana": "カイヅカチョウ",
    "street": null,
    "office_name": null,
    "office_name_kana": null
  },
  "0024": {
    "postcode": "2640024",
    "prefecture": "千葉県",
    "prefecture_kana": "チバケン",
    "prefecture_code": 12,
    "city": "千葉市若葉区",
    "city_kana": "チバシワカバク",
    "town": "高品町",
    "town_kana": "タカシナチョウ",
    "street": null,
    "office_name": null,
    "office_name_kana": null
  },
  "0025": {
    "postcode": "2640025",
    "prefecture": "千葉県",
    "prefecture_kana": "チバケン",
    "prefecture_code": 12,
    "city": "千葉市若葉区",
    "city_kana": "チバシワカバク",
    "town": "都賀",
    "town_kana": "ツガ",
    "street": null,
    "office_name": null,
    "office_name_kana": null
  },
  "0026": {
    "postcode": "2640026",
    "prefecture": "千葉県",
    "prefecture_kana": "チバケン",
    "prefecture_code": 12,
    "city": "千葉市若葉区",
    "city_kana": "チバシワカバク",
    "town": "西都賀",
    "town_kana": "ニシツガ",
    "street": null,
    "office_name": null,
    "office_name_kana": null
  },
  "0027": {
    "postcode": "2640027",
    "prefecture": "千葉県",
    "prefecture_kana": "チバケン",
    "prefecture_code": 12,
    "city": "千葉市若葉区",
    "city_kana": "チバシワカバク",
    "town": "若松台",
    "town_kana": "ワカマツダイ",
    "street": null,
    "office_name": null,
    "office_name_kana": null
  },
  "0028": {
    "postcode": "2640028",
    "prefecture": "千葉県",
    "prefecture_kana": "チバケン",
    "prefecture_code": 12,
    "city": "千葉市若葉区",
    "city_kana": "チバシワカバク",
    "town": "桜木",
    "town_kana": "サクラギ",
    "street": null,
    "office_name": null,
    "office_name_kana": null
  },
  "0029": {
    "postcode": "2640029",
    "prefecture": "千葉県",
    "prefecture_kana": "チバケン",
    "prefecture_code": 12,
    "city": "千葉市若葉区",
    "city_kana": "チバシワカバク",
    "town": "桜木北",
    "town_kana": "サクラギキタ",
    "street": null,
    "office_name": null,
    "office_name_kana": null
  },
  "0031": {
    "postcode": "2640031",
    "prefecture": "千葉県",
    "prefecture_kana": "チバケン",
    "prefecture_code": 12,
    "city": "千葉市若葉区",
    "city_kana": "チバシワカバク",
    "town": "愛生町",
    "town_kana": "アイオイチョウ",
    "street": null,
    "office_name": null,
    "office_name_kana": null
  },
  "0032": {
    "postcode": "2640032",
    "prefecture": "千葉県",
    "prefecture_kana": "チバケン",
    "prefecture_code": 12,
    "city": "千葉市若葉区",
    "city_kana": "チバシワカバク",
    "town": "みつわ台",
    "town_kana": "ミツワダイ",
    "street": null,
    "office_name": null,
    "office_name_kana": null
  },
  "0033": {
    "postcode": "2640033",
    "prefecture": "千葉県",
    "prefecture_kana": "チバケン",
    "prefecture_code": 12,
    "city": "千葉市若葉区",
    "city_kana": "チバシワカバク",
    "town": "都賀の台",
    "town_kana": "ツガノダイ",
    "street": null,
    "office_name": null,
    "office_name_kana": null
  },
  "0034": {
    "postcode": "2640034",
    "prefecture": "千葉県",
    "prefecture_kana": "チバケン",
    "prefecture_code": 12,
    "city": "千葉市若葉区",
    "city_kana": "チバシワカバク",
    "town": "原町",
    "town_kana": "ハラマチ",
    "street": null,
    "office_name": null,
    "office_name_kana": null
  },
  "0035": {
    "postcode": "2640035",
    "prefecture": "千葉県",
    "prefecture_kana": "チバケン",
    "prefecture_code": 12,
    "city": "千葉市若葉区",
    "city_kana": "チバシワカバク",
    "town": "東寺山町",
    "town_kana": "ヒガシテラヤマチョウ",
    "street": null,
    "office_name": null,
    "office_name_kana": null
  },
  "0036": {
    "postcode": "2640036",
    "prefecture": "千葉県",
    "prefecture_kana": "チバケン",
    "prefecture_code": 12,
    "city": "千葉市若葉区",
    "city_kana": "チバシワカバク",
    "town": "殿台町",
    "town_kana": "トノダイチョウ",
    "street": null,
    "office_name": null,
    "office_name_kana": null
  },
  "0037": {
    "postcode": "2640037",
    "prefecture": "千葉県",
    "prefecture_kana": "チバケン",
    "prefecture_code": 12,
    "city": "千葉市若葉区",
    "city_kana": "チバシワカバク",
    "town": "源町",
    "town_kana": "ミナモトチョウ",
    "street": null,
    "office_name": null,
    "office_name_kana": null
  },
  "8501": {
    "postcode": "2648501",
    "prefecture": "千葉県",
    "prefecture_kana": "チバケン",
    "prefecture_code": 12,
    "city": "千葉市若葉区",
    "city_kana": "チバシワカバク",
    "town": "若松町",
    "town_kana": "ワカマツチョウ",
    "street": "９０２",
    "office_name": "陸上自衛隊　下志津駐屯地",
    "office_name_kana": "リクジヨウジエイタイ シモシヅチユウトンチ"
  },
  "8505": {
    "postcode": "2648505",
    "prefecture": "千葉県",
    "prefecture_kana": "チバケン",
    "prefecture_code": 12,
    "city": "千葉市若葉区",
    "city_kana": "チバシワカバク",
    "town": "大宮町",
    "town_kana": "オオミヤチョウ",
    "street": "２６９９−１",
    "office_name": "千葉県立　千葉大宮高等学校",
    "office_name_kana": "チバケンリツ チバオオミヤコオトウガツコウ"
  },
  "8510": {
    "postcode": "2648510",
    "prefecture": "千葉県",
    "prefecture_kana": "チバケン",
    "prefecture_code": 12,
    "city": "千葉市若葉区",
    "city_kana": "チバシワカバク",
    "town": "若松町",
    "town_kana": "ワカマツチョウ",
    "street": "５３１−１３０",
    "office_name": "医療法人社団　創進会　みっつの輪",
    "office_name_kana": "イリヨウホウジンシヤダン ソウシンカイ ミツツノワ"
  },
  "8530": {
    "postcode": "2648530",
    "prefecture": "千葉県",
    "prefecture_kana": "チバケン",
    "prefecture_code": 12,
    "city": "千葉市若葉区",
    "city_kana": "チバシワカバク",
    "town": "若松町",
    "town_kana": "ワカマツチョウ",
    "street": "５３１−４８６",
    "office_name": "みつわ台総合病院",
    "office_name_kana": "ミツワダイソウゴウビヨウイン"
  },
  "8550": {
    "postcode": "2648550",
    "prefecture": "千葉県",
    "prefecture_kana": "チバケン",
    "prefecture_code": 12,
    "city": "千葉市若葉区",
    "city_kana": "チバシワカバク",
    "town": "貝塚",
    "town_kana": "カイヅカ",
    "street": "２丁目１９−１",
    "office_name": "千葉市若葉保健福祉センター",
    "office_name_kana": "チバシワカバホケンフクシセンタ-"
  },
  "8582": {
    "postcode": "2648582",
    "prefecture": "千葉県",
    "prefecture_kana": "チバケン",
    "prefecture_code": 12,
    "city": "千葉市若葉区",
    "city_kana": "チバシワカバク",
    "town": "桜木北",
    "town_kana": "サクラギキタ",
    "street": "２丁目１番１号",
    "office_name": "千葉市　東部市税事務所",
    "office_name_kana": "チバシ トウブシゼイジムシヨ"
  },
  "8585": {
    "postcode": "2648585",
    "prefecture": "千葉県",
    "prefecture_kana": "チバケン",
    "prefecture_code": 12,
    "city": "千葉市若葉区",
    "city_kana": "チバシワカバク",
    "town": "貝塚町",
    "town_kana": "カイヅカチョウ",
    "street": "１９２",
    "office_name": "千葉刑務所",
    "office_name_kana": "チバケイムシヨ"
  },
  "8604": {
    "postcode": "2648604",
    "prefecture": "千葉県",
    "prefecture_kana": "チバケン",
    "prefecture_code": 12,
    "city": "千葉市中央区",
    "city_kana": "チバシチュウオウク",
    "town": "富士見",
    "town_kana": "フジミ",
    "street": "１丁目１４−１３（若葉郵便局私書箱第６１号）",
    "office_name": "野村証券　千葉支店",
    "office_name_kana": "ノムラシヨウケン チバシテン"
  },
  "8646": {
    "postcode": "2648646",
    "prefecture": "千葉県",
    "prefecture_kana": "チバケン",
    "prefecture_code": 12,
    "city": "千葉市中央区",
    "city_kana": "チバシチュウオウク",
    "town": "中央",
    "town_kana": "チュウオウ",
    "street": "３丁目２番１号（若葉郵便局私書箱第９０号）",
    "office_name": "三菱ＵＦＪ信託銀行　株式会社　千葉支店",
    "office_name_kana": "ミツビシユ-エフジエイシンタクギンコウ カブシキガイシヤ チバシテン"
  },
  "8733": {
    "postcode": "2648733",
    "prefecture": "千葉県",
    "prefecture_kana": "チバケン",
    "prefecture_code": 12,
    "city": "千葉市若葉区",
    "city_kana": "チバシワカバク",
    "town": "桜木北",
    "town_kana": "サクラギキタ",
    "street": "２丁目１−１",
    "office_name": "若葉区役所",
    "office_name_kana": "ワカバクヤクシヨ"
  }
}