{
  "0000": {
    "postcode": "2700000",
    "prefecture": "千葉県",
    "prefecture_kana": "チバケン",
    "prefecture_code": 12,
    "city": "松戸市",
    "city_kana": "マツドシ",
    "town": "",
    "town_kana": "",
    "street": null,
    "office_name": null,
    "office_name_kana": null
  },
  "0001": {
    "postcode": "2700001",
    "prefecture": "千葉県",
    "prefecture_kana": "チバケン",
    "prefecture_code": 12,
    "city": "松戸市",
    "city_kana": "マツドシ",
    "town": "幸田",
    "town_kana": "コウデ",
    "street": null,
    "office_name": null,
    "office_name_kana": null
  },
  "0002": {
    "postcode": "2700002",
    "prefecture": "千葉県",
    "prefecture_kana": "チバケン",
    "prefecture_code": 12,
    "city": "松戸市",
    "city_kana": "マツドシ",
    "town": "平賀",
    "town_kana": "ヒラガ",
    "street": null,
    "office_name": null,
    "office_name_kana": null
  },
  "0003": {
    "postcode": "2700003",
    "prefecture": "千葉県",
    "prefecture_kana": "チバケン",
    "prefecture_code": 12,
    "city": "松戸市",
    "city_kana": "マツドシ",
    "town": "東平賀",
    "town_kana": "ヒガシヒラガ",
    "street": null,
    "office_name": null,
    "office_name_kana": null
  },
  "0004": {
    "postcode": "2700004",
    "prefecture": "千葉県",
    "prefecture_kana": "チバケン",
    "prefecture_code": 12,
    "city": "松戸市",
    "city_kana": "マツドシ",
    "town": "殿平賀",
    "town_kana": "トノヒラガ",
    "street": null,
    "office_name": null,
    "office_name_kana": null
  },
  "0005": {
    "postcode": "2700005",
    "prefecture": "千葉県",
    "prefecture_kana": "チバケン",
    "prefecture_code": 12,
    "city": "松戸市",
    "city_kana": "マツドシ",
    "town": "大谷口",
    "town_kana": "オオヤグチ",
    "street": null,
    "office_name": null,
    "office_name_kana": null
  },
  "0006": {
    "postcode": "2700006",
    "prefecture": "千葉県",
    "prefecture_kana": "チバケン",
    "prefecture_code": 12,
    "city": "松戸市",
    "city_kana": "マツドシ",
    "town": "大金平",
    "town_kana": "オオガネダイラ",
    "street": null,
    "office_name": null,
    "office_name_kana": null
  },
  "0007": {
    "postcode": "2700007",
    "prefecture": "千葉県",
    "prefecture_kana": "チバケン",
    "prefecture_code": 12,
    "city": "松戸市",
    "city_kana": "マツドシ",
    "town": "中金杉",
    "town_kana": "ナカカナスギ",
    "street": null,
    "office_name": null,
    "office_name_kana": null
  },
  "0011": {
    "postcode": "2700011",
    "prefecture": "千葉県",
    "prefecture_kana": "チバケン",
    "prefecture_code": 12,
    "city": "松戸市",
    "city_kana": "マツドシ",
    "town": "根木内",
    "town_kana": "ネギウチ",
    "street": null,
    "office_name": null,
    "office_name_kana": null
  },
  "0012": {
    "postcode": "2700012",
    "prefecture": "千葉県",
    "prefecture_kana": "チバケン",
    "prefecture_code": 12,
    "city": "松戸市",
    "city_kana": "マツドシ",
    "town": "久保平賀",
    "town_kana": "クボヒラガ",
    "street": null,
    "office_name": null,
    "office_name_kana": null
  },
  "0013": {
    "postcode": "2700013",
    "prefecture": "千葉県",
    "prefecture_kana": "チバケン",
    "prefecture_code": 12,
    "city": "松戸市",
    "city_kana": "マツドシ",
    "town": "小金きよしケ丘",
    "town_kana": "コガネキヨシガオカ",
    "street": null,
    "office_name": null,
    "office_name_kana": null
  },
  "0014": {
    "postcode": "2700014",
    "prefecture": "千葉県",
    "prefecture_kana": "チバケン",
    "prefecture_code": 12,
    "city": "松戸市",
    "city_kana": "マツドシ",
    "town": "小金",
    "town_kana": "コガネ",
    "street": null,
    "office_name": null,
    "office_name_kana": null
  },
  "0015": {
    "postcode": "2700015",
    "prefecture": "千葉県",
    "prefecture_kana": "チバケン",
    "prefecture_code": 12,
    "city": "松戸市",
    "city_kana": "マツドシ",
    "town": "小金上総町",
    "town_kana": "コガネカズサチョウ",
    "street": null,
    "office_name": null,
    "office_name_kana": null
  },
  "0016": {
    "postcode": "2700016",
    "prefecture": "千葉県",
    "prefecture_kana": "チバケン",
    "prefecture_code": 12,
    "city": "松戸市",
    "city_kana": "マツドシ",
    "town": "小金清志町",
    "town_kana": "コガネキヨシチョウ",
    "street": null,
    "office_name": null,
    "office_name_kana": null
  },
  "0017": {
    "postcode": "2700017",
    "prefecture": "千葉県",
    "prefecture_kana": "チバケン",
    "prefecture_code": 12,
    "city": "松戸市",
    "city_kana": "マツドシ",
    "town": "幸谷",
    "town_kana": "コウヤ",
    "street": null,
    "office_name": null,
    "office_name_kana": null
  },
  "0018": {
    "postcode": "2700018",
    "prefecture": "千葉県",
    "prefecture_kana": "チバケン",
    "prefecture_code": 12,
    "city": "松戸市",
    "city_kana": "マツドシ",
    "town": "上総内",
    "town_kana": "カズサウチ",
    "street": null,
    "office_name": null,
    "office_name_kana": null
  },
  "0021": {
    "postcode": "2700021",
    "prefecture": "千葉県",
    "prefecture_kana": "チバケン",
    "prefecture_code": 12,
    "city": "松戸市",
    "city_kana": "マツドシ",
    "town": "小金原",
    "town_kana": "コガネハラ",
    "street": null,
    "office_name": null,
    "office_name_kana": null
  },
  "0022": {
    "postcode": "2700022",
    "prefecture": "千葉県",
    "prefecture_kana": "チバケン",
    "prefecture_code": 12,
    "city": "松戸市",
    "city_kana": "マツドシ",
    "town": "栗ケ沢",
    "town_kana": "クリガサワ",
    "street": null,
    "office_name": null,
    "office_name_kana": null
  },
  "0023": {
    "postcode": "2700023",
    "prefecture": "千葉県",
    "prefecture_kana": "チバケン",
    "prefecture_code": 12,
    "city": "松戸市",
    "city_kana": "マツドシ",
    "town": "八ケ崎",
    "town_kana": "ハチガサキ",
    "street": null,
    "office_name": null,
    "office_name_kana": null
  },
  "0024": {
    "postcode": "2700024",
    "prefecture": "千葉県",
    "prefecture_kana": "チバケン",
    "prefecture_code": 12,
    "city": "松戸市",
    "city_kana": "マツドシ",
    "town": "八ケ崎緑町",
    "town_kana": "ハチガサキミドリチョウ",
    "street": null,
    "office_name": null,
    "office_name_kana": null
  },
  "0025": {
    "postcode": "2700025",
    "prefecture": "千葉県",
    "prefecture_kana": "チバケン",
    "prefecture_code": 12,
    "city": "松戸市",
    "city_kana": "マツドシ",
    "town": "中和倉",
    "town_kana": "ナカワクラ",
    "street": null,
    "office_name": null,
    "office_name_kana": null
  },
  "0026": {
    "postcode": "2700026",
    "prefecture": "千葉県",
    "prefecture_kana": "チバケン",
    "prefecture_code": 12,
    "city": "松戸市",
    "city_kana": "マツドシ",
    "town": "三ケ月",
    "town_kana": "ミコゼ",
    "street": null,
    "office_name": null,
    "office_name_kana": null
  },
  "0027": {
    "postcode": "2700027",
    "prefecture": "千葉県",
    "prefecture_kana": "チバケン",
    "prefecture_code": 12,
    "city": "松戸市",
    "city_kana": "マツドシ",
    "town": "二ツ木",
    "town_kana": "フタツギ",
    "street": null,
    "office_name": null,
    "office_name_kana": null
  },
  "0028": {
    "postcode": "2700028",
    "prefecture": "千葉県",
    "prefecture_kana": "チバケン",
    "prefecture_code": 12,
    "city": "松戸市",
    "city_kana": "マツドシ",
    "town": "二ツ木二葉町",
    "town_kana": "フタツギフタバチョウ",
    "street": null,
    "office_name": null,
    "office_name_kana": null
  },
  "0031": {
    "postcode": "2700031",
    "prefecture": "千葉県",
    "prefecture_kana": "チバケン",
    "prefecture_code": 12,
    "city": "松戸市",
    "city_kana": "マツドシ",
    "town": "横須賀",
    "town_kana": "ヨコスカ",
    "street": null,
    "office_name": null,
    "office_name_kana": null
  },
  "0032": {
    "postcode": "2700032",
    "prefecture": "千葉県",
    "prefecture_kana": "チバケン",
    "prefecture_code": 12,
    "city": "松戸市",
    "city_kana": "マツドシ",
    "town": "新松戸北",
    "town_kana": "シンマツドキタ",
    "street": null,
    "office_name": null,
    "office_name_kana": null
  },
  "0033": {
    "postcode": "2700033",
    "prefecture": "千葉県",
    "prefecture_kana": "チバケン",
    "prefecture_code": 12,
    "city": "松戸市",
    "city_kana": "マツドシ",
    "town": "新松戸東",
    "town_kana": "シンマツドヒガシ",
    "street": null,
    "office_name": null,
    "office_name_kana": null
  },
  "0034": {
    "postcode": "2700034",
    "prefecture": "千葉県",
    "prefecture_kana": "チバケン",
    "prefecture_code": 12,
    "city": "松戸市",
    "city_kana": "マツドシ",
    "town": "新松戸",
    "town_kana": "シンマツド",
    "street": null,
    "office_name": null,
    "office_name_kana": null
  },
  "0035": {
    "postcode": "2700035",
    "prefecture": "千葉県",
    "prefecture_kana": "チバケン",
    "prefecture_code": 12,
    "city": "松戸市",
    "city_kana": "マツドシ",
    "town": "新松戸南",
    "town_kana": "シンマツドミナミ",
    "street": null,
    "office_name": null,
    "office_name_kana": null
  },
  "0036": {
    "postcode": "2700036",
    "prefecture": "千葉県",
    "prefecture_kana": "チバケン",
    "prefecture_code": 12,
    "city": "松戸市",
    "city_kana": "マツドシ",
    "town": "大谷口新田",
    "town_kana": "オオヤグチシンデン",
    "street": null,
    "office_name": null,
    "office_name_kana": null
  },
  "0100": {
    "postcode": "2700100",
    "prefecture": "千葉県",
    "prefecture_kana": "チバケン",
    "prefecture_code": 12,
    "city": "流山市",
    "city_kana": "ナガレヤマシ",
    "town": "",
    "town_kana": "",
    "street": null,
    "office_name": null,
    "office_name_kana": null
  },
  "0101": {
    "postcode": "2700101",
    "prefecture": "千葉県",
    "prefecture_kana": "チバケン",
    "prefecture_code": 12,
    "city": "流山市",
    "city_kana": "ナガレヤマシ",
    "town": "東深井",
    "town_kana": "ヒガシフカイ",
    "street": null,
    "office_name": null,
    "office_name_kana": null
  },
  "0102": {
    "postcode": "2700102",
    "prefecture": "千葉県",
    "prefecture_kana": "チバケン",
    "prefecture_code": 12,
    "city": "流山市",
    "city_kana": "ナガレヤマシ",
    "town": "こうのす台",
    "town_kana": "コウノスダイ",
    "street": null,
    "office_name": null,
    "office_name_kana": null
  },
  "0103": {
    "postcode": "2700103",
    "prefecture": "千葉県",
    "prefecture_kana": "チバケン",
    "prefecture_code": 12,
    "city": "流山市",
    "city_kana": "ナガレヤマシ",
    "town": "美原",
    "town_kana": "ミハラ",
    "street": null,
    "office_name": null,
    "office_name_kana": null
  },
  "0105": {
    "postcode": "2700105",
    "prefecture": "千葉県",
    "prefecture_kana": "チバケン",
    "prefecture_code": 12,
    "city": "流山市",
    "city_kana": "ナガレヤマシ",
    "town": "平方",
    "town_kana": "ヒラカタ",
    "street": null,
    "office_name": null,
    "office_name_kana": null
  },
  "0106": {
    "postcode": "2700106",
    "prefecture": "千葉県",
    "prefecture_kana": "チバケン",
    "prefecture_code": 12,
    "city": "流山市",
    "city_kana": "ナガレヤマシ",
    "town": "平方村新田",
    "town_kana": "ヒラカタムラシンデン",
    "street": null,
    "office_name": null,
    "office_name_kana": null
  },
  "0107": {
    "postcode": "2700107",
    "prefecture": "千葉県",
    "prefecture_kana": "チバケン",
    "prefecture_code": 12,
    "city": "流山市",
    "city_kana": "ナガレヤマシ",
    "town": "西深井",
    "town_kana": "ニシフカイ",
    "street": null,
    "office_name": null,
    "office_name_kana": null
  },
  "0108": {
    "postcode": "2700108",
    "prefecture": "千葉県",
    "prefecture_kana": "チバケン",
    "prefecture_code": 12,
    "city": "流山市",
    "city_kana": "ナガレヤマシ",
    "town": "深井新田",
    "town_kana": "フカイシンデン",
    "street": null,
    "office_name": null,
    "office_name_kana": null
  },
  "0111": {
    "postcode": "2700111",
    "prefecture": "千葉県",
    "prefecture_kana": "チバケン",
    "prefecture_code": 12,
    "city": "流山市",
    "city_kana": "ナガレヤマシ",
    "town": "江戸川台東",
    "town_kana": "エドガワダイヒガシ",
    "street": null,
    "office_name": null,
    "office_name_kana": null
  },
  "0112": {
    "postcode": "2700112",
    "prefecture": "千葉県",
    "prefecture_kana": "チバケン",
    "prefecture_code": 12,
    "city": "流山市",
    "city_kana": "ナガレヤマシ",
    "town": "青田",
    "town_kana": "アオタ",
    "street": null,
    "office_name": null,
    "office_name_kana": null
  },
  "0113": {
    "postcode": "2700113",
    "prefecture": "千葉県",
    "prefecture_kana": "チバケン",
    "prefecture_code": 12,
    "city": "流山市",
    "city_kana": "ナガレヤマシ",
    "town": "駒木台",
    "town_kana": "コマギダイ",
    "street": null,
    "office_name": null,
    "office_name_kana": null
  },
  "0114": {
    "postcode": "2700114",
    "prefecture": "千葉県",
    "prefecture_kana": "チバケン",
    "prefecture_code": 12,
    "city": "流山市",
    "city_kana": "ナガレヤマシ",
    "town": "東初石",
    "town_kana": "ヒガシハツイシ",
    "street": null,
    "office_name": null,
    "office_name_kana": null
  },
  "0115": {
    "postcode": "2700115",
    "prefecture": "千葉県",
    "prefecture_kana": "チバケン",
    "prefecture_code": 12,
    "city": "流山市",
    "city_kana": "ナガレヤマシ",
    "town": "江戸川台西",
    "town_kana": "エドガワダイニシ",
    "street": null,
    "office_name": null,
    "office_name_kana": null
  },
  "0116": {
    "postcode": "2700116",
    "prefecture": "千葉県",
    "prefecture_kana": "チバケン",
    "prefecture_code": 12,
    "city": "流山市",
    "city_kana": "ナガレヤマシ",
    "town": "中野久木",
    "town_kana": "ナカノクキ",
    "street": null,
    "office_name": null,
    "office_name_kana": null
  },
  "0117": {
    "postcode": "2700117",
    "prefecture": "千葉県",
    "prefecture_kana": "チバケン",
    "prefecture_code": 12,
    "city": "流山市",
    "city_kana": "ナガレヤマシ",
    "town": "北",
    "town_kana": "キタ",
    "street": null,
    "office_name": null,
    "office_name_kana": null
  },
  "0118": {
    "postcode": "2700118",
    "prefecture": "千葉県",
    "prefecture_kana": "チバケン",
    "prefecture_code": 12,
    "city": "流山市",
    "city_kana": "ナガレヤマシ",
    "town": "小屋",
    "town_kana": "コヤ",
    "street": null,
    "office_name": null,
    "office_name_kana": null
  },
  "0119": {
    "postcode": "2700119",
    "prefecture": "千葉県",
    "prefecture_kana": "チバケン",
    "prefecture_code": 12,
    "city": "流山市",
    "city_kana": "ナガレヤマシ",
    "town": "おおたかの森北",
    "town_kana": "オオタカノモリキタ",
    "street": null,
    "office_name": null,
    "office_name_kana": null
  },
  "0121": {
    "postcode": "2700121",
    "prefecture": "千葉県",
    "prefecture_kana": "チバケン",
    "prefecture_code": 12,
    "city": "流山市",
    "city_kana": "ナガレヤマシ",
    "town": "西初石",
    "town_kana": "ニシハツイシ",
    "street": null,
    "office_name": null,
    "office_name_kana": null
  },
  "0122": {
    "postcode": "2700122",
    "prefecture": "千葉県",
    "prefecture_kana": "チバケン",
    "prefecture_code": 12,
    "city": "流山市",
    "city_kana": "ナガレヤマシ",
    "town": "大畔",
    "town_kana": "オオグロ",
    "street": null,
    "office_name": null,
    "office_name_kana": null
  },
  "0123": {
    "postcode": "2700123",
    "prefecture": "千葉県",
    "prefecture_kana": "チバケン",
    "prefecture_code": 12,
    "city": "流山市",
    "city_kana": "ナガレヤマシ",
    "town": "若葉台",
    "town_kana": "ワカバダイ",
    "street": null,
    "office_name": null,
    "office_name_kana": null
  },
  "0124": {
    "postcode": "2700124",
    "prefecture": "千葉県",
    "prefecture_kana": "チバケン",
    "prefecture_code": 12,
    "city": "流山市",
    "city_kana": "ナガレヤマシ",
    "town": "南",
    "town_kana": "ミナミ",
    "street": null,
    "office_name": null,
    "office_name_kana": null
  },
  "0125": {
    "postcode": "2700125",
    "prefecture": "千葉県",
    "prefecture_kana": "チバケン",
    "prefecture_code": 12,
    "city": "流山市",
    "city_kana": "ナガレヤマシ",
    "town": "上新宿",
    "town_kana": "カミシンシュク",
    "street": null,
    "office_name": null,
    "office_name_kana": null
  },
  "0126": {
    "postcode": "2700126",
    "prefecture": "千葉県",
    "prefecture_kana": "チバケン",
    "prefecture_code": 12,
    "city": "流山市",
    "city_kana": "ナガレヤマシ",
    "town": "上新宿新田",
    "town_kana": "カミシンシュクシンデン",
    "street": null,
    "office_name": null,
    "office_name_kana": null
  },
  "0127": {
    "postcode": "2700127",
    "prefecture": "千葉県",
    "prefecture_kana": "チバケン",
    "prefecture_code": 12,
    "city": "流山市",
    "city_kana": "ナガレヤマシ",
    "town": "富士見台",
    "town_kana": "フジミダイ",
    "street": null,
    "office_name": null,
    "office_name_kana": null
  },
  "0128": {
    "postcode": "2700128",
    "prefecture": "千葉県",
    "prefecture_kana": "チバケン",
    "prefecture_code": 12,
    "city": "流山市",
    "city_kana": "ナガレヤマシ",
    "town": "おおたかの森西",
    "town_kana": "オオタカノモリニシ",
    "street": null,
    "office_name": null,
    "office_name_kana": null
  },
  "0131": {
    "postcode": "2700131",
    "prefecture": "千葉県",
    "prefecture_kana": "チバケン",
    "prefecture_code": 12,
    "city": "流山市",
    "city_kana": "ナガレヤマシ",
    "town": "美田",
    "town_kana": "ミタ",
    "street": null,
    "office_name": null,
    "office_name_kana": null
  },
  "0132": {
    "postcode": "2700132",
    "prefecture": "千葉県",
    "prefecture_kana": "チバケン",
    "prefecture_code": 12,
    "city": "流山市",
    "city_kana": "ナガレヤマシ",
    "town": "駒木",
    "town_kana": "コマギ",
    "street": null,
    "office_name": null,
    "office_name_kana": null
  },
  "0133": {
    "postcode": "2700133",
    "prefecture": "千葉県",
    "prefecture_kana": "チバケン",
    "prefecture_code": 12,
    "city": "流山市",
    "city_kana": "ナガレヤマシ",
    "town": "十太夫",
    "town_kana": "ジュウダユウ",
    "street": null,
    "office_name": null,
    "office_name_kana": null
  },
  "0134": {
    "postcode": "2700134",
    "prefecture": "千葉県",
    "prefecture_kana": "チバケン",
    "prefecture_code": 12,
    "city": "流山市",
    "city_kana": "ナガレヤマシ",
    "town": "長崎",
    "town_kana": "ナガサキ",
    "street": null,
    "office_name": null,
    "office_name_kana": null
  },
  "0135": {
    "postcode": "2700135",
    "prefecture": "千葉県",
    "prefecture_kana": "チバケン",
    "prefecture_code": 12,
    "city": "流山市",
    "city_kana": "ナガレヤマシ",
    "town": "野々下",
    "town_kana": "ノノシタ",
    "street": null,
    "office_name": null,
    "office_name_kana": null
  },
  "0136": {
    "postcode": "2700136",
    "prefecture": "千葉県",
    "prefecture_kana": "チバケン",
    "prefecture_code": 12,
    "city": "流山市",
    "city_kana": "ナガレヤマシ",
    "town": "古間木",
    "town_kana": "フルマギ",
    "street": null,
    "office_name": null,
    "office_name_kana": null
  },
  "0137": {
    "postcode": "2700137",
    "prefecture": "千葉県",
    "prefecture_kana": "チバケン",
    "prefecture_code": 12,
    "city": "流山市",
    "city_kana": "ナガレヤマシ",
    "town": "市野谷",
    "town_kana": "イチノヤ",
    "street": null,
    "office_name": null,
    "office_name_kana": null
  },
  "0138": {
    "postcode": "2700138",
    "prefecture": "千葉県",
    "prefecture_kana": "チバケン",
    "prefecture_code": 12,
    "city": "流山市",
    "city_kana": "ナガレヤマシ",
    "town": "おおたかの森東",
    "town_kana": "オオタカノモリヒガシ",
    "street": null,
    "office_name": null,
    "office_name_kana": null
  },
  "0139": {
    "postcode": "2700139",
    "prefecture": "千葉県",
    "prefecture_kana": "チバケン",
    "prefecture_code": 12,
    "city": "流山市",
    "city_kana": "ナガレヤマシ",
    "town": "おおたかの森南",
    "town_kana": "オオタカノモリミナミ",
    "street": null,
    "office_name": null,
    "office_name_kana": null
  },
  "0141": {
    "postcode": "2700141",
    "prefecture": "千葉県",
    "prefecture_kana": "チバケン",
    "prefecture_code": 12,
    "city": "流山市",
    "city_kana": "ナガレヤマシ",
    "town": "松ケ丘",
    "town_kana": "マツガオカ",
    "street": null,
    "office_name": null,
    "office_name_kana": null
  },
  "0142": {
    "postcode": "2700142",
    "prefecture": "千葉県",
    "prefecture_kana": "チバケン",
    "prefecture_code": 12,
    "city": "流山市",
    "city_kana": "ナガレヤマシ",
    "town": "西松ケ丘",
    "town_kana": "ニシマツガオカ",
    "street": null,
    "office_name": null,
    "office_name_kana": null
  },
  "0143": {
    "postcode": "2700143",
    "prefecture": "千葉県",
    "prefecture_kana": "チバケン",
    "prefecture_code": 12,
    "city": "流山市",
    "city_kana": "ナガレヤマシ",
    "town": "向小金",
    "town_kana": "ムカイコガネ",
    "street": null,
    "office_name": null,
    "office_name_kana": null
  },
  "0144": {
    "postcode": "2700144",
    "prefecture": "千葉県",
    "prefecture_kana": "チバケン",
    "prefecture_code": 12,
    "city": "流山市",
    "city_kana": "ナガレヤマシ",
    "town": "前ケ崎",
    "town_kana": "マエガサキ",
    "street": null,
    "office_name": null,
    "office_name_kana": null
  },
  "0145": {
    "postcode": "2700145",
    "prefecture": "千葉県",
    "prefecture_kana": "チバケン",
    "prefecture_code": 12,
    "city": "流山市",
    "city_kana": "ナガレヤマシ",
    "town": "名都借",
    "town_kana": "ナズカリ",
    "street": null,
    "office_name": null,
    "office_name_kana": null
  },
  "0146": {
    "postcode": "2700146",
    "prefecture": "千葉県",
    "prefecture_kana": "チバケン",
    "prefecture_code": 12,
    "city": "流山市",
    "city_kana": "ナガレヤマシ",
    "town": "芝崎",
    "town_kana": "シバサキ",
    "street": null,
    "office_name": null,
    "office_name_kana": null
  },
  "0151": {
    "postcode": "2700151",
    "prefecture": "千葉県",
    "prefecture_kana": "チバケン",
    "prefecture_code": 12,
    "city": "流山市",
    "city_kana": "ナガレヤマシ",
    "town": "後平井",
    "town_kana": "ウシロヒライ",
    "street": null,
    "office_name": null,
    "office_name_kana": null
  },
  "0152": {
    "postcode": "2700152",
    "prefecture": "千葉県",
    "prefecture_kana": "チバケン",
    "prefecture_code": 12,
    "city": "流山市",
    "city_kana": "ナガレヤマシ",
    "town": "前平井",
    "town_kana": "マエヒライ",
    "street": null,
    "office_name": null,
    "office_name_kana": null
  },
  "0153": {
    "postcode": "2700153",
    "prefecture": "千葉県",
    "prefecture_kana": "チバケン",
    "prefecture_code": 12,
    "city": "流山市",
    "city_kana": "ナガレヤマシ",
    "town": "中",
    "town_kana": "ナカ",
    "street": null,
    "office_name": null,
    "office_name_kana": null
  },
  "0154": {
    "postcode": "2700154",
    "prefecture": "千葉県",
    "prefecture_kana": "チバケン",
    "prefecture_code": 12,
    "city": "流山市",
    "city_kana": "ナガレヤマシ",
    "town": "思井",
    "town_kana": "オモイ",
    "street": null,
    "office_name": null,
    "office_name_kana": null
  },
  "0155": {
    "postcode": "2700155",
    "prefecture": "千葉県",
    "prefecture_kana": "チバケン",
    "prefecture_code": 12,
    "city": "流山市",
    "city_kana": "ナガレヤマシ",
    "town": "宮園",
    "town_kana": "ミヤゾノ",
    "street": null,
    "office_name": null,
    "office_name_kana": null
  },
  "0156": {
    "postcode": "2700156",
    "prefecture": "千葉県",
    "prefecture_kana": "チバケン",
    "prefecture_code": 12,
    "city": "流山市",
    "city_kana": "ナガレヤマシ",
    "town": "西平井",
    "town_kana": "ニシヒライ",
    "street": null,
    "office_name": null,
    "office_name_kana": null
  },
  "0157": {
    "postcode": "2700157",
    "prefecture": "千葉県",
    "prefecture_kana": "チバケン",
    "prefecture_code": 12,
    "city": "流山市",
    "city_kana": "ナガレヤマシ",
    "town": "平和台",
    "town_kana": "ヘイワダイ",
    "street": null,
    "office_name": null,
    "office_name_kana": null
  },
  "0161": {
    "postcode": "2700161",
    "prefecture": "千葉県",
    "prefecture_kana": "チバケン",
    "prefecture_code": 12,
    "city": "流山市",
    "city_kana": "ナガレヤマシ",
    "town": "鰭ケ崎",
    "town_kana": "ヒレガサキ",
    "street": null,
    "office_name": null,
    "office_name_kana": null
  },
  "0162": {
    "postcode": "2700162",
    "prefecture": "千葉県",
    "prefecture_kana": "チバケン",
    "prefecture_code": 12,
    "city": "流山市",
    "city_kana": "ナガレヤマシ",
    "town": "木",
    "town_kana": "キ",
    "street": null,
    "office_name": null,
    "office_name_kana": null
  },
  "0163": {
    "postcode": "2700163",
    "prefecture": "千葉県",
    "prefecture_kana": "チバケン",
    "prefecture_code": 12,
    "city": "流山市",
    "city_kana": "ナガレヤマシ",
    "town": "南流山",
    "town_kana": "ミナミナガレヤマ",
    "street": null,
    "office_name": null,
    "office_name_kana": null
  },
  "0164": {
    "postcode": "2700164",
    "prefecture": "千葉県",
    "prefecture_kana": "チバケン",
    "prefecture_code": 12,
    "city": "流山市",
    "city_kana": "ナガレヤマシ",
    "town": "流山",
    "town_kana": "ナガレヤマ",
    "street": null,
    "office_name": null,
    "office_name_kana": null
  },
  "0171": {
    "postcode": "2700171",
    "prefecture": "千葉県",
    "prefecture_kana": "チバケン",
    "prefecture_code": 12,
    "city": "流山市",
    "city_kana": "ナガレヤマシ",
    "town": "上貝塚",
    "town_kana": "カミカイヅカ",
    "street": null,
    "office_name": null,
    "office_name_kana": null
  },
  "0172": {
    "postcode": "2700172",
    "prefecture": "千葉県",
    "prefecture_kana": "チバケン",
    "prefecture_code": 12,
    "city": "流山市",
    "city_kana": "ナガレヤマシ",
    "town": "桐ケ谷",
    "town_kana": "キリガヤ",
    "street": null,
    "office_name": null,
    "office_name_kana": null
  },
  "0173": {
    "postcode": "2700173",
    "prefecture": "千葉県",
    "prefecture_kana": "チバケン",
    "prefecture_code": 12,
    "city": "流山市",
    "city_kana": "ナガレヤマシ",
    "town": "谷",
    "town_kana": "タニ",
    "street": null,
    "office_name": null,
    "office_name_kana": null
  },
  "0174": {
    "postcode": "2700174",
    "prefecture": "千葉県",
    "prefecture_kana": "チバケン",
    "prefecture_code": 12,
    "city": "流山市",
    "city_kana": "ナガレヤマシ",
    "town": "下花輪",
    "town_kana": "シモハナワ",
    "street": null,
    "office_name": null,
    "office_name_kana": null
  },
  "0175": {
    "postcode": "2700175",
    "prefecture": "千葉県",
    "prefecture_kana": "チバケン",
    "prefecture_code": 12,
    "city": "流山市",
    "city_kana": "ナガレヤマシ",
    "town": "三輪野山",
    "town_kana": "ミワノヤマ",
    "street": null,
    "office_name": null,
    "office_name_kana": null
  },
  "0176": {
    "postcode": "2700176",
    "prefecture": "千葉県",
    "prefecture_kana": "チバケン",
    "prefecture_code": 12,
    "city": "流山市",
    "city_kana": "ナガレヤマシ",
    "town": "加",
    "town_kana": "カ",
    "street": null,
    "office_name": null,
    "office_name_kana": null
  },
  "0189": {
    "postcode": "2700189",
    "prefecture": "千葉県",
    "prefecture_kana": "チバケン",
    "prefecture_code": 12,
    "city": "流山市",
    "city_kana": "ナガレヤマシ",
    "town": "西深井",
    "town_kana": "ニシフカイ",
    "street": "字種井下１３７４−１",
    "office_name": "ＤＰＬ流山Ⅰ",
    "office_name_kana": "デイ-ピ-エルナガレヤマワン"
  },
  "0192": {
    "postcode": "2700192",
    "prefecture": "千葉県",
    "prefecture_kana": "チバケン",
    "prefecture_code": 12,
    "city": "流山市",
    "city_kana": "ナガレヤマシ",
    "town": "平和台",
    "town_kana": "ヘイワダイ",
    "street": "１丁目１−１",
    "office_name": "流山市役所",
    "office_name_kana": "ナガレヤマシヤクシヨ"
  },
  "0194": {
    "postcode": "2700194",
    "prefecture": "千葉県",
    "prefecture_kana": "チバケン",
    "prefecture_code": 12,
    "city": "流山市",
    "city_kana": "ナガレヤマシ",
    "town": "野々下",
    "town_kana": "ノノシタ",
    "street": "１−３５５",
    "office_name": "株式会社　タカラトミーグループ　アフターサービスセンター",
    "office_name_kana": "カブシキガイシヤ タカラトミ-グル-プ アフタ-サ-ビスセンタ-"
  },
  "0195": {
    "postcode": "2700195",
    "prefecture": "千葉県",
    "prefecture_kana": "チバケン",
    "prefecture_code": 12,
    "city": "流山市",
    "city_kana": "ナガレヤマシ",
    "town": "西初石",
    "town_kana": "ニシハツイシ",
    "street": "六丁目１８５番２号",
    "office_name": "流山おおたかの森Ｓ・Ｃ",
    "office_name_kana": "ナガレヤマオオタカノモリシヨツピング・センタ-"
  },
  "0196": {
    "postcode": "2700196",
    "prefecture": "千葉県",
    "prefecture_kana": "チバケン",
    "prefecture_code": 12,
    "city": "流山市",
    "city_kana": "ナガレヤマシ",
    "town": "西深井",
    "town_kana": "ニシフカイ",
    "street": "字早稲田１６０３番地１",
    "office_name": "アマゾン流山ＦＣ",
    "office_name_kana": "アマゾンナガレヤマエフシ-"
  },
  "0197": {
    "postcode": "2700197",
    "prefecture": "千葉県",
    "prefecture_kana": "チバケン",
    "prefecture_code": 12,
    "city": "流山市",
    "city_kana": "ナガレヤマシ",
    "town": "南",
    "town_kana": "ミナミ",
    "street": "２６１番地ＧＬＰＡＬＰＨＡＬＩＮＫ流山３",
    "office_name": "ＪＰ楽天ロジスティクス　株式会社　楽天フルフィルメントセンター流山",
    "office_name_kana": "ジエイピ-ラクテンロジステイクス カブシキガイシヤ ラクテンフルフイルメントセンタ-ナガレヤマ"
  },
  "0198": {
    "postcode": "2700198",
    "prefecture": "千葉県",
    "prefecture_kana": "チバケン",
    "prefecture_code": 12,
    "city": "流山市",
    "city_kana": "ナガレヤマシ",
    "town": "駒木",
    "town_kana": "コマギ",
    "street": "４７４",
    "office_name": "江戸川学園（江戸川大学・江戸川短期大学・江戸川大学総合福祉専門学校）",
    "office_name_kana": "エドガワガクエン(エドガワダイガク・エドガワタンキダイガク・エドガワダイガクソウゴウフクシセンモンガツコウ)"
  },
  "0201": {
    "postcode": "2700201",
    "prefecture": "千葉県",
    "prefecture_kana": "チバケン",
    "prefecture_code": 12,
    "city": "野田市",
    "city_kana": "ノダシ",
    "town": "関宿三軒家",
    "town_kana": "セキヤドサンゲンヤ",
    "street": null,
    "office_name": null,
    "office_name_kana": null
  },
  "0202": {
    "postcode": "2700202",
    "prefecture": "千葉県",
    "prefecture_kana": "チバケン",
    "prefecture_code": 12,
    "city": "野田市",
    "city_kana": "ノダシ",
    "town": "関宿台町",
    "town_kana": "セキヤドダイマチ",
    "street": null,
    "office_name": null,
    "office_name_kana": null
  },
  "0203": {
    "postcode": "2700203",
    "prefecture": "千葉県",
    "prefecture_kana": "チバケン",
    "prefecture_code": 12,
    "city": "野田市",
    "city_kana": "ノダシ",
    "town": "関宿元町",
    "town_kana": "セキヤドモトマチ",
    "street": null,
    "office_name": null,
    "office_name_kana": null
  },
  "0204": {
    "postcode": "2700204",
    "prefecture": "千葉県",
    "prefecture_kana": "チバケン",
    "prefecture_code": 12,
    "city": "野田市",
    "city_kana": "ノダシ",
    "town": "関宿内町",
    "town_kana": "セキヤドウチマチ",
    "street": null,
    "office_name": null,
    "office_name_kana": null
  },
  "0205": {
    "postcode": "2700205",
    "prefecture": "千葉県",
    "prefecture_kana": "チバケン",
    "prefecture_code": 12,
    "city": "野田市",
    "city_kana": "ノダシ",
    "town": "関宿江戸町",
    "town_kana": "セキヤドエドマチ",
    "street": null,
    "office_name": null,
    "office_name_kana": null
  },
  "0206": {
    "postcode": "2700206",
    "prefecture": "千葉県",
    "prefecture_kana": "チバケン",
    "prefecture_code": 12,
    "city": "野田市",
    "city_kana": "ノダシ",
    "town": "関宿町",
    "town_kana": "セキヤドマチ",
    "street": null,
    "office_name": null,
    "office_name_kana": null
  },
  "0211": {
    "postcode": "2700211",
    "prefecture": "千葉県",
    "prefecture_kana": "チバケン",
    "prefecture_code": 12,
    "city": "野田市",
    "city_kana": "ノダシ",
    "town": "東高野",
    "town_kana": "ヒガシゴウヤ",
    "street": null,
    "office_name": null,
    "office_name_kana": null
  },
  "0212": {
    "postcode": "2700212",
    "prefecture": "千葉県",
    "prefecture_kana": "チバケン",
    "prefecture_code": 12,
    "city": "野田市",
    "city_kana": "ノダシ",
    "town": "新田戸",
    "town_kana": "ニッタド",
    "street": null,
    "office_name": null,
    "office_name_kana": null
  },
  "0213": {
    "postcode": "2700213",
    "prefecture": "千葉県",
    "prefecture_kana": "チバケン",
    "prefecture_code": 12,
    "city": "野田市",
    "city_kana": "ノダシ",
    "town": "桐ケ作",
    "town_kana": "キリガサク",
    "street": null,
    "office_name": null,
    "office_name_kana": null
  },
  "0214": {
    "postcode": "2700214",
    "prefecture": "千葉県",
    "prefecture_kana": "チバケン",
    "prefecture_code": 12,
    "city": "野田市",
    "city_kana": "ノダシ",
    "town": "柏寺",
    "town_kana": "カシワデラ",
    "street": null,
    "office_name": null,
    "office_name_kana": null
  },
  "0215": {
    "postcode": "2700215",
    "prefecture": "千葉県",
    "prefecture_kana": "チバケン",
    "prefecture_code": 12,
    "city": "野田市",
    "city_kana": "ノダシ",
    "town": "中戸",
    "town_kana": "ナカト",
    "street": null,
    "office_name": null,
    "office_name_kana": null
  },
  "0216": {
    "postcode": "2700216",
    "prefecture": "千葉県",
    "prefecture_kana": "チバケン",
    "prefecture_code": 12,
    "city": "野田市",
    "city_kana": "ノダシ",
    "town": "西高野",
    "town_kana": "ニシゴウヤ",
    "street": null,
    "office_name": null,
    "office_name_kana": null
  },
  "0217": {
    "postcode": "2700217",
    "prefecture": "千葉県",
    "prefecture_kana": "チバケン",
    "prefecture_code": 12,
    "city": "野田市",
    "city_kana": "ノダシ",
    "town": "はやま",
    "town_kana": "ハヤマ",
    "street": null,
    "office_name": null,
    "office_name_kana": null
  },
  "0221": {
    "postcode": "2700221",
    "prefecture": "千葉県",
    "prefecture_kana": "チバケン",
    "prefecture_code": 12,
    "city": "野田市",
    "city_kana": "ノダシ",
    "town": "古布内",
    "town_kana": "コブウチ",
    "street": null,
    "office_name": null,
    "office_name_kana": null
  },
  "0222": {
    "postcode": "2700222",
    "prefecture": "千葉県",
    "prefecture_kana": "チバケン",
    "prefecture_code": 12,
    "city": "野田市",
    "city_kana": "ノダシ",
    "town": "木間ケ瀬",
    "town_kana": "キマガセ",
    "street": null,
    "office_name": null,
    "office_name_kana": null
  },
  "0223": {
    "postcode": "2700223",
    "prefecture": "千葉県",
    "prefecture_kana": "チバケン",
    "prefecture_code": 12,
    "city": "野田市",
    "city_kana": "ノダシ",
    "town": "岡田",
    "town_kana": "オカダ",
    "street": null,
    "office_name": null,
    "office_name_kana": null
  },
  "0224": {
    "postcode": "2700224",
    "prefecture": "千葉県",
    "prefecture_kana": "チバケン",
    "prefecture_code": 12,
    "city": "野田市",
    "city_kana": "ノダシ",
    "town": "丸井",
    "town_kana": "マルイ",
    "street": null,
    "office_name": null,
    "office_name_kana": null
  },
  "0225": {
    "postcode": "2700225",
    "prefecture": "千葉県",
    "prefecture_kana": "チバケン",
    "prefecture_code": 12,
    "city": "野田市",
    "city_kana": "ノダシ",
    "town": "平井",
    "town_kana": "ヒライ",
    "street": null,
    "office_name": null,
    "office_name_kana": null
  },
  "0226": {
    "postcode": "2700226",
    "prefecture": "千葉県",
    "prefecture_kana": "チバケン",
    "prefecture_code": 12,
    "city": "野田市",
    "city_kana": "ノダシ",
    "town": "東宝珠花",
    "town_kana": "ヒガシホウシュバナ",
    "street": null,
    "office_name": null,
    "office_name_kana": null
  },
  "0227": {
    "postcode": "2700227",
    "prefecture": "千葉県",
    "prefecture_kana": "チバケン",
    "prefecture_code": 12,
    "city": "野田市",
    "city_kana": "ノダシ",
    "town": "親野井",
    "town_kana": "オヤノイ",
    "street": null,
    "office_name": null,
    "office_name_kana": null
  },
  "0228": {
    "postcode": "2700228",
    "prefecture": "千葉県",
    "prefecture_kana": "チバケン",
    "prefecture_code": 12,
    "city": "野田市",
    "city_kana": "ノダシ",
    "town": "次木",
    "town_kana": "ナミキ",
    "street": null,
    "office_name": null,
    "office_name_kana": null
  },
  "0229": {
    "postcode": "2700229",
    "prefecture": "千葉県",
    "prefecture_kana": "チバケン",
    "prefecture_code": 12,
    "city": "野田市",
    "city_kana": "ノダシ",
    "town": "なみき",
    "town_kana": "ナミキ",
    "street": null,
    "office_name": null,
    "office_name_kana": null
  },
  "0231": {
    "postcode": "2700231",
    "prefecture": "千葉県",
    "prefecture_kana": "チバケン",
    "prefecture_code": 12,
    "city": "野田市",
    "city_kana": "ノダシ",
    "town": "小山",
    "town_kana": "オヤマ",
    "street": null,
    "office_name": null,
    "office_name_kana": null
  },
  "0232": {
    "postcode": "2700232",
    "prefecture": "千葉県",
    "prefecture_kana": "チバケン",
    "prefecture_code": 12,
    "city": "野田市",
    "city_kana": "ノダシ",
    "town": "莚打",
    "town_kana": "ムシロウチ",
    "street": null,
    "office_name": null,
    "office_name_kana": null
  },
  "0233": {
    "postcode": "2700233",
    "prefecture": "千葉県",
    "prefecture_kana": "チバケン",
    "prefecture_code": 12,
    "city": "野田市",
    "city_kana": "ノダシ",
    "town": "船形",
    "town_kana": "フナカタ",
    "street": null,
    "office_name": null,
    "office_name_kana": null
  },
  "0234": {
    "postcode": "2700234",
    "prefecture": "千葉県",
    "prefecture_kana": "チバケン",
    "prefecture_code": 12,
    "city": "野田市",
    "city_kana": "ノダシ",
    "town": "日の出町",
    "town_kana": "ヒノデチョウ",
    "street": null,
    "office_name": null,
    "office_name_kana": null
  },
  "0235": {
    "postcode": "2700235",
    "prefecture": "千葉県",
    "prefecture_kana": "チバケン",
    "prefecture_code": 12,
    "city": "野田市",
    "city_kana": "ノダシ",
    "town": "尾崎",
    "town_kana": "オサキ",
    "street": null,
    "office_name": null,
    "office_name_kana": null
  },
  "0236": {
    "postcode": "2700236",
    "prefecture": "千葉県",
    "prefecture_kana": "チバケン",
    "prefecture_code": 12,
    "city": "野田市",
    "city_kana": "ノダシ",
    "town": "東金野井",
    "town_kana": "ヒガシカナノイ",
    "street": null,
    "office_name": null,
    "office_name_kana": null
  },
  "0237": {
    "postcode": "2700237",
    "prefecture": "千葉県",
    "prefecture_kana": "チバケン",
    "prefecture_code": 12,
    "city": "野田市",
    "city_kana": "ノダシ",
    "town": "中里",
    "town_kana": "ナカザト",
    "street": null,
    "office_name": null,
    "office_name_kana": null
  },
  "0238": {
    "postcode": "2700238",
    "prefecture": "千葉県",
    "prefecture_kana": "チバケン",
    "prefecture_code": 12,
    "city": "野田市",
    "city_kana": "ノダシ",
    "town": "尾崎台",
    "town_kana": "オサキダイ",
    "street": null,
    "office_name": null,
    "office_name_kana": null
  },
  "0239": {
    "postcode": "2700239",
    "prefecture": "千葉県",
    "prefecture_kana": "チバケン",
    "prefecture_code": 12,
    "city": "野田市",
    "city_kana": "ノダシ",
    "town": "泉",
    "town_kana": "イズミ",
    "street": null,
    "office_name": null,
    "office_name_kana": null
  },
  "1100": {
    "postcode": "2701100",
    "prefecture": "千葉県",
    "prefecture_kana": "チバケン",
    "prefecture_code": 12,
    "city": "我孫子市",
    "city_kana": "アビコシ",
    "town": "",
    "town_kana": "",
    "street": null,
    "office_name": null,
    "office_name_kana": null
  },
  "1101": {
    "postcode": "2701101",
    "prefecture": "千葉県",
    "prefecture_kana": "チバケン",
    "prefecture_code": 12,
    "city": "我孫子市",
    "city_kana": "アビコシ",
    "town": "布佐",
    "town_kana": "フサ",
    "street": null,
    "office_name": null,
    "office_name_kana": null
  },
  "1102": {
    "postcode": "2701102",
    "prefecture": "千葉県",
    "prefecture_kana": "チバケン",
    "prefecture_code": 12,
    "city": "我孫子市",
    "city_kana": "アビコシ",
    "town": "都",
    "town_kana": "ミヤコ",
    "street": null,
    "office_name": null,
    "office_name_kana": null
  },
  "1103": {
    "postcode": "2701103",
    "prefecture": "千葉県",
    "prefecture_kana": "チバケン",
    "prefecture_code": 12,
    "city": "我孫子市",
    "city_kana": "アビコシ",
    "town": "布佐酉町",
    "town_kana": "フサトリマチ",
    "street": null,
    "office_name": null,
    "office_name_kana": null
  },
  "1104": {
    "postcode": "2701104",
    "prefecture": "千葉県",
    "prefecture_kana": "チバケン",
    "prefecture_code": 12,
    "city": "我孫子市",
    "city_kana": "アビコシ",
    "town": "新々田",
    "town_kana": "シンシンデン",
    "street": null,
    "office_name": null,
    "office_name_kana": null
  },
  "1105": {
    "postcode": "2701105",
    "prefecture": "千葉県",
    "prefecture_kana": "チバケン",
    "prefecture_code": 12,
    "city": "我孫子市",
    "city_kana": "アビコシ",
    "town": "三河屋新田",
    "town_kana": "ミカワヤシンデン",
    "street": null,
    "office_name": null,
    "office_name_kana": null
  },
  "1106": {
    "postcode": "2701106",
    "prefecture": "千葉県",
    "prefecture_kana": "チバケン",
    "prefecture_code": 12,
    "city": "我孫子市",
    "city_kana": "アビコシ",
    "town": "相島新田",
    "town_kana": "アイジマシンデン",
    "street": null,
    "office_name": null,
    "office_name_kana": null
  },
  "1107": {
    "postcode": "2701107",
    "prefecture": "千葉県",
    "prefecture_kana": "チバケン",
    "prefecture_code": 12,
    "city": "我孫子市",
    "city_kana": "アビコシ",
    "town": "布佐下新田",
    "town_kana": "フサシタシンデン",
    "street": null,
    "office_name": null,
    "office_name_kana": null
  },
  "1108": {
    "postcode": "2701108",
    "prefecture": "千葉県",
    "prefecture_kana": "チバケン",
    "prefecture_code": 12,
    "city": "我孫子市",
    "city_kana": "アビコシ",
    "town": "布佐平和台",
    "town_kana": "フサヘイワダイ",
    "street": null,
    "office_name": null,
    "office_name_kana": null
  },
  "1111": {
    "postcode": "2701111",
    "prefecture": "千葉県",
    "prefecture_kana": "チバケン",
    "prefecture_code": 12,
    "city": "我孫子市",
    "city_kana": "アビコシ",
    "town": "古戸",
    "town_kana": "フルド",
    "street": null,
    "office_name": null,
    "office_name_kana": null
  },
  "1112": {
    "postcode": "2701112",
    "prefecture": "千葉県",
    "prefecture_kana": "チバケン",
    "prefecture_code": 12,
    "city": "我孫子市",
    "city_kana": "アビコシ",
    "town": "新木",
    "town_kana": "アラキ",
    "street": null,
    "office_name": null,
    "office_name_kana": null
  },
  "1113": {
    "postcode": "2701113",
    "prefecture": "千葉県",
    "prefecture_kana": "チバケン",
    "prefecture_code": 12,
    "city": "我孫子市",
    "city_kana": "アビコシ",
    "town": "江蔵地",
    "town_kana": "エゾウチ",
    "street": null,
    "office_name": null,
    "office_name_kana": null
  },
  "1114": {
    "postcode": "2701114",
    "prefecture": "千葉県",
    "prefecture_kana": "チバケン",
    "prefecture_code": 12,
    "city": "我孫子市",
    "city_kana": "アビコシ",
    "town": "新木野",
    "town_kana": "アラキノ",
    "street": null,
    "office_name": null,
    "office_name_kana": null
  },
  "1115": {
    "postcode": "2701115",
    "prefecture": "千葉県",
    "prefecture_kana": "チバケン",
    "prefecture_code": 12,
    "city": "我孫子市",
    "city_kana": "アビコシ",
    "town": "大作新田",
    "town_kana": "オオサクシンデン",
    "street": null,
    "office_name": null,
    "office_name_kana": null
  },
  "1116": {
    "postcode": "2701116",
    "prefecture": "千葉県",
    "prefecture_kana": "チバケン",
    "prefecture_code": 12,
    "city": "我孫子市",
    "city_kana": "アビコシ",
    "town": "浅間前新田",
    "town_kana": "センゲンマエシンデン",
    "street": null,
    "office_name": null,
    "office_name_kana": null
  },
  "1117": {
    "postcode": "2701117",
    "prefecture": "千葉県",
    "prefecture_kana": "チバケン",
    "prefecture_code": 12,
    "city": "我孫子市",
    "city_kana": "アビコシ",
    "town": "下沼田",
    "town_kana": "シモヌマタ",
    "street": null,
    "office_name": null,
    "office_name_kana": null
  },
  "1118": {
    "postcode": "2701118",
    "prefecture": "千葉県",
    "prefecture_kana": "チバケン",
    "prefecture_code": 12,
    "city": "我孫子市",
    "city_kana": "アビコシ",
    "town": "新木村下",
    "town_kana": "アラキムラシタ",
    "street": null,
    "office_name": null,
    "office_name_kana": null
  },
  "1119": {
    "postcode": "2701119",
    "prefecture": "千葉県",
    "prefecture_kana": "チバケン",
    "prefecture_code": 12,
    "city": "我孫子市",
    "city_kana": "アビコシ",
    "town": "南新木",
    "town_kana": "ミナミアラキ",
    "street": null,
    "office_name": null,
    "office_name_kana": null
  },
  "1121": {
    "postcode": "2701121",
    "prefecture": "千葉県",
    "prefecture_kana": "チバケン",
    "prefecture_code": 12,
    "city": "我孫子市",
    "city_kana": "アビコシ",
    "town": "中峠",
    "town_kana": "ナカビョウ",
    "street": null,
    "office_name": null,
    "office_name_kana": null
  },
  "1122": {
    "postcode": "2701122",
    "prefecture": "千葉県",
    "prefecture_kana": "チバケン",
    "prefecture_code": 12,
    "city": "我孫子市",
    "city_kana": "アビコシ",
    "town": "中里",
    "town_kana": "ナカザト",
    "street": null,
    "office_name": null,
    "office_name_kana": null
  },
  "1123": {
    "postcode": "2701123",
    "prefecture": "千葉県",
    "prefecture_kana": "チバケン",
    "prefecture_code": 12,
    "city": "我孫子市",
    "city_kana": "アビコシ",
    "town": "日秀",
    "town_kana": "ヒビリ",
    "street": null,
    "office_name": null,
    "office_name_kana": null
  },
  "1124": {
    "postcode": "2701124",
    "prefecture": "千葉県",
    "prefecture_kana": "チバケン",
    "prefecture_code": 12,
    "city": "我孫子市",
    "city_kana": "アビコシ",
    "town": "日秀新田",
    "town_kana": "ヒビリシンデン",
    "street": null,
    "office_name": null,
    "office_name_kana": null
  },
  "1125": {
    "postcode": "2701125",
    "prefecture": "千葉県",
    "prefecture_kana": "チバケン",
    "prefecture_code": 12,
    "city": "我孫子市",
    "city_kana": "アビコシ",
    "town": "中沼田",
    "town_kana": "ナカヌマタ",
    "street": null,
    "office_name": null,
    "office_name_kana": null
  },
  "1126": {
    "postcode": "2701126",
    "prefecture": "千葉県",
    "prefecture_kana": "チバケン",
    "prefecture_code": 12,
    "city": "我孫子市",
    "city_kana": "アビコシ",
    "town": "中里新田",
    "town_kana": "ナカザトシンデン",
    "street": null,
    "office_name": null,
    "office_name_kana": null
  },
  "1127": {
    "postcode": "2701127",
    "prefecture": "千葉県",
    "prefecture_kana": "チバケン",
    "prefecture_code": 12,
    "city": "我孫子市",
    "city_kana": "アビコシ",
    "town": "中峠村下",
    "town_kana": "ナカビョウムラシタ",
    "street": null,
    "office_name": null,
    "office_name_kana": null
  },
  "1128": {
    "postcode": "2701128",
    "prefecture": "千葉県",
    "prefecture_kana": "チバケン",
    "prefecture_code": 12,
    "city": "我孫子市",
    "city_kana": "アビコシ",
    "town": "中峠台",
    "town_kana": "ナカビョウダイ",
    "street": null,
    "office_name": null,
    "office_name_kana": null
  },
  "1131": {
    "postcode": "2701131",
    "prefecture": "千葉県",
    "prefecture_kana": "チバケン",
    "prefecture_code": 12,
    "city": "我孫子市",
    "city_kana": "アビコシ",
    "town": "都部",
    "town_kana": "イチブ",
    "street": null,
    "office_name": null,
    "office_name_kana": null
  },
  "1132": {
    "postcode": "2701132",
    "prefecture": "千葉県",
    "prefecture_kana": "チバケン",
    "prefecture_code": 12,
    "city": "我孫子市",
    "city_kana": "アビコシ",
    "town": "湖北台",
    "town_kana": "コホクダイ",
    "street": null,
    "office_name": null,
    "office_name_kana": null
  },
  "1133": {
    "postcode": "2701133",
    "prefecture": "千葉県",
    "prefecture_kana": "チバケン",
    "prefecture_code": 12,
    "city": "我孫子市",
    "city_kana": "アビコシ",
    "town": "上沼田",
    "town_kana": "カミヌマタ",
    "street": null,
    "office_name": null,
    "office_name_kana": null
  },
  "1134": {
    "postcode": "2701134",
    "prefecture": "千葉県",
    "prefecture_kana": "チバケン",
    "prefecture_code": 12,
    "city": "我孫子市",
    "city_kana": "アビコシ",
    "town": "都部村新田",
    "town_kana": "イチブムラシンデン",
    "street": null,
    "office_name": null,
    "office_name_kana": null
  },
  "1135": {
    "postcode": "2701135",
    "prefecture": "千葉県",
    "prefecture_kana": "チバケン",
    "prefecture_code": 12,
    "city": "我孫子市",
    "city_kana": "アビコシ",
    "town": "都部新田",
    "town_kana": "イチブシンデン",
    "street": null,
    "office_name": null,
    "office_name_kana": null
  },
  "1136": {
    "postcode": "2701136",
    "prefecture": "千葉県",
    "prefecture_kana": "チバケン",
    "prefecture_code": 12,
    "city": "我孫子市",
    "city_kana": "アビコシ",
    "town": "岡発戸新田",
    "town_kana": "オカホットシンデン",
    "street": null,
    "office_name": null,
    "office_name_kana": null
  },
  "1137": {
    "postcode": "2701137",
    "prefecture": "千葉県",
    "prefecture_kana": "チバケン",
    "prefecture_code": 12,
    "city": "我孫子市",
    "city_kana": "アビコシ",
    "town": "岡発戸",
    "town_kana": "オカホット",
    "street": null,
    "office_name": null,
    "office_name_kana": null
  },
  "1138": {
    "postcode": "2701138",
    "prefecture": "千葉県",
    "prefecture_kana": "チバケン",
    "prefecture_code": 12,
    "city": "我孫子市",
    "city_kana": "アビコシ",
    "town": "下ケ戸",
    "town_kana": "サゲト",
    "street": null,
    "office_name": null,
    "office_name_kana": null
  },
  "1141": {
    "postcode": "2701141",
    "prefecture": "千葉県",
    "prefecture_kana": "チバケン",
    "prefecture_code": 12,
    "city": "我孫子市",
    "city_kana": "アビコシ",
    "town": "栄",
    "town_kana": "サカエ",
    "street": null,
    "office_name": null,
    "office_name_kana": null
  },
  "1142": {
    "postcode": "2701142",
    "prefecture": "千葉県",
    "prefecture_kana": "チバケン",
    "prefecture_code": 12,
    "city": "我孫子市",
    "city_kana": "アビコシ",
    "town": "泉",
    "town_kana": "イズミ",
    "street": null,
    "office_name": null,
    "office_name_kana": null
  },
  "1143": {
    "postcode": "2701143",
    "prefecture": "千葉県",
    "prefecture_kana": "チバケン",
    "prefecture_code": 12,
    "city": "我孫子市",
    "city_kana": "アビコシ",
    "town": "天王台",
    "town_kana": "テンノウダイ",
    "street": null,
    "office_name": null,
    "office_name_kana": null
  },
  "1144": {
    "postcode": "2701144",
    "prefecture": "千葉県",
    "prefecture_kana": "チバケン",
    "prefecture_code": 12,
    "city": "我孫子市",
    "city_kana": "アビコシ",
    "town": "東我孫子",
    "town_kana": "ヒガシアビコ",
    "street": null,
    "office_name": null,
    "office_name_kana": null
  },
  "1145": {
    "postcode": "2701145",
    "prefecture": "千葉県",
    "prefecture_kana": "チバケン",
    "prefecture_code": 12,
    "city": "我孫子市",
    "city_kana": "アビコシ",
    "town": "高野山",
    "town_kana": "コウノヤマ",
    "street": null,
    "office_name": null,
    "office_name_kana": null
  },
  "1146": {
    "postcode": "2701146",
    "prefecture": "千葉県",
    "prefecture_kana": "チバケン",
    "prefecture_code": 12,
    "city": "我孫子市",
    "city_kana": "アビコシ",
    "town": "高野山新田",
    "town_kana": "コウノヤマシンデン",
    "street": null,
    "office_name": null,
    "office_name_kana": null
  },
  "1147": {
    "postcode": "2701147",
    "prefecture": "千葉県",
    "prefecture_kana": "チバケン",
    "prefecture_code": 12,
    "city": "我孫子市",
    "city_kana": "アビコシ",
    "town": "若松",
    "town_kana": "ワカマツ",
    "street": null,
    "office_name": null,
    "office_name_kana": null
  },
  "1151": {
    "postcode": "2701151",
    "prefecture": "千葉県",
    "prefecture_kana": "チバケン",
    "prefecture_code": 12,
    "city": "我孫子市",
    "city_kana": "アビコシ",
    "town": "本町",
    "town_kana": "ホンチョウ",
    "street": null,
    "office_name": null,
    "office_name_kana": null
  },
  "1152": {
    "postcode": "2701152",
    "prefecture": "千葉県",
    "prefecture_kana": "チバケン",
    "prefecture_code": 12,
    "city": "我孫子市",
    "city_kana": "アビコシ",
    "town": "寿",
    "town_kana": "コトブキ",
    "street": null,
    "office_name": null,
    "office_name_kana": null
  },
  "1153": {
    "postcode": "2701153",
    "prefecture": "千葉県",
    "prefecture_kana": "チバケン",
    "prefecture_code": 12,
    "city": "我孫子市",
    "city_kana": "アビコシ",
    "town": "緑",
    "town_kana": "ミドリ",
    "street": null,
    "office_name": null,
    "office_name_kana": null
  },
  "1154": {
    "postcode": "2701154",
    "prefecture": "千葉県",
    "prefecture_kana": "チバケン",
    "prefecture_code": 12,
    "city": "我孫子市",
    "city_kana": "アビコシ",
    "town": "白山",
    "town_kana": "ハクサン",
    "street": null,
    "office_name": null,
    "office_name_kana": null
  },
  "1155": {
    "postcode": "2701155",
    "prefecture": "千葉県",
    "prefecture_kana": "チバケン",
    "prefecture_code": 12,
    "city": "我孫子市",
    "city_kana": "アビコシ",
    "town": "我孫子新田",
    "town_kana": "アビコシンデン",
    "street": null,
    "office_name": null,
    "office_name_kana": null
  },
  "1156": {
    "postcode": "2701156",
    "prefecture": "千葉県",
    "prefecture_kana": "チバケン",
    "prefecture_code": 12,
    "city": "我孫子市",
    "city_kana": "アビコシ",
    "town": "根戸新田",
    "town_kana": "ネドシンデン",
    "street": null,
    "office_name": null,
    "office_name_kana": null
  },
  "1157": {
    "postcode": "2701157",
    "prefecture": "千葉県",
    "prefecture_kana": "チバケン",
    "prefecture_code": 12,
    "city": "我孫子市",
    "city_kana": "アビコシ",
    "town": "呼塚新田",
    "town_kana": "ヨバツカシンデン",
    "street": null,
    "office_name": null,
    "office_name_kana": null
  },
  "1158": {
    "postcode": "2701158",
    "prefecture": "千葉県",
    "prefecture_kana": "チバケン",
    "prefecture_code": 12,
    "city": "我孫子市",
    "city_kana": "アビコシ",
    "town": "船戸",
    "town_kana": "フナト",
    "street": null,
    "office_name": null,
    "office_name_kana": null
  },
  "1161": {
    "postcode": "2701161",
    "prefecture": "千葉県",
    "prefecture_kana": "チバケン",
    "prefecture_code": 12,
    "city": "我孫子市",
    "city_kana": "アビコシ",
    "town": "布施下",
    "town_kana": "フセシタ",
    "street": null,
    "office_name": null,
    "office_name_kana": null
  },
  "1162": {
    "postcode": "2701162",
    "prefecture": "千葉県",
    "prefecture_kana": "チバケン",
    "prefecture_code": 12,
    "city": "我孫子市",
    "city_kana": "アビコシ",
    "town": "布施",
    "town_kana": "フセ",
    "street": null,
    "office_name": null,
    "office_name_kana": null
  },
  "1163": {
    "postcode": "2701163",
    "prefecture": "千葉県",
    "prefecture_kana": "チバケン",
    "prefecture_code": 12,
    "city": "我孫子市",
    "city_kana": "アビコシ",
    "town": "久寺家",
    "town_kana": "クジケ",
    "street": null,
    "office_name": null,
    "office_name_kana": null
  },
  "1164": {
    "postcode": "2701164",
    "prefecture": "千葉県",
    "prefecture_kana": "チバケン",
    "prefecture_code": 12,
    "city": "我孫子市",
    "city_kana": "アビコシ",
    "town": "つくし野",
    "town_kana": "ツクシノ",
    "street": null,
    "office_name": null,
    "office_name_kana": null
  },
  "1165": {
    "postcode": "2701165",
    "prefecture": "千葉県",
    "prefecture_kana": "チバケン",
    "prefecture_code": 12,
    "city": "我孫子市",
    "city_kana": "アビコシ",
    "town": "並木",
    "town_kana": "ナミキ",
    "street": null,
    "office_name": null,
    "office_name_kana": null
  },
  "1166": {
    "postcode": "2701166",
    "prefecture": "千葉県",
    "prefecture_kana": "チバケン",
    "prefecture_code": 12,
    "city": "我孫子市",
    "city_kana": "アビコシ",
    "town": "我孫子",
    "town_kana": "アビコ",
    "street": null,
    "office_name": null,
    "office_name_kana": null
  },
  "1167": {
    "postcode": "2701167",
    "prefecture": "千葉県",
    "prefecture_kana": "チバケン",
    "prefecture_code": 12,
    "city": "我孫子市",
    "city_kana": "アビコシ",
    "town": "台田",
    "town_kana": "ダイダ",
    "street": null,
    "office_name": null,
    "office_name_kana": null
  },
  "1168": {
    "postcode": "2701168",
    "prefecture": "千葉県",
    "prefecture_kana": "チバケン",
    "prefecture_code": 12,
    "city": "我孫子市",
    "city_kana": "アビコシ",
    "town": "根戸",
    "town_kana": "ネド",
    "street": null,
    "office_name": null,
    "office_name_kana": null
  },
  "1171": {
    "postcode": "2701171",
    "prefecture": "千葉県",
    "prefecture_kana": "チバケン",
    "prefecture_code": 12,
    "city": "我孫子市",
    "city_kana": "アビコシ",
    "town": "弁天下",
    "town_kana": "ベンテンシタ",
    "street": null,
    "office_name": null,
    "office_name_kana": null
  },
  "1172": {
    "postcode": "2701172",
    "prefecture": "千葉県",
    "prefecture_kana": "チバケン",
    "prefecture_code": 12,
    "city": "我孫子市",
    "city_kana": "アビコシ",
    "town": "北新田",
    "town_kana": "キタシンデン",
    "street": null,
    "office_name": null,
    "office_name_kana": null
  },
  "1173": {
    "postcode": "2701173",
    "prefecture": "千葉県",
    "prefecture_kana": "チバケン",
    "prefecture_code": 12,
    "city": "我孫子市",
    "city_kana": "アビコシ",
    "town": "青山",
    "town_kana": "アオヤマ",
    "street": null,
    "office_name": null,
    "office_name_kana": null
  },
  "1174": {
    "postcode": "2701174",
    "prefecture": "千葉県",
    "prefecture_kana": "チバケン",
    "prefecture_code": 12,
    "city": "我孫子市",
    "city_kana": "アビコシ",
    "town": "日の出",
    "town_kana": "ヒノデ",
    "street": null,
    "office_name": null,
    "office_name_kana": null
  },
  "1175": {
    "postcode": "2701175",
    "prefecture": "千葉県",
    "prefecture_kana": "チバケン",
    "prefecture_code": 12,
    "city": "我孫子市",
    "city_kana": "アビコシ",
    "town": "青山台",
    "town_kana": "アオヤマダイ",
    "street": null,
    "office_name": null,
    "office_name_kana": null
  },
  "1176": {
    "postcode": "2701176",
    "prefecture": "千葉県",
    "prefecture_kana": "チバケン",
    "prefecture_code": 12,
    "city": "我孫子市",
    "city_kana": "アビコシ",
    "town": "柴崎台",
    "town_kana": "シバサキダイ",
    "street": null,
    "office_name": null,
    "office_name_kana": null
  },
  "1177": {
    "postcode": "2701177",
    "prefecture": "千葉県",
    "prefecture_kana": "チバケン",
    "prefecture_code": 12,
    "city": "我孫子市",
    "city_kana": "アビコシ",
    "town": "柴崎",
    "town_kana": "シバサキ",
    "street": null,
    "office_name": null,
    "office_name_kana": null
  },
  "1178": {
    "postcode": "2701178",
    "prefecture": "千葉県",
    "prefecture_kana": "チバケン",
    "prefecture_code": 12,
    "city": "我孫子市",
    "city_kana": "アビコシ",
    "town": "南青山",
    "town_kana": "ミナミアオヤマ",
    "street": null,
    "office_name": null,
    "office_name_kana": null
  },
  "1192": {
    "postcode": "2701192",
    "prefecture": "千葉県",
    "prefecture_kana": "チバケン",
    "prefecture_code": 12,
    "city": "我孫子市",
    "city_kana": "アビコシ",
    "town": "我孫子",
    "town_kana": "アビコ",
    "street": "１８５８",
    "office_name": "我孫子市役所",
    "office_name_kana": "アビコシヤクシヨ"
  },
  "1194": {
    "postcode": "2701194",
    "prefecture": "千葉県",
    "prefecture_kana": "チバケン",
    "prefecture_code": 12,
    "city": "我孫子市",
    "city_kana": "アビコシ",
    "town": "我孫子",
    "town_kana": "アビコ",
    "street": "１６４６",
    "office_name": "財団法人　電力中央研究所",
    "office_name_kana": "ザイダンホウジン デンリヨクチユウオウケンキユウシヨ"
  },
  "1196": {
    "postcode": "2701196",
    "prefecture": "千葉県",
    "prefecture_kana": "チバケン",
    "prefecture_code": 12,
    "city": "我孫子市",
    "city_kana": "アビコシ",
    "town": "久寺家",
    "town_kana": "クジケ",
    "street": "４５１",
    "office_name": "中央学院大学",
    "office_name_kana": "チユウオウガクインダイガク"
  },
  "1198": {
    "postcode": "2701198",
    "prefecture": "千葉県",
    "prefecture_kana": "チバケン",
    "prefecture_code": 12,
    "city": "我孫子市",
    "city_kana": "アビコシ",
    "town": "日の出",
    "town_kana": "ヒノデ",
    "street": "１１３１",
    "office_name": "日本電気　株式会社　我孫子事業場",
    "office_name_kana": "ニツポンデンキ カブシキガイシヤ アビコジギヨウジヨウ"
  },
  "1300": {
    "postcode": "2701300",
    "prefecture": "千葉県",
    "prefecture_kana": "チバケン",
    "prefecture_code": 12,
    "city": "印西市",
    "city_kana": "インザイシ",
    "town": "",
    "town_kana": "",
    "street": null,
    "office_name": null,
    "office_name_kana": null
  },
  "1313": {
    "postcode": "2701313",
    "prefecture": "千葉県",
    "prefecture_kana": "チバケン",
    "prefecture_code": 12,
    "city": "印西市",
    "city_kana": "インザイシ",
    "town": "小林北",
    "town_kana": "コバヤシキタ",
    "street": null,
    "office_name": null,
    "office_name_kana": null
  },
  "1315": {
    "postcode": "2701315",
    "prefecture": "千葉県",
    "prefecture_kana": "チバケン",
    "prefecture_code": 12,
    "city": "印西市",
    "city_kana": "インザイシ",
    "town": "小林浅間",
    "town_kana": "コバヤシセンゲン",
    "street": null,
    "office_name": null,
    "office_name_kana": null
  },
  "1316": {
    "postcode": "2701316",
    "prefecture": "千葉県",
    "prefecture_kana": "チバケン",
    "prefecture_code": 12,
    "city": "印西市",
    "city_kana": "インザイシ",
    "town": "小林大門下",
    "town_kana": "コバヤシダイモンシタ",
    "street": null,
    "office_name": null,
    "office_name_kana": null
  },
  "1318": {
    "postcode": "2701318",
    "prefecture": "千葉県",
    "prefecture_kana": "チバケン",
    "prefecture_code": 12,
    "city": "印西市",
    "city_kana": "インザイシ",
    "town": "小林",
    "town_kana": "コバヤシ",
    "street": null,
    "office_name": null,
    "office_name_kana": null
  },
  "1321": {
    "postcode": "2701321",
    "prefecture": "千葉県",
    "prefecture_kana": "チバケン",
    "prefecture_code": 12,
    "city": "印西市",
    "city_kana": "インザイシ",
    "town": "相嶋",
    "town_kana": "アイジマ",
    "street": null,
    "office_name": null,
    "office_name_kana": null
  },
  "1322": {
    "postcode": "2701322",
    "prefecture": "千葉県",
    "prefecture_kana": "チバケン",
    "prefecture_code": 12,
    "city": "印西市",
    "city_kana": "インザイシ",
    "town": "浅間前",
    "town_kana": "センゲンマエ",
    "street": null,
    "office_name": null,
    "office_name_kana": null
  },
  "1323": {
    "postcode": "2701323",
    "prefecture": "千葉県",
    "prefecture_kana": "チバケン",
    "prefecture_code": 12,
    "city": "印西市",
    "city_kana": "インザイシ",
    "town": "木下東",
    "town_kana": "キオロシヒガシ",
    "street": null,
    "office_name": null,
    "office_name_kana": null
  },
  "1324": {
    "postcode": "2701324",
    "prefecture": "千葉県",
    "prefecture_kana": "チバケン",
    "prefecture_code": 12,
    "city": "印西市",
    "city_kana": "インザイシ",
    "town": "平岡",
    "town_kana": "ヒラオカ",
    "street": null,
    "office_name": null,
    "office_name_kana": null
  },
  "1325": {
    "postcode": "2701325",
    "prefecture": "千葉県",
    "prefecture_kana": "チバケン",
    "prefecture_code": 12,
    "city": "印西市",
    "city_kana": "インザイシ",
    "town": "竹袋",
    "town_kana": "タケフクロ",
    "street": null,
    "office_name": null,
    "office_name_kana": null
  },
  "1326": {
    "postcode": "2701326",
    "prefecture": "千葉県",
    "prefecture_kana": "チバケン",
    "prefecture_code": 12,
    "city": "印西市",
    "city_kana": "インザイシ",
    "town": "木下",
    "town_kana": "キオロシ",
    "street": null,
    "office_name": null,
    "office_name_kana": null
  },
  "1327": {
    "postcode": "2701327",
    "prefecture": "千葉県",
    "prefecture_kana": "チバケン",
    "prefecture_code": 12,
    "city": "印西市",
    "city_kana": "インザイシ",
    "town": "大森",
    "town_kana": "オオモリ",
    "street": null,
    "office_name": null,
    "office_name_kana": null
  },
  "1328": {
    "postcode": "2701328",
    "prefecture": "千葉県",
    "prefecture_kana": "チバケン",
    "prefecture_code": 12,
    "city": "印西市",
    "city_kana": "インザイシ",
    "town": "木下南",
    "town_kana": "キオロシミナミ",
    "street": null,
    "office_name": null,
    "office_name_kana": null
  },
  "1331": {
    "postcode": "2701331",
    "prefecture": "千葉県",
    "prefecture_kana": "チバケン",
    "prefecture_code": 12,
    "city": "印西市",
    "city_kana": "インザイシ",
    "town": "牧の原",
    "town_kana": "マキノハラ",
    "street": null,
    "office_name": null,
    "office_name_kana": null
  },
  "1332": {
    "postcode": "2701332",
    "prefecture": "千葉県",
    "prefecture_kana": "チバケン",
    "prefecture_code": 12,
    "city": "印西市",
    "city_kana": "インザイシ",
    "town": "別所",
    "town_kana": "ベッショ",
    "street": null,
    "office_name": null,
    "office_name_kana": null
  },
  "1333": {
    "postcode": "2701333",
    "prefecture": "千葉県",
    "prefecture_kana": "チバケン",
    "prefecture_code": 12,
    "city": "印西市",
    "city_kana": "インザイシ",
    "town": "宗甫",
    "town_kana": "ソウホ",
    "street": null,
    "office_name": null,
    "office_name_kana": null
  },
  "1334": {
    "postcode": "2701334",
    "prefecture": "千葉県",
    "prefecture_kana": "チバケン",
    "prefecture_code": 12,
    "city": "印西市",
    "city_kana": "インザイシ",
    "town": "西の原",
    "town_kana": "ニシノハラ",
    "street": null,
    "office_name": null,
    "office_name_kana": null
  },
  "1335": {
    "postcode": "2701335",
    "prefecture": "千葉県",
    "prefecture_kana": "チバケン",
    "prefecture_code": 12,
    "city": "印西市",
    "city_kana": "インザイシ",
    "town": "原",
    "town_kana": "ハラ",
    "street": null,
    "office_name": null,
    "office_name_kana": null
  },
  "1336": {
    "postcode": "2701336",
    "prefecture": "千葉県",
    "prefecture_kana": "チバケン",
    "prefecture_code": 12,
    "city": "印西市",
    "city_kana": "インザイシ",
    "town": "東の原",
    "town_kana": "ヒガシノハラ",
    "street": null,
    "office_name": null,
    "office_name_kana": null
  },
  "1337": {
    "postcode": "2701337",
    "prefecture": "千葉県",
    "prefecture_kana": "チバケン",
    "prefecture_code": 12,
    "city": "印西市",
    "city_kana": "インザイシ",
    "town": "草深",
    "town_kana": "ソウフケ",
    "street": null,
    "office_name": null,
    "office_name_kana": null
  },
  "1338": {
    "postcode": "2701338",
    "prefecture": "千葉県",
    "prefecture_kana": "チバケン",
    "prefecture_code": 12,
    "city": "印西市",
    "city_kana": "インザイシ",
    "town": "松崎台",
    "town_kana": "マツザキダイ",
    "street": null,
    "office_name": null,
    "office_name_kana": null
  },
  "1339": {
    "postcode": "2701339",
    "prefecture": "千葉県",
    "prefecture_kana": "チバケン",
    "prefecture_code": 12,
    "city": "印西市",
    "city_kana": "インザイシ",
    "town": "牧の台",
    "town_kana": "マキノダイ",
    "street": null,
    "office_name": null,
    "office_name_kana": null
  },
  "1340": {
    "postcode": "2701340",
    "prefecture": "千葉県",
    "prefecture_kana": "チバケン",
    "prefecture_code": 12,
    "city": "印西市",
    "city_kana": "インザイシ",
    "town": "中央南",
    "town_kana": "チュウオウミナミ",
    "street": null,
    "office_name": null,
    "office_name_kana": null
  },
  "1341": {
    "postcode": "2701341",
    "prefecture": "千葉県",
    "prefecture_kana": "チバケン",
    "prefecture_code": 12,
    "city": "印西市",
    "city_kana": "インザイシ",
    "town": "原山",
    "town_kana": "ハラヤマ",
    "street": null,
    "office_name": null,
    "office_name_kana": null
  },
  "1342": {
    "postcode": "2701342",
    "prefecture": "千葉県",
    "prefecture_kana": "チバケン",
    "prefecture_code": 12,
    "city": "印西市",
    "city_kana": "インザイシ",
    "town": "高花",
    "town_kana": "タカバナ",
    "street": null,
    "office_name": null,
    "office_name_kana": null
  },
  "1343": {
    "postcode": "2701343",
    "prefecture": "千葉県",
    "prefecture_kana": "チバケン",
    "prefecture_code": 12,
    "city": "印西市",
    "city_kana": "インザイシ",
    "town": "結縁寺",
    "town_kana": "ケツエンジ",
    "street": null,
    "office_name": null,
    "office_name_kana": null
  },
  "1344": {
    "postcode": "2701344",
    "prefecture": "千葉県",
    "prefecture_kana": "チバケン",
    "prefecture_code": 12,
    "city": "印西市",
    "city_kana": "インザイシ",
    "town": "松崎",
    "town_kana": "マツザキ",
    "street": null,
    "office_name": null,
    "office_name_kana": null
  },
  "1345": {
    "postcode": "2701345",
    "prefecture": "千葉県",
    "prefecture_kana": "チバケン",
    "prefecture_code": 12,
    "city": "印西市",
    "city_kana": "インザイシ",
    "town": "船尾",
    "town_kana": "フナオ",
    "street": null,
    "office_name": null,
    "office_name_kana": null
  },
  "1346": {
    "postcode": "2701346",
    "prefecture": "千葉県",
    "prefecture_kana": "チバケン",
    "prefecture_code": 12,
    "city": "印西市",
    "city_kana": "インザイシ",
    "town": "多々羅田",
    "town_kana": "タタラダ",
    "street": null,
    "office_name": null,
    "office_name_kana": null
  },
  "1347": {
    "postcode": "2701347",
    "prefecture": "千葉県",
    "prefecture_kana": "チバケン",
    "prefecture_code": 12,
    "city": "印西市",
    "city_kana": "インザイシ",
    "town": "内野",
    "town_kana": "ウチノ",
    "street": null,
    "office_name": null,
    "office_name_kana": null
  },
  "1348": {
    "postcode": "2701348",
    "prefecture": "千葉県",
    "prefecture_kana": "チバケン",
    "prefecture_code": 12,
    "city": "印西市",
    "city_kana": "インザイシ",
    "town": "戸神",
    "town_kana": "トカミ",
    "street": null,
    "office_name": null,
    "office_name_kana": null
  },
  "1349": {
    "postcode": "2701349",
    "prefecture": "千葉県",
    "prefecture_kana": "チバケン",
    "prefecture_code": 12,
    "city": "印西市",
    "city_kana": "インザイシ",
    "town": "戸神台",
    "town_kana": "トカミダイ",
    "street": null,
    "office_name": null,
    "office_name_kana": null
  },
  "1350": {
    "postcode": "2701350",
    "prefecture": "千葉県",
    "prefecture_kana": "チバケン",
    "prefecture_code": 12,
    "city": "印西市",
    "city_kana": "インザイシ",
    "town": "中央北",
    "town_kana": "チュウオウキタ",
    "street": null,
    "office_name": null,
    "office_name_kana": null
  },
  "1351": {
    "postcode": "2701351",
    "prefecture": "千葉県",
    "prefecture_kana": "チバケン",
    "prefecture_code": 12,
    "city": "印西市",
    "city_kana": "インザイシ",
    "town": "和泉",
    "town_kana": "イズミ",
    "street": null,
    "office_name": null,
    "office_name_kana": null
  },
  "1352": {
    "postcode": "2701352",
    "prefecture": "千葉県",
    "prefecture_kana": "チバケン",
    "prefecture_code": 12,
    "city": "印西市",
    "city_kana": "インザイシ",
    "town": "大塚",
    "town_kana": "オオツカ",
    "street": null,
    "office_name": null,
    "office_name_kana": null
  },
  "1353": {
    "postcode": "2701353",
    "prefecture": "千葉県",
    "prefecture_kana": "チバケン",
    "prefecture_code": 12,
    "city": "印西市",
    "city_kana": "インザイシ",
    "town": "泉",
    "town_kana": "イズミ",
    "street": null,
    "office_name": null,
    "office_name_kana": null
  },
  "1354": {
    "postcode": "2701354",
    "prefecture": "千葉県",
    "prefecture_kana": "チバケン",
    "prefecture_code": 12,
    "city": "印西市",
    "city_kana": "インザイシ",
    "town": "武西",
    "town_kana": "ムザイ",
    "street": null,
    "office_name": null,
    "office_name_kana": null
  },
  "1355": {
    "postcode": "2701355",
    "prefecture": "千葉県",
    "prefecture_kana": "チバケン",
    "prefecture_code": 12,
    "city": "印西市",
    "city_kana": "インザイシ",
    "town": "武西学園台",
    "town_kana": "ムザイガクエンダイ",
    "street": null,
    "office_name": null,
    "office_name_kana": null
  },
  "1356": {
    "postcode": "2701356",
    "prefecture": "千葉県",
    "prefecture_kana": "チバケン",
    "prefecture_code": 12,
    "city": "印西市",
    "city_kana": "インザイシ",
    "town": "小倉台",
    "town_kana": "オグラダイ",
    "street": null,
    "office_name": null,
    "office_name_kana": null
  },
  "1357": {
    "postcode": "2701357",
    "prefecture": "千葉県",
    "prefecture_kana": "チバケン",
    "prefecture_code": 12,
    "city": "印西市",
    "city_kana": "インザイシ",
    "town": "牧の木戸",
    "town_kana": "マキノキド",
    "street": null,
    "office_name": null,
    "office_name_kana": null
  },
  "1358": {
    "postcode": "2701358",
    "prefecture": "千葉県",
    "prefecture_kana": "チバケン",
    "prefecture_code": 12,
    "city": "印西市",
    "city_kana": "インザイシ",
    "town": "小倉",
    "town_kana": "オグラ",
    "street": null,
    "office_name": null,
    "office_name_kana": null
  },
  "1359": {
    "postcode": "2701359",
    "prefecture": "千葉県",
    "prefecture_kana": "チバケン",
    "prefecture_code": 12,
    "city": "印西市",
    "city_kana": "インザイシ",
    "town": "木刈",
    "town_kana": "キカリ",
    "street": null,
    "office_name": null,
    "office_name_kana": null
  },
  "1360": {
    "postcode": "2701360",
    "prefecture": "千葉県",
    "prefecture_kana": "チバケン",
    "prefecture_code": 12,
    "city": "印西市",
    "city_kana": "インザイシ",
    "town": "泉野",
    "town_kana": "イズミノ",
    "street": null,
    "office_name": null,
    "office_name_kana": null
  },
  "1361": {
    "postcode": "2701361",
    "prefecture": "千葉県",
    "prefecture_kana": "チバケン",
    "prefecture_code": 12,
    "city": "印西市",
    "city_kana": "インザイシ",
    "town": "発作",
    "town_kana": "ホッサク",
    "street": null,
    "office_name": null,
    "office_name_kana": null
  },
  "1362": {
    "postcode": "2701362",
    "prefecture": "千葉県",
    "prefecture_kana": "チバケン",
    "prefecture_code": 12,
    "city": "印西市",
    "city_kana": "インザイシ",
    "town": "亀成",
    "town_kana": "カメナリ",
    "street": null,
    "office_name": null,
    "office_name_kana": null
  },
  "1363": {
    "postcode": "2701363",
    "prefecture": "千葉県",
    "prefecture_kana": "チバケン",
    "prefecture_code": 12,
    "city": "印西市",
    "city_kana": "インザイシ",
    "town": "鹿黒",
    "town_kana": "カグロ",
    "street": null,
    "office_name": null,
    "office_name_kana": null
  },
  "1364": {
    "postcode": "2701364",
    "prefecture": "千葉県",
    "prefecture_kana": "チバケン",
    "prefecture_code": 12,
    "city": "印西市",
    "city_kana": "インザイシ",
    "town": "浦幡新田",
    "town_kana": "ウラハタシンデン",
    "street": null,
    "office_name": null,
    "office_name_kana": null
  },
  "1365": {
    "postcode": "2701365",
    "prefecture": "千葉県",
    "prefecture_kana": "チバケン",
    "prefecture_code": 12,
    "city": "印西市",
    "city_kana": "インザイシ",
    "town": "高西新田",
    "town_kana": "コウサイシンデン",
    "street": null,
    "office_name": null,
    "office_name_kana": null
  },
  "1366": {
    "postcode": "2701366",
    "prefecture": "千葉県",
    "prefecture_kana": "チバケン",
    "prefecture_code": 12,
    "city": "印西市",
    "city_kana": "インザイシ",
    "town": "白幡",
    "town_kana": "シラハタ",
    "street": null,
    "office_name": null,
    "office_name_kana": null
  },
  "1367": {
    "postcode": "2701367",
    "prefecture": "千葉県",
    "prefecture_kana": "チバケン",
    "prefecture_code": 12,
    "city": "印西市",
    "city_kana": "インザイシ",
    "town": "浦部",
    "town_kana": "ウラベ",
    "street": null,
    "office_name": null,
    "office_name_kana": null
  },
  "1368": {
    "postcode": "2701368",
    "prefecture": "千葉県",
    "prefecture_kana": "チバケン",
    "prefecture_code": 12,
    "city": "印西市",
    "city_kana": "インザイシ",
    "town": "浦部村新田",
    "town_kana": "ウラベムラシンデン",
    "street": null,
    "office_name": null,
    "office_name_kana": null
  },
  "1369": {
    "postcode": "2701369",
    "prefecture": "千葉県",
    "prefecture_kana": "チバケン",
    "prefecture_code": 12,
    "city": "印西市",
    "city_kana": "インザイシ",
    "town": "鹿黒南",
    "town_kana": "カグロミナミ",
    "street": null,
    "office_name": null,
    "office_name_kana": null
  },
  "1380": {
    "postcode": "2701380",
    "prefecture": "千葉県",
    "prefecture_kana": "チバケン",
    "prefecture_code": 12,
    "city": "印西市",
    "city_kana": "インザイシ",
    "town": "松崎台",
    "town_kana": "マツザキダイ",
    "street": "２丁目４番アイミッションズパーク印西",
    "office_name": "アマゾンジャパン　ＴＰＦ７",
    "office_name_kana": "アマゾンジヤパン テイ-ピ-エフナナ"
  },
  "1381": {
    "postcode": "2701381",
    "prefecture": "千葉県",
    "prefecture_kana": "チバケン",
    "prefecture_code": 12,
    "city": "印西市",
    "city_kana": "インザイシ",
    "town": "大塚",
    "town_kana": "オオツカ",
    "street": "２丁目２−１",
    "office_name": "三井住友海上火災保険　株式会社",
    "office_name_kana": "ミツイスミトモカイジヨウカサイホケン カブシキカイシヤ"
  },
  "1382": {
    "postcode": "2701382",
    "prefecture": "千葉県",
    "prefecture_kana": "チバケン",
    "prefecture_code": 12,
    "city": "印西市",
    "city_kana": "インザイシ",
    "town": "牧の台",
    "town_kana": "マキノダイ",
    "street": "２−１−７",
    "office_name": "日本通信紙　株式会社　印西ＢＰＯセンター",
    "office_name_kana": "ニホンツウシンシ カブシキガイシヤ インザイビ-ピ-オ-センタ-"
  },
  "1383": {
    "postcode": "2701383",
    "prefecture": "千葉県",
    "prefecture_kana": "チバケン",
    "prefecture_code": 12,
    "city": "印西市",
    "city_kana": "インザイシ",
    "town": "大塚",
    "town_kana": "オオツカ",
    "street": "２丁目１０番地",
    "office_name": "フコク生命　千葉ニュータウン本社",
    "office_name_kana": "フコクセイメイ チバニユ-タウンホンシヤ"
  },
  "1385": {
    "postcode": "2701385",
    "prefecture": "千葉県",
    "prefecture_kana": "チバケン",
    "prefecture_code": 12,
    "city": "印西市",
    "city_kana": "インザイシ",
    "town": "中央北",
    "town_kana": "チュウオウキタ",
    "street": "３−１−１",
    "office_name": "イオンリテール　株式会社　イオン千葉ニュータウン店",
    "office_name_kana": "イオンリテ-ル カブシキガイシヤ イオンチバニユ-タウンテン"
  },
  "1387": {
    "postcode": "2701387",
    "prefecture": "千葉県",
    "prefecture_kana": "チバケン",
    "prefecture_code": 12,
    "city": "印西市",
    "city_kana": "インザイシ",
    "town": "牧の原",
    "town_kana": "マキノハラ",
    "street": "二丁目３番地",
    "office_name": "印西地区消防組合",
    "office_name_kana": "インザイチクシヨウボウクミアイ"
  },
  "1389": {
    "postcode": "2701389",
    "prefecture": "千葉県",
    "prefecture_kana": "チバケン",
    "prefecture_code": 12,
    "city": "印西市",
    "city_kana": "インザイシ",
    "town": "松崎台",
    "town_kana": "マツザキダイ",
    "street": "２丁目４番アイミッションズパーク印西",
    "office_name": "アマゾンジャパン　ＴＰＦ６",
    "office_name_kana": "アマゾンジヤパン テイ-ピ-エフロク"
  },
  "1392": {
    "postcode": "2701392",
    "prefecture": "千葉県",
    "prefecture_kana": "チバケン",
    "prefecture_code": 12,
    "city": "印西市",
    "city_kana": "インザイシ",
    "town": "中央北",
    "town_kana": "チュウオウキタ",
    "street": "３丁目２",
    "office_name": "イオンモール　千葉ニュータウン",
    "office_name_kana": "イオンモ-ル チバニユ-タウン"
  },
  "1393": {
    "postcode": "2701393",
    "prefecture": "千葉県",
    "prefecture_kana": "チバケン",
    "prefecture_code": 12,
    "city": "印西市",
    "city_kana": "インザイシ",
    "town": "大塚",
    "town_kana": "オオツカ",
    "street": "１丁目６−１",
    "office_name": "みずほ銀行",
    "office_name_kana": "ミズホギンコウ"
  },
  "1395": {
    "postcode": "2701395",
    "prefecture": "千葉県",
    "prefecture_kana": "チバケン",
    "prefecture_code": 12,
    "city": "印西市",
    "city_kana": "インザイシ",
    "town": "大塚",
    "town_kana": "オオツカ",
    "street": "１丁目５−１",
    "office_name": "（株）　竹中工務店　技術研究所",
    "office_name_kana": "(カブ) タケナカコウムテン ギジユツケンキユウジヨ"
  },
  "1396": {
    "postcode": "2701396",
    "prefecture": "千葉県",
    "prefecture_kana": "チバケン",
    "prefecture_code": 12,
    "city": "印西市",
    "city_kana": "インザイシ",
    "town": "大森",
    "town_kana": "オオモリ",
    "street": "２３６４−２",
    "office_name": "印西市役所",
    "office_name_kana": "インザイシヤクシヨ"
  },
  "1398": {
    "postcode": "2701398",
    "prefecture": "千葉県",
    "prefecture_kana": "チバケン",
    "prefecture_code": 12,
    "city": "印西市",
    "city_kana": "インザイシ",
    "town": "武西学園台",
    "town_kana": "ムザイガクエンダイ",
    "street": "一丁目１番１号",
    "office_name": "ソフトバンクテレコム　株式会社",
    "office_name_kana": "ソフトバンクテレコム カブシキガイシヤ"
  },
  "1400": {
    "postcode": "2701400",
    "prefecture": "千葉県",
    "prefecture_kana": "チバケン",
    "prefecture_code": 12,
    "city": "白井市",
    "city_kana": "シロイシ",
    "town": "",
    "town_kana": "",
    "street": null,
    "office_name": null,
    "office_name_kana": null
  },
  "1401": {
    "postcode": "2701401",
    "prefecture": "千葉県",
    "prefecture_kana": "チバケン",
    "prefecture_code": 12,
    "city": "白井市",
    "city_kana": "シロイシ",
    "town": "今井",
    "town_kana": "イマイ",
    "street": null,
    "office_name": null,
    "office_name_kana": null
  },
  "1402": {
    "postcode": "2701402",
    "prefecture": "千葉県",
    "prefecture_kana": "チバケン",
    "prefecture_code": 12,
    "city": "白井市",
    "city_kana": "シロイシ",
    "town": "平塚",
    "town_kana": "ヒラツカ",
    "street": null,
    "office_name": null,
    "office_name_kana": null
  },
  "1403": {
    "postcode": "2701403",
    "prefecture": "千葉県",
    "prefecture_kana": "チバケン",
    "prefecture_code": 12,
    "city": "白井市",
    "city_kana": "シロイシ",
    "town": "河原子",
    "town_kana": "カワラゴ",
    "street": null,
    "office_name": null,
    "office_name_kana": null
  },
  "1404": {
    "postcode": "2701404",
    "prefecture": "千葉県",
    "prefecture_kana": "チバケン",
    "prefecture_code": 12,
    "city": "白井市",
    "city_kana": "シロイシ",
    "town": "折立",
    "town_kana": "オリタテ",
    "street": null,
    "office_name": null,
    "office_name_kana": null
  },
  "1405": {
    "postcode": "2701405",
    "prefecture": "千葉県",
    "prefecture_kana": "チバケン",
    "prefecture_code": 12,
    "city": "白井市",
    "city_kana": "シロイシ",
    "town": "富塚",
    "town_kana": "トミツカ",
    "street": null,
    "office_name": null,
    "office_name_kana": null
  },
  "1406": {
    "postcode": "2701406",
    "prefecture": "千葉県",
    "prefecture_kana": "チバケン",
    "prefecture_code": 12,
    "city": "白井市",
    "city_kana": "シロイシ",
    "town": "中",
    "town_kana": "ナカ",
    "street": null,
    "office_name": null,
    "office_name_kana": null
  },
  "1407": {
    "postcode": "2701407",
    "prefecture": "千葉県",
    "prefecture_kana": "チバケン",
    "prefecture_code": 12,
    "city": "白井市",
    "city_kana": "シロイシ",
    "town": "名内",
    "town_kana": "ナウチ",
    "street": null,
    "office_name": null,
    "office_name_kana": null
  },
  "1408": {
    "postcode": "2701408",
    "prefecture": "千葉県",
    "prefecture_kana": "チバケン",
    "prefecture_code": 12,
    "city": "白井市",
    "city_kana": "シロイシ",
    "town": "西白井",
    "town_kana": "ニシシロイ",
    "street": null,
    "office_name": null,
    "office_name_kana": null
  },
  "1411": {
    "postcode": "2701411",
    "prefecture": "千葉県",
    "prefecture_kana": "チバケン",
    "prefecture_code": 12,
    "city": "白井市",
    "city_kana": "シロイシ",
    "town": "十余一",
    "town_kana": "トヨイチ",
    "street": null,
    "office_name": null,
    "office_name_kana": null
  },
  "1412": {
    "postcode": "2701412",
    "prefecture": "千葉県",
    "prefecture_kana": "チバケン",
    "prefecture_code": 12,
    "city": "白井市",
    "city_kana": "シロイシ",
    "town": "桜台",
    "town_kana": "サクラダイ",
    "street": null,
    "office_name": null,
    "office_name_kana": null
  },
  "1413": {
    "postcode": "2701413",
    "prefecture": "千葉県",
    "prefecture_kana": "チバケン",
    "prefecture_code": 12,
    "city": "白井市",
    "city_kana": "シロイシ",
    "town": "武西",
    "town_kana": "ムザイ",
    "street": null,
    "office_name": null,
    "office_name_kana": null
  },
  "1414": {
    "postcode": "2701414",
    "prefecture": "千葉県",
    "prefecture_kana": "チバケン",
    "prefecture_code": 12,
    "city": "白井市",
    "city_kana": "シロイシ",
    "town": "谷田",
    "town_kana": "ヤタ",
    "street": null,
    "office_name": null,
    "office_name_kana": null
  },
  "1415": {
    "postcode": "2701415",
    "prefecture": "千葉県",
    "prefecture_kana": "チバケン",
    "prefecture_code": 12,
    "city": "白井市",
    "city_kana": "シロイシ",
    "town": "清戸",
    "town_kana": "キヨド",
    "street": null,
    "office_name": null,
    "office_name_kana": null
  },
  "1416": {
    "postcode": "2701416",
    "prefecture": "千葉県",
    "prefecture_kana": "チバケン",
    "prefecture_code": 12,
    "city": "白井市",
    "city_kana": "シロイシ",
    "town": "神々廻",
    "town_kana": "シシバ",
    "street": null,
    "office_name": null,
    "office_name_kana": null
  },
  "1421": {
    "postcode": "2701421",
    "prefecture": "千葉県",
    "prefecture_kana": "チバケン",
    "prefecture_code": 12,
    "city": "白井市",
    "city_kana": "シロイシ",
    "town": "白井",
    "town_kana": "シロイ",
    "street": null,
    "office_name": null,
    "office_name_kana": null
  },
  "1422": {
    "postcode": "2701422",
    "prefecture": "千葉県",
    "prefecture_kana": "チバケン",
    "prefecture_code": 12,
    "city": "白井市",
    "city_kana": "シロイシ",
    "town": "復",
    "town_kana": "フク",
    "street": null,
    "office_name": null,
    "office_name_kana": null
  },
  "1423": {
    "postcode": "2701423",
    "prefecture": "千葉県",
    "prefecture_kana": "チバケン",
    "prefecture_code": 12,
    "city": "白井市",
    "city_kana": "シロイシ",
    "town": "南山",
    "town_kana": "ミナミヤマ",
    "street": null,
    "office_name": null,
    "office_name_kana": null
  },
  "1424": {
    "postcode": "2701424",
    "prefecture": "千葉県",
    "prefecture_kana": "チバケン",
    "prefecture_code": 12,
    "city": "白井市",
    "city_kana": "シロイシ",
    "town": "堀込",
    "town_kana": "ホリゴメ",
    "street": null,
    "office_name": null,
    "office_name_kana": null
  },
  "1425": {
    "postcode": "2701425",
    "prefecture": "千葉県",
    "prefecture_kana": "チバケン",
    "prefecture_code": 12,
    "city": "白井市",
    "city_kana": "シロイシ",
    "town": "池の上",
    "town_kana": "イケノカミ",
    "street": null,
    "office_name": null,
    "office_name_kana": null
  },
  "1426": {
    "postcode": "2701426",
    "prefecture": "千葉県",
    "prefecture_kana": "チバケン",
    "prefecture_code": 12,
    "city": "白井市",
    "city_kana": "シロイシ",
    "town": "笹塚",
    "town_kana": "ササヅカ",
    "street": null,
    "office_name": null,
    "office_name_kana": null
  },
  "1431": {
    "postcode": "2701431",
    "prefecture": "千葉県",
    "prefecture_kana": "チバケン",
    "prefecture_code": 12,
    "city": "白井市",
    "city_kana": "シロイシ",
    "town": "根",
    "town_kana": "ネ",
    "street": null,
    "office_name": null,
    "office_name_kana": null
  },
  "1432": {
    "postcode": "2701432",
    "prefecture": "千葉県",
    "prefecture_kana": "チバケン",
    "prefecture_code": 12,
    "city": "白井市",
    "city_kana": "シロイシ",
    "town": "冨士",
    "town_kana": "フジ",
    "street": null,
    "office_name": null,
    "office_name_kana": null
  },
  "1433": {
    "postcode": "2701433",
    "prefecture": "千葉県",
    "prefecture_kana": "チバケン",
    "prefecture_code": 12,
    "city": "白井市",
    "city_kana": "シロイシ",
    "town": "けやき台",
    "town_kana": "ケヤキダイ",
    "street": null,
    "office_name": null,
    "office_name_kana": null
  },
  "1434": {
    "postcode": "2701434",
    "prefecture": "千葉県",
    "prefecture_kana": "チバケン",
    "prefecture_code": 12,
    "city": "白井市",
    "city_kana": "シロイシ",
    "town": "大山口",
    "town_kana": "オオヤマグチ",
    "street": null,
    "office_name": null,
    "office_name_kana": null
  },
  "1435": {
    "postcode": "2701435",
    "prefecture": "千葉県",
    "prefecture_kana": "チバケン",
    "prefecture_code": 12,
    "city": "白井市",
    "city_kana": "シロイシ",
    "town": "清水口",
    "town_kana": "シミズグチ",
    "street": null,
    "office_name": null,
    "office_name_kana": null
  },
  "1436": {
    "postcode": "2701436",
    "prefecture": "千葉県",
    "prefecture_kana": "チバケン",
    "prefecture_code": 12,
    "city": "白井市",
    "city_kana": "シロイシ",
    "town": "七次台",
    "town_kana": "ナナツギダイ",
    "street": null,
    "office_name": null,
    "office_name_kana": null
  },
  "1437": {
    "postcode": "2701437",
    "prefecture": "千葉県",
    "prefecture_kana": "チバケン",
    "prefecture_code": 12,
    "city": "白井市",
    "city_kana": "シロイシ",
    "town": "木",
    "town_kana": "キ",
    "street": null,
    "office_name": null,
    "office_name_kana": null
  },
  "1438": {
    "postcode": "2701438",
    "prefecture": "千葉県",
    "prefecture_kana": "チバケン",
    "prefecture_code": 12,
    "city": "白井市",
    "city_kana": "シロイシ",
    "town": "野口",
    "town_kana": "ノグチ",
    "street": null,
    "office_name": null,
    "office_name_kana": null
  },
  "1439": {
    "postcode": "2701439",
    "prefecture": "千葉県",
    "prefecture_kana": "チバケン",
    "prefecture_code": 12,
    "city": "白井市",
    "city_kana": "シロイシ",
    "town": "大松",
    "town_kana": "ダイマツ",
    "street": null,
    "office_name": null,
    "office_name_kana": null
  },
  "1441": {
    "postcode": "2701441",
    "prefecture": "千葉県",
    "prefecture_kana": "チバケン",
    "prefecture_code": 12,
    "city": "柏市",
    "city_kana": "カシワシ",
    "town": "鷲野谷新田",
    "town_kana": "ワシノヤシンデン",
    "street": null,
    "office_name": null,
    "office_name_kana": null
  },
  "1442": {
    "postcode": "2701442",
    "prefecture": "千葉県",
    "prefecture_kana": "チバケン",
    "prefecture_code": 12,
    "city": "柏市",
    "city_kana": "カシワシ",
    "town": "染井入新田",
    "town_kana": "ソメイイリシンデン",
    "street": null,
    "office_name": null,
    "office_name_kana": null
  },
  "1443": {
    "postcode": "2701443",
    "prefecture": "千葉県",
    "prefecture_kana": "チバケン",
    "prefecture_code": 12,
    "city": "柏市",
    "city_kana": "カシワシ",
    "town": "鷲野谷",
    "town_kana": "ワシノヤ",
    "street": null,
    "office_name": null,
    "office_name_kana": null
  },
  "1444": {
    "postcode": "2701444",
    "prefecture": "千葉県",
    "prefecture_kana": "チバケン",
    "prefecture_code": 12,
    "city": "柏市",
    "city_kana": "カシワシ",
    "town": "若白毛",
    "town_kana": "ワカシラガ",
    "street": null,
    "office_name": null,
    "office_name_kana": null
  },
  "1445": {
    "postcode": "2701445",
    "prefecture": "千葉県",
    "prefecture_kana": "チバケン",
    "prefecture_code": 12,
    "city": "柏市",
    "city_kana": "カシワシ",
    "town": "岩井",
    "town_kana": "イワイ",
    "street": null,
    "office_name": null,
    "office_name_kana": null
  },
  "1446": {
    "postcode": "2701446",
    "prefecture": "千葉県",
    "prefecture_kana": "チバケン",
    "prefecture_code": 12,
    "city": "柏市",
    "city_kana": "カシワシ",
    "town": "岩井村新田",
    "town_kana": "イワイムラシンデン",
    "street": null,
    "office_name": null,
    "office_name_kana": null
  },
  "1447": {
    "postcode": "2701447",
    "prefecture": "千葉県",
    "prefecture_kana": "チバケン",
    "prefecture_code": 12,
    "city": "柏市",
    "city_kana": "カシワシ",
    "town": "手賀の杜",
    "town_kana": "テガノモリ",
    "street": null,
    "office_name": null,
    "office_name_kana": null
  },
  "1451": {
    "postcode": "2701451",
    "prefecture": "千葉県",
    "prefecture_kana": "チバケン",
    "prefecture_code": 12,
    "city": "柏市",
    "city_kana": "カシワシ",
    "town": "曙橋",
    "town_kana": "アケボノバシ",
    "street": null,
    "office_name": null,
    "office_name_kana": null
  },
  "1452": {
    "postcode": "2701452",
    "prefecture": "千葉県",
    "prefecture_kana": "チバケン",
    "prefecture_code": 12,
    "city": "柏市",
    "city_kana": "カシワシ",
    "town": "片山新田",
    "town_kana": "カタヤマシンデン",
    "street": null,
    "office_name": null,
    "office_name_kana": null
  },
  "1453": {
    "postcode": "2701453",
    "prefecture": "千葉県",
    "prefecture_kana": "チバケン",
    "prefecture_code": 12,
    "city": "柏市",
    "city_kana": "カシワシ",
    "town": "片山",
    "town_kana": "カタヤマ",
    "street": null,
    "office_name": null,
    "office_name_kana": null
  },
  "1454": {
    "postcode": "2701454",
    "prefecture": "千葉県",
    "prefecture_kana": "チバケン",
    "prefecture_code": 12,
    "city": "柏市",
    "city_kana": "カシワシ",
    "town": "柳戸",
    "town_kana": "ヤナド",
    "street": null,
    "office_name": null,
    "office_name_kana": null
  },
  "1455": {
    "postcode": "2701455",
    "prefecture": "千葉県",
    "prefecture_kana": "チバケン",
    "prefecture_code": 12,
    "city": "柏市",
    "city_kana": "カシワシ",
    "town": "金山",
    "town_kana": "カネヤマ",
    "street": null,
    "office_name": null,
    "office_name_kana": null
  },
  "1456": {
    "postcode": "2701456",
    "prefecture": "千葉県",
    "prefecture_kana": "チバケン",
    "prefecture_code": 12,
    "city": "柏市",
    "city_kana": "カシワシ",
    "town": "泉",
    "town_kana": "イズミ",
    "street": null,
    "office_name": null,
    "office_name_kana": null
  },
  "1457": {
    "postcode": "2701457",
    "prefecture": "千葉県",
    "prefecture_kana": "チバケン",
    "prefecture_code": 12,
    "city": "柏市",
    "city_kana": "カシワシ",
    "town": "泉村新田",
    "town_kana": "イズミムラシンデン",
    "street": null,
    "office_name": null,
    "office_name_kana": null
  },
  "1461": {
    "postcode": "2701461",
    "prefecture": "千葉県",
    "prefecture_kana": "チバケン",
    "prefecture_code": 12,
    "city": "柏市",
    "city_kana": "カシワシ",
    "town": "水道橋",
    "town_kana": "スイドウバシ",
    "street": null,
    "office_name": null,
    "office_name_kana": null
  },
  "1462": {
    "postcode": "2701462",
    "prefecture": "千葉県",
    "prefecture_kana": "チバケン",
    "prefecture_code": 12,
    "city": "柏市",
    "city_kana": "カシワシ",
    "town": "千間橋",
    "town_kana": "センゲンバシ",
    "street": null,
    "office_name": null,
    "office_name_kana": null
  },
  "1463": {
    "postcode": "2701463",
    "prefecture": "千葉県",
    "prefecture_kana": "チバケン",
    "prefecture_code": 12,
    "city": "柏市",
    "city_kana": "カシワシ",
    "town": "布瀬新田",
    "town_kana": "フゼシンデン",
    "street": null,
    "office_name": null,
    "office_name_kana": null
  },
  "1464": {
    "postcode": "2701464",
    "prefecture": "千葉県",
    "prefecture_kana": "チバケン",
    "prefecture_code": 12,
    "city": "柏市",
    "city_kana": "カシワシ",
    "town": "布瀬",
    "town_kana": "フゼ",
    "street": null,
    "office_name": null,
    "office_name_kana": null
  },
  "1465": {
    "postcode": "2701465",
    "prefecture": "千葉県",
    "prefecture_kana": "チバケン",
    "prefecture_code": 12,
    "city": "柏市",
    "city_kana": "カシワシ",
    "town": "手賀",
    "town_kana": "テガ",
    "street": null,
    "office_name": null,
    "office_name_kana": null
  },
  "1466": {
    "postcode": "2701466",
    "prefecture": "千葉県",
    "prefecture_kana": "チバケン",
    "prefecture_code": 12,
    "city": "柏市",
    "city_kana": "カシワシ",
    "town": "手賀新田",
    "town_kana": "テガシンデン",
    "street": null,
    "office_name": null,
    "office_name_kana": null
  },
  "1471": {
    "postcode": "2701471",
    "prefecture": "千葉県",
    "prefecture_kana": "チバケン",
    "prefecture_code": 12,
    "city": "船橋市",
    "city_kana": "フナバシシ",
    "town": "小室町",
    "town_kana": "コムロチョウ",
    "street": null,
    "office_name": null,
    "office_name_kana": null
  },
  "1492": {
    "postcode": "2701492",
    "prefecture": "千葉県",
    "prefecture_kana": "チバケン",
    "prefecture_code": 12,
    "city": "白井市",
    "city_kana": "シロイシ",
    "town": "復",
    "town_kana": "フク",
    "street": "１１２３",
    "office_name": "白井市役所",
    "office_name_kana": "シロイシヤクシヨ"
  },
  "1493": {
    "postcode": "2701493",
    "prefecture": "千葉県",
    "prefecture_kana": "チバケン",
    "prefecture_code": 12,
    "city": "白井市",
    "city_kana": "シロイシ",
    "town": "桜台",
    "town_kana": "サクラダイ",
    "street": "１丁目４",
    "office_name": "社会保険大学校",
    "office_name_kana": "シヤカイホケンダイガクコウ"
  },
  "1495": {
    "postcode": "2701495",
    "prefecture": "千葉県",
    "prefecture_kana": "チバケン",
    "prefecture_code": 12,
    "city": "白井市",
    "city_kana": "シロイシ",
    "town": "中",
    "town_kana": "ナカ",
    "street": "３０５−１",
    "office_name": "フクダ電子　（株）",
    "office_name_kana": "フクダデンシ (カブ)"
  },
  "1496": {
    "postcode": "2701496",
    "prefecture": "千葉県",
    "prefecture_kana": "チバケン",
    "prefecture_code": 12,
    "city": "白井市",
    "city_kana": "シロイシ",
    "town": "桜台",
    "town_kana": "サクラダイ",
    "street": "１丁目２",
    "office_name": "信組情報サービス　（株）",
    "office_name_kana": "シンクミジヨウホウサ-ビス (カブ)"
  },
  "1500": {
    "postcode": "2701500",
    "prefecture": "千葉県",
    "prefecture_kana": "チバケン",
    "prefecture_code": 12,
    "city": "印旛郡栄町",
    "city_kana": "インバグンサカエマチ",
    "town": "",
    "town_kana": "",
    "street": null,
    "office_name": null,
    "office_name_kana": null
  },
  "1501": {
    "postcode": "2701501",
    "prefecture": "千葉県",
    "prefecture_kana": "チバケン",
    "prefecture_code": 12,
    "city": "印旛郡栄町",
    "city_kana": "インバグンサカエマチ",
    "town": "矢口神明",
    "town_kana": "ヤコウシンメイ",
    "street": null,
    "office_name": null,
    "office_name_kana": null
  },
  "1502": {
    "postcode": "2701502",
    "prefecture": "千葉県",
    "prefecture_kana": "チバケン",
    "prefecture_code": 12,
    "city": "印旛郡栄町",
    "city_kana": "インバグンサカエマチ",
    "town": "矢口",
    "town_kana": "ヤコウ",
    "street": null,
    "office_name": null,
    "office_name_kana": null
  },
  "1503": {
    "postcode": "2701503",
    "prefecture": "千葉県",
    "prefecture_kana": "チバケン",
    "prefecture_code": 12,
    "city": "印旛郡栄町",
    "city_kana": "インバグンサカエマチ",
    "town": "興津",
    "town_kana": "オキツ",
    "street": null,
    "office_name": null,
    "office_name_kana": null
  },
  "1504": {
    "postcode": "2701504",
    "prefecture": "千葉県",
    "prefecture_kana": "チバケン",
    "prefecture_code": 12,
    "city": "印旛郡栄町",
    "city_kana": "インバグンサカエマチ",
    "town": "麻生",
    "town_kana": "アソウ",
    "street": null,
    "office_name": null,
    "office_name_kana": null
  },
  "1505": {
    "postcode": "2701505",
    "prefecture": "千葉県",
    "prefecture_kana": "チバケン",
    "prefecture_code": 12,
    "city": "印旛郡栄町",
    "city_kana": "インバグンサカエマチ",
    "town": "竜角寺台",
    "town_kana": "リュウカクジダイ",
    "street": null,
    "office_name": null,
    "office_name_kana": null
  },
  "1506": {
    "postcode": "2701506",
    "prefecture": "千葉県",
    "prefecture_kana": "チバケン",
    "prefecture_code": 12,
    "city": "印旛郡栄町",
    "city_kana": "インバグンサカエマチ",
    "town": "龍角寺",
    "town_kana": "リュウカクジ",
    "street": null,
    "office_name": null,
    "office_name_kana": null
  },
  "1511": {
    "postcode": "2701511",
    "prefecture": "千葉県",
    "prefecture_kana": "チバケン",
    "prefecture_code": 12,
    "city": "印旛郡栄町",
    "city_kana": "インバグンサカエマチ",
    "town": "北辺田",
    "town_kana": "キタベタ",
    "street": null,
    "office_name": null,
    "office_name_kana": null
  },
  "1512": {
    "postcode": "2701512",
    "prefecture": "千葉県",
    "prefecture_kana": "チバケン",
    "prefecture_code": 12,
    "city": "印旛郡栄町",
    "city_kana": "インバグンサカエマチ",
    "town": "須賀",
    "town_kana": "スカ",
    "street": null,
    "office_name": null,
    "office_name_kana": null
  },
  "1513": {
    "postcode": "2701513",
    "prefecture": "千葉県",
    "prefecture_kana": "チバケン",
    "prefecture_code": 12,
    "city": "印旛郡栄町",
    "city_kana": "インバグンサカエマチ",
    "town": "酒直",
    "town_kana": "サカナオ",
    "street": null,
    "office_name": null,
    "office_name_kana": null
  },
  "1514": {
    "postcode": "2701514",
    "prefecture": "千葉県",
    "prefecture_kana": "チバケン",
    "prefecture_code": 12,
    "city": "印旛郡栄町",
    "city_kana": "インバグンサカエマチ",
    "town": "酒直台",
    "town_kana": "サカナオダイ",
    "street": null,
    "office_name": null,
    "office_name_kana": null
  },
  "1515": {
    "postcode": "2701515",
    "prefecture": "千葉県",
    "prefecture_kana": "チバケン",
    "prefecture_code": 12,
    "city": "印旛郡栄町",
    "city_kana": "インバグンサカエマチ",
    "town": "安食台",
    "town_kana": "アジキダイ",
    "street": null,
    "office_name": null,
    "office_name_kana": null
  },
  "1516": {
    "postcode": "2701516",
    "prefecture": "千葉県",
    "prefecture_kana": "チバケン",
    "prefecture_code": 12,
    "city": "印旛郡栄町",
    "city_kana": "インバグンサカエマチ",
    "town": "安食",
    "town_kana": "アジキ",
    "street": null,
    "office_name": null,
    "office_name_kana": null
  },
  "1517": {
    "postcode": "2701517",
    "prefecture": "千葉県",
    "prefecture_kana": "チバケン",
    "prefecture_code": 12,
    "city": "印旛郡栄町",
    "city_kana": "インバグンサカエマチ",
    "town": "安食卜杭新田",
    "town_kana": "アジキボツクイシンデン",
    "street": null,
    "office_name": null,
    "office_name_kana": null
  },
  "1521": {
    "postcode": "2701521",
    "prefecture": "千葉県",
    "prefecture_kana": "チバケン",
    "prefecture_code": 12,
    "city": "印旛郡栄町",
    "city_kana": "インバグンサカエマチ",
    "town": "和田",
    "town_kana": "ワダ",
    "street": null,
    "office_name": null,
    "office_name_kana": null
  },
  "1522": {
    "postcode": "2701522",
    "prefecture": "千葉県",
    "prefecture_kana": "チバケン",
    "prefecture_code": 12,
    "city": "印旛郡栄町",
    "city_kana": "インバグンサカエマチ",
    "town": "布鎌酒直",
    "town_kana": "フカマサカナオ",
    "street": null,
    "office_name": null,
    "office_name_kana": null
  },
  "1523": {
    "postcode": "2701523",
    "prefecture": "千葉県",
    "prefecture_kana": "チバケン",
    "prefecture_code": 12,
    "city": "印旛郡栄町",
    "city_kana": "インバグンサカエマチ",
    "town": "脇川",
    "town_kana": "ワキカワ",
    "street": null,
    "office_name": null,
    "office_name_kana": null
  },
  "1524": {
    "postcode": "2701524",
    "prefecture": "千葉県",
    "prefecture_kana": "チバケン",
    "prefecture_code": 12,
    "city": "印旛郡栄町",
    "city_kana": "インバグンサカエマチ",
    "town": "長門谷",
    "town_kana": "ナガトヤ",
    "street": null,
    "office_name": null,
    "office_name_kana": null
  },
  "1525": {
    "postcode": "2701525",
    "prefecture": "千葉県",
    "prefecture_kana": "チバケン",
    "prefecture_code": 12,
    "city": "印旛郡栄町",
    "city_kana": "インバグンサカエマチ",
    "town": "四箇",
    "town_kana": "シカ",
    "street": null,
    "office_name": null,
    "office_name_kana": null
  },
  "1526": {
    "postcode": "2701526",
    "prefecture": "千葉県",
    "prefecture_kana": "チバケン",
    "prefecture_code": 12,
    "city": "印旛郡栄町",
    "city_kana": "インバグンサカエマチ",
    "town": "大森",
    "town_kana": "オオモリ",
    "street": null,
    "office_name": null,
    "office_name_kana": null
  },
  "1527": {
    "postcode": "2701527",
    "prefecture": "千葉県",
    "prefecture_kana": "チバケン",
    "prefecture_code": 12,
    "city": "印旛郡栄町",
    "city_kana": "インバグンサカエマチ",
    "town": "押付",
    "town_kana": "オシツケ",
    "street": null,
    "office_name": null,
    "office_name_kana": null
  },
  "1531": {
    "postcode": "2701531",
    "prefecture": "千葉県",
    "prefecture_kana": "チバケン",
    "prefecture_code": 12,
    "city": "印旛郡栄町",
    "city_kana": "インバグンサカエマチ",
    "town": "曽根",
    "town_kana": "ソネ",
    "street": null,
    "office_name": null,
    "office_name_kana": null
  },
  "1532": {
    "postcode": "2701532",
    "prefecture": "千葉県",
    "prefecture_kana": "チバケン",
    "prefecture_code": 12,
    "city": "印旛郡栄町",
    "city_kana": "インバグンサカエマチ",
    "town": "南",
    "town_kana": "ミナミ",
    "street": null,
    "office_name": null,
    "office_name_kana": null
  },
  "1533": {
    "postcode": "2701533",
    "prefecture": "千葉県",
    "prefecture_kana": "チバケン",
    "prefecture_code": 12,
    "city": "印旛郡栄町",
    "city_kana": "インバグンサカエマチ",
    "town": "南ケ丘",
    "town_kana": "ミナミガオカ",
    "street": null,
    "office_name": null,
    "office_name_kana": null
  },
  "1534": {
    "postcode": "2701534",
    "prefecture": "千葉県",
    "prefecture_kana": "チバケン",
    "prefecture_code": 12,
    "city": "印旛郡栄町",
    "city_kana": "インバグンサカエマチ",
    "town": "西",
    "town_kana": "ニシ",
    "street": null,
    "office_name": null,
    "office_name_kana": null
  },
  "1535": {
    "postcode": "2701535",
    "prefecture": "千葉県",
    "prefecture_kana": "チバケン",
    "prefecture_code": 12,
    "city": "印旛郡栄町",
    "city_kana": "インバグンサカエマチ",
    "town": "布太",
    "town_kana": "フダ",
    "street": null,
    "office_name": null,
    "office_name_kana": null
  },
  "1536": {
    "postcode": "2701536",
    "prefecture": "千葉県",
    "prefecture_kana": "チバケン",
    "prefecture_code": 12,
    "city": "印旛郡栄町",
    "city_kana": "インバグンサカエマチ",
    "town": "三和",
    "town_kana": "ミワ",
    "street": null,
    "office_name": null,
    "office_name_kana": null
  },
  "1541": {
    "postcode": "2701541",
    "prefecture": "千葉県",
    "prefecture_kana": "チバケン",
    "prefecture_code": 12,
    "city": "印旛郡栄町",
    "city_kana": "インバグンサカエマチ",
    "town": "龍ケ崎町歩",
    "town_kana": "リュウガサキチョウブ",
    "street": null,
    "office_name": null,
    "office_name_kana": null
  },
  "1542": {
    "postcode": "2701542",
    "prefecture": "千葉県",
    "prefecture_kana": "チバケン",
    "prefecture_code": 12,
    "city": "印旛郡栄町",
    "city_kana": "インバグンサカエマチ",
    "town": "四ッ谷",
    "town_kana": "ヨツヤ",
    "street": null,
    "office_name": null,
    "office_name_kana": null
  },
  "1543": {
    "postcode": "2701543",
    "prefecture": "千葉県",
    "prefecture_kana": "チバケン",
    "prefecture_code": 12,
    "city": "印旛郡栄町",
    "city_kana": "インバグンサカエマチ",
    "town": "請方",
    "town_kana": "ウケカタ",
    "street": null,
    "office_name": null,
    "office_name_kana": null
  },
  "1544": {
    "postcode": "2701544",
    "prefecture": "千葉県",
    "prefecture_kana": "チバケン",
    "prefecture_code": 12,
    "city": "印旛郡栄町",
    "city_kana": "インバグンサカエマチ",
    "town": "中谷",
    "town_kana": "ナカヤ",
    "street": null,
    "office_name": null,
    "office_name_kana": null
  },
  "1545": {
    "postcode": "2701545",
    "prefecture": "千葉県",
    "prefecture_kana": "チバケン",
    "prefecture_code": 12,
    "city": "印旛郡栄町",
    "city_kana": "インバグンサカエマチ",
    "town": "北",
    "town_kana": "キタ",
    "street": null,
    "office_name": null,
    "office_name_kana": null
  },
  "1546": {
    "postcode": "2701546",
    "prefecture": "千葉県",
    "prefecture_kana": "チバケン",
    "prefecture_code": 12,
    "city": "印旛郡栄町",
    "city_kana": "インバグンサカエマチ",
    "town": "生板鍋子新田",
    "town_kana": "マナイタナベコシンデン",
    "street": null,
    "office_name": null,
    "office_name_kana": null
  },
  "1592": {
    "postcode": "2701592",
    "prefecture": "千葉県",
    "prefecture_kana": "チバケン",
    "prefecture_code": 12,
    "city": "印旛郡栄町",
    "city_kana": "インバグンサカエマチ",
    "town": "安食台",
    "town_kana": "アジキダイ",
    "street": "１丁目２番",
    "office_name": "栄町役場",
    "office_name_kana": "サカエマチヤクバ"
  },
  "1601": {
    "postcode": "2701601",
    "prefecture": "千葉県",
    "prefecture_kana": "チバケン",
    "prefecture_code": 12,
    "city": "印西市",
    "city_kana": "インザイシ",
    "town": "萩原",
    "town_kana": "ハギワラ",
    "street": null,
    "office_name": null,
    "office_name_kana": null
  },
  "1602": {
    "postcode": "2701602",
    "prefecture": "千葉県",
    "prefecture_kana": "チバケン",
    "prefecture_code": 12,
    "city": "印西市",
    "city_kana": "インザイシ",
    "town": "松虫",
    "town_kana": "マツムシ",
    "street": null,
    "office_name": null,
    "office_name_kana": null
  },
  "1603": {
    "postcode": "2701603",
    "prefecture": "千葉県",
    "prefecture_kana": "チバケン",
    "prefecture_code": 12,
    "city": "印西市",
    "city_kana": "インザイシ",
    "town": "吉高",
    "town_kana": "ヨシタカ",
    "street": null,
    "office_name": null,
    "office_name_kana": null
  },
  "1604": {
    "postcode": "2701604",
    "prefecture": "千葉県",
    "prefecture_kana": "チバケン",
    "prefecture_code": 12,
    "city": "印西市",
    "city_kana": "インザイシ",
    "town": "山田",
    "town_kana": "ヤマダ",
    "street": null,
    "office_name": null,
    "office_name_kana": null
  },
  "1605": {
    "postcode": "2701605",
    "prefecture": "千葉県",
    "prefecture_kana": "チバケン",
    "prefecture_code": 12,
    "city": "印西市",
    "city_kana": "インザイシ",
    "town": "平賀",
    "town_kana": "ヒラカ",
    "street": null,
    "office_name": null,
    "office_name_kana": null
  },
  "1606": {
    "postcode": "2701606",
    "prefecture": "千葉県",
    "prefecture_kana": "チバケン",
    "prefecture_code": 12,
    "city": "印西市",
    "city_kana": "インザイシ",
    "town": "平賀学園台",
    "town_kana": "ヒラカガクエンダイ",
    "street": null,
    "office_name": null,
    "office_name_kana": null
  },
  "1607": {
    "postcode": "2701607",
    "prefecture": "千葉県",
    "prefecture_kana": "チバケン",
    "prefecture_code": 12,
    "city": "印西市",
    "city_kana": "インザイシ",
    "town": "美瀬",
    "town_kana": "ミセ",
    "street": null,
    "office_name": null,
    "office_name_kana": null
  },
  "1608": {
    "postcode": "2701608",
    "prefecture": "千葉県",
    "prefecture_kana": "チバケン",
    "prefecture_code": 12,
    "city": "印西市",
    "city_kana": "インザイシ",
    "town": "舞姫",
    "town_kana": "マイヒメ",
    "street": null,
    "office_name": null,
    "office_name_kana": null
  },
  "1609": {
    "postcode": "2701609",
    "prefecture": "千葉県",
    "prefecture_kana": "チバケン",
    "prefecture_code": 12,
    "city": "印西市",
    "city_kana": "インザイシ",
    "town": "若萩",
    "town_kana": "ワカハギ",
    "street": null,
    "office_name": null,
    "office_name_kana": null
  },
  "1611": {
    "postcode": "2701611",
    "prefecture": "千葉県",
    "prefecture_kana": "チバケン",
    "prefecture_code": 12,
    "city": "印西市",
    "city_kana": "インザイシ",
    "town": "造谷",
    "town_kana": "ツクリヤ",
    "street": null,
    "office_name": null,
    "office_name_kana": null
  },
  "1612": {
    "postcode": "2701612",
    "prefecture": "千葉県",
    "prefecture_kana": "チバケン",
    "prefecture_code": 12,
    "city": "印西市",
    "city_kana": "インザイシ",
    "town": "大廻",
    "town_kana": "オオバ",
    "street": null,
    "office_name": null,
    "office_name_kana": null
  },
  "1613": {
    "postcode": "2701613",
    "prefecture": "千葉県",
    "prefecture_kana": "チバケン",
    "prefecture_code": 12,
    "city": "印西市",
    "city_kana": "インザイシ",
    "town": "鎌苅",
    "town_kana": "カマガリ",
    "street": null,
    "office_name": null,
    "office_name_kana": null
  },
  "1614": {
    "postcode": "2701614",
    "prefecture": "千葉県",
    "prefecture_kana": "チバケン",
    "prefecture_code": 12,
    "city": "印西市",
    "city_kana": "インザイシ",
    "town": "瀬戸",
    "town_kana": "セト",
    "street": null,
    "office_name": null,
    "office_name_kana": null
  },
  "1615": {
    "postcode": "2701615",
    "prefecture": "千葉県",
    "prefecture_kana": "チバケン",
    "prefecture_code": 12,
    "city": "印西市",
    "city_kana": "インザイシ",
    "town": "師戸",
    "town_kana": "モロト",
    "street": null,
    "office_name": null,
    "office_name_kana": null
  },
  "1616": {
    "postcode": "2701616",
    "prefecture": "千葉県",
    "prefecture_kana": "チバケン",
    "prefecture_code": 12,
    "city": "印西市",
    "city_kana": "インザイシ",
    "town": "岩戸",
    "town_kana": "イワト",
    "street": null,
    "office_name": null,
    "office_name_kana": null
  },
  "1617": {
    "postcode": "2701617",
    "prefecture": "千葉県",
    "prefecture_kana": "チバケン",
    "prefecture_code": 12,
    "city": "印西市",
    "city_kana": "インザイシ",
    "town": "吉田",
    "town_kana": "ヨシダ",
    "street": null,
    "office_name": null,
    "office_name_kana": null
  },
  "1618": {
    "postcode": "2701618",
    "prefecture": "千葉県",
    "prefecture_kana": "チバケン",
    "prefecture_code": 12,
    "city": "印西市",
    "city_kana": "インザイシ",
    "town": "つくりや台",
    "town_kana": "ツクリヤダイ",
    "street": null,
    "office_name": null,
    "office_name_kana": null
  },
  "1693": {
    "postcode": "2701693",
    "prefecture": "千葉県",
    "prefecture_kana": "チバケン",
    "prefecture_code": 12,
    "city": "印西市",
    "city_kana": "インザイシ",
    "town": "美瀬",
    "town_kana": "ミセ",
    "street": "一丁目２５番地",
    "office_name": "印西市役所　印旛支所",
    "office_name_kana": "インザイシヤクシヨ インバシシヨ"
  },
  "1694": {
    "postcode": "2701694",
    "prefecture": "千葉県",
    "prefecture_kana": "チバケン",
    "prefecture_code": 12,
    "city": "印西市",
    "city_kana": "インザイシ",
    "town": "鎌苅",
    "town_kana": "カマガリ",
    "street": "１７１５",
    "office_name": "日本医科大学　千葉北総病院",
    "office_name_kana": "ニホンイカダイガク チバホクソウビヨウイン"
  },
  "1695": {
    "postcode": "2701695",
    "prefecture": "千葉県",
    "prefecture_kana": "チバケン",
    "prefecture_code": 12,
    "city": "印西市",
    "city_kana": "インザイシ",
    "town": "平賀学園台",
    "town_kana": "ヒラカガクエンダイ",
    "street": "１丁目１",
    "office_name": "順天堂大学",
    "office_name_kana": "ジユンテンドウダイガク"
  },
  "2201": {
    "postcode": "2702201",
    "prefecture": "千葉県",
    "prefecture_kana": "チバケン",
    "prefecture_code": 12,
    "city": "松戸市",
    "city_kana": "マツドシ",
    "town": "高柳新田",
    "town_kana": "タカヤナギシンデン",
    "street": null,
    "office_name": null,
    "office_name_kana": null
  },
  "2202": {
    "postcode": "2702202",
    "prefecture": "千葉県",
    "prefecture_kana": "チバケン",
    "prefecture_code": 12,
    "city": "松戸市",
    "city_kana": "マツドシ",
    "town": "高柳",
    "town_kana": "タカヤナギ",
    "street": null,
    "office_name": null,
    "office_name_kana": null
  },
  "2203": {
    "postcode": "2702203",
    "prefecture": "千葉県",
    "prefecture_kana": "チバケン",
    "prefecture_code": 12,
    "city": "松戸市",
    "city_kana": "マツドシ",
    "town": "六高台",
    "town_kana": "ロッコウダイ",
    "street": null,
    "office_name": null,
    "office_name_kana": null
  },
  "2204": {
    "postcode": "2702204",
    "prefecture": "千葉県",
    "prefecture_kana": "チバケン",
    "prefecture_code": 12,
    "city": "松戸市",
    "city_kana": "マツドシ",
    "town": "六実",
    "town_kana": "ムツミ",
    "street": null,
    "office_name": null,
    "office_name_kana": null
  },
  "2205": {
    "postcode": "2702205",
    "prefecture": "千葉県",
    "prefecture_kana": "チバケン",
    "prefecture_code": 12,
    "city": "松戸市",
    "city_kana": "マツドシ",
    "town": "六高台西",
    "town_kana": "ロッコウダイニシ",
    "street": null,
    "office_name": null,
    "office_name_kana": null
  },
  "2211": {
    "postcode": "2702211",
    "prefecture": "千葉県",
    "prefecture_kana": "チバケン",
    "prefecture_code": 12,
    "city": "松戸市",
    "city_kana": "マツドシ",
    "town": "五香六実",
    "town_kana": "ゴコウムツミ",
    "street": null,
    "office_name": null,
    "office_name_kana": null
  },
  "2212": {
    "postcode": "2702212",
    "prefecture": "千葉県",
    "prefecture_kana": "チバケン",
    "prefecture_code": 12,
    "city": "松戸市",
    "city_kana": "マツドシ",
    "town": "五香南",
    "town_kana": "ゴコウミナミ",
    "street": null,
    "office_name": null,
    "office_name_kana": null
  },
  "2213": {
    "postcode": "2702213",
    "prefecture": "千葉県",
    "prefecture_kana": "チバケン",
    "prefecture_code": 12,
    "city": "松戸市",
    "city_kana": "マツドシ",
    "town": "五香",
    "town_kana": "ゴコウ",
    "street": null,
    "office_name": null,
    "office_name_kana": null
  },
  "2214": {
    "postcode": "2702214",
    "prefecture": "千葉県",
    "prefecture_kana": "チバケン",
    "prefecture_code": 12,
    "city": "松戸市",
    "city_kana": "マツドシ",
    "town": "松飛台",
    "town_kana": "マツヒダイ",
    "street": null,
    "office_name": null,
    "office_name_kana": null
  },
  "2215": {
    "postcode": "2702215",
    "prefecture": "千葉県",
    "prefecture_kana": "チバケン",
    "prefecture_code": 12,
    "city": "松戸市",
    "city_kana": "マツドシ",
    "town": "串崎南町",
    "town_kana": "クシザキミナミチョウ",
    "street": null,
    "office_name": null,
    "office_name_kana": null
  },
  "2216": {
    "postcode": "2702216",
    "prefecture": "千葉県",
    "prefecture_kana": "チバケン",
    "prefecture_code": 12,
    "city": "松戸市",
    "city_kana": "マツドシ",
    "town": "串崎新田",
    "town_kana": "クシザキシンデン",
    "street": null,
    "office_name": null,
    "office_name_kana": null
  },
  "2217": {
    "postcode": "2702217",
    "prefecture": "千葉県",
    "prefecture_kana": "チバケン",
    "prefecture_code": 12,
    "city": "松戸市",
    "city_kana": "マツドシ",
    "town": "初富飛地",
    "town_kana": "ハツトミトビチ",
    "street": null,
    "office_name": null,
    "office_name_kana": null
  },
  "2218": {
    "postcode": "2702218",
    "prefecture": "千葉県",
    "prefecture_kana": "チバケン",
    "prefecture_code": 12,
    "city": "松戸市",
    "city_kana": "マツドシ",
    "town": "五香西",
    "town_kana": "ゴコウニシ",
    "street": null,
    "office_name": null,
    "office_name_kana": null
  },
  "2221": {
    "postcode": "2702221",
    "prefecture": "千葉県",
    "prefecture_kana": "チバケン",
    "prefecture_code": 12,
    "city": "松戸市",
    "city_kana": "マツドシ",
    "town": "紙敷",
    "town_kana": "カミシキ",
    "street": null,
    "office_name": null,
    "office_name_kana": null
  },
  "2222": {
    "postcode": "2702222",
    "prefecture": "千葉県",
    "prefecture_kana": "チバケン",
    "prefecture_code": 12,
    "city": "松戸市",
    "city_kana": "マツドシ",
    "town": "高塚新田",
    "town_kana": "タカツカシンデン",
    "street": null,
    "office_name": null,
    "office_name_kana": null
  },
  "2223": {
    "postcode": "2702223",
    "prefecture": "千葉県",
    "prefecture_kana": "チバケン",
    "prefecture_code": 12,
    "city": "松戸市",
    "city_kana": "マツドシ",
    "town": "秋山",
    "town_kana": "アキヤマ",
    "street": null,
    "office_name": null,
    "office_name_kana": null
  },
  "2224": {
    "postcode": "2702224",
    "prefecture": "千葉県",
    "prefecture_kana": "チバケン",
    "prefecture_code": 12,
    "city": "松戸市",
    "city_kana": "マツドシ",
    "town": "大橋",
    "town_kana": "オオハシ",
    "street": null,
    "office_name": null,
    "office_name_kana": null
  },
  "2225": {
    "postcode": "2702225",
    "prefecture": "千葉県",
    "prefecture_kana": "チバケン",
    "prefecture_code": 12,
    "city": "松戸市",
    "city_kana": "マツドシ",
    "town": "東松戸",
    "town_kana": "ヒガシマツド",
    "street": null,
    "office_name": null,
    "office_name_kana": null
  },
  "2231": {
    "postcode": "2702231",
    "prefecture": "千葉県",
    "prefecture_kana": "チバケン",
    "prefecture_code": 12,
    "city": "松戸市",
    "city_kana": "マツドシ",
    "town": "稔台",
    "town_kana": "ミノリダイ",
    "street": null,
    "office_name": null,
    "office_name_kana": null
  },
  "2232": {
    "postcode": "2702232",
    "prefecture": "千葉県",
    "prefecture_kana": "チバケン",
    "prefecture_code": 12,
    "city": "松戸市",
    "city_kana": "マツドシ",
    "town": "和名ケ谷",
    "town_kana": "ワナガヤ",
    "street": null,
    "office_name": null,
    "office_name_kana": null
  },
  "2241": {
    "postcode": "2702241",
    "prefecture": "千葉県",
    "prefecture_kana": "チバケン",
    "prefecture_code": 12,
    "city": "松戸市",
    "city_kana": "マツドシ",
    "town": "松戸新田",
    "town_kana": "マツドシンデン",
    "street": null,
    "office_name": null,
    "office_name_kana": null
  },
  "2242": {
    "postcode": "2702242",
    "prefecture": "千葉県",
    "prefecture_kana": "チバケン",
    "prefecture_code": 12,
    "city": "松戸市",
    "city_kana": "マツドシ",
    "town": "仲井町",
    "town_kana": "ナカイチョウ",
    "street": null,
    "office_name": null,
    "office_name_kana": null
  },
  "2243": {
    "postcode": "2702243",
    "prefecture": "千葉県",
    "prefecture_kana": "チバケン",
    "prefecture_code": 12,
    "city": "松戸市",
    "city_kana": "マツドシ",
    "town": "野菊野",
    "town_kana": "ノギクノ",
    "street": null,
    "office_name": null,
    "office_name_kana": null
  },
  "2251": {
    "postcode": "2702251",
    "prefecture": "千葉県",
    "prefecture_kana": "チバケン",
    "prefecture_code": 12,
    "city": "松戸市",
    "city_kana": "マツドシ",
    "town": "金ケ作",
    "town_kana": "カネガサク",
    "street": null,
    "office_name": null,
    "office_name_kana": null
  },
  "2252": {
    "postcode": "2702252",
    "prefecture": "千葉県",
    "prefecture_kana": "チバケン",
    "prefecture_code": 12,
    "city": "松戸市",
    "city_kana": "マツドシ",
    "town": "千駄堀",
    "town_kana": "センダボリ",
    "street": null,
    "office_name": null,
    "office_name_kana": null
  },
  "2253": {
    "postcode": "2702253",
    "prefecture": "千葉県",
    "prefecture_kana": "チバケン",
    "prefecture_code": 12,
    "city": "松戸市",
    "city_kana": "マツドシ",
    "town": "日暮",
    "town_kana": "ヒグラシ",
    "street": null,
    "office_name": null,
    "office_name_kana": null
  },
  "2254": {
    "postcode": "2702254",
    "prefecture": "千葉県",
    "prefecture_kana": "チバケン",
    "prefecture_code": 12,
    "city": "松戸市",
    "city_kana": "マツドシ",
    "town": "河原塚",
    "town_kana": "カワラヅカ",
    "street": null,
    "office_name": null,
    "office_name_kana": null
  },
  "2255": {
    "postcode": "2702255",
    "prefecture": "千葉県",
    "prefecture_kana": "チバケン",
    "prefecture_code": 12,
    "city": "松戸市",
    "city_kana": "マツドシ",
    "town": "田中新田",
    "town_kana": "タナカシンデン",
    "street": null,
    "office_name": null,
    "office_name_kana": null
  },
  "2261": {
    "postcode": "2702261",
    "prefecture": "千葉県",
    "prefecture_kana": "チバケン",
    "prefecture_code": 12,
    "city": "松戸市",
    "city_kana": "マツドシ",
    "town": "常盤平",
    "town_kana": "トキワダイラ",
    "street": null,
    "office_name": null,
    "office_name_kana": null
  },
  "2262": {
    "postcode": "2702262",
    "prefecture": "千葉県",
    "prefecture_kana": "チバケン",
    "prefecture_code": 12,
    "city": "松戸市",
    "city_kana": "マツドシ",
    "town": "常盤平双葉町",
    "town_kana": "トキワダイラフタバチョウ",
    "street": null,
    "office_name": null,
    "office_name_kana": null
  },
  "2263": {
    "postcode": "2702263",
    "prefecture": "千葉県",
    "prefecture_kana": "チバケン",
    "prefecture_code": 12,
    "city": "松戸市",
    "city_kana": "マツドシ",
    "town": "常盤平柳町",
    "town_kana": "トキワダイラヤナギチョウ",
    "street": null,
    "office_name": null,
    "office_name_kana": null
  },
  "2264": {
    "postcode": "2702264",
    "prefecture": "千葉県",
    "prefecture_kana": "チバケン",
    "prefecture_code": 12,
    "city": "松戸市",
    "city_kana": "マツドシ",
    "town": "常盤平松葉町",
    "town_kana": "トキワダイラマツバチョウ",
    "street": null,
    "office_name": null,
    "office_name_kana": null
  },
  "2265": {
    "postcode": "2702265",
    "prefecture": "千葉県",
    "prefecture_kana": "チバケン",
    "prefecture_code": 12,
    "city": "松戸市",
    "city_kana": "マツドシ",
    "town": "常盤平陣屋前",
    "town_kana": "トキワダイラジンヤマエ",
    "street": null,
    "office_name": null,
    "office_name_kana": null
  },
  "2266": {
    "postcode": "2702266",
    "prefecture": "千葉県",
    "prefecture_kana": "チバケン",
    "prefecture_code": 12,
    "city": "松戸市",
    "city_kana": "マツドシ",
    "town": "常盤平西窪町",
    "town_kana": "トキワダイラニシクボチョウ",
    "street": null,
    "office_name": null,
    "office_name_kana": null
  },
  "2267": {
    "postcode": "2702267",
    "prefecture": "千葉県",
    "prefecture_kana": "チバケン",
    "prefecture_code": 12,
    "city": "松戸市",
    "city_kana": "マツドシ",
    "town": "牧の原",
    "town_kana": "マキノハラ",
    "street": null,
    "office_name": null,
    "office_name_kana": null
  },
  "2280": {
    "postcode": "2702280",
    "prefecture": "千葉県",
    "prefecture_kana": "チバケン",
    "prefecture_code": 12,
    "city": "松戸市",
    "city_kana": "マツドシ",
    "town": "松飛台",
    "town_kana": "マツヒダイ",
    "street": "４３０",
    "office_name": "マブチモーター　株式会社",
    "office_name_kana": "マブチモ-タ- カブシキガイシヤ"
  },
  "2288": {
    "postcode": "2702288",
    "prefecture": "千葉県",
    "prefecture_kana": "チバケン",
    "prefecture_code": 12,
    "city": "松戸市",
    "city_kana": "マツドシ",
    "town": "五香六実",
    "town_kana": "ゴコウムツミ",
    "street": "１７",
    "office_name": "陸上自衛隊　松戸駐屯地",
    "office_name_kana": "リクジヨウジエイタイ マツドチユウトンチ"
  },
  "2292": {
    "postcode": "2702292",
    "prefecture": "千葉県",
    "prefecture_kana": "チバケン",
    "prefecture_code": 12,
    "city": "松戸市",
    "city_kana": "マツドシ",
    "town": "秋山",
    "town_kana": "アキヤマ",
    "street": "８６",
    "office_name": "よしざわ　株式会社",
    "office_name_kana": "ヨシザワ カブシキガイシヤ"
  },
  "2293": {
    "postcode": "2702293",
    "prefecture": "千葉県",
    "prefecture_kana": "チバケン",
    "prefecture_code": 12,
    "city": "松戸市",
    "city_kana": "マツドシ",
    "town": "稔台",
    "town_kana": "ミノリダイ",
    "street": "５丁目１−１",
    "office_name": "ＪＰ楽天ロジスティクス　株式会社　楽天フルフィルメントセンター松戸",
    "office_name_kana": "ジエイピ-ラクテンロジステイクス カブシキガイシヤ ラクテンフルフイルメントセンタ-マツド"
  },
  "2295": {
    "postcode": "2702295",
    "prefecture": "千葉県",
    "prefecture_kana": "チバケン",
    "prefecture_code": 12,
    "city": "松戸市",
    "city_kana": "マツドシ",
    "town": "稔台",
    "town_kana": "ミノリダイ",
    "street": "５丁目２−１",
    "office_name": "日立粉末冶金　株式会社",
    "office_name_kana": "ヒタチフンマツヤキン カブシキガイシヤ"
  },
  "2296": {
    "postcode": "2702296",
    "prefecture": "千葉県",
    "prefecture_kana": "チバケン",
    "prefecture_code": 12,
    "city": "松戸市",
    "city_kana": "マツドシ",
    "town": "千駄堀",
    "town_kana": "センダボリ",
    "street": "９９３番地の１",
    "office_name": "松戸市立総合医療センター",
    "office_name_kana": "マツドシリツソウゴウイリヨウセンタ-"
  },
  "2297": {
    "postcode": "2702297",
    "prefecture": "千葉県",
    "prefecture_kana": "チバケン",
    "prefecture_code": 12,
    "city": "松戸市",
    "city_kana": "マツドシ",
    "town": "稔台",
    "town_kana": "ミノリダイ",
    "street": "３１０",
    "office_name": "株式会社　吉野工業所　松戸工場",
    "office_name_kana": "カブシキガイシヤ ヨシノコウギヨウシヨ マツドコウジヨウ"
  },
  "2298": {
    "postcode": "2702298",
    "prefecture": "千葉県",
    "prefecture_kana": "チバケン",
    "prefecture_code": 12,
    "city": "松戸市",
    "city_kana": "マツドシ",
    "town": "高塚新田",
    "town_kana": "タカツカシンデン",
    "street": "１２３−１",
    "office_name": "ウェル・エイジングプラザ松戸ニッセイエデンの園",
    "office_name_kana": "ウエル・エイジングプラザマツドニツセイエデンノソノ"
  },
  "2301": {
    "postcode": "2702301",
    "prefecture": "千葉県",
    "prefecture_kana": "チバケン",
    "prefecture_code": 12,
    "city": "印西市",
    "city_kana": "インザイシ",
    "town": "将監",
    "town_kana": "ショウゲン",
    "street": null,
    "office_name": null,
    "office_name_kana": null
  },
  "2302": {
    "postcode": "2702302",
    "prefecture": "千葉県",
    "prefecture_kana": "チバケン",
    "prefecture_code": 12,
    "city": "印西市",
    "city_kana": "インザイシ",
    "town": "安食卜杭",
    "town_kana": "アジキボックイ",
    "street": null,
    "office_name": null,
    "office_name_kana": null
  },
  "2303": {
    "postcode": "2702303",
    "prefecture": "千葉県",
    "prefecture_kana": "チバケン",
    "prefecture_code": 12,
    "city": "印西市",
    "city_kana": "インザイシ",
    "town": "酒直卜杭",
    "town_kana": "サカナオボックイ",
    "street": null,
    "office_name": null,
    "office_name_kana": null
  },
  "2304": {
    "postcode": "2702304",
    "prefecture": "千葉県",
    "prefecture_kana": "チバケン",
    "prefecture_code": 12,
    "city": "印西市",
    "city_kana": "インザイシ",
    "town": "甚兵衛",
    "town_kana": "ジンベエ",
    "street": null,
    "office_name": null,
    "office_name_kana": null
  },
  "2305": {
    "postcode": "2702305",
    "prefecture": "千葉県",
    "prefecture_kana": "チバケン",
    "prefecture_code": 12,
    "city": "印西市",
    "city_kana": "インザイシ",
    "town": "佐野屋",
    "town_kana": "サノヤ",
    "street": null,
    "office_name": null,
    "office_name_kana": null
  },
  "2306": {
    "postcode": "2702306",
    "prefecture": "千葉県",
    "prefecture_kana": "チバケン",
    "prefecture_code": 12,
    "city": "印西市",
    "city_kana": "インザイシ",
    "town": "中田切",
    "town_kana": "ナカタギリ",
    "street": null,
    "office_name": null,
    "office_name_kana": null
  },
  "2307": {
    "postcode": "2702307",
    "prefecture": "千葉県",
    "prefecture_kana": "チバケン",
    "prefecture_code": 12,
    "city": "印西市",
    "city_kana": "インザイシ",
    "town": "松木",
    "town_kana": "マツキ",
    "street": null,
    "office_name": null,
    "office_name_kana": null
  },
  "2308": {
    "postcode": "2702308",
    "prefecture": "千葉県",
    "prefecture_kana": "チバケン",
    "prefecture_code": 12,
    "city": "印西市",
    "city_kana": "インザイシ",
    "town": "本埜小林",
    "town_kana": "モトノコバヤシ",
    "street": null,
    "office_name": null,
    "office_name_kana": null
  },
  "2311": {
    "postcode": "2702311",
    "prefecture": "千葉県",
    "prefecture_kana": "チバケン",
    "prefecture_code": 12,
    "city": "印西市",
    "city_kana": "インザイシ",
    "town": "萩埜",
    "town_kana": "ハギノ",
    "street": null,
    "office_name": null,
    "office_name_kana": null
  },
  "2312": {
    "postcode": "2702312",
    "prefecture": "千葉県",
    "prefecture_kana": "チバケン",
    "prefecture_code": 12,
    "city": "印西市",
    "city_kana": "インザイシ",
    "town": "長門屋",
    "town_kana": "ナガトヤ",
    "street": null,
    "office_name": null,
    "office_name_kana": null
  },
  "2313": {
    "postcode": "2702313",
    "prefecture": "千葉県",
    "prefecture_kana": "チバケン",
    "prefecture_code": 12,
    "city": "印西市",
    "city_kana": "インザイシ",
    "town": "下井",
    "town_kana": "シモイ",
    "street": null,
    "office_name": null,
    "office_name_kana": null
  },
  "2314": {
    "postcode": "2702314",
    "prefecture": "千葉県",
    "prefecture_kana": "チバケン",
    "prefecture_code": 12,
    "city": "印西市",
    "city_kana": "インザイシ",
    "town": "桜野",
    "town_kana": "サクラノ",
    "street": null,
    "office_name": null,
    "office_name_kana": null
  },
  "2315": {
    "postcode": "2702315",
    "prefecture": "千葉県",
    "prefecture_kana": "チバケン",
    "prefecture_code": 12,
    "city": "印西市",
    "city_kana": "インザイシ",
    "town": "中",
    "town_kana": "ナカ",
    "street": null,
    "office_name": null,
    "office_name_kana": null
  },
  "2316": {
    "postcode": "2702316",
    "prefecture": "千葉県",
    "prefecture_kana": "チバケン",
    "prefecture_code": 12,
    "city": "印西市",
    "city_kana": "インザイシ",
    "town": "行徳",
    "town_kana": "ギョウトク",
    "street": null,
    "office_name": null,
    "office_name_kana": null
  },
  "2317": {
    "postcode": "2702317",
    "prefecture": "千葉県",
    "prefecture_kana": "チバケン",
    "prefecture_code": 12,
    "city": "印西市",
    "city_kana": "インザイシ",
    "town": "下曽根",
    "town_kana": "シモゾネ",
    "street": null,
    "office_name": null,
    "office_name_kana": null
  },
  "2318": {
    "postcode": "2702318",
    "prefecture": "千葉県",
    "prefecture_kana": "チバケン",
    "prefecture_code": 12,
    "city": "印西市",
    "city_kana": "インザイシ",
    "town": "押付",
    "town_kana": "オシツケ",
    "street": null,
    "office_name": null,
    "office_name_kana": null
  },
  "2319": {
    "postcode": "2702319",
    "prefecture": "千葉県",
    "prefecture_kana": "チバケン",
    "prefecture_code": 12,
    "city": "印西市",
    "city_kana": "インザイシ",
    "town": "川向",
    "town_kana": "カワムカイ",
    "street": null,
    "office_name": null,
    "office_name_kana": null
  },
  "2321": {
    "postcode": "2702321",
    "prefecture": "千葉県",
    "prefecture_kana": "チバケン",
    "prefecture_code": 12,
    "city": "印西市",
    "city_kana": "インザイシ",
    "town": "物木",
    "town_kana": "モノキ",
    "street": null,
    "office_name": null,
    "office_name_kana": null
  },
  "2322": {
    "postcode": "2702322",
    "prefecture": "千葉県",
    "prefecture_kana": "チバケン",
    "prefecture_code": 12,
    "city": "印西市",
    "city_kana": "インザイシ",
    "town": "笠神",
    "town_kana": "カサガミ",
    "street": null,
    "office_name": null,
    "office_name_kana": null
  },
  "2323": {
    "postcode": "2702323",
    "prefecture": "千葉県",
    "prefecture_kana": "チバケン",
    "prefecture_code": 12,
    "city": "印西市",
    "city_kana": "インザイシ",
    "town": "和泉屋",
    "town_kana": "イズミヤ",
    "street": null,
    "office_name": null,
    "office_name_kana": null
  },
  "2324": {
    "postcode": "2702324",
    "prefecture": "千葉県",
    "prefecture_kana": "チバケン",
    "prefecture_code": 12,
    "city": "印西市",
    "city_kana": "インザイシ",
    "town": "中根",
    "town_kana": "ナカネ",
    "street": null,
    "office_name": null,
    "office_name_kana": null
  },
  "2325": {
    "postcode": "2702325",
    "prefecture": "千葉県",
    "prefecture_kana": "チバケン",
    "prefecture_code": 12,
    "city": "印西市",
    "city_kana": "インザイシ",
    "town": "角田",
    "town_kana": "ツノダ",
    "street": null,
    "office_name": null,
    "office_name_kana": null
  },
  "2326": {
    "postcode": "2702326",
    "prefecture": "千葉県",
    "prefecture_kana": "チバケン",
    "prefecture_code": 12,
    "city": "印西市",
    "city_kana": "インザイシ",
    "town": "荒野",
    "town_kana": "コウヤ",
    "street": null,
    "office_name": null,
    "office_name_kana": null
  },
  "2327": {
    "postcode": "2702327",
    "prefecture": "千葉県",
    "prefecture_kana": "チバケン",
    "prefecture_code": 12,
    "city": "印西市",
    "city_kana": "インザイシ",
    "town": "竜腹寺",
    "town_kana": "リュウフクジ",
    "street": null,
    "office_name": null,
    "office_name_kana": null
  },
  "2328": {
    "postcode": "2702328",
    "prefecture": "千葉県",
    "prefecture_kana": "チバケン",
    "prefecture_code": 12,
    "city": "印西市",
    "city_kana": "インザイシ",
    "town": "滝",
    "town_kana": "タキ",
    "street": null,
    "office_name": null,
    "office_name_kana": null
  },
  "2329": {
    "postcode": "2702329",
    "prefecture": "千葉県",
    "prefecture_kana": "チバケン",
    "prefecture_code": 12,
    "city": "印西市",
    "city_kana": "インザイシ",
    "town": "滝野",
    "town_kana": "タキノ",
    "street": null,
    "office_name": null,
    "office_name_kana": null
  },
  "2331": {
    "postcode": "2702331",
    "prefecture": "千葉県",
    "prefecture_kana": "チバケン",
    "prefecture_code": 12,
    "city": "印西市",
    "city_kana": "インザイシ",
    "town": "みどり台",
    "town_kana": "ミドリダイ",
    "street": null,
    "office_name": null,
    "office_name_kana": null
  },
  "2392": {
    "postcode": "2702392",
    "prefecture": "千葉県",
    "prefecture_kana": "チバケン",
    "prefecture_code": 12,
    "city": "印西市",
    "city_kana": "インザイシ",
    "town": "笠神",
    "town_kana": "カサガミ",
    "street": "２５８７番地",
    "office_name": "印西市役所　本埜支所",
    "office_name_kana": "インザイシヤクシヨ モトノシシヨ"
  },
  "2393": {
    "postcode": "2702393",
    "prefecture": "千葉県",
    "prefecture_kana": "チバケン",
    "prefecture_code": 12,
    "city": "印西市",
    "city_kana": "インザイシ",
    "town": "竜腹寺",
    "town_kana": "リュウフクジ",
    "street": "２８０",
    "office_name": "マブチモーター",
    "office_name_kana": "マブチモ-タ-"
  },
  "8501": {
    "postcode": "2708501",
    "prefecture": "千葉県",
    "prefecture_kana": "チバケン",
    "prefecture_code": 12,
    "city": "松戸市",
    "city_kana": "マツドシ",
    "town": "新松戸東",
    "town_kana": "シンマツドヒガシ",
    "street": "９−１",
    "office_name": "株式会社　マツモトキヨシ",
    "office_name_kana": "カブシキガイシヤ マツモトキヨシ"
  },
  "8511": {
    "postcode": "2708511",
    "prefecture": "千葉県",
    "prefecture_kana": "チバケン",
    "prefecture_code": 12,
    "city": "松戸市",
    "city_kana": "マツドシ",
    "town": "新松戸東",
    "town_kana": "シンマツドヒガシ",
    "street": "９−１",
    "office_name": "株式会社　マツモトキヨシホールディングス",
    "office_name_kana": "カブシキガイシヤ マツモトキヨシホ-ルデイングス"
  },
  "8521": {
    "postcode": "2708521",
    "prefecture": "千葉県",
    "prefecture_kana": "チバケン",
    "prefecture_code": 12,
    "city": "松戸市",
    "city_kana": "マツドシ",
    "town": "新松戸",
    "town_kana": "シンマツド",
    "street": "１丁目４８３番地",
    "office_name": "株式会社　マツモトキヨシホールディングス　本社別館",
    "office_name_kana": "カブシキガイシヤ マツモトキヨシホ-ルデイングス ホンシヤベツカン"
  },
  "8555": {
    "postcode": "2708555",
    "prefecture": "千葉県",
    "prefecture_kana": "チバケン",
    "prefecture_code": 12,
    "city": "松戸市",
    "city_kana": "マツドシ",
    "town": "新松戸",
    "town_kana": "シンマツド",
    "street": "３丁目２−１",
    "office_name": "流通経済大学",
    "office_name_kana": "リユウツウケイザイダイガク"
  }
}