{
  "0000": {
    "postcode": "2760000",
    "prefecture": "千葉県",
    "prefecture_kana": "チバケン",
    "prefecture_code": 12,
    "city": "八千代市",
    "city_kana": "ヤチヨシ",
    "town": "",
    "town_kana": "",
    "street": null,
    "office_name": null,
    "office_name_kana": null
  },
  "0001": {
    "postcode": "2760001",
    "prefecture": "千葉県",
    "prefecture_kana": "チバケン",
    "prefecture_code": 12,
    "city": "八千代市",
    "city_kana": "ヤチヨシ",
    "town": "小池",
    "town_kana": "コイケ",
    "street": null,
    "office_name": null,
    "office_name_kana": null
  },
  "0002": {
    "postcode": "2760002",
    "prefecture": "千葉県",
    "prefecture_kana": "チバケン",
    "prefecture_code": 12,
    "city": "八千代市",
    "city_kana": "ヤチヨシ",
    "town": "真木野",
    "town_kana": "マキノ",
    "street": null,
    "office_name": null,
    "office_name_kana": null
  },
  "0003": {
    "postcode": "2760003",
    "prefecture": "千葉県",
    "prefecture_kana": "チバケン",
    "prefecture_code": 12,
    "city": "八千代市",
    "city_kana": "ヤチヨシ",
    "town": "大学町",
    "town_kana": "ダイガクチョウ",
    "street": null,
    "office_name": null,
    "office_name_kana": null
  },
  "0004": {
    "postcode": "2760004",
    "prefecture": "千葉県",
    "prefecture_kana": "チバケン",
    "prefecture_code": 12,
    "city": "八千代市",
    "city_kana": "ヤチヨシ",
    "town": "島田台",
    "town_kana": "シマダダイ",
    "street": null,
    "office_name": null,
    "office_name_kana": null
  },
  "0005": {
    "postcode": "2760005",
    "prefecture": "千葉県",
    "prefecture_kana": "チバケン",
    "prefecture_code": 12,
    "city": "八千代市",
    "city_kana": "ヤチヨシ",
    "town": "島田",
    "town_kana": "シマダ",
    "street": null,
    "office_name": null,
    "office_name_kana": null
  },
  "0006": {
    "postcode": "2760006",
    "prefecture": "千葉県",
    "prefecture_kana": "チバケン",
    "prefecture_code": 12,
    "city": "八千代市",
    "city_kana": "ヤチヨシ",
    "town": "桑納",
    "town_kana": "カンノウ",
    "street": null,
    "office_name": null,
    "office_name_kana": null
  },
  "0007": {
    "postcode": "2760007",
    "prefecture": "千葉県",
    "prefecture_kana": "チバケン",
    "prefecture_code": 12,
    "city": "八千代市",
    "city_kana": "ヤチヨシ",
    "town": "桑橋",
    "town_kana": "ソウノハシ",
    "street": null,
    "office_name": null,
    "office_name_kana": null
  },
  "0008": {
    "postcode": "2760008",
    "prefecture": "千葉県",
    "prefecture_kana": "チバケン",
    "prefecture_code": 12,
    "city": "八千代市",
    "city_kana": "ヤチヨシ",
    "town": "神久保",
    "town_kana": "イモノクボ",
    "street": null,
    "office_name": null,
    "office_name_kana": null
  },
  "0011": {
    "postcode": "2760011",
    "prefecture": "千葉県",
    "prefecture_kana": "チバケン",
    "prefecture_code": 12,
    "city": "八千代市",
    "city_kana": "ヤチヨシ",
    "town": "佐山",
    "town_kana": "サヤマ",
    "street": null,
    "office_name": null,
    "office_name_kana": null
  },
  "0012": {
    "postcode": "2760012",
    "prefecture": "千葉県",
    "prefecture_kana": "チバケン",
    "prefecture_code": 12,
    "city": "八千代市",
    "city_kana": "ヤチヨシ",
    "town": "堀の内",
    "town_kana": "ホリノウチ",
    "street": null,
    "office_name": null,
    "office_name_kana": null
  },
  "0013": {
    "postcode": "2760013",
    "prefecture": "千葉県",
    "prefecture_kana": "チバケン",
    "prefecture_code": 12,
    "city": "八千代市",
    "city_kana": "ヤチヨシ",
    "town": "保品",
    "town_kana": "ホシナ",
    "street": null,
    "office_name": null,
    "office_name_kana": null
  },
  "0014": {
    "postcode": "2760014",
    "prefecture": "千葉県",
    "prefecture_kana": "チバケン",
    "prefecture_code": 12,
    "city": "八千代市",
    "city_kana": "ヤチヨシ",
    "town": "米本",
    "town_kana": "ヨナモト",
    "street": null,
    "office_name": null,
    "office_name_kana": null
  },
  "0015": {
    "postcode": "2760015",
    "prefecture": "千葉県",
    "prefecture_kana": "チバケン",
    "prefecture_code": 12,
    "city": "八千代市",
    "city_kana": "ヤチヨシ",
    "town": "米本",
    "town_kana": "ヨナモト",
    "street": null,
    "office_name": null,
    "office_name_kana": null
  },
  "0016": {
    "postcode": "2760016",
    "prefecture": "千葉県",
    "prefecture_kana": "チバケン",
    "prefecture_code": 12,
    "city": "八千代市",
    "city_kana": "ヤチヨシ",
    "town": "神野",
    "town_kana": "カノ",
    "street": null,
    "office_name": null,
    "office_name_kana": null
  },
  "0017": {
    "postcode": "2760017",
    "prefecture": "千葉県",
    "prefecture_kana": "チバケン",
    "prefecture_code": 12,
    "city": "八千代市",
    "city_kana": "ヤチヨシ",
    "town": "平戸",
    "town_kana": "ヒラト",
    "street": null,
    "office_name": null,
    "office_name_kana": null
  },
  "0020": {
    "postcode": "2760020",
    "prefecture": "千葉県",
    "prefecture_kana": "チバケン",
    "prefecture_code": 12,
    "city": "八千代市",
    "city_kana": "ヤチヨシ",
    "town": "勝田台北",
    "town_kana": "カツタダイキタ",
    "street": null,
    "office_name": null,
    "office_name_kana": null
  },
  "0021": {
    "postcode": "2760021",
    "prefecture": "千葉県",
    "prefecture_kana": "チバケン",
    "prefecture_code": 12,
    "city": "八千代市",
    "city_kana": "ヤチヨシ",
    "town": "下高野",
    "town_kana": "シモコウヤ",
    "street": null,
    "office_name": null,
    "office_name_kana": null
  },
  "0022": {
    "postcode": "2760022",
    "prefecture": "千葉県",
    "prefecture_kana": "チバケン",
    "prefecture_code": 12,
    "city": "八千代市",
    "city_kana": "ヤチヨシ",
    "town": "上高野",
    "town_kana": "カミコウヤ",
    "street": null,
    "office_name": null,
    "office_name_kana": null
  },
  "0023": {
    "postcode": "2760023",
    "prefecture": "千葉県",
    "prefecture_kana": "チバケン",
    "prefecture_code": 12,
    "city": "八千代市",
    "city_kana": "ヤチヨシ",
    "town": "勝田台",
    "town_kana": "カツタダイ",
    "street": null,
    "office_name": null,
    "office_name_kana": null
  },
  "0024": {
    "postcode": "2760024",
    "prefecture": "千葉県",
    "prefecture_kana": "チバケン",
    "prefecture_code": 12,
    "city": "八千代市",
    "city_kana": "ヤチヨシ",
    "town": "勝田",
    "town_kana": "カツタ",
    "street": null,
    "office_name": null,
    "office_name_kana": null
  },
  "0025": {
    "postcode": "2760025",
    "prefecture": "千葉県",
    "prefecture_kana": "チバケン",
    "prefecture_code": 12,
    "city": "八千代市",
    "city_kana": "ヤチヨシ",
    "town": "勝田台南",
    "town_kana": "カツタダイミナミ",
    "street": null,
    "office_name": null,
    "office_name_kana": null
  },
  "0026": {
    "postcode": "2760026",
    "prefecture": "千葉県",
    "prefecture_kana": "チバケン",
    "prefecture_code": 12,
    "city": "八千代市",
    "city_kana": "ヤチヨシ",
    "town": "下市場",
    "town_kana": "シモイチバ",
    "street": null,
    "office_name": null,
    "office_name_kana": null
  },
  "0027": {
    "postcode": "2760027",
    "prefecture": "千葉県",
    "prefecture_kana": "チバケン",
    "prefecture_code": 12,
    "city": "八千代市",
    "city_kana": "ヤチヨシ",
    "town": "村上",
    "town_kana": "ムラカミ",
    "street": null,
    "office_name": null,
    "office_name_kana": null
  },
  "0028": {
    "postcode": "2760028",
    "prefecture": "千葉県",
    "prefecture_kana": "チバケン",
    "prefecture_code": 12,
    "city": "八千代市",
    "city_kana": "ヤチヨシ",
    "town": "村上",
    "town_kana": "ムラカミ",
    "street": null,
    "office_name": null,
    "office_name_kana": null
  },
  "0029": {
    "postcode": "2760029",
    "prefecture": "千葉県",
    "prefecture_kana": "チバケン",
    "prefecture_code": 12,
    "city": "八千代市",
    "city_kana": "ヤチヨシ",
    "town": "村上南",
    "town_kana": "ムラカミミナミ",
    "street": null,
    "office_name": null,
    "office_name_kana": null
  },
  "0031": {
    "postcode": "2760031",
    "prefecture": "千葉県",
    "prefecture_kana": "チバケン",
    "prefecture_code": 12,
    "city": "八千代市",
    "city_kana": "ヤチヨシ",
    "town": "八千代台北",
    "town_kana": "ヤチヨダイキタ",
    "street": null,
    "office_name": null,
    "office_name_kana": null
  },
  "0032": {
    "postcode": "2760032",
    "prefecture": "千葉県",
    "prefecture_kana": "チバケン",
    "prefecture_code": 12,
    "city": "八千代市",
    "city_kana": "ヤチヨシ",
    "town": "八千代台東",
    "town_kana": "ヤチヨダイヒガシ",
    "street": null,
    "office_name": null,
    "office_name_kana": null
  },
  "0033": {
    "postcode": "2760033",
    "prefecture": "千葉県",
    "prefecture_kana": "チバケン",
    "prefecture_code": 12,
    "city": "八千代市",
    "city_kana": "ヤチヨシ",
    "town": "八千代台南",
    "town_kana": "ヤチヨダイミナミ",
    "street": null,
    "office_name": null,
    "office_name_kana": null
  },
  "0034": {
    "postcode": "2760034",
    "prefecture": "千葉県",
    "prefecture_kana": "チバケン",
    "prefecture_code": 12,
    "city": "八千代市",
    "city_kana": "ヤチヨシ",
    "town": "八千代台西",
    "town_kana": "ヤチヨダイニシ",
    "street": null,
    "office_name": null,
    "office_name_kana": null
  },
  "0035": [
    {
      "postcode": "2760035",
      "prefecture": "千葉県",
      "prefecture_kana": "チバケン",
      "prefecture_code": 12,
      "city": "八千代市",
      "city_kana": "ヤチヨシ",
      "town": "大和田新田",
      "town_kana": "オオワダシンデン",
      "street": null,
      "office_name": null,
      "office_name_kana": null
    },
    {
      "postcode": "2760035",
      "prefecture": "千葉県",
      "prefecture_kana": "チバケン",
      "prefecture_code": 12,
      "city": "八千代市",
      "city_kana": "ヤチヨシ",
      "town": "大和田新田高津団地",
      "town_kana": "オオワダシンデンタカヅダンチ",
      "street": null,
      "office_name": null,
      "office_name_kana": null
    },
    {
      "postcode": "2760035",
      "prefecture": "千葉県",
      "prefecture_kana": "チバケン",
      "prefecture_code": 12,
      "city": "八千代市",
      "city_kana": "ヤチヨシ",
      "town": "高津",
      "town_kana": "タカヅ",
      "street": null,
      "office_name": null,
      "office_name_kana": null
    }
  ],
  "0036": {
    "postcode": "2760036",
    "prefecture": "千葉県",
    "prefecture_kana": "チバケン",
    "prefecture_code": 12,
    "city": "八千代市",
    "city_kana": "ヤチヨシ",
    "town": "高津",
    "town_kana": "タカヅ",
    "street": null,
    "office_name": null,
    "office_name_kana": null
  },
  "0037": {
    "postcode": "2760037",
    "prefecture": "千葉県",
    "prefecture_kana": "チバケン",
    "prefecture_code": 12,
    "city": "八千代市",
    "city_kana": "ヤチヨシ",
    "town": "高津東",
    "town_kana": "タカヅヒガシ",
    "street": null,
    "office_name": null,
    "office_name_kana": null
  },
  "0040": {
    "postcode": "2760040",
    "prefecture": "千葉県",
    "prefecture_kana": "チバケン",
    "prefecture_code": 12,
    "city": "八千代市",
    "city_kana": "ヤチヨシ",
    "town": "緑が丘西",
    "town_kana": "ミドリガオカニシ",
    "street": null,
    "office_name": null,
    "office_name_kana": null
  },
  "0041": {
    "postcode": "2760041",
    "prefecture": "千葉県",
    "prefecture_kana": "チバケン",
    "prefecture_code": 12,
    "city": "八千代市",
    "city_kana": "ヤチヨシ",
    "town": "麦丸",
    "town_kana": "ムギマル",
    "street": null,
    "office_name": null,
    "office_name_kana": null
  },
  "0042": {
    "postcode": "2760042",
    "prefecture": "千葉県",
    "prefecture_kana": "チバケン",
    "prefecture_code": 12,
    "city": "八千代市",
    "city_kana": "ヤチヨシ",
    "town": "ゆりのき台",
    "town_kana": "ユリノキダイ",
    "street": null,
    "office_name": null,
    "office_name_kana": null
  },
  "0043": {
    "postcode": "2760043",
    "prefecture": "千葉県",
    "prefecture_kana": "チバケン",
    "prefecture_code": 12,
    "city": "八千代市",
    "city_kana": "ヤチヨシ",
    "town": "萱田",
    "town_kana": "カヤダ",
    "street": null,
    "office_name": null,
    "office_name_kana": null
  },
  "0044": {
    "postcode": "2760044",
    "prefecture": "千葉県",
    "prefecture_kana": "チバケン",
    "prefecture_code": 12,
    "city": "八千代市",
    "city_kana": "ヤチヨシ",
    "town": "萱田町",
    "town_kana": "カヤダマチ",
    "street": null,
    "office_name": null,
    "office_name_kana": null
  },
  "0045": {
    "postcode": "2760045",
    "prefecture": "千葉県",
    "prefecture_kana": "チバケン",
    "prefecture_code": 12,
    "city": "八千代市",
    "city_kana": "ヤチヨシ",
    "town": "大和田",
    "town_kana": "オオワダ",
    "street": null,
    "office_name": null,
    "office_name_kana": null
  },
  "0046": {
    "postcode": "2760046",
    "prefecture": "千葉県",
    "prefecture_kana": "チバケン",
    "prefecture_code": 12,
    "city": "八千代市",
    "city_kana": "ヤチヨシ",
    "town": "大和田新田",
    "town_kana": "オオワダシンデン",
    "street": null,
    "office_name": null,
    "office_name_kana": null
  },
  "0047": {
    "postcode": "2760047",
    "prefecture": "千葉県",
    "prefecture_kana": "チバケン",
    "prefecture_code": 12,
    "city": "八千代市",
    "city_kana": "ヤチヨシ",
    "town": "吉橋",
    "town_kana": "ヨシハシ",
    "street": null,
    "office_name": null,
    "office_name_kana": null
  },
  "0048": {
    "postcode": "2760048",
    "prefecture": "千葉県",
    "prefecture_kana": "チバケン",
    "prefecture_code": 12,
    "city": "八千代市",
    "city_kana": "ヤチヨシ",
    "town": "尾崎",
    "town_kana": "オサキ",
    "street": null,
    "office_name": null,
    "office_name_kana": null
  },
  "0049": {
    "postcode": "2760049",
    "prefecture": "千葉県",
    "prefecture_kana": "チバケン",
    "prefecture_code": 12,
    "city": "八千代市",
    "city_kana": "ヤチヨシ",
    "town": "緑が丘",
    "town_kana": "ミドリガオカ",
    "street": null,
    "office_name": null,
    "office_name_kana": null
  },
  "8501": {
    "postcode": "2768501",
    "prefecture": "千葉県",
    "prefecture_kana": "チバケン",
    "prefecture_code": 12,
    "city": "八千代市",
    "city_kana": "ヤチヨシ",
    "town": "大和田新田",
    "town_kana": "オオワダシンデン",
    "street": "３１２−５",
    "office_name": "八千代市役所",
    "office_name_kana": "ヤチヨシヤクシヨ"
  },
  "8523": {
    "postcode": "2768523",
    "prefecture": "千葉県",
    "prefecture_kana": "チバケン",
    "prefecture_code": 12,
    "city": "八千代市",
    "city_kana": "ヤチヨシ",
    "town": "吉橋",
    "town_kana": "ヨシハシ",
    "street": "１０７８−１",
    "office_name": "エドワーズ　株式会社",
    "office_name_kana": "エドワ-ズ カブシキガイシヤ"
  },
  "8524": {
    "postcode": "2768524",
    "prefecture": "千葉県",
    "prefecture_kana": "チバケン",
    "prefecture_code": 12,
    "city": "八千代市",
    "city_kana": "ヤチヨシ",
    "town": "大和田新田",
    "town_kana": "オオワダシンデン",
    "street": "４７７−９６",
    "office_name": "東京女子医科大学附属　八千代医療センター",
    "office_name_kana": "トウキヨウジヨシイカダイガクフゾク ヤチヨイリヨウセンタ-"
  },
  "8525": {
    "postcode": "2768525",
    "prefecture": "千葉県",
    "prefecture_kana": "チバケン",
    "prefecture_code": 12,
    "city": "八千代市",
    "city_kana": "ヤチヨシ",
    "town": "上高野",
    "town_kana": "カミコウヤ",
    "street": "２０３６",
    "office_name": "アマゾン　八千代ＦＣ　入庫係",
    "office_name_kana": "アマゾン ヤチヨエフシ- ニユウコカカリ"
  },
  "8526": {
    "postcode": "2768526",
    "prefecture": "千葉県",
    "prefecture_kana": "チバケン",
    "prefecture_code": 12,
    "city": "八千代市",
    "city_kana": "ヤチヨシ",
    "town": "吉橋",
    "town_kana": "ヨシハシ",
    "street": "字西内野１８２４−１",
    "office_name": "三井食品　株式会社　イトーヨーカドー　八千代ＩＤＣ（ＴＣ）",
    "office_name_kana": "ミツイシヨクヒン カブシキガイシヤ イト-ヨ-カド- ヤチヨアイデイ-シ-(テイ-シ-)"
  },
  "8527": {
    "postcode": "2768527",
    "prefecture": "千葉県",
    "prefecture_kana": "チバケン",
    "prefecture_code": 12,
    "city": "八千代市",
    "city_kana": "ヤチヨシ",
    "town": "吉橋",
    "town_kana": "ヨシハシ",
    "street": "１０９５番１−２階",
    "office_name": "丸二倉庫　（株）　ＹＢＬ　ＰＬＡＺＡ　新館",
    "office_name_kana": "マルニソウコ カブシキガイシヤ ワイビ-エル プラザ シンカン"
  },
  "8580": {
    "postcode": "2768580",
    "prefecture": "千葉県",
    "prefecture_kana": "チバケン",
    "prefecture_code": 12,
    "city": "八千代市",
    "city_kana": "ヤチヨシ",
    "town": "吉橋",
    "town_kana": "ヨシハシ",
    "street": "１８３５",
    "office_name": "石井食品　株式会社　八千代工場",
    "office_name_kana": "イシイシヨクヒン カブシキガイシヤ ヤチヨコウジヨウ"
  }
}