{
  "0000": {
    "postcode": "2770000",
    "prefecture": "千葉県",
    "prefecture_kana": "チバケン",
    "prefecture_code": 12,
    "city": "柏市",
    "city_kana": "カシワシ",
    "town": "",
    "town_kana": "",
    "street": null,
    "office_name": null,
    "office_name_kana": null
  },
  "0001": {
    "postcode": "2770001",
    "prefecture": "千葉県",
    "prefecture_kana": "チバケン",
    "prefecture_code": 12,
    "city": "柏市",
    "city_kana": "カシワシ",
    "town": "呼塚新田",
    "town_kana": "ヨバツカシンデン",
    "street": null,
    "office_name": null,
    "office_name_kana": null
  },
  "0002": {
    "postcode": "2770002",
    "prefecture": "千葉県",
    "prefecture_kana": "チバケン",
    "prefecture_code": 12,
    "city": "柏市",
    "city_kana": "カシワシ",
    "town": "呼塚",
    "town_kana": "ヨバツカ",
    "street": null,
    "office_name": null,
    "office_name_kana": null
  },
  "0003": {
    "postcode": "2770003",
    "prefecture": "千葉県",
    "prefecture_kana": "チバケン",
    "prefecture_code": 12,
    "city": "柏市",
    "city_kana": "カシワシ",
    "town": "柏堀之内新田",
    "town_kana": "カシワホリノウチシンデン",
    "street": null,
    "office_name": null,
    "office_name_kana": null
  },
  "0004": {
    "postcode": "2770004",
    "prefecture": "千葉県",
    "prefecture_kana": "チバケン",
    "prefecture_code": 12,
    "city": "柏市",
    "city_kana": "カシワシ",
    "town": "柏下",
    "town_kana": "カシワシタ",
    "street": null,
    "office_name": null,
    "office_name_kana": null
  },
  "0005": {
    "postcode": "2770005",
    "prefecture": "千葉県",
    "prefecture_kana": "チバケン",
    "prefecture_code": 12,
    "city": "柏市",
    "city_kana": "カシワシ",
    "town": "柏",
    "town_kana": "カシワ",
    "street": null,
    "office_name": null,
    "office_name_kana": null
  },
  "0006": {
    "postcode": "2770006",
    "prefecture": "千葉県",
    "prefecture_kana": "チバケン",
    "prefecture_code": 12,
    "city": "柏市",
    "city_kana": "カシワシ",
    "town": "柏中村下",
    "town_kana": "カシワナカムラシタ",
    "street": null,
    "office_name": null,
    "office_name_kana": null
  },
  "0007": {
    "postcode": "2770007",
    "prefecture": "千葉県",
    "prefecture_kana": "チバケン",
    "prefecture_code": 12,
    "city": "柏市",
    "city_kana": "カシワシ",
    "town": "戸張新田",
    "town_kana": "トバリシンデン",
    "street": null,
    "office_name": null,
    "office_name_kana": null
  },
  "0008": {
    "postcode": "2770008",
    "prefecture": "千葉県",
    "prefecture_kana": "チバケン",
    "prefecture_code": 12,
    "city": "柏市",
    "city_kana": "カシワシ",
    "town": "戸張",
    "town_kana": "トバリ",
    "street": null,
    "office_name": null,
    "office_name_kana": null
  },
  "0011": {
    "postcode": "2770011",
    "prefecture": "千葉県",
    "prefecture_kana": "チバケン",
    "prefecture_code": 12,
    "city": "柏市",
    "city_kana": "カシワシ",
    "town": "東上町",
    "town_kana": "アズマカミチョウ",
    "street": null,
    "office_name": null,
    "office_name_kana": null
  },
  "0012": {
    "postcode": "2770012",
    "prefecture": "千葉県",
    "prefecture_kana": "チバケン",
    "prefecture_code": 12,
    "city": "柏市",
    "city_kana": "カシワシ",
    "town": "桜台",
    "town_kana": "サクラダイ",
    "street": null,
    "office_name": null,
    "office_name_kana": null
  },
  "0013": {
    "postcode": "2770013",
    "prefecture": "千葉県",
    "prefecture_kana": "チバケン",
    "prefecture_code": 12,
    "city": "柏市",
    "city_kana": "カシワシ",
    "town": "東台本町",
    "town_kana": "アズマダイホンチョウ",
    "street": null,
    "office_name": null,
    "office_name_kana": null
  },
  "0014": {
    "postcode": "2770014",
    "prefecture": "千葉県",
    "prefecture_kana": "チバケン",
    "prefecture_code": 12,
    "city": "柏市",
    "city_kana": "カシワシ",
    "town": "東",
    "town_kana": "アズマ",
    "street": null,
    "office_name": null,
    "office_name_kana": null
  },
  "0015": {
    "postcode": "2770015",
    "prefecture": "千葉県",
    "prefecture_kana": "チバケン",
    "prefecture_code": 12,
    "city": "柏市",
    "city_kana": "カシワシ",
    "town": "弥生町",
    "town_kana": "ヤヨイチョウ",
    "street": null,
    "office_name": null,
    "office_name_kana": null
  },
  "0016": {
    "postcode": "2770016",
    "prefecture": "千葉県",
    "prefecture_kana": "チバケン",
    "prefecture_code": 12,
    "city": "柏市",
    "city_kana": "カシワシ",
    "town": "八幡町",
    "town_kana": "ハチマンチョウ",
    "street": null,
    "office_name": null,
    "office_name_kana": null
  },
  "0017": {
    "postcode": "2770017",
    "prefecture": "千葉県",
    "prefecture_kana": "チバケン",
    "prefecture_code": 12,
    "city": "柏市",
    "city_kana": "カシワシ",
    "town": "東柏",
    "town_kana": "ヒガシカシワ",
    "street": null,
    "office_name": null,
    "office_name_kana": null
  },
  "0021": {
    "postcode": "2770021",
    "prefecture": "千葉県",
    "prefecture_kana": "チバケン",
    "prefecture_code": 12,
    "city": "柏市",
    "city_kana": "カシワシ",
    "town": "中央町",
    "town_kana": "チュウオウチョウ",
    "street": null,
    "office_name": null,
    "office_name_kana": null
  },
  "0022": {
    "postcode": "2770022",
    "prefecture": "千葉県",
    "prefecture_kana": "チバケン",
    "prefecture_code": 12,
    "city": "柏市",
    "city_kana": "カシワシ",
    "town": "泉町",
    "town_kana": "イズミチョウ",
    "street": null,
    "office_name": null,
    "office_name_kana": null
  },
  "0023": {
    "postcode": "2770023",
    "prefecture": "千葉県",
    "prefecture_kana": "チバケン",
    "prefecture_code": 12,
    "city": "柏市",
    "city_kana": "カシワシ",
    "town": "中央",
    "town_kana": "チュウオウ",
    "street": null,
    "office_name": null,
    "office_name_kana": null
  },
  "0024": {
    "postcode": "2770024",
    "prefecture": "千葉県",
    "prefecture_kana": "チバケン",
    "prefecture_code": 12,
    "city": "柏市",
    "city_kana": "カシワシ",
    "town": "若葉町",
    "town_kana": "ワカバチョウ",
    "street": null,
    "office_name": null,
    "office_name_kana": null
  },
  "0025": {
    "postcode": "2770025",
    "prefecture": "千葉県",
    "prefecture_kana": "チバケン",
    "prefecture_code": 12,
    "city": "柏市",
    "city_kana": "カシワシ",
    "town": "千代田",
    "town_kana": "チヨダ",
    "street": null,
    "office_name": null,
    "office_name_kana": null
  },
  "0026": {
    "postcode": "2770026",
    "prefecture": "千葉県",
    "prefecture_kana": "チバケン",
    "prefecture_code": 12,
    "city": "柏市",
    "city_kana": "カシワシ",
    "town": "大塚町",
    "town_kana": "オオツカチョウ",
    "street": null,
    "office_name": null,
    "office_name_kana": null
  },
  "0027": {
    "postcode": "2770027",
    "prefecture": "千葉県",
    "prefecture_kana": "チバケン",
    "prefecture_code": 12,
    "city": "柏市",
    "city_kana": "カシワシ",
    "town": "あかね町",
    "town_kana": "アカネチョウ",
    "street": null,
    "office_name": null,
    "office_name_kana": null
  },
  "0028": {
    "postcode": "2770028",
    "prefecture": "千葉県",
    "prefecture_kana": "チバケン",
    "prefecture_code": 12,
    "city": "柏市",
    "city_kana": "カシワシ",
    "town": "関場町",
    "town_kana": "セキバチョウ",
    "street": null,
    "office_name": null,
    "office_name_kana": null
  },
  "0031": {
    "postcode": "2770031",
    "prefecture": "千葉県",
    "prefecture_kana": "チバケン",
    "prefecture_code": 12,
    "city": "柏市",
    "city_kana": "カシワシ",
    "town": "亀甲台町",
    "town_kana": "キッコウダイチョウ",
    "street": null,
    "office_name": null,
    "office_name_kana": null
  },
  "0032": {
    "postcode": "2770032",
    "prefecture": "千葉県",
    "prefecture_kana": "チバケン",
    "prefecture_code": 12,
    "city": "柏市",
    "city_kana": "カシワシ",
    "town": "名戸ケ谷",
    "town_kana": "ナドガヤ",
    "street": null,
    "office_name": null,
    "office_name_kana": null
  },
  "0033": {
    "postcode": "2770033",
    "prefecture": "千葉県",
    "prefecture_kana": "チバケン",
    "prefecture_code": 12,
    "city": "柏市",
    "city_kana": "カシワシ",
    "town": "増尾",
    "town_kana": "マスオ",
    "street": null,
    "office_name": null,
    "office_name_kana": null
  },
  "0034": {
    "postcode": "2770034",
    "prefecture": "千葉県",
    "prefecture_kana": "チバケン",
    "prefecture_code": 12,
    "city": "柏市",
    "city_kana": "カシワシ",
    "town": "藤心",
    "town_kana": "フジゴコロ",
    "street": null,
    "office_name": null,
    "office_name_kana": null
  },
  "0041": {
    "postcode": "2770041",
    "prefecture": "千葉県",
    "prefecture_kana": "チバケン",
    "prefecture_code": 12,
    "city": "柏市",
    "city_kana": "カシワシ",
    "town": "逆井藤ノ台",
    "town_kana": "サカサイフジノダイ",
    "street": null,
    "office_name": null,
    "office_name_kana": null
  },
  "0042": {
    "postcode": "2770042",
    "prefecture": "千葉県",
    "prefecture_kana": "チバケン",
    "prefecture_code": 12,
    "city": "柏市",
    "city_kana": "カシワシ",
    "town": "逆井",
    "town_kana": "サカサイ",
    "street": null,
    "office_name": null,
    "office_name_kana": null
  },
  "0043": {
    "postcode": "2770043",
    "prefecture": "千葉県",
    "prefecture_kana": "チバケン",
    "prefecture_code": 12,
    "city": "柏市",
    "city_kana": "カシワシ",
    "town": "南逆井",
    "town_kana": "ミナミサカサイ",
    "street": null,
    "office_name": null,
    "office_name_kana": null
  },
  "0044": {
    "postcode": "2770044",
    "prefecture": "千葉県",
    "prefecture_kana": "チバケン",
    "prefecture_code": 12,
    "city": "柏市",
    "city_kana": "カシワシ",
    "town": "新逆井",
    "town_kana": "シンサカサイ",
    "street": null,
    "office_name": null,
    "office_name_kana": null
  },
  "0045": {
    "postcode": "2770045",
    "prefecture": "千葉県",
    "prefecture_kana": "チバケン",
    "prefecture_code": 12,
    "city": "柏市",
    "city_kana": "カシワシ",
    "town": "東逆井",
    "town_kana": "ヒガシサカサイ",
    "street": null,
    "office_name": null,
    "office_name_kana": null
  },
  "0051": {
    "postcode": "2770051",
    "prefecture": "千葉県",
    "prefecture_kana": "チバケン",
    "prefecture_code": 12,
    "city": "柏市",
    "city_kana": "カシワシ",
    "town": "加賀",
    "town_kana": "カガ",
    "street": null,
    "office_name": null,
    "office_name_kana": null
  },
  "0052": {
    "postcode": "2770052",
    "prefecture": "千葉県",
    "prefecture_kana": "チバケン",
    "prefecture_code": 12,
    "city": "柏市",
    "city_kana": "カシワシ",
    "town": "増尾台",
    "town_kana": "マスオダイ",
    "street": null,
    "office_name": null,
    "office_name_kana": null
  },
  "0053": {
    "postcode": "2770053",
    "prefecture": "千葉県",
    "prefecture_kana": "チバケン",
    "prefecture_code": 12,
    "city": "柏市",
    "city_kana": "カシワシ",
    "town": "酒井根",
    "town_kana": "サカイネ",
    "street": null,
    "office_name": null,
    "office_name_kana": null
  },
  "0054": {
    "postcode": "2770054",
    "prefecture": "千葉県",
    "prefecture_kana": "チバケン",
    "prefecture_code": 12,
    "city": "柏市",
    "city_kana": "カシワシ",
    "town": "南増尾",
    "town_kana": "ミナミマスオ",
    "street": null,
    "office_name": null,
    "office_name_kana": null
  },
  "0055": {
    "postcode": "2770055",
    "prefecture": "千葉県",
    "prefecture_kana": "チバケン",
    "prefecture_code": 12,
    "city": "柏市",
    "city_kana": "カシワシ",
    "town": "青葉台",
    "town_kana": "アオバダイ",
    "street": null,
    "office_name": null,
    "office_name_kana": null
  },
  "0061": {
    "postcode": "2770061",
    "prefecture": "千葉県",
    "prefecture_kana": "チバケン",
    "prefecture_code": 12,
    "city": "柏市",
    "city_kana": "カシワシ",
    "town": "東中新宿",
    "town_kana": "ヒガシナカシンジュク",
    "street": null,
    "office_name": null,
    "office_name_kana": null
  },
  "0062": {
    "postcode": "2770062",
    "prefecture": "千葉県",
    "prefecture_kana": "チバケン",
    "prefecture_code": 12,
    "city": "柏市",
    "city_kana": "カシワシ",
    "town": "光ケ丘団地",
    "town_kana": "ヒカリガオカダンチ",
    "street": null,
    "office_name": null,
    "office_name_kana": null
  },
  "0063": {
    "postcode": "2770063",
    "prefecture": "千葉県",
    "prefecture_kana": "チバケン",
    "prefecture_code": 12,
    "city": "柏市",
    "city_kana": "カシワシ",
    "town": "西山",
    "town_kana": "ニシヤマ",
    "street": null,
    "office_name": null,
    "office_name_kana": null
  },
  "0064": {
    "postcode": "2770064",
    "prefecture": "千葉県",
    "prefecture_kana": "チバケン",
    "prefecture_code": 12,
    "city": "柏市",
    "city_kana": "カシワシ",
    "town": "東山",
    "town_kana": "ヒガシヤマ",
    "street": null,
    "office_name": null,
    "office_name_kana": null
  },
  "0065": {
    "postcode": "2770065",
    "prefecture": "千葉県",
    "prefecture_kana": "チバケン",
    "prefecture_code": 12,
    "city": "柏市",
    "city_kana": "カシワシ",
    "town": "光ケ丘",
    "town_kana": "ヒカリガオカ",
    "street": null,
    "office_name": null,
    "office_name_kana": null
  },
  "0066": {
    "postcode": "2770066",
    "prefecture": "千葉県",
    "prefecture_kana": "チバケン",
    "prefecture_code": 12,
    "city": "柏市",
    "city_kana": "カシワシ",
    "town": "中新宿",
    "town_kana": "ナカシンジュク",
    "street": null,
    "office_name": null,
    "office_name_kana": null
  },
  "0071": {
    "postcode": "2770071",
    "prefecture": "千葉県",
    "prefecture_kana": "チバケン",
    "prefecture_code": 12,
    "city": "柏市",
    "city_kana": "カシワシ",
    "town": "豊住",
    "town_kana": "トヨスミ",
    "street": null,
    "office_name": null,
    "office_name_kana": null
  },
  "0072": {
    "postcode": "2770072",
    "prefecture": "千葉県",
    "prefecture_kana": "チバケン",
    "prefecture_code": 12,
    "city": "柏市",
    "city_kana": "カシワシ",
    "town": "つくしが丘",
    "town_kana": "ツクシガオカ",
    "street": null,
    "office_name": null,
    "office_name_kana": null
  },
  "0073": {
    "postcode": "2770073",
    "prefecture": "千葉県",
    "prefecture_kana": "チバケン",
    "prefecture_code": 12,
    "city": "柏市",
    "city_kana": "カシワシ",
    "town": "今谷南町",
    "town_kana": "イマヤミナミチョウ",
    "street": null,
    "office_name": null,
    "office_name_kana": null
  },
  "0074": {
    "postcode": "2770074",
    "prefecture": "千葉県",
    "prefecture_kana": "チバケン",
    "prefecture_code": 12,
    "city": "柏市",
    "city_kana": "カシワシ",
    "town": "今谷上町",
    "town_kana": "イマヤカミチョウ",
    "street": null,
    "office_name": null,
    "office_name_kana": null
  },
  "0075": {
    "postcode": "2770075",
    "prefecture": "千葉県",
    "prefecture_kana": "チバケン",
    "prefecture_code": 12,
    "city": "柏市",
    "city_kana": "カシワシ",
    "town": "南柏中央",
    "town_kana": "ミナミカシワチュウオウ",
    "street": null,
    "office_name": null,
    "office_name_kana": null
  },
  "0081": {
    "postcode": "2770081",
    "prefecture": "千葉県",
    "prefecture_kana": "チバケン",
    "prefecture_code": 12,
    "city": "柏市",
    "city_kana": "カシワシ",
    "town": "富里",
    "town_kana": "トミサト",
    "street": null,
    "office_name": null,
    "office_name_kana": null
  },
  "0082": {
    "postcode": "2770082",
    "prefecture": "千葉県",
    "prefecture_kana": "チバケン",
    "prefecture_code": 12,
    "city": "柏市",
    "city_kana": "カシワシ",
    "town": "緑ケ丘",
    "town_kana": "ミドリガオカ",
    "street": null,
    "office_name": null,
    "office_name_kana": null
  },
  "0083": {
    "postcode": "2770083",
    "prefecture": "千葉県",
    "prefecture_kana": "チバケン",
    "prefecture_code": 12,
    "city": "柏市",
    "city_kana": "カシワシ",
    "town": "日立台",
    "town_kana": "ヒタチダイ",
    "street": null,
    "office_name": null,
    "office_name_kana": null
  },
  "0084": {
    "postcode": "2770084",
    "prefecture": "千葉県",
    "prefecture_kana": "チバケン",
    "prefecture_code": 12,
    "city": "柏市",
    "city_kana": "カシワシ",
    "town": "新柏",
    "town_kana": "シンカシワ",
    "street": null,
    "office_name": null,
    "office_name_kana": null
  },
  "0085": {
    "postcode": "2770085",
    "prefecture": "千葉県",
    "prefecture_kana": "チバケン",
    "prefecture_code": 12,
    "city": "柏市",
    "city_kana": "カシワシ",
    "town": "中原",
    "town_kana": "ナカハラ",
    "street": null,
    "office_name": null,
    "office_name_kana": null
  },
  "0086": {
    "postcode": "2770086",
    "prefecture": "千葉県",
    "prefecture_kana": "チバケン",
    "prefecture_code": 12,
    "city": "柏市",
    "city_kana": "カシワシ",
    "town": "永楽台",
    "town_kana": "エイラクダイ",
    "street": null,
    "office_name": null,
    "office_name_kana": null
  },
  "0087": {
    "postcode": "2770087",
    "prefecture": "千葉県",
    "prefecture_kana": "チバケン",
    "prefecture_code": 12,
    "city": "柏市",
    "city_kana": "カシワシ",
    "town": "常盤台",
    "town_kana": "トキワダイ",
    "street": null,
    "office_name": null,
    "office_name_kana": null
  },
  "0088": {
    "postcode": "2770088",
    "prefecture": "千葉県",
    "prefecture_kana": "チバケン",
    "prefecture_code": 12,
    "city": "柏市",
    "city_kana": "カシワシ",
    "town": "ひばりが丘",
    "town_kana": "ヒバリガオカ",
    "street": null,
    "office_name": null,
    "office_name_kana": null
  },
  "0801": {
    "postcode": "2770801",
    "prefecture": "千葉県",
    "prefecture_kana": "チバケン",
    "prefecture_code": 12,
    "city": "柏市",
    "city_kana": "カシワシ",
    "town": "船戸山高野",
    "town_kana": "フナトヤマゴウヤ",
    "street": null,
    "office_name": null,
    "office_name_kana": null
  },
  "0802": {
    "postcode": "2770802",
    "prefecture": "千葉県",
    "prefecture_kana": "チバケン",
    "prefecture_code": 12,
    "city": "柏市",
    "city_kana": "カシワシ",
    "town": "船戸",
    "town_kana": "フナト",
    "street": null,
    "office_name": null,
    "office_name_kana": null
  },
  "0803": {
    "postcode": "2770803",
    "prefecture": "千葉県",
    "prefecture_kana": "チバケン",
    "prefecture_code": 12,
    "city": "柏市",
    "city_kana": "カシワシ",
    "town": "小青田",
    "town_kana": "コアオタ",
    "street": null,
    "office_name": null,
    "office_name_kana": null
  },
  "0804": {
    "postcode": "2770804",
    "prefecture": "千葉県",
    "prefecture_kana": "チバケン",
    "prefecture_code": 12,
    "city": "柏市",
    "city_kana": "カシワシ",
    "town": "新十余二",
    "town_kana": "シントヨフタ",
    "street": null,
    "office_name": null,
    "office_name_kana": null
  },
  "0805": {
    "postcode": "2770805",
    "prefecture": "千葉県",
    "prefecture_kana": "チバケン",
    "prefecture_code": 12,
    "city": "柏市",
    "city_kana": "カシワシ",
    "town": "大青田",
    "town_kana": "オオアオタ",
    "street": null,
    "office_name": null,
    "office_name_kana": null
  },
  "0806": {
    "postcode": "2770806",
    "prefecture": "千葉県",
    "prefecture_kana": "チバケン",
    "prefecture_code": 12,
    "city": "柏市",
    "city_kana": "カシワシ",
    "town": "柏インター東",
    "town_kana": "カシワインターヒガシ",
    "street": null,
    "office_name": null,
    "office_name_kana": null
  },
  "0811": {
    "postcode": "2770811",
    "prefecture": "千葉県",
    "prefecture_kana": "チバケン",
    "prefecture_code": 12,
    "city": "柏市",
    "city_kana": "カシワシ",
    "town": "上利根",
    "town_kana": "カミトネ",
    "street": null,
    "office_name": null,
    "office_name_kana": null
  },
  "0812": {
    "postcode": "2770812",
    "prefecture": "千葉県",
    "prefecture_kana": "チバケン",
    "prefecture_code": 12,
    "city": "柏市",
    "city_kana": "カシワシ",
    "town": "花野井",
    "town_kana": "ハナノイ",
    "street": null,
    "office_name": null,
    "office_name_kana": null
  },
  "0813": {
    "postcode": "2770813",
    "prefecture": "千葉県",
    "prefecture_kana": "チバケン",
    "prefecture_code": 12,
    "city": "柏市",
    "city_kana": "カシワシ",
    "town": "大室",
    "town_kana": "オオムロ",
    "street": null,
    "office_name": null,
    "office_name_kana": null
  },
  "0814": {
    "postcode": "2770814",
    "prefecture": "千葉県",
    "prefecture_kana": "チバケン",
    "prefecture_code": 12,
    "city": "柏市",
    "city_kana": "カシワシ",
    "town": "正連寺",
    "town_kana": "ショウレンジ",
    "street": null,
    "office_name": null,
    "office_name_kana": null
  },
  "0821": {
    "postcode": "2770821",
    "prefecture": "千葉県",
    "prefecture_kana": "チバケン",
    "prefecture_code": 12,
    "city": "柏市",
    "city_kana": "カシワシ",
    "town": "弁天下",
    "town_kana": "ベンテンシタ",
    "street": null,
    "office_name": null,
    "office_name_kana": null
  },
  "0822": {
    "postcode": "2770822",
    "prefecture": "千葉県",
    "prefecture_kana": "チバケン",
    "prefecture_code": 12,
    "city": "柏市",
    "city_kana": "カシワシ",
    "town": "布施下",
    "town_kana": "フセシタ",
    "street": null,
    "office_name": null,
    "office_name_kana": null
  },
  "0823": {
    "postcode": "2770823",
    "prefecture": "千葉県",
    "prefecture_kana": "チバケン",
    "prefecture_code": 12,
    "city": "柏市",
    "city_kana": "カシワシ",
    "town": "布施新町",
    "town_kana": "フセシンマチ",
    "street": null,
    "office_name": null,
    "office_name_kana": null
  },
  "0824": {
    "postcode": "2770824",
    "prefecture": "千葉県",
    "prefecture_kana": "チバケン",
    "prefecture_code": 12,
    "city": "柏市",
    "city_kana": "カシワシ",
    "town": "布施新田",
    "town_kana": "フセシンデン",
    "street": null,
    "office_name": null,
    "office_name_kana": null
  },
  "0825": {
    "postcode": "2770825",
    "prefecture": "千葉県",
    "prefecture_kana": "チバケン",
    "prefecture_code": 12,
    "city": "柏市",
    "city_kana": "カシワシ",
    "town": "布施",
    "town_kana": "フセ",
    "street": null,
    "office_name": null,
    "office_name_kana": null
  },
  "0826": {
    "postcode": "2770826",
    "prefecture": "千葉県",
    "prefecture_kana": "チバケン",
    "prefecture_code": 12,
    "city": "柏市",
    "city_kana": "カシワシ",
    "town": "宿連寺",
    "town_kana": "シュクレンジ",
    "street": null,
    "office_name": null,
    "office_name_kana": null
  },
  "0827": {
    "postcode": "2770827",
    "prefecture": "千葉県",
    "prefecture_kana": "チバケン",
    "prefecture_code": 12,
    "city": "柏市",
    "city_kana": "カシワシ",
    "town": "松葉町",
    "town_kana": "マツバチョウ",
    "street": null,
    "office_name": null,
    "office_name_kana": null
  },
  "0831": {
    "postcode": "2770831",
    "prefecture": "千葉県",
    "prefecture_kana": "チバケン",
    "prefecture_code": 12,
    "city": "柏市",
    "city_kana": "カシワシ",
    "town": "根戸",
    "town_kana": "ネド",
    "street": null,
    "office_name": null,
    "office_name_kana": null
  },
  "0832": {
    "postcode": "2770832",
    "prefecture": "千葉県",
    "prefecture_kana": "チバケン",
    "prefecture_code": 12,
    "city": "柏市",
    "city_kana": "カシワシ",
    "town": "北柏",
    "town_kana": "キタカシワ",
    "street": null,
    "office_name": null,
    "office_name_kana": null
  },
  "0833": {
    "postcode": "2770833",
    "prefecture": "千葉県",
    "prefecture_kana": "チバケン",
    "prefecture_code": 12,
    "city": "柏市",
    "city_kana": "カシワシ",
    "town": "根戸新田",
    "town_kana": "ネドシンデン",
    "street": null,
    "office_name": null,
    "office_name_kana": null
  },
  "0834": {
    "postcode": "2770834",
    "prefecture": "千葉県",
    "prefecture_kana": "チバケン",
    "prefecture_code": 12,
    "city": "柏市",
    "city_kana": "カシワシ",
    "town": "松ケ崎新田",
    "town_kana": "マツガサキシンデン",
    "street": null,
    "office_name": null,
    "office_name_kana": null
  },
  "0835": {
    "postcode": "2770835",
    "prefecture": "千葉県",
    "prefecture_kana": "チバケン",
    "prefecture_code": 12,
    "city": "柏市",
    "city_kana": "カシワシ",
    "town": "松ケ崎",
    "town_kana": "マツガサキ",
    "street": null,
    "office_name": null,
    "office_name_kana": null
  },
  "0836": {
    "postcode": "2770836",
    "prefecture": "千葉県",
    "prefecture_kana": "チバケン",
    "prefecture_code": 12,
    "city": "柏市",
    "city_kana": "カシワシ",
    "town": "北柏台",
    "town_kana": "キタカシワダイ",
    "street": null,
    "office_name": null,
    "office_name_kana": null
  },
  "0837": {
    "postcode": "2770837",
    "prefecture": "千葉県",
    "prefecture_kana": "チバケン",
    "prefecture_code": 12,
    "city": "柏市",
    "city_kana": "カシワシ",
    "town": "大山台",
    "town_kana": "オオヤマダイ",
    "street": null,
    "office_name": null,
    "office_name_kana": null
  },
  "0841": {
    "postcode": "2770841",
    "prefecture": "千葉県",
    "prefecture_kana": "チバケン",
    "prefecture_code": 12,
    "city": "柏市",
    "city_kana": "カシワシ",
    "town": "あけぼの",
    "town_kana": "アケボノ",
    "street": null,
    "office_name": null,
    "office_name_kana": null
  },
  "0842": {
    "postcode": "2770842",
    "prefecture": "千葉県",
    "prefecture_kana": "チバケン",
    "prefecture_code": 12,
    "city": "柏市",
    "city_kana": "カシワシ",
    "town": "末広町",
    "town_kana": "スエヒロチョウ",
    "street": null,
    "office_name": null,
    "office_name_kana": null
  },
  "0843": {
    "postcode": "2770843",
    "prefecture": "千葉県",
    "prefecture_kana": "チバケン",
    "prefecture_code": 12,
    "city": "柏市",
    "city_kana": "カシワシ",
    "town": "明原",
    "town_kana": "アケハラ",
    "street": null,
    "office_name": null,
    "office_name_kana": null
  },
  "0844": {
    "postcode": "2770844",
    "prefecture": "千葉県",
    "prefecture_kana": "チバケン",
    "prefecture_code": 12,
    "city": "柏市",
    "city_kana": "カシワシ",
    "town": "西町",
    "town_kana": "ニシチョウ",
    "street": null,
    "office_name": null,
    "office_name_kana": null
  },
  "0845": {
    "postcode": "2770845",
    "prefecture": "千葉県",
    "prefecture_kana": "チバケン",
    "prefecture_code": 12,
    "city": "柏市",
    "city_kana": "カシワシ",
    "town": "豊四季台",
    "town_kana": "トヨシキダイ",
    "street": null,
    "office_name": null,
    "office_name_kana": null
  },
  "0846": {
    "postcode": "2770846",
    "prefecture": "千葉県",
    "prefecture_kana": "チバケン",
    "prefecture_code": 12,
    "city": "柏市",
    "city_kana": "カシワシ",
    "town": "かやの町",
    "town_kana": "カヤノチョウ",
    "street": null,
    "office_name": null,
    "office_name_kana": null
  },
  "0851": {
    "postcode": "2770851",
    "prefecture": "千葉県",
    "prefecture_kana": "チバケン",
    "prefecture_code": 12,
    "city": "柏市",
    "city_kana": "カシワシ",
    "town": "向原町",
    "town_kana": "ムカイハラチョウ",
    "street": null,
    "office_name": null,
    "office_name_kana": null
  },
  "0852": {
    "postcode": "2770852",
    "prefecture": "千葉県",
    "prefecture_kana": "チバケン",
    "prefecture_code": 12,
    "city": "柏市",
    "city_kana": "カシワシ",
    "town": "旭町",
    "town_kana": "アサヒチョウ",
    "street": null,
    "office_name": null,
    "office_name_kana": null
  },
  "0853": {
    "postcode": "2770853",
    "prefecture": "千葉県",
    "prefecture_kana": "チバケン",
    "prefecture_code": 12,
    "city": "柏市",
    "city_kana": "カシワシ",
    "town": "吉野沢",
    "town_kana": "ヨシノザワ",
    "street": null,
    "office_name": null,
    "office_name_kana": null
  },
  "0854": {
    "postcode": "2770854",
    "prefecture": "千葉県",
    "prefecture_kana": "チバケン",
    "prefecture_code": 12,
    "city": "柏市",
    "city_kana": "カシワシ",
    "town": "豊町",
    "town_kana": "ユタカチョウ",
    "street": null,
    "office_name": null,
    "office_name_kana": null
  },
  "0855": {
    "postcode": "2770855",
    "prefecture": "千葉県",
    "prefecture_kana": "チバケン",
    "prefecture_code": 12,
    "city": "柏市",
    "city_kana": "カシワシ",
    "town": "南柏",
    "town_kana": "ミナミカシワ",
    "street": null,
    "office_name": null,
    "office_name_kana": null
  },
  "0856": {
    "postcode": "2770856",
    "prefecture": "千葉県",
    "prefecture_kana": "チバケン",
    "prefecture_code": 12,
    "city": "柏市",
    "city_kana": "カシワシ",
    "town": "新富町",
    "town_kana": "シントミチョウ",
    "street": null,
    "office_name": null,
    "office_name_kana": null
  },
  "0857": {
    "postcode": "2770857",
    "prefecture": "千葉県",
    "prefecture_kana": "チバケン",
    "prefecture_code": 12,
    "city": "柏市",
    "city_kana": "カシワシ",
    "town": "豊平町",
    "town_kana": "トヨヒラチョウ",
    "street": null,
    "office_name": null,
    "office_name_kana": null
  },
  "0858": {
    "postcode": "2770858",
    "prefecture": "千葉県",
    "prefecture_kana": "チバケン",
    "prefecture_code": 12,
    "city": "柏市",
    "city_kana": "カシワシ",
    "town": "豊上町",
    "town_kana": "トヨガミチョウ",
    "street": null,
    "office_name": null,
    "office_name_kana": null
  },
  "0861": {
    "postcode": "2770861",
    "prefecture": "千葉県",
    "prefecture_kana": "チバケン",
    "prefecture_code": 12,
    "city": "柏市",
    "city_kana": "カシワシ",
    "town": "高田",
    "town_kana": "タカタ",
    "street": null,
    "office_name": null,
    "office_name_kana": null
  },
  "0862": {
    "postcode": "2770862",
    "prefecture": "千葉県",
    "prefecture_kana": "チバケン",
    "prefecture_code": 12,
    "city": "柏市",
    "city_kana": "カシワシ",
    "town": "篠籠田",
    "town_kana": "シコダ",
    "street": null,
    "office_name": null,
    "office_name_kana": null
  },
  "0863": {
    "postcode": "2770863",
    "prefecture": "千葉県",
    "prefecture_kana": "チバケン",
    "prefecture_code": 12,
    "city": "柏市",
    "city_kana": "カシワシ",
    "town": "豊四季",
    "town_kana": "トヨシキ",
    "street": null,
    "office_name": null,
    "office_name_kana": null
  },
  "0871": {
    "postcode": "2770871",
    "prefecture": "千葉県",
    "prefecture_kana": "チバケン",
    "prefecture_code": 12,
    "city": "柏市",
    "city_kana": "カシワシ",
    "town": "若柴",
    "town_kana": "ワカシバ",
    "street": null,
    "office_name": null,
    "office_name_kana": null
  },
  "0872": {
    "postcode": "2770872",
    "prefecture": "千葉県",
    "prefecture_kana": "チバケン",
    "prefecture_code": 12,
    "city": "柏市",
    "city_kana": "カシワシ",
    "town": "十余二",
    "town_kana": "トヨフタ",
    "street": null,
    "office_name": null,
    "office_name_kana": null
  },
  "0873": {
    "postcode": "2770873",
    "prefecture": "千葉県",
    "prefecture_kana": "チバケン",
    "prefecture_code": 12,
    "city": "柏市",
    "city_kana": "カシワシ",
    "town": "中十余二",
    "town_kana": "ナカトヨフタ",
    "street": null,
    "office_name": null,
    "office_name_kana": null
  },
  "0874": {
    "postcode": "2770874",
    "prefecture": "千葉県",
    "prefecture_kana": "チバケン",
    "prefecture_code": 12,
    "city": "柏市",
    "city_kana": "カシワシ",
    "town": "柏インター南",
    "town_kana": "カシワインターミナミ",
    "street": null,
    "office_name": null,
    "office_name_kana": null
  },
  "0881": {
    "postcode": "2770881",
    "prefecture": "千葉県",
    "prefecture_kana": "チバケン",
    "prefecture_code": 12,
    "city": "柏市",
    "city_kana": "カシワシ",
    "town": "青田新田飛地",
    "town_kana": "アオタシンデントビチ",
    "street": null,
    "office_name": null,
    "office_name_kana": null
  },
  "0882": {
    "postcode": "2770882",
    "prefecture": "千葉県",
    "prefecture_kana": "チバケン",
    "prefecture_code": 12,
    "city": "柏市",
    "city_kana": "カシワシ",
    "town": "柏の葉",
    "town_kana": "カシワノハ",
    "street": null,
    "office_name": null,
    "office_name_kana": null
  },
  "0883": {
    "postcode": "2770883",
    "prefecture": "千葉県",
    "prefecture_kana": "チバケン",
    "prefecture_code": 12,
    "city": "柏市",
    "city_kana": "カシワシ",
    "town": "伊勢原",
    "town_kana": "イセハラ",
    "street": null,
    "office_name": null,
    "office_name_kana": null
  },
  "0884": {
    "postcode": "2770884",
    "prefecture": "千葉県",
    "prefecture_kana": "チバケン",
    "prefecture_code": 12,
    "city": "柏市",
    "city_kana": "カシワシ",
    "town": "みどり台",
    "town_kana": "ミドリダイ",
    "street": null,
    "office_name": null,
    "office_name_kana": null
  },
  "0885": {
    "postcode": "2770885",
    "prefecture": "千葉県",
    "prefecture_kana": "チバケン",
    "prefecture_code": 12,
    "city": "柏市",
    "city_kana": "カシワシ",
    "town": "西原",
    "town_kana": "ニシハラ",
    "street": null,
    "office_name": null,
    "office_name_kana": null
  },
  "0886": {
    "postcode": "2770886",
    "prefecture": "千葉県",
    "prefecture_kana": "チバケン",
    "prefecture_code": 12,
    "city": "柏市",
    "city_kana": "カシワシ",
    "town": "西柏台",
    "town_kana": "ニシカシワダイ",
    "street": null,
    "office_name": null,
    "office_name_kana": null
  },
  "0901": {
    "postcode": "2770901",
    "prefecture": "千葉県",
    "prefecture_kana": "チバケン",
    "prefecture_code": 12,
    "city": "柏市",
    "city_kana": "カシワシ",
    "town": "大井新田",
    "town_kana": "オオイシンデン",
    "street": null,
    "office_name": null,
    "office_name_kana": null
  },
  "0902": {
    "postcode": "2770902",
    "prefecture": "千葉県",
    "prefecture_kana": "チバケン",
    "prefecture_code": 12,
    "city": "柏市",
    "city_kana": "カシワシ",
    "town": "大井",
    "town_kana": "オオイ",
    "street": null,
    "office_name": null,
    "office_name_kana": null
  },
  "0903": {
    "postcode": "2770903",
    "prefecture": "千葉県",
    "prefecture_kana": "チバケン",
    "prefecture_code": 12,
    "city": "柏市",
    "city_kana": "カシワシ",
    "town": "緑台",
    "town_kana": "ミドリダイ",
    "street": null,
    "office_name": null,
    "office_name_kana": null
  },
  "0911": {
    "postcode": "2770911",
    "prefecture": "千葉県",
    "prefecture_kana": "チバケン",
    "prefecture_code": 12,
    "city": "柏市",
    "city_kana": "カシワシ",
    "town": "箕輪新田",
    "town_kana": "ミノワシンデン",
    "street": null,
    "office_name": null,
    "office_name_kana": null
  },
  "0912": {
    "postcode": "2770912",
    "prefecture": "千葉県",
    "prefecture_kana": "チバケン",
    "prefecture_code": 12,
    "city": "柏市",
    "city_kana": "カシワシ",
    "town": "箕輪",
    "town_kana": "ミノワ",
    "street": null,
    "office_name": null,
    "office_name_kana": null
  },
  "0913": {
    "postcode": "2770913",
    "prefecture": "千葉県",
    "prefecture_kana": "チバケン",
    "prefecture_code": 12,
    "city": "柏市",
    "city_kana": "カシワシ",
    "town": "五條谷",
    "town_kana": "ゴジョウヤ",
    "street": null,
    "office_name": null,
    "office_name_kana": null
  },
  "0921": {
    "postcode": "2770921",
    "prefecture": "千葉県",
    "prefecture_kana": "チバケン",
    "prefecture_code": 12,
    "city": "柏市",
    "city_kana": "カシワシ",
    "town": "大津ケ丘",
    "town_kana": "オオツガオカ",
    "street": null,
    "office_name": null,
    "office_name_kana": null
  },
  "0922": {
    "postcode": "2770922",
    "prefecture": "千葉県",
    "prefecture_kana": "チバケン",
    "prefecture_code": 12,
    "city": "柏市",
    "city_kana": "カシワシ",
    "town": "大島田",
    "town_kana": "オオシマタ",
    "street": null,
    "office_name": null,
    "office_name_kana": null
  },
  "0923": {
    "postcode": "2770923",
    "prefecture": "千葉県",
    "prefecture_kana": "チバケン",
    "prefecture_code": 12,
    "city": "柏市",
    "city_kana": "カシワシ",
    "town": "塚崎",
    "town_kana": "ツカザキ",
    "street": null,
    "office_name": null,
    "office_name_kana": null
  },
  "0924": {
    "postcode": "2770924",
    "prefecture": "千葉県",
    "prefecture_kana": "チバケン",
    "prefecture_code": 12,
    "city": "柏市",
    "city_kana": "カシワシ",
    "town": "風早",
    "town_kana": "カザハヤ",
    "street": null,
    "office_name": null,
    "office_name_kana": null
  },
  "0931": {
    "postcode": "2770931",
    "prefecture": "千葉県",
    "prefecture_kana": "チバケン",
    "prefecture_code": 12,
    "city": "柏市",
    "city_kana": "カシワシ",
    "town": "藤ケ谷",
    "town_kana": "フジガヤ",
    "street": null,
    "office_name": null,
    "office_name_kana": null
  },
  "0932": {
    "postcode": "2770932",
    "prefecture": "千葉県",
    "prefecture_kana": "チバケン",
    "prefecture_code": 12,
    "city": "柏市",
    "city_kana": "カシワシ",
    "town": "藤ケ谷新田",
    "town_kana": "フジガヤシンデン",
    "street": null,
    "office_name": null,
    "office_name_kana": null
  },
  "0941": {
    "postcode": "2770941",
    "prefecture": "千葉県",
    "prefecture_kana": "チバケン",
    "prefecture_code": 12,
    "city": "柏市",
    "city_kana": "カシワシ",
    "town": "高柳",
    "town_kana": "タカヤナギ",
    "street": null,
    "office_name": null,
    "office_name_kana": null
  },
  "0942": {
    "postcode": "2770942",
    "prefecture": "千葉県",
    "prefecture_kana": "チバケン",
    "prefecture_code": 12,
    "city": "柏市",
    "city_kana": "カシワシ",
    "town": "高南台",
    "town_kana": "コウナンダイ",
    "street": null,
    "office_name": null,
    "office_name_kana": null
  },
  "0943": {
    "postcode": "2770943",
    "prefecture": "千葉県",
    "prefecture_kana": "チバケン",
    "prefecture_code": 12,
    "city": "柏市",
    "city_kana": "カシワシ",
    "town": "高柳新田",
    "town_kana": "タカヤナギシンデン",
    "street": null,
    "office_name": null,
    "office_name_kana": null
  },
  "0944": {
    "postcode": "2770944",
    "prefecture": "千葉県",
    "prefecture_kana": "チバケン",
    "prefecture_code": 12,
    "city": "柏市",
    "city_kana": "カシワシ",
    "town": "南高柳",
    "town_kana": "ミナミタカヤナギ",
    "street": null,
    "office_name": null,
    "office_name_kana": null
  },
  "0945": {
    "postcode": "2770945",
    "prefecture": "千葉県",
    "prefecture_kana": "チバケン",
    "prefecture_code": 12,
    "city": "柏市",
    "city_kana": "カシワシ",
    "town": "しいの木台",
    "town_kana": "シイノキダイ",
    "street": null,
    "office_name": null,
    "office_name_kana": null
  },
  "8501": {
    "postcode": "2778501",
    "prefecture": "千葉県",
    "prefecture_kana": "チバケン",
    "prefecture_code": 12,
    "city": "柏市",
    "city_kana": "カシワシ",
    "town": "柏",
    "town_kana": "カシワ",
    "street": "２丁目２−３",
    "office_name": "株式会社　みずほ銀行　柏支店",
    "office_name_kana": "カブシキガイシヤ ミズホギンコウ カシワシテン"
  },
  "8503": {
    "postcode": "2778503",
    "prefecture": "千葉県",
    "prefecture_kana": "チバケン",
    "prefecture_code": 12,
    "city": "柏市",
    "city_kana": "カシワシ",
    "town": "大島田",
    "town_kana": "オオシマタ",
    "street": "４８−１",
    "office_name": "柏市沼南庁舎",
    "office_name_kana": "カシワシ シヨウナンチヨウシヤ"
  },
  "8504": {
    "postcode": "2778504",
    "prefecture": "千葉県",
    "prefecture_kana": "チバケン",
    "prefecture_code": 12,
    "city": "柏市",
    "city_kana": "カシワシ",
    "town": "柏の葉",
    "town_kana": "カシワノハ",
    "street": "６丁目４−２",
    "office_name": "財務省　税関研修所",
    "office_name_kana": "ザイムシヨウ ゼイカンケンシユウジヨ"
  },
  "8505": {
    "postcode": "2778505",
    "prefecture": "千葉県",
    "prefecture_kana": "チバケン",
    "prefecture_code": 12,
    "city": "柏市",
    "city_kana": "カシワシ",
    "town": "柏",
    "town_kana": "カシワ",
    "street": "５丁目１０−１",
    "office_name": "柏市役所",
    "office_name_kana": "カシワシヤクシヨ"
  },
  "8507": {
    "postcode": "2778507",
    "prefecture": "千葉県",
    "prefecture_kana": "チバケン",
    "prefecture_code": 12,
    "city": "柏市",
    "city_kana": "カシワシ",
    "town": "柏",
    "town_kana": "カシワ",
    "street": "２丁目５−７住友生命柏ビル",
    "office_name": "住友生命保険　相互会社　柏支社",
    "office_name_kana": "スミトモセイメイホケン ソウゴガイシヤ カシワシシヤ"
  },
  "8511": {
    "postcode": "2778511",
    "prefecture": "千葉県",
    "prefecture_kana": "チバケン",
    "prefecture_code": 12,
    "city": "柏市",
    "city_kana": "カシワシ",
    "town": "豊四季",
    "town_kana": "トヨシキ",
    "street": "２４１−２２",
    "office_name": "株式会社　バンダイお客様相談センター",
    "office_name_kana": "カブシキガイシヤ バンダイオキヤクサマソウダンセンタ-"
  },
  "8515": {
    "postcode": "2778515",
    "prefecture": "千葉県",
    "prefecture_kana": "チバケン",
    "prefecture_code": 12,
    "city": "柏市",
    "city_kana": "カシワシ",
    "town": "新十余二",
    "town_kana": "シントヨフタ",
    "street": "１１",
    "office_name": "大機エンジニアリング　株式会社",
    "office_name_kana": "ダイキエンジニアリング カブシキガイシヤ"
  },
  "8518": {
    "postcode": "2778518",
    "prefecture": "千葉県",
    "prefecture_kana": "チバケン",
    "prefecture_code": 12,
    "city": "柏市",
    "city_kana": "カシワシ",
    "town": "若柴",
    "town_kana": "ワカシバ",
    "street": "１７５",
    "office_name": "ららぽーと　柏の葉",
    "office_name_kana": "ララポ-ト カシワノハ"
  },
  "8519": {
    "postcode": "2778519",
    "prefecture": "千葉県",
    "prefecture_kana": "チバケン",
    "prefecture_code": 12,
    "city": "柏市",
    "city_kana": "カシワシ",
    "town": "若柴",
    "town_kana": "ワカシバ",
    "street": "１７８番地４柏の葉キャンパス１４８街区２",
    "office_name": "ＫＯＩＬ　ららぽーと柏の葉・北館",
    "office_name_kana": "コイル ララポ-トカシワノハ・キタカン"
  },
  "8520": {
    "postcode": "2778520",
    "prefecture": "千葉県",
    "prefecture_kana": "チバケン",
    "prefecture_code": 12,
    "city": "柏市",
    "city_kana": "カシワシ",
    "town": "若柴",
    "town_kana": "ワカシバ",
    "street": "１７８番地４柏の葉キャンパス１４８街区２",
    "office_name": "ＫＯＩＬパーク",
    "office_name_kana": "コイルパ-ク"
  },
  "8521": {
    "postcode": "2778521",
    "prefecture": "千葉県",
    "prefecture_kana": "チバケン",
    "prefecture_code": 12,
    "city": "柏市",
    "city_kana": "カシワシ",
    "town": "柏",
    "town_kana": "カシワ",
    "street": "１丁目１−２１",
    "office_name": "株式会社　そごう　柏店",
    "office_name_kana": "カブシキガイシヤ ソゴウ カシワテン"
  },
  "8522": {
    "postcode": "2778522",
    "prefecture": "千葉県",
    "prefecture_kana": "チバケン",
    "prefecture_code": 12,
    "city": "柏市",
    "city_kana": "カシワシ",
    "town": "あけぼの",
    "town_kana": "アケボノ",
    "street": "２丁目１−３０",
    "office_name": "柏税務署",
    "office_name_kana": "カシワゼイムシヨ"
  },
  "8525": {
    "postcode": "2778525",
    "prefecture": "千葉県",
    "prefecture_kana": "チバケン",
    "prefecture_code": 12,
    "city": "柏市",
    "city_kana": "カシワシ",
    "town": "高田",
    "town_kana": "タカタ",
    "street": "１２０１−１１",
    "office_name": "株式会社　シンク・ラボラトリー",
    "office_name_kana": "カブシキガイシヤ シンク・ラボラトリ-"
  },
  "8531": {
    "postcode": "2778531",
    "prefecture": "千葉県",
    "prefecture_kana": "チバケン",
    "prefecture_code": 12,
    "city": "柏市",
    "city_kana": "カシワシ",
    "town": "十余二",
    "town_kana": "トヨフタ",
    "street": "赤坂台４０９",
    "office_name": "株式会社　ＤＮＰテクノフィルム",
    "office_name_kana": "カブシキガイシヤ デイ-エヌピ-テクノフイルム"
  },
  "8533": {
    "postcode": "2778533",
    "prefecture": "千葉県",
    "prefecture_kana": "チバケン",
    "prefecture_code": 12,
    "city": "柏市",
    "city_kana": "カシワシ",
    "town": "新十余二",
    "town_kana": "シントヨフタ",
    "street": "１０番地１",
    "office_name": "株式会社　トクシキ",
    "office_name_kana": "カブシキガイシヤ トクシキ"
  },
  "8539": {
    "postcode": "2778539",
    "prefecture": "千葉県",
    "prefecture_kana": "チバケン",
    "prefecture_code": 12,
    "city": "柏市",
    "city_kana": "カシワシ",
    "town": "新十余二",
    "town_kana": "シントヨフタ",
    "street": "５",
    "office_name": "三協フロンテア　株式会社",
    "office_name_kana": "サンキヨウフロンテア カブシキガイシヤ"
  },
  "8550": {
    "postcode": "2778550",
    "prefecture": "千葉県",
    "prefecture_kana": "チバケン",
    "prefecture_code": 12,
    "city": "柏市",
    "city_kana": "カシワシ",
    "town": "末広町",
    "town_kana": "スエヒロチョウ",
    "street": "１−１",
    "office_name": "柏高島屋ステーションモール",
    "office_name_kana": "カシワタカシマヤステ-シヨンモ-ル"
  },
  "8551": {
    "postcode": "2778551",
    "prefecture": "千葉県",
    "prefecture_kana": "チバケン",
    "prefecture_code": 12,
    "city": "柏市",
    "city_kana": "カシワシ",
    "town": "篠籠田",
    "town_kana": "シコダ",
    "street": "６１７番地",
    "office_name": "柏厚生総合病院",
    "office_name_kana": "カシワコウセイソウゴウビヨウイン"
  },
  "8554": {
    "postcode": "2778554",
    "prefecture": "千葉県",
    "prefecture_kana": "チバケン",
    "prefecture_code": 12,
    "city": "柏市",
    "city_kana": "カシワシ",
    "town": "松ケ崎",
    "town_kana": "マツガサキ",
    "street": "７２２−１",
    "office_name": "柏警察署",
    "office_name_kana": "カシワケイサツシヨ"
  },
  "8556": {
    "postcode": "2778556",
    "prefecture": "千葉県",
    "prefecture_kana": "チバケン",
    "prefecture_code": 12,
    "city": "柏市",
    "city_kana": "カシワシ",
    "town": "十余二",
    "town_kana": "トヨフタ",
    "street": "３４８",
    "office_name": "昭和ゴム　株式会社",
    "office_name_kana": "シヨウワゴム カブシキガイシヤ"
  },
  "8557": {
    "postcode": "2778557",
    "prefecture": "千葉県",
    "prefecture_kana": "チバケン",
    "prefecture_code": 12,
    "city": "柏市",
    "city_kana": "カシワシ",
    "town": "十余二",
    "town_kana": "トヨフタ",
    "street": "２１７",
    "office_name": "パウダーテック　株式会社",
    "office_name_kana": "パウダ-テツク カブシキガイシヤ"
  },
  "8558": {
    "postcode": "2778558",
    "prefecture": "千葉県",
    "prefecture_kana": "チバケン",
    "prefecture_code": 12,
    "city": "柏市",
    "city_kana": "カシワシ",
    "town": "あけぼの",
    "town_kana": "アケボノ",
    "street": "２丁目１−５",
    "office_name": "千葉県　柏県税事務所",
    "office_name_kana": "チバケン カシワケンゼイジムシヨ"
  },
  "8561": {
    "postcode": "2778561",
    "prefecture": "千葉県",
    "prefecture_kana": "チバケン",
    "prefecture_code": 12,
    "city": "柏市",
    "city_kana": "カシワシ",
    "town": "柏の葉",
    "town_kana": "カシワノハ",
    "street": "５−１−５",
    "office_name": "東京大学大学院　新領域創成科学研究科基盤棟",
    "office_name_kana": "トウキヨウダイガクダイガクイン シンリヨウイキソウセイカガクケンキユウカキバントウ"
  },
  "8562": {
    "postcode": "2778562",
    "prefecture": "千葉県",
    "prefecture_kana": "チバケン",
    "prefecture_code": 12,
    "city": "柏市",
    "city_kana": "カシワシ",
    "town": "柏の葉",
    "town_kana": "カシワノハ",
    "street": "５−１−５",
    "office_name": "東京大学大学院　新領域創成科学研究科生命棟",
    "office_name_kana": "トウキヨウダイガクダイガクイン シンリヨウイキソウセイカガクケンキユウカセイメイトウ"
  },
  "8563": {
    "postcode": "2778563",
    "prefecture": "千葉県",
    "prefecture_kana": "チバケン",
    "prefecture_code": 12,
    "city": "柏市",
    "city_kana": "カシワシ",
    "town": "柏の葉",
    "town_kana": "カシワノハ",
    "street": "５−１−５",
    "office_name": "東京大学大学院　新領域創成科学研究科環境棟",
    "office_name_kana": "トウキヨウダイガクダイガクイン シンリヨウイキソウセイカガクケンキユウカカンキヨウトウ"
  },
  "8564": {
    "postcode": "2778564",
    "prefecture": "千葉県",
    "prefecture_kana": "チバケン",
    "prefecture_code": 12,
    "city": "柏市",
    "city_kana": "カシワシ",
    "town": "柏の葉",
    "town_kana": "カシワノハ",
    "street": "５−１−５",
    "office_name": "東京大学　大気海洋研究所",
    "office_name_kana": "トウキヨウダイガク タイキカイヨウケンキユウシヨ"
  },
  "8565": {
    "postcode": "2778565",
    "prefecture": "千葉県",
    "prefecture_kana": "チバケン",
    "prefecture_code": 12,
    "city": "柏市",
    "city_kana": "カシワシ",
    "town": "十余二",
    "town_kana": "トヨフタ",
    "street": "４０９",
    "office_name": "株式会社　ＤＮＰテクノポリマー",
    "office_name_kana": "カブシキガイシヤ デイ-エヌピ-テクノポリマ-"
  },
  "8566": {
    "postcode": "2778566",
    "prefecture": "千葉県",
    "prefecture_kana": "チバケン",
    "prefecture_code": 12,
    "city": "柏市",
    "city_kana": "カシワシ",
    "town": "末広町",
    "town_kana": "スエヒロチョウ",
    "street": "５−１９第１２関口ビル２Ｆ",
    "office_name": "読売旅行　柏営業所",
    "office_name_kana": "ヨミウリリヨコウ カシワエイギヨウシヨ"
  },
  "8568": {
    "postcode": "2778568",
    "prefecture": "千葉県",
    "prefecture_kana": "チバケン",
    "prefecture_code": 12,
    "city": "柏市",
    "city_kana": "カシワシ",
    "town": "柏の葉",
    "town_kana": "カシワノハ",
    "street": "５−１−５",
    "office_name": "東京大学柏地区総合研究棟",
    "office_name_kana": "トウキヨウダイガクカシワチクソウゴウケンキユウトウ"
  },
  "8569": {
    "postcode": "2778569",
    "prefecture": "千葉県",
    "prefecture_kana": "チバケン",
    "prefecture_code": 12,
    "city": "柏市",
    "city_kana": "カシワシ",
    "town": "柏の葉",
    "town_kana": "カシワノハ",
    "street": "５−１−５",
    "office_name": "東京大学　柏キャンパス　設備センター",
    "office_name_kana": "トウキヨウダイガク カシワキヤンパス セツビセンタ-"
  },
  "8570": {
    "postcode": "2778570",
    "prefecture": "千葉県",
    "prefecture_kana": "チバケン",
    "prefecture_code": 12,
    "city": "柏市",
    "city_kana": "カシワシ",
    "town": "旭町",
    "town_kana": "アサヒチョウ",
    "street": "３丁目２番１号",
    "office_name": "千葉県立　東葛飾高等学校",
    "office_name_kana": "チバケンリツ ヒガシカツシカコウトウガツコウ"
  },
  "8571": {
    "postcode": "2778571",
    "prefecture": "千葉県",
    "prefecture_kana": "チバケン",
    "prefecture_code": 12,
    "city": "柏市",
    "city_kana": "カシワシ",
    "town": "藤ケ谷",
    "town_kana": "フジガヤ",
    "street": "１８２３ナカノ商会柏沼南物流センター内",
    "office_name": "アマゾンジャパン　ＶＪＮＡ",
    "office_name_kana": "アマゾンジヤパン ブイジエイエヌエ-"
  },
  "8572": {
    "postcode": "2778572",
    "prefecture": "千葉県",
    "prefecture_kana": "チバケン",
    "prefecture_code": 12,
    "city": "柏市",
    "city_kana": "カシワシ",
    "town": "新十余二",
    "town_kana": "シントヨフタ",
    "street": "１３−１ＳＧリアルティ柏Ｂ棟２Ｆ",
    "office_name": "エディオン柏ＥＣ・ＴＣ第一",
    "office_name_kana": "エデイオンカシワイ-シ-・テイ-シ-ダイイチ"
  },
  "8573": {
    "postcode": "2778573",
    "prefecture": "千葉県",
    "prefecture_kana": "チバケン",
    "prefecture_code": 12,
    "city": "柏市",
    "city_kana": "カシワシ",
    "town": "新十余二",
    "town_kana": "シントヨフタ",
    "street": "１３−１ＳＧリアルティ柏Ａ棟５Ｆ",
    "office_name": "エディオン柏ＥＣ・ＴＣ第二",
    "office_name_kana": "エデイオンカシワイ-シ-・テイ-シ-ダイニ"
  },
  "8574": {
    "postcode": "2778574",
    "prefecture": "千葉県",
    "prefecture_kana": "チバケン",
    "prefecture_code": 12,
    "city": "柏市",
    "city_kana": "カシワシ",
    "town": "柏の葉",
    "town_kana": "カシワノハ",
    "street": "５−１−５",
    "office_name": "東京大学　生産技術研究所　千葉実験所",
    "office_name_kana": "トウキヨウダイガク セイサンギジユツケンキユウジヨ チバジツケンジヨ"
  },
  "8577": {
    "postcode": "2778577",
    "prefecture": "千葉県",
    "prefecture_kana": "チバケン",
    "prefecture_code": 12,
    "city": "柏市",
    "city_kana": "カシワシ",
    "town": "柏の葉",
    "town_kana": "カシワノハ",
    "street": "６丁目５−１",
    "office_name": "国立がんセンター東病院",
    "office_name_kana": "コクリツガンセンタ-ヒガシビヨウイン"
  },
  "8579": {
    "postcode": "2778579",
    "prefecture": "千葉県",
    "prefecture_kana": "チバケン",
    "prefecture_code": 12,
    "city": "柏市",
    "city_kana": "カシワシ",
    "town": "青田新田飛地",
    "town_kana": "アオタシンデントビチ",
    "street": "字向割２５９−１",
    "office_name": "株式会社　日立物流首都圏ＭＦＬＰ倉庫",
    "office_name_kana": "カブシキガイシヤ ヒタチブツリユウシユトケンエムエフエルピ-ソウコ"
  },
  "8581": {
    "postcode": "2778581",
    "prefecture": "千葉県",
    "prefecture_kana": "チバケン",
    "prefecture_code": 12,
    "city": "柏市",
    "city_kana": "カシワシ",
    "town": "柏の葉",
    "town_kana": "カシワノハ",
    "street": "５丁目１−５",
    "office_name": "東京大学　物性研究所",
    "office_name_kana": "トウキヨウダイガク ブツセイケンキユウジヨ"
  },
  "8582": {
    "postcode": "2778582",
    "prefecture": "千葉県",
    "prefecture_kana": "チバケン",
    "prefecture_code": 12,
    "city": "柏市",
    "city_kana": "カシワシ",
    "town": "柏の葉",
    "town_kana": "カシワノハ",
    "street": "５丁目１−５",
    "office_name": "東京大学　宇宙線研究所",
    "office_name_kana": "トウキヨウダイガク ウチユウセンケンキユウジヨ"
  },
  "8584": {
    "postcode": "2778584",
    "prefecture": "千葉県",
    "prefecture_kana": "チバケン",
    "prefecture_code": 12,
    "city": "柏市",
    "city_kana": "カシワシ",
    "town": "柏の葉",
    "town_kana": "カシワノハ",
    "street": "５−１−５",
    "office_name": "東京大学　柏図書館",
    "office_name_kana": "トウキヨウダイガク カシワトシヨカン"
  },
  "8585": {
    "postcode": "2778585",
    "prefecture": "千葉県",
    "prefecture_kana": "チバケン",
    "prefecture_code": 12,
    "city": "柏市",
    "city_kana": "カシワシ",
    "town": "大井",
    "town_kana": "オオイ",
    "street": "２５９０",
    "office_name": "二松学舎大学",
    "office_name_kana": "ニシヨウガクシヤダイガク"
  },
  "8586": {
    "postcode": "2778586",
    "prefecture": "千葉県",
    "prefecture_kana": "チバケン",
    "prefecture_code": 12,
    "city": "柏市",
    "city_kana": "カシワシ",
    "town": "根戸",
    "town_kana": "ネド",
    "street": "１−３",
    "office_name": "伊藤ハム　株式会社　東京工場",
    "office_name_kana": "イトウハム カブシキガイシヤ トウキヨウコウジヨウ"
  },
  "8587": {
    "postcode": "2778587",
    "prefecture": "千葉県",
    "prefecture_kana": "チバケン",
    "prefecture_code": 12,
    "city": "柏市",
    "city_kana": "カシワシ",
    "town": "柏の葉",
    "town_kana": "カシワノハ",
    "street": "５−１−５",
    "office_name": "独立行政法人　日本原子力研究開発機構　システム計算科学センター",
    "office_name_kana": "ドクリツギヨウセイホウジン ニホンゲンシリヨクケンキユウカイハツキコウ システムケイサンカガクセンタ-"
  },
  "8588": {
    "postcode": "2778588",
    "prefecture": "千葉県",
    "prefecture_kana": "チバケン",
    "prefecture_code": 12,
    "city": "柏市",
    "city_kana": "カシワシ",
    "town": "末広町",
    "town_kana": "スエヒロチョウ",
    "street": "１４−１明治安田生命柏フェイムズ９階",
    "office_name": "サンケイリビング新聞社　東葛本部",
    "office_name_kana": "サンケイリビングシンブンシヤ トウカツホンブ"
  },
  "8589": {
    "postcode": "2778589",
    "prefecture": "千葉県",
    "prefecture_kana": "チバケン",
    "prefecture_code": 12,
    "city": "柏市",
    "city_kana": "カシワシ",
    "town": "柏の葉",
    "town_kana": "カシワノハ",
    "street": "５丁目１番５号",
    "office_name": "東京大学　柏地区第２総合研究棟",
    "office_name_kana": "トウキヨウダイガク カシワチクダイニソウゴウケンキユウトウ"
  },
  "8654": {
    "postcode": "2778654",
    "prefecture": "千葉県",
    "prefecture_kana": "チバケン",
    "prefecture_code": 12,
    "city": "柏市",
    "city_kana": "カシワシ",
    "town": "光ケ丘",
    "town_kana": "ヒカリガオカ",
    "street": "２丁目１−１",
    "office_name": "公益財団法人　モラロジー研究所",
    "office_name_kana": "コウエキザイダンホウジン モラロジ-ケンキユウシヨ"
  },
  "8655": {
    "postcode": "2778655",
    "prefecture": "千葉県",
    "prefecture_kana": "チバケン",
    "prefecture_code": 12,
    "city": "柏市",
    "city_kana": "カシワシ",
    "town": "東上町",
    "town_kana": "アズマカミチョウ",
    "street": "８−１８（柏郵便局私書箱第３３号）",
    "office_name": "三井生命保険　株式会社　事務センター",
    "office_name_kana": "ミツイセイメイホケン カブシキガイシヤ ジムセンタ-"
  },
  "8661": {
    "postcode": "2778661",
    "prefecture": "千葉県",
    "prefecture_kana": "チバケン",
    "prefecture_code": 12,
    "city": "柏市",
    "city_kana": "カシワシ",
    "town": "藤ヶ谷",
    "town_kana": null,
    "street": "１６１４−１",
    "office_name": "海上自衛隊　下総航空基地",
    "office_name_kana": "カイジヨウジエイタイ シモフサコウクウキチ"
  },
  "8666": {
    "postcode": "2778666",
    "prefecture": "千葉県",
    "prefecture_kana": "チバケン",
    "prefecture_code": 12,
    "city": "柏市",
    "city_kana": "カシワシ",
    "town": "末広町",
    "town_kana": "スエヒロチョウ",
    "street": "３−１６",
    "office_name": "株式会社　高島屋　柏店",
    "office_name_kana": "カブシキガイシヤ タカシマヤ カシワテン"
  },
  "8686": {
    "postcode": "2778686",
    "prefecture": "千葉県",
    "prefecture_kana": "チバケン",
    "prefecture_code": 12,
    "city": "柏市",
    "city_kana": "カシワシ",
    "town": "光ケ丘",
    "town_kana": "ヒカリガオカ",
    "street": "２丁目１−１",
    "office_name": "学校法人　廣池学園",
    "office_name_kana": "ガツコウホウジン ヒロイケガクエン"
  }
}