{
  "0000": {
    "postcode": "2780000",
    "prefecture": "千葉県",
    "prefecture_kana": "チバケン",
    "prefecture_code": 12,
    "city": "野田市",
    "city_kana": "ノダシ",
    "town": "",
    "town_kana": "",
    "street": null,
    "office_name": null,
    "office_name_kana": null
  },
  "0001": {
    "postcode": "2780001",
    "prefecture": "千葉県",
    "prefecture_kana": "チバケン",
    "prefecture_code": 12,
    "city": "野田市",
    "city_kana": "ノダシ",
    "town": "目吹",
    "town_kana": "メフキ",
    "street": null,
    "office_name": null,
    "office_name_kana": null
  },
  "0002": {
    "postcode": "2780002",
    "prefecture": "千葉県",
    "prefecture_kana": "チバケン",
    "prefecture_code": 12,
    "city": "野田市",
    "city_kana": "ノダシ",
    "town": "木野崎",
    "town_kana": "キノサキ",
    "street": null,
    "office_name": null,
    "office_name_kana": null
  },
  "0003": {
    "postcode": "2780003",
    "prefecture": "千葉県",
    "prefecture_kana": "チバケン",
    "prefecture_code": 12,
    "city": "野田市",
    "city_kana": "ノダシ",
    "town": "鶴奉",
    "town_kana": "ツルホウ",
    "street": null,
    "office_name": null,
    "office_name_kana": null
  },
  "0004": {
    "postcode": "2780004",
    "prefecture": "千葉県",
    "prefecture_kana": "チバケン",
    "prefecture_code": 12,
    "city": "野田市",
    "city_kana": "ノダシ",
    "town": "横内",
    "town_kana": "ヨコウチ",
    "street": null,
    "office_name": null,
    "office_name_kana": null
  },
  "0005": {
    "postcode": "2780005",
    "prefecture": "千葉県",
    "prefecture_kana": "チバケン",
    "prefecture_code": 12,
    "city": "野田市",
    "city_kana": "ノダシ",
    "town": "宮崎",
    "town_kana": "ミヤザキ",
    "street": null,
    "office_name": null,
    "office_name_kana": null
  },
  "0006": {
    "postcode": "2780006",
    "prefecture": "千葉県",
    "prefecture_kana": "チバケン",
    "prefecture_code": 12,
    "city": "野田市",
    "city_kana": "ノダシ",
    "town": "柳沢",
    "town_kana": "ヤナギサワ",
    "street": null,
    "office_name": null,
    "office_name_kana": null
  },
  "0007": {
    "postcode": "2780007",
    "prefecture": "千葉県",
    "prefecture_kana": "チバケン",
    "prefecture_code": 12,
    "city": "野田市",
    "city_kana": "ノダシ",
    "town": "金杉",
    "town_kana": "カナスギ",
    "street": null,
    "office_name": null,
    "office_name_kana": null
  },
  "0011": {
    "postcode": "2780011",
    "prefecture": "千葉県",
    "prefecture_kana": "チバケン",
    "prefecture_code": 12,
    "city": "野田市",
    "city_kana": "ノダシ",
    "town": "三ツ堀",
    "town_kana": "ミツボリ",
    "street": null,
    "office_name": null,
    "office_name_kana": null
  },
  "0012": {
    "postcode": "2780012",
    "prefecture": "千葉県",
    "prefecture_kana": "チバケン",
    "prefecture_code": 12,
    "city": "野田市",
    "city_kana": "ノダシ",
    "town": "瀬戸",
    "town_kana": "セト",
    "street": null,
    "office_name": null,
    "office_name_kana": null
  },
  "0013": {
    "postcode": "2780013",
    "prefecture": "千葉県",
    "prefecture_kana": "チバケン",
    "prefecture_code": 12,
    "city": "野田市",
    "city_kana": "ノダシ",
    "town": "上三ケ尾",
    "town_kana": "カミサンガオ",
    "street": null,
    "office_name": null,
    "office_name_kana": null
  },
  "0014": {
    "postcode": "2780014",
    "prefecture": "千葉県",
    "prefecture_kana": "チバケン",
    "prefecture_code": 12,
    "city": "野田市",
    "city_kana": "ノダシ",
    "town": "下三ケ尾",
    "town_kana": "シモサンガオ",
    "street": null,
    "office_name": null,
    "office_name_kana": null
  },
  "0015": {
    "postcode": "2780015",
    "prefecture": "千葉県",
    "prefecture_kana": "チバケン",
    "prefecture_code": 12,
    "city": "野田市",
    "city_kana": "ノダシ",
    "town": "西三ケ尾",
    "town_kana": "ニシサンガオ",
    "street": null,
    "office_name": null,
    "office_name_kana": null
  },
  "0016": {
    "postcode": "2780016",
    "prefecture": "千葉県",
    "prefecture_kana": "チバケン",
    "prefecture_code": 12,
    "city": "野田市",
    "city_kana": "ノダシ",
    "town": "二ツ塚",
    "town_kana": "フタツカ",
    "street": null,
    "office_name": null,
    "office_name_kana": null
  },
  "0017": {
    "postcode": "2780017",
    "prefecture": "千葉県",
    "prefecture_kana": "チバケン",
    "prefecture_code": 12,
    "city": "野田市",
    "city_kana": "ノダシ",
    "town": "大殿井",
    "town_kana": "オオドノイ",
    "street": null,
    "office_name": null,
    "office_name_kana": null
  },
  "0021": {
    "postcode": "2780021",
    "prefecture": "千葉県",
    "prefecture_kana": "チバケン",
    "prefecture_code": 12,
    "city": "野田市",
    "city_kana": "ノダシ",
    "town": "堤根",
    "town_kana": "ツツミネ",
    "street": null,
    "office_name": null,
    "office_name_kana": null
  },
  "0022": {
    "postcode": "2780022",
    "prefecture": "千葉県",
    "prefecture_kana": "チバケン",
    "prefecture_code": 12,
    "city": "野田市",
    "city_kana": "ノダシ",
    "town": "山崎",
    "town_kana": "ヤマザキ",
    "street": null,
    "office_name": null,
    "office_name_kana": null
  },
  "0023": {
    "postcode": "2780023",
    "prefecture": "千葉県",
    "prefecture_kana": "チバケン",
    "prefecture_code": 12,
    "city": "野田市",
    "city_kana": "ノダシ",
    "town": "山崎貝塚町",
    "town_kana": "ヤマザキカイヅカチョウ",
    "street": null,
    "office_name": null,
    "office_name_kana": null
  },
  "0024": {
    "postcode": "2780024",
    "prefecture": "千葉県",
    "prefecture_kana": "チバケン",
    "prefecture_code": 12,
    "city": "野田市",
    "city_kana": "ノダシ",
    "town": "山崎梅の台",
    "town_kana": "ヤマザキウメノダイ",
    "street": null,
    "office_name": null,
    "office_name_kana": null
  },
  "0025": {
    "postcode": "2780025",
    "prefecture": "千葉県",
    "prefecture_kana": "チバケン",
    "prefecture_code": 12,
    "city": "野田市",
    "city_kana": "ノダシ",
    "town": "今上",
    "town_kana": "イマガミ",
    "street": null,
    "office_name": null,
    "office_name_kana": null
  },
  "0026": {
    "postcode": "2780026",
    "prefecture": "千葉県",
    "prefecture_kana": "チバケン",
    "prefecture_code": 12,
    "city": "野田市",
    "city_kana": "ノダシ",
    "town": "花井",
    "town_kana": "ハナイ",
    "street": null,
    "office_name": null,
    "office_name_kana": null
  },
  "0027": {
    "postcode": "2780027",
    "prefecture": "千葉県",
    "prefecture_kana": "チバケン",
    "prefecture_code": 12,
    "city": "野田市",
    "city_kana": "ノダシ",
    "town": "みずき",
    "town_kana": "ミズキ",
    "street": null,
    "office_name": null,
    "office_name_kana": null
  },
  "0028": {
    "postcode": "2780028",
    "prefecture": "千葉県",
    "prefecture_kana": "チバケン",
    "prefecture_code": 12,
    "city": "野田市",
    "city_kana": "ノダシ",
    "town": "桜木",
    "town_kana": "サクラギ",
    "street": null,
    "office_name": null,
    "office_name_kana": null
  },
  "0029": {
    "postcode": "2780029",
    "prefecture": "千葉県",
    "prefecture_kana": "チバケン",
    "prefecture_code": 12,
    "city": "野田市",
    "city_kana": "ノダシ",
    "town": "山崎新町",
    "town_kana": "ヤマザキシンマチ",
    "street": null,
    "office_name": null,
    "office_name_kana": null
  },
  "0031": {
    "postcode": "2780031",
    "prefecture": "千葉県",
    "prefecture_kana": "チバケン",
    "prefecture_code": 12,
    "city": "野田市",
    "city_kana": "ノダシ",
    "town": "中根",
    "town_kana": "ナカネ",
    "street": null,
    "office_name": null,
    "office_name_kana": null
  },
  "0032": {
    "postcode": "2780032",
    "prefecture": "千葉県",
    "prefecture_kana": "チバケン",
    "prefecture_code": 12,
    "city": "野田市",
    "city_kana": "ノダシ",
    "town": "桜台",
    "town_kana": "サクラダイ",
    "street": null,
    "office_name": null,
    "office_name_kana": null
  },
  "0033": {
    "postcode": "2780033",
    "prefecture": "千葉県",
    "prefecture_kana": "チバケン",
    "prefecture_code": 12,
    "city": "野田市",
    "city_kana": "ノダシ",
    "town": "上花輪",
    "town_kana": "カミハナワ",
    "street": null,
    "office_name": null,
    "office_name_kana": null
  },
  "0034": {
    "postcode": "2780034",
    "prefecture": "千葉県",
    "prefecture_kana": "チバケン",
    "prefecture_code": 12,
    "city": "野田市",
    "city_kana": "ノダシ",
    "town": "上花輪新町",
    "town_kana": "カミハナワシンマチ",
    "street": null,
    "office_name": null,
    "office_name_kana": null
  },
  "0035": {
    "postcode": "2780035",
    "prefecture": "千葉県",
    "prefecture_kana": "チバケン",
    "prefecture_code": 12,
    "city": "野田市",
    "city_kana": "ノダシ",
    "town": "中野台",
    "town_kana": "ナカノダイ",
    "street": null,
    "office_name": null,
    "office_name_kana": null
  },
  "0036": {
    "postcode": "2780036",
    "prefecture": "千葉県",
    "prefecture_kana": "チバケン",
    "prefecture_code": 12,
    "city": "野田市",
    "city_kana": "ノダシ",
    "town": "中野台鹿島町",
    "town_kana": "ナカノダイカシマチョウ",
    "street": null,
    "office_name": null,
    "office_name_kana": null
  },
  "0037": {
    "postcode": "2780037",
    "prefecture": "千葉県",
    "prefecture_kana": "チバケン",
    "prefecture_code": 12,
    "city": "野田市",
    "city_kana": "ノダシ",
    "town": "野田",
    "town_kana": "ノダ",
    "street": null,
    "office_name": null,
    "office_name_kana": null
  },
  "0038": {
    "postcode": "2780038",
    "prefecture": "千葉県",
    "prefecture_kana": "チバケン",
    "prefecture_code": 12,
    "city": "野田市",
    "city_kana": "ノダシ",
    "town": "つつみ野",
    "town_kana": "ツツミノ",
    "street": null,
    "office_name": null,
    "office_name_kana": null
  },
  "0041": {
    "postcode": "2780041",
    "prefecture": "千葉県",
    "prefecture_kana": "チバケン",
    "prefecture_code": 12,
    "city": "野田市",
    "city_kana": "ノダシ",
    "town": "蕃昌",
    "town_kana": "バンショウ",
    "street": null,
    "office_name": null,
    "office_name_kana": null
  },
  "0042": {
    "postcode": "2780042",
    "prefecture": "千葉県",
    "prefecture_kana": "チバケン",
    "prefecture_code": 12,
    "city": "野田市",
    "city_kana": "ノダシ",
    "town": "吉春",
    "town_kana": "ヨシハル",
    "street": null,
    "office_name": null,
    "office_name_kana": null
  },
  "0043": {
    "postcode": "2780043",
    "prefecture": "千葉県",
    "prefecture_kana": "チバケン",
    "prefecture_code": 12,
    "city": "野田市",
    "city_kana": "ノダシ",
    "town": "清水",
    "town_kana": "シミズ",
    "street": null,
    "office_name": null,
    "office_name_kana": null
  },
  "0044": {
    "postcode": "2780044",
    "prefecture": "千葉県",
    "prefecture_kana": "チバケン",
    "prefecture_code": 12,
    "city": "野田市",
    "city_kana": "ノダシ",
    "town": "堤台",
    "town_kana": "ツツミダイ",
    "street": null,
    "office_name": null,
    "office_name_kana": null
  },
  "0045": {
    "postcode": "2780045",
    "prefecture": "千葉県",
    "prefecture_kana": "チバケン",
    "prefecture_code": 12,
    "city": "野田市",
    "city_kana": "ノダシ",
    "town": "座生",
    "town_kana": "ザオウ",
    "street": null,
    "office_name": null,
    "office_name_kana": null
  },
  "0046": {
    "postcode": "2780046",
    "prefecture": "千葉県",
    "prefecture_kana": "チバケン",
    "prefecture_code": 12,
    "city": "野田市",
    "city_kana": "ノダシ",
    "town": "谷津",
    "town_kana": "ヤツ",
    "street": null,
    "office_name": null,
    "office_name_kana": null
  },
  "0047": {
    "postcode": "2780047",
    "prefecture": "千葉県",
    "prefecture_kana": "チバケン",
    "prefecture_code": 12,
    "city": "野田市",
    "city_kana": "ノダシ",
    "town": "清水公園東",
    "town_kana": "シミズコウエンヒガシ",
    "street": null,
    "office_name": null,
    "office_name_kana": null
  },
  "0048": {
    "postcode": "2780048",
    "prefecture": "千葉県",
    "prefecture_kana": "チバケン",
    "prefecture_code": 12,
    "city": "野田市",
    "city_kana": "ノダシ",
    "town": "桜の里",
    "town_kana": "サクラノサト",
    "street": null,
    "office_name": null,
    "office_name_kana": null
  },
  "0051": {
    "postcode": "2780051",
    "prefecture": "千葉県",
    "prefecture_kana": "チバケン",
    "prefecture_code": 12,
    "city": "野田市",
    "city_kana": "ノダシ",
    "town": "七光台",
    "town_kana": "ナナコウダイ",
    "street": null,
    "office_name": null,
    "office_name_kana": null
  },
  "0052": {
    "postcode": "2780052",
    "prefecture": "千葉県",
    "prefecture_kana": "チバケン",
    "prefecture_code": 12,
    "city": "野田市",
    "city_kana": "ノダシ",
    "town": "春日町",
    "town_kana": "カスガチョウ",
    "street": null,
    "office_name": null,
    "office_name_kana": null
  },
  "0053": {
    "postcode": "2780053",
    "prefecture": "千葉県",
    "prefecture_kana": "チバケン",
    "prefecture_code": 12,
    "city": "野田市",
    "city_kana": "ノダシ",
    "town": "五木新町",
    "town_kana": "ゴキシンマチ",
    "street": null,
    "office_name": null,
    "office_name_kana": null
  },
  "0054": {
    "postcode": "2780054",
    "prefecture": "千葉県",
    "prefecture_kana": "チバケン",
    "prefecture_code": 12,
    "city": "野田市",
    "city_kana": "ノダシ",
    "town": "五木",
    "town_kana": "ゴキ",
    "street": null,
    "office_name": null,
    "office_name_kana": null
  },
  "0055": {
    "postcode": "2780055",
    "prefecture": "千葉県",
    "prefecture_kana": "チバケン",
    "prefecture_code": 12,
    "city": "野田市",
    "city_kana": "ノダシ",
    "town": "岩名",
    "town_kana": "イワナ",
    "street": null,
    "office_name": null,
    "office_name_kana": null
  },
  "0056": {
    "postcode": "2780056",
    "prefecture": "千葉県",
    "prefecture_kana": "チバケン",
    "prefecture_code": 12,
    "city": "野田市",
    "city_kana": "ノダシ",
    "town": "五木新田",
    "town_kana": "ゴキシンデン",
    "street": null,
    "office_name": null,
    "office_name_kana": null
  },
  "0057": {
    "postcode": "2780057",
    "prefecture": "千葉県",
    "prefecture_kana": "チバケン",
    "prefecture_code": 12,
    "city": "野田市",
    "city_kana": "ノダシ",
    "town": "光葉町",
    "town_kana": "コウヨウチョウ",
    "street": null,
    "office_name": null,
    "office_name_kana": null
  },
  "8501": {
    "postcode": "2788501",
    "prefecture": "千葉県",
    "prefecture_kana": "チバケン",
    "prefecture_code": 12,
    "city": "野田市",
    "city_kana": "ノダシ",
    "town": "横内",
    "town_kana": "ヨコウチ",
    "street": "２９−１",
    "office_name": "小張総合病院",
    "office_name_kana": "コバリソウゴウビヨウイン"
  },
  "8510": {
    "postcode": "2788510",
    "prefecture": "千葉県",
    "prefecture_kana": "チバケン",
    "prefecture_code": 12,
    "city": "野田市",
    "city_kana": "ノダシ",
    "town": "山崎",
    "town_kana": "ヤマザキ",
    "street": "２６４１",
    "office_name": "東京理科大学",
    "office_name_kana": "トウキヨウリカダイガク"
  },
  "8521": {
    "postcode": "2788521",
    "prefecture": "千葉県",
    "prefecture_kana": "チバケン",
    "prefecture_code": 12,
    "city": "野田市",
    "city_kana": "ノダシ",
    "town": "山崎",
    "town_kana": "ヤマザキ",
    "street": "２６８３−１",
    "office_name": "宗教法人　霊波之光",
    "office_name_kana": "シユウキヨウホウジン レイハノヒカリ"
  },
  "8533": {
    "postcode": "2788533",
    "prefecture": "千葉県",
    "prefecture_kana": "チバケン",
    "prefecture_code": 12,
    "city": "野田市",
    "city_kana": "ノダシ",
    "town": "金杉",
    "town_kana": "カナスギ",
    "street": "２３１９",
    "office_name": "協栄電気　株式会社　野田受注センター",
    "office_name_kana": "キヨウエイデンキ カブシキガイシヤ ノダジユチユウセンタ-"
  },
  "8550": {
    "postcode": "2788550",
    "prefecture": "千葉県",
    "prefecture_kana": "チバケン",
    "prefecture_code": 12,
    "city": "野田市",
    "city_kana": "ノダシ",
    "town": "鶴奉",
    "town_kana": "ツルホウ",
    "street": "７−１",
    "office_name": "野田市役所",
    "office_name_kana": "ノダシヤクシヨ"
  },
  "8555": {
    "postcode": "2788555",
    "prefecture": "千葉県",
    "prefecture_kana": "チバケン",
    "prefecture_code": 12,
    "city": "野田市",
    "city_kana": "ノダシ",
    "town": "山崎",
    "town_kana": "ヤマザキ",
    "street": "６９１",
    "office_name": "窪田味噌醤油　株式会社",
    "office_name_kana": "クボタミソシヨウユ カブシキガイシヤ"
  },
  "8570": {
    "postcode": "2788570",
    "prefecture": "千葉県",
    "prefecture_kana": "チバケン",
    "prefecture_code": 12,
    "city": "野田市",
    "city_kana": "ノダシ",
    "town": "西三ケ尾",
    "town_kana": "ニシサンガオ",
    "street": "３５５−１５",
    "office_name": "株式会社　日立物流　東日本営業本部　東関東営業部",
    "office_name_kana": "カブシキガイシヤ ヒタチブツリユウ ヒガシニホンエイギヨウホンブ ヒガシカントウエイギヨウブ"
  },
  "8577": {
    "postcode": "2788577",
    "prefecture": "千葉県",
    "prefecture_kana": "チバケン",
    "prefecture_code": 12,
    "city": "野田市",
    "city_kana": "ノダシ",
    "town": "七光台",
    "town_kana": "ナナコウダイ",
    "street": "１３５番地",
    "office_name": "株式会社　メイワパックス",
    "office_name_kana": "カブシキガイシヤ メイワパツクス"
  },
  "8601": [
    {
      "postcode": "2788601",
      "prefecture": "千葉県",
      "prefecture_kana": "チバケン",
      "prefecture_code": 12,
      "city": "野田市",
      "city_kana": "ノダシ",
      "town": "野田",
      "town_kana": "ノダ",
      "street": "２５０番地（野田郵便局私書箱第１号）",
      "office_name": "キッコーマン飲料　株式会社",
      "office_name_kana": "キツコ-マンインリヨウ カブシキガイシヤ"
    },
    {
      "postcode": "2788601",
      "prefecture": "千葉県",
      "prefecture_kana": "チバケン",
      "prefecture_code": 12,
      "city": "野田市",
      "city_kana": "ノダシ",
      "town": "野田",
      "town_kana": "ノダ",
      "street": "２５０番地（野田郵便局私書箱第１号）",
      "office_name": "キッコーマンクリーンサービス　株式会社",
      "office_name_kana": "キツコ-マンクリ-ンサ-ビス カブシキガイシヤ"
    },
    {
      "postcode": "2788601",
      "prefecture": "千葉県",
      "prefecture_kana": "チバケン",
      "prefecture_code": 12,
      "city": "野田市",
      "city_kana": "ノダシ",
      "town": "野田",
      "town_kana": "ノダ",
      "street": "２５０番地（野田郵便局私書箱第１号）",
      "office_name": "キッコーマン食品　株式会社",
      "office_name_kana": "キツコ-マンシヨクヒン カブシキガイシヤ"
    },
    {
      "postcode": "2788601",
      "prefecture": "千葉県",
      "prefecture_kana": "チバケン",
      "prefecture_code": 12,
      "city": "野田市",
      "city_kana": "ノダシ",
      "town": "野田",
      "town_kana": "ノダ",
      "street": "２５０番地（野田郵便局私書箱第１号）",
      "office_name": "キッコーマンバイオケミファ　株式会社",
      "office_name_kana": "キツコ-マンバイオケミフア カブシキガイシヤ"
    },
    {
      "postcode": "2788601",
      "prefecture": "千葉県",
      "prefecture_kana": "チバケン",
      "prefecture_code": 12,
      "city": "野田市",
      "city_kana": "ノダシ",
      "town": "野田",
      "town_kana": "ノダ",
      "street": "２５０番地（野田郵便局私書箱第１号）",
      "office_name": "キッコーマンビジネスサービス　株式会社",
      "office_name_kana": "キツコ-マンビジネスサ-ビス カブシキガイシヤ"
    },
    {
      "postcode": "2788601",
      "prefecture": "千葉県",
      "prefecture_kana": "チバケン",
      "prefecture_code": 12,
      "city": "野田市",
      "city_kana": "ノダシ",
      "town": "野田",
      "town_kana": "ノダ",
      "street": "２５０（野田郵便局私書箱第１号）",
      "office_name": "キッコーマン　株式会社",
      "office_name_kana": "キツコ-マン カブシキカイシヤ"
    }
  ],
  "8686": {
    "postcode": "2788686",
    "prefecture": "千葉県",
    "prefecture_kana": "チバケン",
    "prefecture_code": 12,
    "city": "野田市",
    "city_kana": "ノダシ",
    "town": "中根",
    "town_kana": "ナカネ",
    "street": "３１０",
    "office_name": "利根コカ・コーラボトリング　株式会社",
    "office_name_kana": "トネコカ・コ-ラボトリング カブシキカイシヤ"
  }
}