{
  "0000": {
    "postcode": "2790000",
    "prefecture": "千葉県",
    "prefecture_kana": "チバケン",
    "prefecture_code": 12,
    "city": "浦安市",
    "city_kana": "ウラヤスシ",
    "town": "",
    "town_kana": "",
    "street": null,
    "office_name": null,
    "office_name_kana": null
  },
  "0001": {
    "postcode": "2790001",
    "prefecture": "千葉県",
    "prefecture_kana": "チバケン",
    "prefecture_code": 12,
    "city": "浦安市",
    "city_kana": "ウラヤスシ",
    "town": "当代島",
    "town_kana": "トウダイジマ",
    "street": null,
    "office_name": null,
    "office_name_kana": null
  },
  "0002": {
    "postcode": "2790002",
    "prefecture": "千葉県",
    "prefecture_kana": "チバケン",
    "prefecture_code": 12,
    "city": "浦安市",
    "city_kana": "ウラヤスシ",
    "town": "北栄",
    "town_kana": "キタザカエ",
    "street": null,
    "office_name": null,
    "office_name_kana": null
  },
  "0003": {
    "postcode": "2790003",
    "prefecture": "千葉県",
    "prefecture_kana": "チバケン",
    "prefecture_code": 12,
    "city": "浦安市",
    "city_kana": "ウラヤスシ",
    "town": "海楽",
    "town_kana": "カイラク",
    "street": null,
    "office_name": null,
    "office_name_kana": null
  },
  "0004": {
    "postcode": "2790004",
    "prefecture": "千葉県",
    "prefecture_kana": "チバケン",
    "prefecture_code": 12,
    "city": "浦安市",
    "city_kana": "ウラヤスシ",
    "town": "猫実",
    "town_kana": "ネコザネ",
    "street": null,
    "office_name": null,
    "office_name_kana": null
  },
  "0011": {
    "postcode": "2790011",
    "prefecture": "千葉県",
    "prefecture_kana": "チバケン",
    "prefecture_code": 12,
    "city": "浦安市",
    "city_kana": "ウラヤスシ",
    "town": "美浜",
    "town_kana": "ミハマ",
    "street": null,
    "office_name": null,
    "office_name_kana": null
  },
  "0012": {
    "postcode": "2790012",
    "prefecture": "千葉県",
    "prefecture_kana": "チバケン",
    "prefecture_code": 12,
    "city": "浦安市",
    "city_kana": "ウラヤスシ",
    "town": "入船",
    "town_kana": "イリフネ",
    "street": null,
    "office_name": null,
    "office_name_kana": null
  },
  "0013": {
    "postcode": "2790013",
    "prefecture": "千葉県",
    "prefecture_kana": "チバケン",
    "prefecture_code": 12,
    "city": "浦安市",
    "city_kana": "ウラヤスシ",
    "town": "日の出",
    "town_kana": "ヒノデ",
    "street": null,
    "office_name": null,
    "office_name_kana": null
  },
  "0014": {
    "postcode": "2790014",
    "prefecture": "千葉県",
    "prefecture_kana": "チバケン",
    "prefecture_code": 12,
    "city": "浦安市",
    "city_kana": "ウラヤスシ",
    "town": "明海",
    "town_kana": "アケミ",
    "street": null,
    "office_name": null,
    "office_name_kana": null
  },
  "0021": {
    "postcode": "2790021",
    "prefecture": "千葉県",
    "prefecture_kana": "チバケン",
    "prefecture_code": 12,
    "city": "浦安市",
    "city_kana": "ウラヤスシ",
    "town": "富岡",
    "town_kana": "トミオカ",
    "street": null,
    "office_name": null,
    "office_name_kana": null
  },
  "0022": {
    "postcode": "2790022",
    "prefecture": "千葉県",
    "prefecture_kana": "チバケン",
    "prefecture_code": 12,
    "city": "浦安市",
    "city_kana": "ウラヤスシ",
    "town": "今川",
    "town_kana": "イマガワ",
    "street": null,
    "office_name": null,
    "office_name_kana": null
  },
  "0023": {
    "postcode": "2790023",
    "prefecture": "千葉県",
    "prefecture_kana": "チバケン",
    "prefecture_code": 12,
    "city": "浦安市",
    "city_kana": "ウラヤスシ",
    "town": "高洲",
    "town_kana": "タカス",
    "street": null,
    "office_name": null,
    "office_name_kana": null
  },
  "0024": {
    "postcode": "2790024",
    "prefecture": "千葉県",
    "prefecture_kana": "チバケン",
    "prefecture_code": 12,
    "city": "浦安市",
    "city_kana": "ウラヤスシ",
    "town": "港",
    "town_kana": "ミナト",
    "street": null,
    "office_name": null,
    "office_name_kana": null
  },
  "0025": {
    "postcode": "2790025",
    "prefecture": "千葉県",
    "prefecture_kana": "チバケン",
    "prefecture_code": 12,
    "city": "浦安市",
    "city_kana": "ウラヤスシ",
    "town": "鉄鋼通り",
    "town_kana": "テッコウドオリ",
    "street": null,
    "office_name": null,
    "office_name_kana": null
  },
  "0026": {
    "postcode": "2790026",
    "prefecture": "千葉県",
    "prefecture_kana": "チバケン",
    "prefecture_code": 12,
    "city": "浦安市",
    "city_kana": "ウラヤスシ",
    "town": "弁天",
    "town_kana": "ベンテン",
    "street": null,
    "office_name": null,
    "office_name_kana": null
  },
  "0031": {
    "postcode": "2790031",
    "prefecture": "千葉県",
    "prefecture_kana": "チバケン",
    "prefecture_code": 12,
    "city": "浦安市",
    "city_kana": "ウラヤスシ",
    "town": "舞浜",
    "town_kana": "マイハマ",
    "street": null,
    "office_name": null,
    "office_name_kana": null
  },
  "0032": {
    "postcode": "2790032",
    "prefecture": "千葉県",
    "prefecture_kana": "チバケン",
    "prefecture_code": 12,
    "city": "浦安市",
    "city_kana": "ウラヤスシ",
    "town": "千鳥",
    "town_kana": "チドリ",
    "street": null,
    "office_name": null,
    "office_name_kana": null
  },
  "0041": {
    "postcode": "2790041",
    "prefecture": "千葉県",
    "prefecture_kana": "チバケン",
    "prefecture_code": 12,
    "city": "浦安市",
    "city_kana": "ウラヤスシ",
    "town": "堀江",
    "town_kana": "ホリエ",
    "street": null,
    "office_name": null,
    "office_name_kana": null
  },
  "0042": {
    "postcode": "2790042",
    "prefecture": "千葉県",
    "prefecture_kana": "チバケン",
    "prefecture_code": 12,
    "city": "浦安市",
    "city_kana": "ウラヤスシ",
    "town": "東野",
    "town_kana": "ヒガシノ",
    "street": null,
    "office_name": null,
    "office_name_kana": null
  },
  "0043": {
    "postcode": "2790043",
    "prefecture": "千葉県",
    "prefecture_kana": "チバケン",
    "prefecture_code": 12,
    "city": "浦安市",
    "city_kana": "ウラヤスシ",
    "town": "富士見",
    "town_kana": "フジミ",
    "street": null,
    "office_name": null,
    "office_name_kana": null
  },
  "8501": {
    "postcode": "2798501",
    "prefecture": "千葉県",
    "prefecture_kana": "チバケン",
    "prefecture_code": 12,
    "city": "浦安市",
    "city_kana": "ウラヤスシ",
    "town": "猫実",
    "town_kana": "ネコザネ",
    "street": "１丁目１−１",
    "office_name": "浦安市役所",
    "office_name_kana": "ウラヤスシヤクシヨ"
  },
  "8502": {
    "postcode": "2798502",
    "prefecture": "千葉県",
    "prefecture_kana": "チバケン",
    "prefecture_code": 12,
    "city": "浦安市",
    "city_kana": "ウラヤスシ",
    "town": "明海",
    "town_kana": "アケミ",
    "street": "７丁目１番地１",
    "office_name": "東京セレブレーションホテル（ウィッシュ）",
    "office_name_kana": "トウキヨウセレブレ-シヨンホテル(ウイツシユ)"
  },
  "8503": {
    "postcode": "2798503",
    "prefecture": "千葉県",
    "prefecture_kana": "チバケン",
    "prefecture_code": 12,
    "city": "浦安市",
    "city_kana": "ウラヤスシ",
    "town": "日の出",
    "town_kana": "ヒノデ",
    "street": "７丁目１番地１",
    "office_name": "東京セレブレーションホテル（ディスカバー）",
    "office_name_kana": "トウキヨウセレブレ-シヨンホテル(デイスカバ-)"
  },
  "8504": {
    "postcode": "2798504",
    "prefecture": "千葉県",
    "prefecture_kana": "チバケン",
    "prefecture_code": 12,
    "city": "浦安市",
    "city_kana": "ウラヤスシ",
    "town": "舞浜",
    "town_kana": "マイハマ",
    "street": "１番地１",
    "office_name": "株式会社　Ｍテック",
    "office_name_kana": "カブシキガイシヤ エムテツク"
  },
  "8505": {
    "postcode": "2798505",
    "prefecture": "千葉県",
    "prefecture_kana": "チバケン",
    "prefecture_code": 12,
    "city": "浦安市",
    "city_kana": "ウラヤスシ",
    "town": "舞浜",
    "town_kana": "マイハマ",
    "street": "２９−１",
    "office_name": "東京ディズニーランドホテル",
    "office_name_kana": "トウキヨウデイズニ-ランドホテル"
  },
  "8506": {
    "postcode": "2798506",
    "prefecture": "千葉県",
    "prefecture_kana": "チバケン",
    "prefecture_code": 12,
    "city": "浦安市",
    "city_kana": "ウラヤスシ",
    "town": "舞浜",
    "town_kana": "マイハマ",
    "street": "１−４７",
    "office_name": "東京ディズニーリゾート・トイ・ストーリーホテル",
    "office_name_kana": "トウキヨウデイズニ-リゾ-ト・トイ・スト-リ-ホテル"
  },
  "8511": {
    "postcode": "2798511",
    "prefecture": "千葉県",
    "prefecture_kana": "チバケン",
    "prefecture_code": 12,
    "city": "浦安市",
    "city_kana": "ウラヤスシ",
    "town": "舞浜",
    "town_kana": "マイハマ",
    "street": "１−１",
    "office_name": "株式会社　オリエンタルランド",
    "office_name_kana": "カブシキガイシヤ オリエンタルランド"
  },
  "8512": {
    "postcode": "2798512",
    "prefecture": "千葉県",
    "prefecture_kana": "チバケン",
    "prefecture_code": 12,
    "city": "浦安市",
    "city_kana": "ウラヤスシ",
    "town": "舞浜",
    "town_kana": "マイハマ",
    "street": "２番地５０",
    "office_name": "舞浜アンフィシアター",
    "office_name_kana": "マイハマアンフイシアタ-"
  },
  "8516": {
    "postcode": "2798516",
    "prefecture": "千葉県",
    "prefecture_kana": "チバケン",
    "prefecture_code": 12,
    "city": "浦安市",
    "city_kana": "ウラヤスシ",
    "town": "美浜",
    "town_kana": "ミハマ",
    "street": "１−８−１ＯＬＣ新浦安ビル",
    "office_name": "株式会社　オリエンタルランド・イノベーションズ",
    "office_name_kana": "カブシキガイシヤ オリエンタルランド・イノベ-シヨンズ"
  },
  "8519": {
    "postcode": "2798519",
    "prefecture": "千葉県",
    "prefecture_kana": "チバケン",
    "prefecture_code": 12,
    "city": "浦安市",
    "city_kana": "ウラヤスシ",
    "town": "舞浜",
    "town_kana": "マイハマ",
    "street": "１−１３",
    "office_name": "東京ディズニーシー・ホテルミラコスタ",
    "office_name_kana": "トウキヨウデイズニ-シ-・ホテルミラコスタ"
  },
  "8521": {
    "postcode": "2798521",
    "prefecture": "千葉県",
    "prefecture_kana": "チバケン",
    "prefecture_code": 12,
    "city": "浦安市",
    "city_kana": "ウラヤスシ",
    "town": "舞浜",
    "town_kana": "マイハマ",
    "street": "１番地１",
    "office_name": "株式会社　舞浜コーポレーション",
    "office_name_kana": "カブシキガイシヤ マイハマコ-ポレ-シヨン"
  },
  "8522": {
    "postcode": "2798522",
    "prefecture": "千葉県",
    "prefecture_kana": "チバケン",
    "prefecture_code": 12,
    "city": "浦安市",
    "city_kana": "ウラヤスシ",
    "town": "舞浜",
    "town_kana": "マイハマ",
    "street": "２番地１１",
    "office_name": "ディズニーアンバサダーホテル",
    "office_name_kana": "デイズニ-アンバサダ-ホテル"
  },
  "8523": {
    "postcode": "2798523",
    "prefecture": "千葉県",
    "prefecture_kana": "チバケン",
    "prefecture_code": 12,
    "city": "浦安市",
    "city_kana": "ウラヤスシ",
    "town": "舞浜",
    "town_kana": "マイハマ",
    "street": "２番地１８",
    "office_name": "株式会社　舞浜リゾートライン",
    "office_name_kana": "カブシキガイシヤ マイハマリゾ-トライン"
  },
  "8525": {
    "postcode": "2798525",
    "prefecture": "千葉県",
    "prefecture_kana": "チバケン",
    "prefecture_code": 12,
    "city": "浦安市",
    "city_kana": "ウラヤスシ",
    "town": "美浜",
    "town_kana": "ミハマ",
    "street": "１丁目８番１号ＯＬＣ新浦安ビル４階",
    "office_name": "株式会社　オリエンタルランド・クリエイションズ",
    "office_name_kana": "カブシキガイシヤ オリエンタルランド・クリエイシヨンズ"
  },
  "8526": {
    "postcode": "2798526",
    "prefecture": "千葉県",
    "prefecture_kana": "チバケン",
    "prefecture_code": 12,
    "city": "浦安市",
    "city_kana": "ウラヤスシ",
    "town": "舞浜",
    "town_kana": "マイハマ",
    "street": "１番地２",
    "office_name": "東京ディズニーシー・ファンタジースプリングスホテル",
    "office_name_kana": "トウキヨウデイズニ-シ-・フアンタジ-スプリングスホテル"
  },
  "8527": {
    "postcode": "2798527",
    "prefecture": "千葉県",
    "prefecture_kana": "チバケン",
    "prefecture_code": 12,
    "city": "浦安市",
    "city_kana": "ウラヤスシ",
    "town": "舞浜",
    "town_kana": "マイハマ",
    "street": "１番地１",
    "office_name": "株式会社　ベイフードサービス",
    "office_name_kana": "カブシキガイシヤ ベイフ-ドサ-ビス"
  },
  "8529": {
    "postcode": "2798529",
    "prefecture": "千葉県",
    "prefecture_kana": "チバケン",
    "prefecture_code": 12,
    "city": "浦安市",
    "city_kana": "ウラヤスシ",
    "town": "舞浜",
    "town_kana": "マイハマ",
    "street": "１−４",
    "office_name": "株式会社　イクスピアリ",
    "office_name_kana": "カブシキガイシヤ イクスピアリ"
  },
  "8530": {
    "postcode": "2798530",
    "prefecture": "千葉県",
    "prefecture_kana": "チバケン",
    "prefecture_code": 12,
    "city": "浦安市",
    "city_kana": "ウラヤスシ",
    "town": "日の出",
    "town_kana": "ヒノデ",
    "street": "１",
    "office_name": "東京電力　株式会社　市川浦安営業所",
    "office_name_kana": "トウキヨウデンリヨク カブシキガイシヤ イチカワウラヤスエイギヨウシヨ"
  },
  "8531": {
    "postcode": "2798531",
    "prefecture": "千葉県",
    "prefecture_kana": "チバケン",
    "prefecture_code": 12,
    "city": "浦安市",
    "city_kana": "ウラヤスシ",
    "town": "舞浜",
    "town_kana": "マイハマ",
    "street": "１−１",
    "office_name": "株式会社　ＭＢＭ",
    "office_name_kana": "カブシキガイシヤ エムビ-エム"
  },
  "8532": {
    "postcode": "2798532",
    "prefecture": "千葉県",
    "prefecture_kana": "チバケン",
    "prefecture_code": 12,
    "city": "浦安市",
    "city_kana": "ウラヤスシ",
    "town": "美浜",
    "town_kana": "ミハマ",
    "street": "１−９−２パシフィックマークス新浦安４階",
    "office_name": "株式会社　ＭＢＭ",
    "office_name_kana": "カブシキガイシヤ エムビ-エム"
  },
  "8541": {
    "postcode": "2798541",
    "prefecture": "千葉県",
    "prefecture_kana": "チバケン",
    "prefecture_code": 12,
    "city": "浦安市",
    "city_kana": "ウラヤスシ",
    "town": "千鳥",
    "town_kana": "チドリ",
    "street": "１２−１５",
    "office_name": "株式会社　パルタック　東京支社",
    "office_name_kana": "カブシキガイシヤ パルタツク トウキヨウシシヤ"
  },
  "8550": {
    "postcode": "2798550",
    "prefecture": "千葉県",
    "prefecture_kana": "チバケン",
    "prefecture_code": 12,
    "city": "浦安市",
    "city_kana": "ウラヤスシ",
    "town": "明海",
    "town_kana": "アケミ",
    "street": "８",
    "office_name": "明海大学",
    "office_name_kana": "メイカイダイガク"
  },
  "8553": {
    "postcode": "2798553",
    "prefecture": "千葉県",
    "prefecture_kana": "チバケン",
    "prefecture_code": 12,
    "city": "浦安市",
    "city_kana": "ウラヤスシ",
    "town": "日の出",
    "town_kana": "ヒノデ",
    "street": "２丁目１−８",
    "office_name": "株式会社　リーガルコーポレーション",
    "office_name_kana": "カブシキガイシヤ リ-ガルコ-ポレ-シヨン"
  },
  "8555": {
    "postcode": "2798555",
    "prefecture": "千葉県",
    "prefecture_kana": "チバケン",
    "prefecture_code": 12,
    "city": "浦安市",
    "city_kana": "ウラヤスシ",
    "town": "美浜",
    "town_kana": "ミハマ",
    "street": "１丁目８−１",
    "office_name": "東レ　株式会社　第２本社",
    "office_name_kana": "トウレ カブシキガイシヤ ダイニホンシヤ"
  },
  "8558": {
    "postcode": "2798558",
    "prefecture": "千葉県",
    "prefecture_kana": "チバケン",
    "prefecture_code": 12,
    "city": "浦安市",
    "city_kana": "ウラヤスシ",
    "town": "東野",
    "town_kana": "ヒガシノ",
    "street": "３−１１−１",
    "office_name": "東海大学付属　浦安高等学校",
    "office_name_kana": "トウカイダイガクフゾク ウラヤスコウトウガツコウ"
  },
  "8567": {
    "postcode": "2798567",
    "prefecture": "千葉県",
    "prefecture_kana": "チバケン",
    "prefecture_code": 12,
    "city": "浦安市",
    "city_kana": "ウラヤスシ",
    "town": "明海",
    "town_kana": "アケミ",
    "street": "２３",
    "office_name": "学校法人　了徳寺大学",
    "office_name_kana": "ガツコウホウジン リヨウトクジダイガク"
  },
  "8570": {
    "postcode": "2798570",
    "prefecture": "千葉県",
    "prefecture_kana": "チバケン",
    "prefecture_code": 12,
    "city": "浦安市",
    "city_kana": "ウラヤスシ",
    "town": "舞浜",
    "town_kana": "マイハマ",
    "street": "２番地１８",
    "office_name": "株式会社　リゾートコスチューミングサービス",
    "office_name_kana": "カブシキガイシヤ リゾ-トコスチユ-ミングサ-ビス"
  },
  "8580": {
    "postcode": "2798580",
    "prefecture": "千葉県",
    "prefecture_kana": "チバケン",
    "prefecture_code": 12,
    "city": "浦安市",
    "city_kana": "ウラヤスシ",
    "town": "美浜",
    "town_kana": "ミハマ",
    "street": "一丁目８番１号ＯＬＣ新浦安ビル",
    "office_name": "株式会社　オリエンタルランド",
    "office_name_kana": "カブシキガイシヤ オリエンタルランド"
  },
  "8581": {
    "postcode": "2798581",
    "prefecture": "千葉県",
    "prefecture_kana": "チバケン",
    "prefecture_code": 12,
    "city": "浦安市",
    "city_kana": "ウラヤスシ",
    "town": "美浜",
    "town_kana": "ミハマ",
    "street": "一丁目８番１号ＯＬＣ新浦安ビル５階",
    "office_name": "株式会社　グリーンアンドアーツ",
    "office_name_kana": "カブシキガイシヤ グリ-ンアンドア-ツ"
  },
  "8582": {
    "postcode": "2798582",
    "prefecture": "千葉県",
    "prefecture_kana": "チバケン",
    "prefecture_code": 12,
    "city": "浦安市",
    "city_kana": "ウラヤスシ",
    "town": "美浜",
    "town_kana": "ミハマ",
    "street": "一丁目８番１号ＯＬＣ新浦安ビル５階",
    "office_name": "株式会社　フォトワークス",
    "office_name_kana": "カブシキガイシヤ フオトワ-クス"
  },
  "8583": {
    "postcode": "2798583",
    "prefecture": "千葉県",
    "prefecture_kana": "チバケン",
    "prefecture_code": 12,
    "city": "浦安市",
    "city_kana": "ウラヤスシ",
    "town": "美浜",
    "town_kana": "ミハマ",
    "street": "一丁目８番１号ＯＬＣ新浦安ビル４階",
    "office_name": "株式会社　デザインファクトリー",
    "office_name_kana": "カブシキガイシヤ デザインフアクトリ-"
  },
  "8584": {
    "postcode": "2798584",
    "prefecture": "千葉県",
    "prefecture_kana": "チバケン",
    "prefecture_code": 12,
    "city": "浦安市",
    "city_kana": "ウラヤスシ",
    "town": "美浜",
    "town_kana": "ミハマ",
    "street": "１丁目８番１号",
    "office_name": "一般財団法人　オリエンタルランド子どものハピネス財団",
    "office_name_kana": "イツパンザイダンホウジン オリエンタルランドコドモノハピネスザイダン"
  },
  "8585": {
    "postcode": "2798585",
    "prefecture": "千葉県",
    "prefecture_kana": "チバケン",
    "prefecture_code": 12,
    "city": "浦安市",
    "city_kana": "ウラヤスシ",
    "town": "舞浜",
    "town_kana": "マイハマ",
    "street": "１−８",
    "office_name": "株式会社　ホテルオークラ東京ベイ",
    "office_name_kana": "カブシキガイシヤ ホテルオ-クラトウキヨウベイ"
  },
  "8588": {
    "postcode": "2798588",
    "prefecture": "千葉県",
    "prefecture_kana": "チバケン",
    "prefecture_code": 12,
    "city": "浦安市",
    "city_kana": "ウラヤスシ",
    "town": "入船",
    "town_kana": "イリフネ",
    "street": "１丁目５−２",
    "office_name": "日本コープ共済生活協同組合連合会",
    "office_name_kana": "ニホンコ-プキヨウサイセイカツキヨウドウクミアイレンゴウカイ"
  },
  "8601": {
    "postcode": "2798601",
    "prefecture": "千葉県",
    "prefecture_kana": "チバケン",
    "prefecture_code": 12,
    "city": "浦安市",
    "city_kana": "ウラヤスシ",
    "town": "今川",
    "town_kana": "イマガワ",
    "street": "１−１１−３７",
    "office_name": "サラリ工房　株式会社",
    "office_name_kana": "サラリコウボウ カブシキガイシヤ"
  },
  "8686": {
    "postcode": "2798686",
    "prefecture": "千葉県",
    "prefecture_kana": "チバケン",
    "prefecture_code": 12,
    "city": "浦安市",
    "city_kana": "ウラヤスシ",
    "town": "高洲",
    "town_kana": "タカス",
    "street": "２−４−１０",
    "office_name": "株式会社　インシップ",
    "office_name_kana": "カブシキガイシヤ インシツプ"
  }
}