{
  "0000": {
    "postcode": "2850000",
    "prefecture": "千葉県",
    "prefecture_kana": "チバケン",
    "prefecture_code": 12,
    "city": "佐倉市",
    "city_kana": "サクラシ",
    "town": "",
    "town_kana": "",
    "street": null,
    "office_name": null,
    "office_name_kana": null
  },
  "0001": {
    "postcode": "2850001",
    "prefecture": "千葉県",
    "prefecture_kana": "チバケン",
    "prefecture_code": 12,
    "city": "佐倉市",
    "city_kana": "サクラシ",
    "town": "土浮",
    "town_kana": "ツチウキ",
    "street": null,
    "office_name": null,
    "office_name_kana": null
  },
  "0002": {
    "postcode": "2850002",
    "prefecture": "千葉県",
    "prefecture_kana": "チバケン",
    "prefecture_code": 12,
    "city": "佐倉市",
    "city_kana": "サクラシ",
    "town": "萩山新田",
    "town_kana": "ハギヤマシンデン",
    "street": null,
    "office_name": null,
    "office_name_kana": null
  },
  "0003": {
    "postcode": "2850003",
    "prefecture": "千葉県",
    "prefecture_kana": "チバケン",
    "prefecture_code": 12,
    "city": "佐倉市",
    "city_kana": "サクラシ",
    "town": "飯野",
    "town_kana": "イイノ",
    "street": null,
    "office_name": null,
    "office_name_kana": null
  },
  "0004": {
    "postcode": "2850004",
    "prefecture": "千葉県",
    "prefecture_kana": "チバケン",
    "prefecture_code": 12,
    "city": "佐倉市",
    "city_kana": "サクラシ",
    "town": "岩名",
    "town_kana": "イワナ",
    "street": null,
    "office_name": null,
    "office_name_kana": null
  },
  "0005": {
    "postcode": "2850005",
    "prefecture": "千葉県",
    "prefecture_kana": "チバケン",
    "prefecture_code": 12,
    "city": "佐倉市",
    "city_kana": "サクラシ",
    "town": "宮前",
    "town_kana": "ミヤマエ",
    "street": null,
    "office_name": null,
    "office_name_kana": null
  },
  "0006": {
    "postcode": "2850006",
    "prefecture": "千葉県",
    "prefecture_kana": "チバケン",
    "prefecture_code": 12,
    "city": "佐倉市",
    "city_kana": "サクラシ",
    "town": "下根",
    "town_kana": "シモネ",
    "street": null,
    "office_name": null,
    "office_name_kana": null
  },
  "0007": {
    "postcode": "2850007",
    "prefecture": "千葉県",
    "prefecture_kana": "チバケン",
    "prefecture_code": 12,
    "city": "佐倉市",
    "city_kana": "サクラシ",
    "town": "下根町",
    "town_kana": "シモネマチ",
    "street": null,
    "office_name": null,
    "office_name_kana": null
  },
  "0008": {
    "postcode": "2850008",
    "prefecture": "千葉県",
    "prefecture_kana": "チバケン",
    "prefecture_code": 12,
    "city": "佐倉市",
    "city_kana": "サクラシ",
    "town": "鹿島干拓",
    "town_kana": "カシマカンタク",
    "street": null,
    "office_name": null,
    "office_name_kana": null
  },
  "0009": {
    "postcode": "2850009",
    "prefecture": "千葉県",
    "prefecture_kana": "チバケン",
    "prefecture_code": 12,
    "city": "佐倉市",
    "city_kana": "サクラシ",
    "town": "飯野町",
    "town_kana": "イイノマチ",
    "street": null,
    "office_name": null,
    "office_name_kana": null
  },
  "0011": {
    "postcode": "2850011",
    "prefecture": "千葉県",
    "prefecture_kana": "チバケン",
    "prefecture_code": 12,
    "city": "佐倉市",
    "city_kana": "サクラシ",
    "town": "山崎",
    "town_kana": "ヤマノサキ",
    "street": null,
    "office_name": null,
    "office_name_kana": null
  },
  "0012": {
    "postcode": "2850012",
    "prefecture": "千葉県",
    "prefecture_kana": "チバケン",
    "prefecture_code": 12,
    "city": "佐倉市",
    "city_kana": "サクラシ",
    "town": "田町",
    "town_kana": "タマチ",
    "street": null,
    "office_name": null,
    "office_name_kana": null
  },
  "0013": {
    "postcode": "2850013",
    "prefecture": "千葉県",
    "prefecture_kana": "チバケン",
    "prefecture_code": 12,
    "city": "佐倉市",
    "city_kana": "サクラシ",
    "town": "海隣寺町",
    "town_kana": "カイリンジマチ",
    "street": null,
    "office_name": null,
    "office_name_kana": null
  },
  "0014": {
    "postcode": "2850014",
    "prefecture": "千葉県",
    "prefecture_kana": "チバケン",
    "prefecture_code": 12,
    "city": "佐倉市",
    "city_kana": "サクラシ",
    "town": "栄町",
    "town_kana": "サカエチョウ",
    "street": null,
    "office_name": null,
    "office_name_kana": null
  },
  "0015": {
    "postcode": "2850015",
    "prefecture": "千葉県",
    "prefecture_kana": "チバケン",
    "prefecture_code": 12,
    "city": "佐倉市",
    "city_kana": "サクラシ",
    "town": "並木町",
    "town_kana": "ナミキマチ",
    "street": null,
    "office_name": null,
    "office_name_kana": null
  },
  "0016": {
    "postcode": "2850016",
    "prefecture": "千葉県",
    "prefecture_kana": "チバケン",
    "prefecture_code": 12,
    "city": "佐倉市",
    "city_kana": "サクラシ",
    "town": "宮小路町",
    "town_kana": "ミヤコウジマチ",
    "street": null,
    "office_name": null,
    "office_name_kana": null
  },
  "0017": {
    "postcode": "2850017",
    "prefecture": "千葉県",
    "prefecture_kana": "チバケン",
    "prefecture_code": 12,
    "city": "佐倉市",
    "city_kana": "サクラシ",
    "town": "城内町",
    "town_kana": "ジョウナイチョウ",
    "street": null,
    "office_name": null,
    "office_name_kana": null
  },
  "0021": {
    "postcode": "2850021",
    "prefecture": "千葉県",
    "prefecture_kana": "チバケン",
    "prefecture_code": 12,
    "city": "佐倉市",
    "city_kana": "サクラシ",
    "town": "最上町",
    "town_kana": "モガミマチ",
    "street": null,
    "office_name": null,
    "office_name_kana": null
  },
  "0022": {
    "postcode": "2850022",
    "prefecture": "千葉県",
    "prefecture_kana": "チバケン",
    "prefecture_code": 12,
    "city": "佐倉市",
    "city_kana": "サクラシ",
    "town": "中尾余町",
    "town_kana": "ナカビョウマチ",
    "street": null,
    "office_name": null,
    "office_name_kana": null
  },
  "0023": {
    "postcode": "2850023",
    "prefecture": "千葉県",
    "prefecture_kana": "チバケン",
    "prefecture_code": 12,
    "city": "佐倉市",
    "city_kana": "サクラシ",
    "town": "新町",
    "town_kana": "シンマチ",
    "street": null,
    "office_name": null,
    "office_name_kana": null
  },
  "0024": {
    "postcode": "2850024",
    "prefecture": "千葉県",
    "prefecture_kana": "チバケン",
    "prefecture_code": 12,
    "city": "佐倉市",
    "city_kana": "サクラシ",
    "town": "裏新町",
    "town_kana": "ウラシンマチ",
    "street": null,
    "office_name": null,
    "office_name_kana": null
  },
  "0025": {
    "postcode": "2850025",
    "prefecture": "千葉県",
    "prefecture_kana": "チバケン",
    "prefecture_code": 12,
    "city": "佐倉市",
    "city_kana": "サクラシ",
    "town": "鏑木町",
    "town_kana": "カブラギマチ",
    "street": null,
    "office_name": null,
    "office_name_kana": null
  },
  "0026": {
    "postcode": "2850026",
    "prefecture": "千葉県",
    "prefecture_kana": "チバケン",
    "prefecture_code": 12,
    "city": "佐倉市",
    "city_kana": "サクラシ",
    "town": "鏑木仲田町",
    "town_kana": "カブラギナカタマチ",
    "street": null,
    "office_name": null,
    "office_name_kana": null
  },
  "0031": {
    "postcode": "2850031",
    "prefecture": "千葉県",
    "prefecture_kana": "チバケン",
    "prefecture_code": 12,
    "city": "佐倉市",
    "city_kana": "サクラシ",
    "town": "飯田台",
    "town_kana": "イイダダイ",
    "street": null,
    "office_name": null,
    "office_name_kana": null
  },
  "0032": {
    "postcode": "2850032",
    "prefecture": "千葉県",
    "prefecture_kana": "チバケン",
    "prefecture_code": 12,
    "city": "佐倉市",
    "city_kana": "サクラシ",
    "town": "飯田",
    "town_kana": "イイダ",
    "street": null,
    "office_name": null,
    "office_name_kana": null
  },
  "0033": {
    "postcode": "2850033",
    "prefecture": "千葉県",
    "prefecture_kana": "チバケン",
    "prefecture_code": 12,
    "city": "佐倉市",
    "city_kana": "サクラシ",
    "town": "鍋山町",
    "town_kana": "ナベヤママチ",
    "street": null,
    "office_name": null,
    "office_name_kana": null
  },
  "0034": {
    "postcode": "2850034",
    "prefecture": "千葉県",
    "prefecture_kana": "チバケン",
    "prefecture_code": 12,
    "city": "佐倉市",
    "city_kana": "サクラシ",
    "town": "千成",
    "town_kana": "センナリ",
    "street": null,
    "office_name": null,
    "office_name_kana": null
  },
  "0035": {
    "postcode": "2850035",
    "prefecture": "千葉県",
    "prefecture_kana": "チバケン",
    "prefecture_code": 12,
    "city": "佐倉市",
    "city_kana": "サクラシ",
    "town": "樹木町",
    "town_kana": "ジュモクマチ",
    "street": null,
    "office_name": null,
    "office_name_kana": null
  },
  "0036": {
    "postcode": "2850036",
    "prefecture": "千葉県",
    "prefecture_kana": "チバケン",
    "prefecture_code": 12,
    "city": "佐倉市",
    "city_kana": "サクラシ",
    "town": "藤沢町",
    "town_kana": "フジサワマチ",
    "street": null,
    "office_name": null,
    "office_name_kana": null
  },
  "0037": {
    "postcode": "2850037",
    "prefecture": "千葉県",
    "prefecture_kana": "チバケン",
    "prefecture_code": 12,
    "city": "佐倉市",
    "city_kana": "サクラシ",
    "town": "本町",
    "town_kana": "モトマチ",
    "street": null,
    "office_name": null,
    "office_name_kana": null
  },
  "0038": {
    "postcode": "2850038",
    "prefecture": "千葉県",
    "prefecture_kana": "チバケン",
    "prefecture_code": 12,
    "city": "佐倉市",
    "city_kana": "サクラシ",
    "town": "弥勒町",
    "town_kana": "ミロクマチ",
    "street": null,
    "office_name": null,
    "office_name_kana": null
  },
  "0039": {
    "postcode": "2850039",
    "prefecture": "千葉県",
    "prefecture_kana": "チバケン",
    "prefecture_code": 12,
    "city": "佐倉市",
    "city_kana": "サクラシ",
    "town": "野狐台町",
    "town_kana": "ヤッコダイマチ",
    "street": null,
    "office_name": null,
    "office_name_kana": null
  },
  "0041": {
    "postcode": "2850041",
    "prefecture": "千葉県",
    "prefecture_kana": "チバケン",
    "prefecture_code": 12,
    "city": "佐倉市",
    "city_kana": "サクラシ",
    "town": "大佐倉",
    "town_kana": "オオザクラ",
    "street": null,
    "office_name": null,
    "office_name_kana": null
  },
  "0042": {
    "postcode": "2850042",
    "prefecture": "千葉県",
    "prefecture_kana": "チバケン",
    "prefecture_code": 12,
    "city": "佐倉市",
    "city_kana": "サクラシ",
    "town": "将門町",
    "town_kana": "マサカドマチ",
    "street": null,
    "office_name": null,
    "office_name_kana": null
  },
  "0043": {
    "postcode": "2850043",
    "prefecture": "千葉県",
    "prefecture_kana": "チバケン",
    "prefecture_code": 12,
    "city": "佐倉市",
    "city_kana": "サクラシ",
    "town": "大蛇町",
    "town_kana": "オオジャマチ",
    "street": null,
    "office_name": null,
    "office_name_kana": null
  },
  "0044": {
    "postcode": "2850044",
    "prefecture": "千葉県",
    "prefecture_kana": "チバケン",
    "prefecture_code": 12,
    "city": "佐倉市",
    "city_kana": "サクラシ",
    "town": "上代",
    "town_kana": "カミダイ",
    "street": null,
    "office_name": null,
    "office_name_kana": null
  },
  "0045": {
    "postcode": "2850045",
    "prefecture": "千葉県",
    "prefecture_kana": "チバケン",
    "prefecture_code": 12,
    "city": "佐倉市",
    "city_kana": "サクラシ",
    "town": "白銀",
    "town_kana": "シロガネ",
    "street": null,
    "office_name": null,
    "office_name_kana": null
  },
  "0046": {
    "postcode": "2850046",
    "prefecture": "千葉県",
    "prefecture_kana": "チバケン",
    "prefecture_code": 12,
    "city": "佐倉市",
    "city_kana": "サクラシ",
    "town": "高岡",
    "town_kana": "タカオカ",
    "street": null,
    "office_name": null,
    "office_name_kana": null
  },
  "0051": {
    "postcode": "2850051",
    "prefecture": "千葉県",
    "prefecture_kana": "チバケン",
    "prefecture_code": 12,
    "city": "佐倉市",
    "city_kana": "サクラシ",
    "town": "長熊",
    "town_kana": "ナガクマ",
    "street": null,
    "office_name": null,
    "office_name_kana": null
  },
  "0052": {
    "postcode": "2850052",
    "prefecture": "千葉県",
    "prefecture_kana": "チバケン",
    "prefecture_code": 12,
    "city": "佐倉市",
    "city_kana": "サクラシ",
    "town": "八木",
    "town_kana": "ヤギ",
    "street": null,
    "office_name": null,
    "office_name_kana": null
  },
  "0053": {
    "postcode": "2850053",
    "prefecture": "千葉県",
    "prefecture_kana": "チバケン",
    "prefecture_code": 12,
    "city": "佐倉市",
    "city_kana": "サクラシ",
    "town": "下勝田",
    "town_kana": "シモカツタ",
    "street": null,
    "office_name": null,
    "office_name_kana": null
  },
  "0054": {
    "postcode": "2850054",
    "prefecture": "千葉県",
    "prefecture_kana": "チバケン",
    "prefecture_code": 12,
    "city": "佐倉市",
    "city_kana": "サクラシ",
    "town": "上勝田",
    "town_kana": "カミカツタ",
    "street": null,
    "office_name": null,
    "office_name_kana": null
  },
  "0055": {
    "postcode": "2850055",
    "prefecture": "千葉県",
    "prefecture_kana": "チバケン",
    "prefecture_code": 12,
    "city": "佐倉市",
    "city_kana": "サクラシ",
    "town": "瓜坪新田",
    "town_kana": "ウリツボシンデン",
    "street": null,
    "office_name": null,
    "office_name_kana": null
  },
  "0056": {
    "postcode": "2850056",
    "prefecture": "千葉県",
    "prefecture_kana": "チバケン",
    "prefecture_code": 12,
    "city": "佐倉市",
    "city_kana": "サクラシ",
    "town": "坪山新田",
    "town_kana": "ツボヤマシンデン",
    "street": null,
    "office_name": null,
    "office_name_kana": null
  },
  "0057": {
    "postcode": "2850057",
    "prefecture": "千葉県",
    "prefecture_kana": "チバケン",
    "prefecture_code": 12,
    "city": "佐倉市",
    "city_kana": "サクラシ",
    "town": "米戸",
    "town_kana": "コメド",
    "street": null,
    "office_name": null,
    "office_name_kana": null
  },
  "0061": {
    "postcode": "2850061",
    "prefecture": "千葉県",
    "prefecture_kana": "チバケン",
    "prefecture_code": 12,
    "city": "佐倉市",
    "city_kana": "サクラシ",
    "town": "高崎",
    "town_kana": "タカサキ",
    "street": null,
    "office_name": null,
    "office_name_kana": null
  },
  "0062": {
    "postcode": "2850062",
    "prefecture": "千葉県",
    "prefecture_kana": "チバケン",
    "prefecture_code": 12,
    "city": "佐倉市",
    "city_kana": "サクラシ",
    "town": "寒風",
    "town_kana": "サムカゼ",
    "street": null,
    "office_name": null,
    "office_name_kana": null
  },
  "0063": {
    "postcode": "2850063",
    "prefecture": "千葉県",
    "prefecture_kana": "チバケン",
    "prefecture_code": 12,
    "city": "佐倉市",
    "city_kana": "サクラシ",
    "town": "宮本",
    "town_kana": "ミヤモト",
    "street": null,
    "office_name": null,
    "office_name_kana": null
  },
  "0064": {
    "postcode": "2850064",
    "prefecture": "千葉県",
    "prefecture_kana": "チバケン",
    "prefecture_code": 12,
    "city": "佐倉市",
    "city_kana": "サクラシ",
    "town": "天辺",
    "town_kana": "アマベ",
    "street": null,
    "office_name": null,
    "office_name_kana": null
  },
  "0065": {
    "postcode": "2850065",
    "prefecture": "千葉県",
    "prefecture_kana": "チバケン",
    "prefecture_code": 12,
    "city": "佐倉市",
    "city_kana": "サクラシ",
    "town": "直弥",
    "town_kana": "ナオヤ",
    "street": null,
    "office_name": null,
    "office_name_kana": null
  },
  "0066": {
    "postcode": "2850066",
    "prefecture": "千葉県",
    "prefecture_kana": "チバケン",
    "prefecture_code": 12,
    "city": "佐倉市",
    "city_kana": "サクラシ",
    "town": "上別所",
    "town_kana": "カミベッシヨ",
    "street": null,
    "office_name": null,
    "office_name_kana": null
  },
  "0071": {
    "postcode": "2850071",
    "prefecture": "千葉県",
    "prefecture_kana": "チバケン",
    "prefecture_code": 12,
    "city": "佐倉市",
    "city_kana": "サクラシ",
    "town": "岩富",
    "town_kana": "イワトミ",
    "street": null,
    "office_name": null,
    "office_name_kana": null
  },
  "0072": {
    "postcode": "2850072",
    "prefecture": "千葉県",
    "prefecture_kana": "チバケン",
    "prefecture_code": 12,
    "city": "佐倉市",
    "city_kana": "サクラシ",
    "town": "岩富町",
    "town_kana": "イワトミマチ",
    "street": null,
    "office_name": null,
    "office_name_kana": null
  },
  "0073": {
    "postcode": "2850073",
    "prefecture": "千葉県",
    "prefecture_kana": "チバケン",
    "prefecture_code": 12,
    "city": "佐倉市",
    "city_kana": "サクラシ",
    "town": "七曲",
    "town_kana": "ナナマガリ",
    "street": null,
    "office_name": null,
    "office_name_kana": null
  },
  "0074": {
    "postcode": "2850074",
    "prefecture": "千葉県",
    "prefecture_kana": "チバケン",
    "prefecture_code": 12,
    "city": "佐倉市",
    "city_kana": "サクラシ",
    "town": "西御門",
    "town_kana": "ニシミカド",
    "street": null,
    "office_name": null,
    "office_name_kana": null
  },
  "0075": {
    "postcode": "2850075",
    "prefecture": "千葉県",
    "prefecture_kana": "チバケン",
    "prefecture_code": 12,
    "city": "佐倉市",
    "city_kana": "サクラシ",
    "town": "宮内",
    "town_kana": "ミヤウチ",
    "street": null,
    "office_name": null,
    "office_name_kana": null
  },
  "0076": {
    "postcode": "2850076",
    "prefecture": "千葉県",
    "prefecture_kana": "チバケン",
    "prefecture_code": 12,
    "city": "佐倉市",
    "city_kana": "サクラシ",
    "town": "飯塚",
    "town_kana": "イイヅカ",
    "street": null,
    "office_name": null,
    "office_name_kana": null
  },
  "0077": {
    "postcode": "2850077",
    "prefecture": "千葉県",
    "prefecture_kana": "チバケン",
    "prefecture_code": 12,
    "city": "佐倉市",
    "city_kana": "サクラシ",
    "town": "内田",
    "town_kana": "ウチダ",
    "street": null,
    "office_name": null,
    "office_name_kana": null
  },
  "0078": {
    "postcode": "2850078",
    "prefecture": "千葉県",
    "prefecture_kana": "チバケン",
    "prefecture_code": 12,
    "city": "佐倉市",
    "city_kana": "サクラシ",
    "town": "坂戸",
    "town_kana": "サカド",
    "street": null,
    "office_name": null,
    "office_name_kana": null
  },
  "0801": {
    "postcode": "2850801",
    "prefecture": "千葉県",
    "prefecture_kana": "チバケン",
    "prefecture_code": 12,
    "city": "佐倉市",
    "city_kana": "サクラシ",
    "town": "木野子",
    "town_kana": "キノコ",
    "street": null,
    "office_name": null,
    "office_name_kana": null
  },
  "0802": {
    "postcode": "2850802",
    "prefecture": "千葉県",
    "prefecture_kana": "チバケン",
    "prefecture_code": 12,
    "city": "佐倉市",
    "city_kana": "サクラシ",
    "town": "大作",
    "town_kana": "オオサク",
    "street": null,
    "office_name": null,
    "office_name_kana": null
  },
  "0803": {
    "postcode": "2850803",
    "prefecture": "千葉県",
    "prefecture_kana": "チバケン",
    "prefecture_code": 12,
    "city": "佐倉市",
    "city_kana": "サクラシ",
    "town": "神門",
    "town_kana": "ゴウド",
    "street": null,
    "office_name": null,
    "office_name_kana": null
  },
  "0804": {
    "postcode": "2850804",
    "prefecture": "千葉県",
    "prefecture_kana": "チバケン",
    "prefecture_code": 12,
    "city": "佐倉市",
    "city_kana": "サクラシ",
    "town": "馬渡",
    "town_kana": "マワタシ",
    "street": null,
    "office_name": null,
    "office_name_kana": null
  },
  "0805": {
    "postcode": "2850805",
    "prefecture": "千葉県",
    "prefecture_kana": "チバケン",
    "prefecture_code": 12,
    "city": "佐倉市",
    "city_kana": "サクラシ",
    "town": "小篠塚",
    "town_kana": "コシノヅカ",
    "street": null,
    "office_name": null,
    "office_name_kana": null
  },
  "0806": {
    "postcode": "2850806",
    "prefecture": "千葉県",
    "prefecture_kana": "チバケン",
    "prefecture_code": 12,
    "city": "佐倉市",
    "city_kana": "サクラシ",
    "town": "大篠塚",
    "town_kana": "オオシノヅカ",
    "street": null,
    "office_name": null,
    "office_name_kana": null
  },
  "0807": {
    "postcode": "2850807",
    "prefecture": "千葉県",
    "prefecture_kana": "チバケン",
    "prefecture_code": 12,
    "city": "佐倉市",
    "city_kana": "サクラシ",
    "town": "山王",
    "town_kana": "サンノウ",
    "street": null,
    "office_name": null,
    "office_name_kana": null
  },
  "0808": {
    "postcode": "2850808",
    "prefecture": "千葉県",
    "prefecture_kana": "チバケン",
    "prefecture_code": 12,
    "city": "佐倉市",
    "city_kana": "サクラシ",
    "town": "太田",
    "town_kana": "オオタ",
    "street": null,
    "office_name": null,
    "office_name_kana": null
  },
  "0811": {
    "postcode": "2850811",
    "prefecture": "千葉県",
    "prefecture_kana": "チバケン",
    "prefecture_code": 12,
    "city": "佐倉市",
    "city_kana": "サクラシ",
    "town": "表町",
    "town_kana": "オモテチョウ",
    "street": null,
    "office_name": null,
    "office_name_kana": null
  },
  "0812": {
    "postcode": "2850812",
    "prefecture": "千葉県",
    "prefecture_kana": "チバケン",
    "prefecture_code": 12,
    "city": "佐倉市",
    "city_kana": "サクラシ",
    "town": "六崎",
    "town_kana": "ムツザキ",
    "street": null,
    "office_name": null,
    "office_name_kana": null
  },
  "0813": {
    "postcode": "2850813",
    "prefecture": "千葉県",
    "prefecture_kana": "チバケン",
    "prefecture_code": 12,
    "city": "佐倉市",
    "city_kana": "サクラシ",
    "town": "石川",
    "town_kana": "イシカワ",
    "street": null,
    "office_name": null,
    "office_name_kana": null
  },
  "0814": {
    "postcode": "2850814",
    "prefecture": "千葉県",
    "prefecture_kana": "チバケン",
    "prefecture_code": 12,
    "city": "佐倉市",
    "city_kana": "サクラシ",
    "town": "春路",
    "town_kana": "ハルジ",
    "street": null,
    "office_name": null,
    "office_name_kana": null
  },
  "0815": {
    "postcode": "2850815",
    "prefecture": "千葉県",
    "prefecture_kana": "チバケン",
    "prefecture_code": 12,
    "city": "佐倉市",
    "city_kana": "サクラシ",
    "town": "城",
    "town_kana": "ジョウ",
    "street": null,
    "office_name": null,
    "office_name_kana": null
  },
  "0816": {
    "postcode": "2850816",
    "prefecture": "千葉県",
    "prefecture_kana": "チバケン",
    "prefecture_code": 12,
    "city": "佐倉市",
    "city_kana": "サクラシ",
    "town": "藤治台",
    "town_kana": "トウジダイ",
    "street": null,
    "office_name": null,
    "office_name_kana": null
  },
  "0817": {
    "postcode": "2850817",
    "prefecture": "千葉県",
    "prefecture_kana": "チバケン",
    "prefecture_code": 12,
    "city": "佐倉市",
    "city_kana": "サクラシ",
    "town": "大崎台",
    "town_kana": "オオサキダイ",
    "street": null,
    "office_name": null,
    "office_name_kana": null
  },
  "0818": {
    "postcode": "2850818",
    "prefecture": "千葉県",
    "prefecture_kana": "チバケン",
    "prefecture_code": 12,
    "city": "佐倉市",
    "city_kana": "サクラシ",
    "town": "寺崎",
    "town_kana": "テラザキ",
    "street": null,
    "office_name": null,
    "office_name_kana": null
  },
  "0819": {
    "postcode": "2850819",
    "prefecture": "千葉県",
    "prefecture_kana": "チバケン",
    "prefecture_code": 12,
    "city": "佐倉市",
    "city_kana": "サクラシ",
    "town": "寺崎北",
    "town_kana": "テラザキキタ",
    "street": null,
    "office_name": null,
    "office_name_kana": null
  },
  "0821": {
    "postcode": "2850821",
    "prefecture": "千葉県",
    "prefecture_kana": "チバケン",
    "prefecture_code": 12,
    "city": "佐倉市",
    "city_kana": "サクラシ",
    "town": "角来",
    "town_kana": "カクライ",
    "street": null,
    "office_name": null,
    "office_name_kana": null
  },
  "0822": {
    "postcode": "2850822",
    "prefecture": "千葉県",
    "prefecture_kana": "チバケン",
    "prefecture_code": 12,
    "city": "佐倉市",
    "city_kana": "サクラシ",
    "town": "印南",
    "town_kana": "インナン",
    "street": null,
    "office_name": null,
    "office_name_kana": null
  },
  "0823": {
    "postcode": "2850823",
    "prefecture": "千葉県",
    "prefecture_kana": "チバケン",
    "prefecture_code": 12,
    "city": "佐倉市",
    "city_kana": "サクラシ",
    "town": "江原新田",
    "town_kana": "エバラシンデン",
    "street": null,
    "office_name": null,
    "office_name_kana": null
  },
  "0824": {
    "postcode": "2850824",
    "prefecture": "千葉県",
    "prefecture_kana": "チバケン",
    "prefecture_code": 12,
    "city": "佐倉市",
    "city_kana": "サクラシ",
    "town": "江原",
    "town_kana": "エバラ",
    "street": null,
    "office_name": null,
    "office_name_kana": null
  },
  "0825": {
    "postcode": "2850825",
    "prefecture": "千葉県",
    "prefecture_kana": "チバケン",
    "prefecture_code": 12,
    "city": "佐倉市",
    "city_kana": "サクラシ",
    "town": "江原台",
    "town_kana": "エバラダイ",
    "street": null,
    "office_name": null,
    "office_name_kana": null
  },
  "0831": {
    "postcode": "2850831",
    "prefecture": "千葉県",
    "prefecture_kana": "チバケン",
    "prefecture_code": 12,
    "city": "佐倉市",
    "city_kana": "サクラシ",
    "town": "染井野",
    "town_kana": "ソメイノ",
    "street": null,
    "office_name": null,
    "office_name_kana": null
  },
  "0832": {
    "postcode": "2850832",
    "prefecture": "千葉県",
    "prefecture_kana": "チバケン",
    "prefecture_code": 12,
    "city": "佐倉市",
    "city_kana": "サクラシ",
    "town": "飯重",
    "town_kana": "イイジュウ",
    "street": null,
    "office_name": null,
    "office_name_kana": null
  },
  "0833": {
    "postcode": "2850833",
    "prefecture": "千葉県",
    "prefecture_kana": "チバケン",
    "prefecture_code": 12,
    "city": "佐倉市",
    "city_kana": "サクラシ",
    "town": "羽鳥",
    "town_kana": "ハドリ",
    "street": null,
    "office_name": null,
    "office_name_kana": null
  },
  "0834": {
    "postcode": "2850834",
    "prefecture": "千葉県",
    "prefecture_kana": "チバケン",
    "prefecture_code": 12,
    "city": "佐倉市",
    "city_kana": "サクラシ",
    "town": "吉見",
    "town_kana": "ヨシミ",
    "street": null,
    "office_name": null,
    "office_name_kana": null
  },
  "0835": {
    "postcode": "2850835",
    "prefecture": "千葉県",
    "prefecture_kana": "チバケン",
    "prefecture_code": 12,
    "city": "佐倉市",
    "city_kana": "サクラシ",
    "town": "畔田",
    "town_kana": "アゼタ",
    "street": null,
    "office_name": null,
    "office_name_kana": null
  },
  "0836": {
    "postcode": "2850836",
    "prefecture": "千葉県",
    "prefecture_kana": "チバケン",
    "prefecture_code": 12,
    "city": "佐倉市",
    "city_kana": "サクラシ",
    "town": "生谷",
    "town_kana": "オブカイ",
    "street": null,
    "office_name": null,
    "office_name_kana": null
  },
  "0837": {
    "postcode": "2850837",
    "prefecture": "千葉県",
    "prefecture_kana": "チバケン",
    "prefecture_code": 12,
    "city": "佐倉市",
    "city_kana": "サクラシ",
    "town": "王子台",
    "town_kana": "オウジダイ",
    "street": null,
    "office_name": null,
    "office_name_kana": null
  },
  "0841": {
    "postcode": "2850841",
    "prefecture": "千葉県",
    "prefecture_kana": "チバケン",
    "prefecture_code": 12,
    "city": "佐倉市",
    "city_kana": "サクラシ",
    "town": "下志津",
    "town_kana": "シモシヅ",
    "street": null,
    "office_name": null,
    "office_name_kana": null
  },
  "0842": {
    "postcode": "2850842",
    "prefecture": "千葉県",
    "prefecture_kana": "チバケン",
    "prefecture_code": 12,
    "city": "佐倉市",
    "city_kana": "サクラシ",
    "town": "下志津原",
    "town_kana": "シモシヅハラ",
    "street": null,
    "office_name": null,
    "office_name_kana": null
  },
  "0843": {
    "postcode": "2850843",
    "prefecture": "千葉県",
    "prefecture_kana": "チバケン",
    "prefecture_code": 12,
    "city": "佐倉市",
    "city_kana": "サクラシ",
    "town": "中志津",
    "town_kana": "ナカシヅ",
    "street": null,
    "office_name": null,
    "office_name_kana": null
  },
  "0844": {
    "postcode": "2850844",
    "prefecture": "千葉県",
    "prefecture_kana": "チバケン",
    "prefecture_code": 12,
    "city": "佐倉市",
    "city_kana": "サクラシ",
    "town": "上志津原",
    "town_kana": "カミシヅハラ",
    "street": null,
    "office_name": null,
    "office_name_kana": null
  },
  "0845": {
    "postcode": "2850845",
    "prefecture": "千葉県",
    "prefecture_kana": "チバケン",
    "prefecture_code": 12,
    "city": "佐倉市",
    "city_kana": "サクラシ",
    "town": "西志津",
    "town_kana": "ニシシヅ",
    "street": null,
    "office_name": null,
    "office_name_kana": null
  },
  "0846": {
    "postcode": "2850846",
    "prefecture": "千葉県",
    "prefecture_kana": "チバケン",
    "prefecture_code": 12,
    "city": "佐倉市",
    "city_kana": "サクラシ",
    "town": "上志津",
    "town_kana": "カミシヅ",
    "street": null,
    "office_name": null,
    "office_name_kana": null
  },
  "0850": {
    "postcode": "2850850",
    "prefecture": "千葉県",
    "prefecture_kana": "チバケン",
    "prefecture_code": 12,
    "city": "佐倉市",
    "city_kana": "サクラシ",
    "town": "西ユーカリが丘",
    "town_kana": "ニシユーカリガオカ",
    "street": null,
    "office_name": null,
    "office_name_kana": null
  },
  "0851": {
    "postcode": "2850851",
    "prefecture": "千葉県",
    "prefecture_kana": "チバケン",
    "prefecture_code": 12,
    "city": "佐倉市",
    "city_kana": "サクラシ",
    "town": "先崎",
    "town_kana": "マッサキ",
    "street": null,
    "office_name": null,
    "office_name_kana": null
  },
  "0852": {
    "postcode": "2850852",
    "prefecture": "千葉県",
    "prefecture_kana": "チバケン",
    "prefecture_code": 12,
    "city": "佐倉市",
    "city_kana": "サクラシ",
    "town": "青菅",
    "town_kana": "アオスゲ",
    "street": null,
    "office_name": null,
    "office_name_kana": null
  },
  "0853": {
    "postcode": "2850853",
    "prefecture": "千葉県",
    "prefecture_kana": "チバケン",
    "prefecture_code": 12,
    "city": "佐倉市",
    "city_kana": "サクラシ",
    "town": "小竹",
    "town_kana": "オダケ",
    "street": null,
    "office_name": null,
    "office_name_kana": null
  },
  "0854": {
    "postcode": "2850854",
    "prefecture": "千葉県",
    "prefecture_kana": "チバケン",
    "prefecture_code": 12,
    "city": "佐倉市",
    "city_kana": "サクラシ",
    "town": "上座",
    "town_kana": "ジョウザ",
    "street": null,
    "office_name": null,
    "office_name_kana": null
  },
  "0855": {
    "postcode": "2850855",
    "prefecture": "千葉県",
    "prefecture_kana": "チバケン",
    "prefecture_code": 12,
    "city": "佐倉市",
    "city_kana": "サクラシ",
    "town": "井野",
    "town_kana": "イノ",
    "street": null,
    "office_name": null,
    "office_name_kana": null
  },
  "0856": {
    "postcode": "2850856",
    "prefecture": "千葉県",
    "prefecture_kana": "チバケン",
    "prefecture_code": 12,
    "city": "佐倉市",
    "city_kana": "サクラシ",
    "town": "井野町",
    "town_kana": "イノマチ",
    "street": null,
    "office_name": null,
    "office_name_kana": null
  },
  "0857": {
    "postcode": "2850857",
    "prefecture": "千葉県",
    "prefecture_kana": "チバケン",
    "prefecture_code": 12,
    "city": "佐倉市",
    "city_kana": "サクラシ",
    "town": "宮ノ台",
    "town_kana": "ミヤノダイ",
    "street": null,
    "office_name": null,
    "office_name_kana": null
  },
  "0858": {
    "postcode": "2850858",
    "prefecture": "千葉県",
    "prefecture_kana": "チバケン",
    "prefecture_code": 12,
    "city": "佐倉市",
    "city_kana": "サクラシ",
    "town": "ユーカリが丘",
    "town_kana": "ユーカリガオカ",
    "street": null,
    "office_name": null,
    "office_name_kana": null
  },
  "0859": {
    "postcode": "2850859",
    "prefecture": "千葉県",
    "prefecture_kana": "チバケン",
    "prefecture_code": 12,
    "city": "佐倉市",
    "city_kana": "サクラシ",
    "town": "南ユーカリが丘",
    "town_kana": "ミナミユーカリガオカ",
    "street": null,
    "office_name": null,
    "office_name_kana": null
  },
  "0861": {
    "postcode": "2850861",
    "prefecture": "千葉県",
    "prefecture_kana": "チバケン",
    "prefecture_code": 12,
    "city": "佐倉市",
    "city_kana": "サクラシ",
    "town": "臼井田",
    "town_kana": "ウスイタ",
    "street": null,
    "office_name": null,
    "office_name_kana": null
  },
  "0862": {
    "postcode": "2850862",
    "prefecture": "千葉県",
    "prefecture_kana": "チバケン",
    "prefecture_code": 12,
    "city": "佐倉市",
    "city_kana": "サクラシ",
    "town": "新臼井田",
    "town_kana": "シンウスイダ",
    "street": null,
    "office_name": null,
    "office_name_kana": null
  },
  "0863": {
    "postcode": "2850863",
    "prefecture": "千葉県",
    "prefecture_kana": "チバケン",
    "prefecture_code": 12,
    "city": "佐倉市",
    "city_kana": "サクラシ",
    "town": "臼井",
    "town_kana": "ウスイ",
    "street": null,
    "office_name": null,
    "office_name_kana": null
  },
  "0864": {
    "postcode": "2850864",
    "prefecture": "千葉県",
    "prefecture_kana": "チバケン",
    "prefecture_code": 12,
    "city": "佐倉市",
    "city_kana": "サクラシ",
    "town": "稲荷台",
    "town_kana": "イナリダイ",
    "street": null,
    "office_name": null,
    "office_name_kana": null
  },
  "0865": {
    "postcode": "2850865",
    "prefecture": "千葉県",
    "prefecture_kana": "チバケン",
    "prefecture_code": 12,
    "city": "佐倉市",
    "city_kana": "サクラシ",
    "town": "南臼井台",
    "town_kana": "ミナミウスイダイ",
    "street": null,
    "office_name": null,
    "office_name_kana": null
  },
  "0866": {
    "postcode": "2850866",
    "prefecture": "千葉県",
    "prefecture_kana": "チバケン",
    "prefecture_code": 12,
    "city": "佐倉市",
    "city_kana": "サクラシ",
    "town": "臼井台",
    "town_kana": "ウスイダイ",
    "street": null,
    "office_name": null,
    "office_name_kana": null
  },
  "0867": {
    "postcode": "2850867",
    "prefecture": "千葉県",
    "prefecture_kana": "チバケン",
    "prefecture_code": 12,
    "city": "佐倉市",
    "city_kana": "サクラシ",
    "town": "八幡台",
    "town_kana": "ハチマンダイ",
    "street": null,
    "office_name": null,
    "office_name_kana": null
  },
  "0900": {
    "postcode": "2850900",
    "prefecture": "千葉県",
    "prefecture_kana": "チバケン",
    "prefecture_code": 12,
    "city": "印旛郡酒々井町",
    "city_kana": "インバグンシスイマチ",
    "town": "",
    "town_kana": "",
    "street": null,
    "office_name": null,
    "office_name_kana": null
  },
  "0901": {
    "postcode": "2850901",
    "prefecture": "千葉県",
    "prefecture_kana": "チバケン",
    "prefecture_code": 12,
    "city": "印旛郡酒々井町",
    "city_kana": "インバグンシスイマチ",
    "town": "篠山新田",
    "town_kana": "シノヤマシンデン",
    "street": null,
    "office_name": null,
    "office_name_kana": null
  },
  "0902": {
    "postcode": "2850902",
    "prefecture": "千葉県",
    "prefecture_kana": "チバケン",
    "prefecture_code": 12,
    "city": "印旛郡酒々井町",
    "city_kana": "インバグンシスイマチ",
    "town": "伊篠",
    "town_kana": "イジノ",
    "street": null,
    "office_name": null,
    "office_name_kana": null
  },
  "0903": {
    "postcode": "2850903",
    "prefecture": "千葉県",
    "prefecture_kana": "チバケン",
    "prefecture_code": 12,
    "city": "印旛郡酒々井町",
    "city_kana": "インバグンシスイマチ",
    "town": "今倉新田",
    "town_kana": "イマクラシンデン",
    "street": null,
    "office_name": null,
    "office_name_kana": null
  },
  "0904": {
    "postcode": "2850904",
    "prefecture": "千葉県",
    "prefecture_kana": "チバケン",
    "prefecture_code": 12,
    "city": "印旛郡酒々井町",
    "city_kana": "インバグンシスイマチ",
    "town": "伊篠新田",
    "town_kana": "イジノシンデン",
    "street": null,
    "office_name": null,
    "office_name_kana": null
  },
  "0905": {
    "postcode": "2850905",
    "prefecture": "千葉県",
    "prefecture_kana": "チバケン",
    "prefecture_code": 12,
    "city": "印旛郡酒々井町",
    "city_kana": "インバグンシスイマチ",
    "town": "上岩橋",
    "town_kana": "カミイワハシ",
    "street": null,
    "office_name": null,
    "office_name_kana": null
  },
  "0906": {
    "postcode": "2850906",
    "prefecture": "千葉県",
    "prefecture_kana": "チバケン",
    "prefecture_code": 12,
    "city": "印旛郡酒々井町",
    "city_kana": "インバグンシスイマチ",
    "town": "柏木",
    "town_kana": "カシワキ",
    "street": null,
    "office_name": null,
    "office_name_kana": null
  },
  "0907": {
    "postcode": "2850907",
    "prefecture": "千葉県",
    "prefecture_kana": "チバケン",
    "prefecture_code": 12,
    "city": "印旛郡酒々井町",
    "city_kana": "インバグンシスイマチ",
    "town": "下岩橋",
    "town_kana": "シモイワハシ",
    "street": null,
    "office_name": null,
    "office_name_kana": null
  },
  "0911": {
    "postcode": "2850911",
    "prefecture": "千葉県",
    "prefecture_kana": "チバケン",
    "prefecture_code": 12,
    "city": "印旛郡酒々井町",
    "city_kana": "インバグンシスイマチ",
    "town": "尾上",
    "town_kana": "オガミ",
    "street": null,
    "office_name": null,
    "office_name_kana": null
  },
  "0912": {
    "postcode": "2850912",
    "prefecture": "千葉県",
    "prefecture_kana": "チバケン",
    "prefecture_code": 12,
    "city": "印旛郡酒々井町",
    "city_kana": "インバグンシスイマチ",
    "town": "飯積",
    "town_kana": "イイズミ",
    "street": null,
    "office_name": null,
    "office_name_kana": null
  },
  "0913": {
    "postcode": "2850913",
    "prefecture": "千葉県",
    "prefecture_kana": "チバケン",
    "prefecture_code": 12,
    "city": "印旛郡酒々井町",
    "city_kana": "インバグンシスイマチ",
    "town": "墨",
    "town_kana": "スミ",
    "street": null,
    "office_name": null,
    "office_name_kana": null
  },
  "0914": {
    "postcode": "2850914",
    "prefecture": "千葉県",
    "prefecture_kana": "チバケン",
    "prefecture_code": 12,
    "city": "印旛郡酒々井町",
    "city_kana": "インバグンシスイマチ",
    "town": "馬橋",
    "town_kana": "マバシ",
    "street": null,
    "office_name": null,
    "office_name_kana": null
  },
  "0921": {
    "postcode": "2850921",
    "prefecture": "千葉県",
    "prefecture_kana": "チバケン",
    "prefecture_code": 12,
    "city": "印旛郡酒々井町",
    "city_kana": "インバグンシスイマチ",
    "town": "中川",
    "town_kana": "ナカガワ",
    "street": null,
    "office_name": null,
    "office_name_kana": null
  },
  "0922": {
    "postcode": "2850922",
    "prefecture": "千葉県",
    "prefecture_kana": "チバケン",
    "prefecture_code": 12,
    "city": "印旛郡酒々井町",
    "city_kana": "インバグンシスイマチ",
    "town": "中央台",
    "town_kana": "チュウオウダイ",
    "street": null,
    "office_name": null,
    "office_name_kana": null
  },
  "0923": {
    "postcode": "2850923",
    "prefecture": "千葉県",
    "prefecture_kana": "チバケン",
    "prefecture_code": 12,
    "city": "印旛郡酒々井町",
    "city_kana": "インバグンシスイマチ",
    "town": "東酒々井",
    "town_kana": "ヒガシシスイ",
    "street": null,
    "office_name": null,
    "office_name_kana": null
  },
  "0924": {
    "postcode": "2850924",
    "prefecture": "千葉県",
    "prefecture_kana": "チバケン",
    "prefecture_code": 12,
    "city": "印旛郡酒々井町",
    "city_kana": "インバグンシスイマチ",
    "town": "下台",
    "town_kana": "シモダイ",
    "street": null,
    "office_name": null,
    "office_name_kana": null
  },
  "0925": {
    "postcode": "2850925",
    "prefecture": "千葉県",
    "prefecture_kana": "チバケン",
    "prefecture_code": 12,
    "city": "印旛郡酒々井町",
    "city_kana": "インバグンシスイマチ",
    "town": "上本佐倉",
    "town_kana": "カミモトサクラ",
    "street": null,
    "office_name": null,
    "office_name_kana": null
  },
  "0926": {
    "postcode": "2850926",
    "prefecture": "千葉県",
    "prefecture_kana": "チバケン",
    "prefecture_code": 12,
    "city": "印旛郡酒々井町",
    "city_kana": "インバグンシスイマチ",
    "town": "本佐倉",
    "town_kana": "モトサクラ",
    "street": null,
    "office_name": null,
    "office_name_kana": null
  },
  "0927": {
    "postcode": "2850927",
    "prefecture": "千葉県",
    "prefecture_kana": "チバケン",
    "prefecture_code": 12,
    "city": "印旛郡酒々井町",
    "city_kana": "インバグンシスイマチ",
    "town": "酒々井",
    "town_kana": "シスイ",
    "street": null,
    "office_name": null,
    "office_name_kana": null
  },
  "0928": {
    "postcode": "2850928",
    "prefecture": "千葉県",
    "prefecture_kana": "チバケン",
    "prefecture_code": 12,
    "city": "印旛郡酒々井町",
    "city_kana": "インバグンシスイマチ",
    "town": "ふじき野",
    "town_kana": "フジキノ",
    "street": null,
    "office_name": null,
    "office_name_kana": null
  },
  "8501": {
    "postcode": "2858501",
    "prefecture": "千葉県",
    "prefecture_kana": "チバケン",
    "prefecture_code": 12,
    "city": "佐倉市",
    "city_kana": "サクラシ",
    "town": "海隣寺町",
    "town_kana": "カイリンジマチ",
    "street": "９７",
    "office_name": "佐倉市役所",
    "office_name_kana": "サクラシヤクシヨ"
  },
  "8502": {
    "postcode": "2858502",
    "prefecture": "千葉県",
    "prefecture_kana": "チバケン",
    "prefecture_code": 12,
    "city": "佐倉市",
    "city_kana": "サクラシ",
    "town": "城内町",
    "town_kana": "ジョウナイチョウ",
    "street": "１１７",
    "office_name": "国立歴史民俗博物館",
    "office_name_kana": "コクリツレキシミンゾクハクブツカン"
  },
  "8503": {
    "postcode": "2858503",
    "prefecture": "千葉県",
    "prefecture_kana": "チバケン",
    "prefecture_code": 12,
    "city": "佐倉市",
    "city_kana": "サクラシ",
    "town": "鏑木仲田町",
    "town_kana": "カブラギナカタマチ",
    "street": "８番１",
    "office_name": "千葉県印旛地域振興事務所",
    "office_name_kana": "チバケンインバチイキシンコウジムシヨ"
  },
  "8505": {
    "postcode": "2858505",
    "prefecture": "千葉県",
    "prefecture_kana": "チバケン",
    "prefecture_code": 12,
    "city": "佐倉市",
    "city_kana": "サクラシ",
    "town": "坂戸",
    "town_kana": "サカド",
    "street": "６３１",
    "office_name": "ＤＩＣ川村記念美術館",
    "office_name_kana": "デイ-アイシ-カワムラキネンビジユツカン"
  },
  "8509": {
    "postcode": "2858509",
    "prefecture": "千葉県",
    "prefecture_kana": "チバケン",
    "prefecture_code": 12,
    "city": "印旛郡酒々井町",
    "city_kana": "インバグンシスイマチ",
    "town": "飯積",
    "town_kana": "イイズミ",
    "street": "２−４−１",
    "office_name": "酒々井プレミアム・アウトレット",
    "office_name_kana": "シスイプレミアム・アウトレツト"
  },
  "8510": {
    "postcode": "2858510",
    "prefecture": "千葉県",
    "prefecture_kana": "チバケン",
    "prefecture_code": 12,
    "city": "印旛郡酒々井町",
    "city_kana": "インバグンシスイマチ",
    "town": "中央台",
    "town_kana": "チュウオウダイ",
    "street": "４丁目１１",
    "office_name": "酒々井町役場",
    "office_name_kana": "シスイマチヤクバ"
  },
  "8511": {
    "postcode": "2858511",
    "prefecture": "千葉県",
    "prefecture_kana": "チバケン",
    "prefecture_code": 12,
    "city": "佐倉市",
    "city_kana": "サクラシ",
    "town": "太田",
    "town_kana": "オオタ",
    "street": "字外野２３４８",
    "office_name": "古河ユニック　株式会社　佐倉工場",
    "office_name_kana": "フルカワユニツク カブシキガイシヤ サクラコウジヨウ"
  },
  "8520": {
    "postcode": "2858520",
    "prefecture": "千葉県",
    "prefecture_kana": "チバケン",
    "prefecture_code": 12,
    "city": "佐倉市",
    "city_kana": "サクラシ",
    "town": "鏑木仲田町",
    "town_kana": "カブラギナカタマチ",
    "street": "８番１",
    "office_name": "千葉県　印旛健康福祉センター",
    "office_name_kana": "チバケン インバケンコウフクシセンタ-"
  },
  "8521": {
    "postcode": "2858521",
    "prefecture": "千葉県",
    "prefecture_kana": "チバケン",
    "prefecture_code": 12,
    "city": "佐倉市",
    "city_kana": "サクラシ",
    "town": "岩富",
    "town_kana": "イワトミ",
    "street": "３８０",
    "office_name": "株式会社　ＱＶＣジャパン",
    "office_name_kana": "カブシキガイシヤ キユ-ヴイ-シ-ジヤパン"
  },
  "8522": {
    "postcode": "2858522",
    "prefecture": "千葉県",
    "prefecture_kana": "チバケン",
    "prefecture_code": 12,
    "city": "佐倉市",
    "city_kana": "サクラシ",
    "town": "太田",
    "town_kana": "オオタ",
    "street": "字外野２３４８",
    "office_name": "古河ユニック　株式会社　サービス部",
    "office_name_kana": "フルカワユニツク カブシキガイシヤ サ-ビスブ"
  },
  "8533": {
    "postcode": "2858533",
    "prefecture": "千葉県",
    "prefecture_kana": "チバケン",
    "prefecture_code": 12,
    "city": "佐倉市",
    "city_kana": "サクラシ",
    "town": "宮小路町",
    "town_kana": "ミヤコウジマチ",
    "street": "１２番地",
    "office_name": "印旛郡市広域市町村圏事務組合",
    "office_name_kana": "インバグンシコウイキシチヨウソンケンジムクミアイ"
  },
  "8550": {
    "postcode": "2858550",
    "prefecture": "千葉県",
    "prefecture_kana": "チバケン",
    "prefecture_code": 12,
    "city": "佐倉市",
    "city_kana": "サクラシ",
    "town": "六崎",
    "town_kana": "ムツザキ",
    "street": "１４４０",
    "office_name": "株式会社　フジクラ　佐倉事業所",
    "office_name_kana": "カブシキガイシヤ フジクラ サクラジギヨウシヨ"
  },
  "8567": {
    "postcode": "2858567",
    "prefecture": "千葉県",
    "prefecture_kana": "チバケン",
    "prefecture_code": 12,
    "city": "佐倉市",
    "city_kana": "サクラシ",
    "town": "山王",
    "town_kana": "サンノウ",
    "street": "１丁目９",
    "office_name": "敬愛大学",
    "office_name_kana": "ケイアイダイガク"
  },
  "8580": {
    "postcode": "2858580",
    "prefecture": "千葉県",
    "prefecture_kana": "チバケン",
    "prefecture_code": 12,
    "city": "佐倉市",
    "city_kana": "サクラシ",
    "town": "大作",
    "town_kana": "オオサク",
    "street": "２丁目３番３号",
    "office_name": "株式会社　朋栄　佐倉研究開発センター",
    "office_name_kana": "カブシキガイシヤ ホウエイ サクラケンキユウカイハツセンタ-"
  },
  "8585": {
    "postcode": "2858585",
    "prefecture": "千葉県",
    "prefecture_kana": "チバケン",
    "prefecture_code": 12,
    "city": "佐倉市",
    "city_kana": "サクラシ",
    "town": "大作",
    "town_kana": "オオサク",
    "street": "２丁目５番地１",
    "office_name": "ＴＯＴＯバスクリエイト　株式会社",
    "office_name_kana": "ト-ト-バスクリエイト カブシキガイシヤ"
  },
  "8586": {
    "postcode": "2858586",
    "prefecture": "千葉県",
    "prefecture_kana": "チバケン",
    "prefecture_code": 12,
    "city": "印旛郡酒々井町",
    "city_kana": "インバグンシスイマチ",
    "town": "本佐倉",
    "town_kana": "モトサクラ",
    "street": "４１５−２",
    "office_name": "株式会社　広域高速ネット二九六",
    "office_name_kana": "カブシキガイシヤ コウイキコウソクネツトニイキユウロク"
  },
  "8588": {
    "postcode": "2858588",
    "prefecture": "千葉県",
    "prefecture_kana": "チバケン",
    "prefecture_code": 12,
    "city": "佐倉市",
    "city_kana": "サクラシ",
    "town": "太田",
    "town_kana": "オオタ",
    "street": "２０５６",
    "office_name": "株式会社　ホソヤコーポレーション",
    "office_name_kana": "カブシキガイシヤ ホソヤコ-ポレ-シヨン"
  },
  "8619": {
    "postcode": "2858619",
    "prefecture": "千葉県",
    "prefecture_kana": "チバケン",
    "prefecture_code": 12,
    "city": "佐倉市",
    "city_kana": "サクラシ",
    "town": "大蛇町",
    "town_kana": "オオジャマチ",
    "street": "２８１",
    "office_name": "佐倉市　八街市　酒々井町　消防組合",
    "office_name_kana": "サクラシ ヤチマタシ シスイマチ シヨウボウクミアイ"
  },
  "8655": {
    "postcode": "2858655",
    "prefecture": "千葉県",
    "prefecture_kana": "チバケン",
    "prefecture_code": 12,
    "city": "佐倉市",
    "city_kana": "サクラシ",
    "town": "大作",
    "town_kana": "オオサク",
    "street": "２丁目４−２",
    "office_name": "太平洋セメント　株式会社　中央研究所",
    "office_name_kana": "タイヘイヨウセメント カブシキガイシヤ チユウオウケンキユウシヨ"
  },
  "8668": {
    "postcode": "2858668",
    "prefecture": "千葉県",
    "prefecture_kana": "チバケン",
    "prefecture_code": 12,
    "city": "佐倉市",
    "city_kana": "サクラシ",
    "town": "坂戸",
    "town_kana": "サカド",
    "street": "６３１番地",
    "office_name": "ＤＩＣ　株式会社　総合研究所",
    "office_name_kana": "デイ-アイシ- カブシキガイシヤ ソウゴウケンキユウシヨ"
  },
  "8741": {
    "postcode": "2858741",
    "prefecture": "千葉県",
    "prefecture_kana": "チバケン",
    "prefecture_code": 12,
    "city": "佐倉市",
    "city_kana": "サクラシ",
    "town": "下志津",
    "town_kana": "シモシヅ",
    "street": "５６４−１",
    "office_name": "東邦大学医療センター佐倉病院",
    "office_name_kana": "トウホウダイガクイリヨウセンタ-サクラビヨウイン"
  },
  "8765": {
    "postcode": "2858765",
    "prefecture": "千葉県",
    "prefecture_kana": "チバケン",
    "prefecture_code": 12,
    "city": "佐倉市",
    "city_kana": "サクラシ",
    "town": "江原台",
    "town_kana": "エバラダイ",
    "street": "２丁目３６−２",
    "office_name": "社会福祉法人　聖隷福祉事業団　聖隷佐倉市民病院",
    "office_name_kana": "シヤカイフクシホウジン セイレイフクシジギヨウダン セイレイサクラシミンビヨウイン"
  }
}