{
  "0000": {
    "postcode": "3060000",
    "prefecture": "茨城県",
    "prefecture_kana": "イバラキケン",
    "prefecture_code": 8,
    "city": "古河市",
    "city_kana": "コガシ",
    "town": "",
    "town_kana": "",
    "street": null,
    "office_name": null,
    "office_name_kana": null
  },
  "0001": {
    "postcode": "3060001",
    "prefecture": "茨城県",
    "prefecture_kana": "イバラキケン",
    "prefecture_code": 8,
    "city": "古河市",
    "city_kana": "コガシ",
    "town": "静町",
    "town_kana": "シズカマチ",
    "street": null,
    "office_name": null,
    "office_name_kana": null
  },
  "0002": {
    "postcode": "3060002",
    "prefecture": "茨城県",
    "prefecture_kana": "イバラキケン",
    "prefecture_code": 8,
    "city": "古河市",
    "city_kana": "コガシ",
    "town": "三杉町",
    "town_kana": "ミスギチョウ",
    "street": null,
    "office_name": null,
    "office_name_kana": null
  },
  "0003": {
    "postcode": "3060003",
    "prefecture": "茨城県",
    "prefecture_kana": "イバラキケン",
    "prefecture_code": 8,
    "city": "古河市",
    "city_kana": "コガシ",
    "town": "緑町",
    "town_kana": "ミドリチョウ",
    "street": null,
    "office_name": null,
    "office_name_kana": null
  },
  "0004": {
    "postcode": "3060004",
    "prefecture": "茨城県",
    "prefecture_kana": "イバラキケン",
    "prefecture_code": 8,
    "city": "古河市",
    "city_kana": "コガシ",
    "town": "雷電町",
    "town_kana": "ライデンチョウ",
    "street": null,
    "office_name": null,
    "office_name_kana": null
  },
  "0005": {
    "postcode": "3060005",
    "prefecture": "茨城県",
    "prefecture_kana": "イバラキケン",
    "prefecture_code": 8,
    "city": "古河市",
    "city_kana": "コガシ",
    "town": "北町",
    "town_kana": "キタマチ",
    "street": null,
    "office_name": null,
    "office_name_kana": null
  },
  "0006": {
    "postcode": "3060006",
    "prefecture": "茨城県",
    "prefecture_kana": "イバラキケン",
    "prefecture_code": 8,
    "city": "古河市",
    "city_kana": "コガシ",
    "town": "平和町",
    "town_kana": "ヘイワマチ",
    "street": null,
    "office_name": null,
    "office_name_kana": null
  },
  "0007": {
    "postcode": "3060007",
    "prefecture": "茨城県",
    "prefecture_kana": "イバラキケン",
    "prefecture_code": 8,
    "city": "古河市",
    "city_kana": "コガシ",
    "town": "常盤町",
    "town_kana": "トキワチョウ",
    "street": null,
    "office_name": null,
    "office_name_kana": null
  },
  "0011": {
    "postcode": "3060011",
    "prefecture": "茨城県",
    "prefecture_kana": "イバラキケン",
    "prefecture_code": 8,
    "city": "古河市",
    "city_kana": "コガシ",
    "town": "東",
    "town_kana": "ヒガシ",
    "street": null,
    "office_name": null,
    "office_name_kana": null
  },
  "0012": {
    "postcode": "3060012",
    "prefecture": "茨城県",
    "prefecture_kana": "イバラキケン",
    "prefecture_code": 8,
    "city": "古河市",
    "city_kana": "コガシ",
    "town": "旭町",
    "town_kana": "アサヒチョウ",
    "street": null,
    "office_name": null,
    "office_name_kana": null
  },
  "0013": {
    "postcode": "3060013",
    "prefecture": "茨城県",
    "prefecture_kana": "イバラキケン",
    "prefecture_code": 8,
    "city": "古河市",
    "city_kana": "コガシ",
    "town": "東本町",
    "town_kana": "ヒガシホンチョウ",
    "street": null,
    "office_name": null,
    "office_name_kana": null
  },
  "0014": {
    "postcode": "3060014",
    "prefecture": "茨城県",
    "prefecture_kana": "イバラキケン",
    "prefecture_code": 8,
    "city": "古河市",
    "city_kana": "コガシ",
    "town": "下山町",
    "town_kana": "シモヤマチョウ",
    "street": null,
    "office_name": null,
    "office_name_kana": null
  },
  "0015": {
    "postcode": "3060015",
    "prefecture": "茨城県",
    "prefecture_kana": "イバラキケン",
    "prefecture_code": 8,
    "city": "古河市",
    "city_kana": "コガシ",
    "town": "南町",
    "town_kana": "ミナミチョウ",
    "street": null,
    "office_name": null,
    "office_name_kana": null
  },
  "0016": {
    "postcode": "3060016",
    "prefecture": "茨城県",
    "prefecture_kana": "イバラキケン",
    "prefecture_code": 8,
    "city": "古河市",
    "city_kana": "コガシ",
    "town": "古河",
    "town_kana": "コガ",
    "street": null,
    "office_name": null,
    "office_name_kana": null
  },
  "0021": {
    "postcode": "3060021",
    "prefecture": "茨城県",
    "prefecture_kana": "イバラキケン",
    "prefecture_code": 8,
    "city": "古河市",
    "city_kana": "コガシ",
    "town": "松並",
    "town_kana": "マツナミ",
    "street": null,
    "office_name": null,
    "office_name_kana": null
  },
  "0022": {
    "postcode": "3060022",
    "prefecture": "茨城県",
    "prefecture_kana": "イバラキケン",
    "prefecture_code": 8,
    "city": "古河市",
    "city_kana": "コガシ",
    "town": "横山町",
    "town_kana": "ヨコヤマチョウ",
    "street": null,
    "office_name": null,
    "office_name_kana": null
  },
  "0023": {
    "postcode": "3060023",
    "prefecture": "茨城県",
    "prefecture_kana": "イバラキケン",
    "prefecture_code": 8,
    "city": "古河市",
    "city_kana": "コガシ",
    "town": "本町",
    "town_kana": "ホンチョウ",
    "street": null,
    "office_name": null,
    "office_name_kana": null
  },
  "0024": {
    "postcode": "3060024",
    "prefecture": "茨城県",
    "prefecture_kana": "イバラキケン",
    "prefecture_code": 8,
    "city": "古河市",
    "city_kana": "コガシ",
    "town": "幸町",
    "town_kana": "サイワイチョウ",
    "street": null,
    "office_name": null,
    "office_name_kana": null
  },
  "0025": {
    "postcode": "3060025",
    "prefecture": "茨城県",
    "prefecture_kana": "イバラキケン",
    "prefecture_code": 8,
    "city": "古河市",
    "city_kana": "コガシ",
    "town": "原町",
    "town_kana": "ハラマチ",
    "street": null,
    "office_name": null,
    "office_name_kana": null
  },
  "0026": {
    "postcode": "3060026",
    "prefecture": "茨城県",
    "prefecture_kana": "イバラキケン",
    "prefecture_code": 8,
    "city": "古河市",
    "city_kana": "コガシ",
    "town": "原",
    "town_kana": "ハラ",
    "street": null,
    "office_name": null,
    "office_name_kana": null
  },
  "0031": {
    "postcode": "3060031",
    "prefecture": "茨城県",
    "prefecture_kana": "イバラキケン",
    "prefecture_code": 8,
    "city": "古河市",
    "city_kana": "コガシ",
    "town": "宮前町",
    "town_kana": "ミヤマエチョウ",
    "street": null,
    "office_name": null,
    "office_name_kana": null
  },
  "0032": {
    "postcode": "3060032",
    "prefecture": "茨城県",
    "prefecture_kana": "イバラキケン",
    "prefecture_code": 8,
    "city": "古河市",
    "city_kana": "コガシ",
    "town": "大手町",
    "town_kana": "オオテマチ",
    "street": null,
    "office_name": null,
    "office_name_kana": null
  },
  "0033": {
    "postcode": "3060033",
    "prefecture": "茨城県",
    "prefecture_kana": "イバラキケン",
    "prefecture_code": 8,
    "city": "古河市",
    "city_kana": "コガシ",
    "town": "中央町",
    "town_kana": "チュウオウチョウ",
    "street": null,
    "office_name": null,
    "office_name_kana": null
  },
  "0034": {
    "postcode": "3060034",
    "prefecture": "茨城県",
    "prefecture_kana": "イバラキケン",
    "prefecture_code": 8,
    "city": "古河市",
    "city_kana": "コガシ",
    "town": "長谷町",
    "town_kana": "ハセマチ",
    "street": null,
    "office_name": null,
    "office_name_kana": null
  },
  "0035": {
    "postcode": "3060035",
    "prefecture": "茨城県",
    "prefecture_kana": "イバラキケン",
    "prefecture_code": 8,
    "city": "古河市",
    "city_kana": "コガシ",
    "town": "長谷",
    "town_kana": "ハセ",
    "street": null,
    "office_name": null,
    "office_name_kana": null
  },
  "0036": {
    "postcode": "3060036",
    "prefecture": "茨城県",
    "prefecture_kana": "イバラキケン",
    "prefecture_code": 8,
    "city": "古河市",
    "city_kana": "コガシ",
    "town": "桜町",
    "town_kana": "サクラマチ",
    "street": null,
    "office_name": null,
    "office_name_kana": null
  },
  "0037": {
    "postcode": "3060037",
    "prefecture": "茨城県",
    "prefecture_kana": "イバラキケン",
    "prefecture_code": 8,
    "city": "古河市",
    "city_kana": "コガシ",
    "town": "錦町",
    "town_kana": "ニシキチョウ",
    "street": null,
    "office_name": null,
    "office_name_kana": null
  },
  "0038": {
    "postcode": "3060038",
    "prefecture": "茨城県",
    "prefecture_kana": "イバラキケン",
    "prefecture_code": 8,
    "city": "古河市",
    "city_kana": "コガシ",
    "town": "西町",
    "town_kana": "ニシマチ",
    "street": null,
    "office_name": null,
    "office_name_kana": null
  },
  "0041": {
    "postcode": "3060041",
    "prefecture": "茨城県",
    "prefecture_kana": "イバラキケン",
    "prefecture_code": 8,
    "city": "古河市",
    "city_kana": "コガシ",
    "town": "鴻巣",
    "town_kana": "コウノス",
    "street": null,
    "office_name": null,
    "office_name_kana": null
  },
  "0042": {
    "postcode": "3060042",
    "prefecture": "茨城県",
    "prefecture_kana": "イバラキケン",
    "prefecture_code": 8,
    "city": "古河市",
    "city_kana": "コガシ",
    "town": "三和",
    "town_kana": "サンワ",
    "street": null,
    "office_name": null,
    "office_name_kana": null
  },
  "0043": {
    "postcode": "3060043",
    "prefecture": "茨城県",
    "prefecture_kana": "イバラキケン",
    "prefecture_code": 8,
    "city": "古河市",
    "city_kana": "コガシ",
    "town": "鳥喰",
    "town_kana": "トリハミ",
    "street": null,
    "office_name": null,
    "office_name_kana": null
  },
  "0044": {
    "postcode": "3060044",
    "prefecture": "茨城県",
    "prefecture_kana": "イバラキケン",
    "prefecture_code": 8,
    "city": "古河市",
    "city_kana": "コガシ",
    "town": "新久田",
    "town_kana": "アラクダ",
    "street": null,
    "office_name": null,
    "office_name_kana": null
  },
  "0045": {
    "postcode": "3060045",
    "prefecture": "茨城県",
    "prefecture_kana": "イバラキケン",
    "prefecture_code": 8,
    "city": "古河市",
    "city_kana": "コガシ",
    "town": "駒ケ崎",
    "town_kana": "コマガサキ",
    "street": null,
    "office_name": null,
    "office_name_kana": null
  },
  "0046": {
    "postcode": "3060046",
    "prefecture": "茨城県",
    "prefecture_kana": "イバラキケン",
    "prefecture_code": 8,
    "city": "古河市",
    "city_kana": "コガシ",
    "town": "牧野地",
    "town_kana": "マキノジ",
    "street": null,
    "office_name": null,
    "office_name_kana": null
  },
  "0047": {
    "postcode": "3060047",
    "prefecture": "茨城県",
    "prefecture_kana": "イバラキケン",
    "prefecture_code": 8,
    "city": "古河市",
    "city_kana": "コガシ",
    "town": "立崎",
    "town_kana": "タツザキ",
    "street": null,
    "office_name": null,
    "office_name_kana": null
  },
  "0051": {
    "postcode": "3060051",
    "prefecture": "茨城県",
    "prefecture_kana": "イバラキケン",
    "prefecture_code": 8,
    "city": "古河市",
    "city_kana": "コガシ",
    "town": "茶屋新田",
    "town_kana": "チャヤシンデン",
    "street": null,
    "office_name": null,
    "office_name_kana": null
  },
  "0052": {
    "postcode": "3060052",
    "prefecture": "茨城県",
    "prefecture_kana": "イバラキケン",
    "prefecture_code": 8,
    "city": "古河市",
    "city_kana": "コガシ",
    "town": "大山",
    "town_kana": "オオヤマ",
    "street": null,
    "office_name": null,
    "office_name_kana": null
  },
  "0053": {
    "postcode": "3060053",
    "prefecture": "茨城県",
    "prefecture_kana": "イバラキケン",
    "prefecture_code": 8,
    "city": "古河市",
    "city_kana": "コガシ",
    "town": "中田",
    "town_kana": "ナカダ",
    "street": null,
    "office_name": null,
    "office_name_kana": null
  },
  "0054": {
    "postcode": "3060054",
    "prefecture": "茨城県",
    "prefecture_kana": "イバラキケン",
    "prefecture_code": 8,
    "city": "古河市",
    "city_kana": "コガシ",
    "town": "中田新田",
    "town_kana": "ナカダシンデン",
    "street": null,
    "office_name": null,
    "office_name_kana": null
  },
  "0055": {
    "postcode": "3060055",
    "prefecture": "茨城県",
    "prefecture_kana": "イバラキケン",
    "prefecture_code": 8,
    "city": "古河市",
    "city_kana": "コガシ",
    "town": "けやき平",
    "town_kana": "ケヤキダイラ",
    "street": null,
    "office_name": null,
    "office_name_kana": null
  },
  "0056": {
    "postcode": "3060056",
    "prefecture": "茨城県",
    "prefecture_kana": "イバラキケン",
    "prefecture_code": 8,
    "city": "古河市",
    "city_kana": "コガシ",
    "town": "坂間",
    "town_kana": "サカマ",
    "street": null,
    "office_name": null,
    "office_name_kana": null
  },
  "0101": {
    "postcode": "3060101",
    "prefecture": "茨城県",
    "prefecture_kana": "イバラキケン",
    "prefecture_code": 8,
    "city": "古河市",
    "city_kana": "コガシ",
    "town": "尾崎",
    "town_kana": "オサキ",
    "street": null,
    "office_name": null,
    "office_name_kana": null
  },
  "0103": {
    "postcode": "3060103",
    "prefecture": "茨城県",
    "prefecture_kana": "イバラキケン",
    "prefecture_code": 8,
    "city": "古河市",
    "city_kana": "コガシ",
    "town": "長左エ門新田",
    "town_kana": "チョウザエモンシンデン",
    "street": null,
    "office_name": null,
    "office_name_kana": null
  },
  "0104": {
    "postcode": "3060104",
    "prefecture": "茨城県",
    "prefecture_kana": "イバラキケン",
    "prefecture_code": 8,
    "city": "古河市",
    "city_kana": "コガシ",
    "town": "恩名",
    "town_kana": "オンナ",
    "street": null,
    "office_name": null,
    "office_name_kana": null
  },
  "0105": {
    "postcode": "3060105",
    "prefecture": "茨城県",
    "prefecture_kana": "イバラキケン",
    "prefecture_code": 8,
    "city": "古河市",
    "city_kana": "コガシ",
    "town": "江口",
    "town_kana": "エグチ",
    "street": null,
    "office_name": null,
    "office_name_kana": null
  },
  "0106": {
    "postcode": "3060106",
    "prefecture": "茨城県",
    "prefecture_kana": "イバラキケン",
    "prefecture_code": 8,
    "city": "古河市",
    "city_kana": "コガシ",
    "town": "北間中橋",
    "town_kana": "キタマナカバシ",
    "street": null,
    "office_name": null,
    "office_name_kana": null
  },
  "0107": {
    "postcode": "3060107",
    "prefecture": "茨城県",
    "prefecture_kana": "イバラキケン",
    "prefecture_code": 8,
    "city": "古河市",
    "city_kana": "コガシ",
    "town": "東間中橋",
    "town_kana": "ヒガシマナカバシ",
    "street": null,
    "office_name": null,
    "office_name_kana": null
  },
  "0108": {
    "postcode": "3060108",
    "prefecture": "茨城県",
    "prefecture_kana": "イバラキケン",
    "prefecture_code": 8,
    "city": "古河市",
    "city_kana": "コガシ",
    "town": "南間中橋",
    "town_kana": "ミナミマナカバシ",
    "street": null,
    "office_name": null,
    "office_name_kana": null
  },
  "0109": {
    "postcode": "3060109",
    "prefecture": "茨城県",
    "prefecture_kana": "イバラキケン",
    "prefecture_code": 8,
    "city": "古河市",
    "city_kana": "コガシ",
    "town": "西間中橋",
    "town_kana": "ニシマナカバシ",
    "street": null,
    "office_name": null,
    "office_name_kana": null
  },
  "0110": {
    "postcode": "3060110",
    "prefecture": "茨城県",
    "prefecture_kana": "イバラキケン",
    "prefecture_code": 8,
    "city": "古河市",
    "city_kana": "コガシ",
    "town": "名崎",
    "town_kana": "ナサキ",
    "street": null,
    "office_name": null,
    "office_name_kana": null
  },
  "0111": {
    "postcode": "3060111",
    "prefecture": "茨城県",
    "prefecture_kana": "イバラキケン",
    "prefecture_code": 8,
    "city": "古河市",
    "city_kana": "コガシ",
    "town": "大和田",
    "town_kana": "オオワダ",
    "street": null,
    "office_name": null,
    "office_name_kana": null
  },
  "0112": {
    "postcode": "3060112",
    "prefecture": "茨城県",
    "prefecture_kana": "イバラキケン",
    "prefecture_code": 8,
    "city": "古河市",
    "city_kana": "コガシ",
    "town": "東山田",
    "town_kana": "ヒガシヤマタ",
    "street": null,
    "office_name": null,
    "office_name_kana": null
  },
  "0113": {
    "postcode": "3060113",
    "prefecture": "茨城県",
    "prefecture_kana": "イバラキケン",
    "prefecture_code": 8,
    "city": "古河市",
    "city_kana": "コガシ",
    "town": "谷貝",
    "town_kana": "ヤガイ",
    "street": null,
    "office_name": null,
    "office_name_kana": null
  },
  "0114": {
    "postcode": "3060114",
    "prefecture": "茨城県",
    "prefecture_kana": "イバラキケン",
    "prefecture_code": 8,
    "city": "古河市",
    "city_kana": "コガシ",
    "town": "山田",
    "town_kana": "ヤマタ",
    "street": null,
    "office_name": null,
    "office_name_kana": null
  },
  "0115": {
    "postcode": "3060115",
    "prefecture": "茨城県",
    "prefecture_kana": "イバラキケン",
    "prefecture_code": 8,
    "city": "古河市",
    "city_kana": "コガシ",
    "town": "北山田",
    "town_kana": "キタヤマタ",
    "street": null,
    "office_name": null,
    "office_name_kana": null
  },
  "0116": {
    "postcode": "3060116",
    "prefecture": "茨城県",
    "prefecture_kana": "イバラキケン",
    "prefecture_code": 8,
    "city": "古河市",
    "city_kana": "コガシ",
    "town": "新和田",
    "town_kana": "シンワダ",
    "street": null,
    "office_name": null,
    "office_name_kana": null
  },
  "0121": {
    "postcode": "3060121",
    "prefecture": "茨城県",
    "prefecture_kana": "イバラキケン",
    "prefecture_code": 8,
    "city": "古河市",
    "city_kana": "コガシ",
    "town": "駒込",
    "town_kana": "コマゴメ",
    "street": null,
    "office_name": null,
    "office_name_kana": null
  },
  "0122": {
    "postcode": "3060122",
    "prefecture": "茨城県",
    "prefecture_kana": "イバラキケン",
    "prefecture_code": 8,
    "city": "古河市",
    "city_kana": "コガシ",
    "town": "上和田",
    "town_kana": "カミワダ",
    "street": null,
    "office_name": null,
    "office_name_kana": null
  },
  "0123": {
    "postcode": "3060123",
    "prefecture": "茨城県",
    "prefecture_kana": "イバラキケン",
    "prefecture_code": 8,
    "city": "古河市",
    "city_kana": "コガシ",
    "town": "五部",
    "town_kana": "ゴヘイ",
    "street": null,
    "office_name": null,
    "office_name_kana": null
  },
  "0124": {
    "postcode": "3060124",
    "prefecture": "茨城県",
    "prefecture_kana": "イバラキケン",
    "prefecture_code": 8,
    "city": "古河市",
    "city_kana": "コガシ",
    "town": "東諸川",
    "town_kana": "ヒガシモロカワ",
    "street": null,
    "office_name": null,
    "office_name_kana": null
  },
  "0125": {
    "postcode": "3060125",
    "prefecture": "茨城県",
    "prefecture_kana": "イバラキケン",
    "prefecture_code": 8,
    "city": "古河市",
    "city_kana": "コガシ",
    "town": "仁連",
    "town_kana": "ニレイ",
    "street": null,
    "office_name": null,
    "office_name_kana": null
  },
  "0126": {
    "postcode": "3060126",
    "prefecture": "茨城県",
    "prefecture_kana": "イバラキケン",
    "prefecture_code": 8,
    "city": "古河市",
    "city_kana": "コガシ",
    "town": "諸川",
    "town_kana": "モロカワ",
    "street": null,
    "office_name": null,
    "office_name_kana": null
  },
  "0127": {
    "postcode": "3060127",
    "prefecture": "茨城県",
    "prefecture_kana": "イバラキケン",
    "prefecture_code": 8,
    "city": "古河市",
    "city_kana": "コガシ",
    "town": "下片田",
    "town_kana": "シモカタタ",
    "street": null,
    "office_name": null,
    "office_name_kana": null
  },
  "0128": {
    "postcode": "3060128",
    "prefecture": "茨城県",
    "prefecture_kana": "イバラキケン",
    "prefecture_code": 8,
    "city": "古河市",
    "city_kana": "コガシ",
    "town": "上片田",
    "town_kana": "カミカタタ",
    "street": null,
    "office_name": null,
    "office_name_kana": null
  },
  "0201": {
    "postcode": "3060201",
    "prefecture": "茨城県",
    "prefecture_kana": "イバラキケン",
    "prefecture_code": 8,
    "city": "古河市",
    "city_kana": "コガシ",
    "town": "上大野",
    "town_kana": "カミオオノ",
    "street": null,
    "office_name": null,
    "office_name_kana": null
  },
  "0202": {
    "postcode": "3060202",
    "prefecture": "茨城県",
    "prefecture_kana": "イバラキケン",
    "prefecture_code": 8,
    "city": "古河市",
    "city_kana": "コガシ",
    "town": "稲宮",
    "town_kana": "イナミヤ",
    "street": null,
    "office_name": null,
    "office_name_kana": null
  },
  "0203": {
    "postcode": "3060203",
    "prefecture": "茨城県",
    "prefecture_kana": "イバラキケン",
    "prefecture_code": 8,
    "city": "古河市",
    "city_kana": "コガシ",
    "town": "柳橋",
    "town_kana": "ヤギハシ",
    "street": null,
    "office_name": null,
    "office_name_kana": null
  },
  "0204": {
    "postcode": "3060204",
    "prefecture": "茨城県",
    "prefecture_kana": "イバラキケン",
    "prefecture_code": 8,
    "city": "古河市",
    "city_kana": "コガシ",
    "town": "下大野",
    "town_kana": "シモオオノ",
    "street": null,
    "office_name": null,
    "office_name_kana": null
  },
  "0205": {
    "postcode": "3060205",
    "prefecture": "茨城県",
    "prefecture_kana": "イバラキケン",
    "prefecture_code": 8,
    "city": "古河市",
    "city_kana": "コガシ",
    "town": "関戸",
    "town_kana": "セキド",
    "street": null,
    "office_name": null,
    "office_name_kana": null
  },
  "0206": {
    "postcode": "3060206",
    "prefecture": "茨城県",
    "prefecture_kana": "イバラキケン",
    "prefecture_code": 8,
    "city": "古河市",
    "city_kana": "コガシ",
    "town": "丘里",
    "town_kana": "オカザト",
    "street": null,
    "office_name": null,
    "office_name_kana": null
  },
  "0211": {
    "postcode": "3060211",
    "prefecture": "茨城県",
    "prefecture_kana": "イバラキケン",
    "prefecture_code": 8,
    "city": "古河市",
    "city_kana": "コガシ",
    "town": "葛生",
    "town_kana": "カズロウ",
    "street": null,
    "office_name": null,
    "office_name_kana": null
  },
  "0212": {
    "postcode": "3060212",
    "prefecture": "茨城県",
    "prefecture_kana": "イバラキケン",
    "prefecture_code": 8,
    "city": "古河市",
    "city_kana": "コガシ",
    "town": "久能",
    "town_kana": "クノウ",
    "street": null,
    "office_name": null,
    "office_name_kana": null
  },
  "0213": {
    "postcode": "3060213",
    "prefecture": "茨城県",
    "prefecture_kana": "イバラキケン",
    "prefecture_code": 8,
    "city": "古河市",
    "city_kana": "コガシ",
    "town": "北利根",
    "town_kana": "キタトネ",
    "street": null,
    "office_name": null,
    "office_name_kana": null
  },
  "0214": {
    "postcode": "3060214",
    "prefecture": "茨城県",
    "prefecture_kana": "イバラキケン",
    "prefecture_code": 8,
    "city": "古河市",
    "city_kana": "コガシ",
    "town": "高野",
    "town_kana": "コウヤ",
    "street": null,
    "office_name": null,
    "office_name_kana": null
  },
  "0215": {
    "postcode": "3060215",
    "prefecture": "茨城県",
    "prefecture_kana": "イバラキケン",
    "prefecture_code": 8,
    "city": "古河市",
    "city_kana": "コガシ",
    "town": "水海",
    "town_kana": "ミズウミ",
    "street": null,
    "office_name": null,
    "office_name_kana": null
  },
  "0216": {
    "postcode": "3060216",
    "prefecture": "茨城県",
    "prefecture_kana": "イバラキケン",
    "prefecture_code": 8,
    "city": "古河市",
    "city_kana": "コガシ",
    "town": "前林",
    "town_kana": "マエバヤシ",
    "street": null,
    "office_name": null,
    "office_name_kana": null
  },
  "0221": {
    "postcode": "3060221",
    "prefecture": "茨城県",
    "prefecture_kana": "イバラキケン",
    "prefecture_code": 8,
    "city": "古河市",
    "city_kana": "コガシ",
    "town": "駒羽根",
    "town_kana": "コマハネ",
    "street": null,
    "office_name": null,
    "office_name_kana": null
  },
  "0222": {
    "postcode": "3060222",
    "prefecture": "茨城県",
    "prefecture_kana": "イバラキケン",
    "prefecture_code": 8,
    "city": "古河市",
    "city_kana": "コガシ",
    "town": "釈迦",
    "town_kana": "シャカ",
    "street": null,
    "office_name": null,
    "office_name_kana": null
  },
  "0223": {
    "postcode": "3060223",
    "prefecture": "茨城県",
    "prefecture_kana": "イバラキケン",
    "prefecture_code": 8,
    "city": "古河市",
    "city_kana": "コガシ",
    "town": "上砂井",
    "town_kana": "カミイサゴイ",
    "street": null,
    "office_name": null,
    "office_name_kana": null
  },
  "0224": {
    "postcode": "3060224",
    "prefecture": "茨城県",
    "prefecture_kana": "イバラキケン",
    "prefecture_code": 8,
    "city": "古河市",
    "city_kana": "コガシ",
    "town": "砂井新田",
    "town_kana": "イサゴイシンデン",
    "street": null,
    "office_name": null,
    "office_name_kana": null
  },
  "0225": {
    "postcode": "3060225",
    "prefecture": "茨城県",
    "prefecture_kana": "イバラキケン",
    "prefecture_code": 8,
    "city": "古河市",
    "city_kana": "コガシ",
    "town": "磯部",
    "town_kana": "イソベ",
    "street": null,
    "office_name": null,
    "office_name_kana": null
  },
  "0226": {
    "postcode": "3060226",
    "prefecture": "茨城県",
    "prefecture_kana": "イバラキケン",
    "prefecture_code": 8,
    "city": "古河市",
    "city_kana": "コガシ",
    "town": "女沼",
    "town_kana": "オナヌマ",
    "street": null,
    "office_name": null,
    "office_name_kana": null
  },
  "0231": {
    "postcode": "3060231",
    "prefecture": "茨城県",
    "prefecture_kana": "イバラキケン",
    "prefecture_code": 8,
    "city": "古河市",
    "city_kana": "コガシ",
    "town": "小堤",
    "town_kana": "コヅツミ",
    "street": null,
    "office_name": null,
    "office_name_kana": null
  },
  "0232": {
    "postcode": "3060232",
    "prefecture": "茨城県",
    "prefecture_kana": "イバラキケン",
    "prefecture_code": 8,
    "city": "古河市",
    "city_kana": "コガシ",
    "town": "東牛谷",
    "town_kana": "ヒガシウシガヤ",
    "street": null,
    "office_name": null,
    "office_name_kana": null
  },
  "0233": {
    "postcode": "3060233",
    "prefecture": "茨城県",
    "prefecture_kana": "イバラキケン",
    "prefecture_code": 8,
    "city": "古河市",
    "city_kana": "コガシ",
    "town": "西牛谷",
    "town_kana": "ニシウシガヤ",
    "street": null,
    "office_name": null,
    "office_name_kana": null
  },
  "0234": {
    "postcode": "3060234",
    "prefecture": "茨城県",
    "prefecture_kana": "イバラキケン",
    "prefecture_code": 8,
    "city": "古河市",
    "city_kana": "コガシ",
    "town": "上辺見",
    "town_kana": "カミヘミ",
    "street": null,
    "office_name": null,
    "office_name_kana": null
  },
  "0235": {
    "postcode": "3060235",
    "prefecture": "茨城県",
    "prefecture_kana": "イバラキケン",
    "prefecture_code": 8,
    "city": "古河市",
    "city_kana": "コガシ",
    "town": "下辺見",
    "town_kana": "シモヘミ",
    "street": null,
    "office_name": null,
    "office_name_kana": null
  },
  "0236": {
    "postcode": "3060236",
    "prefecture": "茨城県",
    "prefecture_kana": "イバラキケン",
    "prefecture_code": 8,
    "city": "古河市",
    "city_kana": "コガシ",
    "town": "大堤",
    "town_kana": "オオツツミ",
    "street": null,
    "office_name": null,
    "office_name_kana": null
  },
  "0292": {
    "postcode": "3060292",
    "prefecture": "茨城県",
    "prefecture_kana": "イバラキケン",
    "prefecture_code": 8,
    "city": "古河市",
    "city_kana": "コガシ",
    "town": "北利根",
    "town_kana": "キタトネ",
    "street": "８−１４センコー古河ＰＤセンター内",
    "office_name": "アマゾンジャパン　ＴＰＺ１",
    "office_name_kana": "アマゾンジヤパン テイ-ピ-ゼツトワン"
  },
  "0300": {
    "postcode": "3060300",
    "prefecture": "茨城県",
    "prefecture_kana": "イバラキケン",
    "prefecture_code": 8,
    "city": "猿島郡五霞町",
    "city_kana": "サシマグンゴカマチ",
    "town": "",
    "town_kana": "",
    "street": null,
    "office_name": null,
    "office_name_kana": null
  },
  "0301": {
    "postcode": "3060301",
    "prefecture": "茨城県",
    "prefecture_kana": "イバラキケン",
    "prefecture_code": 8,
    "city": "猿島郡五霞町",
    "city_kana": "サシマグンゴカマチ",
    "town": "山王山",
    "town_kana": "サンノウヤマ",
    "street": null,
    "office_name": null,
    "office_name_kana": null
  },
  "0302": {
    "postcode": "3060302",
    "prefecture": "茨城県",
    "prefecture_kana": "イバラキケン",
    "prefecture_code": 8,
    "city": "猿島郡五霞町",
    "city_kana": "サシマグンゴカマチ",
    "town": "山王",
    "town_kana": "サンノウ",
    "street": null,
    "office_name": null,
    "office_name_kana": null
  },
  "0303": {
    "postcode": "3060303",
    "prefecture": "茨城県",
    "prefecture_kana": "イバラキケン",
    "prefecture_code": 8,
    "city": "猿島郡五霞町",
    "city_kana": "サシマグンゴカマチ",
    "town": "江川",
    "town_kana": "エガワ",
    "street": null,
    "office_name": null,
    "office_name_kana": null
  },
  "0304": {
    "postcode": "3060304",
    "prefecture": "茨城県",
    "prefecture_kana": "イバラキケン",
    "prefecture_code": 8,
    "city": "猿島郡五霞町",
    "city_kana": "サシマグンゴカマチ",
    "town": "幸主",
    "town_kana": "コウシュ",
    "street": null,
    "office_name": null,
    "office_name_kana": null
  },
  "0305": {
    "postcode": "3060305",
    "prefecture": "茨城県",
    "prefecture_kana": "イバラキケン",
    "prefecture_code": 8,
    "city": "猿島郡五霞町",
    "city_kana": "サシマグンゴカマチ",
    "town": "冬木",
    "town_kana": "フユギ",
    "street": null,
    "office_name": null,
    "office_name_kana": null
  },
  "0306": {
    "postcode": "3060306",
    "prefecture": "茨城県",
    "prefecture_kana": "イバラキケン",
    "prefecture_code": 8,
    "city": "猿島郡五霞町",
    "city_kana": "サシマグンゴカマチ",
    "town": "原宿台",
    "town_kana": "ハラジュクダイ",
    "street": null,
    "office_name": null,
    "office_name_kana": null
  },
  "0307": {
    "postcode": "3060307",
    "prefecture": "茨城県",
    "prefecture_kana": "イバラキケン",
    "prefecture_code": 8,
    "city": "猿島郡五霞町",
    "city_kana": "サシマグンゴカマチ",
    "town": "小福田",
    "town_kana": "コフクダ",
    "street": null,
    "office_name": null,
    "office_name_kana": null
  },
  "0308": {
    "postcode": "3060308",
    "prefecture": "茨城県",
    "prefecture_kana": "イバラキケン",
    "prefecture_code": 8,
    "city": "猿島郡五霞町",
    "city_kana": "サシマグンゴカマチ",
    "town": "ごかみらい",
    "town_kana": "ゴカミライ",
    "street": null,
    "office_name": null,
    "office_name_kana": null
  },
  "0311": {
    "postcode": "3060311",
    "prefecture": "茨城県",
    "prefecture_kana": "イバラキケン",
    "prefecture_code": 8,
    "city": "猿島郡五霞町",
    "city_kana": "サシマグンゴカマチ",
    "town": "大福田",
    "town_kana": "オオフクダ",
    "street": null,
    "office_name": null,
    "office_name_kana": null
  },
  "0312": {
    "postcode": "3060312",
    "prefecture": "茨城県",
    "prefecture_kana": "イバラキケン",
    "prefecture_code": 8,
    "city": "猿島郡五霞町",
    "city_kana": "サシマグンゴカマチ",
    "town": "新幸谷",
    "town_kana": "シンコウヤ",
    "street": null,
    "office_name": null,
    "office_name_kana": null
  },
  "0313": {
    "postcode": "3060313",
    "prefecture": "茨城県",
    "prefecture_kana": "イバラキケン",
    "prefecture_code": 8,
    "city": "猿島郡五霞町",
    "city_kana": "サシマグンゴカマチ",
    "town": "元栗橋",
    "town_kana": "モトクリハシ",
    "street": null,
    "office_name": null,
    "office_name_kana": null
  },
  "0314": {
    "postcode": "3060314",
    "prefecture": "茨城県",
    "prefecture_kana": "イバラキケン",
    "prefecture_code": 8,
    "city": "猿島郡五霞町",
    "city_kana": "サシマグンゴカマチ",
    "town": "川妻",
    "town_kana": "カワツマ",
    "street": null,
    "office_name": null,
    "office_name_kana": null
  },
  "0315": {
    "postcode": "3060315",
    "prefecture": "茨城県",
    "prefecture_kana": "イバラキケン",
    "prefecture_code": 8,
    "city": "猿島郡五霞町",
    "city_kana": "サシマグンゴカマチ",
    "town": "小手指",
    "town_kana": "コテサシ",
    "street": null,
    "office_name": null,
    "office_name_kana": null
  },
  "0316": {
    "postcode": "3060316",
    "prefecture": "茨城県",
    "prefecture_kana": "イバラキケン",
    "prefecture_code": 8,
    "city": "猿島郡五霞町",
    "city_kana": "サシマグンゴカマチ",
    "town": "釈迦",
    "town_kana": "シャカ",
    "street": null,
    "office_name": null,
    "office_name_kana": null
  },
  "0317": {
    "postcode": "3060317",
    "prefecture": "茨城県",
    "prefecture_kana": "イバラキケン",
    "prefecture_code": 8,
    "city": "猿島郡五霞町",
    "city_kana": "サシマグンゴカマチ",
    "town": "前林",
    "town_kana": "マエバヤシ",
    "street": null,
    "office_name": null,
    "office_name_kana": null
  },
  "0392": {
    "postcode": "3060392",
    "prefecture": "茨城県",
    "prefecture_kana": "イバラキケン",
    "prefecture_code": 8,
    "city": "猿島郡五霞町",
    "city_kana": "サシマグンゴカマチ",
    "town": "大字小福田",
    "town_kana": null,
    "street": "１１６２−１",
    "office_name": "五霞町役場",
    "office_name_kana": "ゴカマチヤクバ"
  },
  "0400": {
    "postcode": "3060400",
    "prefecture": "茨城県",
    "prefecture_kana": "イバラキケン",
    "prefecture_code": 8,
    "city": "猿島郡境町",
    "city_kana": "サシマグンサカイマチ",
    "town": "",
    "town_kana": "",
    "street": null,
    "office_name": null,
    "office_name_kana": null
  },
  "0401": {
    "postcode": "3060401",
    "prefecture": "茨城県",
    "prefecture_kana": "イバラキケン",
    "prefecture_code": 8,
    "city": "猿島郡境町",
    "city_kana": "サシマグンサカイマチ",
    "town": "志鳥",
    "town_kana": "シトリ",
    "street": null,
    "office_name": null,
    "office_name_kana": null
  },
  "0402": {
    "postcode": "3060402",
    "prefecture": "茨城県",
    "prefecture_kana": "イバラキケン",
    "prefecture_code": 8,
    "city": "猿島郡境町",
    "city_kana": "サシマグンサカイマチ",
    "town": "猿山",
    "town_kana": "サルヤマ",
    "street": null,
    "office_name": null,
    "office_name_kana": null
  },
  "0403": {
    "postcode": "3060403",
    "prefecture": "茨城県",
    "prefecture_kana": "イバラキケン",
    "prefecture_code": 8,
    "city": "猿島郡境町",
    "city_kana": "サシマグンサカイマチ",
    "town": "蛇池",
    "town_kana": "ジャイケ",
    "street": null,
    "office_name": null,
    "office_name_kana": null
  },
  "0404": {
    "postcode": "3060404",
    "prefecture": "茨城県",
    "prefecture_kana": "イバラキケン",
    "prefecture_code": 8,
    "city": "猿島郡境町",
    "city_kana": "サシマグンサカイマチ",
    "town": "長井戸",
    "town_kana": "ナガイド",
    "street": null,
    "office_name": null,
    "office_name_kana": null
  },
  "0405": {
    "postcode": "3060405",
    "prefecture": "茨城県",
    "prefecture_kana": "イバラキケン",
    "prefecture_code": 8,
    "city": "猿島郡境町",
    "city_kana": "サシマグンサカイマチ",
    "town": "塚崎",
    "town_kana": "ツカザキ",
    "street": null,
    "office_name": null,
    "office_name_kana": null
  },
  "0406": {
    "postcode": "3060406",
    "prefecture": "茨城県",
    "prefecture_kana": "イバラキケン",
    "prefecture_code": 8,
    "city": "猿島郡境町",
    "city_kana": "サシマグンサカイマチ",
    "town": "横塚",
    "town_kana": "ヨコツカ",
    "street": null,
    "office_name": null,
    "office_name_kana": null
  },
  "0407": {
    "postcode": "3060407",
    "prefecture": "茨城県",
    "prefecture_kana": "イバラキケン",
    "prefecture_code": 8,
    "city": "猿島郡境町",
    "city_kana": "サシマグンサカイマチ",
    "town": "稲尾",
    "town_kana": "イナオ",
    "street": null,
    "office_name": null,
    "office_name_kana": null
  },
  "0408": {
    "postcode": "3060408",
    "prefecture": "茨城県",
    "prefecture_kana": "イバラキケン",
    "prefecture_code": 8,
    "city": "猿島郡境町",
    "city_kana": "サシマグンサカイマチ",
    "town": "みらい平",
    "town_kana": "ミライダイラ",
    "street": null,
    "office_name": null,
    "office_name_kana": null
  },
  "0411": {
    "postcode": "3060411",
    "prefecture": "茨城県",
    "prefecture_kana": "イバラキケン",
    "prefecture_code": 8,
    "city": "猿島郡境町",
    "city_kana": "サシマグンサカイマチ",
    "town": "下砂井",
    "town_kana": "シモイサゴイ",
    "street": null,
    "office_name": null,
    "office_name_kana": null
  },
  "0412": {
    "postcode": "3060412",
    "prefecture": "茨城県",
    "prefecture_kana": "イバラキケン",
    "prefecture_code": 8,
    "city": "猿島郡境町",
    "city_kana": "サシマグンサカイマチ",
    "town": "栗山",
    "town_kana": "クリヤマ",
    "street": null,
    "office_name": null,
    "office_name_kana": null
  },
  "0413": {
    "postcode": "3060413",
    "prefecture": "茨城県",
    "prefecture_kana": "イバラキケン",
    "prefecture_code": 8,
    "city": "猿島郡境町",
    "city_kana": "サシマグンサカイマチ",
    "town": "山崎",
    "town_kana": "ヤマザキ",
    "street": null,
    "office_name": null,
    "office_name_kana": null
  },
  "0414": {
    "postcode": "3060414",
    "prefecture": "茨城県",
    "prefecture_kana": "イバラキケン",
    "prefecture_code": 8,
    "city": "猿島郡境町",
    "city_kana": "サシマグンサカイマチ",
    "town": "内門",
    "town_kana": "ウチカド",
    "street": null,
    "office_name": null,
    "office_name_kana": null
  },
  "0415": {
    "postcode": "3060415",
    "prefecture": "茨城県",
    "prefecture_kana": "イバラキケン",
    "prefecture_code": 8,
    "city": "猿島郡境町",
    "city_kana": "サシマグンサカイマチ",
    "town": "大歩",
    "town_kana": "ワゴ",
    "street": null,
    "office_name": null,
    "office_name_kana": null
  },
  "0416": {
    "postcode": "3060416",
    "prefecture": "茨城県",
    "prefecture_kana": "イバラキケン",
    "prefecture_code": 8,
    "city": "猿島郡境町",
    "city_kana": "サシマグンサカイマチ",
    "town": "伏木",
    "town_kana": "フセギ",
    "street": null,
    "office_name": null,
    "office_name_kana": null
  },
  "0417": {
    "postcode": "3060417",
    "prefecture": "茨城県",
    "prefecture_kana": "イバラキケン",
    "prefecture_code": 8,
    "city": "猿島郡境町",
    "city_kana": "サシマグンサカイマチ",
    "town": "若林",
    "town_kana": "ワカバヤシ",
    "street": null,
    "office_name": null,
    "office_name_kana": null
  },
  "0421": {
    "postcode": "3060421",
    "prefecture": "茨城県",
    "prefecture_kana": "イバラキケン",
    "prefecture_code": 8,
    "city": "猿島郡境町",
    "city_kana": "サシマグンサカイマチ",
    "town": "染谷",
    "town_kana": "ソメヤ",
    "street": null,
    "office_name": null,
    "office_name_kana": null
  },
  "0422": {
    "postcode": "3060422",
    "prefecture": "茨城県",
    "prefecture_kana": "イバラキケン",
    "prefecture_code": 8,
    "city": "猿島郡境町",
    "city_kana": "サシマグンサカイマチ",
    "town": "一ノ谷",
    "town_kana": "イチノヤ",
    "street": null,
    "office_name": null,
    "office_name_kana": null
  },
  "0423": {
    "postcode": "3060423",
    "prefecture": "茨城県",
    "prefecture_kana": "イバラキケン",
    "prefecture_code": 8,
    "city": "猿島郡境町",
    "city_kana": "サシマグンサカイマチ",
    "town": "百戸",
    "town_kana": "モド",
    "street": null,
    "office_name": null,
    "office_name_kana": null
  },
  "0424": {
    "postcode": "3060424",
    "prefecture": "茨城県",
    "prefecture_kana": "イバラキケン",
    "prefecture_code": 8,
    "city": "猿島郡境町",
    "city_kana": "サシマグンサカイマチ",
    "town": "桐ケ作",
    "town_kana": "キリガサク",
    "street": null,
    "office_name": null,
    "office_name_kana": null
  },
  "0425": {
    "postcode": "3060425",
    "prefecture": "茨城県",
    "prefecture_kana": "イバラキケン",
    "prefecture_code": 8,
    "city": "猿島郡境町",
    "city_kana": "サシマグンサカイマチ",
    "town": "新田戸",
    "town_kana": "ニッタド",
    "street": null,
    "office_name": null,
    "office_name_kana": null
  },
  "0426": {
    "postcode": "3060426",
    "prefecture": "茨城県",
    "prefecture_kana": "イバラキケン",
    "prefecture_code": 8,
    "city": "猿島郡境町",
    "city_kana": "サシマグンサカイマチ",
    "town": "金岡",
    "town_kana": "カネオカ",
    "street": null,
    "office_name": null,
    "office_name_kana": null
  },
  "0427": {
    "postcode": "3060427",
    "prefecture": "茨城県",
    "prefecture_kana": "イバラキケン",
    "prefecture_code": 8,
    "city": "猿島郡境町",
    "city_kana": "サシマグンサカイマチ",
    "town": "浦向",
    "town_kana": "ウラムコウ",
    "street": null,
    "office_name": null,
    "office_name_kana": null
  },
  "0431": {
    "postcode": "3060431",
    "prefecture": "茨城県",
    "prefecture_kana": "イバラキケン",
    "prefecture_code": 8,
    "city": "猿島郡境町",
    "city_kana": "サシマグンサカイマチ",
    "town": "西泉田",
    "town_kana": "ニシイズミダ",
    "street": null,
    "office_name": null,
    "office_name_kana": null
  },
  "0432": {
    "postcode": "3060432",
    "prefecture": "茨城県",
    "prefecture_kana": "イバラキケン",
    "prefecture_code": 8,
    "city": "猿島郡境町",
    "city_kana": "サシマグンサカイマチ",
    "town": "下小橋",
    "town_kana": "シモコバシ",
    "street": null,
    "office_name": null,
    "office_name_kana": null
  },
  "0433": {
    "postcode": "3060433",
    "prefecture": "茨城県",
    "prefecture_kana": "イバラキケン",
    "prefecture_code": 8,
    "city": "猿島郡境町",
    "city_kana": "サシマグンサカイマチ",
    "town": "",
    "town_kana": "",
    "street": null,
    "office_name": null,
    "office_name_kana": null
  },
  "0434": {
    "postcode": "3060434",
    "prefecture": "茨城県",
    "prefecture_kana": "イバラキケン",
    "prefecture_code": 8,
    "city": "猿島郡境町",
    "city_kana": "サシマグンサカイマチ",
    "town": "上小橋",
    "town_kana": "カミコバシ",
    "street": null,
    "office_name": null,
    "office_name_kana": null
  },
  "0435": {
    "postcode": "3060435",
    "prefecture": "茨城県",
    "prefecture_kana": "イバラキケン",
    "prefecture_code": 8,
    "city": "猿島郡境町",
    "city_kana": "サシマグンサカイマチ",
    "town": "陽光台",
    "town_kana": "ヨウコウダイ",
    "street": null,
    "office_name": null,
    "office_name_kana": null
  },
  "0492": {
    "postcode": "3060492",
    "prefecture": "茨城県",
    "prefecture_kana": "イバラキケン",
    "prefecture_code": 8,
    "city": "猿島郡境町",
    "city_kana": "サシマグンサカイマチ",
    "town": "大字下小橋",
    "town_kana": null,
    "street": "字蝉野８６７−１２",
    "office_name": "株式会社　アサヒペン　関東流通センター",
    "office_name_kana": "カブシキガイシヤ アサヒペン カントウリユウツウセンタ-"
  },
  "0493": {
    "postcode": "3060493",
    "prefecture": "茨城県",
    "prefecture_kana": "イバラキケン",
    "prefecture_code": 8,
    "city": "猿島郡境町",
    "city_kana": "サシマグンサカイマチ",
    "town": "大字染谷",
    "town_kana": null,
    "street": "１０６",
    "office_name": "旭化成建材　株式会社　境工場",
    "office_name_kana": "アサヒカセイケンザイ カブシキガイシヤ サカイコウジヨウ"
  },
  "0495": {
    "postcode": "3060495",
    "prefecture": "茨城県",
    "prefecture_kana": "イバラキケン",
    "prefecture_code": 8,
    "city": "猿島郡境町",
    "city_kana": "サシマグンサカイマチ",
    "town": "",
    "town_kana": "",
    "street": "３９１−１（茨城境郵便局私書箱第３号）",
    "office_name": "境町役場",
    "office_name_kana": "サカイマチヤクバ"
  },
  "0501": {
    "postcode": "3060501",
    "prefecture": "茨城県",
    "prefecture_kana": "イバラキケン",
    "prefecture_code": 8,
    "city": "坂東市",
    "city_kana": "バンドウシ",
    "town": "逆井",
    "town_kana": "サカサイ",
    "street": null,
    "office_name": null,
    "office_name_kana": null
  },
  "0502": {
    "postcode": "3060502",
    "prefecture": "茨城県",
    "prefecture_kana": "イバラキケン",
    "prefecture_code": 8,
    "city": "坂東市",
    "city_kana": "バンドウシ",
    "town": "山",
    "town_kana": "ヤマ",
    "street": null,
    "office_name": null,
    "office_name_kana": null
  },
  "0503": {
    "postcode": "3060503",
    "prefecture": "茨城県",
    "prefecture_kana": "イバラキケン",
    "prefecture_code": 8,
    "city": "坂東市",
    "city_kana": "バンドウシ",
    "town": "生子新田",
    "town_kana": "オイゴシンデン",
    "street": null,
    "office_name": null,
    "office_name_kana": null
  },
  "0504": {
    "postcode": "3060504",
    "prefecture": "茨城県",
    "prefecture_kana": "イバラキケン",
    "prefecture_code": 8,
    "city": "坂東市",
    "city_kana": "バンドウシ",
    "town": "生子",
    "town_kana": "オイゴ",
    "street": null,
    "office_name": null,
    "office_name_kana": null
  },
  "0505": {
    "postcode": "3060505",
    "prefecture": "茨城県",
    "prefecture_kana": "イバラキケン",
    "prefecture_code": 8,
    "city": "坂東市",
    "city_kana": "バンドウシ",
    "town": "菅谷",
    "town_kana": "スガヤ",
    "street": null,
    "office_name": null,
    "office_name_kana": null
  },
  "0511": {
    "postcode": "3060511",
    "prefecture": "茨城県",
    "prefecture_kana": "イバラキケン",
    "prefecture_code": 8,
    "city": "坂東市",
    "city_kana": "バンドウシ",
    "town": "孫兵エ新田",
    "town_kana": "マゴベエシンデン",
    "street": null,
    "office_name": null,
    "office_name_kana": null
  },
  "0512": {
    "postcode": "3060512",
    "prefecture": "茨城県",
    "prefecture_kana": "イバラキケン",
    "prefecture_code": 8,
    "city": "坂東市",
    "city_kana": "バンドウシ",
    "town": "左平太新田",
    "town_kana": "サヘイタシンデン",
    "street": null,
    "office_name": null,
    "office_name_kana": null
  },
  "0513": {
    "postcode": "3060513",
    "prefecture": "茨城県",
    "prefecture_kana": "イバラキケン",
    "prefecture_code": 8,
    "city": "坂東市",
    "city_kana": "バンドウシ",
    "town": "栗山新田",
    "town_kana": "クリヤマシンデン",
    "street": null,
    "office_name": null,
    "office_name_kana": null
  },
  "0514": {
    "postcode": "3060514",
    "prefecture": "茨城県",
    "prefecture_kana": "イバラキケン",
    "prefecture_code": 8,
    "city": "坂東市",
    "city_kana": "バンドウシ",
    "town": "内野山",
    "town_kana": "ウチノヤマ",
    "street": null,
    "office_name": null,
    "office_name_kana": null
  },
  "0515": {
    "postcode": "3060515",
    "prefecture": "茨城県",
    "prefecture_kana": "イバラキケン",
    "prefecture_code": 8,
    "city": "坂東市",
    "city_kana": "バンドウシ",
    "town": "沓掛",
    "town_kana": "クツカケ",
    "street": null,
    "office_name": null,
    "office_name_kana": null
  },
  "0595": {
    "postcode": "3060595",
    "prefecture": "茨城県",
    "prefecture_kana": "イバラキケン",
    "prefecture_code": 8,
    "city": "坂東市",
    "city_kana": "バンドウシ",
    "town": "山",
    "town_kana": "ヤマ",
    "street": "２７３０",
    "office_name": "坂東市役所　猿島庁舎",
    "office_name_kana": "バンドウシヤクシヨ サシマチヨウシヤ"
  },
  "0600": {
    "postcode": "3060600",
    "prefecture": "茨城県",
    "prefecture_kana": "イバラキケン",
    "prefecture_code": 8,
    "city": "坂東市",
    "city_kana": "バンドウシ",
    "town": "",
    "town_kana": "",
    "street": null,
    "office_name": null,
    "office_name_kana": null
  },
  "0601": {
    "postcode": "3060601",
    "prefecture": "茨城県",
    "prefecture_kana": "イバラキケン",
    "prefecture_code": 8,
    "city": "坂東市",
    "city_kana": "バンドウシ",
    "town": "大馬新田",
    "town_kana": "オオマシンデン",
    "street": null,
    "office_name": null,
    "office_name_kana": null
  },
  "0602": {
    "postcode": "3060602",
    "prefecture": "茨城県",
    "prefecture_kana": "イバラキケン",
    "prefecture_code": 8,
    "city": "坂東市",
    "city_kana": "バンドウシ",
    "town": "平八新田",
    "town_kana": "ヘイハチシンデン",
    "street": null,
    "office_name": null,
    "office_name_kana": null
  },
  "0603": {
    "postcode": "3060603",
    "prefecture": "茨城県",
    "prefecture_kana": "イバラキケン",
    "prefecture_code": 8,
    "city": "坂東市",
    "city_kana": "バンドウシ",
    "town": "勘助新田",
    "town_kana": "カンスケシンデン",
    "street": null,
    "office_name": null,
    "office_name_kana": null
  },
  "0604": {
    "postcode": "3060604",
    "prefecture": "茨城県",
    "prefecture_kana": "イバラキケン",
    "prefecture_code": 8,
    "city": "坂東市",
    "city_kana": "バンドウシ",
    "town": "幸田新田",
    "town_kana": "コウダシンデン",
    "street": null,
    "office_name": null,
    "office_name_kana": null
  },
  "0605": {
    "postcode": "3060605",
    "prefecture": "茨城県",
    "prefecture_kana": "イバラキケン",
    "prefecture_code": 8,
    "city": "坂東市",
    "city_kana": "バンドウシ",
    "town": "馬立",
    "town_kana": "マタテ",
    "street": null,
    "office_name": null,
    "office_name_kana": null
  },
  "0606": {
    "postcode": "3060606",
    "prefecture": "茨城県",
    "prefecture_kana": "イバラキケン",
    "prefecture_code": 8,
    "city": "坂東市",
    "city_kana": "バンドウシ",
    "town": "幸田",
    "town_kana": "コウダ",
    "street": null,
    "office_name": null,
    "office_name_kana": null
  },
  "0607": {
    "postcode": "3060607",
    "prefecture": "茨城県",
    "prefecture_kana": "イバラキケン",
    "prefecture_code": 8,
    "city": "坂東市",
    "city_kana": "バンドウシ",
    "town": "弓田",
    "town_kana": "ユダ",
    "street": null,
    "office_name": null,
    "office_name_kana": null
  },
  "0608": {
    "postcode": "3060608",
    "prefecture": "茨城県",
    "prefecture_kana": "イバラキケン",
    "prefecture_code": 8,
    "city": "坂東市",
    "city_kana": "バンドウシ",
    "town": "幸神平",
    "town_kana": "コウシンダイラ",
    "street": null,
    "office_name": null,
    "office_name_kana": null
  },
  "0611": {
    "postcode": "3060611",
    "prefecture": "茨城県",
    "prefecture_kana": "イバラキケン",
    "prefecture_code": 8,
    "city": "坂東市",
    "city_kana": "バンドウシ",
    "town": "神田山新田",
    "town_kana": "カドヤマシンデン",
    "street": null,
    "office_name": null,
    "office_name_kana": null
  },
  "0612": {
    "postcode": "3060612",
    "prefecture": "茨城県",
    "prefecture_kana": "イバラキケン",
    "prefecture_code": 8,
    "city": "坂東市",
    "city_kana": "バンドウシ",
    "town": "猫実新田",
    "town_kana": "ネコザネシンデン",
    "street": null,
    "office_name": null,
    "office_name_kana": null
  },
  "0613": {
    "postcode": "3060613",
    "prefecture": "茨城県",
    "prefecture_kana": "イバラキケン",
    "prefecture_code": 8,
    "city": "坂東市",
    "city_kana": "バンドウシ",
    "town": "大口新田",
    "town_kana": "オオグチシンデン",
    "street": null,
    "office_name": null,
    "office_name_kana": null
  },
  "0614": {
    "postcode": "3060614",
    "prefecture": "茨城県",
    "prefecture_kana": "イバラキケン",
    "prefecture_code": 8,
    "city": "坂東市",
    "city_kana": "バンドウシ",
    "town": "庄右衛門新田",
    "town_kana": "ショウエモンシンデン",
    "street": null,
    "office_name": null,
    "office_name_kana": null
  },
  "0615": {
    "postcode": "3060615",
    "prefecture": "茨城県",
    "prefecture_kana": "イバラキケン",
    "prefecture_code": 8,
    "city": "坂東市",
    "city_kana": "バンドウシ",
    "town": "大口",
    "town_kana": "オオグチ",
    "street": null,
    "office_name": null,
    "office_name_kana": null
  },
  "0616": {
    "postcode": "3060616",
    "prefecture": "茨城県",
    "prefecture_kana": "イバラキケン",
    "prefecture_code": 8,
    "city": "坂東市",
    "city_kana": "バンドウシ",
    "town": "猫実",
    "town_kana": "ネコザネ",
    "street": null,
    "office_name": null,
    "office_name_kana": null
  },
  "0617": {
    "postcode": "3060617",
    "prefecture": "茨城県",
    "prefecture_kana": "イバラキケン",
    "prefecture_code": 8,
    "city": "坂東市",
    "city_kana": "バンドウシ",
    "town": "神田山",
    "town_kana": "カドヤマ",
    "street": null,
    "office_name": null,
    "office_name_kana": null
  },
  "0621": {
    "postcode": "3060621",
    "prefecture": "茨城県",
    "prefecture_kana": "イバラキケン",
    "prefecture_code": 8,
    "city": "坂東市",
    "city_kana": "バンドウシ",
    "town": "大谷口",
    "town_kana": "オオヤグチ",
    "street": null,
    "office_name": null,
    "office_name_kana": null
  },
  "0622": {
    "postcode": "3060622",
    "prefecture": "茨城県",
    "prefecture_kana": "イバラキケン",
    "prefecture_code": 8,
    "city": "坂東市",
    "city_kana": "バンドウシ",
    "town": "大崎",
    "town_kana": "オオサキ",
    "street": null,
    "office_name": null,
    "office_name_kana": null
  },
  "0623": {
    "postcode": "3060623",
    "prefecture": "茨城県",
    "prefecture_kana": "イバラキケン",
    "prefecture_code": 8,
    "city": "坂東市",
    "city_kana": "バンドウシ",
    "town": "法師戸",
    "town_kana": "ホウシト",
    "street": null,
    "office_name": null,
    "office_name_kana": null
  },
  "0624": {
    "postcode": "3060624",
    "prefecture": "茨城県",
    "prefecture_kana": "イバラキケン",
    "prefecture_code": 8,
    "city": "坂東市",
    "city_kana": "バンドウシ",
    "town": "矢作",
    "town_kana": "ヤハギ",
    "street": null,
    "office_name": null,
    "office_name_kana": null
  },
  "0625": {
    "postcode": "3060625",
    "prefecture": "茨城県",
    "prefecture_kana": "イバラキケン",
    "prefecture_code": 8,
    "city": "坂東市",
    "city_kana": "バンドウシ",
    "town": "莚打",
    "town_kana": "ムシロウチ",
    "street": null,
    "office_name": null,
    "office_name_kana": null
  },
  "0626": {
    "postcode": "3060626",
    "prefecture": "茨城県",
    "prefecture_kana": "イバラキケン",
    "prefecture_code": 8,
    "city": "坂東市",
    "city_kana": "バンドウシ",
    "town": "小山",
    "town_kana": "オヤマ",
    "street": null,
    "office_name": null,
    "office_name_kana": null
  },
  "0631": {
    "postcode": "3060631",
    "prefecture": "茨城県",
    "prefecture_kana": "イバラキケン",
    "prefecture_code": 8,
    "city": "坂東市",
    "city_kana": "バンドウシ",
    "town": "岩井",
    "town_kana": "イワイ",
    "street": null,
    "office_name": null,
    "office_name_kana": null
  },
  "0632": {
    "postcode": "3060632",
    "prefecture": "茨城県",
    "prefecture_kana": "イバラキケン",
    "prefecture_code": 8,
    "city": "坂東市",
    "city_kana": "バンドウシ",
    "town": "辺田",
    "town_kana": "ヘタ",
    "street": null,
    "office_name": null,
    "office_name_kana": null
  },
  "0633": {
    "postcode": "3060633",
    "prefecture": "茨城県",
    "prefecture_kana": "イバラキケン",
    "prefecture_code": 8,
    "city": "坂東市",
    "city_kana": "バンドウシ",
    "town": "下出島",
    "town_kana": "シモイズシマ",
    "street": null,
    "office_name": null,
    "office_name_kana": null
  },
  "0634": {
    "postcode": "3060634",
    "prefecture": "茨城県",
    "prefecture_kana": "イバラキケン",
    "prefecture_code": 8,
    "city": "坂東市",
    "city_kana": "バンドウシ",
    "town": "中里",
    "town_kana": "ナカザト",
    "street": null,
    "office_name": null,
    "office_name_kana": null
  },
  "0635": {
    "postcode": "3060635",
    "prefecture": "茨城県",
    "prefecture_kana": "イバラキケン",
    "prefecture_code": 8,
    "city": "坂東市",
    "city_kana": "バンドウシ",
    "town": "小泉",
    "town_kana": "コイズミ",
    "street": null,
    "office_name": null,
    "office_name_kana": null
  },
  "0636": {
    "postcode": "3060636",
    "prefecture": "茨城県",
    "prefecture_kana": "イバラキケン",
    "prefecture_code": 8,
    "city": "坂東市",
    "city_kana": "バンドウシ",
    "town": "桐木",
    "town_kana": "キリノキ",
    "street": null,
    "office_name": null,
    "office_name_kana": null
  },
  "0637": {
    "postcode": "3060637",
    "prefecture": "茨城県",
    "prefecture_kana": "イバラキケン",
    "prefecture_code": 8,
    "city": "坂東市",
    "city_kana": "バンドウシ",
    "town": "みどり町",
    "town_kana": "ミドリチョウ",
    "street": null,
    "office_name": null,
    "office_name_kana": null
  },
  "0641": {
    "postcode": "3060641",
    "prefecture": "茨城県",
    "prefecture_kana": "イバラキケン",
    "prefecture_code": 8,
    "city": "坂東市",
    "city_kana": "バンドウシ",
    "town": "鵠戸",
    "town_kana": "クグイド",
    "street": null,
    "office_name": null,
    "office_name_kana": null
  },
  "0642": {
    "postcode": "3060642",
    "prefecture": "茨城県",
    "prefecture_kana": "イバラキケン",
    "prefecture_code": 8,
    "city": "坂東市",
    "city_kana": "バンドウシ",
    "town": "長谷",
    "town_kana": "ナガヤ",
    "street": null,
    "office_name": null,
    "office_name_kana": null
  },
  "0643": {
    "postcode": "3060643",
    "prefecture": "茨城県",
    "prefecture_kana": "イバラキケン",
    "prefecture_code": 8,
    "city": "坂東市",
    "city_kana": "バンドウシ",
    "town": "木間ケ瀬",
    "town_kana": "キマガセ",
    "street": null,
    "office_name": null,
    "office_name_kana": null
  },
  "0644": {
    "postcode": "3060644",
    "prefecture": "茨城県",
    "prefecture_kana": "イバラキケン",
    "prefecture_code": 8,
    "city": "坂東市",
    "city_kana": "バンドウシ",
    "town": "古布内",
    "town_kana": "コブウチ",
    "street": null,
    "office_name": null,
    "office_name_kana": null
  },
  "0645": {
    "postcode": "3060645",
    "prefecture": "茨城県",
    "prefecture_kana": "イバラキケン",
    "prefecture_code": 8,
    "city": "坂東市",
    "city_kana": "バンドウシ",
    "town": "長須",
    "town_kana": "ナガス",
    "street": null,
    "office_name": null,
    "office_name_kana": null
  },
  "0651": {
    "postcode": "3060651",
    "prefecture": "茨城県",
    "prefecture_kana": "イバラキケン",
    "prefecture_code": 8,
    "city": "坂東市",
    "city_kana": "バンドウシ",
    "town": "半谷",
    "town_kana": "ハンヤ",
    "street": null,
    "office_name": null,
    "office_name_kana": null
  },
  "0652": {
    "postcode": "3060652",
    "prefecture": "茨城県",
    "prefecture_kana": "イバラキケン",
    "prefecture_code": 8,
    "city": "坂東市",
    "city_kana": "バンドウシ",
    "town": "冨田",
    "town_kana": "トミタ",
    "street": null,
    "office_name": null,
    "office_name_kana": null
  },
  "0653": {
    "postcode": "3060653",
    "prefecture": "茨城県",
    "prefecture_kana": "イバラキケン",
    "prefecture_code": 8,
    "city": "坂東市",
    "city_kana": "バンドウシ",
    "town": "駒跿",
    "town_kana": "コマハネ",
    "street": null,
    "office_name": null,
    "office_name_kana": null
  },
  "0654": {
    "postcode": "3060654",
    "prefecture": "茨城県",
    "prefecture_kana": "イバラキケン",
    "prefecture_code": 8,
    "city": "坂東市",
    "city_kana": "バンドウシ",
    "town": "上出島",
    "town_kana": "カミイズシマ",
    "street": null,
    "office_name": null,
    "office_name_kana": null
  },
  "0655": {
    "postcode": "3060655",
    "prefecture": "茨城県",
    "prefecture_kana": "イバラキケン",
    "prefecture_code": 8,
    "city": "坂東市",
    "city_kana": "バンドウシ",
    "town": "みむら",
    "town_kana": "ミムラ",
    "street": null,
    "office_name": null,
    "office_name_kana": null
  },
  "0656": {
    "postcode": "3060656",
    "prefecture": "茨城県",
    "prefecture_kana": "イバラキケン",
    "prefecture_code": 8,
    "city": "坂東市",
    "city_kana": "バンドウシ",
    "town": "寺久",
    "town_kana": "テラク",
    "street": null,
    "office_name": null,
    "office_name_kana": null
  },
  "0657": {
    "postcode": "3060657",
    "prefecture": "茨城県",
    "prefecture_kana": "イバラキケン",
    "prefecture_code": 8,
    "city": "坂東市",
    "city_kana": "バンドウシ",
    "town": "借宿",
    "town_kana": "カリヤド",
    "street": null,
    "office_name": null,
    "office_name_kana": null
  },
  "0658": {
    "postcode": "3060658",
    "prefecture": "茨城県",
    "prefecture_kana": "イバラキケン",
    "prefecture_code": 8,
    "city": "坂東市",
    "city_kana": "バンドウシ",
    "town": "緑の里",
    "town_kana": "ミドリノサト",
    "street": null,
    "office_name": null,
    "office_name_kana": null
  },
  "0692": {
    "postcode": "3060692",
    "prefecture": "茨城県",
    "prefecture_kana": "イバラキケン",
    "prefecture_code": 8,
    "city": "坂東市",
    "city_kana": "バンドウシ",
    "town": "岩井",
    "town_kana": "イワイ",
    "street": "４３６５",
    "office_name": "坂東市役所　岩井庁舎",
    "office_name_kana": "バンドウシヤクシヨ イワイチヨウシヤ"
  },
  "8601": {
    "postcode": "3068601",
    "prefecture": "茨城県",
    "prefecture_kana": "イバラキケン",
    "prefecture_code": 8,
    "city": "古河市",
    "city_kana": "コガシ",
    "town": "長谷町",
    "town_kana": "ハセマチ",
    "street": "３８−１８",
    "office_name": "古河市役所",
    "office_name_kana": "コガシヤクシヨ"
  },
  "8686": {
    "postcode": "3068686",
    "prefecture": "茨城県",
    "prefecture_kana": "イバラキケン",
    "prefecture_code": 8,
    "city": "古河市",
    "city_kana": "コガシ",
    "town": "北町",
    "town_kana": "キタマチ",
    "street": "５−２（古河郵便局私書箱第２号）",
    "office_name": "古河税務署",
    "office_name_kana": "コガゼイムシヨ"
  }
}