{
  "0100": {
    "postcode": "3110100",
    "prefecture": "茨城県",
    "prefecture_kana": "イバラキケン",
    "prefecture_code": 8,
    "city": "那珂市",
    "city_kana": "ナカシ",
    "town": "",
    "town_kana": "",
    "street": null,
    "office_name": null,
    "office_name_kana": null
  },
  "0101": {
    "postcode": "3110101",
    "prefecture": "茨城県",
    "prefecture_kana": "イバラキケン",
    "prefecture_code": 8,
    "city": "那珂市",
    "city_kana": "ナカシ",
    "town": "本米崎",
    "town_kana": "モトコメザキ",
    "street": null,
    "office_name": null,
    "office_name_kana": null
  },
  "0102": {
    "postcode": "3110102",
    "prefecture": "茨城県",
    "prefecture_kana": "イバラキケン",
    "prefecture_code": 8,
    "city": "那珂市",
    "city_kana": "ナカシ",
    "town": "向山",
    "town_kana": "ムコウヤマ",
    "street": null,
    "office_name": null,
    "office_name_kana": null
  },
  "0103": {
    "postcode": "3110103",
    "prefecture": "茨城県",
    "prefecture_kana": "イバラキケン",
    "prefecture_code": 8,
    "city": "那珂市",
    "city_kana": "ナカシ",
    "town": "横堀",
    "town_kana": "ヨコボリ",
    "street": null,
    "office_name": null,
    "office_name_kana": null
  },
  "0104": {
    "postcode": "3110104",
    "prefecture": "茨城県",
    "prefecture_kana": "イバラキケン",
    "prefecture_code": 8,
    "city": "那珂市",
    "city_kana": "ナカシ",
    "town": "堤",
    "town_kana": "ツツミ",
    "street": null,
    "office_name": null,
    "office_name_kana": null
  },
  "0105": {
    "postcode": "3110105",
    "prefecture": "茨城県",
    "prefecture_kana": "イバラキケン",
    "prefecture_code": 8,
    "city": "那珂市",
    "city_kana": "ナカシ",
    "town": "菅谷",
    "town_kana": "スガヤ",
    "street": null,
    "office_name": null,
    "office_name_kana": null
  },
  "0106": {
    "postcode": "3110106",
    "prefecture": "茨城県",
    "prefecture_kana": "イバラキケン",
    "prefecture_code": 8,
    "city": "那珂市",
    "city_kana": "ナカシ",
    "town": "杉",
    "town_kana": "スギ",
    "street": null,
    "office_name": null,
    "office_name_kana": null
  },
  "0107": {
    "postcode": "3110107",
    "prefecture": "茨城県",
    "prefecture_kana": "イバラキケン",
    "prefecture_code": 8,
    "city": "那珂市",
    "city_kana": "ナカシ",
    "town": "額田南郷",
    "town_kana": "ヌカダミナミゴウ",
    "street": null,
    "office_name": null,
    "office_name_kana": null
  },
  "0108": {
    "postcode": "3110108",
    "prefecture": "茨城県",
    "prefecture_kana": "イバラキケン",
    "prefecture_code": 8,
    "city": "那珂市",
    "city_kana": "ナカシ",
    "town": "額田北郷",
    "town_kana": "ヌカダキタゴウ",
    "street": null,
    "office_name": null,
    "office_name_kana": null
  },
  "0109": {
    "postcode": "3110109",
    "prefecture": "茨城県",
    "prefecture_kana": "イバラキケン",
    "prefecture_code": 8,
    "city": "那珂市",
    "city_kana": "ナカシ",
    "town": "額田東郷",
    "town_kana": "ヌカダヒガシゴウ",
    "street": null,
    "office_name": null,
    "office_name_kana": null
  },
  "0110": {
    "postcode": "3110110",
    "prefecture": "茨城県",
    "prefecture_kana": "イバラキケン",
    "prefecture_code": 8,
    "city": "那珂市",
    "city_kana": "ナカシ",
    "town": "竹ノ内",
    "town_kana": "タケノウチ",
    "street": null,
    "office_name": null,
    "office_name_kana": null
  },
  "0111": {
    "postcode": "3110111",
    "prefecture": "茨城県",
    "prefecture_kana": "イバラキケン",
    "prefecture_code": 8,
    "city": "那珂市",
    "city_kana": "ナカシ",
    "town": "後台",
    "town_kana": "ゴダイ",
    "street": null,
    "office_name": null,
    "office_name_kana": null
  },
  "0112": {
    "postcode": "3110112",
    "prefecture": "茨城県",
    "prefecture_kana": "イバラキケン",
    "prefecture_code": 8,
    "city": "那珂市",
    "city_kana": "ナカシ",
    "town": "津田",
    "town_kana": "ツダ",
    "street": null,
    "office_name": null,
    "office_name_kana": null
  },
  "0113": {
    "postcode": "3110113",
    "prefecture": "茨城県",
    "prefecture_kana": "イバラキケン",
    "prefecture_code": 8,
    "city": "那珂市",
    "city_kana": "ナカシ",
    "town": "中台",
    "town_kana": "ナカダイ",
    "street": null,
    "office_name": null,
    "office_name_kana": null
  },
  "0114": {
    "postcode": "3110114",
    "prefecture": "茨城県",
    "prefecture_kana": "イバラキケン",
    "prefecture_code": 8,
    "city": "那珂市",
    "city_kana": "ナカシ",
    "town": "東木倉",
    "town_kana": "ヒガシキノクラ",
    "street": null,
    "office_name": null,
    "office_name_kana": null
  },
  "0115": {
    "postcode": "3110115",
    "prefecture": "茨城県",
    "prefecture_kana": "イバラキケン",
    "prefecture_code": 8,
    "city": "那珂市",
    "city_kana": "ナカシ",
    "town": "西木倉",
    "town_kana": "ニシキノクラ",
    "street": null,
    "office_name": null,
    "office_name_kana": null
  },
  "0116": {
    "postcode": "3110116",
    "prefecture": "茨城県",
    "prefecture_kana": "イバラキケン",
    "prefecture_code": 8,
    "city": "那珂市",
    "city_kana": "ナカシ",
    "town": "上河内",
    "town_kana": "カミガチ",
    "street": null,
    "office_name": null,
    "office_name_kana": null
  },
  "0117": {
    "postcode": "3110117",
    "prefecture": "茨城県",
    "prefecture_kana": "イバラキケン",
    "prefecture_code": 8,
    "city": "那珂市",
    "city_kana": "ナカシ",
    "town": "豊喰",
    "town_kana": "トヨバミ",
    "street": null,
    "office_name": null,
    "office_name_kana": null
  },
  "0118": {
    "postcode": "3110118",
    "prefecture": "茨城県",
    "prefecture_kana": "イバラキケン",
    "prefecture_code": 8,
    "city": "那珂市",
    "city_kana": "ナカシ",
    "town": "福田",
    "town_kana": "フクダ",
    "street": null,
    "office_name": null,
    "office_name_kana": null
  },
  "0121": {
    "postcode": "3110121",
    "prefecture": "茨城県",
    "prefecture_kana": "イバラキケン",
    "prefecture_code": 8,
    "city": "那珂市",
    "city_kana": "ナカシ",
    "town": "戸崎",
    "town_kana": "トザキ",
    "street": null,
    "office_name": null,
    "office_name_kana": null
  },
  "0122": {
    "postcode": "3110122",
    "prefecture": "茨城県",
    "prefecture_kana": "イバラキケン",
    "prefecture_code": 8,
    "city": "那珂市",
    "city_kana": "ナカシ",
    "town": "戸",
    "town_kana": "ト",
    "street": null,
    "office_name": null,
    "office_name_kana": null
  },
  "0123": {
    "postcode": "3110123",
    "prefecture": "茨城県",
    "prefecture_kana": "イバラキケン",
    "prefecture_code": 8,
    "city": "那珂市",
    "city_kana": "ナカシ",
    "town": "上国井",
    "town_kana": "カミクニイ",
    "street": null,
    "office_name": null,
    "office_name_kana": null
  },
  "0124": {
    "postcode": "3110124",
    "prefecture": "茨城県",
    "prefecture_kana": "イバラキケン",
    "prefecture_code": 8,
    "city": "那珂市",
    "city_kana": "ナカシ",
    "town": "田崎",
    "town_kana": "タサキ",
    "street": null,
    "office_name": null,
    "office_name_kana": null
  },
  "0125": {
    "postcode": "3110125",
    "prefecture": "茨城県",
    "prefecture_kana": "イバラキケン",
    "prefecture_code": 8,
    "city": "那珂市",
    "city_kana": "ナカシ",
    "town": "大内",
    "town_kana": "オオウチ",
    "street": null,
    "office_name": null,
    "office_name_kana": null
  },
  "0126": {
    "postcode": "3110126",
    "prefecture": "茨城県",
    "prefecture_kana": "イバラキケン",
    "prefecture_code": 8,
    "city": "那珂市",
    "city_kana": "ナカシ",
    "town": "下江戸",
    "town_kana": "シモエド",
    "street": null,
    "office_name": null,
    "office_name_kana": null
  },
  "0131": {
    "postcode": "3110131",
    "prefecture": "茨城県",
    "prefecture_kana": "イバラキケン",
    "prefecture_code": 8,
    "city": "那珂市",
    "city_kana": "ナカシ",
    "town": "北酒出",
    "town_kana": "キタサカイデ",
    "street": null,
    "office_name": null,
    "office_name_kana": null
  },
  "0132": {
    "postcode": "3110132",
    "prefecture": "茨城県",
    "prefecture_kana": "イバラキケン",
    "prefecture_code": 8,
    "city": "那珂市",
    "city_kana": "ナカシ",
    "town": "南酒出",
    "town_kana": "ミナミサカイデ",
    "street": null,
    "office_name": null,
    "office_name_kana": null
  },
  "0133": {
    "postcode": "3110133",
    "prefecture": "茨城県",
    "prefecture_kana": "イバラキケン",
    "prefecture_code": 8,
    "city": "那珂市",
    "city_kana": "ナカシ",
    "town": "鴻巣",
    "town_kana": "コウノス",
    "street": null,
    "office_name": null,
    "office_name_kana": null
  },
  "0134": {
    "postcode": "3110134",
    "prefecture": "茨城県",
    "prefecture_kana": "イバラキケン",
    "prefecture_code": 8,
    "city": "那珂市",
    "city_kana": "ナカシ",
    "town": "飯田",
    "town_kana": "イイダ",
    "street": null,
    "office_name": null,
    "office_name_kana": null
  },
  "0135": {
    "postcode": "3110135",
    "prefecture": "茨城県",
    "prefecture_kana": "イバラキケン",
    "prefecture_code": 8,
    "city": "那珂市",
    "city_kana": "ナカシ",
    "town": "鹿島",
    "town_kana": "カシマ",
    "street": null,
    "office_name": null,
    "office_name_kana": null
  },
  "0136": {
    "postcode": "3110136",
    "prefecture": "茨城県",
    "prefecture_kana": "イバラキケン",
    "prefecture_code": 8,
    "city": "那珂市",
    "city_kana": "ナカシ",
    "town": "門部",
    "town_kana": "カドベ",
    "street": null,
    "office_name": null,
    "office_name_kana": null
  },
  "0192": {
    "postcode": "3110192",
    "prefecture": "茨城県",
    "prefecture_kana": "イバラキケン",
    "prefecture_code": 8,
    "city": "那珂市",
    "city_kana": "ナカシ",
    "town": "福田",
    "town_kana": "フクダ",
    "street": "１８１９−５",
    "office_name": "那珂市役所",
    "office_name_kana": "ナカシヤクシヨ"
  },
  "0193": {
    "postcode": "3110193",
    "prefecture": "茨城県",
    "prefecture_kana": "イバラキケン",
    "prefecture_code": 8,
    "city": "那珂市",
    "city_kana": "ナカシ",
    "town": "向山",
    "town_kana": "ムコウヤマ",
    "street": "８０１番地１",
    "office_name": "国立研究開発法人　量子科学技術研究開発機構　那珂核融合研究所",
    "office_name_kana": "コクリツケンキユウカイハツホウジン リヨウシカガクギジユツケンキユウカイハツキコウ ナカカクユウゴウケンキユウジヨ"
  },
  "0301": {
    "postcode": "3110301",
    "prefecture": "茨城県",
    "prefecture_kana": "イバラキケン",
    "prefecture_code": 8,
    "city": "常陸太田市",
    "city_kana": "ヒタチオオタシ",
    "town": "河内西町",
    "town_kana": "カワチニシチョウ",
    "street": null,
    "office_name": null,
    "office_name_kana": null
  },
  "0311": {
    "postcode": "3110311",
    "prefecture": "茨城県",
    "prefecture_kana": "イバラキケン",
    "prefecture_code": 8,
    "city": "常陸太田市",
    "city_kana": "ヒタチオオタシ",
    "town": "町屋町",
    "town_kana": "マチヤチョウ",
    "street": null,
    "office_name": null,
    "office_name_kana": null
  },
  "0312": {
    "postcode": "3110312",
    "prefecture": "茨城県",
    "prefecture_kana": "イバラキケン",
    "prefecture_code": 8,
    "city": "常陸太田市",
    "city_kana": "ヒタチオオタシ",
    "town": "西河内下町",
    "town_kana": "ニシゴウトシモチョウ",
    "street": null,
    "office_name": null,
    "office_name_kana": null
  },
  "0313": {
    "postcode": "3110313",
    "prefecture": "茨城県",
    "prefecture_kana": "イバラキケン",
    "prefecture_code": 8,
    "city": "常陸太田市",
    "city_kana": "ヒタチオオタシ",
    "town": "西河内中町",
    "town_kana": "ニシゴウトナカチョウ",
    "street": null,
    "office_name": null,
    "office_name_kana": null
  },
  "0314": {
    "postcode": "3110314",
    "prefecture": "茨城県",
    "prefecture_kana": "イバラキケン",
    "prefecture_code": 8,
    "city": "常陸太田市",
    "city_kana": "ヒタチオオタシ",
    "town": "西河内上町",
    "town_kana": "ニシゴウトカミチョウ",
    "street": null,
    "office_name": null,
    "office_name_kana": null
  },
  "0321": {
    "postcode": "3110321",
    "prefecture": "茨城県",
    "prefecture_kana": "イバラキケン",
    "prefecture_code": 8,
    "city": "常陸太田市",
    "city_kana": "ヒタチオオタシ",
    "town": "春友町",
    "town_kana": "ハルトモチョウ",
    "street": null,
    "office_name": null,
    "office_name_kana": null
  },
  "0322": {
    "postcode": "3110322",
    "prefecture": "茨城県",
    "prefecture_kana": "イバラキケン",
    "prefecture_code": 8,
    "city": "常陸太田市",
    "city_kana": "ヒタチオオタシ",
    "town": "常福地町",
    "town_kana": "ジョウフクジチョウ",
    "street": null,
    "office_name": null,
    "office_name_kana": null
  },
  "0323": {
    "postcode": "3110323",
    "prefecture": "茨城県",
    "prefecture_kana": "イバラキケン",
    "prefecture_code": 8,
    "city": "常陸太田市",
    "city_kana": "ヒタチオオタシ",
    "town": "茅根町",
    "town_kana": "チノネチョウ",
    "street": null,
    "office_name": null,
    "office_name_kana": null
  },
  "0324": {
    "postcode": "3110324",
    "prefecture": "茨城県",
    "prefecture_kana": "イバラキケン",
    "prefecture_code": 8,
    "city": "常陸太田市",
    "city_kana": "ヒタチオオタシ",
    "town": "白羽町",
    "town_kana": "シラワチョウ",
    "street": null,
    "office_name": null,
    "office_name_kana": null
  },
  "0325": {
    "postcode": "3110325",
    "prefecture": "茨城県",
    "prefecture_kana": "イバラキケン",
    "prefecture_code": 8,
    "city": "常陸太田市",
    "city_kana": "ヒタチオオタシ",
    "town": "里野宮町",
    "town_kana": "サトノミヤチョウ",
    "street": null,
    "office_name": null,
    "office_name_kana": null
  },
  "0401": {
    "postcode": "3110401",
    "prefecture": "茨城県",
    "prefecture_kana": "イバラキケン",
    "prefecture_code": 8,
    "city": "日立市",
    "city_kana": "ヒタチシ",
    "town": "中深荻町",
    "town_kana": "ナカフカオギチョウ",
    "street": null,
    "office_name": null,
    "office_name_kana": null
  },
  "0402": {
    "postcode": "3110402",
    "prefecture": "茨城県",
    "prefecture_kana": "イバラキケン",
    "prefecture_code": 8,
    "city": "日立市",
    "city_kana": "ヒタチシ",
    "town": "入四間町",
    "town_kana": "イリシケンチョウ",
    "street": null,
    "office_name": null,
    "office_name_kana": null
  },
  "0403": {
    "postcode": "3110403",
    "prefecture": "茨城県",
    "prefecture_kana": "イバラキケン",
    "prefecture_code": 8,
    "city": "日立市",
    "city_kana": "ヒタチシ",
    "town": "東河内町",
    "town_kana": "ヒガシゴウドチョウ",
    "street": null,
    "office_name": null,
    "office_name_kana": null
  },
  "0404": {
    "postcode": "3110404",
    "prefecture": "茨城県",
    "prefecture_kana": "イバラキケン",
    "prefecture_code": 8,
    "city": "日立市",
    "city_kana": "ヒタチシ",
    "town": "下深荻町",
    "town_kana": "シモフカオギチョウ",
    "street": null,
    "office_name": null,
    "office_name_kana": null
  },
  "0501": {
    "postcode": "3110501",
    "prefecture": "茨城県",
    "prefecture_kana": "イバラキケン",
    "prefecture_code": 8,
    "city": "常陸太田市",
    "city_kana": "ヒタチオオタシ",
    "town": "里川町",
    "town_kana": "サトガワチョウ",
    "street": null,
    "office_name": null,
    "office_name_kana": null
  },
  "0502": {
    "postcode": "3110502",
    "prefecture": "茨城県",
    "prefecture_kana": "イバラキケン",
    "prefecture_code": 8,
    "city": "常陸太田市",
    "city_kana": "ヒタチオオタシ",
    "town": "徳田町",
    "town_kana": "トクダチョウ",
    "street": null,
    "office_name": null,
    "office_name_kana": null
  },
  "0503": {
    "postcode": "3110503",
    "prefecture": "茨城県",
    "prefecture_kana": "イバラキケン",
    "prefecture_code": 8,
    "city": "常陸太田市",
    "city_kana": "ヒタチオオタシ",
    "town": "小妻町",
    "town_kana": "コヅマチョウ",
    "street": null,
    "office_name": null,
    "office_name_kana": null
  },
  "0504": {
    "postcode": "3110504",
    "prefecture": "茨城県",
    "prefecture_kana": "イバラキケン",
    "prefecture_code": 8,
    "city": "常陸太田市",
    "city_kana": "ヒタチオオタシ",
    "town": "小中町",
    "town_kana": "コナカチョウ",
    "street": null,
    "office_name": null,
    "office_name_kana": null
  },
  "0505": {
    "postcode": "3110505",
    "prefecture": "茨城県",
    "prefecture_kana": "イバラキケン",
    "prefecture_code": 8,
    "city": "常陸太田市",
    "city_kana": "ヒタチオオタシ",
    "town": "大中町",
    "town_kana": "オオナカチョウ",
    "street": null,
    "office_name": null,
    "office_name_kana": null
  },
  "0506": {
    "postcode": "3110506",
    "prefecture": "茨城県",
    "prefecture_kana": "イバラキケン",
    "prefecture_code": 8,
    "city": "常陸太田市",
    "city_kana": "ヒタチオオタシ",
    "town": "折橋町",
    "town_kana": "オリハシチョウ",
    "street": null,
    "office_name": null,
    "office_name_kana": null
  },
  "0507": {
    "postcode": "3110507",
    "prefecture": "茨城県",
    "prefecture_kana": "イバラキケン",
    "prefecture_code": 8,
    "city": "常陸太田市",
    "city_kana": "ヒタチオオタシ",
    "town": "小菅町",
    "town_kana": "コスゲチョウ",
    "street": null,
    "office_name": null,
    "office_name_kana": null
  },
  "0508": {
    "postcode": "3110508",
    "prefecture": "茨城県",
    "prefecture_kana": "イバラキケン",
    "prefecture_code": 8,
    "city": "常陸太田市",
    "city_kana": "ヒタチオオタシ",
    "town": "大菅町",
    "town_kana": "オオスゲチョウ",
    "street": null,
    "office_name": null,
    "office_name_kana": null
  },
  "0509": {
    "postcode": "3110509",
    "prefecture": "茨城県",
    "prefecture_kana": "イバラキケン",
    "prefecture_code": 8,
    "city": "常陸太田市",
    "city_kana": "ヒタチオオタシ",
    "town": "上深荻町",
    "town_kana": "カミフカオギチョウ",
    "street": null,
    "office_name": null,
    "office_name_kana": null
  },
  "1111": {
    "postcode": "3111111",
    "prefecture": "茨城県",
    "prefecture_kana": "イバラキケン",
    "prefecture_code": 8,
    "city": "水戸市",
    "city_kana": "ミトシ",
    "town": "小泉町",
    "town_kana": "コイズミチョウ",
    "street": null,
    "office_name": null,
    "office_name_kana": null
  },
  "1112": {
    "postcode": "3111112",
    "prefecture": "茨城県",
    "prefecture_kana": "イバラキケン",
    "prefecture_code": 8,
    "city": "水戸市",
    "city_kana": "ミトシ",
    "town": "川又町",
    "town_kana": "カワマタチョウ",
    "street": null,
    "office_name": null,
    "office_name_kana": null
  },
  "1113": {
    "postcode": "3111113",
    "prefecture": "茨城県",
    "prefecture_kana": "イバラキケン",
    "prefecture_code": 8,
    "city": "水戸市",
    "city_kana": "ミトシ",
    "town": "平戸町",
    "town_kana": "ヒラトチョウ",
    "street": null,
    "office_name": null,
    "office_name_kana": null
  },
  "1114": {
    "postcode": "3111114",
    "prefecture": "茨城県",
    "prefecture_kana": "イバラキケン",
    "prefecture_code": 8,
    "city": "水戸市",
    "city_kana": "ミトシ",
    "town": "塩崎町",
    "town_kana": "シオガサキチョウ",
    "street": null,
    "office_name": null,
    "office_name_kana": null
  },
  "1115": {
    "postcode": "3111115",
    "prefecture": "茨城県",
    "prefecture_kana": "イバラキケン",
    "prefecture_code": 8,
    "city": "水戸市",
    "city_kana": "ミトシ",
    "town": "大串町",
    "town_kana": "オオクシチョウ",
    "street": null,
    "office_name": null,
    "office_name_kana": null
  },
  "1121": {
    "postcode": "3111121",
    "prefecture": "茨城県",
    "prefecture_kana": "イバラキケン",
    "prefecture_code": 8,
    "city": "水戸市",
    "city_kana": "ミトシ",
    "town": "島田町",
    "town_kana": "シマダチョウ",
    "street": null,
    "office_name": null,
    "office_name_kana": null
  },
  "1122": {
    "postcode": "3111122",
    "prefecture": "茨城県",
    "prefecture_kana": "イバラキケン",
    "prefecture_code": 8,
    "city": "水戸市",
    "city_kana": "ミトシ",
    "town": "秋成町",
    "town_kana": "アキナリチョウ",
    "street": null,
    "office_name": null,
    "office_name_kana": null
  },
  "1123": {
    "postcode": "3111123",
    "prefecture": "茨城県",
    "prefecture_kana": "イバラキケン",
    "prefecture_code": 8,
    "city": "水戸市",
    "city_kana": "ミトシ",
    "town": "下入野町",
    "town_kana": "シモイリノチョウ",
    "street": null,
    "office_name": null,
    "office_name_kana": null
  },
  "1124": {
    "postcode": "3111124",
    "prefecture": "茨城県",
    "prefecture_kana": "イバラキケン",
    "prefecture_code": 8,
    "city": "水戸市",
    "city_kana": "ミトシ",
    "town": "森戸町",
    "town_kana": "モリトチョウ",
    "street": null,
    "office_name": null,
    "office_name_kana": null
  },
  "1125": {
    "postcode": "3111125",
    "prefecture": "茨城県",
    "prefecture_kana": "イバラキケン",
    "prefecture_code": 8,
    "city": "水戸市",
    "city_kana": "ミトシ",
    "town": "大場町",
    "town_kana": "オオバチョウ",
    "street": null,
    "office_name": null,
    "office_name_kana": null
  },
  "1131": {
    "postcode": "3111131",
    "prefecture": "茨城県",
    "prefecture_kana": "イバラキケン",
    "prefecture_code": 8,
    "city": "水戸市",
    "city_kana": "ミトシ",
    "town": "下大野町",
    "town_kana": "シモオオノチョウ",
    "street": null,
    "office_name": null,
    "office_name_kana": null
  },
  "1132": {
    "postcode": "3111132",
    "prefecture": "茨城県",
    "prefecture_kana": "イバラキケン",
    "prefecture_code": 8,
    "city": "水戸市",
    "city_kana": "ミトシ",
    "town": "東前町",
    "town_kana": "トウマエチョウ",
    "street": null,
    "office_name": null,
    "office_name_kana": null
  },
  "1133": {
    "postcode": "3111133",
    "prefecture": "茨城県",
    "prefecture_kana": "イバラキケン",
    "prefecture_code": 8,
    "city": "水戸市",
    "city_kana": "ミトシ",
    "town": "栗崎町",
    "town_kana": "クリサキチョウ",
    "street": null,
    "office_name": null,
    "office_name_kana": null
  },
  "1134": {
    "postcode": "3111134",
    "prefecture": "茨城県",
    "prefecture_kana": "イバラキケン",
    "prefecture_code": 8,
    "city": "水戸市",
    "city_kana": "ミトシ",
    "town": "百合が丘町",
    "town_kana": "ユリガオカチョウ",
    "street": null,
    "office_name": null,
    "office_name_kana": null
  },
  "1135": {
    "postcode": "3111135",
    "prefecture": "茨城県",
    "prefecture_kana": "イバラキケン",
    "prefecture_code": 8,
    "city": "水戸市",
    "city_kana": "ミトシ",
    "town": "六反田町",
    "town_kana": "ロクタンダチョウ",
    "street": null,
    "office_name": null,
    "office_name_kana": null
  },
  "1136": {
    "postcode": "3111136",
    "prefecture": "茨城県",
    "prefecture_kana": "イバラキケン",
    "prefecture_code": 8,
    "city": "水戸市",
    "city_kana": "ミトシ",
    "town": "東前",
    "town_kana": "トウマエ",
    "street": null,
    "office_name": null,
    "office_name_kana": null
  },
  "1201": {
    "postcode": "3111201",
    "prefecture": "茨城県",
    "prefecture_kana": "イバラキケン",
    "prefecture_code": 8,
    "city": "ひたちなか市",
    "city_kana": "ヒタチナカシ",
    "town": "阿字ケ浦町",
    "town_kana": "アジガウラチョウ",
    "street": null,
    "office_name": null,
    "office_name_kana": null
  },
  "1202": {
    "postcode": "3111202",
    "prefecture": "茨城県",
    "prefecture_kana": "イバラキケン",
    "prefecture_code": 8,
    "city": "ひたちなか市",
    "city_kana": "ヒタチナカシ",
    "town": "磯崎町",
    "town_kana": "イソザキチョウ",
    "street": null,
    "office_name": null,
    "office_name_kana": null
  },
  "1203": {
    "postcode": "3111203",
    "prefecture": "茨城県",
    "prefecture_kana": "イバラキケン",
    "prefecture_code": 8,
    "city": "ひたちなか市",
    "city_kana": "ヒタチナカシ",
    "town": "平磯町",
    "town_kana": "ヒライソチョウ",
    "street": null,
    "office_name": null,
    "office_name_kana": null
  },
  "1204": {
    "postcode": "3111204",
    "prefecture": "茨城県",
    "prefecture_kana": "イバラキケン",
    "prefecture_code": 8,
    "city": "ひたちなか市",
    "city_kana": "ヒタチナカシ",
    "town": "平磯遠原町",
    "town_kana": "ヒライソトオハラチョウ",
    "street": null,
    "office_name": null,
    "office_name_kana": null
  },
  "1205": {
    "postcode": "3111205",
    "prefecture": "茨城県",
    "prefecture_kana": "イバラキケン",
    "prefecture_code": 8,
    "city": "ひたちなか市",
    "city_kana": "ヒタチナカシ",
    "town": "十三奉行",
    "town_kana": "ジュウサンブギョウ",
    "street": null,
    "office_name": null,
    "office_name_kana": null
  },
  "1206": {
    "postcode": "3111206",
    "prefecture": "茨城県",
    "prefecture_kana": "イバラキケン",
    "prefecture_code": 8,
    "city": "ひたちなか市",
    "city_kana": "ヒタチナカシ",
    "town": "西十三奉行",
    "town_kana": "ニシジュウサンブギョウ",
    "street": null,
    "office_name": null,
    "office_name_kana": null
  },
  "1207": {
    "postcode": "3111207",
    "prefecture": "茨城県",
    "prefecture_kana": "イバラキケン",
    "prefecture_code": 8,
    "city": "ひたちなか市",
    "city_kana": "ヒタチナカシ",
    "town": "烏ケ台",
    "town_kana": "カラスガダイ",
    "street": null,
    "office_name": null,
    "office_name_kana": null
  },
  "1211": {
    "postcode": "3111211",
    "prefecture": "茨城県",
    "prefecture_kana": "イバラキケン",
    "prefecture_code": 8,
    "city": "ひたちなか市",
    "city_kana": "ヒタチナカシ",
    "town": "沢メキ",
    "town_kana": "サワメキ",
    "street": null,
    "office_name": null,
    "office_name_kana": null
  },
  "1212": {
    "postcode": "3111212",
    "prefecture": "茨城県",
    "prefecture_kana": "イバラキケン",
    "prefecture_code": 8,
    "city": "ひたちなか市",
    "city_kana": "ヒタチナカシ",
    "town": "殿山町",
    "town_kana": "トノヤマチョウ",
    "street": null,
    "office_name": null,
    "office_name_kana": null
  },
  "1213": {
    "postcode": "3111213",
    "prefecture": "茨城県",
    "prefecture_kana": "イバラキケン",
    "prefecture_code": 8,
    "city": "ひたちなか市",
    "city_kana": "ヒタチナカシ",
    "town": "牛久保",
    "town_kana": "ウシクボ",
    "street": null,
    "office_name": null,
    "office_name_kana": null
  },
  "1214": {
    "postcode": "3111214",
    "prefecture": "茨城県",
    "prefecture_kana": "イバラキケン",
    "prefecture_code": 8,
    "city": "ひたちなか市",
    "city_kana": "ヒタチナカシ",
    "town": "和田町",
    "town_kana": "ワダチョウ",
    "street": null,
    "office_name": null,
    "office_name_kana": null
  },
  "1215": {
    "postcode": "3111215",
    "prefecture": "茨城県",
    "prefecture_kana": "イバラキケン",
    "prefecture_code": 8,
    "city": "ひたちなか市",
    "city_kana": "ヒタチナカシ",
    "town": "東本町",
    "town_kana": "ヒガシホンチョウ",
    "street": null,
    "office_name": null,
    "office_name_kana": null
  },
  "1216": {
    "postcode": "3111216",
    "prefecture": "茨城県",
    "prefecture_kana": "イバラキケン",
    "prefecture_code": 8,
    "city": "ひたちなか市",
    "city_kana": "ヒタチナカシ",
    "town": "湊泉町",
    "town_kana": "ミナトイズミチョウ",
    "street": null,
    "office_name": null,
    "office_name_kana": null
  },
  "1217": {
    "postcode": "3111217",
    "prefecture": "茨城県",
    "prefecture_kana": "イバラキケン",
    "prefecture_code": 8,
    "city": "ひたちなか市",
    "city_kana": "ヒタチナカシ",
    "town": "富士ノ下",
    "town_kana": "フジノシタ",
    "street": null,
    "office_name": null,
    "office_name_kana": null
  },
  "1218": {
    "postcode": "3111218",
    "prefecture": "茨城県",
    "prefecture_kana": "イバラキケン",
    "prefecture_code": 8,
    "city": "ひたちなか市",
    "city_kana": "ヒタチナカシ",
    "town": "富士ノ上",
    "town_kana": "フジノウエ",
    "street": null,
    "office_name": null,
    "office_name_kana": null
  },
  "1221": {
    "postcode": "3111221",
    "prefecture": "茨城県",
    "prefecture_kana": "イバラキケン",
    "prefecture_code": 8,
    "city": "ひたちなか市",
    "city_kana": "ヒタチナカシ",
    "town": "湊本町",
    "town_kana": "ミナトホンチョウ",
    "street": null,
    "office_name": null,
    "office_name_kana": null
  },
  "1222": {
    "postcode": "3111222",
    "prefecture": "茨城県",
    "prefecture_kana": "イバラキケン",
    "prefecture_code": 8,
    "city": "ひたちなか市",
    "city_kana": "ヒタチナカシ",
    "town": "海門町",
    "town_kana": "カイモンチョウ",
    "street": null,
    "office_name": null,
    "office_name_kana": null
  },
  "1223": {
    "postcode": "3111223",
    "prefecture": "茨城県",
    "prefecture_kana": "イバラキケン",
    "prefecture_code": 8,
    "city": "ひたちなか市",
    "city_kana": "ヒタチナカシ",
    "town": "栄町",
    "town_kana": "サカエチョウ",
    "street": null,
    "office_name": null,
    "office_name_kana": null
  },
  "1224": {
    "postcode": "3111224",
    "prefecture": "茨城県",
    "prefecture_kana": "イバラキケン",
    "prefecture_code": 8,
    "city": "ひたちなか市",
    "city_kana": "ヒタチナカシ",
    "town": "山ノ上町",
    "town_kana": "ヤマノウエチョウ",
    "street": null,
    "office_name": null,
    "office_name_kana": null
  },
  "1225": {
    "postcode": "3111225",
    "prefecture": "茨城県",
    "prefecture_kana": "イバラキケン",
    "prefecture_code": 8,
    "city": "ひたちなか市",
    "city_kana": "ヒタチナカシ",
    "town": "釈迦町",
    "town_kana": "シャカマチ",
    "street": null,
    "office_name": null,
    "office_name_kana": null
  },
  "1226": {
    "postcode": "3111226",
    "prefecture": "茨城県",
    "prefecture_kana": "イバラキケン",
    "prefecture_code": 8,
    "city": "ひたちなか市",
    "city_kana": "ヒタチナカシ",
    "town": "幸町",
    "town_kana": "サイワイチョウ",
    "street": null,
    "office_name": null,
    "office_name_kana": null
  },
  "1227": {
    "postcode": "3111227",
    "prefecture": "茨城県",
    "prefecture_kana": "イバラキケン",
    "prefecture_code": 8,
    "city": "ひたちなか市",
    "city_kana": "ヒタチナカシ",
    "town": "洞下町",
    "town_kana": "ドウシタチョウ",
    "street": null,
    "office_name": null,
    "office_name_kana": null
  },
  "1228": {
    "postcode": "3111228",
    "prefecture": "茨城県",
    "prefecture_kana": "イバラキケン",
    "prefecture_code": 8,
    "city": "ひたちなか市",
    "city_kana": "ヒタチナカシ",
    "town": "八幡町",
    "town_kana": "ハチマンチョウ",
    "street": null,
    "office_name": null,
    "office_name_kana": null
  },
  "1229": {
    "postcode": "3111229",
    "prefecture": "茨城県",
    "prefecture_kana": "イバラキケン",
    "prefecture_code": 8,
    "city": "ひたちなか市",
    "city_kana": "ヒタチナカシ",
    "town": "湊中央",
    "town_kana": "ミナトチュウオウ",
    "street": null,
    "office_name": null,
    "office_name_kana": null
  },
  "1231": {
    "postcode": "3111231",
    "prefecture": "茨城県",
    "prefecture_kana": "イバラキケン",
    "prefecture_code": 8,
    "city": "ひたちなか市",
    "city_kana": "ヒタチナカシ",
    "town": "柳沢",
    "town_kana": "ヤナギサワ",
    "street": null,
    "office_name": null,
    "office_name_kana": null
  },
  "1232": {
    "postcode": "3111232",
    "prefecture": "茨城県",
    "prefecture_kana": "イバラキケン",
    "prefecture_code": 8,
    "city": "ひたちなか市",
    "city_kana": "ヒタチナカシ",
    "town": "柳が丘",
    "town_kana": "ヤナギガオカ",
    "street": null,
    "office_name": null,
    "office_name_kana": null
  },
  "1233": {
    "postcode": "3111233",
    "prefecture": "茨城県",
    "prefecture_kana": "イバラキケン",
    "prefecture_code": 8,
    "city": "ひたちなか市",
    "city_kana": "ヒタチナカシ",
    "town": "堀川",
    "town_kana": "ホリカワ",
    "street": null,
    "office_name": null,
    "office_name_kana": null
  },
  "1234": {
    "postcode": "3111234",
    "prefecture": "茨城県",
    "prefecture_kana": "イバラキケン",
    "prefecture_code": 8,
    "city": "ひたちなか市",
    "city_kana": "ヒタチナカシ",
    "town": "峰後",
    "town_kana": "ミネウシロ",
    "street": null,
    "office_name": null,
    "office_name_kana": null
  },
  "1235": {
    "postcode": "3111235",
    "prefecture": "茨城県",
    "prefecture_kana": "イバラキケン",
    "prefecture_code": 8,
    "city": "ひたちなか市",
    "city_kana": "ヒタチナカシ",
    "town": "田中後",
    "town_kana": "タナカウシロ",
    "street": null,
    "office_name": null,
    "office_name_kana": null
  },
  "1236": {
    "postcode": "3111236",
    "prefecture": "茨城県",
    "prefecture_kana": "イバラキケン",
    "prefecture_code": 8,
    "city": "ひたちなか市",
    "city_kana": "ヒタチナカシ",
    "town": "国神前",
    "town_kana": "コクジンマエ",
    "street": null,
    "office_name": null,
    "office_name_kana": null
  },
  "1237": {
    "postcode": "3111237",
    "prefecture": "茨城県",
    "prefecture_kana": "イバラキケン",
    "prefecture_code": 8,
    "city": "ひたちなか市",
    "city_kana": "ヒタチナカシ",
    "town": "関戸",
    "town_kana": "セキド",
    "street": null,
    "office_name": null,
    "office_name_kana": null
  },
  "1238": {
    "postcode": "3111238",
    "prefecture": "茨城県",
    "prefecture_kana": "イバラキケン",
    "prefecture_code": 8,
    "city": "ひたちなか市",
    "city_kana": "ヒタチナカシ",
    "town": "美田多町",
    "town_kana": "ミタダチョウ",
    "street": null,
    "office_name": null,
    "office_name_kana": null
  },
  "1241": {
    "postcode": "3111241",
    "prefecture": "茨城県",
    "prefecture_kana": "イバラキケン",
    "prefecture_code": 8,
    "city": "ひたちなか市",
    "city_kana": "ヒタチナカシ",
    "town": "赤坂",
    "town_kana": "アカサカ",
    "street": null,
    "office_name": null,
    "office_name_kana": null
  },
  "1242": {
    "postcode": "3111242",
    "prefecture": "茨城県",
    "prefecture_kana": "イバラキケン",
    "prefecture_code": 8,
    "city": "ひたちなか市",
    "city_kana": "ヒタチナカシ",
    "town": "西赤坂",
    "town_kana": "ニシアカサカ",
    "street": null,
    "office_name": null,
    "office_name_kana": null
  },
  "1243": {
    "postcode": "3111243",
    "prefecture": "茨城県",
    "prefecture_kana": "イバラキケン",
    "prefecture_code": 8,
    "city": "ひたちなか市",
    "city_kana": "ヒタチナカシ",
    "town": "北神敷台",
    "town_kana": "キタカミシキダイ",
    "street": null,
    "office_name": null,
    "office_name_kana": null
  },
  "1244": {
    "postcode": "3111244",
    "prefecture": "茨城県",
    "prefecture_kana": "イバラキケン",
    "prefecture_code": 8,
    "city": "ひたちなか市",
    "city_kana": "ヒタチナカシ",
    "town": "南神敷台",
    "town_kana": "ミナミカミシキダイ",
    "street": null,
    "office_name": null,
    "office_name_kana": null
  },
  "1245": {
    "postcode": "3111245",
    "prefecture": "茨城県",
    "prefecture_kana": "イバラキケン",
    "prefecture_code": 8,
    "city": "ひたちなか市",
    "city_kana": "ヒタチナカシ",
    "town": "館山",
    "town_kana": "タテヤマ",
    "street": null,
    "office_name": null,
    "office_name_kana": null
  },
  "1246": {
    "postcode": "3111246",
    "prefecture": "茨城県",
    "prefecture_kana": "イバラキケン",
    "prefecture_code": 8,
    "city": "ひたちなか市",
    "city_kana": "ヒタチナカシ",
    "town": "相金町",
    "town_kana": "ソウガネチョウ",
    "street": null,
    "office_name": null,
    "office_name_kana": null
  },
  "1247": {
    "postcode": "3111247",
    "prefecture": "茨城県",
    "prefecture_kana": "イバラキケン",
    "prefecture_code": 8,
    "city": "ひたちなか市",
    "city_kana": "ヒタチナカシ",
    "town": "四十発句",
    "town_kana": "シジュウホツク",
    "street": null,
    "office_name": null,
    "office_name_kana": null
  },
  "1248": {
    "postcode": "3111248",
    "prefecture": "茨城県",
    "prefecture_kana": "イバラキケン",
    "prefecture_code": 8,
    "city": "ひたちなか市",
    "city_kana": "ヒタチナカシ",
    "town": "田宮原",
    "town_kana": "タミヤハラ",
    "street": null,
    "office_name": null,
    "office_name_kana": null
  },
  "1251": {
    "postcode": "3111251",
    "prefecture": "茨城県",
    "prefecture_kana": "イバラキケン",
    "prefecture_code": 8,
    "city": "ひたちなか市",
    "city_kana": "ヒタチナカシ",
    "town": "山崎",
    "town_kana": "ヤマザキ",
    "street": null,
    "office_name": null,
    "office_name_kana": null
  },
  "1252": {
    "postcode": "3111252",
    "prefecture": "茨城県",
    "prefecture_kana": "イバラキケン",
    "prefecture_code": 8,
    "city": "ひたちなか市",
    "city_kana": "ヒタチナカシ",
    "town": "部田野",
    "town_kana": "ヘタノ",
    "street": null,
    "office_name": null,
    "office_name_kana": null
  },
  "1253": {
    "postcode": "3111253",
    "prefecture": "茨城県",
    "prefecture_kana": "イバラキケン",
    "prefecture_code": 8,
    "city": "ひたちなか市",
    "city_kana": "ヒタチナカシ",
    "town": "小谷金",
    "town_kana": "コヤガネ",
    "street": null,
    "office_name": null,
    "office_name_kana": null
  },
  "1254": {
    "postcode": "3111254",
    "prefecture": "茨城県",
    "prefecture_kana": "イバラキケン",
    "prefecture_code": 8,
    "city": "ひたちなか市",
    "city_kana": "ヒタチナカシ",
    "town": "新堤",
    "town_kana": "ニイヅツミ",
    "street": null,
    "office_name": null,
    "office_name_kana": null
  },
  "1255": {
    "postcode": "3111255",
    "prefecture": "茨城県",
    "prefecture_kana": "イバラキケン",
    "prefecture_code": 8,
    "city": "ひたちなか市",
    "city_kana": "ヒタチナカシ",
    "town": "雨沢谷津",
    "town_kana": "アメザワヤツ",
    "street": null,
    "office_name": null,
    "office_name_kana": null
  },
  "1261": {
    "postcode": "3111261",
    "prefecture": "茨城県",
    "prefecture_kana": "イバラキケン",
    "prefecture_code": 8,
    "city": "ひたちなか市",
    "city_kana": "ヒタチナカシ",
    "town": "鶴代",
    "town_kana": "ツルシロ",
    "street": null,
    "office_name": null,
    "office_name_kana": null
  },
  "1262": {
    "postcode": "3111262",
    "prefecture": "茨城県",
    "prefecture_kana": "イバラキケン",
    "prefecture_code": 8,
    "city": "ひたちなか市",
    "city_kana": "ヒタチナカシ",
    "town": "道メキ",
    "town_kana": "ドウメキ",
    "street": null,
    "office_name": null,
    "office_name_kana": null
  },
  "1263": {
    "postcode": "3111263",
    "prefecture": "茨城県",
    "prefecture_kana": "イバラキケン",
    "prefecture_code": 8,
    "city": "ひたちなか市",
    "city_kana": "ヒタチナカシ",
    "town": "和尚塚",
    "town_kana": "オショウツカ",
    "street": null,
    "office_name": null,
    "office_name_kana": null
  },
  "1264": {
    "postcode": "3111264",
    "prefecture": "茨城県",
    "prefecture_kana": "イバラキケン",
    "prefecture_code": 8,
    "city": "ひたちなか市",
    "city_kana": "ヒタチナカシ",
    "town": "浅井内",
    "town_kana": "アサイナイ",
    "street": null,
    "office_name": null,
    "office_name_kana": null
  },
  "1265": {
    "postcode": "3111265",
    "prefecture": "茨城県",
    "prefecture_kana": "イバラキケン",
    "prefecture_code": 8,
    "city": "ひたちなか市",
    "city_kana": "ヒタチナカシ",
    "town": "狢谷津",
    "town_kana": "ムジナヤツ",
    "street": null,
    "office_name": null,
    "office_name_kana": null
  },
  "1266": {
    "postcode": "3111266",
    "prefecture": "茨城県",
    "prefecture_kana": "イバラキケン",
    "prefecture_code": 8,
    "city": "ひたちなか市",
    "city_kana": "ヒタチナカシ",
    "town": "船窪",
    "town_kana": "フナクボ",
    "street": null,
    "office_name": null,
    "office_name_kana": null
  },
  "1267": {
    "postcode": "3111267",
    "prefecture": "茨城県",
    "prefecture_kana": "イバラキケン",
    "prefecture_code": 8,
    "city": "ひたちなか市",
    "city_kana": "ヒタチナカシ",
    "town": "廻り目",
    "town_kana": "マワリメ",
    "street": null,
    "office_name": null,
    "office_name_kana": null
  },
  "1268": {
    "postcode": "3111268",
    "prefecture": "茨城県",
    "prefecture_kana": "イバラキケン",
    "prefecture_code": 8,
    "city": "ひたちなか市",
    "city_kana": "ヒタチナカシ",
    "town": "湊中原",
    "town_kana": "ミナトナカハラ",
    "street": null,
    "office_name": null,
    "office_name_kana": null
  },
  "1300": {
    "postcode": "3111300",
    "prefecture": "茨城県",
    "prefecture_kana": "イバラキケン",
    "prefecture_code": 8,
    "city": "東茨城郡大洗町",
    "city_kana": "ヒガシイバラキグンオオアライマチ",
    "town": "",
    "town_kana": "",
    "street": null,
    "office_name": null,
    "office_name_kana": null
  },
  "1301": {
    "postcode": "3111301",
    "prefecture": "茨城県",
    "prefecture_kana": "イバラキケン",
    "prefecture_code": 8,
    "city": "東茨城郡大洗町",
    "city_kana": "ヒガシイバラキグンオオアライマチ",
    "town": "磯浜町",
    "town_kana": "イソハマチョウ",
    "street": null,
    "office_name": null,
    "office_name_kana": null
  },
  "1302": {
    "postcode": "3111302",
    "prefecture": "茨城県",
    "prefecture_kana": "イバラキケン",
    "prefecture_code": 8,
    "city": "東茨城郡大洗町",
    "city_kana": "ヒガシイバラキグンオオアライマチ",
    "town": "磯道",
    "town_kana": "イソミチ",
    "street": null,
    "office_name": null,
    "office_name_kana": null
  },
  "1303": {
    "postcode": "3111303",
    "prefecture": "茨城県",
    "prefecture_kana": "イバラキケン",
    "prefecture_code": 8,
    "city": "東茨城郡大洗町",
    "city_kana": "ヒガシイバラキグンオオアライマチ",
    "town": "東光台",
    "town_kana": "トウコウダイ",
    "street": null,
    "office_name": null,
    "office_name_kana": null
  },
  "1304": {
    "postcode": "3111304",
    "prefecture": "茨城県",
    "prefecture_kana": "イバラキケン",
    "prefecture_code": 8,
    "city": "東茨城郡大洗町",
    "city_kana": "ヒガシイバラキグンオオアライマチ",
    "town": "和銅",
    "town_kana": "ワドウ",
    "street": null,
    "office_name": null,
    "office_name_kana": null
  },
  "1305": {
    "postcode": "3111305",
    "prefecture": "茨城県",
    "prefecture_kana": "イバラキケン",
    "prefecture_code": 8,
    "city": "東茨城郡大洗町",
    "city_kana": "ヒガシイバラキグンオオアライマチ",
    "town": "港中央",
    "town_kana": "ミナトチュウオウ",
    "street": null,
    "office_name": null,
    "office_name_kana": null
  },
  "1306": {
    "postcode": "3111306",
    "prefecture": "茨城県",
    "prefecture_kana": "イバラキケン",
    "prefecture_code": 8,
    "city": "東茨城郡大洗町",
    "city_kana": "ヒガシイバラキグンオオアライマチ",
    "town": "五反田",
    "town_kana": "ゴタンダ",
    "street": null,
    "office_name": null,
    "office_name_kana": null
  },
  "1307": {
    "postcode": "3111307",
    "prefecture": "茨城県",
    "prefecture_kana": "イバラキケン",
    "prefecture_code": 8,
    "city": "東茨城郡大洗町",
    "city_kana": "ヒガシイバラキグンオオアライマチ",
    "town": "桜道",
    "town_kana": "サクラミチ",
    "street": null,
    "office_name": null,
    "office_name_kana": null
  },
  "1311": {
    "postcode": "3111311",
    "prefecture": "茨城県",
    "prefecture_kana": "イバラキケン",
    "prefecture_code": 8,
    "city": "東茨城郡大洗町",
    "city_kana": "ヒガシイバラキグンオオアライマチ",
    "town": "大貫町",
    "town_kana": "オオヌキチョウ",
    "street": null,
    "office_name": null,
    "office_name_kana": null
  },
  "1312": {
    "postcode": "3111312",
    "prefecture": "茨城県",
    "prefecture_kana": "イバラキケン",
    "prefecture_code": 8,
    "city": "東茨城郡大洗町",
    "city_kana": "ヒガシイバラキグンオオアライマチ",
    "town": "神山町",
    "town_kana": "カミヤマチョウ",
    "street": null,
    "office_name": null,
    "office_name_kana": null
  },
  "1313": {
    "postcode": "3111313",
    "prefecture": "茨城県",
    "prefecture_kana": "イバラキケン",
    "prefecture_code": 8,
    "city": "東茨城郡大洗町",
    "city_kana": "ヒガシイバラキグンオオアライマチ",
    "town": "成田町",
    "town_kana": "ナリタチョウ",
    "street": null,
    "office_name": null,
    "office_name_kana": null
  },
  "1392": {
    "postcode": "3111392",
    "prefecture": "茨城県",
    "prefecture_kana": "イバラキケン",
    "prefecture_code": 8,
    "city": "東茨城郡大洗町",
    "city_kana": "ヒガシイバラキグンオオアライマチ",
    "town": "磯浜町",
    "town_kana": "イソハマチョウ",
    "street": "６８８１−２７５",
    "office_name": "大洗町役場",
    "office_name_kana": "オオアライマチヤクバ"
  },
  "1393": {
    "postcode": "3111393",
    "prefecture": "茨城県",
    "prefecture_kana": "イバラキケン",
    "prefecture_code": 8,
    "city": "東茨城郡大洗町",
    "city_kana": "ヒガシイバラキグンオオアライマチ",
    "town": "成田町",
    "town_kana": "ナリタチョウ",
    "street": "４００２番地",
    "office_name": "国立研究開発法人　日本原子力研究開発機構　大洗研究開発センター",
    "office_name_kana": "コクリツケンキユウカイハツホウジン ニホンゲンシリヨクケンキユウカイハツキコウ オオアライケンキユウカイハツセンタ-"
  },
  "1401": {
    "postcode": "3111401",
    "prefecture": "茨城県",
    "prefecture_kana": "イバラキケン",
    "prefecture_code": 8,
    "city": "鉾田市",
    "city_kana": "ホコタシ",
    "town": "箕輪",
    "town_kana": "ミノワ",
    "street": null,
    "office_name": null,
    "office_name_kana": null
  },
  "1402": {
    "postcode": "3111402",
    "prefecture": "茨城県",
    "prefecture_kana": "イバラキケン",
    "prefecture_code": 8,
    "city": "鉾田市",
    "city_kana": "ホコタシ",
    "town": "下太田",
    "town_kana": "シモオオタ",
    "street": null,
    "office_name": null,
    "office_name_kana": null
  },
  "1403": {
    "postcode": "3111403",
    "prefecture": "茨城県",
    "prefecture_kana": "イバラキケン",
    "prefecture_code": 8,
    "city": "鉾田市",
    "city_kana": "ホコタシ",
    "town": "上釜",
    "town_kana": "カミガマ",
    "street": null,
    "office_name": null,
    "office_name_kana": null
  },
  "1404": {
    "postcode": "3111404",
    "prefecture": "茨城県",
    "prefecture_kana": "イバラキケン",
    "prefecture_code": 8,
    "city": "鉾田市",
    "city_kana": "ホコタシ",
    "town": "沢尻",
    "town_kana": "サワジリ",
    "street": null,
    "office_name": null,
    "office_name_kana": null
  },
  "1405": {
    "postcode": "3111405",
    "prefecture": "茨城県",
    "prefecture_kana": "イバラキケン",
    "prefecture_code": 8,
    "city": "鉾田市",
    "city_kana": "ホコタシ",
    "town": "上太田",
    "town_kana": "カミオオタ",
    "street": null,
    "office_name": null,
    "office_name_kana": null
  },
  "1406": {
    "postcode": "3111406",
    "prefecture": "茨城県",
    "prefecture_kana": "イバラキケン",
    "prefecture_code": 8,
    "city": "鉾田市",
    "city_kana": "ホコタシ",
    "town": "田崎",
    "town_kana": "タサキ",
    "street": null,
    "office_name": null,
    "office_name_kana": null
  },
  "1411": {
    "postcode": "3111411",
    "prefecture": "茨城県",
    "prefecture_kana": "イバラキケン",
    "prefecture_code": 8,
    "city": "鉾田市",
    "city_kana": "ホコタシ",
    "town": "荒地",
    "town_kana": "アラジ",
    "street": null,
    "office_name": null,
    "office_name_kana": null
  },
  "1412": {
    "postcode": "3111412",
    "prefecture": "茨城県",
    "prefecture_kana": "イバラキケン",
    "prefecture_code": 8,
    "city": "鉾田市",
    "city_kana": "ホコタシ",
    "town": "玉田",
    "town_kana": "タマダ",
    "street": null,
    "office_name": null,
    "office_name_kana": null
  },
  "1413": {
    "postcode": "3111413",
    "prefecture": "茨城県",
    "prefecture_kana": "イバラキケン",
    "prefecture_code": 8,
    "city": "鉾田市",
    "city_kana": "ホコタシ",
    "town": "冷水",
    "town_kana": "ヒヤミズ",
    "street": null,
    "office_name": null,
    "office_name_kana": null
  },
  "1414": {
    "postcode": "3111414",
    "prefecture": "茨城県",
    "prefecture_kana": "イバラキケン",
    "prefecture_code": 8,
    "city": "鉾田市",
    "city_kana": "ホコタシ",
    "town": "子生",
    "town_kana": "コナジ",
    "street": null,
    "office_name": null,
    "office_name_kana": null
  },
  "1415": {
    "postcode": "3111415",
    "prefecture": "茨城県",
    "prefecture_kana": "イバラキケン",
    "prefecture_code": 8,
    "city": "鉾田市",
    "city_kana": "ホコタシ",
    "town": "造谷",
    "town_kana": "ツクリヤ",
    "street": null,
    "office_name": null,
    "office_name_kana": null
  },
  "1416": {
    "postcode": "3111416",
    "prefecture": "茨城県",
    "prefecture_kana": "イバラキケン",
    "prefecture_code": 8,
    "city": "鉾田市",
    "city_kana": "ホコタシ",
    "town": "鹿田",
    "town_kana": "シカダ",
    "street": null,
    "office_name": null,
    "office_name_kana": null
  },
  "1421": {
    "postcode": "3111421",
    "prefecture": "茨城県",
    "prefecture_kana": "イバラキケン",
    "prefecture_code": 8,
    "city": "鉾田市",
    "city_kana": "ホコタシ",
    "town": "勝下新田",
    "town_kana": "カツオリシンデン",
    "street": null,
    "office_name": null,
    "office_name_kana": null
  },
  "1422": {
    "postcode": "3111422",
    "prefecture": "茨城県",
    "prefecture_kana": "イバラキケン",
    "prefecture_code": 8,
    "city": "鉾田市",
    "city_kana": "ホコタシ",
    "town": "勝下",
    "town_kana": "カツオリ",
    "street": null,
    "office_name": null,
    "office_name_kana": null
  },
  "1423": {
    "postcode": "3111423",
    "prefecture": "茨城県",
    "prefecture_kana": "イバラキケン",
    "prefecture_code": 8,
    "city": "鉾田市",
    "city_kana": "ホコタシ",
    "town": "滝浜",
    "town_kana": "タキハマ",
    "street": null,
    "office_name": null,
    "office_name_kana": null
  },
  "1424": {
    "postcode": "3111424",
    "prefecture": "茨城県",
    "prefecture_kana": "イバラキケン",
    "prefecture_code": 8,
    "city": "鉾田市",
    "city_kana": "ホコタシ",
    "town": "柏熊新田",
    "town_kana": "カシワクマシンデン",
    "street": null,
    "office_name": null,
    "office_name_kana": null
  },
  "1425": {
    "postcode": "3111425",
    "prefecture": "茨城県",
    "prefecture_kana": "イバラキケン",
    "prefecture_code": 8,
    "city": "鉾田市",
    "city_kana": "ホコタシ",
    "town": "湯坪",
    "town_kana": "ユツボ",
    "street": null,
    "office_name": null,
    "office_name_kana": null
  },
  "1426": {
    "postcode": "3111426",
    "prefecture": "茨城県",
    "prefecture_kana": "イバラキケン",
    "prefecture_code": 8,
    "city": "鉾田市",
    "city_kana": "ホコタシ",
    "town": "樅山",
    "town_kana": "モミヤマ",
    "street": null,
    "office_name": null,
    "office_name_kana": null
  },
  "1427": {
    "postcode": "3111427",
    "prefecture": "茨城県",
    "prefecture_kana": "イバラキケン",
    "prefecture_code": 8,
    "city": "鉾田市",
    "city_kana": "ホコタシ",
    "town": "常磐",
    "town_kana": "トキワ",
    "street": null,
    "office_name": null,
    "office_name_kana": null
  },
  "1492": {
    "postcode": "3111492",
    "prefecture": "茨城県",
    "prefecture_kana": "イバラキケン",
    "prefecture_code": 8,
    "city": "鉾田市",
    "city_kana": "ホコタシ",
    "town": "造谷",
    "town_kana": "ツクリヤ",
    "street": "６０５−３",
    "office_name": "鉾田市役所　旭総合支所",
    "office_name_kana": "ホコタシヤクシヨ アサヒソウゴウシシヨ"
  },
  "1493": {
    "postcode": "3111493",
    "prefecture": "茨城県",
    "prefecture_kana": "イバラキケン",
    "prefecture_code": 8,
    "city": "鉾田市",
    "city_kana": "ホコタシ",
    "town": "箕輪",
    "town_kana": "ミノワ",
    "street": "１６３２−１",
    "office_name": "千代田メインテナンス　株式会社",
    "office_name_kana": "チヨダメインテナンス カブシキガイシヤ"
  },
  "1500": {
    "postcode": "3111500",
    "prefecture": "茨城県",
    "prefecture_kana": "イバラキケン",
    "prefecture_code": 8,
    "city": "鉾田市",
    "city_kana": "ホコタシ",
    "town": "",
    "town_kana": "",
    "street": null,
    "office_name": null,
    "office_name_kana": null
  },
  "1501": {
    "postcode": "3111501",
    "prefecture": "茨城県",
    "prefecture_kana": "イバラキケン",
    "prefecture_code": 8,
    "city": "鉾田市",
    "city_kana": "ホコタシ",
    "town": "舟木",
    "town_kana": "フナキ",
    "street": null,
    "office_name": null,
    "office_name_kana": null
  },
  "1502": {
    "postcode": "3111502",
    "prefecture": "茨城県",
    "prefecture_kana": "イバラキケン",
    "prefecture_code": 8,
    "city": "鉾田市",
    "city_kana": "ホコタシ",
    "town": "大戸",
    "town_kana": "オオド",
    "street": null,
    "office_name": null,
    "office_name_kana": null
  },
  "1503": {
    "postcode": "3111503",
    "prefecture": "茨城県",
    "prefecture_kana": "イバラキケン",
    "prefecture_code": 8,
    "city": "鉾田市",
    "city_kana": "ホコタシ",
    "town": "徳宿",
    "town_kana": "トクシュク",
    "street": null,
    "office_name": null,
    "office_name_kana": null
  },
  "1504": {
    "postcode": "3111504",
    "prefecture": "茨城県",
    "prefecture_kana": "イバラキケン",
    "prefecture_code": 8,
    "city": "鉾田市",
    "city_kana": "ホコタシ",
    "town": "安房",
    "town_kana": "アンボウ",
    "street": null,
    "office_name": null,
    "office_name_kana": null
  },
  "1505": {
    "postcode": "3111505",
    "prefecture": "茨城県",
    "prefecture_kana": "イバラキケン",
    "prefecture_code": 8,
    "city": "鉾田市",
    "city_kana": "ホコタシ",
    "town": "駒木根",
    "town_kana": "コマギネ",
    "street": null,
    "office_name": null,
    "office_name_kana": null
  },
  "1506": {
    "postcode": "3111506",
    "prefecture": "茨城県",
    "prefecture_kana": "イバラキケン",
    "prefecture_code": 8,
    "city": "鉾田市",
    "city_kana": "ホコタシ",
    "town": "秋山",
    "town_kana": "アキヤマ",
    "street": null,
    "office_name": null,
    "office_name_kana": null
  },
  "1511": {
    "postcode": "3111511",
    "prefecture": "茨城県",
    "prefecture_kana": "イバラキケン",
    "prefecture_code": 8,
    "city": "鉾田市",
    "city_kana": "ホコタシ",
    "town": "柏熊",
    "town_kana": "カシワクマ",
    "street": null,
    "office_name": null,
    "office_name_kana": null
  },
  "1512": {
    "postcode": "3111512",
    "prefecture": "茨城県",
    "prefecture_kana": "イバラキケン",
    "prefecture_code": 8,
    "city": "鉾田市",
    "city_kana": "ホコタシ",
    "town": "白塚",
    "town_kana": "シラツカ",
    "street": null,
    "office_name": null,
    "office_name_kana": null
  },
  "1513": {
    "postcode": "3111513",
    "prefecture": "茨城県",
    "prefecture_kana": "イバラキケン",
    "prefecture_code": 8,
    "city": "鉾田市",
    "city_kana": "ホコタシ",
    "town": "大竹",
    "town_kana": "オオタケ",
    "street": null,
    "office_name": null,
    "office_name_kana": null
  },
  "1514": {
    "postcode": "3111514",
    "prefecture": "茨城県",
    "prefecture_kana": "イバラキケン",
    "prefecture_code": 8,
    "city": "鉾田市",
    "city_kana": "ホコタシ",
    "town": "安塚",
    "town_kana": "ヤスヅカ",
    "street": null,
    "office_name": null,
    "office_name_kana": null
  },
  "1515": {
    "postcode": "3111515",
    "prefecture": "茨城県",
    "prefecture_kana": "イバラキケン",
    "prefecture_code": 8,
    "city": "鉾田市",
    "city_kana": "ホコタシ",
    "town": "烟田",
    "town_kana": "カマタ",
    "street": null,
    "office_name": null,
    "office_name_kana": null
  },
  "1516": {
    "postcode": "3111516",
    "prefecture": "茨城県",
    "prefecture_kana": "イバラキケン",
    "prefecture_code": 8,
    "city": "鉾田市",
    "city_kana": "ホコタシ",
    "town": "新鉾田",
    "town_kana": "シンホコタ",
    "street": null,
    "office_name": null,
    "office_name_kana": null
  },
  "1517": {
    "postcode": "3111517",
    "prefecture": "茨城県",
    "prefecture_kana": "イバラキケン",
    "prefecture_code": 8,
    "city": "鉾田市",
    "city_kana": "ホコタシ",
    "town": "鉾田",
    "town_kana": "ホコタ",
    "street": null,
    "office_name": null,
    "office_name_kana": null
  },
  "1518": {
    "postcode": "3111518",
    "prefecture": "茨城県",
    "prefecture_kana": "イバラキケン",
    "prefecture_code": 8,
    "city": "鉾田市",
    "city_kana": "ホコタシ",
    "town": "新鉾田西",
    "town_kana": "シンホコタニシ",
    "street": null,
    "office_name": null,
    "office_name_kana": null
  },
  "1521": {
    "postcode": "3111521",
    "prefecture": "茨城県",
    "prefecture_kana": "イバラキケン",
    "prefecture_code": 8,
    "city": "鉾田市",
    "city_kana": "ホコタシ",
    "town": "飯名",
    "town_kana": "イイナ",
    "street": null,
    "office_name": null,
    "office_name_kana": null
  },
  "1522": {
    "postcode": "3111522",
    "prefecture": "茨城県",
    "prefecture_kana": "イバラキケン",
    "prefecture_code": 8,
    "city": "鉾田市",
    "city_kana": "ホコタシ",
    "town": "塔ケ崎",
    "town_kana": "トウガサキ",
    "street": null,
    "office_name": null,
    "office_name_kana": null
  },
  "1523": {
    "postcode": "3111523",
    "prefecture": "茨城県",
    "prefecture_kana": "イバラキケン",
    "prefecture_code": 8,
    "city": "鉾田市",
    "city_kana": "ホコタシ",
    "town": "串挽",
    "town_kana": "クシヒキ",
    "street": null,
    "office_name": null,
    "office_name_kana": null
  },
  "1524": {
    "postcode": "3111524",
    "prefecture": "茨城県",
    "prefecture_kana": "イバラキケン",
    "prefecture_code": 8,
    "city": "鉾田市",
    "city_kana": "ホコタシ",
    "town": "高田",
    "town_kana": "タカダ",
    "street": null,
    "office_name": null,
    "office_name_kana": null
  },
  "1525": {
    "postcode": "3111525",
    "prefecture": "茨城県",
    "prefecture_kana": "イバラキケン",
    "prefecture_code": 8,
    "city": "鉾田市",
    "city_kana": "ホコタシ",
    "town": "野友",
    "town_kana": "ノトモ",
    "street": null,
    "office_name": null,
    "office_name_kana": null
  },
  "1526": {
    "postcode": "3111526",
    "prefecture": "茨城県",
    "prefecture_kana": "イバラキケン",
    "prefecture_code": 8,
    "city": "鉾田市",
    "city_kana": "ホコタシ",
    "town": "半原",
    "town_kana": "ハバラ",
    "street": null,
    "office_name": null,
    "office_name_kana": null
  },
  "1527": {
    "postcode": "3111527",
    "prefecture": "茨城県",
    "prefecture_kana": "イバラキケン",
    "prefecture_code": 8,
    "city": "鉾田市",
    "city_kana": "ホコタシ",
    "town": "借宿",
    "town_kana": "カリヤド",
    "street": null,
    "office_name": null,
    "office_name_kana": null
  },
  "1528": {
    "postcode": "3111528",
    "prefecture": "茨城県",
    "prefecture_kana": "イバラキケン",
    "prefecture_code": 8,
    "city": "鉾田市",
    "city_kana": "ホコタシ",
    "town": "当間",
    "town_kana": "トウマ",
    "street": null,
    "office_name": null,
    "office_name_kana": null
  },
  "1531": {
    "postcode": "3111531",
    "prefecture": "茨城県",
    "prefecture_kana": "イバラキケン",
    "prefecture_code": 8,
    "city": "鉾田市",
    "city_kana": "ホコタシ",
    "town": "菅野谷",
    "town_kana": "スゲノヤ",
    "street": null,
    "office_name": null,
    "office_name_kana": null
  },
  "1532": {
    "postcode": "3111532",
    "prefecture": "茨城県",
    "prefecture_kana": "イバラキケン",
    "prefecture_code": 8,
    "city": "鉾田市",
    "city_kana": "ホコタシ",
    "town": "上冨田",
    "town_kana": "カミトミタ",
    "street": null,
    "office_name": null,
    "office_name_kana": null
  },
  "1533": {
    "postcode": "3111533",
    "prefecture": "茨城県",
    "prefecture_kana": "イバラキケン",
    "prefecture_code": 8,
    "city": "鉾田市",
    "city_kana": "ホコタシ",
    "town": "下冨田",
    "town_kana": "シモトミタ",
    "street": null,
    "office_name": null,
    "office_name_kana": null
  },
  "1534": {
    "postcode": "3111534",
    "prefecture": "茨城県",
    "prefecture_kana": "イバラキケン",
    "prefecture_code": 8,
    "city": "鉾田市",
    "city_kana": "ホコタシ",
    "town": "鳥栖",
    "town_kana": "トリノス",
    "street": null,
    "office_name": null,
    "office_name_kana": null
  },
  "1535": {
    "postcode": "3111535",
    "prefecture": "茨城県",
    "prefecture_kana": "イバラキケン",
    "prefecture_code": 8,
    "city": "鉾田市",
    "city_kana": "ホコタシ",
    "town": "青柳",
    "town_kana": "アオヤギ",
    "street": null,
    "office_name": null,
    "office_name_kana": null
  },
  "1536": {
    "postcode": "3111536",
    "prefecture": "茨城県",
    "prefecture_kana": "イバラキケン",
    "prefecture_code": 8,
    "city": "鉾田市",
    "city_kana": "ホコタシ",
    "town": "大和田",
    "town_kana": "オオワダ",
    "street": null,
    "office_name": null,
    "office_name_kana": null
  },
  "1537": {
    "postcode": "3111537",
    "prefecture": "茨城県",
    "prefecture_kana": "イバラキケン",
    "prefecture_code": 8,
    "city": "鉾田市",
    "city_kana": "ホコタシ",
    "town": "紅葉",
    "town_kana": "モミジ",
    "street": null,
    "office_name": null,
    "office_name_kana": null
  },
  "1592": {
    "postcode": "3111592",
    "prefecture": "茨城県",
    "prefecture_kana": "イバラキケン",
    "prefecture_code": 8,
    "city": "鉾田市",
    "city_kana": "ホコタシ",
    "town": "鉾田",
    "town_kana": "ホコタ",
    "street": "１４４４−１",
    "office_name": "茨城県　鉾田市役所",
    "office_name_kana": "イバラキケン ホコタシヤクシヨ"
  },
  "1593": {
    "postcode": "3111593",
    "prefecture": "茨城県",
    "prefecture_kana": "イバラキケン",
    "prefecture_code": 8,
    "city": "鉾田市",
    "city_kana": "ホコタシ",
    "town": "鉾田",
    "town_kana": "ホコタ",
    "street": "１３６７−３",
    "office_name": "茨城県　鹿行総合事務所",
    "office_name_kana": "イバラキケン ロツコウソウゴウジムシヨ"
  },
  "1701": {
    "postcode": "3111701",
    "prefecture": "茨城県",
    "prefecture_kana": "イバラキケン",
    "prefecture_code": 8,
    "city": "行方市",
    "city_kana": "ナメガタシ",
    "town": "長野江",
    "town_kana": "ナガノエ",
    "street": null,
    "office_name": null,
    "office_name_kana": null
  },
  "1702": {
    "postcode": "3111702",
    "prefecture": "茨城県",
    "prefecture_kana": "イバラキケン",
    "prefecture_code": 8,
    "city": "行方市",
    "city_kana": "ナメガタシ",
    "town": "三和",
    "town_kana": "ミワ",
    "street": null,
    "office_name": null,
    "office_name_kana": null
  },
  "1703": {
    "postcode": "3111703",
    "prefecture": "茨城県",
    "prefecture_kana": "イバラキケン",
    "prefecture_code": 8,
    "city": "行方市",
    "city_kana": "ナメガタシ",
    "town": "成田",
    "town_kana": "ナリタ",
    "street": null,
    "office_name": null,
    "office_name_kana": null
  },
  "1704": {
    "postcode": "3111704",
    "prefecture": "茨城県",
    "prefecture_kana": "イバラキケン",
    "prefecture_code": 8,
    "city": "行方市",
    "city_kana": "ナメガタシ",
    "town": "山田",
    "town_kana": "ヤマダ",
    "street": null,
    "office_name": null,
    "office_name_kana": null
  },
  "1705": {
    "postcode": "3111705",
    "prefecture": "茨城県",
    "prefecture_kana": "イバラキケン",
    "prefecture_code": 8,
    "city": "行方市",
    "city_kana": "ナメガタシ",
    "town": "内宿",
    "town_kana": "ウチジュク",
    "street": null,
    "office_name": null,
    "office_name_kana": null
  },
  "1706": {
    "postcode": "3111706",
    "prefecture": "茨城県",
    "prefecture_kana": "イバラキケン",
    "prefecture_code": 8,
    "city": "行方市",
    "city_kana": "ナメガタシ",
    "town": "北浦",
    "town_kana": "キタウラ",
    "street": null,
    "office_name": null,
    "office_name_kana": null
  },
  "1711": {
    "postcode": "3111711",
    "prefecture": "茨城県",
    "prefecture_kana": "イバラキケン",
    "prefecture_code": 8,
    "city": "行方市",
    "city_kana": "ナメガタシ",
    "town": "吉川",
    "town_kana": "ヨシカワ",
    "street": null,
    "office_name": null,
    "office_name_kana": null
  },
  "1712": {
    "postcode": "3111712",
    "prefecture": "茨城県",
    "prefecture_kana": "イバラキケン",
    "prefecture_code": 8,
    "city": "行方市",
    "city_kana": "ナメガタシ",
    "town": "繁昌",
    "town_kana": "ハンジョウ",
    "street": null,
    "office_name": null,
    "office_name_kana": null
  },
  "1713": {
    "postcode": "3111713",
    "prefecture": "茨城県",
    "prefecture_kana": "イバラキケン",
    "prefecture_code": 8,
    "city": "行方市",
    "city_kana": "ナメガタシ",
    "town": "中根",
    "town_kana": "ナカネ",
    "street": null,
    "office_name": null,
    "office_name_kana": null
  },
  "1714": {
    "postcode": "3111714",
    "prefecture": "茨城県",
    "prefecture_kana": "イバラキケン",
    "prefecture_code": 8,
    "city": "行方市",
    "city_kana": "ナメガタシ",
    "town": "南高岡",
    "town_kana": "ミナミタカオカ",
    "street": null,
    "office_name": null,
    "office_name_kana": null
  },
  "1715": {
    "postcode": "3111715",
    "prefecture": "茨城県",
    "prefecture_kana": "イバラキケン",
    "prefecture_code": 8,
    "city": "行方市",
    "city_kana": "ナメガタシ",
    "town": "小幡",
    "town_kana": "オバタ",
    "street": null,
    "office_name": null,
    "office_name_kana": null
  },
  "1716": {
    "postcode": "3111716",
    "prefecture": "茨城県",
    "prefecture_kana": "イバラキケン",
    "prefecture_code": 8,
    "city": "行方市",
    "city_kana": "ナメガタシ",
    "town": "北高岡",
    "town_kana": "キタタカオカ",
    "street": null,
    "office_name": null,
    "office_name_kana": null
  },
  "1721": {
    "postcode": "3111721",
    "prefecture": "茨城県",
    "prefecture_kana": "イバラキケン",
    "prefecture_code": 8,
    "city": "行方市",
    "city_kana": "ナメガタシ",
    "town": "両宿",
    "town_kana": "リョウシュク",
    "street": null,
    "office_name": null,
    "office_name_kana": null
  },
  "1722": {
    "postcode": "3111722",
    "prefecture": "茨城県",
    "prefecture_kana": "イバラキケン",
    "prefecture_code": 8,
    "city": "行方市",
    "city_kana": "ナメガタシ",
    "town": "次木",
    "town_kana": "ナミキ",
    "street": null,
    "office_name": null,
    "office_name_kana": null
  },
  "1723": {
    "postcode": "3111723",
    "prefecture": "茨城県",
    "prefecture_kana": "イバラキケン",
    "prefecture_code": 8,
    "city": "行方市",
    "city_kana": "ナメガタシ",
    "town": "行戸",
    "town_kana": "ユクド",
    "street": null,
    "office_name": null,
    "office_name_kana": null
  },
  "1724": {
    "postcode": "3111724",
    "prefecture": "茨城県",
    "prefecture_kana": "イバラキケン",
    "prefecture_code": 8,
    "city": "行方市",
    "city_kana": "ナメガタシ",
    "town": "小貫",
    "town_kana": "オヌキ",
    "street": null,
    "office_name": null,
    "office_name_kana": null
  },
  "1792": {
    "postcode": "3111792",
    "prefecture": "茨城県",
    "prefecture_kana": "イバラキケン",
    "prefecture_code": 8,
    "city": "行方市",
    "city_kana": "ナメガタシ",
    "town": "山田",
    "town_kana": "ヤマダ",
    "street": "２５６４−１０",
    "office_name": "行方市役所　北浦庁舎",
    "office_name_kana": "ナメガタシヤクシヨ キタウラチヨウシヤ"
  },
  "2101": {
    "postcode": "3112101",
    "prefecture": "茨城県",
    "prefecture_kana": "イバラキケン",
    "prefecture_code": 8,
    "city": "鉾田市",
    "city_kana": "ホコタシ",
    "town": "青山",
    "town_kana": "アオヤマ",
    "street": null,
    "office_name": null,
    "office_name_kana": null
  },
  "2102": {
    "postcode": "3112102",
    "prefecture": "茨城県",
    "prefecture_kana": "イバラキケン",
    "prefecture_code": 8,
    "city": "鉾田市",
    "city_kana": "ホコタシ",
    "town": "台濁沢",
    "town_kana": "ダイニゴリサワ",
    "street": null,
    "office_name": null,
    "office_name_kana": null
  },
  "2103": {
    "postcode": "3112103",
    "prefecture": "茨城県",
    "prefecture_kana": "イバラキケン",
    "prefecture_code": 8,
    "city": "鉾田市",
    "city_kana": "ホコタシ",
    "town": "汲上",
    "town_kana": "クミアゲ",
    "street": null,
    "office_name": null,
    "office_name_kana": null
  },
  "2104": {
    "postcode": "3112104",
    "prefecture": "茨城県",
    "prefecture_kana": "イバラキケン",
    "prefecture_code": 8,
    "city": "鉾田市",
    "city_kana": "ホコタシ",
    "town": "梶山",
    "town_kana": "カジヤマ",
    "street": null,
    "office_name": null,
    "office_name_kana": null
  },
  "2105": {
    "postcode": "3112105",
    "prefecture": "茨城県",
    "prefecture_kana": "イバラキケン",
    "prefecture_code": 8,
    "city": "鉾田市",
    "city_kana": "ホコタシ",
    "town": "二重作",
    "town_kana": "フタエサク",
    "street": null,
    "office_name": null,
    "office_name_kana": null
  },
  "2111": {
    "postcode": "3112111",
    "prefecture": "茨城県",
    "prefecture_kana": "イバラキケン",
    "prefecture_code": 8,
    "city": "鉾田市",
    "city_kana": "ホコタシ",
    "town": "上沢",
    "town_kana": "カミザワ",
    "street": null,
    "office_name": null,
    "office_name_kana": null
  },
  "2112": {
    "postcode": "3112112",
    "prefecture": "茨城県",
    "prefecture_kana": "イバラキケン",
    "prefecture_code": 8,
    "city": "鉾田市",
    "city_kana": "ホコタシ",
    "town": "飯島",
    "town_kana": "イイジマ",
    "street": null,
    "office_name": null,
    "office_name_kana": null
  },
  "2113": {
    "postcode": "3112113",
    "prefecture": "茨城県",
    "prefecture_kana": "イバラキケン",
    "prefecture_code": 8,
    "city": "鉾田市",
    "city_kana": "ホコタシ",
    "town": "上幡木",
    "town_kana": "カミハタキ",
    "street": null,
    "office_name": null,
    "office_name_kana": null
  },
  "2114": {
    "postcode": "3112114",
    "prefecture": "茨城県",
    "prefecture_kana": "イバラキケン",
    "prefecture_code": 8,
    "city": "鉾田市",
    "city_kana": "ホコタシ",
    "town": "江川",
    "town_kana": "エガワ",
    "street": null,
    "office_name": null,
    "office_name_kana": null
  },
  "2115": {
    "postcode": "3112115",
    "prefecture": "茨城県",
    "prefecture_kana": "イバラキケン",
    "prefecture_code": 8,
    "city": "鉾田市",
    "city_kana": "ホコタシ",
    "town": "中居",
    "town_kana": "ナカイ",
    "street": null,
    "office_name": null,
    "office_name_kana": null
  },
  "2116": {
    "postcode": "3112116",
    "prefecture": "茨城県",
    "prefecture_kana": "イバラキケン",
    "prefecture_code": 8,
    "city": "鉾田市",
    "city_kana": "ホコタシ",
    "town": "札",
    "town_kana": "フダ",
    "street": null,
    "office_name": null,
    "office_name_kana": null
  },
  "2117": {
    "postcode": "3112117",
    "prefecture": "茨城県",
    "prefecture_kana": "イバラキケン",
    "prefecture_code": 8,
    "city": "鉾田市",
    "city_kana": "ホコタシ",
    "town": "大蔵",
    "town_kana": "オオクラ",
    "street": null,
    "office_name": null,
    "office_name_kana": null
  },
  "2118": {
    "postcode": "3112118",
    "prefecture": "茨城県",
    "prefecture_kana": "イバラキケン",
    "prefecture_code": 8,
    "city": "鉾田市",
    "city_kana": "ホコタシ",
    "town": "阿玉",
    "town_kana": "アダマ",
    "street": null,
    "office_name": null,
    "office_name_kana": null
  },
  "2201": {
    "postcode": "3112201",
    "prefecture": "茨城県",
    "prefecture_kana": "イバラキケン",
    "prefecture_code": 8,
    "city": "鹿嶋市",
    "city_kana": "カシマシ",
    "town": "大小志崎",
    "town_kana": "ダイショウシザキ",
    "street": null,
    "office_name": null,
    "office_name_kana": null
  },
  "2202": {
    "postcode": "3112202",
    "prefecture": "茨城県",
    "prefecture_kana": "イバラキケン",
    "prefecture_code": 8,
    "city": "鹿嶋市",
    "city_kana": "カシマシ",
    "town": "武井釜",
    "town_kana": "タケイガマ",
    "street": null,
    "office_name": null,
    "office_name_kana": null
  },
  "2203": {
    "postcode": "3112203",
    "prefecture": "茨城県",
    "prefecture_kana": "イバラキケン",
    "prefecture_code": 8,
    "city": "鹿嶋市",
    "city_kana": "カシマシ",
    "town": "浜津賀",
    "town_kana": "ハマツガ",
    "street": null,
    "office_name": null,
    "office_name_kana": null
  },
  "2204": {
    "postcode": "3112204",
    "prefecture": "茨城県",
    "prefecture_kana": "イバラキケン",
    "prefecture_code": 8,
    "city": "鹿嶋市",
    "city_kana": "カシマシ",
    "town": "荒井",
    "town_kana": "アライ",
    "street": null,
    "office_name": null,
    "office_name_kana": null
  },
  "2205": {
    "postcode": "3112205",
    "prefecture": "茨城県",
    "prefecture_kana": "イバラキケン",
    "prefecture_code": 8,
    "city": "鹿嶋市",
    "city_kana": "カシマシ",
    "town": "津賀",
    "town_kana": "ツガ",
    "street": null,
    "office_name": null,
    "office_name_kana": null
  },
  "2206": {
    "postcode": "3112206",
    "prefecture": "茨城県",
    "prefecture_kana": "イバラキケン",
    "prefecture_code": 8,
    "city": "鹿嶋市",
    "city_kana": "カシマシ",
    "town": "武井",
    "town_kana": "タケイ",
    "street": null,
    "office_name": null,
    "office_name_kana": null
  },
  "2207": {
    "postcode": "3112207",
    "prefecture": "茨城県",
    "prefecture_kana": "イバラキケン",
    "prefecture_code": 8,
    "city": "鹿嶋市",
    "city_kana": "カシマシ",
    "town": "志崎",
    "town_kana": "シザキ",
    "street": null,
    "office_name": null,
    "office_name_kana": null
  },
  "2211": {
    "postcode": "3112211",
    "prefecture": "茨城県",
    "prefecture_kana": "イバラキケン",
    "prefecture_code": 8,
    "city": "鹿嶋市",
    "city_kana": "カシマシ",
    "town": "青塚",
    "town_kana": "アオツカ",
    "street": null,
    "office_name": null,
    "office_name_kana": null
  },
  "2212": {
    "postcode": "3112212",
    "prefecture": "茨城県",
    "prefecture_kana": "イバラキケン",
    "prefecture_code": 8,
    "city": "鹿嶋市",
    "city_kana": "カシマシ",
    "town": "角折",
    "town_kana": "ツノオレ",
    "street": null,
    "office_name": null,
    "office_name_kana": null
  },
  "2213": {
    "postcode": "3112213",
    "prefecture": "茨城県",
    "prefecture_kana": "イバラキケン",
    "prefecture_code": 8,
    "city": "鹿嶋市",
    "city_kana": "カシマシ",
    "town": "中",
    "town_kana": "ナカ",
    "street": null,
    "office_name": null,
    "office_name_kana": null
  },
  "2214": {
    "postcode": "3112214",
    "prefecture": "茨城県",
    "prefecture_kana": "イバラキケン",
    "prefecture_code": 8,
    "city": "鹿嶋市",
    "city_kana": "カシマシ",
    "town": "棚木",
    "town_kana": "タナギ",
    "street": null,
    "office_name": null,
    "office_name_kana": null
  },
  "2215": {
    "postcode": "3112215",
    "prefecture": "茨城県",
    "prefecture_kana": "イバラキケン",
    "prefecture_code": 8,
    "city": "鹿嶋市",
    "city_kana": "カシマシ",
    "town": "和",
    "town_kana": "カズ",
    "street": null,
    "office_name": null,
    "office_name_kana": null
  },
  "2221": {
    "postcode": "3112221",
    "prefecture": "茨城県",
    "prefecture_kana": "イバラキケン",
    "prefecture_code": 8,
    "city": "鹿嶋市",
    "city_kana": "カシマシ",
    "town": "荒野",
    "town_kana": "コウヤ",
    "street": null,
    "office_name": null,
    "office_name_kana": null
  },
  "2222": {
    "postcode": "3112222",
    "prefecture": "茨城県",
    "prefecture_kana": "イバラキケン",
    "prefecture_code": 8,
    "city": "鹿嶋市",
    "city_kana": "カシマシ",
    "town": "小山",
    "town_kana": "コヤマ",
    "street": null,
    "office_name": null,
    "office_name_kana": null
  },
  "2223": {
    "postcode": "3112223",
    "prefecture": "茨城県",
    "prefecture_kana": "イバラキケン",
    "prefecture_code": 8,
    "city": "鹿嶋市",
    "city_kana": "カシマシ",
    "town": "林",
    "town_kana": "ハヤシ",
    "street": null,
    "office_name": null,
    "office_name_kana": null
  },
  "2224": {
    "postcode": "3112224",
    "prefecture": "茨城県",
    "prefecture_kana": "イバラキケン",
    "prefecture_code": 8,
    "city": "鹿嶋市",
    "city_kana": "カシマシ",
    "town": "奈良毛",
    "town_kana": "ナラゲ",
    "street": null,
    "office_name": null,
    "office_name_kana": null
  },
  "2400": {
    "postcode": "3112400",
    "prefecture": "茨城県",
    "prefecture_kana": "イバラキケン",
    "prefecture_code": 8,
    "city": "潮来市",
    "city_kana": "イタコシ",
    "town": "",
    "town_kana": "",
    "street": null,
    "office_name": null,
    "office_name_kana": null
  },
  "2401": {
    "postcode": "3112401",
    "prefecture": "茨城県",
    "prefecture_kana": "イバラキケン",
    "prefecture_code": 8,
    "city": "潮来市",
    "city_kana": "イタコシ",
    "town": "大賀",
    "town_kana": "オオガ",
    "street": null,
    "office_name": null,
    "office_name_kana": null
  },
  "2402": {
    "postcode": "3112402",
    "prefecture": "茨城県",
    "prefecture_kana": "イバラキケン",
    "prefecture_code": 8,
    "city": "潮来市",
    "city_kana": "イタコシ",
    "town": "大生",
    "town_kana": "オオウ",
    "street": null,
    "office_name": null,
    "office_name_kana": null
  },
  "2403": {
    "postcode": "3112403",
    "prefecture": "茨城県",
    "prefecture_kana": "イバラキケン",
    "prefecture_code": 8,
    "city": "潮来市",
    "city_kana": "イタコシ",
    "town": "釜谷",
    "town_kana": "カマヤ",
    "street": null,
    "office_name": null,
    "office_name_kana": null
  },
  "2404": {
    "postcode": "3112404",
    "prefecture": "茨城県",
    "prefecture_kana": "イバラキケン",
    "prefecture_code": 8,
    "city": "潮来市",
    "city_kana": "イタコシ",
    "town": "水原",
    "town_kana": "ミズハラ",
    "street": null,
    "office_name": null,
    "office_name_kana": null
  },
  "2405": {
    "postcode": "3112405",
    "prefecture": "茨城県",
    "prefecture_kana": "イバラキケン",
    "prefecture_code": 8,
    "city": "潮来市",
    "city_kana": "イタコシ",
    "town": "築地",
    "town_kana": "ツイジ",
    "street": null,
    "office_name": null,
    "office_name_kana": null
  },
  "2406": {
    "postcode": "3112406",
    "prefecture": "茨城県",
    "prefecture_kana": "イバラキケン",
    "prefecture_code": 8,
    "city": "潮来市",
    "city_kana": "イタコシ",
    "town": "新宮",
    "town_kana": "シングウ",
    "street": null,
    "office_name": null,
    "office_name_kana": null
  },
  "2407": {
    "postcode": "3112407",
    "prefecture": "茨城県",
    "prefecture_kana": "イバラキケン",
    "prefecture_code": 8,
    "city": "潮来市",
    "city_kana": "イタコシ",
    "town": "下田",
    "town_kana": "シタダ",
    "street": null,
    "office_name": null,
    "office_name_kana": null
  },
  "2408": {
    "postcode": "3112408",
    "prefecture": "茨城県",
    "prefecture_kana": "イバラキケン",
    "prefecture_code": 8,
    "city": "潮来市",
    "city_kana": "イタコシ",
    "town": "洲崎",
    "town_kana": "スサキ",
    "street": null,
    "office_name": null,
    "office_name_kana": null
  },
  "2409": {
    "postcode": "3112409",
    "prefecture": "茨城県",
    "prefecture_kana": "イバラキケン",
    "prefecture_code": 8,
    "city": "潮来市",
    "city_kana": "イタコシ",
    "town": "延方東",
    "town_kana": "ノブカタヒガシ",
    "street": null,
    "office_name": null,
    "office_name_kana": null
  },
  "2410": {
    "postcode": "3112410",
    "prefecture": "茨城県",
    "prefecture_kana": "イバラキケン",
    "prefecture_code": 8,
    "city": "潮来市",
    "city_kana": "イタコシ",
    "town": "延方西",
    "town_kana": "ノブカタニシ",
    "street": null,
    "office_name": null,
    "office_name_kana": null
  },
  "2412": {
    "postcode": "3112412",
    "prefecture": "茨城県",
    "prefecture_kana": "イバラキケン",
    "prefecture_code": 8,
    "city": "潮来市",
    "city_kana": "イタコシ",
    "town": "宮前",
    "town_kana": "ミヤマエ",
    "street": null,
    "office_name": null,
    "office_name_kana": null
  },
  "2415": {
    "postcode": "3112415",
    "prefecture": "茨城県",
    "prefecture_kana": "イバラキケン",
    "prefecture_code": 8,
    "city": "潮来市",
    "city_kana": "イタコシ",
    "town": "延方",
    "town_kana": "ノブカタ",
    "street": null,
    "office_name": null,
    "office_name_kana": null
  },
  "2416": {
    "postcode": "3112416",
    "prefecture": "茨城県",
    "prefecture_kana": "イバラキケン",
    "prefecture_code": 8,
    "city": "潮来市",
    "city_kana": "イタコシ",
    "town": "前川",
    "town_kana": "マエカワ",
    "street": null,
    "office_name": null,
    "office_name_kana": null
  },
  "2417": {
    "postcode": "3112417",
    "prefecture": "茨城県",
    "prefecture_kana": "イバラキケン",
    "prefecture_code": 8,
    "city": "潮来市",
    "city_kana": "イタコシ",
    "town": "米島",
    "town_kana": "ヨネジマ",
    "street": null,
    "office_name": null,
    "office_name_kana": null
  },
  "2418": {
    "postcode": "3112418",
    "prefecture": "茨城県",
    "prefecture_kana": "イバラキケン",
    "prefecture_code": 8,
    "city": "潮来市",
    "city_kana": "イタコシ",
    "town": "徳島",
    "town_kana": "トクシマ",
    "street": null,
    "office_name": null,
    "office_name_kana": null
  },
  "2419": {
    "postcode": "3112419",
    "prefecture": "茨城県",
    "prefecture_kana": "イバラキケン",
    "prefecture_code": 8,
    "city": "潮来市",
    "city_kana": "イタコシ",
    "town": "福島",
    "town_kana": "フクシマ",
    "street": null,
    "office_name": null,
    "office_name_kana": null
  },
  "2421": {
    "postcode": "3112421",
    "prefecture": "茨城県",
    "prefecture_kana": "イバラキケン",
    "prefecture_code": 8,
    "city": "潮来市",
    "city_kana": "イタコシ",
    "town": "辻",
    "town_kana": "ツジ",
    "street": null,
    "office_name": null,
    "office_name_kana": null
  },
  "2422": {
    "postcode": "3112422",
    "prefecture": "茨城県",
    "prefecture_kana": "イバラキケン",
    "prefecture_code": 8,
    "city": "潮来市",
    "city_kana": "イタコシ",
    "town": "大洲",
    "town_kana": "オオス",
    "street": null,
    "office_name": null,
    "office_name_kana": null
  },
  "2423": {
    "postcode": "3112423",
    "prefecture": "茨城県",
    "prefecture_kana": "イバラキケン",
    "prefecture_code": 8,
    "city": "潮来市",
    "city_kana": "イタコシ",
    "town": "日の出",
    "town_kana": "ヒノデ",
    "street": null,
    "office_name": null,
    "office_name_kana": null
  },
  "2424": {
    "postcode": "3112424",
    "prefecture": "茨城県",
    "prefecture_kana": "イバラキケン",
    "prefecture_code": 8,
    "city": "潮来市",
    "city_kana": "イタコシ",
    "town": "潮来",
    "town_kana": "イタコ",
    "street": null,
    "office_name": null,
    "office_name_kana": null
  },
  "2425": {
    "postcode": "3112425",
    "prefecture": "茨城県",
    "prefecture_kana": "イバラキケン",
    "prefecture_code": 8,
    "city": "潮来市",
    "city_kana": "イタコシ",
    "town": "あやめ",
    "town_kana": "アヤメ",
    "street": null,
    "office_name": null,
    "office_name_kana": null
  },
  "2426": {
    "postcode": "3112426",
    "prefecture": "茨城県",
    "prefecture_kana": "イバラキケン",
    "prefecture_code": 8,
    "city": "潮来市",
    "city_kana": "イタコシ",
    "town": "大塚野",
    "town_kana": "オオツカノ",
    "street": null,
    "office_name": null,
    "office_name_kana": null
  },
  "2431": {
    "postcode": "3112431",
    "prefecture": "茨城県",
    "prefecture_kana": "イバラキケン",
    "prefecture_code": 8,
    "city": "潮来市",
    "city_kana": "イタコシ",
    "town": "清水",
    "town_kana": "キヨミズ",
    "street": null,
    "office_name": null,
    "office_name_kana": null
  },
  "2432": {
    "postcode": "3112432",
    "prefecture": "茨城県",
    "prefecture_kana": "イバラキケン",
    "prefecture_code": 8,
    "city": "潮来市",
    "city_kana": "イタコシ",
    "town": "茂木",
    "town_kana": "モトギ",
    "street": null,
    "office_name": null,
    "office_name_kana": null
  },
  "2433": {
    "postcode": "3112433",
    "prefecture": "茨城県",
    "prefecture_kana": "イバラキケン",
    "prefecture_code": 8,
    "city": "潮来市",
    "city_kana": "イタコシ",
    "town": "堀之内",
    "town_kana": "ホリノウチ",
    "street": null,
    "office_name": null,
    "office_name_kana": null
  },
  "2434": {
    "postcode": "3112434",
    "prefecture": "茨城県",
    "prefecture_kana": "イバラキケン",
    "prefecture_code": 8,
    "city": "潮来市",
    "city_kana": "イタコシ",
    "town": "島須",
    "town_kana": "シマス",
    "street": null,
    "office_name": null,
    "office_name_kana": null
  },
  "2435": {
    "postcode": "3112435",
    "prefecture": "茨城県",
    "prefecture_kana": "イバラキケン",
    "prefecture_code": 8,
    "city": "潮来市",
    "city_kana": "イタコシ",
    "town": "上戸",
    "town_kana": "ウワト",
    "street": null,
    "office_name": null,
    "office_name_kana": null
  },
  "2436": {
    "postcode": "3112436",
    "prefecture": "茨城県",
    "prefecture_kana": "イバラキケン",
    "prefecture_code": 8,
    "city": "潮来市",
    "city_kana": "イタコシ",
    "town": "牛堀",
    "town_kana": "ウシボリ",
    "street": null,
    "office_name": null,
    "office_name_kana": null
  },
  "2437": {
    "postcode": "3112437",
    "prefecture": "茨城県",
    "prefecture_kana": "イバラキケン",
    "prefecture_code": 8,
    "city": "潮来市",
    "city_kana": "イタコシ",
    "town": "永山",
    "town_kana": "ナガヤマ",
    "street": null,
    "office_name": null,
    "office_name_kana": null
  },
  "2440": {
    "postcode": "3112440",
    "prefecture": "茨城県",
    "prefecture_kana": "イバラキケン",
    "prefecture_code": 8,
    "city": "潮来市",
    "city_kana": "イタコシ",
    "town": "川尾",
    "town_kana": "カワオ",
    "street": null,
    "office_name": null,
    "office_name_kana": null
  },
  "2441": {
    "postcode": "3112441",
    "prefecture": "茨城県",
    "prefecture_kana": "イバラキケン",
    "prefecture_code": 8,
    "city": "潮来市",
    "city_kana": "イタコシ",
    "town": "大山",
    "town_kana": "オオヤマ",
    "street": null,
    "office_name": null,
    "office_name_kana": null
  },
  "2442": {
    "postcode": "3112442",
    "prefecture": "茨城県",
    "prefecture_kana": "イバラキケン",
    "prefecture_code": 8,
    "city": "潮来市",
    "city_kana": "イタコシ",
    "town": "小泉",
    "town_kana": "コイズミ",
    "street": null,
    "office_name": null,
    "office_name_kana": null
  },
  "2443": {
    "postcode": "3112443",
    "prefecture": "茨城県",
    "prefecture_kana": "イバラキケン",
    "prefecture_code": 8,
    "city": "潮来市",
    "city_kana": "イタコシ",
    "town": "新宮南",
    "town_kana": "シングウミナミ",
    "street": null,
    "office_name": null,
    "office_name_kana": null
  },
  "2444": {
    "postcode": "3112444",
    "prefecture": "茨城県",
    "prefecture_kana": "イバラキケン",
    "prefecture_code": 8,
    "city": "潮来市",
    "city_kana": "イタコシ",
    "town": "小泉南",
    "town_kana": "コイズミミナミ",
    "street": null,
    "office_name": null,
    "office_name_kana": null
  },
  "2445": {
    "postcode": "3112445",
    "prefecture": "茨城県",
    "prefecture_kana": "イバラキケン",
    "prefecture_code": 8,
    "city": "潮来市",
    "city_kana": "イタコシ",
    "town": "曲松南",
    "town_kana": "マガリマツミナミ",
    "street": null,
    "office_name": null,
    "office_name_kana": null
  },
  "2446": {
    "postcode": "3112446",
    "prefecture": "茨城県",
    "prefecture_kana": "イバラキケン",
    "prefecture_code": 8,
    "city": "潮来市",
    "city_kana": "イタコシ",
    "town": "須賀南",
    "town_kana": "スカミナミ",
    "street": null,
    "office_name": null,
    "office_name_kana": null
  },
  "2447": {
    "postcode": "3112447",
    "prefecture": "茨城県",
    "prefecture_kana": "イバラキケン",
    "prefecture_code": 8,
    "city": "潮来市",
    "city_kana": "イタコシ",
    "town": "曲松",
    "town_kana": "マガリマツ",
    "street": null,
    "office_name": null,
    "office_name_kana": null
  },
  "2448": {
    "postcode": "3112448",
    "prefecture": "茨城県",
    "prefecture_kana": "イバラキケン",
    "prefecture_code": 8,
    "city": "潮来市",
    "city_kana": "イタコシ",
    "town": "須賀",
    "town_kana": "スカ",
    "street": null,
    "office_name": null,
    "office_name_kana": null
  },
  "2449": {
    "postcode": "3112449",
    "prefecture": "茨城県",
    "prefecture_kana": "イバラキケン",
    "prefecture_code": 8,
    "city": "潮来市",
    "city_kana": "イタコシ",
    "town": "古高",
    "town_kana": "フッタカ",
    "street": null,
    "office_name": null,
    "office_name_kana": null
  },
  "2492": {
    "postcode": "3112492",
    "prefecture": "茨城県",
    "prefecture_kana": "イバラキケン",
    "prefecture_code": 8,
    "city": "潮来市",
    "city_kana": "イタコシ",
    "town": "小泉南",
    "town_kana": "コイズミミナミ",
    "street": "１３５８",
    "office_name": "潮来税務署",
    "office_name_kana": "イタコゼイムシヨ"
  },
  "2493": {
    "postcode": "3112493",
    "prefecture": "茨城県",
    "prefecture_kana": "イバラキケン",
    "prefecture_code": 8,
    "city": "潮来市",
    "city_kana": "イタコシ",
    "town": "辻",
    "town_kana": "ツジ",
    "street": "６２６",
    "office_name": "潮来市役所",
    "office_name_kana": "イタコシヤクシヨ"
  },
  "2495": {
    "postcode": "3112495",
    "prefecture": "茨城県",
    "prefecture_kana": "イバラキケン",
    "prefecture_code": 8,
    "city": "潮来市",
    "city_kana": "イタコシ",
    "town": "牛堀",
    "town_kana": "ウシボリ",
    "street": "１７",
    "office_name": "潮来市役所　牛堀支所",
    "office_name_kana": "イタコシヤクシヨ ウシボリシシヨ"
  },
  "3100": {
    "postcode": "3113100",
    "prefecture": "茨城県",
    "prefecture_kana": "イバラキケン",
    "prefecture_code": 8,
    "city": "東茨城郡茨城町",
    "city_kana": "ヒガシイバラキグンイバラキマチ",
    "town": "",
    "town_kana": "",
    "street": null,
    "office_name": null,
    "office_name_kana": null
  },
  "3101": {
    "postcode": "3113101",
    "prefecture": "茨城県",
    "prefecture_kana": "イバラキケン",
    "prefecture_code": 8,
    "city": "東茨城郡茨城町",
    "city_kana": "ヒガシイバラキグンイバラキマチ",
    "town": "南川又",
    "town_kana": "ミナミカワマタ",
    "street": null,
    "office_name": null,
    "office_name_kana": null
  },
  "3102": {
    "postcode": "3113102",
    "prefecture": "茨城県",
    "prefecture_kana": "イバラキケン",
    "prefecture_code": 8,
    "city": "東茨城郡茨城町",
    "city_kana": "ヒガシイバラキグンイバラキマチ",
    "town": "南栗崎",
    "town_kana": "ミナミクリザキ",
    "street": null,
    "office_name": null,
    "office_name_kana": null
  },
  "3103": {
    "postcode": "3113103",
    "prefecture": "茨城県",
    "prefecture_kana": "イバラキケン",
    "prefecture_code": 8,
    "city": "東茨城郡茨城町",
    "city_kana": "ヒガシイバラキグンイバラキマチ",
    "town": "野曽",
    "town_kana": "ノソ",
    "street": null,
    "office_name": null,
    "office_name_kana": null
  },
  "3104": {
    "postcode": "3113104",
    "prefecture": "茨城県",
    "prefecture_kana": "イバラキケン",
    "prefecture_code": 8,
    "city": "東茨城郡茨城町",
    "city_kana": "ヒガシイバラキグンイバラキマチ",
    "town": "駒渡",
    "town_kana": "コマワタリ",
    "street": null,
    "office_name": null,
    "office_name_kana": null
  },
  "3105": {
    "postcode": "3113105",
    "prefecture": "茨城県",
    "prefecture_kana": "イバラキケン",
    "prefecture_code": 8,
    "city": "東茨城郡茨城町",
    "city_kana": "ヒガシイバラキグンイバラキマチ",
    "town": "蕎麦原",
    "town_kana": "ソバハラ",
    "street": null,
    "office_name": null,
    "office_name_kana": null
  },
  "3106": {
    "postcode": "3113106",
    "prefecture": "茨城県",
    "prefecture_kana": "イバラキケン",
    "prefecture_code": 8,
    "city": "東茨城郡茨城町",
    "city_kana": "ヒガシイバラキグンイバラキマチ",
    "town": "越安",
    "town_kana": "コヤス",
    "street": null,
    "office_name": null,
    "office_name_kana": null
  },
  "3107": {
    "postcode": "3113107",
    "prefecture": "茨城県",
    "prefecture_kana": "イバラキケン",
    "prefecture_code": 8,
    "city": "東茨城郡茨城町",
    "city_kana": "ヒガシイバラキグンイバラキマチ",
    "town": "小鶴",
    "town_kana": "コヅル",
    "street": null,
    "office_name": null,
    "office_name_kana": null
  },
  "3108": {
    "postcode": "3113108",
    "prefecture": "茨城県",
    "prefecture_kana": "イバラキケン",
    "prefecture_code": 8,
    "city": "東茨城郡茨城町",
    "city_kana": "ヒガシイバラキグンイバラキマチ",
    "town": "中央工業団地",
    "town_kana": "チュウオウコウギョウダンチ",
    "street": null,
    "office_name": null,
    "office_name_kana": null
  },
  "3111": {
    "postcode": "3113111",
    "prefecture": "茨城県",
    "prefecture_kana": "イバラキケン",
    "prefecture_code": 8,
    "city": "東茨城郡茨城町",
    "city_kana": "ヒガシイバラキグンイバラキマチ",
    "town": "馬渡",
    "town_kana": "ウマワタリ",
    "street": null,
    "office_name": null,
    "office_name_kana": null
  },
  "3112": {
    "postcode": "3113112",
    "prefecture": "茨城県",
    "prefecture_kana": "イバラキケン",
    "prefecture_code": 8,
    "city": "東茨城郡茨城町",
    "city_kana": "ヒガシイバラキグンイバラキマチ",
    "town": "常井",
    "town_kana": "トコイ",
    "street": null,
    "office_name": null,
    "office_name_kana": null
  },
  "3113": {
    "postcode": "3113113",
    "prefecture": "茨城県",
    "prefecture_kana": "イバラキケン",
    "prefecture_code": 8,
    "city": "東茨城郡茨城町",
    "city_kana": "ヒガシイバラキグンイバラキマチ",
    "town": "近藤",
    "town_kana": "コンドウ",
    "street": null,
    "office_name": null,
    "office_name_kana": null
  },
  "3114": {
    "postcode": "3113114",
    "prefecture": "茨城県",
    "prefecture_kana": "イバラキケン",
    "prefecture_code": 8,
    "city": "東茨城郡茨城町",
    "city_kana": "ヒガシイバラキグンイバラキマチ",
    "town": "大戸",
    "town_kana": "オオド",
    "street": null,
    "office_name": null,
    "office_name_kana": null
  },
  "3115": {
    "postcode": "3113115",
    "prefecture": "茨城県",
    "prefecture_kana": "イバラキケン",
    "prefecture_code": 8,
    "city": "東茨城郡茨城町",
    "city_kana": "ヒガシイバラキグンイバラキマチ",
    "town": "前田",
    "town_kana": "マエダ",
    "street": null,
    "office_name": null,
    "office_name_kana": null
  },
  "3116": {
    "postcode": "3113116",
    "prefecture": "茨城県",
    "prefecture_kana": "イバラキケン",
    "prefecture_code": 8,
    "city": "東茨城郡茨城町",
    "city_kana": "ヒガシイバラキグンイバラキマチ",
    "town": "長岡",
    "town_kana": "ナガオカ",
    "street": null,
    "office_name": null,
    "office_name_kana": null
  },
  "3117": {
    "postcode": "3113117",
    "prefecture": "茨城県",
    "prefecture_kana": "イバラキケン",
    "prefecture_code": 8,
    "city": "東茨城郡茨城町",
    "city_kana": "ヒガシイバラキグンイバラキマチ",
    "town": "桜の郷",
    "town_kana": "サクラノサト",
    "street": null,
    "office_name": null,
    "office_name_kana": null
  },
  "3121": {
    "postcode": "3113121",
    "prefecture": "茨城県",
    "prefecture_kana": "イバラキケン",
    "prefecture_code": 8,
    "city": "東茨城郡茨城町",
    "city_kana": "ヒガシイバラキグンイバラキマチ",
    "town": "谷田部",
    "town_kana": "ヤタベ",
    "street": null,
    "office_name": null,
    "office_name_kana": null
  },
  "3122": {
    "postcode": "3113122",
    "prefecture": "茨城県",
    "prefecture_kana": "イバラキケン",
    "prefecture_code": 8,
    "city": "東茨城郡茨城町",
    "city_kana": "ヒガシイバラキグンイバラキマチ",
    "town": "上石崎",
    "town_kana": "カミイシザキ",
    "street": null,
    "office_name": null,
    "office_name_kana": null
  },
  "3123": {
    "postcode": "3113123",
    "prefecture": "茨城県",
    "prefecture_kana": "イバラキケン",
    "prefecture_code": 8,
    "city": "東茨城郡茨城町",
    "city_kana": "ヒガシイバラキグンイバラキマチ",
    "town": "若宮",
    "town_kana": "ワカミヤ",
    "street": null,
    "office_name": null,
    "office_name_kana": null
  },
  "3124": {
    "postcode": "3113124",
    "prefecture": "茨城県",
    "prefecture_kana": "イバラキケン",
    "prefecture_code": 8,
    "city": "東茨城郡茨城町",
    "city_kana": "ヒガシイバラキグンイバラキマチ",
    "town": "中石崎",
    "town_kana": "ナカイシザキ",
    "street": null,
    "office_name": null,
    "office_name_kana": null
  },
  "3125": {
    "postcode": "3113125",
    "prefecture": "茨城県",
    "prefecture_kana": "イバラキケン",
    "prefecture_code": 8,
    "city": "東茨城郡茨城町",
    "city_kana": "ヒガシイバラキグンイバラキマチ",
    "town": "下石崎",
    "town_kana": "シモイシザキ",
    "street": null,
    "office_name": null,
    "office_name_kana": null
  },
  "3131": {
    "postcode": "3113131",
    "prefecture": "茨城県",
    "prefecture_kana": "イバラキケン",
    "prefecture_code": 8,
    "city": "東茨城郡茨城町",
    "city_kana": "ヒガシイバラキグンイバラキマチ",
    "town": "小堤",
    "town_kana": "オヅツミ",
    "street": null,
    "office_name": null,
    "office_name_kana": null
  },
  "3132": {
    "postcode": "3113132",
    "prefecture": "茨城県",
    "prefecture_kana": "イバラキケン",
    "prefecture_code": 8,
    "city": "東茨城郡茨城町",
    "city_kana": "ヒガシイバラキグンイバラキマチ",
    "town": "駒場",
    "town_kana": "コマバ",
    "street": null,
    "office_name": null,
    "office_name_kana": null
  },
  "3133": {
    "postcode": "3113133",
    "prefecture": "茨城県",
    "prefecture_kana": "イバラキケン",
    "prefecture_code": 8,
    "city": "東茨城郡茨城町",
    "city_kana": "ヒガシイバラキグンイバラキマチ",
    "town": "南島田",
    "town_kana": "ミナミシマダ",
    "street": null,
    "office_name": null,
    "office_name_kana": null
  },
  "3134": {
    "postcode": "3113134",
    "prefecture": "茨城県",
    "prefecture_kana": "イバラキケン",
    "prefecture_code": 8,
    "city": "東茨城郡茨城町",
    "city_kana": "ヒガシイバラキグンイバラキマチ",
    "town": "神宿",
    "town_kana": "カミヤド",
    "street": null,
    "office_name": null,
    "office_name_kana": null
  },
  "3135": {
    "postcode": "3113135",
    "prefecture": "茨城県",
    "prefecture_kana": "イバラキケン",
    "prefecture_code": 8,
    "city": "東茨城郡茨城町",
    "city_kana": "ヒガシイバラキグンイバラキマチ",
    "town": "海老沢",
    "town_kana": "エビサワ",
    "street": null,
    "office_name": null,
    "office_name_kana": null
  },
  "3136": {
    "postcode": "3113136",
    "prefecture": "茨城県",
    "prefecture_kana": "イバラキケン",
    "prefecture_code": 8,
    "city": "東茨城郡茨城町",
    "city_kana": "ヒガシイバラキグンイバラキマチ",
    "town": "宮ケ崎",
    "town_kana": "ミヤガサキ",
    "street": null,
    "office_name": null,
    "office_name_kana": null
  },
  "3137": {
    "postcode": "3113137",
    "prefecture": "茨城県",
    "prefecture_kana": "イバラキケン",
    "prefecture_code": 8,
    "city": "東茨城郡茨城町",
    "city_kana": "ヒガシイバラキグンイバラキマチ",
    "town": "網掛",
    "town_kana": "アガケ",
    "street": null,
    "office_name": null,
    "office_name_kana": null
  },
  "3138": {
    "postcode": "3113138",
    "prefecture": "茨城県",
    "prefecture_kana": "イバラキケン",
    "prefecture_code": 8,
    "city": "東茨城郡茨城町",
    "city_kana": "ヒガシイバラキグンイバラキマチ",
    "town": "城之内",
    "town_kana": "ジョウノウチ",
    "street": null,
    "office_name": null,
    "office_name_kana": null
  },
  "3141": {
    "postcode": "3113141",
    "prefecture": "茨城県",
    "prefecture_kana": "イバラキケン",
    "prefecture_code": 8,
    "city": "東茨城郡茨城町",
    "city_kana": "ヒガシイバラキグンイバラキマチ",
    "town": "神谷",
    "town_kana": "カンヤ",
    "street": null,
    "office_name": null,
    "office_name_kana": null
  },
  "3142": {
    "postcode": "3113142",
    "prefecture": "茨城県",
    "prefecture_kana": "イバラキケン",
    "prefecture_code": 8,
    "city": "東茨城郡茨城町",
    "city_kana": "ヒガシイバラキグンイバラキマチ",
    "town": "鳥羽田",
    "town_kana": "トリハタ",
    "street": null,
    "office_name": null,
    "office_name_kana": null
  },
  "3143": {
    "postcode": "3113143",
    "prefecture": "茨城県",
    "prefecture_kana": "イバラキケン",
    "prefecture_code": 8,
    "city": "東茨城郡茨城町",
    "city_kana": "ヒガシイバラキグンイバラキマチ",
    "town": "生井沢",
    "town_kana": "ナマイザワ",
    "street": null,
    "office_name": null,
    "office_name_kana": null
  },
  "3144": {
    "postcode": "3113144",
    "prefecture": "茨城県",
    "prefecture_kana": "イバラキケン",
    "prefecture_code": 8,
    "city": "東茨城郡茨城町",
    "city_kana": "ヒガシイバラキグンイバラキマチ",
    "town": "下雨ケ谷",
    "town_kana": "シモアマガイ",
    "street": null,
    "office_name": null,
    "office_name_kana": null
  },
  "3145": {
    "postcode": "3113145",
    "prefecture": "茨城県",
    "prefecture_kana": "イバラキケン",
    "prefecture_code": 8,
    "city": "東茨城郡茨城町",
    "city_kana": "ヒガシイバラキグンイバラキマチ",
    "town": "上雨ケ谷",
    "town_kana": "カミアマガイ",
    "street": null,
    "office_name": null,
    "office_name_kana": null
  },
  "3146": {
    "postcode": "3113146",
    "prefecture": "茨城県",
    "prefecture_kana": "イバラキケン",
    "prefecture_code": 8,
    "city": "東茨城郡茨城町",
    "city_kana": "ヒガシイバラキグンイバラキマチ",
    "town": "下座",
    "town_kana": "ゲザ",
    "street": null,
    "office_name": null,
    "office_name_kana": null
  },
  "3147": {
    "postcode": "3113147",
    "prefecture": "茨城県",
    "prefecture_kana": "イバラキケン",
    "prefecture_code": 8,
    "city": "東茨城郡茨城町",
    "city_kana": "ヒガシイバラキグンイバラキマチ",
    "town": "秋葉",
    "town_kana": "アキバ",
    "street": null,
    "office_name": null,
    "office_name_kana": null
  },
  "3151": {
    "postcode": "3113151",
    "prefecture": "茨城県",
    "prefecture_kana": "イバラキケン",
    "prefecture_code": 8,
    "city": "東茨城郡茨城町",
    "city_kana": "ヒガシイバラキグンイバラキマチ",
    "town": "木部",
    "town_kana": "キベ",
    "street": null,
    "office_name": null,
    "office_name_kana": null
  },
  "3152": {
    "postcode": "3113152",
    "prefecture": "茨城県",
    "prefecture_kana": "イバラキケン",
    "prefecture_code": 8,
    "city": "東茨城郡茨城町",
    "city_kana": "ヒガシイバラキグンイバラキマチ",
    "town": "飯沼",
    "town_kana": "イイヌマ",
    "street": null,
    "office_name": null,
    "office_name_kana": null
  },
  "3153": {
    "postcode": "3113153",
    "prefecture": "茨城県",
    "prefecture_kana": "イバラキケン",
    "prefecture_code": 8,
    "city": "東茨城郡茨城町",
    "city_kana": "ヒガシイバラキグンイバラキマチ",
    "town": "上飯沼",
    "town_kana": "カミイイヌマ",
    "street": null,
    "office_name": null,
    "office_name_kana": null
  },
  "3154": {
    "postcode": "3113154",
    "prefecture": "茨城県",
    "prefecture_kana": "イバラキケン",
    "prefecture_code": 8,
    "city": "東茨城郡茨城町",
    "city_kana": "ヒガシイバラキグンイバラキマチ",
    "town": "下飯沼",
    "town_kana": "シモイイヌマ",
    "street": null,
    "office_name": null,
    "office_name_kana": null
  },
  "3155": {
    "postcode": "3113155",
    "prefecture": "茨城県",
    "prefecture_kana": "イバラキケン",
    "prefecture_code": 8,
    "city": "東茨城郡茨城町",
    "city_kana": "ヒガシイバラキグンイバラキマチ",
    "town": "下土師",
    "town_kana": "シモハジ",
    "street": null,
    "office_name": null,
    "office_name_kana": null
  },
  "3156": {
    "postcode": "3113156",
    "prefecture": "茨城県",
    "prefecture_kana": "イバラキケン",
    "prefecture_code": 8,
    "city": "東茨城郡茨城町",
    "city_kana": "ヒガシイバラキグンイバラキマチ",
    "town": "奥谷",
    "town_kana": "オクノヤ",
    "street": null,
    "office_name": null,
    "office_name_kana": null
  },
  "3157": {
    "postcode": "3113157",
    "prefecture": "茨城県",
    "prefecture_kana": "イバラキケン",
    "prefecture_code": 8,
    "city": "東茨城郡茨城町",
    "city_kana": "ヒガシイバラキグンイバラキマチ",
    "town": "小幡",
    "town_kana": "オバタ",
    "street": null,
    "office_name": null,
    "office_name_kana": null
  },
  "3192": {
    "postcode": "3113192",
    "prefecture": "茨城県",
    "prefecture_kana": "イバラキケン",
    "prefecture_code": 8,
    "city": "東茨城郡茨城町",
    "city_kana": "ヒガシイバラキグンイバラキマチ",
    "town": "大字小堤",
    "town_kana": null,
    "street": "１０８０",
    "office_name": "茨城町役場",
    "office_name_kana": "イバラキマチヤクバ"
  },
  "3193": {
    "postcode": "3113193",
    "prefecture": "茨城県",
    "prefecture_kana": "イバラキケン",
    "prefecture_code": 8,
    "city": "東茨城郡茨城町",
    "city_kana": "ヒガシイバラキグンイバラキマチ",
    "town": "桜の郷",
    "town_kana": "サクラノサト",
    "street": "２８０",
    "office_name": "独立行政法人　国立病院機構　水戸医療センター",
    "office_name_kana": "ドクリツギヨウセイホウジン コクリツビヨウインキコウ ミトイリヨウセンタ-"
  },
  "3194": {
    "postcode": "3113194",
    "prefecture": "茨城県",
    "prefecture_kana": "イバラキケン",
    "prefecture_code": 8,
    "city": "東茨城郡茨城町",
    "city_kana": "ヒガシイバラキグンイバラキマチ",
    "town": "大字長岡",
    "town_kana": null,
    "street": "３５４８",
    "office_name": "三菱ふそうトラック・バス　（株）　茨城ふそう",
    "office_name_kana": "ミツビシフソウトラツク・バス (カブ) イバラキフソウ"
  },
  "3195": {
    "postcode": "3113195",
    "prefecture": "茨城県",
    "prefecture_kana": "イバラキケン",
    "prefecture_code": 8,
    "city": "東茨城郡茨城町",
    "city_kana": "ヒガシイバラキグンイバラキマチ",
    "town": "長岡",
    "town_kana": "ナガオカ",
    "street": "３７８１−１",
    "office_name": "茨城県産業技術イノベーションセンター",
    "office_name_kana": "イバラキケンサンギヨウギジユツイノベ-シヨンセンタ-"
  },
  "3197": {
    "postcode": "3113197",
    "prefecture": "茨城県",
    "prefecture_kana": "イバラキケン",
    "prefecture_code": 8,
    "city": "東茨城郡茨城町",
    "city_kana": "ヒガシイバラキグンイバラキマチ",
    "town": "大字長岡",
    "town_kana": null,
    "street": "字矢頭３７８３−３",
    "office_name": "茨城県警察本部　交通部運転免許センター",
    "office_name_kana": "イバラキケンケイサツホンブ コウツウブウンテンメンキヨセンタ-"
  },
  "3401": {
    "postcode": "3113401",
    "prefecture": "茨城県",
    "prefecture_kana": "イバラキケン",
    "prefecture_code": 8,
    "city": "小美玉市",
    "city_kana": "オミタマシ",
    "town": "世楽",
    "town_kana": "セラク",
    "street": null,
    "office_name": null,
    "office_name_kana": null
  },
  "3402": {
    "postcode": "3113402",
    "prefecture": "茨城県",
    "prefecture_kana": "イバラキケン",
    "prefecture_code": 8,
    "city": "小美玉市",
    "city_kana": "オミタマシ",
    "town": "佐才",
    "town_kana": "サザイ",
    "street": null,
    "office_name": null,
    "office_name_kana": null
  },
  "3403": {
    "postcode": "3113403",
    "prefecture": "茨城県",
    "prefecture_kana": "イバラキケン",
    "prefecture_code": 8,
    "city": "小美玉市",
    "city_kana": "オミタマシ",
    "town": "上吉影",
    "town_kana": "カミヨシカゲ",
    "street": null,
    "office_name": null,
    "office_name_kana": null
  },
  "3404": {
    "postcode": "3113404",
    "prefecture": "茨城県",
    "prefecture_kana": "イバラキケン",
    "prefecture_code": 8,
    "city": "小美玉市",
    "city_kana": "オミタマシ",
    "town": "飯前",
    "town_kana": "イイサキ",
    "street": null,
    "office_name": null,
    "office_name_kana": null
  },
  "3405": {
    "postcode": "3113405",
    "prefecture": "茨城県",
    "prefecture_kana": "イバラキケン",
    "prefecture_code": 8,
    "city": "小美玉市",
    "city_kana": "オミタマシ",
    "town": "上合",
    "town_kana": "カミアイ",
    "street": null,
    "office_name": null,
    "office_name_kana": null
  },
  "3406": {
    "postcode": "3113406",
    "prefecture": "茨城県",
    "prefecture_kana": "イバラキケン",
    "prefecture_code": 8,
    "city": "小美玉市",
    "city_kana": "オミタマシ",
    "town": "下吉影",
    "town_kana": "シモヨシカゲ",
    "street": null,
    "office_name": null,
    "office_name_kana": null
  },
  "3411": {
    "postcode": "3113411",
    "prefecture": "茨城県",
    "prefecture_kana": "イバラキケン",
    "prefecture_code": 8,
    "city": "小美玉市",
    "city_kana": "オミタマシ",
    "town": "野田",
    "town_kana": "ノダ",
    "street": null,
    "office_name": null,
    "office_name_kana": null
  },
  "3412": {
    "postcode": "3113412",
    "prefecture": "茨城県",
    "prefecture_kana": "イバラキケン",
    "prefecture_code": 8,
    "city": "小美玉市",
    "city_kana": "オミタマシ",
    "town": "川戸",
    "town_kana": "カワド",
    "street": null,
    "office_name": null,
    "office_name_kana": null
  },
  "3413": {
    "postcode": "3113413",
    "prefecture": "茨城県",
    "prefecture_kana": "イバラキケン",
    "prefecture_code": 8,
    "city": "小美玉市",
    "city_kana": "オミタマシ",
    "town": "山野",
    "town_kana": "ヤマノ",
    "street": null,
    "office_name": null,
    "office_name_kana": null
  },
  "3414": {
    "postcode": "3113414",
    "prefecture": "茨城県",
    "prefecture_kana": "イバラキケン",
    "prefecture_code": 8,
    "city": "小美玉市",
    "city_kana": "オミタマシ",
    "town": "外之内",
    "town_kana": "トノウチ",
    "street": null,
    "office_name": null,
    "office_name_kana": null
  },
  "3415": {
    "postcode": "3113415",
    "prefecture": "茨城県",
    "prefecture_kana": "イバラキケン",
    "prefecture_code": 8,
    "city": "小美玉市",
    "city_kana": "オミタマシ",
    "town": "百里",
    "town_kana": "ヒャクリ",
    "street": null,
    "office_name": null,
    "office_name_kana": null
  },
  "3416": {
    "postcode": "3113416",
    "prefecture": "茨城県",
    "prefecture_kana": "イバラキケン",
    "prefecture_code": 8,
    "city": "小美玉市",
    "city_kana": "オミタマシ",
    "town": "与沢",
    "town_kana": "ヨザワ",
    "street": null,
    "office_name": null,
    "office_name_kana": null
  },
  "3417": {
    "postcode": "3113417",
    "prefecture": "茨城県",
    "prefecture_kana": "イバラキケン",
    "prefecture_code": 8,
    "city": "小美玉市",
    "city_kana": "オミタマシ",
    "town": "倉数",
    "town_kana": "クラカズ",
    "street": null,
    "office_name": null,
    "office_name_kana": null
  },
  "3421": {
    "postcode": "3113421",
    "prefecture": "茨城県",
    "prefecture_kana": "イバラキケン",
    "prefecture_code": 8,
    "city": "小美玉市",
    "city_kana": "オミタマシ",
    "town": "宮田",
    "town_kana": "ミヤタ",
    "street": null,
    "office_name": null,
    "office_name_kana": null
  },
  "3422": {
    "postcode": "3113422",
    "prefecture": "茨城県",
    "prefecture_kana": "イバラキケン",
    "prefecture_code": 8,
    "city": "小美玉市",
    "city_kana": "オミタマシ",
    "town": "中延",
    "town_kana": "ナカノベ",
    "street": null,
    "office_name": null,
    "office_name_kana": null
  },
  "3423": {
    "postcode": "3113423",
    "prefecture": "茨城県",
    "prefecture_kana": "イバラキケン",
    "prefecture_code": 8,
    "city": "小美玉市",
    "city_kana": "オミタマシ",
    "town": "小川",
    "town_kana": "オガワ",
    "street": null,
    "office_name": null,
    "office_name_kana": null
  },
  "3424": {
    "postcode": "3113424",
    "prefecture": "茨城県",
    "prefecture_kana": "イバラキケン",
    "prefecture_code": 8,
    "city": "小美玉市",
    "city_kana": "オミタマシ",
    "town": "幡谷",
    "town_kana": "ハタヤ",
    "street": null,
    "office_name": null,
    "office_name_kana": null
  },
  "3425": {
    "postcode": "3113425",
    "prefecture": "茨城県",
    "prefecture_kana": "イバラキケン",
    "prefecture_code": 8,
    "city": "小美玉市",
    "city_kana": "オミタマシ",
    "town": "小塙",
    "town_kana": "コバナワ",
    "street": null,
    "office_name": null,
    "office_name_kana": null
  },
  "3426": {
    "postcode": "3113426",
    "prefecture": "茨城県",
    "prefecture_kana": "イバラキケン",
    "prefecture_code": 8,
    "city": "小美玉市",
    "city_kana": "オミタマシ",
    "town": "下馬場",
    "town_kana": "シモババ",
    "street": null,
    "office_name": null,
    "office_name_kana": null
  },
  "3431": {
    "postcode": "3113431",
    "prefecture": "茨城県",
    "prefecture_kana": "イバラキケン",
    "prefecture_code": 8,
    "city": "小美玉市",
    "city_kana": "オミタマシ",
    "town": "川中子",
    "town_kana": "カワナゴ",
    "street": null,
    "office_name": null,
    "office_name_kana": null
  },
  "3432": {
    "postcode": "3113432",
    "prefecture": "茨城県",
    "prefecture_kana": "イバラキケン",
    "prefecture_code": 8,
    "city": "小美玉市",
    "city_kana": "オミタマシ",
    "town": "下玉里",
    "town_kana": "シモタマリ",
    "street": null,
    "office_name": null,
    "office_name_kana": null
  },
  "3433": {
    "postcode": "3113433",
    "prefecture": "茨城県",
    "prefecture_kana": "イバラキケン",
    "prefecture_code": 8,
    "city": "小美玉市",
    "city_kana": "オミタマシ",
    "town": "高崎",
    "town_kana": "タカサキ",
    "street": null,
    "office_name": null,
    "office_name_kana": null
  },
  "3434": {
    "postcode": "3113434",
    "prefecture": "茨城県",
    "prefecture_kana": "イバラキケン",
    "prefecture_code": 8,
    "city": "小美玉市",
    "city_kana": "オミタマシ",
    "town": "栗又四ケ",
    "town_kana": "クリマタシカ",
    "street": null,
    "office_name": null,
    "office_name_kana": null
  },
  "3435": {
    "postcode": "3113435",
    "prefecture": "茨城県",
    "prefecture_kana": "イバラキケン",
    "prefecture_code": 8,
    "city": "小美玉市",
    "city_kana": "オミタマシ",
    "town": "田木谷",
    "town_kana": "タギヤ",
    "street": null,
    "office_name": null,
    "office_name_kana": null
  },
  "3436": {
    "postcode": "3113436",
    "prefecture": "茨城県",
    "prefecture_kana": "イバラキケン",
    "prefecture_code": 8,
    "city": "小美玉市",
    "city_kana": "オミタマシ",
    "town": "上玉里",
    "town_kana": "カミタマリ",
    "street": null,
    "office_name": null,
    "office_name_kana": null
  },
  "3437": {
    "postcode": "3113437",
    "prefecture": "茨城県",
    "prefecture_kana": "イバラキケン",
    "prefecture_code": 8,
    "city": "小美玉市",
    "city_kana": "オミタマシ",
    "town": "東田中",
    "town_kana": "ヒガシタナカ",
    "street": null,
    "office_name": null,
    "office_name_kana": null
  },
  "3492": {
    "postcode": "3113492",
    "prefecture": "茨城県",
    "prefecture_kana": "イバラキケン",
    "prefecture_code": 8,
    "city": "小美玉市",
    "city_kana": "オミタマシ",
    "town": "小川",
    "town_kana": "オガワ",
    "street": "４−１１",
    "office_name": "小美玉市役所　小川総合支所",
    "office_name_kana": "オミタマシヤクシヨ オガワソウゴウシシヨ"
  },
  "3493": {
    "postcode": "3113493",
    "prefecture": "茨城県",
    "prefecture_kana": "イバラキケン",
    "prefecture_code": 8,
    "city": "小美玉市",
    "city_kana": "オミタマシ",
    "town": "上玉里",
    "town_kana": "カミタマリ",
    "street": "２２２１",
    "office_name": "クレハプラスチックス　株式会社",
    "office_name_kana": "クレハプラスチツクス カブシキガイシヤ"
  },
  "3494": {
    "postcode": "3113494",
    "prefecture": "茨城県",
    "prefecture_kana": "イバラキケン",
    "prefecture_code": 8,
    "city": "小美玉市",
    "city_kana": "オミタマシ",
    "town": "百里",
    "town_kana": "ヒャクリ",
    "street": "１７０（常陸小川郵便局私書箱第１号）",
    "office_name": "航空自衛隊　百里基地",
    "office_name_kana": "コウクウジエイタイ ヒヤクリキチ"
  },
  "3497": {
    "postcode": "3113497",
    "prefecture": "茨城県",
    "prefecture_kana": "イバラキケン",
    "prefecture_code": 8,
    "city": "小美玉市",
    "city_kana": "オミタマシ",
    "town": "上玉里",
    "town_kana": "カミタマリ",
    "street": "２２３９−１",
    "office_name": "ぺんてる　株式会社　茨城工場",
    "office_name_kana": "ペンテル カブシキガイシヤ イバラキコウジヨウ"
  },
  "3498": {
    "postcode": "3113498",
    "prefecture": "茨城県",
    "prefecture_kana": "イバラキケン",
    "prefecture_code": 8,
    "city": "小美玉市",
    "city_kana": "オミタマシ",
    "town": "上玉里",
    "town_kana": "カミタマリ",
    "street": "２２５６",
    "office_name": "丸玉産業",
    "office_name_kana": "マルタマサンギヨウ"
  },
  "3501": {
    "postcode": "3113501",
    "prefecture": "茨城県",
    "prefecture_kana": "イバラキケン",
    "prefecture_code": 8,
    "city": "行方市",
    "city_kana": "ナメガタシ",
    "town": "芹沢",
    "town_kana": "セリザワ",
    "street": null,
    "office_name": null,
    "office_name_kana": null
  },
  "3502": {
    "postcode": "3113502",
    "prefecture": "茨城県",
    "prefecture_kana": "イバラキケン",
    "prefecture_code": 8,
    "city": "行方市",
    "city_kana": "ナメガタシ",
    "town": "若海",
    "town_kana": "ワカウミ",
    "street": null,
    "office_name": null,
    "office_name_kana": null
  },
  "3503": {
    "postcode": "3113503",
    "prefecture": "茨城県",
    "prefecture_kana": "イバラキケン",
    "prefecture_code": 8,
    "city": "行方市",
    "city_kana": "ナメガタシ",
    "town": "捻木",
    "town_kana": "ネジキ",
    "street": null,
    "office_name": null,
    "office_name_kana": null
  },
  "3504": {
    "postcode": "3113504",
    "prefecture": "茨城県",
    "prefecture_kana": "イバラキケン",
    "prefecture_code": 8,
    "city": "行方市",
    "city_kana": "ナメガタシ",
    "town": "谷島",
    "town_kana": "ヤジマ",
    "street": null,
    "office_name": null,
    "office_name_kana": null
  },
  "3505": {
    "postcode": "3113505",
    "prefecture": "茨城県",
    "prefecture_kana": "イバラキケン",
    "prefecture_code": 8,
    "city": "行方市",
    "city_kana": "ナメガタシ",
    "town": "浜",
    "town_kana": "ハマ",
    "street": null,
    "office_name": null,
    "office_name_kana": null
  },
  "3506": {
    "postcode": "3113506",
    "prefecture": "茨城県",
    "prefecture_kana": "イバラキケン",
    "prefecture_code": 8,
    "city": "行方市",
    "city_kana": "ナメガタシ",
    "town": "八木蒔",
    "town_kana": "ヤキマキ",
    "street": null,
    "office_name": null,
    "office_name_kana": null
  },
  "3507": {
    "postcode": "3113507",
    "prefecture": "茨城県",
    "prefecture_kana": "イバラキケン",
    "prefecture_code": 8,
    "city": "行方市",
    "city_kana": "ナメガタシ",
    "town": "羽生",
    "town_kana": "ハニュウ",
    "street": null,
    "office_name": null,
    "office_name_kana": null
  },
  "3508": {
    "postcode": "3113508",
    "prefecture": "茨城県",
    "prefecture_kana": "イバラキケン",
    "prefecture_code": 8,
    "city": "行方市",
    "city_kana": "ナメガタシ",
    "town": "沖洲",
    "town_kana": "オキス",
    "street": null,
    "office_name": null,
    "office_name_kana": null
  },
  "3511": {
    "postcode": "3113511",
    "prefecture": "茨城県",
    "prefecture_kana": "イバラキケン",
    "prefecture_code": 8,
    "city": "行方市",
    "city_kana": "ナメガタシ",
    "town": "玉造乙",
    "town_kana": "タマツクリオツ",
    "street": null,
    "office_name": null,
    "office_name_kana": null
  },
  "3512": {
    "postcode": "3113512",
    "prefecture": "茨城県",
    "prefecture_kana": "イバラキケン",
    "prefecture_code": 8,
    "city": "行方市",
    "city_kana": "ナメガタシ",
    "town": "玉造甲",
    "town_kana": "タマツクリコウ",
    "street": null,
    "office_name": null,
    "office_name_kana": null
  },
  "3513": {
    "postcode": "3113513",
    "prefecture": "茨城県",
    "prefecture_kana": "イバラキケン",
    "prefecture_code": 8,
    "city": "行方市",
    "city_kana": "ナメガタシ",
    "town": "手賀",
    "town_kana": "テガ",
    "street": null,
    "office_name": null,
    "office_name_kana": null
  },
  "3514": {
    "postcode": "3113514",
    "prefecture": "茨城県",
    "prefecture_kana": "イバラキケン",
    "prefecture_code": 8,
    "city": "行方市",
    "city_kana": "ナメガタシ",
    "town": "西蓮寺",
    "town_kana": "サイレンジ",
    "street": null,
    "office_name": null,
    "office_name_kana": null
  },
  "3515": {
    "postcode": "3113515",
    "prefecture": "茨城県",
    "prefecture_kana": "イバラキケン",
    "prefecture_code": 8,
    "city": "行方市",
    "city_kana": "ナメガタシ",
    "town": "井上",
    "town_kana": "イノウエ",
    "street": null,
    "office_name": null,
    "office_name_kana": null
  },
  "3516": {
    "postcode": "3113516",
    "prefecture": "茨城県",
    "prefecture_kana": "イバラキケン",
    "prefecture_code": 8,
    "city": "行方市",
    "city_kana": "ナメガタシ",
    "town": "井上藤井",
    "town_kana": "イノウエフジイ",
    "street": null,
    "office_name": null,
    "office_name_kana": null
  },
  "3517": {
    "postcode": "3113517",
    "prefecture": "茨城県",
    "prefecture_kana": "イバラキケン",
    "prefecture_code": 8,
    "city": "行方市",
    "city_kana": "ナメガタシ",
    "town": "藤井",
    "town_kana": "フジイ",
    "street": null,
    "office_name": null,
    "office_name_kana": null
  },
  "3518": {
    "postcode": "3113518",
    "prefecture": "茨城県",
    "prefecture_kana": "イバラキケン",
    "prefecture_code": 8,
    "city": "行方市",
    "city_kana": "ナメガタシ",
    "town": "荒宿",
    "town_kana": "アラジュク",
    "street": null,
    "office_name": null,
    "office_name_kana": null
  },
  "3800": {
    "postcode": "3113800",
    "prefecture": "茨城県",
    "prefecture_kana": "イバラキケン",
    "prefecture_code": 8,
    "city": "行方市",
    "city_kana": "ナメガタシ",
    "town": "",
    "town_kana": "",
    "street": null,
    "office_name": null,
    "office_name_kana": null
  },
  "3801": {
    "postcode": "3113801",
    "prefecture": "茨城県",
    "prefecture_kana": "イバラキケン",
    "prefecture_code": 8,
    "city": "行方市",
    "city_kana": "ナメガタシ",
    "town": "行方",
    "town_kana": "ナメカタ",
    "street": null,
    "office_name": null,
    "office_name_kana": null
  },
  "3802": {
    "postcode": "3113802",
    "prefecture": "茨城県",
    "prefecture_kana": "イバラキケン",
    "prefecture_code": 8,
    "city": "行方市",
    "city_kana": "ナメガタシ",
    "town": "於下",
    "town_kana": "オシタ",
    "street": null,
    "office_name": null,
    "office_name_kana": null
  },
  "3803": {
    "postcode": "3113803",
    "prefecture": "茨城県",
    "prefecture_kana": "イバラキケン",
    "prefecture_code": 8,
    "city": "行方市",
    "city_kana": "ナメガタシ",
    "town": "井貝",
    "town_kana": "イガイ",
    "street": null,
    "office_name": null,
    "office_name_kana": null
  },
  "3804": {
    "postcode": "3113804",
    "prefecture": "茨城県",
    "prefecture_kana": "イバラキケン",
    "prefecture_code": 8,
    "city": "行方市",
    "city_kana": "ナメガタシ",
    "town": "小高",
    "town_kana": "オダカ",
    "street": null,
    "office_name": null,
    "office_name_kana": null
  },
  "3805": {
    "postcode": "3113805",
    "prefecture": "茨城県",
    "prefecture_kana": "イバラキケン",
    "prefecture_code": 8,
    "city": "行方市",
    "city_kana": "ナメガタシ",
    "town": "橋門",
    "town_kana": "ハシカド",
    "street": null,
    "office_name": null,
    "office_name_kana": null
  },
  "3806": {
    "postcode": "3113806",
    "prefecture": "茨城県",
    "prefecture_kana": "イバラキケン",
    "prefecture_code": 8,
    "city": "行方市",
    "city_kana": "ナメガタシ",
    "town": "船子",
    "town_kana": "フナコ",
    "street": null,
    "office_name": null,
    "office_name_kana": null
  },
  "3807": {
    "postcode": "3113807",
    "prefecture": "茨城県",
    "prefecture_kana": "イバラキケン",
    "prefecture_code": 8,
    "city": "行方市",
    "city_kana": "ナメガタシ",
    "town": "五町田",
    "town_kana": "ゴチョウダ",
    "street": null,
    "office_name": null,
    "office_name_kana": null
  },
  "3811": {
    "postcode": "3113811",
    "prefecture": "茨城県",
    "prefecture_kana": "イバラキケン",
    "prefecture_code": 8,
    "city": "行方市",
    "city_kana": "ナメガタシ",
    "town": "四鹿",
    "town_kana": "シロク",
    "street": null,
    "office_name": null,
    "office_name_kana": null
  },
  "3812": {
    "postcode": "3113812",
    "prefecture": "茨城県",
    "prefecture_kana": "イバラキケン",
    "prefecture_code": 8,
    "city": "行方市",
    "city_kana": "ナメガタシ",
    "town": "杉平",
    "town_kana": "スギダイラ",
    "street": null,
    "office_name": null,
    "office_name_kana": null
  },
  "3813": {
    "postcode": "3113813",
    "prefecture": "茨城県",
    "prefecture_kana": "イバラキケン",
    "prefecture_code": 8,
    "city": "行方市",
    "city_kana": "ナメガタシ",
    "town": "籠田",
    "town_kana": "コモタ",
    "street": null,
    "office_name": null,
    "office_name_kana": null
  },
  "3814": {
    "postcode": "3113814",
    "prefecture": "茨城県",
    "prefecture_kana": "イバラキケン",
    "prefecture_code": 8,
    "city": "行方市",
    "city_kana": "ナメガタシ",
    "town": "天掛",
    "town_kana": "アマガケ",
    "street": null,
    "office_name": null,
    "office_name_kana": null
  },
  "3815": {
    "postcode": "3113815",
    "prefecture": "茨城県",
    "prefecture_kana": "イバラキケン",
    "prefecture_code": 8,
    "city": "行方市",
    "city_kana": "ナメガタシ",
    "town": "新宮",
    "town_kana": "シングウ",
    "street": null,
    "office_name": null,
    "office_name_kana": null
  },
  "3816": {
    "postcode": "3113816",
    "prefecture": "茨城県",
    "prefecture_kana": "イバラキケン",
    "prefecture_code": 8,
    "city": "行方市",
    "city_kana": "ナメガタシ",
    "town": "小牧",
    "town_kana": "コマキ",
    "street": null,
    "office_name": null,
    "office_name_kana": null
  },
  "3817": {
    "postcode": "3113817",
    "prefecture": "茨城県",
    "prefecture_kana": "イバラキケン",
    "prefecture_code": 8,
    "city": "行方市",
    "city_kana": "ナメガタシ",
    "town": "板峰",
    "town_kana": "イタノミネ",
    "street": null,
    "office_name": null,
    "office_name_kana": null
  },
  "3821": {
    "postcode": "3113821",
    "prefecture": "茨城県",
    "prefecture_kana": "イバラキケン",
    "prefecture_code": 8,
    "city": "行方市",
    "city_kana": "ナメガタシ",
    "town": "蔵川",
    "town_kana": "クラカワ",
    "street": null,
    "office_name": null,
    "office_name_kana": null
  },
  "3822": {
    "postcode": "3113822",
    "prefecture": "茨城県",
    "prefecture_kana": "イバラキケン",
    "prefecture_code": 8,
    "city": "行方市",
    "city_kana": "ナメガタシ",
    "town": "岡",
    "town_kana": "オカ",
    "street": null,
    "office_name": null,
    "office_name_kana": null
  },
  "3823": {
    "postcode": "3113823",
    "prefecture": "茨城県",
    "prefecture_kana": "イバラキケン",
    "prefecture_code": 8,
    "city": "行方市",
    "city_kana": "ナメガタシ",
    "town": "白浜",
    "town_kana": "シラハマ",
    "street": null,
    "office_name": null,
    "office_name_kana": null
  },
  "3824": {
    "postcode": "3113824",
    "prefecture": "茨城県",
    "prefecture_kana": "イバラキケン",
    "prefecture_code": 8,
    "city": "行方市",
    "city_kana": "ナメガタシ",
    "town": "宇崎",
    "town_kana": "ウザキ",
    "street": null,
    "office_name": null,
    "office_name_kana": null
  },
  "3825": {
    "postcode": "3113825",
    "prefecture": "茨城県",
    "prefecture_kana": "イバラキケン",
    "prefecture_code": 8,
    "city": "行方市",
    "city_kana": "ナメガタシ",
    "town": "根小屋",
    "town_kana": "ネゴヤ",
    "street": null,
    "office_name": null,
    "office_name_kana": null
  },
  "3826": {
    "postcode": "3113826",
    "prefecture": "茨城県",
    "prefecture_kana": "イバラキケン",
    "prefecture_code": 8,
    "city": "行方市",
    "city_kana": "ナメガタシ",
    "town": "矢幡",
    "town_kana": "ヤバタ",
    "street": null,
    "office_name": null,
    "office_name_kana": null
  },
  "3827": {
    "postcode": "3113827",
    "prefecture": "茨城県",
    "prefecture_kana": "イバラキケン",
    "prefecture_code": 8,
    "city": "行方市",
    "city_kana": "ナメガタシ",
    "town": "石神",
    "town_kana": "イシガミ",
    "street": null,
    "office_name": null,
    "office_name_kana": null
  },
  "3831": {
    "postcode": "3113831",
    "prefecture": "茨城県",
    "prefecture_kana": "イバラキケン",
    "prefecture_code": 8,
    "city": "行方市",
    "city_kana": "ナメガタシ",
    "town": "青沼",
    "town_kana": "アオヌマ",
    "street": null,
    "office_name": null,
    "office_name_kana": null
  },
  "3832": {
    "postcode": "3113832",
    "prefecture": "茨城県",
    "prefecture_kana": "イバラキケン",
    "prefecture_code": 8,
    "city": "行方市",
    "city_kana": "ナメガタシ",
    "town": "麻生",
    "town_kana": "アソウ",
    "street": null,
    "office_name": null,
    "office_name_kana": null
  },
  "3833": {
    "postcode": "3113833",
    "prefecture": "茨城県",
    "prefecture_kana": "イバラキケン",
    "prefecture_code": 8,
    "city": "行方市",
    "city_kana": "ナメガタシ",
    "town": "富田",
    "town_kana": "トミタ",
    "street": null,
    "office_name": null,
    "office_name_kana": null
  },
  "3834": {
    "postcode": "3113834",
    "prefecture": "茨城県",
    "prefecture_kana": "イバラキケン",
    "prefecture_code": 8,
    "city": "行方市",
    "city_kana": "ナメガタシ",
    "town": "粗毛",
    "town_kana": "ホボケ",
    "street": null,
    "office_name": null,
    "office_name_kana": null
  },
  "3835": {
    "postcode": "3113835",
    "prefecture": "茨城県",
    "prefecture_kana": "イバラキケン",
    "prefecture_code": 8,
    "city": "行方市",
    "city_kana": "ナメガタシ",
    "town": "島並",
    "town_kana": "シマナミ",
    "street": null,
    "office_name": null,
    "office_name_kana": null
  },
  "3836": {
    "postcode": "3113836",
    "prefecture": "茨城県",
    "prefecture_kana": "イバラキケン",
    "prefecture_code": 8,
    "city": "行方市",
    "city_kana": "ナメガタシ",
    "town": "南",
    "town_kana": "ミナミ",
    "street": null,
    "office_name": null,
    "office_name_kana": null
  },
  "3880": {
    "postcode": "3113880",
    "prefecture": "茨城県",
    "prefecture_kana": "イバラキケン",
    "prefecture_code": 8,
    "city": "行方市",
    "city_kana": "ナメガタシ",
    "town": "宇崎",
    "town_kana": "ウザキ",
    "street": "１５６１",
    "office_name": "なめがたファーマーズヴィレッジ",
    "office_name_kana": "ナメガタフア-マ-ズヴイレツジ"
  },
  "3892": {
    "postcode": "3113892",
    "prefecture": "茨城県",
    "prefecture_kana": "イバラキケン",
    "prefecture_code": 8,
    "city": "行方市",
    "city_kana": "ナメガタシ",
    "town": "麻生",
    "town_kana": "アソウ",
    "street": "１５６１−９",
    "office_name": "行方市役所",
    "office_name_kana": "ナメガタシヤクシヨ"
  },
  "3893": {
    "postcode": "3113893",
    "prefecture": "茨城県",
    "prefecture_kana": "イバラキケン",
    "prefecture_code": 8,
    "city": "行方市",
    "city_kana": "ナメガタシ",
    "town": "麻生",
    "town_kana": "アソウ",
    "street": "１７００−６",
    "office_name": "茨城県　行方県税事務所",
    "office_name_kana": "イバラキケン ナメガタケンゼイジムシヨ"
  },
  "3894": {
    "postcode": "3113894",
    "prefecture": "茨城県",
    "prefecture_kana": "イバラキケン",
    "prefecture_code": 8,
    "city": "行方市",
    "city_kana": "ナメガタシ",
    "town": "板峰",
    "town_kana": "イタノミネ",
    "street": "１８７",
    "office_name": "茨城ライスミル　株式会社",
    "office_name_kana": "イバラキライスミル カブシキガイシヤ"
  },
  "4141": {
    "postcode": "3114141",
    "prefecture": "茨城県",
    "prefecture_kana": "イバラキケン",
    "prefecture_code": 8,
    "city": "水戸市",
    "city_kana": "ミトシ",
    "town": "赤塚",
    "town_kana": "アカツカ",
    "street": null,
    "office_name": null,
    "office_name_kana": null
  },
  "4142": {
    "postcode": "3114142",
    "prefecture": "茨城県",
    "prefecture_kana": "イバラキケン",
    "prefecture_code": 8,
    "city": "水戸市",
    "city_kana": "ミトシ",
    "town": "東赤塚",
    "town_kana": "ヒガシアカツカ",
    "street": null,
    "office_name": null,
    "office_name_kana": null
  },
  "4143": {
    "postcode": "3114143",
    "prefecture": "茨城県",
    "prefecture_kana": "イバラキケン",
    "prefecture_code": 8,
    "city": "水戸市",
    "city_kana": "ミトシ",
    "town": "大塚町",
    "town_kana": "オオツカチョウ",
    "street": null,
    "office_name": null,
    "office_name_kana": null
  },
  "4144": {
    "postcode": "3114144",
    "prefecture": "茨城県",
    "prefecture_kana": "イバラキケン",
    "prefecture_code": 8,
    "city": "水戸市",
    "city_kana": "ミトシ",
    "town": "開江町",
    "town_kana": "ヒラクエチョウ",
    "street": null,
    "office_name": null,
    "office_name_kana": null
  },
  "4145": {
    "postcode": "3114145",
    "prefecture": "茨城県",
    "prefecture_kana": "イバラキケン",
    "prefecture_code": 8,
    "city": "水戸市",
    "city_kana": "ミトシ",
    "town": "双葉台",
    "town_kana": "フタバダイ",
    "street": null,
    "office_name": null,
    "office_name_kana": null
  },
  "4146": {
    "postcode": "3114146",
    "prefecture": "茨城県",
    "prefecture_kana": "イバラキケン",
    "prefecture_code": 8,
    "city": "水戸市",
    "city_kana": "ミトシ",
    "town": "中丸町",
    "town_kana": "ナカマルチョウ",
    "street": null,
    "office_name": null,
    "office_name_kana": null
  },
  "4151": {
    "postcode": "3114151",
    "prefecture": "茨城県",
    "prefecture_kana": "イバラキケン",
    "prefecture_code": 8,
    "city": "水戸市",
    "city_kana": "ミトシ",
    "town": "姫子",
    "town_kana": "ヒメゴ",
    "street": null,
    "office_name": null,
    "office_name_kana": null
  },
  "4152": {
    "postcode": "3114152",
    "prefecture": "茨城県",
    "prefecture_kana": "イバラキケン",
    "prefecture_code": 8,
    "city": "水戸市",
    "city_kana": "ミトシ",
    "town": "河和田",
    "town_kana": "カワワダ",
    "street": null,
    "office_name": null,
    "office_name_kana": null
  },
  "4153": {
    "postcode": "3114153",
    "prefecture": "茨城県",
    "prefecture_kana": "イバラキケン",
    "prefecture_code": 8,
    "city": "水戸市",
    "city_kana": "ミトシ",
    "town": "河和田町",
    "town_kana": "カワワダチョウ",
    "street": null,
    "office_name": null,
    "office_name_kana": null
  },
  "4154": {
    "postcode": "3114154",
    "prefecture": "茨城県",
    "prefecture_kana": "イバラキケン",
    "prefecture_code": 8,
    "city": "水戸市",
    "city_kana": "ミトシ",
    "town": "萱場町",
    "town_kana": "カヤバチョウ",
    "street": null,
    "office_name": null,
    "office_name_kana": null
  },
  "4155": {
    "postcode": "3114155",
    "prefecture": "茨城県",
    "prefecture_kana": "イバラキケン",
    "prefecture_code": 8,
    "city": "水戸市",
    "city_kana": "ミトシ",
    "town": "飯島町",
    "town_kana": "イイジマチョウ",
    "street": null,
    "office_name": null,
    "office_name_kana": null
  },
  "4161": {
    "postcode": "3114161",
    "prefecture": "茨城県",
    "prefecture_kana": "イバラキケン",
    "prefecture_code": 8,
    "city": "水戸市",
    "city_kana": "ミトシ",
    "town": "全隈町",
    "town_kana": "マタグマチョウ",
    "street": null,
    "office_name": null,
    "office_name_kana": null
  },
  "4162": {
    "postcode": "3114162",
    "prefecture": "茨城県",
    "prefecture_kana": "イバラキケン",
    "prefecture_code": 8,
    "city": "水戸市",
    "city_kana": "ミトシ",
    "town": "金谷町",
    "town_kana": "カナヤチョウ",
    "street": null,
    "office_name": null,
    "office_name_kana": null
  },
  "4163": {
    "postcode": "3114163",
    "prefecture": "茨城県",
    "prefecture_kana": "イバラキケン",
    "prefecture_code": 8,
    "city": "水戸市",
    "city_kana": "ミトシ",
    "town": "加倉井町",
    "town_kana": "カクライチョウ",
    "street": null,
    "office_name": null,
    "office_name_kana": null
  },
  "4164": {
    "postcode": "3114164",
    "prefecture": "茨城県",
    "prefecture_kana": "イバラキケン",
    "prefecture_code": 8,
    "city": "水戸市",
    "city_kana": "ミトシ",
    "town": "谷津町",
    "town_kana": "ヤツチョウ",
    "street": null,
    "office_name": null,
    "office_name_kana": null
  },
  "4165": {
    "postcode": "3114165",
    "prefecture": "茨城県",
    "prefecture_kana": "イバラキケン",
    "prefecture_code": 8,
    "city": "水戸市",
    "city_kana": "ミトシ",
    "town": "木葉下町",
    "town_kana": "アボッケチョウ",
    "street": null,
    "office_name": null,
    "office_name_kana": null
  },
  "4193": {
    "postcode": "3114193",
    "prefecture": "茨城県",
    "prefecture_kana": "イバラキケン",
    "prefecture_code": 8,
    "city": "水戸市",
    "city_kana": "ミトシ",
    "town": "赤塚",
    "town_kana": "アカツカ",
    "street": "１丁目２０２９−１２１",
    "office_name": "いばらきコープ生活　協同組合",
    "office_name_kana": "イバラキコ-プセイカツ キヨウドウクミアイ"
  },
  "4194": {
    "postcode": "3114194",
    "prefecture": "茨城県",
    "prefecture_kana": "イバラキケン",
    "prefecture_code": 8,
    "city": "水戸市",
    "city_kana": "ミトシ",
    "town": "木葉下町",
    "town_kana": "アボッケチョウ",
    "street": "富士山２９２−１９",
    "office_name": "茨城県教科書販売　株式会社",
    "office_name_kana": "イバラキケンキヨウカシヨハンバイ カブシキガイシヤ"
  },
  "4195": {
    "postcode": "3114195",
    "prefecture": "茨城県",
    "prefecture_kana": "イバラキケン",
    "prefecture_code": 8,
    "city": "水戸市",
    "city_kana": "ミトシ",
    "town": "木葉下町",
    "town_kana": "アボッケチョウ",
    "street": "富士山２９２−２９",
    "office_name": "戸田産業　株式会社",
    "office_name_kana": "トダサンギヨウ カブシキガイシヤ"
  },
  "4196": {
    "postcode": "3114196",
    "prefecture": "茨城県",
    "prefecture_kana": "イバラキケン",
    "prefecture_code": 8,
    "city": "水戸市",
    "city_kana": "ミトシ",
    "town": "谷津町",
    "town_kana": "ヤツチョウ",
    "street": "１−４０",
    "office_name": "株式会社　ケーシーエス",
    "office_name_kana": "カブシキガイシヤ ケ-シ-エス"
  },
  "4198": {
    "postcode": "3114198",
    "prefecture": "茨城県",
    "prefecture_kana": "イバラキケン",
    "prefecture_code": 8,
    "city": "水戸市",
    "city_kana": "ミトシ",
    "town": "双葉台",
    "town_kana": "フタバダイ",
    "street": "３丁目３−１０",
    "office_name": "水戸済生会総合病院",
    "office_name_kana": "ミトサイセイカイソウゴウビヨウイン"
  },
  "4201": {
    "postcode": "3114201",
    "prefecture": "茨城県",
    "prefecture_kana": "イバラキケン",
    "prefecture_code": 8,
    "city": "水戸市",
    "city_kana": "ミトシ",
    "town": "藤井町",
    "town_kana": "フジイチョウ",
    "street": null,
    "office_name": null,
    "office_name_kana": null
  },
  "4202": {
    "postcode": "3114202",
    "prefecture": "茨城県",
    "prefecture_kana": "イバラキケン",
    "prefecture_code": 8,
    "city": "水戸市",
    "city_kana": "ミトシ",
    "town": "岩根町",
    "town_kana": "イワネチョウ",
    "street": null,
    "office_name": null,
    "office_name_kana": null
  },
  "4203": {
    "postcode": "3114203",
    "prefecture": "茨城県",
    "prefecture_kana": "イバラキケン",
    "prefecture_code": 8,
    "city": "水戸市",
    "city_kana": "ミトシ",
    "town": "上国井町",
    "town_kana": "カミクニイチョウ",
    "street": null,
    "office_name": null,
    "office_name_kana": null
  },
  "4204": {
    "postcode": "3114204",
    "prefecture": "茨城県",
    "prefecture_kana": "イバラキケン",
    "prefecture_code": 8,
    "city": "水戸市",
    "city_kana": "ミトシ",
    "town": "田谷町",
    "town_kana": "タヤチョウ",
    "street": null,
    "office_name": null,
    "office_name_kana": null
  },
  "4205": {
    "postcode": "3114205",
    "prefecture": "茨城県",
    "prefecture_kana": "イバラキケン",
    "prefecture_code": 8,
    "city": "水戸市",
    "city_kana": "ミトシ",
    "town": "下国井町",
    "town_kana": "シモクニイチョウ",
    "street": null,
    "office_name": null,
    "office_name_kana": null
  },
  "4206": {
    "postcode": "3114206",
    "prefecture": "茨城県",
    "prefecture_kana": "イバラキケン",
    "prefecture_code": 8,
    "city": "水戸市",
    "city_kana": "ミトシ",
    "town": "飯富町",
    "town_kana": "イイトミチョウ",
    "street": null,
    "office_name": null,
    "office_name_kana": null
  },
  "4207": {
    "postcode": "3114207",
    "prefecture": "茨城県",
    "prefecture_kana": "イバラキケン",
    "prefecture_code": 8,
    "city": "水戸市",
    "city_kana": "ミトシ",
    "town": "成沢町",
    "town_kana": "ナルサワチョウ",
    "street": null,
    "office_name": null,
    "office_name_kana": null
  },
  "4208": {
    "postcode": "3114208",
    "prefecture": "茨城県",
    "prefecture_kana": "イバラキケン",
    "prefecture_code": 8,
    "city": "水戸市",
    "city_kana": "ミトシ",
    "town": "藤が原",
    "town_kana": "フジガハラ",
    "street": null,
    "office_name": null,
    "office_name_kana": null
  },
  "4300": {
    "postcode": "3114300",
    "prefecture": "茨城県",
    "prefecture_kana": "イバラキケン",
    "prefecture_code": 8,
    "city": "東茨城郡城里町",
    "city_kana": "ヒガシイバラキグンシロサトマチ",
    "town": "",
    "town_kana": "",
    "street": null,
    "office_name": null,
    "office_name_kana": null
  },
  "4301": {
    "postcode": "3114301",
    "prefecture": "茨城県",
    "prefecture_kana": "イバラキケン",
    "prefecture_code": 8,
    "city": "東茨城郡城里町",
    "city_kana": "ヒガシイバラキグンシロサトマチ",
    "town": "上泉",
    "town_kana": "カミイズミ",
    "street": null,
    "office_name": null,
    "office_name_kana": null
  },
  "4302": {
    "postcode": "3114302",
    "prefecture": "茨城県",
    "prefecture_kana": "イバラキケン",
    "prefecture_code": 8,
    "city": "東茨城郡城里町",
    "city_kana": "ヒガシイバラキグンシロサトマチ",
    "town": "那珂西",
    "town_kana": "ナカサイ",
    "street": null,
    "office_name": null,
    "office_name_kana": null
  },
  "4303": {
    "postcode": "3114303",
    "prefecture": "茨城県",
    "prefecture_kana": "イバラキケン",
    "prefecture_code": 8,
    "city": "東茨城郡城里町",
    "city_kana": "ヒガシイバラキグンシロサトマチ",
    "town": "石塚",
    "town_kana": "イシツカ",
    "street": null,
    "office_name": null,
    "office_name_kana": null
  },
  "4304": {
    "postcode": "3114304",
    "prefecture": "茨城県",
    "prefecture_kana": "イバラキケン",
    "prefecture_code": 8,
    "city": "東茨城郡城里町",
    "city_kana": "ヒガシイバラキグンシロサトマチ",
    "town": "下青山",
    "town_kana": "シモアオヤマ",
    "street": null,
    "office_name": null,
    "office_name_kana": null
  },
  "4305": {
    "postcode": "3114305",
    "prefecture": "茨城県",
    "prefecture_kana": "イバラキケン",
    "prefecture_code": 8,
    "city": "東茨城郡城里町",
    "city_kana": "ヒガシイバラキグンシロサトマチ",
    "town": "上青山",
    "town_kana": "カミアオヤマ",
    "street": null,
    "office_name": null,
    "office_name_kana": null
  },
  "4306": {
    "postcode": "3114306",
    "prefecture": "茨城県",
    "prefecture_kana": "イバラキケン",
    "prefecture_code": 8,
    "city": "東茨城郡城里町",
    "city_kana": "ヒガシイバラキグンシロサトマチ",
    "town": "春園",
    "town_kana": "ハルソノ",
    "street": null,
    "office_name": null,
    "office_name_kana": null
  },
  "4311": {
    "postcode": "3114311",
    "prefecture": "茨城県",
    "prefecture_kana": "イバラキケン",
    "prefecture_code": 8,
    "city": "東茨城郡城里町",
    "city_kana": "ヒガシイバラキグンシロサトマチ",
    "town": "増井",
    "town_kana": "マシイ",
    "street": null,
    "office_name": null,
    "office_name_kana": null
  },
  "4312": {
    "postcode": "3114312",
    "prefecture": "茨城県",
    "prefecture_kana": "イバラキケン",
    "prefecture_code": 8,
    "city": "東茨城郡城里町",
    "city_kana": "ヒガシイバラキグンシロサトマチ",
    "town": "磯野",
    "town_kana": "イソノ",
    "street": null,
    "office_name": null,
    "office_name_kana": null
  },
  "4313": {
    "postcode": "3114313",
    "prefecture": "茨城県",
    "prefecture_kana": "イバラキケン",
    "prefecture_code": 8,
    "city": "東茨城郡城里町",
    "city_kana": "ヒガシイバラキグンシロサトマチ",
    "town": "上入野",
    "town_kana": "カミイリノ",
    "street": null,
    "office_name": null,
    "office_name_kana": null
  },
  "4314": {
    "postcode": "3114314",
    "prefecture": "茨城県",
    "prefecture_kana": "イバラキケン",
    "prefecture_code": 8,
    "city": "東茨城郡城里町",
    "city_kana": "ヒガシイバラキグンシロサトマチ",
    "town": "下古内",
    "town_kana": "シモフルウチ",
    "street": null,
    "office_name": null,
    "office_name_kana": null
  },
  "4315": {
    "postcode": "3114315",
    "prefecture": "茨城県",
    "prefecture_kana": "イバラキケン",
    "prefecture_code": 8,
    "city": "東茨城郡城里町",
    "city_kana": "ヒガシイバラキグンシロサトマチ",
    "town": "上古内",
    "town_kana": "カミフルウチ",
    "street": null,
    "office_name": null,
    "office_name_kana": null
  },
  "4316": {
    "postcode": "3114316",
    "prefecture": "茨城県",
    "prefecture_kana": "イバラキケン",
    "prefecture_code": 8,
    "city": "東茨城郡城里町",
    "city_kana": "ヒガシイバラキグンシロサトマチ",
    "town": "小坂",
    "town_kana": "オサカ",
    "street": null,
    "office_name": null,
    "office_name_kana": null
  },
  "4317": {
    "postcode": "3114317",
    "prefecture": "茨城県",
    "prefecture_kana": "イバラキケン",
    "prefecture_code": 8,
    "city": "東茨城郡城里町",
    "city_kana": "ヒガシイバラキグンシロサトマチ",
    "town": "勝見沢",
    "town_kana": "カツミザワ",
    "street": null,
    "office_name": null,
    "office_name_kana": null
  },
  "4321": {
    "postcode": "3114321",
    "prefecture": "茨城県",
    "prefecture_kana": "イバラキケン",
    "prefecture_code": 8,
    "city": "東茨城郡城里町",
    "city_kana": "ヒガシイバラキグンシロサトマチ",
    "town": "粟",
    "town_kana": "アワ",
    "street": null,
    "office_name": null,
    "office_name_kana": null
  },
  "4322": {
    "postcode": "3114322",
    "prefecture": "茨城県",
    "prefecture_kana": "イバラキケン",
    "prefecture_code": 8,
    "city": "東茨城郡城里町",
    "city_kana": "ヒガシイバラキグンシロサトマチ",
    "town": "下圷",
    "town_kana": "シモアクツ",
    "street": null,
    "office_name": null,
    "office_name_kana": null
  },
  "4323": {
    "postcode": "3114323",
    "prefecture": "茨城県",
    "prefecture_kana": "イバラキケン",
    "prefecture_code": 8,
    "city": "東茨城郡城里町",
    "city_kana": "ヒガシイバラキグンシロサトマチ",
    "town": "上圷",
    "town_kana": "カミアクツ",
    "street": null,
    "office_name": null,
    "office_name_kana": null
  },
  "4324": {
    "postcode": "3114324",
    "prefecture": "茨城県",
    "prefecture_kana": "イバラキケン",
    "prefecture_code": 8,
    "city": "東茨城郡城里町",
    "city_kana": "ヒガシイバラキグンシロサトマチ",
    "town": "高久",
    "town_kana": "タカク",
    "street": null,
    "office_name": null,
    "office_name_kana": null
  },
  "4325": {
    "postcode": "3114325",
    "prefecture": "茨城県",
    "prefecture_kana": "イバラキケン",
    "prefecture_code": 8,
    "city": "東茨城郡城里町",
    "city_kana": "ヒガシイバラキグンシロサトマチ",
    "town": "北方",
    "town_kana": "キタカタ",
    "street": null,
    "office_name": null,
    "office_name_kana": null
  },
  "4331": {
    "postcode": "3114331",
    "prefecture": "茨城県",
    "prefecture_kana": "イバラキケン",
    "prefecture_code": 8,
    "city": "東茨城郡城里町",
    "city_kana": "ヒガシイバラキグンシロサトマチ",
    "town": "岩船",
    "town_kana": "イワフネ",
    "street": null,
    "office_name": null,
    "office_name_kana": null
  },
  "4332": {
    "postcode": "3114332",
    "prefecture": "茨城県",
    "prefecture_kana": "イバラキケン",
    "prefecture_code": 8,
    "city": "東茨城郡城里町",
    "city_kana": "ヒガシイバラキグンシロサトマチ",
    "town": "高根台",
    "town_kana": "タカネダイ",
    "street": null,
    "office_name": null,
    "office_name_kana": null
  },
  "4333": {
    "postcode": "3114333",
    "prefecture": "茨城県",
    "prefecture_kana": "イバラキケン",
    "prefecture_code": 8,
    "city": "東茨城郡城里町",
    "city_kana": "ヒガシイバラキグンシロサトマチ",
    "town": "高根",
    "town_kana": "タカネ",
    "street": null,
    "office_name": null,
    "office_name_kana": null
  },
  "4334": {
    "postcode": "3114334",
    "prefecture": "茨城県",
    "prefecture_kana": "イバラキケン",
    "prefecture_code": 8,
    "city": "東茨城郡城里町",
    "city_kana": "ヒガシイバラキグンシロサトマチ",
    "town": "孫根",
    "town_kana": "マゴネ",
    "street": null,
    "office_name": null,
    "office_name_kana": null
  },
  "4335": {
    "postcode": "3114335",
    "prefecture": "茨城県",
    "prefecture_kana": "イバラキケン",
    "prefecture_code": 8,
    "city": "東茨城郡城里町",
    "city_kana": "ヒガシイバラキグンシロサトマチ",
    "town": "錫高野",
    "town_kana": "スズコウヤ",
    "street": null,
    "office_name": null,
    "office_name_kana": null
  },
  "4341": {
    "postcode": "3114341",
    "prefecture": "茨城県",
    "prefecture_kana": "イバラキケン",
    "prefecture_code": 8,
    "city": "東茨城郡城里町",
    "city_kana": "ヒガシイバラキグンシロサトマチ",
    "town": "御前山",
    "town_kana": "ゴゼンヤマ",
    "street": null,
    "office_name": null,
    "office_name_kana": null
  },
  "4342": {
    "postcode": "3114342",
    "prefecture": "茨城県",
    "prefecture_kana": "イバラキケン",
    "prefecture_code": 8,
    "city": "東茨城郡城里町",
    "city_kana": "ヒガシイバラキグンシロサトマチ",
    "town": "上阿野沢",
    "town_kana": "カミアノサワ",
    "street": null,
    "office_name": null,
    "office_name_kana": null
  },
  "4343": {
    "postcode": "3114343",
    "prefecture": "茨城県",
    "prefecture_kana": "イバラキケン",
    "prefecture_code": 8,
    "city": "東茨城郡城里町",
    "city_kana": "ヒガシイバラキグンシロサトマチ",
    "town": "下阿野沢",
    "town_kana": "シモアノサワ",
    "street": null,
    "office_name": null,
    "office_name_kana": null
  },
  "4344": {
    "postcode": "3114344",
    "prefecture": "茨城県",
    "prefecture_kana": "イバラキケン",
    "prefecture_code": 8,
    "city": "東茨城郡城里町",
    "city_kana": "ヒガシイバラキグンシロサトマチ",
    "town": "阿波山",
    "town_kana": "アワヤマ",
    "street": null,
    "office_name": null,
    "office_name_kana": null
  },
  "4391": {
    "postcode": "3114391",
    "prefecture": "茨城県",
    "prefecture_kana": "イバラキケン",
    "prefecture_code": 8,
    "city": "東茨城郡城里町",
    "city_kana": "ヒガシイバラキグンシロサトマチ",
    "town": "大字石塚",
    "town_kana": null,
    "street": "１４２８−２５",
    "office_name": "城里町役場　本庁舎",
    "office_name_kana": "シロサトマチヤクバ ホンチヨウシヤ"
  },
  "4392": {
    "postcode": "3114392",
    "prefecture": "茨城県",
    "prefecture_kana": "イバラキケン",
    "prefecture_code": 8,
    "city": "東茨城郡城里町",
    "city_kana": "ヒガシイバラキグンシロサトマチ",
    "town": "大字春園",
    "town_kana": null,
    "street": "１６３４",
    "office_name": "茨城県立水戸桜ノ牧高等学校　常北校",
    "office_name_kana": "イバラキケンリツミトサクラノマキコウトウガツコウ ジヨウホクコウ"
  },
  "4393": {
    "postcode": "3114393",
    "prefecture": "茨城県",
    "prefecture_kana": "イバラキケン",
    "prefecture_code": 8,
    "city": "東茨城郡城里町",
    "city_kana": "ヒガシイバラキグンシロサトマチ",
    "town": "大字那珂西",
    "town_kana": null,
    "street": "２２７０−１",
    "office_name": "株式会社　イトウ",
    "office_name_kana": "カブシキガイシヤ イトウ"
  },
  "4401": {
    "postcode": "3114401",
    "prefecture": "茨城県",
    "prefecture_kana": "イバラキケン",
    "prefecture_code": 8,
    "city": "東茨城郡城里町",
    "city_kana": "ヒガシイバラキグンシロサトマチ",
    "town": "塩子",
    "town_kana": "シオゴ",
    "street": null,
    "office_name": null,
    "office_name_kana": null
  },
  "4402": {
    "postcode": "3114402",
    "prefecture": "茨城県",
    "prefecture_kana": "イバラキケン",
    "prefecture_code": 8,
    "city": "東茨城郡城里町",
    "city_kana": "ヒガシイバラキグンシロサトマチ",
    "town": "小勝",
    "town_kana": "オガチ",
    "street": null,
    "office_name": null,
    "office_name_kana": null
  },
  "4403": {
    "postcode": "3114403",
    "prefecture": "茨城県",
    "prefecture_kana": "イバラキケン",
    "prefecture_code": 8,
    "city": "東茨城郡城里町",
    "city_kana": "ヒガシイバラキグンシロサトマチ",
    "town": "大網",
    "town_kana": "オオアミ",
    "street": null,
    "office_name": null,
    "office_name_kana": null
  },
  "4404": {
    "postcode": "3114404",
    "prefecture": "茨城県",
    "prefecture_kana": "イバラキケン",
    "prefecture_code": 8,
    "city": "東茨城郡城里町",
    "city_kana": "ヒガシイバラキグンシロサトマチ",
    "town": "真端",
    "town_kana": "サナバタ",
    "street": null,
    "office_name": null,
    "office_name_kana": null
  },
  "4405": {
    "postcode": "3114405",
    "prefecture": "茨城県",
    "prefecture_kana": "イバラキケン",
    "prefecture_code": 8,
    "city": "東茨城郡城里町",
    "city_kana": "ヒガシイバラキグンシロサトマチ",
    "town": "上赤沢",
    "town_kana": "カミアカサワ",
    "street": null,
    "office_name": null,
    "office_name_kana": null
  },
  "4406": {
    "postcode": "3114406",
    "prefecture": "茨城県",
    "prefecture_kana": "イバラキケン",
    "prefecture_code": 8,
    "city": "東茨城郡城里町",
    "city_kana": "ヒガシイバラキグンシロサトマチ",
    "town": "下赤沢",
    "town_kana": "シモアカサワ",
    "street": null,
    "office_name": null,
    "office_name_kana": null
  },
  "4407": {
    "postcode": "3114407",
    "prefecture": "茨城県",
    "prefecture_kana": "イバラキケン",
    "prefecture_code": 8,
    "city": "東茨城郡城里町",
    "city_kana": "ヒガシイバラキグンシロサトマチ",
    "town": "徳蔵",
    "town_kana": "トクラ",
    "street": null,
    "office_name": null,
    "office_name_kana": null
  },
  "4411": [
    {
      "postcode": "3114411",
      "prefecture": "栃木県",
      "prefecture_kana": "トチギケン",
      "prefecture_code": 9,
      "city": "芳賀郡茂木町",
      "city_kana": "ハガグンモテギマチ",
      "town": "桧山",
      "town_kana": "ヒヤマ",
      "street": null,
      "office_name": null,
      "office_name_kana": null
    },
    {
      "postcode": "3114411",
      "prefecture": "栃木県",
      "prefecture_kana": "トチギケン",
      "prefecture_code": 9,
      "city": "芳賀郡茂木町",
      "city_kana": "ハガグンモテギマチ",
      "town": "桧山道木橋",
      "town_kana": "ヒヤマドウギバシ",
      "street": null,
      "office_name": null,
      "office_name_kana": null
    }
  ],
  "4501": {
    "postcode": "3114501",
    "prefecture": "茨城県",
    "prefecture_kana": "イバラキケン",
    "prefecture_code": 8,
    "city": "常陸大宮市",
    "city_kana": "ヒタチオオミヤシ",
    "town": "門井",
    "town_kana": "カドイ",
    "street": null,
    "office_name": null,
    "office_name_kana": null
  },
  "4502": {
    "postcode": "3114502",
    "prefecture": "茨城県",
    "prefecture_kana": "イバラキケン",
    "prefecture_code": 8,
    "city": "常陸大宮市",
    "city_kana": "ヒタチオオミヤシ",
    "town": "野口平",
    "town_kana": "ノグチダイラ",
    "street": null,
    "office_name": null,
    "office_name_kana": null
  },
  "4503": {
    "postcode": "3114503",
    "prefecture": "茨城県",
    "prefecture_kana": "イバラキケン",
    "prefecture_code": 8,
    "city": "常陸大宮市",
    "city_kana": "ヒタチオオミヤシ",
    "town": "野口",
    "town_kana": "ノグチ",
    "street": null,
    "office_name": null,
    "office_name_kana": null
  },
  "4592": {
    "postcode": "3114592",
    "prefecture": "茨城県",
    "prefecture_kana": "イバラキケン",
    "prefecture_code": 8,
    "city": "常陸大宮市",
    "city_kana": "ヒタチオオミヤシ",
    "town": "野口",
    "town_kana": "ノグチ",
    "street": "３１９５",
    "office_name": "常陸大宮市役所　御前山総合支所",
    "office_name_kana": "ヒタチオオミヤシヤクシヨ ゴゼンヤマソウゴウシシヨ"
  },
  "4595": {
    "postcode": "3114595",
    "prefecture": "茨城県",
    "prefecture_kana": "イバラキケン",
    "prefecture_code": 8,
    "city": "東茨城郡城里町",
    "city_kana": "ヒガシイバラキグンシロサトマチ",
    "town": "大字阿波山",
    "town_kana": null,
    "street": "１７６",
    "office_name": "城里町役場　桂支所",
    "office_name_kana": "シロサトマチヤクバ カツラシシヨ"
  },
  "4611": {
    "postcode": "3114611",
    "prefecture": "茨城県",
    "prefecture_kana": "イバラキケン",
    "prefecture_code": 8,
    "city": "常陸大宮市",
    "city_kana": "ヒタチオオミヤシ",
    "town": "秋田",
    "town_kana": "アキタ",
    "street": null,
    "office_name": null,
    "office_name_kana": null
  },
  "4612": {
    "postcode": "3114612",
    "prefecture": "茨城県",
    "prefecture_kana": "イバラキケン",
    "prefecture_code": 8,
    "city": "常陸大宮市",
    "city_kana": "ヒタチオオミヤシ",
    "town": "中居",
    "town_kana": "ナカイ",
    "street": null,
    "office_name": null,
    "office_name_kana": null
  },
  "4613": {
    "postcode": "3114613",
    "prefecture": "茨城県",
    "prefecture_kana": "イバラキケン",
    "prefecture_code": 8,
    "city": "常陸大宮市",
    "city_kana": "ヒタチオオミヤシ",
    "town": "長倉",
    "town_kana": "ナガクラ",
    "street": null,
    "office_name": null,
    "office_name_kana": null
  },
  "4614": {
    "postcode": "3114614",
    "prefecture": "茨城県",
    "prefecture_kana": "イバラキケン",
    "prefecture_code": 8,
    "city": "常陸大宮市",
    "city_kana": "ヒタチオオミヤシ",
    "town": "金井",
    "town_kana": "カナイ",
    "street": null,
    "office_name": null,
    "office_name_kana": null
  },
  "4615": {
    "postcode": "3114615",
    "prefecture": "茨城県",
    "prefecture_kana": "イバラキケン",
    "prefecture_code": 8,
    "city": "常陸大宮市",
    "city_kana": "ヒタチオオミヤシ",
    "town": "下伊勢畑",
    "town_kana": "シモイセハタ",
    "street": null,
    "office_name": null,
    "office_name_kana": null
  },
  "4616": {
    "postcode": "3114616",
    "prefecture": "茨城県",
    "prefecture_kana": "イバラキケン",
    "prefecture_code": 8,
    "city": "常陸大宮市",
    "city_kana": "ヒタチオオミヤシ",
    "town": "桧山",
    "town_kana": "ヒヤマ",
    "street": null,
    "office_name": null,
    "office_name_kana": null
  },
  "4617": {
    "postcode": "3114617",
    "prefecture": "茨城県",
    "prefecture_kana": "イバラキケン",
    "prefecture_code": 8,
    "city": "常陸大宮市",
    "city_kana": "ヒタチオオミヤシ",
    "town": "上伊勢畑",
    "town_kana": "カミイセハタ",
    "street": null,
    "office_name": null,
    "office_name_kana": null
  },
  "4618": {
    "postcode": "3114618",
    "prefecture": "茨城県",
    "prefecture_kana": "イバラキケン",
    "prefecture_code": 8,
    "city": "常陸大宮市",
    "city_kana": "ヒタチオオミヤシ",
    "town": "野田",
    "town_kana": "ノダ",
    "street": null,
    "office_name": null,
    "office_name_kana": null
  }
}