{
  "0000": [
    {
      "postcode": "3150000",
      "prefecture": "茨城県",
      "prefecture_kana": "イバラキケン",
      "prefecture_code": 8,
      "city": "石岡市",
      "city_kana": "イシオカシ",
      "town": "",
      "town_kana": "",
      "street": null,
      "office_name": null,
      "office_name_kana": null
    },
    {
      "postcode": "3150000",
      "prefecture": "茨城県",
      "prefecture_kana": "イバラキケン",
      "prefecture_code": 8,
      "city": "かすみがうら市",
      "city_kana": "カスミガウラシ",
      "town": "",
      "town_kana": "",
      "street": null,
      "office_name": null,
      "office_name_kana": null
    }
  ],
  "0001": {
    "postcode": "3150001",
    "prefecture": "茨城県",
    "prefecture_kana": "イバラキケン",
    "prefecture_code": 8,
    "city": "石岡市",
    "city_kana": "イシオカシ",
    "town": "石岡",
    "town_kana": "イシオカ",
    "street": null,
    "office_name": null,
    "office_name_kana": null
  },
  "0002": {
    "postcode": "3150002",
    "prefecture": "茨城県",
    "prefecture_kana": "イバラキケン",
    "prefecture_code": 8,
    "city": "石岡市",
    "city_kana": "イシオカシ",
    "town": "柏原",
    "town_kana": "カシワバラ",
    "street": null,
    "office_name": null,
    "office_name_kana": null
  },
  "0003": {
    "postcode": "3150003",
    "prefecture": "茨城県",
    "prefecture_kana": "イバラキケン",
    "prefecture_code": 8,
    "city": "石岡市",
    "city_kana": "イシオカシ",
    "town": "谷向町",
    "town_kana": "ヤムカイチョウ",
    "street": null,
    "office_name": null,
    "office_name_kana": null
  },
  "0004": {
    "postcode": "3150004",
    "prefecture": "茨城県",
    "prefecture_kana": "イバラキケン",
    "prefecture_code": 8,
    "city": "石岡市",
    "city_kana": "イシオカシ",
    "town": "柏原町",
    "town_kana": "カシワバラチョウ",
    "street": null,
    "office_name": null,
    "office_name_kana": null
  },
  "0005": {
    "postcode": "3150005",
    "prefecture": "茨城県",
    "prefecture_kana": "イバラキケン",
    "prefecture_code": 8,
    "city": "石岡市",
    "city_kana": "イシオカシ",
    "town": "鹿の子",
    "town_kana": "カノコ",
    "street": null,
    "office_name": null,
    "office_name_kana": null
  },
  "0006": {
    "postcode": "3150006",
    "prefecture": "茨城県",
    "prefecture_kana": "イバラキケン",
    "prefecture_code": 8,
    "city": "石岡市",
    "city_kana": "イシオカシ",
    "town": "並木",
    "town_kana": "ナミキ",
    "street": null,
    "office_name": null,
    "office_name_kana": null
  },
  "0007": {
    "postcode": "3150007",
    "prefecture": "茨城県",
    "prefecture_kana": "イバラキケン",
    "prefecture_code": 8,
    "city": "石岡市",
    "city_kana": "イシオカシ",
    "town": "染谷",
    "town_kana": "ソメヤ",
    "street": null,
    "office_name": null,
    "office_name_kana": null
  },
  "0008": {
    "postcode": "3150008",
    "prefecture": "茨城県",
    "prefecture_kana": "イバラキケン",
    "prefecture_code": 8,
    "city": "石岡市",
    "city_kana": "イシオカシ",
    "town": "村上",
    "town_kana": "ムラカミ",
    "street": null,
    "office_name": null,
    "office_name_kana": null
  },
  "0009": {
    "postcode": "3150009",
    "prefecture": "茨城県",
    "prefecture_kana": "イバラキケン",
    "prefecture_code": 8,
    "city": "石岡市",
    "city_kana": "イシオカシ",
    "town": "大砂",
    "town_kana": "オオスナ",
    "street": null,
    "office_name": null,
    "office_name_kana": null
  },
  "0010": {
    "postcode": "3150010",
    "prefecture": "茨城県",
    "prefecture_kana": "イバラキケン",
    "prefecture_code": 8,
    "city": "石岡市",
    "city_kana": "イシオカシ",
    "town": "碁石沢",
    "town_kana": "ゴイシザワ",
    "street": null,
    "office_name": null,
    "office_name_kana": null
  },
  "0011": {
    "postcode": "3150011",
    "prefecture": "茨城県",
    "prefecture_kana": "イバラキケン",
    "prefecture_code": 8,
    "city": "石岡市",
    "city_kana": "イシオカシ",
    "town": "正上内",
    "town_kana": "ショウジョウウチ",
    "street": null,
    "office_name": null,
    "office_name_kana": null
  },
  "0012": {
    "postcode": "3150012",
    "prefecture": "茨城県",
    "prefecture_kana": "イバラキケン",
    "prefecture_code": 8,
    "city": "石岡市",
    "city_kana": "イシオカシ",
    "town": "北府中",
    "town_kana": "キタフチュウ",
    "street": null,
    "office_name": null,
    "office_name_kana": null
  },
  "0013": {
    "postcode": "3150013",
    "prefecture": "茨城県",
    "prefecture_kana": "イバラキケン",
    "prefecture_code": 8,
    "city": "石岡市",
    "city_kana": "イシオカシ",
    "town": "府中",
    "town_kana": "フチュウ",
    "street": null,
    "office_name": null,
    "office_name_kana": null
  },
  "0014": {
    "postcode": "3150014",
    "prefecture": "茨城県",
    "prefecture_kana": "イバラキケン",
    "prefecture_code": 8,
    "city": "石岡市",
    "city_kana": "イシオカシ",
    "town": "国府",
    "town_kana": "コクフ",
    "street": null,
    "office_name": null,
    "office_name_kana": null
  },
  "0015": {
    "postcode": "3150015",
    "prefecture": "茨城県",
    "prefecture_kana": "イバラキケン",
    "prefecture_code": 8,
    "city": "石岡市",
    "city_kana": "イシオカシ",
    "town": "貝地",
    "town_kana": "カイジ",
    "street": null,
    "office_name": null,
    "office_name_kana": null
  },
  "0016": {
    "postcode": "3150016",
    "prefecture": "茨城県",
    "prefecture_kana": "イバラキケン",
    "prefecture_code": 8,
    "city": "石岡市",
    "city_kana": "イシオカシ",
    "town": "総社",
    "town_kana": "ソウシャ",
    "street": null,
    "office_name": null,
    "office_name_kana": null
  },
  "0017": {
    "postcode": "3150017",
    "prefecture": "茨城県",
    "prefecture_kana": "イバラキケン",
    "prefecture_code": 8,
    "city": "石岡市",
    "city_kana": "イシオカシ",
    "town": "若宮",
    "town_kana": "ワカミヤ",
    "street": null,
    "office_name": null,
    "office_name_kana": null
  },
  "0018": {
    "postcode": "3150018",
    "prefecture": "茨城県",
    "prefecture_kana": "イバラキケン",
    "prefecture_code": 8,
    "city": "石岡市",
    "city_kana": "イシオカシ",
    "town": "若松",
    "town_kana": "ワカマツ",
    "street": null,
    "office_name": null,
    "office_name_kana": null
  },
  "0019": {
    "postcode": "3150019",
    "prefecture": "茨城県",
    "prefecture_kana": "イバラキケン",
    "prefecture_code": 8,
    "city": "石岡市",
    "city_kana": "イシオカシ",
    "town": "栄松",
    "town_kana": "サカエマツ",
    "street": null,
    "office_name": null,
    "office_name_kana": null
  },
  "0021": {
    "postcode": "3150021",
    "prefecture": "茨城県",
    "prefecture_kana": "イバラキケン",
    "prefecture_code": 8,
    "city": "石岡市",
    "city_kana": "イシオカシ",
    "town": "荒金",
    "town_kana": "アラガネ",
    "street": null,
    "office_name": null,
    "office_name_kana": null
  },
  "0022": {
    "postcode": "3150022",
    "prefecture": "茨城県",
    "prefecture_kana": "イバラキケン",
    "prefecture_code": 8,
    "city": "石岡市",
    "city_kana": "イシオカシ",
    "town": "行里川",
    "town_kana": "ナメリカワ",
    "street": null,
    "office_name": null,
    "office_name_kana": null
  },
  "0023": {
    "postcode": "3150023",
    "prefecture": "茨城県",
    "prefecture_kana": "イバラキケン",
    "prefecture_code": 8,
    "city": "石岡市",
    "city_kana": "イシオカシ",
    "town": "東府中",
    "town_kana": "ヒガシフチュウ",
    "street": null,
    "office_name": null,
    "office_name_kana": null
  },
  "0024": {
    "postcode": "3150024",
    "prefecture": "茨城県",
    "prefecture_kana": "イバラキケン",
    "prefecture_code": 8,
    "city": "石岡市",
    "city_kana": "イシオカシ",
    "town": "八軒台",
    "town_kana": "ハチケンダイ",
    "street": null,
    "office_name": null,
    "office_name_kana": null
  },
  "0025": {
    "postcode": "3150025",
    "prefecture": "茨城県",
    "prefecture_kana": "イバラキケン",
    "prefecture_code": 8,
    "city": "石岡市",
    "city_kana": "イシオカシ",
    "town": "泉町",
    "town_kana": "イズミチョウ",
    "street": null,
    "office_name": null,
    "office_name_kana": null
  },
  "0026": {
    "postcode": "3150026",
    "prefecture": "茨城県",
    "prefecture_kana": "イバラキケン",
    "prefecture_code": 8,
    "city": "石岡市",
    "city_kana": "イシオカシ",
    "town": "杉の井",
    "town_kana": "スギノイ",
    "street": null,
    "office_name": null,
    "office_name_kana": null
  },
  "0027": {
    "postcode": "3150027",
    "prefecture": "茨城県",
    "prefecture_kana": "イバラキケン",
    "prefecture_code": 8,
    "city": "石岡市",
    "city_kana": "イシオカシ",
    "town": "杉並",
    "town_kana": "スギナミ",
    "street": null,
    "office_name": null,
    "office_name_kana": null
  },
  "0028": {
    "postcode": "3150028",
    "prefecture": "茨城県",
    "prefecture_kana": "イバラキケン",
    "prefecture_code": 8,
    "city": "石岡市",
    "city_kana": "イシオカシ",
    "town": "半ノ木",
    "town_kana": "ハンノキ",
    "street": null,
    "office_name": null,
    "office_name_kana": null
  },
  "0029": {
    "postcode": "3150029",
    "prefecture": "茨城県",
    "prefecture_kana": "イバラキケン",
    "prefecture_code": 8,
    "city": "石岡市",
    "city_kana": "イシオカシ",
    "town": "根当",
    "town_kana": "ネアタリ",
    "street": null,
    "office_name": null,
    "office_name_kana": null
  },
  "0030": {
    "postcode": "3150030",
    "prefecture": "茨城県",
    "prefecture_kana": "イバラキケン",
    "prefecture_code": 8,
    "city": "石岡市",
    "city_kana": "イシオカシ",
    "town": "池の台",
    "town_kana": "イケノダイ",
    "street": null,
    "office_name": null,
    "office_name_kana": null
  },
  "0031": {
    "postcode": "3150031",
    "prefecture": "茨城県",
    "prefecture_kana": "イバラキケン",
    "prefecture_code": 8,
    "city": "石岡市",
    "city_kana": "イシオカシ",
    "town": "東大橋",
    "town_kana": "ヒガシオオハシ",
    "street": null,
    "office_name": null,
    "office_name_kana": null
  },
  "0032": {
    "postcode": "3150032",
    "prefecture": "茨城県",
    "prefecture_kana": "イバラキケン",
    "prefecture_code": 8,
    "city": "石岡市",
    "city_kana": "イシオカシ",
    "town": "小井戸",
    "town_kana": "コイド",
    "street": null,
    "office_name": null,
    "office_name_kana": null
  },
  "0033": {
    "postcode": "3150033",
    "prefecture": "茨城県",
    "prefecture_kana": "イバラキケン",
    "prefecture_code": 8,
    "city": "石岡市",
    "city_kana": "イシオカシ",
    "town": "東光台",
    "town_kana": "トウコウダイ",
    "street": null,
    "office_name": null,
    "office_name_kana": null
  },
  "0034": {
    "postcode": "3150034",
    "prefecture": "茨城県",
    "prefecture_kana": "イバラキケン",
    "prefecture_code": 8,
    "city": "石岡市",
    "city_kana": "イシオカシ",
    "town": "東田中",
    "town_kana": "ヒガシタナカ",
    "street": null,
    "office_name": null,
    "office_name_kana": null
  },
  "0035": {
    "postcode": "3150035",
    "prefecture": "茨城県",
    "prefecture_kana": "イバラキケン",
    "prefecture_code": 8,
    "city": "石岡市",
    "city_kana": "イシオカシ",
    "town": "南台",
    "town_kana": "ミナミダイ",
    "street": null,
    "office_name": null,
    "office_name_kana": null
  },
  "0036": {
    "postcode": "3150036",
    "prefecture": "茨城県",
    "prefecture_kana": "イバラキケン",
    "prefecture_code": 8,
    "city": "石岡市",
    "city_kana": "イシオカシ",
    "town": "大谷津",
    "town_kana": "オオヤツ",
    "street": null,
    "office_name": null,
    "office_name_kana": null
  },
  "0037": {
    "postcode": "3150037",
    "prefecture": "茨城県",
    "prefecture_kana": "イバラキケン",
    "prefecture_code": 8,
    "city": "石岡市",
    "city_kana": "イシオカシ",
    "town": "東石岡",
    "town_kana": "ヒガシイシオカ",
    "street": null,
    "office_name": null,
    "office_name_kana": null
  },
  "0038": {
    "postcode": "3150038",
    "prefecture": "茨城県",
    "prefecture_kana": "イバラキケン",
    "prefecture_code": 8,
    "city": "石岡市",
    "city_kana": "イシオカシ",
    "town": "旭台",
    "town_kana": "アサヒダイ",
    "street": null,
    "office_name": null,
    "office_name_kana": null
  },
  "0041": {
    "postcode": "3150041",
    "prefecture": "茨城県",
    "prefecture_kana": "イバラキケン",
    "prefecture_code": 8,
    "city": "石岡市",
    "city_kana": "イシオカシ",
    "town": "田島",
    "town_kana": "タジマ",
    "street": null,
    "office_name": null,
    "office_name_kana": null
  },
  "0042": {
    "postcode": "3150042",
    "prefecture": "茨城県",
    "prefecture_kana": "イバラキケン",
    "prefecture_code": 8,
    "city": "石岡市",
    "city_kana": "イシオカシ",
    "town": "茨城",
    "town_kana": "バラキ",
    "street": null,
    "office_name": null,
    "office_name_kana": null
  },
  "0043": {
    "postcode": "3150043",
    "prefecture": "茨城県",
    "prefecture_kana": "イバラキケン",
    "prefecture_code": 8,
    "city": "石岡市",
    "city_kana": "イシオカシ",
    "town": "中津川",
    "town_kana": "ナカツガワ",
    "street": null,
    "office_name": null,
    "office_name_kana": null
  },
  "0044": {
    "postcode": "3150044",
    "prefecture": "茨城県",
    "prefecture_kana": "イバラキケン",
    "prefecture_code": 8,
    "city": "石岡市",
    "city_kana": "イシオカシ",
    "town": "北根本",
    "town_kana": "キタネモト",
    "street": null,
    "office_name": null,
    "office_name_kana": null
  },
  "0045": {
    "postcode": "3150045",
    "prefecture": "茨城県",
    "prefecture_kana": "イバラキケン",
    "prefecture_code": 8,
    "city": "石岡市",
    "city_kana": "イシオカシ",
    "town": "高浜",
    "town_kana": "タカハマ",
    "street": null,
    "office_name": null,
    "office_name_kana": null
  },
  "0046": {
    "postcode": "3150046",
    "prefecture": "茨城県",
    "prefecture_kana": "イバラキケン",
    "prefecture_code": 8,
    "city": "石岡市",
    "city_kana": "イシオカシ",
    "town": "石川",
    "town_kana": "イシカワ",
    "street": null,
    "office_name": null,
    "office_name_kana": null
  },
  "0047": {
    "postcode": "3150047",
    "prefecture": "茨城県",
    "prefecture_kana": "イバラキケン",
    "prefecture_code": 8,
    "city": "石岡市",
    "city_kana": "イシオカシ",
    "town": "井関",
    "town_kana": "イセキ",
    "street": null,
    "office_name": null,
    "office_name_kana": null
  },
  "0048": {
    "postcode": "3150048",
    "prefecture": "茨城県",
    "prefecture_kana": "イバラキケン",
    "prefecture_code": 8,
    "city": "石岡市",
    "city_kana": "イシオカシ",
    "town": "三村",
    "town_kana": "ミムラ",
    "street": null,
    "office_name": null,
    "office_name_kana": null
  },
  "0051": {
    "postcode": "3150051",
    "prefecture": "茨城県",
    "prefecture_kana": "イバラキケン",
    "prefecture_code": 8,
    "city": "かすみがうら市",
    "city_kana": "カスミガウラシ",
    "town": "新治",
    "town_kana": "ニイハリ",
    "street": null,
    "office_name": null,
    "office_name_kana": null
  },
  "0052": {
    "postcode": "3150052",
    "prefecture": "茨城県",
    "prefecture_kana": "イバラキケン",
    "prefecture_code": 8,
    "city": "かすみがうら市",
    "city_kana": "カスミガウラシ",
    "town": "下稲吉",
    "town_kana": "シモイナヨシ",
    "street": null,
    "office_name": null,
    "office_name_kana": null
  },
  "0053": {
    "postcode": "3150053",
    "prefecture": "茨城県",
    "prefecture_kana": "イバラキケン",
    "prefecture_code": 8,
    "city": "かすみがうら市",
    "city_kana": "カスミガウラシ",
    "town": "稲吉東",
    "town_kana": "イナヨシヒガシ",
    "street": null,
    "office_name": null,
    "office_name_kana": null
  },
  "0054": {
    "postcode": "3150054",
    "prefecture": "茨城県",
    "prefecture_kana": "イバラキケン",
    "prefecture_code": 8,
    "city": "かすみがうら市",
    "city_kana": "カスミガウラシ",
    "town": "稲吉",
    "town_kana": "イナヨシ",
    "street": null,
    "office_name": null,
    "office_name_kana": null
  },
  "0055": {
    "postcode": "3150055",
    "prefecture": "茨城県",
    "prefecture_kana": "イバラキケン",
    "prefecture_code": 8,
    "city": "かすみがうら市",
    "city_kana": "カスミガウラシ",
    "town": "稲吉南",
    "town_kana": "イナヨシミナミ",
    "street": null,
    "office_name": null,
    "office_name_kana": null
  },
  "0056": {
    "postcode": "3150056",
    "prefecture": "茨城県",
    "prefecture_kana": "イバラキケン",
    "prefecture_code": 8,
    "city": "かすみがうら市",
    "city_kana": "カスミガウラシ",
    "town": "上稲吉",
    "town_kana": "カミイナヨシ",
    "street": null,
    "office_name": null,
    "office_name_kana": null
  },
  "0057": {
    "postcode": "3150057",
    "prefecture": "茨城県",
    "prefecture_kana": "イバラキケン",
    "prefecture_code": 8,
    "city": "かすみがうら市",
    "city_kana": "カスミガウラシ",
    "town": "上土田",
    "town_kana": "カミツチダ",
    "street": null,
    "office_name": null,
    "office_name_kana": null
  },
  "0058": {
    "postcode": "3150058",
    "prefecture": "茨城県",
    "prefecture_kana": "イバラキケン",
    "prefecture_code": 8,
    "city": "かすみがうら市",
    "city_kana": "カスミガウラシ",
    "town": "下土田",
    "town_kana": "シモツチダ",
    "street": null,
    "office_name": null,
    "office_name_kana": null
  },
  "0061": {
    "postcode": "3150061",
    "prefecture": "茨城県",
    "prefecture_kana": "イバラキケン",
    "prefecture_code": 8,
    "city": "かすみがうら市",
    "city_kana": "カスミガウラシ",
    "town": "五反田",
    "town_kana": "ゴタンダ",
    "street": null,
    "office_name": null,
    "office_name_kana": null
  },
  "0062": {
    "postcode": "3150062",
    "prefecture": "茨城県",
    "prefecture_kana": "イバラキケン",
    "prefecture_code": 8,
    "city": "かすみがうら市",
    "city_kana": "カスミガウラシ",
    "town": "横堀",
    "town_kana": "ヨコボリ",
    "street": null,
    "office_name": null,
    "office_name_kana": null
  },
  "0063": {
    "postcode": "3150063",
    "prefecture": "茨城県",
    "prefecture_kana": "イバラキケン",
    "prefecture_code": 8,
    "city": "かすみがうら市",
    "city_kana": "カスミガウラシ",
    "town": "飯田",
    "town_kana": "イイダ",
    "street": null,
    "office_name": null,
    "office_name_kana": null
  },
  "0064": {
    "postcode": "3150064",
    "prefecture": "茨城県",
    "prefecture_kana": "イバラキケン",
    "prefecture_code": 8,
    "city": "かすみがうら市",
    "city_kana": "カスミガウラシ",
    "town": "大峰",
    "town_kana": "オオミネ",
    "street": null,
    "office_name": null,
    "office_name_kana": null
  },
  "0065": {
    "postcode": "3150065",
    "prefecture": "茨城県",
    "prefecture_kana": "イバラキケン",
    "prefecture_code": 8,
    "city": "かすみがうら市",
    "city_kana": "カスミガウラシ",
    "town": "上佐谷",
    "town_kana": "カミサヤ",
    "street": null,
    "office_name": null,
    "office_name_kana": null
  },
  "0066": {
    "postcode": "3150066",
    "prefecture": "茨城県",
    "prefecture_kana": "イバラキケン",
    "prefecture_code": 8,
    "city": "かすみがうら市",
    "city_kana": "カスミガウラシ",
    "town": "中佐谷",
    "town_kana": "ナカサヤ",
    "street": null,
    "office_name": null,
    "office_name_kana": null
  },
  "0067": {
    "postcode": "3150067",
    "prefecture": "茨城県",
    "prefecture_kana": "イバラキケン",
    "prefecture_code": 8,
    "city": "かすみがうら市",
    "city_kana": "カスミガウラシ",
    "town": "下佐谷",
    "town_kana": "シモサヤ",
    "street": null,
    "office_name": null,
    "office_name_kana": null
  },
  "0068": {
    "postcode": "3150068",
    "prefecture": "茨城県",
    "prefecture_kana": "イバラキケン",
    "prefecture_code": 8,
    "city": "かすみがうら市",
    "city_kana": "カスミガウラシ",
    "town": "山本",
    "town_kana": "ヤマモト",
    "street": null,
    "office_name": null,
    "office_name_kana": null
  },
  "0069": {
    "postcode": "3150069",
    "prefecture": "茨城県",
    "prefecture_kana": "イバラキケン",
    "prefecture_code": 8,
    "city": "かすみがうら市",
    "city_kana": "カスミガウラシ",
    "town": "雪入",
    "town_kana": "ユキイリ",
    "street": null,
    "office_name": null,
    "office_name_kana": null
  },
  "0071": {
    "postcode": "3150071",
    "prefecture": "茨城県",
    "prefecture_kana": "イバラキケン",
    "prefecture_code": 8,
    "city": "かすみがうら市",
    "city_kana": "カスミガウラシ",
    "town": "市川",
    "town_kana": "イチカワ",
    "street": null,
    "office_name": null,
    "office_name_kana": null
  },
  "0072": {
    "postcode": "3150072",
    "prefecture": "茨城県",
    "prefecture_kana": "イバラキケン",
    "prefecture_code": 8,
    "city": "かすみがうら市",
    "city_kana": "カスミガウラシ",
    "town": "東野寺",
    "town_kana": "ヒガシノデラ",
    "street": null,
    "office_name": null,
    "office_name_kana": null
  },
  "0073": {
    "postcode": "3150073",
    "prefecture": "茨城県",
    "prefecture_kana": "イバラキケン",
    "prefecture_code": 8,
    "city": "かすみがうら市",
    "city_kana": "カスミガウラシ",
    "town": "西野寺",
    "town_kana": "ニシノデラ",
    "street": null,
    "office_name": null,
    "office_name_kana": null
  },
  "0074": {
    "postcode": "3150074",
    "prefecture": "茨城県",
    "prefecture_kana": "イバラキケン",
    "prefecture_code": 8,
    "city": "かすみがうら市",
    "city_kana": "カスミガウラシ",
    "town": "下志筑",
    "town_kana": "シモシヅク",
    "street": null,
    "office_name": null,
    "office_name_kana": null
  },
  "0075": {
    "postcode": "3150075",
    "prefecture": "茨城県",
    "prefecture_kana": "イバラキケン",
    "prefecture_code": 8,
    "city": "かすみがうら市",
    "city_kana": "カスミガウラシ",
    "town": "中志筑",
    "town_kana": "ナカシヅク",
    "street": null,
    "office_name": null,
    "office_name_kana": null
  },
  "0076": {
    "postcode": "3150076",
    "prefecture": "茨城県",
    "prefecture_kana": "イバラキケン",
    "prefecture_code": 8,
    "city": "かすみがうら市",
    "city_kana": "カスミガウラシ",
    "town": "上志筑",
    "town_kana": "カミシヅク",
    "street": null,
    "office_name": null,
    "office_name_kana": null
  },
  "0077": {
    "postcode": "3150077",
    "prefecture": "茨城県",
    "prefecture_kana": "イバラキケン",
    "prefecture_code": 8,
    "city": "かすみがうら市",
    "city_kana": "カスミガウラシ",
    "town": "高倉",
    "town_kana": "タカクラ",
    "street": null,
    "office_name": null,
    "office_name_kana": null
  },
  "0078": {
    "postcode": "3150078",
    "prefecture": "茨城県",
    "prefecture_kana": "イバラキケン",
    "prefecture_code": 8,
    "city": "かすみがうら市",
    "city_kana": "カスミガウラシ",
    "town": "粟田",
    "town_kana": "アワダ",
    "street": null,
    "office_name": null,
    "office_name_kana": null
  },
  "0101": {
    "postcode": "3150101",
    "prefecture": "茨城県",
    "prefecture_kana": "イバラキケン",
    "prefecture_code": 8,
    "city": "石岡市",
    "city_kana": "イシオカシ",
    "town": "大増",
    "town_kana": "オオマス",
    "street": null,
    "office_name": null,
    "office_name_kana": null
  },
  "0102": {
    "postcode": "3150102",
    "prefecture": "茨城県",
    "prefecture_kana": "イバラキケン",
    "prefecture_code": 8,
    "city": "石岡市",
    "city_kana": "イシオカシ",
    "town": "太田",
    "town_kana": "オオタ",
    "street": null,
    "office_name": null,
    "office_name_kana": null
  },
  "0103": {
    "postcode": "3150103",
    "prefecture": "茨城県",
    "prefecture_kana": "イバラキケン",
    "prefecture_code": 8,
    "city": "石岡市",
    "city_kana": "イシオカシ",
    "town": "中戸",
    "town_kana": "ナカド",
    "street": null,
    "office_name": null,
    "office_name_kana": null
  },
  "0104": {
    "postcode": "3150104",
    "prefecture": "茨城県",
    "prefecture_kana": "イバラキケン",
    "prefecture_code": 8,
    "city": "石岡市",
    "city_kana": "イシオカシ",
    "town": "小見",
    "town_kana": "オミ",
    "street": null,
    "office_name": null,
    "office_name_kana": null
  },
  "0105": {
    "postcode": "3150105",
    "prefecture": "茨城県",
    "prefecture_kana": "イバラキケン",
    "prefecture_code": 8,
    "city": "石岡市",
    "city_kana": "イシオカシ",
    "town": "大塚",
    "town_kana": "オオツカ",
    "street": null,
    "office_name": null,
    "office_name_kana": null
  },
  "0111": {
    "postcode": "3150111",
    "prefecture": "茨城県",
    "prefecture_kana": "イバラキケン",
    "prefecture_code": 8,
    "city": "石岡市",
    "city_kana": "イシオカシ",
    "town": "瓦谷",
    "town_kana": "カワラヤ",
    "street": null,
    "office_name": null,
    "office_name_kana": null
  },
  "0112": {
    "postcode": "3150112",
    "prefecture": "茨城県",
    "prefecture_kana": "イバラキケン",
    "prefecture_code": 8,
    "city": "石岡市",
    "city_kana": "イシオカシ",
    "town": "部原",
    "town_kana": "ヘバラ",
    "street": null,
    "office_name": null,
    "office_name_kana": null
  },
  "0113": {
    "postcode": "3150113",
    "prefecture": "茨城県",
    "prefecture_kana": "イバラキケン",
    "prefecture_code": 8,
    "city": "石岡市",
    "city_kana": "イシオカシ",
    "town": "片岡",
    "town_kana": "カタオカ",
    "street": null,
    "office_name": null,
    "office_name_kana": null
  },
  "0114": {
    "postcode": "3150114",
    "prefecture": "茨城県",
    "prefecture_kana": "イバラキケン",
    "prefecture_code": 8,
    "city": "石岡市",
    "city_kana": "イシオカシ",
    "town": "嘉良寿理",
    "town_kana": "カラスリ",
    "street": null,
    "office_name": null,
    "office_name_kana": null
  },
  "0115": {
    "postcode": "3150115",
    "prefecture": "茨城県",
    "prefecture_kana": "イバラキケン",
    "prefecture_code": 8,
    "city": "石岡市",
    "city_kana": "イシオカシ",
    "town": "浦須",
    "town_kana": "ウラス",
    "street": null,
    "office_name": null,
    "office_name_kana": null
  },
  "0116": {
    "postcode": "3150116",
    "prefecture": "茨城県",
    "prefecture_kana": "イバラキケン",
    "prefecture_code": 8,
    "city": "石岡市",
    "city_kana": "イシオカシ",
    "town": "柿岡",
    "town_kana": "カキオカ",
    "street": null,
    "office_name": null,
    "office_name_kana": null
  },
  "0117": {
    "postcode": "3150117",
    "prefecture": "茨城県",
    "prefecture_kana": "イバラキケン",
    "prefecture_code": 8,
    "city": "石岡市",
    "city_kana": "イシオカシ",
    "town": "佐久",
    "town_kana": "サク",
    "street": null,
    "office_name": null,
    "office_name_kana": null
  },
  "0118": {
    "postcode": "3150118",
    "prefecture": "茨城県",
    "prefecture_kana": "イバラキケン",
    "prefecture_code": 8,
    "city": "石岡市",
    "city_kana": "イシオカシ",
    "town": "野田",
    "town_kana": "ノダ",
    "street": null,
    "office_name": null,
    "office_name_kana": null
  },
  "0121": {
    "postcode": "3150121",
    "prefecture": "茨城県",
    "prefecture_kana": "イバラキケン",
    "prefecture_code": 8,
    "city": "石岡市",
    "city_kana": "イシオカシ",
    "town": "真家",
    "town_kana": "マイエ",
    "street": null,
    "office_name": null,
    "office_name_kana": null
  },
  "0122": {
    "postcode": "3150122",
    "prefecture": "茨城県",
    "prefecture_kana": "イバラキケン",
    "prefecture_code": 8,
    "city": "石岡市",
    "city_kana": "イシオカシ",
    "town": "東成井",
    "town_kana": "ヒガシナルイ",
    "street": null,
    "office_name": null,
    "office_name_kana": null
  },
  "0123": {
    "postcode": "3150123",
    "prefecture": "茨城県",
    "prefecture_kana": "イバラキケン",
    "prefecture_code": 8,
    "city": "石岡市",
    "city_kana": "イシオカシ",
    "town": "宮ケ崎",
    "town_kana": "ミヤガサキ",
    "street": null,
    "office_name": null,
    "office_name_kana": null
  },
  "0124": {
    "postcode": "3150124",
    "prefecture": "茨城県",
    "prefecture_kana": "イバラキケン",
    "prefecture_code": 8,
    "city": "石岡市",
    "city_kana": "イシオカシ",
    "town": "柴間",
    "town_kana": "シバマ",
    "street": null,
    "office_name": null,
    "office_name_kana": null
  },
  "0125": {
    "postcode": "3150125",
    "prefecture": "茨城県",
    "prefecture_kana": "イバラキケン",
    "prefecture_code": 8,
    "city": "石岡市",
    "city_kana": "イシオカシ",
    "town": "山崎",
    "town_kana": "ヤマザキ",
    "street": null,
    "office_name": null,
    "office_name_kana": null
  },
  "0131": {
    "postcode": "3150131",
    "prefecture": "茨城県",
    "prefecture_kana": "イバラキケン",
    "prefecture_code": 8,
    "city": "石岡市",
    "city_kana": "イシオカシ",
    "town": "下林",
    "town_kana": "シモバヤシ",
    "street": null,
    "office_name": null,
    "office_name_kana": null
  },
  "0132": {
    "postcode": "3150132",
    "prefecture": "茨城県",
    "prefecture_kana": "イバラキケン",
    "prefecture_code": 8,
    "city": "石岡市",
    "city_kana": "イシオカシ",
    "town": "根小屋",
    "town_kana": "ネゴヤ",
    "street": null,
    "office_name": null,
    "office_name_kana": null
  },
  "0133": {
    "postcode": "3150133",
    "prefecture": "茨城県",
    "prefecture_kana": "イバラキケン",
    "prefecture_code": 8,
    "city": "石岡市",
    "city_kana": "イシオカシ",
    "town": "半田",
    "town_kana": "ハンダ",
    "street": null,
    "office_name": null,
    "office_name_kana": null
  },
  "0134": {
    "postcode": "3150134",
    "prefecture": "茨城県",
    "prefecture_kana": "イバラキケン",
    "prefecture_code": 8,
    "city": "石岡市",
    "city_kana": "イシオカシ",
    "town": "川又",
    "town_kana": "カワマタ",
    "street": null,
    "office_name": null,
    "office_name_kana": null
  },
  "0135": {
    "postcode": "3150135",
    "prefecture": "茨城県",
    "prefecture_kana": "イバラキケン",
    "prefecture_code": 8,
    "city": "石岡市",
    "city_kana": "イシオカシ",
    "town": "加生野",
    "town_kana": "カヨウノ",
    "street": null,
    "office_name": null,
    "office_name_kana": null
  },
  "0136": {
    "postcode": "3150136",
    "prefecture": "茨城県",
    "prefecture_kana": "イバラキケン",
    "prefecture_code": 8,
    "city": "石岡市",
    "city_kana": "イシオカシ",
    "town": "片野",
    "town_kana": "カタノ",
    "street": null,
    "office_name": null,
    "office_name_kana": null
  },
  "0137": {
    "postcode": "3150137",
    "prefecture": "茨城県",
    "prefecture_kana": "イバラキケン",
    "prefecture_code": 8,
    "city": "石岡市",
    "city_kana": "イシオカシ",
    "town": "金指",
    "town_kana": "カナサシ",
    "street": null,
    "office_name": null,
    "office_name_kana": null
  },
  "0138": {
    "postcode": "3150138",
    "prefecture": "茨城県",
    "prefecture_kana": "イバラキケン",
    "prefecture_code": 8,
    "city": "石岡市",
    "city_kana": "イシオカシ",
    "town": "上林",
    "town_kana": "カミバヤシ",
    "street": null,
    "office_name": null,
    "office_name_kana": null
  },
  "0141": {
    "postcode": "3150141",
    "prefecture": "茨城県",
    "prefecture_kana": "イバラキケン",
    "prefecture_code": 8,
    "city": "石岡市",
    "city_kana": "イシオカシ",
    "town": "月岡",
    "town_kana": "ツキオカ",
    "street": null,
    "office_name": null,
    "office_name_kana": null
  },
  "0142": {
    "postcode": "3150142",
    "prefecture": "茨城県",
    "prefecture_kana": "イバラキケン",
    "prefecture_code": 8,
    "city": "石岡市",
    "city_kana": "イシオカシ",
    "town": "弓弦",
    "town_kana": "ユヅリ",
    "street": null,
    "office_name": null,
    "office_name_kana": null
  },
  "0143": {
    "postcode": "3150143",
    "prefecture": "茨城県",
    "prefecture_kana": "イバラキケン",
    "prefecture_code": 8,
    "city": "石岡市",
    "city_kana": "イシオカシ",
    "town": "柴内",
    "town_kana": "シバウチ",
    "street": null,
    "office_name": null,
    "office_name_kana": null
  },
  "0144": {
    "postcode": "3150144",
    "prefecture": "茨城県",
    "prefecture_kana": "イバラキケン",
    "prefecture_code": 8,
    "city": "石岡市",
    "city_kana": "イシオカシ",
    "town": "小野越",
    "town_kana": "オノゴエ",
    "street": null,
    "office_name": null,
    "office_name_kana": null
  },
  "0145": {
    "postcode": "3150145",
    "prefecture": "茨城県",
    "prefecture_kana": "イバラキケン",
    "prefecture_code": 8,
    "city": "石岡市",
    "city_kana": "イシオカシ",
    "town": "仏生寺",
    "town_kana": "ブッショウジ",
    "street": null,
    "office_name": null,
    "office_name_kana": null
  },
  "0146": {
    "postcode": "3150146",
    "prefecture": "茨城県",
    "prefecture_kana": "イバラキケン",
    "prefecture_code": 8,
    "city": "石岡市",
    "city_kana": "イシオカシ",
    "town": "菖蒲沢",
    "town_kana": "ショウブザワ",
    "street": null,
    "office_name": null,
    "office_name_kana": null
  },
  "0147": {
    "postcode": "3150147",
    "prefecture": "茨城県",
    "prefecture_kana": "イバラキケン",
    "prefecture_code": 8,
    "city": "石岡市",
    "city_kana": "イシオカシ",
    "town": "辻",
    "town_kana": "ツジ",
    "street": null,
    "office_name": null,
    "office_name_kana": null
  },
  "0148": {
    "postcode": "3150148",
    "prefecture": "茨城県",
    "prefecture_kana": "イバラキケン",
    "prefecture_code": 8,
    "city": "石岡市",
    "city_kana": "イシオカシ",
    "town": "青田",
    "town_kana": "アオタ",
    "street": null,
    "office_name": null,
    "office_name_kana": null
  },
  "0151": {
    "postcode": "3150151",
    "prefecture": "茨城県",
    "prefecture_kana": "イバラキケン",
    "prefecture_code": 8,
    "city": "石岡市",
    "city_kana": "イシオカシ",
    "town": "須釜",
    "town_kana": "スガマ",
    "street": null,
    "office_name": null,
    "office_name_kana": null
  },
  "0152": {
    "postcode": "3150152",
    "prefecture": "茨城県",
    "prefecture_kana": "イバラキケン",
    "prefecture_code": 8,
    "city": "石岡市",
    "city_kana": "イシオカシ",
    "town": "細谷",
    "town_kana": "ホソヤ",
    "street": null,
    "office_name": null,
    "office_name_kana": null
  },
  "0153": {
    "postcode": "3150153",
    "prefecture": "茨城県",
    "prefecture_kana": "イバラキケン",
    "prefecture_code": 8,
    "city": "石岡市",
    "city_kana": "イシオカシ",
    "town": "下青柳",
    "town_kana": "シモアオヤギ",
    "street": null,
    "office_name": null,
    "office_name_kana": null
  },
  "0154": {
    "postcode": "3150154",
    "prefecture": "茨城県",
    "prefecture_kana": "イバラキケン",
    "prefecture_code": 8,
    "city": "石岡市",
    "city_kana": "イシオカシ",
    "town": "上青柳",
    "town_kana": "カミアオヤギ",
    "street": null,
    "office_name": null,
    "office_name_kana": null
  },
  "0155": {
    "postcode": "3150155",
    "prefecture": "茨城県",
    "prefecture_kana": "イバラキケン",
    "prefecture_code": 8,
    "city": "石岡市",
    "city_kana": "イシオカシ",
    "town": "小幡",
    "town_kana": "オバタ",
    "street": null,
    "office_name": null,
    "office_name_kana": null
  },
  "0156": {
    "postcode": "3150156",
    "prefecture": "茨城県",
    "prefecture_kana": "イバラキケン",
    "prefecture_code": 8,
    "city": "石岡市",
    "city_kana": "イシオカシ",
    "town": "吉生",
    "town_kana": "ヨシウ",
    "street": null,
    "office_name": null,
    "office_name_kana": null
  },
  "0157": {
    "postcode": "3150157",
    "prefecture": "茨城県",
    "prefecture_kana": "イバラキケン",
    "prefecture_code": 8,
    "city": "石岡市",
    "city_kana": "イシオカシ",
    "town": "上曽",
    "town_kana": "ウワソ",
    "street": null,
    "office_name": null,
    "office_name_kana": null
  },
  "0161": {
    "postcode": "3150161",
    "prefecture": "茨城県",
    "prefecture_kana": "イバラキケン",
    "prefecture_code": 8,
    "city": "石岡市",
    "city_kana": "イシオカシ",
    "town": "小塙",
    "town_kana": "コバナ",
    "street": null,
    "office_name": null,
    "office_name_kana": null
  },
  "0162": {
    "postcode": "3150162",
    "prefecture": "茨城県",
    "prefecture_kana": "イバラキケン",
    "prefecture_code": 8,
    "city": "石岡市",
    "city_kana": "イシオカシ",
    "town": "宇治会",
    "town_kana": "ウジエ",
    "street": null,
    "office_name": null,
    "office_name_kana": null
  },
  "0163": {
    "postcode": "3150163",
    "prefecture": "茨城県",
    "prefecture_kana": "イバラキケン",
    "prefecture_code": 8,
    "city": "石岡市",
    "city_kana": "イシオカシ",
    "town": "鯨岡",
    "town_kana": "クジラオカ",
    "street": null,
    "office_name": null,
    "office_name_kana": null
  },
  "0164": {
    "postcode": "3150164",
    "prefecture": "茨城県",
    "prefecture_kana": "イバラキケン",
    "prefecture_code": 8,
    "city": "石岡市",
    "city_kana": "イシオカシ",
    "town": "小屋",
    "town_kana": "コヤ",
    "street": null,
    "office_name": null,
    "office_name_kana": null
  },
  "0165": {
    "postcode": "3150165",
    "prefecture": "茨城県",
    "prefecture_kana": "イバラキケン",
    "prefecture_code": 8,
    "city": "石岡市",
    "city_kana": "イシオカシ",
    "town": "小倉",
    "town_kana": "オグラ",
    "street": null,
    "office_name": null,
    "office_name_kana": null
  },
  "0166": {
    "postcode": "3150166",
    "prefecture": "茨城県",
    "prefecture_kana": "イバラキケン",
    "prefecture_code": 8,
    "city": "石岡市",
    "city_kana": "イシオカシ",
    "town": "小山田",
    "town_kana": "オヤマダ",
    "street": null,
    "office_name": null,
    "office_name_kana": null
  },
  "0167": {
    "postcode": "3150167",
    "prefecture": "茨城県",
    "prefecture_kana": "イバラキケン",
    "prefecture_code": 8,
    "city": "石岡市",
    "city_kana": "イシオカシ",
    "town": "龍明",
    "town_kana": "リュウメイ",
    "street": null,
    "office_name": null,
    "office_name_kana": null
  },
  "0195": {
    "postcode": "3150195",
    "prefecture": "茨城県",
    "prefecture_kana": "イバラキケン",
    "prefecture_code": 8,
    "city": "石岡市",
    "city_kana": "イシオカシ",
    "town": "柿岡",
    "town_kana": "カキオカ",
    "street": "５６８０−１",
    "office_name": "八郷総合支所",
    "office_name_kana": "ヤサトソウゴウシシヨ"
  },
  "8511": {
    "postcode": "3158511",
    "prefecture": "茨城県",
    "prefecture_kana": "イバラキケン",
    "prefecture_code": 8,
    "city": "石岡市",
    "city_kana": "イシオカシ",
    "town": "荒金",
    "town_kana": "アラガネ",
    "street": "１−１",
    "office_name": "東日電線　株式会社",
    "office_name_kana": "トウニチデンセン カブシキガイシヤ"
  },
  "8512": {
    "postcode": "3158512",
    "prefecture": "茨城県",
    "prefecture_kana": "イバラキケン",
    "prefecture_code": 8,
    "city": "かすみがうら市",
    "city_kana": "カスミガウラシ",
    "town": "上土田",
    "town_kana": "カミツチダ",
    "street": "４６１",
    "office_name": "かすみがうら市役所　千代田庁舎",
    "office_name_kana": "カスミガウラシヤクシヨ チヨダチヨウシヤ"
  },
  "8513": {
    "postcode": "3158513",
    "prefecture": "茨城県",
    "prefecture_kana": "イバラキケン",
    "prefecture_code": 8,
    "city": "かすみがうら市",
    "city_kana": "カスミガウラシ",
    "town": "下稲吉",
    "town_kana": "シモイナヨシ",
    "street": "２５９１番地",
    "office_name": "東洋平成ポリマー　株式会社",
    "office_name_kana": "トウヨウヘイセイポリマ- カブシキガイシヤ"
  },
  "8514": {
    "postcode": "3158514",
    "prefecture": "茨城県",
    "prefecture_kana": "イバラキケン",
    "prefecture_code": 8,
    "city": "かすみがうら市",
    "city_kana": "カスミガウラシ",
    "town": "下稲吉",
    "town_kana": "シモイナヨシ",
    "street": "２６３３番地１９",
    "office_name": "かすみがうら市役所　中央庁舎",
    "office_name_kana": "カスミガウラシヤクシヨ チユウオウチヨウシヤ"
  },
  "8516": {
    "postcode": "3158516",
    "prefecture": "茨城県",
    "prefecture_kana": "イバラキケン",
    "prefecture_code": 8,
    "city": "かすみがうら市",
    "city_kana": "カスミガウラシ",
    "town": "上稲吉",
    "town_kana": "カミイナヨシ",
    "street": "字東清水２０４５番地３",
    "office_name": "入江工営　株式会社",
    "office_name_kana": "イリエコウエイ カブシキガイシヤ"
  },
  "8518": {
    "postcode": "3158518",
    "prefecture": "茨城県",
    "prefecture_kana": "イバラキケン",
    "prefecture_code": 8,
    "city": "かすみがうら市",
    "city_kana": "カスミガウラシ",
    "town": "上稲吉",
    "town_kana": "カミイナヨシ",
    "street": "２０４６番地１",
    "office_name": "マグ・イゾベール　株式会社　土浦工場",
    "office_name_kana": "マグ・イゾベ-ル カブシキガイシヤ ツチウラコウジヨウ"
  },
  "8522": {
    "postcode": "3158522",
    "prefecture": "茨城県",
    "prefecture_kana": "イバラキケン",
    "prefecture_code": 8,
    "city": "石岡市",
    "city_kana": "イシオカシ",
    "town": "田島",
    "town_kana": "タジマ",
    "street": "２丁目６−４",
    "office_name": "湖北水道企業団",
    "office_name_kana": "コホクスイドウキギヨウダン"
  },
  "8523": {
    "postcode": "3158523",
    "prefecture": "茨城県",
    "prefecture_kana": "イバラキケン",
    "prefecture_code": 8,
    "city": "かすみがうら市",
    "city_kana": "カスミガウラシ",
    "town": "上稲吉",
    "town_kana": "カミイナヨシ",
    "street": "字向原１７５８番地１",
    "office_name": "神鋼ノース　株式会社",
    "office_name_kana": "シンコウノ-ス カブシキガイシヤ"
  },
  "8525": {
    "postcode": "3158525",
    "prefecture": "茨城県",
    "prefecture_kana": "イバラキケン",
    "prefecture_code": 8,
    "city": "かすみがうら市",
    "city_kana": "カスミガウラシ",
    "town": "上稲吉",
    "town_kana": "カミイナヨシ",
    "street": "１９４３−９２",
    "office_name": "日本板硝子関東販売　株式会社",
    "office_name_kana": "ニホンイタガラスカントウハンバイ カブシキガイシヤ"
  },
  "8527": {
    "postcode": "3158527",
    "prefecture": "茨城県",
    "prefecture_kana": "イバラキケン",
    "prefecture_code": 8,
    "city": "石岡市",
    "city_kana": "イシオカシ",
    "town": "若松",
    "town_kana": "ワカマツ",
    "street": "一丁目３番２６号",
    "office_name": "株式会社　武井工業所",
    "office_name_kana": "カブシキガイシヤ タケイコウギヨウシヨ"
  },
  "8585": {
    "postcode": "3158585",
    "prefecture": "茨城県",
    "prefecture_kana": "イバラキケン",
    "prefecture_code": 8,
    "city": "石岡市",
    "city_kana": "イシオカシ",
    "town": "大字柏原",
    "town_kana": null,
    "street": "８−２",
    "office_name": "東洋製罐　株式会社　石岡工場",
    "office_name_kana": "トウヨウセイカン カブシキガイシヤ イシオカコウジヨウ"
  },
  "8640": {
    "postcode": "3158640",
    "prefecture": "茨城県",
    "prefecture_kana": "イバラキケン",
    "prefecture_code": 8,
    "city": "石岡市",
    "city_kana": "イシオカシ",
    "town": "石岡",
    "town_kana": "イシオカ",
    "street": "３１６５−２（石岡郵便局私書箱第１号）",
    "office_name": "石岡市役所",
    "office_name_kana": "イシオカシヤクシヨ"
  }
}