{
  "0000": {
    "postcode": "3180000",
    "prefecture": "茨城県",
    "prefecture_kana": "イバラキケン",
    "prefecture_code": 8,
    "city": "高萩市",
    "city_kana": "タカハギシ",
    "town": "",
    "town_kana": "",
    "street": null,
    "office_name": null,
    "office_name_kana": null
  },
  "0001": {
    "postcode": "3180001",
    "prefecture": "茨城県",
    "prefecture_kana": "イバラキケン",
    "prefecture_code": 8,
    "city": "高萩市",
    "city_kana": "タカハギシ",
    "town": "赤浜",
    "town_kana": "アカハマ",
    "street": null,
    "office_name": null,
    "office_name_kana": null
  },
  "0002": {
    "postcode": "3180002",
    "prefecture": "茨城県",
    "prefecture_kana": "イバラキケン",
    "prefecture_code": 8,
    "city": "高萩市",
    "city_kana": "タカハギシ",
    "town": "高戸",
    "town_kana": "タカド",
    "street": null,
    "office_name": null,
    "office_name_kana": null
  },
  "0003": {
    "postcode": "3180003",
    "prefecture": "茨城県",
    "prefecture_kana": "イバラキケン",
    "prefecture_code": 8,
    "city": "高萩市",
    "city_kana": "タカハギシ",
    "town": "下手綱",
    "town_kana": "シモテヅナ",
    "street": null,
    "office_name": null,
    "office_name_kana": null
  },
  "0004": {
    "postcode": "3180004",
    "prefecture": "茨城県",
    "prefecture_kana": "イバラキケン",
    "prefecture_code": 8,
    "city": "高萩市",
    "city_kana": "タカハギシ",
    "town": "上手綱",
    "town_kana": "カミテヅナ",
    "street": null,
    "office_name": null,
    "office_name_kana": null
  },
  "0005": {
    "postcode": "3180005",
    "prefecture": "茨城県",
    "prefecture_kana": "イバラキケン",
    "prefecture_code": 8,
    "city": "高萩市",
    "city_kana": "タカハギシ",
    "town": "望海",
    "town_kana": "ボウカイ",
    "street": null,
    "office_name": null,
    "office_name_kana": null
  },
  "0011": {
    "postcode": "3180011",
    "prefecture": "茨城県",
    "prefecture_kana": "イバラキケン",
    "prefecture_code": 8,
    "city": "高萩市",
    "city_kana": "タカハギシ",
    "town": "肥前町",
    "town_kana": "ヒゼンチョウ",
    "street": null,
    "office_name": null,
    "office_name_kana": null
  },
  "0012": {
    "postcode": "3180012",
    "prefecture": "茨城県",
    "prefecture_kana": "イバラキケン",
    "prefecture_code": 8,
    "city": "高萩市",
    "city_kana": "タカハギシ",
    "town": "有明町",
    "town_kana": "アリアケチョウ",
    "street": null,
    "office_name": null,
    "office_name_kana": null
  },
  "0013": {
    "postcode": "3180013",
    "prefecture": "茨城県",
    "prefecture_kana": "イバラキケン",
    "prefecture_code": 8,
    "city": "高萩市",
    "city_kana": "タカハギシ",
    "town": "高浜町",
    "town_kana": "タカハマチョウ",
    "street": null,
    "office_name": null,
    "office_name_kana": null
  },
  "0014": {
    "postcode": "3180014",
    "prefecture": "茨城県",
    "prefecture_kana": "イバラキケン",
    "prefecture_code": 8,
    "city": "高萩市",
    "city_kana": "タカハギシ",
    "town": "東本町",
    "town_kana": "ヒガシホンチョウ",
    "street": null,
    "office_name": null,
    "office_name_kana": null
  },
  "0021": {
    "postcode": "3180021",
    "prefecture": "茨城県",
    "prefecture_kana": "イバラキケン",
    "prefecture_code": 8,
    "city": "高萩市",
    "city_kana": "タカハギシ",
    "town": "安良川",
    "town_kana": "アラカワ",
    "street": null,
    "office_name": null,
    "office_name_kana": null
  },
  "0022": {
    "postcode": "3180022",
    "prefecture": "茨城県",
    "prefecture_kana": "イバラキケン",
    "prefecture_code": 8,
    "city": "高萩市",
    "city_kana": "タカハギシ",
    "town": "石滝",
    "town_kana": "イシタキ",
    "street": null,
    "office_name": null,
    "office_name_kana": null
  },
  "0023": {
    "postcode": "3180023",
    "prefecture": "茨城県",
    "prefecture_kana": "イバラキケン",
    "prefecture_code": 8,
    "city": "高萩市",
    "city_kana": "タカハギシ",
    "town": "島名",
    "town_kana": "シマナ",
    "street": null,
    "office_name": null,
    "office_name_kana": null
  },
  "0024": {
    "postcode": "3180024",
    "prefecture": "茨城県",
    "prefecture_kana": "イバラキケン",
    "prefecture_code": 8,
    "city": "高萩市",
    "city_kana": "タカハギシ",
    "town": "秋山",
    "town_kana": "アキヤマ",
    "street": null,
    "office_name": null,
    "office_name_kana": null
  },
  "0025": {
    "postcode": "3180025",
    "prefecture": "茨城県",
    "prefecture_kana": "イバラキケン",
    "prefecture_code": 8,
    "city": "高萩市",
    "city_kana": "タカハギシ",
    "town": "福平",
    "town_kana": "フクダイラ",
    "street": null,
    "office_name": null,
    "office_name_kana": null
  },
  "0031": {
    "postcode": "3180031",
    "prefecture": "茨城県",
    "prefecture_kana": "イバラキケン",
    "prefecture_code": 8,
    "city": "高萩市",
    "city_kana": "タカハギシ",
    "town": "春日町",
    "town_kana": "カスガチョウ",
    "street": null,
    "office_name": null,
    "office_name_kana": null
  },
  "0032": {
    "postcode": "3180032",
    "prefecture": "茨城県",
    "prefecture_kana": "イバラキケン",
    "prefecture_code": 8,
    "city": "高萩市",
    "city_kana": "タカハギシ",
    "town": "大和町",
    "town_kana": "ヤマトチョウ",
    "street": null,
    "office_name": null,
    "office_name_kana": null
  },
  "0033": {
    "postcode": "3180033",
    "prefecture": "茨城県",
    "prefecture_kana": "イバラキケン",
    "prefecture_code": 8,
    "city": "高萩市",
    "city_kana": "タカハギシ",
    "town": "本町",
    "town_kana": "ホンチョウ",
    "street": null,
    "office_name": null,
    "office_name_kana": null
  },
  "0034": {
    "postcode": "3180034",
    "prefecture": "茨城県",
    "prefecture_kana": "イバラキケン",
    "prefecture_code": 8,
    "city": "高萩市",
    "city_kana": "タカハギシ",
    "town": "高萩",
    "town_kana": "タカハギ",
    "street": null,
    "office_name": null,
    "office_name_kana": null
  },
  "0101": {
    "postcode": "3180101",
    "prefecture": "茨城県",
    "prefecture_kana": "イバラキケン",
    "prefecture_code": 8,
    "city": "高萩市",
    "city_kana": "タカハギシ",
    "town": "横川",
    "town_kana": "ヨコカワ",
    "street": null,
    "office_name": null,
    "office_name_kana": null
  },
  "0102": {
    "postcode": "3180102",
    "prefecture": "茨城県",
    "prefecture_kana": "イバラキケン",
    "prefecture_code": 8,
    "city": "高萩市",
    "city_kana": "タカハギシ",
    "town": "若栗",
    "town_kana": "ワカグリ",
    "street": null,
    "office_name": null,
    "office_name_kana": null
  },
  "0103": {
    "postcode": "3180103",
    "prefecture": "茨城県",
    "prefecture_kana": "イバラキケン",
    "prefecture_code": 8,
    "city": "高萩市",
    "city_kana": "タカハギシ",
    "town": "大能",
    "town_kana": "オオノ",
    "street": null,
    "office_name": null,
    "office_name_kana": null
  },
  "0104": {
    "postcode": "3180104",
    "prefecture": "茨城県",
    "prefecture_kana": "イバラキケン",
    "prefecture_code": 8,
    "city": "高萩市",
    "city_kana": "タカハギシ",
    "town": "中戸川",
    "town_kana": "ナカドガワ",
    "street": null,
    "office_name": null,
    "office_name_kana": null
  },
  "0105": {
    "postcode": "3180105",
    "prefecture": "茨城県",
    "prefecture_kana": "イバラキケン",
    "prefecture_code": 8,
    "city": "高萩市",
    "city_kana": "タカハギシ",
    "town": "上君田",
    "town_kana": "カミキミダ",
    "street": null,
    "office_name": null,
    "office_name_kana": null
  },
  "0106": {
    "postcode": "3180106",
    "prefecture": "茨城県",
    "prefecture_kana": "イバラキケン",
    "prefecture_code": 8,
    "city": "高萩市",
    "city_kana": "タカハギシ",
    "town": "下君田",
    "town_kana": "シモキミダ",
    "street": null,
    "office_name": null,
    "office_name_kana": null
  },
  "8501": {
    "postcode": "3188501",
    "prefecture": "茨城県",
    "prefecture_kana": "イバラキケン",
    "prefecture_code": 8,
    "city": "高萩市",
    "city_kana": "タカハギシ",
    "town": "赤浜",
    "town_kana": "アカハマ",
    "street": "１６０番地の１",
    "office_name": "東部大建工業　株式会社",
    "office_name_kana": "トウブダイケンコウギヨウ カブシキガイシヤ"
  },
  "8505": {
    "postcode": "3188505",
    "prefecture": "茨城県",
    "prefecture_kana": "イバラキケン",
    "prefecture_code": 8,
    "city": "高萩市",
    "city_kana": "タカハギシ",
    "town": "安良川",
    "town_kana": "アラカワ",
    "street": "字下ノ内３６３",
    "office_name": "日本ケミコン　株式会社　高萩工場",
    "office_name_kana": "ニツポンケミコン カブシキガイシヤ タカハギコウジヨウ"
  },
  "8511": {
    "postcode": "3188511",
    "prefecture": "茨城県",
    "prefecture_kana": "イバラキケン",
    "prefecture_code": 8,
    "city": "高萩市",
    "city_kana": "タカハギシ",
    "town": "本町",
    "town_kana": "ホンチョウ",
    "street": "１丁目１００番１号",
    "office_name": "高萩市役所",
    "office_name_kana": "タカハギシヤクシヨ"
  }
}