{
  "0000": {
    "postcode": "3210000",
    "prefecture": "栃木県",
    "prefecture_kana": "トチギケン",
    "prefecture_code": 9,
    "city": "宇都宮市",
    "city_kana": "ウツノミヤシ",
    "town": "",
    "town_kana": "",
    "street": null,
    "office_name": null,
    "office_name_kana": null
  },
  "0101": {
    "postcode": "3210101",
    "prefecture": "栃木県",
    "prefecture_kana": "トチギケン",
    "prefecture_code": 9,
    "city": "宇都宮市",
    "city_kana": "ウツノミヤシ",
    "town": "江曽島本町",
    "town_kana": "エソジマホンチョウ",
    "street": null,
    "office_name": null,
    "office_name_kana": null
  },
  "0102": {
    "postcode": "3210102",
    "prefecture": "栃木県",
    "prefecture_kana": "トチギケン",
    "prefecture_code": 9,
    "city": "宇都宮市",
    "city_kana": "ウツノミヤシ",
    "town": "江曽島町",
    "town_kana": "エソジママチ",
    "street": null,
    "office_name": null,
    "office_name_kana": null
  },
  "0103": {
    "postcode": "3210103",
    "prefecture": "栃木県",
    "prefecture_kana": "トチギケン",
    "prefecture_code": 9,
    "city": "宇都宮市",
    "city_kana": "ウツノミヤシ",
    "town": "台新田町",
    "town_kana": "ダイシンデンマチ",
    "street": null,
    "office_name": null,
    "office_name_kana": null
  },
  "0104": {
    "postcode": "3210104",
    "prefecture": "栃木県",
    "prefecture_kana": "トチギケン",
    "prefecture_code": 9,
    "city": "宇都宮市",
    "city_kana": "ウツノミヤシ",
    "town": "台新田",
    "town_kana": "ダイシンデン",
    "street": null,
    "office_name": null,
    "office_name_kana": null
  },
  "0105": {
    "postcode": "3210105",
    "prefecture": "栃木県",
    "prefecture_kana": "トチギケン",
    "prefecture_code": 9,
    "city": "宇都宮市",
    "city_kana": "ウツノミヤシ",
    "town": "横田新町",
    "town_kana": "ヨコタシンマチ",
    "street": null,
    "office_name": null,
    "office_name_kana": null
  },
  "0106": {
    "postcode": "3210106",
    "prefecture": "栃木県",
    "prefecture_kana": "トチギケン",
    "prefecture_code": 9,
    "city": "宇都宮市",
    "city_kana": "ウツノミヤシ",
    "town": "上横田町",
    "town_kana": "カミヨコタマチ",
    "street": null,
    "office_name": null,
    "office_name_kana": null
  },
  "0107": {
    "postcode": "3210107",
    "prefecture": "栃木県",
    "prefecture_kana": "トチギケン",
    "prefecture_code": 9,
    "city": "宇都宮市",
    "city_kana": "ウツノミヤシ",
    "town": "江曽島",
    "town_kana": "エソジマ",
    "street": null,
    "office_name": null,
    "office_name_kana": null
  },
  "0108": {
    "postcode": "3210108",
    "prefecture": "栃木県",
    "prefecture_kana": "トチギケン",
    "prefecture_code": 9,
    "city": "宇都宮市",
    "city_kana": "ウツノミヤシ",
    "town": "春日町",
    "town_kana": "カスガチョウ",
    "street": null,
    "office_name": null,
    "office_name_kana": null
  },
  "0111": {
    "postcode": "3210111",
    "prefecture": "栃木県",
    "prefecture_kana": "トチギケン",
    "prefecture_code": 9,
    "city": "宇都宮市",
    "city_kana": "ウツノミヤシ",
    "town": "川田町",
    "town_kana": "カワダマチ",
    "street": null,
    "office_name": null,
    "office_name_kana": null
  },
  "0112": {
    "postcode": "3210112",
    "prefecture": "栃木県",
    "prefecture_kana": "トチギケン",
    "prefecture_code": 9,
    "city": "宇都宮市",
    "city_kana": "ウツノミヤシ",
    "town": "屋板町",
    "town_kana": "ヤイタマチ",
    "street": null,
    "office_name": null,
    "office_name_kana": null
  },
  "0113": {
    "postcode": "3210113",
    "prefecture": "栃木県",
    "prefecture_kana": "トチギケン",
    "prefecture_code": 9,
    "city": "宇都宮市",
    "city_kana": "ウツノミヤシ",
    "town": "砂田町",
    "town_kana": "スナタマチ",
    "street": null,
    "office_name": null,
    "office_name_kana": null
  },
  "0114": {
    "postcode": "3210114",
    "prefecture": "栃木県",
    "prefecture_kana": "トチギケン",
    "prefecture_code": 9,
    "city": "宇都宮市",
    "city_kana": "ウツノミヤシ",
    "town": "中島町",
    "town_kana": "ナカジマチョウ",
    "street": null,
    "office_name": null,
    "office_name_kana": null
  },
  "0115": {
    "postcode": "3210115",
    "prefecture": "栃木県",
    "prefecture_kana": "トチギケン",
    "prefecture_code": 9,
    "city": "宇都宮市",
    "city_kana": "ウツノミヤシ",
    "town": "上御田町",
    "town_kana": "カミミタチョウ",
    "street": null,
    "office_name": null,
    "office_name_kana": null
  },
  "0116": {
    "postcode": "3210116",
    "prefecture": "栃木県",
    "prefecture_kana": "トチギケン",
    "prefecture_code": 9,
    "city": "宇都宮市",
    "city_kana": "ウツノミヤシ",
    "town": "東横田町",
    "town_kana": "ヒガシヨコタマチ",
    "street": null,
    "office_name": null,
    "office_name_kana": null
  },
  "0117": {
    "postcode": "3210117",
    "prefecture": "栃木県",
    "prefecture_kana": "トチギケン",
    "prefecture_code": 9,
    "city": "宇都宮市",
    "city_kana": "ウツノミヤシ",
    "town": "城南",
    "town_kana": "ジョウナン",
    "street": null,
    "office_name": null,
    "office_name_kana": null
  },
  "0118": {
    "postcode": "3210118",
    "prefecture": "栃木県",
    "prefecture_kana": "トチギケン",
    "prefecture_code": 9,
    "city": "宇都宮市",
    "city_kana": "ウツノミヤシ",
    "town": "インターパーク",
    "town_kana": "インターパーク",
    "street": null,
    "office_name": null,
    "office_name_kana": null
  },
  "0121": {
    "postcode": "3210121",
    "prefecture": "栃木県",
    "prefecture_kana": "トチギケン",
    "prefecture_code": 9,
    "city": "宇都宮市",
    "city_kana": "ウツノミヤシ",
    "town": "雀宮町",
    "town_kana": "スズメノミヤチョウ",
    "street": null,
    "office_name": null,
    "office_name_kana": null
  },
  "0122": {
    "postcode": "3210122",
    "prefecture": "栃木県",
    "prefecture_kana": "トチギケン",
    "prefecture_code": 9,
    "city": "宇都宮市",
    "city_kana": "ウツノミヤシ",
    "town": "下反町町",
    "town_kana": "シモソリマチチョウ",
    "street": null,
    "office_name": null,
    "office_name_kana": null
  },
  "0123": {
    "postcode": "3210123",
    "prefecture": "栃木県",
    "prefecture_kana": "トチギケン",
    "prefecture_code": 9,
    "city": "宇都宮市",
    "city_kana": "ウツノミヤシ",
    "town": "東谷町",
    "town_kana": "トウヤチョウ",
    "street": null,
    "office_name": null,
    "office_name_kana": null
  },
  "0124": {
    "postcode": "3210124",
    "prefecture": "栃木県",
    "prefecture_kana": "トチギケン",
    "prefecture_code": 9,
    "city": "宇都宮市",
    "city_kana": "ウツノミヤシ",
    "town": "下横田町",
    "town_kana": "シモヨコタチョウ",
    "street": null,
    "office_name": null,
    "office_name_kana": null
  },
  "0125": {
    "postcode": "3210125",
    "prefecture": "栃木県",
    "prefecture_kana": "トチギケン",
    "prefecture_code": 9,
    "city": "宇都宮市",
    "city_kana": "ウツノミヤシ",
    "town": "御田長島町",
    "town_kana": "ミタナガシマチョウ",
    "street": null,
    "office_name": null,
    "office_name_kana": null
  },
  "0126": {
    "postcode": "3210126",
    "prefecture": "栃木県",
    "prefecture_kana": "トチギケン",
    "prefecture_code": 9,
    "city": "宇都宮市",
    "city_kana": "ウツノミヤシ",
    "town": "茂原町",
    "town_kana": "モバラチョウ",
    "street": null,
    "office_name": null,
    "office_name_kana": null
  },
  "0127": {
    "postcode": "3210127",
    "prefecture": "栃木県",
    "prefecture_kana": "トチギケン",
    "prefecture_code": 9,
    "city": "宇都宮市",
    "city_kana": "ウツノミヤシ",
    "town": "羽牛田町",
    "town_kana": "ハギュウダチョウ",
    "street": null,
    "office_name": null,
    "office_name_kana": null
  },
  "0131": {
    "postcode": "3210131",
    "prefecture": "栃木県",
    "prefecture_kana": "トチギケン",
    "prefecture_code": 9,
    "city": "宇都宮市",
    "city_kana": "ウツノミヤシ",
    "town": "宮の内",
    "town_kana": "ミヤノウチ",
    "street": null,
    "office_name": null,
    "office_name_kana": null
  },
  "0132": {
    "postcode": "3210132",
    "prefecture": "栃木県",
    "prefecture_kana": "トチギケン",
    "prefecture_code": 9,
    "city": "宇都宮市",
    "city_kana": "ウツノミヤシ",
    "town": "雀の宮",
    "town_kana": "スズメノミヤ",
    "street": null,
    "office_name": null,
    "office_name_kana": null
  },
  "0133": {
    "postcode": "3210133",
    "prefecture": "栃木県",
    "prefecture_kana": "トチギケン",
    "prefecture_code": 9,
    "city": "宇都宮市",
    "city_kana": "ウツノミヤシ",
    "town": "新富町",
    "town_kana": "シントミチョウ",
    "street": null,
    "office_name": null,
    "office_name_kana": null
  },
  "0134": {
    "postcode": "3210134",
    "prefecture": "栃木県",
    "prefecture_kana": "トチギケン",
    "prefecture_code": 9,
    "city": "宇都宮市",
    "city_kana": "ウツノミヤシ",
    "town": "高砂町",
    "town_kana": "タカサゴチョウ",
    "street": null,
    "office_name": null,
    "office_name_kana": null
  },
  "0135": {
    "postcode": "3210135",
    "prefecture": "栃木県",
    "prefecture_kana": "トチギケン",
    "prefecture_code": 9,
    "city": "宇都宮市",
    "city_kana": "ウツノミヤシ",
    "town": "五代",
    "town_kana": "ゴダイ",
    "street": null,
    "office_name": null,
    "office_name_kana": null
  },
  "0136": {
    "postcode": "3210136",
    "prefecture": "栃木県",
    "prefecture_kana": "トチギケン",
    "prefecture_code": 9,
    "city": "宇都宮市",
    "city_kana": "ウツノミヤシ",
    "town": "みどり野町",
    "town_kana": "ミドリノマチ",
    "street": null,
    "office_name": null,
    "office_name_kana": null
  },
  "0137": {
    "postcode": "3210137",
    "prefecture": "栃木県",
    "prefecture_kana": "トチギケン",
    "prefecture_code": 9,
    "city": "宇都宮市",
    "city_kana": "ウツノミヤシ",
    "town": "針ケ谷",
    "town_kana": "ハリガヤ",
    "street": null,
    "office_name": null,
    "office_name_kana": null
  },
  "0138": {
    "postcode": "3210138",
    "prefecture": "栃木県",
    "prefecture_kana": "トチギケン",
    "prefecture_code": 9,
    "city": "宇都宮市",
    "city_kana": "ウツノミヤシ",
    "town": "兵庫塚",
    "town_kana": "ヒョウゴツカ",
    "street": null,
    "office_name": null,
    "office_name_kana": null
  },
  "0139": {
    "postcode": "3210139",
    "prefecture": "栃木県",
    "prefecture_kana": "トチギケン",
    "prefecture_code": 9,
    "city": "宇都宮市",
    "city_kana": "ウツノミヤシ",
    "town": "若松原",
    "town_kana": "ワカマツハラ",
    "street": null,
    "office_name": null,
    "office_name_kana": null
  },
  "0141": {
    "postcode": "3210141",
    "prefecture": "栃木県",
    "prefecture_kana": "トチギケン",
    "prefecture_code": 9,
    "city": "宇都宮市",
    "city_kana": "ウツノミヤシ",
    "town": "さつき",
    "town_kana": "サツキ",
    "street": null,
    "office_name": null,
    "office_name_kana": null
  },
  "0142": {
    "postcode": "3210142",
    "prefecture": "栃木県",
    "prefecture_kana": "トチギケン",
    "prefecture_code": 9,
    "city": "宇都宮市",
    "city_kana": "ウツノミヤシ",
    "town": "南町",
    "town_kana": "ミナミマチ",
    "street": null,
    "office_name": null,
    "office_name_kana": null
  },
  "0143": {
    "postcode": "3210143",
    "prefecture": "栃木県",
    "prefecture_kana": "トチギケン",
    "prefecture_code": 9,
    "city": "宇都宮市",
    "city_kana": "ウツノミヤシ",
    "town": "南高砂町",
    "town_kana": "ミナミタカサゴチョウ",
    "street": null,
    "office_name": null,
    "office_name_kana": null
  },
  "0144": {
    "postcode": "3210144",
    "prefecture": "栃木県",
    "prefecture_kana": "トチギケン",
    "prefecture_code": 9,
    "city": "宇都宮市",
    "city_kana": "ウツノミヤシ",
    "town": "末広",
    "town_kana": "スエヒロ",
    "street": null,
    "office_name": null,
    "office_name_kana": null
  },
  "0145": {
    "postcode": "3210145",
    "prefecture": "栃木県",
    "prefecture_kana": "トチギケン",
    "prefecture_code": 9,
    "city": "宇都宮市",
    "city_kana": "ウツノミヤシ",
    "town": "茂原",
    "town_kana": "モバラ",
    "street": null,
    "office_name": null,
    "office_name_kana": null
  },
  "0146": {
    "postcode": "3210146",
    "prefecture": "栃木県",
    "prefecture_kana": "トチギケン",
    "prefecture_code": 9,
    "city": "宇都宮市",
    "city_kana": "ウツノミヤシ",
    "town": "富士見町",
    "town_kana": "フジミチョウ",
    "street": null,
    "office_name": null,
    "office_name_kana": null
  },
  "0147": {
    "postcode": "3210147",
    "prefecture": "栃木県",
    "prefecture_kana": "トチギケン",
    "prefecture_code": 9,
    "city": "宇都宮市",
    "city_kana": "ウツノミヤシ",
    "town": "針ケ谷町",
    "town_kana": "ハリガヤチョウ",
    "street": null,
    "office_name": null,
    "office_name_kana": null
  },
  "0151": {
    "postcode": "3210151",
    "prefecture": "栃木県",
    "prefecture_kana": "トチギケン",
    "prefecture_code": 9,
    "city": "宇都宮市",
    "city_kana": "ウツノミヤシ",
    "town": "西川田町",
    "town_kana": "ニシカワタマチ",
    "street": null,
    "office_name": null,
    "office_name_kana": null
  },
  "0152": {
    "postcode": "3210152",
    "prefecture": "栃木県",
    "prefecture_kana": "トチギケン",
    "prefecture_code": 9,
    "city": "宇都宮市",
    "city_kana": "ウツノミヤシ",
    "town": "西川田",
    "town_kana": "ニシカワタ",
    "street": null,
    "office_name": null,
    "office_name_kana": null
  },
  "0153": {
    "postcode": "3210153",
    "prefecture": "栃木県",
    "prefecture_kana": "トチギケン",
    "prefecture_code": 9,
    "city": "宇都宮市",
    "city_kana": "ウツノミヤシ",
    "town": "北若松原",
    "town_kana": "キタワカマツハラ",
    "street": null,
    "office_name": null,
    "office_name_kana": null
  },
  "0154": {
    "postcode": "3210154",
    "prefecture": "栃木県",
    "prefecture_kana": "トチギケン",
    "prefecture_code": 9,
    "city": "宇都宮市",
    "city_kana": "ウツノミヤシ",
    "town": "西川田東町",
    "town_kana": "ニシカワタヒガシマチ",
    "street": null,
    "office_name": null,
    "office_name_kana": null
  },
  "0155": {
    "postcode": "3210155",
    "prefecture": "栃木県",
    "prefecture_kana": "トチギケン",
    "prefecture_code": 9,
    "city": "宇都宮市",
    "city_kana": "ウツノミヤシ",
    "town": "西川田南",
    "town_kana": "ニシカワタミナミ",
    "street": null,
    "office_name": null,
    "office_name_kana": null
  },
  "0156": {
    "postcode": "3210156",
    "prefecture": "栃木県",
    "prefecture_kana": "トチギケン",
    "prefecture_code": 9,
    "city": "宇都宮市",
    "city_kana": "ウツノミヤシ",
    "town": "兵庫塚町",
    "town_kana": "ヒョウゴツカマチ",
    "street": null,
    "office_name": null,
    "office_name_kana": null
  },
  "0157": {
    "postcode": "3210157",
    "prefecture": "栃木県",
    "prefecture_kana": "トチギケン",
    "prefecture_code": 9,
    "city": "宇都宮市",
    "city_kana": "ウツノミヤシ",
    "town": "幕田町",
    "town_kana": "マクタマチ",
    "street": null,
    "office_name": null,
    "office_name_kana": null
  },
  "0158": {
    "postcode": "3210158",
    "prefecture": "栃木県",
    "prefecture_kana": "トチギケン",
    "prefecture_code": 9,
    "city": "宇都宮市",
    "city_kana": "ウツノミヤシ",
    "town": "西川田本町",
    "town_kana": "ニシカワタホンチョウ",
    "street": null,
    "office_name": null,
    "office_name_kana": null
  },
  "0161": {
    "postcode": "3210161",
    "prefecture": "栃木県",
    "prefecture_kana": "トチギケン",
    "prefecture_code": 9,
    "city": "宇都宮市",
    "city_kana": "ウツノミヤシ",
    "town": "大塚町",
    "town_kana": "オオツカチョウ",
    "street": null,
    "office_name": null,
    "office_name_kana": null
  },
  "0162": {
    "postcode": "3210162",
    "prefecture": "栃木県",
    "prefecture_kana": "トチギケン",
    "prefecture_code": 9,
    "city": "宇都宮市",
    "city_kana": "ウツノミヤシ",
    "town": "大和",
    "town_kana": "ヤマト",
    "street": null,
    "office_name": null,
    "office_name_kana": null
  },
  "0163": {
    "postcode": "3210163",
    "prefecture": "栃木県",
    "prefecture_kana": "トチギケン",
    "prefecture_code": 9,
    "city": "宇都宮市",
    "city_kana": "ウツノミヤシ",
    "town": "宮本町",
    "town_kana": "ミヤモトチョウ",
    "street": null,
    "office_name": null,
    "office_name_kana": null
  },
  "0164": {
    "postcode": "3210164",
    "prefecture": "栃木県",
    "prefecture_kana": "トチギケン",
    "prefecture_code": 9,
    "city": "宇都宮市",
    "city_kana": "ウツノミヤシ",
    "town": "双葉",
    "town_kana": "フタバ",
    "street": null,
    "office_name": null,
    "office_name_kana": null
  },
  "0165": {
    "postcode": "3210165",
    "prefecture": "栃木県",
    "prefecture_kana": "トチギケン",
    "prefecture_code": 9,
    "city": "宇都宮市",
    "city_kana": "ウツノミヤシ",
    "town": "緑",
    "town_kana": "ミドリ",
    "street": null,
    "office_name": null,
    "office_name_kana": null
  },
  "0166": {
    "postcode": "3210166",
    "prefecture": "栃木県",
    "prefecture_kana": "トチギケン",
    "prefecture_code": 9,
    "city": "宇都宮市",
    "city_kana": "ウツノミヤシ",
    "town": "今宮",
    "town_kana": "イマミヤ",
    "street": null,
    "office_name": null,
    "office_name_kana": null
  },
  "0167": {
    "postcode": "3210167",
    "prefecture": "栃木県",
    "prefecture_kana": "トチギケン",
    "prefecture_code": 9,
    "city": "宇都宮市",
    "city_kana": "ウツノミヤシ",
    "town": "東浦町",
    "town_kana": "ヒガシウラマチ",
    "street": null,
    "office_name": null,
    "office_name_kana": null
  },
  "0168": {
    "postcode": "3210168",
    "prefecture": "栃木県",
    "prefecture_kana": "トチギケン",
    "prefecture_code": 9,
    "city": "宇都宮市",
    "city_kana": "ウツノミヤシ",
    "town": "東原町",
    "town_kana": "ヒガシハラマチ",
    "street": null,
    "office_name": null,
    "office_name_kana": null
  },
  "0169": {
    "postcode": "3210169",
    "prefecture": "栃木県",
    "prefecture_kana": "トチギケン",
    "prefecture_code": 9,
    "city": "宇都宮市",
    "city_kana": "ウツノミヤシ",
    "town": "八千代",
    "town_kana": "ヤチヨ",
    "street": null,
    "office_name": null,
    "office_name_kana": null
  },
  "0194": {
    "postcode": "3210194",
    "prefecture": "栃木県",
    "prefecture_kana": "トチギケン",
    "prefecture_code": 9,
    "city": "宇都宮市",
    "city_kana": "ウツノミヤシ",
    "town": "上横田町",
    "town_kana": "カミヨコタマチ",
    "street": "７９８",
    "office_name": "トヨタカローラ栃木　株式会社",
    "office_name_kana": "トヨタカロ-ラトチギ カブシキガイシヤ"
  },
  "0195": {
    "postcode": "3210195",
    "prefecture": "栃木県",
    "prefecture_kana": "トチギケン",
    "prefecture_code": 9,
    "city": "宇都宮市",
    "city_kana": "ウツノミヤシ",
    "town": "川田町",
    "town_kana": "カワダマチ",
    "street": "８５８",
    "office_name": "とちぎコープ生活　協同組合",
    "office_name_kana": "トチギコ-プセイカツ キヨウドウクミアイ"
  },
  "0198": {
    "postcode": "3210198",
    "prefecture": "栃木県",
    "prefecture_kana": "トチギケン",
    "prefecture_code": 9,
    "city": "宇都宮市",
    "city_kana": "ウツノミヤシ",
    "town": "雀宮町",
    "town_kana": "スズメノミヤチョウ",
    "street": "５２番地",
    "office_name": "栃木県立　宇都宮工業高等学校",
    "office_name_kana": "トチギケンリツ ウツノミヤコウギヨウコウトウガツコウ"
  },
  "0200": {
    "postcode": "3210200",
    "prefecture": "栃木県",
    "prefecture_kana": "トチギケン",
    "prefecture_code": 9,
    "city": "下都賀郡壬生町",
    "city_kana": "シモツガグンミブマチ",
    "town": "",
    "town_kana": "",
    "street": null,
    "office_name": null,
    "office_name_kana": null
  },
  "0201": {
    "postcode": "3210201",
    "prefecture": "栃木県",
    "prefecture_kana": "トチギケン",
    "prefecture_code": 9,
    "city": "下都賀郡壬生町",
    "city_kana": "シモツガグンミブマチ",
    "town": "安塚",
    "town_kana": "ヤスヅカ",
    "street": null,
    "office_name": null,
    "office_name_kana": null
  },
  "0202": {
    "postcode": "3210202",
    "prefecture": "栃木県",
    "prefecture_kana": "トチギケン",
    "prefecture_code": 9,
    "city": "下都賀郡壬生町",
    "city_kana": "シモツガグンミブマチ",
    "town": "おもちゃのまち",
    "town_kana": "オモチャノマチ",
    "street": null,
    "office_name": null,
    "office_name_kana": null
  },
  "0203": {
    "postcode": "3210203",
    "prefecture": "栃木県",
    "prefecture_kana": "トチギケン",
    "prefecture_code": 9,
    "city": "下都賀郡壬生町",
    "city_kana": "シモツガグンミブマチ",
    "town": "幸町",
    "town_kana": "サイワイチョウ",
    "street": null,
    "office_name": null,
    "office_name_kana": null
  },
  "0204": {
    "postcode": "3210204",
    "prefecture": "栃木県",
    "prefecture_kana": "トチギケン",
    "prefecture_code": 9,
    "city": "下都賀郡壬生町",
    "city_kana": "シモツガグンミブマチ",
    "town": "緑町",
    "town_kana": "ミドリチョウ",
    "street": null,
    "office_name": null,
    "office_name_kana": null
  },
  "0205": {
    "postcode": "3210205",
    "prefecture": "栃木県",
    "prefecture_kana": "トチギケン",
    "prefecture_code": 9,
    "city": "下都賀郡壬生町",
    "city_kana": "シモツガグンミブマチ",
    "town": "若草町",
    "town_kana": "ワカクサチョウ",
    "street": null,
    "office_name": null,
    "office_name_kana": null
  },
  "0206": {
    "postcode": "3210206",
    "prefecture": "栃木県",
    "prefecture_kana": "トチギケン",
    "prefecture_code": 9,
    "city": "下都賀郡壬生町",
    "city_kana": "シモツガグンミブマチ",
    "town": "あけぼの町",
    "town_kana": "アケボノチョウ",
    "street": null,
    "office_name": null,
    "office_name_kana": null
  },
  "0207": {
    "postcode": "3210207",
    "prefecture": "栃木県",
    "prefecture_kana": "トチギケン",
    "prefecture_code": 9,
    "city": "下都賀郡壬生町",
    "city_kana": "シモツガグンミブマチ",
    "town": "北小林",
    "town_kana": "キタコバヤシ",
    "street": null,
    "office_name": null,
    "office_name_kana": null
  },
  "0211": {
    "postcode": "3210211",
    "prefecture": "栃木県",
    "prefecture_kana": "トチギケン",
    "prefecture_code": 9,
    "city": "下都賀郡壬生町",
    "city_kana": "シモツガグンミブマチ",
    "town": "国谷",
    "town_kana": "クニヤ",
    "street": null,
    "office_name": null,
    "office_name_kana": null
  },
  "0212": {
    "postcode": "3210212",
    "prefecture": "栃木県",
    "prefecture_kana": "トチギケン",
    "prefecture_code": 9,
    "city": "下都賀郡壬生町",
    "city_kana": "シモツガグンミブマチ",
    "town": "寿町",
    "town_kana": "コトブキチョウ",
    "street": null,
    "office_name": null,
    "office_name_kana": null
  },
  "0213": {
    "postcode": "3210213",
    "prefecture": "栃木県",
    "prefecture_kana": "トチギケン",
    "prefecture_code": 9,
    "city": "下都賀郡壬生町",
    "city_kana": "シモツガグンミブマチ",
    "town": "いずみ町",
    "town_kana": "イズミチョウ",
    "street": null,
    "office_name": null,
    "office_name_kana": null
  },
  "0214": {
    "postcode": "3210214",
    "prefecture": "栃木県",
    "prefecture_kana": "トチギケン",
    "prefecture_code": 9,
    "city": "下都賀郡壬生町",
    "city_kana": "シモツガグンミブマチ",
    "town": "壬生甲",
    "town_kana": "ミブコウ",
    "street": null,
    "office_name": null,
    "office_name_kana": null
  },
  "0215": {
    "postcode": "3210215",
    "prefecture": "栃木県",
    "prefecture_kana": "トチギケン",
    "prefecture_code": 9,
    "city": "下都賀郡壬生町",
    "city_kana": "シモツガグンミブマチ",
    "town": "壬生乙",
    "town_kana": "ミブオツ",
    "street": null,
    "office_name": null,
    "office_name_kana": null
  },
  "0216": {
    "postcode": "3210216",
    "prefecture": "栃木県",
    "prefecture_kana": "トチギケン",
    "prefecture_code": 9,
    "city": "下都賀郡壬生町",
    "city_kana": "シモツガグンミブマチ",
    "town": "壬生丁",
    "town_kana": "ミブテイ",
    "street": null,
    "office_name": null,
    "office_name_kana": null
  },
  "0217": {
    "postcode": "3210217",
    "prefecture": "栃木県",
    "prefecture_kana": "トチギケン",
    "prefecture_code": 9,
    "city": "下都賀郡壬生町",
    "city_kana": "シモツガグンミブマチ",
    "town": "至宝",
    "town_kana": "シホウ",
    "street": null,
    "office_name": null,
    "office_name_kana": null
  },
  "0218": {
    "postcode": "3210218",
    "prefecture": "栃木県",
    "prefecture_kana": "トチギケン",
    "prefecture_code": 9,
    "city": "下都賀郡壬生町",
    "city_kana": "シモツガグンミブマチ",
    "town": "落合",
    "town_kana": "オチアイ",
    "street": null,
    "office_name": null,
    "office_name_kana": null
  },
  "0219": {
    "postcode": "3210219",
    "prefecture": "栃木県",
    "prefecture_kana": "トチギケン",
    "prefecture_code": 9,
    "city": "下都賀郡壬生町",
    "city_kana": "シモツガグンミブマチ",
    "town": "福和田",
    "town_kana": "フクワダ",
    "street": null,
    "office_name": null,
    "office_name_kana": null
  },
  "0221": {
    "postcode": "3210221",
    "prefecture": "栃木県",
    "prefecture_kana": "トチギケン",
    "prefecture_code": 9,
    "city": "下都賀郡壬生町",
    "city_kana": "シモツガグンミブマチ",
    "town": "藤井",
    "town_kana": "フジイ",
    "street": null,
    "office_name": null,
    "office_name_kana": null
  },
  "0222": {
    "postcode": "3210222",
    "prefecture": "栃木県",
    "prefecture_kana": "トチギケン",
    "prefecture_code": 9,
    "city": "下都賀郡壬生町",
    "city_kana": "シモツガグンミブマチ",
    "town": "駅東町",
    "town_kana": "エキヒガシチョウ",
    "street": null,
    "office_name": null,
    "office_name_kana": null
  },
  "0223": {
    "postcode": "3210223",
    "prefecture": "栃木県",
    "prefecture_kana": "トチギケン",
    "prefecture_code": 9,
    "city": "下都賀郡壬生町",
    "city_kana": "シモツガグンミブマチ",
    "town": "元町",
    "town_kana": "モトマチ",
    "street": null,
    "office_name": null,
    "office_name_kana": null
  },
  "0224": {
    "postcode": "3210224",
    "prefecture": "栃木県",
    "prefecture_kana": "トチギケン",
    "prefecture_code": 9,
    "city": "下都賀郡壬生町",
    "city_kana": "シモツガグンミブマチ",
    "town": "表町",
    "town_kana": "オモテマチ",
    "street": null,
    "office_name": null,
    "office_name_kana": null
  },
  "0225": {
    "postcode": "3210225",
    "prefecture": "栃木県",
    "prefecture_kana": "トチギケン",
    "prefecture_code": 9,
    "city": "下都賀郡壬生町",
    "city_kana": "シモツガグンミブマチ",
    "town": "本丸",
    "town_kana": "ホンマル",
    "street": null,
    "office_name": null,
    "office_name_kana": null
  },
  "0226": {
    "postcode": "3210226",
    "prefecture": "栃木県",
    "prefecture_kana": "トチギケン",
    "prefecture_code": 9,
    "city": "下都賀郡壬生町",
    "city_kana": "シモツガグンミブマチ",
    "town": "中央町",
    "town_kana": "チュウオウチョウ",
    "street": null,
    "office_name": null,
    "office_name_kana": null
  },
  "0227": {
    "postcode": "3210227",
    "prefecture": "栃木県",
    "prefecture_kana": "トチギケン",
    "prefecture_code": 9,
    "city": "下都賀郡壬生町",
    "city_kana": "シモツガグンミブマチ",
    "town": "通町",
    "town_kana": "トオリマチ",
    "street": null,
    "office_name": null,
    "office_name_kana": null
  },
  "0228": {
    "postcode": "3210228",
    "prefecture": "栃木県",
    "prefecture_kana": "トチギケン",
    "prefecture_code": 9,
    "city": "下都賀郡壬生町",
    "city_kana": "シモツガグンミブマチ",
    "town": "大師町",
    "town_kana": "ダイシチョウ",
    "street": null,
    "office_name": null,
    "office_name_kana": null
  },
  "0231": {
    "postcode": "3210231",
    "prefecture": "栃木県",
    "prefecture_kana": "トチギケン",
    "prefecture_code": 9,
    "city": "下都賀郡壬生町",
    "city_kana": "シモツガグンミブマチ",
    "town": "上田",
    "town_kana": "カミダ",
    "street": null,
    "office_name": null,
    "office_name_kana": null
  },
  "0232": {
    "postcode": "3210232",
    "prefecture": "栃木県",
    "prefecture_kana": "トチギケン",
    "prefecture_code": 9,
    "city": "下都賀郡壬生町",
    "city_kana": "シモツガグンミブマチ",
    "town": "中泉",
    "town_kana": "ナカイズミ",
    "street": null,
    "office_name": null,
    "office_name_kana": null
  },
  "0233": {
    "postcode": "3210233",
    "prefecture": "栃木県",
    "prefecture_kana": "トチギケン",
    "prefecture_code": 9,
    "city": "下都賀郡壬生町",
    "city_kana": "シモツガグンミブマチ",
    "town": "助谷",
    "town_kana": "スケガイ",
    "street": null,
    "office_name": null,
    "office_name_kana": null
  },
  "0234": {
    "postcode": "3210234",
    "prefecture": "栃木県",
    "prefecture_kana": "トチギケン",
    "prefecture_code": 9,
    "city": "下都賀郡壬生町",
    "city_kana": "シモツガグンミブマチ",
    "town": "羽生田",
    "town_kana": "ハニュウダ",
    "street": null,
    "office_name": null,
    "office_name_kana": null
  },
  "0235": {
    "postcode": "3210235",
    "prefecture": "栃木県",
    "prefecture_kana": "トチギケン",
    "prefecture_code": 9,
    "city": "下都賀郡壬生町",
    "city_kana": "シモツガグンミブマチ",
    "town": "七ツ石",
    "town_kana": "ナナツイシ",
    "street": null,
    "office_name": null,
    "office_name_kana": null
  },
  "0236": {
    "postcode": "3210236",
    "prefecture": "栃木県",
    "prefecture_kana": "トチギケン",
    "prefecture_code": 9,
    "city": "下都賀郡壬生町",
    "city_kana": "シモツガグンミブマチ",
    "town": "上稲葉",
    "town_kana": "カミイナバ",
    "street": null,
    "office_name": null,
    "office_name_kana": null
  },
  "0237": {
    "postcode": "3210237",
    "prefecture": "栃木県",
    "prefecture_kana": "トチギケン",
    "prefecture_code": 9,
    "city": "下都賀郡壬生町",
    "city_kana": "シモツガグンミブマチ",
    "town": "下稲葉",
    "town_kana": "シモイナバ",
    "street": null,
    "office_name": null,
    "office_name_kana": null
  },
  "0238": {
    "postcode": "3210238",
    "prefecture": "栃木県",
    "prefecture_kana": "トチギケン",
    "prefecture_code": 9,
    "city": "下都賀郡壬生町",
    "city_kana": "シモツガグンミブマチ",
    "town": "みぶ羽生田産業団地",
    "town_kana": "ミブハニュウダサンギョウダンチ",
    "street": null,
    "office_name": null,
    "office_name_kana": null
  },
  "0292": {
    "postcode": "3210292",
    "prefecture": "栃木県",
    "prefecture_kana": "トチギケン",
    "prefecture_code": 9,
    "city": "下都賀郡壬生町",
    "city_kana": "シモツガグンミブマチ",
    "town": "通町",
    "town_kana": "トオリマチ",
    "street": "１２−２２",
    "office_name": "壬生町役場",
    "office_name_kana": "ミブマチヤクバ"
  },
  "0293": {
    "postcode": "3210293",
    "prefecture": "栃木県",
    "prefecture_kana": "トチギケン",
    "prefecture_code": 9,
    "city": "下都賀郡壬生町",
    "city_kana": "シモツガグンミブマチ",
    "town": "大字北小林",
    "town_kana": null,
    "street": "８８０",
    "office_name": "獨協医科大学",
    "office_name_kana": "ドツキヨウイカダイガク"
  },
  "0295": {
    "postcode": "3210295",
    "prefecture": "栃木県",
    "prefecture_kana": "トチギケン",
    "prefecture_code": 9,
    "city": "下都賀郡壬生町",
    "city_kana": "シモツガグンミブマチ",
    "town": "大字壬生",
    "town_kana": null,
    "street": "乙３４６２",
    "office_name": "日立古河建機　株式会社",
    "office_name_kana": "ヒタチフルカワケンキ カブシキガイシヤ"
  },
  "0298": {
    "postcode": "3210298",
    "prefecture": "栃木県",
    "prefecture_kana": "トチギケン",
    "prefecture_code": 9,
    "city": "下都賀郡壬生町",
    "city_kana": "シモツガグンミブマチ",
    "town": "おもちゃのまち",
    "town_kana": "オモチャノマチ",
    "street": "４−２−２０",
    "office_name": "バンダイ栃木配送センター",
    "office_name_kana": "バンダイトチギハイソウセンタ-"
  },
  "0341": {
    "postcode": "3210341",
    "prefecture": "栃木県",
    "prefecture_kana": "トチギケン",
    "prefecture_code": 9,
    "city": "宇都宮市",
    "city_kana": "ウツノミヤシ",
    "town": "古賀志町",
    "town_kana": "コガシマチ",
    "street": null,
    "office_name": null,
    "office_name_kana": null
  },
  "0342": {
    "postcode": "3210342",
    "prefecture": "栃木県",
    "prefecture_kana": "トチギケン",
    "prefecture_code": 9,
    "city": "宇都宮市",
    "city_kana": "ウツノミヤシ",
    "town": "福岡町",
    "town_kana": "フクオカマチ",
    "street": null,
    "office_name": null,
    "office_name_kana": null
  },
  "0343": {
    "postcode": "3210343",
    "prefecture": "栃木県",
    "prefecture_kana": "トチギケン",
    "prefecture_code": 9,
    "city": "宇都宮市",
    "city_kana": "ウツノミヤシ",
    "town": "田下町",
    "town_kana": "タゲマチ",
    "street": null,
    "office_name": null,
    "office_name_kana": null
  },
  "0344": {
    "postcode": "3210344",
    "prefecture": "栃木県",
    "prefecture_kana": "トチギケン",
    "prefecture_code": 9,
    "city": "宇都宮市",
    "city_kana": "ウツノミヤシ",
    "town": "田野町",
    "town_kana": "タノマチ",
    "street": null,
    "office_name": null,
    "office_name_kana": null
  },
  "0345": {
    "postcode": "3210345",
    "prefecture": "栃木県",
    "prefecture_kana": "トチギケン",
    "prefecture_code": 9,
    "city": "宇都宮市",
    "city_kana": "ウツノミヤシ",
    "town": "大谷町",
    "town_kana": "オオヤマチ",
    "street": null,
    "office_name": null,
    "office_name_kana": null
  },
  "0346": {
    "postcode": "3210346",
    "prefecture": "栃木県",
    "prefecture_kana": "トチギケン",
    "prefecture_code": 9,
    "city": "宇都宮市",
    "city_kana": "ウツノミヤシ",
    "town": "下荒針町",
    "town_kana": "シモアラハリマチ",
    "street": null,
    "office_name": null,
    "office_name_kana": null
  },
  "0347": {
    "postcode": "3210347",
    "prefecture": "栃木県",
    "prefecture_kana": "トチギケン",
    "prefecture_code": 9,
    "city": "宇都宮市",
    "city_kana": "ウツノミヤシ",
    "town": "飯田町",
    "town_kana": "イイダマチ",
    "street": null,
    "office_name": null,
    "office_name_kana": null
  },
  "0401": {
    "postcode": "3210401",
    "prefecture": "栃木県",
    "prefecture_kana": "トチギケン",
    "prefecture_code": 9,
    "city": "宇都宮市",
    "city_kana": "ウツノミヤシ",
    "town": "上小倉町",
    "town_kana": "カミコグラチョウ",
    "street": null,
    "office_name": null,
    "office_name_kana": null
  },
  "0402": {
    "postcode": "3210402",
    "prefecture": "栃木県",
    "prefecture_kana": "トチギケン",
    "prefecture_code": 9,
    "city": "宇都宮市",
    "city_kana": "ウツノミヤシ",
    "town": "今里町",
    "town_kana": "イマザトチョウ",
    "street": null,
    "office_name": null,
    "office_name_kana": null
  },
  "0403": {
    "postcode": "3210403",
    "prefecture": "栃木県",
    "prefecture_kana": "トチギケン",
    "prefecture_code": 9,
    "city": "宇都宮市",
    "city_kana": "ウツノミヤシ",
    "town": "下小倉町",
    "town_kana": "シモコグラチョウ",
    "street": null,
    "office_name": null,
    "office_name_kana": null
  },
  "0404": {
    "postcode": "3210404",
    "prefecture": "栃木県",
    "prefecture_kana": "トチギケン",
    "prefecture_code": 9,
    "city": "宇都宮市",
    "city_kana": "ウツノミヤシ",
    "town": "芦沼町",
    "town_kana": "アシヌマチョウ",
    "street": null,
    "office_name": null,
    "office_name_kana": null
  },
  "0405": {
    "postcode": "3210405",
    "prefecture": "栃木県",
    "prefecture_kana": "トチギケン",
    "prefecture_code": 9,
    "city": "宇都宮市",
    "city_kana": "ウツノミヤシ",
    "town": "上田町",
    "town_kana": "ウワダチョウ",
    "street": null,
    "office_name": null,
    "office_name_kana": null
  },
  "0406": {
    "postcode": "3210406",
    "prefecture": "栃木県",
    "prefecture_kana": "トチギケン",
    "prefecture_code": 9,
    "city": "宇都宮市",
    "city_kana": "ウツノミヤシ",
    "town": "金田町",
    "town_kana": "カネダチョウ",
    "street": null,
    "office_name": null,
    "office_name_kana": null
  },
  "0407": {
    "postcode": "3210407",
    "prefecture": "栃木県",
    "prefecture_kana": "トチギケン",
    "prefecture_code": 9,
    "city": "宇都宮市",
    "city_kana": "ウツノミヤシ",
    "town": "松田新田町",
    "town_kana": "マツダシンデンチョウ",
    "street": null,
    "office_name": null,
    "office_name_kana": null
  },
  "0411": {
    "postcode": "3210411",
    "prefecture": "栃木県",
    "prefecture_kana": "トチギケン",
    "prefecture_code": 9,
    "city": "宇都宮市",
    "city_kana": "ウツノミヤシ",
    "town": "宮山田町",
    "town_kana": "ミヤヤマダチョウ",
    "street": null,
    "office_name": null,
    "office_name_kana": null
  },
  "0412": {
    "postcode": "3210412",
    "prefecture": "栃木県",
    "prefecture_kana": "トチギケン",
    "prefecture_code": 9,
    "city": "宇都宮市",
    "city_kana": "ウツノミヤシ",
    "town": "関白町",
    "town_kana": "カンパクチョウ",
    "street": null,
    "office_name": null,
    "office_name_kana": null
  },
  "0413": {
    "postcode": "3210413",
    "prefecture": "栃木県",
    "prefecture_kana": "トチギケン",
    "prefecture_code": 9,
    "city": "宇都宮市",
    "city_kana": "ウツノミヤシ",
    "town": "松風台",
    "town_kana": "ショウフウダイ",
    "street": null,
    "office_name": null,
    "office_name_kana": null
  },
  "0414": {
    "postcode": "3210414",
    "prefecture": "栃木県",
    "prefecture_kana": "トチギケン",
    "prefecture_code": 9,
    "city": "宇都宮市",
    "city_kana": "ウツノミヤシ",
    "town": "中里町",
    "town_kana": "ナカザトチョウ",
    "street": null,
    "office_name": null,
    "office_name_kana": null
  },
  "0415": {
    "postcode": "3210415",
    "prefecture": "栃木県",
    "prefecture_kana": "トチギケン",
    "prefecture_code": 9,
    "city": "宇都宮市",
    "city_kana": "ウツノミヤシ",
    "town": "免ノ内町",
    "town_kana": "メンノウチチョウ",
    "street": null,
    "office_name": null,
    "office_name_kana": null
  },
  "0416": {
    "postcode": "3210416",
    "prefecture": "栃木県",
    "prefecture_kana": "トチギケン",
    "prefecture_code": 9,
    "city": "宇都宮市",
    "city_kana": "ウツノミヤシ",
    "town": "高松町",
    "town_kana": "タカマツチョウ",
    "street": null,
    "office_name": null,
    "office_name_kana": null
  },
  "0417": {
    "postcode": "3210417",
    "prefecture": "栃木県",
    "prefecture_kana": "トチギケン",
    "prefecture_code": 9,
    "city": "宇都宮市",
    "city_kana": "ウツノミヤシ",
    "town": "冬室町",
    "town_kana": "フユムロチョウ",
    "street": null,
    "office_name": null,
    "office_name_kana": null
  },
  "0501": {
    "postcode": "3210501",
    "prefecture": "栃木県",
    "prefecture_kana": "トチギケン",
    "prefecture_code": 9,
    "city": "那須烏山市",
    "city_kana": "ナスカラスヤマシ",
    "town": "志鳥",
    "town_kana": "シトリ",
    "street": null,
    "office_name": null,
    "office_name_kana": null
  },
  "0502": {
    "postcode": "3210502",
    "prefecture": "栃木県",
    "prefecture_kana": "トチギケン",
    "prefecture_code": 9,
    "city": "那須烏山市",
    "city_kana": "ナスカラスヤマシ",
    "town": "熊田",
    "town_kana": "クマダ",
    "street": null,
    "office_name": null,
    "office_name_kana": null
  },
  "0503": {
    "postcode": "3210503",
    "prefecture": "栃木県",
    "prefecture_kana": "トチギケン",
    "prefecture_code": 9,
    "city": "那須烏山市",
    "city_kana": "ナスカラスヤマシ",
    "town": "月次",
    "town_kana": "ツキナミ",
    "street": null,
    "office_name": null,
    "office_name_kana": null
  },
  "0504": {
    "postcode": "3210504",
    "prefecture": "栃木県",
    "prefecture_kana": "トチギケン",
    "prefecture_code": 9,
    "city": "那須烏山市",
    "city_kana": "ナスカラスヤマシ",
    "town": "下川井",
    "town_kana": "シモカワイ",
    "street": null,
    "office_name": null,
    "office_name_kana": null
  },
  "0505": {
    "postcode": "3210505",
    "prefecture": "栃木県",
    "prefecture_kana": "トチギケン",
    "prefecture_code": 9,
    "city": "那須烏山市",
    "city_kana": "ナスカラスヤマシ",
    "town": "上川井",
    "town_kana": "カミカワイ",
    "street": null,
    "office_name": null,
    "office_name_kana": null
  },
  "0511": {
    "postcode": "3210511",
    "prefecture": "栃木県",
    "prefecture_kana": "トチギケン",
    "prefecture_code": 9,
    "city": "那須烏山市",
    "city_kana": "ナスカラスヤマシ",
    "town": "小河原",
    "town_kana": "コガワラ",
    "street": null,
    "office_name": null,
    "office_name_kana": null
  },
  "0512": {
    "postcode": "3210512",
    "prefecture": "栃木県",
    "prefecture_kana": "トチギケン",
    "prefecture_code": 9,
    "city": "那須烏山市",
    "city_kana": "ナスカラスヤマシ",
    "town": "高瀬",
    "town_kana": "タカセ",
    "street": null,
    "office_name": null,
    "office_name_kana": null
  },
  "0513": {
    "postcode": "3210513",
    "prefecture": "栃木県",
    "prefecture_kana": "トチギケン",
    "prefecture_code": 9,
    "city": "那須烏山市",
    "city_kana": "ナスカラスヤマシ",
    "town": "小塙",
    "town_kana": "コバナ",
    "street": null,
    "office_name": null,
    "office_name_kana": null
  },
  "0514": {
    "postcode": "3210514",
    "prefecture": "栃木県",
    "prefecture_kana": "トチギケン",
    "prefecture_code": 9,
    "city": "那須烏山市",
    "city_kana": "ナスカラスヤマシ",
    "town": "森田",
    "town_kana": "モリタ",
    "street": null,
    "office_name": null,
    "office_name_kana": null
  },
  "0515": {
    "postcode": "3210515",
    "prefecture": "栃木県",
    "prefecture_kana": "トチギケン",
    "prefecture_code": 9,
    "city": "那須烏山市",
    "city_kana": "ナスカラスヤマシ",
    "town": "曲田",
    "town_kana": "マガツタ",
    "street": null,
    "office_name": null,
    "office_name_kana": null
  },
  "0516": {
    "postcode": "3210516",
    "prefecture": "栃木県",
    "prefecture_kana": "トチギケン",
    "prefecture_code": 9,
    "city": "那須烏山市",
    "city_kana": "ナスカラスヤマシ",
    "town": "大里",
    "town_kana": "オオサト",
    "street": null,
    "office_name": null,
    "office_name_kana": null
  },
  "0517": {
    "postcode": "3210517",
    "prefecture": "栃木県",
    "prefecture_kana": "トチギケン",
    "prefecture_code": 9,
    "city": "那須烏山市",
    "city_kana": "ナスカラスヤマシ",
    "town": "東原",
    "town_kana": "トウバラ",
    "street": null,
    "office_name": null,
    "office_name_kana": null
  },
  "0521": {
    "postcode": "3210521",
    "prefecture": "栃木県",
    "prefecture_kana": "トチギケン",
    "prefecture_code": 9,
    "city": "那須烏山市",
    "city_kana": "ナスカラスヤマシ",
    "town": "岩子",
    "town_kana": "イワコ",
    "street": null,
    "office_name": null,
    "office_name_kana": null
  },
  "0522": {
    "postcode": "3210522",
    "prefecture": "栃木県",
    "prefecture_kana": "トチギケン",
    "prefecture_code": 9,
    "city": "那須烏山市",
    "city_kana": "ナスカラスヤマシ",
    "town": "大金",
    "town_kana": "オオガネ",
    "street": null,
    "office_name": null,
    "office_name_kana": null
  },
  "0523": {
    "postcode": "3210523",
    "prefecture": "栃木県",
    "prefecture_kana": "トチギケン",
    "prefecture_code": 9,
    "city": "那須烏山市",
    "city_kana": "ナスカラスヤマシ",
    "town": "曲畑",
    "town_kana": "ソリハタ",
    "street": null,
    "office_name": null,
    "office_name_kana": null
  },
  "0524": {
    "postcode": "3210524",
    "prefecture": "栃木県",
    "prefecture_kana": "トチギケン",
    "prefecture_code": 9,
    "city": "那須烏山市",
    "city_kana": "ナスカラスヤマシ",
    "town": "八ケ代",
    "town_kana": "ヤカシロ",
    "street": null,
    "office_name": null,
    "office_name_kana": null
  },
  "0525": {
    "postcode": "3210525",
    "prefecture": "栃木県",
    "prefecture_kana": "トチギケン",
    "prefecture_code": 9,
    "city": "那須烏山市",
    "city_kana": "ナスカラスヤマシ",
    "town": "福岡",
    "town_kana": "フクオカ",
    "street": null,
    "office_name": null,
    "office_name_kana": null
  },
  "0526": {
    "postcode": "3210526",
    "prefecture": "栃木県",
    "prefecture_kana": "トチギケン",
    "prefecture_code": 9,
    "city": "那須烏山市",
    "city_kana": "ナスカラスヤマシ",
    "town": "田野倉",
    "town_kana": "タノクラ",
    "street": null,
    "office_name": null,
    "office_name_kana": null
  },
  "0527": {
    "postcode": "3210527",
    "prefecture": "栃木県",
    "prefecture_kana": "トチギケン",
    "prefecture_code": 9,
    "city": "那須烏山市",
    "city_kana": "ナスカラスヤマシ",
    "town": "宇井",
    "town_kana": "ウイ",
    "street": null,
    "office_name": null,
    "office_name_kana": null
  },
  "0528": {
    "postcode": "3210528",
    "prefecture": "栃木県",
    "prefecture_kana": "トチギケン",
    "prefecture_code": 9,
    "city": "那須烏山市",
    "city_kana": "ナスカラスヤマシ",
    "town": "小倉",
    "town_kana": "オグラ",
    "street": null,
    "office_name": null,
    "office_name_kana": null
  },
  "0531": {
    "postcode": "3210531",
    "prefecture": "栃木県",
    "prefecture_kana": "トチギケン",
    "prefecture_code": 9,
    "city": "那須烏山市",
    "city_kana": "ナスカラスヤマシ",
    "town": "三箇",
    "town_kana": "サンガ",
    "street": null,
    "office_name": null,
    "office_name_kana": null
  },
  "0532": {
    "postcode": "3210532",
    "prefecture": "栃木県",
    "prefecture_kana": "トチギケン",
    "prefecture_code": 9,
    "city": "那須烏山市",
    "city_kana": "ナスカラスヤマシ",
    "town": "藤田",
    "town_kana": "フジタ",
    "street": null,
    "office_name": null,
    "office_name_kana": null
  },
  "0533": {
    "postcode": "3210533",
    "prefecture": "栃木県",
    "prefecture_kana": "トチギケン",
    "prefecture_code": 9,
    "city": "那須烏山市",
    "city_kana": "ナスカラスヤマシ",
    "town": "南大和久",
    "town_kana": "ミナミオオワグ",
    "street": null,
    "office_name": null,
    "office_name_kana": null
  },
  "0534": {
    "postcode": "3210534",
    "prefecture": "栃木県",
    "prefecture_kana": "トチギケン",
    "prefecture_code": 9,
    "city": "那須烏山市",
    "city_kana": "ナスカラスヤマシ",
    "town": "鴻野山",
    "town_kana": "コウノヤマ",
    "street": null,
    "office_name": null,
    "office_name_kana": null
  },
  "0535": {
    "postcode": "3210535",
    "prefecture": "栃木県",
    "prefecture_kana": "トチギケン",
    "prefecture_code": 9,
    "city": "那須烏山市",
    "city_kana": "ナスカラスヤマシ",
    "town": "小白井",
    "town_kana": "コジロイ",
    "street": null,
    "office_name": null,
    "office_name_kana": null
  },
  "0592": {
    "postcode": "3210592",
    "prefecture": "栃木県",
    "prefecture_kana": "トチギケン",
    "prefecture_code": 9,
    "city": "那須烏山市",
    "city_kana": "ナスカラスヤマシ",
    "town": "熊田",
    "town_kana": "クマダ",
    "street": "２６８−２",
    "office_name": "那須南農業協同組合",
    "office_name_kana": "ナスミナミノウギヨウキヨウドウクミアイ"
  },
  "0593": {
    "postcode": "3210593",
    "prefecture": "栃木県",
    "prefecture_kana": "トチギケン",
    "prefecture_code": 9,
    "city": "那須烏山市",
    "city_kana": "ナスカラスヤマシ",
    "town": "月次",
    "town_kana": "ツキナミ",
    "street": "５００",
    "office_name": "矢崎部品　株式会社　栃木工場",
    "office_name_kana": "ヤザキブヒン カブシキガイシヤ トチギコウジヨウ"
  },
  "0595": {
    "postcode": "3210595",
    "prefecture": "栃木県",
    "prefecture_kana": "トチギケン",
    "prefecture_code": 9,
    "city": "那須烏山市",
    "city_kana": "ナスカラスヤマシ",
    "town": "大金",
    "town_kana": "オオガネ",
    "street": "２４０",
    "office_name": "那須烏山市　南那須庁舎",
    "office_name_kana": "ナスカラスヤマシ ミナミナスチヨウシヤ"
  },
  "0600": {
    "postcode": "3210600",
    "prefecture": "栃木県",
    "prefecture_kana": "トチギケン",
    "prefecture_code": 9,
    "city": "那須烏山市",
    "city_kana": "ナスカラスヤマシ",
    "town": "",
    "town_kana": "",
    "street": null,
    "office_name": null,
    "office_name_kana": null
  },
  "0601": {
    "postcode": "3210601",
    "prefecture": "栃木県",
    "prefecture_kana": "トチギケン",
    "prefecture_code": 9,
    "city": "那須烏山市",
    "city_kana": "ナスカラスヤマシ",
    "town": "白久",
    "town_kana": "シラク",
    "street": null,
    "office_name": null,
    "office_name_kana": null
  },
  "0602": {
    "postcode": "3210602",
    "prefecture": "栃木県",
    "prefecture_kana": "トチギケン",
    "prefecture_code": 9,
    "city": "那須烏山市",
    "city_kana": "ナスカラスヤマシ",
    "town": "大桶",
    "town_kana": "オオケ",
    "street": null,
    "office_name": null,
    "office_name_kana": null
  },
  "0603": {
    "postcode": "3210603",
    "prefecture": "栃木県",
    "prefecture_kana": "トチギケン",
    "prefecture_code": 9,
    "city": "那須烏山市",
    "city_kana": "ナスカラスヤマシ",
    "town": "谷浅見",
    "town_kana": "ヤアザミ",
    "street": null,
    "office_name": null,
    "office_name_kana": null
  },
  "0604": {
    "postcode": "3210604",
    "prefecture": "栃木県",
    "prefecture_kana": "トチギケン",
    "prefecture_code": 9,
    "city": "那須烏山市",
    "city_kana": "ナスカラスヤマシ",
    "town": "中山",
    "town_kana": "ナカヤマ",
    "street": null,
    "office_name": null,
    "office_name_kana": null
  },
  "0605": {
    "postcode": "3210605",
    "prefecture": "栃木県",
    "prefecture_kana": "トチギケン",
    "prefecture_code": 9,
    "city": "那須烏山市",
    "city_kana": "ナスカラスヤマシ",
    "town": "滝田",
    "town_kana": "タキタ",
    "street": null,
    "office_name": null,
    "office_name_kana": null
  },
  "0611": {
    "postcode": "3210611",
    "prefecture": "栃木県",
    "prefecture_kana": "トチギケン",
    "prefecture_code": 9,
    "city": "那須烏山市",
    "city_kana": "ナスカラスヤマシ",
    "town": "興野",
    "town_kana": "キョウノ",
    "street": null,
    "office_name": null,
    "office_name_kana": null
  },
  "0612": {
    "postcode": "3210612",
    "prefecture": "栃木県",
    "prefecture_kana": "トチギケン",
    "prefecture_code": 9,
    "city": "那須烏山市",
    "city_kana": "ナスカラスヤマシ",
    "town": "大沢",
    "town_kana": "オオサワ",
    "street": null,
    "office_name": null,
    "office_name_kana": null
  },
  "0613": {
    "postcode": "3210613",
    "prefecture": "栃木県",
    "prefecture_kana": "トチギケン",
    "prefecture_code": 9,
    "city": "那須烏山市",
    "city_kana": "ナスカラスヤマシ",
    "town": "大木須",
    "town_kana": "オオギス",
    "street": null,
    "office_name": null,
    "office_name_kana": null
  },
  "0614": {
    "postcode": "3210614",
    "prefecture": "栃木県",
    "prefecture_kana": "トチギケン",
    "prefecture_code": 9,
    "city": "那須烏山市",
    "city_kana": "ナスカラスヤマシ",
    "town": "小木須",
    "town_kana": "コギス",
    "street": null,
    "office_name": null,
    "office_name_kana": null
  },
  "0615": {
    "postcode": "3210615",
    "prefecture": "栃木県",
    "prefecture_kana": "トチギケン",
    "prefecture_code": 9,
    "city": "那須烏山市",
    "city_kana": "ナスカラスヤマシ",
    "town": "小原沢",
    "town_kana": "コハラザワ",
    "street": null,
    "office_name": null,
    "office_name_kana": null
  },
  "0616": {
    "postcode": "3210616",
    "prefecture": "栃木県",
    "prefecture_kana": "トチギケン",
    "prefecture_code": 9,
    "city": "那須烏山市",
    "city_kana": "ナスカラスヤマシ",
    "town": "下境",
    "town_kana": "シモザカイ",
    "street": null,
    "office_name": null,
    "office_name_kana": null
  },
  "0617": {
    "postcode": "3210617",
    "prefecture": "栃木県",
    "prefecture_kana": "トチギケン",
    "prefecture_code": 9,
    "city": "那須烏山市",
    "city_kana": "ナスカラスヤマシ",
    "town": "上境",
    "town_kana": "カミザカイ",
    "street": null,
    "office_name": null,
    "office_name_kana": null
  },
  "0618": {
    "postcode": "3210618",
    "prefecture": "栃木県",
    "prefecture_kana": "トチギケン",
    "prefecture_code": 9,
    "city": "那須烏山市",
    "city_kana": "ナスカラスヤマシ",
    "town": "横枕",
    "town_kana": "ヨコマクラ",
    "street": null,
    "office_name": null,
    "office_name_kana": null
  },
  "0621": {
    "postcode": "3210621",
    "prefecture": "栃木県",
    "prefecture_kana": "トチギケン",
    "prefecture_code": 9,
    "city": "那須烏山市",
    "city_kana": "ナスカラスヤマシ",
    "town": "中央",
    "town_kana": "チュウオウ",
    "street": null,
    "office_name": null,
    "office_name_kana": null
  },
  "0622": {
    "postcode": "3210622",
    "prefecture": "栃木県",
    "prefecture_kana": "トチギケン",
    "prefecture_code": 9,
    "city": "那須烏山市",
    "city_kana": "ナスカラスヤマシ",
    "town": "城東",
    "town_kana": "ジョウトウ",
    "street": null,
    "office_name": null,
    "office_name_kana": null
  },
  "0623": {
    "postcode": "3210623",
    "prefecture": "栃木県",
    "prefecture_kana": "トチギケン",
    "prefecture_code": 9,
    "city": "那須烏山市",
    "city_kana": "ナスカラスヤマシ",
    "town": "表",
    "town_kana": "オモテ",
    "street": null,
    "office_name": null,
    "office_name_kana": null
  },
  "0624": {
    "postcode": "3210624",
    "prefecture": "栃木県",
    "prefecture_kana": "トチギケン",
    "prefecture_code": 9,
    "city": "那須烏山市",
    "city_kana": "ナスカラスヤマシ",
    "town": "旭",
    "town_kana": "アサヒ",
    "street": null,
    "office_name": null,
    "office_name_kana": null
  },
  "0625": {
    "postcode": "3210625",
    "prefecture": "栃木県",
    "prefecture_kana": "トチギケン",
    "prefecture_code": 9,
    "city": "那須烏山市",
    "city_kana": "ナスカラスヤマシ",
    "town": "宮原",
    "town_kana": "ミヤバラ",
    "street": null,
    "office_name": null,
    "office_name_kana": null
  },
  "0626": {
    "postcode": "3210626",
    "prefecture": "栃木県",
    "prefecture_kana": "トチギケン",
    "prefecture_code": 9,
    "city": "那須烏山市",
    "city_kana": "ナスカラスヤマシ",
    "town": "初音",
    "town_kana": "ハツネ",
    "street": null,
    "office_name": null,
    "office_name_kana": null
  },
  "0627": {
    "postcode": "3210627",
    "prefecture": "栃木県",
    "prefecture_kana": "トチギケン",
    "prefecture_code": 9,
    "city": "那須烏山市",
    "city_kana": "ナスカラスヤマシ",
    "town": "南",
    "town_kana": "ミナミ",
    "street": null,
    "office_name": null,
    "office_name_kana": null
  },
  "0628": {
    "postcode": "3210628",
    "prefecture": "栃木県",
    "prefecture_kana": "トチギケン",
    "prefecture_code": 9,
    "city": "那須烏山市",
    "city_kana": "ナスカラスヤマシ",
    "town": "金井",
    "town_kana": "カナイ",
    "street": null,
    "office_name": null,
    "office_name_kana": null
  },
  "0629": {
    "postcode": "3210629",
    "prefecture": "栃木県",
    "prefecture_kana": "トチギケン",
    "prefecture_code": 9,
    "city": "那須烏山市",
    "city_kana": "ナスカラスヤマシ",
    "town": "愛宕台",
    "town_kana": "アタゴダイ",
    "street": null,
    "office_name": null,
    "office_name_kana": null
  },
  "0631": {
    "postcode": "3210631",
    "prefecture": "栃木県",
    "prefecture_kana": "トチギケン",
    "prefecture_code": 9,
    "city": "那須烏山市",
    "city_kana": "ナスカラスヤマシ",
    "town": "城山",
    "town_kana": "シロヤマ",
    "street": null,
    "office_name": null,
    "office_name_kana": null
  },
  "0632": {
    "postcode": "3210632",
    "prefecture": "栃木県",
    "prefecture_kana": "トチギケン",
    "prefecture_code": 9,
    "city": "那須烏山市",
    "city_kana": "ナスカラスヤマシ",
    "town": "神長",
    "town_kana": "カナガ",
    "street": null,
    "office_name": null,
    "office_name_kana": null
  },
  "0633": {
    "postcode": "3210633",
    "prefecture": "栃木県",
    "prefecture_kana": "トチギケン",
    "prefecture_code": 9,
    "city": "那須烏山市",
    "city_kana": "ナスカラスヤマシ",
    "town": "滝",
    "town_kana": "タキ",
    "street": null,
    "office_name": null,
    "office_name_kana": null
  },
  "0634": {
    "postcode": "3210634",
    "prefecture": "栃木県",
    "prefecture_kana": "トチギケン",
    "prefecture_code": 9,
    "city": "那須烏山市",
    "city_kana": "ナスカラスヤマシ",
    "town": "野上",
    "town_kana": "ノガミ",
    "street": null,
    "office_name": null,
    "office_name_kana": null
  },
  "0635": {
    "postcode": "3210635",
    "prefecture": "栃木県",
    "prefecture_kana": "トチギケン",
    "prefecture_code": 9,
    "city": "那須烏山市",
    "city_kana": "ナスカラスヤマシ",
    "town": "向田",
    "town_kana": "ムカダ",
    "street": null,
    "office_name": null,
    "office_name_kana": null
  },
  "0636": {
    "postcode": "3210636",
    "prefecture": "栃木県",
    "prefecture_kana": "トチギケン",
    "prefecture_code": 9,
    "city": "那須烏山市",
    "city_kana": "ナスカラスヤマシ",
    "town": "落合",
    "town_kana": "オチアイ",
    "street": null,
    "office_name": null,
    "office_name_kana": null
  },
  "0692": {
    "postcode": "3210692",
    "prefecture": "栃木県",
    "prefecture_kana": "トチギケン",
    "prefecture_code": 9,
    "city": "那須烏山市",
    "city_kana": "ナスカラスヤマシ",
    "town": "中央",
    "town_kana": "チュウオウ",
    "street": "１丁目１−１",
    "office_name": "那須烏山市役所",
    "office_name_kana": "ナスカラスヤマシヤクシヨ"
  },
  "0901": {
    "postcode": "3210901",
    "prefecture": "栃木県",
    "prefecture_kana": "トチギケン",
    "prefecture_code": 9,
    "city": "宇都宮市",
    "city_kana": "ウツノミヤシ",
    "town": "平出町",
    "town_kana": "ヒライデマチ",
    "street": null,
    "office_name": null,
    "office_name_kana": null
  },
  "0902": {
    "postcode": "3210902",
    "prefecture": "栃木県",
    "prefecture_kana": "トチギケン",
    "prefecture_code": 9,
    "city": "宇都宮市",
    "city_kana": "ウツノミヤシ",
    "town": "柳田町",
    "town_kana": "ヤナギタマチ",
    "street": null,
    "office_name": null,
    "office_name_kana": null
  },
  "0903": {
    "postcode": "3210903",
    "prefecture": "栃木県",
    "prefecture_kana": "トチギケン",
    "prefecture_code": 9,
    "city": "宇都宮市",
    "city_kana": "ウツノミヤシ",
    "town": "下平出町",
    "town_kana": "シモヒライデマチ",
    "street": null,
    "office_name": null,
    "office_name_kana": null
  },
  "0904": {
    "postcode": "3210904",
    "prefecture": "栃木県",
    "prefecture_kana": "トチギケン",
    "prefecture_code": 9,
    "city": "宇都宮市",
    "city_kana": "ウツノミヤシ",
    "town": "陽東",
    "town_kana": "ヨウトウ",
    "street": null,
    "office_name": null,
    "office_name_kana": null
  },
  "0905": {
    "postcode": "3210905",
    "prefecture": "栃木県",
    "prefecture_kana": "トチギケン",
    "prefecture_code": 9,
    "city": "宇都宮市",
    "city_kana": "ウツノミヤシ",
    "town": "平出工業団地",
    "town_kana": "ヒライデコウギョウダンチ",
    "street": null,
    "office_name": null,
    "office_name_kana": null
  },
  "0906": {
    "postcode": "3210906",
    "prefecture": "栃木県",
    "prefecture_kana": "トチギケン",
    "prefecture_code": 9,
    "city": "宇都宮市",
    "city_kana": "ウツノミヤシ",
    "town": "中久保",
    "town_kana": "ナカクボ",
    "street": null,
    "office_name": null,
    "office_name_kana": null
  },
  "0911": {
    "postcode": "3210911",
    "prefecture": "栃木県",
    "prefecture_kana": "トチギケン",
    "prefecture_code": 9,
    "city": "宇都宮市",
    "city_kana": "ウツノミヤシ",
    "town": "問屋町",
    "town_kana": "トンヤマチ",
    "street": null,
    "office_name": null,
    "office_name_kana": null
  },
  "0912": {
    "postcode": "3210912",
    "prefecture": "栃木県",
    "prefecture_kana": "トチギケン",
    "prefecture_code": 9,
    "city": "宇都宮市",
    "city_kana": "ウツノミヤシ",
    "town": "石井町",
    "town_kana": "イシイマチ",
    "street": null,
    "office_name": null,
    "office_name_kana": null
  },
  "0913": {
    "postcode": "3210913",
    "prefecture": "栃木県",
    "prefecture_kana": "トチギケン",
    "prefecture_code": 9,
    "city": "宇都宮市",
    "city_kana": "ウツノミヤシ",
    "town": "上桑島町",
    "town_kana": "カミクワジママチ",
    "street": null,
    "office_name": null,
    "office_name_kana": null
  },
  "0914": {
    "postcode": "3210914",
    "prefecture": "栃木県",
    "prefecture_kana": "トチギケン",
    "prefecture_code": 9,
    "city": "宇都宮市",
    "city_kana": "ウツノミヤシ",
    "town": "下桑島町",
    "town_kana": "シモクワジママチ",
    "street": null,
    "office_name": null,
    "office_name_kana": null
  },
  "0915": {
    "postcode": "3210915",
    "prefecture": "栃木県",
    "prefecture_kana": "トチギケン",
    "prefecture_code": 9,
    "city": "宇都宮市",
    "city_kana": "ウツノミヤシ",
    "town": "東刑部町",
    "town_kana": "ヒガシオサカベマチ",
    "street": null,
    "office_name": null,
    "office_name_kana": null
  },
  "0916": {
    "postcode": "3210916",
    "prefecture": "栃木県",
    "prefecture_kana": "トチギケン",
    "prefecture_code": 9,
    "city": "宇都宮市",
    "city_kana": "ウツノミヤシ",
    "town": "東木代町",
    "town_kana": "ヒガシキノシロマチ",
    "street": null,
    "office_name": null,
    "office_name_kana": null
  },
  "0917": {
    "postcode": "3210917",
    "prefecture": "栃木県",
    "prefecture_kana": "トチギケン",
    "prefecture_code": 9,
    "city": "宇都宮市",
    "city_kana": "ウツノミヤシ",
    "town": "西刑部町",
    "town_kana": "ニシオサカベマチ",
    "street": null,
    "office_name": null,
    "office_name_kana": null
  },
  "0918": {
    "postcode": "3210918",
    "prefecture": "栃木県",
    "prefecture_kana": "トチギケン",
    "prefecture_code": 9,
    "city": "宇都宮市",
    "city_kana": "ウツノミヤシ",
    "town": "平塚町",
    "town_kana": "ヒラツカマチ",
    "street": null,
    "office_name": null,
    "office_name_kana": null
  },
  "0921": {
    "postcode": "3210921",
    "prefecture": "栃木県",
    "prefecture_kana": "トチギケン",
    "prefecture_code": 9,
    "city": "宇都宮市",
    "city_kana": "ウツノミヤシ",
    "town": "瑞穂",
    "town_kana": "ミズホ",
    "street": null,
    "office_name": null,
    "office_name_kana": null
  },
  "0922": {
    "postcode": "3210922",
    "prefecture": "栃木県",
    "prefecture_kana": "トチギケン",
    "prefecture_code": 9,
    "city": "宇都宮市",
    "city_kana": "ウツノミヤシ",
    "town": "さるやま町",
    "town_kana": "サルヤママチ",
    "street": null,
    "office_name": null,
    "office_name_kana": null
  },
  "0923": {
    "postcode": "3210923",
    "prefecture": "栃木県",
    "prefecture_kana": "トチギケン",
    "prefecture_code": 9,
    "city": "宇都宮市",
    "city_kana": "ウツノミヤシ",
    "town": "下栗町",
    "town_kana": "シモグリマチ",
    "street": null,
    "office_name": null,
    "office_name_kana": null
  },
  "0924": {
    "postcode": "3210924",
    "prefecture": "栃木県",
    "prefecture_kana": "トチギケン",
    "prefecture_code": 9,
    "city": "宇都宮市",
    "city_kana": "ウツノミヤシ",
    "town": "下栗",
    "town_kana": "シモグリ",
    "street": null,
    "office_name": null,
    "office_name_kana": null
  },
  "0925": {
    "postcode": "3210925",
    "prefecture": "栃木県",
    "prefecture_kana": "トチギケン",
    "prefecture_code": 9,
    "city": "宇都宮市",
    "city_kana": "ウツノミヤシ",
    "town": "東簗瀬",
    "town_kana": "ヒガシヤナゼ",
    "street": null,
    "office_name": null,
    "office_name_kana": null
  },
  "0931": {
    "postcode": "3210931",
    "prefecture": "栃木県",
    "prefecture_kana": "トチギケン",
    "prefecture_code": 9,
    "city": "宇都宮市",
    "city_kana": "ウツノミヤシ",
    "town": "平松町",
    "town_kana": "ヒラマツチョウ",
    "street": null,
    "office_name": null,
    "office_name_kana": null
  },
  "0932": {
    "postcode": "3210932",
    "prefecture": "栃木県",
    "prefecture_kana": "トチギケン",
    "prefecture_code": 9,
    "city": "宇都宮市",
    "city_kana": "ウツノミヤシ",
    "town": "平松本町",
    "town_kana": "ヒラマツホンチョウ",
    "street": null,
    "office_name": null,
    "office_name_kana": null
  },
  "0933": {
    "postcode": "3210933",
    "prefecture": "栃木県",
    "prefecture_kana": "トチギケン",
    "prefecture_code": 9,
    "city": "宇都宮市",
    "city_kana": "ウツノミヤシ",
    "town": "簗瀬町",
    "town_kana": "ヤナゼマチ",
    "street": null,
    "office_name": null,
    "office_name_kana": null
  },
  "0934": {
    "postcode": "3210934",
    "prefecture": "栃木県",
    "prefecture_kana": "トチギケン",
    "prefecture_code": 9,
    "city": "宇都宮市",
    "city_kana": "ウツノミヤシ",
    "town": "簗瀬",
    "town_kana": "ヤナゼ",
    "street": null,
    "office_name": null,
    "office_name_kana": null
  },
  "0935": {
    "postcode": "3210935",
    "prefecture": "栃木県",
    "prefecture_kana": "トチギケン",
    "prefecture_code": 9,
    "city": "宇都宮市",
    "city_kana": "ウツノミヤシ",
    "town": "城東",
    "town_kana": "ジョウトウ",
    "street": null,
    "office_name": null,
    "office_name_kana": null
  },
  "0936": {
    "postcode": "3210936",
    "prefecture": "栃木県",
    "prefecture_kana": "トチギケン",
    "prefecture_code": 9,
    "city": "宇都宮市",
    "city_kana": "ウツノミヤシ",
    "town": "平松",
    "town_kana": "ヒラマツ",
    "street": null,
    "office_name": null,
    "office_name_kana": null
  },
  "0941": {
    "postcode": "3210941",
    "prefecture": "栃木県",
    "prefecture_kana": "トチギケン",
    "prefecture_code": 9,
    "city": "宇都宮市",
    "city_kana": "ウツノミヤシ",
    "town": "東今泉",
    "town_kana": "ヒガシイマイズミ",
    "street": null,
    "office_name": null,
    "office_name_kana": null
  },
  "0942": {
    "postcode": "3210942",
    "prefecture": "栃木県",
    "prefecture_kana": "トチギケン",
    "prefecture_code": 9,
    "city": "宇都宮市",
    "city_kana": "ウツノミヤシ",
    "town": "峰",
    "town_kana": "ミネ",
    "street": null,
    "office_name": null,
    "office_name_kana": null
  },
  "0943": {
    "postcode": "3210943",
    "prefecture": "栃木県",
    "prefecture_kana": "トチギケン",
    "prefecture_code": 9,
    "city": "宇都宮市",
    "city_kana": "ウツノミヤシ",
    "town": "峰町",
    "town_kana": "ミネマチ",
    "street": null,
    "office_name": null,
    "office_name_kana": null
  },
  "0944": {
    "postcode": "3210944",
    "prefecture": "栃木県",
    "prefecture_kana": "トチギケン",
    "prefecture_code": 9,
    "city": "宇都宮市",
    "city_kana": "ウツノミヤシ",
    "town": "東峰町",
    "town_kana": "ヒガシミネマチ",
    "street": null,
    "office_name": null,
    "office_name_kana": null
  },
  "0945": {
    "postcode": "3210945",
    "prefecture": "栃木県",
    "prefecture_kana": "トチギケン",
    "prefecture_code": 9,
    "city": "宇都宮市",
    "city_kana": "ウツノミヤシ",
    "town": "宿郷",
    "town_kana": "シュクゴウ",
    "street": null,
    "office_name": null,
    "office_name_kana": null
  },
  "0946": {
    "postcode": "3210946",
    "prefecture": "栃木県",
    "prefecture_kana": "トチギケン",
    "prefecture_code": 9,
    "city": "宇都宮市",
    "city_kana": "ウツノミヤシ",
    "town": "東峰",
    "town_kana": "ヒガシミネ",
    "street": null,
    "office_name": null,
    "office_name_kana": null
  },
  "0951": [
    {
      "postcode": "3210951",
      "prefecture": "栃木県",
      "prefecture_kana": "トチギケン",
      "prefecture_code": 9,
      "city": "宇都宮市",
      "city_kana": "ウツノミヤシ",
      "town": "越戸",
      "town_kana": "コエド",
      "street": null,
      "office_name": null,
      "office_name_kana": null
    },
    {
      "postcode": "3210951",
      "prefecture": "栃木県",
      "prefecture_kana": "トチギケン",
      "prefecture_code": 9,
      "city": "宇都宮市",
      "city_kana": "ウツノミヤシ",
      "town": "越戸町",
      "town_kana": "コエドマチ",
      "street": null,
      "office_name": null,
      "office_name_kana": null
    }
  ],
  "0952": {
    "postcode": "3210952",
    "prefecture": "栃木県",
    "prefecture_kana": "トチギケン",
    "prefecture_code": 9,
    "city": "宇都宮市",
    "city_kana": "ウツノミヤシ",
    "town": "泉が丘",
    "town_kana": "イズミガオカ",
    "street": null,
    "office_name": null,
    "office_name_kana": null
  },
  "0953": {
    "postcode": "3210953",
    "prefecture": "栃木県",
    "prefecture_kana": "トチギケン",
    "prefecture_code": 9,
    "city": "宇都宮市",
    "city_kana": "ウツノミヤシ",
    "town": "東宿郷",
    "town_kana": "ヒガシシュクゴウ",
    "street": null,
    "office_name": null,
    "office_name_kana": null
  },
  "0954": {
    "postcode": "3210954",
    "prefecture": "栃木県",
    "prefecture_kana": "トチギケン",
    "prefecture_code": 9,
    "city": "宇都宮市",
    "city_kana": "ウツノミヤシ",
    "town": "元今泉",
    "town_kana": "モトイマイズミ",
    "street": null,
    "office_name": null,
    "office_name_kana": null
  },
  "0961": {
    "postcode": "3210961",
    "prefecture": "栃木県",
    "prefecture_kana": "トチギケン",
    "prefecture_code": 9,
    "city": "宇都宮市",
    "city_kana": "ウツノミヤシ",
    "town": "今泉新町",
    "town_kana": "イマイズミシンマチ",
    "street": null,
    "office_name": null,
    "office_name_kana": null
  },
  "0962": {
    "postcode": "3210962",
    "prefecture": "栃木県",
    "prefecture_kana": "トチギケン",
    "prefecture_code": 9,
    "city": "宇都宮市",
    "city_kana": "ウツノミヤシ",
    "town": "今泉町",
    "town_kana": "イマイズミチョウ",
    "street": null,
    "office_name": null,
    "office_name_kana": null
  },
  "0963": {
    "postcode": "3210963",
    "prefecture": "栃木県",
    "prefecture_kana": "トチギケン",
    "prefecture_code": 9,
    "city": "宇都宮市",
    "city_kana": "ウツノミヤシ",
    "town": "南大通り",
    "town_kana": "ミナミオオドオリ",
    "street": null,
    "office_name": null,
    "office_name_kana": null
  },
  "0964": {
    "postcode": "3210964",
    "prefecture": "栃木県",
    "prefecture_kana": "トチギケン",
    "prefecture_code": 9,
    "city": "宇都宮市",
    "city_kana": "ウツノミヤシ",
    "town": "駅前通り",
    "town_kana": "エキマエドオリ",
    "street": null,
    "office_name": null,
    "office_name_kana": null
  },
  "0965": {
    "postcode": "3210965",
    "prefecture": "栃木県",
    "prefecture_kana": "トチギケン",
    "prefecture_code": 9,
    "city": "宇都宮市",
    "city_kana": "ウツノミヤシ",
    "town": "川向町",
    "town_kana": "カワムコウチョウ",
    "street": null,
    "office_name": null,
    "office_name_kana": null
  },
  "0966": {
    "postcode": "3210966",
    "prefecture": "栃木県",
    "prefecture_kana": "トチギケン",
    "prefecture_code": 9,
    "city": "宇都宮市",
    "city_kana": "ウツノミヤシ",
    "town": "今泉",
    "town_kana": "イマイズミ",
    "street": null,
    "office_name": null,
    "office_name_kana": null
  },
  "0967": {
    "postcode": "3210967",
    "prefecture": "栃木県",
    "prefecture_kana": "トチギケン",
    "prefecture_code": 9,
    "city": "宇都宮市",
    "city_kana": "ウツノミヤシ",
    "town": "錦",
    "town_kana": "ニシキ",
    "street": null,
    "office_name": null,
    "office_name_kana": null
  },
  "0968": {
    "postcode": "3210968",
    "prefecture": "栃木県",
    "prefecture_kana": "トチギケン",
    "prefecture_code": 9,
    "city": "宇都宮市",
    "city_kana": "ウツノミヤシ",
    "town": "中今泉",
    "town_kana": "ナカイマイズミ",
    "street": null,
    "office_name": null,
    "office_name_kana": null
  },
  "0969": {
    "postcode": "3210969",
    "prefecture": "栃木県",
    "prefecture_kana": "トチギケン",
    "prefecture_code": 9,
    "city": "宇都宮市",
    "city_kana": "ウツノミヤシ",
    "town": "宮みらい",
    "town_kana": "ミヤミライ",
    "street": null,
    "office_name": null,
    "office_name_kana": null
  },
  "0971": {
    "postcode": "3210971",
    "prefecture": "栃木県",
    "prefecture_kana": "トチギケン",
    "prefecture_code": 9,
    "city": "宇都宮市",
    "city_kana": "ウツノミヤシ",
    "town": "海道町",
    "town_kana": "カイドウマチ",
    "street": null,
    "office_name": null,
    "office_name_kana": null
  },
  "0972": {
    "postcode": "3210972",
    "prefecture": "栃木県",
    "prefecture_kana": "トチギケン",
    "prefecture_code": 9,
    "city": "宇都宮市",
    "city_kana": "ウツノミヤシ",
    "town": "下川俣町",
    "town_kana": "シモカワマタマチ",
    "street": null,
    "office_name": null,
    "office_name_kana": null
  },
  "0973": {
    "postcode": "3210973",
    "prefecture": "栃木県",
    "prefecture_kana": "トチギケン",
    "prefecture_code": 9,
    "city": "宇都宮市",
    "city_kana": "ウツノミヤシ",
    "town": "岩曽町",
    "town_kana": "イワゾマチ",
    "street": null,
    "office_name": null,
    "office_name_kana": null
  },
  "0974": {
    "postcode": "3210974",
    "prefecture": "栃木県",
    "prefecture_kana": "トチギケン",
    "prefecture_code": 9,
    "city": "宇都宮市",
    "city_kana": "ウツノミヤシ",
    "town": "竹林町",
    "town_kana": "タケバヤシマチ",
    "street": null,
    "office_name": null,
    "office_name_kana": null
  },
  "0975": {
    "postcode": "3210975",
    "prefecture": "栃木県",
    "prefecture_kana": "トチギケン",
    "prefecture_code": 9,
    "city": "宇都宮市",
    "city_kana": "ウツノミヤシ",
    "town": "関堀町",
    "town_kana": "セキボリチョウ",
    "street": null,
    "office_name": null,
    "office_name_kana": null
  },
  "0976": {
    "postcode": "3210976",
    "prefecture": "栃木県",
    "prefecture_kana": "トチギケン",
    "prefecture_code": 9,
    "city": "宇都宮市",
    "city_kana": "ウツノミヤシ",
    "town": "岩本町",
    "town_kana": "イワモトチョウ",
    "street": null,
    "office_name": null,
    "office_name_kana": null
  },
  "0977": {
    "postcode": "3210977",
    "prefecture": "栃木県",
    "prefecture_kana": "トチギケン",
    "prefecture_code": 9,
    "city": "宇都宮市",
    "city_kana": "ウツノミヤシ",
    "town": "川俣町",
    "town_kana": "カワマタチョウ",
    "street": null,
    "office_name": null,
    "office_name_kana": null
  },
  "0981": {
    "postcode": "3210981",
    "prefecture": "栃木県",
    "prefecture_kana": "トチギケン",
    "prefecture_code": 9,
    "city": "宇都宮市",
    "city_kana": "ウツノミヤシ",
    "town": "上野町",
    "town_kana": "ウエノマチ",
    "street": null,
    "office_name": null,
    "office_name_kana": null
  },
  "0982": {
    "postcode": "3210982",
    "prefecture": "栃木県",
    "prefecture_kana": "トチギケン",
    "prefecture_code": 9,
    "city": "宇都宮市",
    "city_kana": "ウツノミヤシ",
    "town": "御幸ケ原町",
    "town_kana": "ミユキガハラマチ",
    "street": null,
    "office_name": null,
    "office_name_kana": null
  },
  "0983": {
    "postcode": "3210983",
    "prefecture": "栃木県",
    "prefecture_kana": "トチギケン",
    "prefecture_code": 9,
    "city": "宇都宮市",
    "city_kana": "ウツノミヤシ",
    "town": "御幸本町",
    "town_kana": "ミユキホンチョウ",
    "street": null,
    "office_name": null,
    "office_name_kana": null
  },
  "0984": {
    "postcode": "3210984",
    "prefecture": "栃木県",
    "prefecture_kana": "トチギケン",
    "prefecture_code": 9,
    "city": "宇都宮市",
    "city_kana": "ウツノミヤシ",
    "town": "御幸町",
    "town_kana": "ミユキチョウ",
    "street": null,
    "office_name": null,
    "office_name_kana": null
  },
  "0985": {
    "postcode": "3210985",
    "prefecture": "栃木県",
    "prefecture_kana": "トチギケン",
    "prefecture_code": 9,
    "city": "宇都宮市",
    "city_kana": "ウツノミヤシ",
    "town": "東町",
    "town_kana": "ヒガシマチ",
    "street": null,
    "office_name": null,
    "office_name_kana": null
  },
  "1101": {
    "postcode": "3211101",
    "prefecture": "栃木県",
    "prefecture_kana": "トチギケン",
    "prefecture_code": 9,
    "city": "日光市",
    "city_kana": "ニッコウシ",
    "town": "明神",
    "town_kana": "ミョウジン",
    "street": null,
    "office_name": null,
    "office_name_kana": null
  },
  "1102": {
    "postcode": "3211102",
    "prefecture": "栃木県",
    "prefecture_kana": "トチギケン",
    "prefecture_code": 9,
    "city": "日光市",
    "city_kana": "ニッコウシ",
    "town": "板橋",
    "town_kana": "イタバシ",
    "street": null,
    "office_name": null,
    "office_name_kana": null
  },
  "1103": {
    "postcode": "3211103",
    "prefecture": "栃木県",
    "prefecture_kana": "トチギケン",
    "prefecture_code": 9,
    "city": "日光市",
    "city_kana": "ニッコウシ",
    "town": "手岡",
    "town_kana": "チョウカ",
    "street": null,
    "office_name": null,
    "office_name_kana": null
  },
  "1104": {
    "postcode": "3211104",
    "prefecture": "栃木県",
    "prefecture_kana": "トチギケン",
    "prefecture_code": 9,
    "city": "日光市",
    "city_kana": "ニッコウシ",
    "town": "岩崎",
    "town_kana": "イワザキ",
    "street": null,
    "office_name": null,
    "office_name_kana": null
  },
  "1105": {
    "postcode": "3211105",
    "prefecture": "栃木県",
    "prefecture_kana": "トチギケン",
    "prefecture_code": 9,
    "city": "日光市",
    "city_kana": "ニッコウシ",
    "town": "文挾町",
    "town_kana": "フバサミマチ",
    "street": null,
    "office_name": null,
    "office_name_kana": null
  },
  "1106": {
    "postcode": "3211106",
    "prefecture": "栃木県",
    "prefecture_kana": "トチギケン",
    "prefecture_code": 9,
    "city": "日光市",
    "city_kana": "ニッコウシ",
    "town": "小倉",
    "town_kana": "コグラ",
    "street": null,
    "office_name": null,
    "office_name_kana": null
  },
  "1107": {
    "postcode": "3211107",
    "prefecture": "栃木県",
    "prefecture_kana": "トチギケン",
    "prefecture_code": 9,
    "city": "日光市",
    "city_kana": "ニッコウシ",
    "town": "小代",
    "town_kana": "コシロ",
    "street": null,
    "office_name": null,
    "office_name_kana": null
  },
  "1108": {
    "postcode": "3211108",
    "prefecture": "栃木県",
    "prefecture_kana": "トチギケン",
    "prefecture_code": 9,
    "city": "日光市",
    "city_kana": "ニッコウシ",
    "town": "長畑",
    "town_kana": "ナガハタ",
    "street": null,
    "office_name": null,
    "office_name_kana": null
  },
  "1111": {
    "postcode": "3211111",
    "prefecture": "栃木県",
    "prefecture_kana": "トチギケン",
    "prefecture_code": 9,
    "city": "鹿沼市",
    "city_kana": "カヌマシ",
    "town": "板荷",
    "town_kana": "イタガ",
    "street": null,
    "office_name": null,
    "office_name_kana": null
  },
  "1200": {
    "postcode": "3211200",
    "prefecture": "栃木県",
    "prefecture_kana": "トチギケン",
    "prefecture_code": 9,
    "city": "日光市",
    "city_kana": "ニッコウシ",
    "town": "",
    "town_kana": "",
    "street": null,
    "office_name": null,
    "office_name_kana": null
  },
  "1261": {
    "postcode": "3211261",
    "prefecture": "栃木県",
    "prefecture_kana": "トチギケン",
    "prefecture_code": 9,
    "city": "日光市",
    "city_kana": "ニッコウシ",
    "town": "今市",
    "town_kana": "イマイチ",
    "street": null,
    "office_name": null,
    "office_name_kana": null
  },
  "1262": {
    "postcode": "3211262",
    "prefecture": "栃木県",
    "prefecture_kana": "トチギケン",
    "prefecture_code": 9,
    "city": "日光市",
    "city_kana": "ニッコウシ",
    "town": "平ケ崎",
    "town_kana": "ヒラガサキ",
    "street": null,
    "office_name": null,
    "office_name_kana": null
  },
  "1263": {
    "postcode": "3211263",
    "prefecture": "栃木県",
    "prefecture_kana": "トチギケン",
    "prefecture_code": 9,
    "city": "日光市",
    "city_kana": "ニッコウシ",
    "town": "瀬川",
    "town_kana": "セガワ",
    "street": null,
    "office_name": null,
    "office_name_kana": null
  },
  "1264": {
    "postcode": "3211264",
    "prefecture": "栃木県",
    "prefecture_kana": "トチギケン",
    "prefecture_code": 9,
    "city": "日光市",
    "city_kana": "ニッコウシ",
    "town": "瀬尾",
    "town_kana": "セノオ",
    "street": null,
    "office_name": null,
    "office_name_kana": null
  },
  "1265": {
    "postcode": "3211265",
    "prefecture": "栃木県",
    "prefecture_kana": "トチギケン",
    "prefecture_code": 9,
    "city": "日光市",
    "city_kana": "ニッコウシ",
    "town": "小百",
    "town_kana": "コビャク",
    "street": null,
    "office_name": null,
    "office_name_kana": null
  },
  "1266": {
    "postcode": "3211266",
    "prefecture": "栃木県",
    "prefecture_kana": "トチギケン",
    "prefecture_code": 9,
    "city": "日光市",
    "city_kana": "ニッコウシ",
    "town": "中央町",
    "town_kana": "チュウオウチョウ",
    "street": null,
    "office_name": null,
    "office_name_kana": null
  },
  "1271": {
    "postcode": "3211271",
    "prefecture": "栃木県",
    "prefecture_kana": "トチギケン",
    "prefecture_code": 9,
    "city": "日光市",
    "city_kana": "ニッコウシ",
    "town": "並木町",
    "town_kana": "ナミキチョウ",
    "street": null,
    "office_name": null,
    "office_name_kana": null
  },
  "1272": {
    "postcode": "3211272",
    "prefecture": "栃木県",
    "prefecture_kana": "トチギケン",
    "prefecture_code": 9,
    "city": "日光市",
    "city_kana": "ニッコウシ",
    "town": "今市本町",
    "town_kana": "イマイチホンチョウ",
    "street": null,
    "office_name": null,
    "office_name_kana": null
  },
  "1273": {
    "postcode": "3211273",
    "prefecture": "栃木県",
    "prefecture_kana": "トチギケン",
    "prefecture_code": 9,
    "city": "日光市",
    "city_kana": "ニッコウシ",
    "town": "吉沢",
    "town_kana": "キチサワ",
    "street": null,
    "office_name": null,
    "office_name_kana": null
  },
  "1274": {
    "postcode": "3211274",
    "prefecture": "栃木県",
    "prefecture_kana": "トチギケン",
    "prefecture_code": 9,
    "city": "日光市",
    "city_kana": "ニッコウシ",
    "town": "土沢",
    "town_kana": "ドサワ",
    "street": null,
    "office_name": null,
    "office_name_kana": null
  },
  "1275": {
    "postcode": "3211275",
    "prefecture": "栃木県",
    "prefecture_kana": "トチギケン",
    "prefecture_code": 9,
    "city": "日光市",
    "city_kana": "ニッコウシ",
    "town": "室瀬",
    "town_kana": "ムロゼ",
    "street": null,
    "office_name": null,
    "office_name_kana": null
  },
  "1276": {
    "postcode": "3211276",
    "prefecture": "栃木県",
    "prefecture_kana": "トチギケン",
    "prefecture_code": 9,
    "city": "日光市",
    "city_kana": "ニッコウシ",
    "town": "下の内",
    "town_kana": "シモノウチ",
    "street": null,
    "office_name": null,
    "office_name_kana": null
  },
  "1277": {
    "postcode": "3211277",
    "prefecture": "栃木県",
    "prefecture_kana": "トチギケン",
    "prefecture_code": 9,
    "city": "日光市",
    "city_kana": "ニッコウシ",
    "town": "千本木",
    "town_kana": "センボンギ",
    "street": null,
    "office_name": null,
    "office_name_kana": null
  },
  "1292": {
    "postcode": "3211292",
    "prefecture": "栃木県",
    "prefecture_kana": "トチギケン",
    "prefecture_code": 9,
    "city": "日光市",
    "city_kana": "ニッコウシ",
    "town": "今市本町",
    "town_kana": "イマイチホンチョウ",
    "street": "１",
    "office_name": "日光市役所",
    "office_name_kana": "ニツコウシヤクシヨ"
  },
  "1293": {
    "postcode": "3211293",
    "prefecture": "栃木県",
    "prefecture_kana": "トチギケン",
    "prefecture_code": 9,
    "city": "日光市",
    "city_kana": "ニッコウシ",
    "town": "中央町",
    "town_kana": "チュウオウチョウ",
    "street": "１７−３",
    "office_name": "日本年金機構　今市年金事務所",
    "office_name_kana": "ニツポンネンキンキコウ イマイチネンキンジムシヨ"
  },
  "1298": {
    "postcode": "3211298",
    "prefecture": "栃木県",
    "prefecture_kana": "トチギケン",
    "prefecture_code": 9,
    "city": "日光市",
    "city_kana": "ニッコウシ",
    "town": "森友",
    "town_kana": "モリトモ",
    "street": "１４５番地１",
    "office_name": "獨協医科大学　日光医療センター",
    "office_name_kana": "ドツキヨウイカダイガク ニツコウイリヨウセンタ-"
  },
  "1351": {
    "postcode": "3211351",
    "prefecture": "栃木県",
    "prefecture_kana": "トチギケン",
    "prefecture_code": 9,
    "city": "日光市",
    "city_kana": "ニッコウシ",
    "town": "東小来川",
    "town_kana": "ヒガシオコロガワ",
    "street": null,
    "office_name": null,
    "office_name_kana": null
  },
  "1352": {
    "postcode": "3211352",
    "prefecture": "栃木県",
    "prefecture_kana": "トチギケン",
    "prefecture_code": 9,
    "city": "日光市",
    "city_kana": "ニッコウシ",
    "town": "宮小来川",
    "town_kana": "ミヤオコロガワ",
    "street": null,
    "office_name": null,
    "office_name_kana": null
  },
  "1353": {
    "postcode": "3211353",
    "prefecture": "栃木県",
    "prefecture_kana": "トチギケン",
    "prefecture_code": 9,
    "city": "日光市",
    "city_kana": "ニッコウシ",
    "town": "南小来川",
    "town_kana": "ミナミオコロガワ",
    "street": null,
    "office_name": null,
    "office_name_kana": null
  },
  "1354": {
    "postcode": "3211354",
    "prefecture": "栃木県",
    "prefecture_kana": "トチギケン",
    "prefecture_code": 9,
    "city": "日光市",
    "city_kana": "ニッコウシ",
    "town": "中小来川",
    "town_kana": "ナカオコロガワ",
    "street": null,
    "office_name": null,
    "office_name_kana": null
  },
  "1355": {
    "postcode": "3211355",
    "prefecture": "栃木県",
    "prefecture_kana": "トチギケン",
    "prefecture_code": 9,
    "city": "日光市",
    "city_kana": "ニッコウシ",
    "town": "西小来川",
    "town_kana": "ニシオコロガワ",
    "street": null,
    "office_name": null,
    "office_name_kana": null
  },
  "1356": {
    "postcode": "3211356",
    "prefecture": "栃木県",
    "prefecture_kana": "トチギケン",
    "prefecture_code": 9,
    "city": "日光市",
    "city_kana": "ニッコウシ",
    "town": "滝ケ原",
    "town_kana": "タキガハラ",
    "street": null,
    "office_name": null,
    "office_name_kana": null
  },
  "1401": {
    "postcode": "3211401",
    "prefecture": "栃木県",
    "prefecture_kana": "トチギケン",
    "prefecture_code": 9,
    "city": "日光市",
    "city_kana": "ニッコウシ",
    "town": "上鉢石町",
    "town_kana": "カミハツイシマチ",
    "street": null,
    "office_name": null,
    "office_name_kana": null
  },
  "1402": {
    "postcode": "3211402",
    "prefecture": "栃木県",
    "prefecture_kana": "トチギケン",
    "prefecture_code": 9,
    "city": "日光市",
    "city_kana": "ニッコウシ",
    "town": "中鉢石町",
    "town_kana": "ナカハツイシマチ",
    "street": null,
    "office_name": null,
    "office_name_kana": null
  },
  "1403": {
    "postcode": "3211403",
    "prefecture": "栃木県",
    "prefecture_kana": "トチギケン",
    "prefecture_code": 9,
    "city": "日光市",
    "city_kana": "ニッコウシ",
    "town": "下鉢石町",
    "town_kana": "シモハツイシマチ",
    "street": null,
    "office_name": null,
    "office_name_kana": null
  },
  "1404": {
    "postcode": "3211404",
    "prefecture": "栃木県",
    "prefecture_kana": "トチギケン",
    "prefecture_code": 9,
    "city": "日光市",
    "city_kana": "ニッコウシ",
    "town": "御幸町",
    "town_kana": "ゴコウマチ",
    "street": null,
    "office_name": null,
    "office_name_kana": null
  },
  "1405": {
    "postcode": "3211405",
    "prefecture": "栃木県",
    "prefecture_kana": "トチギケン",
    "prefecture_code": 9,
    "city": "日光市",
    "city_kana": "ニッコウシ",
    "town": "石屋町",
    "town_kana": "イシヤマチ",
    "street": null,
    "office_name": null,
    "office_name_kana": null
  },
  "1406": {
    "postcode": "3211406",
    "prefecture": "栃木県",
    "prefecture_kana": "トチギケン",
    "prefecture_code": 9,
    "city": "日光市",
    "city_kana": "ニッコウシ",
    "town": "松原町",
    "town_kana": "マツバラチョウ",
    "street": null,
    "office_name": null,
    "office_name_kana": null
  },
  "1407": {
    "postcode": "3211407",
    "prefecture": "栃木県",
    "prefecture_kana": "トチギケン",
    "prefecture_code": 9,
    "city": "日光市",
    "city_kana": "ニッコウシ",
    "town": "若杉町",
    "town_kana": "ワカスギチョウ",
    "street": null,
    "office_name": null,
    "office_name_kana": null
  },
  "1411": {
    "postcode": "3211411",
    "prefecture": "栃木県",
    "prefecture_kana": "トチギケン",
    "prefecture_code": 9,
    "city": "日光市",
    "city_kana": "ニッコウシ",
    "town": "稲荷町",
    "town_kana": "イナリマチ",
    "street": null,
    "office_name": null,
    "office_name_kana": null
  },
  "1412": {
    "postcode": "3211412",
    "prefecture": "栃木県",
    "prefecture_kana": "トチギケン",
    "prefecture_code": 9,
    "city": "日光市",
    "city_kana": "ニッコウシ",
    "town": "東和町",
    "town_kana": "トウワチョウ",
    "street": null,
    "office_name": null,
    "office_name_kana": null
  },
  "1413": {
    "postcode": "3211413",
    "prefecture": "栃木県",
    "prefecture_kana": "トチギケン",
    "prefecture_code": 9,
    "city": "日光市",
    "city_kana": "ニッコウシ",
    "town": "相生町",
    "town_kana": "アイオイチョウ",
    "street": null,
    "office_name": null,
    "office_name_kana": null
  },
  "1414": {
    "postcode": "3211414",
    "prefecture": "栃木県",
    "prefecture_kana": "トチギケン",
    "prefecture_code": 9,
    "city": "日光市",
    "city_kana": "ニッコウシ",
    "town": "萩垣面",
    "town_kana": "ハンガキメン",
    "street": null,
    "office_name": null,
    "office_name_kana": null
  },
  "1415": {
    "postcode": "3211415",
    "prefecture": "栃木県",
    "prefecture_kana": "トチギケン",
    "prefecture_code": 9,
    "city": "日光市",
    "city_kana": "ニッコウシ",
    "town": "日光",
    "town_kana": "ニッコウ",
    "street": null,
    "office_name": null,
    "office_name_kana": null
  },
  "1421": {
    "postcode": "3211421",
    "prefecture": "栃木県",
    "prefecture_kana": "トチギケン",
    "prefecture_code": 9,
    "city": "日光市",
    "city_kana": "ニッコウシ",
    "town": "所野",
    "town_kana": "トコロノ",
    "street": null,
    "office_name": null,
    "office_name_kana": null
  },
  "1422": {
    "postcode": "3211422",
    "prefecture": "栃木県",
    "prefecture_kana": "トチギケン",
    "prefecture_code": 9,
    "city": "日光市",
    "city_kana": "ニッコウシ",
    "town": "宝殿",
    "town_kana": "ホウデン",
    "street": null,
    "office_name": null,
    "office_name_kana": null
  },
  "1423": {
    "postcode": "3211423",
    "prefecture": "栃木県",
    "prefecture_kana": "トチギケン",
    "prefecture_code": 9,
    "city": "日光市",
    "city_kana": "ニッコウシ",
    "town": "七里",
    "town_kana": "シチリ",
    "street": null,
    "office_name": null,
    "office_name_kana": null
  },
  "1424": {
    "postcode": "3211424",
    "prefecture": "栃木県",
    "prefecture_kana": "トチギケン",
    "prefecture_code": 9,
    "city": "日光市",
    "city_kana": "ニッコウシ",
    "town": "野口",
    "town_kana": "ノグチ",
    "street": null,
    "office_name": null,
    "office_name_kana": null
  },
  "1425": {
    "postcode": "3211425",
    "prefecture": "栃木県",
    "prefecture_kana": "トチギケン",
    "prefecture_code": 9,
    "city": "日光市",
    "city_kana": "ニッコウシ",
    "town": "和泉",
    "town_kana": "イズミ",
    "street": null,
    "office_name": null,
    "office_name_kana": null
  },
  "1426": {
    "postcode": "3211426",
    "prefecture": "栃木県",
    "prefecture_kana": "トチギケン",
    "prefecture_code": 9,
    "city": "日光市",
    "city_kana": "ニッコウシ",
    "town": "山久保",
    "town_kana": "ヤマクボ",
    "street": null,
    "office_name": null,
    "office_name_kana": null
  },
  "1431": {
    "postcode": "3211431",
    "prefecture": "栃木県",
    "prefecture_kana": "トチギケン",
    "prefecture_code": 9,
    "city": "日光市",
    "city_kana": "ニッコウシ",
    "town": "山内",
    "town_kana": "サンナイ",
    "street": null,
    "office_name": null,
    "office_name_kana": null
  },
  "1432": {
    "postcode": "3211432",
    "prefecture": "栃木県",
    "prefecture_kana": "トチギケン",
    "prefecture_code": 9,
    "city": "日光市",
    "city_kana": "ニッコウシ",
    "town": "安川町",
    "town_kana": "ヤスカワチョウ",
    "street": null,
    "office_name": null,
    "office_name_kana": null
  },
  "1433": {
    "postcode": "3211433",
    "prefecture": "栃木県",
    "prefecture_kana": "トチギケン",
    "prefecture_code": 9,
    "city": "日光市",
    "city_kana": "ニッコウシ",
    "town": "匠町",
    "town_kana": "タクミチョウ",
    "street": null,
    "office_name": null,
    "office_name_kana": null
  },
  "1434": {
    "postcode": "3211434",
    "prefecture": "栃木県",
    "prefecture_kana": "トチギケン",
    "prefecture_code": 9,
    "city": "日光市",
    "city_kana": "ニッコウシ",
    "town": "本町",
    "town_kana": "ホンチョウ",
    "street": null,
    "office_name": null,
    "office_name_kana": null
  },
  "1435": {
    "postcode": "3211435",
    "prefecture": "栃木県",
    "prefecture_kana": "トチギケン",
    "prefecture_code": 9,
    "city": "日光市",
    "city_kana": "ニッコウシ",
    "town": "花石町",
    "town_kana": "ハナイシチョウ",
    "street": null,
    "office_name": null,
    "office_name_kana": null
  },
  "1436": {
    "postcode": "3211436",
    "prefecture": "栃木県",
    "prefecture_kana": "トチギケン",
    "prefecture_code": 9,
    "city": "日光市",
    "city_kana": "ニッコウシ",
    "town": "久次良町",
    "town_kana": "クジラマチ",
    "street": null,
    "office_name": null,
    "office_name_kana": null
  },
  "1441": {
    "postcode": "3211441",
    "prefecture": "栃木県",
    "prefecture_kana": "トチギケン",
    "prefecture_code": 9,
    "city": "日光市",
    "city_kana": "ニッコウシ",
    "town": "清滝安良沢町",
    "town_kana": "キヨタキアラサワマチ",
    "street": null,
    "office_name": null,
    "office_name_kana": null
  },
  "1442": {
    "postcode": "3211442",
    "prefecture": "栃木県",
    "prefecture_kana": "トチギケン",
    "prefecture_code": 9,
    "city": "日光市",
    "city_kana": "ニッコウシ",
    "town": "清滝丹勢町",
    "town_kana": "キヨタキタンゼマチ",
    "street": null,
    "office_name": null,
    "office_name_kana": null
  },
  "1443": {
    "postcode": "3211443",
    "prefecture": "栃木県",
    "prefecture_kana": "トチギケン",
    "prefecture_code": 9,
    "city": "日光市",
    "city_kana": "ニッコウシ",
    "town": "清滝桜ケ丘町",
    "town_kana": "キヨタキサクラガオカマチ",
    "street": null,
    "office_name": null,
    "office_name_kana": null
  },
  "1444": {
    "postcode": "3211444",
    "prefecture": "栃木県",
    "prefecture_kana": "トチギケン",
    "prefecture_code": 9,
    "city": "日光市",
    "city_kana": "ニッコウシ",
    "town": "清滝",
    "town_kana": "キヨタキ",
    "street": null,
    "office_name": null,
    "office_name_kana": null
  },
  "1445": {
    "postcode": "3211445",
    "prefecture": "栃木県",
    "prefecture_kana": "トチギケン",
    "prefecture_code": 9,
    "city": "日光市",
    "city_kana": "ニッコウシ",
    "town": "細尾町",
    "town_kana": "ホソオマチ",
    "street": null,
    "office_name": null,
    "office_name_kana": null
  },
  "1446": {
    "postcode": "3211446",
    "prefecture": "栃木県",
    "prefecture_kana": "トチギケン",
    "prefecture_code": 9,
    "city": "日光市",
    "city_kana": "ニッコウシ",
    "town": "清滝中安戸町",
    "town_kana": "キヨタキナカヤスドマチ",
    "street": null,
    "office_name": null,
    "office_name_kana": null
  },
  "1447": {
    "postcode": "3211447",
    "prefecture": "栃木県",
    "prefecture_kana": "トチギケン",
    "prefecture_code": 9,
    "city": "日光市",
    "city_kana": "ニッコウシ",
    "town": "清滝和の代町",
    "town_kana": "キヨタキワノシロマチ",
    "street": null,
    "office_name": null,
    "office_name_kana": null
  },
  "1448": {
    "postcode": "3211448",
    "prefecture": "栃木県",
    "prefecture_kana": "トチギケン",
    "prefecture_code": 9,
    "city": "日光市",
    "city_kana": "ニッコウシ",
    "town": "清滝新細尾町",
    "town_kana": "キヨタキシンホソオマチ",
    "street": null,
    "office_name": null,
    "office_name_kana": null
  },
  "1449": {
    "postcode": "3211449",
    "prefecture": "栃木県",
    "prefecture_kana": "トチギケン",
    "prefecture_code": 9,
    "city": "日光市",
    "city_kana": "ニッコウシ",
    "town": "丹勢",
    "town_kana": "タンゼ",
    "street": null,
    "office_name": null,
    "office_name_kana": null
  },
  "1492": {
    "postcode": "3211492",
    "prefecture": "栃木県",
    "prefecture_kana": "トチギケン",
    "prefecture_code": 9,
    "city": "日光市",
    "city_kana": "ニッコウシ",
    "town": "中鉢石町",
    "town_kana": "ナカハツイシマチ",
    "street": "９９９",
    "office_name": "日光市役所　日光総合支所",
    "office_name_kana": "ニツコウシヤクシヨ ニツコウソウゴウシシヨ"
  },
  "1493": {
    "postcode": "3211493",
    "prefecture": "栃木県",
    "prefecture_kana": "トチギケン",
    "prefecture_code": 9,
    "city": "日光市",
    "city_kana": "ニッコウシ",
    "town": "清滝町",
    "town_kana": null,
    "street": "５００",
    "office_name": "古河電工",
    "office_name_kana": "フルカワデンコウ"
  },
  "1501": {
    "postcode": "3211501",
    "prefecture": "栃木県",
    "prefecture_kana": "トチギケン",
    "prefecture_code": 9,
    "city": "日光市",
    "city_kana": "ニッコウシ",
    "town": "足尾町愛宕下",
    "town_kana": "アシオマチアタゴシタ",
    "street": null,
    "office_name": null,
    "office_name_kana": null
  },
  "1502": {
    "postcode": "3211502",
    "prefecture": "栃木県",
    "prefecture_kana": "トチギケン",
    "prefecture_code": 9,
    "city": "日光市",
    "city_kana": "ニッコウシ",
    "town": "足尾町赤倉",
    "town_kana": "アシオマチアカクラ",
    "street": null,
    "office_name": null,
    "office_name_kana": null
  },
  "1503": {
    "postcode": "3211503",
    "prefecture": "栃木県",
    "prefecture_kana": "トチギケン",
    "prefecture_code": 9,
    "city": "日光市",
    "city_kana": "ニッコウシ",
    "town": "足尾町深沢",
    "town_kana": "アシオマチフカサワ",
    "street": null,
    "office_name": null,
    "office_name_kana": null
  },
  "1504": {
    "postcode": "3211504",
    "prefecture": "栃木県",
    "prefecture_kana": "トチギケン",
    "prefecture_code": 9,
    "city": "日光市",
    "city_kana": "ニッコウシ",
    "town": "足尾町上間藤",
    "town_kana": "アシオマチカミマトウ",
    "street": null,
    "office_name": null,
    "office_name_kana": null
  },
  "1505": {
    "postcode": "3211505",
    "prefecture": "栃木県",
    "prefecture_kana": "トチギケン",
    "prefecture_code": 9,
    "city": "日光市",
    "city_kana": "ニッコウシ",
    "town": "足尾町上の平",
    "town_kana": "アシオマチウエノタイラ",
    "street": null,
    "office_name": null,
    "office_name_kana": null
  },
  "1506": {
    "postcode": "3211506",
    "prefecture": "栃木県",
    "prefecture_kana": "トチギケン",
    "prefecture_code": 9,
    "city": "日光市",
    "city_kana": "ニッコウシ",
    "town": "足尾町下間藤",
    "town_kana": "アシオマチシモマトウ",
    "street": null,
    "office_name": null,
    "office_name_kana": null
  },
  "1507": {
    "postcode": "3211507",
    "prefecture": "栃木県",
    "prefecture_kana": "トチギケン",
    "prefecture_code": 9,
    "city": "日光市",
    "city_kana": "ニッコウシ",
    "town": "足尾町南橋",
    "town_kana": "アシオマチナンキョウ",
    "street": null,
    "office_name": null,
    "office_name_kana": null
  },
  "1508": {
    "postcode": "3211508",
    "prefecture": "栃木県",
    "prefecture_kana": "トチギケン",
    "prefecture_code": 9,
    "city": "日光市",
    "city_kana": "ニッコウシ",
    "town": "足尾町本山",
    "town_kana": "アシオマチホンザン",
    "street": null,
    "office_name": null,
    "office_name_kana": null
  },
  "1511": {
    "postcode": "3211511",
    "prefecture": "栃木県",
    "prefecture_kana": "トチギケン",
    "prefecture_code": 9,
    "city": "日光市",
    "city_kana": "ニッコウシ",
    "town": "足尾町",
    "town_kana": "アシオマチ",
    "street": null,
    "office_name": null,
    "office_name_kana": null
  },
  "1512": {
    "postcode": "3211512",
    "prefecture": "栃木県",
    "prefecture_kana": "トチギケン",
    "prefecture_code": 9,
    "city": "日光市",
    "city_kana": "ニッコウシ",
    "town": "足尾町掛水",
    "town_kana": "アシオマチカケミズ",
    "street": null,
    "office_name": null,
    "office_name_kana": null
  },
  "1513": {
    "postcode": "3211513",
    "prefecture": "栃木県",
    "prefecture_kana": "トチギケン",
    "prefecture_code": 9,
    "city": "日光市",
    "city_kana": "ニッコウシ",
    "town": "足尾町向原",
    "town_kana": "アシオマチムカイハラ",
    "street": null,
    "office_name": null,
    "office_name_kana": null
  },
  "1514": {
    "postcode": "3211514",
    "prefecture": "栃木県",
    "prefecture_kana": "トチギケン",
    "prefecture_code": 9,
    "city": "日光市",
    "city_kana": "ニッコウシ",
    "town": "足尾町通洞",
    "town_kana": "アシオマチツウドウ",
    "street": null,
    "office_name": null,
    "office_name_kana": null
  },
  "1515": {
    "postcode": "3211515",
    "prefecture": "栃木県",
    "prefecture_kana": "トチギケン",
    "prefecture_code": 9,
    "city": "日光市",
    "city_kana": "ニッコウシ",
    "town": "足尾町砂畑",
    "town_kana": "アシオマチスナハタ",
    "street": null,
    "office_name": null,
    "office_name_kana": null
  },
  "1521": {
    "postcode": "3211521",
    "prefecture": "栃木県",
    "prefecture_kana": "トチギケン",
    "prefecture_code": 9,
    "city": "日光市",
    "city_kana": "ニッコウシ",
    "town": "足尾町遠下",
    "town_kana": "アシオマチトオジモ",
    "street": null,
    "office_name": null,
    "office_name_kana": null
  },
  "1522": {
    "postcode": "3211522",
    "prefecture": "栃木県",
    "prefecture_kana": "トチギケン",
    "prefecture_code": 9,
    "city": "日光市",
    "city_kana": "ニッコウシ",
    "town": "足尾町中才",
    "town_kana": "アシオマチナカサイ",
    "street": null,
    "office_name": null,
    "office_name_kana": null
  },
  "1523": {
    "postcode": "3211523",
    "prefecture": "栃木県",
    "prefecture_kana": "トチギケン",
    "prefecture_code": 9,
    "city": "日光市",
    "city_kana": "ニッコウシ",
    "town": "足尾町松原",
    "town_kana": "アシオマチマツバラ",
    "street": null,
    "office_name": null,
    "office_name_kana": null
  },
  "1524": {
    "postcode": "3211524",
    "prefecture": "栃木県",
    "prefecture_kana": "トチギケン",
    "prefecture_code": 9,
    "city": "日光市",
    "city_kana": "ニッコウシ",
    "town": "足尾町赤沢",
    "town_kana": "アシオマチアカサワ",
    "street": null,
    "office_name": null,
    "office_name_kana": null
  },
  "1661": {
    "postcode": "3211661",
    "prefecture": "栃木県",
    "prefecture_kana": "トチギケン",
    "prefecture_code": 9,
    "city": "日光市",
    "city_kana": "ニッコウシ",
    "town": "中宮祠",
    "town_kana": "チュウグウシ",
    "street": null,
    "office_name": null,
    "office_name_kana": null
  },
  "1662": {
    "postcode": "3211662",
    "prefecture": "栃木県",
    "prefecture_kana": "トチギケン",
    "prefecture_code": 9,
    "city": "日光市",
    "city_kana": "ニッコウシ",
    "town": "湯元",
    "town_kana": "ユモト",
    "street": null,
    "office_name": null,
    "office_name_kana": null
  },
  "2101": {
    "postcode": "3212101",
    "prefecture": "栃木県",
    "prefecture_kana": "トチギケン",
    "prefecture_code": 9,
    "city": "宇都宮市",
    "city_kana": "ウツノミヤシ",
    "town": "飯山町",
    "town_kana": "イイヤママチ",
    "street": null,
    "office_name": null,
    "office_name_kana": null
  },
  "2102": {
    "postcode": "3212102",
    "prefecture": "栃木県",
    "prefecture_kana": "トチギケン",
    "prefecture_code": 9,
    "city": "宇都宮市",
    "city_kana": "ウツノミヤシ",
    "town": "篠井町",
    "town_kana": "シノイマチ",
    "street": null,
    "office_name": null,
    "office_name_kana": null
  },
  "2103": {
    "postcode": "3212103",
    "prefecture": "栃木県",
    "prefecture_kana": "トチギケン",
    "prefecture_code": 9,
    "city": "宇都宮市",
    "city_kana": "ウツノミヤシ",
    "town": "石那田町",
    "town_kana": "イシナダマチ",
    "street": null,
    "office_name": null,
    "office_name_kana": null
  },
  "2104": {
    "postcode": "3212104",
    "prefecture": "栃木県",
    "prefecture_kana": "トチギケン",
    "prefecture_code": 9,
    "city": "宇都宮市",
    "city_kana": "ウツノミヤシ",
    "town": "上小池町",
    "town_kana": "カミコイケマチ",
    "street": null,
    "office_name": null,
    "office_name_kana": null
  },
  "2105": {
    "postcode": "3212105",
    "prefecture": "栃木県",
    "prefecture_kana": "トチギケン",
    "prefecture_code": 9,
    "city": "宇都宮市",
    "city_kana": "ウツノミヤシ",
    "town": "下小池町",
    "town_kana": "シモコイケマチ",
    "street": null,
    "office_name": null,
    "office_name_kana": null
  },
  "2111": {
    "postcode": "3212111",
    "prefecture": "栃木県",
    "prefecture_kana": "トチギケン",
    "prefecture_code": 9,
    "city": "宇都宮市",
    "city_kana": "ウツノミヤシ",
    "town": "大網町",
    "town_kana": "オオアミマチ",
    "street": null,
    "office_name": null,
    "office_name_kana": null
  },
  "2112": {
    "postcode": "3212112",
    "prefecture": "栃木県",
    "prefecture_kana": "トチギケン",
    "prefecture_code": 9,
    "city": "宇都宮市",
    "city_kana": "ウツノミヤシ",
    "town": "上横倉町",
    "town_kana": "カミヨコクラマチ",
    "street": null,
    "office_name": null,
    "office_name_kana": null
  },
  "2113": {
    "postcode": "3212113",
    "prefecture": "栃木県",
    "prefecture_kana": "トチギケン",
    "prefecture_code": 9,
    "city": "宇都宮市",
    "city_kana": "ウツノミヤシ",
    "town": "下横倉町",
    "town_kana": "シモヨコクラマチ",
    "street": null,
    "office_name": null,
    "office_name_kana": null
  },
  "2114": {
    "postcode": "3212114",
    "prefecture": "栃木県",
    "prefecture_kana": "トチギケン",
    "prefecture_code": 9,
    "city": "宇都宮市",
    "city_kana": "ウツノミヤシ",
    "town": "下金井町",
    "town_kana": "シモカナイマチ",
    "street": null,
    "office_name": null,
    "office_name_kana": null
  },
  "2115": {
    "postcode": "3212115",
    "prefecture": "栃木県",
    "prefecture_kana": "トチギケン",
    "prefecture_code": 9,
    "city": "宇都宮市",
    "city_kana": "ウツノミヤシ",
    "town": "上金井町",
    "town_kana": "カミカナイマチ",
    "street": null,
    "office_name": null,
    "office_name_kana": null
  },
  "2116": {
    "postcode": "3212116",
    "prefecture": "栃木県",
    "prefecture_kana": "トチギケン",
    "prefecture_code": 9,
    "city": "宇都宮市",
    "city_kana": "ウツノミヤシ",
    "town": "徳次郎町",
    "town_kana": "トクジラマチ",
    "street": null,
    "office_name": null,
    "office_name_kana": null
  },
  "2117": {
    "postcode": "3212117",
    "prefecture": "栃木県",
    "prefecture_kana": "トチギケン",
    "prefecture_code": 9,
    "city": "宇都宮市",
    "city_kana": "ウツノミヤシ",
    "town": "岩原町",
    "town_kana": "イワハラマチ",
    "street": null,
    "office_name": null,
    "office_name_kana": null
  },
  "2118": {
    "postcode": "3212118",
    "prefecture": "栃木県",
    "prefecture_kana": "トチギケン",
    "prefecture_code": 9,
    "city": "宇都宮市",
    "city_kana": "ウツノミヤシ",
    "town": "新里町",
    "town_kana": "ニッサトマチ",
    "street": null,
    "office_name": null,
    "office_name_kana": null
  },
  "2331": {
    "postcode": "3212331",
    "prefecture": "栃木県",
    "prefecture_kana": "トチギケン",
    "prefecture_code": 9,
    "city": "日光市",
    "city_kana": "ニッコウシ",
    "town": "針貝",
    "town_kana": "ハリガイ",
    "street": null,
    "office_name": null,
    "office_name_kana": null
  },
  "2332": {
    "postcode": "3212332",
    "prefecture": "栃木県",
    "prefecture_kana": "トチギケン",
    "prefecture_code": 9,
    "city": "日光市",
    "city_kana": "ニッコウシ",
    "town": "大室",
    "town_kana": "オオムロ",
    "street": null,
    "office_name": null,
    "office_name_kana": null
  },
  "2333": {
    "postcode": "3212333",
    "prefecture": "栃木県",
    "prefecture_kana": "トチギケン",
    "prefecture_code": 9,
    "city": "日光市",
    "city_kana": "ニッコウシ",
    "town": "薄井沢",
    "town_kana": "ウスイザワ",
    "street": null,
    "office_name": null,
    "office_name_kana": null
  },
  "2334": {
    "postcode": "3212334",
    "prefecture": "栃木県",
    "prefecture_kana": "トチギケン",
    "prefecture_code": 9,
    "city": "日光市",
    "city_kana": "ニッコウシ",
    "town": "水無",
    "town_kana": "ミズナシ",
    "street": null,
    "office_name": null,
    "office_name_kana": null
  },
  "2335": {
    "postcode": "3212335",
    "prefecture": "栃木県",
    "prefecture_kana": "トチギケン",
    "prefecture_code": 9,
    "city": "日光市",
    "city_kana": "ニッコウシ",
    "town": "森友",
    "town_kana": "モリトモ",
    "street": null,
    "office_name": null,
    "office_name_kana": null
  },
  "2336": {
    "postcode": "3212336",
    "prefecture": "栃木県",
    "prefecture_kana": "トチギケン",
    "prefecture_code": 9,
    "city": "日光市",
    "city_kana": "ニッコウシ",
    "town": "荊沢",
    "town_kana": "オトロザワ",
    "street": null,
    "office_name": null,
    "office_name_kana": null
  },
  "2341": {
    "postcode": "3212341",
    "prefecture": "栃木県",
    "prefecture_kana": "トチギケン",
    "prefecture_code": 9,
    "city": "日光市",
    "city_kana": "ニッコウシ",
    "town": "大沢町",
    "town_kana": "オオサワマチ",
    "street": null,
    "office_name": null,
    "office_name_kana": null
  },
  "2342": {
    "postcode": "3212342",
    "prefecture": "栃木県",
    "prefecture_kana": "トチギケン",
    "prefecture_code": 9,
    "city": "日光市",
    "city_kana": "ニッコウシ",
    "town": "根室",
    "town_kana": "ネムロ",
    "street": null,
    "office_name": null,
    "office_name_kana": null
  },
  "2343": {
    "postcode": "3212343",
    "prefecture": "栃木県",
    "prefecture_kana": "トチギケン",
    "prefecture_code": 9,
    "city": "日光市",
    "city_kana": "ニッコウシ",
    "town": "山口",
    "town_kana": "ヤマグチ",
    "street": null,
    "office_name": null,
    "office_name_kana": null
  },
  "2344": {
    "postcode": "3212344",
    "prefecture": "栃木県",
    "prefecture_kana": "トチギケン",
    "prefecture_code": 9,
    "city": "日光市",
    "city_kana": "ニッコウシ",
    "town": "猪倉",
    "town_kana": "イノクラ",
    "street": null,
    "office_name": null,
    "office_name_kana": null
  },
  "2345": {
    "postcode": "3212345",
    "prefecture": "栃木県",
    "prefecture_kana": "トチギケン",
    "prefecture_code": 9,
    "city": "日光市",
    "city_kana": "ニッコウシ",
    "town": "木和田島",
    "town_kana": "キワダシマ",
    "street": null,
    "office_name": null,
    "office_name_kana": null
  },
  "2351": {
    "postcode": "3212351",
    "prefecture": "栃木県",
    "prefecture_kana": "トチギケン",
    "prefecture_code": 9,
    "city": "日光市",
    "city_kana": "ニッコウシ",
    "town": "塩野室町",
    "town_kana": "シオノムロマチ",
    "street": null,
    "office_name": null,
    "office_name_kana": null
  },
  "2352": {
    "postcode": "3212352",
    "prefecture": "栃木県",
    "prefecture_kana": "トチギケン",
    "prefecture_code": 9,
    "city": "日光市",
    "city_kana": "ニッコウシ",
    "town": "小林",
    "town_kana": "コバヤシ",
    "street": null,
    "office_name": null,
    "office_name_kana": null
  },
  "2353": {
    "postcode": "3212353",
    "prefecture": "栃木県",
    "prefecture_kana": "トチギケン",
    "prefecture_code": 9,
    "city": "日光市",
    "city_kana": "ニッコウシ",
    "town": "沓掛",
    "town_kana": "クツカケ",
    "street": null,
    "office_name": null,
    "office_name_kana": null
  },
  "2354": {
    "postcode": "3212354",
    "prefecture": "栃木県",
    "prefecture_kana": "トチギケン",
    "prefecture_code": 9,
    "city": "日光市",
    "city_kana": "ニッコウシ",
    "town": "嘉多蔵",
    "town_kana": "カタクラ",
    "street": null,
    "office_name": null,
    "office_name_kana": null
  },
  "2355": {
    "postcode": "3212355",
    "prefecture": "栃木県",
    "prefecture_kana": "トチギケン",
    "prefecture_code": 9,
    "city": "日光市",
    "city_kana": "ニッコウシ",
    "town": "沢又",
    "town_kana": "サワマタ",
    "street": null,
    "office_name": null,
    "office_name_kana": null
  },
  "2356": {
    "postcode": "3212356",
    "prefecture": "栃木県",
    "prefecture_kana": "トチギケン",
    "prefecture_code": 9,
    "city": "日光市",
    "city_kana": "ニッコウシ",
    "town": "矢野口",
    "town_kana": "ヤノクチ",
    "street": null,
    "office_name": null,
    "office_name_kana": null
  },
  "2401": {
    "postcode": "3212401",
    "prefecture": "栃木県",
    "prefecture_kana": "トチギケン",
    "prefecture_code": 9,
    "city": "日光市",
    "city_kana": "ニッコウシ",
    "town": "川室",
    "town_kana": "カワムロ",
    "street": null,
    "office_name": null,
    "office_name_kana": null
  },
  "2402": {
    "postcode": "3212402",
    "prefecture": "栃木県",
    "prefecture_kana": "トチギケン",
    "prefecture_code": 9,
    "city": "日光市",
    "city_kana": "ニッコウシ",
    "town": "大渡",
    "town_kana": "オオワタリ",
    "street": null,
    "office_name": null,
    "office_name_kana": null
  },
  "2403": {
    "postcode": "3212403",
    "prefecture": "栃木県",
    "prefecture_kana": "トチギケン",
    "prefecture_code": 9,
    "city": "日光市",
    "city_kana": "ニッコウシ",
    "town": "町谷",
    "town_kana": "マチヤ",
    "street": null,
    "office_name": null,
    "office_name_kana": null
  },
  "2404": {
    "postcode": "3212404",
    "prefecture": "栃木県",
    "prefecture_kana": "トチギケン",
    "prefecture_code": 9,
    "city": "日光市",
    "city_kana": "ニッコウシ",
    "town": "轟",
    "town_kana": "トドロク",
    "street": null,
    "office_name": null,
    "office_name_kana": null
  },
  "2405": {
    "postcode": "3212405",
    "prefecture": "栃木県",
    "prefecture_kana": "トチギケン",
    "prefecture_code": 9,
    "city": "日光市",
    "city_kana": "ニッコウシ",
    "town": "芹沼",
    "town_kana": "セリヌマ",
    "street": null,
    "office_name": null,
    "office_name_kana": null
  },
  "2411": {
    "postcode": "3212411",
    "prefecture": "栃木県",
    "prefecture_kana": "トチギケン",
    "prefecture_code": 9,
    "city": "日光市",
    "city_kana": "ニッコウシ",
    "town": "大桑町",
    "town_kana": "オオクワマチ",
    "street": null,
    "office_name": null,
    "office_name_kana": null
  },
  "2412": {
    "postcode": "3212412",
    "prefecture": "栃木県",
    "prefecture_kana": "トチギケン",
    "prefecture_code": 9,
    "city": "日光市",
    "city_kana": "ニッコウシ",
    "town": "倉ケ崎",
    "town_kana": "クラガサキ",
    "street": null,
    "office_name": null,
    "office_name_kana": null
  },
  "2413": {
    "postcode": "3212413",
    "prefecture": "栃木県",
    "prefecture_kana": "トチギケン",
    "prefecture_code": 9,
    "city": "日光市",
    "city_kana": "ニッコウシ",
    "town": "倉ケ崎新田",
    "town_kana": "クラガサキシンデン",
    "street": null,
    "office_name": null,
    "office_name_kana": null
  },
  "2414": {
    "postcode": "3212414",
    "prefecture": "栃木県",
    "prefecture_kana": "トチギケン",
    "prefecture_code": 9,
    "city": "日光市",
    "city_kana": "ニッコウシ",
    "town": "豊田",
    "town_kana": "トヨダ",
    "street": null,
    "office_name": null,
    "office_name_kana": null
  },
  "2421": {
    "postcode": "3212421",
    "prefecture": "栃木県",
    "prefecture_kana": "トチギケン",
    "prefecture_code": 9,
    "city": "日光市",
    "city_kana": "ニッコウシ",
    "town": "栗原",
    "town_kana": "クリバラ",
    "street": null,
    "office_name": null,
    "office_name_kana": null
  },
  "2422": {
    "postcode": "3212422",
    "prefecture": "栃木県",
    "prefecture_kana": "トチギケン",
    "prefecture_code": 9,
    "city": "日光市",
    "city_kana": "ニッコウシ",
    "town": "高柴",
    "town_kana": "タカシバ",
    "street": null,
    "office_name": null,
    "office_name_kana": null
  },
  "2423": {
    "postcode": "3212423",
    "prefecture": "栃木県",
    "prefecture_kana": "トチギケン",
    "prefecture_code": 9,
    "city": "日光市",
    "city_kana": "ニッコウシ",
    "town": "原宿",
    "town_kana": "ハラジュク",
    "street": null,
    "office_name": null,
    "office_name_kana": null
  },
  "2424": [
    {
      "postcode": "3212424",
      "prefecture": "栃木県",
      "prefecture_kana": "トチギケン",
      "prefecture_code": 9,
      "city": "日光市",
      "city_kana": "ニッコウシ",
      "town": "小百",
      "town_kana": "コビャク",
      "street": null,
      "office_name": null,
      "office_name_kana": null
    },
    {
      "postcode": "3212424",
      "prefecture": "栃木県",
      "prefecture_kana": "トチギケン",
      "prefecture_code": 9,
      "city": "日光市",
      "city_kana": "ニッコウシ",
      "town": "小百鳥屋下",
      "town_kana": "コビャクトヤシタ",
      "street": null,
      "office_name": null,
      "office_name_kana": null
    }
  ],
  "2425": [
    {
      "postcode": "3212425",
      "prefecture": "栃木県",
      "prefecture_kana": "トチギケン",
      "prefecture_code": 9,
      "city": "日光市",
      "city_kana": "ニッコウシ",
      "town": "小百",
      "town_kana": "コビャク",
      "street": null,
      "office_name": null,
      "office_name_kana": null
    },
    {
      "postcode": "3212425",
      "prefecture": "栃木県",
      "prefecture_kana": "トチギケン",
      "prefecture_code": 9,
      "city": "日光市",
      "city_kana": "ニッコウシ",
      "town": "小百楢原",
      "town_kana": "コビャクナラハラ",
      "street": null,
      "office_name": null,
      "office_name_kana": null
    }
  ],
  "2426": [
    {
      "postcode": "3212426",
      "prefecture": "栃木県",
      "prefecture_kana": "トチギケン",
      "prefecture_code": 9,
      "city": "日光市",
      "city_kana": "ニッコウシ",
      "town": "小百",
      "town_kana": "コビャク",
      "street": null,
      "office_name": null,
      "office_name_kana": null
    },
    {
      "postcode": "3212426",
      "prefecture": "栃木県",
      "prefecture_kana": "トチギケン",
      "prefecture_code": 9,
      "city": "日光市",
      "city_kana": "ニッコウシ",
      "town": "小百筒置",
      "town_kana": "コビャクツツオキ",
      "street": null,
      "office_name": null,
      "office_name_kana": null
    }
  ],
  "2427": {
    "postcode": "3212427",
    "prefecture": "栃木県",
    "prefecture_kana": "トチギケン",
    "prefecture_code": 9,
    "city": "日光市",
    "city_kana": "ニッコウシ",
    "town": "佐下部",
    "town_kana": "サゲブ",
    "street": null,
    "office_name": null,
    "office_name_kana": null
  },
  "2492": {
    "postcode": "3212492",
    "prefecture": "栃木県",
    "prefecture_kana": "トチギケン",
    "prefecture_code": 9,
    "city": "日光市",
    "city_kana": "ニッコウシ",
    "town": "大桑町",
    "town_kana": "オオクワマチ",
    "street": "１３８",
    "office_name": "東武建設　株式会社",
    "office_name_kana": "トウブケンセツ カブシキガイシヤ"
  },
  "2493": {
    "postcode": "3212493",
    "prefecture": "栃木県",
    "prefecture_kana": "トチギケン",
    "prefecture_code": 9,
    "city": "日光市",
    "city_kana": "ニッコウシ",
    "town": "豊田",
    "town_kana": "トヨダ",
    "street": "７９−１",
    "office_name": "ジャスコ　今市店",
    "office_name_kana": "ジヤスコ イマイチテン"
  },
  "2501": {
    "postcode": "3212501",
    "prefecture": "栃木県",
    "prefecture_kana": "トチギケン",
    "prefecture_code": 9,
    "city": "塩谷郡塩谷町",
    "city_kana": "シオヤグンシオヤマチ",
    "town": "上寺島",
    "town_kana": "カミテラシマ",
    "street": null,
    "office_name": null,
    "office_name_kana": null
  },
  "2521": {
    "postcode": "3212521",
    "prefecture": "栃木県",
    "prefecture_kana": "トチギケン",
    "prefecture_code": 9,
    "city": "日光市",
    "city_kana": "ニッコウシ",
    "town": "藤原",
    "town_kana": "フジハラ",
    "street": null,
    "office_name": null,
    "office_name_kana": null
  },
  "2522": {
    "postcode": "3212522",
    "prefecture": "栃木県",
    "prefecture_kana": "トチギケン",
    "prefecture_code": 9,
    "city": "日光市",
    "city_kana": "ニッコウシ",
    "town": "鬼怒川温泉大原",
    "town_kana": "キヌガワオンセンオオハラ",
    "street": null,
    "office_name": null,
    "office_name_kana": null
  },
  "2523": {
    "postcode": "3212523",
    "prefecture": "栃木県",
    "prefecture_kana": "トチギケン",
    "prefecture_code": 9,
    "city": "日光市",
    "city_kana": "ニッコウシ",
    "town": "高徳",
    "town_kana": "タカトク",
    "street": null,
    "office_name": null,
    "office_name_kana": null
  },
  "2524": {
    "postcode": "3212524",
    "prefecture": "栃木県",
    "prefecture_kana": "トチギケン",
    "prefecture_code": 9,
    "city": "日光市",
    "city_kana": "ニッコウシ",
    "town": "柄倉",
    "town_kana": "カラクラ",
    "street": null,
    "office_name": null,
    "office_name_kana": null
  },
  "2525": {
    "postcode": "3212525",
    "prefecture": "栃木県",
    "prefecture_kana": "トチギケン",
    "prefecture_code": 9,
    "city": "日光市",
    "city_kana": "ニッコウシ",
    "town": "小佐越",
    "town_kana": "コサゴエ",
    "street": null,
    "office_name": null,
    "office_name_kana": null
  },
  "2526": {
    "postcode": "3212526",
    "prefecture": "栃木県",
    "prefecture_kana": "トチギケン",
    "prefecture_code": 9,
    "city": "日光市",
    "city_kana": "ニッコウシ",
    "town": "鬼怒川温泉滝",
    "town_kana": "キヌガワオンセンタキ",
    "street": null,
    "office_name": null,
    "office_name_kana": null
  },
  "2592": {
    "postcode": "3212592",
    "prefecture": "栃木県",
    "prefecture_kana": "トチギケン",
    "prefecture_code": 9,
    "city": "日光市",
    "city_kana": "ニッコウシ",
    "town": "鬼怒川温泉滝",
    "town_kana": "キヌガワオンセンタキ",
    "street": "５４５",
    "office_name": "金谷ホテル観光　株式会社　鬼怒川温泉ホテル",
    "office_name_kana": "カナヤホテルカンコウ カブシキガイシヤ キヌガワオンセンホテル"
  },
  "2593": {
    "postcode": "3212593",
    "prefecture": "栃木県",
    "prefecture_kana": "トチギケン",
    "prefecture_code": 9,
    "city": "日光市",
    "city_kana": "ニッコウシ",
    "town": "鬼怒川温泉大原",
    "town_kana": "キヌガワオンセンオオハラ",
    "street": "２０９−１",
    "office_name": "東武ワールドスクウェア　株式会社",
    "office_name_kana": "トウブワ-ルドスクウエア カブシキカイシヤ"
  },
  "2595": {
    "postcode": "3212595",
    "prefecture": "栃木県",
    "prefecture_kana": "トチギケン",
    "prefecture_code": 9,
    "city": "日光市",
    "city_kana": "ニッコウシ",
    "town": "藤原",
    "town_kana": "フジハラ",
    "street": "１",
    "office_name": "日光市　藤原総合支所",
    "office_name_kana": "ニツコウシ フジハラソウゴウシシヨ"
  },
  "2596": {
    "postcode": "3212596",
    "prefecture": "栃木県",
    "prefecture_kana": "トチギケン",
    "prefecture_code": 9,
    "city": "日光市",
    "city_kana": "ニッコウシ",
    "town": "藤原",
    "town_kana": "フジハラ",
    "street": "１−６",
    "office_name": "日光市　藤原水道事務所",
    "office_name_kana": "ニツコウシ フジハラスイドウジムシヨ"
  },
  "2598": {
    "postcode": "3212598",
    "prefecture": "栃木県",
    "prefecture_kana": "トチギケン",
    "prefecture_code": 9,
    "city": "日光市",
    "city_kana": "ニッコウシ",
    "town": "鬼怒川温泉滝",
    "town_kana": "キヌガワオンセンタキ",
    "street": "８１３",
    "office_name": "株式会社　あさやホテル",
    "office_name_kana": "カブシキガイシヤ アサヤホテル"
  },
  "2601": {
    "postcode": "3212601",
    "prefecture": "栃木県",
    "prefecture_kana": "トチギケン",
    "prefecture_code": 9,
    "city": "日光市",
    "city_kana": "ニッコウシ",
    "town": "湯西川",
    "town_kana": "ユニシカワ",
    "street": null,
    "office_name": null,
    "office_name_kana": null
  },
  "2602": {
    "postcode": "3212602",
    "prefecture": "栃木県",
    "prefecture_kana": "トチギケン",
    "prefecture_code": 9,
    "city": "日光市",
    "city_kana": "ニッコウシ",
    "town": "一ツ石",
    "town_kana": "ヒトツイシ",
    "street": null,
    "office_name": null,
    "office_name_kana": null
  },
  "2603": {
    "postcode": "3212603",
    "prefecture": "栃木県",
    "prefecture_kana": "トチギケン",
    "prefecture_code": 9,
    "city": "日光市",
    "city_kana": "ニッコウシ",
    "town": "西川",
    "town_kana": "ニシカワ",
    "street": null,
    "office_name": null,
    "office_name_kana": null
  },
  "2604": {
    "postcode": "3212604",
    "prefecture": "栃木県",
    "prefecture_kana": "トチギケン",
    "prefecture_code": 9,
    "city": "日光市",
    "city_kana": "ニッコウシ",
    "town": "赤下",
    "town_kana": "アカシタ",
    "street": null,
    "office_name": null,
    "office_name_kana": null
  },
  "2611": {
    "postcode": "3212611",
    "prefecture": "栃木県",
    "prefecture_kana": "トチギケン",
    "prefecture_code": 9,
    "city": "日光市",
    "city_kana": "ニッコウシ",
    "town": "川治温泉川治",
    "town_kana": "カワジオンセンカワジ",
    "street": null,
    "office_name": null,
    "office_name_kana": null
  },
  "2612": {
    "postcode": "3212612",
    "prefecture": "栃木県",
    "prefecture_kana": "トチギケン",
    "prefecture_code": 9,
    "city": "日光市",
    "city_kana": "ニッコウシ",
    "town": "川治温泉高原",
    "town_kana": "カワジオンセンタカハラ",
    "street": null,
    "office_name": null,
    "office_name_kana": null
  },
  "2613": {
    "postcode": "3212613",
    "prefecture": "栃木県",
    "prefecture_kana": "トチギケン",
    "prefecture_code": 9,
    "city": "日光市",
    "city_kana": "ニッコウシ",
    "town": "藤原",
    "town_kana": "フジハラ",
    "street": null,
    "office_name": null,
    "office_name_kana": null
  },
  "2614": {
    "postcode": "3212614",
    "prefecture": "栃木県",
    "prefecture_kana": "トチギケン",
    "prefecture_code": 9,
    "city": "日光市",
    "city_kana": "ニッコウシ",
    "town": "川治温泉滝",
    "town_kana": "カワジオンセンタキ",
    "street": null,
    "office_name": null,
    "office_name_kana": null
  },
  "2615": [
    {
      "postcode": "3212615",
      "prefecture": "栃木県",
      "prefecture_kana": "トチギケン",
      "prefecture_code": 9,
      "city": "日光市",
      "city_kana": "ニッコウシ",
      "town": "五十里",
      "town_kana": "イカリ",
      "street": null,
      "office_name": null,
      "office_name_kana": null
    },
    {
      "postcode": "3212615",
      "prefecture": "栃木県",
      "prefecture_kana": "トチギケン",
      "prefecture_code": 9,
      "city": "日光市",
      "city_kana": "ニッコウシ",
      "town": "五十里東山",
      "town_kana": "イカリヒガシヤマ",
      "street": null,
      "office_name": null,
      "office_name_kana": null
    }
  ],
  "2616": {
    "postcode": "3212616",
    "prefecture": "栃木県",
    "prefecture_kana": "トチギケン",
    "prefecture_code": 9,
    "city": "日光市",
    "city_kana": "ニッコウシ",
    "town": "高原",
    "town_kana": "タカハラ",
    "street": null,
    "office_name": null,
    "office_name_kana": null
  },
  "2711": {
    "postcode": "3212711",
    "prefecture": "栃木県",
    "prefecture_kana": "トチギケン",
    "prefecture_code": 9,
    "city": "日光市",
    "city_kana": "ニッコウシ",
    "town": "日向",
    "town_kana": "ヒナタ",
    "street": null,
    "office_name": null,
    "office_name_kana": null
  },
  "2712": {
    "postcode": "3212712",
    "prefecture": "栃木県",
    "prefecture_kana": "トチギケン",
    "prefecture_code": 9,
    "city": "日光市",
    "city_kana": "ニッコウシ",
    "town": "日蔭",
    "town_kana": "ヒカゲ",
    "street": null,
    "office_name": null,
    "office_name_kana": null
  },
  "2713": {
    "postcode": "3212713",
    "prefecture": "栃木県",
    "prefecture_kana": "トチギケン",
    "prefecture_code": 9,
    "city": "日光市",
    "city_kana": "ニッコウシ",
    "town": "黒部",
    "town_kana": "クロベ",
    "street": null,
    "office_name": null,
    "office_name_kana": null
  },
  "2714": {
    "postcode": "3212714",
    "prefecture": "栃木県",
    "prefecture_kana": "トチギケン",
    "prefecture_code": 9,
    "city": "日光市",
    "city_kana": "ニッコウシ",
    "town": "土呂部",
    "town_kana": "ドロブ",
    "street": null,
    "office_name": null,
    "office_name_kana": null
  },
  "2715": {
    "postcode": "3212715",
    "prefecture": "栃木県",
    "prefecture_kana": "トチギケン",
    "prefecture_code": 9,
    "city": "日光市",
    "city_kana": "ニッコウシ",
    "town": "上栗山",
    "town_kana": "カミクリヤマ",
    "street": null,
    "office_name": null,
    "office_name_kana": null
  },
  "2716": {
    "postcode": "3212716",
    "prefecture": "栃木県",
    "prefecture_kana": "トチギケン",
    "prefecture_code": 9,
    "city": "日光市",
    "city_kana": "ニッコウシ",
    "town": "野門",
    "town_kana": "ノカド",
    "street": null,
    "office_name": null,
    "office_name_kana": null
  },
  "2717": {
    "postcode": "3212717",
    "prefecture": "栃木県",
    "prefecture_kana": "トチギケン",
    "prefecture_code": 9,
    "city": "日光市",
    "city_kana": "ニッコウシ",
    "town": "川俣",
    "town_kana": "カワマタ",
    "street": null,
    "office_name": null,
    "office_name_kana": null
  },
  "2718": {
    "postcode": "3212718",
    "prefecture": "栃木県",
    "prefecture_kana": "トチギケン",
    "prefecture_code": 9,
    "city": "日光市",
    "city_kana": "ニッコウシ",
    "town": "若間",
    "town_kana": "ワカマ",
    "street": null,
    "office_name": null,
    "office_name_kana": null
  },
  "2792": {
    "postcode": "3212792",
    "prefecture": "栃木県",
    "prefecture_kana": "トチギケン",
    "prefecture_code": 9,
    "city": "日光市",
    "city_kana": "ニッコウシ",
    "town": "瀬尾",
    "town_kana": "セノオ",
    "street": "字大笹原３４０５",
    "office_name": "栃木県酪農業協同組合・大笹牧場",
    "office_name_kana": "トチギケンラクノウギヨウキヨウドウクミアイ・オオザサボクジヨウ"
  },
  "2801": {
    "postcode": "3212801",
    "prefecture": "栃木県",
    "prefecture_kana": "トチギケン",
    "prefecture_code": 9,
    "city": "日光市",
    "city_kana": "ニッコウシ",
    "town": "横川",
    "town_kana": "ヨコカワ",
    "street": null,
    "office_name": null,
    "office_name_kana": null
  },
  "2802": {
    "postcode": "3212802",
    "prefecture": "栃木県",
    "prefecture_kana": "トチギケン",
    "prefecture_code": 9,
    "city": "日光市",
    "city_kana": "ニッコウシ",
    "town": "上三依",
    "town_kana": "カミミヨリ",
    "street": null,
    "office_name": null,
    "office_name_kana": null
  },
  "2803": {
    "postcode": "3212803",
    "prefecture": "栃木県",
    "prefecture_kana": "トチギケン",
    "prefecture_code": 9,
    "city": "日光市",
    "city_kana": "ニッコウシ",
    "town": "中三依",
    "town_kana": "ナカミヨリ",
    "street": null,
    "office_name": null,
    "office_name_kana": null
  },
  "2804": {
    "postcode": "3212804",
    "prefecture": "栃木県",
    "prefecture_kana": "トチギケン",
    "prefecture_code": 9,
    "city": "日光市",
    "city_kana": "ニッコウシ",
    "town": "芹沢",
    "town_kana": "セリサワ",
    "street": null,
    "office_name": null,
    "office_name_kana": null
  },
  "2805": {
    "postcode": "3212805",
    "prefecture": "栃木県",
    "prefecture_kana": "トチギケン",
    "prefecture_code": 9,
    "city": "日光市",
    "city_kana": "ニッコウシ",
    "town": "独鈷沢",
    "town_kana": "トッコザワ",
    "street": null,
    "office_name": null,
    "office_name_kana": null
  },
  "2806": {
    "postcode": "3212806",
    "prefecture": "栃木県",
    "prefecture_kana": "トチギケン",
    "prefecture_code": 9,
    "city": "日光市",
    "city_kana": "ニッコウシ",
    "town": "五十里",
    "town_kana": "イカリ",
    "street": null,
    "office_name": null,
    "office_name_kana": null
  },
  "3221": {
    "postcode": "3213221",
    "prefecture": "栃木県",
    "prefecture_kana": "トチギケン",
    "prefecture_code": 9,
    "city": "宇都宮市",
    "city_kana": "ウツノミヤシ",
    "town": "板戸町",
    "town_kana": "イタドマチ",
    "street": null,
    "office_name": null,
    "office_name_kana": null
  },
  "3222": {
    "postcode": "3213222",
    "prefecture": "栃木県",
    "prefecture_kana": "トチギケン",
    "prefecture_code": 9,
    "city": "宇都宮市",
    "city_kana": "ウツノミヤシ",
    "town": "野高谷町",
    "town_kana": "ノゴヤマチ",
    "street": null,
    "office_name": null,
    "office_name_kana": null
  },
  "3223": {
    "postcode": "3213223",
    "prefecture": "栃木県",
    "prefecture_kana": "トチギケン",
    "prefecture_code": 9,
    "city": "宇都宮市",
    "city_kana": "ウツノミヤシ",
    "town": "清原台",
    "town_kana": "キヨハラダイ",
    "street": null,
    "office_name": null,
    "office_name_kana": null
  },
  "3224": {
    "postcode": "3213224",
    "prefecture": "栃木県",
    "prefecture_kana": "トチギケン",
    "prefecture_code": 9,
    "city": "宇都宮市",
    "city_kana": "ウツノミヤシ",
    "town": "刈沼町",
    "town_kana": "カリヌママチ",
    "street": null,
    "office_name": null,
    "office_name_kana": null
  },
  "3225": {
    "postcode": "3213225",
    "prefecture": "栃木県",
    "prefecture_kana": "トチギケン",
    "prefecture_code": 9,
    "city": "宇都宮市",
    "city_kana": "ウツノミヤシ",
    "town": "満美穴町",
    "town_kana": "マミアナマチ",
    "street": null,
    "office_name": null,
    "office_name_kana": null
  },
  "3226": {
    "postcode": "3213226",
    "prefecture": "栃木県",
    "prefecture_kana": "トチギケン",
    "prefecture_code": 9,
    "city": "宇都宮市",
    "city_kana": "ウツノミヤシ",
    "town": "ゆいの杜",
    "town_kana": "ユイノモリ",
    "street": null,
    "office_name": null,
    "office_name_kana": null
  },
  "3231": {
    "postcode": "3213231",
    "prefecture": "栃木県",
    "prefecture_kana": "トチギケン",
    "prefecture_code": 9,
    "city": "宇都宮市",
    "city_kana": "ウツノミヤシ",
    "town": "清原工業団地",
    "town_kana": "キヨハラコウギョウダンチ",
    "street": null,
    "office_name": null,
    "office_name_kana": null
  },
  "3232": {
    "postcode": "3213232",
    "prefecture": "栃木県",
    "prefecture_kana": "トチギケン",
    "prefecture_code": 9,
    "city": "宇都宮市",
    "city_kana": "ウツノミヤシ",
    "town": "氷室町",
    "town_kana": "ヒムロマチ",
    "street": null,
    "office_name": null,
    "office_name_kana": null
  },
  "3233": {
    "postcode": "3213233",
    "prefecture": "栃木県",
    "prefecture_kana": "トチギケン",
    "prefecture_code": 9,
    "city": "宇都宮市",
    "city_kana": "ウツノミヤシ",
    "town": "上籠谷町",
    "town_kana": "カミコモリヤマチ",
    "street": null,
    "office_name": null,
    "office_name_kana": null
  },
  "3234": {
    "postcode": "3213234",
    "prefecture": "栃木県",
    "prefecture_kana": "トチギケン",
    "prefecture_code": 9,
    "city": "宇都宮市",
    "city_kana": "ウツノミヤシ",
    "town": "桑島町",
    "town_kana": "クワジママチ",
    "street": null,
    "office_name": null,
    "office_name_kana": null
  },
  "3235": {
    "postcode": "3213235",
    "prefecture": "栃木県",
    "prefecture_kana": "トチギケン",
    "prefecture_code": 9,
    "city": "宇都宮市",
    "city_kana": "ウツノミヤシ",
    "town": "鐺山町",
    "town_kana": "コテヤママチ",
    "street": null,
    "office_name": null,
    "office_name_kana": null
  },
  "3236": {
    "postcode": "3213236",
    "prefecture": "栃木県",
    "prefecture_kana": "トチギケン",
    "prefecture_code": 9,
    "city": "宇都宮市",
    "city_kana": "ウツノミヤシ",
    "town": "竹下町",
    "town_kana": "タケシタマチ",
    "street": null,
    "office_name": null,
    "office_name_kana": null
  },
  "3237": {
    "postcode": "3213237",
    "prefecture": "栃木県",
    "prefecture_kana": "トチギケン",
    "prefecture_code": 9,
    "city": "宇都宮市",
    "city_kana": "ウツノミヤシ",
    "town": "道場宿町",
    "town_kana": "ドウジョウジュクマチ",
    "street": null,
    "office_name": null,
    "office_name_kana": null
  },
  "3292": {
    "postcode": "3213292",
    "prefecture": "栃木県",
    "prefecture_kana": "トチギケン",
    "prefecture_code": 9,
    "city": "宇都宮市",
    "city_kana": "ウツノミヤシ",
    "town": "清原工業団地",
    "town_kana": "キヨハラコウギョウダンチ",
    "street": "２０−２",
    "office_name": "キヤノン　株式会社　宇都宮光学機器事業所",
    "office_name_kana": "キヤノン カブシキガイシヤ ウツノミヤコウガクキキジギヨウシヨ"
  },
  "3293": {
    "postcode": "3213293",
    "prefecture": "栃木県",
    "prefecture_kana": "トチギケン",
    "prefecture_code": 9,
    "city": "宇都宮市",
    "city_kana": "ウツノミヤシ",
    "town": "清原工業団地",
    "town_kana": "キヨハラコウギョウダンチ",
    "street": "１９−１",
    "office_name": "キヤノン　株式会社　宇都宮工場",
    "office_name_kana": "キヤノン カブシキガイシヤ ウツノミヤコウジヨウ"
  },
  "3295": {
    "postcode": "3213295",
    "prefecture": "栃木県",
    "prefecture_kana": "トチギケン",
    "prefecture_code": 9,
    "city": "宇都宮市",
    "city_kana": "ウツノミヤシ",
    "town": "竹下町",
    "town_kana": "タケシタマチ",
    "street": "９０８",
    "office_name": "作新学院大学",
    "office_name_kana": "サクシンガクインダイガク"
  },
  "3296": {
    "postcode": "3213296",
    "prefecture": "栃木県",
    "prefecture_kana": "トチギケン",
    "prefecture_code": 9,
    "city": "宇都宮市",
    "city_kana": "ウツノミヤシ",
    "town": "清原工業団地",
    "town_kana": "キヨハラコウギョウダンチ",
    "street": "１１−２",
    "office_name": "エム・イー・エム・シー　株式会社",
    "office_name_kana": "エム.イ-.エム.シ- カブシキガイシヤ"
  },
  "3297": {
    "postcode": "3213297",
    "prefecture": "栃木県",
    "prefecture_kana": "トチギケン",
    "prefecture_code": 9,
    "city": "宇都宮市",
    "city_kana": "ウツノミヤシ",
    "town": "清原工業団地",
    "town_kana": "キヨハラコウギョウダンチ",
    "street": "８−１",
    "office_name": "マルハ　株式会社　宇都宮工場",
    "office_name_kana": "マルハ カブシキガイシヤ ウツノミヤコウジヨウ"
  },
  "3298": {
    "postcode": "3213298",
    "prefecture": "栃木県",
    "prefecture_kana": "トチギケン",
    "prefecture_code": 9,
    "city": "宇都宮市",
    "city_kana": "ウツノミヤシ",
    "town": "清原工業団地",
    "town_kana": "キヨハラコウギョウダンチ",
    "street": "２３−１０",
    "office_name": "キヤノン　株式会社　光学技術研究所",
    "office_name_kana": "キヤノン カブシキガイシヤ コウガクギジユツケンキユウジヨ"
  },
  "3300": {
    "postcode": "3213300",
    "prefecture": "栃木県",
    "prefecture_kana": "トチギケン",
    "prefecture_code": 9,
    "city": "芳賀郡芳賀町",
    "city_kana": "ハガグンハガマチ",
    "town": "",
    "town_kana": "",
    "street": null,
    "office_name": null,
    "office_name_kana": null
  },
  "3301": {
    "postcode": "3213301",
    "prefecture": "栃木県",
    "prefecture_kana": "トチギケン",
    "prefecture_code": 9,
    "city": "芳賀郡芳賀町",
    "city_kana": "ハガグンハガマチ",
    "town": "給部",
    "town_kana": "キュウブ",
    "street": null,
    "office_name": null,
    "office_name_kana": null
  },
  "3302": {
    "postcode": "3213302",
    "prefecture": "栃木県",
    "prefecture_kana": "トチギケン",
    "prefecture_code": 9,
    "city": "芳賀郡芳賀町",
    "city_kana": "ハガグンハガマチ",
    "town": "上稲毛田",
    "town_kana": "カミイナゲタ",
    "street": null,
    "office_name": null,
    "office_name_kana": null
  },
  "3303": {
    "postcode": "3213303",
    "prefecture": "栃木県",
    "prefecture_kana": "トチギケン",
    "prefecture_code": 9,
    "city": "芳賀郡芳賀町",
    "city_kana": "ハガグンハガマチ",
    "town": "稲毛田",
    "town_kana": "イナゲタ",
    "street": null,
    "office_name": null,
    "office_name_kana": null
  },
  "3304": {
    "postcode": "3213304",
    "prefecture": "栃木県",
    "prefecture_kana": "トチギケン",
    "prefecture_code": 9,
    "city": "芳賀郡芳賀町",
    "city_kana": "ハガグンハガマチ",
    "town": "祖母井",
    "town_kana": "ウバガイ",
    "street": null,
    "office_name": null,
    "office_name_kana": null
  },
  "3305": {
    "postcode": "3213305",
    "prefecture": "栃木県",
    "prefecture_kana": "トチギケン",
    "prefecture_code": 9,
    "city": "芳賀郡芳賀町",
    "city_kana": "ハガグンハガマチ",
    "town": "芳志戸",
    "town_kana": "ホウシト",
    "street": null,
    "office_name": null,
    "office_name_kana": null
  },
  "3306": {
    "postcode": "3213306",
    "prefecture": "栃木県",
    "prefecture_kana": "トチギケン",
    "prefecture_code": 9,
    "city": "芳賀郡芳賀町",
    "city_kana": "ハガグンハガマチ",
    "town": "八ツ木",
    "town_kana": "ヤツギ",
    "street": null,
    "office_name": null,
    "office_name_kana": null
  },
  "3307": {
    "postcode": "3213307",
    "prefecture": "栃木県",
    "prefecture_kana": "トチギケン",
    "prefecture_code": 9,
    "city": "芳賀郡芳賀町",
    "city_kana": "ハガグンハガマチ",
    "town": "祖母井南",
    "town_kana": "ウバガイミナミ",
    "street": null,
    "office_name": null,
    "office_name_kana": null
  },
  "3311": {
    "postcode": "3213311",
    "prefecture": "栃木県",
    "prefecture_kana": "トチギケン",
    "prefecture_code": 9,
    "city": "芳賀郡芳賀町",
    "city_kana": "ハガグンハガマチ",
    "town": "上延生",
    "town_kana": "カミノブ",
    "street": null,
    "office_name": null,
    "office_name_kana": null
  },
  "3312": {
    "postcode": "3213312",
    "prefecture": "栃木県",
    "prefecture_kana": "トチギケン",
    "prefecture_code": 9,
    "city": "芳賀郡芳賀町",
    "city_kana": "ハガグンハガマチ",
    "town": "下延生",
    "town_kana": "シモノブ",
    "street": null,
    "office_name": null,
    "office_name_kana": null
  },
  "3313": {
    "postcode": "3213313",
    "prefecture": "栃木県",
    "prefecture_kana": "トチギケン",
    "prefecture_code": 9,
    "city": "芳賀郡芳賀町",
    "city_kana": "ハガグンハガマチ",
    "town": "東高橋",
    "town_kana": "ヒガシタカハシ",
    "street": null,
    "office_name": null,
    "office_name_kana": null
  },
  "3314": {
    "postcode": "3213314",
    "prefecture": "栃木県",
    "prefecture_kana": "トチギケン",
    "prefecture_code": 9,
    "city": "芳賀郡芳賀町",
    "city_kana": "ハガグンハガマチ",
    "town": "打越新田",
    "town_kana": "ウチゴシンデン",
    "street": null,
    "office_name": null,
    "office_name_kana": null
  },
  "3315": {
    "postcode": "3213315",
    "prefecture": "栃木県",
    "prefecture_kana": "トチギケン",
    "prefecture_code": 9,
    "city": "芳賀郡芳賀町",
    "city_kana": "ハガグンハガマチ",
    "town": "西高橋",
    "town_kana": "ニシタカハシ",
    "street": null,
    "office_name": null,
    "office_name_kana": null
  },
  "3316": {
    "postcode": "3213316",
    "prefecture": "栃木県",
    "prefecture_kana": "トチギケン",
    "prefecture_code": 9,
    "city": "芳賀郡芳賀町",
    "city_kana": "ハガグンハガマチ",
    "town": "与能",
    "town_kana": "ヨノウ",
    "street": null,
    "office_name": null,
    "office_name_kana": null
  },
  "3321": {
    "postcode": "3213321",
    "prefecture": "栃木県",
    "prefecture_kana": "トチギケン",
    "prefecture_code": 9,
    "city": "芳賀郡芳賀町",
    "city_kana": "ハガグンハガマチ",
    "town": "下高根沢",
    "town_kana": "シモタカネザワ",
    "street": null,
    "office_name": null,
    "office_name_kana": null
  },
  "3322": {
    "postcode": "3213322",
    "prefecture": "栃木県",
    "prefecture_kana": "トチギケン",
    "prefecture_code": 9,
    "city": "芳賀郡芳賀町",
    "city_kana": "ハガグンハガマチ",
    "town": "東水沼",
    "town_kana": "ヒガシミズヌマ",
    "street": null,
    "office_name": null,
    "office_name_kana": null
  },
  "3323": {
    "postcode": "3213323",
    "prefecture": "栃木県",
    "prefecture_kana": "トチギケン",
    "prefecture_code": 9,
    "city": "芳賀郡芳賀町",
    "city_kana": "ハガグンハガマチ",
    "town": "北長島",
    "town_kana": "キタナガシマ",
    "street": null,
    "office_name": null,
    "office_name_kana": null
  },
  "3324": {
    "postcode": "3213324",
    "prefecture": "栃木県",
    "prefecture_kana": "トチギケン",
    "prefecture_code": 9,
    "city": "芳賀郡芳賀町",
    "city_kana": "ハガグンハガマチ",
    "town": "西水沼",
    "town_kana": "ニシミズヌマ",
    "street": null,
    "office_name": null,
    "office_name_kana": null
  },
  "3325": {
    "postcode": "3213325",
    "prefecture": "栃木県",
    "prefecture_kana": "トチギケン",
    "prefecture_code": 9,
    "city": "芳賀郡芳賀町",
    "city_kana": "ハガグンハガマチ",
    "town": "芳賀台",
    "town_kana": "ハガダイ",
    "street": null,
    "office_name": null,
    "office_name_kana": null
  },
  "3392": {
    "postcode": "3213392",
    "prefecture": "栃木県",
    "prefecture_kana": "トチギケン",
    "prefecture_code": 9,
    "city": "芳賀郡芳賀町",
    "city_kana": "ハガグンハガマチ",
    "town": "大字祖母井",
    "town_kana": null,
    "street": "１０２０",
    "office_name": "芳賀町役場",
    "office_name_kana": "ハガマチヤクバ"
  },
  "3393": {
    "postcode": "3213393",
    "prefecture": "栃木県",
    "prefecture_kana": "トチギケン",
    "prefecture_code": 9,
    "city": "芳賀郡芳賀町",
    "city_kana": "ハガグンハガマチ",
    "town": "大字下高根沢",
    "town_kana": null,
    "street": "４６３０",
    "office_name": "本田技研工業　株式会社",
    "office_name_kana": "ホンダギケンコウギヨウ カブシキガイシヤ"
  },
  "3395": {
    "postcode": "3213395",
    "prefecture": "栃木県",
    "prefecture_kana": "トチギケン",
    "prefecture_code": 9,
    "city": "芳賀郡芳賀町",
    "city_kana": "ハガグンハガマチ",
    "town": "芳賀台",
    "town_kana": "ハガダイ",
    "street": "６−１",
    "office_name": "本田技研工業　株式会社　四輪事業本部　ものづくりセンター　生産技術統括部",
    "office_name_kana": "ホンダギケンコウギヨウ カブシキガイシヤ ヨンリンジギヨウホンブ モノヅクリセンタ- セイサンギジユツトウカツブ"
  },
  "3398": {
    "postcode": "3213398",
    "prefecture": "栃木県",
    "prefecture_kana": "トチギケン",
    "prefecture_code": 9,
    "city": "芳賀郡芳賀町",
    "city_kana": "ハガグンハガマチ",
    "town": "芳賀台",
    "town_kana": "ハガダイ",
    "street": "１２８−３",
    "office_name": "株式会社　エイチワン　機種開発センター",
    "office_name_kana": "カブシキガイシヤ エイチワン キシユカイハツセンタ-"
  },
  "3400": {
    "postcode": "3213400",
    "prefecture": "栃木県",
    "prefecture_kana": "トチギケン",
    "prefecture_code": 9,
    "city": "芳賀郡市貝町",
    "city_kana": "ハガグンイチカイマチ",
    "town": "",
    "town_kana": "",
    "street": null,
    "office_name": null,
    "office_name_kana": null
  },
  "3401": {
    "postcode": "3213401",
    "prefecture": "栃木県",
    "prefecture_kana": "トチギケン",
    "prefecture_code": 9,
    "city": "芳賀郡市貝町",
    "city_kana": "ハガグンイチカイマチ",
    "town": "竹内",
    "town_kana": "タケウチ",
    "street": null,
    "office_name": null,
    "office_name_kana": null
  },
  "3402": {
    "postcode": "3213402",
    "prefecture": "栃木県",
    "prefecture_kana": "トチギケン",
    "prefecture_code": 9,
    "city": "芳賀郡市貝町",
    "city_kana": "ハガグンイチカイマチ",
    "town": "見上",
    "town_kana": "ミアゲ",
    "street": null,
    "office_name": null,
    "office_name_kana": null
  },
  "3403": {
    "postcode": "3213403",
    "prefecture": "栃木県",
    "prefecture_kana": "トチギケン",
    "prefecture_code": 9,
    "city": "芳賀郡市貝町",
    "city_kana": "ハガグンイチカイマチ",
    "town": "羽仏",
    "town_kana": "ハブツ",
    "street": null,
    "office_name": null,
    "office_name_kana": null
  },
  "3404": {
    "postcode": "3213404",
    "prefecture": "栃木県",
    "prefecture_kana": "トチギケン",
    "prefecture_code": 9,
    "city": "芳賀郡市貝町",
    "city_kana": "ハガグンイチカイマチ",
    "town": "続谷",
    "town_kana": "ツヅキヤ",
    "street": null,
    "office_name": null,
    "office_name_kana": null
  },
  "3405": {
    "postcode": "3213405",
    "prefecture": "栃木県",
    "prefecture_kana": "トチギケン",
    "prefecture_code": 9,
    "city": "芳賀郡市貝町",
    "city_kana": "ハガグンイチカイマチ",
    "town": "大谷津",
    "town_kana": "オオヤツ",
    "street": null,
    "office_name": null,
    "office_name_kana": null
  },
  "3406": {
    "postcode": "3213406",
    "prefecture": "栃木県",
    "prefecture_kana": "トチギケン",
    "prefecture_code": 9,
    "city": "芳賀郡市貝町",
    "city_kana": "ハガグンイチカイマチ",
    "town": "塩田",
    "town_kana": "シオダ",
    "street": null,
    "office_name": null,
    "office_name_kana": null
  },
  "3411": {
    "postcode": "3213411",
    "prefecture": "栃木県",
    "prefecture_kana": "トチギケン",
    "prefecture_code": 9,
    "city": "芳賀郡市貝町",
    "city_kana": "ハガグンイチカイマチ",
    "town": "刈生田",
    "town_kana": "カリウタ",
    "street": null,
    "office_name": null,
    "office_name_kana": null
  },
  "3412": {
    "postcode": "3213412",
    "prefecture": "栃木県",
    "prefecture_kana": "トチギケン",
    "prefecture_code": 9,
    "city": "芳賀郡市貝町",
    "city_kana": "ハガグンイチカイマチ",
    "town": "田野辺",
    "town_kana": "タノベ",
    "street": null,
    "office_name": null,
    "office_name_kana": null
  },
  "3413": {
    "postcode": "3213413",
    "prefecture": "栃木県",
    "prefecture_kana": "トチギケン",
    "prefecture_code": 9,
    "city": "芳賀郡市貝町",
    "city_kana": "ハガグンイチカイマチ",
    "town": "文谷",
    "town_kana": "フミヤ",
    "street": null,
    "office_name": null,
    "office_name_kana": null
  },
  "3414": {
    "postcode": "3213414",
    "prefecture": "栃木県",
    "prefecture_kana": "トチギケン",
    "prefecture_code": 9,
    "city": "芳賀郡市貝町",
    "city_kana": "ハガグンイチカイマチ",
    "town": "椎谷",
    "town_kana": "シュウガイ",
    "street": null,
    "office_name": null,
    "office_name_kana": null
  },
  "3415": {
    "postcode": "3213415",
    "prefecture": "栃木県",
    "prefecture_kana": "トチギケン",
    "prefecture_code": 9,
    "city": "芳賀郡市貝町",
    "city_kana": "ハガグンイチカイマチ",
    "town": "杉山",
    "town_kana": "スギヤマ",
    "street": null,
    "office_name": null,
    "office_name_kana": null
  },
  "3421": {
    "postcode": "3213421",
    "prefecture": "栃木県",
    "prefecture_kana": "トチギケン",
    "prefecture_code": 9,
    "city": "芳賀郡市貝町",
    "city_kana": "ハガグンイチカイマチ",
    "town": "笹原田",
    "town_kana": "ササハラダ",
    "street": null,
    "office_name": null,
    "office_name_kana": null
  },
  "3422": {
    "postcode": "3213422",
    "prefecture": "栃木県",
    "prefecture_kana": "トチギケン",
    "prefecture_code": 9,
    "city": "芳賀郡市貝町",
    "city_kana": "ハガグンイチカイマチ",
    "town": "石下",
    "town_kana": "イシオロシ",
    "street": null,
    "office_name": null,
    "office_name_kana": null
  },
  "3423": {
    "postcode": "3213423",
    "prefecture": "栃木県",
    "prefecture_kana": "トチギケン",
    "prefecture_code": 9,
    "city": "芳賀郡市貝町",
    "city_kana": "ハガグンイチカイマチ",
    "town": "市塙",
    "town_kana": "イチハナ",
    "street": null,
    "office_name": null,
    "office_name_kana": null
  },
  "3424": {
    "postcode": "3213424",
    "prefecture": "栃木県",
    "prefecture_kana": "トチギケン",
    "prefecture_code": 9,
    "city": "芳賀郡市貝町",
    "city_kana": "ハガグンイチカイマチ",
    "town": "上根",
    "town_kana": "カミネ",
    "street": null,
    "office_name": null,
    "office_name_kana": null
  },
  "3425": {
    "postcode": "3213425",
    "prefecture": "栃木県",
    "prefecture_kana": "トチギケン",
    "prefecture_code": 9,
    "city": "芳賀郡市貝町",
    "city_kana": "ハガグンイチカイマチ",
    "town": "多田羅",
    "town_kana": "タタラ",
    "street": null,
    "office_name": null,
    "office_name_kana": null
  },
  "3426": {
    "postcode": "3213426",
    "prefecture": "栃木県",
    "prefecture_kana": "トチギケン",
    "prefecture_code": 9,
    "city": "芳賀郡市貝町",
    "city_kana": "ハガグンイチカイマチ",
    "town": "赤羽",
    "town_kana": "アカバネ",
    "street": null,
    "office_name": null,
    "office_name_kana": null
  },
  "3493": {
    "postcode": "3213493",
    "prefecture": "栃木県",
    "prefecture_kana": "トチギケン",
    "prefecture_code": 9,
    "city": "芳賀郡市貝町",
    "city_kana": "ハガグンイチカイマチ",
    "town": "大字市塙",
    "town_kana": null,
    "street": "１６７５−１",
    "office_name": "市貝町役場",
    "office_name_kana": "イチカイマチヤクバ"
  },
  "3497": {
    "postcode": "3213497",
    "prefecture": "栃木県",
    "prefecture_kana": "トチギケン",
    "prefecture_code": 9,
    "city": "芳賀郡市貝町",
    "city_kana": "ハガグンイチカイマチ",
    "town": "大字赤羽",
    "town_kana": null,
    "street": "２６０６",
    "office_name": "花王　株式会社　栃木工場",
    "office_name_kana": "カオウ カブシキガイシヤ トチギコウジヨウ"
  },
  "3498": {
    "postcode": "3213498",
    "prefecture": "栃木県",
    "prefecture_kana": "トチギケン",
    "prefecture_code": 9,
    "city": "芳賀郡市貝町",
    "city_kana": "ハガグンイチカイマチ",
    "town": "大字赤羽",
    "town_kana": null,
    "street": "２６０６",
    "office_name": "花王　株式会社　栃木研究所",
    "office_name_kana": "カオウ カブシキガイシヤ トチギケンキユウジヨ"
  },
  "3500": {
    "postcode": "3213500",
    "prefecture": "栃木県",
    "prefecture_kana": "トチギケン",
    "prefecture_code": 9,
    "city": "芳賀郡茂木町",
    "city_kana": "ハガグンモテギマチ",
    "town": "",
    "town_kana": "",
    "street": null,
    "office_name": null,
    "office_name_kana": null
  },
  "3531": {
    "postcode": "3213531",
    "prefecture": "栃木県",
    "prefecture_kana": "トチギケン",
    "prefecture_code": 9,
    "city": "芳賀郡茂木町",
    "city_kana": "ハガグンモテギマチ",
    "town": "茂木",
    "town_kana": "モテギ",
    "street": null,
    "office_name": null,
    "office_name_kana": null
  },
  "3532": {
    "postcode": "3213532",
    "prefecture": "栃木県",
    "prefecture_kana": "トチギケン",
    "prefecture_code": 9,
    "city": "芳賀郡茂木町",
    "city_kana": "ハガグンモテギマチ",
    "town": "三坂",
    "town_kana": "ミサカ",
    "street": null,
    "office_name": null,
    "office_name_kana": null
  },
  "3533": {
    "postcode": "3213533",
    "prefecture": "栃木県",
    "prefecture_kana": "トチギケン",
    "prefecture_code": 9,
    "city": "芳賀郡茂木町",
    "city_kana": "ハガグンモテギマチ",
    "town": "桧山",
    "town_kana": "ヒヤマ",
    "street": null,
    "office_name": null,
    "office_name_kana": null
  },
  "3534": {
    "postcode": "3213534",
    "prefecture": "栃木県",
    "prefecture_kana": "トチギケン",
    "prefecture_code": 9,
    "city": "芳賀郡茂木町",
    "city_kana": "ハガグンモテギマチ",
    "town": "青梅",
    "town_kana": "オウメ",
    "street": null,
    "office_name": null,
    "office_name_kana": null
  },
  "3535": {
    "postcode": "3213535",
    "prefecture": "栃木県",
    "prefecture_kana": "トチギケン",
    "prefecture_code": 9,
    "city": "芳賀郡茂木町",
    "city_kana": "ハガグンモテギマチ",
    "town": "鮎田",
    "town_kana": "アイダ",
    "street": null,
    "office_name": null,
    "office_name_kana": null
  },
  "3536": {
    "postcode": "3213536",
    "prefecture": "栃木県",
    "prefecture_kana": "トチギケン",
    "prefecture_code": 9,
    "city": "芳賀郡茂木町",
    "city_kana": "ハガグンモテギマチ",
    "town": "神井",
    "town_kana": "カノイ",
    "street": null,
    "office_name": null,
    "office_name_kana": null
  },
  "3541": {
    "postcode": "3213541",
    "prefecture": "栃木県",
    "prefecture_kana": "トチギケン",
    "prefecture_code": 9,
    "city": "芳賀郡茂木町",
    "city_kana": "ハガグンモテギマチ",
    "town": "烏生田",
    "town_kana": "ウゴウダ",
    "street": null,
    "office_name": null,
    "office_name_kana": null
  },
  "3542": {
    "postcode": "3213542",
    "prefecture": "栃木県",
    "prefecture_kana": "トチギケン",
    "prefecture_code": 9,
    "city": "芳賀郡茂木町",
    "city_kana": "ハガグンモテギマチ",
    "town": "九石",
    "town_kana": "サザラシ",
    "street": null,
    "office_name": null,
    "office_name_kana": null
  },
  "3543": {
    "postcode": "3213543",
    "prefecture": "栃木県",
    "prefecture_kana": "トチギケン",
    "prefecture_code": 9,
    "city": "芳賀郡茂木町",
    "city_kana": "ハガグンモテギマチ",
    "town": "上後郷",
    "town_kana": "カミウラゴウ",
    "street": null,
    "office_name": null,
    "office_name_kana": null
  },
  "3544": {
    "postcode": "3213544",
    "prefecture": "栃木県",
    "prefecture_kana": "トチギケン",
    "prefecture_code": 9,
    "city": "芳賀郡茂木町",
    "city_kana": "ハガグンモテギマチ",
    "town": "坂井",
    "town_kana": "サカノイ",
    "street": null,
    "office_name": null,
    "office_name_kana": null
  },
  "3545": {
    "postcode": "3213545",
    "prefecture": "栃木県",
    "prefecture_kana": "トチギケン",
    "prefecture_code": 9,
    "city": "芳賀郡茂木町",
    "city_kana": "ハガグンモテギマチ",
    "town": "下菅又",
    "town_kana": "シモスガマタ",
    "street": null,
    "office_name": null,
    "office_name_kana": null
  },
  "3546": {
    "postcode": "3213546",
    "prefecture": "栃木県",
    "prefecture_kana": "トチギケン",
    "prefecture_code": 9,
    "city": "芳賀郡茂木町",
    "city_kana": "ハガグンモテギマチ",
    "town": "上菅又",
    "town_kana": "カミスガマタ",
    "street": null,
    "office_name": null,
    "office_name_kana": null
  },
  "3547": {
    "postcode": "3213547",
    "prefecture": "栃木県",
    "prefecture_kana": "トチギケン",
    "prefecture_code": 9,
    "city": "芳賀郡茂木町",
    "city_kana": "ハガグンモテギマチ",
    "town": "千本",
    "town_kana": "センボ",
    "street": null,
    "office_name": null,
    "office_name_kana": null
  },
  "3551": {
    "postcode": "3213551",
    "prefecture": "栃木県",
    "prefecture_kana": "トチギケン",
    "prefecture_code": 9,
    "city": "芳賀郡茂木町",
    "city_kana": "ハガグンモテギマチ",
    "town": "生井",
    "town_kana": "ナマイ",
    "street": null,
    "office_name": null,
    "office_name_kana": null
  },
  "3552": {
    "postcode": "3213552",
    "prefecture": "栃木県",
    "prefecture_kana": "トチギケン",
    "prefecture_code": 9,
    "city": "芳賀郡茂木町",
    "city_kana": "ハガグンモテギマチ",
    "town": "竹原",
    "town_kana": "タケワラ",
    "street": null,
    "office_name": null,
    "office_name_kana": null
  },
  "3553": {
    "postcode": "3213553",
    "prefecture": "栃木県",
    "prefecture_kana": "トチギケン",
    "prefecture_code": 9,
    "city": "芳賀郡茂木町",
    "city_kana": "ハガグンモテギマチ",
    "town": "大畑",
    "town_kana": "オオバタケ",
    "street": null,
    "office_name": null,
    "office_name_kana": null
  },
  "3554": {
    "postcode": "3213554",
    "prefecture": "栃木県",
    "prefecture_kana": "トチギケン",
    "prefecture_code": 9,
    "city": "芳賀郡茂木町",
    "city_kana": "ハガグンモテギマチ",
    "town": "大瀬",
    "town_kana": "オオセ",
    "street": null,
    "office_name": null,
    "office_name_kana": null
  },
  "3555": {
    "postcode": "3213555",
    "prefecture": "栃木県",
    "prefecture_kana": "トチギケン",
    "prefecture_code": 9,
    "city": "芳賀郡茂木町",
    "city_kana": "ハガグンモテギマチ",
    "town": "所草",
    "town_kana": "トコロクサ",
    "street": null,
    "office_name": null,
    "office_name_kana": null
  },
  "3556": {
    "postcode": "3213556",
    "prefecture": "栃木県",
    "prefecture_kana": "トチギケン",
    "prefecture_code": 9,
    "city": "芳賀郡茂木町",
    "city_kana": "ハガグンモテギマチ",
    "town": "町田",
    "town_kana": "マチダ",
    "street": null,
    "office_name": null,
    "office_name_kana": null
  },
  "3557": {
    "postcode": "3213557",
    "prefecture": "栃木県",
    "prefecture_kana": "トチギケン",
    "prefecture_code": 9,
    "city": "芳賀郡茂木町",
    "city_kana": "ハガグンモテギマチ",
    "town": "黒田",
    "town_kana": "クロダ",
    "street": null,
    "office_name": null,
    "office_name_kana": null
  },
  "3561": {
    "postcode": "3213561",
    "prefecture": "栃木県",
    "prefecture_kana": "トチギケン",
    "prefecture_code": 9,
    "city": "芳賀郡茂木町",
    "city_kana": "ハガグンモテギマチ",
    "town": "後郷",
    "town_kana": "ウラゴウ",
    "street": null,
    "office_name": null,
    "office_name_kana": null
  },
  "3562": {
    "postcode": "3213562",
    "prefecture": "栃木県",
    "prefecture_kana": "トチギケン",
    "prefecture_code": 9,
    "city": "芳賀郡茂木町",
    "city_kana": "ハガグンモテギマチ",
    "town": "馬門",
    "town_kana": "マカド",
    "street": null,
    "office_name": null,
    "office_name_kana": null
  },
  "3563": {
    "postcode": "3213563",
    "prefecture": "栃木県",
    "prefecture_kana": "トチギケン",
    "prefecture_code": 9,
    "city": "芳賀郡茂木町",
    "city_kana": "ハガグンモテギマチ",
    "town": "林",
    "town_kana": "ハヤシ",
    "street": null,
    "office_name": null,
    "office_name_kana": null
  },
  "3564": {
    "postcode": "3213564",
    "prefecture": "栃木県",
    "prefecture_kana": "トチギケン",
    "prefecture_code": 9,
    "city": "芳賀郡茂木町",
    "city_kana": "ハガグンモテギマチ",
    "town": "増井",
    "town_kana": "マシイ",
    "street": null,
    "office_name": null,
    "office_name_kana": null
  },
  "3565": {
    "postcode": "3213565",
    "prefecture": "栃木県",
    "prefecture_kana": "トチギケン",
    "prefecture_code": 9,
    "city": "芳賀郡茂木町",
    "city_kana": "ハガグンモテギマチ",
    "town": "塩田",
    "town_kana": "シオダ",
    "street": null,
    "office_name": null,
    "office_name_kana": null
  },
  "3566": {
    "postcode": "3213566",
    "prefecture": "栃木県",
    "prefecture_kana": "トチギケン",
    "prefecture_code": 9,
    "city": "芳賀郡茂木町",
    "city_kana": "ハガグンモテギマチ",
    "town": "小井戸",
    "town_kana": "コイド",
    "street": null,
    "office_name": null,
    "office_name_kana": null
  },
  "3595": {
    "postcode": "3213595",
    "prefecture": "栃木県",
    "prefecture_kana": "トチギケン",
    "prefecture_code": 9,
    "city": "芳賀郡茂木町",
    "city_kana": "ハガグンモテギマチ",
    "town": "大字茂木",
    "town_kana": null,
    "street": "２８８",
    "office_name": "栃木県立茂木高等高校",
    "office_name_kana": "トチギケンリツモテギコウトウガツコウ"
  },
  "3597": {
    "postcode": "3213597",
    "prefecture": "栃木県",
    "prefecture_kana": "トチギケン",
    "prefecture_code": 9,
    "city": "芳賀郡茂木町",
    "city_kana": "ハガグンモテギマチ",
    "town": "桧山",
    "town_kana": "ヒヤマ",
    "street": "１２０−１",
    "office_name": "株式会社　モビリティランド　ツインリンクもてぎ",
    "office_name_kana": "カブシキガイシヤ モビリテイランド ツインリンクモテギ"
  },
  "3598": {
    "postcode": "3213598",
    "prefecture": "栃木県",
    "prefecture_kana": "トチギケン",
    "prefecture_code": 9,
    "city": "芳賀郡茂木町",
    "city_kana": "ハガグンモテギマチ",
    "town": "大字茂木",
    "town_kana": null,
    "street": "１５５",
    "office_name": "茂木町役場",
    "office_name_kana": "モテギマチヤクバ"
  },
  "3621": {
    "postcode": "3213621",
    "prefecture": "栃木県",
    "prefecture_kana": "トチギケン",
    "prefecture_code": 9,
    "city": "芳賀郡茂木町",
    "city_kana": "ハガグンモテギマチ",
    "town": "天子",
    "town_kana": "アマコ",
    "street": null,
    "office_name": null,
    "office_name_kana": null
  },
  "3622": {
    "postcode": "3213622",
    "prefecture": "栃木県",
    "prefecture_kana": "トチギケン",
    "prefecture_code": 9,
    "city": "芳賀郡茂木町",
    "city_kana": "ハガグンモテギマチ",
    "town": "北高岡",
    "town_kana": "キタタカオカ",
    "street": null,
    "office_name": null,
    "office_name_kana": null
  },
  "3623": {
    "postcode": "3213623",
    "prefecture": "栃木県",
    "prefecture_kana": "トチギケン",
    "prefecture_code": 9,
    "city": "芳賀郡茂木町",
    "city_kana": "ハガグンモテギマチ",
    "town": "木幡",
    "town_kana": "キバタ",
    "street": null,
    "office_name": null,
    "office_name_kana": null
  },
  "3624": {
    "postcode": "3213624",
    "prefecture": "栃木県",
    "prefecture_kana": "トチギケン",
    "prefecture_code": 9,
    "city": "芳賀郡茂木町",
    "city_kana": "ハガグンモテギマチ",
    "town": "小山",
    "town_kana": "オヤマ",
    "street": null,
    "office_name": null,
    "office_name_kana": null
  },
  "3625": {
    "postcode": "3213625",
    "prefecture": "栃木県",
    "prefecture_kana": "トチギケン",
    "prefecture_code": 9,
    "city": "芳賀郡茂木町",
    "city_kana": "ハガグンモテギマチ",
    "town": "福手",
    "town_kana": "フグテ",
    "street": null,
    "office_name": null,
    "office_name_kana": null
  },
  "3626": {
    "postcode": "3213626",
    "prefecture": "栃木県",
    "prefecture_kana": "トチギケン",
    "prefecture_code": 9,
    "city": "芳賀郡茂木町",
    "city_kana": "ハガグンモテギマチ",
    "town": "飯",
    "town_kana": "イイ",
    "street": null,
    "office_name": null,
    "office_name_kana": null
  },
  "3627": {
    "postcode": "3213627",
    "prefecture": "栃木県",
    "prefecture_kana": "トチギケン",
    "prefecture_code": 9,
    "city": "芳賀郡茂木町",
    "city_kana": "ハガグンモテギマチ",
    "town": "小貫",
    "town_kana": "オヌキ",
    "street": null,
    "office_name": null,
    "office_name_kana": null
  },
  "3628": {
    "postcode": "3213628",
    "prefecture": "栃木県",
    "prefecture_kana": "トチギケン",
    "prefecture_code": 9,
    "city": "芳賀郡茂木町",
    "city_kana": "ハガグンモテギマチ",
    "town": "深沢",
    "town_kana": "フカサワ",
    "street": null,
    "office_name": null,
    "office_name_kana": null
  },
  "3701": {
    "postcode": "3213701",
    "prefecture": "栃木県",
    "prefecture_kana": "トチギケン",
    "prefecture_code": 9,
    "city": "芳賀郡茂木町",
    "city_kana": "ハガグンモテギマチ",
    "town": "山内",
    "town_kana": "ヤマウチ",
    "street": null,
    "office_name": null,
    "office_name_kana": null
  },
  "3702": {
    "postcode": "3213702",
    "prefecture": "栃木県",
    "prefecture_kana": "トチギケン",
    "prefecture_code": 9,
    "city": "芳賀郡茂木町",
    "city_kana": "ハガグンモテギマチ",
    "town": "飯野",
    "town_kana": "イイノ",
    "street": null,
    "office_name": null,
    "office_name_kana": null
  },
  "3703": {
    "postcode": "3213703",
    "prefecture": "栃木県",
    "prefecture_kana": "トチギケン",
    "prefecture_code": 9,
    "city": "芳賀郡茂木町",
    "city_kana": "ハガグンモテギマチ",
    "town": "河井",
    "town_kana": "カワイ",
    "street": null,
    "office_name": null,
    "office_name_kana": null
  },
  "3704": {
    "postcode": "3213704",
    "prefecture": "栃木県",
    "prefecture_kana": "トチギケン",
    "prefecture_code": 9,
    "city": "芳賀郡茂木町",
    "city_kana": "ハガグンモテギマチ",
    "town": "牧野",
    "town_kana": "マギノ",
    "street": null,
    "office_name": null,
    "office_name_kana": null
  },
  "3705": {
    "postcode": "3213705",
    "prefecture": "栃木県",
    "prefecture_kana": "トチギケン",
    "prefecture_code": 9,
    "city": "芳賀郡茂木町",
    "city_kana": "ハガグンモテギマチ",
    "town": "入郷",
    "town_kana": "イリゴウ",
    "street": null,
    "office_name": null,
    "office_name_kana": null
  },
  "3706": {
    "postcode": "3213706",
    "prefecture": "栃木県",
    "prefecture_kana": "トチギケン",
    "prefecture_code": 9,
    "city": "芳賀郡茂木町",
    "city_kana": "ハガグンモテギマチ",
    "town": "河又",
    "town_kana": "カワマタ",
    "street": null,
    "office_name": null,
    "office_name_kana": null
  },
  "3707": {
    "postcode": "3213707",
    "prefecture": "栃木県",
    "prefecture_kana": "トチギケン",
    "prefecture_code": 9,
    "city": "芳賀郡茂木町",
    "city_kana": "ハガグンモテギマチ",
    "town": "小深",
    "town_kana": "オブカ",
    "street": null,
    "office_name": null,
    "office_name_kana": null
  },
  "4101": {
    "postcode": "3214101",
    "prefecture": "栃木県",
    "prefecture_kana": "トチギケン",
    "prefecture_code": 9,
    "city": "芳賀郡益子町",
    "city_kana": "ハガグンマシコマチ",
    "town": "小宅",
    "town_kana": "オヤケ",
    "street": null,
    "office_name": null,
    "office_name_kana": null
  },
  "4102": {
    "postcode": "3214102",
    "prefecture": "栃木県",
    "prefecture_kana": "トチギケン",
    "prefecture_code": 9,
    "city": "芳賀郡益子町",
    "city_kana": "ハガグンマシコマチ",
    "town": "芦沼",
    "town_kana": "アシヌマ",
    "street": null,
    "office_name": null,
    "office_name_kana": null
  },
  "4103": {
    "postcode": "3214103",
    "prefecture": "栃木県",
    "prefecture_kana": "トチギケン",
    "prefecture_code": 9,
    "city": "芳賀郡益子町",
    "city_kana": "ハガグンマシコマチ",
    "town": "大平",
    "town_kana": "オオヒラ",
    "street": null,
    "office_name": null,
    "office_name_kana": null
  },
  "4104": {
    "postcode": "3214104",
    "prefecture": "栃木県",
    "prefecture_kana": "トチギケン",
    "prefecture_code": 9,
    "city": "芳賀郡益子町",
    "city_kana": "ハガグンマシコマチ",
    "town": "大沢",
    "town_kana": "オオサワ",
    "street": null,
    "office_name": null,
    "office_name_kana": null
  },
  "4105": {
    "postcode": "3214105",
    "prefecture": "栃木県",
    "prefecture_kana": "トチギケン",
    "prefecture_code": 9,
    "city": "芳賀郡益子町",
    "city_kana": "ハガグンマシコマチ",
    "town": "北中",
    "town_kana": "キタナカ",
    "street": null,
    "office_name": null,
    "office_name_kana": null
  },
  "4106": {
    "postcode": "3214106",
    "prefecture": "栃木県",
    "prefecture_kana": "トチギケン",
    "prefecture_code": 9,
    "city": "芳賀郡益子町",
    "city_kana": "ハガグンマシコマチ",
    "town": "七井",
    "town_kana": "ナナイ",
    "street": null,
    "office_name": null,
    "office_name_kana": null
  },
  "4107": {
    "postcode": "3214107",
    "prefecture": "栃木県",
    "prefecture_kana": "トチギケン",
    "prefecture_code": 9,
    "city": "芳賀郡益子町",
    "city_kana": "ハガグンマシコマチ",
    "town": "七井中央",
    "town_kana": "ナナイチュウオウ",
    "street": null,
    "office_name": null,
    "office_name_kana": null
  },
  "4200": {
    "postcode": "3214200",
    "prefecture": "栃木県",
    "prefecture_kana": "トチギケン",
    "prefecture_code": 9,
    "city": "芳賀郡益子町",
    "city_kana": "ハガグンマシコマチ",
    "town": "",
    "town_kana": "",
    "street": null,
    "office_name": null,
    "office_name_kana": null
  },
  "4211": {
    "postcode": "3214211",
    "prefecture": "栃木県",
    "prefecture_kana": "トチギケン",
    "prefecture_code": 9,
    "city": "芳賀郡益子町",
    "city_kana": "ハガグンマシコマチ",
    "town": "下大羽",
    "town_kana": "シモオオバ",
    "street": null,
    "office_name": null,
    "office_name_kana": null
  },
  "4212": {
    "postcode": "3214212",
    "prefecture": "栃木県",
    "prefecture_kana": "トチギケン",
    "prefecture_code": 9,
    "city": "芳賀郡益子町",
    "city_kana": "ハガグンマシコマチ",
    "town": "上大羽",
    "town_kana": "カミオオバ",
    "street": null,
    "office_name": null,
    "office_name_kana": null
  },
  "4213": {
    "postcode": "3214213",
    "prefecture": "栃木県",
    "prefecture_kana": "トチギケン",
    "prefecture_code": 9,
    "city": "芳賀郡益子町",
    "city_kana": "ハガグンマシコマチ",
    "town": "山本",
    "town_kana": "ヤマモト",
    "street": null,
    "office_name": null,
    "office_name_kana": null
  },
  "4214": {
    "postcode": "3214214",
    "prefecture": "栃木県",
    "prefecture_kana": "トチギケン",
    "prefecture_code": 9,
    "city": "芳賀郡益子町",
    "city_kana": "ハガグンマシコマチ",
    "town": "前沢",
    "town_kana": "マエザワ",
    "street": null,
    "office_name": null,
    "office_name_kana": null
  },
  "4215": {
    "postcode": "3214215",
    "prefecture": "栃木県",
    "prefecture_kana": "トチギケン",
    "prefecture_code": 9,
    "city": "芳賀郡益子町",
    "city_kana": "ハガグンマシコマチ",
    "town": "生田目",
    "town_kana": "ナバタメ",
    "street": null,
    "office_name": null,
    "office_name_kana": null
  },
  "4216": {
    "postcode": "3214216",
    "prefecture": "栃木県",
    "prefecture_kana": "トチギケン",
    "prefecture_code": 9,
    "city": "芳賀郡益子町",
    "city_kana": "ハガグンマシコマチ",
    "town": "塙",
    "town_kana": "ハナワ",
    "street": null,
    "office_name": null,
    "office_name_kana": null
  },
  "4217": {
    "postcode": "3214217",
    "prefecture": "栃木県",
    "prefecture_kana": "トチギケン",
    "prefecture_code": 9,
    "city": "芳賀郡益子町",
    "city_kana": "ハガグンマシコマチ",
    "town": "益子",
    "town_kana": "マシコ",
    "street": null,
    "office_name": null,
    "office_name_kana": null
  },
  "4218": {
    "postcode": "3214218",
    "prefecture": "栃木県",
    "prefecture_kana": "トチギケン",
    "prefecture_code": 9,
    "city": "芳賀郡益子町",
    "city_kana": "ハガグンマシコマチ",
    "town": "城内坂",
    "town_kana": "ジョウナイザカ",
    "street": null,
    "office_name": null,
    "office_name_kana": null
  },
  "4221": {
    "postcode": "3214221",
    "prefecture": "栃木県",
    "prefecture_kana": "トチギケン",
    "prefecture_code": 9,
    "city": "芳賀郡益子町",
    "city_kana": "ハガグンマシコマチ",
    "town": "大郷戸",
    "town_kana": "オオゴウド",
    "street": null,
    "office_name": null,
    "office_name_kana": null
  },
  "4222": {
    "postcode": "3214222",
    "prefecture": "栃木県",
    "prefecture_kana": "トチギケン",
    "prefecture_code": 9,
    "city": "芳賀郡益子町",
    "city_kana": "ハガグンマシコマチ",
    "town": "小泉",
    "town_kana": "コイズミ",
    "street": null,
    "office_name": null,
    "office_name_kana": null
  },
  "4223": {
    "postcode": "3214223",
    "prefecture": "栃木県",
    "prefecture_kana": "トチギケン",
    "prefecture_code": 9,
    "city": "芳賀郡益子町",
    "city_kana": "ハガグンマシコマチ",
    "town": "梅ケ内",
    "town_kana": "ウメガウチ",
    "street": null,
    "office_name": null,
    "office_name_kana": null
  },
  "4224": {
    "postcode": "3214224",
    "prefecture": "栃木県",
    "prefecture_kana": "トチギケン",
    "prefecture_code": 9,
    "city": "芳賀郡益子町",
    "city_kana": "ハガグンマシコマチ",
    "town": "本沼",
    "town_kana": "モトヌマ",
    "street": null,
    "office_name": null,
    "office_name_kana": null
  },
  "4225": {
    "postcode": "3214225",
    "prefecture": "栃木県",
    "prefecture_kana": "トチギケン",
    "prefecture_code": 9,
    "city": "芳賀郡益子町",
    "city_kana": "ハガグンマシコマチ",
    "town": "長堤",
    "town_kana": "ナガツツミ",
    "street": null,
    "office_name": null,
    "office_name_kana": null
  },
  "4226": {
    "postcode": "3214226",
    "prefecture": "栃木県",
    "prefecture_kana": "トチギケン",
    "prefecture_code": 9,
    "city": "芳賀郡益子町",
    "city_kana": "ハガグンマシコマチ",
    "town": "上山",
    "town_kana": "カミヤマ",
    "street": null,
    "office_name": null,
    "office_name_kana": null
  },
  "4227": {
    "postcode": "3214227",
    "prefecture": "栃木県",
    "prefecture_kana": "トチギケン",
    "prefecture_code": 9,
    "city": "芳賀郡益子町",
    "city_kana": "ハガグンマシコマチ",
    "town": "東田井",
    "town_kana": "ヒガシダイ",
    "street": null,
    "office_name": null,
    "office_name_kana": null
  },
  "4292": {
    "postcode": "3214292",
    "prefecture": "栃木県",
    "prefecture_kana": "トチギケン",
    "prefecture_code": 9,
    "city": "芳賀郡益子町",
    "city_kana": "ハガグンマシコマチ",
    "town": "大字塙",
    "town_kana": null,
    "street": "８５８番地",
    "office_name": "ペンタックス　株式会社　益子事業所",
    "office_name_kana": "ペンタツクス カブシキガイシヤ マシコジギヨウシヨ"
  },
  "4293": {
    "postcode": "3214293",
    "prefecture": "栃木県",
    "prefecture_kana": "トチギケン",
    "prefecture_code": 9,
    "city": "芳賀郡益子町",
    "city_kana": "ハガグンマシコマチ",
    "town": "大字益子",
    "town_kana": null,
    "street": "２０３０",
    "office_name": "益子町役場",
    "office_name_kana": "マシコマチヤクバ"
  },
  "4295": {
    "postcode": "3214295",
    "prefecture": "栃木県",
    "prefecture_kana": "トチギケン",
    "prefecture_code": 9,
    "city": "芳賀郡益子町",
    "city_kana": "ハガグンマシコマチ",
    "town": "大字益子",
    "town_kana": null,
    "street": "７０６−２",
    "office_name": "益子焼窯元共販　株式会社",
    "office_name_kana": "マシコヤキカマモトキヨウハン カブシキガイシヤ"
  },
  "4300": {
    "postcode": "3214300",
    "prefecture": "栃木県",
    "prefecture_kana": "トチギケン",
    "prefecture_code": 9,
    "city": "真岡市",
    "city_kana": "モオカシ",
    "town": "",
    "town_kana": "",
    "street": null,
    "office_name": null,
    "office_name_kana": null
  },
  "4301": {
    "postcode": "3214301",
    "prefecture": "栃木県",
    "prefecture_kana": "トチギケン",
    "prefecture_code": 9,
    "city": "真岡市",
    "city_kana": "モオカシ",
    "town": "西田井",
    "town_kana": "ニシダイ",
    "street": null,
    "office_name": null,
    "office_name_kana": null
  },
  "4302": {
    "postcode": "3214302",
    "prefecture": "栃木県",
    "prefecture_kana": "トチギケン",
    "prefecture_code": 9,
    "city": "真岡市",
    "city_kana": "モオカシ",
    "town": "鶴田",
    "town_kana": "ツルタ",
    "street": null,
    "office_name": null,
    "office_name_kana": null
  },
  "4303": {
    "postcode": "3214303",
    "prefecture": "栃木県",
    "prefecture_kana": "トチギケン",
    "prefecture_code": 9,
    "city": "真岡市",
    "city_kana": "モオカシ",
    "town": "八條",
    "town_kana": "ハチジョウ",
    "street": null,
    "office_name": null,
    "office_name_kana": null
  },
  "4304": {
    "postcode": "3214304",
    "prefecture": "栃木県",
    "prefecture_kana": "トチギケン",
    "prefecture_code": 9,
    "city": "真岡市",
    "city_kana": "モオカシ",
    "town": "東郷",
    "town_kana": "ヒガシゴウ",
    "street": null,
    "office_name": null,
    "office_name_kana": null
  },
  "4305": {
    "postcode": "3214305",
    "prefecture": "栃木県",
    "prefecture_kana": "トチギケン",
    "prefecture_code": 9,
    "city": "真岡市",
    "city_kana": "モオカシ",
    "town": "荒町",
    "town_kana": "アラマチ",
    "street": null,
    "office_name": null,
    "office_name_kana": null
  },
  "4306": {
    "postcode": "3214306",
    "prefecture": "栃木県",
    "prefecture_kana": "トチギケン",
    "prefecture_code": 9,
    "city": "真岡市",
    "city_kana": "モオカシ",
    "town": "台町",
    "town_kana": "ダイマチ",
    "street": null,
    "office_name": null,
    "office_name_kana": null
  },
  "4307": {
    "postcode": "3214307",
    "prefecture": "栃木県",
    "prefecture_kana": "トチギケン",
    "prefecture_code": 9,
    "city": "真岡市",
    "city_kana": "モオカシ",
    "town": "西郷",
    "town_kana": "ニシゴウ",
    "street": null,
    "office_name": null,
    "office_name_kana": null
  },
  "4308": {
    "postcode": "3214308",
    "prefecture": "栃木県",
    "prefecture_kana": "トチギケン",
    "prefecture_code": 9,
    "city": "真岡市",
    "city_kana": "モオカシ",
    "town": "中郷",
    "town_kana": "ナカゴウ",
    "street": null,
    "office_name": null,
    "office_name_kana": null
  },
  "4309": {
    "postcode": "3214309",
    "prefecture": "栃木県",
    "prefecture_kana": "トチギケン",
    "prefecture_code": 9,
    "city": "真岡市",
    "city_kana": "モオカシ",
    "town": "東光寺",
    "town_kana": "トウコウジ",
    "street": null,
    "office_name": null,
    "office_name_kana": null
  },
  "4311": {
    "postcode": "3214311",
    "prefecture": "栃木県",
    "prefecture_kana": "トチギケン",
    "prefecture_code": 9,
    "city": "真岡市",
    "city_kana": "モオカシ",
    "town": "根本",
    "town_kana": "ネモト",
    "street": null,
    "office_name": null,
    "office_name_kana": null
  },
  "4312": {
    "postcode": "3214312",
    "prefecture": "栃木県",
    "prefecture_kana": "トチギケン",
    "prefecture_code": 9,
    "city": "真岡市",
    "city_kana": "モオカシ",
    "town": "青谷",
    "town_kana": "アオヤ",
    "street": null,
    "office_name": null,
    "office_name_kana": null
  },
  "4313": {
    "postcode": "3214313",
    "prefecture": "栃木県",
    "prefecture_kana": "トチギケン",
    "prefecture_code": 9,
    "city": "真岡市",
    "city_kana": "モオカシ",
    "town": "須釜",
    "town_kana": "スガマ",
    "street": null,
    "office_name": null,
    "office_name_kana": null
  },
  "4314": {
    "postcode": "3214314",
    "prefecture": "栃木県",
    "prefecture_kana": "トチギケン",
    "prefecture_code": 9,
    "city": "真岡市",
    "city_kana": "モオカシ",
    "town": "南高岡",
    "town_kana": "ミナミタカオカ",
    "street": null,
    "office_name": null,
    "office_name_kana": null
  },
  "4315": {
    "postcode": "3214315",
    "prefecture": "栃木県",
    "prefecture_kana": "トチギケン",
    "prefecture_code": 9,
    "city": "真岡市",
    "city_kana": "モオカシ",
    "town": "道祖土",
    "town_kana": "サヤド",
    "street": null,
    "office_name": null,
    "office_name_kana": null
  },
  "4316": {
    "postcode": "3214316",
    "prefecture": "栃木県",
    "prefecture_kana": "トチギケン",
    "prefecture_code": 9,
    "city": "真岡市",
    "city_kana": "モオカシ",
    "town": "君島",
    "town_kana": "キミジマ",
    "street": null,
    "office_name": null,
    "office_name_kana": null
  },
  "4317": {
    "postcode": "3214317",
    "prefecture": "栃木県",
    "prefecture_kana": "トチギケン",
    "prefecture_code": 9,
    "city": "真岡市",
    "city_kana": "モオカシ",
    "town": "中萩",
    "town_kana": "ナカハギ",
    "street": null,
    "office_name": null,
    "office_name_kana": null
  },
  "4321": {
    "postcode": "3214321",
    "prefecture": "栃木県",
    "prefecture_kana": "トチギケン",
    "prefecture_code": 9,
    "city": "真岡市",
    "city_kana": "モオカシ",
    "town": "小林",
    "town_kana": "コバヤシ",
    "street": null,
    "office_name": null,
    "office_name_kana": null
  },
  "4322": {
    "postcode": "3214322",
    "prefecture": "栃木県",
    "prefecture_kana": "トチギケン",
    "prefecture_code": 9,
    "city": "真岡市",
    "city_kana": "モオカシ",
    "town": "東大島",
    "town_kana": "ヒガシオオシマ",
    "street": null,
    "office_name": null,
    "office_name_kana": null
  },
  "4323": {
    "postcode": "3214323",
    "prefecture": "栃木県",
    "prefecture_kana": "トチギケン",
    "prefecture_code": 9,
    "city": "真岡市",
    "city_kana": "モオカシ",
    "town": "東沼",
    "town_kana": "ヒガシヌマ",
    "street": null,
    "office_name": null,
    "office_name_kana": null
  },
  "4324": {
    "postcode": "3214324",
    "prefecture": "栃木県",
    "prefecture_kana": "トチギケン",
    "prefecture_code": 9,
    "city": "真岡市",
    "city_kana": "モオカシ",
    "town": "西沼",
    "town_kana": "ニシヌマ",
    "street": null,
    "office_name": null,
    "office_name_kana": null
  },
  "4325": {
    "postcode": "3214325",
    "prefecture": "栃木県",
    "prefecture_kana": "トチギケン",
    "prefecture_code": 9,
    "city": "真岡市",
    "city_kana": "モオカシ",
    "town": "田町",
    "town_kana": "タマチ",
    "street": null,
    "office_name": null,
    "office_name_kana": null
  },
  "4326": {
    "postcode": "3214326",
    "prefecture": "栃木県",
    "prefecture_kana": "トチギケン",
    "prefecture_code": 9,
    "city": "真岡市",
    "city_kana": "モオカシ",
    "town": "島",
    "town_kana": "シマ",
    "street": null,
    "office_name": null,
    "office_name_kana": null
  },
  "4331": {
    "postcode": "3214331",
    "prefecture": "栃木県",
    "prefecture_kana": "トチギケン",
    "prefecture_code": 9,
    "city": "真岡市",
    "city_kana": "モオカシ",
    "town": "白布ケ丘",
    "town_kana": "ハクフガオカ",
    "street": null,
    "office_name": null,
    "office_name_kana": null
  },
  "4332": {
    "postcode": "3214332",
    "prefecture": "栃木県",
    "prefecture_kana": "トチギケン",
    "prefecture_code": 9,
    "city": "真岡市",
    "city_kana": "モオカシ",
    "town": "大谷新町",
    "town_kana": "オオヤシンマチ",
    "street": null,
    "office_name": null,
    "office_name_kana": null
  },
  "4333": {
    "postcode": "3214333",
    "prefecture": "栃木県",
    "prefecture_kana": "トチギケン",
    "prefecture_code": 9,
    "city": "真岡市",
    "city_kana": "モオカシ",
    "town": "大谷本町",
    "town_kana": "オオヤホンマチ",
    "street": null,
    "office_name": null,
    "office_name_kana": null
  },
  "4334": {
    "postcode": "3214334",
    "prefecture": "栃木県",
    "prefecture_kana": "トチギケン",
    "prefecture_code": 9,
    "city": "真岡市",
    "city_kana": "モオカシ",
    "town": "八木岡",
    "town_kana": "ヤギオカ",
    "street": null,
    "office_name": null,
    "office_name_kana": null
  },
  "4335": {
    "postcode": "3214335",
    "prefecture": "栃木県",
    "prefecture_kana": "トチギケン",
    "prefecture_code": 9,
    "city": "真岡市",
    "city_kana": "モオカシ",
    "town": "下高間木",
    "town_kana": "シモコウマギ",
    "street": null,
    "office_name": null,
    "office_name_kana": null
  },
  "4336": {
    "postcode": "3214336",
    "prefecture": "栃木県",
    "prefecture_kana": "トチギケン",
    "prefecture_code": 9,
    "city": "真岡市",
    "city_kana": "モオカシ",
    "town": "西高間木",
    "town_kana": "ニシコウマギ",
    "street": null,
    "office_name": null,
    "office_name_kana": null
  },
  "4337": {
    "postcode": "3214337",
    "prefecture": "栃木県",
    "prefecture_kana": "トチギケン",
    "prefecture_code": 9,
    "city": "真岡市",
    "city_kana": "モオカシ",
    "town": "上高間木",
    "town_kana": "カミコウマギ",
    "street": null,
    "office_name": null,
    "office_name_kana": null
  },
  "4338": {
    "postcode": "3214338",
    "prefecture": "栃木県",
    "prefecture_kana": "トチギケン",
    "prefecture_code": 9,
    "city": "真岡市",
    "city_kana": "モオカシ",
    "town": "大谷台町",
    "town_kana": "オオヤダイマチ",
    "street": null,
    "office_name": null,
    "office_name_kana": null
  },
  "4341": {
    "postcode": "3214341",
    "prefecture": "栃木県",
    "prefecture_kana": "トチギケン",
    "prefecture_code": 9,
    "city": "真岡市",
    "city_kana": "モオカシ",
    "town": "高勢町",
    "town_kana": "タカセチョウ",
    "street": null,
    "office_name": null,
    "office_name_kana": null
  },
  "4342": {
    "postcode": "3214342",
    "prefecture": "栃木県",
    "prefecture_kana": "トチギケン",
    "prefecture_code": 9,
    "city": "真岡市",
    "city_kana": "モオカシ",
    "town": "伊勢崎",
    "town_kana": "イセサキ",
    "street": null,
    "office_name": null,
    "office_name_kana": null
  },
  "4343": {
    "postcode": "3214343",
    "prefecture": "栃木県",
    "prefecture_kana": "トチギケン",
    "prefecture_code": 9,
    "city": "真岡市",
    "city_kana": "モオカシ",
    "town": "小橋",
    "town_kana": "コバシ",
    "street": null,
    "office_name": null,
    "office_name_kana": null
  },
  "4344": {
    "postcode": "3214344",
    "prefecture": "栃木県",
    "prefecture_kana": "トチギケン",
    "prefecture_code": 9,
    "city": "真岡市",
    "city_kana": "モオカシ",
    "town": "茅堤",
    "town_kana": "カヤツツミ",
    "street": null,
    "office_name": null,
    "office_name_kana": null
  },
  "4345": {
    "postcode": "3214345",
    "prefecture": "栃木県",
    "prefecture_kana": "トチギケン",
    "prefecture_code": 9,
    "city": "真岡市",
    "city_kana": "モオカシ",
    "town": "寺内",
    "town_kana": "テラウチ",
    "street": null,
    "office_name": null,
    "office_name_kana": null
  },
  "4346": {
    "postcode": "3214346",
    "prefecture": "栃木県",
    "prefecture_kana": "トチギケン",
    "prefecture_code": 9,
    "city": "真岡市",
    "city_kana": "モオカシ",
    "town": "松山町",
    "town_kana": "マツヤマチョウ",
    "street": null,
    "office_name": null,
    "office_name_kana": null
  },
  "4347": {
    "postcode": "3214347",
    "prefecture": "栃木県",
    "prefecture_kana": "トチギケン",
    "prefecture_code": 9,
    "city": "真岡市",
    "city_kana": "モオカシ",
    "town": "加倉",
    "town_kana": "カクラ",
    "street": null,
    "office_name": null,
    "office_name_kana": null
  },
  "4351": {
    "postcode": "3214351",
    "prefecture": "栃木県",
    "prefecture_kana": "トチギケン",
    "prefecture_code": 9,
    "city": "真岡市",
    "city_kana": "モオカシ",
    "town": "中",
    "town_kana": "ナカ",
    "street": null,
    "office_name": null,
    "office_name_kana": null
  },
  "4352": {
    "postcode": "3214352",
    "prefecture": "栃木県",
    "prefecture_kana": "トチギケン",
    "prefecture_code": 9,
    "city": "真岡市",
    "city_kana": "モオカシ",
    "town": "若旅",
    "town_kana": "ワカタビ",
    "street": null,
    "office_name": null,
    "office_name_kana": null
  },
  "4353": {
    "postcode": "3214353",
    "prefecture": "栃木県",
    "prefecture_kana": "トチギケン",
    "prefecture_code": 9,
    "city": "真岡市",
    "city_kana": "モオカシ",
    "town": "粕田",
    "town_kana": "カスダ",
    "street": null,
    "office_name": null,
    "office_name_kana": null
  },
  "4354": {
    "postcode": "3214354",
    "prefecture": "栃木県",
    "prefecture_kana": "トチギケン",
    "prefecture_code": 9,
    "city": "真岡市",
    "city_kana": "モオカシ",
    "town": "寺分",
    "town_kana": "テラブン",
    "street": null,
    "office_name": null,
    "office_name_kana": null
  },
  "4355": {
    "postcode": "3214355",
    "prefecture": "栃木県",
    "prefecture_kana": "トチギケン",
    "prefecture_code": 9,
    "city": "真岡市",
    "city_kana": "モオカシ",
    "town": "上大沼",
    "town_kana": "カミオオヌマ",
    "street": null,
    "office_name": null,
    "office_name_kana": null
  },
  "4356": {
    "postcode": "3214356",
    "prefecture": "栃木県",
    "prefecture_kana": "トチギケン",
    "prefecture_code": 9,
    "city": "真岡市",
    "city_kana": "モオカシ",
    "town": "大沼",
    "town_kana": "オオヌマ",
    "street": null,
    "office_name": null,
    "office_name_kana": null
  },
  "4357": {
    "postcode": "3214357",
    "prefecture": "栃木県",
    "prefecture_kana": "トチギケン",
    "prefecture_code": 9,
    "city": "真岡市",
    "city_kana": "モオカシ",
    "town": "下大沼",
    "town_kana": "シモオオヌマ",
    "street": null,
    "office_name": null,
    "office_name_kana": null
  },
  "4361": {
    "postcode": "3214361",
    "prefecture": "栃木県",
    "prefecture_kana": "トチギケン",
    "prefecture_code": 9,
    "city": "真岡市",
    "city_kana": "モオカシ",
    "town": "並木町",
    "town_kana": "ナミキチョウ",
    "street": null,
    "office_name": null,
    "office_name_kana": null
  },
  "4362": {
    "postcode": "3214362",
    "prefecture": "栃木県",
    "prefecture_kana": "トチギケン",
    "prefecture_code": 9,
    "city": "真岡市",
    "city_kana": "モオカシ",
    "town": "熊倉町",
    "town_kana": "クマクラチョウ",
    "street": null,
    "office_name": null,
    "office_name_kana": null
  },
  "4363": {
    "postcode": "3214363",
    "prefecture": "栃木県",
    "prefecture_kana": "トチギケン",
    "prefecture_code": 9,
    "city": "真岡市",
    "city_kana": "モオカシ",
    "town": "亀山",
    "town_kana": "カメヤマ",
    "street": null,
    "office_name": null,
    "office_name_kana": null
  },
  "4364": {
    "postcode": "3214364",
    "prefecture": "栃木県",
    "prefecture_kana": "トチギケン",
    "prefecture_code": 9,
    "city": "真岡市",
    "city_kana": "モオカシ",
    "town": "長田",
    "town_kana": "ナガタ",
    "street": null,
    "office_name": null,
    "office_name_kana": null
  },
  "4365": {
    "postcode": "3214365",
    "prefecture": "栃木県",
    "prefecture_kana": "トチギケン",
    "prefecture_code": 9,
    "city": "真岡市",
    "city_kana": "モオカシ",
    "town": "柳林",
    "town_kana": "ヤナギバヤシ",
    "street": null,
    "office_name": null,
    "office_name_kana": null
  },
  "4366": {
    "postcode": "3214366",
    "prefecture": "栃木県",
    "prefecture_kana": "トチギケン",
    "prefecture_code": 9,
    "city": "真岡市",
    "city_kana": "モオカシ",
    "town": "勝瓜",
    "town_kana": "カツウリ",
    "street": null,
    "office_name": null,
    "office_name_kana": null
  },
  "4367": {
    "postcode": "3214367",
    "prefecture": "栃木県",
    "prefecture_kana": "トチギケン",
    "prefecture_code": 9,
    "city": "真岡市",
    "city_kana": "モオカシ",
    "town": "鬼怒ケ丘",
    "town_kana": "キヌガオカ",
    "street": null,
    "office_name": null,
    "office_name_kana": null
  },
  "4368": {
    "postcode": "3214368",
    "prefecture": "栃木県",
    "prefecture_kana": "トチギケン",
    "prefecture_code": 9,
    "city": "真岡市",
    "city_kana": "モオカシ",
    "town": "寺久保",
    "town_kana": "テラクボ",
    "street": null,
    "office_name": null,
    "office_name_kana": null
  },
  "4369": {
    "postcode": "3214369",
    "prefecture": "栃木県",
    "prefecture_kana": "トチギケン",
    "prefecture_code": 9,
    "city": "真岡市",
    "city_kana": "モオカシ",
    "town": "熊倉",
    "town_kana": "クマクラ",
    "street": null,
    "office_name": null,
    "office_name_kana": null
  },
  "4392": {
    "postcode": "3214392",
    "prefecture": "栃木県",
    "prefecture_kana": "トチギケン",
    "prefecture_code": 9,
    "city": "真岡市",
    "city_kana": "モオカシ",
    "town": "鬼怒ケ丘",
    "town_kana": "キヌガオカ",
    "street": "２番地２",
    "office_name": "ＳＨＰＰジャパン　合同会社",
    "office_name_kana": "エスエイチピ-ピ-ジヤパン ゴウドウカイシヤ"
  },
  "4393": {
    "postcode": "3214393",
    "prefecture": "栃木県",
    "prefecture_kana": "トチギケン",
    "prefecture_code": 9,
    "city": "真岡市",
    "city_kana": "モオカシ",
    "town": "松山町",
    "town_kana": "マツヤマチョウ",
    "street": "１４",
    "office_name": "第一電子工業　株式会社",
    "office_name_kana": "ダイイチデンシコウギヨウ カブシキガイシヤ"
  },
  "4395": {
    "postcode": "3214395",
    "prefecture": "栃木県",
    "prefecture_kana": "トチギケン",
    "prefecture_code": 9,
    "city": "真岡市",
    "city_kana": "モオカシ",
    "town": "荒町",
    "town_kana": "アラマチ",
    "street": "５１９１",
    "office_name": "真岡市役所",
    "office_name_kana": "モオカシヤクシヨ"
  },
  "4396": {
    "postcode": "3214396",
    "prefecture": "栃木県",
    "prefecture_kana": "トチギケン",
    "prefecture_code": 9,
    "city": "真岡市",
    "city_kana": "モオカシ",
    "town": "鬼怒ケ丘",
    "town_kana": "キヌガオカ",
    "street": "６",
    "office_name": "富士ファイバーグラス　株式会社",
    "office_name_kana": "フジフアイバ-グラス カブシキガイシヤ"
  },
  "4398": {
    "postcode": "3214398",
    "prefecture": "栃木県",
    "prefecture_kana": "トチギケン",
    "prefecture_code": 9,
    "city": "真岡市",
    "city_kana": "モオカシ",
    "town": "荒町",
    "town_kana": "アラマチ",
    "street": "１１６−１",
    "office_name": "真岡県税事務所",
    "office_name_kana": "モオカケンゼイジムシヨ"
  },
  "4401": {
    "postcode": "3214401",
    "prefecture": "栃木県",
    "prefecture_kana": "トチギケン",
    "prefecture_code": 9,
    "city": "真岡市",
    "city_kana": "モオカシ",
    "town": "赤羽",
    "town_kana": "アカバネ",
    "street": null,
    "office_name": null,
    "office_name_kana": null
  },
  "4402": {
    "postcode": "3214402",
    "prefecture": "栃木県",
    "prefecture_kana": "トチギケン",
    "prefecture_code": 9,
    "city": "真岡市",
    "city_kana": "モオカシ",
    "town": "清水",
    "town_kana": "シミズ",
    "street": null,
    "office_name": null,
    "office_name_kana": null
  },
  "4403": {
    "postcode": "3214403",
    "prefecture": "栃木県",
    "prefecture_kana": "トチギケン",
    "prefecture_code": 9,
    "city": "真岡市",
    "city_kana": "モオカシ",
    "town": "原町",
    "town_kana": "ハラマチ",
    "street": null,
    "office_name": null,
    "office_name_kana": null
  },
  "4404": {
    "postcode": "3214404",
    "prefecture": "栃木県",
    "prefecture_kana": "トチギケン",
    "prefecture_code": 9,
    "city": "真岡市",
    "city_kana": "モオカシ",
    "town": "田島",
    "town_kana": "タジマ",
    "street": null,
    "office_name": null,
    "office_name_kana": null
  },
  "4405": {
    "postcode": "3214405",
    "prefecture": "栃木県",
    "prefecture_kana": "トチギケン",
    "prefecture_code": 9,
    "city": "真岡市",
    "city_kana": "モオカシ",
    "town": "飯貝",
    "town_kana": "イイガイ",
    "street": null,
    "office_name": null,
    "office_name_kana": null
  },
  "4406": {
    "postcode": "3214406",
    "prefecture": "栃木県",
    "prefecture_kana": "トチギケン",
    "prefecture_code": 9,
    "city": "真岡市",
    "city_kana": "モオカシ",
    "town": "京泉",
    "town_kana": "キョウセン",
    "street": null,
    "office_name": null,
    "office_name_kana": null
  },
  "4411": {
    "postcode": "3214411",
    "prefecture": "栃木県",
    "prefecture_kana": "トチギケン",
    "prefecture_code": 9,
    "city": "真岡市",
    "city_kana": "モオカシ",
    "town": "上大田和",
    "town_kana": "カミオオダワ",
    "street": null,
    "office_name": null,
    "office_name_kana": null
  },
  "4412": {
    "postcode": "3214412",
    "prefecture": "栃木県",
    "prefecture_kana": "トチギケン",
    "prefecture_code": 9,
    "city": "真岡市",
    "city_kana": "モオカシ",
    "town": "堀内",
    "town_kana": "ホリウチ",
    "street": null,
    "office_name": null,
    "office_name_kana": null
  },
  "4413": {
    "postcode": "3214413",
    "prefecture": "栃木県",
    "prefecture_kana": "トチギケン",
    "prefecture_code": 9,
    "city": "真岡市",
    "city_kana": "モオカシ",
    "town": "下大田和",
    "town_kana": "シモオオダワ",
    "street": null,
    "office_name": null,
    "office_name_kana": null
  },
  "4414": {
    "postcode": "3214414",
    "prefecture": "栃木県",
    "prefecture_kana": "トチギケン",
    "prefecture_code": 9,
    "city": "真岡市",
    "city_kana": "モオカシ",
    "town": "下鷺谷",
    "town_kana": "シモサギノヤ",
    "street": null,
    "office_name": null,
    "office_name_kana": null
  },
  "4415": {
    "postcode": "3214415",
    "prefecture": "栃木県",
    "prefecture_kana": "トチギケン",
    "prefecture_code": 9,
    "city": "真岡市",
    "city_kana": "モオカシ",
    "town": "下籠谷",
    "town_kana": "シモコモリヤ",
    "street": null,
    "office_name": null,
    "office_name_kana": null
  },
  "4416": {
    "postcode": "3214416",
    "prefecture": "栃木県",
    "prefecture_kana": "トチギケン",
    "prefecture_code": 9,
    "city": "真岡市",
    "city_kana": "モオカシ",
    "town": "上鷺谷",
    "town_kana": "カミサギノヤ",
    "street": null,
    "office_name": null,
    "office_name_kana": null
  },
  "4501": {
    "postcode": "3214501",
    "prefecture": "栃木県",
    "prefecture_kana": "トチギケン",
    "prefecture_code": 9,
    "city": "真岡市",
    "city_kana": "モオカシ",
    "town": "横田",
    "town_kana": "ヨコタ",
    "street": null,
    "office_name": null,
    "office_name_kana": null
  },
  "4502": {
    "postcode": "3214502",
    "prefecture": "栃木県",
    "prefecture_kana": "トチギケン",
    "prefecture_code": 9,
    "city": "真岡市",
    "city_kana": "モオカシ",
    "town": "物井",
    "town_kana": "モノイ",
    "street": null,
    "office_name": null,
    "office_name_kana": null
  },
  "4503": {
    "postcode": "3214503",
    "prefecture": "栃木県",
    "prefecture_kana": "トチギケン",
    "prefecture_code": 9,
    "city": "真岡市",
    "city_kana": "モオカシ",
    "town": "桑ノ川",
    "town_kana": "クワノガワ",
    "street": null,
    "office_name": null,
    "office_name_kana": null
  },
  "4504": {
    "postcode": "3214504",
    "prefecture": "栃木県",
    "prefecture_kana": "トチギケン",
    "prefecture_code": 9,
    "city": "真岡市",
    "city_kana": "モオカシ",
    "town": "鹿",
    "town_kana": "シカ",
    "street": null,
    "office_name": null,
    "office_name_kana": null
  },
  "4505": {
    "postcode": "3214505",
    "prefecture": "栃木県",
    "prefecture_kana": "トチギケン",
    "prefecture_code": 9,
    "city": "真岡市",
    "city_kana": "モオカシ",
    "town": "沖",
    "town_kana": "オキ",
    "street": null,
    "office_name": null,
    "office_name_kana": null
  },
  "4506": {
    "postcode": "3214506",
    "prefecture": "栃木県",
    "prefecture_kana": "トチギケン",
    "prefecture_code": 9,
    "city": "真岡市",
    "city_kana": "モオカシ",
    "town": "大根田",
    "town_kana": "オオネダ",
    "street": null,
    "office_name": null,
    "office_name_kana": null
  },
  "4507": {
    "postcode": "3214507",
    "prefecture": "栃木県",
    "prefecture_kana": "トチギケン",
    "prefecture_code": 9,
    "city": "真岡市",
    "city_kana": "モオカシ",
    "town": "石島",
    "town_kana": "イシジマ",
    "street": null,
    "office_name": null,
    "office_name_kana": null
  },
  "4508": {
    "postcode": "3214508",
    "prefecture": "栃木県",
    "prefecture_kana": "トチギケン",
    "prefecture_code": 9,
    "city": "真岡市",
    "city_kana": "モオカシ",
    "town": "大和田",
    "town_kana": "オオワダ",
    "street": null,
    "office_name": null,
    "office_name_kana": null
  },
  "4511": {
    "postcode": "3214511",
    "prefecture": "栃木県",
    "prefecture_kana": "トチギケン",
    "prefecture_code": 9,
    "city": "真岡市",
    "city_kana": "モオカシ",
    "town": "高田",
    "town_kana": "タカダ",
    "street": null,
    "office_name": null,
    "office_name_kana": null
  },
  "4512": {
    "postcode": "3214512",
    "prefecture": "栃木県",
    "prefecture_kana": "トチギケン",
    "prefecture_code": 9,
    "city": "真岡市",
    "city_kana": "モオカシ",
    "town": "阿部岡",
    "town_kana": "アベオカ",
    "street": null,
    "office_name": null,
    "office_name_kana": null
  },
  "4513": {
    "postcode": "3214513",
    "prefecture": "栃木県",
    "prefecture_kana": "トチギケン",
    "prefecture_code": 9,
    "city": "真岡市",
    "city_kana": "モオカシ",
    "town": "三谷",
    "town_kana": "ミヤ",
    "street": null,
    "office_name": null,
    "office_name_kana": null
  },
  "4514": {
    "postcode": "3214514",
    "prefecture": "栃木県",
    "prefecture_kana": "トチギケン",
    "prefecture_code": 9,
    "city": "真岡市",
    "city_kana": "モオカシ",
    "town": "水戸部",
    "town_kana": "ミトベ",
    "street": null,
    "office_name": null,
    "office_name_kana": null
  },
  "4515": {
    "postcode": "3214515",
    "prefecture": "栃木県",
    "prefecture_kana": "トチギケン",
    "prefecture_code": 9,
    "city": "真岡市",
    "city_kana": "モオカシ",
    "town": "反町",
    "town_kana": "ソリマチ",
    "street": null,
    "office_name": null,
    "office_name_kana": null
  },
  "4516": {
    "postcode": "3214516",
    "prefecture": "栃木県",
    "prefecture_kana": "トチギケン",
    "prefecture_code": 9,
    "city": "真岡市",
    "city_kana": "モオカシ",
    "town": "根小屋",
    "town_kana": "ネゴヤ",
    "street": null,
    "office_name": null,
    "office_name_kana": null
  },
  "4517": {
    "postcode": "3214517",
    "prefecture": "栃木県",
    "prefecture_kana": "トチギケン",
    "prefecture_code": 9,
    "city": "真岡市",
    "city_kana": "モオカシ",
    "town": "阿部品",
    "town_kana": "アベシナ",
    "street": null,
    "office_name": null,
    "office_name_kana": null
  },
  "4521": {
    "postcode": "3214521",
    "prefecture": "栃木県",
    "prefecture_kana": "トチギケン",
    "prefecture_code": 9,
    "city": "真岡市",
    "city_kana": "モオカシ",
    "town": "久下田",
    "town_kana": "クゲタ",
    "street": null,
    "office_name": null,
    "office_name_kana": null
  },
  "4522": {
    "postcode": "3214522",
    "prefecture": "栃木県",
    "prefecture_kana": "トチギケン",
    "prefecture_code": 9,
    "city": "真岡市",
    "city_kana": "モオカシ",
    "town": "久下田西",
    "town_kana": "クゲタニシ",
    "street": null,
    "office_name": null,
    "office_name_kana": null
  },
  "4523": {
    "postcode": "3214523",
    "prefecture": "栃木県",
    "prefecture_kana": "トチギケン",
    "prefecture_code": 9,
    "city": "真岡市",
    "city_kana": "モオカシ",
    "town": "さくら",
    "town_kana": "サクラ",
    "street": null,
    "office_name": null,
    "office_name_kana": null
  },
  "4531": {
    "postcode": "3214531",
    "prefecture": "栃木県",
    "prefecture_kana": "トチギケン",
    "prefecture_code": 9,
    "city": "真岡市",
    "city_kana": "モオカシ",
    "town": "青田",
    "town_kana": "アオタ",
    "street": null,
    "office_name": null,
    "office_name_kana": null
  },
  "4532": {
    "postcode": "3214532",
    "prefecture": "栃木県",
    "prefecture_kana": "トチギケン",
    "prefecture_code": 9,
    "city": "真岡市",
    "city_kana": "モオカシ",
    "town": "長島",
    "town_kana": "ナガシマ",
    "street": null,
    "office_name": null,
    "office_name_kana": null
  },
  "4533": {
    "postcode": "3214533",
    "prefecture": "栃木県",
    "prefecture_kana": "トチギケン",
    "prefecture_code": 9,
    "city": "真岡市",
    "city_kana": "モオカシ",
    "town": "程島",
    "town_kana": "ホドシマ",
    "street": null,
    "office_name": null,
    "office_name_kana": null
  },
  "4534": {
    "postcode": "3214534",
    "prefecture": "栃木県",
    "prefecture_kana": "トチギケン",
    "prefecture_code": 9,
    "city": "真岡市",
    "city_kana": "モオカシ",
    "town": "境",
    "town_kana": "サカイ",
    "street": null,
    "office_name": null,
    "office_name_kana": null
  },
  "4535": {
    "postcode": "3214535",
    "prefecture": "栃木県",
    "prefecture_kana": "トチギケン",
    "prefecture_code": 9,
    "city": "真岡市",
    "city_kana": "モオカシ",
    "town": "古山",
    "town_kana": "コヤマ",
    "street": null,
    "office_name": null,
    "office_name_kana": null
  },
  "4536": {
    "postcode": "3214536",
    "prefecture": "栃木県",
    "prefecture_kana": "トチギケン",
    "prefecture_code": 9,
    "city": "真岡市",
    "city_kana": "モオカシ",
    "town": "上江連",
    "town_kana": "カミエヅラ",
    "street": null,
    "office_name": null,
    "office_name_kana": null
  },
  "4537": {
    "postcode": "3214537",
    "prefecture": "栃木県",
    "prefecture_kana": "トチギケン",
    "prefecture_code": 9,
    "city": "真岡市",
    "city_kana": "モオカシ",
    "town": "西大島",
    "town_kana": "ニシオオジマ",
    "street": null,
    "office_name": null,
    "office_name_kana": null
  },
  "4538": {
    "postcode": "3214538",
    "prefecture": "栃木県",
    "prefecture_kana": "トチギケン",
    "prefecture_code": 9,
    "city": "真岡市",
    "city_kana": "モオカシ",
    "town": "鷲巣",
    "town_kana": "ワシノス",
    "street": null,
    "office_name": null,
    "office_name_kana": null
  },
  "4539": {
    "postcode": "3214539",
    "prefecture": "栃木県",
    "prefecture_kana": "トチギケン",
    "prefecture_code": 9,
    "city": "真岡市",
    "city_kana": "モオカシ",
    "town": "長沼",
    "town_kana": "ナガヌマ",
    "street": null,
    "office_name": null,
    "office_name_kana": null
  },
  "4541": {
    "postcode": "3214541",
    "prefecture": "栃木県",
    "prefecture_kana": "トチギケン",
    "prefecture_code": 9,
    "city": "真岡市",
    "city_kana": "モオカシ",
    "town": "上谷貝",
    "town_kana": "カミヤガイ",
    "street": null,
    "office_name": null,
    "office_name_kana": null
  },
  "4542": {
    "postcode": "3214542",
    "prefecture": "栃木県",
    "prefecture_kana": "トチギケン",
    "prefecture_code": 9,
    "city": "真岡市",
    "city_kana": "モオカシ",
    "town": "上大曽",
    "town_kana": "カミオオゾ",
    "street": null,
    "office_name": null,
    "office_name_kana": null
  },
  "4543": {
    "postcode": "3214543",
    "prefecture": "栃木県",
    "prefecture_kana": "トチギケン",
    "prefecture_code": 9,
    "city": "真岡市",
    "city_kana": "モオカシ",
    "town": "下大曽",
    "town_kana": "シモオオゾ",
    "street": null,
    "office_name": null,
    "office_name_kana": null
  },
  "4544": {
    "postcode": "3214544",
    "prefecture": "栃木県",
    "prefecture_kana": "トチギケン",
    "prefecture_code": 9,
    "city": "真岡市",
    "city_kana": "モオカシ",
    "town": "堀込",
    "town_kana": "ホリゴメ",
    "street": null,
    "office_name": null,
    "office_name_kana": null
  },
  "4545": {
    "postcode": "3214545",
    "prefecture": "栃木県",
    "prefecture_kana": "トチギケン",
    "prefecture_code": 9,
    "city": "真岡市",
    "city_kana": "モオカシ",
    "town": "大道泉",
    "town_kana": "ダイドウイズミ",
    "street": null,
    "office_name": null,
    "office_name_kana": null
  },
  "4546": {
    "postcode": "3214546",
    "prefecture": "栃木県",
    "prefecture_kana": "トチギケン",
    "prefecture_code": 9,
    "city": "真岡市",
    "city_kana": "モオカシ",
    "town": "砂ケ原",
    "town_kana": "イサガハラ",
    "street": null,
    "office_name": null,
    "office_name_kana": null
  },
  "4547": {
    "postcode": "3214547",
    "prefecture": "栃木県",
    "prefecture_kana": "トチギケン",
    "prefecture_code": 9,
    "city": "真岡市",
    "city_kana": "モオカシ",
    "town": "谷貝新田",
    "town_kana": "ヤガイシンデン",
    "street": null,
    "office_name": null,
    "office_name_kana": null
  },
  "4551": [
    {
      "postcode": "3214551",
      "prefecture": "栃木県",
      "prefecture_kana": "トチギケン",
      "prefecture_code": 9,
      "city": "真岡市",
      "city_kana": "モオカシ",
      "town": "若旅",
      "town_kana": "ワカタビ",
      "street": null,
      "office_name": null,
      "office_name_kana": null
    },
    {
      "postcode": "3214551",
      "prefecture": "栃木県",
      "prefecture_kana": "トチギケン",
      "prefecture_code": 9,
      "city": "真岡市",
      "city_kana": "モオカシ",
      "town": "若旅五丁歩",
      "town_kana": "ワカタビ5チョウブ",
      "street": null,
      "office_name": null,
      "office_name_kana": null
    }
  ],
  "8502": {
    "postcode": "3218502",
    "prefecture": "栃木県",
    "prefecture_kana": "トチギケン",
    "prefecture_code": 9,
    "city": "宇都宮市",
    "city_kana": "ウツノミヤシ",
    "town": "平出工業団地",
    "town_kana": "ヒライデコウギョウダンチ",
    "street": "９−１",
    "office_name": "パナソニック　コミュニケーションズ　株式会社",
    "office_name_kana": "パナソニツク コミユニケ-シヨンズ カブシキガイシヤ"
  },
  "8505": {
    "postcode": "3218505",
    "prefecture": "栃木県",
    "prefecture_kana": "トチギケン",
    "prefecture_code": 9,
    "city": "宇都宮市",
    "city_kana": "ウツノミヤシ",
    "town": "峰町",
    "town_kana": "ミネマチ",
    "street": "３５０",
    "office_name": "宇都宮大学",
    "office_name_kana": "ウツノミヤダイガク"
  },
  "8555": {
    "postcode": "3218555",
    "prefecture": "栃木県",
    "prefecture_kana": "トチギケン",
    "prefecture_code": 9,
    "city": "宇都宮市",
    "city_kana": "ウツノミヤシ",
    "town": "陽東",
    "town_kana": "ヨウトウ",
    "street": "６丁目２−１",
    "office_name": "株式会社　ベルモール",
    "office_name_kana": "カブシキカイシヤ ベルモ-ル"
  },
  "8585": {
    "postcode": "3218585",
    "prefecture": "栃木県",
    "prefecture_kana": "トチギケン",
    "prefecture_code": 9,
    "city": "宇都宮市",
    "city_kana": "ウツノミヤシ",
    "town": "陽東",
    "town_kana": "ヨウトウ",
    "street": "７丁目１−２",
    "office_name": "宇都宮大学　工学部",
    "office_name_kana": "ウツノミヤダイガク コウガクブ"
  }
}