{
  "0000": {
    "postcode": "3260000",
    "prefecture": "栃木県",
    "prefecture_kana": "トチギケン",
    "prefecture_code": 9,
    "city": "足利市",
    "city_kana": "アシカガシ",
    "town": "",
    "town_kana": "",
    "street": null,
    "office_name": null,
    "office_name_kana": null
  },
  "0001": {
    "postcode": "3260001",
    "prefecture": "栃木県",
    "prefecture_kana": "トチギケン",
    "prefecture_code": 9,
    "city": "足利市",
    "city_kana": "アシカガシ",
    "town": "名草上町",
    "town_kana": "ナグサカミチョウ",
    "street": null,
    "office_name": null,
    "office_name_kana": null
  },
  "0002": {
    "postcode": "3260002",
    "prefecture": "栃木県",
    "prefecture_kana": "トチギケン",
    "prefecture_code": 9,
    "city": "足利市",
    "city_kana": "アシカガシ",
    "town": "名草中町",
    "town_kana": "ナグサナカチョウ",
    "street": null,
    "office_name": null,
    "office_name_kana": null
  },
  "0003": {
    "postcode": "3260003",
    "prefecture": "栃木県",
    "prefecture_kana": "トチギケン",
    "prefecture_code": 9,
    "city": "足利市",
    "city_kana": "アシカガシ",
    "town": "名草下町",
    "town_kana": "ナグサシモチョウ",
    "street": null,
    "office_name": null,
    "office_name_kana": null
  },
  "0004": {
    "postcode": "3260004",
    "prefecture": "栃木県",
    "prefecture_kana": "トチギケン",
    "prefecture_code": 9,
    "city": "足利市",
    "city_kana": "アシカガシ",
    "town": "樺崎町",
    "town_kana": "カバサキチョウ",
    "street": null,
    "office_name": null,
    "office_name_kana": null
  },
  "0005": {
    "postcode": "3260005",
    "prefecture": "栃木県",
    "prefecture_kana": "トチギケン",
    "prefecture_code": 9,
    "city": "足利市",
    "city_kana": "アシカガシ",
    "town": "大月町",
    "town_kana": "オオツキチョウ",
    "street": null,
    "office_name": null,
    "office_name_kana": null
  },
  "0006": {
    "postcode": "3260006",
    "prefecture": "栃木県",
    "prefecture_kana": "トチギケン",
    "prefecture_code": 9,
    "city": "足利市",
    "city_kana": "アシカガシ",
    "town": "利保町",
    "town_kana": "カカボチョウ",
    "street": null,
    "office_name": null,
    "office_name_kana": null
  },
  "0007": {
    "postcode": "3260007",
    "prefecture": "栃木県",
    "prefecture_kana": "トチギケン",
    "prefecture_code": 9,
    "city": "足利市",
    "city_kana": "アシカガシ",
    "town": "菅田町",
    "town_kana": "スゲタチョウ",
    "street": null,
    "office_name": null,
    "office_name_kana": null
  },
  "0011": {
    "postcode": "3260011",
    "prefecture": "栃木県",
    "prefecture_kana": "トチギケン",
    "prefecture_code": 9,
    "city": "足利市",
    "city_kana": "アシカガシ",
    "town": "大沼田町",
    "town_kana": "オオヌマタチョウ",
    "street": null,
    "office_name": null,
    "office_name_kana": null
  },
  "0012": {
    "postcode": "3260012",
    "prefecture": "栃木県",
    "prefecture_kana": "トチギケン",
    "prefecture_code": 9,
    "city": "足利市",
    "city_kana": "アシカガシ",
    "town": "大久保町",
    "town_kana": "オオクボチョウ",
    "street": null,
    "office_name": null,
    "office_name_kana": null
  },
  "0013": {
    "postcode": "3260013",
    "prefecture": "栃木県",
    "prefecture_kana": "トチギケン",
    "prefecture_code": 9,
    "city": "足利市",
    "city_kana": "アシカガシ",
    "town": "川崎町",
    "town_kana": "カワサキチョウ",
    "street": null,
    "office_name": null,
    "office_name_kana": null
  },
  "0014": {
    "postcode": "3260014",
    "prefecture": "栃木県",
    "prefecture_kana": "トチギケン",
    "prefecture_code": 9,
    "city": "足利市",
    "city_kana": "アシカガシ",
    "town": "鵤木町",
    "town_kana": "イカルギチョウ",
    "street": null,
    "office_name": null,
    "office_name_kana": null
  },
  "0015": {
    "postcode": "3260015",
    "prefecture": "栃木県",
    "prefecture_kana": "トチギケン",
    "prefecture_code": 9,
    "city": "足利市",
    "city_kana": "アシカガシ",
    "town": "八椚町",
    "town_kana": "ヤツクヌギチョウ",
    "street": null,
    "office_name": null,
    "office_name_kana": null
  },
  "0016": {
    "postcode": "3260016",
    "prefecture": "栃木県",
    "prefecture_kana": "トチギケン",
    "prefecture_code": 9,
    "city": "足利市",
    "city_kana": "アシカガシ",
    "town": "毛野新町",
    "town_kana": "ケノシンマチ",
    "street": null,
    "office_name": null,
    "office_name_kana": null
  },
  "0021": {
    "postcode": "3260021",
    "prefecture": "栃木県",
    "prefecture_kana": "トチギケン",
    "prefecture_code": 9,
    "city": "足利市",
    "city_kana": "アシカガシ",
    "town": "山川町",
    "town_kana": "ヤマガワチョウ",
    "street": null,
    "office_name": null,
    "office_name_kana": null
  },
  "0022": {
    "postcode": "3260022",
    "prefecture": "栃木県",
    "prefecture_kana": "トチギケン",
    "prefecture_code": 9,
    "city": "足利市",
    "city_kana": "アシカガシ",
    "town": "常見町",
    "town_kana": "ツネミチョウ",
    "street": null,
    "office_name": null,
    "office_name_kana": null
  },
  "0023": {
    "postcode": "3260023",
    "prefecture": "栃木県",
    "prefecture_kana": "トチギケン",
    "prefecture_code": 9,
    "city": "足利市",
    "city_kana": "アシカガシ",
    "town": "猿田町",
    "town_kana": "サルタチョウ",
    "street": null,
    "office_name": null,
    "office_name_kana": null
  },
  "0024": {
    "postcode": "3260024",
    "prefecture": "栃木県",
    "prefecture_kana": "トチギケン",
    "prefecture_code": 9,
    "city": "足利市",
    "city_kana": "アシカガシ",
    "town": "若草町",
    "town_kana": "ワカクサチョウ",
    "street": null,
    "office_name": null,
    "office_name_kana": null
  },
  "0025": {
    "postcode": "3260025",
    "prefecture": "栃木県",
    "prefecture_kana": "トチギケン",
    "prefecture_code": 9,
    "city": "足利市",
    "city_kana": "アシカガシ",
    "town": "寿町",
    "town_kana": "コトブキチョウ",
    "street": null,
    "office_name": null,
    "office_name_kana": null
  },
  "0026": {
    "postcode": "3260026",
    "prefecture": "栃木県",
    "prefecture_kana": "トチギケン",
    "prefecture_code": 9,
    "city": "足利市",
    "city_kana": "アシカガシ",
    "town": "常盤町",
    "town_kana": "トキワチョウ",
    "street": null,
    "office_name": null,
    "office_name_kana": null
  },
  "0027": {
    "postcode": "3260027",
    "prefecture": "栃木県",
    "prefecture_kana": "トチギケン",
    "prefecture_code": 9,
    "city": "足利市",
    "city_kana": "アシカガシ",
    "town": "宮北町",
    "town_kana": "ミヤキタチョウ",
    "street": null,
    "office_name": null,
    "office_name_kana": null
  },
  "0031": {
    "postcode": "3260031",
    "prefecture": "栃木県",
    "prefecture_kana": "トチギケン",
    "prefecture_code": 9,
    "city": "足利市",
    "city_kana": "アシカガシ",
    "town": "末広町",
    "town_kana": "スエヒロチョウ",
    "street": null,
    "office_name": null,
    "office_name_kana": null
  },
  "0032": {
    "postcode": "3260032",
    "prefecture": "栃木県",
    "prefecture_kana": "トチギケン",
    "prefecture_code": 9,
    "city": "足利市",
    "city_kana": "アシカガシ",
    "town": "真砂町",
    "town_kana": "マサゴチョウ",
    "street": null,
    "office_name": null,
    "office_name_kana": null
  },
  "0033": {
    "postcode": "3260033",
    "prefecture": "栃木県",
    "prefecture_kana": "トチギケン",
    "prefecture_code": 9,
    "city": "足利市",
    "city_kana": "アシカガシ",
    "town": "花園町",
    "town_kana": "ハナゾノチョウ",
    "street": null,
    "office_name": null,
    "office_name_kana": null
  },
  "0034": {
    "postcode": "3260034",
    "prefecture": "栃木県",
    "prefecture_kana": "トチギケン",
    "prefecture_code": 9,
    "city": "足利市",
    "city_kana": "アシカガシ",
    "town": "久松町",
    "town_kana": "ヒサマツチョウ",
    "street": null,
    "office_name": null,
    "office_name_kana": null
  },
  "0035": {
    "postcode": "3260035",
    "prefecture": "栃木県",
    "prefecture_kana": "トチギケン",
    "prefecture_code": 9,
    "city": "足利市",
    "city_kana": "アシカガシ",
    "town": "芳町",
    "town_kana": "ヨシチョウ",
    "street": null,
    "office_name": null,
    "office_name_kana": null
  },
  "0036": {
    "postcode": "3260036",
    "prefecture": "栃木県",
    "prefecture_kana": "トチギケン",
    "prefecture_code": 9,
    "city": "足利市",
    "city_kana": "アシカガシ",
    "town": "弥生町",
    "town_kana": "ヤヨイチョウ",
    "street": null,
    "office_name": null,
    "office_name_kana": null
  },
  "0037": {
    "postcode": "3260037",
    "prefecture": "栃木県",
    "prefecture_kana": "トチギケン",
    "prefecture_code": 9,
    "city": "足利市",
    "city_kana": "アシカガシ",
    "town": "富士見町",
    "town_kana": "フジミチョウ",
    "street": null,
    "office_name": null,
    "office_name_kana": null
  },
  "0041": {
    "postcode": "3260041",
    "prefecture": "栃木県",
    "prefecture_kana": "トチギケン",
    "prefecture_code": 9,
    "city": "足利市",
    "city_kana": "アシカガシ",
    "town": "助戸新山町",
    "town_kana": "スケドシンヤマチョウ",
    "street": null,
    "office_name": null,
    "office_name_kana": null
  },
  "0042": {
    "postcode": "3260042",
    "prefecture": "栃木県",
    "prefecture_kana": "トチギケン",
    "prefecture_code": 9,
    "city": "足利市",
    "city_kana": "アシカガシ",
    "town": "助戸東山町",
    "town_kana": "スケドヒガシヤマチョウ",
    "street": null,
    "office_name": null,
    "office_name_kana": null
  },
  "0043": {
    "postcode": "3260043",
    "prefecture": "栃木県",
    "prefecture_kana": "トチギケン",
    "prefecture_code": 9,
    "city": "足利市",
    "city_kana": "アシカガシ",
    "town": "助戸仲町",
    "town_kana": "スケドナカチョウ",
    "street": null,
    "office_name": null,
    "office_name_kana": null
  },
  "0044": {
    "postcode": "3260044",
    "prefecture": "栃木県",
    "prefecture_kana": "トチギケン",
    "prefecture_code": 9,
    "city": "足利市",
    "city_kana": "アシカガシ",
    "town": "助戸",
    "town_kana": "スケド",
    "street": null,
    "office_name": null,
    "office_name_kana": null
  },
  "0045": {
    "postcode": "3260045",
    "prefecture": "栃木県",
    "prefecture_kana": "トチギケン",
    "prefecture_code": 9,
    "city": "足利市",
    "city_kana": "アシカガシ",
    "town": "千歳町",
    "town_kana": "チトセチョウ",
    "street": null,
    "office_name": null,
    "office_name_kana": null
  },
  "0046": {
    "postcode": "3260046",
    "prefecture": "栃木県",
    "prefecture_kana": "トチギケン",
    "prefecture_code": 9,
    "city": "足利市",
    "city_kana": "アシカガシ",
    "town": "岩井町",
    "town_kana": "イワイチョウ",
    "street": null,
    "office_name": null,
    "office_name_kana": null
  },
  "0047": {
    "postcode": "3260047",
    "prefecture": "栃木県",
    "prefecture_kana": "トチギケン",
    "prefecture_code": 9,
    "city": "足利市",
    "city_kana": "アシカガシ",
    "town": "錦町",
    "town_kana": "ニシキチョウ",
    "street": null,
    "office_name": null,
    "office_name_kana": null
  },
  "0048": {
    "postcode": "3260048",
    "prefecture": "栃木県",
    "prefecture_kana": "トチギケン",
    "prefecture_code": 9,
    "city": "足利市",
    "city_kana": "アシカガシ",
    "town": "助戸大橋町",
    "town_kana": "スケドオオハシチョウ",
    "street": null,
    "office_name": null,
    "office_name_kana": null
  },
  "0051": {
    "postcode": "3260051",
    "prefecture": "栃木県",
    "prefecture_kana": "トチギケン",
    "prefecture_code": 9,
    "city": "足利市",
    "city_kana": "アシカガシ",
    "town": "大橋町",
    "town_kana": "オオハシチョウ",
    "street": null,
    "office_name": null,
    "office_name_kana": null
  },
  "0052": {
    "postcode": "3260052",
    "prefecture": "栃木県",
    "prefecture_kana": "トチギケン",
    "prefecture_code": 9,
    "city": "足利市",
    "city_kana": "アシカガシ",
    "town": "相生町",
    "town_kana": "アイオイチョウ",
    "street": null,
    "office_name": null,
    "office_name_kana": null
  },
  "0053": {
    "postcode": "3260053",
    "prefecture": "栃木県",
    "prefecture_kana": "トチギケン",
    "prefecture_code": 9,
    "city": "足利市",
    "city_kana": "アシカガシ",
    "town": "伊勢町",
    "town_kana": "イセチョウ",
    "street": null,
    "office_name": null,
    "office_name_kana": null
  },
  "0054": {
    "postcode": "3260054",
    "prefecture": "栃木県",
    "prefecture_kana": "トチギケン",
    "prefecture_code": 9,
    "city": "足利市",
    "city_kana": "アシカガシ",
    "town": "伊勢南町",
    "town_kana": "イセミナミチョウ",
    "street": null,
    "office_name": null,
    "office_name_kana": null
  },
  "0055": {
    "postcode": "3260055",
    "prefecture": "栃木県",
    "prefecture_kana": "トチギケン",
    "prefecture_code": 9,
    "city": "足利市",
    "city_kana": "アシカガシ",
    "town": "永楽町",
    "town_kana": "エイラクチョウ",
    "street": null,
    "office_name": null,
    "office_name_kana": null
  },
  "0056": {
    "postcode": "3260056",
    "prefecture": "栃木県",
    "prefecture_kana": "トチギケン",
    "prefecture_code": 9,
    "city": "足利市",
    "city_kana": "アシカガシ",
    "town": "大町",
    "town_kana": "ダイチョウ",
    "street": null,
    "office_name": null,
    "office_name_kana": null
  },
  "0057": {
    "postcode": "3260057",
    "prefecture": "栃木県",
    "prefecture_kana": "トチギケン",
    "prefecture_code": 9,
    "city": "足利市",
    "city_kana": "アシカガシ",
    "town": "丸山町",
    "town_kana": "マルヤマチョウ",
    "street": null,
    "office_name": null,
    "office_name_kana": null
  },
  "0058": {
    "postcode": "3260058",
    "prefecture": "栃木県",
    "prefecture_kana": "トチギケン",
    "prefecture_code": 9,
    "city": "足利市",
    "city_kana": "アシカガシ",
    "town": "元学町",
    "town_kana": "モトガクチョウ",
    "street": null,
    "office_name": null,
    "office_name_kana": null
  },
  "0061": {
    "postcode": "3260061",
    "prefecture": "栃木県",
    "prefecture_kana": "トチギケン",
    "prefecture_code": 9,
    "city": "足利市",
    "city_kana": "アシカガシ",
    "town": "田島町",
    "town_kana": "タジマチョウ",
    "street": null,
    "office_name": null,
    "office_name_kana": null
  },
  "0062": {
    "postcode": "3260062",
    "prefecture": "栃木県",
    "prefecture_kana": "トチギケン",
    "prefecture_code": 9,
    "city": "足利市",
    "city_kana": "アシカガシ",
    "town": "赤松台",
    "town_kana": "アカマツダイ",
    "street": null,
    "office_name": null,
    "office_name_kana": null
  },
  "0063": {
    "postcode": "3260063",
    "prefecture": "栃木県",
    "prefecture_kana": "トチギケン",
    "prefecture_code": 9,
    "city": "足利市",
    "city_kana": "アシカガシ",
    "town": "新山町",
    "town_kana": "シンヤマチョウ",
    "street": null,
    "office_name": null,
    "office_name_kana": null
  },
  "0064": {
    "postcode": "3260064",
    "prefecture": "栃木県",
    "prefecture_kana": "トチギケン",
    "prefecture_code": 9,
    "city": "足利市",
    "city_kana": "アシカガシ",
    "town": "東砂原後町",
    "town_kana": "ヒガシサワラゴチョウ",
    "street": null,
    "office_name": null,
    "office_name_kana": null
  },
  "0065": {
    "postcode": "3260065",
    "prefecture": "栃木県",
    "prefecture_kana": "トチギケン",
    "prefecture_code": 9,
    "city": "足利市",
    "city_kana": "アシカガシ",
    "town": "西砂原後町",
    "town_kana": "ニシサワラゴチョウ",
    "street": null,
    "office_name": null,
    "office_name_kana": null
  },
  "0066": {
    "postcode": "3260066",
    "prefecture": "栃木県",
    "prefecture_kana": "トチギケン",
    "prefecture_code": 9,
    "city": "足利市",
    "city_kana": "アシカガシ",
    "town": "田所町",
    "town_kana": "タドコロチョウ",
    "street": null,
    "office_name": null,
    "office_name_kana": null
  },
  "0067": {
    "postcode": "3260067",
    "prefecture": "栃木県",
    "prefecture_kana": "トチギケン",
    "prefecture_code": 9,
    "city": "足利市",
    "city_kana": "アシカガシ",
    "town": "江川町",
    "town_kana": "エガワチョウ",
    "street": null,
    "office_name": null,
    "office_name_kana": null
  },
  "0068": {
    "postcode": "3260068",
    "prefecture": "栃木県",
    "prefecture_kana": "トチギケン",
    "prefecture_code": 9,
    "city": "足利市",
    "city_kana": "アシカガシ",
    "town": "月谷町",
    "town_kana": "ツキヤチョウ",
    "street": null,
    "office_name": null,
    "office_name_kana": null
  },
  "0101": {
    "postcode": "3260101",
    "prefecture": "栃木県",
    "prefecture_kana": "トチギケン",
    "prefecture_code": 9,
    "city": "足利市",
    "city_kana": "アシカガシ",
    "town": "松田町",
    "town_kana": "マツダチョウ",
    "street": null,
    "office_name": null,
    "office_name_kana": null
  },
  "0102": {
    "postcode": "3260102",
    "prefecture": "栃木県",
    "prefecture_kana": "トチギケン",
    "prefecture_code": 9,
    "city": "足利市",
    "city_kana": "アシカガシ",
    "town": "板倉町",
    "town_kana": "イタクラチョウ",
    "street": null,
    "office_name": null,
    "office_name_kana": null
  },
  "0103": {
    "postcode": "3260103",
    "prefecture": "栃木県",
    "prefecture_kana": "トチギケン",
    "prefecture_code": 9,
    "city": "足利市",
    "city_kana": "アシカガシ",
    "town": "粟谷町",
    "town_kana": "アワノヤチョウ",
    "street": null,
    "office_name": null,
    "office_name_kana": null
  },
  "0141": {
    "postcode": "3260141",
    "prefecture": "栃木県",
    "prefecture_kana": "トチギケン",
    "prefecture_code": 9,
    "city": "足利市",
    "city_kana": "アシカガシ",
    "town": "小俣町",
    "town_kana": "オマタチョウ",
    "street": null,
    "office_name": null,
    "office_name_kana": null
  },
  "0142": {
    "postcode": "3260142",
    "prefecture": "栃木県",
    "prefecture_kana": "トチギケン",
    "prefecture_code": 9,
    "city": "足利市",
    "city_kana": "アシカガシ",
    "town": "小俣南町",
    "town_kana": "オマタミナミチョウ",
    "street": null,
    "office_name": null,
    "office_name_kana": null
  },
  "0143": {
    "postcode": "3260143",
    "prefecture": "栃木県",
    "prefecture_kana": "トチギケン",
    "prefecture_code": 9,
    "city": "足利市",
    "city_kana": "アシカガシ",
    "town": "葉鹿町",
    "town_kana": "ハジカチョウ",
    "street": null,
    "office_name": null,
    "office_name_kana": null
  },
  "0144": {
    "postcode": "3260144",
    "prefecture": "栃木県",
    "prefecture_kana": "トチギケン",
    "prefecture_code": 9,
    "city": "足利市",
    "city_kana": "アシカガシ",
    "town": "葉鹿南町",
    "town_kana": "ハジカミナミチョウ",
    "street": null,
    "office_name": null,
    "office_name_kana": null
  },
  "0321": {
    "postcode": "3260321",
    "prefecture": "栃木県",
    "prefecture_kana": "トチギケン",
    "prefecture_code": 9,
    "city": "足利市",
    "city_kana": "アシカガシ",
    "town": "梁田町",
    "town_kana": "ヤナダチョウ",
    "street": null,
    "office_name": null,
    "office_name_kana": null
  },
  "0322": {
    "postcode": "3260322",
    "prefecture": "栃木県",
    "prefecture_kana": "トチギケン",
    "prefecture_code": 9,
    "city": "足利市",
    "city_kana": "アシカガシ",
    "town": "野田町",
    "town_kana": "ノダチョウ",
    "street": null,
    "office_name": null,
    "office_name_kana": null
  },
  "0323": {
    "postcode": "3260323",
    "prefecture": "栃木県",
    "prefecture_kana": "トチギケン",
    "prefecture_code": 9,
    "city": "足利市",
    "city_kana": "アシカガシ",
    "town": "瑞穂野町",
    "town_kana": "ミズホノチョウ",
    "street": null,
    "office_name": null,
    "office_name_kana": null
  },
  "0324": {
    "postcode": "3260324",
    "prefecture": "栃木県",
    "prefecture_kana": "トチギケン",
    "prefecture_code": 9,
    "city": "足利市",
    "city_kana": "アシカガシ",
    "town": "久保田町",
    "town_kana": "クボタチョウ",
    "street": null,
    "office_name": null,
    "office_name_kana": null
  },
  "0325": {
    "postcode": "3260325",
    "prefecture": "栃木県",
    "prefecture_kana": "トチギケン",
    "prefecture_code": 9,
    "city": "足利市",
    "city_kana": "アシカガシ",
    "town": "高松町",
    "town_kana": "タカマツチョウ",
    "street": null,
    "office_name": null,
    "office_name_kana": null
  },
  "0326": {
    "postcode": "3260326",
    "prefecture": "栃木県",
    "prefecture_kana": "トチギケン",
    "prefecture_code": 9,
    "city": "足利市",
    "city_kana": "アシカガシ",
    "town": "小曽根町",
    "town_kana": "オゾネチョウ",
    "street": null,
    "office_name": null,
    "office_name_kana": null
  },
  "0327": {
    "postcode": "3260327",
    "prefecture": "栃木県",
    "prefecture_kana": "トチギケン",
    "prefecture_code": 9,
    "city": "足利市",
    "city_kana": "アシカガシ",
    "town": "羽刈町",
    "town_kana": "ハカリチョウ",
    "street": null,
    "office_name": null,
    "office_name_kana": null
  },
  "0328": {
    "postcode": "3260328",
    "prefecture": "栃木県",
    "prefecture_kana": "トチギケン",
    "prefecture_code": 9,
    "city": "足利市",
    "city_kana": "アシカガシ",
    "town": "県町",
    "town_kana": "アガタチョウ",
    "street": null,
    "office_name": null,
    "office_name_kana": null
  },
  "0331": {
    "postcode": "3260331",
    "prefecture": "栃木県",
    "prefecture_kana": "トチギケン",
    "prefecture_code": 9,
    "city": "足利市",
    "city_kana": "アシカガシ",
    "town": "福富町",
    "town_kana": "フクトミチョウ",
    "street": null,
    "office_name": null,
    "office_name_kana": null
  },
  "0332": {
    "postcode": "3260332",
    "prefecture": "栃木県",
    "prefecture_kana": "トチギケン",
    "prefecture_code": 9,
    "city": "足利市",
    "city_kana": "アシカガシ",
    "town": "福富新町",
    "town_kana": "フクトミシンチョウ",
    "street": null,
    "office_name": null,
    "office_name_kana": null
  },
  "0333": {
    "postcode": "3260333",
    "prefecture": "栃木県",
    "prefecture_kana": "トチギケン",
    "prefecture_code": 9,
    "city": "足利市",
    "city_kana": "アシカガシ",
    "town": "問屋町",
    "town_kana": "トンヤチョウ",
    "street": null,
    "office_name": null,
    "office_name_kana": null
  },
  "0334": {
    "postcode": "3260334",
    "prefecture": "栃木県",
    "prefecture_kana": "トチギケン",
    "prefecture_code": 9,
    "city": "足利市",
    "city_kana": "アシカガシ",
    "town": "下渋垂町",
    "town_kana": "シモシブタレチョウ",
    "street": null,
    "office_name": null,
    "office_name_kana": null
  },
  "0335": {
    "postcode": "3260335",
    "prefecture": "栃木県",
    "prefecture_kana": "トチギケン",
    "prefecture_code": 9,
    "city": "足利市",
    "city_kana": "アシカガシ",
    "town": "上渋垂町",
    "town_kana": "カミシブタレチョウ",
    "street": null,
    "office_name": null,
    "office_name_kana": null
  },
  "0336": {
    "postcode": "3260336",
    "prefecture": "栃木県",
    "prefecture_kana": "トチギケン",
    "prefecture_code": 9,
    "city": "足利市",
    "city_kana": "アシカガシ",
    "town": "百頭町",
    "town_kana": "モモガシラチョウ",
    "street": null,
    "office_name": null,
    "office_name_kana": null
  },
  "0337": {
    "postcode": "3260337",
    "prefecture": "栃木県",
    "prefecture_kana": "トチギケン",
    "prefecture_code": 9,
    "city": "足利市",
    "city_kana": "アシカガシ",
    "town": "島田町",
    "town_kana": "シマダチョウ",
    "street": null,
    "office_name": null,
    "office_name_kana": null
  },
  "0338": {
    "postcode": "3260338",
    "prefecture": "栃木県",
    "prefecture_kana": "トチギケン",
    "prefecture_code": 9,
    "city": "足利市",
    "city_kana": "アシカガシ",
    "town": "福居町",
    "town_kana": "フクイチョウ",
    "street": null,
    "office_name": null,
    "office_name_kana": null
  },
  "0392": {
    "postcode": "3260392",
    "prefecture": "栃木県",
    "prefecture_kana": "トチギケン",
    "prefecture_code": 9,
    "city": "足利市",
    "city_kana": "アシカガシ",
    "town": "問屋町",
    "town_kana": "トンヤチョウ",
    "street": "１５３５−２",
    "office_name": "両毛丸善　株式会社",
    "office_name_kana": "リヨウモウマルゼン カブシキガイシヤ"
  },
  "0395": {
    "postcode": "3260395",
    "prefecture": "栃木県",
    "prefecture_kana": "トチギケン",
    "prefecture_code": 9,
    "city": "足利市",
    "city_kana": "アシカガシ",
    "town": "福富新町",
    "town_kana": "フクトミシンチョウ",
    "street": "７６８",
    "office_name": "三和シャッター　株式会社",
    "office_name_kana": "サンワシヤツタ- カブシキガイシヤ"
  },
  "0801": {
    "postcode": "3260801",
    "prefecture": "栃木県",
    "prefecture_kana": "トチギケン",
    "prefecture_code": 9,
    "city": "足利市",
    "city_kana": "アシカガシ",
    "town": "有楽町",
    "town_kana": "ユウラクチョウ",
    "street": null,
    "office_name": null,
    "office_name_kana": null
  },
  "0802": {
    "postcode": "3260802",
    "prefecture": "栃木県",
    "prefecture_kana": "トチギケン",
    "prefecture_code": 9,
    "city": "足利市",
    "city_kana": "アシカガシ",
    "town": "旭町",
    "town_kana": "アサヒチョウ",
    "street": null,
    "office_name": null,
    "office_name_kana": null
  },
  "0803": {
    "postcode": "3260803",
    "prefecture": "栃木県",
    "prefecture_kana": "トチギケン",
    "prefecture_code": 9,
    "city": "足利市",
    "city_kana": "アシカガシ",
    "town": "家富町",
    "town_kana": "イエトミチョウ",
    "street": null,
    "office_name": null,
    "office_name_kana": null
  },
  "0804": {
    "postcode": "3260804",
    "prefecture": "栃木県",
    "prefecture_kana": "トチギケン",
    "prefecture_code": 9,
    "city": "足利市",
    "city_kana": "アシカガシ",
    "town": "雪輪町",
    "town_kana": "ユキワチョウ",
    "street": null,
    "office_name": null,
    "office_name_kana": null
  },
  "0805": {
    "postcode": "3260805",
    "prefecture": "栃木県",
    "prefecture_kana": "トチギケン",
    "prefecture_code": 9,
    "city": "足利市",
    "city_kana": "アシカガシ",
    "town": "巴町",
    "town_kana": "トモエチョウ",
    "street": null,
    "office_name": null,
    "office_name_kana": null
  },
  "0806": {
    "postcode": "3260806",
    "prefecture": "栃木県",
    "prefecture_kana": "トチギケン",
    "prefecture_code": 9,
    "city": "足利市",
    "city_kana": "アシカガシ",
    "town": "柳原町",
    "town_kana": "ヤナギワラチョウ",
    "street": null,
    "office_name": null,
    "office_name_kana": null
  },
  "0807": {
    "postcode": "3260807",
    "prefecture": "栃木県",
    "prefecture_kana": "トチギケン",
    "prefecture_code": 9,
    "city": "足利市",
    "city_kana": "アシカガシ",
    "town": "大正町",
    "town_kana": "タイショウチョウ",
    "street": null,
    "office_name": null,
    "office_name_kana": null
  },
  "0808": {
    "postcode": "3260808",
    "prefecture": "栃木県",
    "prefecture_kana": "トチギケン",
    "prefecture_code": 9,
    "city": "足利市",
    "city_kana": "アシカガシ",
    "town": "本城",
    "town_kana": "ホンジョウ",
    "street": null,
    "office_name": null,
    "office_name_kana": null
  },
  "0811": {
    "postcode": "3260811",
    "prefecture": "栃木県",
    "prefecture_kana": "トチギケン",
    "prefecture_code": 9,
    "city": "足利市",
    "city_kana": "アシカガシ",
    "town": "井草町",
    "town_kana": "イグサチョウ",
    "street": null,
    "office_name": null,
    "office_name_kana": null
  },
  "0812": {
    "postcode": "3260812",
    "prefecture": "栃木県",
    "prefecture_kana": "トチギケン",
    "prefecture_code": 9,
    "city": "足利市",
    "city_kana": "アシカガシ",
    "town": "大門通",
    "town_kana": "ダイモンドオリ",
    "street": null,
    "office_name": null,
    "office_name_kana": null
  },
  "0813": {
    "postcode": "3260813",
    "prefecture": "栃木県",
    "prefecture_kana": "トチギケン",
    "prefecture_code": 9,
    "city": "足利市",
    "city_kana": "アシカガシ",
    "town": "昌平町",
    "town_kana": "ショウヘイチョウ",
    "street": null,
    "office_name": null,
    "office_name_kana": null
  },
  "0814": {
    "postcode": "3260814",
    "prefecture": "栃木県",
    "prefecture_kana": "トチギケン",
    "prefecture_code": 9,
    "city": "足利市",
    "city_kana": "アシカガシ",
    "town": "通",
    "town_kana": "トオリ",
    "street": null,
    "office_name": null,
    "office_name_kana": null
  },
  "0815": {
    "postcode": "3260815",
    "prefecture": "栃木県",
    "prefecture_kana": "トチギケン",
    "prefecture_code": 9,
    "city": "足利市",
    "city_kana": "アシカガシ",
    "town": "栄町",
    "town_kana": "サカエチョウ",
    "street": null,
    "office_name": null,
    "office_name_kana": null
  },
  "0816": {
    "postcode": "3260816",
    "prefecture": "栃木県",
    "prefecture_kana": "トチギケン",
    "prefecture_code": 9,
    "city": "足利市",
    "city_kana": "アシカガシ",
    "town": "緑町",
    "town_kana": "ミドリチョウ",
    "street": null,
    "office_name": null,
    "office_name_kana": null
  },
  "0817": {
    "postcode": "3260817",
    "prefecture": "栃木県",
    "prefecture_kana": "トチギケン",
    "prefecture_code": 9,
    "city": "足利市",
    "city_kana": "アシカガシ",
    "town": "西宮町",
    "town_kana": "ニシノミヤチョウ",
    "street": null,
    "office_name": null,
    "office_name_kana": null
  },
  "0821": {
    "postcode": "3260821",
    "prefecture": "栃木県",
    "prefecture_kana": "トチギケン",
    "prefecture_code": 9,
    "city": "足利市",
    "city_kana": "アシカガシ",
    "town": "南町",
    "town_kana": "ミナミチョウ",
    "street": null,
    "office_name": null,
    "office_name_kana": null
  },
  "0822": {
    "postcode": "3260822",
    "prefecture": "栃木県",
    "prefecture_kana": "トチギケン",
    "prefecture_code": 9,
    "city": "足利市",
    "city_kana": "アシカガシ",
    "town": "田中町",
    "town_kana": "タナカチョウ",
    "street": null,
    "office_name": null,
    "office_name_kana": null
  },
  "0823": {
    "postcode": "3260823",
    "prefecture": "栃木県",
    "prefecture_kana": "トチギケン",
    "prefecture_code": 9,
    "city": "足利市",
    "city_kana": "アシカガシ",
    "town": "朝倉町",
    "town_kana": "アサクラチョウ",
    "street": null,
    "office_name": null,
    "office_name_kana": null
  },
  "0824": {
    "postcode": "3260824",
    "prefecture": "栃木県",
    "prefecture_kana": "トチギケン",
    "prefecture_code": 9,
    "city": "足利市",
    "city_kana": "アシカガシ",
    "town": "八幡町",
    "town_kana": "ヤワタチョウ",
    "street": null,
    "office_name": null,
    "office_name_kana": null
  },
  "0825": {
    "postcode": "3260825",
    "prefecture": "栃木県",
    "prefecture_kana": "トチギケン",
    "prefecture_code": 9,
    "city": "足利市",
    "city_kana": "アシカガシ",
    "town": "中川町",
    "town_kana": "ナカガワチョウ",
    "street": null,
    "office_name": null,
    "office_name_kana": null
  },
  "0826": {
    "postcode": "3260826",
    "prefecture": "栃木県",
    "prefecture_kana": "トチギケン",
    "prefecture_code": 9,
    "city": "足利市",
    "city_kana": "アシカガシ",
    "town": "借宿町",
    "town_kana": "カリヤドチョウ",
    "street": null,
    "office_name": null,
    "office_name_kana": null
  },
  "0831": {
    "postcode": "3260831",
    "prefecture": "栃木県",
    "prefecture_kana": "トチギケン",
    "prefecture_code": 9,
    "city": "足利市",
    "city_kana": "アシカガシ",
    "town": "堀込町",
    "town_kana": "ホリゴメチョウ",
    "street": null,
    "office_name": null,
    "office_name_kana": null
  },
  "0832": {
    "postcode": "3260832",
    "prefecture": "栃木県",
    "prefecture_kana": "トチギケン",
    "prefecture_code": 9,
    "city": "足利市",
    "city_kana": "アシカガシ",
    "town": "荒金町",
    "town_kana": "アラカネチョウ",
    "street": null,
    "office_name": null,
    "office_name_kana": null
  },
  "0833": {
    "postcode": "3260833",
    "prefecture": "栃木県",
    "prefecture_kana": "トチギケン",
    "prefecture_code": 9,
    "city": "足利市",
    "city_kana": "アシカガシ",
    "town": "藤本町",
    "town_kana": "フジモトチョウ",
    "street": null,
    "office_name": null,
    "office_name_kana": null
  },
  "0834": {
    "postcode": "3260834",
    "prefecture": "栃木県",
    "prefecture_kana": "トチギケン",
    "prefecture_code": 9,
    "city": "足利市",
    "city_kana": "アシカガシ",
    "town": "新宿町",
    "town_kana": "アラジュクチョウ",
    "street": null,
    "office_name": null,
    "office_name_kana": null
  },
  "0835": {
    "postcode": "3260835",
    "prefecture": "栃木県",
    "prefecture_kana": "トチギケン",
    "prefecture_code": 9,
    "city": "足利市",
    "city_kana": "アシカガシ",
    "town": "里矢場町",
    "town_kana": "サトヤバチョウ",
    "street": null,
    "office_name": null,
    "office_name_kana": null
  },
  "0836": {
    "postcode": "3260836",
    "prefecture": "栃木県",
    "prefecture_kana": "トチギケン",
    "prefecture_code": 9,
    "city": "足利市",
    "city_kana": "アシカガシ",
    "town": "南大町",
    "town_kana": "ミナミオオマチ",
    "street": null,
    "office_name": null,
    "office_name_kana": null
  },
  "0837": {
    "postcode": "3260837",
    "prefecture": "栃木県",
    "prefecture_kana": "トチギケン",
    "prefecture_code": 9,
    "city": "足利市",
    "city_kana": "アシカガシ",
    "town": "西新井町",
    "town_kana": "ニシアライチョウ",
    "street": null,
    "office_name": null,
    "office_name_kana": null
  },
  "0841": {
    "postcode": "3260841",
    "prefecture": "栃木県",
    "prefecture_kana": "トチギケン",
    "prefecture_code": 9,
    "city": "足利市",
    "city_kana": "アシカガシ",
    "town": "大岩町",
    "town_kana": "オオイワチョウ",
    "street": null,
    "office_name": null,
    "office_name_kana": null
  },
  "0842": {
    "postcode": "3260842",
    "prefecture": "栃木県",
    "prefecture_kana": "トチギケン",
    "prefecture_code": 9,
    "city": "足利市",
    "city_kana": "アシカガシ",
    "town": "今福町",
    "town_kana": "イマフクチョウ",
    "street": null,
    "office_name": null,
    "office_name_kana": null
  },
  "0843": {
    "postcode": "3260843",
    "prefecture": "栃木県",
    "prefecture_kana": "トチギケン",
    "prefecture_code": 9,
    "city": "足利市",
    "city_kana": "アシカガシ",
    "town": "五十部町",
    "town_kana": "ヨベチョウ",
    "street": null,
    "office_name": null,
    "office_name_kana": null
  },
  "0844": {
    "postcode": "3260844",
    "prefecture": "栃木県",
    "prefecture_kana": "トチギケン",
    "prefecture_code": 9,
    "city": "足利市",
    "city_kana": "アシカガシ",
    "town": "鹿島町",
    "town_kana": "カシマチョウ",
    "street": null,
    "office_name": null,
    "office_name_kana": null
  },
  "0845": {
    "postcode": "3260845",
    "prefecture": "栃木県",
    "prefecture_kana": "トチギケン",
    "prefecture_code": 9,
    "city": "足利市",
    "city_kana": "アシカガシ",
    "town": "大前町",
    "town_kana": "オオマエチョウ",
    "street": null,
    "office_name": null,
    "office_name_kana": null
  },
  "0846": {
    "postcode": "3260846",
    "prefecture": "栃木県",
    "prefecture_kana": "トチギケン",
    "prefecture_code": 9,
    "city": "足利市",
    "city_kana": "アシカガシ",
    "town": "山下町",
    "town_kana": "ヤマシタチョウ",
    "street": null,
    "office_name": null,
    "office_name_kana": null
  },
  "8501": {
    "postcode": "3268501",
    "prefecture": "栃木県",
    "prefecture_kana": "トチギケン",
    "prefecture_code": 9,
    "city": "足利市",
    "city_kana": "アシカガシ",
    "town": "大久保町",
    "town_kana": "オオクボチョウ",
    "street": "２８２−１",
    "office_name": "株式会社　レンタルのニッケン",
    "office_name_kana": "カブシキガイシヤ レンタルノニツケン"
  },
  "8502": {
    "postcode": "3268502",
    "prefecture": "栃木県",
    "prefecture_kana": "トチギケン",
    "prefecture_code": 9,
    "city": "足利市",
    "city_kana": "アシカガシ",
    "town": "通",
    "town_kana": "トオリ",
    "street": "３丁目２７５７",
    "office_name": "足利商工会議所",
    "office_name_kana": "アシカガシヨウコウカイギシヨ"
  },
  "8505": {
    "postcode": "3268505",
    "prefecture": "栃木県",
    "prefecture_kana": "トチギケン",
    "prefecture_code": 9,
    "city": "足利市",
    "city_kana": "アシカガシ",
    "town": "堀込町",
    "town_kana": "ホリゴメチョウ",
    "street": "１４５",
    "office_name": "株式会社　開倫塾",
    "office_name_kana": "カブシキガイシヤ カイリンジユク"
  },
  "8511": {
    "postcode": "3268511",
    "prefecture": "栃木県",
    "prefecture_kana": "トチギケン",
    "prefecture_code": 9,
    "city": "足利市",
    "city_kana": "アシカガシ",
    "town": "借宿町",
    "town_kana": "カリヤドチョウ",
    "street": "６６８",
    "office_name": "アキレス　株式会社",
    "office_name_kana": "アキレス カブシキガイシヤ"
  },
  "8520": {
    "postcode": "3268520",
    "prefecture": "栃木県",
    "prefecture_kana": "トチギケン",
    "prefecture_code": 9,
    "city": "足利市",
    "city_kana": "アシカガシ",
    "town": "葉鹿町",
    "town_kana": "ハジカチョウ",
    "street": "１２１８",
    "office_name": "株式会社　コスミック出版",
    "office_name_kana": "カブシキガイシヤ コスミツクシユツパン"
  },
  "8521": {
    "postcode": "3268521",
    "prefecture": "栃木県",
    "prefecture_kana": "トチギケン",
    "prefecture_code": 9,
    "city": "足利市",
    "city_kana": "アシカガシ",
    "town": "葉鹿町",
    "town_kana": "ハジカチョウ",
    "street": "１２１８",
    "office_name": "株式会社　電波実験社",
    "office_name_kana": "カブシキガイシヤ デンパジツケンシヤ"
  },
  "8550": {
    "postcode": "3268550",
    "prefecture": "栃木県",
    "prefecture_kana": "トチギケン",
    "prefecture_code": 9,
    "city": "足利市",
    "city_kana": "アシカガシ",
    "town": "朝倉町",
    "town_kana": "アサクラチョウ",
    "street": "２４５−５",
    "office_name": "株式会社　足利モール",
    "office_name_kana": "カブシキガイシヤ アシカガモ-ル"
  },
  "8555": {
    "postcode": "3268555",
    "prefecture": "栃木県",
    "prefecture_kana": "トチギケン",
    "prefecture_code": 9,
    "city": "足利市",
    "city_kana": "アシカガシ",
    "town": "伊勢町",
    "town_kana": "イセチョウ",
    "street": "４丁目１９番地",
    "office_name": "栃木県安足土木事務所",
    "office_name_kana": "トチギケンアンソクドボクジムシヨ"
  },
  "8558": {
    "postcode": "3268558",
    "prefecture": "栃木県",
    "prefecture_kana": "トチギケン",
    "prefecture_code": 9,
    "city": "足利市",
    "city_kana": "アシカガシ",
    "town": "大前町",
    "town_kana": "オオマエチョウ",
    "street": "２６８番地の１",
    "office_name": "足利大学",
    "office_name_kana": "アシカガダイガク"
  },
  "8572": {
    "postcode": "3268572",
    "prefecture": "栃木県",
    "prefecture_kana": "トチギケン",
    "prefecture_code": 9,
    "city": "足利市",
    "city_kana": "アシカガシ",
    "town": "朝倉町",
    "town_kana": "アサクラチョウ",
    "street": "２４５",
    "office_name": "アピタ　足利店",
    "office_name_kana": "アピタ アシカガテン"
  },
  "8585": {
    "postcode": "3268585",
    "prefecture": "栃木県",
    "prefecture_kana": "トチギケン",
    "prefecture_code": 9,
    "city": "足利市",
    "city_kana": "アシカガシ",
    "town": "通",
    "town_kana": "トオリ",
    "street": "４丁目２７９０",
    "office_name": "株式会社　信栄",
    "office_name_kana": "カブシキガイシヤ シンエイ"
  },
  "8601": {
    "postcode": "3268601",
    "prefecture": "栃木県",
    "prefecture_kana": "トチギケン",
    "prefecture_code": 9,
    "city": "足利市",
    "city_kana": "アシカガシ",
    "town": "本城",
    "town_kana": "ホンジョウ",
    "street": "３丁目２１４５（足利郵便局私書箱第６２号）",
    "office_name": "足利市役所",
    "office_name_kana": "アシカガシヤクシヨ"
  },
  "8611": {
    "postcode": "3268611",
    "prefecture": "栃木県",
    "prefecture_kana": "トチギケン",
    "prefecture_code": 9,
    "city": "足利市",
    "city_kana": "アシカガシ",
    "town": "田中町",
    "town_kana": "タナカチョウ",
    "street": "３１−８（足利郵便局私書箱第８号）",
    "office_name": "株式会社　足利銀行　足利支店",
    "office_name_kana": "カブシキガイシヤ アシカカギンコウ アシカガシテン"
  },
  "8630": {
    "postcode": "3268630",
    "prefecture": "栃木県",
    "prefecture_kana": "トチギケン",
    "prefecture_code": 9,
    "city": "足利市",
    "city_kana": "アシカガシ",
    "town": "伊勢町",
    "town_kana": "イセチョウ",
    "street": "４丁目１８番地２（足利郵便局私書箱第３９号）",
    "office_name": "足利税務署",
    "office_name_kana": "アシカガゼイムシヨ"
  },
  "8686": {
    "postcode": "3268686",
    "prefecture": "栃木県",
    "prefecture_kana": "トチギケン",
    "prefecture_code": 9,
    "city": "足利市",
    "city_kana": "アシカガシ",
    "town": "通",
    "town_kana": "トオリ",
    "street": "２丁目２７５１（足利郵便局私書箱第５４号）",
    "office_name": "商工組合　中央金庫　足利支店",
    "office_name_kana": "シヨウコウクミアイ チユウオウキンコ アシカガシテン"
  }
}