{
  "0100": {
    "postcode": "3290100",
    "prefecture": "栃木県",
    "prefecture_kana": "トチギケン",
    "prefecture_code": 9,
    "city": "下都賀郡野木町",
    "city_kana": "シモツガグンノギマチ",
    "town": "",
    "town_kana": "",
    "street": null,
    "office_name": null,
    "office_name_kana": null
  },
  "0101": {
    "postcode": "3290101",
    "prefecture": "栃木県",
    "prefecture_kana": "トチギケン",
    "prefecture_code": 9,
    "city": "下都賀郡野木町",
    "city_kana": "シモツガグンノギマチ",
    "town": "友沼",
    "town_kana": "トモヌマ",
    "street": null,
    "office_name": null,
    "office_name_kana": null
  },
  "0102": {
    "postcode": "3290102",
    "prefecture": "栃木県",
    "prefecture_kana": "トチギケン",
    "prefecture_code": 9,
    "city": "下都賀郡野木町",
    "city_kana": "シモツガグンノギマチ",
    "town": "潤島",
    "town_kana": "ウルウジマ",
    "street": null,
    "office_name": null,
    "office_name_kana": null
  },
  "0103": {
    "postcode": "3290103",
    "prefecture": "栃木県",
    "prefecture_kana": "トチギケン",
    "prefecture_code": 9,
    "city": "下都賀郡野木町",
    "city_kana": "シモツガグンノギマチ",
    "town": "若林",
    "town_kana": "ワカバヤシ",
    "street": null,
    "office_name": null,
    "office_name_kana": null
  },
  "0104": {
    "postcode": "3290104",
    "prefecture": "栃木県",
    "prefecture_kana": "トチギケン",
    "prefecture_code": 9,
    "city": "下都賀郡野木町",
    "city_kana": "シモツガグンノギマチ",
    "town": "佐川野",
    "town_kana": "サガワノ",
    "street": null,
    "office_name": null,
    "office_name_kana": null
  },
  "0105": {
    "postcode": "3290105",
    "prefecture": "栃木県",
    "prefecture_kana": "トチギケン",
    "prefecture_code": 9,
    "city": "下都賀郡野木町",
    "city_kana": "シモツガグンノギマチ",
    "town": "川田",
    "town_kana": "カワダ",
    "street": null,
    "office_name": null,
    "office_name_kana": null
  },
  "0111": {
    "postcode": "3290111",
    "prefecture": "栃木県",
    "prefecture_kana": "トチギケン",
    "prefecture_code": 9,
    "city": "下都賀郡野木町",
    "city_kana": "シモツガグンノギマチ",
    "town": "丸林",
    "town_kana": "マルバヤシ",
    "street": null,
    "office_name": null,
    "office_name_kana": null
  },
  "0112": {
    "postcode": "3290112",
    "prefecture": "栃木県",
    "prefecture_kana": "トチギケン",
    "prefecture_code": 9,
    "city": "下都賀郡野木町",
    "city_kana": "シモツガグンノギマチ",
    "town": "南赤塚",
    "town_kana": "ミナミアカツカ",
    "street": null,
    "office_name": null,
    "office_name_kana": null
  },
  "0113": {
    "postcode": "3290113",
    "prefecture": "栃木県",
    "prefecture_kana": "トチギケン",
    "prefecture_code": 9,
    "city": "下都賀郡野木町",
    "city_kana": "シモツガグンノギマチ",
    "town": "中谷",
    "town_kana": "ナカヤ",
    "street": null,
    "office_name": null,
    "office_name_kana": null
  },
  "0114": {
    "postcode": "3290114",
    "prefecture": "栃木県",
    "prefecture_kana": "トチギケン",
    "prefecture_code": 9,
    "city": "下都賀郡野木町",
    "city_kana": "シモツガグンノギマチ",
    "town": "野木",
    "town_kana": "ノギ",
    "street": null,
    "office_name": null,
    "office_name_kana": null
  },
  "0115": {
    "postcode": "3290115",
    "prefecture": "栃木県",
    "prefecture_kana": "トチギケン",
    "prefecture_code": 9,
    "city": "下都賀郡野木町",
    "city_kana": "シモツガグンノギマチ",
    "town": "野渡",
    "town_kana": "ノワタ",
    "street": null,
    "office_name": null,
    "office_name_kana": null
  },
  "0195": {
    "postcode": "3290195",
    "prefecture": "栃木県",
    "prefecture_kana": "トチギケン",
    "prefecture_code": 9,
    "city": "下都賀郡野木町",
    "city_kana": "シモツガグンノギマチ",
    "town": "大字丸林",
    "town_kana": null,
    "street": "５７１",
    "office_name": "野木町役場",
    "office_name_kana": "ノギマチヤクバ"
  },
  "0201": {
    "postcode": "3290201",
    "prefecture": "栃木県",
    "prefecture_kana": "トチギケン",
    "prefecture_code": 9,
    "city": "小山市",
    "city_kana": "オヤマシ",
    "town": "粟宮",
    "town_kana": "アワノミヤ",
    "street": null,
    "office_name": null,
    "office_name_kana": null
  },
  "0202": {
    "postcode": "3290202",
    "prefecture": "栃木県",
    "prefecture_kana": "トチギケン",
    "prefecture_code": 9,
    "city": "小山市",
    "city_kana": "オヤマシ",
    "town": "千駄塚",
    "town_kana": "センダヅカ",
    "street": null,
    "office_name": null,
    "office_name_kana": null
  },
  "0203": {
    "postcode": "3290203",
    "prefecture": "栃木県",
    "prefecture_kana": "トチギケン",
    "prefecture_code": 9,
    "city": "小山市",
    "city_kana": "オヤマシ",
    "town": "西黒田",
    "town_kana": "ニシクロダ",
    "street": null,
    "office_name": null,
    "office_name_kana": null
  },
  "0204": {
    "postcode": "3290204",
    "prefecture": "栃木県",
    "prefecture_kana": "トチギケン",
    "prefecture_code": 9,
    "city": "小山市",
    "city_kana": "オヤマシ",
    "town": "東黒田",
    "town_kana": "ヒガシクロダ",
    "street": null,
    "office_name": null,
    "office_name_kana": null
  },
  "0205": {
    "postcode": "3290205",
    "prefecture": "栃木県",
    "prefecture_kana": "トチギケン",
    "prefecture_code": 9,
    "city": "小山市",
    "city_kana": "オヤマシ",
    "town": "間々田",
    "town_kana": "ママダ",
    "street": null,
    "office_name": null,
    "office_name_kana": null
  },
  "0206": {
    "postcode": "3290206",
    "prefecture": "栃木県",
    "prefecture_kana": "トチギケン",
    "prefecture_code": 9,
    "city": "小山市",
    "city_kana": "オヤマシ",
    "town": "東間々田",
    "town_kana": "ヒガシママダ",
    "street": null,
    "office_name": null,
    "office_name_kana": null
  },
  "0207": {
    "postcode": "3290207",
    "prefecture": "栃木県",
    "prefecture_kana": "トチギケン",
    "prefecture_code": 9,
    "city": "小山市",
    "city_kana": "オヤマシ",
    "town": "美しが丘",
    "town_kana": "ウツクシガオカ",
    "street": null,
    "office_name": null,
    "office_name_kana": null
  },
  "0211": {
    "postcode": "3290211",
    "prefecture": "栃木県",
    "prefecture_kana": "トチギケン",
    "prefecture_code": 9,
    "city": "小山市",
    "city_kana": "オヤマシ",
    "town": "暁",
    "town_kana": "アカツキ",
    "street": null,
    "office_name": null,
    "office_name_kana": null
  },
  "0212": {
    "postcode": "3290212",
    "prefecture": "栃木県",
    "prefecture_kana": "トチギケン",
    "prefecture_code": 9,
    "city": "小山市",
    "city_kana": "オヤマシ",
    "town": "平和",
    "town_kana": "ヒラワ",
    "street": null,
    "office_name": null,
    "office_name_kana": null
  },
  "0213": {
    "postcode": "3290213",
    "prefecture": "栃木県",
    "prefecture_kana": "トチギケン",
    "prefecture_code": 9,
    "city": "小山市",
    "city_kana": "オヤマシ",
    "town": "南飯田",
    "town_kana": "ミナミイイダ",
    "street": null,
    "office_name": null,
    "office_name_kana": null
  },
  "0214": {
    "postcode": "3290214",
    "prefecture": "栃木県",
    "prefecture_kana": "トチギケン",
    "prefecture_code": 9,
    "city": "小山市",
    "city_kana": "オヤマシ",
    "town": "乙女",
    "town_kana": "オトメ",
    "street": null,
    "office_name": null,
    "office_name_kana": null
  },
  "0215": {
    "postcode": "3290215",
    "prefecture": "栃木県",
    "prefecture_kana": "トチギケン",
    "prefecture_code": 9,
    "city": "小山市",
    "city_kana": "オヤマシ",
    "town": "網戸",
    "town_kana": "アジト",
    "street": null,
    "office_name": null,
    "office_name_kana": null
  },
  "0216": {
    "postcode": "3290216",
    "prefecture": "栃木県",
    "prefecture_kana": "トチギケン",
    "prefecture_code": 9,
    "city": "小山市",
    "city_kana": "オヤマシ",
    "town": "楢木",
    "town_kana": "ナラノキ",
    "street": null,
    "office_name": null,
    "office_name_kana": null
  },
  "0217": {
    "postcode": "3290217",
    "prefecture": "栃木県",
    "prefecture_kana": "トチギケン",
    "prefecture_code": 9,
    "city": "小山市",
    "city_kana": "オヤマシ",
    "town": "南乙女",
    "town_kana": "ミナミオトメ",
    "street": null,
    "office_name": null,
    "office_name_kana": null
  },
  "0221": {
    "postcode": "3290221",
    "prefecture": "栃木県",
    "prefecture_kana": "トチギケン",
    "prefecture_code": 9,
    "city": "小山市",
    "city_kana": "オヤマシ",
    "town": "生良",
    "town_kana": "キラ",
    "street": null,
    "office_name": null,
    "office_name_kana": null
  },
  "0222": {
    "postcode": "3290222",
    "prefecture": "栃木県",
    "prefecture_kana": "トチギケン",
    "prefecture_code": 9,
    "city": "小山市",
    "city_kana": "オヤマシ",
    "town": "上生井",
    "town_kana": "カミナマイ",
    "street": null,
    "office_name": null,
    "office_name_kana": null
  },
  "0223": {
    "postcode": "3290223",
    "prefecture": "栃木県",
    "prefecture_kana": "トチギケン",
    "prefecture_code": 9,
    "city": "小山市",
    "city_kana": "オヤマシ",
    "town": "下生井",
    "town_kana": "シモナマイ",
    "street": null,
    "office_name": null,
    "office_name_kana": null
  },
  "0224": {
    "postcode": "3290224",
    "prefecture": "栃木県",
    "prefecture_kana": "トチギケン",
    "prefecture_code": 9,
    "city": "小山市",
    "city_kana": "オヤマシ",
    "town": "白鳥",
    "town_kana": "シラトリ",
    "street": null,
    "office_name": null,
    "office_name_kana": null
  },
  "0225": {
    "postcode": "3290225",
    "prefecture": "栃木県",
    "prefecture_kana": "トチギケン",
    "prefecture_code": 9,
    "city": "小山市",
    "city_kana": "オヤマシ",
    "town": "迫間田",
    "town_kana": "ハサマダ",
    "street": null,
    "office_name": null,
    "office_name_kana": null
  },
  "0226": {
    "postcode": "3290226",
    "prefecture": "栃木県",
    "prefecture_kana": "トチギケン",
    "prefecture_code": 9,
    "city": "小山市",
    "city_kana": "オヤマシ",
    "town": "寒川",
    "town_kana": "サムカワ",
    "street": null,
    "office_name": null,
    "office_name_kana": null
  },
  "0227": {
    "postcode": "3290227",
    "prefecture": "栃木県",
    "prefecture_kana": "トチギケン",
    "prefecture_code": 9,
    "city": "小山市",
    "city_kana": "オヤマシ",
    "town": "中里",
    "town_kana": "ナカザト",
    "street": null,
    "office_name": null,
    "office_name_kana": null
  },
  "0228": {
    "postcode": "3290228",
    "prefecture": "栃木県",
    "prefecture_kana": "トチギケン",
    "prefecture_code": 9,
    "city": "小山市",
    "city_kana": "オヤマシ",
    "town": "押切",
    "town_kana": "オシキリ",
    "street": null,
    "office_name": null,
    "office_name_kana": null
  },
  "0229": {
    "postcode": "3290229",
    "prefecture": "栃木県",
    "prefecture_kana": "トチギケン",
    "prefecture_code": 9,
    "city": "小山市",
    "city_kana": "オヤマシ",
    "town": "鏡",
    "town_kana": "カガミ",
    "street": null,
    "office_name": null,
    "office_name_kana": null
  },
  "0311": {
    "postcode": "3290311",
    "prefecture": "栃木県",
    "prefecture_kana": "トチギケン",
    "prefecture_code": 9,
    "city": "栃木市",
    "city_kana": "トチギシ",
    "town": "藤岡町富吉",
    "town_kana": "フジオカマチトミヨシ",
    "street": null,
    "office_name": null,
    "office_name_kana": null
  },
  "0312": {
    "postcode": "3290312",
    "prefecture": "栃木県",
    "prefecture_kana": "トチギケン",
    "prefecture_code": 9,
    "city": "栃木市",
    "city_kana": "トチギシ",
    "town": "藤岡町蛭沼",
    "town_kana": "フジオカマチヒルヌマ",
    "street": null,
    "office_name": null,
    "office_name_kana": null
  },
  "0313": {
    "postcode": "3290313",
    "prefecture": "栃木県",
    "prefecture_kana": "トチギケン",
    "prefecture_code": 9,
    "city": "栃木市",
    "city_kana": "トチギシ",
    "town": "藤岡町緑川",
    "town_kana": "フジオカマチミドリカワ",
    "street": null,
    "office_name": null,
    "office_name_kana": null
  },
  "0314": {
    "postcode": "3290314",
    "prefecture": "栃木県",
    "prefecture_kana": "トチギケン",
    "prefecture_code": 9,
    "city": "栃木市",
    "city_kana": "トチギシ",
    "town": "藤岡町新波",
    "town_kana": "フジオカマチニッパ",
    "street": null,
    "office_name": null,
    "office_name_kana": null
  },
  "0315": {
    "postcode": "3290315",
    "prefecture": "栃木県",
    "prefecture_kana": "トチギケン",
    "prefecture_code": 9,
    "city": "栃木市",
    "city_kana": "トチギシ",
    "town": "藤岡町部屋",
    "town_kana": "フジオカマチヘヤ",
    "street": null,
    "office_name": null,
    "office_name_kana": null
  },
  "0316": {
    "postcode": "3290316",
    "prefecture": "栃木県",
    "prefecture_kana": "トチギケン",
    "prefecture_code": 9,
    "city": "栃木市",
    "city_kana": "トチギシ",
    "town": "藤岡町石川",
    "town_kana": "フジオカマチイシカワ",
    "street": null,
    "office_name": null,
    "office_name_kana": null
  },
  "0317": {
    "postcode": "3290317",
    "prefecture": "栃木県",
    "prefecture_kana": "トチギケン",
    "prefecture_code": 9,
    "city": "栃木市",
    "city_kana": "トチギシ",
    "town": "藤岡町帯刀",
    "town_kana": "フジオカマチタテワキ",
    "street": null,
    "office_name": null,
    "office_name_kana": null
  },
  "0318": {
    "postcode": "3290318",
    "prefecture": "栃木県",
    "prefecture_kana": "トチギケン",
    "prefecture_code": 9,
    "city": "栃木市",
    "city_kana": "トチギシ",
    "town": "藤岡町西前原",
    "town_kana": "フジオカマチニシマエハラ",
    "street": null,
    "office_name": null,
    "office_name_kana": null
  },
  "0319": {
    "postcode": "3290319",
    "prefecture": "栃木県",
    "prefecture_kana": "トチギケン",
    "prefecture_code": 9,
    "city": "栃木市",
    "city_kana": "トチギシ",
    "town": "藤岡町中根",
    "town_kana": "フジオカマチナカネ",
    "street": null,
    "office_name": null,
    "office_name_kana": null
  },
  "0400": {
    "postcode": "3290400",
    "prefecture": "栃木県",
    "prefecture_kana": "トチギケン",
    "prefecture_code": 9,
    "city": "下野市",
    "city_kana": "シモツケシ",
    "town": "",
    "town_kana": "",
    "street": null,
    "office_name": null,
    "office_name_kana": null
  },
  "0401": {
    "postcode": "3290401",
    "prefecture": "栃木県",
    "prefecture_kana": "トチギケン",
    "prefecture_code": 9,
    "city": "下野市",
    "city_kana": "シモツケシ",
    "town": "箕輪",
    "town_kana": "ミノワ",
    "street": null,
    "office_name": null,
    "office_name_kana": null
  },
  "0402": {
    "postcode": "3290402",
    "prefecture": "栃木県",
    "prefecture_kana": "トチギケン",
    "prefecture_code": 9,
    "city": "下野市",
    "city_kana": "シモツケシ",
    "town": "笹原",
    "town_kana": "ササハラ",
    "street": null,
    "office_name": null,
    "office_name_kana": null
  },
  "0403": {
    "postcode": "3290403",
    "prefecture": "栃木県",
    "prefecture_kana": "トチギケン",
    "prefecture_code": 9,
    "city": "下野市",
    "city_kana": "シモツケシ",
    "town": "医大前",
    "town_kana": "イダイマエ",
    "street": null,
    "office_name": null,
    "office_name_kana": null
  },
  "0411": {
    "postcode": "3290411",
    "prefecture": "栃木県",
    "prefecture_kana": "トチギケン",
    "prefecture_code": 9,
    "city": "下野市",
    "city_kana": "シモツケシ",
    "town": "烏ケ森",
    "town_kana": "カラスガモリ",
    "street": null,
    "office_name": null,
    "office_name_kana": null
  },
  "0412": {
    "postcode": "3290412",
    "prefecture": "栃木県",
    "prefecture_kana": "トチギケン",
    "prefecture_code": 9,
    "city": "下野市",
    "city_kana": "シモツケシ",
    "town": "柴",
    "town_kana": "シバ",
    "street": null,
    "office_name": null,
    "office_name_kana": null
  },
  "0413": {
    "postcode": "3290413",
    "prefecture": "栃木県",
    "prefecture_kana": "トチギケン",
    "prefecture_code": 9,
    "city": "下野市",
    "city_kana": "シモツケシ",
    "town": "駅東",
    "town_kana": "エキヒガシ",
    "street": null,
    "office_name": null,
    "office_name_kana": null
  },
  "0414": {
    "postcode": "3290414",
    "prefecture": "栃木県",
    "prefecture_kana": "トチギケン",
    "prefecture_code": 9,
    "city": "下野市",
    "city_kana": "シモツケシ",
    "town": "小金井",
    "town_kana": "コガネイ",
    "street": null,
    "office_name": null,
    "office_name_kana": null
  },
  "0415": {
    "postcode": "3290415",
    "prefecture": "栃木県",
    "prefecture_kana": "トチギケン",
    "prefecture_code": 9,
    "city": "下野市",
    "city_kana": "シモツケシ",
    "town": "川中子",
    "town_kana": "カワナゴ",
    "street": null,
    "office_name": null,
    "office_name_kana": null
  },
  "0417": {
    "postcode": "3290417",
    "prefecture": "栃木県",
    "prefecture_kana": "トチギケン",
    "prefecture_code": 9,
    "city": "下野市",
    "city_kana": "シモツケシ",
    "town": "国分寺",
    "town_kana": "コクブンジ",
    "street": null,
    "office_name": null,
    "office_name_kana": null
  },
  "0418": {
    "postcode": "3290418",
    "prefecture": "栃木県",
    "prefecture_kana": "トチギケン",
    "prefecture_code": 9,
    "city": "下野市",
    "city_kana": "シモツケシ",
    "town": "紫",
    "town_kana": "ムラサキ",
    "street": null,
    "office_name": null,
    "office_name_kana": null
  },
  "0421": {
    "postcode": "3290421",
    "prefecture": "栃木県",
    "prefecture_kana": "トチギケン",
    "prefecture_code": 9,
    "city": "下野市",
    "city_kana": "シモツケシ",
    "town": "成田",
    "town_kana": "ナリタ",
    "street": null,
    "office_name": null,
    "office_name_kana": null
  },
  "0422": {
    "postcode": "3290422",
    "prefecture": "栃木県",
    "prefecture_kana": "トチギケン",
    "prefecture_code": 9,
    "city": "下野市",
    "city_kana": "シモツケシ",
    "town": "町田",
    "town_kana": "マチダ",
    "street": null,
    "office_name": null,
    "office_name_kana": null
  },
  "0423": {
    "postcode": "3290423",
    "prefecture": "栃木県",
    "prefecture_kana": "トチギケン",
    "prefecture_code": 9,
    "city": "下野市",
    "city_kana": "シモツケシ",
    "town": "谷地賀",
    "town_kana": "ヤジツカ",
    "street": null,
    "office_name": null,
    "office_name_kana": null
  },
  "0424": {
    "postcode": "3290424",
    "prefecture": "栃木県",
    "prefecture_kana": "トチギケン",
    "prefecture_code": 9,
    "city": "下野市",
    "city_kana": "シモツケシ",
    "town": "下文狹",
    "town_kana": "シモフバサミ",
    "street": null,
    "office_name": null,
    "office_name_kana": null
  },
  "0425": {
    "postcode": "3290425",
    "prefecture": "栃木県",
    "prefecture_kana": "トチギケン",
    "prefecture_code": 9,
    "city": "下野市",
    "city_kana": "シモツケシ",
    "town": "田中",
    "town_kana": "タナカ",
    "street": null,
    "office_name": null,
    "office_name_kana": null
  },
  "0431": {
    "postcode": "3290431",
    "prefecture": "栃木県",
    "prefecture_kana": "トチギケン",
    "prefecture_code": 9,
    "city": "下野市",
    "city_kana": "シモツケシ",
    "town": "薬師寺",
    "town_kana": "ヤクシジ",
    "street": null,
    "office_name": null,
    "office_name_kana": null
  },
  "0432": {
    "postcode": "3290432",
    "prefecture": "栃木県",
    "prefecture_kana": "トチギケン",
    "prefecture_code": 9,
    "city": "下野市",
    "city_kana": "シモツケシ",
    "town": "仁良川",
    "town_kana": "ニラガワ",
    "street": null,
    "office_name": null,
    "office_name_kana": null
  },
  "0433": {
    "postcode": "3290433",
    "prefecture": "栃木県",
    "prefecture_kana": "トチギケン",
    "prefecture_code": 9,
    "city": "下野市",
    "city_kana": "シモツケシ",
    "town": "緑",
    "town_kana": "ミドリ",
    "street": null,
    "office_name": null,
    "office_name_kana": null
  },
  "0434": {
    "postcode": "3290434",
    "prefecture": "栃木県",
    "prefecture_kana": "トチギケン",
    "prefecture_code": 9,
    "city": "下野市",
    "city_kana": "シモツケシ",
    "town": "祇園",
    "town_kana": "ギオン",
    "street": null,
    "office_name": null,
    "office_name_kana": null
  },
  "0492": {
    "postcode": "3290492",
    "prefecture": "栃木県",
    "prefecture_kana": "トチギケン",
    "prefecture_code": 9,
    "city": "下野市",
    "city_kana": "シモツケシ",
    "town": "笹原",
    "town_kana": "ササハラ",
    "street": "２６番地",
    "office_name": "下野市役所",
    "office_name_kana": "シモツケシヤクシヨ"
  },
  "0493": {
    "postcode": "3290493",
    "prefecture": "栃木県",
    "prefecture_kana": "トチギケン",
    "prefecture_code": 9,
    "city": "下野市",
    "city_kana": "シモツケシ",
    "town": "祇園",
    "town_kana": "ギオン",
    "street": "１−１７",
    "office_name": "ケーブルビジョン　株式会社　ラジオ事業部（ＦＭゆうがお）",
    "office_name_kana": "ケ-ブルビジヨン カブシキガイシヤ ラジオジギヨウブ(エフエムユウガオ)"
  },
  "0498": {
    "postcode": "3290498",
    "prefecture": "栃木県",
    "prefecture_kana": "トチギケン",
    "prefecture_code": 9,
    "city": "下野市",
    "city_kana": "シモツケシ",
    "town": "薬師寺",
    "town_kana": "ヤクシジ",
    "street": "３３１１−１",
    "office_name": "自治医科大学",
    "office_name_kana": "ジチイカダイガク"
  },
  "0501": {
    "postcode": "3290501",
    "prefecture": "栃木県",
    "prefecture_kana": "トチギケン",
    "prefecture_code": 9,
    "city": "下野市",
    "city_kana": "シモツケシ",
    "town": "上古山",
    "town_kana": "カミコヤマ",
    "street": null,
    "office_name": null,
    "office_name_kana": null
  },
  "0502": {
    "postcode": "3290502",
    "prefecture": "栃木県",
    "prefecture_kana": "トチギケン",
    "prefecture_code": 9,
    "city": "下野市",
    "city_kana": "シモツケシ",
    "town": "下古山",
    "town_kana": "シモコヤマ",
    "street": null,
    "office_name": null,
    "office_name_kana": null
  },
  "0503": {
    "postcode": "3290503",
    "prefecture": "栃木県",
    "prefecture_kana": "トチギケン",
    "prefecture_code": 9,
    "city": "下野市",
    "city_kana": "シモツケシ",
    "town": "下長田",
    "town_kana": "シモナガタ",
    "street": null,
    "office_name": null,
    "office_name_kana": null
  },
  "0504": {
    "postcode": "3290504",
    "prefecture": "栃木県",
    "prefecture_kana": "トチギケン",
    "prefecture_code": 9,
    "city": "下野市",
    "city_kana": "シモツケシ",
    "town": "上台",
    "town_kana": "カミダイ",
    "street": null,
    "office_name": null,
    "office_name_kana": null
  },
  "0505": {
    "postcode": "3290505",
    "prefecture": "栃木県",
    "prefecture_kana": "トチギケン",
    "prefecture_code": 9,
    "city": "下野市",
    "city_kana": "シモツケシ",
    "town": "細谷",
    "town_kana": "ホソヤ",
    "street": null,
    "office_name": null,
    "office_name_kana": null
  },
  "0506": {
    "postcode": "3290506",
    "prefecture": "栃木県",
    "prefecture_kana": "トチギケン",
    "prefecture_code": 9,
    "city": "下野市",
    "city_kana": "シモツケシ",
    "town": "橋本",
    "town_kana": "ハシモト",
    "street": null,
    "office_name": null,
    "office_name_kana": null
  },
  "0507": {
    "postcode": "3290507",
    "prefecture": "栃木県",
    "prefecture_kana": "トチギケン",
    "prefecture_code": 9,
    "city": "下野市",
    "city_kana": "シモツケシ",
    "town": "文教",
    "town_kana": "ブンキョウ",
    "street": null,
    "office_name": null,
    "office_name_kana": null
  },
  "0511": {
    "postcode": "3290511",
    "prefecture": "栃木県",
    "prefecture_kana": "トチギケン",
    "prefecture_code": 9,
    "city": "下野市",
    "city_kana": "シモツケシ",
    "town": "石橋",
    "town_kana": "イシバシ",
    "street": null,
    "office_name": null,
    "office_name_kana": null
  },
  "0512": {
    "postcode": "3290512",
    "prefecture": "栃木県",
    "prefecture_kana": "トチギケン",
    "prefecture_code": 9,
    "city": "下野市",
    "city_kana": "シモツケシ",
    "town": "下石橋",
    "town_kana": "シモイシバシ",
    "street": null,
    "office_name": null,
    "office_name_kana": null
  },
  "0513": {
    "postcode": "3290513",
    "prefecture": "栃木県",
    "prefecture_kana": "トチギケン",
    "prefecture_code": 9,
    "city": "下野市",
    "city_kana": "シモツケシ",
    "town": "下大領",
    "town_kana": "シモダイリョウ",
    "street": null,
    "office_name": null,
    "office_name_kana": null
  },
  "0514": {
    "postcode": "3290514",
    "prefecture": "栃木県",
    "prefecture_kana": "トチギケン",
    "prefecture_code": 9,
    "city": "下野市",
    "city_kana": "シモツケシ",
    "town": "東前原",
    "town_kana": "ヒガシマエハラ",
    "street": null,
    "office_name": null,
    "office_name_kana": null
  },
  "0515": {
    "postcode": "3290515",
    "prefecture": "栃木県",
    "prefecture_kana": "トチギケン",
    "prefecture_code": 9,
    "city": "下野市",
    "city_kana": "シモツケシ",
    "town": "中大領",
    "town_kana": "ナカダイリョウ",
    "street": null,
    "office_name": null,
    "office_name_kana": null
  },
  "0516": {
    "postcode": "3290516",
    "prefecture": "栃木県",
    "prefecture_kana": "トチギケン",
    "prefecture_code": 9,
    "city": "下野市",
    "city_kana": "シモツケシ",
    "town": "大光寺",
    "town_kana": "ダイコウジ",
    "street": null,
    "office_name": null,
    "office_name_kana": null
  },
  "0517": {
    "postcode": "3290517",
    "prefecture": "栃木県",
    "prefecture_kana": "トチギケン",
    "prefecture_code": 9,
    "city": "下野市",
    "city_kana": "シモツケシ",
    "town": "上大領",
    "town_kana": "カミダイリョウ",
    "street": null,
    "office_name": null,
    "office_name_kana": null
  },
  "0518": {
    "postcode": "3290518",
    "prefecture": "栃木県",
    "prefecture_kana": "トチギケン",
    "prefecture_code": 9,
    "city": "下野市",
    "city_kana": "シモツケシ",
    "town": "花の木",
    "town_kana": "ハナノキ",
    "street": null,
    "office_name": null,
    "office_name_kana": null
  },
  "0519": {
    "postcode": "3290519",
    "prefecture": "栃木県",
    "prefecture_kana": "トチギケン",
    "prefecture_code": 9,
    "city": "下野市",
    "city_kana": "シモツケシ",
    "town": "大松山",
    "town_kana": "オオマツヤマ",
    "street": null,
    "office_name": null,
    "office_name_kana": null
  },
  "0521": {
    "postcode": "3290521",
    "prefecture": "栃木県",
    "prefecture_kana": "トチギケン",
    "prefecture_code": 9,
    "city": "河内郡上三川町",
    "city_kana": "カワチグンカミノカワマチ",
    "town": "石田",
    "town_kana": "イシタ",
    "street": null,
    "office_name": null,
    "office_name_kana": null
  },
  "0522": {
    "postcode": "3290522",
    "prefecture": "栃木県",
    "prefecture_kana": "トチギケン",
    "prefecture_code": 9,
    "city": "河内郡上三川町",
    "city_kana": "カワチグンカミノカワマチ",
    "town": "川中子",
    "town_kana": "カワナゴ",
    "street": null,
    "office_name": null,
    "office_name_kana": null
  },
  "0523": {
    "postcode": "3290523",
    "prefecture": "栃木県",
    "prefecture_kana": "トチギケン",
    "prefecture_code": 9,
    "city": "河内郡上三川町",
    "city_kana": "カワチグンカミノカワマチ",
    "town": "梁",
    "town_kana": "ヤナ",
    "street": null,
    "office_name": null,
    "office_name_kana": null
  },
  "0524": {
    "postcode": "3290524",
    "prefecture": "栃木県",
    "prefecture_kana": "トチギケン",
    "prefecture_code": 9,
    "city": "河内郡上三川町",
    "city_kana": "カワチグンカミノカワマチ",
    "town": "多功",
    "town_kana": "タコウ",
    "street": null,
    "office_name": null,
    "office_name_kana": null
  },
  "0525": {
    "postcode": "3290525",
    "prefecture": "栃木県",
    "prefecture_kana": "トチギケン",
    "prefecture_code": 9,
    "city": "河内郡上三川町",
    "city_kana": "カワチグンカミノカワマチ",
    "town": "大山",
    "town_kana": "オオヤマ",
    "street": null,
    "office_name": null,
    "office_name_kana": null
  },
  "0526": {
    "postcode": "3290526",
    "prefecture": "栃木県",
    "prefecture_kana": "トチギケン",
    "prefecture_code": 9,
    "city": "河内郡上三川町",
    "city_kana": "カワチグンカミノカワマチ",
    "town": "鞘堂",
    "town_kana": "サヤドウ",
    "street": null,
    "office_name": null,
    "office_name_kana": null
  },
  "0527": {
    "postcode": "3290527",
    "prefecture": "栃木県",
    "prefecture_kana": "トチギケン",
    "prefecture_code": 9,
    "city": "河内郡上三川町",
    "city_kana": "カワチグンカミノカワマチ",
    "town": "上神主",
    "town_kana": "カミコウヌシ",
    "street": null,
    "office_name": null,
    "office_name_kana": null
  },
  "0528": {
    "postcode": "3290528",
    "prefecture": "栃木県",
    "prefecture_kana": "トチギケン",
    "prefecture_code": 9,
    "city": "河内郡上三川町",
    "city_kana": "カワチグンカミノカワマチ",
    "town": "ゆうきが丘",
    "town_kana": "ユウキガオカ",
    "street": null,
    "office_name": null,
    "office_name_kana": null
  },
  "0529": {
    "postcode": "3290529",
    "prefecture": "栃木県",
    "prefecture_kana": "トチギケン",
    "prefecture_code": 9,
    "city": "河内郡上三川町",
    "city_kana": "カワチグンカミノカワマチ",
    "town": "下神主",
    "town_kana": "シモコウヌシ",
    "street": null,
    "office_name": null,
    "office_name_kana": null
  },
  "0530": {
    "postcode": "3290530",
    "prefecture": "栃木県",
    "prefecture_kana": "トチギケン",
    "prefecture_code": 9,
    "city": "河内郡上三川町",
    "city_kana": "カワチグンカミノカワマチ",
    "town": "天神町",
    "town_kana": "テンジンチョウ",
    "street": null,
    "office_name": null,
    "office_name_kana": null
  },
  "0595": {
    "postcode": "3290595",
    "prefecture": "栃木県",
    "prefecture_kana": "トチギケン",
    "prefecture_code": 9,
    "city": "下野市",
    "city_kana": "シモツケシ",
    "town": "下石橋",
    "town_kana": "シモイシバシ",
    "street": "５２１",
    "office_name": "グンゼ　株式会社　宇都宮工場",
    "office_name_kana": "グンゼ カブシキガイシヤ ウツノミヤコウジヨウ"
  },
  "0596": {
    "postcode": "3290596",
    "prefecture": "栃木県",
    "prefecture_kana": "トチギケン",
    "prefecture_code": 9,
    "city": "下野市",
    "city_kana": "シモツケシ",
    "town": "下古山",
    "town_kana": "シモコヤマ",
    "street": "１丁目１５番４",
    "office_name": "医療法人社団　友志会　石橋総合病院",
    "office_name_kana": "イリヨウホウジンシヤダン ユウシカイ イシバシソウゴウビヨウイン"
  },
  "0598": {
    "postcode": "3290598",
    "prefecture": "栃木県",
    "prefecture_kana": "トチギケン",
    "prefecture_code": 9,
    "city": "下野市",
    "city_kana": "シモツケシ",
    "town": "下古山",
    "town_kana": "シモコヤマ",
    "street": "１５４",
    "office_name": "第一化成　株式会社",
    "office_name_kana": "ダイイチカセイ カブシキガイシヤ"
  },
  "0600": {
    "postcode": "3290600",
    "prefecture": "栃木県",
    "prefecture_kana": "トチギケン",
    "prefecture_code": 9,
    "city": "河内郡上三川町",
    "city_kana": "カワチグンカミノカワマチ",
    "town": "",
    "town_kana": "",
    "street": null,
    "office_name": null,
    "office_name_kana": null
  },
  "0601": {
    "postcode": "3290601",
    "prefecture": "栃木県",
    "prefecture_kana": "トチギケン",
    "prefecture_code": 9,
    "city": "河内郡上三川町",
    "city_kana": "カワチグンカミノカワマチ",
    "town": "上文挾",
    "town_kana": "カミフバサミ",
    "street": null,
    "office_name": null,
    "office_name_kana": null
  },
  "0602": {
    "postcode": "3290602",
    "prefecture": "栃木県",
    "prefecture_kana": "トチギケン",
    "prefecture_code": 9,
    "city": "河内郡上三川町",
    "city_kana": "カワチグンカミノカワマチ",
    "town": "東汗",
    "town_kana": "ヒガシフザカシ",
    "street": null,
    "office_name": null,
    "office_name_kana": null
  },
  "0603": {
    "postcode": "3290603",
    "prefecture": "栃木県",
    "prefecture_kana": "トチギケン",
    "prefecture_code": 9,
    "city": "河内郡上三川町",
    "city_kana": "カワチグンカミノカワマチ",
    "town": "東蓼沼",
    "town_kana": "ヒガシタテヌマ",
    "street": null,
    "office_name": null,
    "office_name_kana": null
  },
  "0604": {
    "postcode": "3290604",
    "prefecture": "栃木県",
    "prefecture_kana": "トチギケン",
    "prefecture_code": 9,
    "city": "河内郡上三川町",
    "city_kana": "カワチグンカミノカワマチ",
    "town": "上郷",
    "town_kana": "カミゴウ",
    "street": null,
    "office_name": null,
    "office_name_kana": null
  },
  "0605": {
    "postcode": "3290605",
    "prefecture": "栃木県",
    "prefecture_kana": "トチギケン",
    "prefecture_code": 9,
    "city": "河内郡上三川町",
    "city_kana": "カワチグンカミノカワマチ",
    "town": "西蓼沼",
    "town_kana": "ニシタテヌマ",
    "street": null,
    "office_name": null,
    "office_name_kana": null
  },
  "0606": {
    "postcode": "3290606",
    "prefecture": "栃木県",
    "prefecture_kana": "トチギケン",
    "prefecture_code": 9,
    "city": "河内郡上三川町",
    "city_kana": "カワチグンカミノカワマチ",
    "town": "磯岡",
    "town_kana": "イソオカ",
    "street": null,
    "office_name": null,
    "office_name_kana": null
  },
  "0607": {
    "postcode": "3290607",
    "prefecture": "栃木県",
    "prefecture_kana": "トチギケン",
    "prefecture_code": 9,
    "city": "河内郡上三川町",
    "city_kana": "カワチグンカミノカワマチ",
    "town": "西汗",
    "town_kana": "ニシフザカシ",
    "street": null,
    "office_name": null,
    "office_name_kana": null
  },
  "0608": {
    "postcode": "3290608",
    "prefecture": "栃木県",
    "prefecture_kana": "トチギケン",
    "prefecture_code": 9,
    "city": "河内郡上三川町",
    "city_kana": "カワチグンカミノカワマチ",
    "town": "西木代",
    "town_kana": "ニシキノシロ",
    "street": null,
    "office_name": null,
    "office_name_kana": null
  },
  "0611": {
    "postcode": "3290611",
    "prefecture": "栃木県",
    "prefecture_kana": "トチギケン",
    "prefecture_code": 9,
    "city": "河内郡上三川町",
    "city_kana": "カワチグンカミノカワマチ",
    "town": "上三川",
    "town_kana": "カミノカワ",
    "street": null,
    "office_name": null,
    "office_name_kana": null
  },
  "0612": {
    "postcode": "3290612",
    "prefecture": "栃木県",
    "prefecture_kana": "トチギケン",
    "prefecture_code": 9,
    "city": "河内郡上三川町",
    "city_kana": "カワチグンカミノカワマチ",
    "town": "三本木",
    "town_kana": "サンボンギ",
    "street": null,
    "office_name": null,
    "office_name_kana": null
  },
  "0613": {
    "postcode": "3290613",
    "prefecture": "栃木県",
    "prefecture_kana": "トチギケン",
    "prefecture_code": 9,
    "city": "河内郡上三川町",
    "city_kana": "カワチグンカミノカワマチ",
    "town": "坂上",
    "town_kana": "サカウエ",
    "street": null,
    "office_name": null,
    "office_name_kana": null
  },
  "0614": {
    "postcode": "3290614",
    "prefecture": "栃木県",
    "prefecture_kana": "トチギケン",
    "prefecture_code": 9,
    "city": "河内郡上三川町",
    "city_kana": "カワチグンカミノカワマチ",
    "town": "五分一",
    "town_kana": "ゴブイチ",
    "street": null,
    "office_name": null,
    "office_name_kana": null
  },
  "0615": {
    "postcode": "3290615",
    "prefecture": "栃木県",
    "prefecture_kana": "トチギケン",
    "prefecture_code": 9,
    "city": "河内郡上三川町",
    "city_kana": "カワチグンカミノカワマチ",
    "town": "三村",
    "town_kana": "ミムラ",
    "street": null,
    "office_name": null,
    "office_name_kana": null
  },
  "0616": {
    "postcode": "3290616",
    "prefecture": "栃木県",
    "prefecture_kana": "トチギケン",
    "prefecture_code": 9,
    "city": "河内郡上三川町",
    "city_kana": "カワチグンカミノカワマチ",
    "town": "下蒲生",
    "town_kana": "シモカモウ",
    "street": null,
    "office_name": null,
    "office_name_kana": null
  },
  "0617": {
    "postcode": "3290617",
    "prefecture": "栃木県",
    "prefecture_kana": "トチギケン",
    "prefecture_code": 9,
    "city": "河内郡上三川町",
    "city_kana": "カワチグンカミノカワマチ",
    "town": "上蒲生",
    "town_kana": "カミカモウ",
    "street": null,
    "office_name": null,
    "office_name_kana": null
  },
  "0618": {
    "postcode": "3290618",
    "prefecture": "栃木県",
    "prefecture_kana": "トチギケン",
    "prefecture_code": 9,
    "city": "河内郡上三川町",
    "city_kana": "カワチグンカミノカワマチ",
    "town": "しらさぎ",
    "town_kana": "シラサギ",
    "street": null,
    "office_name": null,
    "office_name_kana": null
  },
  "0692": {
    "postcode": "3290692",
    "prefecture": "栃木県",
    "prefecture_kana": "トチギケン",
    "prefecture_code": 9,
    "city": "河内郡上三川町",
    "city_kana": "カワチグンカミノカワマチ",
    "town": "大字上蒲生",
    "town_kana": null,
    "street": "２５００",
    "office_name": "日産自動車　株式会社　栃木工場",
    "office_name_kana": "ニツサンジドウシヤ カブシキガイシヤ トチギコウジヨウ"
  },
  "0696": {
    "postcode": "3290696",
    "prefecture": "栃木県",
    "prefecture_kana": "トチギケン",
    "prefecture_code": 9,
    "city": "河内郡上三川町",
    "city_kana": "カワチグンカミノカワマチ",
    "town": "しらさぎ",
    "town_kana": "シラサギ",
    "street": "１丁目１",
    "office_name": "上三川町役場",
    "office_name_kana": "カミノカワマチヤクバ"
  },
  "1101": {
    "postcode": "3291101",
    "prefecture": "栃木県",
    "prefecture_kana": "トチギケン",
    "prefecture_code": 9,
    "city": "宇都宮市",
    "city_kana": "ウツノミヤシ",
    "town": "下ケ橋町",
    "town_kana": "サゲハシチョウ",
    "street": null,
    "office_name": null,
    "office_name_kana": null
  },
  "1102": {
    "postcode": "3291102",
    "prefecture": "栃木県",
    "prefecture_kana": "トチギケン",
    "prefecture_code": 9,
    "city": "宇都宮市",
    "city_kana": "ウツノミヤシ",
    "town": "白沢町",
    "town_kana": "シラサワチョウ",
    "street": null,
    "office_name": null,
    "office_name_kana": null
  },
  "1103": {
    "postcode": "3291103",
    "prefecture": "栃木県",
    "prefecture_kana": "トチギケン",
    "prefecture_code": 9,
    "city": "宇都宮市",
    "city_kana": "ウツノミヤシ",
    "town": "東岡本町",
    "town_kana": "ヒガシオカモトチョウ",
    "street": null,
    "office_name": null,
    "office_name_kana": null
  },
  "1104": {
    "postcode": "3291104",
    "prefecture": "栃木県",
    "prefecture_kana": "トチギケン",
    "prefecture_code": 9,
    "city": "宇都宮市",
    "city_kana": "ウツノミヤシ",
    "town": "下岡本町",
    "town_kana": "シモオカモトチョウ",
    "street": null,
    "office_name": null,
    "office_name_kana": null
  },
  "1105": {
    "postcode": "3291105",
    "prefecture": "栃木県",
    "prefecture_kana": "トチギケン",
    "prefecture_code": 9,
    "city": "宇都宮市",
    "city_kana": "ウツノミヤシ",
    "town": "中岡本町",
    "town_kana": "ナカオカモトチョウ",
    "street": null,
    "office_name": null,
    "office_name_kana": null
  },
  "1106": {
    "postcode": "3291106",
    "prefecture": "栃木県",
    "prefecture_kana": "トチギケン",
    "prefecture_code": 9,
    "city": "宇都宮市",
    "city_kana": "ウツノミヤシ",
    "town": "上大塚町",
    "town_kana": "カミオオツカチョウ",
    "street": null,
    "office_name": null,
    "office_name_kana": null
  },
  "1107": {
    "postcode": "3291107",
    "prefecture": "栃木県",
    "prefecture_kana": "トチギケン",
    "prefecture_code": 9,
    "city": "宇都宮市",
    "city_kana": "ウツノミヤシ",
    "town": "長峰町",
    "town_kana": "ナガミネチョウ",
    "street": null,
    "office_name": null,
    "office_name_kana": null
  },
  "1108": {
    "postcode": "3291108",
    "prefecture": "栃木県",
    "prefecture_kana": "トチギケン",
    "prefecture_code": 9,
    "city": "宇都宮市",
    "city_kana": "ウツノミヤシ",
    "town": "古田町",
    "town_kana": "フルタチョウ",
    "street": null,
    "office_name": null,
    "office_name_kana": null
  },
  "1111": {
    "postcode": "3291111",
    "prefecture": "栃木県",
    "prefecture_kana": "トチギケン",
    "prefecture_code": 9,
    "city": "宇都宮市",
    "city_kana": "ウツノミヤシ",
    "town": "逆面町",
    "town_kana": "サカヅラチョウ",
    "street": null,
    "office_name": null,
    "office_name_kana": null
  },
  "1112": {
    "postcode": "3291112",
    "prefecture": "栃木県",
    "prefecture_kana": "トチギケン",
    "prefecture_code": 9,
    "city": "宇都宮市",
    "city_kana": "ウツノミヤシ",
    "town": "上田原町",
    "town_kana": "カミタワラチョウ",
    "street": null,
    "office_name": null,
    "office_name_kana": null
  },
  "1113": {
    "postcode": "3291113",
    "prefecture": "栃木県",
    "prefecture_kana": "トチギケン",
    "prefecture_code": 9,
    "city": "宇都宮市",
    "city_kana": "ウツノミヤシ",
    "town": "相野沢町",
    "town_kana": "アイノサワチョウ",
    "street": null,
    "office_name": null,
    "office_name_kana": null
  },
  "1114": {
    "postcode": "3291114",
    "prefecture": "栃木県",
    "prefecture_kana": "トチギケン",
    "prefecture_code": 9,
    "city": "宇都宮市",
    "city_kana": "ウツノミヤシ",
    "town": "宝井町",
    "town_kana": "タカライチョウ",
    "street": null,
    "office_name": null,
    "office_name_kana": null
  },
  "1115": {
    "postcode": "3291115",
    "prefecture": "栃木県",
    "prefecture_kana": "トチギケン",
    "prefecture_code": 9,
    "city": "宇都宮市",
    "city_kana": "ウツノミヤシ",
    "town": "下田原町",
    "town_kana": "シモタワラチョウ",
    "street": null,
    "office_name": null,
    "office_name_kana": null
  },
  "1116": {
    "postcode": "3291116",
    "prefecture": "栃木県",
    "prefecture_kana": "トチギケン",
    "prefecture_code": 9,
    "city": "宇都宮市",
    "city_kana": "ウツノミヤシ",
    "town": "立伏町",
    "town_kana": "リュウブクチョウ",
    "street": null,
    "office_name": null,
    "office_name_kana": null
  },
  "1117": {
    "postcode": "3291117",
    "prefecture": "栃木県",
    "prefecture_kana": "トチギケン",
    "prefecture_code": 9,
    "city": "宇都宮市",
    "city_kana": "ウツノミヤシ",
    "town": "叶谷町",
    "town_kana": "カノウヤチョウ",
    "street": null,
    "office_name": null,
    "office_name_kana": null
  },
  "1193": {
    "postcode": "3291193",
    "prefecture": "栃木県",
    "prefecture_kana": "トチギケン",
    "prefecture_code": 9,
    "city": "宇都宮市",
    "city_kana": "ウツノミヤシ",
    "town": "下岡本町",
    "town_kana": "シモオカモトチョウ",
    "street": "２１６０",
    "office_name": "独立行政法人　国立病院機構　宇都宮病院",
    "office_name_kana": "ドクリツギヨウセイホウジン コクリツビヨウインキコウ ウツノミヤビヨウイン"
  },
  "1194": {
    "postcode": "3291194",
    "prefecture": "栃木県",
    "prefecture_kana": "トチギケン",
    "prefecture_code": 9,
    "city": "宇都宮市",
    "city_kana": "ウツノミヤシ",
    "town": "下岡本町",
    "town_kana": "シモオカモトチョウ",
    "street": "２１４５−１３",
    "office_name": "財団法人　栃木県保健衛生事業団　岡本水質食品検査所",
    "office_name_kana": "ザイダンホウジン トチギケンホケンエイセイジギヨウダン オカモトスイシツシヨクヒンケンサジヨ"
  },
  "1196": {
    "postcode": "3291196",
    "prefecture": "栃木県",
    "prefecture_kana": "トチギケン",
    "prefecture_code": 9,
    "city": "宇都宮市",
    "city_kana": "ウツノミヤシ",
    "town": "下岡本町",
    "town_kana": "シモオカモトチョウ",
    "street": "２１４５−１３",
    "office_name": "栃木県保健環境センター",
    "office_name_kana": "トチギケンホケンカンキヨウセンタ-"
  },
  "1198": {
    "postcode": "3291198",
    "prefecture": "栃木県",
    "prefecture_kana": "トチギケン",
    "prefecture_code": 9,
    "city": "宇都宮市",
    "city_kana": "ウツノミヤシ",
    "town": "下岡本町",
    "town_kana": "シモオカモトチョウ",
    "street": "２１４５−１３",
    "office_name": "財団法人　栃木県環境技術協会",
    "office_name_kana": "ザイダンホウジン トチギケンカンキヨウギジユツキヨウカイ"
  },
  "1200": {
    "postcode": "3291200",
    "prefecture": "栃木県",
    "prefecture_kana": "トチギケン",
    "prefecture_code": 9,
    "city": "塩谷郡高根沢町",
    "city_kana": "シオヤグンタカネザワマチ",
    "town": "",
    "town_kana": "",
    "street": null,
    "office_name": null,
    "office_name_kana": null
  },
  "1201": {
    "postcode": "3291201",
    "prefecture": "栃木県",
    "prefecture_kana": "トチギケン",
    "prefecture_code": 9,
    "city": "塩谷郡高根沢町",
    "city_kana": "シオヤグンタカネザワマチ",
    "town": "柿木沢",
    "town_kana": "カキノキザワ",
    "street": null,
    "office_name": null,
    "office_name_kana": null
  },
  "1202": {
    "postcode": "3291202",
    "prefecture": "栃木県",
    "prefecture_kana": "トチギケン",
    "prefecture_code": 9,
    "city": "塩谷郡高根沢町",
    "city_kana": "シオヤグンタカネザワマチ",
    "town": "狭間田",
    "town_kana": "ハサマタ",
    "street": null,
    "office_name": null,
    "office_name_kana": null
  },
  "1203": {
    "postcode": "3291203",
    "prefecture": "栃木県",
    "prefecture_kana": "トチギケン",
    "prefecture_code": 9,
    "city": "塩谷郡高根沢町",
    "city_kana": "シオヤグンタカネザワマチ",
    "town": "伏久",
    "town_kana": "フスク",
    "street": null,
    "office_name": null,
    "office_name_kana": null
  },
  "1204": {
    "postcode": "3291204",
    "prefecture": "栃木県",
    "prefecture_kana": "トチギケン",
    "prefecture_code": 9,
    "city": "塩谷郡高根沢町",
    "city_kana": "シオヤグンタカネザワマチ",
    "town": "文挾",
    "town_kana": "フバサミ",
    "street": null,
    "office_name": null,
    "office_name_kana": null
  },
  "1205": {
    "postcode": "3291205",
    "prefecture": "栃木県",
    "prefecture_kana": "トチギケン",
    "prefecture_code": 9,
    "city": "塩谷郡高根沢町",
    "city_kana": "シオヤグンタカネザワマチ",
    "town": "飯室",
    "town_kana": "イイムロ",
    "street": null,
    "office_name": null,
    "office_name_kana": null
  },
  "1206": {
    "postcode": "3291206",
    "prefecture": "栃木県",
    "prefecture_kana": "トチギケン",
    "prefecture_code": 9,
    "city": "塩谷郡高根沢町",
    "city_kana": "シオヤグンタカネザワマチ",
    "town": "平田",
    "town_kana": "ヒラタ",
    "street": null,
    "office_name": null,
    "office_name_kana": null
  },
  "1207": {
    "postcode": "3291207",
    "prefecture": "栃木県",
    "prefecture_kana": "トチギケン",
    "prefecture_code": 9,
    "city": "塩谷郡高根沢町",
    "city_kana": "シオヤグンタカネザワマチ",
    "town": "花岡",
    "town_kana": "ハナオカ",
    "street": null,
    "office_name": null,
    "office_name_kana": null
  },
  "1211": {
    "postcode": "3291211",
    "prefecture": "栃木県",
    "prefecture_kana": "トチギケン",
    "prefecture_code": 9,
    "city": "塩谷郡高根沢町",
    "city_kana": "シオヤグンタカネザワマチ",
    "town": "亀梨",
    "town_kana": "カメナシ",
    "street": null,
    "office_name": null,
    "office_name_kana": null
  },
  "1212": {
    "postcode": "3291212",
    "prefecture": "栃木県",
    "prefecture_kana": "トチギケン",
    "prefecture_code": 9,
    "city": "塩谷郡高根沢町",
    "city_kana": "シオヤグンタカネザワマチ",
    "town": "上柏崎",
    "town_kana": "カミカシワザキ",
    "street": null,
    "office_name": null,
    "office_name_kana": null
  },
  "1213": {
    "postcode": "3291213",
    "prefecture": "栃木県",
    "prefecture_kana": "トチギケン",
    "prefecture_code": 9,
    "city": "塩谷郡高根沢町",
    "city_kana": "シオヤグンタカネザワマチ",
    "town": "下柏崎",
    "town_kana": "シモカシワザキ",
    "street": null,
    "office_name": null,
    "office_name_kana": null
  },
  "1214": {
    "postcode": "3291214",
    "prefecture": "栃木県",
    "prefecture_kana": "トチギケン",
    "prefecture_code": 9,
    "city": "塩谷郡高根沢町",
    "city_kana": "シオヤグンタカネザワマチ",
    "town": "中柏崎",
    "town_kana": "ナカカシワザキ",
    "street": null,
    "office_name": null,
    "office_name_kana": null
  },
  "1215": {
    "postcode": "3291215",
    "prefecture": "栃木県",
    "prefecture_kana": "トチギケン",
    "prefecture_code": 9,
    "city": "塩谷郡高根沢町",
    "city_kana": "シオヤグンタカネザワマチ",
    "town": "給部",
    "town_kana": "キュウブ",
    "street": null,
    "office_name": null,
    "office_name_kana": null
  },
  "1216": {
    "postcode": "3291216",
    "prefecture": "栃木県",
    "prefecture_kana": "トチギケン",
    "prefecture_code": 9,
    "city": "塩谷郡高根沢町",
    "city_kana": "シオヤグンタカネザワマチ",
    "town": "桑窪",
    "town_kana": "クワクボ",
    "street": null,
    "office_name": null,
    "office_name_kana": null
  },
  "1217": {
    "postcode": "3291217",
    "prefecture": "栃木県",
    "prefecture_kana": "トチギケン",
    "prefecture_code": 9,
    "city": "塩谷郡高根沢町",
    "city_kana": "シオヤグンタカネザワマチ",
    "town": "太田",
    "town_kana": "オオタ",
    "street": null,
    "office_name": null,
    "office_name_kana": null
  },
  "1221": {
    "postcode": "3291221",
    "prefecture": "栃木県",
    "prefecture_kana": "トチギケン",
    "prefecture_code": 9,
    "city": "塩谷郡高根沢町",
    "city_kana": "シオヤグンタカネザワマチ",
    "town": "西高谷",
    "town_kana": "ニシゴウヤ",
    "street": null,
    "office_name": null,
    "office_name_kana": null
  },
  "1222": {
    "postcode": "3291222",
    "prefecture": "栃木県",
    "prefecture_kana": "トチギケン",
    "prefecture_code": 9,
    "city": "塩谷郡高根沢町",
    "city_kana": "シオヤグンタカネザワマチ",
    "town": "寺渡戸",
    "town_kana": "テラワタド",
    "street": null,
    "office_name": null,
    "office_name_kana": null
  },
  "1223": {
    "postcode": "3291223",
    "prefecture": "栃木県",
    "prefecture_kana": "トチギケン",
    "prefecture_code": 9,
    "city": "塩谷郡高根沢町",
    "city_kana": "シオヤグンタカネザワマチ",
    "town": "栗ケ島",
    "town_kana": "クリガシマ",
    "street": null,
    "office_name": null,
    "office_name_kana": null
  },
  "1224": {
    "postcode": "3291224",
    "prefecture": "栃木県",
    "prefecture_kana": "トチギケン",
    "prefecture_code": 9,
    "city": "塩谷郡高根沢町",
    "city_kana": "シオヤグンタカネザワマチ",
    "town": "上高根沢",
    "town_kana": "カミタカネザワ",
    "street": null,
    "office_name": null,
    "office_name_kana": null
  },
  "1225": {
    "postcode": "3291225",
    "prefecture": "栃木県",
    "prefecture_kana": "トチギケン",
    "prefecture_code": 9,
    "city": "塩谷郡高根沢町",
    "city_kana": "シオヤグンタカネザワマチ",
    "town": "石末",
    "town_kana": "イシズエ",
    "street": null,
    "office_name": null,
    "office_name_kana": null
  },
  "1226": {
    "postcode": "3291226",
    "prefecture": "栃木県",
    "prefecture_kana": "トチギケン",
    "prefecture_code": 9,
    "city": "塩谷郡高根沢町",
    "city_kana": "シオヤグンタカネザワマチ",
    "town": "大谷",
    "town_kana": "オオヤ",
    "street": null,
    "office_name": null,
    "office_name_kana": null
  },
  "1231": {
    "postcode": "3291231",
    "prefecture": "栃木県",
    "prefecture_kana": "トチギケン",
    "prefecture_code": 9,
    "city": "塩谷郡高根沢町",
    "city_kana": "シオヤグンタカネザワマチ",
    "town": "宝石台",
    "town_kana": "ホウセキダイ",
    "street": null,
    "office_name": null,
    "office_name_kana": null
  },
  "1232": {
    "postcode": "3291232",
    "prefecture": "栃木県",
    "prefecture_kana": "トチギケン",
    "prefecture_code": 9,
    "city": "塩谷郡高根沢町",
    "city_kana": "シオヤグンタカネザワマチ",
    "town": "光陽台",
    "town_kana": "コウヨウダイ",
    "street": null,
    "office_name": null,
    "office_name_kana": null
  },
  "1233": {
    "postcode": "3291233",
    "prefecture": "栃木県",
    "prefecture_kana": "トチギケン",
    "prefecture_code": 9,
    "city": "塩谷郡高根沢町",
    "city_kana": "シオヤグンタカネザワマチ",
    "town": "宝積寺",
    "town_kana": "ホウシャクジ",
    "street": null,
    "office_name": null,
    "office_name_kana": null
  },
  "1234": {
    "postcode": "3291234",
    "prefecture": "栃木県",
    "prefecture_kana": "トチギケン",
    "prefecture_code": 9,
    "city": "塩谷郡高根沢町",
    "city_kana": "シオヤグンタカネザワマチ",
    "town": "中阿久津",
    "town_kana": "ナカアクツ",
    "street": null,
    "office_name": null,
    "office_name_kana": null
  },
  "1235": {
    "postcode": "3291235",
    "prefecture": "栃木県",
    "prefecture_kana": "トチギケン",
    "prefecture_code": 9,
    "city": "塩谷郡高根沢町",
    "city_kana": "シオヤグンタカネザワマチ",
    "town": "上阿久津",
    "town_kana": "カミアクツ",
    "street": null,
    "office_name": null,
    "office_name_kana": null
  },
  "1292": {
    "postcode": "3291292",
    "prefecture": "栃木県",
    "prefecture_kana": "トチギケン",
    "prefecture_code": 9,
    "city": "塩谷郡高根沢町",
    "city_kana": "シオヤグンタカネザワマチ",
    "town": "大字石末",
    "town_kana": null,
    "street": "２０５３",
    "office_name": "高根沢町役場",
    "office_name_kana": "タカネザワマチヤクバ"
  },
  "1300": {
    "postcode": "3291300",
    "prefecture": "栃木県",
    "prefecture_kana": "トチギケン",
    "prefecture_code": 9,
    "city": "さくら市",
    "city_kana": "サクラシ",
    "town": "",
    "town_kana": "",
    "street": null,
    "office_name": null,
    "office_name_kana": null
  },
  "1301": {
    "postcode": "3291301",
    "prefecture": "栃木県",
    "prefecture_kana": "トチギケン",
    "prefecture_code": 9,
    "city": "さくら市",
    "city_kana": "サクラシ",
    "town": "箱森新田",
    "town_kana": "ハコノモリシンデン",
    "street": null,
    "office_name": null,
    "office_name_kana": null
  },
  "1302": {
    "postcode": "3291302",
    "prefecture": "栃木県",
    "prefecture_kana": "トチギケン",
    "prefecture_code": 9,
    "city": "さくら市",
    "city_kana": "サクラシ",
    "town": "松山新田",
    "town_kana": "マツヤマシンデン",
    "street": null,
    "office_name": null,
    "office_name_kana": null
  },
  "1303": {
    "postcode": "3291303",
    "prefecture": "栃木県",
    "prefecture_kana": "トチギケン",
    "prefecture_code": 9,
    "city": "さくら市",
    "city_kana": "サクラシ",
    "town": "松山",
    "town_kana": "マツヤマ",
    "street": null,
    "office_name": null,
    "office_name_kana": null
  },
  "1304": {
    "postcode": "3291304",
    "prefecture": "栃木県",
    "prefecture_kana": "トチギケン",
    "prefecture_code": 9,
    "city": "さくら市",
    "city_kana": "サクラシ",
    "town": "鍛冶ケ沢",
    "town_kana": "カジガサワ",
    "street": null,
    "office_name": null,
    "office_name_kana": null
  },
  "1305": {
    "postcode": "3291305",
    "prefecture": "栃木県",
    "prefecture_kana": "トチギケン",
    "prefecture_code": 9,
    "city": "さくら市",
    "city_kana": "サクラシ",
    "town": "狹間田",
    "town_kana": "ハサマダ",
    "street": null,
    "office_name": null,
    "office_name_kana": null
  },
  "1306": {
    "postcode": "3291306",
    "prefecture": "栃木県",
    "prefecture_kana": "トチギケン",
    "prefecture_code": 9,
    "city": "さくら市",
    "city_kana": "サクラシ",
    "town": "上野",
    "town_kana": "ウワノ",
    "street": null,
    "office_name": null,
    "office_name_kana": null
  },
  "1311": {
    "postcode": "3291311",
    "prefecture": "栃木県",
    "prefecture_kana": "トチギケン",
    "prefecture_code": 9,
    "city": "さくら市",
    "city_kana": "サクラシ",
    "town": "氏家",
    "town_kana": "ウジイエ",
    "street": null,
    "office_name": null,
    "office_name_kana": null
  },
  "1312": {
    "postcode": "3291312",
    "prefecture": "栃木県",
    "prefecture_kana": "トチギケン",
    "prefecture_code": 9,
    "city": "さくら市",
    "city_kana": "サクラシ",
    "town": "櫻野",
    "town_kana": "サクラノ",
    "street": null,
    "office_name": null,
    "office_name_kana": null
  },
  "1313": {
    "postcode": "3291313",
    "prefecture": "栃木県",
    "prefecture_kana": "トチギケン",
    "prefecture_code": 9,
    "city": "さくら市",
    "city_kana": "サクラシ",
    "town": "柿木沢新田",
    "town_kana": "カキノキザワシンデン",
    "street": null,
    "office_name": null,
    "office_name_kana": null
  },
  "1314": {
    "postcode": "3291314",
    "prefecture": "栃木県",
    "prefecture_kana": "トチギケン",
    "prefecture_code": 9,
    "city": "さくら市",
    "city_kana": "サクラシ",
    "town": "柿木沢",
    "town_kana": "カキノキザワ",
    "street": null,
    "office_name": null,
    "office_name_kana": null
  },
  "1315": {
    "postcode": "3291315",
    "prefecture": "栃木県",
    "prefecture_kana": "トチギケン",
    "prefecture_code": 9,
    "city": "さくら市",
    "city_kana": "サクラシ",
    "town": "氏家新田",
    "town_kana": "ウジイエシンデン",
    "street": null,
    "office_name": null,
    "office_name_kana": null
  },
  "1316": {
    "postcode": "3291316",
    "prefecture": "栃木県",
    "prefecture_kana": "トチギケン",
    "prefecture_code": 9,
    "city": "さくら市",
    "city_kana": "サクラシ",
    "town": "上阿久津",
    "town_kana": "カミアクツ",
    "street": null,
    "office_name": null,
    "office_name_kana": null
  },
  "1317": {
    "postcode": "3291317",
    "prefecture": "栃木県",
    "prefecture_kana": "トチギケン",
    "prefecture_code": 9,
    "city": "さくら市",
    "city_kana": "サクラシ",
    "town": "きぬの里",
    "town_kana": "キヌノサト",
    "street": null,
    "office_name": null,
    "office_name_kana": null
  },
  "1321": {
    "postcode": "3291321",
    "prefecture": "栃木県",
    "prefecture_kana": "トチギケン",
    "prefecture_code": 9,
    "city": "さくら市",
    "city_kana": "サクラシ",
    "town": "馬場",
    "town_kana": "ババ",
    "street": null,
    "office_name": null,
    "office_name_kana": null
  },
  "1322": {
    "postcode": "3291322",
    "prefecture": "栃木県",
    "prefecture_kana": "トチギケン",
    "prefecture_code": 9,
    "city": "さくら市",
    "city_kana": "サクラシ",
    "town": "北草川",
    "town_kana": "キタクサガワ",
    "street": null,
    "office_name": null,
    "office_name_kana": null
  },
  "1323": {
    "postcode": "3291323",
    "prefecture": "栃木県",
    "prefecture_kana": "トチギケン",
    "prefecture_code": 9,
    "city": "さくら市",
    "city_kana": "サクラシ",
    "town": "卯の里",
    "town_kana": "ウノサト",
    "street": null,
    "office_name": null,
    "office_name_kana": null
  },
  "1324": {
    "postcode": "3291324",
    "prefecture": "栃木県",
    "prefecture_kana": "トチギケン",
    "prefecture_code": 9,
    "city": "さくら市",
    "city_kana": "サクラシ",
    "town": "草川",
    "town_kana": "クサガワ",
    "street": null,
    "office_name": null,
    "office_name_kana": null
  },
  "1325": {
    "postcode": "3291325",
    "prefecture": "栃木県",
    "prefecture_kana": "トチギケン",
    "prefecture_code": 9,
    "city": "さくら市",
    "city_kana": "サクラシ",
    "town": "大中",
    "town_kana": "オオナカ",
    "street": null,
    "office_name": null,
    "office_name_kana": null
  },
  "1326": {
    "postcode": "3291326",
    "prefecture": "栃木県",
    "prefecture_kana": "トチギケン",
    "prefecture_code": 9,
    "city": "さくら市",
    "city_kana": "サクラシ",
    "town": "向河原",
    "town_kana": "ムコウガワラ",
    "street": null,
    "office_name": null,
    "office_name_kana": null
  },
  "1327": {
    "postcode": "3291327",
    "prefecture": "栃木県",
    "prefecture_kana": "トチギケン",
    "prefecture_code": 9,
    "city": "さくら市",
    "city_kana": "サクラシ",
    "town": "富野岡",
    "town_kana": "トミノオカ",
    "street": null,
    "office_name": null,
    "office_name_kana": null
  },
  "1331": {
    "postcode": "3291331",
    "prefecture": "栃木県",
    "prefecture_kana": "トチギケン",
    "prefecture_code": 9,
    "city": "さくら市",
    "city_kana": "サクラシ",
    "town": "松島",
    "town_kana": "マツシマ",
    "street": null,
    "office_name": null,
    "office_name_kana": null
  },
  "1332": {
    "postcode": "3291332",
    "prefecture": "栃木県",
    "prefecture_kana": "トチギケン",
    "prefecture_code": 9,
    "city": "さくら市",
    "city_kana": "サクラシ",
    "town": "蒲須坂",
    "town_kana": "カマスサカ",
    "street": null,
    "office_name": null,
    "office_name_kana": null
  },
  "1333": {
    "postcode": "3291333",
    "prefecture": "栃木県",
    "prefecture_kana": "トチギケン",
    "prefecture_code": 9,
    "city": "さくら市",
    "city_kana": "サクラシ",
    "town": "長久保",
    "town_kana": "ナガクボ",
    "street": null,
    "office_name": null,
    "office_name_kana": null
  },
  "1334": {
    "postcode": "3291334",
    "prefecture": "栃木県",
    "prefecture_kana": "トチギケン",
    "prefecture_code": 9,
    "city": "さくら市",
    "city_kana": "サクラシ",
    "town": "押上",
    "town_kana": "オシアゲ",
    "street": null,
    "office_name": null,
    "office_name_kana": null
  },
  "1392": {
    "postcode": "3291392",
    "prefecture": "栃木県",
    "prefecture_kana": "トチギケン",
    "prefecture_code": 9,
    "city": "さくら市",
    "city_kana": "サクラシ",
    "town": "氏家",
    "town_kana": "ウジイエ",
    "street": "２７７１",
    "office_name": "さくら市役所",
    "office_name_kana": "サクラシヤクシヨ"
  },
  "1393": {
    "postcode": "3291393",
    "prefecture": "栃木県",
    "prefecture_kana": "トチギケン",
    "prefecture_code": 9,
    "city": "さくら市",
    "city_kana": "サクラシ",
    "town": "氏家",
    "town_kana": "ウジイエ",
    "street": "２４３１",
    "office_name": "氏家税務署",
    "office_name_kana": "ウジイエゼイムシヨ"
  },
  "1395": {
    "postcode": "3291395",
    "prefecture": "栃木県",
    "prefecture_kana": "トチギケン",
    "prefecture_code": 9,
    "city": "さくら市",
    "city_kana": "サクラシ",
    "town": "氏家",
    "town_kana": "ウジイエ",
    "street": "２６５０",
    "office_name": "社団医療法人　恵生会　黒須病院",
    "office_name_kana": "シヤダンイリヨウホウジン エジヨウカイ クロスビヨウイン"
  },
  "1401": {
    "postcode": "3291401",
    "prefecture": "栃木県",
    "prefecture_kana": "トチギケン",
    "prefecture_code": 9,
    "city": "さくら市",
    "city_kana": "サクラシ",
    "town": "上河戸",
    "town_kana": "カミコウド",
    "street": null,
    "office_name": null,
    "office_name_kana": null
  },
  "1402": {
    "postcode": "3291402",
    "prefecture": "栃木県",
    "prefecture_kana": "トチギケン",
    "prefecture_code": 9,
    "city": "さくら市",
    "city_kana": "サクラシ",
    "town": "下河戸",
    "town_kana": "シモコウド",
    "street": null,
    "office_name": null,
    "office_name_kana": null
  },
  "1403": {
    "postcode": "3291403",
    "prefecture": "栃木県",
    "prefecture_kana": "トチギケン",
    "prefecture_code": 9,
    "city": "さくら市",
    "city_kana": "サクラシ",
    "town": "穂積",
    "town_kana": "ホヅミ",
    "street": null,
    "office_name": null,
    "office_name_kana": null
  },
  "1404": {
    "postcode": "3291404",
    "prefecture": "栃木県",
    "prefecture_kana": "トチギケン",
    "prefecture_code": 9,
    "city": "さくら市",
    "city_kana": "サクラシ",
    "town": "鹿子畑",
    "town_kana": "カノコハタ",
    "street": null,
    "office_name": null,
    "office_name_kana": null
  },
  "1405": {
    "postcode": "3291405",
    "prefecture": "栃木県",
    "prefecture_kana": "トチギケン",
    "prefecture_code": 9,
    "city": "さくら市",
    "city_kana": "サクラシ",
    "town": "金枝",
    "town_kana": "カナエダ",
    "street": null,
    "office_name": null,
    "office_name_kana": null
  },
  "1406": {
    "postcode": "3291406",
    "prefecture": "栃木県",
    "prefecture_kana": "トチギケン",
    "prefecture_code": 9,
    "city": "さくら市",
    "city_kana": "サクラシ",
    "town": "南和田",
    "town_kana": "ミナミワダ",
    "street": null,
    "office_name": null,
    "office_name_kana": null
  },
  "1411": {
    "postcode": "3291411",
    "prefecture": "栃木県",
    "prefecture_kana": "トチギケン",
    "prefecture_code": 9,
    "city": "さくら市",
    "city_kana": "サクラシ",
    "town": "鷲宿",
    "town_kana": "ワシジュク",
    "street": null,
    "office_name": null,
    "office_name_kana": null
  },
  "1412": {
    "postcode": "3291412",
    "prefecture": "栃木県",
    "prefecture_kana": "トチギケン",
    "prefecture_code": 9,
    "city": "さくら市",
    "city_kana": "サクラシ",
    "town": "喜連川",
    "town_kana": "キツレガワ",
    "street": null,
    "office_name": null,
    "office_name_kana": null
  },
  "1413": {
    "postcode": "3291413",
    "prefecture": "栃木県",
    "prefecture_kana": "トチギケン",
    "prefecture_code": 9,
    "city": "さくら市",
    "city_kana": "サクラシ",
    "town": "葛城",
    "town_kana": "カツラギ",
    "street": null,
    "office_name": null,
    "office_name_kana": null
  },
  "1414": {
    "postcode": "3291414",
    "prefecture": "栃木県",
    "prefecture_kana": "トチギケン",
    "prefecture_code": 9,
    "city": "さくら市",
    "city_kana": "サクラシ",
    "town": "早乙女",
    "town_kana": "ソウトメ",
    "street": null,
    "office_name": null,
    "office_name_kana": null
  },
  "1415": {
    "postcode": "3291415",
    "prefecture": "栃木県",
    "prefecture_kana": "トチギケン",
    "prefecture_code": 9,
    "city": "さくら市",
    "city_kana": "サクラシ",
    "town": "小入",
    "town_kana": "オイレ",
    "street": null,
    "office_name": null,
    "office_name_kana": null
  },
  "1416": {
    "postcode": "3291416",
    "prefecture": "栃木県",
    "prefecture_kana": "トチギケン",
    "prefecture_code": 9,
    "city": "さくら市",
    "city_kana": "サクラシ",
    "town": "桜ケ丘",
    "town_kana": "サクラガオカ",
    "street": null,
    "office_name": null,
    "office_name_kana": null
  },
  "1417": {
    "postcode": "3291417",
    "prefecture": "栃木県",
    "prefecture_kana": "トチギケン",
    "prefecture_code": 9,
    "city": "さくら市",
    "city_kana": "サクラシ",
    "town": "フィオーレ喜連川",
    "town_kana": "フィオーレキツレガワ",
    "street": null,
    "office_name": null,
    "office_name_kana": null
  },
  "1493": {
    "postcode": "3291493",
    "prefecture": "栃木県",
    "prefecture_kana": "トチギケン",
    "prefecture_code": 9,
    "city": "さくら市",
    "city_kana": "サクラシ",
    "town": "喜連川",
    "town_kana": "キツレガワ",
    "street": "５５４７",
    "office_name": "喜連川社会復帰促進センター",
    "office_name_kana": "キツレガワシヤカイフツキソクシンセンタ-"
  },
  "1571": {
    "postcode": "3291571",
    "prefecture": "栃木県",
    "prefecture_kana": "トチギケン",
    "prefecture_code": 9,
    "city": "矢板市",
    "city_kana": "ヤイタシ",
    "town": "片岡",
    "town_kana": "カタオカ",
    "street": null,
    "office_name": null,
    "office_name_kana": null
  },
  "1572": {
    "postcode": "3291572",
    "prefecture": "栃木県",
    "prefecture_kana": "トチギケン",
    "prefecture_code": 9,
    "city": "矢板市",
    "city_kana": "ヤイタシ",
    "town": "安沢",
    "town_kana": "アンザワ",
    "street": null,
    "office_name": null,
    "office_name_kana": null
  },
  "1573": {
    "postcode": "3291573",
    "prefecture": "栃木県",
    "prefecture_kana": "トチギケン",
    "prefecture_code": 9,
    "city": "矢板市",
    "city_kana": "ヤイタシ",
    "town": "越畑",
    "town_kana": "コエハタ",
    "street": null,
    "office_name": null,
    "office_name_kana": null
  },
  "1574": {
    "postcode": "3291574",
    "prefecture": "栃木県",
    "prefecture_kana": "トチギケン",
    "prefecture_code": 9,
    "city": "矢板市",
    "city_kana": "ヤイタシ",
    "town": "乙畑",
    "town_kana": "オツハタ",
    "street": null,
    "office_name": null,
    "office_name_kana": null
  },
  "1575": {
    "postcode": "3291575",
    "prefecture": "栃木県",
    "prefecture_kana": "トチギケン",
    "prefecture_code": 9,
    "city": "矢板市",
    "city_kana": "ヤイタシ",
    "town": "大槻",
    "town_kana": "オオツキ",
    "street": null,
    "office_name": null,
    "office_name_kana": null
  },
  "1576": {
    "postcode": "3291576",
    "prefecture": "栃木県",
    "prefecture_kana": "トチギケン",
    "prefecture_code": 9,
    "city": "矢板市",
    "city_kana": "ヤイタシ",
    "town": "石関",
    "town_kana": "イシゼキ",
    "street": null,
    "office_name": null,
    "office_name_kana": null
  },
  "1577": {
    "postcode": "3291577",
    "prefecture": "栃木県",
    "prefecture_kana": "トチギケン",
    "prefecture_code": 9,
    "city": "矢板市",
    "city_kana": "ヤイタシ",
    "town": "玉田",
    "town_kana": "タマダ",
    "street": null,
    "office_name": null,
    "office_name_kana": null
  },
  "1578": {
    "postcode": "3291578",
    "prefecture": "栃木県",
    "prefecture_kana": "トチギケン",
    "prefecture_code": 9,
    "city": "矢板市",
    "city_kana": "ヤイタシ",
    "town": "山苗代",
    "town_kana": "ヤマナワシロ",
    "street": null,
    "office_name": null,
    "office_name_kana": null
  },
  "1579": {
    "postcode": "3291579",
    "prefecture": "栃木県",
    "prefecture_kana": "トチギケン",
    "prefecture_code": 9,
    "city": "矢板市",
    "city_kana": "ヤイタシ",
    "town": "こぶし台",
    "town_kana": "コブシダイ",
    "street": null,
    "office_name": null,
    "office_name_kana": null
  },
  "2100": {
    "postcode": "3292100",
    "prefecture": "栃木県",
    "prefecture_kana": "トチギケン",
    "prefecture_code": 9,
    "city": "矢板市",
    "city_kana": "ヤイタシ",
    "town": "",
    "town_kana": "",
    "street": null,
    "office_name": null,
    "office_name_kana": null
  },
  "2121": {
    "postcode": "3292121",
    "prefecture": "栃木県",
    "prefecture_kana": "トチギケン",
    "prefecture_code": 9,
    "city": "矢板市",
    "city_kana": "ヤイタシ",
    "town": "荒井",
    "town_kana": "アライ",
    "street": null,
    "office_name": null,
    "office_name_kana": null
  },
  "2122": {
    "postcode": "3292122",
    "prefecture": "栃木県",
    "prefecture_kana": "トチギケン",
    "prefecture_code": 9,
    "city": "矢板市",
    "city_kana": "ヤイタシ",
    "town": "針生",
    "town_kana": "ハリウ",
    "street": null,
    "office_name": null,
    "office_name_kana": null
  },
  "2123": {
    "postcode": "3292123",
    "prefecture": "栃木県",
    "prefecture_kana": "トチギケン",
    "prefecture_code": 9,
    "city": "矢板市",
    "city_kana": "ヤイタシ",
    "town": "上町",
    "town_kana": "カミチョウ",
    "street": null,
    "office_name": null,
    "office_name_kana": null
  },
  "2124": {
    "postcode": "3292124",
    "prefecture": "栃木県",
    "prefecture_kana": "トチギケン",
    "prefecture_code": 9,
    "city": "矢板市",
    "city_kana": "ヤイタシ",
    "town": "下太田",
    "town_kana": "シモオオタ",
    "street": null,
    "office_name": null,
    "office_name_kana": null
  },
  "2131": {
    "postcode": "3292131",
    "prefecture": "栃木県",
    "prefecture_kana": "トチギケン",
    "prefecture_code": 9,
    "city": "矢板市",
    "city_kana": "ヤイタシ",
    "town": "土屋",
    "town_kana": "ツチヤ",
    "street": null,
    "office_name": null,
    "office_name_kana": null
  },
  "2132": {
    "postcode": "3292132",
    "prefecture": "栃木県",
    "prefecture_kana": "トチギケン",
    "prefecture_code": 9,
    "city": "矢板市",
    "city_kana": "ヤイタシ",
    "town": "沢",
    "town_kana": "サワ",
    "street": null,
    "office_name": null,
    "office_name_kana": null
  },
  "2133": {
    "postcode": "3292133",
    "prefecture": "栃木県",
    "prefecture_kana": "トチギケン",
    "prefecture_code": 9,
    "city": "矢板市",
    "city_kana": "ヤイタシ",
    "town": "豊田",
    "town_kana": "トヨダ",
    "street": null,
    "office_name": null,
    "office_name_kana": null
  },
  "2134": {
    "postcode": "3292134",
    "prefecture": "栃木県",
    "prefecture_kana": "トチギケン",
    "prefecture_code": 9,
    "city": "矢板市",
    "city_kana": "ヤイタシ",
    "town": "成田",
    "town_kana": "ナリタ",
    "street": null,
    "office_name": null,
    "office_name_kana": null
  },
  "2135": {
    "postcode": "3292135",
    "prefecture": "栃木県",
    "prefecture_kana": "トチギケン",
    "prefecture_code": 9,
    "city": "矢板市",
    "city_kana": "ヤイタシ",
    "town": "中",
    "town_kana": "ナカ",
    "street": null,
    "office_name": null,
    "office_name_kana": null
  },
  "2136": {
    "postcode": "3292136",
    "prefecture": "栃木県",
    "prefecture_kana": "トチギケン",
    "prefecture_code": 9,
    "city": "矢板市",
    "city_kana": "ヤイタシ",
    "town": "東町",
    "town_kana": "アズマチョウ",
    "street": null,
    "office_name": null,
    "office_name_kana": null
  },
  "2141": {
    "postcode": "3292141",
    "prefecture": "栃木県",
    "prefecture_kana": "トチギケン",
    "prefecture_code": 9,
    "city": "矢板市",
    "city_kana": "ヤイタシ",
    "town": "早川町",
    "town_kana": "ハヤカワチョウ",
    "street": null,
    "office_name": null,
    "office_name_kana": null
  },
  "2142": {
    "postcode": "3292142",
    "prefecture": "栃木県",
    "prefecture_kana": "トチギケン",
    "prefecture_code": 9,
    "city": "矢板市",
    "city_kana": "ヤイタシ",
    "town": "木幡",
    "town_kana": "キバタ",
    "street": null,
    "office_name": null,
    "office_name_kana": null
  },
  "2143": {
    "postcode": "3292143",
    "prefecture": "栃木県",
    "prefecture_kana": "トチギケン",
    "prefecture_code": 9,
    "city": "矢板市",
    "city_kana": "ヤイタシ",
    "town": "境林",
    "town_kana": "サカイバヤシ",
    "street": null,
    "office_name": null,
    "office_name_kana": null
  },
  "2144": {
    "postcode": "3292144",
    "prefecture": "栃木県",
    "prefecture_kana": "トチギケン",
    "prefecture_code": 9,
    "city": "矢板市",
    "city_kana": "ヤイタシ",
    "town": "川崎反町",
    "town_kana": "カワサキソリマチ",
    "street": null,
    "office_name": null,
    "office_name_kana": null
  },
  "2145": {
    "postcode": "3292145",
    "prefecture": "栃木県",
    "prefecture_kana": "トチギケン",
    "prefecture_code": 9,
    "city": "矢板市",
    "city_kana": "ヤイタシ",
    "town": "富田",
    "town_kana": "トミタ",
    "street": null,
    "office_name": null,
    "office_name_kana": null
  },
  "2151": {
    "postcode": "3292151",
    "prefecture": "栃木県",
    "prefecture_kana": "トチギケン",
    "prefecture_code": 9,
    "city": "矢板市",
    "city_kana": "ヤイタシ",
    "town": "幸岡",
    "town_kana": "コウオカ",
    "street": null,
    "office_name": null,
    "office_name_kana": null
  },
  "2152": {
    "postcode": "3292152",
    "prefecture": "栃木県",
    "prefecture_kana": "トチギケン",
    "prefecture_code": 9,
    "city": "矢板市",
    "city_kana": "ヤイタシ",
    "town": "館ノ川",
    "town_kana": "タテノカワ",
    "street": null,
    "office_name": null,
    "office_name_kana": null
  },
  "2153": {
    "postcode": "3292153",
    "prefecture": "栃木県",
    "prefecture_kana": "トチギケン",
    "prefecture_code": 9,
    "city": "矢板市",
    "city_kana": "ヤイタシ",
    "town": "高塩",
    "town_kana": "タカシオ",
    "street": null,
    "office_name": null,
    "office_name_kana": null
  },
  "2154": {
    "postcode": "3292154",
    "prefecture": "栃木県",
    "prefecture_kana": "トチギケン",
    "prefecture_code": 9,
    "city": "矢板市",
    "city_kana": "ヤイタシ",
    "town": "倉掛",
    "town_kana": "クラカケ",
    "street": null,
    "office_name": null,
    "office_name_kana": null
  },
  "2155": {
    "postcode": "3292155",
    "prefecture": "栃木県",
    "prefecture_kana": "トチギケン",
    "prefecture_code": 9,
    "city": "矢板市",
    "city_kana": "ヤイタシ",
    "town": "片俣",
    "town_kana": "カタマタ",
    "street": null,
    "office_name": null,
    "office_name_kana": null
  },
  "2156": {
    "postcode": "3292156",
    "prefecture": "栃木県",
    "prefecture_kana": "トチギケン",
    "prefecture_code": 9,
    "city": "矢板市",
    "city_kana": "ヤイタシ",
    "town": "塩田",
    "town_kana": "シオダ",
    "street": null,
    "office_name": null,
    "office_name_kana": null
  },
  "2161": {
    "postcode": "3292161",
    "prefecture": "栃木県",
    "prefecture_kana": "トチギケン",
    "prefecture_code": 9,
    "city": "矢板市",
    "city_kana": "ヤイタシ",
    "town": "扇町",
    "town_kana": "オウギチョウ",
    "street": null,
    "office_name": null,
    "office_name_kana": null
  },
  "2162": {
    "postcode": "3292162",
    "prefecture": "栃木県",
    "prefecture_kana": "トチギケン",
    "prefecture_code": 9,
    "city": "矢板市",
    "city_kana": "ヤイタシ",
    "town": "末広町",
    "town_kana": "スエヒロチョウ",
    "street": null,
    "office_name": null,
    "office_name_kana": null
  },
  "2163": {
    "postcode": "3292163",
    "prefecture": "栃木県",
    "prefecture_kana": "トチギケン",
    "prefecture_code": 9,
    "city": "矢板市",
    "city_kana": "ヤイタシ",
    "town": "鹿島町",
    "town_kana": "カシマチョウ",
    "street": null,
    "office_name": null,
    "office_name_kana": null
  },
  "2164": {
    "postcode": "3292164",
    "prefecture": "栃木県",
    "prefecture_kana": "トチギケン",
    "prefecture_code": 9,
    "city": "矢板市",
    "city_kana": "ヤイタシ",
    "town": "本町",
    "town_kana": "ホンチョウ",
    "street": null,
    "office_name": null,
    "office_name_kana": null
  },
  "2165": {
    "postcode": "3292165",
    "prefecture": "栃木県",
    "prefecture_kana": "トチギケン",
    "prefecture_code": 9,
    "city": "矢板市",
    "city_kana": "ヤイタシ",
    "town": "矢板",
    "town_kana": "ヤイタ",
    "street": null,
    "office_name": null,
    "office_name_kana": null
  },
  "2192": {
    "postcode": "3292192",
    "prefecture": "栃木県",
    "prefecture_kana": "トチギケン",
    "prefecture_code": 9,
    "city": "矢板市",
    "city_kana": "ヤイタシ",
    "town": "本町",
    "town_kana": "ホンチョウ",
    "street": "５−４",
    "office_name": "矢板市役所",
    "office_name_kana": "ヤイタシヤクシヨ"
  },
  "2200": {
    "postcode": "3292200",
    "prefecture": "栃木県",
    "prefecture_kana": "トチギケン",
    "prefecture_code": 9,
    "city": "塩谷郡塩谷町",
    "city_kana": "シオヤグンシオヤマチ",
    "town": "",
    "town_kana": "",
    "street": null,
    "office_name": null,
    "office_name_kana": null
  },
  "2211": {
    "postcode": "3292211",
    "prefecture": "栃木県",
    "prefecture_kana": "トチギケン",
    "prefecture_code": 9,
    "city": "塩谷郡塩谷町",
    "city_kana": "シオヤグンシオヤマチ",
    "town": "鳥羽新田",
    "town_kana": "トバシンデン",
    "street": null,
    "office_name": null,
    "office_name_kana": null
  },
  "2212": {
    "postcode": "3292212",
    "prefecture": "栃木県",
    "prefecture_kana": "トチギケン",
    "prefecture_code": 9,
    "city": "塩谷郡塩谷町",
    "city_kana": "シオヤグンシオヤマチ",
    "town": "喜佐見",
    "town_kana": "キザミ",
    "street": null,
    "office_name": null,
    "office_name_kana": null
  },
  "2213": {
    "postcode": "3292213",
    "prefecture": "栃木県",
    "prefecture_kana": "トチギケン",
    "prefecture_code": 9,
    "city": "塩谷郡塩谷町",
    "city_kana": "シオヤグンシオヤマチ",
    "town": "熊ノ木",
    "town_kana": "クマノキ",
    "street": null,
    "office_name": null,
    "office_name_kana": null
  },
  "2214": {
    "postcode": "3292214",
    "prefecture": "栃木県",
    "prefecture_kana": "トチギケン",
    "prefecture_code": 9,
    "city": "塩谷郡塩谷町",
    "city_kana": "シオヤグンシオヤマチ",
    "town": "東房",
    "town_kana": "ヒガシボウ",
    "street": null,
    "office_name": null,
    "office_name_kana": null
  },
  "2215": {
    "postcode": "3292215",
    "prefecture": "栃木県",
    "prefecture_kana": "トチギケン",
    "prefecture_code": 9,
    "city": "塩谷郡塩谷町",
    "city_kana": "シオヤグンシオヤマチ",
    "town": "下寺島",
    "town_kana": "シモテラシマ",
    "street": null,
    "office_name": null,
    "office_name_kana": null
  },
  "2216": {
    "postcode": "3292216",
    "prefecture": "栃木県",
    "prefecture_kana": "トチギケン",
    "prefecture_code": 9,
    "city": "塩谷郡塩谷町",
    "city_kana": "シオヤグンシオヤマチ",
    "town": "上寺島",
    "town_kana": "カミテラシマ",
    "street": null,
    "office_name": null,
    "office_name_kana": null
  },
  "2221": {
    "postcode": "3292221",
    "prefecture": "栃木県",
    "prefecture_kana": "トチギケン",
    "prefecture_code": 9,
    "city": "塩谷郡塩谷町",
    "city_kana": "シオヤグンシオヤマチ",
    "town": "玉生",
    "town_kana": "タマニュウ",
    "street": null,
    "office_name": null,
    "office_name_kana": null
  },
  "2222": {
    "postcode": "3292222",
    "prefecture": "栃木県",
    "prefecture_kana": "トチギケン",
    "prefecture_code": 9,
    "city": "塩谷郡塩谷町",
    "city_kana": "シオヤグンシオヤマチ",
    "town": "道下",
    "town_kana": "ドウシタ",
    "street": null,
    "office_name": null,
    "office_name_kana": null
  },
  "2223": {
    "postcode": "3292223",
    "prefecture": "栃木県",
    "prefecture_kana": "トチギケン",
    "prefecture_code": 9,
    "city": "塩谷郡塩谷町",
    "city_kana": "シオヤグンシオヤマチ",
    "town": "原荻野目",
    "town_kana": "ハラオギノメ",
    "street": null,
    "office_name": null,
    "office_name_kana": null
  },
  "2224": {
    "postcode": "3292224",
    "prefecture": "栃木県",
    "prefecture_kana": "トチギケン",
    "prefecture_code": 9,
    "city": "塩谷郡塩谷町",
    "city_kana": "シオヤグンシオヤマチ",
    "town": "金枝",
    "town_kana": "カナエダ",
    "street": null,
    "office_name": null,
    "office_name_kana": null
  },
  "2225": {
    "postcode": "3292225",
    "prefecture": "栃木県",
    "prefecture_kana": "トチギケン",
    "prefecture_code": 9,
    "city": "塩谷郡塩谷町",
    "city_kana": "シオヤグンシオヤマチ",
    "town": "飯岡",
    "town_kana": "イイオカ",
    "street": null,
    "office_name": null,
    "office_name_kana": null
  },
  "2226": {
    "postcode": "3292226",
    "prefecture": "栃木県",
    "prefecture_kana": "トチギケン",
    "prefecture_code": 9,
    "city": "塩谷郡塩谷町",
    "city_kana": "シオヤグンシオヤマチ",
    "town": "芦場新田",
    "town_kana": "ヨシバシンデン",
    "street": null,
    "office_name": null,
    "office_name_kana": null
  },
  "2292": {
    "postcode": "3292292",
    "prefecture": "栃木県",
    "prefecture_kana": "トチギケン",
    "prefecture_code": 9,
    "city": "塩谷郡塩谷町",
    "city_kana": "シオヤグンシオヤマチ",
    "town": "大字玉生",
    "town_kana": null,
    "street": "９５５番地３",
    "office_name": "塩谷町役場",
    "office_name_kana": "シオヤマチヤクバ"
  },
  "2331": {
    "postcode": "3292331",
    "prefecture": "栃木県",
    "prefecture_kana": "トチギケン",
    "prefecture_code": 9,
    "city": "塩谷郡塩谷町",
    "city_kana": "シオヤグンシオヤマチ",
    "town": "田所",
    "town_kana": "タドコロ",
    "street": null,
    "office_name": null,
    "office_name_kana": null
  },
  "2332": {
    "postcode": "3292332",
    "prefecture": "栃木県",
    "prefecture_kana": "トチギケン",
    "prefecture_code": 9,
    "city": "塩谷郡塩谷町",
    "city_kana": "シオヤグンシオヤマチ",
    "town": "大宮",
    "town_kana": "オオミヤ",
    "street": null,
    "office_name": null,
    "office_name_kana": null
  },
  "2333": {
    "postcode": "3292333",
    "prefecture": "栃木県",
    "prefecture_kana": "トチギケン",
    "prefecture_code": 9,
    "city": "塩谷郡塩谷町",
    "city_kana": "シオヤグンシオヤマチ",
    "town": "肘内",
    "town_kana": "ヒジウチ",
    "street": null,
    "office_name": null,
    "office_name_kana": null
  },
  "2334": {
    "postcode": "3292334",
    "prefecture": "栃木県",
    "prefecture_kana": "トチギケン",
    "prefecture_code": 9,
    "city": "塩谷郡塩谷町",
    "city_kana": "シオヤグンシオヤマチ",
    "town": "大久保",
    "town_kana": "オオクボ",
    "street": null,
    "office_name": null,
    "office_name_kana": null
  },
  "2335": {
    "postcode": "3292335",
    "prefecture": "栃木県",
    "prefecture_kana": "トチギケン",
    "prefecture_code": 9,
    "city": "塩谷郡塩谷町",
    "city_kana": "シオヤグンシオヤマチ",
    "town": "上平",
    "town_kana": "ウワタイラ",
    "street": null,
    "office_name": null,
    "office_name_kana": null
  },
  "2336": {
    "postcode": "3292336",
    "prefecture": "栃木県",
    "prefecture_kana": "トチギケン",
    "prefecture_code": 9,
    "city": "塩谷郡塩谷町",
    "city_kana": "シオヤグンシオヤマチ",
    "town": "風見",
    "town_kana": "カザミ",
    "street": null,
    "office_name": null,
    "office_name_kana": null
  },
  "2337": {
    "postcode": "3292337",
    "prefecture": "栃木県",
    "prefecture_kana": "トチギケン",
    "prefecture_code": 9,
    "city": "塩谷郡塩谷町",
    "city_kana": "シオヤグンシオヤマチ",
    "town": "泉",
    "town_kana": "イズミ",
    "street": null,
    "office_name": null,
    "office_name_kana": null
  },
  "2338": {
    "postcode": "3292338",
    "prefecture": "栃木県",
    "prefecture_kana": "トチギケン",
    "prefecture_code": 9,
    "city": "塩谷郡塩谷町",
    "city_kana": "シオヤグンシオヤマチ",
    "town": "風見山田",
    "town_kana": "カザミヤマダ",
    "street": null,
    "office_name": null,
    "office_name_kana": null
  },
  "2339": {
    "postcode": "3292339",
    "prefecture": "栃木県",
    "prefecture_kana": "トチギケン",
    "prefecture_code": 9,
    "city": "塩谷郡塩谷町",
    "city_kana": "シオヤグンシオヤマチ",
    "town": "上沢",
    "town_kana": "ウワサワ",
    "street": null,
    "office_name": null,
    "office_name_kana": null
  },
  "2441": {
    "postcode": "3292441",
    "prefecture": "栃木県",
    "prefecture_kana": "トチギケン",
    "prefecture_code": 9,
    "city": "塩谷郡塩谷町",
    "city_kana": "シオヤグンシオヤマチ",
    "town": "船生",
    "town_kana": "フニュウ",
    "street": null,
    "office_name": null,
    "office_name_kana": null
  },
  "2442": {
    "postcode": "3292442",
    "prefecture": "栃木県",
    "prefecture_kana": "トチギケン",
    "prefecture_code": 9,
    "city": "塩谷郡塩谷町",
    "city_kana": "シオヤグンシオヤマチ",
    "town": "佐貫",
    "town_kana": "サヌキ",
    "street": null,
    "office_name": null,
    "office_name_kana": null
  },
  "2501": {
    "postcode": "3292501",
    "prefecture": "栃木県",
    "prefecture_kana": "トチギケン",
    "prefecture_code": 9,
    "city": "矢板市",
    "city_kana": "ヤイタシ",
    "town": "上伊佐野",
    "town_kana": "カミイサノ",
    "street": null,
    "office_name": null,
    "office_name_kana": null
  },
  "2502": {
    "postcode": "3292502",
    "prefecture": "栃木県",
    "prefecture_kana": "トチギケン",
    "prefecture_code": 9,
    "city": "矢板市",
    "city_kana": "ヤイタシ",
    "town": "下伊佐野",
    "town_kana": "シモイサノ",
    "street": null,
    "office_name": null,
    "office_name_kana": null
  },
  "2503": {
    "postcode": "3292503",
    "prefecture": "栃木県",
    "prefecture_kana": "トチギケン",
    "prefecture_code": 9,
    "city": "矢板市",
    "city_kana": "ヤイタシ",
    "town": "田野原",
    "town_kana": "タノハラ",
    "street": null,
    "office_name": null,
    "office_name_kana": null
  },
  "2504": {
    "postcode": "3292504",
    "prefecture": "栃木県",
    "prefecture_kana": "トチギケン",
    "prefecture_code": 9,
    "city": "矢板市",
    "city_kana": "ヤイタシ",
    "town": "泉",
    "town_kana": "イズミ",
    "street": null,
    "office_name": null,
    "office_name_kana": null
  },
  "2505": {
    "postcode": "3292505",
    "prefecture": "栃木県",
    "prefecture_kana": "トチギケン",
    "prefecture_code": 9,
    "city": "矢板市",
    "city_kana": "ヤイタシ",
    "town": "立足",
    "town_kana": "タツアシ",
    "street": null,
    "office_name": null,
    "office_name_kana": null
  },
  "2506": {
    "postcode": "3292506",
    "prefecture": "栃木県",
    "prefecture_kana": "トチギケン",
    "prefecture_code": 9,
    "city": "矢板市",
    "city_kana": "ヤイタシ",
    "town": "平野",
    "town_kana": "ヒラノ",
    "street": null,
    "office_name": null,
    "office_name_kana": null
  },
  "2511": {
    "postcode": "3292511",
    "prefecture": "栃木県",
    "prefecture_kana": "トチギケン",
    "prefecture_code": 9,
    "city": "矢板市",
    "city_kana": "ヤイタシ",
    "town": "山田",
    "town_kana": "ヤマダ",
    "street": null,
    "office_name": null,
    "office_name_kana": null
  },
  "2512": {
    "postcode": "3292512",
    "prefecture": "栃木県",
    "prefecture_kana": "トチギケン",
    "prefecture_code": 9,
    "city": "矢板市",
    "city_kana": "ヤイタシ",
    "town": "東泉",
    "town_kana": "ヒガシイズミ",
    "street": null,
    "office_name": null,
    "office_name_kana": null
  },
  "2513": {
    "postcode": "3292513",
    "prefecture": "栃木県",
    "prefecture_kana": "トチギケン",
    "prefecture_code": 9,
    "city": "矢板市",
    "city_kana": "ヤイタシ",
    "town": "上太田",
    "town_kana": "カミオオタ",
    "street": null,
    "office_name": null,
    "office_name_kana": null
  },
  "2514": {
    "postcode": "3292514",
    "prefecture": "栃木県",
    "prefecture_kana": "トチギケン",
    "prefecture_code": 9,
    "city": "矢板市",
    "city_kana": "ヤイタシ",
    "town": "長井",
    "town_kana": "ナガイ",
    "street": null,
    "office_name": null,
    "office_name_kana": null
  },
  "2701": {
    "postcode": "3292701",
    "prefecture": "栃木県",
    "prefecture_kana": "トチギケン",
    "prefecture_code": 9,
    "city": "那須塩原市",
    "city_kana": "ナスシオバラシ",
    "town": "関根",
    "town_kana": "セキネ",
    "street": null,
    "office_name": null,
    "office_name_kana": null
  },
  "2702": {
    "postcode": "3292702",
    "prefecture": "栃木県",
    "prefecture_kana": "トチギケン",
    "prefecture_code": 9,
    "city": "那須塩原市",
    "city_kana": "ナスシオバラシ",
    "town": "東関根",
    "town_kana": "ヒガシセキネ",
    "street": null,
    "office_name": null,
    "office_name_kana": null
  },
  "2703": {
    "postcode": "3292703",
    "prefecture": "栃木県",
    "prefecture_kana": "トチギケン",
    "prefecture_code": 9,
    "city": "那須塩原市",
    "city_kana": "ナスシオバラシ",
    "town": "槻沢",
    "town_kana": "ツキヌキザワ",
    "street": null,
    "office_name": null,
    "office_name_kana": null
  },
  "2704": {
    "postcode": "3292704",
    "prefecture": "栃木県",
    "prefecture_kana": "トチギケン",
    "prefecture_code": 9,
    "city": "那須塩原市",
    "city_kana": "ナスシオバラシ",
    "town": "新南",
    "town_kana": "シンナン",
    "street": null,
    "office_name": null,
    "office_name_kana": null
  },
  "2705": {
    "postcode": "3292705",
    "prefecture": "栃木県",
    "prefecture_kana": "トチギケン",
    "prefecture_code": 9,
    "city": "那須塩原市",
    "city_kana": "ナスシオバラシ",
    "town": "南郷屋",
    "town_kana": "ミナミゴウヤ",
    "street": null,
    "office_name": null,
    "office_name_kana": null
  },
  "2706": {
    "postcode": "3292706",
    "prefecture": "栃木県",
    "prefecture_kana": "トチギケン",
    "prefecture_code": 9,
    "city": "那須塩原市",
    "city_kana": "ナスシオバラシ",
    "town": "睦",
    "town_kana": "ムツミ",
    "street": null,
    "office_name": null,
    "office_name_kana": null
  },
  "2707": {
    "postcode": "3292707",
    "prefecture": "栃木県",
    "prefecture_kana": "トチギケン",
    "prefecture_code": 9,
    "city": "那須塩原市",
    "city_kana": "ナスシオバラシ",
    "town": "高柳",
    "town_kana": "タカヤナギ",
    "street": null,
    "office_name": null,
    "office_name_kana": null
  },
  "2711": {
    "postcode": "3292711",
    "prefecture": "栃木県",
    "prefecture_kana": "トチギケン",
    "prefecture_code": 9,
    "city": "那須塩原市",
    "city_kana": "ナスシオバラシ",
    "town": "石林",
    "town_kana": "イシバヤシ",
    "street": null,
    "office_name": null,
    "office_name_kana": null
  },
  "2712": {
    "postcode": "3292712",
    "prefecture": "栃木県",
    "prefecture_kana": "トチギケン",
    "prefecture_code": 9,
    "city": "那須塩原市",
    "city_kana": "ナスシオバラシ",
    "town": "下永田",
    "town_kana": "シモナガタ",
    "street": null,
    "office_name": null,
    "office_name_kana": null
  },
  "2713": {
    "postcode": "3292713",
    "prefecture": "栃木県",
    "prefecture_kana": "トチギケン",
    "prefecture_code": 9,
    "city": "那須塩原市",
    "city_kana": "ナスシオバラシ",
    "town": "緑",
    "town_kana": "ミドリ",
    "street": null,
    "office_name": null,
    "office_name_kana": null
  },
  "2721": {
    "postcode": "3292721",
    "prefecture": "栃木県",
    "prefecture_kana": "トチギケン",
    "prefecture_code": 9,
    "city": "那須塩原市",
    "city_kana": "ナスシオバラシ",
    "town": "東町",
    "town_kana": "アズマチョウ",
    "street": null,
    "office_name": null,
    "office_name_kana": null
  },
  "2722": {
    "postcode": "3292722",
    "prefecture": "栃木県",
    "prefecture_kana": "トチギケン",
    "prefecture_code": 9,
    "city": "那須塩原市",
    "city_kana": "ナスシオバラシ",
    "town": "西朝日町",
    "town_kana": "ニシアサヒチョウ",
    "street": null,
    "office_name": null,
    "office_name_kana": null
  },
  "2723": {
    "postcode": "3292723",
    "prefecture": "栃木県",
    "prefecture_kana": "トチギケン",
    "prefecture_code": 9,
    "city": "那須塩原市",
    "city_kana": "ナスシオバラシ",
    "town": "南町",
    "town_kana": "ミナミチョウ",
    "street": null,
    "office_name": null,
    "office_name_kana": null
  },
  "2724": {
    "postcode": "3292724",
    "prefecture": "栃木県",
    "prefecture_kana": "トチギケン",
    "prefecture_code": 9,
    "city": "那須塩原市",
    "city_kana": "ナスシオバラシ",
    "town": "西幸町",
    "town_kana": "ニシサイワイチョウ",
    "street": null,
    "office_name": null,
    "office_name_kana": null
  },
  "2725": {
    "postcode": "3292725",
    "prefecture": "栃木県",
    "prefecture_kana": "トチギケン",
    "prefecture_code": 9,
    "city": "那須塩原市",
    "city_kana": "ナスシオバラシ",
    "town": "あたご町",
    "town_kana": "アタゴチョウ",
    "street": null,
    "office_name": null,
    "office_name_kana": null
  },
  "2726": {
    "postcode": "3292726",
    "prefecture": "栃木県",
    "prefecture_kana": "トチギケン",
    "prefecture_code": 9,
    "city": "那須塩原市",
    "city_kana": "ナスシオバラシ",
    "town": "扇町",
    "town_kana": "オウギチョウ",
    "street": null,
    "office_name": null,
    "office_name_kana": null
  },
  "2727": {
    "postcode": "3292727",
    "prefecture": "栃木県",
    "prefecture_kana": "トチギケン",
    "prefecture_code": 9,
    "city": "那須塩原市",
    "city_kana": "ナスシオバラシ",
    "town": "永田町",
    "town_kana": "ナガタチョウ",
    "street": null,
    "office_name": null,
    "office_name_kana": null
  },
  "2728": {
    "postcode": "3292728",
    "prefecture": "栃木県",
    "prefecture_kana": "トチギケン",
    "prefecture_code": 9,
    "city": "那須塩原市",
    "city_kana": "ナスシオバラシ",
    "town": "西栄町",
    "town_kana": "ニシサカエチョウ",
    "street": null,
    "office_name": null,
    "office_name_kana": null
  },
  "2731": {
    "postcode": "3292731",
    "prefecture": "栃木県",
    "prefecture_kana": "トチギケン",
    "prefecture_code": 9,
    "city": "那須塩原市",
    "city_kana": "ナスシオバラシ",
    "town": "二つ室",
    "town_kana": "フタツムロ",
    "street": null,
    "office_name": null,
    "office_name_kana": null
  },
  "2732": {
    "postcode": "3292732",
    "prefecture": "栃木県",
    "prefecture_kana": "トチギケン",
    "prefecture_code": 9,
    "city": "那須塩原市",
    "city_kana": "ナスシオバラシ",
    "town": "一区町",
    "town_kana": "イックチョウ",
    "street": null,
    "office_name": null,
    "office_name_kana": null
  },
  "2733": {
    "postcode": "3292733",
    "prefecture": "栃木県",
    "prefecture_kana": "トチギケン",
    "prefecture_code": 9,
    "city": "那須塩原市",
    "city_kana": "ナスシオバラシ",
    "town": "二区町",
    "town_kana": "ニクチョウ",
    "street": null,
    "office_name": null,
    "office_name_kana": null
  },
  "2734": {
    "postcode": "3292734",
    "prefecture": "栃木県",
    "prefecture_kana": "トチギケン",
    "prefecture_code": 9,
    "city": "那須塩原市",
    "city_kana": "ナスシオバラシ",
    "town": "北二つ室",
    "town_kana": "キタフタツムロ",
    "street": null,
    "office_name": null,
    "office_name_kana": null
  },
  "2735": {
    "postcode": "3292735",
    "prefecture": "栃木県",
    "prefecture_kana": "トチギケン",
    "prefecture_code": 9,
    "city": "那須塩原市",
    "city_kana": "ナスシオバラシ",
    "town": "太夫塚",
    "town_kana": "タユウヅカ",
    "street": null,
    "office_name": null,
    "office_name_kana": null
  },
  "2741": {
    "postcode": "3292741",
    "prefecture": "栃木県",
    "prefecture_kana": "トチギケン",
    "prefecture_code": 9,
    "city": "那須塩原市",
    "city_kana": "ナスシオバラシ",
    "town": "北赤田",
    "town_kana": "キタアカダ",
    "street": null,
    "office_name": null,
    "office_name_kana": null
  },
  "2742": {
    "postcode": "3292742",
    "prefecture": "栃木県",
    "prefecture_kana": "トチギケン",
    "prefecture_code": 9,
    "city": "那須塩原市",
    "city_kana": "ナスシオバラシ",
    "town": "東赤田",
    "town_kana": "ヒガシアカダ",
    "street": null,
    "office_name": null,
    "office_name_kana": null
  },
  "2743": {
    "postcode": "3292743",
    "prefecture": "栃木県",
    "prefecture_kana": "トチギケン",
    "prefecture_code": 9,
    "city": "那須塩原市",
    "city_kana": "ナスシオバラシ",
    "town": "南赤田",
    "town_kana": "ミナミアカダ",
    "street": null,
    "office_name": null,
    "office_name_kana": null
  },
  "2744": {
    "postcode": "3292744",
    "prefecture": "栃木県",
    "prefecture_kana": "トチギケン",
    "prefecture_code": 9,
    "city": "那須塩原市",
    "city_kana": "ナスシオバラシ",
    "town": "西赤田",
    "town_kana": "ニシアカダ",
    "street": null,
    "office_name": null,
    "office_name_kana": null
  },
  "2745": {
    "postcode": "3292745",
    "prefecture": "栃木県",
    "prefecture_kana": "トチギケン",
    "prefecture_code": 9,
    "city": "那須塩原市",
    "city_kana": "ナスシオバラシ",
    "town": "三区町",
    "town_kana": "サンクチョウ",
    "street": null,
    "office_name": null,
    "office_name_kana": null
  },
  "2746": {
    "postcode": "3292746",
    "prefecture": "栃木県",
    "prefecture_kana": "トチギケン",
    "prefecture_code": 9,
    "city": "那須塩原市",
    "city_kana": "ナスシオバラシ",
    "town": "四区町",
    "town_kana": "ヨンクチョウ",
    "street": null,
    "office_name": null,
    "office_name_kana": null
  },
  "2747": {
    "postcode": "3292747",
    "prefecture": "栃木県",
    "prefecture_kana": "トチギケン",
    "prefecture_code": 9,
    "city": "那須塩原市",
    "city_kana": "ナスシオバラシ",
    "town": "千本松",
    "town_kana": "センボンマツ",
    "street": null,
    "office_name": null,
    "office_name_kana": null
  },
  "2748": {
    "postcode": "3292748",
    "prefecture": "栃木県",
    "prefecture_kana": "トチギケン",
    "prefecture_code": 9,
    "city": "那須塩原市",
    "city_kana": "ナスシオバラシ",
    "town": "上赤田",
    "town_kana": "カミアカダ",
    "street": null,
    "office_name": null,
    "office_name_kana": null
  },
  "2751": {
    "postcode": "3292751",
    "prefecture": "栃木県",
    "prefecture_kana": "トチギケン",
    "prefecture_code": 9,
    "city": "那須塩原市",
    "city_kana": "ナスシオバラシ",
    "town": "東三島",
    "town_kana": "ヒガシミシマ",
    "street": null,
    "office_name": null,
    "office_name_kana": null
  },
  "2752": {
    "postcode": "3292752",
    "prefecture": "栃木県",
    "prefecture_kana": "トチギケン",
    "prefecture_code": 9,
    "city": "那須塩原市",
    "city_kana": "ナスシオバラシ",
    "town": "三島",
    "town_kana": "ミシマ",
    "street": null,
    "office_name": null,
    "office_name_kana": null
  },
  "2753": {
    "postcode": "3292753",
    "prefecture": "栃木県",
    "prefecture_kana": "トチギケン",
    "prefecture_code": 9,
    "city": "那須塩原市",
    "city_kana": "ナスシオバラシ",
    "town": "五軒町",
    "town_kana": "ゴケンチョウ",
    "street": null,
    "office_name": null,
    "office_name_kana": null
  },
  "2754": {
    "postcode": "3292754",
    "prefecture": "栃木県",
    "prefecture_kana": "トチギケン",
    "prefecture_code": 9,
    "city": "那須塩原市",
    "city_kana": "ナスシオバラシ",
    "town": "西大和",
    "town_kana": "ニシヤマト",
    "street": null,
    "office_name": null,
    "office_name_kana": null
  },
  "2755": {
    "postcode": "3292755",
    "prefecture": "栃木県",
    "prefecture_kana": "トチギケン",
    "prefecture_code": 9,
    "city": "那須塩原市",
    "city_kana": "ナスシオバラシ",
    "town": "西原町",
    "town_kana": "ニシハラチョウ",
    "street": null,
    "office_name": null,
    "office_name_kana": null
  },
  "2756": {
    "postcode": "3292756",
    "prefecture": "栃木県",
    "prefecture_kana": "トチギケン",
    "prefecture_code": 9,
    "city": "那須塩原市",
    "city_kana": "ナスシオバラシ",
    "town": "西三島",
    "town_kana": "ニシミシマ",
    "street": null,
    "office_name": null,
    "office_name_kana": null
  },
  "2761": {
    "postcode": "3292761",
    "prefecture": "栃木県",
    "prefecture_kana": "トチギケン",
    "prefecture_code": 9,
    "city": "那須塩原市",
    "city_kana": "ナスシオバラシ",
    "town": "東遅沢",
    "town_kana": "ヒガシオソザワ",
    "street": null,
    "office_name": null,
    "office_name_kana": null
  },
  "2762": {
    "postcode": "3292762",
    "prefecture": "栃木県",
    "prefecture_kana": "トチギケン",
    "prefecture_code": 9,
    "city": "那須塩原市",
    "city_kana": "ナスシオバラシ",
    "town": "西富山",
    "town_kana": "ニシトミヤマ",
    "street": null,
    "office_name": null,
    "office_name_kana": null
  },
  "2763": {
    "postcode": "3292763",
    "prefecture": "栃木県",
    "prefecture_kana": "トチギケン",
    "prefecture_code": 9,
    "city": "那須塩原市",
    "city_kana": "ナスシオバラシ",
    "town": "井口",
    "town_kana": "イグチ",
    "street": null,
    "office_name": null,
    "office_name_kana": null
  },
  "2764": {
    "postcode": "3292764",
    "prefecture": "栃木県",
    "prefecture_kana": "トチギケン",
    "prefecture_code": 9,
    "city": "那須塩原市",
    "city_kana": "ナスシオバラシ",
    "town": "西遅沢",
    "town_kana": "ニシオソザワ",
    "street": null,
    "office_name": null,
    "office_name_kana": null
  },
  "2792": {
    "postcode": "3292792",
    "prefecture": "栃木県",
    "prefecture_kana": "トチギケン",
    "prefecture_code": 9,
    "city": "那須塩原市",
    "city_kana": "ナスシオバラシ",
    "town": "あたご町",
    "town_kana": "アタゴチョウ",
    "street": "２−３",
    "office_name": "那須塩原市役所　西那須野支所",
    "office_name_kana": "ナスシオバラシヤクシヨ ニシナスノシシヨ"
  },
  "2793": {
    "postcode": "3292793",
    "prefecture": "栃木県",
    "prefecture_kana": "トチギケン",
    "prefecture_code": 9,
    "city": "那須塩原市",
    "city_kana": "ナスシオバラシ",
    "town": "千本松",
    "town_kana": "センボンマツ",
    "street": "７９９",
    "office_name": "独立行政法人　農業・食品産業技術総合研究機構　畜産草地研究所",
    "office_name_kana": "ドクリツギヨウセイホウジン ノウギヨウ・シヨクヒンサンギヨウギジユツソウゴウケンキユウキコウ チクサンソウチケンキユウジヨ"
  },
  "2801": {
    "postcode": "3292801",
    "prefecture": "栃木県",
    "prefecture_kana": "トチギケン",
    "prefecture_code": 9,
    "city": "那須塩原市",
    "city_kana": "ナスシオバラシ",
    "town": "関谷",
    "town_kana": "セキヤ",
    "street": null,
    "office_name": null,
    "office_name_kana": null
  },
  "2802": {
    "postcode": "3292802",
    "prefecture": "栃木県",
    "prefecture_kana": "トチギケン",
    "prefecture_code": 9,
    "city": "那須塩原市",
    "city_kana": "ナスシオバラシ",
    "town": "蟇沼",
    "town_kana": "ヒキヌマ",
    "street": null,
    "office_name": null,
    "office_name_kana": null
  },
  "2803": {
    "postcode": "3292803",
    "prefecture": "栃木県",
    "prefecture_kana": "トチギケン",
    "prefecture_code": 9,
    "city": "那須塩原市",
    "city_kana": "ナスシオバラシ",
    "town": "遅野沢",
    "town_kana": "オソノサワ",
    "street": null,
    "office_name": null,
    "office_name_kana": null
  },
  "2804": {
    "postcode": "3292804",
    "prefecture": "栃木県",
    "prefecture_kana": "トチギケン",
    "prefecture_code": 9,
    "city": "那須塩原市",
    "city_kana": "ナスシオバラシ",
    "town": "折戸",
    "town_kana": "オリド",
    "street": null,
    "office_name": null,
    "office_name_kana": null
  },
  "2805": {
    "postcode": "3292805",
    "prefecture": "栃木県",
    "prefecture_kana": "トチギケン",
    "prefecture_code": 9,
    "city": "那須塩原市",
    "city_kana": "ナスシオバラシ",
    "town": "上横林",
    "town_kana": "カミヨコバヤシ",
    "street": null,
    "office_name": null,
    "office_name_kana": null
  },
  "2806": {
    "postcode": "3292806",
    "prefecture": "栃木県",
    "prefecture_kana": "トチギケン",
    "prefecture_code": 9,
    "city": "那須塩原市",
    "city_kana": "ナスシオバラシ",
    "town": "横林",
    "town_kana": "ヨコバヤシ",
    "street": null,
    "office_name": null,
    "office_name_kana": null
  },
  "2807": {
    "postcode": "3292807",
    "prefecture": "栃木県",
    "prefecture_kana": "トチギケン",
    "prefecture_code": 9,
    "city": "那須塩原市",
    "city_kana": "ナスシオバラシ",
    "town": "接骨木",
    "town_kana": "ニワトコ",
    "street": null,
    "office_name": null,
    "office_name_kana": null
  },
  "2811": {
    "postcode": "3292811",
    "prefecture": "栃木県",
    "prefecture_kana": "トチギケン",
    "prefecture_code": 9,
    "city": "那須塩原市",
    "city_kana": "ナスシオバラシ",
    "town": "下田野",
    "town_kana": "シモタノ",
    "street": null,
    "office_name": null,
    "office_name_kana": null
  },
  "2812": {
    "postcode": "3292812",
    "prefecture": "栃木県",
    "prefecture_kana": "トチギケン",
    "prefecture_code": 9,
    "city": "那須塩原市",
    "city_kana": "ナスシオバラシ",
    "town": "金沢",
    "town_kana": "カネザワ",
    "street": null,
    "office_name": null,
    "office_name_kana": null
  },
  "2813": {
    "postcode": "3292813",
    "prefecture": "栃木県",
    "prefecture_kana": "トチギケン",
    "prefecture_code": 9,
    "city": "那須塩原市",
    "city_kana": "ナスシオバラシ",
    "town": "高阿津",
    "town_kana": "タカアツ",
    "street": null,
    "office_name": null,
    "office_name_kana": null
  },
  "2814": {
    "postcode": "3292814",
    "prefecture": "栃木県",
    "prefecture_kana": "トチギケン",
    "prefecture_code": 9,
    "city": "那須塩原市",
    "city_kana": "ナスシオバラシ",
    "town": "上大貫",
    "town_kana": "カミオオヌキ",
    "street": null,
    "office_name": null,
    "office_name_kana": null
  },
  "2815": {
    "postcode": "3292815",
    "prefecture": "栃木県",
    "prefecture_kana": "トチギケン",
    "prefecture_code": 9,
    "city": "那須塩原市",
    "city_kana": "ナスシオバラシ",
    "town": "下大貫",
    "town_kana": "シモオオヌキ",
    "street": null,
    "office_name": null,
    "office_name_kana": null
  },
  "2816": {
    "postcode": "3292816",
    "prefecture": "栃木県",
    "prefecture_kana": "トチギケン",
    "prefecture_code": 9,
    "city": "那須塩原市",
    "city_kana": "ナスシオバラシ",
    "town": "宇都野",
    "town_kana": "ウツノ",
    "street": null,
    "office_name": null,
    "office_name_kana": null
  },
  "2921": {
    "postcode": "3292921",
    "prefecture": "栃木県",
    "prefecture_kana": "トチギケン",
    "prefecture_code": 9,
    "city": "那須塩原市",
    "city_kana": "ナスシオバラシ",
    "town": "塩原",
    "town_kana": "シオバラ",
    "street": null,
    "office_name": null,
    "office_name_kana": null
  },
  "2922": {
    "postcode": "3292922",
    "prefecture": "栃木県",
    "prefecture_kana": "トチギケン",
    "prefecture_code": 9,
    "city": "那須塩原市",
    "city_kana": "ナスシオバラシ",
    "town": "湯本塩原",
    "town_kana": "ユモトシオバラ",
    "street": null,
    "office_name": null,
    "office_name_kana": null
  },
  "2923": {
    "postcode": "3292923",
    "prefecture": "栃木県",
    "prefecture_kana": "トチギケン",
    "prefecture_code": 9,
    "city": "那須塩原市",
    "city_kana": "ナスシオバラシ",
    "town": "上塩原",
    "town_kana": "カミシオバラ",
    "street": null,
    "office_name": null,
    "office_name_kana": null
  },
  "2924": {
    "postcode": "3292924",
    "prefecture": "栃木県",
    "prefecture_kana": "トチギケン",
    "prefecture_code": 9,
    "city": "那須塩原市",
    "city_kana": "ナスシオバラシ",
    "town": "中塩原",
    "town_kana": "ナカシオバラ",
    "street": null,
    "office_name": null,
    "office_name_kana": null
  },
  "2992": {
    "postcode": "3292992",
    "prefecture": "栃木県",
    "prefecture_kana": "トチギケン",
    "prefecture_code": 9,
    "city": "那須塩原市",
    "city_kana": "ナスシオバラシ",
    "town": "塩原",
    "town_kana": "シオバラ",
    "street": "７０５",
    "office_name": "株式会社　ホテルニュー塩原",
    "office_name_kana": "カブシキガイシヤ ホテルニユ-シオバラ"
  },
  "2993": {
    "postcode": "3292993",
    "prefecture": "栃木県",
    "prefecture_kana": "トチギケン",
    "prefecture_code": 9,
    "city": "那須塩原市",
    "city_kana": "ナスシオバラシ",
    "town": "中塩原",
    "town_kana": "ナカシオバラ",
    "street": "１−２",
    "office_name": "那須塩原市役所　塩原支所",
    "office_name_kana": "ナスシオバラシヤクシヨ シオバラシシヨ"
  },
  "3121": {
    "postcode": "3293121",
    "prefecture": "栃木県",
    "prefecture_kana": "トチギケン",
    "prefecture_code": 9,
    "city": "那須塩原市",
    "city_kana": "ナスシオバラシ",
    "town": "鹿野崎",
    "town_kana": "カノサキ",
    "street": null,
    "office_name": null,
    "office_name_kana": null
  },
  "3122": {
    "postcode": "3293122",
    "prefecture": "栃木県",
    "prefecture_kana": "トチギケン",
    "prefecture_code": 9,
    "city": "那須塩原市",
    "city_kana": "ナスシオバラシ",
    "town": "塩野崎",
    "town_kana": "シオノサキ",
    "street": null,
    "office_name": null,
    "office_name_kana": null
  },
  "3123": {
    "postcode": "3293123",
    "prefecture": "栃木県",
    "prefecture_kana": "トチギケン",
    "prefecture_code": 9,
    "city": "那須塩原市",
    "city_kana": "ナスシオバラシ",
    "town": "塩野崎新田",
    "town_kana": "シオノサキシンデン",
    "street": null,
    "office_name": null,
    "office_name_kana": null
  },
  "3124": {
    "postcode": "3293124",
    "prefecture": "栃木県",
    "prefecture_kana": "トチギケン",
    "prefecture_code": 9,
    "city": "那須塩原市",
    "city_kana": "ナスシオバラシ",
    "town": "波立",
    "town_kana": "ハッタチ",
    "street": null,
    "office_name": null,
    "office_name_kana": null
  },
  "3125": {
    "postcode": "3293125",
    "prefecture": "栃木県",
    "prefecture_kana": "トチギケン",
    "prefecture_code": 9,
    "city": "那須塩原市",
    "city_kana": "ナスシオバラシ",
    "town": "無栗屋",
    "town_kana": "ムクリヤ",
    "street": null,
    "office_name": null,
    "office_name_kana": null
  },
  "3126": {
    "postcode": "3293126",
    "prefecture": "栃木県",
    "prefecture_kana": "トチギケン",
    "prefecture_code": 9,
    "city": "那須塩原市",
    "city_kana": "ナスシオバラシ",
    "town": "中内",
    "town_kana": "ナカウチ",
    "street": null,
    "office_name": null,
    "office_name_kana": null
  },
  "3127": {
    "postcode": "3293127",
    "prefecture": "栃木県",
    "prefecture_kana": "トチギケン",
    "prefecture_code": 9,
    "city": "那須塩原市",
    "city_kana": "ナスシオバラシ",
    "town": "上郷屋",
    "town_kana": "カミゴウヤ",
    "street": null,
    "office_name": null,
    "office_name_kana": null
  },
  "3131": {
    "postcode": "3293131",
    "prefecture": "栃木県",
    "prefecture_kana": "トチギケン",
    "prefecture_code": 9,
    "city": "那須塩原市",
    "city_kana": "ナスシオバラシ",
    "town": "唐杉",
    "town_kana": "カラスギ",
    "street": null,
    "office_name": null,
    "office_name_kana": null
  },
  "3132": {
    "postcode": "3293132",
    "prefecture": "栃木県",
    "prefecture_kana": "トチギケン",
    "prefecture_code": 9,
    "city": "那須塩原市",
    "city_kana": "ナスシオバラシ",
    "town": "北弥六",
    "town_kana": "キタヤロク",
    "street": null,
    "office_name": null,
    "office_name_kana": null
  },
  "3133": {
    "postcode": "3293133",
    "prefecture": "栃木県",
    "prefecture_kana": "トチギケン",
    "prefecture_code": 9,
    "city": "那須塩原市",
    "city_kana": "ナスシオバラシ",
    "town": "沓掛",
    "town_kana": "クツカケ",
    "street": null,
    "office_name": null,
    "office_name_kana": null
  },
  "3134": {
    "postcode": "3293134",
    "prefecture": "栃木県",
    "prefecture_kana": "トチギケン",
    "prefecture_code": 9,
    "city": "那須塩原市",
    "city_kana": "ナスシオバラシ",
    "town": "上大塚新田",
    "town_kana": "カミオオツカシンデン",
    "street": null,
    "office_name": null,
    "office_name_kana": null
  },
  "3135": {
    "postcode": "3293135",
    "prefecture": "栃木県",
    "prefecture_kana": "トチギケン",
    "prefecture_code": 9,
    "city": "那須塩原市",
    "city_kana": "ナスシオバラシ",
    "town": "前弥六",
    "town_kana": "マエヤロク",
    "street": null,
    "office_name": null,
    "office_name_kana": null
  },
  "3136": {
    "postcode": "3293136",
    "prefecture": "栃木県",
    "prefecture_kana": "トチギケン",
    "prefecture_code": 9,
    "city": "那須塩原市",
    "city_kana": "ナスシオバラシ",
    "town": "前弥六南町",
    "town_kana": "マエヤロクミナミチョウ",
    "street": null,
    "office_name": null,
    "office_name_kana": null
  },
  "3141": {
    "postcode": "3293141",
    "prefecture": "栃木県",
    "prefecture_kana": "トチギケン",
    "prefecture_code": 9,
    "city": "那須塩原市",
    "city_kana": "ナスシオバラシ",
    "town": "山中新田",
    "town_kana": "ヤマナカシンデン",
    "street": null,
    "office_name": null,
    "office_name_kana": null
  },
  "3142": {
    "postcode": "3293142",
    "prefecture": "栃木県",
    "prefecture_kana": "トチギケン",
    "prefecture_code": 9,
    "city": "那須塩原市",
    "city_kana": "ナスシオバラシ",
    "town": "佐野",
    "town_kana": "サノ",
    "street": null,
    "office_name": null,
    "office_name_kana": null
  },
  "3143": {
    "postcode": "3293143",
    "prefecture": "栃木県",
    "prefecture_kana": "トチギケン",
    "prefecture_code": 9,
    "city": "那須塩原市",
    "city_kana": "ナスシオバラシ",
    "town": "三本木",
    "town_kana": "サンボンギ",
    "street": null,
    "office_name": null,
    "office_name_kana": null
  },
  "3144": {
    "postcode": "3293144",
    "prefecture": "栃木県",
    "prefecture_kana": "トチギケン",
    "prefecture_code": 9,
    "city": "那須塩原市",
    "city_kana": "ナスシオバラシ",
    "town": "沼野田和",
    "town_kana": "ヌマノタワ",
    "street": null,
    "office_name": null,
    "office_name_kana": null
  },
  "3145": {
    "postcode": "3293145",
    "prefecture": "栃木県",
    "prefecture_kana": "トチギケン",
    "prefecture_code": 9,
    "city": "那須塩原市",
    "city_kana": "ナスシオバラシ",
    "town": "木曾畑中",
    "town_kana": "キソハタナカ",
    "street": null,
    "office_name": null,
    "office_name_kana": null
  },
  "3146": {
    "postcode": "3293146",
    "prefecture": "栃木県",
    "prefecture_kana": "トチギケン",
    "prefecture_code": 9,
    "city": "那須塩原市",
    "city_kana": "ナスシオバラシ",
    "town": "下中野",
    "town_kana": "シモナカノ",
    "street": null,
    "office_name": null,
    "office_name_kana": null
  },
  "3147": {
    "postcode": "3293147",
    "prefecture": "栃木県",
    "prefecture_kana": "トチギケン",
    "prefecture_code": 9,
    "city": "那須塩原市",
    "city_kana": "ナスシオバラシ",
    "town": "東小屋",
    "town_kana": "ヒガシコヤ",
    "street": null,
    "office_name": null,
    "office_name_kana": null
  },
  "3151": {
    "postcode": "3293151",
    "prefecture": "栃木県",
    "prefecture_kana": "トチギケン",
    "prefecture_code": 9,
    "city": "那須塩原市",
    "city_kana": "ナスシオバラシ",
    "town": "北和田",
    "town_kana": "キタワダ",
    "street": null,
    "office_name": null,
    "office_name_kana": null
  },
  "3152": {
    "postcode": "3293152",
    "prefecture": "栃木県",
    "prefecture_kana": "トチギケン",
    "prefecture_code": 9,
    "city": "那須塩原市",
    "city_kana": "ナスシオバラシ",
    "town": "島方",
    "town_kana": "シマカタ",
    "street": null,
    "office_name": null,
    "office_name_kana": null
  },
  "3153": {
    "postcode": "3293153",
    "prefecture": "栃木県",
    "prefecture_kana": "トチギケン",
    "prefecture_code": 9,
    "city": "那須塩原市",
    "city_kana": "ナスシオバラシ",
    "town": "大原間",
    "town_kana": "オオハラマ",
    "street": null,
    "office_name": null,
    "office_name_kana": null
  },
  "3154": {
    "postcode": "3293154",
    "prefecture": "栃木県",
    "prefecture_kana": "トチギケン",
    "prefecture_code": 9,
    "city": "那須塩原市",
    "city_kana": "ナスシオバラシ",
    "town": "上中野",
    "town_kana": "カミナカノ",
    "street": null,
    "office_name": null,
    "office_name_kana": null
  },
  "3155": {
    "postcode": "3293155",
    "prefecture": "栃木県",
    "prefecture_kana": "トチギケン",
    "prefecture_code": 9,
    "city": "那須塩原市",
    "city_kana": "ナスシオバラシ",
    "town": "笹沼",
    "town_kana": "ササヌマ",
    "street": null,
    "office_name": null,
    "office_name_kana": null
  },
  "3156": {
    "postcode": "3293156",
    "prefecture": "栃木県",
    "prefecture_kana": "トチギケン",
    "prefecture_code": 9,
    "city": "那須塩原市",
    "city_kana": "ナスシオバラシ",
    "town": "方京",
    "town_kana": "ホウキョウ",
    "street": null,
    "office_name": null,
    "office_name_kana": null
  },
  "3157": {
    "postcode": "3293157",
    "prefecture": "栃木県",
    "prefecture_kana": "トチギケン",
    "prefecture_code": 9,
    "city": "那須塩原市",
    "city_kana": "ナスシオバラシ",
    "town": "大原間西",
    "town_kana": "オオハラマニシ",
    "street": null,
    "office_name": null,
    "office_name_kana": null
  },
  "3200": {
    "postcode": "3293200",
    "prefecture": "栃木県",
    "prefecture_kana": "トチギケン",
    "prefecture_code": 9,
    "city": "那須郡那須町",
    "city_kana": "ナスグンナスマチ",
    "town": "",
    "town_kana": "",
    "street": null,
    "office_name": null,
    "office_name_kana": null
  },
  "3211": {
    "postcode": "3293211",
    "prefecture": "栃木県",
    "prefecture_kana": "トチギケン",
    "prefecture_code": 9,
    "city": "那須郡那須町",
    "city_kana": "ナスグンナスマチ",
    "town": "豊原甲",
    "town_kana": "トヨハラコウ",
    "street": null,
    "office_name": null,
    "office_name_kana": null
  },
  "3212": {
    "postcode": "3293212",
    "prefecture": "栃木県",
    "prefecture_kana": "トチギケン",
    "prefecture_code": 9,
    "city": "那須郡那須町",
    "city_kana": "ナスグンナスマチ",
    "town": "富岡",
    "town_kana": "トミオカ",
    "street": null,
    "office_name": null,
    "office_name_kana": null
  },
  "3213": {
    "postcode": "3293213",
    "prefecture": "栃木県",
    "prefecture_kana": "トチギケン",
    "prefecture_code": 9,
    "city": "那須郡那須町",
    "city_kana": "ナスグンナスマチ",
    "town": "豊原",
    "town_kana": "トヨハラ",
    "street": null,
    "office_name": null,
    "office_name_kana": null
  },
  "3214": {
    "postcode": "3293214",
    "prefecture": "栃木県",
    "prefecture_kana": "トチギケン",
    "prefecture_code": 9,
    "city": "那須郡那須町",
    "city_kana": "ナスグンナスマチ",
    "town": "横岡",
    "town_kana": "ヨコオカ",
    "street": null,
    "office_name": null,
    "office_name_kana": null
  },
  "3215": {
    "postcode": "3293215",
    "prefecture": "栃木県",
    "prefecture_kana": "トチギケン",
    "prefecture_code": 9,
    "city": "那須郡那須町",
    "city_kana": "ナスグンナスマチ",
    "town": "寺子乙",
    "town_kana": "テラコオツ",
    "street": null,
    "office_name": null,
    "office_name_kana": null
  },
  "3221": {
    "postcode": "3293221",
    "prefecture": "栃木県",
    "prefecture_kana": "トチギケン",
    "prefecture_code": 9,
    "city": "那須郡那須町",
    "city_kana": "ナスグンナスマチ",
    "town": "漆塚",
    "town_kana": "ウルシツカ",
    "street": null,
    "office_name": null,
    "office_name_kana": null
  },
  "3222": {
    "postcode": "3293222",
    "prefecture": "栃木県",
    "prefecture_kana": "トチギケン",
    "prefecture_code": 9,
    "city": "那須郡那須町",
    "city_kana": "ナスグンナスマチ",
    "town": "寺子丙",
    "town_kana": "テラコヘイ",
    "street": null,
    "office_name": null,
    "office_name_kana": null
  },
  "3223": {
    "postcode": "3293223",
    "prefecture": "栃木県",
    "prefecture_kana": "トチギケン",
    "prefecture_code": 9,
    "city": "那須郡那須町",
    "city_kana": "ナスグンナスマチ",
    "town": "大島",
    "town_kana": "オオシマ",
    "street": null,
    "office_name": null,
    "office_name_kana": null
  },
  "3224": {
    "postcode": "3293224",
    "prefecture": "栃木県",
    "prefecture_kana": "トチギケン",
    "prefecture_code": 9,
    "city": "那須郡那須町",
    "city_kana": "ナスグンナスマチ",
    "town": "豊原乙",
    "town_kana": "トヨハラオツ",
    "street": null,
    "office_name": null,
    "office_name_kana": null
  },
  "3225": {
    "postcode": "3293225",
    "prefecture": "栃木県",
    "prefecture_kana": "トチギケン",
    "prefecture_code": 9,
    "city": "那須郡那須町",
    "city_kana": "ナスグンナスマチ",
    "town": "豊原丙",
    "town_kana": "トヨハラヘイ",
    "street": null,
    "office_name": null,
    "office_name_kana": null
  },
  "3292": {
    "postcode": "3293292",
    "prefecture": "栃木県",
    "prefecture_kana": "トチギケン",
    "prefecture_code": 9,
    "city": "那須郡那須町",
    "city_kana": "ナスグンナスマチ",
    "town": "大字寺子丙",
    "town_kana": null,
    "street": "３−１３",
    "office_name": "那須町役場",
    "office_name_kana": "ナスマチヤクバ"
  },
  "3431": {
    "postcode": "3293431",
    "prefecture": "栃木県",
    "prefecture_kana": "トチギケン",
    "prefecture_code": 9,
    "city": "那須郡那須町",
    "city_kana": "ナスグンナスマチ",
    "town": "大畑",
    "town_kana": "オオハタ",
    "street": null,
    "office_name": null,
    "office_name_kana": null
  },
  "3432": {
    "postcode": "3293432",
    "prefecture": "栃木県",
    "prefecture_kana": "トチギケン",
    "prefecture_code": 9,
    "city": "那須郡那須町",
    "city_kana": "ナスグンナスマチ",
    "town": "梓",
    "town_kana": "アズサ",
    "street": null,
    "office_name": null,
    "office_name_kana": null
  },
  "3433": {
    "postcode": "3293433",
    "prefecture": "栃木県",
    "prefecture_kana": "トチギケン",
    "prefecture_code": 9,
    "city": "那須郡那須町",
    "city_kana": "ナスグンナスマチ",
    "town": "大和須",
    "town_kana": "オオワス",
    "street": null,
    "office_name": null,
    "office_name_kana": null
  },
  "3434": {
    "postcode": "3293434",
    "prefecture": "栃木県",
    "prefecture_kana": "トチギケン",
    "prefecture_code": 9,
    "city": "那須郡那須町",
    "city_kana": "ナスグンナスマチ",
    "town": "梁瀬",
    "town_kana": "ヤナゼ",
    "street": null,
    "office_name": null,
    "office_name_kana": null
  },
  "3435": {
    "postcode": "3293435",
    "prefecture": "栃木県",
    "prefecture_kana": "トチギケン",
    "prefecture_code": 9,
    "city": "那須郡那須町",
    "city_kana": "ナスグンナスマチ",
    "town": "睦家",
    "town_kana": "ムツヤ",
    "street": null,
    "office_name": null,
    "office_name_kana": null
  },
  "3436": {
    "postcode": "3293436",
    "prefecture": "栃木県",
    "prefecture_kana": "トチギケン",
    "prefecture_code": 9,
    "city": "那須郡那須町",
    "city_kana": "ナスグンナスマチ",
    "town": "伊王野",
    "town_kana": "イオウノ",
    "street": null,
    "office_name": null,
    "office_name_kana": null
  },
  "3437": {
    "postcode": "3293437",
    "prefecture": "栃木県",
    "prefecture_kana": "トチギケン",
    "prefecture_code": 9,
    "city": "那須郡那須町",
    "city_kana": "ナスグンナスマチ",
    "town": "蓑沢",
    "town_kana": "ミノザワ",
    "street": null,
    "office_name": null,
    "office_name_kana": null
  },
  "3441": {
    "postcode": "3293441",
    "prefecture": "栃木県",
    "prefecture_kana": "トチギケン",
    "prefecture_code": 9,
    "city": "那須郡那須町",
    "city_kana": "ナスグンナスマチ",
    "town": "寄居",
    "town_kana": "ヨリイ",
    "street": null,
    "office_name": null,
    "office_name_kana": null
  },
  "3442": {
    "postcode": "3293442",
    "prefecture": "栃木県",
    "prefecture_kana": "トチギケン",
    "prefecture_code": 9,
    "city": "那須郡那須町",
    "city_kana": "ナスグンナスマチ",
    "town": "横岡",
    "town_kana": "ヨコオカ",
    "street": null,
    "office_name": null,
    "office_name_kana": null
  },
  "3443": {
    "postcode": "3293443",
    "prefecture": "栃木県",
    "prefecture_kana": "トチギケン",
    "prefecture_code": 9,
    "city": "那須郡那須町",
    "city_kana": "ナスグンナスマチ",
    "town": "芦野",
    "town_kana": "アシノ",
    "street": null,
    "office_name": null,
    "office_name_kana": null
  },
  "3444": {
    "postcode": "3293444",
    "prefecture": "栃木県",
    "prefecture_kana": "トチギケン",
    "prefecture_code": 9,
    "city": "那須郡那須町",
    "city_kana": "ナスグンナスマチ",
    "town": "寺子",
    "town_kana": "テラコ",
    "street": null,
    "office_name": null,
    "office_name_kana": null
  },
  "3445": {
    "postcode": "3293445",
    "prefecture": "栃木県",
    "prefecture_kana": "トチギケン",
    "prefecture_code": 9,
    "city": "那須郡那須町",
    "city_kana": "ナスグンナスマチ",
    "town": "東岩崎",
    "town_kana": "ヒガシイワザキ",
    "street": null,
    "office_name": null,
    "office_name_kana": null
  },
  "3446": {
    "postcode": "3293446",
    "prefecture": "栃木県",
    "prefecture_kana": "トチギケン",
    "prefecture_code": 9,
    "city": "那須郡那須町",
    "city_kana": "ナスグンナスマチ",
    "town": "沼野井",
    "town_kana": "ヌマノイ",
    "street": null,
    "office_name": null,
    "office_name_kana": null
  },
  "3447": {
    "postcode": "3293447",
    "prefecture": "栃木県",
    "prefecture_kana": "トチギケン",
    "prefecture_code": 9,
    "city": "那須郡那須町",
    "city_kana": "ナスグンナスマチ",
    "town": "稲沢",
    "town_kana": "イナザワ",
    "street": null,
    "office_name": null,
    "office_name_kana": null
  },
  "4211": {
    "postcode": "3294211",
    "prefecture": "栃木県",
    "prefecture_kana": "トチギケン",
    "prefecture_code": 9,
    "city": "足利市",
    "city_kana": "アシカガシ",
    "town": "西場町",
    "town_kana": "ニシバチョウ",
    "street": null,
    "office_name": null,
    "office_name_kana": null
  },
  "4212": {
    "postcode": "3294212",
    "prefecture": "栃木県",
    "prefecture_kana": "トチギケン",
    "prefecture_code": 9,
    "city": "足利市",
    "city_kana": "アシカガシ",
    "town": "稲岡町",
    "town_kana": "イナオカチョウ",
    "street": null,
    "office_name": null,
    "office_name_kana": null
  },
  "4213": {
    "postcode": "3294213",
    "prefecture": "栃木県",
    "prefecture_kana": "トチギケン",
    "prefecture_code": 9,
    "city": "足利市",
    "city_kana": "アシカガシ",
    "town": "寺岡町",
    "town_kana": "テラオカチョウ",
    "street": null,
    "office_name": null,
    "office_name_kana": null
  },
  "4214": {
    "postcode": "3294214",
    "prefecture": "栃木県",
    "prefecture_kana": "トチギケン",
    "prefecture_code": 9,
    "city": "足利市",
    "city_kana": "アシカガシ",
    "town": "多田木町",
    "town_kana": "タダキチョウ",
    "street": null,
    "office_name": null,
    "office_name_kana": null
  },
  "4215": {
    "postcode": "3294215",
    "prefecture": "栃木県",
    "prefecture_kana": "トチギケン",
    "prefecture_code": 9,
    "city": "足利市",
    "city_kana": "アシカガシ",
    "town": "奥戸町",
    "town_kana": "オクドチョウ",
    "street": null,
    "office_name": null,
    "office_name_kana": null
  },
  "4216": {
    "postcode": "3294216",
    "prefecture": "栃木県",
    "prefecture_kana": "トチギケン",
    "prefecture_code": 9,
    "city": "足利市",
    "city_kana": "アシカガシ",
    "town": "迫間町",
    "town_kana": "ハサマチョウ",
    "street": null,
    "office_name": null,
    "office_name_kana": null
  },
  "4217": {
    "postcode": "3294217",
    "prefecture": "栃木県",
    "prefecture_kana": "トチギケン",
    "prefecture_code": 9,
    "city": "足利市",
    "city_kana": "アシカガシ",
    "town": "駒場町",
    "town_kana": "コマバチョウ",
    "street": null,
    "office_name": null,
    "office_name_kana": null
  },
  "4301": {
    "postcode": "3294301",
    "prefecture": "栃木県",
    "prefecture_kana": "トチギケン",
    "prefecture_code": 9,
    "city": "栃木市",
    "city_kana": "トチギシ",
    "town": "岩舟町鷲巣",
    "town_kana": "イワフネマチワシノス",
    "street": null,
    "office_name": null,
    "office_name_kana": null
  },
  "4302": {
    "postcode": "3294302",
    "prefecture": "栃木県",
    "prefecture_kana": "トチギケン",
    "prefecture_code": 9,
    "city": "栃木市",
    "city_kana": "トチギシ",
    "town": "岩舟町五十畑",
    "town_kana": "イワフネマチイカバタ",
    "street": null,
    "office_name": null,
    "office_name_kana": null
  },
  "4303": {
    "postcode": "3294303",
    "prefecture": "栃木県",
    "prefecture_kana": "トチギケン",
    "prefecture_code": 9,
    "city": "栃木市",
    "city_kana": "トチギシ",
    "town": "岩舟町和泉",
    "town_kana": "イワフネマチイズミ",
    "street": null,
    "office_name": null,
    "office_name_kana": null
  },
  "4304": {
    "postcode": "3294304",
    "prefecture": "栃木県",
    "prefecture_kana": "トチギケン",
    "prefecture_code": 9,
    "city": "栃木市",
    "city_kana": "トチギシ",
    "town": "岩舟町静和",
    "town_kana": "イワフネマチシズワ",
    "street": null,
    "office_name": null,
    "office_name_kana": null
  },
  "4305": {
    "postcode": "3294305",
    "prefecture": "栃木県",
    "prefecture_kana": "トチギケン",
    "prefecture_code": 9,
    "city": "栃木市",
    "city_kana": "トチギシ",
    "town": "岩舟町静戸",
    "town_kana": "イワフネマチシズコ",
    "street": null,
    "office_name": null,
    "office_name_kana": null
  },
  "4306": {
    "postcode": "3294306",
    "prefecture": "栃木県",
    "prefecture_kana": "トチギケン",
    "prefecture_code": 9,
    "city": "栃木市",
    "city_kana": "トチギシ",
    "town": "岩舟町曲ケ島",
    "town_kana": "イワフネマチマガノシマ",
    "street": null,
    "office_name": null,
    "office_name_kana": null
  },
  "4307": {
    "postcode": "3294307",
    "prefecture": "栃木県",
    "prefecture_kana": "トチギケン",
    "prefecture_code": 9,
    "city": "栃木市",
    "city_kana": "トチギシ",
    "town": "岩舟町静",
    "town_kana": "イワフネマチシズカ",
    "street": null,
    "office_name": null,
    "office_name_kana": null
  },
  "4308": {
    "postcode": "3294308",
    "prefecture": "栃木県",
    "prefecture_kana": "トチギケン",
    "prefecture_code": 9,
    "city": "栃木市",
    "city_kana": "トチギシ",
    "town": "岩舟町下津原",
    "town_kana": "イワフネマチシモツバラ",
    "street": null,
    "office_name": null,
    "office_name_kana": null
  },
  "4309": {
    "postcode": "3294309",
    "prefecture": "栃木県",
    "prefecture_kana": "トチギケン",
    "prefecture_code": 9,
    "city": "栃木市",
    "city_kana": "トチギシ",
    "town": "岩舟町畳岡",
    "town_kana": "イワフネマチタタミオカ",
    "street": null,
    "office_name": null,
    "office_name_kana": null
  },
  "4311": {
    "postcode": "3294311",
    "prefecture": "栃木県",
    "prefecture_kana": "トチギケン",
    "prefecture_code": 9,
    "city": "栃木市",
    "city_kana": "トチギシ",
    "town": "岩舟町古江",
    "town_kana": "イワフネマチフルエ",
    "street": null,
    "office_name": null,
    "office_name_kana": null
  },
  "4312": {
    "postcode": "3294312",
    "prefecture": "栃木県",
    "prefecture_kana": "トチギケン",
    "prefecture_code": 9,
    "city": "栃木市",
    "city_kana": "トチギシ",
    "town": "岩舟町下岡",
    "town_kana": "イワフネマチシモオカ",
    "street": null,
    "office_name": null,
    "office_name_kana": null
  },
  "4313": {
    "postcode": "3294313",
    "prefecture": "栃木県",
    "prefecture_kana": "トチギケン",
    "prefecture_code": 9,
    "city": "栃木市",
    "city_kana": "トチギシ",
    "town": "岩舟町上岡",
    "town_kana": "イワフネマチカミオカ",
    "street": null,
    "office_name": null,
    "office_name_kana": null
  },
  "4314": {
    "postcode": "3294314",
    "prefecture": "栃木県",
    "prefecture_kana": "トチギケン",
    "prefecture_code": 9,
    "city": "栃木市",
    "city_kana": "トチギシ",
    "town": "岩舟町小野寺",
    "town_kana": "イワフネマチオノデラ",
    "street": null,
    "office_name": null,
    "office_name_kana": null
  },
  "4315": {
    "postcode": "3294315",
    "prefecture": "栃木県",
    "prefecture_kana": "トチギケン",
    "prefecture_code": 9,
    "city": "栃木市",
    "city_kana": "トチギシ",
    "town": "岩舟町三谷",
    "town_kana": "イワフネマチミヤ",
    "street": null,
    "office_name": null,
    "office_name_kana": null
  },
  "4316": {
    "postcode": "3294316",
    "prefecture": "栃木県",
    "prefecture_kana": "トチギケン",
    "prefecture_code": 9,
    "city": "栃木市",
    "city_kana": "トチギシ",
    "town": "岩舟町新里",
    "town_kana": "イワフネマチニッサト",
    "street": null,
    "office_name": null,
    "office_name_kana": null
  },
  "4392": {
    "postcode": "3294392",
    "prefecture": "栃木県",
    "prefecture_kana": "トチギケン",
    "prefecture_code": 9,
    "city": "栃木市",
    "city_kana": "トチギシ",
    "town": "岩舟町静",
    "town_kana": "イワフネマチシズカ",
    "street": "５１３２−２",
    "office_name": "栃木市役所　岩舟総合支所",
    "office_name_kana": "トチギシヤクシヨ イワフネソウゴウシシヨ"
  },
  "4401": {
    "postcode": "3294401",
    "prefecture": "栃木県",
    "prefecture_kana": "トチギケン",
    "prefecture_code": 9,
    "city": "栃木市",
    "city_kana": "トチギシ",
    "town": "大平町牛久",
    "town_kana": "オオヒラマチウシク",
    "street": null,
    "office_name": null,
    "office_name_kana": null
  },
  "4402": {
    "postcode": "3294402",
    "prefecture": "栃木県",
    "prefecture_kana": "トチギケン",
    "prefecture_code": 9,
    "city": "栃木市",
    "city_kana": "トチギシ",
    "town": "大平町土与",
    "town_kana": "オオヒラマチドヨ",
    "street": null,
    "office_name": null,
    "office_name_kana": null
  },
  "4403": {
    "postcode": "3294403",
    "prefecture": "栃木県",
    "prefecture_kana": "トチギケン",
    "prefecture_code": 9,
    "city": "栃木市",
    "city_kana": "トチギシ",
    "town": "大平町蔵井",
    "town_kana": "オオヒラマチクライ",
    "street": null,
    "office_name": null,
    "office_name_kana": null
  },
  "4404": {
    "postcode": "3294404",
    "prefecture": "栃木県",
    "prefecture_kana": "トチギケン",
    "prefecture_code": 9,
    "city": "栃木市",
    "city_kana": "トチギシ",
    "town": "大平町富田",
    "town_kana": "オオヒラマチトミダ",
    "street": null,
    "office_name": null,
    "office_name_kana": null
  },
  "4405": {
    "postcode": "3294405",
    "prefecture": "栃木県",
    "prefecture_kana": "トチギケン",
    "prefecture_code": 9,
    "city": "栃木市",
    "city_kana": "トチギシ",
    "town": "大平町西山田",
    "town_kana": "オオヒラマチニシヤマダ",
    "street": null,
    "office_name": null,
    "office_name_kana": null
  },
  "4406": {
    "postcode": "3294406",
    "prefecture": "栃木県",
    "prefecture_kana": "トチギケン",
    "prefecture_code": 9,
    "city": "栃木市",
    "city_kana": "トチギシ",
    "town": "大平町下皆川",
    "town_kana": "オオヒラマチシモミナガワ",
    "street": null,
    "office_name": null,
    "office_name_kana": null
  },
  "4407": {
    "postcode": "3294407",
    "prefecture": "栃木県",
    "prefecture_kana": "トチギケン",
    "prefecture_code": 9,
    "city": "栃木市",
    "city_kana": "トチギシ",
    "town": "大平町川連",
    "town_kana": "オオヒラマチカワツレ",
    "street": null,
    "office_name": null,
    "office_name_kana": null
  },
  "4411": {
    "postcode": "3294411",
    "prefecture": "栃木県",
    "prefecture_kana": "トチギケン",
    "prefecture_code": 9,
    "city": "栃木市",
    "city_kana": "トチギシ",
    "town": "大平町横堀",
    "town_kana": "オオヒラマチヨコボリ",
    "street": null,
    "office_name": null,
    "office_name_kana": null
  },
  "4412": {
    "postcode": "3294412",
    "prefecture": "栃木県",
    "prefecture_kana": "トチギケン",
    "prefecture_code": 9,
    "city": "栃木市",
    "city_kana": "トチギシ",
    "town": "大平町北武井",
    "town_kana": "オオヒラマチキタタケイ",
    "street": null,
    "office_name": null,
    "office_name_kana": null
  },
  "4413": {
    "postcode": "3294413",
    "prefecture": "栃木県",
    "prefecture_kana": "トチギケン",
    "prefecture_code": 9,
    "city": "栃木市",
    "city_kana": "トチギシ",
    "town": "大平町上高島",
    "town_kana": "オオヒラマチカミタカシマ",
    "street": null,
    "office_name": null,
    "office_name_kana": null
  },
  "4414": {
    "postcode": "3294414",
    "prefecture": "栃木県",
    "prefecture_kana": "トチギケン",
    "prefecture_code": 9,
    "city": "栃木市",
    "city_kana": "トチギシ",
    "town": "大平町下高島",
    "town_kana": "オオヒラマチシモタカシマ",
    "street": null,
    "office_name": null,
    "office_name_kana": null
  },
  "4415": {
    "postcode": "3294415",
    "prefecture": "栃木県",
    "prefecture_kana": "トチギケン",
    "prefecture_code": 9,
    "city": "栃木市",
    "city_kana": "トチギシ",
    "town": "大平町真弓",
    "town_kana": "オオヒラマチマユミ",
    "street": null,
    "office_name": null,
    "office_name_kana": null
  },
  "4421": {
    "postcode": "3294421",
    "prefecture": "栃木県",
    "prefecture_kana": "トチギケン",
    "prefecture_code": 9,
    "city": "栃木市",
    "city_kana": "トチギシ",
    "town": "大平町西野田",
    "town_kana": "オオヒラマチニシノダ",
    "street": null,
    "office_name": null,
    "office_name_kana": null
  },
  "4422": {
    "postcode": "3294422",
    "prefecture": "栃木県",
    "prefecture_kana": "トチギケン",
    "prefecture_code": 9,
    "city": "栃木市",
    "city_kana": "トチギシ",
    "town": "大平町榎本",
    "town_kana": "オオヒラマチエノモト",
    "street": null,
    "office_name": null,
    "office_name_kana": null
  },
  "4423": {
    "postcode": "3294423",
    "prefecture": "栃木県",
    "prefecture_kana": "トチギケン",
    "prefecture_code": 9,
    "city": "栃木市",
    "city_kana": "トチギシ",
    "town": "大平町西水代",
    "town_kana": "オオヒラマチニシミズシロ",
    "street": null,
    "office_name": null,
    "office_name_kana": null
  },
  "4424": {
    "postcode": "3294424",
    "prefecture": "栃木県",
    "prefecture_kana": "トチギケン",
    "prefecture_code": 9,
    "city": "栃木市",
    "city_kana": "トチギシ",
    "town": "大平町伯仲",
    "town_kana": "オオヒラマチハクチュウ",
    "street": null,
    "office_name": null,
    "office_name_kana": null
  },
  "4425": {
    "postcode": "3294425",
    "prefecture": "栃木県",
    "prefecture_kana": "トチギケン",
    "prefecture_code": 9,
    "city": "栃木市",
    "city_kana": "トチギシ",
    "town": "大平町新",
    "town_kana": "オオヒラマチアライ",
    "street": null,
    "office_name": null,
    "office_name_kana": null
  },
  "4492": {
    "postcode": "3294492",
    "prefecture": "栃木県",
    "prefecture_kana": "トチギケン",
    "prefecture_code": 9,
    "city": "栃木市",
    "city_kana": "トチギシ",
    "town": "大平町富田",
    "town_kana": "オオヒラマチトミダ",
    "street": "５５８",
    "office_name": "栃木市役所　大平総合支所",
    "office_name_kana": "トチギシヤクシヨ オオヒラソウゴウシシヨ"
  },
  "4493": {
    "postcode": "3294493",
    "prefecture": "栃木県",
    "prefecture_kana": "トチギケン",
    "prefecture_code": 9,
    "city": "栃木市",
    "city_kana": "トチギシ",
    "town": "大平町富田",
    "town_kana": "オオヒラマチトミダ",
    "street": "８００",
    "office_name": "日立アプライアンス　（株）　栃木空調本部",
    "office_name_kana": "ヒタチアプライアンス (カブ) トチギクウチヨウホンブ"
  },
  "4498": {
    "postcode": "3294498",
    "prefecture": "栃木県",
    "prefecture_kana": "トチギケン",
    "prefecture_code": 9,
    "city": "栃木市",
    "city_kana": "トチギシ",
    "town": "大平町川連",
    "town_kana": "オオヒラマチカワツレ",
    "street": "４２０−１",
    "office_name": "とちぎメディカルセンターしもつが",
    "office_name_kana": "トチギメデイカルセンタ-シモツガ"
  }
}