{
  "0000": {
    "postcode": "3310000",
    "prefecture": "埼玉県",
    "prefecture_kana": "サイタマケン",
    "prefecture_code": 11,
    "city": "さいたま市西区",
    "city_kana": "サイタマシニシク",
    "town": "",
    "town_kana": "",
    "street": null,
    "office_name": null,
    "office_name_kana": null
  },
  "0045": {
    "postcode": "3310045",
    "prefecture": "埼玉県",
    "prefecture_kana": "サイタマケン",
    "prefecture_code": 11,
    "city": "さいたま市西区",
    "city_kana": "サイタマシニシク",
    "town": "内野本郷",
    "town_kana": "ウチノホンゴウ",
    "street": null,
    "office_name": null,
    "office_name_kana": null
  },
  "0046": {
    "postcode": "3310046",
    "prefecture": "埼玉県",
    "prefecture_kana": "サイタマケン",
    "prefecture_code": 11,
    "city": "さいたま市西区",
    "city_kana": "サイタマシニシク",
    "town": "宮前町",
    "town_kana": "ミヤマエチョウ",
    "street": null,
    "office_name": null,
    "office_name_kana": null
  },
  "0047": {
    "postcode": "3310047",
    "prefecture": "埼玉県",
    "prefecture_kana": "サイタマケン",
    "prefecture_code": 11,
    "city": "さいたま市西区",
    "city_kana": "サイタマシニシク",
    "town": "指扇",
    "town_kana": "サシオウギ",
    "street": null,
    "office_name": null,
    "office_name_kana": null
  },
  "0048": {
    "postcode": "3310048",
    "prefecture": "埼玉県",
    "prefecture_kana": "サイタマケン",
    "prefecture_code": 11,
    "city": "さいたま市西区",
    "city_kana": "サイタマシニシク",
    "town": "清河寺",
    "town_kana": "セイガンジ",
    "street": null,
    "office_name": null,
    "office_name_kana": null
  },
  "0049": {
    "postcode": "3310049",
    "prefecture": "埼玉県",
    "prefecture_kana": "サイタマケン",
    "prefecture_code": 11,
    "city": "さいたま市西区",
    "city_kana": "サイタマシニシク",
    "town": "西新井",
    "town_kana": "ニシアライ",
    "street": null,
    "office_name": null,
    "office_name_kana": null
  },
  "0052": {
    "postcode": "3310052",
    "prefecture": "埼玉県",
    "prefecture_kana": "サイタマケン",
    "prefecture_code": 11,
    "city": "さいたま市西区",
    "city_kana": "サイタマシニシク",
    "town": "三橋",
    "town_kana": "ミハシ",
    "street": null,
    "office_name": null,
    "office_name_kana": null
  },
  "0053": {
    "postcode": "3310053",
    "prefecture": "埼玉県",
    "prefecture_kana": "サイタマケン",
    "prefecture_code": 11,
    "city": "さいたま市西区",
    "city_kana": "サイタマシニシク",
    "town": "植田谷本",
    "town_kana": "ウエタヤホン",
    "street": null,
    "office_name": null,
    "office_name_kana": null
  },
  "0054": {
    "postcode": "3310054",
    "prefecture": "埼玉県",
    "prefecture_kana": "サイタマケン",
    "prefecture_code": 11,
    "city": "さいたま市西区",
    "city_kana": "サイタマシニシク",
    "town": "島根",
    "town_kana": "シマネ",
    "street": null,
    "office_name": null,
    "office_name_kana": null
  },
  "0055": {
    "postcode": "3310055",
    "prefecture": "埼玉県",
    "prefecture_kana": "サイタマケン",
    "prefecture_code": 11,
    "city": "さいたま市西区",
    "city_kana": "サイタマシニシク",
    "town": "昭和",
    "town_kana": "ショウワ",
    "street": null,
    "office_name": null,
    "office_name_kana": null
  },
  "0056": {
    "postcode": "3310056",
    "prefecture": "埼玉県",
    "prefecture_kana": "サイタマケン",
    "prefecture_code": 11,
    "city": "さいたま市西区",
    "city_kana": "サイタマシニシク",
    "town": "三条町",
    "town_kana": "サンジョウマチ",
    "street": null,
    "office_name": null,
    "office_name_kana": null
  },
  "0057": {
    "postcode": "3310057",
    "prefecture": "埼玉県",
    "prefecture_kana": "サイタマケン",
    "prefecture_code": 11,
    "city": "さいたま市西区",
    "city_kana": "サイタマシニシク",
    "town": "中野林",
    "town_kana": "ナカノバヤシ",
    "street": null,
    "office_name": null,
    "office_name_kana": null
  },
  "0058": {
    "postcode": "3310058",
    "prefecture": "埼玉県",
    "prefecture_kana": "サイタマケン",
    "prefecture_code": 11,
    "city": "さいたま市西区",
    "city_kana": "サイタマシニシク",
    "town": "飯田",
    "town_kana": "イイダ",
    "street": null,
    "office_name": null,
    "office_name_kana": null
  },
  "0059": {
    "postcode": "3310059",
    "prefecture": "埼玉県",
    "prefecture_kana": "サイタマケン",
    "prefecture_code": 11,
    "city": "さいたま市西区",
    "city_kana": "サイタマシニシク",
    "town": "水判土",
    "town_kana": "ミズハタ",
    "street": null,
    "office_name": null,
    "office_name_kana": null
  },
  "0060": {
    "postcode": "3310060",
    "prefecture": "埼玉県",
    "prefecture_kana": "サイタマケン",
    "prefecture_code": 11,
    "city": "さいたま市西区",
    "city_kana": "サイタマシニシク",
    "town": "塚本町",
    "town_kana": "ツカモトチョウ",
    "street": null,
    "office_name": null,
    "office_name_kana": null
  },
  "0061": {
    "postcode": "3310061",
    "prefecture": "埼玉県",
    "prefecture_kana": "サイタマケン",
    "prefecture_code": 11,
    "city": "さいたま市西区",
    "city_kana": "サイタマシニシク",
    "town": "西遊馬",
    "town_kana": "ニシアスマ",
    "street": null,
    "office_name": null,
    "office_name_kana": null
  },
  "0062": {
    "postcode": "3310062",
    "prefecture": "埼玉県",
    "prefecture_kana": "サイタマケン",
    "prefecture_code": 11,
    "city": "さいたま市西区",
    "city_kana": "サイタマシニシク",
    "town": "土屋",
    "town_kana": "ツチヤ",
    "street": null,
    "office_name": null,
    "office_name_kana": null
  },
  "0063": {
    "postcode": "3310063",
    "prefecture": "埼玉県",
    "prefecture_kana": "サイタマケン",
    "prefecture_code": 11,
    "city": "さいたま市西区",
    "city_kana": "サイタマシニシク",
    "town": "プラザ",
    "town_kana": "プラザ",
    "street": null,
    "office_name": null,
    "office_name_kana": null
  },
  "0064": {
    "postcode": "3310064",
    "prefecture": "埼玉県",
    "prefecture_kana": "サイタマケン",
    "prefecture_code": 11,
    "city": "さいたま市西区",
    "city_kana": "サイタマシニシク",
    "town": "佐知川",
    "town_kana": "サジカワ",
    "street": null,
    "office_name": null,
    "office_name_kana": null
  },
  "0065": {
    "postcode": "3310065",
    "prefecture": "埼玉県",
    "prefecture_kana": "サイタマケン",
    "prefecture_code": 11,
    "city": "さいたま市西区",
    "city_kana": "サイタマシニシク",
    "town": "二ツ宮",
    "town_kana": "フタツミヤ",
    "street": null,
    "office_name": null,
    "office_name_kana": null
  },
  "0066": {
    "postcode": "3310066",
    "prefecture": "埼玉県",
    "prefecture_kana": "サイタマケン",
    "prefecture_code": 11,
    "city": "さいたま市西区",
    "city_kana": "サイタマシニシク",
    "town": "塚本",
    "town_kana": "ツカモト",
    "street": null,
    "office_name": null,
    "office_name_kana": null
  },
  "0067": {
    "postcode": "3310067",
    "prefecture": "埼玉県",
    "prefecture_kana": "サイタマケン",
    "prefecture_code": 11,
    "city": "さいたま市西区",
    "city_kana": "サイタマシニシク",
    "town": "植田谷本村新田",
    "town_kana": "ウエタヤホンムラシンデン",
    "street": null,
    "office_name": null,
    "office_name_kana": null
  },
  "0068": {
    "postcode": "3310068",
    "prefecture": "埼玉県",
    "prefecture_kana": "サイタマケン",
    "prefecture_code": 11,
    "city": "さいたま市西区",
    "city_kana": "サイタマシニシク",
    "town": "飯田新田",
    "town_kana": "イイダシンデン",
    "street": null,
    "office_name": null,
    "office_name_kana": null
  },
  "0069": {
    "postcode": "3310069",
    "prefecture": "埼玉県",
    "prefecture_kana": "サイタマケン",
    "prefecture_code": 11,
    "city": "さいたま市西区",
    "city_kana": "サイタマシニシク",
    "town": "湯木町",
    "town_kana": "ユギチョウ",
    "street": null,
    "office_name": null,
    "office_name_kana": null
  },
  "0071": {
    "postcode": "3310071",
    "prefecture": "埼玉県",
    "prefecture_kana": "サイタマケン",
    "prefecture_code": 11,
    "city": "さいたま市西区",
    "city_kana": "サイタマシニシク",
    "town": "高木",
    "town_kana": "タカギ",
    "street": null,
    "office_name": null,
    "office_name_kana": null
  },
  "0072": {
    "postcode": "3310072",
    "prefecture": "埼玉県",
    "prefecture_kana": "サイタマケン",
    "prefecture_code": 11,
    "city": "さいたま市西区",
    "city_kana": "サイタマシニシク",
    "town": "平方領々家",
    "town_kana": "ヒラカタリョウリョウケ",
    "street": null,
    "office_name": null,
    "office_name_kana": null
  },
  "0073": {
    "postcode": "3310073",
    "prefecture": "埼玉県",
    "prefecture_kana": "サイタマケン",
    "prefecture_code": 11,
    "city": "さいたま市西区",
    "city_kana": "サイタマシニシク",
    "town": "指扇領別所",
    "town_kana": "サシオウギリョウベッショ",
    "street": null,
    "office_name": null,
    "office_name_kana": null
  },
  "0074": {
    "postcode": "3310074",
    "prefecture": "埼玉県",
    "prefecture_kana": "サイタマケン",
    "prefecture_code": 11,
    "city": "さいたま市西区",
    "city_kana": "サイタマシニシク",
    "town": "宝来",
    "town_kana": "ホウライ",
    "street": null,
    "office_name": null,
    "office_name_kana": null
  },
  "0075": {
    "postcode": "3310075",
    "prefecture": "埼玉県",
    "prefecture_kana": "サイタマケン",
    "prefecture_code": 11,
    "city": "さいたま市西区",
    "city_kana": "サイタマシニシク",
    "town": "峰岸",
    "town_kana": "ミネギシ",
    "street": null,
    "office_name": null,
    "office_name_kana": null
  },
  "0076": {
    "postcode": "3310076",
    "prefecture": "埼玉県",
    "prefecture_kana": "サイタマケン",
    "prefecture_code": 11,
    "city": "さいたま市西区",
    "city_kana": "サイタマシニシク",
    "town": "指扇領辻",
    "town_kana": "サシオウギリョウツジ",
    "street": null,
    "office_name": null,
    "office_name_kana": null
  },
  "0077": {
    "postcode": "3310077",
    "prefecture": "埼玉県",
    "prefecture_kana": "サイタマケン",
    "prefecture_code": 11,
    "city": "さいたま市西区",
    "city_kana": "サイタマシニシク",
    "town": "中釘",
    "town_kana": "ナカクギ",
    "street": null,
    "office_name": null,
    "office_name_kana": null
  },
  "0078": {
    "postcode": "3310078",
    "prefecture": "埼玉県",
    "prefecture_kana": "サイタマケン",
    "prefecture_code": 11,
    "city": "さいたま市西区",
    "city_kana": "サイタマシニシク",
    "town": "西大宮",
    "town_kana": "ニシオオミヤ",
    "street": null,
    "office_name": null,
    "office_name_kana": null
  },
  "0800": {
    "postcode": "3310800",
    "prefecture": "埼玉県",
    "prefecture_kana": "サイタマケン",
    "prefecture_code": 11,
    "city": "さいたま市北区",
    "city_kana": "サイタマシキタク",
    "town": "",
    "town_kana": "",
    "street": null,
    "office_name": null,
    "office_name_kana": null
  },
  "0801": {
    "postcode": "3310801",
    "prefecture": "埼玉県",
    "prefecture_kana": "サイタマケン",
    "prefecture_code": 11,
    "city": "さいたま市北区",
    "city_kana": "サイタマシキタク",
    "town": "今羽町",
    "town_kana": "コンバチョウ",
    "street": null,
    "office_name": null,
    "office_name_kana": null
  },
  "0802": {
    "postcode": "3310802",
    "prefecture": "埼玉県",
    "prefecture_kana": "サイタマケン",
    "prefecture_code": 11,
    "city": "さいたま市北区",
    "city_kana": "サイタマシキタク",
    "town": "本郷町",
    "town_kana": "ホンゴウチョウ",
    "street": null,
    "office_name": null,
    "office_name_kana": null
  },
  "0803": {
    "postcode": "3310803",
    "prefecture": "埼玉県",
    "prefecture_kana": "サイタマケン",
    "prefecture_code": 11,
    "city": "さいたま市北区",
    "city_kana": "サイタマシキタク",
    "town": "見沼",
    "town_kana": "ミヌマ",
    "street": null,
    "office_name": null,
    "office_name_kana": null
  },
  "0804": {
    "postcode": "3310804",
    "prefecture": "埼玉県",
    "prefecture_kana": "サイタマケン",
    "prefecture_code": 11,
    "city": "さいたま市北区",
    "city_kana": "サイタマシキタク",
    "town": "土呂町",
    "town_kana": "トロチョウ",
    "street": null,
    "office_name": null,
    "office_name_kana": null
  },
  "0805": {
    "postcode": "3310805",
    "prefecture": "埼玉県",
    "prefecture_kana": "サイタマケン",
    "prefecture_code": 11,
    "city": "さいたま市北区",
    "city_kana": "サイタマシキタク",
    "town": "盆栽町",
    "town_kana": "ボンサイチョウ",
    "street": null,
    "office_name": null,
    "office_name_kana": null
  },
  "0811": {
    "postcode": "3310811",
    "prefecture": "埼玉県",
    "prefecture_kana": "サイタマケン",
    "prefecture_code": 11,
    "city": "さいたま市北区",
    "city_kana": "サイタマシキタク",
    "town": "吉野町",
    "town_kana": "ヨシノチョウ",
    "street": null,
    "office_name": null,
    "office_name_kana": null
  },
  "0812": {
    "postcode": "3310812",
    "prefecture": "埼玉県",
    "prefecture_kana": "サイタマケン",
    "prefecture_code": 11,
    "city": "さいたま市北区",
    "city_kana": "サイタマシキタク",
    "town": "宮原町",
    "town_kana": "ミヤハラチョウ",
    "street": null,
    "office_name": null,
    "office_name_kana": null
  },
  "0813": {
    "postcode": "3310813",
    "prefecture": "埼玉県",
    "prefecture_kana": "サイタマケン",
    "prefecture_code": 11,
    "city": "さいたま市北区",
    "city_kana": "サイタマシキタク",
    "town": "植竹町",
    "town_kana": "ウエタケチョウ",
    "street": null,
    "office_name": null,
    "office_name_kana": null
  },
  "0814": {
    "postcode": "3310814",
    "prefecture": "埼玉県",
    "prefecture_kana": "サイタマケン",
    "prefecture_code": 11,
    "city": "さいたま市北区",
    "city_kana": "サイタマシキタク",
    "town": "東大成町",
    "town_kana": "ヒガシオオナリチョウ",
    "street": null,
    "office_name": null,
    "office_name_kana": null
  },
  "0815": {
    "postcode": "3310815",
    "prefecture": "埼玉県",
    "prefecture_kana": "サイタマケン",
    "prefecture_code": 11,
    "city": "さいたま市北区",
    "city_kana": "サイタマシキタク",
    "town": "大成町",
    "town_kana": "オオナリチョウ",
    "street": null,
    "office_name": null,
    "office_name_kana": null
  },
  "0821": {
    "postcode": "3310821",
    "prefecture": "埼玉県",
    "prefecture_kana": "サイタマケン",
    "prefecture_code": 11,
    "city": "さいたま市北区",
    "city_kana": "サイタマシキタク",
    "town": "別所町",
    "town_kana": "ベッショチョウ",
    "street": null,
    "office_name": null,
    "office_name_kana": null
  },
  "0822": {
    "postcode": "3310822",
    "prefecture": "埼玉県",
    "prefecture_kana": "サイタマケン",
    "prefecture_code": 11,
    "city": "さいたま市北区",
    "city_kana": "サイタマシキタク",
    "town": "奈良町",
    "town_kana": "ナラチョウ",
    "street": null,
    "office_name": null,
    "office_name_kana": null
  },
  "0823": {
    "postcode": "3310823",
    "prefecture": "埼玉県",
    "prefecture_kana": "サイタマケン",
    "prefecture_code": 11,
    "city": "さいたま市北区",
    "city_kana": "サイタマシキタク",
    "town": "日進町",
    "town_kana": "ニッシンチョウ",
    "street": null,
    "office_name": null,
    "office_name_kana": null
  },
  "0824": {
    "postcode": "3310824",
    "prefecture": "埼玉県",
    "prefecture_kana": "サイタマケン",
    "prefecture_code": 11,
    "city": "さいたま市北区",
    "city_kana": "サイタマシキタク",
    "town": "上加",
    "town_kana": "カミカ",
    "street": null,
    "office_name": null,
    "office_name_kana": null
  },
  "0825": {
    "postcode": "3310825",
    "prefecture": "埼玉県",
    "prefecture_kana": "サイタマケン",
    "prefecture_code": 11,
    "city": "さいたま市北区",
    "city_kana": "サイタマシキタク",
    "town": "櫛引町",
    "town_kana": "クシヒキチョウ",
    "street": null,
    "office_name": null,
    "office_name_kana": null
  },
  "8501": {
    "postcode": "3318501",
    "prefecture": "埼玉県",
    "prefecture_kana": "サイタマケン",
    "prefecture_code": 11,
    "city": "さいたま市北区",
    "city_kana": "サイタマシキタク",
    "town": "日進町",
    "town_kana": "ニッシンチョウ",
    "street": "２丁目１９１７番地",
    "office_name": "カルソニックカンセイ　株式会社",
    "office_name_kana": "カルソニツクカンセイ カブシキガイシヤ"
  },
  "8511": {
    "postcode": "3318511",
    "prefecture": "埼玉県",
    "prefecture_kana": "サイタマケン",
    "prefecture_code": 11,
    "city": "さいたま市西区",
    "city_kana": "サイタマシニシク",
    "town": "三橋",
    "town_kana": "ミハシ",
    "street": "５丁目１５５５",
    "office_name": "株式会社　島忠",
    "office_name_kana": "カブシキガイシヤ シマチユウ"
  },
  "8513": {
    "postcode": "3318513",
    "prefecture": "埼玉県",
    "prefecture_kana": "サイタマケン",
    "prefecture_code": 11,
    "city": "さいたま市北区",
    "city_kana": "サイタマシキタク",
    "town": "日進町",
    "town_kana": "ニッシンチョウ",
    "street": "２丁目０番地",
    "office_name": "ＪＲ東日本　研究開発センター",
    "office_name_kana": "ジエイア-ルヒガシニホン ケンキユウカイハツセンタ-"
  },
  "8520": {
    "postcode": "3318520",
    "prefecture": "埼玉県",
    "prefecture_kana": "サイタマケン",
    "prefecture_code": 11,
    "city": "さいたま市北区",
    "city_kana": "サイタマシキタク",
    "town": "大成町",
    "town_kana": "オオナリチョウ",
    "street": "４丁目８３",
    "office_name": "ツルゲン情報　株式会社",
    "office_name_kana": "ツルゲンジヨウホウ カブシキガイシヤ"
  },
  "8532": {
    "postcode": "3318532",
    "prefecture": "埼玉県",
    "prefecture_kana": "サイタマケン",
    "prefecture_code": 11,
    "city": "さいたま市北区",
    "city_kana": "サイタマシキタク",
    "town": "大成町",
    "town_kana": "オオナリチョウ",
    "street": "４丁目８３３",
    "office_name": "明治乳業　株式会社　東京支社　東関東支店",
    "office_name_kana": "メイジニユウギヨウ カブシキガイシヤ トウキヨウシシヤ ヒガシカントウシテン"
  },
  "8533": {
    "postcode": "3318533",
    "prefecture": "埼玉県",
    "prefecture_kana": "サイタマケン",
    "prefecture_code": 11,
    "city": "さいたま市西区",
    "city_kana": "サイタマシニシク",
    "town": "大字西遊馬",
    "town_kana": null,
    "street": "３４５−１",
    "office_name": "安田　株式会社　埼玉支店",
    "office_name_kana": "ヤスダ カブシキガイシヤ サイタマシテン"
  },
  "8537": {
    "postcode": "3318537",
    "prefecture": "埼玉県",
    "prefecture_kana": "サイタマケン",
    "prefecture_code": 11,
    "city": "さいたま市北区",
    "city_kana": "サイタマシキタク",
    "town": "日進町",
    "town_kana": "ニッシンチョウ",
    "street": "１丁目４０−２",
    "office_name": "生物系特定産業技術研究支援センター",
    "office_name_kana": "セイブツケイトクテイサンギヨウギジユツケンキユウシエンセンタ-"
  },
  "8540": {
    "postcode": "3318540",
    "prefecture": "埼玉県",
    "prefecture_kana": "サイタマケン",
    "prefecture_code": 11,
    "city": "さいたま市北区",
    "city_kana": "サイタマシキタク",
    "town": "宮原町",
    "town_kana": "ミヤハラチョウ",
    "street": "４−７−５",
    "office_name": "ユアサ商事　株式会社　北関東支社",
    "office_name_kana": "ユアサシヨウジ カブシキガイシヤ キタカントウシシヤ"
  },
  "8550": {
    "postcode": "3318550",
    "prefecture": "埼玉県",
    "prefecture_kana": "サイタマケン",
    "prefecture_code": 11,
    "city": "さいたま市北区",
    "city_kana": "サイタマシキタク",
    "town": "日進町",
    "town_kana": "ニッシンチョウ",
    "street": "１丁目４０−７",
    "office_name": "陸上自衛隊　大宮駐屯地",
    "office_name_kana": "リクジヨウジエイタイ オオミヤチユウトンチ"
  },
  "8552": {
    "postcode": "3318552",
    "prefecture": "埼玉県",
    "prefecture_kana": "サイタマケン",
    "prefecture_code": 11,
    "city": "さいたま市北区",
    "city_kana": "サイタマシキタク",
    "town": "宮原町",
    "town_kana": "ミヤハラチョウ",
    "street": "４丁目８４番地",
    "office_name": "株式会社　カネゲン",
    "office_name_kana": "カブシキガイシヤ カネゲン"
  },
  "8560": {
    "postcode": "3318560",
    "prefecture": "埼玉県",
    "prefecture_kana": "サイタマケン",
    "prefecture_code": 11,
    "city": "さいたま市北区",
    "city_kana": "サイタマシキタク",
    "town": "大成町",
    "town_kana": "オオナリチョウ",
    "street": "４丁目４００",
    "office_name": "岩谷産業　株式会社　関東支社",
    "office_name_kana": "イワタニサンギヨウ カブシキカガイシヤ カントウシシヤ"
  },
  "8567": {
    "postcode": "3318567",
    "prefecture": "埼玉県",
    "prefecture_kana": "サイタマケン",
    "prefecture_code": 11,
    "city": "さいたま市北区",
    "city_kana": "サイタマシキタク",
    "town": "東大成町",
    "town_kana": "ヒガシオオナリチョウ",
    "street": "１丁目５００",
    "office_name": "大宮中央総合病院付属　大宮中央クリニック",
    "office_name_kana": "オオミヤチユウオウソウゴウビヨウインフゾク オオミヤチユウオウクリニツク"
  },
  "8577": {
    "postcode": "3318577",
    "prefecture": "埼玉県",
    "prefecture_kana": "サイタマケン",
    "prefecture_code": 11,
    "city": "さいたま市北区",
    "city_kana": "サイタマシキタク",
    "town": "土呂町",
    "town_kana": "トロチョウ",
    "street": "１５２２",
    "office_name": "彩の国　東大宮　メディカルセンター",
    "office_name_kana": "サイノクニ ヒガシオオミヤ メデイカルセンタ-"
  },
  "8580": {
    "postcode": "3318580",
    "prefecture": "埼玉県",
    "prefecture_kana": "サイタマケン",
    "prefecture_code": 11,
    "city": "さいたま市西区",
    "city_kana": "サイタマシニシク",
    "town": "大字中釘",
    "town_kana": null,
    "street": "２１５２",
    "office_name": "埼玉県自動車税事務所",
    "office_name_kana": "サイタマケンジドウシヤゼイジムシヨ"
  },
  "8586": {
    "postcode": "3318586",
    "prefecture": "埼玉県",
    "prefecture_kana": "サイタマケン",
    "prefecture_code": 11,
    "city": "さいたま市北区",
    "city_kana": "サイタマシキタク",
    "town": "宮原町",
    "town_kana": "ミヤハラチョウ",
    "street": "１丁目９−１３（大宮西郵便局私書箱第６号）",
    "office_name": "北区役所",
    "office_name_kana": "キタクヤクシヨ"
  },
  "8587": {
    "postcode": "3318587",
    "prefecture": "埼玉県",
    "prefecture_kana": "サイタマケン",
    "prefecture_code": 11,
    "city": "さいたま市西区",
    "city_kana": "サイタマシニシク",
    "town": "西大宮",
    "town_kana": "ニシオオミヤ",
    "street": "３丁目４−２（大宮西郵便局私書箱第７号）",
    "office_name": "西区役所",
    "office_name_kana": "ニシクヤクシヨ"
  },
  "8588": {
    "postcode": "3318588",
    "prefecture": "埼玉県",
    "prefecture_kana": "サイタマケン",
    "prefecture_code": 11,
    "city": "さいたま市西区",
    "city_kana": "サイタマシニシク",
    "town": "宮前町",
    "town_kana": "ミヤマエチョウ",
    "street": "２０３−１",
    "office_name": "高田製薬　株式会社",
    "office_name_kana": "タカタセイヤク カブシキガイシヤ"
  },
  "8625": {
    "postcode": "3318625",
    "prefecture": "埼玉県",
    "prefecture_kana": "サイタマケン",
    "prefecture_code": 11,
    "city": "さいたま市北区",
    "city_kana": "サイタマシキタク",
    "town": "宮原町",
    "town_kana": "ミヤハラチョウ",
    "street": "一丁目８５１番",
    "office_name": "独立行政法人　地域医療機能推進機構　さいたま北部医療センター",
    "office_name_kana": "ドクリツギヨウセイホウジン チイキイリヨウキノウスイシンキコウ サイタマホクブイリヨウセンタ-"
  },
  "8633": {
    "postcode": "3318633",
    "prefecture": "埼玉県",
    "prefecture_kana": "サイタマケン",
    "prefecture_code": 11,
    "city": "さいたま市北区",
    "city_kana": "サイタマシキタク",
    "town": "吉野町",
    "town_kana": "ヨシノチョウ",
    "street": "１−４０７−１",
    "office_name": "カシュー　株式会社",
    "office_name_kana": "カシユ- カブシキガイシヤ"
  },
  "8658": {
    "postcode": "3318658",
    "prefecture": "埼玉県",
    "prefecture_kana": "サイタマケン",
    "prefecture_code": 11,
    "city": "さいたま市北区",
    "city_kana": "サイタマシキタク",
    "town": "吉野町",
    "town_kana": "ヨシノチョウ",
    "street": "２丁目２２２番地１０",
    "office_name": "株式会社　スズキ自販埼玉",
    "office_name_kana": "カブシキガイシヤ スズキジハンサイタマ"
  },
  "8686": {
    "postcode": "3318686",
    "prefecture": "埼玉県",
    "prefecture_kana": "サイタマケン",
    "prefecture_code": 11,
    "city": "さいたま市北区",
    "city_kana": "サイタマシキタク",
    "town": "吉野町",
    "town_kana": "ヨシノチョウ",
    "street": "２丁目２８２番地３",
    "office_name": "株式会社　埼玉新聞社",
    "office_name_kana": "カブシキガイシヤ サイタマシンブンシヤ"
  },
  "8687": {
    "postcode": "3318687",
    "prefecture": "埼玉県",
    "prefecture_kana": "サイタマケン",
    "prefecture_code": 11,
    "city": "さいたま市北区",
    "city_kana": "サイタマシキタク",
    "town": "宮原町",
    "town_kana": "ミヤハラチョウ",
    "street": "４丁目２７−１",
    "office_name": "パナソニックＳＳマーケティング　株式会社　関越社",
    "office_name_kana": "パナソニツクエスエスマ-ケテイング カブシキガイシヤ カンエツシヤ"
  },
  "8688": {
    "postcode": "3318688",
    "prefecture": "埼玉県",
    "prefecture_kana": "サイタマケン",
    "prefecture_code": 11,
    "city": "さいたま市北区",
    "city_kana": "サイタマシキタク",
    "town": "土呂町",
    "town_kana": "トロチョウ",
    "street": "２丁目６１番地５号",
    "office_name": "応用地質　株式会社",
    "office_name_kana": "オウヨウチシツ ガブシキガイシヤ"
  },
  "8701": {
    "postcode": "3318701",
    "prefecture": "埼玉県",
    "prefecture_kana": "サイタマケン",
    "prefecture_code": 11,
    "city": "さいたま市北区",
    "city_kana": "サイタマシキタク",
    "town": "土呂町",
    "town_kana": "トロチョウ",
    "street": "１丁目４５番１０",
    "office_name": "キヤノンメディカルシステムズ　株式会社　関東支社",
    "office_name_kana": "キヤノンメデイカルシステムズ カブシキガイシヤ カントウシシヤ"
  },
  "9510": {
    "postcode": "3319510",
    "prefecture": "埼玉県",
    "prefecture_kana": "サイタマケン",
    "prefecture_code": 11,
    "city": "さいたま市北区",
    "city_kana": "サイタマシキタク",
    "town": "吉野町",
    "town_kana": "ヨシノチョウ",
    "street": "１丁目４０６−１",
    "office_name": "信越ポリマー　株式会社",
    "office_name_kana": "シンエツポリマ- カブシキガイシヤ"
  },
  "9520": {
    "postcode": "3319520",
    "prefecture": "埼玉県",
    "prefecture_kana": "サイタマケン",
    "prefecture_code": 11,
    "city": "さいたま市北区",
    "city_kana": "サイタマシキタク",
    "town": "吉野町",
    "town_kana": "ヨシノチョウ",
    "street": "１丁目４０３",
    "office_name": "大正製薬　株式会社　大宮工場",
    "office_name_kana": "タイシヨウセイヤク カブシキガイシヤ オオミヤコウジヨウ"
  },
  "9530": {
    "postcode": "3319530",
    "prefecture": "埼玉県",
    "prefecture_kana": "サイタマケン",
    "prefecture_code": 11,
    "city": "さいたま市北区",
    "city_kana": "サイタマシキタク",
    "town": "吉野町",
    "town_kana": "ヨシノチョウ",
    "street": "１丁目４０３",
    "office_name": "大正製薬　株式会社　総合研究所",
    "office_name_kana": "タイシヨウセイヤク カブシキガイシヤ ソウゴウケンキユウシヨ"
  },
  "9550": {
    "postcode": "3319550",
    "prefecture": "埼玉県",
    "prefecture_kana": "サイタマケン",
    "prefecture_code": 11,
    "city": "さいたま市北区",
    "city_kana": "サイタマシキタク",
    "town": "宮原町",
    "town_kana": "ミヤハラチョウ",
    "street": "２丁目１９−４",
    "office_name": "株式会社　しまむら",
    "office_name_kana": "カブシキガイシヤ シマムラ"
  },
  "9577": {
    "postcode": "3319577",
    "prefecture": "埼玉県",
    "prefecture_kana": "サイタマケン",
    "prefecture_code": 11,
    "city": "さいたま市北区",
    "city_kana": "サイタマシキタク",
    "town": "宮原町",
    "town_kana": "ミヤハラチョウ",
    "street": "４−１９−９",
    "office_name": "大宮年金事務所",
    "office_name_kana": "オオミヤネンキンジムシヨ"
  }
}