{
  "0000": {
    "postcode": "3320000",
    "prefecture": "埼玉県",
    "prefecture_kana": "サイタマケン",
    "prefecture_code": 11,
    "city": "川口市",
    "city_kana": "カワグチシ",
    "town": "",
    "town_kana": "",
    "street": null,
    "office_name": null,
    "office_name_kana": null
  },
  "0001": {
    "postcode": "3320001",
    "prefecture": "埼玉県",
    "prefecture_kana": "サイタマケン",
    "prefecture_code": 11,
    "city": "川口市",
    "city_kana": "カワグチシ",
    "town": "朝日",
    "town_kana": "アサヒ",
    "street": null,
    "office_name": null,
    "office_name_kana": null
  },
  "0002": {
    "postcode": "3320002",
    "prefecture": "埼玉県",
    "prefecture_kana": "サイタマケン",
    "prefecture_code": 11,
    "city": "川口市",
    "city_kana": "カワグチシ",
    "town": "弥平",
    "town_kana": "ヤヘイ",
    "street": null,
    "office_name": null,
    "office_name_kana": null
  },
  "0003": {
    "postcode": "3320003",
    "prefecture": "埼玉県",
    "prefecture_kana": "サイタマケン",
    "prefecture_code": 11,
    "city": "川口市",
    "city_kana": "カワグチシ",
    "town": "東領家",
    "town_kana": "ヒガシリョウケ",
    "street": null,
    "office_name": null,
    "office_name_kana": null
  },
  "0004": {
    "postcode": "3320004",
    "prefecture": "埼玉県",
    "prefecture_kana": "サイタマケン",
    "prefecture_code": 11,
    "city": "川口市",
    "city_kana": "カワグチシ",
    "town": "領家",
    "town_kana": "リョウケ",
    "street": null,
    "office_name": null,
    "office_name_kana": null
  },
  "0005": {
    "postcode": "3320005",
    "prefecture": "埼玉県",
    "prefecture_kana": "サイタマケン",
    "prefecture_code": 11,
    "city": "川口市",
    "city_kana": "カワグチシ",
    "town": "新井町",
    "town_kana": "アライチョウ",
    "street": null,
    "office_name": null,
    "office_name_kana": null
  },
  "0006": {
    "postcode": "3320006",
    "prefecture": "埼玉県",
    "prefecture_kana": "サイタマケン",
    "prefecture_code": 11,
    "city": "川口市",
    "city_kana": "カワグチシ",
    "town": "末広",
    "town_kana": "スエヒロ",
    "street": null,
    "office_name": null,
    "office_name_kana": null
  },
  "0007": {
    "postcode": "3320007",
    "prefecture": "埼玉県",
    "prefecture_kana": "サイタマケン",
    "prefecture_code": 11,
    "city": "川口市",
    "city_kana": "カワグチシ",
    "town": "河原町",
    "town_kana": "カワハラチョウ",
    "street": null,
    "office_name": null,
    "office_name_kana": null
  },
  "0011": {
    "postcode": "3320011",
    "prefecture": "埼玉県",
    "prefecture_kana": "サイタマケン",
    "prefecture_code": 11,
    "city": "川口市",
    "city_kana": "カワグチシ",
    "town": "元郷",
    "town_kana": "モトゴウ",
    "street": null,
    "office_name": null,
    "office_name_kana": null
  },
  "0012": {
    "postcode": "3320012",
    "prefecture": "埼玉県",
    "prefecture_kana": "サイタマケン",
    "prefecture_code": 11,
    "city": "川口市",
    "city_kana": "カワグチシ",
    "town": "本町",
    "town_kana": "ホンチョウ",
    "street": null,
    "office_name": null,
    "office_name_kana": null
  },
  "0013": {
    "postcode": "3320013",
    "prefecture": "埼玉県",
    "prefecture_kana": "サイタマケン",
    "prefecture_code": 11,
    "city": "川口市",
    "city_kana": "カワグチシ",
    "town": "舟戸町",
    "town_kana": "フナトチョウ",
    "street": null,
    "office_name": null,
    "office_name_kana": null
  },
  "0014": {
    "postcode": "3320014",
    "prefecture": "埼玉県",
    "prefecture_kana": "サイタマケン",
    "prefecture_code": 11,
    "city": "川口市",
    "city_kana": "カワグチシ",
    "town": "金山町",
    "town_kana": "カナヤマチョウ",
    "street": null,
    "office_name": null,
    "office_name_kana": null
  },
  "0015": {
    "postcode": "3320015",
    "prefecture": "埼玉県",
    "prefecture_kana": "サイタマケン",
    "prefecture_code": 11,
    "city": "川口市",
    "city_kana": "カワグチシ",
    "town": "川口",
    "town_kana": "カワグチ",
    "street": null,
    "office_name": null,
    "office_name_kana": null
  },
  "0016": {
    "postcode": "3320016",
    "prefecture": "埼玉県",
    "prefecture_kana": "サイタマケン",
    "prefecture_code": 11,
    "city": "川口市",
    "city_kana": "カワグチシ",
    "town": "幸町",
    "town_kana": "サイワイチョウ",
    "street": null,
    "office_name": null,
    "office_name_kana": null
  },
  "0017": {
    "postcode": "3320017",
    "prefecture": "埼玉県",
    "prefecture_kana": "サイタマケン",
    "prefecture_code": 11,
    "city": "川口市",
    "city_kana": "カワグチシ",
    "town": "栄町",
    "town_kana": "サカエチョウ",
    "street": null,
    "office_name": null,
    "office_name_kana": null
  },
  "0021": {
    "postcode": "3320021",
    "prefecture": "埼玉県",
    "prefecture_kana": "サイタマケン",
    "prefecture_code": 11,
    "city": "川口市",
    "city_kana": "カワグチシ",
    "town": "西川口",
    "town_kana": "ニシカワグチ",
    "street": null,
    "office_name": null,
    "office_name_kana": null
  },
  "0022": {
    "postcode": "3320022",
    "prefecture": "埼玉県",
    "prefecture_kana": "サイタマケン",
    "prefecture_code": 11,
    "city": "川口市",
    "city_kana": "カワグチシ",
    "town": "仲町",
    "town_kana": "ナカチョウ",
    "street": null,
    "office_name": null,
    "office_name_kana": null
  },
  "0023": {
    "postcode": "3320023",
    "prefecture": "埼玉県",
    "prefecture_kana": "サイタマケン",
    "prefecture_code": 11,
    "city": "川口市",
    "city_kana": "カワグチシ",
    "town": "飯塚",
    "town_kana": "イイヅカ",
    "street": null,
    "office_name": null,
    "office_name_kana": null
  },
  "0024": {
    "postcode": "3320024",
    "prefecture": "埼玉県",
    "prefecture_kana": "サイタマケン",
    "prefecture_code": 11,
    "city": "川口市",
    "city_kana": "カワグチシ",
    "town": "飯原町",
    "town_kana": "イイハラチョウ",
    "street": null,
    "office_name": null,
    "office_name_kana": null
  },
  "0025": {
    "postcode": "3320025",
    "prefecture": "埼玉県",
    "prefecture_kana": "サイタマケン",
    "prefecture_code": 11,
    "city": "川口市",
    "city_kana": "カワグチシ",
    "town": "原町",
    "town_kana": "ハラマチ",
    "street": null,
    "office_name": null,
    "office_name_kana": null
  },
  "0026": {
    "postcode": "3320026",
    "prefecture": "埼玉県",
    "prefecture_kana": "サイタマケン",
    "prefecture_code": 11,
    "city": "川口市",
    "city_kana": "カワグチシ",
    "town": "南町",
    "town_kana": "ミナミチョウ",
    "street": null,
    "office_name": null,
    "office_name_kana": null
  },
  "0027": {
    "postcode": "3320027",
    "prefecture": "埼玉県",
    "prefecture_kana": "サイタマケン",
    "prefecture_code": 11,
    "city": "川口市",
    "city_kana": "カワグチシ",
    "town": "緑町",
    "town_kana": "ミドリチョウ",
    "street": null,
    "office_name": null,
    "office_name_kana": null
  },
  "0028": {
    "postcode": "3320028",
    "prefecture": "埼玉県",
    "prefecture_kana": "サイタマケン",
    "prefecture_code": 11,
    "city": "川口市",
    "city_kana": "カワグチシ",
    "town": "宮町",
    "town_kana": "ミヤチョウ",
    "street": null,
    "office_name": null,
    "office_name_kana": null
  },
  "0029": {
    "postcode": "3320029",
    "prefecture": "埼玉県",
    "prefecture_kana": "サイタマケン",
    "prefecture_code": 11,
    "city": "川口市",
    "city_kana": "カワグチシ",
    "town": "荒川町",
    "town_kana": "アラカワチョウ",
    "street": null,
    "office_name": null,
    "office_name_kana": null
  },
  "0031": {
    "postcode": "3320031",
    "prefecture": "埼玉県",
    "prefecture_kana": "サイタマケン",
    "prefecture_code": 11,
    "city": "川口市",
    "city_kana": "カワグチシ",
    "town": "青木",
    "town_kana": "アオキ",
    "street": null,
    "office_name": null,
    "office_name_kana": null
  },
  "0032": {
    "postcode": "3320032",
    "prefecture": "埼玉県",
    "prefecture_kana": "サイタマケン",
    "prefecture_code": 11,
    "city": "川口市",
    "city_kana": "カワグチシ",
    "town": "中青木",
    "town_kana": "ナカアオキ",
    "street": null,
    "office_name": null,
    "office_name_kana": null
  },
  "0033": {
    "postcode": "3320033",
    "prefecture": "埼玉県",
    "prefecture_kana": "サイタマケン",
    "prefecture_code": 11,
    "city": "川口市",
    "city_kana": "カワグチシ",
    "town": "並木元町",
    "town_kana": "ナミキモトマチ",
    "street": null,
    "office_name": null,
    "office_name_kana": null
  },
  "0034": {
    "postcode": "3320034",
    "prefecture": "埼玉県",
    "prefecture_kana": "サイタマケン",
    "prefecture_code": 11,
    "city": "川口市",
    "city_kana": "カワグチシ",
    "town": "並木",
    "town_kana": "ナミキ",
    "street": null,
    "office_name": null,
    "office_name_kana": null
  },
  "0035": {
    "postcode": "3320035",
    "prefecture": "埼玉県",
    "prefecture_kana": "サイタマケン",
    "prefecture_code": 11,
    "city": "川口市",
    "city_kana": "カワグチシ",
    "town": "西青木",
    "town_kana": "ニシアオキ",
    "street": null,
    "office_name": null,
    "office_name_kana": null
  },
  "8501": {
    "postcode": "3328501",
    "prefecture": "埼玉県",
    "prefecture_kana": "サイタマケン",
    "prefecture_code": 11,
    "city": "川口市",
    "city_kana": "カワグチシ",
    "town": "青木",
    "town_kana": "アオキ",
    "street": "５丁目１３−１",
    "office_name": "川口水道局",
    "office_name_kana": "カワグチスイドウキヨク"
  },
  "8502": {
    "postcode": "3328502",
    "prefecture": "埼玉県",
    "prefecture_kana": "サイタマケン",
    "prefecture_code": 11,
    "city": "川口市",
    "city_kana": "カワグチシ",
    "town": "宮町",
    "town_kana": "ミヤチョウ",
    "street": "１８−１９",
    "office_name": "川口金属工業　株式会社",
    "office_name_kana": "カワグチキンゾクコウギヨウ カブシキガイシヤ"
  },
  "8503": {
    "postcode": "3328503",
    "prefecture": "埼玉県",
    "prefecture_kana": "サイタマケン",
    "prefecture_code": 11,
    "city": "川口市",
    "city_kana": "カワグチシ",
    "town": "領家",
    "town_kana": "リョウケ",
    "street": "５−１４−３５",
    "office_name": "アマゾン川口ＦＣ",
    "office_name_kana": "アマゾンカワグチエフシ-"
  },
  "8511": {
    "postcode": "3328511",
    "prefecture": "埼玉県",
    "prefecture_kana": "サイタマケン",
    "prefecture_code": 11,
    "city": "川口市",
    "city_kana": "カワグチシ",
    "town": "栄町",
    "town_kana": "サカエチョウ",
    "street": "３丁目５−１",
    "office_name": "そごう　川口店",
    "office_name_kana": "ソゴウ カワグチテン"
  },
  "8512": {
    "postcode": "3328512",
    "prefecture": "埼玉県",
    "prefecture_kana": "サイタマケン",
    "prefecture_code": 11,
    "city": "川口市",
    "city_kana": "カワグチシ",
    "town": "末広",
    "town_kana": "スエヒロ",
    "street": "１丁目１１−２",
    "office_name": "田中徳兵衛商店",
    "office_name_kana": "タナカトクベイシヨウテン"
  },
  "8521": {
    "postcode": "3328521",
    "prefecture": "埼玉県",
    "prefecture_kana": "サイタマケン",
    "prefecture_code": 11,
    "city": "川口市",
    "city_kana": "カワグチシ",
    "town": "栄町",
    "town_kana": "サカエチョウ",
    "street": "３−１−８",
    "office_name": "カシオテクノ　株式会社",
    "office_name_kana": "カシオテクノ カブシキガイシヤ"
  },
  "8548": {
    "postcode": "3328548",
    "prefecture": "埼玉県",
    "prefecture_kana": "サイタマケン",
    "prefecture_code": 11,
    "city": "川口市",
    "city_kana": "カワグチシ",
    "town": "本町",
    "town_kana": "ホンチョウ",
    "street": "１丁目１８−５",
    "office_name": "ＮＴＴ東日本−埼玉　埼玉南営業支店",
    "office_name_kana": "エヌテイテイヒガシニホン-サイタマ サイタマミナミエイギヨウシテン"
  },
  "8555": {
    "postcode": "3328555",
    "prefecture": "埼玉県",
    "prefecture_kana": "サイタマケン",
    "prefecture_code": 11,
    "city": "川口市",
    "city_kana": "カワグチシ",
    "town": "西青木",
    "town_kana": "ニシアオキ",
    "street": "２丁目９−５",
    "office_name": "株式会社　深川製作所　株式会社　フカガワ　深川機械販売　株式会社",
    "office_name_kana": "カブシキガイシヤ フカガワセイサクシヨ カブシキガイシヤ フカガワ フカガワキカイハンバイ カブシキガイシヤ"
  },
  "8556": {
    "postcode": "3328556",
    "prefecture": "埼玉県",
    "prefecture_kana": "サイタマケン",
    "prefecture_code": 11,
    "city": "川口市",
    "city_kana": "カワグチシ",
    "town": "仲町",
    "town_kana": "ナカチョウ",
    "street": "５−１１",
    "office_name": "前沢工業",
    "office_name_kana": "マエザワコウギヨウ"
  },
  "8558": {
    "postcode": "3328558",
    "prefecture": "埼玉県",
    "prefecture_kana": "サイタマケン",
    "prefecture_code": 11,
    "city": "川口市",
    "city_kana": "カワグチシ",
    "town": "西川口",
    "town_kana": "ニシカワグチ",
    "street": "５丁目１１−５",
    "office_name": "済生会川口総合病院",
    "office_name_kana": "サイセイカイカワグチソウゴウビヨウイン"
  },
  "8577": {
    "postcode": "3328577",
    "prefecture": "埼玉県",
    "prefecture_kana": "サイタマケン",
    "prefecture_code": 11,
    "city": "川口市",
    "city_kana": "カワグチシ",
    "town": "本町",
    "town_kana": "ホンチョウ",
    "street": "１−１２−２７",
    "office_name": "中興電気　株式会社",
    "office_name_kana": "チユウコウデンキ カブシキガイシヤ"
  },
  "8585": {
    "postcode": "3328585",
    "prefecture": "埼玉県",
    "prefecture_kana": "サイタマケン",
    "prefecture_code": 11,
    "city": "川口市",
    "city_kana": "カワグチシ",
    "town": "本町",
    "town_kana": "ホンチョウ",
    "street": "３丁目６−２５（川口郵便局私書箱第５号）",
    "office_name": "クロゼン",
    "office_name_kana": "クロゼン"
  },
  "8601": {
    "postcode": "3328601",
    "prefecture": "埼玉県",
    "prefecture_kana": "サイタマケン",
    "prefecture_code": 11,
    "city": "川口市",
    "city_kana": "カワグチシ",
    "town": "青木",
    "town_kana": "アオキ",
    "street": "２丁目１−１",
    "office_name": "川口市役所",
    "office_name_kana": "カワグチシヤクシヨ"
  },
  "8654": {
    "postcode": "3328654",
    "prefecture": "埼玉県",
    "prefecture_kana": "サイタマケン",
    "prefecture_code": 11,
    "city": "川口市",
    "city_kana": "カワグチシ",
    "town": "西川口",
    "town_kana": "ニシカワグチ",
    "street": "４丁目６−１８（川口郵便局私書箱第４４号）",
    "office_name": "西川口税務署",
    "office_name_kana": "ニシカワグチゼイムシヨ"
  },
  "8666": {
    "postcode": "3328666",
    "prefecture": "埼玉県",
    "prefecture_kana": "サイタマケン",
    "prefecture_code": 11,
    "city": "川口市",
    "city_kana": "カワグチシ",
    "town": "青木",
    "town_kana": "アオキ",
    "street": "２丁目２−１７（川口郵便局私書箱第２０号）",
    "office_name": "川口税務署",
    "office_name_kana": "カワグチゼイムシヨ"
  },
  "8686": {
    "postcode": "3328686",
    "prefecture": "埼玉県",
    "prefecture_kana": "サイタマケン",
    "prefecture_code": 11,
    "city": "川口市",
    "city_kana": "カワグチシ",
    "town": "栄町",
    "town_kana": "サカエチョウ",
    "street": "３丁目９−３（川口郵便局私書箱第４号）",
    "office_name": "川口信用金庫",
    "office_name_kana": "カワグチシンヨウキンコ"
  }
}