{
  "0000": {
    "postcode": "3440000",
    "prefecture": "埼玉県",
    "prefecture_kana": "サイタマケン",
    "prefecture_code": 11,
    "city": "春日部市",
    "city_kana": "カスカベシ",
    "town": "",
    "town_kana": "",
    "street": null,
    "office_name": null,
    "office_name_kana": null
  },
  "0001": {
    "postcode": "3440001",
    "prefecture": "埼玉県",
    "prefecture_kana": "サイタマケン",
    "prefecture_code": 11,
    "city": "春日部市",
    "city_kana": "カスカベシ",
    "town": "不動院野",
    "town_kana": "フドウインノ",
    "street": null,
    "office_name": null,
    "office_name_kana": null
  },
  "0002": {
    "postcode": "3440002",
    "prefecture": "埼玉県",
    "prefecture_kana": "サイタマケン",
    "prefecture_code": 11,
    "city": "春日部市",
    "city_kana": "カスカベシ",
    "town": "樋籠",
    "town_kana": "ヒロウ",
    "street": null,
    "office_name": null,
    "office_name_kana": null
  },
  "0003": {
    "postcode": "3440003",
    "prefecture": "埼玉県",
    "prefecture_kana": "サイタマケン",
    "prefecture_code": 11,
    "city": "春日部市",
    "city_kana": "カスカベシ",
    "town": "新川",
    "town_kana": "シンカワ",
    "street": null,
    "office_name": null,
    "office_name_kana": null
  },
  "0004": {
    "postcode": "3440004",
    "prefecture": "埼玉県",
    "prefecture_kana": "サイタマケン",
    "prefecture_code": 11,
    "city": "春日部市",
    "city_kana": "カスカベシ",
    "town": "牛島",
    "town_kana": "ウシジマ",
    "street": null,
    "office_name": null,
    "office_name_kana": null
  },
  "0005": {
    "postcode": "3440005",
    "prefecture": "埼玉県",
    "prefecture_kana": "サイタマケン",
    "prefecture_code": 11,
    "city": "春日部市",
    "city_kana": "カスカベシ",
    "town": "樋堀",
    "town_kana": "ヒボリ",
    "street": null,
    "office_name": null,
    "office_name_kana": null
  },
  "0006": {
    "postcode": "3440006",
    "prefecture": "埼玉県",
    "prefecture_kana": "サイタマケン",
    "prefecture_code": 11,
    "city": "春日部市",
    "city_kana": "カスカベシ",
    "town": "八丁目",
    "town_kana": "ハッチョウメ",
    "street": null,
    "office_name": null,
    "office_name_kana": null
  },
  "0007": {
    "postcode": "3440007",
    "prefecture": "埼玉県",
    "prefecture_kana": "サイタマケン",
    "prefecture_code": 11,
    "city": "春日部市",
    "city_kana": "カスカベシ",
    "town": "小渕",
    "town_kana": "コブチ",
    "street": null,
    "office_name": null,
    "office_name_kana": null
  },
  "0011": {
    "postcode": "3440011",
    "prefecture": "埼玉県",
    "prefecture_kana": "サイタマケン",
    "prefecture_code": 11,
    "city": "春日部市",
    "city_kana": "カスカベシ",
    "town": "藤塚",
    "town_kana": "フジツカ",
    "street": null,
    "office_name": null,
    "office_name_kana": null
  },
  "0012": {
    "postcode": "3440012",
    "prefecture": "埼玉県",
    "prefecture_kana": "サイタマケン",
    "prefecture_code": 11,
    "city": "春日部市",
    "city_kana": "カスカベシ",
    "town": "六軒町",
    "town_kana": "ロッケンチョウ",
    "street": null,
    "office_name": null,
    "office_name_kana": null
  },
  "0013": {
    "postcode": "3440013",
    "prefecture": "埼玉県",
    "prefecture_kana": "サイタマケン",
    "prefecture_code": 11,
    "city": "春日部市",
    "city_kana": "カスカベシ",
    "town": "銚子口",
    "town_kana": "チョウシグチ",
    "street": null,
    "office_name": null,
    "office_name_kana": null
  },
  "0014": {
    "postcode": "3440014",
    "prefecture": "埼玉県",
    "prefecture_kana": "サイタマケン",
    "prefecture_code": 11,
    "city": "春日部市",
    "city_kana": "カスカベシ",
    "town": "豊野町",
    "town_kana": "トヨノチョウ",
    "street": null,
    "office_name": null,
    "office_name_kana": null
  },
  "0015": {
    "postcode": "3440015",
    "prefecture": "埼玉県",
    "prefecture_kana": "サイタマケン",
    "prefecture_code": 11,
    "city": "春日部市",
    "city_kana": "カスカベシ",
    "town": "赤沼",
    "town_kana": "アカヌマ",
    "street": null,
    "office_name": null,
    "office_name_kana": null
  },
  "0016": {
    "postcode": "3440016",
    "prefecture": "埼玉県",
    "prefecture_kana": "サイタマケン",
    "prefecture_code": 11,
    "city": "春日部市",
    "city_kana": "カスカベシ",
    "town": "本田町",
    "town_kana": "ホンデンチョウ",
    "street": null,
    "office_name": null,
    "office_name_kana": null
  },
  "0021": {
    "postcode": "3440021",
    "prefecture": "埼玉県",
    "prefecture_kana": "サイタマケン",
    "prefecture_code": 11,
    "city": "春日部市",
    "city_kana": "カスカベシ",
    "town": "大場",
    "town_kana": "オオバ",
    "street": null,
    "office_name": null,
    "office_name_kana": null
  },
  "0022": {
    "postcode": "3440022",
    "prefecture": "埼玉県",
    "prefecture_kana": "サイタマケン",
    "prefecture_code": 11,
    "city": "春日部市",
    "city_kana": "カスカベシ",
    "town": "大畑",
    "town_kana": "オオハタ",
    "street": null,
    "office_name": null,
    "office_name_kana": null
  },
  "0023": {
    "postcode": "3440023",
    "prefecture": "埼玉県",
    "prefecture_kana": "サイタマケン",
    "prefecture_code": 11,
    "city": "春日部市",
    "city_kana": "カスカベシ",
    "town": "大枝",
    "town_kana": "オオエダ",
    "street": null,
    "office_name": null,
    "office_name_kana": null
  },
  "0024": {
    "postcode": "3440024",
    "prefecture": "埼玉県",
    "prefecture_kana": "サイタマケン",
    "prefecture_code": 11,
    "city": "春日部市",
    "city_kana": "カスカベシ",
    "town": "千間",
    "town_kana": "センゲン",
    "street": null,
    "office_name": null,
    "office_name_kana": null
  },
  "0025": {
    "postcode": "3440025",
    "prefecture": "埼玉県",
    "prefecture_kana": "サイタマケン",
    "prefecture_code": 11,
    "city": "春日部市",
    "city_kana": "カスカベシ",
    "town": "増田新田",
    "town_kana": "マスダシンデン",
    "street": null,
    "office_name": null,
    "office_name_kana": null
  },
  "0026": {
    "postcode": "3440026",
    "prefecture": "埼玉県",
    "prefecture_kana": "サイタマケン",
    "prefecture_code": 11,
    "city": "春日部市",
    "city_kana": "カスカベシ",
    "town": "武里中野",
    "town_kana": "タケサトナカノ",
    "street": null,
    "office_name": null,
    "office_name_kana": null
  },
  "0031": {
    "postcode": "3440031",
    "prefecture": "埼玉県",
    "prefecture_kana": "サイタマケン",
    "prefecture_code": 11,
    "city": "春日部市",
    "city_kana": "カスカベシ",
    "town": "一ノ割",
    "town_kana": "イチノワリ",
    "street": null,
    "office_name": null,
    "office_name_kana": null
  },
  "0032": {
    "postcode": "3440032",
    "prefecture": "埼玉県",
    "prefecture_kana": "サイタマケン",
    "prefecture_code": 11,
    "city": "春日部市",
    "city_kana": "カスカベシ",
    "town": "備後東",
    "town_kana": "ビンゴヒガシ",
    "street": null,
    "office_name": null,
    "office_name_kana": null
  },
  "0033": {
    "postcode": "3440033",
    "prefecture": "埼玉県",
    "prefecture_kana": "サイタマケン",
    "prefecture_code": 11,
    "city": "春日部市",
    "city_kana": "カスカベシ",
    "town": "備後西",
    "town_kana": "ビンゴニシ",
    "street": null,
    "office_name": null,
    "office_name_kana": null
  },
  "0034": {
    "postcode": "3440034",
    "prefecture": "埼玉県",
    "prefecture_kana": "サイタマケン",
    "prefecture_code": 11,
    "city": "春日部市",
    "city_kana": "カスカベシ",
    "town": "薄谷",
    "town_kana": "ススキヤ",
    "street": null,
    "office_name": null,
    "office_name_kana": null
  },
  "0035": {
    "postcode": "3440035",
    "prefecture": "埼玉県",
    "prefecture_kana": "サイタマケン",
    "prefecture_code": 11,
    "city": "春日部市",
    "city_kana": "カスカベシ",
    "town": "谷原新田",
    "town_kana": "ヤハラシンデン",
    "street": null,
    "office_name": null,
    "office_name_kana": null
  },
  "0036": {
    "postcode": "3440036",
    "prefecture": "埼玉県",
    "prefecture_kana": "サイタマケン",
    "prefecture_code": 11,
    "city": "春日部市",
    "city_kana": "カスカベシ",
    "town": "下大増新田",
    "town_kana": "シモオオマシシンデン",
    "street": null,
    "office_name": null,
    "office_name_kana": null
  },
  "0037": {
    "postcode": "3440037",
    "prefecture": "埼玉県",
    "prefecture_kana": "サイタマケン",
    "prefecture_code": 11,
    "city": "春日部市",
    "city_kana": "カスカベシ",
    "town": "上大増新田",
    "town_kana": "カミオオマシシンデン",
    "street": null,
    "office_name": null,
    "office_name_kana": null
  },
  "0038": {
    "postcode": "3440038",
    "prefecture": "埼玉県",
    "prefecture_kana": "サイタマケン",
    "prefecture_code": 11,
    "city": "春日部市",
    "city_kana": "カスカベシ",
    "town": "大沼",
    "town_kana": "オオヌマ",
    "street": null,
    "office_name": null,
    "office_name_kana": null
  },
  "0041": {
    "postcode": "3440041",
    "prefecture": "埼玉県",
    "prefecture_kana": "サイタマケン",
    "prefecture_code": 11,
    "city": "春日部市",
    "city_kana": "カスカベシ",
    "town": "増富",
    "town_kana": "マシトミ",
    "street": null,
    "office_name": null,
    "office_name_kana": null
  },
  "0042": {
    "postcode": "3440042",
    "prefecture": "埼玉県",
    "prefecture_kana": "サイタマケン",
    "prefecture_code": 11,
    "city": "春日部市",
    "city_kana": "カスカベシ",
    "town": "増戸",
    "town_kana": "マシト",
    "street": null,
    "office_name": null,
    "office_name_kana": null
  },
  "0043": {
    "postcode": "3440043",
    "prefecture": "埼玉県",
    "prefecture_kana": "サイタマケン",
    "prefecture_code": 11,
    "city": "春日部市",
    "city_kana": "カスカベシ",
    "town": "下蛭田",
    "town_kana": "シモヒルダ",
    "street": null,
    "office_name": null,
    "office_name_kana": null
  },
  "0044": {
    "postcode": "3440044",
    "prefecture": "埼玉県",
    "prefecture_kana": "サイタマケン",
    "prefecture_code": 11,
    "city": "春日部市",
    "city_kana": "カスカベシ",
    "town": "花積",
    "town_kana": "ハナヅミ",
    "street": null,
    "office_name": null,
    "office_name_kana": null
  },
  "0045": {
    "postcode": "3440045",
    "prefecture": "埼玉県",
    "prefecture_kana": "サイタマケン",
    "prefecture_code": 11,
    "city": "春日部市",
    "city_kana": "カスカベシ",
    "town": "道口蛭田",
    "town_kana": "ドウグチヒルダ",
    "street": null,
    "office_name": null,
    "office_name_kana": null
  },
  "0046": {
    "postcode": "3440046",
    "prefecture": "埼玉県",
    "prefecture_kana": "サイタマケン",
    "prefecture_code": 11,
    "city": "春日部市",
    "city_kana": "カスカベシ",
    "town": "上蛭田",
    "town_kana": "カミヒルダ",
    "street": null,
    "office_name": null,
    "office_name_kana": null
  },
  "0047": {
    "postcode": "3440047",
    "prefecture": "埼玉県",
    "prefecture_kana": "サイタマケン",
    "prefecture_code": 11,
    "city": "春日部市",
    "city_kana": "カスカベシ",
    "town": "道順川戸",
    "town_kana": "ドウジュンカワド",
    "street": null,
    "office_name": null,
    "office_name_kana": null
  },
  "0048": {
    "postcode": "3440048",
    "prefecture": "埼玉県",
    "prefecture_kana": "サイタマケン",
    "prefecture_code": 11,
    "city": "春日部市",
    "city_kana": "カスカベシ",
    "town": "南中曽根",
    "town_kana": "ミナミナカゾネ",
    "street": null,
    "office_name": null,
    "office_name_kana": null
  },
  "0051": {
    "postcode": "3440051",
    "prefecture": "埼玉県",
    "prefecture_kana": "サイタマケン",
    "prefecture_code": 11,
    "city": "春日部市",
    "city_kana": "カスカベシ",
    "town": "内牧",
    "town_kana": "ウチマキ",
    "street": null,
    "office_name": null,
    "office_name_kana": null
  },
  "0052": {
    "postcode": "3440052",
    "prefecture": "埼玉県",
    "prefecture_kana": "サイタマケン",
    "prefecture_code": 11,
    "city": "春日部市",
    "city_kana": "カスカベシ",
    "town": "梅田",
    "town_kana": "ウメダ",
    "street": null,
    "office_name": null,
    "office_name_kana": null
  },
  "0053": {
    "postcode": "3440053",
    "prefecture": "埼玉県",
    "prefecture_kana": "サイタマケン",
    "prefecture_code": 11,
    "city": "春日部市",
    "city_kana": "カスカベシ",
    "town": "梅田本町",
    "town_kana": "ウメダホンチョウ",
    "street": null,
    "office_name": null,
    "office_name_kana": null
  },
  "0054": {
    "postcode": "3440054",
    "prefecture": "埼玉県",
    "prefecture_kana": "サイタマケン",
    "prefecture_code": 11,
    "city": "春日部市",
    "city_kana": "カスカベシ",
    "town": "浜川戸",
    "town_kana": "ハマカワド",
    "street": null,
    "office_name": null,
    "office_name_kana": null
  },
  "0055": {
    "postcode": "3440055",
    "prefecture": "埼玉県",
    "prefecture_kana": "サイタマケン",
    "prefecture_code": 11,
    "city": "春日部市",
    "city_kana": "カスカベシ",
    "town": "八木崎町",
    "town_kana": "ヤギサキチョウ",
    "street": null,
    "office_name": null,
    "office_name_kana": null
  },
  "0056": {
    "postcode": "3440056",
    "prefecture": "埼玉県",
    "prefecture_kana": "サイタマケン",
    "prefecture_code": 11,
    "city": "春日部市",
    "city_kana": "カスカベシ",
    "town": "新方袋",
    "town_kana": "ニイガタフクロ",
    "street": null,
    "office_name": null,
    "office_name_kana": null
  },
  "0057": {
    "postcode": "3440057",
    "prefecture": "埼玉県",
    "prefecture_kana": "サイタマケン",
    "prefecture_code": 11,
    "city": "春日部市",
    "city_kana": "カスカベシ",
    "town": "南栄町",
    "town_kana": "ミナミサカエチョウ",
    "street": null,
    "office_name": null,
    "office_name_kana": null
  },
  "0058": {
    "postcode": "3440058",
    "prefecture": "埼玉県",
    "prefecture_kana": "サイタマケン",
    "prefecture_code": 11,
    "city": "春日部市",
    "city_kana": "カスカベシ",
    "town": "栄町",
    "town_kana": "サカエチョウ",
    "street": null,
    "office_name": null,
    "office_name_kana": null
  },
  "0059": {
    "postcode": "3440059",
    "prefecture": "埼玉県",
    "prefecture_kana": "サイタマケン",
    "prefecture_code": 11,
    "city": "春日部市",
    "city_kana": "カスカベシ",
    "town": "西八木崎",
    "town_kana": "ニシヤギサキ",
    "street": null,
    "office_name": null,
    "office_name_kana": null
  },
  "0061": {
    "postcode": "3440061",
    "prefecture": "埼玉県",
    "prefecture_kana": "サイタマケン",
    "prefecture_code": 11,
    "city": "春日部市",
    "city_kana": "カスカベシ",
    "town": "粕壁",
    "town_kana": "カスカベ",
    "street": null,
    "office_name": null,
    "office_name_kana": null
  },
  "0062": {
    "postcode": "3440062",
    "prefecture": "埼玉県",
    "prefecture_kana": "サイタマケン",
    "prefecture_code": 11,
    "city": "春日部市",
    "city_kana": "カスカベシ",
    "town": "粕壁東",
    "town_kana": "カスカベヒガシ",
    "street": null,
    "office_name": null,
    "office_name_kana": null
  },
  "0063": {
    "postcode": "3440063",
    "prefecture": "埼玉県",
    "prefecture_kana": "サイタマケン",
    "prefecture_code": 11,
    "city": "春日部市",
    "city_kana": "カスカベシ",
    "town": "緑町",
    "town_kana": "ミドリチョウ",
    "street": null,
    "office_name": null,
    "office_name_kana": null
  },
  "0064": {
    "postcode": "3440064",
    "prefecture": "埼玉県",
    "prefecture_kana": "サイタマケン",
    "prefecture_code": 11,
    "city": "春日部市",
    "city_kana": "カスカベシ",
    "town": "南",
    "town_kana": "ミナミ",
    "street": null,
    "office_name": null,
    "office_name_kana": null
  },
  "0065": {
    "postcode": "3440065",
    "prefecture": "埼玉県",
    "prefecture_kana": "サイタマケン",
    "prefecture_code": 11,
    "city": "春日部市",
    "city_kana": "カスカベシ",
    "town": "谷原",
    "town_kana": "ヤハラ",
    "street": null,
    "office_name": null,
    "office_name_kana": null
  },
  "0066": {
    "postcode": "3440066",
    "prefecture": "埼玉県",
    "prefecture_kana": "サイタマケン",
    "prefecture_code": 11,
    "city": "春日部市",
    "city_kana": "カスカベシ",
    "town": "豊町",
    "town_kana": "ユタカチョウ",
    "street": null,
    "office_name": null,
    "office_name_kana": null
  },
  "0067": {
    "postcode": "3440067",
    "prefecture": "埼玉県",
    "prefecture_kana": "サイタマケン",
    "prefecture_code": 11,
    "city": "春日部市",
    "city_kana": "カスカベシ",
    "town": "中央",
    "town_kana": "チュウオウ",
    "street": null,
    "office_name": null,
    "office_name_kana": null
  },
  "0101": {
    "postcode": "3440101",
    "prefecture": "埼玉県",
    "prefecture_kana": "サイタマケン",
    "prefecture_code": 11,
    "city": "春日部市",
    "city_kana": "カスカベシ",
    "town": "西親野井",
    "town_kana": "ニシオヤノイ",
    "street": null,
    "office_name": null,
    "office_name_kana": null
  },
  "0102": {
    "postcode": "3440102",
    "prefecture": "埼玉県",
    "prefecture_kana": "サイタマケン",
    "prefecture_code": 11,
    "city": "春日部市",
    "city_kana": "カスカベシ",
    "town": "西宝珠花",
    "town_kana": "ニシホウシュバナ",
    "street": null,
    "office_name": null,
    "office_name_kana": null
  },
  "0103": {
    "postcode": "3440103",
    "prefecture": "埼玉県",
    "prefecture_kana": "サイタマケン",
    "prefecture_code": 11,
    "city": "春日部市",
    "city_kana": "カスカベシ",
    "town": "上吉妻",
    "town_kana": "カミキツマ",
    "street": null,
    "office_name": null,
    "office_name_kana": null
  },
  "0104": {
    "postcode": "3440104",
    "prefecture": "埼玉県",
    "prefecture_kana": "サイタマケン",
    "prefecture_code": 11,
    "city": "春日部市",
    "city_kana": "カスカベシ",
    "town": "下吉妻",
    "town_kana": "シモキツマ",
    "street": null,
    "office_name": null,
    "office_name_kana": null
  },
  "0105": {
    "postcode": "3440105",
    "prefecture": "埼玉県",
    "prefecture_kana": "サイタマケン",
    "prefecture_code": 11,
    "city": "春日部市",
    "city_kana": "カスカベシ",
    "town": "小平",
    "town_kana": "コダイラ",
    "street": null,
    "office_name": null,
    "office_name_kana": null
  },
  "0106": {
    "postcode": "3440106",
    "prefecture": "埼玉県",
    "prefecture_kana": "サイタマケン",
    "prefecture_code": 11,
    "city": "春日部市",
    "city_kana": "カスカベシ",
    "town": "木崎",
    "town_kana": "キサキ",
    "street": null,
    "office_name": null,
    "office_name_kana": null
  },
  "0107": {
    "postcode": "3440107",
    "prefecture": "埼玉県",
    "prefecture_kana": "サイタマケン",
    "prefecture_code": 11,
    "city": "春日部市",
    "city_kana": "カスカベシ",
    "town": "塚崎",
    "town_kana": "ツカサキ",
    "street": null,
    "office_name": null,
    "office_name_kana": null
  },
  "0111": {
    "postcode": "3440111",
    "prefecture": "埼玉県",
    "prefecture_kana": "サイタマケン",
    "prefecture_code": 11,
    "city": "春日部市",
    "city_kana": "カスカベシ",
    "town": "上金崎",
    "town_kana": "カミカナサキ",
    "street": null,
    "office_name": null,
    "office_name_kana": null
  },
  "0112": {
    "postcode": "3440112",
    "prefecture": "埼玉県",
    "prefecture_kana": "サイタマケン",
    "prefecture_code": 11,
    "city": "春日部市",
    "city_kana": "カスカベシ",
    "town": "西金野井",
    "town_kana": "ニシカナノイ",
    "street": null,
    "office_name": null,
    "office_name_kana": null
  },
  "0113": {
    "postcode": "3440113",
    "prefecture": "埼玉県",
    "prefecture_kana": "サイタマケン",
    "prefecture_code": 11,
    "city": "春日部市",
    "city_kana": "カスカベシ",
    "town": "新宿新田",
    "town_kana": "シンシュクシンデン",
    "street": null,
    "office_name": null,
    "office_name_kana": null
  },
  "0114": {
    "postcode": "3440114",
    "prefecture": "埼玉県",
    "prefecture_kana": "サイタマケン",
    "prefecture_code": 11,
    "city": "春日部市",
    "city_kana": "カスカベシ",
    "town": "東中野",
    "town_kana": "ヒガシナカノ",
    "street": null,
    "office_name": null,
    "office_name_kana": null
  },
  "0115": {
    "postcode": "3440115",
    "prefecture": "埼玉県",
    "prefecture_kana": "サイタマケン",
    "prefecture_code": 11,
    "city": "春日部市",
    "city_kana": "カスカベシ",
    "town": "米島",
    "town_kana": "コメジマ",
    "street": null,
    "office_name": null,
    "office_name_kana": null
  },
  "0116": {
    "postcode": "3440116",
    "prefecture": "埼玉県",
    "prefecture_kana": "サイタマケン",
    "prefecture_code": 11,
    "city": "春日部市",
    "city_kana": "カスカベシ",
    "town": "大衾",
    "town_kana": "オオブスマ",
    "street": null,
    "office_name": null,
    "office_name_kana": null
  },
  "0117": {
    "postcode": "3440117",
    "prefecture": "埼玉県",
    "prefecture_kana": "サイタマケン",
    "prefecture_code": 11,
    "city": "春日部市",
    "city_kana": "カスカベシ",
    "town": "金崎",
    "town_kana": "カナサキ",
    "street": null,
    "office_name": null,
    "office_name_kana": null
  },
  "0121": {
    "postcode": "3440121",
    "prefecture": "埼玉県",
    "prefecture_kana": "サイタマケン",
    "prefecture_code": 11,
    "city": "春日部市",
    "city_kana": "カスカベシ",
    "town": "上柳",
    "town_kana": "カミヤナギ",
    "street": null,
    "office_name": null,
    "office_name_kana": null
  },
  "0122": {
    "postcode": "3440122",
    "prefecture": "埼玉県",
    "prefecture_kana": "サイタマケン",
    "prefecture_code": 11,
    "city": "春日部市",
    "city_kana": "カスカベシ",
    "town": "下柳",
    "town_kana": "シモヤナギ",
    "street": null,
    "office_name": null,
    "office_name_kana": null
  },
  "0123": {
    "postcode": "3440123",
    "prefecture": "埼玉県",
    "prefecture_kana": "サイタマケン",
    "prefecture_code": 11,
    "city": "春日部市",
    "city_kana": "カスカベシ",
    "town": "永沼",
    "town_kana": "ナガヌマ",
    "street": null,
    "office_name": null,
    "office_name_kana": null
  },
  "0124": {
    "postcode": "3440124",
    "prefecture": "埼玉県",
    "prefecture_kana": "サイタマケン",
    "prefecture_code": 11,
    "city": "春日部市",
    "city_kana": "カスカベシ",
    "town": "米崎",
    "town_kana": "コメサキ",
    "street": null,
    "office_name": null,
    "office_name_kana": null
  },
  "0125": {
    "postcode": "3440125",
    "prefecture": "埼玉県",
    "prefecture_kana": "サイタマケン",
    "prefecture_code": 11,
    "city": "春日部市",
    "city_kana": "カスカベシ",
    "town": "飯沼",
    "town_kana": "イイヌマ",
    "street": null,
    "office_name": null,
    "office_name_kana": null
  },
  "0126": {
    "postcode": "3440126",
    "prefecture": "埼玉県",
    "prefecture_kana": "サイタマケン",
    "prefecture_code": 11,
    "city": "春日部市",
    "city_kana": "カスカベシ",
    "town": "赤崎",
    "town_kana": "アカサキ",
    "street": null,
    "office_name": null,
    "office_name_kana": null
  },
  "0127": {
    "postcode": "3440127",
    "prefecture": "埼玉県",
    "prefecture_kana": "サイタマケン",
    "prefecture_code": 11,
    "city": "春日部市",
    "city_kana": "カスカベシ",
    "town": "水角",
    "town_kana": "スイカク",
    "street": null,
    "office_name": null,
    "office_name_kana": null
  },
  "0131": {
    "postcode": "3440131",
    "prefecture": "埼玉県",
    "prefecture_kana": "サイタマケン",
    "prefecture_code": 11,
    "city": "春日部市",
    "city_kana": "カスカベシ",
    "town": "芦橋",
    "town_kana": "ヨシハシ",
    "street": null,
    "office_name": null,
    "office_name_kana": null
  },
  "0132": {
    "postcode": "3440132",
    "prefecture": "埼玉県",
    "prefecture_kana": "サイタマケン",
    "prefecture_code": 11,
    "city": "春日部市",
    "city_kana": "カスカベシ",
    "town": "神間",
    "town_kana": "カンマ",
    "street": null,
    "office_name": null,
    "office_name_kana": null
  },
  "0133": {
    "postcode": "3440133",
    "prefecture": "埼玉県",
    "prefecture_kana": "サイタマケン",
    "prefecture_code": 11,
    "city": "春日部市",
    "city_kana": "カスカベシ",
    "town": "椚",
    "town_kana": "クヌギ",
    "street": null,
    "office_name": null,
    "office_name_kana": null
  },
  "0134": {
    "postcode": "3440134",
    "prefecture": "埼玉県",
    "prefecture_kana": "サイタマケン",
    "prefecture_code": 11,
    "city": "春日部市",
    "city_kana": "カスカベシ",
    "town": "立野",
    "town_kana": "タテノ",
    "street": null,
    "office_name": null,
    "office_name_kana": null
  },
  "0135": {
    "postcode": "3440135",
    "prefecture": "埼玉県",
    "prefecture_kana": "サイタマケン",
    "prefecture_code": 11,
    "city": "春日部市",
    "city_kana": "カスカベシ",
    "town": "榎",
    "town_kana": "エノキ",
    "street": null,
    "office_name": null,
    "office_name_kana": null
  },
  "0136": {
    "postcode": "3440136",
    "prefecture": "埼玉県",
    "prefecture_kana": "サイタマケン",
    "prefecture_code": 11,
    "city": "春日部市",
    "city_kana": "カスカベシ",
    "town": "倉常",
    "town_kana": "クラツネ",
    "street": null,
    "office_name": null,
    "office_name_kana": null
  },
  "8506": {
    "postcode": "3448506",
    "prefecture": "埼玉県",
    "prefecture_kana": "サイタマケン",
    "prefecture_code": 11,
    "city": "春日部市",
    "city_kana": "カスカベシ",
    "town": "南",
    "town_kana": "ミナミ",
    "street": "３丁目１０−１３",
    "office_name": "春日部労働基準監督署",
    "office_name_kana": "カスカベロウドウキジユンカントクシヨ"
  },
  "8508": {
    "postcode": "3448508",
    "prefecture": "埼玉県",
    "prefecture_kana": "サイタマケン",
    "prefecture_code": 11,
    "city": "春日部市",
    "city_kana": "カスカベシ",
    "town": "南",
    "town_kana": "ミナミ",
    "street": "１丁目１番７号埼玉県東部地域振興ふれあい拠点施設５階",
    "office_name": "埼玉県信用保証協会　春日部支店",
    "office_name_kana": "サイタマケンシンヨウホシヨウキヨウカイ カスカベシテン"
  },
  "8511": {
    "postcode": "3448511",
    "prefecture": "埼玉県",
    "prefecture_kana": "サイタマケン",
    "prefecture_code": 11,
    "city": "春日部市",
    "city_kana": "カスカベシ",
    "town": "豊野町",
    "town_kana": "トヨノチョウ",
    "street": "２丁目３２−１",
    "office_name": "株式会社　高橋監理",
    "office_name_kana": "カブシキガイシヤ タカハシカンリ"
  },
  "8521": {
    "postcode": "3448521",
    "prefecture": "埼玉県",
    "prefecture_kana": "サイタマケン",
    "prefecture_code": 11,
    "city": "春日部市",
    "city_kana": "カスカベシ",
    "town": "粕壁東",
    "town_kana": "カスカベヒガシ",
    "street": "６丁目１−１",
    "office_name": "春日部女子高等学校",
    "office_name_kana": "カスカベジヨシコウトウガツコウ"
  },
  "8522": {
    "postcode": "3448522",
    "prefecture": "埼玉県",
    "prefecture_kana": "サイタマケン",
    "prefecture_code": 11,
    "city": "春日部市",
    "city_kana": "カスカベシ",
    "town": "大字赤沼",
    "town_kana": null,
    "street": "４１０",
    "office_name": "株式会社　桃屋　春日部工場",
    "office_name_kana": "カブシキガイシヤ モモヤ カスカベコウジヨウ"
  },
  "8533": {
    "postcode": "3448533",
    "prefecture": "埼玉県",
    "prefecture_kana": "サイタマケン",
    "prefecture_code": 11,
    "city": "春日部市",
    "city_kana": "カスカベシ",
    "town": "粕壁東",
    "town_kana": "カスカベヒガシ",
    "street": "２丁目５番１号",
    "office_name": "西武　春日部店",
    "office_name_kana": "セイブ カスカベテン"
  },
  "8535": {
    "postcode": "3448535",
    "prefecture": "埼玉県",
    "prefecture_kana": "サイタマケン",
    "prefecture_code": 11,
    "city": "春日部市",
    "city_kana": "カスカベシ",
    "town": "大沼",
    "town_kana": "オオヌマ",
    "street": "１丁目８２",
    "office_name": "春日部警察署",
    "office_name_kana": "カスカベケイサツシヨ"
  },
  "8540": {
    "postcode": "3448540",
    "prefecture": "埼玉県",
    "prefecture_kana": "サイタマケン",
    "prefecture_code": 11,
    "city": "春日部市",
    "city_kana": "カスカベシ",
    "town": "樋籠",
    "town_kana": "ヒロウ",
    "street": "５８６−８",
    "office_name": "株式会社　Ｇ．Ｒ．Ｓ．",
    "office_name_kana": "カブシキガイシヤ ジ-.ア-ル.エス."
  },
  "8555": {
    "postcode": "3448555",
    "prefecture": "埼玉県",
    "prefecture_kana": "サイタマケン",
    "prefecture_code": 11,
    "city": "春日部市",
    "city_kana": "カスカベシ",
    "town": "大沼",
    "town_kana": "オオヌマ",
    "street": "１丁目７６",
    "office_name": "埼玉県春日部県税事務所",
    "office_name_kana": "サイタマケンカスカベケンゼイジムシヨ"
  },
  "8566": {
    "postcode": "3448566",
    "prefecture": "埼玉県",
    "prefecture_kana": "サイタマケン",
    "prefecture_code": 11,
    "city": "春日部市",
    "city_kana": "カスカベシ",
    "town": "大字小渕",
    "town_kana": null,
    "street": "２４３",
    "office_name": "株式会社　マルヤ",
    "office_name_kana": "カブシキガイシヤ マルヤ"
  },
  "8577": {
    "postcode": "3448577",
    "prefecture": "埼玉県",
    "prefecture_kana": "サイタマケン",
    "prefecture_code": 11,
    "city": "春日部市",
    "city_kana": "カスカベシ",
    "town": "中央",
    "town_kana": "チュウオウ",
    "street": "６丁目２",
    "office_name": "春日部市役所",
    "office_name_kana": "カスカベシヤクシヨ"
  },
  "8578": {
    "postcode": "3448578",
    "prefecture": "埼玉県",
    "prefecture_kana": "サイタマケン",
    "prefecture_code": 11,
    "city": "春日部市",
    "city_kana": "カスカベシ",
    "town": "南",
    "town_kana": "ミナミ",
    "street": "一丁目１番地７",
    "office_name": "春日部市　市民活動センター",
    "office_name_kana": "カスカベシ シミンカツドウセンタ-"
  },
  "8585": {
    "postcode": "3448585",
    "prefecture": "埼玉県",
    "prefecture_kana": "サイタマケン",
    "prefecture_code": 11,
    "city": "春日部市",
    "city_kana": "カスカベシ",
    "town": "粕壁東",
    "town_kana": "カスカベヒガシ",
    "street": "２−２−２９",
    "office_name": "春日部商工会議所",
    "office_name_kana": "カスカベシヨウコウカイギシヨ"
  },
  "8588": {
    "postcode": "3448588",
    "prefecture": "埼玉県",
    "prefecture_kana": "サイタマケン",
    "prefecture_code": 11,
    "city": "春日部市",
    "city_kana": "カスカベシ",
    "town": "中央",
    "town_kana": "チュウオウ",
    "street": "６丁目７番地１",
    "office_name": "春日部市立医療センター",
    "office_name_kana": "カスカベシリツイリヨウセンタ-"
  },
  "8680": {
    "postcode": "3448680",
    "prefecture": "埼玉県",
    "prefecture_kana": "サイタマケン",
    "prefecture_code": 11,
    "city": "春日部市",
    "city_kana": "カスカベシ",
    "town": "大沼",
    "town_kana": "オオヌマ",
    "street": "２丁目１２番地１",
    "office_name": "関東信越国税局　インボイス登録センター",
    "office_name_kana": "カントウシンエツコクゼイキヨク インボイストウロクセンタ-"
  },
  "8686": {
    "postcode": "3448686",
    "prefecture": "埼玉県",
    "prefecture_kana": "サイタマケン",
    "prefecture_code": 11,
    "city": "春日部市",
    "city_kana": "カスカベシ",
    "town": "大沼",
    "town_kana": "オオヌマ",
    "street": "２丁目１２−１（春日部郵便局私書箱第１８号）",
    "office_name": "春日部税務署",
    "office_name_kana": "カスカベゼイムシヨ"
  }
}