{
  "0000": {
    "postcode": "3460000",
    "prefecture": "埼玉県",
    "prefecture_kana": "サイタマケン",
    "prefecture_code": 11,
    "city": "久喜市",
    "city_kana": "クキシ",
    "town": "",
    "town_kana": "",
    "street": null,
    "office_name": null,
    "office_name_kana": null
  },
  "0001": {
    "postcode": "3460001",
    "prefecture": "埼玉県",
    "prefecture_kana": "サイタマケン",
    "prefecture_code": 11,
    "city": "久喜市",
    "city_kana": "クキシ",
    "town": "古久喜",
    "town_kana": "コグキ",
    "street": null,
    "office_name": null,
    "office_name_kana": null
  },
  "0002": {
    "postcode": "3460002",
    "prefecture": "埼玉県",
    "prefecture_kana": "サイタマケン",
    "prefecture_code": 11,
    "city": "久喜市",
    "city_kana": "クキシ",
    "town": "野久喜",
    "town_kana": "ノグキ",
    "street": null,
    "office_name": null,
    "office_name_kana": null
  },
  "0003": {
    "postcode": "3460003",
    "prefecture": "埼玉県",
    "prefecture_kana": "サイタマケン",
    "prefecture_code": 11,
    "city": "久喜市",
    "city_kana": "クキシ",
    "town": "久喜中央",
    "town_kana": "クキチュウオウ",
    "street": null,
    "office_name": null,
    "office_name_kana": null
  },
  "0004": {
    "postcode": "3460004",
    "prefecture": "埼玉県",
    "prefecture_kana": "サイタマケン",
    "prefecture_code": 11,
    "city": "久喜市",
    "city_kana": "クキシ",
    "town": "南",
    "town_kana": "ミナミ",
    "street": null,
    "office_name": null,
    "office_name_kana": null
  },
  "0005": {
    "postcode": "3460005",
    "prefecture": "埼玉県",
    "prefecture_kana": "サイタマケン",
    "prefecture_code": 11,
    "city": "久喜市",
    "city_kana": "クキシ",
    "town": "本町",
    "town_kana": "ホンチョウ",
    "street": null,
    "office_name": null,
    "office_name_kana": null
  },
  "0006": {
    "postcode": "3460006",
    "prefecture": "埼玉県",
    "prefecture_kana": "サイタマケン",
    "prefecture_code": 11,
    "city": "久喜市",
    "city_kana": "クキシ",
    "town": "上町",
    "town_kana": "カミマチ",
    "street": null,
    "office_name": null,
    "office_name_kana": null
  },
  "0007": {
    "postcode": "3460007",
    "prefecture": "埼玉県",
    "prefecture_kana": "サイタマケン",
    "prefecture_code": 11,
    "city": "久喜市",
    "city_kana": "クキシ",
    "town": "久喜北",
    "town_kana": "クキキタ",
    "street": null,
    "office_name": null,
    "office_name_kana": null
  },
  "0011": {
    "postcode": "3460011",
    "prefecture": "埼玉県",
    "prefecture_kana": "サイタマケン",
    "prefecture_code": 11,
    "city": "久喜市",
    "city_kana": "クキシ",
    "town": "青毛",
    "town_kana": "アオゲ",
    "street": null,
    "office_name": null,
    "office_name_kana": null
  },
  "0012": {
    "postcode": "3460012",
    "prefecture": "埼玉県",
    "prefecture_kana": "サイタマケン",
    "prefecture_code": 11,
    "city": "久喜市",
    "city_kana": "クキシ",
    "town": "栗原",
    "town_kana": "クリハラ",
    "street": null,
    "office_name": null,
    "office_name_kana": null
  },
  "0013": {
    "postcode": "3460013",
    "prefecture": "埼玉県",
    "prefecture_kana": "サイタマケン",
    "prefecture_code": 11,
    "city": "久喜市",
    "city_kana": "クキシ",
    "town": "青葉",
    "town_kana": "アオバ",
    "street": null,
    "office_name": null,
    "office_name_kana": null
  },
  "0014": {
    "postcode": "3460014",
    "prefecture": "埼玉県",
    "prefecture_kana": "サイタマケン",
    "prefecture_code": 11,
    "city": "久喜市",
    "city_kana": "クキシ",
    "town": "吉羽",
    "town_kana": "ヨシバ",
    "street": null,
    "office_name": null,
    "office_name_kana": null
  },
  "0015": {
    "postcode": "3460015",
    "prefecture": "埼玉県",
    "prefecture_kana": "サイタマケン",
    "prefecture_code": 11,
    "city": "久喜市",
    "city_kana": "クキシ",
    "town": "西",
    "town_kana": "ニシ",
    "street": null,
    "office_name": null,
    "office_name_kana": null
  },
  "0016": {
    "postcode": "3460016",
    "prefecture": "埼玉県",
    "prefecture_kana": "サイタマケン",
    "prefecture_code": 11,
    "city": "久喜市",
    "city_kana": "クキシ",
    "town": "久喜東",
    "town_kana": "クキヒガシ",
    "street": null,
    "office_name": null,
    "office_name_kana": null
  },
  "0021": {
    "postcode": "3460021",
    "prefecture": "埼玉県",
    "prefecture_kana": "サイタマケン",
    "prefecture_code": 11,
    "city": "久喜市",
    "city_kana": "クキシ",
    "town": "上早見",
    "town_kana": "カミハヤミ",
    "street": null,
    "office_name": null,
    "office_name_kana": null
  },
  "0022": {
    "postcode": "3460022",
    "prefecture": "埼玉県",
    "prefecture_kana": "サイタマケン",
    "prefecture_code": 11,
    "city": "久喜市",
    "city_kana": "クキシ",
    "town": "下早見",
    "town_kana": "シモハヤミ",
    "street": null,
    "office_name": null,
    "office_name_kana": null
  },
  "0023": {
    "postcode": "3460023",
    "prefecture": "埼玉県",
    "prefecture_kana": "サイタマケン",
    "prefecture_code": 11,
    "city": "久喜市",
    "city_kana": "クキシ",
    "town": "太田袋",
    "town_kana": "オオタブクロ",
    "street": null,
    "office_name": null,
    "office_name_kana": null
  },
  "0024": {
    "postcode": "3460024",
    "prefecture": "埼玉県",
    "prefecture_kana": "サイタマケン",
    "prefecture_code": 11,
    "city": "久喜市",
    "city_kana": "クキシ",
    "town": "北青柳",
    "town_kana": "キタアオヤギ",
    "street": null,
    "office_name": null,
    "office_name_kana": null
  },
  "0025": {
    "postcode": "3460025",
    "prefecture": "埼玉県",
    "prefecture_kana": "サイタマケン",
    "prefecture_code": 11,
    "city": "久喜市",
    "city_kana": "クキシ",
    "town": "樋ノ口",
    "town_kana": "ヒノクチ",
    "street": null,
    "office_name": null,
    "office_name_kana": null
  },
  "0026": {
    "postcode": "3460026",
    "prefecture": "埼玉県",
    "prefecture_kana": "サイタマケン",
    "prefecture_code": 11,
    "city": "久喜市",
    "city_kana": "クキシ",
    "town": "原",
    "town_kana": "ハラ",
    "street": null,
    "office_name": null,
    "office_name_kana": null
  },
  "0027": {
    "postcode": "3460027",
    "prefecture": "埼玉県",
    "prefecture_kana": "サイタマケン",
    "prefecture_code": 11,
    "city": "久喜市",
    "city_kana": "クキシ",
    "town": "除堀",
    "town_kana": "ヨケボリ",
    "street": null,
    "office_name": null,
    "office_name_kana": null
  },
  "0028": {
    "postcode": "3460028",
    "prefecture": "埼玉県",
    "prefecture_kana": "サイタマケン",
    "prefecture_code": 11,
    "city": "久喜市",
    "city_kana": "クキシ",
    "town": "河原井町",
    "town_kana": "カワライチョウ",
    "street": null,
    "office_name": null,
    "office_name_kana": null
  },
  "0029": {
    "postcode": "3460029",
    "prefecture": "埼玉県",
    "prefecture_kana": "サイタマケン",
    "prefecture_code": 11,
    "city": "久喜市",
    "city_kana": "クキシ",
    "town": "江面",
    "town_kana": "エヅラ",
    "street": null,
    "office_name": null,
    "office_name_kana": null
  },
  "0031": {
    "postcode": "3460031",
    "prefecture": "埼玉県",
    "prefecture_kana": "サイタマケン",
    "prefecture_code": 11,
    "city": "久喜市",
    "city_kana": "クキシ",
    "town": "久喜本",
    "town_kana": "クキホン",
    "street": null,
    "office_name": null,
    "office_name_kana": null
  },
  "0032": {
    "postcode": "3460032",
    "prefecture": "埼玉県",
    "prefecture_kana": "サイタマケン",
    "prefecture_code": 11,
    "city": "久喜市",
    "city_kana": "クキシ",
    "town": "久喜新",
    "town_kana": "クキシン",
    "street": null,
    "office_name": null,
    "office_name_kana": null
  },
  "0033": {
    "postcode": "3460033",
    "prefecture": "埼玉県",
    "prefecture_kana": "サイタマケン",
    "prefecture_code": 11,
    "city": "久喜市",
    "city_kana": "クキシ",
    "town": "下清久",
    "town_kana": "シモキヨク",
    "street": null,
    "office_name": null,
    "office_name_kana": null
  },
  "0034": {
    "postcode": "3460034",
    "prefecture": "埼玉県",
    "prefecture_kana": "サイタマケン",
    "prefecture_code": 11,
    "city": "久喜市",
    "city_kana": "クキシ",
    "town": "所久喜",
    "town_kana": "トコログキ",
    "street": null,
    "office_name": null,
    "office_name_kana": null
  },
  "0035": {
    "postcode": "3460035",
    "prefecture": "埼玉県",
    "prefecture_kana": "サイタマケン",
    "prefecture_code": 11,
    "city": "久喜市",
    "city_kana": "クキシ",
    "town": "清久町",
    "town_kana": "キヨクチョウ",
    "street": null,
    "office_name": null,
    "office_name_kana": null
  },
  "0036": {
    "postcode": "3460036",
    "prefecture": "埼玉県",
    "prefecture_kana": "サイタマケン",
    "prefecture_code": 11,
    "city": "久喜市",
    "city_kana": "クキシ",
    "town": "北中曽根",
    "town_kana": "キタナカソネ",
    "street": null,
    "office_name": null,
    "office_name_kana": null
  },
  "0037": {
    "postcode": "3460037",
    "prefecture": "埼玉県",
    "prefecture_kana": "サイタマケン",
    "prefecture_code": 11,
    "city": "久喜市",
    "city_kana": "クキシ",
    "town": "六万部",
    "town_kana": "ロクマンブ",
    "street": null,
    "office_name": null,
    "office_name_kana": null
  },
  "0038": {
    "postcode": "3460038",
    "prefecture": "埼玉県",
    "prefecture_kana": "サイタマケン",
    "prefecture_code": 11,
    "city": "久喜市",
    "city_kana": "クキシ",
    "town": "上清久",
    "town_kana": "カミキヨク",
    "street": null,
    "office_name": null,
    "office_name_kana": null
  },
  "0101": {
    "postcode": "3460101",
    "prefecture": "埼玉県",
    "prefecture_kana": "サイタマケン",
    "prefecture_code": 11,
    "city": "久喜市",
    "city_kana": "クキシ",
    "town": "菖蒲町昭和沼",
    "town_kana": "ショウブチョウショウワヌマ",
    "street": null,
    "office_name": null,
    "office_name_kana": null
  },
  "0102": {
    "postcode": "3460102",
    "prefecture": "埼玉県",
    "prefecture_kana": "サイタマケン",
    "prefecture_code": 11,
    "city": "久喜市",
    "city_kana": "クキシ",
    "town": "菖蒲町河原井",
    "town_kana": "ショウブチョウカワハライ",
    "street": null,
    "office_name": null,
    "office_name_kana": null
  },
  "0103": {
    "postcode": "3460103",
    "prefecture": "埼玉県",
    "prefecture_kana": "サイタマケン",
    "prefecture_code": 11,
    "city": "久喜市",
    "city_kana": "クキシ",
    "town": "菖蒲町台",
    "town_kana": "ショウブチョウダイ",
    "street": null,
    "office_name": null,
    "office_name_kana": null
  },
  "0104": {
    "postcode": "3460104",
    "prefecture": "埼玉県",
    "prefecture_kana": "サイタマケン",
    "prefecture_code": 11,
    "city": "久喜市",
    "city_kana": "クキシ",
    "town": "菖蒲町三箇",
    "town_kana": "ショウブチョウサンガ",
    "street": null,
    "office_name": null,
    "office_name_kana": null
  },
  "0105": {
    "postcode": "3460105",
    "prefecture": "埼玉県",
    "prefecture_kana": "サイタマケン",
    "prefecture_code": 11,
    "city": "久喜市",
    "city_kana": "クキシ",
    "town": "菖蒲町新堀",
    "town_kana": "ショウブチョウニイボリ",
    "street": null,
    "office_name": null,
    "office_name_kana": null
  },
  "0106": {
    "postcode": "3460106",
    "prefecture": "埼玉県",
    "prefecture_kana": "サイタマケン",
    "prefecture_code": 11,
    "city": "久喜市",
    "city_kana": "クキシ",
    "town": "菖蒲町菖蒲",
    "town_kana": "ショウブチョウショウブ",
    "street": null,
    "office_name": null,
    "office_name_kana": null
  },
  "0111": {
    "postcode": "3460111",
    "prefecture": "埼玉県",
    "prefecture_kana": "サイタマケン",
    "prefecture_code": 11,
    "city": "久喜市",
    "city_kana": "クキシ",
    "town": "菖蒲町上大崎",
    "town_kana": "ショウブチョウカミオオサキ",
    "street": null,
    "office_name": null,
    "office_name_kana": null
  },
  "0112": {
    "postcode": "3460112",
    "prefecture": "埼玉県",
    "prefecture_kana": "サイタマケン",
    "prefecture_code": 11,
    "city": "久喜市",
    "city_kana": "クキシ",
    "town": "菖蒲町柴山枝郷",
    "town_kana": "ショウブチョウシバヤマシゴウ",
    "street": null,
    "office_name": null,
    "office_name_kana": null
  },
  "0113": {
    "postcode": "3460113",
    "prefecture": "埼玉県",
    "prefecture_kana": "サイタマケン",
    "prefecture_code": 11,
    "city": "久喜市",
    "city_kana": "クキシ",
    "town": "菖蒲町下栢間",
    "town_kana": "ショウブチョウシモカヤマ",
    "street": null,
    "office_name": null,
    "office_name_kana": null
  },
  "0114": {
    "postcode": "3460114",
    "prefecture": "埼玉県",
    "prefecture_kana": "サイタマケン",
    "prefecture_code": 11,
    "city": "久喜市",
    "city_kana": "クキシ",
    "town": "菖蒲町上栢間",
    "town_kana": "ショウブチョウカミカヤマ",
    "street": null,
    "office_name": null,
    "office_name_kana": null
  },
  "0115": {
    "postcode": "3460115",
    "prefecture": "埼玉県",
    "prefecture_kana": "サイタマケン",
    "prefecture_code": 11,
    "city": "久喜市",
    "city_kana": "クキシ",
    "town": "菖蒲町小林",
    "town_kana": "ショウブチョウオバヤシ",
    "street": null,
    "office_name": null,
    "office_name_kana": null
  },
  "0181": {
    "postcode": "3460181",
    "prefecture": "埼玉県",
    "prefecture_kana": "サイタマケン",
    "prefecture_code": 11,
    "city": "久喜市",
    "city_kana": "クキシ",
    "town": "菖蒲町三箇",
    "town_kana": "ショウブチョウサンガ",
    "street": "５番５",
    "office_name": "株式会社　日伝　東部物流センター",
    "office_name_kana": "カブシキカイシヤ ニチデン トウブブツリユウセンタ-"
  },
  "0183": {
    "postcode": "3460183",
    "prefecture": "埼玉県",
    "prefecture_kana": "サイタマケン",
    "prefecture_code": 11,
    "city": "久喜市",
    "city_kana": "クキシ",
    "town": "菖蒲町三箇",
    "town_kana": "ショウブチョウサンガ",
    "street": "字金芳面６２０１−３",
    "office_name": "ユニーグループ関東北物流センター",
    "office_name_kana": "ユニ-グル-プカントウキタブツリユウセンタ-"
  },
  "0192": {
    "postcode": "3460192",
    "prefecture": "埼玉県",
    "prefecture_kana": "サイタマケン",
    "prefecture_code": 11,
    "city": "久喜市",
    "city_kana": "クキシ",
    "town": "菖蒲町新堀",
    "town_kana": "ショウブチョウニイボリ",
    "street": "３８番地",
    "office_name": "久喜市　菖蒲総合支所",
    "office_name_kana": "クキシ シヨウブソウゴウシシヨ"
  },
  "0193": {
    "postcode": "3460193",
    "prefecture": "埼玉県",
    "prefecture_kana": "サイタマケン",
    "prefecture_code": 11,
    "city": "久喜市",
    "city_kana": "クキシ",
    "town": "菖蒲町昭和沼",
    "town_kana": "ショウブチョウショウワヌマ",
    "street": "１",
    "office_name": "日本鋳鉄管　株式会社",
    "office_name_kana": "ニホンチユウテツカン カブシキガイシヤ"
  },
  "0194": {
    "postcode": "3460194",
    "prefecture": "埼玉県",
    "prefecture_kana": "サイタマケン",
    "prefecture_code": 11,
    "city": "久喜市",
    "city_kana": "クキシ",
    "town": "菖蒲町昭和沼",
    "town_kana": "ショウブチョウショウワヌマ",
    "street": "１９",
    "office_name": "株式会社　エフテック",
    "office_name_kana": "カブシキガイシヤ エフテツク"
  },
  "0195": {
    "postcode": "3460195",
    "prefecture": "埼玉県",
    "prefecture_kana": "サイタマケン",
    "prefecture_code": 11,
    "city": "久喜市",
    "city_kana": "クキシ",
    "town": "菖蒲町菖蒲",
    "town_kana": "ショウブチョウショウブ",
    "street": "字伊勢浦３５５５番地",
    "office_name": "モラージュ菖蒲",
    "office_name_kana": "モラ-ジユシヨウブ"
  },
  "0196": {
    "postcode": "3460196",
    "prefecture": "埼玉県",
    "prefecture_kana": "サイタマケン",
    "prefecture_code": 11,
    "city": "久喜市",
    "city_kana": "クキシ",
    "town": "菖蒲町昭和沼",
    "town_kana": "ショウブチョウショウワヌマ",
    "street": "２２",
    "office_name": "日本マタイ　株式会社　埼玉工場",
    "office_name_kana": "ニホンマタイ カブシキガイシヤ サイタマコウジヨウ"
  },
  "0198": {
    "postcode": "3460198",
    "prefecture": "埼玉県",
    "prefecture_kana": "サイタマケン",
    "prefecture_code": 11,
    "city": "久喜市",
    "city_kana": "クキシ",
    "town": "菖蒲町昭和沼",
    "town_kana": "ショウブチョウショウワヌマ",
    "street": "５",
    "office_name": "株式会社　ＮＳＫマシナリー",
    "office_name_kana": "カブシキガイシヤ エヌエスケ-マシナリ-"
  },
  "8501": {
    "postcode": "3468501",
    "prefecture": "埼玉県",
    "prefecture_kana": "サイタマケン",
    "prefecture_code": 11,
    "city": "久喜市",
    "city_kana": "クキシ",
    "town": "大字下早見",
    "town_kana": null,
    "street": "８５−３",
    "office_name": "久喜市役所",
    "office_name_kana": "クキシヤクシヨ"
  },
  "8506": {
    "postcode": "3468506",
    "prefecture": "埼玉県",
    "prefecture_kana": "サイタマケン",
    "prefecture_code": 11,
    "city": "久喜市",
    "city_kana": "クキシ",
    "town": "大字下早見",
    "town_kana": null,
    "street": "８５−５",
    "office_name": "埼玉県立久喜図書館",
    "office_name_kana": "サイタマケンリツクキトシヨカン"
  },
  "8511": {
    "postcode": "3468511",
    "prefecture": "埼玉県",
    "prefecture_kana": "サイタマケン",
    "prefecture_code": 11,
    "city": "久喜市",
    "city_kana": "クキシ",
    "town": "上清久",
    "town_kana": "カミキヨク",
    "street": "字桟敷１０００番１",
    "office_name": "アマゾン久喜ＦＣ",
    "office_name_kana": "アマゾンクキエフシ-"
  },
  "8516": {
    "postcode": "3468516",
    "prefecture": "埼玉県",
    "prefecture_kana": "サイタマケン",
    "prefecture_code": 11,
    "city": "久喜市",
    "city_kana": "クキシ",
    "town": "清久町",
    "town_kana": "キヨクチョウ",
    "street": "１−１０ＭＦＬＰ１階",
    "office_name": "イトーヨーカ堂　久喜ＩＤＣ（ＴＣ）",
    "office_name_kana": "イト-ヨ-カドウ クキアイデイ-シ-(テイ-シ-)"
  },
  "8524": {
    "postcode": "3468524",
    "prefecture": "埼玉県",
    "prefecture_kana": "サイタマケン",
    "prefecture_code": 11,
    "city": "久喜市",
    "city_kana": "クキシ",
    "town": "大字江面",
    "town_kana": null,
    "street": "１８３６番地１号",
    "office_name": "日本信号　（株）",
    "office_name_kana": "ニホンシンゴウ (カブ)"
  },
  "8530": {
    "postcode": "3468530",
    "prefecture": "埼玉県",
    "prefecture_kana": "サイタマケン",
    "prefecture_code": 11,
    "city": "久喜市",
    "city_kana": "クキシ",
    "town": "上早見",
    "town_kana": "カミハヤミ",
    "street": "４１８番地１",
    "office_name": "埼玉県厚生農業協同組合連合会　久喜総合病院",
    "office_name_kana": "サイタマケンコウセイノウギヨウキヨウドウクミアイレンゴウカイ クキソウゴウビヨウイン"
  },
  "8540": {
    "postcode": "3468540",
    "prefecture": "埼玉県",
    "prefecture_kana": "サイタマケン",
    "prefecture_code": 11,
    "city": "久喜市",
    "city_kana": "クキシ",
    "town": "河原井町",
    "town_kana": "カワライチョウ",
    "street": "７",
    "office_name": "ベネッセコーポレーション　（株）",
    "office_name_kana": "ベネツセコ-ポレ-シヨン (カブ)"
  },
  "8685": {
    "postcode": "3468685",
    "prefecture": "埼玉県",
    "prefecture_kana": "サイタマケン",
    "prefecture_code": 11,
    "city": "久喜市",
    "city_kana": "クキシ",
    "town": "河原井町",
    "town_kana": "カワライチョウ",
    "street": "７",
    "office_name": "ベネッセコーポレーション",
    "office_name_kana": "ベネツセコ-ポレ-シヨン"
  },
  "8686": {
    "postcode": "3468686",
    "prefecture": "埼玉県",
    "prefecture_kana": "サイタマケン",
    "prefecture_code": 11,
    "city": "久喜市",
    "city_kana": "クキシ",
    "town": "河原井町",
    "town_kana": "カワライチョウ",
    "street": "１７（久喜郵便局私書箱第１７号）",
    "office_name": "ベネッセコーポレーション",
    "office_name_kana": "ベネツセコ-ポレ-シヨン"
  }
}