{
  "0000": {
    "postcode": "3510000",
    "prefecture": "埼玉県",
    "prefecture_kana": "サイタマケン",
    "prefecture_code": 11,
    "city": "朝霞市",
    "city_kana": "アサカシ",
    "town": "",
    "town_kana": "",
    "street": null,
    "office_name": null,
    "office_name_kana": null
  },
  "0001": {
    "postcode": "3510001",
    "prefecture": "埼玉県",
    "prefecture_kana": "サイタマケン",
    "prefecture_code": 11,
    "city": "朝霞市",
    "city_kana": "アサカシ",
    "town": "上内間木",
    "town_kana": "カミウチマギ",
    "street": null,
    "office_name": null,
    "office_name_kana": null
  },
  "0002": {
    "postcode": "3510002",
    "prefecture": "埼玉県",
    "prefecture_kana": "サイタマケン",
    "prefecture_code": 11,
    "city": "朝霞市",
    "city_kana": "アサカシ",
    "town": "下内間木",
    "town_kana": "シモウチマギ",
    "street": null,
    "office_name": null,
    "office_name_kana": null
  },
  "0003": {
    "postcode": "3510003",
    "prefecture": "埼玉県",
    "prefecture_kana": "サイタマケン",
    "prefecture_code": 11,
    "city": "朝霞市",
    "city_kana": "アサカシ",
    "town": "台",
    "town_kana": "ダイ",
    "street": null,
    "office_name": null,
    "office_name_kana": null
  },
  "0004": {
    "postcode": "3510004",
    "prefecture": "埼玉県",
    "prefecture_kana": "サイタマケン",
    "prefecture_code": 11,
    "city": "朝霞市",
    "city_kana": "アサカシ",
    "town": "根岸",
    "town_kana": "ネギシ",
    "street": null,
    "office_name": null,
    "office_name_kana": null
  },
  "0005": {
    "postcode": "3510005",
    "prefecture": "埼玉県",
    "prefecture_kana": "サイタマケン",
    "prefecture_code": 11,
    "city": "朝霞市",
    "city_kana": "アサカシ",
    "town": "根岸台",
    "town_kana": "ネギシダイ",
    "street": null,
    "office_name": null,
    "office_name_kana": null
  },
  "0006": {
    "postcode": "3510006",
    "prefecture": "埼玉県",
    "prefecture_kana": "サイタマケン",
    "prefecture_code": 11,
    "city": "朝霞市",
    "city_kana": "アサカシ",
    "town": "仲町",
    "town_kana": "ナカチョウ",
    "street": null,
    "office_name": null,
    "office_name_kana": null
  },
  "0007": {
    "postcode": "3510007",
    "prefecture": "埼玉県",
    "prefecture_kana": "サイタマケン",
    "prefecture_code": 11,
    "city": "朝霞市",
    "city_kana": "アサカシ",
    "town": "岡",
    "town_kana": "オカ",
    "street": null,
    "office_name": null,
    "office_name_kana": null
  },
  "0011": {
    "postcode": "3510011",
    "prefecture": "埼玉県",
    "prefecture_kana": "サイタマケン",
    "prefecture_code": 11,
    "city": "朝霞市",
    "city_kana": "アサカシ",
    "town": "本町",
    "town_kana": "ホンチョウ",
    "street": null,
    "office_name": null,
    "office_name_kana": null
  },
  "0012": {
    "postcode": "3510012",
    "prefecture": "埼玉県",
    "prefecture_kana": "サイタマケン",
    "prefecture_code": 11,
    "city": "朝霞市",
    "city_kana": "アサカシ",
    "town": "栄町",
    "town_kana": "サカエチョウ",
    "street": null,
    "office_name": null,
    "office_name_kana": null
  },
  "0013": {
    "postcode": "3510013",
    "prefecture": "埼玉県",
    "prefecture_kana": "サイタマケン",
    "prefecture_code": 11,
    "city": "朝霞市",
    "city_kana": "アサカシ",
    "town": "膝折",
    "town_kana": "ヒザオリ",
    "street": null,
    "office_name": null,
    "office_name_kana": null
  },
  "0014": {
    "postcode": "3510014",
    "prefecture": "埼玉県",
    "prefecture_kana": "サイタマケン",
    "prefecture_code": 11,
    "city": "朝霞市",
    "city_kana": "アサカシ",
    "town": "膝折町",
    "town_kana": "ヒザオリチョウ",
    "street": null,
    "office_name": null,
    "office_name_kana": null
  },
  "0015": {
    "postcode": "3510015",
    "prefecture": "埼玉県",
    "prefecture_kana": "サイタマケン",
    "prefecture_code": 11,
    "city": "朝霞市",
    "city_kana": "アサカシ",
    "town": "幸町",
    "town_kana": "サイワイチョウ",
    "street": null,
    "office_name": null,
    "office_name_kana": null
  },
  "0016": {
    "postcode": "3510016",
    "prefecture": "埼玉県",
    "prefecture_kana": "サイタマケン",
    "prefecture_code": 11,
    "city": "朝霞市",
    "city_kana": "アサカシ",
    "town": "青葉台",
    "town_kana": "アオバダイ",
    "street": null,
    "office_name": null,
    "office_name_kana": null
  },
  "0021": {
    "postcode": "3510021",
    "prefecture": "埼玉県",
    "prefecture_kana": "サイタマケン",
    "prefecture_code": 11,
    "city": "朝霞市",
    "city_kana": "アサカシ",
    "town": "西弁財",
    "town_kana": "ニシベンザイ",
    "street": null,
    "office_name": null,
    "office_name_kana": null
  },
  "0022": {
    "postcode": "3510022",
    "prefecture": "埼玉県",
    "prefecture_kana": "サイタマケン",
    "prefecture_code": 11,
    "city": "朝霞市",
    "city_kana": "アサカシ",
    "town": "東弁財",
    "town_kana": "ヒガシベンザイ",
    "street": null,
    "office_name": null,
    "office_name_kana": null
  },
  "0023": {
    "postcode": "3510023",
    "prefecture": "埼玉県",
    "prefecture_kana": "サイタマケン",
    "prefecture_code": 11,
    "city": "朝霞市",
    "city_kana": "アサカシ",
    "town": "溝沼",
    "town_kana": "ミゾヌマ",
    "street": null,
    "office_name": null,
    "office_name_kana": null
  },
  "0024": {
    "postcode": "3510024",
    "prefecture": "埼玉県",
    "prefecture_kana": "サイタマケン",
    "prefecture_code": 11,
    "city": "朝霞市",
    "city_kana": "アサカシ",
    "town": "泉水",
    "town_kana": "センズイ",
    "street": null,
    "office_name": null,
    "office_name_kana": null
  },
  "0025": {
    "postcode": "3510025",
    "prefecture": "埼玉県",
    "prefecture_kana": "サイタマケン",
    "prefecture_code": 11,
    "city": "朝霞市",
    "city_kana": "アサカシ",
    "town": "三原",
    "town_kana": "ミハラ",
    "street": null,
    "office_name": null,
    "office_name_kana": null
  },
  "0031": {
    "postcode": "3510031",
    "prefecture": "埼玉県",
    "prefecture_kana": "サイタマケン",
    "prefecture_code": 11,
    "city": "朝霞市",
    "city_kana": "アサカシ",
    "town": "宮戸",
    "town_kana": "ミヤド",
    "street": null,
    "office_name": null,
    "office_name_kana": null
  },
  "0032": {
    "postcode": "3510032",
    "prefecture": "埼玉県",
    "prefecture_kana": "サイタマケン",
    "prefecture_code": 11,
    "city": "朝霞市",
    "city_kana": "アサカシ",
    "town": "田島",
    "town_kana": "タジマ",
    "street": null,
    "office_name": null,
    "office_name_kana": null
  },
  "0033": {
    "postcode": "3510033",
    "prefecture": "埼玉県",
    "prefecture_kana": "サイタマケン",
    "prefecture_code": 11,
    "city": "朝霞市",
    "city_kana": "アサカシ",
    "town": "浜崎",
    "town_kana": "ハマサキ",
    "street": null,
    "office_name": null,
    "office_name_kana": null
  },
  "0034": {
    "postcode": "3510034",
    "prefecture": "埼玉県",
    "prefecture_kana": "サイタマケン",
    "prefecture_code": 11,
    "city": "朝霞市",
    "city_kana": "アサカシ",
    "town": "西原",
    "town_kana": "ニシハラ",
    "street": null,
    "office_name": null,
    "office_name_kana": null
  },
  "0035": {
    "postcode": "3510035",
    "prefecture": "埼玉県",
    "prefecture_kana": "サイタマケン",
    "prefecture_code": 11,
    "city": "朝霞市",
    "city_kana": "アサカシ",
    "town": "朝志ケ丘",
    "town_kana": "アサシガオカ",
    "street": null,
    "office_name": null,
    "office_name_kana": null
  },
  "0036": {
    "postcode": "3510036",
    "prefecture": "埼玉県",
    "prefecture_kana": "サイタマケン",
    "prefecture_code": 11,
    "city": "朝霞市",
    "city_kana": "アサカシ",
    "town": "北原",
    "town_kana": "キタハラ",
    "street": null,
    "office_name": null,
    "office_name_kana": null
  },
  "0100": {
    "postcode": "3510100",
    "prefecture": "埼玉県",
    "prefecture_kana": "サイタマケン",
    "prefecture_code": 11,
    "city": "和光市",
    "city_kana": "ワコウシ",
    "town": "",
    "town_kana": "",
    "street": null,
    "office_name": null,
    "office_name_kana": null
  },
  "0101": {
    "postcode": "3510101",
    "prefecture": "埼玉県",
    "prefecture_kana": "サイタマケン",
    "prefecture_code": 11,
    "city": "和光市",
    "city_kana": "ワコウシ",
    "town": "白子",
    "town_kana": "シラコ",
    "street": null,
    "office_name": null,
    "office_name_kana": null
  },
  "0102": {
    "postcode": "3510102",
    "prefecture": "埼玉県",
    "prefecture_kana": "サイタマケン",
    "prefecture_code": 11,
    "city": "和光市",
    "city_kana": "ワコウシ",
    "town": "諏訪",
    "town_kana": "スワ",
    "street": null,
    "office_name": null,
    "office_name_kana": null
  },
  "0103": {
    "postcode": "3510103",
    "prefecture": "埼玉県",
    "prefecture_kana": "サイタマケン",
    "prefecture_code": 11,
    "city": "和光市",
    "city_kana": "ワコウシ",
    "town": "諏訪原団地",
    "town_kana": "スワハラダンチ",
    "street": null,
    "office_name": null,
    "office_name_kana": null
  },
  "0104": {
    "postcode": "3510104",
    "prefecture": "埼玉県",
    "prefecture_kana": "サイタマケン",
    "prefecture_code": 11,
    "city": "和光市",
    "city_kana": "ワコウシ",
    "town": "南",
    "town_kana": "ミナミ",
    "street": null,
    "office_name": null,
    "office_name_kana": null
  },
  "0105": {
    "postcode": "3510105",
    "prefecture": "埼玉県",
    "prefecture_kana": "サイタマケン",
    "prefecture_code": 11,
    "city": "和光市",
    "city_kana": "ワコウシ",
    "town": "西大和団地",
    "town_kana": "ニシヤマトダンチ",
    "street": null,
    "office_name": null,
    "office_name_kana": null
  },
  "0106": {
    "postcode": "3510106",
    "prefecture": "埼玉県",
    "prefecture_kana": "サイタマケン",
    "prefecture_code": 11,
    "city": "和光市",
    "city_kana": "ワコウシ",
    "town": "広沢",
    "town_kana": "ヒロサワ",
    "street": null,
    "office_name": null,
    "office_name_kana": null
  },
  "0111": {
    "postcode": "3510111",
    "prefecture": "埼玉県",
    "prefecture_kana": "サイタマケン",
    "prefecture_code": 11,
    "city": "和光市",
    "city_kana": "ワコウシ",
    "town": "下新倉",
    "town_kana": "シモニイクラ",
    "street": null,
    "office_name": null,
    "office_name_kana": null
  },
  "0112": {
    "postcode": "3510112",
    "prefecture": "埼玉県",
    "prefecture_kana": "サイタマケン",
    "prefecture_code": 11,
    "city": "和光市",
    "city_kana": "ワコウシ",
    "town": "丸山台",
    "town_kana": "マルヤマダイ",
    "street": null,
    "office_name": null,
    "office_name_kana": null
  },
  "0113": {
    "postcode": "3510113",
    "prefecture": "埼玉県",
    "prefecture_kana": "サイタマケン",
    "prefecture_code": 11,
    "city": "和光市",
    "city_kana": "ワコウシ",
    "town": "中央",
    "town_kana": "チュウオウ",
    "street": null,
    "office_name": null,
    "office_name_kana": null
  },
  "0114": {
    "postcode": "3510114",
    "prefecture": "埼玉県",
    "prefecture_kana": "サイタマケン",
    "prefecture_code": 11,
    "city": "和光市",
    "city_kana": "ワコウシ",
    "town": "本町",
    "town_kana": "ホンチョウ",
    "street": null,
    "office_name": null,
    "office_name_kana": null
  },
  "0115": {
    "postcode": "3510115",
    "prefecture": "埼玉県",
    "prefecture_kana": "サイタマケン",
    "prefecture_code": 11,
    "city": "和光市",
    "city_kana": "ワコウシ",
    "town": "新倉",
    "town_kana": "ニイクラ",
    "street": null,
    "office_name": null,
    "office_name_kana": null
  },
  "0116": {
    "postcode": "3510116",
    "prefecture": "埼玉県",
    "prefecture_kana": "サイタマケン",
    "prefecture_code": 11,
    "city": "和光市",
    "city_kana": "ワコウシ",
    "town": "松ノ木島町",
    "town_kana": "マツノキジマチョウ",
    "street": null,
    "office_name": null,
    "office_name_kana": null
  },
  "0180": {
    "postcode": "3510180",
    "prefecture": "埼玉県",
    "prefecture_kana": "サイタマケン",
    "prefecture_code": 11,
    "city": "和光市",
    "city_kana": "ワコウシ",
    "town": "南",
    "town_kana": "ミナミ",
    "street": "二丁目３番５号最高裁判所和光庁舎・司法研修所別館研修棟",
    "office_name": "最高裁判所事務総局経理局厚生課",
    "office_name_kana": "サイコウサイバンシヨジムソウキヨクケイリキヨクコウセイカ"
  },
  "0188": {
    "postcode": "3510188",
    "prefecture": "埼玉県",
    "prefecture_kana": "サイタマケン",
    "prefecture_code": 11,
    "city": "和光市",
    "city_kana": "ワコウシ",
    "town": "本町",
    "town_kana": "ホンチョウ",
    "street": "８−１",
    "office_name": "本田技研工業　株式会社　和光ビル",
    "office_name_kana": "ホンダギケンコウギヨウ カブシキガイシヤ ワコウビル"
  },
  "0192": {
    "postcode": "3510192",
    "prefecture": "埼玉県",
    "prefecture_kana": "サイタマケン",
    "prefecture_code": 11,
    "city": "和光市",
    "city_kana": "ワコウシ",
    "town": "広沢",
    "town_kana": "ヒロサワ",
    "street": "１−５",
    "office_name": "和光市役所",
    "office_name_kana": "ワコウシヤクシヨ"
  },
  "0193": {
    "postcode": "3510193",
    "prefecture": "埼玉県",
    "prefecture_kana": "サイタマケン",
    "prefecture_code": 11,
    "city": "和光市",
    "city_kana": "ワコウシ",
    "town": "中央",
    "town_kana": "チュウオウ",
    "street": "１丁目４−１",
    "office_name": "本田技術研究所",
    "office_name_kana": "ホンダギジユツケンキユウジヨ"
  },
  "0194": {
    "postcode": "3510194",
    "prefecture": "埼玉県",
    "prefecture_kana": "サイタマケン",
    "prefecture_code": 11,
    "city": "和光市",
    "city_kana": "ワコウシ",
    "town": "南",
    "town_kana": "ミナミ",
    "street": "２丁目３−８",
    "office_name": "司法研修所",
    "office_name_kana": "シホウケンシユウシヨ"
  },
  "0196": {
    "postcode": "3510196",
    "prefecture": "埼玉県",
    "prefecture_kana": "サイタマケン",
    "prefecture_code": 11,
    "city": "和光市",
    "city_kana": "ワコウシ",
    "town": "南",
    "town_kana": "ミナミ",
    "street": "２丁目３番５号",
    "office_name": "裁判所職員総合研修所",
    "office_name_kana": "サイバンシヨシヨクインソウゴウケンシユウシヨ"
  },
  "0197": {
    "postcode": "3510197",
    "prefecture": "埼玉県",
    "prefecture_kana": "サイタマケン",
    "prefecture_code": 11,
    "city": "和光市",
    "city_kana": "ワコウシ",
    "town": "南",
    "town_kana": "ミナミ",
    "street": "２丁目３−６",
    "office_name": "国立保健医療科学院",
    "office_name_kana": "コクリツホケンイリヨウカガクイン"
  },
  "0198": {
    "postcode": "3510198",
    "prefecture": "埼玉県",
    "prefecture_kana": "サイタマケン",
    "prefecture_code": 11,
    "city": "和光市",
    "city_kana": "ワコウシ",
    "town": "広沢",
    "town_kana": "ヒロサワ",
    "street": "２番１号",
    "office_name": "国立研究開発法人　理化学研究所",
    "office_name_kana": "コクリツケンキユウカイハツホウジン リカガクケンキユウシヨ"
  },
  "8501": {
    "postcode": "3518501",
    "prefecture": "埼玉県",
    "prefecture_kana": "サイタマケン",
    "prefecture_code": 11,
    "city": "朝霞市",
    "city_kana": "アサカシ",
    "town": "本町",
    "town_kana": "ホンチョウ",
    "street": "１丁目１−１",
    "office_name": "朝霞市役所",
    "office_name_kana": "アサカシヤクシヨ"
  },
  "8503": {
    "postcode": "3518503",
    "prefecture": "埼玉県",
    "prefecture_kana": "サイタマケン",
    "prefecture_code": 11,
    "city": "朝霞市",
    "city_kana": "アサカシ",
    "town": "幸町",
    "town_kana": "サイワイチョウ",
    "street": "３丁目１４番１号",
    "office_name": "新電元工業　株式会社　朝霞事業所",
    "office_name_kana": "シンデンゲンコウギヨウ カブシキガイシヤ アサカジギヨウシヨ"
  },
  "8508": {
    "postcode": "3518508",
    "prefecture": "埼玉県",
    "prefecture_kana": "サイタマケン",
    "prefecture_code": 11,
    "city": "朝霞市",
    "city_kana": "アサカシ",
    "town": "北原",
    "town_kana": "キタハラ",
    "street": "２丁目１４番１２号",
    "office_name": "株式会社　東京印書館",
    "office_name_kana": "カブシキガイシヤ トウキヨウインシヨカン"
  },
  "8510": {
    "postcode": "3518510",
    "prefecture": "埼玉県",
    "prefecture_kana": "サイタマケン",
    "prefecture_code": 11,
    "city": "朝霞市",
    "city_kana": "アサカシ",
    "town": "岡",
    "town_kana": "オカ",
    "street": "４８−１",
    "office_name": "東洋大学　朝霞校舎",
    "office_name_kana": "トウヨウダイガク アサカコウシヤ"
  },
  "8511": {
    "postcode": "3518511",
    "prefecture": "埼玉県",
    "prefecture_kana": "サイタマケン",
    "prefecture_code": 11,
    "city": "朝霞市",
    "city_kana": "アサカシ",
    "town": "根岸台",
    "town_kana": "ネギシダイ",
    "street": "３丁目１５−１",
    "office_name": "積水化学工業　株式会社　東京工場",
    "office_name_kana": "セキスイカガクコウギヨウ カブシキガイシヤ トウキヨウコウジヨウ"
  },
  "8520": {
    "postcode": "3518520",
    "prefecture": "埼玉県",
    "prefecture_kana": "サイタマケン",
    "prefecture_code": 11,
    "city": "朝霞市",
    "city_kana": "アサカシ",
    "town": "西原",
    "town_kana": "ニシハラ",
    "street": "１丁目３−３須田ビル３Ｆ",
    "office_name": "すまいるエフエム　株式会社",
    "office_name_kana": "スマイルエフエム カブシキカイシヤ"
  },
  "8555": {
    "postcode": "3518555",
    "prefecture": "埼玉県",
    "prefecture_kana": "サイタマケン",
    "prefecture_code": 11,
    "city": "朝霞市",
    "city_kana": "アサカシ",
    "town": "泉水",
    "town_kana": "センズイ",
    "street": "３−１５−１",
    "office_name": "株式会社　本田技術研究所　二輪Ｒ＆Ｄセンター",
    "office_name_kana": "カブシキガイシヤ ホンダギジユツケンキユウジヨ ニリンア-ルアンドデイセンタ-"
  },
  "8560": {
    "postcode": "3518560",
    "prefecture": "埼玉県",
    "prefecture_kana": "サイタマケン",
    "prefecture_code": 11,
    "city": "朝霞市",
    "city_kana": "アサカシ",
    "town": "大字浜崎",
    "town_kana": null,
    "street": "５１番地の１",
    "office_name": "朝霞市社会福祉協議会",
    "office_name_kana": "アサカシシヤカイフクシキヨウギカイ"
  },
  "8585": {
    "postcode": "3518585",
    "prefecture": "埼玉県",
    "prefecture_kana": "サイタマケン",
    "prefecture_code": 11,
    "city": "朝霞市",
    "city_kana": "アサカシ",
    "town": "泉水",
    "town_kana": "センズイ",
    "street": "３丁目１１−４６",
    "office_name": "富士写真フィルム　株式会社　朝霞技術開発センター",
    "office_name_kana": "フジシヤシンフイルム カブシキガイシヤ アサカギジユツカイハツセンタ-"
  },
  "8586": {
    "postcode": "3518586",
    "prefecture": "埼玉県",
    "prefecture_kana": "サイタマケン",
    "prefecture_code": 11,
    "city": "朝霞市",
    "city_kana": "アサカシ",
    "town": "膝折町",
    "town_kana": "ヒザオリチョウ",
    "street": "２丁目１５−１１",
    "office_name": "株式会社　Ｍ—ＴＥＣ",
    "office_name_kana": "カブシキガイシヤ エムテツク"
  },
  "8601": {
    "postcode": "3518601",
    "prefecture": "埼玉県",
    "prefecture_kana": "サイタマケン",
    "prefecture_code": 11,
    "city": "朝霞市",
    "city_kana": "アサカシ",
    "town": "本町",
    "town_kana": "ホンチョウ",
    "street": "１丁目１番４６号（朝霞郵便局私書箱第１３号）",
    "office_name": "朝霞税務署",
    "office_name_kana": "アサカゼイムシヨ"
  }
}