{
  "0000": {
    "postcode": "3550000",
    "prefecture": "埼玉県",
    "prefecture_kana": "サイタマケン",
    "prefecture_code": 11,
    "city": "東松山市",
    "city_kana": "ヒガシマツヤマシ",
    "town": "",
    "town_kana": "",
    "street": null,
    "office_name": null,
    "office_name_kana": null
  },
  "0001": {
    "postcode": "3550001",
    "prefecture": "埼玉県",
    "prefecture_kana": "サイタマケン",
    "prefecture_code": 11,
    "city": "東松山市",
    "city_kana": "ヒガシマツヤマシ",
    "town": "岡",
    "town_kana": "オカ",
    "street": null,
    "office_name": null,
    "office_name_kana": null
  },
  "0002": {
    "postcode": "3550002",
    "prefecture": "埼玉県",
    "prefecture_kana": "サイタマケン",
    "prefecture_code": 11,
    "city": "東松山市",
    "city_kana": "ヒガシマツヤマシ",
    "town": "東平",
    "town_kana": "ヒガシダイラ",
    "street": null,
    "office_name": null,
    "office_name_kana": null
  },
  "0003": {
    "postcode": "3550003",
    "prefecture": "埼玉県",
    "prefecture_kana": "サイタマケン",
    "prefecture_code": 11,
    "city": "東松山市",
    "city_kana": "ヒガシマツヤマシ",
    "town": "殿山町",
    "town_kana": "トノヤマチョウ",
    "street": null,
    "office_name": null,
    "office_name_kana": null
  },
  "0004": {
    "postcode": "3550004",
    "prefecture": "埼玉県",
    "prefecture_kana": "サイタマケン",
    "prefecture_code": 11,
    "city": "東松山市",
    "city_kana": "ヒガシマツヤマシ",
    "town": "沢口町",
    "town_kana": "サワグチチョウ",
    "street": null,
    "office_name": null,
    "office_name_kana": null
  },
  "0005": {
    "postcode": "3550005",
    "prefecture": "埼玉県",
    "prefecture_kana": "サイタマケン",
    "prefecture_code": 11,
    "city": "東松山市",
    "city_kana": "ヒガシマツヤマシ",
    "town": "松山",
    "town_kana": "マツヤマ",
    "street": null,
    "office_name": null,
    "office_name_kana": null
  },
  "0006": {
    "postcode": "3550006",
    "prefecture": "埼玉県",
    "prefecture_kana": "サイタマケン",
    "prefecture_code": 11,
    "city": "東松山市",
    "city_kana": "ヒガシマツヤマシ",
    "town": "市ノ川",
    "town_kana": "イチノカワ",
    "street": null,
    "office_name": null,
    "office_name_kana": null
  },
  "0007": {
    "postcode": "3550007",
    "prefecture": "埼玉県",
    "prefecture_kana": "サイタマケン",
    "prefecture_code": 11,
    "city": "東松山市",
    "city_kana": "ヒガシマツヤマシ",
    "town": "野田",
    "town_kana": "ノダ",
    "street": null,
    "office_name": null,
    "office_name_kana": null
  },
  "0008": {
    "postcode": "3550008",
    "prefecture": "埼玉県",
    "prefecture_kana": "サイタマケン",
    "prefecture_code": 11,
    "city": "東松山市",
    "city_kana": "ヒガシマツヤマシ",
    "town": "大谷",
    "town_kana": "オオヤ",
    "street": null,
    "office_name": null,
    "office_name_kana": null
  },
  "0009": {
    "postcode": "3550009",
    "prefecture": "埼玉県",
    "prefecture_kana": "サイタマケン",
    "prefecture_code": 11,
    "city": "東松山市",
    "city_kana": "ヒガシマツヤマシ",
    "town": "仲田町",
    "town_kana": "ナカダチョウ",
    "street": null,
    "office_name": null,
    "office_name_kana": null
  },
  "0010": {
    "postcode": "3550010",
    "prefecture": "埼玉県",
    "prefecture_kana": "サイタマケン",
    "prefecture_code": 11,
    "city": "東松山市",
    "city_kana": "ヒガシマツヤマシ",
    "town": "美原町",
    "town_kana": "ミハラチョウ",
    "street": null,
    "office_name": null,
    "office_name_kana": null
  },
  "0011": {
    "postcode": "3550011",
    "prefecture": "埼玉県",
    "prefecture_kana": "サイタマケン",
    "prefecture_code": 11,
    "city": "東松山市",
    "city_kana": "ヒガシマツヤマシ",
    "town": "加美町",
    "town_kana": "カミチョウ",
    "street": null,
    "office_name": null,
    "office_name_kana": null
  },
  "0012": {
    "postcode": "3550012",
    "prefecture": "埼玉県",
    "prefecture_kana": "サイタマケン",
    "prefecture_code": 11,
    "city": "東松山市",
    "city_kana": "ヒガシマツヤマシ",
    "town": "日吉町",
    "town_kana": "ヒヨシチョウ",
    "street": null,
    "office_name": null,
    "office_name_kana": null
  },
  "0013": {
    "postcode": "3550013",
    "prefecture": "埼玉県",
    "prefecture_kana": "サイタマケン",
    "prefecture_code": 11,
    "city": "東松山市",
    "city_kana": "ヒガシマツヤマシ",
    "town": "小松原町",
    "town_kana": "コマツバラチョウ",
    "street": null,
    "office_name": null,
    "office_name_kana": null
  },
  "0014": {
    "postcode": "3550014",
    "prefecture": "埼玉県",
    "prefecture_kana": "サイタマケン",
    "prefecture_code": 11,
    "city": "東松山市",
    "city_kana": "ヒガシマツヤマシ",
    "town": "松本町",
    "town_kana": "マツモトチョウ",
    "street": null,
    "office_name": null,
    "office_name_kana": null
  },
  "0015": {
    "postcode": "3550015",
    "prefecture": "埼玉県",
    "prefecture_kana": "サイタマケン",
    "prefecture_code": 11,
    "city": "東松山市",
    "city_kana": "ヒガシマツヤマシ",
    "town": "本町",
    "town_kana": "ホンチョウ",
    "street": null,
    "office_name": null,
    "office_name_kana": null
  },
  "0016": {
    "postcode": "3550016",
    "prefecture": "埼玉県",
    "prefecture_kana": "サイタマケン",
    "prefecture_code": 11,
    "city": "東松山市",
    "city_kana": "ヒガシマツヤマシ",
    "town": "材木町",
    "town_kana": "ザイモクチョウ",
    "street": null,
    "office_name": null,
    "office_name_kana": null
  },
  "0017": {
    "postcode": "3550017",
    "prefecture": "埼玉県",
    "prefecture_kana": "サイタマケン",
    "prefecture_code": 11,
    "city": "東松山市",
    "city_kana": "ヒガシマツヤマシ",
    "town": "松葉町",
    "town_kana": "マツバチョウ",
    "street": null,
    "office_name": null,
    "office_name_kana": null
  },
  "0018": {
    "postcode": "3550018",
    "prefecture": "埼玉県",
    "prefecture_kana": "サイタマケン",
    "prefecture_code": 11,
    "city": "東松山市",
    "city_kana": "ヒガシマツヤマシ",
    "town": "松山町",
    "town_kana": "マツヤマチョウ",
    "street": null,
    "office_name": null,
    "office_name_kana": null
  },
  "0019": {
    "postcode": "3550019",
    "prefecture": "埼玉県",
    "prefecture_kana": "サイタマケン",
    "prefecture_code": 11,
    "city": "東松山市",
    "city_kana": "ヒガシマツヤマシ",
    "town": "砂田町",
    "town_kana": "スナダチョウ",
    "street": null,
    "office_name": null,
    "office_name_kana": null
  },
  "0021": {
    "postcode": "3550021",
    "prefecture": "埼玉県",
    "prefecture_kana": "サイタマケン",
    "prefecture_code": 11,
    "city": "東松山市",
    "city_kana": "ヒガシマツヤマシ",
    "town": "神明町",
    "town_kana": "シンメイチョウ",
    "street": null,
    "office_name": null,
    "office_name_kana": null
  },
  "0022": {
    "postcode": "3550022",
    "prefecture": "埼玉県",
    "prefecture_kana": "サイタマケン",
    "prefecture_code": 11,
    "city": "東松山市",
    "city_kana": "ヒガシマツヤマシ",
    "town": "御茶山町",
    "town_kana": "オチャヤマチョウ",
    "street": null,
    "office_name": null,
    "office_name_kana": null
  },
  "0023": {
    "postcode": "3550023",
    "prefecture": "埼玉県",
    "prefecture_kana": "サイタマケン",
    "prefecture_code": 11,
    "city": "東松山市",
    "city_kana": "ヒガシマツヤマシ",
    "town": "六反町",
    "town_kana": "ロクタンチョウ",
    "street": null,
    "office_name": null,
    "office_name_kana": null
  },
  "0024": {
    "postcode": "3550024",
    "prefecture": "埼玉県",
    "prefecture_kana": "サイタマケン",
    "prefecture_code": 11,
    "city": "東松山市",
    "city_kana": "ヒガシマツヤマシ",
    "town": "六軒町",
    "town_kana": "ロッケンチョウ",
    "street": null,
    "office_name": null,
    "office_name_kana": null
  },
  "0025": {
    "postcode": "3550025",
    "prefecture": "埼玉県",
    "prefecture_kana": "サイタマケン",
    "prefecture_code": 11,
    "city": "東松山市",
    "city_kana": "ヒガシマツヤマシ",
    "town": "幸町",
    "town_kana": "サイワイチョウ",
    "street": null,
    "office_name": null,
    "office_name_kana": null
  },
  "0026": {
    "postcode": "3550026",
    "prefecture": "埼玉県",
    "prefecture_kana": "サイタマケン",
    "prefecture_code": 11,
    "city": "東松山市",
    "city_kana": "ヒガシマツヤマシ",
    "town": "和泉町",
    "town_kana": "イズミチョウ",
    "street": null,
    "office_name": null,
    "office_name_kana": null
  },
  "0027": {
    "postcode": "3550027",
    "prefecture": "埼玉県",
    "prefecture_kana": "サイタマケン",
    "prefecture_code": 11,
    "city": "東松山市",
    "city_kana": "ヒガシマツヤマシ",
    "town": "美土里町",
    "town_kana": "ミドリチョウ",
    "street": null,
    "office_name": null,
    "office_name_kana": null
  },
  "0028": {
    "postcode": "3550028",
    "prefecture": "埼玉県",
    "prefecture_kana": "サイタマケン",
    "prefecture_code": 11,
    "city": "東松山市",
    "city_kana": "ヒガシマツヤマシ",
    "town": "箭弓町",
    "town_kana": "ヤキュウチョウ",
    "street": null,
    "office_name": null,
    "office_name_kana": null
  },
  "0031": {
    "postcode": "3550031",
    "prefecture": "埼玉県",
    "prefecture_kana": "サイタマケン",
    "prefecture_code": 11,
    "city": "東松山市",
    "city_kana": "ヒガシマツヤマシ",
    "town": "五領町",
    "town_kana": "ゴリョウチョウ",
    "street": null,
    "office_name": null,
    "office_name_kana": null
  },
  "0032": {
    "postcode": "3550032",
    "prefecture": "埼玉県",
    "prefecture_kana": "サイタマケン",
    "prefecture_code": 11,
    "city": "東松山市",
    "city_kana": "ヒガシマツヤマシ",
    "town": "新宿町",
    "town_kana": "シンジュクチョウ",
    "street": null,
    "office_name": null,
    "office_name_kana": null
  },
  "0033": {
    "postcode": "3550033",
    "prefecture": "埼玉県",
    "prefecture_kana": "サイタマケン",
    "prefecture_code": 11,
    "city": "東松山市",
    "city_kana": "ヒガシマツヤマシ",
    "town": "山崎町",
    "town_kana": "ヤマザキチョウ",
    "street": null,
    "office_name": null,
    "office_name_kana": null
  },
  "0034": {
    "postcode": "3550034",
    "prefecture": "埼玉県",
    "prefecture_kana": "サイタマケン",
    "prefecture_code": 11,
    "city": "東松山市",
    "city_kana": "ヒガシマツヤマシ",
    "town": "柏崎",
    "town_kana": "カシワザキ",
    "street": null,
    "office_name": null,
    "office_name_kana": null
  },
  "0035": {
    "postcode": "3550035",
    "prefecture": "埼玉県",
    "prefecture_kana": "サイタマケン",
    "prefecture_code": 11,
    "city": "東松山市",
    "city_kana": "ヒガシマツヤマシ",
    "town": "古凍",
    "town_kana": "フルコオリ",
    "street": null,
    "office_name": null,
    "office_name_kana": null
  },
  "0036": {
    "postcode": "3550036",
    "prefecture": "埼玉県",
    "prefecture_kana": "サイタマケン",
    "prefecture_code": 11,
    "city": "東松山市",
    "city_kana": "ヒガシマツヤマシ",
    "town": "下野本",
    "town_kana": "シモノモト",
    "street": null,
    "office_name": null,
    "office_name_kana": null
  },
  "0037": {
    "postcode": "3550037",
    "prefecture": "埼玉県",
    "prefecture_kana": "サイタマケン",
    "prefecture_code": 11,
    "city": "東松山市",
    "city_kana": "ヒガシマツヤマシ",
    "town": "若松町",
    "town_kana": "ワカマツチョウ",
    "street": null,
    "office_name": null,
    "office_name_kana": null
  },
  "0041": {
    "postcode": "3550041",
    "prefecture": "埼玉県",
    "prefecture_kana": "サイタマケン",
    "prefecture_code": 11,
    "city": "東松山市",
    "city_kana": "ヒガシマツヤマシ",
    "town": "下押垂",
    "town_kana": "シモオシダリ",
    "street": null,
    "office_name": null,
    "office_name_kana": null
  },
  "0042": {
    "postcode": "3550042",
    "prefecture": "埼玉県",
    "prefecture_kana": "サイタマケン",
    "prefecture_code": 11,
    "city": "東松山市",
    "city_kana": "ヒガシマツヤマシ",
    "town": "今泉",
    "town_kana": "イマイズミ",
    "street": null,
    "office_name": null,
    "office_name_kana": null
  },
  "0043": {
    "postcode": "3550043",
    "prefecture": "埼玉県",
    "prefecture_kana": "サイタマケン",
    "prefecture_code": 11,
    "city": "東松山市",
    "city_kana": "ヒガシマツヤマシ",
    "town": "早俣",
    "town_kana": "ハヤマタ",
    "street": null,
    "office_name": null,
    "office_name_kana": null
  },
  "0044": {
    "postcode": "3550044",
    "prefecture": "埼玉県",
    "prefecture_kana": "サイタマケン",
    "prefecture_code": 11,
    "city": "東松山市",
    "city_kana": "ヒガシマツヤマシ",
    "town": "正代",
    "town_kana": "ショウダイ",
    "street": null,
    "office_name": null,
    "office_name_kana": null
  },
  "0045": {
    "postcode": "3550045",
    "prefecture": "埼玉県",
    "prefecture_kana": "サイタマケン",
    "prefecture_code": 11,
    "city": "東松山市",
    "city_kana": "ヒガシマツヤマシ",
    "town": "宮鼻",
    "town_kana": "ミヤハナ",
    "street": null,
    "office_name": null,
    "office_name_kana": null
  },
  "0046": {
    "postcode": "3550046",
    "prefecture": "埼玉県",
    "prefecture_kana": "サイタマケン",
    "prefecture_code": 11,
    "city": "東松山市",
    "city_kana": "ヒガシマツヤマシ",
    "town": "大黒部",
    "town_kana": "オオクロベ",
    "street": null,
    "office_name": null,
    "office_name_kana": null
  },
  "0047": {
    "postcode": "3550047",
    "prefecture": "埼玉県",
    "prefecture_kana": "サイタマケン",
    "prefecture_code": 11,
    "city": "東松山市",
    "city_kana": "ヒガシマツヤマシ",
    "town": "高坂",
    "town_kana": "タカサカ",
    "street": null,
    "office_name": null,
    "office_name_kana": null
  },
  "0048": {
    "postcode": "3550048",
    "prefecture": "埼玉県",
    "prefecture_kana": "サイタマケン",
    "prefecture_code": 11,
    "city": "東松山市",
    "city_kana": "ヒガシマツヤマシ",
    "town": "あずま町",
    "town_kana": "アズマチョウ",
    "street": null,
    "office_name": null,
    "office_name_kana": null
  },
  "0051": {
    "postcode": "3550051",
    "prefecture": "埼玉県",
    "prefecture_kana": "サイタマケン",
    "prefecture_code": 11,
    "city": "東松山市",
    "city_kana": "ヒガシマツヤマシ",
    "town": "白山台",
    "town_kana": "ハクサンダイ",
    "street": null,
    "office_name": null,
    "office_name_kana": null
  },
  "0052": {
    "postcode": "3550052",
    "prefecture": "埼玉県",
    "prefecture_kana": "サイタマケン",
    "prefecture_code": 11,
    "city": "東松山市",
    "city_kana": "ヒガシマツヤマシ",
    "town": "桜山台",
    "town_kana": "サクラヤマダイ",
    "street": null,
    "office_name": null,
    "office_name_kana": null
  },
  "0053": {
    "postcode": "3550053",
    "prefecture": "埼玉県",
    "prefecture_kana": "サイタマケン",
    "prefecture_code": 11,
    "city": "東松山市",
    "city_kana": "ヒガシマツヤマシ",
    "town": "田木",
    "town_kana": "タギ",
    "street": null,
    "office_name": null,
    "office_name_kana": null
  },
  "0054": {
    "postcode": "3550054",
    "prefecture": "埼玉県",
    "prefecture_kana": "サイタマケン",
    "prefecture_code": 11,
    "city": "東松山市",
    "city_kana": "ヒガシマツヤマシ",
    "town": "旗立台",
    "town_kana": "ハタタテダイ",
    "street": null,
    "office_name": null,
    "office_name_kana": null
  },
  "0055": {
    "postcode": "3550055",
    "prefecture": "埼玉県",
    "prefecture_kana": "サイタマケン",
    "prefecture_code": 11,
    "city": "東松山市",
    "city_kana": "ヒガシマツヤマシ",
    "town": "松風台",
    "town_kana": "マツカゼダイ",
    "street": null,
    "office_name": null,
    "office_name_kana": null
  },
  "0061": {
    "postcode": "3550061",
    "prefecture": "埼玉県",
    "prefecture_kana": "サイタマケン",
    "prefecture_code": 11,
    "city": "東松山市",
    "city_kana": "ヒガシマツヤマシ",
    "town": "葛袋",
    "town_kana": "クズブクロ",
    "street": null,
    "office_name": null,
    "office_name_kana": null
  },
  "0062": {
    "postcode": "3550062",
    "prefecture": "埼玉県",
    "prefecture_kana": "サイタマケン",
    "prefecture_code": 11,
    "city": "東松山市",
    "city_kana": "ヒガシマツヤマシ",
    "town": "西本宿",
    "town_kana": "ニシモトジュク",
    "street": null,
    "office_name": null,
    "office_name_kana": null
  },
  "0063": {
    "postcode": "3550063",
    "prefecture": "埼玉県",
    "prefecture_kana": "サイタマケン",
    "prefecture_code": 11,
    "city": "東松山市",
    "city_kana": "ヒガシマツヤマシ",
    "town": "元宿",
    "town_kana": "モトジュク",
    "street": null,
    "office_name": null,
    "office_name_kana": null
  },
  "0064": {
    "postcode": "3550064",
    "prefecture": "埼玉県",
    "prefecture_kana": "サイタマケン",
    "prefecture_code": 11,
    "city": "東松山市",
    "city_kana": "ヒガシマツヤマシ",
    "town": "毛塚",
    "town_kana": "ケツカ",
    "street": null,
    "office_name": null,
    "office_name_kana": null
  },
  "0065": {
    "postcode": "3550065",
    "prefecture": "埼玉県",
    "prefecture_kana": "サイタマケン",
    "prefecture_code": 11,
    "city": "東松山市",
    "city_kana": "ヒガシマツヤマシ",
    "town": "岩殿",
    "town_kana": "イワドノ",
    "street": null,
    "office_name": null,
    "office_name_kana": null
  },
  "0066": {
    "postcode": "3550066",
    "prefecture": "埼玉県",
    "prefecture_kana": "サイタマケン",
    "prefecture_code": 11,
    "city": "東松山市",
    "city_kana": "ヒガシマツヤマシ",
    "town": "神戸",
    "town_kana": "ゴウド",
    "street": null,
    "office_name": null,
    "office_name_kana": null
  },
  "0067": {
    "postcode": "3550067",
    "prefecture": "埼玉県",
    "prefecture_kana": "サイタマケン",
    "prefecture_code": 11,
    "city": "東松山市",
    "city_kana": "ヒガシマツヤマシ",
    "town": "坂東山",
    "town_kana": "バンドウヤマ",
    "street": null,
    "office_name": null,
    "office_name_kana": null
  },
  "0071": {
    "postcode": "3550071",
    "prefecture": "埼玉県",
    "prefecture_kana": "サイタマケン",
    "prefecture_code": 11,
    "city": "東松山市",
    "city_kana": "ヒガシマツヤマシ",
    "town": "新郷",
    "town_kana": "シンゴウ",
    "street": null,
    "office_name": null,
    "office_name_kana": null
  },
  "0072": {
    "postcode": "3550072",
    "prefecture": "埼玉県",
    "prefecture_kana": "サイタマケン",
    "prefecture_code": 11,
    "city": "東松山市",
    "city_kana": "ヒガシマツヤマシ",
    "town": "石橋",
    "town_kana": "イシバシ",
    "street": null,
    "office_name": null,
    "office_name_kana": null
  },
  "0073": {
    "postcode": "3550073",
    "prefecture": "埼玉県",
    "prefecture_kana": "サイタマケン",
    "prefecture_code": 11,
    "city": "東松山市",
    "city_kana": "ヒガシマツヤマシ",
    "town": "上野本",
    "town_kana": "カミノモト",
    "street": null,
    "office_name": null,
    "office_name_kana": null
  },
  "0074": {
    "postcode": "3550074",
    "prefecture": "埼玉県",
    "prefecture_kana": "サイタマケン",
    "prefecture_code": 11,
    "city": "東松山市",
    "city_kana": "ヒガシマツヤマシ",
    "town": "上押垂",
    "town_kana": "カミオシダリ",
    "street": null,
    "office_name": null,
    "office_name_kana": null
  },
  "0075": {
    "postcode": "3550075",
    "prefecture": "埼玉県",
    "prefecture_kana": "サイタマケン",
    "prefecture_code": 11,
    "city": "東松山市",
    "city_kana": "ヒガシマツヤマシ",
    "town": "下青鳥",
    "town_kana": "シモオオドリ",
    "street": null,
    "office_name": null,
    "office_name_kana": null
  },
  "0076": {
    "postcode": "3550076",
    "prefecture": "埼玉県",
    "prefecture_kana": "サイタマケン",
    "prefecture_code": 11,
    "city": "東松山市",
    "city_kana": "ヒガシマツヤマシ",
    "town": "下唐子",
    "town_kana": "シモガラコ",
    "street": null,
    "office_name": null,
    "office_name_kana": null
  },
  "0077": {
    "postcode": "3550077",
    "prefecture": "埼玉県",
    "prefecture_kana": "サイタマケン",
    "prefecture_code": 11,
    "city": "東松山市",
    "city_kana": "ヒガシマツヤマシ",
    "town": "上唐子",
    "town_kana": "カミガラコ",
    "street": null,
    "office_name": null,
    "office_name_kana": null
  },
  "0100": {
    "postcode": "3550100",
    "prefecture": "埼玉県",
    "prefecture_kana": "サイタマケン",
    "prefecture_code": 11,
    "city": "比企郡吉見町",
    "city_kana": "ヒキグンヨシミマチ",
    "town": "",
    "town_kana": "",
    "street": null,
    "office_name": null,
    "office_name_kana": null
  },
  "0101": {
    "postcode": "3550101",
    "prefecture": "埼玉県",
    "prefecture_kana": "サイタマケン",
    "prefecture_code": 11,
    "city": "比企郡吉見町",
    "city_kana": "ヒキグンヨシミマチ",
    "town": "一ツ木",
    "town_kana": "ヒトツギ",
    "street": null,
    "office_name": null,
    "office_name_kana": null
  },
  "0102": {
    "postcode": "3550102",
    "prefecture": "埼玉県",
    "prefecture_kana": "サイタマケン",
    "prefecture_code": 11,
    "city": "比企郡吉見町",
    "city_kana": "ヒキグンヨシミマチ",
    "town": "明秋",
    "town_kana": "メイシュウ",
    "street": null,
    "office_name": null,
    "office_name_kana": null
  },
  "0103": {
    "postcode": "3550103",
    "prefecture": "埼玉県",
    "prefecture_kana": "サイタマケン",
    "prefecture_code": 11,
    "city": "比企郡吉見町",
    "city_kana": "ヒキグンヨシミマチ",
    "town": "今泉",
    "town_kana": "イマイズミ",
    "street": null,
    "office_name": null,
    "office_name_kana": null
  },
  "0104": {
    "postcode": "3550104",
    "prefecture": "埼玉県",
    "prefecture_kana": "サイタマケン",
    "prefecture_code": 11,
    "city": "比企郡吉見町",
    "city_kana": "ヒキグンヨシミマチ",
    "town": "地頭方",
    "town_kana": "ジトウホウ",
    "street": null,
    "office_name": null,
    "office_name_kana": null
  },
  "0105": {
    "postcode": "3550105",
    "prefecture": "埼玉県",
    "prefecture_kana": "サイタマケン",
    "prefecture_code": 11,
    "city": "比企郡吉見町",
    "city_kana": "ヒキグンヨシミマチ",
    "town": "上砂",
    "town_kana": "カミズナ",
    "street": null,
    "office_name": null,
    "office_name_kana": null
  },
  "0106": {
    "postcode": "3550106",
    "prefecture": "埼玉県",
    "prefecture_kana": "サイタマケン",
    "prefecture_code": 11,
    "city": "比企郡吉見町",
    "city_kana": "ヒキグンヨシミマチ",
    "town": "中曽根",
    "town_kana": "ナカゾネ",
    "street": null,
    "office_name": null,
    "office_name_kana": null
  },
  "0110": {
    "postcode": "3550110",
    "prefecture": "埼玉県",
    "prefecture_kana": "サイタマケン",
    "prefecture_code": 11,
    "city": "比企郡吉見町",
    "city_kana": "ヒキグンヨシミマチ",
    "town": "東野",
    "town_kana": "ヒガシノ",
    "street": null,
    "office_name": null,
    "office_name_kana": null
  },
  "0111": {
    "postcode": "3550111",
    "prefecture": "埼玉県",
    "prefecture_kana": "サイタマケン",
    "prefecture_code": 11,
    "city": "比企郡吉見町",
    "city_kana": "ヒキグンヨシミマチ",
    "town": "北下砂",
    "town_kana": "キタシモズナ",
    "street": null,
    "office_name": null,
    "office_name_kana": null
  },
  "0112": {
    "postcode": "3550112",
    "prefecture": "埼玉県",
    "prefecture_kana": "サイタマケン",
    "prefecture_code": 11,
    "city": "比企郡吉見町",
    "city_kana": "ヒキグンヨシミマチ",
    "town": "丸貫",
    "town_kana": "マルヌキ",
    "street": null,
    "office_name": null,
    "office_name_kana": null
  },
  "0113": {
    "postcode": "3550113",
    "prefecture": "埼玉県",
    "prefecture_kana": "サイタマケン",
    "prefecture_code": 11,
    "city": "比企郡吉見町",
    "city_kana": "ヒキグンヨシミマチ",
    "town": "古名新田",
    "town_kana": "コミョウシンデン",
    "street": null,
    "office_name": null,
    "office_name_kana": null
  },
  "0114": {
    "postcode": "3550114",
    "prefecture": "埼玉県",
    "prefecture_kana": "サイタマケン",
    "prefecture_code": 11,
    "city": "比企郡吉見町",
    "city_kana": "ヒキグンヨシミマチ",
    "town": "古名",
    "town_kana": "コミョウ",
    "street": null,
    "office_name": null,
    "office_name_kana": null
  },
  "0115": {
    "postcode": "3550115",
    "prefecture": "埼玉県",
    "prefecture_kana": "サイタマケン",
    "prefecture_code": 11,
    "city": "比企郡吉見町",
    "city_kana": "ヒキグンヨシミマチ",
    "town": "上銀谷",
    "town_kana": "カミギンヤ",
    "street": null,
    "office_name": null,
    "office_name_kana": null
  },
  "0116": {
    "postcode": "3550116",
    "prefecture": "埼玉県",
    "prefecture_kana": "サイタマケン",
    "prefecture_code": 11,
    "city": "比企郡吉見町",
    "city_kana": "ヒキグンヨシミマチ",
    "town": "下銀谷",
    "town_kana": "シモギンヤ",
    "street": null,
    "office_name": null,
    "office_name_kana": null
  },
  "0117": {
    "postcode": "3550117",
    "prefecture": "埼玉県",
    "prefecture_kana": "サイタマケン",
    "prefecture_code": 11,
    "city": "比企郡吉見町",
    "city_kana": "ヒキグンヨシミマチ",
    "town": "谷口",
    "town_kana": "ヤグチ",
    "street": null,
    "office_name": null,
    "office_name_kana": null
  },
  "0118": {
    "postcode": "3550118",
    "prefecture": "埼玉県",
    "prefecture_kana": "サイタマケン",
    "prefecture_code": 11,
    "city": "比企郡吉見町",
    "city_kana": "ヒキグンヨシミマチ",
    "town": "下細谷",
    "town_kana": "シモホソヤ",
    "street": null,
    "office_name": null,
    "office_name_kana": null
  },
  "0119": {
    "postcode": "3550119",
    "prefecture": "埼玉県",
    "prefecture_kana": "サイタマケン",
    "prefecture_code": 11,
    "city": "比企郡吉見町",
    "city_kana": "ヒキグンヨシミマチ",
    "town": "中新井",
    "town_kana": "ナカアライ",
    "street": null,
    "office_name": null,
    "office_name_kana": null
  },
  "0121": {
    "postcode": "3550121",
    "prefecture": "埼玉県",
    "prefecture_kana": "サイタマケン",
    "prefecture_code": 11,
    "city": "比企郡吉見町",
    "city_kana": "ヒキグンヨシミマチ",
    "town": "蓮沼新田",
    "town_kana": "ハスヌマシンデン",
    "street": null,
    "office_name": null,
    "office_name_kana": null
  },
  "0122": {
    "postcode": "3550122",
    "prefecture": "埼玉県",
    "prefecture_kana": "サイタマケン",
    "prefecture_code": 11,
    "city": "比企郡吉見町",
    "city_kana": "ヒキグンヨシミマチ",
    "town": "高尾新田",
    "town_kana": "タカオシンデン",
    "street": null,
    "office_name": null,
    "office_name_kana": null
  },
  "0123": {
    "postcode": "3550123",
    "prefecture": "埼玉県",
    "prefecture_kana": "サイタマケン",
    "prefecture_code": 11,
    "city": "比企郡吉見町",
    "city_kana": "ヒキグンヨシミマチ",
    "town": "須ノ子新田",
    "town_kana": "スノコシンデン",
    "street": null,
    "office_name": null,
    "office_name_kana": null
  },
  "0124": {
    "postcode": "3550124",
    "prefecture": "埼玉県",
    "prefecture_kana": "サイタマケン",
    "prefecture_code": 11,
    "city": "比企郡吉見町",
    "city_kana": "ヒキグンヨシミマチ",
    "town": "久保田新田",
    "town_kana": "クボタシンデン",
    "street": null,
    "office_name": null,
    "office_name_kana": null
  },
  "0125": {
    "postcode": "3550125",
    "prefecture": "埼玉県",
    "prefecture_kana": "サイタマケン",
    "prefecture_code": 11,
    "city": "比企郡吉見町",
    "city_kana": "ヒキグンヨシミマチ",
    "town": "蚊斗谷",
    "town_kana": "カバカリヤ",
    "street": null,
    "office_name": null,
    "office_name_kana": null
  },
  "0126": {
    "postcode": "3550126",
    "prefecture": "埼玉県",
    "prefecture_kana": "サイタマケン",
    "prefecture_code": 11,
    "city": "比企郡吉見町",
    "city_kana": "ヒキグンヨシミマチ",
    "town": "万光寺",
    "town_kana": "マンコウジ",
    "street": null,
    "office_name": null,
    "office_name_kana": null
  },
  "0127": {
    "postcode": "3550127",
    "prefecture": "埼玉県",
    "prefecture_kana": "サイタマケン",
    "prefecture_code": 11,
    "city": "比企郡吉見町",
    "city_kana": "ヒキグンヨシミマチ",
    "town": "大和田",
    "town_kana": "オオワダ",
    "street": null,
    "office_name": null,
    "office_name_kana": null
  },
  "0131": {
    "postcode": "3550131",
    "prefecture": "埼玉県",
    "prefecture_kana": "サイタマケン",
    "prefecture_code": 11,
    "city": "比企郡吉見町",
    "city_kana": "ヒキグンヨシミマチ",
    "town": "荒子",
    "town_kana": "アラコ",
    "street": null,
    "office_name": null,
    "office_name_kana": null
  },
  "0132": {
    "postcode": "3550132",
    "prefecture": "埼玉県",
    "prefecture_kana": "サイタマケン",
    "prefecture_code": 11,
    "city": "比企郡吉見町",
    "city_kana": "ヒキグンヨシミマチ",
    "town": "飯島新田",
    "town_kana": "イイジマシンデン",
    "street": null,
    "office_name": null,
    "office_name_kana": null
  },
  "0133": {
    "postcode": "3550133",
    "prefecture": "埼玉県",
    "prefecture_kana": "サイタマケン",
    "prefecture_code": 11,
    "city": "比企郡吉見町",
    "city_kana": "ヒキグンヨシミマチ",
    "town": "江和井",
    "town_kana": "エワイ",
    "street": null,
    "office_name": null,
    "office_name_kana": null
  },
  "0134": {
    "postcode": "3550134",
    "prefecture": "埼玉県",
    "prefecture_kana": "サイタマケン",
    "prefecture_code": 11,
    "city": "比企郡吉見町",
    "city_kana": "ヒキグンヨシミマチ",
    "town": "大串",
    "town_kana": "オオクシ",
    "street": null,
    "office_name": null,
    "office_name_kana": null
  },
  "0135": {
    "postcode": "3550135",
    "prefecture": "埼玉県",
    "prefecture_kana": "サイタマケン",
    "prefecture_code": 11,
    "city": "比企郡吉見町",
    "city_kana": "ヒキグンヨシミマチ",
    "town": "前河内",
    "town_kana": "マエゴウチ",
    "street": null,
    "office_name": null,
    "office_name_kana": null
  },
  "0136": {
    "postcode": "3550136",
    "prefecture": "埼玉県",
    "prefecture_kana": "サイタマケン",
    "prefecture_code": 11,
    "city": "比企郡吉見町",
    "city_kana": "ヒキグンヨシミマチ",
    "town": "江綱",
    "town_kana": "エツナ",
    "street": null,
    "office_name": null,
    "office_name_kana": null
  },
  "0137": {
    "postcode": "3550137",
    "prefecture": "埼玉県",
    "prefecture_kana": "サイタマケン",
    "prefecture_code": 11,
    "city": "比企郡吉見町",
    "city_kana": "ヒキグンヨシミマチ",
    "town": "久保田",
    "town_kana": "クボタ",
    "street": null,
    "office_name": null,
    "office_name_kana": null
  },
  "0151": {
    "postcode": "3550151",
    "prefecture": "埼玉県",
    "prefecture_kana": "サイタマケン",
    "prefecture_code": 11,
    "city": "比企郡吉見町",
    "city_kana": "ヒキグンヨシミマチ",
    "town": "御所",
    "town_kana": "ゴショ",
    "street": null,
    "office_name": null,
    "office_name_kana": null
  },
  "0152": {
    "postcode": "3550152",
    "prefecture": "埼玉県",
    "prefecture_kana": "サイタマケン",
    "prefecture_code": 11,
    "city": "比企郡吉見町",
    "city_kana": "ヒキグンヨシミマチ",
    "town": "和名",
    "town_kana": "ワナ",
    "street": null,
    "office_name": null,
    "office_name_kana": null
  },
  "0153": {
    "postcode": "3550153",
    "prefecture": "埼玉県",
    "prefecture_kana": "サイタマケン",
    "prefecture_code": 11,
    "city": "比企郡吉見町",
    "city_kana": "ヒキグンヨシミマチ",
    "town": "久米田",
    "town_kana": "クメダ",
    "street": null,
    "office_name": null,
    "office_name_kana": null
  },
  "0154": {
    "postcode": "3550154",
    "prefecture": "埼玉県",
    "prefecture_kana": "サイタマケン",
    "prefecture_code": 11,
    "city": "比企郡吉見町",
    "city_kana": "ヒキグンヨシミマチ",
    "town": "南吉見",
    "town_kana": "ミナミヨシミ",
    "street": null,
    "office_name": null,
    "office_name_kana": null
  },
  "0155": {
    "postcode": "3550155",
    "prefecture": "埼玉県",
    "prefecture_kana": "サイタマケン",
    "prefecture_code": 11,
    "city": "比企郡吉見町",
    "city_kana": "ヒキグンヨシミマチ",
    "town": "北吉見",
    "town_kana": "キタヨシミ",
    "street": null,
    "office_name": null,
    "office_name_kana": null
  },
  "0156": {
    "postcode": "3550156",
    "prefecture": "埼玉県",
    "prefecture_kana": "サイタマケン",
    "prefecture_code": 11,
    "city": "比企郡吉見町",
    "city_kana": "ヒキグンヨシミマチ",
    "town": "長谷",
    "town_kana": "ナガヤツ",
    "street": null,
    "office_name": null,
    "office_name_kana": null
  },
  "0157": {
    "postcode": "3550157",
    "prefecture": "埼玉県",
    "prefecture_kana": "サイタマケン",
    "prefecture_code": 11,
    "city": "比企郡吉見町",
    "city_kana": "ヒキグンヨシミマチ",
    "town": "西吉見",
    "town_kana": "ニシヨシミ",
    "street": null,
    "office_name": null,
    "office_name_kana": null
  },
  "0161": {
    "postcode": "3550161",
    "prefecture": "埼玉県",
    "prefecture_kana": "サイタマケン",
    "prefecture_code": 11,
    "city": "比企郡吉見町",
    "city_kana": "ヒキグンヨシミマチ",
    "town": "山ノ下",
    "town_kana": "ヤマノシタ",
    "street": null,
    "office_name": null,
    "office_name_kana": null
  },
  "0162": {
    "postcode": "3550162",
    "prefecture": "埼玉県",
    "prefecture_kana": "サイタマケン",
    "prefecture_code": 11,
    "city": "比企郡吉見町",
    "city_kana": "ヒキグンヨシミマチ",
    "town": "松崎",
    "town_kana": "マツザキ",
    "street": null,
    "office_name": null,
    "office_name_kana": null
  },
  "0163": {
    "postcode": "3550163",
    "prefecture": "埼玉県",
    "prefecture_kana": "サイタマケン",
    "prefecture_code": 11,
    "city": "比企郡吉見町",
    "city_kana": "ヒキグンヨシミマチ",
    "town": "本沢",
    "town_kana": "ホンザワ",
    "street": null,
    "office_name": null,
    "office_name_kana": null
  },
  "0164": {
    "postcode": "3550164",
    "prefecture": "埼玉県",
    "prefecture_kana": "サイタマケン",
    "prefecture_code": 11,
    "city": "比企郡吉見町",
    "city_kana": "ヒキグンヨシミマチ",
    "town": "小新井",
    "town_kana": "コアライ",
    "street": null,
    "office_name": null,
    "office_name_kana": null
  },
  "0165": {
    "postcode": "3550165",
    "prefecture": "埼玉県",
    "prefecture_kana": "サイタマケン",
    "prefecture_code": 11,
    "city": "比企郡吉見町",
    "city_kana": "ヒキグンヨシミマチ",
    "town": "上細谷",
    "town_kana": "カミホソヤ",
    "street": null,
    "office_name": null,
    "office_name_kana": null
  },
  "0166": {
    "postcode": "3550166",
    "prefecture": "埼玉県",
    "prefecture_kana": "サイタマケン",
    "prefecture_code": 11,
    "city": "比企郡吉見町",
    "city_kana": "ヒキグンヨシミマチ",
    "town": "黒岩",
    "town_kana": "クロイワ",
    "street": null,
    "office_name": null,
    "office_name_kana": null
  },
  "0167": {
    "postcode": "3550167",
    "prefecture": "埼玉県",
    "prefecture_kana": "サイタマケン",
    "prefecture_code": 11,
    "city": "比企郡吉見町",
    "city_kana": "ヒキグンヨシミマチ",
    "town": "田甲",
    "town_kana": "タコウ",
    "street": null,
    "office_name": null,
    "office_name_kana": null
  },
  "0192": {
    "postcode": "3550192",
    "prefecture": "埼玉県",
    "prefecture_kana": "サイタマケン",
    "prefecture_code": 11,
    "city": "比企郡吉見町",
    "city_kana": "ヒキグンヨシミマチ",
    "town": "大字下細谷",
    "town_kana": null,
    "street": "４１１",
    "office_name": "吉見町役場",
    "office_name_kana": "ヨシミマチヤクバ"
  },
  "0193": {
    "postcode": "3550193",
    "prefecture": "埼玉県",
    "prefecture_kana": "サイタマケン",
    "prefecture_code": 11,
    "city": "比企郡吉見町",
    "city_kana": "ヒキグンヨシミマチ",
    "town": "大字下細谷",
    "town_kana": null,
    "street": "９５０−２",
    "office_name": "東洋製罐　株式会社　埼玉工場",
    "office_name_kana": "トウヨウセイカン カブシキガイシヤ サイタマコウジヨウ"
  },
  "0194": {
    "postcode": "3550194",
    "prefecture": "埼玉県",
    "prefecture_kana": "サイタマケン",
    "prefecture_code": 11,
    "city": "比企郡吉見町",
    "city_kana": "ヒキグンヨシミマチ",
    "town": "西吉見",
    "town_kana": "ニシヨシミ",
    "street": "４８０ＧＬＰ吉見日本ロジテム内",
    "office_name": "Ａｍａｚｏｎ　ＴＰＦ２",
    "office_name_kana": "アマゾン テイ-ピ-エフツ-"
  },
  "0195": {
    "postcode": "3550195",
    "prefecture": "埼玉県",
    "prefecture_kana": "サイタマケン",
    "prefecture_code": 11,
    "city": "比企郡吉見町",
    "city_kana": "ヒキグンヨシミマチ",
    "town": "大字長谷",
    "town_kana": null,
    "street": "１９５１",
    "office_name": "プリマ食品　株式会社",
    "office_name_kana": "プリマシヨクヒン カブシキガイシヤ"
  },
  "0200": {
    "postcode": "3550200",
    "prefecture": "埼玉県",
    "prefecture_kana": "サイタマケン",
    "prefecture_code": 11,
    "city": "比企郡嵐山町",
    "city_kana": "ヒキグンランザンマチ",
    "town": "",
    "town_kana": "",
    "street": null,
    "office_name": null,
    "office_name_kana": null
  },
  "0201": {
    "postcode": "3550201",
    "prefecture": "埼玉県",
    "prefecture_kana": "サイタマケン",
    "prefecture_code": 11,
    "city": "比企郡嵐山町",
    "city_kana": "ヒキグンランザンマチ",
    "town": "古里",
    "town_kana": "フルサト",
    "street": null,
    "office_name": null,
    "office_name_kana": null
  },
  "0202": {
    "postcode": "3550202",
    "prefecture": "埼玉県",
    "prefecture_kana": "サイタマケン",
    "prefecture_code": 11,
    "city": "比企郡嵐山町",
    "city_kana": "ヒキグンランザンマチ",
    "town": "吉田",
    "town_kana": "ヨシダ",
    "street": null,
    "office_name": null,
    "office_name_kana": null
  },
  "0203": {
    "postcode": "3550203",
    "prefecture": "埼玉県",
    "prefecture_kana": "サイタマケン",
    "prefecture_code": 11,
    "city": "比企郡嵐山町",
    "city_kana": "ヒキグンランザンマチ",
    "town": "勝田",
    "town_kana": "カチダ",
    "street": null,
    "office_name": null,
    "office_name_kana": null
  },
  "0204": {
    "postcode": "3550204",
    "prefecture": "埼玉県",
    "prefecture_kana": "サイタマケン",
    "prefecture_code": 11,
    "city": "比企郡嵐山町",
    "city_kana": "ヒキグンランザンマチ",
    "town": "花見台",
    "town_kana": "ハナミダイ",
    "street": null,
    "office_name": null,
    "office_name_kana": null
  },
  "0205": {
    "postcode": "3550205",
    "prefecture": "埼玉県",
    "prefecture_kana": "サイタマケン",
    "prefecture_code": 11,
    "city": "比企郡嵐山町",
    "city_kana": "ヒキグンランザンマチ",
    "town": "広野",
    "town_kana": "ヒロノ",
    "street": null,
    "office_name": null,
    "office_name_kana": null
  },
  "0206": {
    "postcode": "3550206",
    "prefecture": "埼玉県",
    "prefecture_kana": "サイタマケン",
    "prefecture_code": 11,
    "city": "比企郡嵐山町",
    "city_kana": "ヒキグンランザンマチ",
    "town": "越畑",
    "town_kana": "オツバタ",
    "street": null,
    "office_name": null,
    "office_name_kana": null
  },
  "0211": {
    "postcode": "3550211",
    "prefecture": "埼玉県",
    "prefecture_kana": "サイタマケン",
    "prefecture_code": 11,
    "city": "比企郡嵐山町",
    "city_kana": "ヒキグンランザンマチ",
    "town": "杉山",
    "town_kana": "スギヤマ",
    "street": null,
    "office_name": null,
    "office_name_kana": null
  },
  "0212": {
    "postcode": "3550212",
    "prefecture": "埼玉県",
    "prefecture_kana": "サイタマケン",
    "prefecture_code": 11,
    "city": "比企郡嵐山町",
    "city_kana": "ヒキグンランザンマチ",
    "town": "太郎丸",
    "town_kana": "タロウマル",
    "street": null,
    "office_name": null,
    "office_name_kana": null
  },
  "0213": {
    "postcode": "3550213",
    "prefecture": "埼玉県",
    "prefecture_kana": "サイタマケン",
    "prefecture_code": 11,
    "city": "比企郡嵐山町",
    "city_kana": "ヒキグンランザンマチ",
    "town": "川島",
    "town_kana": "カワシマ",
    "street": null,
    "office_name": null,
    "office_name_kana": null
  },
  "0214": {
    "postcode": "3550214",
    "prefecture": "埼玉県",
    "prefecture_kana": "サイタマケン",
    "prefecture_code": 11,
    "city": "比企郡嵐山町",
    "city_kana": "ヒキグンランザンマチ",
    "town": "志賀",
    "town_kana": "シガ",
    "street": null,
    "office_name": null,
    "office_name_kana": null
  },
  "0215": {
    "postcode": "3550215",
    "prefecture": "埼玉県",
    "prefecture_kana": "サイタマケン",
    "prefecture_code": 11,
    "city": "比企郡嵐山町",
    "city_kana": "ヒキグンランザンマチ",
    "town": "平澤",
    "town_kana": "ヒラサワ",
    "street": null,
    "office_name": null,
    "office_name_kana": null
  },
  "0216": {
    "postcode": "3550216",
    "prefecture": "埼玉県",
    "prefecture_kana": "サイタマケン",
    "prefecture_code": 11,
    "city": "比企郡嵐山町",
    "city_kana": "ヒキグンランザンマチ",
    "town": "むさし台",
    "town_kana": "ムサシダイ",
    "street": null,
    "office_name": null,
    "office_name_kana": null
  },
  "0221": {
    "postcode": "3550221",
    "prefecture": "埼玉県",
    "prefecture_kana": "サイタマケン",
    "prefecture_code": 11,
    "city": "比企郡嵐山町",
    "city_kana": "ヒキグンランザンマチ",
    "town": "菅谷",
    "town_kana": "スガヤ",
    "street": null,
    "office_name": null,
    "office_name_kana": null
  },
  "0222": {
    "postcode": "3550222",
    "prefecture": "埼玉県",
    "prefecture_kana": "サイタマケン",
    "prefecture_code": 11,
    "city": "比企郡嵐山町",
    "city_kana": "ヒキグンランザンマチ",
    "town": "大蔵",
    "town_kana": "オオクラ",
    "street": null,
    "office_name": null,
    "office_name_kana": null
  },
  "0223": {
    "postcode": "3550223",
    "prefecture": "埼玉県",
    "prefecture_kana": "サイタマケン",
    "prefecture_code": 11,
    "city": "比企郡嵐山町",
    "city_kana": "ヒキグンランザンマチ",
    "town": "根岸",
    "town_kana": "ネギシ",
    "street": null,
    "office_name": null,
    "office_name_kana": null
  },
  "0224": {
    "postcode": "3550224",
    "prefecture": "埼玉県",
    "prefecture_kana": "サイタマケン",
    "prefecture_code": 11,
    "city": "比企郡嵐山町",
    "city_kana": "ヒキグンランザンマチ",
    "town": "将軍沢",
    "town_kana": "ショウグンサワ",
    "street": null,
    "office_name": null,
    "office_name_kana": null
  },
  "0225": {
    "postcode": "3550225",
    "prefecture": "埼玉県",
    "prefecture_kana": "サイタマケン",
    "prefecture_code": 11,
    "city": "比企郡嵐山町",
    "city_kana": "ヒキグンランザンマチ",
    "town": "鎌形",
    "town_kana": "カマガタ",
    "street": null,
    "office_name": null,
    "office_name_kana": null
  },
  "0226": {
    "postcode": "3550226",
    "prefecture": "埼玉県",
    "prefecture_kana": "サイタマケン",
    "prefecture_code": 11,
    "city": "比企郡嵐山町",
    "city_kana": "ヒキグンランザンマチ",
    "town": "遠山",
    "town_kana": "トオヤマ",
    "street": null,
    "office_name": null,
    "office_name_kana": null
  },
  "0227": {
    "postcode": "3550227",
    "prefecture": "埼玉県",
    "prefecture_kana": "サイタマケン",
    "prefecture_code": 11,
    "city": "比企郡嵐山町",
    "city_kana": "ヒキグンランザンマチ",
    "town": "千手堂",
    "town_kana": "センジュドウ",
    "street": null,
    "office_name": null,
    "office_name_kana": null
  },
  "0292": {
    "postcode": "3550292",
    "prefecture": "埼玉県",
    "prefecture_kana": "サイタマケン",
    "prefecture_code": 11,
    "city": "比企郡嵐山町",
    "city_kana": "ヒキグンランザンマチ",
    "town": "大字菅谷",
    "town_kana": null,
    "street": "７２８",
    "office_name": "独立行政法人　国立女性教育会館",
    "office_name_kana": "ドクリツギヨウセイホウジン コクリツジヨセイキヨウイクカイカン"
  },
  "0300": [
    {
      "postcode": "3550300",
      "prefecture": "埼玉県",
      "prefecture_kana": "サイタマケン",
      "prefecture_code": 11,
      "city": "比企郡小川町",
      "city_kana": "ヒキグンオガワマチ",
      "town": "",
      "town_kana": "",
      "street": null,
      "office_name": null,
      "office_name_kana": null
    },
    {
      "postcode": "3550300",
      "prefecture": "埼玉県",
      "prefecture_kana": "サイタマケン",
      "prefecture_code": 11,
      "city": "比企郡ときがわ町",
      "city_kana": "ヒキグントキガワマチ",
      "town": "",
      "town_kana": "",
      "street": null,
      "office_name": null,
      "office_name_kana": null
    },
    {
      "postcode": "3550300",
      "prefecture": "埼玉県",
      "prefecture_kana": "サイタマケン",
      "prefecture_code": 11,
      "city": "秩父郡東秩父村",
      "city_kana": "チチブグンヒガシチチブムラ",
      "town": "",
      "town_kana": "",
      "street": null,
      "office_name": null,
      "office_name_kana": null
    }
  ],
  "0301": {
    "postcode": "3550301",
    "prefecture": "埼玉県",
    "prefecture_kana": "サイタマケン",
    "prefecture_code": 11,
    "city": "比企郡小川町",
    "city_kana": "ヒキグンオガワマチ",
    "town": "西古里",
    "town_kana": "ニシフルサト",
    "street": null,
    "office_name": null,
    "office_name_kana": null
  },
  "0302": {
    "postcode": "3550302",
    "prefecture": "埼玉県",
    "prefecture_kana": "サイタマケン",
    "prefecture_code": 11,
    "city": "比企郡小川町",
    "city_kana": "ヒキグンオガワマチ",
    "town": "鷹巣",
    "town_kana": "タカノス",
    "street": null,
    "office_name": null,
    "office_name_kana": null
  },
  "0303": {
    "postcode": "3550303",
    "prefecture": "埼玉県",
    "prefecture_kana": "サイタマケン",
    "prefecture_code": 11,
    "city": "比企郡小川町",
    "city_kana": "ヒキグンオガワマチ",
    "town": "奈良梨",
    "town_kana": "ナラナシ",
    "street": null,
    "office_name": null,
    "office_name_kana": null
  },
  "0304": {
    "postcode": "3550304",
    "prefecture": "埼玉県",
    "prefecture_kana": "サイタマケン",
    "prefecture_code": 11,
    "city": "比企郡小川町",
    "city_kana": "ヒキグンオガワマチ",
    "town": "伊勢根",
    "town_kana": "イセネ",
    "street": null,
    "office_name": null,
    "office_name_kana": null
  },
  "0305": {
    "postcode": "3550305",
    "prefecture": "埼玉県",
    "prefecture_kana": "サイタマケン",
    "prefecture_code": 11,
    "city": "比企郡小川町",
    "city_kana": "ヒキグンオガワマチ",
    "town": "能増",
    "town_kana": "ノウマス",
    "street": null,
    "office_name": null,
    "office_name_kana": null
  },
  "0306": {
    "postcode": "3550306",
    "prefecture": "埼玉県",
    "prefecture_kana": "サイタマケン",
    "prefecture_code": 11,
    "city": "比企郡小川町",
    "city_kana": "ヒキグンオガワマチ",
    "town": "高見",
    "town_kana": "タカミ",
    "street": null,
    "office_name": null,
    "office_name_kana": null
  },
  "0311": {
    "postcode": "3550311",
    "prefecture": "埼玉県",
    "prefecture_kana": "サイタマケン",
    "prefecture_code": 11,
    "city": "比企郡小川町",
    "city_kana": "ヒキグンオガワマチ",
    "town": "高谷",
    "town_kana": "コウヤ",
    "street": null,
    "office_name": null,
    "office_name_kana": null
  },
  "0312": {
    "postcode": "3550312",
    "prefecture": "埼玉県",
    "prefecture_kana": "サイタマケン",
    "prefecture_code": 11,
    "city": "比企郡小川町",
    "city_kana": "ヒキグンオガワマチ",
    "town": "上横田",
    "town_kana": "カミヨコタ",
    "street": null,
    "office_name": null,
    "office_name_kana": null
  },
  "0313": {
    "postcode": "3550313",
    "prefecture": "埼玉県",
    "prefecture_kana": "サイタマケン",
    "prefecture_code": 11,
    "city": "比企郡小川町",
    "city_kana": "ヒキグンオガワマチ",
    "town": "下横田",
    "town_kana": "シモヨコタ",
    "street": null,
    "office_name": null,
    "office_name_kana": null
  },
  "0314": {
    "postcode": "3550314",
    "prefecture": "埼玉県",
    "prefecture_kana": "サイタマケン",
    "prefecture_code": 11,
    "city": "比企郡小川町",
    "city_kana": "ヒキグンオガワマチ",
    "town": "中爪",
    "town_kana": "ナカツメ",
    "street": null,
    "office_name": null,
    "office_name_kana": null
  },
  "0315": {
    "postcode": "3550315",
    "prefecture": "埼玉県",
    "prefecture_kana": "サイタマケン",
    "prefecture_code": 11,
    "city": "比企郡小川町",
    "city_kana": "ヒキグンオガワマチ",
    "town": "みどりが丘",
    "town_kana": "ミドリガオカ",
    "street": null,
    "office_name": null,
    "office_name_kana": null
  },
  "0316": {
    "postcode": "3550316",
    "prefecture": "埼玉県",
    "prefecture_kana": "サイタマケン",
    "prefecture_code": 11,
    "city": "比企郡小川町",
    "city_kana": "ヒキグンオガワマチ",
    "town": "角山",
    "town_kana": "カクヤマ",
    "street": null,
    "office_name": null,
    "office_name_kana": null
  },
  "0317": {
    "postcode": "3550317",
    "prefecture": "埼玉県",
    "prefecture_kana": "サイタマケン",
    "prefecture_code": 11,
    "city": "比企郡小川町",
    "city_kana": "ヒキグンオガワマチ",
    "town": "原川",
    "town_kana": "ハラガワ",
    "street": null,
    "office_name": null,
    "office_name_kana": null
  },
  "0318": {
    "postcode": "3550318",
    "prefecture": "埼玉県",
    "prefecture_kana": "サイタマケン",
    "prefecture_code": 11,
    "city": "比企郡小川町",
    "city_kana": "ヒキグンオガワマチ",
    "town": "ひばり台",
    "town_kana": "ヒバリダイ",
    "street": null,
    "office_name": null,
    "office_name_kana": null
  },
  "0321": {
    "postcode": "3550321",
    "prefecture": "埼玉県",
    "prefecture_kana": "サイタマケン",
    "prefecture_code": 11,
    "city": "比企郡小川町",
    "city_kana": "ヒキグンオガワマチ",
    "town": "小川",
    "town_kana": "オガワ",
    "street": null,
    "office_name": null,
    "office_name_kana": null
  },
  "0322": {
    "postcode": "3550322",
    "prefecture": "埼玉県",
    "prefecture_kana": "サイタマケン",
    "prefecture_code": 11,
    "city": "比企郡小川町",
    "city_kana": "ヒキグンオガワマチ",
    "town": "東小川",
    "town_kana": "ヒガシオガワ",
    "street": null,
    "office_name": null,
    "office_name_kana": null
  },
  "0323": {
    "postcode": "3550323",
    "prefecture": "埼玉県",
    "prefecture_kana": "サイタマケン",
    "prefecture_code": 11,
    "city": "比企郡小川町",
    "city_kana": "ヒキグンオガワマチ",
    "town": "下里",
    "town_kana": "シモザト",
    "street": null,
    "office_name": null,
    "office_name_kana": null
  },
  "0324": {
    "postcode": "3550324",
    "prefecture": "埼玉県",
    "prefecture_kana": "サイタマケン",
    "prefecture_code": 11,
    "city": "比企郡小川町",
    "city_kana": "ヒキグンオガワマチ",
    "town": "青山",
    "town_kana": "アオヤマ",
    "street": null,
    "office_name": null,
    "office_name_kana": null
  },
  "0325": {
    "postcode": "3550325",
    "prefecture": "埼玉県",
    "prefecture_kana": "サイタマケン",
    "prefecture_code": 11,
    "city": "比企郡小川町",
    "city_kana": "ヒキグンオガワマチ",
    "town": "上古寺",
    "town_kana": "カミフルテラ",
    "street": null,
    "office_name": null,
    "office_name_kana": null
  },
  "0326": {
    "postcode": "3550326",
    "prefecture": "埼玉県",
    "prefecture_kana": "サイタマケン",
    "prefecture_code": 11,
    "city": "比企郡小川町",
    "city_kana": "ヒキグンオガワマチ",
    "town": "下古寺",
    "town_kana": "シモフルテラ",
    "street": null,
    "office_name": null,
    "office_name_kana": null
  },
  "0327": {
    "postcode": "3550327",
    "prefecture": "埼玉県",
    "prefecture_kana": "サイタマケン",
    "prefecture_code": 11,
    "city": "比企郡小川町",
    "city_kana": "ヒキグンオガワマチ",
    "town": "腰越",
    "town_kana": "コシゴエ",
    "street": null,
    "office_name": null,
    "office_name_kana": null
  },
  "0328": {
    "postcode": "3550328",
    "prefecture": "埼玉県",
    "prefecture_kana": "サイタマケン",
    "prefecture_code": 11,
    "city": "比企郡小川町",
    "city_kana": "ヒキグンオガワマチ",
    "town": "大塚",
    "town_kana": "オオツカ",
    "street": null,
    "office_name": null,
    "office_name_kana": null
  },
  "0331": {
    "postcode": "3550331",
    "prefecture": "埼玉県",
    "prefecture_kana": "サイタマケン",
    "prefecture_code": 11,
    "city": "比企郡小川町",
    "city_kana": "ヒキグンオガワマチ",
    "town": "靱負",
    "town_kana": "ユキエ",
    "street": null,
    "office_name": null,
    "office_name_kana": null
  },
  "0332": {
    "postcode": "3550332",
    "prefecture": "埼玉県",
    "prefecture_kana": "サイタマケン",
    "prefecture_code": 11,
    "city": "比企郡小川町",
    "city_kana": "ヒキグンオガワマチ",
    "town": "増尾",
    "town_kana": "マスオ",
    "street": null,
    "office_name": null,
    "office_name_kana": null
  },
  "0333": {
    "postcode": "3550333",
    "prefecture": "埼玉県",
    "prefecture_kana": "サイタマケン",
    "prefecture_code": 11,
    "city": "比企郡小川町",
    "city_kana": "ヒキグンオガワマチ",
    "town": "飯田",
    "town_kana": "イイダ",
    "street": null,
    "office_name": null,
    "office_name_kana": null
  },
  "0334": {
    "postcode": "3550334",
    "prefecture": "埼玉県",
    "prefecture_kana": "サイタマケン",
    "prefecture_code": 11,
    "city": "比企郡小川町",
    "city_kana": "ヒキグンオガワマチ",
    "town": "笠原",
    "town_kana": "カサハラ",
    "street": null,
    "office_name": null,
    "office_name_kana": null
  },
  "0335": {
    "postcode": "3550335",
    "prefecture": "埼玉県",
    "prefecture_kana": "サイタマケン",
    "prefecture_code": 11,
    "city": "比企郡小川町",
    "city_kana": "ヒキグンオガワマチ",
    "town": "木部",
    "town_kana": "キベ",
    "street": null,
    "office_name": null,
    "office_name_kana": null
  },
  "0336": {
    "postcode": "3550336",
    "prefecture": "埼玉県",
    "prefecture_kana": "サイタマケン",
    "prefecture_code": 11,
    "city": "比企郡小川町",
    "city_kana": "ヒキグンオガワマチ",
    "town": "勝呂",
    "town_kana": "スグロ",
    "street": null,
    "office_name": null,
    "office_name_kana": null
  },
  "0337": {
    "postcode": "3550337",
    "prefecture": "埼玉県",
    "prefecture_kana": "サイタマケン",
    "prefecture_code": 11,
    "city": "比企郡小川町",
    "city_kana": "ヒキグンオガワマチ",
    "town": "木呂子",
    "town_kana": "キロコ",
    "street": null,
    "office_name": null,
    "office_name_kana": null
  },
  "0341": {
    "postcode": "3550341",
    "prefecture": "埼玉県",
    "prefecture_kana": "サイタマケン",
    "prefecture_code": 11,
    "city": "比企郡ときがわ町",
    "city_kana": "ヒキグントキガワマチ",
    "town": "田黒",
    "town_kana": "タグロ",
    "street": null,
    "office_name": null,
    "office_name_kana": null
  },
  "0342": {
    "postcode": "3550342",
    "prefecture": "埼玉県",
    "prefecture_kana": "サイタマケン",
    "prefecture_code": 11,
    "city": "比企郡ときがわ町",
    "city_kana": "ヒキグントキガワマチ",
    "town": "玉川",
    "town_kana": "タマガワ",
    "street": null,
    "office_name": null,
    "office_name_kana": null
  },
  "0343": {
    "postcode": "3550343",
    "prefecture": "埼玉県",
    "prefecture_kana": "サイタマケン",
    "prefecture_code": 11,
    "city": "比企郡ときがわ町",
    "city_kana": "ヒキグントキガワマチ",
    "town": "五明",
    "town_kana": "ゴミョウ",
    "street": null,
    "office_name": null,
    "office_name_kana": null
  },
  "0344": {
    "postcode": "3550344",
    "prefecture": "埼玉県",
    "prefecture_kana": "サイタマケン",
    "prefecture_code": 11,
    "city": "比企郡ときがわ町",
    "city_kana": "ヒキグントキガワマチ",
    "town": "日影",
    "town_kana": "ヒカゲ",
    "street": null,
    "office_name": null,
    "office_name_kana": null
  },
  "0351": {
    "postcode": "3550351",
    "prefecture": "埼玉県",
    "prefecture_kana": "サイタマケン",
    "prefecture_code": 11,
    "city": "比企郡ときがわ町",
    "city_kana": "ヒキグントキガワマチ",
    "town": "雲河原",
    "town_kana": "クモガワラ",
    "street": null,
    "office_name": null,
    "office_name_kana": null
  },
  "0352": {
    "postcode": "3550352",
    "prefecture": "埼玉県",
    "prefecture_kana": "サイタマケン",
    "prefecture_code": 11,
    "city": "比企郡ときがわ町",
    "city_kana": "ヒキグントキガワマチ",
    "town": "別所",
    "town_kana": "ベッショ",
    "street": null,
    "office_name": null,
    "office_name_kana": null
  },
  "0353": {
    "postcode": "3550353",
    "prefecture": "埼玉県",
    "prefecture_kana": "サイタマケン",
    "prefecture_code": 11,
    "city": "比企郡ときがわ町",
    "city_kana": "ヒキグントキガワマチ",
    "town": "本郷",
    "town_kana": "ホンゴウ",
    "street": null,
    "office_name": null,
    "office_name_kana": null
  },
  "0354": {
    "postcode": "3550354",
    "prefecture": "埼玉県",
    "prefecture_kana": "サイタマケン",
    "prefecture_code": 11,
    "city": "比企郡ときがわ町",
    "city_kana": "ヒキグントキガワマチ",
    "town": "番匠",
    "town_kana": "バンジョウ",
    "street": null,
    "office_name": null,
    "office_name_kana": null
  },
  "0355": {
    "postcode": "3550355",
    "prefecture": "埼玉県",
    "prefecture_kana": "サイタマケン",
    "prefecture_code": 11,
    "city": "比企郡ときがわ町",
    "city_kana": "ヒキグントキガワマチ",
    "town": "馬場",
    "town_kana": "バンバ",
    "street": null,
    "office_name": null,
    "office_name_kana": null
  },
  "0356": {
    "postcode": "3550356",
    "prefecture": "埼玉県",
    "prefecture_kana": "サイタマケン",
    "prefecture_code": 11,
    "city": "比企郡ときがわ町",
    "city_kana": "ヒキグントキガワマチ",
    "town": "関堀",
    "town_kana": "セキボリ",
    "street": null,
    "office_name": null,
    "office_name_kana": null
  },
  "0357": {
    "postcode": "3550357",
    "prefecture": "埼玉県",
    "prefecture_kana": "サイタマケン",
    "prefecture_code": 11,
    "city": "比企郡ときがわ町",
    "city_kana": "ヒキグントキガワマチ",
    "town": "田中",
    "town_kana": "タナカ",
    "street": null,
    "office_name": null,
    "office_name_kana": null
  },
  "0358": {
    "postcode": "3550358",
    "prefecture": "埼玉県",
    "prefecture_kana": "サイタマケン",
    "prefecture_code": 11,
    "city": "比企郡ときがわ町",
    "city_kana": "ヒキグントキガワマチ",
    "town": "瀬戸元上",
    "town_kana": "セトモトカミ",
    "street": null,
    "office_name": null,
    "office_name_kana": null
  },
  "0359": {
    "postcode": "3550359",
    "prefecture": "埼玉県",
    "prefecture_kana": "サイタマケン",
    "prefecture_code": 11,
    "city": "比企郡ときがわ町",
    "city_kana": "ヒキグントキガワマチ",
    "town": "瀬戸元下",
    "town_kana": "セトモトシモ",
    "street": null,
    "office_name": null,
    "office_name_kana": null
  },
  "0361": {
    "postcode": "3550361",
    "prefecture": "埼玉県",
    "prefecture_kana": "サイタマケン",
    "prefecture_code": 11,
    "city": "比企郡ときがわ町",
    "city_kana": "ヒキグントキガワマチ",
    "town": "桃木",
    "town_kana": "モモノキ",
    "street": null,
    "office_name": null,
    "office_name_kana": null
  },
  "0363": {
    "postcode": "3550363",
    "prefecture": "埼玉県",
    "prefecture_kana": "サイタマケン",
    "prefecture_code": 11,
    "city": "比企郡ときがわ町",
    "city_kana": "ヒキグントキガワマチ",
    "town": "大附",
    "town_kana": "オオツキ",
    "street": null,
    "office_name": null,
    "office_name_kana": null
  },
  "0364": {
    "postcode": "3550364",
    "prefecture": "埼玉県",
    "prefecture_kana": "サイタマケン",
    "prefecture_code": 11,
    "city": "比企郡ときがわ町",
    "city_kana": "ヒキグントキガワマチ",
    "town": "西平",
    "town_kana": "ニシダイラ",
    "street": null,
    "office_name": null,
    "office_name_kana": null
  },
  "0365": {
    "postcode": "3550365",
    "prefecture": "埼玉県",
    "prefecture_kana": "サイタマケン",
    "prefecture_code": 11,
    "city": "比企郡ときがわ町",
    "city_kana": "ヒキグントキガワマチ",
    "town": "椚平",
    "town_kana": "クヌギダイラ",
    "street": null,
    "office_name": null,
    "office_name_kana": null
  },
  "0366": {
    "postcode": "3550366",
    "prefecture": "埼玉県",
    "prefecture_kana": "サイタマケン",
    "prefecture_code": 11,
    "city": "比企郡ときがわ町",
    "city_kana": "ヒキグントキガワマチ",
    "town": "大野",
    "town_kana": "オオノ",
    "street": null,
    "office_name": null,
    "office_name_kana": null
  },
  "0371": {
    "postcode": "3550371",
    "prefecture": "埼玉県",
    "prefecture_kana": "サイタマケン",
    "prefecture_code": 11,
    "city": "秩父郡東秩父村",
    "city_kana": "チチブグンヒガシチチブムラ",
    "town": "大内沢",
    "town_kana": "オオウチザワ",
    "street": null,
    "office_name": null,
    "office_name_kana": null
  },
  "0372": {
    "postcode": "3550372",
    "prefecture": "埼玉県",
    "prefecture_kana": "サイタマケン",
    "prefecture_code": 11,
    "city": "秩父郡東秩父村",
    "city_kana": "チチブグンヒガシチチブムラ",
    "town": "坂本",
    "town_kana": "サカモト",
    "street": null,
    "office_name": null,
    "office_name_kana": null
  },
  "0373": {
    "postcode": "3550373",
    "prefecture": "埼玉県",
    "prefecture_kana": "サイタマケン",
    "prefecture_code": 11,
    "city": "秩父郡東秩父村",
    "city_kana": "チチブグンヒガシチチブムラ",
    "town": "奥沢",
    "town_kana": "オクサワ",
    "street": null,
    "office_name": null,
    "office_name_kana": null
  },
  "0374": {
    "postcode": "3550374",
    "prefecture": "埼玉県",
    "prefecture_kana": "サイタマケン",
    "prefecture_code": 11,
    "city": "秩父郡東秩父村",
    "city_kana": "チチブグンヒガシチチブムラ",
    "town": "安戸",
    "town_kana": "ヤスド",
    "street": null,
    "office_name": null,
    "office_name_kana": null
  },
  "0375": {
    "postcode": "3550375",
    "prefecture": "埼玉県",
    "prefecture_kana": "サイタマケン",
    "prefecture_code": 11,
    "city": "秩父郡東秩父村",
    "city_kana": "チチブグンヒガシチチブムラ",
    "town": "御堂",
    "town_kana": "ミドウ",
    "street": null,
    "office_name": null,
    "office_name_kana": null
  },
  "0376": {
    "postcode": "3550376",
    "prefecture": "埼玉県",
    "prefecture_kana": "サイタマケン",
    "prefecture_code": 11,
    "city": "秩父郡東秩父村",
    "city_kana": "チチブグンヒガシチチブムラ",
    "town": "皆谷",
    "town_kana": "カイヤ",
    "street": null,
    "office_name": null,
    "office_name_kana": null
  },
  "0377": {
    "postcode": "3550377",
    "prefecture": "埼玉県",
    "prefecture_kana": "サイタマケン",
    "prefecture_code": 11,
    "city": "秩父郡東秩父村",
    "city_kana": "チチブグンヒガシチチブムラ",
    "town": "白石",
    "town_kana": "シロイシ",
    "street": null,
    "office_name": null,
    "office_name_kana": null
  },
  "0380": {
    "postcode": "3550380",
    "prefecture": "埼玉県",
    "prefecture_kana": "サイタマケン",
    "prefecture_code": 11,
    "city": "比企郡小川町",
    "city_kana": "ヒキグンオガワマチ",
    "town": "高見",
    "town_kana": "タカミ",
    "street": "５６８",
    "office_name": "Ｊ−Ｍｕｐｓ売上票保管センター",
    "office_name_kana": "ジエイマツプスウリアゲヒヨウホカンセンタ-"
  },
  "0392": {
    "postcode": "3550392",
    "prefecture": "埼玉県",
    "prefecture_kana": "サイタマケン",
    "prefecture_code": 11,
    "city": "比企郡小川町",
    "city_kana": "ヒキグンオガワマチ",
    "town": "大字大塚",
    "town_kana": null,
    "street": "５５",
    "office_name": "小川町役場",
    "office_name_kana": "オガワマチヤクバ"
  },
  "0395": {
    "postcode": "3550395",
    "prefecture": "埼玉県",
    "prefecture_kana": "サイタマケン",
    "prefecture_code": 11,
    "city": "比企郡ときがわ町",
    "city_kana": "ヒキグントキガワマチ",
    "town": "大字玉川",
    "town_kana": null,
    "street": "２４９０番地",
    "office_name": "ときがわ町役場",
    "office_name_kana": "トキガワマチヤクバ"
  },
  "0800": {
    "postcode": "3550800",
    "prefecture": "埼玉県",
    "prefecture_kana": "サイタマケン",
    "prefecture_code": 11,
    "city": "比企郡滑川町",
    "city_kana": "ヒキグンナメガワマチ",
    "town": "",
    "town_kana": "",
    "street": null,
    "office_name": null,
    "office_name_kana": null
  },
  "0801": {
    "postcode": "3550801",
    "prefecture": "埼玉県",
    "prefecture_kana": "サイタマケン",
    "prefecture_code": 11,
    "city": "比企郡滑川町",
    "city_kana": "ヒキグンナメガワマチ",
    "town": "土塩",
    "town_kana": "ツチシオ",
    "street": null,
    "office_name": null,
    "office_name_kana": null
  },
  "0802": {
    "postcode": "3550802",
    "prefecture": "埼玉県",
    "prefecture_kana": "サイタマケン",
    "prefecture_code": 11,
    "city": "比企郡滑川町",
    "city_kana": "ヒキグンナメガワマチ",
    "town": "山田",
    "town_kana": "ヤマタ",
    "street": null,
    "office_name": null,
    "office_name_kana": null
  },
  "0803": {
    "postcode": "3550803",
    "prefecture": "埼玉県",
    "prefecture_kana": "サイタマケン",
    "prefecture_code": 11,
    "city": "比企郡滑川町",
    "city_kana": "ヒキグンナメガワマチ",
    "town": "福田",
    "town_kana": "フクダ",
    "street": null,
    "office_name": null,
    "office_name_kana": null
  },
  "0804": {
    "postcode": "3550804",
    "prefecture": "埼玉県",
    "prefecture_kana": "サイタマケン",
    "prefecture_code": 11,
    "city": "比企郡滑川町",
    "city_kana": "ヒキグンナメガワマチ",
    "town": "中尾",
    "town_kana": "ナカオ",
    "street": null,
    "office_name": null,
    "office_name_kana": null
  },
  "0805": {
    "postcode": "3550805",
    "prefecture": "埼玉県",
    "prefecture_kana": "サイタマケン",
    "prefecture_code": 11,
    "city": "比企郡滑川町",
    "city_kana": "ヒキグンナメガワマチ",
    "town": "水房",
    "town_kana": "ミズフサ",
    "street": null,
    "office_name": null,
    "office_name_kana": null
  },
  "0806": {
    "postcode": "3550806",
    "prefecture": "埼玉県",
    "prefecture_kana": "サイタマケン",
    "prefecture_code": 11,
    "city": "比企郡滑川町",
    "city_kana": "ヒキグンナメガワマチ",
    "town": "伊古",
    "town_kana": "イコ",
    "street": null,
    "office_name": null,
    "office_name_kana": null
  },
  "0807": {
    "postcode": "3550807",
    "prefecture": "埼玉県",
    "prefecture_kana": "サイタマケン",
    "prefecture_code": 11,
    "city": "比企郡滑川町",
    "city_kana": "ヒキグンナメガワマチ",
    "town": "和泉",
    "town_kana": "イズミ",
    "street": null,
    "office_name": null,
    "office_name_kana": null
  },
  "0808": {
    "postcode": "3550808",
    "prefecture": "埼玉県",
    "prefecture_kana": "サイタマケン",
    "prefecture_code": 11,
    "city": "比企郡滑川町",
    "city_kana": "ヒキグンナメガワマチ",
    "town": "菅田",
    "town_kana": "スガダ",
    "street": null,
    "office_name": null,
    "office_name_kana": null
  },
  "0811": {
    "postcode": "3550811",
    "prefecture": "埼玉県",
    "prefecture_kana": "サイタマケン",
    "prefecture_code": 11,
    "city": "比企郡滑川町",
    "city_kana": "ヒキグンナメガワマチ",
    "town": "羽尾",
    "town_kana": "ハネオ",
    "street": null,
    "office_name": null,
    "office_name_kana": null
  },
  "0812": {
    "postcode": "3550812",
    "prefecture": "埼玉県",
    "prefecture_kana": "サイタマケン",
    "prefecture_code": 11,
    "city": "比企郡滑川町",
    "city_kana": "ヒキグンナメガワマチ",
    "town": "都",
    "town_kana": "ミヤコ",
    "street": null,
    "office_name": null,
    "office_name_kana": null
  },
  "0813": {
    "postcode": "3550813",
    "prefecture": "埼玉県",
    "prefecture_kana": "サイタマケン",
    "prefecture_code": 11,
    "city": "比企郡滑川町",
    "city_kana": "ヒキグンナメガワマチ",
    "town": "月輪",
    "town_kana": "ツキノワ",
    "street": null,
    "office_name": null,
    "office_name_kana": null
  },
  "0814": {
    "postcode": "3550814",
    "prefecture": "埼玉県",
    "prefecture_kana": "サイタマケン",
    "prefecture_code": 11,
    "city": "比企郡滑川町",
    "city_kana": "ヒキグンナメガワマチ",
    "town": "みなみ野",
    "town_kana": "ミナミノ",
    "street": null,
    "office_name": null,
    "office_name_kana": null
  },
  "0815": {
    "postcode": "3550815",
    "prefecture": "埼玉県",
    "prefecture_kana": "サイタマケン",
    "prefecture_code": 11,
    "city": "比企郡滑川町",
    "city_kana": "ヒキグンナメガワマチ",
    "town": "月の輪",
    "town_kana": "ツキノワ",
    "street": null,
    "office_name": null,
    "office_name_kana": null
  },
  "8501": {
    "postcode": "3558501",
    "prefecture": "埼玉県",
    "prefecture_kana": "サイタマケン",
    "prefecture_code": 11,
    "city": "東松山市",
    "city_kana": "ヒガシマツヤマシ",
    "town": "大字岩殿",
    "town_kana": null,
    "street": "５６０−１",
    "office_name": "大東文化大学",
    "office_name_kana": "ダイトウブンカダイガク"
  },
  "8585": {
    "postcode": "3558585",
    "prefecture": "埼玉県",
    "prefecture_kana": "サイタマケン",
    "prefecture_code": 11,
    "city": "比企郡滑川町",
    "city_kana": "ヒキグンナメガワマチ",
    "town": "大字福田",
    "town_kana": null,
    "street": "７５０−１",
    "office_name": "滑川町役場",
    "office_name_kana": "ナメガワマチヤクバ"
  },
  "8601": {
    "postcode": "3558601",
    "prefecture": "埼玉県",
    "prefecture_kana": "サイタマケン",
    "prefecture_code": 11,
    "city": "東松山市",
    "city_kana": "ヒガシマツヤマシ",
    "town": "松葉町",
    "town_kana": "マツバチョウ",
    "street": "１丁目１−５８",
    "office_name": "東松山市役所",
    "office_name_kana": "ヒガシマツヤマシヤクシヨ"
  },
  "8603": {
    "postcode": "3558603",
    "prefecture": "埼玉県",
    "prefecture_kana": "サイタマケン",
    "prefecture_code": 11,
    "city": "東松山市",
    "city_kana": "ヒガシマツヤマシ",
    "town": "箭弓町",
    "town_kana": "ヤキュウチョウ",
    "street": "３丁目１３−２６",
    "office_name": "ボッシュ　株式会社",
    "office_name_kana": "ボツシユ カブシキガイシヤ"
  },
  "8604": {
    "postcode": "3558604",
    "prefecture": "埼玉県",
    "prefecture_kana": "サイタマケン",
    "prefecture_code": 11,
    "city": "東松山市",
    "city_kana": "ヒガシマツヤマシ",
    "town": "箭弓町",
    "town_kana": "ヤキュウチョウ",
    "street": "１丁目８−１４（東松山郵便局私書箱第８号）",
    "office_name": "東松山税務署",
    "office_name_kana": "ヒガシマツヤマゼイムシヨ"
  },
  "8605": {
    "postcode": "3558605",
    "prefecture": "埼玉県",
    "prefecture_kana": "サイタマケン",
    "prefecture_code": 11,
    "city": "東松山市",
    "city_kana": "ヒガシマツヤマシ",
    "town": "あずま町",
    "town_kana": "アズマチョウ",
    "street": "四丁目３番地",
    "office_name": "ユニー　株式会社　アピタ東松山店",
    "office_name_kana": "ユニ- カブシキガイシヤ アピタヒガシマツヤマテン"
  },
  "8606": {
    "postcode": "3558606",
    "prefecture": "埼玉県",
    "prefecture_kana": "サイタマケン",
    "prefecture_code": 11,
    "city": "東松山市",
    "city_kana": "ヒガシマツヤマシ",
    "town": "あずま町",
    "town_kana": "アズマチョウ",
    "street": "四丁目３番地",
    "office_name": "ユニー　株式会社　ピオニウォーク東松山",
    "office_name_kana": "ユニ- カブシキガイシヤ ピオニウオ-クヒガシマツヤマ"
  },
  "8608": {
    "postcode": "3558608",
    "prefecture": "埼玉県",
    "prefecture_kana": "サイタマケン",
    "prefecture_code": 11,
    "city": "東松山市",
    "city_kana": "ヒガシマツヤマシ",
    "town": "仲田町",
    "town_kana": "ナカダチョウ",
    "street": "２",
    "office_name": "株式会社　ＬＩＸＩＬビバ　東松山物流センター",
    "office_name_kana": "カブシキガイシヤ リクシルビバ ヒガシマツヤマブツリユウセンタ-"
  }
}