{
  "0000": {
    "postcode": "3600000",
    "prefecture": "埼玉県",
    "prefecture_kana": "サイタマケン",
    "prefecture_code": 11,
    "city": "熊谷市",
    "city_kana": "クマガヤシ",
    "town": "",
    "town_kana": "",
    "street": null,
    "office_name": null,
    "office_name_kana": null
  },
  "0001": {
    "postcode": "3600001",
    "prefecture": "埼玉県",
    "prefecture_kana": "サイタマケン",
    "prefecture_code": 11,
    "city": "熊谷市",
    "city_kana": "クマガヤシ",
    "town": "上中条",
    "town_kana": "カミチュウジョウ",
    "street": null,
    "office_name": null,
    "office_name_kana": null
  },
  "0002": {
    "postcode": "3600002",
    "prefecture": "埼玉県",
    "prefecture_kana": "サイタマケン",
    "prefecture_code": 11,
    "city": "熊谷市",
    "city_kana": "クマガヤシ",
    "town": "大塚",
    "town_kana": "オオツカ",
    "street": null,
    "office_name": null,
    "office_name_kana": null
  },
  "0003": {
    "postcode": "3600003",
    "prefecture": "埼玉県",
    "prefecture_kana": "サイタマケン",
    "prefecture_code": 11,
    "city": "熊谷市",
    "city_kana": "クマガヤシ",
    "town": "下川上",
    "town_kana": "シモカワカミ",
    "street": null,
    "office_name": null,
    "office_name_kana": null
  },
  "0004": {
    "postcode": "3600004",
    "prefecture": "埼玉県",
    "prefecture_kana": "サイタマケン",
    "prefecture_code": 11,
    "city": "熊谷市",
    "city_kana": "クマガヤシ",
    "town": "上川上",
    "town_kana": "カミカワカミ",
    "street": null,
    "office_name": null,
    "office_name_kana": null
  },
  "0005": {
    "postcode": "3600005",
    "prefecture": "埼玉県",
    "prefecture_kana": "サイタマケン",
    "prefecture_code": 11,
    "city": "熊谷市",
    "city_kana": "クマガヤシ",
    "town": "今井",
    "town_kana": "イマイ",
    "street": null,
    "office_name": null,
    "office_name_kana": null
  },
  "0006": {
    "postcode": "3600006",
    "prefecture": "埼玉県",
    "prefecture_kana": "サイタマケン",
    "prefecture_code": 11,
    "city": "熊谷市",
    "city_kana": "クマガヤシ",
    "town": "四方寺",
    "town_kana": "シホウジ",
    "street": null,
    "office_name": null,
    "office_name_kana": null
  },
  "0011": {
    "postcode": "3600011",
    "prefecture": "埼玉県",
    "prefecture_kana": "サイタマケン",
    "prefecture_code": 11,
    "city": "熊谷市",
    "city_kana": "クマガヤシ",
    "town": "池上",
    "town_kana": "イケガミ",
    "street": null,
    "office_name": null,
    "office_name_kana": null
  },
  "0012": {
    "postcode": "3600012",
    "prefecture": "埼玉県",
    "prefecture_kana": "サイタマケン",
    "prefecture_code": 11,
    "city": "熊谷市",
    "city_kana": "クマガヤシ",
    "town": "上之",
    "town_kana": "カミノ",
    "street": null,
    "office_name": null,
    "office_name_kana": null
  },
  "0013": {
    "postcode": "3600013",
    "prefecture": "埼玉県",
    "prefecture_kana": "サイタマケン",
    "prefecture_code": 11,
    "city": "熊谷市",
    "city_kana": "クマガヤシ",
    "town": "中西",
    "town_kana": "ナカニシ",
    "street": null,
    "office_name": null,
    "office_name_kana": null
  },
  "0014": {
    "postcode": "3600014",
    "prefecture": "埼玉県",
    "prefecture_kana": "サイタマケン",
    "prefecture_code": 11,
    "city": "熊谷市",
    "city_kana": "クマガヤシ",
    "town": "箱田",
    "town_kana": "ハコダ",
    "street": null,
    "office_name": null,
    "office_name_kana": null
  },
  "0015": {
    "postcode": "3600015",
    "prefecture": "埼玉県",
    "prefecture_kana": "サイタマケン",
    "prefecture_code": 11,
    "city": "熊谷市",
    "city_kana": "クマガヤシ",
    "town": "肥塚",
    "town_kana": "コイヅカ",
    "street": null,
    "office_name": null,
    "office_name_kana": null
  },
  "0016": {
    "postcode": "3600016",
    "prefecture": "埼玉県",
    "prefecture_kana": "サイタマケン",
    "prefecture_code": 11,
    "city": "熊谷市",
    "city_kana": "クマガヤシ",
    "town": "熊谷",
    "town_kana": "クマガヤ",
    "street": null,
    "office_name": null,
    "office_name_kana": null
  },
  "0017": {
    "postcode": "3600017",
    "prefecture": "埼玉県",
    "prefecture_kana": "サイタマケン",
    "prefecture_code": 11,
    "city": "熊谷市",
    "city_kana": "クマガヤシ",
    "town": "小曽根",
    "town_kana": "オゾネ",
    "street": null,
    "office_name": null,
    "office_name_kana": null
  },
  "0018": {
    "postcode": "3600018",
    "prefecture": "埼玉県",
    "prefecture_kana": "サイタマケン",
    "prefecture_code": 11,
    "city": "熊谷市",
    "city_kana": "クマガヤシ",
    "town": "中央",
    "town_kana": "チュウオウ",
    "street": null,
    "office_name": null,
    "office_name_kana": null
  },
  "0021": {
    "postcode": "3600021",
    "prefecture": "埼玉県",
    "prefecture_kana": "サイタマケン",
    "prefecture_code": 11,
    "city": "熊谷市",
    "city_kana": "クマガヤシ",
    "town": "平戸",
    "town_kana": "ヒラト",
    "street": null,
    "office_name": null,
    "office_name_kana": null
  },
  "0022": {
    "postcode": "3600022",
    "prefecture": "埼玉県",
    "prefecture_kana": "サイタマケン",
    "prefecture_code": 11,
    "city": "熊谷市",
    "city_kana": "クマガヤシ",
    "town": "戸出",
    "town_kana": "トデ",
    "street": null,
    "office_name": null,
    "office_name_kana": null
  },
  "0023": {
    "postcode": "3600023",
    "prefecture": "埼玉県",
    "prefecture_kana": "サイタマケン",
    "prefecture_code": 11,
    "city": "熊谷市",
    "city_kana": "クマガヤシ",
    "town": "佐谷田",
    "town_kana": "サヤダ",
    "street": null,
    "office_name": null,
    "office_name_kana": null
  },
  "0024": {
    "postcode": "3600024",
    "prefecture": "埼玉県",
    "prefecture_kana": "サイタマケン",
    "prefecture_code": 11,
    "city": "熊谷市",
    "city_kana": "クマガヤシ",
    "town": "問屋町",
    "town_kana": "トンヤチョウ",
    "street": null,
    "office_name": null,
    "office_name_kana": null
  },
  "0025": {
    "postcode": "3600025",
    "prefecture": "埼玉県",
    "prefecture_kana": "サイタマケン",
    "prefecture_code": 11,
    "city": "熊谷市",
    "city_kana": "クマガヤシ",
    "town": "太井",
    "town_kana": "オオイ",
    "street": null,
    "office_name": null,
    "office_name_kana": null
  },
  "0026": {
    "postcode": "3600026",
    "prefecture": "埼玉県",
    "prefecture_kana": "サイタマケン",
    "prefecture_code": 11,
    "city": "熊谷市",
    "city_kana": "クマガヤシ",
    "town": "久下",
    "town_kana": "クゲ",
    "street": null,
    "office_name": null,
    "office_name_kana": null
  },
  "0027": {
    "postcode": "3600027",
    "prefecture": "埼玉県",
    "prefecture_kana": "サイタマケン",
    "prefecture_code": 11,
    "city": "熊谷市",
    "city_kana": "クマガヤシ",
    "town": "新川",
    "town_kana": "シンカワ",
    "street": null,
    "office_name": null,
    "office_name_kana": null
  },
  "0031": {
    "postcode": "3600031",
    "prefecture": "埼玉県",
    "prefecture_kana": "サイタマケン",
    "prefecture_code": 11,
    "city": "熊谷市",
    "city_kana": "クマガヤシ",
    "town": "末広",
    "town_kana": "スエヒロ",
    "street": null,
    "office_name": null,
    "office_name_kana": null
  },
  "0032": {
    "postcode": "3600032",
    "prefecture": "埼玉県",
    "prefecture_kana": "サイタマケン",
    "prefecture_code": 11,
    "city": "熊谷市",
    "city_kana": "クマガヤシ",
    "town": "銀座",
    "town_kana": "ギンザ",
    "street": null,
    "office_name": null,
    "office_name_kana": null
  },
  "0033": {
    "postcode": "3600033",
    "prefecture": "埼玉県",
    "prefecture_kana": "サイタマケン",
    "prefecture_code": 11,
    "city": "熊谷市",
    "city_kana": "クマガヤシ",
    "town": "曙町",
    "town_kana": "アケボノチョウ",
    "street": null,
    "office_name": null,
    "office_name_kana": null
  },
  "0034": {
    "postcode": "3600034",
    "prefecture": "埼玉県",
    "prefecture_kana": "サイタマケン",
    "prefecture_code": 11,
    "city": "熊谷市",
    "city_kana": "クマガヤシ",
    "town": "万平町",
    "town_kana": "マンペイチョウ",
    "street": null,
    "office_name": null,
    "office_name_kana": null
  },
  "0035": {
    "postcode": "3600035",
    "prefecture": "埼玉県",
    "prefecture_kana": "サイタマケン",
    "prefecture_code": 11,
    "city": "熊谷市",
    "city_kana": "クマガヤシ",
    "town": "河原町",
    "town_kana": "カワラチョウ",
    "street": null,
    "office_name": null,
    "office_name_kana": null
  },
  "0036": {
    "postcode": "3600036",
    "prefecture": "埼玉県",
    "prefecture_kana": "サイタマケン",
    "prefecture_code": 11,
    "city": "熊谷市",
    "city_kana": "クマガヤシ",
    "town": "桜木町",
    "town_kana": "サクラギチョウ",
    "street": null,
    "office_name": null,
    "office_name_kana": null
  },
  "0037": {
    "postcode": "3600037",
    "prefecture": "埼玉県",
    "prefecture_kana": "サイタマケン",
    "prefecture_code": 11,
    "city": "熊谷市",
    "city_kana": "クマガヤシ",
    "town": "筑波",
    "town_kana": "ツクバ",
    "street": null,
    "office_name": null,
    "office_name_kana": null
  },
  "0041": {
    "postcode": "3600041",
    "prefecture": "埼玉県",
    "prefecture_kana": "サイタマケン",
    "prefecture_code": 11,
    "city": "熊谷市",
    "city_kana": "クマガヤシ",
    "town": "宮町",
    "town_kana": "ミヤチョウ",
    "street": null,
    "office_name": null,
    "office_name_kana": null
  },
  "0042": {
    "postcode": "3600042",
    "prefecture": "埼玉県",
    "prefecture_kana": "サイタマケン",
    "prefecture_code": 11,
    "city": "熊谷市",
    "city_kana": "クマガヤシ",
    "town": "本町",
    "town_kana": "ホンチョウ",
    "street": null,
    "office_name": null,
    "office_name_kana": null
  },
  "0043": {
    "postcode": "3600043",
    "prefecture": "埼玉県",
    "prefecture_kana": "サイタマケン",
    "prefecture_code": 11,
    "city": "熊谷市",
    "city_kana": "クマガヤシ",
    "town": "星川",
    "town_kana": "ホシカワ",
    "street": null,
    "office_name": null,
    "office_name_kana": null
  },
  "0044": {
    "postcode": "3600044",
    "prefecture": "埼玉県",
    "prefecture_kana": "サイタマケン",
    "prefecture_code": 11,
    "city": "熊谷市",
    "city_kana": "クマガヤシ",
    "town": "弥生",
    "town_kana": "ヤヨイ",
    "street": null,
    "office_name": null,
    "office_name_kana": null
  },
  "0045": {
    "postcode": "3600045",
    "prefecture": "埼玉県",
    "prefecture_kana": "サイタマケン",
    "prefecture_code": 11,
    "city": "熊谷市",
    "city_kana": "クマガヤシ",
    "town": "宮前町",
    "town_kana": "ミヤマエチョウ",
    "street": null,
    "office_name": null,
    "office_name_kana": null
  },
  "0046": {
    "postcode": "3600046",
    "prefecture": "埼玉県",
    "prefecture_kana": "サイタマケン",
    "prefecture_code": 11,
    "city": "熊谷市",
    "city_kana": "クマガヤシ",
    "town": "鎌倉町",
    "town_kana": "カマクラチョウ",
    "street": null,
    "office_name": null,
    "office_name_kana": null
  },
  "0047": {
    "postcode": "3600047",
    "prefecture": "埼玉県",
    "prefecture_kana": "サイタマケン",
    "prefecture_code": 11,
    "city": "熊谷市",
    "city_kana": "クマガヤシ",
    "town": "仲町",
    "town_kana": "ナカチョウ",
    "street": null,
    "office_name": null,
    "office_name_kana": null
  },
  "0101": {
    "postcode": "3600101",
    "prefecture": "埼玉県",
    "prefecture_kana": "サイタマケン",
    "prefecture_code": 11,
    "city": "熊谷市",
    "city_kana": "クマガヤシ",
    "town": "野原",
    "town_kana": "ノハラ",
    "street": null,
    "office_name": null,
    "office_name_kana": null
  },
  "0102": {
    "postcode": "3600102",
    "prefecture": "埼玉県",
    "prefecture_kana": "サイタマケン",
    "prefecture_code": 11,
    "city": "熊谷市",
    "city_kana": "クマガヤシ",
    "town": "須賀広",
    "town_kana": "スガヒロ",
    "street": null,
    "office_name": null,
    "office_name_kana": null
  },
  "0103": {
    "postcode": "3600103",
    "prefecture": "埼玉県",
    "prefecture_kana": "サイタマケン",
    "prefecture_code": 11,
    "city": "熊谷市",
    "city_kana": "クマガヤシ",
    "town": "小江川",
    "town_kana": "オエガワ",
    "street": null,
    "office_name": null,
    "office_name_kana": null
  },
  "0104": {
    "postcode": "3600104",
    "prefecture": "埼玉県",
    "prefecture_kana": "サイタマケン",
    "prefecture_code": 11,
    "city": "熊谷市",
    "city_kana": "クマガヤシ",
    "town": "塩",
    "town_kana": "シオ",
    "street": null,
    "office_name": null,
    "office_name_kana": null
  },
  "0105": {
    "postcode": "3600105",
    "prefecture": "埼玉県",
    "prefecture_kana": "サイタマケン",
    "prefecture_code": 11,
    "city": "熊谷市",
    "city_kana": "クマガヤシ",
    "town": "板井",
    "town_kana": "イタイ",
    "street": null,
    "office_name": null,
    "office_name_kana": null
  },
  "0106": {
    "postcode": "3600106",
    "prefecture": "埼玉県",
    "prefecture_kana": "サイタマケン",
    "prefecture_code": 11,
    "city": "熊谷市",
    "city_kana": "クマガヤシ",
    "town": "柴",
    "town_kana": "シバ",
    "street": null,
    "office_name": null,
    "office_name_kana": null
  },
  "0107": {
    "postcode": "3600107",
    "prefecture": "埼玉県",
    "prefecture_kana": "サイタマケン",
    "prefecture_code": 11,
    "city": "熊谷市",
    "city_kana": "クマガヤシ",
    "town": "千代",
    "town_kana": "センダイ",
    "street": null,
    "office_name": null,
    "office_name_kana": null
  },
  "0111": {
    "postcode": "3600111",
    "prefecture": "埼玉県",
    "prefecture_kana": "サイタマケン",
    "prefecture_code": 11,
    "city": "熊谷市",
    "city_kana": "クマガヤシ",
    "town": "押切",
    "town_kana": "オシキリ",
    "street": null,
    "office_name": null,
    "office_name_kana": null
  },
  "0112": {
    "postcode": "3600112",
    "prefecture": "埼玉県",
    "prefecture_kana": "サイタマケン",
    "prefecture_code": 11,
    "city": "熊谷市",
    "city_kana": "クマガヤシ",
    "town": "樋春",
    "town_kana": "ヒハル",
    "street": null,
    "office_name": null,
    "office_name_kana": null
  },
  "0113": {
    "postcode": "3600113",
    "prefecture": "埼玉県",
    "prefecture_kana": "サイタマケン",
    "prefecture_code": 11,
    "city": "熊谷市",
    "city_kana": "クマガヤシ",
    "town": "御正新田",
    "town_kana": "ミショウシンデン",
    "street": null,
    "office_name": null,
    "office_name_kana": null
  },
  "0114": {
    "postcode": "3600114",
    "prefecture": "埼玉県",
    "prefecture_kana": "サイタマケン",
    "prefecture_code": 11,
    "city": "熊谷市",
    "city_kana": "クマガヤシ",
    "town": "江南中央",
    "town_kana": "コウナンチュウオウ",
    "street": null,
    "office_name": null,
    "office_name_kana": null
  },
  "0115": {
    "postcode": "3600115",
    "prefecture": "埼玉県",
    "prefecture_kana": "サイタマケン",
    "prefecture_code": 11,
    "city": "熊谷市",
    "city_kana": "クマガヤシ",
    "town": "成沢",
    "town_kana": "ナリサワ",
    "street": null,
    "office_name": null,
    "office_name_kana": null
  },
  "0116": {
    "postcode": "3600116",
    "prefecture": "埼玉県",
    "prefecture_kana": "サイタマケン",
    "prefecture_code": 11,
    "city": "熊谷市",
    "city_kana": "クマガヤシ",
    "town": "三本",
    "town_kana": "ミツモト",
    "street": null,
    "office_name": null,
    "office_name_kana": null
  },
  "0117": {
    "postcode": "3600117",
    "prefecture": "埼玉県",
    "prefecture_kana": "サイタマケン",
    "prefecture_code": 11,
    "city": "熊谷市",
    "city_kana": "クマガヤシ",
    "town": "上新田",
    "town_kana": "カミシンデン",
    "street": null,
    "office_name": null,
    "office_name_kana": null
  },
  "0121": {
    "postcode": "3600121",
    "prefecture": "埼玉県",
    "prefecture_kana": "サイタマケン",
    "prefecture_code": 11,
    "city": "熊谷市",
    "city_kana": "クマガヤシ",
    "town": "手島",
    "town_kana": "テシマ",
    "street": null,
    "office_name": null,
    "office_name_kana": null
  },
  "0122": {
    "postcode": "3600122",
    "prefecture": "埼玉県",
    "prefecture_kana": "サイタマケン",
    "prefecture_code": 11,
    "city": "熊谷市",
    "city_kana": "クマガヤシ",
    "town": "小泉",
    "town_kana": "コイズミ",
    "street": null,
    "office_name": null,
    "office_name_kana": null
  },
  "0123": {
    "postcode": "3600123",
    "prefecture": "埼玉県",
    "prefecture_kana": "サイタマケン",
    "prefecture_code": 11,
    "city": "熊谷市",
    "city_kana": "クマガヤシ",
    "town": "下恩田",
    "town_kana": "シモオンダ",
    "street": null,
    "office_name": null,
    "office_name_kana": null
  },
  "0124": {
    "postcode": "3600124",
    "prefecture": "埼玉県",
    "prefecture_kana": "サイタマケン",
    "prefecture_code": 11,
    "city": "熊谷市",
    "city_kana": "クマガヤシ",
    "town": "中恩田",
    "town_kana": "ナカオンダ",
    "street": null,
    "office_name": null,
    "office_name_kana": null
  },
  "0125": {
    "postcode": "3600125",
    "prefecture": "埼玉県",
    "prefecture_kana": "サイタマケン",
    "prefecture_code": 11,
    "city": "熊谷市",
    "city_kana": "クマガヤシ",
    "town": "上恩田",
    "town_kana": "カミオンダ",
    "street": null,
    "office_name": null,
    "office_name_kana": null
  },
  "0131": {
    "postcode": "3600131",
    "prefecture": "埼玉県",
    "prefecture_kana": "サイタマケン",
    "prefecture_code": 11,
    "city": "熊谷市",
    "city_kana": "クマガヤシ",
    "town": "屈戸",
    "town_kana": "クット",
    "street": null,
    "office_name": null,
    "office_name_kana": null
  },
  "0132": {
    "postcode": "3600132",
    "prefecture": "埼玉県",
    "prefecture_kana": "サイタマケン",
    "prefecture_code": 11,
    "city": "熊谷市",
    "city_kana": "クマガヤシ",
    "town": "津田新田",
    "town_kana": "ツダシンデン",
    "street": null,
    "office_name": null,
    "office_name_kana": null
  },
  "0133": {
    "postcode": "3600133",
    "prefecture": "埼玉県",
    "prefecture_kana": "サイタマケン",
    "prefecture_code": 11,
    "city": "熊谷市",
    "city_kana": "クマガヤシ",
    "town": "中曽根",
    "town_kana": "ナカゾネ",
    "street": null,
    "office_name": null,
    "office_name_kana": null
  },
  "0134": {
    "postcode": "3600134",
    "prefecture": "埼玉県",
    "prefecture_kana": "サイタマケン",
    "prefecture_code": 11,
    "city": "熊谷市",
    "city_kana": "クマガヤシ",
    "town": "高本",
    "town_kana": "タカモト",
    "street": null,
    "office_name": null,
    "office_name_kana": null
  },
  "0135": {
    "postcode": "3600135",
    "prefecture": "埼玉県",
    "prefecture_kana": "サイタマケン",
    "prefecture_code": 11,
    "city": "熊谷市",
    "city_kana": "クマガヤシ",
    "town": "沼黒",
    "town_kana": "ヌマグロ",
    "street": null,
    "office_name": null,
    "office_name_kana": null
  },
  "0136": {
    "postcode": "3600136",
    "prefecture": "埼玉県",
    "prefecture_kana": "サイタマケン",
    "prefecture_code": 11,
    "city": "熊谷市",
    "city_kana": "クマガヤシ",
    "town": "吉所敷",
    "town_kana": "キショシキ",
    "street": null,
    "office_name": null,
    "office_name_kana": null
  },
  "0161": {
    "postcode": "3600161",
    "prefecture": "埼玉県",
    "prefecture_kana": "サイタマケン",
    "prefecture_code": 11,
    "city": "熊谷市",
    "city_kana": "クマガヤシ",
    "town": "万吉",
    "town_kana": "マゲチ",
    "street": null,
    "office_name": null,
    "office_name_kana": null
  },
  "0162": {
    "postcode": "3600162",
    "prefecture": "埼玉県",
    "prefecture_kana": "サイタマケン",
    "prefecture_code": 11,
    "city": "熊谷市",
    "city_kana": "クマガヤシ",
    "town": "村岡",
    "town_kana": "ムラオカ",
    "street": null,
    "office_name": null,
    "office_name_kana": null
  },
  "0163": {
    "postcode": "3600163",
    "prefecture": "埼玉県",
    "prefecture_kana": "サイタマケン",
    "prefecture_code": 11,
    "city": "熊谷市",
    "city_kana": "クマガヤシ",
    "town": "平塚新田",
    "town_kana": "ヒラツカシンデン",
    "street": null,
    "office_name": null,
    "office_name_kana": null
  },
  "0164": {
    "postcode": "3600164",
    "prefecture": "埼玉県",
    "prefecture_kana": "サイタマケン",
    "prefecture_code": 11,
    "city": "熊谷市",
    "city_kana": "クマガヤシ",
    "town": "楊井",
    "town_kana": "ヤギイ",
    "street": null,
    "office_name": null,
    "office_name_kana": null
  },
  "0192": {
    "postcode": "3600192",
    "prefecture": "埼玉県",
    "prefecture_kana": "サイタマケン",
    "prefecture_code": 11,
    "city": "熊谷市",
    "city_kana": "クマガヤシ",
    "town": "江南中央",
    "town_kana": "コウナンチュウオウ",
    "street": "１丁目１番地",
    "office_name": "江南行政センター",
    "office_name_kana": "コウナンギヨウセイセンタ-"
  },
  "0193": {
    "postcode": "3600193",
    "prefecture": "埼玉県",
    "prefecture_kana": "サイタマケン",
    "prefecture_code": 11,
    "city": "熊谷市",
    "city_kana": "クマガヤシ",
    "town": "千代",
    "town_kana": "センダイ",
    "street": "東原３９",
    "office_name": "株式会社　ゼクセルヴァレオ　クライメートコントロール江南工場",
    "office_name_kana": "カブシキガイシヤ ゼクセルヴアレオ クライメ-トコントロ-ルコウナンコウジヨウ"
  },
  "0194": {
    "postcode": "3600194",
    "prefecture": "埼玉県",
    "prefecture_kana": "サイタマケン",
    "prefecture_code": 11,
    "city": "熊谷市",
    "city_kana": "クマガヤシ",
    "town": "万吉",
    "town_kana": "マゲチ",
    "street": "１７００",
    "office_name": "立正大学　熊谷校舎",
    "office_name_kana": "リツシヨウダイガク クマガヤコウシヤ"
  },
  "0195": {
    "postcode": "3600195",
    "prefecture": "埼玉県",
    "prefecture_kana": "サイタマケン",
    "prefecture_code": 11,
    "city": "熊谷市",
    "city_kana": "クマガヤシ",
    "town": "中曽根",
    "town_kana": "ナカゾネ",
    "street": "６５４−１",
    "office_name": "大里行政センター",
    "office_name_kana": "オオサトギヨウセイセンタ-"
  },
  "0196": {
    "postcode": "3600196",
    "prefecture": "埼玉県",
    "prefecture_kana": "サイタマケン",
    "prefecture_code": 11,
    "city": "熊谷市",
    "city_kana": "クマガヤシ",
    "town": "江南中央",
    "town_kana": "コウナンチュウオウ",
    "street": "２丁目１７番地１",
    "office_name": "株式会社　オキナヤ",
    "office_name_kana": "カブシキガイシヤ オキナヤ"
  },
  "0197": {
    "postcode": "3600197",
    "prefecture": "埼玉県",
    "prefecture_kana": "サイタマケン",
    "prefecture_code": 11,
    "city": "熊谷市",
    "city_kana": "クマガヤシ",
    "town": "板井",
    "town_kana": "イタイ",
    "street": "１６９６",
    "office_name": "埼玉県立　循環器・呼吸器病センター",
    "office_name_kana": "サイタマケンリツ ジユンカンキ・コキユウキビヨウセンタ-"
  },
  "0201": {
    "postcode": "3600201",
    "prefecture": "埼玉県",
    "prefecture_kana": "サイタマケン",
    "prefecture_code": 11,
    "city": "熊谷市",
    "city_kana": "クマガヤシ",
    "town": "妻沼",
    "town_kana": "メヌマ",
    "street": null,
    "office_name": null,
    "office_name_kana": null
  },
  "0202": {
    "postcode": "3600202",
    "prefecture": "埼玉県",
    "prefecture_kana": "サイタマケン",
    "prefecture_code": 11,
    "city": "熊谷市",
    "city_kana": "クマガヤシ",
    "town": "妻沼東",
    "town_kana": "メヌマヒガシ",
    "street": null,
    "office_name": null,
    "office_name_kana": null
  },
  "0203": {
    "postcode": "3600203",
    "prefecture": "埼玉県",
    "prefecture_kana": "サイタマケン",
    "prefecture_code": 11,
    "city": "熊谷市",
    "city_kana": "クマガヤシ",
    "town": "弥藤吾",
    "town_kana": "ヤトウゴ",
    "street": null,
    "office_name": null,
    "office_name_kana": null
  },
  "0204": {
    "postcode": "3600204",
    "prefecture": "埼玉県",
    "prefecture_kana": "サイタマケン",
    "prefecture_code": 11,
    "city": "熊谷市",
    "city_kana": "クマガヤシ",
    "town": "妻沼中央",
    "town_kana": "メヌマチュウオウ",
    "street": null,
    "office_name": null,
    "office_name_kana": null
  },
  "0211": {
    "postcode": "3600211",
    "prefecture": "埼玉県",
    "prefecture_kana": "サイタマケン",
    "prefecture_code": 11,
    "city": "熊谷市",
    "city_kana": "クマガヤシ",
    "town": "善ケ島",
    "town_kana": "ゼンガシマ",
    "street": null,
    "office_name": null,
    "office_name_kana": null
  },
  "0212": {
    "postcode": "3600212",
    "prefecture": "埼玉県",
    "prefecture_kana": "サイタマケン",
    "prefecture_code": 11,
    "city": "熊谷市",
    "city_kana": "クマガヤシ",
    "town": "江波",
    "town_kana": "エナミ",
    "street": null,
    "office_name": null,
    "office_name_kana": null
  },
  "0213": {
    "postcode": "3600213",
    "prefecture": "埼玉県",
    "prefecture_kana": "サイタマケン",
    "prefecture_code": 11,
    "city": "熊谷市",
    "city_kana": "クマガヤシ",
    "town": "上須戸",
    "town_kana": "カミスド",
    "street": null,
    "office_name": null,
    "office_name_kana": null
  },
  "0214": {
    "postcode": "3600214",
    "prefecture": "埼玉県",
    "prefecture_kana": "サイタマケン",
    "prefecture_code": 11,
    "city": "熊谷市",
    "city_kana": "クマガヤシ",
    "town": "西城",
    "town_kana": "ニシジョウ",
    "street": null,
    "office_name": null,
    "office_name_kana": null
  },
  "0215": {
    "postcode": "3600215",
    "prefecture": "埼玉県",
    "prefecture_kana": "サイタマケン",
    "prefecture_code": 11,
    "city": "熊谷市",
    "city_kana": "クマガヤシ",
    "town": "田島",
    "town_kana": "タジマ",
    "street": null,
    "office_name": null,
    "office_name_kana": null
  },
  "0216": {
    "postcode": "3600216",
    "prefecture": "埼玉県",
    "prefecture_kana": "サイタマケン",
    "prefecture_code": 11,
    "city": "熊谷市",
    "city_kana": "クマガヤシ",
    "town": "西野",
    "town_kana": "ニシノ",
    "street": null,
    "office_name": null,
    "office_name_kana": null
  },
  "0217": {
    "postcode": "3600217",
    "prefecture": "埼玉県",
    "prefecture_kana": "サイタマケン",
    "prefecture_code": 11,
    "city": "熊谷市",
    "city_kana": "クマガヤシ",
    "town": "上根",
    "town_kana": "カミネ",
    "street": null,
    "office_name": null,
    "office_name_kana": null
  },
  "0218": {
    "postcode": "3600218",
    "prefecture": "埼玉県",
    "prefecture_kana": "サイタマケン",
    "prefecture_code": 11,
    "city": "熊谷市",
    "city_kana": "クマガヤシ",
    "town": "八ツ口",
    "town_kana": "ヤツクチ",
    "street": null,
    "office_name": null,
    "office_name_kana": null
  },
  "0221": {
    "postcode": "3600221",
    "prefecture": "埼玉県",
    "prefecture_kana": "サイタマケン",
    "prefecture_code": 11,
    "city": "熊谷市",
    "city_kana": "クマガヤシ",
    "town": "大野",
    "town_kana": "オオノ",
    "street": null,
    "office_name": null,
    "office_name_kana": null
  },
  "0222": {
    "postcode": "3600222",
    "prefecture": "埼玉県",
    "prefecture_kana": "サイタマケン",
    "prefecture_code": 11,
    "city": "熊谷市",
    "city_kana": "クマガヤシ",
    "town": "葛和田",
    "town_kana": "クズワダ",
    "street": null,
    "office_name": null,
    "office_name_kana": null
  },
  "0223": {
    "postcode": "3600223",
    "prefecture": "埼玉県",
    "prefecture_kana": "サイタマケン",
    "prefecture_code": 11,
    "city": "熊谷市",
    "city_kana": "クマガヤシ",
    "town": "俵瀬",
    "town_kana": "タワラセ",
    "street": null,
    "office_name": null,
    "office_name_kana": null
  },
  "0224": {
    "postcode": "3600224",
    "prefecture": "埼玉県",
    "prefecture_kana": "サイタマケン",
    "prefecture_code": 11,
    "city": "熊谷市",
    "city_kana": "クマガヤシ",
    "town": "日向",
    "town_kana": "ヒナタ",
    "street": null,
    "office_name": null,
    "office_name_kana": null
  },
  "0225": {
    "postcode": "3600225",
    "prefecture": "埼玉県",
    "prefecture_kana": "サイタマケン",
    "prefecture_code": 11,
    "city": "熊谷市",
    "city_kana": "クマガヤシ",
    "town": "弁財",
    "town_kana": "ベンザイ",
    "street": null,
    "office_name": null,
    "office_name_kana": null
  },
  "0231": {
    "postcode": "3600231",
    "prefecture": "埼玉県",
    "prefecture_kana": "サイタマケン",
    "prefecture_code": 11,
    "city": "熊谷市",
    "city_kana": "クマガヤシ",
    "town": "飯塚",
    "town_kana": "イイヅカ",
    "street": null,
    "office_name": null,
    "office_name_kana": null
  },
  "0232": {
    "postcode": "3600232",
    "prefecture": "埼玉県",
    "prefecture_kana": "サイタマケン",
    "prefecture_code": 11,
    "city": "熊谷市",
    "city_kana": "クマガヤシ",
    "town": "道ケ谷戸",
    "town_kana": "ドウガヤト",
    "street": null,
    "office_name": null,
    "office_name_kana": null
  },
  "0233": {
    "postcode": "3600233",
    "prefecture": "埼玉県",
    "prefecture_kana": "サイタマケン",
    "prefecture_code": 11,
    "city": "熊谷市",
    "city_kana": "クマガヤシ",
    "town": "八木田",
    "town_kana": "ヤギタ",
    "street": null,
    "office_name": null,
    "office_name_kana": null
  },
  "0234": {
    "postcode": "3600234",
    "prefecture": "埼玉県",
    "prefecture_kana": "サイタマケン",
    "prefecture_code": 11,
    "city": "熊谷市",
    "city_kana": "クマガヤシ",
    "town": "上江袋",
    "town_kana": "カミエブクロ",
    "street": null,
    "office_name": null,
    "office_name_kana": null
  },
  "0235": {
    "postcode": "3600235",
    "prefecture": "埼玉県",
    "prefecture_kana": "サイタマケン",
    "prefecture_code": 11,
    "city": "熊谷市",
    "city_kana": "クマガヤシ",
    "town": "原井",
    "town_kana": "バライ",
    "street": null,
    "office_name": null,
    "office_name_kana": null
  },
  "0236": {
    "postcode": "3600236",
    "prefecture": "埼玉県",
    "prefecture_kana": "サイタマケン",
    "prefecture_code": 11,
    "city": "熊谷市",
    "city_kana": "クマガヤシ",
    "town": "市ノ坪",
    "town_kana": "イチノツボ",
    "street": null,
    "office_name": null,
    "office_name_kana": null
  },
  "0237": {
    "postcode": "3600237",
    "prefecture": "埼玉県",
    "prefecture_kana": "サイタマケン",
    "prefecture_code": 11,
    "city": "熊谷市",
    "city_kana": "クマガヤシ",
    "town": "永井太田",
    "town_kana": "ナガイオオタ",
    "street": null,
    "office_name": null,
    "office_name_kana": null
  },
  "0238": {
    "postcode": "3600238",
    "prefecture": "埼玉県",
    "prefecture_kana": "サイタマケン",
    "prefecture_code": 11,
    "city": "熊谷市",
    "city_kana": "クマガヤシ",
    "town": "妻沼西",
    "town_kana": "メヌマニシ",
    "street": null,
    "office_name": null,
    "office_name_kana": null
  },
  "0241": {
    "postcode": "3600241",
    "prefecture": "埼玉県",
    "prefecture_kana": "サイタマケン",
    "prefecture_code": 11,
    "city": "熊谷市",
    "city_kana": "クマガヤシ",
    "town": "妻沼台",
    "town_kana": "メヌマダイ",
    "street": null,
    "office_name": null,
    "office_name_kana": null
  },
  "0242": {
    "postcode": "3600242",
    "prefecture": "埼玉県",
    "prefecture_kana": "サイタマケン",
    "prefecture_code": 11,
    "city": "熊谷市",
    "city_kana": "クマガヤシ",
    "town": "男沼",
    "town_kana": "オヌマ",
    "street": null,
    "office_name": null,
    "office_name_kana": null
  },
  "0243": {
    "postcode": "3600243",
    "prefecture": "埼玉県",
    "prefecture_kana": "サイタマケン",
    "prefecture_code": 11,
    "city": "熊谷市",
    "city_kana": "クマガヤシ",
    "town": "間々田",
    "town_kana": "ママダ",
    "street": null,
    "office_name": null,
    "office_name_kana": null
  },
  "0244": {
    "postcode": "3600244",
    "prefecture": "埼玉県",
    "prefecture_kana": "サイタマケン",
    "prefecture_code": 11,
    "city": "熊谷市",
    "city_kana": "クマガヤシ",
    "town": "出来島",
    "town_kana": "デキジマ",
    "street": null,
    "office_name": null,
    "office_name_kana": null
  },
  "0245": {
    "postcode": "3600245",
    "prefecture": "埼玉県",
    "prefecture_kana": "サイタマケン",
    "prefecture_code": 11,
    "city": "熊谷市",
    "city_kana": "クマガヤシ",
    "town": "妻沼小島",
    "town_kana": "メヌマコジマ",
    "street": null,
    "office_name": null,
    "office_name_kana": null
  },
  "0801": {
    "postcode": "3600801",
    "prefecture": "埼玉県",
    "prefecture_kana": "サイタマケン",
    "prefecture_code": 11,
    "city": "熊谷市",
    "city_kana": "クマガヤシ",
    "town": "中奈良",
    "town_kana": "ナカナラ",
    "street": null,
    "office_name": null,
    "office_name_kana": null
  },
  "0802": {
    "postcode": "3600802",
    "prefecture": "埼玉県",
    "prefecture_kana": "サイタマケン",
    "prefecture_code": 11,
    "city": "熊谷市",
    "city_kana": "クマガヤシ",
    "town": "下奈良",
    "town_kana": "シモナラ",
    "street": null,
    "office_name": null,
    "office_name_kana": null
  },
  "0803": {
    "postcode": "3600803",
    "prefecture": "埼玉県",
    "prefecture_kana": "サイタマケン",
    "prefecture_code": 11,
    "city": "熊谷市",
    "city_kana": "クマガヤシ",
    "town": "柿沼",
    "town_kana": "カキヌマ",
    "street": null,
    "office_name": null,
    "office_name_kana": null
  },
  "0804": {
    "postcode": "3600804",
    "prefecture": "埼玉県",
    "prefecture_kana": "サイタマケン",
    "prefecture_code": 11,
    "city": "熊谷市",
    "city_kana": "クマガヤシ",
    "town": "代",
    "town_kana": "ダイ",
    "street": null,
    "office_name": null,
    "office_name_kana": null
  },
  "0805": {
    "postcode": "3600805",
    "prefecture": "埼玉県",
    "prefecture_kana": "サイタマケン",
    "prefecture_code": 11,
    "city": "熊谷市",
    "city_kana": "クマガヤシ",
    "town": "上奈良",
    "town_kana": "カミナラ",
    "street": null,
    "office_name": null,
    "office_name_kana": null
  },
  "0806": {
    "postcode": "3600806",
    "prefecture": "埼玉県",
    "prefecture_kana": "サイタマケン",
    "prefecture_code": 11,
    "city": "熊谷市",
    "city_kana": "クマガヤシ",
    "town": "奈良新田",
    "town_kana": "ナラシンデン",
    "street": null,
    "office_name": null,
    "office_name_kana": null
  },
  "0811": {
    "postcode": "3600811",
    "prefecture": "埼玉県",
    "prefecture_kana": "サイタマケン",
    "prefecture_code": 11,
    "city": "熊谷市",
    "city_kana": "クマガヤシ",
    "town": "原島",
    "town_kana": "ハラジマ",
    "street": null,
    "office_name": null,
    "office_name_kana": null
  },
  "0812": {
    "postcode": "3600812",
    "prefecture": "埼玉県",
    "prefecture_kana": "サイタマケン",
    "prefecture_code": 11,
    "city": "熊谷市",
    "city_kana": "クマガヤシ",
    "town": "大原",
    "town_kana": "オオハラ",
    "street": null,
    "office_name": null,
    "office_name_kana": null
  },
  "0813": {
    "postcode": "3600813",
    "prefecture": "埼玉県",
    "prefecture_kana": "サイタマケン",
    "prefecture_code": 11,
    "city": "熊谷市",
    "city_kana": "クマガヤシ",
    "town": "円光",
    "town_kana": "エンコウ",
    "street": null,
    "office_name": null,
    "office_name_kana": null
  },
  "0814": {
    "postcode": "3600814",
    "prefecture": "埼玉県",
    "prefecture_kana": "サイタマケン",
    "prefecture_code": 11,
    "city": "熊谷市",
    "city_kana": "クマガヤシ",
    "town": "桜町",
    "town_kana": "サクラチョウ",
    "street": null,
    "office_name": null,
    "office_name_kana": null
  },
  "0815": {
    "postcode": "3600815",
    "prefecture": "埼玉県",
    "prefecture_kana": "サイタマケン",
    "prefecture_code": 11,
    "city": "熊谷市",
    "city_kana": "クマガヤシ",
    "town": "本石",
    "town_kana": "ホンゴク",
    "street": null,
    "office_name": null,
    "office_name_kana": null
  },
  "0816": {
    "postcode": "3600816",
    "prefecture": "埼玉県",
    "prefecture_kana": "サイタマケン",
    "prefecture_code": 11,
    "city": "熊谷市",
    "city_kana": "クマガヤシ",
    "town": "石原",
    "town_kana": "イシハラ",
    "street": null,
    "office_name": null,
    "office_name_kana": null
  },
  "0817": {
    "postcode": "3600817",
    "prefecture": "埼玉県",
    "prefecture_kana": "サイタマケン",
    "prefecture_code": 11,
    "city": "熊谷市",
    "city_kana": "クマガヤシ",
    "town": "新島",
    "town_kana": "ニイジマ",
    "street": null,
    "office_name": null,
    "office_name_kana": null
  },
  "0821": {
    "postcode": "3600821",
    "prefecture": "埼玉県",
    "prefecture_kana": "サイタマケン",
    "prefecture_code": 11,
    "city": "熊谷市",
    "city_kana": "クマガヤシ",
    "town": "伊勢町",
    "town_kana": "イセチョウ",
    "street": null,
    "office_name": null,
    "office_name_kana": null
  },
  "0822": {
    "postcode": "3600822",
    "prefecture": "埼玉県",
    "prefecture_kana": "サイタマケン",
    "prefecture_code": 11,
    "city": "熊谷市",
    "city_kana": "クマガヤシ",
    "town": "宮本町",
    "town_kana": "ミヤモトチョウ",
    "street": null,
    "office_name": null,
    "office_name_kana": null
  },
  "0823": {
    "postcode": "3600823",
    "prefecture": "埼玉県",
    "prefecture_kana": "サイタマケン",
    "prefecture_code": 11,
    "city": "熊谷市",
    "city_kana": "クマガヤシ",
    "town": "榎町",
    "town_kana": "エノキチョウ",
    "street": null,
    "office_name": null,
    "office_name_kana": null
  },
  "0824": {
    "postcode": "3600824",
    "prefecture": "埼玉県",
    "prefecture_kana": "サイタマケン",
    "prefecture_code": 11,
    "city": "熊谷市",
    "city_kana": "クマガヤシ",
    "town": "見晴町",
    "town_kana": "ミハラシチョウ",
    "street": null,
    "office_name": null,
    "office_name_kana": null
  },
  "0825": {
    "postcode": "3600825",
    "prefecture": "埼玉県",
    "prefecture_kana": "サイタマケン",
    "prefecture_code": 11,
    "city": "熊谷市",
    "city_kana": "クマガヤシ",
    "town": "月見町",
    "town_kana": "ツキミチョウ",
    "street": null,
    "office_name": null,
    "office_name_kana": null
  },
  "0826": {
    "postcode": "3600826",
    "prefecture": "埼玉県",
    "prefecture_kana": "サイタマケン",
    "prefecture_code": 11,
    "city": "熊谷市",
    "city_kana": "クマガヤシ",
    "town": "赤城町",
    "town_kana": "アカギチョウ",
    "street": null,
    "office_name": null,
    "office_name_kana": null
  },
  "0831": {
    "postcode": "3600831",
    "prefecture": "埼玉県",
    "prefecture_kana": "サイタマケン",
    "prefecture_code": 11,
    "city": "熊谷市",
    "city_kana": "クマガヤシ",
    "town": "久保島",
    "town_kana": "クボジマ",
    "street": null,
    "office_name": null,
    "office_name_kana": null
  },
  "0832": {
    "postcode": "3600832",
    "prefecture": "埼玉県",
    "prefecture_kana": "サイタマケン",
    "prefecture_code": 11,
    "city": "熊谷市",
    "city_kana": "クマガヤシ",
    "town": "小島",
    "town_kana": "コジマ",
    "street": null,
    "office_name": null,
    "office_name_kana": null
  },
  "0833": {
    "postcode": "3600833",
    "prefecture": "埼玉県",
    "prefecture_kana": "サイタマケン",
    "prefecture_code": 11,
    "city": "熊谷市",
    "city_kana": "クマガヤシ",
    "town": "広瀬",
    "town_kana": "ヒロセ",
    "street": null,
    "office_name": null,
    "office_name_kana": null
  },
  "0834": {
    "postcode": "3600834",
    "prefecture": "埼玉県",
    "prefecture_kana": "サイタマケン",
    "prefecture_code": 11,
    "city": "熊谷市",
    "city_kana": "クマガヤシ",
    "town": "瀬南",
    "town_kana": "セナミ",
    "street": null,
    "office_name": null,
    "office_name_kana": null
  },
  "0835": {
    "postcode": "3600835",
    "prefecture": "埼玉県",
    "prefecture_kana": "サイタマケン",
    "prefecture_code": 11,
    "city": "熊谷市",
    "city_kana": "クマガヤシ",
    "town": "大麻生",
    "town_kana": "オオアソウ",
    "street": null,
    "office_name": null,
    "office_name_kana": null
  },
  "0836": {
    "postcode": "3600836",
    "prefecture": "埼玉県",
    "prefecture_kana": "サイタマケン",
    "prefecture_code": 11,
    "city": "熊谷市",
    "city_kana": "クマガヤシ",
    "town": "武体",
    "town_kana": "ブタイ",
    "street": null,
    "office_name": null,
    "office_name_kana": null
  },
  "0837": {
    "postcode": "3600837",
    "prefecture": "埼玉県",
    "prefecture_kana": "サイタマケン",
    "prefecture_code": 11,
    "city": "熊谷市",
    "city_kana": "クマガヤシ",
    "town": "川原明戸",
    "town_kana": "カワハラアケト",
    "street": null,
    "office_name": null,
    "office_name_kana": null
  },
  "0841": {
    "postcode": "3600841",
    "prefecture": "埼玉県",
    "prefecture_kana": "サイタマケン",
    "prefecture_code": 11,
    "city": "熊谷市",
    "city_kana": "クマガヤシ",
    "town": "新堀",
    "town_kana": "ニイボリ",
    "street": null,
    "office_name": null,
    "office_name_kana": null
  },
  "0842": {
    "postcode": "3600842",
    "prefecture": "埼玉県",
    "prefecture_kana": "サイタマケン",
    "prefecture_code": 11,
    "city": "熊谷市",
    "city_kana": "クマガヤシ",
    "town": "新堀新田",
    "town_kana": "ニイボリシンデン",
    "street": null,
    "office_name": null,
    "office_name_kana": null
  },
  "0843": {
    "postcode": "3600843",
    "prefecture": "埼玉県",
    "prefecture_kana": "サイタマケン",
    "prefecture_code": 11,
    "city": "熊谷市",
    "city_kana": "クマガヤシ",
    "town": "三ケ尻",
    "town_kana": "ミカジリ",
    "street": null,
    "office_name": null,
    "office_name_kana": null
  },
  "0844": {
    "postcode": "3600844",
    "prefecture": "埼玉県",
    "prefecture_kana": "サイタマケン",
    "prefecture_code": 11,
    "city": "熊谷市",
    "city_kana": "クマガヤシ",
    "town": "御稜威ケ原",
    "town_kana": "ミイズガハラ",
    "street": null,
    "office_name": null,
    "office_name_kana": null
  },
  "0845": {
    "postcode": "3600845",
    "prefecture": "埼玉県",
    "prefecture_kana": "サイタマケン",
    "prefecture_code": 11,
    "city": "熊谷市",
    "city_kana": "クマガヤシ",
    "town": "美土里町",
    "town_kana": "ミドリチョウ",
    "street": null,
    "office_name": null,
    "office_name_kana": null
  },
  "0846": {
    "postcode": "3600846",
    "prefecture": "埼玉県",
    "prefecture_kana": "サイタマケン",
    "prefecture_code": 11,
    "city": "熊谷市",
    "city_kana": "クマガヤシ",
    "town": "拾六間",
    "town_kana": "ジュウロッケン",
    "street": null,
    "office_name": null,
    "office_name_kana": null
  },
  "0847": {
    "postcode": "3600847",
    "prefecture": "埼玉県",
    "prefecture_kana": "サイタマケン",
    "prefecture_code": 11,
    "city": "熊谷市",
    "city_kana": "クマガヤシ",
    "town": "籠原南",
    "town_kana": "カゴハラミナミ",
    "street": null,
    "office_name": null,
    "office_name_kana": null
  },
  "0851": {
    "postcode": "3600851",
    "prefecture": "埼玉県",
    "prefecture_kana": "サイタマケン",
    "prefecture_code": 11,
    "city": "熊谷市",
    "city_kana": "クマガヤシ",
    "town": "下増田",
    "town_kana": "シモマスダ",
    "street": null,
    "office_name": null,
    "office_name_kana": null
  },
  "0852": {
    "postcode": "3600852",
    "prefecture": "埼玉県",
    "prefecture_kana": "サイタマケン",
    "prefecture_code": 11,
    "city": "熊谷市",
    "city_kana": "クマガヤシ",
    "town": "東別府",
    "town_kana": "ヒガシベップ",
    "street": null,
    "office_name": null,
    "office_name_kana": null
  },
  "0853": {
    "postcode": "3600853",
    "prefecture": "埼玉県",
    "prefecture_kana": "サイタマケン",
    "prefecture_code": 11,
    "city": "熊谷市",
    "city_kana": "クマガヤシ",
    "town": "玉井",
    "town_kana": "タマイ",
    "street": null,
    "office_name": null,
    "office_name_kana": null
  },
  "0854": {
    "postcode": "3600854",
    "prefecture": "埼玉県",
    "prefecture_kana": "サイタマケン",
    "prefecture_code": 11,
    "city": "熊谷市",
    "city_kana": "クマガヤシ",
    "town": "玉井南",
    "town_kana": "タマイミナミ",
    "street": null,
    "office_name": null,
    "office_name_kana": null
  },
  "0855": {
    "postcode": "3600855",
    "prefecture": "埼玉県",
    "prefecture_kana": "サイタマケン",
    "prefecture_code": 11,
    "city": "熊谷市",
    "city_kana": "クマガヤシ",
    "town": "高柳",
    "town_kana": "タカヤナギ",
    "street": null,
    "office_name": null,
    "office_name_kana": null
  },
  "0856": {
    "postcode": "3600856",
    "prefecture": "埼玉県",
    "prefecture_kana": "サイタマケン",
    "prefecture_code": 11,
    "city": "熊谷市",
    "city_kana": "クマガヤシ",
    "town": "別府",
    "town_kana": "ベップ",
    "street": null,
    "office_name": null,
    "office_name_kana": null
  },
  "0857": {
    "postcode": "3600857",
    "prefecture": "埼玉県",
    "prefecture_kana": "サイタマケン",
    "prefecture_code": 11,
    "city": "熊谷市",
    "city_kana": "クマガヤシ",
    "town": "西別府",
    "town_kana": "ニシベップ",
    "street": null,
    "office_name": null,
    "office_name_kana": null
  },
  "8501": {
    "postcode": "3608501",
    "prefecture": "埼玉県",
    "prefecture_kana": "サイタマケン",
    "prefecture_code": 11,
    "city": "熊谷市",
    "city_kana": "クマガヤシ",
    "town": "末広",
    "town_kana": "スエヒロ",
    "street": "３丁目９−１",
    "office_name": "埼玉県　熊谷県税事務所",
    "office_name_kana": "サイタマケン クマガヤケンゼイジムシヨ"
  },
  "8502": {
    "postcode": "3608502",
    "prefecture": "埼玉県",
    "prefecture_kana": "サイタマケン",
    "prefecture_code": 11,
    "city": "熊谷市",
    "city_kana": "クマガヤシ",
    "town": "仲町",
    "town_kana": "ナカチョウ",
    "street": "７４",
    "office_name": "（株）　八木橋",
    "office_name_kana": "(カブ) ヤギハシ"
  },
  "8512": {
    "postcode": "3608512",
    "prefecture": "埼玉県",
    "prefecture_kana": "サイタマケン",
    "prefecture_code": 11,
    "city": "熊谷市",
    "city_kana": "クマガヤシ",
    "town": "御稜威ケ原",
    "town_kana": "ミイズガハラ",
    "street": "６１１−１１",
    "office_name": "日東富士製粉　株式会社　埼玉工場",
    "office_name_kana": "ニツトウフジセイフン カブシキガイシヤ サイタマコウジヨウ"
  },
  "8515": {
    "postcode": "3608515",
    "prefecture": "埼玉県",
    "prefecture_kana": "サイタマケン",
    "prefecture_code": 11,
    "city": "熊谷市",
    "city_kana": "クマガヤシ",
    "town": "箱田",
    "town_kana": "ハコダ",
    "street": "４丁目１０−１",
    "office_name": "シスコム　株式会社",
    "office_name_kana": "シスコム カブシキガイシヤ"
  },
  "8520": {
    "postcode": "3608520",
    "prefecture": "埼玉県",
    "prefecture_kana": "サイタマケン",
    "prefecture_code": 11,
    "city": "熊谷市",
    "city_kana": "クマガヤシ",
    "town": "問屋町",
    "town_kana": "トンヤチョウ",
    "street": "１丁目１番８号",
    "office_name": "関東国分　株式会社",
    "office_name_kana": "カントウコクブ カブシキガイシヤ"
  },
  "8521": {
    "postcode": "3608521",
    "prefecture": "埼玉県",
    "prefecture_kana": "サイタマケン",
    "prefecture_code": 11,
    "city": "熊谷市",
    "city_kana": "クマガヤシ",
    "town": "問屋町",
    "town_kana": "トンヤチョウ",
    "street": "３丁目３−１２",
    "office_name": "株式会社　清水アーネット",
    "office_name_kana": "カブシキガイシヤ シミズア-ネツト"
  },
  "8522": {
    "postcode": "3608522",
    "prefecture": "埼玉県",
    "prefecture_kana": "サイタマケン",
    "prefecture_code": 11,
    "city": "熊谷市",
    "city_kana": "クマガヤシ",
    "town": "末広",
    "town_kana": "スエヒロ",
    "street": "４丁目１４−１",
    "office_name": "リケン　熊谷事業所",
    "office_name_kana": "リケン クマガヤジギヨウシヨ"
  },
  "8523": {
    "postcode": "3608523",
    "prefecture": "埼玉県",
    "prefecture_kana": "サイタマケン",
    "prefecture_code": 11,
    "city": "熊谷市",
    "city_kana": "クマガヤシ",
    "town": "大字御稜威ケ原",
    "town_kana": null,
    "street": "１３８−８",
    "office_name": "（株）　徳田練磨工作所",
    "office_name_kana": "トクデンレンマコウサクジヨ"
  },
  "8532": {
    "postcode": "3608532",
    "prefecture": "埼玉県",
    "prefecture_kana": "サイタマケン",
    "prefecture_code": 11,
    "city": "熊谷市",
    "city_kana": "クマガヤシ",
    "town": "銀座",
    "town_kana": "ギンザ",
    "street": "２丁目２４５",
    "office_name": "日東都市開発　株式会社",
    "office_name_kana": "ニツトウトシカイハツ カブシキガイシヤ"
  },
  "8543": {
    "postcode": "3608543",
    "prefecture": "埼玉県",
    "prefecture_kana": "サイタマケン",
    "prefecture_code": 11,
    "city": "熊谷市",
    "city_kana": "クマガヤシ",
    "town": "御稜威ケ原",
    "town_kana": "ミイズガハラ",
    "street": "２８４−１１",
    "office_name": "（株）　アーレスティ　熊谷工場",
    "office_name_kana": "(カブ) ア-レステイ クマガヤコウジヨウ"
  },
  "8555": {
    "postcode": "3608555",
    "prefecture": "埼玉県",
    "prefecture_kana": "サイタマケン",
    "prefecture_code": 11,
    "city": "熊谷市",
    "city_kana": "クマガヤシ",
    "town": "末広",
    "town_kana": "スエヒロ",
    "street": "１丁目１３",
    "office_name": "ＮＴＴ東日本−埼玉",
    "office_name_kana": "エヌテイテイヒガシニホン-サイタマ"
  },
  "8558": {
    "postcode": "3608558",
    "prefecture": "埼玉県",
    "prefecture_kana": "サイタマケン",
    "prefecture_code": 11,
    "city": "熊谷市",
    "city_kana": "クマガヤシ",
    "town": "御稜威ケ原",
    "town_kana": "ミイズガハラ",
    "street": "下林６１１−１０",
    "office_name": "日本山村硝子　株式会社　埼玉工場",
    "office_name_kana": "ニホンヤマムラガラス カブシキカイシヤ サイタマコウジヨウ"
  },
  "8559": {
    "postcode": "3608559",
    "prefecture": "埼玉県",
    "prefecture_kana": "サイタマケン",
    "prefecture_code": 11,
    "city": "熊谷市",
    "city_kana": "クマガヤシ",
    "town": "御稜威ケ原",
    "town_kana": "ミイズガハラ",
    "street": "２０１−９",
    "office_name": "（株）　ニコン　熊谷製作所",
    "office_name_kana": "(カブ) ニコン クマガヤセイサクシヨ"
  },
  "8567": {
    "postcode": "3608567",
    "prefecture": "埼玉県",
    "prefecture_kana": "サイタマケン",
    "prefecture_code": 11,
    "city": "熊谷市",
    "city_kana": "クマガヤシ",
    "town": "中西",
    "town_kana": "ナカニシ",
    "street": "四丁目５番１号",
    "office_name": "医療法人　熊谷総合病院",
    "office_name_kana": "イリヨウホウジン クマガヤソウゴウビヨウイン"
  },
  "8577": {
    "postcode": "3608577",
    "prefecture": "埼玉県",
    "prefecture_kana": "サイタマケン",
    "prefecture_code": 11,
    "city": "熊谷市",
    "city_kana": "クマガヤシ",
    "town": "三ヶ尻",
    "town_kana": null,
    "street": "５２００",
    "office_name": "株式会社　プロテリアル　熊谷事業所",
    "office_name_kana": "カブシキガイシヤ プロテリアル クマガヤジギヨウシヨ"
  },
  "8580": {
    "postcode": "3608580",
    "prefecture": "埼玉県",
    "prefecture_kana": "サイタマケン",
    "prefecture_code": 11,
    "city": "熊谷市",
    "city_kana": "クマガヤシ",
    "town": "大字拾六間",
    "town_kana": null,
    "street": "８３９",
    "office_name": "航空自衛隊　熊谷基地",
    "office_name_kana": "コウクウジエイタイ クマガヤキチ"
  },
  "8585": {
    "postcode": "3608585",
    "prefecture": "埼玉県",
    "prefecture_kana": "サイタマケン",
    "prefecture_code": 11,
    "city": "熊谷市",
    "city_kana": "クマガヤシ",
    "town": "桜木町",
    "town_kana": "サクラギチョウ",
    "street": "１−９３",
    "office_name": "熊谷年金事務所",
    "office_name_kana": "クマガヤネンキンジムシヨ"
  },
  "8601": {
    "postcode": "3608601",
    "prefecture": "埼玉県",
    "prefecture_kana": "サイタマケン",
    "prefecture_code": 11,
    "city": "熊谷市",
    "city_kana": "クマガヤシ",
    "town": "宮町",
    "town_kana": "ミヤチョウ",
    "street": "２丁目４７−１",
    "office_name": "熊谷市役所",
    "office_name_kana": "クマガヤシヤクシヨ"
  },
  "8608": {
    "postcode": "3608608",
    "prefecture": "埼玉県",
    "prefecture_kana": "サイタマケン",
    "prefecture_code": 11,
    "city": "熊谷市",
    "city_kana": "クマガヤシ",
    "town": "筑波",
    "town_kana": "ツクバ",
    "street": "２丁目４８番地１大栄日生熊谷ビル４Ｆ（熊谷郵便局私書箱第８号）",
    "office_name": "埼玉県信用保証協会　熊谷支店",
    "office_name_kana": "サイタマケンシンヨウホシヨウキヨウカイ クマガヤシテン"
  },
  "8611": {
    "postcode": "3608611",
    "prefecture": "埼玉県",
    "prefecture_kana": "サイタマケン",
    "prefecture_code": 11,
    "city": "熊谷市",
    "city_kana": "クマガヤシ",
    "town": "久下",
    "town_kana": "クゲ",
    "street": "４丁目１４１（熊谷郵便局私書箱第１１号）",
    "office_name": "埼玉縣信用金庫",
    "office_name_kana": "サイタマケンシンヨウキンコ"
  },
  "8616": {
    "postcode": "3608616",
    "prefecture": "埼玉県",
    "prefecture_kana": "サイタマケン",
    "prefecture_code": 11,
    "city": "熊谷市",
    "city_kana": "クマガヤシ",
    "town": "久下",
    "town_kana": "クゲ",
    "street": "四丁目１４１番地（熊谷郵便局私書箱第１６号）",
    "office_name": "埼玉縣信用金庫　業務サポート部",
    "office_name_kana": "サイタマケンシンヨウキンコ ギヨウムサポ-トブ"
  },
  "8620": {
    "postcode": "3608620",
    "prefecture": "埼玉県",
    "prefecture_kana": "サイタマケン",
    "prefecture_code": 11,
    "city": "熊谷市",
    "city_kana": "クマガヤシ",
    "town": "仲町",
    "town_kana": "ナカチョウ",
    "street": "４１",
    "office_name": "熊谷税務署",
    "office_name_kana": "クマガヤゼイムシヨ"
  }
}