{
  "0000": {
    "postcode": "3620000",
    "prefecture": "埼玉県",
    "prefecture_kana": "サイタマケン",
    "prefecture_code": 11,
    "city": "上尾市",
    "city_kana": "アゲオシ",
    "town": "",
    "town_kana": "",
    "street": null,
    "office_name": null,
    "office_name_kana": null
  },
  "0001": {
    "postcode": "3620001",
    "prefecture": "埼玉県",
    "prefecture_kana": "サイタマケン",
    "prefecture_code": 11,
    "city": "上尾市",
    "city_kana": "アゲオシ",
    "town": "上",
    "town_kana": "カミ",
    "street": null,
    "office_name": null,
    "office_name_kana": null
  },
  "0002": {
    "postcode": "3620002",
    "prefecture": "埼玉県",
    "prefecture_kana": "サイタマケン",
    "prefecture_code": 11,
    "city": "上尾市",
    "city_kana": "アゲオシ",
    "town": "南",
    "town_kana": "ミナミ",
    "street": null,
    "office_name": null,
    "office_name_kana": null
  },
  "0003": {
    "postcode": "3620003",
    "prefecture": "埼玉県",
    "prefecture_kana": "サイタマケン",
    "prefecture_code": 11,
    "city": "上尾市",
    "city_kana": "アゲオシ",
    "town": "菅谷",
    "town_kana": "スガヤ",
    "street": null,
    "office_name": null,
    "office_name_kana": null
  },
  "0004": {
    "postcode": "3620004",
    "prefecture": "埼玉県",
    "prefecture_kana": "サイタマケン",
    "prefecture_code": 11,
    "city": "上尾市",
    "city_kana": "アゲオシ",
    "town": "須ケ谷",
    "town_kana": "スカヤ",
    "street": null,
    "office_name": null,
    "office_name_kana": null
  },
  "0005": {
    "postcode": "3620005",
    "prefecture": "埼玉県",
    "prefecture_kana": "サイタマケン",
    "prefecture_code": 11,
    "city": "上尾市",
    "city_kana": "アゲオシ",
    "town": "西門前",
    "town_kana": "ニシモンゼン",
    "street": null,
    "office_name": null,
    "office_name_kana": null
  },
  "0006": {
    "postcode": "3620006",
    "prefecture": "埼玉県",
    "prefecture_kana": "サイタマケン",
    "prefecture_code": 11,
    "city": "上尾市",
    "city_kana": "アゲオシ",
    "town": "錦町",
    "town_kana": "ニシキチョウ",
    "street": null,
    "office_name": null,
    "office_name_kana": null
  },
  "0007": {
    "postcode": "3620007",
    "prefecture": "埼玉県",
    "prefecture_kana": "サイタマケン",
    "prefecture_code": 11,
    "city": "上尾市",
    "city_kana": "アゲオシ",
    "town": "久保",
    "town_kana": "クボ",
    "street": null,
    "office_name": null,
    "office_name_kana": null
  },
  "0008": {
    "postcode": "3620008",
    "prefecture": "埼玉県",
    "prefecture_kana": "サイタマケン",
    "prefecture_code": 11,
    "city": "上尾市",
    "city_kana": "アゲオシ",
    "town": "上平中央",
    "town_kana": "カミヒラチュウオウ",
    "street": null,
    "office_name": null,
    "office_name_kana": null
  },
  "0011": {
    "postcode": "3620011",
    "prefecture": "埼玉県",
    "prefecture_kana": "サイタマケン",
    "prefecture_code": 11,
    "city": "上尾市",
    "city_kana": "アゲオシ",
    "town": "平塚",
    "town_kana": "ヒラツカ",
    "street": null,
    "office_name": null,
    "office_name_kana": null
  },
  "0012": {
    "postcode": "3620012",
    "prefecture": "埼玉県",
    "prefecture_kana": "サイタマケン",
    "prefecture_code": 11,
    "city": "上尾市",
    "city_kana": "アゲオシ",
    "town": "上尾宿",
    "town_kana": "アゲオシュク",
    "street": null,
    "office_name": null,
    "office_name_kana": null
  },
  "0013": {
    "postcode": "3620013",
    "prefecture": "埼玉県",
    "prefecture_kana": "サイタマケン",
    "prefecture_code": 11,
    "city": "上尾市",
    "city_kana": "アゲオシ",
    "town": "上尾村",
    "town_kana": "アゲオムラ",
    "street": null,
    "office_name": null,
    "office_name_kana": null
  },
  "0014": {
    "postcode": "3620014",
    "prefecture": "埼玉県",
    "prefecture_kana": "サイタマケン",
    "prefecture_code": 11,
    "city": "上尾市",
    "city_kana": "アゲオシ",
    "town": "本町",
    "town_kana": "ホンチョウ",
    "street": null,
    "office_name": null,
    "office_name_kana": null
  },
  "0015": {
    "postcode": "3620015",
    "prefecture": "埼玉県",
    "prefecture_kana": "サイタマケン",
    "prefecture_code": 11,
    "city": "上尾市",
    "city_kana": "アゲオシ",
    "town": "緑丘",
    "town_kana": "ミドリガオカ",
    "street": null,
    "office_name": null,
    "office_name_kana": null
  },
  "0016": {
    "postcode": "3620016",
    "prefecture": "埼玉県",
    "prefecture_kana": "サイタマケン",
    "prefecture_code": 11,
    "city": "上尾市",
    "city_kana": "アゲオシ",
    "town": "原新町",
    "town_kana": "ハラシンマチ",
    "street": null,
    "office_name": null,
    "office_name_kana": null
  },
  "0017": {
    "postcode": "3620017",
    "prefecture": "埼玉県",
    "prefecture_kana": "サイタマケン",
    "prefecture_code": 11,
    "city": "上尾市",
    "city_kana": "アゲオシ",
    "town": "二ツ宮",
    "town_kana": "フタツミヤ",
    "street": null,
    "office_name": null,
    "office_name_kana": null
  },
  "0021": {
    "postcode": "3620021",
    "prefecture": "埼玉県",
    "prefecture_kana": "サイタマケン",
    "prefecture_code": 11,
    "city": "上尾市",
    "city_kana": "アゲオシ",
    "town": "原市",
    "town_kana": "ハライチ",
    "street": null,
    "office_name": null,
    "office_name_kana": null
  },
  "0022": {
    "postcode": "3620022",
    "prefecture": "埼玉県",
    "prefecture_kana": "サイタマケン",
    "prefecture_code": 11,
    "city": "上尾市",
    "city_kana": "アゲオシ",
    "town": "瓦葺",
    "town_kana": "カワラブキ",
    "street": null,
    "office_name": null,
    "office_name_kana": null
  },
  "0023": {
    "postcode": "3620023",
    "prefecture": "埼玉県",
    "prefecture_kana": "サイタマケン",
    "prefecture_code": 11,
    "city": "上尾市",
    "city_kana": "アゲオシ",
    "town": "原市中",
    "town_kana": "ハライチナカ",
    "street": null,
    "office_name": null,
    "office_name_kana": null
  },
  "0024": {
    "postcode": "3620024",
    "prefecture": "埼玉県",
    "prefecture_kana": "サイタマケン",
    "prefecture_code": 11,
    "city": "上尾市",
    "city_kana": "アゲオシ",
    "town": "五番町",
    "town_kana": "ゴバンチョウ",
    "street": null,
    "office_name": null,
    "office_name_kana": null
  },
  "0025": {
    "postcode": "3620025",
    "prefecture": "埼玉県",
    "prefecture_kana": "サイタマケン",
    "prefecture_code": 11,
    "city": "上尾市",
    "city_kana": "アゲオシ",
    "town": "上尾下",
    "town_kana": "アゲオシモ",
    "street": null,
    "office_name": null,
    "office_name_kana": null
  },
  "0026": {
    "postcode": "3620026",
    "prefecture": "埼玉県",
    "prefecture_kana": "サイタマケン",
    "prefecture_code": 11,
    "city": "上尾市",
    "city_kana": "アゲオシ",
    "town": "原市北",
    "town_kana": "ハライチキタ",
    "street": null,
    "office_name": null,
    "office_name_kana": null
  },
  "0031": {
    "postcode": "3620031",
    "prefecture": "埼玉県",
    "prefecture_kana": "サイタマケン",
    "prefecture_code": 11,
    "city": "上尾市",
    "city_kana": "アゲオシ",
    "town": "東町",
    "town_kana": "アズマチョウ",
    "street": null,
    "office_name": null,
    "office_name_kana": null
  },
  "0032": {
    "postcode": "3620032",
    "prefecture": "埼玉県",
    "prefecture_kana": "サイタマケン",
    "prefecture_code": 11,
    "city": "上尾市",
    "city_kana": "アゲオシ",
    "town": "日の出",
    "town_kana": "ヒノデ",
    "street": null,
    "office_name": null,
    "office_name_kana": null
  },
  "0033": {
    "postcode": "3620033",
    "prefecture": "埼玉県",
    "prefecture_kana": "サイタマケン",
    "prefecture_code": 11,
    "city": "上尾市",
    "city_kana": "アゲオシ",
    "town": "栄町",
    "town_kana": "サカエチョウ",
    "street": null,
    "office_name": null,
    "office_name_kana": null
  },
  "0034": {
    "postcode": "3620034",
    "prefecture": "埼玉県",
    "prefecture_kana": "サイタマケン",
    "prefecture_code": 11,
    "city": "上尾市",
    "city_kana": "アゲオシ",
    "town": "愛宕",
    "town_kana": "アタゴ",
    "street": null,
    "office_name": null,
    "office_name_kana": null
  },
  "0035": {
    "postcode": "3620035",
    "prefecture": "埼玉県",
    "prefecture_kana": "サイタマケン",
    "prefecture_code": 11,
    "city": "上尾市",
    "city_kana": "アゲオシ",
    "town": "仲町",
    "town_kana": "ナカチョウ",
    "street": null,
    "office_name": null,
    "office_name_kana": null
  },
  "0036": {
    "postcode": "3620036",
    "prefecture": "埼玉県",
    "prefecture_kana": "サイタマケン",
    "prefecture_code": 11,
    "city": "上尾市",
    "city_kana": "アゲオシ",
    "town": "宮本町",
    "town_kana": "ミヤモトチョウ",
    "street": null,
    "office_name": null,
    "office_name_kana": null
  },
  "0037": {
    "postcode": "3620037",
    "prefecture": "埼玉県",
    "prefecture_kana": "サイタマケン",
    "prefecture_code": 11,
    "city": "上尾市",
    "city_kana": "アゲオシ",
    "town": "上町",
    "town_kana": "カミチョウ",
    "street": null,
    "office_name": null,
    "office_name_kana": null
  },
  "0041": {
    "postcode": "3620041",
    "prefecture": "埼玉県",
    "prefecture_kana": "サイタマケン",
    "prefecture_code": 11,
    "city": "上尾市",
    "city_kana": "アゲオシ",
    "town": "富士見",
    "town_kana": "フジミ",
    "street": null,
    "office_name": null,
    "office_name_kana": null
  },
  "0042": {
    "postcode": "3620042",
    "prefecture": "埼玉県",
    "prefecture_kana": "サイタマケン",
    "prefecture_code": 11,
    "city": "上尾市",
    "city_kana": "アゲオシ",
    "town": "谷津",
    "town_kana": "ヤツ",
    "street": null,
    "office_name": null,
    "office_name_kana": null
  },
  "0043": {
    "postcode": "3620043",
    "prefecture": "埼玉県",
    "prefecture_kana": "サイタマケン",
    "prefecture_code": 11,
    "city": "上尾市",
    "city_kana": "アゲオシ",
    "town": "西宮下",
    "town_kana": "ニシミヤシタ",
    "street": null,
    "office_name": null,
    "office_name_kana": null
  },
  "0044": {
    "postcode": "3620044",
    "prefecture": "埼玉県",
    "prefecture_kana": "サイタマケン",
    "prefecture_code": 11,
    "city": "上尾市",
    "city_kana": "アゲオシ",
    "town": "大谷本郷",
    "town_kana": "オオヤホンゴウ",
    "street": null,
    "office_name": null,
    "office_name_kana": null
  },
  "0045": {
    "postcode": "3620045",
    "prefecture": "埼玉県",
    "prefecture_kana": "サイタマケン",
    "prefecture_code": 11,
    "city": "上尾市",
    "city_kana": "アゲオシ",
    "town": "向山",
    "town_kana": "ムコウヤマ",
    "street": null,
    "office_name": null,
    "office_name_kana": null
  },
  "0046": {
    "postcode": "3620046",
    "prefecture": "埼玉県",
    "prefecture_kana": "サイタマケン",
    "prefecture_code": 11,
    "city": "上尾市",
    "city_kana": "アゲオシ",
    "town": "壱丁目",
    "town_kana": "イッチョウメ",
    "street": null,
    "office_name": null,
    "office_name_kana": null
  },
  "0047": {
    "postcode": "3620047",
    "prefecture": "埼玉県",
    "prefecture_kana": "サイタマケン",
    "prefecture_code": 11,
    "city": "上尾市",
    "city_kana": "アゲオシ",
    "town": "今泉",
    "town_kana": "イマイズミ",
    "street": null,
    "office_name": null,
    "office_name_kana": null
  },
  "0048": {
    "postcode": "3620048",
    "prefecture": "埼玉県",
    "prefecture_kana": "サイタマケン",
    "prefecture_code": 11,
    "city": "上尾市",
    "city_kana": "アゲオシ",
    "town": "川",
    "town_kana": "カワ",
    "street": null,
    "office_name": null,
    "office_name_kana": null
  },
  "0049": {
    "postcode": "3620049",
    "prefecture": "埼玉県",
    "prefecture_kana": "サイタマケン",
    "prefecture_code": 11,
    "city": "上尾市",
    "city_kana": "アゲオシ",
    "town": "東今泉",
    "town_kana": "ヒガシイマイズミ",
    "street": null,
    "office_name": null,
    "office_name_kana": null
  },
  "0051": {
    "postcode": "3620051",
    "prefecture": "埼玉県",
    "prefecture_kana": "サイタマケン",
    "prefecture_code": 11,
    "city": "上尾市",
    "city_kana": "アゲオシ",
    "town": "地頭方",
    "town_kana": "ジトウガタ",
    "street": null,
    "office_name": null,
    "office_name_kana": null
  },
  "0052": {
    "postcode": "3620052",
    "prefecture": "埼玉県",
    "prefecture_kana": "サイタマケン",
    "prefecture_code": 11,
    "city": "上尾市",
    "city_kana": "アゲオシ",
    "town": "中新井",
    "town_kana": "ナカアライ",
    "street": null,
    "office_name": null,
    "office_name_kana": null
  },
  "0053": {
    "postcode": "3620053",
    "prefecture": "埼玉県",
    "prefecture_kana": "サイタマケン",
    "prefecture_code": 11,
    "city": "上尾市",
    "city_kana": "アゲオシ",
    "town": "戸崎",
    "town_kana": "トサキ",
    "street": null,
    "office_name": null,
    "office_name_kana": null
  },
  "0054": {
    "postcode": "3620054",
    "prefecture": "埼玉県",
    "prefecture_kana": "サイタマケン",
    "prefecture_code": 11,
    "city": "上尾市",
    "city_kana": "アゲオシ",
    "town": "堤崎",
    "town_kana": "ツツミサキ",
    "street": null,
    "office_name": null,
    "office_name_kana": null
  },
  "0055": {
    "postcode": "3620055",
    "prefecture": "埼玉県",
    "prefecture_kana": "サイタマケン",
    "prefecture_code": 11,
    "city": "上尾市",
    "city_kana": "アゲオシ",
    "town": "平方領々家",
    "town_kana": "ヒラカタリョウリョウケ",
    "street": null,
    "office_name": null,
    "office_name_kana": null
  },
  "0056": {
    "postcode": "3620056",
    "prefecture": "埼玉県",
    "prefecture_kana": "サイタマケン",
    "prefecture_code": 11,
    "city": "上尾市",
    "city_kana": "アゲオシ",
    "town": "上野本郷",
    "town_kana": "ウエノホンゴウ",
    "street": null,
    "office_name": null,
    "office_name_kana": null
  },
  "0057": {
    "postcode": "3620057",
    "prefecture": "埼玉県",
    "prefecture_kana": "サイタマケン",
    "prefecture_code": 11,
    "city": "上尾市",
    "city_kana": "アゲオシ",
    "town": "西貝塚",
    "town_kana": "ニシカイヅカ",
    "street": null,
    "office_name": null,
    "office_name_kana": null
  },
  "0058": {
    "postcode": "3620058",
    "prefecture": "埼玉県",
    "prefecture_kana": "サイタマケン",
    "prefecture_code": 11,
    "city": "上尾市",
    "city_kana": "アゲオシ",
    "town": "上野",
    "town_kana": "ウエノ",
    "street": null,
    "office_name": null,
    "office_name_kana": null
  },
  "0059": {
    "postcode": "3620059",
    "prefecture": "埼玉県",
    "prefecture_kana": "サイタマケン",
    "prefecture_code": 11,
    "city": "上尾市",
    "city_kana": "アゲオシ",
    "town": "平方",
    "town_kana": "ヒラカタ",
    "street": null,
    "office_name": null,
    "office_name_kana": null
  },
  "0061": {
    "postcode": "3620061",
    "prefecture": "埼玉県",
    "prefecture_kana": "サイタマケン",
    "prefecture_code": 11,
    "city": "上尾市",
    "city_kana": "アゲオシ",
    "town": "藤波",
    "town_kana": "フジナミ",
    "street": null,
    "office_name": null,
    "office_name_kana": null
  },
  "0062": {
    "postcode": "3620062",
    "prefecture": "埼玉県",
    "prefecture_kana": "サイタマケン",
    "prefecture_code": 11,
    "city": "上尾市",
    "city_kana": "アゲオシ",
    "town": "泉台",
    "town_kana": "イズミダイ",
    "street": null,
    "office_name": null,
    "office_name_kana": null
  },
  "0063": {
    "postcode": "3620063",
    "prefecture": "埼玉県",
    "prefecture_kana": "サイタマケン",
    "prefecture_code": 11,
    "city": "上尾市",
    "city_kana": "アゲオシ",
    "town": "小泉",
    "town_kana": "コイズミ",
    "street": null,
    "office_name": null,
    "office_name_kana": null
  },
  "0064": {
    "postcode": "3620064",
    "prefecture": "埼玉県",
    "prefecture_kana": "サイタマケン",
    "prefecture_code": 11,
    "city": "上尾市",
    "city_kana": "アゲオシ",
    "town": "小敷谷",
    "town_kana": "コシキヤ",
    "street": null,
    "office_name": null,
    "office_name_kana": null
  },
  "0065": {
    "postcode": "3620065",
    "prefecture": "埼玉県",
    "prefecture_kana": "サイタマケン",
    "prefecture_code": 11,
    "city": "上尾市",
    "city_kana": "アゲオシ",
    "town": "畔吉",
    "town_kana": "アゼヨシ",
    "street": null,
    "office_name": null,
    "office_name_kana": null
  },
  "0066": {
    "postcode": "3620066",
    "prefecture": "埼玉県",
    "prefecture_kana": "サイタマケン",
    "prefecture_code": 11,
    "city": "上尾市",
    "city_kana": "アゲオシ",
    "town": "領家",
    "town_kana": "リョウケ",
    "street": null,
    "office_name": null,
    "office_name_kana": null
  },
  "0067": {
    "postcode": "3620067",
    "prefecture": "埼玉県",
    "prefecture_kana": "サイタマケン",
    "prefecture_code": 11,
    "city": "上尾市",
    "city_kana": "アゲオシ",
    "town": "中分",
    "town_kana": "ナカブン",
    "street": null,
    "office_name": null,
    "office_name_kana": null
  },
  "0071": {
    "postcode": "3620071",
    "prefecture": "埼玉県",
    "prefecture_kana": "サイタマケン",
    "prefecture_code": 11,
    "city": "上尾市",
    "city_kana": "アゲオシ",
    "town": "井戸木",
    "town_kana": "イドギ",
    "street": null,
    "office_name": null,
    "office_name_kana": null
  },
  "0072": {
    "postcode": "3620072",
    "prefecture": "埼玉県",
    "prefecture_kana": "サイタマケン",
    "prefecture_code": 11,
    "city": "上尾市",
    "city_kana": "アゲオシ",
    "town": "中妻",
    "town_kana": "ナカヅマ",
    "street": null,
    "office_name": null,
    "office_name_kana": null
  },
  "0073": {
    "postcode": "3620073",
    "prefecture": "埼玉県",
    "prefecture_kana": "サイタマケン",
    "prefecture_code": 11,
    "city": "上尾市",
    "city_kana": "アゲオシ",
    "town": "浅間台",
    "town_kana": "アサマダイ",
    "street": null,
    "office_name": null,
    "office_name_kana": null
  },
  "0074": {
    "postcode": "3620074",
    "prefecture": "埼玉県",
    "prefecture_kana": "サイタマケン",
    "prefecture_code": 11,
    "city": "上尾市",
    "city_kana": "アゲオシ",
    "town": "春日",
    "town_kana": "カスガ",
    "street": null,
    "office_name": null,
    "office_name_kana": null
  },
  "0075": {
    "postcode": "3620075",
    "prefecture": "埼玉県",
    "prefecture_kana": "サイタマケン",
    "prefecture_code": 11,
    "city": "上尾市",
    "city_kana": "アゲオシ",
    "town": "柏座",
    "town_kana": "カシワザ",
    "street": null,
    "office_name": null,
    "office_name_kana": null
  },
  "0076": {
    "postcode": "3620076",
    "prefecture": "埼玉県",
    "prefecture_kana": "サイタマケン",
    "prefecture_code": 11,
    "city": "上尾市",
    "city_kana": "アゲオシ",
    "town": "弁財",
    "town_kana": "ベンザイ",
    "street": null,
    "office_name": null,
    "office_name_kana": null
  },
  "0081": {
    "postcode": "3620081",
    "prefecture": "埼玉県",
    "prefecture_kana": "サイタマケン",
    "prefecture_code": 11,
    "city": "上尾市",
    "city_kana": "アゲオシ",
    "town": "壱丁目北",
    "town_kana": "イッチョウメキタ",
    "street": null,
    "office_name": null,
    "office_name_kana": null
  },
  "0082": {
    "postcode": "3620082",
    "prefecture": "埼玉県",
    "prefecture_kana": "サイタマケン",
    "prefecture_code": 11,
    "city": "上尾市",
    "city_kana": "アゲオシ",
    "town": "壱丁目東",
    "town_kana": "イッチョウメヒガシ",
    "street": null,
    "office_name": null,
    "office_name_kana": null
  },
  "0083": {
    "postcode": "3620083",
    "prefecture": "埼玉県",
    "prefecture_kana": "サイタマケン",
    "prefecture_code": 11,
    "city": "上尾市",
    "city_kana": "アゲオシ",
    "town": "壱丁目南",
    "town_kana": "イッチョウメミナミ",
    "street": null,
    "office_name": null,
    "office_name_kana": null
  },
  "0084": {
    "postcode": "3620084",
    "prefecture": "埼玉県",
    "prefecture_kana": "サイタマケン",
    "prefecture_code": 11,
    "city": "上尾市",
    "city_kana": "アゲオシ",
    "town": "壱丁目西",
    "town_kana": "イッチョウメニシ",
    "street": null,
    "office_name": null,
    "office_name_kana": null
  },
  "0800": {
    "postcode": "3620800",
    "prefecture": "埼玉県",
    "prefecture_kana": "サイタマケン",
    "prefecture_code": 11,
    "city": "北足立郡伊奈町",
    "city_kana": "キタアダチグンイナマチ",
    "town": "",
    "town_kana": "",
    "street": null,
    "office_name": null,
    "office_name_kana": null
  },
  "0801": {
    "postcode": "3620801",
    "prefecture": "埼玉県",
    "prefecture_kana": "サイタマケン",
    "prefecture_code": 11,
    "city": "北足立郡伊奈町",
    "city_kana": "キタアダチグンイナマチ",
    "town": "小針内宿",
    "town_kana": "コバリウチジュク",
    "street": null,
    "office_name": null,
    "office_name_kana": null
  },
  "0802": {
    "postcode": "3620802",
    "prefecture": "埼玉県",
    "prefecture_kana": "サイタマケン",
    "prefecture_code": 11,
    "city": "北足立郡伊奈町",
    "city_kana": "キタアダチグンイナマチ",
    "town": "羽貫",
    "town_kana": "ハヌキ",
    "street": null,
    "office_name": null,
    "office_name_kana": null
  },
  "0803": {
    "postcode": "3620803",
    "prefecture": "埼玉県",
    "prefecture_kana": "サイタマケン",
    "prefecture_code": 11,
    "city": "北足立郡伊奈町",
    "city_kana": "キタアダチグンイナマチ",
    "town": "大針",
    "town_kana": "オオバリ",
    "street": null,
    "office_name": null,
    "office_name_kana": null
  },
  "0804": {
    "postcode": "3620804",
    "prefecture": "埼玉県",
    "prefecture_kana": "サイタマケン",
    "prefecture_code": 11,
    "city": "北足立郡伊奈町",
    "city_kana": "キタアダチグンイナマチ",
    "town": "本町",
    "town_kana": "ホンチョウ",
    "street": null,
    "office_name": null,
    "office_name_kana": null
  },
  "0805": {
    "postcode": "3620805",
    "prefecture": "埼玉県",
    "prefecture_kana": "サイタマケン",
    "prefecture_code": 11,
    "city": "北足立郡伊奈町",
    "city_kana": "キタアダチグンイナマチ",
    "town": "栄",
    "town_kana": "サカエ",
    "street": null,
    "office_name": null,
    "office_name_kana": null
  },
  "0806": {
    "postcode": "3620806",
    "prefecture": "埼玉県",
    "prefecture_kana": "サイタマケン",
    "prefecture_code": 11,
    "city": "北足立郡伊奈町",
    "city_kana": "キタアダチグンイナマチ",
    "town": "小室",
    "town_kana": "コムロ",
    "street": null,
    "office_name": null,
    "office_name_kana": null
  },
  "0807": {
    "postcode": "3620807",
    "prefecture": "埼玉県",
    "prefecture_kana": "サイタマケン",
    "prefecture_code": 11,
    "city": "北足立郡伊奈町",
    "city_kana": "キタアダチグンイナマチ",
    "town": "寿",
    "town_kana": "コトブキ",
    "street": null,
    "office_name": null,
    "office_name_kana": null
  },
  "0808": {
    "postcode": "3620808",
    "prefecture": "埼玉県",
    "prefecture_kana": "サイタマケン",
    "prefecture_code": 11,
    "city": "北足立郡伊奈町",
    "city_kana": "キタアダチグンイナマチ",
    "town": "小針新宿",
    "town_kana": "コバリシンシュク",
    "street": null,
    "office_name": null,
    "office_name_kana": null
  },
  "0809": {
    "postcode": "3620809",
    "prefecture": "埼玉県",
    "prefecture_kana": "サイタマケン",
    "prefecture_code": 11,
    "city": "北足立郡伊奈町",
    "city_kana": "キタアダチグンイナマチ",
    "town": "中央",
    "town_kana": "チュウオウ",
    "street": null,
    "office_name": null,
    "office_name_kana": null
  },
  "0811": {
    "postcode": "3620811",
    "prefecture": "埼玉県",
    "prefecture_kana": "サイタマケン",
    "prefecture_code": 11,
    "city": "北足立郡伊奈町",
    "city_kana": "キタアダチグンイナマチ",
    "town": "西小針",
    "town_kana": "ニシコバリ",
    "street": null,
    "office_name": null,
    "office_name_kana": null
  },
  "0812": {
    "postcode": "3620812",
    "prefecture": "埼玉県",
    "prefecture_kana": "サイタマケン",
    "prefecture_code": 11,
    "city": "北足立郡伊奈町",
    "city_kana": "キタアダチグンイナマチ",
    "town": "内宿台",
    "town_kana": "ウチジュクダイ",
    "street": null,
    "office_name": null,
    "office_name_kana": null
  },
  "0813": {
    "postcode": "3620813",
    "prefecture": "埼玉県",
    "prefecture_kana": "サイタマケン",
    "prefecture_code": 11,
    "city": "北足立郡伊奈町",
    "city_kana": "キタアダチグンイナマチ",
    "town": "学園",
    "town_kana": "ガクエン",
    "street": null,
    "office_name": null,
    "office_name_kana": null
  },
  "8501": {
    "postcode": "3628501",
    "prefecture": "埼玉県",
    "prefecture_kana": "サイタマケン",
    "prefecture_code": 11,
    "city": "上尾市",
    "city_kana": "アゲオシ",
    "town": "本町",
    "town_kana": "ホンチョウ",
    "street": "３丁目１−１",
    "office_name": "上尾市役所",
    "office_name_kana": "アゲオシヤクシヨ"
  },
  "8502": {
    "postcode": "3628502",
    "prefecture": "埼玉県",
    "prefecture_kana": "サイタマケン",
    "prefecture_code": 11,
    "city": "上尾市",
    "city_kana": "アゲオシ",
    "town": "堤崎",
    "town_kana": "ツツミサキ",
    "street": "３６２−１Ｌａｎｄｐｏｒｔ上尾Ⅰ",
    "office_name": "日本ロジテム　株式会社　上尾営業所",
    "office_name_kana": "ニホンロジテム カブシキガイシヤ アゲオエイギヨウシヨ"
  },
  "8504": {
    "postcode": "3628504",
    "prefecture": "埼玉県",
    "prefecture_kana": "サイタマケン",
    "prefecture_code": 11,
    "city": "上尾市",
    "city_kana": "アゲオシ",
    "town": "大字西門前",
    "town_kana": null,
    "street": "５７７",
    "office_name": "上尾税務署",
    "office_name_kana": "アゲオゼイムシヨ"
  },
  "8508": {
    "postcode": "3628508",
    "prefecture": "埼玉県",
    "prefecture_kana": "サイタマケン",
    "prefecture_code": 11,
    "city": "上尾市",
    "city_kana": "アゲオシ",
    "town": "大字中新井",
    "town_kana": null,
    "street": "字前８２６番地５（ＭＣＵＤ上尾）",
    "office_name": "アマゾン上尾ＦＣ",
    "office_name_kana": "アマゾンアゲオエフシ-"
  },
  "8510": {
    "postcode": "3628510",
    "prefecture": "埼玉県",
    "prefecture_kana": "サイタマケン",
    "prefecture_code": 11,
    "city": "上尾市",
    "city_kana": "アゲオシ",
    "town": "大字上尾村",
    "town_kana": null,
    "street": "字二ツ宮前９４７",
    "office_name": "東京電力　株式会社　さいたま支社　上尾営業センター",
    "office_name_kana": "トウキヨウデンリヨク カブシキガイシヤ サイタマシシヤ アゲオエイギヨウセンタ-"
  },
  "8511": {
    "postcode": "3628511",
    "prefecture": "埼玉県",
    "prefecture_kana": "サイタマケン",
    "prefecture_code": 11,
    "city": "上尾市",
    "city_kana": "アゲオシ",
    "town": "谷津",
    "town_kana": "ヤツ",
    "street": "２丁目１−１",
    "office_name": "昭産開発　株式会社",
    "office_name_kana": "シヨウサンカイハツ カブシキガイシヤ"
  },
  "8517": {
    "postcode": "3628517",
    "prefecture": "埼玉県",
    "prefecture_kana": "サイタマケン",
    "prefecture_code": 11,
    "city": "北足立郡伊奈町",
    "city_kana": "キタアダチグンイナマチ",
    "town": "大字小室",
    "town_kana": null,
    "street": "９４９３",
    "office_name": "伊奈町役場",
    "office_name_kana": "イナマチヤクバ"
  },
  "8520": {
    "postcode": "3628520",
    "prefecture": "埼玉県",
    "prefecture_kana": "サイタマケン",
    "prefecture_code": 11,
    "city": "上尾市",
    "city_kana": "アゲオシ",
    "town": "中妻",
    "town_kana": "ナカヅマ",
    "street": "３丁目１−１",
    "office_name": "ブリヂストンサイクル　（株）",
    "office_name_kana": "ブリヂストンサイクル カブシキガイシヤ"
  },
  "8521": {
    "postcode": "3628521",
    "prefecture": "埼玉県",
    "prefecture_kana": "サイタマケン",
    "prefecture_code": 11,
    "city": "上尾市",
    "city_kana": "アゲオシ",
    "town": "中妻",
    "town_kana": "ナカヅマ",
    "street": "３丁目１−１",
    "office_name": "ブリヂストンサイクル東日本販売　（株）",
    "office_name_kana": "ブリヂストンサイクルヒガシニホンハンバイ カブ"
  },
  "8523": {
    "postcode": "3628523",
    "prefecture": "埼玉県",
    "prefecture_kana": "サイタマケン",
    "prefecture_code": 11,
    "city": "上尾市",
    "city_kana": "アゲオシ",
    "town": "大字壱丁目",
    "town_kana": null,
    "street": "１",
    "office_name": "ＵＤトラックス　株式会社",
    "office_name_kana": "ユ-デイ-トラツクス カブシキガイシヤ"
  },
  "8531": {
    "postcode": "3628531",
    "prefecture": "埼玉県",
    "prefecture_kana": "サイタマケン",
    "prefecture_code": 11,
    "city": "上尾市",
    "city_kana": "アゲオシ",
    "town": "大字平方領領家",
    "town_kana": null,
    "street": "６３９",
    "office_name": "株式会社　サイサン",
    "office_name_kana": "カブシキガイシヤ サイサン"
  },
  "8539": {
    "postcode": "3628539",
    "prefecture": "埼玉県",
    "prefecture_kana": "サイタマケン",
    "prefecture_code": 11,
    "city": "北足立郡伊奈町",
    "city_kana": "キタアダチグンイナマチ",
    "town": "大字小室",
    "town_kana": null,
    "street": "字道上１０３６０",
    "office_name": "株式会社　サイサン",
    "office_name_kana": "カブシキガイシヤ サイサン"
  },
  "8542": {
    "postcode": "3628542",
    "prefecture": "埼玉県",
    "prefecture_kana": "サイタマケン",
    "prefecture_code": 11,
    "city": "北足立郡伊奈町",
    "city_kana": "キタアダチグンイナマチ",
    "town": "大字小針新宿",
    "town_kana": null,
    "street": "字梶川８３３番地",
    "office_name": "株式会社　日本アクセス　埼玉支店",
    "office_name_kana": "カブシキガイシヤ ニツポンアクセス サイタマシテン"
  },
  "8550": {
    "postcode": "3628550",
    "prefecture": "埼玉県",
    "prefecture_kana": "サイタマケン",
    "prefecture_code": 11,
    "city": "上尾市",
    "city_kana": "アゲオシ",
    "town": "大字領家",
    "town_kana": null,
    "street": "字山下１１５２−１０",
    "office_name": "株式会社　アイチコーポレーション　上尾事業所",
    "office_name_kana": "カブシキガイシヤ アイチコ-ポレ-シヨン アゲオジギヨウシヨ"
  },
  "8553": {
    "postcode": "3628553",
    "prefecture": "埼玉県",
    "prefecture_kana": "サイタマケン",
    "prefecture_code": 11,
    "city": "北足立郡伊奈町",
    "city_kana": "キタアダチグンイナマチ",
    "town": "大字小針新宿",
    "town_kana": null,
    "street": "字梶川８４７番地",
    "office_name": "株式会社　日本アクセス　伊奈チルド物流センター",
    "office_name_kana": "カブシキガイシヤ ニツポンアクセス イナチルドブツリユウセンタ-"
  },
  "8555": {
    "postcode": "3628555",
    "prefecture": "埼玉県",
    "prefecture_kana": "サイタマケン",
    "prefecture_code": 11,
    "city": "上尾市",
    "city_kana": "アゲオシ",
    "town": "大字上",
    "town_kana": null,
    "street": "２９８−１",
    "office_name": "トステムビバ　株式会社",
    "office_name_kana": "トステムビバ カブシキガイシヤ"
  },
  "8567": {
    "postcode": "3628567",
    "prefecture": "埼玉県",
    "prefecture_kana": "サイタマケン",
    "prefecture_code": 11,
    "city": "上尾市",
    "city_kana": "アゲオシ",
    "town": "大字西貝塚",
    "town_kana": null,
    "street": "１４８−１",
    "office_name": "埼玉県総合リハビリテーションセンター",
    "office_name_kana": "サイタマケンソウゴウリハビリテ-シヨンセンタ-"
  },
  "8577": {
    "postcode": "3628577",
    "prefecture": "埼玉県",
    "prefecture_kana": "サイタマケン",
    "prefecture_code": 11,
    "city": "北足立郡伊奈町",
    "city_kana": "キタアダチグンイナマチ",
    "town": "小室",
    "town_kana": "コムロ",
    "street": "４４７２−１",
    "office_name": "ＤＩＣ　株式会社　埼玉工場",
    "office_name_kana": "デイ-アイシ- カブシキガイシヤ サイタマコウジヨウ"
  },
  "8585": {
    "postcode": "3628585",
    "prefecture": "埼玉県",
    "prefecture_kana": "サイタマケン",
    "prefecture_code": 11,
    "city": "上尾市",
    "city_kana": "アゲオシ",
    "town": "大字戸崎",
    "town_kana": null,
    "street": "１−１",
    "office_name": "聖学院大学",
    "office_name_kana": "セイガクインダイガク"
  },
  "8588": {
    "postcode": "3628588",
    "prefecture": "埼玉県",
    "prefecture_kana": "サイタマケン",
    "prefecture_code": 11,
    "city": "上尾市",
    "city_kana": "アゲオシ",
    "town": "柏座",
    "town_kana": "カシワザ",
    "street": "１丁目１０−１０",
    "office_name": "医療法人社団　愛友会　上尾中央総合病院",
    "office_name_kana": "イリヨウホウジンシヤダン アイユウカイ アゲオチユウオウソウゴウビヨウイン"
  },
  "8688": {
    "postcode": "3628688",
    "prefecture": "埼玉県",
    "prefecture_kana": "サイタマケン",
    "prefecture_code": 11,
    "city": "上尾市",
    "city_kana": "アゲオシ",
    "town": "柏座",
    "town_kana": "カシワザ",
    "street": "４丁目６−７（上尾郵便局私書箱第１５号）",
    "office_name": "株式会社　ベルーナ",
    "office_name_kana": "カブシキガイシヤ ベル-ナ"
  }
}