{
  "0101": {
    "postcode": "3690101",
    "prefecture": "埼玉県",
    "prefecture_kana": "サイタマケン",
    "prefecture_code": 11,
    "city": "熊谷市",
    "city_kana": "クマガヤシ",
    "town": "津田",
    "town_kana": "ツダ",
    "street": null,
    "office_name": null,
    "office_name_kana": null
  },
  "0102": {
    "postcode": "3690102",
    "prefecture": "埼玉県",
    "prefecture_kana": "サイタマケン",
    "prefecture_code": 11,
    "city": "熊谷市",
    "city_kana": "クマガヤシ",
    "town": "玉作",
    "town_kana": "タマツクリ",
    "street": null,
    "office_name": null,
    "office_name_kana": null
  },
  "0103": {
    "postcode": "3690103",
    "prefecture": "埼玉県",
    "prefecture_kana": "サイタマケン",
    "prefecture_code": 11,
    "city": "熊谷市",
    "city_kana": "クマガヤシ",
    "town": "小八林",
    "town_kana": "コヤツバヤシ",
    "street": null,
    "office_name": null,
    "office_name_kana": null
  },
  "0104": {
    "postcode": "3690104",
    "prefecture": "埼玉県",
    "prefecture_kana": "サイタマケン",
    "prefecture_code": 11,
    "city": "熊谷市",
    "city_kana": "クマガヤシ",
    "town": "冑山",
    "town_kana": "カブトヤマ",
    "street": null,
    "office_name": null,
    "office_name_kana": null
  },
  "0105": {
    "postcode": "3690105",
    "prefecture": "埼玉県",
    "prefecture_kana": "サイタマケン",
    "prefecture_code": 11,
    "city": "熊谷市",
    "city_kana": "クマガヤシ",
    "town": "箕輪",
    "town_kana": "ミノワ",
    "street": null,
    "office_name": null,
    "office_name_kana": null
  },
  "0106": {
    "postcode": "3690106",
    "prefecture": "埼玉県",
    "prefecture_kana": "サイタマケン",
    "prefecture_code": 11,
    "city": "熊谷市",
    "city_kana": "クマガヤシ",
    "town": "相上",
    "town_kana": "アイアゲ",
    "street": null,
    "office_name": null,
    "office_name_kana": null
  },
  "0107": {
    "postcode": "3690107",
    "prefecture": "埼玉県",
    "prefecture_kana": "サイタマケン",
    "prefecture_code": 11,
    "city": "熊谷市",
    "city_kana": "クマガヤシ",
    "town": "向谷",
    "town_kana": "ムコウヤ",
    "street": null,
    "office_name": null,
    "office_name_kana": null
  },
  "0108": {
    "postcode": "3690108",
    "prefecture": "埼玉県",
    "prefecture_kana": "サイタマケン",
    "prefecture_code": 11,
    "city": "熊谷市",
    "city_kana": "クマガヤシ",
    "town": "船木台",
    "town_kana": "フナキダイ",
    "street": null,
    "office_name": null,
    "office_name_kana": null
  },
  "0111": {
    "postcode": "3690111",
    "prefecture": "埼玉県",
    "prefecture_kana": "サイタマケン",
    "prefecture_code": 11,
    "city": "鴻巣市",
    "city_kana": "コウノスシ",
    "town": "新宿",
    "town_kana": "シンシュク",
    "street": null,
    "office_name": null,
    "office_name_kana": null
  },
  "0112": {
    "postcode": "3690112",
    "prefecture": "埼玉県",
    "prefecture_kana": "サイタマケン",
    "prefecture_code": 11,
    "city": "鴻巣市",
    "city_kana": "コウノスシ",
    "town": "鎌塚",
    "town_kana": "カマツカ",
    "street": null,
    "office_name": null,
    "office_name_kana": null
  },
  "0113": {
    "postcode": "3690113",
    "prefecture": "埼玉県",
    "prefecture_kana": "サイタマケン",
    "prefecture_code": 11,
    "city": "鴻巣市",
    "city_kana": "コウノスシ",
    "town": "下忍",
    "town_kana": "シモオシ",
    "street": null,
    "office_name": null,
    "office_name_kana": null
  },
  "0114": {
    "postcode": "3690114",
    "prefecture": "埼玉県",
    "prefecture_kana": "サイタマケン",
    "prefecture_code": 11,
    "city": "鴻巣市",
    "city_kana": "コウノスシ",
    "town": "筑波",
    "town_kana": "ツクバ",
    "street": null,
    "office_name": null,
    "office_name_kana": null
  },
  "0115": {
    "postcode": "3690115",
    "prefecture": "埼玉県",
    "prefecture_kana": "サイタマケン",
    "prefecture_code": 11,
    "city": "鴻巣市",
    "city_kana": "コウノスシ",
    "town": "吹上本町",
    "town_kana": "フキアゲホンチョウ",
    "street": null,
    "office_name": null,
    "office_name_kana": null
  },
  "0116": {
    "postcode": "3690116",
    "prefecture": "埼玉県",
    "prefecture_kana": "サイタマケン",
    "prefecture_code": 11,
    "city": "鴻巣市",
    "city_kana": "コウノスシ",
    "town": "北新宿",
    "town_kana": "キタシンシュク",
    "street": null,
    "office_name": null,
    "office_name_kana": null
  },
  "0121": {
    "postcode": "3690121",
    "prefecture": "埼玉県",
    "prefecture_kana": "サイタマケン",
    "prefecture_code": 11,
    "city": "鴻巣市",
    "city_kana": "コウノスシ",
    "town": "吹上富士見",
    "town_kana": "フキアゲフジミ",
    "street": null,
    "office_name": null,
    "office_name_kana": null
  },
  "0122": {
    "postcode": "3690122",
    "prefecture": "埼玉県",
    "prefecture_kana": "サイタマケン",
    "prefecture_code": 11,
    "city": "鴻巣市",
    "city_kana": "コウノスシ",
    "town": "南",
    "town_kana": "ミナミ",
    "street": null,
    "office_name": null,
    "office_name_kana": null
  },
  "0123": {
    "postcode": "3690123",
    "prefecture": "埼玉県",
    "prefecture_kana": "サイタマケン",
    "prefecture_code": 11,
    "city": "鴻巣市",
    "city_kana": "コウノスシ",
    "town": "榎戸",
    "town_kana": "エノキド",
    "street": null,
    "office_name": null,
    "office_name_kana": null
  },
  "0124": {
    "postcode": "3690124",
    "prefecture": "埼玉県",
    "prefecture_kana": "サイタマケン",
    "prefecture_code": 11,
    "city": "鴻巣市",
    "city_kana": "コウノスシ",
    "town": "荊原",
    "town_kana": "バラハラ",
    "street": null,
    "office_name": null,
    "office_name_kana": null
  },
  "0131": {
    "postcode": "3690131",
    "prefecture": "埼玉県",
    "prefecture_kana": "サイタマケン",
    "prefecture_code": 11,
    "city": "鴻巣市",
    "city_kana": "コウノスシ",
    "town": "袋",
    "town_kana": "フクロ",
    "street": null,
    "office_name": null,
    "office_name_kana": null
  },
  "0132": {
    "postcode": "3690132",
    "prefecture": "埼玉県",
    "prefecture_kana": "サイタマケン",
    "prefecture_code": 11,
    "city": "鴻巣市",
    "city_kana": "コウノスシ",
    "town": "前砂",
    "town_kana": "マエスナ",
    "street": null,
    "office_name": null,
    "office_name_kana": null
  },
  "0133": {
    "postcode": "3690133",
    "prefecture": "埼玉県",
    "prefecture_kana": "サイタマケン",
    "prefecture_code": 11,
    "city": "鴻巣市",
    "city_kana": "コウノスシ",
    "town": "小谷",
    "town_kana": "コヤ",
    "street": null,
    "office_name": null,
    "office_name_kana": null
  },
  "0134": {
    "postcode": "3690134",
    "prefecture": "埼玉県",
    "prefecture_kana": "サイタマケン",
    "prefecture_code": 11,
    "city": "鴻巣市",
    "city_kana": "コウノスシ",
    "town": "三町免",
    "town_kana": "サンチョウメン",
    "street": null,
    "office_name": null,
    "office_name_kana": null
  },
  "0135": {
    "postcode": "3690135",
    "prefecture": "埼玉県",
    "prefecture_kana": "サイタマケン",
    "prefecture_code": 11,
    "city": "鴻巣市",
    "city_kana": "コウノスシ",
    "town": "明用",
    "town_kana": "ミョウヨウ",
    "street": null,
    "office_name": null,
    "office_name_kana": null
  },
  "0136": {
    "postcode": "3690136",
    "prefecture": "埼玉県",
    "prefecture_kana": "サイタマケン",
    "prefecture_code": 11,
    "city": "鴻巣市",
    "city_kana": "コウノスシ",
    "town": "吹上",
    "town_kana": "フキアゲ",
    "street": null,
    "office_name": null,
    "office_name_kana": null
  },
  "0137": {
    "postcode": "3690137",
    "prefecture": "埼玉県",
    "prefecture_kana": "サイタマケン",
    "prefecture_code": 11,
    "city": "鴻巣市",
    "city_kana": "コウノスシ",
    "town": "大芦",
    "town_kana": "オオアシ",
    "street": null,
    "office_name": null,
    "office_name_kana": null
  },
  "0192": {
    "postcode": "3690192",
    "prefecture": "埼玉県",
    "prefecture_kana": "サイタマケン",
    "prefecture_code": 11,
    "city": "鴻巣市",
    "city_kana": "コウノスシ",
    "town": "南",
    "town_kana": "ミナミ",
    "street": "１丁目５番４５号",
    "office_name": "富士電機機器制御　株式会社　吹上事業所",
    "office_name_kana": "フジデンキキキセイギヨ カブシキガイシヤ フキアゲジギヨウシヨ"
  },
  "0195": {
    "postcode": "3690195",
    "prefecture": "埼玉県",
    "prefecture_kana": "サイタマケン",
    "prefecture_code": 11,
    "city": "鴻巣市",
    "city_kana": "コウノスシ",
    "town": "吹上富士見",
    "town_kana": "フキアゲフジミ",
    "street": "１丁目１番１号",
    "office_name": "鴻巣市　吹上支所",
    "office_name_kana": "コウノスシ フキアゲシシヨ"
  },
  "0198": {
    "postcode": "3690198",
    "prefecture": "埼玉県",
    "prefecture_kana": "サイタマケン",
    "prefecture_code": 11,
    "city": "鴻巣市",
    "city_kana": "コウノスシ",
    "town": "前砂",
    "town_kana": "マエスナ",
    "street": "１６０−１",
    "office_name": "富士電機　株式会社　生産技術センター　埼玉地区",
    "office_name_kana": "フジデンキ カブシキガイシヤ セイサンギジユツセンタ- サイタマチク"
  },
  "0201": {
    "postcode": "3690201",
    "prefecture": "埼玉県",
    "prefecture_kana": "サイタマケン",
    "prefecture_code": 11,
    "city": "深谷市",
    "city_kana": "フカヤシ",
    "town": "岡",
    "town_kana": "オカ",
    "street": null,
    "office_name": null,
    "office_name_kana": null
  },
  "0202": {
    "postcode": "3690202",
    "prefecture": "埼玉県",
    "prefecture_kana": "サイタマケン",
    "prefecture_code": 11,
    "city": "深谷市",
    "city_kana": "フカヤシ",
    "town": "岡里",
    "town_kana": "オカサト",
    "street": null,
    "office_name": null,
    "office_name_kana": null
  },
  "0203": {
    "postcode": "3690203",
    "prefecture": "埼玉県",
    "prefecture_kana": "サイタマケン",
    "prefecture_code": 11,
    "city": "深谷市",
    "city_kana": "フカヤシ",
    "town": "普済寺",
    "town_kana": "フサイジ",
    "street": null,
    "office_name": null,
    "office_name_kana": null
  },
  "0211": {
    "postcode": "3690211",
    "prefecture": "埼玉県",
    "prefecture_kana": "サイタマケン",
    "prefecture_code": 11,
    "city": "深谷市",
    "city_kana": "フカヤシ",
    "town": "岡部",
    "town_kana": "オカベ",
    "street": null,
    "office_name": null,
    "office_name_kana": null
  },
  "0212": {
    "postcode": "3690212",
    "prefecture": "埼玉県",
    "prefecture_kana": "サイタマケン",
    "prefecture_code": 11,
    "city": "深谷市",
    "city_kana": "フカヤシ",
    "town": "櫛挽",
    "town_kana": "クシビキ",
    "street": null,
    "office_name": null,
    "office_name_kana": null
  },
  "0213": {
    "postcode": "3690213",
    "prefecture": "埼玉県",
    "prefecture_kana": "サイタマケン",
    "prefecture_code": 11,
    "city": "深谷市",
    "city_kana": "フカヤシ",
    "town": "針ケ谷",
    "town_kana": "ハリガヤ",
    "street": null,
    "office_name": null,
    "office_name_kana": null
  },
  "0214": {
    "postcode": "3690214",
    "prefecture": "埼玉県",
    "prefecture_kana": "サイタマケン",
    "prefecture_code": 11,
    "city": "深谷市",
    "city_kana": "フカヤシ",
    "town": "本郷",
    "town_kana": "ホンゴウ",
    "street": null,
    "office_name": null,
    "office_name_kana": null
  },
  "0215": {
    "postcode": "3690215",
    "prefecture": "埼玉県",
    "prefecture_kana": "サイタマケン",
    "prefecture_code": 11,
    "city": "深谷市",
    "city_kana": "フカヤシ",
    "town": "今泉",
    "town_kana": "イマイズミ",
    "street": null,
    "office_name": null,
    "office_name_kana": null
  },
  "0216": {
    "postcode": "3690216",
    "prefecture": "埼玉県",
    "prefecture_kana": "サイタマケン",
    "prefecture_code": 11,
    "city": "深谷市",
    "city_kana": "フカヤシ",
    "town": "山崎",
    "town_kana": "ヤマザキ",
    "street": null,
    "office_name": null,
    "office_name_kana": null
  },
  "0217": {
    "postcode": "3690217",
    "prefecture": "埼玉県",
    "prefecture_kana": "サイタマケン",
    "prefecture_code": 11,
    "city": "深谷市",
    "city_kana": "フカヤシ",
    "town": "山河",
    "town_kana": "ヤマガ",
    "street": null,
    "office_name": null,
    "office_name_kana": null
  },
  "0221": {
    "postcode": "3690221",
    "prefecture": "埼玉県",
    "prefecture_kana": "サイタマケン",
    "prefecture_code": 11,
    "city": "深谷市",
    "city_kana": "フカヤシ",
    "town": "榛沢新田",
    "town_kana": "ハンザワシンデン",
    "street": null,
    "office_name": null,
    "office_name_kana": null
  },
  "0222": {
    "postcode": "3690222",
    "prefecture": "埼玉県",
    "prefecture_kana": "サイタマケン",
    "prefecture_code": 11,
    "city": "深谷市",
    "city_kana": "フカヤシ",
    "town": "後榛沢",
    "town_kana": "ウシロハンザワ",
    "street": null,
    "office_name": null,
    "office_name_kana": null
  },
  "0223": {
    "postcode": "3690223",
    "prefecture": "埼玉県",
    "prefecture_kana": "サイタマケン",
    "prefecture_code": 11,
    "city": "深谷市",
    "city_kana": "フカヤシ",
    "town": "榛沢",
    "town_kana": "ハンザワ",
    "street": null,
    "office_name": null,
    "office_name_kana": null
  },
  "0224": {
    "postcode": "3690224",
    "prefecture": "埼玉県",
    "prefecture_kana": "サイタマケン",
    "prefecture_code": 11,
    "city": "深谷市",
    "city_kana": "フカヤシ",
    "town": "西田",
    "town_kana": "ニシダ",
    "street": null,
    "office_name": null,
    "office_name_kana": null
  },
  "0225": {
    "postcode": "3690225",
    "prefecture": "埼玉県",
    "prefecture_kana": "サイタマケン",
    "prefecture_code": 11,
    "city": "深谷市",
    "city_kana": "フカヤシ",
    "town": "沓掛",
    "town_kana": "クツカケ",
    "street": null,
    "office_name": null,
    "office_name_kana": null
  },
  "0292": {
    "postcode": "3690292",
    "prefecture": "埼玉県",
    "prefecture_kana": "サイタマケン",
    "prefecture_code": 11,
    "city": "深谷市",
    "city_kana": "フカヤシ",
    "town": "岡",
    "town_kana": "オカ",
    "street": "２３８１−１",
    "office_name": "深谷市　岡部総合支所",
    "office_name_kana": "フカヤシ オカベソウゴウシシヨ"
  },
  "0293": {
    "postcode": "3690293",
    "prefecture": "埼玉県",
    "prefecture_kana": "サイタマケン",
    "prefecture_code": 11,
    "city": "深谷市",
    "city_kana": "フカヤシ",
    "town": "普済寺",
    "town_kana": "フサイジ",
    "street": "１６９０",
    "office_name": "埼玉工業大学",
    "office_name_kana": "サイタマコウギヨウダイガク"
  },
  "0295": {
    "postcode": "3690295",
    "prefecture": "埼玉県",
    "prefecture_kana": "サイタマケン",
    "prefecture_code": 11,
    "city": "深谷市",
    "city_kana": "フカヤシ",
    "town": "岡",
    "town_kana": "オカ",
    "street": "２０５８",
    "office_name": "リケンテクノス　株式会社",
    "office_name_kana": "リケンテクノス カブシキガイシヤ"
  },
  "0297": {
    "postcode": "3690297",
    "prefecture": "埼玉県",
    "prefecture_kana": "サイタマケン",
    "prefecture_code": 11,
    "city": "深谷市",
    "city_kana": "フカヤシ",
    "town": "岡",
    "town_kana": "オカ",
    "street": "２２００",
    "office_name": "日立化成　株式会社　埼玉事業所",
    "office_name_kana": "ヒタチカセイ カブシキガイシヤ サイタマジギヨウシヨ"
  },
  "0300": {
    "postcode": "3690300",
    "prefecture": "埼玉県",
    "prefecture_kana": "サイタマケン",
    "prefecture_code": 11,
    "city": "児玉郡上里町",
    "city_kana": "コダマグンカミサトマチ",
    "town": "",
    "town_kana": "",
    "street": null,
    "office_name": null,
    "office_name_kana": null
  },
  "0301": {
    "postcode": "3690301",
    "prefecture": "埼玉県",
    "prefecture_kana": "サイタマケン",
    "prefecture_code": 11,
    "city": "児玉郡上里町",
    "city_kana": "コダマグンカミサトマチ",
    "town": "金久保",
    "town_kana": "カナクボ",
    "street": null,
    "office_name": null,
    "office_name_kana": null
  },
  "0302": {
    "postcode": "3690302",
    "prefecture": "埼玉県",
    "prefecture_kana": "サイタマケン",
    "prefecture_code": 11,
    "city": "児玉郡上里町",
    "city_kana": "コダマグンカミサトマチ",
    "town": "黛",
    "town_kana": "マユズミ",
    "street": null,
    "office_name": null,
    "office_name_kana": null
  },
  "0303": {
    "postcode": "3690303",
    "prefecture": "埼玉県",
    "prefecture_kana": "サイタマケン",
    "prefecture_code": 11,
    "city": "児玉郡上里町",
    "city_kana": "コダマグンカミサトマチ",
    "town": "忍保",
    "town_kana": "オシボ",
    "street": null,
    "office_name": null,
    "office_name_kana": null
  },
  "0304": {
    "postcode": "3690304",
    "prefecture": "埼玉県",
    "prefecture_kana": "サイタマケン",
    "prefecture_code": 11,
    "city": "児玉郡上里町",
    "city_kana": "コダマグンカミサトマチ",
    "town": "八町河原",
    "town_kana": "ハッチョウガワラ",
    "street": null,
    "office_name": null,
    "office_name_kana": null
  },
  "0305": {
    "postcode": "3690305",
    "prefecture": "埼玉県",
    "prefecture_kana": "サイタマケン",
    "prefecture_code": 11,
    "city": "児玉郡上里町",
    "city_kana": "コダマグンカミサトマチ",
    "town": "神保原町",
    "town_kana": "ジンボハラマチ",
    "street": null,
    "office_name": null,
    "office_name_kana": null
  },
  "0306": {
    "postcode": "3690306",
    "prefecture": "埼玉県",
    "prefecture_kana": "サイタマケン",
    "prefecture_code": 11,
    "city": "児玉郡上里町",
    "city_kana": "コダマグンカミサトマチ",
    "town": "七本木",
    "town_kana": "シチホンギ",
    "street": null,
    "office_name": null,
    "office_name_kana": null
  },
  "0307": {
    "postcode": "3690307",
    "prefecture": "埼玉県",
    "prefecture_kana": "サイタマケン",
    "prefecture_code": 11,
    "city": "児玉郡上里町",
    "city_kana": "コダマグンカミサトマチ",
    "town": "嘉美",
    "town_kana": "カミ",
    "street": null,
    "office_name": null,
    "office_name_kana": null
  },
  "0308": {
    "postcode": "3690308",
    "prefecture": "埼玉県",
    "prefecture_kana": "サイタマケン",
    "prefecture_code": 11,
    "city": "児玉郡上里町",
    "city_kana": "コダマグンカミサトマチ",
    "town": "毘沙吐",
    "town_kana": "ビシャド",
    "street": null,
    "office_name": null,
    "office_name_kana": null
  },
  "0311": {
    "postcode": "3690311",
    "prefecture": "埼玉県",
    "prefecture_kana": "サイタマケン",
    "prefecture_code": 11,
    "city": "児玉郡上里町",
    "city_kana": "コダマグンカミサトマチ",
    "town": "勅使河原",
    "town_kana": "テシガワラ",
    "street": null,
    "office_name": null,
    "office_name_kana": null
  },
  "0312": {
    "postcode": "3690312",
    "prefecture": "埼玉県",
    "prefecture_kana": "サイタマケン",
    "prefecture_code": 11,
    "city": "児玉郡上里町",
    "city_kana": "コダマグンカミサトマチ",
    "town": "帯刀",
    "town_kana": "タテワキ",
    "street": null,
    "office_name": null,
    "office_name_kana": null
  },
  "0313": {
    "postcode": "3690313",
    "prefecture": "埼玉県",
    "prefecture_kana": "サイタマケン",
    "prefecture_code": 11,
    "city": "児玉郡上里町",
    "city_kana": "コダマグンカミサトマチ",
    "town": "堤",
    "town_kana": "ツツミ",
    "street": null,
    "office_name": null,
    "office_name_kana": null
  },
  "0314": {
    "postcode": "3690314",
    "prefecture": "埼玉県",
    "prefecture_kana": "サイタマケン",
    "prefecture_code": 11,
    "city": "児玉郡上里町",
    "city_kana": "コダマグンカミサトマチ",
    "town": "三町",
    "town_kana": "ミマチ",
    "street": null,
    "office_name": null,
    "office_name_kana": null
  },
  "0315": {
    "postcode": "3690315",
    "prefecture": "埼玉県",
    "prefecture_kana": "サイタマケン",
    "prefecture_code": 11,
    "city": "児玉郡上里町",
    "city_kana": "コダマグンカミサトマチ",
    "town": "大御堂",
    "town_kana": "オオミドウ",
    "street": null,
    "office_name": null,
    "office_name_kana": null
  },
  "0316": {
    "postcode": "3690316",
    "prefecture": "埼玉県",
    "prefecture_kana": "サイタマケン",
    "prefecture_code": 11,
    "city": "児玉郡上里町",
    "city_kana": "コダマグンカミサトマチ",
    "town": "長浜",
    "town_kana": "ナガハマ",
    "street": null,
    "office_name": null,
    "office_name_kana": null
  },
  "0317": {
    "postcode": "3690317",
    "prefecture": "埼玉県",
    "prefecture_kana": "サイタマケン",
    "prefecture_code": 11,
    "city": "児玉郡上里町",
    "city_kana": "コダマグンカミサトマチ",
    "town": "五明",
    "town_kana": "ゴミョウ",
    "street": null,
    "office_name": null,
    "office_name_kana": null
  },
  "0318": {
    "postcode": "3690318",
    "prefecture": "埼玉県",
    "prefecture_kana": "サイタマケン",
    "prefecture_code": 11,
    "city": "児玉郡上里町",
    "city_kana": "コダマグンカミサトマチ",
    "town": "藤木戸",
    "town_kana": "フジキド",
    "street": null,
    "office_name": null,
    "office_name_kana": null
  },
  "0392": {
    "postcode": "3690392",
    "prefecture": "埼玉県",
    "prefecture_kana": "サイタマケン",
    "prefecture_code": 11,
    "city": "児玉郡上里町",
    "city_kana": "コダマグンカミサトマチ",
    "town": "大字七本木",
    "town_kana": null,
    "street": "９８２",
    "office_name": "上里町役場",
    "office_name_kana": "カミサトマチヤクバ"
  },
  "0393": {
    "postcode": "3690393",
    "prefecture": "埼玉県",
    "prefecture_kana": "サイタマケン",
    "prefecture_code": 11,
    "city": "児玉郡上里町",
    "city_kana": "コダマグンカミサトマチ",
    "town": "大字七本木",
    "town_kana": null,
    "street": "３４６１−１",
    "office_name": "キヤノン・コンポーネンツ　株式会社",
    "office_name_kana": "キヤノン・コンポ-ネンツ カブシキガイシヤ"
  },
  "0395": {
    "postcode": "3690395",
    "prefecture": "埼玉県",
    "prefecture_kana": "サイタマケン",
    "prefecture_code": 11,
    "city": "児玉郡上里町",
    "city_kana": "コダマグンカミサトマチ",
    "town": "嘉美",
    "town_kana": "カミ",
    "street": "１６００番地",
    "office_name": "株式会社　日立ハイテクファインシステムズ",
    "office_name_kana": "カブシキカイシヤ ヒタチハイテクフアインシステムズ"
  },
  "1101": {
    "postcode": "3691101",
    "prefecture": "埼玉県",
    "prefecture_kana": "サイタマケン",
    "prefecture_code": 11,
    "city": "深谷市",
    "city_kana": "フカヤシ",
    "town": "長在家",
    "town_kana": "ナガザイケ",
    "street": null,
    "office_name": null,
    "office_name_kana": null
  },
  "1102": {
    "postcode": "3691102",
    "prefecture": "埼玉県",
    "prefecture_kana": "サイタマケン",
    "prefecture_code": 11,
    "city": "深谷市",
    "city_kana": "フカヤシ",
    "town": "瀬山",
    "town_kana": "セヤマ",
    "street": null,
    "office_name": null,
    "office_name_kana": null
  },
  "1103": {
    "postcode": "3691103",
    "prefecture": "埼玉県",
    "prefecture_kana": "サイタマケン",
    "prefecture_code": 11,
    "city": "深谷市",
    "city_kana": "フカヤシ",
    "town": "川本明戸",
    "town_kana": "カワモトアケト",
    "street": null,
    "office_name": null,
    "office_name_kana": null
  },
  "1104": {
    "postcode": "3691104",
    "prefecture": "埼玉県",
    "prefecture_kana": "サイタマケン",
    "prefecture_code": 11,
    "city": "深谷市",
    "city_kana": "フカヤシ",
    "town": "菅沼",
    "town_kana": "スガヌマ",
    "street": null,
    "office_name": null,
    "office_name_kana": null
  },
  "1105": {
    "postcode": "3691105",
    "prefecture": "埼玉県",
    "prefecture_kana": "サイタマケン",
    "prefecture_code": 11,
    "city": "深谷市",
    "city_kana": "フカヤシ",
    "town": "本田",
    "town_kana": "ホンダ",
    "street": null,
    "office_name": null,
    "office_name_kana": null
  },
  "1106": {
    "postcode": "3691106",
    "prefecture": "埼玉県",
    "prefecture_kana": "サイタマケン",
    "prefecture_code": 11,
    "city": "深谷市",
    "city_kana": "フカヤシ",
    "town": "白草台",
    "town_kana": "シラクサダイ",
    "street": null,
    "office_name": null,
    "office_name_kana": null
  },
  "1107": {
    "postcode": "3691107",
    "prefecture": "埼玉県",
    "prefecture_kana": "サイタマケン",
    "prefecture_code": 11,
    "city": "深谷市",
    "city_kana": "フカヤシ",
    "town": "畠山",
    "town_kana": "ハタケヤマ",
    "street": null,
    "office_name": null,
    "office_name_kana": null
  },
  "1108": {
    "postcode": "3691108",
    "prefecture": "埼玉県",
    "prefecture_kana": "サイタマケン",
    "prefecture_code": 11,
    "city": "深谷市",
    "city_kana": "フカヤシ",
    "town": "田中",
    "town_kana": "タナカ",
    "street": null,
    "office_name": null,
    "office_name_kana": null
  },
  "1109": {
    "postcode": "3691109",
    "prefecture": "埼玉県",
    "prefecture_kana": "サイタマケン",
    "prefecture_code": 11,
    "city": "深谷市",
    "city_kana": "フカヤシ",
    "town": "上原",
    "town_kana": "カミハラ",
    "street": null,
    "office_name": null,
    "office_name_kana": null
  },
  "1111": {
    "postcode": "3691111",
    "prefecture": "埼玉県",
    "prefecture_kana": "サイタマケン",
    "prefecture_code": 11,
    "city": "深谷市",
    "city_kana": "フカヤシ",
    "town": "武川",
    "town_kana": "タケカワ",
    "street": null,
    "office_name": null,
    "office_name_kana": null
  },
  "1192": {
    "postcode": "3691192",
    "prefecture": "埼玉県",
    "prefecture_kana": "サイタマケン",
    "prefecture_code": 11,
    "city": "深谷市",
    "city_kana": "フカヤシ",
    "town": "菅沼",
    "town_kana": "スガヌマ",
    "street": "４０１",
    "office_name": "深谷市　川本総合支所",
    "office_name_kana": "フカヤシ カワモトソウゴウシシヨ"
  },
  "1193": {
    "postcode": "3691193",
    "prefecture": "埼玉県",
    "prefecture_kana": "サイタマケン",
    "prefecture_code": 11,
    "city": "深谷市",
    "city_kana": "フカヤシ",
    "town": "長在家",
    "town_kana": "ナガザイケ",
    "street": "２０５０",
    "office_name": "ＫＹＢ　株式会社　熊谷工場",
    "office_name_kana": "ケ-ワイビ- カブシキガイシヤ クマガヤコウジヨウ"
  },
  "1195": {
    "postcode": "3691195",
    "prefecture": "埼玉県",
    "prefecture_kana": "サイタマケン",
    "prefecture_code": 11,
    "city": "深谷市",
    "city_kana": "フカヤシ",
    "town": "白草台",
    "town_kana": "シラクサダイ",
    "street": "１５６５−１５",
    "office_name": "米久デリカ　株式会社",
    "office_name_kana": "ヨネキユウデリカ カブシキガイシヤ"
  },
  "1200": {
    "postcode": "3691200",
    "prefecture": "埼玉県",
    "prefecture_kana": "サイタマケン",
    "prefecture_code": 11,
    "city": "大里郡寄居町",
    "city_kana": "オオサトグンヨリイマチ",
    "town": "",
    "town_kana": "",
    "street": null,
    "office_name": null,
    "office_name_kana": null
  },
  "1201": {
    "postcode": "3691201",
    "prefecture": "埼玉県",
    "prefecture_kana": "サイタマケン",
    "prefecture_code": 11,
    "city": "大里郡寄居町",
    "city_kana": "オオサトグンヨリイマチ",
    "town": "用土",
    "town_kana": "ヨウド",
    "street": null,
    "office_name": null,
    "office_name_kana": null
  },
  "1202": {
    "postcode": "3691202",
    "prefecture": "埼玉県",
    "prefecture_kana": "サイタマケン",
    "prefecture_code": 11,
    "city": "大里郡寄居町",
    "city_kana": "オオサトグンヨリイマチ",
    "town": "桜沢",
    "town_kana": "サクラザワ",
    "street": null,
    "office_name": null,
    "office_name_kana": null
  },
  "1203": {
    "postcode": "3691203",
    "prefecture": "埼玉県",
    "prefecture_kana": "サイタマケン",
    "prefecture_code": 11,
    "city": "大里郡寄居町",
    "city_kana": "オオサトグンヨリイマチ",
    "town": "寄居",
    "town_kana": "ヨリイ",
    "street": null,
    "office_name": null,
    "office_name_kana": null
  },
  "1204": {
    "postcode": "3691204",
    "prefecture": "埼玉県",
    "prefecture_kana": "サイタマケン",
    "prefecture_code": 11,
    "city": "大里郡寄居町",
    "city_kana": "オオサトグンヨリイマチ",
    "town": "藤田",
    "town_kana": "フジタ",
    "street": null,
    "office_name": null,
    "office_name_kana": null
  },
  "1205": {
    "postcode": "3691205",
    "prefecture": "埼玉県",
    "prefecture_kana": "サイタマケン",
    "prefecture_code": 11,
    "city": "大里郡寄居町",
    "city_kana": "オオサトグンヨリイマチ",
    "town": "末野",
    "town_kana": "スエノ",
    "street": null,
    "office_name": null,
    "office_name_kana": null
  },
  "1211": {
    "postcode": "3691211",
    "prefecture": "埼玉県",
    "prefecture_kana": "サイタマケン",
    "prefecture_code": 11,
    "city": "大里郡寄居町",
    "city_kana": "オオサトグンヨリイマチ",
    "town": "赤浜",
    "town_kana": "アカハマ",
    "street": null,
    "office_name": null,
    "office_name_kana": null
  },
  "1212": {
    "postcode": "3691212",
    "prefecture": "埼玉県",
    "prefecture_kana": "サイタマケン",
    "prefecture_code": 11,
    "city": "大里郡寄居町",
    "city_kana": "オオサトグンヨリイマチ",
    "town": "西古里",
    "town_kana": "ニシフルサト",
    "street": null,
    "office_name": null,
    "office_name_kana": null
  },
  "1213": {
    "postcode": "3691213",
    "prefecture": "埼玉県",
    "prefecture_kana": "サイタマケン",
    "prefecture_code": 11,
    "city": "大里郡寄居町",
    "city_kana": "オオサトグンヨリイマチ",
    "town": "鷹巣",
    "town_kana": "タカノス",
    "street": null,
    "office_name": null,
    "office_name_kana": null
  },
  "1214": {
    "postcode": "3691214",
    "prefecture": "埼玉県",
    "prefecture_kana": "サイタマケン",
    "prefecture_code": 11,
    "city": "大里郡寄居町",
    "city_kana": "オオサトグンヨリイマチ",
    "town": "今市",
    "town_kana": "イマイチ",
    "street": null,
    "office_name": null,
    "office_name_kana": null
  },
  "1215": {
    "postcode": "3691215",
    "prefecture": "埼玉県",
    "prefecture_kana": "サイタマケン",
    "prefecture_code": 11,
    "city": "大里郡寄居町",
    "city_kana": "オオサトグンヨリイマチ",
    "town": "牟礼",
    "town_kana": "ムレイ",
    "street": null,
    "office_name": null,
    "office_name_kana": null
  },
  "1216": {
    "postcode": "3691216",
    "prefecture": "埼玉県",
    "prefecture_kana": "サイタマケン",
    "prefecture_code": 11,
    "city": "大里郡寄居町",
    "city_kana": "オオサトグンヨリイマチ",
    "town": "富田",
    "town_kana": "トミダ",
    "street": null,
    "office_name": null,
    "office_name_kana": null
  },
  "1217": {
    "postcode": "3691217",
    "prefecture": "埼玉県",
    "prefecture_kana": "サイタマケン",
    "prefecture_code": 11,
    "city": "大里郡寄居町",
    "city_kana": "オオサトグンヨリイマチ",
    "town": "小園",
    "town_kana": "コゾノ",
    "street": null,
    "office_name": null,
    "office_name_kana": null
  },
  "1221": {
    "postcode": "3691221",
    "prefecture": "埼玉県",
    "prefecture_kana": "サイタマケン",
    "prefecture_code": 11,
    "city": "大里郡寄居町",
    "city_kana": "オオサトグンヨリイマチ",
    "town": "保田原",
    "town_kana": "ホダワラ",
    "street": null,
    "office_name": null,
    "office_name_kana": null
  },
  "1222": {
    "postcode": "3691222",
    "prefecture": "埼玉県",
    "prefecture_kana": "サイタマケン",
    "prefecture_code": 11,
    "city": "大里郡寄居町",
    "city_kana": "オオサトグンヨリイマチ",
    "town": "露梨子",
    "town_kana": "ツユナシ",
    "street": null,
    "office_name": null,
    "office_name_kana": null
  },
  "1223": {
    "postcode": "3691223",
    "prefecture": "埼玉県",
    "prefecture_kana": "サイタマケン",
    "prefecture_code": 11,
    "city": "大里郡寄居町",
    "city_kana": "オオサトグンヨリイマチ",
    "town": "三ケ山",
    "town_kana": "ミカヤマ",
    "street": null,
    "office_name": null,
    "office_name_kana": null
  },
  "1224": {
    "postcode": "3691224",
    "prefecture": "埼玉県",
    "prefecture_kana": "サイタマケン",
    "prefecture_code": 11,
    "city": "大里郡寄居町",
    "city_kana": "オオサトグンヨリイマチ",
    "town": "鉢形",
    "town_kana": "ハチガタ",
    "street": null,
    "office_name": null,
    "office_name_kana": null
  },
  "1225": {
    "postcode": "3691225",
    "prefecture": "埼玉県",
    "prefecture_kana": "サイタマケン",
    "prefecture_code": 11,
    "city": "大里郡寄居町",
    "city_kana": "オオサトグンヨリイマチ",
    "town": "西ノ入",
    "town_kana": "ニシノイリ",
    "street": null,
    "office_name": null,
    "office_name_kana": null
  },
  "1231": {
    "postcode": "3691231",
    "prefecture": "埼玉県",
    "prefecture_kana": "サイタマケン",
    "prefecture_code": 11,
    "city": "大里郡寄居町",
    "city_kana": "オオサトグンヨリイマチ",
    "town": "立原",
    "town_kana": "タテハラ",
    "street": null,
    "office_name": null,
    "office_name_kana": null
  },
  "1232": {
    "postcode": "3691232",
    "prefecture": "埼玉県",
    "prefecture_kana": "サイタマケン",
    "prefecture_code": 11,
    "city": "大里郡寄居町",
    "city_kana": "オオサトグンヨリイマチ",
    "town": "三品",
    "town_kana": "ミシナ",
    "street": null,
    "office_name": null,
    "office_name_kana": null
  },
  "1233": {
    "postcode": "3691233",
    "prefecture": "埼玉県",
    "prefecture_kana": "サイタマケン",
    "prefecture_code": 11,
    "city": "大里郡寄居町",
    "city_kana": "オオサトグンヨリイマチ",
    "town": "秋山",
    "town_kana": "アキヤマ",
    "street": null,
    "office_name": null,
    "office_name_kana": null
  },
  "1234": {
    "postcode": "3691234",
    "prefecture": "埼玉県",
    "prefecture_kana": "サイタマケン",
    "prefecture_code": 11,
    "city": "大里郡寄居町",
    "city_kana": "オオサトグンヨリイマチ",
    "town": "折原",
    "town_kana": "オリハラ",
    "street": null,
    "office_name": null,
    "office_name_kana": null
  },
  "1235": {
    "postcode": "3691235",
    "prefecture": "埼玉県",
    "prefecture_kana": "サイタマケン",
    "prefecture_code": 11,
    "city": "大里郡寄居町",
    "city_kana": "オオサトグンヨリイマチ",
    "town": "風布",
    "town_kana": "フウプ",
    "street": null,
    "office_name": null,
    "office_name_kana": null
  },
  "1236": {
    "postcode": "3691236",
    "prefecture": "埼玉県",
    "prefecture_kana": "サイタマケン",
    "prefecture_code": 11,
    "city": "大里郡寄居町",
    "city_kana": "オオサトグンヨリイマチ",
    "town": "金尾",
    "town_kana": "カナオ",
    "street": null,
    "office_name": null,
    "office_name_kana": null
  },
  "1241": {
    "postcode": "3691241",
    "prefecture": "埼玉県",
    "prefecture_kana": "サイタマケン",
    "prefecture_code": 11,
    "city": "深谷市",
    "city_kana": "フカヤシ",
    "town": "武蔵野",
    "town_kana": "ムサシノ",
    "street": null,
    "office_name": null,
    "office_name_kana": null
  },
  "1242": {
    "postcode": "3691242",
    "prefecture": "埼玉県",
    "prefecture_kana": "サイタマケン",
    "prefecture_code": 11,
    "city": "深谷市",
    "city_kana": "フカヤシ",
    "town": "北根",
    "town_kana": "キタネ",
    "street": null,
    "office_name": null,
    "office_name_kana": null
  },
  "1243": {
    "postcode": "3691243",
    "prefecture": "埼玉県",
    "prefecture_kana": "サイタマケン",
    "prefecture_code": 11,
    "city": "深谷市",
    "city_kana": "フカヤシ",
    "town": "永田",
    "town_kana": "ナガタ",
    "street": null,
    "office_name": null,
    "office_name_kana": null
  },
  "1244": {
    "postcode": "3691244",
    "prefecture": "埼玉県",
    "prefecture_kana": "サイタマケン",
    "prefecture_code": 11,
    "city": "深谷市",
    "city_kana": "フカヤシ",
    "town": "黒田",
    "town_kana": "クロダ",
    "street": null,
    "office_name": null,
    "office_name_kana": null
  },
  "1245": {
    "postcode": "3691245",
    "prefecture": "埼玉県",
    "prefecture_kana": "サイタマケン",
    "prefecture_code": 11,
    "city": "深谷市",
    "city_kana": "フカヤシ",
    "town": "荒川",
    "town_kana": "アラカワ",
    "street": null,
    "office_name": null,
    "office_name_kana": null
  },
  "1246": {
    "postcode": "3691246",
    "prefecture": "埼玉県",
    "prefecture_kana": "サイタマケン",
    "prefecture_code": 11,
    "city": "深谷市",
    "city_kana": "フカヤシ",
    "town": "小前田",
    "town_kana": "オマエダ",
    "street": null,
    "office_name": null,
    "office_name_kana": null
  },
  "1247": {
    "postcode": "3691247",
    "prefecture": "埼玉県",
    "prefecture_kana": "サイタマケン",
    "prefecture_code": 11,
    "city": "深谷市",
    "city_kana": "フカヤシ",
    "town": "緑台",
    "town_kana": "ミドリダイ",
    "street": null,
    "office_name": null,
    "office_name_kana": null
  },
  "1248": {
    "postcode": "3691248",
    "prefecture": "埼玉県",
    "prefecture_kana": "サイタマケン",
    "prefecture_code": 11,
    "city": "深谷市",
    "city_kana": "フカヤシ",
    "town": "花園",
    "town_kana": "ハナゾノ",
    "street": null,
    "office_name": null,
    "office_name_kana": null
  },
  "1292": {
    "postcode": "3691292",
    "prefecture": "埼玉県",
    "prefecture_kana": "サイタマケン",
    "prefecture_code": 11,
    "city": "大里郡寄居町",
    "city_kana": "オオサトグンヨリイマチ",
    "town": "大字寄居",
    "town_kana": null,
    "street": "１１８０−１",
    "office_name": "寄居町役場",
    "office_name_kana": "ヨリイマチヤクバ"
  },
  "1293": {
    "postcode": "3691293",
    "prefecture": "埼玉県",
    "prefecture_kana": "サイタマケン",
    "prefecture_code": 11,
    "city": "深谷市",
    "city_kana": "フカヤシ",
    "town": "小前田",
    "town_kana": "オマエダ",
    "street": "２３４５",
    "office_name": "深谷市　花園総合支所",
    "office_name_kana": "フカヤシ ハナゾノソウゴウシシヨ"
  },
  "1295": {
    "postcode": "3691295",
    "prefecture": "埼玉県",
    "prefecture_kana": "サイタマケン",
    "prefecture_code": 11,
    "city": "深谷市",
    "city_kana": "フカヤシ",
    "town": "小前田",
    "town_kana": "オマエダ",
    "street": "１７２８−１",
    "office_name": "三菱電機ホーム機器　（株）",
    "office_name_kana": "ミツビシデンキホ-ムキキ (カブ)"
  },
  "1298": {
    "postcode": "3691298",
    "prefecture": "埼玉県",
    "prefecture_kana": "サイタマケン",
    "prefecture_code": 11,
    "city": "大里郡寄居町",
    "city_kana": "オオサトグンヨリイマチ",
    "town": "大字用土",
    "town_kana": null,
    "street": "５４５６",
    "office_name": "株式会社　ベルク",
    "office_name_kana": "カブシキガイシヤ ベルク"
  },
  "1300": {
    "postcode": "3691300",
    "prefecture": "埼玉県",
    "prefecture_kana": "サイタマケン",
    "prefecture_code": 11,
    "city": "秩父郡長瀞町",
    "city_kana": "チチブグンナガトロマチ",
    "town": "",
    "town_kana": "",
    "street": null,
    "office_name": null,
    "office_name_kana": null
  },
  "1301": {
    "postcode": "3691301",
    "prefecture": "埼玉県",
    "prefecture_kana": "サイタマケン",
    "prefecture_code": 11,
    "city": "秩父郡長瀞町",
    "city_kana": "チチブグンナガトロマチ",
    "town": "矢那瀬",
    "town_kana": "ヤナセ",
    "street": null,
    "office_name": null,
    "office_name_kana": null
  },
  "1302": {
    "postcode": "3691302",
    "prefecture": "埼玉県",
    "prefecture_kana": "サイタマケン",
    "prefecture_code": 11,
    "city": "秩父郡長瀞町",
    "city_kana": "チチブグンナガトロマチ",
    "town": "野上下郷",
    "town_kana": "ノガミシモゴウ",
    "street": null,
    "office_name": null,
    "office_name_kana": null
  },
  "1303": {
    "postcode": "3691303",
    "prefecture": "埼玉県",
    "prefecture_kana": "サイタマケン",
    "prefecture_code": 11,
    "city": "秩父郡長瀞町",
    "city_kana": "チチブグンナガトロマチ",
    "town": "中野上",
    "town_kana": "ナカノガミ",
    "street": null,
    "office_name": null,
    "office_name_kana": null
  },
  "1304": {
    "postcode": "3691304",
    "prefecture": "埼玉県",
    "prefecture_kana": "サイタマケン",
    "prefecture_code": 11,
    "city": "秩父郡長瀞町",
    "city_kana": "チチブグンナガトロマチ",
    "town": "本野上",
    "town_kana": "ホンノガミ",
    "street": null,
    "office_name": null,
    "office_name_kana": null
  },
  "1305": {
    "postcode": "3691305",
    "prefecture": "埼玉県",
    "prefecture_kana": "サイタマケン",
    "prefecture_code": 11,
    "city": "秩父郡長瀞町",
    "city_kana": "チチブグンナガトロマチ",
    "town": "長瀞",
    "town_kana": "ナガトロ",
    "street": null,
    "office_name": null,
    "office_name_kana": null
  },
  "1311": {
    "postcode": "3691311",
    "prefecture": "埼玉県",
    "prefecture_kana": "サイタマケン",
    "prefecture_code": 11,
    "city": "秩父郡長瀞町",
    "city_kana": "チチブグンナガトロマチ",
    "town": "岩田",
    "town_kana": "イワタ",
    "street": null,
    "office_name": null,
    "office_name_kana": null
  },
  "1312": {
    "postcode": "3691312",
    "prefecture": "埼玉県",
    "prefecture_kana": "サイタマケン",
    "prefecture_code": 11,
    "city": "秩父郡長瀞町",
    "city_kana": "チチブグンナガトロマチ",
    "town": "井戸",
    "town_kana": "イド",
    "street": null,
    "office_name": null,
    "office_name_kana": null
  },
  "1313": {
    "postcode": "3691313",
    "prefecture": "埼玉県",
    "prefecture_kana": "サイタマケン",
    "prefecture_code": 11,
    "city": "秩父郡長瀞町",
    "city_kana": "チチブグンナガトロマチ",
    "town": "風布",
    "town_kana": "フウプ",
    "street": null,
    "office_name": null,
    "office_name_kana": null
  },
  "1392": {
    "postcode": "3691392",
    "prefecture": "埼玉県",
    "prefecture_kana": "サイタマケン",
    "prefecture_code": 11,
    "city": "秩父郡長瀞町",
    "city_kana": "チチブグンナガトロマチ",
    "town": "大字本野上",
    "town_kana": null,
    "street": "１０３５−１",
    "office_name": "長瀞町役場",
    "office_name_kana": "ナガトロマチヤクバ"
  },
  "1400": {
    "postcode": "3691400",
    "prefecture": "埼玉県",
    "prefecture_kana": "サイタマケン",
    "prefecture_code": 11,
    "city": "秩父郡皆野町",
    "city_kana": "チチブグンミナノマチ",
    "town": "",
    "town_kana": "",
    "street": null,
    "office_name": null,
    "office_name_kana": null
  },
  "1411": {
    "postcode": "3691411",
    "prefecture": "埼玉県",
    "prefecture_kana": "サイタマケン",
    "prefecture_code": 11,
    "city": "秩父郡皆野町",
    "city_kana": "チチブグンミナノマチ",
    "town": "三沢",
    "town_kana": "ミサワ",
    "street": null,
    "office_name": null,
    "office_name_kana": null
  },
  "1412": {
    "postcode": "3691412",
    "prefecture": "埼玉県",
    "prefecture_kana": "サイタマケン",
    "prefecture_code": 11,
    "city": "秩父郡皆野町",
    "city_kana": "チチブグンミナノマチ",
    "town": "皆野",
    "town_kana": "ミナノ",
    "street": null,
    "office_name": null,
    "office_name_kana": null
  },
  "1413": {
    "postcode": "3691413",
    "prefecture": "埼玉県",
    "prefecture_kana": "サイタマケン",
    "prefecture_code": 11,
    "city": "秩父郡皆野町",
    "city_kana": "チチブグンミナノマチ",
    "town": "下田野",
    "town_kana": "シモタノ",
    "street": null,
    "office_name": null,
    "office_name_kana": null
  },
  "1492": {
    "postcode": "3691492",
    "prefecture": "埼玉県",
    "prefecture_kana": "サイタマケン",
    "prefecture_code": 11,
    "city": "秩父郡皆野町",
    "city_kana": "チチブグンミナノマチ",
    "town": "大字皆野",
    "town_kana": null,
    "street": "１４２０−１",
    "office_name": "皆野町役場",
    "office_name_kana": "ミナノマチヤクバ"
  },
  "1501": {
    "postcode": "3691501",
    "prefecture": "埼玉県",
    "prefecture_kana": "サイタマケン",
    "prefecture_code": 11,
    "city": "秩父市",
    "city_kana": "チチブシ",
    "town": "吉田久長",
    "town_kana": "ヨシダヒサナガ",
    "street": null,
    "office_name": null,
    "office_name_kana": null
  },
  "1502": {
    "postcode": "3691502",
    "prefecture": "埼玉県",
    "prefecture_kana": "サイタマケン",
    "prefecture_code": 11,
    "city": "秩父市",
    "city_kana": "チチブシ",
    "town": "吉田阿熊",
    "town_kana": "ヨシダアグマ",
    "street": null,
    "office_name": null,
    "office_name_kana": null
  },
  "1503": {
    "postcode": "3691503",
    "prefecture": "埼玉県",
    "prefecture_kana": "サイタマケン",
    "prefecture_code": 11,
    "city": "秩父市",
    "city_kana": "チチブシ",
    "town": "下吉田",
    "town_kana": "シモヨシダ",
    "street": null,
    "office_name": null,
    "office_name_kana": null
  },
  "1504": {
    "postcode": "3691504",
    "prefecture": "埼玉県",
    "prefecture_kana": "サイタマケン",
    "prefecture_code": 11,
    "city": "秩父市",
    "city_kana": "チチブシ",
    "town": "吉田石間",
    "town_kana": "ヨシダイサマ",
    "street": null,
    "office_name": null,
    "office_name_kana": null
  },
  "1505": {
    "postcode": "3691505",
    "prefecture": "埼玉県",
    "prefecture_kana": "サイタマケン",
    "prefecture_code": 11,
    "city": "秩父市",
    "city_kana": "チチブシ",
    "town": "上吉田",
    "town_kana": "カミヨシダ",
    "street": null,
    "office_name": null,
    "office_name_kana": null
  },
  "1592": {
    "postcode": "3691592",
    "prefecture": "埼玉県",
    "prefecture_kana": "サイタマケン",
    "prefecture_code": 11,
    "city": "秩父市",
    "city_kana": "チチブシ",
    "town": "下吉田",
    "town_kana": "シモヨシダ",
    "street": "６５８５−２",
    "office_name": "秩父市役所　吉田総合支所",
    "office_name_kana": "チチブシヤクシヨ ヨシダソウゴウシシヨ"
  },
  "1593": {
    "postcode": "3691593",
    "prefecture": "埼玉県",
    "prefecture_kana": "サイタマケン",
    "prefecture_code": 11,
    "city": "秩父市",
    "city_kana": "チチブシ",
    "town": "下吉田",
    "town_kana": "シモヨシダ",
    "street": "６９７２",
    "office_name": "株式会社　タイセー",
    "office_name_kana": "カブシキガイシヤ タイセ-"
  },
  "1596": {
    "postcode": "3691596",
    "prefecture": "埼玉県",
    "prefecture_kana": "サイタマケン",
    "prefecture_code": 11,
    "city": "秩父市",
    "city_kana": "チチブシ",
    "town": "下吉田",
    "town_kana": "シモヨシダ",
    "street": "８３７１−３",
    "office_name": "株式会社　善山ＪＡＰＡＮ　ユニオンエースゴルフクラブ　ホテルユニオンヴェール",
    "office_name_kana": "カブシキガイシヤ ソンサンジヤパン ユニオンエ-スゴルフクラブ ホテルユニオンヴエ-ル"
  },
  "1601": {
    "postcode": "3691601",
    "prefecture": "埼玉県",
    "prefecture_kana": "サイタマケン",
    "prefecture_code": 11,
    "city": "秩父郡皆野町",
    "city_kana": "チチブグンミナノマチ",
    "town": "金沢",
    "town_kana": "カネザワ",
    "street": null,
    "office_name": null,
    "office_name_kana": null
  },
  "1621": {
    "postcode": "3691621",
    "prefecture": "埼玉県",
    "prefecture_kana": "サイタマケン",
    "prefecture_code": 11,
    "city": "秩父郡皆野町",
    "city_kana": "チチブグンミナノマチ",
    "town": "金崎",
    "town_kana": "カナサキ",
    "street": null,
    "office_name": null,
    "office_name_kana": null
  },
  "1622": {
    "postcode": "3691622",
    "prefecture": "埼玉県",
    "prefecture_kana": "サイタマケン",
    "prefecture_code": 11,
    "city": "秩父郡皆野町",
    "city_kana": "チチブグンミナノマチ",
    "town": "国神",
    "town_kana": "クニカミ",
    "street": null,
    "office_name": null,
    "office_name_kana": null
  },
  "1623": {
    "postcode": "3691623",
    "prefecture": "埼玉県",
    "prefecture_kana": "サイタマケン",
    "prefecture_code": 11,
    "city": "秩父郡皆野町",
    "city_kana": "チチブグンミナノマチ",
    "town": "大淵",
    "town_kana": "オオフチ",
    "street": null,
    "office_name": null,
    "office_name_kana": null
  },
  "1624": {
    "postcode": "3691624",
    "prefecture": "埼玉県",
    "prefecture_kana": "サイタマケン",
    "prefecture_code": 11,
    "city": "秩父郡皆野町",
    "city_kana": "チチブグンミナノマチ",
    "town": "野巻",
    "town_kana": "ノマキ",
    "street": null,
    "office_name": null,
    "office_name_kana": null
  },
  "1625": {
    "postcode": "3691625",
    "prefecture": "埼玉県",
    "prefecture_kana": "サイタマケン",
    "prefecture_code": 11,
    "city": "秩父郡皆野町",
    "city_kana": "チチブグンミナノマチ",
    "town": "下日野沢",
    "town_kana": "シモヒノザワ",
    "street": null,
    "office_name": null,
    "office_name_kana": null
  },
  "1626": {
    "postcode": "3691626",
    "prefecture": "埼玉県",
    "prefecture_kana": "サイタマケン",
    "prefecture_code": 11,
    "city": "秩父郡皆野町",
    "city_kana": "チチブグンミナノマチ",
    "town": "上日野沢",
    "town_kana": "カミヒノザワ",
    "street": null,
    "office_name": null,
    "office_name_kana": null
  },
  "1801": {
    "postcode": "3691801",
    "prefecture": "埼玉県",
    "prefecture_kana": "サイタマケン",
    "prefecture_code": 11,
    "city": "秩父市",
    "city_kana": "チチブシ",
    "town": "荒川久那",
    "town_kana": "アラカワクナ",
    "street": null,
    "office_name": null,
    "office_name_kana": null
  },
  "1802": {
    "postcode": "3691802",
    "prefecture": "埼玉県",
    "prefecture_kana": "サイタマケン",
    "prefecture_code": 11,
    "city": "秩父市",
    "city_kana": "チチブシ",
    "town": "荒川上田野",
    "town_kana": "アラカワカミタノ",
    "street": null,
    "office_name": null,
    "office_name_kana": null
  },
  "1803": {
    "postcode": "3691803",
    "prefecture": "埼玉県",
    "prefecture_kana": "サイタマケン",
    "prefecture_code": 11,
    "city": "秩父市",
    "city_kana": "チチブシ",
    "town": "荒川日野",
    "town_kana": "アラカワヒノ",
    "street": null,
    "office_name": null,
    "office_name_kana": null
  },
  "1804": {
    "postcode": "3691804",
    "prefecture": "埼玉県",
    "prefecture_kana": "サイタマケン",
    "prefecture_code": 11,
    "city": "秩父市",
    "city_kana": "チチブシ",
    "town": "荒川小野原",
    "town_kana": "アラカワオノバラ",
    "street": null,
    "office_name": null,
    "office_name_kana": null
  },
  "1871": {
    "postcode": "3691871",
    "prefecture": "埼玉県",
    "prefecture_kana": "サイタマケン",
    "prefecture_code": 11,
    "city": "秩父市",
    "city_kana": "チチブシ",
    "town": "下影森",
    "town_kana": "シモカゲモリ",
    "street": null,
    "office_name": null,
    "office_name_kana": null
  },
  "1872": {
    "postcode": "3691872",
    "prefecture": "埼玉県",
    "prefecture_kana": "サイタマケン",
    "prefecture_code": 11,
    "city": "秩父市",
    "city_kana": "チチブシ",
    "town": "上影森",
    "town_kana": "カミカゲモリ",
    "street": null,
    "office_name": null,
    "office_name_kana": null
  },
  "1873": {
    "postcode": "3691873",
    "prefecture": "埼玉県",
    "prefecture_kana": "サイタマケン",
    "prefecture_code": 11,
    "city": "秩父市",
    "city_kana": "チチブシ",
    "town": "浦山",
    "town_kana": "ウラヤマ",
    "street": null,
    "office_name": null,
    "office_name_kana": null
  },
  "1874": {
    "postcode": "3691874",
    "prefecture": "埼玉県",
    "prefecture_kana": "サイタマケン",
    "prefecture_code": 11,
    "city": "秩父市",
    "city_kana": "チチブシ",
    "town": "和泉町",
    "town_kana": "イズミチョウ",
    "street": null,
    "office_name": null,
    "office_name_kana": null
  },
  "1892": {
    "postcode": "3691892",
    "prefecture": "埼玉県",
    "prefecture_kana": "サイタマケン",
    "prefecture_code": 11,
    "city": "秩父市",
    "city_kana": "チチブシ",
    "town": "下影森",
    "town_kana": "シモカゲモリ",
    "street": "１２４８",
    "office_name": "キヤノン電子　株式会社　本社影森工場",
    "office_name_kana": "キヤノンデンシ カブシキガイシヤ ホンシヤカゲモリコウジヨウ"
  },
  "1893": {
    "postcode": "3691893",
    "prefecture": "埼玉県",
    "prefecture_kana": "サイタマケン",
    "prefecture_code": 11,
    "city": "秩父市",
    "city_kana": "チチブシ",
    "town": "下影森",
    "town_kana": "シモカゲモリ",
    "street": "１５０５",
    "office_name": "昭和電工　株式会社　秩父工場",
    "office_name_kana": "シヨウワデンコウ カブシキガイシヤ チチブコウジヨウ"
  },
  "1894": {
    "postcode": "3691894",
    "prefecture": "埼玉県",
    "prefecture_kana": "サイタマケン",
    "prefecture_code": 11,
    "city": "秩父市",
    "city_kana": "チチブシ",
    "town": "荒川上田野",
    "town_kana": "アラカワカミタノ",
    "street": "１７３４−６",
    "office_name": "秩父市役所　荒川総合支所",
    "office_name_kana": "チチブシヤクシヨ アラカワソウゴウシシヨ"
  },
  "1895": {
    "postcode": "3691895",
    "prefecture": "埼玉県",
    "prefecture_kana": "サイタマケン",
    "prefecture_code": 11,
    "city": "秩父市",
    "city_kana": "チチブシ",
    "town": "下影森",
    "town_kana": "シモカゲモリ",
    "street": "１８１",
    "office_name": "株式会社　ウッディーコイケ",
    "office_name_kana": "カブシキガイシヤ ウツデイ-コイケ"
  },
  "1901": {
    "postcode": "3691901",
    "prefecture": "埼玉県",
    "prefecture_kana": "サイタマケン",
    "prefecture_code": 11,
    "city": "秩父市",
    "city_kana": "チチブシ",
    "town": "大滝",
    "town_kana": "オオタキ",
    "street": null,
    "office_name": null,
    "office_name_kana": null
  },
  "1902": {
    "postcode": "3691902",
    "prefecture": "埼玉県",
    "prefecture_kana": "サイタマケン",
    "prefecture_code": 11,
    "city": "秩父市",
    "city_kana": "チチブシ",
    "town": "三峰",
    "town_kana": "ミツミネ",
    "street": null,
    "office_name": null,
    "office_name_kana": null
  },
  "1903": {
    "postcode": "3691903",
    "prefecture": "埼玉県",
    "prefecture_kana": "サイタマケン",
    "prefecture_code": 11,
    "city": "秩父市",
    "city_kana": "チチブシ",
    "town": "中津川",
    "town_kana": "ナカツガワ",
    "street": null,
    "office_name": null,
    "office_name_kana": null
  },
  "1911": {
    "postcode": "3691911",
    "prefecture": "埼玉県",
    "prefecture_kana": "サイタマケン",
    "prefecture_code": 11,
    "city": "秩父市",
    "city_kana": "チチブシ",
    "town": "荒川贄川",
    "town_kana": "アラカワニエガワ",
    "street": null,
    "office_name": null,
    "office_name_kana": null
  },
  "1912": {
    "postcode": "3691912",
    "prefecture": "埼玉県",
    "prefecture_kana": "サイタマケン",
    "prefecture_code": 11,
    "city": "秩父市",
    "city_kana": "チチブシ",
    "town": "荒川白久",
    "town_kana": "アラカワシロク",
    "street": null,
    "office_name": null,
    "office_name_kana": null
  },
  "1998": {
    "postcode": "3691998",
    "prefecture": "埼玉県",
    "prefecture_kana": "サイタマケン",
    "prefecture_code": 11,
    "city": "秩父市",
    "city_kana": "チチブシ",
    "town": "大滝",
    "town_kana": "オオタキ",
    "street": "９８５",
    "office_name": "秩父市役所　大滝総合支所",
    "office_name_kana": "チチブシヤクシヨ オオタキソウゴウシシヨ"
  }
}