{
  "0000": {
    "postcode": "3710000",
    "prefecture": "群馬県",
    "prefecture_kana": "グンマケン",
    "prefecture_code": 10,
    "city": "前橋市",
    "city_kana": "マエバシシ",
    "town": "",
    "town_kana": "",
    "street": null,
    "office_name": null,
    "office_name_kana": null
  },
  "0001": {
    "postcode": "3710001",
    "prefecture": "群馬県",
    "prefecture_kana": "グンマケン",
    "prefecture_code": 10,
    "city": "前橋市",
    "city_kana": "マエバシシ",
    "town": "荻窪町",
    "town_kana": "オギクボマチ",
    "street": null,
    "office_name": null,
    "office_name_kana": null
  },
  "0002": {
    "postcode": "3710002",
    "prefecture": "群馬県",
    "prefecture_kana": "グンマケン",
    "prefecture_code": 10,
    "city": "前橋市",
    "city_kana": "マエバシシ",
    "town": "江木町",
    "town_kana": "エギマチ",
    "street": null,
    "office_name": null,
    "office_name_kana": null
  },
  "0003": {
    "postcode": "3710003",
    "prefecture": "群馬県",
    "prefecture_kana": "グンマケン",
    "prefecture_code": 10,
    "city": "前橋市",
    "city_kana": "マエバシシ",
    "town": "堤町",
    "town_kana": "ツツミマチ",
    "street": null,
    "office_name": null,
    "office_name_kana": null
  },
  "0004": {
    "postcode": "3710004",
    "prefecture": "群馬県",
    "prefecture_kana": "グンマケン",
    "prefecture_code": 10,
    "city": "前橋市",
    "city_kana": "マエバシシ",
    "town": "亀泉町",
    "town_kana": "カメイズミマチ",
    "street": null,
    "office_name": null,
    "office_name_kana": null
  },
  "0005": {
    "postcode": "3710005",
    "prefecture": "群馬県",
    "prefecture_kana": "グンマケン",
    "prefecture_code": 10,
    "city": "前橋市",
    "city_kana": "マエバシシ",
    "town": "堀之下町",
    "town_kana": "ホリノシタマチ",
    "street": null,
    "office_name": null,
    "office_name_kana": null
  },
  "0006": {
    "postcode": "3710006",
    "prefecture": "群馬県",
    "prefecture_kana": "グンマケン",
    "prefecture_code": 10,
    "city": "前橋市",
    "city_kana": "マエバシシ",
    "town": "石関町",
    "town_kana": "イシゼキマチ",
    "street": null,
    "office_name": null,
    "office_name_kana": null
  },
  "0007": {
    "postcode": "3710007",
    "prefecture": "群馬県",
    "prefecture_kana": "グンマケン",
    "prefecture_code": 10,
    "city": "前橋市",
    "city_kana": "マエバシシ",
    "town": "上泉町",
    "town_kana": "カミイズミマチ",
    "street": null,
    "office_name": null,
    "office_name_kana": null
  },
  "0011": {
    "postcode": "3710011",
    "prefecture": "群馬県",
    "prefecture_kana": "グンマケン",
    "prefecture_code": 10,
    "city": "前橋市",
    "city_kana": "マエバシシ",
    "town": "下沖町",
    "town_kana": "シモオキマチ",
    "street": null,
    "office_name": null,
    "office_name_kana": null
  },
  "0012": {
    "postcode": "3710012",
    "prefecture": "群馬県",
    "prefecture_kana": "グンマケン",
    "prefecture_code": 10,
    "city": "前橋市",
    "city_kana": "マエバシシ",
    "town": "東片貝町",
    "town_kana": "ヒガシカタカイマチ",
    "street": null,
    "office_name": null,
    "office_name_kana": null
  },
  "0013": {
    "postcode": "3710013",
    "prefecture": "群馬県",
    "prefecture_kana": "グンマケン",
    "prefecture_code": 10,
    "city": "前橋市",
    "city_kana": "マエバシシ",
    "town": "西片貝町",
    "town_kana": "ニシカタカイマチ",
    "street": null,
    "office_name": null,
    "office_name_kana": null
  },
  "0014": {
    "postcode": "3710014",
    "prefecture": "群馬県",
    "prefecture_kana": "グンマケン",
    "prefecture_code": 10,
    "city": "前橋市",
    "city_kana": "マエバシシ",
    "town": "朝日町",
    "town_kana": "アサヒチョウ",
    "street": null,
    "office_name": null,
    "office_name_kana": null
  },
  "0015": {
    "postcode": "3710015",
    "prefecture": "群馬県",
    "prefecture_kana": "グンマケン",
    "prefecture_code": 10,
    "city": "前橋市",
    "city_kana": "マエバシシ",
    "town": "三河町",
    "town_kana": "ミカワチョウ",
    "street": null,
    "office_name": null,
    "office_name_kana": null
  },
  "0016": {
    "postcode": "3710016",
    "prefecture": "群馬県",
    "prefecture_kana": "グンマケン",
    "prefecture_code": 10,
    "city": "前橋市",
    "city_kana": "マエバシシ",
    "town": "城東町",
    "town_kana": "ジョウトウマチ",
    "street": null,
    "office_name": null,
    "office_name_kana": null
  },
  "0017": {
    "postcode": "3710017",
    "prefecture": "群馬県",
    "prefecture_kana": "グンマケン",
    "prefecture_code": 10,
    "city": "前橋市",
    "city_kana": "マエバシシ",
    "town": "日吉町",
    "town_kana": "ヒヨシチョウ",
    "street": null,
    "office_name": null,
    "office_name_kana": null
  },
  "0018": {
    "postcode": "3710018",
    "prefecture": "群馬県",
    "prefecture_kana": "グンマケン",
    "prefecture_code": 10,
    "city": "前橋市",
    "city_kana": "マエバシシ",
    "town": "三俣町",
    "town_kana": "ミツマタマチ",
    "street": null,
    "office_name": null,
    "office_name_kana": null
  },
  "0021": {
    "postcode": "3710021",
    "prefecture": "群馬県",
    "prefecture_kana": "グンマケン",
    "prefecture_code": 10,
    "city": "前橋市",
    "city_kana": "マエバシシ",
    "town": "住吉町",
    "town_kana": "スミヨシチョウ",
    "street": null,
    "office_name": null,
    "office_name_kana": null
  },
  "0022": {
    "postcode": "3710022",
    "prefecture": "群馬県",
    "prefecture_kana": "グンマケン",
    "prefecture_code": 10,
    "city": "前橋市",
    "city_kana": "マエバシシ",
    "town": "千代田町",
    "town_kana": "チヨダマチ",
    "street": null,
    "office_name": null,
    "office_name_kana": null
  },
  "0023": {
    "postcode": "3710023",
    "prefecture": "群馬県",
    "prefecture_kana": "グンマケン",
    "prefecture_code": 10,
    "city": "前橋市",
    "city_kana": "マエバシシ",
    "town": "本町",
    "town_kana": "ホンマチ",
    "street": null,
    "office_name": null,
    "office_name_kana": null
  },
  "0024": {
    "postcode": "3710024",
    "prefecture": "群馬県",
    "prefecture_kana": "グンマケン",
    "prefecture_code": 10,
    "city": "前橋市",
    "city_kana": "マエバシシ",
    "town": "表町",
    "town_kana": "オモテチョウ",
    "street": null,
    "office_name": null,
    "office_name_kana": null
  },
  "0025": {
    "postcode": "3710025",
    "prefecture": "群馬県",
    "prefecture_kana": "グンマケン",
    "prefecture_code": 10,
    "city": "前橋市",
    "city_kana": "マエバシシ",
    "town": "紅雲町",
    "town_kana": "コウウンチョウ",
    "street": null,
    "office_name": null,
    "office_name_kana": null
  },
  "0026": {
    "postcode": "3710026",
    "prefecture": "群馬県",
    "prefecture_kana": "グンマケン",
    "prefecture_code": 10,
    "city": "前橋市",
    "city_kana": "マエバシシ",
    "town": "大手町",
    "town_kana": "オオテマチ",
    "street": null,
    "office_name": null,
    "office_name_kana": null
  },
  "0027": {
    "postcode": "3710027",
    "prefecture": "群馬県",
    "prefecture_kana": "グンマケン",
    "prefecture_code": 10,
    "city": "前橋市",
    "city_kana": "マエバシシ",
    "town": "平和町",
    "town_kana": "ヘイワマチ",
    "street": null,
    "office_name": null,
    "office_name_kana": null
  },
  "0031": {
    "postcode": "3710031",
    "prefecture": "群馬県",
    "prefecture_kana": "グンマケン",
    "prefecture_code": 10,
    "city": "前橋市",
    "city_kana": "マエバシシ",
    "town": "下小出町",
    "town_kana": "シモコイデマチ",
    "street": null,
    "office_name": null,
    "office_name_kana": null
  },
  "0032": {
    "postcode": "3710032",
    "prefecture": "群馬県",
    "prefecture_kana": "グンマケン",
    "prefecture_code": 10,
    "city": "前橋市",
    "city_kana": "マエバシシ",
    "town": "若宮町",
    "town_kana": "ワカミヤチョウ",
    "street": null,
    "office_name": null,
    "office_name_kana": null
  },
  "0033": {
    "postcode": "3710033",
    "prefecture": "群馬県",
    "prefecture_kana": "グンマケン",
    "prefecture_code": 10,
    "city": "前橋市",
    "city_kana": "マエバシシ",
    "town": "国領町",
    "town_kana": "コクリョウマチ",
    "street": null,
    "office_name": null,
    "office_name_kana": null
  },
  "0034": {
    "postcode": "3710034",
    "prefecture": "群馬県",
    "prefecture_kana": "グンマケン",
    "prefecture_code": 10,
    "city": "前橋市",
    "city_kana": "マエバシシ",
    "town": "昭和町",
    "town_kana": "ショウワマチ",
    "street": null,
    "office_name": null,
    "office_name_kana": null
  },
  "0035": {
    "postcode": "3710035",
    "prefecture": "群馬県",
    "prefecture_kana": "グンマケン",
    "prefecture_code": 10,
    "city": "前橋市",
    "city_kana": "マエバシシ",
    "town": "岩神町",
    "town_kana": "イワガミマチ",
    "street": null,
    "office_name": null,
    "office_name_kana": null
  },
  "0036": {
    "postcode": "3710036",
    "prefecture": "群馬県",
    "prefecture_kana": "グンマケン",
    "prefecture_code": 10,
    "city": "前橋市",
    "city_kana": "マエバシシ",
    "town": "敷島町",
    "town_kana": "シキシマチョウ",
    "street": null,
    "office_name": null,
    "office_name_kana": null
  },
  "0037": {
    "postcode": "3710037",
    "prefecture": "群馬県",
    "prefecture_kana": "グンマケン",
    "prefecture_code": 10,
    "city": "前橋市",
    "city_kana": "マエバシシ",
    "town": "上小出町",
    "town_kana": "カミコイデマチ",
    "street": null,
    "office_name": null,
    "office_name_kana": null
  },
  "0041": {
    "postcode": "3710041",
    "prefecture": "群馬県",
    "prefecture_kana": "グンマケン",
    "prefecture_code": 10,
    "city": "前橋市",
    "city_kana": "マエバシシ",
    "town": "川端町",
    "town_kana": "カワバタマチ",
    "street": null,
    "office_name": null,
    "office_name_kana": null
  },
  "0042": {
    "postcode": "3710042",
    "prefecture": "群馬県",
    "prefecture_kana": "グンマケン",
    "prefecture_code": 10,
    "city": "前橋市",
    "city_kana": "マエバシシ",
    "town": "日輪寺町",
    "town_kana": "ニチリンジマチ",
    "street": null,
    "office_name": null,
    "office_name_kana": null
  },
  "0043": {
    "postcode": "3710043",
    "prefecture": "群馬県",
    "prefecture_kana": "グンマケン",
    "prefecture_code": 10,
    "city": "前橋市",
    "city_kana": "マエバシシ",
    "town": "南橘町",
    "town_kana": "ナンキツマチ",
    "street": null,
    "office_name": null,
    "office_name_kana": null
  },
  "0044": {
    "postcode": "3710044",
    "prefecture": "群馬県",
    "prefecture_kana": "グンマケン",
    "prefecture_code": 10,
    "city": "前橋市",
    "city_kana": "マエバシシ",
    "town": "荒牧町",
    "town_kana": "アラマキマチ",
    "street": null,
    "office_name": null,
    "office_name_kana": null
  },
  "0045": {
    "postcode": "3710045",
    "prefecture": "群馬県",
    "prefecture_kana": "グンマケン",
    "prefecture_code": 10,
    "city": "前橋市",
    "city_kana": "マエバシシ",
    "town": "緑が丘町",
    "town_kana": "ミドリガオカマチ",
    "street": null,
    "office_name": null,
    "office_name_kana": null
  },
  "0046": {
    "postcode": "3710046",
    "prefecture": "群馬県",
    "prefecture_kana": "グンマケン",
    "prefecture_code": 10,
    "city": "前橋市",
    "city_kana": "マエバシシ",
    "town": "川原町",
    "town_kana": "カワハラマチ",
    "street": null,
    "office_name": null,
    "office_name_kana": null
  },
  "0047": {
    "postcode": "3710047",
    "prefecture": "群馬県",
    "prefecture_kana": "グンマケン",
    "prefecture_code": 10,
    "city": "前橋市",
    "city_kana": "マエバシシ",
    "town": "関根町",
    "town_kana": "セキネマチ",
    "street": null,
    "office_name": null,
    "office_name_kana": null
  },
  "0048": {
    "postcode": "3710048",
    "prefecture": "群馬県",
    "prefecture_kana": "グンマケン",
    "prefecture_code": 10,
    "city": "前橋市",
    "city_kana": "マエバシシ",
    "town": "田口町",
    "town_kana": "タグチマチ",
    "street": null,
    "office_name": null,
    "office_name_kana": null
  },
  "0051": {
    "postcode": "3710051",
    "prefecture": "群馬県",
    "prefecture_kana": "グンマケン",
    "prefecture_code": 10,
    "city": "前橋市",
    "city_kana": "マエバシシ",
    "town": "上細井町",
    "town_kana": "カミホソイマチ",
    "street": null,
    "office_name": null,
    "office_name_kana": null
  },
  "0052": {
    "postcode": "3710052",
    "prefecture": "群馬県",
    "prefecture_kana": "グンマケン",
    "prefecture_code": 10,
    "city": "前橋市",
    "city_kana": "マエバシシ",
    "town": "上沖町",
    "town_kana": "カミオキマチ",
    "street": null,
    "office_name": null,
    "office_name_kana": null
  },
  "0053": {
    "postcode": "3710053",
    "prefecture": "群馬県",
    "prefecture_kana": "グンマケン",
    "prefecture_code": 10,
    "city": "前橋市",
    "city_kana": "マエバシシ",
    "town": "幸塚町",
    "town_kana": "コウヅカマチ",
    "street": null,
    "office_name": null,
    "office_name_kana": null
  },
  "0054": {
    "postcode": "3710054",
    "prefecture": "群馬県",
    "prefecture_kana": "グンマケン",
    "prefecture_code": 10,
    "city": "前橋市",
    "city_kana": "マエバシシ",
    "town": "下細井町",
    "town_kana": "シモホソイマチ",
    "street": null,
    "office_name": null,
    "office_name_kana": null
  },
  "0055": {
    "postcode": "3710055",
    "prefecture": "群馬県",
    "prefecture_kana": "グンマケン",
    "prefecture_code": 10,
    "city": "前橋市",
    "city_kana": "マエバシシ",
    "town": "北代田町",
    "town_kana": "キタシロタマチ",
    "street": null,
    "office_name": null,
    "office_name_kana": null
  },
  "0056": {
    "postcode": "3710056",
    "prefecture": "群馬県",
    "prefecture_kana": "グンマケン",
    "prefecture_code": 10,
    "city": "前橋市",
    "city_kana": "マエバシシ",
    "town": "青柳町",
    "town_kana": "アオヤギマチ",
    "street": null,
    "office_name": null,
    "office_name_kana": null
  },
  "0057": {
    "postcode": "3710057",
    "prefecture": "群馬県",
    "prefecture_kana": "グンマケン",
    "prefecture_code": 10,
    "city": "前橋市",
    "city_kana": "マエバシシ",
    "town": "龍蔵寺町",
    "town_kana": "リュウゾウジマチ",
    "street": null,
    "office_name": null,
    "office_name_kana": null
  },
  "0101": {
    "postcode": "3710101",
    "prefecture": "群馬県",
    "prefecture_kana": "グンマケン",
    "prefecture_code": 10,
    "city": "前橋市",
    "city_kana": "マエバシシ",
    "town": "富士見町赤城山",
    "town_kana": "フジミマチアカギサン",
    "street": null,
    "office_name": null,
    "office_name_kana": null
  },
  "0102": {
    "postcode": "3710102",
    "prefecture": "群馬県",
    "prefecture_kana": "グンマケン",
    "prefecture_code": 10,
    "city": "前橋市",
    "city_kana": "マエバシシ",
    "town": "富士見町皆沢",
    "town_kana": "フジミマチミナザワ",
    "street": null,
    "office_name": null,
    "office_name_kana": null
  },
  "0103": {
    "postcode": "3710103",
    "prefecture": "群馬県",
    "prefecture_kana": "グンマケン",
    "prefecture_code": 10,
    "city": "前橋市",
    "city_kana": "マエバシシ",
    "town": "富士見町小暮",
    "town_kana": "フジミマチコグレ",
    "street": null,
    "office_name": null,
    "office_name_kana": null
  },
  "0104": {
    "postcode": "3710104",
    "prefecture": "群馬県",
    "prefecture_kana": "グンマケン",
    "prefecture_code": 10,
    "city": "前橋市",
    "city_kana": "マエバシシ",
    "town": "富士見町時沢",
    "town_kana": "フジミマチトキザワ",
    "street": null,
    "office_name": null,
    "office_name_kana": null
  },
  "0105": {
    "postcode": "3710105",
    "prefecture": "群馬県",
    "prefecture_kana": "グンマケン",
    "prefecture_code": 10,
    "city": "前橋市",
    "city_kana": "マエバシシ",
    "town": "富士見町石井",
    "town_kana": "フジミマチイシイ",
    "street": null,
    "office_name": null,
    "office_name_kana": null
  },
  "0106": {
    "postcode": "3710106",
    "prefecture": "群馬県",
    "prefecture_kana": "グンマケン",
    "prefecture_code": 10,
    "city": "前橋市",
    "city_kana": "マエバシシ",
    "town": "富士見町市之木場",
    "town_kana": "フジミマチイチノキバ",
    "street": null,
    "office_name": null,
    "office_name_kana": null
  },
  "0107": {
    "postcode": "3710107",
    "prefecture": "群馬県",
    "prefecture_kana": "グンマケン",
    "prefecture_code": 10,
    "city": "前橋市",
    "city_kana": "マエバシシ",
    "town": "富士見町山口",
    "town_kana": "フジミマチヤマグチ",
    "street": null,
    "office_name": null,
    "office_name_kana": null
  },
  "0111": {
    "postcode": "3710111",
    "prefecture": "群馬県",
    "prefecture_kana": "グンマケン",
    "prefecture_code": 10,
    "city": "前橋市",
    "city_kana": "マエバシシ",
    "town": "富士見町米野",
    "town_kana": "フジミマチコメノ",
    "street": null,
    "office_name": null,
    "office_name_kana": null
  },
  "0112": {
    "postcode": "3710112",
    "prefecture": "群馬県",
    "prefecture_kana": "グンマケン",
    "prefecture_code": 10,
    "city": "前橋市",
    "city_kana": "マエバシシ",
    "town": "富士見町引田",
    "town_kana": "フジミマチヒキダ",
    "street": null,
    "office_name": null,
    "office_name_kana": null
  },
  "0113": {
    "postcode": "3710113",
    "prefecture": "群馬県",
    "prefecture_kana": "グンマケン",
    "prefecture_code": 10,
    "city": "前橋市",
    "city_kana": "マエバシシ",
    "town": "富士見町漆窪",
    "town_kana": "フジミマチウルクボ",
    "street": null,
    "office_name": null,
    "office_name_kana": null
  },
  "0114": {
    "postcode": "3710114",
    "prefecture": "群馬県",
    "prefecture_kana": "グンマケン",
    "prefecture_code": 10,
    "city": "前橋市",
    "city_kana": "マエバシシ",
    "town": "富士見町田島",
    "town_kana": "フジミマチタジマ",
    "street": null,
    "office_name": null,
    "office_name_kana": null
  },
  "0115": {
    "postcode": "3710115",
    "prefecture": "群馬県",
    "prefecture_kana": "グンマケン",
    "prefecture_code": 10,
    "city": "前橋市",
    "city_kana": "マエバシシ",
    "town": "富士見町小沢",
    "town_kana": "フジミマチオザワ",
    "street": null,
    "office_name": null,
    "office_name_kana": null
  },
  "0116": {
    "postcode": "3710116",
    "prefecture": "群馬県",
    "prefecture_kana": "グンマケン",
    "prefecture_code": 10,
    "city": "前橋市",
    "city_kana": "マエバシシ",
    "town": "富士見町原之郷",
    "town_kana": "フジミマチハラノゴウ",
    "street": null,
    "office_name": null,
    "office_name_kana": null
  },
  "0117": {
    "postcode": "3710117",
    "prefecture": "群馬県",
    "prefecture_kana": "グンマケン",
    "prefecture_code": 10,
    "city": "前橋市",
    "city_kana": "マエバシシ",
    "town": "富士見町横室",
    "town_kana": "フジミマチヨコムロ",
    "street": null,
    "office_name": null,
    "office_name_kana": null
  },
  "0121": {
    "postcode": "3710121",
    "prefecture": "群馬県",
    "prefecture_kana": "グンマケン",
    "prefecture_code": 10,
    "city": "前橋市",
    "city_kana": "マエバシシ",
    "town": "金丸町",
    "town_kana": "カナマルマチ",
    "street": null,
    "office_name": null,
    "office_name_kana": null
  },
  "0122": {
    "postcode": "3710122",
    "prefecture": "群馬県",
    "prefecture_kana": "グンマケン",
    "prefecture_code": 10,
    "city": "前橋市",
    "city_kana": "マエバシシ",
    "town": "小坂子町",
    "town_kana": "コザカシマチ",
    "street": null,
    "office_name": null,
    "office_name_kana": null
  },
  "0123": {
    "postcode": "3710123",
    "prefecture": "群馬県",
    "prefecture_kana": "グンマケン",
    "prefecture_code": 10,
    "city": "前橋市",
    "city_kana": "マエバシシ",
    "town": "高花台",
    "town_kana": "タカハナダイ",
    "street": null,
    "office_name": null,
    "office_name_kana": null
  },
  "0124": {
    "postcode": "3710124",
    "prefecture": "群馬県",
    "prefecture_kana": "グンマケン",
    "prefecture_code": 10,
    "city": "前橋市",
    "city_kana": "マエバシシ",
    "town": "勝沢町",
    "town_kana": "カツサワマチ",
    "street": null,
    "office_name": null,
    "office_name_kana": null
  },
  "0125": {
    "postcode": "3710125",
    "prefecture": "群馬県",
    "prefecture_kana": "グンマケン",
    "prefecture_code": 10,
    "city": "前橋市",
    "city_kana": "マエバシシ",
    "town": "嶺町",
    "town_kana": "ミネマチ",
    "street": null,
    "office_name": null,
    "office_name_kana": null
  },
  "0131": {
    "postcode": "3710131",
    "prefecture": "群馬県",
    "prefecture_kana": "グンマケン",
    "prefecture_code": 10,
    "city": "前橋市",
    "city_kana": "マエバシシ",
    "town": "鳥取町",
    "town_kana": "トットリマチ",
    "street": null,
    "office_name": null,
    "office_name_kana": null
  },
  "0132": {
    "postcode": "3710132",
    "prefecture": "群馬県",
    "prefecture_kana": "グンマケン",
    "prefecture_code": 10,
    "city": "前橋市",
    "city_kana": "マエバシシ",
    "town": "五代町",
    "town_kana": "ゴダイマチ",
    "street": null,
    "office_name": null,
    "office_name_kana": null
  },
  "0133": {
    "postcode": "3710133",
    "prefecture": "群馬県",
    "prefecture_kana": "グンマケン",
    "prefecture_code": 10,
    "city": "前橋市",
    "city_kana": "マエバシシ",
    "town": "端気町",
    "town_kana": "ハケマチ",
    "street": null,
    "office_name": null,
    "office_name_kana": null
  },
  "0134": {
    "postcode": "3710134",
    "prefecture": "群馬県",
    "prefecture_kana": "グンマケン",
    "prefecture_code": 10,
    "city": "前橋市",
    "city_kana": "マエバシシ",
    "town": "小神明町",
    "town_kana": "コジンメイマチ",
    "street": null,
    "office_name": null,
    "office_name_kana": null
  },
  "0192": {
    "postcode": "3710192",
    "prefecture": "群馬県",
    "prefecture_kana": "グンマケン",
    "prefecture_code": 10,
    "city": "前橋市",
    "city_kana": "マエバシシ",
    "town": "富士見町田島",
    "town_kana": "フジミマチタジマ",
    "street": "２４０番地",
    "office_name": "前橋市　富士見支所",
    "office_name_kana": "マエバシシ フジミシシヨ"
  },
  "0201": {
    "postcode": "3710201",
    "prefecture": "群馬県",
    "prefecture_kana": "グンマケン",
    "prefecture_code": 10,
    "city": "前橋市",
    "city_kana": "マエバシシ",
    "town": "粕川町中之沢",
    "town_kana": "カスカワマチナカノサワ",
    "street": null,
    "office_name": null,
    "office_name_kana": null
  },
  "0202": {
    "postcode": "3710202",
    "prefecture": "群馬県",
    "prefecture_kana": "グンマケン",
    "prefecture_code": 10,
    "city": "前橋市",
    "city_kana": "マエバシシ",
    "town": "粕川町室沢",
    "town_kana": "カスカワマチムロサワ",
    "street": null,
    "office_name": null,
    "office_name_kana": null
  },
  "0203": {
    "postcode": "3710203",
    "prefecture": "群馬県",
    "prefecture_kana": "グンマケン",
    "prefecture_code": 10,
    "city": "前橋市",
    "city_kana": "マエバシシ",
    "town": "粕川町月田",
    "town_kana": "カスカワマチツキダ",
    "street": null,
    "office_name": null,
    "office_name_kana": null
  },
  "0204": {
    "postcode": "3710204",
    "prefecture": "群馬県",
    "prefecture_kana": "グンマケン",
    "prefecture_code": 10,
    "city": "前橋市",
    "city_kana": "マエバシシ",
    "town": "粕川町膳",
    "town_kana": "カスカワマチゼン",
    "street": null,
    "office_name": null,
    "office_name_kana": null
  },
  "0205": {
    "postcode": "3710205",
    "prefecture": "群馬県",
    "prefecture_kana": "グンマケン",
    "prefecture_code": 10,
    "city": "前橋市",
    "city_kana": "マエバシシ",
    "town": "粕川町中",
    "town_kana": "カスカワマチナカ",
    "street": null,
    "office_name": null,
    "office_name_kana": null
  },
  "0206": {
    "postcode": "3710206",
    "prefecture": "群馬県",
    "prefecture_kana": "グンマケン",
    "prefecture_code": 10,
    "city": "前橋市",
    "city_kana": "マエバシシ",
    "town": "粕川町新屋",
    "town_kana": "カスカワマチアラヤ",
    "street": null,
    "office_name": null,
    "office_name_kana": null
  },
  "0207": {
    "postcode": "3710207",
    "prefecture": "群馬県",
    "prefecture_kana": "グンマケン",
    "prefecture_code": 10,
    "city": "前橋市",
    "city_kana": "マエバシシ",
    "town": "粕川町稲里",
    "town_kana": "カスカワマチイナサト",
    "street": null,
    "office_name": null,
    "office_name_kana": null
  },
  "0211": {
    "postcode": "3710211",
    "prefecture": "群馬県",
    "prefecture_kana": "グンマケン",
    "prefecture_code": 10,
    "city": "前橋市",
    "city_kana": "マエバシシ",
    "town": "粕川町上東田面",
    "town_kana": "カスカワマチカミヒガシタナボ",
    "street": null,
    "office_name": null,
    "office_name_kana": null
  },
  "0212": {
    "postcode": "3710212",
    "prefecture": "群馬県",
    "prefecture_kana": "グンマケン",
    "prefecture_code": 10,
    "city": "前橋市",
    "city_kana": "マエバシシ",
    "town": "粕川町下東田面",
    "town_kana": "カスカワマチシモヒガシタナボ",
    "street": null,
    "office_name": null,
    "office_name_kana": null
  },
  "0213": {
    "postcode": "3710213",
    "prefecture": "群馬県",
    "prefecture_kana": "グンマケン",
    "prefecture_code": 10,
    "city": "前橋市",
    "city_kana": "マエバシシ",
    "town": "粕川町一日市",
    "town_kana": "カスカワマチヒトイチ",
    "street": null,
    "office_name": null,
    "office_name_kana": null
  },
  "0214": {
    "postcode": "3710214",
    "prefecture": "群馬県",
    "prefecture_kana": "グンマケン",
    "prefecture_code": 10,
    "city": "前橋市",
    "city_kana": "マエバシシ",
    "town": "粕川町女渕",
    "town_kana": "カスカワマチオナブチ",
    "street": null,
    "office_name": null,
    "office_name_kana": null
  },
  "0215": {
    "postcode": "3710215",
    "prefecture": "群馬県",
    "prefecture_kana": "グンマケン",
    "prefecture_code": 10,
    "city": "前橋市",
    "city_kana": "マエバシシ",
    "town": "粕川町深津",
    "town_kana": "カスカワマチフカヅ",
    "street": null,
    "office_name": null,
    "office_name_kana": null
  },
  "0216": {
    "postcode": "3710216",
    "prefecture": "群馬県",
    "prefecture_kana": "グンマケン",
    "prefecture_code": 10,
    "city": "前橋市",
    "city_kana": "マエバシシ",
    "town": "粕川町込皆戸",
    "town_kana": "カスカワマチコミガイト",
    "street": null,
    "office_name": null,
    "office_name_kana": null
  },
  "0217": {
    "postcode": "3710217",
    "prefecture": "群馬県",
    "prefecture_kana": "グンマケン",
    "prefecture_code": 10,
    "city": "前橋市",
    "city_kana": "マエバシシ",
    "town": "粕川町西田面",
    "town_kana": "カスカワマチニシタナボ",
    "street": null,
    "office_name": null,
    "office_name_kana": null
  },
  "0218": {
    "postcode": "3710218",
    "prefecture": "群馬県",
    "prefecture_kana": "グンマケン",
    "prefecture_code": 10,
    "city": "前橋市",
    "city_kana": "マエバシシ",
    "town": "粕川町前皆戸",
    "town_kana": "カスカワマチマエガイト",
    "street": null,
    "office_name": null,
    "office_name_kana": null
  },
  "0221": {
    "postcode": "3710221",
    "prefecture": "群馬県",
    "prefecture_kana": "グンマケン",
    "prefecture_code": 10,
    "city": "前橋市",
    "city_kana": "マエバシシ",
    "town": "樋越町",
    "town_kana": "ヒゴシマチ",
    "street": null,
    "office_name": null,
    "office_name_kana": null
  },
  "0222": {
    "postcode": "3710222",
    "prefecture": "群馬県",
    "prefecture_kana": "グンマケン",
    "prefecture_code": 10,
    "city": "前橋市",
    "city_kana": "マエバシシ",
    "town": "上大屋町",
    "town_kana": "カミオオヤマチ",
    "street": null,
    "office_name": null,
    "office_name_kana": null
  },
  "0223": {
    "postcode": "3710223",
    "prefecture": "群馬県",
    "prefecture_kana": "グンマケン",
    "prefecture_code": 10,
    "city": "前橋市",
    "city_kana": "マエバシシ",
    "town": "大胡町",
    "town_kana": "オオゴマチ",
    "street": null,
    "office_name": null,
    "office_name_kana": null
  },
  "0224": {
    "postcode": "3710224",
    "prefecture": "群馬県",
    "prefecture_kana": "グンマケン",
    "prefecture_code": 10,
    "city": "前橋市",
    "city_kana": "マエバシシ",
    "town": "河原浜町",
    "town_kana": "カワラハママチ",
    "street": null,
    "office_name": null,
    "office_name_kana": null
  },
  "0231": {
    "postcode": "3710231",
    "prefecture": "群馬県",
    "prefecture_kana": "グンマケン",
    "prefecture_code": 10,
    "city": "前橋市",
    "city_kana": "マエバシシ",
    "town": "堀越町",
    "town_kana": "ホリコシマチ",
    "street": null,
    "office_name": null,
    "office_name_kana": null
  },
  "0232": {
    "postcode": "3710232",
    "prefecture": "群馬県",
    "prefecture_kana": "グンマケン",
    "prefecture_code": 10,
    "city": "前橋市",
    "city_kana": "マエバシシ",
    "town": "茂木町",
    "town_kana": "モトギマチ",
    "street": null,
    "office_name": null,
    "office_name_kana": null
  },
  "0233": {
    "postcode": "3710233",
    "prefecture": "群馬県",
    "prefecture_kana": "グンマケン",
    "prefecture_code": 10,
    "city": "前橋市",
    "city_kana": "マエバシシ",
    "town": "横沢町",
    "town_kana": "ヨコザワマチ",
    "street": null,
    "office_name": null,
    "office_name_kana": null
  },
  "0234": {
    "postcode": "3710234",
    "prefecture": "群馬県",
    "prefecture_kana": "グンマケン",
    "prefecture_code": 10,
    "city": "前橋市",
    "city_kana": "マエバシシ",
    "town": "東金丸町",
    "town_kana": "ヒガシカナマルマチ",
    "street": null,
    "office_name": null,
    "office_name_kana": null
  },
  "0235": {
    "postcode": "3710235",
    "prefecture": "群馬県",
    "prefecture_kana": "グンマケン",
    "prefecture_code": 10,
    "city": "前橋市",
    "city_kana": "マエバシシ",
    "town": "滝窪町",
    "town_kana": "タキクボマチ",
    "street": null,
    "office_name": null,
    "office_name_kana": null
  },
  "0241": {
    "postcode": "3710241",
    "prefecture": "群馬県",
    "prefecture_kana": "グンマケン",
    "prefecture_code": 10,
    "city": "前橋市",
    "city_kana": "マエバシシ",
    "town": "苗ケ島町",
    "town_kana": "ナエガシママチ",
    "street": null,
    "office_name": null,
    "office_name_kana": null
  },
  "0242": {
    "postcode": "3710242",
    "prefecture": "群馬県",
    "prefecture_kana": "グンマケン",
    "prefecture_code": 10,
    "city": "前橋市",
    "city_kana": "マエバシシ",
    "town": "馬場町",
    "town_kana": "ババマチ",
    "street": null,
    "office_name": null,
    "office_name_kana": null
  },
  "0243": {
    "postcode": "3710243",
    "prefecture": "群馬県",
    "prefecture_kana": "グンマケン",
    "prefecture_code": 10,
    "city": "前橋市",
    "city_kana": "マエバシシ",
    "town": "大前田町",
    "town_kana": "オオマエタマチ",
    "street": null,
    "office_name": null,
    "office_name_kana": null
  },
  "0244": {
    "postcode": "3710244",
    "prefecture": "群馬県",
    "prefecture_kana": "グンマケン",
    "prefecture_code": 10,
    "city": "前橋市",
    "city_kana": "マエバシシ",
    "town": "鼻毛石町",
    "town_kana": "ハナゲイシマチ",
    "street": null,
    "office_name": null,
    "office_name_kana": null
  },
  "0245": {
    "postcode": "3710245",
    "prefecture": "群馬県",
    "prefecture_kana": "グンマケン",
    "prefecture_code": 10,
    "city": "前橋市",
    "city_kana": "マエバシシ",
    "town": "市之関町",
    "town_kana": "イチノセキマチ",
    "street": null,
    "office_name": null,
    "office_name_kana": null
  },
  "0246": {
    "postcode": "3710246",
    "prefecture": "群馬県",
    "prefecture_kana": "グンマケン",
    "prefecture_code": 10,
    "city": "前橋市",
    "city_kana": "マエバシシ",
    "town": "柏倉町",
    "town_kana": "カシワグラマチ",
    "street": null,
    "office_name": null,
    "office_name_kana": null
  },
  "0247": {
    "postcode": "3710247",
    "prefecture": "群馬県",
    "prefecture_kana": "グンマケン",
    "prefecture_code": 10,
    "city": "前橋市",
    "city_kana": "マエバシシ",
    "town": "三夜沢町",
    "town_kana": "ミヨサワマチ",
    "street": null,
    "office_name": null,
    "office_name_kana": null
  },
  "0292": {
    "postcode": "3710292",
    "prefecture": "群馬県",
    "prefecture_kana": "グンマケン",
    "prefecture_code": 10,
    "city": "前橋市",
    "city_kana": "マエバシシ",
    "town": "堀越町",
    "town_kana": "ホリコシマチ",
    "street": "１１１５",
    "office_name": "前橋市　大胡支所",
    "office_name_kana": "マエバシシ オオゴシシヨ"
  },
  "0293": {
    "postcode": "3710293",
    "prefecture": "群馬県",
    "prefecture_kana": "グンマケン",
    "prefecture_code": 10,
    "city": "前橋市",
    "city_kana": "マエバシシ",
    "town": "粕川町西田面",
    "town_kana": "カスカワマチニシタナボ",
    "street": "２１６−１",
    "office_name": "前橋市　粕川支所",
    "office_name_kana": "マエバシシ カスカワシシヨ"
  },
  "0294": {
    "postcode": "3710294",
    "prefecture": "群馬県",
    "prefecture_kana": "グンマケン",
    "prefecture_code": 10,
    "city": "前橋市",
    "city_kana": "マエバシシ",
    "town": "鼻毛石町",
    "town_kana": "ハナゲイシマチ",
    "street": "１４２６−３",
    "office_name": "前橋市　宮城支所",
    "office_name_kana": "マエバシシ ミヤギシシヨ"
  },
  "0801": {
    "postcode": "3710801",
    "prefecture": "群馬県",
    "prefecture_kana": "グンマケン",
    "prefecture_code": 10,
    "city": "前橋市",
    "city_kana": "マエバシシ",
    "town": "文京町",
    "town_kana": "ブンキョウチョウ",
    "street": null,
    "office_name": null,
    "office_name_kana": null
  },
  "0802": {
    "postcode": "3710802",
    "prefecture": "群馬県",
    "prefecture_kana": "グンマケン",
    "prefecture_code": 10,
    "city": "前橋市",
    "city_kana": "マエバシシ",
    "town": "天川町",
    "town_kana": "アマガワマチ",
    "street": null,
    "office_name": null,
    "office_name_kana": null
  },
  "0803": {
    "postcode": "3710803",
    "prefecture": "群馬県",
    "prefecture_kana": "グンマケン",
    "prefecture_code": 10,
    "city": "前橋市",
    "city_kana": "マエバシシ",
    "town": "天川原町",
    "town_kana": "アマガワバラマチ",
    "street": null,
    "office_name": null,
    "office_name_kana": null
  },
  "0804": {
    "postcode": "3710804",
    "prefecture": "群馬県",
    "prefecture_kana": "グンマケン",
    "prefecture_code": 10,
    "city": "前橋市",
    "city_kana": "マエバシシ",
    "town": "六供町",
    "town_kana": "ロックマチ",
    "street": null,
    "office_name": null,
    "office_name_kana": null
  },
  "0805": {
    "postcode": "3710805",
    "prefecture": "群馬県",
    "prefecture_kana": "グンマケン",
    "prefecture_code": 10,
    "city": "前橋市",
    "city_kana": "マエバシシ",
    "town": "南町",
    "town_kana": "ミナミチョウ",
    "street": null,
    "office_name": null,
    "office_name_kana": null
  },
  "0811": {
    "postcode": "3710811",
    "prefecture": "群馬県",
    "prefecture_kana": "グンマケン",
    "prefecture_code": 10,
    "city": "前橋市",
    "city_kana": "マエバシシ",
    "town": "朝倉町",
    "town_kana": "アサクラマチ",
    "street": null,
    "office_name": null,
    "office_name_kana": null
  },
  "0812": {
    "postcode": "3710812",
    "prefecture": "群馬県",
    "prefecture_kana": "グンマケン",
    "prefecture_code": 10,
    "city": "前橋市",
    "city_kana": "マエバシシ",
    "town": "広瀬町",
    "town_kana": "ヒロセチョウ",
    "street": null,
    "office_name": null,
    "office_name_kana": null
  },
  "0813": {
    "postcode": "3710813",
    "prefecture": "群馬県",
    "prefecture_kana": "グンマケン",
    "prefecture_code": 10,
    "city": "前橋市",
    "city_kana": "マエバシシ",
    "town": "後閑町",
    "town_kana": "ゴカンマチ",
    "street": null,
    "office_name": null,
    "office_name_kana": null
  },
  "0814": {
    "postcode": "3710814",
    "prefecture": "群馬県",
    "prefecture_kana": "グンマケン",
    "prefecture_code": 10,
    "city": "前橋市",
    "city_kana": "マエバシシ",
    "town": "宮地町",
    "town_kana": "ミヤジマチ",
    "street": null,
    "office_name": null,
    "office_name_kana": null
  },
  "0815": {
    "postcode": "3710815",
    "prefecture": "群馬県",
    "prefecture_kana": "グンマケン",
    "prefecture_code": 10,
    "city": "前橋市",
    "city_kana": "マエバシシ",
    "town": "下佐鳥町",
    "town_kana": "シモサドリマチ",
    "street": null,
    "office_name": null,
    "office_name_kana": null
  },
  "0816": {
    "postcode": "3710816",
    "prefecture": "群馬県",
    "prefecture_kana": "グンマケン",
    "prefecture_code": 10,
    "city": "前橋市",
    "city_kana": "マエバシシ",
    "town": "上佐鳥町",
    "town_kana": "カミサドリマチ",
    "street": null,
    "office_name": null,
    "office_name_kana": null
  },
  "0817": {
    "postcode": "3710817",
    "prefecture": "群馬県",
    "prefecture_kana": "グンマケン",
    "prefecture_code": 10,
    "city": "前橋市",
    "city_kana": "マエバシシ",
    "town": "ぬで島町",
    "town_kana": "ヌデジママチ",
    "street": null,
    "office_name": null,
    "office_name_kana": null
  },
  "0821": {
    "postcode": "3710821",
    "prefecture": "群馬県",
    "prefecture_kana": "グンマケン",
    "prefecture_code": 10,
    "city": "前橋市",
    "city_kana": "マエバシシ",
    "town": "上新田町",
    "town_kana": "カミシンデンマチ",
    "street": null,
    "office_name": null,
    "office_name_kana": null
  },
  "0822": {
    "postcode": "3710822",
    "prefecture": "群馬県",
    "prefecture_kana": "グンマケン",
    "prefecture_code": 10,
    "city": "前橋市",
    "city_kana": "マエバシシ",
    "town": "下新田町",
    "town_kana": "シモシンデンマチ",
    "street": null,
    "office_name": null,
    "office_name_kana": null
  },
  "0823": {
    "postcode": "3710823",
    "prefecture": "群馬県",
    "prefecture_kana": "グンマケン",
    "prefecture_code": 10,
    "city": "前橋市",
    "city_kana": "マエバシシ",
    "town": "川曲町",
    "town_kana": "カワマガリマチ",
    "street": null,
    "office_name": null,
    "office_name_kana": null
  },
  "0824": {
    "postcode": "3710824",
    "prefecture": "群馬県",
    "prefecture_kana": "グンマケン",
    "prefecture_code": 10,
    "city": "前橋市",
    "city_kana": "マエバシシ",
    "town": "稲荷新田町",
    "town_kana": "トウカシンデンマチ",
    "street": null,
    "office_name": null,
    "office_name_kana": null
  },
  "0825": {
    "postcode": "3710825",
    "prefecture": "群馬県",
    "prefecture_kana": "グンマケン",
    "prefecture_code": 10,
    "city": "前橋市",
    "city_kana": "マエバシシ",
    "town": "大利根町",
    "town_kana": "オオトネマチ",
    "street": null,
    "office_name": null,
    "office_name_kana": null
  },
  "0826": {
    "postcode": "3710826",
    "prefecture": "群馬県",
    "prefecture_kana": "グンマケン",
    "prefecture_code": 10,
    "city": "前橋市",
    "city_kana": "マエバシシ",
    "town": "青葉町",
    "town_kana": "アオバチョウ",
    "street": null,
    "office_name": null,
    "office_name_kana": null
  },
  "0831": {
    "postcode": "3710831",
    "prefecture": "群馬県",
    "prefecture_kana": "グンマケン",
    "prefecture_code": 10,
    "city": "前橋市",
    "city_kana": "マエバシシ",
    "town": "小相木町",
    "town_kana": "コアイギマチ",
    "street": null,
    "office_name": null,
    "office_name_kana": null
  },
  "0832": {
    "postcode": "3710832",
    "prefecture": "群馬県",
    "prefecture_kana": "グンマケン",
    "prefecture_code": 10,
    "city": "前橋市",
    "city_kana": "マエバシシ",
    "town": "朝日が丘町",
    "town_kana": "アサヒガオカマチ",
    "street": null,
    "office_name": null,
    "office_name_kana": null
  },
  "0833": {
    "postcode": "3710833",
    "prefecture": "群馬県",
    "prefecture_kana": "グンマケン",
    "prefecture_code": 10,
    "city": "前橋市",
    "city_kana": "マエバシシ",
    "town": "光が丘町",
    "town_kana": "ヒカリガオカマチ",
    "street": null,
    "office_name": null,
    "office_name_kana": null
  },
  "0834": {
    "postcode": "3710834",
    "prefecture": "群馬県",
    "prefecture_kana": "グンマケン",
    "prefecture_code": 10,
    "city": "前橋市",
    "city_kana": "マエバシシ",
    "town": "後家町",
    "town_kana": "ゴケマチ",
    "street": null,
    "office_name": null,
    "office_name_kana": null
  },
  "0835": {
    "postcode": "3710835",
    "prefecture": "群馬県",
    "prefecture_kana": "グンマケン",
    "prefecture_code": 10,
    "city": "前橋市",
    "city_kana": "マエバシシ",
    "town": "前箱田町",
    "town_kana": "マエハコダマチ",
    "street": null,
    "office_name": null,
    "office_name_kana": null
  },
  "0836": {
    "postcode": "3710836",
    "prefecture": "群馬県",
    "prefecture_kana": "グンマケン",
    "prefecture_code": 10,
    "city": "前橋市",
    "city_kana": "マエバシシ",
    "town": "江田町",
    "town_kana": "エダマチ",
    "street": null,
    "office_name": null,
    "office_name_kana": null
  },
  "0837": {
    "postcode": "3710837",
    "prefecture": "群馬県",
    "prefecture_kana": "グンマケン",
    "prefecture_code": 10,
    "city": "前橋市",
    "city_kana": "マエバシシ",
    "town": "箱田町",
    "town_kana": "ハコダマチ",
    "street": null,
    "office_name": null,
    "office_name_kana": null
  },
  "0841": {
    "postcode": "3710841",
    "prefecture": "群馬県",
    "prefecture_kana": "グンマケン",
    "prefecture_code": 10,
    "city": "前橋市",
    "city_kana": "マエバシシ",
    "town": "石倉町",
    "town_kana": "イシクラマチ",
    "street": null,
    "office_name": null,
    "office_name_kana": null
  },
  "0842": {
    "postcode": "3710842",
    "prefecture": "群馬県",
    "prefecture_kana": "グンマケン",
    "prefecture_code": 10,
    "city": "前橋市",
    "city_kana": "マエバシシ",
    "town": "下石倉町",
    "town_kana": "シモイシクラマチ",
    "street": null,
    "office_name": null,
    "office_name_kana": null
  },
  "0843": {
    "postcode": "3710843",
    "prefecture": "群馬県",
    "prefecture_kana": "グンマケン",
    "prefecture_code": 10,
    "city": "前橋市",
    "city_kana": "マエバシシ",
    "town": "新前橋町",
    "town_kana": "シンマエバシマチ",
    "street": null,
    "office_name": null,
    "office_name_kana": null
  },
  "0844": {
    "postcode": "3710844",
    "prefecture": "群馬県",
    "prefecture_kana": "グンマケン",
    "prefecture_code": 10,
    "city": "前橋市",
    "city_kana": "マエバシシ",
    "town": "古市町",
    "town_kana": "フルイチマチ",
    "street": null,
    "office_name": null,
    "office_name_kana": null
  },
  "0845": {
    "postcode": "3710845",
    "prefecture": "群馬県",
    "prefecture_kana": "グンマケン",
    "prefecture_code": 10,
    "city": "前橋市",
    "city_kana": "マエバシシ",
    "town": "鳥羽町",
    "town_kana": "トリバマチ",
    "street": null,
    "office_name": null,
    "office_name_kana": null
  },
  "0846": {
    "postcode": "3710846",
    "prefecture": "群馬県",
    "prefecture_kana": "グンマケン",
    "prefecture_code": 10,
    "city": "前橋市",
    "city_kana": "マエバシシ",
    "town": "元総社町",
    "town_kana": "モトソウジャマチ",
    "street": null,
    "office_name": null,
    "office_name_kana": null
  },
  "0847": {
    "postcode": "3710847",
    "prefecture": "群馬県",
    "prefecture_kana": "グンマケン",
    "prefecture_code": 10,
    "city": "前橋市",
    "city_kana": "マエバシシ",
    "town": "大友町",
    "town_kana": "オオドモマチ",
    "street": null,
    "office_name": null,
    "office_name_kana": null
  },
  "0851": {
    "postcode": "3710851",
    "prefecture": "群馬県",
    "prefecture_kana": "グンマケン",
    "prefecture_code": 10,
    "city": "前橋市",
    "city_kana": "マエバシシ",
    "town": "総社町植野",
    "town_kana": "ソウジャマチウエノ",
    "street": null,
    "office_name": null,
    "office_name_kana": null
  },
  "0852": {
    "postcode": "3710852",
    "prefecture": "群馬県",
    "prefecture_kana": "グンマケン",
    "prefecture_code": 10,
    "city": "前橋市",
    "city_kana": "マエバシシ",
    "town": "総社町総社",
    "town_kana": "ソウジャマチソウジャ",
    "street": null,
    "office_name": null,
    "office_name_kana": null
  },
  "0853": {
    "postcode": "3710853",
    "prefecture": "群馬県",
    "prefecture_kana": "グンマケン",
    "prefecture_code": 10,
    "city": "前橋市",
    "city_kana": "マエバシシ",
    "town": "総社町",
    "town_kana": "ソウジャマチ",
    "street": null,
    "office_name": null,
    "office_name_kana": null
  },
  "0854": {
    "postcode": "3710854",
    "prefecture": "群馬県",
    "prefecture_kana": "グンマケン",
    "prefecture_code": 10,
    "city": "前橋市",
    "city_kana": "マエバシシ",
    "town": "大渡町",
    "town_kana": "オオワタリマチ",
    "street": null,
    "office_name": null,
    "office_name_kana": null
  },
  "0855": {
    "postcode": "3710855",
    "prefecture": "群馬県",
    "prefecture_kana": "グンマケン",
    "prefecture_code": 10,
    "city": "前橋市",
    "city_kana": "マエバシシ",
    "town": "問屋町",
    "town_kana": "トンヤマチ",
    "street": null,
    "office_name": null,
    "office_name_kana": null
  },
  "0856": {
    "postcode": "3710856",
    "prefecture": "群馬県",
    "prefecture_kana": "グンマケン",
    "prefecture_code": 10,
    "city": "前橋市",
    "city_kana": "マエバシシ",
    "town": "総社町高井",
    "town_kana": "ソウジャマチタカイ",
    "street": null,
    "office_name": null,
    "office_name_kana": null
  },
  "0857": {
    "postcode": "3710857",
    "prefecture": "群馬県",
    "prefecture_kana": "グンマケン",
    "prefecture_code": 10,
    "city": "前橋市",
    "city_kana": "マエバシシ",
    "town": "高井町",
    "town_kana": "タカイマチ",
    "street": null,
    "office_name": null,
    "office_name_kana": null
  },
  "0858": {
    "postcode": "3710858",
    "prefecture": "群馬県",
    "prefecture_kana": "グンマケン",
    "prefecture_code": 10,
    "city": "前橋市",
    "city_kana": "マエバシシ",
    "town": "総社町桜が丘",
    "town_kana": "ソウジャマチサクラガオカ",
    "street": null,
    "office_name": null,
    "office_name_kana": null
  },
  "8501": {
    "postcode": "3718501",
    "prefecture": "群馬県",
    "prefecture_kana": "グンマケン",
    "prefecture_code": 10,
    "city": "前橋市",
    "city_kana": "マエバシシ",
    "town": "上細井町",
    "town_kana": "カミホソイマチ",
    "street": "２１４２−１",
    "office_name": "群馬県　前橋県税事務所",
    "office_name_kana": "グンマケン マエバシケンゼイジムシヨ"
  },
  "8502": {
    "postcode": "3718502",
    "prefecture": "群馬県",
    "prefecture_kana": "グンマケン",
    "prefecture_code": 10,
    "city": "前橋市",
    "city_kana": "マエバシシ",
    "town": "問屋町",
    "town_kana": "トンヤマチ",
    "street": "１丁目２−４",
    "office_name": "群馬県社会保険診療報酬支払基金",
    "office_name_kana": "グンマケンシヤカイホケンシンリヨウホウシユウシハライキキン"
  },
  "8503": {
    "postcode": "3718503",
    "prefecture": "群馬県",
    "prefecture_kana": "グンマケン",
    "prefecture_code": 10,
    "city": "前橋市",
    "city_kana": "マエバシシ",
    "town": "古市町",
    "town_kana": "フルイチマチ",
    "street": "１丁目５０−１２",
    "office_name": "カネコ種苗　株式会社",
    "office_name_kana": "カネコシユビヨウ カブシキガイシヤ"
  },
  "8504": {
    "postcode": "3718504",
    "prefecture": "群馬県",
    "prefecture_kana": "グンマケン",
    "prefecture_code": 10,
    "city": "前橋市",
    "city_kana": "マエバシシ",
    "town": "古市町",
    "town_kana": "フルイチマチ",
    "street": "１−５０−１６",
    "office_name": "中央労働金庫　群馬県本部",
    "office_name_kana": "チユウオウロウドウキンコ グンマケンホンブ"
  },
  "8505": {
    "postcode": "3718505",
    "prefecture": "群馬県",
    "prefecture_kana": "グンマケン",
    "prefecture_code": 10,
    "city": "前橋市",
    "city_kana": "マエバシシ",
    "town": "元総社町",
    "town_kana": "モトソウジャマチ",
    "street": "３３５−８",
    "office_name": "群馬県　市町村職員共済組合",
    "office_name_kana": "グンマケン シチヨウソンシヨクインキヨウサイクミアイ"
  },
  "8507": {
    "postcode": "3718507",
    "prefecture": "群馬県",
    "prefecture_kana": "グンマケン",
    "prefecture_code": 10,
    "city": "前橋市",
    "city_kana": "マエバシシ",
    "town": "上泉町",
    "town_kana": "カミイズミマチ",
    "street": "３９７−５",
    "office_name": "群馬県　自動車税事務所",
    "office_name_kana": "グンマケン ジドウシヤゼイ ジムシヨ"
  },
  "8508": {
    "postcode": "3718508",
    "prefecture": "群馬県",
    "prefecture_kana": "グンマケン",
    "prefecture_code": 10,
    "city": "前橋市",
    "city_kana": "マエバシシ",
    "town": "岩神町",
    "town_kana": "イワガミマチ",
    "street": "４丁目１６−２５",
    "office_name": "関東森林管理局",
    "office_name_kana": "カントウシンリンカンリキヨク"
  },
  "8510": {
    "postcode": "3718510",
    "prefecture": "群馬県",
    "prefecture_kana": "グンマケン",
    "prefecture_code": 10,
    "city": "前橋市",
    "city_kana": "マエバシシ",
    "town": "荒牧町",
    "town_kana": "アラマキマチ",
    "street": "４丁目２",
    "office_name": "群馬大学　事務局　学生部　附属図書館　教育学部　社会情報学部",
    "office_name_kana": "グンマダイガク ジムキヨク ガクセイブ フゾクトシヨカン キヨウイクガクブ シヤカイジヨウホウガクブ"
  },
  "8511": {
    "postcode": "3718511",
    "prefecture": "群馬県",
    "prefecture_kana": "グンマケン",
    "prefecture_code": 10,
    "city": "前橋市",
    "city_kana": "マエバシシ",
    "town": "昭和町",
    "town_kana": "ショウワマチ",
    "street": "３丁目３９−２２",
    "office_name": "群馬大学　医学部",
    "office_name_kana": "グンマダイガク イガクブ"
  },
  "8512": {
    "postcode": "3718512",
    "prefecture": "群馬県",
    "prefecture_kana": "グンマケン",
    "prefecture_code": 10,
    "city": "前橋市",
    "city_kana": "マエバシシ",
    "town": "昭和町",
    "town_kana": "ショウワマチ",
    "street": "３丁目３９−１５",
    "office_name": "群馬大学　生体調節研究所",
    "office_name_kana": "グンマダイガク セイタイチヨウセツケンキユウジヨ"
  },
  "8513": {
    "postcode": "3718513",
    "prefecture": "群馬県",
    "prefecture_kana": "グンマケン",
    "prefecture_code": 10,
    "city": "前橋市",
    "city_kana": "マエバシシ",
    "town": "昭和町",
    "town_kana": "ショウワマチ",
    "street": "３丁目３９−２２",
    "office_name": "群馬大学　総合情報メディアセンター図書館　医学分館",
    "office_name_kana": "グンマダイガク ソウゴウジヨウホウメデイアセンタ-トシヨカン イガクブンカン"
  },
  "8514": {
    "postcode": "3718514",
    "prefecture": "群馬県",
    "prefecture_kana": "グンマケン",
    "prefecture_code": 10,
    "city": "前橋市",
    "city_kana": "マエバシシ",
    "town": "昭和町",
    "town_kana": "ショウワマチ",
    "street": "３丁目３９番２２号",
    "office_name": "群馬大学大学院　保健学研究科",
    "office_name_kana": "グンマダイガクダイガクイン ホケンガクケンキユウカ"
  },
  "8515": {
    "postcode": "3718515",
    "prefecture": "群馬県",
    "prefecture_kana": "グンマケン",
    "prefecture_code": 10,
    "city": "前橋市",
    "city_kana": "マエバシシ",
    "town": "総社町総社",
    "town_kana": "ソウジャマチソウジャ",
    "street": "２１２１",
    "office_name": "日新電機　株式会社　前橋製作所",
    "office_name_kana": "ニツシンデンキ カブシキガイシヤ マエバシセイサクシヨ"
  },
  "8516": {
    "postcode": "3718516",
    "prefecture": "群馬県",
    "prefecture_kana": "グンマケン",
    "prefecture_code": 10,
    "city": "前橋市",
    "city_kana": "マエバシシ",
    "town": "本町",
    "town_kana": "ホンマチ",
    "street": "２丁目２−１２前橋本町スクエアビル",
    "office_name": "全国健康保険協会　群馬支部",
    "office_name_kana": "ゼンコクケンコウホケンキヨウカイ グンマシブ"
  },
  "8517": {
    "postcode": "3718517",
    "prefecture": "群馬県",
    "prefecture_kana": "グンマケン",
    "prefecture_code": 10,
    "city": "前橋市",
    "city_kana": "マエバシシ",
    "town": "新前橋町",
    "town_kana": "シンマエバシマチ",
    "street": "１３番地１２群馬県社会福祉総合センター５階",
    "office_name": "財団法人　群馬県長寿社会づくり財団",
    "office_name_kana": "ザイダンホウジン グンマケンチヨウジユシヤカイヅクリザイダン"
  },
  "8520": {
    "postcode": "3718520",
    "prefecture": "群馬県",
    "prefecture_kana": "グンマケン",
    "prefecture_code": 10,
    "city": "前橋市",
    "city_kana": "マエバシシ",
    "town": "古市町",
    "town_kana": "フルイチマチ",
    "street": "２３３−５",
    "office_name": "群馬振興　株式会社",
    "office_name_kana": "グンマシンコウ カブシキガイシヤ"
  },
  "8521": {
    "postcode": "3718521",
    "prefecture": "群馬県",
    "prefecture_kana": "グンマケン",
    "prefecture_code": 10,
    "city": "前橋市",
    "city_kana": "マエバシシ",
    "town": "大手町",
    "town_kana": "オオテマチ",
    "street": "２の４の９",
    "office_name": "朝日新聞前橋総局",
    "office_name_kana": "アサヒシンブンマエバシソウキヨク"
  },
  "8522": {
    "postcode": "3718522",
    "prefecture": "群馬県",
    "prefecture_kana": "グンマケン",
    "prefecture_code": 10,
    "city": "前橋市",
    "city_kana": "マエバシシ",
    "town": "石倉町",
    "town_kana": "イシクラマチ",
    "street": "２丁目六番地の五",
    "office_name": "群馬　トヨペット株式会社",
    "office_name_kana": "グンマトヨペツト カブシキガイシヤ"
  },
  "8525": {
    "postcode": "3718525",
    "prefecture": "群馬県",
    "prefecture_kana": "グンマケン",
    "prefecture_code": 10,
    "city": "前橋市",
    "city_kana": "マエバシシ",
    "town": "新前橋町",
    "town_kana": "シンマエバシマチ",
    "street": "１３−１２",
    "office_name": "群馬県社会福祉協議会",
    "office_name_kana": "グンマケンシヤカイフクシキヨウギカイ"
  },
  "8527": {
    "postcode": "3718527",
    "prefecture": "群馬県",
    "prefecture_kana": "グンマケン",
    "prefecture_code": 10,
    "city": "前橋市",
    "city_kana": "マエバシシ",
    "town": "鳥羽町",
    "town_kana": "トリバマチ",
    "street": "７８",
    "office_name": "ＮＳＫステアリング＆コントロール　株式会社",
    "office_name_kana": "エヌエスケ-ステアリングアンドコントロ-ル カブシキカイシヤ"
  },
  "8528": {
    "postcode": "3718528",
    "prefecture": "群馬県",
    "prefecture_kana": "グンマケン",
    "prefecture_code": 10,
    "city": "前橋市",
    "city_kana": "マエバシシ",
    "town": "総社町",
    "town_kana": "ソウジャマチ",
    "street": "１−８−１",
    "office_name": "ＮＳＫステアリングシステムズ　（株）",
    "office_name_kana": "エヌエスケ-ステアリングシステムズ カブシキカイシヤ"
  },
  "8530": {
    "postcode": "3718530",
    "prefecture": "群馬県",
    "prefecture_kana": "グンマケン",
    "prefecture_code": 10,
    "city": "前橋市",
    "city_kana": "マエバシシ",
    "town": "鳥羽町",
    "town_kana": "トリバマチ",
    "street": "５８０",
    "office_name": "群馬工業高等専門学校",
    "office_name_kana": "グンマコウギヨウコウトウセンモンガツコウ"
  },
  "8531": {
    "postcode": "3718531",
    "prefecture": "群馬県",
    "prefecture_kana": "グンマケン",
    "prefecture_code": 10,
    "city": "前橋市",
    "city_kana": "マエバシシ",
    "town": "大手町",
    "town_kana": "オオテマチ",
    "street": "３−１−３４",
    "office_name": "前橋地方裁判所",
    "office_name_kana": "マエバシチホウサイバンシヨ"
  },
  "8533": {
    "postcode": "3718533",
    "prefecture": "群馬県",
    "prefecture_kana": "グンマケン",
    "prefecture_code": 10,
    "city": "前橋市",
    "city_kana": "マエバシシ",
    "town": "千代田町",
    "town_kana": "チヨダマチ",
    "street": "２−３−１",
    "office_name": "株式会社　エフエム群馬",
    "office_name_kana": "カブシキガイシヤ エフエムグンマ"
  },
  "8535": {
    "postcode": "3718535",
    "prefecture": "群馬県",
    "prefecture_kana": "グンマケン",
    "prefecture_code": 10,
    "city": "前橋市",
    "city_kana": "マエバシシ",
    "town": "大手町",
    "town_kana": "オオテマチ",
    "street": "二丁目３番１号",
    "office_name": "前橋地方法務局",
    "office_name_kana": "マエバシチホウホウムキヨク"
  },
  "8539": {
    "postcode": "3718539",
    "prefecture": "群馬県",
    "prefecture_kana": "グンマケン",
    "prefecture_code": 10,
    "city": "前橋市",
    "city_kana": "マエバシシ",
    "town": "本町",
    "town_kana": "ホンマチ",
    "street": "２−２−１２前橋本町スクエアビル９Ｆ",
    "office_name": "住友生命保険　相互会社　群馬支社",
    "office_name_kana": "スミトモセイメイホケン ソウゴガイシヤ グンマシシヤ"
  },
  "8543": {
    "postcode": "3718543",
    "prefecture": "群馬県",
    "prefecture_kana": "グンマケン",
    "prefecture_code": 10,
    "city": "前橋市",
    "city_kana": "マエバシシ",
    "town": "大渡町",
    "town_kana": "オオワタリマチ",
    "street": "１丁目１０−１",
    "office_name": "日本ビクター　株式会社",
    "office_name_kana": "ニホンビクタ- カブシキガイシヤ"
  },
  "8548": {
    "postcode": "3718548",
    "prefecture": "群馬県",
    "prefecture_kana": "グンマケン",
    "prefecture_code": 10,
    "city": "前橋市",
    "city_kana": "マエバシシ",
    "town": "上小出町",
    "town_kana": "カミコイデマチ",
    "street": "３−３８−２",
    "office_name": "群馬テレビ　株式会社",
    "office_name_kana": "グンマテレビ カブシキガイシヤ"
  },
  "8550": {
    "postcode": "3718550",
    "prefecture": "群馬県",
    "prefecture_kana": "グンマケン",
    "prefecture_code": 10,
    "city": "前橋市",
    "city_kana": "マエバシシ",
    "town": "大手町",
    "town_kana": "オオテマチ",
    "street": "３丁目２−１",
    "office_name": "前橋地方検察庁",
    "office_name_kana": "マエバシチホウケンサツチヨウ"
  },
  "8555": {
    "postcode": "3718555",
    "prefecture": "群馬県",
    "prefecture_kana": "グンマケン",
    "prefecture_code": 10,
    "city": "前橋市",
    "city_kana": "マエバシシ",
    "town": "元総社町",
    "town_kana": "モトソウジャマチ",
    "street": "１８９",
    "office_name": "ＮＨＫ　前橋放送局",
    "office_name_kana": "エヌエイチケ- マエバシホウソウキヨク"
  },
  "8556": {
    "postcode": "3718556",
    "prefecture": "群馬県",
    "prefecture_kana": "グンマケン",
    "prefecture_code": 10,
    "city": "前橋市",
    "city_kana": "マエバシシ",
    "town": "千代田町",
    "town_kana": "チヨダマチ",
    "street": "２−１２−３",
    "office_name": "スズラン　前橋店",
    "office_name_kana": "スズラン マエバシテン"
  },
  "8557": {
    "postcode": "3718557",
    "prefecture": "群馬県",
    "prefecture_kana": "グンマケン",
    "prefecture_code": 10,
    "city": "前橋市",
    "city_kana": "マエバシシ",
    "town": "本町",
    "town_kana": "ホンマチ",
    "street": "２−３−１７",
    "office_name": "スズラン　本社",
    "office_name_kana": "スズラン ホンシヤ"
  },
  "8560": {
    "postcode": "3718560",
    "prefecture": "群馬県",
    "prefecture_kana": "グンマケン",
    "prefecture_code": 10,
    "city": "前橋市",
    "city_kana": "マエバシシ",
    "town": "本町",
    "town_kana": "ホンマチ",
    "street": "２−１２−６（前橋中央郵便局私書箱第１０号）",
    "office_name": "株式会社　東和銀行　総務部",
    "office_name_kana": "カブシキガイシヤ トウワギンコウ ソウムブ"
  },
  "8561": {
    "postcode": "3718561",
    "prefecture": "群馬県",
    "prefecture_kana": "グンマケン",
    "prefecture_code": 10,
    "city": "前橋市",
    "city_kana": "マエバシシ",
    "town": "本町",
    "town_kana": "ホンマチ",
    "street": "２−１２−６（前橋中央郵便局私書箱第１０号）",
    "office_name": "株式会社　東和銀行　営業部",
    "office_name_kana": "カブシキガイシヤ トウワギンコウ エイギヨウブ"
  },
  "8567": {
    "postcode": "3718567",
    "prefecture": "群馬県",
    "prefecture_kana": "グンマケン",
    "prefecture_code": 10,
    "city": "前橋市",
    "city_kana": "マエバシシ",
    "town": "大手町",
    "town_kana": "オオテマチ",
    "street": "２−３−１",
    "office_name": "群馬労働局",
    "office_name_kana": "グンマロウドウキヨク"
  },
  "8570": {
    "postcode": "3718570",
    "prefecture": "群馬県",
    "prefecture_kana": "グンマケン",
    "prefecture_code": 10,
    "city": "前橋市",
    "city_kana": "マエバシシ",
    "town": "大手町",
    "town_kana": "オオテマチ",
    "street": "１丁目１−１",
    "office_name": "群馬県庁",
    "office_name_kana": "グンマケンチヨウ"
  },
  "8572": {
    "postcode": "3718572",
    "prefecture": "群馬県",
    "prefecture_kana": "グンマケン",
    "prefecture_code": 10,
    "city": "前橋市",
    "city_kana": "マエバシシ",
    "town": "元総社町",
    "town_kana": "モトソウジャマチ",
    "street": "１９４番地",
    "office_name": "株式会社　群銀カード",
    "office_name_kana": "カブシキガイシヤ グンギンカ-ド"
  },
  "8573": {
    "postcode": "3718573",
    "prefecture": "群馬県",
    "prefecture_kana": "グンマケン",
    "prefecture_code": 10,
    "city": "前橋市",
    "city_kana": "マエバシシ",
    "town": "文京町",
    "town_kana": "ブンキョウチョウ",
    "street": "２−２０−３",
    "office_name": "前橋清陵高等学校",
    "office_name_kana": "マエバシセイリヨウコウトウガツコウ"
  },
  "8580": {
    "postcode": "3718580",
    "prefecture": "群馬県",
    "prefecture_kana": "グンマケン",
    "prefecture_code": 10,
    "city": "前橋市",
    "city_kana": "マエバシシ",
    "town": "大手町",
    "town_kana": "オオテマチ",
    "street": "１−１−１",
    "office_name": "群馬県警察本部",
    "office_name_kana": "グンマケンケイサツホンブ"
  },
  "8585": {
    "postcode": "3718585",
    "prefecture": "群馬県",
    "prefecture_kana": "グンマケン",
    "prefecture_code": 10,
    "city": "前橋市",
    "city_kana": "マエバシシ",
    "town": "城東町",
    "town_kana": "ジョウトウマチ",
    "street": "４丁目２−１",
    "office_name": "群馬県卸酒販　株式会社",
    "office_name_kana": "グンマケンオロシシユハン カブシキガイシヤ"
  },
  "8586": {
    "postcode": "3718586",
    "prefecture": "群馬県",
    "prefecture_kana": "グンマケン",
    "prefecture_code": 10,
    "city": "前橋市",
    "city_kana": "マエバシシ",
    "town": "本町",
    "town_kana": "ホンマチ",
    "street": "１−３−１７",
    "office_name": "日本電信電話　株式会社　前橋支店",
    "office_name_kana": "ニホンデンシンデンワ カブシキカイシヤ マエバシシテン"
  },
  "8587": {
    "postcode": "3718587",
    "prefecture": "群馬県",
    "prefecture_kana": "グンマケン",
    "prefecture_code": 10,
    "city": "前橋市",
    "city_kana": "マエバシシ",
    "town": "大手町",
    "town_kana": "オオテマチ",
    "street": "２丁目３番１号前橋地方合同庁舎（前橋中央郵便局私書箱第３０号）",
    "office_name": "関東信越国税局業務センター　前橋分室",
    "office_name_kana": "カントウシンエツコクゼイキヨクギヨウムセンタ- マエバシブンシツ"
  },
  "8601": {
    "postcode": "3718601",
    "prefecture": "群馬県",
    "prefecture_kana": "グンマケン",
    "prefecture_code": 10,
    "city": "前橋市",
    "city_kana": "マエバシシ",
    "town": "大手町",
    "town_kana": "オオテマチ",
    "street": "２丁目１２−１",
    "office_name": "前橋市役所",
    "office_name_kana": "マエバシシヤクシヨ"
  },
  "8611": {
    "postcode": "3718611",
    "prefecture": "群馬県",
    "prefecture_kana": "グンマケン",
    "prefecture_code": 10,
    "city": "前橋市",
    "city_kana": "マエバシシ",
    "town": "元総社町",
    "town_kana": "モトソウジャマチ",
    "street": "１９４（前橋中央郵便局私書箱第１２号）",
    "office_name": "株式会社　群馬銀行",
    "office_name_kana": "カブシキガイシヤ グンマギンコウ"
  },
  "8616": {
    "postcode": "3718616",
    "prefecture": "群馬県",
    "prefecture_kana": "グンマケン",
    "prefecture_code": 10,
    "city": "前橋市",
    "city_kana": "マエバシシ",
    "town": "表町",
    "town_kana": "オモテチョウ",
    "street": "２−９−７（前橋中央郵便局私書箱第１６号）",
    "office_name": "日本生命保険　相互会社　群馬支社",
    "office_name_kana": "ニホンセイメイホケン ソウゴカイシヤ グンマシシヤ"
  },
  "8617": {
    "postcode": "3718617",
    "prefecture": "群馬県",
    "prefecture_kana": "グンマケン",
    "prefecture_code": 10,
    "city": "前橋市",
    "city_kana": "マエバシシ",
    "town": "表町",
    "town_kana": "オモテチョウ",
    "street": "２−９−７",
    "office_name": "第一生命保険　株式会社　群馬支社",
    "office_name_kana": "ダイイチセイメイホケン カブシキカイシヤ グンマシシヤ"
  },
  "8620": {
    "postcode": "3718620",
    "prefecture": "群馬県",
    "prefecture_kana": "グンマケン",
    "prefecture_code": 10,
    "city": "前橋市",
    "city_kana": "マエバシシ",
    "town": "千代田町",
    "town_kana": "チヨダマチ",
    "street": "３−４−１２（前橋中央郵便局私書箱第２０号）",
    "office_name": "株式会社　足利銀行　前橋支店",
    "office_name_kana": "カブシキカイシヤ アシカガギンコウ マエバシシテン"
  },
  "8625": {
    "postcode": "3718625",
    "prefecture": "群馬県",
    "prefecture_kana": "グンマケン",
    "prefecture_code": 10,
    "city": "前橋市",
    "city_kana": "マエバシシ",
    "town": "千代田町",
    "town_kana": "チヨダマチ",
    "street": "３−１−１３（前橋中央郵便局私書箱第５６号）",
    "office_name": "株式会社　群馬銀行　堅町支店",
    "office_name_kana": "カブシキガイシヤ グンマギンコウ タツマチシテン"
  },
  "8636": {
    "postcode": "3718636",
    "prefecture": "群馬県",
    "prefecture_kana": "グンマケン",
    "prefecture_code": 10,
    "city": "前橋市",
    "city_kana": "マエバシシ",
    "town": "本町",
    "town_kana": "ホンマチ",
    "street": "２−１−１４（前橋中央郵便局私書箱第３６号）",
    "office_name": "みずほ信託銀行　前橋支店",
    "office_name_kana": "ミズホシンタクギンコウ マエバシシテン"
  },
  "8640": {
    "postcode": "3718640",
    "prefecture": "群馬県",
    "prefecture_kana": "グンマケン",
    "prefecture_code": 10,
    "city": "前橋市",
    "city_kana": "マエバシシ",
    "town": "大手町",
    "town_kana": "オオテマチ",
    "street": "２丁目６−１４（前橋中央郵便局私書箱第１号）",
    "office_name": "日本銀行　前橋支店",
    "office_name_kana": "ニツポンギンコウ マエバシシテン"
  },
  "8666": {
    "postcode": "3718666",
    "prefecture": "群馬県",
    "prefecture_kana": "グンマケン",
    "prefecture_code": 10,
    "city": "前橋市",
    "city_kana": "マエバシシ",
    "town": "古市町",
    "town_kana": "フルイチマチ",
    "street": "１丁目５０−２１（前橋中央郵便局私書箱第４号）",
    "office_name": "株式会社　上毛新聞社",
    "office_name_kana": "カブシキガイシヤ ジヨウモウシンブンシヤ"
  },
  "8677": {
    "postcode": "3718677",
    "prefecture": "群馬県",
    "prefecture_kana": "グンマケン",
    "prefecture_code": 10,
    "city": "前橋市",
    "city_kana": "マエバシシ",
    "town": "若宮町",
    "town_kana": "ワカミヤチョウ",
    "street": "２−３−１７（前橋中央郵便局私書箱第２９号）",
    "office_name": "たむらや",
    "office_name_kana": "タムラヤ"
  },
  "8686": {
    "postcode": "3718686",
    "prefecture": "群馬県",
    "prefecture_kana": "グンマケン",
    "prefecture_code": 10,
    "city": "前橋市",
    "city_kana": "マエバシシ",
    "town": "大手町",
    "town_kana": "オオテマチ",
    "street": "２丁目３番地１号前橋地方合同庁舎（前橋中央郵便局私書箱第１１号）",
    "office_name": "前橋　税務署",
    "office_name_kana": "マエバシ ゼイムシヨ"
  },
  "8688": {
    "postcode": "3718688",
    "prefecture": "群馬県",
    "prefecture_kana": "グンマケン",
    "prefecture_code": 10,
    "city": "前橋市",
    "city_kana": "マエバシシ",
    "town": "千代田町",
    "town_kana": "チヨダマチ",
    "street": "２−３−１２",
    "office_name": "しののめ信用金庫　本店",
    "office_name_kana": "シノノメシンヨウキンコ ホンテン"
  }
}