{
  "0000": {
    "postcode": "3730000",
    "prefecture": "群馬県",
    "prefecture_kana": "グンマケン",
    "prefecture_code": 10,
    "city": "太田市",
    "city_kana": "オオタシ",
    "town": "",
    "town_kana": "",
    "street": null,
    "office_name": null,
    "office_name_kana": null
  },
  "0001": {
    "postcode": "3730001",
    "prefecture": "群馬県",
    "prefecture_kana": "グンマケン",
    "prefecture_code": 10,
    "city": "太田市",
    "city_kana": "オオタシ",
    "town": "西長岡町",
    "town_kana": "ニシナガオカチョウ",
    "street": null,
    "office_name": null,
    "office_name_kana": null
  },
  "0002": {
    "postcode": "3730002",
    "prefecture": "群馬県",
    "prefecture_kana": "グンマケン",
    "prefecture_code": 10,
    "city": "太田市",
    "city_kana": "オオタシ",
    "town": "菅塩町",
    "town_kana": "スガシオチョウ",
    "street": null,
    "office_name": null,
    "office_name_kana": null
  },
  "0003": {
    "postcode": "3730003",
    "prefecture": "群馬県",
    "prefecture_kana": "グンマケン",
    "prefecture_code": 10,
    "city": "太田市",
    "city_kana": "オオタシ",
    "town": "北金井町",
    "town_kana": "キタカナイチョウ",
    "street": null,
    "office_name": null,
    "office_name_kana": null
  },
  "0004": {
    "postcode": "3730004",
    "prefecture": "群馬県",
    "prefecture_kana": "グンマケン",
    "prefecture_code": 10,
    "city": "太田市",
    "city_kana": "オオタシ",
    "town": "強戸町",
    "town_kana": "ゴウドチョウ",
    "street": null,
    "office_name": null,
    "office_name_kana": null
  },
  "0006": {
    "postcode": "3730006",
    "prefecture": "群馬県",
    "prefecture_kana": "グンマケン",
    "prefecture_code": 10,
    "city": "太田市",
    "city_kana": "オオタシ",
    "town": "成塚町",
    "town_kana": "ナリヅカチョウ",
    "street": null,
    "office_name": null,
    "office_name_kana": null
  },
  "0007": {
    "postcode": "3730007",
    "prefecture": "群馬県",
    "prefecture_kana": "グンマケン",
    "prefecture_code": 10,
    "city": "太田市",
    "city_kana": "オオタシ",
    "town": "石橋町",
    "town_kana": "イシバシチョウ",
    "street": null,
    "office_name": null,
    "office_name_kana": null
  },
  "0008": {
    "postcode": "3730008",
    "prefecture": "群馬県",
    "prefecture_kana": "グンマケン",
    "prefecture_code": 10,
    "city": "太田市",
    "city_kana": "オオタシ",
    "town": "鶴生田町",
    "town_kana": "ツルウダチョウ",
    "street": null,
    "office_name": null,
    "office_name_kana": null
  },
  "0011": {
    "postcode": "3730011",
    "prefecture": "群馬県",
    "prefecture_kana": "グンマケン",
    "prefecture_code": 10,
    "city": "太田市",
    "city_kana": "オオタシ",
    "town": "只上町",
    "town_kana": "タダカリチョウ",
    "street": null,
    "office_name": null,
    "office_name_kana": null
  },
  "0012": {
    "postcode": "3730012",
    "prefecture": "群馬県",
    "prefecture_kana": "グンマケン",
    "prefecture_code": 10,
    "city": "太田市",
    "city_kana": "オオタシ",
    "town": "清原町",
    "town_kana": "キヨハラチョウ",
    "street": null,
    "office_name": null,
    "office_name_kana": null
  },
  "0013": {
    "postcode": "3730013",
    "prefecture": "群馬県",
    "prefecture_kana": "グンマケン",
    "prefecture_code": 10,
    "city": "太田市",
    "city_kana": "オオタシ",
    "town": "市場町",
    "town_kana": "イチバチョウ",
    "street": null,
    "office_name": null,
    "office_name_kana": null
  },
  "0014": {
    "postcode": "3730014",
    "prefecture": "群馬県",
    "prefecture_kana": "グンマケン",
    "prefecture_code": 10,
    "city": "太田市",
    "city_kana": "オオタシ",
    "town": "植木野町",
    "town_kana": "ウエキノチョウ",
    "street": null,
    "office_name": null,
    "office_name_kana": null
  },
  "0015": {
    "postcode": "3730015",
    "prefecture": "群馬県",
    "prefecture_kana": "グンマケン",
    "prefecture_code": 10,
    "city": "太田市",
    "city_kana": "オオタシ",
    "town": "東新町",
    "town_kana": "ヒガシシンマチ",
    "street": null,
    "office_name": null,
    "office_name_kana": null
  },
  "0016": {
    "postcode": "3730016",
    "prefecture": "群馬県",
    "prefecture_kana": "グンマケン",
    "prefecture_code": 10,
    "city": "太田市",
    "city_kana": "オオタシ",
    "town": "矢田堀町",
    "town_kana": "ヤタボリチョウ",
    "street": null,
    "office_name": null,
    "office_name_kana": null
  },
  "0018": {
    "postcode": "3730018",
    "prefecture": "群馬県",
    "prefecture_kana": "グンマケン",
    "prefecture_code": 10,
    "city": "太田市",
    "city_kana": "オオタシ",
    "town": "丸山町",
    "town_kana": "マルヤマチョウ",
    "street": null,
    "office_name": null,
    "office_name_kana": null
  },
  "0019": {
    "postcode": "3730019",
    "prefecture": "群馬県",
    "prefecture_kana": "グンマケン",
    "prefecture_code": 10,
    "city": "太田市",
    "city_kana": "オオタシ",
    "town": "吉沢町",
    "town_kana": "ヨシザワチョウ",
    "street": null,
    "office_name": null,
    "office_name_kana": null
  },
  "0021": {
    "postcode": "3730021",
    "prefecture": "群馬県",
    "prefecture_kana": "グンマケン",
    "prefecture_code": 10,
    "city": "太田市",
    "city_kana": "オオタシ",
    "town": "東今泉町",
    "town_kana": "ヒガシイマイズミチョウ",
    "street": null,
    "office_name": null,
    "office_name_kana": null
  },
  "0022": {
    "postcode": "3730022",
    "prefecture": "群馬県",
    "prefecture_kana": "グンマケン",
    "prefecture_code": 10,
    "city": "太田市",
    "city_kana": "オオタシ",
    "town": "東金井町",
    "town_kana": "ヒガシカナイチョウ",
    "street": null,
    "office_name": null,
    "office_name_kana": null
  },
  "0023": {
    "postcode": "3730023",
    "prefecture": "群馬県",
    "prefecture_kana": "グンマケン",
    "prefecture_code": 10,
    "city": "太田市",
    "city_kana": "オオタシ",
    "town": "富若町",
    "town_kana": "トミワカチョウ",
    "street": null,
    "office_name": null,
    "office_name_kana": null
  },
  "0024": {
    "postcode": "3730024",
    "prefecture": "群馬県",
    "prefecture_kana": "グンマケン",
    "prefecture_code": 10,
    "city": "太田市",
    "city_kana": "オオタシ",
    "town": "上小林町",
    "town_kana": "カミコバヤシチョウ",
    "street": null,
    "office_name": null,
    "office_name_kana": null
  },
  "0025": {
    "postcode": "3730025",
    "prefecture": "群馬県",
    "prefecture_kana": "グンマケン",
    "prefecture_code": 10,
    "city": "太田市",
    "city_kana": "オオタシ",
    "town": "熊野町",
    "town_kana": "クマノチョウ",
    "street": null,
    "office_name": null,
    "office_name_kana": null
  },
  "0026": {
    "postcode": "3730026",
    "prefecture": "群馬県",
    "prefecture_kana": "グンマケン",
    "prefecture_code": 10,
    "city": "太田市",
    "city_kana": "オオタシ",
    "town": "東本町",
    "town_kana": "ヒガシホンチョウ",
    "street": null,
    "office_name": null,
    "office_name_kana": null
  },
  "0027": {
    "postcode": "3730027",
    "prefecture": "群馬県",
    "prefecture_kana": "グンマケン",
    "prefecture_code": 10,
    "city": "太田市",
    "city_kana": "オオタシ",
    "town": "金山町",
    "town_kana": "カナヤマチョウ",
    "street": null,
    "office_name": null,
    "office_name_kana": null
  },
  "0028": {
    "postcode": "3730028",
    "prefecture": "群馬県",
    "prefecture_kana": "グンマケン",
    "prefecture_code": 10,
    "city": "太田市",
    "city_kana": "オオタシ",
    "town": "スバル町",
    "town_kana": "スバルチョウ",
    "street": null,
    "office_name": null,
    "office_name_kana": null
  },
  "0029": {
    "postcode": "3730029",
    "prefecture": "群馬県",
    "prefecture_kana": "グンマケン",
    "prefecture_code": 10,
    "city": "太田市",
    "city_kana": "オオタシ",
    "town": "韮川町",
    "town_kana": "ニラガワチョウ",
    "street": null,
    "office_name": null,
    "office_name_kana": null
  },
  "0031": {
    "postcode": "3730031",
    "prefecture": "群馬県",
    "prefecture_kana": "グンマケン",
    "prefecture_code": 10,
    "city": "太田市",
    "city_kana": "オオタシ",
    "town": "脇屋町",
    "town_kana": "ワキヤチョウ",
    "street": null,
    "office_name": null,
    "office_name_kana": null
  },
  "0032": {
    "postcode": "3730032",
    "prefecture": "群馬県",
    "prefecture_kana": "グンマケン",
    "prefecture_code": 10,
    "city": "太田市",
    "city_kana": "オオタシ",
    "town": "新野町",
    "town_kana": "ニイノチョウ",
    "street": null,
    "office_name": null,
    "office_name_kana": null
  },
  "0033": {
    "postcode": "3730033",
    "prefecture": "群馬県",
    "prefecture_kana": "グンマケン",
    "prefecture_code": 10,
    "city": "太田市",
    "city_kana": "オオタシ",
    "town": "西本町",
    "town_kana": "ニシホンチョウ",
    "street": null,
    "office_name": null,
    "office_name_kana": null
  },
  "0034": {
    "postcode": "3730034",
    "prefecture": "群馬県",
    "prefecture_kana": "グンマケン",
    "prefecture_code": 10,
    "city": "太田市",
    "city_kana": "オオタシ",
    "town": "藤阿久町",
    "town_kana": "フジアグチョウ",
    "street": null,
    "office_name": null,
    "office_name_kana": null
  },
  "0035": {
    "postcode": "3730035",
    "prefecture": "群馬県",
    "prefecture_kana": "グンマケン",
    "prefecture_code": 10,
    "city": "太田市",
    "city_kana": "オオタシ",
    "town": "藤久良町",
    "town_kana": "フジクラチョウ",
    "street": null,
    "office_name": null,
    "office_name_kana": null
  },
  "0036": {
    "postcode": "3730036",
    "prefecture": "群馬県",
    "prefecture_kana": "グンマケン",
    "prefecture_code": 10,
    "city": "太田市",
    "city_kana": "オオタシ",
    "town": "由良町",
    "town_kana": "ユラチョウ",
    "street": null,
    "office_name": null,
    "office_name_kana": null
  },
  "0037": {
    "postcode": "3730037",
    "prefecture": "群馬県",
    "prefecture_kana": "グンマケン",
    "prefecture_code": 10,
    "city": "太田市",
    "city_kana": "オオタシ",
    "town": "新道町",
    "town_kana": "シンドウチョウ",
    "street": null,
    "office_name": null,
    "office_name_kana": null
  },
  "0038": {
    "postcode": "3730038",
    "prefecture": "群馬県",
    "prefecture_kana": "グンマケン",
    "prefecture_code": 10,
    "city": "太田市",
    "city_kana": "オオタシ",
    "town": "城西町",
    "town_kana": "ジョウサイチョウ",
    "street": null,
    "office_name": null,
    "office_name_kana": null
  },
  "0041": {
    "postcode": "3730041",
    "prefecture": "群馬県",
    "prefecture_kana": "グンマケン",
    "prefecture_code": 10,
    "city": "太田市",
    "city_kana": "オオタシ",
    "town": "別所町",
    "town_kana": "ベッショチョウ",
    "street": null,
    "office_name": null,
    "office_name_kana": null
  },
  "0042": {
    "postcode": "3730042",
    "prefecture": "群馬県",
    "prefecture_kana": "グンマケン",
    "prefecture_code": 10,
    "city": "太田市",
    "city_kana": "オオタシ",
    "town": "宝町",
    "town_kana": "タカラマチ",
    "street": null,
    "office_name": null,
    "office_name_kana": null
  },
  "0043": {
    "postcode": "3730043",
    "prefecture": "群馬県",
    "prefecture_kana": "グンマケン",
    "prefecture_code": 10,
    "city": "太田市",
    "city_kana": "オオタシ",
    "town": "西野谷町",
    "town_kana": "ニシノヤチョウ",
    "street": null,
    "office_name": null,
    "office_name_kana": null
  },
  "0044": {
    "postcode": "3730044",
    "prefecture": "群馬県",
    "prefecture_kana": "グンマケン",
    "prefecture_code": 10,
    "city": "太田市",
    "city_kana": "オオタシ",
    "town": "上田島町",
    "town_kana": "カミタジマチョウ",
    "street": null,
    "office_name": null,
    "office_name_kana": null
  },
  "0045": {
    "postcode": "3730045",
    "prefecture": "群馬県",
    "prefecture_kana": "グンマケン",
    "prefecture_code": 10,
    "city": "太田市",
    "city_kana": "オオタシ",
    "town": "沖野町",
    "town_kana": "オキノチョウ",
    "street": null,
    "office_name": null,
    "office_name_kana": null
  },
  "0051": {
    "postcode": "3730051",
    "prefecture": "群馬県",
    "prefecture_kana": "グンマケン",
    "prefecture_code": 10,
    "city": "太田市",
    "city_kana": "オオタシ",
    "town": "天良町",
    "town_kana": "テンラチョウ",
    "street": null,
    "office_name": null,
    "office_name_kana": null
  },
  "0052": {
    "postcode": "3730052",
    "prefecture": "群馬県",
    "prefecture_kana": "グンマケン",
    "prefecture_code": 10,
    "city": "太田市",
    "city_kana": "オオタシ",
    "town": "寺井町",
    "town_kana": "テライチョウ",
    "street": null,
    "office_name": null,
    "office_name_kana": null
  },
  "0053": {
    "postcode": "3730053",
    "prefecture": "群馬県",
    "prefecture_kana": "グンマケン",
    "prefecture_code": 10,
    "city": "太田市",
    "city_kana": "オオタシ",
    "town": "鳥山町",
    "town_kana": "トリヤマチョウ",
    "street": null,
    "office_name": null,
    "office_name_kana": null
  },
  "0054": {
    "postcode": "3730054",
    "prefecture": "群馬県",
    "prefecture_kana": "グンマケン",
    "prefecture_code": 10,
    "city": "太田市",
    "city_kana": "オオタシ",
    "town": "長手町",
    "town_kana": "ナガテチョウ",
    "street": null,
    "office_name": null,
    "office_name_kana": null
  },
  "0055": {
    "postcode": "3730055",
    "prefecture": "群馬県",
    "prefecture_kana": "グンマケン",
    "prefecture_code": 10,
    "city": "太田市",
    "city_kana": "オオタシ",
    "town": "大島町",
    "town_kana": "オオシマチョウ",
    "street": null,
    "office_name": null,
    "office_name_kana": null
  },
  "0056": {
    "postcode": "3730056",
    "prefecture": "群馬県",
    "prefecture_kana": "グンマケン",
    "prefecture_code": 10,
    "city": "太田市",
    "city_kana": "オオタシ",
    "town": "八幡町",
    "town_kana": "ハチマンチョウ",
    "street": null,
    "office_name": null,
    "office_name_kana": null
  },
  "0057": {
    "postcode": "3730057",
    "prefecture": "群馬県",
    "prefecture_kana": "グンマケン",
    "prefecture_code": 10,
    "city": "太田市",
    "city_kana": "オオタシ",
    "town": "本町",
    "town_kana": "ホンチョウ",
    "street": null,
    "office_name": null,
    "office_name_kana": null
  },
  "0061": {
    "postcode": "3730061",
    "prefecture": "群馬県",
    "prefecture_kana": "グンマケン",
    "prefecture_code": 10,
    "city": "太田市",
    "city_kana": "オオタシ",
    "town": "鳥山上町",
    "town_kana": "トリヤマカミチョウ",
    "street": null,
    "office_name": null,
    "office_name_kana": null
  },
  "0062": {
    "postcode": "3730062",
    "prefecture": "群馬県",
    "prefecture_kana": "グンマケン",
    "prefecture_code": 10,
    "city": "太田市",
    "city_kana": "オオタシ",
    "town": "鳥山中町",
    "town_kana": "トリヤマナカチョウ",
    "street": null,
    "office_name": null,
    "office_name_kana": null
  },
  "0063": {
    "postcode": "3730063",
    "prefecture": "群馬県",
    "prefecture_kana": "グンマケン",
    "prefecture_code": 10,
    "city": "太田市",
    "city_kana": "オオタシ",
    "town": "鳥山下町",
    "town_kana": "トリヤマシモチョウ",
    "street": null,
    "office_name": null,
    "office_name_kana": null
  },
  "0071": {
    "postcode": "3730071",
    "prefecture": "群馬県",
    "prefecture_kana": "グンマケン",
    "prefecture_code": 10,
    "city": "太田市",
    "city_kana": "オオタシ",
    "town": "原宿町",
    "town_kana": "ハラジュクチョウ",
    "street": null,
    "office_name": null,
    "office_name_kana": null
  },
  "0072": {
    "postcode": "3730072",
    "prefecture": "群馬県",
    "prefecture_kana": "グンマケン",
    "prefecture_code": 10,
    "city": "太田市",
    "city_kana": "オオタシ",
    "town": "高瀬町",
    "town_kana": "タカゼチョウ",
    "street": null,
    "office_name": null,
    "office_name_kana": null
  },
  "0073": {
    "postcode": "3730073",
    "prefecture": "群馬県",
    "prefecture_kana": "グンマケン",
    "prefecture_code": 10,
    "city": "太田市",
    "city_kana": "オオタシ",
    "town": "緑町",
    "town_kana": "ミドリチョウ",
    "street": null,
    "office_name": null,
    "office_name_kana": null
  },
  "0074": {
    "postcode": "3730074",
    "prefecture": "群馬県",
    "prefecture_kana": "グンマケン",
    "prefecture_code": 10,
    "city": "太田市",
    "city_kana": "オオタシ",
    "town": "上強戸町",
    "town_kana": "カミゴウドチョウ",
    "street": null,
    "office_name": null,
    "office_name_kana": null
  },
  "0075": {
    "postcode": "3730075",
    "prefecture": "群馬県",
    "prefecture_kana": "グンマケン",
    "prefecture_code": 10,
    "city": "太田市",
    "city_kana": "オオタシ",
    "town": "大鷲町",
    "town_kana": "オオワシチョウ",
    "street": null,
    "office_name": null,
    "office_name_kana": null
  },
  "0801": {
    "postcode": "3730801",
    "prefecture": "群馬県",
    "prefecture_kana": "グンマケン",
    "prefecture_code": 10,
    "city": "太田市",
    "city_kana": "オオタシ",
    "town": "台之郷町",
    "town_kana": "ダイノゴウチョウ",
    "street": null,
    "office_name": null,
    "office_name_kana": null
  },
  "0802": {
    "postcode": "3730802",
    "prefecture": "群馬県",
    "prefecture_kana": "グンマケン",
    "prefecture_code": 10,
    "city": "太田市",
    "city_kana": "オオタシ",
    "town": "矢場新町",
    "town_kana": "ヤバシンマチ",
    "street": null,
    "office_name": null,
    "office_name_kana": null
  },
  "0803": {
    "postcode": "3730803",
    "prefecture": "群馬県",
    "prefecture_kana": "グンマケン",
    "prefecture_code": 10,
    "city": "太田市",
    "city_kana": "オオタシ",
    "town": "矢場町",
    "town_kana": "ヤバチョウ",
    "street": null,
    "office_name": null,
    "office_name_kana": null
  },
  "0804": {
    "postcode": "3730804",
    "prefecture": "群馬県",
    "prefecture_kana": "グンマケン",
    "prefecture_code": 10,
    "city": "太田市",
    "city_kana": "オオタシ",
    "town": "沖之郷町",
    "town_kana": "オキノゴウチョウ",
    "street": null,
    "office_name": null,
    "office_name_kana": null
  },
  "0805": {
    "postcode": "3730805",
    "prefecture": "群馬県",
    "prefecture_kana": "グンマケン",
    "prefecture_code": 10,
    "city": "太田市",
    "city_kana": "オオタシ",
    "town": "八重笠町",
    "town_kana": "ヤエガサチョウ",
    "street": null,
    "office_name": null,
    "office_name_kana": null
  },
  "0806": {
    "postcode": "3730806",
    "prefecture": "群馬県",
    "prefecture_kana": "グンマケン",
    "prefecture_code": 10,
    "city": "太田市",
    "city_kana": "オオタシ",
    "town": "龍舞町",
    "town_kana": "リュウマイチョウ",
    "street": null,
    "office_name": null,
    "office_name_kana": null
  },
  "0807": {
    "postcode": "3730807",
    "prefecture": "群馬県",
    "prefecture_kana": "グンマケン",
    "prefecture_code": 10,
    "city": "太田市",
    "city_kana": "オオタシ",
    "town": "下小林町",
    "town_kana": "シモコバヤシチョウ",
    "street": null,
    "office_name": null,
    "office_name_kana": null
  },
  "0808": {
    "postcode": "3730808",
    "prefecture": "群馬県",
    "prefecture_kana": "グンマケン",
    "prefecture_code": 10,
    "city": "太田市",
    "city_kana": "オオタシ",
    "town": "石原町",
    "town_kana": "イシハラチョウ",
    "street": null,
    "office_name": null,
    "office_name_kana": null
  },
  "0809": {
    "postcode": "3730809",
    "prefecture": "群馬県",
    "prefecture_kana": "グンマケン",
    "prefecture_code": 10,
    "city": "太田市",
    "city_kana": "オオタシ",
    "town": "茂木町",
    "town_kana": "モテギチョウ",
    "street": null,
    "office_name": null,
    "office_name_kana": null
  },
  "0811": {
    "postcode": "3730811",
    "prefecture": "群馬県",
    "prefecture_kana": "グンマケン",
    "prefecture_code": 10,
    "city": "太田市",
    "city_kana": "オオタシ",
    "town": "安良岡町",
    "town_kana": "ヤスラオカチョウ",
    "street": null,
    "office_name": null,
    "office_name_kana": null
  },
  "0812": {
    "postcode": "3730812",
    "prefecture": "群馬県",
    "prefecture_kana": "グンマケン",
    "prefecture_code": 10,
    "city": "太田市",
    "city_kana": "オオタシ",
    "town": "東長岡町",
    "town_kana": "ヒガシナガオカチョウ",
    "street": null,
    "office_name": null,
    "office_name_kana": null
  },
  "0813": {
    "postcode": "3730813",
    "prefecture": "群馬県",
    "prefecture_kana": "グンマケン",
    "prefecture_code": 10,
    "city": "太田市",
    "city_kana": "オオタシ",
    "town": "内ケ島町",
    "town_kana": "ウチガシマチョウ",
    "street": null,
    "office_name": null,
    "office_name_kana": null
  },
  "0814": {
    "postcode": "3730814",
    "prefecture": "群馬県",
    "prefecture_kana": "グンマケン",
    "prefecture_code": 10,
    "city": "太田市",
    "city_kana": "オオタシ",
    "town": "朝日町",
    "town_kana": "アサヒチョウ",
    "street": null,
    "office_name": null,
    "office_name_kana": null
  },
  "0815": {
    "postcode": "3730815",
    "prefecture": "群馬県",
    "prefecture_kana": "グンマケン",
    "prefecture_code": 10,
    "city": "太田市",
    "city_kana": "オオタシ",
    "town": "東別所町",
    "town_kana": "ヒガシベッショチョウ",
    "street": null,
    "office_name": null,
    "office_name_kana": null
  },
  "0816": {
    "postcode": "3730816",
    "prefecture": "群馬県",
    "prefecture_kana": "グンマケン",
    "prefecture_code": 10,
    "city": "太田市",
    "city_kana": "オオタシ",
    "town": "東矢島町",
    "town_kana": "ヒガシヤジマチョウ",
    "street": null,
    "office_name": null,
    "office_name_kana": null
  },
  "0817": {
    "postcode": "3730817",
    "prefecture": "群馬県",
    "prefecture_kana": "グンマケン",
    "prefecture_code": 10,
    "city": "太田市",
    "city_kana": "オオタシ",
    "town": "飯塚町",
    "town_kana": "イイヅカチョウ",
    "street": null,
    "office_name": null,
    "office_name_kana": null
  },
  "0818": {
    "postcode": "3730818",
    "prefecture": "群馬県",
    "prefecture_kana": "グンマケン",
    "prefecture_code": 10,
    "city": "太田市",
    "city_kana": "オオタシ",
    "town": "小舞木町",
    "town_kana": "コマイギチョウ",
    "street": null,
    "office_name": null,
    "office_name_kana": null
  },
  "0819": {
    "postcode": "3730819",
    "prefecture": "群馬県",
    "prefecture_kana": "グンマケン",
    "prefecture_code": 10,
    "city": "太田市",
    "city_kana": "オオタシ",
    "town": "新島町",
    "town_kana": "ニイジマチョウ",
    "street": null,
    "office_name": null,
    "office_name_kana": null
  },
  "0821": {
    "postcode": "3730821",
    "prefecture": "群馬県",
    "prefecture_kana": "グンマケン",
    "prefecture_code": 10,
    "city": "太田市",
    "city_kana": "オオタシ",
    "town": "下浜田町",
    "town_kana": "シモハマダチョウ",
    "street": null,
    "office_name": null,
    "office_name_kana": null
  },
  "0822": {
    "postcode": "3730822",
    "prefecture": "群馬県",
    "prefecture_kana": "グンマケン",
    "prefecture_code": 10,
    "city": "太田市",
    "city_kana": "オオタシ",
    "town": "庄屋町",
    "town_kana": "ショウヤマチ",
    "street": null,
    "office_name": null,
    "office_name_kana": null
  },
  "0823": {
    "postcode": "3730823",
    "prefecture": "群馬県",
    "prefecture_kana": "グンマケン",
    "prefecture_code": 10,
    "city": "太田市",
    "city_kana": "オオタシ",
    "town": "西矢島町",
    "town_kana": "ニシヤジマチョウ",
    "street": null,
    "office_name": null,
    "office_name_kana": null
  },
  "0824": {
    "postcode": "3730824",
    "prefecture": "群馬県",
    "prefecture_kana": "グンマケン",
    "prefecture_code": 10,
    "city": "太田市",
    "city_kana": "オオタシ",
    "town": "高林寿町",
    "town_kana": "タカハヤシコトブキチョウ",
    "street": null,
    "office_name": null,
    "office_name_kana": null
  },
  "0825": {
    "postcode": "3730825",
    "prefecture": "群馬県",
    "prefecture_kana": "グンマケン",
    "prefecture_code": 10,
    "city": "太田市",
    "city_kana": "オオタシ",
    "town": "高林東町",
    "town_kana": "タカハヤシヒガシチョウ",
    "street": null,
    "office_name": null,
    "office_name_kana": null
  },
  "0826": {
    "postcode": "3730826",
    "prefecture": "群馬県",
    "prefecture_kana": "グンマケン",
    "prefecture_code": 10,
    "city": "太田市",
    "city_kana": "オオタシ",
    "town": "古戸町",
    "town_kana": "フルトチョウ",
    "street": null,
    "office_name": null,
    "office_name_kana": null
  },
  "0827": {
    "postcode": "3730827",
    "prefecture": "群馬県",
    "prefecture_kana": "グンマケン",
    "prefecture_code": 10,
    "city": "太田市",
    "city_kana": "オオタシ",
    "town": "高林南町",
    "town_kana": "タカハヤシミナミチョウ",
    "street": null,
    "office_name": null,
    "office_name_kana": null
  },
  "0828": {
    "postcode": "3730828",
    "prefecture": "群馬県",
    "prefecture_kana": "グンマケン",
    "prefecture_code": 10,
    "city": "太田市",
    "city_kana": "オオタシ",
    "town": "高林西町",
    "town_kana": "タカハヤシニシチョウ",
    "street": null,
    "office_name": null,
    "office_name_kana": null
  },
  "0829": {
    "postcode": "3730829",
    "prefecture": "群馬県",
    "prefecture_kana": "グンマケン",
    "prefecture_code": 10,
    "city": "太田市",
    "city_kana": "オオタシ",
    "town": "高林北町",
    "town_kana": "タカハヤシキタチョウ",
    "street": null,
    "office_name": null,
    "office_name_kana": null
  },
  "0831": {
    "postcode": "3730831",
    "prefecture": "群馬県",
    "prefecture_kana": "グンマケン",
    "prefecture_code": 10,
    "city": "太田市",
    "city_kana": "オオタシ",
    "town": "福沢町",
    "town_kana": "フクザワチョウ",
    "street": null,
    "office_name": null,
    "office_name_kana": null
  },
  "0832": {
    "postcode": "3730832",
    "prefecture": "群馬県",
    "prefecture_kana": "グンマケン",
    "prefecture_code": 10,
    "city": "太田市",
    "city_kana": "オオタシ",
    "town": "富沢町",
    "town_kana": "トミザワチョウ",
    "street": null,
    "office_name": null,
    "office_name_kana": null
  },
  "0833": {
    "postcode": "3730833",
    "prefecture": "群馬県",
    "prefecture_kana": "グンマケン",
    "prefecture_code": 10,
    "city": "太田市",
    "city_kana": "オオタシ",
    "town": "牛沢町",
    "town_kana": "ウシザワチョウ",
    "street": null,
    "office_name": null,
    "office_name_kana": null
  },
  "0841": {
    "postcode": "3730841",
    "prefecture": "群馬県",
    "prefecture_kana": "グンマケン",
    "prefecture_code": 10,
    "city": "太田市",
    "city_kana": "オオタシ",
    "town": "岩瀬川町",
    "town_kana": "イワセガワチョウ",
    "street": null,
    "office_name": null,
    "office_name_kana": null
  },
  "0842": {
    "postcode": "3730842",
    "prefecture": "群馬県",
    "prefecture_kana": "グンマケン",
    "prefecture_code": 10,
    "city": "太田市",
    "city_kana": "オオタシ",
    "town": "細谷町",
    "town_kana": "ホソヤチョウ",
    "street": null,
    "office_name": null,
    "office_name_kana": null
  },
  "0843": {
    "postcode": "3730843",
    "prefecture": "群馬県",
    "prefecture_kana": "グンマケン",
    "prefecture_code": 10,
    "city": "太田市",
    "city_kana": "オオタシ",
    "town": "米沢町",
    "town_kana": "ヨネザワチョウ",
    "street": null,
    "office_name": null,
    "office_name_kana": null
  },
  "0844": {
    "postcode": "3730844",
    "prefecture": "群馬県",
    "prefecture_kana": "グンマケン",
    "prefecture_code": 10,
    "city": "太田市",
    "city_kana": "オオタシ",
    "town": "下田島町",
    "town_kana": "シモタジマチョウ",
    "street": null,
    "office_name": null,
    "office_name_kana": null
  },
  "0845": {
    "postcode": "3730845",
    "prefecture": "群馬県",
    "prefecture_kana": "グンマケン",
    "prefecture_code": 10,
    "city": "太田市",
    "city_kana": "オオタシ",
    "town": "泉町",
    "town_kana": "イズミチョウ",
    "street": null,
    "office_name": null,
    "office_name_kana": null
  },
  "0846": {
    "postcode": "3730846",
    "prefecture": "群馬県",
    "prefecture_kana": "グンマケン",
    "prefecture_code": 10,
    "city": "太田市",
    "city_kana": "オオタシ",
    "town": "中根町",
    "town_kana": "ナカネチョウ",
    "street": null,
    "office_name": null,
    "office_name_kana": null
  },
  "0847": {
    "postcode": "3730847",
    "prefecture": "群馬県",
    "prefecture_kana": "グンマケン",
    "prefecture_code": 10,
    "city": "太田市",
    "city_kana": "オオタシ",
    "town": "西新町",
    "town_kana": "ニシシンマチ",
    "street": null,
    "office_name": null,
    "office_name_kana": null
  },
  "0851": {
    "postcode": "3730851",
    "prefecture": "群馬県",
    "prefecture_kana": "グンマケン",
    "prefecture_code": 10,
    "city": "太田市",
    "city_kana": "オオタシ",
    "town": "飯田町",
    "town_kana": "イイダチョウ",
    "street": null,
    "office_name": null,
    "office_name_kana": null
  },
  "0852": {
    "postcode": "3730852",
    "prefecture": "群馬県",
    "prefecture_kana": "グンマケン",
    "prefecture_code": 10,
    "city": "太田市",
    "city_kana": "オオタシ",
    "town": "新井町",
    "town_kana": "アライチョウ",
    "street": null,
    "office_name": null,
    "office_name_kana": null
  },
  "0853": {
    "postcode": "3730853",
    "prefecture": "群馬県",
    "prefecture_kana": "グンマケン",
    "prefecture_code": 10,
    "city": "太田市",
    "city_kana": "オオタシ",
    "town": "浜町",
    "town_kana": "ハマチョウ",
    "street": null,
    "office_name": null,
    "office_name_kana": null
  },
  "0861": {
    "postcode": "3730861",
    "prefecture": "群馬県",
    "prefecture_kana": "グンマケン",
    "prefecture_code": 10,
    "city": "太田市",
    "city_kana": "オオタシ",
    "town": "南矢島町",
    "town_kana": "ミナミヤジマチョウ",
    "street": null,
    "office_name": null,
    "office_name_kana": null
  },
  "0862": {
    "postcode": "3730862",
    "prefecture": "群馬県",
    "prefecture_kana": "グンマケン",
    "prefecture_code": 10,
    "city": "太田市",
    "city_kana": "オオタシ",
    "town": "末広町",
    "town_kana": "スエヒロチョウ",
    "street": null,
    "office_name": null,
    "office_name_kana": null
  },
  "8501": {
    "postcode": "3738501",
    "prefecture": "群馬県",
    "prefecture_kana": "グンマケン",
    "prefecture_code": 10,
    "city": "太田市",
    "city_kana": "オオタシ",
    "town": "脇屋町",
    "town_kana": "ワキヤチョウ",
    "street": "９９７−１４",
    "office_name": "富士部品工業　株式会社",
    "office_name_kana": "フジブヒンコウギヨウ カブシキガイシヤ"
  },
  "8505": {
    "postcode": "3738505",
    "prefecture": "群馬県",
    "prefecture_kana": "グンマケン",
    "prefecture_code": 10,
    "city": "太田市",
    "city_kana": "オオタシ",
    "town": "西新町",
    "town_kana": "ニシシンマチ",
    "street": "１３３番地",
    "office_name": "モメンティブ・パフォーマンス・マテリアルズ・ジャパン　合同会社　太田事業所",
    "office_name_kana": "モメンテイブ・パフオ-マンス・マテリアルズ・ジヤパン ゴウドウカイシヤ オオタジギヨウシヨ"
  },
  "8508": {
    "postcode": "3738508",
    "prefecture": "群馬県",
    "prefecture_kana": "グンマケン",
    "prefecture_code": 10,
    "city": "太田市",
    "city_kana": "オオタシ",
    "town": "西本町",
    "town_kana": "ニシホンチョウ",
    "street": "６０−２７",
    "office_name": "群馬県東部県税事務所",
    "office_name_kana": "グンマケントウブケンゼイジムシヨ"
  },
  "8509": {
    "postcode": "3738509",
    "prefecture": "群馬県",
    "prefecture_kana": "グンマケン",
    "prefecture_code": 10,
    "city": "太田市",
    "city_kana": "オオタシ",
    "town": "西本町",
    "town_kana": "ニシホンチョウ",
    "street": "６０−２７",
    "office_name": "群馬県東部行政事務所",
    "office_name_kana": "グンマケントウブギヨウセイジムシヨ"
  },
  "8510": {
    "postcode": "3738510",
    "prefecture": "群馬県",
    "prefecture_kana": "グンマケン",
    "prefecture_code": 10,
    "city": "太田市",
    "city_kana": "オオタシ",
    "town": "新島町",
    "town_kana": "ニイジマチョウ",
    "street": "１１１−１",
    "office_name": "坂本工業　株式会社　新島工場",
    "office_name_kana": "サカモトコウギヨウ カブシキガイシヤ ニイジマコウジヨウ"
  },
  "8511": {
    "postcode": "3738511",
    "prefecture": "群馬県",
    "prefecture_kana": "グンマケン",
    "prefecture_code": 10,
    "city": "太田市",
    "city_kana": "オオタシ",
    "town": "八幡町",
    "town_kana": "ハチマンチョウ",
    "street": "１６−７",
    "office_name": "県立太田女子高等学校",
    "office_name_kana": "ケンリツオオタジヨシコウトウガツコウ"
  },
  "8512": {
    "postcode": "3738512",
    "prefecture": "群馬県",
    "prefecture_kana": "グンマケン",
    "prefecture_code": 10,
    "city": "太田市",
    "city_kana": "オオタシ",
    "town": "東今泉町",
    "town_kana": "ヒガシイマイズミチョウ",
    "street": "４６４−１",
    "office_name": "株式会社　栗原医療器械店　太田ディストリビューションセンター",
    "office_name_kana": "カブシキガイシヤ クリバライリヨウキカイテン オオタデイストリビユ-シヨンセンタ-"
  },
  "8513": {
    "postcode": "3738513",
    "prefecture": "群馬県",
    "prefecture_kana": "グンマケン",
    "prefecture_code": 10,
    "city": "太田市",
    "city_kana": "オオタシ",
    "town": "大字東今泉",
    "town_kana": null,
    "street": "８７５−１",
    "office_name": "太田福島総合病院",
    "office_name_kana": "オオタフクシマソウゴウビヨウイン"
  },
  "8515": {
    "postcode": "3738515",
    "prefecture": "群馬県",
    "prefecture_kana": "グンマケン",
    "prefecture_code": 10,
    "city": "太田市",
    "city_kana": "オオタシ",
    "town": "藤阿久町",
    "town_kana": "フジアグチョウ",
    "street": "２００",
    "office_name": "関東学園大学",
    "office_name_kana": "カントウガクエンダイガク"
  },
  "8521": {
    "postcode": "3738521",
    "prefecture": "群馬県",
    "prefecture_kana": "グンマケン",
    "prefecture_code": 10,
    "city": "太田市",
    "city_kana": "オオタシ",
    "town": "浜町",
    "town_kana": "ハマチョウ",
    "street": "３−６",
    "office_name": "太田商工会議所",
    "office_name_kana": "オオタシヨウコウカイギシヨ"
  },
  "8530": {
    "postcode": "3738530",
    "prefecture": "群馬県",
    "prefecture_kana": "グンマケン",
    "prefecture_code": 10,
    "city": "太田市",
    "city_kana": "オオタシ",
    "town": "東本町",
    "town_kana": "ヒガシホンチョウ",
    "street": "５３−５３",
    "office_name": "石橋建設工業　株式会社",
    "office_name_kana": "イシバシケンセツコウギヨウ カブシキガイシヤ"
  },
  "8531": {
    "postcode": "3738531",
    "prefecture": "群馬県",
    "prefecture_kana": "グンマケン",
    "prefecture_code": 10,
    "city": "太田市",
    "city_kana": "オオタシ",
    "town": "浜町",
    "town_kana": "ハマチョウ",
    "street": "１７−５",
    "office_name": "前橋地方裁判所　太田支部",
    "office_name_kana": "マエバシチホウサイバンシヨ オオタシブ"
  },
  "8550": {
    "postcode": "3738550",
    "prefecture": "群馬県",
    "prefecture_kana": "グンマケン",
    "prefecture_code": 10,
    "city": "太田市",
    "city_kana": "オオタシ",
    "town": "高林西町",
    "town_kana": "タカハヤシニシチョウ",
    "street": "６１７−１",
    "office_name": "群馬県立　がんセンター",
    "office_name_kana": "グンマケンリツ ガンセンタ-"
  },
  "8551": {
    "postcode": "3738551",
    "prefecture": "群馬県",
    "prefecture_kana": "グンマケン",
    "prefecture_code": 10,
    "city": "太田市",
    "city_kana": "オオタシ",
    "town": "清原町",
    "town_kana": "キヨハラチョウ",
    "street": "５−１１",
    "office_name": "丸幸　株式会社",
    "office_name_kana": "マルコウ カブシキガイシヤ"
  },
  "8555": {
    "postcode": "3738555",
    "prefecture": "群馬県",
    "prefecture_kana": "グンマケン",
    "prefecture_code": 10,
    "city": "太田市",
    "city_kana": "オオタシ",
    "town": "スバル町",
    "town_kana": "スバルチョウ",
    "street": "１番１号",
    "office_name": "富士重工　株式会社　群馬製作所本工場",
    "office_name_kana": "フジジユウコウ カブシキガイシヤ グンマセイサクジヨホンコウジヨウ"
  },
  "8557": {
    "postcode": "3738557",
    "prefecture": "群馬県",
    "prefecture_kana": "グンマケン",
    "prefecture_code": 10,
    "city": "太田市",
    "city_kana": "オオタシ",
    "town": "清原町",
    "town_kana": "キヨハラチョウ",
    "street": "４−６",
    "office_name": "株式会社　栗原医療器械店",
    "office_name_kana": "カブシキガイシヤ クリハライリヨウキカイテン"
  },
  "8560": {
    "postcode": "3738560",
    "prefecture": "群馬県",
    "prefecture_kana": "グンマケン",
    "prefecture_code": 10,
    "city": "太田市",
    "city_kana": "オオタシ",
    "town": "本町",
    "town_kana": "ホンチョウ",
    "street": "４４−３５",
    "office_name": "双葉繊維工業　株式会社",
    "office_name_kana": "フタバセンイコウギヨウ カブシキガイシヤ"
  },
  "8561": {
    "postcode": "3738561",
    "prefecture": "群馬県",
    "prefecture_kana": "グンマケン",
    "prefecture_code": 10,
    "city": "太田市",
    "city_kana": "オオタシ",
    "town": "西長岡町",
    "town_kana": "ニシナガオカチョウ",
    "street": "１５２４番地",
    "office_name": "株式会社　太田双葉カントリークラブ",
    "office_name_kana": "カブシキガイシヤ オオタフタバカントリ-クラブ"
  },
  "8567": {
    "postcode": "3738567",
    "prefecture": "群馬県",
    "prefecture_kana": "グンマケン",
    "prefecture_code": 10,
    "city": "太田市",
    "city_kana": "オオタシ",
    "town": "清原町",
    "town_kana": "キヨハラチョウ",
    "street": "５番地の１２",
    "office_name": "コムベックス　株式会社",
    "office_name_kana": "コムベツクス カブシキガイシヤ"
  },
  "8578": {
    "postcode": "3738578",
    "prefecture": "群馬県",
    "prefecture_kana": "グンマケン",
    "prefecture_code": 10,
    "city": "太田市",
    "city_kana": "オオタシ",
    "town": "大字吉沢",
    "town_kana": null,
    "street": "３１９−３",
    "office_name": "株式会社　フジタコーポレーション",
    "office_name_kana": "カブシキガイシヤ フジタコ-ポレ-シヨン"
  },
  "8585": {
    "postcode": "3738585",
    "prefecture": "群馬県",
    "prefecture_kana": "グンマケン",
    "prefecture_code": 10,
    "city": "太田市",
    "city_kana": "オオタシ",
    "town": "大島町",
    "town_kana": "オオシマチョウ",
    "street": "４５５番地１",
    "office_name": "ＳＵＢＡＲＵ健康保険組合　太田記念病院",
    "office_name_kana": "スバルケンコウホケンクミアイ オオタキネンビヨウイン"
  },
  "8588": {
    "postcode": "3738588",
    "prefecture": "群馬県",
    "prefecture_kana": "グンマケン",
    "prefecture_code": 10,
    "city": "太田市",
    "city_kana": "オオタシ",
    "town": "大字由良",
    "town_kana": null,
    "street": "３３０",
    "office_name": "しげる工業　株式会社",
    "office_name_kana": "シゲルコウギヨウ カブシキガイシヤ"
  },
  "8601": {
    "postcode": "3738601",
    "prefecture": "群馬県",
    "prefecture_kana": "グンマケン",
    "prefecture_code": 10,
    "city": "太田市",
    "city_kana": "オオタシ",
    "town": "高林東町",
    "town_kana": "タカハヤシヒガシチョウ",
    "street": "１８００",
    "office_name": "医療法人　三省会　堀江病院",
    "office_name_kana": "イリヨウホウジン サンシヨウカイ ホリエビヨウイン"
  },
  "8610": {
    "postcode": "3738610",
    "prefecture": "群馬県",
    "prefecture_kana": "グンマケン",
    "prefecture_code": 10,
    "city": "太田市",
    "city_kana": "オオタシ",
    "town": "東本町",
    "town_kana": "ヒガシホンチョウ",
    "street": "５６−３９",
    "office_name": "東京電力　株式会社　太田営業所",
    "office_name_kana": "トウキヨウデンリヨク カブシキガイシヤ オオタエイギヨウシヨ"
  },
  "8611": {
    "postcode": "3738611",
    "prefecture": "群馬県",
    "prefecture_kana": "グンマケン",
    "prefecture_code": 10,
    "city": "太田市",
    "city_kana": "オオタシ",
    "town": "飯田町",
    "town_kana": "イイダチョウ",
    "street": "５８４（太田郵便局私書箱第２号）",
    "office_name": "株式会社　群馬銀行　太田支店",
    "office_name_kana": "カブシキガイシヤ グンマギンコウ オオタシテン"
  },
  "8622": {
    "postcode": "3738622",
    "prefecture": "群馬県",
    "prefecture_kana": "グンマケン",
    "prefecture_code": 10,
    "city": "太田市",
    "city_kana": "オオタシ",
    "town": "別所町",
    "town_kana": "ベッショチョウ",
    "street": "２９２",
    "office_name": "坂本工業　株式会社　本社",
    "office_name_kana": "サカモトコウギヨウ カブシキガイシヤ ホンシヤ"
  },
  "8660": {
    "postcode": "3738660",
    "prefecture": "群馬県",
    "prefecture_kana": "グンマケン",
    "prefecture_code": 10,
    "city": "太田市",
    "city_kana": "オオタシ",
    "town": "西矢島町",
    "town_kana": "ニシヤジマチョウ",
    "street": "３２（太田郵便局私書箱第９号）",
    "office_name": "ＮＥＣパーソナルプロダクツ　株式会社　群馬事業場",
    "office_name_kana": "エヌイ-シ-パ-ソナルプロダクツ カブシキガイシヤ グンマジギヨウジヨウ"
  },
  "8666": {
    "postcode": "3738666",
    "prefecture": "群馬県",
    "prefecture_kana": "グンマケン",
    "prefecture_code": 10,
    "city": "太田市",
    "city_kana": "オオタシ",
    "town": "末広町",
    "town_kana": "スエヒロチョウ",
    "street": "５５４−１（太田郵便局私書箱第１５号）",
    "office_name": "株式会社　アイリス",
    "office_name_kana": "カブシキガイシヤ アイリス"
  },
  "8668": {
    "postcode": "3738668",
    "prefecture": "群馬県",
    "prefecture_kana": "グンマケン",
    "prefecture_code": 10,
    "city": "太田市",
    "city_kana": "オオタシ",
    "town": "植木野町",
    "town_kana": "ウエキノチョウ",
    "street": "８８０番地",
    "office_name": "日本ミシュランタイヤ　株式会社　太田サイト",
    "office_name_kana": "ニホンミシユランタイヤ カブシキガイシヤ オオタサイト"
  },
  "8680": {
    "postcode": "3738680",
    "prefecture": "群馬県",
    "prefecture_kana": "グンマケン",
    "prefecture_code": 10,
    "city": "太田市",
    "city_kana": "オオタシ",
    "town": "浜町",
    "town_kana": "ハマチョウ",
    "street": "８１",
    "office_name": "桐生信用金庫",
    "office_name_kana": "キリユウシンヨウキンコ"
  },
  "8686": {
    "postcode": "3738686",
    "prefecture": "群馬県",
    "prefecture_kana": "グンマケン",
    "prefecture_code": 10,
    "city": "太田市",
    "city_kana": "オオタシ",
    "town": "東本町",
    "town_kana": "ヒガシホンチョウ",
    "street": "３０−１３",
    "office_name": "ＮＴＴ　太田支店",
    "office_name_kana": "エヌテイテイ オオタシテン"
  },
  "8688": {
    "postcode": "3738688",
    "prefecture": "群馬県",
    "prefecture_kana": "グンマケン",
    "prefecture_code": 10,
    "city": "太田市",
    "city_kana": "オオタシ",
    "town": "飯田町",
    "town_kana": "イイダチョウ",
    "street": "１３２１（太田郵便局私書箱第６号）",
    "office_name": "日本生命保険　相互会社　太田支社",
    "office_name_kana": "ニホンセイメイホケン ソウゴガイシヤ オオタシシヤ"
  },
  "8718": {
    "postcode": "3738718",
    "prefecture": "群馬県",
    "prefecture_kana": "グンマケン",
    "prefecture_code": 10,
    "city": "太田市",
    "city_kana": "オオタシ",
    "town": "浜町",
    "town_kana": "ハマチョウ",
    "street": "２番３５号",
    "office_name": "太田市役所",
    "office_name_kana": "オオタシヤクシヨ"
  }
}