{
  "0000": {
    "postcode": "3770000",
    "prefecture": "群馬県",
    "prefecture_kana": "グンマケン",
    "prefecture_code": 10,
    "city": "渋川市",
    "city_kana": "シブカワシ",
    "town": "",
    "town_kana": "",
    "street": null,
    "office_name": null,
    "office_name_kana": null
  },
  "0002": {
    "postcode": "3770002",
    "prefecture": "群馬県",
    "prefecture_kana": "グンマケン",
    "prefecture_code": 10,
    "city": "渋川市",
    "city_kana": "シブカワシ",
    "town": "中村",
    "town_kana": "ナカムラ",
    "street": null,
    "office_name": null,
    "office_name_kana": null
  },
  "0003": {
    "postcode": "3770003",
    "prefecture": "群馬県",
    "prefecture_kana": "グンマケン",
    "prefecture_code": 10,
    "city": "渋川市",
    "city_kana": "シブカワシ",
    "town": "八木原",
    "town_kana": "ヤギハラ",
    "street": null,
    "office_name": null,
    "office_name_kana": null
  },
  "0004": {
    "postcode": "3770004",
    "prefecture": "群馬県",
    "prefecture_kana": "グンマケン",
    "prefecture_code": 10,
    "city": "渋川市",
    "city_kana": "シブカワシ",
    "town": "半田",
    "town_kana": "ハンダ",
    "street": null,
    "office_name": null,
    "office_name_kana": null
  },
  "0005": {
    "postcode": "3770005",
    "prefecture": "群馬県",
    "prefecture_kana": "グンマケン",
    "prefecture_code": 10,
    "city": "渋川市",
    "city_kana": "シブカワシ",
    "town": "有馬",
    "town_kana": "アリマ",
    "street": null,
    "office_name": null,
    "office_name_kana": null
  },
  "0006": {
    "postcode": "3770006",
    "prefecture": "群馬県",
    "prefecture_kana": "グンマケン",
    "prefecture_code": 10,
    "city": "渋川市",
    "city_kana": "シブカワシ",
    "town": "行幸田",
    "town_kana": "ミユキダ",
    "street": null,
    "office_name": null,
    "office_name_kana": null
  },
  "0007": {
    "postcode": "3770007",
    "prefecture": "群馬県",
    "prefecture_kana": "グンマケン",
    "prefecture_code": 10,
    "city": "渋川市",
    "city_kana": "シブカワシ",
    "town": "石原",
    "town_kana": "イシハラ",
    "street": null,
    "office_name": null,
    "office_name_kana": null
  },
  "0008": {
    "postcode": "3770008",
    "prefecture": "群馬県",
    "prefecture_kana": "グンマケン",
    "prefecture_code": 10,
    "city": "渋川市",
    "city_kana": "シブカワシ",
    "town": "渋川",
    "town_kana": "シブカワ",
    "street": null,
    "office_name": null,
    "office_name_kana": null
  },
  "0024": {
    "postcode": "3770024",
    "prefecture": "群馬県",
    "prefecture_kana": "グンマケン",
    "prefecture_code": 10,
    "city": "渋川市",
    "city_kana": "シブカワシ",
    "town": "祖母島",
    "town_kana": "ウバシマ",
    "street": null,
    "office_name": null,
    "office_name_kana": null
  },
  "0025": {
    "postcode": "3770025",
    "prefecture": "群馬県",
    "prefecture_kana": "グンマケン",
    "prefecture_code": 10,
    "city": "渋川市",
    "city_kana": "シブカワシ",
    "town": "川島",
    "town_kana": "カワシマ",
    "street": null,
    "office_name": null,
    "office_name_kana": null
  },
  "0026": {
    "postcode": "3770026",
    "prefecture": "群馬県",
    "prefecture_kana": "グンマケン",
    "prefecture_code": 10,
    "city": "渋川市",
    "city_kana": "シブカワシ",
    "town": "南牧",
    "town_kana": "ナンモク",
    "street": null,
    "office_name": null,
    "office_name_kana": null
  },
  "0027": {
    "postcode": "3770027",
    "prefecture": "群馬県",
    "prefecture_kana": "グンマケン",
    "prefecture_code": 10,
    "city": "渋川市",
    "city_kana": "シブカワシ",
    "town": "金井",
    "town_kana": "カナイ",
    "street": null,
    "office_name": null,
    "office_name_kana": null
  },
  "0031": {
    "postcode": "3770031",
    "prefecture": "群馬県",
    "prefecture_kana": "グンマケン",
    "prefecture_code": 10,
    "city": "渋川市",
    "city_kana": "シブカワシ",
    "town": "阿久津",
    "town_kana": "アクツ",
    "street": null,
    "office_name": null,
    "office_name_kana": null
  },
  "0051": {
    "postcode": "3770051",
    "prefecture": "群馬県",
    "prefecture_kana": "グンマケン",
    "prefecture_code": 10,
    "city": "渋川市",
    "city_kana": "シブカワシ",
    "town": "北橘町赤城山",
    "town_kana": "ホッキツマチアカギサン",
    "street": null,
    "office_name": null,
    "office_name_kana": null
  },
  "0052": {
    "postcode": "3770052",
    "prefecture": "群馬県",
    "prefecture_kana": "グンマケン",
    "prefecture_code": 10,
    "city": "渋川市",
    "city_kana": "シブカワシ",
    "town": "北橘町上箱田",
    "town_kana": "ホッキツマチカミハコダ",
    "street": null,
    "office_name": null,
    "office_name_kana": null
  },
  "0053": {
    "postcode": "3770053",
    "prefecture": "群馬県",
    "prefecture_kana": "グンマケン",
    "prefecture_code": 10,
    "city": "渋川市",
    "city_kana": "シブカワシ",
    "town": "北橘町箱田",
    "town_kana": "ホッキツマチハコダ",
    "street": null,
    "office_name": null,
    "office_name_kana": null
  },
  "0054": {
    "postcode": "3770054",
    "prefecture": "群馬県",
    "prefecture_kana": "グンマケン",
    "prefecture_code": 10,
    "city": "渋川市",
    "city_kana": "シブカワシ",
    "town": "北橘町下南室",
    "town_kana": "ホッキツマチシモナムロ",
    "street": null,
    "office_name": null,
    "office_name_kana": null
  },
  "0055": {
    "postcode": "3770055",
    "prefecture": "群馬県",
    "prefecture_kana": "グンマケン",
    "prefecture_code": 10,
    "city": "渋川市",
    "city_kana": "シブカワシ",
    "town": "北橘町上南室",
    "town_kana": "ホッキツマチカミナムロ",
    "street": null,
    "office_name": null,
    "office_name_kana": null
  },
  "0061": {
    "postcode": "3770061",
    "prefecture": "群馬県",
    "prefecture_kana": "グンマケン",
    "prefecture_code": 10,
    "city": "渋川市",
    "city_kana": "シブカワシ",
    "town": "北橘町下箱田",
    "town_kana": "ホッキツマチシモハコダ",
    "street": null,
    "office_name": null,
    "office_name_kana": null
  },
  "0062": {
    "postcode": "3770062",
    "prefecture": "群馬県",
    "prefecture_kana": "グンマケン",
    "prefecture_code": 10,
    "city": "渋川市",
    "city_kana": "シブカワシ",
    "town": "北橘町真壁",
    "town_kana": "ホッキツマチマカベ",
    "street": null,
    "office_name": null,
    "office_name_kana": null
  },
  "0063": {
    "postcode": "3770063",
    "prefecture": "群馬県",
    "prefecture_kana": "グンマケン",
    "prefecture_code": 10,
    "city": "渋川市",
    "city_kana": "シブカワシ",
    "town": "北橘町分郷八崎",
    "town_kana": "ホッキツマチブンゴウハッサキ",
    "street": null,
    "office_name": null,
    "office_name_kana": null
  },
  "0064": {
    "postcode": "3770064",
    "prefecture": "群馬県",
    "prefecture_kana": "グンマケン",
    "prefecture_code": 10,
    "city": "渋川市",
    "city_kana": "シブカワシ",
    "town": "北橘町八崎",
    "town_kana": "ホッキツマチハッサキ",
    "street": null,
    "office_name": null,
    "office_name_kana": null
  },
  "0065": {
    "postcode": "3770065",
    "prefecture": "群馬県",
    "prefecture_kana": "グンマケン",
    "prefecture_code": 10,
    "city": "渋川市",
    "city_kana": "シブカワシ",
    "town": "北橘町小室",
    "town_kana": "ホッキツマチコムロ",
    "street": null,
    "office_name": null,
    "office_name_kana": null
  },
  "0101": {
    "postcode": "3770101",
    "prefecture": "群馬県",
    "prefecture_kana": "グンマケン",
    "prefecture_code": 10,
    "city": "渋川市",
    "city_kana": "シブカワシ",
    "town": "伊香保町湯中子",
    "town_kana": "イカホマチユナカゴ",
    "street": null,
    "office_name": null,
    "office_name_kana": null
  },
  "0102": {
    "postcode": "3770102",
    "prefecture": "群馬県",
    "prefecture_kana": "グンマケン",
    "prefecture_code": 10,
    "city": "渋川市",
    "city_kana": "シブカワシ",
    "town": "伊香保町伊香保",
    "town_kana": "イカホマチイカホ",
    "street": null,
    "office_name": null,
    "office_name_kana": null
  },
  "0103": {
    "postcode": "3770103",
    "prefecture": "群馬県",
    "prefecture_kana": "グンマケン",
    "prefecture_code": 10,
    "city": "渋川市",
    "city_kana": "シブカワシ",
    "town": "伊香保町水沢",
    "town_kana": "イカホマチミズサワ",
    "street": null,
    "office_name": null,
    "office_name_kana": null
  },
  "0192": {
    "postcode": "3770192",
    "prefecture": "群馬県",
    "prefecture_kana": "グンマケン",
    "prefecture_code": 10,
    "city": "渋川市",
    "city_kana": "シブカワシ",
    "town": "伊香保町伊香保",
    "town_kana": "イカホマチイカホ",
    "street": "１１６−１",
    "office_name": "渋川市　伊香保総合支所",
    "office_name_kana": "シブカワシ イカホソウゴウシシヨ"
  },
  "0193": {
    "postcode": "3770193",
    "prefecture": "群馬県",
    "prefecture_kana": "グンマケン",
    "prefecture_code": 10,
    "city": "渋川市",
    "city_kana": "シブカワシ",
    "town": "伊香保町伊香保",
    "town_kana": "イカホマチイカホ",
    "street": "甲８",
    "office_name": "株式会社　福一",
    "office_name_kana": "カブシキガイシヤ フクイチ"
  },
  "0195": {
    "postcode": "3770195",
    "prefecture": "群馬県",
    "prefecture_kana": "グンマケン",
    "prefecture_code": 10,
    "city": "渋川市",
    "city_kana": "シブカワシ",
    "town": "伊香保町伊香保",
    "town_kana": "イカホマチイカホ",
    "street": "３９６−２０",
    "office_name": "株式会社　天坊",
    "office_name_kana": "カブシキガイシヤ テンボウ"
  },
  "0201": {
    "postcode": "3770201",
    "prefecture": "群馬県",
    "prefecture_kana": "グンマケン",
    "prefecture_code": 10,
    "city": "渋川市",
    "city_kana": "シブカワシ",
    "town": "上白井",
    "town_kana": "カミシロイ",
    "street": null,
    "office_name": null,
    "office_name_kana": null
  },
  "0202": {
    "postcode": "3770202",
    "prefecture": "群馬県",
    "prefecture_kana": "グンマケン",
    "prefecture_code": 10,
    "city": "渋川市",
    "city_kana": "シブカワシ",
    "town": "中郷",
    "town_kana": "ナカゴウ",
    "street": null,
    "office_name": null,
    "office_name_kana": null
  },
  "0203": {
    "postcode": "3770203",
    "prefecture": "群馬県",
    "prefecture_kana": "グンマケン",
    "prefecture_code": 10,
    "city": "渋川市",
    "city_kana": "シブカワシ",
    "town": "吹屋",
    "town_kana": "フキヤ",
    "street": null,
    "office_name": null,
    "office_name_kana": null
  },
  "0204": {
    "postcode": "3770204",
    "prefecture": "群馬県",
    "prefecture_kana": "グンマケン",
    "prefecture_code": 10,
    "city": "渋川市",
    "city_kana": "シブカワシ",
    "town": "白井",
    "town_kana": "シロイ",
    "street": null,
    "office_name": null,
    "office_name_kana": null
  },
  "0205": {
    "postcode": "3770205",
    "prefecture": "群馬県",
    "prefecture_kana": "グンマケン",
    "prefecture_code": 10,
    "city": "渋川市",
    "city_kana": "シブカワシ",
    "town": "北牧",
    "town_kana": "キタモク",
    "street": null,
    "office_name": null,
    "office_name_kana": null
  },
  "0206": {
    "postcode": "3770206",
    "prefecture": "群馬県",
    "prefecture_kana": "グンマケン",
    "prefecture_code": 10,
    "city": "渋川市",
    "city_kana": "シブカワシ",
    "town": "横堀",
    "town_kana": "ヨコボリ",
    "street": null,
    "office_name": null,
    "office_name_kana": null
  },
  "0280": {
    "postcode": "3770280",
    "prefecture": "群馬県",
    "prefecture_kana": "グンマケン",
    "prefecture_code": 10,
    "city": "渋川市",
    "city_kana": "シブカワシ",
    "town": "白井",
    "town_kana": "シロイ",
    "street": "３８３番地",
    "office_name": "独立行政法人　国立病院機構　渋川医療センター",
    "office_name_kana": "ドクリツギヨウセイホウジン コクリツビヨウインキコウ シブカワイリヨウセンタ-"
  },
  "0292": {
    "postcode": "3770292",
    "prefecture": "群馬県",
    "prefecture_kana": "グンマケン",
    "prefecture_code": 10,
    "city": "渋川市",
    "city_kana": "シブカワシ",
    "town": "吹屋",
    "town_kana": "フキヤ",
    "street": "３８４",
    "office_name": "渋川市　子持総合支所",
    "office_name_kana": "シブカワシ コモチソウゴウシシヨ"
  },
  "0293": {
    "postcode": "3770293",
    "prefecture": "群馬県",
    "prefecture_kana": "グンマケン",
    "prefecture_code": 10,
    "city": "渋川市",
    "city_kana": "シブカワシ",
    "town": "中郷",
    "town_kana": "ナカゴウ",
    "street": "２５０８−１３",
    "office_name": "日本精密測器　株式会社",
    "office_name_kana": "ニホンセイミツソツキ カブシキガイシヤ"
  },
  "0294": {
    "postcode": "3770294",
    "prefecture": "群馬県",
    "prefecture_kana": "グンマケン",
    "prefecture_code": 10,
    "city": "渋川市",
    "city_kana": "シブカワシ",
    "town": "吹屋",
    "town_kana": "フキヤ",
    "street": "６５８−２０",
    "office_name": "社会福祉法人　渋川市社会福祉協議会　子持支所",
    "office_name_kana": "シヤカイフクシホウジン シブカワシシヤカイフクシキヨウギカイ コモチシシヨ"
  },
  "0301": {
    "postcode": "3770301",
    "prefecture": "群馬県",
    "prefecture_kana": "グンマケン",
    "prefecture_code": 10,
    "city": "吾妻郡東吾妻町",
    "city_kana": "アガツマグンヒガシアガツママチ",
    "town": "箱島",
    "town_kana": "ハコジマ",
    "street": null,
    "office_name": null,
    "office_name_kana": null
  },
  "0302": {
    "postcode": "3770302",
    "prefecture": "群馬県",
    "prefecture_kana": "グンマケン",
    "prefecture_code": 10,
    "city": "吾妻郡東吾妻町",
    "city_kana": "アガツマグンヒガシアガツママチ",
    "town": "岡崎",
    "town_kana": "オカザキ",
    "street": null,
    "office_name": null,
    "office_name_kana": null
  },
  "0303": {
    "postcode": "3770303",
    "prefecture": "群馬県",
    "prefecture_kana": "グンマケン",
    "prefecture_code": 10,
    "city": "吾妻郡東吾妻町",
    "city_kana": "アガツマグンヒガシアガツママチ",
    "town": "新巻",
    "town_kana": "アラマキ",
    "street": null,
    "office_name": null,
    "office_name_kana": null
  },
  "0304": {
    "postcode": "3770304",
    "prefecture": "群馬県",
    "prefecture_kana": "グンマケン",
    "prefecture_code": 10,
    "city": "吾妻郡東吾妻町",
    "city_kana": "アガツマグンヒガシアガツママチ",
    "town": "奥田",
    "town_kana": "オクダ",
    "street": null,
    "office_name": null,
    "office_name_kana": null
  },
  "0305": {
    "postcode": "3770305",
    "prefecture": "群馬県",
    "prefecture_kana": "グンマケン",
    "prefecture_code": 10,
    "city": "吾妻郡東吾妻町",
    "city_kana": "アガツマグンヒガシアガツママチ",
    "town": "五町田",
    "town_kana": "ゴチョウダ",
    "street": null,
    "office_name": null,
    "office_name_kana": null
  },
  "0311": {
    "postcode": "3770311",
    "prefecture": "群馬県",
    "prefecture_kana": "グンマケン",
    "prefecture_code": 10,
    "city": "渋川市",
    "city_kana": "シブカワシ",
    "town": "村上",
    "town_kana": "ムラカミ",
    "street": null,
    "office_name": null,
    "office_name_kana": null
  },
  "0312": {
    "postcode": "3770312",
    "prefecture": "群馬県",
    "prefecture_kana": "グンマケン",
    "prefecture_code": 10,
    "city": "渋川市",
    "city_kana": "シブカワシ",
    "town": "小野子",
    "town_kana": "オノコ",
    "street": null,
    "office_name": null,
    "office_name_kana": null
  },
  "0392": {
    "postcode": "3770392",
    "prefecture": "群馬県",
    "prefecture_kana": "グンマケン",
    "prefecture_code": 10,
    "city": "渋川市",
    "city_kana": "シブカワシ",
    "town": "村上",
    "town_kana": "ムラカミ",
    "street": "３７５６−３",
    "office_name": "渋川市　小野上総合支所",
    "office_name_kana": "シブカワシ オノガミソウゴウシシヨ"
  },
  "0395": {
    "postcode": "3770395",
    "prefecture": "群馬県",
    "prefecture_kana": "グンマケン",
    "prefecture_code": 10,
    "city": "吾妻郡東吾妻町",
    "city_kana": "アガツマグンヒガシアガツママチ",
    "town": "大字奥田",
    "town_kana": null,
    "street": "３９−１",
    "office_name": "東吾妻町役場　東支所",
    "office_name_kana": "ヒガシアガツママチヤクバ アヅマシシヨ"
  },
  "0400": {
    "postcode": "3770400",
    "prefecture": "群馬県",
    "prefecture_kana": "グンマケン",
    "prefecture_code": 10,
    "city": "吾妻郡中之条町",
    "city_kana": "アガツマグンナカノジョウマチ",
    "town": "",
    "town_kana": "",
    "street": null,
    "office_name": null,
    "office_name_kana": null
  },
  "0411": {
    "postcode": "3770411",
    "prefecture": "群馬県",
    "prefecture_kana": "グンマケン",
    "prefecture_code": 10,
    "city": "吾妻郡中之条町",
    "city_kana": "アガツマグンナカノジョウマチ",
    "town": "大道",
    "town_kana": "ダイドウ",
    "street": null,
    "office_name": null,
    "office_name_kana": null
  },
  "0412": {
    "postcode": "3770412",
    "prefecture": "群馬県",
    "prefecture_kana": "グンマケン",
    "prefecture_code": 10,
    "city": "吾妻郡中之条町",
    "city_kana": "アガツマグンナカノジョウマチ",
    "town": "栃窪",
    "town_kana": "トチクボ",
    "street": null,
    "office_name": null,
    "office_name_kana": null
  },
  "0413": {
    "postcode": "3770413",
    "prefecture": "群馬県",
    "prefecture_kana": "グンマケン",
    "prefecture_code": 10,
    "city": "吾妻郡中之条町",
    "city_kana": "アガツマグンナカノジョウマチ",
    "town": "大塚",
    "town_kana": "オオヅカ",
    "street": null,
    "office_name": null,
    "office_name_kana": null
  },
  "0414": {
    "postcode": "3770414",
    "prefecture": "群馬県",
    "prefecture_kana": "グンマケン",
    "prefecture_code": 10,
    "city": "吾妻郡中之条町",
    "city_kana": "アガツマグンナカノジョウマチ",
    "town": "平",
    "town_kana": "タイラ",
    "street": null,
    "office_name": null,
    "office_name_kana": null
  },
  "0415": {
    "postcode": "3770415",
    "prefecture": "群馬県",
    "prefecture_kana": "グンマケン",
    "prefecture_code": 10,
    "city": "吾妻郡中之条町",
    "city_kana": "アガツマグンナカノジョウマチ",
    "town": "横尾",
    "town_kana": "ヨコオ",
    "street": null,
    "office_name": null,
    "office_name_kana": null
  },
  "0416": {
    "postcode": "3770416",
    "prefecture": "群馬県",
    "prefecture_kana": "グンマケン",
    "prefecture_code": 10,
    "city": "吾妻郡中之条町",
    "city_kana": "アガツマグンナカノジョウマチ",
    "town": "蟻川",
    "town_kana": "アリガワ",
    "street": null,
    "office_name": null,
    "office_name_kana": null
  },
  "0417": {
    "postcode": "3770417",
    "prefecture": "群馬県",
    "prefecture_kana": "グンマケン",
    "prefecture_code": 10,
    "city": "吾妻郡中之条町",
    "city_kana": "アガツマグンナカノジョウマチ",
    "town": "赤坂",
    "town_kana": "アカサカ",
    "street": null,
    "office_name": null,
    "office_name_kana": null
  },
  "0421": {
    "postcode": "3770421",
    "prefecture": "群馬県",
    "prefecture_kana": "グンマケン",
    "prefecture_code": 10,
    "city": "吾妻郡中之条町",
    "city_kana": "アガツマグンナカノジョウマチ",
    "town": "市城",
    "town_kana": "イチシロ",
    "street": null,
    "office_name": null,
    "office_name_kana": null
  },
  "0422": {
    "postcode": "3770422",
    "prefecture": "群馬県",
    "prefecture_kana": "グンマケン",
    "prefecture_code": 10,
    "city": "吾妻郡中之条町",
    "city_kana": "アガツマグンナカノジョウマチ",
    "town": "青山",
    "town_kana": "アオヤマ",
    "street": null,
    "office_name": null,
    "office_name_kana": null
  },
  "0423": {
    "postcode": "3770423",
    "prefecture": "群馬県",
    "prefecture_kana": "グンマケン",
    "prefecture_code": 10,
    "city": "吾妻郡中之条町",
    "city_kana": "アガツマグンナカノジョウマチ",
    "town": "伊勢町",
    "town_kana": "イセマチ",
    "street": null,
    "office_name": null,
    "office_name_kana": null
  },
  "0424": {
    "postcode": "3770424",
    "prefecture": "群馬県",
    "prefecture_kana": "グンマケン",
    "prefecture_code": 10,
    "city": "吾妻郡中之条町",
    "city_kana": "アガツマグンナカノジョウマチ",
    "town": "中之条町",
    "town_kana": "ナカノジョウマチ",
    "street": null,
    "office_name": null,
    "office_name_kana": null
  },
  "0425": {
    "postcode": "3770425",
    "prefecture": "群馬県",
    "prefecture_kana": "グンマケン",
    "prefecture_code": 10,
    "city": "吾妻郡中之条町",
    "city_kana": "アガツマグンナカノジョウマチ",
    "town": "西中之条",
    "town_kana": "ニシナカノジョウ",
    "street": null,
    "office_name": null,
    "office_name_kana": null
  },
  "0431": {
    "postcode": "3770431",
    "prefecture": "群馬県",
    "prefecture_kana": "グンマケン",
    "prefecture_code": 10,
    "city": "吾妻郡中之条町",
    "city_kana": "アガツマグンナカノジョウマチ",
    "town": "岩本",
    "town_kana": "イワモト",
    "street": null,
    "office_name": null,
    "office_name_kana": null
  },
  "0432": {
    "postcode": "3770432",
    "prefecture": "群馬県",
    "prefecture_kana": "グンマケン",
    "prefecture_code": 10,
    "city": "吾妻郡中之条町",
    "city_kana": "アガツマグンナカノジョウマチ",
    "town": "五反田",
    "town_kana": "ゴタンダ",
    "street": null,
    "office_name": null,
    "office_name_kana": null
  },
  "0433": {
    "postcode": "3770433",
    "prefecture": "群馬県",
    "prefecture_kana": "グンマケン",
    "prefecture_code": 10,
    "city": "吾妻郡中之条町",
    "city_kana": "アガツマグンナカノジョウマチ",
    "town": "折田",
    "town_kana": "オリダ",
    "street": null,
    "office_name": null,
    "office_name_kana": null
  },
  "0434": {
    "postcode": "3770434",
    "prefecture": "群馬県",
    "prefecture_kana": "グンマケン",
    "prefecture_code": 10,
    "city": "吾妻郡中之条町",
    "city_kana": "アガツマグンナカノジョウマチ",
    "town": "山田",
    "town_kana": "ヤマダ",
    "street": null,
    "office_name": null,
    "office_name_kana": null
  },
  "0492": {
    "postcode": "3770492",
    "prefecture": "群馬県",
    "prefecture_kana": "グンマケン",
    "prefecture_code": 10,
    "city": "吾妻郡中之条町",
    "city_kana": "アガツマグンナカノジョウマチ",
    "town": "大字伊勢町",
    "town_kana": null,
    "street": "１０２２−１（中之条郵便局私書箱第２号）",
    "office_name": "中之条税務署",
    "office_name_kana": "ナカノジヨウゼイムシヨ"
  },
  "0494": {
    "postcode": "3770494",
    "prefecture": "群馬県",
    "prefecture_kana": "グンマケン",
    "prefecture_code": 10,
    "city": "吾妻郡中之条町",
    "city_kana": "アガツマグンナカノジョウマチ",
    "town": "大字中之条町",
    "town_kana": null,
    "street": "１０９１",
    "office_name": "中之条町役場",
    "office_name_kana": "ナカノジヨウマチヤクバ"
  },
  "0541": {
    "postcode": "3770541",
    "prefecture": "群馬県",
    "prefecture_kana": "グンマケン",
    "prefecture_code": 10,
    "city": "吾妻郡中之条町",
    "city_kana": "アガツマグンナカノジョウマチ",
    "town": "上沢渡",
    "town_kana": "カミサワタリ",
    "street": null,
    "office_name": null,
    "office_name_kana": null
  },
  "0542": {
    "postcode": "3770542",
    "prefecture": "群馬県",
    "prefecture_kana": "グンマケン",
    "prefecture_code": 10,
    "city": "吾妻郡中之条町",
    "city_kana": "アガツマグンナカノジョウマチ",
    "town": "下沢渡",
    "town_kana": "シモサワタリ",
    "street": null,
    "office_name": null,
    "office_name_kana": null
  },
  "0543": [
    {
      "postcode": "3770543",
      "prefecture": "群馬県",
      "prefecture_kana": "グンマケン",
      "prefecture_code": 10,
      "city": "吾妻郡中之条町",
      "city_kana": "アガツマグンナカノジョウマチ",
      "town": "山田",
      "town_kana": "ヤマダ",
      "street": null,
      "office_name": null,
      "office_name_kana": null
    },
    {
      "postcode": "3770543",
      "prefecture": "群馬県",
      "prefecture_kana": "グンマケン",
      "prefecture_code": 10,
      "city": "吾妻郡中之条町",
      "city_kana": "アガツマグンナカノジョウマチ",
      "town": "山田寺社原",
      "town_kana": "ヤマダジシャバラ",
      "street": null,
      "office_name": null,
      "office_name_kana": null
    },
    {
      "postcode": "3770543",
      "prefecture": "群馬県",
      "prefecture_kana": "グンマケン",
      "prefecture_code": 10,
      "city": "吾妻郡中之条町",
      "city_kana": "アガツマグンナカノジョウマチ",
      "town": "山田細尾",
      "town_kana": "ヤマダホソオ",
      "street": null,
      "office_name": null,
      "office_name_kana": null
    }
  ],
  "0544": [
    {
      "postcode": "3770544",
      "prefecture": "群馬県",
      "prefecture_kana": "グンマケン",
      "prefecture_code": 10,
      "city": "吾妻郡中之条町",
      "city_kana": "アガツマグンナカノジョウマチ",
      "town": "折田",
      "town_kana": "オリダ",
      "street": null,
      "office_name": null,
      "office_name_kana": null
    },
    {
      "postcode": "3770544",
      "prefecture": "群馬県",
      "prefecture_kana": "グンマケン",
      "prefecture_code": 10,
      "city": "吾妻郡中之条町",
      "city_kana": "アガツマグンナカノジョウマチ",
      "town": "折田戦道",
      "town_kana": "オリダセンドウ",
      "street": null,
      "office_name": null,
      "office_name_kana": null
    }
  ],
  "0601": {
    "postcode": "3770601",
    "prefecture": "群馬県",
    "prefecture_kana": "グンマケン",
    "prefecture_code": 10,
    "city": "吾妻郡中之条町",
    "city_kana": "アガツマグンナカノジョウマチ",
    "town": "四万",
    "town_kana": "シマ",
    "street": null,
    "office_name": null,
    "office_name_kana": null
  },
  "0700": {
    "postcode": "3770700",
    "prefecture": "群馬県",
    "prefecture_kana": "グンマケン",
    "prefecture_code": 10,
    "city": "吾妻郡高山村",
    "city_kana": "アガツマグンタカヤマムラ",
    "town": "",
    "town_kana": "",
    "street": null,
    "office_name": null,
    "office_name_kana": null
  },
  "0701": {
    "postcode": "3770701",
    "prefecture": "群馬県",
    "prefecture_kana": "グンマケン",
    "prefecture_code": 10,
    "city": "吾妻郡高山村",
    "city_kana": "アガツマグンタカヤマムラ",
    "town": "尻高",
    "town_kana": "シッタカ",
    "street": null,
    "office_name": null,
    "office_name_kana": null
  },
  "0702": {
    "postcode": "3770702",
    "prefecture": "群馬県",
    "prefecture_kana": "グンマケン",
    "prefecture_code": 10,
    "city": "吾妻郡高山村",
    "city_kana": "アガツマグンタカヤマムラ",
    "town": "中山",
    "town_kana": "ナカヤマ",
    "street": null,
    "office_name": null,
    "office_name_kana": null
  },
  "0792": {
    "postcode": "3770792",
    "prefecture": "群馬県",
    "prefecture_kana": "グンマケン",
    "prefecture_code": 10,
    "city": "吾妻郡高山村",
    "city_kana": "アガツマグンタカヤマムラ",
    "town": "大字中山",
    "town_kana": null,
    "street": "２８５６−１",
    "office_name": "高山村役場",
    "office_name_kana": "タカヤマムラヤクバ"
  },
  "0800": {
    "postcode": "3770800",
    "prefecture": "群馬県",
    "prefecture_kana": "グンマケン",
    "prefecture_code": 10,
    "city": "吾妻郡東吾妻町",
    "city_kana": "アガツマグンヒガシアガツママチ",
    "town": "",
    "town_kana": "",
    "street": null,
    "office_name": null,
    "office_name_kana": null
  },
  "0801": {
    "postcode": "3770801",
    "prefecture": "群馬県",
    "prefecture_kana": "グンマケン",
    "prefecture_code": 10,
    "city": "吾妻郡東吾妻町",
    "city_kana": "アガツマグンヒガシアガツママチ",
    "town": "原町",
    "town_kana": "ハラマチ",
    "street": null,
    "office_name": null,
    "office_name_kana": null
  },
  "0802": {
    "postcode": "3770802",
    "prefecture": "群馬県",
    "prefecture_kana": "グンマケン",
    "prefecture_code": 10,
    "city": "吾妻郡東吾妻町",
    "city_kana": "アガツマグンヒガシアガツママチ",
    "town": "川戸",
    "town_kana": "カワド",
    "street": null,
    "office_name": null,
    "office_name_kana": null
  },
  "0803": {
    "postcode": "3770803",
    "prefecture": "群馬県",
    "prefecture_kana": "グンマケン",
    "prefecture_code": 10,
    "city": "吾妻郡東吾妻町",
    "city_kana": "アガツマグンヒガシアガツママチ",
    "town": "金井",
    "town_kana": "カナイ",
    "street": null,
    "office_name": null,
    "office_name_kana": null
  },
  "0804": {
    "postcode": "3770804",
    "prefecture": "群馬県",
    "prefecture_kana": "グンマケン",
    "prefecture_code": 10,
    "city": "吾妻郡東吾妻町",
    "city_kana": "アガツマグンヒガシアガツママチ",
    "town": "岩井",
    "town_kana": "イワイ",
    "street": null,
    "office_name": null,
    "office_name_kana": null
  },
  "0805": {
    "postcode": "3770805",
    "prefecture": "群馬県",
    "prefecture_kana": "グンマケン",
    "prefecture_code": 10,
    "city": "吾妻郡東吾妻町",
    "city_kana": "アガツマグンヒガシアガツママチ",
    "town": "植栗",
    "town_kana": "ウエグリ",
    "street": null,
    "office_name": null,
    "office_name_kana": null
  },
  "0806": {
    "postcode": "3770806",
    "prefecture": "群馬県",
    "prefecture_kana": "グンマケン",
    "prefecture_code": 10,
    "city": "吾妻郡東吾妻町",
    "city_kana": "アガツマグンヒガシアガツママチ",
    "town": "小泉",
    "town_kana": "コイズミ",
    "street": null,
    "office_name": null,
    "office_name_kana": null
  },
  "0807": {
    "postcode": "3770807",
    "prefecture": "群馬県",
    "prefecture_kana": "グンマケン",
    "prefecture_code": 10,
    "city": "吾妻郡東吾妻町",
    "city_kana": "アガツマグンヒガシアガツママチ",
    "town": "泉沢",
    "town_kana": "イズミサワ",
    "street": null,
    "office_name": null,
    "office_name_kana": null
  },
  "0811": {
    "postcode": "3770811",
    "prefecture": "群馬県",
    "prefecture_kana": "グンマケン",
    "prefecture_code": 10,
    "city": "吾妻郡東吾妻町",
    "city_kana": "アガツマグンヒガシアガツママチ",
    "town": "郷原",
    "town_kana": "ゴウバラ",
    "street": null,
    "office_name": null,
    "office_name_kana": null
  },
  "0812": {
    "postcode": "3770812",
    "prefecture": "群馬県",
    "prefecture_kana": "グンマケン",
    "prefecture_code": 10,
    "city": "吾妻郡東吾妻町",
    "city_kana": "アガツマグンヒガシアガツママチ",
    "town": "厚田",
    "town_kana": "アツダ",
    "street": null,
    "office_name": null,
    "office_name_kana": null
  },
  "0813": {
    "postcode": "3770813",
    "prefecture": "群馬県",
    "prefecture_kana": "グンマケン",
    "prefecture_code": 10,
    "city": "吾妻郡東吾妻町",
    "city_kana": "アガツマグンヒガシアガツママチ",
    "town": "三島",
    "town_kana": "ミシマ",
    "street": null,
    "office_name": null,
    "office_name_kana": null
  },
  "0814": {
    "postcode": "3770814",
    "prefecture": "群馬県",
    "prefecture_kana": "グンマケン",
    "prefecture_code": 10,
    "city": "吾妻郡東吾妻町",
    "city_kana": "アガツマグンヒガシアガツママチ",
    "town": "松谷",
    "town_kana": "マツヤ",
    "street": null,
    "office_name": null,
    "office_name_kana": null
  },
  "0815": {
    "postcode": "3770815",
    "prefecture": "群馬県",
    "prefecture_kana": "グンマケン",
    "prefecture_code": 10,
    "city": "吾妻郡東吾妻町",
    "city_kana": "アガツマグンヒガシアガツママチ",
    "town": "岩下",
    "town_kana": "イワシタ",
    "street": null,
    "office_name": null,
    "office_name_kana": null
  },
  "0816": {
    "postcode": "3770816",
    "prefecture": "群馬県",
    "prefecture_kana": "グンマケン",
    "prefecture_code": 10,
    "city": "吾妻郡東吾妻町",
    "city_kana": "アガツマグンヒガシアガツママチ",
    "town": "矢倉",
    "town_kana": "ヤグラ",
    "street": null,
    "office_name": null,
    "office_name_kana": null
  },
  "0882": {
    "postcode": "3770882",
    "prefecture": "群馬県",
    "prefecture_kana": "グンマケン",
    "prefecture_code": 10,
    "city": "吾妻郡東吾妻町",
    "city_kana": "アガツマグンヒガシアガツママチ",
    "town": "大字原町",
    "town_kana": null,
    "street": "６９８",
    "office_name": "原町赤十字病院",
    "office_name_kana": "ハラマチセキジユウジビヨウイン"
  },
  "0883": {
    "postcode": "3770883",
    "prefecture": "群馬県",
    "prefecture_kana": "グンマケン",
    "prefecture_code": 10,
    "city": "吾妻郡東吾妻町",
    "city_kana": "アガツマグンヒガシアガツママチ",
    "town": "大字原町",
    "town_kana": null,
    "street": "１６０",
    "office_name": "池原工業　株式会社",
    "office_name_kana": "イケハラコウギヨウ カブシキガイシヤ"
  },
  "0892": {
    "postcode": "3770892",
    "prefecture": "群馬県",
    "prefecture_kana": "グンマケン",
    "prefecture_code": 10,
    "city": "吾妻郡東吾妻町",
    "city_kana": "アガツマグンヒガシアガツママチ",
    "town": "大字原町",
    "town_kana": null,
    "street": "５９４−３",
    "office_name": "東吾妻町役場",
    "office_name_kana": "ヒガシアガツママチヤクバ"
  },
  "0893": {
    "postcode": "3770893",
    "prefecture": "群馬県",
    "prefecture_kana": "グンマケン",
    "prefecture_code": 10,
    "city": "吾妻郡東吾妻町",
    "city_kana": "アガツマグンヒガシアガツママチ",
    "town": "大字原町",
    "town_kana": null,
    "street": "６０７",
    "office_name": "あがつま農業協同組合",
    "office_name_kana": "アガツマノウギヨウキヨウドウクミアイ"
  },
  "0894": {
    "postcode": "3770894",
    "prefecture": "群馬県",
    "prefecture_kana": "グンマケン",
    "prefecture_code": 10,
    "city": "吾妻郡東吾妻町",
    "city_kana": "アガツマグンヒガシアガツママチ",
    "town": "大字原町",
    "town_kana": null,
    "street": "１９２",
    "office_name": "群馬県立　吾妻高等学校",
    "office_name_kana": "グンマケンリツ アガツマコウトウガツコウ"
  },
  "0896": {
    "postcode": "3770896",
    "prefecture": "群馬県",
    "prefecture_kana": "グンマケン",
    "prefecture_code": 10,
    "city": "吾妻郡東吾妻町",
    "city_kana": "アガツマグンヒガシアガツママチ",
    "town": "大字原町",
    "town_kana": null,
    "street": "４５２",
    "office_name": "南波建設　株式会社",
    "office_name_kana": "ナンバケンセツ カブシキガイシヤ"
  },
  "0897": {
    "postcode": "3770897",
    "prefecture": "群馬県",
    "prefecture_kana": "グンマケン",
    "prefecture_code": 10,
    "city": "吾妻郡東吾妻町",
    "city_kana": "アガツマグンヒガシアガツママチ",
    "town": "大字川戸",
    "town_kana": null,
    "street": "１５０",
    "office_name": "リンテック　株式会社　吾妻工場",
    "office_name_kana": "リンテツク カブシキガイシヤ アガツマコウジヨウ"
  },
  "0898": {
    "postcode": "3770898",
    "prefecture": "群馬県",
    "prefecture_kana": "グンマケン",
    "prefecture_code": 10,
    "city": "吾妻郡東吾妻町",
    "city_kana": "アガツマグンヒガシアガツママチ",
    "town": "大字川戸",
    "town_kana": null,
    "street": "６６６の１",
    "office_name": "パナソニックエコソリューションズ朝日　株式会社",
    "office_name_kana": "パナソニツクエコソリユ-シヨンズアサヒ カブシキカイシヤ"
  },
  "0931": {
    "postcode": "3770931",
    "prefecture": "群馬県",
    "prefecture_kana": "グンマケン",
    "prefecture_code": 10,
    "city": "吾妻郡東吾妻町",
    "city_kana": "アガツマグンヒガシアガツママチ",
    "town": "大戸",
    "town_kana": "オオド",
    "street": null,
    "office_name": null,
    "office_name_kana": null
  },
  "0932": {
    "postcode": "3770932",
    "prefecture": "群馬県",
    "prefecture_kana": "グンマケン",
    "prefecture_code": 10,
    "city": "吾妻郡東吾妻町",
    "city_kana": "アガツマグンヒガシアガツママチ",
    "town": "萩生",
    "town_kana": "ハギュウ",
    "street": null,
    "office_name": null,
    "office_name_kana": null
  },
  "0933": {
    "postcode": "3770933",
    "prefecture": "群馬県",
    "prefecture_kana": "グンマケン",
    "prefecture_code": 10,
    "city": "吾妻郡東吾妻町",
    "city_kana": "アガツマグンヒガシアガツママチ",
    "town": "本宿",
    "town_kana": "モトジュク",
    "street": null,
    "office_name": null,
    "office_name_kana": null
  },
  "0934": {
    "postcode": "3770934",
    "prefecture": "群馬県",
    "prefecture_kana": "グンマケン",
    "prefecture_code": 10,
    "city": "吾妻郡東吾妻町",
    "city_kana": "アガツマグンヒガシアガツママチ",
    "town": "須賀尾",
    "town_kana": "スガオ",
    "street": null,
    "office_name": null,
    "office_name_kana": null
  },
  "0935": {
    "postcode": "3770935",
    "prefecture": "群馬県",
    "prefecture_kana": "グンマケン",
    "prefecture_code": 10,
    "city": "吾妻郡東吾妻町",
    "city_kana": "アガツマグンヒガシアガツママチ",
    "town": "大柏木",
    "town_kana": "オオカシワギ",
    "street": null,
    "office_name": null,
    "office_name_kana": null
  },
  "1300": {
    "postcode": "3771300",
    "prefecture": "群馬県",
    "prefecture_kana": "グンマケン",
    "prefecture_code": 10,
    "city": "吾妻郡長野原町",
    "city_kana": "アガツマグンナガノハラマチ",
    "town": "",
    "town_kana": "",
    "street": null,
    "office_name": null,
    "office_name_kana": null
  },
  "1301": {
    "postcode": "3771301",
    "prefecture": "群馬県",
    "prefecture_kana": "グンマケン",
    "prefecture_code": 10,
    "city": "吾妻郡長野原町",
    "city_kana": "アガツマグンナガノハラマチ",
    "town": "川原畑",
    "town_kana": "カワラハタ",
    "street": null,
    "office_name": null,
    "office_name_kana": null
  },
  "1302": {
    "postcode": "3771302",
    "prefecture": "群馬県",
    "prefecture_kana": "グンマケン",
    "prefecture_code": 10,
    "city": "吾妻郡長野原町",
    "city_kana": "アガツマグンナガノハラマチ",
    "town": "川原湯",
    "town_kana": "カワラユ",
    "street": null,
    "office_name": null,
    "office_name_kana": null
  },
  "1303": {
    "postcode": "3771303",
    "prefecture": "群馬県",
    "prefecture_kana": "グンマケン",
    "prefecture_code": 10,
    "city": "吾妻郡長野原町",
    "city_kana": "アガツマグンナガノハラマチ",
    "town": "横壁",
    "town_kana": "ヨコカベ",
    "street": null,
    "office_name": null,
    "office_name_kana": null
  },
  "1304": {
    "postcode": "3771304",
    "prefecture": "群馬県",
    "prefecture_kana": "グンマケン",
    "prefecture_code": 10,
    "city": "吾妻郡長野原町",
    "city_kana": "アガツマグンナガノハラマチ",
    "town": "長野原",
    "town_kana": "ナガノハラ",
    "street": null,
    "office_name": null,
    "office_name_kana": null
  },
  "1305": {
    "postcode": "3771305",
    "prefecture": "群馬県",
    "prefecture_kana": "グンマケン",
    "prefecture_code": 10,
    "city": "吾妻郡長野原町",
    "city_kana": "アガツマグンナガノハラマチ",
    "town": "与喜屋",
    "town_kana": "ヨキヤ",
    "street": null,
    "office_name": null,
    "office_name_kana": null
  },
  "1306": {
    "postcode": "3771306",
    "prefecture": "群馬県",
    "prefecture_kana": "グンマケン",
    "prefecture_code": 10,
    "city": "吾妻郡長野原町",
    "city_kana": "アガツマグンナガノハラマチ",
    "town": "古森",
    "town_kana": "フルモリ",
    "street": null,
    "office_name": null,
    "office_name_kana": null
  },
  "1307": {
    "postcode": "3771307",
    "prefecture": "群馬県",
    "prefecture_kana": "グンマケン",
    "prefecture_code": 10,
    "city": "吾妻郡長野原町",
    "city_kana": "アガツマグンナガノハラマチ",
    "town": "羽根尾",
    "town_kana": "ハネオ",
    "street": null,
    "office_name": null,
    "office_name_kana": null
  },
  "1308": {
    "postcode": "3771308",
    "prefecture": "群馬県",
    "prefecture_kana": "グンマケン",
    "prefecture_code": 10,
    "city": "吾妻郡長野原町",
    "city_kana": "アガツマグンナガノハラマチ",
    "town": "大津",
    "town_kana": "オオツ",
    "street": null,
    "office_name": null,
    "office_name_kana": null
  },
  "1309": {
    "postcode": "3771309",
    "prefecture": "群馬県",
    "prefecture_kana": "グンマケン",
    "prefecture_code": 10,
    "city": "吾妻郡長野原町",
    "city_kana": "アガツマグンナガノハラマチ",
    "town": "林",
    "town_kana": "ハヤシ",
    "street": null,
    "office_name": null,
    "office_name_kana": null
  },
  "1310": [
    {
      "postcode": "3771310",
      "prefecture": "群馬県",
      "prefecture_kana": "グンマケン",
      "prefecture_code": 10,
      "city": "吾妻郡長野原町",
      "city_kana": "アガツマグンナガノハラマチ",
      "town": "応桑",
      "town_kana": "オオクワ",
      "street": null,
      "office_name": null,
      "office_name_kana": null
    },
    {
      "postcode": "3771310",
      "prefecture": "群馬県",
      "prefecture_kana": "グンマケン",
      "prefecture_code": 10,
      "city": "吾妻郡長野原町",
      "city_kana": "アガツマグンナガノハラマチ",
      "town": "応桑堂光原",
      "town_kana": "オオクワドウコウハラ",
      "street": null,
      "office_name": null,
      "office_name_kana": null
    }
  ],
  "1311": {
    "postcode": "3771311",
    "prefecture": "群馬県",
    "prefecture_kana": "グンマケン",
    "prefecture_code": 10,
    "city": "吾妻郡中之条町",
    "city_kana": "アガツマグンナカノジョウマチ",
    "town": "赤岩",
    "town_kana": "アカイワ",
    "street": null,
    "office_name": null,
    "office_name_kana": null
  },
  "1312": {
    "postcode": "3771312",
    "prefecture": "群馬県",
    "prefecture_kana": "グンマケン",
    "prefecture_code": 10,
    "city": "吾妻郡中之条町",
    "city_kana": "アガツマグンナカノジョウマチ",
    "town": "日影",
    "town_kana": "ヒカゲ",
    "street": null,
    "office_name": null,
    "office_name_kana": null
  },
  "1392": {
    "postcode": "3771392",
    "prefecture": "群馬県",
    "prefecture_kana": "グンマケン",
    "prefecture_code": 10,
    "city": "吾妻郡長野原町",
    "city_kana": "アガツマグンナガノハラマチ",
    "town": "大字長野原",
    "town_kana": null,
    "street": "６６−３",
    "office_name": "長野原町役場",
    "office_name_kana": "ナガノハラマチヤクバ"
  },
  "1393": {
    "postcode": "3771393",
    "prefecture": "群馬県",
    "prefecture_kana": "グンマケン",
    "prefecture_code": 10,
    "city": "吾妻郡長野原町",
    "city_kana": "アガツマグンナガノハラマチ",
    "town": "大字与喜屋",
    "town_kana": null,
    "street": "２１−１",
    "office_name": "群馬県立長野原高等学校",
    "office_name_kana": "グンマケンリツナガノハラコウトウガツコウ"
  },
  "1395": {
    "postcode": "3771395",
    "prefecture": "群馬県",
    "prefecture_kana": "グンマケン",
    "prefecture_code": 10,
    "city": "吾妻郡長野原町",
    "city_kana": "アガツマグンナガノハラマチ",
    "town": "大字与喜屋",
    "town_kana": null,
    "street": "１１",
    "office_name": "国土交通省関東地方建設局　八ツ場ダム工事事務所",
    "office_name_kana": "コクドコウツウシヨウカントウチホウケンセツキヨク ヤツバダムコウジジムシヨ"
  },
  "1401": [
    {
      "postcode": "3771401",
      "prefecture": "群馬県",
      "prefecture_kana": "グンマケン",
      "prefecture_code": 10,
      "city": "吾妻郡嬬恋村",
      "city_kana": "アガツマグンツマゴイムラ",
      "town": "鎌原",
      "town_kana": "カンバラ",
      "street": null,
      "office_name": null,
      "office_name_kana": null
    },
    {
      "postcode": "3771401",
      "prefecture": "群馬県",
      "prefecture_kana": "グンマケン",
      "prefecture_code": 10,
      "city": "吾妻郡嬬恋村",
      "city_kana": "アガツマグンツマゴイムラ",
      "town": "鎌原奥軽井沢",
      "town_kana": "カンバラオクカルイザワ",
      "street": null,
      "office_name": null,
      "office_name_kana": null
    }
  ],
  "1402": [
    {
      "postcode": "3771402",
      "prefecture": "群馬県",
      "prefecture_kana": "グンマケン",
      "prefecture_code": 10,
      "city": "吾妻郡嬬恋村",
      "city_kana": "アガツマグンツマゴイムラ",
      "town": "鎌原",
      "town_kana": "カンバラ",
      "street": null,
      "office_name": null,
      "office_name_kana": null
    },
    {
      "postcode": "3771402",
      "prefecture": "群馬県",
      "prefecture_kana": "グンマケン",
      "prefecture_code": 10,
      "city": "吾妻郡嬬恋村",
      "city_kana": "アガツマグンツマゴイムラ",
      "town": "鎌原鬼の泉水",
      "town_kana": "カンバラオニノセンスイ",
      "street": null,
      "office_name": null,
      "office_name_kana": null
    }
  ],
  "1403": [
    {
      "postcode": "3771403",
      "prefecture": "群馬県",
      "prefecture_kana": "グンマケン",
      "prefecture_code": 10,
      "city": "吾妻郡嬬恋村",
      "city_kana": "アガツマグンツマゴイムラ",
      "town": "鎌原",
      "town_kana": "カンバラ",
      "street": null,
      "office_name": null,
      "office_name_kana": null
    },
    {
      "postcode": "3771403",
      "prefecture": "群馬県",
      "prefecture_kana": "グンマケン",
      "prefecture_code": 10,
      "city": "吾妻郡嬬恋村",
      "city_kana": "アガツマグンツマゴイムラ",
      "town": "鎌原あやめケ原",
      "town_kana": "カンバラアヤメガハラ",
      "street": null,
      "office_name": null,
      "office_name_kana": null
    }
  ],
  "1404": [
    {
      "postcode": "3771404",
      "prefecture": "群馬県",
      "prefecture_kana": "グンマケン",
      "prefecture_code": 10,
      "city": "吾妻郡嬬恋村",
      "city_kana": "アガツマグンツマゴイムラ",
      "town": "鎌原",
      "town_kana": "カンバラ",
      "street": null,
      "office_name": null,
      "office_name_kana": null
    },
    {
      "postcode": "3771404",
      "prefecture": "群馬県",
      "prefecture_kana": "グンマケン",
      "prefecture_code": 10,
      "city": "吾妻郡嬬恋村",
      "city_kana": "アガツマグンツマゴイムラ",
      "town": "鎌原大カイシコ",
      "town_kana": "カンバラオオカイシコ",
      "street": null,
      "office_name": null,
      "office_name_kana": null
    }
  ],
  "1405": [
    {
      "postcode": "3771405",
      "prefecture": "群馬県",
      "prefecture_kana": "グンマケン",
      "prefecture_code": 10,
      "city": "吾妻郡嬬恋村",
      "city_kana": "アガツマグンツマゴイムラ",
      "town": "鎌原",
      "town_kana": "カンバラ",
      "street": null,
      "office_name": null,
      "office_name_kana": null
    },
    {
      "postcode": "3771405",
      "prefecture": "群馬県",
      "prefecture_kana": "グンマケン",
      "prefecture_code": 10,
      "city": "吾妻郡嬬恋村",
      "city_kana": "アガツマグンツマゴイムラ",
      "town": "鎌原モロシコ「浅間園」",
      "town_kana": "カンバラモロシコ<アサマエン>",
      "street": null,
      "office_name": null,
      "office_name_kana": null
    }
  ],
  "1411": {
    "postcode": "3771411",
    "prefecture": "群馬県",
    "prefecture_kana": "グンマケン",
    "prefecture_code": 10,
    "city": "吾妻郡長野原町",
    "city_kana": "アガツマグンナガノハラマチ",
    "town": "応桑",
    "town_kana": "オオクワ",
    "street": null,
    "office_name": null,
    "office_name_kana": null
  },
  "1412": {
    "postcode": "3771412",
    "prefecture": "群馬県",
    "prefecture_kana": "グンマケン",
    "prefecture_code": 10,
    "city": "吾妻郡長野原町",
    "city_kana": "アガツマグンナガノハラマチ",
    "town": "北軽井沢",
    "town_kana": "キタカルイザワ",
    "street": null,
    "office_name": null,
    "office_name_kana": null
  },
  "1500": {
    "postcode": "3771500",
    "prefecture": "群馬県",
    "prefecture_kana": "グンマケン",
    "prefecture_code": 10,
    "city": "吾妻郡嬬恋村",
    "city_kana": "アガツマグンツマゴイムラ",
    "town": "",
    "town_kana": "",
    "street": null,
    "office_name": null,
    "office_name_kana": null
  },
  "1512": {
    "postcode": "3771512",
    "prefecture": "群馬県",
    "prefecture_kana": "グンマケン",
    "prefecture_code": 10,
    "city": "吾妻郡嬬恋村",
    "city_kana": "アガツマグンツマゴイムラ",
    "town": "大前",
    "town_kana": "オオマエ",
    "street": null,
    "office_name": null,
    "office_name_kana": null
  },
  "1521": {
    "postcode": "3771521",
    "prefecture": "群馬県",
    "prefecture_kana": "グンマケン",
    "prefecture_code": 10,
    "city": "吾妻郡嬬恋村",
    "city_kana": "アガツマグンツマゴイムラ",
    "town": "今井",
    "town_kana": "イマイ",
    "street": null,
    "office_name": null,
    "office_name_kana": null
  },
  "1522": {
    "postcode": "3771522",
    "prefecture": "群馬県",
    "prefecture_kana": "グンマケン",
    "prefecture_code": 10,
    "city": "吾妻郡嬬恋村",
    "city_kana": "アガツマグンツマゴイムラ",
    "town": "袋倉",
    "town_kana": "フクログラ",
    "street": null,
    "office_name": null,
    "office_name_kana": null
  },
  "1523": {
    "postcode": "3771523",
    "prefecture": "群馬県",
    "prefecture_kana": "グンマケン",
    "prefecture_code": 10,
    "city": "吾妻郡嬬恋村",
    "city_kana": "アガツマグンツマゴイムラ",
    "town": "芦生田",
    "town_kana": "アシウダ",
    "street": null,
    "office_name": null,
    "office_name_kana": null
  },
  "1524": {
    "postcode": "3771524",
    "prefecture": "群馬県",
    "prefecture_kana": "グンマケン",
    "prefecture_code": 10,
    "city": "吾妻郡嬬恋村",
    "city_kana": "アガツマグンツマゴイムラ",
    "town": "鎌原",
    "town_kana": "カンバラ",
    "street": null,
    "office_name": null,
    "office_name_kana": null
  },
  "1525": {
    "postcode": "3771525",
    "prefecture": "群馬県",
    "prefecture_kana": "グンマケン",
    "prefecture_code": 10,
    "city": "吾妻郡嬬恋村",
    "city_kana": "アガツマグンツマゴイムラ",
    "town": "西窪",
    "town_kana": "サイクボ",
    "street": null,
    "office_name": null,
    "office_name_kana": null
  },
  "1526": {
    "postcode": "3771526",
    "prefecture": "群馬県",
    "prefecture_kana": "グンマケン",
    "prefecture_code": 10,
    "city": "吾妻郡嬬恋村",
    "city_kana": "アガツマグンツマゴイムラ",
    "town": "三原",
    "town_kana": "ミハラ",
    "street": null,
    "office_name": null,
    "office_name_kana": null
  },
  "1527": {
    "postcode": "3771527",
    "prefecture": "群馬県",
    "prefecture_kana": "グンマケン",
    "prefecture_code": 10,
    "city": "吾妻郡嬬恋村",
    "city_kana": "アガツマグンツマゴイムラ",
    "town": "門貝",
    "town_kana": "カドガイ",
    "street": null,
    "office_name": null,
    "office_name_kana": null
  },
  "1528": [
    {
      "postcode": "3771528",
      "prefecture": "群馬県",
      "prefecture_kana": "グンマケン",
      "prefecture_code": 10,
      "city": "吾妻郡嬬恋村",
      "city_kana": "アガツマグンツマゴイムラ",
      "town": "干俣",
      "town_kana": "ホシマタ",
      "street": null,
      "office_name": null,
      "office_name_kana": null
    },
    {
      "postcode": "3771528",
      "prefecture": "群馬県",
      "prefecture_kana": "グンマケン",
      "prefecture_code": 10,
      "city": "吾妻郡嬬恋村",
      "city_kana": "アガツマグンツマゴイムラ",
      "town": "干俣吾妻鉱山",
      "town_kana": "ホシマタアガツマコウザン",
      "street": null,
      "office_name": null,
      "office_name_kana": null
    },
    {
      "postcode": "3771528",
      "prefecture": "群馬県",
      "prefecture_kana": "グンマケン",
      "prefecture_code": 10,
      "city": "吾妻郡嬬恋村",
      "city_kana": "アガツマグンツマゴイムラ",
      "town": "干俣万座温泉",
      "town_kana": "ホシマタマンザオンセン",
      "street": null,
      "office_name": null,
      "office_name_kana": null
    }
  ],
  "1593": {
    "postcode": "3771593",
    "prefecture": "群馬県",
    "prefecture_kana": "グンマケン",
    "prefecture_code": 10,
    "city": "吾妻郡嬬恋村",
    "city_kana": "アガツマグンツマゴイムラ",
    "town": "大字鎌原",
    "town_kana": null,
    "street": "１０５３",
    "office_name": "鬼押出し園",
    "office_name_kana": "オニオシダシエン"
  },
  "1594": {
    "postcode": "3771594",
    "prefecture": "群馬県",
    "prefecture_kana": "グンマケン",
    "prefecture_code": 10,
    "city": "吾妻郡嬬恋村",
    "city_kana": "アガツマグンツマゴイムラ",
    "town": "大字三原",
    "town_kana": null,
    "street": "１４４９−７８",
    "office_name": "嬬恋プリンスホテル　嬬恋高原ゴルフ場",
    "office_name_kana": "ツマコイプリンスホテル ツマコイコウゲンゴルフジヨウ"
  },
  "1595": {
    "postcode": "3771595",
    "prefecture": "群馬県",
    "prefecture_kana": "グンマケン",
    "prefecture_code": 10,
    "city": "吾妻郡嬬恋村",
    "city_kana": "アガツマグンツマゴイムラ",
    "town": "大字干俣",
    "town_kana": null,
    "street": "２４０１（万座温泉）",
    "office_name": "万座プリンスホテル",
    "office_name_kana": "マンザプリンスホテル"
  },
  "1611": {
    "postcode": "3771611",
    "prefecture": "群馬県",
    "prefecture_kana": "グンマケン",
    "prefecture_code": 10,
    "city": "吾妻郡嬬恋村",
    "city_kana": "アガツマグンツマゴイムラ",
    "town": "干俣",
    "town_kana": "ホシマタ",
    "street": null,
    "office_name": null,
    "office_name_kana": null
  },
  "1612": {
    "postcode": "3771612",
    "prefecture": "群馬県",
    "prefecture_kana": "グンマケン",
    "prefecture_code": 10,
    "city": "吾妻郡嬬恋村",
    "city_kana": "アガツマグンツマゴイムラ",
    "town": "大前",
    "town_kana": "オオマエ",
    "street": null,
    "office_name": null,
    "office_name_kana": null
  },
  "1613": {
    "postcode": "3771613",
    "prefecture": "群馬県",
    "prefecture_kana": "グンマケン",
    "prefecture_code": 10,
    "city": "吾妻郡嬬恋村",
    "city_kana": "アガツマグンツマゴイムラ",
    "town": "大笹",
    "town_kana": "オオザサ",
    "street": null,
    "office_name": null,
    "office_name_kana": null
  },
  "1614": {
    "postcode": "3771614",
    "prefecture": "群馬県",
    "prefecture_kana": "グンマケン",
    "prefecture_code": 10,
    "city": "吾妻郡嬬恋村",
    "city_kana": "アガツマグンツマゴイムラ",
    "town": "田代",
    "town_kana": "タシロ",
    "street": null,
    "office_name": null,
    "office_name_kana": null
  },
  "1615": [
    {
      "postcode": "3771615",
      "prefecture": "群馬県",
      "prefecture_kana": "グンマケン",
      "prefecture_code": 10,
      "city": "吾妻郡嬬恋村",
      "city_kana": "アガツマグンツマゴイムラ",
      "town": "鎌原",
      "town_kana": "カンバラ",
      "street": null,
      "office_name": null,
      "office_name_kana": null
    },
    {
      "postcode": "3771615",
      "prefecture": "群馬県",
      "prefecture_kana": "グンマケン",
      "prefecture_code": 10,
      "city": "吾妻郡嬬恋村",
      "city_kana": "アガツマグンツマゴイムラ",
      "town": "鎌原藤原",
      "town_kana": "カンバラフジワラ",
      "street": null,
      "office_name": null,
      "office_name_kana": null
    }
  ],
  "1616": [
    {
      "postcode": "3771616",
      "prefecture": "群馬県",
      "prefecture_kana": "グンマケン",
      "prefecture_code": 10,
      "city": "吾妻郡嬬恋村",
      "city_kana": "アガツマグンツマゴイムラ",
      "town": "鎌原",
      "town_kana": "カンバラ",
      "street": null,
      "office_name": null,
      "office_name_kana": null
    },
    {
      "postcode": "3771616",
      "prefecture": "群馬県",
      "prefecture_kana": "グンマケン",
      "prefecture_code": 10,
      "city": "吾妻郡嬬恋村",
      "city_kana": "アガツマグンツマゴイムラ",
      "town": "鎌原柏木塚",
      "town_kana": "カンバラカシワギヅカ",
      "street": null,
      "office_name": null,
      "office_name_kana": null
    }
  ],
  "1617": [
    {
      "postcode": "3771617",
      "prefecture": "群馬県",
      "prefecture_kana": "グンマケン",
      "prefecture_code": 10,
      "city": "吾妻郡嬬恋村",
      "city_kana": "アガツマグンツマゴイムラ",
      "town": "鎌原",
      "town_kana": "カンバラ",
      "street": null,
      "office_name": null,
      "office_name_kana": null
    },
    {
      "postcode": "3771617",
      "prefecture": "群馬県",
      "prefecture_kana": "グンマケン",
      "prefecture_code": 10,
      "city": "吾妻郡嬬恋村",
      "city_kana": "アガツマグンツマゴイムラ",
      "town": "鎌原群馬坂",
      "town_kana": "カンバラグンマザカ",
      "street": null,
      "office_name": null,
      "office_name_kana": null
    }
  ],
  "1692": {
    "postcode": "3771692",
    "prefecture": "群馬県",
    "prefecture_kana": "グンマケン",
    "prefecture_code": 10,
    "city": "吾妻郡嬬恋村",
    "city_kana": "アガツマグンツマゴイムラ",
    "town": "大字大前",
    "town_kana": null,
    "street": "１１０",
    "office_name": "嬬恋村役場",
    "office_name_kana": "ツマゴイムラヤクバ"
  },
  "1693": {
    "postcode": "3771693",
    "prefecture": "群馬県",
    "prefecture_kana": "グンマケン",
    "prefecture_code": 10,
    "city": "吾妻郡嬬恋村",
    "city_kana": "アガツマグンツマゴイムラ",
    "town": "大字大前",
    "town_kana": null,
    "street": "７６７−２",
    "office_name": "ＪＡ　嬬恋村",
    "office_name_kana": "ジエイエイ ツマゴイムラ"
  },
  "1695": {
    "postcode": "3771695",
    "prefecture": "群馬県",
    "prefecture_kana": "グンマケン",
    "prefecture_code": 10,
    "city": "吾妻郡嬬恋村",
    "city_kana": "アガツマグンツマゴイムラ",
    "town": "大字田代",
    "town_kana": null,
    "street": "１３１２",
    "office_name": "休暇村鹿沢高原",
    "office_name_kana": "キユウカムラカザワコウゲン"
  },
  "1700": {
    "postcode": "3771700",
    "prefecture": "群馬県",
    "prefecture_kana": "グンマケン",
    "prefecture_code": 10,
    "city": "吾妻郡草津町",
    "city_kana": "アガツマグンクサツマチ",
    "town": "",
    "town_kana": "",
    "street": null,
    "office_name": null,
    "office_name_kana": null
  },
  "1701": {
    "postcode": "3771701",
    "prefecture": "群馬県",
    "prefecture_kana": "グンマケン",
    "prefecture_code": 10,
    "city": "吾妻郡中之条町",
    "city_kana": "アガツマグンナカノジョウマチ",
    "town": "入山",
    "town_kana": "イリヤマ",
    "street": null,
    "office_name": null,
    "office_name_kana": null
  },
  "1702": {
    "postcode": "3771702",
    "prefecture": "群馬県",
    "prefecture_kana": "グンマケン",
    "prefecture_code": 10,
    "city": "吾妻郡中之条町",
    "city_kana": "アガツマグンナカノジョウマチ",
    "town": "生須",
    "town_kana": "ナマス",
    "street": null,
    "office_name": null,
    "office_name_kana": null
  },
  "1703": {
    "postcode": "3771703",
    "prefecture": "群馬県",
    "prefecture_kana": "グンマケン",
    "prefecture_code": 10,
    "city": "吾妻郡中之条町",
    "city_kana": "アガツマグンナカノジョウマチ",
    "town": "太子",
    "town_kana": "オオシ",
    "street": null,
    "office_name": null,
    "office_name_kana": null
  },
  "1704": {
    "postcode": "3771704",
    "prefecture": "群馬県",
    "prefecture_kana": "グンマケン",
    "prefecture_code": 10,
    "city": "吾妻郡中之条町",
    "city_kana": "アガツマグンナカノジョウマチ",
    "town": "小雨",
    "town_kana": "コサメ",
    "street": null,
    "office_name": null,
    "office_name_kana": null
  },
  "1711": {
    "postcode": "3771711",
    "prefecture": "群馬県",
    "prefecture_kana": "グンマケン",
    "prefecture_code": 10,
    "city": "吾妻郡草津町",
    "city_kana": "アガツマグンクサツマチ",
    "town": "草津",
    "town_kana": "クサツ",
    "street": null,
    "office_name": null,
    "office_name_kana": null
  },
  "1712": {
    "postcode": "3771712",
    "prefecture": "群馬県",
    "prefecture_kana": "グンマケン",
    "prefecture_code": 10,
    "city": "吾妻郡草津町",
    "city_kana": "アガツマグンクサツマチ",
    "town": "前口",
    "town_kana": "マエグチ",
    "street": null,
    "office_name": null,
    "office_name_kana": null
  },
  "1792": {
    "postcode": "3771792",
    "prefecture": "群馬県",
    "prefecture_kana": "グンマケン",
    "prefecture_code": 10,
    "city": "吾妻郡草津町",
    "city_kana": "アガツマグンクサツマチ",
    "town": "大字草津",
    "town_kana": null,
    "street": "２８",
    "office_name": "草津町役場",
    "office_name_kana": "クサツマチヤクバ"
  },
  "1793": {
    "postcode": "3771793",
    "prefecture": "群馬県",
    "prefecture_kana": "グンマケン",
    "prefecture_code": 10,
    "city": "吾妻郡草津町",
    "city_kana": "アガツマグンクサツマチ",
    "town": "大字草津",
    "town_kana": null,
    "street": "６１８",
    "office_name": "株式会社　中沢ヴィレッジ",
    "office_name_kana": "カブシキガイシヤ ナカザワヴイレツジ"
  },
  "1794": {
    "postcode": "3771794",
    "prefecture": "群馬県",
    "prefecture_kana": "グンマケン",
    "prefecture_code": 10,
    "city": "吾妻郡草津町",
    "city_kana": "アガツマグンクサツマチ",
    "town": "大字草津",
    "town_kana": null,
    "street": "４６４−１０５１",
    "office_name": "草津簡易保険保養センター",
    "office_name_kana": "クサツカンイホケンホヨウセンタ-"
  },
  "1795": {
    "postcode": "3771795",
    "prefecture": "群馬県",
    "prefecture_kana": "グンマケン",
    "prefecture_code": 10,
    "city": "吾妻郡中之条町",
    "city_kana": "アガツマグンナカノジョウマチ",
    "town": "大字小雨",
    "town_kana": null,
    "street": "５７７の１",
    "office_name": "中之条町　六合支所",
    "office_name_kana": "ナカノジヨウマチ クニシシヨ"
  },
  "1796": {
    "postcode": "3771796",
    "prefecture": "群馬県",
    "prefecture_kana": "グンマケン",
    "prefecture_code": 10,
    "city": "吾妻郡草津町",
    "city_kana": "アガツマグンクサツマチ",
    "town": "大字草津",
    "town_kana": null,
    "street": "４１１",
    "office_name": "株式会社　ホテル一井",
    "office_name_kana": "カブシキガイシヤ ホテルイチイ"
  },
  "1797": {
    "postcode": "3771797",
    "prefecture": "群馬県",
    "prefecture_kana": "グンマケン",
    "prefecture_code": 10,
    "city": "吾妻郡草津町",
    "city_kana": "アガツマグンクサツマチ",
    "town": "大字草津",
    "town_kana": null,
    "street": "３９番地",
    "office_name": "草津温泉旅館協同組合",
    "office_name_kana": "クサツオンセンリヨカンキヨウドウクミアイ"
  },
  "8501": {
    "postcode": "3778501",
    "prefecture": "群馬県",
    "prefecture_kana": "グンマケン",
    "prefecture_code": 10,
    "city": "渋川市",
    "city_kana": "シブカワシ",
    "town": "石原",
    "town_kana": "イシハラ",
    "street": "８０",
    "office_name": "渋川市役所",
    "office_name_kana": "シブカワシヤクシヨ"
  },
  "8502": {
    "postcode": "3778502",
    "prefecture": "群馬県",
    "prefecture_kana": "グンマケン",
    "prefecture_code": 10,
    "city": "渋川市",
    "city_kana": "シブカワシ",
    "town": "北橘町真壁",
    "town_kana": "ホッキツマチマカベ",
    "street": "２３７２−１",
    "office_name": "渋川市　北橘総合支所",
    "office_name_kana": "シブカワシ ホツキツソウゴウシシヨ"
  },
  "8503": {
    "postcode": "3778503",
    "prefecture": "群馬県",
    "prefecture_kana": "グンマケン",
    "prefecture_code": 10,
    "city": "渋川市",
    "city_kana": "シブカワシ",
    "town": "渋川",
    "town_kana": "シブカワ",
    "street": "１８２８−２３",
    "office_name": "太田物産　株式会社",
    "office_name_kana": "オオタブツサン カブシキカイシヤ"
  },
  "8508": {
    "postcode": "3778508",
    "prefecture": "群馬県",
    "prefecture_kana": "グンマケン",
    "prefecture_code": 10,
    "city": "渋川市",
    "city_kana": "シブカワシ",
    "town": "渋川",
    "town_kana": "シブカワ",
    "street": "１６８９−４",
    "office_name": "エクセルイン渋川",
    "office_name_kana": "エクセルインシブカワ"
  },
  "8510": {
    "postcode": "3778510",
    "prefecture": "群馬県",
    "prefecture_kana": "グンマケン",
    "prefecture_code": 10,
    "city": "渋川市",
    "city_kana": "シブカワシ",
    "town": "中村",
    "town_kana": "ナカムラ",
    "street": "７８６",
    "office_name": "株式会社　小笠原",
    "office_name_kana": "カブシキガイシヤ オガサワラ"
  },
  "8511": {
    "postcode": "3778511",
    "prefecture": "群馬県",
    "prefecture_kana": "グンマケン",
    "prefecture_code": 10,
    "city": "渋川市",
    "city_kana": "シブカワシ",
    "town": "金井",
    "town_kana": "カナイ",
    "street": "２８５４",
    "office_name": "独立行政法人　国立病院機構　西群馬病院",
    "office_name_kana": "ドクリツギヨウセイホウジン コクリツビヨウインキコウ ニシグンマビヨウイン"
  },
  "8513": {
    "postcode": "3778513",
    "prefecture": "群馬県",
    "prefecture_kana": "グンマケン",
    "prefecture_code": 10,
    "city": "渋川市",
    "city_kana": "シブカワシ",
    "town": "渋川",
    "town_kana": "シブカワ",
    "street": "１４９７",
    "office_name": "関東電化工業　株式会社　渋川工場",
    "office_name_kana": "カントウデンカコウギヨウ カブシキカイシヤ シブカワコウジヨウ"
  },
  "8520": {
    "postcode": "3778520",
    "prefecture": "群馬県",
    "prefecture_kana": "グンマケン",
    "prefecture_code": 10,
    "city": "渋川市",
    "city_kana": "シブカワシ",
    "town": "中村",
    "town_kana": "ナカムラ",
    "street": "１１３５",
    "office_name": "電気化学工業　株式会社　渋川工場",
    "office_name_kana": "デンキカガクコウギヨウ カブシキガイシヤ シブカワコウジヨウ"
  },
  "8533": {
    "postcode": "3778533",
    "prefecture": "群馬県",
    "prefecture_kana": "グンマケン",
    "prefecture_code": 10,
    "city": "渋川市",
    "city_kana": "シブカワシ",
    "town": "",
    "town_kana": "",
    "street": "関下１１１２−１",
    "office_name": "株式会社　津久井工務店",
    "office_name_kana": "カブシキガイシヤ ツクイコウムテン"
  },
  "8555": {
    "postcode": "3778555",
    "prefecture": "群馬県",
    "prefecture_kana": "グンマケン",
    "prefecture_code": 10,
    "city": "渋川市",
    "city_kana": "シブカワシ",
    "town": "北橘町下箱田",
    "town_kana": "ホッキツマチシモハコダ",
    "street": "７８４−２",
    "office_name": "財団法人　群馬県埋蔵文化財調査事業団",
    "office_name_kana": "ザイダンホウジン グンマケンマイゾウブンカザイチヨウサジギヨウダン"
  },
  "8566": {
    "postcode": "3778566",
    "prefecture": "群馬県",
    "prefecture_kana": "グンマケン",
    "prefecture_code": 10,
    "city": "渋川市",
    "city_kana": "シブカワシ",
    "town": "渋川",
    "town_kana": "シブカワ",
    "street": "１２１−１",
    "office_name": "利根川水系砂防事務所",
    "office_name_kana": "トネガワスイケイサボウジムシヨ"
  },
  "8567": {
    "postcode": "3778567",
    "prefecture": "群馬県",
    "prefecture_kana": "グンマケン",
    "prefecture_code": 10,
    "city": "渋川市",
    "city_kana": "シブカワシ",
    "town": "渋川",
    "town_kana": "シブカワ",
    "street": "４４１８",
    "office_name": "社会福祉法人　恵の園",
    "office_name_kana": "シヤカイフクシホウジン メグミノソノ"
  },
  "8577": {
    "postcode": "3778577",
    "prefecture": "群馬県",
    "prefecture_kana": "グンマケン",
    "prefecture_code": 10,
    "city": "渋川市",
    "city_kana": "シブカワシ",
    "town": "北橘町下箱田",
    "town_kana": "ホッキツマチシモハコダ",
    "street": "７７９",
    "office_name": "群馬県立　小児医療センター",
    "office_name_kana": "グンマケンリツ シヨウニイリヨウセンタ-"
  },
  "8585": {
    "postcode": "3778585",
    "prefecture": "群馬県",
    "prefecture_kana": "グンマケン",
    "prefecture_code": 10,
    "city": "渋川市",
    "city_kana": "シブカワシ",
    "town": "渋川",
    "town_kana": "シブカワ",
    "street": "２０７０−２１",
    "office_name": "南澤建設　株式会社",
    "office_name_kana": "ミナミサワケンセツ カブシキカイシヤ"
  },
  "8588": {
    "postcode": "3778588",
    "prefecture": "群馬県",
    "prefecture_kana": "グンマケン",
    "prefecture_code": 10,
    "city": "渋川市",
    "city_kana": "シブカワシ",
    "town": "石原",
    "town_kana": "イシハラ",
    "street": "１４３−７",
    "office_name": "日本年金機構　渋川年金事務所",
    "office_name_kana": "ニツポンネンキンキコウ シブカワネンキンジムシヨ"
  },
  "8616": {
    "postcode": "3778616",
    "prefecture": "群馬県",
    "prefecture_kana": "グンマケン",
    "prefecture_code": 10,
    "city": "渋川市",
    "city_kana": "シブカワシ",
    "town": "石原",
    "town_kana": "イシハラ",
    "street": "２０３−３（渋川郵便局私書箱第１６号）",
    "office_name": "北群馬信用金庫",
    "office_name_kana": "キタグンマシンヨウキンコ"
  }
}