{
  "0100": {
    "postcode": "3790100",
    "prefecture": "群馬県",
    "prefecture_kana": "グンマケン",
    "prefecture_code": 10,
    "city": "安中市",
    "city_kana": "アンナカシ",
    "town": "",
    "town_kana": "",
    "street": null,
    "office_name": null,
    "office_name_kana": null
  },
  "0101": {
    "postcode": "3790101",
    "prefecture": "群馬県",
    "prefecture_kana": "グンマケン",
    "prefecture_code": 10,
    "city": "安中市",
    "city_kana": "アンナカシ",
    "town": "西上秋間",
    "town_kana": "ニシカミアキマ",
    "street": null,
    "office_name": null,
    "office_name_kana": null
  },
  "0102": {
    "postcode": "3790102",
    "prefecture": "群馬県",
    "prefecture_kana": "グンマケン",
    "prefecture_code": 10,
    "city": "安中市",
    "city_kana": "アンナカシ",
    "town": "東上秋間",
    "town_kana": "ヒガシカミアキマ",
    "street": null,
    "office_name": null,
    "office_name_kana": null
  },
  "0103": {
    "postcode": "3790103",
    "prefecture": "群馬県",
    "prefecture_kana": "グンマケン",
    "prefecture_code": 10,
    "city": "安中市",
    "city_kana": "アンナカシ",
    "town": "中秋間",
    "town_kana": "ナカアキマ",
    "street": null,
    "office_name": null,
    "office_name_kana": null
  },
  "0104": {
    "postcode": "3790104",
    "prefecture": "群馬県",
    "prefecture_kana": "グンマケン",
    "prefecture_code": 10,
    "city": "安中市",
    "city_kana": "アンナカシ",
    "town": "下秋間",
    "town_kana": "シモアキマ",
    "street": null,
    "office_name": null,
    "office_name_kana": null
  },
  "0105": {
    "postcode": "3790105",
    "prefecture": "群馬県",
    "prefecture_kana": "グンマケン",
    "prefecture_code": 10,
    "city": "安中市",
    "city_kana": "アンナカシ",
    "town": "小俣",
    "town_kana": "オマタ",
    "street": null,
    "office_name": null,
    "office_name_kana": null
  },
  "0106": {
    "postcode": "3790106",
    "prefecture": "群馬県",
    "prefecture_kana": "グンマケン",
    "prefecture_code": 10,
    "city": "安中市",
    "city_kana": "アンナカシ",
    "town": "下後閑",
    "town_kana": "シモゴカン",
    "street": null,
    "office_name": null,
    "office_name_kana": null
  },
  "0107": {
    "postcode": "3790107",
    "prefecture": "群馬県",
    "prefecture_kana": "グンマケン",
    "prefecture_code": 10,
    "city": "安中市",
    "city_kana": "アンナカシ",
    "town": "中後閑",
    "town_kana": "ナカゴカン",
    "street": null,
    "office_name": null,
    "office_name_kana": null
  },
  "0108": {
    "postcode": "3790108",
    "prefecture": "群馬県",
    "prefecture_kana": "グンマケン",
    "prefecture_code": 10,
    "city": "安中市",
    "city_kana": "アンナカシ",
    "town": "上後閑",
    "town_kana": "カミゴカン",
    "street": null,
    "office_name": null,
    "office_name_kana": null
  },
  "0109": {
    "postcode": "3790109",
    "prefecture": "群馬県",
    "prefecture_kana": "グンマケン",
    "prefecture_code": 10,
    "city": "安中市",
    "city_kana": "アンナカシ",
    "town": "秋間みのりが丘",
    "town_kana": "アキマミノリガオカ",
    "street": null,
    "office_name": null,
    "office_name_kana": null
  },
  "0111": {
    "postcode": "3790111",
    "prefecture": "群馬県",
    "prefecture_kana": "グンマケン",
    "prefecture_code": 10,
    "city": "安中市",
    "city_kana": "アンナカシ",
    "town": "板鼻",
    "town_kana": "イタハナ",
    "street": null,
    "office_name": null,
    "office_name_kana": null
  },
  "0112": {
    "postcode": "3790112",
    "prefecture": "群馬県",
    "prefecture_kana": "グンマケン",
    "prefecture_code": 10,
    "city": "安中市",
    "city_kana": "アンナカシ",
    "town": "岩井",
    "town_kana": "イワイ",
    "street": null,
    "office_name": null,
    "office_name_kana": null
  },
  "0113": {
    "postcode": "3790113",
    "prefecture": "群馬県",
    "prefecture_kana": "グンマケン",
    "prefecture_code": 10,
    "city": "安中市",
    "city_kana": "アンナカシ",
    "town": "大谷",
    "town_kana": "オオヤ",
    "street": null,
    "office_name": null,
    "office_name_kana": null
  },
  "0114": {
    "postcode": "3790114",
    "prefecture": "群馬県",
    "prefecture_kana": "グンマケン",
    "prefecture_code": 10,
    "city": "安中市",
    "city_kana": "アンナカシ",
    "town": "野殿",
    "town_kana": "ノドノ",
    "street": null,
    "office_name": null,
    "office_name_kana": null
  },
  "0115": {
    "postcode": "3790115",
    "prefecture": "群馬県",
    "prefecture_kana": "グンマケン",
    "prefecture_code": 10,
    "city": "安中市",
    "city_kana": "アンナカシ",
    "town": "中宿",
    "town_kana": "ナカジュク",
    "street": null,
    "office_name": null,
    "office_name_kana": null
  },
  "0116": {
    "postcode": "3790116",
    "prefecture": "群馬県",
    "prefecture_kana": "グンマケン",
    "prefecture_code": 10,
    "city": "安中市",
    "city_kana": "アンナカシ",
    "town": "安中",
    "town_kana": "アンナカ",
    "street": null,
    "office_name": null,
    "office_name_kana": null
  },
  "0121": {
    "postcode": "3790121",
    "prefecture": "群馬県",
    "prefecture_kana": "グンマケン",
    "prefecture_code": 10,
    "city": "安中市",
    "city_kana": "アンナカシ",
    "town": "大竹",
    "town_kana": "オオタケ",
    "street": null,
    "office_name": null,
    "office_name_kana": null
  },
  "0122": {
    "postcode": "3790122",
    "prefecture": "群馬県",
    "prefecture_kana": "グンマケン",
    "prefecture_code": 10,
    "city": "安中市",
    "city_kana": "アンナカシ",
    "town": "下間仁田",
    "town_kana": "シモマニタ",
    "street": null,
    "office_name": null,
    "office_name_kana": null
  },
  "0123": {
    "postcode": "3790123",
    "prefecture": "群馬県",
    "prefecture_kana": "グンマケン",
    "prefecture_code": 10,
    "city": "安中市",
    "city_kana": "アンナカシ",
    "town": "上間仁田",
    "town_kana": "カミマニタ",
    "street": null,
    "office_name": null,
    "office_name_kana": null
  },
  "0124": {
    "postcode": "3790124",
    "prefecture": "群馬県",
    "prefecture_kana": "グンマケン",
    "prefecture_code": 10,
    "city": "安中市",
    "city_kana": "アンナカシ",
    "town": "鷺宮",
    "town_kana": "サギノミヤ",
    "street": null,
    "office_name": null,
    "office_name_kana": null
  },
  "0125": {
    "postcode": "3790125",
    "prefecture": "群馬県",
    "prefecture_kana": "グンマケン",
    "prefecture_code": 10,
    "city": "安中市",
    "city_kana": "アンナカシ",
    "town": "中野谷",
    "town_kana": "ナカノヤ",
    "street": null,
    "office_name": null,
    "office_name_kana": null
  },
  "0126": {
    "postcode": "3790126",
    "prefecture": "群馬県",
    "prefecture_kana": "グンマケン",
    "prefecture_code": 10,
    "city": "安中市",
    "city_kana": "アンナカシ",
    "town": "西上磯部",
    "town_kana": "ニシカミイソベ",
    "street": null,
    "office_name": null,
    "office_name_kana": null
  },
  "0127": {
    "postcode": "3790127",
    "prefecture": "群馬県",
    "prefecture_kana": "グンマケン",
    "prefecture_code": 10,
    "city": "安中市",
    "city_kana": "アンナカシ",
    "town": "磯部",
    "town_kana": "イソベ",
    "street": null,
    "office_name": null,
    "office_name_kana": null
  },
  "0128": {
    "postcode": "3790128",
    "prefecture": "群馬県",
    "prefecture_kana": "グンマケン",
    "prefecture_code": 10,
    "city": "安中市",
    "city_kana": "アンナカシ",
    "town": "東上磯部",
    "town_kana": "ヒガシカミイソベ",
    "street": null,
    "office_name": null,
    "office_name_kana": null
  },
  "0129": {
    "postcode": "3790129",
    "prefecture": "群馬県",
    "prefecture_kana": "グンマケン",
    "prefecture_code": 10,
    "city": "安中市",
    "city_kana": "アンナカシ",
    "town": "下磯部",
    "town_kana": "シモイソベ",
    "street": null,
    "office_name": null,
    "office_name_kana": null
  },
  "0131": {
    "postcode": "3790131",
    "prefecture": "群馬県",
    "prefecture_kana": "グンマケン",
    "prefecture_code": 10,
    "city": "安中市",
    "city_kana": "アンナカシ",
    "town": "古屋",
    "town_kana": "フルヤ",
    "street": null,
    "office_name": null,
    "office_name_kana": null
  },
  "0132": {
    "postcode": "3790132",
    "prefecture": "群馬県",
    "prefecture_kana": "グンマケン",
    "prefecture_code": 10,
    "city": "安中市",
    "city_kana": "アンナカシ",
    "town": "高別当",
    "town_kana": "コウベツトウ",
    "street": null,
    "office_name": null,
    "office_name_kana": null
  },
  "0133": {
    "postcode": "3790133",
    "prefecture": "群馬県",
    "prefecture_kana": "グンマケン",
    "prefecture_code": 10,
    "city": "安中市",
    "city_kana": "アンナカシ",
    "town": "原市",
    "town_kana": "ハライチ",
    "street": null,
    "office_name": null,
    "office_name_kana": null
  },
  "0134": {
    "postcode": "3790134",
    "prefecture": "群馬県",
    "prefecture_kana": "グンマケン",
    "prefecture_code": 10,
    "city": "安中市",
    "city_kana": "アンナカシ",
    "town": "簗瀬",
    "town_kana": "ヤナセ",
    "street": null,
    "office_name": null,
    "office_name_kana": null
  },
  "0135": {
    "postcode": "3790135",
    "prefecture": "群馬県",
    "prefecture_kana": "グンマケン",
    "prefecture_code": 10,
    "city": "安中市",
    "city_kana": "アンナカシ",
    "town": "郷原",
    "town_kana": "ゴウバラ",
    "street": null,
    "office_name": null,
    "office_name_kana": null
  },
  "0136": {
    "postcode": "3790136",
    "prefecture": "群馬県",
    "prefecture_kana": "グンマケン",
    "prefecture_code": 10,
    "city": "安中市",
    "city_kana": "アンナカシ",
    "town": "嶺",
    "town_kana": "ミネ",
    "street": null,
    "office_name": null,
    "office_name_kana": null
  },
  "0192": {
    "postcode": "3790192",
    "prefecture": "群馬県",
    "prefecture_kana": "グンマケン",
    "prefecture_code": 10,
    "city": "安中市",
    "city_kana": "アンナカシ",
    "town": "安中",
    "town_kana": "アンナカ",
    "street": "１丁目２３−１３",
    "office_name": "安中市役所",
    "office_name_kana": "アンナカシヤクシヨ"
  },
  "0193": {
    "postcode": "3790193",
    "prefecture": "群馬県",
    "prefecture_kana": "グンマケン",
    "prefecture_code": 10,
    "city": "安中市",
    "city_kana": "アンナカシ",
    "town": "原市",
    "town_kana": "ハライチ",
    "street": "６６８−６",
    "office_name": "群馬県信用組合",
    "office_name_kana": "グンマケンシンヨウクミアイ"
  },
  "0195": {
    "postcode": "3790195",
    "prefecture": "群馬県",
    "prefecture_kana": "グンマケン",
    "prefecture_code": 10,
    "city": "安中市",
    "city_kana": "アンナカシ",
    "town": "磯部",
    "town_kana": "イソベ",
    "street": "２丁目１３−１",
    "office_name": "信越化学工業　株式会社　群馬事業所",
    "office_name_kana": "シンエツカガクコウギヨウ カブシキガイシヤ グンマジギヨウシヨ"
  },
  "0196": {
    "postcode": "3790196",
    "prefecture": "群馬県",
    "prefecture_kana": "グンマケン",
    "prefecture_code": 10,
    "city": "安中市",
    "city_kana": "アンナカシ",
    "town": "磯部",
    "town_kana": "イソベ",
    "street": "２丁目１３−１",
    "office_name": "信越半導体　株式会社　磯部工場",
    "office_name_kana": "シンエツハンドウタイ カブシキガイシヤ イソベコウジヨウ"
  },
  "0197": {
    "postcode": "3790197",
    "prefecture": "群馬県",
    "prefecture_kana": "グンマケン",
    "prefecture_code": 10,
    "city": "安中市",
    "city_kana": "アンナカシ",
    "town": "中宿",
    "town_kana": "ナカジュク",
    "street": "１４４３番地",
    "office_name": "東邦亜鉛　株式会社　安中製錬所",
    "office_name_kana": "トウホウアエン カブシキガイシヤ アンナカセイレンジヨ"
  },
  "0201": {
    "postcode": "3790201",
    "prefecture": "群馬県",
    "prefecture_kana": "グンマケン",
    "prefecture_code": 10,
    "city": "富岡市",
    "city_kana": "トミオカシ",
    "town": "妙義町妙義",
    "town_kana": "ミョウギマチミョウギ",
    "street": null,
    "office_name": null,
    "office_name_kana": null
  },
  "0202": {
    "postcode": "3790202",
    "prefecture": "群馬県",
    "prefecture_kana": "グンマケン",
    "prefecture_code": 10,
    "city": "富岡市",
    "city_kana": "トミオカシ",
    "town": "妙義町大牛",
    "town_kana": "ミョウギマチオオウシ",
    "street": null,
    "office_name": null,
    "office_name_kana": null
  },
  "0203": {
    "postcode": "3790203",
    "prefecture": "群馬県",
    "prefecture_kana": "グンマケン",
    "prefecture_code": 10,
    "city": "富岡市",
    "city_kana": "トミオカシ",
    "town": "妙義町岳",
    "town_kana": "ミョウギマチタケ",
    "street": null,
    "office_name": null,
    "office_name_kana": null
  },
  "0204": {
    "postcode": "3790204",
    "prefecture": "群馬県",
    "prefecture_kana": "グンマケン",
    "prefecture_code": 10,
    "city": "富岡市",
    "city_kana": "トミオカシ",
    "town": "妙義町行沢",
    "town_kana": "ミョウギマチナメザワ",
    "street": null,
    "office_name": null,
    "office_name_kana": null
  },
  "0205": {
    "postcode": "3790205",
    "prefecture": "群馬県",
    "prefecture_kana": "グンマケン",
    "prefecture_code": 10,
    "city": "富岡市",
    "city_kana": "トミオカシ",
    "town": "妙義町北山",
    "town_kana": "ミョウギマチキタヤマ",
    "street": null,
    "office_name": null,
    "office_name_kana": null
  },
  "0206": {
    "postcode": "3790206",
    "prefecture": "群馬県",
    "prefecture_kana": "グンマケン",
    "prefecture_code": 10,
    "city": "富岡市",
    "city_kana": "トミオカシ",
    "town": "妙義町中里",
    "town_kana": "ミョウギマチナカザト",
    "street": null,
    "office_name": null,
    "office_name_kana": null
  },
  "0207": {
    "postcode": "3790207",
    "prefecture": "群馬県",
    "prefecture_kana": "グンマケン",
    "prefecture_code": 10,
    "city": "富岡市",
    "city_kana": "トミオカシ",
    "town": "妙義町古立",
    "town_kana": "ミョウギマチフルタチ",
    "street": null,
    "office_name": null,
    "office_name_kana": null
  },
  "0208": {
    "postcode": "3790208",
    "prefecture": "群馬県",
    "prefecture_kana": "グンマケン",
    "prefecture_code": 10,
    "city": "富岡市",
    "city_kana": "トミオカシ",
    "town": "妙義町菅原",
    "town_kana": "ミョウギマチスガハラ",
    "street": null,
    "office_name": null,
    "office_name_kana": null
  },
  "0209": {
    "postcode": "3790209",
    "prefecture": "群馬県",
    "prefecture_kana": "グンマケン",
    "prefecture_code": 10,
    "city": "富岡市",
    "city_kana": "トミオカシ",
    "town": "妙義町諸戸",
    "town_kana": "ミョウギマチモロト",
    "street": null,
    "office_name": null,
    "office_name_kana": null
  },
  "0211": {
    "postcode": "3790211",
    "prefecture": "群馬県",
    "prefecture_kana": "グンマケン",
    "prefecture_code": 10,
    "city": "安中市",
    "city_kana": "アンナカシ",
    "town": "松井田町上増田",
    "town_kana": "マツイダマチカミマスダ",
    "street": null,
    "office_name": null,
    "office_name_kana": null
  },
  "0212": {
    "postcode": "3790212",
    "prefecture": "群馬県",
    "prefecture_kana": "グンマケン",
    "prefecture_code": 10,
    "city": "安中市",
    "city_kana": "アンナカシ",
    "town": "松井田町下増田",
    "town_kana": "マツイダマチシモマスダ",
    "street": null,
    "office_name": null,
    "office_name_kana": null
  },
  "0213": {
    "postcode": "3790213",
    "prefecture": "群馬県",
    "prefecture_kana": "グンマケン",
    "prefecture_code": 10,
    "city": "安中市",
    "city_kana": "アンナカシ",
    "town": "松井田町小日向",
    "town_kana": "マツイダマチオビナタ",
    "street": null,
    "office_name": null,
    "office_name_kana": null
  },
  "0214": {
    "postcode": "3790214",
    "prefecture": "群馬県",
    "prefecture_kana": "グンマケン",
    "prefecture_code": 10,
    "city": "安中市",
    "city_kana": "アンナカシ",
    "town": "松井田町国衙",
    "town_kana": "マツイダマチコクガ",
    "street": null,
    "office_name": null,
    "office_name_kana": null
  },
  "0215": {
    "postcode": "3790215",
    "prefecture": "群馬県",
    "prefecture_kana": "グンマケン",
    "prefecture_code": 10,
    "city": "安中市",
    "city_kana": "アンナカシ",
    "town": "松井田町高梨子",
    "town_kana": "マツイダマチタカナシ",
    "street": null,
    "office_name": null,
    "office_name_kana": null
  },
  "0216": {
    "postcode": "3790216",
    "prefecture": "群馬県",
    "prefecture_kana": "グンマケン",
    "prefecture_code": 10,
    "city": "安中市",
    "city_kana": "アンナカシ",
    "town": "松井田町新井",
    "town_kana": "マツイダマチアライ",
    "street": null,
    "office_name": null,
    "office_name_kana": null
  },
  "0217": {
    "postcode": "3790217",
    "prefecture": "群馬県",
    "prefecture_kana": "グンマケン",
    "prefecture_code": 10,
    "city": "安中市",
    "city_kana": "アンナカシ",
    "town": "松井田町土塩",
    "town_kana": "マツイダマチヒジシオ",
    "street": null,
    "office_name": null,
    "office_name_kana": null
  },
  "0221": {
    "postcode": "3790221",
    "prefecture": "群馬県",
    "prefecture_kana": "グンマケン",
    "prefecture_code": 10,
    "city": "安中市",
    "city_kana": "アンナカシ",
    "town": "松井田町新堀",
    "town_kana": "マツイダマチニイボリ",
    "street": null,
    "office_name": null,
    "office_name_kana": null
  },
  "0222": {
    "postcode": "3790222",
    "prefecture": "群馬県",
    "prefecture_kana": "グンマケン",
    "prefecture_code": 10,
    "city": "安中市",
    "city_kana": "アンナカシ",
    "town": "松井田町松井田",
    "town_kana": "マツイダマチマツイダ",
    "street": null,
    "office_name": null,
    "office_name_kana": null
  },
  "0223": {
    "postcode": "3790223",
    "prefecture": "群馬県",
    "prefecture_kana": "グンマケン",
    "prefecture_code": 10,
    "city": "安中市",
    "city_kana": "アンナカシ",
    "town": "松井田町二軒在家",
    "town_kana": "マツイダマチニケンザイケ",
    "street": null,
    "office_name": null,
    "office_name_kana": null
  },
  "0224": {
    "postcode": "3790224",
    "prefecture": "群馬県",
    "prefecture_kana": "グンマケン",
    "prefecture_code": 10,
    "city": "安中市",
    "city_kana": "アンナカシ",
    "town": "松井田町人見",
    "town_kana": "マツイダマチヒトミ",
    "street": null,
    "office_name": null,
    "office_name_kana": null
  },
  "0225": {
    "postcode": "3790225",
    "prefecture": "群馬県",
    "prefecture_kana": "グンマケン",
    "prefecture_code": 10,
    "city": "安中市",
    "city_kana": "アンナカシ",
    "town": "松井田町八城",
    "town_kana": "マツイダマチヤシロ",
    "street": null,
    "office_name": null,
    "office_name_kana": null
  },
  "0226": {
    "postcode": "3790226",
    "prefecture": "群馬県",
    "prefecture_kana": "グンマケン",
    "prefecture_code": 10,
    "city": "安中市",
    "city_kana": "アンナカシ",
    "town": "松井田町行田",
    "town_kana": "マツイダマチオクナダ",
    "street": null,
    "office_name": null,
    "office_name_kana": null
  },
  "0292": {
    "postcode": "3790292",
    "prefecture": "群馬県",
    "prefecture_kana": "グンマケン",
    "prefecture_code": 10,
    "city": "安中市",
    "city_kana": "アンナカシ",
    "town": "松井田町新堀",
    "town_kana": "マツイダマチニイボリ",
    "street": "２４５",
    "office_name": "安中市役所　松井田支所",
    "office_name_kana": "アンナカシヤクシヨ マツイダシシヨ"
  },
  "0301": {
    "postcode": "3790301",
    "prefecture": "群馬県",
    "prefecture_kana": "グンマケン",
    "prefecture_code": 10,
    "city": "安中市",
    "city_kana": "アンナカシ",
    "town": "松井田町横川",
    "town_kana": "マツイダマチヨコカワ",
    "street": null,
    "office_name": null,
    "office_name_kana": null
  },
  "0302": {
    "postcode": "3790302",
    "prefecture": "群馬県",
    "prefecture_kana": "グンマケン",
    "prefecture_code": 10,
    "city": "安中市",
    "city_kana": "アンナカシ",
    "town": "松井田町五料",
    "town_kana": "マツイダマチゴリョウ",
    "street": null,
    "office_name": null,
    "office_name_kana": null
  },
  "0303": {
    "postcode": "3790303",
    "prefecture": "群馬県",
    "prefecture_kana": "グンマケン",
    "prefecture_code": 10,
    "city": "安中市",
    "city_kana": "アンナカシ",
    "town": "松井田町西野牧",
    "town_kana": "マツイダマチニシノマキ",
    "street": null,
    "office_name": null,
    "office_name_kana": null
  },
  "0304": {
    "postcode": "3790304",
    "prefecture": "群馬県",
    "prefecture_kana": "グンマケン",
    "prefecture_code": 10,
    "city": "安中市",
    "city_kana": "アンナカシ",
    "town": "松井田町北野牧",
    "town_kana": "マツイダマチキタノマキ",
    "street": null,
    "office_name": null,
    "office_name_kana": null
  },
  "0305": {
    "postcode": "3790305",
    "prefecture": "群馬県",
    "prefecture_kana": "グンマケン",
    "prefecture_code": 10,
    "city": "安中市",
    "city_kana": "アンナカシ",
    "town": "松井田町入山",
    "town_kana": "マツイダマチイリヤマ",
    "street": null,
    "office_name": null,
    "office_name_kana": null
  },
  "0306": {
    "postcode": "3790306",
    "prefecture": "群馬県",
    "prefecture_kana": "グンマケン",
    "prefecture_code": 10,
    "city": "安中市",
    "city_kana": "アンナカシ",
    "town": "松井田町原",
    "town_kana": "マツイダマチハラ",
    "street": null,
    "office_name": null,
    "office_name_kana": null
  },
  "0307": {
    "postcode": "3790307",
    "prefecture": "群馬県",
    "prefecture_kana": "グンマケン",
    "prefecture_code": 10,
    "city": "安中市",
    "city_kana": "アンナカシ",
    "town": "松井田町坂本",
    "town_kana": "マツイダマチサカモト",
    "street": null,
    "office_name": null,
    "office_name_kana": null
  },
  "1101": {
    "postcode": "3791101",
    "prefecture": "群馬県",
    "prefecture_kana": "グンマケン",
    "prefecture_code": 10,
    "city": "渋川市",
    "city_kana": "シブカワシ",
    "town": "赤城町棚下",
    "town_kana": "アカギマチタナシタ",
    "street": null,
    "office_name": null,
    "office_name_kana": null
  },
  "1102": {
    "postcode": "3791102",
    "prefecture": "群馬県",
    "prefecture_kana": "グンマケン",
    "prefecture_code": 10,
    "city": "渋川市",
    "city_kana": "シブカワシ",
    "town": "赤城町長井小川田",
    "town_kana": "アカギマチナガイオガワダ",
    "street": null,
    "office_name": null,
    "office_name_kana": null
  },
  "1103": {
    "postcode": "3791103",
    "prefecture": "群馬県",
    "prefecture_kana": "グンマケン",
    "prefecture_code": 10,
    "city": "渋川市",
    "city_kana": "シブカワシ",
    "town": "赤城町津久田",
    "town_kana": "アカギマチツクダ",
    "street": null,
    "office_name": null,
    "office_name_kana": null
  },
  "1104": {
    "postcode": "3791104",
    "prefecture": "群馬県",
    "prefecture_kana": "グンマケン",
    "prefecture_code": 10,
    "city": "渋川市",
    "city_kana": "シブカワシ",
    "town": "赤城町敷島",
    "town_kana": "アカギマチシキシマ",
    "street": null,
    "office_name": null,
    "office_name_kana": null
  },
  "1105": {
    "postcode": "3791105",
    "prefecture": "群馬県",
    "prefecture_kana": "グンマケン",
    "prefecture_code": 10,
    "city": "渋川市",
    "city_kana": "シブカワシ",
    "town": "赤城町北上野",
    "town_kana": "アカギマチキタウエノ",
    "street": null,
    "office_name": null,
    "office_name_kana": null
  },
  "1111": {
    "postcode": "3791111",
    "prefecture": "群馬県",
    "prefecture_kana": "グンマケン",
    "prefecture_code": 10,
    "city": "渋川市",
    "city_kana": "シブカワシ",
    "town": "赤城町北赤城山",
    "town_kana": "アカギマチキタアカギサン",
    "street": null,
    "office_name": null,
    "office_name_kana": null
  },
  "1112": {
    "postcode": "3791112",
    "prefecture": "群馬県",
    "prefecture_kana": "グンマケン",
    "prefecture_code": 10,
    "city": "渋川市",
    "city_kana": "シブカワシ",
    "town": "赤城町深山",
    "town_kana": "アカギマチミヤマ",
    "street": null,
    "office_name": null,
    "office_name_kana": null
  },
  "1113": {
    "postcode": "3791113",
    "prefecture": "群馬県",
    "prefecture_kana": "グンマケン",
    "prefecture_code": 10,
    "city": "渋川市",
    "city_kana": "シブカワシ",
    "town": "赤城町南赤城山",
    "town_kana": "アカギマチミナミアカギサン",
    "street": null,
    "office_name": null,
    "office_name_kana": null
  },
  "1114": {
    "postcode": "3791114",
    "prefecture": "群馬県",
    "prefecture_kana": "グンマケン",
    "prefecture_code": 10,
    "city": "渋川市",
    "city_kana": "シブカワシ",
    "town": "赤城町栄",
    "town_kana": "アカギマチサカエ",
    "street": null,
    "office_name": null,
    "office_name_kana": null
  },
  "1115": {
    "postcode": "3791115",
    "prefecture": "群馬県",
    "prefecture_kana": "グンマケン",
    "prefecture_code": 10,
    "city": "渋川市",
    "city_kana": "シブカワシ",
    "town": "赤城町溝呂木",
    "town_kana": "アカギマチミゾロキ",
    "street": null,
    "office_name": null,
    "office_name_kana": null
  },
  "1116": {
    "postcode": "3791116",
    "prefecture": "群馬県",
    "prefecture_kana": "グンマケン",
    "prefecture_code": 10,
    "city": "渋川市",
    "city_kana": "シブカワシ",
    "town": "赤城町持柏木",
    "town_kana": "アカギマチモチカシワギ",
    "street": null,
    "office_name": null,
    "office_name_kana": null
  },
  "1121": {
    "postcode": "3791121",
    "prefecture": "群馬県",
    "prefecture_kana": "グンマケン",
    "prefecture_code": 10,
    "city": "渋川市",
    "city_kana": "シブカワシ",
    "town": "赤城町宮田",
    "town_kana": "アカギマチミヤダ",
    "street": null,
    "office_name": null,
    "office_name_kana": null
  },
  "1122": {
    "postcode": "3791122",
    "prefecture": "群馬県",
    "prefecture_kana": "グンマケン",
    "prefecture_code": 10,
    "city": "渋川市",
    "city_kana": "シブカワシ",
    "town": "赤城町勝保沢",
    "town_kana": "アカギマチカツホザワ",
    "street": null,
    "office_name": null,
    "office_name_kana": null
  },
  "1123": {
    "postcode": "3791123",
    "prefecture": "群馬県",
    "prefecture_kana": "グンマケン",
    "prefecture_code": 10,
    "city": "渋川市",
    "city_kana": "シブカワシ",
    "town": "赤城町見立",
    "town_kana": "アカギマチミタチ",
    "street": null,
    "office_name": null,
    "office_name_kana": null
  },
  "1124": {
    "postcode": "3791124",
    "prefecture": "群馬県",
    "prefecture_kana": "グンマケン",
    "prefecture_code": 10,
    "city": "渋川市",
    "city_kana": "シブカワシ",
    "town": "赤城町滝沢",
    "town_kana": "アカギマチタキザワ",
    "street": null,
    "office_name": null,
    "office_name_kana": null
  },
  "1125": {
    "postcode": "3791125",
    "prefecture": "群馬県",
    "prefecture_kana": "グンマケン",
    "prefecture_code": 10,
    "city": "渋川市",
    "city_kana": "シブカワシ",
    "town": "赤城町上三原田",
    "town_kana": "アカギマチカミミハラダ",
    "street": null,
    "office_name": null,
    "office_name_kana": null
  },
  "1126": {
    "postcode": "3791126",
    "prefecture": "群馬県",
    "prefecture_kana": "グンマケン",
    "prefecture_code": 10,
    "city": "渋川市",
    "city_kana": "シブカワシ",
    "town": "赤城町三原田",
    "town_kana": "アカギマチミハラダ",
    "street": null,
    "office_name": null,
    "office_name_kana": null
  },
  "1127": {
    "postcode": "3791127",
    "prefecture": "群馬県",
    "prefecture_kana": "グンマケン",
    "prefecture_code": 10,
    "city": "渋川市",
    "city_kana": "シブカワシ",
    "town": "赤城町樽",
    "town_kana": "アカギマチタル",
    "street": null,
    "office_name": null,
    "office_name_kana": null
  },
  "1192": {
    "postcode": "3791192",
    "prefecture": "群馬県",
    "prefecture_kana": "グンマケン",
    "prefecture_code": 10,
    "city": "渋川市",
    "city_kana": "シブカワシ",
    "town": "赤城町敷島",
    "town_kana": "アカギマチシキシマ",
    "street": "５６８−１",
    "office_name": "赤城総合支所",
    "office_name_kana": "アカギソウゴウシシヨ"
  },
  "1200": {
    "postcode": "3791200",
    "prefecture": "群馬県",
    "prefecture_kana": "グンマケン",
    "prefecture_code": 10,
    "city": "利根郡昭和村",
    "city_kana": "トネグンショウワムラ",
    "town": "",
    "town_kana": "",
    "street": null,
    "office_name": null,
    "office_name_kana": null
  },
  "1201": {
    "postcode": "3791201",
    "prefecture": "群馬県",
    "prefecture_kana": "グンマケン",
    "prefecture_code": 10,
    "city": "利根郡昭和村",
    "city_kana": "トネグンショウワムラ",
    "town": "生越",
    "town_kana": "オゴセ",
    "street": null,
    "office_name": null,
    "office_name_kana": null
  },
  "1202": {
    "postcode": "3791202",
    "prefecture": "群馬県",
    "prefecture_kana": "グンマケン",
    "prefecture_code": 10,
    "city": "利根郡昭和村",
    "city_kana": "トネグンショウワムラ",
    "town": "貝野瀬",
    "town_kana": "カイノセ",
    "street": null,
    "office_name": null,
    "office_name_kana": null
  },
  "1203": {
    "postcode": "3791203",
    "prefecture": "群馬県",
    "prefecture_kana": "グンマケン",
    "prefecture_code": 10,
    "city": "利根郡昭和村",
    "city_kana": "トネグンショウワムラ",
    "town": "糸井",
    "town_kana": "イトイ",
    "street": null,
    "office_name": null,
    "office_name_kana": null
  },
  "1204": {
    "postcode": "3791204",
    "prefecture": "群馬県",
    "prefecture_kana": "グンマケン",
    "prefecture_code": 10,
    "city": "利根郡昭和村",
    "city_kana": "トネグンショウワムラ",
    "town": "森下",
    "town_kana": "モリシタ",
    "street": null,
    "office_name": null,
    "office_name_kana": null
  },
  "1205": {
    "postcode": "3791205",
    "prefecture": "群馬県",
    "prefecture_kana": "グンマケン",
    "prefecture_code": 10,
    "city": "利根郡昭和村",
    "city_kana": "トネグンショウワムラ",
    "town": "川額",
    "town_kana": "カワハケ",
    "street": null,
    "office_name": null,
    "office_name_kana": null
  },
  "1206": {
    "postcode": "3791206",
    "prefecture": "群馬県",
    "prefecture_kana": "グンマケン",
    "prefecture_code": 10,
    "city": "利根郡昭和村",
    "city_kana": "トネグンショウワムラ",
    "town": "橡久保",
    "town_kana": "トチクボ",
    "street": null,
    "office_name": null,
    "office_name_kana": null
  },
  "1207": {
    "postcode": "3791207",
    "prefecture": "群馬県",
    "prefecture_kana": "グンマケン",
    "prefecture_code": 10,
    "city": "利根郡昭和村",
    "city_kana": "トネグンショウワムラ",
    "town": "赤城原",
    "town_kana": "アカギハラ",
    "street": null,
    "office_name": null,
    "office_name_kana": null
  },
  "1297": {
    "postcode": "3791297",
    "prefecture": "群馬県",
    "prefecture_kana": "グンマケン",
    "prefecture_code": 10,
    "city": "利根郡昭和村",
    "city_kana": "トネグンショウワムラ",
    "town": "大字森下",
    "town_kana": null,
    "street": "２１６７番地",
    "office_name": "キャノン電子　株式会社　赤城事業所",
    "office_name_kana": "キヤノンデンシ カブシキガイシヤ アカギジギヨウシヨ"
  },
  "1298": {
    "postcode": "3791298",
    "prefecture": "群馬県",
    "prefecture_kana": "グンマケン",
    "prefecture_code": 10,
    "city": "利根郡昭和村",
    "city_kana": "トネグンショウワムラ",
    "town": "大字糸井",
    "town_kana": null,
    "street": "３８８",
    "office_name": "昭和村役場",
    "office_name_kana": "シヨウワムラヤクバ"
  },
  "1300": {
    "postcode": "3791300",
    "prefecture": "群馬県",
    "prefecture_kana": "グンマケン",
    "prefecture_code": 10,
    "city": "利根郡みなかみ町",
    "city_kana": "トネグンミナカミマチ",
    "town": "",
    "town_kana": "",
    "street": null,
    "office_name": null,
    "office_name_kana": null
  },
  "1301": {
    "postcode": "3791301",
    "prefecture": "群馬県",
    "prefecture_kana": "グンマケン",
    "prefecture_code": 10,
    "city": "利根郡みなかみ町",
    "city_kana": "トネグンミナカミマチ",
    "town": "奈女沢",
    "town_kana": "ナメザワ",
    "street": null,
    "office_name": null,
    "office_name_kana": null
  },
  "1302": {
    "postcode": "3791302",
    "prefecture": "群馬県",
    "prefecture_kana": "グンマケン",
    "prefecture_code": 10,
    "city": "利根郡みなかみ町",
    "city_kana": "トネグンミナカミマチ",
    "town": "大沼",
    "town_kana": "オオヌマ",
    "street": null,
    "office_name": null,
    "office_name_kana": null
  },
  "1303": {
    "postcode": "3791303",
    "prefecture": "群馬県",
    "prefecture_kana": "グンマケン",
    "prefecture_code": 10,
    "city": "利根郡みなかみ町",
    "city_kana": "トネグンミナカミマチ",
    "town": "上牧",
    "town_kana": "カミモク",
    "street": null,
    "office_name": null,
    "office_name_kana": null
  },
  "1304": {
    "postcode": "3791304",
    "prefecture": "群馬県",
    "prefecture_kana": "グンマケン",
    "prefecture_code": 10,
    "city": "利根郡みなかみ町",
    "city_kana": "トネグンミナカミマチ",
    "town": "下牧",
    "town_kana": "シモモク",
    "street": null,
    "office_name": null,
    "office_name_kana": null
  },
  "1305": {
    "postcode": "3791305",
    "prefecture": "群馬県",
    "prefecture_kana": "グンマケン",
    "prefecture_code": 10,
    "city": "利根郡みなかみ町",
    "city_kana": "トネグンミナカミマチ",
    "town": "後閑",
    "town_kana": "ゴカン",
    "street": null,
    "office_name": null,
    "office_name_kana": null
  },
  "1306": {
    "postcode": "3791306",
    "prefecture": "群馬県",
    "prefecture_kana": "グンマケン",
    "prefecture_code": 10,
    "city": "利根郡みなかみ町",
    "city_kana": "トネグンミナカミマチ",
    "town": "師",
    "town_kana": "モロ",
    "street": null,
    "office_name": null,
    "office_name_kana": null
  },
  "1307": {
    "postcode": "3791307",
    "prefecture": "群馬県",
    "prefecture_kana": "グンマケン",
    "prefecture_code": 10,
    "city": "利根郡みなかみ町",
    "city_kana": "トネグンミナカミマチ",
    "town": "政所",
    "town_kana": "マンドコロ",
    "street": null,
    "office_name": null,
    "office_name_kana": null
  },
  "1308": {
    "postcode": "3791308",
    "prefecture": "群馬県",
    "prefecture_kana": "グンマケン",
    "prefecture_code": 10,
    "city": "利根郡みなかみ町",
    "city_kana": "トネグンミナカミマチ",
    "town": "真庭",
    "town_kana": "マニワ",
    "street": null,
    "office_name": null,
    "office_name_kana": null
  },
  "1311": {
    "postcode": "3791311",
    "prefecture": "群馬県",
    "prefecture_kana": "グンマケン",
    "prefecture_code": 10,
    "city": "利根郡みなかみ町",
    "city_kana": "トネグンミナカミマチ",
    "town": "石倉",
    "town_kana": "イシクラ",
    "street": null,
    "office_name": null,
    "office_name_kana": null
  },
  "1312": {
    "postcode": "3791312",
    "prefecture": "群馬県",
    "prefecture_kana": "グンマケン",
    "prefecture_code": 10,
    "city": "利根郡みなかみ町",
    "city_kana": "トネグンミナカミマチ",
    "town": "小川",
    "town_kana": "オガワ",
    "street": null,
    "office_name": null,
    "office_name_kana": null
  },
  "1313": {
    "postcode": "3791313",
    "prefecture": "群馬県",
    "prefecture_kana": "グンマケン",
    "prefecture_code": 10,
    "city": "利根郡みなかみ町",
    "city_kana": "トネグンミナカミマチ",
    "town": "月夜野",
    "town_kana": "ツキヨノ",
    "street": null,
    "office_name": null,
    "office_name_kana": null
  },
  "1314": {
    "postcode": "3791314",
    "prefecture": "群馬県",
    "prefecture_kana": "グンマケン",
    "prefecture_code": 10,
    "city": "利根郡みなかみ町",
    "city_kana": "トネグンミナカミマチ",
    "town": "下津",
    "town_kana": "シモヅ",
    "street": null,
    "office_name": null,
    "office_name_kana": null
  },
  "1315": {
    "postcode": "3791315",
    "prefecture": "群馬県",
    "prefecture_kana": "グンマケン",
    "prefecture_code": 10,
    "city": "利根郡みなかみ町",
    "city_kana": "トネグンミナカミマチ",
    "town": "上津",
    "town_kana": "カミヅ",
    "street": null,
    "office_name": null,
    "office_name_kana": null
  },
  "1393": {
    "postcode": "3791393",
    "prefecture": "群馬県",
    "prefecture_kana": "グンマケン",
    "prefecture_code": 10,
    "city": "利根郡みなかみ町",
    "city_kana": "トネグンミナカミマチ",
    "town": "後閑",
    "town_kana": "ゴカン",
    "street": "３１８",
    "office_name": "みなかみ町役場",
    "office_name_kana": "ミナカミマチヤクバ"
  },
  "1401": {
    "postcode": "3791401",
    "prefecture": "群馬県",
    "prefecture_kana": "グンマケン",
    "prefecture_code": 10,
    "city": "利根郡みなかみ町",
    "city_kana": "トネグンミナカミマチ",
    "town": "永井",
    "town_kana": "ナガイ",
    "street": null,
    "office_name": null,
    "office_name_kana": null
  },
  "1402": {
    "postcode": "3791402",
    "prefecture": "群馬県",
    "prefecture_kana": "グンマケン",
    "prefecture_code": 10,
    "city": "利根郡みなかみ町",
    "city_kana": "トネグンミナカミマチ",
    "town": "吹路",
    "town_kana": "フクロ",
    "street": null,
    "office_name": null,
    "office_name_kana": null
  },
  "1403": {
    "postcode": "3791403",
    "prefecture": "群馬県",
    "prefecture_kana": "グンマケン",
    "prefecture_code": 10,
    "city": "利根郡みなかみ町",
    "city_kana": "トネグンミナカミマチ",
    "town": "猿ヶ京温泉",
    "town_kana": "サルガキョウオンセン",
    "street": null,
    "office_name": null,
    "office_name_kana": null
  },
  "1404": {
    "postcode": "3791404",
    "prefecture": "群馬県",
    "prefecture_kana": "グンマケン",
    "prefecture_code": 10,
    "city": "利根郡みなかみ町",
    "city_kana": "トネグンミナカミマチ",
    "town": "相俣",
    "town_kana": "アイマタ",
    "street": null,
    "office_name": null,
    "office_name_kana": null
  },
  "1409": {
    "postcode": "3791409",
    "prefecture": "群馬県",
    "prefecture_kana": "グンマケン",
    "prefecture_code": 10,
    "city": "利根郡みなかみ町",
    "city_kana": "トネグンミナカミマチ",
    "town": "湯宿温泉",
    "town_kana": "ユジュクオンセン",
    "street": null,
    "office_name": null,
    "office_name_kana": null
  },
  "1411": {
    "postcode": "3791411",
    "prefecture": "群馬県",
    "prefecture_kana": "グンマケン",
    "prefecture_code": 10,
    "city": "利根郡みなかみ町",
    "city_kana": "トネグンミナカミマチ",
    "town": "新巻",
    "town_kana": "アラマキ",
    "street": null,
    "office_name": null,
    "office_name_kana": null
  },
  "1412": {
    "postcode": "3791412",
    "prefecture": "群馬県",
    "prefecture_kana": "グンマケン",
    "prefecture_code": 10,
    "city": "利根郡みなかみ町",
    "city_kana": "トネグンミナカミマチ",
    "town": "羽場",
    "town_kana": "ハバ",
    "street": null,
    "office_name": null,
    "office_name_kana": null
  },
  "1413": {
    "postcode": "3791413",
    "prefecture": "群馬県",
    "prefecture_kana": "グンマケン",
    "prefecture_code": 10,
    "city": "利根郡みなかみ町",
    "city_kana": "トネグンミナカミマチ",
    "town": "師田",
    "town_kana": "モロダ",
    "street": null,
    "office_name": null,
    "office_name_kana": null
  },
  "1414": {
    "postcode": "3791414",
    "prefecture": "群馬県",
    "prefecture_kana": "グンマケン",
    "prefecture_code": 10,
    "city": "利根郡みなかみ町",
    "city_kana": "トネグンミナカミマチ",
    "town": "布施",
    "town_kana": "フセ",
    "street": null,
    "office_name": null,
    "office_name_kana": null
  },
  "1415": {
    "postcode": "3791415",
    "prefecture": "群馬県",
    "prefecture_kana": "グンマケン",
    "prefecture_code": 10,
    "city": "利根郡みなかみ町",
    "city_kana": "トネグンミナカミマチ",
    "town": "西峰須川",
    "town_kana": "ニシミネスカワ",
    "street": null,
    "office_name": null,
    "office_name_kana": null
  },
  "1416": {
    "postcode": "3791416",
    "prefecture": "群馬県",
    "prefecture_kana": "グンマケン",
    "prefecture_code": 10,
    "city": "利根郡みなかみ町",
    "city_kana": "トネグンミナカミマチ",
    "town": "入須川",
    "town_kana": "イリスカワ",
    "street": null,
    "office_name": null,
    "office_name_kana": null
  },
  "1417": {
    "postcode": "3791417",
    "prefecture": "群馬県",
    "prefecture_kana": "グンマケン",
    "prefecture_code": 10,
    "city": "利根郡みなかみ町",
    "city_kana": "トネグンミナカミマチ",
    "town": "東峰",
    "town_kana": "ヒガシミネ",
    "street": null,
    "office_name": null,
    "office_name_kana": null
  },
  "1418": {
    "postcode": "3791418",
    "prefecture": "群馬県",
    "prefecture_kana": "グンマケン",
    "prefecture_code": 10,
    "city": "利根郡みなかみ町",
    "city_kana": "トネグンミナカミマチ",
    "town": "須川",
    "town_kana": "スカワ",
    "street": null,
    "office_name": null,
    "office_name_kana": null
  },
  "1498": {
    "postcode": "3791498",
    "prefecture": "群馬県",
    "prefecture_kana": "グンマケン",
    "prefecture_code": 10,
    "city": "利根郡みなかみ町",
    "city_kana": "トネグンミナカミマチ",
    "town": "布施",
    "town_kana": "フセ",
    "street": "３６５",
    "office_name": "みなかみ町役場　新治支所",
    "office_name_kana": "ミナカミマチヤクバ ニイハルシシヨ"
  },
  "1601": {
    "postcode": "3791601",
    "prefecture": "群馬県",
    "prefecture_kana": "グンマケン",
    "prefecture_code": 10,
    "city": "利根郡みなかみ町",
    "city_kana": "トネグンミナカミマチ",
    "town": "吉本",
    "town_kana": "ヨシモト",
    "street": null,
    "office_name": null,
    "office_name_kana": null
  },
  "1611": {
    "postcode": "3791611",
    "prefecture": "群馬県",
    "prefecture_kana": "グンマケン",
    "prefecture_code": 10,
    "city": "利根郡みなかみ町",
    "city_kana": "トネグンミナカミマチ",
    "town": "鹿野沢",
    "town_kana": "カノサワ",
    "street": null,
    "office_name": null,
    "office_name_kana": null
  },
  "1612": {
    "postcode": "3791612",
    "prefecture": "群馬県",
    "prefecture_kana": "グンマケン",
    "prefecture_code": 10,
    "city": "利根郡みなかみ町",
    "city_kana": "トネグンミナカミマチ",
    "town": "小日向",
    "town_kana": "オビナタ",
    "street": null,
    "office_name": null,
    "office_name_kana": null
  },
  "1613": {
    "postcode": "3791613",
    "prefecture": "群馬県",
    "prefecture_kana": "グンマケン",
    "prefecture_code": 10,
    "city": "利根郡みなかみ町",
    "city_kana": "トネグンミナカミマチ",
    "town": "高日向",
    "town_kana": "タカヒナタ",
    "street": null,
    "office_name": null,
    "office_name_kana": null
  },
  "1614": {
    "postcode": "3791614",
    "prefecture": "群馬県",
    "prefecture_kana": "グンマケン",
    "prefecture_code": 10,
    "city": "利根郡みなかみ町",
    "city_kana": "トネグンミナカミマチ",
    "town": "寺間",
    "town_kana": "テラマ",
    "street": null,
    "office_name": null,
    "office_name_kana": null
  },
  "1615": {
    "postcode": "3791615",
    "prefecture": "群馬県",
    "prefecture_kana": "グンマケン",
    "prefecture_code": 10,
    "city": "利根郡みなかみ町",
    "city_kana": "トネグンミナカミマチ",
    "town": "小仁田",
    "town_kana": "コニタ",
    "street": null,
    "office_name": null,
    "office_name_kana": null
  },
  "1616": {
    "postcode": "3791616",
    "prefecture": "群馬県",
    "prefecture_kana": "グンマケン",
    "prefecture_code": 10,
    "city": "利根郡みなかみ町",
    "city_kana": "トネグンミナカミマチ",
    "town": "川上",
    "town_kana": "カワカミ",
    "street": null,
    "office_name": null,
    "office_name_kana": null
  },
  "1617": {
    "postcode": "3791617",
    "prefecture": "群馬県",
    "prefecture_kana": "グンマケン",
    "prefecture_code": 10,
    "city": "利根郡みなかみ町",
    "city_kana": "トネグンミナカミマチ",
    "town": "湯原",
    "town_kana": "ユバラ",
    "street": null,
    "office_name": null,
    "office_name_kana": null
  },
  "1618": {
    "postcode": "3791618",
    "prefecture": "群馬県",
    "prefecture_kana": "グンマケン",
    "prefecture_code": 10,
    "city": "利根郡みなかみ町",
    "city_kana": "トネグンミナカミマチ",
    "town": "阿能川",
    "town_kana": "アノウガワ",
    "street": null,
    "office_name": null,
    "office_name_kana": null
  },
  "1619": {
    "postcode": "3791619",
    "prefecture": "群馬県",
    "prefecture_kana": "グンマケン",
    "prefecture_code": 10,
    "city": "利根郡みなかみ町",
    "city_kana": "トネグンミナカミマチ",
    "town": "谷川",
    "town_kana": "タニガワ",
    "street": null,
    "office_name": null,
    "office_name_kana": null
  },
  "1692": {
    "postcode": "3791692",
    "prefecture": "群馬県",
    "prefecture_kana": "グンマケン",
    "prefecture_code": 10,
    "city": "利根郡みなかみ町",
    "city_kana": "トネグンミナカミマチ",
    "town": "湯原",
    "town_kana": "ユバラ",
    "street": "６４",
    "office_name": "みなかみ町役場　水上支所",
    "office_name_kana": "ミナカミマチヤクバ ミナカミシシヨ"
  },
  "1721": {
    "postcode": "3791721",
    "prefecture": "群馬県",
    "prefecture_kana": "グンマケン",
    "prefecture_code": 10,
    "city": "利根郡みなかみ町",
    "city_kana": "トネグンミナカミマチ",
    "town": "藤原",
    "town_kana": "フジワラ",
    "street": null,
    "office_name": null,
    "office_name_kana": null
  },
  "1722": {
    "postcode": "3791722",
    "prefecture": "群馬県",
    "prefecture_kana": "グンマケン",
    "prefecture_code": 10,
    "city": "利根郡みなかみ町",
    "city_kana": "トネグンミナカミマチ",
    "town": "夜後",
    "town_kana": "ヨゴ",
    "street": null,
    "office_name": null,
    "office_name_kana": null
  },
  "1723": {
    "postcode": "3791723",
    "prefecture": "群馬県",
    "prefecture_kana": "グンマケン",
    "prefecture_code": 10,
    "city": "利根郡みなかみ町",
    "city_kana": "トネグンミナカミマチ",
    "town": "粟沢",
    "town_kana": "アワザワ",
    "street": null,
    "office_name": null,
    "office_name_kana": null
  },
  "1724": {
    "postcode": "3791724",
    "prefecture": "群馬県",
    "prefecture_kana": "グンマケン",
    "prefecture_code": 10,
    "city": "利根郡みなかみ町",
    "city_kana": "トネグンミナカミマチ",
    "town": "向山",
    "town_kana": "ムコウヤマ",
    "street": null,
    "office_name": null,
    "office_name_kana": null
  },
  "1725": {
    "postcode": "3791725",
    "prefecture": "群馬県",
    "prefecture_kana": "グンマケン",
    "prefecture_code": 10,
    "city": "利根郡みなかみ町",
    "city_kana": "トネグンミナカミマチ",
    "town": "綱子",
    "town_kana": "ツナゴ",
    "street": null,
    "office_name": null,
    "office_name_kana": null
  },
  "1726": {
    "postcode": "3791726",
    "prefecture": "群馬県",
    "prefecture_kana": "グンマケン",
    "prefecture_code": 10,
    "city": "利根郡みなかみ町",
    "city_kana": "トネグンミナカミマチ",
    "town": "幸知",
    "town_kana": "コウチ",
    "street": null,
    "office_name": null,
    "office_name_kana": null
  },
  "1727": {
    "postcode": "3791727",
    "prefecture": "群馬県",
    "prefecture_kana": "グンマケン",
    "prefecture_code": 10,
    "city": "利根郡みなかみ町",
    "city_kana": "トネグンミナカミマチ",
    "town": "大穴",
    "town_kana": "オオアナ",
    "street": null,
    "office_name": null,
    "office_name_kana": null
  },
  "1728": {
    "postcode": "3791728",
    "prefecture": "群馬県",
    "prefecture_kana": "グンマケン",
    "prefecture_code": 10,
    "city": "利根郡みなかみ町",
    "city_kana": "トネグンミナカミマチ",
    "town": "湯桧曽",
    "town_kana": "ユビソ",
    "street": null,
    "office_name": null,
    "office_name_kana": null
  },
  "2101": {
    "postcode": "3792101",
    "prefecture": "群馬県",
    "prefecture_kana": "グンマケン",
    "prefecture_code": 10,
    "city": "前橋市",
    "city_kana": "マエバシシ",
    "town": "泉沢町",
    "town_kana": "イズミサワマチ",
    "street": null,
    "office_name": null,
    "office_name_kana": null
  },
  "2102": {
    "postcode": "3792102",
    "prefecture": "群馬県",
    "prefecture_kana": "グンマケン",
    "prefecture_code": 10,
    "city": "前橋市",
    "city_kana": "マエバシシ",
    "town": "下大屋町",
    "town_kana": "シモオオヤマチ",
    "street": null,
    "office_name": null,
    "office_name_kana": null
  },
  "2103": {
    "postcode": "3792103",
    "prefecture": "群馬県",
    "prefecture_kana": "グンマケン",
    "prefecture_code": 10,
    "city": "前橋市",
    "city_kana": "マエバシシ",
    "town": "神沢の森",
    "town_kana": "カンザワノモリ",
    "street": null,
    "office_name": null,
    "office_name_kana": null
  },
  "2104": {
    "postcode": "3792104",
    "prefecture": "群馬県",
    "prefecture_kana": "グンマケン",
    "prefecture_code": 10,
    "city": "前橋市",
    "city_kana": "マエバシシ",
    "town": "西大室町",
    "town_kana": "ニシオオムロマチ",
    "street": null,
    "office_name": null,
    "office_name_kana": null
  },
  "2105": {
    "postcode": "3792105",
    "prefecture": "群馬県",
    "prefecture_kana": "グンマケン",
    "prefecture_code": 10,
    "city": "前橋市",
    "city_kana": "マエバシシ",
    "town": "東大室町",
    "town_kana": "ヒガシオオムロマチ",
    "street": null,
    "office_name": null,
    "office_name_kana": null
  },
  "2106": {
    "postcode": "3792106",
    "prefecture": "群馬県",
    "prefecture_kana": "グンマケン",
    "prefecture_code": 10,
    "city": "前橋市",
    "city_kana": "マエバシシ",
    "town": "荒子町",
    "town_kana": "アラコマチ",
    "street": null,
    "office_name": null,
    "office_name_kana": null
  },
  "2107": {
    "postcode": "3792107",
    "prefecture": "群馬県",
    "prefecture_kana": "グンマケン",
    "prefecture_code": 10,
    "city": "前橋市",
    "city_kana": "マエバシシ",
    "town": "荒口町",
    "town_kana": "アラクチマチ",
    "street": null,
    "office_name": null,
    "office_name_kana": null
  },
  "2108": {
    "postcode": "3792108",
    "prefecture": "群馬県",
    "prefecture_kana": "グンマケン",
    "prefecture_code": 10,
    "city": "前橋市",
    "city_kana": "マエバシシ",
    "town": "鶴が谷町",
    "town_kana": "ツルガヤマチ",
    "street": null,
    "office_name": null,
    "office_name_kana": null
  },
  "2111": {
    "postcode": "3792111",
    "prefecture": "群馬県",
    "prefecture_kana": "グンマケン",
    "prefecture_code": 10,
    "city": "前橋市",
    "city_kana": "マエバシシ",
    "town": "飯土井町",
    "town_kana": "イイドイマチ",
    "street": null,
    "office_name": null,
    "office_name_kana": null
  },
  "2112": {
    "postcode": "3792112",
    "prefecture": "群馬県",
    "prefecture_kana": "グンマケン",
    "prefecture_code": 10,
    "city": "前橋市",
    "city_kana": "マエバシシ",
    "town": "新井町",
    "town_kana": "アライマチ",
    "street": null,
    "office_name": null,
    "office_name_kana": null
  },
  "2113": {
    "postcode": "3792113",
    "prefecture": "群馬県",
    "prefecture_kana": "グンマケン",
    "prefecture_code": 10,
    "city": "前橋市",
    "city_kana": "マエバシシ",
    "town": "下増田町",
    "town_kana": "シモマスダマチ",
    "street": null,
    "office_name": null,
    "office_name_kana": null
  },
  "2114": {
    "postcode": "3792114",
    "prefecture": "群馬県",
    "prefecture_kana": "グンマケン",
    "prefecture_code": 10,
    "city": "前橋市",
    "city_kana": "マエバシシ",
    "town": "上増田町",
    "town_kana": "カミマスダマチ",
    "street": null,
    "office_name": null,
    "office_name_kana": null
  },
  "2115": {
    "postcode": "3792115",
    "prefecture": "群馬県",
    "prefecture_kana": "グンマケン",
    "prefecture_code": 10,
    "city": "前橋市",
    "city_kana": "マエバシシ",
    "town": "笂井町",
    "town_kana": "ウツボイマチ",
    "street": null,
    "office_name": null,
    "office_name_kana": null
  },
  "2116": {
    "postcode": "3792116",
    "prefecture": "群馬県",
    "prefecture_kana": "グンマケン",
    "prefecture_code": 10,
    "city": "前橋市",
    "city_kana": "マエバシシ",
    "town": "今井町",
    "town_kana": "イマイマチ",
    "street": null,
    "office_name": null,
    "office_name_kana": null
  },
  "2117": {
    "postcode": "3792117",
    "prefecture": "群馬県",
    "prefecture_kana": "グンマケン",
    "prefecture_code": 10,
    "city": "前橋市",
    "city_kana": "マエバシシ",
    "town": "二之宮町",
    "town_kana": "ニノミヤマチ",
    "street": null,
    "office_name": null,
    "office_name_kana": null
  },
  "2121": {
    "postcode": "3792121",
    "prefecture": "群馬県",
    "prefecture_kana": "グンマケン",
    "prefecture_code": 10,
    "city": "前橋市",
    "city_kana": "マエバシシ",
    "town": "小屋原町",
    "town_kana": "コヤハラマチ",
    "street": null,
    "office_name": null,
    "office_name_kana": null
  },
  "2122": {
    "postcode": "3792122",
    "prefecture": "群馬県",
    "prefecture_kana": "グンマケン",
    "prefecture_code": 10,
    "city": "前橋市",
    "city_kana": "マエバシシ",
    "town": "駒形町",
    "town_kana": "コマガタマチ",
    "street": null,
    "office_name": null,
    "office_name_kana": null
  },
  "2123": {
    "postcode": "3792123",
    "prefecture": "群馬県",
    "prefecture_kana": "グンマケン",
    "prefecture_code": 10,
    "city": "前橋市",
    "city_kana": "マエバシシ",
    "town": "山王町",
    "town_kana": "サンノウマチ",
    "street": null,
    "office_name": null,
    "office_name_kana": null
  },
  "2131": {
    "postcode": "3792131",
    "prefecture": "群馬県",
    "prefecture_kana": "グンマケン",
    "prefecture_code": 10,
    "city": "前橋市",
    "city_kana": "マエバシシ",
    "town": "西善町",
    "town_kana": "ニシゼンマチ",
    "street": null,
    "office_name": null,
    "office_name_kana": null
  },
  "2132": {
    "postcode": "3792132",
    "prefecture": "群馬県",
    "prefecture_kana": "グンマケン",
    "prefecture_code": 10,
    "city": "前橋市",
    "city_kana": "マエバシシ",
    "town": "東善町",
    "town_kana": "ヒガシゼンマチ",
    "street": null,
    "office_name": null,
    "office_name_kana": null
  },
  "2133": {
    "postcode": "3792133",
    "prefecture": "群馬県",
    "prefecture_kana": "グンマケン",
    "prefecture_code": 10,
    "city": "前橋市",
    "city_kana": "マエバシシ",
    "town": "中内町",
    "town_kana": "ナカウチマチ",
    "street": null,
    "office_name": null,
    "office_name_kana": null
  },
  "2134": {
    "postcode": "3792134",
    "prefecture": "群馬県",
    "prefecture_kana": "グンマケン",
    "prefecture_code": 10,
    "city": "前橋市",
    "city_kana": "マエバシシ",
    "town": "力丸町",
    "town_kana": "リキマルマチ",
    "street": null,
    "office_name": null,
    "office_name_kana": null
  },
  "2135": {
    "postcode": "3792135",
    "prefecture": "群馬県",
    "prefecture_kana": "グンマケン",
    "prefecture_code": 10,
    "city": "前橋市",
    "city_kana": "マエバシシ",
    "town": "徳丸町",
    "town_kana": "トクマルマチ",
    "street": null,
    "office_name": null,
    "office_name_kana": null
  },
  "2136": {
    "postcode": "3792136",
    "prefecture": "群馬県",
    "prefecture_kana": "グンマケン",
    "prefecture_code": 10,
    "city": "前橋市",
    "city_kana": "マエバシシ",
    "town": "房丸町",
    "town_kana": "ボウマルマチ",
    "street": null,
    "office_name": null,
    "office_name_kana": null
  },
  "2141": {
    "postcode": "3792141",
    "prefecture": "群馬県",
    "prefecture_kana": "グンマケン",
    "prefecture_code": 10,
    "city": "前橋市",
    "city_kana": "マエバシシ",
    "town": "鶴光路町",
    "town_kana": "ツルコウジマチ",
    "street": null,
    "office_name": null,
    "office_name_kana": null
  },
  "2142": {
    "postcode": "3792142",
    "prefecture": "群馬県",
    "prefecture_kana": "グンマケン",
    "prefecture_code": 10,
    "city": "前橋市",
    "city_kana": "マエバシシ",
    "town": "下阿内町",
    "town_kana": "シモアウチマチ",
    "street": null,
    "office_name": null,
    "office_name_kana": null
  },
  "2143": {
    "postcode": "3792143",
    "prefecture": "群馬県",
    "prefecture_kana": "グンマケン",
    "prefecture_code": 10,
    "city": "前橋市",
    "city_kana": "マエバシシ",
    "town": "新堀町",
    "town_kana": "ニイボリマチ",
    "street": null,
    "office_name": null,
    "office_name_kana": null
  },
  "2144": {
    "postcode": "3792144",
    "prefecture": "群馬県",
    "prefecture_kana": "グンマケン",
    "prefecture_code": 10,
    "city": "前橋市",
    "city_kana": "マエバシシ",
    "town": "下川町",
    "town_kana": "シモカワマチ",
    "street": null,
    "office_name": null,
    "office_name_kana": null
  },
  "2145": {
    "postcode": "3792145",
    "prefecture": "群馬県",
    "prefecture_kana": "グンマケン",
    "prefecture_code": 10,
    "city": "前橋市",
    "city_kana": "マエバシシ",
    "town": "横手町",
    "town_kana": "ヨコテマチ",
    "street": null,
    "office_name": null,
    "office_name_kana": null
  },
  "2146": {
    "postcode": "3792146",
    "prefecture": "群馬県",
    "prefecture_kana": "グンマケン",
    "prefecture_code": 10,
    "city": "前橋市",
    "city_kana": "マエバシシ",
    "town": "公田町",
    "town_kana": "クデンマチ",
    "street": null,
    "office_name": null,
    "office_name_kana": null
  },
  "2147": {
    "postcode": "3792147",
    "prefecture": "群馬県",
    "prefecture_kana": "グンマケン",
    "prefecture_code": 10,
    "city": "前橋市",
    "city_kana": "マエバシシ",
    "town": "亀里町",
    "town_kana": "カメサトマチ",
    "street": null,
    "office_name": null,
    "office_name_kana": null
  },
  "2151": {
    "postcode": "3792151",
    "prefecture": "群馬県",
    "prefecture_kana": "グンマケン",
    "prefecture_code": 10,
    "city": "前橋市",
    "city_kana": "マエバシシ",
    "town": "下長磯町",
    "town_kana": "シモナガイソマチ",
    "street": null,
    "office_name": null,
    "office_name_kana": null
  },
  "2152": {
    "postcode": "3792152",
    "prefecture": "群馬県",
    "prefecture_kana": "グンマケン",
    "prefecture_code": 10,
    "city": "前橋市",
    "city_kana": "マエバシシ",
    "town": "下大島町",
    "town_kana": "シモオオシママチ",
    "street": null,
    "office_name": null,
    "office_name_kana": null
  },
  "2153": {
    "postcode": "3792153",
    "prefecture": "群馬県",
    "prefecture_kana": "グンマケン",
    "prefecture_code": 10,
    "city": "前橋市",
    "city_kana": "マエバシシ",
    "town": "上大島町",
    "town_kana": "カミオオシママチ",
    "street": null,
    "office_name": null,
    "office_name_kana": null
  },
  "2154": {
    "postcode": "3792154",
    "prefecture": "群馬県",
    "prefecture_kana": "グンマケン",
    "prefecture_code": 10,
    "city": "前橋市",
    "city_kana": "マエバシシ",
    "town": "天川大島町",
    "town_kana": "アマガワオオシママチ",
    "street": null,
    "office_name": null,
    "office_name_kana": null
  },
  "2161": {
    "postcode": "3792161",
    "prefecture": "群馬県",
    "prefecture_kana": "グンマケン",
    "prefecture_code": 10,
    "city": "前橋市",
    "city_kana": "マエバシシ",
    "town": "富田町",
    "town_kana": "トミダマチ",
    "street": null,
    "office_name": null,
    "office_name_kana": null
  },
  "2162": {
    "postcode": "3792162",
    "prefecture": "群馬県",
    "prefecture_kana": "グンマケン",
    "prefecture_code": 10,
    "city": "前橋市",
    "city_kana": "マエバシシ",
    "town": "小島田町",
    "town_kana": "コジマタマチ",
    "street": null,
    "office_name": null,
    "office_name_kana": null
  },
  "2163": {
    "postcode": "3792163",
    "prefecture": "群馬県",
    "prefecture_kana": "グンマケン",
    "prefecture_code": 10,
    "city": "前橋市",
    "city_kana": "マエバシシ",
    "town": "女屋町",
    "town_kana": "オナヤマチ",
    "street": null,
    "office_name": null,
    "office_name_kana": null
  },
  "2164": {
    "postcode": "3792164",
    "prefecture": "群馬県",
    "prefecture_kana": "グンマケン",
    "prefecture_code": 10,
    "city": "前橋市",
    "city_kana": "マエバシシ",
    "town": "東上野町",
    "town_kana": "ヒガシウエノマチ",
    "street": null,
    "office_name": null,
    "office_name_kana": null
  },
  "2165": {
    "postcode": "3792165",
    "prefecture": "群馬県",
    "prefecture_kana": "グンマケン",
    "prefecture_code": 10,
    "city": "前橋市",
    "city_kana": "マエバシシ",
    "town": "上長磯町",
    "town_kana": "カミナガイソマチ",
    "street": null,
    "office_name": null,
    "office_name_kana": null
  },
  "2166": {
    "postcode": "3792166",
    "prefecture": "群馬県",
    "prefecture_kana": "グンマケン",
    "prefecture_code": 10,
    "city": "前橋市",
    "city_kana": "マエバシシ",
    "town": "野中町",
    "town_kana": "ノナカマチ",
    "street": null,
    "office_name": null,
    "office_name_kana": null
  },
  "2180": {
    "postcode": "3792180",
    "prefecture": "群馬県",
    "prefecture_kana": "グンマケン",
    "prefecture_code": 10,
    "city": "前橋市",
    "city_kana": "マエバシシ",
    "town": "下阿内町",
    "town_kana": "シモアウチマチ",
    "street": "３７７−１１",
    "office_name": "株式会社　チヨダコーポレーション",
    "office_name_kana": "カブシキガイシヤ チヨダコ-ポレ-シヨン"
  },
  "2181": {
    "postcode": "3792181",
    "prefecture": "群馬県",
    "prefecture_kana": "グンマケン",
    "prefecture_code": 10,
    "city": "前橋市",
    "city_kana": "マエバシシ",
    "town": "天川大島町",
    "town_kana": "アマガワオオシママチ",
    "street": "２丁目３１−１３",
    "office_name": "群馬県赤十字血液センター",
    "office_name_kana": "グンマケンセキジユウジケツエキセンタ-"
  },
  "2184": {
    "postcode": "3792184",
    "prefecture": "群馬県",
    "prefecture_kana": "グンマケン",
    "prefecture_code": 10,
    "city": "前橋市",
    "city_kana": "マエバシシ",
    "town": "小屋原町",
    "town_kana": "コヤハラマチ",
    "street": "１１４５−１",
    "office_name": "学校法人　山崎学園",
    "office_name_kana": "ガツコウホウジン ヤマザキガクエン"
  },
  "2185": {
    "postcode": "3792185",
    "prefecture": "群馬県",
    "prefecture_kana": "グンマケン",
    "prefecture_code": 10,
    "city": "前橋市",
    "city_kana": "マエバシシ",
    "town": "小屋原町",
    "town_kana": "コヤハラマチ",
    "street": "１１１５−３",
    "office_name": "共愛学園中学高等学校",
    "office_name_kana": "キヨウアイガクエンチユウガクコウトウガツコウ"
  },
  "2186": {
    "postcode": "3792186",
    "prefecture": "群馬県",
    "prefecture_kana": "グンマケン",
    "prefecture_code": 10,
    "city": "前橋市",
    "city_kana": "マエバシシ",
    "town": "小屋原町",
    "town_kana": "コヤハラマチ",
    "street": "１０９７−２",
    "office_name": "共愛学園小学校",
    "office_name_kana": "キヨウアイガクエンシヨウガツコウ"
  },
  "2187": {
    "postcode": "3792187",
    "prefecture": "群馬県",
    "prefecture_kana": "グンマケン",
    "prefecture_code": 10,
    "city": "前橋市",
    "city_kana": "マエバシシ",
    "town": "亀里町",
    "town_kana": "カメサトマチ",
    "street": "９００",
    "office_name": "株式会社　ベイシア",
    "office_name_kana": "カブシキガイシヤ ベイシア"
  },
  "2192": {
    "postcode": "3792192",
    "prefecture": "群馬県",
    "prefecture_kana": "グンマケン",
    "prefecture_code": 10,
    "city": "前橋市",
    "city_kana": "マエバシシ",
    "town": "小屋原町",
    "town_kana": "コヤハラマチ",
    "street": "１１５４−４",
    "office_name": "共愛学園前橋国際大学",
    "office_name_kana": "キヨウアイガクエンマエバシコクサイダイガク"
  },
  "2193": {
    "postcode": "3792193",
    "prefecture": "群馬県",
    "prefecture_kana": "グンマケン",
    "prefecture_code": 10,
    "city": "前橋市",
    "city_kana": "マエバシシ",
    "town": "下大島町",
    "town_kana": "シモオオシママチ",
    "street": "５６８",
    "office_name": "ナイス　株式会社　前橋市場",
    "office_name_kana": "ナイス カブシキガイシヤ マエバシイチバ"
  },
  "2194": {
    "postcode": "3792194",
    "prefecture": "群馬県",
    "prefecture_kana": "グンマケン",
    "prefecture_code": 10,
    "city": "前橋市",
    "city_kana": "マエバシシ",
    "town": "野中町",
    "town_kana": "ノナカマチ",
    "street": "３２２番地１",
    "office_name": "一般社団法人　群馬県トラック協会",
    "office_name_kana": "イツパンシヤダンホウジン グンマケントラツクキヨウカイ"
  },
  "2195": {
    "postcode": "3792195",
    "prefecture": "群馬県",
    "prefecture_kana": "グンマケン",
    "prefecture_code": 10,
    "city": "前橋市",
    "city_kana": "マエバシシ",
    "town": "力丸町",
    "town_kana": "リキマルマチ",
    "street": "４８８−１",
    "office_name": "マック食品　株式会社",
    "office_name_kana": "マツクシヨクヒン カブシキガイシヤ"
  },
  "2197": {
    "postcode": "3792197",
    "prefecture": "群馬県",
    "prefecture_kana": "グンマケン",
    "prefecture_code": 10,
    "city": "前橋市",
    "city_kana": "マエバシシ",
    "town": "駒形町",
    "town_kana": "コマガタマチ",
    "street": "６１８",
    "office_name": "マチダコーポレーション　株式会社",
    "office_name_kana": "マチダコ-ポレ-シヨン カブシキガイシヤ"
  },
  "2198": {
    "postcode": "3792198",
    "prefecture": "群馬県",
    "prefecture_kana": "グンマケン",
    "prefecture_code": 10,
    "city": "前橋市",
    "city_kana": "マエバシシ",
    "town": "力丸町",
    "town_kana": "リキマルマチ",
    "street": "４９１番地１",
    "office_name": "株式会社　フレッセイ",
    "office_name_kana": "カブシキガイシヤ フレツセイ"
  },
  "2201": {
    "postcode": "3792201",
    "prefecture": "群馬県",
    "prefecture_kana": "グンマケン",
    "prefecture_code": 10,
    "city": "伊勢崎市",
    "city_kana": "イセサキシ",
    "town": "間野谷町",
    "town_kana": "アイノヤチョウ",
    "street": null,
    "office_name": null,
    "office_name_kana": null
  },
  "2202": {
    "postcode": "3792202",
    "prefecture": "群馬県",
    "prefecture_kana": "グンマケン",
    "prefecture_code": 10,
    "city": "伊勢崎市",
    "city_kana": "イセサキシ",
    "town": "赤堀鹿島町",
    "town_kana": "アカボリカシマチョウ",
    "street": null,
    "office_name": null,
    "office_name_kana": null
  },
  "2203": {
    "postcode": "3792203",
    "prefecture": "群馬県",
    "prefecture_kana": "グンマケン",
    "prefecture_code": 10,
    "city": "伊勢崎市",
    "city_kana": "イセサキシ",
    "town": "曲沢町",
    "town_kana": "マガリサワチョウ",
    "street": null,
    "office_name": null,
    "office_name_kana": null
  },
  "2204": {
    "postcode": "3792204",
    "prefecture": "群馬県",
    "prefecture_kana": "グンマケン",
    "prefecture_code": 10,
    "city": "伊勢崎市",
    "city_kana": "イセサキシ",
    "town": "西久保町",
    "town_kana": "ニシクボチョウ",
    "street": null,
    "office_name": null,
    "office_name_kana": null
  },
  "2205": {
    "postcode": "3792205",
    "prefecture": "群馬県",
    "prefecture_kana": "グンマケン",
    "prefecture_code": 10,
    "city": "伊勢崎市",
    "city_kana": "イセサキシ",
    "town": "野町",
    "town_kana": "ノチョウ",
    "street": null,
    "office_name": null,
    "office_name_kana": null
  },
  "2206": {
    "postcode": "3792206",
    "prefecture": "群馬県",
    "prefecture_kana": "グンマケン",
    "prefecture_code": 10,
    "city": "伊勢崎市",
    "city_kana": "イセサキシ",
    "town": "香林町",
    "town_kana": "コウバヤシチョウ",
    "street": null,
    "office_name": null,
    "office_name_kana": null
  },
  "2211": {
    "postcode": "3792211",
    "prefecture": "群馬県",
    "prefecture_kana": "グンマケン",
    "prefecture_code": 10,
    "city": "伊勢崎市",
    "city_kana": "イセサキシ",
    "town": "市場町",
    "town_kana": "イチバチョウ",
    "street": null,
    "office_name": null,
    "office_name_kana": null
  },
  "2212": {
    "postcode": "3792212",
    "prefecture": "群馬県",
    "prefecture_kana": "グンマケン",
    "prefecture_code": 10,
    "city": "伊勢崎市",
    "city_kana": "イセサキシ",
    "town": "堀下町",
    "town_kana": "ホリシタチョウ",
    "street": null,
    "office_name": null,
    "office_name_kana": null
  },
  "2213": {
    "postcode": "3792213",
    "prefecture": "群馬県",
    "prefecture_kana": "グンマケン",
    "prefecture_code": 10,
    "city": "伊勢崎市",
    "city_kana": "イセサキシ",
    "town": "五目牛町",
    "town_kana": "ゴメウシチョウ",
    "street": null,
    "office_name": null,
    "office_name_kana": null
  },
  "2214": {
    "postcode": "3792214",
    "prefecture": "群馬県",
    "prefecture_kana": "グンマケン",
    "prefecture_code": 10,
    "city": "伊勢崎市",
    "city_kana": "イセサキシ",
    "town": "下触町",
    "town_kana": "シモフレイチョウ",
    "street": null,
    "office_name": null,
    "office_name_kana": null
  },
  "2215": {
    "postcode": "3792215",
    "prefecture": "群馬県",
    "prefecture_kana": "グンマケン",
    "prefecture_code": 10,
    "city": "伊勢崎市",
    "city_kana": "イセサキシ",
    "town": "赤堀今井町",
    "town_kana": "アカボリイマイチョウ",
    "street": null,
    "office_name": null,
    "office_name_kana": null
  },
  "2216": {
    "postcode": "3792216",
    "prefecture": "群馬県",
    "prefecture_kana": "グンマケン",
    "prefecture_code": 10,
    "city": "伊勢崎市",
    "city_kana": "イセサキシ",
    "town": "西野町",
    "town_kana": "ニシノチョウ",
    "street": null,
    "office_name": null,
    "office_name_kana": null
  },
  "2217": {
    "postcode": "3792217",
    "prefecture": "群馬県",
    "prefecture_kana": "グンマケン",
    "prefecture_code": 10,
    "city": "伊勢崎市",
    "city_kana": "イセサキシ",
    "town": "磯町",
    "town_kana": "イソチョウ",
    "street": null,
    "office_name": null,
    "office_name_kana": null
  },
  "2221": {
    "postcode": "3792221",
    "prefecture": "群馬県",
    "prefecture_kana": "グンマケン",
    "prefecture_code": 10,
    "city": "伊勢崎市",
    "city_kana": "イセサキシ",
    "town": "国定町",
    "town_kana": "クニサダマチ",
    "street": null,
    "office_name": null,
    "office_name_kana": null
  },
  "2222": {
    "postcode": "3792222",
    "prefecture": "群馬県",
    "prefecture_kana": "グンマケン",
    "prefecture_code": 10,
    "city": "伊勢崎市",
    "city_kana": "イセサキシ",
    "town": "田部井町",
    "town_kana": "タベイチョウ",
    "street": null,
    "office_name": null,
    "office_name_kana": null
  },
  "2224": {
    "postcode": "3792224",
    "prefecture": "群馬県",
    "prefecture_kana": "グンマケン",
    "prefecture_code": 10,
    "city": "伊勢崎市",
    "city_kana": "イセサキシ",
    "town": "西小保方町",
    "town_kana": "ニシオボカタチョウ",
    "street": null,
    "office_name": null,
    "office_name_kana": null
  },
  "2225": {
    "postcode": "3792225",
    "prefecture": "群馬県",
    "prefecture_kana": "グンマケン",
    "prefecture_code": 10,
    "city": "伊勢崎市",
    "city_kana": "イセサキシ",
    "town": "上田町",
    "town_kana": "カミダチョウ",
    "street": null,
    "office_name": null,
    "office_name_kana": null
  },
  "2231": {
    "postcode": "3792231",
    "prefecture": "群馬県",
    "prefecture_kana": "グンマケン",
    "prefecture_code": 10,
    "city": "伊勢崎市",
    "city_kana": "イセサキシ",
    "town": "東町",
    "town_kana": "アズマチョウ",
    "street": null,
    "office_name": null,
    "office_name_kana": null
  },
  "2232": {
    "postcode": "3792232",
    "prefecture": "群馬県",
    "prefecture_kana": "グンマケン",
    "prefecture_code": 10,
    "city": "伊勢崎市",
    "city_kana": "イセサキシ",
    "town": "小泉町",
    "town_kana": "コイズミチョウ",
    "street": null,
    "office_name": null,
    "office_name_kana": null
  },
  "2233": {
    "postcode": "3792233",
    "prefecture": "群馬県",
    "prefecture_kana": "グンマケン",
    "prefecture_code": 10,
    "city": "伊勢崎市",
    "city_kana": "イセサキシ",
    "town": "平井町",
    "town_kana": "ヒライチョウ",
    "street": null,
    "office_name": null,
    "office_name_kana": null
  },
  "2234": {
    "postcode": "3792234",
    "prefecture": "群馬県",
    "prefecture_kana": "グンマケン",
    "prefecture_code": 10,
    "city": "伊勢崎市",
    "city_kana": "イセサキシ",
    "town": "東小保方町",
    "town_kana": "ヒガシオボカタチョウ",
    "street": null,
    "office_name": null,
    "office_name_kana": null
  },
  "2235": {
    "postcode": "3792235",
    "prefecture": "群馬県",
    "prefecture_kana": "グンマケン",
    "prefecture_code": 10,
    "city": "伊勢崎市",
    "city_kana": "イセサキシ",
    "town": "三室町",
    "town_kana": "ミムロチョウ",
    "street": null,
    "office_name": null,
    "office_name_kana": null
  },
  "2236": {
    "postcode": "3792236",
    "prefecture": "群馬県",
    "prefecture_kana": "グンマケン",
    "prefecture_code": 10,
    "city": "伊勢崎市",
    "city_kana": "イセサキシ",
    "town": "八寸町",
    "town_kana": "ハチスチョウ",
    "street": null,
    "office_name": null,
    "office_name_kana": null
  },
  "2292": {
    "postcode": "3792292",
    "prefecture": "群馬県",
    "prefecture_kana": "グンマケン",
    "prefecture_code": 10,
    "city": "伊勢崎市",
    "city_kana": "イセサキシ",
    "town": "東町",
    "town_kana": "アズマチョウ",
    "street": "２６６８−１",
    "office_name": "伊勢崎市　あずま支所",
    "office_name_kana": "イセサキシ アズマシシヨ"
  },
  "2298": {
    "postcode": "3792298",
    "prefecture": "群馬県",
    "prefecture_kana": "グンマケン",
    "prefecture_code": 10,
    "city": "伊勢崎市",
    "city_kana": "イセサキシ",
    "town": "西久保町",
    "town_kana": "ニシクボチョウ",
    "street": "１丁目６４−５",
    "office_name": "伊勢崎市　赤堀支所",
    "office_name_kana": "イセサキシ アカボリシシヨ"
  },
  "2301": {
    "postcode": "3792301",
    "prefecture": "群馬県",
    "prefecture_kana": "グンマケン",
    "prefecture_code": 10,
    "city": "太田市",
    "city_kana": "オオタシ",
    "town": "藪塚町",
    "town_kana": "ヤブヅカチョウ",
    "street": null,
    "office_name": null,
    "office_name_kana": null
  },
  "2302": {
    "postcode": "3792302",
    "prefecture": "群馬県",
    "prefecture_kana": "グンマケン",
    "prefecture_code": 10,
    "city": "太田市",
    "city_kana": "オオタシ",
    "town": "山之神町",
    "town_kana": "ヤマノカミチョウ",
    "street": null,
    "office_name": null,
    "office_name_kana": null
  },
  "2303": {
    "postcode": "3792303",
    "prefecture": "群馬県",
    "prefecture_kana": "グンマケン",
    "prefecture_code": 10,
    "city": "太田市",
    "city_kana": "オオタシ",
    "town": "寄合町",
    "town_kana": "ヨリアイチョウ",
    "street": null,
    "office_name": null,
    "office_name_kana": null
  },
  "2304": {
    "postcode": "3792304",
    "prefecture": "群馬県",
    "prefecture_kana": "グンマケン",
    "prefecture_code": 10,
    "city": "太田市",
    "city_kana": "オオタシ",
    "town": "大原町",
    "town_kana": "オオバラチョウ",
    "street": null,
    "office_name": null,
    "office_name_kana": null
  },
  "2305": {
    "postcode": "3792305",
    "prefecture": "群馬県",
    "prefecture_kana": "グンマケン",
    "prefecture_code": 10,
    "city": "太田市",
    "city_kana": "オオタシ",
    "town": "六千石町",
    "town_kana": "ロクセンゴクチョウ",
    "street": null,
    "office_name": null,
    "office_name_kana": null
  },
  "2306": {
    "postcode": "3792306",
    "prefecture": "群馬県",
    "prefecture_kana": "グンマケン",
    "prefecture_code": 10,
    "city": "太田市",
    "city_kana": "オオタシ",
    "town": "大久保町",
    "town_kana": "オオクボチョウ",
    "street": null,
    "office_name": null,
    "office_name_kana": null
  },
  "2311": {
    "postcode": "3792311",
    "prefecture": "群馬県",
    "prefecture_kana": "グンマケン",
    "prefecture_code": 10,
    "city": "みどり市",
    "city_kana": "ミドリシ",
    "town": "笠懸町阿左美",
    "town_kana": "カサカケチョウアザミ",
    "street": null,
    "office_name": null,
    "office_name_kana": null
  },
  "2312": {
    "postcode": "3792312",
    "prefecture": "群馬県",
    "prefecture_kana": "グンマケン",
    "prefecture_code": 10,
    "city": "みどり市",
    "city_kana": "ミドリシ",
    "town": "笠懸町久宮",
    "town_kana": "カサカケチョウクグウ",
    "street": null,
    "office_name": null,
    "office_name_kana": null
  },
  "2313": {
    "postcode": "3792313",
    "prefecture": "群馬県",
    "prefecture_kana": "グンマケン",
    "prefecture_code": 10,
    "city": "みどり市",
    "city_kana": "ミドリシ",
    "town": "笠懸町鹿",
    "town_kana": "カサカケチョウシカ",
    "street": null,
    "office_name": null,
    "office_name_kana": null
  },
  "2314": {
    "postcode": "3792314",
    "prefecture": "群馬県",
    "prefecture_kana": "グンマケン",
    "prefecture_code": 10,
    "city": "みどり市",
    "city_kana": "ミドリシ",
    "town": "笠懸町西鹿田",
    "town_kana": "カサカケチョウサイシカダ",
    "street": null,
    "office_name": null,
    "office_name_kana": null
  },
  "2392": {
    "postcode": "3792392",
    "prefecture": "群馬県",
    "prefecture_kana": "グンマケン",
    "prefecture_code": 10,
    "city": "みどり市",
    "city_kana": "ミドリシ",
    "town": "笠懸町阿左美",
    "town_kana": "カサカケチョウアザミ",
    "street": "６０６",
    "office_name": "桐生短期大学",
    "office_name_kana": "キリユウタンキダイガク"
  },
  "2395": {
    "postcode": "3792395",
    "prefecture": "群馬県",
    "prefecture_kana": "グンマケン",
    "prefecture_code": 10,
    "city": "みどり市",
    "city_kana": "ミドリシ",
    "town": "笠懸町鹿",
    "town_kana": "カサカケチョウシカ",
    "street": "２９５２",
    "office_name": "みどり市役所　笠懸庁舎",
    "office_name_kana": "ミドリシヤクシヨ カサカケチヨウシヤ"
  },
  "2398": {
    "postcode": "3792398",
    "prefecture": "群馬県",
    "prefecture_kana": "グンマケン",
    "prefecture_code": 10,
    "city": "みどり市",
    "city_kana": "ミドリシ",
    "town": "笠懸町阿左美",
    "town_kana": "カサカケチョウアザミ",
    "street": "２８８７",
    "office_name": "関東開発　株式会社",
    "office_name_kana": "カントウカイハツ カブシキガイシヤ"
  }
}