{
  "0000": {
    "postcode": "3810000",
    "prefecture": "長野県",
    "prefecture_kana": "ナガノケン",
    "prefecture_code": 20,
    "city": "長野市",
    "city_kana": "ナガノシ",
    "town": "",
    "town_kana": "",
    "street": null,
    "office_name": null,
    "office_name_kana": null
  },
  "0001": {
    "postcode": "3810001",
    "prefecture": "長野県",
    "prefecture_kana": "ナガノケン",
    "prefecture_code": 20,
    "city": "長野市",
    "city_kana": "ナガノシ",
    "town": "赤沼",
    "town_kana": "アカヌマ",
    "street": null,
    "office_name": null,
    "office_name_kana": null
  },
  "0002": {
    "postcode": "3810002",
    "prefecture": "長野県",
    "prefecture_kana": "ナガノケン",
    "prefecture_code": 20,
    "city": "長野市",
    "city_kana": "ナガノシ",
    "town": "津野",
    "town_kana": "ツノ",
    "street": null,
    "office_name": null,
    "office_name_kana": null
  },
  "0003": {
    "postcode": "3810003",
    "prefecture": "長野県",
    "prefecture_kana": "ナガノケン",
    "prefecture_code": 20,
    "city": "長野市",
    "city_kana": "ナガノシ",
    "town": "穂保",
    "town_kana": "ホヤス",
    "street": null,
    "office_name": null,
    "office_name_kana": null
  },
  "0004": {
    "postcode": "3810004",
    "prefecture": "長野県",
    "prefecture_kana": "ナガノケン",
    "prefecture_code": 20,
    "city": "長野市",
    "city_kana": "ナガノシ",
    "town": "大町",
    "town_kana": "オオマチ",
    "street": null,
    "office_name": null,
    "office_name_kana": null
  },
  "0005": {
    "postcode": "3810005",
    "prefecture": "長野県",
    "prefecture_kana": "ナガノケン",
    "prefecture_code": 20,
    "city": "長野市",
    "city_kana": "ナガノシ",
    "town": "北堀",
    "town_kana": "キタホリ",
    "street": null,
    "office_name": null,
    "office_name_kana": null
  },
  "0006": {
    "postcode": "3810006",
    "prefecture": "長野県",
    "prefecture_kana": "ナガノケン",
    "prefecture_code": 20,
    "city": "長野市",
    "city_kana": "ナガノシ",
    "town": "富竹",
    "town_kana": "トミタケ",
    "street": null,
    "office_name": null,
    "office_name_kana": null
  },
  "0007": {
    "postcode": "3810007",
    "prefecture": "長野県",
    "prefecture_kana": "ナガノケン",
    "prefecture_code": 20,
    "city": "長野市",
    "city_kana": "ナガノシ",
    "town": "金箱",
    "town_kana": "カネバコ",
    "street": null,
    "office_name": null,
    "office_name_kana": null
  },
  "0008": {
    "postcode": "3810008",
    "prefecture": "長野県",
    "prefecture_kana": "ナガノケン",
    "prefecture_code": 20,
    "city": "長野市",
    "city_kana": "ナガノシ",
    "town": "下駒沢",
    "town_kana": "シモコマザワ",
    "street": null,
    "office_name": null,
    "office_name_kana": null
  },
  "0011": {
    "postcode": "3810011",
    "prefecture": "長野県",
    "prefecture_kana": "ナガノケン",
    "prefecture_code": 20,
    "city": "長野市",
    "city_kana": "ナガノシ",
    "town": "村山",
    "town_kana": "ムラヤマ",
    "street": null,
    "office_name": null,
    "office_name_kana": null
  },
  "0012": {
    "postcode": "3810012",
    "prefecture": "長野県",
    "prefecture_kana": "ナガノケン",
    "prefecture_code": 20,
    "city": "長野市",
    "city_kana": "ナガノシ",
    "town": "柳原",
    "town_kana": "ヤナギハラ",
    "street": null,
    "office_name": null,
    "office_name_kana": null
  },
  "0013": {
    "postcode": "3810013",
    "prefecture": "長野県",
    "prefecture_kana": "ナガノケン",
    "prefecture_code": 20,
    "city": "長野市",
    "city_kana": "ナガノシ",
    "town": "桜新町",
    "town_kana": "サクラシンマチ",
    "street": null,
    "office_name": null,
    "office_name_kana": null
  },
  "0014": {
    "postcode": "3810014",
    "prefecture": "長野県",
    "prefecture_kana": "ナガノケン",
    "prefecture_code": 20,
    "city": "長野市",
    "city_kana": "ナガノシ",
    "town": "北尾張部",
    "town_kana": "キタオワリベ",
    "street": null,
    "office_name": null,
    "office_name_kana": null
  },
  "0015": {
    "postcode": "3810015",
    "prefecture": "長野県",
    "prefecture_kana": "ナガノケン",
    "prefecture_code": 20,
    "city": "長野市",
    "city_kana": "ナガノシ",
    "town": "石渡",
    "town_kana": "イシワタ",
    "street": null,
    "office_name": null,
    "office_name_kana": null
  },
  "0016": {
    "postcode": "3810016",
    "prefecture": "長野県",
    "prefecture_kana": "ナガノケン",
    "prefecture_code": 20,
    "city": "長野市",
    "city_kana": "ナガノシ",
    "town": "南堀",
    "town_kana": "ミナミホリ",
    "street": null,
    "office_name": null,
    "office_name_kana": null
  },
  "0017": {
    "postcode": "3810017",
    "prefecture": "長野県",
    "prefecture_kana": "ナガノケン",
    "prefecture_code": 20,
    "city": "長野市",
    "city_kana": "ナガノシ",
    "town": "小島",
    "town_kana": "コジマ",
    "street": null,
    "office_name": null,
    "office_name_kana": null
  },
  "0021": {
    "postcode": "3810021",
    "prefecture": "長野県",
    "prefecture_kana": "ナガノケン",
    "prefecture_code": 20,
    "city": "長野市",
    "city_kana": "ナガノシ",
    "town": "屋島",
    "town_kana": "ヤシマ",
    "street": null,
    "office_name": null,
    "office_name_kana": null
  },
  "0022": {
    "postcode": "3810022",
    "prefecture": "長野県",
    "prefecture_kana": "ナガノケン",
    "prefecture_code": 20,
    "city": "長野市",
    "city_kana": "ナガノシ",
    "town": "大豆島",
    "town_kana": "マメジマ",
    "street": null,
    "office_name": null,
    "office_name_kana": null
  },
  "0023": {
    "postcode": "3810023",
    "prefecture": "長野県",
    "prefecture_kana": "ナガノケン",
    "prefecture_code": 20,
    "city": "長野市",
    "city_kana": "ナガノシ",
    "town": "風間",
    "town_kana": "カザマ",
    "street": null,
    "office_name": null,
    "office_name_kana": null
  },
  "0024": {
    "postcode": "3810024",
    "prefecture": "長野県",
    "prefecture_kana": "ナガノケン",
    "prefecture_code": 20,
    "city": "長野市",
    "city_kana": "ナガノシ",
    "town": "南長池",
    "town_kana": "ミナミナガイケ",
    "street": null,
    "office_name": null,
    "office_name_kana": null
  },
  "0025": {
    "postcode": "3810025",
    "prefecture": "長野県",
    "prefecture_kana": "ナガノケン",
    "prefecture_code": 20,
    "city": "長野市",
    "city_kana": "ナガノシ",
    "town": "北長池",
    "town_kana": "キタナガイケ",
    "street": null,
    "office_name": null,
    "office_name_kana": null
  },
  "0026": {
    "postcode": "3810026",
    "prefecture": "長野県",
    "prefecture_kana": "ナガノケン",
    "prefecture_code": 20,
    "city": "長野市",
    "city_kana": "ナガノシ",
    "town": "松岡",
    "town_kana": "マツオカ",
    "street": null,
    "office_name": null,
    "office_name_kana": null
  },
  "0031": {
    "postcode": "3810031",
    "prefecture": "長野県",
    "prefecture_kana": "ナガノケン",
    "prefecture_code": 20,
    "city": "長野市",
    "city_kana": "ナガノシ",
    "town": "西尾張部",
    "town_kana": "ニシオワリベ",
    "street": null,
    "office_name": null,
    "office_name_kana": null
  },
  "0032": {
    "postcode": "3810032",
    "prefecture": "長野県",
    "prefecture_kana": "ナガノケン",
    "prefecture_code": 20,
    "city": "長野市",
    "city_kana": "ナガノシ",
    "town": "若宮",
    "town_kana": "ワカミヤ",
    "street": null,
    "office_name": null,
    "office_name_kana": null
  },
  "0033": {
    "postcode": "3810033",
    "prefecture": "長野県",
    "prefecture_kana": "ナガノケン",
    "prefecture_code": 20,
    "city": "長野市",
    "city_kana": "ナガノシ",
    "town": "南高田",
    "town_kana": "ミナミタカダ",
    "street": null,
    "office_name": null,
    "office_name_kana": null
  },
  "0034": {
    "postcode": "3810034",
    "prefecture": "長野県",
    "prefecture_kana": "ナガノケン",
    "prefecture_code": 20,
    "city": "長野市",
    "city_kana": "ナガノシ",
    "town": "高田",
    "town_kana": "タカダ",
    "street": null,
    "office_name": null,
    "office_name_kana": null
  },
  "0035": {
    "postcode": "3810035",
    "prefecture": "長野県",
    "prefecture_kana": "ナガノケン",
    "prefecture_code": 20,
    "city": "長野市",
    "city_kana": "ナガノシ",
    "town": "北条町",
    "town_kana": "キタジョウマチ",
    "street": null,
    "office_name": null,
    "office_name_kana": null
  },
  "0036": {
    "postcode": "3810036",
    "prefecture": "長野県",
    "prefecture_kana": "ナガノケン",
    "prefecture_code": 20,
    "city": "長野市",
    "city_kana": "ナガノシ",
    "town": "平林",
    "town_kana": "ヒラバヤシ",
    "street": null,
    "office_name": null,
    "office_name_kana": null
  },
  "0037": {
    "postcode": "3810037",
    "prefecture": "長野県",
    "prefecture_kana": "ナガノケン",
    "prefecture_code": 20,
    "city": "長野市",
    "city_kana": "ナガノシ",
    "town": "西和田",
    "town_kana": "ニシワダ",
    "street": null,
    "office_name": null,
    "office_name_kana": null
  },
  "0038": {
    "postcode": "3810038",
    "prefecture": "長野県",
    "prefecture_kana": "ナガノケン",
    "prefecture_code": 20,
    "city": "長野市",
    "city_kana": "ナガノシ",
    "town": "東和田",
    "town_kana": "ヒガシワダ",
    "street": null,
    "office_name": null,
    "office_name_kana": null
  },
  "0041": {
    "postcode": "3810041",
    "prefecture": "長野県",
    "prefecture_kana": "ナガノケン",
    "prefecture_code": 20,
    "city": "長野市",
    "city_kana": "ナガノシ",
    "town": "徳間",
    "town_kana": "トクマ",
    "street": null,
    "office_name": null,
    "office_name_kana": null
  },
  "0042": {
    "postcode": "3810042",
    "prefecture": "長野県",
    "prefecture_kana": "ナガノケン",
    "prefecture_code": 20,
    "city": "長野市",
    "city_kana": "ナガノシ",
    "town": "稲田",
    "town_kana": "イナダ",
    "street": null,
    "office_name": null,
    "office_name_kana": null
  },
  "0043": {
    "postcode": "3810043",
    "prefecture": "長野県",
    "prefecture_kana": "ナガノケン",
    "prefecture_code": 20,
    "city": "長野市",
    "city_kana": "ナガノシ",
    "town": "吉田",
    "town_kana": "ヨシダ",
    "street": null,
    "office_name": null,
    "office_name_kana": null
  },
  "0044": {
    "postcode": "3810044",
    "prefecture": "長野県",
    "prefecture_kana": "ナガノケン",
    "prefecture_code": 20,
    "city": "長野市",
    "city_kana": "ナガノシ",
    "town": "中越",
    "town_kana": "ナカゴエ",
    "street": null,
    "office_name": null,
    "office_name_kana": null
  },
  "0045": {
    "postcode": "3810045",
    "prefecture": "長野県",
    "prefecture_kana": "ナガノケン",
    "prefecture_code": 20,
    "city": "長野市",
    "city_kana": "ナガノシ",
    "town": "桐原",
    "town_kana": "キリハラ",
    "street": null,
    "office_name": null,
    "office_name_kana": null
  },
  "0051": {
    "postcode": "3810051",
    "prefecture": "長野県",
    "prefecture_kana": "ナガノケン",
    "prefecture_code": 20,
    "city": "長野市",
    "city_kana": "ナガノシ",
    "town": "若槻団地",
    "town_kana": "ワカツキダンチ",
    "street": null,
    "office_name": null,
    "office_name_kana": null
  },
  "0052": {
    "postcode": "3810052",
    "prefecture": "長野県",
    "prefecture_kana": "ナガノケン",
    "prefecture_code": 20,
    "city": "長野市",
    "city_kana": "ナガノシ",
    "town": "檀田",
    "town_kana": "マユミダ",
    "street": null,
    "office_name": null,
    "office_name_kana": null
  },
  "0053": {
    "postcode": "3810053",
    "prefecture": "長野県",
    "prefecture_kana": "ナガノケン",
    "prefecture_code": 20,
    "city": "長野市",
    "city_kana": "ナガノシ",
    "town": "神楽橋",
    "town_kana": "カグラバシ",
    "street": null,
    "office_name": null,
    "office_name_kana": null
  },
  "0054": {
    "postcode": "3810054",
    "prefecture": "長野県",
    "prefecture_kana": "ナガノケン",
    "prefecture_code": 20,
    "city": "長野市",
    "city_kana": "ナガノシ",
    "town": "浅川",
    "town_kana": "アサカワ",
    "street": null,
    "office_name": null,
    "office_name_kana": null
  },
  "0055": {
    "postcode": "3810055",
    "prefecture": "長野県",
    "prefecture_kana": "ナガノケン",
    "prefecture_code": 20,
    "city": "長野市",
    "city_kana": "ナガノシ",
    "town": "屋敷田",
    "town_kana": "ヤシキダ",
    "street": null,
    "office_name": null,
    "office_name_kana": null
  },
  "0056": {
    "postcode": "3810056",
    "prefecture": "長野県",
    "prefecture_kana": "ナガノケン",
    "prefecture_code": 20,
    "city": "長野市",
    "city_kana": "ナガノシ",
    "town": "浅川押田",
    "town_kana": "アサカワオシダ",
    "street": null,
    "office_name": null,
    "office_name_kana": null
  },
  "0057": {
    "postcode": "3810057",
    "prefecture": "長野県",
    "prefecture_kana": "ナガノケン",
    "prefecture_code": 20,
    "city": "長野市",
    "city_kana": "ナガノシ",
    "town": "浅川西条",
    "town_kana": "アサカワニシジョウ",
    "street": null,
    "office_name": null,
    "office_name_kana": null
  },
  "0061": {
    "postcode": "3810061",
    "prefecture": "長野県",
    "prefecture_kana": "ナガノケン",
    "prefecture_code": 20,
    "city": "長野市",
    "city_kana": "ナガノシ",
    "town": "坂中",
    "town_kana": "サカナカ",
    "street": null,
    "office_name": null,
    "office_name_kana": null
  },
  "0062": {
    "postcode": "3810062",
    "prefecture": "長野県",
    "prefecture_kana": "ナガノケン",
    "prefecture_code": 20,
    "city": "長野市",
    "city_kana": "ナガノシ",
    "town": "浅川福岡",
    "town_kana": "アサカワフクオカ",
    "street": null,
    "office_name": null,
    "office_name_kana": null
  },
  "0063": {
    "postcode": "3810063",
    "prefecture": "長野県",
    "prefecture_kana": "ナガノケン",
    "prefecture_code": 20,
    "city": "長野市",
    "city_kana": "ナガノシ",
    "town": "伺去",
    "town_kana": "シャリ",
    "street": null,
    "office_name": null,
    "office_name_kana": null
  },
  "0064": {
    "postcode": "3810064",
    "prefecture": "長野県",
    "prefecture_kana": "ナガノケン",
    "prefecture_code": 20,
    "city": "長野市",
    "city_kana": "ナガノシ",
    "town": "浅川東条",
    "town_kana": "アサカワヒガシジョウ",
    "street": null,
    "office_name": null,
    "office_name_kana": null
  },
  "0065": {
    "postcode": "3810065",
    "prefecture": "長野県",
    "prefecture_kana": "ナガノケン",
    "prefecture_code": 20,
    "city": "長野市",
    "city_kana": "ナガノシ",
    "town": "真光寺",
    "town_kana": "シンコウジ",
    "street": null,
    "office_name": null,
    "office_name_kana": null
  },
  "0066": {
    "postcode": "3810066",
    "prefecture": "長野県",
    "prefecture_kana": "ナガノケン",
    "prefecture_code": 20,
    "city": "長野市",
    "city_kana": "ナガノシ",
    "town": "浅川西平",
    "town_kana": "アサカワニシヒラ",
    "street": null,
    "office_name": null,
    "office_name_kana": null
  },
  "0071": {
    "postcode": "3810071",
    "prefecture": "長野県",
    "prefecture_kana": "ナガノケン",
    "prefecture_code": 20,
    "city": "長野市",
    "city_kana": "ナガノシ",
    "town": "台ケ窪",
    "town_kana": "ダイガクボ",
    "street": null,
    "office_name": null,
    "office_name_kana": null
  },
  "0072": {
    "postcode": "3810072",
    "prefecture": "長野県",
    "prefecture_kana": "ナガノケン",
    "prefecture_code": 20,
    "city": "長野市",
    "city_kana": "ナガノシ",
    "town": "浅川清水",
    "town_kana": "アサカワキヨミズ",
    "street": null,
    "office_name": null,
    "office_name_kana": null
  },
  "0073": {
    "postcode": "3810073",
    "prefecture": "長野県",
    "prefecture_kana": "ナガノケン",
    "prefecture_code": 20,
    "city": "長野市",
    "city_kana": "ナガノシ",
    "town": "浅川畑山",
    "town_kana": "アサカワハタヤマ",
    "street": null,
    "office_name": null,
    "office_name_kana": null
  },
  "0074": {
    "postcode": "3810074",
    "prefecture": "長野県",
    "prefecture_kana": "ナガノケン",
    "prefecture_code": 20,
    "city": "長野市",
    "city_kana": "ナガノシ",
    "town": "中曽根",
    "town_kana": "ナカゾネ",
    "street": null,
    "office_name": null,
    "office_name_kana": null
  },
  "0075": {
    "postcode": "3810075",
    "prefecture": "長野県",
    "prefecture_kana": "ナガノケン",
    "prefecture_code": 20,
    "city": "長野市",
    "city_kana": "ナガノシ",
    "town": "北郷",
    "town_kana": "キタゴウ",
    "street": null,
    "office_name": null,
    "office_name_kana": null
  },
  "0076": {
    "postcode": "3810076",
    "prefecture": "長野県",
    "prefecture_kana": "ナガノケン",
    "prefecture_code": 20,
    "city": "長野市",
    "city_kana": "ナガノシ",
    "town": "三ツ出",
    "town_kana": "ミツデ",
    "street": null,
    "office_name": null,
    "office_name_kana": null
  },
  "0081": {
    "postcode": "3810081",
    "prefecture": "長野県",
    "prefecture_kana": "ナガノケン",
    "prefecture_code": 20,
    "city": "長野市",
    "city_kana": "ナガノシ",
    "town": "三才",
    "town_kana": "サンサイ",
    "street": null,
    "office_name": null,
    "office_name_kana": null
  },
  "0082": {
    "postcode": "3810082",
    "prefecture": "長野県",
    "prefecture_kana": "ナガノケン",
    "prefecture_code": 20,
    "city": "長野市",
    "city_kana": "ナガノシ",
    "town": "上駒沢",
    "town_kana": "カミコマザワ",
    "street": null,
    "office_name": null,
    "office_name_kana": null
  },
  "0083": {
    "postcode": "3810083",
    "prefecture": "長野県",
    "prefecture_kana": "ナガノケン",
    "prefecture_code": 20,
    "city": "長野市",
    "city_kana": "ナガノシ",
    "town": "西三才",
    "town_kana": "ニシサンサイ",
    "street": null,
    "office_name": null,
    "office_name_kana": null
  },
  "0084": {
    "postcode": "3810084",
    "prefecture": "長野県",
    "prefecture_kana": "ナガノケン",
    "prefecture_code": 20,
    "city": "長野市",
    "city_kana": "ナガノシ",
    "town": "若槻東条",
    "town_kana": "ワカツキヒガシジョウ",
    "street": null,
    "office_name": null,
    "office_name_kana": null
  },
  "0085": {
    "postcode": "3810085",
    "prefecture": "長野県",
    "prefecture_kana": "ナガノケン",
    "prefecture_code": 20,
    "city": "長野市",
    "city_kana": "ナガノシ",
    "town": "上野",
    "town_kana": "ウワノ",
    "street": null,
    "office_name": null,
    "office_name_kana": null
  },
  "0086": {
    "postcode": "3810086",
    "prefecture": "長野県",
    "prefecture_kana": "ナガノケン",
    "prefecture_code": 20,
    "city": "長野市",
    "city_kana": "ナガノシ",
    "town": "田中",
    "town_kana": "タナカ",
    "street": null,
    "office_name": null,
    "office_name_kana": null
  },
  "0087": {
    "postcode": "3810087",
    "prefecture": "長野県",
    "prefecture_kana": "ナガノケン",
    "prefecture_code": 20,
    "city": "長野市",
    "city_kana": "ナガノシ",
    "town": "田子",
    "town_kana": "タコ",
    "street": null,
    "office_name": null,
    "office_name_kana": null
  },
  "0088": {
    "postcode": "3810088",
    "prefecture": "長野県",
    "prefecture_kana": "ナガノケン",
    "prefecture_code": 20,
    "city": "長野市",
    "city_kana": "ナガノシ",
    "town": "吉",
    "town_kana": "ヨシ",
    "street": null,
    "office_name": null,
    "office_name_kana": null
  },
  "0089": {
    "postcode": "3810089",
    "prefecture": "長野県",
    "prefecture_kana": "ナガノケン",
    "prefecture_code": 20,
    "city": "長野市",
    "city_kana": "ナガノシ",
    "town": "若槻西条",
    "town_kana": "ワカツキニシジョウ",
    "street": null,
    "office_name": null,
    "office_name_kana": null
  },
  "0101": {
    "postcode": "3810101",
    "prefecture": "長野県",
    "prefecture_kana": "ナガノケン",
    "prefecture_code": 20,
    "city": "長野市",
    "city_kana": "ナガノシ",
    "town": "若穂綿内",
    "town_kana": "ワカホワタウチ",
    "street": null,
    "office_name": null,
    "office_name_kana": null
  },
  "0102": {
    "postcode": "3810102",
    "prefecture": "長野県",
    "prefecture_kana": "ナガノケン",
    "prefecture_code": 20,
    "city": "長野市",
    "city_kana": "ナガノシ",
    "town": "若穂保科",
    "town_kana": "ワカホホシナ",
    "street": null,
    "office_name": null,
    "office_name_kana": null
  },
  "0103": {
    "postcode": "3810103",
    "prefecture": "長野県",
    "prefecture_kana": "ナガノケン",
    "prefecture_code": 20,
    "city": "長野市",
    "city_kana": "ナガノシ",
    "town": "若穂川田",
    "town_kana": "ワカホカワダ",
    "street": null,
    "office_name": null,
    "office_name_kana": null
  },
  "0104": {
    "postcode": "3810104",
    "prefecture": "長野県",
    "prefecture_kana": "ナガノケン",
    "prefecture_code": 20,
    "city": "長野市",
    "city_kana": "ナガノシ",
    "town": "若穂牛島",
    "town_kana": "ワカホウシジマ",
    "street": null,
    "office_name": null,
    "office_name_kana": null
  },
  "0192": {
    "postcode": "3810192",
    "prefecture": "長野県",
    "prefecture_kana": "ナガノケン",
    "prefecture_code": 20,
    "city": "長野市",
    "city_kana": "ナガノシ",
    "town": "若穂川田",
    "town_kana": "ワカホカワダ",
    "street": "字外新田３８００−１２",
    "office_name": "株式会社　丸水長野県水　長野支店",
    "office_name_kana": "カブシキガイシヤ マルスイナガノケンスイ ナガノシテン"
  },
  "0193": {
    "postcode": "3810193",
    "prefecture": "長野県",
    "prefecture_kana": "ナガノケン",
    "prefecture_code": 20,
    "city": "長野市",
    "city_kana": "ナガノシ",
    "town": "若穂綿内",
    "town_kana": "ワカホワタウチ",
    "street": "字東山１１０８−５",
    "office_name": "株式会社　ＴＯＳＹＳ",
    "office_name_kana": "カブシキガイシヤ ト-シス"
  },
  "0200": {
    "postcode": "3810200",
    "prefecture": "長野県",
    "prefecture_kana": "ナガノケン",
    "prefecture_code": 20,
    "city": "上高井郡小布施町",
    "city_kana": "カミタカイグンオブセマチ",
    "town": "",
    "town_kana": "",
    "street": null,
    "office_name": null,
    "office_name_kana": null
  },
  "0201": {
    "postcode": "3810201",
    "prefecture": "長野県",
    "prefecture_kana": "ナガノケン",
    "prefecture_code": 20,
    "city": "上高井郡小布施町",
    "city_kana": "カミタカイグンオブセマチ",
    "town": "小布施",
    "town_kana": "オブセ",
    "street": null,
    "office_name": null,
    "office_name_kana": null
  },
  "0202": {
    "postcode": "3810202",
    "prefecture": "長野県",
    "prefecture_kana": "ナガノケン",
    "prefecture_code": 20,
    "city": "上高井郡小布施町",
    "city_kana": "カミタカイグンオブセマチ",
    "town": "福原",
    "town_kana": "フクハラ",
    "street": null,
    "office_name": null,
    "office_name_kana": null
  },
  "0203": {
    "postcode": "3810203",
    "prefecture": "長野県",
    "prefecture_kana": "ナガノケン",
    "prefecture_code": 20,
    "city": "上高井郡小布施町",
    "city_kana": "カミタカイグンオブセマチ",
    "town": "大島",
    "town_kana": "オオジマ",
    "street": null,
    "office_name": null,
    "office_name_kana": null
  },
  "0204": {
    "postcode": "3810204",
    "prefecture": "長野県",
    "prefecture_kana": "ナガノケン",
    "prefecture_code": 20,
    "city": "上高井郡小布施町",
    "city_kana": "カミタカイグンオブセマチ",
    "town": "飯田",
    "town_kana": "イイダ",
    "street": null,
    "office_name": null,
    "office_name_kana": null
  },
  "0205": {
    "postcode": "3810205",
    "prefecture": "長野県",
    "prefecture_kana": "ナガノケン",
    "prefecture_code": 20,
    "city": "上高井郡小布施町",
    "city_kana": "カミタカイグンオブセマチ",
    "town": "山王島",
    "town_kana": "サンノウジマ",
    "street": null,
    "office_name": null,
    "office_name_kana": null
  },
  "0206": {
    "postcode": "3810206",
    "prefecture": "長野県",
    "prefecture_kana": "ナガノケン",
    "prefecture_code": 20,
    "city": "上高井郡小布施町",
    "city_kana": "カミタカイグンオブセマチ",
    "town": "北岡",
    "town_kana": "キタオカ",
    "street": null,
    "office_name": null,
    "office_name_kana": null
  },
  "0207": {
    "postcode": "3810207",
    "prefecture": "長野県",
    "prefecture_kana": "ナガノケン",
    "prefecture_code": 20,
    "city": "上高井郡小布施町",
    "city_kana": "カミタカイグンオブセマチ",
    "town": "押羽",
    "town_kana": "オシハ",
    "street": null,
    "office_name": null,
    "office_name_kana": null
  },
  "0208": {
    "postcode": "3810208",
    "prefecture": "長野県",
    "prefecture_kana": "ナガノケン",
    "prefecture_code": 20,
    "city": "上高井郡小布施町",
    "city_kana": "カミタカイグンオブセマチ",
    "town": "都住",
    "town_kana": "ツスミ",
    "street": null,
    "office_name": null,
    "office_name_kana": null
  },
  "0209": {
    "postcode": "3810209",
    "prefecture": "長野県",
    "prefecture_kana": "ナガノケン",
    "prefecture_code": 20,
    "city": "上高井郡小布施町",
    "city_kana": "カミタカイグンオブセマチ",
    "town": "中松",
    "town_kana": "ナカマツ",
    "street": null,
    "office_name": null,
    "office_name_kana": null
  },
  "0211": {
    "postcode": "3810211",
    "prefecture": "長野県",
    "prefecture_kana": "ナガノケン",
    "prefecture_code": 20,
    "city": "上高井郡小布施町",
    "city_kana": "カミタカイグンオブセマチ",
    "town": "雁田",
    "town_kana": "カリダ",
    "street": null,
    "office_name": null,
    "office_name_kana": null
  },
  "0212": {
    "postcode": "3810212",
    "prefecture": "長野県",
    "prefecture_kana": "ナガノケン",
    "prefecture_code": 20,
    "city": "上高井郡小布施町",
    "city_kana": "カミタカイグンオブセマチ",
    "town": "吉島",
    "town_kana": "ヨシジマ",
    "street": null,
    "office_name": null,
    "office_name_kana": null
  },
  "0288": {
    "postcode": "3810288",
    "prefecture": "長野県",
    "prefecture_kana": "ナガノケン",
    "prefecture_code": 20,
    "city": "上高井郡小布施町",
    "city_kana": "カミタカイグンオブセマチ",
    "town": "大字福原",
    "town_kana": null,
    "street": "２１６番地１４",
    "office_name": "株式会社　イマイ企画",
    "office_name_kana": "カブシキガイシヤ イマイキカク"
  },
  "0292": {
    "postcode": "3810292",
    "prefecture": "長野県",
    "prefecture_kana": "ナガノケン",
    "prefecture_code": 20,
    "city": "上高井郡小布施町",
    "city_kana": "カミタカイグンオブセマチ",
    "town": "大字小布施",
    "town_kana": null,
    "street": "９７３",
    "office_name": "株式会社　竹風堂",
    "office_name_kana": "カブシキカイシヤ チクフウドウ"
  },
  "0293": {
    "postcode": "3810293",
    "prefecture": "長野県",
    "prefecture_kana": "ナガノケン",
    "prefecture_code": 20,
    "city": "上高井郡小布施町",
    "city_kana": "カミタカイグンオブセマチ",
    "town": "大字小布施",
    "town_kana": null,
    "street": "８０８",
    "office_name": "株式会社　小布施堂",
    "office_name_kana": "カブシキカイシヤ オブセドウ"
  },
  "0295": {
    "postcode": "3810295",
    "prefecture": "長野県",
    "prefecture_kana": "ナガノケン",
    "prefecture_code": 20,
    "city": "上高井郡小布施町",
    "city_kana": "カミタカイグンオブセマチ",
    "town": "大字小布施",
    "town_kana": null,
    "street": "８５１",
    "office_name": "新生病院",
    "office_name_kana": "シンセイビヨウイン"
  },
  "0296": {
    "postcode": "3810296",
    "prefecture": "長野県",
    "prefecture_kana": "ナガノケン",
    "prefecture_code": 20,
    "city": "上高井郡小布施町",
    "city_kana": "カミタカイグンオブセマチ",
    "town": "大字雁田",
    "town_kana": null,
    "street": "４３８",
    "office_name": "株式会社　永井工業所",
    "office_name_kana": "カブシキガイシヤ ナガイコウギヨウシヨ"
  },
  "0297": {
    "postcode": "3810297",
    "prefecture": "長野県",
    "prefecture_kana": "ナガノケン",
    "prefecture_code": 20,
    "city": "上高井郡小布施町",
    "city_kana": "カミタカイグンオブセマチ",
    "town": "大字小布施",
    "town_kana": null,
    "street": "１４９１−２",
    "office_name": "小布施町役場",
    "office_name_kana": "オブセマチヤクバ"
  },
  "0298": {
    "postcode": "3810298",
    "prefecture": "長野県",
    "prefecture_kana": "ナガノケン",
    "prefecture_code": 20,
    "city": "上高井郡小布施町",
    "city_kana": "カミタカイグンオブセマチ",
    "town": "大字小布施",
    "town_kana": null,
    "street": "２４６０−１",
    "office_name": "桜井甘精堂",
    "office_name_kana": "サクライカンセイドウ"
  },
  "0400": {
    "postcode": "3810400",
    "prefecture": "長野県",
    "prefecture_kana": "ナガノケン",
    "prefecture_code": 20,
    "city": "下高井郡山ノ内町",
    "city_kana": "シモタカイグンヤマノウチマチ",
    "town": "",
    "town_kana": "",
    "street": null,
    "office_name": null,
    "office_name_kana": null
  },
  "0401": {
    "postcode": "3810401",
    "prefecture": "長野県",
    "prefecture_kana": "ナガノケン",
    "prefecture_code": 20,
    "city": "下高井郡山ノ内町",
    "city_kana": "シモタカイグンヤマノウチマチ",
    "town": "平穏",
    "town_kana": "ヒラオ",
    "street": null,
    "office_name": null,
    "office_name_kana": null
  },
  "0402": {
    "postcode": "3810402",
    "prefecture": "長野県",
    "prefecture_kana": "ナガノケン",
    "prefecture_code": 20,
    "city": "下高井郡山ノ内町",
    "city_kana": "シモタカイグンヤマノウチマチ",
    "town": "佐野",
    "town_kana": "サノ",
    "street": null,
    "office_name": null,
    "office_name_kana": null
  },
  "0403": {
    "postcode": "3810403",
    "prefecture": "長野県",
    "prefecture_kana": "ナガノケン",
    "prefecture_code": 20,
    "city": "下高井郡山ノ内町",
    "city_kana": "シモタカイグンヤマノウチマチ",
    "town": "寒沢",
    "town_kana": "サムサワ",
    "street": null,
    "office_name": null,
    "office_name_kana": null
  },
  "0404": {
    "postcode": "3810404",
    "prefecture": "長野県",
    "prefecture_kana": "ナガノケン",
    "prefecture_code": 20,
    "city": "下高井郡山ノ内町",
    "city_kana": "シモタカイグンヤマノウチマチ",
    "town": "戸狩",
    "town_kana": "トガリ",
    "street": null,
    "office_name": null,
    "office_name_kana": null
  },
  "0405": {
    "postcode": "3810405",
    "prefecture": "長野県",
    "prefecture_kana": "ナガノケン",
    "prefecture_code": 20,
    "city": "下高井郡山ノ内町",
    "city_kana": "シモタカイグンヤマノウチマチ",
    "town": "夜間瀬",
    "town_kana": "ヨマセ",
    "street": null,
    "office_name": null,
    "office_name_kana": null
  },
  "0497": {
    "postcode": "3810497",
    "prefecture": "長野県",
    "prefecture_kana": "ナガノケン",
    "prefecture_code": 20,
    "city": "下高井郡山ノ内町",
    "city_kana": "シモタカイグンヤマノウチマチ",
    "town": "大字平穏",
    "town_kana": null,
    "street": "７１４９",
    "office_name": "志賀高原プリンスホテル",
    "office_name_kana": "シガコウゲンプリンスホテル"
  },
  "0498": {
    "postcode": "3810498",
    "prefecture": "長野県",
    "prefecture_kana": "ナガノケン",
    "prefecture_code": 20,
    "city": "下高井郡山ノ内町",
    "city_kana": "シモタカイグンヤマノウチマチ",
    "town": "大字平穏",
    "town_kana": null,
    "street": "３３５２−１",
    "office_name": "山ノ内町役場",
    "office_name_kana": "ヤマノウチマチヤクバ"
  },
  "1211": {
    "postcode": "3811211",
    "prefecture": "長野県",
    "prefecture_kana": "ナガノケン",
    "prefecture_code": 20,
    "city": "長野市",
    "city_kana": "ナガノシ",
    "town": "松代町大室",
    "town_kana": "マツシロマチオオムロ",
    "street": null,
    "office_name": null,
    "office_name_kana": null
  },
  "1212": {
    "postcode": "3811212",
    "prefecture": "長野県",
    "prefecture_kana": "ナガノケン",
    "prefecture_code": 20,
    "city": "長野市",
    "city_kana": "ナガノシ",
    "town": "松代町牧島",
    "town_kana": "マツシロマチマキシマ",
    "street": null,
    "office_name": null,
    "office_name_kana": null
  },
  "1213": {
    "postcode": "3811213",
    "prefecture": "長野県",
    "prefecture_kana": "ナガノケン",
    "prefecture_code": 20,
    "city": "長野市",
    "city_kana": "ナガノシ",
    "town": "松代町小島田",
    "town_kana": "マツシロマチオシマダ",
    "street": null,
    "office_name": null,
    "office_name_kana": null
  },
  "1214": {
    "postcode": "3811214",
    "prefecture": "長野県",
    "prefecture_kana": "ナガノケン",
    "prefecture_code": 20,
    "city": "長野市",
    "city_kana": "ナガノシ",
    "town": "松代町柴",
    "town_kana": "マツシロマチシバ",
    "street": null,
    "office_name": null,
    "office_name_kana": null
  },
  "1215": {
    "postcode": "3811215",
    "prefecture": "長野県",
    "prefecture_kana": "ナガノケン",
    "prefecture_code": 20,
    "city": "長野市",
    "city_kana": "ナガノシ",
    "town": "松代町西寺尾",
    "town_kana": "マツシロマチニシテラオ",
    "street": null,
    "office_name": null,
    "office_name_kana": null
  },
  "1221": {
    "postcode": "3811221",
    "prefecture": "長野県",
    "prefecture_kana": "ナガノケン",
    "prefecture_code": 20,
    "city": "長野市",
    "city_kana": "ナガノシ",
    "town": "松代町東条",
    "town_kana": "マツシロマチヒガシジョウ",
    "street": null,
    "office_name": null,
    "office_name_kana": null
  },
  "1222": {
    "postcode": "3811222",
    "prefecture": "長野県",
    "prefecture_kana": "ナガノケン",
    "prefecture_code": 20,
    "city": "長野市",
    "city_kana": "ナガノシ",
    "town": "松代町豊栄",
    "town_kana": "マツシロマチトヨサカ",
    "street": null,
    "office_name": null,
    "office_name_kana": null
  },
  "1223": {
    "postcode": "3811223",
    "prefecture": "長野県",
    "prefecture_kana": "ナガノケン",
    "prefecture_code": 20,
    "city": "長野市",
    "city_kana": "ナガノシ",
    "town": "皆神台",
    "town_kana": "ミナカミダイ",
    "street": null,
    "office_name": null,
    "office_name_kana": null
  },
  "1224": {
    "postcode": "3811224",
    "prefecture": "長野県",
    "prefecture_kana": "ナガノケン",
    "prefecture_code": 20,
    "city": "長野市",
    "city_kana": "ナガノシ",
    "town": "松代町城東",
    "town_kana": "マツシロマチジョウトウ",
    "street": null,
    "office_name": null,
    "office_name_kana": null
  },
  "1225": {
    "postcode": "3811225",
    "prefecture": "長野県",
    "prefecture_kana": "ナガノケン",
    "prefecture_code": 20,
    "city": "長野市",
    "city_kana": "ナガノシ",
    "town": "松代町東寺尾",
    "town_kana": "マツシロマチヒガシテラオ",
    "street": null,
    "office_name": null,
    "office_name_kana": null
  },
  "1226": {
    "postcode": "3811226",
    "prefecture": "長野県",
    "prefecture_kana": "ナガノケン",
    "prefecture_code": 20,
    "city": "長野市",
    "city_kana": "ナガノシ",
    "town": "松代温泉",
    "town_kana": "マツシロオンセン",
    "street": null,
    "office_name": null,
    "office_name_kana": null
  },
  "1231": {
    "postcode": "3811231",
    "prefecture": "長野県",
    "prefecture_kana": "ナガノケン",
    "prefecture_code": 20,
    "city": "長野市",
    "city_kana": "ナガノシ",
    "town": "松代町松代",
    "town_kana": "マツシロマチマツシロ",
    "street": null,
    "office_name": null,
    "office_name_kana": null
  },
  "1232": {
    "postcode": "3811232",
    "prefecture": "長野県",
    "prefecture_kana": "ナガノケン",
    "prefecture_code": 20,
    "city": "長野市",
    "city_kana": "ナガノシ",
    "town": "松代町西条",
    "town_kana": "マツシロマチニシジョウ",
    "street": null,
    "office_name": null,
    "office_name_kana": null
  },
  "1233": {
    "postcode": "3811233",
    "prefecture": "長野県",
    "prefecture_kana": "ナガノケン",
    "prefecture_code": 20,
    "city": "長野市",
    "city_kana": "ナガノシ",
    "town": "松代町清野",
    "town_kana": "マツシロマチキヨノ",
    "street": null,
    "office_name": null,
    "office_name_kana": null
  },
  "1234": {
    "postcode": "3811234",
    "prefecture": "長野県",
    "prefecture_kana": "ナガノケン",
    "prefecture_code": 20,
    "city": "長野市",
    "city_kana": "ナガノシ",
    "town": "松代町岩野",
    "town_kana": "マツシロマチイワノ",
    "street": null,
    "office_name": null,
    "office_name_kana": null
  },
  "1235": {
    "postcode": "3811235",
    "prefecture": "長野県",
    "prefecture_kana": "ナガノケン",
    "prefecture_code": 20,
    "city": "長野市",
    "city_kana": "ナガノシ",
    "town": "松代町城北",
    "town_kana": "マツシロマチジョウホク",
    "street": null,
    "office_name": null,
    "office_name_kana": null
  },
  "2201": {
    "postcode": "3812201",
    "prefecture": "長野県",
    "prefecture_kana": "ナガノケン",
    "prefecture_code": 20,
    "city": "長野市",
    "city_kana": "ナガノシ",
    "town": "若穂牛島",
    "town_kana": "ワカホウシジマ",
    "street": null,
    "office_name": null,
    "office_name_kana": null
  },
  "2202": {
    "postcode": "3812202",
    "prefecture": "長野県",
    "prefecture_kana": "ナガノケン",
    "prefecture_code": 20,
    "city": "長野市",
    "city_kana": "ナガノシ",
    "town": "市場",
    "town_kana": "イチバ",
    "street": null,
    "office_name": null,
    "office_name_kana": null
  },
  "2203": {
    "postcode": "3812203",
    "prefecture": "長野県",
    "prefecture_kana": "ナガノケン",
    "prefecture_code": 20,
    "city": "長野市",
    "city_kana": "ナガノシ",
    "town": "真島町川合",
    "town_kana": "マシママチカワイ",
    "street": null,
    "office_name": null,
    "office_name_kana": null
  },
  "2204": {
    "postcode": "3812204",
    "prefecture": "長野県",
    "prefecture_kana": "ナガノケン",
    "prefecture_code": 20,
    "city": "長野市",
    "city_kana": "ナガノシ",
    "town": "真島町真島",
    "town_kana": "マシママチマシマ",
    "street": null,
    "office_name": null,
    "office_name_kana": null
  },
  "2205": {
    "postcode": "3812205",
    "prefecture": "長野県",
    "prefecture_kana": "ナガノケン",
    "prefecture_code": 20,
    "city": "長野市",
    "city_kana": "ナガノシ",
    "town": "青木島町大塚",
    "town_kana": "アオキジママチオオツカ",
    "street": null,
    "office_name": null,
    "office_name_kana": null
  },
  "2206": {
    "postcode": "3812206",
    "prefecture": "長野県",
    "prefecture_kana": "ナガノケン",
    "prefecture_code": 20,
    "city": "長野市",
    "city_kana": "ナガノシ",
    "town": "青木島町綱島",
    "town_kana": "アオキジママチツナシマ",
    "street": null,
    "office_name": null,
    "office_name_kana": null
  },
  "2207": {
    "postcode": "3812207",
    "prefecture": "長野県",
    "prefecture_kana": "ナガノケン",
    "prefecture_code": 20,
    "city": "長野市",
    "city_kana": "ナガノシ",
    "town": "大橋南",
    "town_kana": "オオハシミナミ",
    "street": null,
    "office_name": null,
    "office_name_kana": null
  },
  "2211": {
    "postcode": "3812211",
    "prefecture": "長野県",
    "prefecture_kana": "ナガノケン",
    "prefecture_code": 20,
    "city": "長野市",
    "city_kana": "ナガノシ",
    "town": "稲里町下氷鉋",
    "town_kana": "イナサトマチシモヒガノ",
    "street": null,
    "office_name": null,
    "office_name_kana": null
  },
  "2212": {
    "postcode": "3812212",
    "prefecture": "長野県",
    "prefecture_kana": "ナガノケン",
    "prefecture_code": 20,
    "city": "長野市",
    "city_kana": "ナガノシ",
    "town": "小島田町",
    "town_kana": "オシマダマチ",
    "street": null,
    "office_name": null,
    "office_name_kana": null
  },
  "2213": {
    "postcode": "3812213",
    "prefecture": "長野県",
    "prefecture_kana": "ナガノケン",
    "prefecture_code": 20,
    "city": "長野市",
    "city_kana": "ナガノシ",
    "town": "広田",
    "town_kana": "ヒロタ",
    "street": null,
    "office_name": null,
    "office_name_kana": null
  },
  "2214": {
    "postcode": "3812214",
    "prefecture": "長野県",
    "prefecture_kana": "ナガノケン",
    "prefecture_code": 20,
    "city": "長野市",
    "city_kana": "ナガノシ",
    "town": "稲里町田牧",
    "town_kana": "イナサトマチタマキ",
    "street": null,
    "office_name": null,
    "office_name_kana": null
  },
  "2215": {
    "postcode": "3812215",
    "prefecture": "長野県",
    "prefecture_kana": "ナガノケン",
    "prefecture_code": 20,
    "city": "長野市",
    "city_kana": "ナガノシ",
    "town": "稲里町中氷鉋",
    "town_kana": "イナサトマチナカヒガノ",
    "street": null,
    "office_name": null,
    "office_name_kana": null
  },
  "2216": {
    "postcode": "3812216",
    "prefecture": "長野県",
    "prefecture_kana": "ナガノケン",
    "prefecture_code": 20,
    "city": "長野市",
    "city_kana": "ナガノシ",
    "town": "下氷鉋",
    "town_kana": "シモヒガノ",
    "street": null,
    "office_name": null,
    "office_name_kana": null
  },
  "2217": {
    "postcode": "3812217",
    "prefecture": "長野県",
    "prefecture_kana": "ナガノケン",
    "prefecture_code": 20,
    "city": "長野市",
    "city_kana": "ナガノシ",
    "town": "稲里町中央",
    "town_kana": "イナサトマチチュウオウ",
    "street": null,
    "office_name": null,
    "office_name_kana": null
  },
  "2221": {
    "postcode": "3812221",
    "prefecture": "長野県",
    "prefecture_kana": "ナガノケン",
    "prefecture_code": 20,
    "city": "長野市",
    "city_kana": "ナガノシ",
    "town": "川中島町御厨",
    "town_kana": "カワナカジママチミクリヤ",
    "street": null,
    "office_name": null,
    "office_name_kana": null
  },
  "2222": {
    "postcode": "3812222",
    "prefecture": "長野県",
    "prefecture_kana": "ナガノケン",
    "prefecture_code": 20,
    "city": "長野市",
    "city_kana": "ナガノシ",
    "town": "金井田",
    "town_kana": "カナイダ",
    "street": null,
    "office_name": null,
    "office_name_kana": null
  },
  "2223": {
    "postcode": "3812223",
    "prefecture": "長野県",
    "prefecture_kana": "ナガノケン",
    "prefecture_code": 20,
    "city": "長野市",
    "city_kana": "ナガノシ",
    "town": "里島",
    "town_kana": "サトジマ",
    "street": null,
    "office_name": null,
    "office_name_kana": null
  },
  "2224": {
    "postcode": "3812224",
    "prefecture": "長野県",
    "prefecture_kana": "ナガノケン",
    "prefecture_code": 20,
    "city": "長野市",
    "city_kana": "ナガノシ",
    "town": "川中島町原",
    "town_kana": "カワナカジママチハラ",
    "street": null,
    "office_name": null,
    "office_name_kana": null
  },
  "2225": {
    "postcode": "3812225",
    "prefecture": "長野県",
    "prefecture_kana": "ナガノケン",
    "prefecture_code": 20,
    "city": "長野市",
    "city_kana": "ナガノシ",
    "town": "篠ノ井岡田",
    "town_kana": "シノノイオカダ",
    "street": null,
    "office_name": null,
    "office_name_kana": null
  },
  "2226": {
    "postcode": "3812226",
    "prefecture": "長野県",
    "prefecture_kana": "ナガノケン",
    "prefecture_code": 20,
    "city": "長野市",
    "city_kana": "ナガノシ",
    "town": "川中島町今井",
    "town_kana": "カワナカジママチイマイ",
    "street": null,
    "office_name": null,
    "office_name_kana": null
  },
  "2227": {
    "postcode": "3812227",
    "prefecture": "長野県",
    "prefecture_kana": "ナガノケン",
    "prefecture_code": 20,
    "city": "長野市",
    "city_kana": "ナガノシ",
    "town": "川中島町今井原",
    "town_kana": "カワナカジママチイマイハラ",
    "street": null,
    "office_name": null,
    "office_name_kana": null
  },
  "2231": {
    "postcode": "3812231",
    "prefecture": "長野県",
    "prefecture_kana": "ナガノケン",
    "prefecture_code": 20,
    "city": "長野市",
    "city_kana": "ナガノシ",
    "town": "川中島町四ツ屋",
    "town_kana": "カワナカジママチヨツヤ",
    "street": null,
    "office_name": null,
    "office_name_kana": null
  },
  "2232": {
    "postcode": "3812232",
    "prefecture": "長野県",
    "prefecture_kana": "ナガノケン",
    "prefecture_code": 20,
    "city": "長野市",
    "city_kana": "ナガノシ",
    "town": "川中島町若葉町",
    "town_kana": "カワナカジマチョウワカバチョウ",
    "street": null,
    "office_name": null,
    "office_name_kana": null
  },
  "2233": {
    "postcode": "3812233",
    "prefecture": "長野県",
    "prefecture_kana": "ナガノケン",
    "prefecture_code": 20,
    "city": "長野市",
    "city_kana": "ナガノシ",
    "town": "川中島町上氷鉋",
    "town_kana": "カワナカジママチカミヒガノ",
    "street": null,
    "office_name": null,
    "office_name_kana": null
  },
  "2234": {
    "postcode": "3812234",
    "prefecture": "長野県",
    "prefecture_kana": "ナガノケン",
    "prefecture_code": 20,
    "city": "長野市",
    "city_kana": "ナガノシ",
    "town": "川中島町今里",
    "town_kana": "カワナカジママチイマザト",
    "street": null,
    "office_name": null,
    "office_name_kana": null
  },
  "2235": {
    "postcode": "3812235",
    "prefecture": "長野県",
    "prefecture_kana": "ナガノケン",
    "prefecture_code": 20,
    "city": "長野市",
    "city_kana": "ナガノシ",
    "town": "篠ノ井小松原",
    "town_kana": "シノノイコマツバラ",
    "street": null,
    "office_name": null,
    "office_name_kana": null
  },
  "2241": {
    "postcode": "3812241",
    "prefecture": "長野県",
    "prefecture_kana": "ナガノケン",
    "prefecture_code": 20,
    "city": "長野市",
    "city_kana": "ナガノシ",
    "town": "青木島町青木島乙",
    "town_kana": "アオキジママチアオキジマオツ",
    "street": null,
    "office_name": null,
    "office_name_kana": null
  },
  "2242": {
    "postcode": "3812242",
    "prefecture": "長野県",
    "prefecture_kana": "ナガノケン",
    "prefecture_code": 20,
    "city": "長野市",
    "city_kana": "ナガノシ",
    "town": "青木島町青木島",
    "town_kana": "アオキジママチアオキジマ",
    "street": null,
    "office_name": null,
    "office_name_kana": null
  },
  "2243": {
    "postcode": "3812243",
    "prefecture": "長野県",
    "prefecture_kana": "ナガノケン",
    "prefecture_code": 20,
    "city": "長野市",
    "city_kana": "ナガノシ",
    "town": "稲里",
    "town_kana": "イナサト",
    "street": null,
    "office_name": null,
    "office_name_kana": null
  },
  "2244": {
    "postcode": "3812244",
    "prefecture": "長野県",
    "prefecture_kana": "ナガノケン",
    "prefecture_code": 20,
    "city": "長野市",
    "city_kana": "ナガノシ",
    "town": "三本柳西",
    "town_kana": "サンボンヤナギニシ",
    "street": null,
    "office_name": null,
    "office_name_kana": null
  },
  "2245": {
    "postcode": "3812245",
    "prefecture": "長野県",
    "prefecture_kana": "ナガノケン",
    "prefecture_code": 20,
    "city": "長野市",
    "city_kana": "ナガノシ",
    "town": "三本柳東",
    "town_kana": "サンボンヤナギヒガシ",
    "street": null,
    "office_name": null,
    "office_name_kana": null
  },
  "2246": {
    "postcode": "3812246",
    "prefecture": "長野県",
    "prefecture_kana": "ナガノケン",
    "prefecture_code": 20,
    "city": "長野市",
    "city_kana": "ナガノシ",
    "town": "丹波島",
    "town_kana": "タンバジマ",
    "street": null,
    "office_name": null,
    "office_name_kana": null
  },
  "2247": {
    "postcode": "3812247",
    "prefecture": "長野県",
    "prefecture_kana": "ナガノケン",
    "prefecture_code": 20,
    "city": "長野市",
    "city_kana": "ナガノシ",
    "town": "青木島",
    "town_kana": "アオキジマ",
    "street": null,
    "office_name": null,
    "office_name_kana": null
  },
  "2280": {
    "postcode": "3812280",
    "prefecture": "長野県",
    "prefecture_kana": "ナガノケン",
    "prefecture_code": 20,
    "city": "長野市",
    "city_kana": "ナガノシ",
    "town": "稲里町中氷鉋",
    "town_kana": "イナサトマチナカヒガノ",
    "street": "４５８",
    "office_name": "株式会社　シューマート",
    "office_name_kana": "カブシキガイシヤ シユ-マ-ト"
  },
  "2281": {
    "postcode": "3812281",
    "prefecture": "長野県",
    "prefecture_kana": "ナガノケン",
    "prefecture_code": 20,
    "city": "長野市",
    "city_kana": "ナガノシ",
    "town": "市場",
    "town_kana": "イチバ",
    "street": "３−４８",
    "office_name": "株式会社　マルイチ産商",
    "office_name_kana": "カブシキガイシヤ マルイチサンシヨウ"
  },
  "2282": {
    "postcode": "3812282",
    "prefecture": "長野県",
    "prefecture_kana": "ナガノケン",
    "prefecture_code": 20,
    "city": "長野市",
    "city_kana": "ナガノシ",
    "town": "川中島町原",
    "town_kana": "カワナカジママチハラ",
    "street": "１２８０",
    "office_name": "長野愛知電機　株式会社",
    "office_name_kana": "ナガノアイチデンキ カブシキガイシヤ"
  },
  "2283": {
    "postcode": "3812283",
    "prefecture": "長野県",
    "prefecture_kana": "ナガノケン",
    "prefecture_code": 20,
    "city": "長野市",
    "city_kana": "ナガノシ",
    "town": "稲里",
    "town_kana": "イナサト",
    "street": "一丁目５番地３",
    "office_name": "ミヤマ　株式会社",
    "office_name_kana": "ミヤマ カブシキガイシヤ"
  },
  "2285": {
    "postcode": "3812285",
    "prefecture": "長野県",
    "prefecture_kana": "ナガノケン",
    "prefecture_code": 20,
    "city": "長野市",
    "city_kana": "ナガノシ",
    "town": "川中島町上氷鉋",
    "town_kana": "カワナカジママチカミヒガノ",
    "street": "５５３−１",
    "office_name": "長野日野自動車　株式会社",
    "office_name_kana": "ナガノヒノジドウシヤ カブシキガイシヤ"
  },
  "2286": {
    "postcode": "3812286",
    "prefecture": "長野県",
    "prefecture_kana": "ナガノケン",
    "prefecture_code": 20,
    "city": "長野市",
    "city_kana": "ナガノシ",
    "town": "市場",
    "town_kana": "イチバ",
    "street": "３−４３",
    "office_name": "株式会社　丸水長野県水",
    "office_name_kana": "カブシキガイシヤ マルスイナガノケンスイ"
  },
  "2287": {
    "postcode": "3812287",
    "prefecture": "長野県",
    "prefecture_kana": "ナガノケン",
    "prefecture_code": 20,
    "city": "長野市",
    "city_kana": "ナガノシ",
    "town": "小島田町",
    "town_kana": "オシマダマチ",
    "street": "８０",
    "office_name": "新光電気工業　株式会社",
    "office_name_kana": "シンコウデンキコウギヨウ カブシキガイシヤ"
  },
  "2288": {
    "postcode": "3812288",
    "prefecture": "長野県",
    "prefecture_kana": "ナガノケン",
    "prefecture_code": 20,
    "city": "長野市",
    "city_kana": "ナガノシ",
    "town": "稲里町下氷鉋",
    "town_kana": "イナサトマチシモヒガノ",
    "street": "１１６３",
    "office_name": "長野日本無線　株式会社",
    "office_name_kana": "ナガノニホンムセン カブシキガイシヤ"
  },
  "2289": {
    "postcode": "3812289",
    "prefecture": "長野県",
    "prefecture_kana": "ナガノケン",
    "prefecture_code": 20,
    "city": "長野市",
    "city_kana": "ナガノシ",
    "town": "稲里町",
    "town_kana": null,
    "street": "８３４番地",
    "office_name": "日本無線　株式会社　長野事業所",
    "office_name_kana": "ニホンムセン カブシキガイシヤ ナガノジギヨウシヨ"
  },
  "2292": {
    "postcode": "3812292",
    "prefecture": "長野県",
    "prefecture_kana": "ナガノケン",
    "prefecture_code": 20,
    "city": "長野市",
    "city_kana": "ナガノシ",
    "town": "川中島町御厨",
    "town_kana": "カワナカジママチミクリヤ",
    "street": "３７",
    "office_name": "株式会社　エス・エス・ブイ",
    "office_name_kana": "カブシキガイシヤ エス・エス・ブイ"
  },
  "2295": {
    "postcode": "3812295",
    "prefecture": "長野県",
    "prefecture_kana": "ナガノケン",
    "prefecture_code": 20,
    "city": "長野市",
    "city_kana": "ナガノシ",
    "town": "篠ノ井岡田",
    "town_kana": "シノノイオカダ",
    "street": "５００",
    "office_name": "セラテックジャパン　（株）",
    "office_name_kana": "セラテツクジヤパン カブシキガイシヤ"
  },
  "2298": {
    "postcode": "3812298",
    "prefecture": "長野県",
    "prefecture_kana": "ナガノケン",
    "prefecture_code": 20,
    "city": "長野市",
    "city_kana": "ナガノシ",
    "town": "稲里町田牧",
    "town_kana": "イナサトマチタマキ",
    "street": "２０６−１",
    "office_name": "財団法人　長野県健康づくり事業団",
    "office_name_kana": "ザイダンホウジン ナガノケンケンコウヅクリジギヨウダン"
  },
  "2341": {
    "postcode": "3812341",
    "prefecture": "長野県",
    "prefecture_kana": "ナガノケン",
    "prefecture_code": 20,
    "city": "長野市",
    "city_kana": "ナガノシ",
    "town": "信更町下平",
    "town_kana": "シンコウマチシモダイラ",
    "street": null,
    "office_name": null,
    "office_name_kana": null
  },
  "2342": {
    "postcode": "3812342",
    "prefecture": "長野県",
    "prefecture_kana": "ナガノケン",
    "prefecture_code": 20,
    "city": "長野市",
    "city_kana": "ナガノシ",
    "town": "信更町宮平",
    "town_kana": "シンコウマチミヤダイラ",
    "street": null,
    "office_name": null,
    "office_name_kana": null
  },
  "2343": {
    "postcode": "3812343",
    "prefecture": "長野県",
    "prefecture_kana": "ナガノケン",
    "prefecture_code": 20,
    "city": "長野市",
    "city_kana": "ナガノシ",
    "town": "信更町桜井",
    "town_kana": "シンコウマチサクライ",
    "street": null,
    "office_name": null,
    "office_name_kana": null
  },
  "2344": {
    "postcode": "3812344",
    "prefecture": "長野県",
    "prefecture_kana": "ナガノケン",
    "prefecture_code": 20,
    "city": "長野市",
    "city_kana": "ナガノシ",
    "town": "信更町上尾",
    "town_kana": "シンコウマチアゲオ",
    "street": null,
    "office_name": null,
    "office_name_kana": null
  },
  "2345": {
    "postcode": "3812345",
    "prefecture": "長野県",
    "prefecture_kana": "ナガノケン",
    "prefecture_code": 20,
    "city": "長野市",
    "city_kana": "ナガノシ",
    "town": "信更町涌池",
    "town_kana": "シンコウマチワクイケ",
    "street": null,
    "office_name": null,
    "office_name_kana": null
  },
  "2346": {
    "postcode": "3812346",
    "prefecture": "長野県",
    "prefecture_kana": "ナガノケン",
    "prefecture_code": 20,
    "city": "長野市",
    "city_kana": "ナガノシ",
    "town": "信更町安庭",
    "town_kana": "シンコウマチヤスニワ",
    "street": null,
    "office_name": null,
    "office_name_kana": null
  },
  "2347": {
    "postcode": "3812347",
    "prefecture": "長野県",
    "prefecture_kana": "ナガノケン",
    "prefecture_code": 20,
    "city": "長野市",
    "city_kana": "ナガノシ",
    "town": "信更町古藤",
    "town_kana": "シンコウマチフルフジ",
    "street": null,
    "office_name": null,
    "office_name_kana": null
  },
  "2351": {
    "postcode": "3812351",
    "prefecture": "長野県",
    "prefecture_kana": "ナガノケン",
    "prefecture_code": 20,
    "city": "長野市",
    "city_kana": "ナガノシ",
    "town": "信更町氷ノ田",
    "town_kana": "シンコウマチヒノタ",
    "street": null,
    "office_name": null,
    "office_name_kana": null
  },
  "2352": {
    "postcode": "3812352",
    "prefecture": "長野県",
    "prefecture_kana": "ナガノケン",
    "prefecture_code": 20,
    "city": "長野市",
    "city_kana": "ナガノシ",
    "town": "信更町赤田",
    "town_kana": "シンコウマチアカダ",
    "street": null,
    "office_name": null,
    "office_name_kana": null
  },
  "2353": {
    "postcode": "3812353",
    "prefecture": "長野県",
    "prefecture_kana": "ナガノケン",
    "prefecture_code": 20,
    "city": "長野市",
    "city_kana": "ナガノシ",
    "town": "信更町田野口",
    "town_kana": "シンコウマチタノクチ",
    "street": null,
    "office_name": null,
    "office_name_kana": null
  },
  "2354": {
    "postcode": "3812354",
    "prefecture": "長野県",
    "prefecture_kana": "ナガノケン",
    "prefecture_code": 20,
    "city": "長野市",
    "city_kana": "ナガノシ",
    "town": "信更町田沢",
    "town_kana": "シンコウマチタザワ",
    "street": null,
    "office_name": null,
    "office_name_kana": null
  },
  "2355": {
    "postcode": "3812355",
    "prefecture": "長野県",
    "prefecture_kana": "ナガノケン",
    "prefecture_code": 20,
    "city": "長野市",
    "city_kana": "ナガノシ",
    "town": "信更町高野",
    "town_kana": "シンコウマチタカノ",
    "street": null,
    "office_name": null,
    "office_name_kana": null
  },
  "2356": {
    "postcode": "3812356",
    "prefecture": "長野県",
    "prefecture_kana": "ナガノケン",
    "prefecture_code": 20,
    "city": "長野市",
    "city_kana": "ナガノシ",
    "town": "信更町吉原",
    "town_kana": "シンコウマチヨシワラ",
    "street": null,
    "office_name": null,
    "office_name_kana": null
  },
  "2357": {
    "postcode": "3812357",
    "prefecture": "長野県",
    "prefecture_kana": "ナガノケン",
    "prefecture_code": 20,
    "city": "長野市",
    "city_kana": "ナガノシ",
    "town": "信更町灰原",
    "town_kana": "シンコウマチハイバラ",
    "street": null,
    "office_name": null,
    "office_name_kana": null
  },
  "2358": {
    "postcode": "3812358",
    "prefecture": "長野県",
    "prefecture_kana": "ナガノケン",
    "prefecture_code": 20,
    "city": "長野市",
    "city_kana": "ナガノシ",
    "town": "信更町今泉",
    "town_kana": "シンコウマチイマイズミ",
    "street": null,
    "office_name": null,
    "office_name_kana": null
  },
  "2359": {
    "postcode": "3812359",
    "prefecture": "長野県",
    "prefecture_kana": "ナガノケン",
    "prefecture_code": 20,
    "city": "長野市",
    "city_kana": "ナガノシ",
    "town": "信更町三水",
    "town_kana": "シンコウマチサミズ",
    "street": null,
    "office_name": null,
    "office_name_kana": null
  },
  "2401": {
    "postcode": "3812401",
    "prefecture": "長野県",
    "prefecture_kana": "ナガノケン",
    "prefecture_code": 20,
    "city": "長野市",
    "city_kana": "ナガノシ",
    "town": "信州新町越道",
    "town_kana": "シンシュウシンマチコエドウ",
    "street": null,
    "office_name": null,
    "office_name_kana": null
  },
  "2402": {
    "postcode": "3812402",
    "prefecture": "長野県",
    "prefecture_kana": "ナガノケン",
    "prefecture_code": 20,
    "city": "長野市",
    "city_kana": "ナガノシ",
    "town": "信州新町山上条",
    "town_kana": "シンシュウシンマチヤマカミジョウ",
    "street": null,
    "office_name": null,
    "office_name_kana": null
  },
  "2403": {
    "postcode": "3812403",
    "prefecture": "長野県",
    "prefecture_kana": "ナガノケン",
    "prefecture_code": 20,
    "city": "長野市",
    "city_kana": "ナガノシ",
    "town": "信州新町水内",
    "town_kana": "シンシュウシンマチミノチ",
    "street": null,
    "office_name": null,
    "office_name_kana": null
  },
  "2404": {
    "postcode": "3812404",
    "prefecture": "長野県",
    "prefecture_kana": "ナガノケン",
    "prefecture_code": 20,
    "city": "長野市",
    "city_kana": "ナガノシ",
    "town": "信州新町上条",
    "town_kana": "シンシュウシンマチカミジョウ",
    "street": null,
    "office_name": null,
    "office_name_kana": null
  },
  "2405": {
    "postcode": "3812405",
    "prefecture": "長野県",
    "prefecture_kana": "ナガノケン",
    "prefecture_code": 20,
    "city": "長野市",
    "city_kana": "ナガノシ",
    "town": "信州新町新町",
    "town_kana": "シンシュウシンマチシンマチ",
    "street": null,
    "office_name": null,
    "office_name_kana": null
  },
  "2406": {
    "postcode": "3812406",
    "prefecture": "長野県",
    "prefecture_kana": "ナガノケン",
    "prefecture_code": 20,
    "city": "長野市",
    "city_kana": "ナガノシ",
    "town": "信州新町里穂刈",
    "town_kana": "シンシュウシンマチサトホカリ",
    "street": null,
    "office_name": null,
    "office_name_kana": null
  },
  "2407": {
    "postcode": "3812407",
    "prefecture": "長野県",
    "prefecture_kana": "ナガノケン",
    "prefecture_code": 20,
    "city": "長野市",
    "city_kana": "ナガノシ",
    "town": "信州新町山穂刈",
    "town_kana": "シンシュウシンマチヤマホカリ",
    "street": null,
    "office_name": null,
    "office_name_kana": null
  },
  "2411": {
    "postcode": "3812411",
    "prefecture": "長野県",
    "prefecture_kana": "ナガノケン",
    "prefecture_code": 20,
    "city": "長野市",
    "city_kana": "ナガノシ",
    "town": "信州新町竹房",
    "town_kana": "シンシュウシンマチタケブサ",
    "street": null,
    "office_name": null,
    "office_name_kana": null
  },
  "2412": {
    "postcode": "3812412",
    "prefecture": "長野県",
    "prefecture_kana": "ナガノケン",
    "prefecture_code": 20,
    "city": "長野市",
    "city_kana": "ナガノシ",
    "town": "信州新町牧野島",
    "town_kana": "シンシュウシンマチマキノシマ",
    "street": null,
    "office_name": null,
    "office_name_kana": null
  },
  "2413": {
    "postcode": "3812413",
    "prefecture": "長野県",
    "prefecture_kana": "ナガノケン",
    "prefecture_code": 20,
    "city": "長野市",
    "city_kana": "ナガノシ",
    "town": "信州新町下市場",
    "town_kana": "シンシュウシンマチシモイチバ",
    "street": null,
    "office_name": null,
    "office_name_kana": null
  },
  "2414": {
    "postcode": "3812414",
    "prefecture": "長野県",
    "prefecture_kana": "ナガノケン",
    "prefecture_code": 20,
    "city": "長野市",
    "city_kana": "ナガノシ",
    "town": "信州新町牧田中",
    "town_kana": "シンシュウシンマチマキダナカ",
    "street": null,
    "office_name": null,
    "office_name_kana": null
  },
  "2415": {
    "postcode": "3812415",
    "prefecture": "長野県",
    "prefecture_kana": "ナガノケン",
    "prefecture_code": 20,
    "city": "長野市",
    "city_kana": "ナガノシ",
    "town": "信州新町中牧",
    "town_kana": "シンシュウシンマチナカマキ",
    "street": null,
    "office_name": null,
    "office_name_kana": null
  },
  "2416": {
    "postcode": "3812416",
    "prefecture": "長野県",
    "prefecture_kana": "ナガノケン",
    "prefecture_code": 20,
    "city": "長野市",
    "city_kana": "ナガノシ",
    "town": "信州新町弘崎",
    "town_kana": "シンシュウシンマチヒロサキ",
    "street": null,
    "office_name": null,
    "office_name_kana": null
  },
  "2421": {
    "postcode": "3812421",
    "prefecture": "長野県",
    "prefecture_kana": "ナガノケン",
    "prefecture_code": 20,
    "city": "長野市",
    "city_kana": "ナガノシ",
    "town": "信州新町信級",
    "town_kana": "シンシュウシンマチノブシナ",
    "street": null,
    "office_name": null,
    "office_name_kana": null
  },
  "2422": {
    "postcode": "3812422",
    "prefecture": "長野県",
    "prefecture_kana": "ナガノケン",
    "prefecture_code": 20,
    "city": "長野市",
    "city_kana": "ナガノシ",
    "town": "信州新町日原東",
    "town_kana": "シンシュウシンマチヒハラヒガシ",
    "street": null,
    "office_name": null,
    "office_name_kana": null
  },
  "2423": {
    "postcode": "3812423",
    "prefecture": "長野県",
    "prefecture_kana": "ナガノケン",
    "prefecture_code": 20,
    "city": "長野市",
    "city_kana": "ナガノシ",
    "town": "信州新町日原西",
    "town_kana": "シンシュウシンマチヒハラニシ",
    "street": null,
    "office_name": null,
    "office_name_kana": null
  },
  "2424": {
    "postcode": "3812424",
    "prefecture": "長野県",
    "prefecture_kana": "ナガノケン",
    "prefecture_code": 20,
    "city": "長野市",
    "city_kana": "ナガノシ",
    "town": "信州新町左右",
    "town_kana": "シンシュウシンマチソウ",
    "street": null,
    "office_name": null,
    "office_name_kana": null
  },
  "2701": {
    "postcode": "3812701",
    "prefecture": "長野県",
    "prefecture_kana": "ナガノケン",
    "prefecture_code": 20,
    "city": "長野市",
    "city_kana": "ナガノシ",
    "town": "大岡中牧",
    "town_kana": "オオオカナカマキ",
    "street": null,
    "office_name": null,
    "office_name_kana": null
  },
  "2702": {
    "postcode": "3812702",
    "prefecture": "長野県",
    "prefecture_kana": "ナガノケン",
    "prefecture_code": 20,
    "city": "長野市",
    "city_kana": "ナガノシ",
    "town": "大岡丙",
    "town_kana": "オオオカヘイ",
    "street": null,
    "office_name": null,
    "office_name_kana": null
  },
  "2703": {
    "postcode": "3812703",
    "prefecture": "長野県",
    "prefecture_kana": "ナガノケン",
    "prefecture_code": 20,
    "city": "長野市",
    "city_kana": "ナガノシ",
    "town": "大岡乙",
    "town_kana": "オオオカオツ",
    "street": null,
    "office_name": null,
    "office_name_kana": null
  },
  "2704": {
    "postcode": "3812704",
    "prefecture": "長野県",
    "prefecture_kana": "ナガノケン",
    "prefecture_code": 20,
    "city": "長野市",
    "city_kana": "ナガノシ",
    "town": "大岡甲",
    "town_kana": "オオオカコウ",
    "street": null,
    "office_name": null,
    "office_name_kana": null
  },
  "2705": {
    "postcode": "3812705",
    "prefecture": "長野県",
    "prefecture_kana": "ナガノケン",
    "prefecture_code": 20,
    "city": "長野市",
    "city_kana": "ナガノシ",
    "town": "大岡弘崎",
    "town_kana": "オオオカヒロサキ",
    "street": null,
    "office_name": null,
    "office_name_kana": null
  },
  "3161": {
    "postcode": "3813161",
    "prefecture": "長野県",
    "prefecture_kana": "ナガノケン",
    "prefecture_code": 20,
    "city": "長野市",
    "city_kana": "ナガノシ",
    "town": "七二会丁",
    "town_kana": "ナニアイテイ",
    "street": null,
    "office_name": null,
    "office_name_kana": null
  },
  "3162": {
    "postcode": "3813162",
    "prefecture": "長野県",
    "prefecture_kana": "ナガノケン",
    "prefecture_code": 20,
    "city": "長野市",
    "city_kana": "ナガノシ",
    "town": "七二会戊",
    "town_kana": "ナニアイボ",
    "street": null,
    "office_name": null,
    "office_name_kana": null
  },
  "3163": {
    "postcode": "3813163",
    "prefecture": "長野県",
    "prefecture_kana": "ナガノケン",
    "prefecture_code": 20,
    "city": "長野市",
    "city_kana": "ナガノシ",
    "town": "七二会己",
    "town_kana": "ナニアイキ",
    "street": null,
    "office_name": null,
    "office_name_kana": null
  },
  "3164": {
    "postcode": "3813164",
    "prefecture": "長野県",
    "prefecture_kana": "ナガノケン",
    "prefecture_code": 20,
    "city": "長野市",
    "city_kana": "ナガノシ",
    "town": "七二会乙",
    "town_kana": "ナニアイオツ",
    "street": null,
    "office_name": null,
    "office_name_kana": null
  },
  "3165": {
    "postcode": "3813165",
    "prefecture": "長野県",
    "prefecture_kana": "ナガノケン",
    "prefecture_code": 20,
    "city": "長野市",
    "city_kana": "ナガノシ",
    "town": "七二会甲",
    "town_kana": "ナニアイコウ",
    "street": null,
    "office_name": null,
    "office_name_kana": null
  },
  "3166": {
    "postcode": "3813166",
    "prefecture": "長野県",
    "prefecture_kana": "ナガノケン",
    "prefecture_code": 20,
    "city": "長野市",
    "city_kana": "ナガノシ",
    "town": "七二会丙",
    "town_kana": "ナニアイヘイ",
    "street": null,
    "office_name": null,
    "office_name_kana": null
  },
  "3201": {
    "postcode": "3813201",
    "prefecture": "長野県",
    "prefecture_kana": "ナガノケン",
    "prefecture_code": 20,
    "city": "長野市",
    "city_kana": "ナガノシ",
    "town": "中条日高",
    "town_kana": "ナカジョウヒダカ",
    "street": null,
    "office_name": null,
    "office_name_kana": null
  },
  "3202": {
    "postcode": "3813202",
    "prefecture": "長野県",
    "prefecture_kana": "ナガノケン",
    "prefecture_code": 20,
    "city": "長野市",
    "city_kana": "ナガノシ",
    "town": "中条日下野",
    "town_kana": "ナカジョウクサガノ",
    "street": null,
    "office_name": null,
    "office_name_kana": null
  },
  "3203": {
    "postcode": "3813203",
    "prefecture": "長野県",
    "prefecture_kana": "ナガノケン",
    "prefecture_code": 20,
    "city": "長野市",
    "city_kana": "ナガノシ",
    "town": "中条",
    "town_kana": "ナカジョウ",
    "street": null,
    "office_name": null,
    "office_name_kana": null
  },
  "3204": {
    "postcode": "3813204",
    "prefecture": "長野県",
    "prefecture_kana": "ナガノケン",
    "prefecture_code": 20,
    "city": "長野市",
    "city_kana": "ナガノシ",
    "town": "中条御山里",
    "town_kana": "ナカジョウミヤマサ",
    "street": null,
    "office_name": null,
    "office_name_kana": null
  },
  "3205": {
    "postcode": "3813205",
    "prefecture": "長野県",
    "prefecture_kana": "ナガノケン",
    "prefecture_code": 20,
    "city": "長野市",
    "city_kana": "ナガノシ",
    "town": "中条住良木",
    "town_kana": "ナカジョウスメラギ",
    "street": null,
    "office_name": null,
    "office_name_kana": null
  },
  "3300": {
    "postcode": "3813300",
    "prefecture": "長野県",
    "prefecture_kana": "ナガノケン",
    "prefecture_code": 20,
    "city": "上水内郡小川村",
    "city_kana": "カミミノチグンオガワムラ",
    "town": "",
    "town_kana": "",
    "street": null,
    "office_name": null,
    "office_name_kana": null
  },
  "3301": {
    "postcode": "3813301",
    "prefecture": "長野県",
    "prefecture_kana": "ナガノケン",
    "prefecture_code": 20,
    "city": "上水内郡小川村",
    "city_kana": "カミミノチグンオガワムラ",
    "town": "稲丘",
    "town_kana": "イナオカ",
    "street": null,
    "office_name": null,
    "office_name_kana": null
  },
  "3302": {
    "postcode": "3813302",
    "prefecture": "長野県",
    "prefecture_kana": "ナガノケン",
    "prefecture_code": 20,
    "city": "上水内郡小川村",
    "city_kana": "カミミノチグンオガワムラ",
    "town": "高府",
    "town_kana": "タカフ",
    "street": null,
    "office_name": null,
    "office_name_kana": null
  },
  "3303": {
    "postcode": "3813303",
    "prefecture": "長野県",
    "prefecture_kana": "ナガノケン",
    "prefecture_code": 20,
    "city": "上水内郡小川村",
    "city_kana": "カミミノチグンオガワムラ",
    "town": "小根山",
    "town_kana": "オネヤマ",
    "street": null,
    "office_name": null,
    "office_name_kana": null
  },
  "3304": {
    "postcode": "3813304",
    "prefecture": "長野県",
    "prefecture_kana": "ナガノケン",
    "prefecture_code": 20,
    "city": "上水内郡小川村",
    "city_kana": "カミミノチグンオガワムラ",
    "town": "瀬戸川",
    "town_kana": "セトガワ",
    "street": null,
    "office_name": null,
    "office_name_kana": null
  },
  "4101": {
    "postcode": "3814101",
    "prefecture": "長野県",
    "prefecture_kana": "ナガノケン",
    "prefecture_code": 20,
    "city": "長野市",
    "city_kana": "ナガノシ",
    "town": "戸隠",
    "town_kana": "トガクシ",
    "street": null,
    "office_name": null,
    "office_name_kana": null
  },
  "4102": {
    "postcode": "3814102",
    "prefecture": "長野県",
    "prefecture_kana": "ナガノケン",
    "prefecture_code": 20,
    "city": "長野市",
    "city_kana": "ナガノシ",
    "town": "戸隠豊岡",
    "town_kana": "トガクシトヨオカ",
    "street": null,
    "office_name": null,
    "office_name_kana": null
  },
  "4103": {
    "postcode": "3814103",
    "prefecture": "長野県",
    "prefecture_kana": "ナガノケン",
    "prefecture_code": 20,
    "city": "長野市",
    "city_kana": "ナガノシ",
    "town": "戸隠祖山",
    "town_kana": "トガクシソヤマ",
    "street": null,
    "office_name": null,
    "office_name_kana": null
  },
  "4104": {
    "postcode": "3814104",
    "prefecture": "長野県",
    "prefecture_kana": "ナガノケン",
    "prefecture_code": 20,
    "city": "長野市",
    "city_kana": "ナガノシ",
    "town": "戸隠栃原",
    "town_kana": "トガクシトチワラ",
    "street": null,
    "office_name": null,
    "office_name_kana": null
  },
  "4192": {
    "postcode": "3814192",
    "prefecture": "長野県",
    "prefecture_kana": "ナガノケン",
    "prefecture_code": 20,
    "city": "長野市",
    "city_kana": "ナガノシ",
    "town": "戸隠豊岡",
    "town_kana": "トガクシトヨオカ",
    "street": "１５５４",
    "office_name": "長野市役所　戸隠支所",
    "office_name_kana": "ナガノシヤクシヨ トガクシシシヨ"
  },
  "4193": {
    "postcode": "3814193",
    "prefecture": "長野県",
    "prefecture_kana": "ナガノケン",
    "prefecture_code": 20,
    "city": "長野市",
    "city_kana": "ナガノシ",
    "town": "戸隠",
    "town_kana": "トガクシ",
    "street": "２６４０",
    "office_name": "株式会社　おびなた",
    "office_name_kana": "カブシキガイシヤ オビナタ"
  },
  "4301": {
    "postcode": "3814301",
    "prefecture": "長野県",
    "prefecture_kana": "ナガノケン",
    "prefecture_code": 20,
    "city": "長野市",
    "city_kana": "ナガノシ",
    "town": "鬼無里",
    "town_kana": "キナサ",
    "street": null,
    "office_name": null,
    "office_name_kana": null
  },
  "4302": {
    "postcode": "3814302",
    "prefecture": "長野県",
    "prefecture_kana": "ナガノケン",
    "prefecture_code": 20,
    "city": "長野市",
    "city_kana": "ナガノシ",
    "town": "鬼無里日影",
    "town_kana": "キナサヒカゲ",
    "street": null,
    "office_name": null,
    "office_name_kana": null
  },
  "4303": {
    "postcode": "3814303",
    "prefecture": "長野県",
    "prefecture_kana": "ナガノケン",
    "prefecture_code": 20,
    "city": "長野市",
    "city_kana": "ナガノシ",
    "town": "鬼無里日下野",
    "town_kana": "キナサクサガノ",
    "street": null,
    "office_name": null,
    "office_name_kana": null
  },
  "4393": {
    "postcode": "3814393",
    "prefecture": "長野県",
    "prefecture_kana": "ナガノケン",
    "prefecture_code": 20,
    "city": "長野市",
    "city_kana": "ナガノシ",
    "town": "鬼無里",
    "town_kana": "キナサ",
    "street": "１６８７−１",
    "office_name": "有限会社　いろは堂",
    "office_name_kana": "ユウゲンガイシヤ イロハドウ"
  },
  "8501": {
    "postcode": "3818501",
    "prefecture": "長野県",
    "prefecture_kana": "ナガノケン",
    "prefecture_code": 20,
    "city": "長野市",
    "city_kana": "ナガノシ",
    "town": "北尾張部",
    "town_kana": "キタオワリベ",
    "street": "３６",
    "office_name": "ＦＩＣＴ　株式会社",
    "office_name_kana": "エフアイシ-テイ カブシキガイシヤ"
  },
  "8503": {
    "postcode": "3818503",
    "prefecture": "長野県",
    "prefecture_kana": "ナガノケン",
    "prefecture_code": 20,
    "city": "長野市",
    "city_kana": "ナガノシ",
    "town": "大字西和田",
    "town_kana": null,
    "street": "４２８−１",
    "office_name": "新潟運輸局　長野陸運支局",
    "office_name_kana": "ニイガタウンユキヨク ナガノリクウンシキヨク"
  },
  "8508": {
    "postcode": "3818508",
    "prefecture": "長野県",
    "prefecture_kana": "ナガノケン",
    "prefecture_code": 20,
    "city": "長野市",
    "city_kana": "ナガノシ",
    "town": "大字北長池",
    "town_kana": null,
    "street": "１９５１−５",
    "office_name": "株式会社　デジタル・ラボラトリー",
    "office_name_kana": "カブシキガイシヤ デジタル・ラボラトリ-"
  },
  "8510": {
    "postcode": "3818510",
    "prefecture": "長野県",
    "prefecture_kana": "ナガノケン",
    "prefecture_code": 20,
    "city": "長野市",
    "city_kana": "ナガノシ",
    "town": "西和田",
    "town_kana": "ニシワダ",
    "street": "一丁目３５番２号",
    "office_name": "一般社団法人　長野県自動車整備振興会",
    "office_name_kana": "イツパンシヤダンホウジン ナガノケンジドウシヤセイビシンコウカイ"
  },
  "8511": {
    "postcode": "3818511",
    "prefecture": "長野県",
    "prefecture_kana": "ナガノケン",
    "prefecture_code": 20,
    "city": "長野市",
    "city_kana": "ナガノシ",
    "town": "大字平林",
    "town_kana": null,
    "street": "２８０",
    "office_name": "蔦友印刷　株式会社",
    "office_name_kana": "ツタトモインサツ カブシキガイシヤ"
  },
  "8515": {
    "postcode": "3818515",
    "prefecture": "長野県",
    "prefecture_kana": "ナガノケン",
    "prefecture_code": 20,
    "city": "長野市",
    "city_kana": "ナガノシ",
    "town": "平林",
    "town_kana": "ヒラバヤシ",
    "street": "１−３６−３",
    "office_name": "大和ハウス工業　株式会社　長野支店",
    "office_name_kana": "ダイワハウスコウギヨウ カブシキガイシヤ ナガノシテン"
  },
  "8520": {
    "postcode": "3818520",
    "prefecture": "長野県",
    "prefecture_kana": "ナガノケン",
    "prefecture_code": 20,
    "city": "長野市",
    "city_kana": "ナガノシ",
    "town": "大字柳原",
    "town_kana": null,
    "street": "１６２５−２",
    "office_name": "株式会社　シンエイハイテック",
    "office_name_kana": "カブシキガイシヤ シンエイハイテツク"
  },
  "8525": {
    "postcode": "3818525",
    "prefecture": "長野県",
    "prefecture_kana": "ナガノケン",
    "prefecture_code": 20,
    "city": "長野市",
    "city_kana": "ナガノシ",
    "town": "大字南長池",
    "town_kana": null,
    "street": "７１３−１",
    "office_name": "株式会社　デンセン",
    "office_name_kana": "カブシキガイシヤ デンセン"
  },
  "8530": {
    "postcode": "3818530",
    "prefecture": "長野県",
    "prefecture_kana": "ナガノケン",
    "prefecture_code": 20,
    "city": "長野市",
    "city_kana": "ナガノシ",
    "town": "大字北長池",
    "town_kana": null,
    "street": "１４４３−２",
    "office_name": "麻場産業　株式会社",
    "office_name_kana": "アサバサンギヨウ カブシキガイシヤ"
  },
  "8539": {
    "postcode": "3818539",
    "prefecture": "長野県",
    "prefecture_kana": "ナガノケン",
    "prefecture_code": 20,
    "city": "長野市",
    "city_kana": "ナガノシ",
    "town": "大字南長池",
    "town_kana": null,
    "street": "３６９−５",
    "office_name": "松田産業　株式会社",
    "office_name_kana": "マツダサンギヨウ カブシキガイシヤ"
  },
  "8545": {
    "postcode": "3818545",
    "prefecture": "長野県",
    "prefecture_kana": "ナガノケン",
    "prefecture_code": 20,
    "city": "長野市",
    "city_kana": "ナガノシ",
    "town": "大字高田",
    "town_kana": null,
    "street": "６６７−１６",
    "office_name": "株式会社　クリエイティブヨーコ",
    "office_name_kana": "カブシキガイシヤ クリエイテイブヨ-コ"
  },
  "8548": {
    "postcode": "3818548",
    "prefecture": "長野県",
    "prefecture_kana": "ナガノケン",
    "prefecture_code": 20,
    "city": "長野市",
    "city_kana": "ナガノシ",
    "town": "北長池",
    "town_kana": "キタナガイケ",
    "street": "１８９８−１０",
    "office_name": "株式会社　ＴＯＳＹＳ",
    "office_name_kana": "カブシキガイシヤ ト-シス"
  },
  "8550": {
    "postcode": "3818550",
    "prefecture": "長野県",
    "prefecture_kana": "ナガノケン",
    "prefecture_code": 20,
    "city": "長野市",
    "city_kana": "ナガノシ",
    "town": "大字徳間",
    "town_kana": null,
    "street": "７１６",
    "office_name": "長野工業高等専門学校",
    "office_name_kana": "ナガノコウギヨウコウトウセンモンガツコウ"
  },
  "8551": {
    "postcode": "3818551",
    "prefecture": "長野県",
    "prefecture_kana": "ナガノケン",
    "prefecture_code": 20,
    "city": "長野市",
    "city_kana": "ナガノシ",
    "town": "大字富竹",
    "town_kana": null,
    "street": "１３３３番地１",
    "office_name": "長野市民病院",
    "office_name_kana": "ナガノシミンビヨウイン"
  },
  "8556": {
    "postcode": "3818556",
    "prefecture": "長野県",
    "prefecture_kana": "ナガノケン",
    "prefecture_code": 20,
    "city": "長野市",
    "city_kana": "ナガノシ",
    "town": "大字南長池",
    "town_kana": null,
    "street": "７１０−３",
    "office_name": "長野県　トラック会館",
    "office_name_kana": "ナガノケン トラツクカイカン"
  },
  "8558": {
    "postcode": "3818558",
    "prefecture": "長野県",
    "prefecture_kana": "ナガノケン",
    "prefecture_code": 20,
    "city": "長野市",
    "city_kana": "ナガノシ",
    "town": "吉田",
    "town_kana": "ヨシダ",
    "street": "３丁目６−１５",
    "office_name": "長野北社会保険事務所",
    "office_name_kana": "ナガノキタシヤカイホケンジムシヨ"
  },
  "8560": {
    "postcode": "3818560",
    "prefecture": "長野県",
    "prefecture_kana": "ナガノケン",
    "prefecture_code": 20,
    "city": "長野市",
    "city_kana": "ナガノシ",
    "town": "大字中越",
    "town_kana": null,
    "street": "１−１−１",
    "office_name": "岡谷酸素　株式会社　長野事業部",
    "office_name_kana": "オカヤサンソ カブシキガイシヤ ナガノジギヨウブ"
  },
  "8567": {
    "postcode": "3818567",
    "prefecture": "長野県",
    "prefecture_kana": "ナガノケン",
    "prefecture_code": 20,
    "city": "長野市",
    "city_kana": "ナガノシ",
    "town": "上野",
    "town_kana": "ウワノ",
    "street": "２丁目４７７",
    "office_name": "国立療養所　東長野病院",
    "office_name_kana": "コクリツリヨウヨウジヨ ヒガシナガノビヨウイン"
  },
  "8570": {
    "postcode": "3818570",
    "prefecture": "長野県",
    "prefecture_kana": "ナガノケン",
    "prefecture_code": 20,
    "city": "長野市",
    "city_kana": "ナガノシ",
    "town": "吉田",
    "town_kana": "ヨシダ",
    "street": "２丁目１２−９",
    "office_name": "長野県立　長野吉田高校",
    "office_name_kana": "ナガノケンリツ ナガノヨシダコウコウ"
  },
  "8577": {
    "postcode": "3818577",
    "prefecture": "長野県",
    "prefecture_kana": "ナガノケン",
    "prefecture_code": 20,
    "city": "長野市",
    "city_kana": "ナガノシ",
    "town": "大字下駒沢",
    "town_kana": null,
    "street": "６１８−１",
    "office_name": "長野県　身体障害者リハビリテーションセンター",
    "office_name_kana": "ナガノケン シンタイシヨウガイシヤリハビリテ-シヨンセンタ-"
  },
  "8580": {
    "postcode": "3818580",
    "prefecture": "長野県",
    "prefecture_kana": "ナガノケン",
    "prefecture_code": 20,
    "city": "長野市",
    "city_kana": "ナガノシ",
    "town": "",
    "town_kana": "",
    "street": "徳間１４４３",
    "office_name": "社会福祉法人　長野若槻園",
    "office_name_kana": "シヤカイフクシホウジン ナガノワカツキエン"
  },
  "8588": {
    "postcode": "3818588",
    "prefecture": "長野県",
    "prefecture_kana": "ナガノケン",
    "prefecture_code": 20,
    "city": "長野市",
    "city_kana": "ナガノシ",
    "town": "桐原",
    "town_kana": "キリハラ",
    "street": "１丁目３番５号",
    "office_name": "株式会社　本久",
    "office_name_kana": "カブシキガイシヤ モトキユウ"
  },
  "8602": {
    "postcode": "3818602",
    "prefecture": "長野県",
    "prefecture_kana": "ナガノケン",
    "prefecture_code": 20,
    "city": "長野市",
    "city_kana": "ナガノシ",
    "town": "大字東和田",
    "town_kana": null,
    "street": "８０６（長野東郵便局私書箱第２号）",
    "office_name": "富国物産　株式会社",
    "office_name_kana": "フコクブツサン カブシキガイシヤ"
  },
  "8686": {
    "postcode": "3818686",
    "prefecture": "長野県",
    "prefecture_kana": "ナガノケン",
    "prefecture_code": 20,
    "city": "長野市",
    "city_kana": "ナガノシ",
    "town": "大字屋島",
    "town_kana": null,
    "street": "南屋島５１５（長野東郵便局私書箱第３号）",
    "office_name": "株式会社　角藤",
    "office_name_kana": "カブシキガイシヤ カクトウ"
  },
  "8793": {
    "postcode": "3818793",
    "prefecture": "長野県",
    "prefecture_kana": "ナガノケン",
    "prefecture_code": 20,
    "city": "長野市",
    "city_kana": "ナガノシ",
    "town": "大字栗田",
    "town_kana": null,
    "street": "８０１",
    "office_name": "日本郵便　株式会社　信越支社　郵便事業本部　（三種）",
    "office_name_kana": "ニホンユウビン カブシキガイシヤ シンエツシシヤ ユウビンジギヨウホンブ(サンシユ)"
  }
}