{
  "0100": {
    "postcode": "3890100",
    "prefecture": "長野県",
    "prefecture_kana": "ナガノケン",
    "prefecture_code": 20,
    "city": "北佐久郡軽井沢町",
    "city_kana": "キタサクグンカルイザワマチ",
    "town": "",
    "town_kana": "",
    "street": null,
    "office_name": null,
    "office_name_kana": null
  },
  "0101": {
    "postcode": "3890101",
    "prefecture": "長野県",
    "prefecture_kana": "ナガノケン",
    "prefecture_code": 20,
    "city": "北佐久郡軽井沢町",
    "city_kana": "キタサクグンカルイザワマチ",
    "town": "峠町",
    "town_kana": "トウゲマチ",
    "street": null,
    "office_name": null,
    "office_name_kana": null
  },
  "0102": [
    {
      "postcode": "3890102",
      "prefecture": "長野県",
      "prefecture_kana": "ナガノケン",
      "prefecture_code": 20,
      "city": "北佐久郡軽井沢町",
      "city_kana": "キタサクグンカルイザワマチ",
      "town": "軽井沢",
      "town_kana": "カルイザワ",
      "street": null,
      "office_name": null,
      "office_name_kana": null
    },
    {
      "postcode": "3890102",
      "prefecture": "長野県",
      "prefecture_kana": "ナガノケン",
      "prefecture_code": 20,
      "city": "北佐久郡軽井沢町",
      "city_kana": "キタサクグンカルイザワマチ",
      "town": "軽井沢大字",
      "town_kana": "カルイザワオオアザ",
      "street": null,
      "office_name": null,
      "office_name_kana": null
    }
  ],
  "0103": {
    "postcode": "3890103",
    "prefecture": "長野県",
    "prefecture_kana": "ナガノケン",
    "prefecture_code": 20,
    "city": "北佐久郡軽井沢町",
    "city_kana": "キタサクグンカルイザワマチ",
    "town": "軽井沢",
    "town_kana": "カルイザワ",
    "street": null,
    "office_name": null,
    "office_name_kana": null
  },
  "0104": {
    "postcode": "3890104",
    "prefecture": "長野県",
    "prefecture_kana": "ナガノケン",
    "prefecture_code": 20,
    "city": "北佐久郡軽井沢町",
    "city_kana": "キタサクグンカルイザワマチ",
    "town": "軽井沢東",
    "town_kana": "カルイザワヒガシ",
    "street": null,
    "office_name": null,
    "office_name_kana": null
  },
  "0111": {
    "postcode": "3890111",
    "prefecture": "長野県",
    "prefecture_kana": "ナガノケン",
    "prefecture_code": 20,
    "city": "北佐久郡軽井沢町",
    "city_kana": "キタサクグンカルイザワマチ",
    "town": "長倉",
    "town_kana": "ナガクラ",
    "street": null,
    "office_name": null,
    "office_name_kana": null
  },
  "0112": {
    "postcode": "3890112",
    "prefecture": "長野県",
    "prefecture_kana": "ナガノケン",
    "prefecture_code": 20,
    "city": "北佐久郡軽井沢町",
    "city_kana": "キタサクグンカルイザワマチ",
    "town": "中軽井沢",
    "town_kana": "ナカカルイザワ",
    "street": null,
    "office_name": null,
    "office_name_kana": null
  },
  "0113": {
    "postcode": "3890113",
    "prefecture": "長野県",
    "prefecture_kana": "ナガノケン",
    "prefecture_code": 20,
    "city": "北佐久郡軽井沢町",
    "city_kana": "キタサクグンカルイザワマチ",
    "town": "発地",
    "town_kana": "ホッチ",
    "street": null,
    "office_name": null,
    "office_name_kana": null
  },
  "0114": {
    "postcode": "3890114",
    "prefecture": "長野県",
    "prefecture_kana": "ナガノケン",
    "prefecture_code": 20,
    "city": "北佐久郡軽井沢町",
    "city_kana": "キタサクグンカルイザワマチ",
    "town": "茂沢",
    "town_kana": "モザワ",
    "street": null,
    "office_name": null,
    "office_name_kana": null
  },
  "0115": {
    "postcode": "3890115",
    "prefecture": "長野県",
    "prefecture_kana": "ナガノケン",
    "prefecture_code": 20,
    "city": "北佐久郡軽井沢町",
    "city_kana": "キタサクグンカルイザワマチ",
    "town": "追分",
    "town_kana": "オイワケ",
    "street": null,
    "office_name": null,
    "office_name_kana": null
  },
  "0121": {
    "postcode": "3890121",
    "prefecture": "群馬県",
    "prefecture_kana": "グンマケン",
    "prefecture_code": 10,
    "city": "安中市",
    "city_kana": "アンナカシ",
    "town": "松井田町峠",
    "town_kana": "マツイダマチトウゲ",
    "street": null,
    "office_name": null,
    "office_name_kana": null
  },
  "0192": {
    "postcode": "3890192",
    "prefecture": "長野県",
    "prefecture_kana": "ナガノケン",
    "prefecture_code": 20,
    "city": "北佐久郡軽井沢町",
    "city_kana": "キタサクグンカルイザワマチ",
    "town": "大字長倉",
    "town_kana": null,
    "street": "２３８１ー１",
    "office_name": "軽井沢町役場",
    "office_name_kana": "カルイザワマチヤクバ"
  },
  "0193": {
    "postcode": "3890193",
    "prefecture": "長野県",
    "prefecture_kana": "ナガノケン",
    "prefecture_code": 20,
    "city": "北佐久郡軽井沢町",
    "city_kana": "キタサクグンカルイザワマチ",
    "town": "軽井沢",
    "town_kana": "カルイザワ",
    "street": "１０１６ー７５",
    "office_name": "軽井沢プリンスホテル",
    "office_name_kana": "カルイザワプリンスホテル"
  },
  "0194": {
    "postcode": "3890194",
    "prefecture": "長野県",
    "prefecture_kana": "ナガノケン",
    "prefecture_code": 20,
    "city": "北佐久郡軽井沢町",
    "city_kana": "キタサクグンカルイザワマチ",
    "town": "大字長倉",
    "town_kana": null,
    "street": "２１４８",
    "office_name": "株式会社　星野リゾート",
    "office_name_kana": "カブシキガイシヤ ホシノリゾ-ト"
  },
  "0195": {
    "postcode": "3890195",
    "prefecture": "長野県",
    "prefecture_kana": "ナガノケン",
    "prefecture_code": 20,
    "city": "北佐久郡軽井沢町",
    "city_kana": "キタサクグンカルイザワマチ",
    "town": "大字長倉",
    "town_kana": null,
    "street": "２１４４",
    "office_name": "ホテルブレストンコート",
    "office_name_kana": "ホテルブレストンコ-ト"
  },
  "0196": {
    "postcode": "3890196",
    "prefecture": "長野県",
    "prefecture_kana": "ナガノケン",
    "prefecture_code": 20,
    "city": "北佐久郡軽井沢町",
    "city_kana": "キタサクグンカルイザワマチ",
    "town": "大字長倉",
    "town_kana": null,
    "street": "２１４８",
    "office_name": "塩壺温泉ホテル",
    "office_name_kana": "シオツボオンセンホテル"
  },
  "0197": {
    "postcode": "3890197",
    "prefecture": "長野県",
    "prefecture_kana": "ナガノケン",
    "prefecture_code": 20,
    "city": "北佐久郡軽井沢町",
    "city_kana": "キタサクグンカルイザワマチ",
    "town": "",
    "town_kana": "",
    "street": "発地南軽井沢",
    "office_name": "軽井沢７２ゴルフ",
    "office_name_kana": "カルイザワセブンツウゴルフ"
  },
  "0198": {
    "postcode": "3890198",
    "prefecture": "長野県",
    "prefecture_kana": "ナガノケン",
    "prefecture_code": 20,
    "city": "北佐久郡軽井沢町",
    "city_kana": "キタサクグンカルイザワマチ",
    "town": "大字長倉",
    "town_kana": null,
    "street": "２１４０",
    "office_name": "軽井沢千ヶ滝温泉ホテル",
    "office_name_kana": "カルイザワセンガタキオンセンホテル"
  },
  "0200": {
    "postcode": "3890200",
    "prefecture": "長野県",
    "prefecture_kana": "ナガノケン",
    "prefecture_code": 20,
    "city": "北佐久郡御代田町",
    "city_kana": "キタサクグンミヨタマチ",
    "town": "",
    "town_kana": "",
    "street": null,
    "office_name": null,
    "office_name_kana": null
  },
  "0201": {
    "postcode": "3890201",
    "prefecture": "長野県",
    "prefecture_kana": "ナガノケン",
    "prefecture_code": 20,
    "city": "北佐久郡御代田町",
    "city_kana": "キタサクグンミヨタマチ",
    "town": "塩野",
    "town_kana": "シオノ",
    "street": null,
    "office_name": null,
    "office_name_kana": null
  },
  "0202": {
    "postcode": "3890202",
    "prefecture": "長野県",
    "prefecture_kana": "ナガノケン",
    "prefecture_code": 20,
    "city": "北佐久郡御代田町",
    "city_kana": "キタサクグンミヨタマチ",
    "town": "草越",
    "town_kana": "クサゴエ",
    "street": null,
    "office_name": null,
    "office_name_kana": null
  },
  "0203": {
    "postcode": "3890203",
    "prefecture": "長野県",
    "prefecture_kana": "ナガノケン",
    "prefecture_code": 20,
    "city": "北佐久郡御代田町",
    "city_kana": "キタサクグンミヨタマチ",
    "town": "広戸",
    "town_kana": "ヒロト",
    "street": null,
    "office_name": null,
    "office_name_kana": null
  },
  "0204": {
    "postcode": "3890204",
    "prefecture": "長野県",
    "prefecture_kana": "ナガノケン",
    "prefecture_code": 20,
    "city": "北佐久郡御代田町",
    "city_kana": "キタサクグンミヨタマチ",
    "town": "豊昇",
    "town_kana": "ホウショウ",
    "street": null,
    "office_name": null,
    "office_name_kana": null
  },
  "0205": {
    "postcode": "3890205",
    "prefecture": "長野県",
    "prefecture_kana": "ナガノケン",
    "prefecture_code": 20,
    "city": "北佐久郡御代田町",
    "city_kana": "キタサクグンミヨタマチ",
    "town": "面替",
    "town_kana": "オモガエ",
    "street": null,
    "office_name": null,
    "office_name_kana": null
  },
  "0206": {
    "postcode": "3890206",
    "prefecture": "長野県",
    "prefecture_kana": "ナガノケン",
    "prefecture_code": 20,
    "city": "北佐久郡御代田町",
    "city_kana": "キタサクグンミヨタマチ",
    "town": "御代田",
    "town_kana": "ミヨタ",
    "street": null,
    "office_name": null,
    "office_name_kana": null
  },
  "0207": {
    "postcode": "3890207",
    "prefecture": "長野県",
    "prefecture_kana": "ナガノケン",
    "prefecture_code": 20,
    "city": "北佐久郡御代田町",
    "city_kana": "キタサクグンミヨタマチ",
    "town": "馬瀬口",
    "town_kana": "マセグチ",
    "street": null,
    "office_name": null,
    "office_name_kana": null
  },
  "0208": {
    "postcode": "3890208",
    "prefecture": "長野県",
    "prefecture_kana": "ナガノケン",
    "prefecture_code": 20,
    "city": "北佐久郡御代田町",
    "city_kana": "キタサクグンミヨタマチ",
    "town": "茂沢",
    "town_kana": "モサワ",
    "street": null,
    "office_name": null,
    "office_name_kana": null
  },
  "0292": {
    "postcode": "3890292",
    "prefecture": "長野県",
    "prefecture_kana": "ナガノケン",
    "prefecture_code": 20,
    "city": "北佐久郡御代田町",
    "city_kana": "キタサクグンミヨタマチ",
    "town": "馬瀬口",
    "town_kana": "マセグチ",
    "street": "１７９４番地６",
    "office_name": "御代田町役場",
    "office_name_kana": "ミヨタマチヤクバ"
  },
  "0293": {
    "postcode": "3890293",
    "prefecture": "長野県",
    "prefecture_kana": "ナガノケン",
    "prefecture_code": 20,
    "city": "北佐久郡御代田町",
    "city_kana": "キタサクグンミヨタマチ",
    "town": "大字御代田",
    "town_kana": null,
    "street": "４１０６番地７３",
    "office_name": "ミネベア　株式会社　軽井沢工場",
    "office_name_kana": "ミネベア カブシキカイシヤ カルイザワコウジヨウ"
  },
  "0295": {
    "postcode": "3890295",
    "prefecture": "長野県",
    "prefecture_kana": "ナガノケン",
    "prefecture_code": 20,
    "city": "北佐久郡御代田町",
    "city_kana": "キタサクグンミヨタマチ",
    "town": "大字御代田",
    "town_kana": null,
    "street": "４１０７番地５",
    "office_name": "シチズンファインデバイス　株式会社　御代田事業所",
    "office_name_kana": "シチズンフアインデバイス カブシキガイシヤ ミヨタジギヨウシヨ"
  },
  "0296": {
    "postcode": "3890296",
    "prefecture": "長野県",
    "prefecture_kana": "ナガノケン",
    "prefecture_code": 20,
    "city": "北佐久郡御代田町",
    "city_kana": "キタサクグンミヨタマチ",
    "town": "大字御代田",
    "town_kana": null,
    "street": "４１０６番地７３",
    "office_name": "ミネベアモータ　株式会社　軽井沢事業所",
    "office_name_kana": "ミネベアモ-タ カブシキガイシヤ カルイザワジギヨウシヨ"
  },
  "0298": {
    "postcode": "3890298",
    "prefecture": "長野県",
    "prefecture_kana": "ナガノケン",
    "prefecture_code": 20,
    "city": "北佐久郡御代田町",
    "city_kana": "キタサクグンミヨタマチ",
    "town": "大字御代田",
    "town_kana": null,
    "street": "４１０７番地５",
    "office_name": "シチズン時計ミヨタ　株式会社",
    "office_name_kana": "シチズントケイミヨタ カブシキカイシヤ"
  },
  "0401": {
    "postcode": "3890401",
    "prefecture": "長野県",
    "prefecture_kana": "ナガノケン",
    "prefecture_code": 20,
    "city": "東御市",
    "city_kana": "トウミシ",
    "town": "島川原",
    "town_kana": "シマガワラ",
    "street": null,
    "office_name": null,
    "office_name_kana": null
  },
  "0402": {
    "postcode": "3890402",
    "prefecture": "長野県",
    "prefecture_kana": "ナガノケン",
    "prefecture_code": 20,
    "city": "東御市",
    "city_kana": "トウミシ",
    "town": "布下",
    "town_kana": "ヌノシタ",
    "street": null,
    "office_name": null,
    "office_name_kana": null
  },
  "0403": {
    "postcode": "3890403",
    "prefecture": "長野県",
    "prefecture_kana": "ナガノケン",
    "prefecture_code": 20,
    "city": "東御市",
    "city_kana": "トウミシ",
    "town": "御牧原",
    "town_kana": "ミマキハラ",
    "street": null,
    "office_name": null,
    "office_name_kana": null
  },
  "0404": {
    "postcode": "3890404",
    "prefecture": "長野県",
    "prefecture_kana": "ナガノケン",
    "prefecture_code": 20,
    "city": "東御市",
    "city_kana": "トウミシ",
    "town": "大日向",
    "town_kana": "オオヒナタ",
    "street": null,
    "office_name": null,
    "office_name_kana": null
  },
  "0405": {
    "postcode": "3890405",
    "prefecture": "長野県",
    "prefecture_kana": "ナガノケン",
    "prefecture_code": 20,
    "city": "東御市",
    "city_kana": "トウミシ",
    "town": "下之城",
    "town_kana": "シモノジョウ",
    "street": null,
    "office_name": null,
    "office_name_kana": null
  },
  "0406": {
    "postcode": "3890406",
    "prefecture": "長野県",
    "prefecture_kana": "ナガノケン",
    "prefecture_code": 20,
    "city": "東御市",
    "city_kana": "トウミシ",
    "town": "八重原",
    "town_kana": "ヤエハラ",
    "street": null,
    "office_name": null,
    "office_name_kana": null
  },
  "0407": {
    "postcode": "3890407",
    "prefecture": "長野県",
    "prefecture_kana": "ナガノケン",
    "prefecture_code": 20,
    "city": "東御市",
    "city_kana": "トウミシ",
    "town": "羽毛山",
    "town_kana": "ハケヤマ",
    "street": null,
    "office_name": null,
    "office_name_kana": null
  },
  "0500": {
    "postcode": "3890500",
    "prefecture": "長野県",
    "prefecture_kana": "ナガノケン",
    "prefecture_code": 20,
    "city": "東御市",
    "city_kana": "トウミシ",
    "town": "",
    "town_kana": "",
    "street": null,
    "office_name": null,
    "office_name_kana": null
  },
  "0501": {
    "postcode": "3890501",
    "prefecture": "長野県",
    "prefecture_kana": "ナガノケン",
    "prefecture_code": 20,
    "city": "東御市",
    "city_kana": "トウミシ",
    "town": "新張",
    "town_kana": "ミハリ",
    "street": null,
    "office_name": null,
    "office_name_kana": null
  },
  "0502": {
    "postcode": "3890502",
    "prefecture": "長野県",
    "prefecture_kana": "ナガノケン",
    "prefecture_code": 20,
    "city": "東御市",
    "city_kana": "トウミシ",
    "town": "鞍掛",
    "town_kana": "クラカケ",
    "street": null,
    "office_name": null,
    "office_name_kana": null
  },
  "0503": {
    "postcode": "3890503",
    "prefecture": "長野県",
    "prefecture_kana": "ナガノケン",
    "prefecture_code": 20,
    "city": "東御市",
    "city_kana": "トウミシ",
    "town": "新屋",
    "town_kana": "アラヤ",
    "street": null,
    "office_name": null,
    "office_name_kana": null
  },
  "0504": {
    "postcode": "3890504",
    "prefecture": "長野県",
    "prefecture_kana": "ナガノケン",
    "prefecture_code": 20,
    "city": "東御市",
    "city_kana": "トウミシ",
    "town": "海善寺",
    "town_kana": "カイゼンジ",
    "street": null,
    "office_name": null,
    "office_name_kana": null
  },
  "0505": {
    "postcode": "3890505",
    "prefecture": "長野県",
    "prefecture_kana": "ナガノケン",
    "prefecture_code": 20,
    "city": "東御市",
    "city_kana": "トウミシ",
    "town": "和",
    "town_kana": "カノウ",
    "street": null,
    "office_name": null,
    "office_name_kana": null
  },
  "0506": {
    "postcode": "3890506",
    "prefecture": "長野県",
    "prefecture_kana": "ナガノケン",
    "prefecture_code": 20,
    "city": "東御市",
    "city_kana": "トウミシ",
    "town": "祢津",
    "town_kana": "ネツ",
    "street": null,
    "office_name": null,
    "office_name_kana": null
  },
  "0511": [
    {
      "postcode": "3890511",
      "prefecture": "長野県",
      "prefecture_kana": "ナガノケン",
      "prefecture_code": 20,
      "city": "東御市",
      "city_kana": "トウミシ",
      "town": "滋野",
      "town_kana": "シゲノ",
      "street": null,
      "office_name": null,
      "office_name_kana": null
    },
    {
      "postcode": "3890511",
      "prefecture": "長野県",
      "prefecture_kana": "ナガノケン",
      "prefecture_code": 20,
      "city": "東御市",
      "city_kana": "トウミシ",
      "town": "滋野甲",
      "town_kana": "シゲノコウ",
      "street": null,
      "office_name": null,
      "office_name_kana": null
    }
  ],
  "0512": [
    {
      "postcode": "3890512",
      "prefecture": "長野県",
      "prefecture_kana": "ナガノケン",
      "prefecture_code": 20,
      "city": "東御市",
      "city_kana": "トウミシ",
      "town": "滋野",
      "town_kana": "シゲノ",
      "street": null,
      "office_name": null,
      "office_name_kana": null
    },
    {
      "postcode": "3890512",
      "prefecture": "長野県",
      "prefecture_kana": "ナガノケン",
      "prefecture_code": 20,
      "city": "東御市",
      "city_kana": "トウミシ",
      "town": "滋野乙",
      "town_kana": "シゲノオツ",
      "street": null,
      "office_name": null,
      "office_name_kana": null
    }
  ],
  "0513": {
    "postcode": "3890513",
    "prefecture": "長野県",
    "prefecture_kana": "ナガノケン",
    "prefecture_code": 20,
    "city": "東御市",
    "city_kana": "トウミシ",
    "town": "滋野",
    "town_kana": "シゲノ",
    "street": null,
    "office_name": null,
    "office_name_kana": null
  },
  "0514": {
    "postcode": "3890514",
    "prefecture": "長野県",
    "prefecture_kana": "ナガノケン",
    "prefecture_code": 20,
    "city": "東御市",
    "city_kana": "トウミシ",
    "town": "加沢",
    "town_kana": "カザワ",
    "street": null,
    "office_name": null,
    "office_name_kana": null
  },
  "0515": {
    "postcode": "3890515",
    "prefecture": "長野県",
    "prefecture_kana": "ナガノケン",
    "prefecture_code": 20,
    "city": "東御市",
    "city_kana": "トウミシ",
    "town": "常田",
    "town_kana": "トキダ",
    "street": null,
    "office_name": null,
    "office_name_kana": null
  },
  "0516": {
    "postcode": "3890516",
    "prefecture": "長野県",
    "prefecture_kana": "ナガノケン",
    "prefecture_code": 20,
    "city": "東御市",
    "city_kana": "トウミシ",
    "town": "田中",
    "town_kana": "タナカ",
    "street": null,
    "office_name": null,
    "office_name_kana": null
  },
  "0517": {
    "postcode": "3890517",
    "prefecture": "長野県",
    "prefecture_kana": "ナガノケン",
    "prefecture_code": 20,
    "city": "東御市",
    "city_kana": "トウミシ",
    "town": "県",
    "town_kana": "アガタ",
    "street": null,
    "office_name": null,
    "office_name_kana": null
  },
  "0518": {
    "postcode": "3890518",
    "prefecture": "長野県",
    "prefecture_kana": "ナガノケン",
    "prefecture_code": 20,
    "city": "東御市",
    "city_kana": "トウミシ",
    "town": "本海野",
    "town_kana": "モトウンノ",
    "street": null,
    "office_name": null,
    "office_name_kana": null
  },
  "0519": {
    "postcode": "3890519",
    "prefecture": "長野県",
    "prefecture_kana": "ナガノケン",
    "prefecture_code": 20,
    "city": "東御市",
    "city_kana": "トウミシ",
    "town": "塩川",
    "town_kana": "シオカワ",
    "street": null,
    "office_name": null,
    "office_name_kana": null
  },
  "0592": {
    "postcode": "3890592",
    "prefecture": "長野県",
    "prefecture_kana": "ナガノケン",
    "prefecture_code": 20,
    "city": "東御市",
    "city_kana": "トウミシ",
    "town": "県",
    "town_kana": "アガタ",
    "street": "２８１−２",
    "office_name": "東御市役所",
    "office_name_kana": "トウミシヤクシヨ"
  },
  "0593": {
    "postcode": "3890593",
    "prefecture": "長野県",
    "prefecture_kana": "ナガノケン",
    "prefecture_code": 20,
    "city": "東御市",
    "city_kana": "トウミシ",
    "town": "和",
    "town_kana": "カノウ",
    "street": "８６５５",
    "office_name": "株式会社　アヅマ",
    "office_name_kana": "カブシキガイシヤ アヅマ"
  },
  "0598": {
    "postcode": "3890598",
    "prefecture": "長野県",
    "prefecture_kana": "ナガノケン",
    "prefecture_code": 20,
    "city": "東御市",
    "city_kana": "トウミシ",
    "town": "和",
    "town_kana": "カノウ",
    "street": "８５１３−１",
    "office_name": "永井農場",
    "office_name_kana": "ナガイノウジヨウ"
  },
  "0600": {
    "postcode": "3890600",
    "prefecture": "長野県",
    "prefecture_kana": "ナガノケン",
    "prefecture_code": 20,
    "city": "埴科郡坂城町",
    "city_kana": "ハニシナグンサカキマチ",
    "town": "",
    "town_kana": "",
    "street": null,
    "office_name": null,
    "office_name_kana": null
  },
  "0601": {
    "postcode": "3890601",
    "prefecture": "長野県",
    "prefecture_kana": "ナガノケン",
    "prefecture_code": 20,
    "city": "埴科郡坂城町",
    "city_kana": "ハニシナグンサカキマチ",
    "town": "坂城",
    "town_kana": "サカキ",
    "street": null,
    "office_name": null,
    "office_name_kana": null
  },
  "0602": {
    "postcode": "3890602",
    "prefecture": "長野県",
    "prefecture_kana": "ナガノケン",
    "prefecture_code": 20,
    "city": "埴科郡坂城町",
    "city_kana": "ハニシナグンサカキマチ",
    "town": "中之条",
    "town_kana": "ナカノジョウ",
    "street": null,
    "office_name": null,
    "office_name_kana": null
  },
  "0603": {
    "postcode": "3890603",
    "prefecture": "長野県",
    "prefecture_kana": "ナガノケン",
    "prefecture_code": 20,
    "city": "埴科郡坂城町",
    "city_kana": "ハニシナグンサカキマチ",
    "town": "南条",
    "town_kana": "ミナミジョウ",
    "street": null,
    "office_name": null,
    "office_name_kana": null
  },
  "0604": {
    "postcode": "3890604",
    "prefecture": "長野県",
    "prefecture_kana": "ナガノケン",
    "prefecture_code": 20,
    "city": "埴科郡坂城町",
    "city_kana": "ハニシナグンサカキマチ",
    "town": "網掛",
    "town_kana": "アミカケ",
    "street": null,
    "office_name": null,
    "office_name_kana": null
  },
  "0605": {
    "postcode": "3890605",
    "prefecture": "長野県",
    "prefecture_kana": "ナガノケン",
    "prefecture_code": 20,
    "city": "埴科郡坂城町",
    "city_kana": "ハニシナグンサカキマチ",
    "town": "上平",
    "town_kana": "ウワダイラ",
    "street": null,
    "office_name": null,
    "office_name_kana": null
  },
  "0606": {
    "postcode": "3890606",
    "prefecture": "長野県",
    "prefecture_kana": "ナガノケン",
    "prefecture_code": 20,
    "city": "埴科郡坂城町",
    "city_kana": "ハニシナグンサカキマチ",
    "town": "上五明",
    "town_kana": "カミゴミョウ",
    "street": null,
    "office_name": null,
    "office_name_kana": null
  },
  "0681": {
    "postcode": "3890681",
    "prefecture": "長野県",
    "prefecture_kana": "ナガノケン",
    "prefecture_code": 20,
    "city": "埴科郡坂城町",
    "city_kana": "ハニシナグンサカキマチ",
    "town": "大字坂城",
    "town_kana": null,
    "street": "６６４９−１",
    "office_name": "（株）　都築製作所",
    "office_name_kana": "カブシキガイシヤ ツヅキセイサクシヨ"
  },
  "0682": {
    "postcode": "3890682",
    "prefecture": "長野県",
    "prefecture_kana": "ナガノケン",
    "prefecture_code": 20,
    "city": "埴科郡坂城町",
    "city_kana": "ハニシナグンサカキマチ",
    "town": "大字中之条",
    "town_kana": null,
    "street": "１０２−１５",
    "office_name": "ミヤリサン　（株）",
    "office_name_kana": "ミヤリサン カブシキガイシヤ"
  },
  "0688": {
    "postcode": "3890688",
    "prefecture": "長野県",
    "prefecture_kana": "ナガノケン",
    "prefecture_code": 20,
    "city": "埴科郡坂城町",
    "city_kana": "ハニシナグンサカキマチ",
    "town": "大字坂城",
    "town_kana": null,
    "street": "９１６５",
    "office_name": "ＫＹＢ−ＹＳ　株式会社",
    "office_name_kana": "ケイワイビ-ワイエス カブシキガイシヤ"
  },
  "0692": {
    "postcode": "3890692",
    "prefecture": "長野県",
    "prefecture_kana": "ナガノケン",
    "prefecture_code": 20,
    "city": "埴科郡坂城町",
    "city_kana": "ハニシナグンサカキマチ",
    "town": "大字坂城",
    "town_kana": null,
    "street": "１００５０",
    "office_name": "坂城町役場",
    "office_name_kana": "サカキマチヤクバ"
  },
  "0693": {
    "postcode": "3890693",
    "prefecture": "長野県",
    "prefecture_kana": "ナガノケン",
    "prefecture_code": 20,
    "city": "埴科郡坂城町",
    "city_kana": "ハニシナグンサカキマチ",
    "town": "大字南条",
    "town_kana": null,
    "street": "２１１０",
    "office_name": "日精樹脂工業　（株）",
    "office_name_kana": "ニツセイジユシコウギヨウ カブシキガイシヤ"
  },
  "0695": {
    "postcode": "3890695",
    "prefecture": "長野県",
    "prefecture_kana": "ナガノケン",
    "prefecture_code": 20,
    "city": "埴科郡坂城町",
    "city_kana": "ハニシナグンサカキマチ",
    "town": "大字南条",
    "town_kana": null,
    "street": "４８６０",
    "office_name": "（株）　栗林製作所",
    "office_name_kana": "カブシキガイシヤ クリバヤシセイサクジヨ"
  },
  "0696": {
    "postcode": "3890696",
    "prefecture": "長野県",
    "prefecture_kana": "ナガノケン",
    "prefecture_code": 20,
    "city": "埴科郡坂城町",
    "city_kana": "ハニシナグンサカキマチ",
    "town": "大字上平",
    "town_kana": null,
    "street": "１４３４",
    "office_name": "デイリーフーズ　（株）",
    "office_name_kana": "デイリ-フ-ズ カブシキガイシヤ"
  },
  "0697": {
    "postcode": "3890697",
    "prefecture": "長野県",
    "prefecture_kana": "ナガノケン",
    "prefecture_code": 20,
    "city": "埴科郡坂城町",
    "city_kana": "ハニシナグンサカキマチ",
    "town": "上五明",
    "town_kana": "カミゴミョウ",
    "street": "１９８",
    "office_name": "寿製薬　株式会社",
    "office_name_kana": "コトブキセイヤク カブシキガイシヤ"
  },
  "0698": {
    "postcode": "3890698",
    "prefecture": "長野県",
    "prefecture_kana": "ナガノケン",
    "prefecture_code": 20,
    "city": "埴科郡坂城町",
    "city_kana": "ハニシナグンサカキマチ",
    "town": "大字坂城",
    "town_kana": null,
    "street": "１００７０",
    "office_name": "（株）　アルプスツール",
    "office_name_kana": "カブシキガイシヤ アルプスツ-ル"
  },
  "0801": {
    "postcode": "3890801",
    "prefecture": "長野県",
    "prefecture_kana": "ナガノケン",
    "prefecture_code": 20,
    "city": "千曲市",
    "city_kana": "チクマシ",
    "town": "小船山",
    "town_kana": "コブネヤマ",
    "street": null,
    "office_name": null,
    "office_name_kana": null
  },
  "0802": {
    "postcode": "3890802",
    "prefecture": "長野県",
    "prefecture_kana": "ナガノケン",
    "prefecture_code": 20,
    "city": "千曲市",
    "city_kana": "チクマシ",
    "town": "内川",
    "town_kana": "ウチカワ",
    "street": null,
    "office_name": null,
    "office_name_kana": null
  },
  "0803": {
    "postcode": "3890803",
    "prefecture": "長野県",
    "prefecture_kana": "ナガノケン",
    "prefecture_code": 20,
    "city": "千曲市",
    "city_kana": "チクマシ",
    "town": "千本柳",
    "town_kana": "センボンヤナギ",
    "street": null,
    "office_name": null,
    "office_name_kana": null
  },
  "0804": {
    "postcode": "3890804",
    "prefecture": "長野県",
    "prefecture_kana": "ナガノケン",
    "prefecture_code": 20,
    "city": "千曲市",
    "city_kana": "チクマシ",
    "town": "戸倉",
    "town_kana": "トグラ",
    "street": null,
    "office_name": null,
    "office_name_kana": null
  },
  "0805": {
    "postcode": "3890805",
    "prefecture": "長野県",
    "prefecture_kana": "ナガノケン",
    "prefecture_code": 20,
    "city": "千曲市",
    "city_kana": "チクマシ",
    "town": "上徳間",
    "town_kana": "カミトクマ",
    "street": null,
    "office_name": null,
    "office_name_kana": null
  },
  "0806": {
    "postcode": "3890806",
    "prefecture": "長野県",
    "prefecture_kana": "ナガノケン",
    "prefecture_code": 20,
    "city": "千曲市",
    "city_kana": "チクマシ",
    "town": "磯部",
    "town_kana": "イソベ",
    "street": null,
    "office_name": null,
    "office_name_kana": null
  },
  "0807": {
    "postcode": "3890807",
    "prefecture": "長野県",
    "prefecture_kana": "ナガノケン",
    "prefecture_code": 20,
    "city": "千曲市",
    "city_kana": "チクマシ",
    "town": "戸倉温泉",
    "town_kana": "トグラオンセン",
    "street": null,
    "office_name": null,
    "office_name_kana": null
  },
  "0811": {
    "postcode": "3890811",
    "prefecture": "長野県",
    "prefecture_kana": "ナガノケン",
    "prefecture_code": 20,
    "city": "千曲市",
    "city_kana": "チクマシ",
    "town": "須坂",
    "town_kana": "スザカ",
    "street": null,
    "office_name": null,
    "office_name_kana": null
  },
  "0812": {
    "postcode": "3890812",
    "prefecture": "長野県",
    "prefecture_kana": "ナガノケン",
    "prefecture_code": 20,
    "city": "千曲市",
    "city_kana": "チクマシ",
    "town": "羽尾",
    "town_kana": "ハネオ",
    "street": null,
    "office_name": null,
    "office_name_kana": null
  },
  "0813": {
    "postcode": "3890813",
    "prefecture": "長野県",
    "prefecture_kana": "ナガノケン",
    "prefecture_code": 20,
    "city": "千曲市",
    "city_kana": "チクマシ",
    "town": "若宮",
    "town_kana": "ワカミヤ",
    "street": null,
    "office_name": null,
    "office_name_kana": null
  },
  "0821": {
    "postcode": "3890821",
    "prefecture": "長野県",
    "prefecture_kana": "ナガノケン",
    "prefecture_code": 20,
    "city": "千曲市",
    "city_kana": "チクマシ",
    "town": "上山田温泉",
    "town_kana": "カミヤマダオンセン",
    "street": null,
    "office_name": null,
    "office_name_kana": null
  },
  "0822": {
    "postcode": "3890822",
    "prefecture": "長野県",
    "prefecture_kana": "ナガノケン",
    "prefecture_code": 20,
    "city": "千曲市",
    "city_kana": "チクマシ",
    "town": "上山田",
    "town_kana": "カミヤマダ",
    "street": null,
    "office_name": null,
    "office_name_kana": null
  },
  "0823": {
    "postcode": "3890823",
    "prefecture": "長野県",
    "prefecture_kana": "ナガノケン",
    "prefecture_code": 20,
    "city": "千曲市",
    "city_kana": "チクマシ",
    "town": "新山",
    "town_kana": "アラヤマ",
    "street": null,
    "office_name": null,
    "office_name_kana": null
  },
  "0824": {
    "postcode": "3890824",
    "prefecture": "長野県",
    "prefecture_kana": "ナガノケン",
    "prefecture_code": 20,
    "city": "千曲市",
    "city_kana": "チクマシ",
    "town": "力石",
    "town_kana": "チカライシ",
    "street": null,
    "office_name": null,
    "office_name_kana": null
  },
  "0892": {
    "postcode": "3890892",
    "prefecture": "長野県",
    "prefecture_kana": "ナガノケン",
    "prefecture_code": 20,
    "city": "千曲市",
    "city_kana": "チクマシ",
    "town": "大字戸倉",
    "town_kana": null,
    "street": "２３８８",
    "office_name": "千曲市役所　戸倉庁舎",
    "office_name_kana": "チクマシヤクシヨ トグラチヨウシヤ"
  },
  "0893": {
    "postcode": "3890893",
    "prefecture": "長野県",
    "prefecture_kana": "ナガノケン",
    "prefecture_code": 20,
    "city": "千曲市",
    "city_kana": "チクマシ",
    "town": "大字磯部",
    "town_kana": null,
    "street": "５７７−１（戸倉郵便局私書箱第１０号）",
    "office_name": "株式会社　宮下商店",
    "office_name_kana": "カブシキガイシヤ ミヤシタシヨウテン"
  },
  "0897": {
    "postcode": "3890897",
    "prefecture": "長野県",
    "prefecture_kana": "ナガノケン",
    "prefecture_code": 20,
    "city": "千曲市",
    "city_kana": "チクマシ",
    "town": "上山田温泉",
    "town_kana": "カミヤマダオンセン",
    "street": "４丁目１５−１",
    "office_name": "千曲市役所　上山田庁舎",
    "office_name_kana": "チクマシヤクシヨ カミヤマダチヨウシヤ"
  },
  "0898": {
    "postcode": "3890898",
    "prefecture": "長野県",
    "prefecture_kana": "ナガノケン",
    "prefecture_code": 20,
    "city": "千曲市",
    "city_kana": "チクマシ",
    "town": "大字上徳間",
    "town_kana": null,
    "street": "９０",
    "office_name": "アピックヤマダ　株式会社",
    "office_name_kana": "アピツクヤマダ カブシキガイシヤ"
  },
  "1101": {
    "postcode": "3891101",
    "prefecture": "長野県",
    "prefecture_kana": "ナガノケン",
    "prefecture_code": 20,
    "city": "長野市",
    "city_kana": "ナガノシ",
    "town": "豊野町川谷",
    "town_kana": "トヨノマチカワタニ",
    "street": null,
    "office_name": null,
    "office_name_kana": null
  },
  "1102": {
    "postcode": "3891102",
    "prefecture": "長野県",
    "prefecture_kana": "ナガノケン",
    "prefecture_code": 20,
    "city": "長野市",
    "city_kana": "ナガノシ",
    "town": "豊野町大倉",
    "town_kana": "トヨノマチオオクラ",
    "street": null,
    "office_name": null,
    "office_name_kana": null
  },
  "1103": {
    "postcode": "3891103",
    "prefecture": "長野県",
    "prefecture_kana": "ナガノケン",
    "prefecture_code": 20,
    "city": "長野市",
    "city_kana": "ナガノシ",
    "town": "豊野町蟹沢",
    "town_kana": "トヨノマチカニサワ",
    "street": null,
    "office_name": null,
    "office_name_kana": null
  },
  "1104": {
    "postcode": "3891104",
    "prefecture": "長野県",
    "prefecture_kana": "ナガノケン",
    "prefecture_code": 20,
    "city": "長野市",
    "city_kana": "ナガノシ",
    "town": "豊野町浅野",
    "town_kana": "トヨノマチアサノ",
    "street": null,
    "office_name": null,
    "office_name_kana": null
  },
  "1105": {
    "postcode": "3891105",
    "prefecture": "長野県",
    "prefecture_kana": "ナガノケン",
    "prefecture_code": 20,
    "city": "長野市",
    "city_kana": "ナガノシ",
    "town": "豊野町豊野",
    "town_kana": "トヨノマチトヨノ",
    "street": null,
    "office_name": null,
    "office_name_kana": null
  },
  "1106": {
    "postcode": "3891106",
    "prefecture": "長野県",
    "prefecture_kana": "ナガノケン",
    "prefecture_code": 20,
    "city": "長野市",
    "city_kana": "ナガノシ",
    "town": "豊野町石",
    "town_kana": "トヨノマチイシ",
    "street": null,
    "office_name": null,
    "office_name_kana": null
  },
  "1107": {
    "postcode": "3891107",
    "prefecture": "長野県",
    "prefecture_kana": "ナガノケン",
    "prefecture_code": 20,
    "city": "長野市",
    "city_kana": "ナガノシ",
    "town": "豊野町南郷",
    "town_kana": "トヨノマチミナミゴウ",
    "street": null,
    "office_name": null,
    "office_name_kana": null
  },
  "1192": {
    "postcode": "3891192",
    "prefecture": "長野県",
    "prefecture_kana": "ナガノケン",
    "prefecture_code": 20,
    "city": "長野市",
    "city_kana": "ナガノシ",
    "town": "豊野町豊野",
    "town_kana": "トヨノマチトヨノ",
    "street": "６３１",
    "office_name": "長野市役所　豊野支所",
    "office_name_kana": "ナガノシヤクシヨ トヨノシシヨ"
  },
  "1195": {
    "postcode": "3891195",
    "prefecture": "長野県",
    "prefecture_kana": "ナガノケン",
    "prefecture_code": 20,
    "city": "長野市",
    "city_kana": "ナガノシ",
    "town": "豊野町浅野",
    "town_kana": "トヨノマチアサノ",
    "street": "１８６４",
    "office_name": "鳥居化成　株式会社",
    "office_name_kana": "トリイカセイ カブシキガイシヤ"
  },
  "1196": {
    "postcode": "3891196",
    "prefecture": "長野県",
    "prefecture_kana": "ナガノケン",
    "prefecture_code": 20,
    "city": "長野市",
    "city_kana": "ナガノシ",
    "town": "豊野町浅野",
    "town_kana": "トヨノマチアサノ",
    "street": "１６７１",
    "office_name": "仁科工業　株式会社",
    "office_name_kana": "ニシナコウギヨウ カブシキガイシヤ"
  },
  "1200": {
    "postcode": "3891200",
    "prefecture": "長野県",
    "prefecture_kana": "ナガノケン",
    "prefecture_code": 20,
    "city": "上水内郡飯綱町",
    "city_kana": "カミミノチグンイイヅナマチ",
    "town": "",
    "town_kana": "",
    "street": null,
    "office_name": null,
    "office_name_kana": null
  },
  "1201": {
    "postcode": "3891201",
    "prefecture": "長野県",
    "prefecture_kana": "ナガノケン",
    "prefecture_code": 20,
    "city": "上水内郡飯綱町",
    "city_kana": "カミミノチグンイイヅナマチ",
    "town": "芋川",
    "town_kana": "イモガワ",
    "street": null,
    "office_name": null,
    "office_name_kana": null
  },
  "1202": {
    "postcode": "3891202",
    "prefecture": "長野県",
    "prefecture_kana": "ナガノケン",
    "prefecture_code": 20,
    "city": "上水内郡飯綱町",
    "city_kana": "カミミノチグンイイヅナマチ",
    "town": "東柏原",
    "town_kana": "ヒガシカシワバラ",
    "street": null,
    "office_name": null,
    "office_name_kana": null
  },
  "1203": {
    "postcode": "3891203",
    "prefecture": "長野県",
    "prefecture_kana": "ナガノケン",
    "prefecture_code": 20,
    "city": "上水内郡飯綱町",
    "city_kana": "カミミノチグンイイヅナマチ",
    "town": "赤塩",
    "town_kana": "アカシオ",
    "street": null,
    "office_name": null,
    "office_name_kana": null
  },
  "1204": {
    "postcode": "3891204",
    "prefecture": "長野県",
    "prefecture_kana": "ナガノケン",
    "prefecture_code": 20,
    "city": "上水内郡飯綱町",
    "city_kana": "カミミノチグンイイヅナマチ",
    "town": "倉井",
    "town_kana": "クライ",
    "street": null,
    "office_name": null,
    "office_name_kana": null
  },
  "1205": {
    "postcode": "3891205",
    "prefecture": "長野県",
    "prefecture_kana": "ナガノケン",
    "prefecture_code": 20,
    "city": "上水内郡飯綱町",
    "city_kana": "カミミノチグンイイヅナマチ",
    "town": "川谷",
    "town_kana": "カワタニ",
    "street": null,
    "office_name": null,
    "office_name_kana": null
  },
  "1206": {
    "postcode": "3891206",
    "prefecture": "長野県",
    "prefecture_kana": "ナガノケン",
    "prefecture_code": 20,
    "city": "上水内郡飯綱町",
    "city_kana": "カミミノチグンイイヅナマチ",
    "town": "普光寺",
    "town_kana": "フコウジ",
    "street": null,
    "office_name": null,
    "office_name_kana": null
  },
  "1211": {
    "postcode": "3891211",
    "prefecture": "長野県",
    "prefecture_kana": "ナガノケン",
    "prefecture_code": 20,
    "city": "上水内郡飯綱町",
    "city_kana": "カミミノチグンイイヅナマチ",
    "town": "牟礼",
    "town_kana": "ムレ",
    "street": null,
    "office_name": null,
    "office_name_kana": null
  },
  "1212": {
    "postcode": "3891212",
    "prefecture": "長野県",
    "prefecture_kana": "ナガノケン",
    "prefecture_code": 20,
    "city": "上水内郡飯綱町",
    "city_kana": "カミミノチグンイイヅナマチ",
    "town": "豊野",
    "town_kana": "トヨノ",
    "street": null,
    "office_name": null,
    "office_name_kana": null
  },
  "1213": {
    "postcode": "3891213",
    "prefecture": "長野県",
    "prefecture_kana": "ナガノケン",
    "prefecture_code": 20,
    "city": "上水内郡飯綱町",
    "city_kana": "カミミノチグンイイヅナマチ",
    "town": "平出",
    "town_kana": "ヒライデ",
    "street": null,
    "office_name": null,
    "office_name_kana": null
  },
  "1214": {
    "postcode": "3891214",
    "prefecture": "長野県",
    "prefecture_kana": "ナガノケン",
    "prefecture_code": 20,
    "city": "上水内郡飯綱町",
    "city_kana": "カミミノチグンイイヅナマチ",
    "town": "黒川",
    "town_kana": "クロカワ",
    "street": null,
    "office_name": null,
    "office_name_kana": null
  },
  "1215": {
    "postcode": "3891215",
    "prefecture": "長野県",
    "prefecture_kana": "ナガノケン",
    "prefecture_code": 20,
    "city": "上水内郡飯綱町",
    "city_kana": "カミミノチグンイイヅナマチ",
    "town": "小玉",
    "town_kana": "コダマ",
    "street": null,
    "office_name": null,
    "office_name_kana": null
  },
  "1221": {
    "postcode": "3891221",
    "prefecture": "長野県",
    "prefecture_kana": "ナガノケン",
    "prefecture_code": 20,
    "city": "上水内郡飯綱町",
    "city_kana": "カミミノチグンイイヅナマチ",
    "town": "古町",
    "town_kana": "フルマチ",
    "street": null,
    "office_name": null,
    "office_name_kana": null
  },
  "1222": {
    "postcode": "3891222",
    "prefecture": "長野県",
    "prefecture_kana": "ナガノケン",
    "prefecture_code": 20,
    "city": "上水内郡飯綱町",
    "city_kana": "カミミノチグンイイヅナマチ",
    "town": "柳里",
    "town_kana": "ヤナギサト",
    "street": null,
    "office_name": null,
    "office_name_kana": null
  },
  "1223": {
    "postcode": "3891223",
    "prefecture": "長野県",
    "prefecture_kana": "ナガノケン",
    "prefecture_code": 20,
    "city": "上水内郡飯綱町",
    "city_kana": "カミミノチグンイイヅナマチ",
    "town": "袖之山",
    "town_kana": "ソデノヤマ",
    "street": null,
    "office_name": null,
    "office_name_kana": null
  },
  "1224": {
    "postcode": "3891224",
    "prefecture": "長野県",
    "prefecture_kana": "ナガノケン",
    "prefecture_code": 20,
    "city": "上水内郡飯綱町",
    "city_kana": "カミミノチグンイイヅナマチ",
    "town": "地蔵久保",
    "town_kana": "ジゾウクボ",
    "street": null,
    "office_name": null,
    "office_name_kana": null
  },
  "1225": {
    "postcode": "3891225",
    "prefecture": "長野県",
    "prefecture_kana": "ナガノケン",
    "prefecture_code": 20,
    "city": "上水内郡飯綱町",
    "city_kana": "カミミノチグンイイヅナマチ",
    "town": "坂口",
    "town_kana": "サカグチ",
    "street": null,
    "office_name": null,
    "office_name_kana": null
  },
  "1226": {
    "postcode": "3891226",
    "prefecture": "長野県",
    "prefecture_kana": "ナガノケン",
    "prefecture_code": 20,
    "city": "上水内郡飯綱町",
    "city_kana": "カミミノチグンイイヅナマチ",
    "town": "川上",
    "town_kana": "カワカミ",
    "street": null,
    "office_name": null,
    "office_name_kana": null
  },
  "1227": {
    "postcode": "3891227",
    "prefecture": "長野県",
    "prefecture_kana": "ナガノケン",
    "prefecture_code": 20,
    "city": "上水内郡飯綱町",
    "city_kana": "カミミノチグンイイヅナマチ",
    "town": "高坂",
    "town_kana": "コウサカ",
    "street": null,
    "office_name": null,
    "office_name_kana": null
  },
  "1293": {
    "postcode": "3891293",
    "prefecture": "長野県",
    "prefecture_kana": "ナガノケン",
    "prefecture_code": 20,
    "city": "上水内郡飯綱町",
    "city_kana": "カミミノチグンイイヅナマチ",
    "town": "大字牟礼",
    "town_kana": null,
    "street": "２７９５−１",
    "office_name": "飯綱町役場",
    "office_name_kana": "イイヅナマチヤクバ"
  },
  "1300": {
    "postcode": "3891300",
    "prefecture": "長野県",
    "prefecture_kana": "ナガノケン",
    "prefecture_code": 20,
    "city": "上水内郡信濃町",
    "city_kana": "カミミノチグンシナノマチ",
    "town": "",
    "town_kana": "",
    "street": null,
    "office_name": null,
    "office_name_kana": null
  },
  "1301": {
    "postcode": "3891301",
    "prefecture": "長野県",
    "prefecture_kana": "ナガノケン",
    "prefecture_code": 20,
    "city": "上水内郡信濃町",
    "city_kana": "カミミノチグンシナノマチ",
    "town": "熊坂",
    "town_kana": "クマサカ",
    "street": null,
    "office_name": null,
    "office_name_kana": null
  },
  "1302": {
    "postcode": "3891302",
    "prefecture": "長野県",
    "prefecture_kana": "ナガノケン",
    "prefecture_code": 20,
    "city": "上水内郡信濃町",
    "city_kana": "カミミノチグンシナノマチ",
    "town": "古海",
    "town_kana": "フルミ",
    "street": null,
    "office_name": null,
    "office_name_kana": null
  },
  "1303": {
    "postcode": "3891303",
    "prefecture": "長野県",
    "prefecture_kana": "ナガノケン",
    "prefecture_code": 20,
    "city": "上水内郡信濃町",
    "city_kana": "カミミノチグンシナノマチ",
    "town": "野尻",
    "town_kana": "ノジリ",
    "street": null,
    "office_name": null,
    "office_name_kana": null
  },
  "1304": {
    "postcode": "3891304",
    "prefecture": "長野県",
    "prefecture_kana": "ナガノケン",
    "prefecture_code": 20,
    "city": "上水内郡信濃町",
    "city_kana": "カミミノチグンシナノマチ",
    "town": "神山国際村",
    "town_kana": "カミヤマコクサイムラ",
    "street": null,
    "office_name": null,
    "office_name_kana": null
  },
  "1305": {
    "postcode": "3891305",
    "prefecture": "長野県",
    "prefecture_kana": "ナガノケン",
    "prefecture_code": 20,
    "city": "上水内郡信濃町",
    "city_kana": "カミミノチグンシナノマチ",
    "town": "柏原",
    "town_kana": "カシワバラ",
    "street": null,
    "office_name": null,
    "office_name_kana": null
  },
  "1306": [
    {
      "postcode": "3891306",
      "prefecture": "長野県",
      "prefecture_kana": "ナガノケン",
      "prefecture_code": 20,
      "city": "上水内郡信濃町",
      "city_kana": "カミミノチグンシナノマチ",
      "town": "野尻",
      "town_kana": "ノジリ",
      "street": null,
      "office_name": null,
      "office_name_kana": null
    },
    {
      "postcode": "3891306",
      "prefecture": "長野県",
      "prefecture_kana": "ナガノケン",
      "prefecture_code": 20,
      "city": "上水内郡信濃町",
      "city_kana": "カミミノチグンシナノマチ",
      "town": "野尻大学村",
      "town_kana": "ノジリダイガクムラ",
      "street": null,
      "office_name": null,
      "office_name_kana": null
    }
  ],
  "1311": {
    "postcode": "3891311",
    "prefecture": "長野県",
    "prefecture_kana": "ナガノケン",
    "prefecture_code": 20,
    "city": "上水内郡信濃町",
    "city_kana": "カミミノチグンシナノマチ",
    "town": "荒瀬原",
    "town_kana": "アラセバラ",
    "street": null,
    "office_name": null,
    "office_name_kana": null
  },
  "1312": {
    "postcode": "3891312",
    "prefecture": "長野県",
    "prefecture_kana": "ナガノケン",
    "prefecture_code": 20,
    "city": "上水内郡信濃町",
    "city_kana": "カミミノチグンシナノマチ",
    "town": "富濃",
    "town_kana": "トミノ",
    "street": null,
    "office_name": null,
    "office_name_kana": null
  },
  "1313": {
    "postcode": "3891313",
    "prefecture": "長野県",
    "prefecture_kana": "ナガノケン",
    "prefecture_code": 20,
    "city": "上水内郡信濃町",
    "city_kana": "カミミノチグンシナノマチ",
    "town": "古間",
    "town_kana": "フルマ",
    "street": null,
    "office_name": null,
    "office_name_kana": null
  },
  "1314": {
    "postcode": "3891314",
    "prefecture": "長野県",
    "prefecture_kana": "ナガノケン",
    "prefecture_code": 20,
    "city": "上水内郡信濃町",
    "city_kana": "カミミノチグンシナノマチ",
    "town": "穂波",
    "town_kana": "ホナミ",
    "street": null,
    "office_name": null,
    "office_name_kana": null
  },
  "1315": {
    "postcode": "3891315",
    "prefecture": "長野県",
    "prefecture_kana": "ナガノケン",
    "prefecture_code": 20,
    "city": "上水内郡信濃町",
    "city_kana": "カミミノチグンシナノマチ",
    "town": "平岡",
    "town_kana": "ヒラオカ",
    "street": null,
    "office_name": null,
    "office_name_kana": null
  },
  "1316": {
    "postcode": "3891316",
    "prefecture": "長野県",
    "prefecture_kana": "ナガノケン",
    "prefecture_code": 20,
    "city": "上水内郡信濃町",
    "city_kana": "カミミノチグンシナノマチ",
    "town": "大井",
    "town_kana": "オオイ",
    "street": null,
    "office_name": null,
    "office_name_kana": null
  },
  "1392": {
    "postcode": "3891392",
    "prefecture": "長野県",
    "prefecture_kana": "ナガノケン",
    "prefecture_code": 20,
    "city": "上水内郡信濃町",
    "city_kana": "カミミノチグンシナノマチ",
    "town": "大字柏原",
    "town_kana": null,
    "street": "４２８−２",
    "office_name": "信濃町役場",
    "office_name_kana": "シナノマチヤクバ"
  },
  "2101": {
    "postcode": "3892101",
    "prefecture": "長野県",
    "prefecture_kana": "ナガノケン",
    "prefecture_code": 20,
    "city": "中野市",
    "city_kana": "ナカノシ",
    "town": "豊津",
    "town_kana": "トヨツ",
    "street": null,
    "office_name": null,
    "office_name_kana": null
  },
  "2102": {
    "postcode": "3892102",
    "prefecture": "長野県",
    "prefecture_kana": "ナガノケン",
    "prefecture_code": 20,
    "city": "中野市",
    "city_kana": "ナカノシ",
    "town": "上今井",
    "town_kana": "カミイマイ",
    "street": null,
    "office_name": null,
    "office_name_kana": null
  },
  "2103": {
    "postcode": "3892103",
    "prefecture": "長野県",
    "prefecture_kana": "ナガノケン",
    "prefecture_code": 20,
    "city": "中野市",
    "city_kana": "ナカノシ",
    "town": "穴田",
    "town_kana": "アナダ",
    "street": null,
    "office_name": null,
    "office_name_kana": null
  },
  "2104": {
    "postcode": "3892104",
    "prefecture": "長野県",
    "prefecture_kana": "ナガノケン",
    "prefecture_code": 20,
    "city": "中野市",
    "city_kana": "ナカノシ",
    "town": "永江",
    "town_kana": "ナガエ",
    "street": null,
    "office_name": null,
    "office_name_kana": null
  },
  "2192": {
    "postcode": "3892192",
    "prefecture": "長野県",
    "prefecture_kana": "ナガノケン",
    "prefecture_code": 20,
    "city": "中野市",
    "city_kana": "ナカノシ",
    "town": "大字豊津",
    "town_kana": null,
    "street": "３９５−１",
    "office_name": "中野市役所　豊田支所",
    "office_name_kana": "ナカノシヤクシヨ トヨタシシヨ"
  },
  "2200": {
    "postcode": "3892200",
    "prefecture": "長野県",
    "prefecture_kana": "ナガノケン",
    "prefecture_code": 20,
    "city": "飯山市",
    "city_kana": "イイヤマシ",
    "town": "",
    "town_kana": "",
    "street": null,
    "office_name": null,
    "office_name_kana": null
  },
  "2231": {
    "postcode": "3892231",
    "prefecture": "長野県",
    "prefecture_kana": "ナガノケン",
    "prefecture_code": 20,
    "city": "飯山市",
    "city_kana": "イイヤマシ",
    "town": "天神堂",
    "town_kana": "テンシンドウ",
    "street": null,
    "office_name": null,
    "office_name_kana": null
  },
  "2232": {
    "postcode": "3892232",
    "prefecture": "長野県",
    "prefecture_kana": "ナガノケン",
    "prefecture_code": 20,
    "city": "飯山市",
    "city_kana": "イイヤマシ",
    "town": "下木島",
    "town_kana": "シモキジマ",
    "street": null,
    "office_name": null,
    "office_name_kana": null
  },
  "2233": {
    "postcode": "3892233",
    "prefecture": "長野県",
    "prefecture_kana": "ナガノケン",
    "prefecture_code": 20,
    "city": "飯山市",
    "city_kana": "イイヤマシ",
    "town": "野坂田",
    "town_kana": "ノサカダ",
    "street": null,
    "office_name": null,
    "office_name_kana": null
  },
  "2234": {
    "postcode": "3892234",
    "prefecture": "長野県",
    "prefecture_kana": "ナガノケン",
    "prefecture_code": 20,
    "city": "飯山市",
    "city_kana": "イイヤマシ",
    "town": "木島",
    "town_kana": "キジマ",
    "street": null,
    "office_name": null,
    "office_name_kana": null
  },
  "2235": {
    "postcode": "3892235",
    "prefecture": "長野県",
    "prefecture_kana": "ナガノケン",
    "prefecture_code": 20,
    "city": "飯山市",
    "city_kana": "イイヤマシ",
    "town": "坂井",
    "town_kana": "サカイ",
    "street": null,
    "office_name": null,
    "office_name_kana": null
  },
  "2241": {
    "postcode": "3892241",
    "prefecture": "長野県",
    "prefecture_kana": "ナガノケン",
    "prefecture_code": 20,
    "city": "飯山市",
    "city_kana": "イイヤマシ",
    "town": "山岸",
    "town_kana": "ヤマギシ",
    "street": null,
    "office_name": null,
    "office_name_kana": null
  },
  "2242": {
    "postcode": "3892242",
    "prefecture": "長野県",
    "prefecture_kana": "ナガノケン",
    "prefecture_code": 20,
    "city": "飯山市",
    "city_kana": "イイヤマシ",
    "town": "其綿",
    "town_kana": "ソノワタ",
    "street": null,
    "office_name": null,
    "office_name_kana": null
  },
  "2243": {
    "postcode": "3892243",
    "prefecture": "長野県",
    "prefecture_kana": "ナガノケン",
    "prefecture_code": 20,
    "city": "飯山市",
    "city_kana": "イイヤマシ",
    "town": "吉",
    "town_kana": "ヨシ",
    "street": null,
    "office_name": null,
    "office_name_kana": null
  },
  "2244": {
    "postcode": "3892244",
    "prefecture": "長野県",
    "prefecture_kana": "ナガノケン",
    "prefecture_code": 20,
    "city": "飯山市",
    "city_kana": "イイヤマシ",
    "town": "安田",
    "town_kana": "ヤスダ",
    "street": null,
    "office_name": null,
    "office_name_kana": null
  },
  "2251": {
    "postcode": "3892251",
    "prefecture": "長野県",
    "prefecture_kana": "ナガノケン",
    "prefecture_code": 20,
    "city": "飯山市",
    "city_kana": "イイヤマシ",
    "town": "旭",
    "town_kana": "アサヒ",
    "street": null,
    "office_name": null,
    "office_name_kana": null
  },
  "2252": {
    "postcode": "3892252",
    "prefecture": "長野県",
    "prefecture_kana": "ナガノケン",
    "prefecture_code": 20,
    "city": "飯山市",
    "city_kana": "イイヤマシ",
    "town": "小佐原",
    "town_kana": "コザワラ",
    "street": null,
    "office_name": null,
    "office_name_kana": null
  },
  "2253": {
    "postcode": "3892253",
    "prefecture": "長野県",
    "prefecture_kana": "ナガノケン",
    "prefecture_code": 20,
    "city": "飯山市",
    "city_kana": "イイヤマシ",
    "town": "飯山",
    "town_kana": "イイヤマ",
    "street": null,
    "office_name": null,
    "office_name_kana": null
  },
  "2254": {
    "postcode": "3892254",
    "prefecture": "長野県",
    "prefecture_kana": "ナガノケン",
    "prefecture_code": 20,
    "city": "飯山市",
    "city_kana": "イイヤマシ",
    "town": "南町",
    "town_kana": "ミナミマチ",
    "street": null,
    "office_name": null,
    "office_name_kana": null
  },
  "2255": {
    "postcode": "3892255",
    "prefecture": "長野県",
    "prefecture_kana": "ナガノケン",
    "prefecture_code": 20,
    "city": "飯山市",
    "city_kana": "イイヤマシ",
    "town": "静間",
    "town_kana": "シズマ",
    "street": null,
    "office_name": null,
    "office_name_kana": null
  },
  "2256": {
    "postcode": "3892256",
    "prefecture": "長野県",
    "prefecture_kana": "ナガノケン",
    "prefecture_code": 20,
    "city": "飯山市",
    "city_kana": "イイヤマシ",
    "town": "蓮",
    "town_kana": "ハチス",
    "street": null,
    "office_name": null,
    "office_name_kana": null
  },
  "2257": {
    "postcode": "3892257",
    "prefecture": "長野県",
    "prefecture_kana": "ナガノケン",
    "prefecture_code": 20,
    "city": "飯山市",
    "city_kana": "イイヤマシ",
    "town": "斑尾高原",
    "town_kana": "マダラオコウゲン",
    "street": null,
    "office_name": null,
    "office_name_kana": null
  },
  "2258": {
    "postcode": "3892258",
    "prefecture": "長野県",
    "prefecture_kana": "ナガノケン",
    "prefecture_code": 20,
    "city": "飯山市",
    "city_kana": "イイヤマシ",
    "town": "富倉",
    "town_kana": "トミクラ",
    "street": null,
    "office_name": null,
    "office_name_kana": null
  },
  "2261": {
    "postcode": "3892261",
    "prefecture": "新潟県",
    "prefecture_kana": "ニイガタケン",
    "prefecture_code": 15,
    "city": "妙高市",
    "city_kana": "ミョウコウシ",
    "town": "樽本",
    "town_kana": "タルモト",
    "street": null,
    "office_name": null,
    "office_name_kana": null
  },
  "2292": {
    "postcode": "3892292",
    "prefecture": "長野県",
    "prefecture_kana": "ナガノケン",
    "prefecture_code": 20,
    "city": "飯山市",
    "city_kana": "イイヤマシ",
    "town": "大字飯山",
    "town_kana": null,
    "street": "１１１０−１",
    "office_name": "飯山市役所",
    "office_name_kana": "イイヤマシヤクシヨ"
  },
  "2298": {
    "postcode": "3892298",
    "prefecture": "長野県",
    "prefecture_kana": "ナガノケン",
    "prefecture_code": 20,
    "city": "飯山市",
    "city_kana": "イイヤマシ",
    "town": "大字野坂田",
    "town_kana": null,
    "street": "９３５番地",
    "office_name": "長野ＦＣＬコンポーネント　株式会社",
    "office_name_kana": "ナガノエフシ-エルコンポ-ネント カブシキガイシヤ"
  },
  "2300": {
    "postcode": "3892300",
    "prefecture": "長野県",
    "prefecture_kana": "ナガノケン",
    "prefecture_code": 20,
    "city": "下高井郡木島平村",
    "city_kana": "シモタカイグンキジマダイラムラ",
    "town": "",
    "town_kana": "",
    "street": null,
    "office_name": null,
    "office_name_kana": null
  },
  "2301": {
    "postcode": "3892301",
    "prefecture": "長野県",
    "prefecture_kana": "ナガノケン",
    "prefecture_code": 20,
    "city": "下高井郡木島平村",
    "city_kana": "シモタカイグンキジマダイラムラ",
    "town": "穂高",
    "town_kana": "ホタカ",
    "street": null,
    "office_name": null,
    "office_name_kana": null
  },
  "2302": {
    "postcode": "3892302",
    "prefecture": "長野県",
    "prefecture_kana": "ナガノケン",
    "prefecture_code": 20,
    "city": "下高井郡木島平村",
    "city_kana": "シモタカイグンキジマダイラムラ",
    "town": "往郷",
    "town_kana": "オウゴウ",
    "street": null,
    "office_name": null,
    "office_name_kana": null
  },
  "2303": {
    "postcode": "3892303",
    "prefecture": "長野県",
    "prefecture_kana": "ナガノケン",
    "prefecture_code": 20,
    "city": "下高井郡木島平村",
    "city_kana": "シモタカイグンキジマダイラムラ",
    "town": "上木島",
    "town_kana": "カミキジマ",
    "street": null,
    "office_name": null,
    "office_name_kana": null
  },
  "2321": {
    "postcode": "3892321",
    "prefecture": "長野県",
    "prefecture_kana": "ナガノケン",
    "prefecture_code": 20,
    "city": "飯山市",
    "city_kana": "イイヤマシ",
    "town": "瑞穂豊",
    "town_kana": "ミズホトヨ",
    "street": null,
    "office_name": null,
    "office_name_kana": null
  },
  "2322": {
    "postcode": "3892322",
    "prefecture": "長野県",
    "prefecture_kana": "ナガノケン",
    "prefecture_code": 20,
    "city": "飯山市",
    "city_kana": "イイヤマシ",
    "town": "瑞穂",
    "town_kana": "ミズホ",
    "street": null,
    "office_name": null,
    "office_name_kana": null
  },
  "2371": {
    "postcode": "3892371",
    "prefecture": "長野県",
    "prefecture_kana": "ナガノケン",
    "prefecture_code": 20,
    "city": "中野市",
    "city_kana": "ナカノシ",
    "town": "田上",
    "town_kana": "タガミ",
    "street": null,
    "office_name": null,
    "office_name_kana": null
  },
  "2392": {
    "postcode": "3892392",
    "prefecture": "長野県",
    "prefecture_kana": "ナガノケン",
    "prefecture_code": 20,
    "city": "下高井郡木島平村",
    "city_kana": "シモタカイグンキジマダイラムラ",
    "town": "大字往郷",
    "town_kana": null,
    "street": "９１４番地６",
    "office_name": "木島平役場",
    "office_name_kana": "キジマダイラヤクバ"
  },
  "2411": {
    "postcode": "3892411",
    "prefecture": "長野県",
    "prefecture_kana": "ナガノケン",
    "prefecture_code": 20,
    "city": "飯山市",
    "city_kana": "イイヤマシ",
    "town": "豊田",
    "town_kana": "トヨダ",
    "street": null,
    "office_name": null,
    "office_name_kana": null
  },
  "2412": {
    "postcode": "3892412",
    "prefecture": "長野県",
    "prefecture_kana": "ナガノケン",
    "prefecture_code": 20,
    "city": "飯山市",
    "city_kana": "イイヤマシ",
    "town": "常郷",
    "town_kana": "トキサト",
    "street": null,
    "office_name": null,
    "office_name_kana": null
  },
  "2413": {
    "postcode": "3892413",
    "prefecture": "長野県",
    "prefecture_kana": "ナガノケン",
    "prefecture_code": 20,
    "city": "飯山市",
    "city_kana": "イイヤマシ",
    "town": "照里",
    "town_kana": "テルサト",
    "street": null,
    "office_name": null,
    "office_name_kana": null
  },
  "2414": {
    "postcode": "3892414",
    "prefecture": "長野県",
    "prefecture_kana": "ナガノケン",
    "prefecture_code": 20,
    "city": "飯山市",
    "city_kana": "イイヤマシ",
    "town": "常盤",
    "town_kana": "トキワ",
    "street": null,
    "office_name": null,
    "office_name_kana": null
  },
  "2415": {
    "postcode": "3892415",
    "prefecture": "長野県",
    "prefecture_kana": "ナガノケン",
    "prefecture_code": 20,
    "city": "飯山市",
    "city_kana": "イイヤマシ",
    "town": "大池",
    "town_kana": "オオイケ",
    "street": null,
    "office_name": null,
    "office_name_kana": null
  },
  "2416": {
    "postcode": "3892416",
    "prefecture": "長野県",
    "prefecture_kana": "ナガノケン",
    "prefecture_code": 20,
    "city": "飯山市",
    "city_kana": "イイヤマシ",
    "town": "緑",
    "town_kana": "ミドリ",
    "street": null,
    "office_name": null,
    "office_name_kana": null
  },
  "2417": {
    "postcode": "3892417",
    "prefecture": "長野県",
    "prefecture_kana": "ナガノケン",
    "prefecture_code": 20,
    "city": "飯山市",
    "city_kana": "イイヤマシ",
    "town": "中曽根",
    "town_kana": "ナカソネ",
    "street": null,
    "office_name": null,
    "office_name_kana": null
  },
  "2418": {
    "postcode": "3892418",
    "prefecture": "長野県",
    "prefecture_kana": "ナガノケン",
    "prefecture_code": 20,
    "city": "飯山市",
    "city_kana": "イイヤマシ",
    "town": "寿",
    "town_kana": "コトブキ",
    "street": null,
    "office_name": null,
    "office_name_kana": null
  },
  "2500": {
    "postcode": "3892500",
    "prefecture": "長野県",
    "prefecture_kana": "ナガノケン",
    "prefecture_code": 20,
    "city": "下高井郡野沢温泉村",
    "city_kana": "シモタカイグンノザワオンセンムラ",
    "town": "",
    "town_kana": "",
    "street": null,
    "office_name": null,
    "office_name_kana": null
  },
  "2501": {
    "postcode": "3892501",
    "prefecture": "長野県",
    "prefecture_kana": "ナガノケン",
    "prefecture_code": 20,
    "city": "下高井郡野沢温泉村",
    "city_kana": "シモタカイグンノザワオンセンムラ",
    "town": "坪山",
    "town_kana": "ツボヤマ",
    "street": null,
    "office_name": null,
    "office_name_kana": null
  },
  "2502": {
    "postcode": "3892502",
    "prefecture": "長野県",
    "prefecture_kana": "ナガノケン",
    "prefecture_code": 20,
    "city": "下高井郡野沢温泉村",
    "city_kana": "シモタカイグンノザワオンセンムラ",
    "town": "豊郷",
    "town_kana": "トヨサト",
    "street": null,
    "office_name": null,
    "office_name_kana": null
  },
  "2503": {
    "postcode": "3892503",
    "prefecture": "長野県",
    "prefecture_kana": "ナガノケン",
    "prefecture_code": 20,
    "city": "下高井郡野沢温泉村",
    "city_kana": "シモタカイグンノザワオンセンムラ",
    "town": "前坂",
    "town_kana": "マエザカ",
    "street": null,
    "office_name": null,
    "office_name_kana": null
  },
  "2592": {
    "postcode": "3892592",
    "prefecture": "長野県",
    "prefecture_kana": "ナガノケン",
    "prefecture_code": 20,
    "city": "下高井郡野沢温泉村",
    "city_kana": "シモタカイグンノザワオンセンムラ",
    "town": "大字豊郷",
    "town_kana": null,
    "street": "９８１７",
    "office_name": "野沢温泉村役場",
    "office_name_kana": "ノザワオンセンムラヤクバ"
  },
  "2601": {
    "postcode": "3892601",
    "prefecture": "長野県",
    "prefecture_kana": "ナガノケン",
    "prefecture_code": 20,
    "city": "飯山市",
    "city_kana": "イイヤマシ",
    "town": "照岡",
    "town_kana": "テルオカ",
    "street": null,
    "office_name": null,
    "office_name_kana": null
  },
  "2602": {
    "postcode": "3892602",
    "prefecture": "長野県",
    "prefecture_kana": "ナガノケン",
    "prefecture_code": 20,
    "city": "飯山市",
    "city_kana": "イイヤマシ",
    "town": "一山",
    "town_kana": "イチヤマ",
    "street": null,
    "office_name": null,
    "office_name_kana": null
  },
  "2611": {
    "postcode": "3892611",
    "prefecture": "長野県",
    "prefecture_kana": "ナガノケン",
    "prefecture_code": 20,
    "city": "下高井郡野沢温泉村",
    "city_kana": "シモタカイグンノザワオンセンムラ",
    "town": "東大滝",
    "town_kana": "ヒガシオオタキ",
    "street": null,
    "office_name": null,
    "office_name_kana": null
  },
  "2612": {
    "postcode": "3892612",
    "prefecture": "長野県",
    "prefecture_kana": "ナガノケン",
    "prefecture_code": 20,
    "city": "下高井郡野沢温泉村",
    "city_kana": "シモタカイグンノザワオンセンムラ",
    "town": "七ケ巻",
    "town_kana": "ナナガマキ",
    "street": null,
    "office_name": null,
    "office_name_kana": null
  },
  "2613": {
    "postcode": "3892613",
    "prefecture": "長野県",
    "prefecture_kana": "ナガノケン",
    "prefecture_code": 20,
    "city": "下高井郡野沢温泉村",
    "city_kana": "シモタカイグンノザワオンセンムラ",
    "town": "虫生",
    "town_kana": "ムシウ",
    "street": null,
    "office_name": null,
    "office_name_kana": null
  },
  "2614": {
    "postcode": "3892614",
    "prefecture": "長野県",
    "prefecture_kana": "ナガノケン",
    "prefecture_code": 20,
    "city": "下高井郡野沢温泉村",
    "city_kana": "シモタカイグンノザワオンセンムラ",
    "town": "平林",
    "town_kana": "ヒラバヤシ",
    "street": null,
    "office_name": null,
    "office_name_kana": null
  },
  "2700": {
    "postcode": "3892700",
    "prefecture": "長野県",
    "prefecture_kana": "ナガノケン",
    "prefecture_code": 20,
    "city": "下水内郡栄村",
    "city_kana": "シモミノチグンサカエムラ",
    "town": "",
    "town_kana": "",
    "street": null,
    "office_name": null,
    "office_name_kana": null
  },
  "2701": {
    "postcode": "3892701",
    "prefecture": "長野県",
    "prefecture_kana": "ナガノケン",
    "prefecture_code": 20,
    "city": "下水内郡栄村",
    "city_kana": "シモミノチグンサカエムラ",
    "town": "豊栄",
    "town_kana": "トヨサカエ",
    "street": null,
    "office_name": null,
    "office_name_kana": null
  },
  "2702": {
    "postcode": "3892702",
    "prefecture": "長野県",
    "prefecture_kana": "ナガノケン",
    "prefecture_code": 20,
    "city": "下水内郡栄村",
    "city_kana": "シモミノチグンサカエムラ",
    "town": "北信",
    "town_kana": "ホクシン",
    "street": null,
    "office_name": null,
    "office_name_kana": null
  },
  "2703": {
    "postcode": "3892703",
    "prefecture": "長野県",
    "prefecture_kana": "ナガノケン",
    "prefecture_code": 20,
    "city": "下水内郡栄村",
    "city_kana": "シモミノチグンサカエムラ",
    "town": "堺",
    "town_kana": "サカイ",
    "street": null,
    "office_name": null,
    "office_name_kana": null
  },
  "2792": {
    "postcode": "3892792",
    "prefecture": "長野県",
    "prefecture_kana": "ナガノケン",
    "prefecture_code": 20,
    "city": "下水内郡栄村",
    "city_kana": "シモミノチグンサカエムラ",
    "town": "大字北信",
    "town_kana": null,
    "street": "３４３３",
    "office_name": "栄村役場",
    "office_name_kana": "サカエムラヤクバ"
  }
}