{
  "0221": {
    "postcode": "3900221",
    "prefecture": "長野県",
    "prefecture_kana": "ナガノケン",
    "prefecture_code": 20,
    "city": "松本市",
    "city_kana": "マツモトシ",
    "town": "里山辺",
    "town_kana": "サトヤマベ",
    "street": null,
    "office_name": null,
    "office_name_kana": null
  },
  "0222": {
    "postcode": "3900222",
    "prefecture": "長野県",
    "prefecture_kana": "ナガノケン",
    "prefecture_code": 20,
    "city": "松本市",
    "city_kana": "マツモトシ",
    "town": "入山辺",
    "town_kana": "イリヤマベ",
    "street": null,
    "office_name": null,
    "office_name_kana": null
  },
  "0301": {
    "postcode": "3900301",
    "prefecture": "長野県",
    "prefecture_kana": "ナガノケン",
    "prefecture_code": 20,
    "city": "松本市",
    "city_kana": "マツモトシ",
    "town": "稲倉",
    "town_kana": "シナグラ",
    "street": null,
    "office_name": null,
    "office_name_kana": null
  },
  "0302": {
    "postcode": "3900302",
    "prefecture": "長野県",
    "prefecture_kana": "ナガノケン",
    "prefecture_code": 20,
    "city": "松本市",
    "city_kana": "マツモトシ",
    "town": "三才山",
    "town_kana": "ミサヤマ",
    "street": null,
    "office_name": null,
    "office_name_kana": null
  },
  "0303": {
    "postcode": "3900303",
    "prefecture": "長野県",
    "prefecture_kana": "ナガノケン",
    "prefecture_code": 20,
    "city": "松本市",
    "city_kana": "マツモトシ",
    "town": "浅間温泉",
    "town_kana": "アサマオンセン",
    "street": null,
    "office_name": null,
    "office_name_kana": null
  },
  "0304": {
    "postcode": "3900304",
    "prefecture": "長野県",
    "prefecture_kana": "ナガノケン",
    "prefecture_code": 20,
    "city": "松本市",
    "city_kana": "マツモトシ",
    "town": "大村",
    "town_kana": "オオムラ",
    "street": null,
    "office_name": null,
    "office_name_kana": null
  },
  "0305": {
    "postcode": "3900305",
    "prefecture": "長野県",
    "prefecture_kana": "ナガノケン",
    "prefecture_code": 20,
    "city": "松本市",
    "city_kana": "マツモトシ",
    "town": "惣社",
    "town_kana": "ソウザ",
    "street": null,
    "office_name": null,
    "office_name_kana": null
  },
  "0306": {
    "postcode": "3900306",
    "prefecture": "長野県",
    "prefecture_kana": "ナガノケン",
    "prefecture_code": 20,
    "city": "松本市",
    "city_kana": "マツモトシ",
    "town": "南浅間",
    "town_kana": "ミナミアサマ",
    "street": null,
    "office_name": null,
    "office_name_kana": null
  },
  "0311": {
    "postcode": "3900311",
    "prefecture": "長野県",
    "prefecture_kana": "ナガノケン",
    "prefecture_code": 20,
    "city": "松本市",
    "city_kana": "マツモトシ",
    "town": "水汲",
    "town_kana": "ミズクマ",
    "street": null,
    "office_name": null,
    "office_name_kana": null
  },
  "0312": {
    "postcode": "3900312",
    "prefecture": "長野県",
    "prefecture_kana": "ナガノケン",
    "prefecture_code": 20,
    "city": "松本市",
    "city_kana": "マツモトシ",
    "town": "岡田松岡",
    "town_kana": "オカダマツオカ",
    "street": null,
    "office_name": null,
    "office_name_kana": null
  },
  "0313": {
    "postcode": "3900313",
    "prefecture": "長野県",
    "prefecture_kana": "ナガノケン",
    "prefecture_code": 20,
    "city": "松本市",
    "city_kana": "マツモトシ",
    "town": "岡田下岡田",
    "town_kana": "オカダシモオカダ",
    "street": null,
    "office_name": null,
    "office_name_kana": null
  },
  "0314": {
    "postcode": "3900314",
    "prefecture": "長野県",
    "prefecture_kana": "ナガノケン",
    "prefecture_code": 20,
    "city": "松本市",
    "city_kana": "マツモトシ",
    "town": "岡田伊深",
    "town_kana": "オカダイブカ",
    "street": null,
    "office_name": null,
    "office_name_kana": null
  },
  "0315": {
    "postcode": "3900315",
    "prefecture": "長野県",
    "prefecture_kana": "ナガノケン",
    "prefecture_code": 20,
    "city": "松本市",
    "city_kana": "マツモトシ",
    "town": "岡田町",
    "town_kana": "オカダマチ",
    "street": null,
    "office_name": null,
    "office_name_kana": null
  },
  "0316": {
    "postcode": "3900316",
    "prefecture": "長野県",
    "prefecture_kana": "ナガノケン",
    "prefecture_code": 20,
    "city": "松本市",
    "city_kana": "マツモトシ",
    "town": "原",
    "town_kana": "ハラ",
    "street": null,
    "office_name": null,
    "office_name_kana": null
  },
  "0317": {
    "postcode": "3900317",
    "prefecture": "長野県",
    "prefecture_kana": "ナガノケン",
    "prefecture_code": 20,
    "city": "松本市",
    "city_kana": "マツモトシ",
    "town": "洞",
    "town_kana": "ホラ",
    "street": null,
    "office_name": null,
    "office_name_kana": null
  },
  "0801": {
    "postcode": "3900801",
    "prefecture": "長野県",
    "prefecture_kana": "ナガノケン",
    "prefecture_code": 20,
    "city": "松本市",
    "city_kana": "マツモトシ",
    "town": "美須々",
    "town_kana": "ミスズ",
    "street": null,
    "office_name": null,
    "office_name_kana": null
  },
  "0802": {
    "postcode": "3900802",
    "prefecture": "長野県",
    "prefecture_kana": "ナガノケン",
    "prefecture_code": 20,
    "city": "松本市",
    "city_kana": "マツモトシ",
    "town": "旭",
    "town_kana": "アサヒ",
    "street": null,
    "office_name": null,
    "office_name_kana": null
  },
  "0803": {
    "postcode": "3900803",
    "prefecture": "長野県",
    "prefecture_kana": "ナガノケン",
    "prefecture_code": 20,
    "city": "松本市",
    "city_kana": "マツモトシ",
    "town": "元町",
    "town_kana": "モトマチ",
    "street": null,
    "office_name": null,
    "office_name_kana": null
  },
  "0804": {
    "postcode": "3900804",
    "prefecture": "長野県",
    "prefecture_kana": "ナガノケン",
    "prefecture_code": 20,
    "city": "松本市",
    "city_kana": "マツモトシ",
    "town": "横田",
    "town_kana": "ヨコタ",
    "street": null,
    "office_name": null,
    "office_name_kana": null
  },
  "0805": {
    "postcode": "3900805",
    "prefecture": "長野県",
    "prefecture_kana": "ナガノケン",
    "prefecture_code": 20,
    "city": "松本市",
    "city_kana": "マツモトシ",
    "town": "清水",
    "town_kana": "シミズ",
    "street": null,
    "office_name": null,
    "office_name_kana": null
  },
  "0806": {
    "postcode": "3900806",
    "prefecture": "長野県",
    "prefecture_kana": "ナガノケン",
    "prefecture_code": 20,
    "city": "松本市",
    "city_kana": "マツモトシ",
    "town": "女鳥羽",
    "town_kana": "メトバ",
    "street": null,
    "office_name": null,
    "office_name_kana": null
  },
  "0807": {
    "postcode": "3900807",
    "prefecture": "長野県",
    "prefecture_kana": "ナガノケン",
    "prefecture_code": 20,
    "city": "松本市",
    "city_kana": "マツモトシ",
    "town": "城東",
    "town_kana": "ジョウトウ",
    "street": null,
    "office_name": null,
    "office_name_kana": null
  },
  "0811": {
    "postcode": "3900811",
    "prefecture": "長野県",
    "prefecture_kana": "ナガノケン",
    "prefecture_code": 20,
    "city": "松本市",
    "city_kana": "マツモトシ",
    "town": "中央",
    "town_kana": "チュウオウ",
    "street": null,
    "office_name": null,
    "office_name_kana": null
  },
  "0812": {
    "postcode": "3900812",
    "prefecture": "長野県",
    "prefecture_kana": "ナガノケン",
    "prefecture_code": 20,
    "city": "松本市",
    "city_kana": "マツモトシ",
    "town": "県",
    "town_kana": "アガタ",
    "street": null,
    "office_name": null,
    "office_name_kana": null
  },
  "0813": {
    "postcode": "3900813",
    "prefecture": "長野県",
    "prefecture_kana": "ナガノケン",
    "prefecture_code": 20,
    "city": "松本市",
    "city_kana": "マツモトシ",
    "town": "埋橋",
    "town_kana": "ウズハシ",
    "street": null,
    "office_name": null,
    "office_name_kana": null
  },
  "0814": {
    "postcode": "3900814",
    "prefecture": "長野県",
    "prefecture_kana": "ナガノケン",
    "prefecture_code": 20,
    "city": "松本市",
    "city_kana": "マツモトシ",
    "town": "本庄",
    "town_kana": "ホンジョウ",
    "street": null,
    "office_name": null,
    "office_name_kana": null
  },
  "0815": {
    "postcode": "3900815",
    "prefecture": "長野県",
    "prefecture_kana": "ナガノケン",
    "prefecture_code": 20,
    "city": "松本市",
    "city_kana": "マツモトシ",
    "town": "深志",
    "town_kana": "フカシ",
    "street": null,
    "office_name": null,
    "office_name_kana": null
  },
  "0816": {
    "postcode": "3900816",
    "prefecture": "長野県",
    "prefecture_kana": "ナガノケン",
    "prefecture_code": 20,
    "city": "松本市",
    "city_kana": "マツモトシ",
    "town": "中条",
    "town_kana": "ナカジョウ",
    "street": null,
    "office_name": null,
    "office_name_kana": null
  },
  "0817": {
    "postcode": "3900817",
    "prefecture": "長野県",
    "prefecture_kana": "ナガノケン",
    "prefecture_code": 20,
    "city": "松本市",
    "city_kana": "マツモトシ",
    "town": "巾上",
    "town_kana": "ハバウエ",
    "street": null,
    "office_name": null,
    "office_name_kana": null
  },
  "0821": {
    "postcode": "3900821",
    "prefecture": "長野県",
    "prefecture_kana": "ナガノケン",
    "prefecture_code": 20,
    "city": "松本市",
    "city_kana": "マツモトシ",
    "town": "筑摩",
    "town_kana": "ツカマ",
    "street": null,
    "office_name": null,
    "office_name_kana": null
  },
  "0822": {
    "postcode": "3900822",
    "prefecture": "長野県",
    "prefecture_kana": "ナガノケン",
    "prefecture_code": 20,
    "city": "松本市",
    "city_kana": "マツモトシ",
    "town": "神田",
    "town_kana": "カンダ",
    "street": null,
    "office_name": null,
    "office_name_kana": null
  },
  "0823": {
    "postcode": "3900823",
    "prefecture": "長野県",
    "prefecture_kana": "ナガノケン",
    "prefecture_code": 20,
    "city": "松本市",
    "city_kana": "マツモトシ",
    "town": "中山",
    "town_kana": "ナカヤマ",
    "street": null,
    "office_name": null,
    "office_name_kana": null
  },
  "0824": {
    "postcode": "3900824",
    "prefecture": "長野県",
    "prefecture_kana": "ナガノケン",
    "prefecture_code": 20,
    "city": "松本市",
    "city_kana": "マツモトシ",
    "town": "中山台",
    "town_kana": "ナカヤマダイ",
    "street": null,
    "office_name": null,
    "office_name_kana": null
  },
  "0825": {
    "postcode": "3900825",
    "prefecture": "長野県",
    "prefecture_kana": "ナガノケン",
    "prefecture_code": 20,
    "city": "松本市",
    "city_kana": "マツモトシ",
    "town": "並柳",
    "town_kana": "ナミヤナギ",
    "street": null,
    "office_name": null,
    "office_name_kana": null
  },
  "0826": {
    "postcode": "3900826",
    "prefecture": "長野県",
    "prefecture_kana": "ナガノケン",
    "prefecture_code": 20,
    "city": "松本市",
    "city_kana": "マツモトシ",
    "town": "出川町",
    "town_kana": "イデガワマチ",
    "street": null,
    "office_name": null,
    "office_name_kana": null
  },
  "0827": {
    "postcode": "3900827",
    "prefecture": "長野県",
    "prefecture_kana": "ナガノケン",
    "prefecture_code": 20,
    "city": "松本市",
    "city_kana": "マツモトシ",
    "town": "出川",
    "town_kana": "イデガワ",
    "street": null,
    "office_name": null,
    "office_name_kana": null
  },
  "0828": {
    "postcode": "3900828",
    "prefecture": "長野県",
    "prefecture_kana": "ナガノケン",
    "prefecture_code": 20,
    "city": "松本市",
    "city_kana": "マツモトシ",
    "town": "庄内",
    "town_kana": "ショウナイ",
    "street": null,
    "office_name": null,
    "office_name_kana": null
  },
  "0831": {
    "postcode": "3900831",
    "prefecture": "長野県",
    "prefecture_kana": "ナガノケン",
    "prefecture_code": 20,
    "city": "松本市",
    "city_kana": "マツモトシ",
    "town": "井川城",
    "town_kana": "イガワジョウ",
    "street": null,
    "office_name": null,
    "office_name_kana": null
  },
  "0832": {
    "postcode": "3900832",
    "prefecture": "長野県",
    "prefecture_kana": "ナガノケン",
    "prefecture_code": 20,
    "city": "松本市",
    "city_kana": "マツモトシ",
    "town": "南松本",
    "town_kana": "ミナミマツモト",
    "street": null,
    "office_name": null,
    "office_name_kana": null
  },
  "0833": {
    "postcode": "3900833",
    "prefecture": "長野県",
    "prefecture_kana": "ナガノケン",
    "prefecture_code": 20,
    "city": "松本市",
    "city_kana": "マツモトシ",
    "town": "双葉",
    "town_kana": "フタバ",
    "street": null,
    "office_name": null,
    "office_name_kana": null
  },
  "0834": {
    "postcode": "3900834",
    "prefecture": "長野県",
    "prefecture_kana": "ナガノケン",
    "prefecture_code": 20,
    "city": "松本市",
    "city_kana": "マツモトシ",
    "town": "高宮中",
    "town_kana": "タカミヤナカ",
    "street": null,
    "office_name": null,
    "office_name_kana": null
  },
  "0835": {
    "postcode": "3900835",
    "prefecture": "長野県",
    "prefecture_kana": "ナガノケン",
    "prefecture_code": 20,
    "city": "松本市",
    "city_kana": "マツモトシ",
    "town": "高宮東",
    "town_kana": "タカミヤヒガシ",
    "street": null,
    "office_name": null,
    "office_name_kana": null
  },
  "0836": {
    "postcode": "3900836",
    "prefecture": "長野県",
    "prefecture_kana": "ナガノケン",
    "prefecture_code": 20,
    "city": "松本市",
    "city_kana": "マツモトシ",
    "town": "高宮北",
    "town_kana": "タカミヤキタ",
    "street": null,
    "office_name": null,
    "office_name_kana": null
  },
  "0837": {
    "postcode": "3900837",
    "prefecture": "長野県",
    "prefecture_kana": "ナガノケン",
    "prefecture_code": 20,
    "city": "松本市",
    "city_kana": "マツモトシ",
    "town": "鎌田",
    "town_kana": "カマダ",
    "street": null,
    "office_name": null,
    "office_name_kana": null
  },
  "0841": {
    "postcode": "3900841",
    "prefecture": "長野県",
    "prefecture_kana": "ナガノケン",
    "prefecture_code": 20,
    "city": "松本市",
    "city_kana": "マツモトシ",
    "town": "渚",
    "town_kana": "ナギサ",
    "street": null,
    "office_name": null,
    "office_name_kana": null
  },
  "0842": {
    "postcode": "3900842",
    "prefecture": "長野県",
    "prefecture_kana": "ナガノケン",
    "prefecture_code": 20,
    "city": "松本市",
    "city_kana": "マツモトシ",
    "town": "征矢野",
    "town_kana": "ソヤノ",
    "street": null,
    "office_name": null,
    "office_name_kana": null
  },
  "0843": {
    "postcode": "3900843",
    "prefecture": "長野県",
    "prefecture_kana": "ナガノケン",
    "prefecture_code": 20,
    "city": "松本市",
    "city_kana": "マツモトシ",
    "town": "高宮南",
    "town_kana": "タカミヤミナミ",
    "street": null,
    "office_name": null,
    "office_name_kana": null
  },
  "0844": {
    "postcode": "3900844",
    "prefecture": "長野県",
    "prefecture_kana": "ナガノケン",
    "prefecture_code": 20,
    "city": "松本市",
    "city_kana": "マツモトシ",
    "town": "高宮西",
    "town_kana": "タカミヤニシ",
    "street": null,
    "office_name": null,
    "office_name_kana": null
  },
  "0845": {
    "postcode": "3900845",
    "prefecture": "長野県",
    "prefecture_kana": "ナガノケン",
    "prefecture_code": 20,
    "city": "松本市",
    "city_kana": "マツモトシ",
    "town": "石芝",
    "town_kana": "イシシバ",
    "street": null,
    "office_name": null,
    "office_name_kana": null
  },
  "0846": {
    "postcode": "3900846",
    "prefecture": "長野県",
    "prefecture_kana": "ナガノケン",
    "prefecture_code": 20,
    "city": "松本市",
    "city_kana": "マツモトシ",
    "town": "南原",
    "town_kana": "ミナミハラ",
    "street": null,
    "office_name": null,
    "office_name_kana": null
  },
  "0847": {
    "postcode": "3900847",
    "prefecture": "長野県",
    "prefecture_kana": "ナガノケン",
    "prefecture_code": 20,
    "city": "松本市",
    "city_kana": "マツモトシ",
    "town": "笹部",
    "town_kana": "ササベ",
    "street": null,
    "office_name": null,
    "office_name_kana": null
  },
  "0848": {
    "postcode": "3900848",
    "prefecture": "長野県",
    "prefecture_kana": "ナガノケン",
    "prefecture_code": 20,
    "city": "松本市",
    "city_kana": "マツモトシ",
    "town": "両島",
    "town_kana": "リョウシマ",
    "street": null,
    "office_name": null,
    "office_name_kana": null
  },
  "0851": {
    "postcode": "3900851",
    "prefecture": "長野県",
    "prefecture_kana": "ナガノケン",
    "prefecture_code": 20,
    "city": "松本市",
    "city_kana": "マツモトシ",
    "town": "島内",
    "town_kana": "シマウチ",
    "street": null,
    "office_name": null,
    "office_name_kana": null
  },
  "0852": {
    "postcode": "3900852",
    "prefecture": "長野県",
    "prefecture_kana": "ナガノケン",
    "prefecture_code": 20,
    "city": "松本市",
    "city_kana": "マツモトシ",
    "town": "島立",
    "town_kana": "シマダチ",
    "street": null,
    "office_name": null,
    "office_name_kana": null
  },
  "0861": {
    "postcode": "3900861",
    "prefecture": "長野県",
    "prefecture_kana": "ナガノケン",
    "prefecture_code": 20,
    "city": "松本市",
    "city_kana": "マツモトシ",
    "town": "蟻ケ崎",
    "town_kana": "アリガサキ",
    "street": null,
    "office_name": null,
    "office_name_kana": null
  },
  "0862": {
    "postcode": "3900862",
    "prefecture": "長野県",
    "prefecture_kana": "ナガノケン",
    "prefecture_code": 20,
    "city": "松本市",
    "city_kana": "マツモトシ",
    "town": "宮渕",
    "town_kana": "ミヤブチ",
    "street": null,
    "office_name": null,
    "office_name_kana": null
  },
  "0863": {
    "postcode": "3900863",
    "prefecture": "長野県",
    "prefecture_kana": "ナガノケン",
    "prefecture_code": 20,
    "city": "松本市",
    "city_kana": "マツモトシ",
    "town": "白板",
    "town_kana": "シライタ",
    "street": null,
    "office_name": null,
    "office_name_kana": null
  },
  "0864": {
    "postcode": "3900864",
    "prefecture": "長野県",
    "prefecture_kana": "ナガノケン",
    "prefecture_code": 20,
    "city": "松本市",
    "city_kana": "マツモトシ",
    "town": "宮渕本村",
    "town_kana": "ミヤブチホンムラ",
    "street": null,
    "office_name": null,
    "office_name_kana": null
  },
  "0865": {
    "postcode": "3900865",
    "prefecture": "長野県",
    "prefecture_kana": "ナガノケン",
    "prefecture_code": 20,
    "city": "松本市",
    "city_kana": "マツモトシ",
    "town": "新橋",
    "town_kana": "シンバシ",
    "street": null,
    "office_name": null,
    "office_name_kana": null
  },
  "0866": {
    "postcode": "3900866",
    "prefecture": "長野県",
    "prefecture_kana": "ナガノケン",
    "prefecture_code": 20,
    "city": "松本市",
    "city_kana": "マツモトシ",
    "town": "城山",
    "town_kana": "ジョウヤマ",
    "street": null,
    "office_name": null,
    "office_name_kana": null
  },
  "0867": {
    "postcode": "3900867",
    "prefecture": "長野県",
    "prefecture_kana": "ナガノケン",
    "prefecture_code": 20,
    "city": "松本市",
    "city_kana": "マツモトシ",
    "town": "蟻ケ崎台",
    "town_kana": "アリガサキダイ",
    "street": null,
    "office_name": null,
    "office_name_kana": null
  },
  "0871": {
    "postcode": "3900871",
    "prefecture": "長野県",
    "prefecture_kana": "ナガノケン",
    "prefecture_code": 20,
    "city": "松本市",
    "city_kana": "マツモトシ",
    "town": "桐",
    "town_kana": "キリ",
    "street": null,
    "office_name": null,
    "office_name_kana": null
  },
  "0872": {
    "postcode": "3900872",
    "prefecture": "長野県",
    "prefecture_kana": "ナガノケン",
    "prefecture_code": 20,
    "city": "松本市",
    "city_kana": "マツモトシ",
    "town": "北深志",
    "town_kana": "キタフカシ",
    "street": null,
    "office_name": null,
    "office_name_kana": null
  },
  "0873": {
    "postcode": "3900873",
    "prefecture": "長野県",
    "prefecture_kana": "ナガノケン",
    "prefecture_code": 20,
    "city": "松本市",
    "city_kana": "マツモトシ",
    "town": "丸の内",
    "town_kana": "マルノウチ",
    "street": null,
    "office_name": null,
    "office_name_kana": null
  },
  "0874": {
    "postcode": "3900874",
    "prefecture": "長野県",
    "prefecture_kana": "ナガノケン",
    "prefecture_code": 20,
    "city": "松本市",
    "city_kana": "マツモトシ",
    "town": "大手",
    "town_kana": "オオテ",
    "street": null,
    "office_name": null,
    "office_name_kana": null
  },
  "0875": {
    "postcode": "3900875",
    "prefecture": "長野県",
    "prefecture_kana": "ナガノケン",
    "prefecture_code": 20,
    "city": "松本市",
    "city_kana": "マツモトシ",
    "town": "城西",
    "town_kana": "ジョウセイ",
    "street": null,
    "office_name": null,
    "office_name_kana": null
  },
  "0876": {
    "postcode": "3900876",
    "prefecture": "長野県",
    "prefecture_kana": "ナガノケン",
    "prefecture_code": 20,
    "city": "松本市",
    "city_kana": "マツモトシ",
    "town": "開智",
    "town_kana": "カイチ",
    "street": null,
    "office_name": null,
    "office_name_kana": null
  },
  "0877": {
    "postcode": "3900877",
    "prefecture": "長野県",
    "prefecture_kana": "ナガノケン",
    "prefecture_code": 20,
    "city": "松本市",
    "city_kana": "マツモトシ",
    "town": "沢村",
    "town_kana": "サワムラ",
    "street": null,
    "office_name": null,
    "office_name_kana": null
  },
  "1100": {
    "postcode": "3901100",
    "prefecture": "長野県",
    "prefecture_kana": "ナガノケン",
    "prefecture_code": 20,
    "city": "東筑摩郡朝日村",
    "city_kana": "ヒガシチクマグンアサヒムラ",
    "town": "",
    "town_kana": "",
    "street": null,
    "office_name": null,
    "office_name_kana": null
  },
  "1101": {
    "postcode": "3901101",
    "prefecture": "長野県",
    "prefecture_kana": "ナガノケン",
    "prefecture_code": 20,
    "city": "東筑摩郡朝日村",
    "city_kana": "ヒガシチクマグンアサヒムラ",
    "town": "西洗馬",
    "town_kana": "ニシセバ",
    "street": null,
    "office_name": null,
    "office_name_kana": null
  },
  "1102": {
    "postcode": "3901102",
    "prefecture": "長野県",
    "prefecture_kana": "ナガノケン",
    "prefecture_code": 20,
    "city": "東筑摩郡朝日村",
    "city_kana": "ヒガシチクマグンアサヒムラ",
    "town": "小野沢",
    "town_kana": "オノザワ",
    "street": null,
    "office_name": null,
    "office_name_kana": null
  },
  "1103": {
    "postcode": "3901103",
    "prefecture": "長野県",
    "prefecture_kana": "ナガノケン",
    "prefecture_code": 20,
    "city": "東筑摩郡朝日村",
    "city_kana": "ヒガシチクマグンアサヒムラ",
    "town": "針尾",
    "town_kana": "ハリオ",
    "street": null,
    "office_name": null,
    "office_name_kana": null
  },
  "1104": {
    "postcode": "3901104",
    "prefecture": "長野県",
    "prefecture_kana": "ナガノケン",
    "prefecture_code": 20,
    "city": "東筑摩郡朝日村",
    "city_kana": "ヒガシチクマグンアサヒムラ",
    "town": "古見",
    "town_kana": "コミ",
    "street": null,
    "office_name": null,
    "office_name_kana": null
  },
  "1131": {
    "postcode": "3901131",
    "prefecture": "長野県",
    "prefecture_kana": "ナガノケン",
    "prefecture_code": 20,
    "city": "松本市",
    "city_kana": "マツモトシ",
    "town": "今井",
    "town_kana": "イマイ",
    "street": null,
    "office_name": null,
    "office_name_kana": null
  },
  "1132": {
    "postcode": "3901132",
    "prefecture": "長野県",
    "prefecture_kana": "ナガノケン",
    "prefecture_code": 20,
    "city": "松本市",
    "city_kana": "マツモトシ",
    "town": "空港東",
    "town_kana": "クウコウヒガシ",
    "street": null,
    "office_name": null,
    "office_name_kana": null
  },
  "1181": {
    "postcode": "3901181",
    "prefecture": "長野県",
    "prefecture_kana": "ナガノケン",
    "prefecture_code": 20,
    "city": "松本市",
    "city_kana": "マツモトシ",
    "town": "大字今井",
    "town_kana": null,
    "street": "７１５５−２８",
    "office_name": "株式会社　アップルランド",
    "office_name_kana": "カブシキガイシヤ アツプルランド"
  },
  "1182": {
    "postcode": "3901182",
    "prefecture": "長野県",
    "prefecture_kana": "ナガノケン",
    "prefecture_code": 20,
    "city": "松本市",
    "city_kana": "マツモトシ",
    "town": "大字今井",
    "town_kana": null,
    "street": "１５３５",
    "office_name": "松本養護学校",
    "office_name_kana": "マツモトヨウゴガツコウ"
  },
  "1183": {
    "postcode": "3901183",
    "prefecture": "長野県",
    "prefecture_kana": "ナガノケン",
    "prefecture_code": 20,
    "city": "松本市",
    "city_kana": "マツモトシ",
    "town": "大字今井",
    "town_kana": null,
    "street": "７１６０",
    "office_name": "片倉機器工業　株式会社",
    "office_name_kana": "カタクラキキコウギヨウ カブシキガイシヤ"
  },
  "1185": {
    "postcode": "3901185",
    "prefecture": "長野県",
    "prefecture_kana": "ナガノケン",
    "prefecture_code": 20,
    "city": "松本市",
    "city_kana": "マツモトシ",
    "town": "大字今井",
    "town_kana": null,
    "street": "７１１０−８０",
    "office_name": "松築　株式会社",
    "office_name_kana": "シヨウチク カブシキガイシヤ"
  },
  "1186": {
    "postcode": "3901186",
    "prefecture": "長野県",
    "prefecture_kana": "ナガノケン",
    "prefecture_code": 20,
    "city": "松本市",
    "city_kana": "マツモトシ",
    "town": "大字今井",
    "town_kana": null,
    "street": "松本道７１１０−４８",
    "office_name": "株式会社　マルイチ産商　松本支店",
    "office_name_kana": "カブシキガイシヤ マルイチサンシヨウ マツモトシテン"
  },
  "1187": {
    "postcode": "3901187",
    "prefecture": "長野県",
    "prefecture_kana": "ナガノケン",
    "prefecture_code": 20,
    "city": "松本市",
    "city_kana": "マツモトシ",
    "town": "大字今井",
    "town_kana": null,
    "street": "７２５０",
    "office_name": "株式会社　エフケーケー",
    "office_name_kana": "カブシキガイシヤ エフケ-ケ-"
  },
  "1188": {
    "postcode": "3901188",
    "prefecture": "長野県",
    "prefecture_kana": "ナガノケン",
    "prefecture_code": 20,
    "city": "東筑摩郡朝日村",
    "city_kana": "ヒガシチクマグンアサヒムラ",
    "town": "大字古見",
    "town_kana": null,
    "street": "１５５５−１",
    "office_name": "朝日村役場",
    "office_name_kana": "アサヒムラヤクバ"
  },
  "1189": {
    "postcode": "3901189",
    "prefecture": "長野県",
    "prefecture_kana": "ナガノケン",
    "prefecture_code": 20,
    "city": "松本市",
    "city_kana": "マツモトシ",
    "town": "大字今井",
    "town_kana": null,
    "street": "７１５５−５５",
    "office_name": "エヌシーシー　株式会社　松本支店",
    "office_name_kana": "エヌシ-シ- カブシキガイシヤ マツモトシテン"
  },
  "1193": {
    "postcode": "3901193",
    "prefecture": "長野県",
    "prefecture_kana": "ナガノケン",
    "prefecture_code": 20,
    "city": "東筑摩郡朝日村",
    "city_kana": "ヒガシチクマグンアサヒムラ",
    "town": "大字小野沢",
    "town_kana": null,
    "street": "２５０",
    "office_name": "松本ハイランド農協　朝日支所",
    "office_name_kana": "マツモトハイランドノウキヨウ アサヒシシヨ"
  },
  "1197": {
    "postcode": "3901197",
    "prefecture": "長野県",
    "prefecture_kana": "ナガノケン",
    "prefecture_code": 20,
    "city": "松本市",
    "city_kana": "マツモトシ",
    "town": "大字今井",
    "town_kana": null,
    "street": "６９５５",
    "office_name": "長野三菱ふそう自動車販売　株式会社　松本支店",
    "office_name_kana": "ナガノミツビシフソウジドウシヤハンバイ カブシキガイシヤ マツモトシテン"
  },
  "1198": {
    "postcode": "3901198",
    "prefecture": "長野県",
    "prefecture_kana": "ナガノケン",
    "prefecture_code": 20,
    "city": "松本市",
    "city_kana": "マツモトシ",
    "town": "大字今井",
    "town_kana": null,
    "street": "７１１０−４５",
    "office_name": "株式会社　ワールドインダストリー松本技術研究所",
    "office_name_kana": "カブシキガイシヤ ワ-ルドインダストリ-マツモトギジユツケンキユウジヨ"
  },
  "1241": {
    "postcode": "3901241",
    "prefecture": "長野県",
    "prefecture_kana": "ナガノケン",
    "prefecture_code": 20,
    "city": "松本市",
    "city_kana": "マツモトシ",
    "town": "新村",
    "town_kana": "ニイムラ",
    "street": null,
    "office_name": null,
    "office_name_kana": null
  },
  "1242": {
    "postcode": "3901242",
    "prefecture": "長野県",
    "prefecture_kana": "ナガノケン",
    "prefecture_code": 20,
    "city": "松本市",
    "city_kana": "マツモトシ",
    "town": "和田",
    "town_kana": "ワダ",
    "street": null,
    "office_name": null,
    "office_name_kana": null
  },
  "1243": {
    "postcode": "3901243",
    "prefecture": "長野県",
    "prefecture_kana": "ナガノケン",
    "prefecture_code": 20,
    "city": "松本市",
    "city_kana": "マツモトシ",
    "town": "神林",
    "town_kana": "カンバヤシ",
    "street": null,
    "office_name": null,
    "office_name_kana": null
  },
  "1293": {
    "postcode": "3901293",
    "prefecture": "長野県",
    "prefecture_kana": "ナガノケン",
    "prefecture_code": 20,
    "city": "松本市",
    "city_kana": "マツモトシ",
    "town": "大字和田",
    "town_kana": null,
    "street": "４０１０−１０",
    "office_name": "キッセイコムテック　株式会社",
    "office_name_kana": "キツセイコムテツク カブシキガイシヤ"
  },
  "1295": [
    {
      "postcode": "3901295",
      "prefecture": "長野県",
      "prefecture_kana": "ナガノケン",
      "prefecture_code": 20,
      "city": "松本市",
      "city_kana": "マツモトシ",
      "town": "大字新村",
      "town_kana": null,
      "street": "２０９５−１",
      "office_name": "松本大学",
      "office_name_kana": "マツモトダイガク"
    },
    {
      "postcode": "3901295",
      "prefecture": "長野県",
      "prefecture_kana": "ナガノケン",
      "prefecture_code": 20,
      "city": "松本市",
      "city_kana": "マツモトシ",
      "town": "大字新村",
      "town_kana": null,
      "street": "２０９５−１",
      "office_name": "松本大学　松商短期大学部",
      "office_name_kana": "マツモトダイガク マツシヨウタンキダイガクブ"
    }
  ],
  "1298": {
    "postcode": "3901298",
    "prefecture": "長野県",
    "prefecture_kana": "ナガノケン",
    "prefecture_code": 20,
    "city": "松本市",
    "city_kana": "マツモトシ",
    "town": "大字和田",
    "town_kana": null,
    "street": "３９６７−１０",
    "office_name": "東洋計器　株式会社",
    "office_name_kana": "トウヨウケイキ カブシキガイシヤ"
  },
  "1301": {
    "postcode": "3901301",
    "prefecture": "長野県",
    "prefecture_kana": "ナガノケン",
    "prefecture_code": 20,
    "city": "東筑摩郡山形村",
    "city_kana": "ヒガシチクマグンヤマガタムラ",
    "town": "",
    "town_kana": "",
    "street": null,
    "office_name": null,
    "office_name_kana": null
  },
  "1392": {
    "postcode": "3901392",
    "prefecture": "長野県",
    "prefecture_kana": "ナガノケン",
    "prefecture_code": 20,
    "city": "東筑摩郡山形村",
    "city_kana": "ヒガシチクマグンヤマガタムラ",
    "town": "",
    "town_kana": "",
    "street": "２０３０−１",
    "office_name": "山形村役場",
    "office_name_kana": "ヤマガタムラヤクバ"
  },
  "1393": {
    "postcode": "3901393",
    "prefecture": "長野県",
    "prefecture_kana": "ナガノケン",
    "prefecture_code": 20,
    "city": "東筑摩郡山形村",
    "city_kana": "ヒガシチクマグンヤマガタムラ",
    "town": "",
    "town_kana": "",
    "street": "４０８２−３",
    "office_name": "サンリン　株式会社",
    "office_name_kana": "サンリン カブシキガイシヤ"
  },
  "1394": {
    "postcode": "3901394",
    "prefecture": "長野県",
    "prefecture_kana": "ナガノケン",
    "prefecture_code": 20,
    "city": "東筑摩郡山形村",
    "city_kana": "ヒガシチクマグンヤマガタムラ",
    "town": "",
    "town_kana": "",
    "street": "字北野尻７９７７",
    "office_name": "アイシティー２１　株式会社　井上",
    "office_name_kana": "アイシテイ-ニジユウイチ カブシキガイシヤ イノウエ"
  },
  "1401": {
    "postcode": "3901401",
    "prefecture": "長野県",
    "prefecture_kana": "ナガノケン",
    "prefecture_code": 20,
    "city": "松本市",
    "city_kana": "マツモトシ",
    "town": "波田",
    "town_kana": "ハタ",
    "street": null,
    "office_name": null,
    "office_name_kana": null
  },
  "1492": {
    "postcode": "3901492",
    "prefecture": "長野県",
    "prefecture_kana": "ナガノケン",
    "prefecture_code": 20,
    "city": "松本市",
    "city_kana": "マツモトシ",
    "town": "波田",
    "town_kana": "ハタ",
    "street": "４４１７番地１",
    "office_name": "松本市役所　波田支所",
    "office_name_kana": "マツモトシヤクシヨ ハタシシヨ"
  },
  "1501": [
    {
      "postcode": "3901501",
      "prefecture": "長野県",
      "prefecture_kana": "ナガノケン",
      "prefecture_code": 20,
      "city": "松本市",
      "city_kana": "マツモトシ",
      "town": "安曇",
      "town_kana": "アヅミ",
      "street": null,
      "office_name": null,
      "office_name_kana": null
    },
    {
      "postcode": "3901501",
      "prefecture": "長野県",
      "prefecture_kana": "ナガノケン",
      "prefecture_code": 20,
      "city": "松本市",
      "city_kana": "マツモトシ",
      "town": "安曇大野田",
      "town_kana": "アヅミオオノタ",
      "street": null,
      "office_name": null,
      "office_name_kana": null
    }
  ],
  "1502": [
    {
      "postcode": "3901502",
      "prefecture": "長野県",
      "prefecture_kana": "ナガノケン",
      "prefecture_code": 20,
      "city": "松本市",
      "city_kana": "マツモトシ",
      "town": "安曇",
      "town_kana": "アヅミ",
      "street": null,
      "office_name": null,
      "office_name_kana": null
    },
    {
      "postcode": "3901502",
      "prefecture": "長野県",
      "prefecture_kana": "ナガノケン",
      "prefecture_code": 20,
      "city": "松本市",
      "city_kana": "マツモトシ",
      "town": "安曇島々",
      "town_kana": "アヅミシマシマ",
      "street": null,
      "office_name": null,
      "office_name_kana": null
    }
  ],
  "1503": [
    {
      "postcode": "3901503",
      "prefecture": "長野県",
      "prefecture_kana": "ナガノケン",
      "prefecture_code": 20,
      "city": "松本市",
      "city_kana": "マツモトシ",
      "town": "安曇",
      "town_kana": "アヅミ",
      "street": null,
      "office_name": null,
      "office_name_kana": null
    },
    {
      "postcode": "3901503",
      "prefecture": "長野県",
      "prefecture_kana": "ナガノケン",
      "prefecture_code": 20,
      "city": "松本市",
      "city_kana": "マツモトシ",
      "town": "安曇橋場",
      "town_kana": "アヅミハシバ",
      "street": null,
      "office_name": null,
      "office_name_kana": null
    }
  ],
  "1504": [
    {
      "postcode": "3901504",
      "prefecture": "長野県",
      "prefecture_kana": "ナガノケン",
      "prefecture_code": 20,
      "city": "松本市",
      "city_kana": "マツモトシ",
      "town": "安曇",
      "town_kana": "アヅミ",
      "street": null,
      "office_name": null,
      "office_name_kana": null
    },
    {
      "postcode": "3901504",
      "prefecture": "長野県",
      "prefecture_kana": "ナガノケン",
      "prefecture_code": 20,
      "city": "松本市",
      "city_kana": "マツモトシ",
      "town": "安曇稲核",
      "town_kana": "アヅミイネコキ",
      "street": null,
      "office_name": null,
      "office_name_kana": null
    }
  ],
  "1506": [
    {
      "postcode": "3901506",
      "prefecture": "長野県",
      "prefecture_kana": "ナガノケン",
      "prefecture_code": 20,
      "city": "松本市",
      "city_kana": "マツモトシ",
      "town": "安曇",
      "town_kana": "アヅミ",
      "street": null,
      "office_name": null,
      "office_name_kana": null
    },
    {
      "postcode": "3901506",
      "prefecture": "長野県",
      "prefecture_kana": "ナガノケン",
      "prefecture_code": 20,
      "city": "松本市",
      "city_kana": "マツモトシ",
      "town": "安曇番所",
      "town_kana": "アヅミバンドコロ",
      "street": null,
      "office_name": null,
      "office_name_kana": null
    }
  ],
  "1507": [
    {
      "postcode": "3901507",
      "prefecture": "長野県",
      "prefecture_kana": "ナガノケン",
      "prefecture_code": 20,
      "city": "松本市",
      "city_kana": "マツモトシ",
      "town": "安曇",
      "town_kana": "アヅミ",
      "street": null,
      "office_name": null,
      "office_name_kana": null
    },
    {
      "postcode": "3901507",
      "prefecture": "長野県",
      "prefecture_kana": "ナガノケン",
      "prefecture_code": 20,
      "city": "松本市",
      "city_kana": "マツモトシ",
      "town": "安曇宮の原",
      "town_kana": "アヅミミヤノハラ",
      "street": null,
      "office_name": null,
      "office_name_kana": null
    }
  ],
  "1511": [
    {
      "postcode": "3901511",
      "prefecture": "長野県",
      "prefecture_kana": "ナガノケン",
      "prefecture_code": 20,
      "city": "松本市",
      "city_kana": "マツモトシ",
      "town": "安曇",
      "town_kana": "アヅミ",
      "street": null,
      "office_name": null,
      "office_name_kana": null
    },
    {
      "postcode": "3901511",
      "prefecture": "長野県",
      "prefecture_kana": "ナガノケン",
      "prefecture_code": 20,
      "city": "松本市",
      "city_kana": "マツモトシ",
      "town": "安曇千石平",
      "town_kana": "アヅミセンゴクダイラ",
      "street": null,
      "office_name": null,
      "office_name_kana": null
    }
  ],
  "1512": [
    {
      "postcode": "3901512",
      "prefecture": "長野県",
      "prefecture_kana": "ナガノケン",
      "prefecture_code": 20,
      "city": "松本市",
      "city_kana": "マツモトシ",
      "town": "安曇",
      "town_kana": "アヅミ",
      "street": null,
      "office_name": null,
      "office_name_kana": null
    },
    {
      "postcode": "3901512",
      "prefecture": "長野県",
      "prefecture_kana": "ナガノケン",
      "prefecture_code": 20,
      "city": "松本市",
      "city_kana": "マツモトシ",
      "town": "安曇楢ノ木",
      "town_kana": "アヅミナラノキ",
      "street": null,
      "office_name": null,
      "office_name_kana": null
    }
  ],
  "1513": [
    {
      "postcode": "3901513",
      "prefecture": "長野県",
      "prefecture_kana": "ナガノケン",
      "prefecture_code": 20,
      "city": "松本市",
      "city_kana": "マツモトシ",
      "town": "安曇",
      "town_kana": "アヅミ",
      "street": null,
      "office_name": null,
      "office_name_kana": null
    },
    {
      "postcode": "3901513",
      "prefecture": "長野県",
      "prefecture_kana": "ナガノケン",
      "prefecture_code": 20,
      "city": "松本市",
      "city_kana": "マツモトシ",
      "town": "安曇鈴蘭",
      "town_kana": "アヅミスズラン",
      "street": null,
      "office_name": null,
      "office_name_kana": null
    }
  ],
  "1514": [
    {
      "postcode": "3901514",
      "prefecture": "長野県",
      "prefecture_kana": "ナガノケン",
      "prefecture_code": 20,
      "city": "松本市",
      "city_kana": "マツモトシ",
      "town": "安曇",
      "town_kana": "アヅミ",
      "street": null,
      "office_name": null,
      "office_name_kana": null
    },
    {
      "postcode": "3901514",
      "prefecture": "長野県",
      "prefecture_kana": "ナガノケン",
      "prefecture_code": 20,
      "city": "松本市",
      "city_kana": "マツモトシ",
      "town": "安曇沢渡",
      "town_kana": "アヅミサワンド",
      "street": null,
      "office_name": null,
      "office_name_kana": null
    }
  ],
  "1515": [
    {
      "postcode": "3901515",
      "prefecture": "長野県",
      "prefecture_kana": "ナガノケン",
      "prefecture_code": 20,
      "city": "松本市",
      "city_kana": "マツモトシ",
      "town": "安曇",
      "town_kana": "アヅミ",
      "street": null,
      "office_name": null,
      "office_name_kana": null
    },
    {
      "postcode": "3901515",
      "prefecture": "長野県",
      "prefecture_kana": "ナガノケン",
      "prefecture_code": 20,
      "city": "松本市",
      "city_kana": "マツモトシ",
      "town": "安曇白骨",
      "town_kana": "アヅミシラホネ",
      "street": null,
      "office_name": null,
      "office_name_kana": null
    }
  ],
  "1516": [
    {
      "postcode": "3901516",
      "prefecture": "長野県",
      "prefecture_kana": "ナガノケン",
      "prefecture_code": 20,
      "city": "松本市",
      "city_kana": "マツモトシ",
      "town": "安曇",
      "town_kana": "アヅミ",
      "street": null,
      "office_name": null,
      "office_name_kana": null
    },
    {
      "postcode": "3901516",
      "prefecture": "長野県",
      "prefecture_kana": "ナガノケン",
      "prefecture_code": 20,
      "city": "松本市",
      "city_kana": "マツモトシ",
      "town": "安曇上高地",
      "town_kana": "アヅミカミコウチ",
      "street": null,
      "office_name": null,
      "office_name_kana": null
    }
  ],
  "1520": {
    "postcode": "3901520",
    "prefecture": "長野県",
    "prefecture_kana": "ナガノケン",
    "prefecture_code": 20,
    "city": "松本市",
    "city_kana": "マツモトシ",
    "town": "安曇",
    "town_kana": "アヅミ",
    "street": null,
    "office_name": null,
    "office_name_kana": null
  },
  "1592": {
    "postcode": "3901592",
    "prefecture": "長野県",
    "prefecture_kana": "ナガノケン",
    "prefecture_code": 20,
    "city": "松本市",
    "city_kana": "マツモトシ",
    "town": "安曇",
    "town_kana": "アヅミ",
    "street": "１０６１−１",
    "office_name": "松本市役所　安曇支所",
    "office_name_kana": "マツモトシヤクシヨ アヅミシシヨ"
  },
  "1611": {
    "postcode": "3901611",
    "prefecture": "長野県",
    "prefecture_kana": "ナガノケン",
    "prefecture_code": 20,
    "city": "松本市",
    "city_kana": "マツモトシ",
    "town": "奈川",
    "town_kana": "ナガワ",
    "street": null,
    "office_name": null,
    "office_name_kana": null
  },
  "1701": {
    "postcode": "3901701",
    "prefecture": "長野県",
    "prefecture_kana": "ナガノケン",
    "prefecture_code": 20,
    "city": "松本市",
    "city_kana": "マツモトシ",
    "town": "梓川倭",
    "town_kana": "アズサガワヤマト",
    "street": null,
    "office_name": null,
    "office_name_kana": null
  },
  "1702": {
    "postcode": "3901702",
    "prefecture": "長野県",
    "prefecture_kana": "ナガノケン",
    "prefecture_code": 20,
    "city": "松本市",
    "city_kana": "マツモトシ",
    "town": "梓川梓",
    "town_kana": "アズサガワアズサ",
    "street": null,
    "office_name": null,
    "office_name_kana": null
  },
  "1703": {
    "postcode": "3901703",
    "prefecture": "長野県",
    "prefecture_kana": "ナガノケン",
    "prefecture_code": 20,
    "city": "松本市",
    "city_kana": "マツモトシ",
    "town": "梓川上野",
    "town_kana": "アズサガワウエノ",
    "street": null,
    "office_name": null,
    "office_name_kana": null
  },
  "1792": {
    "postcode": "3901792",
    "prefecture": "長野県",
    "prefecture_kana": "ナガノケン",
    "prefecture_code": 20,
    "city": "松本市",
    "city_kana": "マツモトシ",
    "town": "梓川梓",
    "town_kana": "アズサガワアズサ",
    "street": "２２８８−３",
    "office_name": "松本市役所　梓川支所",
    "office_name_kana": "マツモトシヤクシヨ アズサガワシシヨ"
  },
  "8501": {
    "postcode": "3908501",
    "prefecture": "長野県",
    "prefecture_kana": "ナガノケン",
    "prefecture_code": 20,
    "city": "松本市",
    "city_kana": "マツモトシ",
    "town": "本庄",
    "town_kana": "ホンジョウ",
    "street": "１丁目５−１４",
    "office_name": "岡野薬品　株式会社",
    "office_name_kana": "オカノヤクヒン カブシキガイシヤ"
  },
  "8502": {
    "postcode": "3908502",
    "prefecture": "長野県",
    "prefecture_kana": "ナガノケン",
    "prefecture_code": 20,
    "city": "松本市",
    "city_kana": "マツモトシ",
    "town": "深志",
    "town_kana": "フカシ",
    "street": "３丁目１０−３",
    "office_name": "ＮＨＫ　松本支局",
    "office_name_kana": "エヌエイチケイ マツモトシキヨク"
  },
  "8503": {
    "postcode": "3908503",
    "prefecture": "長野県",
    "prefecture_kana": "ナガノケン",
    "prefecture_code": 20,
    "city": "松本市",
    "city_kana": "マツモトシ",
    "town": "中央",
    "town_kana": "チュウオウ",
    "street": "１丁目２３−１",
    "office_name": "松本商工会議所",
    "office_name_kana": "マツモトシヨウコウカイギシヨ"
  },
  "8505": {
    "postcode": "3908505",
    "prefecture": "長野県",
    "prefecture_kana": "ナガノケン",
    "prefecture_code": 20,
    "city": "松本市",
    "city_kana": "マツモトシ",
    "town": "巾上",
    "town_kana": "ハバウエ",
    "street": "９−２６",
    "office_name": "松本協立病院",
    "office_name_kana": "マツモトキヨウリツビヨウイン"
  },
  "8506": {
    "postcode": "3908506",
    "prefecture": "長野県",
    "prefecture_kana": "ナガノケン",
    "prefecture_code": 20,
    "city": "松本市",
    "city_kana": "マツモトシ",
    "town": "埋橋",
    "town_kana": "ウズハシ",
    "street": "１丁目５−３",
    "office_name": "中部電力パワーグリッド　株式会社　松本営業所",
    "office_name_kana": "チユウブデンリヨクパワ-グリツド カブシキガイシヤ マツモトエイギヨウシヨ"
  },
  "8507": {
    "postcode": "3908507",
    "prefecture": "長野県",
    "prefecture_kana": "ナガノケン",
    "prefecture_code": 20,
    "city": "松本市",
    "city_kana": "マツモトシ",
    "town": "深志",
    "town_kana": "フカシ",
    "street": "２丁目３−１",
    "office_name": "株式会社　井上",
    "office_name_kana": "カブシキガイシヤ イノウエ"
  },
  "8508": {
    "postcode": "3908508",
    "prefecture": "長野県",
    "prefecture_kana": "ナガノケン",
    "prefecture_code": 20,
    "city": "松本市",
    "city_kana": "マツモトシ",
    "town": "高宮西",
    "town_kana": "タカミヤニシ",
    "street": "１−１",
    "office_name": "陸上自衛隊　松本駐屯地",
    "office_name_kana": "リクジヨウジエイタイ マツモトチユウトンチ"
  },
  "8510": {
    "postcode": "3908510",
    "prefecture": "長野県",
    "prefecture_kana": "ナガノケン",
    "prefecture_code": 20,
    "city": "松本市",
    "city_kana": "マツモトシ",
    "town": "本庄",
    "town_kana": "ホンジョウ",
    "street": "２丁目５−１",
    "office_name": "特定医療法人　慈泉会　（財団）　相沢病院",
    "office_name_kana": "トクテイイリヨウホウジン ジセンカイ (ザイダン) アイザワビヨウイン"
  },
  "8511": {
    "postcode": "3908511",
    "prefecture": "長野県",
    "prefecture_kana": "ナガノケン",
    "prefecture_code": 20,
    "city": "松本市",
    "city_kana": "マツモトシ",
    "town": "深志",
    "town_kana": "フカシ",
    "street": "３丁目１０−３",
    "office_name": "社団法人　才能教育研究会",
    "office_name_kana": "シヤダンホウジン サイノウキヨウイクケンキユウカイ"
  },
  "8515": {
    "postcode": "3908515",
    "prefecture": "長野県",
    "prefecture_kana": "ナガノケン",
    "prefecture_code": 20,
    "city": "松本市",
    "city_kana": "マツモトシ",
    "town": "県",
    "town_kana": "アガタ",
    "street": "３丁目６−１",
    "office_name": "松商学園高等学校",
    "office_name_kana": "マツシヨウガクエンコウトウガツコウ"
  },
  "8518": {
    "postcode": "3908518",
    "prefecture": "長野県",
    "prefecture_kana": "ナガノケン",
    "prefecture_code": 20,
    "city": "松本市",
    "city_kana": "マツモトシ",
    "town": "井川城",
    "town_kana": "イガワジョウ",
    "street": "２丁目１番地１号",
    "office_name": "アルピコ交通　株式会社",
    "office_name_kana": "アルピココウツウ カブシキガイシヤ"
  },
  "8520": {
    "postcode": "3908520",
    "prefecture": "長野県",
    "prefecture_kana": "ナガノケン",
    "prefecture_code": 20,
    "city": "松本市",
    "city_kana": "マツモトシ",
    "town": "本庄",
    "town_kana": "ホンジョウ",
    "street": "１丁目１３−５",
    "office_name": "長野エフエム放送　株式会社",
    "office_name_kana": "ナガノエフエムホウソウ カブシキガイシヤ"
  },
  "8523": {
    "postcode": "3908523",
    "prefecture": "長野県",
    "prefecture_kana": "ナガノケン",
    "prefecture_code": 20,
    "city": "松本市",
    "city_kana": "マツモトシ",
    "town": "高宮北",
    "town_kana": "タカミヤキタ",
    "street": "３−６",
    "office_name": "松本日産自動車　株式会社",
    "office_name_kana": "マツモトニツサンジドウシヤ カブシキガイシヤ"
  },
  "8525": {
    "postcode": "3908525",
    "prefecture": "長野県",
    "prefecture_kana": "ナガノケン",
    "prefecture_code": 20,
    "city": "松本市",
    "city_kana": "マツモトシ",
    "town": "筑摩",
    "town_kana": "ツカマ",
    "street": "４丁目１１−１",
    "office_name": "長野県松本工業高等学校",
    "office_name_kana": "ナガノケンマツモトコウギヨウコウトウガツコウ"
  },
  "8528": {
    "postcode": "3908528",
    "prefecture": "長野県",
    "prefecture_kana": "ナガノケン",
    "prefecture_code": 20,
    "city": "松本市",
    "city_kana": "マツモトシ",
    "town": "双葉",
    "town_kana": "フタバ",
    "street": "５番２０号",
    "office_name": "イオンリテール　株式会社　北陸信越カンパニー　長野事業部　松本事務所",
    "office_name_kana": "イオンリテ-ル カブシキガイシヤ ホクリクシンエツカンパニ- ナガノジギヨウブ マツモトジムシヨ"
  },
  "8530": {
    "postcode": "3908530",
    "prefecture": "長野県",
    "prefecture_kana": "ナガノケン",
    "prefecture_code": 20,
    "city": "松本市",
    "city_kana": "マツモトシ",
    "town": "庄内",
    "town_kana": "ショウナイ",
    "street": "３丁目４−３９",
    "office_name": "シンケン　株式会社",
    "office_name_kana": "シンケン カブシキガイシヤ"
  },
  "8531": {
    "postcode": "3908531",
    "prefecture": "長野県",
    "prefecture_kana": "ナガノケン",
    "prefecture_code": 20,
    "city": "松本市",
    "city_kana": "マツモトシ",
    "town": "大字島立",
    "town_kana": null,
    "street": "２２３７−４",
    "office_name": "長野県　松本筑摩高等学校",
    "office_name_kana": "ナガノケン マツモトチクマコウトウガツコウ"
  },
  "8533": {
    "postcode": "3908533",
    "prefecture": "長野県",
    "prefecture_kana": "ナガノケン",
    "prefecture_code": 20,
    "city": "松本市",
    "city_kana": "マツモトシ",
    "town": "鎌田",
    "town_kana": "カマダ",
    "street": "１丁目１１−２２",
    "office_name": "トヨタカローラ南信　株式会社",
    "office_name_kana": "トヨタカロ-ラナンシン カブシキガイシヤ"
  },
  "8535": {
    "postcode": "3908535",
    "prefecture": "長野県",
    "prefecture_kana": "ナガノケン",
    "prefecture_code": 20,
    "city": "松本市",
    "city_kana": "マツモトシ",
    "town": "中央",
    "town_kana": "チュウオウ",
    "street": "１丁目４−２０",
    "office_name": "国民生活金融公庫",
    "office_name_kana": "コクミンセイカツキンユウコウコ"
  },
  "8539": {
    "postcode": "3908539",
    "prefecture": "長野県",
    "prefecture_kana": "ナガノケン",
    "prefecture_code": 20,
    "city": "松本市",
    "city_kana": "マツモトシ",
    "town": "大字島立",
    "town_kana": null,
    "street": "８００",
    "office_name": "（株）　市民タイムス",
    "office_name_kana": "カブシキガイシヤ シミンタイムス"
  },
  "8540": {
    "postcode": "3908540",
    "prefecture": "長野県",
    "prefecture_kana": "ナガノケン",
    "prefecture_code": 20,
    "city": "松本市",
    "city_kana": "マツモトシ",
    "town": "渚",
    "town_kana": "ナギサ",
    "street": "３丁目１０−１２",
    "office_name": "ＴＩＳ　株式会社",
    "office_name_kana": "テイ-アイエス カブシキガイシヤ"
  },
  "8541": {
    "postcode": "3908541",
    "prefecture": "長野県",
    "prefecture_kana": "ナガノケン",
    "prefecture_code": 20,
    "city": "松本市",
    "city_kana": "マツモトシ",
    "town": "県",
    "town_kana": "アガタ",
    "street": "１丁目８−１",
    "office_name": "ハナ信用組合　松本支店",
    "office_name_kana": "ハナシンヨウクミアイ マツモトシテン"
  },
  "8543": {
    "postcode": "3908543",
    "prefecture": "長野県",
    "prefecture_kana": "ナガノケン",
    "prefecture_code": 20,
    "city": "松本市",
    "city_kana": "マツモトシ",
    "town": "県",
    "town_kana": "アガタ",
    "street": "２丁目１−１",
    "office_name": "長野県松本県ケ丘高等学校",
    "office_name_kana": "ナガノケンマツモトアガタガオカコウトウガツコウ"
  },
  "8550": {
    "postcode": "3908550",
    "prefecture": "長野県",
    "prefecture_kana": "ナガノケン",
    "prefecture_code": 20,
    "city": "松本市",
    "city_kana": "マツモトシ",
    "town": "筑摩",
    "town_kana": "ツカマ",
    "street": "１−１１−３０",
    "office_name": "エフエムまつもと　株式会社",
    "office_name_kana": "エフエムマツモト カブシキガイシヤ"
  },
  "8555": {
    "postcode": "3908555",
    "prefecture": "長野県",
    "prefecture_kana": "ナガノケン",
    "prefecture_code": 20,
    "city": "松本市",
    "city_kana": "マツモトシ",
    "town": "南松本",
    "town_kana": "ミナミマツモト",
    "street": "１丁目２−１６",
    "office_name": "松本ハイランド農協",
    "office_name_kana": "マツモトハイランドノウキヨウ"
  },
  "8560": {
    "postcode": "3908560",
    "prefecture": "長野県",
    "prefecture_kana": "ナガノケン",
    "prefecture_code": 20,
    "city": "松本市",
    "city_kana": "マツモトシ",
    "town": "中央",
    "town_kana": "チュウオウ",
    "street": "４丁目９番５１号",
    "office_name": "イオンモール松本　晴庭・空庭",
    "office_name_kana": "イオンモ-ルマツモト ハレニワ・ソラニワ"
  },
  "8565": {
    "postcode": "3908565",
    "prefecture": "長野県",
    "prefecture_kana": "ナガノケン",
    "prefecture_code": 20,
    "city": "松本市",
    "city_kana": "マツモトシ",
    "town": "深志",
    "town_kana": "フカシ",
    "street": "２丁目６−９ＬＯＮＢＬＤＧ３Ｆ",
    "office_name": "一般社団法人　長野県サッカー協会",
    "office_name_kana": "イツパンシヤダンホウジン ナガノケンサツカ-キヨウカイ"
  },
  "8585": {
    "postcode": "3908585",
    "prefecture": "長野県",
    "prefecture_kana": "ナガノケン",
    "prefecture_code": 20,
    "city": "松本市",
    "city_kana": "マツモトシ",
    "town": "中央",
    "town_kana": "チュウオウ",
    "street": "２丁目２０−２",
    "office_name": "信濃毎日新聞社　松本本社（信毎メディアガーデン）",
    "office_name_kana": "シナノマイニチシンブンシヤ マツモトホンシヤ(シンマイメデイアガ-デン)"
  },
  "8601": {
    "postcode": "3908601",
    "prefecture": "長野県",
    "prefecture_kana": "ナガノケン",
    "prefecture_code": 20,
    "city": "松本市",
    "city_kana": "マツモトシ",
    "town": "渚",
    "town_kana": "ナギサ",
    "street": "１丁目７−４５",
    "office_name": "医療法人抱生会　丸の内病院",
    "office_name_kana": "イリヨウホウジンホウセイカイ マルノウチビヨウイン"
  },
  "8602": {
    "postcode": "3908602",
    "prefecture": "長野県",
    "prefecture_kana": "ナガノケン",
    "prefecture_code": 20,
    "city": "松本市",
    "city_kana": "マツモトシ",
    "town": "美須々",
    "town_kana": "ミスズ",
    "street": "２−１",
    "office_name": "長野県松本美須々ケ丘高等学校",
    "office_name_kana": "ナガノケンマツモトミスズガオカコウトウガツコウ"
  },
  "8603": {
    "postcode": "3908603",
    "prefecture": "長野県",
    "prefecture_kana": "ナガノケン",
    "prefecture_code": 20,
    "city": "松本市",
    "city_kana": "マツモトシ",
    "town": "蟻ケ崎",
    "town_kana": "アリガサキ",
    "street": "３丁目８−１",
    "office_name": "長野県松本深志高等学校",
    "office_name_kana": "ナガノケンマツモトフカシコウトウガツコウ"
  },
  "8605": {
    "postcode": "3908605",
    "prefecture": "長野県",
    "prefecture_kana": "ナガノケン",
    "prefecture_code": 20,
    "city": "松本市",
    "city_kana": "マツモトシ",
    "town": "蟻ケ崎",
    "town_kana": "アリガサキ",
    "street": "１丁目１−５４",
    "office_name": "長野県松本蟻ケ崎高等学校",
    "office_name_kana": "ナガノケンマツモトアリガサキコウトウガツコウ"
  },
  "8610": {
    "postcode": "3908610",
    "prefecture": "長野県",
    "prefecture_kana": "ナガノケン",
    "prefecture_code": 20,
    "city": "松本市",
    "city_kana": "マツモトシ",
    "town": "大字島内",
    "town_kana": null,
    "street": "３３１４",
    "office_name": "株式会社　エイコー",
    "office_name_kana": "カブシキカイシヤ エイコ-"
  },
  "8611": {
    "postcode": "3908611",
    "prefecture": "長野県",
    "prefecture_kana": "ナガノケン",
    "prefecture_code": 20,
    "city": "松本市",
    "city_kana": "マツモトシ",
    "town": "丸の内",
    "town_kana": "マルノウチ",
    "street": "４−１８",
    "office_name": "株式会社　テレビ信州",
    "office_name_kana": "カブシキガイシヤ テレビシンシユウ"
  },
  "8620": {
    "postcode": "3908620",
    "prefecture": "長野県",
    "prefecture_kana": "ナガノケン",
    "prefecture_code": 20,
    "city": "松本市",
    "city_kana": "マツモトシ",
    "town": "丸の内",
    "town_kana": "マルノウチ",
    "street": "３−７",
    "office_name": "松本市役所",
    "office_name_kana": "マツモトシヤクシヨ"
  },
  "8621": {
    "postcode": "3908621",
    "prefecture": "長野県",
    "prefecture_kana": "ナガノケン",
    "prefecture_code": 20,
    "city": "松本市",
    "city_kana": "マツモトシ",
    "town": "旭",
    "town_kana": "アサヒ",
    "street": "３丁目１−１",
    "office_name": "信州大学",
    "office_name_kana": "シンシユウダイガク"
  },
  "8623": {
    "postcode": "3908623",
    "prefecture": "長野県",
    "prefecture_kana": "ナガノケン",
    "prefecture_code": 20,
    "city": "松本市",
    "city_kana": "マツモトシ",
    "town": "南松本",
    "town_kana": "ミナミマツモト",
    "street": "１丁目１３−２６",
    "office_name": "学校法人　外語学園　信農むつみ高等学校",
    "office_name_kana": "ガツコウホウジン ガイゴガクエン シナノムツミコウトウガツコウ"
  },
  "8630": {
    "postcode": "3908630",
    "prefecture": "長野県",
    "prefecture_kana": "ナガノケン",
    "prefecture_code": 20,
    "city": "松本市",
    "city_kana": "マツモトシ",
    "town": "大字島内",
    "town_kana": null,
    "street": "３５０３",
    "office_name": "株式会社　ニシマ",
    "office_name_kana": "カブシキガイシヤ ニシマ"
  },
  "8639": {
    "postcode": "3908639",
    "prefecture": "長野県",
    "prefecture_kana": "ナガノケン",
    "prefecture_code": 20,
    "city": "松本市",
    "city_kana": "マツモトシ",
    "town": "宮渕",
    "town_kana": "ミヤブチ",
    "street": "１丁目３−３０",
    "office_name": "株式会社　アスピア",
    "office_name_kana": "カブシキガイシヤ アスピア"
  },
  "8648": {
    "postcode": "3908648",
    "prefecture": "長野県",
    "prefecture_kana": "ナガノケン",
    "prefecture_code": 20,
    "city": "松本市",
    "city_kana": "マツモトシ",
    "town": "城西",
    "town_kana": "ジョウセイ",
    "street": "１丁目５−１６",
    "office_name": "社会医療法人　城西医療財団　城西病院",
    "office_name_kana": "シヤカイイリヨウホウジン シロニシイリヨウザイダン シロニシビヨウイン"
  },
  "8686": {
    "postcode": "3908686",
    "prefecture": "長野県",
    "prefecture_kana": "ナガノケン",
    "prefecture_code": 20,
    "city": "松本市",
    "city_kana": "マツモトシ",
    "town": "筑摩",
    "town_kana": "ツカマ",
    "street": "２丁目２６−１７",
    "office_name": "株式会社　中部日本医薬",
    "office_name_kana": "カブシキガイシヤ チユウブニホンイヤク"
  },
  "8702": {
    "postcode": "3908702",
    "prefecture": "長野県",
    "prefecture_kana": "ナガノケン",
    "prefecture_code": 20,
    "city": "松本市",
    "city_kana": "マツモトシ",
    "town": "白板",
    "town_kana": "シライタ",
    "street": "２丁目５−１（松本郵便局私書箱第３１号）",
    "office_name": "松本社会保険事務所",
    "office_name_kana": "マツモトシヤカイホケンジムシヨ"
  },
  "8703": {
    "postcode": "3908703",
    "prefecture": "長野県",
    "prefecture_kana": "ナガノケン",
    "prefecture_code": 20,
    "city": "松本市",
    "city_kana": "マツモトシ",
    "town": "大手",
    "town_kana": "オオテ",
    "street": "３丁目３−９（松本郵便局私書箱第４６号）",
    "office_name": "ＮＴＴ　松本営業支店",
    "office_name_kana": "エヌ・テイ・テイ マツモトエイギヨウシテン"
  },
  "8704": {
    "postcode": "3908704",
    "prefecture": "長野県",
    "prefecture_kana": "ナガノケン",
    "prefecture_code": 20,
    "city": "松本市",
    "city_kana": "マツモトシ",
    "town": "大手",
    "town_kana": "オオテ",
    "street": "３丁目１番１号（松本郵便局私書箱第３０号）",
    "office_name": "株式会社　八十二銀行　松本営業部",
    "office_name_kana": "カブシキガイシヤ ハチジユウニギンコウ マツモトエイギヨウブ"
  },
  "8707": {
    "postcode": "3908707",
    "prefecture": "長野県",
    "prefecture_kana": "ナガノケン",
    "prefecture_code": 20,
    "city": "松本市",
    "city_kana": "マツモトシ",
    "town": "深志",
    "town_kana": "フカシ",
    "street": "２丁目５番２６号（松本郵便局私書箱第１９号）",
    "office_name": "第一生命保険　株式会社　松本支社",
    "office_name_kana": "ダイイチセイメイホケン カブシキガイシヤ マツモトシシヤ"
  },
  "8710": {
    "postcode": "3908710",
    "prefecture": "長野県",
    "prefecture_kana": "ナガノケン",
    "prefecture_code": 20,
    "city": "松本市",
    "city_kana": "マツモトシ",
    "town": "城西",
    "town_kana": "ジョウセイ",
    "street": "２丁目１−２０（松本郵便局私書箱第１７号）",
    "office_name": "松本税務署",
    "office_name_kana": "マツモトゼイムシヨ"
  },
  "8711": {
    "postcode": "3908711",
    "prefecture": "長野県",
    "prefecture_kana": "ナガノケン",
    "prefecture_code": 20,
    "city": "松本市",
    "city_kana": "マツモトシ",
    "town": "渚",
    "town_kana": "ナギサ",
    "street": "２丁目７−９（松本郵便局私書箱第１０３号）",
    "office_name": "松本ガス　株式会社",
    "office_name_kana": "マツモトガス カブシキガイシヤ"
  },
  "8712": {
    "postcode": "3908712",
    "prefecture": "長野県",
    "prefecture_kana": "ナガノケン",
    "prefecture_code": 20,
    "city": "松本市",
    "city_kana": "マツモトシ",
    "town": "丸の内",
    "town_kana": "マルノウチ",
    "street": "３−１（松本郵便局私書箱第３号）",
    "office_name": "日本銀行　松本支店",
    "office_name_kana": "ニツポンギンコウ マツモトシテン"
  },
  "8714": {
    "postcode": "3908714",
    "prefecture": "長野県",
    "prefecture_kana": "ナガノケン",
    "prefecture_code": 20,
    "city": "松本市",
    "city_kana": "マツモトシ",
    "town": "石芝",
    "town_kana": "イシシバ",
    "street": "１丁目１−１",
    "office_name": "石川島芝浦機械　株式会社　松本工場",
    "office_name_kana": "イシカワジマシバウラキカイ カブシキガイシヤ マツモトコウジヨウ"
  },
  "8765": {
    "postcode": "3908765",
    "prefecture": "長野県",
    "prefecture_kana": "ナガノケン",
    "prefecture_code": 20,
    "city": "松本市",
    "city_kana": "マツモトシ",
    "town": "島立",
    "town_kana": "シマダチ",
    "street": "１０２０松本合同庁舎内",
    "office_name": "松本市保健所",
    "office_name_kana": "マツモトシホケンジヨ"
  }
}