{
  "0000": {
    "postcode": "3990000",
    "prefecture": "長野県",
    "prefecture_kana": "ナガノケン",
    "prefecture_code": 20,
    "city": "松本市",
    "city_kana": "マツモトシ",
    "town": "",
    "town_kana": "",
    "street": null,
    "office_name": null,
    "office_name_kana": null
  },
  "0001": {
    "postcode": "3990001",
    "prefecture": "長野県",
    "prefecture_kana": "ナガノケン",
    "prefecture_code": 20,
    "city": "松本市",
    "city_kana": "マツモトシ",
    "town": "宮田",
    "town_kana": "ミヤタ",
    "street": null,
    "office_name": null,
    "office_name_kana": null
  },
  "0002": {
    "postcode": "3990002",
    "prefecture": "長野県",
    "prefecture_kana": "ナガノケン",
    "prefecture_code": 20,
    "city": "松本市",
    "city_kana": "マツモトシ",
    "town": "芳野",
    "town_kana": "ヨシノ",
    "street": null,
    "office_name": null,
    "office_name_kana": null
  },
  "0004": {
    "postcode": "3990004",
    "prefecture": "長野県",
    "prefecture_kana": "ナガノケン",
    "prefecture_code": 20,
    "city": "松本市",
    "city_kana": "マツモトシ",
    "town": "市場",
    "town_kana": "イチバ",
    "street": null,
    "office_name": null,
    "office_name_kana": null
  },
  "0005": {
    "postcode": "3990005",
    "prefecture": "長野県",
    "prefecture_kana": "ナガノケン",
    "prefecture_code": 20,
    "city": "松本市",
    "city_kana": "マツモトシ",
    "town": "野溝木工",
    "town_kana": "ノミゾモッコウ",
    "street": null,
    "office_name": null,
    "office_name_kana": null
  },
  "0006": {
    "postcode": "3990006",
    "prefecture": "長野県",
    "prefecture_kana": "ナガノケン",
    "prefecture_code": 20,
    "city": "松本市",
    "city_kana": "マツモトシ",
    "town": "野溝西",
    "town_kana": "ノミゾニシ",
    "street": null,
    "office_name": null,
    "office_name_kana": null
  },
  "0007": {
    "postcode": "3990007",
    "prefecture": "長野県",
    "prefecture_kana": "ナガノケン",
    "prefecture_code": 20,
    "city": "松本市",
    "city_kana": "マツモトシ",
    "town": "石芝",
    "town_kana": "イシシバ",
    "street": null,
    "office_name": null,
    "office_name_kana": null
  },
  "0011": {
    "postcode": "3990011",
    "prefecture": "長野県",
    "prefecture_kana": "ナガノケン",
    "prefecture_code": 20,
    "city": "松本市",
    "city_kana": "マツモトシ",
    "town": "寿北",
    "town_kana": "コトブキキタ",
    "street": null,
    "office_name": null,
    "office_name_kana": null
  },
  "0012": {
    "postcode": "3990012",
    "prefecture": "長野県",
    "prefecture_kana": "ナガノケン",
    "prefecture_code": 20,
    "city": "松本市",
    "city_kana": "マツモトシ",
    "town": "寿白瀬渕",
    "town_kana": "コトブキシラセブチ",
    "street": null,
    "office_name": null,
    "office_name_kana": null
  },
  "0014": {
    "postcode": "3990014",
    "prefecture": "長野県",
    "prefecture_kana": "ナガノケン",
    "prefecture_code": 20,
    "city": "松本市",
    "city_kana": "マツモトシ",
    "town": "平田東",
    "town_kana": "ヒラタヒガシ",
    "street": null,
    "office_name": null,
    "office_name_kana": null
  },
  "0015": {
    "postcode": "3990015",
    "prefecture": "長野県",
    "prefecture_kana": "ナガノケン",
    "prefecture_code": 20,
    "city": "松本市",
    "city_kana": "マツモトシ",
    "town": "平田西",
    "town_kana": "ヒラタニシ",
    "street": null,
    "office_name": null,
    "office_name_kana": null
  },
  "0021": {
    "postcode": "3990021",
    "prefecture": "長野県",
    "prefecture_kana": "ナガノケン",
    "prefecture_code": 20,
    "city": "松本市",
    "city_kana": "マツモトシ",
    "town": "寿豊丘",
    "town_kana": "コトブキトヨオカ",
    "street": null,
    "office_name": null,
    "office_name_kana": null
  },
  "0022": {
    "postcode": "3990022",
    "prefecture": "長野県",
    "prefecture_kana": "ナガノケン",
    "prefecture_code": 20,
    "city": "松本市",
    "city_kana": "マツモトシ",
    "town": "松原",
    "town_kana": "マツバラ",
    "street": null,
    "office_name": null,
    "office_name_kana": null
  },
  "0023": {
    "postcode": "3990023",
    "prefecture": "長野県",
    "prefecture_kana": "ナガノケン",
    "prefecture_code": 20,
    "city": "松本市",
    "city_kana": "マツモトシ",
    "town": "内田",
    "town_kana": "ウチダ",
    "street": null,
    "office_name": null,
    "office_name_kana": null
  },
  "0024": {
    "postcode": "3990024",
    "prefecture": "長野県",
    "prefecture_kana": "ナガノケン",
    "prefecture_code": 20,
    "city": "松本市",
    "city_kana": "マツモトシ",
    "town": "寿小赤",
    "town_kana": "コトブキコアカ",
    "street": null,
    "office_name": null,
    "office_name_kana": null
  },
  "0025": {
    "postcode": "3990025",
    "prefecture": "長野県",
    "prefecture_kana": "ナガノケン",
    "prefecture_code": 20,
    "city": "松本市",
    "city_kana": "マツモトシ",
    "town": "寿台",
    "town_kana": "コトブキダイ",
    "street": null,
    "office_name": null,
    "office_name_kana": null
  },
  "0026": {
    "postcode": "3990026",
    "prefecture": "長野県",
    "prefecture_kana": "ナガノケン",
    "prefecture_code": 20,
    "city": "松本市",
    "city_kana": "マツモトシ",
    "town": "寿中",
    "town_kana": "コトブキナカ",
    "street": null,
    "office_name": null,
    "office_name_kana": null
  },
  "0027": {
    "postcode": "3990027",
    "prefecture": "長野県",
    "prefecture_kana": "ナガノケン",
    "prefecture_code": 20,
    "city": "松本市",
    "city_kana": "マツモトシ",
    "town": "寿南",
    "town_kana": "コトブキミナミ",
    "street": null,
    "office_name": null,
    "office_name_kana": null
  },
  "0033": {
    "postcode": "3990033",
    "prefecture": "長野県",
    "prefecture_kana": "ナガノケン",
    "prefecture_code": 20,
    "city": "松本市",
    "city_kana": "マツモトシ",
    "town": "笹賀",
    "town_kana": "ササガ",
    "street": null,
    "office_name": null,
    "office_name_kana": null
  },
  "0034": {
    "postcode": "3990034",
    "prefecture": "長野県",
    "prefecture_kana": "ナガノケン",
    "prefecture_code": 20,
    "city": "松本市",
    "city_kana": "マツモトシ",
    "town": "野溝東",
    "town_kana": "ノミゾヒガシ",
    "street": null,
    "office_name": null,
    "office_name_kana": null
  },
  "0035": {
    "postcode": "3990035",
    "prefecture": "長野県",
    "prefecture_kana": "ナガノケン",
    "prefecture_code": 20,
    "city": "松本市",
    "city_kana": "マツモトシ",
    "town": "村井町北",
    "town_kana": "ムライマチキタ",
    "street": null,
    "office_name": null,
    "office_name_kana": null
  },
  "0036": {
    "postcode": "3990036",
    "prefecture": "長野県",
    "prefecture_kana": "ナガノケン",
    "prefecture_code": 20,
    "city": "松本市",
    "city_kana": "マツモトシ",
    "town": "村井町南",
    "town_kana": "ムライマチミナミ",
    "street": null,
    "office_name": null,
    "office_name_kana": null
  },
  "0037": {
    "postcode": "3990037",
    "prefecture": "長野県",
    "prefecture_kana": "ナガノケン",
    "prefecture_code": 20,
    "city": "松本市",
    "city_kana": "マツモトシ",
    "town": "村井町西",
    "town_kana": "ムライマチニシ",
    "street": null,
    "office_name": null,
    "office_name_kana": null
  },
  "0038": {
    "postcode": "3990038",
    "prefecture": "長野県",
    "prefecture_kana": "ナガノケン",
    "prefecture_code": 20,
    "city": "松本市",
    "city_kana": "マツモトシ",
    "town": "小屋南",
    "town_kana": "コヤミナミ",
    "street": null,
    "office_name": null,
    "office_name_kana": null
  },
  "0039": {
    "postcode": "3990039",
    "prefecture": "長野県",
    "prefecture_kana": "ナガノケン",
    "prefecture_code": 20,
    "city": "松本市",
    "city_kana": "マツモトシ",
    "town": "小屋北",
    "town_kana": "コヤキタ",
    "street": null,
    "office_name": null,
    "office_name_kana": null
  },
  "0071": {
    "postcode": "3990071",
    "prefecture": "長野県",
    "prefecture_kana": "ナガノケン",
    "prefecture_code": 20,
    "city": "塩尻市",
    "city_kana": "シオジリシ",
    "town": "片丘",
    "town_kana": "カタオカ",
    "street": null,
    "office_name": null,
    "office_name_kana": null
  },
  "0101": {
    "postcode": "3990101",
    "prefecture": "長野県",
    "prefecture_kana": "ナガノケン",
    "prefecture_code": 20,
    "city": "諏訪郡富士見町",
    "city_kana": "スワグンフジミマチ",
    "town": "境",
    "town_kana": "サカイ",
    "street": null,
    "office_name": null,
    "office_name_kana": null
  },
  "0102": {
    "postcode": "3990102",
    "prefecture": "長野県",
    "prefecture_kana": "ナガノケン",
    "prefecture_code": 20,
    "city": "諏訪郡富士見町",
    "city_kana": "スワグンフジミマチ",
    "town": "落合",
    "town_kana": "オチアイ",
    "street": null,
    "office_name": null,
    "office_name_kana": null
  },
  "0200": {
    "postcode": "3990200",
    "prefecture": "長野県",
    "prefecture_kana": "ナガノケン",
    "prefecture_code": 20,
    "city": "諏訪郡富士見町",
    "city_kana": "スワグンフジミマチ",
    "town": "",
    "town_kana": "",
    "street": null,
    "office_name": null,
    "office_name_kana": null
  },
  "0211": {
    "postcode": "3990211",
    "prefecture": "長野県",
    "prefecture_kana": "ナガノケン",
    "prefecture_code": 20,
    "city": "諏訪郡富士見町",
    "city_kana": "スワグンフジミマチ",
    "town": "富士見",
    "town_kana": "フジミ",
    "street": null,
    "office_name": null,
    "office_name_kana": null
  },
  "0212": {
    "postcode": "3990212",
    "prefecture": "長野県",
    "prefecture_kana": "ナガノケン",
    "prefecture_code": 20,
    "city": "諏訪郡富士見町",
    "city_kana": "スワグンフジミマチ",
    "town": "立沢",
    "town_kana": "タツザワ",
    "street": null,
    "office_name": null,
    "office_name_kana": null
  },
  "0213": {
    "postcode": "3990213",
    "prefecture": "長野県",
    "prefecture_kana": "ナガノケン",
    "prefecture_code": 20,
    "city": "諏訪郡富士見町",
    "city_kana": "スワグンフジミマチ",
    "town": "乙事",
    "town_kana": "オッコト",
    "street": null,
    "office_name": null,
    "office_name_kana": null
  },
  "0214": {
    "postcode": "3990214",
    "prefecture": "長野県",
    "prefecture_kana": "ナガノケン",
    "prefecture_code": 20,
    "city": "諏訪郡富士見町",
    "city_kana": "スワグンフジミマチ",
    "town": "落合",
    "town_kana": "オチアイ",
    "street": null,
    "office_name": null,
    "office_name_kana": null
  },
  "0292": {
    "postcode": "3990292",
    "prefecture": "長野県",
    "prefecture_kana": "ナガノケン",
    "prefecture_code": 20,
    "city": "諏訪郡富士見町",
    "city_kana": "スワグンフジミマチ",
    "town": "落合",
    "town_kana": "オチアイ",
    "street": "１０７７７",
    "office_name": "富士見町役場",
    "office_name_kana": "フジミマチヤクバ"
  },
  "0293": {
    "postcode": "3990293",
    "prefecture": "長野県",
    "prefecture_kana": "ナガノケン",
    "prefecture_code": 20,
    "city": "諏訪郡富士見町",
    "city_kana": "スワグンフジミマチ",
    "town": "富士見",
    "town_kana": "フジミ",
    "street": "２８１",
    "office_name": "セイコーエプソン　株式会社　富士見事業所",
    "office_name_kana": "セイコ-エプソン カブシキガイシヤ フジミジギヨウシヨ"
  },
  "0295": {
    "postcode": "3990295",
    "prefecture": "長野県",
    "prefecture_kana": "ナガノケン",
    "prefecture_code": 20,
    "city": "諏訪郡富士見町",
    "city_kana": "スワグンフジミマチ",
    "town": "富士見",
    "town_kana": "フジミ",
    "street": "１０１０",
    "office_name": "セイコーエプソン　株式会社　諏訪南事業所",
    "office_name_kana": "セイコ-エプソン カブシキガイシヤ スワミナミジギヨウシヨ"
  },
  "0400": {
    "postcode": "3990400",
    "prefecture": "長野県",
    "prefecture_kana": "ナガノケン",
    "prefecture_code": 20,
    "city": "上伊那郡辰野町",
    "city_kana": "カミイナグンタツノマチ",
    "town": "",
    "town_kana": "",
    "street": null,
    "office_name": null,
    "office_name_kana": null
  },
  "0421": {
    "postcode": "3990421",
    "prefecture": "長野県",
    "prefecture_kana": "ナガノケン",
    "prefecture_code": 20,
    "city": "上伊那郡辰野町",
    "city_kana": "カミイナグンタツノマチ",
    "town": "辰野",
    "town_kana": "タツノ",
    "street": null,
    "office_name": null,
    "office_name_kana": null
  },
  "0422": {
    "postcode": "3990422",
    "prefecture": "長野県",
    "prefecture_kana": "ナガノケン",
    "prefecture_code": 20,
    "city": "上伊那郡辰野町",
    "city_kana": "カミイナグンタツノマチ",
    "town": "平出",
    "town_kana": "ヒライデ",
    "street": null,
    "office_name": null,
    "office_name_kana": null
  },
  "0423": {
    "postcode": "3990423",
    "prefecture": "長野県",
    "prefecture_kana": "ナガノケン",
    "prefecture_code": 20,
    "city": "上伊那郡辰野町",
    "city_kana": "カミイナグンタツノマチ",
    "town": "沢底",
    "town_kana": "サワソコ",
    "street": null,
    "office_name": null,
    "office_name_kana": null
  },
  "0424": {
    "postcode": "3990424",
    "prefecture": "長野県",
    "prefecture_kana": "ナガノケン",
    "prefecture_code": 20,
    "city": "上伊那郡辰野町",
    "city_kana": "カミイナグンタツノマチ",
    "town": "赤羽",
    "town_kana": "アカハネ",
    "street": null,
    "office_name": null,
    "office_name_kana": null
  },
  "0425": {
    "postcode": "3990425",
    "prefecture": "長野県",
    "prefecture_kana": "ナガノケン",
    "prefecture_code": 20,
    "city": "上伊那郡辰野町",
    "city_kana": "カミイナグンタツノマチ",
    "town": "樋口",
    "town_kana": "ヒグチ",
    "street": null,
    "office_name": null,
    "office_name_kana": null
  },
  "0426": {
    "postcode": "3990426",
    "prefecture": "長野県",
    "prefecture_kana": "ナガノケン",
    "prefecture_code": 20,
    "city": "上伊那郡辰野町",
    "city_kana": "カミイナグンタツノマチ",
    "town": "宮木",
    "town_kana": "ミヤキ",
    "street": null,
    "office_name": null,
    "office_name_kana": null
  },
  "0427": {
    "postcode": "3990427",
    "prefecture": "長野県",
    "prefecture_kana": "ナガノケン",
    "prefecture_code": 20,
    "city": "上伊那郡辰野町",
    "city_kana": "カミイナグンタツノマチ",
    "town": "中央",
    "town_kana": "チュウオウ",
    "street": null,
    "office_name": null,
    "office_name_kana": null
  },
  "0428": {
    "postcode": "3990428",
    "prefecture": "長野県",
    "prefecture_kana": "ナガノケン",
    "prefecture_code": 20,
    "city": "上伊那郡辰野町",
    "city_kana": "カミイナグンタツノマチ",
    "town": "伊那富",
    "town_kana": "イナトミ",
    "street": null,
    "office_name": null,
    "office_name_kana": null
  },
  "0492": {
    "postcode": "3990492",
    "prefecture": "長野県",
    "prefecture_kana": "ナガノケン",
    "prefecture_code": 20,
    "city": "上伊那郡辰野町",
    "city_kana": "カミイナグンタツノマチ",
    "town": "大字伊那富",
    "town_kana": null,
    "street": "３９３４",
    "office_name": "石川島汎用機械　株式会社",
    "office_name_kana": "イシカワジマハンヨウキカイ カブシキガイシヤ"
  },
  "0493": {
    "postcode": "3990493",
    "prefecture": "長野県",
    "prefecture_kana": "ナガノケン",
    "prefecture_code": 20,
    "city": "上伊那郡辰野町",
    "city_kana": "カミイナグンタツノマチ",
    "town": "中央",
    "town_kana": "チュウオウ",
    "street": "１",
    "office_name": "辰野町役場",
    "office_name_kana": "タツノマチヤクバ"
  },
  "0495": {
    "postcode": "3990495",
    "prefecture": "長野県",
    "prefecture_kana": "ナガノケン",
    "prefecture_code": 20,
    "city": "上伊那郡辰野町",
    "city_kana": "カミイナグンタツノマチ",
    "town": "大字伊那富",
    "town_kana": null,
    "street": "６６６６番地",
    "office_name": "株式会社　エビデント　長野事業場",
    "office_name_kana": "カブシキガイシヤ エビデント ナガノジギヨウジヨウ"
  },
  "0496": {
    "postcode": "3990496",
    "prefecture": "長野県",
    "prefecture_kana": "ナガノケン",
    "prefecture_code": 20,
    "city": "上伊那郡辰野町",
    "city_kana": "カミイナグンタツノマチ",
    "town": "大字辰野",
    "town_kana": null,
    "street": "１４４５番地５",
    "office_name": "町立　辰野病院",
    "office_name_kana": "チヨウリツ タツノビヨウイン"
  },
  "0497": {
    "postcode": "3990497",
    "prefecture": "長野県",
    "prefecture_kana": "ナガノケン",
    "prefecture_code": 20,
    "city": "上伊那郡辰野町",
    "city_kana": "カミイナグンタツノマチ",
    "town": "大字樋口",
    "town_kana": null,
    "street": "１３６５番地",
    "office_name": "株式会社　マブチ・エスアンドティー",
    "office_name_kana": "カブシキガイシヤ マブチ・エスアンドテイ-"
  },
  "0498": {
    "postcode": "3990498",
    "prefecture": "長野県",
    "prefecture_kana": "ナガノケン",
    "prefecture_code": 20,
    "city": "上伊那郡辰野町",
    "city_kana": "カミイナグンタツノマチ",
    "town": "中山",
    "town_kana": null,
    "street": "７２番地",
    "office_name": "信州豊南短期大学",
    "office_name_kana": "シンシユウホウナンタンキダイガク"
  },
  "0511": {
    "postcode": "3990511",
    "prefecture": "長野県",
    "prefecture_kana": "ナガノケン",
    "prefecture_code": 20,
    "city": "上伊那郡辰野町",
    "city_kana": "カミイナグンタツノマチ",
    "town": "横川",
    "town_kana": "ヨコカワ",
    "street": null,
    "office_name": null,
    "office_name_kana": null
  },
  "0512": {
    "postcode": "3990512",
    "prefecture": "長野県",
    "prefecture_kana": "ナガノケン",
    "prefecture_code": 20,
    "city": "上伊那郡辰野町",
    "city_kana": "カミイナグンタツノマチ",
    "town": "上島",
    "town_kana": "カミジマ",
    "street": null,
    "office_name": null,
    "office_name_kana": null
  },
  "0601": {
    "postcode": "3990601",
    "prefecture": "長野県",
    "prefecture_kana": "ナガノケン",
    "prefecture_code": 20,
    "city": "上伊那郡辰野町",
    "city_kana": "カミイナグンタツノマチ",
    "town": "小野",
    "town_kana": "オノ",
    "street": null,
    "office_name": null,
    "office_name_kana": null
  },
  "0651": {
    "postcode": "3990651",
    "prefecture": "長野県",
    "prefecture_kana": "ナガノケン",
    "prefecture_code": 20,
    "city": "塩尻市",
    "city_kana": "シオジリシ",
    "town": "北小野",
    "town_kana": "キタオノ",
    "street": null,
    "office_name": null,
    "office_name_kana": null
  },
  "0700": {
    "postcode": "3990700",
    "prefecture": "長野県",
    "prefecture_kana": "ナガノケン",
    "prefecture_code": 20,
    "city": "塩尻市",
    "city_kana": "シオジリシ",
    "town": "",
    "town_kana": "",
    "street": null,
    "office_name": null,
    "office_name_kana": null
  },
  "0701": {
    "postcode": "3990701",
    "prefecture": "長野県",
    "prefecture_kana": "ナガノケン",
    "prefecture_code": 20,
    "city": "塩尻市",
    "city_kana": "シオジリシ",
    "town": "広丘吉田",
    "town_kana": "ヒロオカヨシダ",
    "street": null,
    "office_name": null,
    "office_name_kana": null
  },
  "0702": {
    "postcode": "3990702",
    "prefecture": "長野県",
    "prefecture_kana": "ナガノケン",
    "prefecture_code": 20,
    "city": "塩尻市",
    "city_kana": "シオジリシ",
    "town": "広丘野村",
    "town_kana": "ヒロオカノムラ",
    "street": null,
    "office_name": null,
    "office_name_kana": null
  },
  "0703": {
    "postcode": "3990703",
    "prefecture": "長野県",
    "prefecture_kana": "ナガノケン",
    "prefecture_code": 20,
    "city": "塩尻市",
    "city_kana": "シオジリシ",
    "town": "広丘高出",
    "town_kana": "ヒロオカタカイデ",
    "street": null,
    "office_name": null,
    "office_name_kana": null
  },
  "0704": {
    "postcode": "3990704",
    "prefecture": "長野県",
    "prefecture_kana": "ナガノケン",
    "prefecture_code": 20,
    "city": "塩尻市",
    "city_kana": "シオジリシ",
    "town": "広丘郷原",
    "town_kana": "ヒロオカゴウバラ",
    "street": null,
    "office_name": null,
    "office_name_kana": null
  },
  "0705": {
    "postcode": "3990705",
    "prefecture": "長野県",
    "prefecture_kana": "ナガノケン",
    "prefecture_code": 20,
    "city": "塩尻市",
    "city_kana": "シオジリシ",
    "town": "広丘堅石",
    "town_kana": "ヒロオカカタイシ",
    "street": null,
    "office_name": null,
    "office_name_kana": null
  },
  "0706": {
    "postcode": "3990706",
    "prefecture": "長野県",
    "prefecture_kana": "ナガノケン",
    "prefecture_code": 20,
    "city": "塩尻市",
    "city_kana": "シオジリシ",
    "town": "広丘原新田",
    "town_kana": "ヒロオカハラシンデン",
    "street": null,
    "office_name": null,
    "office_name_kana": null
  },
  "0711": {
    "postcode": "3990711",
    "prefecture": "長野県",
    "prefecture_kana": "ナガノケン",
    "prefecture_code": 20,
    "city": "塩尻市",
    "city_kana": "シオジリシ",
    "town": "片丘",
    "town_kana": "カタオカ",
    "street": null,
    "office_name": null,
    "office_name_kana": null
  },
  "0712": {
    "postcode": "3990712",
    "prefecture": "長野県",
    "prefecture_kana": "ナガノケン",
    "prefecture_code": 20,
    "city": "塩尻市",
    "city_kana": "シオジリシ",
    "town": "塩尻町",
    "town_kana": "シオジリマチ",
    "street": null,
    "office_name": null,
    "office_name_kana": null
  },
  "0713": {
    "postcode": "3990713",
    "prefecture": "長野県",
    "prefecture_kana": "ナガノケン",
    "prefecture_code": 20,
    "city": "塩尻市",
    "city_kana": "シオジリシ",
    "town": "大小屋",
    "town_kana": "オオゴヤ",
    "street": null,
    "office_name": null,
    "office_name_kana": null
  },
  "0714": {
    "postcode": "3990714",
    "prefecture": "長野県",
    "prefecture_kana": "ナガノケン",
    "prefecture_code": 20,
    "city": "塩尻市",
    "city_kana": "シオジリシ",
    "town": "堀ノ内",
    "town_kana": "ホリノウチ",
    "street": null,
    "office_name": null,
    "office_name_kana": null
  },
  "0715": {
    "postcode": "3990715",
    "prefecture": "長野県",
    "prefecture_kana": "ナガノケン",
    "prefecture_code": 20,
    "city": "塩尻市",
    "city_kana": "シオジリシ",
    "town": "長畝",
    "town_kana": "ナガウネ",
    "street": null,
    "office_name": null,
    "office_name_kana": null
  },
  "0716": {
    "postcode": "3990716",
    "prefecture": "長野県",
    "prefecture_kana": "ナガノケン",
    "prefecture_code": 20,
    "city": "塩尻市",
    "city_kana": "シオジリシ",
    "town": "桟敷",
    "town_kana": "サジキ",
    "street": null,
    "office_name": null,
    "office_name_kana": null
  },
  "0721": {
    "postcode": "3990721",
    "prefecture": "長野県",
    "prefecture_kana": "ナガノケン",
    "prefecture_code": 20,
    "city": "塩尻市",
    "city_kana": "シオジリシ",
    "town": "金井",
    "town_kana": "カナイ",
    "street": null,
    "office_name": null,
    "office_name_kana": null
  },
  "0722": {
    "postcode": "3990722",
    "prefecture": "長野県",
    "prefecture_kana": "ナガノケン",
    "prefecture_code": 20,
    "city": "塩尻市",
    "city_kana": "シオジリシ",
    "town": "柿沢",
    "town_kana": "カキザワ",
    "street": null,
    "office_name": null,
    "office_name_kana": null
  },
  "0723": {
    "postcode": "3990723",
    "prefecture": "長野県",
    "prefecture_kana": "ナガノケン",
    "prefecture_code": 20,
    "city": "塩尻市",
    "city_kana": "シオジリシ",
    "town": "旧塩尻",
    "town_kana": "キュウシオジリ",
    "street": null,
    "office_name": null,
    "office_name_kana": null
  },
  "0724": {
    "postcode": "3990724",
    "prefecture": "長野県",
    "prefecture_kana": "ナガノケン",
    "prefecture_code": 20,
    "city": "塩尻市",
    "city_kana": "シオジリシ",
    "town": "上西条",
    "town_kana": "カミニシジョウ",
    "street": null,
    "office_name": null,
    "office_name_kana": null
  },
  "0725": {
    "postcode": "3990725",
    "prefecture": "長野県",
    "prefecture_kana": "ナガノケン",
    "prefecture_code": 20,
    "city": "塩尻市",
    "city_kana": "シオジリシ",
    "town": "中西条",
    "town_kana": "ナカニシジョウ",
    "street": null,
    "office_name": null,
    "office_name_kana": null
  },
  "0726": {
    "postcode": "3990726",
    "prefecture": "長野県",
    "prefecture_kana": "ナガノケン",
    "prefecture_code": 20,
    "city": "塩尻市",
    "city_kana": "シオジリシ",
    "town": "下西条",
    "town_kana": "シモニシジョウ",
    "street": null,
    "office_name": null,
    "office_name_kana": null
  },
  "0727": {
    "postcode": "3990727",
    "prefecture": "長野県",
    "prefecture_kana": "ナガノケン",
    "prefecture_code": 20,
    "city": "塩尻市",
    "city_kana": "シオジリシ",
    "town": "みどり湖",
    "town_kana": "ミドリコ",
    "street": null,
    "office_name": null,
    "office_name_kana": null
  },
  "0728": {
    "postcode": "3990728",
    "prefecture": "長野県",
    "prefecture_kana": "ナガノケン",
    "prefecture_code": 20,
    "city": "塩尻市",
    "city_kana": "シオジリシ",
    "town": "峰原",
    "town_kana": "ミネハラ",
    "street": null,
    "office_name": null,
    "office_name_kana": null
  },
  "0731": {
    "postcode": "3990731",
    "prefecture": "長野県",
    "prefecture_kana": "ナガノケン",
    "prefecture_code": 20,
    "city": "塩尻市",
    "city_kana": "シオジリシ",
    "town": "大門六番町",
    "town_kana": "ダイモン6バンチョウ",
    "street": null,
    "office_name": null,
    "office_name_kana": null
  },
  "0732": {
    "postcode": "3990732",
    "prefecture": "長野県",
    "prefecture_kana": "ナガノケン",
    "prefecture_code": 20,
    "city": "塩尻市",
    "city_kana": "シオジリシ",
    "town": "大門五番町",
    "town_kana": "ダイモン5バンチョウ",
    "street": null,
    "office_name": null,
    "office_name_kana": null
  },
  "0733": {
    "postcode": "3990733",
    "prefecture": "長野県",
    "prefecture_kana": "ナガノケン",
    "prefecture_code": 20,
    "city": "塩尻市",
    "city_kana": "シオジリシ",
    "town": "大門三番町",
    "town_kana": "ダイモン3バンチョウ",
    "street": null,
    "office_name": null,
    "office_name_kana": null
  },
  "0734": {
    "postcode": "3990734",
    "prefecture": "長野県",
    "prefecture_kana": "ナガノケン",
    "prefecture_code": 20,
    "city": "塩尻市",
    "city_kana": "シオジリシ",
    "town": "大門四番町",
    "town_kana": "ダイモン4バンチョウ",
    "street": null,
    "office_name": null,
    "office_name_kana": null
  },
  "0735": {
    "postcode": "3990735",
    "prefecture": "長野県",
    "prefecture_kana": "ナガノケン",
    "prefecture_code": 20,
    "city": "塩尻市",
    "city_kana": "シオジリシ",
    "town": "大門二番町",
    "town_kana": "ダイモン2バンチョウ",
    "street": null,
    "office_name": null,
    "office_name_kana": null
  },
  "0736": {
    "postcode": "3990736",
    "prefecture": "長野県",
    "prefecture_kana": "ナガノケン",
    "prefecture_code": 20,
    "city": "塩尻市",
    "city_kana": "シオジリシ",
    "town": "大門一番町",
    "town_kana": "ダイモン1バンチョウ",
    "street": null,
    "office_name": null,
    "office_name_kana": null
  },
  "0737": {
    "postcode": "3990737",
    "prefecture": "長野県",
    "prefecture_kana": "ナガノケン",
    "prefecture_code": 20,
    "city": "塩尻市",
    "city_kana": "シオジリシ",
    "town": "大門八番町",
    "town_kana": "ダイモン8バンチョウ",
    "street": null,
    "office_name": null,
    "office_name_kana": null
  },
  "0738": {
    "postcode": "3990738",
    "prefecture": "長野県",
    "prefecture_kana": "ナガノケン",
    "prefecture_code": 20,
    "city": "塩尻市",
    "city_kana": "シオジリシ",
    "town": "大門七番町",
    "town_kana": "ダイモン7バンチョウ",
    "street": null,
    "office_name": null,
    "office_name_kana": null
  },
  "0741": {
    "postcode": "3990741",
    "prefecture": "長野県",
    "prefecture_kana": "ナガノケン",
    "prefecture_code": 20,
    "city": "塩尻市",
    "city_kana": "シオジリシ",
    "town": "大門幸町",
    "town_kana": "ダイモンサイワイチョウ",
    "street": null,
    "office_name": null,
    "office_name_kana": null
  },
  "0742": {
    "postcode": "3990742",
    "prefecture": "長野県",
    "prefecture_kana": "ナガノケン",
    "prefecture_code": 20,
    "city": "塩尻市",
    "city_kana": "シオジリシ",
    "town": "大門泉町",
    "town_kana": "ダイモンイズミチョウ",
    "street": null,
    "office_name": null,
    "office_name_kana": null
  },
  "0743": {
    "postcode": "3990743",
    "prefecture": "長野県",
    "prefecture_kana": "ナガノケン",
    "prefecture_code": 20,
    "city": "塩尻市",
    "city_kana": "シオジリシ",
    "town": "大門田川町",
    "town_kana": "ダイモンタガワチョウ",
    "street": null,
    "office_name": null,
    "office_name_kana": null
  },
  "0744": [
    {
      "postcode": "3990744",
      "prefecture": "長野県",
      "prefecture_kana": "ナガノケン",
      "prefecture_code": 20,
      "city": "塩尻市",
      "city_kana": "シオジリシ",
      "town": "大門七区",
      "town_kana": "ダイモン7ク",
      "street": null,
      "office_name": null,
      "office_name_kana": null
    },
    {
      "postcode": "3990744",
      "prefecture": "長野県",
      "prefecture_kana": "ナガノケン",
      "prefecture_code": 20,
      "city": "塩尻市",
      "city_kana": "シオジリシ",
      "town": "大門",
      "town_kana": "ダイモン",
      "street": null,
      "office_name": null,
      "office_name_kana": null
    }
  ],
  "0745": {
    "postcode": "3990745",
    "prefecture": "長野県",
    "prefecture_kana": "ナガノケン",
    "prefecture_code": 20,
    "city": "塩尻市",
    "city_kana": "シオジリシ",
    "town": "大門桔梗町",
    "town_kana": "ダイモンキキョウチョウ",
    "street": null,
    "office_name": null,
    "office_name_kana": null
  },
  "0746": {
    "postcode": "3990746",
    "prefecture": "長野県",
    "prefecture_kana": "ナガノケン",
    "prefecture_code": 20,
    "city": "塩尻市",
    "city_kana": "シオジリシ",
    "town": "大門並木町",
    "town_kana": "ダイモンナミキチョウ",
    "street": null,
    "office_name": null,
    "office_name_kana": null
  },
  "0781": {
    "postcode": "3990781",
    "prefecture": "長野県",
    "prefecture_kana": "ナガノケン",
    "prefecture_code": 20,
    "city": "塩尻市",
    "city_kana": "シオジリシ",
    "town": "大字広丘郷原",
    "town_kana": null,
    "street": "１７８０",
    "office_name": "学校法人　松本歯科大学",
    "office_name_kana": "ガツコウホウジン マツモトシカダイガク"
  },
  "0782": {
    "postcode": "3990782",
    "prefecture": "長野県",
    "prefecture_kana": "ナガノケン",
    "prefecture_code": 20,
    "city": "塩尻市",
    "city_kana": "シオジリシ",
    "town": "大字広丘野村",
    "town_kana": null,
    "street": "９５９",
    "office_name": "株式会社　サンコー",
    "office_name_kana": "カブシキガイシヤ サンコ-"
  },
  "0785": {
    "postcode": "3990785",
    "prefecture": "長野県",
    "prefecture_kana": "ナガノケン",
    "prefecture_code": 20,
    "city": "塩尻市",
    "city_kana": "シオジリシ",
    "town": "大字広丘原新田",
    "town_kana": null,
    "street": "８０",
    "office_name": "セイコーエプソン　株式会社　広丘事業所",
    "office_name_kana": "セイコ-エプソン カブシキガイシヤ ヒロオカジギヨウシヨ"
  },
  "0786": {
    "postcode": "3990786",
    "prefecture": "長野県",
    "prefecture_kana": "ナガノケン",
    "prefecture_code": 20,
    "city": "塩尻市",
    "city_kana": "シオジリシ",
    "town": "大字大門",
    "town_kana": null,
    "street": "７番町３番３号",
    "office_name": "塩尻市役所",
    "office_name_kana": "シオジリシヤクシヨ"
  },
  "0796": {
    "postcode": "3990796",
    "prefecture": "長野県",
    "prefecture_kana": "ナガノケン",
    "prefecture_code": 20,
    "city": "塩尻市",
    "city_kana": "シオジリシ",
    "town": "大字塩尻町",
    "town_kana": null,
    "street": "３９０",
    "office_name": "セイコーエプソン　株式会社　塩尻事業所",
    "office_name_kana": "セイコ-エプソン カブシキガイシヤ シオジリジギヨウシヨ"
  },
  "0797": {
    "postcode": "3990797",
    "prefecture": "長野県",
    "prefecture_kana": "ナガノケン",
    "prefecture_code": 20,
    "city": "塩尻市",
    "city_kana": "シオジリシ",
    "town": "大門八番町",
    "town_kana": "ダイモン8バンチョウ",
    "street": "１−２",
    "office_name": "エプソンダイレクト　株式会社",
    "office_name_kana": "エプソンダイレクト カブシキガイシヤ"
  },
  "1200": {
    "postcode": "3991200",
    "prefecture": "長野県",
    "prefecture_kana": "ナガノケン",
    "prefecture_code": 20,
    "city": "下伊那郡天龍村",
    "city_kana": "シモイナグンテンリュウムラ",
    "town": "",
    "town_kana": "",
    "street": null,
    "office_name": null,
    "office_name_kana": null
  },
  "1201": {
    "postcode": "3991201",
    "prefecture": "長野県",
    "prefecture_kana": "ナガノケン",
    "prefecture_code": 20,
    "city": "下伊那郡天龍村",
    "city_kana": "シモイナグンテンリュウムラ",
    "town": "平岡",
    "town_kana": "ヒラオカ",
    "street": null,
    "office_name": null,
    "office_name_kana": null
  },
  "1202": {
    "postcode": "3991202",
    "prefecture": "長野県",
    "prefecture_kana": "ナガノケン",
    "prefecture_code": 20,
    "city": "下伊那郡天龍村",
    "city_kana": "シモイナグンテンリュウムラ",
    "town": "神原",
    "town_kana": "カミハラ",
    "street": null,
    "office_name": null,
    "office_name_kana": null
  },
  "1203": {
    "postcode": "3991203",
    "prefecture": "長野県",
    "prefecture_kana": "ナガノケン",
    "prefecture_code": 20,
    "city": "下伊那郡天龍村",
    "city_kana": "シモイナグンテンリュウムラ",
    "town": "長島",
    "town_kana": "ナガシマ",
    "street": null,
    "office_name": null,
    "office_name_kana": null
  },
  "1221": [
    {
      "postcode": "3991221",
      "prefecture": "長野県",
      "prefecture_kana": "ナガノケン",
      "prefecture_code": 20,
      "city": "飯田市",
      "city_kana": "イイダシ",
      "town": "南信濃南和田",
      "town_kana": "ミナミシナノミナミワダ",
      "street": null,
      "office_name": null,
      "office_name_kana": null
    },
    {
      "postcode": "3991221",
      "prefecture": "長野県",
      "prefecture_kana": "ナガノケン",
      "prefecture_code": 20,
      "city": "飯田市",
      "city_kana": "イイダシ",
      "town": "南信濃南和田万古",
      "town_kana": "ミナミシナノミナミワダマンゴ",
      "street": null,
      "office_name": null,
      "office_name_kana": null
    }
  ],
  "1311": {
    "postcode": "3991311",
    "prefecture": "長野県",
    "prefecture_kana": "ナガノケン",
    "prefecture_code": 20,
    "city": "飯田市",
    "city_kana": "イイダシ",
    "town": "南信濃和田",
    "town_kana": "ミナミシナノワダ",
    "street": null,
    "office_name": null,
    "office_name_kana": null
  },
  "1312": {
    "postcode": "3991312",
    "prefecture": "長野県",
    "prefecture_kana": "ナガノケン",
    "prefecture_code": 20,
    "city": "飯田市",
    "city_kana": "イイダシ",
    "town": "南信濃八重河内",
    "town_kana": "ミナミシナノヤエゴウチ",
    "street": null,
    "office_name": null,
    "office_name_kana": null
  },
  "1313": {
    "postcode": "3991313",
    "prefecture": "長野県",
    "prefecture_kana": "ナガノケン",
    "prefecture_code": 20,
    "city": "飯田市",
    "city_kana": "イイダシ",
    "town": "南信濃南和田",
    "town_kana": "ミナミシナノミナミワダ",
    "street": null,
    "office_name": null,
    "office_name_kana": null
  },
  "1392": {
    "postcode": "3991392",
    "prefecture": "長野県",
    "prefecture_kana": "ナガノケン",
    "prefecture_code": 20,
    "city": "飯田市",
    "city_kana": "イイダシ",
    "town": "南信濃和田",
    "town_kana": "ミナミシナノワダ",
    "street": "１３７９",
    "office_name": "飯田市役所　南信濃自治振興センター",
    "office_name_kana": "イイダシヤクシヨ ミナミシナノジチシンコウセンタ-"
  },
  "1401": {
    "postcode": "3991401",
    "prefecture": "長野県",
    "prefecture_kana": "ナガノケン",
    "prefecture_code": 20,
    "city": "飯田市",
    "city_kana": "イイダシ",
    "town": "南信濃木沢",
    "town_kana": "ミナミシナノキザワ",
    "street": null,
    "office_name": null,
    "office_name_kana": null
  },
  "1403": {
    "postcode": "3991403",
    "prefecture": "長野県",
    "prefecture_kana": "ナガノケン",
    "prefecture_code": 20,
    "city": "飯田市",
    "city_kana": "イイダシ",
    "town": "上村",
    "town_kana": "カミムラ",
    "street": null,
    "office_name": null,
    "office_name_kana": null
  },
  "1500": {
    "postcode": "3991500",
    "prefecture": "長野県",
    "prefecture_kana": "ナガノケン",
    "prefecture_code": 20,
    "city": "下伊那郡阿南町",
    "city_kana": "シモイナグンアナンチョウ",
    "town": "",
    "town_kana": "",
    "street": null,
    "office_name": null,
    "office_name_kana": null
  },
  "1501": {
    "postcode": "3991501",
    "prefecture": "長野県",
    "prefecture_kana": "ナガノケン",
    "prefecture_code": 20,
    "city": "下伊那郡阿南町",
    "city_kana": "シモイナグンアナンチョウ",
    "town": "北條",
    "town_kana": "キタジョウ",
    "street": null,
    "office_name": null,
    "office_name_kana": null
  },
  "1502": {
    "postcode": "3991502",
    "prefecture": "長野県",
    "prefecture_kana": "ナガノケン",
    "prefecture_code": 20,
    "city": "下伊那郡阿南町",
    "city_kana": "シモイナグンアナンチョウ",
    "town": "東條",
    "town_kana": "ヒガシジョウ",
    "street": null,
    "office_name": null,
    "office_name_kana": null
  },
  "1503": {
    "postcode": "3991503",
    "prefecture": "長野県",
    "prefecture_kana": "ナガノケン",
    "prefecture_code": 20,
    "city": "下伊那郡阿南町",
    "city_kana": "シモイナグンアナンチョウ",
    "town": "南條",
    "town_kana": "ミナミジョウ",
    "street": null,
    "office_name": null,
    "office_name_kana": null
  },
  "1504": {
    "postcode": "3991504",
    "prefecture": "長野県",
    "prefecture_kana": "ナガノケン",
    "prefecture_code": 20,
    "city": "下伊那郡阿南町",
    "city_kana": "シモイナグンアナンチョウ",
    "town": "西條",
    "town_kana": "ニシジョウ",
    "street": null,
    "office_name": null,
    "office_name_kana": null
  },
  "1505": {
    "postcode": "3991505",
    "prefecture": "長野県",
    "prefecture_kana": "ナガノケン",
    "prefecture_code": 20,
    "city": "下伊那郡阿南町",
    "city_kana": "シモイナグンアナンチョウ",
    "town": "富草",
    "town_kana": "トミクサ",
    "street": null,
    "office_name": null,
    "office_name_kana": null
  },
  "1511": {
    "postcode": "3991511",
    "prefecture": "長野県",
    "prefecture_kana": "ナガノケン",
    "prefecture_code": 20,
    "city": "下伊那郡阿南町",
    "city_kana": "シモイナグンアナンチョウ",
    "town": "東條",
    "town_kana": "ヒガシジョウ",
    "street": "５８−１",
    "office_name": "阿南町役場",
    "office_name_kana": "アナンチヨウヤクバ"
  },
  "1601": {
    "postcode": "3991601",
    "prefecture": "長野県",
    "prefecture_kana": "ナガノケン",
    "prefecture_code": 20,
    "city": "下伊那郡売木村",
    "city_kana": "シモイナグンウルギムラ",
    "town": "",
    "town_kana": "",
    "street": null,
    "office_name": null,
    "office_name_kana": null
  },
  "1611": {
    "postcode": "3991611",
    "prefecture": "長野県",
    "prefecture_kana": "ナガノケン",
    "prefecture_code": 20,
    "city": "下伊那郡阿南町",
    "city_kana": "シモイナグンアナンチョウ",
    "town": "和合",
    "town_kana": "ワゴウ",
    "street": null,
    "office_name": null,
    "office_name_kana": null
  },
  "1612": {
    "postcode": "3991612",
    "prefecture": "長野県",
    "prefecture_kana": "ナガノケン",
    "prefecture_code": 20,
    "city": "下伊那郡阿南町",
    "city_kana": "シモイナグンアナンチョウ",
    "town": "新野",
    "town_kana": "ニイノ",
    "street": null,
    "office_name": null,
    "office_name_kana": null
  },
  "1689": {
    "postcode": "3991689",
    "prefecture": "長野県",
    "prefecture_kana": "ナガノケン",
    "prefecture_code": 20,
    "city": "下伊那郡売木村",
    "city_kana": "シモイナグンウルギムラ",
    "town": "",
    "town_kana": "",
    "street": "９６８−１",
    "office_name": "売木村役場",
    "office_name_kana": "ウルギムラヤクバ"
  },
  "1801": {
    "postcode": "3991801",
    "prefecture": "長野県",
    "prefecture_kana": "ナガノケン",
    "prefecture_code": 20,
    "city": "下伊那郡泰阜村",
    "city_kana": "シモイナグンヤスオカムラ",
    "town": "",
    "town_kana": "",
    "street": null,
    "office_name": null,
    "office_name_kana": null
  },
  "1895": {
    "postcode": "3991895",
    "prefecture": "長野県",
    "prefecture_kana": "ナガノケン",
    "prefecture_code": 20,
    "city": "下伊那郡泰阜村",
    "city_kana": "シモイナグンヤスオカムラ",
    "town": "",
    "town_kana": "",
    "street": "３２３６番地１",
    "office_name": "泰阜村役場",
    "office_name_kana": "ヤスオカムラヤクバ"
  },
  "2100": {
    "postcode": "3992100",
    "prefecture": "長野県",
    "prefecture_kana": "ナガノケン",
    "prefecture_code": 20,
    "city": "下伊那郡下條村",
    "city_kana": "シモイナグンシモジョウムラ",
    "town": "",
    "town_kana": "",
    "street": null,
    "office_name": null,
    "office_name_kana": null
  },
  "2101": {
    "postcode": "3992101",
    "prefecture": "長野県",
    "prefecture_kana": "ナガノケン",
    "prefecture_code": 20,
    "city": "下伊那郡下條村",
    "city_kana": "シモイナグンシモジョウムラ",
    "town": "睦沢",
    "town_kana": "ムツザワ",
    "street": null,
    "office_name": null,
    "office_name_kana": null
  },
  "2102": {
    "postcode": "3992102",
    "prefecture": "長野県",
    "prefecture_kana": "ナガノケン",
    "prefecture_code": 20,
    "city": "下伊那郡下條村",
    "city_kana": "シモイナグンシモジョウムラ",
    "town": "陽皐",
    "town_kana": "ヒサワ",
    "street": null,
    "office_name": null,
    "office_name_kana": null
  },
  "2221": {
    "postcode": "3992221",
    "prefecture": "長野県",
    "prefecture_kana": "ナガノケン",
    "prefecture_code": 20,
    "city": "飯田市",
    "city_kana": "イイダシ",
    "town": "龍江",
    "town_kana": "タツエ",
    "street": null,
    "office_name": null,
    "office_name_kana": null
  },
  "2222": {
    "postcode": "3992222",
    "prefecture": "長野県",
    "prefecture_kana": "ナガノケン",
    "prefecture_code": 20,
    "city": "飯田市",
    "city_kana": "イイダシ",
    "town": "千代",
    "town_kana": "チヨ",
    "street": null,
    "office_name": null,
    "office_name_kana": null
  },
  "2223": {
    "postcode": "3992223",
    "prefecture": "長野県",
    "prefecture_kana": "ナガノケン",
    "prefecture_code": 20,
    "city": "飯田市",
    "city_kana": "イイダシ",
    "town": "千栄",
    "town_kana": "チハエ",
    "street": null,
    "office_name": null,
    "office_name_kana": null
  },
  "2431": {
    "postcode": "3992431",
    "prefecture": "長野県",
    "prefecture_kana": "ナガノケン",
    "prefecture_code": 20,
    "city": "飯田市",
    "city_kana": "イイダシ",
    "town": "川路",
    "town_kana": "カワジ",
    "street": null,
    "office_name": null,
    "office_name_kana": null
  },
  "2432": {
    "postcode": "3992432",
    "prefecture": "長野県",
    "prefecture_kana": "ナガノケン",
    "prefecture_code": 20,
    "city": "飯田市",
    "city_kana": "イイダシ",
    "town": "下瀬",
    "town_kana": "シモゼ",
    "street": null,
    "office_name": null,
    "office_name_kana": null
  },
  "2433": {
    "postcode": "3992433",
    "prefecture": "長野県",
    "prefecture_kana": "ナガノケン",
    "prefecture_code": 20,
    "city": "飯田市",
    "city_kana": "イイダシ",
    "town": "立石",
    "town_kana": "タテイシ",
    "street": null,
    "office_name": null,
    "office_name_kana": null
  },
  "2434": {
    "postcode": "3992434",
    "prefecture": "長野県",
    "prefecture_kana": "ナガノケン",
    "prefecture_code": 20,
    "city": "飯田市",
    "city_kana": "イイダシ",
    "town": "伊豆木",
    "town_kana": "イズキ",
    "street": null,
    "office_name": null,
    "office_name_kana": null
  },
  "2561": {
    "postcode": "3992561",
    "prefecture": "長野県",
    "prefecture_kana": "ナガノケン",
    "prefecture_code": 20,
    "city": "飯田市",
    "city_kana": "イイダシ",
    "town": "駄科",
    "town_kana": "ダシナ",
    "street": null,
    "office_name": null,
    "office_name_kana": null
  },
  "2562": {
    "postcode": "3992562",
    "prefecture": "長野県",
    "prefecture_kana": "ナガノケン",
    "prefecture_code": 20,
    "city": "飯田市",
    "city_kana": "イイダシ",
    "town": "長野原",
    "town_kana": "ナガノハラ",
    "street": null,
    "office_name": null,
    "office_name_kana": null
  },
  "2563": {
    "postcode": "3992563",
    "prefecture": "長野県",
    "prefecture_kana": "ナガノケン",
    "prefecture_code": 20,
    "city": "飯田市",
    "city_kana": "イイダシ",
    "town": "時又",
    "town_kana": "トキマタ",
    "street": null,
    "office_name": null,
    "office_name_kana": null
  },
  "2564": {
    "postcode": "3992564",
    "prefecture": "長野県",
    "prefecture_kana": "ナガノケン",
    "prefecture_code": 20,
    "city": "飯田市",
    "city_kana": "イイダシ",
    "town": "上川路",
    "town_kana": "カミカワジ",
    "street": null,
    "office_name": null,
    "office_name_kana": null
  },
  "2565": {
    "postcode": "3992565",
    "prefecture": "長野県",
    "prefecture_kana": "ナガノケン",
    "prefecture_code": 20,
    "city": "飯田市",
    "city_kana": "イイダシ",
    "town": "桐林",
    "town_kana": "キリバヤシ",
    "street": null,
    "office_name": null,
    "office_name_kana": null
  },
  "2566": {
    "postcode": "3992566",
    "prefecture": "長野県",
    "prefecture_kana": "ナガノケン",
    "prefecture_code": 20,
    "city": "飯田市",
    "city_kana": "イイダシ",
    "town": "嶋",
    "town_kana": "シマ",
    "street": null,
    "office_name": null,
    "office_name_kana": null
  },
  "2601": {
    "postcode": "3992601",
    "prefecture": "長野県",
    "prefecture_kana": "ナガノケン",
    "prefecture_code": 20,
    "city": "飯田市",
    "city_kana": "イイダシ",
    "town": "虎岩",
    "town_kana": "トライワ",
    "street": null,
    "office_name": null,
    "office_name_kana": null
  },
  "2602": {
    "postcode": "3992602",
    "prefecture": "長野県",
    "prefecture_kana": "ナガノケン",
    "prefecture_code": 20,
    "city": "飯田市",
    "city_kana": "イイダシ",
    "town": "下久堅下虎岩",
    "town_kana": "シモヒサカタシモトライワ",
    "street": null,
    "office_name": null,
    "office_name_kana": null
  },
  "2603": {
    "postcode": "3992603",
    "prefecture": "長野県",
    "prefecture_kana": "ナガノケン",
    "prefecture_code": 20,
    "city": "飯田市",
    "city_kana": "イイダシ",
    "town": "下久堅知久平",
    "town_kana": "シモヒサカタチクダイラ",
    "street": null,
    "office_name": null,
    "office_name_kana": null
  },
  "2604": {
    "postcode": "3992604",
    "prefecture": "長野県",
    "prefecture_kana": "ナガノケン",
    "prefecture_code": 20,
    "city": "飯田市",
    "city_kana": "イイダシ",
    "town": "下久堅柿野沢",
    "town_kana": "シモヒサカタカキノサワ",
    "street": null,
    "office_name": null,
    "office_name_kana": null
  },
  "2605": {
    "postcode": "3992605",
    "prefecture": "長野県",
    "prefecture_kana": "ナガノケン",
    "prefecture_code": 20,
    "city": "飯田市",
    "city_kana": "イイダシ",
    "town": "下久堅小林",
    "town_kana": "シモヒサカタコバヤシ",
    "street": null,
    "office_name": null,
    "office_name_kana": null
  },
  "2606": {
    "postcode": "3992606",
    "prefecture": "長野県",
    "prefecture_kana": "ナガノケン",
    "prefecture_code": 20,
    "city": "飯田市",
    "city_kana": "イイダシ",
    "town": "下久堅稲葉",
    "town_kana": "シモヒサカタイナバ",
    "street": null,
    "office_name": null,
    "office_name_kana": null
  },
  "2607": {
    "postcode": "3992607",
    "prefecture": "長野県",
    "prefecture_kana": "ナガノケン",
    "prefecture_code": 20,
    "city": "飯田市",
    "city_kana": "イイダシ",
    "town": "下久堅南原",
    "town_kana": "シモヒサカタミナバラ",
    "street": null,
    "office_name": null,
    "office_name_kana": null
  },
  "2611": {
    "postcode": "3992611",
    "prefecture": "長野県",
    "prefecture_kana": "ナガノケン",
    "prefecture_code": 20,
    "city": "飯田市",
    "city_kana": "イイダシ",
    "town": "上久堅",
    "town_kana": "カミヒサカタ",
    "street": null,
    "office_name": null,
    "office_name_kana": null
  },
  "2612": {
    "postcode": "3992612",
    "prefecture": "長野県",
    "prefecture_kana": "ナガノケン",
    "prefecture_code": 20,
    "city": "飯田市",
    "city_kana": "イイダシ",
    "town": "上久堅戊",
    "town_kana": "カミヒサカタボ",
    "street": null,
    "office_name": null,
    "office_name_kana": null
  },
  "3100": {
    "postcode": "3993100",
    "prefecture": "長野県",
    "prefecture_kana": "ナガノケン",
    "prefecture_code": 20,
    "city": "下伊那郡高森町",
    "city_kana": "シモイナグンタカモリマチ",
    "town": "",
    "town_kana": "",
    "street": null,
    "office_name": null,
    "office_name_kana": null
  },
  "3101": {
    "postcode": "3993101",
    "prefecture": "長野県",
    "prefecture_kana": "ナガノケン",
    "prefecture_code": 20,
    "city": "下伊那郡高森町",
    "city_kana": "シモイナグンタカモリマチ",
    "town": "山吹",
    "town_kana": "ヤマブキ",
    "street": null,
    "office_name": null,
    "office_name_kana": null
  },
  "3102": {
    "postcode": "3993102",
    "prefecture": "長野県",
    "prefecture_kana": "ナガノケン",
    "prefecture_code": 20,
    "city": "下伊那郡高森町",
    "city_kana": "シモイナグンタカモリマチ",
    "town": "吉田",
    "town_kana": "ヨシダ",
    "street": null,
    "office_name": null,
    "office_name_kana": null
  },
  "3103": {
    "postcode": "3993103",
    "prefecture": "長野県",
    "prefecture_kana": "ナガノケン",
    "prefecture_code": 20,
    "city": "下伊那郡高森町",
    "city_kana": "シモイナグンタカモリマチ",
    "town": "下市田",
    "town_kana": "シモイチダ",
    "street": null,
    "office_name": null,
    "office_name_kana": null
  },
  "3104": {
    "postcode": "3993104",
    "prefecture": "長野県",
    "prefecture_kana": "ナガノケン",
    "prefecture_code": 20,
    "city": "下伊那郡高森町",
    "city_kana": "シモイナグンタカモリマチ",
    "town": "上市田",
    "town_kana": "カミイチダ",
    "street": null,
    "office_name": null,
    "office_name_kana": null
  },
  "3105": {
    "postcode": "3993105",
    "prefecture": "長野県",
    "prefecture_kana": "ナガノケン",
    "prefecture_code": 20,
    "city": "下伊那郡高森町",
    "city_kana": "シモイナグンタカモリマチ",
    "town": "牛牧",
    "town_kana": "ウシマキ",
    "street": null,
    "office_name": null,
    "office_name_kana": null
  },
  "3106": {
    "postcode": "3993106",
    "prefecture": "長野県",
    "prefecture_kana": "ナガノケン",
    "prefecture_code": 20,
    "city": "下伊那郡高森町",
    "city_kana": "シモイナグンタカモリマチ",
    "town": "大島山",
    "town_kana": "オオジマサン",
    "street": null,
    "office_name": null,
    "office_name_kana": null
  },
  "3107": {
    "postcode": "3993107",
    "prefecture": "長野県",
    "prefecture_kana": "ナガノケン",
    "prefecture_code": 20,
    "city": "下伊那郡高森町",
    "city_kana": "シモイナグンタカモリマチ",
    "town": "出原",
    "town_kana": "イズハラ",
    "street": null,
    "office_name": null,
    "office_name_kana": null
  },
  "3192": {
    "postcode": "3993192",
    "prefecture": "長野県",
    "prefecture_kana": "ナガノケン",
    "prefecture_code": 20,
    "city": "下伊那郡高森町",
    "city_kana": "シモイナグンタカモリマチ",
    "town": "下市田",
    "town_kana": "シモイチダ",
    "street": "３１２３",
    "office_name": "株式会社　マツザワ",
    "office_name_kana": "カブシキガイシヤ マツザワ"
  },
  "3193": {
    "postcode": "3993193",
    "prefecture": "長野県",
    "prefecture_kana": "ナガノケン",
    "prefecture_code": 20,
    "city": "下伊那郡高森町",
    "city_kana": "シモイナグンタカモリマチ",
    "town": "下市田",
    "town_kana": "シモイチダ",
    "street": "２１８３−１",
    "office_name": "高森町役場",
    "office_name_kana": "タカモリマチヤクバ"
  },
  "3200": {
    "postcode": "3993200",
    "prefecture": "長野県",
    "prefecture_kana": "ナガノケン",
    "prefecture_code": 20,
    "city": "下伊那郡豊丘村",
    "city_kana": "シモイナグントヨオカムラ",
    "town": "",
    "town_kana": "",
    "street": null,
    "office_name": null,
    "office_name_kana": null
  },
  "3201": {
    "postcode": "3993201",
    "prefecture": "長野県",
    "prefecture_kana": "ナガノケン",
    "prefecture_code": 20,
    "city": "下伊那郡豊丘村",
    "city_kana": "シモイナグントヨオカムラ",
    "town": "河野",
    "town_kana": "カワノ",
    "street": null,
    "office_name": null,
    "office_name_kana": null
  },
  "3202": {
    "postcode": "3993202",
    "prefecture": "長野県",
    "prefecture_kana": "ナガノケン",
    "prefecture_code": 20,
    "city": "下伊那郡豊丘村",
    "city_kana": "シモイナグントヨオカムラ",
    "town": "神稲",
    "town_kana": "クマシロ",
    "street": null,
    "office_name": null,
    "office_name_kana": null
  },
  "3295": {
    "postcode": "3993295",
    "prefecture": "長野県",
    "prefecture_kana": "ナガノケン",
    "prefecture_code": 20,
    "city": "下伊那郡豊丘村",
    "city_kana": "シモイナグントヨオカムラ",
    "town": "大字神稲",
    "town_kana": null,
    "street": "３１２０",
    "office_name": "豊丘村役場",
    "office_name_kana": "トヨオカムラヤクバ"
  },
  "3300": {
    "postcode": "3993300",
    "prefecture": "長野県",
    "prefecture_kana": "ナガノケン",
    "prefecture_code": 20,
    "city": "下伊那郡松川町",
    "city_kana": "シモイナグンマツカワマチ",
    "town": "",
    "town_kana": "",
    "street": null,
    "office_name": null,
    "office_name_kana": null
  },
  "3301": {
    "postcode": "3993301",
    "prefecture": "長野県",
    "prefecture_kana": "ナガノケン",
    "prefecture_code": 20,
    "city": "下伊那郡松川町",
    "city_kana": "シモイナグンマツカワマチ",
    "town": "上片桐",
    "town_kana": "カミカタギリ",
    "street": null,
    "office_name": null,
    "office_name_kana": null
  },
  "3302": {
    "postcode": "3993302",
    "prefecture": "長野県",
    "prefecture_kana": "ナガノケン",
    "prefecture_code": 20,
    "city": "下伊那郡松川町",
    "city_kana": "シモイナグンマツカワマチ",
    "town": "生田",
    "town_kana": "イクタ",
    "street": null,
    "office_name": null,
    "office_name_kana": null
  },
  "3303": {
    "postcode": "3993303",
    "prefecture": "長野県",
    "prefecture_kana": "ナガノケン",
    "prefecture_code": 20,
    "city": "下伊那郡松川町",
    "city_kana": "シモイナグンマツカワマチ",
    "town": "元大島",
    "town_kana": "モトオオジマ",
    "street": null,
    "office_name": null,
    "office_name_kana": null
  },
  "3304": {
    "postcode": "3993304",
    "prefecture": "長野県",
    "prefecture_kana": "ナガノケン",
    "prefecture_code": 20,
    "city": "下伊那郡松川町",
    "city_kana": "シモイナグンマツカワマチ",
    "town": "大島",
    "town_kana": "オオジマ",
    "street": null,
    "office_name": null,
    "office_name_kana": null
  },
  "3311": {
    "postcode": "3993311",
    "prefecture": "長野県",
    "prefecture_kana": "ナガノケン",
    "prefecture_code": 20,
    "city": "下伊那郡豊丘村",
    "city_kana": "シモイナグントヨオカムラ",
    "town": "河野",
    "town_kana": "カワノ",
    "street": null,
    "office_name": null,
    "office_name_kana": null
  },
  "3500": {
    "postcode": "3993500",
    "prefecture": "長野県",
    "prefecture_kana": "ナガノケン",
    "prefecture_code": 20,
    "city": "下伊那郡大鹿村",
    "city_kana": "シモイナグンオオシカムラ",
    "town": "",
    "town_kana": "",
    "street": null,
    "office_name": null,
    "office_name_kana": null
  },
  "3501": {
    "postcode": "3993501",
    "prefecture": "長野県",
    "prefecture_kana": "ナガノケン",
    "prefecture_code": 20,
    "city": "下伊那郡大鹿村",
    "city_kana": "シモイナグンオオシカムラ",
    "town": "鹿塩",
    "town_kana": "カシオ",
    "street": null,
    "office_name": null,
    "office_name_kana": null
  },
  "3502": {
    "postcode": "3993502",
    "prefecture": "長野県",
    "prefecture_kana": "ナガノケン",
    "prefecture_code": 20,
    "city": "下伊那郡大鹿村",
    "city_kana": "シモイナグンオオシカムラ",
    "town": "大河原",
    "town_kana": "オオカワラ",
    "street": null,
    "office_name": null,
    "office_name_kana": null
  },
  "3700": {
    "postcode": "3993700",
    "prefecture": "長野県",
    "prefecture_kana": "ナガノケン",
    "prefecture_code": 20,
    "city": "上伊那郡飯島町",
    "city_kana": "カミイナグンイイジママチ",
    "town": "",
    "town_kana": "",
    "street": null,
    "office_name": null,
    "office_name_kana": null
  },
  "3701": {
    "postcode": "3993701",
    "prefecture": "長野県",
    "prefecture_kana": "ナガノケン",
    "prefecture_code": 20,
    "city": "上伊那郡飯島町",
    "city_kana": "カミイナグンイイジママチ",
    "town": "田切",
    "town_kana": "タギリ",
    "street": null,
    "office_name": null,
    "office_name_kana": null
  },
  "3702": {
    "postcode": "3993702",
    "prefecture": "長野県",
    "prefecture_kana": "ナガノケン",
    "prefecture_code": 20,
    "city": "上伊那郡飯島町",
    "city_kana": "カミイナグンイイジママチ",
    "town": "飯島",
    "town_kana": "イイジマ",
    "street": null,
    "office_name": null,
    "office_name_kana": null
  },
  "3703": {
    "postcode": "3993703",
    "prefecture": "長野県",
    "prefecture_kana": "ナガノケン",
    "prefecture_code": 20,
    "city": "上伊那郡飯島町",
    "city_kana": "カミイナグンイイジママチ",
    "town": "日曽利",
    "town_kana": "ヒッソリ",
    "street": null,
    "office_name": null,
    "office_name_kana": null
  },
  "3704": {
    "postcode": "3993704",
    "prefecture": "長野県",
    "prefecture_kana": "ナガノケン",
    "prefecture_code": 20,
    "city": "上伊那郡飯島町",
    "city_kana": "カミイナグンイイジママチ",
    "town": "本郷",
    "town_kana": "ホンゴウ",
    "street": null,
    "office_name": null,
    "office_name_kana": null
  },
  "3705": {
    "postcode": "3993705",
    "prefecture": "長野県",
    "prefecture_kana": "ナガノケン",
    "prefecture_code": 20,
    "city": "上伊那郡飯島町",
    "city_kana": "カミイナグンイイジママチ",
    "town": "七久保",
    "town_kana": "ナナクボ",
    "street": null,
    "office_name": null,
    "office_name_kana": null
  },
  "3797": {
    "postcode": "3993797",
    "prefecture": "長野県",
    "prefecture_kana": "ナガノケン",
    "prefecture_code": 20,
    "city": "上伊那郡飯島町",
    "city_kana": "カミイナグンイイジママチ",
    "town": "飯島",
    "town_kana": "イイジマ",
    "street": "２３３８",
    "office_name": "飯島町役場",
    "office_name_kana": "イイジママチヤクバ"
  },
  "3800": {
    "postcode": "3993800",
    "prefecture": "長野県",
    "prefecture_kana": "ナガノケン",
    "prefecture_code": 20,
    "city": "上伊那郡中川村",
    "city_kana": "カミイナグンナカガワムラ",
    "town": "",
    "town_kana": "",
    "street": null,
    "office_name": null,
    "office_name_kana": null
  },
  "3801": {
    "postcode": "3993801",
    "prefecture": "長野県",
    "prefecture_kana": "ナガノケン",
    "prefecture_code": 20,
    "city": "上伊那郡中川村",
    "city_kana": "カミイナグンナカガワムラ",
    "town": "大草",
    "town_kana": "オオクサ",
    "street": null,
    "office_name": null,
    "office_name_kana": null
  },
  "3802": {
    "postcode": "3993802",
    "prefecture": "長野県",
    "prefecture_kana": "ナガノケン",
    "prefecture_code": 20,
    "city": "上伊那郡中川村",
    "city_kana": "カミイナグンナカガワムラ",
    "town": "片桐",
    "town_kana": "カタギリ",
    "street": null,
    "office_name": null,
    "office_name_kana": null
  },
  "3803": {
    "postcode": "3993803",
    "prefecture": "長野県",
    "prefecture_kana": "ナガノケン",
    "prefecture_code": 20,
    "city": "上伊那郡中川村",
    "city_kana": "カミイナグンナカガワムラ",
    "town": "葛島",
    "town_kana": "カツラシマ",
    "street": null,
    "office_name": null,
    "office_name_kana": null
  },
  "3804": {
    "postcode": "3993804",
    "prefecture": "長野県",
    "prefecture_kana": "ナガノケン",
    "prefecture_code": 20,
    "city": "上伊那郡中川村",
    "city_kana": "カミイナグンナカガワムラ",
    "town": "四徳",
    "town_kana": "シトク",
    "street": null,
    "office_name": null,
    "office_name_kana": null
  },
  "3892": {
    "postcode": "3993892",
    "prefecture": "長野県",
    "prefecture_kana": "ナガノケン",
    "prefecture_code": 20,
    "city": "上伊那郡中川村",
    "city_kana": "カミイナグンナカガワムラ",
    "town": "大草",
    "town_kana": "オオクサ",
    "street": "４０４５−１",
    "office_name": "中川村役場",
    "office_name_kana": "ナカガワムラヤクバ"
  },
  "4100": {
    "postcode": "3994100",
    "prefecture": "長野県",
    "prefecture_kana": "ナガノケン",
    "prefecture_code": 20,
    "city": "駒ヶ根市",
    "city_kana": "コマガネシ",
    "town": "",
    "town_kana": "",
    "street": null,
    "office_name": null,
    "office_name_kana": null
  },
  "4101": {
    "postcode": "3994101",
    "prefecture": "長野県",
    "prefecture_kana": "ナガノケン",
    "prefecture_code": 20,
    "city": "駒ヶ根市",
    "city_kana": "コマガネシ",
    "town": "下平",
    "town_kana": "シモダイラ",
    "street": null,
    "office_name": null,
    "office_name_kana": null
  },
  "4102": {
    "postcode": "3994102",
    "prefecture": "長野県",
    "prefecture_kana": "ナガノケン",
    "prefecture_code": 20,
    "city": "駒ヶ根市",
    "city_kana": "コマガネシ",
    "town": "飯坂",
    "town_kana": "イイザカ",
    "street": null,
    "office_name": null,
    "office_name_kana": null
  },
  "4103": {
    "postcode": "3994103",
    "prefecture": "長野県",
    "prefecture_kana": "ナガノケン",
    "prefecture_code": 20,
    "city": "駒ヶ根市",
    "city_kana": "コマガネシ",
    "town": "梨の木",
    "town_kana": "ナシノキ",
    "street": null,
    "office_name": null,
    "office_name_kana": null
  },
  "4104": {
    "postcode": "3994104",
    "prefecture": "長野県",
    "prefecture_kana": "ナガノケン",
    "prefecture_code": 20,
    "city": "駒ヶ根市",
    "city_kana": "コマガネシ",
    "town": "経塚",
    "town_kana": "キョウヅカ",
    "street": null,
    "office_name": null,
    "office_name_kana": null
  },
  "4105": {
    "postcode": "3994105",
    "prefecture": "長野県",
    "prefecture_kana": "ナガノケン",
    "prefecture_code": 20,
    "city": "駒ヶ根市",
    "city_kana": "コマガネシ",
    "town": "赤須東",
    "town_kana": "アカズヒガシ",
    "street": null,
    "office_name": null,
    "office_name_kana": null
  },
  "4106": {
    "postcode": "3994106",
    "prefecture": "長野県",
    "prefecture_kana": "ナガノケン",
    "prefecture_code": 20,
    "city": "駒ヶ根市",
    "city_kana": "コマガネシ",
    "town": "東町",
    "town_kana": "ヒガシマチ",
    "street": null,
    "office_name": null,
    "office_name_kana": null
  },
  "4107": {
    "postcode": "3994107",
    "prefecture": "長野県",
    "prefecture_kana": "ナガノケン",
    "prefecture_code": 20,
    "city": "駒ヶ根市",
    "city_kana": "コマガネシ",
    "town": "南田",
    "town_kana": "ミナミダ",
    "street": null,
    "office_name": null,
    "office_name_kana": null
  },
  "4108": {
    "postcode": "3994108",
    "prefecture": "長野県",
    "prefecture_kana": "ナガノケン",
    "prefecture_code": 20,
    "city": "駒ヶ根市",
    "city_kana": "コマガネシ",
    "town": "下市場",
    "town_kana": "シモイチバ",
    "street": null,
    "office_name": null,
    "office_name_kana": null
  },
  "4111": {
    "postcode": "3994111",
    "prefecture": "長野県",
    "prefecture_kana": "ナガノケン",
    "prefecture_code": 20,
    "city": "駒ヶ根市",
    "city_kana": "コマガネシ",
    "town": "北町",
    "town_kana": "キタマチ",
    "street": null,
    "office_name": null,
    "office_name_kana": null
  },
  "4112": {
    "postcode": "3994112",
    "prefecture": "長野県",
    "prefecture_kana": "ナガノケン",
    "prefecture_code": 20,
    "city": "駒ヶ根市",
    "city_kana": "コマガネシ",
    "town": "中央",
    "town_kana": "チュウオウ",
    "street": null,
    "office_name": null,
    "office_name_kana": null
  },
  "4113": {
    "postcode": "3994113",
    "prefecture": "長野県",
    "prefecture_kana": "ナガノケン",
    "prefecture_code": 20,
    "city": "駒ヶ根市",
    "city_kana": "コマガネシ",
    "town": "赤須町",
    "town_kana": "アカズマチ",
    "street": null,
    "office_name": null,
    "office_name_kana": null
  },
  "4114": {
    "postcode": "3994114",
    "prefecture": "長野県",
    "prefecture_kana": "ナガノケン",
    "prefecture_code": 20,
    "city": "駒ヶ根市",
    "city_kana": "コマガネシ",
    "town": "上穂南",
    "town_kana": "ウワブミナミ",
    "street": null,
    "office_name": null,
    "office_name_kana": null
  },
  "4115": {
    "postcode": "3994115",
    "prefecture": "長野県",
    "prefecture_kana": "ナガノケン",
    "prefecture_code": 20,
    "city": "駒ヶ根市",
    "city_kana": "コマガネシ",
    "town": "上穂栄町",
    "town_kana": "ウワブサカエマチ",
    "street": null,
    "office_name": null,
    "office_name_kana": null
  },
  "4116": {
    "postcode": "3994116",
    "prefecture": "長野県",
    "prefecture_kana": "ナガノケン",
    "prefecture_code": 20,
    "city": "駒ヶ根市",
    "city_kana": "コマガネシ",
    "town": "上穂北",
    "town_kana": "ウワブキタ",
    "street": null,
    "office_name": null,
    "office_name_kana": null
  },
  "4117": {
    "postcode": "3994117",
    "prefecture": "長野県",
    "prefecture_kana": "ナガノケン",
    "prefecture_code": 20,
    "city": "駒ヶ根市",
    "city_kana": "コマガネシ",
    "town": "赤穂",
    "town_kana": "アカホ",
    "street": null,
    "office_name": null,
    "office_name_kana": null
  },
  "4192": {
    "postcode": "3994192",
    "prefecture": "長野県",
    "prefecture_kana": "ナガノケン",
    "prefecture_code": 20,
    "city": "駒ヶ根市",
    "city_kana": "コマガネシ",
    "town": "赤須町",
    "town_kana": "アカズマチ",
    "street": "２０−１（駒ヶ根郵便局私書箱第２０号）",
    "office_name": "駒ヶ根市役所",
    "office_name_kana": "コマガネシヤクシヨ"
  },
  "4195": {
    "postcode": "3994195",
    "prefecture": "長野県",
    "prefecture_kana": "ナガノケン",
    "prefecture_code": 20,
    "city": "駒ヶ根市",
    "city_kana": "コマガネシ",
    "town": "北町",
    "town_kana": "キタマチ",
    "street": "２２−１",
    "office_name": "株式会社　ヤマウラ",
    "office_name_kana": "カブシキガイシヤ ヤマウラ"
  },
  "4231": {
    "postcode": "3994231",
    "prefecture": "長野県",
    "prefecture_kana": "ナガノケン",
    "prefecture_code": 20,
    "city": "駒ヶ根市",
    "city_kana": "コマガネシ",
    "town": "中沢",
    "town_kana": "ナカザワ",
    "street": null,
    "office_name": null,
    "office_name_kana": null
  },
  "4232": {
    "postcode": "3994232",
    "prefecture": "長野県",
    "prefecture_kana": "ナガノケン",
    "prefecture_code": 20,
    "city": "駒ヶ根市",
    "city_kana": "コマガネシ",
    "town": "下平",
    "town_kana": "シモダイラ",
    "street": null,
    "office_name": null,
    "office_name_kana": null
  },
  "4301": {
    "postcode": "3994301",
    "prefecture": "長野県",
    "prefecture_kana": "ナガノケン",
    "prefecture_code": 20,
    "city": "上伊那郡宮田村",
    "city_kana": "カミイナグンミヤダムラ",
    "town": "",
    "town_kana": "",
    "street": null,
    "office_name": null,
    "office_name_kana": null
  },
  "4321": {
    "postcode": "3994321",
    "prefecture": "長野県",
    "prefecture_kana": "ナガノケン",
    "prefecture_code": 20,
    "city": "駒ヶ根市",
    "city_kana": "コマガネシ",
    "town": "東伊那",
    "town_kana": "ヒガシイナ",
    "street": null,
    "office_name": null,
    "office_name_kana": null
  },
  "4392": {
    "postcode": "3994392",
    "prefecture": "長野県",
    "prefecture_kana": "ナガノケン",
    "prefecture_code": 20,
    "city": "上伊那郡宮田村",
    "city_kana": "カミイナグンミヤダムラ",
    "town": "",
    "town_kana": "",
    "street": "９８",
    "office_name": "宮田村役場",
    "office_name_kana": "ミヤダムラヤクバ"
  },
  "4393": {
    "postcode": "3994393",
    "prefecture": "長野県",
    "prefecture_kana": "ナガノケン",
    "prefecture_code": 20,
    "city": "上伊那郡宮田村",
    "city_kana": "カミイナグンミヤダムラ",
    "town": "",
    "town_kana": "",
    "street": "１９７２",
    "office_name": "株式会社　ＬＩＸＩＬ",
    "office_name_kana": "カブシキガイシヤ リクシル"
  },
  "4394": {
    "postcode": "3994394",
    "prefecture": "長野県",
    "prefecture_kana": "ナガノケン",
    "prefecture_code": 20,
    "city": "上伊那郡宮田村",
    "city_kana": "カミイナグンミヤダムラ",
    "town": "",
    "town_kana": "",
    "street": "２０６１",
    "office_name": "横河マニュファクチャリング　株式会社",
    "office_name_kana": "ヨコガワマニユフアクチヤリング カブシキカイシヤ"
  },
  "4395": {
    "postcode": "3994395",
    "prefecture": "長野県",
    "prefecture_kana": "ナガノケン",
    "prefecture_code": 20,
    "city": "上伊那郡宮田村",
    "city_kana": "カミイナグンミヤダムラ",
    "town": "",
    "town_kana": "",
    "street": "５３１１−１",
    "office_name": "株式会社　マルニシ　伊那店",
    "office_name_kana": "カブシキガイシヤ マルニシ イナテン"
  },
  "4431": {
    "postcode": "3994431",
    "prefecture": "長野県",
    "prefecture_kana": "ナガノケン",
    "prefecture_code": 20,
    "city": "伊那市",
    "city_kana": "イナシ",
    "town": "西春近",
    "town_kana": "ニシハルチカ",
    "street": null,
    "office_name": null,
    "office_name_kana": null
  },
  "4432": {
    "postcode": "3994432",
    "prefecture": "長野県",
    "prefecture_kana": "ナガノケン",
    "prefecture_code": 20,
    "city": "伊那市",
    "city_kana": "イナシ",
    "town": "東春近",
    "town_kana": "ヒガシハルチカ",
    "street": null,
    "office_name": null,
    "office_name_kana": null
  },
  "4498": {
    "postcode": "3994498",
    "prefecture": "長野県",
    "prefecture_kana": "ナガノケン",
    "prefecture_code": 20,
    "city": "伊那市",
    "city_kana": "イナシ",
    "town": "西春近",
    "town_kana": "ニシハルチカ",
    "street": "５０７４",
    "office_name": "伊那食品工業　株式会社　本社",
    "office_name_kana": "イナシヨクヒンコウギヨウ カブシキガイシヤ ホンシヤ"
  },
  "4501": {
    "postcode": "3994501",
    "prefecture": "長野県",
    "prefecture_kana": "ナガノケン",
    "prefecture_code": 20,
    "city": "伊那市",
    "city_kana": "イナシ",
    "town": "西箕輪",
    "town_kana": "ニシミノワ",
    "street": null,
    "office_name": null,
    "office_name_kana": null
  },
  "4511": {
    "postcode": "3994511",
    "prefecture": "長野県",
    "prefecture_kana": "ナガノケン",
    "prefecture_code": 20,
    "city": "上伊那郡南箕輪村",
    "city_kana": "カミイナグンミナミミノワムラ",
    "town": "",
    "town_kana": "",
    "street": null,
    "office_name": null,
    "office_name_kana": null
  },
  "4566": {
    "postcode": "3994566",
    "prefecture": "長野県",
    "prefecture_kana": "ナガノケン",
    "prefecture_code": 20,
    "city": "上伊那郡南箕輪村",
    "city_kana": "カミイナグンミナミミノワムラ",
    "town": "",
    "town_kana": "",
    "street": "８３０６−９８６",
    "office_name": "南部小学校",
    "office_name_kana": "ナンブシヨウガツコウ"
  },
  "4567": {
    "postcode": "3994567",
    "prefecture": "長野県",
    "prefecture_kana": "ナガノケン",
    "prefecture_code": 20,
    "city": "上伊那郡南箕輪村",
    "city_kana": "カミイナグンミナミミノワムラ",
    "town": "",
    "town_kana": "",
    "street": "４８０４−１",
    "office_name": "南箕輪小学校",
    "office_name_kana": "ミナミミノワシヨウガツコウ"
  },
  "4568": {
    "postcode": "3994568",
    "prefecture": "長野県",
    "prefecture_kana": "ナガノケン",
    "prefecture_code": 20,
    "city": "上伊那郡南箕輪村",
    "city_kana": "カミイナグンミナミミノワムラ",
    "town": "",
    "town_kana": "",
    "street": "３１２５−１",
    "office_name": "南箕輪中学校",
    "office_name_kana": "ミナミミノワチユウガツコウ"
  },
  "4570": {
    "postcode": "3994570",
    "prefecture": "長野県",
    "prefecture_kana": "ナガノケン",
    "prefecture_code": 20,
    "city": "上伊那郡南箕輪村",
    "city_kana": "カミイナグンミナミミノワムラ",
    "town": "",
    "town_kana": "",
    "street": "６２７４",
    "office_name": "国興　株式会社",
    "office_name_kana": "コツコウ カブシキガイシヤ"
  },
  "4571": {
    "postcode": "3994571",
    "prefecture": "長野県",
    "prefecture_kana": "ナガノケン",
    "prefecture_code": 20,
    "city": "上伊那郡南箕輪村",
    "city_kana": "カミイナグンミナミミノワムラ",
    "town": "",
    "town_kana": "",
    "street": "９７９２−６",
    "office_name": "越前屋　株式会社",
    "office_name_kana": "エチゼンヤ カブシキガイシヤ"
  },
  "4572": {
    "postcode": "3994572",
    "prefecture": "長野県",
    "prefecture_kana": "ナガノケン",
    "prefecture_code": 20,
    "city": "上伊那郡南箕輪村",
    "city_kana": "カミイナグンミナミミノワムラ",
    "town": "",
    "town_kana": "",
    "street": "９７５８−３",
    "office_name": "上野興業　株式会社",
    "office_name_kana": "ウエノコウギヨウ カブシキガイシヤ"
  },
  "4576": {
    "postcode": "3994576",
    "prefecture": "長野県",
    "prefecture_kana": "ナガノケン",
    "prefecture_code": 20,
    "city": "上伊那郡南箕輪村",
    "city_kana": "カミイナグンミナミミノワムラ",
    "town": "",
    "town_kana": "",
    "street": "８２９６−１",
    "office_name": "高山理化精機　株式会社",
    "office_name_kana": "タカヤマリカセイキ カブシキガイシヤ"
  },
  "4578": {
    "postcode": "3994578",
    "prefecture": "長野県",
    "prefecture_kana": "ナガノケン",
    "prefecture_code": 20,
    "city": "上伊那郡南箕輪村",
    "city_kana": "カミイナグンミナミミノワムラ",
    "town": "",
    "town_kana": "",
    "street": "９８１７−１",
    "office_name": "ミツワマシンサービス",
    "office_name_kana": "ミツワマシンサ-ビス"
  },
  "4583": {
    "postcode": "3994583",
    "prefecture": "長野県",
    "prefecture_kana": "ナガノケン",
    "prefecture_code": 20,
    "city": "上伊那郡南箕輪村",
    "city_kana": "カミイナグンミナミミノワムラ",
    "town": "",
    "town_kana": "",
    "street": "２３８０−４８０",
    "office_name": "マシンエンジニアリング　株式会社",
    "office_name_kana": "マシンエンジニアリング カブシキガイシヤ"
  },
  "4584": {
    "postcode": "3994584",
    "prefecture": "長野県",
    "prefecture_kana": "ナガノケン",
    "prefecture_code": 20,
    "city": "上伊那郡南箕輪村",
    "city_kana": "カミイナグンミナミミノワムラ",
    "town": "",
    "town_kana": "",
    "street": "６２０１",
    "office_name": "ニッセイ電子工業　株式会社",
    "office_name_kana": "ニツセイデンシコウギヨウ カブシキガイシヤ"
  },
  "4585": {
    "postcode": "3994585",
    "prefecture": "長野県",
    "prefecture_kana": "ナガノケン",
    "prefecture_code": 20,
    "city": "上伊那郡南箕輪村",
    "city_kana": "カミイナグンミナミミノワムラ",
    "town": "",
    "town_kana": "",
    "street": "５１９６−１",
    "office_name": "創研　株式会社",
    "office_name_kana": "ソウケン カブシキガイシヤ"
  },
  "4586": {
    "postcode": "3994586",
    "prefecture": "長野県",
    "prefecture_kana": "ナガノケン",
    "prefecture_code": 20,
    "city": "上伊那郡南箕輪村",
    "city_kana": "カミイナグンミナミミノワムラ",
    "town": "",
    "town_kana": "",
    "street": "３８８４−１",
    "office_name": "ピスコ販売",
    "office_name_kana": "ピスコハンバイ"
  },
  "4587": {
    "postcode": "3994587",
    "prefecture": "長野県",
    "prefecture_kana": "ナガノケン",
    "prefecture_code": 20,
    "city": "上伊那郡南箕輪村",
    "city_kana": "カミイナグンミナミミノワムラ",
    "town": "",
    "town_kana": "",
    "street": "４０８８",
    "office_name": "日本ピスコ　第一工場",
    "office_name_kana": "ニホンピスコ ダイイチコウジヨウ"
  },
  "4588": {
    "postcode": "3994588",
    "prefecture": "長野県",
    "prefecture_kana": "ナガノケン",
    "prefecture_code": 20,
    "city": "上伊那郡南箕輪村",
    "city_kana": "カミイナグンミナミミノワムラ",
    "town": "",
    "town_kana": "",
    "street": "３８８４−１",
    "office_name": "日本ピスコ　第二工場",
    "office_name_kana": "ニホンピスコ ダイニコウジヨウ"
  },
  "4589": {
    "postcode": "3994589",
    "prefecture": "長野県",
    "prefecture_kana": "ナガノケン",
    "prefecture_code": 20,
    "city": "上伊那郡南箕輪村",
    "city_kana": "カミイナグンミナミミノワムラ",
    "town": "",
    "town_kana": "",
    "street": "３９３０",
    "office_name": "信英蓄電器箔　株式会社",
    "office_name_kana": "シンエイチクデンキハク カブシキガイシヤ"
  },
  "4592": {
    "postcode": "3994592",
    "prefecture": "長野県",
    "prefecture_kana": "ナガノケン",
    "prefecture_code": 20,
    "city": "上伊那郡南箕輪村",
    "city_kana": "カミイナグンミナミミノワムラ",
    "town": "",
    "town_kana": "",
    "street": "４８２５−１",
    "office_name": "南箕輪村役場",
    "office_name_kana": "ミナミミノワムラヤクバ"
  },
  "4594": {
    "postcode": "3994594",
    "prefecture": "長野県",
    "prefecture_kana": "ナガノケン",
    "prefecture_code": 20,
    "city": "上伊那郡南箕輪村",
    "city_kana": "カミイナグンミナミミノワムラ",
    "town": "",
    "town_kana": "",
    "street": "９１１０",
    "office_name": "長野県上伊那農業高等学校",
    "office_name_kana": "ナガノケンカミイナノウギヨウコウトウガツコウ"
  },
  "4595": {
    "postcode": "3994595",
    "prefecture": "長野県",
    "prefecture_kana": "ナガノケン",
    "prefecture_code": 20,
    "city": "上伊那郡南箕輪村",
    "city_kana": "カミイナグンミナミミノワムラ",
    "town": "",
    "town_kana": "",
    "street": "４１２４−１",
    "office_name": "株式会社　ハーモ",
    "office_name_kana": "カブシキガイシヤ ハ-モ"
  },
  "4597": {
    "postcode": "3994597",
    "prefecture": "長野県",
    "prefecture_kana": "ナガノケン",
    "prefecture_code": 20,
    "city": "上伊那郡南箕輪村",
    "city_kana": "カミイナグンミナミミノワムラ",
    "town": "",
    "town_kana": "",
    "street": "３６８５−２",
    "office_name": "大明化学工業　株式会社",
    "office_name_kana": "タイメイカガクコウギヨウ カブシキガイシヤ"
  },
  "4598": {
    "postcode": "3994598",
    "prefecture": "長野県",
    "prefecture_kana": "ナガノケン",
    "prefecture_code": 20,
    "city": "上伊那郡南箕輪村",
    "city_kana": "カミイナグンミナミミノワムラ",
    "town": "",
    "town_kana": "",
    "street": "８３０４",
    "office_name": "信州大学　農学部",
    "office_name_kana": "シンシユウダイガク ノウガクブ"
  },
  "4600": {
    "postcode": "3994600",
    "prefecture": "長野県",
    "prefecture_kana": "ナガノケン",
    "prefecture_code": 20,
    "city": "上伊那郡箕輪町",
    "city_kana": "カミイナグンミノワマチ",
    "town": "",
    "town_kana": "",
    "street": null,
    "office_name": null,
    "office_name_kana": null
  },
  "4601": {
    "postcode": "3994601",
    "prefecture": "長野県",
    "prefecture_kana": "ナガノケン",
    "prefecture_code": 20,
    "city": "上伊那郡箕輪町",
    "city_kana": "カミイナグンミノワマチ",
    "town": "中箕輪",
    "town_kana": "ナカミノワ",
    "street": null,
    "office_name": null,
    "office_name_kana": null
  },
  "4602": {
    "postcode": "3994602",
    "prefecture": "長野県",
    "prefecture_kana": "ナガノケン",
    "prefecture_code": 20,
    "city": "上伊那郡箕輪町",
    "city_kana": "カミイナグンミノワマチ",
    "town": "東箕輪",
    "town_kana": "ヒガシミノワ",
    "street": null,
    "office_name": null,
    "office_name_kana": null
  },
  "4603": {
    "postcode": "3994603",
    "prefecture": "長野県",
    "prefecture_kana": "ナガノケン",
    "prefecture_code": 20,
    "city": "上伊那郡箕輪町",
    "city_kana": "カミイナグンミノワマチ",
    "town": "三日町",
    "town_kana": "ミッカマチ",
    "street": null,
    "office_name": null,
    "office_name_kana": null
  },
  "4604": {
    "postcode": "3994604",
    "prefecture": "長野県",
    "prefecture_kana": "ナガノケン",
    "prefecture_code": 20,
    "city": "上伊那郡箕輪町",
    "city_kana": "カミイナグンミノワマチ",
    "town": "福与",
    "town_kana": "フクヨ",
    "street": null,
    "office_name": null,
    "office_name_kana": null
  },
  "4605": {
    "postcode": "3994605",
    "prefecture": "長野県",
    "prefecture_kana": "ナガノケン",
    "prefecture_code": 20,
    "city": "上伊那郡箕輪町",
    "city_kana": "カミイナグンミノワマチ",
    "town": "中曽根",
    "town_kana": "ナカゾネ",
    "street": null,
    "office_name": null,
    "office_name_kana": null
  },
  "4692": {
    "postcode": "3994692",
    "prefecture": "長野県",
    "prefecture_kana": "ナガノケン",
    "prefecture_code": 20,
    "city": "上伊那郡箕輪町",
    "city_kana": "カミイナグンミノワマチ",
    "town": "大字中箕輪",
    "town_kana": null,
    "street": "１２２３８",
    "office_name": "株式会社　伸光製作所",
    "office_name_kana": "カブシキカイシヤ シンコウセイサクシヨ"
  },
  "4693": {
    "postcode": "3994693",
    "prefecture": "長野県",
    "prefecture_kana": "ナガノケン",
    "prefecture_code": 20,
    "city": "上伊那郡箕輪町",
    "city_kana": "カミイナグンミノワマチ",
    "town": "大字中箕輪",
    "town_kana": null,
    "street": "８７８７",
    "office_name": "ＨＯＹＡ　株式会社　ビジョンケア部門　松島工場",
    "office_name_kana": "ホ-ヤ カブシキガイシヤ ビジヨンケアブモン マツシマコウジヨウ"
  },
  "4695": {
    "postcode": "3994695",
    "prefecture": "長野県",
    "prefecture_kana": "ナガノケン",
    "prefecture_code": 20,
    "city": "上伊那郡箕輪町",
    "city_kana": "カミイナグンミノワマチ",
    "town": "大字中箕輪",
    "town_kana": null,
    "street": "１０２９８",
    "office_name": "箕輪町役場",
    "office_name_kana": "ミノワマチヤクバ"
  },
  "4696": {
    "postcode": "3994696",
    "prefecture": "長野県",
    "prefecture_kana": "ナガノケン",
    "prefecture_code": 20,
    "city": "上伊那郡箕輪町",
    "city_kana": "カミイナグンミノワマチ",
    "town": "大字中箕輪",
    "town_kana": null,
    "street": "８５４８",
    "office_name": "セイコーエプソン　株式会社　伊那事業所",
    "office_name_kana": "セイコ-エプソン カブシキガイシヤ イナジギヨウシヨ"
  },
  "4697": {
    "postcode": "3994697",
    "prefecture": "長野県",
    "prefecture_kana": "ナガノケン",
    "prefecture_code": 20,
    "city": "上伊那郡箕輪町",
    "city_kana": "カミイナグンミノワマチ",
    "town": "大字中箕輪",
    "town_kana": null,
    "street": "１４０１６",
    "office_name": "ＫＯＡ　株式会社　アースウイング",
    "office_name_kana": "コ-ア カブシキガイシヤ ア-スウイング"
  },
  "5300": {
    "postcode": "3995300",
    "prefecture": "長野県",
    "prefecture_kana": "ナガノケン",
    "prefecture_code": 20,
    "city": "木曽郡南木曽町",
    "city_kana": "キソグンナギソマチ",
    "town": "",
    "town_kana": "",
    "street": null,
    "office_name": null,
    "office_name_kana": null
  },
  "5301": {
    "postcode": "3995301",
    "prefecture": "長野県",
    "prefecture_kana": "ナガノケン",
    "prefecture_code": 20,
    "city": "木曽郡南木曽町",
    "city_kana": "キソグンナギソマチ",
    "town": "読書",
    "town_kana": "ヨミカキ",
    "street": null,
    "office_name": null,
    "office_name_kana": null
  },
  "5302": {
    "postcode": "3995302",
    "prefecture": "長野県",
    "prefecture_kana": "ナガノケン",
    "prefecture_code": 20,
    "city": "木曽郡南木曽町",
    "city_kana": "キソグンナギソマチ",
    "town": "吾妻",
    "town_kana": "アヅマ",
    "street": null,
    "office_name": null,
    "office_name_kana": null
  },
  "5303": {
    "postcode": "3995303",
    "prefecture": "長野県",
    "prefecture_kana": "ナガノケン",
    "prefecture_code": 20,
    "city": "木曽郡南木曽町",
    "city_kana": "キソグンナギソマチ",
    "town": "田立",
    "town_kana": "タダチ",
    "street": null,
    "office_name": null,
    "office_name_kana": null
  },
  "5500": {
    "postcode": "3995500",
    "prefecture": "長野県",
    "prefecture_kana": "ナガノケン",
    "prefecture_code": 20,
    "city": "木曽郡大桑村",
    "city_kana": "キソグンオオクワムラ",
    "town": "",
    "town_kana": "",
    "street": null,
    "office_name": null,
    "office_name_kana": null
  },
  "5501": {
    "postcode": "3995501",
    "prefecture": "長野県",
    "prefecture_kana": "ナガノケン",
    "prefecture_code": 20,
    "city": "木曽郡大桑村",
    "city_kana": "キソグンオオクワムラ",
    "town": "殿",
    "town_kana": "トノ",
    "street": null,
    "office_name": null,
    "office_name_kana": null
  },
  "5502": {
    "postcode": "3995502",
    "prefecture": "長野県",
    "prefecture_kana": "ナガノケン",
    "prefecture_code": 20,
    "city": "木曽郡大桑村",
    "city_kana": "キソグンオオクワムラ",
    "town": "須原",
    "town_kana": "スハラ",
    "street": null,
    "office_name": null,
    "office_name_kana": null
  },
  "5503": {
    "postcode": "3995503",
    "prefecture": "長野県",
    "prefecture_kana": "ナガノケン",
    "prefecture_code": 20,
    "city": "木曽郡大桑村",
    "city_kana": "キソグンオオクワムラ",
    "town": "長野",
    "town_kana": "ナガノ",
    "street": null,
    "office_name": null,
    "office_name_kana": null
  },
  "5504": {
    "postcode": "3995504",
    "prefecture": "長野県",
    "prefecture_kana": "ナガノケン",
    "prefecture_code": 20,
    "city": "木曽郡大桑村",
    "city_kana": "キソグンオオクワムラ",
    "town": "野尻",
    "town_kana": "ノジリ",
    "street": null,
    "office_name": null,
    "office_name_kana": null
  },
  "5600": {
    "postcode": "3995600",
    "prefecture": "長野県",
    "prefecture_kana": "ナガノケン",
    "prefecture_code": 20,
    "city": "木曽郡上松町",
    "city_kana": "キソグンアゲマツマチ",
    "town": "",
    "town_kana": "",
    "street": null,
    "office_name": null,
    "office_name_kana": null
  },
  "5601": {
    "postcode": "3995601",
    "prefecture": "長野県",
    "prefecture_kana": "ナガノケン",
    "prefecture_code": 20,
    "city": "木曽郡上松町",
    "city_kana": "キソグンアゲマツマチ",
    "town": "上松",
    "town_kana": "アゲマツ",
    "street": null,
    "office_name": null,
    "office_name_kana": null
  },
  "5602": {
    "postcode": "3995602",
    "prefecture": "長野県",
    "prefecture_kana": "ナガノケン",
    "prefecture_code": 20,
    "city": "木曽郡上松町",
    "city_kana": "キソグンアゲマツマチ",
    "town": "本町通り",
    "town_kana": "ホンマチドオリ",
    "street": null,
    "office_name": null,
    "office_name_kana": null
  },
  "5603": {
    "postcode": "3995603",
    "prefecture": "長野県",
    "prefecture_kana": "ナガノケン",
    "prefecture_code": 20,
    "city": "木曽郡上松町",
    "city_kana": "キソグンアゲマツマチ",
    "town": "駅前通り",
    "town_kana": "エキマエドオリ",
    "street": null,
    "office_name": null,
    "office_name_kana": null
  },
  "5604": {
    "postcode": "3995604",
    "prefecture": "長野県",
    "prefecture_kana": "ナガノケン",
    "prefecture_code": 20,
    "city": "木曽郡上松町",
    "city_kana": "キソグンアゲマツマチ",
    "town": "正島町",
    "town_kana": "ショウジママチ",
    "street": null,
    "office_name": null,
    "office_name_kana": null
  },
  "5605": {
    "postcode": "3995605",
    "prefecture": "長野県",
    "prefecture_kana": "ナガノケン",
    "prefecture_code": 20,
    "city": "木曽郡上松町",
    "city_kana": "キソグンアゲマツマチ",
    "town": "栄町",
    "town_kana": "サカエマチ",
    "street": null,
    "office_name": null,
    "office_name_kana": null
  },
  "5606": {
    "postcode": "3995606",
    "prefecture": "長野県",
    "prefecture_kana": "ナガノケン",
    "prefecture_code": 20,
    "city": "木曽郡上松町",
    "city_kana": "キソグンアゲマツマチ",
    "town": "緑町",
    "town_kana": "ミドリマチ",
    "street": null,
    "office_name": null,
    "office_name_kana": null
  },
  "5607": {
    "postcode": "3995607",
    "prefecture": "長野県",
    "prefecture_kana": "ナガノケン",
    "prefecture_code": 20,
    "city": "木曽郡上松町",
    "city_kana": "キソグンアゲマツマチ",
    "town": "小川",
    "town_kana": "オガワ",
    "street": null,
    "office_name": null,
    "office_name_kana": null
  },
  "5608": {
    "postcode": "3995608",
    "prefecture": "長野県",
    "prefecture_kana": "ナガノケン",
    "prefecture_code": 20,
    "city": "木曽郡上松町",
    "city_kana": "キソグンアゲマツマチ",
    "town": "荻原",
    "town_kana": "オギハラ",
    "street": null,
    "office_name": null,
    "office_name_kana": null
  },
  "5609": {
    "postcode": "3995609",
    "prefecture": "長野県",
    "prefecture_kana": "ナガノケン",
    "prefecture_code": 20,
    "city": "木曽郡上松町",
    "city_kana": "キソグンアゲマツマチ",
    "town": "旭町",
    "town_kana": "アサヒマチ",
    "street": null,
    "office_name": null,
    "office_name_kana": null
  },
  "6101": {
    "postcode": "3996101",
    "prefecture": "長野県",
    "prefecture_kana": "ナガノケン",
    "prefecture_code": 20,
    "city": "木曽郡木曽町",
    "city_kana": "キソグンキソマチ",
    "town": "日義",
    "town_kana": "ヒヨシ",
    "street": null,
    "office_name": null,
    "office_name_kana": null
  },
  "6200": {
    "postcode": "3996200",
    "prefecture": "長野県",
    "prefecture_kana": "ナガノケン",
    "prefecture_code": 20,
    "city": "木曽郡木祖村",
    "city_kana": "キソグンキソムラ",
    "town": "",
    "town_kana": "",
    "street": null,
    "office_name": null,
    "office_name_kana": null
  },
  "6201": {
    "postcode": "3996201",
    "prefecture": "長野県",
    "prefecture_kana": "ナガノケン",
    "prefecture_code": 20,
    "city": "木曽郡木祖村",
    "city_kana": "キソグンキソムラ",
    "town": "薮原",
    "town_kana": "ヤブハラ",
    "street": null,
    "office_name": null,
    "office_name_kana": null
  },
  "6202": {
    "postcode": "3996202",
    "prefecture": "長野県",
    "prefecture_kana": "ナガノケン",
    "prefecture_code": 20,
    "city": "木曽郡木祖村",
    "city_kana": "キソグンキソムラ",
    "town": "菅",
    "town_kana": "スゲ",
    "street": null,
    "office_name": null,
    "office_name_kana": null
  },
  "6203": {
    "postcode": "3996203",
    "prefecture": "長野県",
    "prefecture_kana": "ナガノケン",
    "prefecture_code": 20,
    "city": "木曽郡木祖村",
    "city_kana": "キソグンキソムラ",
    "town": "小木曽",
    "town_kana": "オギソ",
    "street": null,
    "office_name": null,
    "office_name_kana": null
  },
  "6301": {
    "postcode": "3996301",
    "prefecture": "長野県",
    "prefecture_kana": "ナガノケン",
    "prefecture_code": 20,
    "city": "塩尻市",
    "city_kana": "シオジリシ",
    "town": "贄川",
    "town_kana": "ニエカワ",
    "street": null,
    "office_name": null,
    "office_name_kana": null
  },
  "6302": {
    "postcode": "3996302",
    "prefecture": "長野県",
    "prefecture_kana": "ナガノケン",
    "prefecture_code": 20,
    "city": "塩尻市",
    "city_kana": "シオジリシ",
    "town": "木曽平沢",
    "town_kana": "キソヒラサワ",
    "street": null,
    "office_name": null,
    "office_name_kana": null
  },
  "6303": {
    "postcode": "3996303",
    "prefecture": "長野県",
    "prefecture_kana": "ナガノケン",
    "prefecture_code": 20,
    "city": "塩尻市",
    "city_kana": "シオジリシ",
    "town": "奈良井",
    "town_kana": "ナライ",
    "street": null,
    "office_name": null,
    "office_name_kana": null
  },
  "6461": {
    "postcode": "3996461",
    "prefecture": "長野県",
    "prefecture_kana": "ナガノケン",
    "prefecture_code": 20,
    "city": "塩尻市",
    "city_kana": "シオジリシ",
    "town": "宗賀",
    "town_kana": "ソウガ",
    "street": null,
    "office_name": null,
    "office_name_kana": null
  },
  "6462": {
    "postcode": "3996462",
    "prefecture": "長野県",
    "prefecture_kana": "ナガノケン",
    "prefecture_code": 20,
    "city": "塩尻市",
    "city_kana": "シオジリシ",
    "town": "洗馬",
    "town_kana": "セバ",
    "street": null,
    "office_name": null,
    "office_name_kana": null
  },
  "6493": {
    "postcode": "3996493",
    "prefecture": "長野県",
    "prefecture_kana": "ナガノケン",
    "prefecture_code": 20,
    "city": "塩尻市",
    "city_kana": "シオジリシ",
    "town": "大字洗馬",
    "town_kana": null,
    "street": "２７２０番地３",
    "office_name": "洗馬農業協同組合",
    "office_name_kana": "セバノウギヨウキヨウドウクミアイ"
  },
  "7101": {
    "postcode": "3997101",
    "prefecture": "長野県",
    "prefecture_kana": "ナガノケン",
    "prefecture_code": 20,
    "city": "安曇野市",
    "city_kana": "アヅミノシ",
    "town": "明科東川手",
    "town_kana": "アカシナヒガシカワテ",
    "street": null,
    "office_name": null,
    "office_name_kana": null
  },
  "7102": {
    "postcode": "3997102",
    "prefecture": "長野県",
    "prefecture_kana": "ナガノケン",
    "prefecture_code": 20,
    "city": "安曇野市",
    "city_kana": "アヅミノシ",
    "town": "明科中川手",
    "town_kana": "アカシナナカガワテ",
    "street": null,
    "office_name": null,
    "office_name_kana": null
  },
  "7103": {
    "postcode": "3997103",
    "prefecture": "長野県",
    "prefecture_kana": "ナガノケン",
    "prefecture_code": 20,
    "city": "安曇野市",
    "city_kana": "アヅミノシ",
    "town": "明科光",
    "town_kana": "アカシナヒカル",
    "street": null,
    "office_name": null,
    "office_name_kana": null
  },
  "7104": {
    "postcode": "3997104",
    "prefecture": "長野県",
    "prefecture_kana": "ナガノケン",
    "prefecture_code": 20,
    "city": "安曇野市",
    "city_kana": "アヅミノシ",
    "town": "明科七貴",
    "town_kana": "アカシナナナキ",
    "street": null,
    "office_name": null,
    "office_name_kana": null
  },
  "7105": {
    "postcode": "3997105",
    "prefecture": "長野県",
    "prefecture_kana": "ナガノケン",
    "prefecture_code": 20,
    "city": "安曇野市",
    "city_kana": "アヅミノシ",
    "town": "明科南陸郷",
    "town_kana": "アカシナミナミリクゴウ",
    "street": null,
    "office_name": null,
    "office_name_kana": null
  },
  "7192": {
    "postcode": "3997192",
    "prefecture": "長野県",
    "prefecture_kana": "ナガノケン",
    "prefecture_code": 20,
    "city": "安曇野市",
    "city_kana": "アヅミノシ",
    "town": "明科中川手",
    "town_kana": "アカシナナカガワテ",
    "street": "６８２４−１（明科郵便局私書箱第１号）",
    "office_name": "安曇野市役所　明科支所",
    "office_name_kana": "アヅミノシヤクシヨ アカシナシシヨ"
  },
  "7194": {
    "postcode": "3997194",
    "prefecture": "長野県",
    "prefecture_kana": "ナガノケン",
    "prefecture_code": 20,
    "city": "安曇野市",
    "city_kana": "アヅミノシ",
    "town": "明科七貴",
    "town_kana": "アカシナナナキ",
    "street": "６０４３",
    "office_name": "あづみ野エフエム放送　株式会社",
    "office_name_kana": "アヅミノエフエムホウソウ カブシキガイシヤ"
  },
  "7200": {
    "postcode": "3997200",
    "prefecture": "長野県",
    "prefecture_kana": "ナガノケン",
    "prefecture_code": 20,
    "city": "東筑摩郡生坂村",
    "city_kana": "ヒガシチクマグンイクサカムラ",
    "town": "",
    "town_kana": "",
    "street": null,
    "office_name": null,
    "office_name_kana": null
  },
  "7201": {
    "postcode": "3997201",
    "prefecture": "長野県",
    "prefecture_kana": "ナガノケン",
    "prefecture_code": 20,
    "city": "東筑摩郡生坂村",
    "city_kana": "ヒガシチクマグンイクサカムラ",
    "town": "",
    "town_kana": "",
    "street": null,
    "office_name": null,
    "office_name_kana": null
  },
  "7202": {
    "postcode": "3997202",
    "prefecture": "長野県",
    "prefecture_kana": "ナガノケン",
    "prefecture_code": 20,
    "city": "東筑摩郡生坂村",
    "city_kana": "ヒガシチクマグンイクサカムラ",
    "town": "北陸郷",
    "town_kana": "キタリクゴウ",
    "street": null,
    "office_name": null,
    "office_name_kana": null
  },
  "7301": {
    "postcode": "3997301",
    "prefecture": "長野県",
    "prefecture_kana": "ナガノケン",
    "prefecture_code": 20,
    "city": "大町市",
    "city_kana": "オオマチシ",
    "town": "八坂",
    "town_kana": "ヤサカ",
    "street": null,
    "office_name": null,
    "office_name_kana": null
  },
  "7302": {
    "postcode": "3997302",
    "prefecture": "長野県",
    "prefecture_kana": "ナガノケン",
    "prefecture_code": 20,
    "city": "大町市",
    "city_kana": "オオマチシ",
    "town": "八坂菖蒲",
    "town_kana": "ヤサカショウブ",
    "street": null,
    "office_name": null,
    "office_name_kana": null
  },
  "7311": {
    "postcode": "3997311",
    "prefecture": "長野県",
    "prefecture_kana": "ナガノケン",
    "prefecture_code": 20,
    "city": "東筑摩郡生坂村",
    "city_kana": "ヒガシチクマグンイクサカムラ",
    "town": "東広津",
    "town_kana": "ヒガシヒロツ",
    "street": null,
    "office_name": null,
    "office_name_kana": null
  },
  "7401": {
    "postcode": "3997401",
    "prefecture": "長野県",
    "prefecture_kana": "ナガノケン",
    "prefecture_code": 20,
    "city": "松本市",
    "city_kana": "マツモトシ",
    "town": "五常",
    "town_kana": "ゴジョウ",
    "street": null,
    "office_name": null,
    "office_name_kana": null
  },
  "7402": {
    "postcode": "3997402",
    "prefecture": "長野県",
    "prefecture_kana": "ナガノケン",
    "prefecture_code": 20,
    "city": "松本市",
    "city_kana": "マツモトシ",
    "town": "会田",
    "town_kana": "アイダ",
    "street": null,
    "office_name": null,
    "office_name_kana": null
  },
  "7403": {
    "postcode": "3997403",
    "prefecture": "長野県",
    "prefecture_kana": "ナガノケン",
    "prefecture_code": 20,
    "city": "松本市",
    "city_kana": "マツモトシ",
    "town": "穴沢",
    "town_kana": "アナザワ",
    "street": null,
    "office_name": null,
    "office_name_kana": null
  },
  "7404": {
    "postcode": "3997404",
    "prefecture": "長野県",
    "prefecture_kana": "ナガノケン",
    "prefecture_code": 20,
    "city": "松本市",
    "city_kana": "マツモトシ",
    "town": "取出",
    "town_kana": "トリイデ",
    "street": null,
    "office_name": null,
    "office_name_kana": null
  },
  "7405": {
    "postcode": "3997405",
    "prefecture": "長野県",
    "prefecture_kana": "ナガノケン",
    "prefecture_code": 20,
    "city": "松本市",
    "city_kana": "マツモトシ",
    "town": "板場",
    "town_kana": "イタバ",
    "street": null,
    "office_name": null,
    "office_name_kana": null
  },
  "7411": {
    "postcode": "3997411",
    "prefecture": "長野県",
    "prefecture_kana": "ナガノケン",
    "prefecture_code": 20,
    "city": "松本市",
    "city_kana": "マツモトシ",
    "town": "中川",
    "town_kana": "ナカガワ",
    "street": null,
    "office_name": null,
    "office_name_kana": null
  },
  "7412": {
    "postcode": "3997412",
    "prefecture": "長野県",
    "prefecture_kana": "ナガノケン",
    "prefecture_code": 20,
    "city": "松本市",
    "city_kana": "マツモトシ",
    "town": "保福寺町",
    "town_kana": "ホフクジマチ",
    "street": null,
    "office_name": null,
    "office_name_kana": null
  },
  "7413": {
    "postcode": "3997413",
    "prefecture": "長野県",
    "prefecture_kana": "ナガノケン",
    "prefecture_code": 20,
    "city": "松本市",
    "city_kana": "マツモトシ",
    "town": "金山町",
    "town_kana": "カナヤママチ",
    "street": null,
    "office_name": null,
    "office_name_kana": null
  },
  "7414": {
    "postcode": "3997414",
    "prefecture": "長野県",
    "prefecture_kana": "ナガノケン",
    "prefecture_code": 20,
    "city": "松本市",
    "city_kana": "マツモトシ",
    "town": "殿野入",
    "town_kana": "トノノイリ",
    "street": null,
    "office_name": null,
    "office_name_kana": null
  },
  "7415": {
    "postcode": "3997415",
    "prefecture": "長野県",
    "prefecture_kana": "ナガノケン",
    "prefecture_code": 20,
    "city": "松本市",
    "city_kana": "マツモトシ",
    "town": "赤怒田",
    "town_kana": "アカヌタ",
    "street": null,
    "office_name": null,
    "office_name_kana": null
  },
  "7416": {
    "postcode": "3997416",
    "prefecture": "長野県",
    "prefecture_kana": "ナガノケン",
    "prefecture_code": 20,
    "city": "松本市",
    "city_kana": "マツモトシ",
    "town": "七嵐",
    "town_kana": "ナナアラシ",
    "street": null,
    "office_name": null,
    "office_name_kana": null
  },
  "7417": {
    "postcode": "3997417",
    "prefecture": "長野県",
    "prefecture_kana": "ナガノケン",
    "prefecture_code": 20,
    "city": "松本市",
    "city_kana": "マツモトシ",
    "town": "刈谷原町",
    "town_kana": "カリヤハラマチ",
    "street": null,
    "office_name": null,
    "office_name_kana": null
  },
  "7418": {
    "postcode": "3997418",
    "prefecture": "長野県",
    "prefecture_kana": "ナガノケン",
    "prefecture_code": 20,
    "city": "松本市",
    "city_kana": "マツモトシ",
    "town": "反町",
    "town_kana": "ソリマチ",
    "street": null,
    "office_name": null,
    "office_name_kana": null
  },
  "7500": {
    "postcode": "3997500",
    "prefecture": "長野県",
    "prefecture_kana": "ナガノケン",
    "prefecture_code": 20,
    "city": "東筑摩郡筑北村",
    "city_kana": "ヒガシチクマグンチクホクムラ",
    "town": "",
    "town_kana": "",
    "street": null,
    "office_name": null,
    "office_name_kana": null
  },
  "7501": {
    "postcode": "3997501",
    "prefecture": "長野県",
    "prefecture_kana": "ナガノケン",
    "prefecture_code": 20,
    "city": "東筑摩郡筑北村",
    "city_kana": "ヒガシチクマグンチクホクムラ",
    "town": "西条",
    "town_kana": "ニシジョウ",
    "street": null,
    "office_name": null,
    "office_name_kana": null
  },
  "7502": {
    "postcode": "3997502",
    "prefecture": "長野県",
    "prefecture_kana": "ナガノケン",
    "prefecture_code": 20,
    "city": "東筑摩郡筑北村",
    "city_kana": "ヒガシチクマグンチクホクムラ",
    "town": "東条",
    "town_kana": "ヒガシジョウ",
    "street": null,
    "office_name": null,
    "office_name_kana": null
  },
  "7503": {
    "postcode": "3997503",
    "prefecture": "長野県",
    "prefecture_kana": "ナガノケン",
    "prefecture_code": 20,
    "city": "東筑摩郡筑北村",
    "city_kana": "ヒガシチクマグンチクホクムラ",
    "town": "大沢新田",
    "town_kana": "オオサワシンデン",
    "street": null,
    "office_name": null,
    "office_name_kana": null
  },
  "7504": {
    "postcode": "3997504",
    "prefecture": "長野県",
    "prefecture_kana": "ナガノケン",
    "prefecture_code": 20,
    "city": "東筑摩郡筑北村",
    "city_kana": "ヒガシチクマグンチクホクムラ",
    "town": "乱橋",
    "town_kana": "ミダレハシ",
    "street": null,
    "office_name": null,
    "office_name_kana": null
  },
  "7601": {
    "postcode": "3997601",
    "prefecture": "長野県",
    "prefecture_kana": "ナガノケン",
    "prefecture_code": 20,
    "city": "東筑摩郡筑北村",
    "city_kana": "ヒガシチクマグンチクホクムラ",
    "town": "坂北",
    "town_kana": "サカキタ",
    "street": null,
    "office_name": null,
    "office_name_kana": null
  },
  "7700": {
    "postcode": "3997700",
    "prefecture": "長野県",
    "prefecture_kana": "ナガノケン",
    "prefecture_code": 20,
    "city": "東筑摩郡麻績村",
    "city_kana": "ヒガシチクマグンオミムラ",
    "town": "",
    "town_kana": "",
    "street": null,
    "office_name": null,
    "office_name_kana": null
  },
  "7701": {
    "postcode": "3997701",
    "prefecture": "長野県",
    "prefecture_kana": "ナガノケン",
    "prefecture_code": 20,
    "city": "東筑摩郡麻績村",
    "city_kana": "ヒガシチクマグンオミムラ",
    "town": "麻",
    "town_kana": "オ",
    "street": null,
    "office_name": null,
    "office_name_kana": null
  },
  "7702": {
    "postcode": "3997702",
    "prefecture": "長野県",
    "prefecture_kana": "ナガノケン",
    "prefecture_code": 20,
    "city": "東筑摩郡麻績村",
    "city_kana": "ヒガシチクマグンオミムラ",
    "town": "日",
    "town_kana": "ヒ",
    "street": null,
    "office_name": null,
    "office_name_kana": null
  },
  "7711": {
    "postcode": "3997711",
    "prefecture": "長野県",
    "prefecture_kana": "ナガノケン",
    "prefecture_code": 20,
    "city": "東筑摩郡筑北村",
    "city_kana": "ヒガシチクマグンチクホクムラ",
    "town": "坂井",
    "town_kana": "サカイ",
    "street": null,
    "office_name": null,
    "office_name_kana": null
  },
  "8101": {
    "postcode": "3998101",
    "prefecture": "長野県",
    "prefecture_kana": "ナガノケン",
    "prefecture_code": 20,
    "city": "安曇野市",
    "city_kana": "アヅミノシ",
    "town": "三郷明盛",
    "town_kana": "ミサトメイセイ",
    "street": null,
    "office_name": null,
    "office_name_kana": null
  },
  "8102": {
    "postcode": "3998102",
    "prefecture": "長野県",
    "prefecture_kana": "ナガノケン",
    "prefecture_code": 20,
    "city": "安曇野市",
    "city_kana": "アヅミノシ",
    "town": "三郷温",
    "town_kana": "ミサトユタカ",
    "street": null,
    "office_name": null,
    "office_name_kana": null
  },
  "8103": {
    "postcode": "3998103",
    "prefecture": "長野県",
    "prefecture_kana": "ナガノケン",
    "prefecture_code": 20,
    "city": "安曇野市",
    "city_kana": "アヅミノシ",
    "town": "三郷小倉",
    "town_kana": "ミサトオグラ",
    "street": null,
    "office_name": null,
    "office_name_kana": null
  },
  "8192": {
    "postcode": "3998192",
    "prefecture": "長野県",
    "prefecture_kana": "ナガノケン",
    "prefecture_code": 20,
    "city": "安曇野市",
    "city_kana": "アヅミノシ",
    "town": "三郷明盛",
    "town_kana": "ミサトメイセイ",
    "street": "４８１０−１",
    "office_name": "安曇野市役所　三郷支所",
    "office_name_kana": "アヅミノシヤクシヨ ミサトシシヨ"
  },
  "8200": {
    "postcode": "3998200",
    "prefecture": "長野県",
    "prefecture_kana": "ナガノケン",
    "prefecture_code": 20,
    "city": "安曇野市",
    "city_kana": "アヅミノシ",
    "town": "",
    "town_kana": "",
    "street": null,
    "office_name": null,
    "office_name_kana": null
  },
  "8201": {
    "postcode": "3998201",
    "prefecture": "長野県",
    "prefecture_kana": "ナガノケン",
    "prefecture_code": 20,
    "city": "安曇野市",
    "city_kana": "アヅミノシ",
    "town": "豊科南穂高",
    "town_kana": "トヨシナミナミホタカ",
    "street": null,
    "office_name": null,
    "office_name_kana": null
  },
  "8202": {
    "postcode": "3998202",
    "prefecture": "長野県",
    "prefecture_kana": "ナガノケン",
    "prefecture_code": 20,
    "city": "安曇野市",
    "city_kana": "アヅミノシ",
    "town": "豊科光",
    "town_kana": "トヨシナヒカル",
    "street": null,
    "office_name": null,
    "office_name_kana": null
  },
  "8203": {
    "postcode": "3998203",
    "prefecture": "長野県",
    "prefecture_kana": "ナガノケン",
    "prefecture_code": 20,
    "city": "安曇野市",
    "city_kana": "アヅミノシ",
    "town": "豊科田沢",
    "town_kana": "トヨシナタザワ",
    "street": null,
    "office_name": null,
    "office_name_kana": null
  },
  "8204": {
    "postcode": "3998204",
    "prefecture": "長野県",
    "prefecture_kana": "ナガノケン",
    "prefecture_code": 20,
    "city": "安曇野市",
    "city_kana": "アヅミノシ",
    "town": "豊科高家",
    "town_kana": "トヨシナタキベ",
    "street": null,
    "office_name": null,
    "office_name_kana": null
  },
  "8205": {
    "postcode": "3998205",
    "prefecture": "長野県",
    "prefecture_kana": "ナガノケン",
    "prefecture_code": 20,
    "city": "安曇野市",
    "city_kana": "アヅミノシ",
    "town": "豊科",
    "town_kana": "トヨシナ",
    "street": null,
    "office_name": null,
    "office_name_kana": null
  },
  "8211": {
    "postcode": "3998211",
    "prefecture": "長野県",
    "prefecture_kana": "ナガノケン",
    "prefecture_code": 20,
    "city": "安曇野市",
    "city_kana": "アヅミノシ",
    "town": "堀金烏川",
    "town_kana": "ホリガネカラスガワ",
    "street": null,
    "office_name": null,
    "office_name_kana": null
  },
  "8212": {
    "postcode": "3998212",
    "prefecture": "長野県",
    "prefecture_kana": "ナガノケン",
    "prefecture_code": 20,
    "city": "安曇野市",
    "city_kana": "アヅミノシ",
    "town": "堀金三田",
    "town_kana": "ホリガネミタ",
    "street": null,
    "office_name": null,
    "office_name_kana": null
  },
  "8251": {
    "postcode": "3998251",
    "prefecture": "長野県",
    "prefecture_kana": "ナガノケン",
    "prefecture_code": 20,
    "city": "松本市",
    "city_kana": "マツモトシ",
    "town": "島内",
    "town_kana": "シマウチ",
    "street": null,
    "office_name": null,
    "office_name_kana": null
  },
  "8281": {
    "postcode": "3998281",
    "prefecture": "長野県",
    "prefecture_kana": "ナガノケン",
    "prefecture_code": 20,
    "city": "安曇野市",
    "city_kana": "アヅミノシ",
    "town": "豊科",
    "town_kana": "トヨシナ",
    "street": "６０００",
    "office_name": "安曇野市役所",
    "office_name_kana": "アヅミノシヤクシヨ"
  },
  "8282": {
    "postcode": "3998282",
    "prefecture": "長野県",
    "prefecture_kana": "ナガノケン",
    "prefecture_code": 20,
    "city": "安曇野市",
    "city_kana": "アヅミノシ",
    "town": "豊科",
    "town_kana": "トヨシナ",
    "street": "５４３２",
    "office_name": "ＶＡＩＯ　株式会社",
    "office_name_kana": "バイオ カブシキガイシヤ"
  },
  "8283": {
    "postcode": "3998283",
    "prefecture": "長野県",
    "prefecture_kana": "ナガノケン",
    "prefecture_code": 20,
    "city": "安曇野市",
    "city_kana": "アヅミノシ",
    "town": "豊科",
    "town_kana": "トヨシナ",
    "street": "４２７０−６",
    "office_name": "あづみ農業協同組合",
    "office_name_kana": "アヅミノウギヨウキヨウドウクミアイ"
  },
  "8285": {
    "postcode": "3998285",
    "prefecture": "長野県",
    "prefecture_kana": "ナガノケン",
    "prefecture_code": 20,
    "city": "安曇野市",
    "city_kana": "アヅミノシ",
    "town": "豊科田沢",
    "town_kana": "トヨシナタザワ",
    "street": "６９２５",
    "office_name": "セイコーエプソン　株式会社　豊科事業所",
    "office_name_kana": "セイコ-エプソン カブシキガイシヤ トヨシナジギヨウシヨ"
  },
  "8286": {
    "postcode": "3998286",
    "prefecture": "長野県",
    "prefecture_kana": "ナガノケン",
    "prefecture_code": 20,
    "city": "安曇野市",
    "city_kana": "アヅミノシ",
    "town": "豊科",
    "town_kana": "トヨシナ",
    "street": "１０００",
    "office_name": "株式会社　デンソーエアクール",
    "office_name_kana": "カブシキガイシヤ デンソ-エアク-ル"
  },
  "8288": {
    "postcode": "3998288",
    "prefecture": "長野県",
    "prefecture_kana": "ナガノケン",
    "prefecture_code": 20,
    "city": "安曇野市",
    "city_kana": "アヅミノシ",
    "town": "豊科",
    "town_kana": "トヨシナ",
    "street": "３１００",
    "office_name": "長野県立　こども病院",
    "office_name_kana": "ナガノケンリツ コドモビヨウイン"
  },
  "8292": {
    "postcode": "3998292",
    "prefecture": "長野県",
    "prefecture_kana": "ナガノケン",
    "prefecture_code": 20,
    "city": "安曇野市",
    "city_kana": "アヅミノシ",
    "town": "豊科",
    "town_kana": "トヨシナ",
    "street": "５６８５",
    "office_name": "安曇野赤十字病院",
    "office_name_kana": "アズミノセキジユウジビヨウイン"
  },
  "8293": {
    "postcode": "3998293",
    "prefecture": "長野県",
    "prefecture_kana": "ナガノケン",
    "prefecture_code": 20,
    "city": "安曇野市",
    "city_kana": "アヅミノシ",
    "town": "豊科",
    "town_kana": "トヨシナ",
    "street": "５００",
    "office_name": "日本電熱　株式会社",
    "office_name_kana": "ニホンデンネツ カブシキガイシヤ"
  },
  "8295": {
    "postcode": "3998295",
    "prefecture": "長野県",
    "prefecture_kana": "ナガノケン",
    "prefecture_code": 20,
    "city": "安曇野市",
    "city_kana": "アヅミノシ",
    "town": "堀金烏川",
    "town_kana": "ホリガネカラスガワ",
    "street": "３３−４",
    "office_name": "（財）　アルプスあづみの公園管理センター",
    "office_name_kana": "ザイダンホウジン アルプスアヅミノコウエンカンリセンタ-"
  },
  "8297": {
    "postcode": "3998297",
    "prefecture": "長野県",
    "prefecture_kana": "ナガノケン",
    "prefecture_code": 20,
    "city": "安曇野市",
    "city_kana": "アヅミノシ",
    "town": "豊科",
    "town_kana": "トヨシナ",
    "street": "４９３２−４６",
    "office_name": "国土交通省　関東地方整備局　国営アルプスあづみの公園事務所",
    "office_name_kana": "コクドコウツウシヨウ カントウチホウセイビキヨク コクエイアルプスアヅミノコウエンジムシヨ"
  },
  "8301": {
    "postcode": "3998301",
    "prefecture": "長野県",
    "prefecture_kana": "ナガノケン",
    "prefecture_code": 20,
    "city": "安曇野市",
    "city_kana": "アヅミノシ",
    "town": "穂高有明",
    "town_kana": "ホタカアリアケ",
    "street": null,
    "office_name": null,
    "office_name_kana": null
  },
  "8302": {
    "postcode": "3998302",
    "prefecture": "長野県",
    "prefecture_kana": "ナガノケン",
    "prefecture_code": 20,
    "city": "安曇野市",
    "city_kana": "アヅミノシ",
    "town": "穂高北穂高",
    "town_kana": "ホタカキタホタカ",
    "street": null,
    "office_name": null,
    "office_name_kana": null
  },
  "8303": {
    "postcode": "3998303",
    "prefecture": "長野県",
    "prefecture_kana": "ナガノケン",
    "prefecture_code": 20,
    "city": "安曇野市",
    "city_kana": "アヅミノシ",
    "town": "穂高",
    "town_kana": "ホタカ",
    "street": null,
    "office_name": null,
    "office_name_kana": null
  },
  "8304": {
    "postcode": "3998304",
    "prefecture": "長野県",
    "prefecture_kana": "ナガノケン",
    "prefecture_code": 20,
    "city": "安曇野市",
    "city_kana": "アヅミノシ",
    "town": "穂高柏原",
    "town_kana": "ホタカカシワバラ",
    "street": null,
    "office_name": null,
    "office_name_kana": null
  },
  "8305": {
    "postcode": "3998305",
    "prefecture": "長野県",
    "prefecture_kana": "ナガノケン",
    "prefecture_code": 20,
    "city": "安曇野市",
    "city_kana": "アヅミノシ",
    "town": "穂高牧",
    "town_kana": "ホタカマキ",
    "street": null,
    "office_name": null,
    "office_name_kana": null
  },
  "8386": {
    "postcode": "3998386",
    "prefecture": "長野県",
    "prefecture_kana": "ナガノケン",
    "prefecture_code": 20,
    "city": "安曇野市",
    "city_kana": "アヅミノシ",
    "town": "穂高北穂高",
    "town_kana": "ホタカキタホタカ",
    "street": "２０２７−９",
    "office_name": "株式会社　デンソーエアクール　穂高本社工場",
    "office_name_kana": "カブシキガイシヤ デンソ-エアク-ル ホタカホンシヤコウジヨウ"
  },
  "8392": {
    "postcode": "3998392",
    "prefecture": "長野県",
    "prefecture_kana": "ナガノケン",
    "prefecture_code": 20,
    "city": "安曇野市",
    "city_kana": "アヅミノシ",
    "town": "穂高",
    "town_kana": "ホタカ",
    "street": "６６５８",
    "office_name": "安曇野市役所　穂高支所",
    "office_name_kana": "アヅミノシヤクシヨ ホタカシシヨ"
  },
  "8501": {
    "postcode": "3998501",
    "prefecture": "長野県",
    "prefecture_kana": "ナガノケン",
    "prefecture_code": 20,
    "city": "北安曇郡松川村",
    "city_kana": "キタアヅミグンマツカワムラ",
    "town": "",
    "town_kana": "",
    "street": null,
    "office_name": null,
    "office_name_kana": null
  },
  "8600": {
    "postcode": "3998600",
    "prefecture": "長野県",
    "prefecture_kana": "ナガノケン",
    "prefecture_code": 20,
    "city": "北安曇郡池田町",
    "city_kana": "キタアヅミグンイケダマチ",
    "town": "",
    "town_kana": "",
    "street": null,
    "office_name": null,
    "office_name_kana": null
  },
  "8601": {
    "postcode": "3998601",
    "prefecture": "長野県",
    "prefecture_kana": "ナガノケン",
    "prefecture_code": 20,
    "city": "北安曇郡池田町",
    "city_kana": "キタアヅミグンイケダマチ",
    "town": "池田",
    "town_kana": "イケダ",
    "street": null,
    "office_name": null,
    "office_name_kana": null
  },
  "8602": {
    "postcode": "3998602",
    "prefecture": "長野県",
    "prefecture_kana": "ナガノケン",
    "prefecture_code": 20,
    "city": "北安曇郡池田町",
    "city_kana": "キタアヅミグンイケダマチ",
    "town": "会染",
    "town_kana": "アイソメ",
    "street": null,
    "office_name": null,
    "office_name_kana": null
  },
  "8603": {
    "postcode": "3998603",
    "prefecture": "長野県",
    "prefecture_kana": "ナガノケン",
    "prefecture_code": 20,
    "city": "北安曇郡池田町",
    "city_kana": "キタアヅミグンイケダマチ",
    "town": "中鵜",
    "town_kana": "ナカウ",
    "street": null,
    "office_name": null,
    "office_name_kana": null
  },
  "8604": {
    "postcode": "3998604",
    "prefecture": "長野県",
    "prefecture_kana": "ナガノケン",
    "prefecture_code": 20,
    "city": "北安曇郡池田町",
    "city_kana": "キタアヅミグンイケダマチ",
    "town": "広津",
    "town_kana": "ヒロツ",
    "street": null,
    "office_name": null,
    "office_name_kana": null
  },
  "8605": {
    "postcode": "3998605",
    "prefecture": "長野県",
    "prefecture_kana": "ナガノケン",
    "prefecture_code": 20,
    "city": "北安曇郡池田町",
    "city_kana": "キタアヅミグンイケダマチ",
    "town": "陸郷",
    "town_kana": "リクゴウ",
    "street": null,
    "office_name": null,
    "office_name_kana": null
  },
  "8695": {
    "postcode": "3998695",
    "prefecture": "長野県",
    "prefecture_kana": "ナガノケン",
    "prefecture_code": 20,
    "city": "北安曇郡池田町",
    "city_kana": "キタアヅミグンイケダマチ",
    "town": "大字池田",
    "town_kana": null,
    "street": "３２０７−１",
    "office_name": "長野県厚生農業協同組合連合会　北アルプス医療センター　あづみ病院",
    "office_name_kana": "ナガノケンコウセイノウギヨウキヨウドウクミアイレンゴウカイ キタアルプスイリヨウセンタ- アズミビヨウイン"
  },
  "8696": {
    "postcode": "3998696",
    "prefecture": "長野県",
    "prefecture_kana": "ナガノケン",
    "prefecture_code": 20,
    "city": "北安曇郡池田町",
    "city_kana": "キタアヅミグンイケダマチ",
    "town": "大字池田",
    "town_kana": null,
    "street": "３２０３−６",
    "office_name": "池田町役場",
    "office_name_kana": "イケダマチヤクバ"
  },
  "8701": {
    "postcode": "3998701",
    "prefecture": "長野県",
    "prefecture_kana": "ナガノケン",
    "prefecture_code": 20,
    "city": "松本市",
    "city_kana": "マツモトシ",
    "town": "村井町南",
    "town_kana": "ムライマチミナミ",
    "street": "２−２０−３０",
    "office_name": "まつもと医療センター　松本病院",
    "office_name_kana": "マツモトイリヨウセンタ- マツモトビヨウイン"
  },
  "8702": {
    "postcode": "3998702",
    "prefecture": "長野県",
    "prefecture_kana": "ナガノケン",
    "prefecture_code": 20,
    "city": "松本市",
    "city_kana": "マツモトシ",
    "town": "大字寿小赤",
    "town_kana": null,
    "street": "２０７０",
    "office_name": "セイコーエプソン　株式会社　松本南事業所",
    "office_name_kana": "セイコ-エプソン カブシキガイシヤ マツモトミナミジギヨウシヨ"
  },
  "8707": {
    "postcode": "3998707",
    "prefecture": "長野県",
    "prefecture_kana": "ナガノケン",
    "prefecture_code": 20,
    "city": "松本市",
    "city_kana": "マツモトシ",
    "town": "大字芳川村井町",
    "town_kana": null,
    "street": "１０５９",
    "office_name": "セイコーエプソン　株式会社　村井事業所",
    "office_name_kana": "セイコ-エプソン カブシキガイシヤ ムライジギヨウシヨ"
  },
  "8710": {
    "postcode": "3998710",
    "prefecture": "長野県",
    "prefecture_kana": "ナガノケン",
    "prefecture_code": 20,
    "city": "松本市",
    "city_kana": "マツモトシ",
    "town": "芳野",
    "town_kana": "ヨシノ",
    "street": "１９−４８",
    "office_name": "キッセイ薬品工業　株式会社",
    "office_name_kana": "キツセイヤクヒンコウギヨウ カブシキカイシヤ"
  },
  "8711": {
    "postcode": "3998711",
    "prefecture": "長野県",
    "prefecture_kana": "ナガノケン",
    "prefecture_code": 20,
    "city": "松本市",
    "city_kana": "マツモトシ",
    "town": "宮田",
    "town_kana": "ミヤタ",
    "street": "２−１０",
    "office_name": "信濃毎日新聞　株式会社　松本本社",
    "office_name_kana": "シナノマイニチシンブン カブシキガイシヤ マツモトホンシヤ"
  },
  "8712": {
    "postcode": "3998712",
    "prefecture": "長野県",
    "prefecture_kana": "ナガノケン",
    "prefecture_code": 20,
    "city": "松本市",
    "city_kana": "マツモトシ",
    "town": "大字芳川村井町",
    "town_kana": null,
    "street": "２２３",
    "office_name": "株式会社　ナガノトマト",
    "office_name_kana": "カブシキガイシヤ ナガノトマト"
  },
  "8720": {
    "postcode": "3998720",
    "prefecture": "長野県",
    "prefecture_kana": "ナガノケン",
    "prefecture_code": 20,
    "city": "松本市",
    "city_kana": "マツモトシ",
    "town": "大字芳川村井町",
    "town_kana": null,
    "street": "８２３−２",
    "office_name": "長野　コカ・コーラボトリング　株式会社",
    "office_name_kana": "ナガノ コカ・コ-ラボトリング カブシキガイシヤ"
  },
  "8721": {
    "postcode": "3998721",
    "prefecture": "長野県",
    "prefecture_kana": "ナガノケン",
    "prefecture_code": 20,
    "city": "松本市",
    "city_kana": "マツモトシ",
    "town": "大字笹賀",
    "town_kana": null,
    "street": "３０３９",
    "office_name": "株式会社　泉精器製作所",
    "office_name_kana": "カブシキガイシヤ イズミセイキセイサクジヨ"
  },
  "8722": {
    "postcode": "3998722",
    "prefecture": "長野県",
    "prefecture_kana": "ナガノケン",
    "prefecture_code": 20,
    "city": "松本市",
    "city_kana": "マツモトシ",
    "town": "大字笹賀",
    "town_kana": null,
    "street": "５６５２−１８",
    "office_name": "高山理化精機　株式会社",
    "office_name_kana": "タカヤマリカセイキ カブシキガイシヤ"
  },
  "8725": {
    "postcode": "3998725",
    "prefecture": "長野県",
    "prefecture_kana": "ナガノケン",
    "prefecture_code": 20,
    "city": "松本市",
    "city_kana": "マツモトシ",
    "town": "大字笹賀",
    "town_kana": null,
    "street": "７６００−８",
    "office_name": "桜田電気工業　株式会社　松本支店",
    "office_name_kana": "サクラダデンキコウギヨウ カブシキガイシヤ マツモトシテン"
  },
  "8728": {
    "postcode": "3998728",
    "prefecture": "長野県",
    "prefecture_kana": "ナガノケン",
    "prefecture_code": 20,
    "city": "松本市",
    "city_kana": "マツモトシ",
    "town": "大字笹賀",
    "town_kana": null,
    "street": "６５３１−２６",
    "office_name": "信州ジャスコ　株式会社　管理本部",
    "office_name_kana": "シンシユウジヤスコ カブシキガイシヤ カンリホンブ"
  },
  "8730": {
    "postcode": "3998730",
    "prefecture": "長野県",
    "prefecture_kana": "ナガノケン",
    "prefecture_code": 20,
    "city": "松本市",
    "city_kana": "マツモトシ",
    "town": "大字笹賀",
    "town_kana": null,
    "street": "５５６２番地",
    "office_name": "パナソニック　オートモーティブシステムズ　株式会社　松本工場",
    "office_name_kana": "パナソニツク オ-トモ-テイブシステムズ カブシキガイシヤ マツモトコウジヨウ"
  },
  "8733": {
    "postcode": "3998733",
    "prefecture": "長野県",
    "prefecture_kana": "ナガノケン",
    "prefecture_code": 20,
    "city": "松本市",
    "city_kana": "マツモトシ",
    "town": "大字笹賀",
    "town_kana": null,
    "street": "７６００−２",
    "office_name": "株式会社　シマコー",
    "office_name_kana": "カブシキガイシヤ シマコ-"
  },
  "8738": {
    "postcode": "3998738",
    "prefecture": "長野県",
    "prefecture_kana": "ナガノケン",
    "prefecture_code": 20,
    "city": "松本市",
    "city_kana": "マツモトシ",
    "town": "大字笹賀",
    "town_kana": null,
    "street": "７６００−１９",
    "office_name": "伊藤伊　株式会社　甲信支店",
    "office_name_kana": "イトウイ カブシキガイシヤ コウシンシテン"
  },
  "8739": {
    "postcode": "3998739",
    "prefecture": "長野県",
    "prefecture_kana": "ナガノケン",
    "prefecture_code": 20,
    "city": "松本市",
    "city_kana": "マツモトシ",
    "town": "大字笹賀",
    "town_kana": null,
    "street": "５６５２−５２",
    "office_name": "セントラルパック　株式会社",
    "office_name_kana": "セントラルパツク カブシキカイシヤ"
  },
  "8744": {
    "postcode": "3998744",
    "prefecture": "長野県",
    "prefecture_kana": "ナガノケン",
    "prefecture_code": 20,
    "city": "松本市",
    "city_kana": "マツモトシ",
    "town": "大字笹賀",
    "town_kana": null,
    "street": "５６５２−１０６",
    "office_name": "タカヤマケミカル　株式会社",
    "office_name_kana": "タカヤマケミカル カブシキカイシヤ"
  },
  "8750": {
    "postcode": "3998750",
    "prefecture": "長野県",
    "prefecture_kana": "ナガノケン",
    "prefecture_code": 20,
    "city": "松本市",
    "city_kana": "マツモトシ",
    "town": "大字笹賀",
    "town_kana": null,
    "street": "３０４６",
    "office_name": "株式会社　日邦バルブ",
    "office_name_kana": "カブシキカイシヤ ニツポウバルブ"
  },
  "8751": {
    "postcode": "3998751",
    "prefecture": "長野県",
    "prefecture_kana": "ナガノケン",
    "prefecture_code": 20,
    "city": "松本市",
    "city_kana": "マツモトシ",
    "town": "大字笹賀",
    "town_kana": null,
    "street": "７６００−２２（松本南郵便局私書箱第６号）",
    "office_name": "株式会社　ヤマサ",
    "office_name_kana": "カブシキガイシヤ ヤマサ"
  },
  "8754": {
    "postcode": "3998754",
    "prefecture": "長野県",
    "prefecture_kana": "ナガノケン",
    "prefecture_code": 20,
    "city": "松本市",
    "city_kana": "マツモトシ",
    "town": "村井町西",
    "town_kana": "ムライマチニシ",
    "street": "２−３−３５",
    "office_name": "アズサイエンス　株式会社",
    "office_name_kana": "アズサイエンス カブシキガイシヤ"
  },
  "8755": {
    "postcode": "3998755",
    "prefecture": "長野県",
    "prefecture_kana": "ナガノケン",
    "prefecture_code": 20,
    "city": "松本市",
    "city_kana": "マツモトシ",
    "town": "市場",
    "town_kana": "イチバ",
    "street": "５−２６（松本南郵便局私書箱第２７号）",
    "office_name": "花村産業　株式会社",
    "office_name_kana": "ハナムラサンギヨウ カブシキカイシヤ"
  },
  "8760": {
    "postcode": "3998760",
    "prefecture": "長野県",
    "prefecture_kana": "ナガノケン",
    "prefecture_code": 20,
    "city": "松本市",
    "city_kana": "マツモトシ",
    "town": "笹賀",
    "town_kana": "ササガ",
    "street": "７６００−１９（松本南郵便局私書箱第２２号）",
    "office_name": "株式会社　上條器械店　松本営業所",
    "office_name_kana": "カブシキガイシヤ カミジヨウキカイテン マツモトエイギヨウシヨ"
  },
  "9101": {
    "postcode": "3999101",
    "prefecture": "長野県",
    "prefecture_kana": "ナガノケン",
    "prefecture_code": 20,
    "city": "大町市",
    "city_kana": "オオマチシ",
    "town": "美麻",
    "town_kana": "ミアサ",
    "street": null,
    "office_name": null,
    "office_name_kana": null
  },
  "9192": {
    "postcode": "3999192",
    "prefecture": "長野県",
    "prefecture_kana": "ナガノケン",
    "prefecture_code": 20,
    "city": "大町市",
    "city_kana": "オオマチシ",
    "town": "美麻",
    "town_kana": "ミアサ",
    "street": "１１３９９",
    "office_name": "大町市　美麻支所",
    "office_name_kana": "オオマチシ ミアサシシヨ"
  },
  "9211": {
    "postcode": "3999211",
    "prefecture": "長野県",
    "prefecture_kana": "ナガノケン",
    "prefecture_code": 20,
    "city": "北安曇郡白馬村",
    "city_kana": "キタアヅミグンハクバムラ",
    "town": "神城",
    "town_kana": "カミシロ",
    "street": null,
    "office_name": null,
    "office_name_kana": null
  },
  "9300": {
    "postcode": "3999300",
    "prefecture": "長野県",
    "prefecture_kana": "ナガノケン",
    "prefecture_code": 20,
    "city": "北安曇郡白馬村",
    "city_kana": "キタアヅミグンハクバムラ",
    "town": "",
    "town_kana": "",
    "street": null,
    "office_name": null,
    "office_name_kana": null
  },
  "9301": {
    "postcode": "3999301",
    "prefecture": "長野県",
    "prefecture_kana": "ナガノケン",
    "prefecture_code": 20,
    "city": "北安曇郡白馬村",
    "city_kana": "キタアヅミグンハクバムラ",
    "town": "北城",
    "town_kana": "ホクジョウ",
    "street": null,
    "office_name": null,
    "office_name_kana": null
  },
  "9393": {
    "postcode": "3999393",
    "prefecture": "長野県",
    "prefecture_kana": "ナガノケン",
    "prefecture_code": 20,
    "city": "北安曇郡白馬村",
    "city_kana": "キタアヅミグンハクバムラ",
    "town": "大字北城",
    "town_kana": null,
    "street": "７０２５",
    "office_name": "白馬村役場",
    "office_name_kana": "ハクバムラヤクバ"
  },
  "9400": {
    "postcode": "3999400",
    "prefecture": "長野県",
    "prefecture_kana": "ナガノケン",
    "prefecture_code": 20,
    "city": "北安曇郡小谷村",
    "city_kana": "キタアヅミグンオタリムラ",
    "town": "",
    "town_kana": "",
    "street": null,
    "office_name": null,
    "office_name_kana": null
  },
  "9421": {
    "postcode": "3999421",
    "prefecture": "長野県",
    "prefecture_kana": "ナガノケン",
    "prefecture_code": 20,
    "city": "北安曇郡小谷村",
    "city_kana": "キタアヅミグンオタリムラ",
    "town": "中小谷",
    "town_kana": "ナカオタリ",
    "street": null,
    "office_name": null,
    "office_name_kana": null
  },
  "9422": {
    "postcode": "3999422",
    "prefecture": "長野県",
    "prefecture_kana": "ナガノケン",
    "prefecture_code": 20,
    "city": "北安曇郡小谷村",
    "city_kana": "キタアヅミグンオタリムラ",
    "town": "千国",
    "town_kana": "チクニ",
    "street": null,
    "office_name": null,
    "office_name_kana": null
  },
  "9494": {
    "postcode": "3999494",
    "prefecture": "長野県",
    "prefecture_kana": "ナガノケン",
    "prefecture_code": 20,
    "city": "北安曇郡小谷村",
    "city_kana": "キタアヅミグンオタリムラ",
    "town": "大字中小谷丙",
    "town_kana": null,
    "street": "１３１",
    "office_name": "小谷村役場",
    "office_name_kana": "オタリムラヤクバ"
  },
  "9511": {
    "postcode": "3999511",
    "prefecture": "長野県",
    "prefecture_kana": "ナガノケン",
    "prefecture_code": 20,
    "city": "北安曇郡小谷村",
    "city_kana": "キタアヅミグンオタリムラ",
    "town": "中土",
    "town_kana": "ナカツチ",
    "street": null,
    "office_name": null,
    "office_name_kana": null
  },
  "9601": {
    "postcode": "3999601",
    "prefecture": "長野県",
    "prefecture_kana": "ナガノケン",
    "prefecture_code": 20,
    "city": "北安曇郡小谷村",
    "city_kana": "キタアヅミグンオタリムラ",
    "town": "北小谷",
    "town_kana": "キタオタリ",
    "street": null,
    "office_name": null,
    "office_name_kana": null
  }
}