{
  "0000": {
    "postcode": "4260000",
    "prefecture": "静岡県",
    "prefecture_kana": "シズオカケン",
    "prefecture_code": 22,
    "city": "藤枝市",
    "city_kana": "フジエダシ",
    "town": "",
    "town_kana": "",
    "street": null,
    "office_name": null,
    "office_name_kana": null
  },
  "0001": {
    "postcode": "4260001",
    "prefecture": "静岡県",
    "prefecture_kana": "シズオカケン",
    "prefecture_code": 22,
    "city": "藤枝市",
    "city_kana": "フジエダシ",
    "town": "仮宿",
    "town_kana": "カリヤド",
    "street": null,
    "office_name": null,
    "office_name_kana": null
  },
  "0002": {
    "postcode": "4260002",
    "prefecture": "静岡県",
    "prefecture_kana": "シズオカケン",
    "prefecture_code": 22,
    "city": "藤枝市",
    "city_kana": "フジエダシ",
    "town": "横内",
    "town_kana": "ヨコウチ",
    "street": null,
    "office_name": null,
    "office_name_kana": null
  },
  "0003": {
    "postcode": "4260003",
    "prefecture": "静岡県",
    "prefecture_kana": "シズオカケン",
    "prefecture_code": 22,
    "city": "藤枝市",
    "city_kana": "フジエダシ",
    "town": "下当間",
    "town_kana": "シモドウマ",
    "street": null,
    "office_name": null,
    "office_name_kana": null
  },
  "0004": {
    "postcode": "4260004",
    "prefecture": "静岡県",
    "prefecture_kana": "シズオカケン",
    "prefecture_code": 22,
    "city": "藤枝市",
    "city_kana": "フジエダシ",
    "town": "上当間",
    "town_kana": "カミドウマ",
    "street": null,
    "office_name": null,
    "office_name_kana": null
  },
  "0005": {
    "postcode": "4260005",
    "prefecture": "静岡県",
    "prefecture_kana": "シズオカケン",
    "prefecture_code": 22,
    "city": "藤枝市",
    "city_kana": "フジエダシ",
    "town": "水守",
    "town_kana": "ミズモリ",
    "street": null,
    "office_name": null,
    "office_name_kana": null
  },
  "0006": {
    "postcode": "4260006",
    "prefecture": "静岡県",
    "prefecture_kana": "シズオカケン",
    "prefecture_code": 22,
    "city": "藤枝市",
    "city_kana": "フジエダシ",
    "town": "藤岡",
    "town_kana": "フジオカ",
    "street": null,
    "office_name": null,
    "office_name_kana": null
  },
  "0007": {
    "postcode": "4260007",
    "prefecture": "静岡県",
    "prefecture_kana": "シズオカケン",
    "prefecture_code": 22,
    "city": "藤枝市",
    "city_kana": "フジエダシ",
    "town": "潮",
    "town_kana": "ウシオ",
    "street": null,
    "office_name": null,
    "office_name_kana": null
  },
  "0008": {
    "postcode": "4260008",
    "prefecture": "静岡県",
    "prefecture_kana": "シズオカケン",
    "prefecture_code": 22,
    "city": "藤枝市",
    "city_kana": "フジエダシ",
    "town": "鬼島",
    "town_kana": "オニジマ",
    "street": null,
    "office_name": null,
    "office_name_kana": null
  },
  "0009": {
    "postcode": "4260009",
    "prefecture": "静岡県",
    "prefecture_kana": "シズオカケン",
    "prefecture_code": 22,
    "city": "藤枝市",
    "city_kana": "フジエダシ",
    "town": "八幡",
    "town_kana": "ヤワタ",
    "street": null,
    "office_name": null,
    "office_name_kana": null
  },
  "0011": {
    "postcode": "4260011",
    "prefecture": "静岡県",
    "prefecture_kana": "シズオカケン",
    "prefecture_code": 22,
    "city": "藤枝市",
    "city_kana": "フジエダシ",
    "town": "平島",
    "town_kana": "ヒラシマ",
    "street": null,
    "office_name": null,
    "office_name_kana": null
  },
  "0012": {
    "postcode": "4260012",
    "prefecture": "静岡県",
    "prefecture_kana": "シズオカケン",
    "prefecture_code": 22,
    "city": "藤枝市",
    "city_kana": "フジエダシ",
    "town": "田中",
    "town_kana": "タナカ",
    "street": null,
    "office_name": null,
    "office_name_kana": null
  },
  "0013": {
    "postcode": "4260013",
    "prefecture": "静岡県",
    "prefecture_kana": "シズオカケン",
    "prefecture_code": 22,
    "city": "藤枝市",
    "city_kana": "フジエダシ",
    "town": "立花",
    "town_kana": "タチバナ",
    "street": null,
    "office_name": null,
    "office_name_kana": null
  },
  "0014": {
    "postcode": "4260014",
    "prefecture": "静岡県",
    "prefecture_kana": "シズオカケン",
    "prefecture_code": 22,
    "city": "藤枝市",
    "city_kana": "フジエダシ",
    "town": "若王子",
    "town_kana": "ニャクオウジ",
    "street": null,
    "office_name": null,
    "office_name_kana": null
  },
  "0015": {
    "postcode": "4260015",
    "prefecture": "静岡県",
    "prefecture_kana": "シズオカケン",
    "prefecture_code": 22,
    "city": "藤枝市",
    "city_kana": "フジエダシ",
    "town": "五十海",
    "town_kana": "イカルミ",
    "street": null,
    "office_name": null,
    "office_name_kana": null
  },
  "0016": {
    "postcode": "4260016",
    "prefecture": "静岡県",
    "prefecture_kana": "シズオカケン",
    "prefecture_code": 22,
    "city": "藤枝市",
    "city_kana": "フジエダシ",
    "town": "郡",
    "town_kana": "コオリ",
    "street": null,
    "office_name": null,
    "office_name_kana": null
  },
  "0017": {
    "postcode": "4260017",
    "prefecture": "静岡県",
    "prefecture_kana": "シズオカケン",
    "prefecture_code": 22,
    "city": "藤枝市",
    "city_kana": "フジエダシ",
    "town": "大手",
    "town_kana": "オオテ",
    "street": null,
    "office_name": null,
    "office_name_kana": null
  },
  "0018": {
    "postcode": "4260018",
    "prefecture": "静岡県",
    "prefecture_kana": "シズオカケン",
    "prefecture_code": 22,
    "city": "藤枝市",
    "city_kana": "フジエダシ",
    "town": "本町",
    "town_kana": "ホンマチ",
    "street": null,
    "office_name": null,
    "office_name_kana": null
  },
  "0019": {
    "postcode": "4260019",
    "prefecture": "静岡県",
    "prefecture_kana": "シズオカケン",
    "prefecture_code": 22,
    "city": "藤枝市",
    "city_kana": "フジエダシ",
    "town": "天王町",
    "town_kana": "テンノウチョウ",
    "street": null,
    "office_name": null,
    "office_name_kana": null
  },
  "0021": {
    "postcode": "4260021",
    "prefecture": "静岡県",
    "prefecture_kana": "シズオカケン",
    "prefecture_code": 22,
    "city": "藤枝市",
    "city_kana": "フジエダシ",
    "town": "城南",
    "town_kana": "ジョウナン",
    "street": null,
    "office_name": null,
    "office_name_kana": null
  },
  "0022": {
    "postcode": "4260022",
    "prefecture": "静岡県",
    "prefecture_kana": "シズオカケン",
    "prefecture_code": 22,
    "city": "藤枝市",
    "city_kana": "フジエダシ",
    "town": "稲川",
    "town_kana": "イナガワ",
    "street": null,
    "office_name": null,
    "office_name_kana": null
  },
  "0023": {
    "postcode": "4260023",
    "prefecture": "静岡県",
    "prefecture_kana": "シズオカケン",
    "prefecture_code": 22,
    "city": "藤枝市",
    "city_kana": "フジエダシ",
    "town": "茶町",
    "town_kana": "チャマチ",
    "street": null,
    "office_name": null,
    "office_name_kana": null
  },
  "0024": {
    "postcode": "4260024",
    "prefecture": "静岡県",
    "prefecture_kana": "シズオカケン",
    "prefecture_code": 22,
    "city": "藤枝市",
    "city_kana": "フジエダシ",
    "town": "鬼岩寺",
    "town_kana": "キガンジ",
    "street": null,
    "office_name": null,
    "office_name_kana": null
  },
  "0025": {
    "postcode": "4260025",
    "prefecture": "静岡県",
    "prefecture_kana": "シズオカケン",
    "prefecture_code": 22,
    "city": "藤枝市",
    "city_kana": "フジエダシ",
    "town": "藤枝",
    "town_kana": "フジエダ",
    "street": null,
    "office_name": null,
    "office_name_kana": null
  },
  "0026": {
    "postcode": "4260026",
    "prefecture": "静岡県",
    "prefecture_kana": "シズオカケン",
    "prefecture_code": 22,
    "city": "藤枝市",
    "city_kana": "フジエダシ",
    "town": "岡出山",
    "town_kana": "オカデヤマ",
    "street": null,
    "office_name": null,
    "office_name_kana": null
  },
  "0027": {
    "postcode": "4260027",
    "prefecture": "静岡県",
    "prefecture_kana": "シズオカケン",
    "prefecture_code": 22,
    "city": "藤枝市",
    "city_kana": "フジエダシ",
    "town": "緑町",
    "town_kana": "ミドリチョウ",
    "street": null,
    "office_name": null,
    "office_name_kana": null
  },
  "0028": {
    "postcode": "4260028",
    "prefecture": "静岡県",
    "prefecture_kana": "シズオカケン",
    "prefecture_code": 22,
    "city": "藤枝市",
    "city_kana": "フジエダシ",
    "town": "益津下",
    "town_kana": "マシヅシモ",
    "street": null,
    "office_name": null,
    "office_name_kana": null
  },
  "0029": {
    "postcode": "4260029",
    "prefecture": "静岡県",
    "prefecture_kana": "シズオカケン",
    "prefecture_code": 22,
    "city": "藤枝市",
    "city_kana": "フジエダシ",
    "town": "益津",
    "town_kana": "マシヅ",
    "street": null,
    "office_name": null,
    "office_name_kana": null
  },
  "0031": {
    "postcode": "4260031",
    "prefecture": "静岡県",
    "prefecture_kana": "シズオカケン",
    "prefecture_code": 22,
    "city": "藤枝市",
    "city_kana": "フジエダシ",
    "town": "築地",
    "town_kana": "ツイジ",
    "street": null,
    "office_name": null,
    "office_name_kana": null
  },
  "0032": {
    "postcode": "4260032",
    "prefecture": "静岡県",
    "prefecture_kana": "シズオカケン",
    "prefecture_code": 22,
    "city": "藤枝市",
    "city_kana": "フジエダシ",
    "town": "築地上",
    "town_kana": "ツイジカミ",
    "street": null,
    "office_name": null,
    "office_name_kana": null
  },
  "0033": {
    "postcode": "4260033",
    "prefecture": "静岡県",
    "prefecture_kana": "シズオカケン",
    "prefecture_code": 22,
    "city": "藤枝市",
    "city_kana": "フジエダシ",
    "town": "小石川町",
    "town_kana": "コイシガワチョウ",
    "street": null,
    "office_name": null,
    "office_name_kana": null
  },
  "0034": {
    "postcode": "4260034",
    "prefecture": "静岡県",
    "prefecture_kana": "シズオカケン",
    "prefecture_code": 22,
    "city": "藤枝市",
    "city_kana": "フジエダシ",
    "town": "駅前",
    "town_kana": "エキマエ",
    "street": null,
    "office_name": null,
    "office_name_kana": null
  },
  "0035": {
    "postcode": "4260035",
    "prefecture": "静岡県",
    "prefecture_kana": "シズオカケン",
    "prefecture_code": 22,
    "city": "藤枝市",
    "city_kana": "フジエダシ",
    "town": "下青島",
    "town_kana": "シモアオジマ",
    "street": null,
    "office_name": null,
    "office_name_kana": null
  },
  "0036": {
    "postcode": "4260036",
    "prefecture": "静岡県",
    "prefecture_kana": "シズオカケン",
    "prefecture_code": 22,
    "city": "藤枝市",
    "city_kana": "フジエダシ",
    "town": "上青島",
    "town_kana": "カミアオジマ",
    "street": null,
    "office_name": null,
    "office_name_kana": null
  },
  "0037": {
    "postcode": "4260037",
    "prefecture": "静岡県",
    "prefecture_kana": "シズオカケン",
    "prefecture_code": 22,
    "city": "藤枝市",
    "city_kana": "フジエダシ",
    "town": "青木",
    "town_kana": "アオキ",
    "street": null,
    "office_name": null,
    "office_name_kana": null
  },
  "0038": {
    "postcode": "4260038",
    "prefecture": "静岡県",
    "prefecture_kana": "シズオカケン",
    "prefecture_code": 22,
    "city": "藤枝市",
    "city_kana": "フジエダシ",
    "town": "東町",
    "town_kana": "ヒガシチョウ",
    "street": null,
    "office_name": null,
    "office_name_kana": null
  },
  "0041": {
    "postcode": "4260041",
    "prefecture": "静岡県",
    "prefecture_kana": "シズオカケン",
    "prefecture_code": 22,
    "city": "藤枝市",
    "city_kana": "フジエダシ",
    "town": "高柳",
    "town_kana": "タカヤナギ",
    "street": null,
    "office_name": null,
    "office_name_kana": null
  },
  "0042": {
    "postcode": "4260042",
    "prefecture": "静岡県",
    "prefecture_kana": "シズオカケン",
    "prefecture_code": 22,
    "city": "藤枝市",
    "city_kana": "フジエダシ",
    "town": "兵太夫",
    "town_kana": "ヒョウダユウ",
    "street": null,
    "office_name": null,
    "office_name_kana": null
  },
  "0043": {
    "postcode": "4260043",
    "prefecture": "静岡県",
    "prefecture_kana": "シズオカケン",
    "prefecture_code": 22,
    "city": "藤枝市",
    "city_kana": "フジエダシ",
    "town": "大新島",
    "town_kana": "タイシンジマ",
    "street": null,
    "office_name": null,
    "office_name_kana": null
  },
  "0044": {
    "postcode": "4260044",
    "prefecture": "静岡県",
    "prefecture_kana": "シズオカケン",
    "prefecture_code": 22,
    "city": "藤枝市",
    "city_kana": "フジエダシ",
    "town": "大東町",
    "town_kana": "ダイトウチョウ",
    "street": null,
    "office_name": null,
    "office_name_kana": null
  },
  "0045": {
    "postcode": "4260045",
    "prefecture": "静岡県",
    "prefecture_kana": "シズオカケン",
    "prefecture_code": 22,
    "city": "藤枝市",
    "city_kana": "フジエダシ",
    "town": "泉町",
    "town_kana": "イズミチョウ",
    "street": null,
    "office_name": null,
    "office_name_kana": null
  },
  "0046": {
    "postcode": "4260046",
    "prefecture": "静岡県",
    "prefecture_kana": "シズオカケン",
    "prefecture_code": 22,
    "city": "藤枝市",
    "city_kana": "フジエダシ",
    "town": "高洲",
    "town_kana": "タカス",
    "street": null,
    "office_name": null,
    "office_name_kana": null
  },
  "0047": {
    "postcode": "4260047",
    "prefecture": "静岡県",
    "prefecture_kana": "シズオカケン",
    "prefecture_code": 22,
    "city": "藤枝市",
    "city_kana": "フジエダシ",
    "town": "与左衛門",
    "town_kana": "ヨザエモン",
    "street": null,
    "office_name": null,
    "office_name_kana": null
  },
  "0051": {
    "postcode": "4260051",
    "prefecture": "静岡県",
    "prefecture_kana": "シズオカケン",
    "prefecture_code": 22,
    "city": "藤枝市",
    "city_kana": "フジエダシ",
    "town": "大洲",
    "town_kana": "オオス",
    "street": null,
    "office_name": null,
    "office_name_kana": null
  },
  "0052": {
    "postcode": "4260052",
    "prefecture": "静岡県",
    "prefecture_kana": "シズオカケン",
    "prefecture_code": 22,
    "city": "藤枝市",
    "city_kana": "フジエダシ",
    "town": "弥左衛門",
    "town_kana": "ヤザエモン",
    "street": null,
    "office_name": null,
    "office_name_kana": null
  },
  "0053": {
    "postcode": "4260053",
    "prefecture": "静岡県",
    "prefecture_kana": "シズオカケン",
    "prefecture_code": 22,
    "city": "藤枝市",
    "city_kana": "フジエダシ",
    "town": "善左衛門",
    "town_kana": "ゼンザエモン",
    "street": null,
    "office_name": null,
    "office_name_kana": null
  },
  "0054": {
    "postcode": "4260054",
    "prefecture": "静岡県",
    "prefecture_kana": "シズオカケン",
    "prefecture_code": 22,
    "city": "藤枝市",
    "city_kana": "フジエダシ",
    "town": "源助",
    "town_kana": "ゲンスケ",
    "street": null,
    "office_name": null,
    "office_name_kana": null
  },
  "0055": {
    "postcode": "4260055",
    "prefecture": "静岡県",
    "prefecture_kana": "シズオカケン",
    "prefecture_code": 22,
    "city": "藤枝市",
    "city_kana": "フジエダシ",
    "town": "大西町",
    "town_kana": "ダイセイチョウ",
    "street": null,
    "office_name": null,
    "office_name_kana": null
  },
  "0056": {
    "postcode": "4260056",
    "prefecture": "静岡県",
    "prefecture_kana": "シズオカケン",
    "prefecture_code": 22,
    "city": "藤枝市",
    "city_kana": "フジエダシ",
    "town": "五平",
    "town_kana": "ゴヘイ",
    "street": null,
    "office_name": null,
    "office_name_kana": null
  },
  "0057": {
    "postcode": "4260057",
    "prefecture": "静岡県",
    "prefecture_kana": "シズオカケン",
    "prefecture_code": 22,
    "city": "藤枝市",
    "city_kana": "フジエダシ",
    "town": "忠兵衛",
    "town_kana": "チュウベエ",
    "street": null,
    "office_name": null,
    "office_name_kana": null
  },
  "0061": {
    "postcode": "4260061",
    "prefecture": "静岡県",
    "prefecture_kana": "シズオカケン",
    "prefecture_code": 22,
    "city": "藤枝市",
    "city_kana": "フジエダシ",
    "town": "田沼",
    "town_kana": "タヌマ",
    "street": null,
    "office_name": null,
    "office_name_kana": null
  },
  "0062": {
    "postcode": "4260062",
    "prefecture": "静岡県",
    "prefecture_kana": "シズオカケン",
    "prefecture_code": 22,
    "city": "藤枝市",
    "city_kana": "フジエダシ",
    "town": "高岡",
    "town_kana": "タカオカ",
    "street": null,
    "office_name": null,
    "office_name_kana": null
  },
  "0063": {
    "postcode": "4260063",
    "prefecture": "静岡県",
    "prefecture_kana": "シズオカケン",
    "prefecture_code": 22,
    "city": "藤枝市",
    "city_kana": "フジエダシ",
    "town": "青南町",
    "town_kana": "セイナンチョウ",
    "street": null,
    "office_name": null,
    "office_name_kana": null
  },
  "0064": {
    "postcode": "4260064",
    "prefecture": "静岡県",
    "prefecture_kana": "シズオカケン",
    "prefecture_code": 22,
    "city": "藤枝市",
    "city_kana": "フジエダシ",
    "town": "久兵衛市右衛門請新田",
    "town_kana": "キュウベエイチウエモンウケシンデン",
    "street": null,
    "office_name": null,
    "office_name_kana": null
  },
  "0065": {
    "postcode": "4260065",
    "prefecture": "静岡県",
    "prefecture_kana": "シズオカケン",
    "prefecture_code": 22,
    "city": "藤枝市",
    "city_kana": "フジエダシ",
    "town": "末広",
    "town_kana": "スエヒロ",
    "street": null,
    "office_name": null,
    "office_name_kana": null
  },
  "0066": {
    "postcode": "4260066",
    "prefecture": "静岡県",
    "prefecture_kana": "シズオカケン",
    "prefecture_code": 22,
    "city": "藤枝市",
    "city_kana": "フジエダシ",
    "town": "青葉町",
    "town_kana": "アオバチョウ",
    "street": null,
    "office_name": null,
    "office_name_kana": null
  },
  "0067": {
    "postcode": "4260067",
    "prefecture": "静岡県",
    "prefecture_kana": "シズオカケン",
    "prefecture_code": 22,
    "city": "藤枝市",
    "city_kana": "フジエダシ",
    "town": "前島",
    "town_kana": "マエジマ",
    "street": null,
    "office_name": null,
    "office_name_kana": null
  },
  "0070": {
    "postcode": "4260070",
    "prefecture": "静岡県",
    "prefecture_kana": "シズオカケン",
    "prefecture_code": 22,
    "city": "藤枝市",
    "city_kana": "フジエダシ",
    "town": "緑の丘",
    "town_kana": "ミドリノオカ",
    "street": null,
    "office_name": null,
    "office_name_kana": null
  },
  "0071": {
    "postcode": "4260071",
    "prefecture": "静岡県",
    "prefecture_kana": "シズオカケン",
    "prefecture_code": 22,
    "city": "藤枝市",
    "city_kana": "フジエダシ",
    "town": "志太",
    "town_kana": "シダ",
    "street": null,
    "office_name": null,
    "office_name_kana": null
  },
  "0072": {
    "postcode": "4260072",
    "prefecture": "静岡県",
    "prefecture_kana": "シズオカケン",
    "prefecture_code": 22,
    "city": "藤枝市",
    "city_kana": "フジエダシ",
    "town": "南新屋",
    "town_kana": "ミナミアラヤ",
    "street": null,
    "office_name": null,
    "office_name_kana": null
  },
  "0073": {
    "postcode": "4260073",
    "prefecture": "静岡県",
    "prefecture_kana": "シズオカケン",
    "prefecture_code": 22,
    "city": "藤枝市",
    "city_kana": "フジエダシ",
    "town": "新南新屋",
    "town_kana": "シンミナミアラヤ",
    "street": null,
    "office_name": null,
    "office_name_kana": null
  },
  "0074": {
    "postcode": "4260074",
    "prefecture": "静岡県",
    "prefecture_kana": "シズオカケン",
    "prefecture_code": 22,
    "city": "藤枝市",
    "city_kana": "フジエダシ",
    "town": "水上",
    "town_kana": "ミズカミ",
    "street": null,
    "office_name": null,
    "office_name_kana": null
  },
  "0075": {
    "postcode": "4260075",
    "prefecture": "静岡県",
    "prefecture_kana": "シズオカケン",
    "prefecture_code": 22,
    "city": "藤枝市",
    "city_kana": "フジエダシ",
    "town": "瀬戸新屋",
    "town_kana": "セトアラヤ",
    "street": null,
    "office_name": null,
    "office_name_kana": null
  },
  "0076": {
    "postcode": "4260076",
    "prefecture": "静岡県",
    "prefecture_kana": "シズオカケン",
    "prefecture_code": 22,
    "city": "藤枝市",
    "city_kana": "フジエダシ",
    "town": "内瀬戸",
    "town_kana": "ウチセト",
    "street": null,
    "office_name": null,
    "office_name_kana": null
  },
  "0077": {
    "postcode": "4260077",
    "prefecture": "静岡県",
    "prefecture_kana": "シズオカケン",
    "prefecture_code": 22,
    "city": "藤枝市",
    "city_kana": "フジエダシ",
    "town": "駿河台",
    "town_kana": "スルガダイ",
    "street": null,
    "office_name": null,
    "office_name_kana": null
  },
  "0078": {
    "postcode": "4260078",
    "prefecture": "静岡県",
    "prefecture_kana": "シズオカケン",
    "prefecture_code": 22,
    "city": "藤枝市",
    "city_kana": "フジエダシ",
    "town": "南駿河台",
    "town_kana": "ミナミスルガダイ",
    "street": null,
    "office_name": null,
    "office_name_kana": null
  },
  "0079": {
    "postcode": "4260079",
    "prefecture": "静岡県",
    "prefecture_kana": "シズオカケン",
    "prefecture_code": 22,
    "city": "藤枝市",
    "city_kana": "フジエダシ",
    "town": "光洋台",
    "town_kana": "コウヨウダイ",
    "street": null,
    "office_name": null,
    "office_name_kana": null
  },
  "0081": {
    "postcode": "4260081",
    "prefecture": "静岡県",
    "prefecture_kana": "シズオカケン",
    "prefecture_code": 22,
    "city": "藤枝市",
    "city_kana": "フジエダシ",
    "town": "旭が丘",
    "town_kana": "アサヒガオカ",
    "street": null,
    "office_name": null,
    "office_name_kana": null
  },
  "0082": {
    "postcode": "4260082",
    "prefecture": "静岡県",
    "prefecture_kana": "シズオカケン",
    "prefecture_code": 22,
    "city": "藤枝市",
    "city_kana": "フジエダシ",
    "town": "瀬古",
    "town_kana": "セコ",
    "street": null,
    "office_name": null,
    "office_name_kana": null
  },
  "0083": {
    "postcode": "4260083",
    "prefecture": "静岡県",
    "prefecture_kana": "シズオカケン",
    "prefecture_code": 22,
    "city": "藤枝市",
    "city_kana": "フジエダシ",
    "town": "谷稲葉",
    "town_kana": "ヤイナバ",
    "street": null,
    "office_name": null,
    "office_name_kana": null
  },
  "0084": {
    "postcode": "4260084",
    "prefecture": "静岡県",
    "prefecture_kana": "シズオカケン",
    "prefecture_code": 22,
    "city": "藤枝市",
    "city_kana": "フジエダシ",
    "town": "寺島",
    "town_kana": "テラジマ",
    "street": null,
    "office_name": null,
    "office_name_kana": null
  },
  "0085": {
    "postcode": "4260085",
    "prefecture": "静岡県",
    "prefecture_kana": "シズオカケン",
    "prefecture_code": 22,
    "city": "藤枝市",
    "city_kana": "フジエダシ",
    "town": "助宗",
    "town_kana": "スケムネ",
    "street": null,
    "office_name": null,
    "office_name_kana": null
  },
  "0086": {
    "postcode": "4260086",
    "prefecture": "静岡県",
    "prefecture_kana": "シズオカケン",
    "prefecture_code": 22,
    "city": "藤枝市",
    "city_kana": "フジエダシ",
    "town": "原",
    "town_kana": "ハラ",
    "street": null,
    "office_name": null,
    "office_name_kana": null
  },
  "0087": {
    "postcode": "4260087",
    "prefecture": "静岡県",
    "prefecture_kana": "シズオカケン",
    "prefecture_code": 22,
    "city": "藤枝市",
    "city_kana": "フジエダシ",
    "town": "音羽町",
    "town_kana": "オトワチョウ",
    "street": null,
    "office_name": null,
    "office_name_kana": null
  },
  "0088": {
    "postcode": "4260088",
    "prefecture": "静岡県",
    "prefecture_kana": "シズオカケン",
    "prefecture_code": 22,
    "city": "藤枝市",
    "city_kana": "フジエダシ",
    "town": "堀之内",
    "town_kana": "ホリノウチ",
    "street": null,
    "office_name": null,
    "office_name_kana": null
  },
  "0131": {
    "postcode": "4260131",
    "prefecture": "静岡県",
    "prefecture_kana": "シズオカケン",
    "prefecture_code": 22,
    "city": "藤枝市",
    "city_kana": "フジエダシ",
    "town": "瀬戸ノ谷",
    "town_kana": "セトノヤ",
    "street": null,
    "office_name": null,
    "office_name_kana": null
  },
  "0132": {
    "postcode": "4260132",
    "prefecture": "静岡県",
    "prefecture_kana": "シズオカケン",
    "prefecture_code": 22,
    "city": "藤枝市",
    "city_kana": "フジエダシ",
    "town": "本郷",
    "town_kana": "ホンゴウ",
    "street": null,
    "office_name": null,
    "office_name_kana": null
  },
  "0133": {
    "postcode": "4260133",
    "prefecture": "静岡県",
    "prefecture_kana": "シズオカケン",
    "prefecture_code": 22,
    "city": "藤枝市",
    "city_kana": "フジエダシ",
    "town": "宮原",
    "town_kana": "ミヤバラ",
    "street": null,
    "office_name": null,
    "office_name_kana": null
  },
  "0134": {
    "postcode": "4260134",
    "prefecture": "静岡県",
    "prefecture_kana": "シズオカケン",
    "prefecture_code": 22,
    "city": "藤枝市",
    "city_kana": "フジエダシ",
    "town": "滝沢",
    "town_kana": "タキサワ",
    "street": null,
    "office_name": null,
    "office_name_kana": null
  },
  "0201": {
    "postcode": "4260201",
    "prefecture": "静岡県",
    "prefecture_kana": "シズオカケン",
    "prefecture_code": 22,
    "city": "藤枝市",
    "city_kana": "フジエダシ",
    "town": "下藪田",
    "town_kana": "シモヤブタ",
    "street": null,
    "office_name": null,
    "office_name_kana": null
  },
  "0202": {
    "postcode": "4260202",
    "prefecture": "静岡県",
    "prefecture_kana": "シズオカケン",
    "prefecture_code": 22,
    "city": "藤枝市",
    "city_kana": "フジエダシ",
    "town": "上藪田",
    "town_kana": "カミヤブタ",
    "street": null,
    "office_name": null,
    "office_name_kana": null
  },
  "0203": {
    "postcode": "4260203",
    "prefecture": "静岡県",
    "prefecture_kana": "シズオカケン",
    "prefecture_code": 22,
    "city": "藤枝市",
    "city_kana": "フジエダシ",
    "town": "下之郷",
    "town_kana": "シモノゴウ",
    "street": null,
    "office_name": null,
    "office_name_kana": null
  },
  "0204": {
    "postcode": "4260204",
    "prefecture": "静岡県",
    "prefecture_kana": "シズオカケン",
    "prefecture_code": 22,
    "city": "藤枝市",
    "city_kana": "フジエダシ",
    "town": "時ケ谷",
    "town_kana": "トキガヤ",
    "street": null,
    "office_name": null,
    "office_name_kana": null
  },
  "0205": {
    "postcode": "4260205",
    "prefecture": "静岡県",
    "prefecture_kana": "シズオカケン",
    "prefecture_code": 22,
    "city": "藤枝市",
    "city_kana": "フジエダシ",
    "town": "花倉",
    "town_kana": "ハナグラ",
    "street": null,
    "office_name": null,
    "office_name_kana": null
  },
  "0211": {
    "postcode": "4260211",
    "prefecture": "静岡県",
    "prefecture_kana": "シズオカケン",
    "prefecture_code": 22,
    "city": "藤枝市",
    "city_kana": "フジエダシ",
    "town": "西方",
    "town_kana": "ニシガタ",
    "street": null,
    "office_name": null,
    "office_name_kana": null
  },
  "0212": {
    "postcode": "4260212",
    "prefecture": "静岡県",
    "prefecture_kana": "シズオカケン",
    "prefecture_code": 22,
    "city": "藤枝市",
    "city_kana": "フジエダシ",
    "town": "北方",
    "town_kana": "キタガタ",
    "street": null,
    "office_name": null,
    "office_name_kana": null
  },
  "0213": {
    "postcode": "4260213",
    "prefecture": "静岡県",
    "prefecture_kana": "シズオカケン",
    "prefecture_code": 22,
    "city": "藤枝市",
    "city_kana": "フジエダシ",
    "town": "中ノ合",
    "town_kana": "ナカノゴウ",
    "street": null,
    "office_name": null,
    "office_name_kana": null
  },
  "0221": {
    "postcode": "4260221",
    "prefecture": "静岡県",
    "prefecture_kana": "シズオカケン",
    "prefecture_code": 22,
    "city": "藤枝市",
    "city_kana": "フジエダシ",
    "town": "高田",
    "town_kana": "タカタ",
    "street": null,
    "office_name": null,
    "office_name_kana": null
  },
  "0222": {
    "postcode": "4260222",
    "prefecture": "静岡県",
    "prefecture_kana": "シズオカケン",
    "prefecture_code": 22,
    "city": "藤枝市",
    "city_kana": "フジエダシ",
    "town": "中藪田",
    "town_kana": "ナカヤブタ",
    "street": null,
    "office_name": null,
    "office_name_kana": null
  },
  "0223": {
    "postcode": "4260223",
    "prefecture": "静岡県",
    "prefecture_kana": "シズオカケン",
    "prefecture_code": 22,
    "city": "藤枝市",
    "city_kana": "フジエダシ",
    "town": "清里",
    "town_kana": "キヨサト",
    "street": null,
    "office_name": null,
    "office_name_kana": null
  },
  "0224": {
    "postcode": "4260224",
    "prefecture": "静岡県",
    "prefecture_kana": "シズオカケン",
    "prefecture_code": 22,
    "city": "藤枝市",
    "city_kana": "フジエダシ",
    "town": "南清里",
    "town_kana": "ミナミキヨサト",
    "street": null,
    "office_name": null,
    "office_name_kana": null
  },
  "0292": {
    "postcode": "4260292",
    "prefecture": "静岡県",
    "prefecture_kana": "シズオカケン",
    "prefecture_code": 22,
    "city": "藤枝市",
    "city_kana": "フジエダシ",
    "town": "花倉",
    "town_kana": "ハナグラ",
    "street": "４３０−１",
    "office_name": "日本ビクター　株式会社　モーター事業部",
    "office_name_kana": "ニホンビクタ- カブシキガイシヤ モ-タ-ジギヨウブ"
  },
  "8501": {
    "postcode": "4268501",
    "prefecture": "静岡県",
    "prefecture_kana": "シズオカケン",
    "prefecture_code": 22,
    "city": "藤枝市",
    "city_kana": "フジエダシ",
    "town": "八幡",
    "town_kana": "ヤワタ",
    "street": "字宗高５２１−９",
    "office_name": "株式会社　大黒屋",
    "office_name_kana": "カブシキガイシヤ ダイコクヤ"
  },
  "8503": {
    "postcode": "4268503",
    "prefecture": "静岡県",
    "prefecture_kana": "シズオカケン",
    "prefecture_code": 22,
    "city": "藤枝市",
    "city_kana": "フジエダシ",
    "town": "下当間",
    "town_kana": "シモドウマ",
    "street": "９０１",
    "office_name": "株式会社　静岡産業社　藤枝営業所",
    "office_name_kana": "カブシキガイシヤ シズオカサンギヨウシヤ フジエダエイギヨウシヨ"
  },
  "8510": {
    "postcode": "4268510",
    "prefecture": "静岡県",
    "prefecture_kana": "シズオカケン",
    "prefecture_code": 22,
    "city": "藤枝市",
    "city_kana": "フジエダシ",
    "town": "仮宿",
    "town_kana": "カリヤド",
    "street": "１３５７",
    "office_name": "富士鋼業　株式会社",
    "office_name_kana": "フジコウギヨウ カブシキガイシヤ"
  },
  "8511": {
    "postcode": "4268511",
    "prefecture": "静岡県",
    "prefecture_kana": "シズオカケン",
    "prefecture_code": 22,
    "city": "藤枝市",
    "city_kana": "フジエダシ",
    "town": "八幡",
    "town_kana": "ヤワタ",
    "street": "５５０−１",
    "office_name": "株式会社　マルタカ",
    "office_name_kana": "カブシキガイシヤ マルタカ"
  },
  "8515": {
    "postcode": "4268515",
    "prefecture": "静岡県",
    "prefecture_kana": "シズオカケン",
    "prefecture_code": 22,
    "city": "藤枝市",
    "city_kana": "フジエダシ",
    "town": "仮宿",
    "town_kana": "カリヤド",
    "street": "１４４３−２",
    "office_name": "ヤマキ　株式会社　藤枝支店",
    "office_name_kana": "ヤマキ カブシキガイシヤ フジエダシテン"
  },
  "8539": {
    "postcode": "4268539",
    "prefecture": "静岡県",
    "prefecture_kana": "シズオカケン",
    "prefecture_code": 22,
    "city": "藤枝市",
    "city_kana": "フジエダシ",
    "town": "築地",
    "town_kana": "ツイジ",
    "street": "３９２",
    "office_name": "株式会社　ツムラ　静岡工場",
    "office_name_kana": "カブシキガイシヤ ツムラ シズオカコウジヨウ"
  },
  "8543": {
    "postcode": "4268543",
    "prefecture": "静岡県",
    "prefecture_kana": "シズオカケン",
    "prefecture_code": 22,
    "city": "藤枝市",
    "city_kana": "フジエダシ",
    "town": "駅前",
    "town_kana": "エキマエ",
    "street": "３丁目２０−１",
    "office_name": "株式会社　西友　藤枝店",
    "office_name_kana": "カブシキガイシヤ セイユウ フジエダテン"
  },
  "8566": {
    "postcode": "4268566",
    "prefecture": "静岡県",
    "prefecture_kana": "シズオカケン",
    "prefecture_code": 22,
    "city": "藤枝市",
    "city_kana": "フジエダシ",
    "town": "茶町",
    "town_kana": "チャマチ",
    "street": "１丁目６−２",
    "office_name": "株式会社　扶桑工業",
    "office_name_kana": "カブシキガイシヤ フソウコウギヨウ"
  },
  "8570": {
    "postcode": "4268570",
    "prefecture": "静岡県",
    "prefecture_kana": "シズオカケン",
    "prefecture_code": 22,
    "city": "藤枝市",
    "city_kana": "フジエダシ",
    "town": "堀之内",
    "town_kana": "ホリノウチ",
    "street": "１丁目８−４",
    "office_name": "株式会社　アライドマテリアル",
    "office_name_kana": "カブシキガイシヤ アライドマテリアル"
  },
  "8575": {
    "postcode": "4268575",
    "prefecture": "静岡県",
    "prefecture_kana": "シズオカケン",
    "prefecture_code": 22,
    "city": "藤枝市",
    "city_kana": "フジエダシ",
    "town": "堀之内",
    "town_kana": "ホリノウチ",
    "street": "１丁目１−３",
    "office_name": "株式会社　山田組",
    "office_name_kana": "カブシキガイシヤ ヤマダグミ"
  },
  "8577": {
    "postcode": "4268577",
    "prefecture": "静岡県",
    "prefecture_kana": "シズオカケン",
    "prefecture_code": 22,
    "city": "藤枝市",
    "city_kana": "フジエダシ",
    "town": "天王町",
    "town_kana": "テンノウチョウ",
    "street": "１丁目７−１",
    "office_name": "静岡県立　藤枝東高等学校",
    "office_name_kana": "シズオカケンリツ フジエダヒガシコウトウガツコウ"
  },
  "8601": {
    "postcode": "4268601",
    "prefecture": "静岡県",
    "prefecture_kana": "シズオカケン",
    "prefecture_code": 22,
    "city": "藤枝市",
    "city_kana": "フジエダシ",
    "town": "兵太夫",
    "town_kana": "ヒョウダユウ",
    "street": "７４８",
    "office_name": "株式会社　村上開明堂　藤枝工場",
    "office_name_kana": "カブシキガイシヤ ムラカミカイメイドウ フジエダコウジヨウ"
  },
  "8612": {
    "postcode": "4268612",
    "prefecture": "静岡県",
    "prefecture_kana": "シズオカケン",
    "prefecture_code": 22,
    "city": "藤枝市",
    "city_kana": "フジエダシ",
    "town": "高柳",
    "town_kana": "タカヤナギ",
    "street": "２１００",
    "office_name": "住友ベークライト　株式会社",
    "office_name_kana": "スミトモベ-クライト カブシキカイシヤ"
  },
  "8617": {
    "postcode": "4268617",
    "prefecture": "静岡県",
    "prefecture_kana": "シズオカケン",
    "prefecture_code": 22,
    "city": "藤枝市",
    "city_kana": "フジエダシ",
    "town": "田沼",
    "town_kana": "タヌマ",
    "street": "１丁目１０−１",
    "office_name": "有限会社　新日邦",
    "office_name_kana": "ユウゲンガイシヤ シンニツポウ"
  },
  "8631": {
    "postcode": "4268631",
    "prefecture": "静岡県",
    "prefecture_kana": "シズオカケン",
    "prefecture_code": 22,
    "city": "藤枝市",
    "city_kana": "フジエダシ",
    "town": "前島",
    "town_kana": "マエジマ",
    "street": "１丁目１４−２",
    "office_name": "藤枝製紙　株式会社",
    "office_name_kana": "フジエダセイシ カブシキガイシヤ"
  },
  "8632": {
    "postcode": "4268632",
    "prefecture": "静岡県",
    "prefecture_kana": "シズオカケン",
    "prefecture_code": 22,
    "city": "藤枝市",
    "city_kana": "フジエダシ",
    "town": "田沼",
    "town_kana": "タヌマ",
    "street": "１丁目１８番２号",
    "office_name": "株式会社　ツチヤコーポレーション",
    "office_name_kana": "カブシキガイシヤ ツチヤコ-ポレ-シヨン"
  },
  "8633": {
    "postcode": "4268633",
    "prefecture": "静岡県",
    "prefecture_kana": "シズオカケン",
    "prefecture_code": 22,
    "city": "藤枝市",
    "city_kana": "フジエダシ",
    "town": "泉町",
    "town_kana": "イズミチョウ",
    "street": "２０",
    "office_name": "共和成産　株式会社",
    "office_name_kana": "キヨウワセイサン カブシキガイシヤ"
  },
  "8638": {
    "postcode": "4268638",
    "prefecture": "静岡県",
    "prefecture_kana": "シズオカケン",
    "prefecture_code": 22,
    "city": "藤枝市",
    "city_kana": "フジエダシ",
    "town": "善左衛門",
    "town_kana": "ゼンザエモン",
    "street": "２−１９−８",
    "office_name": "財団法人　静岡県予防医学協会　総合健診センター　ヘルスポート",
    "office_name_kana": "ザイ) シズオカケンヨボウイガクキヨウカイ ソウゴウケンシンセンタ- ヘルスポ-ト"
  },
  "8640": {
    "postcode": "4268640",
    "prefecture": "静岡県",
    "prefecture_kana": "シズオカケン",
    "prefecture_code": 22,
    "city": "藤枝市",
    "city_kana": "フジエダシ",
    "town": "源助",
    "town_kana": "ゲンスケ",
    "street": "３４２",
    "office_name": "持田製薬　株式会社　藤枝事業所",
    "office_name_kana": "モチダセイヤク カブシキカイシヤ フジエダジギヨウシヨ"
  },
  "8642": {
    "postcode": "4268642",
    "prefecture": "静岡県",
    "prefecture_kana": "シズオカケン",
    "prefecture_code": 22,
    "city": "藤枝市",
    "city_kana": "フジエダシ",
    "town": "善左衛門",
    "town_kana": "ゼンザエモン",
    "street": "６００",
    "office_name": "日清紡　藤枝工場",
    "office_name_kana": "ニツシンボウ フジエダコウジヨウ"
  },
  "8646": {
    "postcode": "4268646",
    "prefecture": "静岡県",
    "prefecture_kana": "シズオカケン",
    "prefecture_code": 22,
    "city": "藤枝市",
    "city_kana": "フジエダシ",
    "town": "源助",
    "town_kana": "ゲンスケ",
    "street": "３０１",
    "office_name": "科研製薬　株式会社　静岡工場",
    "office_name_kana": "カケンセイヤク カブシキガイシヤ シズオカコウジヨウ"
  },
  "8662": {
    "postcode": "4268662",
    "prefecture": "静岡県",
    "prefecture_kana": "シズオカケン",
    "prefecture_code": 22,
    "city": "藤枝市",
    "city_kana": "フジエダシ",
    "town": "水上",
    "town_kana": "ミズカミ",
    "street": "１２３−１",
    "office_name": "医療法人社団　平成会藤枝平成記念病院",
    "office_name_kana": "イリヨウホウジンシヤダン ヘイセイカイフジエダヘイセイキネンビヨウイン"
  },
  "8663": {
    "postcode": "4268663",
    "prefecture": "静岡県",
    "prefecture_kana": "シズオカケン",
    "prefecture_code": 22,
    "city": "藤枝市",
    "city_kana": "フジエダシ",
    "town": "瀬戸新屋",
    "town_kana": "セトアラヤ",
    "street": "３６２−１",
    "office_name": "藤枝財務事務所",
    "office_name_kana": "フジエダザイムジムシヨ"
  },
  "8666": {
    "postcode": "4268666",
    "prefecture": "静岡県",
    "prefecture_kana": "シズオカケン",
    "prefecture_code": 22,
    "city": "藤枝市",
    "city_kana": "フジエダシ",
    "town": "志太",
    "town_kana": "シダ",
    "street": "５丁目３番３４号",
    "office_name": "リグナ　株式会社　ＦＵＧＧＩＣＯＳＩ（藤越）",
    "office_name_kana": "リグナ カブシキガイシヤ フジコシ"
  },
  "8668": {
    "postcode": "4268668",
    "prefecture": "静岡県",
    "prefecture_kana": "シズオカケン",
    "prefecture_code": 22,
    "city": "藤枝市",
    "city_kana": "フジエダシ",
    "town": "駿河台",
    "town_kana": "スルガダイ",
    "street": "４丁目１−１",
    "office_name": "静岡産業大学　国際情報学部",
    "office_name_kana": "シズオカサンギヨウダイガク コクサイジヨウホウガクブ"
  },
  "8670": {
    "postcode": "4268670",
    "prefecture": "静岡県",
    "prefecture_kana": "シズオカケン",
    "prefecture_code": 22,
    "city": "藤枝市",
    "city_kana": "フジエダシ",
    "town": "志太",
    "town_kana": "シダ",
    "street": "１丁目６番５０号",
    "office_name": "株式会社　ニシムラ",
    "office_name_kana": "カブシキカイシヤ ニシムラ"
  },
  "8677": {
    "postcode": "4268677",
    "prefecture": "静岡県",
    "prefecture_kana": "シズオカケン",
    "prefecture_code": 22,
    "city": "藤枝市",
    "city_kana": "フジエダシ",
    "town": "駿河台",
    "town_kana": "スルガダイ",
    "street": "４丁目１−１１",
    "office_name": "藤枝市立総合病院",
    "office_name_kana": "フジエダシリツソウゴウビヨウイン"
  },
  "8711": {
    "postcode": "4268711",
    "prefecture": "静岡県",
    "prefecture_kana": "シズオカケン",
    "prefecture_code": 22,
    "city": "藤枝市",
    "city_kana": "フジエダシ",
    "town": "青木",
    "town_kana": "アオキ",
    "street": "２丁目２−３３（藤枝郵便局私書箱第５８号）",
    "office_name": "藤枝　税務署",
    "office_name_kana": "フジエダ ゼイムシヨ"
  },
  "8722": {
    "postcode": "4268722",
    "prefecture": "静岡県",
    "prefecture_kana": "シズオカケン",
    "prefecture_code": 22,
    "city": "藤枝市",
    "city_kana": "フジエダシ",
    "town": "岡出山",
    "town_kana": "オカデヤマ",
    "street": "１丁目１１−１（藤枝郵便局私書箱第３８号）",
    "office_name": "藤枝市役所",
    "office_name_kana": "フジエダシヤクシヨ"
  }
}