{
  "0001": {
    "postcode": "4350001",
    "prefecture": "静岡県",
    "prefecture_kana": "シズオカケン",
    "prefecture_code": 22,
    "city": "浜松市中央区",
    "city_kana": "ハママツシチュウオウク",
    "town": "上石田町",
    "town_kana": "カミイシダチョウ",
    "street": null,
    "office_name": null,
    "office_name_kana": null
  },
  "0002": {
    "postcode": "4350002",
    "prefecture": "静岡県",
    "prefecture_kana": "シズオカケン",
    "prefecture_code": 22,
    "city": "浜松市中央区",
    "city_kana": "ハママツシチュウオウク",
    "town": "白鳥町",
    "town_kana": "シロトリチョウ",
    "street": null,
    "office_name": null,
    "office_name_kana": null
  },
  "0003": {
    "postcode": "4350003",
    "prefecture": "静岡県",
    "prefecture_kana": "シズオカケン",
    "prefecture_code": 22,
    "city": "浜松市中央区",
    "city_kana": "ハママツシチュウオウク",
    "town": "中里町",
    "town_kana": "ナカサトチョウ",
    "street": null,
    "office_name": null,
    "office_name_kana": null
  },
  "0004": {
    "postcode": "4350004",
    "prefecture": "静岡県",
    "prefecture_kana": "シズオカケン",
    "prefecture_code": 22,
    "city": "浜松市中央区",
    "city_kana": "ハママツシチュウオウク",
    "town": "中野町",
    "town_kana": "ナカノマチ",
    "street": null,
    "office_name": null,
    "office_name_kana": null
  },
  "0005": {
    "postcode": "4350005",
    "prefecture": "静岡県",
    "prefecture_kana": "シズオカケン",
    "prefecture_code": 22,
    "city": "浜松市中央区",
    "city_kana": "ハママツシチュウオウク",
    "town": "安新町",
    "town_kana": "アンシンチョウ",
    "street": null,
    "office_name": null,
    "office_name_kana": null
  },
  "0006": {
    "postcode": "4350006",
    "prefecture": "静岡県",
    "prefecture_kana": "シズオカケン",
    "prefecture_code": 22,
    "city": "浜松市中央区",
    "city_kana": "ハママツシチュウオウク",
    "town": "下石田町",
    "town_kana": "シモイシダチョウ",
    "street": null,
    "office_name": null,
    "office_name_kana": null
  },
  "0007": {
    "postcode": "4350007",
    "prefecture": "静岡県",
    "prefecture_kana": "シズオカケン",
    "prefecture_code": 22,
    "city": "浜松市中央区",
    "city_kana": "ハママツシチュウオウク",
    "town": "流通元町",
    "town_kana": "リュウツウモトマチ",
    "street": null,
    "office_name": null,
    "office_name_kana": null
  },
  "0008": {
    "postcode": "4350008",
    "prefecture": "静岡県",
    "prefecture_kana": "シズオカケン",
    "prefecture_code": 22,
    "city": "浜松市中央区",
    "city_kana": "ハママツシチュウオウク",
    "town": "松小池町",
    "town_kana": "マツコイケチョウ",
    "street": null,
    "office_name": null,
    "office_name_kana": null
  },
  "0011": {
    "postcode": "4350011",
    "prefecture": "静岡県",
    "prefecture_kana": "シズオカケン",
    "prefecture_code": 22,
    "city": "浜松市中央区",
    "city_kana": "ハママツシチュウオウク",
    "town": "国吉町",
    "town_kana": "クニヨシチョウ",
    "street": null,
    "office_name": null,
    "office_name_kana": null
  },
  "0012": {
    "postcode": "4350012",
    "prefecture": "静岡県",
    "prefecture_kana": "シズオカケン",
    "prefecture_code": 22,
    "city": "浜松市中央区",
    "city_kana": "ハママツシチュウオウク",
    "town": "安間町",
    "town_kana": "アンマチョウ",
    "street": null,
    "office_name": null,
    "office_name_kana": null
  },
  "0013": {
    "postcode": "4350013",
    "prefecture": "静岡県",
    "prefecture_kana": "シズオカケン",
    "prefecture_code": 22,
    "city": "浜松市中央区",
    "city_kana": "ハママツシチュウオウク",
    "town": "天龍川町",
    "town_kana": "テンリュウガワチョウ",
    "street": null,
    "office_name": null,
    "office_name_kana": null
  },
  "0014": {
    "postcode": "4350014",
    "prefecture": "静岡県",
    "prefecture_kana": "シズオカケン",
    "prefecture_code": 22,
    "city": "浜松市中央区",
    "city_kana": "ハママツシチュウオウク",
    "town": "大蒲町",
    "town_kana": "オオカバチョウ",
    "street": null,
    "office_name": null,
    "office_name_kana": null
  },
  "0015": {
    "postcode": "4350015",
    "prefecture": "静岡県",
    "prefecture_kana": "シズオカケン",
    "prefecture_code": 22,
    "city": "浜松市中央区",
    "city_kana": "ハママツシチュウオウク",
    "town": "子安町",
    "town_kana": "コヤスチョウ",
    "street": null,
    "office_name": null,
    "office_name_kana": null
  },
  "0016": {
    "postcode": "4350016",
    "prefecture": "静岡県",
    "prefecture_kana": "シズオカケン",
    "prefecture_code": 22,
    "city": "浜松市中央区",
    "city_kana": "ハママツシチュウオウク",
    "town": "和田町",
    "town_kana": "ワダチョウ",
    "street": null,
    "office_name": null,
    "office_name_kana": null
  },
  "0017": {
    "postcode": "4350017",
    "prefecture": "静岡県",
    "prefecture_kana": "シズオカケン",
    "prefecture_code": 22,
    "city": "浜松市中央区",
    "city_kana": "ハママツシチュウオウク",
    "town": "薬師町",
    "town_kana": "ヤクシチョウ",
    "street": null,
    "office_name": null,
    "office_name_kana": null
  },
  "0018": {
    "postcode": "4350018",
    "prefecture": "静岡県",
    "prefecture_kana": "シズオカケン",
    "prefecture_code": 22,
    "city": "浜松市中央区",
    "city_kana": "ハママツシチュウオウク",
    "town": "薬新町",
    "town_kana": "ヤクシンチョウ",
    "street": null,
    "office_name": null,
    "office_name_kana": null
  },
  "0021": {
    "postcode": "4350021",
    "prefecture": "静岡県",
    "prefecture_kana": "シズオカケン",
    "prefecture_code": 22,
    "city": "浜松市中央区",
    "city_kana": "ハママツシチュウオウク",
    "town": "材木町",
    "town_kana": "ザイモクチョウ",
    "street": null,
    "office_name": null,
    "office_name_kana": null
  },
  "0022": {
    "postcode": "4350022",
    "prefecture": "静岡県",
    "prefecture_kana": "シズオカケン",
    "prefecture_code": 22,
    "city": "浜松市中央区",
    "city_kana": "ハママツシチュウオウク",
    "town": "鶴見町",
    "town_kana": "ツルミチョウ",
    "street": null,
    "office_name": null,
    "office_name_kana": null
  },
  "0023": {
    "postcode": "4350023",
    "prefecture": "静岡県",
    "prefecture_kana": "シズオカケン",
    "prefecture_code": 22,
    "city": "浜松市中央区",
    "city_kana": "ハママツシチュウオウク",
    "town": "新貝町",
    "town_kana": "シンガイチョウ",
    "street": null,
    "office_name": null,
    "office_name_kana": null
  },
  "0024": {
    "postcode": "4350024",
    "prefecture": "静岡県",
    "prefecture_kana": "シズオカケン",
    "prefecture_code": 22,
    "city": "浜松市中央区",
    "city_kana": "ハママツシチュウオウク",
    "town": "大塚町",
    "town_kana": "オオツカチョウ",
    "street": null,
    "office_name": null,
    "office_name_kana": null
  },
  "0025": {
    "postcode": "4350025",
    "prefecture": "静岡県",
    "prefecture_kana": "シズオカケン",
    "prefecture_code": 22,
    "city": "浜松市中央区",
    "city_kana": "ハママツシチュウオウク",
    "town": "老間町",
    "town_kana": "オイマチョウ",
    "street": null,
    "office_name": null,
    "office_name_kana": null
  },
  "0026": {
    "postcode": "4350026",
    "prefecture": "静岡県",
    "prefecture_kana": "シズオカケン",
    "prefecture_code": 22,
    "city": "浜松市中央区",
    "city_kana": "ハママツシチュウオウク",
    "town": "金折町",
    "town_kana": "カナオリチョウ",
    "street": null,
    "office_name": null,
    "office_name_kana": null
  },
  "0027": {
    "postcode": "4350027",
    "prefecture": "静岡県",
    "prefecture_kana": "シズオカケン",
    "prefecture_code": 22,
    "city": "浜松市中央区",
    "city_kana": "ハママツシチュウオウク",
    "town": "下飯田町",
    "town_kana": "シモイイダチョウ",
    "street": null,
    "office_name": null,
    "office_name_kana": null
  },
  "0028": {
    "postcode": "4350028",
    "prefecture": "静岡県",
    "prefecture_kana": "シズオカケン",
    "prefecture_code": 22,
    "city": "浜松市中央区",
    "city_kana": "ハママツシチュウオウク",
    "town": "飯田町",
    "town_kana": "イイダチョウ",
    "street": null,
    "office_name": null,
    "office_name_kana": null
  },
  "0029": {
    "postcode": "4350029",
    "prefecture": "静岡県",
    "prefecture_kana": "シズオカケン",
    "prefecture_code": 22,
    "city": "浜松市中央区",
    "city_kana": "ハママツシチュウオウク",
    "town": "龍光町",
    "town_kana": "リュウコウチョウ",
    "street": null,
    "office_name": null,
    "office_name_kana": null
  },
  "0031": {
    "postcode": "4350031",
    "prefecture": "静岡県",
    "prefecture_kana": "シズオカケン",
    "prefecture_code": 22,
    "city": "浜松市中央区",
    "city_kana": "ハママツシチュウオウク",
    "town": "長鶴町",
    "town_kana": "ナガツルチョウ",
    "street": null,
    "office_name": null,
    "office_name_kana": null
  },
  "0032": {
    "postcode": "4350032",
    "prefecture": "静岡県",
    "prefecture_kana": "シズオカケン",
    "prefecture_code": 22,
    "city": "浜松市中央区",
    "city_kana": "ハママツシチュウオウク",
    "town": "古川町",
    "town_kana": "フルカワチョウ",
    "street": null,
    "office_name": null,
    "office_name_kana": null
  },
  "0033": {
    "postcode": "4350033",
    "prefecture": "静岡県",
    "prefecture_kana": "シズオカケン",
    "prefecture_code": 22,
    "city": "浜松市中央区",
    "city_kana": "ハママツシチュウオウク",
    "town": "石原町",
    "town_kana": "イシハラチョウ",
    "street": null,
    "office_name": null,
    "office_name_kana": null
  },
  "0034": {
    "postcode": "4350034",
    "prefecture": "静岡県",
    "prefecture_kana": "シズオカケン",
    "prefecture_code": 22,
    "city": "浜松市中央区",
    "city_kana": "ハママツシチュウオウク",
    "town": "安松町",
    "town_kana": "ヤスマツチョウ",
    "street": null,
    "office_name": null,
    "office_name_kana": null
  },
  "0035": {
    "postcode": "4350035",
    "prefecture": "静岡県",
    "prefecture_kana": "シズオカケン",
    "prefecture_code": 22,
    "city": "浜松市中央区",
    "city_kana": "ハママツシチュウオウク",
    "town": "西伝寺町",
    "town_kana": "セイデンジチョウ",
    "street": null,
    "office_name": null,
    "office_name_kana": null
  },
  "0036": {
    "postcode": "4350036",
    "prefecture": "静岡県",
    "prefecture_kana": "シズオカケン",
    "prefecture_code": 22,
    "city": "浜松市中央区",
    "city_kana": "ハママツシチュウオウク",
    "town": "渡瀬町",
    "town_kana": "ワタセチョウ",
    "street": null,
    "office_name": null,
    "office_name_kana": null
  },
  "0037": {
    "postcode": "4350037",
    "prefecture": "静岡県",
    "prefecture_kana": "シズオカケン",
    "prefecture_code": 22,
    "city": "浜松市中央区",
    "city_kana": "ハママツシチュウオウク",
    "town": "青屋町",
    "town_kana": "アオヤチョウ",
    "street": null,
    "office_name": null,
    "office_name_kana": null
  },
  "0038": {
    "postcode": "4350038",
    "prefecture": "静岡県",
    "prefecture_kana": "シズオカケン",
    "prefecture_code": 22,
    "city": "浜松市中央区",
    "city_kana": "ハママツシチュウオウク",
    "town": "三和町",
    "town_kana": "サンワチョウ",
    "street": null,
    "office_name": null,
    "office_name_kana": null
  },
  "0041": {
    "postcode": "4350041",
    "prefecture": "静岡県",
    "prefecture_kana": "シズオカケン",
    "prefecture_code": 22,
    "city": "浜松市中央区",
    "city_kana": "ハママツシチュウオウク",
    "town": "北島町",
    "town_kana": "キタジマチョウ",
    "street": null,
    "office_name": null,
    "office_name_kana": null
  },
  "0042": {
    "postcode": "4350042",
    "prefecture": "静岡県",
    "prefecture_kana": "シズオカケン",
    "prefecture_code": 22,
    "city": "浜松市中央区",
    "city_kana": "ハママツシチュウオウク",
    "town": "篠ケ瀬町",
    "town_kana": "ササガセチョウ",
    "street": null,
    "office_name": null,
    "office_name_kana": null
  },
  "0043": {
    "postcode": "4350043",
    "prefecture": "静岡県",
    "prefecture_kana": "シズオカケン",
    "prefecture_code": 22,
    "city": "浜松市中央区",
    "city_kana": "ハママツシチュウオウク",
    "town": "宮竹町",
    "town_kana": "ミヤタケチョウ",
    "street": null,
    "office_name": null,
    "office_name_kana": null
  },
  "0044": {
    "postcode": "4350044",
    "prefecture": "静岡県",
    "prefecture_kana": "シズオカケン",
    "prefecture_code": 22,
    "city": "浜松市中央区",
    "city_kana": "ハママツシチュウオウク",
    "town": "西塚町",
    "town_kana": "ニシヅカチョウ",
    "street": null,
    "office_name": null,
    "office_name_kana": null
  },
  "0045": {
    "postcode": "4350045",
    "prefecture": "静岡県",
    "prefecture_kana": "シズオカケン",
    "prefecture_code": 22,
    "city": "浜松市中央区",
    "city_kana": "ハママツシチュウオウク",
    "town": "細島町",
    "town_kana": "ホソジマチョウ",
    "street": null,
    "office_name": null,
    "office_name_kana": null
  },
  "0046": {
    "postcode": "4350046",
    "prefecture": "静岡県",
    "prefecture_kana": "シズオカケン",
    "prefecture_code": 22,
    "city": "浜松市中央区",
    "city_kana": "ハママツシチュウオウク",
    "town": "丸塚町",
    "town_kana": "マルヅカチョウ",
    "street": null,
    "office_name": null,
    "office_name_kana": null
  },
  "0047": {
    "postcode": "4350047",
    "prefecture": "静岡県",
    "prefecture_kana": "シズオカケン",
    "prefecture_code": 22,
    "city": "浜松市中央区",
    "city_kana": "ハママツシチュウオウク",
    "town": "原島町",
    "town_kana": "バラジマチョウ",
    "street": null,
    "office_name": null,
    "office_name_kana": null
  },
  "0048": {
    "postcode": "4350048",
    "prefecture": "静岡県",
    "prefecture_kana": "シズオカケン",
    "prefecture_code": 22,
    "city": "浜松市中央区",
    "city_kana": "ハママツシチュウオウク",
    "town": "上西町",
    "town_kana": "カミニシチョウ",
    "street": null,
    "office_name": null,
    "office_name_kana": null
  },
  "0051": {
    "postcode": "4350051",
    "prefecture": "静岡県",
    "prefecture_kana": "シズオカケン",
    "prefecture_code": 22,
    "city": "浜松市中央区",
    "city_kana": "ハママツシチュウオウク",
    "town": "市野町",
    "town_kana": "イチノチョウ",
    "street": null,
    "office_name": null,
    "office_name_kana": null
  },
  "0052": {
    "postcode": "4350052",
    "prefecture": "静岡県",
    "prefecture_kana": "シズオカケン",
    "prefecture_code": 22,
    "city": "浜松市中央区",
    "city_kana": "ハママツシチュウオウク",
    "town": "天王町",
    "town_kana": "テンノウチョウ",
    "street": null,
    "office_name": null,
    "office_name_kana": null
  },
  "0053": {
    "postcode": "4350053",
    "prefecture": "静岡県",
    "prefecture_kana": "シズオカケン",
    "prefecture_code": 22,
    "city": "浜松市中央区",
    "city_kana": "ハママツシチュウオウク",
    "town": "上新屋町",
    "town_kana": "カミアラヤチョウ",
    "street": null,
    "office_name": null,
    "office_name_kana": null
  },
  "0054": {
    "postcode": "4350054",
    "prefecture": "静岡県",
    "prefecture_kana": "シズオカケン",
    "prefecture_code": 22,
    "city": "浜松市中央区",
    "city_kana": "ハママツシチュウオウク",
    "town": "早出町",
    "town_kana": "ソウデチョウ",
    "street": null,
    "office_name": null,
    "office_name_kana": null
  },
  "0055": {
    "postcode": "4350055",
    "prefecture": "静岡県",
    "prefecture_kana": "シズオカケン",
    "prefecture_code": 22,
    "city": "浜松市中央区",
    "city_kana": "ハママツシチュウオウク",
    "town": "十軒町",
    "town_kana": "ジッケンチョウ",
    "street": null,
    "office_name": null,
    "office_name_kana": null
  },
  "0056": {
    "postcode": "4350056",
    "prefecture": "静岡県",
    "prefecture_kana": "シズオカケン",
    "prefecture_code": 22,
    "city": "浜松市中央区",
    "city_kana": "ハママツシチュウオウク",
    "town": "小池町",
    "town_kana": "コイケチョウ",
    "street": null,
    "office_name": null,
    "office_name_kana": null
  },
  "0057": {
    "postcode": "4350057",
    "prefecture": "静岡県",
    "prefecture_kana": "シズオカケン",
    "prefecture_code": 22,
    "city": "浜松市中央区",
    "city_kana": "ハママツシチュウオウク",
    "town": "中田町",
    "town_kana": "ナカダチョウ",
    "street": null,
    "office_name": null,
    "office_name_kana": null
  },
  "8505": {
    "postcode": "4358505",
    "prefecture": "静岡県",
    "prefecture_kana": "シズオカケン",
    "prefecture_code": 22,
    "city": "浜松市中央区",
    "city_kana": "ハママツシチュウオウク",
    "town": "大蒲町",
    "town_kana": "オオカバチョウ",
    "street": "１１５−８",
    "office_name": "オー・ジー　株式会社　浜松支店",
    "office_name_kana": "オ-・ジ- カブシキガイシヤ ハママツシテン"
  },
  "8510": {
    "postcode": "4358510",
    "prefecture": "静岡県",
    "prefecture_kana": "シズオカケン",
    "prefecture_code": 22,
    "city": "浜松市中央区",
    "city_kana": "ハママツシチュウオウク",
    "town": "西塚町",
    "town_kana": "ニシヅカチョウ",
    "street": "３１９−２",
    "office_name": "株式会社　スズケン　浜松支店",
    "office_name_kana": "カブシキガイシヤ スズケン ハママツシテン"
  },
  "8515": {
    "postcode": "4358515",
    "prefecture": "静岡県",
    "prefecture_kana": "シズオカケン",
    "prefecture_code": 22,
    "city": "浜松市中央区",
    "city_kana": "ハママツシチュウオウク",
    "town": "市野町",
    "town_kana": "イチノチョウ",
    "street": "２７５０",
    "office_name": "株式会社　ＹＫマルト",
    "office_name_kana": "カブシキガイシヤ ワイケイマルト"
  },
  "8522": {
    "postcode": "4358522",
    "prefecture": "静岡県",
    "prefecture_kana": "シズオカケン",
    "prefecture_code": 22,
    "city": "浜松市中央区",
    "city_kana": "ハママツシチュウオウク",
    "town": "中田町",
    "town_kana": "ナカダチョウ",
    "street": "８４６",
    "office_name": "東海染工　株式会社　浜松事業所",
    "office_name_kana": "トウカイセンコウ カブシキガイシヤ ハママツジギヨウシヨ"
  },
  "8533": {
    "postcode": "4358533",
    "prefecture": "静岡県",
    "prefecture_kana": "シズオカケン",
    "prefecture_code": 22,
    "city": "浜松市中央区",
    "city_kana": "ハママツシチュウオウク",
    "town": "安間町",
    "town_kana": "アンマチョウ",
    "street": "２６４−１",
    "office_name": "大興産業　株式会社",
    "office_name_kana": "ダイコウサンギヨウ カブシキガイシヤ"
  },
  "8539": {
    "postcode": "4358539",
    "prefecture": "静岡県",
    "prefecture_kana": "シズオカケン",
    "prefecture_code": 22,
    "city": "浜松市中央区",
    "city_kana": "ハママツシチュウオウク",
    "town": "和田町",
    "town_kana": "ワダチョウ",
    "street": "５９７",
    "office_name": "浜松日産自動車　株式会社",
    "office_name_kana": "ハママツニツサンジドウシヤ カブシキガイシヤ"
  },
  "8551": {
    "postcode": "4358551",
    "prefecture": "静岡県",
    "prefecture_kana": "シズオカケン",
    "prefecture_code": 22,
    "city": "浜松市中央区",
    "city_kana": "ハママツシチュウオウク",
    "town": "和田町",
    "town_kana": "ワダチョウ",
    "street": "８０９",
    "office_name": "ネッツトヨタ静浜　株式会社",
    "office_name_kana": "ネツツトヨタシズハマ カブシキガイシヤ"
  },
  "8555": {
    "postcode": "4358555",
    "prefecture": "静岡県",
    "prefecture_kana": "シズオカケン",
    "prefecture_code": 22,
    "city": "浜松市中央区",
    "city_kana": "ハママツシチュウオウク",
    "town": "薬新町",
    "town_kana": "ヤクシンチョウ",
    "street": "４５番地",
    "office_name": "中日新聞社　東海本社",
    "office_name_kana": "チユウニチシンブンシヤ トウカイホンシヤ"
  },
  "8557": {
    "postcode": "4358557",
    "prefecture": "静岡県",
    "prefecture_kana": "シズオカケン",
    "prefecture_code": 22,
    "city": "浜松市中央区",
    "city_kana": "ハママツシチュウオウク",
    "town": "薬新町",
    "town_kana": "ヤクシンチョウ",
    "street": "４５",
    "office_name": "株式会社　中日ショッパー",
    "office_name_kana": "カブシキガイシヤ チユウニチシヨツパ-"
  },
  "8558": {
    "postcode": "4358558",
    "prefecture": "静岡県",
    "prefecture_kana": "シズオカケン",
    "prefecture_code": 22,
    "city": "浜松市中央区",
    "city_kana": "ハママツシチュウオウク",
    "town": "市野町",
    "town_kana": "イチノチョウ",
    "street": "１１２６−１",
    "office_name": "浜松ホトニクス　株式会社　本社工場",
    "office_name_kana": "ハママツホトニクス カブシキガイシヤ ホンシヤコウジヨウ"
  },
  "8560": {
    "postcode": "4358560",
    "prefecture": "静岡県",
    "prefecture_kana": "シズオカケン",
    "prefecture_code": 22,
    "city": "浜松市中央区",
    "city_kana": "ハママツシチュウオウク",
    "town": "古川町",
    "town_kana": "フルカワチョウ",
    "street": "５００",
    "office_name": "（株）　ソミック石川",
    "office_name_kana": "(カブ) ソミツクイシカワ"
  },
  "8567": {
    "postcode": "4358567",
    "prefecture": "静岡県",
    "prefecture_kana": "シズオカケン",
    "prefecture_code": 22,
    "city": "浜松市中央区",
    "city_kana": "ハママツシチュウオウク",
    "town": "青屋町",
    "town_kana": "アオヤチョウ",
    "street": "２８３",
    "office_name": "ヤマハ　（株）　天竜工場",
    "office_name_kana": "ヤマハ (カブ) テンリユウコウジヨウ"
  },
  "8568": {
    "postcode": "4358568",
    "prefecture": "静岡県",
    "prefecture_kana": "シズオカケン",
    "prefecture_code": 22,
    "city": "浜松市中央区",
    "city_kana": "ハママツシチュウオウク",
    "town": "青屋町",
    "town_kana": "アオヤチョウ",
    "street": "２８３",
    "office_name": "ヤマハファインテック　（株）",
    "office_name_kana": "ヤマハフアインテツク (カブ)"
  },
  "8575": [
    {
      "postcode": "4358575",
      "prefecture": "静岡県",
      "prefecture_kana": "シズオカケン",
      "prefecture_code": 22,
      "city": "浜松市中央区",
      "city_kana": "ハママツシチュウオウク",
      "town": "子安町",
      "town_kana": "コヤスチョウ",
      "street": "１３７０",
      "office_name": "テクノ矢崎　株式会社",
      "office_name_kana": "テクノヤザキ カブシキガイシヤ"
    },
    {
      "postcode": "4358575",
      "prefecture": "静岡県",
      "prefecture_kana": "シズオカケン",
      "prefecture_code": 22,
      "city": "浜松市中央区",
      "city_kana": "ハママツシチュウオウク",
      "town": "子安町",
      "town_kana": "コヤスチョウ",
      "street": "１３７０",
      "office_name": "矢崎エナジーシステム　株式会社",
      "office_name_kana": "ヤザキエナジ-システム カブシキガイシヤ"
    }
  ],
  "8611": {
    "postcode": "4358611",
    "prefecture": "静岡県",
    "prefecture_kana": "シズオカケン",
    "prefecture_code": 22,
    "city": "浜松市中央区",
    "city_kana": "ハママツシチュウオウク",
    "town": "和田町",
    "town_kana": "ワダチョウ",
    "street": "８４８（浜松東郵便局私書箱第２１号）",
    "office_name": "株式会社　コーエイ",
    "office_name_kana": "カブシキガイシヤ コ-エイ"
  },
  "8642": {
    "postcode": "4358642",
    "prefecture": "静岡県",
    "prefecture_kana": "シズオカケン",
    "prefecture_code": 22,
    "city": "浜松市中央区",
    "city_kana": "ハママツシチュウオウク",
    "town": "上西町",
    "town_kana": "カミニシチョウ",
    "street": "９３９−２",
    "office_name": "浜松市保健環境研究所",
    "office_name_kana": "ハママツシホケンカンキヨウケンキユウジヨ"
  },
  "8660": {
    "postcode": "4358660",
    "prefecture": "静岡県",
    "prefecture_kana": "シズオカケン",
    "prefecture_code": 22,
    "city": "浜松市中央区",
    "city_kana": "ハママツシチュウオウク",
    "town": "佐藤",
    "town_kana": "サトウ",
    "street": "２丁目２４−１",
    "office_name": "株式会社　スクロール",
    "office_name_kana": "カブシキガイシヤ スクロ-ル"
  },
  "8686": {
    "postcode": "4358686",
    "prefecture": "静岡県",
    "prefecture_kana": "シズオカケン",
    "prefecture_code": 22,
    "city": "浜松市中央区",
    "city_kana": "ハママツシチュウオウク",
    "town": "流通元町",
    "town_kana": "リュウツウモトマチ",
    "street": "２０番３号",
    "office_name": "浜松市　東行政センター",
    "office_name_kana": "ハママツシ ヒガシギヨウセイセンタ-"
  }
}