{
  "0001": {
    "postcode": "4400001",
    "prefecture": "愛知県",
    "prefecture_kana": "アイチケン",
    "prefecture_code": 23,
    "city": "豊橋市",
    "city_kana": "トヨハシシ",
    "town": "下条西町",
    "town_kana": "ゲジョウニシマチ",
    "street": null,
    "office_name": null,
    "office_name_kana": null
  },
  "0002": {
    "postcode": "4400002",
    "prefecture": "愛知県",
    "prefecture_kana": "アイチケン",
    "prefecture_code": 23,
    "city": "豊橋市",
    "city_kana": "トヨハシシ",
    "town": "下条東町",
    "town_kana": "ゲジョウヒガシマチ",
    "street": null,
    "office_name": null,
    "office_name_kana": null
  },
  "0003": {
    "postcode": "4400003",
    "prefecture": "愛知県",
    "prefecture_kana": "アイチケン",
    "prefecture_code": 23,
    "city": "豊橋市",
    "city_kana": "トヨハシシ",
    "town": "浪の上町",
    "town_kana": "ナミノウエチョウ",
    "street": null,
    "office_name": null,
    "office_name_kana": null
  },
  "0004": {
    "postcode": "4400004",
    "prefecture": "愛知県",
    "prefecture_kana": "アイチケン",
    "prefecture_code": 23,
    "city": "豊橋市",
    "city_kana": "トヨハシシ",
    "town": "忠興",
    "town_kana": "タダコウ",
    "street": null,
    "office_name": null,
    "office_name_kana": null
  },
  "0005": {
    "postcode": "4400005",
    "prefecture": "愛知県",
    "prefecture_kana": "アイチケン",
    "prefecture_code": 23,
    "city": "豊橋市",
    "city_kana": "トヨハシシ",
    "town": "緑ケ丘",
    "town_kana": "ミドリガオカ",
    "street": null,
    "office_name": null,
    "office_name_kana": null
  },
  "0006": [
    {
      "postcode": "4400006",
      "prefecture": "愛知県",
      "prefecture_kana": "アイチケン",
      "prefecture_code": 23,
      "city": "豊橋市",
      "city_kana": "トヨハシシ",
      "town": "牛川町",
      "town_kana": "ウシカワチョウ",
      "street": null,
      "office_name": null,
      "office_name_kana": null
    },
    {
      "postcode": "4400006",
      "prefecture": "愛知県",
      "prefecture_kana": "アイチケン",
      "prefecture_code": 23,
      "city": "豊橋市",
      "city_kana": "トヨハシシ",
      "town": "牛川町池下",
      "town_kana": "ウシカワチョウイケシタ",
      "street": null,
      "office_name": null,
      "office_name_kana": null
    },
    {
      "postcode": "4400006",
      "prefecture": "愛知県",
      "prefecture_kana": "アイチケン",
      "prefecture_code": 23,
      "city": "豊橋市",
      "city_kana": "トヨハシシ",
      "town": "牛川町押川",
      "town_kana": "ウシカワチョウオシカワ",
      "street": null,
      "office_name": null,
      "office_name_kana": null
    },
    {
      "postcode": "4400006",
      "prefecture": "愛知県",
      "prefecture_kana": "アイチケン",
      "prefecture_code": 23,
      "city": "豊橋市",
      "city_kana": "トヨハシシ",
      "town": "牛川町東仲田",
      "town_kana": "ウシカワチョウヒガシナカダ",
      "street": null,
      "office_name": null,
      "office_name_kana": null
    },
    {
      "postcode": "4400006",
      "prefecture": "愛知県",
      "prefecture_kana": "アイチケン",
      "prefecture_code": 23,
      "city": "豊橋市",
      "city_kana": "トヨハシシ",
      "town": "牛川町西仲田",
      "town_kana": "ウシカワチョウニシナカダ",
      "street": null,
      "office_name": null,
      "office_name_kana": null
    },
    {
      "postcode": "4400006",
      "prefecture": "愛知県",
      "prefecture_kana": "アイチケン",
      "prefecture_code": 23,
      "city": "豊橋市",
      "city_kana": "トヨハシシ",
      "town": "牛川町乗小路",
      "town_kana": "ウシカワチョウノリコウジ",
      "street": null,
      "office_name": null,
      "office_name_kana": null
    }
  ],
  "0011": {
    "postcode": "4400011",
    "prefecture": "愛知県",
    "prefecture_kana": "アイチケン",
    "prefecture_code": 23,
    "city": "豊橋市",
    "city_kana": "トヨハシシ",
    "town": "牛川通",
    "town_kana": "ウシカワドオリ",
    "street": null,
    "office_name": null,
    "office_name_kana": null
  },
  "0012": {
    "postcode": "4400012",
    "prefecture": "愛知県",
    "prefecture_kana": "アイチケン",
    "prefecture_code": 23,
    "city": "豊橋市",
    "city_kana": "トヨハシシ",
    "town": "東小鷹野",
    "town_kana": "ヒガシオダカノ",
    "street": null,
    "office_name": null,
    "office_name_kana": null
  },
  "0013": {
    "postcode": "4400013",
    "prefecture": "愛知県",
    "prefecture_kana": "アイチケン",
    "prefecture_code": 23,
    "city": "豊橋市",
    "city_kana": "トヨハシシ",
    "town": "西小鷹野",
    "town_kana": "ニシオダカノ",
    "street": null,
    "office_name": null,
    "office_name_kana": null
  },
  "0014": {
    "postcode": "4400014",
    "prefecture": "愛知県",
    "prefecture_kana": "アイチケン",
    "prefecture_code": 23,
    "city": "豊橋市",
    "city_kana": "トヨハシシ",
    "town": "南牛川",
    "town_kana": "ミナミウシカワ",
    "street": null,
    "office_name": null,
    "office_name_kana": null
  },
  "0015": {
    "postcode": "4400015",
    "prefecture": "愛知県",
    "prefecture_kana": "アイチケン",
    "prefecture_code": 23,
    "city": "豊橋市",
    "city_kana": "トヨハシシ",
    "town": "牛川薬師町",
    "town_kana": "ウシカワヤクシチョウ",
    "street": null,
    "office_name": null,
    "office_name_kana": null
  },
  "0016": {
    "postcode": "4400016",
    "prefecture": "愛知県",
    "prefecture_kana": "アイチケン",
    "prefecture_code": 23,
    "city": "豊橋市",
    "city_kana": "トヨハシシ",
    "town": "牛川町",
    "town_kana": "ウシカワチョウ",
    "street": null,
    "office_name": null,
    "office_name_kana": null
  },
  "0021": {
    "postcode": "4400021",
    "prefecture": "愛知県",
    "prefecture_kana": "アイチケン",
    "prefecture_code": 23,
    "city": "豊橋市",
    "city_kana": "トヨハシシ",
    "town": "多米町",
    "town_kana": "タメチョウ",
    "street": null,
    "office_name": null,
    "office_name_kana": null
  },
  "0022": {
    "postcode": "4400022",
    "prefecture": "愛知県",
    "prefecture_kana": "アイチケン",
    "prefecture_code": 23,
    "city": "豊橋市",
    "city_kana": "トヨハシシ",
    "town": "岩崎町",
    "town_kana": "イワサキチョウ",
    "street": null,
    "office_name": null,
    "office_name_kana": null
  },
  "0023": [
    {
      "postcode": "4400023",
      "prefecture": "愛知県",
      "prefecture_kana": "アイチケン",
      "prefecture_code": 23,
      "city": "豊橋市",
      "city_kana": "トヨハシシ",
      "town": "岩田町",
      "town_kana": "イワタチョウ",
      "street": null,
      "office_name": null,
      "office_name_kana": null
    },
    {
      "postcode": "4400023",
      "prefecture": "愛知県",
      "prefecture_kana": "アイチケン",
      "prefecture_code": 23,
      "city": "豊橋市",
      "city_kana": "トヨハシシ",
      "town": "岩田町影岩",
      "town_kana": "イワタチョウカゲイワ",
      "street": null,
      "office_name": null,
      "office_name_kana": null
    }
  ],
  "0024": [
    {
      "postcode": "4400024",
      "prefecture": "愛知県",
      "prefecture_kana": "アイチケン",
      "prefecture_code": 23,
      "city": "豊橋市",
      "city_kana": "トヨハシシ",
      "town": "東田町",
      "town_kana": "アズマダチョウ",
      "street": null,
      "office_name": null,
      "office_name_kana": null
    },
    {
      "postcode": "4400024",
      "prefecture": "愛知県",
      "prefecture_kana": "アイチケン",
      "prefecture_code": 23,
      "city": "豊橋市",
      "city_kana": "トヨハシシ",
      "town": "東田町井原",
      "town_kana": "アズマダチョウイハラ",
      "street": null,
      "office_name": null,
      "office_name_kana": null
    }
  ],
  "0025": {
    "postcode": "4400025",
    "prefecture": "愛知県",
    "prefecture_kana": "アイチケン",
    "prefecture_code": 23,
    "city": "豊橋市",
    "city_kana": "トヨハシシ",
    "town": "井原町",
    "town_kana": "イハラチョウ",
    "street": null,
    "office_name": null,
    "office_name_kana": null
  },
  "0026": {
    "postcode": "4400026",
    "prefecture": "愛知県",
    "prefecture_kana": "アイチケン",
    "prefecture_code": 23,
    "city": "豊橋市",
    "city_kana": "トヨハシシ",
    "town": "多米西町",
    "town_kana": "タメニシマチ",
    "street": null,
    "office_name": null,
    "office_name_kana": null
  },
  "0027": {
    "postcode": "4400027",
    "prefecture": "愛知県",
    "prefecture_kana": "アイチケン",
    "prefecture_code": 23,
    "city": "豊橋市",
    "city_kana": "トヨハシシ",
    "town": "多米中町",
    "town_kana": "タメナカマチ",
    "street": null,
    "office_name": null,
    "office_name_kana": null
  },
  "0028": {
    "postcode": "4400028",
    "prefecture": "愛知県",
    "prefecture_kana": "アイチケン",
    "prefecture_code": 23,
    "city": "豊橋市",
    "city_kana": "トヨハシシ",
    "town": "多米東町",
    "town_kana": "タメヒガシマチ",
    "street": null,
    "office_name": null,
    "office_name_kana": null
  },
  "0031": {
    "postcode": "4400031",
    "prefecture": "愛知県",
    "prefecture_kana": "アイチケン",
    "prefecture_code": 23,
    "city": "豊橋市",
    "city_kana": "トヨハシシ",
    "town": "北岩田",
    "town_kana": "キタイワタ",
    "street": null,
    "office_name": null,
    "office_name_kana": null
  },
  "0032": [
    {
      "postcode": "4400032",
      "prefecture": "愛知県",
      "prefecture_kana": "アイチケン",
      "prefecture_code": 23,
      "city": "豊橋市",
      "city_kana": "トヨハシシ",
      "town": "岩田町",
      "town_kana": "イワタチョウ",
      "street": null,
      "office_name": null,
      "office_name_kana": null
    },
    {
      "postcode": "4400032",
      "prefecture": "愛知県",
      "prefecture_kana": "アイチケン",
      "prefecture_code": 23,
      "city": "豊橋市",
      "city_kana": "トヨハシシ",
      "town": "岩田町居村",
      "town_kana": "イワタチョウイムラ",
      "street": null,
      "office_name": null,
      "office_name_kana": null
    },
    {
      "postcode": "4400032",
      "prefecture": "愛知県",
      "prefecture_kana": "アイチケン",
      "prefecture_code": 23,
      "city": "豊橋市",
      "city_kana": "トヨハシシ",
      "town": "岩田町北郷中",
      "town_kana": "イワタチョウキタゴウナカ",
      "street": null,
      "office_name": null,
      "office_name_kana": null
    }
  ],
  "0033": {
    "postcode": "4400033",
    "prefecture": "愛知県",
    "prefecture_kana": "アイチケン",
    "prefecture_code": 23,
    "city": "豊橋市",
    "city_kana": "トヨハシシ",
    "town": "東岩田",
    "town_kana": "ヒガシイワタ",
    "street": null,
    "office_name": null,
    "office_name_kana": null
  },
  "0034": {
    "postcode": "4400034",
    "prefecture": "愛知県",
    "prefecture_kana": "アイチケン",
    "prefecture_code": 23,
    "city": "豊橋市",
    "city_kana": "トヨハシシ",
    "town": "豊岡町",
    "town_kana": "トヨオカチョウ",
    "street": null,
    "office_name": null,
    "office_name_kana": null
  },
  "0035": {
    "postcode": "4400035",
    "prefecture": "愛知県",
    "prefecture_kana": "アイチケン",
    "prefecture_code": 23,
    "city": "豊橋市",
    "city_kana": "トヨハシシ",
    "town": "平川南町",
    "town_kana": "ヒラカワミナミマチ",
    "street": null,
    "office_name": null,
    "office_name_kana": null
  },
  "0036": {
    "postcode": "4400036",
    "prefecture": "愛知県",
    "prefecture_kana": "アイチケン",
    "prefecture_code": 23,
    "city": "豊橋市",
    "city_kana": "トヨハシシ",
    "town": "東光町",
    "town_kana": "トウコウチョウ",
    "street": null,
    "office_name": null,
    "office_name_kana": null
  },
  "0037": {
    "postcode": "4400037",
    "prefecture": "愛知県",
    "prefecture_kana": "アイチケン",
    "prefecture_code": 23,
    "city": "豊橋市",
    "city_kana": "トヨハシシ",
    "town": "平川町",
    "town_kana": "ヒラカワチョウ",
    "street": null,
    "office_name": null,
    "office_name_kana": null
  },
  "0038": {
    "postcode": "4400038",
    "prefecture": "愛知県",
    "prefecture_kana": "アイチケン",
    "prefecture_code": 23,
    "city": "豊橋市",
    "city_kana": "トヨハシシ",
    "town": "平川本町",
    "town_kana": "ヒラカワホンマチ",
    "street": null,
    "office_name": null,
    "office_name_kana": null
  },
  "0041": [
    {
      "postcode": "4400041",
      "prefecture": "愛知県",
      "prefecture_kana": "アイチケン",
      "prefecture_code": 23,
      "city": "豊橋市",
      "city_kana": "トヨハシシ",
      "town": "岩田町",
      "town_kana": "イワタチョウ",
      "street": null,
      "office_name": null,
      "office_name_kana": null
    },
    {
      "postcode": "4400041",
      "prefecture": "愛知県",
      "prefecture_kana": "アイチケン",
      "prefecture_code": 23,
      "city": "豊橋市",
      "city_kana": "トヨハシシ",
      "town": "岩田町宮下",
      "town_kana": "イワタチョウミヤシタ",
      "street": null,
      "office_name": null,
      "office_name_kana": null
    },
    {
      "postcode": "4400041",
      "prefecture": "愛知県",
      "prefecture_kana": "アイチケン",
      "prefecture_code": 23,
      "city": "豊橋市",
      "city_kana": "トヨハシシ",
      "town": "岩田町道合",
      "town_kana": "イワタチョウミチアイ",
      "street": null,
      "office_name": null,
      "office_name_kana": null
    }
  ],
  "0042": {
    "postcode": "4400042",
    "prefecture": "愛知県",
    "prefecture_kana": "アイチケン",
    "prefecture_code": 23,
    "city": "豊橋市",
    "city_kana": "トヨハシシ",
    "town": "栄町",
    "town_kana": "サカエマチ",
    "street": null,
    "office_name": null,
    "office_name_kana": null
  },
  "0043": {
    "postcode": "4400043",
    "prefecture": "愛知県",
    "prefecture_kana": "アイチケン",
    "prefecture_code": 23,
    "city": "豊橋市",
    "city_kana": "トヨハシシ",
    "town": "朝丘町",
    "town_kana": "アサオカチョウ",
    "street": null,
    "office_name": null,
    "office_name_kana": null
  },
  "0044": {
    "postcode": "4400044",
    "prefecture": "愛知県",
    "prefecture_kana": "アイチケン",
    "prefecture_code": 23,
    "city": "豊橋市",
    "city_kana": "トヨハシシ",
    "town": "宮下町",
    "town_kana": "ミヤシタチョウ",
    "street": null,
    "office_name": null,
    "office_name_kana": null
  },
  "0045": {
    "postcode": "4400045",
    "prefecture": "愛知県",
    "prefecture_kana": "アイチケン",
    "prefecture_code": 23,
    "city": "豊橋市",
    "city_kana": "トヨハシシ",
    "town": "吾妻町",
    "town_kana": "アヅマチョウ",
    "street": null,
    "office_name": null,
    "office_name_kana": null
  },
  "0046": {
    "postcode": "4400046",
    "prefecture": "愛知県",
    "prefecture_kana": "アイチケン",
    "prefecture_code": 23,
    "city": "豊橋市",
    "city_kana": "トヨハシシ",
    "town": "仲ノ町",
    "town_kana": "ナカノマチ",
    "street": null,
    "office_name": null,
    "office_name_kana": null
  },
  "0047": {
    "postcode": "4400047",
    "prefecture": "愛知県",
    "prefecture_kana": "アイチケン",
    "prefecture_code": 23,
    "city": "豊橋市",
    "city_kana": "トヨハシシ",
    "town": "東田仲の町",
    "town_kana": "アズマダナカノマチ",
    "street": null,
    "office_name": null,
    "office_name_kana": null
  },
  "0048": {
    "postcode": "4400048",
    "prefecture": "愛知県",
    "prefecture_kana": "アイチケン",
    "prefecture_code": 23,
    "city": "豊橋市",
    "city_kana": "トヨハシシ",
    "town": "東田町",
    "town_kana": "アズマダチョウ",
    "street": null,
    "office_name": null,
    "office_name_kana": null
  },
  "0051": {
    "postcode": "4400051",
    "prefecture": "愛知県",
    "prefecture_kana": "アイチケン",
    "prefecture_code": 23,
    "city": "豊橋市",
    "city_kana": "トヨハシシ",
    "town": "東雲町",
    "town_kana": "シノノメチョウ",
    "street": null,
    "office_name": null,
    "office_name_kana": null
  },
  "0052": {
    "postcode": "4400052",
    "prefecture": "愛知県",
    "prefecture_kana": "アイチケン",
    "prefecture_code": 23,
    "city": "豊橋市",
    "city_kana": "トヨハシシ",
    "town": "住吉町",
    "town_kana": "スミヨシチョウ",
    "street": null,
    "office_name": null,
    "office_name_kana": null
  },
  "0053": {
    "postcode": "4400053",
    "prefecture": "愛知県",
    "prefecture_kana": "アイチケン",
    "prefecture_code": 23,
    "city": "豊橋市",
    "city_kana": "トヨハシシ",
    "town": "老松町",
    "town_kana": "オイマツチョウ",
    "street": null,
    "office_name": null,
    "office_name_kana": null
  },
  "0054": [
    {
      "postcode": "4400054",
      "prefecture": "愛知県",
      "prefecture_kana": "アイチケン",
      "prefecture_code": 23,
      "city": "豊橋市",
      "city_kana": "トヨハシシ",
      "town": "東田町",
      "town_kana": "アズマダチョウ",
      "street": null,
      "office_name": null,
      "office_name_kana": null
    },
    {
      "postcode": "4400054",
      "prefecture": "愛知県",
      "prefecture_kana": "アイチケン",
      "prefecture_code": 23,
      "city": "豊橋市",
      "city_kana": "トヨハシシ",
      "town": "東田町北蓮田",
      "town_kana": "アズマダチョウキタレンダ",
      "street": null,
      "office_name": null,
      "office_name_kana": null
    },
    {
      "postcode": "4400054",
      "prefecture": "愛知県",
      "prefecture_kana": "アイチケン",
      "prefecture_code": 23,
      "city": "豊橋市",
      "city_kana": "トヨハシシ",
      "town": "東田町東前山",
      "town_kana": "アズマダチョウヒガシマエヤマ",
      "street": null,
      "office_name": null,
      "office_name_kana": null
    },
    {
      "postcode": "4400054",
      "prefecture": "愛知県",
      "prefecture_kana": "アイチケン",
      "prefecture_code": 23,
      "city": "豊橋市",
      "city_kana": "トヨハシシ",
      "town": "東田町西前山",
      "town_kana": "アズマダチョウニシマエヤマ",
      "street": null,
      "office_name": null,
      "office_name_kana": null
    }
  ],
  "0055": {
    "postcode": "4400055",
    "prefecture": "愛知県",
    "prefecture_kana": "アイチケン",
    "prefecture_code": 23,
    "city": "豊橋市",
    "city_kana": "トヨハシシ",
    "town": "前畑町",
    "town_kana": "マエハタチョウ",
    "street": null,
    "office_name": null,
    "office_name_kana": null
  },
  "0056": {
    "postcode": "4400056",
    "prefecture": "愛知県",
    "prefecture_kana": "アイチケン",
    "prefecture_code": 23,
    "city": "豊橋市",
    "city_kana": "トヨハシシ",
    "town": "南旭町",
    "town_kana": "ミナミアサヒマチ",
    "street": null,
    "office_name": null,
    "office_name_kana": null
  },
  "0057": {
    "postcode": "4400057",
    "prefecture": "愛知県",
    "prefecture_kana": "アイチケン",
    "prefecture_code": 23,
    "city": "豊橋市",
    "city_kana": "トヨハシシ",
    "town": "旭町",
    "town_kana": "アサヒマチ",
    "street": null,
    "office_name": null,
    "office_name_kana": null
  },
  "0058": {
    "postcode": "4400058",
    "prefecture": "愛知県",
    "prefecture_kana": "アイチケン",
    "prefecture_code": 23,
    "city": "豊橋市",
    "city_kana": "トヨハシシ",
    "town": "旭本町",
    "town_kana": "アサヒホンマチ",
    "street": null,
    "office_name": null,
    "office_name_kana": null
  },
  "0061": {
    "postcode": "4400061",
    "prefecture": "愛知県",
    "prefecture_kana": "アイチケン",
    "prefecture_code": 23,
    "city": "豊橋市",
    "city_kana": "トヨハシシ",
    "town": "飽海町",
    "town_kana": "アクミチョウ",
    "street": null,
    "office_name": null,
    "office_name_kana": null
  },
  "0062": [
    {
      "postcode": "4400062",
      "prefecture": "愛知県",
      "prefecture_kana": "アイチケン",
      "prefecture_code": 23,
      "city": "豊橋市",
      "city_kana": "トヨハシシ",
      "town": "東田町",
      "town_kana": "アズマダチョウ",
      "street": null,
      "office_name": null,
      "office_name_kana": null
    },
    {
      "postcode": "4400062",
      "prefecture": "愛知県",
      "prefecture_kana": "アイチケン",
      "prefecture_code": 23,
      "city": "豊橋市",
      "city_kana": "トヨハシシ",
      "town": "東田町西郷",
      "town_kana": "アズマダチョウサイゴウ",
      "street": null,
      "office_name": null,
      "office_name_kana": null
    },
    {
      "postcode": "4400062",
      "prefecture": "愛知県",
      "prefecture_kana": "アイチケン",
      "prefecture_code": 23,
      "city": "豊橋市",
      "city_kana": "トヨハシシ",
      "town": "東田町中郷",
      "town_kana": "アズマダチョウナカゴウ",
      "street": null,
      "office_name": null,
      "office_name_kana": null
    },
    {
      "postcode": "4400062",
      "prefecture": "愛知県",
      "prefecture_kana": "アイチケン",
      "prefecture_code": 23,
      "city": "豊橋市",
      "city_kana": "トヨハシシ",
      "town": "東田町西脇",
      "town_kana": "アズマダチョウニシワキ",
      "street": null,
      "office_name": null,
      "office_name_kana": null
    }
  ],
  "0063": {
    "postcode": "4400063",
    "prefecture": "愛知県",
    "prefecture_kana": "アイチケン",
    "prefecture_code": 23,
    "city": "豊橋市",
    "city_kana": "トヨハシシ",
    "town": "東田中郷町",
    "town_kana": "アズマダナカゴウチョウ",
    "street": null,
    "office_name": null,
    "office_name_kana": null
  },
  "0064": {
    "postcode": "4400064",
    "prefecture": "愛知県",
    "prefecture_kana": "アイチケン",
    "prefecture_code": 23,
    "city": "豊橋市",
    "city_kana": "トヨハシシ",
    "town": "西郷町",
    "town_kana": "サイゴウチョウ",
    "street": null,
    "office_name": null,
    "office_name_kana": null
  },
  "0065": {
    "postcode": "4400065",
    "prefecture": "愛知県",
    "prefecture_kana": "アイチケン",
    "prefecture_code": 23,
    "city": "豊橋市",
    "city_kana": "トヨハシシ",
    "town": "仁連木町",
    "town_kana": "ニレンギチョウ",
    "street": null,
    "office_name": null,
    "office_name_kana": null
  },
  "0066": {
    "postcode": "4400066",
    "prefecture": "愛知県",
    "prefecture_kana": "アイチケン",
    "prefecture_code": 23,
    "city": "豊橋市",
    "city_kana": "トヨハシシ",
    "town": "東田町",
    "town_kana": "アズマダチョウ",
    "street": null,
    "office_name": null,
    "office_name_kana": null
  },
  "0067": {
    "postcode": "4400067",
    "prefecture": "愛知県",
    "prefecture_kana": "アイチケン",
    "prefecture_code": 23,
    "city": "豊橋市",
    "city_kana": "トヨハシシ",
    "town": "上地町",
    "town_kana": "ウエジチョウ",
    "street": null,
    "office_name": null,
    "office_name_kana": null
  },
  "0068": {
    "postcode": "4400068",
    "prefecture": "愛知県",
    "prefecture_kana": "アイチケン",
    "prefecture_code": 23,
    "city": "豊橋市",
    "city_kana": "トヨハシシ",
    "town": "東郷町",
    "town_kana": "トウゴウチョウ",
    "street": null,
    "office_name": null,
    "office_name_kana": null
  },
  "0069": {
    "postcode": "4400069",
    "prefecture": "愛知県",
    "prefecture_kana": "アイチケン",
    "prefecture_code": 23,
    "city": "豊橋市",
    "city_kana": "トヨハシシ",
    "town": "御園町",
    "town_kana": "ミソノチョウ",
    "street": null,
    "office_name": null,
    "office_name_kana": null
  },
  "0071": {
    "postcode": "4400071",
    "prefecture": "愛知県",
    "prefecture_kana": "アイチケン",
    "prefecture_code": 23,
    "city": "豊橋市",
    "city_kana": "トヨハシシ",
    "town": "北島町",
    "town_kana": "キタジマチョウ",
    "street": null,
    "office_name": null,
    "office_name_kana": null
  },
  "0072": {
    "postcode": "4400072",
    "prefecture": "愛知県",
    "prefecture_kana": "アイチケン",
    "prefecture_code": 23,
    "city": "豊橋市",
    "city_kana": "トヨハシシ",
    "town": "船町",
    "town_kana": "フナマチ",
    "street": null,
    "office_name": null,
    "office_name_kana": null
  },
  "0073": {
    "postcode": "4400073",
    "prefecture": "愛知県",
    "prefecture_kana": "アイチケン",
    "prefecture_code": 23,
    "city": "豊橋市",
    "city_kana": "トヨハシシ",
    "town": "湊町",
    "town_kana": "ミナトマチ",
    "street": null,
    "office_name": null,
    "office_name_kana": null
  },
  "0074": {
    "postcode": "4400074",
    "prefecture": "愛知県",
    "prefecture_kana": "アイチケン",
    "prefecture_code": 23,
    "city": "豊橋市",
    "city_kana": "トヨハシシ",
    "town": "上伝馬町",
    "town_kana": "カミデンマチョウ",
    "street": null,
    "office_name": null,
    "office_name_kana": null
  },
  "0075": [
    {
      "postcode": "4400075",
      "prefecture": "愛知県",
      "prefecture_kana": "アイチケン",
      "prefecture_code": 23,
      "city": "豊橋市",
      "city_kana": "トヨハシシ",
      "town": "花田町",
      "town_kana": "ハナダチョウ",
      "street": null,
      "office_name": null,
      "office_name_kana": null
    },
    {
      "postcode": "4400075",
      "prefecture": "愛知県",
      "prefecture_kana": "アイチケン",
      "prefecture_code": 23,
      "city": "豊橋市",
      "city_kana": "トヨハシシ",
      "town": "花田町石塚",
      "town_kana": "ハナダチョウイシヅカ",
      "street": null,
      "office_name": null,
      "office_name_kana": null
    },
    {
      "postcode": "4400075",
      "prefecture": "愛知県",
      "prefecture_kana": "アイチケン",
      "prefecture_code": 23,
      "city": "豊橋市",
      "city_kana": "トヨハシシ",
      "town": "花田町官有地",
      "town_kana": "ハナダチョウカンユウチ",
      "street": null,
      "office_name": null,
      "office_name_kana": null
    },
    {
      "postcode": "4400075",
      "prefecture": "愛知県",
      "prefecture_kana": "アイチケン",
      "prefecture_code": 23,
      "city": "豊橋市",
      "city_kana": "トヨハシシ",
      "town": "花田町西宿",
      "town_kana": "ハナダチョウニシジュク",
      "street": null,
      "office_name": null,
      "office_name_kana": null
    }
  ],
  "0076": {
    "postcode": "4400076",
    "prefecture": "愛知県",
    "prefecture_kana": "アイチケン",
    "prefecture_code": 23,
    "city": "豊橋市",
    "city_kana": "トヨハシシ",
    "town": "大橋通",
    "town_kana": "オオハシドオリ",
    "street": null,
    "office_name": null,
    "office_name_kana": null
  },
  "0077": {
    "postcode": "4400077",
    "prefecture": "愛知県",
    "prefecture_kana": "アイチケン",
    "prefecture_code": 23,
    "city": "豊橋市",
    "city_kana": "トヨハシシ",
    "town": "南島町",
    "town_kana": "ミナミジマチョウ",
    "street": null,
    "office_name": null,
    "office_name_kana": null
  },
  "0078": {
    "postcode": "4400078",
    "prefecture": "愛知県",
    "prefecture_kana": "アイチケン",
    "prefecture_code": 23,
    "city": "豊橋市",
    "city_kana": "トヨハシシ",
    "town": "絹田町",
    "town_kana": "キヌタチョウ",
    "street": null,
    "office_name": null,
    "office_name_kana": null
  },
  "0081": {
    "postcode": "4400081",
    "prefecture": "愛知県",
    "prefecture_kana": "アイチケン",
    "prefecture_code": 23,
    "city": "豊橋市",
    "city_kana": "トヨハシシ",
    "town": "大村町",
    "town_kana": "オオムラチョウ",
    "street": null,
    "office_name": null,
    "office_name_kana": null
  },
  "0082": {
    "postcode": "4400082",
    "prefecture": "愛知県",
    "prefecture_kana": "アイチケン",
    "prefecture_code": 23,
    "city": "豊橋市",
    "city_kana": "トヨハシシ",
    "town": "長瀬町",
    "town_kana": "ナガセチョウ",
    "street": null,
    "office_name": null,
    "office_name_kana": null
  },
  "0083": [
    {
      "postcode": "4400083",
      "prefecture": "愛知県",
      "prefecture_kana": "アイチケン",
      "prefecture_code": 23,
      "city": "豊橋市",
      "city_kana": "トヨハシシ",
      "town": "下地町",
      "town_kana": "シモジチョウ",
      "street": null,
      "office_name": null,
      "office_name_kana": null
    },
    {
      "postcode": "4400083",
      "prefecture": "愛知県",
      "prefecture_kana": "アイチケン",
      "prefecture_code": 23,
      "city": "豊橋市",
      "city_kana": "トヨハシシ",
      "town": "下地町大圦",
      "town_kana": "シモジチョウオオイリ",
      "street": null,
      "office_name": null,
      "office_name_kana": null
    },
    {
      "postcode": "4400083",
      "prefecture": "愛知県",
      "prefecture_kana": "アイチケン",
      "prefecture_code": 23,
      "city": "豊橋市",
      "city_kana": "トヨハシシ",
      "town": "下地町北村",
      "town_kana": "シモジチョウキタムラ",
      "street": null,
      "office_name": null,
      "office_name_kana": null
    },
    {
      "postcode": "4400083",
      "prefecture": "愛知県",
      "prefecture_kana": "アイチケン",
      "prefecture_code": 23,
      "city": "豊橋市",
      "city_kana": "トヨハシシ",
      "town": "下地町操穴",
      "town_kana": "シモジチョウクリアナ",
      "street": null,
      "office_name": null,
      "office_name_kana": null
    },
    {
      "postcode": "4400083",
      "prefecture": "愛知県",
      "prefecture_kana": "アイチケン",
      "prefecture_code": 23,
      "city": "豊橋市",
      "city_kana": "トヨハシシ",
      "town": "下地町五貫",
      "town_kana": "シモジチョウゴカン",
      "street": null,
      "office_name": null,
      "office_name_kana": null
    },
    {
      "postcode": "4400083",
      "prefecture": "愛知県",
      "prefecture_kana": "アイチケン",
      "prefecture_code": 23,
      "city": "豊橋市",
      "city_kana": "トヨハシシ",
      "town": "下地町境田",
      "town_kana": "シモジチョウサカイダ",
      "street": null,
      "office_name": null,
      "office_name_kana": null
    },
    {
      "postcode": "4400083",
      "prefecture": "愛知県",
      "prefecture_kana": "アイチケン",
      "prefecture_code": 23,
      "city": "豊橋市",
      "city_kana": "トヨハシシ",
      "town": "下地町天神",
      "town_kana": "シモジチョウテンジン",
      "street": null,
      "office_name": null,
      "office_name_kana": null
    },
    {
      "postcode": "4400083",
      "prefecture": "愛知県",
      "prefecture_kana": "アイチケン",
      "prefecture_code": 23,
      "city": "豊橋市",
      "city_kana": "トヨハシシ",
      "town": "下地町野箱",
      "town_kana": "シモジチョウノバコ",
      "street": null,
      "office_name": null,
      "office_name_kana": null
    },
    {
      "postcode": "4400083",
      "prefecture": "愛知県",
      "prefecture_kana": "アイチケン",
      "prefecture_code": 23,
      "city": "豊橋市",
      "city_kana": "トヨハシシ",
      "town": "下地町柳目",
      "town_kana": "シモジチョウヤナメ",
      "street": null,
      "office_name": null,
      "office_name_kana": null
    },
    {
      "postcode": "4400083",
      "prefecture": "愛知県",
      "prefecture_kana": "アイチケン",
      "prefecture_code": 23,
      "city": "豊橋市",
      "city_kana": "トヨハシシ",
      "town": "下地町横山",
      "town_kana": "シモジチョウヨコヤマ",
      "street": null,
      "office_name": null,
      "office_name_kana": null
    },
    {
      "postcode": "4400083",
      "prefecture": "愛知県",
      "prefecture_kana": "アイチケン",
      "prefecture_code": 23,
      "city": "豊橋市",
      "city_kana": "トヨハシシ",
      "town": "下地町若宮",
      "town_kana": "シモジチョウワカミヤ",
      "street": null,
      "office_name": null,
      "office_name_kana": null
    }
  ],
  "0084": [
    {
      "postcode": "4400084",
      "prefecture": "愛知県",
      "prefecture_kana": "アイチケン",
      "prefecture_code": 23,
      "city": "豊橋市",
      "city_kana": "トヨハシシ",
      "town": "下地町",
      "town_kana": "シモジチョウ",
      "street": null,
      "office_name": null,
      "office_name_kana": null
    },
    {
      "postcode": "4400084",
      "prefecture": "愛知県",
      "prefecture_kana": "アイチケン",
      "prefecture_code": 23,
      "city": "豊橋市",
      "city_kana": "トヨハシシ",
      "town": "下地町神田",
      "town_kana": "シモジチョウカンダ",
      "street": null,
      "office_name": null,
      "office_name_kana": null
    },
    {
      "postcode": "4400084",
      "prefecture": "愛知県",
      "prefecture_kana": "アイチケン",
      "prefecture_code": 23,
      "city": "豊橋市",
      "city_kana": "トヨハシシ",
      "town": "下地町瀬上",
      "town_kana": "シモジチョウセガミ",
      "street": null,
      "office_name": null,
      "office_name_kana": null
    },
    {
      "postcode": "4400084",
      "prefecture": "愛知県",
      "prefecture_kana": "アイチケン",
      "prefecture_code": 23,
      "city": "豊橋市",
      "city_kana": "トヨハシシ",
      "town": "下地町緑",
      "town_kana": "シモジチョウミドリ",
      "street": null,
      "office_name": null,
      "office_name_kana": null
    },
    {
      "postcode": "4400084",
      "prefecture": "愛知県",
      "prefecture_kana": "アイチケン",
      "prefecture_code": 23,
      "city": "豊橋市",
      "city_kana": "トヨハシシ",
      "town": "下地町",
      "town_kana": "シモジチョウ",
      "street": null,
      "office_name": null,
      "office_name_kana": null
    },
    {
      "postcode": "4400084",
      "prefecture": "愛知県",
      "prefecture_kana": "アイチケン",
      "prefecture_code": 23,
      "city": "豊橋市",
      "city_kana": "トヨハシシ",
      "town": "下地町宮腰",
      "town_kana": "シモジチョウミヤコシ",
      "street": null,
      "office_name": null,
      "office_name_kana": null
    }
  ],
  "0085": {
    "postcode": "4400085",
    "prefecture": "愛知県",
    "prefecture_kana": "アイチケン",
    "prefecture_code": 23,
    "city": "豊橋市",
    "city_kana": "トヨハシシ",
    "town": "下地町",
    "town_kana": "シモジチョウ",
    "street": null,
    "office_name": null,
    "office_name_kana": null
  },
  "0086": {
    "postcode": "4400086",
    "prefecture": "愛知県",
    "prefecture_kana": "アイチケン",
    "prefecture_code": 23,
    "city": "豊橋市",
    "city_kana": "トヨハシシ",
    "town": "下地町",
    "town_kana": "シモジチョウ",
    "street": null,
    "office_name": null,
    "office_name_kana": null
  },
  "0091": {
    "postcode": "4400091",
    "prefecture": "愛知県",
    "prefecture_kana": "アイチケン",
    "prefecture_code": 23,
    "city": "豊橋市",
    "city_kana": "トヨハシシ",
    "town": "下五井町",
    "town_kana": "シモゴイチョウ",
    "street": null,
    "office_name": null,
    "office_name_kana": null
  },
  "0092": {
    "postcode": "4400092",
    "prefecture": "愛知県",
    "prefecture_kana": "アイチケン",
    "prefecture_code": 23,
    "city": "豊橋市",
    "city_kana": "トヨハシシ",
    "town": "瓜郷町",
    "town_kana": "ウリゴウチョウ",
    "street": null,
    "office_name": null,
    "office_name_kana": null
  },
  "0093": {
    "postcode": "4400093",
    "prefecture": "愛知県",
    "prefecture_kana": "アイチケン",
    "prefecture_code": 23,
    "city": "豊橋市",
    "city_kana": "トヨハシシ",
    "town": "横須賀町",
    "town_kana": "ヨコスカチョウ",
    "street": null,
    "office_name": null,
    "office_name_kana": null
  },
  "0094": {
    "postcode": "4400094",
    "prefecture": "愛知県",
    "prefecture_kana": "アイチケン",
    "prefecture_code": 23,
    "city": "豊橋市",
    "city_kana": "トヨハシシ",
    "town": "川崎町",
    "town_kana": "カワサキチョウ",
    "street": null,
    "office_name": null,
    "office_name_kana": null
  },
  "0095": {
    "postcode": "4400095",
    "prefecture": "愛知県",
    "prefecture_kana": "アイチケン",
    "prefecture_code": 23,
    "city": "豊橋市",
    "city_kana": "トヨハシシ",
    "town": "清須町",
    "town_kana": "キヨスチョウ",
    "street": null,
    "office_name": null,
    "office_name_kana": null
  },
  "0801": {
    "postcode": "4400801",
    "prefecture": "愛知県",
    "prefecture_kana": "アイチケン",
    "prefecture_code": 23,
    "city": "豊橋市",
    "city_kana": "トヨハシシ",
    "town": "今橋町",
    "town_kana": "イマハシチョウ",
    "street": null,
    "office_name": null,
    "office_name_kana": null
  },
  "0802": {
    "postcode": "4400802",
    "prefecture": "愛知県",
    "prefecture_kana": "アイチケン",
    "prefecture_code": 23,
    "city": "豊橋市",
    "city_kana": "トヨハシシ",
    "town": "鍛冶町",
    "town_kana": "カジマチ",
    "street": null,
    "office_name": null,
    "office_name_kana": null
  },
  "0803": {
    "postcode": "4400803",
    "prefecture": "愛知県",
    "prefecture_kana": "アイチケン",
    "prefecture_code": 23,
    "city": "豊橋市",
    "city_kana": "トヨハシシ",
    "town": "曲尺手町",
    "town_kana": "カネンテチョウ",
    "street": null,
    "office_name": null,
    "office_name_kana": null
  },
  "0804": {
    "postcode": "4400804",
    "prefecture": "愛知県",
    "prefecture_kana": "アイチケン",
    "prefecture_code": 23,
    "city": "豊橋市",
    "city_kana": "トヨハシシ",
    "town": "呉服町",
    "town_kana": "ゴフクマチ",
    "street": null,
    "office_name": null,
    "office_name_kana": null
  },
  "0805": {
    "postcode": "4400805",
    "prefecture": "愛知県",
    "prefecture_kana": "アイチケン",
    "prefecture_code": 23,
    "city": "豊橋市",
    "city_kana": "トヨハシシ",
    "town": "大手町",
    "town_kana": "オオテマチ",
    "street": null,
    "office_name": null,
    "office_name_kana": null
  },
  "0806": {
    "postcode": "4400806",
    "prefecture": "愛知県",
    "prefecture_kana": "アイチケン",
    "prefecture_code": 23,
    "city": "豊橋市",
    "city_kana": "トヨハシシ",
    "town": "八町通",
    "town_kana": "ハッチョウドオリ",
    "street": null,
    "office_name": null,
    "office_name_kana": null
  },
  "0811": {
    "postcode": "4400811",
    "prefecture": "愛知県",
    "prefecture_kana": "アイチケン",
    "prefecture_code": 23,
    "city": "豊橋市",
    "city_kana": "トヨハシシ",
    "town": "西新町",
    "town_kana": "ニシシンマチ",
    "street": null,
    "office_name": null,
    "office_name_kana": null
  },
  "0812": {
    "postcode": "4400812",
    "prefecture": "愛知県",
    "prefecture_kana": "アイチケン",
    "prefecture_code": 23,
    "city": "豊橋市",
    "city_kana": "トヨハシシ",
    "town": "東新町",
    "town_kana": "ヒガシシンマチ",
    "street": null,
    "office_name": null,
    "office_name_kana": null
  },
  "0813": {
    "postcode": "4400813",
    "prefecture": "愛知県",
    "prefecture_kana": "アイチケン",
    "prefecture_code": 23,
    "city": "豊橋市",
    "city_kana": "トヨハシシ",
    "town": "舟原町",
    "town_kana": "フナハラチョウ",
    "street": null,
    "office_name": null,
    "office_name_kana": null
  },
  "0814": {
    "postcode": "4400814",
    "prefecture": "愛知県",
    "prefecture_kana": "アイチケン",
    "prefecture_code": 23,
    "city": "豊橋市",
    "city_kana": "トヨハシシ",
    "town": "前田町",
    "town_kana": "マエダチョウ",
    "street": null,
    "office_name": null,
    "office_name_kana": null
  },
  "0815": {
    "postcode": "4400815",
    "prefecture": "愛知県",
    "prefecture_kana": "アイチケン",
    "prefecture_code": 23,
    "city": "豊橋市",
    "city_kana": "トヨハシシ",
    "town": "中世古町",
    "town_kana": "ナカセコチョウ",
    "street": null,
    "office_name": null,
    "office_name_kana": null
  },
  "0816": {
    "postcode": "4400816",
    "prefecture": "愛知県",
    "prefecture_kana": "アイチケン",
    "prefecture_code": 23,
    "city": "豊橋市",
    "city_kana": "トヨハシシ",
    "town": "談合町",
    "town_kana": "ダンゴウチョウ",
    "street": null,
    "office_name": null,
    "office_name_kana": null
  },
  "0821": {
    "postcode": "4400821",
    "prefecture": "愛知県",
    "prefecture_kana": "アイチケン",
    "prefecture_code": 23,
    "city": "豊橋市",
    "city_kana": "トヨハシシ",
    "town": "春日町",
    "town_kana": "カスガチョウ",
    "street": null,
    "office_name": null,
    "office_name_kana": null
  },
  "0822": {
    "postcode": "4400822",
    "prefecture": "愛知県",
    "prefecture_kana": "アイチケン",
    "prefecture_code": 23,
    "city": "豊橋市",
    "city_kana": "トヨハシシ",
    "town": "伝馬町",
    "town_kana": "デンマチョウ",
    "street": null,
    "office_name": null,
    "office_name_kana": null
  },
  "0823": {
    "postcode": "4400823",
    "prefecture": "愛知県",
    "prefecture_kana": "アイチケン",
    "prefecture_code": 23,
    "city": "豊橋市",
    "city_kana": "トヨハシシ",
    "town": "南瓦町",
    "town_kana": "ミナミカワラマチ",
    "street": null,
    "office_name": null,
    "office_name_kana": null
  },
  "0824": {
    "postcode": "4400824",
    "prefecture": "愛知県",
    "prefecture_kana": "アイチケン",
    "prefecture_code": 23,
    "city": "豊橋市",
    "city_kana": "トヨハシシ",
    "town": "瓦町通",
    "town_kana": "カワラマチドオリ",
    "street": null,
    "office_name": null,
    "office_name_kana": null
  },
  "0825": {
    "postcode": "4400825",
    "prefecture": "愛知県",
    "prefecture_kana": "アイチケン",
    "prefecture_code": 23,
    "city": "豊橋市",
    "city_kana": "トヨハシシ",
    "town": "瓦町",
    "town_kana": "カワラマチ",
    "street": null,
    "office_name": null,
    "office_name_kana": null
  },
  "0826": {
    "postcode": "4400826",
    "prefecture": "愛知県",
    "prefecture_kana": "アイチケン",
    "prefecture_code": 23,
    "city": "豊橋市",
    "city_kana": "トヨハシシ",
    "town": "大井町",
    "town_kana": "オオイチョウ",
    "street": null,
    "office_name": null,
    "office_name_kana": null
  },
  "0827": {
    "postcode": "4400827",
    "prefecture": "愛知県",
    "prefecture_kana": "アイチケン",
    "prefecture_code": 23,
    "city": "豊橋市",
    "city_kana": "トヨハシシ",
    "town": "池見町",
    "town_kana": "イケミチョウ",
    "street": null,
    "office_name": null,
    "office_name_kana": null
  },
  "0831": {
    "postcode": "4400831",
    "prefecture": "愛知県",
    "prefecture_kana": "アイチケン",
    "prefecture_code": 23,
    "city": "豊橋市",
    "city_kana": "トヨハシシ",
    "town": "西岩田",
    "town_kana": "ニシイワタ",
    "street": null,
    "office_name": null,
    "office_name_kana": null
  },
  "0832": [
    {
      "postcode": "4400832",
      "prefecture": "愛知県",
      "prefecture_kana": "アイチケン",
      "prefecture_code": 23,
      "city": "豊橋市",
      "city_kana": "トヨハシシ",
      "town": "岩田町",
      "town_kana": "イワタチョウ",
      "street": null,
      "office_name": null,
      "office_name_kana": null
    },
    {
      "postcode": "4400832",
      "prefecture": "愛知県",
      "prefecture_kana": "アイチケン",
      "prefecture_code": 23,
      "city": "豊橋市",
      "city_kana": "トヨハシシ",
      "town": "中岩田",
      "town_kana": "ナカイワタ",
      "street": null,
      "office_name": null,
      "office_name_kana": null
    }
  ],
  "0833": [
    {
      "postcode": "4400833",
      "prefecture": "愛知県",
      "prefecture_kana": "アイチケン",
      "prefecture_code": 23,
      "city": "豊橋市",
      "city_kana": "トヨハシシ",
      "town": "飯村町",
      "town_kana": "イムレチョウ",
      "street": null,
      "office_name": null,
      "office_name_kana": null
    },
    {
      "postcode": "4400833",
      "prefecture": "愛知県",
      "prefecture_kana": "アイチケン",
      "prefecture_code": 23,
      "city": "豊橋市",
      "city_kana": "トヨハシシ",
      "town": "飯村町西山",
      "town_kana": "イムレチョウニシヤマ",
      "street": null,
      "office_name": null,
      "office_name_kana": null
    },
    {
      "postcode": "4400833",
      "prefecture": "愛知県",
      "prefecture_kana": "アイチケン",
      "prefecture_code": 23,
      "city": "豊橋市",
      "city_kana": "トヨハシシ",
      "town": "飯村町高山",
      "town_kana": "イムレチョウタカヤマ",
      "street": null,
      "office_name": null,
      "office_name_kana": null
    }
  ],
  "0834": {
    "postcode": "4400834",
    "prefecture": "愛知県",
    "prefecture_kana": "アイチケン",
    "prefecture_code": 23,
    "city": "豊橋市",
    "city_kana": "トヨハシシ",
    "town": "飯村北",
    "town_kana": "イムレキタ",
    "street": null,
    "office_name": null,
    "office_name_kana": null
  },
  "0835": {
    "postcode": "4400835",
    "prefecture": "愛知県",
    "prefecture_kana": "アイチケン",
    "prefecture_code": 23,
    "city": "豊橋市",
    "city_kana": "トヨハシシ",
    "town": "飯村南",
    "town_kana": "イムレミナミ",
    "street": null,
    "office_name": null,
    "office_name_kana": null
  },
  "0836": {
    "postcode": "4400836",
    "prefecture": "愛知県",
    "prefecture_kana": "アイチケン",
    "prefecture_code": 23,
    "city": "豊橋市",
    "city_kana": "トヨハシシ",
    "town": "飯村町",
    "town_kana": "イムレチョウ",
    "street": null,
    "office_name": null,
    "office_name_kana": null
  },
  "0837": [
    {
      "postcode": "4400837",
      "prefecture": "愛知県",
      "prefecture_kana": "アイチケン",
      "prefecture_code": 23,
      "city": "豊橋市",
      "city_kana": "トヨハシシ",
      "town": "三ノ輪町本興寺",
      "town_kana": "ミノワチョウホンコウジ",
      "street": null,
      "office_name": null,
      "office_name_kana": null
    },
    {
      "postcode": "4400837",
      "prefecture": "愛知県",
      "prefecture_kana": "アイチケン",
      "prefecture_code": 23,
      "city": "豊橋市",
      "city_kana": "トヨハシシ",
      "town": "三ノ輪町三ノ輪",
      "town_kana": "ミノワチョウミノワ",
      "street": null,
      "office_name": null,
      "office_name_kana": null
    }
  ],
  "0838": {
    "postcode": "4400838",
    "prefecture": "愛知県",
    "prefecture_kana": "アイチケン",
    "prefecture_code": 23,
    "city": "豊橋市",
    "city_kana": "トヨハシシ",
    "town": "三ノ輪町",
    "town_kana": "ミノワチョウ",
    "street": null,
    "office_name": null,
    "office_name_kana": null
  },
  "0841": {
    "postcode": "4400841",
    "prefecture": "愛知県",
    "prefecture_kana": "アイチケン",
    "prefecture_code": 23,
    "city": "豊橋市",
    "city_kana": "トヨハシシ",
    "town": "西口町",
    "town_kana": "ニシグチチョウ",
    "street": null,
    "office_name": null,
    "office_name_kana": null
  },
  "0842": {
    "postcode": "4400842",
    "prefecture": "愛知県",
    "prefecture_kana": "アイチケン",
    "prefecture_code": 23,
    "city": "豊橋市",
    "city_kana": "トヨハシシ",
    "town": "岩屋町",
    "town_kana": "イワヤチョウ",
    "street": null,
    "office_name": null,
    "office_name_kana": null
  },
  "0843": {
    "postcode": "4400843",
    "prefecture": "愛知県",
    "prefecture_kana": "アイチケン",
    "prefecture_code": 23,
    "city": "豊橋市",
    "city_kana": "トヨハシシ",
    "town": "東幸町",
    "town_kana": "ヒガシミユキチョウ",
    "street": null,
    "office_name": null,
    "office_name_kana": null
  },
  "0844": [
    {
      "postcode": "4400844",
      "prefecture": "愛知県",
      "prefecture_kana": "アイチケン",
      "prefecture_code": 23,
      "city": "豊橋市",
      "city_kana": "トヨハシシ",
      "town": "高師町",
      "town_kana": "タカシチョウ",
      "street": null,
      "office_name": null,
      "office_name_kana": null
    },
    {
      "postcode": "4400844",
      "prefecture": "愛知県",
      "prefecture_kana": "アイチケン",
      "prefecture_code": 23,
      "city": "豊橋市",
      "city_kana": "トヨハシシ",
      "town": "高師町奥山田",
      "town_kana": "タカシチョウオクヤマダ",
      "street": null,
      "office_name": null,
      "office_name_kana": null
    },
    {
      "postcode": "4400844",
      "prefecture": "愛知県",
      "prefecture_kana": "アイチケン",
      "prefecture_code": 23,
      "city": "豊橋市",
      "city_kana": "トヨハシシ",
      "town": "高師町清水",
      "town_kana": "タカシチョウシミズ",
      "street": null,
      "office_name": null,
      "office_name_kana": null
    },
    {
      "postcode": "4400844",
      "prefecture": "愛知県",
      "prefecture_kana": "アイチケン",
      "prefecture_code": 23,
      "city": "豊橋市",
      "city_kana": "トヨハシシ",
      "town": "高師町水神",
      "town_kana": "タカシチョウスイジン",
      "street": null,
      "office_name": null,
      "office_name_kana": null
    },
    {
      "postcode": "4400844",
      "prefecture": "愛知県",
      "prefecture_kana": "アイチケン",
      "prefecture_code": 23,
      "city": "豊橋市",
      "city_kana": "トヨハシシ",
      "town": "高師町丸田",
      "town_kana": "タカシチョウマルダ",
      "street": null,
      "office_name": null,
      "office_name_kana": null
    }
  ],
  "0845": [
    {
      "postcode": "4400845",
      "prefecture": "愛知県",
      "prefecture_kana": "アイチケン",
      "prefecture_code": 23,
      "city": "豊橋市",
      "city_kana": "トヨハシシ",
      "town": "高師町",
      "town_kana": "タカシチョウ",
      "street": null,
      "office_name": null,
      "office_name_kana": null
    },
    {
      "postcode": "4400845",
      "prefecture": "愛知県",
      "prefecture_kana": "アイチケン",
      "prefecture_code": 23,
      "city": "豊橋市",
      "city_kana": "トヨハシシ",
      "town": "高師町北原",
      "town_kana": "タカシチョウキタハラ",
      "street": null,
      "office_name": null,
      "office_name_kana": null
    },
    {
      "postcode": "4400845",
      "prefecture": "愛知県",
      "prefecture_kana": "アイチケン",
      "prefecture_code": 23,
      "city": "豊橋市",
      "city_kana": "トヨハシシ",
      "town": "高師町",
      "town_kana": "タカシチョウ",
      "street": null,
      "office_name": null,
      "office_name_kana": null
    }
  ],
  "0851": {
    "postcode": "4400851",
    "prefecture": "愛知県",
    "prefecture_kana": "アイチケン",
    "prefecture_code": 23,
    "city": "豊橋市",
    "city_kana": "トヨハシシ",
    "town": "前田南町",
    "town_kana": "マエダミナミマチ",
    "street": null,
    "office_name": null,
    "office_name_kana": null
  },
  "0853": [
    {
      "postcode": "4400853",
      "prefecture": "愛知県",
      "prefecture_kana": "アイチケン",
      "prefecture_code": 23,
      "city": "豊橋市",
      "city_kana": "トヨハシシ",
      "town": "佐藤",
      "town_kana": "サトウ",
      "street": null,
      "office_name": null,
      "office_name_kana": null
    },
    {
      "postcode": "4400853",
      "prefecture": "愛知県",
      "prefecture_kana": "アイチケン",
      "prefecture_code": 23,
      "city": "豊橋市",
      "city_kana": "トヨハシシ",
      "town": "佐藤町",
      "town_kana": "サトウチョウ",
      "street": null,
      "office_name": null,
      "office_name_kana": null
    }
  ],
  "0854": {
    "postcode": "4400854",
    "prefecture": "愛知県",
    "prefecture_kana": "アイチケン",
    "prefecture_code": 23,
    "city": "豊橋市",
    "city_kana": "トヨハシシ",
    "town": "山田町",
    "town_kana": "ヤマダチョウ",
    "street": null,
    "office_name": null,
    "office_name_kana": null
  },
  "0855": {
    "postcode": "4400855",
    "prefecture": "愛知県",
    "prefecture_kana": "アイチケン",
    "prefecture_code": 23,
    "city": "豊橋市",
    "city_kana": "トヨハシシ",
    "town": "東小池町",
    "town_kana": "ヒガシコイケチョウ",
    "street": null,
    "office_name": null,
    "office_name_kana": null
  },
  "0856": {
    "postcode": "4400856",
    "prefecture": "愛知県",
    "prefecture_kana": "アイチケン",
    "prefecture_code": 23,
    "city": "豊橋市",
    "city_kana": "トヨハシシ",
    "town": "鍵田町",
    "town_kana": "カギタチョウ",
    "street": null,
    "office_name": null,
    "office_name_kana": null
  },
  "0857": {
    "postcode": "4400857",
    "prefecture": "愛知県",
    "prefecture_kana": "アイチケン",
    "prefecture_code": 23,
    "city": "豊橋市",
    "city_kana": "トヨハシシ",
    "town": "堂浦町",
    "town_kana": "ドウウラチョウ",
    "street": null,
    "office_name": null,
    "office_name_kana": null
  },
  "0858": {
    "postcode": "4400858",
    "prefecture": "愛知県",
    "prefecture_kana": "アイチケン",
    "prefecture_code": 23,
    "city": "豊橋市",
    "city_kana": "トヨハシシ",
    "town": "つつじが丘",
    "town_kana": "ツツジガオカ",
    "street": null,
    "office_name": null,
    "office_name_kana": null
  },
  "0861": {
    "postcode": "4400861",
    "prefecture": "愛知県",
    "prefecture_kana": "アイチケン",
    "prefecture_code": 23,
    "city": "豊橋市",
    "city_kana": "トヨハシシ",
    "town": "向山西町",
    "town_kana": "ムカイヤマニシマチ",
    "street": null,
    "office_name": null,
    "office_name_kana": null
  },
  "0862": {
    "postcode": "4400862",
    "prefecture": "愛知県",
    "prefecture_kana": "アイチケン",
    "prefecture_code": 23,
    "city": "豊橋市",
    "city_kana": "トヨハシシ",
    "town": "向山大池町",
    "town_kana": "ムカイヤマオオイケチョウ",
    "street": null,
    "office_name": null,
    "office_name_kana": null
  },
  "0863": {
    "postcode": "4400863",
    "prefecture": "愛知県",
    "prefecture_kana": "アイチケン",
    "prefecture_code": 23,
    "city": "豊橋市",
    "city_kana": "トヨハシシ",
    "town": "向山東町",
    "town_kana": "ムカイヤマヒガシマチ",
    "street": null,
    "office_name": null,
    "office_name_kana": null
  },
  "0864": {
    "postcode": "4400864",
    "prefecture": "愛知県",
    "prefecture_kana": "アイチケン",
    "prefecture_code": 23,
    "city": "豊橋市",
    "city_kana": "トヨハシシ",
    "town": "向山町",
    "town_kana": "ムカイヤマチョウ",
    "street": null,
    "office_name": null,
    "office_name_kana": null
  },
  "0865": {
    "postcode": "4400865",
    "prefecture": "愛知県",
    "prefecture_kana": "アイチケン",
    "prefecture_code": 23,
    "city": "豊橋市",
    "city_kana": "トヨハシシ",
    "town": "向山台町",
    "town_kana": "ムカイヤマダイマチ",
    "street": null,
    "office_name": null,
    "office_name_kana": null
  },
  "0871": {
    "postcode": "4400871",
    "prefecture": "愛知県",
    "prefecture_kana": "アイチケン",
    "prefecture_code": 23,
    "city": "豊橋市",
    "city_kana": "トヨハシシ",
    "town": "新吉町",
    "town_kana": "シンヨシチョウ",
    "street": null,
    "office_name": null,
    "office_name_kana": null
  },
  "0872": {
    "postcode": "4400872",
    "prefecture": "愛知県",
    "prefecture_kana": "アイチケン",
    "prefecture_code": 23,
    "city": "豊橋市",
    "city_kana": "トヨハシシ",
    "town": "前田中町",
    "town_kana": "マエダナカマチ",
    "street": null,
    "office_name": null,
    "office_name_kana": null
  },
  "0873": {
    "postcode": "4400873",
    "prefecture": "愛知県",
    "prefecture_kana": "アイチケン",
    "prefecture_code": 23,
    "city": "豊橋市",
    "city_kana": "トヨハシシ",
    "town": "小畷町",
    "town_kana": "コナワテチョウ",
    "street": null,
    "office_name": null,
    "office_name_kana": null
  },
  "0874": {
    "postcode": "4400874",
    "prefecture": "愛知県",
    "prefecture_kana": "アイチケン",
    "prefecture_code": 23,
    "city": "豊橋市",
    "city_kana": "トヨハシシ",
    "town": "東松山町",
    "town_kana": "ヒガシマツヤマチョウ",
    "street": null,
    "office_name": null,
    "office_name_kana": null
  },
  "0875": {
    "postcode": "4400875",
    "prefecture": "愛知県",
    "prefecture_kana": "アイチケン",
    "prefecture_code": 23,
    "city": "豊橋市",
    "city_kana": "トヨハシシ",
    "town": "中松山町",
    "town_kana": "ナカマツヤマチョウ",
    "street": null,
    "office_name": null,
    "office_name_kana": null
  },
  "0876": {
    "postcode": "4400876",
    "prefecture": "愛知県",
    "prefecture_kana": "アイチケン",
    "prefecture_code": 23,
    "city": "豊橋市",
    "city_kana": "トヨハシシ",
    "town": "西松山町",
    "town_kana": "ニシマツヤマチョウ",
    "street": null,
    "office_name": null,
    "office_name_kana": null
  },
  "0877": {
    "postcode": "4400877",
    "prefecture": "愛知県",
    "prefecture_kana": "アイチケン",
    "prefecture_code": 23,
    "city": "豊橋市",
    "city_kana": "トヨハシシ",
    "town": "南松山町",
    "town_kana": "ミナミマツヤマチョウ",
    "street": null,
    "office_name": null,
    "office_name_kana": null
  },
  "0881": {
    "postcode": "4400881",
    "prefecture": "愛知県",
    "prefecture_kana": "アイチケン",
    "prefecture_code": 23,
    "city": "豊橋市",
    "city_kana": "トヨハシシ",
    "town": "広小路",
    "town_kana": "ヒロコウジ",
    "street": null,
    "office_name": null,
    "office_name_kana": null
  },
  "0882": {
    "postcode": "4400882",
    "prefecture": "愛知県",
    "prefecture_kana": "アイチケン",
    "prefecture_code": 23,
    "city": "豊橋市",
    "city_kana": "トヨハシシ",
    "town": "神明町",
    "town_kana": "シンメイチョウ",
    "street": null,
    "office_name": null,
    "office_name_kana": null
  },
  "0883": {
    "postcode": "4400883",
    "prefecture": "愛知県",
    "prefecture_kana": "アイチケン",
    "prefecture_code": 23,
    "city": "豊橋市",
    "city_kana": "トヨハシシ",
    "town": "新川町",
    "town_kana": "シンカワチョウ",
    "street": null,
    "office_name": null,
    "office_name_kana": null
  },
  "0884": {
    "postcode": "4400884",
    "prefecture": "愛知県",
    "prefecture_kana": "アイチケン",
    "prefecture_code": 23,
    "city": "豊橋市",
    "city_kana": "トヨハシシ",
    "town": "大国町",
    "town_kana": "ダイコクチョウ",
    "street": null,
    "office_name": null,
    "office_name_kana": null
  },
  "0885": {
    "postcode": "4400885",
    "prefecture": "愛知県",
    "prefecture_kana": "アイチケン",
    "prefecture_code": 23,
    "city": "豊橋市",
    "city_kana": "トヨハシシ",
    "town": "中柴町",
    "town_kana": "ナカシバチョウ",
    "street": null,
    "office_name": null,
    "office_name_kana": null
  },
  "0886": {
    "postcode": "4400886",
    "prefecture": "愛知県",
    "prefecture_kana": "アイチケン",
    "prefecture_code": 23,
    "city": "豊橋市",
    "city_kana": "トヨハシシ",
    "town": "東小田原町",
    "town_kana": "ヒガシオダワラチョウ",
    "street": null,
    "office_name": null,
    "office_name_kana": null
  },
  "0887": {
    "postcode": "4400887",
    "prefecture": "愛知県",
    "prefecture_kana": "アイチケン",
    "prefecture_code": 23,
    "city": "豊橋市",
    "city_kana": "トヨハシシ",
    "town": "西小田原町",
    "town_kana": "ニシオダワラチョウ",
    "street": null,
    "office_name": null,
    "office_name_kana": null
  },
  "0888": {
    "postcode": "4400888",
    "prefecture": "愛知県",
    "prefecture_kana": "アイチケン",
    "prefecture_code": 23,
    "city": "豊橋市",
    "city_kana": "トヨハシシ",
    "town": "駅前大通",
    "town_kana": "エキマエオオドオリ",
    "street": null,
    "office_name": null,
    "office_name_kana": null
  },
  "0891": {
    "postcode": "4400891",
    "prefecture": "愛知県",
    "prefecture_kana": "アイチケン",
    "prefecture_code": 23,
    "city": "豊橋市",
    "city_kana": "トヨハシシ",
    "town": "関屋町",
    "town_kana": "セキヤチョウ",
    "street": null,
    "office_name": null,
    "office_name_kana": null
  },
  "0892": {
    "postcode": "4400892",
    "prefecture": "愛知県",
    "prefecture_kana": "アイチケン",
    "prefecture_code": 23,
    "city": "豊橋市",
    "city_kana": "トヨハシシ",
    "town": "新本町",
    "town_kana": "シンホンマチ",
    "street": null,
    "office_name": null,
    "office_name_kana": null
  },
  "0893": {
    "postcode": "4400893",
    "prefecture": "愛知県",
    "prefecture_kana": "アイチケン",
    "prefecture_code": 23,
    "city": "豊橋市",
    "city_kana": "トヨハシシ",
    "town": "札木町",
    "town_kana": "フダギチョウ",
    "street": null,
    "office_name": null,
    "office_name_kana": null
  },
  "0894": {
    "postcode": "4400894",
    "prefecture": "愛知県",
    "prefecture_kana": "アイチケン",
    "prefecture_code": 23,
    "city": "豊橋市",
    "city_kana": "トヨハシシ",
    "town": "魚町",
    "town_kana": "ウオマチ",
    "street": null,
    "office_name": null,
    "office_name_kana": null
  },
  "0895": {
    "postcode": "4400895",
    "prefecture": "愛知県",
    "prefecture_kana": "アイチケン",
    "prefecture_code": 23,
    "city": "豊橋市",
    "city_kana": "トヨハシシ",
    "town": "花園町",
    "town_kana": "ハナゾノチョウ",
    "street": null,
    "office_name": null,
    "office_name_kana": null
  },
  "0896": {
    "postcode": "4400896",
    "prefecture": "愛知県",
    "prefecture_kana": "アイチケン",
    "prefecture_code": 23,
    "city": "豊橋市",
    "city_kana": "トヨハシシ",
    "town": "萱町",
    "town_kana": "カヤマチ",
    "street": null,
    "office_name": null,
    "office_name_kana": null
  },
  "0897": {
    "postcode": "4400897",
    "prefecture": "愛知県",
    "prefecture_kana": "アイチケン",
    "prefecture_code": 23,
    "city": "豊橋市",
    "city_kana": "トヨハシシ",
    "town": "松葉町",
    "town_kana": "マツバチョウ",
    "street": null,
    "office_name": null,
    "office_name_kana": null
  },
  "8501": {
    "postcode": "4408501",
    "prefecture": "愛知県",
    "prefecture_kana": "アイチケン",
    "prefecture_code": 23,
    "city": "豊橋市",
    "city_kana": "トヨハシシ",
    "town": "今橋町",
    "town_kana": "イマハシチョウ",
    "street": "１",
    "office_name": "豊橋市役所",
    "office_name_kana": "トヨハシシヤクシヨ"
  },
  "8502": {
    "postcode": "4408502",
    "prefecture": "愛知県",
    "prefecture_kana": "アイチケン",
    "prefecture_code": 23,
    "city": "豊橋市",
    "city_kana": "トヨハシシ",
    "town": "牛川町",
    "town_kana": "ウシカワチョウ",
    "street": "字下モ田２９−１",
    "office_name": "豊橋市上下水道局",
    "office_name_kana": "トヨハシシジヨウゲスイドウキヨク"
  },
  "8504": {
    "postcode": "4408504",
    "prefecture": "愛知県",
    "prefecture_kana": "アイチケン",
    "prefecture_code": 23,
    "city": "豊橋市",
    "city_kana": "トヨハシシ",
    "town": "大国町",
    "town_kana": "ダイコクチョウ",
    "street": "１１１豊橋地方合同庁舎",
    "office_name": "豊橋税務署",
    "office_name_kana": "トヨハシゼイムシヨ"
  },
  "8505": {
    "postcode": "4408505",
    "prefecture": "愛知県",
    "prefecture_kana": "アイチケン",
    "prefecture_code": 23,
    "city": "豊橋市",
    "city_kana": "トヨハシシ",
    "town": "札木町",
    "town_kana": "フダギチョウ",
    "street": "４３",
    "office_name": "ＮＴＴ　三河支店",
    "office_name_kana": "エヌテイテイ ミカワシテン"
  },
  "8506": {
    "postcode": "4408506",
    "prefecture": "愛知県",
    "prefecture_kana": "アイチケン",
    "prefecture_code": 23,
    "city": "豊橋市",
    "city_kana": "トヨハシシ",
    "town": "大国町",
    "town_kana": "ダイコクチョウ",
    "street": "１１１豊橋地方合同庁舎６Ｆ",
    "office_name": "豊橋労働基準監督署",
    "office_name_kana": "トヨハシロウドウキジユンカントクシヨ"
  },
  "8507": {
    "postcode": "4408507",
    "prefecture": "愛知県",
    "prefecture_kana": "アイチケン",
    "prefecture_code": 23,
    "city": "豊橋市",
    "city_kana": "トヨハシシ",
    "town": "大国町",
    "town_kana": "ダイコクチョウ",
    "street": "１１１",
    "office_name": "豊橋公共職業安定所",
    "office_name_kana": "トヨハシコウキヨウシヨクギヨウアンテイシヨ"
  },
  "8508": {
    "postcode": "4408508",
    "prefecture": "愛知県",
    "prefecture_kana": "アイチケン",
    "prefecture_code": 23,
    "city": "豊橋市",
    "city_kana": "トヨハシシ",
    "town": "花田町",
    "town_kana": "ハナダチョウ",
    "street": "字石塚４２−１",
    "office_name": "豊橋商工会議所",
    "office_name_kana": "トヨハシシヨウコウカイギシヨ"
  },
  "8510": {
    "postcode": "4408510",
    "prefecture": "愛知県",
    "prefecture_kana": "アイチケン",
    "prefecture_code": 23,
    "city": "豊橋市",
    "city_kana": "トヨハシシ",
    "town": "飯村町",
    "town_kana": "イムレチョウ",
    "street": "字浜道上５０番地",
    "office_name": "国立病院機構豊橋医療センター",
    "office_name_kana": "コクリツビヨウインキコウ トヨハシイリヨウセンタ-"
  },
  "8511": {
    "postcode": "4408511",
    "prefecture": "愛知県",
    "prefecture_kana": "アイチケン",
    "prefecture_code": 23,
    "city": "豊橋市",
    "city_kana": "トヨハシシ",
    "town": "牛川町",
    "town_kana": "ウシカワチョウ",
    "street": "字松下２０−１",
    "office_name": "豊橋創造大学",
    "office_name_kana": "トヨハシソウゾウダイガク"
  },
  "8512": {
    "postcode": "4408512",
    "prefecture": "愛知県",
    "prefecture_kana": "アイチケン",
    "prefecture_code": 23,
    "city": "豊橋市",
    "city_kana": "トヨハシシ",
    "town": "牛川町",
    "town_kana": "ウシカワチョウ",
    "street": "字松下２０−１",
    "office_name": "豊橋創造大学　短期大学部",
    "office_name_kana": "トヨハシソウゾウダイガク タンキダイガクブ"
  },
  "8513": {
    "postcode": "4408513",
    "prefecture": "愛知県",
    "prefecture_kana": "アイチケン",
    "prefecture_code": 23,
    "city": "豊橋市",
    "city_kana": "トヨハシシ",
    "town": "大橋通",
    "town_kana": "オオハシドオリ",
    "street": "３丁目１１２",
    "office_name": "鈴与商事　株式会社　豊橋支店",
    "office_name_kana": "スズヨシヨウジ カブシキガイシヤ トヨハシシテン"
  },
  "8514": {
    "postcode": "4408514",
    "prefecture": "愛知県",
    "prefecture_kana": "アイチケン",
    "prefecture_code": 23,
    "city": "豊橋市",
    "city_kana": "トヨハシシ",
    "town": "つつじが丘",
    "town_kana": "ツツジガオカ",
    "street": "３丁目３６−４",
    "office_name": "マルキチ商事　有限会社",
    "office_name_kana": "マルキチシヨウジ ユウゲンガイシヤ"
  },
  "8515": {
    "postcode": "4408515",
    "prefecture": "愛知県",
    "prefecture_kana": "アイチケン",
    "prefecture_code": 23,
    "city": "豊橋市",
    "city_kana": "トヨハシシ",
    "town": "八町通",
    "town_kana": "ハッチョウドオリ",
    "street": "５丁目４番地",
    "office_name": "愛知県東三河総局",
    "office_name_kana": "アイチケンヒガシミカワソウキヨク"
  },
  "8516": {
    "postcode": "4408516",
    "prefecture": "愛知県",
    "prefecture_kana": "アイチケン",
    "prefecture_code": 23,
    "city": "豊橋市",
    "city_kana": "トヨハシシ",
    "town": "南牛川",
    "town_kana": "ミナミウシカワ",
    "street": "２丁目１−１１",
    "office_name": "学校法人　桜丘学園",
    "office_name_kana": "ガツコウホウジン サクラガオカガクエン"
  },
  "8517": {
    "postcode": "4408517",
    "prefecture": "愛知県",
    "prefecture_kana": "アイチケン",
    "prefecture_code": 23,
    "city": "豊橋市",
    "city_kana": "トヨハシシ",
    "town": "広小路",
    "town_kana": "ヒロコウジ",
    "street": "１丁目６",
    "office_name": "株式会社　精文館書店",
    "office_name_kana": "カブシキガイシヤ セイブンカンシヨテン"
  },
  "8518": {
    "postcode": "4408518",
    "prefecture": "愛知県",
    "prefecture_kana": "アイチケン",
    "prefecture_code": 23,
    "city": "豊橋市",
    "city_kana": "トヨハシシ",
    "town": "八町通",
    "town_kana": "ハッチョウドオリ",
    "street": "５丁目７",
    "office_name": "ササキ　株式会社",
    "office_name_kana": "ササキ カブシキガイシヤ"
  },
  "8520": {
    "postcode": "4408520",
    "prefecture": "愛知県",
    "prefecture_kana": "アイチケン",
    "prefecture_code": 23,
    "city": "豊橋市",
    "city_kana": "トヨハシシ",
    "town": "松葉町",
    "town_kana": "マツバチョウ",
    "street": "３丁目１０",
    "office_name": "医療法人　青雲会佐野病院",
    "office_name_kana": "イリヨウホウジン セイウンカイサノビヨウイン"
  },
  "8521": {
    "postcode": "4408521",
    "prefecture": "愛知県",
    "prefecture_kana": "アイチケン",
    "prefecture_code": 23,
    "city": "豊橋市",
    "city_kana": "トヨハシシ",
    "town": "下地町",
    "town_kana": "シモジチョウ",
    "street": "字柳目８",
    "office_name": "株式会社　大仙",
    "office_name_kana": "カブシキガイシヤ ダイセン"
  },
  "8522": {
    "postcode": "4408522",
    "prefecture": "愛知県",
    "prefecture_kana": "アイチケン",
    "prefecture_code": 23,
    "city": "豊橋市",
    "city_kana": "トヨハシシ",
    "town": "下地町",
    "town_kana": "シモジチョウ",
    "street": "字操穴４３",
    "office_name": "東愛知日産自動車　株式会社",
    "office_name_kana": "ヒガシアイチニツサンジドウシヤ カブシキガイシヤ"
  },
  "8523": {
    "postcode": "4408523",
    "prefecture": "愛知県",
    "prefecture_kana": "アイチケン",
    "prefecture_code": 23,
    "city": "豊橋市",
    "city_kana": "トヨハシシ",
    "town": "下地町",
    "town_kana": "シモジチョウ",
    "street": "字長池３６",
    "office_name": "中西相互　株式会社",
    "office_name_kana": "ナカニシソウゴ カブシキガイシヤ"
  },
  "8524": {
    "postcode": "4408524",
    "prefecture": "愛知県",
    "prefecture_kana": "アイチケン",
    "prefecture_code": 23,
    "city": "豊橋市",
    "city_kana": "トヨハシシ",
    "town": "下地町",
    "town_kana": "シモジチョウ",
    "street": "字境田９５−１",
    "office_name": "スバル東愛知販売　株式会社",
    "office_name_kana": "スバルヒガシアイチハンバイ カブシキガイシヤ"
  },
  "8525": {
    "postcode": "4408525",
    "prefecture": "愛知県",
    "prefecture_kana": "アイチケン",
    "prefecture_code": 23,
    "city": "豊橋市",
    "city_kana": "トヨハシシ",
    "town": "下地町",
    "town_kana": "シモジチョウ",
    "street": "字天神３４−２",
    "office_name": "株式会社　フジ電材",
    "office_name_kana": "カブシキガイシヤ フジデンザイ"
  },
  "8526": {
    "postcode": "4408526",
    "prefecture": "愛知県",
    "prefecture_kana": "アイチケン",
    "prefecture_code": 23,
    "city": "豊橋市",
    "city_kana": "トヨハシシ",
    "town": "大村町",
    "town_kana": "オオムラチョウ",
    "street": "字山所１８番地",
    "office_name": "岩附　株式会社",
    "office_name_kana": "イワツキ カブシキガイシヤ"
  },
  "8527": {
    "postcode": "4408527",
    "prefecture": "愛知県",
    "prefecture_kana": "アイチケン",
    "prefecture_code": 23,
    "city": "豊橋市",
    "city_kana": "トヨハシシ",
    "town": "小畷町",
    "town_kana": "コナワテチョウ",
    "street": "５９６",
    "office_name": "豊橋ケーブルネットワーク　株式会社",
    "office_name_kana": "トヨハシケ-ブルネツトワ-ク カブシキガイシヤ"
  },
  "8528": {
    "postcode": "4408528",
    "prefecture": "愛知県",
    "prefecture_kana": "アイチケン",
    "prefecture_code": 23,
    "city": "豊橋市",
    "city_kana": "トヨハシシ",
    "town": "八町通",
    "town_kana": "ハッチョウドオリ",
    "street": "５丁目４番地",
    "office_name": "愛知県東三河県税事務所",
    "office_name_kana": "アイチケンヒガシミカワケンゼイジムシヨ"
  },
  "8530": {
    "postcode": "4408530",
    "prefecture": "愛知県",
    "prefecture_kana": "アイチケン",
    "prefecture_code": 23,
    "city": "豊橋市",
    "city_kana": "トヨハシシ",
    "town": "駅前大通",
    "town_kana": "エキマエオオドオリ",
    "street": "２丁目２８番地",
    "office_name": "東海漬物　株式会社",
    "office_name_kana": "トウカイツケモノ カブシキガイシヤ"
  },
  "8531": {
    "postcode": "4408531",
    "prefecture": "愛知県",
    "prefecture_kana": "アイチケン",
    "prefecture_code": 23,
    "city": "豊橋市",
    "city_kana": "トヨハシシ",
    "town": "駅前大通",
    "town_kana": "エキマエオオドオリ",
    "street": "一丁目５５番地サーラタワー",
    "office_name": "サーラエナジー　株式会社",
    "office_name_kana": "サ-ラエナジ- カブシキガイシヤ"
  },
  "8533": {
    "postcode": "4408533",
    "prefecture": "愛知県",
    "prefecture_kana": "アイチケン",
    "prefecture_code": 23,
    "city": "豊橋市",
    "city_kana": "トヨハシシ",
    "town": "駅前大通",
    "town_kana": "エキマエオオドオリ",
    "street": "１丁目５５番地",
    "office_name": "株式会社　サーラコーポレーション",
    "office_name_kana": "カブシキガイシヤ サ-ラコ-ポレ-シヨン"
  },
  "8543": {
    "postcode": "4408543",
    "prefecture": "愛知県",
    "prefecture_kana": "アイチケン",
    "prefecture_code": 23,
    "city": "豊橋市",
    "city_kana": "トヨハシシ",
    "town": "駅前大通",
    "town_kana": "エキマエオオドオリ",
    "street": "一丁目５５番地",
    "office_name": "株式会社　エフエム豊橋",
    "office_name_kana": "カブシキガイシヤ エフエムトヨハシ"
  },
  "8601": {
    "postcode": "4408601",
    "prefecture": "愛知県",
    "prefecture_kana": "アイチケン",
    "prefecture_code": 23,
    "city": "豊橋市",
    "city_kana": "トヨハシシ",
    "town": "牛川通",
    "town_kana": "ウシカワドオリ",
    "street": "四丁目１番地の２",
    "office_name": "三菱ケミカル　株式会社　豊橋事業所",
    "office_name_kana": "ミツビシケミカル カブシキガイシヤ トヨハシジギヨウシヨ"
  },
  "8603": {
    "postcode": "4408603",
    "prefecture": "愛知県",
    "prefecture_kana": "アイチケン",
    "prefecture_code": 23,
    "city": "豊橋市",
    "city_kana": "トヨハシシ",
    "town": "小畷町",
    "town_kana": "コナワテチョウ",
    "street": "５７９（豊橋郵便局私書箱第７８号）",
    "office_name": "豊橋信用金庫",
    "office_name_kana": "トヨハシシンヨウキンコ"
  },
  "8604": {
    "postcode": "4408604",
    "prefecture": "愛知県",
    "prefecture_kana": "アイチケン",
    "prefecture_code": 23,
    "city": "豊橋市",
    "city_kana": "トヨハシシ",
    "town": "駅前大通",
    "town_kana": "エキマエオオドオリ",
    "street": "１丁目４６番地１豊鉄ターミナルビル５階",
    "office_name": "豊橋鉄道　株式会社",
    "office_name_kana": "トヨハシテツドウ (カ"
  }
}