{
  "0000": {
    "postcode": "4470000",
    "prefecture": "愛知県",
    "prefecture_kana": "アイチケン",
    "prefecture_code": 23,
    "city": "碧南市",
    "city_kana": "ヘキナンシ",
    "town": "",
    "town_kana": "",
    "street": null,
    "office_name": null,
    "office_name_kana": null
  },
  "0001": {
    "postcode": "4470001",
    "prefecture": "愛知県",
    "prefecture_kana": "アイチケン",
    "prefecture_code": 23,
    "city": "碧南市",
    "city_kana": "ヘキナンシ",
    "town": "北町",
    "town_kana": "キタマチ",
    "street": null,
    "office_name": null,
    "office_name_kana": null
  },
  "0002": {
    "postcode": "4470002",
    "prefecture": "愛知県",
    "prefecture_kana": "アイチケン",
    "prefecture_code": 23,
    "city": "碧南市",
    "city_kana": "ヘキナンシ",
    "town": "井口町",
    "town_kana": "イグチマチ",
    "street": null,
    "office_name": null,
    "office_name_kana": null
  },
  "0003": {
    "postcode": "4470003",
    "prefecture": "愛知県",
    "prefecture_kana": "アイチケン",
    "prefecture_code": 23,
    "city": "碧南市",
    "city_kana": "ヘキナンシ",
    "town": "雁道町",
    "town_kana": "ガンミチマチ",
    "street": null,
    "office_name": null,
    "office_name_kana": null
  },
  "0004": {
    "postcode": "4470004",
    "prefecture": "愛知県",
    "prefecture_kana": "アイチケン",
    "prefecture_code": 23,
    "city": "碧南市",
    "city_kana": "ヘキナンシ",
    "town": "用久町",
    "town_kana": "ヨウキュウマチ",
    "street": null,
    "office_name": null,
    "office_name_kana": null
  },
  "0005": {
    "postcode": "4470005",
    "prefecture": "愛知県",
    "prefecture_kana": "アイチケン",
    "prefecture_code": 23,
    "city": "碧南市",
    "city_kana": "ヘキナンシ",
    "town": "若水町",
    "town_kana": "ワカミズマチ",
    "street": null,
    "office_name": null,
    "office_name_kana": null
  },
  "0006": {
    "postcode": "4470006",
    "prefecture": "愛知県",
    "prefecture_kana": "アイチケン",
    "prefecture_code": 23,
    "city": "碧南市",
    "city_kana": "ヘキナンシ",
    "town": "宝町",
    "town_kana": "タカラマチ",
    "street": null,
    "office_name": null,
    "office_name_kana": null
  },
  "0007": {
    "postcode": "4470007",
    "prefecture": "愛知県",
    "prefecture_kana": "アイチケン",
    "prefecture_code": 23,
    "city": "碧南市",
    "city_kana": "ヘキナンシ",
    "town": "竹原町",
    "town_kana": "タケハラマチ",
    "street": null,
    "office_name": null,
    "office_name_kana": null
  },
  "0008": {
    "postcode": "4470008",
    "prefecture": "愛知県",
    "prefecture_kana": "アイチケン",
    "prefecture_code": 23,
    "city": "碧南市",
    "city_kana": "ヘキナンシ",
    "town": "大久手町",
    "town_kana": "オオクテマチ",
    "street": null,
    "office_name": null,
    "office_name_kana": null
  },
  "0011": {
    "postcode": "4470011",
    "prefecture": "愛知県",
    "prefecture_kana": "アイチケン",
    "prefecture_code": 23,
    "city": "碧南市",
    "city_kana": "ヘキナンシ",
    "town": "平山町",
    "town_kana": "ヒラヤママチ",
    "street": null,
    "office_name": null,
    "office_name_kana": null
  },
  "0012": {
    "postcode": "4470012",
    "prefecture": "愛知県",
    "prefecture_kana": "アイチケン",
    "prefecture_code": 23,
    "city": "碧南市",
    "city_kana": "ヘキナンシ",
    "town": "大坪町",
    "town_kana": "オオツボマチ",
    "street": null,
    "office_name": null,
    "office_name_kana": null
  },
  "0013": {
    "postcode": "4470013",
    "prefecture": "愛知県",
    "prefecture_kana": "アイチケン",
    "prefecture_code": 23,
    "city": "碧南市",
    "city_kana": "ヘキナンシ",
    "town": "白沢町",
    "town_kana": "シロサワマチ",
    "street": null,
    "office_name": null,
    "office_name_kana": null
  },
  "0014": {
    "postcode": "4470014",
    "prefecture": "愛知県",
    "prefecture_kana": "アイチケン",
    "prefecture_code": 23,
    "city": "碧南市",
    "city_kana": "ヘキナンシ",
    "town": "長田町",
    "town_kana": "オサダマチ",
    "street": null,
    "office_name": null,
    "office_name_kana": null
  },
  "0015": {
    "postcode": "4470015",
    "prefecture": "愛知県",
    "prefecture_kana": "アイチケン",
    "prefecture_code": 23,
    "city": "碧南市",
    "city_kana": "ヘキナンシ",
    "town": "半崎町",
    "town_kana": "ハンザキマチ",
    "street": null,
    "office_name": null,
    "office_name_kana": null
  },
  "0016": {
    "postcode": "4470016",
    "prefecture": "愛知県",
    "prefecture_kana": "アイチケン",
    "prefecture_code": 23,
    "city": "碧南市",
    "city_kana": "ヘキナンシ",
    "town": "神田町",
    "town_kana": "カンダマチ",
    "street": null,
    "office_name": null,
    "office_name_kana": null
  },
  "0017": {
    "postcode": "4470017",
    "prefecture": "愛知県",
    "prefecture_kana": "アイチケン",
    "prefecture_code": 23,
    "city": "碧南市",
    "city_kana": "ヘキナンシ",
    "town": "奥沢町",
    "town_kana": "オクサワマチ",
    "street": null,
    "office_name": null,
    "office_name_kana": null
  },
  "0021": {
    "postcode": "4470021",
    "prefecture": "愛知県",
    "prefecture_kana": "アイチケン",
    "prefecture_code": 23,
    "city": "碧南市",
    "city_kana": "ヘキナンシ",
    "town": "縄手町",
    "town_kana": "ナワテマチ",
    "street": null,
    "office_name": null,
    "office_name_kana": null
  },
  "0022": {
    "postcode": "4470022",
    "prefecture": "愛知県",
    "prefecture_kana": "アイチケン",
    "prefecture_code": 23,
    "city": "碧南市",
    "city_kana": "ヘキナンシ",
    "town": "旭町",
    "town_kana": "アサヒマチ",
    "street": null,
    "office_name": null,
    "office_name_kana": null
  },
  "0023": {
    "postcode": "4470023",
    "prefecture": "愛知県",
    "prefecture_kana": "アイチケン",
    "prefecture_code": 23,
    "city": "碧南市",
    "city_kana": "ヘキナンシ",
    "town": "池下町",
    "town_kana": "イケシタマチ",
    "street": null,
    "office_name": null,
    "office_name_kana": null
  },
  "0024": {
    "postcode": "4470024",
    "prefecture": "愛知県",
    "prefecture_kana": "アイチケン",
    "prefecture_code": 23,
    "city": "碧南市",
    "city_kana": "ヘキナンシ",
    "town": "亀穴町",
    "town_kana": "カメアナマチ",
    "street": null,
    "office_name": null,
    "office_name_kana": null
  },
  "0025": {
    "postcode": "4470025",
    "prefecture": "愛知県",
    "prefecture_kana": "アイチケン",
    "prefecture_code": 23,
    "city": "碧南市",
    "city_kana": "ヘキナンシ",
    "town": "大堤町",
    "town_kana": "オオヅツミマチ",
    "street": null,
    "office_name": null,
    "office_name_kana": null
  },
  "0026": {
    "postcode": "4470026",
    "prefecture": "愛知県",
    "prefecture_kana": "アイチケン",
    "prefecture_code": 23,
    "city": "碧南市",
    "city_kana": "ヘキナンシ",
    "town": "三宅町",
    "town_kana": "ミヤケマチ",
    "street": null,
    "office_name": null,
    "office_name_kana": null
  },
  "0027": {
    "postcode": "4470027",
    "prefecture": "愛知県",
    "prefecture_kana": "アイチケン",
    "prefecture_code": 23,
    "city": "碧南市",
    "city_kana": "ヘキナンシ",
    "town": "照光町",
    "town_kana": "ショウコウマチ",
    "street": null,
    "office_name": null,
    "office_name_kana": null
  },
  "0028": {
    "postcode": "4470028",
    "prefecture": "愛知県",
    "prefecture_kana": "アイチケン",
    "prefecture_code": 23,
    "city": "碧南市",
    "city_kana": "ヘキナンシ",
    "town": "神有町",
    "town_kana": "カミアリマチ",
    "street": null,
    "office_name": null,
    "office_name_kana": null
  },
  "0029": {
    "postcode": "4470029",
    "prefecture": "愛知県",
    "prefecture_kana": "アイチケン",
    "prefecture_code": 23,
    "city": "碧南市",
    "city_kana": "ヘキナンシ",
    "town": "二本木町",
    "town_kana": "ニホンギマチ",
    "street": null,
    "office_name": null,
    "office_name_kana": null
  },
  "0031": {
    "postcode": "4470031",
    "prefecture": "愛知県",
    "prefecture_kana": "アイチケン",
    "prefecture_code": 23,
    "city": "碧南市",
    "city_kana": "ヘキナンシ",
    "town": "見合町",
    "town_kana": "ミアイマチ",
    "street": null,
    "office_name": null,
    "office_name_kana": null
  },
  "0032": {
    "postcode": "4470032",
    "prefecture": "愛知県",
    "prefecture_kana": "アイチケン",
    "prefecture_code": 23,
    "city": "碧南市",
    "city_kana": "ヘキナンシ",
    "town": "北浦町",
    "town_kana": "キタウラマチ",
    "street": null,
    "office_name": null,
    "office_name_kana": null
  },
  "0033": {
    "postcode": "4470033",
    "prefecture": "愛知県",
    "prefecture_kana": "アイチケン",
    "prefecture_code": 23,
    "city": "碧南市",
    "city_kana": "ヘキナンシ",
    "town": "天神町",
    "town_kana": "テンジンマチ",
    "street": null,
    "office_name": null,
    "office_name_kana": null
  },
  "0034": {
    "postcode": "4470034",
    "prefecture": "愛知県",
    "prefecture_kana": "アイチケン",
    "prefecture_code": 23,
    "city": "碧南市",
    "city_kana": "ヘキナンシ",
    "town": "鴻島町",
    "town_kana": "コウジママチ",
    "street": null,
    "office_name": null,
    "office_name_kana": null
  },
  "0035": {
    "postcode": "4470035",
    "prefecture": "愛知県",
    "prefecture_kana": "アイチケン",
    "prefecture_code": 23,
    "city": "碧南市",
    "city_kana": "ヘキナンシ",
    "town": "中山町",
    "town_kana": "ナカヤママチ",
    "street": null,
    "office_name": null,
    "office_name_kana": null
  },
  "0036": {
    "postcode": "4470036",
    "prefecture": "愛知県",
    "prefecture_kana": "アイチケン",
    "prefecture_code": 23,
    "city": "碧南市",
    "city_kana": "ヘキナンシ",
    "town": "尾城町",
    "town_kana": "オジロマチ",
    "street": null,
    "office_name": null,
    "office_name_kana": null
  },
  "0037": {
    "postcode": "4470037",
    "prefecture": "愛知県",
    "prefecture_kana": "アイチケン",
    "prefecture_code": 23,
    "city": "碧南市",
    "city_kana": "ヘキナンシ",
    "town": "城山町",
    "town_kana": "シロヤママチ",
    "street": null,
    "office_name": null,
    "office_name_kana": null
  },
  "0038": {
    "postcode": "4470038",
    "prefecture": "愛知県",
    "prefecture_kana": "アイチケン",
    "prefecture_code": 23,
    "city": "碧南市",
    "city_kana": "ヘキナンシ",
    "town": "荒子町",
    "town_kana": "アラコマチ",
    "street": null,
    "office_name": null,
    "office_name_kana": null
  },
  "0041": {
    "postcode": "4470041",
    "prefecture": "愛知県",
    "prefecture_kana": "アイチケン",
    "prefecture_code": 23,
    "city": "碧南市",
    "city_kana": "ヘキナンシ",
    "town": "緑町",
    "town_kana": "ミドリマチ",
    "street": null,
    "office_name": null,
    "office_name_kana": null
  },
  "0042": {
    "postcode": "4470042",
    "prefecture": "愛知県",
    "prefecture_kana": "アイチケン",
    "prefecture_code": 23,
    "city": "碧南市",
    "city_kana": "ヘキナンシ",
    "town": "中後町",
    "town_kana": "ナカゴマチ",
    "street": null,
    "office_name": null,
    "office_name_kana": null
  },
  "0043": {
    "postcode": "4470043",
    "prefecture": "愛知県",
    "prefecture_kana": "アイチケン",
    "prefecture_code": 23,
    "city": "碧南市",
    "city_kana": "ヘキナンシ",
    "town": "幸町",
    "town_kana": "サイワイマチ",
    "street": null,
    "office_name": null,
    "office_name_kana": null
  },
  "0044": {
    "postcode": "4470044",
    "prefecture": "愛知県",
    "prefecture_kana": "アイチケン",
    "prefecture_code": 23,
    "city": "碧南市",
    "city_kana": "ヘキナンシ",
    "town": "末広町",
    "town_kana": "スエヒロマチ",
    "street": null,
    "office_name": null,
    "office_name_kana": null
  },
  "0045": {
    "postcode": "4470045",
    "prefecture": "愛知県",
    "prefecture_kana": "アイチケン",
    "prefecture_code": 23,
    "city": "碧南市",
    "city_kana": "ヘキナンシ",
    "town": "篭田町",
    "town_kana": "カゴタマチ",
    "street": null,
    "office_name": null,
    "office_name_kana": null
  },
  "0046": {
    "postcode": "4470046",
    "prefecture": "愛知県",
    "prefecture_kana": "アイチケン",
    "prefecture_code": 23,
    "city": "碧南市",
    "city_kana": "ヘキナンシ",
    "town": "堀方町",
    "town_kana": "ホリカタマチ",
    "street": null,
    "office_name": null,
    "office_name_kana": null
  },
  "0047": {
    "postcode": "4470047",
    "prefecture": "愛知県",
    "prefecture_kana": "アイチケン",
    "prefecture_code": 23,
    "city": "碧南市",
    "city_kana": "ヘキナンシ",
    "town": "植出町",
    "town_kana": "ウエダシマチ",
    "street": null,
    "office_name": null,
    "office_name_kana": null
  },
  "0048": {
    "postcode": "4470048",
    "prefecture": "愛知県",
    "prefecture_kana": "アイチケン",
    "prefecture_code": 23,
    "city": "碧南市",
    "city_kana": "ヘキナンシ",
    "town": "福清水町",
    "town_kana": "フクシミズマチ",
    "street": null,
    "office_name": null,
    "office_name_kana": null
  },
  "0051": {
    "postcode": "4470051",
    "prefecture": "愛知県",
    "prefecture_kana": "アイチケン",
    "prefecture_code": 23,
    "city": "碧南市",
    "city_kana": "ヘキナンシ",
    "town": "東山町",
    "town_kana": "ヒガシヤママチ",
    "street": null,
    "office_name": null,
    "office_name_kana": null
  },
  "0052": {
    "postcode": "4470052",
    "prefecture": "愛知県",
    "prefecture_kana": "アイチケン",
    "prefecture_code": 23,
    "city": "碧南市",
    "city_kana": "ヘキナンシ",
    "town": "新道町",
    "town_kana": "シンミチマチ",
    "street": null,
    "office_name": null,
    "office_name_kana": null
  },
  "0053": {
    "postcode": "4470053",
    "prefecture": "愛知県",
    "prefecture_kana": "アイチケン",
    "prefecture_code": 23,
    "city": "碧南市",
    "city_kana": "ヘキナンシ",
    "town": "笹山町",
    "town_kana": "ササヤママチ",
    "street": null,
    "office_name": null,
    "office_name_kana": null
  },
  "0054": {
    "postcode": "4470054",
    "prefecture": "愛知県",
    "prefecture_kana": "アイチケン",
    "prefecture_code": 23,
    "city": "碧南市",
    "city_kana": "ヘキナンシ",
    "town": "踏分町",
    "town_kana": "フミワケマチ",
    "street": null,
    "office_name": null,
    "office_name_kana": null
  },
  "0055": {
    "postcode": "4470055",
    "prefecture": "愛知県",
    "prefecture_kana": "アイチケン",
    "prefecture_code": 23,
    "city": "碧南市",
    "city_kana": "ヘキナンシ",
    "town": "浜尾町",
    "town_kana": "ハマオマチ",
    "street": null,
    "office_name": null,
    "office_name_kana": null
  },
  "0056": {
    "postcode": "4470056",
    "prefecture": "愛知県",
    "prefecture_kana": "アイチケン",
    "prefecture_code": 23,
    "city": "碧南市",
    "city_kana": "ヘキナンシ",
    "town": "千福町",
    "town_kana": "センブクマチ",
    "street": null,
    "office_name": null,
    "office_name_kana": null
  },
  "0057": {
    "postcode": "4470057",
    "prefecture": "愛知県",
    "prefecture_kana": "アイチケン",
    "prefecture_code": 23,
    "city": "碧南市",
    "city_kana": "ヘキナンシ",
    "town": "鶴見町",
    "town_kana": "ツルミマチ",
    "street": null,
    "office_name": null,
    "office_name_kana": null
  },
  "0058": {
    "postcode": "4470058",
    "prefecture": "愛知県",
    "prefecture_kana": "アイチケン",
    "prefecture_code": 23,
    "city": "碧南市",
    "city_kana": "ヘキナンシ",
    "town": "住吉町",
    "town_kana": "スミヨシマチ",
    "street": null,
    "office_name": null,
    "office_name_kana": null
  },
  "0061": {
    "postcode": "4470061",
    "prefecture": "愛知県",
    "prefecture_kana": "アイチケン",
    "prefecture_code": 23,
    "city": "碧南市",
    "city_kana": "ヘキナンシ",
    "town": "三度山町",
    "town_kana": "サンドヤママチ",
    "street": null,
    "office_name": null,
    "office_name_kana": null
  },
  "0062": {
    "postcode": "4470062",
    "prefecture": "愛知県",
    "prefecture_kana": "アイチケン",
    "prefecture_code": 23,
    "city": "碧南市",
    "city_kana": "ヘキナンシ",
    "town": "古川町",
    "town_kana": "フルカワマチ",
    "street": null,
    "office_name": null,
    "office_name_kana": null
  },
  "0063": {
    "postcode": "4470063",
    "prefecture": "愛知県",
    "prefecture_kana": "アイチケン",
    "prefecture_code": 23,
    "city": "碧南市",
    "city_kana": "ヘキナンシ",
    "town": "山下町",
    "town_kana": "ヤマシタマチ",
    "street": null,
    "office_name": null,
    "office_name_kana": null
  },
  "0064": {
    "postcode": "4470064",
    "prefecture": "愛知県",
    "prefecture_kana": "アイチケン",
    "prefecture_code": 23,
    "city": "碧南市",
    "city_kana": "ヘキナンシ",
    "town": "西山町",
    "town_kana": "ニシヤママチ",
    "street": null,
    "office_name": null,
    "office_name_kana": null
  },
  "0065": {
    "postcode": "4470065",
    "prefecture": "愛知県",
    "prefecture_kana": "アイチケン",
    "prefecture_code": 23,
    "city": "碧南市",
    "city_kana": "ヘキナンシ",
    "town": "久沓町",
    "town_kana": "クグツマチ",
    "street": null,
    "office_name": null,
    "office_name_kana": null
  },
  "0066": {
    "postcode": "4470066",
    "prefecture": "愛知県",
    "prefecture_kana": "アイチケン",
    "prefecture_code": 23,
    "city": "碧南市",
    "city_kana": "ヘキナンシ",
    "town": "丸山町",
    "town_kana": "マルヤママチ",
    "street": null,
    "office_name": null,
    "office_name_kana": null
  },
  "0067": {
    "postcode": "4470067",
    "prefecture": "愛知県",
    "prefecture_kana": "アイチケン",
    "prefecture_code": 23,
    "city": "碧南市",
    "city_kana": "ヘキナンシ",
    "town": "広見町",
    "town_kana": "ヒロミマチ",
    "street": null,
    "office_name": null,
    "office_name_kana": null
  },
  "0068": {
    "postcode": "4470068",
    "prefecture": "愛知県",
    "prefecture_kana": "アイチケン",
    "prefecture_code": 23,
    "city": "碧南市",
    "city_kana": "ヘキナンシ",
    "town": "荒居町",
    "town_kana": "アライマチ",
    "street": null,
    "office_name": null,
    "office_name_kana": null
  },
  "0071": {
    "postcode": "4470071",
    "prefecture": "愛知県",
    "prefecture_kana": "アイチケン",
    "prefecture_code": 23,
    "city": "碧南市",
    "city_kana": "ヘキナンシ",
    "town": "桃山町",
    "town_kana": "モモヤママチ",
    "street": null,
    "office_name": null,
    "office_name_kana": null
  },
  "0072": {
    "postcode": "4470072",
    "prefecture": "愛知県",
    "prefecture_kana": "アイチケン",
    "prefecture_code": 23,
    "city": "碧南市",
    "city_kana": "ヘキナンシ",
    "town": "清水町",
    "town_kana": "シミズマチ",
    "street": null,
    "office_name": null,
    "office_name_kana": null
  },
  "0073": {
    "postcode": "4470073",
    "prefecture": "愛知県",
    "prefecture_kana": "アイチケン",
    "prefecture_code": 23,
    "city": "碧南市",
    "city_kana": "ヘキナンシ",
    "town": "鳥追町",
    "town_kana": "トリオイマチ",
    "street": null,
    "office_name": null,
    "office_name_kana": null
  },
  "0074": {
    "postcode": "4470074",
    "prefecture": "愛知県",
    "prefecture_kana": "アイチケン",
    "prefecture_code": 23,
    "city": "碧南市",
    "city_kana": "ヘキナンシ",
    "town": "上町",
    "town_kana": "カミマチ",
    "street": null,
    "office_name": null,
    "office_name_kana": null
  },
  "0075": {
    "postcode": "4470075",
    "prefecture": "愛知県",
    "prefecture_kana": "アイチケン",
    "prefecture_code": 23,
    "city": "碧南市",
    "city_kana": "ヘキナンシ",
    "town": "立山町",
    "town_kana": "タテヤママチ",
    "street": null,
    "office_name": null,
    "office_name_kana": null
  },
  "0076": {
    "postcode": "4470076",
    "prefecture": "愛知県",
    "prefecture_kana": "アイチケン",
    "prefecture_code": 23,
    "city": "碧南市",
    "city_kana": "ヘキナンシ",
    "town": "白砂町",
    "town_kana": "シロスナマチ",
    "street": null,
    "office_name": null,
    "office_name_kana": null
  },
  "0077": {
    "postcode": "4470077",
    "prefecture": "愛知県",
    "prefecture_kana": "アイチケン",
    "prefecture_code": 23,
    "city": "碧南市",
    "city_kana": "ヘキナンシ",
    "town": "屋敷町",
    "town_kana": "ヤシキマチ",
    "street": null,
    "office_name": null,
    "office_name_kana": null
  },
  "0078": {
    "postcode": "4470078",
    "prefecture": "愛知県",
    "prefecture_kana": "アイチケン",
    "prefecture_code": 23,
    "city": "碧南市",
    "city_kana": "ヘキナンシ",
    "town": "島池町",
    "town_kana": "シマイケマチ",
    "street": null,
    "office_name": null,
    "office_name_kana": null
  },
  "0079": {
    "postcode": "4470079",
    "prefecture": "愛知県",
    "prefecture_kana": "アイチケン",
    "prefecture_code": 23,
    "city": "碧南市",
    "city_kana": "ヘキナンシ",
    "town": "松原町",
    "town_kana": "マツバラマチ",
    "street": null,
    "office_name": null,
    "office_name_kana": null
  },
  "0081": {
    "postcode": "4470081",
    "prefecture": "愛知県",
    "prefecture_kana": "アイチケン",
    "prefecture_code": 23,
    "city": "碧南市",
    "city_kana": "ヘキナンシ",
    "town": "吹上町",
    "town_kana": "フキアゲマチ",
    "street": null,
    "office_name": null,
    "office_name_kana": null
  },
  "0082": {
    "postcode": "4470082",
    "prefecture": "愛知県",
    "prefecture_kana": "アイチケン",
    "prefecture_code": 23,
    "city": "碧南市",
    "city_kana": "ヘキナンシ",
    "town": "湖西町",
    "town_kana": "コセイマチ",
    "street": null,
    "office_name": null,
    "office_name_kana": null
  },
  "0083": {
    "postcode": "4470083",
    "prefecture": "愛知県",
    "prefecture_kana": "アイチケン",
    "prefecture_code": 23,
    "city": "碧南市",
    "city_kana": "ヘキナンシ",
    "town": "油渕町",
    "town_kana": "アブラフチマチ",
    "street": null,
    "office_name": null,
    "office_name_kana": null
  },
  "0084": {
    "postcode": "4470084",
    "prefecture": "愛知県",
    "prefecture_kana": "アイチケン",
    "prefecture_code": 23,
    "city": "碧南市",
    "city_kana": "ヘキナンシ",
    "town": "平和町",
    "town_kana": "ヘイワマチ",
    "street": null,
    "office_name": null,
    "office_name_kana": null
  },
  "0085": {
    "postcode": "4470085",
    "prefecture": "愛知県",
    "prefecture_kana": "アイチケン",
    "prefecture_code": 23,
    "city": "碧南市",
    "city_kana": "ヘキナンシ",
    "town": "金山町",
    "town_kana": "カナヤママチ",
    "street": null,
    "office_name": null,
    "office_name_kana": null
  },
  "0086": {
    "postcode": "4470086",
    "prefecture": "愛知県",
    "prefecture_kana": "アイチケン",
    "prefecture_code": 23,
    "city": "碧南市",
    "city_kana": "ヘキナンシ",
    "town": "洲先町",
    "town_kana": "スサキマチ",
    "street": null,
    "office_name": null,
    "office_name_kana": null
  },
  "0087": {
    "postcode": "4470087",
    "prefecture": "愛知県",
    "prefecture_kana": "アイチケン",
    "prefecture_code": 23,
    "city": "碧南市",
    "city_kana": "ヘキナンシ",
    "town": "坂口町",
    "town_kana": "サカグチマチ",
    "street": null,
    "office_name": null,
    "office_name_kana": null
  },
  "0088": {
    "postcode": "4470088",
    "prefecture": "愛知県",
    "prefecture_kana": "アイチケン",
    "prefecture_code": 23,
    "city": "碧南市",
    "city_kana": "ヘキナンシ",
    "town": "札木町",
    "town_kana": "フダキマチ",
    "street": null,
    "office_name": null,
    "office_name_kana": null
  },
  "0801": {
    "postcode": "4470801",
    "prefecture": "愛知県",
    "prefecture_kana": "アイチケン",
    "prefecture_code": 23,
    "city": "碧南市",
    "city_kana": "ヘキナンシ",
    "town": "野銭町",
    "town_kana": "ノセンマチ",
    "street": null,
    "office_name": null,
    "office_name_kana": null
  },
  "0802": {
    "postcode": "4470802",
    "prefecture": "愛知県",
    "prefecture_kana": "アイチケン",
    "prefecture_code": 23,
    "city": "碧南市",
    "city_kana": "ヘキナンシ",
    "town": "鷲林町",
    "town_kana": "ワシバヤシマチ",
    "street": null,
    "office_name": null,
    "office_name_kana": null
  },
  "0803": {
    "postcode": "4470803",
    "prefecture": "愛知県",
    "prefecture_kana": "アイチケン",
    "prefecture_code": 23,
    "city": "碧南市",
    "city_kana": "ヘキナンシ",
    "town": "三角町",
    "town_kana": "サンカクマチ",
    "street": null,
    "office_name": null,
    "office_name_kana": null
  },
  "0804": {
    "postcode": "4470804",
    "prefecture": "愛知県",
    "prefecture_kana": "アイチケン",
    "prefecture_code": 23,
    "city": "碧南市",
    "city_kana": "ヘキナンシ",
    "town": "流作町",
    "town_kana": "リュウサクマチ",
    "street": null,
    "office_name": null,
    "office_name_kana": null
  },
  "0805": {
    "postcode": "4470805",
    "prefecture": "愛知県",
    "prefecture_kana": "アイチケン",
    "prefecture_code": 23,
    "city": "碧南市",
    "city_kana": "ヘキナンシ",
    "town": "矢縄町",
    "town_kana": "ヤナワマチ",
    "street": null,
    "office_name": null,
    "office_name_kana": null
  },
  "0806": {
    "postcode": "4470806",
    "prefecture": "愛知県",
    "prefecture_kana": "アイチケン",
    "prefecture_code": 23,
    "city": "碧南市",
    "city_kana": "ヘキナンシ",
    "town": "三間町",
    "town_kana": "サンゲンマチ",
    "street": null,
    "office_name": null,
    "office_name_kana": null
  },
  "0807": {
    "postcode": "4470807",
    "prefecture": "愛知県",
    "prefecture_kana": "アイチケン",
    "prefecture_code": 23,
    "city": "碧南市",
    "city_kana": "ヘキナンシ",
    "town": "伏見町",
    "town_kana": "フシミマチ",
    "street": null,
    "office_name": null,
    "office_name_kana": null
  },
  "0808": {
    "postcode": "4470808",
    "prefecture": "愛知県",
    "prefecture_kana": "アイチケン",
    "prefecture_code": 23,
    "city": "碧南市",
    "city_kana": "ヘキナンシ",
    "town": "鷲塚町",
    "town_kana": "ワシヅカマチ",
    "street": null,
    "office_name": null,
    "office_name_kana": null
  },
  "0809": {
    "postcode": "4470809",
    "prefecture": "愛知県",
    "prefecture_kana": "アイチケン",
    "prefecture_code": 23,
    "city": "碧南市",
    "city_kana": "ヘキナンシ",
    "town": "小屋下町",
    "town_kana": "コヤシタマチ",
    "street": null,
    "office_name": null,
    "office_name_kana": null
  },
  "0811": {
    "postcode": "4470811",
    "prefecture": "愛知県",
    "prefecture_kana": "アイチケン",
    "prefecture_code": 23,
    "city": "碧南市",
    "city_kana": "ヘキナンシ",
    "town": "舟江町",
    "town_kana": "フナエマチ",
    "street": null,
    "office_name": null,
    "office_name_kana": null
  },
  "0812": {
    "postcode": "4470812",
    "prefecture": "愛知県",
    "prefecture_kana": "アイチケン",
    "prefecture_code": 23,
    "city": "碧南市",
    "city_kana": "ヘキナンシ",
    "town": "中江町",
    "town_kana": "ナカエマチ",
    "street": null,
    "office_name": null,
    "office_name_kana": null
  },
  "0813": {
    "postcode": "4470813",
    "prefecture": "愛知県",
    "prefecture_kana": "アイチケン",
    "prefecture_code": 23,
    "city": "碧南市",
    "city_kana": "ヘキナンシ",
    "town": "雨池町",
    "town_kana": "アマイケマチ",
    "street": null,
    "office_name": null,
    "office_name_kana": null
  },
  "0814": {
    "postcode": "4470814",
    "prefecture": "愛知県",
    "prefecture_kana": "アイチケン",
    "prefecture_code": 23,
    "city": "碧南市",
    "city_kana": "ヘキナンシ",
    "town": "弥生町",
    "town_kana": "ヤヨイマチ",
    "street": null,
    "office_name": null,
    "office_name_kana": null
  },
  "0815": {
    "postcode": "4470815",
    "prefecture": "愛知県",
    "prefecture_kana": "アイチケン",
    "prefecture_code": 23,
    "city": "碧南市",
    "city_kana": "ヘキナンシ",
    "town": "棚尾本町",
    "town_kana": "タナオホンマチ",
    "street": null,
    "office_name": null,
    "office_name_kana": null
  },
  "0816": {
    "postcode": "4470816",
    "prefecture": "愛知県",
    "prefecture_kana": "アイチケン",
    "prefecture_code": 23,
    "city": "碧南市",
    "city_kana": "ヘキナンシ",
    "town": "志貴崎町",
    "town_kana": "シキサキマチ",
    "street": null,
    "office_name": null,
    "office_name_kana": null
  },
  "0817": {
    "postcode": "4470817",
    "prefecture": "愛知県",
    "prefecture_kana": "アイチケン",
    "prefecture_code": 23,
    "city": "碧南市",
    "city_kana": "ヘキナンシ",
    "town": "川端町",
    "town_kana": "カワバタマチ",
    "street": null,
    "office_name": null,
    "office_name_kana": null
  },
  "0818": {
    "postcode": "4470818",
    "prefecture": "愛知県",
    "prefecture_kana": "アイチケン",
    "prefecture_code": 23,
    "city": "碧南市",
    "city_kana": "ヘキナンシ",
    "town": "若宮町",
    "town_kana": "ワカミヤマチ",
    "street": null,
    "office_name": null,
    "office_name_kana": null
  },
  "0821": {
    "postcode": "4470821",
    "prefecture": "愛知県",
    "prefecture_kana": "アイチケン",
    "prefecture_code": 23,
    "city": "碧南市",
    "city_kana": "ヘキナンシ",
    "town": "稲荷町",
    "town_kana": "イナリマチ",
    "street": null,
    "office_name": null,
    "office_name_kana": null
  },
  "0822": {
    "postcode": "4470822",
    "prefecture": "愛知県",
    "prefecture_kana": "アイチケン",
    "prefecture_code": 23,
    "city": "碧南市",
    "city_kana": "ヘキナンシ",
    "town": "河方町",
    "town_kana": "カワカタマチ",
    "street": null,
    "office_name": null,
    "office_name_kana": null
  },
  "0823": {
    "postcode": "4470823",
    "prefecture": "愛知県",
    "prefecture_kana": "アイチケン",
    "prefecture_code": 23,
    "city": "碧南市",
    "city_kana": "ヘキナンシ",
    "town": "川口町",
    "town_kana": "カワグチチョウ",
    "street": null,
    "office_name": null,
    "office_name_kana": null
  },
  "0824": {
    "postcode": "4470824",
    "prefecture": "愛知県",
    "prefecture_kana": "アイチケン",
    "prefecture_code": 23,
    "city": "碧南市",
    "city_kana": "ヘキナンシ",
    "town": "港南町",
    "town_kana": "コウナンマチ",
    "street": null,
    "office_name": null,
    "office_name_kana": null
  },
  "0825": {
    "postcode": "4470825",
    "prefecture": "愛知県",
    "prefecture_kana": "アイチケン",
    "prefecture_code": 23,
    "city": "碧南市",
    "city_kana": "ヘキナンシ",
    "town": "江口町",
    "town_kana": "エグチマチ",
    "street": null,
    "office_name": null,
    "office_name_kana": null
  },
  "0826": {
    "postcode": "4470826",
    "prefecture": "愛知県",
    "prefecture_kana": "アイチケン",
    "prefecture_code": 23,
    "city": "碧南市",
    "city_kana": "ヘキナンシ",
    "town": "葭生町",
    "town_kana": "ヨシオイマチ",
    "street": null,
    "office_name": null,
    "office_name_kana": null
  },
  "0827": {
    "postcode": "4470827",
    "prefecture": "愛知県",
    "prefecture_kana": "アイチケン",
    "prefecture_code": 23,
    "city": "碧南市",
    "city_kana": "ヘキナンシ",
    "town": "前浜町",
    "town_kana": "マエハママチ",
    "street": null,
    "office_name": null,
    "office_name_kana": null
  },
  "0828": {
    "postcode": "4470828",
    "prefecture": "愛知県",
    "prefecture_kana": "アイチケン",
    "prefecture_code": 23,
    "city": "碧南市",
    "city_kana": "ヘキナンシ",
    "town": "潮見町",
    "town_kana": "シオミマチ",
    "street": null,
    "office_name": null,
    "office_name_kana": null
  },
  "0829": {
    "postcode": "4470829",
    "prefecture": "愛知県",
    "prefecture_kana": "アイチケン",
    "prefecture_code": 23,
    "city": "碧南市",
    "city_kana": "ヘキナンシ",
    "town": "中田町",
    "town_kana": "ナカタマチ",
    "street": null,
    "office_name": null,
    "office_name_kana": null
  },
  "0831": {
    "postcode": "4470831",
    "prefecture": "愛知県",
    "prefecture_kana": "アイチケン",
    "prefecture_code": 23,
    "city": "碧南市",
    "city_kana": "ヘキナンシ",
    "town": "入船町",
    "town_kana": "イリフネマチ",
    "street": null,
    "office_name": null,
    "office_name_kana": null
  },
  "0832": {
    "postcode": "4470832",
    "prefecture": "愛知県",
    "prefecture_kana": "アイチケン",
    "prefecture_code": 23,
    "city": "碧南市",
    "city_kana": "ヘキナンシ",
    "town": "岬町",
    "town_kana": "ミサキマチ",
    "street": null,
    "office_name": null,
    "office_name_kana": null
  },
  "0833": {
    "postcode": "4470833",
    "prefecture": "愛知県",
    "prefecture_kana": "アイチケン",
    "prefecture_code": 23,
    "city": "碧南市",
    "city_kana": "ヘキナンシ",
    "town": "権現町",
    "town_kana": "ゴンゲンマチ",
    "street": null,
    "office_name": null,
    "office_name_kana": null
  },
  "0834": {
    "postcode": "4470834",
    "prefecture": "愛知県",
    "prefecture_kana": "アイチケン",
    "prefecture_code": 23,
    "city": "碧南市",
    "city_kana": "ヘキナンシ",
    "town": "玉津浦町",
    "town_kana": "タマツウラマチ",
    "street": null,
    "office_name": null,
    "office_name_kana": null
  },
  "0835": {
    "postcode": "4470835",
    "prefecture": "愛知県",
    "prefecture_kana": "アイチケン",
    "prefecture_code": 23,
    "city": "碧南市",
    "city_kana": "ヘキナンシ",
    "town": "宮町",
    "town_kana": "ミヤマチ",
    "street": null,
    "office_name": null,
    "office_name_kana": null
  },
  "0836": {
    "postcode": "4470836",
    "prefecture": "愛知県",
    "prefecture_kana": "アイチケン",
    "prefecture_code": 23,
    "city": "碧南市",
    "city_kana": "ヘキナンシ",
    "town": "若松町",
    "town_kana": "ワカマツマチ",
    "street": null,
    "office_name": null,
    "office_name_kana": null
  },
  "0837": {
    "postcode": "4470837",
    "prefecture": "愛知県",
    "prefecture_kana": "アイチケン",
    "prefecture_code": 23,
    "city": "碧南市",
    "city_kana": "ヘキナンシ",
    "town": "伊勢町",
    "town_kana": "イセマチ",
    "street": null,
    "office_name": null,
    "office_name_kana": null
  },
  "0838": {
    "postcode": "4470838",
    "prefecture": "愛知県",
    "prefecture_kana": "アイチケン",
    "prefecture_code": 23,
    "city": "碧南市",
    "city_kana": "ヘキナンシ",
    "town": "権田町",
    "town_kana": "ゴンダマチ",
    "street": null,
    "office_name": null,
    "office_name_kana": null
  },
  "0841": {
    "postcode": "4470841",
    "prefecture": "愛知県",
    "prefecture_kana": "アイチケン",
    "prefecture_code": 23,
    "city": "碧南市",
    "city_kana": "ヘキナンシ",
    "town": "塩浜町",
    "town_kana": "シオハママチ",
    "street": null,
    "office_name": null,
    "office_name_kana": null
  },
  "0842": {
    "postcode": "4470842",
    "prefecture": "愛知県",
    "prefecture_kana": "アイチケン",
    "prefecture_code": 23,
    "city": "碧南市",
    "city_kana": "ヘキナンシ",
    "town": "浜田町",
    "town_kana": "ハマダマチ",
    "street": null,
    "office_name": null,
    "office_name_kana": null
  },
  "0843": {
    "postcode": "4470843",
    "prefecture": "愛知県",
    "prefecture_kana": "アイチケン",
    "prefecture_code": 23,
    "city": "碧南市",
    "city_kana": "ヘキナンシ",
    "town": "西浜町",
    "town_kana": "ニシハママチ",
    "street": null,
    "office_name": null,
    "office_name_kana": null
  },
  "0844": {
    "postcode": "4470844",
    "prefecture": "愛知県",
    "prefecture_kana": "アイチケン",
    "prefecture_code": 23,
    "city": "碧南市",
    "city_kana": "ヘキナンシ",
    "town": "港本町",
    "town_kana": "ミナトホンマチ",
    "street": null,
    "office_name": null,
    "office_name_kana": null
  },
  "0845": {
    "postcode": "4470845",
    "prefecture": "愛知県",
    "prefecture_kana": "アイチケン",
    "prefecture_code": 23,
    "city": "碧南市",
    "city_kana": "ヘキナンシ",
    "town": "浜寺町",
    "town_kana": "ハマデラマチ",
    "street": null,
    "office_name": null,
    "office_name_kana": null
  },
  "0846": {
    "postcode": "4470846",
    "prefecture": "愛知県",
    "prefecture_kana": "アイチケン",
    "prefecture_code": 23,
    "city": "碧南市",
    "city_kana": "ヘキナンシ",
    "town": "中町",
    "town_kana": "ナカマチ",
    "street": null,
    "office_name": null,
    "office_name_kana": null
  },
  "0847": {
    "postcode": "4470847",
    "prefecture": "愛知県",
    "prefecture_kana": "アイチケン",
    "prefecture_code": 23,
    "city": "碧南市",
    "city_kana": "ヘキナンシ",
    "town": "音羽町",
    "town_kana": "オトハマチ",
    "street": null,
    "office_name": null,
    "office_name_kana": null
  },
  "0848": {
    "postcode": "4470848",
    "prefecture": "愛知県",
    "prefecture_kana": "アイチケン",
    "prefecture_code": 23,
    "city": "碧南市",
    "city_kana": "ヘキナンシ",
    "town": "錦町",
    "town_kana": "ニシキマチ",
    "street": null,
    "office_name": null,
    "office_name_kana": null
  },
  "0849": {
    "postcode": "4470849",
    "prefecture": "愛知県",
    "prefecture_kana": "アイチケン",
    "prefecture_code": 23,
    "city": "碧南市",
    "city_kana": "ヘキナンシ",
    "town": "築山町",
    "town_kana": "ツキヤママチ",
    "street": null,
    "office_name": null,
    "office_name_kana": null
  },
  "0851": {
    "postcode": "4470851",
    "prefecture": "愛知県",
    "prefecture_kana": "アイチケン",
    "prefecture_code": 23,
    "city": "碧南市",
    "city_kana": "ヘキナンシ",
    "town": "羽根町",
    "town_kana": "ハネマチ",
    "street": null,
    "office_name": null,
    "office_name_kana": null
  },
  "0852": {
    "postcode": "4470852",
    "prefecture": "愛知県",
    "prefecture_kana": "アイチケン",
    "prefecture_code": 23,
    "city": "碧南市",
    "city_kana": "ヘキナンシ",
    "town": "本郷町",
    "town_kana": "ホンゴウマチ",
    "street": null,
    "office_name": null,
    "office_name_kana": null
  },
  "0853": {
    "postcode": "4470853",
    "prefecture": "愛知県",
    "prefecture_kana": "アイチケン",
    "prefecture_code": 23,
    "city": "碧南市",
    "city_kana": "ヘキナンシ",
    "town": "浜町",
    "town_kana": "ハママチ",
    "street": null,
    "office_name": null,
    "office_name_kana": null
  },
  "0854": {
    "postcode": "4470854",
    "prefecture": "愛知県",
    "prefecture_kana": "アイチケン",
    "prefecture_code": 23,
    "city": "碧南市",
    "city_kana": "ヘキナンシ",
    "town": "須磨町",
    "town_kana": "スママチ",
    "street": null,
    "office_name": null,
    "office_name_kana": null
  },
  "0855": {
    "postcode": "4470855",
    "prefecture": "愛知県",
    "prefecture_kana": "アイチケン",
    "prefecture_code": 23,
    "city": "碧南市",
    "city_kana": "ヘキナンシ",
    "town": "天王町",
    "town_kana": "テンノウマチ",
    "street": null,
    "office_name": null,
    "office_name_kana": null
  },
  "0856": {
    "postcode": "4470856",
    "prefecture": "愛知県",
    "prefecture_kana": "アイチケン",
    "prefecture_code": 23,
    "city": "碧南市",
    "city_kana": "ヘキナンシ",
    "town": "宮後町",
    "town_kana": "ミヤゴマチ",
    "street": null,
    "office_name": null,
    "office_name_kana": null
  },
  "0857": {
    "postcode": "4470857",
    "prefecture": "愛知県",
    "prefecture_kana": "アイチケン",
    "prefecture_code": 23,
    "city": "碧南市",
    "city_kana": "ヘキナンシ",
    "town": "大浜上町",
    "town_kana": "オオハマカミマチ",
    "street": null,
    "office_name": null,
    "office_name_kana": null
  },
  "0858": {
    "postcode": "4470858",
    "prefecture": "愛知県",
    "prefecture_kana": "アイチケン",
    "prefecture_code": 23,
    "city": "碧南市",
    "city_kana": "ヘキナンシ",
    "town": "石橋町",
    "town_kana": "イシバシマチ",
    "street": null,
    "office_name": null,
    "office_name_kana": null
  },
  "0859": {
    "postcode": "4470859",
    "prefecture": "愛知県",
    "prefecture_kana": "アイチケン",
    "prefecture_code": 23,
    "city": "碧南市",
    "city_kana": "ヘキナンシ",
    "town": "中松町",
    "town_kana": "ナカマツマチ",
    "street": null,
    "office_name": null,
    "office_name_kana": null
  },
  "0861": {
    "postcode": "4470861",
    "prefecture": "愛知県",
    "prefecture_kana": "アイチケン",
    "prefecture_code": 23,
    "city": "碧南市",
    "city_kana": "ヘキナンシ",
    "town": "六軒町",
    "town_kana": "ロッケンマチ",
    "street": null,
    "office_name": null,
    "office_name_kana": null
  },
  "0862": {
    "postcode": "4470862",
    "prefecture": "愛知県",
    "prefecture_kana": "アイチケン",
    "prefecture_code": 23,
    "city": "碧南市",
    "city_kana": "ヘキナンシ",
    "town": "相生町",
    "town_kana": "アイオイマチ",
    "street": null,
    "office_name": null,
    "office_name_kana": null
  },
  "0863": {
    "postcode": "4470863",
    "prefecture": "愛知県",
    "prefecture_kana": "アイチケン",
    "prefecture_code": 23,
    "city": "碧南市",
    "city_kana": "ヘキナンシ",
    "town": "新川町",
    "town_kana": "シンカワマチ",
    "street": null,
    "office_name": null,
    "office_name_kana": null
  },
  "0864": {
    "postcode": "4470864",
    "prefecture": "愛知県",
    "prefecture_kana": "アイチケン",
    "prefecture_code": 23,
    "city": "碧南市",
    "city_kana": "ヘキナンシ",
    "town": "道場山町",
    "town_kana": "ドウジョウヤママチ",
    "street": null,
    "office_name": null,
    "office_name_kana": null
  },
  "0865": {
    "postcode": "4470865",
    "prefecture": "愛知県",
    "prefecture_kana": "アイチケン",
    "prefecture_code": 23,
    "city": "碧南市",
    "city_kana": "ヘキナンシ",
    "town": "浅間町",
    "town_kana": "アサママチ",
    "street": null,
    "office_name": null,
    "office_name_kana": null
  },
  "0866": {
    "postcode": "4470866",
    "prefecture": "愛知県",
    "prefecture_kana": "アイチケン",
    "prefecture_code": 23,
    "city": "碧南市",
    "city_kana": "ヘキナンシ",
    "town": "明石町",
    "town_kana": "アカシマチ",
    "street": null,
    "office_name": null,
    "office_name_kana": null
  },
  "0867": {
    "postcode": "4470867",
    "prefecture": "愛知県",
    "prefecture_kana": "アイチケン",
    "prefecture_code": 23,
    "city": "碧南市",
    "city_kana": "ヘキナンシ",
    "town": "田尻町",
    "town_kana": "タジリマチ",
    "street": null,
    "office_name": null,
    "office_name_kana": null
  },
  "0868": {
    "postcode": "4470868",
    "prefecture": "愛知県",
    "prefecture_kana": "アイチケン",
    "prefecture_code": 23,
    "city": "碧南市",
    "city_kana": "ヘキナンシ",
    "town": "松江町",
    "town_kana": "マツエマチ",
    "street": null,
    "office_name": null,
    "office_name_kana": null
  },
  "0869": {
    "postcode": "4470869",
    "prefecture": "愛知県",
    "prefecture_kana": "アイチケン",
    "prefecture_code": 23,
    "city": "碧南市",
    "city_kana": "ヘキナンシ",
    "town": "山神町",
    "town_kana": "ヤマガミマチ",
    "street": null,
    "office_name": null,
    "office_name_kana": null
  },
  "0871": {
    "postcode": "4470871",
    "prefecture": "愛知県",
    "prefecture_kana": "アイチケン",
    "prefecture_code": 23,
    "city": "碧南市",
    "city_kana": "ヘキナンシ",
    "town": "向陽町",
    "town_kana": "コウヨウマチ",
    "street": null,
    "office_name": null,
    "office_name_kana": null
  },
  "0872": {
    "postcode": "4470872",
    "prefecture": "愛知県",
    "prefecture_kana": "アイチケン",
    "prefecture_code": 23,
    "city": "碧南市",
    "city_kana": "ヘキナンシ",
    "town": "源氏神明町",
    "town_kana": "ゲンジシンメイマチ",
    "street": null,
    "office_name": null,
    "office_name_kana": null
  },
  "0873": {
    "postcode": "4470873",
    "prefecture": "愛知県",
    "prefecture_kana": "アイチケン",
    "prefecture_code": 23,
    "city": "碧南市",
    "city_kana": "ヘキナンシ",
    "town": "栗山町",
    "town_kana": "クリヤママチ",
    "street": null,
    "office_name": null,
    "office_name_kana": null
  },
  "0874": {
    "postcode": "4470874",
    "prefecture": "愛知県",
    "prefecture_kana": "アイチケン",
    "prefecture_code": 23,
    "city": "碧南市",
    "city_kana": "ヘキナンシ",
    "town": "作塚町",
    "town_kana": "サクヅカマチ",
    "street": null,
    "office_name": null,
    "office_name_kana": null
  },
  "0875": {
    "postcode": "4470875",
    "prefecture": "愛知県",
    "prefecture_kana": "アイチケン",
    "prefecture_code": 23,
    "city": "碧南市",
    "city_kana": "ヘキナンシ",
    "town": "善明町",
    "town_kana": "ゼンメイマチ",
    "street": null,
    "office_name": null,
    "office_name_kana": null
  },
  "0876": {
    "postcode": "4470876",
    "prefecture": "愛知県",
    "prefecture_kana": "アイチケン",
    "prefecture_code": 23,
    "city": "碧南市",
    "city_kana": "ヘキナンシ",
    "town": "野田町",
    "town_kana": "ノダマチ",
    "street": null,
    "office_name": null,
    "office_name_kana": null
  },
  "0877": {
    "postcode": "4470877",
    "prefecture": "愛知県",
    "prefecture_kana": "アイチケン",
    "prefecture_code": 23,
    "city": "碧南市",
    "city_kana": "ヘキナンシ",
    "town": "栄町",
    "town_kana": "サカエマチ",
    "street": null,
    "office_name": null,
    "office_name_kana": null
  },
  "0878": {
    "postcode": "4470878",
    "prefecture": "愛知県",
    "prefecture_kana": "アイチケン",
    "prefecture_code": 23,
    "city": "碧南市",
    "city_kana": "ヘキナンシ",
    "town": "松本町",
    "town_kana": "マツモトマチ",
    "street": null,
    "office_name": null,
    "office_name_kana": null
  },
  "0879": {
    "postcode": "4470879",
    "prefecture": "愛知県",
    "prefecture_kana": "アイチケン",
    "prefecture_code": 23,
    "city": "碧南市",
    "city_kana": "ヘキナンシ",
    "town": "沢渡町",
    "town_kana": "サワタリマチ",
    "street": null,
    "office_name": null,
    "office_name_kana": null
  },
  "0881": {
    "postcode": "4470881",
    "prefecture": "愛知県",
    "prefecture_kana": "アイチケン",
    "prefecture_code": 23,
    "city": "碧南市",
    "city_kana": "ヘキナンシ",
    "town": "霞浦町",
    "town_kana": "カスミウラマチ",
    "street": null,
    "office_name": null,
    "office_name_kana": null
  },
  "0882": {
    "postcode": "4470882",
    "prefecture": "愛知県",
    "prefecture_kana": "アイチケン",
    "prefecture_code": 23,
    "city": "碧南市",
    "city_kana": "ヘキナンシ",
    "town": "日進町",
    "town_kana": "ニッシンマチ",
    "street": null,
    "office_name": null,
    "office_name_kana": null
  },
  "0883": {
    "postcode": "4470883",
    "prefecture": "愛知県",
    "prefecture_kana": "アイチケン",
    "prefecture_code": 23,
    "city": "碧南市",
    "city_kana": "ヘキナンシ",
    "town": "下洲町",
    "town_kana": "シモスマチ",
    "street": null,
    "office_name": null,
    "office_name_kana": null
  },
  "0884": {
    "postcode": "4470884",
    "prefecture": "愛知県",
    "prefecture_kana": "アイチケン",
    "prefecture_code": 23,
    "city": "碧南市",
    "city_kana": "ヘキナンシ",
    "town": "平七町",
    "town_kana": "ヘイシチマチ",
    "street": null,
    "office_name": null,
    "office_name_kana": null
  },
  "0885": {
    "postcode": "4470885",
    "prefecture": "愛知県",
    "prefecture_kana": "アイチケン",
    "prefecture_code": 23,
    "city": "碧南市",
    "city_kana": "ヘキナンシ",
    "town": "志貴町",
    "town_kana": "シキマチ",
    "street": null,
    "office_name": null,
    "office_name_kana": null
  },
  "0886": {
    "postcode": "4470886",
    "prefecture": "愛知県",
    "prefecture_kana": "アイチケン",
    "prefecture_code": 23,
    "city": "碧南市",
    "city_kana": "ヘキナンシ",
    "town": "源氏町",
    "town_kana": "ゲンジマチ",
    "street": null,
    "office_name": null,
    "office_name_kana": null
  },
  "0887": {
    "postcode": "4470887",
    "prefecture": "愛知県",
    "prefecture_kana": "アイチケン",
    "prefecture_code": 23,
    "city": "碧南市",
    "city_kana": "ヘキナンシ",
    "town": "汐田町",
    "town_kana": "シオタマチ",
    "street": null,
    "office_name": null,
    "office_name_kana": null
  },
  "0888": {
    "postcode": "4470888",
    "prefecture": "愛知県",
    "prefecture_kana": "アイチケン",
    "prefecture_code": 23,
    "city": "碧南市",
    "city_kana": "ヘキナンシ",
    "town": "春日町",
    "town_kana": "カスガマチ",
    "street": null,
    "office_name": null,
    "office_name_kana": null
  },
  "0889": {
    "postcode": "4470889",
    "prefecture": "愛知県",
    "prefecture_kana": "アイチケン",
    "prefecture_code": 23,
    "city": "碧南市",
    "city_kana": "ヘキナンシ",
    "town": "東浦町",
    "town_kana": "ヒガシウラマチ",
    "street": null,
    "office_name": null,
    "office_name_kana": null
  },
  "8501": {
    "postcode": "4478501",
    "prefecture": "愛知県",
    "prefecture_kana": "アイチケン",
    "prefecture_code": 23,
    "city": "碧南市",
    "city_kana": "ヘキナンシ",
    "town": "音羽町",
    "town_kana": "オトハマチ",
    "street": "１丁目１",
    "office_name": "碧南商工会議所",
    "office_name_kana": "ヘキナンシヨウコウカイギシヨ"
  },
  "8502": {
    "postcode": "4478502",
    "prefecture": "愛知県",
    "prefecture_kana": "アイチケン",
    "prefecture_code": 23,
    "city": "碧南市",
    "city_kana": "ヘキナンシ",
    "town": "平和町",
    "town_kana": "ヘイワマチ",
    "street": "３丁目６",
    "office_name": "碧南市民病院",
    "office_name_kana": "ヘキナンシミンビヨウイン"
  },
  "8503": {
    "postcode": "4478503",
    "prefecture": "愛知県",
    "prefecture_kana": "アイチケン",
    "prefecture_code": 23,
    "city": "碧南市",
    "city_kana": "ヘキナンシ",
    "town": "平山町",
    "town_kana": "ヒラヤママチ",
    "street": "３丁目１−１",
    "office_name": "中庸スプリング　株式会社",
    "office_name_kana": "チユウヨウスプリング カブシキガイシヤ"
  },
  "8505": {
    "postcode": "4478505",
    "prefecture": "愛知県",
    "prefecture_kana": "アイチケン",
    "prefecture_code": 23,
    "city": "碧南市",
    "city_kana": "ヘキナンシ",
    "town": "中山町",
    "town_kana": "ナカヤママチ",
    "street": "７丁目２６",
    "office_name": "旭鉄工　株式会社",
    "office_name_kana": "アサヒテツコウ カブシキガイシヤ"
  },
  "8507": {
    "postcode": "4478507",
    "prefecture": "愛知県",
    "prefecture_kana": "アイチケン",
    "prefecture_code": 23,
    "city": "碧南市",
    "city_kana": "ヘキナンシ",
    "town": "浜町",
    "town_kana": "ハママチ",
    "street": "３",
    "office_name": "株式会社　豊田自動織機製作所　碧南工場",
    "office_name_kana": "カブシキガイシヤ トヨダジドウシヨツキセイサクシヨ ヘキナンコウジヨウ"
  },
  "8508": {
    "postcode": "4478508",
    "prefecture": "愛知県",
    "prefecture_kana": "アイチケン",
    "prefecture_code": 23,
    "city": "碧南市",
    "city_kana": "ヘキナンシ",
    "town": "港南町",
    "town_kana": "コウナンマチ",
    "street": "２丁目８番地１２",
    "office_name": "アイシン辰栄　株式会社",
    "office_name_kana": "アイシンシンエイ カブシキガイシヤ"
  },
  "8510": {
    "postcode": "4478510",
    "prefecture": "愛知県",
    "prefecture_kana": "アイチケン",
    "prefecture_code": 23,
    "city": "碧南市",
    "city_kana": "ヘキナンシ",
    "town": "新川町",
    "town_kana": "シンカワマチ",
    "street": "３丁目８８",
    "office_name": "医療法人　愛生館　小林記念病院",
    "office_name_kana": "イリヨウホウジン アイセイカン コバヤシキネンビヨウイン"
  },
  "8511": {
    "postcode": "4478511",
    "prefecture": "愛知県",
    "prefecture_kana": "アイチケン",
    "prefecture_code": 23,
    "city": "碧南市",
    "city_kana": "ヘキナンシ",
    "town": "雁道町",
    "town_kana": "ガンミチマチ",
    "street": "４丁目１番地",
    "office_name": "株式会社　五十鈴製作所",
    "office_name_kana": "カブシキガイシヤ イスズセイサクシヨ"
  },
  "8512": {
    "postcode": "4478512",
    "prefecture": "愛知県",
    "prefecture_kana": "アイチケン",
    "prefecture_code": 23,
    "city": "碧南市",
    "city_kana": "ヘキナンシ",
    "town": "白沢町",
    "town_kana": "シロサワマチ",
    "street": "１丁目３８",
    "office_name": "栄四郎瓦　株式会社",
    "office_name_kana": "エイシロウガワラ カブシキガイシヤ"
  },
  "8601": {
    "postcode": "4478601",
    "prefecture": "愛知県",
    "prefecture_kana": "アイチケン",
    "prefecture_code": 23,
    "city": "碧南市",
    "city_kana": "ヘキナンシ",
    "town": "松本町",
    "town_kana": "マツモトマチ",
    "street": "２８（碧南郵便局私書箱第３号）",
    "office_name": "碧南市役所",
    "office_name_kana": "ヘキナンシヤクシヨ"
  },
  "8603": {
    "postcode": "4478603",
    "prefecture": "愛知県",
    "prefecture_kana": "アイチケン",
    "prefecture_code": 23,
    "city": "碧南市",
    "city_kana": "ヘキナンシ",
    "town": "浜寺町",
    "town_kana": "ハマデラマチ",
    "street": "２丁目１１（碧南郵便局私書箱第８号）",
    "office_name": "九重味淋　株式会社",
    "office_name_kana": "ココノエミリン カブシキガイシヤ"
  },
  "8605": {
    "postcode": "4478605",
    "prefecture": "愛知県",
    "prefecture_kana": "アイチケン",
    "prefecture_code": 23,
    "city": "碧南市",
    "city_kana": "ヘキナンシ",
    "town": "栄町",
    "town_kana": "サカエマチ",
    "street": "２丁目４１番地（碧南郵便局私書箱第７号）",
    "office_name": "愛知県中央信用組合",
    "office_name_kana": "アイチケンチユウオウシンヨウクミアイ"
  },
  "8608": {
    "postcode": "4478608",
    "prefecture": "愛知県",
    "prefecture_kana": "アイチケン",
    "prefecture_code": 23,
    "city": "碧南市",
    "city_kana": "ヘキナンシ",
    "town": "玉津浦町",
    "town_kana": "タマツウラマチ",
    "street": "１番地（碧南郵便局私書箱第２７号）",
    "office_name": "日本コーンスターチ　株式会社　衣浦事業所",
    "office_name_kana": "ニホンコ-ンスタ-チ カブシキガイシヤ キヌウラジギヨウシヨ"
  },
  "8610": {
    "postcode": "4478610",
    "prefecture": "愛知県",
    "prefecture_kana": "アイチケン",
    "prefecture_code": 23,
    "city": "碧南市",
    "city_kana": "ヘキナンシ",
    "town": "浜町",
    "town_kana": "ハママチ",
    "street": "１（碧南郵便局私書箱第２８号）",
    "office_name": "日本金属工業　株式会社　衣浦製造所",
    "office_name_kana": "ニツポンキンゾクコウギヨウ カブシキガイシヤ キヌウラセイゾウシヨ"
  },
  "8680": {
    "postcode": "4478680",
    "prefecture": "愛知県",
    "prefecture_kana": "アイチケン",
    "prefecture_code": 23,
    "city": "碧南市",
    "city_kana": "ヘキナンシ",
    "town": "棚尾本町",
    "town_kana": "タナオホンマチ",
    "street": "４丁目１０（碧南郵便局私書箱第１２号）",
    "office_name": "株式会社　平岩鉄工所",
    "office_name_kana": "カブシキガイシヤ ヒライワテツコウシヨ"
  }
}