{
  "0000": {
    "postcode": "4510000",
    "prefecture": "愛知県",
    "prefecture_kana": "アイチケン",
    "prefecture_code": 23,
    "city": "名古屋市西区",
    "city_kana": "ナゴヤシニシク",
    "town": "",
    "town_kana": "",
    "street": null,
    "office_name": null,
    "office_name_kana": null
  },
  "0011": {
    "postcode": "4510011",
    "prefecture": "愛知県",
    "prefecture_kana": "アイチケン",
    "prefecture_code": 23,
    "city": "名古屋市西区",
    "city_kana": "ナゴヤシニシク",
    "town": "桝形町",
    "town_kana": "マスガタチョウ",
    "street": null,
    "office_name": null,
    "office_name_kana": null
  },
  "0012": {
    "postcode": "4510012",
    "prefecture": "愛知県",
    "prefecture_kana": "アイチケン",
    "prefecture_code": 23,
    "city": "名古屋市西区",
    "city_kana": "ナゴヤシニシク",
    "town": "稲生町",
    "town_kana": "イノウチョウ",
    "street": null,
    "office_name": null,
    "office_name_kana": null
  },
  "0013": {
    "postcode": "4510013",
    "prefecture": "愛知県",
    "prefecture_kana": "アイチケン",
    "prefecture_code": 23,
    "city": "名古屋市西区",
    "city_kana": "ナゴヤシニシク",
    "town": "江向町",
    "town_kana": "エムカエチョウ",
    "street": null,
    "office_name": null,
    "office_name_kana": null
  },
  "0014": {
    "postcode": "4510014",
    "prefecture": "愛知県",
    "prefecture_kana": "アイチケン",
    "prefecture_code": 23,
    "city": "名古屋市西区",
    "city_kana": "ナゴヤシニシク",
    "town": "又穂町",
    "town_kana": "マタホチョウ",
    "street": null,
    "office_name": null,
    "office_name_kana": null
  },
  "0015": {
    "postcode": "4510015",
    "prefecture": "愛知県",
    "prefecture_kana": "アイチケン",
    "prefecture_code": 23,
    "city": "名古屋市西区",
    "city_kana": "ナゴヤシニシク",
    "town": "香呑町",
    "town_kana": "コウノミチョウ",
    "street": null,
    "office_name": null,
    "office_name_kana": null
  },
  "0016": {
    "postcode": "4510016",
    "prefecture": "愛知県",
    "prefecture_kana": "アイチケン",
    "prefecture_code": 23,
    "city": "名古屋市西区",
    "city_kana": "ナゴヤシニシク",
    "town": "庄内通",
    "town_kana": "ショウナイトオリ",
    "street": null,
    "office_name": null,
    "office_name_kana": null
  },
  "0021": {
    "postcode": "4510021",
    "prefecture": "愛知県",
    "prefecture_kana": "アイチケン",
    "prefecture_code": 23,
    "city": "名古屋市西区",
    "city_kana": "ナゴヤシニシク",
    "town": "天塚町",
    "town_kana": "アマヅカチョウ",
    "street": null,
    "office_name": null,
    "office_name_kana": null
  },
  "0022": {
    "postcode": "4510022",
    "prefecture": "愛知県",
    "prefecture_kana": "アイチケン",
    "prefecture_code": 23,
    "city": "名古屋市西区",
    "city_kana": "ナゴヤシニシク",
    "town": "貝田町",
    "town_kana": "カイダチョウ",
    "street": null,
    "office_name": null,
    "office_name_kana": null
  },
  "0023": {
    "postcode": "4510023",
    "prefecture": "愛知県",
    "prefecture_kana": "アイチケン",
    "prefecture_code": 23,
    "city": "名古屋市西区",
    "city_kana": "ナゴヤシニシク",
    "town": "城北町",
    "town_kana": "ジョウホクチョウ",
    "street": null,
    "office_name": null,
    "office_name_kana": null
  },
  "0024": {
    "postcode": "4510024",
    "prefecture": "愛知県",
    "prefecture_kana": "アイチケン",
    "prefecture_code": 23,
    "city": "名古屋市西区",
    "city_kana": "ナゴヤシニシク",
    "town": "秩父通",
    "town_kana": "チチブトオリ",
    "street": null,
    "office_name": null,
    "office_name_kana": null
  },
  "0025": {
    "postcode": "4510025",
    "prefecture": "愛知県",
    "prefecture_kana": "アイチケン",
    "prefecture_code": 23,
    "city": "名古屋市西区",
    "city_kana": "ナゴヤシニシク",
    "town": "上名古屋",
    "town_kana": "カミナゴヤ",
    "street": null,
    "office_name": null,
    "office_name_kana": null
  },
  "0026": {
    "postcode": "4510026",
    "prefecture": "愛知県",
    "prefecture_kana": "アイチケン",
    "prefecture_code": 23,
    "city": "名古屋市西区",
    "city_kana": "ナゴヤシニシク",
    "town": "田幡町",
    "town_kana": "タバタチョウ",
    "street": null,
    "office_name": null,
    "office_name_kana": null
  },
  "0027": {
    "postcode": "4510027",
    "prefecture": "愛知県",
    "prefecture_kana": "アイチケン",
    "prefecture_code": 23,
    "city": "名古屋市西区",
    "city_kana": "ナゴヤシニシク",
    "town": "西志賀町",
    "town_kana": "ニシシガチョウ",
    "street": null,
    "office_name": null,
    "office_name_kana": null
  },
  "0031": {
    "postcode": "4510031",
    "prefecture": "愛知県",
    "prefecture_kana": "アイチケン",
    "prefecture_code": 23,
    "city": "名古屋市西区",
    "city_kana": "ナゴヤシニシク",
    "town": "城西",
    "town_kana": "ジョウサイ",
    "street": null,
    "office_name": null,
    "office_name_kana": null
  },
  "0032": {
    "postcode": "4510032",
    "prefecture": "愛知県",
    "prefecture_kana": "アイチケン",
    "prefecture_code": 23,
    "city": "名古屋市西区",
    "city_kana": "ナゴヤシニシク",
    "town": "数寄屋町",
    "town_kana": "スキヤチョウ",
    "street": null,
    "office_name": null,
    "office_name_kana": null
  },
  "0033": {
    "postcode": "4510033",
    "prefecture": "愛知県",
    "prefecture_kana": "アイチケン",
    "prefecture_code": 23,
    "city": "名古屋市西区",
    "city_kana": "ナゴヤシニシク",
    "town": "堀端町",
    "town_kana": "ホリバタチョウ",
    "street": null,
    "office_name": null,
    "office_name_kana": null
  },
  "0034": {
    "postcode": "4510034",
    "prefecture": "愛知県",
    "prefecture_kana": "アイチケン",
    "prefecture_code": 23,
    "city": "名古屋市西区",
    "city_kana": "ナゴヤシニシク",
    "town": "樋の口町",
    "town_kana": "ヒノクチチョウ",
    "street": null,
    "office_name": null,
    "office_name_kana": null
  },
  "0035": {
    "postcode": "4510035",
    "prefecture": "愛知県",
    "prefecture_kana": "アイチケン",
    "prefecture_code": 23,
    "city": "名古屋市西区",
    "city_kana": "ナゴヤシニシク",
    "town": "浅間",
    "town_kana": "センゲン",
    "street": null,
    "office_name": null,
    "office_name_kana": null
  },
  "0041": {
    "postcode": "4510041",
    "prefecture": "愛知県",
    "prefecture_kana": "アイチケン",
    "prefecture_code": 23,
    "city": "名古屋市西区",
    "city_kana": "ナゴヤシニシク",
    "town": "幅下",
    "town_kana": "ハバシタ",
    "street": null,
    "office_name": null,
    "office_name_kana": null
  },
  "0042": {
    "postcode": "4510042",
    "prefecture": "愛知県",
    "prefecture_kana": "アイチケン",
    "prefecture_code": 23,
    "city": "名古屋市西区",
    "city_kana": "ナゴヤシニシク",
    "town": "那古野",
    "town_kana": "ナゴノ",
    "street": null,
    "office_name": null,
    "office_name_kana": null
  },
  "0043": {
    "postcode": "4510043",
    "prefecture": "愛知県",
    "prefecture_kana": "アイチケン",
    "prefecture_code": 23,
    "city": "名古屋市西区",
    "city_kana": "ナゴヤシニシク",
    "town": "新道",
    "town_kana": "シンミチ",
    "street": null,
    "office_name": null,
    "office_name_kana": null
  },
  "0044": {
    "postcode": "4510044",
    "prefecture": "愛知県",
    "prefecture_kana": "アイチケン",
    "prefecture_code": 23,
    "city": "名古屋市西区",
    "city_kana": "ナゴヤシニシク",
    "town": "菊井",
    "town_kana": "キクイ",
    "street": null,
    "office_name": null,
    "office_name_kana": null
  },
  "0045": {
    "postcode": "4510045",
    "prefecture": "愛知県",
    "prefecture_kana": "アイチケン",
    "prefecture_code": 23,
    "city": "名古屋市西区",
    "city_kana": "ナゴヤシニシク",
    "town": "名駅",
    "town_kana": "メイエキ",
    "street": null,
    "office_name": null,
    "office_name_kana": null
  },
  "0046": {
    "postcode": "4510046",
    "prefecture": "愛知県",
    "prefecture_kana": "アイチケン",
    "prefecture_code": 23,
    "city": "名古屋市西区",
    "city_kana": "ナゴヤシニシク",
    "town": "牛島町",
    "town_kana": "ウシジマチョウ",
    "street": null,
    "office_name": null,
    "office_name_kana": null
  },
  "0051": {
    "postcode": "4510051",
    "prefecture": "愛知県",
    "prefecture_kana": "アイチケン",
    "prefecture_code": 23,
    "city": "名古屋市西区",
    "city_kana": "ナゴヤシニシク",
    "town": "則武新町",
    "town_kana": "ノリタケシンマチ",
    "street": null,
    "office_name": null,
    "office_name_kana": null
  },
  "0052": {
    "postcode": "4510052",
    "prefecture": "愛知県",
    "prefecture_kana": "アイチケン",
    "prefecture_code": 23,
    "city": "名古屋市西区",
    "city_kana": "ナゴヤシニシク",
    "town": "栄生",
    "town_kana": "サコウ",
    "street": null,
    "office_name": null,
    "office_name_kana": null
  },
  "0053": {
    "postcode": "4510053",
    "prefecture": "愛知県",
    "prefecture_kana": "アイチケン",
    "prefecture_code": 23,
    "city": "名古屋市西区",
    "city_kana": "ナゴヤシニシク",
    "town": "枇杷島",
    "town_kana": "ビワジマ",
    "street": null,
    "office_name": null,
    "office_name_kana": null
  },
  "0054": {
    "postcode": "4510054",
    "prefecture": "愛知県",
    "prefecture_kana": "アイチケン",
    "prefecture_code": 23,
    "city": "名古屋市西区",
    "city_kana": "ナゴヤシニシク",
    "town": "南堀越",
    "town_kana": "ミナミホリコシ",
    "street": null,
    "office_name": null,
    "office_name_kana": null
  },
  "0055": {
    "postcode": "4510055",
    "prefecture": "愛知県",
    "prefecture_kana": "アイチケン",
    "prefecture_code": 23,
    "city": "名古屋市西区",
    "city_kana": "ナゴヤシニシク",
    "town": "堀越",
    "town_kana": "ホリコシ",
    "street": null,
    "office_name": null,
    "office_name_kana": null
  },
  "0061": {
    "postcode": "4510061",
    "prefecture": "愛知県",
    "prefecture_kana": "アイチケン",
    "prefecture_code": 23,
    "city": "名古屋市西区",
    "city_kana": "ナゴヤシニシク",
    "town": "浄心",
    "town_kana": "ジョウシン",
    "street": null,
    "office_name": null,
    "office_name_kana": null
  },
  "0062": {
    "postcode": "4510062",
    "prefecture": "愛知県",
    "prefecture_kana": "アイチケン",
    "prefecture_code": 23,
    "city": "名古屋市西区",
    "city_kana": "ナゴヤシニシク",
    "town": "花の木",
    "town_kana": "ハナノキ",
    "street": null,
    "office_name": null,
    "office_name_kana": null
  },
  "0063": {
    "postcode": "4510063",
    "prefecture": "愛知県",
    "prefecture_kana": "アイチケン",
    "prefecture_code": 23,
    "city": "名古屋市西区",
    "city_kana": "ナゴヤシニシク",
    "town": "押切",
    "town_kana": "オシキリ",
    "street": null,
    "office_name": null,
    "office_name_kana": null
  },
  "0064": {
    "postcode": "4510064",
    "prefecture": "愛知県",
    "prefecture_kana": "アイチケン",
    "prefecture_code": 23,
    "city": "名古屋市西区",
    "city_kana": "ナゴヤシニシク",
    "town": "名西",
    "town_kana": "メイセイ",
    "street": null,
    "office_name": null,
    "office_name_kana": null
  },
  "0065": {
    "postcode": "4510065",
    "prefecture": "愛知県",
    "prefecture_kana": "アイチケン",
    "prefecture_code": 23,
    "city": "名古屋市西区",
    "city_kana": "ナゴヤシニシク",
    "town": "天神山町",
    "town_kana": "テンジンヤマチョウ",
    "street": null,
    "office_name": null,
    "office_name_kana": null
  },
  "0066": {
    "postcode": "4510066",
    "prefecture": "愛知県",
    "prefecture_kana": "アイチケン",
    "prefecture_code": 23,
    "city": "名古屋市西区",
    "city_kana": "ナゴヤシニシク",
    "town": "児玉",
    "town_kana": "コダマ",
    "street": null,
    "office_name": null,
    "office_name_kana": null
  },
  "0071": {
    "postcode": "4510071",
    "prefecture": "愛知県",
    "prefecture_kana": "アイチケン",
    "prefecture_code": 23,
    "city": "名古屋市西区",
    "city_kana": "ナゴヤシニシク",
    "town": "鳥見町",
    "town_kana": "トリミチョウ",
    "street": null,
    "office_name": null,
    "office_name_kana": null
  },
  "0072": {
    "postcode": "4510072",
    "prefecture": "愛知県",
    "prefecture_kana": "アイチケン",
    "prefecture_code": 23,
    "city": "名古屋市西区",
    "city_kana": "ナゴヤシニシク",
    "town": "笠取町",
    "town_kana": "カサトリチョウ",
    "street": null,
    "office_name": null,
    "office_name_kana": null
  },
  "0073": {
    "postcode": "4510073",
    "prefecture": "愛知県",
    "prefecture_kana": "アイチケン",
    "prefecture_code": 23,
    "city": "名古屋市西区",
    "city_kana": "ナゴヤシニシク",
    "town": "浄心本通",
    "town_kana": "ジョウシンホントオリ",
    "street": null,
    "office_name": null,
    "office_name_kana": null
  },
  "0074": {
    "postcode": "4510074",
    "prefecture": "愛知県",
    "prefecture_kana": "アイチケン",
    "prefecture_code": 23,
    "city": "名古屋市西区",
    "city_kana": "ナゴヤシニシク",
    "town": "万代町",
    "town_kana": "マンダイチョウ",
    "street": null,
    "office_name": null,
    "office_name_kana": null
  },
  "0075": {
    "postcode": "4510075",
    "prefecture": "愛知県",
    "prefecture_kana": "アイチケン",
    "prefecture_code": 23,
    "city": "名古屋市西区",
    "city_kana": "ナゴヤシニシク",
    "town": "康生通",
    "town_kana": "コウセイトオリ",
    "street": null,
    "office_name": null,
    "office_name_kana": null
  },
  "0076": {
    "postcode": "4510076",
    "prefecture": "愛知県",
    "prefecture_kana": "アイチケン",
    "prefecture_code": 23,
    "city": "名古屋市西区",
    "city_kana": "ナゴヤシニシク",
    "town": "東岸町",
    "town_kana": "トウガンチョウ",
    "street": null,
    "office_name": null,
    "office_name_kana": null
  },
  "0077": {
    "postcode": "4510077",
    "prefecture": "愛知県",
    "prefecture_kana": "アイチケン",
    "prefecture_code": 23,
    "city": "名古屋市西区",
    "city_kana": "ナゴヤシニシク",
    "town": "笹塚町",
    "town_kana": "ササヅカチョウ",
    "street": null,
    "office_name": null,
    "office_name_kana": null
  },
  "0081": {
    "postcode": "4510081",
    "prefecture": "愛知県",
    "prefecture_kana": "アイチケン",
    "prefecture_code": 23,
    "city": "名古屋市西区",
    "city_kana": "ナゴヤシニシク",
    "town": "名塚町",
    "town_kana": "ナヅカチョウ",
    "street": null,
    "office_name": null,
    "office_name_kana": null
  },
  "0082": {
    "postcode": "4510082",
    "prefecture": "愛知県",
    "prefecture_kana": "アイチケン",
    "prefecture_code": 23,
    "city": "名古屋市西区",
    "city_kana": "ナゴヤシニシク",
    "town": "大金町",
    "town_kana": "オオカネチョウ",
    "street": null,
    "office_name": null,
    "office_name_kana": null
  },
  "0083": {
    "postcode": "4510083",
    "prefecture": "愛知県",
    "prefecture_kana": "アイチケン",
    "prefecture_code": 23,
    "city": "名古屋市西区",
    "city_kana": "ナゴヤシニシク",
    "town": "新福寺町",
    "town_kana": "シンプクジチョウ",
    "street": null,
    "office_name": null,
    "office_name_kana": null
  },
  "0084": {
    "postcode": "4510084",
    "prefecture": "愛知県",
    "prefecture_kana": "アイチケン",
    "prefecture_code": 23,
    "city": "名古屋市西区",
    "city_kana": "ナゴヤシニシク",
    "town": "上堀越町",
    "town_kana": "カミホリコシチョウ",
    "street": null,
    "office_name": null,
    "office_name_kana": null
  },
  "6001": {
    "postcode": "4516001",
    "prefecture": "愛知県",
    "prefecture_kana": "アイチケン",
    "prefecture_code": 23,
    "city": "名古屋市西区",
    "city_kana": "ナゴヤシニシク",
    "town": "牛島町名古屋ルーセントタワー　１階",
    "town_kana": "ウシジマチョウナゴヤルーセントタワー1カイ",
    "street": null,
    "office_name": null,
    "office_name_kana": null
  },
  "6002": {
    "postcode": "4516002",
    "prefecture": "愛知県",
    "prefecture_kana": "アイチケン",
    "prefecture_code": 23,
    "city": "名古屋市西区",
    "city_kana": "ナゴヤシニシク",
    "town": "牛島町名古屋ルーセントタワー　２階",
    "town_kana": "ウシジマチョウナゴヤルーセントタワー2カイ",
    "street": null,
    "office_name": null,
    "office_name_kana": null
  },
  "6003": {
    "postcode": "4516003",
    "prefecture": "愛知県",
    "prefecture_kana": "アイチケン",
    "prefecture_code": 23,
    "city": "名古屋市西区",
    "city_kana": "ナゴヤシニシク",
    "town": "牛島町名古屋ルーセントタワー　３階",
    "town_kana": "ウシジマチョウナゴヤルーセントタワー3カイ",
    "street": null,
    "office_name": null,
    "office_name_kana": null
  },
  "6004": {
    "postcode": "4516004",
    "prefecture": "愛知県",
    "prefecture_kana": "アイチケン",
    "prefecture_code": 23,
    "city": "名古屋市西区",
    "city_kana": "ナゴヤシニシク",
    "town": "牛島町名古屋ルーセントタワー　４階",
    "town_kana": "ウシジマチョウナゴヤルーセントタワー4カイ",
    "street": null,
    "office_name": null,
    "office_name_kana": null
  },
  "6005": {
    "postcode": "4516005",
    "prefecture": "愛知県",
    "prefecture_kana": "アイチケン",
    "prefecture_code": 23,
    "city": "名古屋市西区",
    "city_kana": "ナゴヤシニシク",
    "town": "牛島町名古屋ルーセントタワー　５階",
    "town_kana": "ウシジマチョウナゴヤルーセントタワー5カイ",
    "street": null,
    "office_name": null,
    "office_name_kana": null
  },
  "6006": {
    "postcode": "4516006",
    "prefecture": "愛知県",
    "prefecture_kana": "アイチケン",
    "prefecture_code": 23,
    "city": "名古屋市西区",
    "city_kana": "ナゴヤシニシク",
    "town": "牛島町名古屋ルーセントタワー　６階",
    "town_kana": "ウシジマチョウナゴヤルーセントタワー6カイ",
    "street": null,
    "office_name": null,
    "office_name_kana": null
  },
  "6007": {
    "postcode": "4516007",
    "prefecture": "愛知県",
    "prefecture_kana": "アイチケン",
    "prefecture_code": 23,
    "city": "名古屋市西区",
    "city_kana": "ナゴヤシニシク",
    "town": "牛島町名古屋ルーセントタワー　７階",
    "town_kana": "ウシジマチョウナゴヤルーセントタワー7カイ",
    "street": null,
    "office_name": null,
    "office_name_kana": null
  },
  "6008": {
    "postcode": "4516008",
    "prefecture": "愛知県",
    "prefecture_kana": "アイチケン",
    "prefecture_code": 23,
    "city": "名古屋市西区",
    "city_kana": "ナゴヤシニシク",
    "town": "牛島町名古屋ルーセントタワー　８階",
    "town_kana": "ウシジマチョウナゴヤルーセントタワー8カイ",
    "street": null,
    "office_name": null,
    "office_name_kana": null
  },
  "6009": {
    "postcode": "4516009",
    "prefecture": "愛知県",
    "prefecture_kana": "アイチケン",
    "prefecture_code": 23,
    "city": "名古屋市西区",
    "city_kana": "ナゴヤシニシク",
    "town": "牛島町名古屋ルーセントタワー　９階",
    "town_kana": "ウシジマチョウナゴヤルーセントタワー9カイ",
    "street": null,
    "office_name": null,
    "office_name_kana": null
  },
  "6010": {
    "postcode": "4516010",
    "prefecture": "愛知県",
    "prefecture_kana": "アイチケン",
    "prefecture_code": 23,
    "city": "名古屋市西区",
    "city_kana": "ナゴヤシニシク",
    "town": "牛島町名古屋ルーセントタワー　１０階",
    "town_kana": "ウシジマチョウナゴヤルーセントタワー10カイ",
    "street": null,
    "office_name": null,
    "office_name_kana": null
  },
  "6011": {
    "postcode": "4516011",
    "prefecture": "愛知県",
    "prefecture_kana": "アイチケン",
    "prefecture_code": 23,
    "city": "名古屋市西区",
    "city_kana": "ナゴヤシニシク",
    "town": "牛島町名古屋ルーセントタワー　１１階",
    "town_kana": "ウシジマチョウナゴヤルーセントタワー11カイ",
    "street": null,
    "office_name": null,
    "office_name_kana": null
  },
  "6012": {
    "postcode": "4516012",
    "prefecture": "愛知県",
    "prefecture_kana": "アイチケン",
    "prefecture_code": 23,
    "city": "名古屋市西区",
    "city_kana": "ナゴヤシニシク",
    "town": "牛島町名古屋ルーセントタワー　１２階",
    "town_kana": "ウシジマチョウナゴヤルーセントタワー12カイ",
    "street": null,
    "office_name": null,
    "office_name_kana": null
  },
  "6013": {
    "postcode": "4516013",
    "prefecture": "愛知県",
    "prefecture_kana": "アイチケン",
    "prefecture_code": 23,
    "city": "名古屋市西区",
    "city_kana": "ナゴヤシニシク",
    "town": "牛島町名古屋ルーセントタワー　１３階",
    "town_kana": "ウシジマチョウナゴヤルーセントタワー13カイ",
    "street": null,
    "office_name": null,
    "office_name_kana": null
  },
  "6014": {
    "postcode": "4516014",
    "prefecture": "愛知県",
    "prefecture_kana": "アイチケン",
    "prefecture_code": 23,
    "city": "名古屋市西区",
    "city_kana": "ナゴヤシニシク",
    "town": "牛島町名古屋ルーセントタワー　１４階",
    "town_kana": "ウシジマチョウナゴヤルーセントタワー14カイ",
    "street": null,
    "office_name": null,
    "office_name_kana": null
  },
  "6015": {
    "postcode": "4516015",
    "prefecture": "愛知県",
    "prefecture_kana": "アイチケン",
    "prefecture_code": 23,
    "city": "名古屋市西区",
    "city_kana": "ナゴヤシニシク",
    "town": "牛島町名古屋ルーセントタワー　１５階",
    "town_kana": "ウシジマチョウナゴヤルーセントタワー15カイ",
    "street": null,
    "office_name": null,
    "office_name_kana": null
  },
  "6016": {
    "postcode": "4516016",
    "prefecture": "愛知県",
    "prefecture_kana": "アイチケン",
    "prefecture_code": 23,
    "city": "名古屋市西区",
    "city_kana": "ナゴヤシニシク",
    "town": "牛島町名古屋ルーセントタワー　１６階",
    "town_kana": "ウシジマチョウナゴヤルーセントタワー16カイ",
    "street": null,
    "office_name": null,
    "office_name_kana": null
  },
  "6017": {
    "postcode": "4516017",
    "prefecture": "愛知県",
    "prefecture_kana": "アイチケン",
    "prefecture_code": 23,
    "city": "名古屋市西区",
    "city_kana": "ナゴヤシニシク",
    "town": "牛島町名古屋ルーセントタワー　１７階",
    "town_kana": "ウシジマチョウナゴヤルーセントタワー17カイ",
    "street": null,
    "office_name": null,
    "office_name_kana": null
  },
  "6018": {
    "postcode": "4516018",
    "prefecture": "愛知県",
    "prefecture_kana": "アイチケン",
    "prefecture_code": 23,
    "city": "名古屋市西区",
    "city_kana": "ナゴヤシニシク",
    "town": "牛島町名古屋ルーセントタワー　１８階",
    "town_kana": "ウシジマチョウナゴヤルーセントタワー18カイ",
    "street": null,
    "office_name": null,
    "office_name_kana": null
  },
  "6019": {
    "postcode": "4516019",
    "prefecture": "愛知県",
    "prefecture_kana": "アイチケン",
    "prefecture_code": 23,
    "city": "名古屋市西区",
    "city_kana": "ナゴヤシニシク",
    "town": "牛島町名古屋ルーセントタワー　１９階",
    "town_kana": "ウシジマチョウナゴヤルーセントタワー19カイ",
    "street": null,
    "office_name": null,
    "office_name_kana": null
  },
  "6020": {
    "postcode": "4516020",
    "prefecture": "愛知県",
    "prefecture_kana": "アイチケン",
    "prefecture_code": 23,
    "city": "名古屋市西区",
    "city_kana": "ナゴヤシニシク",
    "town": "牛島町名古屋ルーセントタワー　２０階",
    "town_kana": "ウシジマチョウナゴヤルーセントタワー20カイ",
    "street": null,
    "office_name": null,
    "office_name_kana": null
  },
  "6021": {
    "postcode": "4516021",
    "prefecture": "愛知県",
    "prefecture_kana": "アイチケン",
    "prefecture_code": 23,
    "city": "名古屋市西区",
    "city_kana": "ナゴヤシニシク",
    "town": "牛島町名古屋ルーセントタワー　２１階",
    "town_kana": "ウシジマチョウナゴヤルーセントタワー21カイ",
    "street": null,
    "office_name": null,
    "office_name_kana": null
  },
  "6022": {
    "postcode": "4516022",
    "prefecture": "愛知県",
    "prefecture_kana": "アイチケン",
    "prefecture_code": 23,
    "city": "名古屋市西区",
    "city_kana": "ナゴヤシニシク",
    "town": "牛島町名古屋ルーセントタワー　２２階",
    "town_kana": "ウシジマチョウナゴヤルーセントタワー22カイ",
    "street": null,
    "office_name": null,
    "office_name_kana": null
  },
  "6023": {
    "postcode": "4516023",
    "prefecture": "愛知県",
    "prefecture_kana": "アイチケン",
    "prefecture_code": 23,
    "city": "名古屋市西区",
    "city_kana": "ナゴヤシニシク",
    "town": "牛島町名古屋ルーセントタワー　２３階",
    "town_kana": "ウシジマチョウナゴヤルーセントタワー23カイ",
    "street": null,
    "office_name": null,
    "office_name_kana": null
  },
  "6024": {
    "postcode": "4516024",
    "prefecture": "愛知県",
    "prefecture_kana": "アイチケン",
    "prefecture_code": 23,
    "city": "名古屋市西区",
    "city_kana": "ナゴヤシニシク",
    "town": "牛島町名古屋ルーセントタワー　２４階",
    "town_kana": "ウシジマチョウナゴヤルーセントタワー24カイ",
    "street": null,
    "office_name": null,
    "office_name_kana": null
  },
  "6025": {
    "postcode": "4516025",
    "prefecture": "愛知県",
    "prefecture_kana": "アイチケン",
    "prefecture_code": 23,
    "city": "名古屋市西区",
    "city_kana": "ナゴヤシニシク",
    "town": "牛島町名古屋ルーセントタワー　２５階",
    "town_kana": "ウシジマチョウナゴヤルーセントタワー25カイ",
    "street": null,
    "office_name": null,
    "office_name_kana": null
  },
  "6026": {
    "postcode": "4516026",
    "prefecture": "愛知県",
    "prefecture_kana": "アイチケン",
    "prefecture_code": 23,
    "city": "名古屋市西区",
    "city_kana": "ナゴヤシニシク",
    "town": "牛島町名古屋ルーセントタワー　２６階",
    "town_kana": "ウシジマチョウナゴヤルーセントタワー26カイ",
    "street": null,
    "office_name": null,
    "office_name_kana": null
  },
  "6027": {
    "postcode": "4516027",
    "prefecture": "愛知県",
    "prefecture_kana": "アイチケン",
    "prefecture_code": 23,
    "city": "名古屋市西区",
    "city_kana": "ナゴヤシニシク",
    "town": "牛島町名古屋ルーセントタワー　２７階",
    "town_kana": "ウシジマチョウナゴヤルーセントタワー27カイ",
    "street": null,
    "office_name": null,
    "office_name_kana": null
  },
  "6028": {
    "postcode": "4516028",
    "prefecture": "愛知県",
    "prefecture_kana": "アイチケン",
    "prefecture_code": 23,
    "city": "名古屋市西区",
    "city_kana": "ナゴヤシニシク",
    "town": "牛島町名古屋ルーセントタワー　２８階",
    "town_kana": "ウシジマチョウナゴヤルーセントタワー28カイ",
    "street": null,
    "office_name": null,
    "office_name_kana": null
  },
  "6029": {
    "postcode": "4516029",
    "prefecture": "愛知県",
    "prefecture_kana": "アイチケン",
    "prefecture_code": 23,
    "city": "名古屋市西区",
    "city_kana": "ナゴヤシニシク",
    "town": "牛島町名古屋ルーセントタワー　２９階",
    "town_kana": "ウシジマチョウナゴヤルーセントタワー29カイ",
    "street": null,
    "office_name": null,
    "office_name_kana": null
  },
  "6030": {
    "postcode": "4516030",
    "prefecture": "愛知県",
    "prefecture_kana": "アイチケン",
    "prefecture_code": 23,
    "city": "名古屋市西区",
    "city_kana": "ナゴヤシニシク",
    "town": "牛島町名古屋ルーセントタワー　３０階",
    "town_kana": "ウシジマチョウナゴヤルーセントタワー30カイ",
    "street": null,
    "office_name": null,
    "office_name_kana": null
  },
  "6031": {
    "postcode": "4516031",
    "prefecture": "愛知県",
    "prefecture_kana": "アイチケン",
    "prefecture_code": 23,
    "city": "名古屋市西区",
    "city_kana": "ナゴヤシニシク",
    "town": "牛島町名古屋ルーセントタワー　３１階",
    "town_kana": "ウシジマチョウナゴヤルーセントタワー31カイ",
    "street": null,
    "office_name": null,
    "office_name_kana": null
  },
  "6032": {
    "postcode": "4516032",
    "prefecture": "愛知県",
    "prefecture_kana": "アイチケン",
    "prefecture_code": 23,
    "city": "名古屋市西区",
    "city_kana": "ナゴヤシニシク",
    "town": "牛島町名古屋ルーセントタワー　３２階",
    "town_kana": "ウシジマチョウナゴヤルーセントタワー32カイ",
    "street": null,
    "office_name": null,
    "office_name_kana": null
  },
  "6033": {
    "postcode": "4516033",
    "prefecture": "愛知県",
    "prefecture_kana": "アイチケン",
    "prefecture_code": 23,
    "city": "名古屋市西区",
    "city_kana": "ナゴヤシニシク",
    "town": "牛島町名古屋ルーセントタワー　３３階",
    "town_kana": "ウシジマチョウナゴヤルーセントタワー33カイ",
    "street": null,
    "office_name": null,
    "office_name_kana": null
  },
  "6034": {
    "postcode": "4516034",
    "prefecture": "愛知県",
    "prefecture_kana": "アイチケン",
    "prefecture_code": 23,
    "city": "名古屋市西区",
    "city_kana": "ナゴヤシニシク",
    "town": "牛島町名古屋ルーセントタワー　３４階",
    "town_kana": "ウシジマチョウナゴヤルーセントタワー34カイ",
    "street": null,
    "office_name": null,
    "office_name_kana": null
  },
  "6035": {
    "postcode": "4516035",
    "prefecture": "愛知県",
    "prefecture_kana": "アイチケン",
    "prefecture_code": 23,
    "city": "名古屋市西区",
    "city_kana": "ナゴヤシニシク",
    "town": "牛島町名古屋ルーセントタワー　３５階",
    "town_kana": "ウシジマチョウナゴヤルーセントタワー35カイ",
    "street": null,
    "office_name": null,
    "office_name_kana": null
  },
  "6036": {
    "postcode": "4516036",
    "prefecture": "愛知県",
    "prefecture_kana": "アイチケン",
    "prefecture_code": 23,
    "city": "名古屋市西区",
    "city_kana": "ナゴヤシニシク",
    "town": "牛島町名古屋ルーセントタワー　３６階",
    "town_kana": "ウシジマチョウナゴヤルーセントタワー36カイ",
    "street": null,
    "office_name": null,
    "office_name_kana": null
  },
  "6037": {
    "postcode": "4516037",
    "prefecture": "愛知県",
    "prefecture_kana": "アイチケン",
    "prefecture_code": 23,
    "city": "名古屋市西区",
    "city_kana": "ナゴヤシニシク",
    "town": "牛島町名古屋ルーセントタワー　３７階",
    "town_kana": "ウシジマチョウナゴヤルーセントタワー37カイ",
    "street": null,
    "office_name": null,
    "office_name_kana": null
  },
  "6038": {
    "postcode": "4516038",
    "prefecture": "愛知県",
    "prefecture_kana": "アイチケン",
    "prefecture_code": 23,
    "city": "名古屋市西区",
    "city_kana": "ナゴヤシニシク",
    "town": "牛島町名古屋ルーセントタワー　３８階",
    "town_kana": "ウシジマチョウナゴヤルーセントタワー38カイ",
    "street": null,
    "office_name": null,
    "office_name_kana": null
  },
  "6039": {
    "postcode": "4516039",
    "prefecture": "愛知県",
    "prefecture_kana": "アイチケン",
    "prefecture_code": 23,
    "city": "名古屋市西区",
    "city_kana": "ナゴヤシニシク",
    "town": "牛島町名古屋ルーセントタワー　３９階",
    "town_kana": "ウシジマチョウナゴヤルーセントタワー39カイ",
    "street": null,
    "office_name": null,
    "office_name_kana": null
  },
  "6040": {
    "postcode": "4516040",
    "prefecture": "愛知県",
    "prefecture_kana": "アイチケン",
    "prefecture_code": 23,
    "city": "名古屋市西区",
    "city_kana": "ナゴヤシニシク",
    "town": "牛島町名古屋ルーセントタワー　４０階",
    "town_kana": "ウシジマチョウナゴヤルーセントタワー40カイ",
    "street": null,
    "office_name": null,
    "office_name_kana": null
  },
  "6090": {
    "postcode": "4516090",
    "prefecture": "愛知県",
    "prefecture_kana": "アイチケン",
    "prefecture_code": 23,
    "city": "名古屋市西区",
    "city_kana": "ナゴヤシニシク",
    "town": "牛島町名古屋ルーセントタワー",
    "town_kana": "ウシジマチョウナゴヤルーセントタワー",
    "street": null,
    "office_name": null,
    "office_name_kana": null
  },
  "8501": {
    "postcode": "4518501",
    "prefecture": "愛知県",
    "prefecture_kana": "アイチケン",
    "prefecture_code": 23,
    "city": "名古屋市西区",
    "city_kana": "ナゴヤシニシク",
    "town": "則武新町",
    "town_kana": "ノリタケシンマチ",
    "street": "３丁目１−３６",
    "office_name": "株式会社　ノリタケカンパニーリミテド",
    "office_name_kana": "カブシキガイシヤ ノリタケカンパニ-リミテド"
  },
  "8502": {
    "postcode": "4518502",
    "prefecture": "愛知県",
    "prefecture_kana": "アイチケン",
    "prefecture_code": 23,
    "city": "名古屋市西区",
    "city_kana": "ナゴヤシニシク",
    "town": "名西",
    "town_kana": "メイセイ",
    "street": "２丁目３３−１０（東芝名古屋ビル）",
    "office_name": "（株）　東芝　中部支社",
    "office_name_kana": "(カブ) トウシバ チユウブシシヤ"
  },
  "8503": {
    "postcode": "4518503",
    "prefecture": "愛知県",
    "prefecture_kana": "アイチケン",
    "prefecture_code": 23,
    "city": "名古屋市西区",
    "city_kana": "ナゴヤシニシク",
    "town": "押切",
    "town_kana": "オシキリ",
    "street": "２丁目７−２１",
    "office_name": "名古屋西税務署",
    "office_name_kana": "ナゴヤニシゼイムシヨ"
  },
  "8508": {
    "postcode": "4518508",
    "prefecture": "愛知県",
    "prefecture_kana": "アイチケン",
    "prefecture_code": 23,
    "city": "名古屋市西区",
    "city_kana": "ナゴヤシニシク",
    "town": "花の木",
    "town_kana": "ハナノキ",
    "street": "２丁目１８番１号",
    "office_name": "名古屋市西区役所",
    "office_name_kana": "ナゴヤシニシクヤクシヨ"
  },
  "8511": {
    "postcode": "4518511",
    "prefecture": "愛知県",
    "prefecture_kana": "アイチケン",
    "prefecture_code": 23,
    "city": "名古屋市西区",
    "city_kana": "ナゴヤシニシク",
    "town": "栄生",
    "town_kana": "サコウ",
    "street": "２丁目２６−１１",
    "office_name": "名鉄病院",
    "office_name_kana": "メイテツビヨウイン"
  },
  "8520": {
    "postcode": "4518520",
    "prefecture": "愛知県",
    "prefecture_kana": "アイチケン",
    "prefecture_code": 23,
    "city": "名古屋市西区",
    "city_kana": "ナゴヤシニシク",
    "town": "笹塚町",
    "town_kana": "ササヅカチョウ",
    "street": "２丁目４１番地",
    "office_name": "名糖産業　株式会社",
    "office_name_kana": "メイトウサンギヨウ カブシキガイシヤ"
  },
  "8522": {
    "postcode": "4518522",
    "prefecture": "愛知県",
    "prefecture_kana": "アイチケン",
    "prefecture_code": 23,
    "city": "名古屋市西区",
    "city_kana": "ナゴヤシニシク",
    "town": "牛島町",
    "town_kana": "ウシジマチョウ",
    "street": "６−１名古屋ルーセントタワー３４Ｆ",
    "office_name": "三菱電機　株式会社　中部支社",
    "office_name_kana": "ミツビシデンキ カブシキガイシヤ チユウブシシヤ"
  },
  "8541": {
    "postcode": "4518541",
    "prefecture": "愛知県",
    "prefecture_kana": "アイチケン",
    "prefecture_code": 23,
    "city": "名古屋市西区",
    "city_kana": "ナゴヤシニシク",
    "town": "香呑町",
    "town_kana": "コウノミチョウ",
    "street": "６丁目６０−１",
    "office_name": "株式会社　ヒューマンライフ",
    "office_name_kana": "カブシキガイシヤ ヒユ-マンライフ"
  },
  "8550": {
    "postcode": "4518550",
    "prefecture": "愛知県",
    "prefecture_kana": "アイチケン",
    "prefecture_code": 23,
    "city": "名古屋市西区",
    "city_kana": "ナゴヤシニシク",
    "town": "城西",
    "town_kana": "ジョウサイ",
    "street": "１丁目３−１",
    "office_name": "株式会社　ヤマダヤ",
    "office_name_kana": "カブシキガイシヤ ヤマダヤ"
  },
  "8551": {
    "postcode": "4518551",
    "prefecture": "愛知県",
    "prefecture_kana": "アイチケン",
    "prefecture_code": 23,
    "city": "名古屋市西区",
    "city_kana": "ナゴヤシニシク",
    "town": "樋の口町",
    "town_kana": "ヒノクチチョウ",
    "street": "３番１９号",
    "office_name": "株式会社　ナゴヤキャッスル",
    "office_name_kana": "カブシキガイシヤ ナゴヤキヤツスル"
  },
  "8555": {
    "postcode": "4518555",
    "prefecture": "愛知県",
    "prefecture_kana": "アイチケン",
    "prefecture_code": 23,
    "city": "名古屋市西区",
    "city_kana": "ナゴヤシニシク",
    "town": "城西",
    "town_kana": "ジョウサイ",
    "street": "１丁目９−２",
    "office_name": "愛知県　名古屋北部県税事務所",
    "office_name_kana": "アイチケン ナゴヤホクブケンゼイジムシヨ"
  },
  "8558": {
    "postcode": "4518558",
    "prefecture": "愛知県",
    "prefecture_kana": "アイチケン",
    "prefecture_code": 23,
    "city": "名古屋市西区",
    "city_kana": "ナゴヤシニシク",
    "town": "城西",
    "town_kana": "ジョウサイ",
    "street": "１丁目６−１６",
    "office_name": "日本年金機構　名古屋西年金事務所",
    "office_name_kana": "ニツポンネンキンキコウ ナゴヤニシネンキンジムシヨ"
  },
  "8560": {
    "postcode": "4518560",
    "prefecture": "愛知県",
    "prefecture_kana": "アイチケン",
    "prefecture_code": 23,
    "city": "名古屋市西区",
    "city_kana": "ナゴヤシニシク",
    "town": "花の木",
    "town_kana": "ハナノキ",
    "street": "３丁目９−１３",
    "office_name": "クロスプラス　株式会社",
    "office_name_kana": "クロスプラス カブシキガイシヤ"
  },
  "8561": {
    "postcode": "4518561",
    "prefecture": "愛知県",
    "prefecture_kana": "アイチケン",
    "prefecture_code": 23,
    "city": "名古屋市西区",
    "city_kana": "ナゴヤシニシク",
    "town": "天神山町",
    "town_kana": "テンジンヤマチョウ",
    "street": "４−７",
    "office_name": "愛知県立名古屋西高等学校",
    "office_name_kana": "アイチケンリツナゴヤニシコウトウガツコウ"
  },
  "8565": {
    "postcode": "4518565",
    "prefecture": "愛知県",
    "prefecture_kana": "アイチケン",
    "prefecture_code": 23,
    "city": "名古屋市西区",
    "city_kana": "ナゴヤシニシク",
    "town": "玉池町",
    "town_kana": "タマイケチョウ",
    "street": "３６",
    "office_name": "山崎製パン　株式会社　名古屋工場",
    "office_name_kana": "ヤマザキセイパン カブシキガイシヤ ナゴヤコウジヨウ"
  },
  "8568": {
    "postcode": "4518568",
    "prefecture": "愛知県",
    "prefecture_kana": "アイチケン",
    "prefecture_code": 23,
    "city": "名古屋市西区",
    "city_kana": "ナゴヤシニシク",
    "town": "中小田井",
    "town_kana": "ナカオタイ",
    "street": "４丁目３８０",
    "office_name": "株式会社　フジキカイ",
    "office_name_kana": "カブシキガイシヤ フジキカイ"
  },
  "8570": {
    "postcode": "4518570",
    "prefecture": "愛知県",
    "prefecture_kana": "アイチケン",
    "prefecture_code": 23,
    "city": "名古屋市西区",
    "city_kana": "ナゴヤシニシク",
    "town": "那古野",
    "town_kana": "ナゴノ",
    "street": "１丁目１−１２",
    "office_name": "株式会社　カノークス",
    "office_name_kana": "カブシキガイシヤ カノ-クス"
  },
  "8571": {
    "postcode": "4518571",
    "prefecture": "愛知県",
    "prefecture_kana": "アイチケン",
    "prefecture_code": 23,
    "city": "名古屋市西区",
    "city_kana": "ナゴヤシニシク",
    "town": "新道",
    "town_kana": "シンミチ",
    "street": "１丁目９−９",
    "office_name": "丸川製菓　株式会社",
    "office_name_kana": "マルカワセイカ カブシキガイシヤ"
  },
  "8575": {
    "postcode": "4518575",
    "prefecture": "愛知県",
    "prefecture_kana": "アイチケン",
    "prefecture_code": 23,
    "city": "名古屋市西区",
    "city_kana": "ナゴヤシニシク",
    "town": "幅下",
    "town_kana": "ハバシタ",
    "street": "１丁目４−１",
    "office_name": "株式会社　サンゲツ",
    "office_name_kana": "カブシキガイシヤ サンゲツ"
  },
  "8577": {
    "postcode": "4518577",
    "prefecture": "愛知県",
    "prefecture_kana": "アイチケン",
    "prefecture_code": 23,
    "city": "名古屋市西区",
    "city_kana": "ナゴヤシニシク",
    "town": "那古野",
    "town_kana": "ナゴノ",
    "street": "２丁目１８−４",
    "office_name": "株式会社　ミヤタコーポレーション",
    "office_name_kana": "カブシキガイシヤ ミヤタコ-ポレ-シヨン"
  },
  "8610": {
    "postcode": "4518610",
    "prefecture": "愛知県",
    "prefecture_kana": "アイチケン",
    "prefecture_code": 23,
    "city": "名古屋市西区",
    "city_kana": "ナゴヤシニシク",
    "town": "名駅",
    "town_kana": "メイエキ",
    "street": "２−２７−８名古屋プライムセントラルタワー２１Ｆ",
    "office_name": "ＫＤＤＩ　株式会社",
    "office_name_kana": "ケイデイ-デイ-アイ カブシキガイシヤ"
  },
  "8650": {
    "postcode": "4518650",
    "prefecture": "愛知県",
    "prefecture_kana": "アイチケン",
    "prefecture_code": 23,
    "city": "名古屋市西区",
    "city_kana": "ナゴヤシニシク",
    "town": "名駅",
    "town_kana": "メイエキ",
    "street": "２丁目２２−９",
    "office_name": "あいおいニッセイ同和損害保険　株式会社",
    "office_name_kana": "アイオイニツセイドウワソンガイホケン カブシキガイシヤ"
  },
  "8666": {
    "postcode": "4518666",
    "prefecture": "愛知県",
    "prefecture_kana": "アイチケン",
    "prefecture_code": 23,
    "city": "名古屋市西区",
    "city_kana": "ナゴヤシニシク",
    "town": "堀越",
    "town_kana": "ホリコシ",
    "street": "１丁目１番１号",
    "office_name": "東レ　株式会社　愛知工場",
    "office_name_kana": "トオレ カブシキガイシヤ アイチコウジヨウ"
  },
  "8688": {
    "postcode": "4518688",
    "prefecture": "愛知県",
    "prefecture_kana": "アイチケン",
    "prefecture_code": 23,
    "city": "名古屋市西区",
    "city_kana": "ナゴヤシニシク",
    "town": "牛島町",
    "town_kana": "ウシジマチョウ",
    "street": "６番１号名古屋ルーセントタワー２３階",
    "office_name": "タキヒヨー　株式会社",
    "office_name_kana": "タキヒヨ- カブシキガイシヤ"
  },
  "8701": {
    "postcode": "4518701",
    "prefecture": "愛知県",
    "prefecture_kana": "アイチケン",
    "prefecture_code": 23,
    "city": "名古屋市西区",
    "city_kana": "ナゴヤシニシク",
    "town": "こも原町",
    "town_kana": "コモハラチョウ",
    "street": "１４８",
    "office_name": "瀧冨工業　株式会社",
    "office_name_kana": "タキトミコウギヨウ カブシキガイシヤ"
  }
}