{
  "0000": {
    "postcode": "4520000",
    "prefecture": "愛知県",
    "prefecture_kana": "アイチケン",
    "prefecture_code": 23,
    "city": "清須市",
    "city_kana": "キヨスシ",
    "town": "",
    "town_kana": "",
    "street": null,
    "office_name": null,
    "office_name_kana": null
  },
  "0001": {
    "postcode": "4520001",
    "prefecture": "愛知県",
    "prefecture_kana": "アイチケン",
    "prefecture_code": 23,
    "city": "清須市",
    "city_kana": "キヨスシ",
    "town": "西枇杷島町古城",
    "town_kana": "ニシビワジマチョウコジョウ",
    "street": null,
    "office_name": null,
    "office_name_kana": null
  },
  "0002": {
    "postcode": "4520002",
    "prefecture": "愛知県",
    "prefecture_kana": "アイチケン",
    "prefecture_code": 23,
    "city": "清須市",
    "city_kana": "キヨスシ",
    "town": "西枇杷島町花咲",
    "town_kana": "ニシビワジマチョウハナサキ",
    "street": null,
    "office_name": null,
    "office_name_kana": null
  },
  "0003": {
    "postcode": "4520003",
    "prefecture": "愛知県",
    "prefecture_kana": "アイチケン",
    "prefecture_code": 23,
    "city": "清須市",
    "city_kana": "キヨスシ",
    "town": "西枇杷島町末広",
    "town_kana": "ニシビワジマチョウスエヒロ",
    "street": null,
    "office_name": null,
    "office_name_kana": null
  },
  "0004": {
    "postcode": "4520004",
    "prefecture": "愛知県",
    "prefecture_kana": "アイチケン",
    "prefecture_code": 23,
    "city": "清須市",
    "city_kana": "キヨスシ",
    "town": "西枇杷島町大黒",
    "town_kana": "ニシビワジマチョウダイコク",
    "street": null,
    "office_name": null,
    "office_name_kana": null
  },
  "0005": {
    "postcode": "4520005",
    "prefecture": "愛知県",
    "prefecture_kana": "アイチケン",
    "prefecture_code": 23,
    "city": "清須市",
    "city_kana": "キヨスシ",
    "town": "西枇杷島町恵比須",
    "town_kana": "ニシビワジマチョウエビス",
    "street": null,
    "office_name": null,
    "office_name_kana": null
  },
  "0006": {
    "postcode": "4520006",
    "prefecture": "愛知県",
    "prefecture_kana": "アイチケン",
    "prefecture_code": 23,
    "city": "清須市",
    "city_kana": "キヨスシ",
    "town": "西枇杷島町弁天",
    "town_kana": "ニシビワジマチョウベンテン",
    "street": null,
    "office_name": null,
    "office_name_kana": null
  },
  "0007": {
    "postcode": "4520007",
    "prefecture": "愛知県",
    "prefecture_kana": "アイチケン",
    "prefecture_code": 23,
    "city": "清須市",
    "city_kana": "キヨスシ",
    "town": "西枇杷島町一反五畝割",
    "town_kana": "ニシビワジマチョウイッタンゴセワリ",
    "street": null,
    "office_name": null,
    "office_name_kana": null
  },
  "0008": {
    "postcode": "4520008",
    "prefecture": "愛知県",
    "prefecture_kana": "アイチケン",
    "prefecture_code": 23,
    "city": "清須市",
    "city_kana": "キヨスシ",
    "town": "西枇杷島町地領",
    "town_kana": "ニシビワジマチョウチリョウ",
    "street": null,
    "office_name": null,
    "office_name_kana": null
  },
  "0009": {
    "postcode": "4520009",
    "prefecture": "愛知県",
    "prefecture_kana": "アイチケン",
    "prefecture_code": 23,
    "city": "清須市",
    "city_kana": "キヨスシ",
    "town": "西枇杷島町西八丁",
    "town_kana": "ニシビワジマチョウニシハッチョウ",
    "street": null,
    "office_name": null,
    "office_name_kana": null
  },
  "0010": {
    "postcode": "4520010",
    "prefecture": "愛知県",
    "prefecture_kana": "アイチケン",
    "prefecture_code": 23,
    "city": "清須市",
    "city_kana": "キヨスシ",
    "town": "西枇杷島町稲株",
    "town_kana": "ニシビワジマチョウイナカブ",
    "street": null,
    "office_name": null,
    "office_name_kana": null
  },
  "0011": {
    "postcode": "4520011",
    "prefecture": "愛知県",
    "prefecture_kana": "アイチケン",
    "prefecture_code": 23,
    "city": "清須市",
    "city_kana": "キヨスシ",
    "town": "西枇杷島町城並",
    "town_kana": "ニシビワジマチョウジョウナミ",
    "street": null,
    "office_name": null,
    "office_name_kana": null
  },
  "0012": {
    "postcode": "4520012",
    "prefecture": "愛知県",
    "prefecture_kana": "アイチケン",
    "prefecture_code": 23,
    "city": "清須市",
    "city_kana": "キヨスシ",
    "town": "西枇杷島町北大和",
    "town_kana": "ニシビワジマチョウキタヤマト",
    "street": null,
    "office_name": null,
    "office_name_kana": null
  },
  "0013": {
    "postcode": "4520013",
    "prefecture": "愛知県",
    "prefecture_kana": "アイチケン",
    "prefecture_code": 23,
    "city": "清須市",
    "city_kana": "キヨスシ",
    "town": "西枇杷島町南大和",
    "town_kana": "ニシビワジマチョウミナミヤマト",
    "street": null,
    "office_name": null,
    "office_name_kana": null
  },
  "0014": {
    "postcode": "4520014",
    "prefecture": "愛知県",
    "prefecture_kana": "アイチケン",
    "prefecture_code": 23,
    "city": "清須市",
    "city_kana": "キヨスシ",
    "town": "西枇杷島町押花",
    "town_kana": "ニシビワジマチョウオシバナ",
    "street": null,
    "office_name": null,
    "office_name_kana": null
  },
  "0015": {
    "postcode": "4520015",
    "prefecture": "愛知県",
    "prefecture_kana": "アイチケン",
    "prefecture_code": 23,
    "city": "清須市",
    "city_kana": "キヨスシ",
    "town": "西枇杷島町泉",
    "town_kana": "ニシビワジマチョウイズミ",
    "street": null,
    "office_name": null,
    "office_name_kana": null
  },
  "0016": {
    "postcode": "4520016",
    "prefecture": "愛知県",
    "prefecture_kana": "アイチケン",
    "prefecture_code": 23,
    "city": "清須市",
    "city_kana": "キヨスシ",
    "town": "西枇杷島町砂入",
    "town_kana": "ニシビワジマチョウスイリ",
    "street": null,
    "office_name": null,
    "office_name_kana": null
  },
  "0017": {
    "postcode": "4520017",
    "prefecture": "愛知県",
    "prefecture_kana": "アイチケン",
    "prefecture_code": 23,
    "city": "清須市",
    "city_kana": "キヨスシ",
    "town": "西枇杷島町下砂入",
    "town_kana": "ニシビワジマチョウシモスイリ",
    "street": null,
    "office_name": null,
    "office_name_kana": null
  },
  "0018": {
    "postcode": "4520018",
    "prefecture": "愛知県",
    "prefecture_kana": "アイチケン",
    "prefecture_code": 23,
    "city": "清須市",
    "city_kana": "キヨスシ",
    "town": "西枇杷島町住吉",
    "town_kana": "ニシビワジマチョウスミヨシ",
    "street": null,
    "office_name": null,
    "office_name_kana": null
  },
  "0021": {
    "postcode": "4520021",
    "prefecture": "愛知県",
    "prefecture_kana": "アイチケン",
    "prefecture_code": 23,
    "city": "清須市",
    "city_kana": "キヨスシ",
    "town": "西枇杷島町小田井",
    "town_kana": "ニシビワジマチョウオタイ",
    "street": null,
    "office_name": null,
    "office_name_kana": null
  },
  "0022": {
    "postcode": "4520022",
    "prefecture": "愛知県",
    "prefecture_kana": "アイチケン",
    "prefecture_code": 23,
    "city": "清須市",
    "city_kana": "キヨスシ",
    "town": "西枇杷島町上新",
    "town_kana": "ニシビワジマチョウカミシン",
    "street": null,
    "office_name": null,
    "office_name_kana": null
  },
  "0023": {
    "postcode": "4520023",
    "prefecture": "愛知県",
    "prefecture_kana": "アイチケン",
    "prefecture_code": 23,
    "city": "清須市",
    "city_kana": "キヨスシ",
    "town": "西枇杷島町下新",
    "town_kana": "ニシビワジマチョウシモシン",
    "street": null,
    "office_name": null,
    "office_name_kana": null
  },
  "0024": {
    "postcode": "4520024",
    "prefecture": "愛知県",
    "prefecture_kana": "アイチケン",
    "prefecture_code": 23,
    "city": "清須市",
    "city_kana": "キヨスシ",
    "town": "西枇杷島町片町",
    "town_kana": "ニシビワジマチョウカタマチ",
    "street": null,
    "office_name": null,
    "office_name_kana": null
  },
  "0025": {
    "postcode": "4520025",
    "prefecture": "愛知県",
    "prefecture_kana": "アイチケン",
    "prefecture_code": 23,
    "city": "清須市",
    "city_kana": "キヨスシ",
    "town": "西枇杷島町十軒裏",
    "town_kana": "ニシビワジマチョウジュツケンウラ",
    "street": null,
    "office_name": null,
    "office_name_kana": null
  },
  "0026": {
    "postcode": "4520026",
    "prefecture": "愛知県",
    "prefecture_kana": "アイチケン",
    "prefecture_code": 23,
    "city": "清須市",
    "city_kana": "キヨスシ",
    "town": "西枇杷島町橋詰",
    "town_kana": "ニシビワジマチョウハシヅメ",
    "street": null,
    "office_name": null,
    "office_name_kana": null
  },
  "0031": {
    "postcode": "4520031",
    "prefecture": "愛知県",
    "prefecture_kana": "アイチケン",
    "prefecture_code": 23,
    "city": "清須市",
    "city_kana": "キヨスシ",
    "town": "西枇杷島町宮前",
    "town_kana": "ニシビワジマチョウミヤマエ",
    "street": null,
    "office_name": null,
    "office_name_kana": null
  },
  "0032": {
    "postcode": "4520032",
    "prefecture": "愛知県",
    "prefecture_kana": "アイチケン",
    "prefecture_code": 23,
    "city": "清須市",
    "city_kana": "キヨスシ",
    "town": "西枇杷島町養和",
    "town_kana": "ニシビワジマチョウヨウワ",
    "street": null,
    "office_name": null,
    "office_name_kana": null
  },
  "0033": {
    "postcode": "4520033",
    "prefecture": "愛知県",
    "prefecture_kana": "アイチケン",
    "prefecture_code": 23,
    "city": "清須市",
    "city_kana": "キヨスシ",
    "town": "西枇杷島町二見",
    "town_kana": "ニシビワジマチョウフタミ",
    "street": null,
    "office_name": null,
    "office_name_kana": null
  },
  "0034": [
    {
      "postcode": "4520034",
      "prefecture": "愛知県",
      "prefecture_kana": "アイチケン",
      "prefecture_code": 23,
      "city": "清須市",
      "city_kana": "キヨスシ",
      "town": "西枇杷島町日之出",
      "town_kana": "ニシビワジマチョウヒノデ",
      "street": null,
      "office_name": null,
      "office_name_kana": null
    },
    {
      "postcode": "4520034",
      "prefecture": "愛知県",
      "prefecture_kana": "アイチケン",
      "prefecture_code": 23,
      "city": "清須市",
      "city_kana": "キヨスシ",
      "town": "西枇杷島町日の出",
      "town_kana": "ニシビワジマチョウヒノデ",
      "street": null,
      "office_name": null,
      "office_name_kana": null
    }
  ],
  "0035": {
    "postcode": "4520035",
    "prefecture": "愛知県",
    "prefecture_kana": "アイチケン",
    "prefecture_code": 23,
    "city": "清須市",
    "city_kana": "キヨスシ",
    "town": "西枇杷島町問屋",
    "town_kana": "ニシビワジマチョウトンヤ",
    "street": null,
    "office_name": null,
    "office_name_kana": null
  },
  "0036": {
    "postcode": "4520036",
    "prefecture": "愛知県",
    "prefecture_kana": "アイチケン",
    "prefecture_code": 23,
    "city": "清須市",
    "city_kana": "キヨスシ",
    "town": "西枇杷島町南問屋",
    "town_kana": "ニシビワジマチョウミナミトンヤ",
    "street": null,
    "office_name": null,
    "office_name_kana": null
  },
  "0037": {
    "postcode": "4520037",
    "prefecture": "愛知県",
    "prefecture_kana": "アイチケン",
    "prefecture_code": 23,
    "city": "清須市",
    "city_kana": "キヨスシ",
    "town": "枇杷島駅前東",
    "town_kana": "ビワジマエキマエヒガシ",
    "street": null,
    "office_name": null,
    "office_name_kana": null
  },
  "0041": {
    "postcode": "4520041",
    "prefecture": "愛知県",
    "prefecture_kana": "アイチケン",
    "prefecture_code": 23,
    "city": "清須市",
    "city_kana": "キヨスシ",
    "town": "西枇杷島町小野田",
    "town_kana": "ニシビワジマチョウオノダ",
    "street": null,
    "office_name": null,
    "office_name_kana": null
  },
  "0042": {
    "postcode": "4520042",
    "prefecture": "愛知県",
    "prefecture_kana": "アイチケン",
    "prefecture_code": 23,
    "city": "清須市",
    "city_kana": "キヨスシ",
    "town": "西枇杷島町川口",
    "town_kana": "ニシビワジマチョウカワグチ",
    "street": null,
    "office_name": null,
    "office_name_kana": null
  },
  "0043": {
    "postcode": "4520043",
    "prefecture": "愛知県",
    "prefecture_kana": "アイチケン",
    "prefecture_code": 23,
    "city": "清須市",
    "city_kana": "キヨスシ",
    "town": "西枇杷島町東六軒",
    "town_kana": "ニシビワジマチョウヒガシロッケン",
    "street": null,
    "office_name": null,
    "office_name_kana": null
  },
  "0044": {
    "postcode": "4520044",
    "prefecture": "愛知県",
    "prefecture_kana": "アイチケン",
    "prefecture_code": 23,
    "city": "清須市",
    "city_kana": "キヨスシ",
    "town": "西枇杷島町南六軒",
    "town_kana": "ニシビワジマチョウミナミロッケン",
    "street": null,
    "office_name": null,
    "office_name_kana": null
  },
  "0045": {
    "postcode": "4520045",
    "prefecture": "愛知県",
    "prefecture_kana": "アイチケン",
    "prefecture_code": 23,
    "city": "清須市",
    "city_kana": "キヨスシ",
    "town": "西枇杷島町西六軒",
    "town_kana": "ニシビワジマチョウニシロッケン",
    "street": null,
    "office_name": null,
    "office_name_kana": null
  },
  "0046": {
    "postcode": "4520046",
    "prefecture": "愛知県",
    "prefecture_kana": "アイチケン",
    "prefecture_code": 23,
    "city": "清須市",
    "city_kana": "キヨスシ",
    "town": "西枇杷島町西笹子原",
    "town_kana": "ニシビワジマチョウニシササコハラ",
    "street": null,
    "office_name": null,
    "office_name_kana": null
  },
  "0047": {
    "postcode": "4520047",
    "prefecture": "愛知県",
    "prefecture_kana": "アイチケン",
    "prefecture_code": 23,
    "city": "清須市",
    "city_kana": "キヨスシ",
    "town": "西枇杷島町東笹子原",
    "town_kana": "ニシビワジマチョウヒガシササコハラ",
    "street": null,
    "office_name": null,
    "office_name_kana": null
  },
  "0051": {
    "postcode": "4520051",
    "prefecture": "愛知県",
    "prefecture_kana": "アイチケン",
    "prefecture_code": 23,
    "city": "清須市",
    "city_kana": "キヨスシ",
    "town": "西枇杷島町大野",
    "town_kana": "ニシビワジマチョウオオノ",
    "street": null,
    "office_name": null,
    "office_name_kana": null
  },
  "0052": {
    "postcode": "4520052",
    "prefecture": "愛知県",
    "prefecture_kana": "アイチケン",
    "prefecture_code": 23,
    "city": "清須市",
    "city_kana": "キヨスシ",
    "town": "西枇杷島町辰新田",
    "town_kana": "ニシビワジマチョウタツシンデン",
    "street": null,
    "office_name": null,
    "office_name_kana": null
  },
  "0053": {
    "postcode": "4520053",
    "prefecture": "愛知県",
    "prefecture_kana": "アイチケン",
    "prefecture_code": 23,
    "city": "清須市",
    "city_kana": "キヨスシ",
    "town": "西枇杷島町南松原",
    "town_kana": "ニシビワジマチョウミナミマツバラ",
    "street": null,
    "office_name": null,
    "office_name_kana": null
  },
  "0054": {
    "postcode": "4520054",
    "prefecture": "愛知県",
    "prefecture_kana": "アイチケン",
    "prefecture_code": 23,
    "city": "清須市",
    "city_kana": "キヨスシ",
    "town": "西枇杷島町南二ツ杁",
    "town_kana": "ニシビワジマチョウミナミフタツイリ",
    "street": null,
    "office_name": null,
    "office_name_kana": null
  },
  "0055": {
    "postcode": "4520055",
    "prefecture": "愛知県",
    "prefecture_kana": "アイチケン",
    "prefecture_code": 23,
    "city": "清須市",
    "city_kana": "キヨスシ",
    "town": "西枇杷島町北二ツ杁",
    "town_kana": "ニシビワジマチョウキタフタツイリ",
    "street": null,
    "office_name": null,
    "office_name_kana": null
  },
  "0061": {
    "postcode": "4520061",
    "prefecture": "愛知県",
    "prefecture_kana": "アイチケン",
    "prefecture_code": 23,
    "city": "清須市",
    "city_kana": "キヨスシ",
    "town": "西枇杷島町小場塚",
    "town_kana": "ニシビワジマチョウコバヅカ",
    "street": null,
    "office_name": null,
    "office_name_kana": null
  },
  "0062": {
    "postcode": "4520062",
    "prefecture": "愛知県",
    "prefecture_kana": "アイチケン",
    "prefecture_code": 23,
    "city": "清須市",
    "city_kana": "キヨスシ",
    "town": "西枇杷島町五畝割",
    "town_kana": "ニシビワジマチョウゴセワリ",
    "street": null,
    "office_name": null,
    "office_name_kana": null
  },
  "0063": {
    "postcode": "4520063",
    "prefecture": "愛知県",
    "prefecture_kana": "アイチケン",
    "prefecture_code": 23,
    "city": "清須市",
    "city_kana": "キヨスシ",
    "town": "西枇杷島町七畝割",
    "town_kana": "ニシビワジマチョウナナセワリ",
    "street": null,
    "office_name": null,
    "office_name_kana": null
  },
  "0064": {
    "postcode": "4520064",
    "prefecture": "愛知県",
    "prefecture_kana": "アイチケン",
    "prefecture_code": 23,
    "city": "清須市",
    "city_kana": "キヨスシ",
    "town": "西枇杷島町旭",
    "town_kana": "ニシビワジマチョウアサヒ",
    "street": null,
    "office_name": null,
    "office_name_kana": null
  },
  "0065": {
    "postcode": "4520065",
    "prefecture": "愛知県",
    "prefecture_kana": "アイチケン",
    "prefecture_code": 23,
    "city": "清須市",
    "city_kana": "キヨスシ",
    "town": "西枇杷島町芳野",
    "town_kana": "ニシビワジマチョウヨシノ",
    "street": null,
    "office_name": null,
    "office_name_kana": null
  },
  "0066": {
    "postcode": "4520066",
    "prefecture": "愛知県",
    "prefecture_kana": "アイチケン",
    "prefecture_code": 23,
    "city": "清須市",
    "city_kana": "キヨスシ",
    "town": "西枇杷島町芝野新田",
    "town_kana": "ニシビワジマチョウシバノシンデン",
    "street": null,
    "office_name": null,
    "office_name_kana": null
  },
  "0067": {
    "postcode": "4520067",
    "prefecture": "愛知県",
    "prefecture_kana": "アイチケン",
    "prefecture_code": 23,
    "city": "清須市",
    "city_kana": "キヨスシ",
    "town": "西枇杷島町替地",
    "town_kana": "ニシビワジマチョウカエチ",
    "street": null,
    "office_name": null,
    "office_name_kana": null
  },
  "0068": {
    "postcode": "4520068",
    "prefecture": "愛知県",
    "prefecture_kana": "アイチケン",
    "prefecture_code": 23,
    "city": "清須市",
    "city_kana": "キヨスシ",
    "town": "西枇杷島町子新田",
    "town_kana": "ニシビワジマチョウネシンデン",
    "street": null,
    "office_name": null,
    "office_name_kana": null
  },
  "0801": {
    "postcode": "4520801",
    "prefecture": "愛知県",
    "prefecture_kana": "アイチケン",
    "prefecture_code": 23,
    "city": "名古屋市西区",
    "city_kana": "ナゴヤシニシク",
    "town": "清里町",
    "town_kana": "キヨサトチョウ",
    "street": null,
    "office_name": null,
    "office_name_kana": null
  },
  "0802": {
    "postcode": "4520802",
    "prefecture": "愛知県",
    "prefecture_kana": "アイチケン",
    "prefecture_code": 23,
    "city": "名古屋市西区",
    "city_kana": "ナゴヤシニシク",
    "town": "比良",
    "town_kana": "ヒラ",
    "street": null,
    "office_name": null,
    "office_name_kana": null
  },
  "0803": {
    "postcode": "4520803",
    "prefecture": "愛知県",
    "prefecture_kana": "アイチケン",
    "prefecture_code": 23,
    "city": "名古屋市西区",
    "city_kana": "ナゴヤシニシク",
    "town": "大野木",
    "town_kana": "オオノギ",
    "street": null,
    "office_name": null,
    "office_name_kana": null
  },
  "0804": {
    "postcode": "4520804",
    "prefecture": "愛知県",
    "prefecture_kana": "アイチケン",
    "prefecture_code": 23,
    "city": "名古屋市西区",
    "city_kana": "ナゴヤシニシク",
    "town": "坂井戸町",
    "town_kana": "サカイドチョウ",
    "street": null,
    "office_name": null,
    "office_name_kana": null
  },
  "0805": {
    "postcode": "4520805",
    "prefecture": "愛知県",
    "prefecture_kana": "アイチケン",
    "prefecture_code": 23,
    "city": "名古屋市西区",
    "city_kana": "ナゴヤシニシク",
    "town": "市場木町",
    "town_kana": "イチバギチョウ",
    "street": null,
    "office_name": null,
    "office_name_kana": null
  },
  "0806": {
    "postcode": "4520806",
    "prefecture": "愛知県",
    "prefecture_kana": "アイチケン",
    "prefecture_code": 23,
    "city": "名古屋市西区",
    "city_kana": "ナゴヤシニシク",
    "town": "五才美町",
    "town_kana": "ゴサイビチョウ",
    "street": null,
    "office_name": null,
    "office_name_kana": null
  },
  "0807": {
    "postcode": "4520807",
    "prefecture": "愛知県",
    "prefecture_kana": "アイチケン",
    "prefecture_code": 23,
    "city": "名古屋市西区",
    "city_kana": "ナゴヤシニシク",
    "town": "歌里町",
    "town_kana": "ウタサトチョウ",
    "street": null,
    "office_name": null,
    "office_name_kana": null
  },
  "0808": {
    "postcode": "4520808",
    "prefecture": "愛知県",
    "prefecture_kana": "アイチケン",
    "prefecture_code": 23,
    "city": "名古屋市西区",
    "city_kana": "ナゴヤシニシク",
    "town": "宝地町",
    "town_kana": "ホウチチョウ",
    "street": null,
    "office_name": null,
    "office_name_kana": null
  },
  "0809": {
    "postcode": "4520809",
    "prefecture": "愛知県",
    "prefecture_kana": "アイチケン",
    "prefecture_code": 23,
    "city": "名古屋市西区",
    "city_kana": "ナゴヤシニシク",
    "town": "花原町",
    "town_kana": "ハナハラチョウ",
    "street": null,
    "office_name": null,
    "office_name_kana": null
  },
  "0811": {
    "postcode": "4520811",
    "prefecture": "愛知県",
    "prefecture_kana": "アイチケン",
    "prefecture_code": 23,
    "city": "名古屋市西区",
    "city_kana": "ナゴヤシニシク",
    "town": "砂原町",
    "town_kana": "スナハラチョウ",
    "street": null,
    "office_name": null,
    "office_name_kana": null
  },
  "0812": {
    "postcode": "4520812",
    "prefecture": "愛知県",
    "prefecture_kana": "アイチケン",
    "prefecture_code": 23,
    "city": "名古屋市西区",
    "city_kana": "ナゴヤシニシク",
    "town": "玉池町",
    "town_kana": "タマイケチョウ",
    "street": null,
    "office_name": null,
    "office_name_kana": null
  },
  "0813": {
    "postcode": "4520813",
    "prefecture": "愛知県",
    "prefecture_kana": "アイチケン",
    "prefecture_code": 23,
    "city": "名古屋市西区",
    "city_kana": "ナゴヤシニシク",
    "town": "赤城町",
    "town_kana": "アカシロチョウ",
    "street": null,
    "office_name": null,
    "office_name_kana": null
  },
  "0814": {
    "postcode": "4520814",
    "prefecture": "愛知県",
    "prefecture_kana": "アイチケン",
    "prefecture_code": 23,
    "city": "名古屋市西区",
    "city_kana": "ナゴヤシニシク",
    "town": "南川町",
    "town_kana": "ミナミカワチョウ",
    "street": null,
    "office_name": null,
    "office_name_kana": null
  },
  "0815": {
    "postcode": "4520815",
    "prefecture": "愛知県",
    "prefecture_kana": "アイチケン",
    "prefecture_code": 23,
    "city": "名古屋市西区",
    "city_kana": "ナゴヤシニシク",
    "town": "八筋町",
    "town_kana": "ヤスジチョウ",
    "street": null,
    "office_name": null,
    "office_name_kana": null
  },
  "0816": {
    "postcode": "4520816",
    "prefecture": "愛知県",
    "prefecture_kana": "アイチケン",
    "prefecture_code": 23,
    "city": "名古屋市西区",
    "city_kana": "ナゴヤシニシク",
    "town": "貴生町",
    "town_kana": "キセイチョウ",
    "street": null,
    "office_name": null,
    "office_name_kana": null
  },
  "0817": {
    "postcode": "4520817",
    "prefecture": "愛知県",
    "prefecture_kana": "アイチケン",
    "prefecture_code": 23,
    "city": "名古屋市西区",
    "city_kana": "ナゴヤシニシク",
    "town": "二方町",
    "town_kana": "フタカタチョウ",
    "street": null,
    "office_name": null,
    "office_name_kana": null
  },
  "0818": {
    "postcode": "4520818",
    "prefecture": "愛知県",
    "prefecture_kana": "アイチケン",
    "prefecture_code": 23,
    "city": "名古屋市西区",
    "city_kana": "ナゴヤシニシク",
    "town": "山田町",
    "town_kana": "ヤマダチョウ",
    "street": null,
    "office_name": null,
    "office_name_kana": null
  },
  "0821": {
    "postcode": "4520821",
    "prefecture": "愛知県",
    "prefecture_kana": "アイチケン",
    "prefecture_code": 23,
    "city": "名古屋市西区",
    "city_kana": "ナゴヤシニシク",
    "town": "上小田井",
    "town_kana": "カミオタイ",
    "street": null,
    "office_name": null,
    "office_name_kana": null
  },
  "0822": {
    "postcode": "4520822",
    "prefecture": "愛知県",
    "prefecture_kana": "アイチケン",
    "prefecture_code": 23,
    "city": "名古屋市西区",
    "city_kana": "ナゴヤシニシク",
    "town": "中小田井",
    "town_kana": "ナカオタイ",
    "street": null,
    "office_name": null,
    "office_name_kana": null
  },
  "0823": {
    "postcode": "4520823",
    "prefecture": "愛知県",
    "prefecture_kana": "アイチケン",
    "prefecture_code": 23,
    "city": "名古屋市西区",
    "city_kana": "ナゴヤシニシク",
    "town": "あし原町",
    "town_kana": "アシハラチョウ",
    "street": null,
    "office_name": null,
    "office_name_kana": null
  },
  "0824": {
    "postcode": "4520824",
    "prefecture": "愛知県",
    "prefecture_kana": "アイチケン",
    "prefecture_code": 23,
    "city": "名古屋市西区",
    "city_kana": "ナゴヤシニシク",
    "town": "こも原町",
    "town_kana": "コモハラチョウ",
    "street": null,
    "office_name": null,
    "office_name_kana": null
  },
  "0831": {
    "postcode": "4520831",
    "prefecture": "愛知県",
    "prefecture_kana": "アイチケン",
    "prefecture_code": 23,
    "city": "名古屋市西区",
    "city_kana": "ナゴヤシニシク",
    "town": "円明町",
    "town_kana": "エンメイチョウ",
    "street": null,
    "office_name": null,
    "office_name_kana": null
  },
  "0832": {
    "postcode": "4520832",
    "prefecture": "愛知県",
    "prefecture_kana": "アイチケン",
    "prefecture_code": 23,
    "city": "名古屋市西区",
    "city_kana": "ナゴヤシニシク",
    "town": "平出町",
    "town_kana": "ヒラデチョウ",
    "street": null,
    "office_name": null,
    "office_name_kana": null
  },
  "0833": {
    "postcode": "4520833",
    "prefecture": "愛知県",
    "prefecture_kana": "アイチケン",
    "prefecture_code": 23,
    "city": "名古屋市西区",
    "city_kana": "ナゴヤシニシク",
    "town": "山木",
    "town_kana": "ヤマキ",
    "street": null,
    "office_name": null,
    "office_name_kana": null
  },
  "0834": {
    "postcode": "4520834",
    "prefecture": "愛知県",
    "prefecture_kana": "アイチケン",
    "prefecture_code": 23,
    "city": "名古屋市西区",
    "city_kana": "ナゴヤシニシク",
    "town": "木前町",
    "town_kana": "キマエチョウ",
    "street": null,
    "office_name": null,
    "office_name_kana": null
  },
  "0835": {
    "postcode": "4520835",
    "prefecture": "愛知県",
    "prefecture_kana": "アイチケン",
    "prefecture_code": 23,
    "city": "名古屋市西区",
    "city_kana": "ナゴヤシニシク",
    "town": "丸野",
    "town_kana": "マルノ",
    "street": null,
    "office_name": null,
    "office_name_kana": null
  },
  "0836": {
    "postcode": "4520836",
    "prefecture": "愛知県",
    "prefecture_kana": "アイチケン",
    "prefecture_code": 23,
    "city": "名古屋市西区",
    "city_kana": "ナゴヤシニシク",
    "town": "新木町",
    "town_kana": "アラキチョウ",
    "street": null,
    "office_name": null,
    "office_name_kana": null
  },
  "0837": {
    "postcode": "4520837",
    "prefecture": "愛知県",
    "prefecture_kana": "アイチケン",
    "prefecture_code": 23,
    "city": "名古屋市西区",
    "city_kana": "ナゴヤシニシク",
    "town": "十方町",
    "town_kana": "トオホウチョウ",
    "street": null,
    "office_name": null,
    "office_name_kana": null
  },
  "0838": {
    "postcode": "4520838",
    "prefecture": "愛知県",
    "prefecture_kana": "アイチケン",
    "prefecture_code": 23,
    "city": "名古屋市西区",
    "city_kana": "ナゴヤシニシク",
    "town": "長先町",
    "town_kana": "ナガサキチョウ",
    "street": null,
    "office_name": null,
    "office_name_kana": null
  },
  "0839": {
    "postcode": "4520839",
    "prefecture": "愛知県",
    "prefecture_kana": "アイチケン",
    "prefecture_code": 23,
    "city": "名古屋市西区",
    "city_kana": "ナゴヤシニシク",
    "town": "見寄町",
    "town_kana": "ミヨリチョウ",
    "street": null,
    "office_name": null,
    "office_name_kana": null
  },
  "0841": {
    "postcode": "4520841",
    "prefecture": "愛知県",
    "prefecture_kana": "アイチケン",
    "prefecture_code": 23,
    "city": "名古屋市西区",
    "city_kana": "ナゴヤシニシク",
    "town": "城西町",
    "town_kana": "シロニシチョウ",
    "street": null,
    "office_name": null,
    "office_name_kana": null
  },
  "0842": {
    "postcode": "4520842",
    "prefecture": "愛知県",
    "prefecture_kana": "アイチケン",
    "prefecture_code": 23,
    "city": "名古屋市西区",
    "city_kana": "ナゴヤシニシク",
    "town": "城町",
    "town_kana": "シロマチ",
    "street": null,
    "office_name": null,
    "office_name_kana": null
  },
  "0843": {
    "postcode": "4520843",
    "prefecture": "愛知県",
    "prefecture_kana": "アイチケン",
    "prefecture_code": 23,
    "city": "名古屋市西区",
    "city_kana": "ナゴヤシニシク",
    "town": "平中町",
    "town_kana": "ヒラナカチョウ",
    "street": null,
    "office_name": null,
    "office_name_kana": null
  },
  "0844": {
    "postcode": "4520844",
    "prefecture": "愛知県",
    "prefecture_kana": "アイチケン",
    "prefecture_code": 23,
    "city": "名古屋市西区",
    "city_kana": "ナゴヤシニシク",
    "town": "上橋町",
    "town_kana": "カミバシチョウ",
    "street": null,
    "office_name": null,
    "office_name_kana": null
  },
  "0845": {
    "postcode": "4520845",
    "prefecture": "愛知県",
    "prefecture_kana": "アイチケン",
    "prefecture_code": 23,
    "city": "名古屋市西区",
    "city_kana": "ナゴヤシニシク",
    "town": "中沼町",
    "town_kana": "ナカヌマチョウ",
    "street": null,
    "office_name": null,
    "office_name_kana": null
  },
  "0846": {
    "postcode": "4520846",
    "prefecture": "愛知県",
    "prefecture_kana": "アイチケン",
    "prefecture_code": 23,
    "city": "名古屋市西区",
    "city_kana": "ナゴヤシニシク",
    "town": "浮野町",
    "town_kana": "ウキノチョウ",
    "street": null,
    "office_name": null,
    "office_name_kana": null
  },
  "0847": {
    "postcode": "4520847",
    "prefecture": "愛知県",
    "prefecture_kana": "アイチケン",
    "prefecture_code": 23,
    "city": "名古屋市西区",
    "city_kana": "ナゴヤシニシク",
    "town": "野南町",
    "town_kana": "ノミナミチョウ",
    "street": null,
    "office_name": null,
    "office_name_kana": null
  },
  "0848": {
    "postcode": "4520848",
    "prefecture": "愛知県",
    "prefecture_kana": "アイチケン",
    "prefecture_code": 23,
    "city": "名古屋市西区",
    "city_kana": "ナゴヤシニシク",
    "town": "西原町",
    "town_kana": "ニシハラチョウ",
    "street": null,
    "office_name": null,
    "office_name_kana": null
  },
  "0901": {
    "postcode": "4520901",
    "prefecture": "愛知県",
    "prefecture_kana": "アイチケン",
    "prefecture_code": 23,
    "city": "清須市",
    "city_kana": "キヨスシ",
    "town": "阿原",
    "town_kana": "アワラ",
    "street": null,
    "office_name": null,
    "office_name_kana": null
  },
  "0902": {
    "postcode": "4520902",
    "prefecture": "愛知県",
    "prefecture_kana": "アイチケン",
    "prefecture_code": 23,
    "city": "清須市",
    "city_kana": "キヨスシ",
    "town": "助七",
    "town_kana": "スケシチ",
    "street": null,
    "office_name": null,
    "office_name_kana": null
  },
  "0903": {
    "postcode": "4520903",
    "prefecture": "愛知県",
    "prefecture_kana": "アイチケン",
    "prefecture_code": 23,
    "city": "清須市",
    "city_kana": "キヨスシ",
    "town": "助七",
    "town_kana": "スケシチ",
    "street": null,
    "office_name": null,
    "office_name_kana": null
  },
  "0904": {
    "postcode": "4520904",
    "prefecture": "愛知県",
    "prefecture_kana": "アイチケン",
    "prefecture_code": 23,
    "city": "清須市",
    "city_kana": "キヨスシ",
    "town": "東須ケ口",
    "town_kana": "ヒガシスカグチ",
    "street": null,
    "office_name": null,
    "office_name_kana": null
  },
  "0905": {
    "postcode": "4520905",
    "prefecture": "愛知県",
    "prefecture_kana": "アイチケン",
    "prefecture_code": 23,
    "city": "清須市",
    "city_kana": "キヨスシ",
    "town": "須ケ口",
    "town_kana": "スカグチ",
    "street": null,
    "office_name": null,
    "office_name_kana": null
  },
  "0906": {
    "postcode": "4520906",
    "prefecture": "愛知県",
    "prefecture_kana": "アイチケン",
    "prefecture_code": 23,
    "city": "清須市",
    "city_kana": "キヨスシ",
    "town": "東外町",
    "town_kana": "ヒガシソトマチ",
    "street": null,
    "office_name": null,
    "office_name_kana": null
  },
  "0907": {
    "postcode": "4520907",
    "prefecture": "愛知県",
    "prefecture_kana": "アイチケン",
    "prefecture_code": 23,
    "city": "清須市",
    "city_kana": "キヨスシ",
    "town": "鍋片",
    "town_kana": "ナベカタ",
    "street": null,
    "office_name": null,
    "office_name_kana": null
  },
  "0908": {
    "postcode": "4520908",
    "prefecture": "愛知県",
    "prefecture_kana": "アイチケン",
    "prefecture_code": 23,
    "city": "清須市",
    "city_kana": "キヨスシ",
    "town": "寺野",
    "town_kana": "テラノ",
    "street": null,
    "office_name": null,
    "office_name_kana": null
  },
  "0911": {
    "postcode": "4520911",
    "prefecture": "愛知県",
    "prefecture_kana": "アイチケン",
    "prefecture_code": 23,
    "city": "清須市",
    "city_kana": "キヨスシ",
    "town": "西須ケ口",
    "town_kana": "ニシスカグチ",
    "street": null,
    "office_name": null,
    "office_name_kana": null
  },
  "0912": {
    "postcode": "4520912",
    "prefecture": "愛知県",
    "prefecture_kana": "アイチケン",
    "prefecture_code": 23,
    "city": "清須市",
    "city_kana": "キヨスシ",
    "town": "須ケ口駅前",
    "town_kana": "スカグチエキマエ",
    "street": null,
    "office_name": null,
    "office_name_kana": null
  },
  "0913": {
    "postcode": "4520913",
    "prefecture": "愛知県",
    "prefecture_kana": "アイチケン",
    "prefecture_code": 23,
    "city": "清須市",
    "city_kana": "キヨスシ",
    "town": "上河原",
    "town_kana": "カミガワラ",
    "street": null,
    "office_name": null,
    "office_name_kana": null
  },
  "0914": {
    "postcode": "4520914",
    "prefecture": "愛知県",
    "prefecture_kana": "アイチケン",
    "prefecture_code": 23,
    "city": "清須市",
    "city_kana": "キヨスシ",
    "town": "土器野",
    "town_kana": "ドキノ",
    "street": null,
    "office_name": null,
    "office_name_kana": null
  },
  "0915": {
    "postcode": "4520915",
    "prefecture": "愛知県",
    "prefecture_kana": "アイチケン",
    "prefecture_code": 23,
    "city": "清須市",
    "city_kana": "キヨスシ",
    "town": "中河原",
    "town_kana": "ナカガワラ",
    "street": null,
    "office_name": null,
    "office_name_kana": null
  },
  "0916": {
    "postcode": "4520916",
    "prefecture": "愛知県",
    "prefecture_kana": "アイチケン",
    "prefecture_code": 23,
    "city": "清須市",
    "city_kana": "キヨスシ",
    "town": "下河原",
    "town_kana": "シモガワラ",
    "street": null,
    "office_name": null,
    "office_name_kana": null
  },
  "0917": {
    "postcode": "4520917",
    "prefecture": "愛知県",
    "prefecture_kana": "アイチケン",
    "prefecture_code": 23,
    "city": "清須市",
    "city_kana": "キヨスシ",
    "town": "西堀江",
    "town_kana": "ニシホリエ",
    "street": null,
    "office_name": null,
    "office_name_kana": null
  },
  "0918": {
    "postcode": "4520918",
    "prefecture": "愛知県",
    "prefecture_kana": "アイチケン",
    "prefecture_code": 23,
    "city": "清須市",
    "city_kana": "キヨスシ",
    "town": "桃栄",
    "town_kana": "トウエイ",
    "street": null,
    "office_name": null,
    "office_name_kana": null
  },
  "0919": {
    "postcode": "4520919",
    "prefecture": "愛知県",
    "prefecture_kana": "アイチケン",
    "prefecture_code": 23,
    "city": "清須市",
    "city_kana": "キヨスシ",
    "town": "萩野",
    "town_kana": "ハギノ",
    "street": null,
    "office_name": null,
    "office_name_kana": null
  },
  "0931": {
    "postcode": "4520931",
    "prefecture": "愛知県",
    "prefecture_kana": "アイチケン",
    "prefecture_code": 23,
    "city": "清須市",
    "city_kana": "キヨスシ",
    "town": "一場",
    "town_kana": "イチバ",
    "street": null,
    "office_name": null,
    "office_name_kana": null
  },
  "0932": {
    "postcode": "4520932",
    "prefecture": "愛知県",
    "prefecture_kana": "アイチケン",
    "prefecture_code": 23,
    "city": "清須市",
    "city_kana": "キヨスシ",
    "town": "朝日",
    "town_kana": "アサヒ",
    "street": null,
    "office_name": null,
    "office_name_kana": null
  },
  "0933": {
    "postcode": "4520933",
    "prefecture": "愛知県",
    "prefecture_kana": "アイチケン",
    "prefecture_code": 23,
    "city": "清須市",
    "city_kana": "キヨスシ",
    "town": "西田中",
    "town_kana": "ニシタナカ",
    "street": null,
    "office_name": null,
    "office_name_kana": null
  },
  "0934": {
    "postcode": "4520934",
    "prefecture": "愛知県",
    "prefecture_kana": "アイチケン",
    "prefecture_code": 23,
    "city": "清須市",
    "city_kana": "キヨスシ",
    "town": "大嶋",
    "town_kana": "オオシマ",
    "street": null,
    "office_name": null,
    "office_name_kana": null
  },
  "0935": {
    "postcode": "4520935",
    "prefecture": "愛知県",
    "prefecture_kana": "アイチケン",
    "prefecture_code": 23,
    "city": "清須市",
    "city_kana": "キヨスシ",
    "town": "北市場本町",
    "town_kana": "キタイチバホンマチ",
    "street": null,
    "office_name": null,
    "office_name_kana": null
  },
  "0941": {
    "postcode": "4520941",
    "prefecture": "愛知県",
    "prefecture_kana": "アイチケン",
    "prefecture_code": 23,
    "city": "清須市",
    "city_kana": "キヨスシ",
    "town": "西市場",
    "town_kana": "ニシイチバ",
    "street": null,
    "office_name": null,
    "office_name_kana": null
  },
  "0942": {
    "postcode": "4520942",
    "prefecture": "愛知県",
    "prefecture_kana": "アイチケン",
    "prefecture_code": 23,
    "city": "清須市",
    "city_kana": "キヨスシ",
    "town": "清洲",
    "town_kana": "キヨス",
    "street": null,
    "office_name": null,
    "office_name_kana": null
  },
  "0943": {
    "postcode": "4520943",
    "prefecture": "愛知県",
    "prefecture_kana": "アイチケン",
    "prefecture_code": 23,
    "city": "清須市",
    "city_kana": "キヨスシ",
    "town": "新清洲",
    "town_kana": "シンキヨス",
    "street": null,
    "office_name": null,
    "office_name_kana": null
  },
  "0944": {
    "postcode": "4520944",
    "prefecture": "愛知県",
    "prefecture_kana": "アイチケン",
    "prefecture_code": 23,
    "city": "清須市",
    "city_kana": "キヨスシ",
    "town": "上条",
    "town_kana": "ジョウジョウ",
    "street": null,
    "office_name": null,
    "office_name_kana": null
  },
  "0945": {
    "postcode": "4520945",
    "prefecture": "愛知県",
    "prefecture_kana": "アイチケン",
    "prefecture_code": 23,
    "city": "清須市",
    "city_kana": "キヨスシ",
    "town": "土田",
    "town_kana": "ツチダ",
    "street": null,
    "office_name": null,
    "office_name_kana": null
  },
  "0946": {
    "postcode": "4520946",
    "prefecture": "愛知県",
    "prefecture_kana": "アイチケン",
    "prefecture_code": 23,
    "city": "清須市",
    "city_kana": "キヨスシ",
    "town": "廻間",
    "town_kana": "ハサマ",
    "street": null,
    "office_name": null,
    "office_name_kana": null
  },
  "0947": {
    "postcode": "4520947",
    "prefecture": "愛知県",
    "prefecture_kana": "アイチケン",
    "prefecture_code": 23,
    "city": "清須市",
    "city_kana": "キヨスシ",
    "town": "花水木",
    "town_kana": "ハナミズキ",
    "street": null,
    "office_name": null,
    "office_name_kana": null
  },
  "0961": [
    {
      "postcode": "4520961",
      "prefecture": "愛知県",
      "prefecture_kana": "アイチケン",
      "prefecture_code": 23,
      "city": "清須市",
      "city_kana": "キヨスシ",
      "town": "春日明河原",
      "town_kana": "ハルヒアケガワラ",
      "street": null,
      "office_name": null,
      "office_name_kana": null
    },
    {
      "postcode": "4520961",
      "prefecture": "愛知県",
      "prefecture_kana": "アイチケン",
      "prefecture_code": 23,
      "city": "清須市",
      "city_kana": "キヨスシ",
      "town": "春日一番割",
      "town_kana": "ハルヒイチバンワリ",
      "street": null,
      "office_name": null,
      "office_name_kana": null
    },
    {
      "postcode": "4520961",
      "prefecture": "愛知県",
      "prefecture_kana": "アイチケン",
      "prefecture_code": 23,
      "city": "清須市",
      "city_kana": "キヨスシ",
      "town": "春日壱屋敷",
      "town_kana": "ハルヒイチヤシキ",
      "street": null,
      "office_name": null,
      "office_name_kana": null
    },
    {
      "postcode": "4520961",
      "prefecture": "愛知県",
      "prefecture_kana": "アイチケン",
      "prefecture_code": 23,
      "city": "清須市",
      "city_kana": "キヨスシ",
      "town": "春日一本松",
      "town_kana": "ハルヒイッポンマツ",
      "street": null,
      "office_name": null,
      "office_name_kana": null
    },
    {
      "postcode": "4520961",
      "prefecture": "愛知県",
      "prefecture_kana": "アイチケン",
      "prefecture_code": 23,
      "city": "清須市",
      "city_kana": "キヨスシ",
      "town": "春日稲荷",
      "town_kana": "ハルヒイナリ",
      "street": null,
      "office_name": null,
      "office_name_kana": null
    },
    {
      "postcode": "4520961",
      "prefecture": "愛知県",
      "prefecture_kana": "アイチケン",
      "prefecture_code": 23,
      "city": "清須市",
      "city_kana": "キヨスシ",
      "town": "春日杁前",
      "town_kana": "ハルヒイリマエ",
      "street": null,
      "office_name": null,
      "office_name_kana": null
    },
    {
      "postcode": "4520961",
      "prefecture": "愛知県",
      "prefecture_kana": "アイチケン",
      "prefecture_code": 23,
      "city": "清須市",
      "city_kana": "キヨスシ",
      "town": "春日午",
      "town_kana": "ハルヒウマ",
      "street": null,
      "office_name": null,
      "office_name_kana": null
    },
    {
      "postcode": "4520961",
      "prefecture": "愛知県",
      "prefecture_kana": "アイチケン",
      "prefecture_code": 23,
      "city": "清須市",
      "city_kana": "キヨスシ",
      "town": "春日落合",
      "town_kana": "ハルヒオチアイ",
      "street": null,
      "office_name": null,
      "office_name_kana": null
    },
    {
      "postcode": "4520961",
      "prefecture": "愛知県",
      "prefecture_kana": "アイチケン",
      "prefecture_code": 23,
      "city": "清須市",
      "city_kana": "キヨスシ",
      "town": "春日上丑",
      "town_kana": "ハルヒカミウシ",
      "street": null,
      "office_name": null,
      "office_name_kana": null
    },
    {
      "postcode": "4520961",
      "prefecture": "愛知県",
      "prefecture_kana": "アイチケン",
      "prefecture_code": 23,
      "city": "清須市",
      "city_kana": "キヨスシ",
      "town": "春日上川畑",
      "town_kana": "ハルヒカミカワバタ",
      "street": null,
      "office_name": null,
      "office_name_kana": null
    },
    {
      "postcode": "4520961",
      "prefecture": "愛知県",
      "prefecture_kana": "アイチケン",
      "prefecture_code": 23,
      "city": "清須市",
      "city_kana": "キヨスシ",
      "town": "春日上河原",
      "town_kana": "ハルヒカミガワラ",
      "street": null,
      "office_name": null,
      "office_name_kana": null
    },
    {
      "postcode": "4520961",
      "prefecture": "愛知県",
      "prefecture_kana": "アイチケン",
      "prefecture_code": 23,
      "city": "清須市",
      "city_kana": "キヨスシ",
      "town": "春日上須ケ田",
      "town_kana": "ハルヒカミスカタ",
      "street": null,
      "office_name": null,
      "office_name_kana": null
    },
    {
      "postcode": "4520961",
      "prefecture": "愛知県",
      "prefecture_kana": "アイチケン",
      "prefecture_code": 23,
      "city": "清須市",
      "city_kana": "キヨスシ",
      "town": "春日上高畑",
      "town_kana": "ハルヒカミタカバタ",
      "street": null,
      "office_name": null,
      "office_name_kana": null
    },
    {
      "postcode": "4520961",
      "prefecture": "愛知県",
      "prefecture_kana": "アイチケン",
      "prefecture_code": 23,
      "city": "清須市",
      "city_kana": "キヨスシ",
      "town": "春日上堤クロ",
      "town_kana": "ハルヒカミツツミクロ",
      "street": null,
      "office_name": null,
      "office_name_kana": null
    },
    {
      "postcode": "4520961",
      "prefecture": "愛知県",
      "prefecture_kana": "アイチケン",
      "prefecture_code": 23,
      "city": "清須市",
      "city_kana": "キヨスシ",
      "town": "春日上中割",
      "town_kana": "ハルヒカミナカワリ",
      "street": null,
      "office_name": null,
      "office_name_kana": null
    },
    {
      "postcode": "4520961",
      "prefecture": "愛知県",
      "prefecture_kana": "アイチケン",
      "prefecture_code": 23,
      "city": "清須市",
      "city_kana": "キヨスシ",
      "town": "春日河原",
      "town_kana": "ハルヒカワラ",
      "street": null,
      "office_name": null,
      "office_name_kana": null
    },
    {
      "postcode": "4520961",
      "prefecture": "愛知県",
      "prefecture_kana": "アイチケン",
      "prefecture_code": 23,
      "city": "清須市",
      "city_kana": "キヨスシ",
      "town": "春日桑",
      "town_kana": "ハルヒクワ",
      "street": null,
      "office_name": null,
      "office_name_kana": null
    },
    {
      "postcode": "4520961",
      "prefecture": "愛知県",
      "prefecture_kana": "アイチケン",
      "prefecture_code": 23,
      "city": "清須市",
      "city_kana": "キヨスシ",
      "town": "春日郷裏",
      "town_kana": "ハルヒゴウウラ",
      "street": null,
      "office_name": null,
      "office_name_kana": null
    },
    {
      "postcode": "4520961",
      "prefecture": "愛知県",
      "prefecture_kana": "アイチケン",
      "prefecture_code": 23,
      "city": "清須市",
      "city_kana": "キヨスシ",
      "town": "春日郷前",
      "town_kana": "ハルヒゴウマエ",
      "street": null,
      "office_name": null,
      "office_name_kana": null
    },
    {
      "postcode": "4520961",
      "prefecture": "愛知県",
      "prefecture_kana": "アイチケン",
      "prefecture_code": 23,
      "city": "清須市",
      "city_kana": "キヨスシ",
      "town": "春日小塚西",
      "town_kana": "ハルヒコヅカニシ",
      "street": null,
      "office_name": null,
      "office_name_kana": null
    },
    {
      "postcode": "4520961",
      "prefecture": "愛知県",
      "prefecture_kana": "アイチケン",
      "prefecture_code": 23,
      "city": "清須市",
      "city_kana": "キヨスシ",
      "town": "春日小塚南",
      "town_kana": "ハルヒコヅカミナミ",
      "street": null,
      "office_name": null,
      "office_name_kana": null
    },
    {
      "postcode": "4520961",
      "prefecture": "愛知県",
      "prefecture_kana": "アイチケン",
      "prefecture_code": 23,
      "city": "清須市",
      "city_kana": "キヨスシ",
      "town": "春日小松生",
      "town_kana": "ハルヒコマツバエ",
      "street": null,
      "office_name": null,
      "office_name_kana": null
    },
    {
      "postcode": "4520961",
      "prefecture": "愛知県",
      "prefecture_kana": "アイチケン",
      "prefecture_code": 23,
      "city": "清須市",
      "city_kana": "キヨスシ",
      "town": "春日三番割",
      "town_kana": "ハルヒサンバンワリ",
      "street": null,
      "office_name": null,
      "office_name_kana": null
    },
    {
      "postcode": "4520961",
      "prefecture": "愛知県",
      "prefecture_kana": "アイチケン",
      "prefecture_code": 23,
      "city": "清須市",
      "city_kana": "キヨスシ",
      "town": "春日下丑",
      "town_kana": "ハルヒシモウシ",
      "street": null,
      "office_name": null,
      "office_name_kana": null
    },
    {
      "postcode": "4520961",
      "prefecture": "愛知県",
      "prefecture_kana": "アイチケン",
      "prefecture_code": 23,
      "city": "清須市",
      "city_kana": "キヨスシ",
      "town": "春日下河原",
      "town_kana": "ハルヒシモガワラ",
      "street": null,
      "office_name": null,
      "office_name_kana": null
    },
    {
      "postcode": "4520961",
      "prefecture": "愛知県",
      "prefecture_kana": "アイチケン",
      "prefecture_code": 23,
      "city": "清須市",
      "city_kana": "キヨスシ",
      "town": "春日下堤クロ",
      "town_kana": "ハルヒシモツツミクロ",
      "street": null,
      "office_name": null,
      "office_name_kana": null
    },
    {
      "postcode": "4520961",
      "prefecture": "愛知県",
      "prefecture_kana": "アイチケン",
      "prefecture_code": 23,
      "city": "清須市",
      "city_kana": "キヨスシ",
      "town": "春日下中割",
      "town_kana": "ハルヒシモナカワリ",
      "street": null,
      "office_name": null,
      "office_name_kana": null
    },
    {
      "postcode": "4520961",
      "prefecture": "愛知県",
      "prefecture_kana": "アイチケン",
      "prefecture_code": 23,
      "city": "清須市",
      "city_kana": "キヨスシ",
      "town": "春日定ノ割",
      "town_kana": "ハルヒジョウノワリ",
      "street": null,
      "office_name": null,
      "office_name_kana": null
    },
    {
      "postcode": "4520961",
      "prefecture": "愛知県",
      "prefecture_kana": "アイチケン",
      "prefecture_code": 23,
      "city": "清須市",
      "city_kana": "キヨスシ",
      "town": "春日新田畑",
      "town_kana": "ハルヒシンデンバタ",
      "street": null,
      "office_name": null,
      "office_name_kana": null
    },
    {
      "postcode": "4520961",
      "prefecture": "愛知県",
      "prefecture_kana": "アイチケン",
      "prefecture_code": 23,
      "city": "清須市",
      "city_kana": "キヨスシ",
      "town": "春日新堀",
      "town_kana": "ハルヒシンボリ",
      "street": null,
      "office_name": null,
      "office_name_kana": null
    },
    {
      "postcode": "4520961",
      "prefecture": "愛知県",
      "prefecture_kana": "アイチケン",
      "prefecture_code": 23,
      "city": "清須市",
      "city_kana": "キヨスシ",
      "town": "春日新堀北",
      "town_kana": "ハルヒシンボリキタ",
      "street": null,
      "office_name": null,
      "office_name_kana": null
    },
    {
      "postcode": "4520961",
      "prefecture": "愛知県",
      "prefecture_kana": "アイチケン",
      "prefecture_code": 23,
      "city": "清須市",
      "city_kana": "キヨスシ",
      "town": "春日須ケ田",
      "town_kana": "ハルヒスカタ",
      "street": null,
      "office_name": null,
      "office_name_kana": null
    },
    {
      "postcode": "4520961",
      "prefecture": "愛知県",
      "prefecture_kana": "アイチケン",
      "prefecture_code": 23,
      "city": "清須市",
      "city_kana": "キヨスシ",
      "town": "春日須ケ畑",
      "town_kana": "ハルヒスカバタ",
      "street": null,
      "office_name": null,
      "office_name_kana": null
    },
    {
      "postcode": "4520961",
      "prefecture": "愛知県",
      "prefecture_kana": "アイチケン",
      "prefecture_code": 23,
      "city": "清須市",
      "city_kana": "キヨスシ",
      "town": "春日大河戸",
      "town_kana": "ハルヒタイコウド",
      "street": null,
      "office_name": null,
      "office_name_kana": null
    },
    {
      "postcode": "4520961",
      "prefecture": "愛知県",
      "prefecture_kana": "アイチケン",
      "prefecture_code": 23,
      "city": "清須市",
      "city_kana": "キヨスシ",
      "town": "春日高畑",
      "town_kana": "ハルヒタカバタ",
      "street": null,
      "office_name": null,
      "office_name_kana": null
    },
    {
      "postcode": "4520961",
      "prefecture": "愛知県",
      "prefecture_kana": "アイチケン",
      "prefecture_code": 23,
      "city": "清須市",
      "city_kana": "キヨスシ",
      "town": "春日堤クロ",
      "town_kana": "ハルヒツツミクロ",
      "street": null,
      "office_name": null,
      "office_name_kana": null
    },
    {
      "postcode": "4520961",
      "prefecture": "愛知県",
      "prefecture_kana": "アイチケン",
      "prefecture_code": 23,
      "city": "清須市",
      "city_kana": "キヨスシ",
      "town": "春日寺廻り",
      "town_kana": "ハルヒテラマワリ",
      "street": null,
      "office_name": null,
      "office_name_kana": null
    },
    {
      "postcode": "4520961",
      "prefecture": "愛知県",
      "prefecture_kana": "アイチケン",
      "prefecture_code": 23,
      "city": "清須市",
      "city_kana": "キヨスシ",
      "town": "春日樋",
      "town_kana": "ハルヒトイ",
      "street": null,
      "office_name": null,
      "office_name_kana": null
    },
    {
      "postcode": "4520961",
      "prefecture": "愛知県",
      "prefecture_kana": "アイチケン",
      "prefecture_code": 23,
      "city": "清須市",
      "city_kana": "キヨスシ",
      "town": "春日酉",
      "town_kana": "ハルヒトリ",
      "street": null,
      "office_name": null,
      "office_name_kana": null
    },
    {
      "postcode": "4520961",
      "prefecture": "愛知県",
      "prefecture_kana": "アイチケン",
      "prefecture_code": 23,
      "city": "清須市",
      "city_kana": "キヨスシ",
      "town": "春日中河原",
      "town_kana": "ハルヒナカガワラ",
      "street": null,
      "office_name": null,
      "office_name_kana": null
    },
    {
      "postcode": "4520961",
      "prefecture": "愛知県",
      "prefecture_kana": "アイチケン",
      "prefecture_code": 23,
      "city": "清須市",
      "city_kana": "キヨスシ",
      "town": "春日長畑",
      "town_kana": "ハルヒナガハタ",
      "street": null,
      "office_name": null,
      "office_name_kana": null
    },
    {
      "postcode": "4520961",
      "prefecture": "愛知県",
      "prefecture_kana": "アイチケン",
      "prefecture_code": 23,
      "city": "清須市",
      "city_kana": "キヨスシ",
      "town": "春日西須ケ畑",
      "town_kana": "ハルヒニシスカバタ",
      "street": null,
      "office_name": null,
      "office_name_kana": null
    },
    {
      "postcode": "4520961",
      "prefecture": "愛知県",
      "prefecture_kana": "アイチケン",
      "prefecture_code": 23,
      "city": "清須市",
      "city_kana": "キヨスシ",
      "town": "春日西牧前",
      "town_kana": "ハルヒニシマキマエ",
      "street": null,
      "office_name": null,
      "office_name_kana": null
    },
    {
      "postcode": "4520961",
      "prefecture": "愛知県",
      "prefecture_kana": "アイチケン",
      "prefecture_code": 23,
      "city": "清須市",
      "city_kana": "キヨスシ",
      "town": "春日西牧南",
      "town_kana": "ハルヒニシマキミナミ",
      "street": null,
      "office_name": null,
      "office_name_kana": null
    },
    {
      "postcode": "4520961",
      "prefecture": "愛知県",
      "prefecture_kana": "アイチケン",
      "prefecture_code": 23,
      "city": "清須市",
      "city_kana": "キヨスシ",
      "town": "春日西余部",
      "town_kana": "ハルヒニシヨベ",
      "street": null,
      "office_name": null,
      "office_name_kana": null
    },
    {
      "postcode": "4520961",
      "prefecture": "愛知県",
      "prefecture_kana": "アイチケン",
      "prefecture_code": 23,
      "city": "清須市",
      "city_kana": "キヨスシ",
      "town": "春日二番割",
      "town_kana": "ハルヒニバンワリ",
      "street": null,
      "office_name": null,
      "office_name_kana": null
    },
    {
      "postcode": "4520961",
      "prefecture": "愛知県",
      "prefecture_kana": "アイチケン",
      "prefecture_code": 23,
      "city": "清須市",
      "city_kana": "キヨスシ",
      "town": "春日弐屋敷",
      "town_kana": "ハルヒニヤシキ",
      "street": null,
      "office_name": null,
      "office_name_kana": null
    },
    {
      "postcode": "4520961",
      "prefecture": "愛知県",
      "prefecture_kana": "アイチケン",
      "prefecture_code": 23,
      "city": "清須市",
      "city_kana": "キヨスシ",
      "town": "春日野方",
      "town_kana": "ハルヒノカタ",
      "street": null,
      "office_name": null,
      "office_name_kana": null
    },
    {
      "postcode": "4520961",
      "prefecture": "愛知県",
      "prefecture_kana": "アイチケン",
      "prefecture_code": 23,
      "city": "清須市",
      "city_kana": "キヨスシ",
      "town": "春日八幡",
      "town_kana": "ハルヒハチマン",
      "street": null,
      "office_name": null,
      "office_name_kana": null
    },
    {
      "postcode": "4520961",
      "prefecture": "愛知県",
      "prefecture_kana": "アイチケン",
      "prefecture_code": 23,
      "city": "清須市",
      "city_kana": "キヨスシ",
      "town": "春日八幡裏",
      "town_kana": "ハルヒハチマンウラ",
      "street": null,
      "office_name": null,
      "office_name_kana": null
    },
    {
      "postcode": "4520961",
      "prefecture": "愛知県",
      "prefecture_kana": "アイチケン",
      "prefecture_code": 23,
      "city": "清須市",
      "city_kana": "キヨスシ",
      "town": "春日八幡前",
      "town_kana": "ハルヒハチマンマエ",
      "street": null,
      "office_name": null,
      "office_name_kana": null
    },
    {
      "postcode": "4520961",
      "prefecture": "愛知県",
      "prefecture_kana": "アイチケン",
      "prefecture_code": 23,
      "city": "清須市",
      "city_kana": "キヨスシ",
      "town": "春日八幡南",
      "town_kana": "ハルヒハチマンミナミ",
      "street": null,
      "office_name": null,
      "office_name_kana": null
    },
    {
      "postcode": "4520961",
      "prefecture": "愛知県",
      "prefecture_kana": "アイチケン",
      "prefecture_code": 23,
      "city": "清須市",
      "city_kana": "キヨスシ",
      "town": "春日東小塚",
      "town_kana": "ハルヒヒガシコヅカ",
      "street": null,
      "office_name": null,
      "office_name_kana": null
    },
    {
      "postcode": "4520961",
      "prefecture": "愛知県",
      "prefecture_kana": "アイチケン",
      "prefecture_code": 23,
      "city": "清須市",
      "city_kana": "キヨスシ",
      "town": "春日東須ケ畑",
      "town_kana": "ハルヒヒガシスカバタ",
      "street": null,
      "office_name": null,
      "office_name_kana": null
    },
    {
      "postcode": "4520961",
      "prefecture": "愛知県",
      "prefecture_kana": "アイチケン",
      "prefecture_code": 23,
      "city": "清須市",
      "city_kana": "キヨスシ",
      "town": "春日東出",
      "town_kana": "ハルヒヒガシデ",
      "street": null,
      "office_name": null,
      "office_name_kana": null
    },
    {
      "postcode": "4520961",
      "prefecture": "愛知県",
      "prefecture_kana": "アイチケン",
      "prefecture_code": 23,
      "city": "清須市",
      "city_kana": "キヨスシ",
      "town": "春日二ツ池",
      "town_kana": "ハルヒフタツイケ",
      "street": null,
      "office_name": null,
      "office_name_kana": null
    },
    {
      "postcode": "4520961",
      "prefecture": "愛知県",
      "prefecture_kana": "アイチケン",
      "prefecture_code": 23,
      "city": "清須市",
      "city_kana": "キヨスシ",
      "town": "春日振形",
      "town_kana": "ハルヒフリカタ",
      "street": null,
      "office_name": null,
      "office_name_kana": null
    },
    {
      "postcode": "4520961",
      "prefecture": "愛知県",
      "prefecture_kana": "アイチケン",
      "prefecture_code": 23,
      "city": "清須市",
      "city_kana": "キヨスシ",
      "town": "春日堀田",
      "town_kana": "ハルヒホリタ",
      "street": null,
      "office_name": null,
      "office_name_kana": null
    },
    {
      "postcode": "4520961",
      "prefecture": "愛知県",
      "prefecture_kana": "アイチケン",
      "prefecture_code": 23,
      "city": "清須市",
      "city_kana": "キヨスシ",
      "town": "春日宮越",
      "town_kana": "ハルヒミヤコシ",
      "street": null,
      "office_name": null,
      "office_name_kana": null
    },
    {
      "postcode": "4520961",
      "prefecture": "愛知県",
      "prefecture_kana": "アイチケン",
      "prefecture_code": 23,
      "city": "清須市",
      "city_kana": "キヨスシ",
      "town": "春日宮重",
      "town_kana": "ハルヒミヤシゲ",
      "street": null,
      "office_name": null,
      "office_name_kana": null
    },
    {
      "postcode": "4520961",
      "prefecture": "愛知県",
      "prefecture_kana": "アイチケン",
      "prefecture_code": 23,
      "city": "清須市",
      "city_kana": "キヨスシ",
      "town": "春日宮重町",
      "town_kana": "ハルヒミヤシゲマチ",
      "street": null,
      "office_name": null,
      "office_name_kana": null
    },
    {
      "postcode": "4520961",
      "prefecture": "愛知県",
      "prefecture_kana": "アイチケン",
      "prefecture_code": 23,
      "city": "清須市",
      "city_kana": "キヨスシ",
      "town": "春日向河原",
      "town_kana": "ハルヒムコウガワラ",
      "street": null,
      "office_name": null,
      "office_name_kana": null
    },
    {
      "postcode": "4520961",
      "prefecture": "愛知県",
      "prefecture_kana": "アイチケン",
      "prefecture_code": 23,
      "city": "清須市",
      "city_kana": "キヨスシ",
      "town": "春日屋敷",
      "town_kana": "ハルヒヤシキ",
      "street": null,
      "office_name": null,
      "office_name_kana": null
    },
    {
      "postcode": "4520961",
      "prefecture": "愛知県",
      "prefecture_kana": "アイチケン",
      "prefecture_code": 23,
      "city": "清須市",
      "city_kana": "キヨスシ",
      "town": "春日夢の森",
      "town_kana": "ハルヒユメノモリ",
      "street": null,
      "office_name": null,
      "office_name_kana": null
    },
    {
      "postcode": "4520961",
      "prefecture": "愛知県",
      "prefecture_kana": "アイチケン",
      "prefecture_code": 23,
      "city": "清須市",
      "city_kana": "キヨスシ",
      "town": "春日四番割",
      "town_kana": "ハルヒヨンバンワリ",
      "street": null,
      "office_name": null,
      "office_name_kana": null
    },
    {
      "postcode": "4520961",
      "prefecture": "愛知県",
      "prefecture_kana": "アイチケン",
      "prefecture_code": 23,
      "city": "清須市",
      "city_kana": "キヨスシ",
      "town": "春日蓮花寺前",
      "town_kana": "ハルヒレンゲジマエ",
      "street": null,
      "office_name": null,
      "office_name_kana": null
    }
  ],
  "0962": [
    {
      "postcode": "4520962",
      "prefecture": "愛知県",
      "prefecture_kana": "アイチケン",
      "prefecture_code": 23,
      "city": "清須市",
      "city_kana": "キヨスシ",
      "town": "春日県",
      "town_kana": "ハルヒアガタ",
      "street": null,
      "office_name": null,
      "office_name_kana": null
    },
    {
      "postcode": "4520962",
      "prefecture": "愛知県",
      "prefecture_kana": "アイチケン",
      "prefecture_code": 23,
      "city": "清須市",
      "city_kana": "キヨスシ",
      "town": "春日江先",
      "town_kana": "ハルヒエサキ",
      "street": null,
      "office_name": null,
      "office_name_kana": null
    },
    {
      "postcode": "4520962",
      "prefecture": "愛知県",
      "prefecture_kana": "アイチケン",
      "prefecture_code": 23,
      "city": "清須市",
      "city_kana": "キヨスシ",
      "town": "春日川中",
      "town_kana": "ハルヒカワナカ",
      "street": null,
      "office_name": null,
      "office_name_kana": null
    },
    {
      "postcode": "4520962",
      "prefecture": "愛知県",
      "prefecture_kana": "アイチケン",
      "prefecture_code": 23,
      "city": "清須市",
      "city_kana": "キヨスシ",
      "town": "春日郷ケ島",
      "town_kana": "ハルヒゴウガシマ",
      "street": null,
      "office_name": null,
      "office_name_kana": null
    },
    {
      "postcode": "4520962",
      "prefecture": "愛知県",
      "prefecture_kana": "アイチケン",
      "prefecture_code": 23,
      "city": "清須市",
      "city_kana": "キヨスシ",
      "town": "春日高札",
      "town_kana": "ハルヒコウサツ",
      "street": null,
      "office_name": null,
      "office_name_kana": null
    },
    {
      "postcode": "4520962",
      "prefecture": "愛知県",
      "prefecture_kana": "アイチケン",
      "prefecture_code": 23,
      "city": "清須市",
      "city_kana": "キヨスシ",
      "town": "春日五反地",
      "town_kana": "ハルヒゴタンジ",
      "street": null,
      "office_name": null,
      "office_name_kana": null
    },
    {
      "postcode": "4520962",
      "prefecture": "愛知県",
      "prefecture_kana": "アイチケン",
      "prefecture_code": 23,
      "city": "清須市",
      "city_kana": "キヨスシ",
      "town": "春日社子地",
      "town_kana": "ハルヒシャゴジ",
      "street": null,
      "office_name": null,
      "office_name_kana": null
    },
    {
      "postcode": "4520962",
      "prefecture": "愛知県",
      "prefecture_kana": "アイチケン",
      "prefecture_code": 23,
      "city": "清須市",
      "city_kana": "キヨスシ",
      "town": "春日白弓",
      "town_kana": "ハルヒシラユミ",
      "street": null,
      "office_name": null,
      "office_name_kana": null
    },
    {
      "postcode": "4520962",
      "prefecture": "愛知県",
      "prefecture_kana": "アイチケン",
      "prefecture_code": 23,
      "city": "清須市",
      "city_kana": "キヨスシ",
      "town": "春日新田",
      "town_kana": "ハルヒシンデン",
      "street": null,
      "office_name": null,
      "office_name_kana": null
    },
    {
      "postcode": "4520962",
      "prefecture": "愛知県",
      "prefecture_kana": "アイチケン",
      "prefecture_code": 23,
      "city": "清須市",
      "city_kana": "キヨスシ",
      "town": "春日新町",
      "town_kana": "ハルヒシンマチ",
      "street": null,
      "office_name": null,
      "office_name_kana": null
    },
    {
      "postcode": "4520962",
      "prefecture": "愛知県",
      "prefecture_kana": "アイチケン",
      "prefecture_code": 23,
      "city": "清須市",
      "city_kana": "キヨスシ",
      "town": "春日神明",
      "town_kana": "ハルヒシンメイ",
      "street": null,
      "office_name": null,
      "office_name_kana": null
    },
    {
      "postcode": "4520962",
      "prefecture": "愛知県",
      "prefecture_kana": "アイチケン",
      "prefecture_code": 23,
      "city": "清須市",
      "city_kana": "キヨスシ",
      "town": "春日砂賀東",
      "town_kana": "ハルヒスカヒガシ",
      "street": null,
      "office_name": null,
      "office_name_kana": null
    },
    {
      "postcode": "4520962",
      "prefecture": "愛知県",
      "prefecture_kana": "アイチケン",
      "prefecture_code": 23,
      "city": "清須市",
      "city_kana": "キヨスシ",
      "town": "春日立作",
      "town_kana": "ハルヒタテツクリ",
      "street": null,
      "office_name": null,
      "office_name_kana": null
    },
    {
      "postcode": "4520962",
      "prefecture": "愛知県",
      "prefecture_kana": "アイチケン",
      "prefecture_code": 23,
      "city": "清須市",
      "city_kana": "キヨスシ",
      "town": "春日長久寺",
      "town_kana": "ハルヒチョウキュウジ",
      "street": null,
      "office_name": null,
      "office_name_kana": null
    },
    {
      "postcode": "4520962",
      "prefecture": "愛知県",
      "prefecture_kana": "アイチケン",
      "prefecture_code": 23,
      "city": "清須市",
      "city_kana": "キヨスシ",
      "town": "春日天神",
      "town_kana": "ハルヒテンジン",
      "street": null,
      "office_name": null,
      "office_name_kana": null
    },
    {
      "postcode": "4520962",
      "prefecture": "愛知県",
      "prefecture_kana": "アイチケン",
      "prefecture_code": 23,
      "city": "清須市",
      "city_kana": "キヨスシ",
      "town": "春日鳥出",
      "town_kana": "ハルヒトリデ",
      "street": null,
      "office_name": null,
      "office_name_kana": null
    },
    {
      "postcode": "4520962",
      "prefecture": "愛知県",
      "prefecture_kana": "アイチケン",
      "prefecture_code": 23,
      "city": "清須市",
      "city_kana": "キヨスシ",
      "town": "春日中沼",
      "town_kana": "ハルヒナカヌマ",
      "street": null,
      "office_name": null,
      "office_name_kana": null
    },
    {
      "postcode": "4520962",
      "prefecture": "愛知県",
      "prefecture_kana": "アイチケン",
      "prefecture_code": 23,
      "city": "清須市",
      "city_kana": "キヨスシ",
      "town": "春日流",
      "town_kana": "ハルヒナガレ",
      "street": null,
      "office_name": null,
      "office_name_kana": null
    },
    {
      "postcode": "4520962",
      "prefecture": "愛知県",
      "prefecture_kana": "アイチケン",
      "prefecture_code": 23,
      "city": "清須市",
      "city_kana": "キヨスシ",
      "town": "春日野田町",
      "town_kana": "ハルヒノダマチ",
      "street": null,
      "office_name": null,
      "office_name_kana": null
    },
    {
      "postcode": "4520962",
      "prefecture": "愛知県",
      "prefecture_kana": "アイチケン",
      "prefecture_code": 23,
      "city": "清須市",
      "city_kana": "キヨスシ",
      "town": "春日冨士塚",
      "town_kana": "ハルヒフジヅカ",
      "street": null,
      "office_name": null,
      "office_name_kana": null
    },
    {
      "postcode": "4520962",
      "prefecture": "愛知県",
      "prefecture_kana": "アイチケン",
      "prefecture_code": 23,
      "city": "清須市",
      "city_kana": "キヨスシ",
      "town": "春日舟付",
      "town_kana": "ハルヒフナツキ",
      "street": null,
      "office_name": null,
      "office_name_kana": null
    },
    {
      "postcode": "4520962",
      "prefecture": "愛知県",
      "prefecture_kana": "アイチケン",
      "prefecture_code": 23,
      "city": "清須市",
      "city_kana": "キヨスシ",
      "town": "春日焼田",
      "town_kana": "ハルヒヤケタ",
      "street": null,
      "office_name": null,
      "office_name_kana": null
    }
  ],
  "0963": {
    "postcode": "4520963",
    "prefecture": "愛知県",
    "prefecture_kana": "アイチケン",
    "prefecture_code": 23,
    "city": "清須市",
    "city_kana": "キヨスシ",
    "town": "下津町",
    "town_kana": "オリヅチョウ",
    "street": null,
    "office_name": null,
    "office_name_kana": null
  },
  "0964": {
    "postcode": "4520964",
    "prefecture": "愛知県",
    "prefecture_kana": "アイチケン",
    "prefecture_code": 23,
    "city": "清須市",
    "city_kana": "キヨスシ",
    "town": "春日さくら",
    "town_kana": "ハルヒサクラ",
    "street": null,
    "office_name": null,
    "office_name_kana": null
  },
  "8501": {
    "postcode": "4528501",
    "prefecture": "愛知県",
    "prefecture_kana": "アイチケン",
    "prefecture_code": 23,
    "city": "清須市",
    "city_kana": "キヨスシ",
    "town": "西枇杷島町宮前",
    "town_kana": "ニシビワジマチョウミヤマエ",
    "street": "１丁目４８",
    "office_name": "サカエ理研工業　株式会社",
    "office_name_kana": "サカエリケンコウギヨウ カブシキガイシヤ"
  },
  "8502": {
    "postcode": "4528502",
    "prefecture": "愛知県",
    "prefecture_kana": "アイチケン",
    "prefecture_code": 23,
    "city": "清須市",
    "city_kana": "キヨスシ",
    "town": "西枇杷島町地領",
    "town_kana": "ニシビワジマチョウチリョウ",
    "street": "２丁目１−１",
    "office_name": "株式会社　フジミインコーポレーテッド",
    "office_name_kana": "カブシキガイシヤ フジミインコ-ポレ-テツド"
  },
  "8503": {
    "postcode": "4528503",
    "prefecture": "愛知県",
    "prefecture_kana": "アイチケン",
    "prefecture_code": 23,
    "city": "清須市",
    "city_kana": "キヨスシ",
    "town": "西枇杷島町花咲",
    "town_kana": "ニシビワジマチョウハナサキ",
    "street": "８４番地",
    "office_name": "清須市役所　西枇杷島庁舎",
    "office_name_kana": "キヨスシヤクシヨ ニシビワジマチヨウシヤ"
  },
  "8561": {
    "postcode": "4528561",
    "prefecture": "愛知県",
    "prefecture_kana": "アイチケン",
    "prefecture_code": 23,
    "city": "清須市",
    "city_kana": "キヨスシ",
    "town": "西枇杷島町旭",
    "town_kana": "ニシビワジマチョウアサヒ",
    "street": "３丁目１番地",
    "office_name": "三菱重工業　株式会社　冷熱事業本部",
    "office_name_kana": "ミツビシジユウコウギヨウ カブシキガイシヤ レイネツジギヨウホンブ"
  },
  "8562": {
    "postcode": "4528562",
    "prefecture": "愛知県",
    "prefecture_kana": "アイチケン",
    "prefecture_code": 23,
    "city": "清須市",
    "city_kana": "キヨスシ",
    "town": "寺野",
    "town_kana": "テラノ",
    "street": "花笠１００",
    "office_name": "麒麟麦酒　株式会社　名古屋工場",
    "office_name_kana": "キリンビ-ル カブシキガイシヤ ナゴヤコウジヨウ"
  },
  "8563": {
    "postcode": "4528563",
    "prefecture": "愛知県",
    "prefecture_kana": "アイチケン",
    "prefecture_code": 23,
    "city": "清須市",
    "city_kana": "キヨスシ",
    "town": "清洲",
    "town_kana": "キヨス",
    "street": "１丁目６番地１",
    "office_name": "清須市役所　清洲庁舎",
    "office_name_kana": "キヨスシヤクシヨ キヨスチヨウシヤ"
  },
  "8564": {
    "postcode": "4528564",
    "prefecture": "愛知県",
    "prefecture_kana": "アイチケン",
    "prefecture_code": 23,
    "city": "清須市",
    "city_kana": "キヨスシ",
    "town": "春日",
    "town_kana": null,
    "street": "長畑１番地",
    "office_name": "豊田合成　株式会社",
    "office_name_kana": "トヨタゴウセイ カブシキガイシヤ"
  },
  "8565": {
    "postcode": "4528565",
    "prefecture": "愛知県",
    "prefecture_kana": "アイチケン",
    "prefecture_code": 23,
    "city": "清須市",
    "city_kana": "キヨスシ",
    "town": "春日",
    "town_kana": null,
    "street": "振形１２９",
    "office_name": "春日支所",
    "office_name_kana": "ハルヒシシヨ"
  },
  "8566": {
    "postcode": "4528566",
    "prefecture": "愛知県",
    "prefecture_kana": "アイチケン",
    "prefecture_code": 23,
    "city": "清須市",
    "city_kana": "キヨスシ",
    "town": "春日",
    "town_kana": null,
    "street": "五反地６８",
    "office_name": "トッパンフォームズ東海　（株）",
    "office_name_kana": "トツパンフオ-ムズト-カイ (カブ)"
  },
  "8567": {
    "postcode": "4528567",
    "prefecture": "愛知県",
    "prefecture_kana": "アイチケン",
    "prefecture_code": 23,
    "city": "清須市",
    "city_kana": "キヨスシ",
    "town": "春日",
    "town_kana": null,
    "street": "一番割１",
    "office_name": "学校法人　トヨタ名古屋整備学園",
    "office_name_kana": "ガツコウホウジン トヨタナゴヤセイビガクエン"
  },
  "8569": {
    "postcode": "4528569",
    "prefecture": "愛知県",
    "prefecture_kana": "アイチケン",
    "prefecture_code": 23,
    "city": "清須市",
    "city_kana": "キヨスシ",
    "town": "須ケ口",
    "town_kana": "スカグチ",
    "street": "１２３８番地",
    "office_name": "清須市役所",
    "office_name_kana": "キヨスシヤクシヨ"
  },
  "8570": {
    "postcode": "4528570",
    "prefecture": "愛知県",
    "prefecture_kana": "アイチケン",
    "prefecture_code": 23,
    "city": "名古屋市西区",
    "city_kana": "ナゴヤシニシク",
    "town": "市場木町",
    "town_kana": "イチバギチョウ",
    "street": "３９０番地",
    "office_name": "御幸ホールディングス　株式会社",
    "office_name_kana": "ミユキホ-ルデイングス カブシキガイシヤ"
  },
  "8601": {
    "postcode": "4528601",
    "prefecture": "愛知県",
    "prefecture_kana": "アイチケン",
    "prefecture_code": 23,
    "city": "清須市",
    "city_kana": "キヨスシ",
    "town": "須ケ口",
    "town_kana": "スカグチ",
    "street": "１９００番地１",
    "office_name": "豊和工業　株式会社",
    "office_name_kana": "ホウワコウギヨウ カブシキガイシヤ"
  },
  "8602": {
    "postcode": "4528602",
    "prefecture": "愛知県",
    "prefecture_kana": "アイチケン",
    "prefecture_code": 23,
    "city": "清須市",
    "city_kana": "キヨスシ",
    "town": "西枇杷島町一反五畝割",
    "town_kana": "ニシビワジマチョウイッタンゴセワリ",
    "street": "４９６−１",
    "office_name": "株式会社　明電舎",
    "office_name_kana": "カブシキガイシヤ メイデンシヤ"
  }
}