{
  "0000": {
    "postcode": "4600000",
    "prefecture": "愛知県",
    "prefecture_kana": "アイチケン",
    "prefecture_code": 23,
    "city": "名古屋市中区",
    "city_kana": "ナゴヤシナカク",
    "town": "",
    "town_kana": "",
    "street": null,
    "office_name": null,
    "office_name_kana": null
  },
  "0001": {
    "postcode": "4600001",
    "prefecture": "愛知県",
    "prefecture_kana": "アイチケン",
    "prefecture_code": 23,
    "city": "名古屋市中区",
    "city_kana": "ナゴヤシナカク",
    "town": "三の丸",
    "town_kana": "サンノマル",
    "street": null,
    "office_name": null,
    "office_name_kana": null
  },
  "0002": {
    "postcode": "4600002",
    "prefecture": "愛知県",
    "prefecture_kana": "アイチケン",
    "prefecture_code": 23,
    "city": "名古屋市中区",
    "city_kana": "ナゴヤシナカク",
    "town": "丸の内",
    "town_kana": "マルノウチ",
    "street": null,
    "office_name": null,
    "office_name_kana": null
  },
  "0003": {
    "postcode": "4600003",
    "prefecture": "愛知県",
    "prefecture_kana": "アイチケン",
    "prefecture_code": 23,
    "city": "名古屋市中区",
    "city_kana": "ナゴヤシナカク",
    "town": "錦",
    "town_kana": "ニシキ",
    "street": null,
    "office_name": null,
    "office_name_kana": null
  },
  "0004": {
    "postcode": "4600004",
    "prefecture": "愛知県",
    "prefecture_kana": "アイチケン",
    "prefecture_code": 23,
    "city": "名古屋市中区",
    "city_kana": "ナゴヤシナカク",
    "town": "新栄町",
    "town_kana": "シンサカエマチ",
    "street": null,
    "office_name": null,
    "office_name_kana": null
  },
  "0005": {
    "postcode": "4600005",
    "prefecture": "愛知県",
    "prefecture_kana": "アイチケン",
    "prefecture_code": 23,
    "city": "名古屋市中区",
    "city_kana": "ナゴヤシナカク",
    "town": "東桜",
    "town_kana": "ヒガシサクラ",
    "street": null,
    "office_name": null,
    "office_name_kana": null
  },
  "0006": {
    "postcode": "4600006",
    "prefecture": "愛知県",
    "prefecture_kana": "アイチケン",
    "prefecture_code": 23,
    "city": "名古屋市中区",
    "city_kana": "ナゴヤシナカク",
    "town": "葵",
    "town_kana": "アオイ",
    "street": null,
    "office_name": null,
    "office_name_kana": null
  },
  "0007": {
    "postcode": "4600007",
    "prefecture": "愛知県",
    "prefecture_kana": "アイチケン",
    "prefecture_code": 23,
    "city": "名古屋市中区",
    "city_kana": "ナゴヤシナカク",
    "town": "新栄",
    "town_kana": "シンサカエ",
    "street": null,
    "office_name": null,
    "office_name_kana": null
  },
  "0008": {
    "postcode": "4600008",
    "prefecture": "愛知県",
    "prefecture_kana": "アイチケン",
    "prefecture_code": 23,
    "city": "名古屋市中区",
    "city_kana": "ナゴヤシナカク",
    "town": "栄",
    "town_kana": "サカエ",
    "street": null,
    "office_name": null,
    "office_name_kana": null
  },
  "0011": {
    "postcode": "4600011",
    "prefecture": "愛知県",
    "prefecture_kana": "アイチケン",
    "prefecture_code": 23,
    "city": "名古屋市中区",
    "city_kana": "ナゴヤシナカク",
    "town": "大須",
    "town_kana": "オオス",
    "street": null,
    "office_name": null,
    "office_name_kana": null
  },
  "0012": {
    "postcode": "4600012",
    "prefecture": "愛知県",
    "prefecture_kana": "アイチケン",
    "prefecture_code": 23,
    "city": "名古屋市中区",
    "city_kana": "ナゴヤシナカク",
    "town": "千代田",
    "town_kana": "チヨダ",
    "street": null,
    "office_name": null,
    "office_name_kana": null
  },
  "0013": {
    "postcode": "4600013",
    "prefecture": "愛知県",
    "prefecture_kana": "アイチケン",
    "prefecture_code": 23,
    "city": "名古屋市中区",
    "city_kana": "ナゴヤシナカク",
    "town": "上前津",
    "town_kana": "カミマエヅ",
    "street": null,
    "office_name": null,
    "office_name_kana": null
  },
  "0014": {
    "postcode": "4600014",
    "prefecture": "愛知県",
    "prefecture_kana": "アイチケン",
    "prefecture_code": 23,
    "city": "名古屋市中区",
    "city_kana": "ナゴヤシナカク",
    "town": "富士見町",
    "town_kana": "フジミチョウ",
    "street": null,
    "office_name": null,
    "office_name_kana": null
  },
  "0015": {
    "postcode": "4600015",
    "prefecture": "愛知県",
    "prefecture_kana": "アイチケン",
    "prefecture_code": 23,
    "city": "名古屋市中区",
    "city_kana": "ナゴヤシナカク",
    "town": "大井町",
    "town_kana": "オオイチョウ",
    "street": null,
    "office_name": null,
    "office_name_kana": null
  },
  "0016": {
    "postcode": "4600016",
    "prefecture": "愛知県",
    "prefecture_kana": "アイチケン",
    "prefecture_code": 23,
    "city": "名古屋市中区",
    "city_kana": "ナゴヤシナカク",
    "town": "橘",
    "town_kana": "タチバナ",
    "street": null,
    "office_name": null,
    "office_name_kana": null
  },
  "0017": {
    "postcode": "4600017",
    "prefecture": "愛知県",
    "prefecture_kana": "アイチケン",
    "prefecture_code": 23,
    "city": "名古屋市中区",
    "city_kana": "ナゴヤシナカク",
    "town": "松原",
    "town_kana": "マツバラ",
    "street": null,
    "office_name": null,
    "office_name_kana": null
  },
  "0018": {
    "postcode": "4600018",
    "prefecture": "愛知県",
    "prefecture_kana": "アイチケン",
    "prefecture_code": 23,
    "city": "名古屋市中区",
    "city_kana": "ナゴヤシナカク",
    "town": "門前町",
    "town_kana": "モンゼンチョウ",
    "street": null,
    "office_name": null,
    "office_name_kana": null
  },
  "0021": {
    "postcode": "4600021",
    "prefecture": "愛知県",
    "prefecture_kana": "アイチケン",
    "prefecture_code": 23,
    "city": "名古屋市中区",
    "city_kana": "ナゴヤシナカク",
    "town": "平和",
    "town_kana": "ヘイワ",
    "street": null,
    "office_name": null,
    "office_name_kana": null
  },
  "0022": {
    "postcode": "4600022",
    "prefecture": "愛知県",
    "prefecture_kana": "アイチケン",
    "prefecture_code": 23,
    "city": "名古屋市中区",
    "city_kana": "ナゴヤシナカク",
    "town": "金山",
    "town_kana": "カナヤマ",
    "street": null,
    "office_name": null,
    "office_name_kana": null
  },
  "0023": {
    "postcode": "4600023",
    "prefecture": "愛知県",
    "prefecture_kana": "アイチケン",
    "prefecture_code": 23,
    "city": "名古屋市中区",
    "city_kana": "ナゴヤシナカク",
    "town": "金山町",
    "town_kana": "カナヤマチョウ",
    "street": null,
    "office_name": null,
    "office_name_kana": null
  },
  "0024": {
    "postcode": "4600024",
    "prefecture": "愛知県",
    "prefecture_kana": "アイチケン",
    "prefecture_code": 23,
    "city": "名古屋市中区",
    "city_kana": "ナゴヤシナカク",
    "town": "正木",
    "town_kana": "マサキ",
    "street": null,
    "office_name": null,
    "office_name_kana": null
  },
  "0025": {
    "postcode": "4600025",
    "prefecture": "愛知県",
    "prefecture_kana": "アイチケン",
    "prefecture_code": 23,
    "city": "名古屋市中区",
    "city_kana": "ナゴヤシナカク",
    "town": "古渡町",
    "town_kana": "フルワタリチョウ",
    "street": null,
    "office_name": null,
    "office_name_kana": null
  },
  "0026": {
    "postcode": "4600026",
    "prefecture": "愛知県",
    "prefecture_kana": "アイチケン",
    "prefecture_code": 23,
    "city": "名古屋市中区",
    "city_kana": "ナゴヤシナカク",
    "town": "伊勢山",
    "town_kana": "イセヤマ",
    "street": null,
    "office_name": null,
    "office_name_kana": null
  },
  "0031": {
    "postcode": "4600031",
    "prefecture": "愛知県",
    "prefecture_kana": "アイチケン",
    "prefecture_code": 23,
    "city": "名古屋市中区",
    "city_kana": "ナゴヤシナカク",
    "town": "本丸",
    "town_kana": "ホンマル",
    "street": null,
    "office_name": null,
    "office_name_kana": null
  },
  "0032": {
    "postcode": "4600032",
    "prefecture": "愛知県",
    "prefecture_kana": "アイチケン",
    "prefecture_code": 23,
    "city": "名古屋市中区",
    "city_kana": "ナゴヤシナカク",
    "town": "二の丸",
    "town_kana": "ニノマル",
    "street": null,
    "office_name": null,
    "office_name_kana": null
  },
  "8201": {
    "postcode": "4608201",
    "prefecture": "愛知県",
    "prefecture_kana": "アイチケン",
    "prefecture_code": 23,
    "city": "名古屋市中区",
    "city_kana": "ナゴヤシナカク",
    "town": "丸の内",
    "town_kana": "マルノウチ",
    "street": "３丁目１０番４号",
    "office_name": "個人市民税特別徴収センター",
    "office_name_kana": "コジンシミンゼイトクベツチヨウシユウセンタ-"
  },
  "8202": {
    "postcode": "4608202",
    "prefecture": "愛知県",
    "prefecture_kana": "アイチケン",
    "prefecture_code": 23,
    "city": "名古屋市中区",
    "city_kana": "ナゴヤシナカク",
    "town": "丸の内",
    "town_kana": "マルノウチ",
    "street": "３丁目１０番４号",
    "office_name": "名古屋市　市税収納事務センター",
    "office_name_kana": "ナゴヤシ シゼイシユウノウジムセンタ-"
  },
  "8203": {
    "postcode": "4608203",
    "prefecture": "愛知県",
    "prefecture_kana": "アイチケン",
    "prefecture_code": 23,
    "city": "名古屋市中区",
    "city_kana": "ナゴヤシナカク",
    "town": "栄",
    "town_kana": "サカエ",
    "street": "１−３−３朝日会館１３階",
    "office_name": "日刊スポーツ新聞　名古屋本社",
    "office_name_kana": "ニツカンスポ-ツシンブン ナゴヤホンシヤ"
  },
  "8204": {
    "postcode": "4608204",
    "prefecture": "愛知県",
    "prefecture_kana": "アイチケン",
    "prefecture_code": 23,
    "city": "名古屋市中区",
    "city_kana": "ナゴヤシナカク",
    "town": "栄",
    "town_kana": "サカエ",
    "street": "四丁目６番１５号フォーティーンヒルズセンタービル６Ｆ",
    "office_name": "社団法人　日本電気協会　中部支部",
    "office_name_kana": "シヤダンホウジン ニホンデンキキヨウカイ チユウブシブ"
  },
  "8302": {
    "postcode": "4608302",
    "prefecture": "愛知県",
    "prefecture_kana": "アイチケン",
    "prefecture_code": 23,
    "city": "名古屋市中区",
    "city_kana": "ナゴヤシナカク",
    "town": "大須",
    "town_kana": "オオス",
    "street": "３丁目３１−２８",
    "office_name": "エヌエスディ　株式会社",
    "office_name_kana": "エヌエスデイ カブシキガイシヤ"
  },
  "8310": [
    {
      "postcode": "4608310",
      "prefecture": "愛知県",
      "prefecture_kana": "アイチケン",
      "prefecture_code": 23,
      "city": "名古屋市中区",
      "city_kana": "ナゴヤシナカク",
      "town": "千代田",
      "town_kana": "チヨダ",
      "street": "２丁目１２−１４",
      "office_name": "中部電力パワーグリッド　株式会社　中電千代田ビル（名古屋支店、中営業所、中電力センター）",
      "office_name_kana": "チユウブデンリヨクパワ-グリツド カブシキカイシヤ チユウデンチヨダビル"
    },
    {
      "postcode": "4608310",
      "prefecture": "愛知県",
      "prefecture_kana": "アイチケン",
      "prefecture_code": 23,
      "city": "名古屋市中区",
      "city_kana": "ナゴヤシナカク",
      "town": "千代田",
      "town_kana": "チヨダ",
      "street": "２丁目１２−１４",
      "office_name": "中部電力ミライズ　株式会社　名古屋営業本部",
      "office_name_kana": "チユウブデンリヨクミライズ カブシキカイシヤ ナゴヤエイギヨウホンブ"
    }
  ],
  "8311": {
    "postcode": "4608311",
    "prefecture": "愛知県",
    "prefecture_kana": "アイチケン",
    "prefecture_code": 23,
    "city": "名古屋市中区",
    "city_kana": "ナゴヤシナカク",
    "town": "橘",
    "town_kana": "タチバナ",
    "street": "２丁目１０−１",
    "office_name": "名古屋テレビ放送　株式会社",
    "office_name_kana": "ナゴヤテレビホウソウ カブシキガイシヤ"
  },
  "8312": {
    "postcode": "4608312",
    "prefecture": "愛知県",
    "prefecture_kana": "アイチケン",
    "prefecture_code": 23,
    "city": "名古屋市中区",
    "city_kana": "ナゴヤシナカク",
    "town": "千代田",
    "town_kana": "チヨダ",
    "street": "４丁目２３−２共豊ビル４階",
    "office_name": "セルバンク　クリニック",
    "office_name_kana": "セルバンク クリニツク"
  },
  "8314": {
    "postcode": "4608314",
    "prefecture": "愛知県",
    "prefecture_kana": "アイチケン",
    "prefecture_code": 23,
    "city": "名古屋市中区",
    "city_kana": "ナゴヤシナカク",
    "town": "橘",
    "town_kana": "タチバナ",
    "street": "１丁目２８−９",
    "office_name": "リンタツ　株式会社",
    "office_name_kana": "リンタツ カブシキガイシヤ"
  },
  "8315": {
    "postcode": "4608315",
    "prefecture": "愛知県",
    "prefecture_kana": "アイチケン",
    "prefecture_code": 23,
    "city": "名古屋市中区",
    "city_kana": "ナゴヤシナカク",
    "town": "大須",
    "town_kana": "オオス",
    "street": "三丁目３０番地２０号赤門通ビル",
    "office_name": "株式会社　バッファロー",
    "office_name_kana": "カブシキガイシヤ バツフアロ-"
  },
  "8318": {
    "postcode": "4608318",
    "prefecture": "愛知県",
    "prefecture_kana": "アイチケン",
    "prefecture_code": 23,
    "city": "名古屋市中区",
    "city_kana": "ナゴヤシナカク",
    "town": "千代田",
    "town_kana": "チヨダ",
    "street": "２丁目１６−３０",
    "office_name": "株式会社　八神製作所",
    "office_name_kana": "カブシキガイシヤ ヤガミセイサクシヨ"
  },
  "8319": {
    "postcode": "4608319",
    "prefecture": "愛知県",
    "prefecture_kana": "アイチケン",
    "prefecture_code": 23,
    "city": "名古屋市中区",
    "city_kana": "ナゴヤシナカク",
    "town": "大須",
    "town_kana": "オオス",
    "street": "４丁目９−６０",
    "office_name": "ＮＴＴ　東海支社",
    "office_name_kana": "エヌテイテイ トウカイシシヤ"
  },
  "8320": {
    "postcode": "4608320",
    "prefecture": "愛知県",
    "prefecture_kana": "アイチケン",
    "prefecture_code": 23,
    "city": "名古屋市中区",
    "city_kana": "ナゴヤシナカク",
    "town": "松原",
    "town_kana": "マツバラ",
    "street": "３丁目２−８テルウェル新松原ビル",
    "office_name": "テルウェル西日本　株式会社　東海支店",
    "office_name_kana": "テルウエルニシニホン カブシキガイシヤ トウカイシテン"
  },
  "8321": {
    "postcode": "4608321",
    "prefecture": "愛知県",
    "prefecture_kana": "アイチケン",
    "prefecture_code": 23,
    "city": "名古屋市中区",
    "city_kana": "ナゴヤシナカク",
    "town": "新栄",
    "town_kana": "シンサカエ",
    "street": "二丁目１９番６号グランスクエア新栄１階",
    "office_name": "ミサワホーム東海　株式会社",
    "office_name_kana": "ミサワホ-ムトウカイ カブシキカイシヤ"
  },
  "8325": {
    "postcode": "4608325",
    "prefecture": "愛知県",
    "prefecture_kana": "アイチケン",
    "prefecture_code": 23,
    "city": "名古屋市中区",
    "city_kana": "ナゴヤシナカク",
    "town": "大須",
    "town_kana": "オオス",
    "street": "２丁目４−８",
    "office_name": "テレビ愛知　株式会社",
    "office_name_kana": "テレビアイチ カブシキガイシヤ"
  },
  "8330": {
    "postcode": "4608330",
    "prefecture": "愛知県",
    "prefecture_kana": "アイチケン",
    "prefecture_code": 23,
    "city": "名古屋市中区",
    "city_kana": "ナゴヤシナカク",
    "town": "上前津",
    "town_kana": "カミマエヅ",
    "street": "２丁目９−２９",
    "office_name": "株式会社　槌屋",
    "office_name_kana": "カブシキガイシヤ ツチヤ"
  },
  "8331": {
    "postcode": "4608331",
    "prefecture": "愛知県",
    "prefecture_kana": "アイチケン",
    "prefecture_code": 23,
    "city": "名古屋市中区",
    "city_kana": "ナゴヤシナカク",
    "town": "上前津",
    "town_kana": "カミマエヅ",
    "street": "１丁目３−３",
    "office_name": "株式会社　カテックス",
    "office_name_kana": "カブシキガイシヤ カテツクス"
  },
  "8333": {
    "postcode": "4608333",
    "prefecture": "愛知県",
    "prefecture_kana": "アイチケン",
    "prefecture_code": 23,
    "city": "名古屋市中区",
    "city_kana": "ナゴヤシナカク",
    "town": "上前津",
    "town_kana": "カミマエヅ",
    "street": "２丁目８−１",
    "office_name": "ゴムノイナキ　株式会社",
    "office_name_kana": "ゴムノイナキ カブシキガイシヤ"
  },
  "8338": {
    "postcode": "4608338",
    "prefecture": "愛知県",
    "prefecture_kana": "アイチケン",
    "prefecture_code": 23,
    "city": "名古屋市中区",
    "city_kana": "ナゴヤシナカク",
    "town": "古渡町",
    "town_kana": "フルワタリチョウ",
    "street": "９−２７",
    "office_name": "株式会社　ナデックス",
    "office_name_kana": "カブシキガイシヤ ナデツクス"
  },
  "8350": {
    "postcode": "4608350",
    "prefecture": "愛知県",
    "prefecture_kana": "アイチケン",
    "prefecture_code": 23,
    "city": "名古屋市中区",
    "city_kana": "ナゴヤシナカク",
    "town": "正木",
    "town_kana": "マサキ",
    "street": "三丁目５番１４号",
    "office_name": "ＳＭＢＣファイナンスサービス　株式会社",
    "office_name_kana": "エスエムビ-シ-フアイナンスサ-ビス カブシキガイシヤ"
  },
  "8351": [
    {
      "postcode": "4608351",
      "prefecture": "愛知県",
      "prefecture_kana": "アイチケン",
      "prefecture_code": 23,
      "city": "名古屋市中区",
      "city_kana": "ナゴヤシナカク",
      "town": "正木",
      "town_kana": "マサキ",
      "street": "２−３−１",
      "office_name": "株式会社　毎日新聞社　中部本社",
      "office_name_kana": "カブシキガイシヤ マイニチシンブンシヤ チユウブホンシヤ"
    },
    {
      "postcode": "4608351",
      "prefecture": "愛知県",
      "prefecture_kana": "アイチケン",
      "prefecture_code": 23,
      "city": "名古屋市中区",
      "city_kana": "ナゴヤシナカク",
      "town": "正木",
      "town_kana": "マサキ",
      "street": "２−３−１",
      "office_name": "株式会社　毎日新聞社　中部本社　名古屋本部",
      "office_name_kana": "カブシキガイシヤ マイニチシンブンシヤ チユウブホンシヤ ナゴヤホンブ"
    }
  ],
  "8358": {
    "postcode": "4608358",
    "prefecture": "愛知県",
    "prefecture_kana": "アイチケン",
    "prefecture_code": 23,
    "city": "名古屋市中区",
    "city_kana": "ナゴヤシナカク",
    "town": "大須",
    "town_kana": "オオス",
    "street": "四丁目１１番３９号",
    "office_name": "寿がきや食品　株式会社",
    "office_name_kana": "スガキヤシヨクヒン カブシキガイシヤ"
  },
  "8360": {
    "postcode": "4608360",
    "prefecture": "愛知県",
    "prefecture_kana": "アイチケン",
    "prefecture_code": 23,
    "city": "名古屋市中区",
    "city_kana": "ナゴヤシナカク",
    "town": "正木",
    "town_kana": "マサキ",
    "street": "１丁目２−８",
    "office_name": "株式会社　愛知冠婚葬祭互助会",
    "office_name_kana": "カブシキガイシヤ アイチカンコンソウサイゴジヨカイ"
  },
  "8366": {
    "postcode": "4608366",
    "prefecture": "愛知県",
    "prefecture_kana": "アイチケン",
    "prefecture_code": 23,
    "city": "名古屋市中区",
    "city_kana": "ナゴヤシナカク",
    "town": "栄",
    "town_kana": "サカエ",
    "street": "４丁目１６−３３",
    "office_name": "日本経済新聞社　名古屋支社",
    "office_name_kana": "ニホンケイザイシンブンシヤ ナゴヤシシヤ"
  },
  "8383": {
    "postcode": "4608383",
    "prefecture": "愛知県",
    "prefecture_kana": "アイチケン",
    "prefecture_code": 23,
    "city": "名古屋市中区",
    "city_kana": "ナゴヤシナカク",
    "town": "金山",
    "town_kana": "カナヤマ",
    "street": "５丁目１４−２",
    "office_name": "大有建設　株式会社",
    "office_name_kana": "ダイユウケンセツ カブシキガイシヤ"
  },
  "8388": {
    "postcode": "4608388",
    "prefecture": "愛知県",
    "prefecture_kana": "アイチケン",
    "prefecture_code": 23,
    "city": "名古屋市中区",
    "city_kana": "ナゴヤシナカク",
    "town": "千代田",
    "town_kana": "チヨダ",
    "street": "２丁目１５−１８",
    "office_name": "株式会社　エフエム愛知",
    "office_name_kana": "カブシキガイシヤ エフエムアイチ"
  },
  "8402": {
    "postcode": "4608402",
    "prefecture": "愛知県",
    "prefecture_kana": "アイチケン",
    "prefecture_code": 23,
    "city": "名古屋市中区",
    "city_kana": "ナゴヤシナカク",
    "town": "栄",
    "town_kana": "サカエ",
    "street": "４丁目３−２６昭和ビル８Ｆ",
    "office_name": "株式会社　熊谷組　名古屋支店",
    "office_name_kana": "カブシキガイシヤ クマガイグミ ナゴヤシテン"
  },
  "8403": {
    "postcode": "4608403",
    "prefecture": "愛知県",
    "prefecture_kana": "アイチケン",
    "prefecture_code": 23,
    "city": "名古屋市中区",
    "city_kana": "ナゴヤシナカク",
    "town": "栄",
    "town_kana": "サカエ",
    "street": "１丁目１０番５号",
    "office_name": "株式会社　御園座",
    "office_name_kana": "カブシキガイシヤ ミソノザ"
  },
  "8404": {
    "postcode": "4608404",
    "prefecture": "愛知県",
    "prefecture_kana": "アイチケン",
    "prefecture_code": 23,
    "city": "名古屋市中区",
    "city_kana": "ナゴヤシナカク",
    "town": "栄",
    "town_kana": "サカエ",
    "street": "１−１２−１７富士フイルム名古屋ビル",
    "office_name": "富士フイルム　株式会社",
    "office_name_kana": "フジフイルム カブシキガイシヤ"
  },
  "8405": {
    "postcode": "4608405",
    "prefecture": "愛知県",
    "prefecture_kana": "アイチケン",
    "prefecture_code": 23,
    "city": "名古屋市中区",
    "city_kana": "ナゴヤシナカク",
    "town": "新栄",
    "town_kana": "シンサカエ",
    "street": "１丁目２−８",
    "office_name": "ＣＢＣ中部日本放送　株式会社",
    "office_name_kana": "シイビイシイチユウブニツポンホウソウ カブシキガイシヤ"
  },
  "8408": {
    "postcode": "4608408",
    "prefecture": "愛知県",
    "prefecture_kana": "アイチケン",
    "prefecture_code": 23,
    "city": "名古屋市中区",
    "city_kana": "ナゴヤシナカク",
    "town": "栄",
    "town_kana": "サカエ",
    "street": "１丁目２０−３１",
    "office_name": "株式会社　トーエネック",
    "office_name_kana": "カブシキガイシヤ ト-エネツク"
  },
  "8411": {
    "postcode": "4608411",
    "prefecture": "愛知県",
    "prefecture_kana": "アイチケン",
    "prefecture_code": 23,
    "city": "名古屋市中区",
    "city_kana": "ナゴヤシナカク",
    "town": "栄",
    "town_kana": "サカエ",
    "street": "１丁目７−２３",
    "office_name": "木曽興業　株式会社",
    "office_name_kana": "キソコウギヨウ カブシキガイシヤ"
  },
  "8412": {
    "postcode": "4608412",
    "prefecture": "愛知県",
    "prefecture_kana": "アイチケン",
    "prefecture_code": 23,
    "city": "名古屋市中区",
    "city_kana": "ナゴヤシナカク",
    "town": "錦",
    "town_kana": "ニシキ",
    "street": "１丁目１９番２４号",
    "office_name": "大日本土木　株式会社　名古屋支店",
    "office_name_kana": "ダイニツポンドボク カブシキガイシヤ ナゴヤシテン"
  },
  "8415": {
    "postcode": "4608415",
    "prefecture": "愛知県",
    "prefecture_kana": "アイチケン",
    "prefecture_code": 23,
    "city": "名古屋市中区",
    "city_kana": "ナゴヤシナカク",
    "town": "栄",
    "town_kana": "サカエ",
    "street": "４丁目２番２９号名古屋広小路プレイス",
    "office_name": "ポッカサッポロフード＆ビバレッジ　株式会社",
    "office_name_kana": "ポツカサツポロフ-ドアンドビバレツジ カブシキガイシヤ"
  },
  "8416": {
    "postcode": "4608416",
    "prefecture": "愛知県",
    "prefecture_kana": "アイチケン",
    "prefecture_code": 23,
    "city": "名古屋市中区",
    "city_kana": "ナゴヤシナカク",
    "town": "栄",
    "town_kana": "サカエ",
    "street": "２丁目５番１号",
    "office_name": "株式会社　松村組　名古屋支店",
    "office_name_kana": "カブシキガイシヤ マツムラグミ ナゴヤシテン"
  },
  "8417": {
    "postcode": "4608417",
    "prefecture": "愛知県",
    "prefecture_kana": "アイチケン",
    "prefecture_code": 23,
    "city": "名古屋市中区",
    "city_kana": "ナゴヤシナカク",
    "town": "新栄町",
    "town_kana": "シンサカエマチ",
    "street": "１丁目５番地",
    "office_name": "日石三菱　株式会社　中部支店",
    "office_name_kana": "ニツセキミツビシ カブシキガイシヤ チユウブシテン"
  },
  "8422": {
    "postcode": "4608422",
    "prefecture": "愛知県",
    "prefecture_kana": "アイチケン",
    "prefecture_code": 23,
    "city": "名古屋市中区",
    "city_kana": "ナゴヤシナカク",
    "town": "栄",
    "town_kana": "サカエ",
    "street": "２丁目１０−１９",
    "office_name": "名古屋商工会議所",
    "office_name_kana": "ナゴヤシヨウコウカイギシヨ"
  },
  "8425": {
    "postcode": "4608425",
    "prefecture": "愛知県",
    "prefecture_kana": "アイチケン",
    "prefecture_code": 23,
    "city": "名古屋市中区",
    "city_kana": "ナゴヤシナカク",
    "town": "栄",
    "town_kana": "サカエ",
    "street": "二丁目８番２０号",
    "office_name": "ＴＩＳ　株式会社",
    "office_name_kana": "テイアイエス カブシキガイシヤ"
  },
  "8426": {
    "postcode": "4608426",
    "prefecture": "愛知県",
    "prefecture_kana": "アイチケン",
    "prefecture_code": 23,
    "city": "名古屋市中区",
    "city_kana": "ナゴヤシナカク",
    "town": "栄",
    "town_kana": "サカエ",
    "street": "２丁目７番１１号白川パークビル南館４階",
    "office_name": "株式会社　エイシアインターナショナル",
    "office_name_kana": "カブシキガイシヤ エイシアインタ-ナシヨナル"
  },
  "8430": {
    "postcode": "4608430",
    "prefecture": "愛知県",
    "prefecture_kana": "アイチケン",
    "prefecture_code": 23,
    "city": "名古屋市中区",
    "city_kana": "ナゴヤシナカク",
    "town": "栄",
    "town_kana": "サカエ",
    "street": "３丁目１６番１号",
    "office_name": "株式会社　大丸松坂屋百貨店　松坂屋名古屋店",
    "office_name_kana": "カブシキガイシヤ ダイマルマツザカヤヒヤツカテン マツザカヤナゴヤテン"
  },
  "8431": {
    "postcode": "4608431",
    "prefecture": "愛知県",
    "prefecture_kana": "アイチケン",
    "prefecture_code": 23,
    "city": "名古屋市中区",
    "city_kana": "ナゴヤシナカク",
    "town": "錦",
    "town_kana": "ニシキ",
    "street": "３丁目２０番２７号",
    "office_name": "東海東京証券　株式会社",
    "office_name_kana": "トウカイトウキヨウシヨウケン カブシキガイシヤ"
  },
  "8432": {
    "postcode": "4608432",
    "prefecture": "愛知県",
    "prefecture_kana": "アイチケン",
    "prefecture_code": 23,
    "city": "名古屋市中区",
    "city_kana": "ナゴヤシナカク",
    "town": "栄",
    "town_kana": "サカエ",
    "street": "３丁目３４−１４",
    "office_name": "東海エレクトロニクス　株式会社",
    "office_name_kana": "トウカイエレクトロニクス カブシキガイシヤ"
  },
  "8433": {
    "postcode": "4608433",
    "prefecture": "愛知県",
    "prefecture_kana": "アイチケン",
    "prefecture_code": 23,
    "city": "名古屋市中区",
    "city_kana": "ナゴヤシナカク",
    "town": "栄",
    "town_kana": "サカエ",
    "street": "３丁目７−２０日土地栄町ビル",
    "office_name": "株式会社　新潟鐵工所　名古屋支店",
    "office_name_kana": "カブシキガイシヤ ニイガタテツコウジヨ ナゴヤシテン"
  },
  "8434": {
    "postcode": "4608434",
    "prefecture": "愛知県",
    "prefecture_kana": "アイチケン",
    "prefecture_code": 23,
    "city": "名古屋市中区",
    "city_kana": "ナゴヤシナカク",
    "town": "栄",
    "town_kana": "サカエ",
    "street": "３丁目１４−２２",
    "office_name": "中央電気工事　株式会社",
    "office_name_kana": "チユウオウデンキコウジ カブシキガイシヤ"
  },
  "8435": {
    "postcode": "4608435",
    "prefecture": "愛知県",
    "prefecture_kana": "アイチケン",
    "prefecture_code": 23,
    "city": "名古屋市中区",
    "city_kana": "ナゴヤシナカク",
    "town": "栄",
    "town_kana": "サカエ",
    "street": "３丁目１７−１２",
    "office_name": "株式会社　日立製作所　中部支社",
    "office_name_kana": "カブシキガイシヤ ヒタチセイサクシヨ チユウブシシヤ"
  },
  "8439": {
    "postcode": "4608439",
    "prefecture": "愛知県",
    "prefecture_kana": "アイチケン",
    "prefecture_code": 23,
    "city": "名古屋市中区",
    "city_kana": "ナゴヤシナカク",
    "town": "栄",
    "town_kana": "サカエ",
    "street": "４丁目２番７号栄イーストビル５階",
    "office_name": "株式会社　アトム",
    "office_name_kana": "カブシキガイシヤ アトム"
  },
  "8440": {
    "postcode": "4608440",
    "prefecture": "愛知県",
    "prefecture_kana": "アイチケン",
    "prefecture_code": 23,
    "city": "名古屋市中区",
    "city_kana": "ナゴヤシナカク",
    "town": "栄",
    "town_kana": "サカエ",
    "street": "４丁目２−２９名古屋広小路プレイス１０Ｆ",
    "office_name": "株式会社　ベネッセコーポレーション　名古屋事業所",
    "office_name_kana": "カブシキガイシヤ ベネツセコ-ポレ-シヨン ナゴヤジギヨウシヨ"
  },
  "8444": {
    "postcode": "4608444",
    "prefecture": "愛知県",
    "prefecture_kana": "アイチケン",
    "prefecture_code": 23,
    "city": "名古屋市中区",
    "city_kana": "ナゴヤシナカク",
    "town": "栄",
    "town_kana": "サカエ",
    "street": "３丁目８番８号名古屋平和ビル５Ｆ",
    "office_name": "アリコ　ジャパン",
    "office_name_kana": "アリコ ジヤパン"
  },
  "8445": {
    "postcode": "4608445",
    "prefecture": "愛知県",
    "prefecture_kana": "アイチケン",
    "prefecture_code": 23,
    "city": "名古屋市中区",
    "city_kana": "ナゴヤシナカク",
    "town": "栄",
    "town_kana": "サカエ",
    "street": "４丁目１６−３６",
    "office_name": "株式会社　電通　中部支社",
    "office_name_kana": "カブシキガイシヤ デンツウ チユウブシシヤ"
  },
  "8447": {
    "postcode": "4608447",
    "prefecture": "愛知県",
    "prefecture_kana": "アイチケン",
    "prefecture_code": 23,
    "city": "名古屋市中区",
    "city_kana": "ナゴヤシナカク",
    "town": "栄",
    "town_kana": "サカエ",
    "street": "４丁目１−８",
    "office_name": "名古屋市中区役所",
    "office_name_kana": "ナゴヤシナカクヤクシヨ"
  },
  "8450": {
    "postcode": "4608450",
    "prefecture": "愛知県",
    "prefecture_kana": "アイチケン",
    "prefecture_code": 23,
    "city": "名古屋市中区",
    "city_kana": "ナゴヤシナカク",
    "town": "栄",
    "town_kana": "サカエ",
    "street": "５丁目１５番１８号",
    "office_name": "あいおい損害保険　株式会社　名古屋栄ビル",
    "office_name_kana": "アイオイソンガイホケン カブシキガイシヤ ナゴヤサカエビル"
  },
  "8451": {
    "postcode": "4608451",
    "prefecture": "愛知県",
    "prefecture_kana": "アイチケン",
    "prefecture_code": 23,
    "city": "名古屋市中区",
    "city_kana": "ナゴヤシナカク",
    "town": "栄",
    "town_kana": "サカエ",
    "street": "２丁目９番３号",
    "office_name": "兼松エレクトロニクス　株式会社　名古屋支店",
    "office_name_kana": "カネマツエレクトロニクス カブシキガイシヤ ナゴヤシテン"
  },
  "8455": {
    "postcode": "4608455",
    "prefecture": "愛知県",
    "prefecture_kana": "アイチケン",
    "prefecture_code": 23,
    "city": "名古屋市中区",
    "city_kana": "ナゴヤシナカク",
    "town": "栄",
    "town_kana": "サカエ",
    "street": "１丁目２３−２０",
    "office_name": "新日本法規出版　株式会社",
    "office_name_kana": "シンニホンホウキシユツパン カブシキガイシヤ"
  },
  "8456": {
    "postcode": "4608456",
    "prefecture": "愛知県",
    "prefecture_kana": "アイチケン",
    "prefecture_code": 23,
    "city": "名古屋市中区",
    "city_kana": "ナゴヤシナカク",
    "town": "栄",
    "town_kana": "サカエ",
    "street": "１丁目２６番１１号",
    "office_name": "新日本法規出版　株式会社　名古屋支社",
    "office_name_kana": "シンニホンホウキシユツパン カブシキガイシヤ ナゴヤシシヤ"
  },
  "8461": {
    "postcode": "4608461",
    "prefecture": "愛知県",
    "prefecture_kana": "アイチケン",
    "prefecture_code": 23,
    "city": "名古屋市中区",
    "city_kana": "ナゴヤシナカク",
    "town": "新栄",
    "town_kana": "シンサカエ",
    "street": "１丁目６−１５",
    "office_name": "株式会社　名古屋流行発信",
    "office_name_kana": "カブシキガイシヤ ナゴヤリユウコウハツシン"
  },
  "8470": {
    "postcode": "4608470",
    "prefecture": "愛知県",
    "prefecture_kana": "アイチケン",
    "prefecture_code": 23,
    "city": "名古屋市中区",
    "city_kana": "ナゴヤシナカク",
    "town": "栄",
    "town_kana": "サカエ",
    "street": "一丁目２番１号",
    "office_name": "読売新聞　東京本社　中部支社",
    "office_name_kana": "ヨミウリシンブン トウキヨウホンシヤ チユウブシシヤ"
  },
  "8475": {
    "postcode": "4608475",
    "prefecture": "愛知県",
    "prefecture_kana": "アイチケン",
    "prefecture_code": 23,
    "city": "名古屋市中区",
    "city_kana": "ナゴヤシナカク",
    "town": "新栄",
    "town_kana": "シンサカエ",
    "street": "１丁目６−１５",
    "office_name": "株式会社　名古屋リビング新聞社",
    "office_name_kana": "カブシキガイシヤ ナゴヤリビングシンブンシヤ"
  },
  "8477": {
    "postcode": "4608477",
    "prefecture": "愛知県",
    "prefecture_kana": "アイチケン",
    "prefecture_code": 23,
    "city": "名古屋市中区",
    "city_kana": "ナゴヤシナカク",
    "town": "栄",
    "town_kana": "サカエ",
    "street": "二丁目１６番１５号ジーノット栄ビル",
    "office_name": "株式会社　ジーノット",
    "office_name_kana": "カブシキガイシヤ ジ-ノツト"
  },
  "8481": {
    "postcode": "4608481",
    "prefecture": "愛知県",
    "prefecture_kana": "アイチケン",
    "prefecture_code": 23,
    "city": "名古屋市中区",
    "city_kana": "ナゴヤシナカク",
    "town": "新栄",
    "town_kana": "シンサカエ",
    "street": "１丁目７−１２",
    "office_name": "愛知労働金庫",
    "office_name_kana": "アイチロウドウキンコ"
  },
  "8482": {
    "postcode": "4608482",
    "prefecture": "愛知県",
    "prefecture_kana": "アイチケン",
    "prefecture_code": 23,
    "city": "名古屋市中区",
    "city_kana": "ナゴヤシナカク",
    "town": "新栄町",
    "town_kana": "シンサカエマチ",
    "street": "１丁目５番地栄中央ビル",
    "office_name": "テンプスタッフ・ピープル　株式会社",
    "office_name_kana": "テンプスタツフ・ピ-プル カブシキガイシヤ"
  },
  "8483": {
    "postcode": "4608483",
    "prefecture": "愛知県",
    "prefecture_kana": "アイチケン",
    "prefecture_code": 23,
    "city": "名古屋市中区",
    "city_kana": "ナゴヤシナカク",
    "town": "新栄町",
    "town_kana": "シンサカエマチ",
    "street": "２丁目９番地",
    "office_name": "愛知県　名古屋東部県税事務所",
    "office_name_kana": "アイチケン ナゴヤトウブケンゼイジムシヨ"
  },
  "8484": {
    "postcode": "4608484",
    "prefecture": "愛知県",
    "prefecture_kana": "アイチケン",
    "prefecture_code": 23,
    "city": "名古屋市中区",
    "city_kana": "ナゴヤシナカク",
    "town": "錦",
    "town_kana": "ニシキ",
    "street": "３丁目５番２７号",
    "office_name": "独立行政法人　都市再生機構　中部支社",
    "office_name_kana": "ドクリツギヨウセイホウジン トシサイセイキコウ チユウブシシヤ"
  },
  "8485": {
    "postcode": "4608485",
    "prefecture": "愛知県",
    "prefecture_kana": "アイチケン",
    "prefecture_code": 23,
    "city": "名古屋市中区",
    "city_kana": "ナゴヤシナカク",
    "town": "千代田",
    "town_kana": "チヨダ",
    "street": "４丁目２３番２号共豊ビル３階",
    "office_name": "株式会社　日本メディカル総研　名古屋支社",
    "office_name_kana": "カブシキガイシヤ ニホンメデイカルソウケン ナゴヤシシヨ"
  },
  "8488": {
    "postcode": "4608488",
    "prefecture": "愛知県",
    "prefecture_kana": "アイチケン",
    "prefecture_code": 23,
    "city": "名古屋市中区",
    "city_kana": "ナゴヤシナカク",
    "town": "栄",
    "town_kana": "サカエ",
    "street": "１丁目３−３",
    "office_name": "朝日新聞　名古屋本社",
    "office_name_kana": "アサヒシンブン ナゴヤホンシヤ"
  },
  "8490": {
    "postcode": "4608490",
    "prefecture": "愛知県",
    "prefecture_kana": "アイチケン",
    "prefecture_code": 23,
    "city": "名古屋市中区",
    "city_kana": "ナゴヤシナカク",
    "town": "東桜",
    "town_kana": "ヒガシサクラ",
    "street": "２丁目１８−３１",
    "office_name": "リゾートトラスト　株式会社　本社",
    "office_name_kana": "リゾ-トトラスト カブシキガイシヤ ホンシヤ"
  },
  "8491": {
    "postcode": "4608491",
    "prefecture": "愛知県",
    "prefecture_kana": "アイチケン",
    "prefecture_code": 23,
    "city": "名古屋市中区",
    "city_kana": "ナゴヤシナカク",
    "town": "葵",
    "town_kana": "アオイ",
    "street": "１丁目２０−２２",
    "office_name": "大和ハウス工業　株式会社　名古屋支社",
    "office_name_kana": "ダイワハウスコウギヨウ カブシキガイシヤ ナゴヤシシヤ"
  },
  "8501": {
    "postcode": "4608501",
    "prefecture": "愛知県",
    "prefecture_kana": "アイチケン",
    "prefecture_code": 23,
    "city": "名古屋市中区",
    "city_kana": "ナゴヤシナカク",
    "town": "三の丸",
    "town_kana": "サンノマル",
    "street": "３丁目１−２",
    "office_name": "愛知県庁",
    "office_name_kana": "アイチケンチヨウ"
  },
  "8503": {
    "postcode": "4608503",
    "prefecture": "愛知県",
    "prefecture_kana": "アイチケン",
    "prefecture_code": 23,
    "city": "名古屋市中区",
    "city_kana": "ナゴヤシナカク",
    "town": "三の丸",
    "town_kana": "サンノマル",
    "street": "１丁目４−１",
    "office_name": "名古屋高等裁判所",
    "office_name_kana": "ナゴヤコウトウサイバンシヨ"
  },
  "8504": {
    "postcode": "4608504",
    "prefecture": "愛知県",
    "prefecture_kana": "アイチケン",
    "prefecture_code": 23,
    "city": "名古屋市中区",
    "city_kana": "ナゴヤシナカク",
    "town": "三の丸",
    "town_kana": "サンノマル",
    "street": "１丁目４−１",
    "office_name": "名古屋地方裁判所",
    "office_name_kana": "ナゴヤチホウサイバンシヨ"
  },
  "8505": {
    "postcode": "4608505",
    "prefecture": "愛知県",
    "prefecture_kana": "アイチケン",
    "prefecture_code": 23,
    "city": "名古屋市中区",
    "city_kana": "ナゴヤシナカク",
    "town": "三の丸",
    "town_kana": "サンノマル",
    "street": "１丁目７−１",
    "office_name": "名古屋簡易裁判所",
    "office_name_kana": "ナゴヤカンイサイバンシヨ"
  },
  "8506": {
    "postcode": "4608506",
    "prefecture": "愛知県",
    "prefecture_kana": "アイチケン",
    "prefecture_code": 23,
    "city": "名古屋市中区",
    "city_kana": "ナゴヤシナカク",
    "town": "三の丸",
    "town_kana": "サンノマル",
    "street": "１丁目９−１",
    "office_name": "日本電信電話　株式会社　名古屋支店",
    "office_name_kana": "ニホンデンシンデンワ カブシキガイシヤ ナゴヤシテン"
  },
  "8507": {
    "postcode": "4608507",
    "prefecture": "愛知県",
    "prefecture_kana": "アイチケン",
    "prefecture_code": 23,
    "city": "名古屋市中区",
    "city_kana": "ナゴヤシナカク",
    "town": "三の丸",
    "town_kana": "サンノマル",
    "street": "２丁目５−１名古屋合同庁舎第２号館",
    "office_name": "愛知労働基準局",
    "office_name_kana": "アイチロウドウキジユンキヨク"
  },
  "8508": {
    "postcode": "4608508",
    "prefecture": "愛知県",
    "prefecture_kana": "アイチケン",
    "prefecture_code": 23,
    "city": "名古屋市中区",
    "city_kana": "ナゴヤシナカク",
    "town": "三の丸",
    "town_kana": "サンノマル",
    "street": "３丁目１−１",
    "office_name": "名古屋市役所",
    "office_name_kana": "ナゴヤシヤクシヨ"
  },
  "8509": {
    "postcode": "4608509",
    "prefecture": "愛知県",
    "prefecture_kana": "アイチケン",
    "prefecture_code": 23,
    "city": "名古屋市中区",
    "city_kana": "ナゴヤシナカク",
    "town": "三の丸",
    "town_kana": "サンノマル",
    "street": "１丁目７番４号",
    "office_name": "名古屋地方裁判所　執行部　民事第２部",
    "office_name_kana": "ナゴヤチホウサイバンシヨ シツコウブ ミンジダイ2ブ"
  },
  "8510": {
    "postcode": "4608510",
    "prefecture": "愛知県",
    "prefecture_kana": "アイチケン",
    "prefecture_code": 23,
    "city": "名古屋市中区",
    "city_kana": "ナゴヤシナカク",
    "town": "三の丸",
    "town_kana": "サンノマル",
    "street": "２丁目５−２",
    "office_name": "中部経済産業局",
    "office_name_kana": "チユウブケイザイサンギヨウキヨク"
  },
  "8511": {
    "postcode": "4608511",
    "prefecture": "愛知県",
    "prefecture_kana": "アイチケン",
    "prefecture_code": 23,
    "city": "名古屋市中区",
    "city_kana": "ナゴヤシナカク",
    "town": "三の丸",
    "town_kana": "サンノマル",
    "street": "１丁目６−１",
    "office_name": "中日新聞",
    "office_name_kana": "チユウニチシンブン"
  },
  "8512": {
    "postcode": "4608512",
    "prefecture": "愛知県",
    "prefecture_kana": "アイチケン",
    "prefecture_code": 23,
    "city": "名古屋市中区",
    "city_kana": "ナゴヤシナカク",
    "town": "三の丸",
    "town_kana": "サンノマル",
    "street": "２丁目６番１号",
    "office_name": "愛知県　尾張事務所",
    "office_name_kana": "アイチケン オワリジムシヨ"
  },
  "8513": {
    "postcode": "4608513",
    "prefecture": "愛知県",
    "prefecture_kana": "アイチケン",
    "prefecture_code": 23,
    "city": "名古屋市中区",
    "city_kana": "ナゴヤシナカク",
    "town": "三の丸",
    "town_kana": "サンノマル",
    "street": "２丁目２−１名古屋合同庁舎第１号館",
    "office_name": "名古屋法務局",
    "office_name_kana": "ナゴヤホウムキヨク"
  },
  "8514": {
    "postcode": "4608514",
    "prefecture": "愛知県",
    "prefecture_kana": "アイチケン",
    "prefecture_code": 23,
    "city": "名古屋市中区",
    "city_kana": "ナゴヤシナカク",
    "town": "三の丸",
    "town_kana": "サンノマル",
    "street": "２丁目５−１名古屋合同庁舎第２号館",
    "office_name": "国土交通省　中部地方設備局",
    "office_name_kana": "コクドコウツウシヨウ チユウブチホウセツビキヨク"
  },
  "8515": {
    "postcode": "4608515",
    "prefecture": "愛知県",
    "prefecture_kana": "アイチケン",
    "prefecture_code": 23,
    "city": "名古屋市中区",
    "city_kana": "ナゴヤシナカク",
    "town": "丸の内",
    "town_kana": "マルノウチ",
    "street": "３丁目５−１５",
    "office_name": "中北薬品　株式会社　本社事務所",
    "office_name_kana": "ナカキタヤクヒン カブシキガイシヤ ホンシヤジムシヨ"
  },
  "8516": {
    "postcode": "4608516",
    "prefecture": "愛知県",
    "prefecture_kana": "アイチケン",
    "prefecture_code": 23,
    "city": "名古屋市中区",
    "city_kana": "ナゴヤシナカク",
    "town": "三の丸",
    "town_kana": "サンノマル",
    "street": "一丁目２番２号",
    "office_name": "東海農政局",
    "office_name_kana": "トウカイノウセイキヨク"
  },
  "8517": {
    "postcode": "4608517",
    "prefecture": "愛知県",
    "prefecture_kana": "アイチケン",
    "prefecture_code": 23,
    "city": "名古屋市中区",
    "city_kana": "ナゴヤシナカク",
    "town": "丸の内",
    "town_kana": "マルノウチ",
    "street": "二丁目１番３６号",
    "office_name": "国土交通省　中部地方整備局　港湾空港部",
    "office_name_kana": "コクドコウツウシヨウ チユウブチホウセイビキヨク コウワンクウコウブ"
  },
  "8520": {
    "postcode": "4608520",
    "prefecture": "愛知県",
    "prefecture_kana": "アイチケン",
    "prefecture_code": 23,
    "city": "名古屋市中区",
    "city_kana": "ナゴヤシナカク",
    "town": "三の丸",
    "town_kana": "サンノマル",
    "street": "３丁目３−２",
    "office_name": "名古屋国税局",
    "office_name_kana": "ナゴヤコクゼイキヨク"
  },
  "8521": {
    "postcode": "4608521",
    "prefecture": "愛知県",
    "prefecture_kana": "アイチケン",
    "prefecture_code": 23,
    "city": "名古屋市中区",
    "city_kana": "ナゴヤシナカク",
    "town": "三の丸",
    "town_kana": "サンノマル",
    "street": "３丁目３−１",
    "office_name": "東海財務局",
    "office_name_kana": "トウカイザイムキヨク"
  },
  "8522": {
    "postcode": "4608522",
    "prefecture": "愛知県",
    "prefecture_kana": "アイチケン",
    "prefecture_code": 23,
    "city": "名古屋市中区",
    "city_kana": "ナゴヤシナカク",
    "town": "三の丸",
    "town_kana": "サンノマル",
    "street": "３丁目３−２",
    "office_name": "名古屋中税務署",
    "office_name_kana": "ナゴヤナカゼイムシヨ"
  },
  "8523": {
    "postcode": "4608523",
    "prefecture": "愛知県",
    "prefecture_kana": "アイチケン",
    "prefecture_code": 23,
    "city": "名古屋市中区",
    "city_kana": "ナゴヤシナカク",
    "town": "三の丸",
    "town_kana": "サンノマル",
    "street": "４丁目３−１法務合同庁舎",
    "office_name": "名古屋地方検察庁",
    "office_name_kana": "ナゴヤチホウケンサツチヨウ"
  },
  "8524": {
    "postcode": "4608524",
    "prefecture": "愛知県",
    "prefecture_kana": "アイチケン",
    "prefecture_code": 23,
    "city": "名古屋市中区",
    "city_kana": "ナゴヤシナカク",
    "town": "三の丸",
    "town_kana": "サンノマル",
    "street": "４丁目３−１名古屋法務合同庁舎",
    "office_name": "名古屋保護観察所",
    "office_name_kana": "ナゴヤホゴカンサツシヨ"
  },
  "8525": {
    "postcode": "4608525",
    "prefecture": "愛知県",
    "prefecture_kana": "アイチケン",
    "prefecture_code": 23,
    "city": "名古屋市中区",
    "city_kana": "ナゴヤシナカク",
    "town": "錦",
    "town_kana": "ニシキ",
    "street": "１丁目１７−１ＮＥＣ中部ビル",
    "office_name": "日本電気　株式会社　東海支社",
    "office_name_kana": "ニツポンデンキ カブシキガイシヤ トウカイシシヤ"
  },
  "8528": {
    "postcode": "4608528",
    "prefecture": "愛知県",
    "prefecture_kana": "アイチケン",
    "prefecture_code": 23,
    "city": "名古屋市中区",
    "city_kana": "ナゴヤシナカク",
    "town": "三の丸",
    "town_kana": "サンノマル",
    "street": "２丁目２番１号",
    "office_name": "中部運輸局",
    "office_name_kana": "チユウブウンユキヨク"
  },
  "8530": {
    "postcode": "4608530",
    "prefecture": "愛知県",
    "prefecture_kana": "アイチケン",
    "prefecture_code": 23,
    "city": "名古屋市中区",
    "city_kana": "ナゴヤシナカク",
    "town": "丸の内",
    "town_kana": "マルノウチ",
    "street": "１丁目３−１０",
    "office_name": "社団法人　名古屋タイムズ社",
    "office_name_kana": "シヤダンホウジン ナゴヤタイムズシヤ"
  },
  "8531": {
    "postcode": "4608531",
    "prefecture": "愛知県",
    "prefecture_kana": "アイチケン",
    "prefecture_code": 23,
    "city": "名古屋市中区",
    "city_kana": "ナゴヤシナカク",
    "town": "丸の内",
    "town_kana": "マルノウチ",
    "street": "１丁目８−１２",
    "office_name": "マスダ　株式会社",
    "office_name_kana": "マスダ カブシキガイシヤ"
  },
  "8532": {
    "postcode": "4608532",
    "prefecture": "愛知県",
    "prefecture_kana": "アイチケン",
    "prefecture_code": 23,
    "city": "名古屋市中区",
    "city_kana": "ナゴヤシナカク",
    "town": "錦",
    "town_kana": "ニシキ",
    "street": "１丁目１１番１１号名古屋インターシティ",
    "office_name": "キヤノンマーケティングジャパン　株式会社　名古屋支店",
    "office_name_kana": "キヤノンマ-ケテイングジヤパン カブシキガイシヤ ナゴヤシテン"
  },
  "8534": {
    "postcode": "4608534",
    "prefecture": "愛知県",
    "prefecture_kana": "アイチケン",
    "prefecture_code": 23,
    "city": "名古屋市中区",
    "city_kana": "ナゴヤシナカク",
    "town": "三の丸",
    "town_kana": "サンノマル",
    "street": "３丁目１番２号",
    "office_name": "愛知県教育委員会",
    "office_name_kana": "アイチケンキヨウイクイインカイ"
  },
  "8535": {
    "postcode": "4608535",
    "prefecture": "愛知県",
    "prefecture_kana": "アイチケン",
    "prefecture_code": 23,
    "city": "名古屋市中区",
    "city_kana": "ナゴヤシナカク",
    "town": "栄",
    "town_kana": "サカエ",
    "street": "２丁目１１番３０号セントラルビル３階",
    "office_name": "株式会社　ロイヤル",
    "office_name_kana": "カブシキガイシヤ ロイヤル"
  },
  "8536": {
    "postcode": "4608536",
    "prefecture": "愛知県",
    "prefecture_kana": "アイチケン",
    "prefecture_code": 23,
    "city": "名古屋市中区",
    "city_kana": "ナゴヤシナカク",
    "town": "錦",
    "town_kana": "ニシキ",
    "street": "１−１６−２０グリーンビル",
    "office_name": "損害保険ジャパン日本興亜　株式会社",
    "office_name_kana": "ソンガイホケンジヤパンニツポンコウア カブシキガイシヤ"
  },
  "8538": {
    "postcode": "4608538",
    "prefecture": "愛知県",
    "prefecture_kana": "アイチケン",
    "prefecture_code": 23,
    "city": "名古屋市中区",
    "city_kana": "ナゴヤシナカク",
    "town": "錦",
    "town_kana": "ニシキ",
    "street": "３丁目２２番２０号",
    "office_name": "株式会社　ダイテック",
    "office_name_kana": "カブシキガイシヤ ダイテツク"
  },
  "8541": {
    "postcode": "4608541",
    "prefecture": "愛知県",
    "prefecture_kana": "アイチケン",
    "prefecture_code": 23,
    "city": "名古屋市中区",
    "city_kana": "ナゴヤシナカク",
    "town": "丸の内",
    "town_kana": "マルノウチ",
    "street": "２丁目２０番１９号",
    "office_name": "東京海上日動火災保険　株式会社",
    "office_name_kana": "トウキヨウカイジヨウニチドウカサイホケン カブシキガイシヤ"
  },
  "8545": {
    "postcode": "4608545",
    "prefecture": "愛知県",
    "prefecture_kana": "アイチケン",
    "prefecture_code": 23,
    "city": "名古屋市中区",
    "city_kana": "ナゴヤシナカク",
    "town": "錦",
    "town_kana": "ニシキ",
    "street": "１丁目４番６号",
    "office_name": "株式会社　中部しんきんカード",
    "office_name_kana": "カブシキガイシヤ チユウブシンキンカ-ド"
  },
  "8550": {
    "postcode": "4608550",
    "prefecture": "愛知県",
    "prefecture_kana": "アイチケン",
    "prefecture_code": 23,
    "city": "名古屋市中区",
    "city_kana": "ナゴヤシナカク",
    "town": "丸の内",
    "town_kana": "マルノウチ",
    "street": "３丁目６−１４",
    "office_name": "株式会社　藤栄",
    "office_name_kana": "カブシキガイシヤ フジエイ"
  },
  "8551": {
    "postcode": "4608551",
    "prefecture": "愛知県",
    "prefecture_kana": "アイチケン",
    "prefecture_code": 23,
    "city": "名古屋市中区",
    "city_kana": "ナゴヤシナカク",
    "town": "丸の内",
    "town_kana": "マルノウチ",
    "street": "３丁目２２−２１",
    "office_name": "損害保険ジャパン日本興亜　株式会社",
    "office_name_kana": "ソンガイホケンジヤパンニツポンコウア カブシキガイシヤ"
  },
  "8555": {
    "postcode": "4608555",
    "prefecture": "愛知県",
    "prefecture_kana": "アイチケン",
    "prefecture_code": 23,
    "city": "名古屋市中区",
    "city_kana": "ナゴヤシナカク",
    "town": "丸の内",
    "town_kana": "マルノウチ",
    "street": "２丁目１５−６",
    "office_name": "旭屋　株式会社",
    "office_name_kana": "アサヒヤ カブシキガイシヤ"
  },
  "8558": {
    "postcode": "4608558",
    "prefecture": "愛知県",
    "prefecture_kana": "アイチケン",
    "prefecture_code": 23,
    "city": "名古屋市中区",
    "city_kana": "ナゴヤシナカク",
    "town": "丸の内",
    "town_kana": "マルノウチ",
    "street": "３丁目４−１５",
    "office_name": "伊勢久　株式会社",
    "office_name_kana": "イセキユウ カブシキガイシヤ"
  },
  "8559": {
    "postcode": "4608559",
    "prefecture": "愛知県",
    "prefecture_kana": "アイチケン",
    "prefecture_code": 23,
    "city": "名古屋市中区",
    "city_kana": "ナゴヤシナカク",
    "town": "丸の内",
    "town_kana": "マルノウチ",
    "street": "３丁目５−１０住友商事丸の内ビル",
    "office_name": "財団法人　日本無線協会　東海支部",
    "office_name_kana": "ザイダンホウジン ニホンムセンキヨウカイ トウカイシブ"
  },
  "8560": {
    "postcode": "4608560",
    "prefecture": "愛知県",
    "prefecture_kana": "アイチケン",
    "prefecture_code": 23,
    "city": "名古屋市中区",
    "city_kana": "ナゴヤシナカク",
    "town": "丸の内",
    "town_kana": "マルノウチ",
    "street": "３丁目１４−１８",
    "office_name": "長瀬産業　株式会社　名古屋支店",
    "office_name_kana": "ナガセサンギヨウ カブシキガイシヤ ナゴヤシテン"
  },
  "8566": {
    "postcode": "4608566",
    "prefecture": "愛知県",
    "prefecture_kana": "アイチケン",
    "prefecture_code": 23,
    "city": "名古屋市中区",
    "city_kana": "ナゴヤシナカク",
    "town": "丸の内",
    "town_kana": "マルノウチ",
    "street": "３丁目１９−３０",
    "office_name": "愛知県　住宅供給公社",
    "office_name_kana": "アイチケン ジユウタクキヨウキユウコウシヤ"
  },
  "8567": {
    "postcode": "4608567",
    "prefecture": "愛知県",
    "prefecture_kana": "アイチケン",
    "prefecture_code": 23,
    "city": "名古屋市中区",
    "city_kana": "ナゴヤシナカク",
    "town": "丸の内",
    "town_kana": "マルノウチ",
    "street": "３丁目１８−１５",
    "office_name": "日本メナード化粧品　株式会社",
    "office_name_kana": "ニホンメナ-ドケシヨウヒン カブシキカイシヤ"
  },
  "8575": {
    "postcode": "4608575",
    "prefecture": "愛知県",
    "prefecture_kana": "アイチケン",
    "prefecture_code": 23,
    "city": "名古屋市中区",
    "city_kana": "ナゴヤシナカク",
    "town": "丸の内",
    "town_kana": "マルノウチ",
    "street": "３丁目５−１０住友商事丸の内ビル",
    "office_name": "社団法人　中部建設協会",
    "office_name_kana": "シヤダンホウジン チユウブケンセツキヨウカイ"
  },
  "8577": {
    "postcode": "4608577",
    "prefecture": "愛知県",
    "prefecture_kana": "アイチケン",
    "prefecture_code": 23,
    "city": "名古屋市中区",
    "city_kana": "ナゴヤシナカク",
    "town": "丸の内",
    "town_kana": "マルノウチ",
    "street": "１丁目７−１７",
    "office_name": "株式会社　加名市",
    "office_name_kana": "カブシキガイシヤ カメイチ"
  },
  "8578": {
    "postcode": "4608578",
    "prefecture": "愛知県",
    "prefecture_kana": "アイチケン",
    "prefecture_code": 23,
    "city": "名古屋市中区",
    "city_kana": "ナゴヤシナカク",
    "town": "丸の内",
    "town_kana": "マルノウチ",
    "street": "３丁目２０−１７中外東京海上ビル１７Ｆ",
    "office_name": "株式会社　エフエム名古屋",
    "office_name_kana": "カブシキガイシヤ エフエムナゴヤ"
  },
  "8580": {
    "postcode": "4608580",
    "prefecture": "愛知県",
    "prefecture_kana": "アイチケン",
    "prefecture_code": 23,
    "city": "名古屋市中区",
    "city_kana": "ナゴヤシナカク",
    "town": "丸の内",
    "town_kana": "マルノウチ",
    "street": "１丁目１６番１５号名古屋シミズ富国生命ビル",
    "office_name": "清水建設　株式会社　名古屋支店",
    "office_name_kana": "シミズケンセツ カブシキガイシヤ ナゴヤシテン"
  },
  "8585": {
    "postcode": "4608585",
    "prefecture": "愛知県",
    "prefecture_kana": "アイチケン",
    "prefecture_code": 23,
    "city": "名古屋市中区",
    "city_kana": "ナゴヤシナカク",
    "town": "錦",
    "town_kana": "ニシキ",
    "street": "１丁目１０−１",
    "office_name": "富士通　株式会社　東海支社",
    "office_name_kana": "フジツウ カブシキガイシヤ トウカイシシヤ"
  },
  "8586": {
    "postcode": "4608586",
    "prefecture": "愛知県",
    "prefecture_kana": "アイチケン",
    "prefecture_code": 23,
    "city": "名古屋市中区",
    "city_kana": "ナゴヤシナカク",
    "town": "錦",
    "town_kana": "ニシキ",
    "street": "１丁目１８−２２名古屋ＡＴビル４Ｆ",
    "office_name": "株式会社　オリエントコーポレーション　名古屋支店",
    "office_name_kana": "カブシキガイシヤ オリエントコ-ポレ-シヨン ナゴヤシテン"
  },
  "8588": {
    "postcode": "4608588",
    "prefecture": "愛知県",
    "prefecture_kana": "アイチケン",
    "prefecture_code": 23,
    "city": "名古屋市中区",
    "city_kana": "ナゴヤシナカク",
    "town": "錦",
    "town_kana": "ニシキ",
    "street": "１丁目１８−２８",
    "office_name": "ヤマハ　株式会社　名古屋支店",
    "office_name_kana": "ヤマハ カブシキガイシヤ ナゴヤシテン"
  },
  "8602": {
    "postcode": "4608602",
    "prefecture": "愛知県",
    "prefecture_kana": "アイチケン",
    "prefecture_code": 23,
    "city": "名古屋市中区",
    "city_kana": "ナゴヤシナカク",
    "town": "錦",
    "town_kana": "ニシキ",
    "street": "２丁目３−１６",
    "office_name": "八木兵　株式会社",
    "office_name_kana": "ヤギヒヨ- カブシキガイシヤ"
  },
  "8605": {
    "postcode": "4608605",
    "prefecture": "愛知県",
    "prefecture_kana": "アイチケン",
    "prefecture_code": 23,
    "city": "名古屋市中区",
    "city_kana": "ナゴヤシナカク",
    "town": "錦",
    "town_kana": "ニシキ",
    "street": "１丁目１８番２２号",
    "office_name": "マックスバリュ中部　株式会社　本社事務所",
    "office_name_kana": "マツクスバリユチユウブ カブシキカイシヤ ホンシヤジムシヨ"
  },
  "8606": {
    "postcode": "4608606",
    "prefecture": "愛知県",
    "prefecture_kana": "アイチケン",
    "prefecture_code": 23,
    "city": "名古屋市中区",
    "city_kana": "ナゴヤシナカク",
    "town": "栄",
    "town_kana": "サカエ",
    "street": "２丁目２番２３号スワン名古屋伏見ビル４階",
    "office_name": "株式会社　シーエフプランニング",
    "office_name_kana": "カブシキガイシヤ シ-エフプランニング"
  },
  "8608": {
    "postcode": "4608608",
    "prefecture": "愛知県",
    "prefecture_kana": "アイチケン",
    "prefecture_code": 23,
    "city": "名古屋市中区",
    "city_kana": "ナゴヤシナカク",
    "town": "錦",
    "town_kana": "ニシキ",
    "street": "１丁目１９−３０",
    "office_name": "株式会社　名古屋観光ホテル",
    "office_name_kana": "カブシキガイシヤ ナゴヤカンコウホテル"
  },
  "8610": {
    "postcode": "4608610",
    "prefecture": "愛知県",
    "prefecture_kana": "アイチケン",
    "prefecture_code": 23,
    "city": "名古屋市中区",
    "city_kana": "ナゴヤシナカク",
    "town": "錦",
    "town_kana": "ニシキ",
    "street": "２丁目１８番１９号住友銀行名古屋ビル",
    "office_name": "ニチハ　株式会社",
    "office_name_kana": "ニチハ カブシキガイシヤ"
  },
  "8614": {
    "postcode": "4608614",
    "prefecture": "愛知県",
    "prefecture_kana": "アイチケン",
    "prefecture_code": 23,
    "city": "名古屋市中区",
    "city_kana": "ナゴヤシナカク",
    "town": "栄",
    "town_kana": "サカエ",
    "street": "一丁目２番７号名古屋東宝ビル７Ｆ",
    "office_name": "五洋建設　株式会社　名古屋支店",
    "office_name_kana": "ゴヨウケンセツ カブシキガイシヤ ナゴヤシテン"
  },
  "8615": {
    "postcode": "4608615",
    "prefecture": "愛知県",
    "prefecture_kana": "アイチケン",
    "prefecture_code": 23,
    "city": "名古屋市中区",
    "city_kana": "ナゴヤシナカク",
    "town": "錦",
    "town_kana": "ニシキ",
    "street": "３丁目１３−５中央マンション",
    "office_name": "徳倉建設　株式会社",
    "office_name_kana": "トクラケンセツ カブシキガイシヤ"
  },
  "8616": {
    "postcode": "4608616",
    "prefecture": "愛知県",
    "prefecture_kana": "アイチケン",
    "prefecture_code": 23,
    "city": "名古屋市中区",
    "city_kana": "ナゴヤシナカク",
    "town": "錦",
    "town_kana": "ニシキ",
    "street": "２丁目１２−１４",
    "office_name": "万兵　株式会社",
    "office_name_kana": "マンヒヨウ カブシキガイシヤ"
  },
  "8617": {
    "postcode": "4608617",
    "prefecture": "愛知県",
    "prefecture_kana": "アイチケン",
    "prefecture_code": 23,
    "city": "名古屋市中区",
    "city_kana": "ナゴヤシナカク",
    "town": "丸の内",
    "town_kana": "マルノウチ",
    "street": "３丁目２２番２４号名古屋桜通ビル１２階",
    "office_name": "日本紙パルプ商事　株式会社　中部支社",
    "office_name_kana": "ニホンカミパルプシヨウジ カブシキカイシヤ チユウブシシヤ"
  },
  "8618": {
    "postcode": "4608618",
    "prefecture": "愛知県",
    "prefecture_kana": "アイチケン",
    "prefecture_code": 23,
    "city": "名古屋市中区",
    "city_kana": "ナゴヤシナカク",
    "town": "錦",
    "town_kana": "ニシキ",
    "street": "３丁目９−２７",
    "office_name": "石田　株式会社",
    "office_name_kana": "イシダ カブシキガイシヤ"
  },
  "8619": {
    "postcode": "4608619",
    "prefecture": "愛知県",
    "prefecture_kana": "アイチケン",
    "prefecture_code": 23,
    "city": "名古屋市中区",
    "city_kana": "ナゴヤシナカク",
    "town": "錦",
    "town_kana": "ニシキ",
    "street": "３丁目２３−２１",
    "office_name": "安藤証券　株式会社",
    "office_name_kana": "アンドウシヨウケン カブシキガイシヤ"
  },
  "8621": {
    "postcode": "4608621",
    "prefecture": "愛知県",
    "prefecture_kana": "アイチケン",
    "prefecture_code": 23,
    "city": "名古屋市中区",
    "city_kana": "ナゴヤシナカク",
    "town": "錦",
    "town_kana": "ニシキ",
    "street": "３丁目２０−２７御幸ビル",
    "office_name": "株式会社　東海総合研究所",
    "office_name_kana": "カブシキガイシヤ トウカイソウゴウケンキユウジヨ"
  },
  "8623": {
    "postcode": "4608623",
    "prefecture": "愛知県",
    "prefecture_kana": "アイチケン",
    "prefecture_code": 23,
    "city": "名古屋市中区",
    "city_kana": "ナゴヤシナカク",
    "town": "錦",
    "town_kana": "ニシキ",
    "street": "３丁目６番２９号サウスハウス４Ｆ",
    "office_name": "県民共済愛知県　生活協同組合",
    "office_name_kana": "ケンミンキヨウサイアイチケン セイカツキヨウドウクミアイ"
  },
  "8625": {
    "postcode": "4608625",
    "prefecture": "愛知県",
    "prefecture_kana": "アイチケン",
    "prefecture_code": 23,
    "city": "名古屋市中区",
    "city_kana": "ナゴヤシナカク",
    "town": "錦",
    "town_kana": "ニシキ",
    "street": "三丁目６番２９号",
    "office_name": "興和　株式会社",
    "office_name_kana": "コウワ カブシキガイシヤ"
  },
  "8626": {
    "postcode": "4608626",
    "prefecture": "愛知県",
    "prefecture_kana": "アイチケン",
    "prefecture_code": 23,
    "city": "名古屋市中区",
    "city_kana": "ナゴヤシナカク",
    "town": "正木",
    "town_kana": "マサキ",
    "street": "３丁目５番３３号名鉄正木第一ビル",
    "office_name": "名古屋市　金山市税事務所",
    "office_name_kana": "ナゴヤシ カナヤマシゼイジムシヨ"
  },
  "8627": {
    "postcode": "4608627",
    "prefecture": "愛知県",
    "prefecture_kana": "アイチケン",
    "prefecture_code": 23,
    "city": "名古屋市中区",
    "city_kana": "ナゴヤシナカク",
    "town": "錦",
    "town_kana": "ニシキ",
    "street": "３−２１−２４三菱ＵＦＪ銀行名古屋ビル",
    "office_name": "三菱ＵＦＪリサーチ＆コンサルティング　株式会社",
    "office_name_kana": "ミツビシユ-エフジエイリサ-チアンドコンサルテイング カブシキガイシヤ"
  },
  "8628": {
    "postcode": "4608628",
    "prefecture": "愛知県",
    "prefecture_kana": "アイチケン",
    "prefecture_code": 23,
    "city": "名古屋市中区",
    "city_kana": "ナゴヤシナカク",
    "town": "錦",
    "town_kana": "ニシキ",
    "street": "二丁目１１番６号エフリードビル７階",
    "office_name": "丹羽幸　株式会社",
    "office_name_kana": "ニワコウ カブシキガイシヤ"
  },
  "8630": {
    "postcode": "4608630",
    "prefecture": "愛知県",
    "prefecture_kana": "アイチケン",
    "prefecture_code": 23,
    "city": "名古屋市中区",
    "city_kana": "ナゴヤシナカク",
    "town": "錦",
    "town_kana": "ニシキ",
    "street": "１丁目２番７号",
    "office_name": "天野エンザイム　株式会社　本社",
    "office_name_kana": "アマノエンザイム カブシキガイシヤ ホンシヤ"
  },
  "8631": {
    "postcode": "4608631",
    "prefecture": "愛知県",
    "prefecture_kana": "アイチケン",
    "prefecture_code": 23,
    "city": "名古屋市中区",
    "city_kana": "ナゴヤシナカク",
    "town": "錦",
    "town_kana": "ニシキ",
    "street": "１丁目１８−３３",
    "office_name": "国際電信電話　株式会社　名古屋支店（ＫＤＤ）",
    "office_name_kana": "コクサイデンシンデンワカブシキガイシヤナゴヤシテン(ケイデイデイ)"
  },
  "8632": {
    "postcode": "4608632",
    "prefecture": "愛知県",
    "prefecture_kana": "アイチケン",
    "prefecture_code": 23,
    "city": "名古屋市中区",
    "city_kana": "ナゴヤシナカク",
    "town": "錦",
    "town_kana": "ニシキ",
    "street": "１丁目３−７セイコー名古屋ビル４Ｆ",
    "office_name": "コスモ石油　株式会社　名古屋支店",
    "office_name_kana": "コスモセキユ カブシキガイシヤ ナゴヤシテン"
  },
  "8633": {
    "postcode": "4608633",
    "prefecture": "愛知県",
    "prefecture_kana": "アイチケン",
    "prefecture_code": 23,
    "city": "名古屋市中区",
    "city_kana": "ナゴヤシナカク",
    "town": "錦",
    "town_kana": "ニシキ",
    "street": "２丁目２−１３",
    "office_name": "株式会社　竹中工務店　名古屋支店",
    "office_name_kana": "カブシキガイシヤ タケナカコウムテン ナゴヤシテン"
  },
  "8635": {
    "postcode": "4608635",
    "prefecture": "愛知県",
    "prefecture_kana": "アイチケン",
    "prefecture_code": 23,
    "city": "名古屋市中区",
    "city_kana": "ナゴヤシナカク",
    "town": "錦",
    "town_kana": "ニシキ",
    "street": "１丁目２−１",
    "office_name": "三井海上火災保険　株式会社",
    "office_name_kana": "ミツイカイジヨウカサイホケン カブシキガイシヤ"
  },
  "8637": {
    "postcode": "4608637",
    "prefecture": "愛知県",
    "prefecture_kana": "アイチケン",
    "prefecture_code": 23,
    "city": "名古屋市中区",
    "city_kana": "ナゴヤシナカク",
    "town": "丸の内",
    "town_kana": "マルノウチ",
    "street": "２丁目９番４０号",
    "office_name": "株式会社　アルペン",
    "office_name_kana": "カブシキガイシヤ アルペン"
  },
  "8638": {
    "postcode": "4608638",
    "prefecture": "愛知県",
    "prefecture_kana": "アイチケン",
    "prefecture_code": 23,
    "city": "名古屋市中区",
    "city_kana": "ナゴヤシナカク",
    "town": "錦",
    "town_kana": "ニシキ",
    "street": "１丁目１６番７号ＮＯＲＥ伏見ビル",
    "office_name": "スターキャット・ケーブルネットワーク　株式会社",
    "office_name_kana": "スタ-キヤツト・ケ-ブルネツトワ-ク カブシキガイシヤ"
  },
  "8650": {
    "postcode": "4608650",
    "prefecture": "愛知県",
    "prefecture_kana": "アイチケン",
    "prefecture_code": 23,
    "city": "名古屋市中区",
    "city_kana": "ナゴヤシナカク",
    "town": "大須",
    "town_kana": "オオス",
    "street": "４丁目１１−３９（名古屋中郵便局私書箱第２５号）",
    "office_name": "株式会社　川本製作所",
    "office_name_kana": "カブシキガイシヤ カワモトセイサクシヨ"
  },
  "8651": {
    "postcode": "4608651",
    "prefecture": "愛知県",
    "prefecture_kana": "アイチケン",
    "prefecture_code": 23,
    "city": "名古屋市中区",
    "city_kana": "ナゴヤシナカク",
    "town": "錦",
    "town_kana": "ニシキ",
    "street": "２丁目１２−２８（名古屋中郵便局私書箱第８８号）",
    "office_name": "遠山産業　株式会社",
    "office_name_kana": "トオヤマサンギヨウ カブシキガイシヤ"
  },
  "8653": {
    "postcode": "4608653",
    "prefecture": "愛知県",
    "prefecture_kana": "アイチケン",
    "prefecture_code": 23,
    "city": "名古屋市中区",
    "city_kana": "ナゴヤシナカク",
    "town": "錦",
    "town_kana": "ニシキ",
    "street": "３丁目１５−３０（名古屋中郵便局私書箱第３２号）",
    "office_name": "大和證券　株式会社　名古屋支店",
    "office_name_kana": "ダイワシヨウケン カブシキガイシヤ ナゴヤシテン"
  },
  "8655": {
    "postcode": "4608655",
    "prefecture": "愛知県",
    "prefecture_kana": "アイチケン",
    "prefecture_code": 23,
    "city": "名古屋市中区",
    "city_kana": "ナゴヤシナカク",
    "town": "千代田",
    "town_kana": "チヨダ",
    "street": "４丁目１３−２４（名古屋中郵便局私書箱第２０号）",
    "office_name": "シヤチハタ商事　株式会社　名古屋支店",
    "office_name_kana": "シヤチハタシヨウジ カブシキガイシヤ ナゴヤシテン"
  },
  "8657": {
    "postcode": "4608657",
    "prefecture": "愛知県",
    "prefecture_kana": "アイチケン",
    "prefecture_code": 23,
    "city": "名古屋市中区",
    "city_kana": "ナゴヤシナカク",
    "town": "大須",
    "town_kana": "オオス",
    "street": "１丁目２１−１０（名古屋中郵便局私書箱第１２２号）",
    "office_name": "伊藤伊　株式会社",
    "office_name_kana": "イト-イ カブシキガイシヤ"
  },
  "8660": {
    "postcode": "4608660",
    "prefecture": "愛知県",
    "prefecture_kana": "アイチケン",
    "prefecture_code": 23,
    "city": "名古屋市中区",
    "city_kana": "ナゴヤシナカク",
    "town": "錦",
    "town_kana": "ニシキ",
    "street": "三丁目２１番２４号（名古屋中郵便局私書箱第１６０号）",
    "office_name": "株式会社　三菱ＵＦＪ銀行",
    "office_name_kana": "カブシキガイシヤ ミツビシユ-エフジエイギンコウ"
  },
  "8665": {
    "postcode": "4608665",
    "prefecture": "愛知県",
    "prefecture_kana": "アイチケン",
    "prefecture_code": 23,
    "city": "名古屋市中区",
    "city_kana": "ナゴヤシナカク",
    "town": "栄",
    "town_kana": "サカエ",
    "street": "２丁目９−３（名古屋中郵便局私書箱第２４６号）",
    "office_name": "兼松　株式会社　名古屋支社",
    "office_name_kana": "カネマツ カブシキガイシヤ ナゴヤシシヤ"
  },
  "8666": {
    "postcode": "4608666",
    "prefecture": "愛知県",
    "prefecture_kana": "アイチケン",
    "prefecture_code": 23,
    "city": "名古屋市中区",
    "city_kana": "ナゴヤシナカク",
    "town": "栄",
    "town_kana": "サカエ",
    "street": "２丁目４−１８岡谷ビル（名古屋中郵便局私書箱第５６号）",
    "office_name": "岡谷鋼機　株式会社",
    "office_name_kana": "オカヤコウキ カブシキガイシヤ"
  },
  "8667": {
    "postcode": "4608667",
    "prefecture": "愛知県",
    "prefecture_kana": "アイチケン",
    "prefecture_code": 23,
    "city": "名古屋市中区",
    "city_kana": "ナゴヤシナカク",
    "town": "錦",
    "town_kana": "ニシキ",
    "street": "２丁目１３−１９（名古屋中郵便局私書箱第７３号）",
    "office_name": "瀧定　株式会社",
    "office_name_kana": "タキサダ カブシキガイシヤ"
  },
  "8669": {
    "postcode": "4608669",
    "prefecture": "愛知県",
    "prefecture_kana": "アイチケン",
    "prefecture_code": 23,
    "city": "名古屋市中区",
    "city_kana": "ナゴヤシナカク",
    "town": "栄",
    "town_kana": "サカエ",
    "street": "３丁目５−１（名古屋中郵便局私書箱第４３号）",
    "office_name": "株式会社　名古屋三越　栄本店",
    "office_name_kana": "カブシキガイシヤ ナゴヤミツコシ サカエホンテン"
  },
  "8670": {
    "postcode": "4608670",
    "prefecture": "愛知県",
    "prefecture_kana": "アイチケン",
    "prefecture_code": 23,
    "city": "名古屋市中区",
    "city_kana": "ナゴヤシナカク",
    "town": "丸の内",
    "town_kana": "マルノウチ",
    "street": "三丁目２３番２０号ＨＦ桜通ビル",
    "office_name": "ＳＭＢＣファイナンスサービス　株式会社",
    "office_name_kana": "エスエムビ-シ-フアイナンスサ-ビス カブシキガイシヤ"
  },
  "8671": {
    "postcode": "4608671",
    "prefecture": "愛知県",
    "prefecture_kana": "アイチケン",
    "prefecture_code": 23,
    "city": "名古屋市中区",
    "city_kana": "ナゴヤシナカク",
    "town": "錦",
    "town_kana": "ニシキ",
    "street": "２丁目１４−２７（名古屋中郵便局私書箱第１５１号）",
    "office_name": "豊島　株式会社　名古屋本社",
    "office_name_kana": "トヨシマ カブシキガイシヤ ナゴヤホンシヤ"
  },
  "8672": {
    "postcode": "4608672",
    "prefecture": "愛知県",
    "prefecture_kana": "アイチケン",
    "prefecture_code": 23,
    "city": "名古屋市中区",
    "city_kana": "ナゴヤシナカク",
    "town": "千代田",
    "town_kana": "チヨダ",
    "street": "５丁目７番５号（名古屋中郵便局私書箱第１５８号）",
    "office_name": "あいおい損害保険　株式会社",
    "office_name_kana": "アイオイソンガイホケン カブシキガイシヤ"
  },
  "8674": {
    "postcode": "4608674",
    "prefecture": "愛知県",
    "prefecture_kana": "アイチケン",
    "prefecture_code": 23,
    "city": "名古屋市中区",
    "city_kana": "ナゴヤシナカク",
    "town": "栄",
    "town_kana": "サカエ",
    "street": "３丁目３−１（名古屋中郵便局私書箱第２１１号）",
    "office_name": "株式会社　丸栄",
    "office_name_kana": "カブシキガイシヤ マルエイ"
  },
  "8678": {
    "postcode": "4608678",
    "prefecture": "愛知県",
    "prefecture_kana": "アイチケン",
    "prefecture_code": 23,
    "city": "名古屋市中区",
    "city_kana": "ナゴヤシナカク",
    "town": "栄",
    "town_kana": "サカエ",
    "street": "３−１４−１２（名古屋中郵便局私書箱第７９号）",
    "office_name": "株式会社　あいち銀行",
    "office_name_kana": "カブシキガイシヤ アイチギンコウ"
  },
  "8679": {
    "postcode": "4608679",
    "prefecture": "愛知県",
    "prefecture_kana": "アイチケン",
    "prefecture_code": 23,
    "city": "名古屋市中区",
    "city_kana": "ナゴヤシナカク",
    "town": "錦",
    "town_kana": "ニシキ",
    "street": "２丁目４−１４（名古屋中郵便局私書箱第６２号）",
    "office_name": "モリリン　株式会社　名古屋支店",
    "office_name_kana": "モリリン カブシキガイシヤ ナゴヤシテン"
  },
  "8681": {
    "postcode": "4608681",
    "prefecture": "愛知県",
    "prefecture_kana": "アイチケン",
    "prefecture_code": 23,
    "city": "名古屋市中区",
    "city_kana": "ナゴヤシナカク",
    "town": "栄",
    "town_kana": "サカエ",
    "street": "３丁目３３−１３（名古屋中郵便局私書箱第６号）",
    "office_name": "株式会社　中京銀行",
    "office_name_kana": "カブシキガイシヤ チユウキヨウギンコウ"
  },
  "8683": {
    "postcode": "4608683",
    "prefecture": "愛知県",
    "prefecture_kana": "アイチケン",
    "prefecture_code": 23,
    "city": "名古屋市中区",
    "city_kana": "ナゴヤシナカク",
    "town": "栄",
    "town_kana": "サカエ",
    "street": "２丁目１−１（名古屋中郵便局私書箱第１０７号）",
    "office_name": "出光興産　株式会社　名古屋支店",
    "office_name_kana": "イデミツコウサン カブシキガイシヤ ナゴヤシテン"
  },
  "8684": {
    "postcode": "4608684",
    "prefecture": "愛知県",
    "prefecture_kana": "アイチケン",
    "prefecture_code": 23,
    "city": "名古屋市中区",
    "city_kana": "ナゴヤシナカク",
    "town": "錦",
    "town_kana": "ニシキ",
    "street": "２丁目１８−２４（名古屋中郵便局私書箱第１０５号）",
    "office_name": "株式会社　さくら銀行　名古屋支店",
    "office_name_kana": "カブシキガイシヤ サクラギンコウ ナゴヤシテン"
  },
  "8686": {
    "postcode": "4608686",
    "prefecture": "愛知県",
    "prefecture_kana": "アイチケン",
    "prefecture_code": 23,
    "city": "名古屋市中区",
    "city_kana": "ナゴヤシナカク",
    "town": "平和",
    "town_kana": "ヘイワ",
    "street": "１丁目１５−２７リオ第２ビル（名古屋中郵便局私書箱第１３８号）",
    "office_name": "株式会社　リオ横山",
    "office_name_kana": "カブシキガイシヤ リオヨコヤマ"
  },
  "8687": {
    "postcode": "4608687",
    "prefecture": "愛知県",
    "prefecture_kana": "アイチケン",
    "prefecture_code": 23,
    "city": "名古屋市中区",
    "city_kana": "ナゴヤシナカク",
    "town": "古渡町",
    "town_kana": "フルワタリチョウ",
    "street": "１１−３３（名古屋中郵便局私書箱第６３号）",
    "office_name": "愛知県共済生活　協同組合",
    "office_name_kana": "アイチケンキヨウサイセイカツ キヨウドウクミアイ"
  },
  "8688": {
    "postcode": "4608688",
    "prefecture": "愛知県",
    "prefecture_kana": "アイチケン",
    "prefecture_code": 23,
    "city": "名古屋市中区",
    "city_kana": "ナゴヤシナカク",
    "town": "栄",
    "town_kana": "サカエ",
    "street": "３丁目４−５栄開発ビル（名古屋中郵便局私書箱第１１０号）",
    "office_name": "株式会社　富士銀行　名古屋支店",
    "office_name_kana": "カブシキガイシヤ フジギンコウ ナゴヤシテン"
  },
  "8689": {
    "postcode": "4608689",
    "prefecture": "愛知県",
    "prefecture_kana": "アイチケン",
    "prefecture_code": 23,
    "city": "名古屋市中区",
    "city_kana": "ナゴヤシナカク",
    "town": "錦",
    "town_kana": "ニシキ",
    "street": "２丁目１９−２２（名古屋中郵便局私書箱第５８号）",
    "office_name": "野村證券　株式会社　名古屋支店",
    "office_name_kana": "ノムラシヨウケン カブシキガイシヤ ナゴヤシテン"
  },
  "8690": {
    "postcode": "4608690",
    "prefecture": "愛知県",
    "prefecture_kana": "アイチケン",
    "prefecture_code": 23,
    "city": "名古屋市中区",
    "city_kana": "ナゴヤシナカク",
    "town": "正木",
    "town_kana": "マサキ",
    "street": "１丁目４−６（名古屋中郵便局私書箱第１４１号）",
    "office_name": "中電コンピューターサービス　株式会社",
    "office_name_kana": "チユウデンコンピユ-タ-サ-ビス カブシキガイシヤ"
  },
  "8703": {
    "postcode": "4608703",
    "prefecture": "愛知県",
    "prefecture_kana": "アイチケン",
    "prefecture_code": 23,
    "city": "名古屋市中区",
    "city_kana": "ナゴヤシナカク",
    "town": "栄",
    "town_kana": "サカエ",
    "street": "２丁目３−１（名古屋中郵便局私書箱第５号）",
    "office_name": "ジャックス　株式会社　名古屋支店",
    "office_name_kana": "ジヤツクス カブシキガイシヤ ナゴヤシテン"
  },
  "8704": {
    "postcode": "4608704",
    "prefecture": "愛知県",
    "prefecture_kana": "アイチケン",
    "prefecture_code": 23,
    "city": "名古屋市中区",
    "city_kana": "ナゴヤシナカク",
    "town": "金山",
    "town_kana": "カナヤマ",
    "street": "５丁目１８−２１（名古屋中郵便局私書箱第１３４号）",
    "office_name": "東芝中部ライフエレクトロニクス　株式会社",
    "office_name_kana": "トウシバチユウブライフエレクトロニクス カブシキガイシヤ"
  },
  "8706": {
    "postcode": "4608706",
    "prefecture": "愛知県",
    "prefecture_kana": "アイチケン",
    "prefecture_code": 23,
    "city": "名古屋市中区",
    "city_kana": "ナゴヤシナカク",
    "town": "錦",
    "town_kana": "ニシキ",
    "street": "１丁目１９−２４（名古屋中郵便局私書箱第７１号）",
    "office_name": "株式会社　第一勧業銀行　名古屋支店",
    "office_name_kana": "カブシキガイシヤ ダイイチカンギヨウギンコウ ナゴヤシテン"
  },
  "8707": {
    "postcode": "4608707",
    "prefecture": "愛知県",
    "prefecture_kana": "アイチケン",
    "prefecture_code": 23,
    "city": "名古屋市中区",
    "city_kana": "ナゴヤシナカク",
    "town": "錦",
    "town_kana": "ニシキ",
    "street": "一丁目１９番２４号名古屋第一ビル５階",
    "office_name": "株式会社　ＮＩＰＰＯ　中部支店",
    "office_name_kana": "カブシキガイシヤ ニツポ チユウブシテン"
  },
  "8708": {
    "postcode": "4608708",
    "prefecture": "愛知県",
    "prefecture_kana": "アイチケン",
    "prefecture_code": 23,
    "city": "名古屋市中区",
    "city_kana": "ナゴヤシナカク",
    "town": "錦",
    "town_kana": "ニシキ",
    "street": "２丁目１−１（名古屋中郵便局私書箱第１１１号）",
    "office_name": "日本銀行　名古屋支店",
    "office_name_kana": "ニツポンギンコウ ナゴヤシテン"
  },
  "8711": {
    "postcode": "4608711",
    "prefecture": "愛知県",
    "prefecture_kana": "アイチケン",
    "prefecture_code": 23,
    "city": "名古屋市中区",
    "city_kana": "ナゴヤシナカク",
    "town": "錦",
    "town_kana": "ニシキ",
    "street": "２丁目２番２号",
    "office_name": "丸紅　株式会社　中部支社",
    "office_name_kana": "マルベニ カブシキガイシヤ チユウブシシヤ"
  },
  "8718": {
    "postcode": "4608718",
    "prefecture": "愛知県",
    "prefecture_kana": "アイチケン",
    "prefecture_code": 23,
    "city": "名古屋市中区",
    "city_kana": "ナゴヤシナカク",
    "town": "錦",
    "town_kana": "ニシキ",
    "street": "２丁目３−１５（名古屋中郵便局私書箱第６９号）",
    "office_name": "桜井　株式会社",
    "office_name_kana": "サクライ カブシキガイシヤ"
  },
  "8720": {
    "postcode": "4608720",
    "prefecture": "愛知県",
    "prefecture_kana": "アイチケン",
    "prefecture_code": 23,
    "city": "名古屋市中区",
    "city_kana": "ナゴヤシナカク",
    "town": "栄",
    "town_kana": "サカエ",
    "street": "１丁目８−１４（名古屋中郵便局私書箱第２２号）",
    "office_name": "富永電機　株式会社　本社",
    "office_name_kana": "トミナガデンキ カブシキガイシヤ ホンシヤ"
  }
}