{
  "0000": {
    "postcode": "4630000",
    "prefecture": "愛知県",
    "prefecture_kana": "アイチケン",
    "prefecture_code": 23,
    "city": "名古屋市守山区",
    "city_kana": "ナゴヤシモリヤマク",
    "town": "",
    "town_kana": "",
    "street": null,
    "office_name": null,
    "office_name_kana": null
  },
  "0001": {
    "postcode": "4630001",
    "prefecture": "愛知県",
    "prefecture_kana": "アイチケン",
    "prefecture_code": 23,
    "city": "名古屋市守山区",
    "city_kana": "ナゴヤシモリヤマク",
    "town": "上志段味",
    "town_kana": "カミシダミ",
    "street": null,
    "office_name": null,
    "office_name_kana": null
  },
  "0002": {
    "postcode": "4630002",
    "prefecture": "愛知県",
    "prefecture_kana": "アイチケン",
    "prefecture_code": 23,
    "city": "名古屋市守山区",
    "city_kana": "ナゴヤシモリヤマク",
    "town": "中志段味",
    "town_kana": "ナカシダミ",
    "street": null,
    "office_name": null,
    "office_name_kana": null
  },
  "0003": {
    "postcode": "4630003",
    "prefecture": "愛知県",
    "prefecture_kana": "アイチケン",
    "prefecture_code": 23,
    "city": "名古屋市守山区",
    "city_kana": "ナゴヤシモリヤマク",
    "town": "下志段味",
    "town_kana": "シモシダミ",
    "street": null,
    "office_name": null,
    "office_name_kana": null
  },
  "0004": {
    "postcode": "4630004",
    "prefecture": "愛知県",
    "prefecture_kana": "アイチケン",
    "prefecture_code": 23,
    "city": "名古屋市守山区",
    "city_kana": "ナゴヤシモリヤマク",
    "town": "吉根",
    "town_kana": "キッコ",
    "street": null,
    "office_name": null,
    "office_name_kana": null
  },
  "0005": {
    "postcode": "4630005",
    "prefecture": "愛知県",
    "prefecture_kana": "アイチケン",
    "prefecture_code": 23,
    "city": "名古屋市守山区",
    "city_kana": "ナゴヤシモリヤマク",
    "town": "川",
    "town_kana": "カワ",
    "street": null,
    "office_name": null,
    "office_name_kana": null
  },
  "0006": {
    "postcode": "4630006",
    "prefecture": "愛知県",
    "prefecture_kana": "アイチケン",
    "prefecture_code": 23,
    "city": "名古屋市守山区",
    "city_kana": "ナゴヤシモリヤマク",
    "town": "川東山",
    "town_kana": "カワヒガシヤマ",
    "street": null,
    "office_name": null,
    "office_name_kana": null
  },
  "0007": {
    "postcode": "4630007",
    "prefecture": "愛知県",
    "prefecture_kana": "アイチケン",
    "prefecture_code": 23,
    "city": "名古屋市守山区",
    "city_kana": "ナゴヤシモリヤマク",
    "town": "松坂町",
    "town_kana": "マツサカチョウ",
    "street": null,
    "office_name": null,
    "office_name_kana": null
  },
  "0008": {
    "postcode": "4630008",
    "prefecture": "愛知県",
    "prefecture_kana": "アイチケン",
    "prefecture_code": 23,
    "city": "名古屋市守山区",
    "city_kana": "ナゴヤシモリヤマク",
    "town": "小幡北",
    "town_kana": "オバタキタ",
    "street": null,
    "office_name": null,
    "office_name_kana": null
  },
  "0009": {
    "postcode": "4630009",
    "prefecture": "愛知県",
    "prefecture_kana": "アイチケン",
    "prefecture_code": 23,
    "city": "名古屋市守山区",
    "city_kana": "ナゴヤシモリヤマク",
    "town": "緑ケ丘",
    "town_kana": "ミドリガオカ",
    "street": null,
    "office_name": null,
    "office_name_kana": null
  },
  "0010": {
    "postcode": "4630010",
    "prefecture": "愛知県",
    "prefecture_kana": "アイチケン",
    "prefecture_code": 23,
    "city": "名古屋市守山区",
    "city_kana": "ナゴヤシモリヤマク",
    "town": "翠松園",
    "town_kana": "スイショウエン",
    "street": null,
    "office_name": null,
    "office_name_kana": null
  },
  "0011": {
    "postcode": "4630011",
    "prefecture": "愛知県",
    "prefecture_kana": "アイチケン",
    "prefecture_code": 23,
    "city": "名古屋市守山区",
    "city_kana": "ナゴヤシモリヤマク",
    "town": "小幡",
    "town_kana": "オバタ",
    "street": null,
    "office_name": null,
    "office_name_kana": null
  },
  "0012": {
    "postcode": "4630012",
    "prefecture": "愛知県",
    "prefecture_kana": "アイチケン",
    "prefecture_code": 23,
    "city": "名古屋市守山区",
    "city_kana": "ナゴヤシモリヤマク",
    "town": "茶臼前",
    "town_kana": "チャウスマエ",
    "street": null,
    "office_name": null,
    "office_name_kana": null
  },
  "0013": {
    "postcode": "4630013",
    "prefecture": "愛知県",
    "prefecture_kana": "アイチケン",
    "prefecture_code": 23,
    "city": "名古屋市守山区",
    "city_kana": "ナゴヤシモリヤマク",
    "town": "小幡中",
    "town_kana": "オバタナカ",
    "street": null,
    "office_name": null,
    "office_name_kana": null
  },
  "0014": {
    "postcode": "4630014",
    "prefecture": "愛知県",
    "prefecture_kana": "アイチケン",
    "prefecture_code": 23,
    "city": "名古屋市守山区",
    "city_kana": "ナゴヤシモリヤマク",
    "town": "城南町",
    "town_kana": "ジョウナンチョウ",
    "street": null,
    "office_name": null,
    "office_name_kana": null
  },
  "0015": {
    "postcode": "4630015",
    "prefecture": "愛知県",
    "prefecture_kana": "アイチケン",
    "prefecture_code": 23,
    "city": "名古屋市守山区",
    "city_kana": "ナゴヤシモリヤマク",
    "town": "西島町",
    "town_kana": "ニシジマチョウ",
    "street": null,
    "office_name": null,
    "office_name_kana": null
  },
  "0016": {
    "postcode": "4630016",
    "prefecture": "愛知県",
    "prefecture_kana": "アイチケン",
    "prefecture_code": 23,
    "city": "名古屋市守山区",
    "city_kana": "ナゴヤシモリヤマク",
    "town": "大屋敷",
    "town_kana": "オオヤシキ",
    "street": null,
    "office_name": null,
    "office_name_kana": null
  },
  "0017": {
    "postcode": "4630017",
    "prefecture": "愛知県",
    "prefecture_kana": "アイチケン",
    "prefecture_code": 23,
    "city": "名古屋市守山区",
    "city_kana": "ナゴヤシモリヤマク",
    "town": "喜多山",
    "town_kana": "キタヤマ",
    "street": null,
    "office_name": null,
    "office_name_kana": null
  },
  "0018": {
    "postcode": "4630018",
    "prefecture": "愛知県",
    "prefecture_kana": "アイチケン",
    "prefecture_code": 23,
    "city": "名古屋市守山区",
    "city_kana": "ナゴヤシモリヤマク",
    "town": "桜坂",
    "town_kana": "サクラザカ",
    "street": null,
    "office_name": null,
    "office_name_kana": null
  },
  "0019": {
    "postcode": "4630019",
    "prefecture": "愛知県",
    "prefecture_kana": "アイチケン",
    "prefecture_code": 23,
    "city": "名古屋市守山区",
    "city_kana": "ナゴヤシモリヤマク",
    "town": "東禅寺",
    "town_kana": "トウゼンジ",
    "street": null,
    "office_name": null,
    "office_name_kana": null
  },
  "0021": {
    "postcode": "4630021",
    "prefecture": "愛知県",
    "prefecture_kana": "アイチケン",
    "prefecture_code": 23,
    "city": "名古屋市守山区",
    "city_kana": "ナゴヤシモリヤマク",
    "town": "大森",
    "town_kana": "オオモリ",
    "street": null,
    "office_name": null,
    "office_name_kana": null
  },
  "0022": {
    "postcode": "4630022",
    "prefecture": "愛知県",
    "prefecture_kana": "アイチケン",
    "prefecture_code": 23,
    "city": "名古屋市守山区",
    "city_kana": "ナゴヤシモリヤマク",
    "town": "八剣",
    "town_kana": "ヤツルギ",
    "street": null,
    "office_name": null,
    "office_name_kana": null
  },
  "0023": {
    "postcode": "4630023",
    "prefecture": "愛知県",
    "prefecture_kana": "アイチケン",
    "prefecture_code": 23,
    "city": "名古屋市守山区",
    "city_kana": "ナゴヤシモリヤマク",
    "town": "今尻町",
    "town_kana": "イマジリチョウ",
    "street": null,
    "office_name": null,
    "office_name_kana": null
  },
  "0024": {
    "postcode": "4630024",
    "prefecture": "愛知県",
    "prefecture_kana": "アイチケン",
    "prefecture_code": 23,
    "city": "名古屋市守山区",
    "city_kana": "ナゴヤシモリヤマク",
    "town": "脇田町",
    "town_kana": "ワキタチョウ",
    "street": null,
    "office_name": null,
    "office_name_kana": null
  },
  "0025": {
    "postcode": "4630025",
    "prefecture": "愛知県",
    "prefecture_kana": "アイチケン",
    "prefecture_code": 23,
    "city": "名古屋市守山区",
    "city_kana": "ナゴヤシモリヤマク",
    "town": "元郷",
    "town_kana": "モトゴウ",
    "street": null,
    "office_name": null,
    "office_name_kana": null
  },
  "0026": {
    "postcode": "4630026",
    "prefecture": "愛知県",
    "prefecture_kana": "アイチケン",
    "prefecture_code": 23,
    "city": "名古屋市守山区",
    "city_kana": "ナゴヤシモリヤマク",
    "town": "藪田町",
    "town_kana": "ヤブタチョウ",
    "street": null,
    "office_name": null,
    "office_name_kana": null
  },
  "0027": {
    "postcode": "4630027",
    "prefecture": "愛知県",
    "prefecture_kana": "アイチケン",
    "prefecture_code": 23,
    "city": "名古屋市守山区",
    "city_kana": "ナゴヤシモリヤマク",
    "town": "弁天が丘",
    "town_kana": "ベンテンガオカ",
    "street": null,
    "office_name": null,
    "office_name_kana": null
  },
  "0028": {
    "postcode": "4630028",
    "prefecture": "愛知県",
    "prefecture_kana": "アイチケン",
    "prefecture_code": 23,
    "city": "名古屋市守山区",
    "city_kana": "ナゴヤシモリヤマク",
    "town": "大森八龍",
    "town_kana": "オオモリハチリュウ",
    "street": null,
    "office_name": null,
    "office_name_kana": null
  },
  "0029": {
    "postcode": "4630029",
    "prefecture": "愛知県",
    "prefecture_kana": "アイチケン",
    "prefecture_code": 23,
    "city": "名古屋市守山区",
    "city_kana": "ナゴヤシモリヤマク",
    "town": "御膳洞",
    "town_kana": "ゴゼンボラ",
    "street": null,
    "office_name": null,
    "office_name_kana": null
  },
  "0031": {
    "postcode": "4630031",
    "prefecture": "愛知県",
    "prefecture_kana": "アイチケン",
    "prefecture_code": 23,
    "city": "名古屋市守山区",
    "city_kana": "ナゴヤシモリヤマク",
    "town": "本地が丘",
    "town_kana": "ホンジガオカ",
    "street": null,
    "office_name": null,
    "office_name_kana": null
  },
  "0032": {
    "postcode": "4630032",
    "prefecture": "愛知県",
    "prefecture_kana": "アイチケン",
    "prefecture_code": 23,
    "city": "名古屋市守山区",
    "city_kana": "ナゴヤシモリヤマク",
    "town": "白山",
    "town_kana": "ハクサン",
    "street": null,
    "office_name": null,
    "office_name_kana": null
  },
  "0033": {
    "postcode": "4630033",
    "prefecture": "愛知県",
    "prefecture_kana": "アイチケン",
    "prefecture_code": 23,
    "city": "名古屋市守山区",
    "city_kana": "ナゴヤシモリヤマク",
    "town": "森孝東",
    "town_kana": "モリタカヒガシ",
    "street": null,
    "office_name": null,
    "office_name_kana": null
  },
  "0034": {
    "postcode": "4630034",
    "prefecture": "愛知県",
    "prefecture_kana": "アイチケン",
    "prefecture_code": 23,
    "city": "名古屋市守山区",
    "city_kana": "ナゴヤシモリヤマク",
    "town": "四軒家",
    "town_kana": "シケンヤ",
    "street": null,
    "office_name": null,
    "office_name_kana": null
  },
  "0035": {
    "postcode": "4630035",
    "prefecture": "愛知県",
    "prefecture_kana": "アイチケン",
    "prefecture_code": 23,
    "city": "名古屋市守山区",
    "city_kana": "ナゴヤシモリヤマク",
    "town": "森孝",
    "town_kana": "モリタカ",
    "street": null,
    "office_name": null,
    "office_name_kana": null
  },
  "0036": {
    "postcode": "4630036",
    "prefecture": "愛知県",
    "prefecture_kana": "アイチケン",
    "prefecture_code": 23,
    "city": "名古屋市守山区",
    "city_kana": "ナゴヤシモリヤマク",
    "town": "向台",
    "town_kana": "ムカエダイ",
    "street": null,
    "office_name": null,
    "office_name_kana": null
  },
  "0037": {
    "postcode": "4630037",
    "prefecture": "愛知県",
    "prefecture_kana": "アイチケン",
    "prefecture_code": 23,
    "city": "名古屋市守山区",
    "city_kana": "ナゴヤシモリヤマク",
    "town": "天子田",
    "town_kana": "アマコダ",
    "street": null,
    "office_name": null,
    "office_name_kana": null
  },
  "0038": {
    "postcode": "4630038",
    "prefecture": "愛知県",
    "prefecture_kana": "アイチケン",
    "prefecture_code": 23,
    "city": "名古屋市守山区",
    "city_kana": "ナゴヤシモリヤマク",
    "town": "原境町",
    "town_kana": "ハラザカイチョウ",
    "street": null,
    "office_name": null,
    "office_name_kana": null
  },
  "0041": {
    "postcode": "4630041",
    "prefecture": "愛知県",
    "prefecture_kana": "アイチケン",
    "prefecture_code": 23,
    "city": "名古屋市守山区",
    "city_kana": "ナゴヤシモリヤマク",
    "town": "大谷町",
    "town_kana": "オオタニチョウ",
    "street": null,
    "office_name": null,
    "office_name_kana": null
  },
  "0042": {
    "postcode": "4630042",
    "prefecture": "愛知県",
    "prefecture_kana": "アイチケン",
    "prefecture_code": 23,
    "city": "名古屋市守山区",
    "city_kana": "ナゴヤシモリヤマク",
    "town": "野萩町",
    "town_kana": "ヤハギチョウ",
    "street": null,
    "office_name": null,
    "office_name_kana": null
  },
  "0043": {
    "postcode": "4630043",
    "prefecture": "愛知県",
    "prefecture_kana": "アイチケン",
    "prefecture_code": 23,
    "city": "名古屋市守山区",
    "city_kana": "ナゴヤシモリヤマク",
    "town": "喜多山南",
    "town_kana": "キタヤマミナミ",
    "street": null,
    "office_name": null,
    "office_name_kana": null
  },
  "0044": {
    "postcode": "4630044",
    "prefecture": "愛知県",
    "prefecture_kana": "アイチケン",
    "prefecture_code": 23,
    "city": "名古屋市守山区",
    "city_kana": "ナゴヤシモリヤマク",
    "town": "太田井",
    "town_kana": "オオタイ",
    "street": null,
    "office_name": null,
    "office_name_kana": null
  },
  "0045": {
    "postcode": "4630045",
    "prefecture": "愛知県",
    "prefecture_kana": "アイチケン",
    "prefecture_code": 23,
    "city": "名古屋市守山区",
    "city_kana": "ナゴヤシモリヤマク",
    "town": "菱池町",
    "town_kana": "ヒシイケチョウ",
    "street": null,
    "office_name": null,
    "office_name_kana": null
  },
  "0046": {
    "postcode": "4630046",
    "prefecture": "愛知県",
    "prefecture_kana": "アイチケン",
    "prefecture_code": 23,
    "city": "名古屋市守山区",
    "city_kana": "ナゴヤシモリヤマク",
    "town": "苗代",
    "town_kana": "ナエシロ",
    "street": null,
    "office_name": null,
    "office_name_kana": null
  },
  "0047": {
    "postcode": "4630047",
    "prefecture": "愛知県",
    "prefecture_kana": "アイチケン",
    "prefecture_code": 23,
    "city": "名古屋市守山区",
    "city_kana": "ナゴヤシモリヤマク",
    "town": "小幡常燈",
    "town_kana": "オバタジョウトウ",
    "street": null,
    "office_name": null,
    "office_name_kana": null
  },
  "0048": {
    "postcode": "4630048",
    "prefecture": "愛知県",
    "prefecture_kana": "アイチケン",
    "prefecture_code": 23,
    "city": "名古屋市守山区",
    "city_kana": "ナゴヤシモリヤマク",
    "town": "小幡南",
    "town_kana": "オバタミナミ",
    "street": null,
    "office_name": null,
    "office_name_kana": null
  },
  "0051": {
    "postcode": "4630051",
    "prefecture": "愛知県",
    "prefecture_kana": "アイチケン",
    "prefecture_code": 23,
    "city": "名古屋市守山区",
    "city_kana": "ナゴヤシモリヤマク",
    "town": "小幡太田",
    "town_kana": "オバタオオタ",
    "street": null,
    "office_name": null,
    "office_name_kana": null
  },
  "0052": {
    "postcode": "4630052",
    "prefecture": "愛知県",
    "prefecture_kana": "アイチケン",
    "prefecture_code": 23,
    "city": "名古屋市守山区",
    "city_kana": "ナゴヤシモリヤマク",
    "town": "小幡宮ノ腰",
    "town_kana": "オバタミヤノコシ",
    "street": null,
    "office_name": null,
    "office_name_kana": null
  },
  "0053": {
    "postcode": "4630053",
    "prefecture": "愛知県",
    "prefecture_kana": "アイチケン",
    "prefecture_code": 23,
    "city": "名古屋市守山区",
    "city_kana": "ナゴヤシモリヤマク",
    "town": "小幡千代田",
    "town_kana": "オバタチヨダ",
    "street": null,
    "office_name": null,
    "office_name_kana": null
  },
  "0054": {
    "postcode": "4630054",
    "prefecture": "愛知県",
    "prefecture_kana": "アイチケン",
    "prefecture_code": 23,
    "city": "名古屋市守山区",
    "city_kana": "ナゴヤシモリヤマク",
    "town": "小六町",
    "town_kana": "コロクチョウ",
    "street": null,
    "office_name": null,
    "office_name_kana": null
  },
  "0055": {
    "postcode": "4630055",
    "prefecture": "愛知県",
    "prefecture_kana": "アイチケン",
    "prefecture_code": 23,
    "city": "名古屋市守山区",
    "city_kana": "ナゴヤシモリヤマク",
    "town": "西新",
    "town_kana": "ニシシン",
    "street": null,
    "office_name": null,
    "office_name_kana": null
  },
  "0056": {
    "postcode": "4630056",
    "prefecture": "愛知県",
    "prefecture_kana": "アイチケン",
    "prefecture_code": 23,
    "city": "名古屋市守山区",
    "city_kana": "ナゴヤシモリヤマク",
    "town": "新城",
    "town_kana": "シンシロ",
    "street": null,
    "office_name": null,
    "office_name_kana": null
  },
  "0057": {
    "postcode": "4630057",
    "prefecture": "愛知県",
    "prefecture_kana": "アイチケン",
    "prefecture_code": 23,
    "city": "名古屋市守山区",
    "city_kana": "ナゴヤシモリヤマク",
    "town": "中新",
    "town_kana": "ナカシン",
    "street": null,
    "office_name": null,
    "office_name_kana": null
  },
  "0061": {
    "postcode": "4630061",
    "prefecture": "愛知県",
    "prefecture_kana": "アイチケン",
    "prefecture_code": 23,
    "city": "名古屋市守山区",
    "city_kana": "ナゴヤシモリヤマク",
    "town": "東山町",
    "town_kana": "ヒガシヤマチョウ",
    "street": null,
    "office_name": null,
    "office_name_kana": null
  },
  "0062": {
    "postcode": "4630062",
    "prefecture": "愛知県",
    "prefecture_kana": "アイチケン",
    "prefecture_code": 23,
    "city": "名古屋市守山区",
    "city_kana": "ナゴヤシモリヤマク",
    "town": "長栄",
    "town_kana": "チョウエイ",
    "street": null,
    "office_name": null,
    "office_name_kana": null
  },
  "0063": {
    "postcode": "4630063",
    "prefecture": "愛知県",
    "prefecture_kana": "アイチケン",
    "prefecture_code": 23,
    "city": "名古屋市守山区",
    "city_kana": "ナゴヤシモリヤマク",
    "town": "八反",
    "town_kana": "ハッタン",
    "street": null,
    "office_name": null,
    "office_name_kana": null
  },
  "0064": {
    "postcode": "4630064",
    "prefecture": "愛知県",
    "prefecture_kana": "アイチケン",
    "prefecture_code": 23,
    "city": "名古屋市守山区",
    "city_kana": "ナゴヤシモリヤマク",
    "town": "更屋敷",
    "town_kana": "サラヤシキ",
    "street": null,
    "office_name": null,
    "office_name_kana": null
  },
  "0065": {
    "postcode": "4630065",
    "prefecture": "愛知県",
    "prefecture_kana": "アイチケン",
    "prefecture_code": 23,
    "city": "名古屋市守山区",
    "city_kana": "ナゴヤシモリヤマク",
    "town": "廿軒家",
    "town_kana": "ニジッケンヤ",
    "street": null,
    "office_name": null,
    "office_name_kana": null
  },
  "0066": {
    "postcode": "4630066",
    "prefecture": "愛知県",
    "prefecture_kana": "アイチケン",
    "prefecture_code": 23,
    "city": "名古屋市守山区",
    "city_kana": "ナゴヤシモリヤマク",
    "town": "町南",
    "town_kana": "マチミナミ",
    "street": null,
    "office_name": null,
    "office_name_kana": null
  },
  "0067": {
    "postcode": "4630067",
    "prefecture": "愛知県",
    "prefecture_kana": "アイチケン",
    "prefecture_code": 23,
    "city": "名古屋市守山区",
    "city_kana": "ナゴヤシモリヤマク",
    "town": "守山",
    "town_kana": "モリヤマ",
    "street": null,
    "office_name": null,
    "office_name_kana": null
  },
  "0068": {
    "postcode": "4630068",
    "prefecture": "愛知県",
    "prefecture_kana": "アイチケン",
    "prefecture_code": 23,
    "city": "名古屋市守山区",
    "city_kana": "ナゴヤシモリヤマク",
    "town": "瀬古",
    "town_kana": "セコ",
    "street": null,
    "office_name": null,
    "office_name_kana": null
  },
  "0069": {
    "postcode": "4630069",
    "prefecture": "愛知県",
    "prefecture_kana": "アイチケン",
    "prefecture_code": 23,
    "city": "名古屋市守山区",
    "city_kana": "ナゴヤシモリヤマク",
    "town": "新守西",
    "town_kana": "シンモリニシ",
    "street": null,
    "office_name": null,
    "office_name_kana": null
  },
  "0070": {
    "postcode": "4630070",
    "prefecture": "愛知県",
    "prefecture_kana": "アイチケン",
    "prefecture_code": 23,
    "city": "名古屋市守山区",
    "city_kana": "ナゴヤシモリヤマク",
    "town": "新守山",
    "town_kana": "シンモリヤマ",
    "street": null,
    "office_name": null,
    "office_name_kana": null
  },
  "0071": {
    "postcode": "4630071",
    "prefecture": "愛知県",
    "prefecture_kana": "アイチケン",
    "prefecture_code": 23,
    "city": "名古屋市守山区",
    "city_kana": "ナゴヤシモリヤマク",
    "town": "新守町",
    "town_kana": "シンモリチョウ",
    "street": null,
    "office_name": null,
    "office_name_kana": null
  },
  "0072": {
    "postcode": "4630072",
    "prefecture": "愛知県",
    "prefecture_kana": "アイチケン",
    "prefecture_code": 23,
    "city": "名古屋市守山区",
    "city_kana": "ナゴヤシモリヤマク",
    "town": "金屋",
    "town_kana": "カナヤ",
    "street": null,
    "office_name": null,
    "office_name_kana": null
  },
  "0073": {
    "postcode": "4630073",
    "prefecture": "愛知県",
    "prefecture_kana": "アイチケン",
    "prefecture_code": 23,
    "city": "名古屋市守山区",
    "city_kana": "ナゴヤシモリヤマク",
    "town": "守牧町",
    "town_kana": "モリマキチョウ",
    "street": null,
    "office_name": null,
    "office_name_kana": null
  },
  "0074": {
    "postcode": "4630074",
    "prefecture": "愛知県",
    "prefecture_kana": "アイチケン",
    "prefecture_code": 23,
    "city": "名古屋市守山区",
    "city_kana": "ナゴヤシモリヤマク",
    "town": "町北",
    "town_kana": "マチキタ",
    "street": null,
    "office_name": null,
    "office_name_kana": null
  },
  "0075": {
    "postcode": "4630075",
    "prefecture": "愛知県",
    "prefecture_kana": "アイチケン",
    "prefecture_code": 23,
    "city": "名古屋市守山区",
    "city_kana": "ナゴヤシモリヤマク",
    "town": "市場",
    "town_kana": "イチバ",
    "street": null,
    "office_name": null,
    "office_name_kana": null
  },
  "0076": {
    "postcode": "4630076",
    "prefecture": "愛知県",
    "prefecture_kana": "アイチケン",
    "prefecture_code": 23,
    "city": "名古屋市守山区",
    "city_kana": "ナゴヤシモリヤマク",
    "town": "鳥羽見",
    "town_kana": "トリバミ",
    "street": null,
    "office_name": null,
    "office_name_kana": null
  },
  "0077": {
    "postcode": "4630077",
    "prefecture": "愛知県",
    "prefecture_kana": "アイチケン",
    "prefecture_code": 23,
    "city": "名古屋市守山区",
    "city_kana": "ナゴヤシモリヤマク",
    "town": "守山",
    "town_kana": "モリヤマ",
    "street": null,
    "office_name": null,
    "office_name_kana": null
  },
  "0078": [
    {
      "postcode": "4630078",
      "prefecture": "愛知県",
      "prefecture_kana": "アイチケン",
      "prefecture_code": 23,
      "city": "名古屋市守山区",
      "city_kana": "ナゴヤシモリヤマク",
      "town": "瀬古",
      "town_kana": "セコ",
      "street": null,
      "office_name": null,
      "office_name_kana": null
    },
    {
      "postcode": "4630078",
      "prefecture": "愛知県",
      "prefecture_kana": "アイチケン",
      "prefecture_code": 23,
      "city": "名古屋市守山区",
      "city_kana": "ナゴヤシモリヤマク",
      "town": "瀬古大字",
      "town_kana": "セコオオアザ",
      "street": null,
      "office_name": null,
      "office_name_kana": null
    }
  ],
  "0079": {
    "postcode": "4630079",
    "prefecture": "愛知県",
    "prefecture_kana": "アイチケン",
    "prefecture_code": 23,
    "city": "名古屋市守山区",
    "city_kana": "ナゴヤシモリヤマク",
    "town": "幸心",
    "town_kana": "コウシン",
    "street": null,
    "office_name": null,
    "office_name_kana": null
  },
  "0080": {
    "postcode": "4630080",
    "prefecture": "愛知県",
    "prefecture_kana": "アイチケン",
    "prefecture_code": 23,
    "city": "名古屋市守山区",
    "city_kana": "ナゴヤシモリヤマク",
    "town": "川西",
    "town_kana": "カワニシ",
    "street": null,
    "office_name": null,
    "office_name_kana": null
  },
  "0081": {
    "postcode": "4630081",
    "prefecture": "愛知県",
    "prefecture_kana": "アイチケン",
    "prefecture_code": 23,
    "city": "名古屋市守山区",
    "city_kana": "ナゴヤシモリヤマク",
    "town": "川宮町",
    "town_kana": "カワミヤチョウ",
    "street": null,
    "office_name": null,
    "office_name_kana": null
  },
  "0082": {
    "postcode": "4630082",
    "prefecture": "愛知県",
    "prefecture_kana": "アイチケン",
    "prefecture_code": 23,
    "city": "名古屋市守山区",
    "city_kana": "ナゴヤシモリヤマク",
    "town": "村前町",
    "town_kana": "ムラマエチョウ",
    "street": null,
    "office_name": null,
    "office_name_kana": null
  },
  "0083": {
    "postcode": "4630083",
    "prefecture": "愛知県",
    "prefecture_kana": "アイチケン",
    "prefecture_code": 23,
    "city": "名古屋市守山区",
    "city_kana": "ナゴヤシモリヤマク",
    "town": "村合町",
    "town_kana": "ムラアイチョウ",
    "street": null,
    "office_name": null,
    "office_name_kana": null
  },
  "0084": {
    "postcode": "4630084",
    "prefecture": "愛知県",
    "prefecture_kana": "アイチケン",
    "prefecture_code": 23,
    "city": "名古屋市守山区",
    "city_kana": "ナゴヤシモリヤマク",
    "town": "西城",
    "town_kana": "ニシシロ",
    "street": null,
    "office_name": null,
    "office_name_kana": null
  },
  "0085": {
    "postcode": "4630085",
    "prefecture": "愛知県",
    "prefecture_kana": "アイチケン",
    "prefecture_code": 23,
    "city": "名古屋市守山区",
    "city_kana": "ナゴヤシモリヤマク",
    "town": "大牧町",
    "town_kana": "オオマキチョウ",
    "street": null,
    "office_name": null,
    "office_name_kana": null
  },
  "0086": {
    "postcode": "4630086",
    "prefecture": "愛知県",
    "prefecture_kana": "アイチケン",
    "prefecture_code": 23,
    "city": "名古屋市守山区",
    "city_kana": "ナゴヤシモリヤマク",
    "town": "永森町",
    "town_kana": "ナガモリチョウ",
    "street": null,
    "office_name": null,
    "office_name_kana": null
  },
  "0087": {
    "postcode": "4630087",
    "prefecture": "愛知県",
    "prefecture_kana": "アイチケン",
    "prefecture_code": 23,
    "city": "名古屋市守山区",
    "city_kana": "ナゴヤシモリヤマク",
    "town": "大永寺町",
    "town_kana": "ダイエイジチョウ",
    "street": null,
    "office_name": null,
    "office_name_kana": null
  },
  "0088": {
    "postcode": "4630088",
    "prefecture": "愛知県",
    "prefecture_kana": "アイチケン",
    "prefecture_code": 23,
    "city": "名古屋市守山区",
    "city_kana": "ナゴヤシモリヤマク",
    "town": "鳥神町",
    "town_kana": "トリガミチョウ",
    "street": null,
    "office_name": null,
    "office_name_kana": null
  },
  "0089": {
    "postcode": "4630089",
    "prefecture": "愛知県",
    "prefecture_kana": "アイチケン",
    "prefecture_code": 23,
    "city": "名古屋市守山区",
    "city_kana": "ナゴヤシモリヤマク",
    "town": "西川原町",
    "town_kana": "ニシガワラチョウ",
    "street": null,
    "office_name": null,
    "office_name_kana": null
  },
  "0090": {
    "postcode": "4630090",
    "prefecture": "愛知県",
    "prefecture_kana": "アイチケン",
    "prefecture_code": 23,
    "city": "名古屋市守山区",
    "city_kana": "ナゴヤシモリヤマク",
    "town": "瀬古東",
    "town_kana": "セコヒガシ",
    "street": null,
    "office_name": null,
    "office_name_kana": null
  },
  "0091": {
    "postcode": "4630091",
    "prefecture": "愛知県",
    "prefecture_kana": "アイチケン",
    "prefecture_code": 23,
    "city": "名古屋市守山区",
    "city_kana": "ナゴヤシモリヤマク",
    "town": "川上町",
    "town_kana": "カワカミチョウ",
    "street": null,
    "office_name": null,
    "office_name_kana": null
  },
  "0092": {
    "postcode": "4630092",
    "prefecture": "愛知県",
    "prefecture_kana": "アイチケン",
    "prefecture_code": 23,
    "city": "名古屋市守山区",
    "city_kana": "ナゴヤシモリヤマク",
    "town": "白沢町",
    "town_kana": "シラサワチョウ",
    "street": null,
    "office_name": null,
    "office_name_kana": null
  },
  "0093": {
    "postcode": "4630093",
    "prefecture": "愛知県",
    "prefecture_kana": "アイチケン",
    "prefecture_code": 23,
    "city": "名古屋市守山区",
    "city_kana": "ナゴヤシモリヤマク",
    "town": "城土町",
    "town_kana": "シロツチチョウ",
    "street": null,
    "office_name": null,
    "office_name_kana": null
  },
  "0094": {
    "postcode": "4630094",
    "prefecture": "愛知県",
    "prefecture_kana": "アイチケン",
    "prefecture_code": 23,
    "city": "名古屋市守山区",
    "city_kana": "ナゴヤシモリヤマク",
    "town": "牛牧",
    "town_kana": "ウシマキ",
    "street": null,
    "office_name": null,
    "office_name_kana": null
  },
  "0095": {
    "postcode": "4630095",
    "prefecture": "愛知県",
    "prefecture_kana": "アイチケン",
    "prefecture_code": 23,
    "city": "名古屋市守山区",
    "city_kana": "ナゴヤシモリヤマク",
    "town": "高島町",
    "town_kana": "タカシマチョウ",
    "street": null,
    "office_name": null,
    "office_name_kana": null
  },
  "0096": {
    "postcode": "4630096",
    "prefecture": "愛知県",
    "prefecture_kana": "アイチケン",
    "prefecture_code": 23,
    "city": "名古屋市守山区",
    "city_kana": "ナゴヤシモリヤマク",
    "town": "森宮町",
    "town_kana": "モリミヤチョウ",
    "street": null,
    "office_name": null,
    "office_name_kana": null
  },
  "0097": {
    "postcode": "4630097",
    "prefecture": "愛知県",
    "prefecture_kana": "アイチケン",
    "prefecture_code": 23,
    "city": "名古屋市守山区",
    "city_kana": "ナゴヤシモリヤマク",
    "town": "川村町",
    "town_kana": "カワムラチョウ",
    "street": null,
    "office_name": null,
    "office_name_kana": null
  },
  "0098": {
    "postcode": "4630098",
    "prefecture": "愛知県",
    "prefecture_kana": "アイチケン",
    "prefecture_code": 23,
    "city": "名古屋市守山区",
    "city_kana": "ナゴヤシモリヤマク",
    "town": "川北町",
    "town_kana": "カワキタチョウ",
    "street": null,
    "office_name": null,
    "office_name_kana": null
  },
  "0801": {
    "postcode": "4630801",
    "prefecture": "愛知県",
    "prefecture_kana": "アイチケン",
    "prefecture_code": 23,
    "city": "名古屋市守山区",
    "city_kana": "ナゴヤシモリヤマク",
    "town": "竜泉寺",
    "town_kana": "リュウセンジ",
    "street": null,
    "office_name": null,
    "office_name_kana": null
  },
  "0802": {
    "postcode": "4630802",
    "prefecture": "愛知県",
    "prefecture_kana": "アイチケン",
    "prefecture_code": 23,
    "city": "名古屋市守山区",
    "city_kana": "ナゴヤシモリヤマク",
    "town": "大森北",
    "town_kana": "オオモリキタ",
    "street": null,
    "office_name": null,
    "office_name_kana": null
  },
  "0803": {
    "postcode": "4630803",
    "prefecture": "愛知県",
    "prefecture_kana": "アイチケン",
    "prefecture_code": 23,
    "city": "名古屋市守山区",
    "city_kana": "ナゴヤシモリヤマク",
    "town": "日の後",
    "town_kana": "ヒノゴ",
    "street": null,
    "office_name": null,
    "office_name_kana": null
  },
  "0804": {
    "postcode": "4630804",
    "prefecture": "愛知県",
    "prefecture_kana": "アイチケン",
    "prefecture_code": 23,
    "city": "名古屋市守山区",
    "city_kana": "ナゴヤシモリヤマク",
    "town": "泉が丘",
    "town_kana": "イズミガオカ",
    "street": null,
    "office_name": null,
    "office_name_kana": null
  },
  "0805": {
    "postcode": "4630805",
    "prefecture": "愛知県",
    "prefecture_kana": "アイチケン",
    "prefecture_code": 23,
    "city": "名古屋市守山区",
    "city_kana": "ナゴヤシモリヤマク",
    "town": "青山台",
    "town_kana": "アオヤマダイ",
    "street": null,
    "office_name": null,
    "office_name_kana": null
  },
  "0806": {
    "postcode": "4630806",
    "prefecture": "愛知県",
    "prefecture_kana": "アイチケン",
    "prefecture_code": 23,
    "city": "名古屋市守山区",
    "city_kana": "ナゴヤシモリヤマク",
    "town": "百合が丘",
    "town_kana": "ユリガオカ",
    "street": null,
    "office_name": null,
    "office_name_kana": null
  },
  "0807": {
    "postcode": "4630807",
    "prefecture": "愛知県",
    "prefecture_kana": "アイチケン",
    "prefecture_code": 23,
    "city": "名古屋市守山区",
    "city_kana": "ナゴヤシモリヤマク",
    "town": "鼓が丘",
    "town_kana": "ツヅミガオカ",
    "street": null,
    "office_name": null,
    "office_name_kana": null
  },
  "0808": {
    "postcode": "4630808",
    "prefecture": "愛知県",
    "prefecture_kana": "アイチケン",
    "prefecture_code": 23,
    "city": "名古屋市守山区",
    "city_kana": "ナゴヤシモリヤマク",
    "town": "花咲台",
    "town_kana": "ハナサキダイ",
    "street": null,
    "office_name": null,
    "office_name_kana": null
  },
  "0809": {
    "postcode": "4630809",
    "prefecture": "愛知県",
    "prefecture_kana": "アイチケン",
    "prefecture_code": 23,
    "city": "名古屋市守山区",
    "city_kana": "ナゴヤシモリヤマク",
    "town": "平池東",
    "town_kana": "ヒライケヒガシ",
    "street": null,
    "office_name": null,
    "office_name_kana": null
  },
  "0811": {
    "postcode": "4630811",
    "prefecture": "愛知県",
    "prefecture_kana": "アイチケン",
    "prefecture_code": 23,
    "city": "名古屋市守山区",
    "city_kana": "ナゴヤシモリヤマク",
    "town": "深沢",
    "town_kana": "フカサワ",
    "street": null,
    "office_name": null,
    "office_name_kana": null
  },
  "0812": {
    "postcode": "4630812",
    "prefecture": "愛知県",
    "prefecture_kana": "アイチケン",
    "prefecture_code": 23,
    "city": "名古屋市守山区",
    "city_kana": "ナゴヤシモリヤマク",
    "town": "笹ヶ根",
    "town_kana": "ササガネ",
    "street": null,
    "office_name": null,
    "office_name_kana": null
  },
  "0813": {
    "postcode": "4630813",
    "prefecture": "愛知県",
    "prefecture_kana": "アイチケン",
    "prefecture_code": 23,
    "city": "名古屋市守山区",
    "city_kana": "ナゴヤシモリヤマク",
    "town": "吉根南",
    "town_kana": "キッコミナミ",
    "street": null,
    "office_name": null,
    "office_name_kana": null
  },
  "0814": {
    "postcode": "4630814",
    "prefecture": "愛知県",
    "prefecture_kana": "アイチケン",
    "prefecture_code": 23,
    "city": "名古屋市守山区",
    "city_kana": "ナゴヤシモリヤマク",
    "town": "桔梗平",
    "town_kana": "キキョウダイラ",
    "street": null,
    "office_name": null,
    "office_name_kana": null
  },
  "0815": {
    "postcode": "4630815",
    "prefecture": "愛知県",
    "prefecture_kana": "アイチケン",
    "prefecture_code": 23,
    "city": "名古屋市守山区",
    "city_kana": "ナゴヤシモリヤマク",
    "town": "青葉台",
    "town_kana": "アオバダイ",
    "street": null,
    "office_name": null,
    "office_name_kana": null
  },
  "8501": {
    "postcode": "4638501",
    "prefecture": "愛知県",
    "prefecture_kana": "アイチケン",
    "prefecture_code": 23,
    "city": "名古屋市守山区",
    "city_kana": "ナゴヤシモリヤマク",
    "town": "大字中志段味",
    "town_kana": null,
    "street": "字南原２６４６",
    "office_name": "新栄機工　株式会社",
    "office_name_kana": "シンエイキコウ カブシキガイシヤ"
  },
  "8502": {
    "postcode": "4638502",
    "prefecture": "愛知県",
    "prefecture_kana": "アイチケン",
    "prefecture_code": 23,
    "city": "名古屋市守山区",
    "city_kana": "ナゴヤシモリヤマク",
    "town": "大字上志段味",
    "town_kana": null,
    "street": "字東谷",
    "office_name": "愛知県立大学　看護学部",
    "office_name_kana": "アイチケンリツダイガク カンゴガクブ"
  },
  "8503": {
    "postcode": "4638503",
    "prefecture": "愛知県",
    "prefecture_kana": "アイチケン",
    "prefecture_code": 23,
    "city": "名古屋市守山区",
    "city_kana": "ナゴヤシモリヤマク",
    "town": "大字中志段味",
    "town_kana": null,
    "street": "字元屋敷１２６７",
    "office_name": "愛知県立守山高等学校",
    "office_name_kana": "アイチケンリツモリヤマコウトウガツコウ"
  },
  "8505": {
    "postcode": "4638505",
    "prefecture": "愛知県",
    "prefecture_kana": "アイチケン",
    "prefecture_code": 23,
    "city": "名古屋市守山区",
    "city_kana": "ナゴヤシモリヤマク",
    "town": "大字吉根",
    "town_kana": null,
    "street": "字長廻間３２４１",
    "office_name": "緑ケ丘カンツリークラブ",
    "office_name_kana": "ミドリガオカカンツリ-クラブ"
  },
  "8510": {
    "postcode": "4638510",
    "prefecture": "愛知県",
    "prefecture_kana": "アイチケン",
    "prefecture_code": 23,
    "city": "名古屋市守山区",
    "city_kana": "ナゴヤシモリヤマク",
    "town": "小幡",
    "town_kana": "オバタ",
    "street": "１丁目３−１",
    "office_name": "守山区役所",
    "office_name_kana": "モリヤマクヤクシヨ"
  },
  "8521": {
    "postcode": "4638521",
    "prefecture": "愛知県",
    "prefecture_kana": "アイチケン",
    "prefecture_code": 23,
    "city": "名古屋市守山区",
    "city_kana": "ナゴヤシモリヤマク",
    "town": "大森",
    "town_kana": "オオモリ",
    "street": "２丁目１７２３",
    "office_name": "金城学院大学",
    "office_name_kana": "キンジヨウガクインダイガク"
  },
  "8522": {
    "postcode": "4638522",
    "prefecture": "愛知県",
    "prefecture_kana": "アイチケン",
    "prefecture_code": 23,
    "city": "名古屋市守山区",
    "city_kana": "ナゴヤシモリヤマク",
    "town": "大森",
    "town_kana": "オオモリ",
    "street": "３丁目３０１",
    "office_name": "グリーンシティケーブルテレビ　株式会社",
    "office_name_kana": "グリ-ンシテイケ-ブルテレビ カブシキガイシヤ"
  },
  "8528": {
    "postcode": "4638528",
    "prefecture": "愛知県",
    "prefecture_kana": "アイチケン",
    "prefecture_code": 23,
    "city": "名古屋市守山区",
    "city_kana": "ナゴヤシモリヤマク",
    "town": "元郷",
    "town_kana": "モトゴウ",
    "street": "２丁目１０７",
    "office_name": "理科研　株式会社",
    "office_name_kana": "リカケン カブシキガイシヤ"
  },
  "8530": {
    "postcode": "4638530",
    "prefecture": "愛知県",
    "prefecture_kana": "アイチケン",
    "prefecture_code": 23,
    "city": "名古屋市守山区",
    "city_kana": "ナゴヤシモリヤマク",
    "town": "四軒家",
    "town_kana": "シケンヤ",
    "street": "１丁目７１０",
    "office_name": "医療法人　香流会　絋仁病院",
    "office_name_kana": "イリヨウホウジン カナレカイ コウジンビヨウイン"
  },
  "8533": {
    "postcode": "4638533",
    "prefecture": "愛知県",
    "prefecture_kana": "アイチケン",
    "prefecture_code": 23,
    "city": "名古屋市守山区",
    "city_kana": "ナゴヤシモリヤマク",
    "town": "森孝東",
    "town_kana": "モリタカヒガシ",
    "street": "１丁目５０９",
    "office_name": "株式会社　清水屋　藤ケ丘店",
    "office_name_kana": "カブシキガイシヤ シミズヤ フジガオカテン"
  },
  "8535": {
    "postcode": "4638535",
    "prefecture": "愛知県",
    "prefecture_kana": "アイチケン",
    "prefecture_code": 23,
    "city": "名古屋市守山区",
    "city_kana": "ナゴヤシモリヤマク",
    "town": "八剣",
    "town_kana": "ヤツルギ",
    "street": "二丁目１１８番地",
    "office_name": "株式会社　サガミホールディングス",
    "office_name_kana": "カブシキガイシヤ サガミホ-ルデイングス"
  },
  "8536": {
    "postcode": "4638536",
    "prefecture": "愛知県",
    "prefecture_kana": "アイチケン",
    "prefecture_code": 23,
    "city": "名古屋市守山区",
    "city_kana": "ナゴヤシモリヤマク",
    "town": "向台",
    "town_kana": "ムカエダイ",
    "street": "３丁目１８０７",
    "office_name": "株式会社　ショクブン",
    "office_name_kana": "カブシキガイシヤ シヨクブン"
  },
  "8538": {
    "postcode": "4638538",
    "prefecture": "愛知県",
    "prefecture_kana": "アイチケン",
    "prefecture_code": 23,
    "city": "名古屋市守山区",
    "city_kana": "ナゴヤシモリヤマク",
    "town": "向台",
    "town_kana": "ムカエダイ",
    "street": "２丁目１００２",
    "office_name": "トーシック　株式会社",
    "office_name_kana": "ト-シツク カブシキガイシヤ"
  },
  "8540": {
    "postcode": "4638540",
    "prefecture": "愛知県",
    "prefecture_kana": "アイチケン",
    "prefecture_code": 23,
    "city": "名古屋市守山区",
    "city_kana": "ナゴヤシモリヤマク",
    "town": "瀬古東",
    "town_kana": "セコヒガシ",
    "street": "３丁目２００６番地",
    "office_name": "株式会社　あらた家庭用品　東海支店",
    "office_name_kana": "カブシキガイシヤ アラタカテイヨウヒン トウカイシテン"
  },
  "8541": {
    "postcode": "4638541",
    "prefecture": "愛知県",
    "prefecture_kana": "アイチケン",
    "prefecture_code": 23,
    "city": "名古屋市守山区",
    "city_kana": "ナゴヤシモリヤマク",
    "town": "瀬古東",
    "town_kana": "セコヒガシ",
    "street": "２丁目９０７番地",
    "office_name": "応用地質　株式会社　中部支社",
    "office_name_kana": "オウヨウチシツ カブシキガイシヤ チユウブシシヤ"
  },
  "8543": {
    "postcode": "4638543",
    "prefecture": "愛知県",
    "prefecture_kana": "アイチケン",
    "prefecture_code": 23,
    "city": "名古屋市守山区",
    "city_kana": "ナゴヤシモリヤマク",
    "town": "瀬古",
    "town_kana": "セコ",
    "street": "３丁目９０２番地",
    "office_name": "東海大日本印刷　株式会社",
    "office_name_kana": "トウカイダイニツポンインサツ カブシキガイシヤ"
  },
  "8545": {
    "postcode": "4638545",
    "prefecture": "愛知県",
    "prefecture_kana": "アイチケン",
    "prefecture_code": 23,
    "city": "名古屋市守山区",
    "city_kana": "ナゴヤシモリヤマク",
    "town": "小幡南",
    "town_kana": "オバタミナミ",
    "street": "１丁目１−５",
    "office_name": "丸眞　株式会社",
    "office_name_kana": "マルシン カブシキガイシヤ"
  },
  "8547": {
    "postcode": "4638547",
    "prefecture": "愛知県",
    "prefecture_kana": "アイチケン",
    "prefecture_code": 23,
    "city": "名古屋市守山区",
    "city_kana": "ナゴヤシモリヤマク",
    "town": "瀬古",
    "town_kana": "セコ",
    "street": "３丁目１７２５番地",
    "office_name": "日本コンクリート　株式会社",
    "office_name_kana": "ニホンコンクリ-ト カブシキガイシヤ"
  },
  "8548": {
    "postcode": "4638548",
    "prefecture": "愛知県",
    "prefecture_kana": "アイチケン",
    "prefecture_code": 23,
    "city": "名古屋市守山区",
    "city_kana": "ナゴヤシモリヤマク",
    "town": "瀬古",
    "town_kana": "セコ",
    "street": "１丁目８０３番地",
    "office_name": "株式会社　青柳ういろう",
    "office_name_kana": "カブシキガイシヤ アオヤギウイロウ"
  },
  "8550": {
    "postcode": "4638550",
    "prefecture": "愛知県",
    "prefecture_kana": "アイチケン",
    "prefecture_code": 23,
    "city": "名古屋市守山区",
    "city_kana": "ナゴヤシモリヤマク",
    "town": "瀬古",
    "town_kana": "セコ",
    "street": "３丁目２０１番地",
    "office_name": "大日本印刷　株式会社　中部事業部",
    "office_name_kana": "ダイニツポンインサツ カブシキガイシヤ チユウブジギヨウブ"
  },
  "8555": {
    "postcode": "4638555",
    "prefecture": "愛知県",
    "prefecture_kana": "アイチケン",
    "prefecture_code": 23,
    "city": "名古屋市守山区",
    "city_kana": "ナゴヤシモリヤマク",
    "town": "小幡宮ノ腰",
    "town_kana": "オバタミヤノコシ",
    "street": "７−１４",
    "office_name": "尾家産業　株式会社　名古屋支店",
    "office_name_kana": "オイエサンギヨウ カブシキガイシヤ ナゴヤシテン"
  },
  "8557": {
    "postcode": "4638557",
    "prefecture": "愛知県",
    "prefecture_kana": "アイチケン",
    "prefecture_code": 23,
    "city": "名古屋市守山区",
    "city_kana": "ナゴヤシモリヤマク",
    "town": "小六町",
    "town_kana": "コロクチョウ",
    "street": "１０−２",
    "office_name": "株式会社　豊和化成",
    "office_name_kana": "カブシキガイシヤ ホウワカセイ"
  },
  "8560": {
    "postcode": "4638560",
    "prefecture": "愛知県",
    "prefecture_kana": "アイチケン",
    "prefecture_code": 23,
    "city": "名古屋市守山区",
    "city_kana": "ナゴヤシモリヤマク",
    "town": "桜坂",
    "town_kana": "サクラザカ",
    "street": "四丁目２０５番地",
    "office_name": "国立研究開発法人　産業技術総合研究所　中部センター",
    "office_name_kana": "コクリツケンキユウカイハツホウジン サンギヨウギジユツソウゴウケンキユウシヨ チユウブセンタ-"
  },
  "8561": {
    "postcode": "4638561",
    "prefecture": "愛知県",
    "prefecture_kana": "アイチケン",
    "prefecture_code": 23,
    "city": "名古屋市守山区",
    "city_kana": "ナゴヤシモリヤマク",
    "town": "桜坂",
    "town_kana": "サクラザカ",
    "street": "四丁目２０４番地",
    "office_name": "国立研究開発法人　産業技術総合研究所　中部センター　中部産学官連携研究棟",
    "office_name_kana": "コクリツケンキユウカイハツホウジン サンギヨウギジユツソウゴウケンキユウシヨ チユウブセンタ- チユウブサンガクカンレンケイケンキユウトウ"
  },
  "8565": {
    "postcode": "4638565",
    "prefecture": "愛知県",
    "prefecture_kana": "アイチケン",
    "prefecture_code": 23,
    "city": "名古屋市守山区",
    "city_kana": "ナゴヤシモリヤマク",
    "town": "長栄",
    "town_kana": "チョウエイ",
    "street": "２４−２８",
    "office_name": "名古屋手袋　株式会社",
    "office_name_kana": "ナゴヤテブクロ カブシキガイシヤ"
  },
  "8567": {
    "postcode": "4638567",
    "prefecture": "愛知県",
    "prefecture_kana": "アイチケン",
    "prefecture_code": 23,
    "city": "名古屋市守山区",
    "city_kana": "ナゴヤシモリヤマク",
    "town": "守山",
    "town_kana": "モリヤマ",
    "street": "２丁目１８−２２",
    "office_name": "名古屋市立　守山市民病院",
    "office_name_kana": "ナゴヤシリツ モリヤマシミンビヨウイン"
  },
  "8571": {
    "postcode": "4638571",
    "prefecture": "愛知県",
    "prefecture_kana": "アイチケン",
    "prefecture_code": 23,
    "city": "名古屋市守山区",
    "city_kana": "ナゴヤシモリヤマク",
    "town": "新守町",
    "town_kana": "シンモリチョウ",
    "street": "１０",
    "office_name": "昌和物産　株式会社",
    "office_name_kana": "シヨウワブツサン カブシキガイシヤ"
  },
  "8575": {
    "postcode": "4638575",
    "prefecture": "愛知県",
    "prefecture_kana": "アイチケン",
    "prefecture_code": 23,
    "city": "名古屋市守山区",
    "city_kana": "ナゴヤシモリヤマク",
    "town": "新守西",
    "town_kana": "シンモリニシ",
    "street": "１５０１番地",
    "office_name": "アサヒロジ　株式会社　名古屋支店",
    "office_name_kana": "アサヒロジ カブシキガイシヤ ナゴヤシテン"
  },
  "8577": {
    "postcode": "4638577",
    "prefecture": "愛知県",
    "prefecture_kana": "アイチケン",
    "prefecture_code": 23,
    "city": "名古屋市守山区",
    "city_kana": "ナゴヤシモリヤマク",
    "town": "新守山",
    "town_kana": "シンモリヤマ",
    "street": "６０６番地",
    "office_name": "西部機械　株式会社",
    "office_name_kana": "ニシベキカイ カブシキガイシヤ"
  },
  "8580": {
    "postcode": "4638580",
    "prefecture": "愛知県",
    "prefecture_kana": "アイチケン",
    "prefecture_code": 23,
    "city": "名古屋市守山区",
    "city_kana": "ナゴヤシモリヤマク",
    "town": "西川原町",
    "town_kana": "ニシガワラチョウ",
    "street": "３１８番地",
    "office_name": "アサヒビール　株式会社　名古屋工場",
    "office_name_kana": "アサヒビ-ル カブシキガイシヤ ナゴヤコウジヨウ"
  },
  "8585": {
    "postcode": "4638585",
    "prefecture": "愛知県",
    "prefecture_kana": "アイチケン",
    "prefecture_code": 23,
    "city": "名古屋市守山区",
    "city_kana": "ナゴヤシモリヤマク",
    "town": "大字下志段味",
    "town_kana": null,
    "street": "字穴ケ洞２２６６番１３２",
    "office_name": "名古屋市衛生研究所",
    "office_name_kana": "ナゴヤシエイセイケンキユウシヨ"
  }
}