{
  "0000": {
    "postcode": "4670000",
    "prefecture": "愛知県",
    "prefecture_kana": "アイチケン",
    "prefecture_code": 23,
    "city": "名古屋市瑞穂区",
    "city_kana": "ナゴヤシミズホク",
    "town": "",
    "town_kana": "",
    "street": null,
    "office_name": null,
    "office_name_kana": null
  },
  "0001": [
    {
      "postcode": "4670001",
      "prefecture": "愛知県",
      "prefecture_kana": "アイチケン",
      "prefecture_code": 23,
      "city": "名古屋市瑞穂区",
      "city_kana": "ナゴヤシミズホク",
      "town": "瑞穂町",
      "town_kana": "ミズホチョウ",
      "street": null,
      "office_name": null,
      "office_name_kana": null
    },
    {
      "postcode": "4670001",
      "prefecture": "愛知県",
      "prefecture_kana": "アイチケン",
      "prefecture_code": 23,
      "city": "名古屋市瑞穂区",
      "city_kana": "ナゴヤシミズホク",
      "town": "瑞穂町川澄",
      "town_kana": "ミズホチョウカワスミ",
      "street": null,
      "office_name": null,
      "office_name_kana": null
    }
  ],
  "0002": {
    "postcode": "4670002",
    "prefecture": "愛知県",
    "prefecture_kana": "アイチケン",
    "prefecture_code": 23,
    "city": "名古屋市瑞穂区",
    "city_kana": "ナゴヤシミズホク",
    "town": "川澄町",
    "town_kana": "カワスミチョウ",
    "street": null,
    "office_name": null,
    "office_name_kana": null
  },
  "0003": {
    "postcode": "4670003",
    "prefecture": "愛知県",
    "prefecture_kana": "アイチケン",
    "prefecture_code": 23,
    "city": "名古屋市瑞穂区",
    "city_kana": "ナゴヤシミズホク",
    "town": "汐路町",
    "town_kana": "シオジチョウ",
    "street": null,
    "office_name": null,
    "office_name_kana": null
  },
  "0004": {
    "postcode": "4670004",
    "prefecture": "愛知県",
    "prefecture_kana": "アイチケン",
    "prefecture_code": 23,
    "city": "名古屋市瑞穂区",
    "city_kana": "ナゴヤシミズホク",
    "town": "松月町",
    "town_kana": "ショウゲツチョウ",
    "street": null,
    "office_name": null,
    "office_name_kana": null
  },
  "0005": {
    "postcode": "4670005",
    "prefecture": "愛知県",
    "prefecture_kana": "アイチケン",
    "prefecture_code": 23,
    "city": "名古屋市瑞穂区",
    "city_kana": "ナゴヤシミズホク",
    "town": "石川町",
    "town_kana": "イシカワチョウ",
    "street": null,
    "office_name": null,
    "office_name_kana": null
  },
  "0006": {
    "postcode": "4670006",
    "prefecture": "愛知県",
    "prefecture_kana": "アイチケン",
    "prefecture_code": 23,
    "city": "名古屋市瑞穂区",
    "city_kana": "ナゴヤシミズホク",
    "town": "御莨町",
    "town_kana": "オタバコチョウ",
    "street": null,
    "office_name": null,
    "office_name_kana": null
  },
  "0007": {
    "postcode": "4670007",
    "prefecture": "愛知県",
    "prefecture_kana": "アイチケン",
    "prefecture_code": 23,
    "city": "名古屋市瑞穂区",
    "city_kana": "ナゴヤシミズホク",
    "town": "大殿町",
    "town_kana": "オトドマチ",
    "street": null,
    "office_name": null,
    "office_name_kana": null
  },
  "0008": {
    "postcode": "4670008",
    "prefecture": "愛知県",
    "prefecture_kana": "アイチケン",
    "prefecture_code": 23,
    "city": "名古屋市瑞穂区",
    "city_kana": "ナゴヤシミズホク",
    "town": "村上町",
    "town_kana": "ムラカミチョウ",
    "street": null,
    "office_name": null,
    "office_name_kana": null
  },
  "0011": {
    "postcode": "4670011",
    "prefecture": "愛知県",
    "prefecture_kana": "アイチケン",
    "prefecture_code": 23,
    "city": "名古屋市瑞穂区",
    "city_kana": "ナゴヤシミズホク",
    "town": "萩山町",
    "town_kana": "ハギヤマチョウ",
    "street": null,
    "office_name": null,
    "office_name_kana": null
  },
  "0012": {
    "postcode": "4670012",
    "prefecture": "愛知県",
    "prefecture_kana": "アイチケン",
    "prefecture_code": 23,
    "city": "名古屋市瑞穂区",
    "city_kana": "ナゴヤシミズホク",
    "town": "豊岡通",
    "town_kana": "トヨオカドオリ",
    "street": null,
    "office_name": null,
    "office_name_kana": null
  },
  "0013": {
    "postcode": "4670013",
    "prefecture": "愛知県",
    "prefecture_kana": "アイチケン",
    "prefecture_code": 23,
    "city": "名古屋市瑞穂区",
    "city_kana": "ナゴヤシミズホク",
    "town": "膳棚町",
    "town_kana": "ゼンダナチョウ",
    "street": null,
    "office_name": null,
    "office_name_kana": null
  },
  "0014": {
    "postcode": "4670014",
    "prefecture": "愛知県",
    "prefecture_kana": "アイチケン",
    "prefecture_code": 23,
    "city": "名古屋市瑞穂区",
    "city_kana": "ナゴヤシミズホク",
    "town": "白羽根町",
    "town_kana": "シラハネチョウ",
    "street": null,
    "office_name": null,
    "office_name_kana": null
  },
  "0015": {
    "postcode": "4670015",
    "prefecture": "愛知県",
    "prefecture_kana": "アイチケン",
    "prefecture_code": 23,
    "city": "名古屋市瑞穂区",
    "city_kana": "ナゴヤシミズホク",
    "town": "十六町",
    "town_kana": "ソロチョウ",
    "street": null,
    "office_name": null,
    "office_name_kana": null
  },
  "0016": {
    "postcode": "4670016",
    "prefecture": "愛知県",
    "prefecture_kana": "アイチケン",
    "prefecture_code": 23,
    "city": "名古屋市瑞穂区",
    "city_kana": "ナゴヤシミズホク",
    "town": "佐渡町",
    "town_kana": "サワタリチョウ",
    "street": null,
    "office_name": null,
    "office_name_kana": null
  },
  "0017": {
    "postcode": "4670017",
    "prefecture": "愛知県",
    "prefecture_kana": "アイチケン",
    "prefecture_code": 23,
    "city": "名古屋市瑞穂区",
    "city_kana": "ナゴヤシミズホク",
    "town": "東栄町",
    "town_kana": "トウエイチョウ",
    "street": null,
    "office_name": null,
    "office_name_kana": null
  },
  "0021": {
    "postcode": "4670021",
    "prefecture": "愛知県",
    "prefecture_kana": "アイチケン",
    "prefecture_code": 23,
    "city": "名古屋市瑞穂区",
    "city_kana": "ナゴヤシミズホク",
    "town": "檀渓通",
    "town_kana": "ダンケイトオリ",
    "street": null,
    "office_name": null,
    "office_name_kana": null
  },
  "0022": {
    "postcode": "4670022",
    "prefecture": "愛知県",
    "prefecture_kana": "アイチケン",
    "prefecture_code": 23,
    "city": "名古屋市瑞穂区",
    "city_kana": "ナゴヤシミズホク",
    "town": "上山町",
    "town_kana": "カミヤマチョウ",
    "street": null,
    "office_name": null,
    "office_name_kana": null
  },
  "0023": {
    "postcode": "4670023",
    "prefecture": "愛知県",
    "prefecture_kana": "アイチケン",
    "prefecture_code": 23,
    "city": "名古屋市瑞穂区",
    "city_kana": "ナゴヤシミズホク",
    "town": "南山町",
    "town_kana": "ミナミヤマチョウ",
    "street": null,
    "office_name": null,
    "office_name_kana": null
  },
  "0024": {
    "postcode": "4670024",
    "prefecture": "愛知県",
    "prefecture_kana": "アイチケン",
    "prefecture_code": 23,
    "city": "名古屋市瑞穂区",
    "city_kana": "ナゴヤシミズホク",
    "town": "春山町",
    "town_kana": "ハルヤマチョウ",
    "street": null,
    "office_name": null,
    "office_name_kana": null
  },
  "0025": {
    "postcode": "4670025",
    "prefecture": "愛知県",
    "prefecture_kana": "アイチケン",
    "prefecture_code": 23,
    "city": "名古屋市瑞穂区",
    "city_kana": "ナゴヤシミズホク",
    "town": "松栄町",
    "town_kana": "マツサカエチョウ",
    "street": null,
    "office_name": null,
    "office_name_kana": null
  },
  "0026": {
    "postcode": "4670026",
    "prefecture": "愛知県",
    "prefecture_kana": "アイチケン",
    "prefecture_code": 23,
    "city": "名古屋市瑞穂区",
    "city_kana": "ナゴヤシミズホク",
    "town": "陽明町",
    "town_kana": "ヨウメイチョウ",
    "street": null,
    "office_name": null,
    "office_name_kana": null
  },
  "0027": {
    "postcode": "4670027",
    "prefecture": "愛知県",
    "prefecture_kana": "アイチケン",
    "prefecture_code": 23,
    "city": "名古屋市瑞穂区",
    "city_kana": "ナゴヤシミズホク",
    "town": "田辺通",
    "town_kana": "タナベトオリ",
    "street": null,
    "office_name": null,
    "office_name_kana": null
  },
  "0028": {
    "postcode": "4670028",
    "prefecture": "愛知県",
    "prefecture_kana": "アイチケン",
    "prefecture_code": 23,
    "city": "名古屋市瑞穂区",
    "city_kana": "ナゴヤシミズホク",
    "town": "初日町",
    "town_kana": "ハツヒチョウ",
    "street": null,
    "office_name": null,
    "office_name_kana": null
  },
  "0031": {
    "postcode": "4670031",
    "prefecture": "愛知県",
    "prefecture_kana": "アイチケン",
    "prefecture_code": 23,
    "city": "名古屋市瑞穂区",
    "city_kana": "ナゴヤシミズホク",
    "town": "弥富町緑ケ岡",
    "town_kana": "ヤトミチョウミドリガオカ",
    "street": null,
    "office_name": null,
    "office_name_kana": null
  },
  "0032": {
    "postcode": "4670032",
    "prefecture": "愛知県",
    "prefecture_kana": "アイチケン",
    "prefecture_code": 23,
    "city": "名古屋市瑞穂区",
    "city_kana": "ナゴヤシミズホク",
    "town": "弥富町紅葉園",
    "town_kana": "ヤトミチョウコウヨウエン",
    "street": null,
    "office_name": null,
    "office_name_kana": null
  },
  "0033": {
    "postcode": "4670033",
    "prefecture": "愛知県",
    "prefecture_kana": "アイチケン",
    "prefecture_code": 23,
    "city": "名古屋市瑞穂区",
    "city_kana": "ナゴヤシミズホク",
    "town": "弥富町円山",
    "town_kana": "ヤトミチョウマルヤマ",
    "street": null,
    "office_name": null,
    "office_name_kana": null
  },
  "0034": {
    "postcode": "4670034",
    "prefecture": "愛知県",
    "prefecture_kana": "アイチケン",
    "prefecture_code": 23,
    "city": "名古屋市瑞穂区",
    "city_kana": "ナゴヤシミズホク",
    "town": "弥富町桜ケ岡",
    "town_kana": "ヤトミチョウサクラガオカ",
    "street": null,
    "office_name": null,
    "office_name_kana": null
  },
  "0035": {
    "postcode": "4670035",
    "prefecture": "愛知県",
    "prefecture_kana": "アイチケン",
    "prefecture_code": 23,
    "city": "名古屋市瑞穂区",
    "city_kana": "ナゴヤシミズホク",
    "town": "弥富町月見ケ岡",
    "town_kana": "ヤトミチョウツキミガオカ",
    "street": null,
    "office_name": null,
    "office_name_kana": null
  },
  "0036": {
    "postcode": "4670036",
    "prefecture": "愛知県",
    "prefecture_kana": "アイチケン",
    "prefecture_code": 23,
    "city": "名古屋市瑞穂区",
    "city_kana": "ナゴヤシミズホク",
    "town": "弥富町密柑山",
    "town_kana": "ヤトミチョウミカンヤマ",
    "street": null,
    "office_name": null,
    "office_name_kana": null
  },
  "0037": {
    "postcode": "4670037",
    "prefecture": "愛知県",
    "prefecture_kana": "アイチケン",
    "prefecture_code": 23,
    "city": "名古屋市瑞穂区",
    "city_kana": "ナゴヤシミズホク",
    "town": "弥富町上山",
    "town_kana": "ヤトミチョウカミヤマ",
    "street": null,
    "office_name": null,
    "office_name_kana": null
  },
  "0038": {
    "postcode": "4670038",
    "prefecture": "愛知県",
    "prefecture_kana": "アイチケン",
    "prefecture_code": 23,
    "city": "名古屋市瑞穂区",
    "city_kana": "ナゴヤシミズホク",
    "town": "弥富町清水ケ岡",
    "town_kana": "ヤトミチョウシミズガオカ",
    "street": null,
    "office_name": null,
    "office_name_kana": null
  },
  "0039": {
    "postcode": "4670039",
    "prefecture": "愛知県",
    "prefecture_kana": "アイチケン",
    "prefecture_code": 23,
    "city": "名古屋市瑞穂区",
    "city_kana": "ナゴヤシミズホク",
    "town": "弥富町茨山",
    "town_kana": "ヤトミチョウイバラヤマ",
    "street": null,
    "office_name": null,
    "office_name_kana": null
  },
  "0041": {
    "postcode": "4670041",
    "prefecture": "愛知県",
    "prefecture_kana": "アイチケン",
    "prefecture_code": 23,
    "city": "名古屋市瑞穂区",
    "city_kana": "ナゴヤシミズホク",
    "town": "密柑山町",
    "town_kana": "ミカンヤマチョウ",
    "street": null,
    "office_name": null,
    "office_name_kana": null
  },
  "0042": {
    "postcode": "4670042",
    "prefecture": "愛知県",
    "prefecture_kana": "アイチケン",
    "prefecture_code": 23,
    "city": "名古屋市瑞穂区",
    "city_kana": "ナゴヤシミズホク",
    "town": "八勝通",
    "town_kana": "ハッショウトオリ",
    "street": null,
    "office_name": null,
    "office_name_kana": null
  },
  "0043": {
    "postcode": "4670043",
    "prefecture": "愛知県",
    "prefecture_kana": "アイチケン",
    "prefecture_code": 23,
    "city": "名古屋市瑞穂区",
    "city_kana": "ナゴヤシミズホク",
    "town": "岳見町",
    "town_kana": "タケミチョウ",
    "street": null,
    "office_name": null,
    "office_name_kana": null
  },
  "0044": {
    "postcode": "4670044",
    "prefecture": "愛知県",
    "prefecture_kana": "アイチケン",
    "prefecture_code": 23,
    "city": "名古屋市瑞穂区",
    "city_kana": "ナゴヤシミズホク",
    "town": "柏木町",
    "town_kana": "カシワギチョウ",
    "street": null,
    "office_name": null,
    "office_name_kana": null
  },
  "0045": {
    "postcode": "4670045",
    "prefecture": "愛知県",
    "prefecture_kana": "アイチケン",
    "prefecture_code": 23,
    "city": "名古屋市瑞穂区",
    "city_kana": "ナゴヤシミズホク",
    "town": "茨木町",
    "town_kana": "イバラギチョウ",
    "street": null,
    "office_name": null,
    "office_name_kana": null
  },
  "0046": {
    "postcode": "4670046",
    "prefecture": "愛知県",
    "prefecture_kana": "アイチケン",
    "prefecture_code": 23,
    "city": "名古屋市瑞穂区",
    "city_kana": "ナゴヤシミズホク",
    "town": "玉水町",
    "town_kana": "タマミズチョウ",
    "street": null,
    "office_name": null,
    "office_name_kana": null
  },
  "0047": {
    "postcode": "4670047",
    "prefecture": "愛知県",
    "prefecture_kana": "アイチケン",
    "prefecture_code": 23,
    "city": "名古屋市瑞穂区",
    "city_kana": "ナゴヤシミズホク",
    "town": "日向町",
    "town_kana": "ヒナタマチ",
    "street": null,
    "office_name": null,
    "office_name_kana": null
  },
  "0048": {
    "postcode": "4670048",
    "prefecture": "愛知県",
    "prefecture_kana": "アイチケン",
    "prefecture_code": 23,
    "city": "名古屋市瑞穂区",
    "city_kana": "ナゴヤシミズホク",
    "town": "弥富ケ丘町",
    "town_kana": "ヤトミガオカチョウ",
    "street": null,
    "office_name": null,
    "office_name_kana": null
  },
  "0049": {
    "postcode": "4670049",
    "prefecture": "愛知県",
    "prefecture_kana": "アイチケン",
    "prefecture_code": 23,
    "city": "名古屋市瑞穂区",
    "city_kana": "ナゴヤシミズホク",
    "town": "下山町",
    "town_kana": "シモヤマチョウ",
    "street": null,
    "office_name": null,
    "office_name_kana": null
  },
  "0051": {
    "postcode": "4670051",
    "prefecture": "愛知県",
    "prefecture_kana": "アイチケン",
    "prefecture_code": 23,
    "city": "名古屋市瑞穂区",
    "city_kana": "ナゴヤシミズホク",
    "town": "釜塚町",
    "town_kana": "カマヅカチョウ",
    "street": null,
    "office_name": null,
    "office_name_kana": null
  },
  "0052": {
    "postcode": "4670052",
    "prefecture": "愛知県",
    "prefecture_kana": "アイチケン",
    "prefecture_code": 23,
    "city": "名古屋市瑞穂区",
    "city_kana": "ナゴヤシミズホク",
    "town": "片坂町",
    "town_kana": "カタサカチョウ",
    "street": null,
    "office_name": null,
    "office_name_kana": null
  },
  "0053": {
    "postcode": "4670053",
    "prefecture": "愛知県",
    "prefecture_kana": "アイチケン",
    "prefecture_code": 23,
    "city": "名古屋市瑞穂区",
    "city_kana": "ナゴヤシミズホク",
    "town": "仁所町",
    "town_kana": "ニショチョウ",
    "street": null,
    "office_name": null,
    "office_name_kana": null
  },
  "0054": {
    "postcode": "4670054",
    "prefecture": "愛知県",
    "prefecture_kana": "アイチケン",
    "prefecture_code": 23,
    "city": "名古屋市瑞穂区",
    "city_kana": "ナゴヤシミズホク",
    "town": "丸根町",
    "town_kana": "マルネチョウ",
    "street": null,
    "office_name": null,
    "office_name_kana": null
  },
  "0055": {
    "postcode": "4670055",
    "prefecture": "愛知県",
    "prefecture_kana": "アイチケン",
    "prefecture_code": 23,
    "city": "名古屋市瑞穂区",
    "city_kana": "ナゴヤシミズホク",
    "town": "中根町",
    "town_kana": "ナカネチョウ",
    "street": null,
    "office_name": null,
    "office_name_kana": null
  },
  "0056": {
    "postcode": "4670056",
    "prefecture": "愛知県",
    "prefecture_kana": "アイチケン",
    "prefecture_code": 23,
    "city": "名古屋市瑞穂区",
    "city_kana": "ナゴヤシミズホク",
    "town": "白砂町",
    "town_kana": "シラスナチョウ",
    "street": null,
    "office_name": null,
    "office_name_kana": null
  },
  "0057": {
    "postcode": "4670057",
    "prefecture": "愛知県",
    "prefecture_kana": "アイチケン",
    "prefecture_code": 23,
    "city": "名古屋市瑞穂区",
    "city_kana": "ナゴヤシミズホク",
    "town": "井の元町",
    "town_kana": "イノモトチョウ",
    "street": null,
    "office_name": null,
    "office_name_kana": null
  },
  "0058": {
    "postcode": "4670058",
    "prefecture": "愛知県",
    "prefecture_kana": "アイチケン",
    "prefecture_code": 23,
    "city": "名古屋市瑞穂区",
    "city_kana": "ナゴヤシミズホク",
    "town": "関取町",
    "town_kana": "セキトリチョウ",
    "street": null,
    "office_name": null,
    "office_name_kana": null
  },
  "0059": {
    "postcode": "4670059",
    "prefecture": "愛知県",
    "prefecture_kana": "アイチケン",
    "prefecture_code": 23,
    "city": "名古屋市瑞穂区",
    "city_kana": "ナゴヤシミズホク",
    "town": "軍水町",
    "town_kana": "グンスイチョウ",
    "street": null,
    "office_name": null,
    "office_name_kana": null
  },
  "0061": {
    "postcode": "4670061",
    "prefecture": "愛知県",
    "prefecture_kana": "アイチケン",
    "prefecture_code": 23,
    "city": "名古屋市瑞穂区",
    "city_kana": "ナゴヤシミズホク",
    "town": "師長町",
    "town_kana": "モロナガチョウ",
    "street": null,
    "office_name": null,
    "office_name_kana": null
  },
  "0062": {
    "postcode": "4670062",
    "prefecture": "愛知県",
    "prefecture_kana": "アイチケン",
    "prefecture_code": 23,
    "city": "名古屋市瑞穂区",
    "city_kana": "ナゴヤシミズホク",
    "town": "山下通",
    "town_kana": "ヤマシタドオリ",
    "street": null,
    "office_name": null,
    "office_name_kana": null
  },
  "0063": {
    "postcode": "4670063",
    "prefecture": "愛知県",
    "prefecture_kana": "アイチケン",
    "prefecture_code": 23,
    "city": "名古屋市瑞穂区",
    "city_kana": "ナゴヤシミズホク",
    "town": "市丘町",
    "town_kana": "イチオカチョウ",
    "street": null,
    "office_name": null,
    "office_name_kana": null
  },
  "0064": {
    "postcode": "4670064",
    "prefecture": "愛知県",
    "prefecture_kana": "アイチケン",
    "prefecture_code": 23,
    "city": "名古屋市瑞穂区",
    "city_kana": "ナゴヤシミズホク",
    "town": "弥富通",
    "town_kana": "ヤトミドオリ",
    "street": null,
    "office_name": null,
    "office_name_kana": null
  },
  "0065": {
    "postcode": "4670065",
    "prefecture": "愛知県",
    "prefecture_kana": "アイチケン",
    "prefecture_code": 23,
    "city": "名古屋市瑞穂区",
    "city_kana": "ナゴヤシミズホク",
    "town": "松園町",
    "town_kana": "マツソノチョウ",
    "street": null,
    "office_name": null,
    "office_name_kana": null
  },
  "0066": {
    "postcode": "4670066",
    "prefecture": "愛知県",
    "prefecture_kana": "アイチケン",
    "prefecture_code": 23,
    "city": "名古屋市瑞穂区",
    "city_kana": "ナゴヤシミズホク",
    "town": "洲山町",
    "town_kana": "スヤマチョウ",
    "street": null,
    "office_name": null,
    "office_name_kana": null
  },
  "0067": {
    "postcode": "4670067",
    "prefecture": "愛知県",
    "prefecture_kana": "アイチケン",
    "prefecture_code": 23,
    "city": "名古屋市瑞穂区",
    "city_kana": "ナゴヤシミズホク",
    "town": "石田町",
    "town_kana": "イシダチョウ",
    "street": null,
    "office_name": null,
    "office_name_kana": null
  },
  "0068": {
    "postcode": "4670068",
    "prefecture": "愛知県",
    "prefecture_kana": "アイチケン",
    "prefecture_code": 23,
    "city": "名古屋市瑞穂区",
    "city_kana": "ナゴヤシミズホク",
    "town": "内方町",
    "town_kana": "ウチカタチョウ",
    "street": null,
    "office_name": null,
    "office_name_kana": null
  },
  "0801": [
    {
      "postcode": "4670801",
      "prefecture": "愛知県",
      "prefecture_kana": "アイチケン",
      "prefecture_code": 23,
      "city": "名古屋市瑞穂区",
      "city_kana": "ナゴヤシミズホク",
      "town": "瑞穂町",
      "town_kana": "ミズホチョウ",
      "street": null,
      "office_name": null,
      "office_name_kana": null
    },
    {
      "postcode": "4670801",
      "prefecture": "愛知県",
      "prefecture_kana": "アイチケン",
      "prefecture_code": 23,
      "city": "名古屋市瑞穂区",
      "city_kana": "ナゴヤシミズホク",
      "town": "瑞穂町西藤塚",
      "town_kana": "ミズホチョウニシフジツカ",
      "street": null,
      "office_name": null,
      "office_name_kana": null
    }
  ],
  "0802": [
    {
      "postcode": "4670802",
      "prefecture": "愛知県",
      "prefecture_kana": "アイチケン",
      "prefecture_code": 23,
      "city": "名古屋市瑞穂区",
      "city_kana": "ナゴヤシミズホク",
      "town": "瑞穂町",
      "town_kana": "ミズホチョウ",
      "street": null,
      "office_name": null,
      "office_name_kana": null
    },
    {
      "postcode": "4670802",
      "prefecture": "愛知県",
      "prefecture_kana": "アイチケン",
      "prefecture_code": 23,
      "city": "名古屋市瑞穂区",
      "city_kana": "ナゴヤシミズホク",
      "town": "瑞穂町山の畑",
      "town_kana": "ミズホチョウヤマノバタ",
      "street": null,
      "office_name": null,
      "office_name_kana": null
    }
  ],
  "0803": {
    "postcode": "4670803",
    "prefecture": "愛知県",
    "prefecture_kana": "アイチケン",
    "prefecture_code": 23,
    "city": "名古屋市瑞穂区",
    "city_kana": "ナゴヤシミズホク",
    "town": "中山町",
    "town_kana": "ナカヤマチョウ",
    "street": null,
    "office_name": null,
    "office_name_kana": null
  },
  "0804": {
    "postcode": "4670804",
    "prefecture": "愛知県",
    "prefecture_kana": "アイチケン",
    "prefecture_code": 23,
    "city": "名古屋市瑞穂区",
    "city_kana": "ナゴヤシミズホク",
    "town": "洲雲町",
    "town_kana": "スグモチョウ",
    "street": null,
    "office_name": null,
    "office_name_kana": null
  },
  "0805": {
    "postcode": "4670805",
    "prefecture": "愛知県",
    "prefecture_kana": "アイチケン",
    "prefecture_code": 23,
    "city": "名古屋市瑞穂区",
    "city_kana": "ナゴヤシミズホク",
    "town": "桜見町",
    "town_kana": "サクラミチョウ",
    "street": null,
    "office_name": null,
    "office_name_kana": null
  },
  "0806": {
    "postcode": "4670806",
    "prefecture": "愛知県",
    "prefecture_kana": "アイチケン",
    "prefecture_code": 23,
    "city": "名古屋市瑞穂区",
    "city_kana": "ナゴヤシミズホク",
    "town": "瑞穂通",
    "town_kana": "ミズホトオリ",
    "street": null,
    "office_name": null,
    "office_name_kana": null
  },
  "0807": {
    "postcode": "4670807",
    "prefecture": "愛知県",
    "prefecture_kana": "アイチケン",
    "prefecture_code": 23,
    "city": "名古屋市瑞穂区",
    "city_kana": "ナゴヤシミズホク",
    "town": "駒場町",
    "town_kana": "コマバチョウ",
    "street": null,
    "office_name": null,
    "office_name_kana": null
  },
  "0808": {
    "postcode": "4670808",
    "prefecture": "愛知県",
    "prefecture_kana": "アイチケン",
    "prefecture_code": 23,
    "city": "名古屋市瑞穂区",
    "city_kana": "ナゴヤシミズホク",
    "town": "高田町",
    "town_kana": "タカタチョウ",
    "street": null,
    "office_name": null,
    "office_name_kana": null
  },
  "0811": {
    "postcode": "4670811",
    "prefecture": "愛知県",
    "prefecture_kana": "アイチケン",
    "prefecture_code": 23,
    "city": "名古屋市瑞穂区",
    "city_kana": "ナゴヤシミズホク",
    "town": "北原町",
    "town_kana": "キタハラチョウ",
    "street": null,
    "office_name": null,
    "office_name_kana": null
  },
  "0812": {
    "postcode": "4670812",
    "prefecture": "愛知県",
    "prefecture_kana": "アイチケン",
    "prefecture_code": 23,
    "city": "名古屋市瑞穂区",
    "city_kana": "ナゴヤシミズホク",
    "town": "薩摩町",
    "town_kana": "サツマチョウ",
    "street": null,
    "office_name": null,
    "office_name_kana": null
  },
  "0813": {
    "postcode": "4670813",
    "prefecture": "愛知県",
    "prefecture_kana": "アイチケン",
    "prefecture_code": 23,
    "city": "名古屋市瑞穂区",
    "city_kana": "ナゴヤシミズホク",
    "town": "西ノ割町",
    "town_kana": "ニシノワリチョウ",
    "street": null,
    "office_name": null,
    "office_name_kana": null
  },
  "0814": {
    "postcode": "4670814",
    "prefecture": "愛知県",
    "prefecture_kana": "アイチケン",
    "prefecture_code": 23,
    "city": "名古屋市瑞穂区",
    "city_kana": "ナゴヤシミズホク",
    "town": "本願寺町",
    "town_kana": "ホンガンジチョウ",
    "street": null,
    "office_name": null,
    "office_name_kana": null
  },
  "0815": {
    "postcode": "4670815",
    "prefecture": "愛知県",
    "prefecture_kana": "アイチケン",
    "prefecture_code": 23,
    "city": "名古屋市瑞穂区",
    "city_kana": "ナゴヤシミズホク",
    "town": "前田町",
    "town_kana": "マエダチョウ",
    "street": null,
    "office_name": null,
    "office_name_kana": null
  },
  "0816": {
    "postcode": "4670816",
    "prefecture": "愛知県",
    "prefecture_kana": "アイチケン",
    "prefecture_code": 23,
    "city": "名古屋市瑞穂区",
    "city_kana": "ナゴヤシミズホク",
    "town": "牧町",
    "town_kana": "マキチョウ",
    "street": null,
    "office_name": null,
    "office_name_kana": null
  },
  "0821": {
    "postcode": "4670821",
    "prefecture": "愛知県",
    "prefecture_kana": "アイチケン",
    "prefecture_code": 23,
    "city": "名古屋市瑞穂区",
    "city_kana": "ナゴヤシミズホク",
    "town": "上坂町",
    "town_kana": "カミサカチョウ",
    "street": null,
    "office_name": null,
    "office_name_kana": null
  },
  "0822": {
    "postcode": "4670822",
    "prefecture": "愛知県",
    "prefecture_kana": "アイチケン",
    "prefecture_code": 23,
    "city": "名古屋市瑞穂区",
    "city_kana": "ナゴヤシミズホク",
    "town": "大喜町",
    "town_kana": "ダイギチョウ",
    "street": null,
    "office_name": null,
    "office_name_kana": null
  },
  "0823": {
    "postcode": "4670823",
    "prefecture": "愛知県",
    "prefecture_kana": "アイチケン",
    "prefecture_code": 23,
    "city": "名古屋市瑞穂区",
    "city_kana": "ナゴヤシミズホク",
    "town": "津賀田町",
    "town_kana": "ツカタチョウ",
    "street": null,
    "office_name": null,
    "office_name_kana": null
  },
  "0824": {
    "postcode": "4670824",
    "prefecture": "愛知県",
    "prefecture_kana": "アイチケン",
    "prefecture_code": 23,
    "city": "名古屋市瑞穂区",
    "city_kana": "ナゴヤシミズホク",
    "town": "甲山町",
    "town_kana": "カブトヤマチョウ",
    "street": null,
    "office_name": null,
    "office_name_kana": null
  },
  "0825": {
    "postcode": "4670825",
    "prefecture": "愛知県",
    "prefecture_kana": "アイチケン",
    "prefecture_code": 23,
    "city": "名古屋市瑞穂区",
    "city_kana": "ナゴヤシミズホク",
    "town": "柳ケ枝町",
    "town_kana": "ヤナガエチョウ",
    "street": null,
    "office_name": null,
    "office_name_kana": null
  },
  "0826": {
    "postcode": "4670826",
    "prefecture": "愛知県",
    "prefecture_kana": "アイチケン",
    "prefecture_code": 23,
    "city": "名古屋市瑞穂区",
    "city_kana": "ナゴヤシミズホク",
    "town": "白龍町",
    "town_kana": "ハクリュウチョウ",
    "street": null,
    "office_name": null,
    "office_name_kana": null
  },
  "0827": {
    "postcode": "4670827",
    "prefecture": "愛知県",
    "prefecture_kana": "アイチケン",
    "prefecture_code": 23,
    "city": "名古屋市瑞穂区",
    "city_kana": "ナゴヤシミズホク",
    "town": "下坂町",
    "town_kana": "シモサカチョウ",
    "street": null,
    "office_name": null,
    "office_name_kana": null
  },
  "0828": {
    "postcode": "4670828",
    "prefecture": "愛知県",
    "prefecture_kana": "アイチケン",
    "prefecture_code": 23,
    "city": "名古屋市瑞穂区",
    "city_kana": "ナゴヤシミズホク",
    "town": "田光町",
    "town_kana": "タコウチョウ",
    "street": null,
    "office_name": null,
    "office_name_kana": null
  },
  "0831": {
    "postcode": "4670831",
    "prefecture": "愛知県",
    "prefecture_kana": "アイチケン",
    "prefecture_code": 23,
    "city": "名古屋市瑞穂区",
    "city_kana": "ナゴヤシミズホク",
    "town": "惣作町",
    "town_kana": "ソウサクチョウ",
    "street": null,
    "office_name": null,
    "office_name_kana": null
  },
  "0832": {
    "postcode": "4670832",
    "prefecture": "愛知県",
    "prefecture_kana": "アイチケン",
    "prefecture_code": 23,
    "city": "名古屋市瑞穂区",
    "city_kana": "ナゴヤシミズホク",
    "town": "神前町",
    "town_kana": "カミマエチョウ",
    "street": null,
    "office_name": null,
    "office_name_kana": null
  },
  "0833": {
    "postcode": "4670833",
    "prefecture": "愛知県",
    "prefecture_kana": "アイチケン",
    "prefecture_code": 23,
    "city": "名古屋市瑞穂区",
    "city_kana": "ナゴヤシミズホク",
    "town": "鍵田町",
    "town_kana": "カギタチョウ",
    "street": null,
    "office_name": null,
    "office_name_kana": null
  },
  "0834": {
    "postcode": "4670834",
    "prefecture": "愛知県",
    "prefecture_kana": "アイチケン",
    "prefecture_code": 23,
    "city": "名古屋市瑞穂区",
    "city_kana": "ナゴヤシミズホク",
    "town": "姫宮町",
    "town_kana": "ヒメミヤチョウ",
    "street": null,
    "office_name": null,
    "office_name_kana": null
  },
  "0835": {
    "postcode": "4670835",
    "prefecture": "愛知県",
    "prefecture_kana": "アイチケン",
    "prefecture_code": 23,
    "city": "名古屋市瑞穂区",
    "city_kana": "ナゴヤシミズホク",
    "town": "井戸田町",
    "town_kana": "イドタチョウ",
    "street": null,
    "office_name": null,
    "office_name_kana": null
  },
  "0836": {
    "postcode": "4670836",
    "prefecture": "愛知県",
    "prefecture_kana": "アイチケン",
    "prefecture_code": 23,
    "city": "名古屋市瑞穂区",
    "city_kana": "ナゴヤシミズホク",
    "town": "佃町",
    "town_kana": "ツクダチョウ",
    "street": null,
    "office_name": null,
    "office_name_kana": null
  },
  "0837": {
    "postcode": "4670837",
    "prefecture": "愛知県",
    "prefecture_kana": "アイチケン",
    "prefecture_code": 23,
    "city": "名古屋市瑞穂区",
    "city_kana": "ナゴヤシミズホク",
    "town": "花目町",
    "town_kana": "ハナメチョウ",
    "street": null,
    "office_name": null,
    "office_name_kana": null
  },
  "0841": {
    "postcode": "4670841",
    "prefecture": "愛知県",
    "prefecture_kana": "アイチケン",
    "prefecture_code": 23,
    "city": "名古屋市瑞穂区",
    "city_kana": "ナゴヤシミズホク",
    "town": "苗代町",
    "town_kana": "ナエシロチョウ",
    "street": null,
    "office_name": null,
    "office_name_kana": null
  },
  "0842": {
    "postcode": "4670842",
    "prefecture": "愛知県",
    "prefecture_kana": "アイチケン",
    "prefecture_code": 23,
    "city": "名古屋市瑞穂区",
    "city_kana": "ナゴヤシミズホク",
    "town": "妙音通",
    "town_kana": "ミョウオントオリ",
    "street": null,
    "office_name": null,
    "office_name_kana": null
  },
  "0843": {
    "postcode": "4670843",
    "prefecture": "愛知県",
    "prefecture_kana": "アイチケン",
    "prefecture_code": 23,
    "city": "名古屋市瑞穂区",
    "city_kana": "ナゴヤシミズホク",
    "town": "土市町",
    "town_kana": "ドイチチョウ",
    "street": null,
    "office_name": null,
    "office_name_kana": null
  },
  "0844": {
    "postcode": "4670844",
    "prefecture": "愛知県",
    "prefecture_kana": "アイチケン",
    "prefecture_code": 23,
    "city": "名古屋市瑞穂区",
    "city_kana": "ナゴヤシミズホク",
    "town": "河岸町",
    "town_kana": "カワギシチョウ",
    "street": null,
    "office_name": null,
    "office_name_kana": null
  },
  "0845": {
    "postcode": "4670845",
    "prefecture": "愛知県",
    "prefecture_kana": "アイチケン",
    "prefecture_code": 23,
    "city": "名古屋市瑞穂区",
    "city_kana": "ナゴヤシミズホク",
    "town": "河岸",
    "town_kana": "カワギシ",
    "street": null,
    "office_name": null,
    "office_name_kana": null
  },
  "0846": {
    "postcode": "4670846",
    "prefecture": "愛知県",
    "prefecture_kana": "アイチケン",
    "prefecture_code": 23,
    "city": "名古屋市瑞穂区",
    "city_kana": "ナゴヤシミズホク",
    "town": "荒崎町",
    "town_kana": "アラサキチョウ",
    "street": null,
    "office_name": null,
    "office_name_kana": null
  },
  "0847": {
    "postcode": "4670847",
    "prefecture": "愛知県",
    "prefecture_kana": "アイチケン",
    "prefecture_code": 23,
    "city": "名古屋市瑞穂区",
    "city_kana": "ナゴヤシミズホク",
    "town": "神穂町",
    "town_kana": "カミホチョウ",
    "street": null,
    "office_name": null,
    "office_name_kana": null
  },
  "0851": {
    "postcode": "4670851",
    "prefecture": "愛知県",
    "prefecture_kana": "アイチケン",
    "prefecture_code": 23,
    "city": "名古屋市瑞穂区",
    "city_kana": "ナゴヤシミズホク",
    "town": "塩入町",
    "town_kana": "シオイリチョウ",
    "street": null,
    "office_name": null,
    "office_name_kana": null
  },
  "0852": {
    "postcode": "4670852",
    "prefecture": "愛知県",
    "prefecture_kana": "アイチケン",
    "prefecture_code": 23,
    "city": "名古屋市瑞穂区",
    "city_kana": "ナゴヤシミズホク",
    "town": "明前町",
    "town_kana": "メイゼンチョウ",
    "street": null,
    "office_name": null,
    "office_name_kana": null
  },
  "0853": {
    "postcode": "4670853",
    "prefecture": "愛知県",
    "prefecture_kana": "アイチケン",
    "prefecture_code": 23,
    "city": "名古屋市瑞穂区",
    "city_kana": "ナゴヤシミズホク",
    "town": "内浜町",
    "town_kana": "ウチハマチョウ",
    "street": null,
    "office_name": null,
    "office_name_kana": null
  },
  "0854": {
    "postcode": "4670854",
    "prefecture": "愛知県",
    "prefecture_kana": "アイチケン",
    "prefecture_code": 23,
    "city": "名古屋市瑞穂区",
    "city_kana": "ナゴヤシミズホク",
    "town": "浮島町",
    "town_kana": "ウキシマチョウ",
    "street": null,
    "office_name": null,
    "office_name_kana": null
  },
  "0855": {
    "postcode": "4670855",
    "prefecture": "愛知県",
    "prefecture_kana": "アイチケン",
    "prefecture_code": 23,
    "city": "名古屋市瑞穂区",
    "city_kana": "ナゴヤシミズホク",
    "town": "桃園町",
    "town_kana": "モモゾノチョウ",
    "street": null,
    "office_name": null,
    "office_name_kana": null
  },
  "0856": {
    "postcode": "4670856",
    "prefecture": "愛知県",
    "prefecture_kana": "アイチケン",
    "prefecture_code": 23,
    "city": "名古屋市瑞穂区",
    "city_kana": "ナゴヤシミズホク",
    "town": "新開町",
    "town_kana": "シンカイチョウ",
    "street": null,
    "office_name": null,
    "office_name_kana": null
  },
  "0861": {
    "postcode": "4670861",
    "prefecture": "愛知県",
    "prefecture_kana": "アイチケン",
    "prefecture_code": 23,
    "city": "名古屋市瑞穂区",
    "city_kana": "ナゴヤシミズホク",
    "town": "二野町",
    "town_kana": "フタノチョウ",
    "street": null,
    "office_name": null,
    "office_name_kana": null
  },
  "0862": {
    "postcode": "4670862",
    "prefecture": "愛知県",
    "prefecture_kana": "アイチケン",
    "prefecture_code": 23,
    "city": "名古屋市瑞穂区",
    "city_kana": "ナゴヤシミズホク",
    "town": "堀田通",
    "town_kana": "ホリタトオリ",
    "street": null,
    "office_name": null,
    "office_name_kana": null
  },
  "0863": {
    "postcode": "4670863",
    "prefecture": "愛知県",
    "prefecture_kana": "アイチケン",
    "prefecture_code": 23,
    "city": "名古屋市瑞穂区",
    "city_kana": "ナゴヤシミズホク",
    "town": "牛巻町",
    "town_kana": "ウシマキチョウ",
    "street": null,
    "office_name": null,
    "office_name_kana": null
  },
  "0864": {
    "postcode": "4670864",
    "prefecture": "愛知県",
    "prefecture_kana": "アイチケン",
    "prefecture_code": 23,
    "city": "名古屋市瑞穂区",
    "city_kana": "ナゴヤシミズホク",
    "town": "豆田町",
    "town_kana": "マメダチョウ",
    "street": null,
    "office_name": null,
    "office_name_kana": null
  },
  "0865": {
    "postcode": "4670865",
    "prefecture": "愛知県",
    "prefecture_kana": "アイチケン",
    "prefecture_code": 23,
    "city": "名古屋市瑞穂区",
    "city_kana": "ナゴヤシミズホク",
    "town": "直来町",
    "town_kana": "ナオライチョウ",
    "street": null,
    "office_name": null,
    "office_name_kana": null
  },
  "0866": {
    "postcode": "4670866",
    "prefecture": "愛知県",
    "prefecture_kana": "アイチケン",
    "prefecture_code": 23,
    "city": "名古屋市瑞穂区",
    "city_kana": "ナゴヤシミズホク",
    "town": "宝田町",
    "town_kana": "ホウデンチョウ",
    "street": null,
    "office_name": null,
    "office_name_kana": null
  },
  "0867": {
    "postcode": "4670867",
    "prefecture": "愛知県",
    "prefecture_kana": "アイチケン",
    "prefecture_code": 23,
    "city": "名古屋市瑞穂区",
    "city_kana": "ナゴヤシミズホク",
    "town": "春敲町",
    "town_kana": "シュンコウチョウ",
    "street": null,
    "office_name": null,
    "office_name_kana": null
  },
  "0868": {
    "postcode": "4670868",
    "prefecture": "愛知県",
    "prefecture_kana": "アイチケン",
    "prefecture_code": 23,
    "city": "名古屋市瑞穂区",
    "city_kana": "ナゴヤシミズホク",
    "town": "大喜新町",
    "town_kana": "ダイギシンチョウ",
    "street": null,
    "office_name": null,
    "office_name_kana": null
  },
  "0871": {
    "postcode": "4670871",
    "prefecture": "愛知県",
    "prefecture_kana": "アイチケン",
    "prefecture_code": 23,
    "city": "名古屋市瑞穂区",
    "city_kana": "ナゴヤシミズホク",
    "town": "須田町",
    "town_kana": "スダチョウ",
    "street": null,
    "office_name": null,
    "office_name_kana": null
  },
  "0872": {
    "postcode": "4670872",
    "prefecture": "愛知県",
    "prefecture_kana": "アイチケン",
    "prefecture_code": 23,
    "city": "名古屋市瑞穂区",
    "city_kana": "ナゴヤシミズホク",
    "town": "高辻町",
    "town_kana": "タカツジチョウ",
    "street": null,
    "office_name": null,
    "office_name_kana": null
  },
  "0873": {
    "postcode": "4670873",
    "prefecture": "愛知県",
    "prefecture_kana": "アイチケン",
    "prefecture_code": 23,
    "city": "名古屋市瑞穂区",
    "city_kana": "ナゴヤシミズホク",
    "town": "竹田町",
    "town_kana": "タケダチョウ",
    "street": null,
    "office_name": null,
    "office_name_kana": null
  },
  "0874": {
    "postcode": "4670874",
    "prefecture": "愛知県",
    "prefecture_kana": "アイチケン",
    "prefecture_code": 23,
    "city": "名古屋市瑞穂区",
    "city_kana": "ナゴヤシミズホク",
    "town": "太田町",
    "town_kana": "オオタチョウ",
    "street": null,
    "office_name": null,
    "office_name_kana": null
  },
  "0875": {
    "postcode": "4670875",
    "prefecture": "愛知県",
    "prefecture_kana": "アイチケン",
    "prefecture_code": 23,
    "city": "名古屋市瑞穂区",
    "city_kana": "ナゴヤシミズホク",
    "town": "御劔町",
    "town_kana": "ミツルギチョウ",
    "street": null,
    "office_name": null,
    "office_name_kana": null
  },
  "0876": {
    "postcode": "4670876",
    "prefecture": "愛知県",
    "prefecture_kana": "アイチケン",
    "prefecture_code": 23,
    "city": "名古屋市瑞穂区",
    "city_kana": "ナゴヤシミズホク",
    "town": "亀城町",
    "town_kana": "カメシロチョウ",
    "street": null,
    "office_name": null,
    "office_name_kana": null
  },
  "0877": {
    "postcode": "4670877",
    "prefecture": "愛知県",
    "prefecture_kana": "アイチケン",
    "prefecture_code": 23,
    "city": "名古屋市瑞穂区",
    "city_kana": "ナゴヤシミズホク",
    "town": "雁道町",
    "town_kana": "ガンミチチョウ",
    "street": null,
    "office_name": null,
    "office_name_kana": null
  },
  "0878": {
    "postcode": "4670878",
    "prefecture": "愛知県",
    "prefecture_kana": "アイチケン",
    "prefecture_code": 23,
    "city": "名古屋市瑞穂区",
    "city_kana": "ナゴヤシミズホク",
    "town": "船原町",
    "town_kana": "フナバラチョウ",
    "street": null,
    "office_name": null,
    "office_name_kana": null
  },
  "0879": {
    "postcode": "4670879",
    "prefecture": "愛知県",
    "prefecture_kana": "アイチケン",
    "prefecture_code": 23,
    "city": "名古屋市瑞穂区",
    "city_kana": "ナゴヤシミズホク",
    "town": "平郷町",
    "town_kana": "ヘイゴウチョウ",
    "street": null,
    "office_name": null,
    "office_name_kana": null
  },
  "8501": {
    "postcode": "4678501",
    "prefecture": "愛知県",
    "prefecture_kana": "アイチケン",
    "prefecture_code": 23,
    "city": "名古屋市瑞穂区",
    "city_kana": "ナゴヤシミズホク",
    "town": "瑞穂町",
    "town_kana": "ミズホチョウ",
    "street": "字山の畑１",
    "office_name": "名古屋市立大学　（経済学部、人文社会学部、教養教育、自然科学研究教育センター、計算センター）",
    "office_name_kana": "ナゴヤシリツダイガク (ケイザイガクブ、ジンブンシヤカイガクブ、キヨウヨウキヨウイク、シゼンカガクケンキユウキヨウイクセンタ-、ケイサンセンタ-)"
  },
  "8510": {
    "postcode": "4678510",
    "prefecture": "愛知県",
    "prefecture_kana": "アイチケン",
    "prefecture_code": 23,
    "city": "名古屋市瑞穂区",
    "city_kana": "ナゴヤシミズホク",
    "town": "瑞穂町",
    "town_kana": "ミズホチョウ",
    "street": "字西藤塚１−４",
    "office_name": "昭和税務署",
    "office_name_kana": "シヨウワゼイムシヨ"
  },
  "8511": {
    "postcode": "4678511",
    "prefecture": "愛知県",
    "prefecture_kana": "アイチケン",
    "prefecture_code": 23,
    "city": "名古屋市瑞穂区",
    "city_kana": "ナゴヤシミズホク",
    "town": "高田町",
    "town_kana": "タカタチョウ",
    "street": "４丁目１９",
    "office_name": "名古屋大谷高等学校",
    "office_name_kana": "ナゴヤオオタニコウトウガツコウ"
  },
  "8520": {
    "postcode": "4678520",
    "prefecture": "愛知県",
    "prefecture_kana": "アイチケン",
    "prefecture_code": 23,
    "city": "名古屋市瑞穂区",
    "city_kana": "ナゴヤシミズホク",
    "town": "洲雲町",
    "town_kana": "スグモチョウ",
    "street": "４丁目４５番地",
    "office_name": "株式会社　シーテック",
    "office_name_kana": "カブシキガイシヤ シ-テツク"
  },
  "8521": {
    "postcode": "4678521",
    "prefecture": "愛知県",
    "prefecture_kana": "アイチケン",
    "prefecture_code": 23,
    "city": "名古屋市瑞穂区",
    "city_kana": "ナゴヤシミズホク",
    "town": "春敲町",
    "town_kana": "シュンコウチョウ",
    "street": "２丁目１３",
    "office_name": "瑞穂高等学校",
    "office_name_kana": "ミズホコウトウガツコウ"
  },
  "8522": {
    "postcode": "4678522",
    "prefecture": "愛知県",
    "prefecture_kana": "アイチケン",
    "prefecture_code": 23,
    "city": "名古屋市瑞穂区",
    "city_kana": "ナゴヤシミズホク",
    "town": "豆田町",
    "town_kana": "マメダチョウ",
    "street": "５丁目２",
    "office_name": "マドラス　株式会社",
    "office_name_kana": "マドラス カブシキガイシヤ"
  },
  "8530": {
    "postcode": "4678530",
    "prefecture": "愛知県",
    "prefecture_kana": "アイチケン",
    "prefecture_code": 23,
    "city": "名古屋市瑞穂区",
    "city_kana": "ナゴヤシミズホク",
    "town": "須田町",
    "town_kana": "スダチョウ",
    "street": "２−５６",
    "office_name": "日本ガイシ　株式会社",
    "office_name_kana": "ニホンガイシ カブシキガイシヤ"
  },
  "8531": {
    "postcode": "4678531",
    "prefecture": "愛知県",
    "prefecture_kana": "アイチケン",
    "prefecture_code": 23,
    "city": "名古屋市瑞穂区",
    "city_kana": "ナゴヤシミズホク",
    "town": "瑞穂通",
    "town_kana": "ミズホトオリ",
    "street": "３丁目３２",
    "office_name": "名古屋市瑞穂区役所",
    "office_name_kana": "ナゴヤシミズホクヤクシヨ"
  },
  "8533": {
    "postcode": "4678533",
    "prefecture": "愛知県",
    "prefecture_kana": "アイチケン",
    "prefecture_code": 23,
    "city": "名古屋市瑞穂区",
    "city_kana": "ナゴヤシミズホク",
    "town": "瑞穂通",
    "town_kana": "ミズホトオリ",
    "street": "３丁目２１",
    "office_name": "丸美産業　株式会社",
    "office_name_kana": "マルミサンギヨウ カブシキガイシヤ"
  },
  "8555": {
    "postcode": "4678555",
    "prefecture": "愛知県",
    "prefecture_kana": "アイチケン",
    "prefecture_code": 23,
    "city": "名古屋市瑞穂区",
    "city_kana": "ナゴヤシミズホク",
    "town": "新開町",
    "town_kana": "シンカイチョウ",
    "street": "１２−６",
    "office_name": "一般社団法人　愛知県トラック協会",
    "office_name_kana": "イツパンシヤダンホウジン アイチケントラツクキヨウカイ"
  },
  "8558": {
    "postcode": "4678558",
    "prefecture": "愛知県",
    "prefecture_kana": "アイチケン",
    "prefecture_code": 23,
    "city": "名古屋市瑞穂区",
    "city_kana": "ナゴヤシミズホク",
    "town": "高田町",
    "town_kana": "タカタチョウ",
    "street": "３丁目２８",
    "office_name": "名古屋経済大学高蔵高等学校　名古屋経済大学高蔵中学校",
    "office_name_kana": "ナゴヤケイザイダイガクタカクラコウトウガツコウ ナゴヤケイザイダイガクタカクラチユウガツコウ"
  },
  "8561": {
    "postcode": "4678561",
    "prefecture": "愛知県",
    "prefecture_kana": "アイチケン",
    "prefecture_code": 23,
    "city": "名古屋市瑞穂区",
    "city_kana": "ナゴヤシミズホク",
    "town": "苗代町",
    "town_kana": "ナエシロチョウ",
    "street": "１５−１",
    "office_name": "ブラザー工業　株式会社　本社",
    "office_name_kana": "ブラザ-コウギヨウ カブシキガイシヤ ホンシヤ"
  },
  "8562": {
    "postcode": "4678562",
    "prefecture": "愛知県",
    "prefecture_kana": "アイチケン",
    "prefecture_code": 23,
    "city": "名古屋市瑞穂区",
    "city_kana": "ナゴヤシミズホク",
    "town": "河岸",
    "town_kana": "カワギシ",
    "street": "１丁目１−１",
    "office_name": "ブラザー工業　株式会社　瑞穂工場",
    "office_name_kana": "ブラザ-コウギヨウ カブシキガイシヤ ミズホコウジヨウ"
  },
  "8563": {
    "postcode": "4678563",
    "prefecture": "愛知県",
    "prefecture_kana": "アイチケン",
    "prefecture_code": 23,
    "city": "名古屋市瑞穂区",
    "city_kana": "ナゴヤシミズホク",
    "town": "内浜町",
    "town_kana": "ウチハマチョウ",
    "street": "２４−１",
    "office_name": "株式会社　中央製作所",
    "office_name_kana": "カブシキガイシヤ チユウオウセイサクシヨ"
  },
  "8566": {
    "postcode": "4678566",
    "prefecture": "愛知県",
    "prefecture_kana": "アイチケン",
    "prefecture_code": 23,
    "city": "名古屋市瑞穂区",
    "city_kana": "ナゴヤシミズホク",
    "town": "苗代町",
    "town_kana": "ナエシロチョウ",
    "street": "２−１",
    "office_name": "株式会社　エクシング",
    "office_name_kana": "カブシキガイシヤ エクシング"
  },
  "8567": {
    "postcode": "4678567",
    "prefecture": "愛知県",
    "prefecture_kana": "アイチケン",
    "prefecture_code": 23,
    "city": "名古屋市瑞穂区",
    "city_kana": "ナゴヤシミズホク",
    "town": "明前町",
    "town_kana": "メイゼンチョウ",
    "street": "６−１４",
    "office_name": "株式会社　エルモ社",
    "office_name_kana": "カブシキガイシヤ エルモシヤ"
  },
  "8571": {
    "postcode": "4678571",
    "prefecture": "愛知県",
    "prefecture_kana": "アイチケン",
    "prefecture_code": 23,
    "city": "名古屋市瑞穂区",
    "city_kana": "ナゴヤシミズホク",
    "town": "塩入町",
    "town_kana": "シオイリチョウ",
    "street": "１９−１２",
    "office_name": "石原商事　株式会社",
    "office_name_kana": "イシハラシヨウジ カブシキガイシヤ"
  },
  "8577": {
    "postcode": "4678577",
    "prefecture": "愛知県",
    "prefecture_kana": "アイチケン",
    "prefecture_code": 23,
    "city": "名古屋市瑞穂区",
    "city_kana": "ナゴヤシミズホク",
    "town": "苗代町",
    "town_kana": "ナエシロチョウ",
    "street": "１５−１",
    "office_name": "ブラザー販売　株式会社",
    "office_name_kana": "ブラザ-ハンバイ カブシキガイシヤ"
  },
  "8580": {
    "postcode": "4678580",
    "prefecture": "愛知県",
    "prefecture_kana": "アイチケン",
    "prefecture_code": 23,
    "city": "名古屋市瑞穂区",
    "city_kana": "ナゴヤシミズホク",
    "town": "内浜町",
    "town_kana": "ウチハマチョウ",
    "street": "３１−２５",
    "office_name": "アミテック　株式会社",
    "office_name_kana": "アミテツク カブシキガイシヤ"
  },
  "8581": {
    "postcode": "4678581",
    "prefecture": "愛知県",
    "prefecture_kana": "アイチケン",
    "prefecture_code": 23,
    "city": "名古屋市瑞穂区",
    "city_kana": "ナゴヤシミズホク",
    "town": "塩入町",
    "town_kana": "シオイリチョウ",
    "street": "１５−１３",
    "office_name": "木村刃物製造　株式会社",
    "office_name_kana": "キムラハモノセイゾウ カブシキガイシヤ"
  },
  "8585": {
    "postcode": "4678585",
    "prefecture": "愛知県",
    "prefecture_kana": "アイチケン",
    "prefecture_code": 23,
    "city": "名古屋市瑞穂区",
    "city_kana": "ナゴヤシミズホク",
    "town": "桃園町",
    "town_kana": "モモゾノチョウ",
    "street": "６−２３",
    "office_name": "株式会社　パロマ",
    "office_name_kana": "カブシキガイシヤ パロマ"
  },
  "8588": {
    "postcode": "4678588",
    "prefecture": "愛知県",
    "prefecture_kana": "アイチケン",
    "prefecture_code": 23,
    "city": "名古屋市瑞穂区",
    "city_kana": "ナゴヤシミズホク",
    "town": "神穂町",
    "town_kana": "カミホチョウ",
    "street": "７−１",
    "office_name": "愛知日野自動車　株式会社",
    "office_name_kana": "アイチヒノジドウシヤ カブシキガイシヤ"
  },
  "8601": {
    "postcode": "4678601",
    "prefecture": "愛知県",
    "prefecture_kana": "アイチケン",
    "prefecture_code": 23,
    "city": "名古屋市瑞穂区",
    "city_kana": "ナゴヤシミズホク",
    "town": "瑞穂町",
    "town_kana": "ミズホチョウ",
    "street": "字川澄１",
    "office_name": "公立大学法人　名古屋市立大学",
    "office_name_kana": "コウリツダイガクホウジン ナゴヤシリツダイガク"
  },
  "8602": {
    "postcode": "4678602",
    "prefecture": "愛知県",
    "prefecture_kana": "アイチケン",
    "prefecture_code": 23,
    "city": "名古屋市瑞穂区",
    "city_kana": "ナゴヤシミズホク",
    "town": "瑞穂町",
    "town_kana": "ミズホチョウ",
    "street": "字川澄１",
    "office_name": "名古屋市立　大学病院",
    "office_name_kana": "ナゴヤシリツ ダイガクビヨウイン"
  },
  "8603": {
    "postcode": "4678603",
    "prefecture": "愛知県",
    "prefecture_kana": "アイチケン",
    "prefecture_code": 23,
    "city": "名古屋市瑞穂区",
    "city_kana": "ナゴヤシミズホク",
    "town": "田辺通",
    "town_kana": "タナベトオリ",
    "street": "３丁目１",
    "office_name": "名古屋市立大学　薬学部",
    "office_name_kana": "ナゴヤシリツダイガク ヤクガクブ"
  },
  "8610": {
    "postcode": "4678610",
    "prefecture": "愛知県",
    "prefecture_kana": "アイチケン",
    "prefecture_code": 23,
    "city": "名古屋市瑞穂区",
    "city_kana": "ナゴヤシミズホク",
    "town": "汐路町",
    "town_kana": "シオジチョウ",
    "street": "３丁目４０",
    "office_name": "名古屋女子大学・名古屋女子大学短期大学部",
    "office_name_kana": "ナゴヤジヨシダイガク・ナゴヤジヨシダイガクタンキダイガクブ"
  },
  "8611": {
    "postcode": "4678611",
    "prefecture": "愛知県",
    "prefecture_kana": "アイチケン",
    "prefecture_code": 23,
    "city": "名古屋市瑞穂区",
    "city_kana": "ナゴヤシミズホク",
    "town": "汐路町",
    "town_kana": "シオジチョウ",
    "street": "４丁目２１",
    "office_name": "名古屋女子大学中学校・高等学校",
    "office_name_kana": "ナゴヤジヨシダイガクチユウガツコウ・コウトウガツコウ"
  },
  "8622": {
    "postcode": "4678622",
    "prefecture": "愛知県",
    "prefecture_kana": "アイチケン",
    "prefecture_code": 23,
    "city": "名古屋市瑞穂区",
    "city_kana": "ナゴヤシミズホク",
    "town": "彌富町",
    "town_kana": null,
    "street": "字密柑山１−２",
    "office_name": "名古屋市総合リハビリテーションセンター",
    "office_name_kana": "ナゴヤシソウゴウリハビリテ-シヨンセンタ-"
  },
  "8626": {
    "postcode": "4678626",
    "prefecture": "愛知県",
    "prefecture_kana": "アイチケン",
    "prefecture_code": 23,
    "city": "名古屋市瑞穂区",
    "city_kana": "ナゴヤシミズホク",
    "town": "汐路町",
    "town_kana": "シオジチョウ",
    "street": "１丁目２６",
    "office_name": "享栄高等学校",
    "office_name_kana": "キヨウエイコウトウガツコウ"
  },
  "8633": {
    "postcode": "4678633",
    "prefecture": "愛知県",
    "prefecture_kana": "アイチケン",
    "prefecture_code": 23,
    "city": "名古屋市瑞穂区",
    "city_kana": "ナゴヤシミズホク",
    "town": "玉水町",
    "town_kana": "タマミズチョウ",
    "street": "１丁目３−２",
    "office_name": "（医）新生会　新生会・第一病院",
    "office_name_kana": "(イ)シンセイカイ シンセイカイ・ダイイチビヨウイン"
  },
  "8639": {
    "postcode": "4678639",
    "prefecture": "愛知県",
    "prefecture_kana": "アイチケン",
    "prefecture_code": 23,
    "city": "名古屋市瑞穂区",
    "city_kana": "ナゴヤシミズホク",
    "town": "玉水町",
    "town_kana": "タマミズチョウ",
    "street": "１丁目１８",
    "office_name": "愛知県立昭和高校",
    "office_name_kana": "アイチケンリツシヨウワコウコウ"
  },
  "8651": {
    "postcode": "4678651",
    "prefecture": "愛知県",
    "prefecture_kana": "アイチケン",
    "prefecture_code": 23,
    "city": "名古屋市瑞穂区",
    "city_kana": "ナゴヤシミズホク",
    "town": "松園町",
    "town_kana": "マツソノチョウ",
    "street": "１丁目５０（瑞穂郵便局私書箱第６８号）",
    "office_name": "フジパン　株式会社",
    "office_name_kana": "フジパン カブシキガイシヤ"
  },
  "8686": {
    "postcode": "4678686",
    "prefecture": "愛知県",
    "prefecture_kana": "アイチケン",
    "prefecture_code": 23,
    "city": "名古屋市瑞穂区",
    "city_kana": "ナゴヤシミズホク",
    "town": "松園町",
    "town_kana": "マツソノチョウ",
    "street": "１丁目５０（瑞穂郵便局私書箱第７０号）",
    "office_name": "フジパンストアー　株式会社",
    "office_name_kana": "フジパンストア- カブシキガイシヤ"
  }
}