{
  "0000": {
    "postcode": "4680000",
    "prefecture": "愛知県",
    "prefecture_kana": "アイチケン",
    "prefecture_code": 23,
    "city": "名古屋市天白区",
    "city_kana": "ナゴヤシテンパクク",
    "town": "",
    "town_kana": "",
    "street": null,
    "office_name": null,
    "office_name_kana": null
  },
  "0001": {
    "postcode": "4680001",
    "prefecture": "愛知県",
    "prefecture_kana": "アイチケン",
    "prefecture_code": 23,
    "city": "名古屋市天白区",
    "city_kana": "ナゴヤシテンパクク",
    "town": "植田山",
    "town_kana": "ウエダヤマ",
    "street": null,
    "office_name": null,
    "office_name_kana": null
  },
  "0002": {
    "postcode": "4680002",
    "prefecture": "愛知県",
    "prefecture_kana": "アイチケン",
    "prefecture_code": 23,
    "city": "名古屋市天白区",
    "city_kana": "ナゴヤシテンパクク",
    "town": "焼山",
    "town_kana": "ヤキヤマ",
    "street": null,
    "office_name": null,
    "office_name_kana": null
  },
  "0003": {
    "postcode": "4680003",
    "prefecture": "愛知県",
    "prefecture_kana": "アイチケン",
    "prefecture_code": 23,
    "city": "名古屋市天白区",
    "city_kana": "ナゴヤシテンパクク",
    "town": "鴻の巣",
    "town_kana": "コウノス",
    "street": null,
    "office_name": null,
    "office_name_kana": null
  },
  "0004": {
    "postcode": "4680004",
    "prefecture": "愛知県",
    "prefecture_kana": "アイチケン",
    "prefecture_code": 23,
    "city": "名古屋市天白区",
    "city_kana": "ナゴヤシテンパクク",
    "town": "梅が丘",
    "town_kana": "ウメガオカ",
    "street": null,
    "office_name": null,
    "office_name_kana": null
  },
  "0005": {
    "postcode": "4680005",
    "prefecture": "愛知県",
    "prefecture_kana": "アイチケン",
    "prefecture_code": 23,
    "city": "名古屋市天白区",
    "city_kana": "ナゴヤシテンパクク",
    "town": "天白町植田",
    "town_kana": "テンパクチョウウエダ",
    "street": null,
    "office_name": null,
    "office_name_kana": null
  },
  "0006": {
    "postcode": "4680006",
    "prefecture": "愛知県",
    "prefecture_kana": "アイチケン",
    "prefecture_code": 23,
    "city": "名古屋市天白区",
    "city_kana": "ナゴヤシテンパクク",
    "town": "植田東",
    "town_kana": "ウエダヒガシ",
    "street": null,
    "office_name": null,
    "office_name_kana": null
  },
  "0007": {
    "postcode": "4680007",
    "prefecture": "愛知県",
    "prefecture_kana": "アイチケン",
    "prefecture_code": 23,
    "city": "名古屋市天白区",
    "city_kana": "ナゴヤシテンパクク",
    "town": "植田本町",
    "town_kana": "ウエダホンマチ",
    "street": null,
    "office_name": null,
    "office_name_kana": null
  },
  "0008": {
    "postcode": "4680008",
    "prefecture": "愛知県",
    "prefecture_kana": "アイチケン",
    "prefecture_code": 23,
    "city": "名古屋市天白区",
    "city_kana": "ナゴヤシテンパクク",
    "town": "一本松",
    "town_kana": "イッポンマツ",
    "street": null,
    "office_name": null,
    "office_name_kana": null
  },
  "0009": {
    "postcode": "4680009",
    "prefecture": "愛知県",
    "prefecture_kana": "アイチケン",
    "prefecture_code": 23,
    "city": "名古屋市天白区",
    "city_kana": "ナゴヤシテンパクク",
    "town": "元植田",
    "town_kana": "モトウエダ",
    "street": null,
    "office_name": null,
    "office_name_kana": null
  },
  "0011": {
    "postcode": "4680011",
    "prefecture": "愛知県",
    "prefecture_kana": "アイチケン",
    "prefecture_code": 23,
    "city": "名古屋市天白区",
    "city_kana": "ナゴヤシテンパクク",
    "town": "平針",
    "town_kana": "ヒラバリ",
    "street": null,
    "office_name": null,
    "office_name_kana": null
  },
  "0012": {
    "postcode": "4680012",
    "prefecture": "愛知県",
    "prefecture_kana": "アイチケン",
    "prefecture_code": 23,
    "city": "名古屋市天白区",
    "city_kana": "ナゴヤシテンパクク",
    "town": "向が丘",
    "town_kana": "ムカイガオカ",
    "street": null,
    "office_name": null,
    "office_name_kana": null
  },
  "0013": {
    "postcode": "4680013",
    "prefecture": "愛知県",
    "prefecture_kana": "アイチケン",
    "prefecture_code": 23,
    "city": "名古屋市天白区",
    "city_kana": "ナゴヤシテンパクク",
    "town": "荒池",
    "town_kana": "アライケ",
    "street": null,
    "office_name": null,
    "office_name_kana": null
  },
  "0014": {
    "postcode": "4680014",
    "prefecture": "愛知県",
    "prefecture_kana": "アイチケン",
    "prefecture_code": 23,
    "city": "名古屋市天白区",
    "city_kana": "ナゴヤシテンパクク",
    "town": "中平",
    "town_kana": "ナカヒラ",
    "street": null,
    "office_name": null,
    "office_name_kana": null
  },
  "0015": {
    "postcode": "4680015",
    "prefecture": "愛知県",
    "prefecture_kana": "アイチケン",
    "prefecture_code": 23,
    "city": "名古屋市天白区",
    "city_kana": "ナゴヤシテンパクク",
    "town": "原",
    "town_kana": "ハラ",
    "street": null,
    "office_name": null,
    "office_name_kana": null
  },
  "0020": {
    "postcode": "4680020",
    "prefecture": "愛知県",
    "prefecture_kana": "アイチケン",
    "prefecture_code": 23,
    "city": "名古屋市天白区",
    "city_kana": "ナゴヤシテンパクク",
    "town": "平針南",
    "town_kana": "ヒラバリミナミ",
    "street": null,
    "office_name": null,
    "office_name_kana": null
  },
  "0021": {
    "postcode": "4680021",
    "prefecture": "愛知県",
    "prefecture_kana": "アイチケン",
    "prefecture_code": 23,
    "city": "名古屋市天白区",
    "city_kana": "ナゴヤシテンパクク",
    "town": "天白町平針",
    "town_kana": "テンパクチョウヒラバリ",
    "street": null,
    "office_name": null,
    "office_name_kana": null
  },
  "0022": {
    "postcode": "4680022",
    "prefecture": "愛知県",
    "prefecture_kana": "アイチケン",
    "prefecture_code": 23,
    "city": "名古屋市天白区",
    "city_kana": "ナゴヤシテンパクク",
    "town": "高島",
    "town_kana": "タカシマ",
    "street": null,
    "office_name": null,
    "office_name_kana": null
  },
  "0023": {
    "postcode": "4680023",
    "prefecture": "愛知県",
    "prefecture_kana": "アイチケン",
    "prefecture_code": 23,
    "city": "名古屋市天白区",
    "city_kana": "ナゴヤシテンパクク",
    "town": "御前場町",
    "town_kana": "ゴゼンバチョウ",
    "street": null,
    "office_name": null,
    "office_name_kana": null
  },
  "0024": {
    "postcode": "4680024",
    "prefecture": "愛知県",
    "prefecture_kana": "アイチケン",
    "prefecture_code": 23,
    "city": "名古屋市天白区",
    "city_kana": "ナゴヤシテンパクク",
    "town": "大根町",
    "town_kana": "オオネチョウ",
    "street": null,
    "office_name": null,
    "office_name_kana": null
  },
  "0025": {
    "postcode": "4680025",
    "prefecture": "愛知県",
    "prefecture_kana": "アイチケン",
    "prefecture_code": 23,
    "city": "名古屋市天白区",
    "city_kana": "ナゴヤシテンパクク",
    "town": "高坂町",
    "town_kana": "タカサカチョウ",
    "street": null,
    "office_name": null,
    "office_name_kana": null
  },
  "0026": {
    "postcode": "4680026",
    "prefecture": "愛知県",
    "prefecture_kana": "アイチケン",
    "prefecture_code": 23,
    "city": "名古屋市天白区",
    "city_kana": "ナゴヤシテンパクク",
    "town": "土原",
    "town_kana": "ツチハラ",
    "street": null,
    "office_name": null,
    "office_name_kana": null
  },
  "0027": {
    "postcode": "4680027",
    "prefecture": "愛知県",
    "prefecture_kana": "アイチケン",
    "prefecture_code": 23,
    "city": "名古屋市天白区",
    "city_kana": "ナゴヤシテンパクク",
    "town": "天白町島田",
    "town_kana": "テンパクチョウシマダ",
    "street": null,
    "office_name": null,
    "office_name_kana": null
  },
  "0028": {
    "postcode": "4680028",
    "prefecture": "愛知県",
    "prefecture_kana": "アイチケン",
    "prefecture_code": 23,
    "city": "名古屋市天白区",
    "city_kana": "ナゴヤシテンパクク",
    "town": "島田黒石",
    "town_kana": "シマダクロイシ",
    "street": null,
    "office_name": null,
    "office_name_kana": null
  },
  "0029": {
    "postcode": "4680029",
    "prefecture": "愛知県",
    "prefecture_kana": "アイチケン",
    "prefecture_code": 23,
    "city": "名古屋市天白区",
    "city_kana": "ナゴヤシテンパクク",
    "town": "島田が丘",
    "town_kana": "シマダガオカ",
    "street": null,
    "office_name": null,
    "office_name_kana": null
  },
  "0030": {
    "postcode": "4680030",
    "prefecture": "愛知県",
    "prefecture_kana": "アイチケン",
    "prefecture_code": 23,
    "city": "名古屋市天白区",
    "city_kana": "ナゴヤシテンパクク",
    "town": "平針台",
    "town_kana": "ヒラバリダイ",
    "street": null,
    "office_name": null,
    "office_name_kana": null
  },
  "0031": {
    "postcode": "4680031",
    "prefecture": "愛知県",
    "prefecture_kana": "アイチケン",
    "prefecture_code": 23,
    "city": "名古屋市天白区",
    "city_kana": "ナゴヤシテンパクク",
    "town": "高宮町",
    "town_kana": "タカミヤチョウ",
    "street": null,
    "office_name": null,
    "office_name_kana": null
  },
  "0032": {
    "postcode": "4680032",
    "prefecture": "愛知県",
    "prefecture_kana": "アイチケン",
    "prefecture_code": 23,
    "city": "名古屋市天白区",
    "city_kana": "ナゴヤシテンパクク",
    "town": "山郷町",
    "town_kana": "サンゴウチョウ",
    "street": null,
    "office_name": null,
    "office_name_kana": null
  },
  "0033": {
    "postcode": "4680033",
    "prefecture": "愛知県",
    "prefecture_kana": "アイチケン",
    "prefecture_code": 23,
    "city": "名古屋市天白区",
    "city_kana": "ナゴヤシテンパクク",
    "town": "一つ山",
    "town_kana": "ヒトツヤマ",
    "street": null,
    "office_name": null,
    "office_name_kana": null
  },
  "0034": {
    "postcode": "4680034",
    "prefecture": "愛知県",
    "prefecture_kana": "アイチケン",
    "prefecture_code": 23,
    "city": "名古屋市天白区",
    "city_kana": "ナゴヤシテンパクク",
    "town": "久方",
    "town_kana": "ヒサカタ",
    "street": null,
    "office_name": null,
    "office_name_kana": null
  },
  "0035": {
    "postcode": "4680035",
    "prefecture": "愛知県",
    "prefecture_kana": "アイチケン",
    "prefecture_code": 23,
    "city": "名古屋市天白区",
    "city_kana": "ナゴヤシテンパクク",
    "town": "境根町",
    "town_kana": "サカイネチョウ",
    "street": null,
    "office_name": null,
    "office_name_kana": null
  },
  "0037": {
    "postcode": "4680037",
    "prefecture": "愛知県",
    "prefecture_kana": "アイチケン",
    "prefecture_code": 23,
    "city": "名古屋市天白区",
    "city_kana": "ナゴヤシテンパクク",
    "town": "天白町野並",
    "town_kana": "テンパクチョウノナミ",
    "street": null,
    "office_name": null,
    "office_name_kana": null
  },
  "0038": {
    "postcode": "4680038",
    "prefecture": "愛知県",
    "prefecture_kana": "アイチケン",
    "prefecture_code": 23,
    "city": "名古屋市天白区",
    "city_kana": "ナゴヤシテンパクク",
    "town": "山根町",
    "town_kana": "ヤマネチョウ",
    "street": null,
    "office_name": null,
    "office_name_kana": null
  },
  "0039": {
    "postcode": "4680039",
    "prefecture": "愛知県",
    "prefecture_kana": "アイチケン",
    "prefecture_code": 23,
    "city": "名古屋市天白区",
    "city_kana": "ナゴヤシテンパクク",
    "town": "西入町",
    "town_kana": "ニシイリチョウ",
    "street": null,
    "office_name": null,
    "office_name_kana": null
  },
  "0041": {
    "postcode": "4680041",
    "prefecture": "愛知県",
    "prefecture_kana": "アイチケン",
    "prefecture_code": 23,
    "city": "名古屋市天白区",
    "city_kana": "ナゴヤシテンパクク",
    "town": "保呂町",
    "town_kana": "ホロチョウ",
    "street": null,
    "office_name": null,
    "office_name_kana": null
  },
  "0042": {
    "postcode": "4680042",
    "prefecture": "愛知県",
    "prefecture_kana": "アイチケン",
    "prefecture_code": 23,
    "city": "名古屋市天白区",
    "city_kana": "ナゴヤシテンパクク",
    "town": "海老山町",
    "town_kana": "エビヤマチョウ",
    "street": null,
    "office_name": null,
    "office_name_kana": null
  },
  "0043": {
    "postcode": "4680043",
    "prefecture": "愛知県",
    "prefecture_kana": "アイチケン",
    "prefecture_code": 23,
    "city": "名古屋市天白区",
    "city_kana": "ナゴヤシテンパクク",
    "town": "菅田",
    "town_kana": "スゲタ",
    "street": null,
    "office_name": null,
    "office_name_kana": null
  },
  "0044": {
    "postcode": "4680044",
    "prefecture": "愛知県",
    "prefecture_kana": "アイチケン",
    "prefecture_code": 23,
    "city": "名古屋市天白区",
    "city_kana": "ナゴヤシテンパクク",
    "town": "笹原町",
    "town_kana": "ササハラチョウ",
    "street": null,
    "office_name": null,
    "office_name_kana": null
  },
  "0045": {
    "postcode": "4680045",
    "prefecture": "愛知県",
    "prefecture_kana": "アイチケン",
    "prefecture_code": 23,
    "city": "名古屋市天白区",
    "city_kana": "ナゴヤシテンパクク",
    "town": "野並",
    "town_kana": "ノナミ",
    "street": null,
    "office_name": null,
    "office_name_kana": null
  },
  "0046": {
    "postcode": "4680046",
    "prefecture": "愛知県",
    "prefecture_kana": "アイチケン",
    "prefecture_code": 23,
    "city": "名古屋市天白区",
    "city_kana": "ナゴヤシテンパクク",
    "town": "古川町",
    "town_kana": "フルカワチョウ",
    "street": null,
    "office_name": null,
    "office_name_kana": null
  },
  "0047": {
    "postcode": "4680047",
    "prefecture": "愛知県",
    "prefecture_kana": "アイチケン",
    "prefecture_code": 23,
    "city": "名古屋市天白区",
    "city_kana": "ナゴヤシテンパクク",
    "town": "井の森町",
    "town_kana": "イノモリチョウ",
    "street": null,
    "office_name": null,
    "office_name_kana": null
  },
  "0048": {
    "postcode": "4680048",
    "prefecture": "愛知県",
    "prefecture_kana": "アイチケン",
    "prefecture_code": 23,
    "city": "名古屋市天白区",
    "city_kana": "ナゴヤシテンパクク",
    "town": "中坪町",
    "town_kana": "ナカツボチョウ",
    "street": null,
    "office_name": null,
    "office_name_kana": null
  },
  "0049": {
    "postcode": "4680049",
    "prefecture": "愛知県",
    "prefecture_kana": "アイチケン",
    "prefecture_code": 23,
    "city": "名古屋市天白区",
    "city_kana": "ナゴヤシテンパクク",
    "town": "福池",
    "town_kana": "フクイケ",
    "street": null,
    "office_name": null,
    "office_name_kana": null
  },
  "0051": {
    "postcode": "4680051",
    "prefecture": "愛知県",
    "prefecture_kana": "アイチケン",
    "prefecture_code": 23,
    "city": "名古屋市天白区",
    "city_kana": "ナゴヤシテンパクク",
    "town": "植田",
    "town_kana": "ウエダ",
    "street": null,
    "office_name": null,
    "office_name_kana": null
  },
  "0052": {
    "postcode": "4680052",
    "prefecture": "愛知県",
    "prefecture_kana": "アイチケン",
    "prefecture_code": 23,
    "city": "名古屋市天白区",
    "city_kana": "ナゴヤシテンパクク",
    "town": "井口",
    "town_kana": "イグチ",
    "street": null,
    "office_name": null,
    "office_name_kana": null
  },
  "0053": {
    "postcode": "4680053",
    "prefecture": "愛知県",
    "prefecture_kana": "アイチケン",
    "prefecture_code": 23,
    "city": "名古屋市天白区",
    "city_kana": "ナゴヤシテンパクク",
    "town": "植田南",
    "town_kana": "ウエダミナミ",
    "street": null,
    "office_name": null,
    "office_name_kana": null
  },
  "0054": {
    "postcode": "4680054",
    "prefecture": "愛知県",
    "prefecture_kana": "アイチケン",
    "prefecture_code": 23,
    "city": "名古屋市天白区",
    "city_kana": "ナゴヤシテンパクク",
    "town": "横町",
    "town_kana": "ヨコマチ",
    "street": null,
    "office_name": null,
    "office_name_kana": null
  },
  "0055": {
    "postcode": "4680055",
    "prefecture": "愛知県",
    "prefecture_kana": "アイチケン",
    "prefecture_code": 23,
    "city": "名古屋市天白区",
    "city_kana": "ナゴヤシテンパクク",
    "town": "池場",
    "town_kana": "イケバ",
    "street": null,
    "office_name": null,
    "office_name_kana": null
  },
  "0056": {
    "postcode": "4680056",
    "prefecture": "愛知県",
    "prefecture_kana": "アイチケン",
    "prefecture_code": 23,
    "city": "名古屋市天白区",
    "city_kana": "ナゴヤシテンパクク",
    "town": "島田",
    "town_kana": "シマダ",
    "street": null,
    "office_name": null,
    "office_name_kana": null
  },
  "0058": {
    "postcode": "4680058",
    "prefecture": "愛知県",
    "prefecture_kana": "アイチケン",
    "prefecture_code": 23,
    "city": "名古屋市天白区",
    "city_kana": "ナゴヤシテンパクク",
    "town": "植田西",
    "town_kana": "ウエダニシ",
    "street": null,
    "office_name": null,
    "office_name_kana": null
  },
  "0061": {
    "postcode": "4680061",
    "prefecture": "愛知県",
    "prefecture_kana": "アイチケン",
    "prefecture_code": 23,
    "city": "名古屋市天白区",
    "city_kana": "ナゴヤシテンパクク",
    "town": "八事天道",
    "town_kana": "ヤゴトテンドウ",
    "street": null,
    "office_name": null,
    "office_name_kana": null
  },
  "0062": {
    "postcode": "4680062",
    "prefecture": "愛知県",
    "prefecture_kana": "アイチケン",
    "prefecture_code": 23,
    "city": "名古屋市天白区",
    "city_kana": "ナゴヤシテンパクク",
    "town": "弥生が岡",
    "town_kana": "ヤヨイガオカ",
    "street": null,
    "office_name": null,
    "office_name_kana": null
  },
  "0063": {
    "postcode": "4680063",
    "prefecture": "愛知県",
    "prefecture_kana": "アイチケン",
    "prefecture_code": 23,
    "city": "名古屋市天白区",
    "city_kana": "ナゴヤシテンパクク",
    "town": "音聞山",
    "town_kana": "オトキキヤマ",
    "street": null,
    "office_name": null,
    "office_name_kana": null
  },
  "0064": {
    "postcode": "4680064",
    "prefecture": "愛知県",
    "prefecture_kana": "アイチケン",
    "prefecture_code": 23,
    "city": "名古屋市天白区",
    "city_kana": "ナゴヤシテンパクク",
    "town": "道明町",
    "town_kana": "ドウミョウチョウ",
    "street": null,
    "office_name": null,
    "office_name_kana": null
  },
  "0065": {
    "postcode": "4680065",
    "prefecture": "愛知県",
    "prefecture_kana": "アイチケン",
    "prefecture_code": 23,
    "city": "名古屋市天白区",
    "city_kana": "ナゴヤシテンパクク",
    "town": "中砂町",
    "town_kana": "ナカスナチョウ",
    "street": null,
    "office_name": null,
    "office_name_kana": null
  },
  "0066": {
    "postcode": "4680066",
    "prefecture": "愛知県",
    "prefecture_kana": "アイチケン",
    "prefecture_code": 23,
    "city": "名古屋市天白区",
    "city_kana": "ナゴヤシテンパクク",
    "town": "元八事",
    "town_kana": "モトヤゴト",
    "street": null,
    "office_name": null,
    "office_name_kana": null
  },
  "0067": {
    "postcode": "4680067",
    "prefecture": "愛知県",
    "prefecture_kana": "アイチケン",
    "prefecture_code": 23,
    "city": "名古屋市天白区",
    "city_kana": "ナゴヤシテンパクク",
    "town": "池見",
    "town_kana": "イケミ",
    "street": null,
    "office_name": null,
    "office_name_kana": null
  },
  "0068": {
    "postcode": "4680068",
    "prefecture": "愛知県",
    "prefecture_kana": "アイチケン",
    "prefecture_code": 23,
    "city": "名古屋市天白区",
    "city_kana": "ナゴヤシテンパクク",
    "town": "表台",
    "town_kana": "オモテダイ",
    "street": null,
    "office_name": null,
    "office_name_kana": null
  },
  "0069": {
    "postcode": "4680069",
    "prefecture": "愛知県",
    "prefecture_kana": "アイチケン",
    "prefecture_code": 23,
    "city": "名古屋市天白区",
    "city_kana": "ナゴヤシテンパクク",
    "town": "表山",
    "town_kana": "オモテヤマ",
    "street": null,
    "office_name": null,
    "office_name_kana": null
  },
  "0071": {
    "postcode": "4680071",
    "prefecture": "愛知県",
    "prefecture_kana": "アイチケン",
    "prefecture_code": 23,
    "city": "名古屋市天白区",
    "city_kana": "ナゴヤシテンパクク",
    "town": "天白町八事",
    "town_kana": "テンパクチョウヤゴト",
    "street": null,
    "office_name": null,
    "office_name_kana": null
  },
  "0072": {
    "postcode": "4680072",
    "prefecture": "愛知県",
    "prefecture_kana": "アイチケン",
    "prefecture_code": 23,
    "city": "名古屋市天白区",
    "city_kana": "ナゴヤシテンパクク",
    "town": "大坪",
    "town_kana": "オオツボ",
    "street": null,
    "office_name": null,
    "office_name_kana": null
  },
  "0073": {
    "postcode": "4680073",
    "prefecture": "愛知県",
    "prefecture_kana": "アイチケン",
    "prefecture_code": 23,
    "city": "名古屋市天白区",
    "city_kana": "ナゴヤシテンパクク",
    "town": "塩釜口",
    "town_kana": "シオガマグチ",
    "street": null,
    "office_name": null,
    "office_name_kana": null
  },
  "0074": {
    "postcode": "4680074",
    "prefecture": "愛知県",
    "prefecture_kana": "アイチケン",
    "prefecture_code": 23,
    "city": "名古屋市天白区",
    "city_kana": "ナゴヤシテンパクク",
    "town": "八幡山",
    "town_kana": "ハチマンヤマ",
    "street": null,
    "office_name": null,
    "office_name_kana": null
  },
  "0075": {
    "postcode": "4680075",
    "prefecture": "愛知県",
    "prefecture_kana": "アイチケン",
    "prefecture_code": 23,
    "city": "名古屋市天白区",
    "city_kana": "ナゴヤシテンパクク",
    "town": "御幸山",
    "town_kana": "ミユキヤマ",
    "street": null,
    "office_name": null,
    "office_name_kana": null
  },
  "0076": {
    "postcode": "4680076",
    "prefecture": "愛知県",
    "prefecture_kana": "アイチケン",
    "prefecture_code": 23,
    "city": "名古屋市天白区",
    "city_kana": "ナゴヤシテンパクク",
    "town": "八事石坂",
    "town_kana": "ヤゴトイシザカ",
    "street": null,
    "office_name": null,
    "office_name_kana": null
  },
  "0077": {
    "postcode": "4680077",
    "prefecture": "愛知県",
    "prefecture_kana": "アイチケン",
    "prefecture_code": 23,
    "city": "名古屋市天白区",
    "city_kana": "ナゴヤシテンパクク",
    "town": "八事山",
    "town_kana": "ヤゴトヤマ",
    "street": null,
    "office_name": null,
    "office_name_kana": null
  },
  "0836": {
    "postcode": "4680836",
    "prefecture": "愛知県",
    "prefecture_kana": "アイチケン",
    "prefecture_code": 23,
    "city": "名古屋市天白区",
    "city_kana": "ナゴヤシテンパクク",
    "town": "相川",
    "town_kana": "アイカワ",
    "street": null,
    "office_name": null,
    "office_name_kana": null
  },
  "8501": {
    "postcode": "4688501",
    "prefecture": "愛知県",
    "prefecture_kana": "アイチケン",
    "prefecture_code": 23,
    "city": "名古屋市天白区",
    "city_kana": "ナゴヤシテンパクク",
    "town": "平針",
    "town_kana": "ヒラバリ",
    "street": "二丁目３０３番地",
    "office_name": "ＳＭＢＣファイナンスサービス　株式会社",
    "office_name_kana": "エスエムビ-シ-フアイナンスサ-ビス カブシキガイシヤ"
  },
  "8502": {
    "postcode": "4688502",
    "prefecture": "愛知県",
    "prefecture_kana": "アイチケン",
    "prefecture_code": 23,
    "city": "名古屋市天白区",
    "city_kana": "ナゴヤシテンパクク",
    "town": "塩釜口",
    "town_kana": "シオガマグチ",
    "street": "１丁目５０１",
    "office_name": "名城大学",
    "office_name_kana": "メイジヨウダイガク"
  },
  "8503": {
    "postcode": "4688503",
    "prefecture": "愛知県",
    "prefecture_kana": "アイチケン",
    "prefecture_code": 23,
    "city": "名古屋市天白区",
    "city_kana": "ナゴヤシテンパクク",
    "town": "八事山",
    "town_kana": "ヤゴトヤマ",
    "street": "１５０",
    "office_name": "名城大学　薬学部",
    "office_name_kana": "メイジヨウダイガク ヤクガクブ"
  },
  "8505": {
    "postcode": "4688505",
    "prefecture": "愛知県",
    "prefecture_kana": "アイチケン",
    "prefecture_code": 23,
    "city": "名古屋市天白区",
    "city_kana": "ナゴヤシテンパクク",
    "town": "元八事",
    "town_kana": "モトヤゴト",
    "street": "１丁目１１４",
    "office_name": "中日販売　株式会社",
    "office_name_kana": "チユウニチハンバイ カブシキガイシヤ"
  },
  "8507": {
    "postcode": "4688507",
    "prefecture": "愛知県",
    "prefecture_kana": "アイチケン",
    "prefecture_code": 23,
    "city": "名古屋市天白区",
    "city_kana": "ナゴヤシテンパクク",
    "town": "高宮町",
    "town_kana": "タカミヤチョウ",
    "street": "１３０２番地",
    "office_name": "名古屋女子大学　天白学舎",
    "office_name_kana": "ナゴヤジヨシダイガク テンパクガクシヤ"
  },
  "8510": {
    "postcode": "4688510",
    "prefecture": "愛知県",
    "prefecture_kana": "アイチケン",
    "prefecture_code": 23,
    "city": "名古屋市天白区",
    "city_kana": "ナゴヤシテンパクク",
    "town": "島田",
    "town_kana": "シマダ",
    "street": "２丁目２０１",
    "office_name": "天白区役所",
    "office_name_kana": "テンパククヤクシヨ"
  },
  "8511": {
    "postcode": "4688511",
    "prefecture": "愛知県",
    "prefecture_kana": "アイチケン",
    "prefecture_code": 23,
    "city": "名古屋市天白区",
    "city_kana": "ナゴヤシテンパクク",
    "town": "久方",
    "town_kana": "ヒサカタ",
    "street": "２丁目１２−１",
    "office_name": "豊田工業大学",
    "office_name_kana": "トヨタコウギヨウダイガク"
  },
  "8512": {
    "postcode": "4688512",
    "prefecture": "愛知県",
    "prefecture_kana": "アイチケン",
    "prefecture_code": 23,
    "city": "名古屋市天白区",
    "city_kana": "ナゴヤシテンパクク",
    "town": "久方",
    "town_kana": "ヒサカタ",
    "street": "１−１４５−１",
    "office_name": "京セラインダストリアルツールズ　株式会社",
    "office_name_kana": "キヨウセラインダストリアルツ-ルズ カブシキガイシヤ"
  },
  "8513": {
    "postcode": "4688513",
    "prefecture": "愛知県",
    "prefecture_kana": "アイチケン",
    "prefecture_code": 23,
    "city": "名古屋市天白区",
    "city_kana": "ナゴヤシテンパクク",
    "town": "天白町大字平針",
    "town_kana": null,
    "street": "字黒石２８４５",
    "office_name": "愛知県警察運転免許試験場",
    "office_name_kana": "アイチケンケイサツウンテンメンキヨシケンジヨウ"
  },
  "8514": {
    "postcode": "4688514",
    "prefecture": "愛知県",
    "prefecture_kana": "アイチケン",
    "prefecture_code": 23,
    "city": "名古屋市天白区",
    "city_kana": "ナゴヤシテンパクク",
    "town": "中平",
    "town_kana": "ナカヒラ",
    "street": "２丁目９０１番地",
    "office_name": "東海学園大学　名古屋キャンパス",
    "office_name_kana": "トウカイガクエンダイガク ナゴヤキヤンパス"
  },
  "8520": {
    "postcode": "4688520",
    "prefecture": "愛知県",
    "prefecture_kana": "アイチケン",
    "prefecture_code": 23,
    "city": "名古屋市天白区",
    "city_kana": "ナゴヤシテンパクク",
    "town": "平針",
    "town_kana": "ヒラバリ",
    "street": "４丁目３０５",
    "office_name": "名古屋記念病院",
    "office_name_kana": "ナゴヤキネンビヨウイン"
  },
  "8522": {
    "postcode": "4688522",
    "prefecture": "愛知県",
    "prefecture_kana": "アイチケン",
    "prefecture_code": 23,
    "city": "名古屋市天白区",
    "city_kana": "ナゴヤシテンパクク",
    "town": "植田南",
    "town_kana": "ウエダミナミ",
    "street": "３丁目８０８",
    "office_name": "トヨタホーム名古屋　株式会社",
    "office_name_kana": "トヨタホ-ムナゴヤ カブシキガイシヤ"
  },
  "8531": {
    "postcode": "4688531",
    "prefecture": "愛知県",
    "prefecture_kana": "アイチケン",
    "prefecture_code": 23,
    "city": "名古屋市天白区",
    "city_kana": "ナゴヤシテンパクク",
    "town": "井の森町",
    "town_kana": "イノモリチョウ",
    "street": "２２２",
    "office_name": "大洋技研工業　株式会社",
    "office_name_kana": "タイヨウギケンコウギヨウ カブシキガイシヤ"
  },
  "8532": {
    "postcode": "4688532",
    "prefecture": "愛知県",
    "prefecture_kana": "アイチケン",
    "prefecture_code": 23,
    "city": "名古屋市天白区",
    "city_kana": "ナゴヤシテンパクク",
    "town": "井の森町",
    "town_kana": "イノモリチョウ",
    "street": "１６３",
    "office_name": "安藤技建　株式会社",
    "office_name_kana": "アンドウギケン カブシキガイシヤ"
  },
  "8533": {
    "postcode": "4688533",
    "prefecture": "愛知県",
    "prefecture_kana": "アイチケン",
    "prefecture_code": 23,
    "city": "名古屋市天白区",
    "city_kana": "ナゴヤシテンパクク",
    "town": "井の森町",
    "town_kana": "イノモリチョウ",
    "street": "２０５−１",
    "office_name": "ナカシャクリエイテブ　株式会社",
    "office_name_kana": "ナカシヤクリエイテブ カブシキガイシヤ"
  },
  "8534": {
    "postcode": "4688534",
    "prefecture": "愛知県",
    "prefecture_kana": "アイチケン",
    "prefecture_code": 23,
    "city": "名古屋市天白区",
    "city_kana": "ナゴヤシテンパクク",
    "town": "古川町",
    "town_kana": "フルカワチョウ",
    "street": "１１０",
    "office_name": "日本ベターリビング　株式会社",
    "office_name_kana": "ニホンベタ-リビング カブシキガイシヤ"
  },
  "8536": {
    "postcode": "4688536",
    "prefecture": "愛知県",
    "prefecture_kana": "アイチケン",
    "prefecture_code": 23,
    "city": "名古屋市天白区",
    "city_kana": "ナゴヤシテンパクク",
    "town": "植田",
    "town_kana": "ウエダ",
    "street": "３丁目５０６",
    "office_name": "株式会社　瓶屋",
    "office_name_kana": "カブシキガイシヤ カメヤ"
  },
  "8537": {
    "postcode": "4688537",
    "prefecture": "愛知県",
    "prefecture_kana": "アイチケン",
    "prefecture_code": 23,
    "city": "名古屋市天白区",
    "city_kana": "ナゴヤシテンパクク",
    "town": "平針南",
    "town_kana": "ヒラバリミナミ",
    "street": "三丁目６０５番地愛知県警察本部運転免許試験場地内",
    "office_name": "自動車安全運転センター　愛知県事務所",
    "office_name_kana": "ジドウシヤアンゼンウンテンセンタ- アイチケンジムシヨ"
  },
  "8551": {
    "postcode": "4688551",
    "prefecture": "愛知県",
    "prefecture_kana": "アイチケン",
    "prefecture_code": 23,
    "city": "名古屋市天白区",
    "city_kana": "ナゴヤシテンパクク",
    "town": "中平",
    "town_kana": "ナカヒラ",
    "street": "５丁目２１０１番地",
    "office_name": "名古屋東労働基準監督署",
    "office_name_kana": "ナゴヤヒガシロウドウキジユンカントクシヨ"
  },
  "8585": {
    "postcode": "4688585",
    "prefecture": "愛知県",
    "prefecture_kana": "アイチケン",
    "prefecture_code": 23,
    "city": "名古屋市天白区",
    "city_kana": "ナゴヤシテンパクク",
    "town": "植田",
    "town_kana": "ウエダ",
    "street": "３−１４０７",
    "office_name": "株式会社　丸越",
    "office_name_kana": "カブシキガイシヤ マルコシ"
  },
  "8588": {
    "postcode": "4688588",
    "prefecture": "愛知県",
    "prefecture_kana": "アイチケン",
    "prefecture_code": 23,
    "city": "名古屋市天白区",
    "city_kana": "ナゴヤシテンパクク",
    "town": "中砂町",
    "town_kana": "ナカスナチョウ",
    "street": "３１０",
    "office_name": "名古屋製酪　株式会社",
    "office_name_kana": "ナゴヤセイラク カブシキガイシヤ"
  },
  "8626": {
    "postcode": "4688626",
    "prefecture": "愛知県",
    "prefecture_kana": "アイチケン",
    "prefecture_code": 23,
    "city": "名古屋市天白区",
    "city_kana": "ナゴヤシテンパクク",
    "town": "野並",
    "town_kana": "ノナミ",
    "street": "３丁目４１２番１ＤＯ！野並ビル２階",
    "office_name": "名古屋市　金山市税事務所　野並出張所",
    "office_name_kana": "ナゴヤシ カナヤマシゼイジムシヨ ノナミシユツチヨウジヨ"
  }
}