{
  "0100": [
    {
      "postcode": "4700100",
      "prefecture": "愛知県",
      "prefecture_kana": "アイチケン",
      "prefecture_code": 23,
      "city": "日進市",
      "city_kana": "ニッシンシ",
      "town": "",
      "town_kana": "",
      "street": null,
      "office_name": null,
      "office_name_kana": null
    },
    {
      "postcode": "4700100",
      "prefecture": "愛知県",
      "prefecture_kana": "アイチケン",
      "prefecture_code": 23,
      "city": "愛知郡東郷町",
      "city_kana": "アイチグントウゴウチョウ",
      "town": "",
      "town_kana": "",
      "street": null,
      "office_name": null,
      "office_name_kana": null
    }
  ],
  "0101": {
    "postcode": "4700101",
    "prefecture": "愛知県",
    "prefecture_kana": "アイチケン",
    "prefecture_code": 23,
    "city": "日進市",
    "city_kana": "ニッシンシ",
    "town": "三本木町",
    "town_kana": "サンボンギチョウ",
    "street": null,
    "office_name": null,
    "office_name_kana": null
  },
  "0102": {
    "postcode": "4700102",
    "prefecture": "愛知県",
    "prefecture_kana": "アイチケン",
    "prefecture_code": 23,
    "city": "日進市",
    "city_kana": "ニッシンシ",
    "town": "藤島町",
    "town_kana": "フジシマチョウ",
    "street": null,
    "office_name": null,
    "office_name_kana": null
  },
  "0103": {
    "postcode": "4700103",
    "prefecture": "愛知県",
    "prefecture_kana": "アイチケン",
    "prefecture_code": 23,
    "city": "日進市",
    "city_kana": "ニッシンシ",
    "town": "北新町",
    "town_kana": "キタシンチョウ",
    "street": null,
    "office_name": null,
    "office_name_kana": null
  },
  "0104": {
    "postcode": "4700104",
    "prefecture": "愛知県",
    "prefecture_kana": "アイチケン",
    "prefecture_code": 23,
    "city": "日進市",
    "city_kana": "ニッシンシ",
    "town": "岩藤町",
    "town_kana": "イワフジチョウ",
    "street": null,
    "office_name": null,
    "office_name_kana": null
  },
  "0105": {
    "postcode": "4700105",
    "prefecture": "愛知県",
    "prefecture_kana": "アイチケン",
    "prefecture_code": 23,
    "city": "日進市",
    "city_kana": "ニッシンシ",
    "town": "五色園",
    "town_kana": "ゴシキエン",
    "street": null,
    "office_name": null,
    "office_name_kana": null
  },
  "0111": {
    "postcode": "4700111",
    "prefecture": "愛知県",
    "prefecture_kana": "アイチケン",
    "prefecture_code": 23,
    "city": "日進市",
    "city_kana": "ニッシンシ",
    "town": "米野木町",
    "town_kana": "コメノキチョウ",
    "street": null,
    "office_name": null,
    "office_name_kana": null
  },
  "0112": {
    "postcode": "4700112",
    "prefecture": "愛知県",
    "prefecture_kana": "アイチケン",
    "prefecture_code": 23,
    "city": "日進市",
    "city_kana": "ニッシンシ",
    "town": "藤枝町",
    "town_kana": "フジエダチョウ",
    "street": null,
    "office_name": null,
    "office_name_kana": null
  },
  "0113": {
    "postcode": "4700113",
    "prefecture": "愛知県",
    "prefecture_kana": "アイチケン",
    "prefecture_code": 23,
    "city": "日進市",
    "city_kana": "ニッシンシ",
    "town": "栄",
    "town_kana": "サカエ",
    "street": null,
    "office_name": null,
    "office_name_kana": null
  },
  "0114": {
    "postcode": "4700114",
    "prefecture": "愛知県",
    "prefecture_kana": "アイチケン",
    "prefecture_code": 23,
    "city": "日進市",
    "city_kana": "ニッシンシ",
    "town": "南ケ丘",
    "town_kana": "ミナミガオカ",
    "street": null,
    "office_name": null,
    "office_name_kana": null
  },
  "0115": {
    "postcode": "4700115",
    "prefecture": "愛知県",
    "prefecture_kana": "アイチケン",
    "prefecture_code": 23,
    "city": "日進市",
    "city_kana": "ニッシンシ",
    "town": "折戸町",
    "town_kana": "オリドチョウ",
    "street": null,
    "office_name": null,
    "office_name_kana": null
  },
  "0116": {
    "postcode": "4700116",
    "prefecture": "愛知県",
    "prefecture_kana": "アイチケン",
    "prefecture_code": 23,
    "city": "日進市",
    "city_kana": "ニッシンシ",
    "town": "東山",
    "town_kana": "ヒガシヤマ",
    "street": null,
    "office_name": null,
    "office_name_kana": null
  },
  "0117": {
    "postcode": "4700117",
    "prefecture": "愛知県",
    "prefecture_kana": "アイチケン",
    "prefecture_code": 23,
    "city": "日進市",
    "city_kana": "ニッシンシ",
    "town": "藤塚",
    "town_kana": "フジツカ",
    "street": null,
    "office_name": null,
    "office_name_kana": null
  },
  "0118": {
    "postcode": "4700118",
    "prefecture": "愛知県",
    "prefecture_kana": "アイチケン",
    "prefecture_code": 23,
    "city": "日進市",
    "city_kana": "ニッシンシ",
    "town": "米野木台",
    "town_kana": "コメノキダイ",
    "street": null,
    "office_name": null,
    "office_name_kana": null
  },
  "0121": {
    "postcode": "4700121",
    "prefecture": "愛知県",
    "prefecture_kana": "アイチケン",
    "prefecture_code": 23,
    "city": "日進市",
    "city_kana": "ニッシンシ",
    "town": "本郷町",
    "town_kana": "ホンゴウチョウ",
    "street": null,
    "office_name": null,
    "office_name_kana": null
  },
  "0122": {
    "postcode": "4700122",
    "prefecture": "愛知県",
    "prefecture_kana": "アイチケン",
    "prefecture_code": 23,
    "city": "日進市",
    "city_kana": "ニッシンシ",
    "town": "蟹甲町",
    "town_kana": "カニコウチョウ",
    "street": null,
    "office_name": null,
    "office_name_kana": null
  },
  "0123": {
    "postcode": "4700123",
    "prefecture": "愛知県",
    "prefecture_kana": "アイチケン",
    "prefecture_code": 23,
    "city": "日進市",
    "city_kana": "ニッシンシ",
    "town": "野方町",
    "town_kana": "ノカタチョウ",
    "street": null,
    "office_name": null,
    "office_name_kana": null
  },
  "0124": {
    "postcode": "4700124",
    "prefecture": "愛知県",
    "prefecture_kana": "アイチケン",
    "prefecture_code": 23,
    "city": "日進市",
    "city_kana": "ニッシンシ",
    "town": "浅田町",
    "town_kana": "アサダチョウ",
    "street": null,
    "office_name": null,
    "office_name_kana": null
  },
  "0125": {
    "postcode": "4700125",
    "prefecture": "愛知県",
    "prefecture_kana": "アイチケン",
    "prefecture_code": 23,
    "city": "日進市",
    "city_kana": "ニッシンシ",
    "town": "赤池",
    "town_kana": "アカイケ",
    "street": null,
    "office_name": null,
    "office_name_kana": null
  },
  "0126": {
    "postcode": "4700126",
    "prefecture": "愛知県",
    "prefecture_kana": "アイチケン",
    "prefecture_code": 23,
    "city": "日進市",
    "city_kana": "ニッシンシ",
    "town": "赤池町",
    "town_kana": "アカイケチョウ",
    "street": null,
    "office_name": null,
    "office_name_kana": null
  },
  "0127": {
    "postcode": "4700127",
    "prefecture": "愛知県",
    "prefecture_kana": "アイチケン",
    "prefecture_code": 23,
    "city": "日進市",
    "city_kana": "ニッシンシ",
    "town": "赤池南",
    "town_kana": "アカイケミナミ",
    "street": null,
    "office_name": null,
    "office_name_kana": null
  },
  "0128": {
    "postcode": "4700128",
    "prefecture": "愛知県",
    "prefecture_kana": "アイチケン",
    "prefecture_code": 23,
    "city": "日進市",
    "city_kana": "ニッシンシ",
    "town": "浅田平子",
    "town_kana": "アサダヒラコ",
    "street": null,
    "office_name": null,
    "office_name_kana": null
  },
  "0131": {
    "postcode": "4700131",
    "prefecture": "愛知県",
    "prefecture_kana": "アイチケン",
    "prefecture_code": 23,
    "city": "日進市",
    "city_kana": "ニッシンシ",
    "town": "岩崎町",
    "town_kana": "イワサキチョウ",
    "street": null,
    "office_name": null,
    "office_name_kana": null
  },
  "0132": {
    "postcode": "4700132",
    "prefecture": "愛知県",
    "prefecture_kana": "アイチケン",
    "prefecture_code": 23,
    "city": "日進市",
    "city_kana": "ニッシンシ",
    "town": "梅森町",
    "town_kana": "ウメモリチョウ",
    "street": null,
    "office_name": null,
    "office_name_kana": null
  },
  "0133": {
    "postcode": "4700133",
    "prefecture": "愛知県",
    "prefecture_kana": "アイチケン",
    "prefecture_code": 23,
    "city": "日進市",
    "city_kana": "ニッシンシ",
    "town": "梅森台",
    "town_kana": "ウメモリダイ",
    "street": null,
    "office_name": null,
    "office_name_kana": null
  },
  "0134": {
    "postcode": "4700134",
    "prefecture": "愛知県",
    "prefecture_kana": "アイチケン",
    "prefecture_code": 23,
    "city": "日進市",
    "city_kana": "ニッシンシ",
    "town": "香久山",
    "town_kana": "カグヤマ",
    "street": null,
    "office_name": null,
    "office_name_kana": null
  },
  "0135": {
    "postcode": "4700135",
    "prefecture": "愛知県",
    "prefecture_kana": "アイチケン",
    "prefecture_code": 23,
    "city": "日進市",
    "city_kana": "ニッシンシ",
    "town": "岩崎台",
    "town_kana": "イワサキダイ",
    "street": null,
    "office_name": null,
    "office_name_kana": null
  },
  "0136": {
    "postcode": "4700136",
    "prefecture": "愛知県",
    "prefecture_kana": "アイチケン",
    "prefecture_code": 23,
    "city": "日進市",
    "city_kana": "ニッシンシ",
    "town": "竹の山",
    "town_kana": "タケノヤマ",
    "street": null,
    "office_name": null,
    "office_name_kana": null
  },
  "0151": {
    "postcode": "4700151",
    "prefecture": "愛知県",
    "prefecture_kana": "アイチケン",
    "prefecture_code": 23,
    "city": "愛知郡東郷町",
    "city_kana": "アイチグントウゴウチョウ",
    "town": "諸輪",
    "town_kana": "モロワ",
    "street": null,
    "office_name": null,
    "office_name_kana": null
  },
  "0152": {
    "postcode": "4700152",
    "prefecture": "愛知県",
    "prefecture_kana": "アイチケン",
    "prefecture_code": 23,
    "city": "愛知郡東郷町",
    "city_kana": "アイチグントウゴウチョウ",
    "town": "北山台",
    "town_kana": "キタヤマダイ",
    "street": null,
    "office_name": null,
    "office_name_kana": null
  },
  "0153": {
    "postcode": "4700153",
    "prefecture": "愛知県",
    "prefecture_kana": "アイチケン",
    "prefecture_code": 23,
    "city": "愛知郡東郷町",
    "city_kana": "アイチグントウゴウチョウ",
    "town": "和合",
    "town_kana": "ワゴウ",
    "street": null,
    "office_name": null,
    "office_name_kana": null
  },
  "0154": {
    "postcode": "4700154",
    "prefecture": "愛知県",
    "prefecture_kana": "アイチケン",
    "prefecture_code": 23,
    "city": "愛知郡東郷町",
    "city_kana": "アイチグントウゴウチョウ",
    "town": "和合ケ丘",
    "town_kana": "ワゴウガオカ",
    "street": null,
    "office_name": null,
    "office_name_kana": null
  },
  "0155": {
    "postcode": "4700155",
    "prefecture": "愛知県",
    "prefecture_kana": "アイチケン",
    "prefecture_code": 23,
    "city": "愛知郡東郷町",
    "city_kana": "アイチグントウゴウチョウ",
    "town": "白鳥",
    "town_kana": "シラトリ",
    "street": null,
    "office_name": null,
    "office_name_kana": null
  },
  "0156": {
    "postcode": "4700156",
    "prefecture": "愛知県",
    "prefecture_kana": "アイチケン",
    "prefecture_code": 23,
    "city": "愛知郡東郷町",
    "city_kana": "アイチグントウゴウチョウ",
    "town": "御岳",
    "town_kana": "ミタケ",
    "street": null,
    "office_name": null,
    "office_name_kana": null
  },
  "0161": {
    "postcode": "4700161",
    "prefecture": "愛知県",
    "prefecture_kana": "アイチケン",
    "prefecture_code": 23,
    "city": "愛知郡東郷町",
    "city_kana": "アイチグントウゴウチョウ",
    "town": "春木台",
    "town_kana": "ハルキダイ",
    "street": null,
    "office_name": null,
    "office_name_kana": null
  },
  "0162": {
    "postcode": "4700162",
    "prefecture": "愛知県",
    "prefecture_kana": "アイチケン",
    "prefecture_code": 23,
    "city": "愛知郡東郷町",
    "city_kana": "アイチグントウゴウチョウ",
    "town": "春木",
    "town_kana": "ハルキ",
    "street": null,
    "office_name": null,
    "office_name_kana": null
  },
  "0163": {
    "postcode": "4700163",
    "prefecture": "愛知県",
    "prefecture_kana": "アイチケン",
    "prefecture_code": 23,
    "city": "愛知郡東郷町",
    "city_kana": "アイチグントウゴウチョウ",
    "town": "涼松",
    "town_kana": "スズミマツ",
    "street": null,
    "office_name": null,
    "office_name_kana": null
  },
  "0164": {
    "postcode": "4700164",
    "prefecture": "愛知県",
    "prefecture_kana": "アイチケン",
    "prefecture_code": 23,
    "city": "愛知郡東郷町",
    "city_kana": "アイチグントウゴウチョウ",
    "town": "三ツ池",
    "town_kana": "ミツイケ",
    "street": null,
    "office_name": null,
    "office_name_kana": null
  },
  "0165": {
    "postcode": "4700165",
    "prefecture": "愛知県",
    "prefecture_kana": "アイチケン",
    "prefecture_code": 23,
    "city": "愛知郡東郷町",
    "city_kana": "アイチグントウゴウチョウ",
    "town": "清水",
    "town_kana": "シミズ",
    "street": null,
    "office_name": null,
    "office_name_kana": null
  },
  "0166": {
    "postcode": "4700166",
    "prefecture": "愛知県",
    "prefecture_kana": "アイチケン",
    "prefecture_code": 23,
    "city": "愛知郡東郷町",
    "city_kana": "アイチグントウゴウチョウ",
    "town": "兵庫",
    "town_kana": "ヒョウゴ",
    "street": null,
    "office_name": null,
    "office_name_kana": null
  },
  "0186": {
    "postcode": "4700186",
    "prefecture": "愛知県",
    "prefecture_kana": "アイチケン",
    "prefecture_code": 23,
    "city": "愛知郡東郷町",
    "city_kana": "アイチグントウゴウチョウ",
    "town": "",
    "town_kana": "",
    "street": "東郷中央土地区画整理事業６２街区１，３",
    "office_name": "ららぽーと愛知東郷",
    "office_name_kana": "ララポ-トアイチトウゴウ"
  },
  "0188": {
    "postcode": "4700188",
    "prefecture": "愛知県",
    "prefecture_kana": "アイチケン",
    "prefecture_code": 23,
    "city": "日進市",
    "city_kana": "ニッシンシ",
    "town": "岩崎町",
    "town_kana": "イワサキチョウ",
    "street": "竹ノ山５７番地",
    "office_name": "中西学園　中央図書館",
    "office_name_kana": "ナカニシガクエン チユウオウトシヨカン"
  },
  "0192": {
    "postcode": "4700192",
    "prefecture": "愛知県",
    "prefecture_kana": "アイチケン",
    "prefecture_code": 23,
    "city": "日進市",
    "city_kana": "ニッシンシ",
    "town": "蟹甲町",
    "town_kana": "カニコウチョウ",
    "street": "池下２６８",
    "office_name": "日進市役所",
    "office_name_kana": "ニツシンシヤクシヨ"
  },
  "0193": {
    "postcode": "4700193",
    "prefecture": "愛知県",
    "prefecture_kana": "アイチケン",
    "prefecture_code": 23,
    "city": "日進市",
    "city_kana": "ニッシンシ",
    "town": "米野木町",
    "town_kana": "コメノキチョウ",
    "street": "三ケ峯４−４",
    "office_name": "学校法人　栗本学園　名古屋商科大学",
    "office_name_kana": "ガツコウホウジン クリモトガクエン ナゴヤシヨウカダイガク"
  },
  "0194": {
    "postcode": "4700194",
    "prefecture": "愛知県",
    "prefecture_kana": "アイチケン",
    "prefecture_code": 23,
    "city": "日進市",
    "city_kana": "ニッシンシ",
    "town": "浅田町",
    "town_kana": "アサダチョウ",
    "street": "上納８０番地",
    "office_name": "マスプロ電工　株式会社",
    "office_name_kana": "マスプロデンコウ カブシキガイシヤ"
  },
  "0195": {
    "postcode": "4700195",
    "prefecture": "愛知県",
    "prefecture_kana": "アイチケン",
    "prefecture_code": 23,
    "city": "日進市",
    "city_kana": "ニッシンシ",
    "town": "岩崎町",
    "town_kana": "イワサキチョウ",
    "street": "阿良池１２",
    "office_name": "愛知学院大学",
    "office_name_kana": "アイチガクインダイガク"
  },
  "0196": {
    "postcode": "4700196",
    "prefecture": "愛知県",
    "prefecture_kana": "アイチケン",
    "prefecture_code": 23,
    "city": "日進市",
    "city_kana": "ニッシンシ",
    "town": "岩崎町",
    "town_kana": "イワサキチョウ",
    "street": "竹ノ山５７番地",
    "office_name": "名古屋学芸大学",
    "office_name_kana": "ナゴヤガクゲイダイガク"
  },
  "0197": {
    "postcode": "4700197",
    "prefecture": "愛知県",
    "prefecture_kana": "アイチケン",
    "prefecture_code": 23,
    "city": "日進市",
    "city_kana": "ニッシンシ",
    "town": "岩崎町",
    "town_kana": "イワサキチョウ",
    "street": "竹ノ山５７番地",
    "office_name": "名古屋外国語大学",
    "office_name_kana": "ナゴヤガイコクゴダイガク"
  },
  "0198": {
    "postcode": "4700198",
    "prefecture": "愛知県",
    "prefecture_kana": "アイチケン",
    "prefecture_code": 23,
    "city": "愛知郡東郷町",
    "city_kana": "アイチグントウゴウチョウ",
    "town": "大字春木字羽根穴",
    "town_kana": null,
    "street": "１",
    "office_name": "東郷町役場",
    "office_name_kana": "トウゴウチヨウヤクバ"
  },
  "0200": {
    "postcode": "4700200",
    "prefecture": "愛知県",
    "prefecture_kana": "アイチケン",
    "prefecture_code": 23,
    "city": "みよし市",
    "city_kana": "ミヨシシ",
    "town": "",
    "town_kana": "",
    "street": null,
    "office_name": null,
    "office_name_kana": null
  },
  "0201": {
    "postcode": "4700201",
    "prefecture": "愛知県",
    "prefecture_kana": "アイチケン",
    "prefecture_code": 23,
    "city": "みよし市",
    "city_kana": "ミヨシシ",
    "town": "黒笹町",
    "town_kana": "クロザサチョウ",
    "street": null,
    "office_name": null,
    "office_name_kana": null
  },
  "0202": {
    "postcode": "4700202",
    "prefecture": "愛知県",
    "prefecture_kana": "アイチケン",
    "prefecture_code": 23,
    "city": "みよし市",
    "city_kana": "ミヨシシ",
    "town": "三好丘",
    "town_kana": "ミヨシガオカ",
    "street": null,
    "office_name": null,
    "office_name_kana": null
  },
  "0203": {
    "postcode": "4700203",
    "prefecture": "愛知県",
    "prefecture_kana": "アイチケン",
    "prefecture_code": 23,
    "city": "みよし市",
    "city_kana": "ミヨシシ",
    "town": "三好丘旭",
    "town_kana": "ミヨシガオカアサヒ",
    "street": null,
    "office_name": null,
    "office_name_kana": null
  },
  "0204": {
    "postcode": "4700204",
    "prefecture": "愛知県",
    "prefecture_kana": "アイチケン",
    "prefecture_code": 23,
    "city": "みよし市",
    "city_kana": "ミヨシシ",
    "town": "三好丘桜",
    "town_kana": "ミヨシガオカサクラ",
    "street": null,
    "office_name": null,
    "office_name_kana": null
  },
  "0205": {
    "postcode": "4700205",
    "prefecture": "愛知県",
    "prefecture_kana": "アイチケン",
    "prefecture_code": 23,
    "city": "みよし市",
    "city_kana": "ミヨシシ",
    "town": "三好丘緑",
    "town_kana": "ミヨシガオカミドリ",
    "street": null,
    "office_name": null,
    "office_name_kana": null
  },
  "0206": {
    "postcode": "4700206",
    "prefecture": "愛知県",
    "prefecture_kana": "アイチケン",
    "prefecture_code": 23,
    "city": "みよし市",
    "city_kana": "ミヨシシ",
    "town": "莇生町",
    "town_kana": "アザブチョウ",
    "street": null,
    "office_name": null,
    "office_name_kana": null
  },
  "0207": {
    "postcode": "4700207",
    "prefecture": "愛知県",
    "prefecture_kana": "アイチケン",
    "prefecture_code": 23,
    "city": "みよし市",
    "city_kana": "ミヨシシ",
    "town": "福谷町",
    "town_kana": "ウキガイチョウ",
    "street": null,
    "office_name": null,
    "office_name_kana": null
  },
  "0208": {
    "postcode": "4700208",
    "prefecture": "愛知県",
    "prefecture_kana": "アイチケン",
    "prefecture_code": 23,
    "city": "みよし市",
    "city_kana": "ミヨシシ",
    "town": "ひばりヶ丘",
    "town_kana": "ヒバリガオカ",
    "street": null,
    "office_name": null,
    "office_name_kana": null
  },
  "0209": {
    "postcode": "4700209",
    "prefecture": "愛知県",
    "prefecture_kana": "アイチケン",
    "prefecture_code": 23,
    "city": "みよし市",
    "city_kana": "ミヨシシ",
    "town": "潮見",
    "town_kana": "シオミ",
    "street": null,
    "office_name": null,
    "office_name_kana": null
  },
  "0211": {
    "postcode": "4700211",
    "prefecture": "愛知県",
    "prefecture_kana": "アイチケン",
    "prefecture_code": 23,
    "city": "みよし市",
    "city_kana": "ミヨシシ",
    "town": "天王台",
    "town_kana": "テンノウダイ",
    "street": null,
    "office_name": null,
    "office_name_kana": null
  },
  "0212": {
    "postcode": "4700212",
    "prefecture": "愛知県",
    "prefecture_kana": "アイチケン",
    "prefecture_code": 23,
    "city": "みよし市",
    "city_kana": "ミヨシシ",
    "town": "東山台",
    "town_kana": "ヒガシヤマダイ",
    "street": null,
    "office_name": null,
    "office_name_kana": null
  },
  "0213": {
    "postcode": "4700213",
    "prefecture": "愛知県",
    "prefecture_kana": "アイチケン",
    "prefecture_code": 23,
    "city": "みよし市",
    "city_kana": "ミヨシシ",
    "town": "打越町",
    "town_kana": "ウチコシチョウ",
    "street": null,
    "office_name": null,
    "office_name_kana": null
  },
  "0214": {
    "postcode": "4700214",
    "prefecture": "愛知県",
    "prefecture_kana": "アイチケン",
    "prefecture_code": 23,
    "city": "みよし市",
    "city_kana": "ミヨシシ",
    "town": "明知町",
    "town_kana": "ミョウチチョウ",
    "street": null,
    "office_name": null,
    "office_name_kana": null
  },
  "0215": {
    "postcode": "4700215",
    "prefecture": "愛知県",
    "prefecture_kana": "アイチケン",
    "prefecture_code": 23,
    "city": "みよし市",
    "city_kana": "ミヨシシ",
    "town": "みなよし台",
    "town_kana": "ミナヨシダイ",
    "street": null,
    "office_name": null,
    "office_name_kana": null
  },
  "0216": {
    "postcode": "4700216",
    "prefecture": "愛知県",
    "prefecture_kana": "アイチケン",
    "prefecture_code": 23,
    "city": "みよし市",
    "city_kana": "ミヨシシ",
    "town": "南台",
    "town_kana": "ミナミダイ",
    "street": null,
    "office_name": null,
    "office_name_kana": null
  },
  "0217": {
    "postcode": "4700217",
    "prefecture": "愛知県",
    "prefecture_kana": "アイチケン",
    "prefecture_code": 23,
    "city": "みよし市",
    "city_kana": "ミヨシシ",
    "town": "根浦町",
    "town_kana": "ネウラマチ",
    "street": null,
    "office_name": null,
    "office_name_kana": null
  },
  "0218": {
    "postcode": "4700218",
    "prefecture": "愛知県",
    "prefecture_kana": "アイチケン",
    "prefecture_code": 23,
    "city": "みよし市",
    "city_kana": "ミヨシシ",
    "town": "黒笹山手",
    "town_kana": "クロザサヤマテ",
    "street": null,
    "office_name": null,
    "office_name_kana": null
  },
  "0221": {
    "postcode": "4700221",
    "prefecture": "愛知県",
    "prefecture_kana": "アイチケン",
    "prefecture_code": 23,
    "city": "みよし市",
    "city_kana": "ミヨシシ",
    "town": "西陣取山",
    "town_kana": "ニシジントリヤマ",
    "street": null,
    "office_name": null,
    "office_name_kana": null
  },
  "0222": {
    "postcode": "4700222",
    "prefecture": "愛知県",
    "prefecture_kana": "アイチケン",
    "prefecture_code": 23,
    "city": "みよし市",
    "city_kana": "ミヨシシ",
    "town": "東陣取山",
    "town_kana": "ヒガシジントリヤマ",
    "street": null,
    "office_name": null,
    "office_name_kana": null
  },
  "0223": {
    "postcode": "4700223",
    "prefecture": "愛知県",
    "prefecture_kana": "アイチケン",
    "prefecture_code": 23,
    "city": "みよし市",
    "city_kana": "ミヨシシ",
    "town": "東蜂ヶ池",
    "town_kana": "ヒガシハチガイケ",
    "street": null,
    "office_name": null,
    "office_name_kana": null
  },
  "0224": {
    "postcode": "4700224",
    "prefecture": "愛知県",
    "prefecture_kana": "アイチケン",
    "prefecture_code": 23,
    "city": "みよし市",
    "city_kana": "ミヨシシ",
    "town": "三好町",
    "town_kana": "ミヨシチョウ",
    "street": null,
    "office_name": null,
    "office_name_kana": null
  },
  "0225": {
    "postcode": "4700225",
    "prefecture": "愛知県",
    "prefecture_kana": "アイチケン",
    "prefecture_code": 23,
    "city": "みよし市",
    "city_kana": "ミヨシシ",
    "town": "福田町",
    "town_kana": "フクタチョウ",
    "street": null,
    "office_name": null,
    "office_name_kana": null
  },
  "0226": {
    "postcode": "4700226",
    "prefecture": "愛知県",
    "prefecture_kana": "アイチケン",
    "prefecture_code": 23,
    "city": "みよし市",
    "city_kana": "ミヨシシ",
    "town": "西一色町",
    "town_kana": "ニシイシキチョウ",
    "street": null,
    "office_name": null,
    "office_name_kana": null
  },
  "0227": {
    "postcode": "4700227",
    "prefecture": "愛知県",
    "prefecture_kana": "アイチケン",
    "prefecture_code": 23,
    "city": "みよし市",
    "city_kana": "ミヨシシ",
    "town": "園原",
    "town_kana": "ソノハラ",
    "street": null,
    "office_name": null,
    "office_name_kana": null
  },
  "0228": {
    "postcode": "4700228",
    "prefecture": "愛知県",
    "prefecture_kana": "アイチケン",
    "prefecture_code": 23,
    "city": "みよし市",
    "city_kana": "ミヨシシ",
    "town": "新前田",
    "town_kana": "シンマエダ",
    "street": null,
    "office_name": null,
    "office_name_kana": null
  },
  "0231": {
    "postcode": "4700231",
    "prefecture": "愛知県",
    "prefecture_kana": "アイチケン",
    "prefecture_code": 23,
    "city": "みよし市",
    "city_kana": "ミヨシシ",
    "town": "黒笹",
    "town_kana": "クロザサ",
    "street": null,
    "office_name": null,
    "office_name_kana": null
  },
  "0232": {
    "postcode": "4700232",
    "prefecture": "愛知県",
    "prefecture_kana": "アイチケン",
    "prefecture_code": 23,
    "city": "みよし市",
    "city_kana": "ミヨシシ",
    "town": "黒笹いずみ",
    "town_kana": "クロザサイズミ",
    "street": null,
    "office_name": null,
    "office_name_kana": null
  },
  "0233": {
    "postcode": "4700233",
    "prefecture": "愛知県",
    "prefecture_kana": "アイチケン",
    "prefecture_code": 23,
    "city": "みよし市",
    "city_kana": "ミヨシシ",
    "town": "三好丘あおば",
    "town_kana": "ミヨシガオカアオバ",
    "street": null,
    "office_name": null,
    "office_name_kana": null
  },
  "0292": {
    "postcode": "4700292",
    "prefecture": "愛知県",
    "prefecture_kana": "アイチケン",
    "prefecture_code": 23,
    "city": "みよし市",
    "city_kana": "ミヨシシ",
    "town": "莇生町",
    "town_kana": "アザブチョウ",
    "street": "下永井田２０",
    "office_name": "ＮＣＡ",
    "office_name_kana": "エヌシ-エ-"
  },
  "0293": {
    "postcode": "4700293",
    "prefecture": "愛知県",
    "prefecture_kana": "アイチケン",
    "prefecture_code": 23,
    "city": "みよし市",
    "city_kana": "ミヨシシ",
    "town": "三好町",
    "town_kana": "ミヨシチョウ",
    "street": "東山３００",
    "office_name": "ノリタケカンパニー",
    "office_name_kana": "ノリタケカンパニ-"
  },
  "0294": {
    "postcode": "4700294",
    "prefecture": "愛知県",
    "prefecture_kana": "アイチケン",
    "prefecture_code": 23,
    "city": "みよし市",
    "city_kana": "ミヨシシ",
    "town": "福田町",
    "town_kana": "フクタチョウ",
    "street": "宮下１番１",
    "office_name": "株式会社　三五",
    "office_name_kana": "カブシキガイシヤ サンゴ"
  },
  "0295": {
    "postcode": "4700295",
    "prefecture": "愛知県",
    "prefecture_kana": "アイチケン",
    "prefecture_code": 23,
    "city": "みよし市",
    "city_kana": "ミヨシシ",
    "town": "三好町",
    "town_kana": "ミヨシチョウ",
    "street": "小坂５０",
    "office_name": "みよし市役所",
    "office_name_kana": "ミヨシシヤクシヨ"
  },
  "0297": {
    "postcode": "4700297",
    "prefecture": "愛知県",
    "prefecture_kana": "アイチケン",
    "prefecture_code": 23,
    "city": "みよし市",
    "city_kana": "ミヨシシ",
    "town": "根浦町",
    "town_kana": "ネウラマチ",
    "street": "七丁目２番地１",
    "office_name": "株式会社　高速　中京営業部",
    "office_name_kana": "カブシキカイシヤ コウソク チユウキヨウエイギヨウブ"
  },
  "0301": {
    "postcode": "4700301",
    "prefecture": "愛知県",
    "prefecture_kana": "アイチケン",
    "prefecture_code": 23,
    "city": "豊田市",
    "city_kana": "トヨタシ",
    "town": "松嶺町",
    "town_kana": "マツミネチョウ",
    "street": null,
    "office_name": null,
    "office_name_kana": null
  },
  "0302": {
    "postcode": "4700302",
    "prefecture": "愛知県",
    "prefecture_kana": "アイチケン",
    "prefecture_code": 23,
    "city": "豊田市",
    "city_kana": "トヨタシ",
    "town": "藤沢町",
    "town_kana": "フジサワチョウ",
    "street": null,
    "office_name": null,
    "office_name_kana": null
  },
  "0303": {
    "postcode": "4700303",
    "prefecture": "愛知県",
    "prefecture_kana": "アイチケン",
    "prefecture_code": 23,
    "city": "豊田市",
    "city_kana": "トヨタシ",
    "town": "押沢町",
    "town_kana": "オシザワチョウ",
    "street": null,
    "office_name": null,
    "office_name_kana": null
  },
  "0304": {
    "postcode": "4700304",
    "prefecture": "愛知県",
    "prefecture_kana": "アイチケン",
    "prefecture_code": 23,
    "city": "豊田市",
    "city_kana": "トヨタシ",
    "town": "富田町",
    "town_kana": "トミダチョウ",
    "street": null,
    "office_name": null,
    "office_name_kana": null
  },
  "0305": {
    "postcode": "4700305",
    "prefecture": "愛知県",
    "prefecture_kana": "アイチケン",
    "prefecture_code": 23,
    "city": "豊田市",
    "city_kana": "トヨタシ",
    "town": "国附町",
    "town_kana": "クニツキチョウ",
    "street": null,
    "office_name": null,
    "office_name_kana": null
  },
  "0306": {
    "postcode": "4700306",
    "prefecture": "愛知県",
    "prefecture_kana": "アイチケン",
    "prefecture_code": 23,
    "city": "豊田市",
    "city_kana": "トヨタシ",
    "town": "小峯町",
    "town_kana": "コミネチョウ",
    "street": null,
    "office_name": null,
    "office_name_kana": null
  },
  "0307": {
    "postcode": "4700307",
    "prefecture": "愛知県",
    "prefecture_kana": "アイチケン",
    "prefecture_code": 23,
    "city": "豊田市",
    "city_kana": "トヨタシ",
    "town": "東広瀬町",
    "town_kana": "ヒガシヒロセチョウ",
    "street": null,
    "office_name": null,
    "office_name_kana": null
  },
  "0308": {
    "postcode": "4700308",
    "prefecture": "愛知県",
    "prefecture_kana": "アイチケン",
    "prefecture_code": 23,
    "city": "豊田市",
    "city_kana": "トヨタシ",
    "town": "枝下町",
    "town_kana": "シダレチョウ",
    "street": null,
    "office_name": null,
    "office_name_kana": null
  },
  "0309": {
    "postcode": "4700309",
    "prefecture": "愛知県",
    "prefecture_kana": "アイチケン",
    "prefecture_code": 23,
    "city": "豊田市",
    "city_kana": "トヨタシ",
    "town": "西広瀬町",
    "town_kana": "ニシヒロセチョウ",
    "street": null,
    "office_name": null,
    "office_name_kana": null
  },
  "0311": {
    "postcode": "4700311",
    "prefecture": "愛知県",
    "prefecture_kana": "アイチケン",
    "prefecture_code": 23,
    "city": "豊田市",
    "city_kana": "トヨタシ",
    "town": "芳友町",
    "town_kana": "ホウユウチョウ",
    "street": null,
    "office_name": null,
    "office_name_kana": null
  },
  "0312": {
    "postcode": "4700312",
    "prefecture": "愛知県",
    "prefecture_kana": "アイチケン",
    "prefecture_code": 23,
    "city": "豊田市",
    "city_kana": "トヨタシ",
    "town": "中金町",
    "town_kana": "ナカガネチョウ",
    "street": null,
    "office_name": null,
    "office_name_kana": null
  },
  "0313": {
    "postcode": "4700313",
    "prefecture": "愛知県",
    "prefecture_kana": "アイチケン",
    "prefecture_code": 23,
    "city": "豊田市",
    "city_kana": "トヨタシ",
    "town": "城見町",
    "town_kana": "シロミチョウ",
    "street": null,
    "office_name": null,
    "office_name_kana": null
  },
  "0314": {
    "postcode": "4700314",
    "prefecture": "愛知県",
    "prefecture_kana": "アイチケン",
    "prefecture_code": 23,
    "city": "豊田市",
    "city_kana": "トヨタシ",
    "town": "野口町",
    "town_kana": "ノグチチョウ",
    "street": null,
    "office_name": null,
    "office_name_kana": null
  },
  "0315": {
    "postcode": "4700315",
    "prefecture": "愛知県",
    "prefecture_kana": "アイチケン",
    "prefecture_code": 23,
    "city": "豊田市",
    "city_kana": "トヨタシ",
    "town": "中切町",
    "town_kana": "ナカギリチョウ",
    "street": null,
    "office_name": null,
    "office_name_kana": null
  },
  "0316": {
    "postcode": "4700316",
    "prefecture": "愛知県",
    "prefecture_kana": "アイチケン",
    "prefecture_code": 23,
    "city": "豊田市",
    "city_kana": "トヨタシ",
    "town": "千鳥町",
    "town_kana": "チドリチョウ",
    "street": null,
    "office_name": null,
    "office_name_kana": null
  },
  "0317": {
    "postcode": "4700317",
    "prefecture": "愛知県",
    "prefecture_kana": "アイチケン",
    "prefecture_code": 23,
    "city": "豊田市",
    "city_kana": "トヨタシ",
    "town": "成合町",
    "town_kana": "ナライチョウ",
    "street": null,
    "office_name": null,
    "office_name_kana": null
  },
  "0318": {
    "postcode": "4700318",
    "prefecture": "愛知県",
    "prefecture_kana": "アイチケン",
    "prefecture_code": 23,
    "city": "豊田市",
    "city_kana": "トヨタシ",
    "town": "力石町",
    "town_kana": "チカライシチョウ",
    "street": null,
    "office_name": null,
    "office_name_kana": null
  },
  "0319": {
    "postcode": "4700319",
    "prefecture": "愛知県",
    "prefecture_kana": "アイチケン",
    "prefecture_code": 23,
    "city": "豊田市",
    "city_kana": "トヨタシ",
    "town": "下室町",
    "town_kana": "シモムロチョウ",
    "street": null,
    "office_name": null,
    "office_name_kana": null
  },
  "0321": {
    "postcode": "4700321",
    "prefecture": "愛知県",
    "prefecture_kana": "アイチケン",
    "prefecture_code": 23,
    "city": "豊田市",
    "city_kana": "トヨタシ",
    "town": "山中町",
    "town_kana": "ヤマナカチョウ",
    "street": null,
    "office_name": null,
    "office_name_kana": null
  },
  "0322": {
    "postcode": "4700322",
    "prefecture": "愛知県",
    "prefecture_kana": "アイチケン",
    "prefecture_code": 23,
    "city": "豊田市",
    "city_kana": "トヨタシ",
    "town": "上高町",
    "town_kana": "カミタカチョウ",
    "street": null,
    "office_name": null,
    "office_name_kana": null
  },
  "0323": {
    "postcode": "4700323",
    "prefecture": "愛知県",
    "prefecture_kana": "アイチケン",
    "prefecture_code": 23,
    "city": "豊田市",
    "city_kana": "トヨタシ",
    "town": "小呂町",
    "town_kana": "オロチョウ",
    "street": null,
    "office_name": null,
    "office_name_kana": null
  },
  "0324": {
    "postcode": "4700324",
    "prefecture": "愛知県",
    "prefecture_kana": "アイチケン",
    "prefecture_code": 23,
    "city": "豊田市",
    "city_kana": "トヨタシ",
    "town": "滝見町",
    "town_kana": "タキミチョウ",
    "street": null,
    "office_name": null,
    "office_name_kana": null
  },
  "0325": {
    "postcode": "4700325",
    "prefecture": "愛知県",
    "prefecture_kana": "アイチケン",
    "prefecture_code": 23,
    "city": "豊田市",
    "city_kana": "トヨタシ",
    "town": "手呂町",
    "town_kana": "テロチョウ",
    "street": null,
    "office_name": null,
    "office_name_kana": null
  },
  "0326": {
    "postcode": "4700326",
    "prefecture": "愛知県",
    "prefecture_kana": "アイチケン",
    "prefecture_code": 23,
    "city": "豊田市",
    "city_kana": "トヨタシ",
    "town": "手呂町樋田",
    "town_kana": "テロチョウトイタ",
    "street": null,
    "office_name": null,
    "office_name_kana": null
  },
  "0327": {
    "postcode": "4700327",
    "prefecture": "愛知県",
    "prefecture_kana": "アイチケン",
    "prefecture_code": 23,
    "city": "豊田市",
    "city_kana": "トヨタシ",
    "town": "寺下町",
    "town_kana": "テラシタチョウ",
    "street": null,
    "office_name": null,
    "office_name_kana": null
  },
  "0328": {
    "postcode": "4700328",
    "prefecture": "愛知県",
    "prefecture_kana": "アイチケン",
    "prefecture_code": 23,
    "city": "豊田市",
    "city_kana": "トヨタシ",
    "town": "勘八町",
    "town_kana": "カンパチチョウ",
    "street": null,
    "office_name": null,
    "office_name_kana": null
  },
  "0329": {
    "postcode": "4700329",
    "prefecture": "愛知県",
    "prefecture_kana": "アイチケン",
    "prefecture_code": 23,
    "city": "豊田市",
    "city_kana": "トヨタシ",
    "town": "石野町",
    "town_kana": "イシノチョウ",
    "street": null,
    "office_name": null,
    "office_name_kana": null
  },
  "0331": {
    "postcode": "4700331",
    "prefecture": "愛知県",
    "prefecture_kana": "アイチケン",
    "prefecture_code": 23,
    "city": "豊田市",
    "city_kana": "トヨタシ",
    "town": "平戸橋町",
    "town_kana": "ヒラトバシチョウ",
    "street": null,
    "office_name": null,
    "office_name_kana": null
  },
  "0332": {
    "postcode": "4700332",
    "prefecture": "愛知県",
    "prefecture_kana": "アイチケン",
    "prefecture_code": 23,
    "city": "豊田市",
    "city_kana": "トヨタシ",
    "town": "越戸町",
    "town_kana": "コシドチョウ",
    "street": null,
    "office_name": null,
    "office_name_kana": null
  },
  "0333": {
    "postcode": "4700333",
    "prefecture": "愛知県",
    "prefecture_kana": "アイチケン",
    "prefecture_code": 23,
    "city": "豊田市",
    "city_kana": "トヨタシ",
    "town": "荒井町",
    "town_kana": "アライチョウ",
    "street": null,
    "office_name": null,
    "office_name_kana": null
  },
  "0334": {
    "postcode": "4700334",
    "prefecture": "愛知県",
    "prefecture_kana": "アイチケン",
    "prefecture_code": 23,
    "city": "豊田市",
    "city_kana": "トヨタシ",
    "town": "花本町",
    "town_kana": "ハナモトチョウ",
    "street": null,
    "office_name": null,
    "office_name_kana": null
  },
  "0335": {
    "postcode": "4700335",
    "prefecture": "愛知県",
    "prefecture_kana": "アイチケン",
    "prefecture_code": 23,
    "city": "豊田市",
    "city_kana": "トヨタシ",
    "town": "青木町",
    "town_kana": "アオキチョウ",
    "street": null,
    "office_name": null,
    "office_name_kana": null
  },
  "0341": {
    "postcode": "4700341",
    "prefecture": "愛知県",
    "prefecture_kana": "アイチケン",
    "prefecture_code": 23,
    "city": "豊田市",
    "city_kana": "トヨタシ",
    "town": "上原町",
    "town_kana": "ウワハラチョウ",
    "street": null,
    "office_name": null,
    "office_name_kana": null
  },
  "0342": {
    "postcode": "4700342",
    "prefecture": "愛知県",
    "prefecture_kana": "アイチケン",
    "prefecture_code": 23,
    "city": "豊田市",
    "city_kana": "トヨタシ",
    "town": "大清水町",
    "town_kana": "オオシミズチョウ",
    "street": null,
    "office_name": null,
    "office_name_kana": null
  },
  "0343": {
    "postcode": "4700343",
    "prefecture": "愛知県",
    "prefecture_kana": "アイチケン",
    "prefecture_code": 23,
    "city": "豊田市",
    "city_kana": "トヨタシ",
    "town": "浄水町",
    "town_kana": "ジョウスイチョウ",
    "street": null,
    "office_name": null,
    "office_name_kana": null
  },
  "0344": {
    "postcode": "4700344",
    "prefecture": "愛知県",
    "prefecture_kana": "アイチケン",
    "prefecture_code": 23,
    "city": "豊田市",
    "city_kana": "トヨタシ",
    "town": "保見町",
    "town_kana": "ホミチョウ",
    "street": null,
    "office_name": null,
    "office_name_kana": null
  },
  "0345": {
    "postcode": "4700345",
    "prefecture": "愛知県",
    "prefecture_kana": "アイチケン",
    "prefecture_code": 23,
    "city": "豊田市",
    "city_kana": "トヨタシ",
    "town": "東保見町",
    "town_kana": "ヒガシホミチョウ",
    "street": null,
    "office_name": null,
    "office_name_kana": null
  },
  "0346": {
    "postcode": "4700346",
    "prefecture": "愛知県",
    "prefecture_kana": "アイチケン",
    "prefecture_code": 23,
    "city": "豊田市",
    "city_kana": "トヨタシ",
    "town": "乙部ケ丘",
    "town_kana": "オトベガオカ",
    "street": null,
    "office_name": null,
    "office_name_kana": null
  },
  "0347": {
    "postcode": "4700347",
    "prefecture": "愛知県",
    "prefecture_kana": "アイチケン",
    "prefecture_code": 23,
    "city": "豊田市",
    "city_kana": "トヨタシ",
    "town": "乙部町",
    "town_kana": "オトベチョウ",
    "street": null,
    "office_name": null,
    "office_name_kana": null
  },
  "0348": {
    "postcode": "4700348",
    "prefecture": "愛知県",
    "prefecture_kana": "アイチケン",
    "prefecture_code": 23,
    "city": "豊田市",
    "city_kana": "トヨタシ",
    "town": "貝津町",
    "town_kana": "カイヅチョウ",
    "street": null,
    "office_name": null,
    "office_name_kana": null
  },
  "0351": {
    "postcode": "4700351",
    "prefecture": "愛知県",
    "prefecture_kana": "アイチケン",
    "prefecture_code": 23,
    "city": "豊田市",
    "city_kana": "トヨタシ",
    "town": "広幡町",
    "town_kana": "ヒロハタチョウ",
    "street": null,
    "office_name": null,
    "office_name_kana": null
  },
  "0352": {
    "postcode": "4700352",
    "prefecture": "愛知県",
    "prefecture_kana": "アイチケン",
    "prefecture_code": 23,
    "city": "豊田市",
    "city_kana": "トヨタシ",
    "town": "篠原町",
    "town_kana": "ササバラチョウ",
    "street": null,
    "office_name": null,
    "office_name_kana": null
  },
  "0353": {
    "postcode": "4700353",
    "prefecture": "愛知県",
    "prefecture_kana": "アイチケン",
    "prefecture_code": 23,
    "city": "豊田市",
    "city_kana": "トヨタシ",
    "town": "保見ケ丘",
    "town_kana": "ホミガオカ",
    "street": null,
    "office_name": null,
    "office_name_kana": null
  },
  "0354": {
    "postcode": "4700354",
    "prefecture": "愛知県",
    "prefecture_kana": "アイチケン",
    "prefecture_code": 23,
    "city": "豊田市",
    "city_kana": "トヨタシ",
    "town": "田籾町",
    "town_kana": "タモミチョウ",
    "street": null,
    "office_name": null,
    "office_name_kana": null
  },
  "0355": {
    "postcode": "4700355",
    "prefecture": "愛知県",
    "prefecture_kana": "アイチケン",
    "prefecture_code": 23,
    "city": "豊田市",
    "city_kana": "トヨタシ",
    "town": "大畑町",
    "town_kana": "オオバタチョウ",
    "street": null,
    "office_name": null,
    "office_name_kana": null
  },
  "0356": {
    "postcode": "4700356",
    "prefecture": "愛知県",
    "prefecture_kana": "アイチケン",
    "prefecture_code": 23,
    "city": "豊田市",
    "city_kana": "トヨタシ",
    "town": "八草町",
    "town_kana": "ヤクサチョウ",
    "street": null,
    "office_name": null,
    "office_name_kana": null
  },
  "0361": {
    "postcode": "4700361",
    "prefecture": "愛知県",
    "prefecture_kana": "アイチケン",
    "prefecture_code": 23,
    "city": "豊田市",
    "city_kana": "トヨタシ",
    "town": "猿投町",
    "town_kana": "サナゲチョウ",
    "street": null,
    "office_name": null,
    "office_name_kana": null
  },
  "0362": {
    "postcode": "4700362",
    "prefecture": "愛知県",
    "prefecture_kana": "アイチケン",
    "prefecture_code": 23,
    "city": "豊田市",
    "city_kana": "トヨタシ",
    "town": "舞木町",
    "town_kana": "マイギチョウ",
    "street": null,
    "office_name": null,
    "office_name_kana": null
  },
  "0363": {
    "postcode": "4700363",
    "prefecture": "愛知県",
    "prefecture_kana": "アイチケン",
    "prefecture_code": 23,
    "city": "豊田市",
    "city_kana": "トヨタシ",
    "town": "本徳町",
    "town_kana": "ホントクチョウ",
    "street": null,
    "office_name": null,
    "office_name_kana": null
  },
  "0364": {
    "postcode": "4700364",
    "prefecture": "愛知県",
    "prefecture_kana": "アイチケン",
    "prefecture_code": 23,
    "city": "豊田市",
    "city_kana": "トヨタシ",
    "town": "加納町",
    "town_kana": "カノウチョウ",
    "street": null,
    "office_name": null,
    "office_name_kana": null
  },
  "0371": {
    "postcode": "4700371",
    "prefecture": "愛知県",
    "prefecture_kana": "アイチケン",
    "prefecture_code": 23,
    "city": "豊田市",
    "city_kana": "トヨタシ",
    "town": "御船町",
    "town_kana": "ミフネチョウ",
    "street": null,
    "office_name": null,
    "office_name_kana": null
  },
  "0372": {
    "postcode": "4700372",
    "prefecture": "愛知県",
    "prefecture_kana": "アイチケン",
    "prefecture_code": 23,
    "city": "豊田市",
    "city_kana": "トヨタシ",
    "town": "井上町",
    "town_kana": "イノウエチョウ",
    "street": null,
    "office_name": null,
    "office_name_kana": null
  },
  "0373": {
    "postcode": "4700373",
    "prefecture": "愛知県",
    "prefecture_kana": "アイチケン",
    "prefecture_code": 23,
    "city": "豊田市",
    "city_kana": "トヨタシ",
    "town": "四郷町",
    "town_kana": "シゴウチョウ",
    "street": null,
    "office_name": null,
    "office_name_kana": null
  },
  "0374": {
    "postcode": "4700374",
    "prefecture": "愛知県",
    "prefecture_kana": "アイチケン",
    "prefecture_code": 23,
    "city": "豊田市",
    "city_kana": "トヨタシ",
    "town": "伊保町",
    "town_kana": "イボチョウ",
    "street": null,
    "office_name": null,
    "office_name_kana": null
  },
  "0375": {
    "postcode": "4700375",
    "prefecture": "愛知県",
    "prefecture_kana": "アイチケン",
    "prefecture_code": 23,
    "city": "豊田市",
    "city_kana": "トヨタシ",
    "town": "亀首町",
    "town_kana": "カメクビチョウ",
    "street": null,
    "office_name": null,
    "office_name_kana": null
  },
  "0376": {
    "postcode": "4700376",
    "prefecture": "愛知県",
    "prefecture_kana": "アイチケン",
    "prefecture_code": 23,
    "city": "豊田市",
    "city_kana": "トヨタシ",
    "town": "高町",
    "town_kana": "タカマチ",
    "street": null,
    "office_name": null,
    "office_name_kana": null
  },
  "0392": {
    "postcode": "4700392",
    "prefecture": "愛知県",
    "prefecture_kana": "アイチケン",
    "prefecture_code": 23,
    "city": "豊田市",
    "city_kana": "トヨタシ",
    "town": "八草町",
    "town_kana": "ヤクサチョウ",
    "street": "八千草１２４７",
    "office_name": "愛知工業大学",
    "office_name_kana": "アイチコウギヨウダイガク"
  },
  "0393": {
    "postcode": "4700393",
    "prefecture": "愛知県",
    "prefecture_kana": "アイチケン",
    "prefecture_code": 23,
    "city": "豊田市",
    "city_kana": "トヨタシ",
    "town": "貝津町",
    "town_kana": "カイヅチョウ",
    "street": "床立１０１",
    "office_name": "中京大学",
    "office_name_kana": "チユウキヨウダイガク"
  },
  "0394": {
    "postcode": "4700394",
    "prefecture": "愛知県",
    "prefecture_kana": "アイチケン",
    "prefecture_code": 23,
    "city": "豊田市",
    "city_kana": "トヨタシ",
    "town": "平戸橋町",
    "town_kana": "ヒラトバシチョウ",
    "street": "波岩８６−１",
    "office_name": "愛知みずほ大学",
    "office_name_kana": "アイチミズホダイガク"
  },
  "0395": {
    "postcode": "4700395",
    "prefecture": "愛知県",
    "prefecture_kana": "アイチケン",
    "prefecture_code": 23,
    "city": "豊田市",
    "city_kana": "トヨタシ",
    "town": "亀首町",
    "town_kana": "カメクビチョウ",
    "street": "金山８８",
    "office_name": "トヨタ紡織　株式会社　猿投工場",
    "office_name_kana": "トヨタボウシヨク カブシキカイシヤ サナゲコウジヨウ"
  },
  "0396": {
    "postcode": "4700396",
    "prefecture": "愛知県",
    "prefecture_kana": "アイチケン",
    "prefecture_code": 23,
    "city": "豊田市",
    "city_kana": "トヨタシ",
    "town": "浄水町",
    "town_kana": "ジョウスイチョウ",
    "street": "伊保原５００−１",
    "office_name": "愛知県厚生農業協同組合連合会　豊田厚生病院",
    "office_name_kana": "アイチケコウセイノウギヨウキヨウドウクミアイレンゴウカイ トヨタコウセイビヨウイン"
  },
  "0401": {
    "postcode": "4700401",
    "prefecture": "愛知県",
    "prefecture_kana": "アイチケン",
    "prefecture_code": 23,
    "city": "豊田市",
    "city_kana": "トヨタシ",
    "town": "大岩町",
    "town_kana": "オオイワチョウ",
    "street": null,
    "office_name": null,
    "office_name_kana": null
  },
  "0402": {
    "postcode": "4700402",
    "prefecture": "愛知県",
    "prefecture_kana": "アイチケン",
    "prefecture_code": 23,
    "city": "豊田市",
    "city_kana": "トヨタシ",
    "town": "三箇町",
    "town_kana": "サンガチョウ",
    "street": null,
    "office_name": null,
    "office_name_kana": null
  },
  "0403": {
    "postcode": "4700403",
    "prefecture": "愛知県",
    "prefecture_kana": "アイチケン",
    "prefecture_code": 23,
    "city": "豊田市",
    "city_kana": "トヨタシ",
    "town": "白川町",
    "town_kana": "シラカワチョウ",
    "street": null,
    "office_name": null,
    "office_name_kana": null
  },
  "0404": {
    "postcode": "4700404",
    "prefecture": "愛知県",
    "prefecture_kana": "アイチケン",
    "prefecture_code": 23,
    "city": "豊田市",
    "city_kana": "トヨタシ",
    "town": "西市野々町",
    "town_kana": "ニシイチノノチョウ",
    "street": null,
    "office_name": null,
    "office_name_kana": null
  },
  "0411": {
    "postcode": "4700411",
    "prefecture": "愛知県",
    "prefecture_kana": "アイチケン",
    "prefecture_code": 23,
    "city": "豊田市",
    "city_kana": "トヨタシ",
    "town": "木瀬町",
    "town_kana": "キセチョウ",
    "street": null,
    "office_name": null,
    "office_name_kana": null
  },
  "0421": {
    "postcode": "4700421",
    "prefecture": "愛知県",
    "prefecture_kana": "アイチケン",
    "prefecture_code": 23,
    "city": "豊田市",
    "city_kana": "トヨタシ",
    "town": "上川口町",
    "town_kana": "カミカワグチチョウ",
    "street": null,
    "office_name": null,
    "office_name_kana": null
  },
  "0422": {
    "postcode": "4700422",
    "prefecture": "愛知県",
    "prefecture_kana": "アイチケン",
    "prefecture_code": 23,
    "city": "豊田市",
    "city_kana": "トヨタシ",
    "town": "下川口町",
    "town_kana": "シモカワグチチョウ",
    "street": null,
    "office_name": null,
    "office_name_kana": null
  },
  "0423": {
    "postcode": "4700423",
    "prefecture": "愛知県",
    "prefecture_kana": "アイチケン",
    "prefecture_code": 23,
    "city": "豊田市",
    "city_kana": "トヨタシ",
    "town": "田茂平町",
    "town_kana": "タモダイラチョウ",
    "street": null,
    "office_name": null,
    "office_name_kana": null
  },
  "0424": {
    "postcode": "4700424",
    "prefecture": "愛知県",
    "prefecture_kana": "アイチケン",
    "prefecture_code": 23,
    "city": "豊田市",
    "city_kana": "トヨタシ",
    "town": "御作町",
    "town_kana": "ミツクリチョウ",
    "street": null,
    "office_name": null,
    "office_name_kana": null
  },
  "0431": {
    "postcode": "4700431",
    "prefecture": "愛知県",
    "prefecture_kana": "アイチケン",
    "prefecture_code": 23,
    "city": "豊田市",
    "city_kana": "トヨタシ",
    "town": "西中山町",
    "town_kana": "ニシナカヤマチョウ",
    "street": null,
    "office_name": null,
    "office_name_kana": null
  },
  "0441": {
    "postcode": "4700441",
    "prefecture": "愛知県",
    "prefecture_kana": "アイチケン",
    "prefecture_code": 23,
    "city": "豊田市",
    "city_kana": "トヨタシ",
    "town": "深見町",
    "town_kana": "フカミチョウ",
    "street": null,
    "office_name": null,
    "office_name_kana": null
  },
  "0451": {
    "postcode": "4700451",
    "prefecture": "愛知県",
    "prefecture_kana": "アイチケン",
    "prefecture_code": 23,
    "city": "豊田市",
    "city_kana": "トヨタシ",
    "town": "藤岡飯野町",
    "town_kana": "フジオカイイノチョウ",
    "street": null,
    "office_name": null,
    "office_name_kana": null
  },
  "0452": {
    "postcode": "4700452",
    "prefecture": "愛知県",
    "prefecture_kana": "アイチケン",
    "prefecture_code": 23,
    "city": "豊田市",
    "city_kana": "トヨタシ",
    "town": "迫町",
    "town_kana": "ハサマチョウ",
    "street": null,
    "office_name": null,
    "office_name_kana": null
  },
  "0453": {
    "postcode": "4700453",
    "prefecture": "愛知県",
    "prefecture_kana": "アイチケン",
    "prefecture_code": 23,
    "city": "豊田市",
    "city_kana": "トヨタシ",
    "town": "北一色町",
    "town_kana": "キタイシキチョウ",
    "street": null,
    "office_name": null,
    "office_name_kana": null
  },
  "0461": {
    "postcode": "4700461",
    "prefecture": "愛知県",
    "prefecture_kana": "アイチケン",
    "prefecture_code": 23,
    "city": "豊田市",
    "city_kana": "トヨタシ",
    "town": "北曽木町",
    "town_kana": "ホクソギチョウ",
    "street": null,
    "office_name": null,
    "office_name_kana": null
  },
  "0462": {
    "postcode": "4700462",
    "prefecture": "愛知県",
    "prefecture_kana": "アイチケン",
    "prefecture_code": 23,
    "city": "豊田市",
    "city_kana": "トヨタシ",
    "town": "上渡合町",
    "town_kana": "カミドアイチョウ",
    "street": null,
    "office_name": null,
    "office_name_kana": null
  },
  "0463": {
    "postcode": "4700463",
    "prefecture": "愛知県",
    "prefecture_kana": "アイチケン",
    "prefecture_code": 23,
    "city": "豊田市",
    "city_kana": "トヨタシ",
    "town": "石飛町",
    "town_kana": "イシトビチョウ",
    "street": null,
    "office_name": null,
    "office_name_kana": null
  },
  "0464": {
    "postcode": "4700464",
    "prefecture": "愛知県",
    "prefecture_kana": "アイチケン",
    "prefecture_code": 23,
    "city": "豊田市",
    "city_kana": "トヨタシ",
    "town": "折平町",
    "town_kana": "オリダイラチョウ",
    "street": null,
    "office_name": null,
    "office_name_kana": null
  },
  "0471": {
    "postcode": "4700471",
    "prefecture": "愛知県",
    "prefecture_kana": "アイチケン",
    "prefecture_code": 23,
    "city": "豊田市",
    "city_kana": "トヨタシ",
    "town": "石畳町",
    "town_kana": "イシダタミチョウ",
    "street": null,
    "office_name": null,
    "office_name_kana": null
  },
  "0492": {
    "postcode": "4700492",
    "prefecture": "愛知県",
    "prefecture_kana": "アイチケン",
    "prefecture_code": 23,
    "city": "豊田市",
    "city_kana": "トヨタシ",
    "town": "藤岡飯野町",
    "town_kana": "フジオカイイノチョウ",
    "street": "大川ケ原１１４１−１",
    "office_name": "アイシン化工　株式会社",
    "office_name_kana": "アイシンカコウ カブシキガイシヤ"
  },
  "0493": {
    "postcode": "4700493",
    "prefecture": "愛知県",
    "prefecture_kana": "アイチケン",
    "prefecture_code": 23,
    "city": "豊田市",
    "city_kana": "トヨタシ",
    "town": "藤岡飯野町",
    "town_kana": "フジオカイイノチョウ",
    "street": "田中２４５",
    "office_name": "豊田市役所　藤岡支所",
    "office_name_kana": "トヨタシヤクシヨ フジオカシシヨ"
  },
  "0495": {
    "postcode": "4700495",
    "prefecture": "愛知県",
    "prefecture_kana": "アイチケン",
    "prefecture_code": 23,
    "city": "豊田市",
    "city_kana": "トヨタシ",
    "town": "藤岡飯野町",
    "town_kana": "フジオカイイノチョウ",
    "street": "下貝戸６４４",
    "office_name": "あいち豊田農協　藤岡支店",
    "office_name_kana": "アイチユタカタノウキヨウ フジオカシテン"
  },
  "0496": {
    "postcode": "4700496",
    "prefecture": "愛知県",
    "prefecture_kana": "アイチケン",
    "prefecture_code": 23,
    "city": "豊田市",
    "city_kana": "トヨタシ",
    "town": "西中山町",
    "town_kana": "ニシナカヤマチョウ",
    "street": "西宮前４５−１",
    "office_name": "豊和化成　株式会社",
    "office_name_kana": "ホウワカセイ カブシキガイシヤ"
  },
  "0501": {
    "postcode": "4700501",
    "prefecture": "愛知県",
    "prefecture_kana": "アイチケン",
    "prefecture_code": 23,
    "city": "豊田市",
    "city_kana": "トヨタシ",
    "town": "小原田代町",
    "town_kana": "オバラタシロチョウ",
    "street": null,
    "office_name": null,
    "office_name_kana": null
  },
  "0502": {
    "postcode": "4700502",
    "prefecture": "愛知県",
    "prefecture_kana": "アイチケン",
    "prefecture_code": 23,
    "city": "豊田市",
    "city_kana": "トヨタシ",
    "town": "小原北町",
    "town_kana": "オバラキタチョウ",
    "street": null,
    "office_name": null,
    "office_name_kana": null
  },
  "0503": {
    "postcode": "4700503",
    "prefecture": "愛知県",
    "prefecture_kana": "アイチケン",
    "prefecture_code": 23,
    "city": "豊田市",
    "city_kana": "トヨタシ",
    "town": "前洞町",
    "town_kana": "マエボラチョウ",
    "street": null,
    "office_name": null,
    "office_name_kana": null
  },
  "0504": {
    "postcode": "4700504",
    "prefecture": "愛知県",
    "prefecture_kana": "アイチケン",
    "prefecture_code": 23,
    "city": "豊田市",
    "city_kana": "トヨタシ",
    "town": "雑敷町",
    "town_kana": "ザッシキチョウ",
    "street": null,
    "office_name": null,
    "office_name_kana": null
  },
  "0505": {
    "postcode": "4700505",
    "prefecture": "愛知県",
    "prefecture_kana": "アイチケン",
    "prefecture_code": 23,
    "city": "豊田市",
    "city_kana": "トヨタシ",
    "town": "柏ケ洞町",
    "town_kana": "カシガホラチョウ",
    "street": null,
    "office_name": null,
    "office_name_kana": null
  },
  "0506": {
    "postcode": "4700506",
    "prefecture": "愛知県",
    "prefecture_kana": "アイチケン",
    "prefecture_code": 23,
    "city": "豊田市",
    "city_kana": "トヨタシ",
    "town": "川見町",
    "town_kana": "センミチョウ",
    "street": null,
    "office_name": null,
    "office_name_kana": null
  },
  "0511": {
    "postcode": "4700511",
    "prefecture": "愛知県",
    "prefecture_kana": "アイチケン",
    "prefecture_code": 23,
    "city": "豊田市",
    "city_kana": "トヨタシ",
    "town": "大ケ蔵連町",
    "town_kana": "オオガゾレチョウ",
    "street": null,
    "office_name": null,
    "office_name_kana": null
  },
  "0512": {
    "postcode": "4700512",
    "prefecture": "愛知県",
    "prefecture_kana": "アイチケン",
    "prefecture_code": 23,
    "city": "豊田市",
    "city_kana": "トヨタシ",
    "town": "東郷町",
    "town_kana": "トウゴウチョウ",
    "street": null,
    "office_name": null,
    "office_name_kana": null
  },
  "0513": {
    "postcode": "4700513",
    "prefecture": "愛知県",
    "prefecture_kana": "アイチケン",
    "prefecture_code": 23,
    "city": "豊田市",
    "city_kana": "トヨタシ",
    "town": "苅萱町",
    "town_kana": "カルカヤチョウ",
    "street": null,
    "office_name": null,
    "office_name_kana": null
  },
  "0514": {
    "postcode": "4700514",
    "prefecture": "愛知県",
    "prefecture_kana": "アイチケン",
    "prefecture_code": 23,
    "city": "豊田市",
    "city_kana": "トヨタシ",
    "town": "平岩町",
    "town_kana": "ヒライワチョウ",
    "street": null,
    "office_name": null,
    "office_name_kana": null
  },
  "0515": {
    "postcode": "4700515",
    "prefecture": "愛知県",
    "prefecture_kana": "アイチケン",
    "prefecture_code": 23,
    "city": "豊田市",
    "city_kana": "トヨタシ",
    "town": "岩下町",
    "town_kana": "イワシタチョウ",
    "street": null,
    "office_name": null,
    "office_name_kana": null
  },
  "0516": {
    "postcode": "4700516",
    "prefecture": "愛知県",
    "prefecture_kana": "アイチケン",
    "prefecture_code": 23,
    "city": "豊田市",
    "city_kana": "トヨタシ",
    "town": "宮代町",
    "town_kana": "ミヤシロチョウ",
    "street": null,
    "office_name": null,
    "office_name_kana": null
  },
  "0521": {
    "postcode": "4700521",
    "prefecture": "愛知県",
    "prefecture_kana": "アイチケン",
    "prefecture_code": 23,
    "city": "豊田市",
    "city_kana": "トヨタシ",
    "town": "西丹波町",
    "town_kana": "ニシタンバチョウ",
    "street": null,
    "office_name": null,
    "office_name_kana": null
  },
  "0522": {
    "postcode": "4700522",
    "prefecture": "愛知県",
    "prefecture_kana": "アイチケン",
    "prefecture_code": 23,
    "city": "豊田市",
    "city_kana": "トヨタシ",
    "town": "榑俣町",
    "town_kana": "クレマタチョウ",
    "street": null,
    "office_name": null,
    "office_name_kana": null
  },
  "0523": {
    "postcode": "4700523",
    "prefecture": "愛知県",
    "prefecture_kana": "アイチケン",
    "prefecture_code": 23,
    "city": "豊田市",
    "city_kana": "トヨタシ",
    "town": "平畑町",
    "town_kana": "ヒラハタチョウ",
    "street": null,
    "office_name": null,
    "office_name_kana": null
  },
  "0524": {
    "postcode": "4700524",
    "prefecture": "愛知県",
    "prefecture_kana": "アイチケン",
    "prefecture_code": 23,
    "city": "豊田市",
    "city_kana": "トヨタシ",
    "town": "日面町",
    "town_kana": "ヒオモチョウ",
    "street": null,
    "office_name": null,
    "office_name_kana": null
  },
  "0525": {
    "postcode": "4700525",
    "prefecture": "愛知県",
    "prefecture_kana": "アイチケン",
    "prefecture_code": 23,
    "city": "豊田市",
    "city_kana": "トヨタシ",
    "town": "簗平町",
    "town_kana": "ヤナダイラチョウ",
    "street": null,
    "office_name": null,
    "office_name_kana": null
  },
  "0526": {
    "postcode": "4700526",
    "prefecture": "愛知県",
    "prefecture_kana": "アイチケン",
    "prefecture_code": 23,
    "city": "豊田市",
    "city_kana": "トヨタシ",
    "town": "西細田町",
    "town_kana": "ニシホソダチョウ",
    "street": null,
    "office_name": null,
    "office_name_kana": null
  },
  "0531": {
    "postcode": "4700531",
    "prefecture": "愛知県",
    "prefecture_kana": "アイチケン",
    "prefecture_code": 23,
    "city": "豊田市",
    "city_kana": "トヨタシ",
    "town": "小原町",
    "town_kana": "オバラチョウ",
    "street": null,
    "office_name": null,
    "office_name_kana": null
  },
  "0532": {
    "postcode": "4700532",
    "prefecture": "愛知県",
    "prefecture_kana": "アイチケン",
    "prefecture_code": 23,
    "city": "豊田市",
    "city_kana": "トヨタシ",
    "town": "大坂町",
    "town_kana": "オオサカチョウ",
    "street": null,
    "office_name": null,
    "office_name_kana": null
  },
  "0533": {
    "postcode": "4700533",
    "prefecture": "愛知県",
    "prefecture_kana": "アイチケン",
    "prefecture_code": 23,
    "city": "豊田市",
    "city_kana": "トヨタシ",
    "town": "鍛治屋敷町",
    "town_kana": "カジヤシキチョウ",
    "street": null,
    "office_name": null,
    "office_name_kana": null
  },
  "0534": {
    "postcode": "4700534",
    "prefecture": "愛知県",
    "prefecture_kana": "アイチケン",
    "prefecture_code": 23,
    "city": "豊田市",
    "city_kana": "トヨタシ",
    "town": "李町",
    "town_kana": "スモモチョウ",
    "street": null,
    "office_name": null,
    "office_name_kana": null
  },
  "0535": {
    "postcode": "4700535",
    "prefecture": "愛知県",
    "prefecture_kana": "アイチケン",
    "prefecture_code": 23,
    "city": "豊田市",
    "city_kana": "トヨタシ",
    "town": "百月町",
    "town_kana": "ドウヅキチョウ",
    "street": null,
    "office_name": null,
    "office_name_kana": null
  },
  "0541": {
    "postcode": "4700541",
    "prefecture": "愛知県",
    "prefecture_kana": "アイチケン",
    "prefecture_code": 23,
    "city": "豊田市",
    "city_kana": "トヨタシ",
    "town": "西萩平町",
    "town_kana": "ニシハギノヒラチョウ",
    "street": null,
    "office_name": null,
    "office_name_kana": null
  },
  "0542": {
    "postcode": "4700542",
    "prefecture": "愛知県",
    "prefecture_kana": "アイチケン",
    "prefecture_code": 23,
    "city": "豊田市",
    "city_kana": "トヨタシ",
    "town": "喜佐平町",
    "town_kana": "キサダイラチョウ",
    "street": null,
    "office_name": null,
    "office_name_kana": null
  },
  "0543": {
    "postcode": "4700543",
    "prefecture": "愛知県",
    "prefecture_kana": "アイチケン",
    "prefecture_code": 23,
    "city": "豊田市",
    "city_kana": "トヨタシ",
    "town": "北篠平町",
    "town_kana": "キタササダイラチョウ",
    "street": null,
    "office_name": null,
    "office_name_kana": null
  },
  "0544": {
    "postcode": "4700544",
    "prefecture": "愛知県",
    "prefecture_kana": "アイチケン",
    "prefecture_code": 23,
    "city": "豊田市",
    "city_kana": "トヨタシ",
    "town": "寺平町",
    "town_kana": "テラダイラチョウ",
    "street": null,
    "office_name": null,
    "office_name_kana": null
  },
  "0545": {
    "postcode": "4700545",
    "prefecture": "愛知県",
    "prefecture_kana": "アイチケン",
    "prefecture_code": 23,
    "city": "豊田市",
    "city_kana": "トヨタシ",
    "town": "千洗町",
    "town_kana": "チアライチョウ",
    "street": null,
    "office_name": null,
    "office_name_kana": null
  },
  "0551": {
    "postcode": "4700551",
    "prefecture": "愛知県",
    "prefecture_kana": "アイチケン",
    "prefecture_code": 23,
    "city": "豊田市",
    "city_kana": "トヨタシ",
    "town": "三ツ久保町",
    "town_kana": "ミツクボチョウ",
    "street": null,
    "office_name": null,
    "office_name_kana": null
  },
  "0552": {
    "postcode": "4700552",
    "prefecture": "愛知県",
    "prefecture_kana": "アイチケン",
    "prefecture_code": 23,
    "city": "豊田市",
    "city_kana": "トヨタシ",
    "town": "乙ケ林町",
    "town_kana": "オカバヤシチョウ",
    "street": null,
    "office_name": null,
    "office_name_kana": null
  },
  "0553": {
    "postcode": "4700553",
    "prefecture": "愛知県",
    "prefecture_kana": "アイチケン",
    "prefecture_code": 23,
    "city": "豊田市",
    "city_kana": "トヨタシ",
    "town": "大洞町",
    "town_kana": "オオボラチョウ",
    "street": null,
    "office_name": null,
    "office_name_kana": null
  },
  "0554": {
    "postcode": "4700554",
    "prefecture": "愛知県",
    "prefecture_kana": "アイチケン",
    "prefecture_code": 23,
    "city": "豊田市",
    "city_kana": "トヨタシ",
    "town": "荷掛町",
    "town_kana": "ニカケチョウ",
    "street": null,
    "office_name": null,
    "office_name_kana": null
  },
  "0555": {
    "postcode": "4700555",
    "prefecture": "愛知県",
    "prefecture_kana": "アイチケン",
    "prefecture_code": 23,
    "city": "豊田市",
    "city_kana": "トヨタシ",
    "town": "大平町",
    "town_kana": "オオダイラチョウ",
    "street": null,
    "office_name": null,
    "office_name_kana": null
  },
  "0561": {
    "postcode": "4700561",
    "prefecture": "愛知県",
    "prefecture_kana": "アイチケン",
    "prefecture_code": 23,
    "city": "豊田市",
    "city_kana": "トヨタシ",
    "town": "上仁木町",
    "town_kana": "カミニギチョウ",
    "street": null,
    "office_name": null,
    "office_name_kana": null
  },
  "0562": {
    "postcode": "4700562",
    "prefecture": "愛知県",
    "prefecture_kana": "アイチケン",
    "prefecture_code": 23,
    "city": "豊田市",
    "city_kana": "トヨタシ",
    "town": "永太郎町",
    "town_kana": "エイタロウチョウ",
    "street": null,
    "office_name": null,
    "office_name_kana": null
  },
  "0563": {
    "postcode": "4700563",
    "prefecture": "愛知県",
    "prefecture_kana": "アイチケン",
    "prefecture_code": 23,
    "city": "豊田市",
    "city_kana": "トヨタシ",
    "town": "遊屋町",
    "town_kana": "ユヤチョウ",
    "street": null,
    "office_name": null,
    "office_name_kana": null
  },
  "0564": {
    "postcode": "4700564",
    "prefecture": "愛知県",
    "prefecture_kana": "アイチケン",
    "prefecture_code": 23,
    "city": "豊田市",
    "city_kana": "トヨタシ",
    "town": "沢田町",
    "town_kana": "サワダチョウ",
    "street": null,
    "office_name": null,
    "office_name_kana": null
  },
  "0565": {
    "postcode": "4700565",
    "prefecture": "愛知県",
    "prefecture_kana": "アイチケン",
    "prefecture_code": 23,
    "city": "豊田市",
    "city_kana": "トヨタシ",
    "town": "下仁木町",
    "town_kana": "シモニギチョウ",
    "street": null,
    "office_name": null,
    "office_name_kana": null
  },
  "0571": {
    "postcode": "4700571",
    "prefecture": "愛知県",
    "prefecture_kana": "アイチケン",
    "prefecture_code": 23,
    "city": "豊田市",
    "city_kana": "トヨタシ",
    "town": "松名町",
    "town_kana": "マツナチョウ",
    "street": null,
    "office_name": null,
    "office_name_kana": null
  },
  "0572": {
    "postcode": "4700572",
    "prefecture": "愛知県",
    "prefecture_kana": "アイチケン",
    "prefecture_code": 23,
    "city": "豊田市",
    "city_kana": "トヨタシ",
    "town": "小原大倉町",
    "town_kana": "オバラオオクラチョウ",
    "street": null,
    "office_name": null,
    "office_name_kana": null
  },
  "0573": {
    "postcode": "4700573",
    "prefecture": "愛知県",
    "prefecture_kana": "アイチケン",
    "prefecture_code": 23,
    "city": "豊田市",
    "city_kana": "トヨタシ",
    "town": "北大野町",
    "town_kana": "キタオオノチョウ",
    "street": null,
    "office_name": null,
    "office_name_kana": null
  },
  "0574": {
    "postcode": "4700574",
    "prefecture": "愛知県",
    "prefecture_kana": "アイチケン",
    "prefecture_code": 23,
    "city": "豊田市",
    "city_kana": "トヨタシ",
    "town": "市場町",
    "town_kana": "イチバチョウ",
    "street": null,
    "office_name": null,
    "office_name_kana": null
  },
  "0575": {
    "postcode": "4700575",
    "prefecture": "愛知県",
    "prefecture_kana": "アイチケン",
    "prefecture_code": 23,
    "city": "豊田市",
    "city_kana": "トヨタシ",
    "town": "川下町",
    "town_kana": "カワシモチョウ",
    "street": null,
    "office_name": null,
    "office_name_kana": null
  },
  "0592": {
    "postcode": "4700592",
    "prefecture": "愛知県",
    "prefecture_kana": "アイチケン",
    "prefecture_code": 23,
    "city": "豊田市",
    "city_kana": "トヨタシ",
    "town": "小原町",
    "town_kana": "オバラチョウ",
    "street": "上平４４１番地の１",
    "office_name": "豊田市役所　小原支所",
    "office_name_kana": "トヨタシヤクシヨ オバラシシヨ"
  },
  "1100": {
    "postcode": "4701100",
    "prefecture": "愛知県",
    "prefecture_kana": "アイチケン",
    "prefecture_code": 23,
    "city": "豊明市",
    "city_kana": "トヨアケシ",
    "town": "",
    "town_kana": "",
    "street": null,
    "office_name": null,
    "office_name_kana": null
  },
  "1101": {
    "postcode": "4701101",
    "prefecture": "愛知県",
    "prefecture_kana": "アイチケン",
    "prefecture_code": 23,
    "city": "豊明市",
    "city_kana": "トヨアケシ",
    "town": "沓掛町",
    "town_kana": "クツカケチョウ",
    "street": null,
    "office_name": null,
    "office_name_kana": null
  },
  "1102": [
    {
      "postcode": "4701102",
      "prefecture": "愛知県",
      "prefecture_kana": "アイチケン",
      "prefecture_code": 23,
      "city": "豊明市",
      "city_kana": "トヨアケシ",
      "town": "沓掛町",
      "town_kana": "クツカケチョウ",
      "street": null,
      "office_name": null,
      "office_name_kana": null
    },
    {
      "postcode": "4701102",
      "prefecture": "愛知県",
      "prefecture_kana": "アイチケン",
      "prefecture_code": 23,
      "city": "豊明市",
      "city_kana": "トヨアケシ",
      "town": "沓掛町勅使",
      "town_kana": "クツカケチョウチョクシ",
      "street": null,
      "office_name": null,
      "office_name_kana": null
    }
  ],
  "1103": [
    {
      "postcode": "4701103",
      "prefecture": "愛知県",
      "prefecture_kana": "アイチケン",
      "prefecture_code": 23,
      "city": "豊明市",
      "city_kana": "トヨアケシ",
      "town": "沓掛町",
      "town_kana": "クツカケチョウ",
      "street": null,
      "office_name": null,
      "office_name_kana": null
    },
    {
      "postcode": "4701103",
      "prefecture": "愛知県",
      "prefecture_kana": "アイチケン",
      "prefecture_code": 23,
      "city": "豊明市",
      "city_kana": "トヨアケシ",
      "town": "沓掛町小廻間",
      "town_kana": "クツカケチョウコハザマ",
      "street": null,
      "office_name": null,
      "office_name_kana": null
    }
  ],
  "1104": [
    {
      "postcode": "4701104",
      "prefecture": "愛知県",
      "prefecture_kana": "アイチケン",
      "prefecture_code": 23,
      "city": "豊明市",
      "city_kana": "トヨアケシ",
      "town": "沓掛町",
      "town_kana": "クツカケチョウ",
      "street": null,
      "office_name": null,
      "office_name_kana": null
    },
    {
      "postcode": "4701104",
      "prefecture": "愛知県",
      "prefecture_kana": "アイチケン",
      "prefecture_code": 23,
      "city": "豊明市",
      "city_kana": "トヨアケシ",
      "town": "沓掛町五反田",
      "town_kana": "クツカケチョウゴタンダ",
      "street": null,
      "office_name": null,
      "office_name_kana": null
    }
  ],
  "1105": [
    {
      "postcode": "4701105",
      "prefecture": "愛知県",
      "prefecture_kana": "アイチケン",
      "prefecture_code": 23,
      "city": "豊明市",
      "city_kana": "トヨアケシ",
      "town": "沓掛町",
      "town_kana": "クツカケチョウ",
      "street": null,
      "office_name": null,
      "office_name_kana": null
    },
    {
      "postcode": "4701105",
      "prefecture": "愛知県",
      "prefecture_kana": "アイチケン",
      "prefecture_code": 23,
      "city": "豊明市",
      "city_kana": "トヨアケシ",
      "town": "沓掛町上高根",
      "town_kana": "クツカケチョウカミタカネ",
      "street": null,
      "office_name": null,
      "office_name_kana": null
    }
  ],
  "1106": [
    {
      "postcode": "4701106",
      "prefecture": "愛知県",
      "prefecture_kana": "アイチケン",
      "prefecture_code": 23,
      "city": "豊明市",
      "city_kana": "トヨアケシ",
      "town": "沓掛町",
      "town_kana": "クツカケチョウ",
      "street": null,
      "office_name": null,
      "office_name_kana": null
    },
    {
      "postcode": "4701106",
      "prefecture": "愛知県",
      "prefecture_kana": "アイチケン",
      "prefecture_code": 23,
      "city": "豊明市",
      "city_kana": "トヨアケシ",
      "town": "沓掛町下高根",
      "town_kana": "クツカケチョウシモタカネ",
      "street": null,
      "office_name": null,
      "office_name_kana": null
    }
  ],
  "1107": [
    {
      "postcode": "4701107",
      "prefecture": "愛知県",
      "prefecture_kana": "アイチケン",
      "prefecture_code": 23,
      "city": "豊明市",
      "city_kana": "トヨアケシ",
      "town": "沓掛町",
      "town_kana": "クツカケチョウ",
      "street": null,
      "office_name": null,
      "office_name_kana": null
    },
    {
      "postcode": "4701107",
      "prefecture": "愛知県",
      "prefecture_kana": "アイチケン",
      "prefecture_code": 23,
      "city": "豊明市",
      "city_kana": "トヨアケシ",
      "town": "沓掛町泉",
      "town_kana": "クツカケチョウイズミ",
      "street": null,
      "office_name": null,
      "office_name_kana": null
    }
  ],
  "1108": [
    {
      "postcode": "4701108",
      "prefecture": "愛知県",
      "prefecture_kana": "アイチケン",
      "prefecture_code": 23,
      "city": "豊明市",
      "city_kana": "トヨアケシ",
      "town": "沓掛町",
      "town_kana": "クツカケチョウ",
      "street": null,
      "office_name": null,
      "office_name_kana": null
    },
    {
      "postcode": "4701108",
      "prefecture": "愛知県",
      "prefecture_kana": "アイチケン",
      "prefecture_code": 23,
      "city": "豊明市",
      "city_kana": "トヨアケシ",
      "town": "沓掛町荒井",
      "town_kana": "クツカケチョウアライ",
      "street": null,
      "office_name": null,
      "office_name_kana": null
    }
  ],
  "1109": [
    {
      "postcode": "4701109",
      "prefecture": "愛知県",
      "prefecture_kana": "アイチケン",
      "prefecture_code": 23,
      "city": "豊明市",
      "city_kana": "トヨアケシ",
      "town": "沓掛町",
      "town_kana": "クツカケチョウ",
      "street": null,
      "office_name": null,
      "office_name_kana": null
    },
    {
      "postcode": "4701109",
      "prefecture": "愛知県",
      "prefecture_kana": "アイチケン",
      "prefecture_code": 23,
      "city": "豊明市",
      "city_kana": "トヨアケシ",
      "town": "沓掛町宿",
      "town_kana": "クツカケチョウシュク",
      "street": null,
      "office_name": null,
      "office_name_kana": null
    }
  ],
  "1111": {
    "postcode": "4701111",
    "prefecture": "愛知県",
    "prefecture_kana": "アイチケン",
    "prefecture_code": 23,
    "city": "豊明市",
    "city_kana": "トヨアケシ",
    "town": "大久伝町",
    "town_kana": "オオクテチョウ",
    "street": null,
    "office_name": null,
    "office_name_kana": null
  },
  "1112": {
    "postcode": "4701112",
    "prefecture": "愛知県",
    "prefecture_kana": "アイチケン",
    "prefecture_code": 23,
    "city": "豊明市",
    "city_kana": "トヨアケシ",
    "town": "新田町",
    "town_kana": "シンデンチョウ",
    "street": null,
    "office_name": null,
    "office_name_kana": null
  },
  "1113": [
    {
      "postcode": "4701113",
      "prefecture": "愛知県",
      "prefecture_kana": "アイチケン",
      "prefecture_code": 23,
      "city": "豊明市",
      "city_kana": "トヨアケシ",
      "town": "新田町",
      "town_kana": "シンデンチョウ",
      "street": null,
      "office_name": null,
      "office_name_kana": null
    },
    {
      "postcode": "4701113",
      "prefecture": "愛知県",
      "prefecture_kana": "アイチケン",
      "prefecture_code": 23,
      "city": "豊明市",
      "city_kana": "トヨアケシ",
      "town": "新田町錦",
      "town_kana": "シンデンチョウニシキ",
      "street": null,
      "office_name": null,
      "office_name_kana": null
    }
  ],
  "1114": [
    {
      "postcode": "4701114",
      "prefecture": "愛知県",
      "prefecture_kana": "アイチケン",
      "prefecture_code": 23,
      "city": "豊明市",
      "city_kana": "トヨアケシ",
      "town": "新田町",
      "town_kana": "シンデンチョウ",
      "street": null,
      "office_name": null,
      "office_name_kana": null
    },
    {
      "postcode": "4701114",
      "prefecture": "愛知県",
      "prefecture_kana": "アイチケン",
      "prefecture_code": 23,
      "city": "豊明市",
      "city_kana": "トヨアケシ",
      "town": "新田町広長",
      "town_kana": "シンデンチョウヒロナガ",
      "street": null,
      "office_name": null,
      "office_name_kana": null
    }
  ],
  "1115": [
    {
      "postcode": "4701115",
      "prefecture": "愛知県",
      "prefecture_kana": "アイチケン",
      "prefecture_code": 23,
      "city": "豊明市",
      "city_kana": "トヨアケシ",
      "town": "新田町",
      "town_kana": "シンデンチョウ",
      "street": null,
      "office_name": null,
      "office_name_kana": null
    },
    {
      "postcode": "4701115",
      "prefecture": "愛知県",
      "prefecture_kana": "アイチケン",
      "prefecture_code": 23,
      "city": "豊明市",
      "city_kana": "トヨアケシ",
      "town": "新田町前原",
      "town_kana": "シンデンチョウマエバラ",
      "street": null,
      "office_name": null,
      "office_name_kana": null
    }
  ],
  "1116": [
    {
      "postcode": "4701116",
      "prefecture": "愛知県",
      "prefecture_kana": "アイチケン",
      "prefecture_code": 23,
      "city": "豊明市",
      "city_kana": "トヨアケシ",
      "town": "新田町",
      "town_kana": "シンデンチョウ",
      "street": null,
      "office_name": null,
      "office_name_kana": null
    },
    {
      "postcode": "4701116",
      "prefecture": "愛知県",
      "prefecture_kana": "アイチケン",
      "prefecture_code": 23,
      "city": "豊明市",
      "city_kana": "トヨアケシ",
      "town": "新田町吉池",
      "town_kana": "シンデンチョウヨシイケ",
      "street": null,
      "office_name": null,
      "office_name_kana": null
    }
  ],
  "1121": {
    "postcode": "4701121",
    "prefecture": "愛知県",
    "prefecture_kana": "アイチケン",
    "prefecture_code": 23,
    "city": "豊明市",
    "city_kana": "トヨアケシ",
    "town": "西川町",
    "town_kana": "ニシガワチョウ",
    "street": null,
    "office_name": null,
    "office_name_kana": null
  },
  "1122": [
    {
      "postcode": "4701122",
      "prefecture": "愛知県",
      "prefecture_kana": "アイチケン",
      "prefecture_code": 23,
      "city": "豊明市",
      "city_kana": "トヨアケシ",
      "town": "西川町",
      "town_kana": "ニシガワチョウ",
      "street": null,
      "office_name": null,
      "office_name_kana": null
    },
    {
      "postcode": "4701122",
      "prefecture": "愛知県",
      "prefecture_kana": "アイチケン",
      "prefecture_code": 23,
      "city": "豊明市",
      "city_kana": "トヨアケシ",
      "town": "西川町長田",
      "town_kana": "ニシガワチョウオサダ",
      "street": null,
      "office_name": null,
      "office_name_kana": null
    }
  ],
  "1123": [
    {
      "postcode": "4701123",
      "prefecture": "愛知県",
      "prefecture_kana": "アイチケン",
      "prefecture_code": 23,
      "city": "豊明市",
      "city_kana": "トヨアケシ",
      "town": "西川町",
      "town_kana": "ニシガワチョウ",
      "street": null,
      "office_name": null,
      "office_name_kana": null
    },
    {
      "postcode": "4701123",
      "prefecture": "愛知県",
      "prefecture_kana": "アイチケン",
      "prefecture_code": 23,
      "city": "豊明市",
      "city_kana": "トヨアケシ",
      "town": "西川町笹原",
      "town_kana": "ニシガワチョウササハラ",
      "street": null,
      "office_name": null,
      "office_name_kana": null
    }
  ],
  "1124": {
    "postcode": "4701124",
    "prefecture": "愛知県",
    "prefecture_kana": "アイチケン",
    "prefecture_code": 23,
    "city": "豊明市",
    "city_kana": "トヨアケシ",
    "town": "三崎町",
    "town_kana": "ミサキチョウ",
    "street": null,
    "office_name": null,
    "office_name_kana": null
  },
  "1125": [
    {
      "postcode": "4701125",
      "prefecture": "愛知県",
      "prefecture_kana": "アイチケン",
      "prefecture_code": 23,
      "city": "豊明市",
      "city_kana": "トヨアケシ",
      "town": "三崎町",
      "town_kana": "ミサキチョウ",
      "street": null,
      "office_name": null,
      "office_name_kana": null
    },
    {
      "postcode": "4701125",
      "prefecture": "愛知県",
      "prefecture_kana": "アイチケン",
      "prefecture_code": 23,
      "city": "豊明市",
      "city_kana": "トヨアケシ",
      "town": "三崎町中ノ坪",
      "town_kana": "ミサキチョウナカノツボ",
      "street": null,
      "office_name": null,
      "office_name_kana": null
    }
  ],
  "1126": [
    {
      "postcode": "4701126",
      "prefecture": "愛知県",
      "prefecture_kana": "アイチケン",
      "prefecture_code": 23,
      "city": "豊明市",
      "city_kana": "トヨアケシ",
      "town": "三崎町",
      "town_kana": "ミサキチョウ",
      "street": null,
      "office_name": null,
      "office_name_kana": null
    },
    {
      "postcode": "4701126",
      "prefecture": "愛知県",
      "prefecture_kana": "アイチケン",
      "prefecture_code": 23,
      "city": "豊明市",
      "city_kana": "トヨアケシ",
      "town": "三崎町高鴨",
      "town_kana": "ミサキチョウタカガモ",
      "street": null,
      "office_name": null,
      "office_name_kana": null
    }
  ],
  "1127": [
    {
      "postcode": "4701127",
      "prefecture": "愛知県",
      "prefecture_kana": "アイチケン",
      "prefecture_code": 23,
      "city": "豊明市",
      "city_kana": "トヨアケシ",
      "town": "三崎町",
      "town_kana": "ミサキチョウ",
      "street": null,
      "office_name": null,
      "office_name_kana": null
    },
    {
      "postcode": "4701127",
      "prefecture": "愛知県",
      "prefecture_kana": "アイチケン",
      "prefecture_code": 23,
      "city": "豊明市",
      "city_kana": "トヨアケシ",
      "town": "三崎町ゆたか台",
      "town_kana": "ミサキチョウユタカダイ",
      "street": null,
      "office_name": null,
      "office_name_kana": null
    }
  ],
  "1131": {
    "postcode": "4701131",
    "prefecture": "愛知県",
    "prefecture_kana": "アイチケン",
    "prefecture_code": 23,
    "city": "豊明市",
    "city_kana": "トヨアケシ",
    "town": "二村台",
    "town_kana": "フタムラダイ",
    "street": null,
    "office_name": null,
    "office_name_kana": null
  },
  "1132": {
    "postcode": "4701132",
    "prefecture": "愛知県",
    "prefecture_kana": "アイチケン",
    "prefecture_code": 23,
    "city": "豊明市",
    "city_kana": "トヨアケシ",
    "town": "間米町",
    "town_kana": "マゴメチョウ",
    "street": null,
    "office_name": null,
    "office_name_kana": null
  },
  "1133": [
    {
      "postcode": "4701133",
      "prefecture": "愛知県",
      "prefecture_kana": "アイチケン",
      "prefecture_code": 23,
      "city": "豊明市",
      "city_kana": "トヨアケシ",
      "town": "間米町",
      "town_kana": "マゴメチョウ",
      "street": null,
      "office_name": null,
      "office_name_kana": null
    },
    {
      "postcode": "4701133",
      "prefecture": "愛知県",
      "prefecture_kana": "アイチケン",
      "prefecture_code": 23,
      "city": "豊明市",
      "city_kana": "トヨアケシ",
      "town": "間米町鶴根",
      "town_kana": "マゴメチョウツルネ",
      "street": null,
      "office_name": null,
      "office_name_kana": null
    }
  ],
  "1141": {
    "postcode": "4701141",
    "prefecture": "愛知県",
    "prefecture_kana": "アイチケン",
    "prefecture_code": 23,
    "city": "豊明市",
    "city_kana": "トヨアケシ",
    "town": "阿野町",
    "town_kana": "アノチョウ",
    "street": null,
    "office_name": null,
    "office_name_kana": null
  },
  "1142": [
    {
      "postcode": "4701142",
      "prefecture": "愛知県",
      "prefecture_kana": "アイチケン",
      "prefecture_code": 23,
      "city": "豊明市",
      "city_kana": "トヨアケシ",
      "town": "阿野町",
      "town_kana": "アノチョウ",
      "street": null,
      "office_name": null,
      "office_name_kana": null
    },
    {
      "postcode": "4701142",
      "prefecture": "愛知県",
      "prefecture_kana": "アイチケン",
      "prefecture_code": 23,
      "city": "豊明市",
      "city_kana": "トヨアケシ",
      "town": "阿野町東阿野",
      "town_kana": "アノチョウヒガシアノ",
      "street": null,
      "office_name": null,
      "office_name_kana": null
    }
  ],
  "1143": [
    {
      "postcode": "4701143",
      "prefecture": "愛知県",
      "prefecture_kana": "アイチケン",
      "prefecture_code": 23,
      "city": "豊明市",
      "city_kana": "トヨアケシ",
      "town": "阿野町",
      "town_kana": "アノチョウ",
      "street": null,
      "office_name": null,
      "office_name_kana": null
    },
    {
      "postcode": "4701143",
      "prefecture": "愛知県",
      "prefecture_kana": "アイチケン",
      "prefecture_code": 23,
      "city": "豊明市",
      "city_kana": "トヨアケシ",
      "town": "阿野町上納",
      "town_kana": "アノチョウジョウノウ",
      "street": null,
      "office_name": null,
      "office_name_kana": null
    }
  ],
  "1144": [
    {
      "postcode": "4701144",
      "prefecture": "愛知県",
      "prefecture_kana": "アイチケン",
      "prefecture_code": 23,
      "city": "豊明市",
      "city_kana": "トヨアケシ",
      "town": "阿野町",
      "town_kana": "アノチョウ",
      "street": null,
      "office_name": null,
      "office_name_kana": null
    },
    {
      "postcode": "4701144",
      "prefecture": "愛知県",
      "prefecture_kana": "アイチケン",
      "prefecture_code": 23,
      "city": "豊明市",
      "city_kana": "トヨアケシ",
      "town": "阿野町稲葉",
      "town_kana": "アノチョウイナバ",
      "street": null,
      "office_name": null,
      "office_name_kana": null
    }
  ],
  "1145": [
    {
      "postcode": "4701145",
      "prefecture": "愛知県",
      "prefecture_kana": "アイチケン",
      "prefecture_code": 23,
      "city": "豊明市",
      "city_kana": "トヨアケシ",
      "town": "阿野町",
      "town_kana": "アノチョウ",
      "street": null,
      "office_name": null,
      "office_name_kana": null
    },
    {
      "postcode": "4701145",
      "prefecture": "愛知県",
      "prefecture_kana": "アイチケン",
      "prefecture_code": 23,
      "city": "豊明市",
      "city_kana": "トヨアケシ",
      "town": "阿野町北上ノ山",
      "town_kana": "アノチョウキタウエノヤマ",
      "street": null,
      "office_name": null,
      "office_name_kana": null
    }
  ],
  "1146": [
    {
      "postcode": "4701146",
      "prefecture": "愛知県",
      "prefecture_kana": "アイチケン",
      "prefecture_code": 23,
      "city": "豊明市",
      "city_kana": "トヨアケシ",
      "town": "阿野町",
      "town_kana": "アノチョウ",
      "street": null,
      "office_name": null,
      "office_name_kana": null
    },
    {
      "postcode": "4701146",
      "prefecture": "愛知県",
      "prefecture_kana": "アイチケン",
      "prefecture_code": 23,
      "city": "豊明市",
      "city_kana": "トヨアケシ",
      "town": "阿野町黒部",
      "town_kana": "アノチョウクロベ",
      "street": null,
      "office_name": null,
      "office_name_kana": null
    }
  ],
  "1147": [
    {
      "postcode": "4701147",
      "prefecture": "愛知県",
      "prefecture_kana": "アイチケン",
      "prefecture_code": 23,
      "city": "豊明市",
      "city_kana": "トヨアケシ",
      "town": "阿野町",
      "town_kana": "アノチョウ",
      "street": null,
      "office_name": null,
      "office_name_kana": null
    },
    {
      "postcode": "4701147",
      "prefecture": "愛知県",
      "prefecture_kana": "アイチケン",
      "prefecture_code": 23,
      "city": "豊明市",
      "city_kana": "トヨアケシ",
      "town": "阿野町坂部",
      "town_kana": "アノチョウサカベ",
      "street": null,
      "office_name": null,
      "office_name_kana": null
    }
  ],
  "1148": [
    {
      "postcode": "4701148",
      "prefecture": "愛知県",
      "prefecture_kana": "アイチケン",
      "prefecture_code": 23,
      "city": "豊明市",
      "city_kana": "トヨアケシ",
      "town": "阿野町",
      "town_kana": "アノチョウ",
      "street": null,
      "office_name": null,
      "office_name_kana": null
    },
    {
      "postcode": "4701148",
      "prefecture": "愛知県",
      "prefecture_kana": "アイチケン",
      "prefecture_code": 23,
      "city": "豊明市",
      "city_kana": "トヨアケシ",
      "town": "阿野町滑",
      "town_kana": "アノチョウナメリ",
      "street": null,
      "office_name": null,
      "office_name_kana": null
    }
  ],
  "1151": {
    "postcode": "4701151",
    "prefecture": "愛知県",
    "prefecture_kana": "アイチケン",
    "prefecture_code": 23,
    "city": "豊明市",
    "city_kana": "トヨアケシ",
    "town": "前後町",
    "town_kana": "ゼンゴチョウ",
    "street": null,
    "office_name": null,
    "office_name_kana": null
  },
  "1152": [
    {
      "postcode": "4701152",
      "prefecture": "愛知県",
      "prefecture_kana": "アイチケン",
      "prefecture_code": 23,
      "city": "豊明市",
      "city_kana": "トヨアケシ",
      "town": "前後町",
      "town_kana": "ゼンゴチョウ",
      "street": null,
      "office_name": null,
      "office_name_kana": null
    },
    {
      "postcode": "4701152",
      "prefecture": "愛知県",
      "prefecture_kana": "アイチケン",
      "prefecture_code": 23,
      "city": "豊明市",
      "city_kana": "トヨアケシ",
      "town": "前後町仙人塚",
      "town_kana": "ゼンゴチョウセンニンヅカ",
      "street": null,
      "office_name": null,
      "office_name_kana": null
    }
  ],
  "1153": [
    {
      "postcode": "4701153",
      "prefecture": "愛知県",
      "prefecture_kana": "アイチケン",
      "prefecture_code": 23,
      "city": "豊明市",
      "city_kana": "トヨアケシ",
      "town": "前後町",
      "town_kana": "ゼンゴチョウ",
      "street": null,
      "office_name": null,
      "office_name_kana": null
    },
    {
      "postcode": "4701153",
      "prefecture": "愛知県",
      "prefecture_kana": "アイチケン",
      "prefecture_code": 23,
      "city": "豊明市",
      "city_kana": "トヨアケシ",
      "town": "前後町三ツ谷",
      "town_kana": "ゼンゴチョウミツヤ",
      "street": null,
      "office_name": null,
      "office_name_kana": null
    }
  ],
  "1154": {
    "postcode": "4701154",
    "prefecture": "愛知県",
    "prefecture_kana": "アイチケン",
    "prefecture_code": 23,
    "city": "豊明市",
    "city_kana": "トヨアケシ",
    "town": "新栄町",
    "town_kana": "シンサカエチョウ",
    "street": null,
    "office_name": null,
    "office_name_kana": null
  },
  "1161": {
    "postcode": "4701161",
    "prefecture": "愛知県",
    "prefecture_kana": "アイチケン",
    "prefecture_code": 23,
    "city": "豊明市",
    "city_kana": "トヨアケシ",
    "town": "栄町",
    "town_kana": "サカエチョウ",
    "street": null,
    "office_name": null,
    "office_name_kana": null
  },
  "1162": [
    {
      "postcode": "4701162",
      "prefecture": "愛知県",
      "prefecture_kana": "アイチケン",
      "prefecture_code": 23,
      "city": "豊明市",
      "city_kana": "トヨアケシ",
      "town": "栄町",
      "town_kana": "サカエチョウ",
      "street": null,
      "office_name": null,
      "office_name_kana": null
    },
    {
      "postcode": "4701162",
      "prefecture": "愛知県",
      "prefecture_kana": "アイチケン",
      "prefecture_code": 23,
      "city": "豊明市",
      "city_kana": "トヨアケシ",
      "town": "栄町上姥子",
      "town_kana": "サカエチョウカミウバコ",
      "street": null,
      "office_name": null,
      "office_name_kana": null
    }
  ],
  "1163": [
    {
      "postcode": "4701163",
      "prefecture": "愛知県",
      "prefecture_kana": "アイチケン",
      "prefecture_code": 23,
      "city": "豊明市",
      "city_kana": "トヨアケシ",
      "town": "栄町",
      "town_kana": "サカエチョウ",
      "street": null,
      "office_name": null,
      "office_name_kana": null
    },
    {
      "postcode": "4701163",
      "prefecture": "愛知県",
      "prefecture_kana": "アイチケン",
      "prefecture_code": 23,
      "city": "豊明市",
      "city_kana": "トヨアケシ",
      "town": "栄町姥子",
      "town_kana": "サカエチョウウバコ",
      "street": null,
      "office_name": null,
      "office_name_kana": null
    }
  ],
  "1164": [
    {
      "postcode": "4701164",
      "prefecture": "愛知県",
      "prefecture_kana": "アイチケン",
      "prefecture_code": 23,
      "city": "豊明市",
      "city_kana": "トヨアケシ",
      "town": "栄町",
      "town_kana": "サカエチョウ",
      "street": null,
      "office_name": null,
      "office_name_kana": null
    },
    {
      "postcode": "4701164",
      "prefecture": "愛知県",
      "prefecture_kana": "アイチケン",
      "prefecture_code": 23,
      "city": "豊明市",
      "city_kana": "トヨアケシ",
      "town": "栄町大蔵下",
      "town_kana": "サカエチョウオオグラシタ",
      "street": null,
      "office_name": null,
      "office_name_kana": null
    }
  ],
  "1165": [
    {
      "postcode": "4701165",
      "prefecture": "愛知県",
      "prefecture_kana": "アイチケン",
      "prefecture_code": 23,
      "city": "豊明市",
      "city_kana": "トヨアケシ",
      "town": "栄町",
      "town_kana": "サカエチョウ",
      "street": null,
      "office_name": null,
      "office_name_kana": null
    },
    {
      "postcode": "4701165",
      "prefecture": "愛知県",
      "prefecture_kana": "アイチケン",
      "prefecture_code": 23,
      "city": "豊明市",
      "city_kana": "トヨアケシ",
      "town": "栄町内山",
      "town_kana": "サカエチョウウチヤマ",
      "street": null,
      "office_name": null,
      "office_name_kana": null
    }
  ],
  "1166": [
    {
      "postcode": "4701166",
      "prefecture": "愛知県",
      "prefecture_kana": "アイチケン",
      "prefecture_code": 23,
      "city": "豊明市",
      "city_kana": "トヨアケシ",
      "town": "栄町",
      "town_kana": "サカエチョウ",
      "street": null,
      "office_name": null,
      "office_name_kana": null
    },
    {
      "postcode": "4701166",
      "prefecture": "愛知県",
      "prefecture_kana": "アイチケン",
      "prefecture_code": 23,
      "city": "豊明市",
      "city_kana": "トヨアケシ",
      "town": "栄町大根",
      "town_kana": "サカエチョウオオネ",
      "street": null,
      "office_name": null,
      "office_name_kana": null
    }
  ],
  "1167": [
    {
      "postcode": "4701167",
      "prefecture": "愛知県",
      "prefecture_kana": "アイチケン",
      "prefecture_code": 23,
      "city": "豊明市",
      "city_kana": "トヨアケシ",
      "town": "栄町",
      "town_kana": "サカエチョウ",
      "street": null,
      "office_name": null,
      "office_name_kana": null
    },
    {
      "postcode": "4701167",
      "prefecture": "愛知県",
      "prefecture_kana": "アイチケン",
      "prefecture_code": 23,
      "city": "豊明市",
      "city_kana": "トヨアケシ",
      "town": "栄町西大根",
      "town_kana": "サカエチョウニシオオネ",
      "street": null,
      "office_name": null,
      "office_name_kana": null
    }
  ],
  "1168": [
    {
      "postcode": "4701168",
      "prefecture": "愛知県",
      "prefecture_kana": "アイチケン",
      "prefecture_code": 23,
      "city": "豊明市",
      "city_kana": "トヨアケシ",
      "town": "栄町",
      "town_kana": "サカエチョウ",
      "street": null,
      "office_name": null,
      "office_name_kana": null
    },
    {
      "postcode": "4701168",
      "prefecture": "愛知県",
      "prefecture_kana": "アイチケン",
      "prefecture_code": 23,
      "city": "豊明市",
      "city_kana": "トヨアケシ",
      "town": "栄町南舘",
      "town_kana": "サカエチョウミナミヤカタ",
      "street": null,
      "office_name": null,
      "office_name_kana": null
    }
  ],
  "1192": {
    "postcode": "4701192",
    "prefecture": "愛知県",
    "prefecture_kana": "アイチケン",
    "prefecture_code": 23,
    "city": "豊明市",
    "city_kana": "トヨアケシ",
    "town": "沓掛町",
    "town_kana": "クツカケチョウ",
    "street": "田楽ケ窪１−９８",
    "office_name": "藤田保健衛生大学",
    "office_name_kana": "フジタホケンエイセイダイガク"
  },
  "1193": {
    "postcode": "4701193",
    "prefecture": "愛知県",
    "prefecture_kana": "アイチケン",
    "prefecture_code": 23,
    "city": "豊明市",
    "city_kana": "トヨアケシ",
    "town": "栄町",
    "town_kana": "サカエチョウ",
    "street": "武侍４８",
    "office_name": "名古屋短期大学",
    "office_name_kana": "ナゴヤタンキダイガク"
  },
  "1194": {
    "postcode": "4701194",
    "prefecture": "愛知県",
    "prefecture_kana": "アイチケン",
    "prefecture_code": 23,
    "city": "豊明市",
    "city_kana": "トヨアケシ",
    "town": "栄町",
    "town_kana": "サカエチョウ",
    "street": "南舘３−１６",
    "office_name": "ホシザキ電機　株式会社",
    "office_name_kana": "ホシザキデンキ カブシキガイシヤ"
  },
  "1195": {
    "postcode": "4701195",
    "prefecture": "愛知県",
    "prefecture_kana": "アイチケン",
    "prefecture_code": 23,
    "city": "豊明市",
    "city_kana": "トヨアケシ",
    "town": "新田町",
    "town_kana": "シンデンチョウ",
    "street": "子持松１−１（豊明郵便局私書箱第１０号）",
    "office_name": "豊明市役所",
    "office_name_kana": "トヨアケシヤクシヨ"
  },
  "1196": {
    "postcode": "4701196",
    "prefecture": "愛知県",
    "prefecture_kana": "アイチケン",
    "prefecture_code": 23,
    "city": "豊明市",
    "city_kana": "トヨアケシ",
    "town": "栄町",
    "town_kana": "サカエチョウ",
    "street": "大脇７（豊明郵便局私書箱第５号）",
    "office_name": "笹徳印刷　株式会社",
    "office_name_kana": "ササトクインサツ カブシキガイシヤ"
  },
  "1198": {
    "postcode": "4701198",
    "prefecture": "愛知県",
    "prefecture_kana": "アイチケン",
    "prefecture_code": 23,
    "city": "豊明市",
    "city_kana": "トヨアケシ",
    "town": "沓掛町",
    "town_kana": "クツカケチョウ",
    "street": "小所１８９",
    "office_name": "寿がきや食品　株式会社　本社工場",
    "office_name_kana": "スガキヤシヨクヒン カブシキガイシヤ ホンシヤコウジヨウ"
  },
  "1201": {
    "postcode": "4701201",
    "prefecture": "愛知県",
    "prefecture_kana": "アイチケン",
    "prefecture_code": 23,
    "city": "豊田市",
    "city_kana": "トヨタシ",
    "town": "豊栄町",
    "town_kana": "ホウエイチョウ",
    "street": null,
    "office_name": null,
    "office_name_kana": null
  },
  "1202": {
    "postcode": "4701202",
    "prefecture": "愛知県",
    "prefecture_kana": "アイチケン",
    "prefecture_code": 23,
    "city": "豊田市",
    "city_kana": "トヨタシ",
    "town": "渡刈町",
    "town_kana": "トガリチョウ",
    "street": null,
    "office_name": null,
    "office_name_kana": null
  },
  "1203": {
    "postcode": "4701203",
    "prefecture": "愛知県",
    "prefecture_kana": "アイチケン",
    "prefecture_code": 23,
    "city": "豊田市",
    "city_kana": "トヨタシ",
    "town": "幸町",
    "town_kana": "サイワイチョウ",
    "street": null,
    "office_name": null,
    "office_name_kana": null
  },
  "1204": {
    "postcode": "4701204",
    "prefecture": "愛知県",
    "prefecture_kana": "アイチケン",
    "prefecture_code": 23,
    "city": "豊田市",
    "city_kana": "トヨタシ",
    "town": "配津町",
    "town_kana": "ハイヅチョウ",
    "street": null,
    "office_name": null,
    "office_name_kana": null
  },
  "1205": {
    "postcode": "4701205",
    "prefecture": "愛知県",
    "prefecture_kana": "アイチケン",
    "prefecture_code": 23,
    "city": "豊田市",
    "city_kana": "トヨタシ",
    "town": "永覚町",
    "town_kana": "エカクチョウ",
    "street": null,
    "office_name": null,
    "office_name_kana": null
  },
  "1206": {
    "postcode": "4701206",
    "prefecture": "愛知県",
    "prefecture_kana": "アイチケン",
    "prefecture_code": 23,
    "city": "豊田市",
    "city_kana": "トヨタシ",
    "town": "永覚新町",
    "town_kana": "エカクシンマチ",
    "street": null,
    "office_name": null,
    "office_name_kana": null
  },
  "1207": {
    "postcode": "4701207",
    "prefecture": "愛知県",
    "prefecture_kana": "アイチケン",
    "prefecture_code": 23,
    "city": "豊田市",
    "city_kana": "トヨタシ",
    "town": "鴛鴨町",
    "town_kana": "オシカモチョウ",
    "street": null,
    "office_name": null,
    "office_name_kana": null
  },
  "1211": {
    "postcode": "4701211",
    "prefecture": "愛知県",
    "prefecture_kana": "アイチケン",
    "prefecture_code": 23,
    "city": "豊田市",
    "city_kana": "トヨタシ",
    "town": "畝部東町",
    "town_kana": "ウネベヒガシマチ",
    "street": null,
    "office_name": null,
    "office_name_kana": null
  },
  "1212": {
    "postcode": "4701212",
    "prefecture": "愛知県",
    "prefecture_kana": "アイチケン",
    "prefecture_code": 23,
    "city": "豊田市",
    "city_kana": "トヨタシ",
    "town": "桝塚東町",
    "town_kana": "マスヅカヒガシマチ",
    "street": null,
    "office_name": null,
    "office_name_kana": null
  },
  "1213": {
    "postcode": "4701213",
    "prefecture": "愛知県",
    "prefecture_kana": "アイチケン",
    "prefecture_code": 23,
    "city": "豊田市",
    "city_kana": "トヨタシ",
    "town": "桝塚西町",
    "town_kana": "マスヅカニシマチ",
    "street": null,
    "office_name": null,
    "office_name_kana": null
  },
  "1214": {
    "postcode": "4701214",
    "prefecture": "愛知県",
    "prefecture_kana": "アイチケン",
    "prefecture_code": 23,
    "city": "豊田市",
    "city_kana": "トヨタシ",
    "town": "福受町",
    "town_kana": "フクジュチョウ",
    "street": null,
    "office_name": null,
    "office_name_kana": null
  },
  "1215": {
    "postcode": "4701215",
    "prefecture": "愛知県",
    "prefecture_kana": "アイチケン",
    "prefecture_code": 23,
    "city": "豊田市",
    "city_kana": "トヨタシ",
    "town": "広美町",
    "town_kana": "ヒロミチョウ",
    "street": null,
    "office_name": null,
    "office_name_kana": null
  },
  "1216": {
    "postcode": "4701216",
    "prefecture": "愛知県",
    "prefecture_kana": "アイチケン",
    "prefecture_code": 23,
    "city": "豊田市",
    "city_kana": "トヨタシ",
    "town": "和会町",
    "town_kana": "カズエチョウ",
    "street": null,
    "office_name": null,
    "office_name_kana": null
  },
  "1217": {
    "postcode": "4701217",
    "prefecture": "愛知県",
    "prefecture_kana": "アイチケン",
    "prefecture_code": 23,
    "city": "豊田市",
    "city_kana": "トヨタシ",
    "town": "大成町",
    "town_kana": "タイセイチョウ",
    "street": null,
    "office_name": null,
    "office_name_kana": null
  },
  "1218": {
    "postcode": "4701218",
    "prefecture": "愛知県",
    "prefecture_kana": "アイチケン",
    "prefecture_code": 23,
    "city": "豊田市",
    "city_kana": "トヨタシ",
    "town": "上郷町",
    "town_kana": "カミゴウチョウ",
    "street": null,
    "office_name": null,
    "office_name_kana": null
  },
  "1219": {
    "postcode": "4701219",
    "prefecture": "愛知県",
    "prefecture_kana": "アイチケン",
    "prefecture_code": 23,
    "city": "豊田市",
    "city_kana": "トヨタシ",
    "town": "畝部西町",
    "town_kana": "ウネベニシマチ",
    "street": null,
    "office_name": null,
    "office_name_kana": null
  },
  "1292": {
    "postcode": "4701292",
    "prefecture": "愛知県",
    "prefecture_kana": "アイチケン",
    "prefecture_code": 23,
    "city": "豊田市",
    "city_kana": "トヨタシ",
    "town": "豊栄町",
    "town_kana": "ホウエイチョウ",
    "street": "２丁目１１１",
    "office_name": "トヨタ生活　協同組合",
    "office_name_kana": "トヨタセイカツ キヨウドウクミアイ"
  },
  "1293": {
    "postcode": "4701293",
    "prefecture": "愛知県",
    "prefecture_kana": "アイチケン",
    "prefecture_code": 23,
    "city": "豊田市",
    "city_kana": "トヨタシ",
    "town": "和会町",
    "town_kana": "カズエチョウ",
    "street": "道上１０",
    "office_name": "豊生ブレーキ工業　株式会社",
    "office_name_kana": "ホウセイブレ-キコウギヨウ カブシキガイシヤ"
  },
  "1294": {
    "postcode": "4701294",
    "prefecture": "愛知県",
    "prefecture_kana": "アイチケン",
    "prefecture_code": 23,
    "city": "豊田市",
    "city_kana": "トヨタシ",
    "town": "福受町",
    "town_kana": "フクジュチョウ",
    "street": "上ノ切１５９",
    "office_name": "矢崎総業　株式会社",
    "office_name_kana": "ヤザキソウギヨウ カブシキガイシヤ"
  },
  "1295": {
    "postcode": "4701295",
    "prefecture": "愛知県",
    "prefecture_kana": "アイチケン",
    "prefecture_code": 23,
    "city": "豊田市",
    "city_kana": "トヨタシ",
    "town": "鴛鴨町",
    "town_kana": "オシカモチョウ",
    "street": "新林１",
    "office_name": "東洋工業",
    "office_name_kana": "トウヨウコウギヨウ"
  },
  "1296": {
    "postcode": "4701296",
    "prefecture": "愛知県",
    "prefecture_kana": "アイチケン",
    "prefecture_code": 23,
    "city": "豊田市",
    "city_kana": "トヨタシ",
    "town": "幸町",
    "town_kana": "サイワイチョウ",
    "street": "隣松寺１８７",
    "office_name": "シンテックホズミ",
    "office_name_kana": "シンテツクホズミ"
  },
  "2100": {
    "postcode": "4702100",
    "prefecture": "愛知県",
    "prefecture_kana": "アイチケン",
    "prefecture_code": 23,
    "city": "知多郡東浦町",
    "city_kana": "チタグンヒガシウラチョウ",
    "town": "",
    "town_kana": "",
    "street": null,
    "office_name": null,
    "office_name_kana": null
  },
  "2101": {
    "postcode": "4702101",
    "prefecture": "愛知県",
    "prefecture_kana": "アイチケン",
    "prefecture_code": 23,
    "city": "知多郡東浦町",
    "city_kana": "チタグンヒガシウラチョウ",
    "town": "森岡",
    "town_kana": "モリオカ",
    "street": null,
    "office_name": null,
    "office_name_kana": null
  },
  "2102": {
    "postcode": "4702102",
    "prefecture": "愛知県",
    "prefecture_kana": "アイチケン",
    "prefecture_code": 23,
    "city": "知多郡東浦町",
    "city_kana": "チタグンヒガシウラチョウ",
    "town": "緒川",
    "town_kana": "オガワ",
    "street": null,
    "office_name": null,
    "office_name_kana": null
  },
  "2103": {
    "postcode": "4702103",
    "prefecture": "愛知県",
    "prefecture_kana": "アイチケン",
    "prefecture_code": 23,
    "city": "知多郡東浦町",
    "city_kana": "チタグンヒガシウラチョウ",
    "town": "石浜",
    "town_kana": "イシハマ",
    "street": null,
    "office_name": null,
    "office_name_kana": null
  },
  "2104": {
    "postcode": "4702104",
    "prefecture": "愛知県",
    "prefecture_kana": "アイチケン",
    "prefecture_code": 23,
    "city": "知多郡東浦町",
    "city_kana": "チタグンヒガシウラチョウ",
    "town": "生路",
    "town_kana": "イクジ",
    "street": null,
    "office_name": null,
    "office_name_kana": null
  },
  "2105": {
    "postcode": "4702105",
    "prefecture": "愛知県",
    "prefecture_kana": "アイチケン",
    "prefecture_code": 23,
    "city": "知多郡東浦町",
    "city_kana": "チタグンヒガシウラチョウ",
    "town": "藤江",
    "town_kana": "フジエ",
    "street": null,
    "office_name": null,
    "office_name_kana": null
  },
  "2191": {
    "postcode": "4702191",
    "prefecture": "愛知県",
    "prefecture_kana": "アイチケン",
    "prefecture_code": 23,
    "city": "知多郡東浦町",
    "city_kana": "チタグンヒガシウラチョウ",
    "town": "大字藤江",
    "town_kana": null,
    "street": "字皆栄町１０８",
    "office_name": "カリモク家具　株式会社　本社",
    "office_name_kana": "カリモクカグ カブシキガイシヤ ホンシヤ"
  },
  "2192": {
    "postcode": "4702192",
    "prefecture": "愛知県",
    "prefecture_kana": "アイチケン",
    "prefecture_code": 23,
    "city": "知多郡東浦町",
    "city_kana": "チタグンヒガシウラチョウ",
    "town": "大字緒川",
    "town_kana": null,
    "street": "字政所２０",
    "office_name": "愛知県知多郡東浦町役場",
    "office_name_kana": "アイチケンチタグンヒガシウラマチヤクバ"
  },
  "2193": {
    "postcode": "4702193",
    "prefecture": "愛知県",
    "prefecture_kana": "アイチケン",
    "prefecture_code": 23,
    "city": "知多郡東浦町",
    "city_kana": "チタグンヒガシウラチョウ",
    "town": "大字緒川",
    "town_kana": null,
    "street": "字申新田弐区４０−３",
    "office_name": "カリモク家具　株式会社　総張工場",
    "office_name_kana": "カリモクカグ カブシキガイシヤ ソウバリコウジヨウ"
  },
  "2195": {
    "postcode": "4702195",
    "prefecture": "愛知県",
    "prefecture_kana": "アイチケン",
    "prefecture_code": 23,
    "city": "知多郡東浦町",
    "city_kana": "チタグンヒガシウラチョウ",
    "town": "大字藤江",
    "town_kana": null,
    "street": "字皆栄町１０８",
    "office_name": "カリモク家具　株式会社　お客様相談室",
    "office_name_kana": "カリモクカグ カブシキガイシヤ オキヤクサマソウダンシツ"
  },
  "2196": {
    "postcode": "4702196",
    "prefecture": "愛知県",
    "prefecture_kana": "アイチケン",
    "prefecture_code": 23,
    "city": "知多郡東浦町",
    "city_kana": "チタグンヒガシウラチョウ",
    "town": "緒川",
    "town_kana": "オガワ",
    "street": "字市右原２−２",
    "office_name": "住化積水フィルム　株式会社　名古屋工場",
    "office_name_kana": "スミカセキスイフイルム カブシキガイシヤ ナゴヤコウジヨウ"
  },
  "2197": {
    "postcode": "4702197",
    "prefecture": "愛知県",
    "prefecture_kana": "アイチケン",
    "prefecture_code": 23,
    "city": "知多郡東浦町",
    "city_kana": "チタグンヒガシウラチョウ",
    "town": "大字藤江",
    "town_kana": null,
    "street": "字折戸１−７",
    "office_name": "株式会社　ティラド名古屋製作所",
    "office_name_kana": " カブシキガイシヤ テイラドナゴヤセイサクシヨ"
  },
  "2198": {
    "postcode": "4702198",
    "prefecture": "愛知県",
    "prefecture_kana": "アイチケン",
    "prefecture_code": 23,
    "city": "知多郡東浦町",
    "city_kana": "チタグンヒガシウラチョウ",
    "town": "大字藤江",
    "town_kana": null,
    "street": "字ヤンチャ２８番地の１",
    "office_name": "トーエイ　株式会社",
    "office_name_kana": "ト-エイ カブシキガイシヤ"
  },
  "2200": {
    "postcode": "4702200",
    "prefecture": "愛知県",
    "prefecture_kana": "アイチケン",
    "prefecture_code": 23,
    "city": "知多郡阿久比町",
    "city_kana": "チタグンアグイチョウ",
    "town": "",
    "town_kana": "",
    "street": null,
    "office_name": null,
    "office_name_kana": null
  },
  "2201": {
    "postcode": "4702201",
    "prefecture": "愛知県",
    "prefecture_kana": "アイチケン",
    "prefecture_code": 23,
    "city": "知多郡阿久比町",
    "city_kana": "チタグンアグイチョウ",
    "town": "白沢",
    "town_kana": "シラサワ",
    "street": null,
    "office_name": null,
    "office_name_kana": null
  },
  "2202": {
    "postcode": "4702202",
    "prefecture": "愛知県",
    "prefecture_kana": "アイチケン",
    "prefecture_code": 23,
    "city": "知多郡阿久比町",
    "city_kana": "チタグンアグイチョウ",
    "town": "福住",
    "town_kana": "フクスミ",
    "street": null,
    "office_name": null,
    "office_name_kana": null
  },
  "2203": {
    "postcode": "4702203",
    "prefecture": "愛知県",
    "prefecture_kana": "アイチケン",
    "prefecture_code": 23,
    "city": "知多郡阿久比町",
    "city_kana": "チタグンアグイチョウ",
    "town": "板山",
    "town_kana": "イタヤマ",
    "street": null,
    "office_name": null,
    "office_name_kana": null
  },
  "2204": {
    "postcode": "4702204",
    "prefecture": "愛知県",
    "prefecture_kana": "アイチケン",
    "prefecture_code": 23,
    "city": "知多郡阿久比町",
    "city_kana": "チタグンアグイチョウ",
    "town": "宮津",
    "town_kana": "ミヤヅ",
    "street": null,
    "office_name": null,
    "office_name_kana": null
  },
  "2205": {
    "postcode": "4702205",
    "prefecture": "愛知県",
    "prefecture_kana": "アイチケン",
    "prefecture_code": 23,
    "city": "知多郡阿久比町",
    "city_kana": "チタグンアグイチョウ",
    "town": "萩",
    "town_kana": "ハギ",
    "street": null,
    "office_name": null,
    "office_name_kana": null
  },
  "2206": {
    "postcode": "4702206",
    "prefecture": "愛知県",
    "prefecture_kana": "アイチケン",
    "prefecture_code": 23,
    "city": "知多郡阿久比町",
    "city_kana": "チタグンアグイチョウ",
    "town": "横松",
    "town_kana": "ヨコマツ",
    "street": null,
    "office_name": null,
    "office_name_kana": null
  },
  "2207": {
    "postcode": "4702207",
    "prefecture": "愛知県",
    "prefecture_kana": "アイチケン",
    "prefecture_code": 23,
    "city": "知多郡阿久比町",
    "city_kana": "チタグンアグイチョウ",
    "town": "陽なたの丘",
    "town_kana": "ヒナタノオカ",
    "street": null,
    "office_name": null,
    "office_name_kana": null
  },
  "2211": {
    "postcode": "4702211",
    "prefecture": "愛知県",
    "prefecture_kana": "アイチケン",
    "prefecture_code": 23,
    "city": "知多郡阿久比町",
    "city_kana": "チタグンアグイチョウ",
    "town": "草木",
    "town_kana": "クサギ",
    "street": null,
    "office_name": null,
    "office_name_kana": null
  },
  "2212": {
    "postcode": "4702212",
    "prefecture": "愛知県",
    "prefecture_kana": "アイチケン",
    "prefecture_code": 23,
    "city": "知多郡阿久比町",
    "city_kana": "チタグンアグイチョウ",
    "town": "卯坂",
    "town_kana": "ウサカ",
    "street": null,
    "office_name": null,
    "office_name_kana": null
  },
  "2213": {
    "postcode": "4702213",
    "prefecture": "愛知県",
    "prefecture_kana": "アイチケン",
    "prefecture_code": 23,
    "city": "知多郡阿久比町",
    "city_kana": "チタグンアグイチョウ",
    "town": "阿久比",
    "town_kana": "アグイ",
    "street": null,
    "office_name": null,
    "office_name_kana": null
  },
  "2214": {
    "postcode": "4702214",
    "prefecture": "愛知県",
    "prefecture_kana": "アイチケン",
    "prefecture_code": 23,
    "city": "知多郡阿久比町",
    "city_kana": "チタグンアグイチョウ",
    "town": "椋岡",
    "town_kana": "ムクオカ",
    "street": null,
    "office_name": null,
    "office_name_kana": null
  },
  "2215": {
    "postcode": "4702215",
    "prefecture": "愛知県",
    "prefecture_kana": "アイチケン",
    "prefecture_code": 23,
    "city": "知多郡阿久比町",
    "city_kana": "チタグンアグイチョウ",
    "town": "矢高",
    "town_kana": "ヤタカ",
    "street": null,
    "office_name": null,
    "office_name_kana": null
  },
  "2216": {
    "postcode": "4702216",
    "prefecture": "愛知県",
    "prefecture_kana": "アイチケン",
    "prefecture_code": 23,
    "city": "知多郡阿久比町",
    "city_kana": "チタグンアグイチョウ",
    "town": "植大",
    "town_kana": "ウエダイ",
    "street": null,
    "office_name": null,
    "office_name_kana": null
  },
  "2217": {
    "postcode": "4702217",
    "prefecture": "愛知県",
    "prefecture_kana": "アイチケン",
    "prefecture_code": 23,
    "city": "知多郡阿久比町",
    "city_kana": "チタグンアグイチョウ",
    "town": "卯坂南",
    "town_kana": "ウサカミナミ",
    "street": null,
    "office_name": null,
    "office_name_kana": null
  },
  "2292": {
    "postcode": "4702292",
    "prefecture": "愛知県",
    "prefecture_kana": "アイチケン",
    "prefecture_code": 23,
    "city": "知多郡阿久比町",
    "city_kana": "チタグンアグイチョウ",
    "town": "大字卯坂",
    "town_kana": null,
    "street": "字殿越５０",
    "office_name": "阿久比町役場",
    "office_name_kana": "アグイチヨウヤクバ"
  },
  "2296": {
    "postcode": "4702296",
    "prefecture": "愛知県",
    "prefecture_kana": "アイチケン",
    "prefecture_code": 23,
    "city": "知多郡阿久比町",
    "city_kana": "チタグンアグイチョウ",
    "town": "大字草木",
    "town_kana": null,
    "street": "字芳池１番",
    "office_name": "株式会社　デンソーウェーブ",
    "office_name_kana": "カブシキガイシヤ デンソ-ウエ-ブ"
  },
  "2297": {
    "postcode": "4702297",
    "prefecture": "愛知県",
    "prefecture_kana": "アイチケン",
    "prefecture_code": 23,
    "city": "知多郡阿久比町",
    "city_kana": "チタグンアグイチョウ",
    "town": "大字草木",
    "town_kana": null,
    "street": "字芳池１番地",
    "office_name": "株式会社　デンソーウェーブ",
    "office_name_kana": "カブシキガイシヤ デンソ-ウエ-ブ"
  },
  "2298": {
    "postcode": "4702298",
    "prefecture": "愛知県",
    "prefecture_kana": "アイチケン",
    "prefecture_code": 23,
    "city": "知多郡阿久比町",
    "city_kana": "チタグンアグイチョウ",
    "town": "大字草木",
    "town_kana": null,
    "street": "字芳池１",
    "office_name": "株式会社　デンソー　阿久比製作所",
    "office_name_kana": "カブシキガイシヤ デンソ- アグイセイサクシヨ"
  },
  "2300": {
    "postcode": "4702300",
    "prefecture": "愛知県",
    "prefecture_kana": "アイチケン",
    "prefecture_code": 23,
    "city": "知多郡武豊町",
    "city_kana": "チタグンタケトヨチョウ",
    "town": "",
    "town_kana": "",
    "street": null,
    "office_name": null,
    "office_name_kana": null
  },
  "2301": {
    "postcode": "4702301",
    "prefecture": "愛知県",
    "prefecture_kana": "アイチケン",
    "prefecture_code": 23,
    "city": "知多郡武豊町",
    "city_kana": "チタグンタケトヨチョウ",
    "town": "壱町田",
    "town_kana": "イッチョウダ",
    "street": null,
    "office_name": null,
    "office_name_kana": null
  },
  "2302": {
    "postcode": "4702302",
    "prefecture": "愛知県",
    "prefecture_kana": "アイチケン",
    "prefecture_code": 23,
    "city": "知多郡武豊町",
    "city_kana": "チタグンタケトヨチョウ",
    "town": "鹿ノ子田",
    "town_kana": "カノコダ",
    "street": null,
    "office_name": null,
    "office_name_kana": null
  },
  "2303": {
    "postcode": "4702303",
    "prefecture": "愛知県",
    "prefecture_kana": "アイチケン",
    "prefecture_code": 23,
    "city": "知多郡武豊町",
    "city_kana": "チタグンタケトヨチョウ",
    "town": "祠峯",
    "town_kana": "ホコラミネ",
    "street": null,
    "office_name": null,
    "office_name_kana": null
  },
  "2304": {
    "postcode": "4702304",
    "prefecture": "愛知県",
    "prefecture_kana": "アイチケン",
    "prefecture_code": 23,
    "city": "知多郡武豊町",
    "city_kana": "チタグンタケトヨチョウ",
    "town": "平井田",
    "town_kana": "ヒライダ",
    "street": null,
    "office_name": null,
    "office_name_kana": null
  },
  "2305": {
    "postcode": "4702305",
    "prefecture": "愛知県",
    "prefecture_kana": "アイチケン",
    "prefecture_code": 23,
    "city": "知多郡武豊町",
    "city_kana": "チタグンタケトヨチョウ",
    "town": "下山ノ田",
    "town_kana": "シモヤマノタ",
    "street": null,
    "office_name": null,
    "office_name_kana": null
  },
  "2306": {
    "postcode": "4702306",
    "prefecture": "愛知県",
    "prefecture_kana": "アイチケン",
    "prefecture_code": 23,
    "city": "知多郡武豊町",
    "city_kana": "チタグンタケトヨチョウ",
    "town": "上山ノ田",
    "town_kana": "カミヤマノタ",
    "street": null,
    "office_name": null,
    "office_name_kana": null
  },
  "2307": {
    "postcode": "4702307",
    "prefecture": "愛知県",
    "prefecture_kana": "アイチケン",
    "prefecture_code": 23,
    "city": "知多郡武豊町",
    "city_kana": "チタグンタケトヨチョウ",
    "town": "蛇ケ谷",
    "town_kana": "ヂャガタニ",
    "street": null,
    "office_name": null,
    "office_name_kana": null
  },
  "2308": {
    "postcode": "4702308",
    "prefecture": "愛知県",
    "prefecture_kana": "アイチケン",
    "prefecture_code": 23,
    "city": "知多郡武豊町",
    "city_kana": "チタグンタケトヨチョウ",
    "town": "二ツ峯",
    "town_kana": "フタツミネ",
    "street": null,
    "office_name": null,
    "office_name_kana": null
  },
  "2309": {
    "postcode": "4702309",
    "prefecture": "愛知県",
    "prefecture_kana": "アイチケン",
    "prefecture_code": 23,
    "city": "知多郡武豊町",
    "city_kana": "チタグンタケトヨチョウ",
    "town": "梨子ノ木",
    "town_kana": "ナシノキ",
    "street": null,
    "office_name": null,
    "office_name_kana": null
  },
  "2311": {
    "postcode": "4702311",
    "prefecture": "愛知県",
    "prefecture_kana": "アイチケン",
    "prefecture_code": 23,
    "city": "知多郡武豊町",
    "city_kana": "チタグンタケトヨチョウ",
    "town": "石川",
    "town_kana": "イシカワ",
    "street": null,
    "office_name": null,
    "office_name_kana": null
  },
  "2312": {
    "postcode": "4702312",
    "prefecture": "愛知県",
    "prefecture_kana": "アイチケン",
    "prefecture_code": 23,
    "city": "知多郡武豊町",
    "city_kana": "チタグンタケトヨチョウ",
    "town": "北曲輪",
    "town_kana": "キタグルワ",
    "street": null,
    "office_name": null,
    "office_name_kana": null
  },
  "2313": {
    "postcode": "4702313",
    "prefecture": "愛知県",
    "prefecture_kana": "アイチケン",
    "prefecture_code": 23,
    "city": "知多郡武豊町",
    "city_kana": "チタグンタケトヨチョウ",
    "town": "九号地",
    "town_kana": "キュウゴウチ",
    "street": null,
    "office_name": null,
    "office_name_kana": null
  },
  "2314": {
    "postcode": "4702314",
    "prefecture": "愛知県",
    "prefecture_kana": "アイチケン",
    "prefecture_code": 23,
    "city": "知多郡武豊町",
    "city_kana": "チタグンタケトヨチョウ",
    "town": "浅水",
    "town_kana": "アサミズ",
    "street": null,
    "office_name": null,
    "office_name_kana": null
  },
  "2315": {
    "postcode": "4702315",
    "prefecture": "愛知県",
    "prefecture_kana": "アイチケン",
    "prefecture_code": 23,
    "city": "知多郡武豊町",
    "city_kana": "チタグンタケトヨチョウ",
    "town": "中狭",
    "town_kana": "ナカバサミ",
    "street": null,
    "office_name": null,
    "office_name_kana": null
  },
  "2316": {
    "postcode": "4702316",
    "prefecture": "愛知県",
    "prefecture_kana": "アイチケン",
    "prefecture_code": 23,
    "city": "知多郡武豊町",
    "city_kana": "チタグンタケトヨチョウ",
    "town": "二ケ崎",
    "town_kana": "ニガサキ",
    "street": null,
    "office_name": null,
    "office_name_kana": null
  },
  "2317": {
    "postcode": "4702317",
    "prefecture": "愛知県",
    "prefecture_kana": "アイチケン",
    "prefecture_code": 23,
    "city": "知多郡武豊町",
    "city_kana": "チタグンタケトヨチョウ",
    "town": "砂川",
    "town_kana": "スナガワ",
    "street": null,
    "office_name": null,
    "office_name_kana": null
  },
  "2318": {
    "postcode": "4702318",
    "prefecture": "愛知県",
    "prefecture_kana": "アイチケン",
    "prefecture_code": 23,
    "city": "知多郡武豊町",
    "city_kana": "チタグンタケトヨチョウ",
    "town": "豊成",
    "town_kana": "ホウセイ",
    "street": null,
    "office_name": null,
    "office_name_kana": null
  },
  "2319": {
    "postcode": "4702319",
    "prefecture": "愛知県",
    "prefecture_kana": "アイチケン",
    "prefecture_code": 23,
    "city": "知多郡武豊町",
    "city_kana": "チタグンタケトヨチョウ",
    "town": "中蓮",
    "town_kana": "チュウレン",
    "street": null,
    "office_name": null,
    "office_name_kana": null
  },
  "2321": {
    "postcode": "4702321",
    "prefecture": "愛知県",
    "prefecture_kana": "アイチケン",
    "prefecture_code": 23,
    "city": "知多郡武豊町",
    "city_kana": "チタグンタケトヨチョウ",
    "town": "七号地",
    "town_kana": "ナナゴウチ",
    "street": null,
    "office_name": null,
    "office_name_kana": null
  },
  "2322": {
    "postcode": "4702322",
    "prefecture": "愛知県",
    "prefecture_kana": "アイチケン",
    "prefecture_code": 23,
    "city": "知多郡武豊町",
    "city_kana": "チタグンタケトヨチョウ",
    "town": "塩田",
    "town_kana": "シオタ",
    "street": null,
    "office_name": null,
    "office_name_kana": null
  },
  "2323": {
    "postcode": "4702323",
    "prefecture": "愛知県",
    "prefecture_kana": "アイチケン",
    "prefecture_code": 23,
    "city": "知多郡武豊町",
    "city_kana": "チタグンタケトヨチョウ",
    "town": "口田",
    "town_kana": "クチダ",
    "street": null,
    "office_name": null,
    "office_name_kana": null
  },
  "2324": {
    "postcode": "4702324",
    "prefecture": "愛知県",
    "prefecture_kana": "アイチケン",
    "prefecture_code": 23,
    "city": "知多郡武豊町",
    "city_kana": "チタグンタケトヨチョウ",
    "town": "内鉋",
    "town_kana": "ウチカンナ",
    "street": null,
    "office_name": null,
    "office_name_kana": null
  },
  "2325": {
    "postcode": "4702325",
    "prefecture": "愛知県",
    "prefecture_kana": "アイチケン",
    "prefecture_code": 23,
    "city": "知多郡武豊町",
    "city_kana": "チタグンタケトヨチョウ",
    "town": "若宮",
    "town_kana": "ワカミヤ",
    "street": null,
    "office_name": null,
    "office_name_kana": null
  },
  "2326": {
    "postcode": "4702326",
    "prefecture": "愛知県",
    "prefecture_kana": "アイチケン",
    "prefecture_code": 23,
    "city": "知多郡武豊町",
    "city_kana": "チタグンタケトヨチョウ",
    "town": "平井畑",
    "town_kana": "ヒライバタ",
    "street": null,
    "office_name": null,
    "office_name_kana": null
  },
  "2327": {
    "postcode": "4702327",
    "prefecture": "愛知県",
    "prefecture_kana": "アイチケン",
    "prefecture_code": 23,
    "city": "知多郡武豊町",
    "city_kana": "チタグンタケトヨチョウ",
    "town": "天神前",
    "town_kana": "テンジンマエ",
    "street": null,
    "office_name": null,
    "office_name_kana": null
  },
  "2328": {
    "postcode": "4702328",
    "prefecture": "愛知県",
    "prefecture_kana": "アイチケン",
    "prefecture_code": 23,
    "city": "知多郡武豊町",
    "city_kana": "チタグンタケトヨチョウ",
    "town": "蛇渕",
    "town_kana": "ヂャブチ",
    "street": null,
    "office_name": null,
    "office_name_kana": null
  },
  "2329": {
    "postcode": "4702329",
    "prefecture": "愛知県",
    "prefecture_kana": "アイチケン",
    "prefecture_code": 23,
    "city": "知多郡武豊町",
    "city_kana": "チタグンタケトヨチョウ",
    "town": "池田",
    "town_kana": "イケダ",
    "street": null,
    "office_name": null,
    "office_name_kana": null
  },
  "2331": {
    "postcode": "4702331",
    "prefecture": "愛知県",
    "prefecture_kana": "アイチケン",
    "prefecture_code": 23,
    "city": "知多郡武豊町",
    "city_kana": "チタグンタケトヨチョウ",
    "town": "ヒジリ田",
    "town_kana": "ヒジリダ",
    "street": null,
    "office_name": null,
    "office_name_kana": null
  },
  "2332": {
    "postcode": "4702332",
    "prefecture": "愛知県",
    "prefecture_kana": "アイチケン",
    "prefecture_code": 23,
    "city": "知多郡武豊町",
    "city_kana": "チタグンタケトヨチョウ",
    "town": "上ケ",
    "town_kana": "アゲ",
    "street": null,
    "office_name": null,
    "office_name_kana": null
  },
  "2333": {
    "postcode": "4702333",
    "prefecture": "愛知県",
    "prefecture_kana": "アイチケン",
    "prefecture_code": 23,
    "city": "知多郡武豊町",
    "city_kana": "チタグンタケトヨチョウ",
    "town": "高野前",
    "town_kana": "タカノマエ",
    "street": null,
    "office_name": null,
    "office_name_kana": null
  },
  "2334": {
    "postcode": "4702334",
    "prefecture": "愛知県",
    "prefecture_kana": "アイチケン",
    "prefecture_code": 23,
    "city": "知多郡武豊町",
    "city_kana": "チタグンタケトヨチョウ",
    "town": "中根",
    "town_kana": "ナカネ",
    "street": null,
    "office_name": null,
    "office_name_kana": null
  },
  "2335": {
    "postcode": "4702335",
    "prefecture": "愛知県",
    "prefecture_kana": "アイチケン",
    "prefecture_code": 23,
    "city": "知多郡武豊町",
    "city_kana": "チタグンタケトヨチョウ",
    "town": "谷口",
    "town_kana": "タニグチ",
    "street": null,
    "office_name": null,
    "office_name_kana": null
  },
  "2336": {
    "postcode": "4702336",
    "prefecture": "愛知県",
    "prefecture_kana": "アイチケン",
    "prefecture_code": 23,
    "city": "知多郡武豊町",
    "city_kana": "チタグンタケトヨチョウ",
    "town": "山ノ神",
    "town_kana": "ヤマノカミ",
    "street": null,
    "office_name": null,
    "office_name_kana": null
  },
  "2337": {
    "postcode": "4702337",
    "prefecture": "愛知県",
    "prefecture_kana": "アイチケン",
    "prefecture_code": 23,
    "city": "知多郡武豊町",
    "city_kana": "チタグンタケトヨチョウ",
    "town": "ヱケ屋敷",
    "town_kana": "エゲヤシキ",
    "street": null,
    "office_name": null,
    "office_name_kana": null
  },
  "2338": {
    "postcode": "4702338",
    "prefecture": "愛知県",
    "prefecture_kana": "アイチケン",
    "prefecture_code": 23,
    "city": "知多郡武豊町",
    "city_kana": "チタグンタケトヨチョウ",
    "town": "前田",
    "town_kana": "マエダ",
    "street": null,
    "office_name": null,
    "office_name_kana": null
  },
  "2339": {
    "postcode": "4702339",
    "prefecture": "愛知県",
    "prefecture_kana": "アイチケン",
    "prefecture_code": 23,
    "city": "知多郡武豊町",
    "city_kana": "チタグンタケトヨチョウ",
    "town": "下門",
    "town_kana": "シタモン",
    "street": null,
    "office_name": null,
    "office_name_kana": null
  },
  "2341": {
    "postcode": "4702341",
    "prefecture": "愛知県",
    "prefecture_kana": "アイチケン",
    "prefecture_code": 23,
    "city": "知多郡武豊町",
    "city_kana": "チタグンタケトヨチョウ",
    "town": "五号地",
    "town_kana": "ゴゴウチ",
    "street": null,
    "office_name": null,
    "office_name_kana": null
  },
  "2342": {
    "postcode": "4702342",
    "prefecture": "愛知県",
    "prefecture_kana": "アイチケン",
    "prefecture_code": 23,
    "city": "知多郡武豊町",
    "city_kana": "チタグンタケトヨチョウ",
    "town": "沢田新田",
    "town_kana": "サワダシンデン",
    "street": null,
    "office_name": null,
    "office_name_kana": null
  },
  "2343": {
    "postcode": "4702343",
    "prefecture": "愛知県",
    "prefecture_kana": "アイチケン",
    "prefecture_code": 23,
    "city": "知多郡武豊町",
    "city_kana": "チタグンタケトヨチョウ",
    "town": "小迎",
    "town_kana": "コムカエ",
    "street": null,
    "office_name": null,
    "office_name_kana": null
  },
  "2344": {
    "postcode": "4702344",
    "prefecture": "愛知県",
    "prefecture_kana": "アイチケン",
    "prefecture_code": 23,
    "city": "知多郡武豊町",
    "city_kana": "チタグンタケトヨチョウ",
    "town": "金下",
    "town_kana": "カナゲ",
    "street": null,
    "office_name": null,
    "office_name_kana": null
  },
  "2345": {
    "postcode": "4702345",
    "prefecture": "愛知県",
    "prefecture_kana": "アイチケン",
    "prefecture_code": 23,
    "city": "知多郡武豊町",
    "city_kana": "チタグンタケトヨチョウ",
    "town": "西門",
    "town_kana": "ニシモン",
    "street": null,
    "office_name": null,
    "office_name_kana": null
  },
  "2346": {
    "postcode": "4702346",
    "prefecture": "愛知県",
    "prefecture_kana": "アイチケン",
    "prefecture_code": 23,
    "city": "知多郡武豊町",
    "city_kana": "チタグンタケトヨチョウ",
    "town": "長尾山",
    "town_kana": "ナガオヤマ",
    "street": null,
    "office_name": null,
    "office_name_kana": null
  },
  "2347": {
    "postcode": "4702347",
    "prefecture": "愛知県",
    "prefecture_kana": "アイチケン",
    "prefecture_code": 23,
    "city": "知多郡武豊町",
    "city_kana": "チタグンタケトヨチョウ",
    "town": "道崎",
    "town_kana": "ドウサキ",
    "street": null,
    "office_name": null,
    "office_name_kana": null
  },
  "2348": {
    "postcode": "4702348",
    "prefecture": "愛知県",
    "prefecture_kana": "アイチケン",
    "prefecture_code": 23,
    "city": "知多郡武豊町",
    "city_kana": "チタグンタケトヨチョウ",
    "town": "瀬木",
    "town_kana": "セギ",
    "street": null,
    "office_name": null,
    "office_name_kana": null
  },
  "2349": {
    "postcode": "4702349",
    "prefecture": "愛知県",
    "prefecture_kana": "アイチケン",
    "prefecture_code": 23,
    "city": "知多郡武豊町",
    "city_kana": "チタグンタケトヨチョウ",
    "town": "西田崎",
    "town_kana": "ニシタザキ",
    "street": null,
    "office_name": null,
    "office_name_kana": null
  },
  "2351": {
    "postcode": "4702351",
    "prefecture": "愛知県",
    "prefecture_kana": "アイチケン",
    "prefecture_code": 23,
    "city": "知多郡武豊町",
    "city_kana": "チタグンタケトヨチョウ",
    "town": "南中根",
    "town_kana": "ミナミナカネ",
    "street": null,
    "office_name": null,
    "office_name_kana": null
  },
  "2352": {
    "postcode": "4702352",
    "prefecture": "愛知県",
    "prefecture_kana": "アイチケン",
    "prefecture_code": 23,
    "city": "知多郡武豊町",
    "city_kana": "チタグンタケトヨチョウ",
    "town": "迎戸",
    "town_kana": "ムカエド",
    "street": null,
    "office_name": null,
    "office_name_kana": null
  },
  "2353": {
    "postcode": "4702353",
    "prefecture": "愛知県",
    "prefecture_kana": "アイチケン",
    "prefecture_code": 23,
    "city": "知多郡武豊町",
    "city_kana": "チタグンタケトヨチョウ",
    "town": "道崎田",
    "town_kana": "ドウサキダ",
    "street": null,
    "office_name": null,
    "office_name_kana": null
  },
  "2354": {
    "postcode": "4702354",
    "prefecture": "愛知県",
    "prefecture_kana": "アイチケン",
    "prefecture_code": 23,
    "city": "知多郡武豊町",
    "city_kana": "チタグンタケトヨチョウ",
    "town": "川尻",
    "town_kana": "カワジリ",
    "street": null,
    "office_name": null,
    "office_name_kana": null
  },
  "2355": {
    "postcode": "4702355",
    "prefecture": "愛知県",
    "prefecture_kana": "アイチケン",
    "prefecture_code": 23,
    "city": "知多郡武豊町",
    "city_kana": "チタグンタケトヨチョウ",
    "town": "向田",
    "town_kana": "ムカイダ",
    "street": null,
    "office_name": null,
    "office_name_kana": null
  },
  "2356": {
    "postcode": "4702356",
    "prefecture": "愛知県",
    "prefecture_kana": "アイチケン",
    "prefecture_code": 23,
    "city": "知多郡武豊町",
    "city_kana": "チタグンタケトヨチョウ",
    "town": "下起",
    "town_kana": "シモオコシ",
    "street": null,
    "office_name": null,
    "office_name_kana": null
  },
  "2357": {
    "postcode": "4702357",
    "prefecture": "愛知県",
    "prefecture_kana": "アイチケン",
    "prefecture_code": 23,
    "city": "知多郡武豊町",
    "city_kana": "チタグンタケトヨチョウ",
    "town": "向陽",
    "town_kana": "コウヨウ",
    "street": null,
    "office_name": null,
    "office_name_kana": null
  },
  "2358": {
    "postcode": "4702358",
    "prefecture": "愛知県",
    "prefecture_kana": "アイチケン",
    "prefecture_code": 23,
    "city": "知多郡武豊町",
    "city_kana": "チタグンタケトヨチョウ",
    "town": "楠",
    "town_kana": "クスノキ",
    "street": null,
    "office_name": null,
    "office_name_kana": null
  },
  "2359": {
    "postcode": "4702359",
    "prefecture": "愛知県",
    "prefecture_kana": "アイチケン",
    "prefecture_code": 23,
    "city": "知多郡武豊町",
    "city_kana": "チタグンタケトヨチョウ",
    "town": "桜ケ丘",
    "town_kana": "サクラガオカ",
    "street": null,
    "office_name": null,
    "office_name_kana": null
  },
  "2361": {
    "postcode": "4702361",
    "prefecture": "愛知県",
    "prefecture_kana": "アイチケン",
    "prefecture_code": 23,
    "city": "知多郡武豊町",
    "city_kana": "チタグンタケトヨチョウ",
    "town": "多賀",
    "town_kana": "タガ",
    "street": null,
    "office_name": null,
    "office_name_kana": null
  },
  "2362": {
    "postcode": "4702362",
    "prefecture": "愛知県",
    "prefecture_kana": "アイチケン",
    "prefecture_code": 23,
    "city": "知多郡武豊町",
    "city_kana": "チタグンタケトヨチョウ",
    "town": "六貫山",
    "town_kana": "ロッカンヤマ",
    "street": null,
    "office_name": null,
    "office_name_kana": null
  },
  "2363": {
    "postcode": "4702363",
    "prefecture": "愛知県",
    "prefecture_kana": "アイチケン",
    "prefecture_code": 23,
    "city": "知多郡武豊町",
    "city_kana": "チタグンタケトヨチョウ",
    "town": "旭ケ丘",
    "town_kana": "アサヒガオカ",
    "street": null,
    "office_name": null,
    "office_name_kana": null
  },
  "2364": {
    "postcode": "4702364",
    "prefecture": "愛知県",
    "prefecture_kana": "アイチケン",
    "prefecture_code": 23,
    "city": "知多郡武豊町",
    "city_kana": "チタグンタケトヨチョウ",
    "town": "上起",
    "town_kana": "カミオコシ",
    "street": null,
    "office_name": null,
    "office_name_kana": null
  },
  "2365": {
    "postcode": "4702365",
    "prefecture": "愛知県",
    "prefecture_kana": "アイチケン",
    "prefecture_code": 23,
    "city": "知多郡武豊町",
    "city_kana": "チタグンタケトヨチョウ",
    "town": "壱畝町",
    "town_kana": "ヒトセマチ",
    "street": null,
    "office_name": null,
    "office_name_kana": null
  },
  "2366": {
    "postcode": "4702366",
    "prefecture": "愛知県",
    "prefecture_kana": "アイチケン",
    "prefecture_code": 23,
    "city": "知多郡武豊町",
    "city_kana": "チタグンタケトヨチョウ",
    "town": "ヲヲガケ",
    "town_kana": "オオガケ",
    "street": null,
    "office_name": null,
    "office_name_kana": null
  },
  "2371": {
    "postcode": "4702371",
    "prefecture": "愛知県",
    "prefecture_kana": "アイチケン",
    "prefecture_code": 23,
    "city": "知多郡武豊町",
    "city_kana": "チタグンタケトヨチョウ",
    "town": "下原",
    "town_kana": "シモハラ",
    "street": null,
    "office_name": null,
    "office_name_kana": null
  },
  "2372": {
    "postcode": "4702372",
    "prefecture": "愛知県",
    "prefecture_kana": "アイチケン",
    "prefecture_code": 23,
    "city": "知多郡武豊町",
    "city_kana": "チタグンタケトヨチョウ",
    "town": "甚田",
    "town_kana": "ヂンダ",
    "street": null,
    "office_name": null,
    "office_name_kana": null
  },
  "2373": {
    "postcode": "4702373",
    "prefecture": "愛知県",
    "prefecture_kana": "アイチケン",
    "prefecture_code": 23,
    "city": "知多郡武豊町",
    "city_kana": "チタグンタケトヨチョウ",
    "town": "嶋田",
    "town_kana": "シマダ",
    "street": null,
    "office_name": null,
    "office_name_kana": null
  },
  "2374": {
    "postcode": "4702374",
    "prefecture": "愛知県",
    "prefecture_kana": "アイチケン",
    "prefecture_code": 23,
    "city": "知多郡武豊町",
    "city_kana": "チタグンタケトヨチョウ",
    "town": "原田",
    "town_kana": "ハラダ",
    "street": null,
    "office_name": null,
    "office_name_kana": null
  },
  "2375": {
    "postcode": "4702375",
    "prefecture": "愛知県",
    "prefecture_kana": "アイチケン",
    "prefecture_code": 23,
    "city": "知多郡武豊町",
    "city_kana": "チタグンタケトヨチョウ",
    "town": "原屋敷",
    "town_kana": "ハラヤシキ",
    "street": null,
    "office_name": null,
    "office_name_kana": null
  },
  "2376": {
    "postcode": "4702376",
    "prefecture": "愛知県",
    "prefecture_kana": "アイチケン",
    "prefecture_code": 23,
    "city": "知多郡武豊町",
    "city_kana": "チタグンタケトヨチョウ",
    "town": "上原",
    "town_kana": "カミハラ",
    "street": null,
    "office_name": null,
    "office_name_kana": null
  },
  "2377": {
    "postcode": "4702377",
    "prefecture": "愛知県",
    "prefecture_kana": "アイチケン",
    "prefecture_code": 23,
    "city": "知多郡武豊町",
    "city_kana": "チタグンタケトヨチョウ",
    "town": "会下",
    "town_kana": "エゲ",
    "street": null,
    "office_name": null,
    "office_name_kana": null
  },
  "2378": {
    "postcode": "4702378",
    "prefecture": "愛知県",
    "prefecture_kana": "アイチケン",
    "prefecture_code": 23,
    "city": "知多郡武豊町",
    "city_kana": "チタグンタケトヨチョウ",
    "town": "南小松谷",
    "town_kana": "ミナミコマツダニ",
    "street": null,
    "office_name": null,
    "office_name_kana": null
  },
  "2379": {
    "postcode": "4702379",
    "prefecture": "愛知県",
    "prefecture_kana": "アイチケン",
    "prefecture_code": 23,
    "city": "知多郡武豊町",
    "city_kana": "チタグンタケトヨチョウ",
    "town": "北小松谷",
    "town_kana": "キタコマツダニ",
    "street": null,
    "office_name": null,
    "office_name_kana": null
  },
  "2380": {
    "postcode": "4702380",
    "prefecture": "愛知県",
    "prefecture_kana": "アイチケン",
    "prefecture_code": 23,
    "city": "知多郡武豊町",
    "city_kana": "チタグンタケトヨチョウ",
    "town": "平井",
    "town_kana": "ヒライ",
    "street": null,
    "office_name": null,
    "office_name_kana": null
  },
  "2382": {
    "postcode": "4702382",
    "prefecture": "愛知県",
    "prefecture_kana": "アイチケン",
    "prefecture_code": 23,
    "city": "知多郡武豊町",
    "city_kana": "チタグンタケトヨチョウ",
    "town": "東長宗",
    "town_kana": "ヒガシナガムネ",
    "street": null,
    "office_name": null,
    "office_name_kana": null
  },
  "2383": {
    "postcode": "4702383",
    "prefecture": "愛知県",
    "prefecture_kana": "アイチケン",
    "prefecture_code": 23,
    "city": "知多郡武豊町",
    "city_kana": "チタグンタケトヨチョウ",
    "town": "北長宗",
    "town_kana": "キタナガムネ",
    "street": null,
    "office_name": null,
    "office_name_kana": null
  },
  "2384": {
    "postcode": "4702384",
    "prefecture": "愛知県",
    "prefecture_kana": "アイチケン",
    "prefecture_code": 23,
    "city": "知多郡武豊町",
    "city_kana": "チタグンタケトヨチョウ",
    "town": "青木ケ丘",
    "town_kana": "アオキガオカ",
    "street": null,
    "office_name": null,
    "office_name_kana": null
  },
  "2385": {
    "postcode": "4702385",
    "prefecture": "愛知県",
    "prefecture_kana": "アイチケン",
    "prefecture_code": 23,
    "city": "知多郡武豊町",
    "city_kana": "チタグンタケトヨチョウ",
    "town": "北中根",
    "town_kana": "キタナカネ",
    "street": null,
    "office_name": null,
    "office_name_kana": null
  },
  "2386": {
    "postcode": "4702386",
    "prefecture": "愛知県",
    "prefecture_kana": "アイチケン",
    "prefecture_code": 23,
    "city": "知多郡武豊町",
    "city_kana": "チタグンタケトヨチョウ",
    "town": "緑台",
    "town_kana": "ミドリダイ",
    "street": null,
    "office_name": null,
    "office_name_kana": null
  },
  "2387": {
    "postcode": "4702387",
    "prefecture": "愛知県",
    "prefecture_kana": "アイチケン",
    "prefecture_code": 23,
    "city": "知多郡武豊町",
    "city_kana": "チタグンタケトヨチョウ",
    "town": "上山",
    "town_kana": "カミヤマ",
    "street": null,
    "office_name": null,
    "office_name_kana": null
  },
  "2388": {
    "postcode": "4702388",
    "prefecture": "愛知県",
    "prefecture_kana": "アイチケン",
    "prefecture_code": 23,
    "city": "知多郡武豊町",
    "city_kana": "チタグンタケトヨチョウ",
    "town": "中山",
    "town_kana": "ナカヤマ",
    "street": null,
    "office_name": null,
    "office_name_kana": null
  },
  "2389": {
    "postcode": "4702389",
    "prefecture": "愛知県",
    "prefecture_kana": "アイチケン",
    "prefecture_code": 23,
    "city": "知多郡武豊町",
    "city_kana": "チタグンタケトヨチョウ",
    "town": "長宗",
    "town_kana": "ナガムネ",
    "street": null,
    "office_name": null,
    "office_name_kana": null
  },
  "2392": {
    "postcode": "4702392",
    "prefecture": "愛知県",
    "prefecture_kana": "アイチケン",
    "prefecture_code": 23,
    "city": "知多郡武豊町",
    "city_kana": "チタグンタケトヨチョウ",
    "town": "字長尾山",
    "town_kana": null,
    "street": "２",
    "office_name": "武豊町役場",
    "office_name_kana": "タケトヨチヨウヤクバ"
  },
  "2393": {
    "postcode": "4702393",
    "prefecture": "愛知県",
    "prefecture_kana": "アイチケン",
    "prefecture_code": 23,
    "city": "知多郡武豊町",
    "city_kana": "チタグンタケトヨチョウ",
    "town": "字五号地",
    "town_kana": null,
    "street": "２番地",
    "office_name": "ファイザー・ファーマ　株式会社",
    "office_name_kana": "フアイザ-・フア-マ カブシキガイシヤ"
  },
  "2394": {
    "postcode": "4702394",
    "prefecture": "愛知県",
    "prefecture_kana": "アイチケン",
    "prefecture_code": 23,
    "city": "知多郡武豊町",
    "city_kana": "チタグンタケトヨチョウ",
    "town": "字旭",
    "town_kana": null,
    "street": "１",
    "office_name": "旭硝子　愛知工場",
    "office_name_kana": "アサヒガラス アイチコウジヨウ"
  },
  "2395": {
    "postcode": "4702395",
    "prefecture": "愛知県",
    "prefecture_kana": "アイチケン",
    "prefecture_code": 23,
    "city": "知多郡武豊町",
    "city_kana": "チタグンタケトヨチョウ",
    "town": "字川脇",
    "town_kana": null,
    "street": "３４番地の１",
    "office_name": "ユタカフーズ　株式会社",
    "office_name_kana": "ユタカフ-ズ カブシキガイシヤ"
  },
  "2398": {
    "postcode": "4702398",
    "prefecture": "愛知県",
    "prefecture_kana": "アイチケン",
    "prefecture_code": 23,
    "city": "知多郡武豊町",
    "city_kana": "チタグンタケトヨチョウ",
    "town": "字北小松谷",
    "town_kana": null,
    "street": "１−１",
    "office_name": "日本油脂　愛知事業所",
    "office_name_kana": "ニホンユシ アイチジギヨウシヨ"
  },
  "2401": {
    "postcode": "4702401",
    "prefecture": "愛知県",
    "prefecture_kana": "アイチケン",
    "prefecture_code": 23,
    "city": "知多郡美浜町",
    "city_kana": "チタグンミハマチョウ",
    "town": "布土",
    "town_kana": "フット",
    "street": null,
    "office_name": null,
    "office_name_kana": null
  },
  "2402": {
    "postcode": "4702402",
    "prefecture": "愛知県",
    "prefecture_kana": "アイチケン",
    "prefecture_code": 23,
    "city": "知多郡美浜町",
    "city_kana": "チタグンミハマチョウ",
    "town": "時志",
    "town_kana": "トキシ",
    "street": null,
    "office_name": null,
    "office_name_kana": null
  },
  "2403": {
    "postcode": "4702403",
    "prefecture": "愛知県",
    "prefecture_kana": "アイチケン",
    "prefecture_code": 23,
    "city": "知多郡美浜町",
    "city_kana": "チタグンミハマチョウ",
    "town": "北方",
    "town_kana": "キタガタ",
    "street": null,
    "office_name": null,
    "office_name_kana": null
  },
  "2404": {
    "postcode": "4702404",
    "prefecture": "愛知県",
    "prefecture_kana": "アイチケン",
    "prefecture_code": 23,
    "city": "知多郡美浜町",
    "city_kana": "チタグンミハマチョウ",
    "town": "河和",
    "town_kana": "コウワ",
    "street": null,
    "office_name": null,
    "office_name_kana": null
  },
  "2405": {
    "postcode": "4702405",
    "prefecture": "愛知県",
    "prefecture_kana": "アイチケン",
    "prefecture_code": 23,
    "city": "知多郡美浜町",
    "city_kana": "チタグンミハマチョウ",
    "town": "河和台",
    "town_kana": "コウワダイ",
    "street": null,
    "office_name": null,
    "office_name_kana": null
  },
  "2406": [
    {
      "postcode": "4702406",
      "prefecture": "愛知県",
      "prefecture_kana": "アイチケン",
      "prefecture_code": 23,
      "city": "知多郡美浜町",
      "city_kana": "チタグンミハマチョウ",
      "town": "河和",
      "town_kana": "コウワ",
      "street": null,
      "office_name": null,
      "office_name_kana": null
    },
    {
      "postcode": "4702406",
      "prefecture": "愛知県",
      "prefecture_kana": "アイチケン",
      "prefecture_code": 23,
      "city": "知多郡美浜町",
      "city_kana": "チタグンミハマチョウ",
      "town": "河和北田面",
      "town_kana": "コウワキタダメン",
      "street": null,
      "office_name": null,
      "office_name_kana": null
    }
  ],
  "2407": [
    {
      "postcode": "4702407",
      "prefecture": "愛知県",
      "prefecture_kana": "アイチケン",
      "prefecture_code": 23,
      "city": "知多郡美浜町",
      "city_kana": "チタグンミハマチョウ",
      "town": "河和",
      "town_kana": "コウワ",
      "street": null,
      "office_name": null,
      "office_name_kana": null
    },
    {
      "postcode": "4702407",
      "prefecture": "愛知県",
      "prefecture_kana": "アイチケン",
      "prefecture_code": 23,
      "city": "知多郡美浜町",
      "city_kana": "チタグンミハマチョウ",
      "town": "河和北屋敷",
      "town_kana": "コウワキタヤシキ",
      "street": null,
      "office_name": null,
      "office_name_kana": null
    }
  ],
  "2408": [
    {
      "postcode": "4702408",
      "prefecture": "愛知県",
      "prefecture_kana": "アイチケン",
      "prefecture_code": 23,
      "city": "知多郡美浜町",
      "city_kana": "チタグンミハマチョウ",
      "town": "河和",
      "town_kana": "コウワ",
      "street": null,
      "office_name": null,
      "office_name_kana": null
    },
    {
      "postcode": "4702408",
      "prefecture": "愛知県",
      "prefecture_kana": "アイチケン",
      "prefecture_code": 23,
      "city": "知多郡美浜町",
      "city_kana": "チタグンミハマチョウ",
      "town": "河和南屋敷",
      "town_kana": "コウワミナミヤシキ",
      "street": null,
      "office_name": null,
      "office_name_kana": null
    }
  ],
  "2409": [
    {
      "postcode": "4702409",
      "prefecture": "愛知県",
      "prefecture_kana": "アイチケン",
      "prefecture_code": 23,
      "city": "知多郡美浜町",
      "city_kana": "チタグンミハマチョウ",
      "town": "河和",
      "town_kana": "コウワ",
      "street": null,
      "office_name": null,
      "office_name_kana": null
    },
    {
      "postcode": "4702409",
      "prefecture": "愛知県",
      "prefecture_kana": "アイチケン",
      "prefecture_code": 23,
      "city": "知多郡美浜町",
      "city_kana": "チタグンミハマチョウ",
      "town": "河和上前田",
      "town_kana": "コウワカミマエダ",
      "street": null,
      "office_name": null,
      "office_name_kana": null
    }
  ],
  "2411": {
    "postcode": "4702411",
    "prefecture": "愛知県",
    "prefecture_kana": "アイチケン",
    "prefecture_code": 23,
    "city": "知多郡美浜町",
    "city_kana": "チタグンミハマチョウ",
    "town": "新浦戸",
    "town_kana": "シンウラト",
    "street": null,
    "office_name": null,
    "office_name_kana": null
  },
  "2412": {
    "postcode": "4702412",
    "prefecture": "愛知県",
    "prefecture_kana": "アイチケン",
    "prefecture_code": 23,
    "city": "知多郡美浜町",
    "city_kana": "チタグンミハマチョウ",
    "town": "浦戸",
    "town_kana": "ウラト",
    "street": null,
    "office_name": null,
    "office_name_kana": null
  },
  "2413": {
    "postcode": "4702413",
    "prefecture": "愛知県",
    "prefecture_kana": "アイチケン",
    "prefecture_code": 23,
    "city": "知多郡美浜町",
    "city_kana": "チタグンミハマチョウ",
    "town": "古布",
    "town_kana": "コウ",
    "street": null,
    "office_name": null,
    "office_name_kana": null
  },
  "2414": {
    "postcode": "4702414",
    "prefecture": "愛知県",
    "prefecture_kana": "アイチケン",
    "prefecture_code": 23,
    "city": "知多郡美浜町",
    "city_kana": "チタグンミハマチョウ",
    "town": "豊丘",
    "town_kana": "トヨオカ",
    "street": null,
    "office_name": null,
    "office_name_kana": null
  },
  "2492": {
    "postcode": "4702492",
    "prefecture": "愛知県",
    "prefecture_kana": "アイチケン",
    "prefecture_code": 23,
    "city": "知多郡美浜町",
    "city_kana": "チタグンミハマチョウ",
    "town": "大字河和",
    "town_kana": null,
    "street": "字北田面１０６",
    "office_name": "美浜町役場",
    "office_name_kana": "ミハマチヨウヤクバ"
  },
  "2493": {
    "postcode": "4702493",
    "prefecture": "愛知県",
    "prefecture_kana": "アイチケン",
    "prefecture_code": 23,
    "city": "知多郡美浜町",
    "city_kana": "チタグンミハマチョウ",
    "town": "大字河和",
    "town_kana": null,
    "street": "字上前田１８",
    "office_name": "加藤化学　株式会社",
    "office_name_kana": "カトウカガク カブシキガイシヤ"
  },
  "2501": {
    "postcode": "4702501",
    "prefecture": "愛知県",
    "prefecture_kana": "アイチケン",
    "prefecture_code": 23,
    "city": "知多郡武豊町",
    "city_kana": "チタグンタケトヨチョウ",
    "town": "堀割",
    "town_kana": "ホリワリ",
    "street": null,
    "office_name": null,
    "office_name_kana": null
  },
  "2502": {
    "postcode": "4702502",
    "prefecture": "愛知県",
    "prefecture_kana": "アイチケン",
    "prefecture_code": 23,
    "city": "知多郡武豊町",
    "city_kana": "チタグンタケトヨチョウ",
    "town": "明神戸",
    "town_kana": "ミョウジンド",
    "street": null,
    "office_name": null,
    "office_name_kana": null
  },
  "2503": {
    "postcode": "4702503",
    "prefecture": "愛知県",
    "prefecture_kana": "アイチケン",
    "prefecture_code": 23,
    "city": "知多郡武豊町",
    "city_kana": "チタグンタケトヨチョウ",
    "town": "後畑",
    "town_kana": "ウシロバタ",
    "street": null,
    "office_name": null,
    "office_name_kana": null
  },
  "2504": {
    "postcode": "4702504",
    "prefecture": "愛知県",
    "prefecture_kana": "アイチケン",
    "prefecture_code": 23,
    "city": "知多郡武豊町",
    "city_kana": "チタグンタケトヨチョウ",
    "town": "熊野",
    "town_kana": "クマノ",
    "street": null,
    "office_name": null,
    "office_name_kana": null
  },
  "2505": {
    "postcode": "4702505",
    "prefecture": "愛知県",
    "prefecture_kana": "アイチケン",
    "prefecture_code": 23,
    "city": "知多郡武豊町",
    "city_kana": "チタグンタケトヨチョウ",
    "town": "田崎",
    "town_kana": "タザキ",
    "street": null,
    "office_name": null,
    "office_name_kana": null
  },
  "2506": {
    "postcode": "4702506",
    "prefecture": "愛知県",
    "prefecture_kana": "アイチケン",
    "prefecture_code": 23,
    "city": "知多郡武豊町",
    "city_kana": "チタグンタケトヨチョウ",
    "town": "後田",
    "town_kana": "ウシロダ",
    "street": null,
    "office_name": null,
    "office_name_kana": null
  },
  "2507": {
    "postcode": "4702507",
    "prefecture": "愛知県",
    "prefecture_kana": "アイチケン",
    "prefecture_code": 23,
    "city": "知多郡武豊町",
    "city_kana": "チタグンタケトヨチョウ",
    "town": "平海道",
    "town_kana": "ヘイカイドウ",
    "street": null,
    "office_name": null,
    "office_name_kana": null
  },
  "2508": {
    "postcode": "4702508",
    "prefecture": "愛知県",
    "prefecture_kana": "アイチケン",
    "prefecture_code": 23,
    "city": "知多郡武豊町",
    "city_kana": "チタグンタケトヨチョウ",
    "town": "川脇",
    "town_kana": "カワワキ",
    "street": null,
    "office_name": null,
    "office_name_kana": null
  },
  "2511": {
    "postcode": "4702511",
    "prefecture": "愛知県",
    "prefecture_kana": "アイチケン",
    "prefecture_code": 23,
    "city": "知多郡武豊町",
    "city_kana": "チタグンタケトヨチョウ",
    "town": "道仙田",
    "town_kana": "ドウセンダ",
    "street": null,
    "office_name": null,
    "office_name_kana": null
  },
  "2512": {
    "postcode": "4702512",
    "prefecture": "愛知県",
    "prefecture_kana": "アイチケン",
    "prefecture_code": 23,
    "city": "知多郡武豊町",
    "city_kana": "チタグンタケトヨチョウ",
    "town": "忠白田",
    "town_kana": "チュウシロダ",
    "street": null,
    "office_name": null,
    "office_name_kana": null
  },
  "2513": {
    "postcode": "4702513",
    "prefecture": "愛知県",
    "prefecture_kana": "アイチケン",
    "prefecture_code": 23,
    "city": "知多郡武豊町",
    "city_kana": "チタグンタケトヨチョウ",
    "town": "一号地",
    "town_kana": "イチゴウチ",
    "street": null,
    "office_name": null,
    "office_name_kana": null
  },
  "2514": {
    "postcode": "4702514",
    "prefecture": "愛知県",
    "prefecture_kana": "アイチケン",
    "prefecture_code": 23,
    "city": "知多郡武豊町",
    "city_kana": "チタグンタケトヨチョウ",
    "town": "旭",
    "town_kana": "アサヒ",
    "street": null,
    "office_name": null,
    "office_name_kana": null
  },
  "2515": {
    "postcode": "4702515",
    "prefecture": "愛知県",
    "prefecture_kana": "アイチケン",
    "prefecture_code": 23,
    "city": "知多郡武豊町",
    "city_kana": "チタグンタケトヨチョウ",
    "town": "下田",
    "town_kana": "シモダ",
    "street": null,
    "office_name": null,
    "office_name_kana": null
  },
  "2516": {
    "postcode": "4702516",
    "prefecture": "愛知県",
    "prefecture_kana": "アイチケン",
    "prefecture_code": 23,
    "city": "知多郡武豊町",
    "city_kana": "チタグンタケトヨチョウ",
    "town": "廻間",
    "town_kana": "ハザマ",
    "street": null,
    "office_name": null,
    "office_name_kana": null
  },
  "2517": {
    "postcode": "4702517",
    "prefecture": "愛知県",
    "prefecture_kana": "アイチケン",
    "prefecture_code": 23,
    "city": "知多郡武豊町",
    "city_kana": "チタグンタケトヨチョウ",
    "town": "長峰",
    "town_kana": "ナガミネ",
    "street": null,
    "office_name": null,
    "office_name_kana": null
  },
  "2521": {
    "postcode": "4702521",
    "prefecture": "愛知県",
    "prefecture_kana": "アイチケン",
    "prefecture_code": 23,
    "city": "知多郡武豊町",
    "city_kana": "チタグンタケトヨチョウ",
    "town": "東大高",
    "town_kana": "ヒガシオオダカ",
    "street": null,
    "office_name": null,
    "office_name_kana": null
  },
  "2531": {
    "postcode": "4702531",
    "prefecture": "愛知県",
    "prefecture_kana": "アイチケン",
    "prefecture_code": 23,
    "city": "知多郡武豊町",
    "city_kana": "チタグンタケトヨチョウ",
    "town": "冨貴",
    "town_kana": "フキ",
    "street": null,
    "office_name": null,
    "office_name_kana": null
  },
  "2532": {
    "postcode": "4702532",
    "prefecture": "愛知県",
    "prefecture_kana": "アイチケン",
    "prefecture_code": 23,
    "city": "知多郡武豊町",
    "city_kana": "チタグンタケトヨチョウ",
    "town": "竜宮",
    "town_kana": "リュウグウ",
    "street": null,
    "office_name": null,
    "office_name_kana": null
  },
  "2541": {
    "postcode": "4702541",
    "prefecture": "愛知県",
    "prefecture_kana": "アイチケン",
    "prefecture_code": 23,
    "city": "知多郡武豊町",
    "city_kana": "チタグンタケトヨチョウ",
    "town": "目堀",
    "town_kana": "メボリ",
    "street": null,
    "office_name": null,
    "office_name_kana": null
  },
  "2542": {
    "postcode": "4702542",
    "prefecture": "愛知県",
    "prefecture_kana": "アイチケン",
    "prefecture_code": 23,
    "city": "知多郡武豊町",
    "city_kana": "チタグンタケトヨチョウ",
    "town": "土穴",
    "town_kana": "ツチアナ",
    "street": null,
    "office_name": null,
    "office_name_kana": null
  },
  "2543": {
    "postcode": "4702543",
    "prefecture": "愛知県",
    "prefecture_kana": "アイチケン",
    "prefecture_code": 23,
    "city": "知多郡武豊町",
    "city_kana": "チタグンタケトヨチョウ",
    "town": "大屋敷",
    "town_kana": "オオヤシキ",
    "street": null,
    "office_name": null,
    "office_name_kana": null
  },
  "2544": {
    "postcode": "4702544",
    "prefecture": "愛知県",
    "prefecture_kana": "アイチケン",
    "prefecture_code": 23,
    "city": "知多郡武豊町",
    "city_kana": "チタグンタケトヨチョウ",
    "town": "里中",
    "town_kana": "サトナカ",
    "street": null,
    "office_name": null,
    "office_name_kana": null
  },
  "2545": {
    "postcode": "4702545",
    "prefecture": "愛知県",
    "prefecture_kana": "アイチケン",
    "prefecture_code": 23,
    "city": "知多郡武豊町",
    "city_kana": "チタグンタケトヨチョウ",
    "town": "前畑",
    "town_kana": "マエハタ",
    "street": null,
    "office_name": null,
    "office_name_kana": null
  },
  "2546": {
    "postcode": "4702546",
    "prefecture": "愛知県",
    "prefecture_kana": "アイチケン",
    "prefecture_code": 23,
    "city": "知多郡武豊町",
    "city_kana": "チタグンタケトヨチョウ",
    "town": "山起",
    "town_kana": "ヤマオコシ",
    "street": null,
    "office_name": null,
    "office_name_kana": null
  },
  "2547": {
    "postcode": "4702547",
    "prefecture": "愛知県",
    "prefecture_kana": "アイチケン",
    "prefecture_code": 23,
    "city": "知多郡武豊町",
    "city_kana": "チタグンタケトヨチョウ",
    "town": "北新田",
    "town_kana": "キタシンデン",
    "street": null,
    "office_name": null,
    "office_name_kana": null
  },
  "2551": {
    "postcode": "4702551",
    "prefecture": "愛知県",
    "prefecture_kana": "アイチケン",
    "prefecture_code": 23,
    "city": "知多郡武豊町",
    "city_kana": "チタグンタケトヨチョウ",
    "town": "石田",
    "town_kana": "イシダ",
    "street": null,
    "office_name": null,
    "office_name_kana": null
  },
  "2552": {
    "postcode": "4702552",
    "prefecture": "愛知県",
    "prefecture_kana": "アイチケン",
    "prefecture_code": 23,
    "city": "知多郡武豊町",
    "city_kana": "チタグンタケトヨチョウ",
    "town": "草口",
    "town_kana": "クサグチ",
    "street": null,
    "office_name": null,
    "office_name_kana": null
  },
  "2553": {
    "postcode": "4702553",
    "prefecture": "愛知県",
    "prefecture_kana": "アイチケン",
    "prefecture_code": 23,
    "city": "知多郡武豊町",
    "city_kana": "チタグンタケトヨチョウ",
    "town": "四畝",
    "town_kana": "ヨセ",
    "street": null,
    "office_name": null,
    "office_name_kana": null
  },
  "2554": {
    "postcode": "4702554",
    "prefecture": "愛知県",
    "prefecture_kana": "アイチケン",
    "prefecture_code": 23,
    "city": "知多郡武豊町",
    "city_kana": "チタグンタケトヨチョウ",
    "town": "白山",
    "town_kana": "ハクサン",
    "street": null,
    "office_name": null,
    "office_name_kana": null
  },
  "2555": {
    "postcode": "4702555",
    "prefecture": "愛知県",
    "prefecture_kana": "アイチケン",
    "prefecture_code": 23,
    "city": "知多郡武豊町",
    "city_kana": "チタグンタケトヨチョウ",
    "town": "大門田",
    "town_kana": "ダイモンダ",
    "street": null,
    "office_name": null,
    "office_name_kana": null
  },
  "2556": {
    "postcode": "4702556",
    "prefecture": "愛知県",
    "prefecture_kana": "アイチケン",
    "prefecture_code": 23,
    "city": "知多郡武豊町",
    "city_kana": "チタグンタケトヨチョウ",
    "town": "南起",
    "town_kana": "ミナミオコシ",
    "street": null,
    "office_name": null,
    "office_name_kana": null
  },
  "3200": {
    "postcode": "4703200",
    "prefecture": "愛知県",
    "prefecture_kana": "アイチケン",
    "prefecture_code": 23,
    "city": "知多郡美浜町",
    "city_kana": "チタグンミハマチョウ",
    "town": "",
    "town_kana": "",
    "street": null,
    "office_name": null,
    "office_name_kana": null
  },
  "3231": {
    "postcode": "4703231",
    "prefecture": "愛知県",
    "prefecture_kana": "アイチケン",
    "prefecture_code": 23,
    "city": "知多郡美浜町",
    "city_kana": "チタグンミハマチョウ",
    "town": "上野間",
    "town_kana": "カミノマ",
    "street": null,
    "office_name": null,
    "office_name_kana": null
  },
  "3232": {
    "postcode": "4703232",
    "prefecture": "愛知県",
    "prefecture_kana": "アイチケン",
    "prefecture_code": 23,
    "city": "知多郡美浜町",
    "city_kana": "チタグンミハマチョウ",
    "town": "美浜緑苑",
    "town_kana": "ミハマリョクエン",
    "street": null,
    "office_name": null,
    "office_name_kana": null
  },
  "3233": {
    "postcode": "4703233",
    "prefecture": "愛知県",
    "prefecture_kana": "アイチケン",
    "prefecture_code": 23,
    "city": "知多郡美浜町",
    "city_kana": "チタグンミハマチョウ",
    "town": "奥田",
    "town_kana": "オクダ",
    "street": null,
    "office_name": null,
    "office_name_kana": null
  },
  "3234": {
    "postcode": "4703234",
    "prefecture": "愛知県",
    "prefecture_kana": "アイチケン",
    "prefecture_code": 23,
    "city": "知多郡美浜町",
    "city_kana": "チタグンミハマチョウ",
    "town": "新栄",
    "town_kana": "シンサカエ",
    "street": null,
    "office_name": null,
    "office_name_kana": null
  },
  "3235": {
    "postcode": "4703235",
    "prefecture": "愛知県",
    "prefecture_kana": "アイチケン",
    "prefecture_code": 23,
    "city": "知多郡美浜町",
    "city_kana": "チタグンミハマチョウ",
    "town": "野間",
    "town_kana": "ノマ",
    "street": null,
    "office_name": null,
    "office_name_kana": null
  },
  "3236": {
    "postcode": "4703236",
    "prefecture": "愛知県",
    "prefecture_kana": "アイチケン",
    "prefecture_code": 23,
    "city": "知多郡美浜町",
    "city_kana": "チタグンミハマチョウ",
    "town": "小野浦",
    "town_kana": "オノウラ",
    "street": null,
    "office_name": null,
    "office_name_kana": null
  },
  "3295": {
    "postcode": "4703295",
    "prefecture": "愛知県",
    "prefecture_kana": "アイチケン",
    "prefecture_code": 23,
    "city": "知多郡美浜町",
    "city_kana": "チタグンミハマチョウ",
    "town": "大字奥田",
    "town_kana": null,
    "street": "字会下前３５−６",
    "office_name": "日本福祉大学",
    "office_name_kana": "ニホンフクシダイガク"
  },
  "3296": {
    "postcode": "4703296",
    "prefecture": "愛知県",
    "prefecture_kana": "アイチケン",
    "prefecture_code": 23,
    "city": "知多郡美浜町",
    "city_kana": "チタグンミハマチョウ",
    "town": "大字奥田",
    "town_kana": null,
    "street": "字会下前３５−６",
    "office_name": "日本福祉大学　生活協同組合",
    "office_name_kana": "ニホンフクシダイガク セイカツキヨウドウクミアイ"
  },
  "3300": {
    "postcode": "4703300",
    "prefecture": "愛知県",
    "prefecture_kana": "アイチケン",
    "prefecture_code": 23,
    "city": "知多郡南知多町",
    "city_kana": "チタグンミナミチタチョウ",
    "town": "",
    "town_kana": "",
    "street": null,
    "office_name": null,
    "office_name_kana": null
  },
  "3321": {
    "postcode": "4703321",
    "prefecture": "愛知県",
    "prefecture_kana": "アイチケン",
    "prefecture_code": 23,
    "city": "知多郡南知多町",
    "city_kana": "チタグンミナミチタチョウ",
    "town": "内海",
    "town_kana": "ウツミ",
    "street": null,
    "office_name": null,
    "office_name_kana": null
  },
  "3322": {
    "postcode": "4703322",
    "prefecture": "愛知県",
    "prefecture_kana": "アイチケン",
    "prefecture_code": 23,
    "city": "知多郡南知多町",
    "city_kana": "チタグンミナミチタチョウ",
    "town": "山海",
    "town_kana": "ヤマミ",
    "street": null,
    "office_name": null,
    "office_name_kana": null
  },
  "3411": {
    "postcode": "4703411",
    "prefecture": "愛知県",
    "prefecture_kana": "アイチケン",
    "prefecture_code": 23,
    "city": "知多郡南知多町",
    "city_kana": "チタグンミナミチタチョウ",
    "town": "豊丘",
    "town_kana": "トヨオカ",
    "street": null,
    "office_name": null,
    "office_name_kana": null
  },
  "3412": {
    "postcode": "4703412",
    "prefecture": "愛知県",
    "prefecture_kana": "アイチケン",
    "prefecture_code": 23,
    "city": "知多郡南知多町",
    "city_kana": "チタグンミナミチタチョウ",
    "town": "豊浜",
    "town_kana": "トヨハマ",
    "street": null,
    "office_name": null,
    "office_name_kana": null
  },
  "3495": {
    "postcode": "4703495",
    "prefecture": "愛知県",
    "prefecture_kana": "アイチケン",
    "prefecture_code": 23,
    "city": "知多郡南知多町",
    "city_kana": "チタグンミナミチタチョウ",
    "town": "大字豊浜",
    "town_kana": null,
    "street": "字貝ケ坪１８",
    "office_name": "南知多町役場",
    "office_name_kana": "ミナミチタチヨウヤクバ"
  },
  "3501": {
    "postcode": "4703501",
    "prefecture": "愛知県",
    "prefecture_kana": "アイチケン",
    "prefecture_code": 23,
    "city": "知多郡南知多町",
    "city_kana": "チタグンミナミチタチョウ",
    "town": "大井",
    "town_kana": "オオイ",
    "street": null,
    "office_name": null,
    "office_name_kana": null
  },
  "3502": {
    "postcode": "4703502",
    "prefecture": "愛知県",
    "prefecture_kana": "アイチケン",
    "prefecture_code": 23,
    "city": "知多郡南知多町",
    "city_kana": "チタグンミナミチタチョウ",
    "town": "片名",
    "town_kana": "カタナ",
    "street": null,
    "office_name": null,
    "office_name_kana": null
  },
  "3503": {
    "postcode": "4703503",
    "prefecture": "愛知県",
    "prefecture_kana": "アイチケン",
    "prefecture_code": 23,
    "city": "知多郡南知多町",
    "city_kana": "チタグンミナミチタチョウ",
    "town": "師崎",
    "town_kana": "モロザキ",
    "street": null,
    "office_name": null,
    "office_name_kana": null
  },
  "3504": {
    "postcode": "4703504",
    "prefecture": "愛知県",
    "prefecture_kana": "アイチケン",
    "prefecture_code": 23,
    "city": "知多郡南知多町",
    "city_kana": "チタグンミナミチタチョウ",
    "town": "日間賀島",
    "town_kana": "ヒマカジマ",
    "street": null,
    "office_name": null,
    "office_name_kana": null
  },
  "3505": {
    "postcode": "4703505",
    "prefecture": "愛知県",
    "prefecture_kana": "アイチケン",
    "prefecture_code": 23,
    "city": "知多郡南知多町",
    "city_kana": "チタグンミナミチタチョウ",
    "town": "篠島",
    "town_kana": "シノジマ",
    "street": null,
    "office_name": null,
    "office_name_kana": null
  }
}