{
  "0000": {
    "postcode": "4750000",
    "prefecture": "愛知県",
    "prefecture_kana": "アイチケン",
    "prefecture_code": 23,
    "city": "半田市",
    "city_kana": "ハンダシ",
    "town": "",
    "town_kana": "",
    "street": null,
    "office_name": null,
    "office_name_kana": null
  },
  "0001": {
    "postcode": "4750001",
    "prefecture": "愛知県",
    "prefecture_kana": "アイチケン",
    "prefecture_code": 23,
    "city": "半田市",
    "city_kana": "ハンダシ",
    "town": "石塚町",
    "town_kana": "イシヅカチョウ",
    "street": null,
    "office_name": null,
    "office_name_kana": null
  },
  "0002": {
    "postcode": "4750002",
    "prefecture": "愛知県",
    "prefecture_kana": "アイチケン",
    "prefecture_code": 23,
    "city": "半田市",
    "city_kana": "ハンダシ",
    "town": "緑ケ丘",
    "town_kana": "ミドリガオカ",
    "street": null,
    "office_name": null,
    "office_name_kana": null
  },
  "0003": {
    "postcode": "4750003",
    "prefecture": "愛知県",
    "prefecture_kana": "アイチケン",
    "prefecture_code": 23,
    "city": "半田市",
    "city_kana": "ハンダシ",
    "town": "東大矢知町",
    "town_kana": "ヒガシオオヤチチョウ",
    "street": null,
    "office_name": null,
    "office_name_kana": null
  },
  "0004": {
    "postcode": "4750004",
    "prefecture": "愛知県",
    "prefecture_kana": "アイチケン",
    "prefecture_code": 23,
    "city": "半田市",
    "city_kana": "ハンダシ",
    "town": "上池町",
    "town_kana": "カミイケチョウ",
    "street": null,
    "office_name": null,
    "office_name_kana": null
  },
  "0005": {
    "postcode": "4750005",
    "prefecture": "愛知県",
    "prefecture_kana": "アイチケン",
    "prefecture_code": 23,
    "city": "半田市",
    "city_kana": "ハンダシ",
    "town": "横川町",
    "town_kana": "ヨコガワチョウ",
    "street": null,
    "office_name": null,
    "office_name_kana": null
  },
  "0006": {
    "postcode": "4750006",
    "prefecture": "愛知県",
    "prefecture_kana": "アイチケン",
    "prefecture_code": 23,
    "city": "半田市",
    "city_kana": "ハンダシ",
    "town": "南大矢知町",
    "town_kana": "ミナミオオヤチチョウ",
    "street": null,
    "office_name": null,
    "office_name_kana": null
  },
  "0007": {
    "postcode": "4750007",
    "prefecture": "愛知県",
    "prefecture_kana": "アイチケン",
    "prefecture_code": 23,
    "city": "半田市",
    "city_kana": "ハンダシ",
    "town": "西大矢知町",
    "town_kana": "ニシオオヤチチョウ",
    "street": null,
    "office_name": null,
    "office_name_kana": null
  },
  "0008": {
    "postcode": "4750008",
    "prefecture": "愛知県",
    "prefecture_kana": "アイチケン",
    "prefecture_code": 23,
    "city": "半田市",
    "city_kana": "ハンダシ",
    "town": "北大矢知町",
    "town_kana": "キタオオヤチチョウ",
    "street": null,
    "office_name": null,
    "office_name_kana": null
  },
  "0009": {
    "postcode": "4750009",
    "prefecture": "愛知県",
    "prefecture_kana": "アイチケン",
    "prefecture_code": 23,
    "city": "半田市",
    "city_kana": "ハンダシ",
    "town": "上定光町",
    "town_kana": "カミジョウコウチョウ",
    "street": null,
    "office_name": null,
    "office_name_kana": null
  },
  "0011": {
    "postcode": "4750011",
    "prefecture": "愛知県",
    "prefecture_kana": "アイチケン",
    "prefecture_code": 23,
    "city": "半田市",
    "city_kana": "ハンダシ",
    "town": "稲穂町",
    "town_kana": "イナホチョウ",
    "street": null,
    "office_name": null,
    "office_name_kana": null
  },
  "0012": {
    "postcode": "4750012",
    "prefecture": "愛知県",
    "prefecture_kana": "アイチケン",
    "prefecture_code": 23,
    "city": "半田市",
    "city_kana": "ハンダシ",
    "town": "東生見町",
    "town_kana": "ヒガシハエミチョウ",
    "street": null,
    "office_name": null,
    "office_name_kana": null
  },
  "0013": {
    "postcode": "4750013",
    "prefecture": "愛知県",
    "prefecture_kana": "アイチケン",
    "prefecture_code": 23,
    "city": "半田市",
    "city_kana": "ハンダシ",
    "town": "平地馬場町",
    "town_kana": "ヒラチバンバチョウ",
    "street": null,
    "office_name": null,
    "office_name_kana": null
  },
  "0014": {
    "postcode": "4750014",
    "prefecture": "愛知県",
    "prefecture_kana": "アイチケン",
    "prefecture_code": 23,
    "city": "半田市",
    "city_kana": "ハンダシ",
    "town": "一本木町",
    "town_kana": "イッポンギチョウ",
    "street": null,
    "office_name": null,
    "office_name_kana": null
  },
  "0015": {
    "postcode": "4750015",
    "prefecture": "愛知県",
    "prefecture_kana": "アイチケン",
    "prefecture_code": 23,
    "city": "半田市",
    "city_kana": "ハンダシ",
    "town": "大高町",
    "town_kana": "オオダカチョウ",
    "street": null,
    "office_name": null,
    "office_name_kana": null
  },
  "0016": {
    "postcode": "4750016",
    "prefecture": "愛知県",
    "prefecture_kana": "アイチケン",
    "prefecture_code": 23,
    "city": "半田市",
    "city_kana": "ハンダシ",
    "town": "西生見町",
    "town_kana": "ニシハエミチョウ",
    "street": null,
    "office_name": null,
    "office_name_kana": null
  },
  "0017": {
    "postcode": "4750017",
    "prefecture": "愛知県",
    "prefecture_kana": "アイチケン",
    "prefecture_code": 23,
    "city": "半田市",
    "city_kana": "ハンダシ",
    "town": "有脇町",
    "town_kana": "アリワキチョウ",
    "street": null,
    "office_name": null,
    "office_name_kana": null
  },
  "0018": {
    "postcode": "4750018",
    "prefecture": "愛知県",
    "prefecture_kana": "アイチケン",
    "prefecture_code": 23,
    "city": "半田市",
    "city_kana": "ハンダシ",
    "town": "中生見町",
    "town_kana": "ナカハエミチョウ",
    "street": null,
    "office_name": null,
    "office_name_kana": null
  },
  "0019": {
    "postcode": "4750019",
    "prefecture": "愛知県",
    "prefecture_kana": "アイチケン",
    "prefecture_code": 23,
    "city": "半田市",
    "city_kana": "ハンダシ",
    "town": "のぞみが丘",
    "town_kana": "ノゾミガオカ",
    "street": null,
    "office_name": null,
    "office_name_kana": null
  },
  "0021": {
    "postcode": "4750021",
    "prefecture": "愛知県",
    "prefecture_kana": "アイチケン",
    "prefecture_code": 23,
    "city": "半田市",
    "city_kana": "ハンダシ",
    "town": "州の崎町",
    "town_kana": "スノサキチョウ",
    "street": null,
    "office_name": null,
    "office_name_kana": null
  },
  "0022": {
    "postcode": "4750022",
    "prefecture": "愛知県",
    "prefecture_kana": "アイチケン",
    "prefecture_code": 23,
    "city": "半田市",
    "city_kana": "ハンダシ",
    "town": "亀崎月見町",
    "town_kana": "カメザキツキミチョウ",
    "street": null,
    "office_name": null,
    "office_name_kana": null
  },
  "0023": {
    "postcode": "4750023",
    "prefecture": "愛知県",
    "prefecture_kana": "アイチケン",
    "prefecture_code": 23,
    "city": "半田市",
    "city_kana": "ハンダシ",
    "town": "亀崎町",
    "town_kana": "カメザキチョウ",
    "street": null,
    "office_name": null,
    "office_name_kana": null
  },
  "0024": {
    "postcode": "4750024",
    "prefecture": "愛知県",
    "prefecture_kana": "アイチケン",
    "prefecture_code": 23,
    "city": "半田市",
    "city_kana": "ハンダシ",
    "town": "亀崎高根町",
    "town_kana": "カメザキタカネチョウ",
    "street": null,
    "office_name": null,
    "office_name_kana": null
  },
  "0025": {
    "postcode": "4750025",
    "prefecture": "愛知県",
    "prefecture_kana": "アイチケン",
    "prefecture_code": 23,
    "city": "半田市",
    "city_kana": "ハンダシ",
    "town": "亀崎大洞町",
    "town_kana": "カメザキオオボラチョウ",
    "street": null,
    "office_name": null,
    "office_name_kana": null
  },
  "0026": {
    "postcode": "4750026",
    "prefecture": "愛知県",
    "prefecture_kana": "アイチケン",
    "prefecture_code": 23,
    "city": "半田市",
    "city_kana": "ハンダシ",
    "town": "亀崎新田町",
    "town_kana": "カメザキシンデンチョウ",
    "street": null,
    "office_name": null,
    "office_name_kana": null
  },
  "0027": {
    "postcode": "4750027",
    "prefecture": "愛知県",
    "prefecture_kana": "アイチケン",
    "prefecture_code": 23,
    "city": "半田市",
    "city_kana": "ハンダシ",
    "town": "亀崎北浦町",
    "town_kana": "カメザキキタウラチョウ",
    "street": null,
    "office_name": null,
    "office_name_kana": null
  },
  "0028": {
    "postcode": "4750028",
    "prefecture": "愛知県",
    "prefecture_kana": "アイチケン",
    "prefecture_code": 23,
    "city": "半田市",
    "city_kana": "ハンダシ",
    "town": "亀崎相生町",
    "town_kana": "カメザキアイオイチョウ",
    "street": null,
    "office_name": null,
    "office_name_kana": null
  },
  "0029": {
    "postcode": "4750029",
    "prefecture": "愛知県",
    "prefecture_kana": "アイチケン",
    "prefecture_code": 23,
    "city": "半田市",
    "city_kana": "ハンダシ",
    "town": "亀崎常盤町",
    "town_kana": "カメザキトキワチョウ",
    "street": null,
    "office_name": null,
    "office_name_kana": null
  },
  "0031": {
    "postcode": "4750031",
    "prefecture": "愛知県",
    "prefecture_kana": "アイチケン",
    "prefecture_code": 23,
    "city": "半田市",
    "city_kana": "ハンダシ",
    "town": "阿原町",
    "town_kana": "アワラチョウ",
    "street": null,
    "office_name": null,
    "office_name_kana": null
  },
  "0032": {
    "postcode": "4750032",
    "prefecture": "愛知県",
    "prefecture_kana": "アイチケン",
    "prefecture_code": 23,
    "city": "半田市",
    "city_kana": "ハンダシ",
    "town": "潮干町",
    "town_kana": "シオヒチョウ",
    "street": null,
    "office_name": null,
    "office_name_kana": null
  },
  "0033": {
    "postcode": "4750033",
    "prefecture": "愛知県",
    "prefecture_kana": "アイチケン",
    "prefecture_code": 23,
    "city": "半田市",
    "city_kana": "ハンダシ",
    "town": "日東町",
    "town_kana": "ニットウチョウ",
    "street": null,
    "office_name": null,
    "office_name_kana": null
  },
  "0034": {
    "postcode": "4750034",
    "prefecture": "愛知県",
    "prefecture_kana": "アイチケン",
    "prefecture_code": 23,
    "city": "半田市",
    "city_kana": "ハンダシ",
    "town": "東億田町",
    "town_kana": "ヒガシオクダチョウ",
    "street": null,
    "office_name": null,
    "office_name_kana": null
  },
  "0035": {
    "postcode": "4750035",
    "prefecture": "愛知県",
    "prefecture_kana": "アイチケン",
    "prefecture_code": 23,
    "city": "半田市",
    "city_kana": "ハンダシ",
    "town": "中億田町",
    "town_kana": "ナカオクダチョウ",
    "street": null,
    "office_name": null,
    "office_name_kana": null
  },
  "0036": {
    "postcode": "4750036",
    "prefecture": "愛知県",
    "prefecture_kana": "アイチケン",
    "prefecture_code": 23,
    "city": "半田市",
    "city_kana": "ハンダシ",
    "town": "高砂町",
    "town_kana": "タカサゴチョウ",
    "street": null,
    "office_name": null,
    "office_name_kana": null
  },
  "0037": {
    "postcode": "4750037",
    "prefecture": "愛知県",
    "prefecture_kana": "アイチケン",
    "prefecture_code": 23,
    "city": "半田市",
    "city_kana": "ハンダシ",
    "town": "中午町",
    "town_kana": "ナカウマチョウ",
    "street": null,
    "office_name": null,
    "office_name_kana": null
  },
  "0038": {
    "postcode": "4750038",
    "prefecture": "愛知県",
    "prefecture_kana": "アイチケン",
    "prefecture_code": 23,
    "city": "半田市",
    "city_kana": "ハンダシ",
    "town": "祢宜町",
    "town_kana": "ネギチョウ",
    "street": null,
    "office_name": null,
    "office_name_kana": null
  },
  "0039": {
    "postcode": "4750039",
    "prefecture": "愛知県",
    "prefecture_kana": "アイチケン",
    "prefecture_code": 23,
    "city": "半田市",
    "city_kana": "ハンダシ",
    "town": "新居町",
    "town_kana": "アライチョウ",
    "street": null,
    "office_name": null,
    "office_name_kana": null
  },
  "0041": {
    "postcode": "4750041",
    "prefecture": "愛知県",
    "prefecture_kana": "アイチケン",
    "prefecture_code": 23,
    "city": "半田市",
    "city_kana": "ハンダシ",
    "town": "乙川太田町",
    "town_kana": "オツカワオオタチョウ",
    "street": null,
    "office_name": null,
    "office_name_kana": null
  },
  "0042": {
    "postcode": "4750042",
    "prefecture": "愛知県",
    "prefecture_kana": "アイチケン",
    "prefecture_code": 23,
    "city": "半田市",
    "city_kana": "ハンダシ",
    "town": "乙川向田町",
    "town_kana": "オツカワムカイダチョウ",
    "street": null,
    "office_name": null,
    "office_name_kana": null
  },
  "0043": {
    "postcode": "4750043",
    "prefecture": "愛知県",
    "prefecture_kana": "アイチケン",
    "prefecture_code": 23,
    "city": "半田市",
    "city_kana": "ハンダシ",
    "town": "乙川浜側町",
    "town_kana": "オツカワハマガワチョウ",
    "street": null,
    "office_name": null,
    "office_name_kana": null
  },
  "0044": {
    "postcode": "4750044",
    "prefecture": "愛知県",
    "prefecture_kana": "アイチケン",
    "prefecture_code": 23,
    "city": "半田市",
    "city_kana": "ハンダシ",
    "town": "乙川八幡町",
    "town_kana": "オツカワハチマンチョウ",
    "street": null,
    "office_name": null,
    "office_name_kana": null
  },
  "0045": {
    "postcode": "4750045",
    "prefecture": "愛知県",
    "prefecture_kana": "アイチケン",
    "prefecture_code": 23,
    "city": "半田市",
    "city_kana": "ハンダシ",
    "town": "乙川殿町",
    "town_kana": "オツカワトノマチ",
    "street": null,
    "office_name": null,
    "office_name_kana": null
  },
  "0046": {
    "postcode": "4750046",
    "prefecture": "愛知県",
    "prefecture_kana": "アイチケン",
    "prefecture_code": 23,
    "city": "半田市",
    "city_kana": "ハンダシ",
    "town": "乙川市場町",
    "town_kana": "オツカワイチバチョウ",
    "street": null,
    "office_name": null,
    "office_name_kana": null
  },
  "0047": {
    "postcode": "4750047",
    "prefecture": "愛知県",
    "prefecture_kana": "アイチケン",
    "prefecture_code": 23,
    "city": "半田市",
    "city_kana": "ハンダシ",
    "town": "乙川北側町",
    "town_kana": "オツカワキタガワチョウ",
    "street": null,
    "office_name": null,
    "office_name_kana": null
  },
  "0048": {
    "postcode": "4750048",
    "prefecture": "愛知県",
    "prefecture_kana": "アイチケン",
    "prefecture_code": 23,
    "city": "半田市",
    "city_kana": "ハンダシ",
    "town": "乙川稗田町",
    "town_kana": "オツカワヒエダチョウ",
    "street": null,
    "office_name": null,
    "office_name_kana": null
  },
  "0051": {
    "postcode": "4750051",
    "prefecture": "愛知県",
    "prefecture_kana": "アイチケン",
    "prefecture_code": 23,
    "city": "半田市",
    "city_kana": "ハンダシ",
    "town": "乙川栄町",
    "town_kana": "オツカワサカエマチ",
    "street": null,
    "office_name": null,
    "office_name_kana": null
  },
  "0052": {
    "postcode": "4750052",
    "prefecture": "愛知県",
    "prefecture_kana": "アイチケン",
    "prefecture_code": 23,
    "city": "半田市",
    "city_kana": "ハンダシ",
    "town": "乙川高良町",
    "town_kana": "オツカワタカラマチ",
    "street": null,
    "office_name": null,
    "office_name_kana": null
  },
  "0053": {
    "postcode": "4750053",
    "prefecture": "愛知県",
    "prefecture_kana": "アイチケン",
    "prefecture_code": 23,
    "city": "半田市",
    "city_kana": "ハンダシ",
    "town": "乙川内山町",
    "town_kana": "オツカワウチヤマチョウ",
    "street": null,
    "office_name": null,
    "office_name_kana": null
  },
  "0054": {
    "postcode": "4750054",
    "prefecture": "愛知県",
    "prefecture_kana": "アイチケン",
    "prefecture_code": 23,
    "city": "半田市",
    "city_kana": "ハンダシ",
    "town": "乙川町",
    "town_kana": "オツカワチョウ",
    "street": null,
    "office_name": null,
    "office_name_kana": null
  },
  "0055": {
    "postcode": "4750055",
    "prefecture": "愛知県",
    "prefecture_kana": "アイチケン",
    "prefecture_code": 23,
    "city": "半田市",
    "city_kana": "ハンダシ",
    "town": "北浜田町",
    "town_kana": "キタハマダチョウ",
    "street": null,
    "office_name": null,
    "office_name_kana": null
  },
  "0056": {
    "postcode": "4750056",
    "prefecture": "愛知県",
    "prefecture_kana": "アイチケン",
    "prefecture_code": 23,
    "city": "半田市",
    "city_kana": "ハンダシ",
    "town": "乙川一色町",
    "town_kana": "オツカワイシキチョウ",
    "street": null,
    "office_name": null,
    "office_name_kana": null
  },
  "0057": {
    "postcode": "4750057",
    "prefecture": "愛知県",
    "prefecture_kana": "アイチケン",
    "prefecture_code": 23,
    "city": "半田市",
    "city_kana": "ハンダシ",
    "town": "乙川新町",
    "town_kana": "オツカワシンマチ",
    "street": null,
    "office_name": null,
    "office_name_kana": null
  },
  "0058": {
    "postcode": "4750058",
    "prefecture": "愛知県",
    "prefecture_kana": "アイチケン",
    "prefecture_code": 23,
    "city": "半田市",
    "city_kana": "ハンダシ",
    "town": "乙川吉野町",
    "town_kana": "オツカワヨシノチョウ",
    "street": null,
    "office_name": null,
    "office_name_kana": null
  },
  "0061": {
    "postcode": "4750061",
    "prefecture": "愛知県",
    "prefecture_kana": "アイチケン",
    "prefecture_code": 23,
    "city": "半田市",
    "city_kana": "ハンダシ",
    "town": "一ノ草町",
    "town_kana": "イチノクサチョウ",
    "street": null,
    "office_name": null,
    "office_name_kana": null
  },
  "0062": {
    "postcode": "4750062",
    "prefecture": "愛知県",
    "prefecture_kana": "アイチケン",
    "prefecture_code": 23,
    "city": "半田市",
    "city_kana": "ハンダシ",
    "town": "飯森町",
    "town_kana": "イイモリチョウ",
    "street": null,
    "office_name": null,
    "office_name_kana": null
  },
  "0063": {
    "postcode": "4750063",
    "prefecture": "愛知県",
    "prefecture_kana": "アイチケン",
    "prefecture_code": 23,
    "city": "半田市",
    "city_kana": "ハンダシ",
    "town": "乙川若宮町",
    "town_kana": "オツカワワカミヤチョウ",
    "street": null,
    "office_name": null,
    "office_name_kana": null
  },
  "0064": {
    "postcode": "4750064",
    "prefecture": "愛知県",
    "prefecture_kana": "アイチケン",
    "prefecture_code": 23,
    "city": "半田市",
    "city_kana": "ハンダシ",
    "town": "乙川薬師町",
    "town_kana": "オツカワヤクシチョウ",
    "street": null,
    "office_name": null,
    "office_name_kana": null
  },
  "0065": {
    "postcode": "4750065",
    "prefecture": "愛知県",
    "prefecture_kana": "アイチケン",
    "prefecture_code": 23,
    "city": "半田市",
    "city_kana": "ハンダシ",
    "town": "乙川深田町",
    "town_kana": "オツカワフカダチョウ",
    "street": null,
    "office_name": null,
    "office_name_kana": null
  },
  "0066": {
    "postcode": "4750066",
    "prefecture": "愛知県",
    "prefecture_kana": "アイチケン",
    "prefecture_code": 23,
    "city": "半田市",
    "city_kana": "ハンダシ",
    "town": "乙川源内林町",
    "town_kana": "オツカワゲンナイバヤシチョウ",
    "street": null,
    "office_name": null,
    "office_name_kana": null
  },
  "0067": {
    "postcode": "4750067",
    "prefecture": "愛知県",
    "prefecture_kana": "アイチケン",
    "prefecture_code": 23,
    "city": "半田市",
    "city_kana": "ハンダシ",
    "town": "乙川畑田町",
    "town_kana": "オツカワハタダチョウ",
    "street": null,
    "office_name": null,
    "office_name_kana": null
  },
  "0068": {
    "postcode": "4750068",
    "prefecture": "愛知県",
    "prefecture_kana": "アイチケン",
    "prefecture_code": 23,
    "city": "半田市",
    "city_kana": "ハンダシ",
    "town": "乙川西ノ宮町",
    "town_kana": "オツカワニシノミヤチョウ",
    "street": null,
    "office_name": null,
    "office_name_kana": null
  },
  "0071": {
    "postcode": "4750071",
    "prefecture": "愛知県",
    "prefecture_kana": "アイチケン",
    "prefecture_code": 23,
    "city": "半田市",
    "city_kana": "ハンダシ",
    "town": "大伝根町",
    "town_kana": "オオデンネチョウ",
    "street": null,
    "office_name": null,
    "office_name_kana": null
  },
  "0072": {
    "postcode": "4750072",
    "prefecture": "愛知県",
    "prefecture_kana": "アイチケン",
    "prefecture_code": 23,
    "city": "半田市",
    "city_kana": "ハンダシ",
    "town": "七本木町",
    "town_kana": "シチホンギチョウ",
    "street": null,
    "office_name": null,
    "office_name_kana": null
  },
  "0073": {
    "postcode": "4750073",
    "prefecture": "愛知県",
    "prefecture_kana": "アイチケン",
    "prefecture_code": 23,
    "city": "半田市",
    "city_kana": "ハンダシ",
    "town": "美原町",
    "town_kana": "ミハラチョウ",
    "street": null,
    "office_name": null,
    "office_name_kana": null
  },
  "0074": {
    "postcode": "4750074",
    "prefecture": "愛知県",
    "prefecture_kana": "アイチケン",
    "prefecture_code": 23,
    "city": "半田市",
    "city_kana": "ハンダシ",
    "town": "長根町",
    "town_kana": "ナガネチョウ",
    "street": null,
    "office_name": null,
    "office_name_kana": null
  },
  "0075": {
    "postcode": "4750075",
    "prefecture": "愛知県",
    "prefecture_kana": "アイチケン",
    "prefecture_code": 23,
    "city": "半田市",
    "city_kana": "ハンダシ",
    "town": "苗代町",
    "town_kana": "ナエシロチョウ",
    "street": null,
    "office_name": null,
    "office_name_kana": null
  },
  "0076": {
    "postcode": "4750076",
    "prefecture": "愛知県",
    "prefecture_kana": "アイチケン",
    "prefecture_code": 23,
    "city": "半田市",
    "city_kana": "ハンダシ",
    "town": "横松上町",
    "town_kana": "ヨコマツカミチョウ",
    "street": null,
    "office_name": null,
    "office_name_kana": null
  },
  "0077": {
    "postcode": "4750077",
    "prefecture": "愛知県",
    "prefecture_kana": "アイチケン",
    "prefecture_code": 23,
    "city": "半田市",
    "city_kana": "ハンダシ",
    "town": "兀山町",
    "town_kana": "ハゲヤマチョウ",
    "street": null,
    "office_name": null,
    "office_name_kana": null
  },
  "0078": {
    "postcode": "4750078",
    "prefecture": "愛知県",
    "prefecture_kana": "アイチケン",
    "prefecture_code": 23,
    "city": "半田市",
    "city_kana": "ハンダシ",
    "town": "新池町",
    "town_kana": "シンイケチョウ",
    "street": null,
    "office_name": null,
    "office_name_kana": null
  },
  "0081": {
    "postcode": "4750081",
    "prefecture": "愛知県",
    "prefecture_kana": "アイチケン",
    "prefecture_code": 23,
    "city": "半田市",
    "city_kana": "ハンダシ",
    "town": "平地町",
    "town_kana": "ヒラチチョウ",
    "street": null,
    "office_name": null,
    "office_name_kana": null
  },
  "0082": {
    "postcode": "4750082",
    "prefecture": "愛知県",
    "prefecture_kana": "アイチケン",
    "prefecture_code": 23,
    "city": "半田市",
    "city_kana": "ハンダシ",
    "town": "前田町",
    "town_kana": "マエダチョウ",
    "street": null,
    "office_name": null,
    "office_name_kana": null
  },
  "0083": {
    "postcode": "4750083",
    "prefecture": "愛知県",
    "prefecture_kana": "アイチケン",
    "prefecture_code": 23,
    "city": "半田市",
    "city_kana": "ハンダシ",
    "town": "大松町",
    "town_kana": "オオマツチョウ",
    "street": null,
    "office_name": null,
    "office_name_kana": null
  },
  "0084": {
    "postcode": "4750084",
    "prefecture": "愛知県",
    "prefecture_kana": "アイチケン",
    "prefecture_code": 23,
    "city": "半田市",
    "city_kana": "ハンダシ",
    "town": "向山町",
    "town_kana": "ムカイヤマチョウ",
    "street": null,
    "office_name": null,
    "office_name_kana": null
  },
  "0085": {
    "postcode": "4750085",
    "prefecture": "愛知県",
    "prefecture_kana": "アイチケン",
    "prefecture_code": 23,
    "city": "半田市",
    "city_kana": "ハンダシ",
    "town": "小神町",
    "town_kana": "コシンチョウ",
    "street": null,
    "office_name": null,
    "office_name_kana": null
  },
  "0086": {
    "postcode": "4750086",
    "prefecture": "愛知県",
    "prefecture_kana": "アイチケン",
    "prefecture_code": 23,
    "city": "半田市",
    "city_kana": "ハンダシ",
    "town": "庚申町",
    "town_kana": "コウシンチョウ",
    "street": null,
    "office_name": null,
    "office_name_kana": null
  },
  "0087": {
    "postcode": "4750087",
    "prefecture": "愛知県",
    "prefecture_kana": "アイチケン",
    "prefecture_code": 23,
    "city": "半田市",
    "city_kana": "ハンダシ",
    "town": "大池町",
    "town_kana": "オオイケチョウ",
    "street": null,
    "office_name": null,
    "office_name_kana": null
  },
  "0088": {
    "postcode": "4750088",
    "prefecture": "愛知県",
    "prefecture_kana": "アイチケン",
    "prefecture_code": 23,
    "city": "半田市",
    "city_kana": "ハンダシ",
    "town": "花田町",
    "town_kana": "ハナダチョウ",
    "street": null,
    "office_name": null,
    "office_name_kana": null
  },
  "0801": {
    "postcode": "4750801",
    "prefecture": "愛知県",
    "prefecture_kana": "アイチケン",
    "prefecture_code": 23,
    "city": "半田市",
    "city_kana": "ハンダシ",
    "town": "相賀町",
    "town_kana": "ソウガチョウ",
    "street": null,
    "office_name": null,
    "office_name_kana": null
  },
  "0802": {
    "postcode": "4750802",
    "prefecture": "愛知県",
    "prefecture_kana": "アイチケン",
    "prefecture_code": 23,
    "city": "半田市",
    "city_kana": "ハンダシ",
    "town": "西億田町",
    "town_kana": "ニシオクダチョウ",
    "street": null,
    "office_name": null,
    "office_name_kana": null
  },
  "0803": {
    "postcode": "4750803",
    "prefecture": "愛知県",
    "prefecture_kana": "アイチケン",
    "prefecture_code": 23,
    "city": "半田市",
    "city_kana": "ハンダシ",
    "town": "乙川末広町",
    "town_kana": "オツカワスエヒロチョウ",
    "street": null,
    "office_name": null,
    "office_name_kana": null
  },
  "0804": {
    "postcode": "4750804",
    "prefecture": "愛知県",
    "prefecture_kana": "アイチケン",
    "prefecture_code": 23,
    "city": "半田市",
    "city_kana": "ハンダシ",
    "town": "上浜町",
    "town_kana": "カミハマチョウ",
    "street": null,
    "office_name": null,
    "office_name_kana": null
  },
  "0805": {
    "postcode": "4750805",
    "prefecture": "愛知県",
    "prefecture_kana": "アイチケン",
    "prefecture_code": 23,
    "city": "半田市",
    "city_kana": "ハンダシ",
    "town": "浜田町",
    "town_kana": "ハマダチョウ",
    "street": null,
    "office_name": null,
    "office_name_kana": null
  },
  "0806": {
    "postcode": "4750806",
    "prefecture": "愛知県",
    "prefecture_kana": "アイチケン",
    "prefecture_code": 23,
    "city": "半田市",
    "city_kana": "ハンダシ",
    "town": "古浜町",
    "town_kana": "コハマチョウ",
    "street": null,
    "office_name": null,
    "office_name_kana": null
  },
  "0807": {
    "postcode": "4750807",
    "prefecture": "愛知県",
    "prefecture_kana": "アイチケン",
    "prefecture_code": 23,
    "city": "半田市",
    "city_kana": "ハンダシ",
    "town": "八軒町",
    "town_kana": "ハチケンチョウ",
    "street": null,
    "office_name": null,
    "office_name_kana": null
  },
  "0808": {
    "postcode": "4750808",
    "prefecture": "愛知県",
    "prefecture_kana": "アイチケン",
    "prefecture_code": 23,
    "city": "半田市",
    "city_kana": "ハンダシ",
    "town": "川田町",
    "town_kana": "カワダチョウ",
    "street": null,
    "office_name": null,
    "office_name_kana": null
  },
  "0813": {
    "postcode": "4750813",
    "prefecture": "愛知県",
    "prefecture_kana": "アイチケン",
    "prefecture_code": 23,
    "city": "半田市",
    "city_kana": "ハンダシ",
    "town": "東浜町",
    "town_kana": "ヒガシハマチョウ",
    "street": null,
    "office_name": null,
    "office_name_kana": null
  },
  "0814": {
    "postcode": "4750814",
    "prefecture": "愛知県",
    "prefecture_kana": "アイチケン",
    "prefecture_code": 23,
    "city": "半田市",
    "city_kana": "ハンダシ",
    "town": "幸町",
    "town_kana": "サイワイチョウ",
    "street": null,
    "office_name": null,
    "office_name_kana": null
  },
  "0815": {
    "postcode": "4750815",
    "prefecture": "愛知県",
    "prefecture_kana": "アイチケン",
    "prefecture_code": 23,
    "city": "半田市",
    "city_kana": "ハンダシ",
    "town": "新栄町",
    "town_kana": "シンサカエマチ",
    "street": null,
    "office_name": null,
    "office_name_kana": null
  },
  "0816": {
    "postcode": "4750816",
    "prefecture": "愛知県",
    "prefecture_kana": "アイチケン",
    "prefecture_code": 23,
    "city": "半田市",
    "city_kana": "ハンダシ",
    "town": "源平町",
    "town_kana": "ゲンペイチョウ",
    "street": null,
    "office_name": null,
    "office_name_kana": null
  },
  "0817": {
    "postcode": "4750817",
    "prefecture": "愛知県",
    "prefecture_kana": "アイチケン",
    "prefecture_code": 23,
    "city": "半田市",
    "city_kana": "ハンダシ",
    "town": "東洋町",
    "town_kana": "トウヨウチョウ",
    "street": null,
    "office_name": null,
    "office_name_kana": null
  },
  "0819": {
    "postcode": "4750819",
    "prefecture": "愛知県",
    "prefecture_kana": "アイチケン",
    "prefecture_code": 23,
    "city": "半田市",
    "city_kana": "ハンダシ",
    "town": "日ノ出町",
    "town_kana": "ヒノデチョウ",
    "street": null,
    "office_name": null,
    "office_name_kana": null
  },
  "0821": {
    "postcode": "4750821",
    "prefecture": "愛知県",
    "prefecture_kana": "アイチケン",
    "prefecture_code": 23,
    "city": "半田市",
    "city_kana": "ハンダシ",
    "town": "船入町",
    "town_kana": "フナイリチョウ",
    "street": null,
    "office_name": null,
    "office_name_kana": null
  },
  "0822": {
    "postcode": "4750822",
    "prefecture": "愛知県",
    "prefecture_kana": "アイチケン",
    "prefecture_code": 23,
    "city": "半田市",
    "city_kana": "ハンダシ",
    "town": "浜町",
    "town_kana": "ハママチ",
    "street": null,
    "office_name": null,
    "office_name_kana": null
  },
  "0823": {
    "postcode": "4750823",
    "prefecture": "愛知県",
    "prefecture_kana": "アイチケン",
    "prefecture_code": 23,
    "city": "半田市",
    "city_kana": "ハンダシ",
    "town": "港町",
    "town_kana": "ミナトマチ",
    "street": null,
    "office_name": null,
    "office_name_kana": null
  },
  "0824": {
    "postcode": "4750824",
    "prefecture": "愛知県",
    "prefecture_kana": "アイチケン",
    "prefecture_code": 23,
    "city": "半田市",
    "city_kana": "ハンダシ",
    "town": "新浜町",
    "town_kana": "シンハマチョウ",
    "street": null,
    "office_name": null,
    "office_name_kana": null
  },
  "0825": {
    "postcode": "4750825",
    "prefecture": "愛知県",
    "prefecture_kana": "アイチケン",
    "prefecture_code": 23,
    "city": "半田市",
    "city_kana": "ハンダシ",
    "town": "前潟町",
    "town_kana": "マエガタチョウ",
    "street": null,
    "office_name": null,
    "office_name_kana": null
  },
  "0826": {
    "postcode": "4750826",
    "prefecture": "愛知県",
    "prefecture_kana": "アイチケン",
    "prefecture_code": 23,
    "city": "半田市",
    "city_kana": "ハンダシ",
    "town": "神明町",
    "town_kana": "シンメイチョウ",
    "street": null,
    "office_name": null,
    "office_name_kana": null
  },
  "0827": {
    "postcode": "4750827",
    "prefecture": "愛知県",
    "prefecture_kana": "アイチケン",
    "prefecture_code": 23,
    "city": "半田市",
    "city_kana": "ハンダシ",
    "town": "港本町",
    "town_kana": "ミナトホンマチ",
    "street": null,
    "office_name": null,
    "office_name_kana": null
  },
  "0828": {
    "postcode": "4750828",
    "prefecture": "愛知県",
    "prefecture_kana": "アイチケン",
    "prefecture_code": 23,
    "city": "半田市",
    "city_kana": "ハンダシ",
    "town": "瑞穂町",
    "town_kana": "ミズホチョウ",
    "street": null,
    "office_name": null,
    "office_name_kana": null
  },
  "0831": {
    "postcode": "4750831",
    "prefecture": "愛知県",
    "prefecture_kana": "アイチケン",
    "prefecture_code": 23,
    "city": "半田市",
    "city_kana": "ハンダシ",
    "town": "十一号地",
    "town_kana": "ジュウイチゴウチ",
    "street": null,
    "office_name": null,
    "office_name_kana": null
  },
  "0832": {
    "postcode": "4750832",
    "prefecture": "愛知県",
    "prefecture_kana": "アイチケン",
    "prefecture_code": 23,
    "city": "半田市",
    "city_kana": "ハンダシ",
    "town": "川崎町",
    "town_kana": "カワサキチョウ",
    "street": null,
    "office_name": null,
    "office_name_kana": null
  },
  "0833": {
    "postcode": "4750833",
    "prefecture": "愛知県",
    "prefecture_kana": "アイチケン",
    "prefecture_code": 23,
    "city": "半田市",
    "city_kana": "ハンダシ",
    "town": "花園町",
    "town_kana": "ハナゾノチョウ",
    "street": null,
    "office_name": null,
    "office_name_kana": null
  },
  "0834": {
    "postcode": "4750834",
    "prefecture": "愛知県",
    "prefecture_kana": "アイチケン",
    "prefecture_code": 23,
    "city": "半田市",
    "city_kana": "ハンダシ",
    "town": "冨士ケ丘",
    "town_kana": "フジガオカ",
    "street": null,
    "office_name": null,
    "office_name_kana": null
  },
  "0835": {
    "postcode": "4750835",
    "prefecture": "愛知県",
    "prefecture_kana": "アイチケン",
    "prefecture_code": 23,
    "city": "半田市",
    "city_kana": "ハンダシ",
    "town": "稲荷町",
    "town_kana": "イナリチョウ",
    "street": null,
    "office_name": null,
    "office_name_kana": null
  },
  "0836": {
    "postcode": "4750836",
    "prefecture": "愛知県",
    "prefecture_kana": "アイチケン",
    "prefecture_code": 23,
    "city": "半田市",
    "city_kana": "ハンダシ",
    "town": "青山",
    "town_kana": "アオヤマ",
    "street": null,
    "office_name": null,
    "office_name_kana": null
  },
  "0837": {
    "postcode": "4750837",
    "prefecture": "愛知県",
    "prefecture_kana": "アイチケン",
    "prefecture_code": 23,
    "city": "半田市",
    "city_kana": "ハンダシ",
    "town": "有楽町",
    "town_kana": "ユウラクチョウ",
    "street": null,
    "office_name": null,
    "office_name_kana": null
  },
  "0838": {
    "postcode": "4750838",
    "prefecture": "愛知県",
    "prefecture_kana": "アイチケン",
    "prefecture_code": 23,
    "city": "半田市",
    "city_kana": "ハンダシ",
    "town": "旭町",
    "town_kana": "アサヒマチ",
    "street": null,
    "office_name": null,
    "office_name_kana": null
  },
  "0841": {
    "postcode": "4750841",
    "prefecture": "愛知県",
    "prefecture_kana": "アイチケン",
    "prefecture_code": 23,
    "city": "半田市",
    "city_kana": "ハンダシ",
    "town": "大和町",
    "town_kana": "ヤマトチョウ",
    "street": null,
    "office_name": null,
    "office_name_kana": null
  },
  "0842": {
    "postcode": "4750842",
    "prefecture": "愛知県",
    "prefecture_kana": "アイチケン",
    "prefecture_code": 23,
    "city": "半田市",
    "city_kana": "ハンダシ",
    "town": "郷中町",
    "town_kana": "ゴウナカチョウ",
    "street": null,
    "office_name": null,
    "office_name_kana": null
  },
  "0843": {
    "postcode": "4750843",
    "prefecture": "愛知県",
    "prefecture_kana": "アイチケン",
    "prefecture_code": 23,
    "city": "半田市",
    "city_kana": "ハンダシ",
    "town": "中島町",
    "town_kana": "ナカシマチョウ",
    "street": null,
    "office_name": null,
    "office_name_kana": null
  },
  "0844": {
    "postcode": "4750844",
    "prefecture": "愛知県",
    "prefecture_kana": "アイチケン",
    "prefecture_code": 23,
    "city": "半田市",
    "city_kana": "ハンダシ",
    "town": "寺町",
    "town_kana": "テラマチ",
    "street": null,
    "office_name": null,
    "office_name_kana": null
  },
  "0845": {
    "postcode": "4750845",
    "prefecture": "愛知県",
    "prefecture_kana": "アイチケン",
    "prefecture_code": 23,
    "city": "半田市",
    "city_kana": "ハンダシ",
    "town": "成岩東町",
    "town_kana": "ナラワヒガシマチ",
    "street": null,
    "office_name": null,
    "office_name_kana": null
  },
  "0846": {
    "postcode": "4750846",
    "prefecture": "愛知県",
    "prefecture_kana": "アイチケン",
    "prefecture_code": 23,
    "city": "半田市",
    "city_kana": "ハンダシ",
    "town": "栄町",
    "town_kana": "サカエマチ",
    "street": null,
    "office_name": null,
    "office_name_kana": null
  },
  "0847": {
    "postcode": "4750847",
    "prefecture": "愛知県",
    "prefecture_kana": "アイチケン",
    "prefecture_code": 23,
    "city": "半田市",
    "city_kana": "ハンダシ",
    "town": "畑合町",
    "town_kana": "ハタアイチョウ",
    "street": null,
    "office_name": null,
    "office_name_kana": null
  },
  "0848": {
    "postcode": "4750848",
    "prefecture": "愛知県",
    "prefecture_kana": "アイチケン",
    "prefecture_code": 23,
    "city": "半田市",
    "city_kana": "ハンダシ",
    "town": "成岩本町",
    "town_kana": "ナラワホンマチ",
    "street": null,
    "office_name": null,
    "office_name_kana": null
  },
  "0851": {
    "postcode": "4750851",
    "prefecture": "愛知県",
    "prefecture_kana": "アイチケン",
    "prefecture_code": 23,
    "city": "半田市",
    "city_kana": "ハンダシ",
    "town": "堀崎町",
    "town_kana": "ホリサキチョウ",
    "street": null,
    "office_name": null,
    "office_name_kana": null
  },
  "0852": {
    "postcode": "4750852",
    "prefecture": "愛知県",
    "prefecture_kana": "アイチケン",
    "prefecture_code": 23,
    "city": "半田市",
    "city_kana": "ハンダシ",
    "town": "北末広町",
    "town_kana": "キタスエヒロチョウ",
    "street": null,
    "office_name": null,
    "office_name_kana": null
  },
  "0853": {
    "postcode": "4750853",
    "prefecture": "愛知県",
    "prefecture_kana": "アイチケン",
    "prefecture_code": 23,
    "city": "半田市",
    "city_kana": "ハンダシ",
    "town": "南末広町",
    "town_kana": "ミナミスエヒロチョウ",
    "street": null,
    "office_name": null,
    "office_name_kana": null
  },
  "0854": {
    "postcode": "4750854",
    "prefecture": "愛知県",
    "prefecture_kana": "アイチケン",
    "prefecture_code": 23,
    "city": "半田市",
    "city_kana": "ハンダシ",
    "town": "協和町",
    "town_kana": "キョウワチョウ",
    "street": null,
    "office_name": null,
    "office_name_kana": null
  },
  "0855": {
    "postcode": "4750855",
    "prefecture": "愛知県",
    "prefecture_kana": "アイチケン",
    "prefecture_code": 23,
    "city": "半田市",
    "city_kana": "ハンダシ",
    "town": "中町",
    "town_kana": "ナカマチ",
    "street": null,
    "office_name": null,
    "office_name_kana": null
  },
  "0856": {
    "postcode": "4750856",
    "prefecture": "愛知県",
    "prefecture_kana": "アイチケン",
    "prefecture_code": 23,
    "city": "半田市",
    "city_kana": "ハンダシ",
    "town": "更生町",
    "town_kana": "コウセイチョウ",
    "street": null,
    "office_name": null,
    "office_name_kana": null
  },
  "0857": {
    "postcode": "4750857",
    "prefecture": "愛知県",
    "prefecture_kana": "アイチケン",
    "prefecture_code": 23,
    "city": "半田市",
    "city_kana": "ハンダシ",
    "town": "広小路町",
    "town_kana": "ヒロコウジチョウ",
    "street": null,
    "office_name": null,
    "office_name_kana": null
  },
  "0858": {
    "postcode": "4750858",
    "prefecture": "愛知県",
    "prefecture_kana": "アイチケン",
    "prefecture_code": 23,
    "city": "半田市",
    "city_kana": "ハンダシ",
    "town": "泉町",
    "town_kana": "イズミマチ",
    "street": null,
    "office_name": null,
    "office_name_kana": null
  },
  "0859": {
    "postcode": "4750859",
    "prefecture": "愛知県",
    "prefecture_kana": "アイチケン",
    "prefecture_code": 23,
    "city": "半田市",
    "city_kana": "ハンダシ",
    "town": "天王町",
    "town_kana": "テンノウチョウ",
    "street": null,
    "office_name": null,
    "office_name_kana": null
  },
  "0861": {
    "postcode": "4750861",
    "prefecture": "愛知県",
    "prefecture_kana": "アイチケン",
    "prefecture_code": 23,
    "city": "半田市",
    "city_kana": "ハンダシ",
    "town": "東新町",
    "town_kana": "ヒガシシンマチ",
    "street": null,
    "office_name": null,
    "office_name_kana": null
  },
  "0862": {
    "postcode": "4750862",
    "prefecture": "愛知県",
    "prefecture_kana": "アイチケン",
    "prefecture_code": 23,
    "city": "半田市",
    "city_kana": "ハンダシ",
    "town": "住吉町",
    "town_kana": "スミヨシチョウ",
    "street": null,
    "office_name": null,
    "office_name_kana": null
  },
  "0863": {
    "postcode": "4750863",
    "prefecture": "愛知県",
    "prefecture_kana": "アイチケン",
    "prefecture_code": 23,
    "city": "半田市",
    "city_kana": "ハンダシ",
    "town": "前崎東町",
    "town_kana": "マエザキヒガシマチ",
    "street": null,
    "office_name": null,
    "office_name_kana": null
  },
  "0864": {
    "postcode": "4750864",
    "prefecture": "愛知県",
    "prefecture_kana": "アイチケン",
    "prefecture_code": 23,
    "city": "半田市",
    "city_kana": "ハンダシ",
    "town": "前崎西町",
    "town_kana": "マエザキニシマチ",
    "street": null,
    "office_name": null,
    "office_name_kana": null
  },
  "0865": {
    "postcode": "4750865",
    "prefecture": "愛知県",
    "prefecture_kana": "アイチケン",
    "prefecture_code": 23,
    "city": "半田市",
    "city_kana": "ハンダシ",
    "town": "清水西町",
    "town_kana": "シミズニシマチ",
    "street": null,
    "office_name": null,
    "office_name_kana": null
  },
  "0866": {
    "postcode": "4750866",
    "prefecture": "愛知県",
    "prefecture_kana": "アイチケン",
    "prefecture_code": 23,
    "city": "半田市",
    "city_kana": "ハンダシ",
    "town": "清水北町",
    "town_kana": "シミズキタマチ",
    "street": null,
    "office_name": null,
    "office_name_kana": null
  },
  "0867": {
    "postcode": "4750867",
    "prefecture": "愛知県",
    "prefecture_kana": "アイチケン",
    "prefecture_code": 23,
    "city": "半田市",
    "city_kana": "ハンダシ",
    "town": "榎下町",
    "town_kana": "エノキシタチョウ",
    "street": null,
    "office_name": null,
    "office_name_kana": null
  },
  "0868": {
    "postcode": "4750868",
    "prefecture": "愛知県",
    "prefecture_kana": "アイチケン",
    "prefecture_code": 23,
    "city": "半田市",
    "city_kana": "ハンダシ",
    "town": "西新町",
    "town_kana": "ニシシンマチ",
    "street": null,
    "office_name": null,
    "office_name_kana": null
  },
  "0869": {
    "postcode": "4750869",
    "prefecture": "愛知県",
    "prefecture_kana": "アイチケン",
    "prefecture_code": 23,
    "city": "半田市",
    "city_kana": "ハンダシ",
    "town": "清水東町",
    "town_kana": "シミズヒガシマチ",
    "street": null,
    "office_name": null,
    "office_name_kana": null
  },
  "0871": {
    "postcode": "4750871",
    "prefecture": "愛知県",
    "prefecture_kana": "アイチケン",
    "prefecture_code": 23,
    "city": "半田市",
    "city_kana": "ハンダシ",
    "town": "本町",
    "town_kana": "ホンマチ",
    "street": null,
    "office_name": null,
    "office_name_kana": null
  },
  "0872": {
    "postcode": "4750872",
    "prefecture": "愛知県",
    "prefecture_kana": "アイチケン",
    "prefecture_code": 23,
    "city": "半田市",
    "city_kana": "ハンダシ",
    "town": "東雲町",
    "town_kana": "シノノメチョウ",
    "street": null,
    "office_name": null,
    "office_name_kana": null
  },
  "0873": {
    "postcode": "4750873",
    "prefecture": "愛知県",
    "prefecture_kana": "アイチケン",
    "prefecture_code": 23,
    "city": "半田市",
    "city_kana": "ハンダシ",
    "town": "中村町",
    "town_kana": "ナカムラチョウ",
    "street": null,
    "office_name": null,
    "office_name_kana": null
  },
  "0874": {
    "postcode": "4750874",
    "prefecture": "愛知県",
    "prefecture_kana": "アイチケン",
    "prefecture_code": 23,
    "city": "半田市",
    "city_kana": "ハンダシ",
    "town": "銀座本町",
    "town_kana": "ギンザホンマチ",
    "street": null,
    "office_name": null,
    "office_name_kana": null
  },
  "0875": {
    "postcode": "4750875",
    "prefecture": "愛知県",
    "prefecture_kana": "アイチケン",
    "prefecture_code": 23,
    "city": "半田市",
    "city_kana": "ハンダシ",
    "town": "山崎町",
    "town_kana": "ヤマザキチョウ",
    "street": null,
    "office_name": null,
    "office_name_kana": null
  },
  "0876": {
    "postcode": "4750876",
    "prefecture": "愛知県",
    "prefecture_kana": "アイチケン",
    "prefecture_code": 23,
    "city": "半田市",
    "city_kana": "ハンダシ",
    "town": "東天王町",
    "town_kana": "ヒガシテンノウチョウ",
    "street": null,
    "office_name": null,
    "office_name_kana": null
  },
  "0877": {
    "postcode": "4750877",
    "prefecture": "愛知県",
    "prefecture_kana": "アイチケン",
    "prefecture_code": 23,
    "city": "半田市",
    "city_kana": "ハンダシ",
    "town": "勘内町",
    "town_kana": "カンナイチョウ",
    "street": null,
    "office_name": null,
    "office_name_kana": null
  },
  "0878": {
    "postcode": "4750878",
    "prefecture": "愛知県",
    "prefecture_kana": "アイチケン",
    "prefecture_code": 23,
    "city": "半田市",
    "city_kana": "ハンダシ",
    "town": "東本町",
    "town_kana": "ヒガシホンマチ",
    "street": null,
    "office_name": null,
    "office_name_kana": null
  },
  "0881": {
    "postcode": "4750881",
    "prefecture": "愛知県",
    "prefecture_kana": "アイチケン",
    "prefecture_code": 23,
    "city": "半田市",
    "city_kana": "ハンダシ",
    "town": "荒古町",
    "town_kana": "アラコチョウ",
    "street": null,
    "office_name": null,
    "office_name_kana": null
  },
  "0882": {
    "postcode": "4750882",
    "prefecture": "愛知県",
    "prefecture_kana": "アイチケン",
    "prefecture_code": 23,
    "city": "半田市",
    "city_kana": "ハンダシ",
    "town": "南本町",
    "town_kana": "ミナミホンマチ",
    "street": null,
    "office_name": null,
    "office_name_kana": null
  },
  "0883": {
    "postcode": "4750883",
    "prefecture": "愛知県",
    "prefecture_kana": "アイチケン",
    "prefecture_code": 23,
    "city": "半田市",
    "city_kana": "ハンダシ",
    "town": "妙見町",
    "town_kana": "ミョウケンチョウ",
    "street": null,
    "office_name": null,
    "office_name_kana": null
  },
  "0884": {
    "postcode": "4750884",
    "prefecture": "愛知県",
    "prefecture_kana": "アイチケン",
    "prefecture_code": 23,
    "city": "半田市",
    "city_kana": "ハンダシ",
    "town": "西端町",
    "town_kana": "ニシバタチョウ",
    "street": null,
    "office_name": null,
    "office_name_kana": null
  },
  "0885": {
    "postcode": "4750885",
    "prefecture": "愛知県",
    "prefecture_kana": "アイチケン",
    "prefecture_code": 23,
    "city": "半田市",
    "city_kana": "ハンダシ",
    "town": "山ノ神町",
    "town_kana": "ヤマノカミチョウ",
    "street": null,
    "office_name": null,
    "office_name_kana": null
  },
  "0886": {
    "postcode": "4750886",
    "prefecture": "愛知県",
    "prefecture_kana": "アイチケン",
    "prefecture_code": 23,
    "city": "半田市",
    "city_kana": "ハンダシ",
    "town": "新川町",
    "town_kana": "シンカワチョウ",
    "street": null,
    "office_name": null,
    "office_name_kana": null
  },
  "0887": {
    "postcode": "4750887",
    "prefecture": "愛知県",
    "prefecture_kana": "アイチケン",
    "prefecture_code": 23,
    "city": "半田市",
    "city_kana": "ハンダシ",
    "town": "御幸町",
    "town_kana": "ミユキマチ",
    "street": null,
    "office_name": null,
    "office_name_kana": null
  },
  "0901": {
    "postcode": "4750901",
    "prefecture": "愛知県",
    "prefecture_kana": "アイチケン",
    "prefecture_code": 23,
    "city": "半田市",
    "city_kana": "ハンダシ",
    "town": "岩滑南浜町",
    "town_kana": "ヤナベミナミハマチョウ",
    "street": null,
    "office_name": null,
    "office_name_kana": null
  },
  "0902": {
    "postcode": "4750902",
    "prefecture": "愛知県",
    "prefecture_kana": "アイチケン",
    "prefecture_code": 23,
    "city": "半田市",
    "city_kana": "ハンダシ",
    "town": "宮路町",
    "town_kana": "ミヤジチョウ",
    "street": null,
    "office_name": null,
    "office_name_kana": null
  },
  "0903": {
    "postcode": "4750903",
    "prefecture": "愛知県",
    "prefecture_kana": "アイチケン",
    "prefecture_code": 23,
    "city": "半田市",
    "city_kana": "ハンダシ",
    "town": "出口町",
    "town_kana": "デグチチョウ",
    "street": null,
    "office_name": null,
    "office_name_kana": null
  },
  "0904": {
    "postcode": "4750904",
    "prefecture": "愛知県",
    "prefecture_kana": "アイチケン",
    "prefecture_code": 23,
    "city": "半田市",
    "city_kana": "ハンダシ",
    "town": "大坪町",
    "town_kana": "オオツボチョウ",
    "street": null,
    "office_name": null,
    "office_name_kana": null
  },
  "0905": {
    "postcode": "4750905",
    "prefecture": "愛知県",
    "prefecture_kana": "アイチケン",
    "prefecture_code": 23,
    "city": "半田市",
    "city_kana": "ハンダシ",
    "town": "岩滑東町",
    "town_kana": "ヤナベヒガシマチ",
    "street": null,
    "office_name": null,
    "office_name_kana": null
  },
  "0906": {
    "postcode": "4750906",
    "prefecture": "愛知県",
    "prefecture_kana": "アイチケン",
    "prefecture_code": 23,
    "city": "半田市",
    "city_kana": "ハンダシ",
    "town": "岩滑北浜町",
    "town_kana": "ヤナベキタハマチョウ",
    "street": null,
    "office_name": null,
    "office_name_kana": null
  },
  "0911": {
    "postcode": "4750911",
    "prefecture": "愛知県",
    "prefecture_kana": "アイチケン",
    "prefecture_code": 23,
    "city": "半田市",
    "city_kana": "ハンダシ",
    "town": "星崎町",
    "town_kana": "ホシザキチョウ",
    "street": null,
    "office_name": null,
    "office_name_kana": null
  },
  "0912": {
    "postcode": "4750912",
    "prefecture": "愛知県",
    "prefecture_kana": "アイチケン",
    "prefecture_code": 23,
    "city": "半田市",
    "city_kana": "ハンダシ",
    "town": "白山町",
    "town_kana": "ハクサンチョウ",
    "street": null,
    "office_name": null,
    "office_name_kana": null
  },
  "0914": {
    "postcode": "4750914",
    "prefecture": "愛知県",
    "prefecture_kana": "アイチケン",
    "prefecture_code": 23,
    "city": "半田市",
    "city_kana": "ハンダシ",
    "town": "土井山町",
    "town_kana": "ドイヤマチョウ",
    "street": null,
    "office_name": null,
    "office_name_kana": null
  },
  "0915": {
    "postcode": "4750915",
    "prefecture": "愛知県",
    "prefecture_kana": "アイチケン",
    "prefecture_code": 23,
    "city": "半田市",
    "city_kana": "ハンダシ",
    "town": "枝山町",
    "town_kana": "エダヤマチョウ",
    "street": null,
    "office_name": null,
    "office_name_kana": null
  },
  "0916": {
    "postcode": "4750916",
    "prefecture": "愛知県",
    "prefecture_kana": "アイチケン",
    "prefecture_code": 23,
    "city": "半田市",
    "city_kana": "ハンダシ",
    "town": "柊町",
    "town_kana": "ヒイラギチョウ",
    "street": null,
    "office_name": null,
    "office_name_kana": null
  },
  "0917": {
    "postcode": "4750917",
    "prefecture": "愛知県",
    "prefecture_kana": "アイチケン",
    "prefecture_code": 23,
    "city": "半田市",
    "city_kana": "ハンダシ",
    "town": "清城町",
    "town_kana": "セイシロチョウ",
    "street": null,
    "office_name": null,
    "office_name_kana": null
  },
  "0918": {
    "postcode": "4750918",
    "prefecture": "愛知県",
    "prefecture_kana": "アイチケン",
    "prefecture_code": 23,
    "city": "半田市",
    "city_kana": "ハンダシ",
    "town": "雁宿町",
    "town_kana": "カリヤドチョウ",
    "street": null,
    "office_name": null,
    "office_name_kana": null
  },
  "0921": {
    "postcode": "4750921",
    "prefecture": "愛知県",
    "prefecture_kana": "アイチケン",
    "prefecture_code": 23,
    "city": "半田市",
    "city_kana": "ハンダシ",
    "town": "天神町",
    "town_kana": "テンジンチョウ",
    "street": null,
    "office_name": null,
    "office_name_kana": null
  },
  "0922": {
    "postcode": "4750922",
    "prefecture": "愛知県",
    "prefecture_kana": "アイチケン",
    "prefecture_code": 23,
    "city": "半田市",
    "city_kana": "ハンダシ",
    "town": "昭和町",
    "town_kana": "ショウワチョウ",
    "street": null,
    "office_name": null,
    "office_name_kana": null
  },
  "0923": {
    "postcode": "4750923",
    "prefecture": "愛知県",
    "prefecture_kana": "アイチケン",
    "prefecture_code": 23,
    "city": "半田市",
    "city_kana": "ハンダシ",
    "town": "春日町",
    "town_kana": "カスガチョウ",
    "street": null,
    "office_name": null,
    "office_name_kana": null
  },
  "0924": {
    "postcode": "4750924",
    "prefecture": "愛知県",
    "prefecture_kana": "アイチケン",
    "prefecture_code": 23,
    "city": "半田市",
    "city_kana": "ハンダシ",
    "town": "東郷町",
    "town_kana": "トウゴウチョウ",
    "street": null,
    "office_name": null,
    "office_name_kana": null
  },
  "0925": {
    "postcode": "4750925",
    "prefecture": "愛知県",
    "prefecture_kana": "アイチケン",
    "prefecture_code": 23,
    "city": "半田市",
    "city_kana": "ハンダシ",
    "town": "宮本町",
    "town_kana": "ミヤモトチョウ",
    "street": null,
    "office_name": null,
    "office_name_kana": null
  },
  "0926": {
    "postcode": "4750926",
    "prefecture": "愛知県",
    "prefecture_kana": "アイチケン",
    "prefecture_code": 23,
    "city": "半田市",
    "city_kana": "ハンダシ",
    "town": "南二ツ坂町",
    "town_kana": "ミナミフタツザカチョウ",
    "street": null,
    "office_name": null,
    "office_name_kana": null
  },
  "0927": {
    "postcode": "4750927",
    "prefecture": "愛知県",
    "prefecture_kana": "アイチケン",
    "prefecture_code": 23,
    "city": "半田市",
    "city_kana": "ハンダシ",
    "town": "北二ツ坂町",
    "town_kana": "キタフタツサカチョウ",
    "street": null,
    "office_name": null,
    "office_name_kana": null
  },
  "0928": {
    "postcode": "4750928",
    "prefecture": "愛知県",
    "prefecture_kana": "アイチケン",
    "prefecture_code": 23,
    "city": "半田市",
    "city_kana": "ハンダシ",
    "town": "桐ケ丘",
    "town_kana": "キリガオカ",
    "street": null,
    "office_name": null,
    "office_name_kana": null
  },
  "0929": {
    "postcode": "4750929",
    "prefecture": "愛知県",
    "prefecture_kana": "アイチケン",
    "prefecture_code": 23,
    "city": "半田市",
    "city_kana": "ハンダシ",
    "town": "仲田町",
    "town_kana": "ナカタチョウ",
    "street": null,
    "office_name": null,
    "office_name_kana": null
  },
  "0931": {
    "postcode": "4750931",
    "prefecture": "愛知県",
    "prefecture_kana": "アイチケン",
    "prefecture_code": 23,
    "city": "半田市",
    "city_kana": "ハンダシ",
    "town": "新宮町",
    "town_kana": "シングウチョウ",
    "street": null,
    "office_name": null,
    "office_name_kana": null
  },
  "0932": {
    "postcode": "4750932",
    "prefecture": "愛知県",
    "prefecture_kana": "アイチケン",
    "prefecture_code": 23,
    "city": "半田市",
    "city_kana": "ハンダシ",
    "town": "鴉根町",
    "town_kana": "カラスネチョウ",
    "street": null,
    "office_name": null,
    "office_name_kana": null
  },
  "0933": {
    "postcode": "4750933",
    "prefecture": "愛知県",
    "prefecture_kana": "アイチケン",
    "prefecture_code": 23,
    "city": "半田市",
    "city_kana": "ハンダシ",
    "town": "新野町",
    "town_kana": "ニイノチョウ",
    "street": null,
    "office_name": null,
    "office_name_kana": null
  },
  "0934": {
    "postcode": "4750934",
    "prefecture": "愛知県",
    "prefecture_kana": "アイチケン",
    "prefecture_code": 23,
    "city": "半田市",
    "city_kana": "ハンダシ",
    "town": "椎ノ木町",
    "town_kana": "シイノキチョウ",
    "street": null,
    "office_name": null,
    "office_name_kana": null
  },
  "0935": {
    "postcode": "4750935",
    "prefecture": "愛知県",
    "prefecture_kana": "アイチケン",
    "prefecture_code": 23,
    "city": "半田市",
    "city_kana": "ハンダシ",
    "town": "大湯町",
    "town_kana": "オオユチョウ",
    "street": null,
    "office_name": null,
    "office_name_kana": null
  },
  "0936": {
    "postcode": "4750936",
    "prefecture": "愛知県",
    "prefecture_kana": "アイチケン",
    "prefecture_code": 23,
    "city": "半田市",
    "city_kana": "ハンダシ",
    "town": "板山町",
    "town_kana": "イタヤマチョウ",
    "street": null,
    "office_name": null,
    "office_name_kana": null
  },
  "0937": {
    "postcode": "4750937",
    "prefecture": "愛知県",
    "prefecture_kana": "アイチケン",
    "prefecture_code": 23,
    "city": "半田市",
    "city_kana": "ハンダシ",
    "town": "神田町",
    "town_kana": "カンダチョウ",
    "street": null,
    "office_name": null,
    "office_name_kana": null
  },
  "0938": {
    "postcode": "4750938",
    "prefecture": "愛知県",
    "prefecture_kana": "アイチケン",
    "prefecture_code": 23,
    "city": "半田市",
    "city_kana": "ハンダシ",
    "town": "君ケ橋町",
    "town_kana": "キミガハシチョウ",
    "street": null,
    "office_name": null,
    "office_name_kana": null
  },
  "0939": {
    "postcode": "4750939",
    "prefecture": "愛知県",
    "prefecture_kana": "アイチケン",
    "prefecture_code": 23,
    "city": "半田市",
    "city_kana": "ハンダシ",
    "town": "四方木町",
    "town_kana": "ヨモギチョウ",
    "street": null,
    "office_name": null,
    "office_name_kana": null
  },
  "0941": {
    "postcode": "4750941",
    "prefecture": "愛知県",
    "prefecture_kana": "アイチケン",
    "prefecture_code": 23,
    "city": "半田市",
    "city_kana": "ハンダシ",
    "town": "滑楚町",
    "town_kana": "ナメソチョウ",
    "street": null,
    "office_name": null,
    "office_name_kana": null
  },
  "0942": {
    "postcode": "4750942",
    "prefecture": "愛知県",
    "prefecture_kana": "アイチケン",
    "prefecture_code": 23,
    "city": "半田市",
    "city_kana": "ハンダシ",
    "town": "松堀町",
    "town_kana": "マツボリチョウ",
    "street": null,
    "office_name": null,
    "office_name_kana": null
  },
  "0943": {
    "postcode": "4750943",
    "prefecture": "愛知県",
    "prefecture_kana": "アイチケン",
    "prefecture_code": 23,
    "city": "半田市",
    "city_kana": "ハンダシ",
    "town": "高峯町",
    "town_kana": "タカミネチョウ",
    "street": null,
    "office_name": null,
    "office_name_kana": null
  },
  "0944": {
    "postcode": "4750944",
    "prefecture": "愛知県",
    "prefecture_kana": "アイチケン",
    "prefecture_code": 23,
    "city": "半田市",
    "city_kana": "ハンダシ",
    "town": "神代町",
    "town_kana": "カミシロチョウ",
    "street": null,
    "office_name": null,
    "office_name_kana": null
  },
  "0945": {
    "postcode": "4750945",
    "prefecture": "愛知県",
    "prefecture_kana": "アイチケン",
    "prefecture_code": 23,
    "city": "半田市",
    "city_kana": "ハンダシ",
    "town": "池田町",
    "town_kana": "イケダチョウ",
    "street": null,
    "office_name": null,
    "office_name_kana": null
  },
  "0946": {
    "postcode": "4750946",
    "prefecture": "愛知県",
    "prefecture_kana": "アイチケン",
    "prefecture_code": 23,
    "city": "半田市",
    "city_kana": "ハンダシ",
    "town": "横山町",
    "town_kana": "ヨコヤマチョウ",
    "street": null,
    "office_name": null,
    "office_name_kana": null
  },
  "0947": {
    "postcode": "4750947",
    "prefecture": "愛知県",
    "prefecture_kana": "アイチケン",
    "prefecture_code": 23,
    "city": "半田市",
    "city_kana": "ハンダシ",
    "town": "砂谷町",
    "town_kana": "スナダニチョウ",
    "street": null,
    "office_name": null,
    "office_name_kana": null
  },
  "0948": {
    "postcode": "4750948",
    "prefecture": "愛知県",
    "prefecture_kana": "アイチケン",
    "prefecture_code": 23,
    "city": "半田市",
    "city_kana": "ハンダシ",
    "town": "田代町",
    "town_kana": "タシロチョウ",
    "street": null,
    "office_name": null,
    "office_name_kana": null
  },
  "0951": {
    "postcode": "4750951",
    "prefecture": "愛知県",
    "prefecture_kana": "アイチケン",
    "prefecture_code": 23,
    "city": "半田市",
    "city_kana": "ハンダシ",
    "town": "宝来町",
    "town_kana": "ホウライチョウ",
    "street": null,
    "office_name": null,
    "office_name_kana": null
  },
  "0952": {
    "postcode": "4750952",
    "prefecture": "愛知県",
    "prefecture_kana": "アイチケン",
    "prefecture_code": 23,
    "city": "半田市",
    "city_kana": "ハンダシ",
    "town": "馬捨町",
    "town_kana": "ウマステチョウ",
    "street": null,
    "office_name": null,
    "office_name_kana": null
  },
  "0953": {
    "postcode": "4750953",
    "prefecture": "愛知県",
    "prefecture_kana": "アイチケン",
    "prefecture_code": 23,
    "city": "半田市",
    "city_kana": "ハンダシ",
    "town": "金山町",
    "town_kana": "カナヤマチョウ",
    "street": null,
    "office_name": null,
    "office_name_kana": null
  },
  "0954": {
    "postcode": "4750954",
    "prefecture": "愛知県",
    "prefecture_kana": "アイチケン",
    "prefecture_code": 23,
    "city": "半田市",
    "city_kana": "ハンダシ",
    "town": "十三塚町",
    "town_kana": "ジュウサンヅカチョウ",
    "street": null,
    "office_name": null,
    "office_name_kana": null
  },
  "0955": {
    "postcode": "4750955",
    "prefecture": "愛知県",
    "prefecture_kana": "アイチケン",
    "prefecture_code": 23,
    "city": "半田市",
    "city_kana": "ハンダシ",
    "town": "行人町",
    "town_kana": "ギョウニンチョウ",
    "street": null,
    "office_name": null,
    "office_name_kana": null
  },
  "0956": {
    "postcode": "4750956",
    "prefecture": "愛知県",
    "prefecture_kana": "アイチケン",
    "prefecture_code": 23,
    "city": "半田市",
    "city_kana": "ハンダシ",
    "town": "三ツ池町",
    "town_kana": "ミツイケチョウ",
    "street": null,
    "office_name": null,
    "office_name_kana": null
  },
  "0957": {
    "postcode": "4750957",
    "prefecture": "愛知県",
    "prefecture_kana": "アイチケン",
    "prefecture_code": 23,
    "city": "半田市",
    "city_kana": "ハンダシ",
    "town": "奥町",
    "town_kana": "オクマチ",
    "street": null,
    "office_name": null,
    "office_name_kana": null
  },
  "0958": {
    "postcode": "4750958",
    "prefecture": "愛知県",
    "prefecture_kana": "アイチケン",
    "prefecture_code": 23,
    "city": "半田市",
    "city_kana": "ハンダシ",
    "town": "鵜ノ池町",
    "town_kana": "ウノイケチョウ",
    "street": null,
    "office_name": null,
    "office_name_kana": null
  },
  "0959": {
    "postcode": "4750959",
    "prefecture": "愛知県",
    "prefecture_kana": "アイチケン",
    "prefecture_code": 23,
    "city": "半田市",
    "city_kana": "ハンダシ",
    "town": "桃山町",
    "town_kana": "モモヤマチョウ",
    "street": null,
    "office_name": null,
    "office_name_kana": null
  },
  "0961": {
    "postcode": "4750961",
    "prefecture": "愛知県",
    "prefecture_kana": "アイチケン",
    "prefecture_code": 23,
    "city": "半田市",
    "city_kana": "ハンダシ",
    "town": "岩滑中町",
    "town_kana": "ヤナベナカマチ",
    "street": null,
    "office_name": null,
    "office_name_kana": null
  },
  "0962": {
    "postcode": "4750962",
    "prefecture": "愛知県",
    "prefecture_kana": "アイチケン",
    "prefecture_code": 23,
    "city": "半田市",
    "city_kana": "ハンダシ",
    "town": "岩滑高山町",
    "town_kana": "ヤナベタカヤマチョウ",
    "street": null,
    "office_name": null,
    "office_name_kana": null
  },
  "0963": {
    "postcode": "4750963",
    "prefecture": "愛知県",
    "prefecture_kana": "アイチケン",
    "prefecture_code": 23,
    "city": "半田市",
    "city_kana": "ハンダシ",
    "town": "平和町",
    "town_kana": "ヘイワチョウ",
    "street": null,
    "office_name": null,
    "office_name_kana": null
  },
  "0964": {
    "postcode": "4750964",
    "prefecture": "愛知県",
    "prefecture_kana": "アイチケン",
    "prefecture_code": 23,
    "city": "半田市",
    "city_kana": "ハンダシ",
    "town": "平井町",
    "town_kana": "ヒライチョウ",
    "street": null,
    "office_name": null,
    "office_name_kana": null
  },
  "0965": {
    "postcode": "4750965",
    "prefecture": "愛知県",
    "prefecture_kana": "アイチケン",
    "prefecture_code": 23,
    "city": "半田市",
    "city_kana": "ハンダシ",
    "town": "新生町",
    "town_kana": "シンセイチョウ",
    "street": null,
    "office_name": null,
    "office_name_kana": null
  },
  "0966": {
    "postcode": "4750966",
    "prefecture": "愛知県",
    "prefecture_kana": "アイチケン",
    "prefecture_code": 23,
    "city": "半田市",
    "city_kana": "ハンダシ",
    "town": "岩滑西町",
    "town_kana": "ヤナベニシマチ",
    "street": null,
    "office_name": null,
    "office_name_kana": null
  },
  "0967": {
    "postcode": "4750967",
    "prefecture": "愛知県",
    "prefecture_kana": "アイチケン",
    "prefecture_code": 23,
    "city": "半田市",
    "city_kana": "ハンダシ",
    "town": "欠ケ下町",
    "town_kana": "カケガシタチョウ",
    "street": null,
    "office_name": null,
    "office_name_kana": null
  },
  "0968": {
    "postcode": "4750968",
    "prefecture": "愛知県",
    "prefecture_kana": "アイチケン",
    "prefecture_code": 23,
    "city": "半田市",
    "city_kana": "ハンダシ",
    "town": "丁田町",
    "town_kana": "チョウダチョウ",
    "street": null,
    "office_name": null,
    "office_name_kana": null
  },
  "0971": {
    "postcode": "4750971",
    "prefecture": "愛知県",
    "prefecture_kana": "アイチケン",
    "prefecture_code": 23,
    "city": "半田市",
    "city_kana": "ハンダシ",
    "town": "深谷町",
    "town_kana": "フカダニチョウ",
    "street": null,
    "office_name": null,
    "office_name_kana": null
  },
  "0972": {
    "postcode": "4750972",
    "prefecture": "愛知県",
    "prefecture_kana": "アイチケン",
    "prefecture_code": 23,
    "city": "半田市",
    "city_kana": "ハンダシ",
    "town": "北滑草町",
    "town_kana": "キタナメソウチョウ",
    "street": null,
    "office_name": null,
    "office_name_kana": null
  },
  "0973": {
    "postcode": "4750973",
    "prefecture": "愛知県",
    "prefecture_kana": "アイチケン",
    "prefecture_code": 23,
    "city": "半田市",
    "city_kana": "ハンダシ",
    "town": "葭谷町",
    "town_kana": "ヨシダニチョウ",
    "street": null,
    "office_name": null,
    "office_name_kana": null
  },
  "0974": {
    "postcode": "4750974",
    "prefecture": "愛知県",
    "prefecture_kana": "アイチケン",
    "prefecture_code": 23,
    "city": "半田市",
    "city_kana": "ハンダシ",
    "town": "山代町",
    "town_kana": "ヤマシロチョウ",
    "street": null,
    "office_name": null,
    "office_name_kana": null
  },
  "0975": {
    "postcode": "4750975",
    "prefecture": "愛知県",
    "prefecture_kana": "アイチケン",
    "prefecture_code": 23,
    "city": "半田市",
    "city_kana": "ハンダシ",
    "town": "彦洲町",
    "town_kana": "ヒコズチョウ",
    "street": null,
    "office_name": null,
    "office_name_kana": null
  },
  "0976": {
    "postcode": "4750976",
    "prefecture": "愛知県",
    "prefecture_kana": "アイチケン",
    "prefecture_code": 23,
    "city": "半田市",
    "city_kana": "ハンダシ",
    "town": "黒石町",
    "town_kana": "クロイシチョウ",
    "street": null,
    "office_name": null,
    "office_name_kana": null
  },
  "0977": {
    "postcode": "4750977",
    "prefecture": "愛知県",
    "prefecture_kana": "アイチケン",
    "prefecture_code": 23,
    "city": "半田市",
    "city_kana": "ハンダシ",
    "town": "吉田町",
    "town_kana": "キッタチョウ",
    "street": null,
    "office_name": null,
    "office_name_kana": null
  },
  "0978": {
    "postcode": "4750978",
    "prefecture": "愛知県",
    "prefecture_kana": "アイチケン",
    "prefecture_code": 23,
    "city": "半田市",
    "city_kana": "ハンダシ",
    "town": "福地町",
    "town_kana": "フクチチョウ",
    "street": null,
    "office_name": null,
    "office_name_kana": null
  },
  "8501": {
    "postcode": "4758501",
    "prefecture": "愛知県",
    "prefecture_kana": "アイチケン",
    "prefecture_code": 23,
    "city": "半田市",
    "city_kana": "ハンダシ",
    "town": "出口町",
    "town_kana": "デグチチョウ",
    "street": "１丁目３６番地",
    "office_name": "愛知県知多県民センター",
    "office_name_kana": "アイチケンチタケンミンセンタ-"
  },
  "8502": {
    "postcode": "4758502",
    "prefecture": "愛知県",
    "prefecture_kana": "アイチケン",
    "prefecture_code": 23,
    "city": "半田市",
    "city_kana": "ハンダシ",
    "town": "宮路町",
    "town_kana": "ミヤジチョウ",
    "street": "２００−４",
    "office_name": "半田公共職業安定所",
    "office_name_kana": "ハンダコウキヨウシヨクギヨウアンテイシヨ"
  },
  "8505": {
    "postcode": "4758505",
    "prefecture": "愛知県",
    "prefecture_kana": "アイチケン",
    "prefecture_code": 23,
    "city": "半田市",
    "city_kana": "ハンダシ",
    "town": "出口町",
    "town_kana": "デグチチョウ",
    "street": "一丁目３６番地",
    "office_name": "愛知県知多県税事務所",
    "office_name_kana": "アイチケンチタケンゼイジムシヨ"
  },
  "8510": {
    "postcode": "4758510",
    "prefecture": "愛知県",
    "prefecture_kana": "アイチケン",
    "prefecture_code": 23,
    "city": "半田市",
    "city_kana": "ハンダシ",
    "town": "乙川吉野町",
    "town_kana": "オツカワヨシノチョウ",
    "street": "３８",
    "office_name": "山田紡績　株式会社",
    "office_name_kana": "ヤマダボウセキ カブシキガイシヤ"
  },
  "8511": {
    "postcode": "4758511",
    "prefecture": "愛知県",
    "prefecture_kana": "アイチケン",
    "prefecture_code": 23,
    "city": "半田市",
    "city_kana": "ハンダシ",
    "town": "神田町",
    "town_kana": "カンダチョウ",
    "street": "１丁目１",
    "office_name": "社団法人　半田市医師会健康管理センター",
    "office_name_kana": "シヤダンホウジン ハンダシイシカイケンコウカンリセンタ-"
  },
  "8522": {
    "postcode": "4758522",
    "prefecture": "愛知県",
    "prefecture_kana": "アイチケン",
    "prefecture_code": 23,
    "city": "半田市",
    "city_kana": "ハンダシ",
    "town": "雁宿町",
    "town_kana": "カリヤドチョウ",
    "street": "１丁目５４−８",
    "office_name": "社団法人　半田市医師会健康管理センター",
    "office_name_kana": "シヤダンホウジン ハンダシイシカイケンコウカンリセンタ-"
  },
  "8528": {
    "postcode": "4758528",
    "prefecture": "愛知県",
    "prefecture_kana": "アイチケン",
    "prefecture_code": 23,
    "city": "半田市",
    "city_kana": "ハンダシ",
    "town": "州の崎町",
    "town_kana": "スノサキチョウ",
    "street": "２−１２",
    "office_name": "株式会社　鶴弥",
    "office_name_kana": "カブシキガイシヤ ツルヤ"
  },
  "8541": {
    "postcode": "4758541",
    "prefecture": "愛知県",
    "prefecture_kana": "アイチケン",
    "prefecture_code": 23,
    "city": "半田市",
    "city_kana": "ハンダシ",
    "town": "亀崎北浦町",
    "town_kana": "カメザキキタウラチョウ",
    "street": "２丁目１５−１",
    "office_name": "株式会社　中京医薬品",
    "office_name_kana": "カブシキガイシヤ チユウキヨウイヤクヒン"
  },
  "8550": {
    "postcode": "4758550",
    "prefecture": "愛知県",
    "prefecture_kana": "アイチケン",
    "prefecture_code": 23,
    "city": "半田市",
    "city_kana": "ハンダシ",
    "town": "中午町",
    "town_kana": "ナカウマチョウ",
    "street": "１７８",
    "office_name": "ツカサ工業　株式会社",
    "office_name_kana": "ツカサコウギヨウ カブシキガイシヤ"
  },
  "8555": {
    "postcode": "4758555",
    "prefecture": "愛知県",
    "prefecture_kana": "アイチケン",
    "prefecture_code": 23,
    "city": "半田市",
    "city_kana": "ハンダシ",
    "town": "出口町",
    "town_kana": "デグチチョウ",
    "street": "１丁目４５−１１",
    "office_name": "半田法人会",
    "office_name_kana": "ハンダホウジンカイ"
  },
  "8557": {
    "postcode": "4758557",
    "prefecture": "愛知県",
    "prefecture_kana": "アイチケン",
    "prefecture_code": 23,
    "city": "半田市",
    "city_kana": "ハンダシ",
    "town": "栄町",
    "town_kana": "サカエマチ",
    "street": "３丁目１３",
    "office_name": "株式会社　イシハラフード",
    "office_name_kana": "カブシキガイシヤ イシハラフ-ド"
  },
  "8560": {
    "postcode": "4758560",
    "prefecture": "愛知県",
    "prefecture_kana": "アイチケン",
    "prefecture_code": 23,
    "city": "半田市",
    "city_kana": "ハンダシ",
    "town": "宮路町",
    "town_kana": "ミヤジチョウ",
    "street": "２００−４",
    "office_name": "半田労働基準監督署",
    "office_name_kana": "ハンダロウドウキジユンカントクシヨ"
  },
  "8574": {
    "postcode": "4758574",
    "prefecture": "愛知県",
    "prefecture_kana": "アイチケン",
    "prefecture_code": 23,
    "city": "半田市",
    "city_kana": "ハンダシ",
    "town": "花園町",
    "town_kana": "ハナゾノチョウ",
    "street": "６丁目２８−１０",
    "office_name": "加藤電機　株式会社",
    "office_name_kana": "カトウデンキ カブシキガイシヤ"
  },
  "8585": {
    "postcode": "4758585",
    "prefecture": "愛知県",
    "prefecture_kana": "アイチケン",
    "prefecture_code": 23,
    "city": "半田市",
    "city_kana": "ハンダシ",
    "town": "中村町",
    "town_kana": "ナカムラチョウ",
    "street": "２丁目６",
    "office_name": "株式会社　中埜酢店",
    "office_name_kana": "カブシキガイシヤ ナカノスミセ"
  },
  "8588": {
    "postcode": "4758588",
    "prefecture": "愛知県",
    "prefecture_kana": "アイチケン",
    "prefecture_code": 23,
    "city": "半田市",
    "city_kana": "ハンダシ",
    "town": "広小路町",
    "town_kana": "ヒロコウジチョウ",
    "street": "９０",
    "office_name": "三菱東京ＵＦＪ銀行　半田支店",
    "office_name_kana": "ミツビシトウキヨウユ-エフジエイギンコウ ハンダシテン"
  },
  "8599": {
    "postcode": "4758599",
    "prefecture": "愛知県",
    "prefecture_kana": "アイチケン",
    "prefecture_code": 23,
    "city": "半田市",
    "city_kana": "ハンダシ",
    "town": "東洋町",
    "town_kana": "トウヨウチョウ",
    "street": "２丁目２９",
    "office_name": "半田市立半田病院",
    "office_name_kana": "ハンダシリツハンダビヨウイン"
  },
  "8601": {
    "postcode": "4758601",
    "prefecture": "愛知県",
    "prefecture_kana": "アイチケン",
    "prefecture_code": 23,
    "city": "半田市",
    "city_kana": "ハンダシ",
    "town": "西新町",
    "town_kana": "ニシシンマチ",
    "street": "１番地の１（半田郵便局私書箱第１号）",
    "office_name": "半田社会保険事務所",
    "office_name_kana": "ハンダシヤカイホケンジムシヨ"
  },
  "8611": {
    "postcode": "4758611",
    "prefecture": "愛知県",
    "prefecture_kana": "アイチケン",
    "prefecture_code": 23,
    "city": "半田市",
    "city_kana": "ハンダシ",
    "town": "川崎町",
    "town_kana": "カワサキチョウ",
    "street": "１丁目１（半田郵便局私書箱第１１号）",
    "office_name": "ＪＦＥスチール　株式会社",
    "office_name_kana": "ジエイエフイ-スチ-ル カブシキガイシヤ"
  },
  "8655": {
    "postcode": "4758655",
    "prefecture": "愛知県",
    "prefecture_kana": "アイチケン",
    "prefecture_code": 23,
    "city": "半田市",
    "city_kana": "ハンダシ",
    "town": "御幸町",
    "town_kana": "ミユキマチ",
    "street": "８（半田郵便局私書箱第２６号）",
    "office_name": "半田信用金庫",
    "office_name_kana": "ハンダシンヨウキンコ"
  },
  "8666": {
    "postcode": "4758666",
    "prefecture": "愛知県",
    "prefecture_kana": "アイチケン",
    "prefecture_code": 23,
    "city": "半田市",
    "city_kana": "ハンダシ",
    "town": "東洋町",
    "town_kana": "トウヨウチョウ",
    "street": "２丁目１（半田郵便局私書箱第１９号）",
    "office_name": "半田市役所",
    "office_name_kana": "ハンダシヤクシヨ"
  },
  "8668": {
    "postcode": "4758668",
    "prefecture": "愛知県",
    "prefecture_kana": "アイチケン",
    "prefecture_code": 23,
    "city": "半田市",
    "city_kana": "ハンダシ",
    "town": "上浜町",
    "town_kana": "カミハマチョウ",
    "street": "１０２（半田郵便局私書箱第８号）",
    "office_name": "輸送機工業　株式会社",
    "office_name_kana": "ユソウキコウギヨウ カブシキガイシヤ"
  },
  "8686": {
    "postcode": "4758686",
    "prefecture": "愛知県",
    "prefecture_kana": "アイチケン",
    "prefecture_code": 23,
    "city": "半田市",
    "city_kana": "ハンダシ",
    "town": "宮路町",
    "town_kana": "ミヤジチョウ",
    "street": "５０−５（半田郵便局私書箱第９号）",
    "office_name": "半田税務署",
    "office_name_kana": "ハンダゼイムシヨ"
  }
}