{
  "0000": {
    "postcode": "4760000",
    "prefecture": "愛知県",
    "prefecture_kana": "アイチケン",
    "prefecture_code": 23,
    "city": "東海市",
    "city_kana": "トウカイシ",
    "town": "",
    "town_kana": "",
    "street": null,
    "office_name": null,
    "office_name_kana": null
  },
  "0001": {
    "postcode": "4760001",
    "prefecture": "愛知県",
    "prefecture_kana": "アイチケン",
    "prefecture_code": 23,
    "city": "東海市",
    "city_kana": "トウカイシ",
    "town": "南柴田町",
    "town_kana": "ミナミシバタマチ",
    "street": null,
    "office_name": null,
    "office_name_kana": null
  },
  "0002": {
    "postcode": "4760002",
    "prefecture": "愛知県",
    "prefecture_kana": "アイチケン",
    "prefecture_code": 23,
    "city": "東海市",
    "city_kana": "トウカイシ",
    "town": "名和町",
    "town_kana": "ナワマチ",
    "street": null,
    "office_name": null,
    "office_name_kana": null
  },
  "0003": {
    "postcode": "4760003",
    "prefecture": "愛知県",
    "prefecture_kana": "アイチケン",
    "prefecture_code": 23,
    "city": "東海市",
    "city_kana": "トウカイシ",
    "town": "荒尾町",
    "town_kana": "アラオマチ",
    "street": null,
    "office_name": null,
    "office_name_kana": null
  },
  "0004": {
    "postcode": "4760004",
    "prefecture": "愛知県",
    "prefecture_kana": "アイチケン",
    "prefecture_code": 23,
    "city": "東海市",
    "city_kana": "トウカイシ",
    "town": "荒尾町水深",
    "town_kana": "アラオマチミズブカ",
    "street": null,
    "office_name": null,
    "office_name_kana": null
  },
  "0005": {
    "postcode": "4760005",
    "prefecture": "愛知県",
    "prefecture_kana": "アイチケン",
    "prefecture_code": 23,
    "city": "東海市",
    "city_kana": "トウカイシ",
    "town": "新宝町",
    "town_kana": "シンポウマチ",
    "street": null,
    "office_name": null,
    "office_name_kana": null
  },
  "0006": {
    "postcode": "4760006",
    "prefecture": "愛知県",
    "prefecture_kana": "アイチケン",
    "prefecture_code": 23,
    "city": "東海市",
    "city_kana": "トウカイシ",
    "town": "浅山",
    "town_kana": "アサヤマ",
    "street": null,
    "office_name": null,
    "office_name_kana": null
  },
  "0011": {
    "postcode": "4760011",
    "prefecture": "愛知県",
    "prefecture_kana": "アイチケン",
    "prefecture_code": 23,
    "city": "東海市",
    "city_kana": "トウカイシ",
    "town": "富木島町",
    "town_kana": "フキシママチ",
    "street": null,
    "office_name": null,
    "office_name_kana": null
  },
  "0012": {
    "postcode": "4760012",
    "prefecture": "愛知県",
    "prefecture_kana": "アイチケン",
    "prefecture_code": 23,
    "city": "東海市",
    "city_kana": "トウカイシ",
    "town": "富木島町伏見",
    "town_kana": "フキシママチフシミ",
    "street": null,
    "office_name": null,
    "office_name_kana": null
  },
  "0013": {
    "postcode": "4760013",
    "prefecture": "愛知県",
    "prefecture_kana": "アイチケン",
    "prefecture_code": 23,
    "city": "東海市",
    "city_kana": "トウカイシ",
    "town": "中央町",
    "town_kana": "チュウオウマチ",
    "street": null,
    "office_name": null,
    "office_name_kana": null
  },
  "0014": {
    "postcode": "4760014",
    "prefecture": "愛知県",
    "prefecture_kana": "アイチケン",
    "prefecture_code": 23,
    "city": "東海市",
    "city_kana": "トウカイシ",
    "town": "富貴ノ台",
    "town_kana": "フキノダイ",
    "street": null,
    "office_name": null,
    "office_name_kana": null
  },
  "0015": {
    "postcode": "4760015",
    "prefecture": "愛知県",
    "prefecture_kana": "アイチケン",
    "prefecture_code": 23,
    "city": "東海市",
    "city_kana": "トウカイシ",
    "town": "東海町",
    "town_kana": "トウカイマチ",
    "street": null,
    "office_name": null,
    "office_name_kana": null
  },
  "8501": {
    "postcode": "4768501",
    "prefecture": "愛知県",
    "prefecture_kana": "アイチケン",
    "prefecture_code": 23,
    "city": "東海市",
    "city_kana": "トウカイシ",
    "town": "新宝町",
    "town_kana": "シンポウマチ",
    "street": "５０７−２",
    "office_name": "東邦ガス　株式会社　総合技術研究所",
    "office_name_kana": "トウホウガス カブシキガイシヤ ソウゴウギジユツケンキユウジヨ"
  },
  "8503": {
    "postcode": "4768503",
    "prefecture": "愛知県",
    "prefecture_kana": "アイチケン",
    "prefecture_code": 23,
    "city": "東海市",
    "city_kana": "トウカイシ",
    "town": "富木島町伏見",
    "town_kana": "フキシママチフシミ",
    "street": "４丁目１−８",
    "office_name": "大洋プラスチック",
    "office_name_kana": "タイヨウプラスチツク"
  },
  "8510": {
    "postcode": "4768510",
    "prefecture": "愛知県",
    "prefecture_kana": "アイチケン",
    "prefecture_code": 23,
    "city": "東海市",
    "city_kana": "トウカイシ",
    "town": "南柴田町",
    "town_kana": "ミナミシバタマチ",
    "street": "ルノ割４２６−４",
    "office_name": "協栄興業株式会社、協栄工機株式会社、協栄運輸株式会社、協栄高圧ガス株式会社",
    "office_name_kana": "キヨウエイコウギヨウカブシキガイシヤ.キヨウエイコウキカブシキガイシヤ.キヨウエイウンユカブシキガイシヤ.キヨウエイコウアツガスカブシキガイシヤ"
  },
  "8522": {
    "postcode": "4768522",
    "prefecture": "愛知県",
    "prefecture_kana": "アイチケン",
    "prefecture_code": 23,
    "city": "東海市",
    "city_kana": "トウカイシ",
    "town": "新宝町",
    "town_kana": "シンポウマチ",
    "street": "３３−３",
    "office_name": "トヨフジ海運　株式会社",
    "office_name_kana": "トヨフジカイウン カブシキガイシヤ"
  },
  "8533": {
    "postcode": "4768533",
    "prefecture": "愛知県",
    "prefecture_kana": "アイチケン",
    "prefecture_code": 23,
    "city": "東海市",
    "city_kana": "トウカイシ",
    "town": "新宝町",
    "town_kana": "シンポウマチ",
    "street": "３３−４",
    "office_name": "豊田スチールセンター　株式会社",
    "office_name_kana": "トヨタスチ-ルセンタ- カブシキガイシヤ"
  },
  "8567": {
    "postcode": "4768567",
    "prefecture": "愛知県",
    "prefecture_kana": "アイチケン",
    "prefecture_code": 23,
    "city": "東海市",
    "city_kana": "トウカイシ",
    "town": "新宝町",
    "town_kana": "シンポウマチ",
    "street": "３１番地",
    "office_name": "東レ　株式会社　東海工場",
    "office_name_kana": "トウレ カブシキカイシヤ トウカイコウジヨウ"
  },
  "8577": {
    "postcode": "4768577",
    "prefecture": "愛知県",
    "prefecture_kana": "アイチケン",
    "prefecture_code": 23,
    "city": "東海市",
    "city_kana": "トウカイシ",
    "town": "荒尾町",
    "town_kana": "アラオマチ",
    "street": "甚造１５−１",
    "office_name": "株式会社　坂角　総本舗",
    "office_name_kana": "カブシキガイシヤ バンカク ソウホンポ"
  },
  "8585": {
    "postcode": "4768585",
    "prefecture": "愛知県",
    "prefecture_kana": "アイチケン",
    "prefecture_code": 23,
    "city": "東海市",
    "city_kana": "トウカイシ",
    "town": "荒尾町",
    "town_kana": "アラオマチ",
    "street": "東屋敷１０８",
    "office_name": "カゴメ　株式会社　上野工場",
    "office_name_kana": "カゴメ カブシキガイシヤ ウエノコウジヨウ"
  },
  "8588": {
    "postcode": "4768588",
    "prefecture": "愛知県",
    "prefecture_kana": "アイチケン",
    "prefecture_code": 23,
    "city": "東海市",
    "city_kana": "トウカイシ",
    "town": "富貴ノ台",
    "town_kana": "フキノダイ",
    "street": "２丁目１７２",
    "office_name": "学校法人　名古屋石田学園　星城大学",
    "office_name_kana": "ガツコウホウジン ナゴヤイシダガクエン セイジヨウダイガク"
  },
  "8601": {
    "postcode": "4768601",
    "prefecture": "愛知県",
    "prefecture_kana": "アイチケン",
    "prefecture_code": 23,
    "city": "東海市",
    "city_kana": "トウカイシ",
    "town": "中央町",
    "town_kana": "チュウオウマチ",
    "street": "１丁目１（東海北郵便局私書箱第６号）",
    "office_name": "東海市役所",
    "office_name_kana": "トウカイシヤクシヨ"
  },
  "8666": {
    "postcode": "4768666",
    "prefecture": "愛知県",
    "prefecture_kana": "アイチケン",
    "prefecture_code": 23,
    "city": "東海市",
    "city_kana": "トウカイシ",
    "town": "荒尾町",
    "town_kana": "アラオマチ",
    "street": "ワノ割１（東海北郵便局私書箱第３号）",
    "office_name": "愛知製鋼　株式会社",
    "office_name_kana": "アイチセイコウ カブシキガイシヤ"
  },
  "8686": {
    "postcode": "4768686",
    "prefecture": "愛知県",
    "prefecture_kana": "アイチケン",
    "prefecture_code": 23,
    "city": "東海市",
    "city_kana": "トウカイシ",
    "town": "東海町",
    "town_kana": "トウカイマチ",
    "street": "５丁目３番地１（東海北郵便局私書箱第１号）",
    "office_name": "新日本製鐵　株式會社　名古屋製鐵所",
    "office_name_kana": "シンニホンセイテツ カブシキガイシヤ ナゴヤセイテツシヨ"
  }
}