{
  "0000": {
    "postcode": "4790000",
    "prefecture": "愛知県",
    "prefecture_kana": "アイチケン",
    "prefecture_code": 23,
    "city": "常滑市",
    "city_kana": "トコナメシ",
    "town": "",
    "town_kana": "",
    "street": null,
    "office_name": null,
    "office_name_kana": null
  },
  "0001": {
    "postcode": "4790001",
    "prefecture": "愛知県",
    "prefecture_kana": "アイチケン",
    "prefecture_code": 23,
    "city": "常滑市",
    "city_kana": "トコナメシ",
    "town": "矢田",
    "town_kana": "ヤタ",
    "street": null,
    "office_name": null,
    "office_name_kana": null
  },
  "0002": {
    "postcode": "4790002",
    "prefecture": "愛知県",
    "prefecture_kana": "アイチケン",
    "prefecture_code": 23,
    "city": "常滑市",
    "city_kana": "トコナメシ",
    "town": "久米",
    "town_kana": "クメ",
    "street": null,
    "office_name": null,
    "office_name_kana": null
  },
  "0003": {
    "postcode": "4790003",
    "prefecture": "愛知県",
    "prefecture_kana": "アイチケン",
    "prefecture_code": 23,
    "city": "常滑市",
    "city_kana": "トコナメシ",
    "town": "金山",
    "town_kana": "カナヤマ",
    "street": null,
    "office_name": null,
    "office_name_kana": null
  },
  "0004": {
    "postcode": "4790004",
    "prefecture": "愛知県",
    "prefecture_kana": "アイチケン",
    "prefecture_code": 23,
    "city": "常滑市",
    "city_kana": "トコナメシ",
    "town": "青海町",
    "town_kana": "セイカイチョウ",
    "street": null,
    "office_name": null,
    "office_name_kana": null
  },
  "0005": {
    "postcode": "4790005",
    "prefecture": "愛知県",
    "prefecture_kana": "アイチケン",
    "prefecture_code": 23,
    "city": "常滑市",
    "city_kana": "トコナメシ",
    "town": "大塚町",
    "town_kana": "オオツカチョウ",
    "street": null,
    "office_name": null,
    "office_name_kana": null
  },
  "0006": {
    "postcode": "4790006",
    "prefecture": "愛知県",
    "prefecture_kana": "アイチケン",
    "prefecture_code": 23,
    "city": "常滑市",
    "city_kana": "トコナメシ",
    "town": "古道",
    "town_kana": "フルミチ",
    "street": null,
    "office_name": null,
    "office_name_kana": null
  },
  "0007": {
    "postcode": "4790007",
    "prefecture": "愛知県",
    "prefecture_kana": "アイチケン",
    "prefecture_code": 23,
    "city": "常滑市",
    "city_kana": "トコナメシ",
    "town": "庄兵衛新田",
    "town_kana": "ショウベエシンデン",
    "street": null,
    "office_name": null,
    "office_name_kana": null
  },
  "0008": {
    "postcode": "4790008",
    "prefecture": "愛知県",
    "prefecture_kana": "アイチケン",
    "prefecture_code": 23,
    "city": "常滑市",
    "city_kana": "トコナメシ",
    "town": "酉新田",
    "town_kana": "トリシンデン",
    "street": null,
    "office_name": null,
    "office_name_kana": null
  },
  "0009": {
    "postcode": "4790009",
    "prefecture": "愛知県",
    "prefecture_kana": "アイチケン",
    "prefecture_code": 23,
    "city": "常滑市",
    "city_kana": "トコナメシ",
    "town": "平池",
    "town_kana": "ヒライケ",
    "street": null,
    "office_name": null,
    "office_name_kana": null
  },
  "0011": {
    "postcode": "4790011",
    "prefecture": "愛知県",
    "prefecture_kana": "アイチケン",
    "prefecture_code": 23,
    "city": "常滑市",
    "city_kana": "トコナメシ",
    "town": "花狭間",
    "town_kana": "ハナバサマ",
    "street": null,
    "office_name": null,
    "office_name_kana": null
  },
  "0012": {
    "postcode": "4790012",
    "prefecture": "愛知県",
    "prefecture_kana": "アイチケン",
    "prefecture_code": 23,
    "city": "常滑市",
    "city_kana": "トコナメシ",
    "town": "上納",
    "town_kana": "ジョウノウ",
    "street": null,
    "office_name": null,
    "office_name_kana": null
  },
  "0013": {
    "postcode": "4790013",
    "prefecture": "愛知県",
    "prefecture_kana": "アイチケン",
    "prefecture_code": 23,
    "city": "常滑市",
    "city_kana": "トコナメシ",
    "town": "二ノ割",
    "town_kana": "ニノワリ",
    "street": null,
    "office_name": null,
    "office_name_kana": null
  },
  "0014": {
    "postcode": "4790014",
    "prefecture": "愛知県",
    "prefecture_kana": "アイチケン",
    "prefecture_code": 23,
    "city": "常滑市",
    "city_kana": "トコナメシ",
    "town": "一ノ割",
    "town_kana": "イチノワリ",
    "street": null,
    "office_name": null,
    "office_name_kana": null
  },
  "0015": {
    "postcode": "4790015",
    "prefecture": "愛知県",
    "prefecture_kana": "アイチケン",
    "prefecture_code": 23,
    "city": "常滑市",
    "city_kana": "トコナメシ",
    "town": "大窯",
    "town_kana": "オオガマ",
    "street": null,
    "office_name": null,
    "office_name_kana": null
  },
  "0016": {
    "postcode": "4790016",
    "prefecture": "愛知県",
    "prefecture_kana": "アイチケン",
    "prefecture_code": 23,
    "city": "常滑市",
    "city_kana": "トコナメシ",
    "town": "高坂",
    "town_kana": "タカサカ",
    "street": null,
    "office_name": null,
    "office_name_kana": null
  },
  "0017": {
    "postcode": "4790017",
    "prefecture": "愛知県",
    "prefecture_kana": "アイチケン",
    "prefecture_code": 23,
    "city": "常滑市",
    "city_kana": "トコナメシ",
    "town": "椎池",
    "town_kana": "シイイケ",
    "street": null,
    "office_name": null,
    "office_name_kana": null
  },
  "0018": {
    "postcode": "4790018",
    "prefecture": "愛知県",
    "prefecture_kana": "アイチケン",
    "prefecture_code": 23,
    "city": "常滑市",
    "city_kana": "トコナメシ",
    "town": "二ノ田",
    "town_kana": "ニノタ",
    "street": null,
    "office_name": null,
    "office_name_kana": null
  },
  "0019": {
    "postcode": "4790019",
    "prefecture": "愛知県",
    "prefecture_kana": "アイチケン",
    "prefecture_code": 23,
    "city": "常滑市",
    "city_kana": "トコナメシ",
    "town": "柴山",
    "town_kana": "シバヤマ",
    "street": null,
    "office_name": null,
    "office_name_kana": null
  },
  "0021": {
    "postcode": "4790021",
    "prefecture": "愛知県",
    "prefecture_kana": "アイチケン",
    "prefecture_code": 23,
    "city": "常滑市",
    "city_kana": "トコナメシ",
    "town": "大曽町",
    "town_kana": "オオソチョウ",
    "street": null,
    "office_name": null,
    "office_name_kana": null
  },
  "0022": {
    "postcode": "4790022",
    "prefecture": "愛知県",
    "prefecture_kana": "アイチケン",
    "prefecture_code": 23,
    "city": "常滑市",
    "city_kana": "トコナメシ",
    "town": "堕星",
    "town_kana": "ダタボシ",
    "street": null,
    "office_name": null,
    "office_name_kana": null
  },
  "0023": {
    "postcode": "4790023",
    "prefecture": "愛知県",
    "prefecture_kana": "アイチケン",
    "prefecture_code": 23,
    "city": "常滑市",
    "city_kana": "トコナメシ",
    "town": "長峰一ノ切",
    "town_kana": "ナガミネ1ノキリ",
    "street": null,
    "office_name": null,
    "office_name_kana": null
  },
  "0024": {
    "postcode": "4790024",
    "prefecture": "愛知県",
    "prefecture_kana": "アイチケン",
    "prefecture_code": 23,
    "city": "常滑市",
    "city_kana": "トコナメシ",
    "town": "池田口",
    "town_kana": "イケダグチ",
    "street": null,
    "office_name": null,
    "office_name_kana": null
  },
  "0025": {
    "postcode": "4790025",
    "prefecture": "愛知県",
    "prefecture_kana": "アイチケン",
    "prefecture_code": 23,
    "city": "常滑市",
    "city_kana": "トコナメシ",
    "town": "新池",
    "town_kana": "ニイイケ",
    "street": null,
    "office_name": null,
    "office_name_kana": null
  },
  "0026": {
    "postcode": "4790026",
    "prefecture": "愛知県",
    "prefecture_kana": "アイチケン",
    "prefecture_code": 23,
    "city": "常滑市",
    "city_kana": "トコナメシ",
    "town": "天竺",
    "town_kana": "テンジク",
    "street": null,
    "office_name": null,
    "office_name_kana": null
  },
  "0027": {
    "postcode": "4790027",
    "prefecture": "愛知県",
    "prefecture_kana": "アイチケン",
    "prefecture_code": 23,
    "city": "常滑市",
    "city_kana": "トコナメシ",
    "town": "大流",
    "town_kana": "オオリュウ",
    "street": null,
    "office_name": null,
    "office_name_kana": null
  },
  "0028": {
    "postcode": "4790028",
    "prefecture": "愛知県",
    "prefecture_kana": "アイチケン",
    "prefecture_code": 23,
    "city": "常滑市",
    "city_kana": "トコナメシ",
    "town": "長峰二ノ切",
    "town_kana": "ナガミネ2ノキリ",
    "street": null,
    "office_name": null,
    "office_name_kana": null
  },
  "0029": {
    "postcode": "4790029",
    "prefecture": "愛知県",
    "prefecture_kana": "アイチケン",
    "prefecture_code": 23,
    "city": "常滑市",
    "city_kana": "トコナメシ",
    "town": "古道東割",
    "town_kana": "フルミチヒガシワリ",
    "street": null,
    "office_name": null,
    "office_name_kana": null
  },
  "0031": {
    "postcode": "4790031",
    "prefecture": "愛知県",
    "prefecture_kana": "アイチケン",
    "prefecture_code": 23,
    "city": "常滑市",
    "city_kana": "トコナメシ",
    "town": "長峰三ノ切",
    "town_kana": "ナガミネ3ノキリ",
    "street": null,
    "office_name": null,
    "office_name_kana": null
  },
  "0032": {
    "postcode": "4790032",
    "prefecture": "愛知県",
    "prefecture_kana": "アイチケン",
    "prefecture_code": 23,
    "city": "常滑市",
    "city_kana": "トコナメシ",
    "town": "下隅",
    "town_kana": "シタズミ",
    "street": null,
    "office_name": null,
    "office_name_kana": null
  },
  "0033": {
    "postcode": "4790033",
    "prefecture": "愛知県",
    "prefecture_kana": "アイチケン",
    "prefecture_code": 23,
    "city": "常滑市",
    "city_kana": "トコナメシ",
    "town": "中椎田",
    "town_kana": "ナカシイダ",
    "street": null,
    "office_name": null,
    "office_name_kana": null
  },
  "0034": {
    "postcode": "4790034",
    "prefecture": "愛知県",
    "prefecture_kana": "アイチケン",
    "prefecture_code": 23,
    "city": "常滑市",
    "city_kana": "トコナメシ",
    "town": "椎田奥",
    "town_kana": "シイダオク",
    "street": null,
    "office_name": null,
    "office_name_kana": null
  },
  "0035": {
    "postcode": "4790035",
    "prefecture": "愛知県",
    "prefecture_kana": "アイチケン",
    "prefecture_code": 23,
    "city": "常滑市",
    "city_kana": "トコナメシ",
    "town": "椎草南割",
    "town_kana": "シイクサミナミワリ",
    "street": null,
    "office_name": null,
    "office_name_kana": null
  },
  "0036": {
    "postcode": "4790036",
    "prefecture": "愛知県",
    "prefecture_kana": "アイチケン",
    "prefecture_code": 23,
    "city": "常滑市",
    "city_kana": "トコナメシ",
    "town": "椎田口",
    "town_kana": "シイダグチ",
    "street": null,
    "office_name": null,
    "office_name_kana": null
  },
  "0037": {
    "postcode": "4790037",
    "prefecture": "愛知県",
    "prefecture_kana": "アイチケン",
    "prefecture_code": 23,
    "city": "常滑市",
    "city_kana": "トコナメシ",
    "town": "中大流",
    "town_kana": "ナカオオリュウ",
    "street": null,
    "office_name": null,
    "office_name_kana": null
  },
  "0038": {
    "postcode": "4790038",
    "prefecture": "愛知県",
    "prefecture_kana": "アイチケン",
    "prefecture_code": 23,
    "city": "常滑市",
    "city_kana": "トコナメシ",
    "town": "石窯",
    "town_kana": "イシガマ",
    "street": null,
    "office_name": null,
    "office_name_kana": null
  },
  "0039": {
    "postcode": "4790039",
    "prefecture": "愛知県",
    "prefecture_kana": "アイチケン",
    "prefecture_code": 23,
    "city": "常滑市",
    "city_kana": "トコナメシ",
    "town": "大流天竺口",
    "town_kana": "オオリュウテンジククチ",
    "street": null,
    "office_name": null,
    "office_name_kana": null
  },
  "0041": {
    "postcode": "4790041",
    "prefecture": "愛知県",
    "prefecture_kana": "アイチケン",
    "prefecture_code": 23,
    "city": "常滑市",
    "city_kana": "トコナメシ",
    "town": "千代",
    "town_kana": "チヨ",
    "street": null,
    "office_name": null,
    "office_name_kana": null
  },
  "0042": {
    "postcode": "4790042",
    "prefecture": "愛知県",
    "prefecture_kana": "アイチケン",
    "prefecture_code": 23,
    "city": "常滑市",
    "city_kana": "トコナメシ",
    "town": "社辺",
    "town_kana": "コソベ",
    "street": null,
    "office_name": null,
    "office_name_kana": null
  },
  "0043": {
    "postcode": "4790043",
    "prefecture": "愛知県",
    "prefecture_kana": "アイチケン",
    "prefecture_code": 23,
    "city": "常滑市",
    "city_kana": "トコナメシ",
    "town": "古社",
    "town_kana": "フルヤシロ",
    "street": null,
    "office_name": null,
    "office_name_kana": null
  },
  "0044": {
    "postcode": "4790044",
    "prefecture": "愛知県",
    "prefecture_kana": "アイチケン",
    "prefecture_code": 23,
    "city": "常滑市",
    "city_kana": "トコナメシ",
    "town": "乙田",
    "town_kana": "オコダ",
    "street": null,
    "office_name": null,
    "office_name_kana": null
  },
  "0045": {
    "postcode": "4790045",
    "prefecture": "愛知県",
    "prefecture_kana": "アイチケン",
    "prefecture_code": 23,
    "city": "常滑市",
    "city_kana": "トコナメシ",
    "town": "仲井",
    "town_kana": "ナカイ",
    "street": null,
    "office_name": null,
    "office_name_kana": null
  },
  "0046": {
    "postcode": "4790046",
    "prefecture": "愛知県",
    "prefecture_kana": "アイチケン",
    "prefecture_code": 23,
    "city": "常滑市",
    "city_kana": "トコナメシ",
    "town": "北古千代",
    "town_kana": "キタゴチヨ",
    "street": null,
    "office_name": null,
    "office_name_kana": null
  },
  "0047": {
    "postcode": "4790047",
    "prefecture": "愛知県",
    "prefecture_kana": "アイチケン",
    "prefecture_code": 23,
    "city": "常滑市",
    "city_kana": "トコナメシ",
    "town": "南古千代",
    "town_kana": "ミナミゴチヨ",
    "street": null,
    "office_name": null,
    "office_name_kana": null
  },
  "0048": {
    "postcode": "4790048",
    "prefecture": "愛知県",
    "prefecture_kana": "アイチケン",
    "prefecture_code": 23,
    "city": "常滑市",
    "city_kana": "トコナメシ",
    "town": "中千代",
    "town_kana": "ナカチヨ",
    "street": null,
    "office_name": null,
    "office_name_kana": null
  },
  "0049": {
    "postcode": "4790049",
    "prefecture": "愛知県",
    "prefecture_kana": "アイチケン",
    "prefecture_code": 23,
    "city": "常滑市",
    "city_kana": "トコナメシ",
    "town": "長峰四ノ切",
    "town_kana": "ナガミネ4ノキリ",
    "street": null,
    "office_name": null,
    "office_name_kana": null
  },
  "0053": {
    "postcode": "4790053",
    "prefecture": "愛知県",
    "prefecture_kana": "アイチケン",
    "prefecture_code": 23,
    "city": "常滑市",
    "city_kana": "トコナメシ",
    "town": "奥夏敷",
    "town_kana": "オクナチキ",
    "street": null,
    "office_name": null,
    "office_name_kana": null
  },
  "0054": {
    "postcode": "4790054",
    "prefecture": "愛知県",
    "prefecture_kana": "アイチケン",
    "prefecture_code": 23,
    "city": "常滑市",
    "city_kana": "トコナメシ",
    "town": "西梨木",
    "town_kana": "ニシナシキ",
    "street": null,
    "office_name": null,
    "office_name_kana": null
  },
  "0055": {
    "postcode": "4790055",
    "prefecture": "愛知県",
    "prefecture_kana": "アイチケン",
    "prefecture_code": 23,
    "city": "常滑市",
    "city_kana": "トコナメシ",
    "town": "広内",
    "town_kana": "ヒロウチ",
    "street": null,
    "office_name": null,
    "office_name_kana": null
  },
  "0056": {
    "postcode": "4790056",
    "prefecture": "愛知県",
    "prefecture_kana": "アイチケン",
    "prefecture_code": 23,
    "city": "常滑市",
    "city_kana": "トコナメシ",
    "town": "椎垂木",
    "town_kana": "シイタルキ",
    "street": null,
    "office_name": null,
    "office_name_kana": null
  },
  "0057": {
    "postcode": "4790057",
    "prefecture": "愛知県",
    "prefecture_kana": "アイチケン",
    "prefecture_code": 23,
    "city": "常滑市",
    "city_kana": "トコナメシ",
    "town": "樋掛",
    "town_kana": "トイガケ",
    "street": null,
    "office_name": null,
    "office_name_kana": null
  },
  "0058": {
    "postcode": "4790058",
    "prefecture": "愛知県",
    "prefecture_kana": "アイチケン",
    "prefecture_code": 23,
    "city": "常滑市",
    "city_kana": "トコナメシ",
    "town": "古千代",
    "town_kana": "コチヨ",
    "street": null,
    "office_name": null,
    "office_name_kana": null
  },
  "0059": {
    "postcode": "4790059",
    "prefecture": "愛知県",
    "prefecture_kana": "アイチケン",
    "prefecture_code": 23,
    "city": "常滑市",
    "city_kana": "トコナメシ",
    "town": "南蛇廻間",
    "town_kana": "ミナミジャバサマ",
    "street": null,
    "office_name": null,
    "office_name_kana": null
  },
  "0061": {
    "postcode": "4790061",
    "prefecture": "愛知県",
    "prefecture_kana": "アイチケン",
    "prefecture_code": 23,
    "city": "常滑市",
    "city_kana": "トコナメシ",
    "town": "耳切",
    "town_kana": "ミミキリ",
    "street": null,
    "office_name": null,
    "office_name_kana": null
  },
  "0062": {
    "postcode": "4790062",
    "prefecture": "愛知県",
    "prefecture_kana": "アイチケン",
    "prefecture_code": 23,
    "city": "常滑市",
    "city_kana": "トコナメシ",
    "town": "運内",
    "town_kana": "ウンナイ",
    "street": null,
    "office_name": null,
    "office_name_kana": null
  },
  "0063": {
    "postcode": "4790063",
    "prefecture": "愛知県",
    "prefecture_kana": "アイチケン",
    "prefecture_code": 23,
    "city": "常滑市",
    "city_kana": "トコナメシ",
    "town": "萱苅口",
    "town_kana": "カヤカリグチ",
    "street": null,
    "office_name": null,
    "office_name_kana": null
  },
  "0064": {
    "postcode": "4790064",
    "prefecture": "愛知県",
    "prefecture_kana": "アイチケン",
    "prefecture_code": 23,
    "city": "常滑市",
    "city_kana": "トコナメシ",
    "town": "斧口",
    "town_kana": "ヨキグチ",
    "street": null,
    "office_name": null,
    "office_name_kana": null
  },
  "0065": {
    "postcode": "4790065",
    "prefecture": "愛知県",
    "prefecture_kana": "アイチケン",
    "prefecture_code": 23,
    "city": "常滑市",
    "city_kana": "トコナメシ",
    "town": "長間",
    "town_kana": "チョウマ",
    "street": null,
    "office_name": null,
    "office_name_kana": null
  },
  "0066": {
    "postcode": "4790066",
    "prefecture": "愛知県",
    "prefecture_kana": "アイチケン",
    "prefecture_code": 23,
    "city": "常滑市",
    "city_kana": "トコナメシ",
    "town": "脇田口",
    "town_kana": "ワキタグチ",
    "street": null,
    "office_name": null,
    "office_name_kana": null
  },
  "0067": {
    "postcode": "4790067",
    "prefecture": "愛知県",
    "prefecture_kana": "アイチケン",
    "prefecture_code": 23,
    "city": "常滑市",
    "city_kana": "トコナメシ",
    "town": "小森",
    "town_kana": "コモリ",
    "street": null,
    "office_name": null,
    "office_name_kana": null
  },
  "0068": {
    "postcode": "4790068",
    "prefecture": "愛知県",
    "prefecture_kana": "アイチケン",
    "prefecture_code": 23,
    "city": "常滑市",
    "city_kana": "トコナメシ",
    "town": "長田",
    "town_kana": "オサダ",
    "street": null,
    "office_name": null,
    "office_name_kana": null
  },
  "0069": {
    "postcode": "4790069",
    "prefecture": "愛知県",
    "prefecture_kana": "アイチケン",
    "prefecture_code": 23,
    "city": "常滑市",
    "city_kana": "トコナメシ",
    "town": "折戸",
    "town_kana": "オリド",
    "street": null,
    "office_name": null,
    "office_name_kana": null
  },
  "0071": {
    "postcode": "4790071",
    "prefecture": "愛知県",
    "prefecture_kana": "アイチケン",
    "prefecture_code": 23,
    "city": "常滑市",
    "city_kana": "トコナメシ",
    "town": "蛇廻間",
    "town_kana": "ジャバサマ",
    "street": null,
    "office_name": null,
    "office_name_kana": null
  },
  "0072": {
    "postcode": "4790072",
    "prefecture": "愛知県",
    "prefecture_kana": "アイチケン",
    "prefecture_code": 23,
    "city": "常滑市",
    "city_kana": "トコナメシ",
    "town": "乳母子",
    "town_kana": "ウバコ",
    "street": null,
    "office_name": null,
    "office_name_kana": null
  },
  "0073": {
    "postcode": "4790073",
    "prefecture": "愛知県",
    "prefecture_kana": "アイチケン",
    "prefecture_code": 23,
    "city": "常滑市",
    "city_kana": "トコナメシ",
    "town": "飛渡川",
    "town_kana": "トンドガワ",
    "street": null,
    "office_name": null,
    "office_name_kana": null
  },
  "0074": {
    "postcode": "4790074",
    "prefecture": "愛知県",
    "prefecture_kana": "アイチケン",
    "prefecture_code": 23,
    "city": "常滑市",
    "city_kana": "トコナメシ",
    "town": "池田川",
    "town_kana": "イケダガワ",
    "street": null,
    "office_name": null,
    "office_name_kana": null
  },
  "0075": {
    "postcode": "4790075",
    "prefecture": "愛知県",
    "prefecture_kana": "アイチケン",
    "prefecture_code": 23,
    "city": "常滑市",
    "city_kana": "トコナメシ",
    "town": "菅場",
    "town_kana": "スガバ",
    "street": null,
    "office_name": null,
    "office_name_kana": null
  },
  "0076": {
    "postcode": "4790076",
    "prefecture": "愛知県",
    "prefecture_kana": "アイチケン",
    "prefecture_code": 23,
    "city": "常滑市",
    "city_kana": "トコナメシ",
    "town": "鳥根",
    "town_kana": "トリネ",
    "street": null,
    "office_name": null,
    "office_name_kana": null
  },
  "0077": {
    "postcode": "4790077",
    "prefecture": "愛知県",
    "prefecture_kana": "アイチケン",
    "prefecture_code": 23,
    "city": "常滑市",
    "city_kana": "トコナメシ",
    "town": "南飛渡",
    "town_kana": "ミナミトンド",
    "street": null,
    "office_name": null,
    "office_name_kana": null
  },
  "0079": {
    "postcode": "4790079",
    "prefecture": "愛知県",
    "prefecture_kana": "アイチケン",
    "prefecture_code": 23,
    "city": "常滑市",
    "city_kana": "トコナメシ",
    "town": "黒山",
    "town_kana": "クロヤマ",
    "street": null,
    "office_name": null,
    "office_name_kana": null
  },
  "0801": {
    "postcode": "4790801",
    "prefecture": "愛知県",
    "prefecture_kana": "アイチケン",
    "prefecture_code": 23,
    "city": "常滑市",
    "city_kana": "トコナメシ",
    "town": "樽水",
    "town_kana": "タルミ",
    "street": null,
    "office_name": null,
    "office_name_kana": null
  },
  "0802": {
    "postcode": "4790802",
    "prefecture": "愛知県",
    "prefecture_kana": "アイチケン",
    "prefecture_code": 23,
    "city": "常滑市",
    "city_kana": "トコナメシ",
    "town": "西阿野",
    "town_kana": "ニシアノ",
    "street": null,
    "office_name": null,
    "office_name_kana": null
  },
  "0803": {
    "postcode": "4790803",
    "prefecture": "愛知県",
    "prefecture_kana": "アイチケン",
    "prefecture_code": 23,
    "city": "常滑市",
    "city_kana": "トコナメシ",
    "town": "桧原",
    "town_kana": "ヒバラ",
    "street": null,
    "office_name": null,
    "office_name_kana": null
  },
  "0804": {
    "postcode": "4790804",
    "prefecture": "愛知県",
    "prefecture_kana": "アイチケン",
    "prefecture_code": 23,
    "city": "常滑市",
    "city_kana": "トコナメシ",
    "town": "古場",
    "town_kana": "コバ",
    "street": null,
    "office_name": null,
    "office_name_kana": null
  },
  "0805": {
    "postcode": "4790805",
    "prefecture": "愛知県",
    "prefecture_kana": "アイチケン",
    "prefecture_code": 23,
    "city": "常滑市",
    "city_kana": "トコナメシ",
    "town": "苅屋",
    "town_kana": "カリヤ",
    "street": null,
    "office_name": null,
    "office_name_kana": null
  },
  "0806": {
    "postcode": "4790806",
    "prefecture": "愛知県",
    "prefecture_kana": "アイチケン",
    "prefecture_code": 23,
    "city": "常滑市",
    "city_kana": "トコナメシ",
    "town": "大谷",
    "town_kana": "オオタニ",
    "street": null,
    "office_name": null,
    "office_name_kana": null
  },
  "0807": {
    "postcode": "4790807",
    "prefecture": "愛知県",
    "prefecture_kana": "アイチケン",
    "prefecture_code": 23,
    "city": "常滑市",
    "city_kana": "トコナメシ",
    "town": "小鈴谷",
    "town_kana": "コスガヤ",
    "street": null,
    "office_name": null,
    "office_name_kana": null
  },
  "0808": {
    "postcode": "4790808",
    "prefecture": "愛知県",
    "prefecture_kana": "アイチケン",
    "prefecture_code": 23,
    "city": "常滑市",
    "city_kana": "トコナメシ",
    "town": "広目",
    "town_kana": "ヒロメ",
    "street": null,
    "office_name": null,
    "office_name_kana": null
  },
  "0809": {
    "postcode": "4790809",
    "prefecture": "愛知県",
    "prefecture_kana": "アイチケン",
    "prefecture_code": 23,
    "city": "常滑市",
    "city_kana": "トコナメシ",
    "town": "坂井",
    "town_kana": "サカイ",
    "street": null,
    "office_name": null,
    "office_name_kana": null
  },
  "0810": {
    "postcode": "4790810",
    "prefecture": "愛知県",
    "prefecture_kana": "アイチケン",
    "prefecture_code": 23,
    "city": "常滑市",
    "city_kana": "トコナメシ",
    "town": "大谷朝陽ケ丘",
    "town_kana": "オオタニアサヒガオカ",
    "street": null,
    "office_name": null,
    "office_name_kana": null
  },
  "0811": {
    "postcode": "4790811",
    "prefecture": "愛知県",
    "prefecture_kana": "アイチケン",
    "prefecture_code": 23,
    "city": "常滑市",
    "city_kana": "トコナメシ",
    "town": "泉町",
    "town_kana": "イズミチョウ",
    "street": null,
    "office_name": null,
    "office_name_kana": null
  },
  "0812": {
    "postcode": "4790812",
    "prefecture": "愛知県",
    "prefecture_kana": "アイチケン",
    "prefecture_code": 23,
    "city": "常滑市",
    "city_kana": "トコナメシ",
    "town": "井戸田町",
    "town_kana": "イドタチョウ",
    "street": null,
    "office_name": null,
    "office_name_kana": null
  },
  "0813": {
    "postcode": "4790813",
    "prefecture": "愛知県",
    "prefecture_kana": "アイチケン",
    "prefecture_code": 23,
    "city": "常滑市",
    "city_kana": "トコナメシ",
    "town": "塩田町",
    "town_kana": "シオタチョウ",
    "street": null,
    "office_name": null,
    "office_name_kana": null
  },
  "0814": {
    "postcode": "4790814",
    "prefecture": "愛知県",
    "prefecture_kana": "アイチケン",
    "prefecture_code": 23,
    "city": "常滑市",
    "city_kana": "トコナメシ",
    "town": "阿野町",
    "town_kana": "アノチョウ",
    "street": null,
    "office_name": null,
    "office_name_kana": null
  },
  "0815": {
    "postcode": "4790815",
    "prefecture": "愛知県",
    "prefecture_kana": "アイチケン",
    "prefecture_code": 23,
    "city": "常滑市",
    "city_kana": "トコナメシ",
    "town": "唐崎町",
    "town_kana": "カラサキチョウ",
    "street": null,
    "office_name": null,
    "office_name_kana": null
  },
  "0816": {
    "postcode": "4790816",
    "prefecture": "愛知県",
    "prefecture_kana": "アイチケン",
    "prefecture_code": 23,
    "city": "常滑市",
    "city_kana": "トコナメシ",
    "town": "熊野",
    "town_kana": "クマノ",
    "street": null,
    "office_name": null,
    "office_name_kana": null
  },
  "0817": {
    "postcode": "4790817",
    "prefecture": "愛知県",
    "prefecture_kana": "アイチケン",
    "prefecture_code": 23,
    "city": "常滑市",
    "city_kana": "トコナメシ",
    "town": "熊野町",
    "town_kana": "クマノチョウ",
    "street": null,
    "office_name": null,
    "office_name_kana": null
  },
  "0818": {
    "postcode": "4790818",
    "prefecture": "愛知県",
    "prefecture_kana": "アイチケン",
    "prefecture_code": 23,
    "city": "常滑市",
    "city_kana": "トコナメシ",
    "town": "古場町",
    "town_kana": "コバチョウ",
    "street": null,
    "office_name": null,
    "office_name_kana": null
  },
  "0819": {
    "postcode": "4790819",
    "prefecture": "愛知県",
    "prefecture_kana": "アイチケン",
    "prefecture_code": 23,
    "city": "常滑市",
    "city_kana": "トコナメシ",
    "town": "苅屋町",
    "town_kana": "カリヤチョウ",
    "street": null,
    "office_name": null,
    "office_name_kana": null
  },
  "0821": {
    "postcode": "4790821",
    "prefecture": "愛知県",
    "prefecture_kana": "アイチケン",
    "prefecture_code": 23,
    "city": "常滑市",
    "city_kana": "トコナメシ",
    "town": "瀬木町",
    "town_kana": "セギチョウ",
    "street": null,
    "office_name": null,
    "office_name_kana": null
  },
  "0822": {
    "postcode": "4790822",
    "prefecture": "愛知県",
    "prefecture_kana": "アイチケン",
    "prefecture_code": 23,
    "city": "常滑市",
    "city_kana": "トコナメシ",
    "town": "奥条",
    "town_kana": "オクジョウ",
    "street": null,
    "office_name": null,
    "office_name_kana": null
  },
  "0823": {
    "postcode": "4790823",
    "prefecture": "愛知県",
    "prefecture_kana": "アイチケン",
    "prefecture_code": 23,
    "city": "常滑市",
    "city_kana": "トコナメシ",
    "town": "奥栄町",
    "town_kana": "オクエイチョウ",
    "street": null,
    "office_name": null,
    "office_name_kana": null
  },
  "0824": {
    "postcode": "4790824",
    "prefecture": "愛知県",
    "prefecture_kana": "アイチケン",
    "prefecture_code": 23,
    "city": "常滑市",
    "city_kana": "トコナメシ",
    "town": "白山町",
    "town_kana": "ハクサンチョウ",
    "street": null,
    "office_name": null,
    "office_name_kana": null
  },
  "0825": {
    "postcode": "4790825",
    "prefecture": "愛知県",
    "prefecture_kana": "アイチケン",
    "prefecture_code": 23,
    "city": "常滑市",
    "city_kana": "トコナメシ",
    "town": "山方町",
    "town_kana": "ヤマカタチョウ",
    "street": null,
    "office_name": null,
    "office_name_kana": null
  },
  "0826": {
    "postcode": "4790826",
    "prefecture": "愛知県",
    "prefecture_kana": "アイチケン",
    "prefecture_code": 23,
    "city": "常滑市",
    "city_kana": "トコナメシ",
    "town": "樽水町",
    "town_kana": "タルミチョウ",
    "street": null,
    "office_name": null,
    "office_name_kana": null
  },
  "0827": {
    "postcode": "4790827",
    "prefecture": "愛知県",
    "prefecture_kana": "アイチケン",
    "prefecture_code": 23,
    "city": "常滑市",
    "city_kana": "トコナメシ",
    "town": "保示町",
    "town_kana": "ホウジチョウ",
    "street": null,
    "office_name": null,
    "office_name_kana": null
  },
  "0828": {
    "postcode": "4790828",
    "prefecture": "愛知県",
    "prefecture_kana": "アイチケン",
    "prefecture_code": 23,
    "city": "常滑市",
    "city_kana": "トコナメシ",
    "town": "市場町",
    "town_kana": "イチバチョウ",
    "street": null,
    "office_name": null,
    "office_name_kana": null
  },
  "0829": {
    "postcode": "4790829",
    "prefecture": "愛知県",
    "prefecture_kana": "アイチケン",
    "prefecture_code": 23,
    "city": "常滑市",
    "city_kana": "トコナメシ",
    "town": "本町",
    "town_kana": "ホンマチ",
    "street": null,
    "office_name": null,
    "office_name_kana": null
  },
  "0831": {
    "postcode": "4790831",
    "prefecture": "愛知県",
    "prefecture_kana": "アイチケン",
    "prefecture_code": 23,
    "city": "常滑市",
    "city_kana": "トコナメシ",
    "town": "錦町",
    "town_kana": "ニシキチョウ",
    "street": null,
    "office_name": null,
    "office_name_kana": null
  },
  "0832": {
    "postcode": "4790832",
    "prefecture": "愛知県",
    "prefecture_kana": "アイチケン",
    "prefecture_code": 23,
    "city": "常滑市",
    "city_kana": "トコナメシ",
    "town": "原松町",
    "town_kana": "ハラマツチョウ",
    "street": null,
    "office_name": null,
    "office_name_kana": null
  },
  "0833": {
    "postcode": "4790833",
    "prefecture": "愛知県",
    "prefecture_kana": "アイチケン",
    "prefecture_code": 23,
    "city": "常滑市",
    "city_kana": "トコナメシ",
    "town": "北条",
    "town_kana": "キタジョウ",
    "street": null,
    "office_name": null,
    "office_name_kana": null
  },
  "0834": {
    "postcode": "4790834",
    "prefecture": "愛知県",
    "prefecture_kana": "アイチケン",
    "prefecture_code": 23,
    "city": "常滑市",
    "city_kana": "トコナメシ",
    "town": "千代ケ丘",
    "town_kana": "チヨガオカ",
    "street": null,
    "office_name": null,
    "office_name_kana": null
  },
  "0835": {
    "postcode": "4790835",
    "prefecture": "愛知県",
    "prefecture_kana": "アイチケン",
    "prefecture_code": 23,
    "city": "常滑市",
    "city_kana": "トコナメシ",
    "town": "陶郷町",
    "town_kana": "トウゴウチョウ",
    "street": null,
    "office_name": null,
    "office_name_kana": null
  },
  "0836": {
    "postcode": "4790836",
    "prefecture": "愛知県",
    "prefecture_kana": "アイチケン",
    "prefecture_code": 23,
    "city": "常滑市",
    "city_kana": "トコナメシ",
    "town": "栄町",
    "town_kana": "サカエマチ",
    "street": null,
    "office_name": null,
    "office_name_kana": null
  },
  "0837": {
    "postcode": "4790837",
    "prefecture": "愛知県",
    "prefecture_kana": "アイチケン",
    "prefecture_code": 23,
    "city": "常滑市",
    "city_kana": "トコナメシ",
    "town": "新開町",
    "town_kana": "シンカイチョウ",
    "street": null,
    "office_name": null,
    "office_name_kana": null
  },
  "0838": {
    "postcode": "4790838",
    "prefecture": "愛知県",
    "prefecture_kana": "アイチケン",
    "prefecture_code": 23,
    "city": "常滑市",
    "city_kana": "トコナメシ",
    "town": "鯉江本町",
    "town_kana": "コイエホンマチ",
    "street": null,
    "office_name": null,
    "office_name_kana": null
  },
  "0839": {
    "postcode": "4790839",
    "prefecture": "愛知県",
    "prefecture_kana": "アイチケン",
    "prefecture_code": 23,
    "city": "常滑市",
    "city_kana": "トコナメシ",
    "town": "多屋町",
    "town_kana": "タヤチョウ",
    "street": null,
    "office_name": null,
    "office_name_kana": null
  },
  "0841": {
    "postcode": "4790841",
    "prefecture": "愛知県",
    "prefecture_kana": "アイチケン",
    "prefecture_code": 23,
    "city": "常滑市",
    "city_kana": "トコナメシ",
    "town": "明和町",
    "town_kana": "メイワチョウ",
    "street": null,
    "office_name": null,
    "office_name_kana": null
  },
  "0842": {
    "postcode": "4790842",
    "prefecture": "愛知県",
    "prefecture_kana": "アイチケン",
    "prefecture_code": 23,
    "city": "常滑市",
    "city_kana": "トコナメシ",
    "town": "大鳥町",
    "town_kana": "オオドリチョウ",
    "street": null,
    "office_name": null,
    "office_name_kana": null
  },
  "0843": {
    "postcode": "4790843",
    "prefecture": "愛知県",
    "prefecture_kana": "アイチケン",
    "prefecture_code": 23,
    "city": "常滑市",
    "city_kana": "トコナメシ",
    "town": "多屋",
    "town_kana": "タヤ",
    "street": null,
    "office_name": null,
    "office_name_kana": null
  },
  "0844": {
    "postcode": "4790844",
    "prefecture": "愛知県",
    "prefecture_kana": "アイチケン",
    "prefecture_code": 23,
    "city": "常滑市",
    "city_kana": "トコナメシ",
    "town": "大和町",
    "town_kana": "ヤマトチョウ",
    "street": null,
    "office_name": null,
    "office_name_kana": null
  },
  "0845": {
    "postcode": "4790845",
    "prefecture": "愛知県",
    "prefecture_kana": "アイチケン",
    "prefecture_code": 23,
    "city": "常滑市",
    "city_kana": "トコナメシ",
    "town": "森西町",
    "town_kana": "モリニシチョウ",
    "street": null,
    "office_name": null,
    "office_name_kana": null
  },
  "0846": {
    "postcode": "4790846",
    "prefecture": "愛知県",
    "prefecture_kana": "アイチケン",
    "prefecture_code": 23,
    "city": "常滑市",
    "city_kana": "トコナメシ",
    "town": "末広町",
    "town_kana": "スエヒロチョウ",
    "street": null,
    "office_name": null,
    "office_name_kana": null
  },
  "0847": {
    "postcode": "4790847",
    "prefecture": "愛知県",
    "prefecture_kana": "アイチケン",
    "prefecture_code": 23,
    "city": "常滑市",
    "city_kana": "トコナメシ",
    "town": "新浜町",
    "town_kana": "シンハマチョウ",
    "street": null,
    "office_name": null,
    "office_name_kana": null
  },
  "0848": {
    "postcode": "4790848",
    "prefecture": "愛知県",
    "prefecture_kana": "アイチケン",
    "prefecture_code": 23,
    "city": "常滑市",
    "city_kana": "トコナメシ",
    "town": "港町",
    "town_kana": "ミナトチョウ",
    "street": null,
    "office_name": null,
    "office_name_kana": null
  },
  "0849": {
    "postcode": "4790849",
    "prefecture": "愛知県",
    "prefecture_kana": "アイチケン",
    "prefecture_code": 23,
    "city": "常滑市",
    "city_kana": "トコナメシ",
    "town": "虹の丘",
    "town_kana": "ニジノオカ",
    "street": null,
    "office_name": null,
    "office_name_kana": null
  },
  "0851": {
    "postcode": "4790851",
    "prefecture": "愛知県",
    "prefecture_kana": "アイチケン",
    "prefecture_code": 23,
    "city": "常滑市",
    "city_kana": "トコナメシ",
    "town": "若松町",
    "town_kana": "ワカマツチョウ",
    "street": null,
    "office_name": null,
    "office_name_kana": null
  },
  "0852": {
    "postcode": "4790852",
    "prefecture": "愛知県",
    "prefecture_kana": "アイチケン",
    "prefecture_code": 23,
    "city": "常滑市",
    "city_kana": "トコナメシ",
    "town": "神明町",
    "town_kana": "シンメイチョウ",
    "street": null,
    "office_name": null,
    "office_name_kana": null
  },
  "0853": {
    "postcode": "4790853",
    "prefecture": "愛知県",
    "prefecture_kana": "アイチケン",
    "prefecture_code": 23,
    "city": "常滑市",
    "city_kana": "トコナメシ",
    "town": "本郷町",
    "town_kana": "ホンゴウチョウ",
    "street": null,
    "office_name": null,
    "office_name_kana": null
  },
  "0854": {
    "postcode": "4790854",
    "prefecture": "愛知県",
    "prefecture_kana": "アイチケン",
    "prefecture_code": 23,
    "city": "常滑市",
    "city_kana": "トコナメシ",
    "town": "榎戸町",
    "town_kana": "エノキドチョウ",
    "street": null,
    "office_name": null,
    "office_name_kana": null
  },
  "0855": {
    "postcode": "4790855",
    "prefecture": "愛知県",
    "prefecture_kana": "アイチケン",
    "prefecture_code": 23,
    "city": "常滑市",
    "city_kana": "トコナメシ",
    "town": "新田町",
    "town_kana": "シンデンチョウ",
    "street": null,
    "office_name": null,
    "office_name_kana": null
  },
  "0856": {
    "postcode": "4790856",
    "prefecture": "愛知県",
    "prefecture_kana": "アイチケン",
    "prefecture_code": 23,
    "city": "常滑市",
    "city_kana": "トコナメシ",
    "town": "蒲池町",
    "town_kana": "カバイケチョウ",
    "street": null,
    "office_name": null,
    "office_name_kana": null
  },
  "0857": {
    "postcode": "4790857",
    "prefecture": "愛知県",
    "prefecture_kana": "アイチケン",
    "prefecture_code": 23,
    "city": "常滑市",
    "city_kana": "トコナメシ",
    "town": "榎戸",
    "town_kana": "エノキド",
    "street": null,
    "office_name": null,
    "office_name_kana": null
  },
  "0858": {
    "postcode": "4790858",
    "prefecture": "愛知県",
    "prefecture_kana": "アイチケン",
    "prefecture_code": 23,
    "city": "常滑市",
    "city_kana": "トコナメシ",
    "town": "蒲池",
    "town_kana": "カバイケ",
    "street": null,
    "office_name": null,
    "office_name_kana": null
  },
  "0861": {
    "postcode": "4790861",
    "prefecture": "愛知県",
    "prefecture_kana": "アイチケン",
    "prefecture_code": 23,
    "city": "常滑市",
    "city_kana": "トコナメシ",
    "town": "晩台町",
    "town_kana": "バンダイチョウ",
    "street": null,
    "office_name": null,
    "office_name_kana": null
  },
  "0862": {
    "postcode": "4790862",
    "prefecture": "愛知県",
    "prefecture_kana": "アイチケン",
    "prefecture_code": 23,
    "city": "常滑市",
    "city_kana": "トコナメシ",
    "town": "小倉町",
    "town_kana": "オグラチョウ",
    "street": null,
    "office_name": null,
    "office_name_kana": null
  },
  "0863": {
    "postcode": "4790863",
    "prefecture": "愛知県",
    "prefecture_kana": "アイチケン",
    "prefecture_code": 23,
    "city": "常滑市",
    "city_kana": "トコナメシ",
    "town": "西之口",
    "town_kana": "ニシノクチ",
    "street": null,
    "office_name": null,
    "office_name_kana": null
  },
  "0864": {
    "postcode": "4790864",
    "prefecture": "愛知県",
    "prefecture_kana": "アイチケン",
    "prefecture_code": 23,
    "city": "常滑市",
    "city_kana": "トコナメシ",
    "town": "住吉町",
    "town_kana": "スミヨシチョウ",
    "street": null,
    "office_name": null,
    "office_name_kana": null
  },
  "0865": {
    "postcode": "4790865",
    "prefecture": "愛知県",
    "prefecture_kana": "アイチケン",
    "prefecture_code": 23,
    "city": "常滑市",
    "city_kana": "トコナメシ",
    "town": "小林町",
    "town_kana": "コバヤシチョウ",
    "street": null,
    "office_name": null,
    "office_name_kana": null
  },
  "0866": {
    "postcode": "4790866",
    "prefecture": "愛知県",
    "prefecture_kana": "アイチケン",
    "prefecture_code": 23,
    "city": "常滑市",
    "city_kana": "トコナメシ",
    "town": "大野町",
    "town_kana": "オオノチョウ",
    "street": null,
    "office_name": null,
    "office_name_kana": null
  },
  "0867": {
    "postcode": "4790867",
    "prefecture": "愛知県",
    "prefecture_kana": "アイチケン",
    "prefecture_code": 23,
    "city": "常滑市",
    "city_kana": "トコナメシ",
    "town": "北汐見坂",
    "town_kana": "キタシオミザカ",
    "street": null,
    "office_name": null,
    "office_name_kana": null
  },
  "0868": {
    "postcode": "4790868",
    "prefecture": "愛知県",
    "prefecture_kana": "アイチケン",
    "prefecture_code": 23,
    "city": "常滑市",
    "city_kana": "トコナメシ",
    "town": "飛香台",
    "town_kana": "アスカダイ",
    "street": null,
    "office_name": null,
    "office_name_kana": null
  },
  "0871": {
    "postcode": "4790871",
    "prefecture": "愛知県",
    "prefecture_kana": "アイチケン",
    "prefecture_code": 23,
    "city": "常滑市",
    "city_kana": "トコナメシ",
    "town": "大曽",
    "town_kana": "オオソ",
    "street": null,
    "office_name": null,
    "office_name_kana": null
  },
  "0873": {
    "postcode": "4790873",
    "prefecture": "愛知県",
    "prefecture_kana": "アイチケン",
    "prefecture_code": 23,
    "city": "常滑市",
    "city_kana": "トコナメシ",
    "town": "かじま台",
    "town_kana": "カジマダイ",
    "street": null,
    "office_name": null,
    "office_name_kana": null
  },
  "0881": {
    "postcode": "4790881",
    "prefecture": "愛知県",
    "prefecture_kana": "アイチケン",
    "prefecture_code": 23,
    "city": "常滑市",
    "city_kana": "トコナメシ",
    "town": "セントレア",
    "town_kana": "セントレア",
    "street": null,
    "office_name": null,
    "office_name_kana": null
  },
  "0882": {
    "postcode": "4790882",
    "prefecture": "愛知県",
    "prefecture_kana": "アイチケン",
    "prefecture_code": 23,
    "city": "常滑市",
    "city_kana": "トコナメシ",
    "town": "りんくう町",
    "town_kana": "リンクウチョウ",
    "street": null,
    "office_name": null,
    "office_name_kana": null
  },
  "8501": {
    "postcode": "4798501",
    "prefecture": "愛知県",
    "prefecture_kana": "アイチケン",
    "prefecture_code": 23,
    "city": "常滑市",
    "city_kana": "トコナメシ",
    "town": "新開町",
    "town_kana": "シンカイチョウ",
    "street": "４丁目１１１番地",
    "office_name": "常滑市ボートレース事業局",
    "office_name_kana": "トコナメシボ-トレ-スジギヨウキヨク"
  },
  "8510": {
    "postcode": "4798510",
    "prefecture": "愛知県",
    "prefecture_kana": "アイチケン",
    "prefecture_code": 23,
    "city": "常滑市",
    "city_kana": "トコナメシ",
    "town": "飛香台",
    "town_kana": "アスカダイ",
    "street": "３丁目３番地の３",
    "office_name": "常滑市民病院",
    "office_name_kana": "トコナメシミンビヨウイン"
  },
  "8511": {
    "postcode": "4798511",
    "prefecture": "愛知県",
    "prefecture_kana": "アイチケン",
    "prefecture_code": 23,
    "city": "常滑市",
    "city_kana": "トコナメシ",
    "town": "久米",
    "town_kana": "クメ",
    "street": "字御林２００番地",
    "office_name": "株式会社　デンソーダイシン",
    "office_name_kana": "カブシキガイシヤ デンソ-ダイシン"
  },
  "8518": {
    "postcode": "4798518",
    "prefecture": "愛知県",
    "prefecture_kana": "アイチケン",
    "prefecture_code": 23,
    "city": "常滑市",
    "city_kana": "トコナメシ",
    "town": "小林町",
    "town_kana": "コバヤシチョウ",
    "street": "１丁目３０",
    "office_name": "丸茂工業",
    "office_name_kana": "マルモコウギヨウ カブシキガイシヤ"
  },
  "8555": {
    "postcode": "4798555",
    "prefecture": "愛知県",
    "prefecture_kana": "アイチケン",
    "prefecture_code": 23,
    "city": "常滑市",
    "city_kana": "トコナメシ",
    "town": "かじま台",
    "town_kana": "カジマダイ",
    "street": "一丁目１６１",
    "office_name": "知多半島ケーブルネットワーク　株式会社",
    "office_name_kana": "チタハントウケ-ブルネツトワ-ク カブシキガイシヤ"
  },
  "8577": {
    "postcode": "4798577",
    "prefecture": "愛知県",
    "prefecture_kana": "アイチケン",
    "prefecture_code": 23,
    "city": "常滑市",
    "city_kana": "トコナメシ",
    "town": "唐崎町",
    "town_kana": "カラサキチョウ",
    "street": "２丁目８８",
    "office_name": "ジャニス工業　株式会社",
    "office_name_kana": "ジヤニスコウギヨウ カブシキガイシヤ"
  },
  "8585": {
    "postcode": "4798585",
    "prefecture": "愛知県",
    "prefecture_kana": "アイチケン",
    "prefecture_code": 23,
    "city": "常滑市",
    "city_kana": "トコナメシ",
    "town": "鯉江本町",
    "town_kana": "コイエホンマチ",
    "street": "５丁目１番地",
    "office_name": "株式会社　ＬＩＸＩＬ　常滑本社",
    "office_name_kana": "カブシキガイシヤ リクシル トコナメホンシヤ"
  },
  "8586": {
    "postcode": "4798586",
    "prefecture": "愛知県",
    "prefecture_kana": "アイチケン",
    "prefecture_code": 23,
    "city": "常滑市",
    "city_kana": "トコナメシ",
    "town": "奥栄町",
    "town_kana": "オクエイチョウ",
    "street": "１丁目１３０番地",
    "office_name": "ＩＮＡＸライブミュージアム",
    "office_name_kana": "イナツクスライブミユ-ジアム"
  },
  "8587": {
    "postcode": "4798587",
    "prefecture": "愛知県",
    "prefecture_kana": "アイチケン",
    "prefecture_code": 23,
    "city": "常滑市",
    "city_kana": "トコナメシ",
    "town": "奥栄町",
    "town_kana": "オクエイチョウ",
    "street": "１丁目４７番地",
    "office_name": "株式会社　ＬＩＸＩＬ　常滑東工場",
    "office_name_kana": "カブシキガイシヤ リクシル トコナメヒガシコウジヨウ"
  },
  "8588": {
    "postcode": "4798588",
    "prefecture": "愛知県",
    "prefecture_kana": "アイチケン",
    "prefecture_code": 23,
    "city": "常滑市",
    "city_kana": "トコナメシ",
    "town": "港町",
    "town_kana": "ミナトチョウ",
    "street": "３丁目７７番地",
    "office_name": "株式会社　ＬＩＸＩＬ　榎戸工場",
    "office_name_kana": "カブシキガイシヤ リクシル エノキドコウジヨウ"
  },
  "8589": {
    "postcode": "4798589",
    "prefecture": "愛知県",
    "prefecture_kana": "アイチケン",
    "prefecture_code": 23,
    "city": "常滑市",
    "city_kana": "トコナメシ",
    "town": "大谷",
    "town_kana": "オオタニ",
    "street": "字坂森５０番地",
    "office_name": "株式会社　ＬＩＸＩＬ　大谷工場",
    "office_name_kana": "カブシキガイシヤ リクシル オオタニコウジヨウ"
  },
  "8601": {
    "postcode": "4798601",
    "prefecture": "愛知県",
    "prefecture_kana": "アイチケン",
    "prefecture_code": 23,
    "city": "常滑市",
    "city_kana": "トコナメシ",
    "town": "多屋",
    "town_kana": "タヤ",
    "street": "字茨廻間１番地１１１（常滑郵便局私書箱第５号）",
    "office_name": "あいち知多　農業協同組合",
    "office_name_kana": "アイチチタ ノウギヨウキヨウドウクミアイ"
  },
  "8610": {
    "postcode": "4798610",
    "prefecture": "愛知県",
    "prefecture_kana": "アイチケン",
    "prefecture_code": 23,
    "city": "常滑市",
    "city_kana": "トコナメシ",
    "town": "飛香台",
    "town_kana": "アスカダイ",
    "street": "３丁目３番地の５（常滑郵便局私書箱第１号）",
    "office_name": "常滑市役所",
    "office_name_kana": "トコナメシヤクシヨ"
  },
  "8623": {
    "postcode": "4798623",
    "prefecture": "愛知県",
    "prefecture_kana": "アイチケン",
    "prefecture_code": 23,
    "city": "常滑市",
    "city_kana": "トコナメシ",
    "town": "大曽町",
    "town_kana": "オオソチョウ",
    "street": "３丁目１番地",
    "office_name": "株式会社　マキノ",
    "office_name_kana": "カブシキガイシヤ マキノ"
  },
  "8668": {
    "postcode": "4798668",
    "prefecture": "愛知県",
    "prefecture_kana": "アイチケン",
    "prefecture_code": 23,
    "city": "常滑市",
    "city_kana": "トコナメシ",
    "town": "新開町",
    "town_kana": "シンカイチョウ",
    "street": "５丁目５８（常滑郵便局私書箱第４号）",
    "office_name": "常滑商工会議所",
    "office_name_kana": "トコナメシヨウコウカイギシヨ"
  },
  "8701": {
    "postcode": "4798701",
    "prefecture": "愛知県",
    "prefecture_kana": "アイチケン",
    "prefecture_code": 23,
    "city": "常滑市",
    "city_kana": "トコナメシ",
    "town": "セントレア",
    "town_kana": "セントレア",
    "street": "一丁目１番地第１セントレアビル６Ｆ",
    "office_name": "中部国際空港　株式会社",
    "office_name_kana": "チユウブコクサイクウコウ カブシキガイシヤ"
  },
  "8702": {
    "postcode": "4798702",
    "prefecture": "愛知県",
    "prefecture_kana": "アイチケン",
    "prefecture_code": 23,
    "city": "常滑市",
    "city_kana": "トコナメシ",
    "town": "セントレア",
    "town_kana": "セントレア",
    "street": "一丁目１番地第１セントレアビル２階",
    "office_name": "中部国際空港情報通信　株式会社",
    "office_name_kana": "チユウブコクサイクウコウジヨウホウツウシン カブシキガイシヤ"
  },
  "8703": {
    "postcode": "4798703",
    "prefecture": "愛知県",
    "prefecture_kana": "アイチケン",
    "prefecture_code": 23,
    "city": "常滑市",
    "city_kana": "トコナメシ",
    "town": "セントレア",
    "town_kana": "セントレア",
    "street": "一丁目１番地第１セントレアビル４階",
    "office_name": "中部国際空港施設サービス　株式会社",
    "office_name_kana": "チユウブコクサイクウコウシセツサ-ビス カブシキガイシヤ"
  },
  "8704": {
    "postcode": "4798704",
    "prefecture": "愛知県",
    "prefecture_kana": "アイチケン",
    "prefecture_code": 23,
    "city": "常滑市",
    "city_kana": "トコナメシ",
    "town": "セントレア",
    "town_kana": "セントレア",
    "street": "一丁目１番地第２セントレアビル３階",
    "office_name": "中部国際空港旅客サービス　株式会社",
    "office_name_kana": "チユウブコクサイクウコウリヨキヤクサ-ビス カブシキガイシヤ"
  },
  "8705": {
    "postcode": "4798705",
    "prefecture": "愛知県",
    "prefecture_kana": "アイチケン",
    "prefecture_code": 23,
    "city": "常滑市",
    "city_kana": "トコナメシ",
    "town": "セントレア",
    "town_kana": "セントレア",
    "street": "１丁目１エネルギーセンター",
    "office_name": "中部国際空港エネルギー供給　株式会社",
    "office_name_kana": "チユウブコクサイクウコウエネルギ-キヨウキユウ カブシキガイシヤ"
  },
  "8706": {
    "postcode": "4798706",
    "prefecture": "愛知県",
    "prefecture_kana": "アイチケン",
    "prefecture_code": 23,
    "city": "常滑市",
    "city_kana": "トコナメシ",
    "town": "セントレア",
    "town_kana": "セントレア",
    "street": "５丁目４中部国際空港航空機給油施設内",
    "office_name": "中部国際空港給油施設　株式会社",
    "office_name_kana": "チユウブコクサイクウコウキユウユシセツ カブシキガイシヤ"
  },
  "8707": {
    "postcode": "4798707",
    "prefecture": "愛知県",
    "prefecture_kana": "アイチケン",
    "prefecture_code": 23,
    "city": "常滑市",
    "city_kana": "トコナメシ",
    "town": "セントレア",
    "town_kana": "セントレア",
    "street": "１丁目１番中部空港ＣＩＱ庁舎内",
    "office_name": "名古屋税関中部空港税関支署（中部空港ＣＩＱ庁舎）",
    "office_name_kana": "ナゴヤゼカンチユウブクウコウゼイカンシシヨ(チユウブクウコウCIQチヨウシヤ)"
  },
  "8708": {
    "postcode": "4798708",
    "prefecture": "愛知県",
    "prefecture_kana": "アイチケン",
    "prefecture_code": 23,
    "city": "常滑市",
    "city_kana": "トコナメシ",
    "town": "セントレア",
    "town_kana": "セントレア",
    "street": "１丁目１番中部空港合同庁舎内",
    "office_name": "名古屋税関中部空港税関支署（中部空港合同庁舎）",
    "office_name_kana": "ナゴヤゼカンチユウブクウコウゼイカンシシヨ(チユウブクウコウゴウドウチヨウシヤ)"
  },
  "8711": {
    "postcode": "4798711",
    "prefecture": "愛知県",
    "prefecture_kana": "アイチケン",
    "prefecture_code": 23,
    "city": "常滑市",
    "city_kana": "トコナメシ",
    "town": "セントレア",
    "town_kana": "セントレア",
    "street": "１丁目１番地第１セントレアビル６Ｆ",
    "office_name": "中部国際空港　株式会社　総務部人事グループ新卒採用担当",
    "office_name_kana": "チユウブコクサイクウコウ カブシキガイシヤ ソウムブジンジグル-プシンソツサイヨウタントウ"
  },
  "8712": {
    "postcode": "4798712",
    "prefecture": "愛知県",
    "prefecture_kana": "アイチケン",
    "prefecture_code": 23,
    "city": "常滑市",
    "city_kana": "トコナメシ",
    "town": "セントレア",
    "town_kana": "セントレア",
    "street": "一丁目２番地貨物地区貨物事務棟２Ｆ",
    "office_name": "中部国際空港　株式会社　航空営業部貨物営業グループ",
    "office_name_kana": "チユウブコクサイクウコウ カブシキガイシヤ コウクウエイギヨウブカモツエイギヨウグル-プ"
  },
  "8787": {
    "postcode": "4798787",
    "prefecture": "愛知県",
    "prefecture_kana": "アイチケン",
    "prefecture_code": 23,
    "city": "常滑市",
    "city_kana": "トコナメシ",
    "town": "セントレア",
    "town_kana": "セントレア",
    "street": "１丁目１番",
    "office_name": "国土交通省大阪航空局中部空港事務所",
    "office_name_kana": "コクドコウツウシヨウオオサカコウクウキヨク チユウブクウコウジムシヨ"
  }
}