{
  "0000": {
    "postcode": "4820000",
    "prefecture": "愛知県",
    "prefecture_kana": "アイチケン",
    "prefecture_code": 23,
    "city": "岩倉市",
    "city_kana": "イワクラシ",
    "town": "",
    "town_kana": "",
    "street": null,
    "office_name": null,
    "office_name_kana": null
  },
  "0001": {
    "postcode": "4820001",
    "prefecture": "愛知県",
    "prefecture_kana": "アイチケン",
    "prefecture_code": 23,
    "city": "岩倉市",
    "city_kana": "イワクラシ",
    "town": "東新町",
    "town_kana": "ヒガシシンマチ",
    "street": null,
    "office_name": null,
    "office_name_kana": null
  },
  "0002": {
    "postcode": "4820002",
    "prefecture": "愛知県",
    "prefecture_kana": "アイチケン",
    "prefecture_code": 23,
    "city": "岩倉市",
    "city_kana": "イワクラシ",
    "town": "大市場町",
    "town_kana": "ダイイチバチョウ",
    "street": null,
    "office_name": null,
    "office_name_kana": null
  },
  "0003": {
    "postcode": "4820003",
    "prefecture": "愛知県",
    "prefecture_kana": "アイチケン",
    "prefecture_code": 23,
    "city": "岩倉市",
    "city_kana": "イワクラシ",
    "town": "曽野町",
    "town_kana": "ソノチョウ",
    "street": null,
    "office_name": null,
    "office_name_kana": null
  },
  "0004": {
    "postcode": "4820004",
    "prefecture": "愛知県",
    "prefecture_kana": "アイチケン",
    "prefecture_code": 23,
    "city": "岩倉市",
    "city_kana": "イワクラシ",
    "town": "五条町",
    "town_kana": "ゴジョウチョウ",
    "street": null,
    "office_name": null,
    "office_name_kana": null
  },
  "0005": {
    "postcode": "4820005",
    "prefecture": "愛知県",
    "prefecture_kana": "アイチケン",
    "prefecture_code": 23,
    "city": "岩倉市",
    "city_kana": "イワクラシ",
    "town": "下本町",
    "town_kana": "シモホンマチ",
    "street": null,
    "office_name": null,
    "office_name_kana": null
  },
  "0006": {
    "postcode": "4820006",
    "prefecture": "愛知県",
    "prefecture_kana": "アイチケン",
    "prefecture_code": 23,
    "city": "岩倉市",
    "city_kana": "イワクラシ",
    "town": "稲荷町羽根",
    "town_kana": "イナリチョウハネ",
    "street": null,
    "office_name": null,
    "office_name_kana": null
  },
  "0007": {
    "postcode": "4820007",
    "prefecture": "愛知県",
    "prefecture_kana": "アイチケン",
    "prefecture_code": 23,
    "city": "岩倉市",
    "city_kana": "イワクラシ",
    "town": "大山寺元町",
    "town_kana": "タイサンジモトマチ",
    "street": null,
    "office_name": null,
    "office_name_kana": null
  },
  "0011": {
    "postcode": "4820011",
    "prefecture": "愛知県",
    "prefecture_kana": "アイチケン",
    "prefecture_code": 23,
    "city": "岩倉市",
    "city_kana": "イワクラシ",
    "town": "昭和町",
    "town_kana": "ショウワチョウ",
    "street": null,
    "office_name": null,
    "office_name_kana": null
  },
  "0012": {
    "postcode": "4820012",
    "prefecture": "愛知県",
    "prefecture_kana": "アイチケン",
    "prefecture_code": 23,
    "city": "岩倉市",
    "city_kana": "イワクラシ",
    "town": "稲荷町",
    "town_kana": "イナリチョウ",
    "street": null,
    "office_name": null,
    "office_name_kana": null
  },
  "0013": {
    "postcode": "4820013",
    "prefecture": "愛知県",
    "prefecture_kana": "アイチケン",
    "prefecture_code": 23,
    "city": "岩倉市",
    "city_kana": "イワクラシ",
    "town": "南新町",
    "town_kana": "ミナミシンマチ",
    "street": null,
    "office_name": null,
    "office_name_kana": null
  },
  "0014": {
    "postcode": "4820014",
    "prefecture": "愛知県",
    "prefecture_kana": "アイチケン",
    "prefecture_code": 23,
    "city": "岩倉市",
    "city_kana": "イワクラシ",
    "town": "大山寺町",
    "town_kana": "タイサンジチョウ",
    "street": null,
    "office_name": null,
    "office_name_kana": null
  },
  "0015": {
    "postcode": "4820015",
    "prefecture": "愛知県",
    "prefecture_kana": "アイチケン",
    "prefecture_code": 23,
    "city": "岩倉市",
    "city_kana": "イワクラシ",
    "town": "川井町",
    "town_kana": "カワイチョウ",
    "street": null,
    "office_name": null,
    "office_name_kana": null
  },
  "0016": {
    "postcode": "4820016",
    "prefecture": "愛知県",
    "prefecture_kana": "アイチケン",
    "prefecture_code": 23,
    "city": "岩倉市",
    "city_kana": "イワクラシ",
    "town": "野寄町",
    "town_kana": "ノヨリチョウ",
    "street": null,
    "office_name": null,
    "office_name_kana": null
  },
  "0017": {
    "postcode": "4820017",
    "prefecture": "愛知県",
    "prefecture_kana": "アイチケン",
    "prefecture_code": 23,
    "city": "岩倉市",
    "city_kana": "イワクラシ",
    "town": "北島町",
    "town_kana": "キタジマチョウ",
    "street": null,
    "office_name": null,
    "office_name_kana": null
  },
  "0018": {
    "postcode": "4820018",
    "prefecture": "愛知県",
    "prefecture_kana": "アイチケン",
    "prefecture_code": 23,
    "city": "岩倉市",
    "city_kana": "イワクラシ",
    "town": "大山寺本町",
    "town_kana": "タイサンジホンマチ",
    "street": null,
    "office_name": null,
    "office_name_kana": null
  },
  "0021": {
    "postcode": "4820021",
    "prefecture": "愛知県",
    "prefecture_kana": "アイチケン",
    "prefecture_code": 23,
    "city": "岩倉市",
    "city_kana": "イワクラシ",
    "town": "新柳町",
    "town_kana": "シンヤナギチョウ",
    "street": null,
    "office_name": null,
    "office_name_kana": null
  },
  "0022": {
    "postcode": "4820022",
    "prefecture": "愛知県",
    "prefecture_kana": "アイチケン",
    "prefecture_code": 23,
    "city": "岩倉市",
    "city_kana": "イワクラシ",
    "town": "栄町",
    "town_kana": "サカエマチ",
    "street": null,
    "office_name": null,
    "office_name_kana": null
  },
  "0023": {
    "postcode": "4820023",
    "prefecture": "愛知県",
    "prefecture_kana": "アイチケン",
    "prefecture_code": 23,
    "city": "岩倉市",
    "city_kana": "イワクラシ",
    "town": "中央町",
    "town_kana": "チュウオウチョウ",
    "street": null,
    "office_name": null,
    "office_name_kana": null
  },
  "0024": {
    "postcode": "4820024",
    "prefecture": "愛知県",
    "prefecture_kana": "アイチケン",
    "prefecture_code": 23,
    "city": "岩倉市",
    "city_kana": "イワクラシ",
    "town": "旭町",
    "town_kana": "アサヒマチ",
    "street": null,
    "office_name": null,
    "office_name_kana": null
  },
  "0025": {
    "postcode": "4820025",
    "prefecture": "愛知県",
    "prefecture_kana": "アイチケン",
    "prefecture_code": 23,
    "city": "岩倉市",
    "city_kana": "イワクラシ",
    "town": "大地新町",
    "town_kana": "ダイチシンマチ",
    "street": null,
    "office_name": null,
    "office_name_kana": null
  },
  "0026": {
    "postcode": "4820026",
    "prefecture": "愛知県",
    "prefecture_kana": "アイチケン",
    "prefecture_code": 23,
    "city": "岩倉市",
    "city_kana": "イワクラシ",
    "town": "大地町",
    "town_kana": "ダイチチョウ",
    "street": null,
    "office_name": null,
    "office_name_kana": null
  },
  "0031": {
    "postcode": "4820031",
    "prefecture": "愛知県",
    "prefecture_kana": "アイチケン",
    "prefecture_code": 23,
    "city": "岩倉市",
    "city_kana": "イワクラシ",
    "town": "八剱町",
    "town_kana": "ヤツルギチョウ",
    "street": null,
    "office_name": null,
    "office_name_kana": null
  },
  "0032": {
    "postcode": "4820032",
    "prefecture": "愛知県",
    "prefecture_kana": "アイチケン",
    "prefecture_code": 23,
    "city": "岩倉市",
    "city_kana": "イワクラシ",
    "town": "井上町",
    "town_kana": "イノウエチョウ",
    "street": null,
    "office_name": null,
    "office_name_kana": null
  },
  "0033": {
    "postcode": "4820033",
    "prefecture": "愛知県",
    "prefecture_kana": "アイチケン",
    "prefecture_code": 23,
    "city": "岩倉市",
    "city_kana": "イワクラシ",
    "town": "神野町",
    "town_kana": "カミノチョウ",
    "street": null,
    "office_name": null,
    "office_name_kana": null
  },
  "0034": {
    "postcode": "4820034",
    "prefecture": "愛知県",
    "prefecture_kana": "アイチケン",
    "prefecture_code": 23,
    "city": "岩倉市",
    "city_kana": "イワクラシ",
    "town": "石仏町",
    "town_kana": "イシボトケチョウ",
    "street": null,
    "office_name": null,
    "office_name_kana": null
  },
  "0035": {
    "postcode": "4820035",
    "prefecture": "愛知県",
    "prefecture_kana": "アイチケン",
    "prefecture_code": 23,
    "city": "岩倉市",
    "city_kana": "イワクラシ",
    "town": "鈴井町",
    "town_kana": "スズイチョウ",
    "street": null,
    "office_name": null,
    "office_name_kana": null
  },
  "0036": {
    "postcode": "4820036",
    "prefecture": "愛知県",
    "prefecture_kana": "アイチケン",
    "prefecture_code": 23,
    "city": "岩倉市",
    "city_kana": "イワクラシ",
    "town": "西市町",
    "town_kana": "サイチチョウ",
    "street": null,
    "office_name": null,
    "office_name_kana": null
  },
  "0041": {
    "postcode": "4820041",
    "prefecture": "愛知県",
    "prefecture_kana": "アイチケン",
    "prefecture_code": 23,
    "city": "岩倉市",
    "city_kana": "イワクラシ",
    "town": "東町",
    "town_kana": "ヒガシマチ",
    "street": null,
    "office_name": null,
    "office_name_kana": null
  },
  "0042": {
    "postcode": "4820042",
    "prefecture": "愛知県",
    "prefecture_kana": "アイチケン",
    "prefecture_code": 23,
    "city": "岩倉市",
    "city_kana": "イワクラシ",
    "town": "中本町",
    "town_kana": "ナカホンマチ",
    "street": null,
    "office_name": null,
    "office_name_kana": null
  },
  "0043": {
    "postcode": "4820043",
    "prefecture": "愛知県",
    "prefecture_kana": "アイチケン",
    "prefecture_code": 23,
    "city": "岩倉市",
    "city_kana": "イワクラシ",
    "town": "本町",
    "town_kana": "ホンマチ",
    "street": null,
    "office_name": null,
    "office_name_kana": null
  },
  "0044": {
    "postcode": "4820044",
    "prefecture": "愛知県",
    "prefecture_kana": "アイチケン",
    "prefecture_code": 23,
    "city": "岩倉市",
    "city_kana": "イワクラシ",
    "town": "宮前町",
    "town_kana": "ミヤマエチョウ",
    "street": null,
    "office_name": null,
    "office_name_kana": null
  },
  "0045": {
    "postcode": "4820045",
    "prefecture": "愛知県",
    "prefecture_kana": "アイチケン",
    "prefecture_code": 23,
    "city": "岩倉市",
    "city_kana": "イワクラシ",
    "town": "泉町",
    "town_kana": "イズミチョウ",
    "street": null,
    "office_name": null,
    "office_name_kana": null
  },
  "0046": {
    "postcode": "4820046",
    "prefecture": "愛知県",
    "prefecture_kana": "アイチケン",
    "prefecture_code": 23,
    "city": "岩倉市",
    "city_kana": "イワクラシ",
    "town": "中野町",
    "town_kana": "ナカノチョウ",
    "street": null,
    "office_name": null,
    "office_name_kana": null
  },
  "8501": {
    "postcode": "4828501",
    "prefecture": "愛知県",
    "prefecture_kana": "アイチケン",
    "prefecture_code": 23,
    "city": "岩倉市",
    "city_kana": "イワクラシ",
    "town": "大地町",
    "town_kana": "ダイチチョウ",
    "street": "上千８−１",
    "office_name": "三興石油工業　株式会社",
    "office_name_kana": "サンコウセキユコウギヨウ カブシキガイシヤ"
  },
  "8510": {
    "postcode": "4828510",
    "prefecture": "愛知県",
    "prefecture_kana": "アイチケン",
    "prefecture_code": 23,
    "city": "岩倉市",
    "city_kana": "イワクラシ",
    "town": "川井町",
    "town_kana": "カワイチョウ",
    "street": "１８８０番地",
    "office_name": "石塚硝子　株式会社　岩倉工場",
    "office_name_kana": "イシズカガラス カブシキカイシヤ イワクラコウジヨウ"
  },
  "8511": {
    "postcode": "4828511",
    "prefecture": "愛知県",
    "prefecture_kana": "アイチケン",
    "prefecture_code": 23,
    "city": "岩倉市",
    "city_kana": "イワクラシ",
    "town": "野寄町",
    "town_kana": "ノヨリチョウ",
    "street": "西出１−１",
    "office_name": "ミヨシ油脂　株式会社　名古屋工場",
    "office_name_kana": "ミヨシユシ カブシキガイシヤ ナゴヤコウジヨウ"
  },
  "8555": {
    "postcode": "4828555",
    "prefecture": "愛知県",
    "prefecture_kana": "アイチケン",
    "prefecture_code": 23,
    "city": "岩倉市",
    "city_kana": "イワクラシ",
    "town": "北島町",
    "town_kana": "キタジマチョウ",
    "street": "川田１",
    "office_name": "愛知県立　岩倉総合高等学校",
    "office_name_kana": "アイチケンリツ イワクラソウゴウコウトウガツコウ"
  },
  "8651": {
    "postcode": "4828651",
    "prefecture": "愛知県",
    "prefecture_kana": "アイチケン",
    "prefecture_code": 23,
    "city": "岩倉市",
    "city_kana": "イワクラシ",
    "town": "旭町",
    "town_kana": "アサヒマチ",
    "street": "１丁目２１（岩倉郵便局私書箱第２号）",
    "office_name": "いちい信用金庫　愛北営業部",
    "office_name_kana": "イチイシンヨウキンコ アイホクエイギヨウブ"
  },
  "8652": {
    "postcode": "4828652",
    "prefecture": "愛知県",
    "prefecture_kana": "アイチケン",
    "prefecture_code": 23,
    "city": "岩倉市",
    "city_kana": "イワクラシ",
    "town": "大地町",
    "town_kana": "ダイチチョウ",
    "street": "上千３１（岩倉郵便局私書箱第８号）",
    "office_name": "カウパック　株式会社",
    "office_name_kana": "カウパツク カブシキガイシヤ"
  },
  "8660": {
    "postcode": "4828660",
    "prefecture": "愛知県",
    "prefecture_kana": "アイチケン",
    "prefecture_code": 23,
    "city": "岩倉市",
    "city_kana": "イワクラシ",
    "town": "川井町",
    "town_kana": "カワイチョウ",
    "street": "下田南１番地９ＭＦＬＰ名古屋岩倉（株）ゲオ",
    "office_name": "株式会社　ゲオ",
    "office_name_kana": "カブシキガイシヤ ゲオ"
  },
  "8686": {
    "postcode": "4828686",
    "prefecture": "愛知県",
    "prefecture_kana": "アイチケン",
    "prefecture_code": 23,
    "city": "岩倉市",
    "city_kana": "イワクラシ",
    "town": "栄町",
    "town_kana": "サカエマチ",
    "street": "１丁目６６",
    "office_name": "岩倉市役所",
    "office_name_kana": "イワクラシヤクシヨ"
  }
}