{
  "0000": {
    "postcode": "4850000",
    "prefecture": "愛知県",
    "prefecture_kana": "アイチケン",
    "prefecture_code": 23,
    "city": "小牧市",
    "city_kana": "コマキシ",
    "town": "",
    "town_kana": "",
    "street": null,
    "office_name": null,
    "office_name_kana": null
  },
  "0001": {
    "postcode": "4850001",
    "prefecture": "愛知県",
    "prefecture_kana": "アイチケン",
    "prefecture_code": 23,
    "city": "小牧市",
    "city_kana": "コマキシ",
    "town": "久保一色東",
    "town_kana": "クボイシキヒガシ",
    "street": null,
    "office_name": null,
    "office_name_kana": null
  },
  "0002": {
    "postcode": "4850002",
    "prefecture": "愛知県",
    "prefecture_kana": "アイチケン",
    "prefecture_code": 23,
    "city": "小牧市",
    "city_kana": "コマキシ",
    "town": "葭原",
    "town_kana": "ヨシハラ",
    "street": null,
    "office_name": null,
    "office_name_kana": null
  },
  "0003": {
    "postcode": "4850003",
    "prefecture": "愛知県",
    "prefecture_kana": "アイチケン",
    "prefecture_code": 23,
    "city": "小牧市",
    "city_kana": "コマキシ",
    "town": "久保一色",
    "town_kana": "クボイシキ",
    "street": null,
    "office_name": null,
    "office_name_kana": null
  },
  "0004": {
    "postcode": "4850004",
    "prefecture": "愛知県",
    "prefecture_kana": "アイチケン",
    "prefecture_code": 23,
    "city": "小牧市",
    "city_kana": "コマキシ",
    "town": "田県町",
    "town_kana": "タガタチョウ",
    "street": null,
    "office_name": null,
    "office_name_kana": null
  },
  "0005": {
    "postcode": "4850005",
    "prefecture": "愛知県",
    "prefecture_kana": "アイチケン",
    "prefecture_code": 23,
    "city": "小牧市",
    "city_kana": "コマキシ",
    "town": "久保本町",
    "town_kana": "クボホンマチ",
    "street": null,
    "office_name": null,
    "office_name_kana": null
  },
  "0006": {
    "postcode": "4850006",
    "prefecture": "愛知県",
    "prefecture_kana": "アイチケン",
    "prefecture_code": 23,
    "city": "小牧市",
    "city_kana": "コマキシ",
    "town": "久保新町",
    "town_kana": "クボシンマチ",
    "street": null,
    "office_name": null,
    "office_name_kana": null
  },
  "0007": {
    "postcode": "4850007",
    "prefecture": "愛知県",
    "prefecture_kana": "アイチケン",
    "prefecture_code": 23,
    "city": "小牧市",
    "city_kana": "コマキシ",
    "town": "久保一色南",
    "town_kana": "クボイシキミナミ",
    "street": null,
    "office_name": null,
    "office_name_kana": null
  },
  "0008": {
    "postcode": "4850008",
    "prefecture": "愛知県",
    "prefecture_kana": "アイチケン",
    "prefecture_code": 23,
    "city": "小牧市",
    "city_kana": "コマキシ",
    "town": "寺西",
    "town_kana": "テラニシ",
    "street": null,
    "office_name": null,
    "office_name_kana": null
  },
  "0009": {
    "postcode": "4850009",
    "prefecture": "愛知県",
    "prefecture_kana": "アイチケン",
    "prefecture_code": 23,
    "city": "小牧市",
    "city_kana": "コマキシ",
    "town": "久保",
    "town_kana": "クボ",
    "street": null,
    "office_name": null,
    "office_name_kana": null
  },
  "0011": {
    "postcode": "4850011",
    "prefecture": "愛知県",
    "prefecture_kana": "アイチケン",
    "prefecture_code": 23,
    "city": "小牧市",
    "city_kana": "コマキシ",
    "town": "岩崎",
    "town_kana": "イワザキ",
    "street": null,
    "office_name": null,
    "office_name_kana": null
  },
  "0012": {
    "postcode": "4850012",
    "prefecture": "愛知県",
    "prefecture_kana": "アイチケン",
    "prefecture_code": 23,
    "city": "小牧市",
    "city_kana": "コマキシ",
    "town": "小牧原新田",
    "town_kana": "コマキハラシンデン",
    "street": null,
    "office_name": null,
    "office_name_kana": null
  },
  "0013": {
    "postcode": "4850013",
    "prefecture": "愛知県",
    "prefecture_kana": "アイチケン",
    "prefecture_code": 23,
    "city": "小牧市",
    "city_kana": "コマキシ",
    "town": "新町",
    "town_kana": "シンマチ",
    "street": null,
    "office_name": null,
    "office_name_kana": null
  },
  "0014": {
    "postcode": "4850014",
    "prefecture": "愛知県",
    "prefecture_kana": "アイチケン",
    "prefecture_code": 23,
    "city": "小牧市",
    "city_kana": "コマキシ",
    "town": "安田町",
    "town_kana": "ヤスダチョウ",
    "street": null,
    "office_name": null,
    "office_name_kana": null
  },
  "0015": {
    "postcode": "4850015",
    "prefecture": "愛知県",
    "prefecture_kana": "アイチケン",
    "prefecture_code": 23,
    "city": "小牧市",
    "city_kana": "コマキシ",
    "town": "間々",
    "town_kana": "ママ",
    "street": null,
    "office_name": null,
    "office_name_kana": null
  },
  "0016": {
    "postcode": "4850016",
    "prefecture": "愛知県",
    "prefecture_kana": "アイチケン",
    "prefecture_code": 23,
    "city": "小牧市",
    "city_kana": "コマキシ",
    "town": "間々原新田",
    "town_kana": "ママハラシンデン",
    "street": null,
    "office_name": null,
    "office_name_kana": null
  },
  "0017": {
    "postcode": "4850017",
    "prefecture": "愛知県",
    "prefecture_kana": "アイチケン",
    "prefecture_code": 23,
    "city": "小牧市",
    "city_kana": "コマキシ",
    "town": "岩崎原",
    "town_kana": "イワザキハラ",
    "street": null,
    "office_name": null,
    "office_name_kana": null
  },
  "0021": {
    "postcode": "4850021",
    "prefecture": "愛知県",
    "prefecture_kana": "アイチケン",
    "prefecture_code": 23,
    "city": "小牧市",
    "city_kana": "コマキシ",
    "town": "二重堀",
    "town_kana": "フタエボリ",
    "street": null,
    "office_name": null,
    "office_name_kana": null
  },
  "0022": {
    "postcode": "4850022",
    "prefecture": "愛知県",
    "prefecture_kana": "アイチケン",
    "prefecture_code": 23,
    "city": "小牧市",
    "city_kana": "コマキシ",
    "town": "北外山入鹿新田",
    "town_kana": "キタトヤマイルカシンデン",
    "street": null,
    "office_name": null,
    "office_name_kana": null
  },
  "0023": {
    "postcode": "4850023",
    "prefecture": "愛知県",
    "prefecture_kana": "アイチケン",
    "prefecture_code": 23,
    "city": "小牧市",
    "city_kana": "コマキシ",
    "town": "北外山",
    "town_kana": "キタトヤマ",
    "street": null,
    "office_name": null,
    "office_name_kana": null
  },
  "0024": {
    "postcode": "4850024",
    "prefecture": "愛知県",
    "prefecture_kana": "アイチケン",
    "prefecture_code": 23,
    "city": "小牧市",
    "city_kana": "コマキシ",
    "town": "南外山",
    "town_kana": "ミナミトヤマ",
    "street": null,
    "office_name": null,
    "office_name_kana": null
  },
  "0025": {
    "postcode": "4850025",
    "prefecture": "愛知県",
    "prefecture_kana": "アイチケン",
    "prefecture_code": 23,
    "city": "小牧市",
    "city_kana": "コマキシ",
    "town": "春日寺",
    "town_kana": "カスガンジ",
    "street": null,
    "office_name": null,
    "office_name_kana": null
  },
  "0026": [
    {
      "postcode": "4850026",
      "prefecture": "愛知県",
      "prefecture_kana": "アイチケン",
      "prefecture_code": 23,
      "city": "小牧市",
      "city_kana": "コマキシ",
      "town": "大山",
      "town_kana": "オオヤマ",
      "street": null,
      "office_name": null,
      "office_name_kana": null
    },
    {
      "postcode": "4850026",
      "prefecture": "愛知県",
      "prefecture_kana": "アイチケン",
      "prefecture_code": 23,
      "city": "小牧市",
      "city_kana": "コマキシ",
      "town": "大山小牧大山",
      "town_kana": "オオヤマコマキオオヤマ",
      "street": null,
      "office_name": null,
      "office_name_kana": null
    }
  ],
  "0027": {
    "postcode": "4850027",
    "prefecture": "愛知県",
    "prefecture_kana": "アイチケン",
    "prefecture_code": 23,
    "city": "小牧市",
    "city_kana": "コマキシ",
    "town": "緑町",
    "town_kana": "ミドリマチ",
    "street": null,
    "office_name": null,
    "office_name_kana": null
  },
  "0028": {
    "postcode": "4850028",
    "prefecture": "愛知県",
    "prefecture_kana": "アイチケン",
    "prefecture_code": 23,
    "city": "小牧市",
    "city_kana": "コマキシ",
    "town": "東新町",
    "town_kana": "ヒガシシンマチ",
    "street": null,
    "office_name": null,
    "office_name_kana": null
  },
  "0029": {
    "postcode": "4850029",
    "prefecture": "愛知県",
    "prefecture_kana": "アイチケン",
    "prefecture_code": 23,
    "city": "小牧市",
    "city_kana": "コマキシ",
    "town": "中央",
    "town_kana": "チュウオウ",
    "street": null,
    "office_name": null,
    "office_name_kana": null
  },
  "0031": {
    "postcode": "4850031",
    "prefecture": "愛知県",
    "prefecture_kana": "アイチケン",
    "prefecture_code": 23,
    "city": "小牧市",
    "city_kana": "コマキシ",
    "town": "若草町",
    "town_kana": "ワカクサチョウ",
    "street": null,
    "office_name": null,
    "office_name_kana": null
  },
  "0032": {
    "postcode": "4850032",
    "prefecture": "愛知県",
    "prefecture_kana": "アイチケン",
    "prefecture_code": 23,
    "city": "小牧市",
    "city_kana": "コマキシ",
    "town": "掛割町",
    "town_kana": "カケワリチョウ",
    "street": null,
    "office_name": null,
    "office_name_kana": null
  },
  "0033": {
    "postcode": "4850033",
    "prefecture": "愛知県",
    "prefecture_kana": "アイチケン",
    "prefecture_code": 23,
    "city": "小牧市",
    "city_kana": "コマキシ",
    "town": "郷中",
    "town_kana": "ゴウナカ",
    "street": null,
    "office_name": null,
    "office_name_kana": null
  },
  "0034": {
    "postcode": "4850034",
    "prefecture": "愛知県",
    "prefecture_kana": "アイチケン",
    "prefecture_code": 23,
    "city": "小牧市",
    "city_kana": "コマキシ",
    "town": "市之久田",
    "town_kana": "イチノクタ",
    "street": null,
    "office_name": null,
    "office_name_kana": null
  },
  "0035": {
    "postcode": "4850035",
    "prefecture": "愛知県",
    "prefecture_kana": "アイチケン",
    "prefecture_code": 23,
    "city": "小牧市",
    "city_kana": "コマキシ",
    "town": "多気東町",
    "town_kana": "タキヒガシマチ",
    "street": null,
    "office_name": null,
    "office_name_kana": null
  },
  "0036": {
    "postcode": "4850036",
    "prefecture": "愛知県",
    "prefecture_kana": "アイチケン",
    "prefecture_code": 23,
    "city": "小牧市",
    "city_kana": "コマキシ",
    "town": "下小針天神",
    "town_kana": "シモオバリテンジン",
    "street": null,
    "office_name": null,
    "office_name_kana": null
  },
  "0037": {
    "postcode": "4850037",
    "prefecture": "愛知県",
    "prefecture_kana": "アイチケン",
    "prefecture_code": 23,
    "city": "小牧市",
    "city_kana": "コマキシ",
    "town": "小針",
    "town_kana": "オバリ",
    "street": null,
    "office_name": null,
    "office_name_kana": null
  },
  "0039": {
    "postcode": "4850039",
    "prefecture": "愛知県",
    "prefecture_kana": "アイチケン",
    "prefecture_code": 23,
    "city": "小牧市",
    "city_kana": "コマキシ",
    "town": "外堀",
    "town_kana": "ソトボリ",
    "street": null,
    "office_name": null,
    "office_name_kana": null
  },
  "0041": {
    "postcode": "4850041",
    "prefecture": "愛知県",
    "prefecture_kana": "アイチケン",
    "prefecture_code": 23,
    "city": "小牧市",
    "city_kana": "コマキシ",
    "town": "小牧",
    "town_kana": "コマキ",
    "street": null,
    "office_name": null,
    "office_name_kana": null
  },
  "0042": {
    "postcode": "4850042",
    "prefecture": "愛知県",
    "prefecture_kana": "アイチケン",
    "prefecture_code": 23,
    "city": "小牧市",
    "city_kana": "コマキシ",
    "town": "桜井",
    "town_kana": "サクライ",
    "street": null,
    "office_name": null,
    "office_name_kana": null
  },
  "0043": {
    "postcode": "4850043",
    "prefecture": "愛知県",
    "prefecture_kana": "アイチケン",
    "prefecture_code": 23,
    "city": "小牧市",
    "city_kana": "コマキシ",
    "town": "桜井本町",
    "town_kana": "サクライホンマチ",
    "street": null,
    "office_name": null,
    "office_name_kana": null
  },
  "0044": {
    "postcode": "4850044",
    "prefecture": "愛知県",
    "prefecture_kana": "アイチケン",
    "prefecture_code": 23,
    "city": "小牧市",
    "city_kana": "コマキシ",
    "town": "常普請",
    "town_kana": "ジョウブシ",
    "street": null,
    "office_name": null,
    "office_name_kana": null
  },
  "0045": {
    "postcode": "4850045",
    "prefecture": "愛知県",
    "prefecture_kana": "アイチケン",
    "prefecture_code": 23,
    "city": "小牧市",
    "city_kana": "コマキシ",
    "town": "川西",
    "town_kana": "カワニシ",
    "street": null,
    "office_name": null,
    "office_name_kana": null
  },
  "0046": {
    "postcode": "4850046",
    "prefecture": "愛知県",
    "prefecture_kana": "アイチケン",
    "prefecture_code": 23,
    "city": "小牧市",
    "city_kana": "コマキシ",
    "town": "堀の内",
    "town_kana": "ホリノウチ",
    "street": null,
    "office_name": null,
    "office_name_kana": null
  },
  "0047": {
    "postcode": "4850047",
    "prefecture": "愛知県",
    "prefecture_kana": "アイチケン",
    "prefecture_code": 23,
    "city": "小牧市",
    "city_kana": "コマキシ",
    "town": "曙町",
    "town_kana": "アケボノチョウ",
    "street": null,
    "office_name": null,
    "office_name_kana": null
  },
  "0048": {
    "postcode": "4850048",
    "prefecture": "愛知県",
    "prefecture_kana": "アイチケン",
    "prefecture_code": 23,
    "city": "小牧市",
    "city_kana": "コマキシ",
    "town": "間々本町",
    "town_kana": "ママホンマチ",
    "street": null,
    "office_name": null,
    "office_name_kana": null
  },
  "0049": {
    "postcode": "4850049",
    "prefecture": "愛知県",
    "prefecture_kana": "アイチケン",
    "prefecture_code": 23,
    "city": "小牧市",
    "city_kana": "コマキシ",
    "town": "山北町",
    "town_kana": "ヤマキタチョウ",
    "street": null,
    "office_name": null,
    "office_name_kana": null
  },
  "0051": {
    "postcode": "4850051",
    "prefecture": "愛知県",
    "prefecture_kana": "アイチケン",
    "prefecture_code": 23,
    "city": "小牧市",
    "city_kana": "コマキシ",
    "town": "下小針中島",
    "town_kana": "シモオバリナカシマ",
    "street": null,
    "office_name": null,
    "office_name_kana": null
  },
  "0052": {
    "postcode": "4850052",
    "prefecture": "愛知県",
    "prefecture_kana": "アイチケン",
    "prefecture_code": 23,
    "city": "小牧市",
    "city_kana": "コマキシ",
    "town": "多気中町",
    "town_kana": "タキナカマチ",
    "street": null,
    "office_name": null,
    "office_name_kana": null
  },
  "0053": {
    "postcode": "4850053",
    "prefecture": "愛知県",
    "prefecture_kana": "アイチケン",
    "prefecture_code": 23,
    "city": "小牧市",
    "city_kana": "コマキシ",
    "town": "多気南町",
    "town_kana": "タキミナミマチ",
    "street": null,
    "office_name": null,
    "office_name_kana": null
  },
  "0054": {
    "postcode": "4850054",
    "prefecture": "愛知県",
    "prefecture_kana": "アイチケン",
    "prefecture_code": 23,
    "city": "小牧市",
    "city_kana": "コマキシ",
    "town": "多気西町",
    "town_kana": "タキニシマチ",
    "street": null,
    "office_name": null,
    "office_name_kana": null
  },
  "0055": {
    "postcode": "4850055",
    "prefecture": "愛知県",
    "prefecture_kana": "アイチケン",
    "prefecture_code": 23,
    "city": "小牧市",
    "city_kana": "コマキシ",
    "town": "多気北町",
    "town_kana": "タキキタマチ",
    "street": null,
    "office_name": null,
    "office_name_kana": null
  },
  "0056": {
    "postcode": "4850056",
    "prefecture": "愛知県",
    "prefecture_kana": "アイチケン",
    "prefecture_code": 23,
    "city": "小牧市",
    "city_kana": "コマキシ",
    "town": "小木南",
    "town_kana": "コキミナミ",
    "street": null,
    "office_name": null,
    "office_name_kana": null
  },
  "0057": {
    "postcode": "4850057",
    "prefecture": "愛知県",
    "prefecture_kana": "アイチケン",
    "prefecture_code": 23,
    "city": "小牧市",
    "city_kana": "コマキシ",
    "town": "小木西",
    "town_kana": "コキニシ",
    "street": null,
    "office_name": null,
    "office_name_kana": null
  },
  "0058": {
    "postcode": "4850058",
    "prefecture": "愛知県",
    "prefecture_kana": "アイチケン",
    "prefecture_code": 23,
    "city": "小牧市",
    "city_kana": "コマキシ",
    "town": "小木",
    "town_kana": "コキ",
    "street": null,
    "office_name": null,
    "office_name_kana": null
  },
  "0059": {
    "postcode": "4850059",
    "prefecture": "愛知県",
    "prefecture_kana": "アイチケン",
    "prefecture_code": 23,
    "city": "小牧市",
    "city_kana": "コマキシ",
    "town": "小木東",
    "town_kana": "コキヒガシ",
    "street": null,
    "office_name": null,
    "office_name_kana": null
  },
  "0061": {
    "postcode": "4850061",
    "prefecture": "愛知県",
    "prefecture_kana": "アイチケン",
    "prefecture_code": 23,
    "city": "小牧市",
    "city_kana": "コマキシ",
    "town": "藤島町向江",
    "town_kana": "フジシマチョウムカエ",
    "street": null,
    "office_name": null,
    "office_name_kana": null
  },
  "0062": {
    "postcode": "4850062",
    "prefecture": "愛知県",
    "prefecture_kana": "アイチケン",
    "prefecture_code": 23,
    "city": "小牧市",
    "city_kana": "コマキシ",
    "town": "藤島町中島",
    "town_kana": "フジシマチョウナカジマ",
    "street": null,
    "office_name": null,
    "office_name_kana": null
  },
  "0063": {
    "postcode": "4850063",
    "prefecture": "愛知県",
    "prefecture_kana": "アイチケン",
    "prefecture_code": 23,
    "city": "小牧市",
    "city_kana": "コマキシ",
    "town": "藤島町鏡池",
    "town_kana": "フジシマチョウカガミイケ",
    "street": null,
    "office_name": null,
    "office_name_kana": null
  },
  "0064": {
    "postcode": "4850064",
    "prefecture": "愛知県",
    "prefecture_kana": "アイチケン",
    "prefecture_code": 23,
    "city": "小牧市",
    "city_kana": "コマキシ",
    "town": "藤島町徳願寺",
    "town_kana": "フジシマチョウトクガンジ",
    "street": null,
    "office_name": null,
    "office_name_kana": null
  },
  "0065": {
    "postcode": "4850065",
    "prefecture": "愛知県",
    "prefecture_kana": "アイチケン",
    "prefecture_code": 23,
    "city": "小牧市",
    "city_kana": "コマキシ",
    "town": "藤島町五才田",
    "town_kana": "フジシマチョウゴサイデン",
    "street": null,
    "office_name": null,
    "office_name_kana": null
  },
  "0066": {
    "postcode": "4850066",
    "prefecture": "愛知県",
    "prefecture_kana": "アイチケン",
    "prefecture_code": 23,
    "city": "小牧市",
    "city_kana": "コマキシ",
    "town": "藤島町出口",
    "town_kana": "フジシマチョウデグチ",
    "street": null,
    "office_name": null,
    "office_name_kana": null
  },
  "0067": {
    "postcode": "4850067",
    "prefecture": "愛知県",
    "prefecture_kana": "アイチケン",
    "prefecture_code": 23,
    "city": "小牧市",
    "city_kana": "コマキシ",
    "town": "藤島町居屋敷",
    "town_kana": "フジシマチョウイヤシキ",
    "street": null,
    "office_name": null,
    "office_name_kana": null
  },
  "0068": {
    "postcode": "4850068",
    "prefecture": "愛知県",
    "prefecture_kana": "アイチケン",
    "prefecture_code": 23,
    "city": "小牧市",
    "city_kana": "コマキシ",
    "town": "藤島",
    "town_kana": "フジシマ",
    "street": null,
    "office_name": null,
    "office_name_kana": null
  },
  "0069": {
    "postcode": "4850069",
    "prefecture": "愛知県",
    "prefecture_kana": "アイチケン",
    "prefecture_code": 23,
    "city": "小牧市",
    "city_kana": "コマキシ",
    "town": "藤島町梵天",
    "town_kana": "フジシマチョウボンテン",
    "street": null,
    "office_name": null,
    "office_name_kana": null
  },
  "0071": {
    "postcode": "4850071",
    "prefecture": "愛知県",
    "prefecture_kana": "アイチケン",
    "prefecture_code": 23,
    "city": "小牧市",
    "city_kana": "コマキシ",
    "town": "弥生町",
    "town_kana": "ヤヨイチョウ",
    "street": null,
    "office_name": null,
    "office_name_kana": null
  },
  "0072": {
    "postcode": "4850072",
    "prefecture": "愛知県",
    "prefecture_kana": "アイチケン",
    "prefecture_code": 23,
    "city": "小牧市",
    "city_kana": "コマキシ",
    "town": "元町",
    "town_kana": "モトマチ",
    "street": null,
    "office_name": null,
    "office_name_kana": null
  },
  "0073": {
    "postcode": "4850073",
    "prefecture": "愛知県",
    "prefecture_kana": "アイチケン",
    "prefecture_code": 23,
    "city": "小牧市",
    "city_kana": "コマキシ",
    "town": "舟津",
    "town_kana": "フナツ",
    "street": null,
    "office_name": null,
    "office_name_kana": null
  },
  "0074": {
    "postcode": "4850074",
    "prefecture": "愛知県",
    "prefecture_kana": "アイチケン",
    "prefecture_code": 23,
    "city": "小牧市",
    "city_kana": "コマキシ",
    "town": "新小木",
    "town_kana": "シンコキ",
    "street": null,
    "office_name": null,
    "office_name_kana": null
  },
  "0075": {
    "postcode": "4850075",
    "prefecture": "愛知県",
    "prefecture_kana": "アイチケン",
    "prefecture_code": 23,
    "city": "小牧市",
    "city_kana": "コマキシ",
    "town": "三ツ渕",
    "town_kana": "ミツブチ",
    "street": null,
    "office_name": null,
    "office_name_kana": null
  },
  "0076": {
    "postcode": "4850076",
    "prefecture": "愛知県",
    "prefecture_kana": "アイチケン",
    "prefecture_code": 23,
    "city": "小牧市",
    "city_kana": "コマキシ",
    "town": "三ツ渕原新田",
    "town_kana": "ミツブチハラシンデン",
    "street": null,
    "office_name": null,
    "office_name_kana": null
  },
  "0077": {
    "postcode": "4850077",
    "prefecture": "愛知県",
    "prefecture_kana": "アイチケン",
    "prefecture_code": 23,
    "city": "小牧市",
    "city_kana": "コマキシ",
    "town": "西之島",
    "town_kana": "ニシノシマ",
    "street": null,
    "office_name": null,
    "office_name_kana": null
  },
  "0078": {
    "postcode": "4850078",
    "prefecture": "愛知県",
    "prefecture_kana": "アイチケン",
    "prefecture_code": 23,
    "city": "小牧市",
    "city_kana": "コマキシ",
    "town": "西島町",
    "town_kana": "ニシジマチョウ",
    "street": null,
    "office_name": null,
    "office_name_kana": null
  },
  "0081": {
    "postcode": "4850081",
    "prefecture": "愛知県",
    "prefecture_kana": "アイチケン",
    "prefecture_code": 23,
    "city": "小牧市",
    "city_kana": "コマキシ",
    "town": "横内",
    "town_kana": "ヨコウチ",
    "street": null,
    "office_name": null,
    "office_name_kana": null
  },
  "0082": {
    "postcode": "4850082",
    "prefecture": "愛知県",
    "prefecture_kana": "アイチケン",
    "prefecture_code": 23,
    "city": "小牧市",
    "city_kana": "コマキシ",
    "town": "村中",
    "town_kana": "ムラナカ",
    "street": null,
    "office_name": null,
    "office_name_kana": null
  },
  "0083": {
    "postcode": "4850083",
    "prefecture": "愛知県",
    "prefecture_kana": "アイチケン",
    "prefecture_code": 23,
    "city": "小牧市",
    "city_kana": "コマキシ",
    "town": "村中新町",
    "town_kana": "ムラナカシンマチ",
    "street": null,
    "office_name": null,
    "office_name_kana": null
  },
  "0084": {
    "postcode": "4850084",
    "prefecture": "愛知県",
    "prefecture_kana": "アイチケン",
    "prefecture_code": 23,
    "city": "小牧市",
    "city_kana": "コマキシ",
    "town": "入鹿出新田",
    "town_kana": "イルカデシンデン",
    "street": null,
    "office_name": null,
    "office_name_kana": null
  },
  "0085": {
    "postcode": "4850085",
    "prefecture": "愛知県",
    "prefecture_kana": "アイチケン",
    "prefecture_code": 23,
    "city": "小牧市",
    "city_kana": "コマキシ",
    "town": "河内屋新田",
    "town_kana": "カワチヤシンデン",
    "street": null,
    "office_name": null,
    "office_name_kana": null
  },
  "0801": [
    {
      "postcode": "4850801",
      "prefecture": "愛知県",
      "prefecture_kana": "アイチケン",
      "prefecture_code": 23,
      "city": "小牧市",
      "city_kana": "コマキシ",
      "town": "大山",
      "town_kana": "オオヤマ",
      "street": null,
      "office_name": null,
      "office_name_kana": null
    },
    {
      "postcode": "4850801",
      "prefecture": "愛知県",
      "prefecture_kana": "アイチケン",
      "prefecture_code": 23,
      "city": "小牧市",
      "city_kana": "コマキシ",
      "town": "大山篠岡大山",
      "town_kana": "オオヤマシノオカオオヤマ",
      "street": null,
      "office_name": null,
      "office_name_kana": null
    }
  ],
  "0802": {
    "postcode": "4850802",
    "prefecture": "愛知県",
    "prefecture_kana": "アイチケン",
    "prefecture_code": 23,
    "city": "小牧市",
    "city_kana": "コマキシ",
    "town": "大草",
    "town_kana": "オオクサ",
    "street": null,
    "office_name": null,
    "office_name_kana": null
  },
  "0803": {
    "postcode": "4850803",
    "prefecture": "愛知県",
    "prefecture_kana": "アイチケン",
    "prefecture_code": 23,
    "city": "小牧市",
    "city_kana": "コマキシ",
    "town": "高根",
    "town_kana": "タカネ",
    "street": null,
    "office_name": null,
    "office_name_kana": null
  },
  "0804": {
    "postcode": "4850804",
    "prefecture": "愛知県",
    "prefecture_kana": "アイチケン",
    "prefecture_code": 23,
    "city": "小牧市",
    "city_kana": "コマキシ",
    "town": "池之内",
    "town_kana": "イケノウチ",
    "street": null,
    "office_name": null,
    "office_name_kana": null
  },
  "0805": {
    "postcode": "4850805",
    "prefecture": "愛知県",
    "prefecture_kana": "アイチケン",
    "prefecture_code": 23,
    "city": "小牧市",
    "city_kana": "コマキシ",
    "town": "林",
    "town_kana": "ハヤシ",
    "street": null,
    "office_name": null,
    "office_name_kana": null
  },
  "0806": {
    "postcode": "4850806",
    "prefecture": "愛知県",
    "prefecture_kana": "アイチケン",
    "prefecture_code": 23,
    "city": "小牧市",
    "city_kana": "コマキシ",
    "town": "野口",
    "town_kana": "ノグチ",
    "street": null,
    "office_name": null,
    "office_name_kana": null
  },
  "0811": {
    "postcode": "4850811",
    "prefecture": "愛知県",
    "prefecture_kana": "アイチケン",
    "prefecture_code": 23,
    "city": "小牧市",
    "city_kana": "コマキシ",
    "town": "光ケ丘",
    "town_kana": "ヒカリガオカ",
    "street": null,
    "office_name": null,
    "office_name_kana": null
  },
  "0812": {
    "postcode": "4850812",
    "prefecture": "愛知県",
    "prefecture_kana": "アイチケン",
    "prefecture_code": 23,
    "city": "小牧市",
    "city_kana": "コマキシ",
    "town": "城山",
    "town_kana": "シロヤマ",
    "street": null,
    "office_name": null,
    "office_name_kana": null
  },
  "0813": {
    "postcode": "4850813",
    "prefecture": "愛知県",
    "prefecture_kana": "アイチケン",
    "prefecture_code": 23,
    "city": "小牧市",
    "city_kana": "コマキシ",
    "town": "桃ケ丘",
    "town_kana": "モモガオカ",
    "street": null,
    "office_name": null,
    "office_name_kana": null
  },
  "0814": {
    "postcode": "4850814",
    "prefecture": "愛知県",
    "prefecture_kana": "アイチケン",
    "prefecture_code": 23,
    "city": "小牧市",
    "city_kana": "コマキシ",
    "town": "古雅",
    "town_kana": "コガ",
    "street": null,
    "office_name": null,
    "office_name_kana": null
  },
  "0815": {
    "postcode": "4850815",
    "prefecture": "愛知県",
    "prefecture_kana": "アイチケン",
    "prefecture_code": 23,
    "city": "小牧市",
    "city_kana": "コマキシ",
    "town": "篠岡",
    "town_kana": "シノオカ",
    "street": null,
    "office_name": null,
    "office_name_kana": null
  },
  "0821": {
    "postcode": "4850821",
    "prefecture": "愛知県",
    "prefecture_kana": "アイチケン",
    "prefecture_code": 23,
    "city": "小牧市",
    "city_kana": "コマキシ",
    "town": "本庄",
    "town_kana": "ホンジョウ",
    "street": null,
    "office_name": null,
    "office_name_kana": null
  },
  "0822": {
    "postcode": "4850822",
    "prefecture": "愛知県",
    "prefecture_kana": "アイチケン",
    "prefecture_code": 23,
    "city": "小牧市",
    "city_kana": "コマキシ",
    "town": "上末",
    "town_kana": "カミズエ",
    "street": null,
    "office_name": null,
    "office_name_kana": null
  },
  "0823": {
    "postcode": "4850823",
    "prefecture": "愛知県",
    "prefecture_kana": "アイチケン",
    "prefecture_code": 23,
    "city": "小牧市",
    "city_kana": "コマキシ",
    "town": "郷西町",
    "town_kana": "ゴウニシチョウ",
    "street": null,
    "office_name": null,
    "office_name_kana": null
  },
  "0824": {
    "postcode": "4850824",
    "prefecture": "愛知県",
    "prefecture_kana": "アイチケン",
    "prefecture_code": 23,
    "city": "小牧市",
    "city_kana": "コマキシ",
    "town": "長治町",
    "town_kana": "ナガハルチョウ",
    "street": null,
    "office_name": null,
    "office_name_kana": null
  },
  "0825": {
    "postcode": "4850825",
    "prefecture": "愛知県",
    "prefecture_kana": "アイチケン",
    "prefecture_code": 23,
    "city": "小牧市",
    "city_kana": "コマキシ",
    "town": "下末",
    "town_kana": "シモズエ",
    "street": null,
    "office_name": null,
    "office_name_kana": null
  },
  "0826": {
    "postcode": "4850826",
    "prefecture": "愛知県",
    "prefecture_kana": "アイチケン",
    "prefecture_code": 23,
    "city": "小牧市",
    "city_kana": "コマキシ",
    "town": "東田中",
    "town_kana": "ヒガシタナカ",
    "street": null,
    "office_name": null,
    "office_name_kana": null
  },
  "0827": {
    "postcode": "4850827",
    "prefecture": "愛知県",
    "prefecture_kana": "アイチケン",
    "prefecture_code": 23,
    "city": "小牧市",
    "city_kana": "コマキシ",
    "town": "文津",
    "town_kana": "フミツ",
    "street": null,
    "office_name": null,
    "office_name_kana": null
  },
  "0828": {
    "postcode": "4850828",
    "prefecture": "愛知県",
    "prefecture_kana": "アイチケン",
    "prefecture_code": 23,
    "city": "小牧市",
    "city_kana": "コマキシ",
    "town": "小松寺",
    "town_kana": "コマツジ",
    "street": null,
    "office_name": null,
    "office_name_kana": null
  },
  "0829": {
    "postcode": "4850829",
    "prefecture": "愛知県",
    "prefecture_kana": "アイチケン",
    "prefecture_code": 23,
    "city": "小牧市",
    "city_kana": "コマキシ",
    "town": "小牧原",
    "town_kana": "コマキハラ",
    "street": null,
    "office_name": null,
    "office_name_kana": null
  },
  "0831": {
    "postcode": "4850831",
    "prefecture": "愛知県",
    "prefecture_kana": "アイチケン",
    "prefecture_code": 23,
    "city": "小牧市",
    "city_kana": "コマキシ",
    "town": "東",
    "town_kana": "ヒガシ",
    "street": null,
    "office_name": null,
    "office_name_kana": null
  },
  "0832": {
    "postcode": "4850832",
    "prefecture": "愛知県",
    "prefecture_kana": "アイチケン",
    "prefecture_code": 23,
    "city": "小牧市",
    "city_kana": "コマキシ",
    "town": "応時",
    "town_kana": "オウジ",
    "street": null,
    "office_name": null,
    "office_name_kana": null
  },
  "8505": {
    "postcode": "4858505",
    "prefecture": "愛知県",
    "prefecture_kana": "アイチケン",
    "prefecture_code": 23,
    "city": "小牧市",
    "city_kana": "コマキシ",
    "town": "大字本庄",
    "town_kana": null,
    "street": "１２５１−３",
    "office_name": "丸菱工業　株式会社",
    "office_name_kana": "マルビシコウギヨウ カブシキガイシヤ"
  },
  "8510": {
    "postcode": "4858510",
    "prefecture": "愛知県",
    "prefecture_kana": "アイチケン",
    "prefecture_code": 23,
    "city": "小牧市",
    "city_kana": "コマキシ",
    "town": "大字岩崎",
    "town_kana": null,
    "street": "２８０８",
    "office_name": "日本特殊陶業　株式会社　小牧工場",
    "office_name_kana": "ニツポントクシユトウギヨウ カブシキガイシヤ コマキコウジヨウ"
  },
  "8511": {
    "postcode": "4858511",
    "prefecture": "愛知県",
    "prefecture_kana": "アイチケン",
    "prefecture_code": 23,
    "city": "小牧市",
    "city_kana": "コマキシ",
    "town": "大字西之島",
    "town_kana": null,
    "street": "１１６８",
    "office_name": "三ツ星ベルト販賣　株式会社　小牧営業所",
    "office_name_kana": "ミツボシベルトハンバイ カブシキガイシヤ コマキエイギヨウシヨ"
  },
  "8512": {
    "postcode": "4858512",
    "prefecture": "愛知県",
    "prefecture_kana": "アイチケン",
    "prefecture_code": 23,
    "city": "小牧市",
    "city_kana": "コマキシ",
    "town": "大字間々原新田",
    "town_kana": null,
    "street": "下新池９８７番地",
    "office_name": "（株）　三河屋",
    "office_name_kana": "(カブ) ミカワヤ"
  },
  "8516": {
    "postcode": "4858516",
    "prefecture": "愛知県",
    "prefecture_kana": "アイチケン",
    "prefecture_code": 23,
    "city": "小牧市",
    "city_kana": "コマキシ",
    "town": "大字三ツ渕",
    "town_kana": null,
    "street": "西ノ門８７８",
    "office_name": "大日本塗料　株式会社　小牧工場",
    "office_name_kana": "ダイニツポントリヨウ カブシキガイシヤ コマキコウジヨウ"
  },
  "8520": {
    "postcode": "4858520",
    "prefecture": "愛知県",
    "prefecture_kana": "アイチケン",
    "prefecture_code": 23,
    "city": "小牧市",
    "city_kana": "コマキシ",
    "town": "常普請",
    "town_kana": "ジョウブシ",
    "street": "１丁目２０",
    "office_name": "小牧市民病院",
    "office_name_kana": "コマキシミンビヨウイン"
  },
  "8521": {
    "postcode": "4858521",
    "prefecture": "愛知県",
    "prefecture_kana": "アイチケン",
    "prefecture_code": 23,
    "city": "小牧市",
    "city_kana": "コマキシ",
    "town": "大字河内屋新田",
    "town_kana": null,
    "street": "２６２",
    "office_name": "株式会社　国盛化学",
    "office_name_kana": "カブシキガイシヤ クニモリカガク"
  },
  "8522": {
    "postcode": "4858522",
    "prefecture": "愛知県",
    "prefecture_kana": "アイチケン",
    "prefecture_code": 23,
    "city": "小牧市",
    "city_kana": "コマキシ",
    "town": "大字河内屋新田",
    "town_kana": null,
    "street": "高笹４８０−１",
    "office_name": "センコー　株式会社　小牧営業所",
    "office_name_kana": "センコ- カブシキガイシヤ コマキエイギヨウシヨ"
  },
  "8523": {
    "postcode": "4858523",
    "prefecture": "愛知県",
    "prefecture_kana": "アイチケン",
    "prefecture_code": 23,
    "city": "小牧市",
    "city_kana": "コマキシ",
    "town": "堀の内",
    "town_kana": "ホリノウチ",
    "street": "４丁目１５４",
    "office_name": "佐藤食品工業　株式会社",
    "office_name_kana": "サトウシヨクヒンコウギヨウ カブシキガイシヤ"
  },
  "8530": {
    "postcode": "4858530",
    "prefecture": "愛知県",
    "prefecture_kana": "アイチケン",
    "prefecture_code": 23,
    "city": "小牧市",
    "city_kana": "コマキシ",
    "town": "大字三ツ渕",
    "town_kana": null,
    "street": "西坪１１３８",
    "office_name": "サカイ創建　株式会社",
    "office_name_kana": "サカイソウケン カブシキガイシヤ"
  },
  "8531": {
    "postcode": "4858531",
    "prefecture": "愛知県",
    "prefecture_kana": "アイチケン",
    "prefecture_code": 23,
    "city": "小牧市",
    "city_kana": "コマキシ",
    "town": "大字舟津",
    "town_kana": null,
    "street": "１３６０",
    "office_name": "三友工業　株式会社",
    "office_name_kana": "サンユウコウギヨウ カブシキガイシヤ"
  },
  "8533": {
    "postcode": "4858533",
    "prefecture": "愛知県",
    "prefecture_kana": "アイチケン",
    "prefecture_code": 23,
    "city": "小牧市",
    "city_kana": "コマキシ",
    "town": "新小木",
    "town_kana": "シンコキ",
    "street": "３丁目２０",
    "office_name": "愛知陸運　株式会社",
    "office_name_kana": "アイチリクウン カブシキガイシヤ"
  },
  "8540": {
    "postcode": "4858540",
    "prefecture": "愛知県",
    "prefecture_kana": "アイチケン",
    "prefecture_code": 23,
    "city": "小牧市",
    "city_kana": "コマキシ",
    "town": "下小針中島",
    "town_kana": "シモオバリナカシマ",
    "street": "２丁目１５８番地",
    "office_name": "株式会社　テクノワシノ",
    "office_name_kana": "カブシキガイシヤ テクノワシノ"
  },
  "8550": {
    "postcode": "4858550",
    "prefecture": "愛知県",
    "prefecture_kana": "アイチケン",
    "prefecture_code": 23,
    "city": "小牧市",
    "city_kana": "コマキシ",
    "town": "東",
    "town_kana": "ヒガシ",
    "street": "三丁目１番地",
    "office_name": "住友理工　株式会社",
    "office_name_kana": "スミトモリコウ カブシキガイシヤ"
  },
  "8551": {
    "postcode": "4858551",
    "prefecture": "愛知県",
    "prefecture_kana": "アイチケン",
    "prefecture_code": 23,
    "city": "小牧市",
    "city_kana": "コマキシ",
    "town": "応時",
    "town_kana": "オウジ",
    "street": "２丁目２５０番地",
    "office_name": "ＣＫＤ　株式会社",
    "office_name_kana": "シ-ケ-デイ カブシキガイシヤ"
  },
  "8552": {
    "postcode": "4858552",
    "prefecture": "愛知県",
    "prefecture_kana": "アイチケン",
    "prefecture_code": 23,
    "city": "小牧市",
    "city_kana": "コマキシ",
    "town": "小牧",
    "town_kana": "コマキ",
    "street": "５丁目２５３",
    "office_name": "小牧商工会議所",
    "office_name_kana": "コマキシヨウコウカイギシヨ"
  },
  "8555": {
    "postcode": "4858555",
    "prefecture": "愛知県",
    "prefecture_kana": "アイチケン",
    "prefecture_code": 23,
    "city": "小牧市",
    "city_kana": "コマキシ",
    "town": "大字林",
    "town_kana": null,
    "street": "２１０−３",
    "office_name": "（株）松本義肢製作所",
    "office_name_kana": "(カブ)マツモトギシセイサクシヨ"
  },
  "8557": {
    "postcode": "4858557",
    "prefecture": "愛知県",
    "prefecture_kana": "アイチケン",
    "prefecture_code": 23,
    "city": "小牧市",
    "city_kana": "コマキシ",
    "town": "大字下末",
    "town_kana": null,
    "street": "字五反田４３４番地の３",
    "office_name": "エヌジーケイ・セラミックデバイス　株式会社",
    "office_name_kana": "エヌジ-ケイ・セラミツクデバイス カブシキガイシヤ"
  },
  "8561": {
    "postcode": "4858561",
    "prefecture": "愛知県",
    "prefecture_kana": "アイチケン",
    "prefecture_code": 23,
    "city": "小牧市",
    "city_kana": "コマキシ",
    "town": "大字東田中",
    "town_kana": null,
    "street": "１２００",
    "office_name": "三菱重工業　株式会社　名古屋誘導推進システム製作所",
    "office_name_kana": "ミツビシジユウコウギヨウ カブシキガイシヤ ナゴヤユウドウスイシンシステムセイサクシヨ"
  },
  "8562": {
    "postcode": "4858562",
    "prefecture": "愛知県",
    "prefecture_kana": "アイチケン",
    "prefecture_code": 23,
    "city": "小牧市",
    "city_kana": "コマキシ",
    "town": "大字上末",
    "town_kana": null,
    "street": "字東山３５０９−１９０",
    "office_name": "株式会社　ホウトク",
    "office_name_kana": "カブシキガイシヤ ホウトク"
  },
  "8563": {
    "postcode": "4858563",
    "prefecture": "愛知県",
    "prefecture_kana": "アイチケン",
    "prefecture_code": 23,
    "city": "小牧市",
    "city_kana": "コマキシ",
    "town": "大字大草",
    "town_kana": null,
    "street": "字年上坂６００４",
    "office_name": "名古屋造形芸術大学・短期大学",
    "office_name_kana": "ナゴヤゾウケイゲイジユツダイガク・タンキダイガク"
  },
  "8565": {
    "postcode": "4858565",
    "prefecture": "愛知県",
    "prefecture_kana": "アイチケン",
    "prefecture_code": 23,
    "city": "小牧市",
    "city_kana": "コマキシ",
    "town": "大字大草",
    "town_kana": null,
    "street": "字年上坂５９６９−３",
    "office_name": "愛知文教大学",
    "office_name_kana": "アイチブンキヨウダイガク"
  },
  "8566": {
    "postcode": "4858566",
    "prefecture": "愛知県",
    "prefecture_kana": "アイチケン",
    "prefecture_code": 23,
    "city": "小牧市",
    "city_kana": "コマキシ",
    "town": "大字二重堀",
    "town_kana": null,
    "street": "字田神１１５５",
    "office_name": "日本ガイシ　株式会社　小牧事業所",
    "office_name_kana": "ニホンガイシ カブシキガイシヤ コマキジギヨウシヨ"
  },
  "8650": {
    "postcode": "4858650",
    "prefecture": "愛知県",
    "prefecture_kana": "アイチケン",
    "prefecture_code": 23,
    "city": "小牧市",
    "city_kana": "コマキシ",
    "town": "堀の内",
    "town_kana": "ホリノウチ",
    "street": "三丁目１番地",
    "office_name": "小牧市役所",
    "office_name_kana": "コマキシヤクシヨ"
  },
  "8651": {
    "postcode": "4858651",
    "prefecture": "愛知県",
    "prefecture_kana": "アイチケン",
    "prefecture_code": 23,
    "city": "小牧市",
    "city_kana": "コマキシ",
    "town": "中央",
    "town_kana": "チュウオウ",
    "street": "１丁目４２４",
    "office_name": "小牧税務署",
    "office_name_kana": "コマキゼイムシヨ"
  },
  "8652": {
    "postcode": "4858652",
    "prefecture": "愛知県",
    "prefecture_kana": "アイチケン",
    "prefecture_code": 23,
    "city": "小牧市",
    "city_kana": "コマキシ",
    "town": "春日寺",
    "town_kana": "カスガンジ",
    "street": "１丁目１",
    "office_name": "航空自衛隊　小牧基地",
    "office_name_kana": "コウクウジエイタイ コマキキチ"
  },
  "8653": {
    "postcode": "4858653",
    "prefecture": "愛知県",
    "prefecture_kana": "アイチケン",
    "prefecture_code": 23,
    "city": "小牧市",
    "city_kana": "コマキシ",
    "town": "小牧原",
    "town_kana": "コマキハラ",
    "street": "４丁目１０３番地",
    "office_name": "（株）　ダイフク小牧事業所",
    "office_name_kana": "(カブ) ダイフクコマキジギヨウシヨ"
  },
  "8654": {
    "postcode": "4858654",
    "prefecture": "愛知県",
    "prefecture_kana": "アイチケン",
    "prefecture_code": 23,
    "city": "小牧市",
    "city_kana": "コマキシ",
    "town": "小針",
    "town_kana": "オバリ",
    "street": "３丁目６７番地",
    "office_name": "株式会社　クラウンパッケージ",
    "office_name_kana": "カブシキガイシヤ クラウンパツケ-ジ"
  },
  "8655": {
    "postcode": "4858655",
    "prefecture": "愛知県",
    "prefecture_kana": "アイチケン",
    "prefecture_code": 23,
    "city": "小牧市",
    "city_kana": "コマキシ",
    "town": "大字村中",
    "town_kana": null,
    "street": "前田１５３（小牧郵便局私書箱第１６号）",
    "office_name": "飯田工業　株式会社",
    "office_name_kana": "イイダコウギヨウ カブシキガイシヤ"
  },
  "8750": {
    "postcode": "4858750",
    "prefecture": "愛知県",
    "prefecture_kana": "アイチケン",
    "prefecture_code": 23,
    "city": "小牧市",
    "city_kana": "コマキシ",
    "town": "大字久保一色",
    "town_kana": null,
    "street": "佃１０１０−１",
    "office_name": "中部電力　株式会社　小牧営業所　小牧電力センター",
    "office_name_kana": "チユウブデンリヨク カブシキガイシヤ コマキエイギヨウシヨ コマキデンリヨクセンタ-"
  }
}