{
  "0000": {
    "postcode": "4860000",
    "prefecture": "愛知県",
    "prefecture_kana": "アイチケン",
    "prefecture_code": 23,
    "city": "春日井市",
    "city_kana": "カスガイシ",
    "town": "",
    "town_kana": "",
    "street": null,
    "office_name": null,
    "office_name_kana": null
  },
  "0801": {
    "postcode": "4860801",
    "prefecture": "愛知県",
    "prefecture_kana": "アイチケン",
    "prefecture_code": 23,
    "city": "春日井市",
    "city_kana": "カスガイシ",
    "town": "上田楽町",
    "town_kana": "カミタラガチョウ",
    "street": null,
    "office_name": null,
    "office_name_kana": null
  },
  "0802": {
    "postcode": "4860802",
    "prefecture": "愛知県",
    "prefecture_kana": "アイチケン",
    "prefecture_code": 23,
    "city": "春日井市",
    "city_kana": "カスガイシ",
    "town": "桃山町",
    "town_kana": "モモヤマチョウ",
    "street": null,
    "office_name": null,
    "office_name_kana": null
  },
  "0803": {
    "postcode": "4860803",
    "prefecture": "愛知県",
    "prefecture_kana": "アイチケン",
    "prefecture_code": 23,
    "city": "春日井市",
    "city_kana": "カスガイシ",
    "town": "西山町",
    "town_kana": "ニシヤマチョウ",
    "street": null,
    "office_name": null,
    "office_name_kana": null
  },
  "0804": {
    "postcode": "4860804",
    "prefecture": "愛知県",
    "prefecture_kana": "アイチケン",
    "prefecture_code": 23,
    "city": "春日井市",
    "city_kana": "カスガイシ",
    "town": "鷹来町",
    "town_kana": "タカキチョウ",
    "street": null,
    "office_name": null,
    "office_name_kana": null
  },
  "0805": {
    "postcode": "4860805",
    "prefecture": "愛知県",
    "prefecture_kana": "アイチケン",
    "prefecture_code": 23,
    "city": "春日井市",
    "city_kana": "カスガイシ",
    "town": "岩野町",
    "town_kana": "イワノチョウ",
    "street": null,
    "office_name": null,
    "office_name_kana": null
  },
  "0806": {
    "postcode": "4860806",
    "prefecture": "愛知県",
    "prefecture_kana": "アイチケン",
    "prefecture_code": 23,
    "city": "春日井市",
    "city_kana": "カスガイシ",
    "town": "大手田酉町",
    "town_kana": "オオデタトリチョウ",
    "street": null,
    "office_name": null,
    "office_name_kana": null
  },
  "0807": {
    "postcode": "4860807",
    "prefecture": "愛知県",
    "prefecture_kana": "アイチケン",
    "prefecture_code": 23,
    "city": "春日井市",
    "city_kana": "カスガイシ",
    "town": "大手町",
    "town_kana": "オオデチョウ",
    "street": null,
    "office_name": null,
    "office_name_kana": null
  },
  "0808": {
    "postcode": "4860808",
    "prefecture": "愛知県",
    "prefecture_kana": "アイチケン",
    "prefecture_code": 23,
    "city": "春日井市",
    "city_kana": "カスガイシ",
    "town": "田楽町",
    "town_kana": "タラガチョウ",
    "street": null,
    "office_name": null,
    "office_name_kana": null
  },
  "0809": {
    "postcode": "4860809",
    "prefecture": "愛知県",
    "prefecture_kana": "アイチケン",
    "prefecture_code": 23,
    "city": "春日井市",
    "city_kana": "カスガイシ",
    "town": "町屋町",
    "town_kana": "マチヤチョウ",
    "street": null,
    "office_name": null,
    "office_name_kana": null
  },
  "0811": {
    "postcode": "4860811",
    "prefecture": "愛知県",
    "prefecture_kana": "アイチケン",
    "prefecture_code": 23,
    "city": "春日井市",
    "city_kana": "カスガイシ",
    "town": "東山町",
    "town_kana": "ヒガシヤマチョウ",
    "street": null,
    "office_name": null,
    "office_name_kana": null
  },
  "0812": {
    "postcode": "4860812",
    "prefecture": "愛知県",
    "prefecture_kana": "アイチケン",
    "prefecture_code": 23,
    "city": "春日井市",
    "city_kana": "カスガイシ",
    "town": "大泉寺町",
    "town_kana": "ダイセンジチョウ",
    "street": null,
    "office_name": null,
    "office_name_kana": null
  },
  "0813": {
    "postcode": "4860813",
    "prefecture": "愛知県",
    "prefecture_kana": "アイチケン",
    "prefecture_code": 23,
    "city": "春日井市",
    "city_kana": "カスガイシ",
    "town": "金ケ口町",
    "town_kana": "カナガグチチョウ",
    "street": null,
    "office_name": null,
    "office_name_kana": null
  },
  "0814": {
    "postcode": "4860814",
    "prefecture": "愛知県",
    "prefecture_kana": "アイチケン",
    "prefecture_code": 23,
    "city": "春日井市",
    "city_kana": "カスガイシ",
    "town": "北城町",
    "town_kana": "キタシロチョウ",
    "street": null,
    "office_name": null,
    "office_name_kana": null
  },
  "0815": {
    "postcode": "4860815",
    "prefecture": "愛知県",
    "prefecture_kana": "アイチケン",
    "prefecture_code": 23,
    "city": "春日井市",
    "city_kana": "カスガイシ",
    "town": "十三塚町",
    "town_kana": "ジュウサンヅカチョウ",
    "street": null,
    "office_name": null,
    "office_name_kana": null
  },
  "0816": {
    "postcode": "4860816",
    "prefecture": "愛知県",
    "prefecture_kana": "アイチケン",
    "prefecture_code": 23,
    "city": "春日井市",
    "city_kana": "カスガイシ",
    "town": "東野新町",
    "town_kana": "ヒガシノシンマチ",
    "street": null,
    "office_name": null,
    "office_name_kana": null
  },
  "0817": {
    "postcode": "4860817",
    "prefecture": "愛知県",
    "prefecture_kana": "アイチケン",
    "prefecture_code": 23,
    "city": "春日井市",
    "city_kana": "カスガイシ",
    "town": "東野町",
    "town_kana": "ヒガシノチョウ",
    "street": null,
    "office_name": null,
    "office_name_kana": null
  },
  "0818": {
    "postcode": "4860818",
    "prefecture": "愛知県",
    "prefecture_kana": "アイチケン",
    "prefecture_code": 23,
    "city": "春日井市",
    "city_kana": "カスガイシ",
    "town": "東野町西",
    "town_kana": "ヒガシノチョウニシ",
    "street": null,
    "office_name": null,
    "office_name_kana": null
  },
  "0819": {
    "postcode": "4860819",
    "prefecture": "愛知県",
    "prefecture_kana": "アイチケン",
    "prefecture_code": 23,
    "city": "春日井市",
    "city_kana": "カスガイシ",
    "town": "下原町",
    "town_kana": "シモハラチョウ",
    "street": null,
    "office_name": null,
    "office_name_kana": null
  },
  "0820": {
    "postcode": "4860820",
    "prefecture": "愛知県",
    "prefecture_kana": "アイチケン",
    "prefecture_code": 23,
    "city": "春日井市",
    "city_kana": "カスガイシ",
    "town": "熊野町北",
    "town_kana": "クマノチョウキタ",
    "street": null,
    "office_name": null,
    "office_name_kana": null
  },
  "0821": {
    "postcode": "4860821",
    "prefecture": "愛知県",
    "prefecture_kana": "アイチケン",
    "prefecture_code": 23,
    "city": "春日井市",
    "city_kana": "カスガイシ",
    "town": "神領町",
    "town_kana": "ジンリョウチョウ",
    "street": null,
    "office_name": null,
    "office_name_kana": null
  },
  "0822": {
    "postcode": "4860822",
    "prefecture": "愛知県",
    "prefecture_kana": "アイチケン",
    "prefecture_code": 23,
    "city": "春日井市",
    "city_kana": "カスガイシ",
    "town": "熊野町",
    "town_kana": "クマノチョウ",
    "street": null,
    "office_name": null,
    "office_name_kana": null
  },
  "0823": {
    "postcode": "4860823",
    "prefecture": "愛知県",
    "prefecture_kana": "アイチケン",
    "prefecture_code": 23,
    "city": "春日井市",
    "city_kana": "カスガイシ",
    "town": "桜佐町",
    "town_kana": "サクラサチョウ",
    "street": null,
    "office_name": null,
    "office_name_kana": null
  },
  "0824": {
    "postcode": "4860824",
    "prefecture": "愛知県",
    "prefecture_kana": "アイチケン",
    "prefecture_code": 23,
    "city": "春日井市",
    "city_kana": "カスガイシ",
    "town": "割塚町",
    "town_kana": "ワリヅカチョウ",
    "street": null,
    "office_name": null,
    "office_name_kana": null
  },
  "0825": {
    "postcode": "4860825",
    "prefecture": "愛知県",
    "prefecture_kana": "アイチケン",
    "prefecture_code": 23,
    "city": "春日井市",
    "city_kana": "カスガイシ",
    "town": "中央通",
    "town_kana": "チュウオウドオリ",
    "street": null,
    "office_name": null,
    "office_name_kana": null
  },
  "0826": {
    "postcode": "4860826",
    "prefecture": "愛知県",
    "prefecture_kana": "アイチケン",
    "prefecture_code": 23,
    "city": "春日井市",
    "city_kana": "カスガイシ",
    "town": "貴船町",
    "town_kana": "キブネチョウ",
    "street": null,
    "office_name": null,
    "office_name_kana": null
  },
  "0827": {
    "postcode": "4860827",
    "prefecture": "愛知県",
    "prefecture_kana": "アイチケン",
    "prefecture_code": 23,
    "city": "春日井市",
    "city_kana": "カスガイシ",
    "town": "小木田町",
    "town_kana": "オギタチョウ",
    "street": null,
    "office_name": null,
    "office_name_kana": null
  },
  "0828": {
    "postcode": "4860828",
    "prefecture": "愛知県",
    "prefecture_kana": "アイチケン",
    "prefecture_code": 23,
    "city": "春日井市",
    "city_kana": "カスガイシ",
    "town": "堀ノ内町北",
    "town_kana": "ホリノウチチョウキタ",
    "street": null,
    "office_name": null,
    "office_name_kana": null
  },
  "0829": {
    "postcode": "4860829",
    "prefecture": "愛知県",
    "prefecture_kana": "アイチケン",
    "prefecture_code": 23,
    "city": "春日井市",
    "city_kana": "カスガイシ",
    "town": "堀ノ内町",
    "town_kana": "ホリノウチチョウ",
    "street": null,
    "office_name": null,
    "office_name_kana": null
  },
  "0830": {
    "postcode": "4860830",
    "prefecture": "愛知県",
    "prefecture_kana": "アイチケン",
    "prefecture_code": 23,
    "city": "春日井市",
    "city_kana": "カスガイシ",
    "town": "神領町北",
    "town_kana": "ジンリョウチョウキタ",
    "street": null,
    "office_name": null,
    "office_name_kana": null
  },
  "0831": {
    "postcode": "4860831",
    "prefecture": "愛知県",
    "prefecture_kana": "アイチケン",
    "prefecture_code": 23,
    "city": "春日井市",
    "city_kana": "カスガイシ",
    "town": "ことぶき町",
    "town_kana": "コトブキチョウ",
    "street": null,
    "office_name": null,
    "office_name_kana": null
  },
  "0832": {
    "postcode": "4860832",
    "prefecture": "愛知県",
    "prefecture_kana": "アイチケン",
    "prefecture_code": 23,
    "city": "春日井市",
    "city_kana": "カスガイシ",
    "town": "乙輪町",
    "town_kana": "オトワチョウ",
    "street": null,
    "office_name": null,
    "office_name_kana": null
  },
  "0833": {
    "postcode": "4860833",
    "prefecture": "愛知県",
    "prefecture_kana": "アイチケン",
    "prefecture_code": 23,
    "city": "春日井市",
    "city_kana": "カスガイシ",
    "town": "上条町",
    "town_kana": "ジョウジョウチョウ",
    "street": null,
    "office_name": null,
    "office_name_kana": null
  },
  "0834": {
    "postcode": "4860834",
    "prefecture": "愛知県",
    "prefecture_kana": "アイチケン",
    "prefecture_code": 23,
    "city": "春日井市",
    "city_kana": "カスガイシ",
    "town": "王子町",
    "town_kana": "オウジチョウ",
    "street": null,
    "office_name": null,
    "office_name_kana": null
  },
  "0835": {
    "postcode": "4860835",
    "prefecture": "愛知県",
    "prefecture_kana": "アイチケン",
    "prefecture_code": 23,
    "city": "春日井市",
    "city_kana": "カスガイシ",
    "town": "月見町",
    "town_kana": "ツキミチョウ",
    "street": null,
    "office_name": null,
    "office_name_kana": null
  },
  "0836": {
    "postcode": "4860836",
    "prefecture": "愛知県",
    "prefecture_kana": "アイチケン",
    "prefecture_code": 23,
    "city": "春日井市",
    "city_kana": "カスガイシ",
    "town": "八事町",
    "town_kana": "ヤゴトチョウ",
    "street": null,
    "office_name": null,
    "office_name_kana": null
  },
  "0837": {
    "postcode": "4860837",
    "prefecture": "愛知県",
    "prefecture_kana": "アイチケン",
    "prefecture_code": 23,
    "city": "春日井市",
    "city_kana": "カスガイシ",
    "town": "春見町",
    "town_kana": "ハルミチョウ",
    "street": null,
    "office_name": null,
    "office_name_kana": null
  },
  "0838": {
    "postcode": "4860838",
    "prefecture": "愛知県",
    "prefecture_kana": "アイチケン",
    "prefecture_code": 23,
    "city": "春日井市",
    "city_kana": "カスガイシ",
    "town": "弥生町",
    "town_kana": "ヤヨイチョウ",
    "street": null,
    "office_name": null,
    "office_name_kana": null
  },
  "0839": {
    "postcode": "4860839",
    "prefecture": "愛知県",
    "prefecture_kana": "アイチケン",
    "prefecture_code": 23,
    "city": "春日井市",
    "city_kana": "カスガイシ",
    "town": "六軒屋町西",
    "town_kana": "ロッケンヤチョウニシ",
    "street": null,
    "office_name": null,
    "office_name_kana": null
  },
  "0841": {
    "postcode": "4860841",
    "prefecture": "愛知県",
    "prefecture_kana": "アイチケン",
    "prefecture_code": 23,
    "city": "春日井市",
    "city_kana": "カスガイシ",
    "town": "南下原町",
    "town_kana": "ミナミシモハラチョウ",
    "street": null,
    "office_name": null,
    "office_name_kana": null
  },
  "0842": {
    "postcode": "4860842",
    "prefecture": "愛知県",
    "prefecture_kana": "アイチケン",
    "prefecture_code": 23,
    "city": "春日井市",
    "city_kana": "カスガイシ",
    "town": "六軒屋町",
    "town_kana": "ロッケンヤチョウ",
    "street": null,
    "office_name": null,
    "office_name_kana": null
  },
  "0844": {
    "postcode": "4860844",
    "prefecture": "愛知県",
    "prefecture_kana": "アイチケン",
    "prefecture_code": 23,
    "city": "春日井市",
    "city_kana": "カスガイシ",
    "town": "鳥居松町",
    "town_kana": "トリイマツチョウ",
    "street": null,
    "office_name": null,
    "office_name_kana": null
  },
  "0845": {
    "postcode": "4860845",
    "prefecture": "愛知県",
    "prefecture_kana": "アイチケン",
    "prefecture_code": 23,
    "city": "春日井市",
    "city_kana": "カスガイシ",
    "town": "瑞穂通",
    "town_kana": "ミズホドオリ",
    "street": null,
    "office_name": null,
    "office_name_kana": null
  },
  "0846": {
    "postcode": "4860846",
    "prefecture": "愛知県",
    "prefecture_kana": "アイチケン",
    "prefecture_code": 23,
    "city": "春日井市",
    "city_kana": "カスガイシ",
    "town": "朝宮町",
    "town_kana": "アサミヤチョウ",
    "street": null,
    "office_name": null,
    "office_name_kana": null
  },
  "0849": {
    "postcode": "4860849",
    "prefecture": "愛知県",
    "prefecture_kana": "アイチケン",
    "prefecture_code": 23,
    "city": "春日井市",
    "city_kana": "カスガイシ",
    "town": "八田町",
    "town_kana": "ハッタチョウ",
    "street": null,
    "office_name": null,
    "office_name_kana": null
  },
  "0851": {
    "postcode": "4860851",
    "prefecture": "愛知県",
    "prefecture_kana": "アイチケン",
    "prefecture_code": 23,
    "city": "春日井市",
    "city_kana": "カスガイシ",
    "town": "篠木町",
    "town_kana": "シノギチョウ",
    "street": null,
    "office_name": null,
    "office_name_kana": null
  },
  "0852": {
    "postcode": "4860852",
    "prefecture": "愛知県",
    "prefecture_kana": "アイチケン",
    "prefecture_code": 23,
    "city": "春日井市",
    "city_kana": "カスガイシ",
    "town": "下市場町",
    "town_kana": "シモイチバチョウ",
    "street": null,
    "office_name": null,
    "office_name_kana": null
  },
  "0853": {
    "postcode": "4860853",
    "prefecture": "愛知県",
    "prefecture_kana": "アイチケン",
    "prefecture_code": 23,
    "city": "春日井市",
    "city_kana": "カスガイシ",
    "town": "穴橋町",
    "town_kana": "アナハシチョウ",
    "street": null,
    "office_name": null,
    "office_name_kana": null
  },
  "0854": {
    "postcode": "4860854",
    "prefecture": "愛知県",
    "prefecture_kana": "アイチケン",
    "prefecture_code": 23,
    "city": "春日井市",
    "city_kana": "カスガイシ",
    "town": "林島町",
    "town_kana": "ハヤシジマチョウ",
    "street": null,
    "office_name": null,
    "office_name_kana": null
  },
  "0855": {
    "postcode": "4860855",
    "prefecture": "愛知県",
    "prefecture_kana": "アイチケン",
    "prefecture_code": 23,
    "city": "春日井市",
    "city_kana": "カスガイシ",
    "town": "関田町",
    "town_kana": "セキダチョウ",
    "street": null,
    "office_name": null,
    "office_name_kana": null
  },
  "0856": {
    "postcode": "4860856",
    "prefecture": "愛知県",
    "prefecture_kana": "アイチケン",
    "prefecture_code": 23,
    "city": "春日井市",
    "city_kana": "カスガイシ",
    "town": "梅ケ坪町",
    "town_kana": "ウメガツボチョウ",
    "street": null,
    "office_name": null,
    "office_name_kana": null
  },
  "0857": {
    "postcode": "4860857",
    "prefecture": "愛知県",
    "prefecture_kana": "アイチケン",
    "prefecture_code": 23,
    "city": "春日井市",
    "city_kana": "カスガイシ",
    "town": "浅山町",
    "town_kana": "アサヤマチョウ",
    "street": null,
    "office_name": null,
    "office_name_kana": null
  },
  "0858": {
    "postcode": "4860858",
    "prefecture": "愛知県",
    "prefecture_kana": "アイチケン",
    "prefecture_code": 23,
    "city": "春日井市",
    "city_kana": "カスガイシ",
    "town": "菅大臣町",
    "town_kana": "カンダイジンチョウ",
    "street": null,
    "office_name": null,
    "office_name_kana": null
  },
  "0901": {
    "postcode": "4860901",
    "prefecture": "愛知県",
    "prefecture_kana": "アイチケン",
    "prefecture_code": 23,
    "city": "春日井市",
    "city_kana": "カスガイシ",
    "town": "牛山町",
    "town_kana": "ウシヤマチョウ",
    "street": null,
    "office_name": null,
    "office_name_kana": null
  },
  "0902": {
    "postcode": "4860902",
    "prefecture": "愛知県",
    "prefecture_kana": "アイチケン",
    "prefecture_code": 23,
    "city": "春日井市",
    "city_kana": "カスガイシ",
    "town": "新開町",
    "town_kana": "シンカイチョウ",
    "street": null,
    "office_name": null,
    "office_name_kana": null
  },
  "0903": {
    "postcode": "4860903",
    "prefecture": "愛知県",
    "prefecture_kana": "アイチケン",
    "prefecture_code": 23,
    "city": "春日井市",
    "city_kana": "カスガイシ",
    "town": "前並町",
    "town_kana": "マエナミチョウ",
    "street": null,
    "office_name": null,
    "office_name_kana": null
  },
  "0904": {
    "postcode": "4860904",
    "prefecture": "愛知県",
    "prefecture_kana": "アイチケン",
    "prefecture_code": 23,
    "city": "春日井市",
    "city_kana": "カスガイシ",
    "town": "宮町",
    "town_kana": "ミヤマチ",
    "street": null,
    "office_name": null,
    "office_name_kana": null
  },
  "0905": {
    "postcode": "4860905",
    "prefecture": "愛知県",
    "prefecture_kana": "アイチケン",
    "prefecture_code": 23,
    "city": "春日井市",
    "city_kana": "カスガイシ",
    "town": "稲口町",
    "town_kana": "イナグチチョウ",
    "street": null,
    "office_name": null,
    "office_name_kana": null
  },
  "0906": {
    "postcode": "4860906",
    "prefecture": "愛知県",
    "prefecture_kana": "アイチケン",
    "prefecture_code": 23,
    "city": "春日井市",
    "city_kana": "カスガイシ",
    "town": "下屋敷町",
    "town_kana": "シモヤシキチョウ",
    "street": null,
    "office_name": null,
    "office_name_kana": null
  },
  "0907": {
    "postcode": "4860907",
    "prefecture": "愛知県",
    "prefecture_kana": "アイチケン",
    "prefecture_code": 23,
    "city": "春日井市",
    "city_kana": "カスガイシ",
    "town": "黒鉾町",
    "town_kana": "クロボコチョウ",
    "street": null,
    "office_name": null,
    "office_name_kana": null
  },
  "0908": {
    "postcode": "4860908",
    "prefecture": "愛知県",
    "prefecture_kana": "アイチケン",
    "prefecture_code": 23,
    "city": "春日井市",
    "city_kana": "カスガイシ",
    "town": "西屋町",
    "town_kana": "ニシヤチョウ",
    "street": null,
    "office_name": null,
    "office_name_kana": null
  },
  "0909": {
    "postcode": "4860909",
    "prefecture": "愛知県",
    "prefecture_kana": "アイチケン",
    "prefecture_code": 23,
    "city": "春日井市",
    "city_kana": "カスガイシ",
    "town": "四ツ家町",
    "town_kana": "ヨツヤチョウ",
    "street": null,
    "office_name": null,
    "office_name_kana": null
  },
  "0911": {
    "postcode": "4860911",
    "prefecture": "愛知県",
    "prefecture_kana": "アイチケン",
    "prefecture_code": 23,
    "city": "春日井市",
    "city_kana": "カスガイシ",
    "town": "西高山町",
    "town_kana": "ニシタカヤマチョウ",
    "street": null,
    "office_name": null,
    "office_name_kana": null
  },
  "0912": {
    "postcode": "4860912",
    "prefecture": "愛知県",
    "prefecture_kana": "アイチケン",
    "prefecture_code": 23,
    "city": "春日井市",
    "city_kana": "カスガイシ",
    "town": "高山町",
    "town_kana": "タカヤマチョウ",
    "street": null,
    "office_name": null,
    "office_name_kana": null
  },
  "0913": {
    "postcode": "4860913",
    "prefecture": "愛知県",
    "prefecture_kana": "アイチケン",
    "prefecture_code": 23,
    "city": "春日井市",
    "city_kana": "カスガイシ",
    "town": "柏原町",
    "town_kana": "カシハラチョウ",
    "street": null,
    "office_name": null,
    "office_name_kana": null
  },
  "0914": {
    "postcode": "4860914",
    "prefecture": "愛知県",
    "prefecture_kana": "アイチケン",
    "prefecture_code": 23,
    "city": "春日井市",
    "city_kana": "カスガイシ",
    "town": "若草通",
    "town_kana": "ワカクサドオリ",
    "street": null,
    "office_name": null,
    "office_name_kana": null
  },
  "0915": {
    "postcode": "4860915",
    "prefecture": "愛知県",
    "prefecture_kana": "アイチケン",
    "prefecture_code": 23,
    "city": "春日井市",
    "city_kana": "カスガイシ",
    "town": "八幡町",
    "town_kana": "ハチマンチョウ",
    "street": null,
    "office_name": null,
    "office_name_kana": null
  },
  "0916": {
    "postcode": "4860916",
    "prefecture": "愛知県",
    "prefecture_kana": "アイチケン",
    "prefecture_code": 23,
    "city": "春日井市",
    "city_kana": "カスガイシ",
    "town": "八光町",
    "town_kana": "ハッコウチョウ",
    "street": null,
    "office_name": null,
    "office_name_kana": null
  },
  "0917": {
    "postcode": "4860917",
    "prefecture": "愛知県",
    "prefecture_kana": "アイチケン",
    "prefecture_code": 23,
    "city": "春日井市",
    "city_kana": "カスガイシ",
    "town": "美濃町",
    "town_kana": "ミノマチ",
    "street": null,
    "office_name": null,
    "office_name_kana": null
  },
  "0918": {
    "postcode": "4860918",
    "prefecture": "愛知県",
    "prefecture_kana": "アイチケン",
    "prefecture_code": 23,
    "city": "春日井市",
    "city_kana": "カスガイシ",
    "town": "如意申町",
    "town_kana": "ニョイサルチョウ",
    "street": null,
    "office_name": null,
    "office_name_kana": null
  },
  "0921": {
    "postcode": "4860921",
    "prefecture": "愛知県",
    "prefecture_kana": "アイチケン",
    "prefecture_code": 23,
    "city": "春日井市",
    "city_kana": "カスガイシ",
    "town": "杁ケ島町",
    "town_kana": "イリガシマチョウ",
    "street": null,
    "office_name": null,
    "office_name_kana": null
  },
  "0922": {
    "postcode": "4860922",
    "prefecture": "愛知県",
    "prefecture_kana": "アイチケン",
    "prefecture_code": 23,
    "city": "春日井市",
    "city_kana": "カスガイシ",
    "town": "篠田町",
    "town_kana": "シノダチョウ",
    "street": null,
    "office_name": null,
    "office_name_kana": null
  },
  "0923": {
    "postcode": "4860923",
    "prefecture": "愛知県",
    "prefecture_kana": "アイチケン",
    "prefecture_code": 23,
    "city": "春日井市",
    "city_kana": "カスガイシ",
    "town": "下条町",
    "town_kana": "ゲジョウチョウ",
    "street": null,
    "office_name": null,
    "office_name_kana": null
  },
  "0924": {
    "postcode": "4860924",
    "prefecture": "愛知県",
    "prefecture_kana": "アイチケン",
    "prefecture_code": 23,
    "city": "春日井市",
    "city_kana": "カスガイシ",
    "town": "下津町",
    "town_kana": "シモツチョウ",
    "street": null,
    "office_name": null,
    "office_name_kana": null
  },
  "0925": {
    "postcode": "4860925",
    "prefecture": "愛知県",
    "prefecture_kana": "アイチケン",
    "prefecture_code": 23,
    "city": "春日井市",
    "city_kana": "カスガイシ",
    "town": "中切町",
    "town_kana": "ナカギリチョウ",
    "street": null,
    "office_name": null,
    "office_name_kana": null
  },
  "0926": {
    "postcode": "4860926",
    "prefecture": "愛知県",
    "prefecture_kana": "アイチケン",
    "prefecture_code": 23,
    "city": "春日井市",
    "city_kana": "カスガイシ",
    "town": "小野町",
    "town_kana": "オノチョウ",
    "street": null,
    "office_name": null,
    "office_name_kana": null
  },
  "0927": {
    "postcode": "4860927",
    "prefecture": "愛知県",
    "prefecture_kana": "アイチケン",
    "prefecture_code": 23,
    "city": "春日井市",
    "city_kana": "カスガイシ",
    "town": "柏井町",
    "town_kana": "カシワイチョウ",
    "street": null,
    "office_name": null,
    "office_name_kana": null
  },
  "0928": {
    "postcode": "4860928",
    "prefecture": "愛知県",
    "prefecture_kana": "アイチケン",
    "prefecture_code": 23,
    "city": "春日井市",
    "city_kana": "カスガイシ",
    "town": "妙慶町",
    "town_kana": "ミョウケイチョウ",
    "street": null,
    "office_name": null,
    "office_name_kana": null
  },
  "0929": {
    "postcode": "4860929",
    "prefecture": "愛知県",
    "prefecture_kana": "アイチケン",
    "prefecture_code": 23,
    "city": "春日井市",
    "city_kana": "カスガイシ",
    "town": "旭町",
    "town_kana": "アサヒマチ",
    "street": null,
    "office_name": null,
    "office_name_kana": null
  },
  "0931": {
    "postcode": "4860931",
    "prefecture": "愛知県",
    "prefecture_kana": "アイチケン",
    "prefecture_code": 23,
    "city": "春日井市",
    "city_kana": "カスガイシ",
    "town": "松新町",
    "town_kana": "マツシンチョウ",
    "street": null,
    "office_name": null,
    "office_name_kana": null
  },
  "0932": {
    "postcode": "4860932",
    "prefecture": "愛知県",
    "prefecture_kana": "アイチケン",
    "prefecture_code": 23,
    "city": "春日井市",
    "city_kana": "カスガイシ",
    "town": "松河戸町",
    "town_kana": "マツカワドチョウ",
    "street": null,
    "office_name": null,
    "office_name_kana": null
  },
  "0933": {
    "postcode": "4860933",
    "prefecture": "愛知県",
    "prefecture_kana": "アイチケン",
    "prefecture_code": 23,
    "city": "春日井市",
    "city_kana": "カスガイシ",
    "town": "愛知町",
    "town_kana": "アイチチョウ",
    "street": null,
    "office_name": null,
    "office_name_kana": null
  },
  "0934": {
    "postcode": "4860934",
    "prefecture": "愛知県",
    "prefecture_kana": "アイチケン",
    "prefecture_code": 23,
    "city": "春日井市",
    "city_kana": "カスガイシ",
    "town": "長塚町",
    "town_kana": "ナガツカチョウ",
    "street": null,
    "office_name": null,
    "office_name_kana": null
  },
  "0935": {
    "postcode": "4860935",
    "prefecture": "愛知県",
    "prefecture_kana": "アイチケン",
    "prefecture_code": 23,
    "city": "春日井市",
    "city_kana": "カスガイシ",
    "town": "森山田町",
    "town_kana": "モリヤマダチョウ",
    "street": null,
    "office_name": null,
    "office_name_kana": null
  },
  "0936": {
    "postcode": "4860936",
    "prefecture": "愛知県",
    "prefecture_kana": "アイチケン",
    "prefecture_code": 23,
    "city": "春日井市",
    "city_kana": "カスガイシ",
    "town": "町田町",
    "town_kana": "チョウダチョウ",
    "street": null,
    "office_name": null,
    "office_name_kana": null
  },
  "0937": {
    "postcode": "4860937",
    "prefecture": "愛知県",
    "prefecture_kana": "アイチケン",
    "prefecture_code": 23,
    "city": "春日井市",
    "city_kana": "カスガイシ",
    "town": "細木町",
    "town_kana": "ホソキチョウ",
    "street": null,
    "office_name": null,
    "office_name_kana": null
  },
  "0941": {
    "postcode": "4860941",
    "prefecture": "愛知県",
    "prefecture_kana": "アイチケン",
    "prefecture_code": 23,
    "city": "春日井市",
    "city_kana": "カスガイシ",
    "town": "勝川新町",
    "town_kana": "カチガワシンマチ",
    "street": null,
    "office_name": null,
    "office_name_kana": null
  },
  "0942": {
    "postcode": "4860942",
    "prefecture": "愛知県",
    "prefecture_kana": "アイチケン",
    "prefecture_code": 23,
    "city": "春日井市",
    "city_kana": "カスガイシ",
    "town": "神明町",
    "town_kana": "シンメイチョウ",
    "street": null,
    "office_name": null,
    "office_name_kana": null
  },
  "0943": {
    "postcode": "4860943",
    "prefecture": "愛知県",
    "prefecture_kana": "アイチケン",
    "prefecture_code": 23,
    "city": "春日井市",
    "city_kana": "カスガイシ",
    "town": "角崎町",
    "town_kana": "ツノサキチョウ",
    "street": null,
    "office_name": null,
    "office_name_kana": null
  },
  "0944": {
    "postcode": "4860944",
    "prefecture": "愛知県",
    "prefecture_kana": "アイチケン",
    "prefecture_code": 23,
    "city": "春日井市",
    "city_kana": "カスガイシ",
    "town": "大和通",
    "town_kana": "ヤマトドオリ",
    "street": null,
    "office_name": null,
    "office_name_kana": null
  },
  "0945": {
    "postcode": "4860945",
    "prefecture": "愛知県",
    "prefecture_kana": "アイチケン",
    "prefecture_code": 23,
    "city": "春日井市",
    "city_kana": "カスガイシ",
    "town": "勝川町",
    "town_kana": "カチガワチョウ",
    "street": null,
    "office_name": null,
    "office_name_kana": null
  },
  "0946": {
    "postcode": "4860946",
    "prefecture": "愛知県",
    "prefecture_kana": "アイチケン",
    "prefecture_code": 23,
    "city": "春日井市",
    "city_kana": "カスガイシ",
    "town": "勝川町西",
    "town_kana": "カチガワチョウニシ",
    "street": null,
    "office_name": null,
    "office_name_kana": null
  },
  "0947": {
    "postcode": "4860947",
    "prefecture": "愛知県",
    "prefecture_kana": "アイチケン",
    "prefecture_code": 23,
    "city": "春日井市",
    "city_kana": "カスガイシ",
    "town": "知多町",
    "town_kana": "チタチョウ",
    "street": null,
    "office_name": null,
    "office_name_kana": null
  },
  "0948": {
    "postcode": "4860948",
    "prefecture": "愛知県",
    "prefecture_kana": "アイチケン",
    "prefecture_code": 23,
    "city": "春日井市",
    "city_kana": "カスガイシ",
    "town": "天神町",
    "town_kana": "テンジンチョウ",
    "street": null,
    "office_name": null,
    "office_name_kana": null
  },
  "0949": {
    "postcode": "4860949",
    "prefecture": "愛知県",
    "prefecture_kana": "アイチケン",
    "prefecture_code": 23,
    "city": "春日井市",
    "city_kana": "カスガイシ",
    "town": "惣中町",
    "town_kana": "ソウナカチョウ",
    "street": null,
    "office_name": null,
    "office_name_kana": null
  },
  "0951": {
    "postcode": "4860951",
    "prefecture": "愛知県",
    "prefecture_kana": "アイチケン",
    "prefecture_code": 23,
    "city": "春日井市",
    "city_kana": "カスガイシ",
    "town": "花長町",
    "town_kana": "ハナオサチョウ",
    "street": null,
    "office_name": null,
    "office_name_kana": null
  },
  "0952": {
    "postcode": "4860952",
    "prefecture": "愛知県",
    "prefecture_kana": "アイチケン",
    "prefecture_code": 23,
    "city": "春日井市",
    "city_kana": "カスガイシ",
    "town": "追進町",
    "town_kana": "ツイシンチョウ",
    "street": null,
    "office_name": null,
    "office_name_kana": null
  },
  "0953": {
    "postcode": "4860953",
    "prefecture": "愛知県",
    "prefecture_kana": "アイチケン",
    "prefecture_code": 23,
    "city": "春日井市",
    "city_kana": "カスガイシ",
    "town": "御幸町",
    "town_kana": "ミユキチョウ",
    "street": null,
    "office_name": null,
    "office_name_kana": null
  },
  "0954": {
    "postcode": "4860954",
    "prefecture": "愛知県",
    "prefecture_kana": "アイチケン",
    "prefecture_code": 23,
    "city": "春日井市",
    "city_kana": "カスガイシ",
    "town": "南花長町",
    "town_kana": "ミナミハナオサチョウ",
    "street": null,
    "office_name": null,
    "office_name_kana": null
  },
  "0955": {
    "postcode": "4860955",
    "prefecture": "愛知県",
    "prefecture_kana": "アイチケン",
    "prefecture_code": 23,
    "city": "春日井市",
    "city_kana": "カスガイシ",
    "town": "二子町",
    "town_kana": "フタゴチョウ",
    "street": null,
    "office_name": null,
    "office_name_kana": null
  },
  "0956": {
    "postcode": "4860956",
    "prefecture": "愛知県",
    "prefecture_kana": "アイチケン",
    "prefecture_code": 23,
    "city": "春日井市",
    "city_kana": "カスガイシ",
    "town": "中新町",
    "town_kana": "ナカシンチョウ",
    "street": null,
    "office_name": null,
    "office_name_kana": null
  },
  "0957": {
    "postcode": "4860957",
    "prefecture": "愛知県",
    "prefecture_kana": "アイチケン",
    "prefecture_code": 23,
    "city": "春日井市",
    "city_kana": "カスガイシ",
    "town": "中野町",
    "town_kana": "ナカノチョウ",
    "street": null,
    "office_name": null,
    "office_name_kana": null
  },
  "0958": {
    "postcode": "4860958",
    "prefecture": "愛知県",
    "prefecture_kana": "アイチケン",
    "prefecture_code": 23,
    "city": "春日井市",
    "city_kana": "カスガイシ",
    "town": "西本町",
    "town_kana": "ニシホンマチ",
    "street": null,
    "office_name": null,
    "office_name_kana": null
  },
  "0961": {
    "postcode": "4860961",
    "prefecture": "愛知県",
    "prefecture_kana": "アイチケン",
    "prefecture_code": 23,
    "city": "春日井市",
    "city_kana": "カスガイシ",
    "town": "春日井上ノ町",
    "town_kana": "カスガイカミノチョウ",
    "street": null,
    "office_name": null,
    "office_name_kana": null
  },
  "0962": {
    "postcode": "4860962",
    "prefecture": "愛知県",
    "prefecture_kana": "アイチケン",
    "prefecture_code": 23,
    "city": "春日井市",
    "city_kana": "カスガイシ",
    "town": "中町",
    "town_kana": "ナカマチ",
    "street": null,
    "office_name": null,
    "office_name_kana": null
  },
  "0963": {
    "postcode": "4860963",
    "prefecture": "愛知県",
    "prefecture_kana": "アイチケン",
    "prefecture_code": 23,
    "city": "春日井市",
    "city_kana": "カスガイシ",
    "town": "春日井町",
    "town_kana": "カスガイチョウ",
    "street": null,
    "office_name": null,
    "office_name_kana": null
  },
  "0964": {
    "postcode": "4860964",
    "prefecture": "愛知県",
    "prefecture_kana": "アイチケン",
    "prefecture_code": 23,
    "city": "春日井市",
    "city_kana": "カスガイシ",
    "town": "宗法町",
    "town_kana": "ソウホウチョウ",
    "street": null,
    "office_name": null,
    "office_name_kana": null
  },
  "0965": {
    "postcode": "4860965",
    "prefecture": "愛知県",
    "prefecture_kana": "アイチケン",
    "prefecture_code": 23,
    "city": "春日井市",
    "city_kana": "カスガイシ",
    "town": "味美上ノ町",
    "town_kana": "アジヨシカミノチョウ",
    "street": null,
    "office_name": null,
    "office_name_kana": null
  },
  "0966": {
    "postcode": "4860966",
    "prefecture": "愛知県",
    "prefecture_kana": "アイチケン",
    "prefecture_code": 23,
    "city": "春日井市",
    "city_kana": "カスガイシ",
    "town": "上ノ町",
    "town_kana": "カミノチョウ",
    "street": null,
    "office_name": null,
    "office_name_kana": null
  },
  "0967": {
    "postcode": "4860967",
    "prefecture": "愛知県",
    "prefecture_kana": "アイチケン",
    "prefecture_code": 23,
    "city": "春日井市",
    "city_kana": "カスガイシ",
    "town": "味美西本町",
    "town_kana": "アジヨシニシホンマチ",
    "street": null,
    "office_name": null,
    "office_name_kana": null
  },
  "0968": {
    "postcode": "4860968",
    "prefecture": "愛知県",
    "prefecture_kana": "アイチケン",
    "prefecture_code": 23,
    "city": "春日井市",
    "city_kana": "カスガイシ",
    "town": "味美町",
    "town_kana": "アジヨシチョウ",
    "street": null,
    "office_name": null,
    "office_name_kana": null
  },
  "0969": {
    "postcode": "4860969",
    "prefecture": "愛知県",
    "prefecture_kana": "アイチケン",
    "prefecture_code": 23,
    "city": "春日井市",
    "city_kana": "カスガイシ",
    "town": "味美白山町",
    "town_kana": "アジヨシハクサンチョウ",
    "street": null,
    "office_name": null,
    "office_name_kana": null
  },
  "8501": {
    "postcode": "4868501",
    "prefecture": "愛知県",
    "prefecture_kana": "アイチケン",
    "prefecture_code": 23,
    "city": "春日井市",
    "city_kana": "カスガイシ",
    "town": "大手田酉町",
    "town_kana": "オオデタトリチョウ",
    "street": "３丁目１３−１８",
    "office_name": "愛知金属工業　株式会社",
    "office_name_kana": "アイチキンゾクコウギヨウ カブシキガイシヤ"
  },
  "8510": {
    "postcode": "4868510",
    "prefecture": "愛知県",
    "prefecture_kana": "アイチケン",
    "prefecture_code": 23,
    "city": "春日井市",
    "city_kana": "カスガイシ",
    "town": "鷹来町",
    "town_kana": "タカキチョウ",
    "street": "１丁目１番地１",
    "office_name": "春日井市民病院",
    "office_name_kana": "カスガイシミンビヨウイン"
  },
  "8511": {
    "postcode": "4868511",
    "prefecture": "愛知県",
    "prefecture_kana": "アイチケン",
    "prefecture_code": 23,
    "city": "春日井市",
    "city_kana": "カスガイシ",
    "town": "鳥居松町",
    "town_kana": "トリイマツチョウ",
    "street": "５丁目４５",
    "office_name": "春日井商工会議所",
    "office_name_kana": "カスガイシヨウコウカイギシヨ"
  },
  "8515": {
    "postcode": "4868515",
    "prefecture": "愛知県",
    "prefecture_kana": "アイチケン",
    "prefecture_code": 23,
    "city": "春日井市",
    "city_kana": "カスガイシ",
    "town": "鳥居松町",
    "town_kana": "トリイマツチョウ",
    "street": "３丁目６５番地",
    "office_name": "愛知県東尾張県税事務所",
    "office_name_kana": "アイチケンヒガシオワリケンゼイジムシヨ"
  },
  "8522": {
    "postcode": "4868522",
    "prefecture": "愛知県",
    "prefecture_kana": "アイチケン",
    "prefecture_code": 23,
    "city": "春日井市",
    "city_kana": "カスガイシ",
    "town": "鷹来町",
    "town_kana": "タカキチョウ",
    "street": "字下仲田４０１７",
    "office_name": "パナソニックエコシステムズ　株式会社",
    "office_name_kana": "パナソニツクエコシステムズ カブシキガイシヤ"
  },
  "8523": {
    "postcode": "4868523",
    "prefecture": "愛知県",
    "prefecture_kana": "アイチケン",
    "prefecture_code": 23,
    "city": "春日井市",
    "city_kana": "カスガイシ",
    "town": "鷹来町",
    "town_kana": "タカキチョウ",
    "street": "字上仲田３９０５−３",
    "office_name": "パナソニックエコシステムズ　株式会社",
    "office_name_kana": "パナソニツクエコシステムズ カブシキガイシヤ"
  },
  "8540": {
    "postcode": "4868540",
    "prefecture": "愛知県",
    "prefecture_kana": "アイチケン",
    "prefecture_code": 23,
    "city": "春日井市",
    "city_kana": "カスガイシ",
    "town": "鳥居松町",
    "town_kana": "トリイマツチョウ",
    "street": "４丁目８３",
    "office_name": "中部電力パワーグリッド　株式会社　春日井営業所",
    "office_name_kana": "チユウブデンリヨクパワ-グリツド カブシキガイシヤ カスガイエイギヨウシヨ"
  },
  "8550": {
    "postcode": "4868550",
    "prefecture": "愛知県",
    "prefecture_kana": "アイチケン",
    "prefecture_code": 23,
    "city": "春日井市",
    "city_kana": "カスガイシ",
    "town": "西山町",
    "town_kana": "ニシヤマチョウ",
    "street": "無番地",
    "office_name": "陸上自衛隊　春日井駐屯地",
    "office_name_kana": "リクジヨウジエイタイ カスガイチユウトンチ"
  },
  "8555": {
    "postcode": "4868555",
    "prefecture": "愛知県",
    "prefecture_kana": "アイチケン",
    "prefecture_code": 23,
    "city": "春日井市",
    "city_kana": "カスガイシ",
    "town": "美濃町",
    "town_kana": "ミノマチ",
    "street": "３丁目２０−１８",
    "office_name": "株式会社　イエローハット　中部エリア",
    "office_name_kana": "カブシキガイシヤ イエロ-ハツト チユウブエリア"
  },
  "8567": {
    "postcode": "4868567",
    "prefecture": "愛知県",
    "prefecture_kana": "アイチケン",
    "prefecture_code": 23,
    "city": "春日井市",
    "city_kana": "カスガイシ",
    "town": "御幸町",
    "town_kana": "ミユキチョウ",
    "street": "１丁目３−１",
    "office_name": "株式会社　イケックス工業",
    "office_name_kana": "カブシキガイシヤ イケツクスコウギヨウ"
  },
  "8575": {
    "postcode": "4868575",
    "prefecture": "愛知県",
    "prefecture_kana": "アイチケン",
    "prefecture_code": 23,
    "city": "春日井市",
    "city_kana": "カスガイシ",
    "town": "春日井上ノ町",
    "town_kana": "カスガイカミノチョウ",
    "street": "割畑８０−５",
    "office_name": "（株）　中日総合サービス　春日井営業所",
    "office_name_kana": "(カブ) チユウニチソウゴウサ-ビス カスガイエイギヨウシヨ"
  },
  "8585": {
    "postcode": "4868585",
    "prefecture": "愛知県",
    "prefecture_kana": "アイチケン",
    "prefecture_code": 23,
    "city": "春日井市",
    "city_kana": "カスガイシ",
    "town": "味美町",
    "town_kana": "アジヨシチョウ",
    "street": "２丁目１５６",
    "office_name": "東洋電機　株式会社　春日井工場",
    "office_name_kana": "トウヨウデンキ カブシキガイシヤ カスガイコウジヨウ"
  },
  "8588": {
    "postcode": "4868588",
    "prefecture": "愛知県",
    "prefecture_kana": "アイチケン",
    "prefecture_code": 23,
    "city": "春日井市",
    "city_kana": "カスガイシ",
    "town": "如意申町",
    "town_kana": "ニョイサルチョウ",
    "street": "５丁目１１−３",
    "office_name": "株式会社　ゲオ",
    "office_name_kana": "カブシキガイシヤ ゲオ"
  },
  "8666": {
    "postcode": "4868666",
    "prefecture": "愛知県",
    "prefecture_kana": "アイチケン",
    "prefecture_code": 23,
    "city": "春日井市",
    "city_kana": "カスガイシ",
    "town": "愛知町",
    "town_kana": "アイチチョウ",
    "street": "１",
    "office_name": "愛知電機　株式会社",
    "office_name_kana": "アイチデンキ カブシキガイシヤ"
  },
  "8686": {
    "postcode": "4868686",
    "prefecture": "愛知県",
    "prefecture_kana": "アイチケン",
    "prefecture_code": 23,
    "city": "春日井市",
    "city_kana": "カスガイシ",
    "town": "鳥居松町",
    "town_kana": "トリイマツチョウ",
    "street": "５丁目４４番地",
    "office_name": "春日井市役所",
    "office_name_kana": "カスガイシヤクシヨ"
  }
}