{
  "0000": {
    "postcode": "4920000",
    "prefecture": "愛知県",
    "prefecture_kana": "アイチケン",
    "prefecture_code": 23,
    "city": "稲沢市",
    "city_kana": "イナザワシ",
    "town": "",
    "town_kana": "",
    "street": null,
    "office_name": null,
    "office_name_kana": null
  },
  "8001": {
    "postcode": "4928001",
    "prefecture": "愛知県",
    "prefecture_kana": "アイチケン",
    "prefecture_code": 23,
    "city": "稲沢市",
    "city_kana": "イナザワシ",
    "town": "赤池池田町",
    "town_kana": "アカイケイケダチョウ",
    "street": null,
    "office_name": null,
    "office_name_kana": null
  },
  "8002": {
    "postcode": "4928002",
    "prefecture": "愛知県",
    "prefecture_kana": "アイチケン",
    "prefecture_code": 23,
    "city": "稲沢市",
    "city_kana": "イナザワシ",
    "town": "赤池居道町",
    "town_kana": "アカイケイミチチョウ",
    "street": null,
    "office_name": null,
    "office_name_kana": null
  },
  "8003": {
    "postcode": "4928003",
    "prefecture": "愛知県",
    "prefecture_kana": "アイチケン",
    "prefecture_code": 23,
    "city": "稲沢市",
    "city_kana": "イナザワシ",
    "town": "赤池西出町",
    "town_kana": "アカイケニシデチョウ",
    "street": null,
    "office_name": null,
    "office_name_kana": null
  },
  "8004": {
    "postcode": "4928004",
    "prefecture": "愛知県",
    "prefecture_kana": "アイチケン",
    "prefecture_code": 23,
    "city": "稲沢市",
    "city_kana": "イナザワシ",
    "town": "赤池裏田町",
    "town_kana": "アカイケウラダチョウ",
    "street": null,
    "office_name": null,
    "office_name_kana": null
  },
  "8005": {
    "postcode": "4928005",
    "prefecture": "愛知県",
    "prefecture_kana": "アイチケン",
    "prefecture_code": 23,
    "city": "稲沢市",
    "city_kana": "イナザワシ",
    "town": "赤池陣出町",
    "town_kana": "アカイケジンデチョウ",
    "street": null,
    "office_name": null,
    "office_name_kana": null
  },
  "8006": {
    "postcode": "4928006",
    "prefecture": "愛知県",
    "prefecture_kana": "アイチケン",
    "prefecture_code": 23,
    "city": "稲沢市",
    "city_kana": "イナザワシ",
    "town": "赤池真崎町",
    "town_kana": "アカイケマツサキチョウ",
    "street": null,
    "office_name": null,
    "office_name_kana": null
  },
  "8007": {
    "postcode": "4928007",
    "prefecture": "愛知県",
    "prefecture_kana": "アイチケン",
    "prefecture_code": 23,
    "city": "稲沢市",
    "city_kana": "イナザワシ",
    "town": "赤池山中町",
    "town_kana": "アカイケヤマナカチョウ",
    "street": null,
    "office_name": null,
    "office_name_kana": null
  },
  "8008": {
    "postcode": "4928008",
    "prefecture": "愛知県",
    "prefecture_kana": "アイチケン",
    "prefecture_code": 23,
    "city": "稲沢市",
    "city_kana": "イナザワシ",
    "town": "赤池町",
    "town_kana": "アカイケチョウ",
    "street": null,
    "office_name": null,
    "office_name_kana": null
  },
  "8011": {
    "postcode": "4928011",
    "prefecture": "愛知県",
    "prefecture_kana": "アイチケン",
    "prefecture_code": 23,
    "city": "稲沢市",
    "city_kana": "イナザワシ",
    "town": "赤池前山町",
    "town_kana": "アカイケマエヤマチョウ",
    "street": null,
    "office_name": null,
    "office_name_kana": null
  },
  "8012": {
    "postcode": "4928012",
    "prefecture": "愛知県",
    "prefecture_kana": "アイチケン",
    "prefecture_code": 23,
    "city": "稲沢市",
    "city_kana": "イナザワシ",
    "town": "赤池天王町",
    "town_kana": "アカイケテンノウチョウ",
    "street": null,
    "office_name": null,
    "office_name_kana": null
  },
  "8013": {
    "postcode": "4928013",
    "prefecture": "愛知県",
    "prefecture_kana": "アイチケン",
    "prefecture_code": 23,
    "city": "稲沢市",
    "city_kana": "イナザワシ",
    "town": "赤池寺東町",
    "town_kana": "アカイケテラヒガシチョウ",
    "street": null,
    "office_name": null,
    "office_name_kana": null
  },
  "8014": {
    "postcode": "4928014",
    "prefecture": "愛知県",
    "prefecture_kana": "アイチケン",
    "prefecture_code": 23,
    "city": "稲沢市",
    "city_kana": "イナザワシ",
    "town": "赤池北町",
    "town_kana": "アカイケキタマチ",
    "street": null,
    "office_name": null,
    "office_name_kana": null
  },
  "8015": {
    "postcode": "4928015",
    "prefecture": "愛知県",
    "prefecture_kana": "アイチケン",
    "prefecture_code": 23,
    "city": "稲沢市",
    "city_kana": "イナザワシ",
    "town": "赤池北池田町",
    "town_kana": "アカイケキタイケダチョウ",
    "street": null,
    "office_name": null,
    "office_name_kana": null
  },
  "8016": {
    "postcode": "4928016",
    "prefecture": "愛知県",
    "prefecture_kana": "アイチケン",
    "prefecture_code": 23,
    "city": "稲沢市",
    "city_kana": "イナザワシ",
    "town": "赤池宮西町",
    "town_kana": "アカイケミヤニシチョウ",
    "street": null,
    "office_name": null,
    "office_name_kana": null
  },
  "8017": {
    "postcode": "4928017",
    "prefecture": "愛知県",
    "prefecture_kana": "アイチケン",
    "prefecture_code": 23,
    "city": "稲沢市",
    "city_kana": "イナザワシ",
    "town": "赤池旗屋町",
    "town_kana": "アカイケハタヤチョウ",
    "street": null,
    "office_name": null,
    "office_name_kana": null
  },
  "8021": {
    "postcode": "4928021",
    "prefecture": "愛知県",
    "prefecture_kana": "アイチケン",
    "prefecture_code": 23,
    "city": "稲沢市",
    "city_kana": "イナザワシ",
    "town": "赤池東山町",
    "town_kana": "アカイケヒガシヤマチョウ",
    "street": null,
    "office_name": null,
    "office_name_kana": null
  },
  "8022": {
    "postcode": "4928022",
    "prefecture": "愛知県",
    "prefecture_kana": "アイチケン",
    "prefecture_code": 23,
    "city": "稲沢市",
    "city_kana": "イナザワシ",
    "town": "赤池坂畑町",
    "town_kana": "アカイケサカハタチョウ",
    "street": null,
    "office_name": null,
    "office_name_kana": null
  },
  "8023": {
    "postcode": "4928023",
    "prefecture": "愛知県",
    "prefecture_kana": "アイチケン",
    "prefecture_code": 23,
    "city": "稲沢市",
    "city_kana": "イナザワシ",
    "town": "赤池広畑町",
    "town_kana": "アカイケヒロハタチョウ",
    "street": null,
    "office_name": null,
    "office_name_kana": null
  },
  "8024": {
    "postcode": "4928024",
    "prefecture": "愛知県",
    "prefecture_kana": "アイチケン",
    "prefecture_code": 23,
    "city": "稲沢市",
    "city_kana": "イナザワシ",
    "town": "赤池南町",
    "town_kana": "アカイケミナミマチ",
    "street": null,
    "office_name": null,
    "office_name_kana": null
  },
  "8025": {
    "postcode": "4928025",
    "prefecture": "愛知県",
    "prefecture_kana": "アイチケン",
    "prefecture_code": 23,
    "city": "稲沢市",
    "city_kana": "イナザワシ",
    "town": "赤池中町",
    "town_kana": "アカイケナカマチ",
    "street": null,
    "office_name": null,
    "office_name_kana": null
  },
  "8031": {
    "postcode": "4928031",
    "prefecture": "愛知県",
    "prefecture_kana": "アイチケン",
    "prefecture_code": 23,
    "city": "稲沢市",
    "city_kana": "イナザワシ",
    "town": "陸田高畑町",
    "town_kana": "クガタタカバタチョウ",
    "street": null,
    "office_name": null,
    "office_name_kana": null
  },
  "8032": {
    "postcode": "4928032",
    "prefecture": "愛知県",
    "prefecture_kana": "アイチケン",
    "prefecture_code": 23,
    "city": "稲沢市",
    "city_kana": "イナザワシ",
    "town": "陸田東出町",
    "town_kana": "クガタヒガシデチョウ",
    "street": null,
    "office_name": null,
    "office_name_kana": null
  },
  "8033": {
    "postcode": "4928033",
    "prefecture": "愛知県",
    "prefecture_kana": "アイチケン",
    "prefecture_code": 23,
    "city": "稲沢市",
    "city_kana": "イナザワシ",
    "town": "陸田一里山町",
    "town_kana": "クガタイチリヤマチョウ",
    "street": null,
    "office_name": null,
    "office_name_kana": null
  },
  "8034": {
    "postcode": "4928034",
    "prefecture": "愛知県",
    "prefecture_kana": "アイチケン",
    "prefecture_code": 23,
    "city": "稲沢市",
    "city_kana": "イナザワシ",
    "town": "陸田栗林町",
    "town_kana": "クガタクリバヤシチョウ",
    "street": null,
    "office_name": null,
    "office_name_kana": null
  },
  "8036": {
    "postcode": "4928036",
    "prefecture": "愛知県",
    "prefecture_kana": "アイチケン",
    "prefecture_code": 23,
    "city": "稲沢市",
    "city_kana": "イナザワシ",
    "town": "陸田本町",
    "town_kana": "クガタホンマチ",
    "street": null,
    "office_name": null,
    "office_name_kana": null
  },
  "8037": {
    "postcode": "4928037",
    "prefecture": "愛知県",
    "prefecture_kana": "アイチケン",
    "prefecture_code": 23,
    "city": "稲沢市",
    "city_kana": "イナザワシ",
    "town": "陸田白山町",
    "town_kana": "クガタハクサンチョウ",
    "street": null,
    "office_name": null,
    "office_name_kana": null
  },
  "8038": {
    "postcode": "4928038",
    "prefecture": "愛知県",
    "prefecture_kana": "アイチケン",
    "prefecture_code": 23,
    "city": "稲沢市",
    "city_kana": "イナザワシ",
    "town": "陸田町",
    "town_kana": "クガタチョウ",
    "street": null,
    "office_name": null,
    "office_name_kana": null
  },
  "8041": {
    "postcode": "4928041",
    "prefecture": "愛知県",
    "prefecture_kana": "アイチケン",
    "prefecture_code": 23,
    "city": "稲沢市",
    "city_kana": "イナザワシ",
    "town": "陸田丸之内町",
    "town_kana": "クガタマルノウチチョウ",
    "street": null,
    "office_name": null,
    "office_name_kana": null
  },
  "8042": {
    "postcode": "4928042",
    "prefecture": "愛知県",
    "prefecture_kana": "アイチケン",
    "prefecture_code": 23,
    "city": "稲沢市",
    "city_kana": "イナザワシ",
    "town": "陸田花塚町",
    "town_kana": "クガタハナヅカチョウ",
    "street": null,
    "office_name": null,
    "office_name_kana": null
  },
  "8043": {
    "postcode": "4928043",
    "prefecture": "愛知県",
    "prefecture_kana": "アイチケン",
    "prefecture_code": 23,
    "city": "稲沢市",
    "city_kana": "イナザワシ",
    "town": "陸田馬山町",
    "town_kana": "クガタウマヤマチョウ",
    "street": null,
    "office_name": null,
    "office_name_kana": null
  },
  "8044": {
    "postcode": "4928044",
    "prefecture": "愛知県",
    "prefecture_kana": "アイチケン",
    "prefecture_code": 23,
    "city": "稲沢市",
    "city_kana": "イナザワシ",
    "town": "陸田宮前",
    "town_kana": "クガタミヤマエ",
    "street": null,
    "office_name": null,
    "office_name_kana": null
  },
  "8045": {
    "postcode": "4928045",
    "prefecture": "愛知県",
    "prefecture_kana": "アイチケン",
    "prefecture_code": 23,
    "city": "稲沢市",
    "city_kana": "イナザワシ",
    "town": "陸田栗林",
    "town_kana": "クガタクリバヤシ",
    "street": null,
    "office_name": null,
    "office_name_kana": null
  },
  "8051": {
    "postcode": "4928051",
    "prefecture": "愛知県",
    "prefecture_kana": "アイチケン",
    "prefecture_code": 23,
    "city": "稲沢市",
    "city_kana": "イナザワシ",
    "town": "下津光明寺町",
    "town_kana": "オリヅコウミョウジチョウ",
    "street": null,
    "office_name": null,
    "office_name_kana": null
  },
  "8052": {
    "postcode": "4928052",
    "prefecture": "愛知県",
    "prefecture_kana": "アイチケン",
    "prefecture_code": 23,
    "city": "稲沢市",
    "city_kana": "イナザワシ",
    "town": "下津ふじ塚町",
    "town_kana": "オリヅフジツカチョウ",
    "street": null,
    "office_name": null,
    "office_name_kana": null
  },
  "8053": {
    "postcode": "4928053",
    "prefecture": "愛知県",
    "prefecture_kana": "アイチケン",
    "prefecture_code": 23,
    "city": "稲沢市",
    "city_kana": "イナザワシ",
    "town": "下津蛇池町",
    "town_kana": "オリヅジャイケチョウ",
    "street": null,
    "office_name": null,
    "office_name_kana": null
  },
  "8054": {
    "postcode": "4928054",
    "prefecture": "愛知県",
    "prefecture_kana": "アイチケン",
    "prefecture_code": 23,
    "city": "稲沢市",
    "city_kana": "イナザワシ",
    "town": "下津片町",
    "town_kana": "オリヅカタマチ",
    "street": null,
    "office_name": null,
    "office_name_kana": null
  },
  "8055": {
    "postcode": "4928055",
    "prefecture": "愛知県",
    "prefecture_kana": "アイチケン",
    "prefecture_code": 23,
    "city": "稲沢市",
    "city_kana": "イナザワシ",
    "town": "下津穂所町",
    "town_kana": "オリヅホドコロチョウ",
    "street": null,
    "office_name": null,
    "office_name_kana": null
  },
  "8056": {
    "postcode": "4928056",
    "prefecture": "愛知県",
    "prefecture_kana": "アイチケン",
    "prefecture_code": 23,
    "city": "稲沢市",
    "city_kana": "イナザワシ",
    "town": "下津鞍掛町",
    "town_kana": "オリヅクラカケチョウ",
    "street": null,
    "office_name": null,
    "office_name_kana": null
  },
  "8057": {
    "postcode": "4928057",
    "prefecture": "愛知県",
    "prefecture_kana": "アイチケン",
    "prefecture_code": 23,
    "city": "稲沢市",
    "city_kana": "イナザワシ",
    "town": "下津長田町",
    "town_kana": "オリヅナガタチョウ",
    "street": null,
    "office_name": null,
    "office_name_kana": null
  },
  "8058": {
    "postcode": "4928058",
    "prefecture": "愛知県",
    "prefecture_kana": "アイチケン",
    "prefecture_code": 23,
    "city": "稲沢市",
    "city_kana": "イナザワシ",
    "town": "下津牛洗町",
    "town_kana": "オリヅウシアライチョウ",
    "street": null,
    "office_name": null,
    "office_name_kana": null
  },
  "8061": {
    "postcode": "4928061",
    "prefecture": "愛知県",
    "prefecture_kana": "アイチケン",
    "prefecture_code": 23,
    "city": "稲沢市",
    "city_kana": "イナザワシ",
    "town": "下津高戸町",
    "town_kana": "オリヅタカドチョウ",
    "street": null,
    "office_name": null,
    "office_name_kana": null
  },
  "8062": {
    "postcode": "4928062",
    "prefecture": "愛知県",
    "prefecture_kana": "アイチケン",
    "prefecture_code": 23,
    "city": "稲沢市",
    "city_kana": "イナザワシ",
    "town": "下津住吉町",
    "town_kana": "オリヅスミヨシチョウ",
    "street": null,
    "office_name": null,
    "office_name_kana": null
  },
  "8063": {
    "postcode": "4928063",
    "prefecture": "愛知県",
    "prefecture_kana": "アイチケン",
    "prefecture_code": 23,
    "city": "稲沢市",
    "city_kana": "イナザワシ",
    "town": "下津矢口町",
    "town_kana": "オリヅヤグチチョウ",
    "street": null,
    "office_name": null,
    "office_name_kana": null
  },
  "8064": {
    "postcode": "4928064",
    "prefecture": "愛知県",
    "prefecture_kana": "アイチケン",
    "prefecture_code": 23,
    "city": "稲沢市",
    "city_kana": "イナザワシ",
    "town": "下津二本杉町",
    "town_kana": "オリヅニホンスギチョウ",
    "street": null,
    "office_name": null,
    "office_name_kana": null
  },
  "8065": {
    "postcode": "4928065",
    "prefecture": "愛知県",
    "prefecture_kana": "アイチケン",
    "prefecture_code": 23,
    "city": "稲沢市",
    "city_kana": "イナザワシ",
    "town": "下津大門町",
    "town_kana": "オリヅダイモンチョウ",
    "street": null,
    "office_name": null,
    "office_name_kana": null
  },
  "8066": {
    "postcode": "4928066",
    "prefecture": "愛知県",
    "prefecture_kana": "アイチケン",
    "prefecture_code": 23,
    "city": "稲沢市",
    "city_kana": "イナザワシ",
    "town": "下津新町",
    "town_kana": "オリヅシンマチ",
    "street": null,
    "office_name": null,
    "office_name_kana": null
  },
  "8068": {
    "postcode": "4928068",
    "prefecture": "愛知県",
    "prefecture_kana": "アイチケン",
    "prefecture_code": 23,
    "city": "稲沢市",
    "city_kana": "イナザワシ",
    "town": "下津小井戸町",
    "town_kana": "オリヅコイドチョウ",
    "street": null,
    "office_name": null,
    "office_name_kana": null
  },
  "8071": {
    "postcode": "4928071",
    "prefecture": "愛知県",
    "prefecture_kana": "アイチケン",
    "prefecture_code": 23,
    "city": "稲沢市",
    "city_kana": "イナザワシ",
    "town": "下津本郷町",
    "town_kana": "オリヅホンゴウチョウ",
    "street": null,
    "office_name": null,
    "office_name_kana": null
  },
  "8072": {
    "postcode": "4928072",
    "prefecture": "愛知県",
    "prefecture_kana": "アイチケン",
    "prefecture_code": 23,
    "city": "稲沢市",
    "city_kana": "イナザワシ",
    "town": "下津北信正寺町",
    "town_kana": "オリヅキタシンショウジチョウ",
    "street": null,
    "office_name": null,
    "office_name_kana": null
  },
  "8073": {
    "postcode": "4928073",
    "prefecture": "愛知県",
    "prefecture_kana": "アイチケン",
    "prefecture_code": 23,
    "city": "稲沢市",
    "city_kana": "イナザワシ",
    "town": "下津南信正寺町",
    "town_kana": "オリヅミナミシンショウジチョウ",
    "street": null,
    "office_name": null,
    "office_name_kana": null
  },
  "8074": {
    "postcode": "4928074",
    "prefecture": "愛知県",
    "prefecture_kana": "アイチケン",
    "prefecture_code": 23,
    "city": "稲沢市",
    "city_kana": "イナザワシ",
    "town": "下津下町東",
    "town_kana": "オリヅシモマチヒガシ",
    "street": null,
    "office_name": null,
    "office_name_kana": null
  },
  "8075": {
    "postcode": "4928075",
    "prefecture": "愛知県",
    "prefecture_kana": "アイチケン",
    "prefecture_code": 23,
    "city": "稲沢市",
    "city_kana": "イナザワシ",
    "town": "下津町",
    "town_kana": "オリヅチョウ",
    "street": null,
    "office_name": null,
    "office_name_kana": null
  },
  "8076": {
    "postcode": "4928076",
    "prefecture": "愛知県",
    "prefecture_kana": "アイチケン",
    "prefecture_code": 23,
    "city": "稲沢市",
    "city_kana": "イナザワシ",
    "town": "下津宮西町",
    "town_kana": "オリヅミヤニシチョウ",
    "street": null,
    "office_name": null,
    "office_name_kana": null
  },
  "8077": {
    "postcode": "4928077",
    "prefecture": "愛知県",
    "prefecture_kana": "アイチケン",
    "prefecture_code": 23,
    "city": "稲沢市",
    "city_kana": "イナザワシ",
    "town": "下津土山町",
    "town_kana": "オリヅドヤマチョウ",
    "street": null,
    "office_name": null,
    "office_name_kana": null
  },
  "8078": {
    "postcode": "4928078",
    "prefecture": "愛知県",
    "prefecture_kana": "アイチケン",
    "prefecture_code": 23,
    "city": "稲沢市",
    "city_kana": "イナザワシ",
    "town": "下津寺前町",
    "town_kana": "オリヅテラマエチョウ",
    "street": null,
    "office_name": null,
    "office_name_kana": null
  },
  "8081": {
    "postcode": "4928081",
    "prefecture": "愛知県",
    "prefecture_kana": "アイチケン",
    "prefecture_code": 23,
    "city": "稲沢市",
    "city_kana": "イナザワシ",
    "town": "下津油田町",
    "town_kana": "オリヅアブラデンチョウ",
    "street": null,
    "office_name": null,
    "office_name_kana": null
  },
  "8082": {
    "postcode": "4928082",
    "prefecture": "愛知県",
    "prefecture_kana": "アイチケン",
    "prefecture_code": 23,
    "city": "稲沢市",
    "city_kana": "イナザワシ",
    "town": "下津下町西",
    "town_kana": "オリヅシモマチニシ",
    "street": null,
    "office_name": null,
    "office_name_kana": null
  },
  "8083": {
    "postcode": "4928083",
    "prefecture": "愛知県",
    "prefecture_kana": "アイチケン",
    "prefecture_code": 23,
    "city": "稲沢市",
    "city_kana": "イナザワシ",
    "town": "下津森町",
    "town_kana": "オリヅモリマチ",
    "street": null,
    "office_name": null,
    "office_name_kana": null
  },
  "8084": {
    "postcode": "4928084",
    "prefecture": "愛知県",
    "prefecture_kana": "アイチケン",
    "prefecture_code": 23,
    "city": "稲沢市",
    "city_kana": "イナザワシ",
    "town": "下津南山町",
    "town_kana": "オリヅミナミヤマチョウ",
    "street": null,
    "office_name": null,
    "office_name_kana": null
  },
  "8085": {
    "postcode": "4928085",
    "prefecture": "愛知県",
    "prefecture_kana": "アイチケン",
    "prefecture_code": 23,
    "city": "稲沢市",
    "city_kana": "イナザワシ",
    "town": "下津丹下田町",
    "town_kana": "オリヅタンゲダチョウ",
    "street": null,
    "office_name": null,
    "office_name_kana": null
  },
  "8091": {
    "postcode": "4928091",
    "prefecture": "愛知県",
    "prefecture_kana": "アイチケン",
    "prefecture_code": 23,
    "city": "稲沢市",
    "city_kana": "イナザワシ",
    "town": "下津鞍掛",
    "town_kana": "オリヅクラカケ",
    "street": null,
    "office_name": null,
    "office_name_kana": null
  },
  "8092": {
    "postcode": "4928092",
    "prefecture": "愛知県",
    "prefecture_kana": "アイチケン",
    "prefecture_code": 23,
    "city": "稲沢市",
    "city_kana": "イナザワシ",
    "town": "下津穂所",
    "town_kana": "オリヅホドコロ",
    "street": null,
    "office_name": null,
    "office_name_kana": null
  },
  "8093": {
    "postcode": "4928093",
    "prefecture": "愛知県",
    "prefecture_kana": "アイチケン",
    "prefecture_code": 23,
    "city": "稲沢市",
    "city_kana": "イナザワシ",
    "town": "下津小井戸",
    "town_kana": "オリヅコイド",
    "street": null,
    "office_name": null,
    "office_name_kana": null
  },
  "8094": {
    "postcode": "4928094",
    "prefecture": "愛知県",
    "prefecture_kana": "アイチケン",
    "prefecture_code": 23,
    "city": "稲沢市",
    "city_kana": "イナザワシ",
    "town": "下津北山",
    "town_kana": "オリヅキタヤマ",
    "street": null,
    "office_name": null,
    "office_name_kana": null
  },
  "8095": {
    "postcode": "4928095",
    "prefecture": "愛知県",
    "prefecture_kana": "アイチケン",
    "prefecture_code": 23,
    "city": "稲沢市",
    "city_kana": "イナザワシ",
    "town": "下津南山",
    "town_kana": "オリヅミナミヤマ",
    "street": null,
    "office_name": null,
    "office_name_kana": null
  },
  "8101": {
    "postcode": "4928101",
    "prefecture": "愛知県",
    "prefecture_kana": "アイチケン",
    "prefecture_code": 23,
    "city": "稲沢市",
    "city_kana": "イナザワシ",
    "town": "子生和池田町",
    "town_kana": "コウワイケダチョウ",
    "street": null,
    "office_name": null,
    "office_name_kana": null
  },
  "8102": {
    "postcode": "4928102",
    "prefecture": "愛知県",
    "prefecture_kana": "アイチケン",
    "prefecture_code": 23,
    "city": "稲沢市",
    "city_kana": "イナザワシ",
    "town": "子生和神明町",
    "town_kana": "コウワシンメイチョウ",
    "street": null,
    "office_name": null,
    "office_name_kana": null
  },
  "8103": {
    "postcode": "4928103",
    "prefecture": "愛知県",
    "prefecture_kana": "アイチケン",
    "prefecture_code": 23,
    "city": "稲沢市",
    "city_kana": "イナザワシ",
    "town": "子生和溝師町",
    "town_kana": "コウワミゾシチョウ",
    "street": null,
    "office_name": null,
    "office_name_kana": null
  },
  "8104": {
    "postcode": "4928104",
    "prefecture": "愛知県",
    "prefecture_kana": "アイチケン",
    "prefecture_code": 23,
    "city": "稲沢市",
    "city_kana": "イナザワシ",
    "town": "子生和八島町",
    "town_kana": "コウワヤシマチョウ",
    "street": null,
    "office_name": null,
    "office_name_kana": null
  },
  "8105": {
    "postcode": "4928105",
    "prefecture": "愛知県",
    "prefecture_kana": "アイチケン",
    "prefecture_code": 23,
    "city": "稲沢市",
    "city_kana": "イナザワシ",
    "town": "子生和円場町",
    "town_kana": "コウワエンバチョウ",
    "street": null,
    "office_name": null,
    "office_name_kana": null
  },
  "8106": {
    "postcode": "4928106",
    "prefecture": "愛知県",
    "prefecture_kana": "アイチケン",
    "prefecture_code": 23,
    "city": "稲沢市",
    "city_kana": "イナザワシ",
    "town": "子生和町",
    "town_kana": "コウワチョウ",
    "street": null,
    "office_name": null,
    "office_name_kana": null
  },
  "8107": {
    "postcode": "4928107",
    "prefecture": "愛知県",
    "prefecture_kana": "アイチケン",
    "prefecture_code": 23,
    "city": "稲沢市",
    "city_kana": "イナザワシ",
    "town": "子生和住吉町",
    "town_kana": "コウワスミヨシチョウ",
    "street": null,
    "office_name": null,
    "office_name_kana": null
  },
  "8108": {
    "postcode": "4928108",
    "prefecture": "愛知県",
    "prefecture_kana": "アイチケン",
    "prefecture_code": 23,
    "city": "稲沢市",
    "city_kana": "イナザワシ",
    "town": "子生和子安賀町",
    "town_kana": "コウワコヤスガチョウ",
    "street": null,
    "office_name": null,
    "office_name_kana": null
  },
  "8109": {
    "postcode": "4928109",
    "prefecture": "愛知県",
    "prefecture_kana": "アイチケン",
    "prefecture_code": 23,
    "city": "稲沢市",
    "city_kana": "イナザワシ",
    "town": "子生和山王町",
    "town_kana": "コウワサンノウチョウ",
    "street": null,
    "office_name": null,
    "office_name_kana": null
  },
  "8111": {
    "postcode": "4928111",
    "prefecture": "愛知県",
    "prefecture_kana": "アイチケン",
    "prefecture_code": 23,
    "city": "稲沢市",
    "city_kana": "イナザワシ",
    "town": "子生和小原町",
    "town_kana": "コウワコハラチョウ",
    "street": null,
    "office_name": null,
    "office_name_kana": null
  },
  "8112": {
    "postcode": "4928112",
    "prefecture": "愛知県",
    "prefecture_kana": "アイチケン",
    "prefecture_code": 23,
    "city": "稲沢市",
    "city_kana": "イナザワシ",
    "town": "子生和坂田町",
    "town_kana": "コウワサカタチョウ",
    "street": null,
    "office_name": null,
    "office_name_kana": null
  },
  "8113": {
    "postcode": "4928113",
    "prefecture": "愛知県",
    "prefecture_kana": "アイチケン",
    "prefecture_code": 23,
    "city": "稲沢市",
    "city_kana": "イナザワシ",
    "town": "治郎丸神木町",
    "town_kana": "ジロマルシンボクチョウ",
    "street": null,
    "office_name": null,
    "office_name_kana": null
  },
  "8114": {
    "postcode": "4928114",
    "prefecture": "愛知県",
    "prefecture_kana": "アイチケン",
    "prefecture_code": 23,
    "city": "稲沢市",
    "city_kana": "イナザワシ",
    "town": "治郎丸椿町",
    "town_kana": "ジロマルツバキチョウ",
    "street": null,
    "office_name": null,
    "office_name_kana": null
  },
  "8115": {
    "postcode": "4928115",
    "prefecture": "愛知県",
    "prefecture_kana": "アイチケン",
    "prefecture_code": 23,
    "city": "稲沢市",
    "city_kana": "イナザワシ",
    "town": "治郎丸東町",
    "town_kana": "ジロマルヒガシマチ",
    "street": null,
    "office_name": null,
    "office_name_kana": null
  },
  "8116": {
    "postcode": "4928116",
    "prefecture": "愛知県",
    "prefecture_kana": "アイチケン",
    "prefecture_code": 23,
    "city": "稲沢市",
    "city_kana": "イナザワシ",
    "town": "治郎丸西町",
    "town_kana": "ジロマルニシマチ",
    "street": null,
    "office_name": null,
    "office_name_kana": null
  },
  "8117": {
    "postcode": "4928117",
    "prefecture": "愛知県",
    "prefecture_kana": "アイチケン",
    "prefecture_code": 23,
    "city": "稲沢市",
    "city_kana": "イナザワシ",
    "town": "治郎丸高須町",
    "town_kana": "ジロマルタカスチョウ",
    "street": null,
    "office_name": null,
    "office_name_kana": null
  },
  "8118": {
    "postcode": "4928118",
    "prefecture": "愛知県",
    "prefecture_kana": "アイチケン",
    "prefecture_code": 23,
    "city": "稲沢市",
    "city_kana": "イナザワシ",
    "town": "治郎丸北町",
    "town_kana": "ジロマルキタマチ",
    "street": null,
    "office_name": null,
    "office_name_kana": null
  },
  "8119": {
    "postcode": "4928119",
    "prefecture": "愛知県",
    "prefecture_kana": "アイチケン",
    "prefecture_code": 23,
    "city": "稲沢市",
    "city_kana": "イナザワシ",
    "town": "治郎丸大明町",
    "town_kana": "ジロマルダイミョウチョウ",
    "street": null,
    "office_name": null,
    "office_name_kana": null
  },
  "8121": {
    "postcode": "4928121",
    "prefecture": "愛知県",
    "prefecture_kana": "アイチケン",
    "prefecture_code": 23,
    "city": "稲沢市",
    "city_kana": "イナザワシ",
    "town": "治郎丸柳町",
    "town_kana": "ジロマルヤナギチョウ",
    "street": null,
    "office_name": null,
    "office_name_kana": null
  },
  "8122": {
    "postcode": "4928122",
    "prefecture": "愛知県",
    "prefecture_kana": "アイチケン",
    "prefecture_code": 23,
    "city": "稲沢市",
    "city_kana": "イナザワシ",
    "town": "治郎丸元町",
    "town_kana": "ジロマルモトマチ",
    "street": null,
    "office_name": null,
    "office_name_kana": null
  },
  "8123": {
    "postcode": "4928123",
    "prefecture": "愛知県",
    "prefecture_kana": "アイチケン",
    "prefecture_code": 23,
    "city": "稲沢市",
    "city_kana": "イナザワシ",
    "town": "治郎丸白山町",
    "town_kana": "ジロマルハクサンチョウ",
    "street": null,
    "office_name": null,
    "office_name_kana": null
  },
  "8124": {
    "postcode": "4928124",
    "prefecture": "愛知県",
    "prefecture_kana": "アイチケン",
    "prefecture_code": 23,
    "city": "稲沢市",
    "city_kana": "イナザワシ",
    "town": "治郎丸土井町",
    "town_kana": "ジロマルドイマチ",
    "street": null,
    "office_name": null,
    "office_name_kana": null
  },
  "8125": {
    "postcode": "4928125",
    "prefecture": "愛知県",
    "prefecture_kana": "アイチケン",
    "prefecture_code": 23,
    "city": "稲沢市",
    "city_kana": "イナザワシ",
    "town": "治郎丸清敷町",
    "town_kana": "ジロマルセイシキチョウ",
    "street": null,
    "office_name": null,
    "office_name_kana": null
  },
  "8126": {
    "postcode": "4928126",
    "prefecture": "愛知県",
    "prefecture_kana": "アイチケン",
    "prefecture_code": 23,
    "city": "稲沢市",
    "city_kana": "イナザワシ",
    "town": "治郎丸郷前町",
    "town_kana": "ジロマルゴウマエチョウ",
    "street": null,
    "office_name": null,
    "office_name_kana": null
  },
  "8127": {
    "postcode": "4928127",
    "prefecture": "愛知県",
    "prefecture_kana": "アイチケン",
    "prefecture_code": 23,
    "city": "稲沢市",
    "city_kana": "イナザワシ",
    "town": "治郎丸南町",
    "town_kana": "ジロマルミナミマチ",
    "street": null,
    "office_name": null,
    "office_name_kana": null
  },
  "8128": {
    "postcode": "4928128",
    "prefecture": "愛知県",
    "prefecture_kana": "アイチケン",
    "prefecture_code": 23,
    "city": "稲沢市",
    "city_kana": "イナザワシ",
    "town": "治郎丸中町",
    "town_kana": "ジロマルナカマチ",
    "street": null,
    "office_name": null,
    "office_name_kana": null
  },
  "8131": {
    "postcode": "4928131",
    "prefecture": "愛知県",
    "prefecture_kana": "アイチケン",
    "prefecture_code": 23,
    "city": "稲沢市",
    "city_kana": "イナザワシ",
    "town": "治郎丸古江町",
    "town_kana": "ジロマルフルエチョウ",
    "street": null,
    "office_name": null,
    "office_name_kana": null
  },
  "8132": {
    "postcode": "4928132",
    "prefecture": "愛知県",
    "prefecture_kana": "アイチケン",
    "prefecture_code": 23,
    "city": "稲沢市",
    "city_kana": "イナザワシ",
    "town": "治郎丸天神町",
    "town_kana": "ジロマルテンジンチョウ",
    "street": null,
    "office_name": null,
    "office_name_kana": null
  },
  "8133": {
    "postcode": "4928133",
    "prefecture": "愛知県",
    "prefecture_kana": "アイチケン",
    "prefecture_code": 23,
    "city": "稲沢市",
    "city_kana": "イナザワシ",
    "town": "治郎丸細道町",
    "town_kana": "ジロマルホソミチチョウ",
    "street": null,
    "office_name": null,
    "office_name_kana": null
  },
  "8134": {
    "postcode": "4928134",
    "prefecture": "愛知県",
    "prefecture_kana": "アイチケン",
    "prefecture_code": 23,
    "city": "稲沢市",
    "city_kana": "イナザワシ",
    "town": "治郎丸大角町",
    "town_kana": "ジロマルオオスミチョウ",
    "street": null,
    "office_name": null,
    "office_name_kana": null
  },
  "8135": {
    "postcode": "4928135",
    "prefecture": "愛知県",
    "prefecture_kana": "アイチケン",
    "prefecture_code": 23,
    "city": "稲沢市",
    "city_kana": "イナザワシ",
    "town": "治郎丸石塚町",
    "town_kana": "ジロマルイシヅカチョウ",
    "street": null,
    "office_name": null,
    "office_name_kana": null
  },
  "8136": {
    "postcode": "4928136",
    "prefecture": "愛知県",
    "prefecture_kana": "アイチケン",
    "prefecture_code": 23,
    "city": "稲沢市",
    "city_kana": "イナザワシ",
    "town": "小池正明寺町北街道",
    "town_kana": "コイケショウメイジチョウキタカイドウ",
    "street": null,
    "office_name": null,
    "office_name_kana": null
  },
  "8137": {
    "postcode": "4928137",
    "prefecture": "愛知県",
    "prefecture_kana": "アイチケン",
    "prefecture_code": 23,
    "city": "稲沢市",
    "city_kana": "イナザワシ",
    "town": "国府宮",
    "town_kana": "コウノミヤ",
    "street": null,
    "office_name": null,
    "office_name_kana": null
  },
  "8138": {
    "postcode": "4928138",
    "prefecture": "愛知県",
    "prefecture_kana": "アイチケン",
    "prefecture_code": 23,
    "city": "稲沢市",
    "city_kana": "イナザワシ",
    "town": "国府宮町",
    "town_kana": "コウノミヤチョウ",
    "street": null,
    "office_name": null,
    "office_name_kana": null
  },
  "8139": {
    "postcode": "4928139",
    "prefecture": "愛知県",
    "prefecture_kana": "アイチケン",
    "prefecture_code": 23,
    "city": "稲沢市",
    "city_kana": "イナザワシ",
    "town": "国府宮神田町",
    "town_kana": "コウノミヤジンデンチョウ",
    "street": null,
    "office_name": null,
    "office_name_kana": null
  },
  "8141": {
    "postcode": "4928141",
    "prefecture": "愛知県",
    "prefecture_kana": "アイチケン",
    "prefecture_code": 23,
    "city": "稲沢市",
    "city_kana": "イナザワシ",
    "town": "長野町",
    "town_kana": "ナガノチョウ",
    "street": null,
    "office_name": null,
    "office_name_kana": null
  },
  "8142": {
    "postcode": "4928142",
    "prefecture": "愛知県",
    "prefecture_kana": "アイチケン",
    "prefecture_code": 23,
    "city": "稲沢市",
    "city_kana": "イナザワシ",
    "town": "長野",
    "town_kana": "ナガノ",
    "street": null,
    "office_name": null,
    "office_name_kana": null
  },
  "8143": {
    "postcode": "4928143",
    "prefecture": "愛知県",
    "prefecture_kana": "アイチケン",
    "prefecture_code": 23,
    "city": "稲沢市",
    "city_kana": "イナザワシ",
    "town": "駅前",
    "town_kana": "エキマエ",
    "street": null,
    "office_name": null,
    "office_name_kana": null
  },
  "8144": {
    "postcode": "4928144",
    "prefecture": "愛知県",
    "prefecture_kana": "アイチケン",
    "prefecture_code": 23,
    "city": "稲沢市",
    "city_kana": "イナザワシ",
    "town": "小池",
    "town_kana": "コイケ",
    "street": null,
    "office_name": null,
    "office_name_kana": null
  },
  "8145": {
    "postcode": "4928145",
    "prefecture": "愛知県",
    "prefecture_kana": "アイチケン",
    "prefecture_code": 23,
    "city": "稲沢市",
    "city_kana": "イナザワシ",
    "town": "正明寺",
    "town_kana": "ショウメイジ",
    "street": null,
    "office_name": null,
    "office_name_kana": null
  },
  "8146": {
    "postcode": "4928146",
    "prefecture": "愛知県",
    "prefecture_kana": "アイチケン",
    "prefecture_code": 23,
    "city": "稲沢市",
    "city_kana": "イナザワシ",
    "town": "御供所町",
    "town_kana": "ゴクショチョウ",
    "street": null,
    "office_name": null,
    "office_name_kana": null
  },
  "8147": {
    "postcode": "4928147",
    "prefecture": "愛知県",
    "prefecture_kana": "アイチケン",
    "prefecture_code": 23,
    "city": "稲沢市",
    "city_kana": "イナザワシ",
    "town": "小池正明寺町",
    "town_kana": "コイケショウメイジチョウ",
    "street": null,
    "office_name": null,
    "office_name_kana": null
  },
  "8151": {
    "postcode": "4928151",
    "prefecture": "愛知県",
    "prefecture_kana": "アイチケン",
    "prefecture_code": 23,
    "city": "稲沢市",
    "city_kana": "イナザワシ",
    "town": "井之口北畑町",
    "town_kana": "イノクチキタバタチョウ",
    "street": null,
    "office_name": null,
    "office_name_kana": null
  },
  "8152": {
    "postcode": "4928152",
    "prefecture": "愛知県",
    "prefecture_kana": "アイチケン",
    "prefecture_code": 23,
    "city": "稲沢市",
    "city_kana": "イナザワシ",
    "town": "井之口大宮町",
    "town_kana": "イノクチオオミヤチョウ",
    "street": null,
    "office_name": null,
    "office_name_kana": null
  },
  "8153": {
    "postcode": "4928153",
    "prefecture": "愛知県",
    "prefecture_kana": "アイチケン",
    "prefecture_code": 23,
    "city": "稲沢市",
    "city_kana": "イナザワシ",
    "town": "井之口町",
    "town_kana": "イノクチチョウ",
    "street": null,
    "office_name": null,
    "office_name_kana": null
  },
  "8154": {
    "postcode": "4928154",
    "prefecture": "愛知県",
    "prefecture_kana": "アイチケン",
    "prefecture_code": 23,
    "city": "稲沢市",
    "city_kana": "イナザワシ",
    "town": "井之口本町",
    "town_kana": "イノクチホンマチ",
    "street": null,
    "office_name": null,
    "office_name_kana": null
  },
  "8155": {
    "postcode": "4928155",
    "prefecture": "愛知県",
    "prefecture_kana": "アイチケン",
    "prefecture_code": 23,
    "city": "稲沢市",
    "city_kana": "イナザワシ",
    "town": "井之口四家町",
    "town_kana": "イノクチヨツヤチョウ",
    "street": null,
    "office_name": null,
    "office_name_kana": null
  },
  "8156": {
    "postcode": "4928156",
    "prefecture": "愛知県",
    "prefecture_kana": "アイチケン",
    "prefecture_code": 23,
    "city": "稲沢市",
    "city_kana": "イナザワシ",
    "town": "井之口親畑町",
    "town_kana": "イノクチオヤバタチョウ",
    "street": null,
    "office_name": null,
    "office_name_kana": null
  },
  "8157": {
    "postcode": "4928157",
    "prefecture": "愛知県",
    "prefecture_kana": "アイチケン",
    "prefecture_code": 23,
    "city": "稲沢市",
    "city_kana": "イナザワシ",
    "town": "井之口柿ノ木町",
    "town_kana": "イノクチカキノキチョウ",
    "street": null,
    "office_name": null,
    "office_name_kana": null
  },
  "8158": {
    "postcode": "4928158",
    "prefecture": "愛知県",
    "prefecture_kana": "アイチケン",
    "prefecture_code": 23,
    "city": "稲沢市",
    "city_kana": "イナザワシ",
    "town": "井之口白山町",
    "town_kana": "イノクチハクサンチョウ",
    "street": null,
    "office_name": null,
    "office_name_kana": null
  },
  "8161": {
    "postcode": "4928161",
    "prefecture": "愛知県",
    "prefecture_kana": "アイチケン",
    "prefecture_code": 23,
    "city": "稲沢市",
    "city_kana": "イナザワシ",
    "town": "菱町",
    "town_kana": "ヒシマチ",
    "street": null,
    "office_name": null,
    "office_name_kana": null
  },
  "8162": {
    "postcode": "4928162",
    "prefecture": "愛知県",
    "prefecture_kana": "アイチケン",
    "prefecture_code": 23,
    "city": "稲沢市",
    "city_kana": "イナザワシ",
    "town": "井之口小番戸町",
    "town_kana": "イノクチコバンドチョウ",
    "street": null,
    "office_name": null,
    "office_name_kana": null
  },
  "8163": {
    "postcode": "4928163",
    "prefecture": "愛知県",
    "prefecture_kana": "アイチケン",
    "prefecture_code": 23,
    "city": "稲沢市",
    "city_kana": "イナザワシ",
    "town": "井之口石塚町",
    "town_kana": "イノクチイシヅカチョウ",
    "street": null,
    "office_name": null,
    "office_name_kana": null
  },
  "8164": {
    "postcode": "4928164",
    "prefecture": "愛知県",
    "prefecture_kana": "アイチケン",
    "prefecture_code": 23,
    "city": "稲沢市",
    "city_kana": "イナザワシ",
    "town": "井之口大坪町",
    "town_kana": "イノクチオオツボチョウ",
    "street": null,
    "office_name": null,
    "office_name_kana": null
  },
  "8165": {
    "postcode": "4928165",
    "prefecture": "愛知県",
    "prefecture_kana": "アイチケン",
    "prefecture_code": 23,
    "city": "稲沢市",
    "city_kana": "イナザワシ",
    "town": "井之口鶴田町",
    "town_kana": "イノクチツルデンチョウ",
    "street": null,
    "office_name": null,
    "office_name_kana": null
  },
  "8166": {
    "postcode": "4928166",
    "prefecture": "愛知県",
    "prefecture_kana": "アイチケン",
    "prefecture_code": 23,
    "city": "稲沢市",
    "city_kana": "イナザワシ",
    "town": "井之口沖ノ田町",
    "town_kana": "イノクチオキノタチョウ",
    "street": null,
    "office_name": null,
    "office_name_kana": null
  },
  "8167": {
    "postcode": "4928167",
    "prefecture": "愛知県",
    "prefecture_kana": "アイチケン",
    "prefecture_code": 23,
    "city": "稲沢市",
    "city_kana": "イナザワシ",
    "town": "長束町",
    "town_kana": "ナヅカチョウ",
    "street": null,
    "office_name": null,
    "office_name_kana": null
  },
  "8171": {
    "postcode": "4928171",
    "prefecture": "愛知県",
    "prefecture_kana": "アイチケン",
    "prefecture_code": 23,
    "city": "稲沢市",
    "city_kana": "イナザワシ",
    "town": "六角堂西町",
    "town_kana": "ロッカクドウニシマチ",
    "street": null,
    "office_name": null,
    "office_name_kana": null
  },
  "8172": {
    "postcode": "4928172",
    "prefecture": "愛知県",
    "prefecture_kana": "アイチケン",
    "prefecture_code": 23,
    "city": "稲沢市",
    "city_kana": "イナザワシ",
    "town": "六角堂東町",
    "town_kana": "ロッカクドウヒガシマチ",
    "street": null,
    "office_name": null,
    "office_name_kana": null
  },
  "8173": {
    "postcode": "4928173",
    "prefecture": "愛知県",
    "prefecture_kana": "アイチケン",
    "prefecture_code": 23,
    "city": "稲沢市",
    "city_kana": "イナザワシ",
    "town": "北市場町",
    "town_kana": "キタイチバチョウ",
    "street": null,
    "office_name": null,
    "office_name_kana": null
  },
  "8174": {
    "postcode": "4928174",
    "prefecture": "愛知県",
    "prefecture_kana": "アイチケン",
    "prefecture_code": 23,
    "city": "稲沢市",
    "city_kana": "イナザワシ",
    "town": "北市場西町",
    "town_kana": "キタイチバニシマチ",
    "street": null,
    "office_name": null,
    "office_name_kana": null
  },
  "8175": {
    "postcode": "4928175",
    "prefecture": "愛知県",
    "prefecture_kana": "アイチケン",
    "prefecture_code": 23,
    "city": "稲沢市",
    "city_kana": "イナザワシ",
    "town": "北市場南町",
    "town_kana": "キタイチバミナミマチ",
    "street": null,
    "office_name": null,
    "office_name_kana": null
  },
  "8176": {
    "postcode": "4928176",
    "prefecture": "愛知県",
    "prefecture_kana": "アイチケン",
    "prefecture_code": 23,
    "city": "稲沢市",
    "city_kana": "イナザワシ",
    "town": "日下部花ノ木町",
    "town_kana": "クサカベハナノキチョウ",
    "street": null,
    "office_name": null,
    "office_name_kana": null
  },
  "8177": {
    "postcode": "4928177",
    "prefecture": "愛知県",
    "prefecture_kana": "アイチケン",
    "prefecture_code": 23,
    "city": "稲沢市",
    "city_kana": "イナザワシ",
    "town": "日下部東町",
    "town_kana": "クサカベヒガシマチ",
    "street": null,
    "office_name": null,
    "office_name_kana": null
  },
  "8178": {
    "postcode": "4928178",
    "prefecture": "愛知県",
    "prefecture_kana": "アイチケン",
    "prefecture_code": 23,
    "city": "稲沢市",
    "city_kana": "イナザワシ",
    "town": "北市場本町",
    "town_kana": "キタイチバホンマチ",
    "street": null,
    "office_name": null,
    "office_name_kana": null
  },
  "8181": {
    "postcode": "4928181",
    "prefecture": "愛知県",
    "prefecture_kana": "アイチケン",
    "prefecture_code": 23,
    "city": "稲沢市",
    "city_kana": "イナザワシ",
    "town": "日下部北町",
    "town_kana": "クサカベキタマチ",
    "street": null,
    "office_name": null,
    "office_name_kana": null
  },
  "8182": {
    "postcode": "4928182",
    "prefecture": "愛知県",
    "prefecture_kana": "アイチケン",
    "prefecture_code": 23,
    "city": "稲沢市",
    "city_kana": "イナザワシ",
    "town": "日下部中町",
    "town_kana": "クサカベナカマチ",
    "street": null,
    "office_name": null,
    "office_name_kana": null
  },
  "8183": {
    "postcode": "4928183",
    "prefecture": "愛知県",
    "prefecture_kana": "アイチケン",
    "prefecture_code": 23,
    "city": "稲沢市",
    "city_kana": "イナザワシ",
    "town": "日下部南町",
    "town_kana": "クサカベミナミマチ",
    "street": null,
    "office_name": null,
    "office_name_kana": null
  },
  "8184": {
    "postcode": "4928184",
    "prefecture": "愛知県",
    "prefecture_kana": "アイチケン",
    "prefecture_code": 23,
    "city": "稲沢市",
    "city_kana": "イナザワシ",
    "town": "日下部松野町",
    "town_kana": "クサカベマツノチョウ",
    "street": null,
    "office_name": null,
    "office_name_kana": null
  },
  "8185": {
    "postcode": "4928185",
    "prefecture": "愛知県",
    "prefecture_kana": "アイチケン",
    "prefecture_code": 23,
    "city": "稲沢市",
    "city_kana": "イナザワシ",
    "town": "日下部西町",
    "town_kana": "クサカベニシマチ",
    "street": null,
    "office_name": null,
    "office_name_kana": null
  },
  "8186": {
    "postcode": "4928186",
    "prefecture": "愛知県",
    "prefecture_kana": "アイチケン",
    "prefecture_code": 23,
    "city": "稲沢市",
    "city_kana": "イナザワシ",
    "town": "日下部町",
    "town_kana": "クサカベチョウ",
    "street": null,
    "office_name": null,
    "office_name_kana": null
  },
  "8201": {
    "postcode": "4928201",
    "prefecture": "愛知県",
    "prefecture_kana": "アイチケン",
    "prefecture_code": 23,
    "city": "稲沢市",
    "city_kana": "イナザワシ",
    "town": "島子安賀町",
    "town_kana": "シマコヤスカチョウ",
    "street": null,
    "office_name": null,
    "office_name_kana": null
  },
  "8202": {
    "postcode": "4928202",
    "prefecture": "愛知県",
    "prefecture_kana": "アイチケン",
    "prefecture_code": 23,
    "city": "稲沢市",
    "city_kana": "イナザワシ",
    "town": "島東之郷町",
    "town_kana": "シマヒガシノゴウチョウ",
    "street": null,
    "office_name": null,
    "office_name_kana": null
  },
  "8203": {
    "postcode": "4928203",
    "prefecture": "愛知県",
    "prefecture_kana": "アイチケン",
    "prefecture_code": 23,
    "city": "稲沢市",
    "city_kana": "イナザワシ",
    "town": "島小原町",
    "town_kana": "シマコハラチョウ",
    "street": null,
    "office_name": null,
    "office_name_kana": null
  },
  "8204": {
    "postcode": "4928204",
    "prefecture": "愛知県",
    "prefecture_kana": "アイチケン",
    "prefecture_code": 23,
    "city": "稲沢市",
    "city_kana": "イナザワシ",
    "town": "島高須賀町",
    "town_kana": "シマタカスカチョウ",
    "street": null,
    "office_name": null,
    "office_name_kana": null
  },
  "8205": {
    "postcode": "4928205",
    "prefecture": "愛知県",
    "prefecture_kana": "アイチケン",
    "prefecture_code": 23,
    "city": "稲沢市",
    "city_kana": "イナザワシ",
    "town": "島町",
    "town_kana": "シマチョウ",
    "street": null,
    "office_name": null,
    "office_name_kana": null
  },
  "8206": {
    "postcode": "4928206",
    "prefecture": "愛知県",
    "prefecture_kana": "アイチケン",
    "prefecture_code": 23,
    "city": "稲沢市",
    "city_kana": "イナザワシ",
    "town": "稲島法成寺町",
    "town_kana": "イナジマホウジョウジチョウ",
    "street": null,
    "office_name": null,
    "office_name_kana": null
  },
  "8207": {
    "postcode": "4928207",
    "prefecture": "愛知県",
    "prefecture_kana": "アイチケン",
    "prefecture_code": 23,
    "city": "稲沢市",
    "city_kana": "イナザワシ",
    "town": "稲島町",
    "town_kana": "イナジマチョウ",
    "street": null,
    "office_name": null,
    "office_name_kana": null
  },
  "8208": {
    "postcode": "4928208",
    "prefecture": "愛知県",
    "prefecture_kana": "アイチケン",
    "prefecture_code": 23,
    "city": "稲沢市",
    "city_kana": "イナザワシ",
    "town": "松下",
    "town_kana": "マツシタ",
    "street": null,
    "office_name": null,
    "office_name_kana": null
  },
  "8209": {
    "postcode": "4928209",
    "prefecture": "愛知県",
    "prefecture_kana": "アイチケン",
    "prefecture_code": 23,
    "city": "稲沢市",
    "city_kana": "イナザワシ",
    "town": "木全町",
    "town_kana": "キマタチョウ",
    "street": null,
    "office_name": null,
    "office_name_kana": null
  },
  "8210": {
    "postcode": "4928210",
    "prefecture": "愛知県",
    "prefecture_kana": "アイチケン",
    "prefecture_code": 23,
    "city": "稲沢市",
    "city_kana": "イナザワシ",
    "town": "木全",
    "town_kana": "キマタ",
    "street": null,
    "office_name": null,
    "office_name_kana": null
  },
  "8211": {
    "postcode": "4928211",
    "prefecture": "愛知県",
    "prefecture_kana": "アイチケン",
    "prefecture_code": 23,
    "city": "稲沢市",
    "city_kana": "イナザワシ",
    "town": "稲沢町北山",
    "town_kana": "イナザワチョウキタヤマ",
    "street": null,
    "office_name": null,
    "office_name_kana": null
  },
  "8212": {
    "postcode": "4928212",
    "prefecture": "愛知県",
    "prefecture_kana": "アイチケン",
    "prefecture_code": 23,
    "city": "稲沢市",
    "city_kana": "イナザワシ",
    "town": "小沢",
    "town_kana": "コザワ",
    "street": null,
    "office_name": null,
    "office_name_kana": null
  },
  "8213": {
    "postcode": "4928213",
    "prefecture": "愛知県",
    "prefecture_kana": "アイチケン",
    "prefecture_code": 23,
    "city": "稲沢市",
    "city_kana": "イナザワシ",
    "town": "高御堂",
    "town_kana": "タカミドウ",
    "street": null,
    "office_name": null,
    "office_name_kana": null
  },
  "8214": {
    "postcode": "4928214",
    "prefecture": "愛知県",
    "prefecture_kana": "アイチケン",
    "prefecture_code": 23,
    "city": "稲沢市",
    "city_kana": "イナザワシ",
    "town": "大塚南",
    "town_kana": "オオツカミナミ",
    "street": null,
    "office_name": null,
    "office_name_kana": null
  },
  "8215": {
    "postcode": "4928215",
    "prefecture": "愛知県",
    "prefecture_kana": "アイチケン",
    "prefecture_code": 23,
    "city": "稲沢市",
    "city_kana": "イナザワシ",
    "town": "大塚北",
    "town_kana": "オオツカキタ",
    "street": null,
    "office_name": null,
    "office_name_kana": null
  },
  "8216": {
    "postcode": "4928216",
    "prefecture": "愛知県",
    "prefecture_kana": "アイチケン",
    "prefecture_code": 23,
    "city": "稲沢市",
    "city_kana": "イナザワシ",
    "town": "大塚町",
    "town_kana": "オオツカチョウ",
    "street": null,
    "office_name": null,
    "office_name_kana": null
  },
  "8217": {
    "postcode": "4928217",
    "prefecture": "愛知県",
    "prefecture_kana": "アイチケン",
    "prefecture_code": 23,
    "city": "稲沢市",
    "city_kana": "イナザワシ",
    "town": "稲沢町",
    "town_kana": "イナザワチョウ",
    "street": null,
    "office_name": null,
    "office_name_kana": null
  },
  "8218": {
    "postcode": "4928218",
    "prefecture": "愛知県",
    "prefecture_kana": "アイチケン",
    "prefecture_code": 23,
    "city": "稲沢市",
    "city_kana": "イナザワシ",
    "town": "西町",
    "town_kana": "ニシマチ",
    "street": null,
    "office_name": null,
    "office_name_kana": null
  },
  "8219": {
    "postcode": "4928219",
    "prefecture": "愛知県",
    "prefecture_kana": "アイチケン",
    "prefecture_code": 23,
    "city": "稲沢市",
    "city_kana": "イナザワシ",
    "town": "稲葉",
    "town_kana": "イナバ",
    "street": null,
    "office_name": null,
    "office_name_kana": null
  },
  "8220": {
    "postcode": "4928220",
    "prefecture": "愛知県",
    "prefecture_kana": "アイチケン",
    "prefecture_code": 23,
    "city": "稲沢市",
    "city_kana": "イナザワシ",
    "town": "前田",
    "town_kana": "マエダ",
    "street": null,
    "office_name": null,
    "office_name_kana": null
  },
  "8221": {
    "postcode": "4928221",
    "prefecture": "愛知県",
    "prefecture_kana": "アイチケン",
    "prefecture_code": 23,
    "city": "稲沢市",
    "city_kana": "イナザワシ",
    "town": "幸町",
    "town_kana": "サイワイチョウ",
    "street": null,
    "office_name": null,
    "office_name_kana": null
  },
  "8222": {
    "postcode": "4928222",
    "prefecture": "愛知県",
    "prefecture_kana": "アイチケン",
    "prefecture_code": 23,
    "city": "稲沢市",
    "city_kana": "イナザワシ",
    "town": "奥田天目寺町",
    "town_kana": "オクダテンモクジチョウ",
    "street": null,
    "office_name": null,
    "office_name_kana": null
  },
  "8223": {
    "postcode": "4928223",
    "prefecture": "愛知県",
    "prefecture_kana": "アイチケン",
    "prefecture_code": 23,
    "city": "稲沢市",
    "city_kana": "イナザワシ",
    "town": "奥田井之下町",
    "town_kana": "オクダイノシタチョウ",
    "street": null,
    "office_name": null,
    "office_name_kana": null
  },
  "8224": {
    "postcode": "4928224",
    "prefecture": "愛知県",
    "prefecture_kana": "アイチケン",
    "prefecture_code": 23,
    "city": "稲沢市",
    "city_kana": "イナザワシ",
    "town": "奥田大沢町",
    "town_kana": "オクダオオサワチョウ",
    "street": null,
    "office_name": null,
    "office_name_kana": null
  },
  "8225": {
    "postcode": "4928225",
    "prefecture": "愛知県",
    "prefecture_kana": "アイチケン",
    "prefecture_code": 23,
    "city": "稲沢市",
    "city_kana": "イナザワシ",
    "town": "奥田膳棚町",
    "town_kana": "オクダゼンタナチョウ",
    "street": null,
    "office_name": null,
    "office_name_kana": null
  },
  "8226": {
    "postcode": "4928226",
    "prefecture": "愛知県",
    "prefecture_kana": "アイチケン",
    "prefecture_code": 23,
    "city": "稲沢市",
    "city_kana": "イナザワシ",
    "town": "奥田大門町",
    "town_kana": "オクダダイモンチョウ",
    "street": null,
    "office_name": null,
    "office_name_kana": null
  },
  "8227": {
    "postcode": "4928227",
    "prefecture": "愛知県",
    "prefecture_kana": "アイチケン",
    "prefecture_code": 23,
    "city": "稲沢市",
    "city_kana": "イナザワシ",
    "town": "奥田白山町",
    "town_kana": "オクダハクサンチョウ",
    "street": null,
    "office_name": null,
    "office_name_kana": null
  },
  "8228": {
    "postcode": "4928228",
    "prefecture": "愛知県",
    "prefecture_kana": "アイチケン",
    "prefecture_code": 23,
    "city": "稲沢市",
    "city_kana": "イナザワシ",
    "town": "奥田長角町",
    "town_kana": "オクダナガズミチョウ",
    "street": null,
    "office_name": null,
    "office_name_kana": null
  },
  "8229": {
    "postcode": "4928229",
    "prefecture": "愛知県",
    "prefecture_kana": "アイチケン",
    "prefecture_code": 23,
    "city": "稲沢市",
    "city_kana": "イナザワシ",
    "town": "稲島",
    "town_kana": "イナジマ",
    "street": null,
    "office_name": null,
    "office_name_kana": null
  },
  "8230": {
    "postcode": "4928230",
    "prefecture": "愛知県",
    "prefecture_kana": "アイチケン",
    "prefecture_code": 23,
    "city": "稲沢市",
    "city_kana": "イナザワシ",
    "town": "稲島東",
    "town_kana": "イナジマヒガシ",
    "street": null,
    "office_name": null,
    "office_name_kana": null
  },
  "8231": {
    "postcode": "4928231",
    "prefecture": "愛知県",
    "prefecture_kana": "アイチケン",
    "prefecture_code": 23,
    "city": "稲沢市",
    "city_kana": "イナザワシ",
    "town": "奥田流町",
    "town_kana": "オクダナガレチョウ",
    "street": null,
    "office_name": null,
    "office_name_kana": null
  },
  "8232": {
    "postcode": "4928232",
    "prefecture": "愛知県",
    "prefecture_kana": "アイチケン",
    "prefecture_code": 23,
    "city": "稲沢市",
    "city_kana": "イナザワシ",
    "town": "奥田酒伊町",
    "town_kana": "オクダサカイチョウ",
    "street": null,
    "office_name": null,
    "office_name_kana": null
  },
  "8233": {
    "postcode": "4928233",
    "prefecture": "愛知県",
    "prefecture_kana": "アイチケン",
    "prefecture_code": 23,
    "city": "稲沢市",
    "city_kana": "イナザワシ",
    "town": "奥田町",
    "town_kana": "オクダチョウ",
    "street": null,
    "office_name": null,
    "office_name_kana": null
  },
  "8234": {
    "postcode": "4928234",
    "prefecture": "愛知県",
    "prefecture_kana": "アイチケン",
    "prefecture_code": 23,
    "city": "稲沢市",
    "city_kana": "イナザワシ",
    "town": "奥田切田町",
    "town_kana": "オクダキリタチョウ",
    "street": null,
    "office_name": null,
    "office_name_kana": null
  },
  "8235": {
    "postcode": "4928235",
    "prefecture": "愛知県",
    "prefecture_kana": "アイチケン",
    "prefecture_code": 23,
    "city": "稲沢市",
    "city_kana": "イナザワシ",
    "town": "奥田立長町",
    "town_kana": "オクダタテオサチョウ",
    "street": null,
    "office_name": null,
    "office_name_kana": null
  },
  "8236": {
    "postcode": "4928236",
    "prefecture": "愛知県",
    "prefecture_kana": "アイチケン",
    "prefecture_code": 23,
    "city": "稲沢市",
    "city_kana": "イナザワシ",
    "town": "奥田寺切町",
    "town_kana": "オクダテラギリチョウ",
    "street": null,
    "office_name": null,
    "office_name_kana": null
  },
  "8237": {
    "postcode": "4928237",
    "prefecture": "愛知県",
    "prefecture_kana": "アイチケン",
    "prefecture_code": 23,
    "city": "稲沢市",
    "city_kana": "イナザワシ",
    "town": "奥田馬場町",
    "town_kana": "オクダバンバチョウ",
    "street": null,
    "office_name": null,
    "office_name_kana": null
  },
  "8238": {
    "postcode": "4928238",
    "prefecture": "愛知県",
    "prefecture_kana": "アイチケン",
    "prefecture_code": 23,
    "city": "稲沢市",
    "city_kana": "イナザワシ",
    "town": "奥田堀畑町",
    "town_kana": "オクダホリバタチョウ",
    "street": null,
    "office_name": null,
    "office_name_kana": null
  },
  "8239": {
    "postcode": "4928239",
    "prefecture": "愛知県",
    "prefecture_kana": "アイチケン",
    "prefecture_code": 23,
    "city": "稲沢市",
    "city_kana": "イナザワシ",
    "town": "奥田中切町",
    "town_kana": "オクダナカキリチョウ",
    "street": null,
    "office_name": null,
    "office_name_kana": null
  },
  "8240": {
    "postcode": "4928240",
    "prefecture": "愛知県",
    "prefecture_kana": "アイチケン",
    "prefecture_code": 23,
    "city": "稲沢市",
    "city_kana": "イナザワシ",
    "town": "島下畑町",
    "town_kana": "シマシモバタチョウ",
    "street": null,
    "office_name": null,
    "office_name_kana": null
  },
  "8241": {
    "postcode": "4928241",
    "prefecture": "愛知県",
    "prefecture_kana": "アイチケン",
    "prefecture_code": 23,
    "city": "稲沢市",
    "city_kana": "イナザワシ",
    "town": "奥田田畑町",
    "town_kana": "オクダタバタチョウ",
    "street": null,
    "office_name": null,
    "office_name_kana": null
  },
  "8242": [
    {
      "postcode": "4928242",
      "prefecture": "愛知県",
      "prefecture_kana": "アイチケン",
      "prefecture_code": 23,
      "city": "稲沢市",
      "city_kana": "イナザワシ",
      "town": "奥田町田畑切",
      "town_kana": "オクダチョウタバタキリ",
      "street": null,
      "office_name": null,
      "office_name_kana": null
    },
    {
      "postcode": "4928242",
      "prefecture": "愛知県",
      "prefecture_kana": "アイチケン",
      "prefecture_code": 23,
      "city": "稲沢市",
      "city_kana": "イナザワシ",
      "town": "奥田町文七西",
      "town_kana": "オクダチョウブンヒチニシ",
      "street": null,
      "office_name": null,
      "office_name_kana": null
    }
  ],
  "8243": {
    "postcode": "4928243",
    "prefecture": "愛知県",
    "prefecture_kana": "アイチケン",
    "prefecture_code": 23,
    "city": "稲沢市",
    "city_kana": "イナザワシ",
    "town": "奥田木塚町",
    "town_kana": "オクダキヅカチョウ",
    "street": null,
    "office_name": null,
    "office_name_kana": null
  },
  "8244": {
    "postcode": "4928244",
    "prefecture": "愛知県",
    "prefecture_kana": "アイチケン",
    "prefecture_code": 23,
    "city": "稲沢市",
    "city_kana": "イナザワシ",
    "town": "奥田下河町",
    "town_kana": "オクダシモカワチョウ",
    "street": null,
    "office_name": null,
    "office_name_kana": null
  },
  "8245": {
    "postcode": "4928245",
    "prefecture": "愛知県",
    "prefecture_kana": "アイチケン",
    "prefecture_code": 23,
    "city": "稲沢市",
    "city_kana": "イナザワシ",
    "town": "奥田南花ノ木町",
    "town_kana": "オクダミナミハナノキチョウ",
    "street": null,
    "office_name": null,
    "office_name_kana": null
  },
  "8246": {
    "postcode": "4928246",
    "prefecture": "愛知県",
    "prefecture_kana": "アイチケン",
    "prefecture_code": 23,
    "city": "稲沢市",
    "city_kana": "イナザワシ",
    "town": "奥田計用町",
    "town_kana": "オクダケイヨウチョウ",
    "street": null,
    "office_name": null,
    "office_name_kana": null
  },
  "8247": {
    "postcode": "4928247",
    "prefecture": "愛知県",
    "prefecture_kana": "アイチケン",
    "prefecture_code": 23,
    "city": "稲沢市",
    "city_kana": "イナザワシ",
    "town": "東畑",
    "town_kana": "ヒガシバタ",
    "street": null,
    "office_name": null,
    "office_name_kana": null
  },
  "8248": {
    "postcode": "4928248",
    "prefecture": "愛知県",
    "prefecture_kana": "アイチケン",
    "prefecture_code": 23,
    "city": "稲沢市",
    "city_kana": "イナザワシ",
    "town": "島寺西町",
    "town_kana": "シマテラニシチョウ",
    "street": null,
    "office_name": null,
    "office_name_kana": null
  },
  "8249": {
    "postcode": "4928249",
    "prefecture": "愛知県",
    "prefecture_kana": "アイチケン",
    "prefecture_code": 23,
    "city": "稲沢市",
    "city_kana": "イナザワシ",
    "town": "島新田町",
    "town_kana": "シマシンデンチョウ",
    "street": null,
    "office_name": null,
    "office_name_kana": null
  },
  "8251": {
    "postcode": "4928251",
    "prefecture": "愛知県",
    "prefecture_kana": "アイチケン",
    "prefecture_code": 23,
    "city": "稲沢市",
    "city_kana": "イナザワシ",
    "town": "東緑町",
    "town_kana": "ヒガシミドリマチ",
    "street": null,
    "office_name": null,
    "office_name_kana": null
  },
  "8252": {
    "postcode": "4928252",
    "prefecture": "愛知県",
    "prefecture_kana": "アイチケン",
    "prefecture_code": 23,
    "city": "稲沢市",
    "city_kana": "イナザワシ",
    "town": "緑町",
    "town_kana": "ミドリマチ",
    "street": null,
    "office_name": null,
    "office_name_kana": null
  },
  "8253": {
    "postcode": "4928253",
    "prefecture": "愛知県",
    "prefecture_kana": "アイチケン",
    "prefecture_code": 23,
    "city": "稲沢市",
    "city_kana": "イナザワシ",
    "town": "奥田神ノ木町",
    "town_kana": "オクダカミノキチョウ",
    "street": null,
    "office_name": null,
    "office_name_kana": null
  },
  "8254": {
    "postcode": "4928254",
    "prefecture": "愛知県",
    "prefecture_kana": "アイチケン",
    "prefecture_code": 23,
    "city": "稲沢市",
    "city_kana": "イナザワシ",
    "town": "奥田宮長町",
    "town_kana": "オクダミヤナガチョウ",
    "street": null,
    "office_name": null,
    "office_name_kana": null
  },
  "8255": {
    "postcode": "4928255",
    "prefecture": "愛知県",
    "prefecture_kana": "アイチケン",
    "prefecture_code": 23,
    "city": "稲沢市",
    "city_kana": "イナザワシ",
    "town": "奥田天神町",
    "town_kana": "オクダテンジンチョウ",
    "street": null,
    "office_name": null,
    "office_name_kana": null
  },
  "8256": {
    "postcode": "4928256",
    "prefecture": "愛知県",
    "prefecture_kana": "アイチケン",
    "prefecture_code": 23,
    "city": "稲沢市",
    "city_kana": "イナザワシ",
    "town": "奥田北花ノ木町",
    "town_kana": "オクダキタハナノキチョウ",
    "street": null,
    "office_name": null,
    "office_name_kana": null
  },
  "8257": {
    "postcode": "4928257",
    "prefecture": "愛知県",
    "prefecture_kana": "アイチケン",
    "prefecture_code": 23,
    "city": "稲沢市",
    "city_kana": "イナザワシ",
    "town": "奥田島崎町",
    "town_kana": "オクダシマザキチョウ",
    "street": null,
    "office_name": null,
    "office_name_kana": null
  },
  "8258": {
    "postcode": "4928258",
    "prefecture": "愛知県",
    "prefecture_kana": "アイチケン",
    "prefecture_code": 23,
    "city": "稲沢市",
    "city_kana": "イナザワシ",
    "town": "島本郷町",
    "town_kana": "シマホンゴウチョウ",
    "street": null,
    "office_name": null,
    "office_name_kana": null
  },
  "8259": {
    "postcode": "4928259",
    "prefecture": "愛知県",
    "prefecture_kana": "アイチケン",
    "prefecture_code": 23,
    "city": "稲沢市",
    "city_kana": "イナザワシ",
    "town": "島北浦町",
    "town_kana": "シマキタウラチョウ",
    "street": null,
    "office_name": null,
    "office_name_kana": null
  },
  "8261": {
    "postcode": "4928261",
    "prefecture": "愛知県",
    "prefecture_kana": "アイチケン",
    "prefecture_code": 23,
    "city": "稲沢市",
    "city_kana": "イナザワシ",
    "town": "重本",
    "town_kana": "シゲモト",
    "street": null,
    "office_name": null,
    "office_name_kana": null
  },
  "8262": {
    "postcode": "4928262",
    "prefecture": "愛知県",
    "prefecture_kana": "アイチケン",
    "prefecture_code": 23,
    "city": "稲沢市",
    "city_kana": "イナザワシ",
    "town": "池部町",
    "town_kana": "イケベチョウ",
    "street": null,
    "office_name": null,
    "office_name_kana": null
  },
  "8263": {
    "postcode": "4928263",
    "prefecture": "愛知県",
    "prefecture_kana": "アイチケン",
    "prefecture_code": 23,
    "city": "稲沢市",
    "city_kana": "イナザワシ",
    "town": "平野",
    "town_kana": "ヒラノ",
    "street": null,
    "office_name": null,
    "office_name_kana": null
  },
  "8264": {
    "postcode": "4928264",
    "prefecture": "愛知県",
    "prefecture_kana": "アイチケン",
    "prefecture_code": 23,
    "city": "稲沢市",
    "city_kana": "イナザワシ",
    "town": "平野町",
    "town_kana": "ヒラノチョウ",
    "street": null,
    "office_name": null,
    "office_name_kana": null
  },
  "8265": {
    "postcode": "4928265",
    "prefecture": "愛知県",
    "prefecture_kana": "アイチケン",
    "prefecture_code": 23,
    "city": "稲沢市",
    "city_kana": "イナザワシ",
    "town": "小寺町",
    "town_kana": "コデラチョウ",
    "street": null,
    "office_name": null,
    "office_name_kana": null
  },
  "8266": {
    "postcode": "4928266",
    "prefecture": "愛知県",
    "prefecture_kana": "アイチケン",
    "prefecture_code": 23,
    "city": "稲沢市",
    "city_kana": "イナザワシ",
    "town": "横地",
    "town_kana": "ヨコチ",
    "street": null,
    "office_name": null,
    "office_name_kana": null
  },
  "8267": {
    "postcode": "4928267",
    "prefecture": "愛知県",
    "prefecture_kana": "アイチケン",
    "prefecture_code": 23,
    "city": "稲沢市",
    "city_kana": "イナザワシ",
    "town": "船橋町",
    "town_kana": "フナバシチョウ",
    "street": null,
    "office_name": null,
    "office_name_kana": null
  },
  "8268": {
    "postcode": "4928268",
    "prefecture": "愛知県",
    "prefecture_kana": "アイチケン",
    "prefecture_code": 23,
    "city": "稲沢市",
    "city_kana": "イナザワシ",
    "town": "朝府町",
    "town_kana": "アザブチョウ",
    "street": null,
    "office_name": null,
    "office_name_kana": null
  },
  "8269": {
    "postcode": "4928269",
    "prefecture": "愛知県",
    "prefecture_kana": "アイチケン",
    "prefecture_code": 23,
    "city": "稲沢市",
    "city_kana": "イナザワシ",
    "town": "稲府町",
    "town_kana": "イナブチョウ",
    "street": null,
    "office_name": null,
    "office_name_kana": null
  },
  "8271": {
    "postcode": "4928271",
    "prefecture": "愛知県",
    "prefecture_kana": "アイチケン",
    "prefecture_code": 23,
    "city": "稲沢市",
    "city_kana": "イナザワシ",
    "town": "石橋",
    "town_kana": "イシバシ",
    "street": null,
    "office_name": null,
    "office_name_kana": null
  },
  "8272": {
    "postcode": "4928272",
    "prefecture": "愛知県",
    "prefecture_kana": "アイチケン",
    "prefecture_code": 23,
    "city": "稲沢市",
    "city_kana": "イナザワシ",
    "town": "桜木",
    "town_kana": "サクラギ",
    "street": null,
    "office_name": null,
    "office_name_kana": null
  },
  "8273": {
    "postcode": "4928273",
    "prefecture": "愛知県",
    "prefecture_kana": "アイチケン",
    "prefecture_code": 23,
    "city": "稲沢市",
    "city_kana": "イナザワシ",
    "town": "桜木宮前町",
    "town_kana": "サクラギミヤマエチョウ",
    "street": null,
    "office_name": null,
    "office_name_kana": null
  },
  "8274": {
    "postcode": "4928274",
    "prefecture": "愛知県",
    "prefecture_kana": "アイチケン",
    "prefecture_code": 23,
    "city": "稲沢市",
    "city_kana": "イナザワシ",
    "town": "天池光田町",
    "town_kana": "アマイケコウダチョウ",
    "street": null,
    "office_name": null,
    "office_name_kana": null
  },
  "8275": {
    "postcode": "4928275",
    "prefecture": "愛知県",
    "prefecture_kana": "アイチケン",
    "prefecture_code": 23,
    "city": "稲沢市",
    "city_kana": "イナザワシ",
    "town": "天池五反田町",
    "town_kana": "アマイケゴタンダチョウ",
    "street": null,
    "office_name": null,
    "office_name_kana": null
  },
  "8276": {
    "postcode": "4928276",
    "prefecture": "愛知県",
    "prefecture_kana": "アイチケン",
    "prefecture_code": 23,
    "city": "稲沢市",
    "city_kana": "イナザワシ",
    "town": "天池町",
    "town_kana": "アマイケチョウ",
    "street": null,
    "office_name": null,
    "office_name_kana": null
  },
  "8277": {
    "postcode": "4928277",
    "prefecture": "愛知県",
    "prefecture_kana": "アイチケン",
    "prefecture_code": 23,
    "city": "稲沢市",
    "city_kana": "イナザワシ",
    "town": "天池牧作町",
    "town_kana": "アマイケマキツクリチョウ",
    "street": null,
    "office_name": null,
    "office_name_kana": null
  },
  "8278": {
    "postcode": "4928278",
    "prefecture": "愛知県",
    "prefecture_kana": "アイチケン",
    "prefecture_code": 23,
    "city": "稲沢市",
    "city_kana": "イナザワシ",
    "town": "天池金山町",
    "town_kana": "アマイケカナヤマチョウ",
    "street": null,
    "office_name": null,
    "office_name_kana": null
  },
  "8279": {
    "postcode": "4928279",
    "prefecture": "愛知県",
    "prefecture_kana": "アイチケン",
    "prefecture_code": 23,
    "city": "稲沢市",
    "city_kana": "イナザワシ",
    "town": "天池遠松町",
    "town_kana": "アマイケトオマツチョウ",
    "street": null,
    "office_name": null,
    "office_name_kana": null
  },
  "8281": {
    "postcode": "4928281",
    "prefecture": "愛知県",
    "prefecture_kana": "アイチケン",
    "prefecture_code": 23,
    "city": "稲沢市",
    "city_kana": "イナザワシ",
    "town": "天池伝代町",
    "town_kana": "アマイケデンダイチョウ",
    "street": null,
    "office_name": null,
    "office_name_kana": null
  },
  "8282": {
    "postcode": "4928282",
    "prefecture": "愛知県",
    "prefecture_kana": "アイチケン",
    "prefecture_code": 23,
    "city": "稲沢市",
    "city_kana": "イナザワシ",
    "town": "天池東町",
    "town_kana": "アマイケヒガシマチ",
    "street": null,
    "office_name": null,
    "office_name_kana": null
  },
  "8283": {
    "postcode": "4928283",
    "prefecture": "愛知県",
    "prefecture_kana": "アイチケン",
    "prefecture_code": 23,
    "city": "稲沢市",
    "city_kana": "イナザワシ",
    "town": "天池浪寄町",
    "town_kana": "アマイケナミヨセチョウ",
    "street": null,
    "office_name": null,
    "office_name_kana": null
  },
  "8284": {
    "postcode": "4928284",
    "prefecture": "愛知県",
    "prefecture_kana": "アイチケン",
    "prefecture_code": 23,
    "city": "稲沢市",
    "city_kana": "イナザワシ",
    "town": "天池西町",
    "town_kana": "アマイケニシマチ",
    "street": null,
    "office_name": null,
    "office_name_kana": null
  },
  "8285": {
    "postcode": "4928285",
    "prefecture": "愛知県",
    "prefecture_kana": "アイチケン",
    "prefecture_code": 23,
    "city": "稲沢市",
    "city_kana": "イナザワシ",
    "town": "竹腰東町",
    "town_kana": "タケノコシヒガシマチ",
    "street": null,
    "office_name": null,
    "office_name_kana": null
  },
  "8286": {
    "postcode": "4928286",
    "prefecture": "愛知県",
    "prefecture_kana": "アイチケン",
    "prefecture_code": 23,
    "city": "稲沢市",
    "city_kana": "イナザワシ",
    "town": "竹腰中町",
    "town_kana": "タケノコシナカマチ",
    "street": null,
    "office_name": null,
    "office_name_kana": null
  },
  "8287": {
    "postcode": "4928287",
    "prefecture": "愛知県",
    "prefecture_kana": "アイチケン",
    "prefecture_code": 23,
    "city": "稲沢市",
    "city_kana": "イナザワシ",
    "town": "竹腰西町",
    "town_kana": "タケノコシニシマチ",
    "street": null,
    "office_name": null,
    "office_name_kana": null
  },
  "8288": {
    "postcode": "4928288",
    "prefecture": "愛知県",
    "prefecture_kana": "アイチケン",
    "prefecture_code": 23,
    "city": "稲沢市",
    "city_kana": "イナザワシ",
    "town": "竹腰北町",
    "town_kana": "タケノコシキタマチ",
    "street": null,
    "office_name": null,
    "office_name_kana": null
  },
  "8289": {
    "postcode": "4928289",
    "prefecture": "愛知県",
    "prefecture_kana": "アイチケン",
    "prefecture_code": 23,
    "city": "稲沢市",
    "city_kana": "イナザワシ",
    "town": "竹腰本町",
    "town_kana": "タケノコシホンマチ",
    "street": null,
    "office_name": null,
    "office_name_kana": null
  },
  "8301": {
    "postcode": "4928301",
    "prefecture": "愛知県",
    "prefecture_kana": "アイチケン",
    "prefecture_code": 23,
    "city": "稲沢市",
    "city_kana": "イナザワシ",
    "town": "生出本町",
    "town_kana": "ハイデホンマチ",
    "street": null,
    "office_name": null,
    "office_name_kana": null
  },
  "8302": {
    "postcode": "4928302",
    "prefecture": "愛知県",
    "prefecture_kana": "アイチケン",
    "prefecture_code": 23,
    "city": "稲沢市",
    "city_kana": "イナザワシ",
    "town": "生出西道根町",
    "town_kana": "ハイデニシドウネチョウ",
    "street": null,
    "office_name": null,
    "office_name_kana": null
  },
  "8303": {
    "postcode": "4928303",
    "prefecture": "愛知県",
    "prefecture_kana": "アイチケン",
    "prefecture_code": 23,
    "city": "稲沢市",
    "city_kana": "イナザワシ",
    "town": "生出東道根町",
    "town_kana": "ハイデヒガシドウネチョウ",
    "street": null,
    "office_name": null,
    "office_name_kana": null
  },
  "8304": {
    "postcode": "4928304",
    "prefecture": "愛知県",
    "prefecture_kana": "アイチケン",
    "prefecture_code": 23,
    "city": "稲沢市",
    "city_kana": "イナザワシ",
    "town": "生出山田町",
    "town_kana": "ハイデヤマダチョウ",
    "street": null,
    "office_name": null,
    "office_name_kana": null
  },
  "8305": {
    "postcode": "4928305",
    "prefecture": "愛知県",
    "prefecture_kana": "アイチケン",
    "prefecture_code": 23,
    "city": "稲沢市",
    "city_kana": "イナザワシ",
    "town": "生出郷前町",
    "town_kana": "ハイデゴウマエチョウ",
    "street": null,
    "office_name": null,
    "office_name_kana": null
  },
  "8306": {
    "postcode": "4928306",
    "prefecture": "愛知県",
    "prefecture_kana": "アイチケン",
    "prefecture_code": 23,
    "city": "稲沢市",
    "city_kana": "イナザワシ",
    "town": "生出横西町",
    "town_kana": "ハイデヨコニシチョウ",
    "street": null,
    "office_name": null,
    "office_name_kana": null
  },
  "8307": {
    "postcode": "4928307",
    "prefecture": "愛知県",
    "prefecture_kana": "アイチケン",
    "prefecture_code": 23,
    "city": "稲沢市",
    "city_kana": "イナザワシ",
    "town": "生出上山町",
    "town_kana": "ハイデカミヤマチョウ",
    "street": null,
    "office_name": null,
    "office_name_kana": null
  },
  "8308": {
    "postcode": "4928308",
    "prefecture": "愛知県",
    "prefecture_kana": "アイチケン",
    "prefecture_code": 23,
    "city": "稲沢市",
    "city_kana": "イナザワシ",
    "town": "生出河戸町",
    "town_kana": "ハイデコエドチョウ",
    "street": null,
    "office_name": null,
    "office_name_kana": null
  },
  "8310": {
    "postcode": "4928310",
    "prefecture": "愛知県",
    "prefecture_kana": "アイチケン",
    "prefecture_code": 23,
    "city": "稲沢市",
    "city_kana": "イナザワシ",
    "town": "下屋",
    "town_kana": "シモヤ",
    "street": null,
    "office_name": null,
    "office_name_kana": null
  },
  "8311": {
    "postcode": "4928311",
    "prefecture": "愛知県",
    "prefecture_kana": "アイチケン",
    "prefecture_code": 23,
    "city": "稲沢市",
    "city_kana": "イナザワシ",
    "town": "清水西川原町",
    "town_kana": "シミズニシカワラチョウ",
    "street": null,
    "office_name": null,
    "office_name_kana": null
  },
  "8312": {
    "postcode": "4928312",
    "prefecture": "愛知県",
    "prefecture_kana": "アイチケン",
    "prefecture_code": 23,
    "city": "稲沢市",
    "city_kana": "イナザワシ",
    "town": "清水八尻町",
    "town_kana": "シミズハチジリチョウ",
    "street": null,
    "office_name": null,
    "office_name_kana": null
  },
  "8313": {
    "postcode": "4928313",
    "prefecture": "愛知県",
    "prefecture_kana": "アイチケン",
    "prefecture_code": 23,
    "city": "稲沢市",
    "city_kana": "イナザワシ",
    "town": "清水阿原町",
    "town_kana": "シミズアワラチョウ",
    "street": null,
    "office_name": null,
    "office_name_kana": null
  },
  "8314": {
    "postcode": "4928314",
    "prefecture": "愛知県",
    "prefecture_kana": "アイチケン",
    "prefecture_code": 23,
    "city": "稲沢市",
    "city_kana": "イナザワシ",
    "town": "清水町",
    "town_kana": "シミズチョウ",
    "street": null,
    "office_name": null,
    "office_name_kana": null
  },
  "8315": {
    "postcode": "4928315",
    "prefecture": "愛知県",
    "prefecture_kana": "アイチケン",
    "prefecture_code": 23,
    "city": "稲沢市",
    "city_kana": "イナザワシ",
    "town": "清水郷西町",
    "town_kana": "シミズゴウニシチョウ",
    "street": null,
    "office_name": null,
    "office_name_kana": null
  },
  "8316": {
    "postcode": "4928316",
    "prefecture": "愛知県",
    "prefecture_kana": "アイチケン",
    "prefecture_code": 23,
    "city": "稲沢市",
    "city_kana": "イナザワシ",
    "town": "清水寺前町",
    "town_kana": "シミズテラマエチョウ",
    "street": null,
    "office_name": null,
    "office_name_kana": null
  },
  "8317": {
    "postcode": "4928317",
    "prefecture": "愛知県",
    "prefecture_kana": "アイチケン",
    "prefecture_code": 23,
    "city": "稲沢市",
    "city_kana": "イナザワシ",
    "town": "清水八神町",
    "town_kana": "シミズヤガミチョウ",
    "street": null,
    "office_name": null,
    "office_name_kana": null
  },
  "8318": {
    "postcode": "4928318",
    "prefecture": "愛知県",
    "prefecture_kana": "アイチケン",
    "prefecture_code": 23,
    "city": "稲沢市",
    "city_kana": "イナザワシ",
    "town": "浅井町",
    "town_kana": "アサイチョウ",
    "street": null,
    "office_name": null,
    "office_name_kana": null
  },
  "8319": {
    "postcode": "4928319",
    "prefecture": "愛知県",
    "prefecture_kana": "アイチケン",
    "prefecture_code": 23,
    "city": "稲沢市",
    "city_kana": "イナザワシ",
    "town": "下屋町",
    "town_kana": "シモヤチョウ",
    "street": null,
    "office_name": null,
    "office_name_kana": null
  },
  "8321": {
    "postcode": "4928321",
    "prefecture": "愛知県",
    "prefecture_kana": "アイチケン",
    "prefecture_code": 23,
    "city": "稲沢市",
    "city_kana": "イナザワシ",
    "town": "西島北町",
    "town_kana": "ニシジマキタマチ",
    "street": null,
    "office_name": null,
    "office_name_kana": null
  },
  "8322": {
    "postcode": "4928322",
    "prefecture": "愛知県",
    "prefecture_kana": "アイチケン",
    "prefecture_code": 23,
    "city": "稲沢市",
    "city_kana": "イナザワシ",
    "town": "西島出町",
    "town_kana": "ニシジマデマチ",
    "street": null,
    "office_name": null,
    "office_name_kana": null
  },
  "8323": {
    "postcode": "4928323",
    "prefecture": "愛知県",
    "prefecture_kana": "アイチケン",
    "prefecture_code": 23,
    "city": "稲沢市",
    "city_kana": "イナザワシ",
    "town": "西島新町",
    "town_kana": "ニシジマシンマチ",
    "street": null,
    "office_name": null,
    "office_name_kana": null
  },
  "8325": {
    "postcode": "4928325",
    "prefecture": "愛知県",
    "prefecture_kana": "アイチケン",
    "prefecture_code": 23,
    "city": "稲沢市",
    "city_kana": "イナザワシ",
    "town": "西島東町",
    "town_kana": "ニシジマヒガシマチ",
    "street": null,
    "office_name": null,
    "office_name_kana": null
  },
  "8326": {
    "postcode": "4928326",
    "prefecture": "愛知県",
    "prefecture_kana": "アイチケン",
    "prefecture_code": 23,
    "city": "稲沢市",
    "city_kana": "イナザワシ",
    "town": "西島本町",
    "town_kana": "ニシジマホンマチ",
    "street": null,
    "office_name": null,
    "office_name_kana": null
  },
  "8327": {
    "postcode": "4928327",
    "prefecture": "愛知県",
    "prefecture_kana": "アイチケン",
    "prefecture_code": 23,
    "city": "稲沢市",
    "city_kana": "イナザワシ",
    "town": "西島中町",
    "town_kana": "ニシジマナカマチ",
    "street": null,
    "office_name": null,
    "office_name_kana": null
  },
  "8328": {
    "postcode": "4928328",
    "prefecture": "愛知県",
    "prefecture_kana": "アイチケン",
    "prefecture_code": 23,
    "city": "稲沢市",
    "city_kana": "イナザワシ",
    "town": "西島",
    "town_kana": "ニシジマ",
    "street": null,
    "office_name": null,
    "office_name_kana": null
  },
  "8329": {
    "postcode": "4928329",
    "prefecture": "愛知県",
    "prefecture_kana": "アイチケン",
    "prefecture_code": 23,
    "city": "稲沢市",
    "city_kana": "イナザワシ",
    "town": "西島町",
    "town_kana": "ニシジマチョウ",
    "street": null,
    "office_name": null,
    "office_name_kana": null
  },
  "8331": {
    "postcode": "4928331",
    "prefecture": "愛知県",
    "prefecture_kana": "アイチケン",
    "prefecture_code": 23,
    "city": "稲沢市",
    "city_kana": "イナザワシ",
    "town": "平佛供田町",
    "town_kana": "タイラブクデンチョウ",
    "street": null,
    "office_name": null,
    "office_name_kana": null
  },
  "8332": {
    "postcode": "4928332",
    "prefecture": "愛知県",
    "prefecture_kana": "アイチケン",
    "prefecture_code": 23,
    "city": "稲沢市",
    "city_kana": "イナザワシ",
    "town": "平尾苅町",
    "town_kana": "タイラオガリチョウ",
    "street": null,
    "office_name": null,
    "office_name_kana": null
  },
  "8333": {
    "postcode": "4928333",
    "prefecture": "愛知県",
    "prefecture_kana": "アイチケン",
    "prefecture_code": 23,
    "city": "稲沢市",
    "city_kana": "イナザワシ",
    "town": "平蜂ノ坪町",
    "town_kana": "タイラハチノツボチョウ",
    "street": null,
    "office_name": null,
    "office_name_kana": null
  },
  "8334": {
    "postcode": "4928334",
    "prefecture": "愛知県",
    "prefecture_kana": "アイチケン",
    "prefecture_code": 23,
    "city": "稲沢市",
    "city_kana": "イナザワシ",
    "town": "平高道町",
    "town_kana": "タイラタカミチチョウ",
    "street": null,
    "office_name": null,
    "office_name_kana": null
  },
  "8335": {
    "postcode": "4928335",
    "prefecture": "愛知県",
    "prefecture_kana": "アイチケン",
    "prefecture_code": 23,
    "city": "稲沢市",
    "city_kana": "イナザワシ",
    "town": "法花寺町",
    "town_kana": "ホッケジチョウ",
    "street": null,
    "office_name": null,
    "office_name_kana": null
  },
  "8336": {
    "postcode": "4928336",
    "prefecture": "愛知県",
    "prefecture_kana": "アイチケン",
    "prefecture_code": 23,
    "city": "稲沢市",
    "city_kana": "イナザワシ",
    "town": "平苅田町",
    "town_kana": "タイラカリタチョウ",
    "street": null,
    "office_name": null,
    "office_name_kana": null
  },
  "8337": {
    "postcode": "4928337",
    "prefecture": "愛知県",
    "prefecture_kana": "アイチケン",
    "prefecture_code": 23,
    "city": "稲沢市",
    "city_kana": "イナザワシ",
    "town": "平細工蔵町",
    "town_kana": "タイラサイクゾウチョウ",
    "street": null,
    "office_name": null,
    "office_name_kana": null
  },
  "8338": {
    "postcode": "4928338",
    "prefecture": "愛知県",
    "prefecture_kana": "アイチケン",
    "prefecture_code": 23,
    "city": "稲沢市",
    "city_kana": "イナザワシ",
    "town": "平金森町",
    "town_kana": "タイラカナモリチョウ",
    "street": null,
    "office_name": null,
    "office_name_kana": null
  },
  "8339": {
    "postcode": "4928339",
    "prefecture": "愛知県",
    "prefecture_kana": "アイチケン",
    "prefecture_code": 23,
    "city": "稲沢市",
    "city_kana": "イナザワシ",
    "town": "平江向町",
    "town_kana": "タイラエムカエチョウ",
    "street": null,
    "office_name": null,
    "office_name_kana": null
  },
  "8341": {
    "postcode": "4928341",
    "prefecture": "愛知県",
    "prefecture_kana": "アイチケン",
    "prefecture_code": 23,
    "city": "稲沢市",
    "city_kana": "イナザワシ",
    "town": "馬場町",
    "town_kana": "バンバチョウ",
    "street": null,
    "office_name": null,
    "office_name_kana": null
  },
  "8342": {
    "postcode": "4928342",
    "prefecture": "愛知県",
    "prefecture_kana": "アイチケン",
    "prefecture_code": 23,
    "city": "稲沢市",
    "city_kana": "イナザワシ",
    "town": "矢合町",
    "town_kana": "ヤワセチョウ",
    "street": null,
    "office_name": null,
    "office_name_kana": null
  },
  "8344": {
    "postcode": "4928344",
    "prefecture": "愛知県",
    "prefecture_kana": "アイチケン",
    "prefecture_code": 23,
    "city": "稲沢市",
    "city_kana": "イナザワシ",
    "town": "山口南町",
    "town_kana": "ヤマグチミナミマチ",
    "street": null,
    "office_name": null,
    "office_name_kana": null
  },
  "8345": {
    "postcode": "4928345",
    "prefecture": "愛知県",
    "prefecture_kana": "アイチケン",
    "prefecture_code": 23,
    "city": "稲沢市",
    "city_kana": "イナザワシ",
    "town": "山口宮前町",
    "town_kana": "ヤマグチミヤマエチョウ",
    "street": null,
    "office_name": null,
    "office_name_kana": null
  },
  "8346": {
    "postcode": "4928346",
    "prefecture": "愛知県",
    "prefecture_kana": "アイチケン",
    "prefecture_code": 23,
    "city": "稲沢市",
    "city_kana": "イナザワシ",
    "town": "山口本町",
    "town_kana": "ヤマグチホンマチ",
    "street": null,
    "office_name": null,
    "office_name_kana": null
  },
  "8347": {
    "postcode": "4928347",
    "prefecture": "愛知県",
    "prefecture_kana": "アイチケン",
    "prefecture_code": 23,
    "city": "稲沢市",
    "city_kana": "イナザワシ",
    "town": "山口町",
    "town_kana": "ヤマグチチョウ",
    "street": null,
    "office_name": null,
    "office_name_kana": null
  },
  "8348": {
    "postcode": "4928348",
    "prefecture": "愛知県",
    "prefecture_kana": "アイチケン",
    "prefecture_code": 23,
    "city": "稲沢市",
    "city_kana": "イナザワシ",
    "town": "馬場",
    "town_kana": "バンバ",
    "street": null,
    "office_name": null,
    "office_name_kana": null
  },
  "8349": {
    "postcode": "4928349",
    "prefecture": "愛知県",
    "prefecture_kana": "アイチケン",
    "prefecture_code": 23,
    "city": "稲沢市",
    "city_kana": "イナザワシ",
    "town": "儀長",
    "town_kana": "ギチョウ",
    "street": null,
    "office_name": null,
    "office_name_kana": null
  },
  "8351": {
    "postcode": "4928351",
    "prefecture": "愛知県",
    "prefecture_kana": "アイチケン",
    "prefecture_code": 23,
    "city": "稲沢市",
    "city_kana": "イナザワシ",
    "town": "一色竹橋町",
    "town_kana": "イシキタケハシチョウ",
    "street": null,
    "office_name": null,
    "office_name_kana": null
  },
  "8352": {
    "postcode": "4928352",
    "prefecture": "愛知県",
    "prefecture_kana": "アイチケン",
    "prefecture_code": 23,
    "city": "稲沢市",
    "city_kana": "イナザワシ",
    "town": "一色神宮町",
    "town_kana": "イシキジングウチョウ",
    "street": null,
    "office_name": null,
    "office_name_kana": null
  },
  "8353": {
    "postcode": "4928353",
    "prefecture": "愛知県",
    "prefecture_kana": "アイチケン",
    "prefecture_code": 23,
    "city": "稲沢市",
    "city_kana": "イナザワシ",
    "town": "一色藤塚町",
    "town_kana": "イシキフジツカチョウ",
    "street": null,
    "office_name": null,
    "office_name_kana": null
  },
  "8354": {
    "postcode": "4928354",
    "prefecture": "愛知県",
    "prefecture_kana": "アイチケン",
    "prefecture_code": 23,
    "city": "稲沢市",
    "city_kana": "イナザワシ",
    "town": "一色三反田町",
    "town_kana": "イシキサンタンダチョウ",
    "street": null,
    "office_name": null,
    "office_name_kana": null
  },
  "8355": {
    "postcode": "4928355",
    "prefecture": "愛知県",
    "prefecture_kana": "アイチケン",
    "prefecture_code": 23,
    "city": "稲沢市",
    "city_kana": "イナザワシ",
    "town": "片原一色町",
    "town_kana": "カタハライシキチョウ",
    "street": null,
    "office_name": null,
    "office_name_kana": null
  },
  "8356": {
    "postcode": "4928356",
    "prefecture": "愛知県",
    "prefecture_kana": "アイチケン",
    "prefecture_code": 23,
    "city": "稲沢市",
    "city_kana": "イナザワシ",
    "town": "一色市場町",
    "town_kana": "イシキイチバチョウ",
    "street": null,
    "office_name": null,
    "office_name_kana": null
  },
  "8357": {
    "postcode": "4928357",
    "prefecture": "愛知県",
    "prefecture_kana": "アイチケン",
    "prefecture_code": 23,
    "city": "稲沢市",
    "city_kana": "イナザワシ",
    "town": "一色道上町",
    "town_kana": "イシキミチカミチョウ",
    "street": null,
    "office_name": null,
    "office_name_kana": null
  },
  "8358": {
    "postcode": "4928358",
    "prefecture": "愛知県",
    "prefecture_kana": "アイチケン",
    "prefecture_code": 23,
    "city": "稲沢市",
    "city_kana": "イナザワシ",
    "town": "一色白山町",
    "town_kana": "イシキハクサンチョウ",
    "street": null,
    "office_name": null,
    "office_name_kana": null
  },
  "8361": {
    "postcode": "4928361",
    "prefecture": "愛知県",
    "prefecture_kana": "アイチケン",
    "prefecture_code": 23,
    "city": "稲沢市",
    "city_kana": "イナザワシ",
    "town": "一色長畑町",
    "town_kana": "イシキナガハタチョウ",
    "street": null,
    "office_name": null,
    "office_name_kana": null
  },
  "8362": {
    "postcode": "4928362",
    "prefecture": "愛知県",
    "prefecture_kana": "アイチケン",
    "prefecture_code": 23,
    "city": "稲沢市",
    "city_kana": "イナザワシ",
    "town": "一色青海町",
    "town_kana": "イシキアオカイチョウ",
    "street": null,
    "office_name": null,
    "office_name_kana": null
  },
  "8363": {
    "postcode": "4928363",
    "prefecture": "愛知県",
    "prefecture_kana": "アイチケン",
    "prefecture_code": 23,
    "city": "稲沢市",
    "city_kana": "イナザワシ",
    "town": "一色跡之口町",
    "town_kana": "イシキアトノクチチョウ",
    "street": null,
    "office_name": null,
    "office_name_kana": null
  },
  "8364": {
    "postcode": "4928364",
    "prefecture": "愛知県",
    "prefecture_kana": "アイチケン",
    "prefecture_code": 23,
    "city": "稲沢市",
    "city_kana": "イナザワシ",
    "town": "一色森山町",
    "town_kana": "イシキモリヤマチョウ",
    "street": null,
    "office_name": null,
    "office_name_kana": null
  },
  "8365": {
    "postcode": "4928365",
    "prefecture": "愛知県",
    "prefecture_kana": "アイチケン",
    "prefecture_code": 23,
    "city": "稲沢市",
    "city_kana": "イナザワシ",
    "town": "一色下方町",
    "town_kana": "イシキシモカタチョウ",
    "street": null,
    "office_name": null,
    "office_name_kana": null
  },
  "8366": {
    "postcode": "4928366",
    "prefecture": "愛知県",
    "prefecture_kana": "アイチケン",
    "prefecture_code": 23,
    "city": "稲沢市",
    "city_kana": "イナザワシ",
    "town": "一色川俣町",
    "town_kana": "イシキカワマタチョウ",
    "street": null,
    "office_name": null,
    "office_name_kana": null
  },
  "8371": {
    "postcode": "4928371",
    "prefecture": "愛知県",
    "prefecture_kana": "アイチケン",
    "prefecture_code": 23,
    "city": "稲沢市",
    "city_kana": "イナザワシ",
    "town": "一色上方町",
    "town_kana": "イシキカミガタチョウ",
    "street": null,
    "office_name": null,
    "office_name_kana": null
  },
  "8372": {
    "postcode": "4928372",
    "prefecture": "愛知県",
    "prefecture_kana": "アイチケン",
    "prefecture_code": 23,
    "city": "稲沢市",
    "city_kana": "イナザワシ",
    "town": "一色中屋敷町",
    "town_kana": "イシキナカヤシキチョウ",
    "street": null,
    "office_name": null,
    "office_name_kana": null
  },
  "8373": {
    "postcode": "4928373",
    "prefecture": "愛知県",
    "prefecture_kana": "アイチケン",
    "prefecture_code": 23,
    "city": "稲沢市",
    "city_kana": "イナザワシ",
    "town": "一色中通町",
    "town_kana": "イシキナカドオリチョウ",
    "street": null,
    "office_name": null,
    "office_name_kana": null
  },
  "8374": {
    "postcode": "4928374",
    "prefecture": "愛知県",
    "prefecture_kana": "アイチケン",
    "prefecture_code": 23,
    "city": "稲沢市",
    "city_kana": "イナザワシ",
    "town": "一色西町",
    "town_kana": "イシキニシマチ",
    "street": null,
    "office_name": null,
    "office_name_kana": null
  },
  "8375": {
    "postcode": "4928375",
    "prefecture": "愛知県",
    "prefecture_kana": "アイチケン",
    "prefecture_code": 23,
    "city": "稲沢市",
    "city_kana": "イナザワシ",
    "town": "一色巡見町",
    "town_kana": "イシキジュンケンチョウ",
    "street": null,
    "office_name": null,
    "office_name_kana": null
  },
  "8381": {
    "postcode": "4928381",
    "prefecture": "愛知県",
    "prefecture_kana": "アイチケン",
    "prefecture_code": 23,
    "city": "稲沢市",
    "city_kana": "イナザワシ",
    "town": "横野西郷町",
    "town_kana": "ヨコノニシゴウチョウ",
    "street": null,
    "office_name": null,
    "office_name_kana": null
  },
  "8382": {
    "postcode": "4928382",
    "prefecture": "愛知県",
    "prefecture_kana": "アイチケン",
    "prefecture_code": 23,
    "city": "稲沢市",
    "city_kana": "イナザワシ",
    "town": "横野堂根町",
    "town_kana": "ヨコノドウネチョウ",
    "street": null,
    "office_name": null,
    "office_name_kana": null
  },
  "8383": {
    "postcode": "4928383",
    "prefecture": "愛知県",
    "prefecture_kana": "アイチケン",
    "prefecture_code": 23,
    "city": "稲沢市",
    "city_kana": "イナザワシ",
    "town": "横野東出町",
    "town_kana": "ヨコノヒガシデチョウ",
    "street": null,
    "office_name": null,
    "office_name_kana": null
  },
  "8384": {
    "postcode": "4928384",
    "prefecture": "愛知県",
    "prefecture_kana": "アイチケン",
    "prefecture_code": 23,
    "city": "稲沢市",
    "city_kana": "イナザワシ",
    "town": "横野東郷町",
    "town_kana": "ヨコノヒガシゴウチョウ",
    "street": null,
    "office_name": null,
    "office_name_kana": null
  },
  "8385": {
    "postcode": "4928385",
    "prefecture": "愛知県",
    "prefecture_kana": "アイチケン",
    "prefecture_code": 23,
    "city": "稲沢市",
    "city_kana": "イナザワシ",
    "town": "横野河原町",
    "town_kana": "ヨコノカワラチョウ",
    "street": null,
    "office_name": null,
    "office_name_kana": null
  },
  "8386": {
    "postcode": "4928386",
    "prefecture": "愛知県",
    "prefecture_kana": "アイチケン",
    "prefecture_code": 23,
    "city": "稲沢市",
    "city_kana": "イナザワシ",
    "town": "横野松前町",
    "town_kana": "ヨコノマツマエチョウ",
    "street": null,
    "office_name": null,
    "office_name_kana": null
  },
  "8387": {
    "postcode": "4928387",
    "prefecture": "愛知県",
    "prefecture_kana": "アイチケン",
    "prefecture_code": 23,
    "city": "稲沢市",
    "city_kana": "イナザワシ",
    "town": "横野神田町",
    "town_kana": "ヨコノジンデンチョウ",
    "street": null,
    "office_name": null,
    "office_name_kana": null
  },
  "8388": {
    "postcode": "4928388",
    "prefecture": "愛知県",
    "prefecture_kana": "アイチケン",
    "prefecture_code": 23,
    "city": "稲沢市",
    "city_kana": "イナザワシ",
    "town": "横野境塚町",
    "town_kana": "ヨコノサカイヅカチョウ",
    "street": null,
    "office_name": null,
    "office_name_kana": null
  },
  "8389": {
    "postcode": "4928389",
    "prefecture": "愛知県",
    "prefecture_kana": "アイチケン",
    "prefecture_code": 23,
    "city": "稲沢市",
    "city_kana": "イナザワシ",
    "town": "横野町",
    "town_kana": "ヨコノチョウ",
    "street": null,
    "office_name": null,
    "office_name_kana": null
  },
  "8391": {
    "postcode": "4928391",
    "prefecture": "愛知県",
    "prefecture_kana": "アイチケン",
    "prefecture_code": 23,
    "city": "稲沢市",
    "city_kana": "イナザワシ",
    "town": "中野川端町",
    "town_kana": "ナカノカワバタチョウ",
    "street": null,
    "office_name": null,
    "office_name_kana": null
  },
  "8392": {
    "postcode": "4928392",
    "prefecture": "愛知県",
    "prefecture_kana": "アイチケン",
    "prefecture_code": 23,
    "city": "稲沢市",
    "city_kana": "イナザワシ",
    "town": "中野元町",
    "town_kana": "ナカノモトマチ",
    "street": null,
    "office_name": null,
    "office_name_kana": null
  },
  "8393": {
    "postcode": "4928393",
    "prefecture": "愛知県",
    "prefecture_kana": "アイチケン",
    "prefecture_code": 23,
    "city": "稲沢市",
    "city_kana": "イナザワシ",
    "town": "中野宮町",
    "town_kana": "ナカノミヤマチ",
    "street": null,
    "office_name": null,
    "office_name_kana": null
  },
  "8401": {
    "postcode": "4928401",
    "prefecture": "愛知県",
    "prefecture_kana": "アイチケン",
    "prefecture_code": 23,
    "city": "稲沢市",
    "city_kana": "イナザワシ",
    "town": "梅須賀町",
    "town_kana": "メスカチョウ",
    "street": null,
    "office_name": null,
    "office_name_kana": null
  },
  "8402": {
    "postcode": "4928402",
    "prefecture": "愛知県",
    "prefecture_kana": "アイチケン",
    "prefecture_code": 23,
    "city": "稲沢市",
    "city_kana": "イナザワシ",
    "town": "千代町",
    "town_kana": "センダイチョウ",
    "street": null,
    "office_name": null,
    "office_name_kana": null
  },
  "8403": {
    "postcode": "4928403",
    "prefecture": "愛知県",
    "prefecture_kana": "アイチケン",
    "prefecture_code": 23,
    "city": "稲沢市",
    "city_kana": "イナザワシ",
    "town": "千代",
    "town_kana": "センダイ",
    "street": null,
    "office_name": null,
    "office_name_kana": null
  },
  "8404": {
    "postcode": "4928404",
    "prefecture": "愛知県",
    "prefecture_kana": "アイチケン",
    "prefecture_code": 23,
    "city": "稲沢市",
    "city_kana": "イナザワシ",
    "town": "千代西町",
    "town_kana": "センダイニシマチ",
    "street": null,
    "office_name": null,
    "office_name_kana": null
  },
  "8405": {
    "postcode": "4928405",
    "prefecture": "愛知県",
    "prefecture_kana": "アイチケン",
    "prefecture_code": 23,
    "city": "稲沢市",
    "city_kana": "イナザワシ",
    "town": "堀之内町",
    "town_kana": "ホリノウチチョウ",
    "street": null,
    "office_name": null,
    "office_name_kana": null
  },
  "8406": {
    "postcode": "4928406",
    "prefecture": "愛知県",
    "prefecture_kana": "アイチケン",
    "prefecture_code": 23,
    "city": "稲沢市",
    "city_kana": "イナザワシ",
    "town": "井堀大縄町",
    "town_kana": "イボリオオナワチョウ",
    "street": null,
    "office_name": null,
    "office_name_kana": null
  },
  "8407": {
    "postcode": "4928407",
    "prefecture": "愛知県",
    "prefecture_kana": "アイチケン",
    "prefecture_code": 23,
    "city": "稲沢市",
    "city_kana": "イナザワシ",
    "town": "井堀宿塚町",
    "town_kana": "イボリシュクヅカチョウ",
    "street": null,
    "office_name": null,
    "office_name_kana": null
  },
  "8408": {
    "postcode": "4928408",
    "prefecture": "愛知県",
    "prefecture_kana": "アイチケン",
    "prefecture_code": 23,
    "city": "稲沢市",
    "city_kana": "イナザワシ",
    "town": "井堀川東町",
    "town_kana": "イボリカワヒガシチョウ",
    "street": null,
    "office_name": null,
    "office_name_kana": null
  },
  "8409": {
    "postcode": "4928409",
    "prefecture": "愛知県",
    "prefecture_kana": "アイチケン",
    "prefecture_code": 23,
    "city": "稲沢市",
    "city_kana": "イナザワシ",
    "town": "井堀橋下町",
    "town_kana": "イボリハシシモチョウ",
    "street": null,
    "office_name": null,
    "office_name_kana": null
  },
  "8410": {
    "postcode": "4928410",
    "prefecture": "愛知県",
    "prefecture_kana": "アイチケン",
    "prefecture_code": 23,
    "city": "稲沢市",
    "city_kana": "イナザワシ",
    "town": "北島",
    "town_kana": "キタジマ",
    "street": null,
    "office_name": null,
    "office_name_kana": null
  },
  "8411": {
    "postcode": "4928411",
    "prefecture": "愛知県",
    "prefecture_kana": "アイチケン",
    "prefecture_code": 23,
    "city": "稲沢市",
    "city_kana": "イナザワシ",
    "town": "北島町",
    "town_kana": "キタジマチョウ",
    "street": null,
    "office_name": null,
    "office_name_kana": null
  },
  "8412": {
    "postcode": "4928412",
    "prefecture": "愛知県",
    "prefecture_kana": "アイチケン",
    "prefecture_code": 23,
    "city": "稲沢市",
    "city_kana": "イナザワシ",
    "town": "大矢町",
    "town_kana": "オオヤチョウ",
    "street": null,
    "office_name": null,
    "office_name_kana": null
  },
  "8413": {
    "postcode": "4928413",
    "prefecture": "愛知県",
    "prefecture_kana": "アイチケン",
    "prefecture_code": 23,
    "city": "稲沢市",
    "city_kana": "イナザワシ",
    "town": "大矢江西町",
    "town_kana": "オオヤエニシチョウ",
    "street": null,
    "office_name": null,
    "office_name_kana": null
  },
  "8414": {
    "postcode": "4928414",
    "prefecture": "愛知県",
    "prefecture_kana": "アイチケン",
    "prefecture_code": 23,
    "city": "稲沢市",
    "city_kana": "イナザワシ",
    "town": "大矢浄土寺町",
    "town_kana": "オオヤジョウドジチョウ",
    "street": null,
    "office_name": null,
    "office_name_kana": null
  },
  "8415": {
    "postcode": "4928415",
    "prefecture": "愛知県",
    "prefecture_kana": "アイチケン",
    "prefecture_code": 23,
    "city": "稲沢市",
    "city_kana": "イナザワシ",
    "town": "大矢青山町",
    "town_kana": "オオヤアオヤマチョウ",
    "street": null,
    "office_name": null,
    "office_name_kana": null
  },
  "8416": {
    "postcode": "4928416",
    "prefecture": "愛知県",
    "prefecture_kana": "アイチケン",
    "prefecture_code": 23,
    "city": "稲沢市",
    "city_kana": "イナザワシ",
    "town": "大矢白山町",
    "town_kana": "オオヤシロヤマチョウ",
    "street": null,
    "office_name": null,
    "office_name_kana": null
  },
  "8417": {
    "postcode": "4928417",
    "prefecture": "愛知県",
    "prefecture_kana": "アイチケン",
    "prefecture_code": 23,
    "city": "稲沢市",
    "city_kana": "イナザワシ",
    "town": "大矢仙口町",
    "town_kana": "オオヤセングチチョウ",
    "street": null,
    "office_name": null,
    "office_name_kana": null
  },
  "8418": {
    "postcode": "4928418",
    "prefecture": "愛知県",
    "prefecture_kana": "アイチケン",
    "prefecture_code": 23,
    "city": "稲沢市",
    "city_kana": "イナザワシ",
    "town": "大矢高田町",
    "town_kana": "オオヤコウダチョウ",
    "street": null,
    "office_name": null,
    "office_name_kana": null
  },
  "8419": {
    "postcode": "4928419",
    "prefecture": "愛知県",
    "prefecture_kana": "アイチケン",
    "prefecture_code": 23,
    "city": "稲沢市",
    "city_kana": "イナザワシ",
    "town": "大矢真宮町",
    "town_kana": "オオヤシングウチョウ",
    "street": null,
    "office_name": null,
    "office_name_kana": null
  },
  "8421": {
    "postcode": "4928421",
    "prefecture": "愛知県",
    "prefecture_kana": "アイチケン",
    "prefecture_code": 23,
    "city": "稲沢市",
    "city_kana": "イナザワシ",
    "town": "高重西町",
    "town_kana": "タカシゲニシマチ",
    "street": null,
    "office_name": null,
    "office_name_kana": null
  },
  "8422": {
    "postcode": "4928422",
    "prefecture": "愛知県",
    "prefecture_kana": "アイチケン",
    "prefecture_code": 23,
    "city": "稲沢市",
    "city_kana": "イナザワシ",
    "town": "高重町",
    "town_kana": "タカシゲチョウ",
    "street": null,
    "office_name": null,
    "office_name_kana": null
  },
  "8423": {
    "postcode": "4928423",
    "prefecture": "愛知県",
    "prefecture_kana": "アイチケン",
    "prefecture_code": 23,
    "city": "稲沢市",
    "city_kana": "イナザワシ",
    "town": "高重中町",
    "town_kana": "タカシゲナカマチ",
    "street": null,
    "office_name": null,
    "office_name_kana": null
  },
  "8424": {
    "postcode": "4928424",
    "prefecture": "愛知県",
    "prefecture_kana": "アイチケン",
    "prefecture_code": 23,
    "city": "稲沢市",
    "city_kana": "イナザワシ",
    "town": "高重東町",
    "town_kana": "タカシゲヒガシマチ",
    "street": null,
    "office_name": null,
    "office_name_kana": null
  },
  "8425": {
    "postcode": "4928425",
    "prefecture": "愛知県",
    "prefecture_kana": "アイチケン",
    "prefecture_code": 23,
    "city": "稲沢市",
    "city_kana": "イナザワシ",
    "town": "増田北町",
    "town_kana": "マシタキタマチ",
    "street": null,
    "office_name": null,
    "office_name_kana": null
  },
  "8426": {
    "postcode": "4928426",
    "prefecture": "愛知県",
    "prefecture_kana": "アイチケン",
    "prefecture_code": 23,
    "city": "稲沢市",
    "city_kana": "イナザワシ",
    "town": "増田東町",
    "town_kana": "マシタヒガシマチ",
    "street": null,
    "office_name": null,
    "office_name_kana": null
  },
  "8427": {
    "postcode": "4928427",
    "prefecture": "愛知県",
    "prefecture_kana": "アイチケン",
    "prefecture_code": 23,
    "city": "稲沢市",
    "city_kana": "イナザワシ",
    "town": "増田南町",
    "town_kana": "マシタミナミマチ",
    "street": null,
    "office_name": null,
    "office_name_kana": null
  },
  "8428": {
    "postcode": "4928428",
    "prefecture": "愛知県",
    "prefecture_kana": "アイチケン",
    "prefecture_code": 23,
    "city": "稲沢市",
    "city_kana": "イナザワシ",
    "town": "増田町",
    "town_kana": "マシタチョウ",
    "street": null,
    "office_name": null,
    "office_name_kana": null
  },
  "8429": {
    "postcode": "4928429",
    "prefecture": "愛知県",
    "prefecture_kana": "アイチケン",
    "prefecture_code": 23,
    "city": "稲沢市",
    "city_kana": "イナザワシ",
    "town": "増田西町",
    "town_kana": "マシタニシマチ",
    "street": null,
    "office_name": null,
    "office_name_kana": null
  },
  "8431": {
    "postcode": "4928431",
    "prefecture": "愛知県",
    "prefecture_kana": "アイチケン",
    "prefecture_code": 23,
    "city": "稲沢市",
    "city_kana": "イナザワシ",
    "town": "中之庄高畑町",
    "town_kana": "ナカノショウタカバタチョウ",
    "street": null,
    "office_name": null,
    "office_name_kana": null
  },
  "8432": {
    "postcode": "4928432",
    "prefecture": "愛知県",
    "prefecture_kana": "アイチケン",
    "prefecture_code": 23,
    "city": "稲沢市",
    "city_kana": "イナザワシ",
    "town": "中之庄半田町",
    "town_kana": "ナカノショウハンダチョウ",
    "street": null,
    "office_name": null,
    "office_name_kana": null
  },
  "8433": {
    "postcode": "4928433",
    "prefecture": "愛知県",
    "prefecture_kana": "アイチケン",
    "prefecture_code": 23,
    "city": "稲沢市",
    "city_kana": "イナザワシ",
    "town": "中之庄元屋敷町",
    "town_kana": "ナカノショウモトヤシキチョウ",
    "street": null,
    "office_name": null,
    "office_name_kana": null
  },
  "8434": {
    "postcode": "4928434",
    "prefecture": "愛知県",
    "prefecture_kana": "アイチケン",
    "prefecture_code": 23,
    "city": "稲沢市",
    "city_kana": "イナザワシ",
    "town": "中之庄堤畔町",
    "town_kana": "ナカノショウツツミグロチョウ",
    "street": null,
    "office_name": null,
    "office_name_kana": null
  },
  "8435": {
    "postcode": "4928435",
    "prefecture": "愛知県",
    "prefecture_kana": "アイチケン",
    "prefecture_code": 23,
    "city": "稲沢市",
    "city_kana": "イナザワシ",
    "town": "中之庄町",
    "town_kana": "ナカノショウチョウ",
    "street": null,
    "office_name": null,
    "office_name_kana": null
  },
  "8436": {
    "postcode": "4928436",
    "prefecture": "愛知県",
    "prefecture_kana": "アイチケン",
    "prefecture_code": 23,
    "city": "稲沢市",
    "city_kana": "イナザワシ",
    "town": "中之庄海道町",
    "town_kana": "ナカノショウカイドウチョウ",
    "street": null,
    "office_name": null,
    "office_name_kana": null
  },
  "8437": {
    "postcode": "4928437",
    "prefecture": "愛知県",
    "prefecture_kana": "アイチケン",
    "prefecture_code": 23,
    "city": "稲沢市",
    "city_kana": "イナザワシ",
    "town": "中之庄長堤町",
    "town_kana": "ナカノショウナガツツミチョウ",
    "street": null,
    "office_name": null,
    "office_name_kana": null
  },
  "8438": {
    "postcode": "4928438",
    "prefecture": "愛知県",
    "prefecture_kana": "アイチケン",
    "prefecture_code": 23,
    "city": "稲沢市",
    "city_kana": "イナザワシ",
    "town": "堀田町",
    "town_kana": "ホッタチョウ",
    "street": null,
    "office_name": null,
    "office_name_kana": null
  },
  "8439": {
    "postcode": "4928439",
    "prefecture": "愛知県",
    "prefecture_kana": "アイチケン",
    "prefecture_code": 23,
    "city": "稲沢市",
    "city_kana": "イナザワシ",
    "town": "七ツ寺町",
    "town_kana": "ナナツデラチョウ",
    "street": null,
    "office_name": null,
    "office_name_kana": null
  },
  "8441": {
    "postcode": "4928441",
    "prefecture": "愛知県",
    "prefecture_kana": "アイチケン",
    "prefecture_code": 23,
    "city": "稲沢市",
    "city_kana": "イナザワシ",
    "town": "福島町",
    "town_kana": "フクジマチョウ",
    "street": null,
    "office_name": null,
    "office_name_kana": null
  },
  "8442": {
    "postcode": "4928442",
    "prefecture": "愛知県",
    "prefecture_kana": "アイチケン",
    "prefecture_code": 23,
    "city": "稲沢市",
    "city_kana": "イナザワシ",
    "town": "附島町",
    "town_kana": "ツケシマチョウ",
    "street": null,
    "office_name": null,
    "office_name_kana": null
  },
  "8443": {
    "postcode": "4928443",
    "prefecture": "愛知県",
    "prefecture_kana": "アイチケン",
    "prefecture_code": 23,
    "city": "稲沢市",
    "city_kana": "イナザワシ",
    "town": "牛踏町",
    "town_kana": "ウシブミチョウ",
    "street": null,
    "office_name": null,
    "office_name_kana": null
  },
  "8444": {
    "postcode": "4928444",
    "prefecture": "愛知県",
    "prefecture_kana": "アイチケン",
    "prefecture_code": 23,
    "city": "稲沢市",
    "city_kana": "イナザワシ",
    "town": "込野町",
    "town_kana": "コミノチョウ",
    "street": null,
    "office_name": null,
    "office_name_kana": null
  },
  "8445": {
    "postcode": "4928445",
    "prefecture": "愛知県",
    "prefecture_kana": "アイチケン",
    "prefecture_code": 23,
    "city": "稲沢市",
    "city_kana": "イナザワシ",
    "town": "南麻績町",
    "town_kana": "ミナミオウミチョウ",
    "street": null,
    "office_name": null,
    "office_name_kana": null
  },
  "8446": {
    "postcode": "4928446",
    "prefecture": "愛知県",
    "prefecture_kana": "アイチケン",
    "prefecture_code": 23,
    "city": "稲沢市",
    "city_kana": "イナザワシ",
    "town": "目比町",
    "town_kana": "ムクイチョウ",
    "street": null,
    "office_name": null,
    "office_name_kana": null
  },
  "8447": {
    "postcode": "4928447",
    "prefecture": "愛知県",
    "prefecture_kana": "アイチケン",
    "prefecture_code": 23,
    "city": "稲沢市",
    "city_kana": "イナザワシ",
    "town": "野崎町",
    "town_kana": "ノサキチョウ",
    "street": null,
    "office_name": null,
    "office_name_kana": null
  },
  "8448": {
    "postcode": "4928448",
    "prefecture": "愛知県",
    "prefecture_kana": "アイチケン",
    "prefecture_code": 23,
    "city": "稲沢市",
    "city_kana": "イナザワシ",
    "town": "北麻績町",
    "town_kana": "キタオウミチョウ",
    "street": null,
    "office_name": null,
    "office_name_kana": null
  },
  "8451": {
    "postcode": "4928451",
    "prefecture": "愛知県",
    "prefecture_kana": "アイチケン",
    "prefecture_code": 23,
    "city": "稲沢市",
    "city_kana": "イナザワシ",
    "town": "板葺町",
    "town_kana": "イタブキチョウ",
    "street": null,
    "office_name": null,
    "office_name_kana": null
  },
  "8452": {
    "postcode": "4928452",
    "prefecture": "愛知県",
    "prefecture_kana": "アイチケン",
    "prefecture_code": 23,
    "city": "稲沢市",
    "city_kana": "イナザワシ",
    "town": "西溝口町",
    "town_kana": "ニシミゾグチチョウ",
    "street": null,
    "office_name": null,
    "office_name_kana": null
  },
  "8453": {
    "postcode": "4928453",
    "prefecture": "愛知県",
    "prefecture_kana": "アイチケン",
    "prefecture_code": 23,
    "city": "稲沢市",
    "city_kana": "イナザワシ",
    "town": "今村町",
    "town_kana": "イマムラチョウ",
    "street": null,
    "office_name": null,
    "office_name_kana": null
  },
  "8454": {
    "postcode": "4928454",
    "prefecture": "愛知県",
    "prefecture_kana": "アイチケン",
    "prefecture_code": 23,
    "city": "稲沢市",
    "city_kana": "イナザワシ",
    "town": "坂田町",
    "town_kana": "サカタチョウ",
    "street": null,
    "office_name": null,
    "office_name_kana": null
  },
  "8455": {
    "postcode": "4928455",
    "prefecture": "愛知県",
    "prefecture_kana": "アイチケン",
    "prefecture_code": 23,
    "city": "稲沢市",
    "city_kana": "イナザワシ",
    "town": "田代",
    "town_kana": "タシロ",
    "street": null,
    "office_name": null,
    "office_name_kana": null
  },
  "8456": {
    "postcode": "4928456",
    "prefecture": "愛知県",
    "prefecture_kana": "アイチケン",
    "prefecture_code": 23,
    "city": "稲沢市",
    "city_kana": "イナザワシ",
    "town": "氷室町",
    "town_kana": "ヒムロチョウ",
    "street": null,
    "office_name": null,
    "office_name_kana": null
  },
  "8461": {
    "postcode": "4928461",
    "prefecture": "愛知県",
    "prefecture_kana": "アイチケン",
    "prefecture_code": 23,
    "city": "稲沢市",
    "city_kana": "イナザワシ",
    "town": "井堀北出町",
    "town_kana": "イボリキタデチョウ",
    "street": null,
    "office_name": null,
    "office_name_kana": null
  },
  "8462": {
    "postcode": "4928462",
    "prefecture": "愛知県",
    "prefecture_kana": "アイチケン",
    "prefecture_code": 23,
    "city": "稲沢市",
    "city_kana": "イナザワシ",
    "town": "井堀高見町",
    "town_kana": "イボリタカミチョウ",
    "street": null,
    "office_name": null,
    "office_name_kana": null
  },
  "8463": {
    "postcode": "4928463",
    "prefecture": "愛知県",
    "prefecture_kana": "アイチケン",
    "prefecture_code": 23,
    "city": "稲沢市",
    "city_kana": "イナザワシ",
    "town": "井堀中郷町",
    "town_kana": "イボリナカゴウチョウ",
    "street": null,
    "office_name": null,
    "office_name_kana": null
  },
  "8464": {
    "postcode": "4928464",
    "prefecture": "愛知県",
    "prefecture_kana": "アイチケン",
    "prefecture_code": 23,
    "city": "稲沢市",
    "city_kana": "イナザワシ",
    "town": "井堀下郷町",
    "town_kana": "イボリシモゴウチョウ",
    "street": null,
    "office_name": null,
    "office_name_kana": null
  },
  "8465": {
    "postcode": "4928465",
    "prefecture": "愛知県",
    "prefecture_kana": "アイチケン",
    "prefecture_code": 23,
    "city": "稲沢市",
    "city_kana": "イナザワシ",
    "town": "井堀犬城町",
    "town_kana": "イボリイヌシロチョウ",
    "street": null,
    "office_name": null,
    "office_name_kana": null
  },
  "8466": {
    "postcode": "4928466",
    "prefecture": "愛知県",
    "prefecture_kana": "アイチケン",
    "prefecture_code": 23,
    "city": "稲沢市",
    "city_kana": "イナザワシ",
    "town": "井堀江西町",
    "town_kana": "イボリエニシチョウ",
    "street": null,
    "office_name": null,
    "office_name_kana": null
  },
  "8467": {
    "postcode": "4928467",
    "prefecture": "愛知県",
    "prefecture_kana": "アイチケン",
    "prefecture_code": 23,
    "city": "稲沢市",
    "city_kana": "イナザワシ",
    "town": "井堀蒲六町",
    "town_kana": "イボリガマロクチョウ",
    "street": null,
    "office_name": null,
    "office_name_kana": null
  },
  "8468": {
    "postcode": "4928468",
    "prefecture": "愛知県",
    "prefecture_kana": "アイチケン",
    "prefecture_code": 23,
    "city": "稲沢市",
    "city_kana": "イナザワシ",
    "town": "井堀野口町",
    "town_kana": "イボリノグチチョウ",
    "street": null,
    "office_name": null,
    "office_name_kana": null
  },
  "8501": {
    "postcode": "4928501",
    "prefecture": "愛知県",
    "prefecture_kana": "アイチケン",
    "prefecture_code": 23,
    "city": "稲沢市",
    "city_kana": "イナザワシ",
    "town": "下津下町東",
    "town_kana": "オリヅシモマチヒガシ",
    "street": "５丁目１",
    "office_name": "東朋テクノロジー　株式会社",
    "office_name_kana": "トウホウテクノロジ- カブシキガイシヤ"
  },
  "8502": {
    "postcode": "4928502",
    "prefecture": "愛知県",
    "prefecture_kana": "アイチケン",
    "prefecture_code": 23,
    "city": "稲沢市",
    "city_kana": "イナザワシ",
    "town": "陸田一里山町",
    "town_kana": "クガタイチリヤマチョウ",
    "street": "５３",
    "office_name": "ＡＲＣ　株式会社",
    "office_name_kana": "エ-ア-ルシ- カブシキガイシヤ"
  },
  "8510": {
    "postcode": "4928510",
    "prefecture": "愛知県",
    "prefecture_kana": "アイチケン",
    "prefecture_code": 23,
    "city": "稲沢市",
    "city_kana": "イナザワシ",
    "town": "長束町",
    "town_kana": "ナヅカチョウ",
    "street": "沼１００番地",
    "office_name": "稲沢市民病院",
    "office_name_kana": "イナザワシミンビヨウイン"
  },
  "8512": {
    "postcode": "4928512",
    "prefecture": "愛知県",
    "prefecture_kana": "アイチケン",
    "prefecture_code": 23,
    "city": "稲沢市",
    "city_kana": "イナザワシ",
    "town": "正明寺",
    "town_kana": "ショウメイジ",
    "street": "２丁目２７−２２",
    "office_name": "丸徳産業　株式会社",
    "office_name_kana": "マルトクサンギヨウ カブシキガイシヤ"
  },
  "8513": {
    "postcode": "4928513",
    "prefecture": "愛知県",
    "prefecture_kana": "アイチケン",
    "prefecture_code": 23,
    "city": "稲沢市",
    "city_kana": "イナザワシ",
    "town": "小池",
    "town_kana": "コイケ",
    "street": "１丁目８−５",
    "office_name": "日軽産業　株式会社",
    "office_name_kana": "ニツケイサンギヨウ カブシキガイシヤ"
  },
  "8520": {
    "postcode": "4928520",
    "prefecture": "愛知県",
    "prefecture_kana": "アイチケン",
    "prefecture_code": 23,
    "city": "稲沢市",
    "city_kana": "イナザワシ",
    "town": "稲沢町",
    "town_kana": "イナザワチョウ",
    "street": "前田３６５",
    "office_name": "名古屋文理短期大学",
    "office_name_kana": "ナゴヤブンリタンキダイガク"
  },
  "8521": {
    "postcode": "4928521",
    "prefecture": "愛知県",
    "prefecture_kana": "アイチケン",
    "prefecture_code": 23,
    "city": "稲沢市",
    "city_kana": "イナザワシ",
    "town": "西町",
    "town_kana": "ニシマチ",
    "street": "１丁目１−４１",
    "office_name": "愛知文教女子短期大学",
    "office_name_kana": "アイチブンキヨウジヨシタンキダイガク"
  },
  "8523": {
    "postcode": "4928523",
    "prefecture": "愛知県",
    "prefecture_kana": "アイチケン",
    "prefecture_code": 23,
    "city": "稲沢市",
    "city_kana": "イナザワシ",
    "town": "松下",
    "town_kana": "マツシタ",
    "street": "１丁目６−１",
    "office_name": "三菱東京ＵＦＪ銀行",
    "office_name_kana": "ミツビシトウキヨウユ-エフジエイギンコウ"
  },
  "8525": {
    "postcode": "4928525",
    "prefecture": "愛知県",
    "prefecture_kana": "アイチケン",
    "prefecture_code": 23,
    "city": "稲沢市",
    "city_kana": "イナザワシ",
    "town": "朝府町",
    "town_kana": "アザブチョウ",
    "street": "１５−１２",
    "office_name": "稲沢商工会議所",
    "office_name_kana": "イナザワシヨウコウカイギシヨ"
  },
  "8528": {
    "postcode": "4928528",
    "prefecture": "愛知県",
    "prefecture_kana": "アイチケン",
    "prefecture_code": 23,
    "city": "稲沢市",
    "city_kana": "イナザワシ",
    "town": "松下",
    "town_kana": "マツシタ",
    "street": "２丁目３−７",
    "office_name": "愛松建設　株式会社",
    "office_name_kana": "アイシヨウケンセツ カブシキガイシヤ"
  },
  "8529": {
    "postcode": "4928529",
    "prefecture": "愛知県",
    "prefecture_kana": "アイチケン",
    "prefecture_code": 23,
    "city": "稲沢市",
    "city_kana": "イナザワシ",
    "town": "西町",
    "town_kana": "ニシマチ",
    "street": "１丁目１−４１",
    "office_name": "愛知啓成高等学校",
    "office_name_kana": "アイチケイセイコウトウガツコウ"
  },
  "8540": {
    "postcode": "4928540",
    "prefecture": "愛知県",
    "prefecture_kana": "アイチケン",
    "prefecture_code": 23,
    "city": "稲沢市",
    "city_kana": "イナザワシ",
    "town": "北島町",
    "town_kana": "キタジマチョウ",
    "street": "西の町３０",
    "office_name": "豊田合成　株式会社　技術センター",
    "office_name_kana": "トヨダゴウセイ カブシキガイシヤ ギジユツセンタ-"
  },
  "8541": {
    "postcode": "4928541",
    "prefecture": "愛知県",
    "prefecture_kana": "アイチケン",
    "prefecture_code": 23,
    "city": "稲沢市",
    "city_kana": "イナザワシ",
    "town": "北島町",
    "town_kana": "キタジマチョウ",
    "street": "西の町１０",
    "office_name": "豊田合成　株式会社　北島物流センター",
    "office_name_kana": "トヨダゴウセイ カブシキガイシヤ キタジマブツリユウセンタ-"
  },
  "8542": {
    "postcode": "4928542",
    "prefecture": "愛知県",
    "prefecture_kana": "アイチケン",
    "prefecture_code": 23,
    "city": "稲沢市",
    "city_kana": "イナザワシ",
    "town": "北島町",
    "town_kana": "キタジマチョウ",
    "street": "米屋境１",
    "office_name": "豊田合成　株式会社　稲沢工場",
    "office_name_kana": "トヨダゴウセイカブシキガイシヤイナザワコウジヨウ"
  },
  "8545": {
    "postcode": "4928545",
    "prefecture": "愛知県",
    "prefecture_kana": "アイチケン",
    "prefecture_code": 23,
    "city": "稲沢市",
    "city_kana": "イナザワシ",
    "town": "大矢町",
    "town_kana": "オオヤチョウ",
    "street": "茨島３０",
    "office_name": "ソニーイーエムシーエス　株式会社　稲沢サイト",
    "office_name_kana": "ソニ-イ-エムシ-エス カブシキガイシヤ イナザワサイト"
  },
  "8546": {
    "postcode": "4928546",
    "prefecture": "愛知県",
    "prefecture_kana": "アイチケン",
    "prefecture_code": 23,
    "city": "稲沢市",
    "city_kana": "イナザワシ",
    "town": "高重中町",
    "town_kana": "タカシゲナカマチ",
    "street": "５３",
    "office_name": "三和式ベンチレーター　株式会社",
    "office_name_kana": "サンワシキベンチレ-タ- カブシキガイシヤ"
  },
  "8547": {
    "postcode": "4928547",
    "prefecture": "愛知県",
    "prefecture_kana": "アイチケン",
    "prefecture_code": 23,
    "city": "稲沢市",
    "city_kana": "イナザワシ",
    "town": "北麻績町",
    "town_kana": "キタオウミチョウ",
    "street": "沼１−５",
    "office_name": "イイダ産業　株式会社",
    "office_name_kana": "イイダサンギヨウ カブシキガイシヤ"
  },
  "8548": {
    "postcode": "4928548",
    "prefecture": "愛知県",
    "prefecture_kana": "アイチケン",
    "prefecture_code": 23,
    "city": "稲沢市",
    "city_kana": "イナザワシ",
    "town": "北島町",
    "town_kana": "キタジマチョウ",
    "street": "大門東３７−１",
    "office_name": "中部抵抗器　株式会社",
    "office_name_kana": "チユウブテイコウキ カブシキガイシヤ"
  },
  "8601": {
    "postcode": "4928601",
    "prefecture": "愛知県",
    "prefecture_kana": "アイチケン",
    "prefecture_code": 23,
    "city": "稲沢市",
    "city_kana": "イナザワシ",
    "town": "長野",
    "town_kana": "ナガノ",
    "street": "７丁目１番２",
    "office_name": "ユニー　株式会社　リーフウォーク稲沢",
    "office_name_kana": "ユニ- カブシキガイシヤ リ-フウオ-クイナザワ"
  },
  "8621": {
    "postcode": "4928621",
    "prefecture": "愛知県",
    "prefecture_kana": "アイチケン",
    "prefecture_code": 23,
    "city": "稲沢市",
    "city_kana": "イナザワシ",
    "town": "奥田酒伊町",
    "town_kana": "オクダサカイチョウ",
    "street": "１",
    "office_name": "株式会社　サカイナゴヤ",
    "office_name_kana": "カブシキガイシヤ サカイナゴヤ"
  },
  "8622": {
    "postcode": "4928622",
    "prefecture": "愛知県",
    "prefecture_kana": "アイチケン",
    "prefecture_code": 23,
    "city": "稲沢市",
    "city_kana": "イナザワシ",
    "town": "幸町",
    "town_kana": "サイワイチョウ",
    "street": "１２０−１",
    "office_name": "株式会社　日立アイイーシステム",
    "office_name_kana": "カブシキガイシヤ ヒタチアイイ-システム"
  },
  "8628": {
    "postcode": "4928628",
    "prefecture": "愛知県",
    "prefecture_kana": "アイチケン",
    "prefecture_code": 23,
    "city": "稲沢市",
    "city_kana": "イナザワシ",
    "town": "高御堂",
    "town_kana": "タカミドウ",
    "street": "１丁目３−１８",
    "office_name": "東新住建　株式会社",
    "office_name_kana": "トウシンジユウケン カブシキガイシヤ"
  },
  "8646": {
    "postcode": "4928646",
    "prefecture": "愛知県",
    "prefecture_kana": "アイチケン",
    "prefecture_code": 23,
    "city": "稲沢市",
    "city_kana": "イナザワシ",
    "town": "北麻績町",
    "town_kana": "キタオウミチョウ",
    "street": "沼２３",
    "office_name": "株式会社　ソーゴー",
    "office_name_kana": "カブシキガイシヤ ソ-ゴ-"
  },
  "8651": {
    "postcode": "4928651",
    "prefecture": "愛知県",
    "prefecture_kana": "アイチケン",
    "prefecture_code": 23,
    "city": "稲沢市",
    "city_kana": "イナザワシ",
    "town": "下津穂所",
    "town_kana": "オリヅホドコロ",
    "street": "１丁目１番１",
    "office_name": "ユニー　株式会社　アピタ稲沢東店",
    "office_name_kana": "ユニ- カブシキガイシヤ アピタイナザワヒガシテン"
  },
  "8680": {
    "postcode": "4928680",
    "prefecture": "愛知県",
    "prefecture_kana": "アイチケン",
    "prefecture_code": 23,
    "city": "稲沢市",
    "city_kana": "イナザワシ",
    "town": "天池五反田町",
    "town_kana": "アマイケゴタンダチョウ",
    "street": "１番地",
    "office_name": "ユニー　株式会社",
    "office_name_kana": "ユニ- カブシキガイシヤ"
  },
  "8681": {
    "postcode": "4928681",
    "prefecture": "愛知県",
    "prefecture_kana": "アイチケン",
    "prefecture_code": 23,
    "city": "稲沢市",
    "city_kana": "イナザワシ",
    "town": "天池五反田町",
    "town_kana": "アマイケゴタンダチョウ",
    "street": "１番地",
    "office_name": "ユニー　株式会社　アピタ稲沢店",
    "office_name_kana": "ユニ- カブシキガイシヤ アピタイナザワテン"
  },
  "8682": {
    "postcode": "4928682",
    "prefecture": "愛知県",
    "prefecture_kana": "アイチケン",
    "prefecture_code": 23,
    "city": "稲沢市",
    "city_kana": "イナザワシ",
    "town": "菱町",
    "town_kana": "ヒシマチ",
    "street": "１（稲沢郵便局私書箱第２０号）",
    "office_name": "三菱電機　株式会社　稲沢製作所",
    "office_name_kana": "ミツビシデンキ カブシキガイシヤ イナザワセイサクジヨ"
  },
  "8685": {
    "postcode": "4928685",
    "prefecture": "愛知県",
    "prefecture_kana": "アイチケン",
    "prefecture_code": 23,
    "city": "稲沢市",
    "city_kana": "イナザワシ",
    "town": "天池五反田町",
    "town_kana": "アマイケゴタンダチョウ",
    "street": "１番地",
    "office_name": "株式会社　ファミリーマート",
    "office_name_kana": "カブシキガイシヤ フアミリ-マ-ト"
  },
  "8686": {
    "postcode": "4928686",
    "prefecture": "愛知県",
    "prefecture_kana": "アイチケン",
    "prefecture_code": 23,
    "city": "稲沢市",
    "city_kana": "イナザワシ",
    "town": "天池五反田町",
    "town_kana": "アマイケゴタンダチョウ",
    "street": "１番地",
    "office_name": "株式会社　ＵＣＳ",
    "office_name_kana": "カブシキガイシヤ ユ-シ-エス"
  }
}