{
  "0000": [
    {
      "postcode": "4960000",
      "prefecture": "愛知県",
      "prefecture_kana": "アイチケン",
      "prefecture_code": 23,
      "city": "津島市",
      "city_kana": "ツシマシ",
      "town": "",
      "town_kana": "",
      "street": null,
      "office_name": null,
      "office_name_kana": null
    },
    {
      "postcode": "4960000",
      "prefecture": "愛知県",
      "prefecture_kana": "アイチケン",
      "prefecture_code": 23,
      "city": "愛西市",
      "city_kana": "アイサイシ",
      "town": "",
      "town_kana": "",
      "street": null,
      "office_name": null,
      "office_name_kana": null
    }
  ],
  "0001": {
    "postcode": "4960001",
    "prefecture": "愛知県",
    "prefecture_kana": "アイチケン",
    "prefecture_code": 23,
    "city": "津島市",
    "city_kana": "ツシマシ",
    "town": "青塚町",
    "town_kana": "アオツカチョウ",
    "street": null,
    "office_name": null,
    "office_name_kana": null
  },
  "0002": {
    "postcode": "4960002",
    "prefecture": "愛知県",
    "prefecture_kana": "アイチケン",
    "prefecture_code": 23,
    "city": "津島市",
    "city_kana": "ツシマシ",
    "town": "牧野町",
    "town_kana": "マキノチョウ",
    "street": null,
    "office_name": null,
    "office_name_kana": null
  },
  "0003": {
    "postcode": "4960003",
    "prefecture": "愛知県",
    "prefecture_kana": "アイチケン",
    "prefecture_code": 23,
    "city": "津島市",
    "city_kana": "ツシマシ",
    "town": "寺野町",
    "town_kana": "テラノチョウ",
    "street": null,
    "office_name": null,
    "office_name_kana": null
  },
  "0004": {
    "postcode": "4960004",
    "prefecture": "愛知県",
    "prefecture_kana": "アイチケン",
    "prefecture_code": 23,
    "city": "津島市",
    "city_kana": "ツシマシ",
    "town": "蛭間町",
    "town_kana": "ヒルマチョウ",
    "street": null,
    "office_name": null,
    "office_name_kana": null
  },
  "0005": {
    "postcode": "4960005",
    "prefecture": "愛知県",
    "prefecture_kana": "アイチケン",
    "prefecture_code": 23,
    "city": "津島市",
    "city_kana": "ツシマシ",
    "town": "神守町",
    "town_kana": "カモリチョウ",
    "street": null,
    "office_name": null,
    "office_name_kana": null
  },
  "0006": {
    "postcode": "4960006",
    "prefecture": "愛知県",
    "prefecture_kana": "アイチケン",
    "prefecture_code": 23,
    "city": "津島市",
    "city_kana": "ツシマシ",
    "town": "大木町",
    "town_kana": "ダイギチョウ",
    "street": null,
    "office_name": null,
    "office_name_kana": null
  },
  "0007": {
    "postcode": "4960007",
    "prefecture": "愛知県",
    "prefecture_kana": "アイチケン",
    "prefecture_code": 23,
    "city": "津島市",
    "city_kana": "ツシマシ",
    "town": "光正寺町",
    "town_kana": "コウショウジチョウ",
    "street": null,
    "office_name": null,
    "office_name_kana": null
  },
  "0008": {
    "postcode": "4960008",
    "prefecture": "愛知県",
    "prefecture_kana": "アイチケン",
    "prefecture_code": 23,
    "city": "津島市",
    "city_kana": "ツシマシ",
    "town": "宇治町",
    "town_kana": "ウジチョウ",
    "street": null,
    "office_name": null,
    "office_name_kana": null
  },
  "0009": {
    "postcode": "4960009",
    "prefecture": "愛知県",
    "prefecture_kana": "アイチケン",
    "prefecture_code": 23,
    "city": "津島市",
    "city_kana": "ツシマシ",
    "town": "葉苅町",
    "town_kana": "ハカリチョウ",
    "street": null,
    "office_name": null,
    "office_name_kana": null
  },
  "0011": {
    "postcode": "4960011",
    "prefecture": "愛知県",
    "prefecture_kana": "アイチケン",
    "prefecture_code": 23,
    "city": "津島市",
    "city_kana": "ツシマシ",
    "town": "莪原町",
    "town_kana": "バイバラチョウ",
    "street": null,
    "office_name": null,
    "office_name_kana": null
  },
  "0012": {
    "postcode": "4960012",
    "prefecture": "愛知県",
    "prefecture_kana": "アイチケン",
    "prefecture_code": 23,
    "city": "津島市",
    "city_kana": "ツシマシ",
    "town": "大坪町",
    "town_kana": "オオツボチョウ",
    "street": null,
    "office_name": null,
    "office_name_kana": null
  },
  "0013": {
    "postcode": "4960013",
    "prefecture": "愛知県",
    "prefecture_kana": "アイチケン",
    "prefecture_code": 23,
    "city": "津島市",
    "city_kana": "ツシマシ",
    "town": "神尾町",
    "town_kana": "カンノチョウ",
    "street": null,
    "office_name": null,
    "office_name_kana": null
  },
  "0014": {
    "postcode": "4960014",
    "prefecture": "愛知県",
    "prefecture_kana": "アイチケン",
    "prefecture_code": 23,
    "city": "津島市",
    "city_kana": "ツシマシ",
    "town": "金柳町",
    "town_kana": "カナヤナギチョウ",
    "street": null,
    "office_name": null,
    "office_name_kana": null
  },
  "0015": {
    "postcode": "4960015",
    "prefecture": "愛知県",
    "prefecture_kana": "アイチケン",
    "prefecture_code": 23,
    "city": "津島市",
    "city_kana": "ツシマシ",
    "town": "高台寺町",
    "town_kana": "コウタイジチョウ",
    "street": null,
    "office_name": null,
    "office_name_kana": null
  },
  "0016": {
    "postcode": "4960016",
    "prefecture": "愛知県",
    "prefecture_kana": "アイチケン",
    "prefecture_code": 23,
    "city": "津島市",
    "city_kana": "ツシマシ",
    "town": "白浜町",
    "town_kana": "シラハマチョウ",
    "street": null,
    "office_name": null,
    "office_name_kana": null
  },
  "0017": {
    "postcode": "4960017",
    "prefecture": "愛知県",
    "prefecture_kana": "アイチケン",
    "prefecture_code": 23,
    "city": "津島市",
    "city_kana": "ツシマシ",
    "town": "百町",
    "town_kana": "ヒャクチョウ",
    "street": null,
    "office_name": null,
    "office_name_kana": null
  },
  "0018": {
    "postcode": "4960018",
    "prefecture": "愛知県",
    "prefecture_kana": "アイチケン",
    "prefecture_code": 23,
    "city": "津島市",
    "city_kana": "ツシマシ",
    "town": "牛田町",
    "town_kana": "ウシダチョウ",
    "street": null,
    "office_name": null,
    "office_name_kana": null
  },
  "0019": {
    "postcode": "4960019",
    "prefecture": "愛知県",
    "prefecture_kana": "アイチケン",
    "prefecture_code": 23,
    "city": "津島市",
    "city_kana": "ツシマシ",
    "town": "百島町",
    "town_kana": "モモジマチョウ",
    "street": null,
    "office_name": null,
    "office_name_kana": null
  },
  "0021": {
    "postcode": "4960021",
    "prefecture": "愛知県",
    "prefecture_kana": "アイチケン",
    "prefecture_code": 23,
    "city": "津島市",
    "city_kana": "ツシマシ",
    "town": "椿市町",
    "town_kana": "ツバイチチョウ",
    "street": null,
    "office_name": null,
    "office_name_kana": null
  },
  "0022": {
    "postcode": "4960022",
    "prefecture": "愛知県",
    "prefecture_kana": "アイチケン",
    "prefecture_code": 23,
    "city": "津島市",
    "city_kana": "ツシマシ",
    "town": "越津町",
    "town_kana": "コシヅチョウ",
    "street": null,
    "office_name": null,
    "office_name_kana": null
  },
  "0023": {
    "postcode": "4960023",
    "prefecture": "愛知県",
    "prefecture_kana": "アイチケン",
    "prefecture_code": 23,
    "city": "津島市",
    "city_kana": "ツシマシ",
    "town": "鹿伏兎町",
    "town_kana": "カブトチョウ",
    "street": null,
    "office_name": null,
    "office_name_kana": null
  },
  "0024": {
    "postcode": "4960024",
    "prefecture": "愛知県",
    "prefecture_kana": "アイチケン",
    "prefecture_code": 23,
    "city": "津島市",
    "city_kana": "ツシマシ",
    "town": "半頭町",
    "town_kana": "ハンガシラチョウ",
    "street": null,
    "office_name": null,
    "office_name_kana": null
  },
  "0025": {
    "postcode": "4960025",
    "prefecture": "愛知県",
    "prefecture_kana": "アイチケン",
    "prefecture_code": 23,
    "city": "津島市",
    "city_kana": "ツシマシ",
    "town": "中一色町",
    "town_kana": "ナカイシキチョウ",
    "street": null,
    "office_name": null,
    "office_name_kana": null
  },
  "0026": {
    "postcode": "4960026",
    "prefecture": "愛知県",
    "prefecture_kana": "アイチケン",
    "prefecture_code": 23,
    "city": "津島市",
    "city_kana": "ツシマシ",
    "town": "唐臼町",
    "town_kana": "カラウスチョウ",
    "street": null,
    "office_name": null,
    "office_name_kana": null
  },
  "0027": [
    {
      "postcode": "4960027",
      "prefecture": "愛知県",
      "prefecture_kana": "アイチケン",
      "prefecture_code": 23,
      "city": "津島市",
      "city_kana": "ツシマシ",
      "town": "新開",
      "town_kana": "シンガイ",
      "street": null,
      "office_name": null,
      "office_name_kana": null
    },
    {
      "postcode": "4960027",
      "prefecture": "愛知県",
      "prefecture_kana": "アイチケン",
      "prefecture_code": 23,
      "city": "津島市",
      "city_kana": "ツシマシ",
      "town": "津島",
      "town_kana": "ツシマ",
      "street": null,
      "office_name": null,
      "office_name_kana": null
    }
  ],
  "0028": {
    "postcode": "4960028",
    "prefecture": "愛知県",
    "prefecture_kana": "アイチケン",
    "prefecture_code": 23,
    "city": "津島市",
    "city_kana": "ツシマシ",
    "town": "日光",
    "town_kana": "ニッコウ",
    "street": null,
    "office_name": null,
    "office_name_kana": null
  },
  "0029": {
    "postcode": "4960029",
    "prefecture": "愛知県",
    "prefecture_kana": "アイチケン",
    "prefecture_code": 23,
    "city": "津島市",
    "city_kana": "ツシマシ",
    "town": "下切町",
    "town_kana": "シモギリチョウ",
    "street": null,
    "office_name": null,
    "office_name_kana": null
  },
  "0031": {
    "postcode": "4960031",
    "prefecture": "愛知県",
    "prefecture_kana": "アイチケン",
    "prefecture_code": 23,
    "city": "津島市",
    "city_kana": "ツシマシ",
    "town": "埋田町",
    "town_kana": "ウメダチョウ",
    "street": null,
    "office_name": null,
    "office_name_kana": null
  },
  "0032": {
    "postcode": "4960032",
    "prefecture": "愛知県",
    "prefecture_kana": "アイチケン",
    "prefecture_code": 23,
    "city": "津島市",
    "city_kana": "ツシマシ",
    "town": "深坪町",
    "town_kana": "フカツボチョウ",
    "street": null,
    "office_name": null,
    "office_name_kana": null
  },
  "0033": {
    "postcode": "4960033",
    "prefecture": "愛知県",
    "prefecture_kana": "アイチケン",
    "prefecture_code": 23,
    "city": "津島市",
    "city_kana": "ツシマシ",
    "town": "杁前町",
    "town_kana": "イリマエチョウ",
    "street": null,
    "office_name": null,
    "office_name_kana": null
  },
  "0034": {
    "postcode": "4960034",
    "prefecture": "愛知県",
    "prefecture_kana": "アイチケン",
    "prefecture_code": 23,
    "city": "津島市",
    "city_kana": "ツシマシ",
    "town": "元寺町",
    "town_kana": "モトデラチョウ",
    "street": null,
    "office_name": null,
    "office_name_kana": null
  },
  "0035": {
    "postcode": "4960035",
    "prefecture": "愛知県",
    "prefecture_kana": "アイチケン",
    "prefecture_code": 23,
    "city": "津島市",
    "city_kana": "ツシマシ",
    "town": "東愛宕町",
    "town_kana": "ヒガシアダゴチョウ",
    "street": null,
    "office_name": null,
    "office_name_kana": null
  },
  "0036": {
    "postcode": "4960036",
    "prefecture": "愛知県",
    "prefecture_kana": "アイチケン",
    "prefecture_code": 23,
    "city": "津島市",
    "city_kana": "ツシマシ",
    "town": "愛宕町",
    "town_kana": "アタゴチョウ",
    "street": null,
    "office_name": null,
    "office_name_kana": null
  },
  "0037": {
    "postcode": "4960037",
    "prefecture": "愛知県",
    "prefecture_kana": "アイチケン",
    "prefecture_code": 23,
    "city": "津島市",
    "city_kana": "ツシマシ",
    "town": "西愛宕町",
    "town_kana": "ニシアタゴチョウ",
    "street": null,
    "office_name": null,
    "office_name_kana": null
  },
  "0038": {
    "postcode": "4960038",
    "prefecture": "愛知県",
    "prefecture_kana": "アイチケン",
    "prefecture_code": 23,
    "city": "津島市",
    "city_kana": "ツシマシ",
    "town": "橘町",
    "town_kana": "タチバナチョウ",
    "street": null,
    "office_name": null,
    "office_name_kana": null
  },
  "0041": {
    "postcode": "4960041",
    "prefecture": "愛知県",
    "prefecture_kana": "アイチケン",
    "prefecture_code": 23,
    "city": "津島市",
    "city_kana": "ツシマシ",
    "town": "高畑町",
    "town_kana": "タカハタチョウ",
    "street": null,
    "office_name": null,
    "office_name_kana": null
  },
  "0042": {
    "postcode": "4960042",
    "prefecture": "愛知県",
    "prefecture_kana": "アイチケン",
    "prefecture_code": 23,
    "city": "津島市",
    "city_kana": "ツシマシ",
    "town": "寺前町",
    "town_kana": "テラマエチョウ",
    "street": null,
    "office_name": null,
    "office_name_kana": null
  },
  "0043": [
    {
      "postcode": "4960043",
      "prefecture": "愛知県",
      "prefecture_kana": "アイチケン",
      "prefecture_code": 23,
      "city": "津島市",
      "city_kana": "ツシマシ",
      "town": "古川",
      "town_kana": "フルカワ",
      "street": null,
      "office_name": null,
      "office_name_kana": null
    },
    {
      "postcode": "4960043",
      "prefecture": "愛知県",
      "prefecture_kana": "アイチケン",
      "prefecture_code": 23,
      "city": "津島市",
      "city_kana": "ツシマシ",
      "town": "古川町",
      "town_kana": "フルカワチョウ",
      "street": null,
      "office_name": null,
      "office_name_kana": null
    }
  ],
  "0044": {
    "postcode": "4960044",
    "prefecture": "愛知県",
    "prefecture_kana": "アイチケン",
    "prefecture_code": 23,
    "city": "津島市",
    "city_kana": "ツシマシ",
    "town": "立込町",
    "town_kana": "タテコミチョウ",
    "street": null,
    "office_name": null,
    "office_name_kana": null
  },
  "0045": {
    "postcode": "4960045",
    "prefecture": "愛知県",
    "prefecture_kana": "アイチケン",
    "prefecture_code": 23,
    "city": "津島市",
    "city_kana": "ツシマシ",
    "town": "東柳原町",
    "town_kana": "ヒガシヤナギハラチョウ",
    "street": null,
    "office_name": null,
    "office_name_kana": null
  },
  "0046": {
    "postcode": "4960046",
    "prefecture": "愛知県",
    "prefecture_kana": "アイチケン",
    "prefecture_code": 23,
    "city": "津島市",
    "city_kana": "ツシマシ",
    "town": "柳原町",
    "town_kana": "ヤナギハラチョウ",
    "street": null,
    "office_name": null,
    "office_name_kana": null
  },
  "0047": {
    "postcode": "4960047",
    "prefecture": "愛知県",
    "prefecture_kana": "アイチケン",
    "prefecture_code": 23,
    "city": "津島市",
    "city_kana": "ツシマシ",
    "town": "西柳原町",
    "town_kana": "ニシヤナギハラチョウ",
    "street": null,
    "office_name": null,
    "office_name_kana": null
  },
  "0048": {
    "postcode": "4960048",
    "prefecture": "愛知県",
    "prefecture_kana": "アイチケン",
    "prefecture_code": 23,
    "city": "津島市",
    "city_kana": "ツシマシ",
    "town": "藤里町",
    "town_kana": "フジサトチョウ",
    "street": null,
    "office_name": null,
    "office_name_kana": null
  },
  "0071": {
    "postcode": "4960071",
    "prefecture": "愛知県",
    "prefecture_kana": "アイチケン",
    "prefecture_code": 23,
    "city": "津島市",
    "city_kana": "ツシマシ",
    "town": "新開町",
    "town_kana": "シンガイチョウ",
    "street": null,
    "office_name": null,
    "office_name_kana": null
  },
  "0072": {
    "postcode": "4960072",
    "prefecture": "愛知県",
    "prefecture_kana": "アイチケン",
    "prefecture_code": 23,
    "city": "津島市",
    "city_kana": "ツシマシ",
    "town": "南新開町",
    "town_kana": "ミナミシンガイチョウ",
    "street": null,
    "office_name": null,
    "office_name_kana": null
  },
  "0801": {
    "postcode": "4960801",
    "prefecture": "愛知県",
    "prefecture_kana": "アイチケン",
    "prefecture_code": 23,
    "city": "津島市",
    "city_kana": "ツシマシ",
    "town": "藤浪町",
    "town_kana": "フジナミチョウ",
    "street": null,
    "office_name": null,
    "office_name_kana": null
  },
  "0802": {
    "postcode": "4960802",
    "prefecture": "愛知県",
    "prefecture_kana": "アイチケン",
    "prefecture_code": 23,
    "city": "津島市",
    "city_kana": "ツシマシ",
    "town": "錦町",
    "town_kana": "ニシキマチ",
    "street": null,
    "office_name": null,
    "office_name_kana": null
  },
  "0803": {
    "postcode": "4960803",
    "prefecture": "愛知県",
    "prefecture_kana": "アイチケン",
    "prefecture_code": 23,
    "city": "津島市",
    "city_kana": "ツシマシ",
    "town": "今市場町",
    "town_kana": "イマイチバチョウ",
    "street": null,
    "office_name": null,
    "office_name_kana": null
  },
  "0804": {
    "postcode": "4960804",
    "prefecture": "愛知県",
    "prefecture_kana": "アイチケン",
    "prefecture_code": 23,
    "city": "津島市",
    "city_kana": "ツシマシ",
    "town": "弥生町",
    "town_kana": "ヤヨイチョウ",
    "street": null,
    "office_name": null,
    "office_name_kana": null
  },
  "0805": {
    "postcode": "4960805",
    "prefecture": "愛知県",
    "prefecture_kana": "アイチケン",
    "prefecture_code": 23,
    "city": "津島市",
    "city_kana": "ツシマシ",
    "town": "本町",
    "town_kana": "ホンマチ",
    "street": null,
    "office_name": null,
    "office_name_kana": null
  },
  "0806": {
    "postcode": "4960806",
    "prefecture": "愛知県",
    "prefecture_kana": "アイチケン",
    "prefecture_code": 23,
    "city": "津島市",
    "city_kana": "ツシマシ",
    "town": "池麩町",
    "town_kana": "イケフチョウ",
    "street": null,
    "office_name": null,
    "office_name_kana": null
  },
  "0807": {
    "postcode": "4960807",
    "prefecture": "愛知県",
    "prefecture_kana": "アイチケン",
    "prefecture_code": 23,
    "city": "津島市",
    "city_kana": "ツシマシ",
    "town": "天王通",
    "town_kana": "テンノウドオリ",
    "street": null,
    "office_name": null,
    "office_name_kana": null
  },
  "0808": {
    "postcode": "4960808",
    "prefecture": "愛知県",
    "prefecture_kana": "アイチケン",
    "prefecture_code": 23,
    "city": "津島市",
    "city_kana": "ツシマシ",
    "town": "宝町",
    "town_kana": "タカラマチ",
    "street": null,
    "office_name": null,
    "office_name_kana": null
  },
  "0809": {
    "postcode": "4960809",
    "prefecture": "愛知県",
    "prefecture_kana": "アイチケン",
    "prefecture_code": 23,
    "city": "津島市",
    "city_kana": "ツシマシ",
    "town": "昭和町",
    "town_kana": "ショウワチョウ",
    "street": null,
    "office_name": null,
    "office_name_kana": null
  },
  "0811": {
    "postcode": "4960811",
    "prefecture": "愛知県",
    "prefecture_kana": "アイチケン",
    "prefecture_code": 23,
    "city": "津島市",
    "city_kana": "ツシマシ",
    "town": "喜楽町",
    "town_kana": "キラクチョウ",
    "street": null,
    "office_name": null,
    "office_name_kana": null
  },
  "0812": {
    "postcode": "4960812",
    "prefecture": "愛知県",
    "prefecture_kana": "アイチケン",
    "prefecture_code": 23,
    "city": "津島市",
    "city_kana": "ツシマシ",
    "town": "兼平町",
    "town_kana": "カネヒラチョウ",
    "street": null,
    "office_name": null,
    "office_name_kana": null
  },
  "0813": {
    "postcode": "4960813",
    "prefecture": "愛知県",
    "prefecture_kana": "アイチケン",
    "prefecture_code": 23,
    "city": "津島市",
    "city_kana": "ツシマシ",
    "town": "片岡町",
    "town_kana": "カタオカチョウ",
    "street": null,
    "office_name": null,
    "office_name_kana": null
  },
  "0814": {
    "postcode": "4960814",
    "prefecture": "愛知県",
    "prefecture_kana": "アイチケン",
    "prefecture_code": 23,
    "city": "津島市",
    "city_kana": "ツシマシ",
    "town": "良王町",
    "town_kana": "リョウオウチョウ",
    "street": null,
    "office_name": null,
    "office_name_kana": null
  },
  "0815": {
    "postcode": "4960815",
    "prefecture": "愛知県",
    "prefecture_kana": "アイチケン",
    "prefecture_code": 23,
    "city": "津島市",
    "city_kana": "ツシマシ",
    "town": "米之座町",
    "town_kana": "コメノザチョウ",
    "street": null,
    "office_name": null,
    "office_name_kana": null
  },
  "0816": {
    "postcode": "4960816",
    "prefecture": "愛知県",
    "prefecture_kana": "アイチケン",
    "prefecture_code": 23,
    "city": "津島市",
    "city_kana": "ツシマシ",
    "town": "米町",
    "town_kana": "コメマチ",
    "street": null,
    "office_name": null,
    "office_name_kana": null
  },
  "0817": {
    "postcode": "4960817",
    "prefecture": "愛知県",
    "prefecture_kana": "アイチケン",
    "prefecture_code": 23,
    "city": "津島市",
    "city_kana": "ツシマシ",
    "town": "北町",
    "town_kana": "キタマチ",
    "street": null,
    "office_name": null,
    "office_name_kana": null
  },
  "0818": {
    "postcode": "4960818",
    "prefecture": "愛知県",
    "prefecture_kana": "アイチケン",
    "prefecture_code": 23,
    "city": "津島市",
    "city_kana": "ツシマシ",
    "town": "松原町",
    "town_kana": "マツバラチョウ",
    "street": null,
    "office_name": null,
    "office_name_kana": null
  },
  "0819": {
    "postcode": "4960819",
    "prefecture": "愛知県",
    "prefecture_kana": "アイチケン",
    "prefecture_code": 23,
    "city": "津島市",
    "city_kana": "ツシマシ",
    "town": "又吉町",
    "town_kana": "マタキチチョウ",
    "street": null,
    "office_name": null,
    "office_name_kana": null
  },
  "0821": {
    "postcode": "4960821",
    "prefecture": "愛知県",
    "prefecture_kana": "アイチケン",
    "prefecture_code": 23,
    "city": "津島市",
    "city_kana": "ツシマシ",
    "town": "城之越町",
    "town_kana": "シロノコシチョウ",
    "street": null,
    "office_name": null,
    "office_name_kana": null
  },
  "0822": {
    "postcode": "4960822",
    "prefecture": "愛知県",
    "prefecture_kana": "アイチケン",
    "prefecture_code": 23,
    "city": "津島市",
    "city_kana": "ツシマシ",
    "town": "高屋敷町",
    "town_kana": "タカヤシキチョウ",
    "street": null,
    "office_name": null,
    "office_name_kana": null
  },
  "0823": {
    "postcode": "4960823",
    "prefecture": "愛知県",
    "prefecture_kana": "アイチケン",
    "prefecture_code": 23,
    "city": "津島市",
    "city_kana": "ツシマシ",
    "town": "上河原町",
    "town_kana": "カミガワラチョウ",
    "street": null,
    "office_name": null,
    "office_name_kana": null
  },
  "0824": {
    "postcode": "4960824",
    "prefecture": "愛知県",
    "prefecture_kana": "アイチケン",
    "prefecture_code": 23,
    "city": "津島市",
    "city_kana": "ツシマシ",
    "town": "金町",
    "town_kana": "カナマチ",
    "street": null,
    "office_name": null,
    "office_name_kana": null
  },
  "0825": {
    "postcode": "4960825",
    "prefecture": "愛知県",
    "prefecture_kana": "アイチケン",
    "prefecture_code": 23,
    "city": "津島市",
    "city_kana": "ツシマシ",
    "town": "橋詰町",
    "town_kana": "ハシヅメチョウ",
    "street": null,
    "office_name": null,
    "office_name_kana": null
  },
  "0826": {
    "postcode": "4960826",
    "prefecture": "愛知県",
    "prefecture_kana": "アイチケン",
    "prefecture_code": 23,
    "city": "津島市",
    "city_kana": "ツシマシ",
    "town": "片町",
    "town_kana": "カタマチ",
    "street": null,
    "office_name": null,
    "office_name_kana": null
  },
  "0827": {
    "postcode": "4960827",
    "prefecture": "愛知県",
    "prefecture_kana": "アイチケン",
    "prefecture_code": 23,
    "city": "津島市",
    "city_kana": "ツシマシ",
    "town": "浦方町",
    "town_kana": "ウラカタチョウ",
    "street": null,
    "office_name": null,
    "office_name_kana": null
  },
  "0828": {
    "postcode": "4960828",
    "prefecture": "愛知県",
    "prefecture_kana": "アイチケン",
    "prefecture_code": 23,
    "city": "津島市",
    "city_kana": "ツシマシ",
    "town": "池須町",
    "town_kana": "イケスチョウ",
    "street": null,
    "office_name": null,
    "office_name_kana": null
  },
  "0829": {
    "postcode": "4960829",
    "prefecture": "愛知県",
    "prefecture_kana": "アイチケン",
    "prefecture_code": 23,
    "city": "津島市",
    "city_kana": "ツシマシ",
    "town": "寿町",
    "town_kana": "コトブキチョウ",
    "street": null,
    "office_name": null,
    "office_name_kana": null
  },
  "0831": {
    "postcode": "4960831",
    "prefecture": "愛知県",
    "prefecture_kana": "アイチケン",
    "prefecture_code": 23,
    "city": "津島市",
    "city_kana": "ツシマシ",
    "town": "瑞穂町",
    "town_kana": "ミズホチョウ",
    "street": null,
    "office_name": null,
    "office_name_kana": null
  },
  "0832": {
    "postcode": "4960832",
    "prefecture": "愛知県",
    "prefecture_kana": "アイチケン",
    "prefecture_code": 23,
    "city": "津島市",
    "city_kana": "ツシマシ",
    "town": "東洋町",
    "town_kana": "トウヨウチョウ",
    "street": null,
    "office_name": null,
    "office_name_kana": null
  },
  "0833": {
    "postcode": "4960833",
    "prefecture": "愛知県",
    "prefecture_kana": "アイチケン",
    "prefecture_code": 23,
    "city": "津島市",
    "city_kana": "ツシマシ",
    "town": "常盤町",
    "town_kana": "トキワチョウ",
    "street": null,
    "office_name": null,
    "office_name_kana": null
  },
  "0834": {
    "postcode": "4960834",
    "prefecture": "愛知県",
    "prefecture_kana": "アイチケン",
    "prefecture_code": 23,
    "city": "津島市",
    "city_kana": "ツシマシ",
    "town": "南本町",
    "town_kana": "ミナミホンマチ",
    "street": null,
    "office_name": null,
    "office_name_kana": null
  },
  "0835": {
    "postcode": "4960835",
    "prefecture": "愛知県",
    "prefecture_kana": "アイチケン",
    "prefecture_code": 23,
    "city": "津島市",
    "city_kana": "ツシマシ",
    "town": "皆戸町",
    "town_kana": "ミナトチョウ",
    "street": null,
    "office_name": null,
    "office_name_kana": null
  },
  "0836": {
    "postcode": "4960836",
    "prefecture": "愛知県",
    "prefecture_kana": "アイチケン",
    "prefecture_code": 23,
    "city": "津島市",
    "city_kana": "ツシマシ",
    "town": "中野町",
    "town_kana": "ナカノチョウ",
    "street": null,
    "office_name": null,
    "office_name_kana": null
  },
  "0837": {
    "postcode": "4960837",
    "prefecture": "愛知県",
    "prefecture_kana": "アイチケン",
    "prefecture_code": 23,
    "city": "津島市",
    "city_kana": "ツシマシ",
    "town": "大政町",
    "town_kana": "タイセイチョウ",
    "street": null,
    "office_name": null,
    "office_name_kana": null
  },
  "0838": {
    "postcode": "4960838",
    "prefecture": "愛知県",
    "prefecture_kana": "アイチケン",
    "prefecture_code": 23,
    "city": "津島市",
    "city_kana": "ツシマシ",
    "town": "明天町",
    "town_kana": "メイテンチョウ",
    "street": null,
    "office_name": null,
    "office_name_kana": null
  },
  "0839": {
    "postcode": "4960839",
    "prefecture": "愛知県",
    "prefecture_kana": "アイチケン",
    "prefecture_code": 23,
    "city": "津島市",
    "city_kana": "ツシマシ",
    "town": "藤川町",
    "town_kana": "フジカワチョウ",
    "street": null,
    "office_name": null,
    "office_name_kana": null
  },
  "0841": {
    "postcode": "4960841",
    "prefecture": "愛知県",
    "prefecture_kana": "アイチケン",
    "prefecture_code": 23,
    "city": "津島市",
    "city_kana": "ツシマシ",
    "town": "横町",
    "town_kana": "ヨコマチ",
    "street": null,
    "office_name": null,
    "office_name_kana": null
  },
  "0842": {
    "postcode": "4960842",
    "prefecture": "愛知県",
    "prefecture_kana": "アイチケン",
    "prefecture_code": 23,
    "city": "津島市",
    "city_kana": "ツシマシ",
    "town": "筏場町",
    "town_kana": "イカダバチョウ",
    "street": null,
    "office_name": null,
    "office_name_kana": null
  },
  "0843": {
    "postcode": "4960843",
    "prefecture": "愛知県",
    "prefecture_kana": "アイチケン",
    "prefecture_code": 23,
    "city": "津島市",
    "city_kana": "ツシマシ",
    "town": "舟戸町",
    "town_kana": "フナドチョウ",
    "street": null,
    "office_name": null,
    "office_name_kana": null
  },
  "0844": {
    "postcode": "4960844",
    "prefecture": "愛知県",
    "prefecture_kana": "アイチケン",
    "prefecture_code": 23,
    "city": "津島市",
    "city_kana": "ツシマシ",
    "town": "薬師町",
    "town_kana": "ヤクシチョウ",
    "street": null,
    "office_name": null,
    "office_name_kana": null
  },
  "0845": {
    "postcode": "4960845",
    "prefecture": "愛知県",
    "prefecture_kana": "アイチケン",
    "prefecture_code": 23,
    "city": "津島市",
    "city_kana": "ツシマシ",
    "town": "永楽町",
    "town_kana": "エイラクチョウ",
    "street": null,
    "office_name": null,
    "office_name_kana": null
  },
  "0846": {
    "postcode": "4960846",
    "prefecture": "愛知県",
    "prefecture_kana": "アイチケン",
    "prefecture_code": 23,
    "city": "津島市",
    "city_kana": "ツシマシ",
    "town": "東中地町",
    "town_kana": "ヒガシナカジチョウ",
    "street": null,
    "office_name": null,
    "office_name_kana": null
  },
  "0847": {
    "postcode": "4960847",
    "prefecture": "愛知県",
    "prefecture_kana": "アイチケン",
    "prefecture_code": 23,
    "city": "津島市",
    "city_kana": "ツシマシ",
    "town": "中地町",
    "town_kana": "ナカジチョウ",
    "street": null,
    "office_name": null,
    "office_name_kana": null
  },
  "0848": {
    "postcode": "4960848",
    "prefecture": "愛知県",
    "prefecture_kana": "アイチケン",
    "prefecture_code": 23,
    "city": "津島市",
    "city_kana": "ツシマシ",
    "town": "大慶寺町",
    "town_kana": "タイケイジチョウ",
    "street": null,
    "office_name": null,
    "office_name_kana": null
  },
  "0849": {
    "postcode": "4960849",
    "prefecture": "愛知県",
    "prefecture_kana": "アイチケン",
    "prefecture_code": 23,
    "city": "津島市",
    "city_kana": "ツシマシ",
    "town": "西御堂町",
    "town_kana": "ニシミドウチョウ",
    "street": null,
    "office_name": null,
    "office_name_kana": null
  },
  "0851": {
    "postcode": "4960851",
    "prefecture": "愛知県",
    "prefecture_kana": "アイチケン",
    "prefecture_code": 23,
    "city": "津島市",
    "city_kana": "ツシマシ",
    "town": "神明町",
    "town_kana": "シンメイチョウ",
    "street": null,
    "office_name": null,
    "office_name_kana": null
  },
  "0852": {
    "postcode": "4960852",
    "prefecture": "愛知県",
    "prefecture_kana": "アイチケン",
    "prefecture_code": 23,
    "city": "津島市",
    "city_kana": "ツシマシ",
    "town": "祢宜町",
    "town_kana": "ネギマチ",
    "street": null,
    "office_name": null,
    "office_name_kana": null
  },
  "0853": {
    "postcode": "4960853",
    "prefecture": "愛知県",
    "prefecture_kana": "アイチケン",
    "prefecture_code": 23,
    "city": "津島市",
    "city_kana": "ツシマシ",
    "town": "宮川町",
    "town_kana": "ミヤガワチョウ",
    "street": null,
    "office_name": null,
    "office_name_kana": null
  },
  "0854": {
    "postcode": "4960854",
    "prefecture": "愛知県",
    "prefecture_kana": "アイチケン",
    "prefecture_code": 23,
    "city": "津島市",
    "city_kana": "ツシマシ",
    "town": "老松町",
    "town_kana": "オイマツチョウ",
    "street": null,
    "office_name": null,
    "office_name_kana": null
  },
  "0855": {
    "postcode": "4960855",
    "prefecture": "愛知県",
    "prefecture_kana": "アイチケン",
    "prefecture_code": 23,
    "city": "津島市",
    "city_kana": "ツシマシ",
    "town": "江東町",
    "town_kana": "エトウチョウ",
    "street": null,
    "office_name": null,
    "office_name_kana": null
  },
  "0856": {
    "postcode": "4960856",
    "prefecture": "愛知県",
    "prefecture_kana": "アイチケン",
    "prefecture_code": 23,
    "city": "津島市",
    "city_kana": "ツシマシ",
    "town": "瑠璃小路町",
    "town_kana": "ルリコウジチョウ",
    "street": null,
    "office_name": null,
    "office_name_kana": null
  },
  "0857": {
    "postcode": "4960857",
    "prefecture": "愛知県",
    "prefecture_kana": "アイチケン",
    "prefecture_code": 23,
    "city": "津島市",
    "city_kana": "ツシマシ",
    "town": "南門前町",
    "town_kana": "ミナミモンゼンチョウ",
    "street": null,
    "office_name": null,
    "office_name_kana": null
  },
  "0861": {
    "postcode": "4960861",
    "prefecture": "愛知県",
    "prefecture_kana": "アイチケン",
    "prefecture_code": 23,
    "city": "津島市",
    "city_kana": "ツシマシ",
    "town": "観音町",
    "town_kana": "カンノンチョウ",
    "street": null,
    "office_name": null,
    "office_name_kana": null
  },
  "0862": {
    "postcode": "4960862",
    "prefecture": "愛知県",
    "prefecture_kana": "アイチケン",
    "prefecture_code": 23,
    "city": "津島市",
    "city_kana": "ツシマシ",
    "town": "城山町",
    "town_kana": "シロヤマチョウ",
    "street": null,
    "office_name": null,
    "office_name_kana": null
  },
  "0863": {
    "postcode": "4960863",
    "prefecture": "愛知県",
    "prefecture_kana": "アイチケン",
    "prefecture_code": 23,
    "city": "津島市",
    "city_kana": "ツシマシ",
    "town": "上之町",
    "town_kana": "カミノマチ",
    "street": null,
    "office_name": null,
    "office_name_kana": null
  },
  "0864": {
    "postcode": "4960864",
    "prefecture": "愛知県",
    "prefecture_kana": "アイチケン",
    "prefecture_code": 23,
    "city": "津島市",
    "city_kana": "ツシマシ",
    "town": "中之町",
    "town_kana": "ナカノマチ",
    "street": null,
    "office_name": null,
    "office_name_kana": null
  },
  "0865": {
    "postcode": "4960865",
    "prefecture": "愛知県",
    "prefecture_kana": "アイチケン",
    "prefecture_code": 23,
    "city": "津島市",
    "city_kana": "ツシマシ",
    "town": "馬場町",
    "town_kana": "ババチョウ",
    "street": null,
    "office_name": null,
    "office_name_kana": null
  },
  "0866": {
    "postcode": "4960866",
    "prefecture": "愛知県",
    "prefecture_kana": "アイチケン",
    "prefecture_code": 23,
    "city": "津島市",
    "city_kana": "ツシマシ",
    "town": "大和町",
    "town_kana": "ヤマトチョウ",
    "street": null,
    "office_name": null,
    "office_name_kana": null
  },
  "0867": {
    "postcode": "4960867",
    "prefecture": "愛知県",
    "prefecture_kana": "アイチケン",
    "prefecture_code": 23,
    "city": "津島市",
    "city_kana": "ツシマシ",
    "town": "江川町",
    "town_kana": "エガワチョウ",
    "street": null,
    "office_name": null,
    "office_name_kana": null
  },
  "0868": {
    "postcode": "4960868",
    "prefecture": "愛知県",
    "prefecture_kana": "アイチケン",
    "prefecture_code": 23,
    "city": "津島市",
    "city_kana": "ツシマシ",
    "town": "申塚町",
    "town_kana": "サルヅカチョウ",
    "street": null,
    "office_name": null,
    "office_name_kana": null
  },
  "0869": {
    "postcode": "4960869",
    "prefecture": "愛知県",
    "prefecture_kana": "アイチケン",
    "prefecture_code": 23,
    "city": "津島市",
    "city_kana": "ツシマシ",
    "town": "河原町",
    "town_kana": "カワラチョウ",
    "street": null,
    "office_name": null,
    "office_name_kana": null
  },
  "0871": {
    "postcode": "4960871",
    "prefecture": "愛知県",
    "prefecture_kana": "アイチケン",
    "prefecture_code": 23,
    "city": "津島市",
    "city_kana": "ツシマシ",
    "town": "上新田町",
    "town_kana": "カミシンデンチョウ",
    "street": null,
    "office_name": null,
    "office_name_kana": null
  },
  "0872": {
    "postcode": "4960872",
    "prefecture": "愛知県",
    "prefecture_kana": "アイチケン",
    "prefecture_code": 23,
    "city": "津島市",
    "city_kana": "ツシマシ",
    "town": "松ケ下町",
    "town_kana": "マツガシタチョウ",
    "street": null,
    "office_name": null,
    "office_name_kana": null
  },
  "0873": {
    "postcode": "4960873",
    "prefecture": "愛知県",
    "prefecture_kana": "アイチケン",
    "prefecture_code": 23,
    "city": "津島市",
    "city_kana": "ツシマシ",
    "town": "一本木町",
    "town_kana": "イッポンギチョウ",
    "street": null,
    "office_name": null,
    "office_name_kana": null
  },
  "0874": {
    "postcode": "4960874",
    "prefecture": "愛知県",
    "prefecture_kana": "アイチケン",
    "prefecture_code": 23,
    "city": "津島市",
    "city_kana": "ツシマシ",
    "town": "江西町",
    "town_kana": "エニシチョウ",
    "street": null,
    "office_name": null,
    "office_name_kana": null
  },
  "0875": {
    "postcode": "4960875",
    "prefecture": "愛知県",
    "prefecture_kana": "アイチケン",
    "prefecture_code": 23,
    "city": "津島市",
    "city_kana": "ツシマシ",
    "town": "下新田町",
    "town_kana": "シモシンデンチョウ",
    "street": null,
    "office_name": null,
    "office_name_kana": null
  },
  "0876": {
    "postcode": "4960876",
    "prefecture": "愛知県",
    "prefecture_kana": "アイチケン",
    "prefecture_code": 23,
    "city": "津島市",
    "city_kana": "ツシマシ",
    "town": "大縄町",
    "town_kana": "オオナワチョウ",
    "street": null,
    "office_name": null,
    "office_name_kana": null
  },
  "0877": {
    "postcode": "4960877",
    "prefecture": "愛知県",
    "prefecture_kana": "アイチケン",
    "prefecture_code": 23,
    "city": "津島市",
    "city_kana": "ツシマシ",
    "town": "河田町",
    "town_kana": "カワダチョウ",
    "street": null,
    "office_name": null,
    "office_name_kana": null
  },
  "0901": {
    "postcode": "4960901",
    "prefecture": "愛知県",
    "prefecture_kana": "アイチケン",
    "prefecture_code": 23,
    "city": "愛西市",
    "city_kana": "アイサイシ",
    "town": "佐屋町",
    "town_kana": "サヤチョウ",
    "street": null,
    "office_name": null,
    "office_name_kana": null
  },
  "0902": {
    "postcode": "4960902",
    "prefecture": "愛知県",
    "prefecture_kana": "アイチケン",
    "prefecture_code": 23,
    "city": "愛西市",
    "city_kana": "アイサイシ",
    "town": "須依町",
    "town_kana": "スエチョウ",
    "street": null,
    "office_name": null,
    "office_name_kana": null
  },
  "0903": {
    "postcode": "4960903",
    "prefecture": "愛知県",
    "prefecture_kana": "アイチケン",
    "prefecture_code": 23,
    "city": "愛西市",
    "city_kana": "アイサイシ",
    "town": "内佐屋町",
    "town_kana": "ウチザヤチョウ",
    "street": null,
    "office_name": null,
    "office_name_kana": null
  },
  "0904": {
    "postcode": "4960904",
    "prefecture": "愛知県",
    "prefecture_kana": "アイチケン",
    "prefecture_code": 23,
    "city": "愛西市",
    "city_kana": "アイサイシ",
    "town": "柚木町",
    "town_kana": "ユギチョウ",
    "street": null,
    "office_name": null,
    "office_name_kana": null
  },
  "0905": {
    "postcode": "4960905",
    "prefecture": "愛知県",
    "prefecture_kana": "アイチケン",
    "prefecture_code": 23,
    "city": "愛西市",
    "city_kana": "アイサイシ",
    "town": "北一色町",
    "town_kana": "キタイシキチョウ",
    "street": null,
    "office_name": null,
    "office_name_kana": null
  },
  "0906": {
    "postcode": "4960906",
    "prefecture": "愛知県",
    "prefecture_kana": "アイチケン",
    "prefecture_code": 23,
    "city": "愛西市",
    "city_kana": "アイサイシ",
    "town": "日置町",
    "town_kana": "ヘキチョウ",
    "street": null,
    "office_name": null,
    "office_name_kana": null
  },
  "0907": {
    "postcode": "4960907",
    "prefecture": "愛知県",
    "prefecture_kana": "アイチケン",
    "prefecture_code": 23,
    "city": "愛西市",
    "city_kana": "アイサイシ",
    "town": "稲葉町",
    "town_kana": "イナバチョウ",
    "street": null,
    "office_name": null,
    "office_name_kana": null
  },
  "0908": [
    {
      "postcode": "4960908",
      "prefecture": "愛知県",
      "prefecture_kana": "アイチケン",
      "prefecture_code": 23,
      "city": "愛西市",
      "city_kana": "アイサイシ",
      "town": "金棒町",
      "town_kana": "カナボウチョウ",
      "street": null,
      "office_name": null,
      "office_name_kana": null
    },
    {
      "postcode": "4960908",
      "prefecture": "愛知県",
      "prefecture_kana": "アイチケン",
      "prefecture_code": 23,
      "city": "愛西市",
      "city_kana": "アイサイシ",
      "town": "甘村井町",
      "town_kana": "カムライチョウ",
      "street": null,
      "office_name": null,
      "office_name_kana": null
    }
  ],
  "0909": {
    "postcode": "4960909",
    "prefecture": "愛知県",
    "prefecture_kana": "アイチケン",
    "prefecture_code": 23,
    "city": "愛西市",
    "city_kana": "アイサイシ",
    "town": "落合町",
    "town_kana": "オチアイチョウ",
    "street": null,
    "office_name": null,
    "office_name_kana": null
  },
  "0911": {
    "postcode": "4960911",
    "prefecture": "愛知県",
    "prefecture_kana": "アイチケン",
    "prefecture_code": 23,
    "city": "愛西市",
    "city_kana": "アイサイシ",
    "town": "西保町",
    "town_kana": "ニシホチョウ",
    "street": null,
    "office_name": null,
    "office_name_kana": null
  },
  "0912": {
    "postcode": "4960912",
    "prefecture": "愛知県",
    "prefecture_kana": "アイチケン",
    "prefecture_code": 23,
    "city": "愛西市",
    "city_kana": "アイサイシ",
    "town": "東保町",
    "town_kana": "ヒガシホチョウ",
    "street": null,
    "office_name": null,
    "office_name_kana": null
  },
  "0913": {
    "postcode": "4960913",
    "prefecture": "愛知県",
    "prefecture_kana": "アイチケン",
    "prefecture_code": 23,
    "city": "愛西市",
    "city_kana": "アイサイシ",
    "town": "西條町",
    "town_kana": "ニシジョウチョウ",
    "street": null,
    "office_name": null,
    "office_name_kana": null
  },
  "0914": {
    "postcode": "4960914",
    "prefecture": "愛知県",
    "prefecture_kana": "アイチケン",
    "prefecture_code": 23,
    "city": "愛西市",
    "city_kana": "アイサイシ",
    "town": "東條町",
    "town_kana": "ヒガシジョウチョウ",
    "street": null,
    "office_name": null,
    "office_name_kana": null
  },
  "0915": {
    "postcode": "4960915",
    "prefecture": "愛知県",
    "prefecture_kana": "アイチケン",
    "prefecture_code": 23,
    "city": "愛西市",
    "city_kana": "アイサイシ",
    "town": "本部田町",
    "town_kana": "ホンブタチョウ",
    "street": null,
    "office_name": null,
    "office_name_kana": null
  },
  "0921": {
    "postcode": "4960921",
    "prefecture": "愛知県",
    "prefecture_kana": "アイチケン",
    "prefecture_code": 23,
    "city": "愛西市",
    "city_kana": "アイサイシ",
    "town": "大井町",
    "town_kana": "オオイチョウ",
    "street": null,
    "office_name": null,
    "office_name_kana": null
  },
  "0922": {
    "postcode": "4960922",
    "prefecture": "愛知県",
    "prefecture_kana": "アイチケン",
    "prefecture_code": 23,
    "city": "愛西市",
    "city_kana": "アイサイシ",
    "town": "大野町",
    "town_kana": "オオノチョウ",
    "street": null,
    "office_name": null,
    "office_name_kana": null
  },
  "0923": {
    "postcode": "4960923",
    "prefecture": "愛知県",
    "prefecture_kana": "アイチケン",
    "prefecture_code": 23,
    "city": "愛西市",
    "city_kana": "アイサイシ",
    "town": "鰯江町",
    "town_kana": "イワシエチョウ",
    "street": null,
    "office_name": null,
    "office_name_kana": null
  },
  "0924": {
    "postcode": "4960924",
    "prefecture": "愛知県",
    "prefecture_kana": "アイチケン",
    "prefecture_code": 23,
    "city": "愛西市",
    "city_kana": "アイサイシ",
    "town": "善太新田町",
    "town_kana": "ゼンタシンデンチョウ",
    "street": null,
    "office_name": null,
    "office_name_kana": null
  },
  "0931": {
    "postcode": "4960931",
    "prefecture": "愛知県",
    "prefecture_kana": "アイチケン",
    "prefecture_code": 23,
    "city": "愛西市",
    "city_kana": "アイサイシ",
    "town": "早尾町",
    "town_kana": "ハヤオチョウ",
    "street": null,
    "office_name": null,
    "office_name_kana": null
  },
  "0932": {
    "postcode": "4960932",
    "prefecture": "愛知県",
    "prefecture_kana": "アイチケン",
    "prefecture_code": 23,
    "city": "愛西市",
    "city_kana": "アイサイシ",
    "town": "葛木町",
    "town_kana": "カツラギチョウ",
    "street": null,
    "office_name": null,
    "office_name_kana": null
  },
  "0933": {
    "postcode": "4960933",
    "prefecture": "愛知県",
    "prefecture_kana": "アイチケン",
    "prefecture_code": 23,
    "city": "愛西市",
    "city_kana": "アイサイシ",
    "town": "戸倉町",
    "town_kana": "トクラチョウ",
    "street": null,
    "office_name": null,
    "office_name_kana": null
  },
  "0934": {
    "postcode": "4960934",
    "prefecture": "愛知県",
    "prefecture_kana": "アイチケン",
    "prefecture_code": 23,
    "city": "愛西市",
    "city_kana": "アイサイシ",
    "town": "新右エ門新田町",
    "town_kana": "シンウエモンシンデンチョウ",
    "street": null,
    "office_name": null,
    "office_name_kana": null
  },
  "0935": {
    "postcode": "4960935",
    "prefecture": "愛知県",
    "prefecture_kana": "アイチケン",
    "prefecture_code": 23,
    "city": "愛西市",
    "city_kana": "アイサイシ",
    "town": "下一色町",
    "town_kana": "シモイシキチョウ",
    "street": null,
    "office_name": null,
    "office_name_kana": null
  },
  "0936": {
    "postcode": "4960936",
    "prefecture": "愛知県",
    "prefecture_kana": "アイチケン",
    "prefecture_code": 23,
    "city": "愛西市",
    "city_kana": "アイサイシ",
    "town": "四会町",
    "town_kana": "ヨツエチョウ",
    "street": null,
    "office_name": null,
    "office_name_kana": null
  },
  "0937": {
    "postcode": "4960937",
    "prefecture": "愛知県",
    "prefecture_kana": "アイチケン",
    "prefecture_code": 23,
    "city": "愛西市",
    "city_kana": "アイサイシ",
    "town": "宮地町",
    "town_kana": "ミヤジチョウ",
    "street": null,
    "office_name": null,
    "office_name_kana": null
  },
  "0938": {
    "postcode": "4960938",
    "prefecture": "愛知県",
    "prefecture_kana": "アイチケン",
    "prefecture_code": 23,
    "city": "愛西市",
    "city_kana": "アイサイシ",
    "town": "石田町",
    "town_kana": "イシダチョウ",
    "street": null,
    "office_name": null,
    "office_name_kana": null
  },
  "0939": {
    "postcode": "4960939",
    "prefecture": "愛知県",
    "prefecture_kana": "アイチケン",
    "prefecture_code": 23,
    "city": "愛西市",
    "city_kana": "アイサイシ",
    "town": "後江町",
    "town_kana": "ヒツエチョウ",
    "street": null,
    "office_name": null,
    "office_name_kana": null
  },
  "0941": {
    "postcode": "4960941",
    "prefecture": "愛知県",
    "prefecture_kana": "アイチケン",
    "prefecture_code": 23,
    "city": "愛西市",
    "city_kana": "アイサイシ",
    "town": "雀ケ森町",
    "town_kana": "スズガモリチョウ",
    "street": null,
    "office_name": null,
    "office_name_kana": null
  },
  "0942": {
    "postcode": "4960942",
    "prefecture": "愛知県",
    "prefecture_kana": "アイチケン",
    "prefecture_code": 23,
    "city": "愛西市",
    "city_kana": "アイサイシ",
    "town": "山路町",
    "town_kana": "ヤマジチョウ",
    "street": null,
    "office_name": null,
    "office_name_kana": null
  },
  "0943": {
    "postcode": "4960943",
    "prefecture": "愛知県",
    "prefecture_kana": "アイチケン",
    "prefecture_code": 23,
    "city": "愛西市",
    "city_kana": "アイサイシ",
    "town": "森川町",
    "town_kana": "モリカワチョウ",
    "street": null,
    "office_name": null,
    "office_name_kana": null
  },
  "0944": {
    "postcode": "4960944",
    "prefecture": "愛知県",
    "prefecture_kana": "アイチケン",
    "prefecture_code": 23,
    "city": "愛西市",
    "city_kana": "アイサイシ",
    "town": "小茂井町",
    "town_kana": "コモイチョウ",
    "street": null,
    "office_name": null,
    "office_name_kana": null
  },
  "0945": {
    "postcode": "4960945",
    "prefecture": "愛知県",
    "prefecture_kana": "アイチケン",
    "prefecture_code": 23,
    "city": "愛西市",
    "city_kana": "アイサイシ",
    "town": "三和町",
    "town_kana": "ミツワチョウ",
    "street": null,
    "office_name": null,
    "office_name_kana": null
  },
  "0946": {
    "postcode": "4960946",
    "prefecture": "愛知県",
    "prefecture_kana": "アイチケン",
    "prefecture_code": 23,
    "city": "愛西市",
    "city_kana": "アイサイシ",
    "town": "立田町",
    "town_kana": "タツダチョウ",
    "street": null,
    "office_name": null,
    "office_name_kana": null
  },
  "0947": {
    "postcode": "4960947",
    "prefecture": "愛知県",
    "prefecture_kana": "アイチケン",
    "prefecture_code": 23,
    "city": "愛西市",
    "city_kana": "アイサイシ",
    "town": "福原新田町",
    "town_kana": "フクハラシンデンチョウ",
    "street": null,
    "office_name": null,
    "office_name_kana": null
  },
  "8001": {
    "postcode": "4968001",
    "prefecture": "愛知県",
    "prefecture_kana": "アイチケン",
    "prefecture_code": 23,
    "city": "愛西市",
    "city_kana": "アイサイシ",
    "town": "勝幡町",
    "town_kana": "ショバタチョウ",
    "street": null,
    "office_name": null,
    "office_name_kana": null
  },
  "8002": {
    "postcode": "4968002",
    "prefecture": "愛知県",
    "prefecture_kana": "アイチケン",
    "prefecture_code": 23,
    "city": "愛西市",
    "city_kana": "アイサイシ",
    "town": "佐折町",
    "town_kana": "サオリチョウ",
    "street": null,
    "office_name": null,
    "office_name_kana": null
  },
  "8003": {
    "postcode": "4968003",
    "prefecture": "愛知県",
    "prefecture_kana": "アイチケン",
    "prefecture_code": 23,
    "city": "愛西市",
    "city_kana": "アイサイシ",
    "town": "千引町",
    "town_kana": "センビキチョウ",
    "street": null,
    "office_name": null,
    "office_name_kana": null
  },
  "8004": {
    "postcode": "4968004",
    "prefecture": "愛知県",
    "prefecture_kana": "アイチケン",
    "prefecture_code": 23,
    "city": "愛西市",
    "city_kana": "アイサイシ",
    "town": "古瀬町",
    "town_kana": "コセチョウ",
    "street": null,
    "office_name": null,
    "office_name_kana": null
  },
  "8005": {
    "postcode": "4968005",
    "prefecture": "愛知県",
    "prefecture_kana": "アイチケン",
    "prefecture_code": 23,
    "city": "愛西市",
    "city_kana": "アイサイシ",
    "town": "諸桑町",
    "town_kana": "モロクワチョウ",
    "street": null,
    "office_name": null,
    "office_name_kana": null
  },
  "8006": {
    "postcode": "4968006",
    "prefecture": "愛知県",
    "prefecture_kana": "アイチケン",
    "prefecture_code": 23,
    "city": "愛西市",
    "city_kana": "アイサイシ",
    "town": "持中町",
    "town_kana": "モッチュウチョウ",
    "street": null,
    "office_name": null,
    "office_name_kana": null
  },
  "8007": {
    "postcode": "4968007",
    "prefecture": "愛知県",
    "prefecture_kana": "アイチケン",
    "prefecture_code": 23,
    "city": "愛西市",
    "city_kana": "アイサイシ",
    "town": "南河田町",
    "town_kana": "ミナミゴウタチョウ",
    "street": null,
    "office_name": null,
    "office_name_kana": null
  },
  "8008": {
    "postcode": "4968008",
    "prefecture": "愛知県",
    "prefecture_kana": "アイチケン",
    "prefecture_code": 23,
    "city": "愛西市",
    "city_kana": "アイサイシ",
    "town": "北河田町",
    "town_kana": "キタゴウタチョウ",
    "street": null,
    "office_name": null,
    "office_name_kana": null
  },
  "8009": {
    "postcode": "4968009",
    "prefecture": "愛知県",
    "prefecture_kana": "アイチケン",
    "prefecture_code": 23,
    "city": "愛西市",
    "city_kana": "アイサイシ",
    "town": "小津町",
    "town_kana": "オヅチョウ",
    "street": null,
    "office_name": null,
    "office_name_kana": null
  },
  "8010": {
    "postcode": "4968010",
    "prefecture": "愛知県",
    "prefecture_kana": "アイチケン",
    "prefecture_code": 23,
    "city": "愛西市",
    "city_kana": "アイサイシ",
    "town": "六輪町",
    "town_kana": "ロクワチョウ",
    "street": null,
    "office_name": null,
    "office_name_kana": null
  },
  "8011": {
    "postcode": "4968011",
    "prefecture": "愛知県",
    "prefecture_kana": "アイチケン",
    "prefecture_code": 23,
    "city": "愛西市",
    "city_kana": "アイサイシ",
    "town": "諏訪町",
    "town_kana": "スワチョウ",
    "street": null,
    "office_name": null,
    "office_name_kana": null
  },
  "8012": {
    "postcode": "4968012",
    "prefecture": "愛知県",
    "prefecture_kana": "アイチケン",
    "prefecture_code": 23,
    "city": "愛西市",
    "city_kana": "アイサイシ",
    "town": "根高町",
    "town_kana": "ネダカチョウ",
    "street": null,
    "office_name": null,
    "office_name_kana": null
  },
  "8013": {
    "postcode": "4968013",
    "prefecture": "愛知県",
    "prefecture_kana": "アイチケン",
    "prefecture_code": 23,
    "city": "愛西市",
    "city_kana": "アイサイシ",
    "town": "見越町",
    "town_kana": "ミコシチョウ",
    "street": null,
    "office_name": null,
    "office_name_kana": null
  },
  "8014": {
    "postcode": "4968014",
    "prefecture": "愛知県",
    "prefecture_kana": "アイチケン",
    "prefecture_code": 23,
    "city": "愛西市",
    "city_kana": "アイサイシ",
    "town": "町方町",
    "town_kana": "マチカタチョウ",
    "street": null,
    "office_name": null,
    "office_name_kana": null
  },
  "8015": {
    "postcode": "4968015",
    "prefecture": "愛知県",
    "prefecture_kana": "アイチケン",
    "prefecture_code": 23,
    "city": "愛西市",
    "city_kana": "アイサイシ",
    "town": "草平町",
    "town_kana": "クサヒラチョウ",
    "street": null,
    "office_name": null,
    "office_name_kana": null
  },
  "8016": {
    "postcode": "4968016",
    "prefecture": "愛知県",
    "prefecture_kana": "アイチケン",
    "prefecture_code": 23,
    "city": "愛西市",
    "city_kana": "アイサイシ",
    "town": "鷹場町",
    "town_kana": "タカバチョウ",
    "street": null,
    "office_name": null,
    "office_name_kana": null
  },
  "8017": {
    "postcode": "4968017",
    "prefecture": "愛知県",
    "prefecture_kana": "アイチケン",
    "prefecture_code": 23,
    "city": "愛西市",
    "city_kana": "アイサイシ",
    "town": "大野山町",
    "town_kana": "オオノヤマチョウ",
    "street": null,
    "office_name": null,
    "office_name_kana": null
  },
  "8018": {
    "postcode": "4968018",
    "prefecture": "愛知県",
    "prefecture_kana": "アイチケン",
    "prefecture_code": 23,
    "city": "愛西市",
    "city_kana": "アイサイシ",
    "town": "渕高町",
    "town_kana": "フチダカチョウ",
    "street": null,
    "office_name": null,
    "office_name_kana": null
  },
  "8019": {
    "postcode": "4968019",
    "prefecture": "愛知県",
    "prefecture_kana": "アイチケン",
    "prefecture_code": 23,
    "city": "愛西市",
    "city_kana": "アイサイシ",
    "town": "西川端町",
    "town_kana": "ニシカワバタチョウ",
    "street": null,
    "office_name": null,
    "office_name_kana": null
  },
  "8020": {
    "postcode": "4968020",
    "prefecture": "愛知県",
    "prefecture_kana": "アイチケン",
    "prefecture_code": 23,
    "city": "愛西市",
    "city_kana": "アイサイシ",
    "town": "平和町",
    "town_kana": "ヘイワチョウ",
    "street": null,
    "office_name": null,
    "office_name_kana": null
  },
  "8030": {
    "postcode": "4968030",
    "prefecture": "愛知県",
    "prefecture_kana": "アイチケン",
    "prefecture_code": 23,
    "city": "愛西市",
    "city_kana": "アイサイシ",
    "town": "二子町柳原",
    "town_kana": "フタゴチョウヤナギハラ",
    "street": null,
    "office_name": null,
    "office_name_kana": null
  },
  "8031": {
    "postcode": "4968031",
    "prefecture": "愛知県",
    "prefecture_kana": "アイチケン",
    "prefecture_code": 23,
    "city": "愛西市",
    "city_kana": "アイサイシ",
    "town": "上東川町",
    "town_kana": "カミヒガシガワチョウ",
    "street": null,
    "office_name": null,
    "office_name_kana": null
  },
  "8032": {
    "postcode": "4968032",
    "prefecture": "愛知県",
    "prefecture_kana": "アイチケン",
    "prefecture_code": 23,
    "city": "愛西市",
    "city_kana": "アイサイシ",
    "town": "下東川町",
    "town_kana": "シモヒガシガワチョウ",
    "street": null,
    "office_name": null,
    "office_name_kana": null
  },
  "8033": {
    "postcode": "4968033",
    "prefecture": "愛知県",
    "prefecture_kana": "アイチケン",
    "prefecture_code": 23,
    "city": "愛西市",
    "city_kana": "アイサイシ",
    "town": "鵜多須町",
    "town_kana": "ウタスチョウ",
    "street": null,
    "office_name": null,
    "office_name_kana": null
  },
  "8034": {
    "postcode": "4968034",
    "prefecture": "愛知県",
    "prefecture_kana": "アイチケン",
    "prefecture_code": 23,
    "city": "愛西市",
    "city_kana": "アイサイシ",
    "town": "二子町小判山",
    "town_kana": "フタゴチョウコバンヤマ",
    "street": null,
    "office_name": null,
    "office_name_kana": null
  },
  "8035": {
    "postcode": "4968035",
    "prefecture": "愛知県",
    "prefecture_kana": "アイチケン",
    "prefecture_code": 23,
    "city": "愛西市",
    "city_kana": "アイサイシ",
    "town": "二子町上丸島",
    "town_kana": "フタゴチョウカミマルジマ",
    "street": null,
    "office_name": null,
    "office_name_kana": null
  },
  "8036": {
    "postcode": "4968036",
    "prefecture": "愛知県",
    "prefecture_kana": "アイチケン",
    "prefecture_code": 23,
    "city": "愛西市",
    "city_kana": "アイサイシ",
    "town": "二子町丸島",
    "town_kana": "フタゴチョウマルジマ",
    "street": null,
    "office_name": null,
    "office_name_kana": null
  },
  "8037": {
    "postcode": "4968037",
    "prefecture": "愛知県",
    "prefecture_kana": "アイチケン",
    "prefecture_code": 23,
    "city": "愛西市",
    "city_kana": "アイサイシ",
    "town": "二子町新田",
    "town_kana": "フタゴチョウシンデン",
    "street": null,
    "office_name": null,
    "office_name_kana": null
  },
  "8038": {
    "postcode": "4968038",
    "prefecture": "愛知県",
    "prefecture_kana": "アイチケン",
    "prefecture_code": 23,
    "city": "愛西市",
    "city_kana": "アイサイシ",
    "town": "二子町定納",
    "town_kana": "フタゴチョウジョウノ",
    "street": null,
    "office_name": null,
    "office_name_kana": null
  },
  "8039": {
    "postcode": "4968039",
    "prefecture": "愛知県",
    "prefecture_kana": "アイチケン",
    "prefecture_code": 23,
    "city": "愛西市",
    "city_kana": "アイサイシ",
    "town": "川北町",
    "town_kana": "カワキタチョウ",
    "street": null,
    "office_name": null,
    "office_name_kana": null
  },
  "8040": {
    "postcode": "4968040",
    "prefecture": "愛知県",
    "prefecture_kana": "アイチケン",
    "prefecture_code": 23,
    "city": "愛西市",
    "city_kana": "アイサイシ",
    "town": "二子町松原",
    "town_kana": "フタゴチョウマツバラ",
    "street": null,
    "office_name": null,
    "office_name_kana": null
  },
  "8041": {
    "postcode": "4968041",
    "prefecture": "愛知県",
    "prefecture_kana": "アイチケン",
    "prefecture_code": 23,
    "city": "愛西市",
    "city_kana": "アイサイシ",
    "town": "藤ケ瀬町",
    "town_kana": "フジガセチョウ",
    "street": null,
    "office_name": null,
    "office_name_kana": null
  },
  "8042": {
    "postcode": "4968042",
    "prefecture": "愛知県",
    "prefecture_kana": "アイチケン",
    "prefecture_code": 23,
    "city": "愛西市",
    "city_kana": "アイサイシ",
    "town": "給父町",
    "town_kana": "キュウブチョウ",
    "street": null,
    "office_name": null,
    "office_name_kana": null
  },
  "8043": {
    "postcode": "4968043",
    "prefecture": "愛知県",
    "prefecture_kana": "アイチケン",
    "prefecture_code": 23,
    "city": "愛西市",
    "city_kana": "アイサイシ",
    "town": "高畑町",
    "town_kana": "タカバタチョウ",
    "street": null,
    "office_name": null,
    "office_name_kana": null
  },
  "8044": {
    "postcode": "4968044",
    "prefecture": "愛知県",
    "prefecture_kana": "アイチケン",
    "prefecture_code": 23,
    "city": "愛西市",
    "city_kana": "アイサイシ",
    "town": "江西町",
    "town_kana": "エニシチョウ",
    "street": null,
    "office_name": null,
    "office_name_kana": null
  },
  "8045": {
    "postcode": "4968045",
    "prefecture": "愛知県",
    "prefecture_kana": "アイチケン",
    "prefecture_code": 23,
    "city": "愛西市",
    "city_kana": "アイサイシ",
    "town": "元赤目町",
    "town_kana": "モトアカメチョウ",
    "street": null,
    "office_name": null,
    "office_name_kana": null
  },
  "8046": {
    "postcode": "4968046",
    "prefecture": "愛知県",
    "prefecture_kana": "アイチケン",
    "prefecture_code": 23,
    "city": "愛西市",
    "city_kana": "アイサイシ",
    "town": "赤目町",
    "town_kana": "アカメチョウ",
    "street": null,
    "office_name": null,
    "office_name_kana": null
  },
  "8047": {
    "postcode": "4968047",
    "prefecture": "愛知県",
    "prefecture_kana": "アイチケン",
    "prefecture_code": 23,
    "city": "愛西市",
    "city_kana": "アイサイシ",
    "town": "立石町",
    "town_kana": "タテイシチョウ",
    "street": null,
    "office_name": null,
    "office_name_kana": null
  },
  "8048": {
    "postcode": "4968048",
    "prefecture": "愛知県",
    "prefecture_kana": "アイチケン",
    "prefecture_code": 23,
    "city": "愛西市",
    "city_kana": "アイサイシ",
    "town": "下大牧町",
    "town_kana": "シモオオマキチョウ",
    "street": null,
    "office_name": null,
    "office_name_kana": null
  },
  "8049": {
    "postcode": "4968049",
    "prefecture": "愛知県",
    "prefecture_kana": "アイチケン",
    "prefecture_code": 23,
    "city": "愛西市",
    "city_kana": "アイサイシ",
    "town": "塩田町",
    "town_kana": "シオタチョウ",
    "street": null,
    "office_name": null,
    "office_name_kana": null
  },
  "8501": {
    "postcode": "4968501",
    "prefecture": "愛知県",
    "prefecture_kana": "アイチケン",
    "prefecture_code": 23,
    "city": "津島市",
    "city_kana": "ツシマシ",
    "town": "新開町",
    "town_kana": "シンガイチョウ",
    "street": "１丁目６番地",
    "office_name": "株式会社　義津屋",
    "office_name_kana": "カブシキカイシヤ ヨシヅヤ"
  },
  "8503": {
    "postcode": "4968503",
    "prefecture": "愛知県",
    "prefecture_kana": "アイチケン",
    "prefecture_code": 23,
    "city": "津島市",
    "city_kana": "ツシマシ",
    "town": "埋田町",
    "town_kana": "ウメダチョウ",
    "street": "１丁目８番地",
    "office_name": "株式会社　西日本宇佐美　東海支店",
    "office_name_kana": "カブシキガイシヤ ニシニホンウサミ トウカイシテン"
  },
  "8508": {
    "postcode": "4968508",
    "prefecture": "愛知県",
    "prefecture_kana": "アイチケン",
    "prefecture_code": 23,
    "city": "津島市",
    "city_kana": "ツシマシ",
    "town": "永楽町",
    "town_kana": "エイラクチョウ",
    "street": "４丁目１１番地の２",
    "office_name": "株式会社　前田",
    "office_name_kana": "カブシキガイシヤ マエダ"
  },
  "8531": {
    "postcode": "4968531",
    "prefecture": "愛知県",
    "prefecture_kana": "アイチケン",
    "prefecture_code": 23,
    "city": "津島市",
    "city_kana": "ツシマシ",
    "town": "西柳原町",
    "town_kana": "ニシヤナギハラチョウ",
    "street": "１丁目１４番地",
    "office_name": "愛知県海部県民事務所",
    "office_name_kana": "アイチケンアマケンミンジムシヨ"
  },
  "8532": {
    "postcode": "4968532",
    "prefecture": "愛知県",
    "prefecture_kana": "アイチケン",
    "prefecture_code": 23,
    "city": "津島市",
    "city_kana": "ツシマシ",
    "town": "西柳原町",
    "town_kana": "ニシヤナギハラチョウ",
    "street": "１丁目１４番地",
    "office_name": "愛知県　海部農林水産事務所",
    "office_name_kana": "アイチケン アマノウリンスイサンジムシヨ"
  },
  "8533": {
    "postcode": "4968533",
    "prefecture": "愛知県",
    "prefecture_kana": "アイチケン",
    "prefecture_code": 23,
    "city": "津島市",
    "city_kana": "ツシマシ",
    "town": "西柳原町",
    "town_kana": "ニシヤナギハラチョウ",
    "street": "１丁目１４番地",
    "office_name": "愛知県海部建設事務所",
    "office_name_kana": "アイチケンアマケンセツジムシヨ"
  },
  "8534": {
    "postcode": "4968534",
    "prefecture": "愛知県",
    "prefecture_kana": "アイチケン",
    "prefecture_code": 23,
    "city": "津島市",
    "city_kana": "ツシマシ",
    "town": "西柳原町",
    "town_kana": "ニシヤナギハラチョウ",
    "street": "１丁目１４",
    "office_name": "愛知県　海部教育事務所",
    "office_name_kana": "アイチケン アマキヨウイクジムシヨ"
  },
  "8535": {
    "postcode": "4968535",
    "prefecture": "愛知県",
    "prefecture_kana": "アイチケン",
    "prefecture_code": 23,
    "city": "津島市",
    "city_kana": "ツシマシ",
    "town": "西柳原町",
    "town_kana": "ニシヤナギハラチョウ",
    "street": "１丁目１４番地",
    "office_name": "愛知県海部福祉相談センター",
    "office_name_kana": "アイチケンアマフクシソウダンセンタ-"
  },
  "8537": {
    "postcode": "4968537",
    "prefecture": "愛知県",
    "prefecture_kana": "アイチケン",
    "prefecture_code": 23,
    "city": "津島市",
    "city_kana": "ツシマシ",
    "town": "橘町",
    "town_kana": "タチバナチョウ",
    "street": "３丁目７３",
    "office_name": "津島市民病院",
    "office_name_kana": "ツシマシミンビヨウイン"
  },
  "8555": {
    "postcode": "4968555",
    "prefecture": "愛知県",
    "prefecture_kana": "アイチケン",
    "prefecture_code": 23,
    "city": "愛西市",
    "city_kana": "アイサイシ",
    "town": "稲葉町米野",
    "town_kana": null,
    "street": "３０８",
    "office_name": "愛西市役所",
    "office_name_kana": "アイサイシヤクシヨ"
  },
  "8558": {
    "postcode": "4968558",
    "prefecture": "愛知県",
    "prefecture_kana": "アイチケン",
    "prefecture_code": 23,
    "city": "津島市",
    "city_kana": "ツシマシ",
    "town": "立込町",
    "town_kana": "タテコミチョウ",
    "street": "４丁目１４４",
    "office_name": "津島商工会議所",
    "office_name_kana": "ツシマシヨウコウカイギシヨ"
  },
  "8575": {
    "postcode": "4968575",
    "prefecture": "愛知県",
    "prefecture_kana": "アイチケン",
    "prefecture_code": 23,
    "city": "津島市",
    "city_kana": "ツシマシ",
    "town": "神守町",
    "town_kana": "カモリチョウ",
    "street": "八反田６５−１",
    "office_name": "（株）　中日総合サービス　津島営業所",
    "office_name_kana": "(カブ) チユウニチソウゴウサ-ビス ツシマエイギヨウシヨ"
  },
  "8585": {
    "postcode": "4968585",
    "prefecture": "愛知県",
    "prefecture_kana": "アイチケン",
    "prefecture_code": 23,
    "city": "愛西市",
    "city_kana": "アイサイシ",
    "town": "勝幡町",
    "town_kana": "ショバタチョウ",
    "street": "五俵入２２６７−１",
    "office_name": "株式会社　ユーストア",
    "office_name_kana": "カブシキガイシヤ ユ-ストア"
  },
  "8601": {
    "postcode": "4968601",
    "prefecture": "愛知県",
    "prefecture_kana": "アイチケン",
    "prefecture_code": 23,
    "city": "愛西市",
    "city_kana": "アイサイシ",
    "town": "諏訪町池埋",
    "town_kana": null,
    "street": "５００番地の１",
    "office_name": "愛西市役所　佐織庁舎",
    "office_name_kana": "アイサイシヤクシヨ サオリチヨウシヤ"
  },
  "8633": {
    "postcode": "4968633",
    "prefecture": "愛知県",
    "prefecture_kana": "アイチケン",
    "prefecture_code": 23,
    "city": "愛西市",
    "city_kana": "アイサイシ",
    "town": "石田町宮東",
    "town_kana": null,
    "street": "６８番地",
    "office_name": "愛西市役所　立田庁舎",
    "office_name_kana": "アイサイシヤクシヨ タツタチヨウシヤ"
  },
  "8639": {
    "postcode": "4968639",
    "prefecture": "愛知県",
    "prefecture_kana": "アイチケン",
    "prefecture_code": 23,
    "city": "愛西市",
    "city_kana": "アイサイシ",
    "town": "江西町大繩場",
    "town_kana": null,
    "street": "１５１番地１",
    "office_name": "愛西市役所　八開庁舎",
    "office_name_kana": "アイサイシヤクシヨ ハチカイチヨウシヤ"
  },
  "8648": {
    "postcode": "4968648",
    "prefecture": "愛知県",
    "prefecture_kana": "アイチケン",
    "prefecture_code": 23,
    "city": "愛西市",
    "city_kana": "アイサイシ",
    "town": "江西町",
    "town_kana": "エニシチョウ",
    "street": "川原８",
    "office_name": "海部農協　八開支店",
    "office_name_kana": "アマノウキヨウ ハチカイシテン"
  },
  "8686": {
    "postcode": "4968686",
    "prefecture": "愛知県",
    "prefecture_kana": "アイチケン",
    "prefecture_code": 23,
    "city": "津島市",
    "city_kana": "ツシマシ",
    "town": "立込町",
    "town_kana": "タテコミチョウ",
    "street": "２丁目２１番地",
    "office_name": "津島市役所",
    "office_name_kana": "ツシマシヤクシヨ"
  },
  "8720": {
    "postcode": "4968720",
    "prefecture": "愛知県",
    "prefecture_kana": "アイチケン",
    "prefecture_code": 23,
    "city": "津島市",
    "city_kana": "ツシマシ",
    "town": "良王町",
    "town_kana": "リョウオウチョウ",
    "street": "２丁目３１−１（津島郵便局私書箱第１１号）",
    "office_name": "津島税務署",
    "office_name_kana": "ツシマゼイムシヨ"
  }
}