{
  "0000": {
    "postcode": "5000000",
    "prefecture": "岐阜県",
    "prefecture_kana": "ギフケン",
    "prefecture_code": 21,
    "city": "岐阜市",
    "city_kana": "ギフシ",
    "town": "",
    "town_kana": "",
    "street": null,
    "office_name": null,
    "office_name_kana": null
  },
  "8001": {
    "postcode": "5008001",
    "prefecture": "岐阜県",
    "prefecture_kana": "ギフケン",
    "prefecture_code": 21,
    "city": "岐阜市",
    "city_kana": "ギフシ",
    "town": "鏡岩",
    "town_kana": "カガミイワ",
    "street": null,
    "office_name": null,
    "office_name_kana": null
  },
  "8002": {
    "postcode": "5008002",
    "prefecture": "岐阜県",
    "prefecture_kana": "ギフケン",
    "prefecture_code": 21,
    "city": "岐阜市",
    "city_kana": "ギフシ",
    "town": "御手洗",
    "town_kana": "ミタラシ",
    "street": null,
    "office_name": null,
    "office_name_kana": null
  },
  "8003": {
    "postcode": "5008003",
    "prefecture": "岐阜県",
    "prefecture_kana": "ギフケン",
    "prefecture_code": 21,
    "city": "岐阜市",
    "city_kana": "ギフシ",
    "town": "大宮町",
    "town_kana": "オオミヤチョウ",
    "street": null,
    "office_name": null,
    "office_name_kana": null
  },
  "8004": {
    "postcode": "5008004",
    "prefecture": "岐阜県",
    "prefecture_kana": "ギフケン",
    "prefecture_code": 21,
    "city": "岐阜市",
    "city_kana": "ギフシ",
    "town": "千畳敷",
    "town_kana": "センジョウジキ",
    "street": null,
    "office_name": null,
    "office_name_kana": null
  },
  "8005": {
    "postcode": "5008005",
    "prefecture": "岐阜県",
    "prefecture_kana": "ギフケン",
    "prefecture_code": 21,
    "city": "岐阜市",
    "city_kana": "ギフシ",
    "town": "上材木町",
    "town_kana": "カミザイモクチョウ",
    "street": null,
    "office_name": null,
    "office_name_kana": null
  },
  "8006": {
    "postcode": "5008006",
    "prefecture": "岐阜県",
    "prefecture_kana": "ギフケン",
    "prefecture_code": 21,
    "city": "岐阜市",
    "city_kana": "ギフシ",
    "town": "堤外",
    "town_kana": "テイガイ",
    "street": null,
    "office_name": null,
    "office_name_kana": null
  },
  "8007": {
    "postcode": "5008007",
    "prefecture": "岐阜県",
    "prefecture_kana": "ギフケン",
    "prefecture_code": 21,
    "city": "岐阜市",
    "city_kana": "ギフシ",
    "town": "元浜町",
    "town_kana": "モトハマチョウ",
    "street": null,
    "office_name": null,
    "office_name_kana": null
  },
  "8008": {
    "postcode": "5008008",
    "prefecture": "岐阜県",
    "prefecture_kana": "ギフケン",
    "prefecture_code": 21,
    "city": "岐阜市",
    "city_kana": "ギフシ",
    "town": "玉井町",
    "town_kana": "タマイチョウ",
    "street": null,
    "office_name": null,
    "office_name_kana": null
  },
  "8009": {
    "postcode": "5008009",
    "prefecture": "岐阜県",
    "prefecture_kana": "ギフケン",
    "prefecture_code": 21,
    "city": "岐阜市",
    "city_kana": "ギフシ",
    "town": "湊町",
    "town_kana": "ミナトマチ",
    "street": null,
    "office_name": null,
    "office_name_kana": null
  },
  "8011": {
    "postcode": "5008011",
    "prefecture": "岐阜県",
    "prefecture_kana": "ギフケン",
    "prefecture_code": 21,
    "city": "岐阜市",
    "city_kana": "ギフシ",
    "town": "木挽町",
    "town_kana": "コビキチョウ",
    "street": null,
    "office_name": null,
    "office_name_kana": null
  },
  "8012": {
    "postcode": "5008012",
    "prefecture": "岐阜県",
    "prefecture_kana": "ギフケン",
    "prefecture_code": 21,
    "city": "岐阜市",
    "city_kana": "ギフシ",
    "town": "山口町",
    "town_kana": "ヤマグチチョウ",
    "street": null,
    "office_name": null,
    "office_name_kana": null
  },
  "8013": {
    "postcode": "5008013",
    "prefecture": "岐阜県",
    "prefecture_kana": "ギフケン",
    "prefecture_code": 21,
    "city": "岐阜市",
    "city_kana": "ギフシ",
    "town": "松下町",
    "town_kana": "マツシタチョウ",
    "street": null,
    "office_name": null,
    "office_name_kana": null
  },
  "8014": {
    "postcode": "5008014",
    "prefecture": "岐阜県",
    "prefecture_kana": "ギフケン",
    "prefecture_code": 21,
    "city": "岐阜市",
    "city_kana": "ギフシ",
    "town": "夕陽ケ丘",
    "town_kana": "ユウヒガオカ",
    "street": null,
    "office_name": null,
    "office_name_kana": null
  },
  "8015": {
    "postcode": "5008015",
    "prefecture": "岐阜県",
    "prefecture_kana": "ギフケン",
    "prefecture_code": 21,
    "city": "岐阜市",
    "city_kana": "ギフシ",
    "town": "松山町",
    "town_kana": "マツヤマチョウ",
    "street": null,
    "office_name": null,
    "office_name_kana": null
  },
  "8016": {
    "postcode": "5008016",
    "prefecture": "岐阜県",
    "prefecture_kana": "ギフケン",
    "prefecture_code": 21,
    "city": "岐阜市",
    "city_kana": "ギフシ",
    "town": "松ケ枝町",
    "town_kana": "マツガエチョウ",
    "street": null,
    "office_name": null,
    "office_name_kana": null
  },
  "8017": {
    "postcode": "5008017",
    "prefecture": "岐阜県",
    "prefecture_kana": "ギフケン",
    "prefecture_code": 21,
    "city": "岐阜市",
    "city_kana": "ギフシ",
    "town": "梶川町",
    "town_kana": "カジカワチョウ",
    "street": null,
    "office_name": null,
    "office_name_kana": null
  },
  "8018": {
    "postcode": "5008018",
    "prefecture": "岐阜県",
    "prefecture_kana": "ギフケン",
    "prefecture_code": 21,
    "city": "岐阜市",
    "city_kana": "ギフシ",
    "town": "大仏町",
    "town_kana": "ダイブツチョウ",
    "street": null,
    "office_name": null,
    "office_name_kana": null
  },
  "8019": {
    "postcode": "5008019",
    "prefecture": "岐阜県",
    "prefecture_kana": "ギフケン",
    "prefecture_code": 21,
    "city": "岐阜市",
    "city_kana": "ギフシ",
    "town": "益屋町",
    "town_kana": "マスヤチョウ",
    "street": null,
    "office_name": null,
    "office_name_kana": null
  },
  "8021": {
    "postcode": "5008021",
    "prefecture": "岐阜県",
    "prefecture_kana": "ギフケン",
    "prefecture_code": 21,
    "city": "岐阜市",
    "city_kana": "ギフシ",
    "town": "上茶屋町",
    "town_kana": "カミチャヤマチ",
    "street": null,
    "office_name": null,
    "office_name_kana": null
  },
  "8022": {
    "postcode": "5008022",
    "prefecture": "岐阜県",
    "prefecture_kana": "ギフケン",
    "prefecture_code": 21,
    "city": "岐阜市",
    "city_kana": "ギフシ",
    "town": "下茶屋町",
    "town_kana": "シモチャヤマチ",
    "street": null,
    "office_name": null,
    "office_name_kana": null
  },
  "8023": {
    "postcode": "5008023",
    "prefecture": "岐阜県",
    "prefecture_kana": "ギフケン",
    "prefecture_code": 21,
    "city": "岐阜市",
    "city_kana": "ギフシ",
    "town": "今町",
    "town_kana": "イママチ",
    "street": null,
    "office_name": null,
    "office_name_kana": null
  },
  "8024": {
    "postcode": "5008024",
    "prefecture": "岐阜県",
    "prefecture_kana": "ギフケン",
    "prefecture_code": 21,
    "city": "岐阜市",
    "city_kana": "ギフシ",
    "town": "上新町",
    "town_kana": "カミシンマチ",
    "street": null,
    "office_name": null,
    "office_name_kana": null
  },
  "8025": {
    "postcode": "5008025",
    "prefecture": "岐阜県",
    "prefecture_kana": "ギフケン",
    "prefecture_code": 21,
    "city": "岐阜市",
    "city_kana": "ギフシ",
    "town": "久屋町",
    "town_kana": "ヒサヤチョウ",
    "street": null,
    "office_name": null,
    "office_name_kana": null
  },
  "8026": {
    "postcode": "5008026",
    "prefecture": "岐阜県",
    "prefecture_kana": "ギフケン",
    "prefecture_code": 21,
    "city": "岐阜市",
    "city_kana": "ギフシ",
    "town": "上大久和町",
    "town_kana": "カミオオクワチョウ",
    "street": null,
    "office_name": null,
    "office_name_kana": null
  },
  "8027": {
    "postcode": "5008027",
    "prefecture": "岐阜県",
    "prefecture_kana": "ギフケン",
    "prefecture_code": 21,
    "city": "岐阜市",
    "city_kana": "ギフシ",
    "town": "中大桑町",
    "town_kana": "ナカオオクワチョウ",
    "street": null,
    "office_name": null,
    "office_name_kana": null
  },
  "8028": {
    "postcode": "5008028",
    "prefecture": "岐阜県",
    "prefecture_kana": "ギフケン",
    "prefecture_code": 21,
    "city": "岐阜市",
    "city_kana": "ギフシ",
    "town": "西材木町",
    "town_kana": "ニシザイモクチョウ",
    "street": null,
    "office_name": null,
    "office_name_kana": null
  },
  "8029": {
    "postcode": "5008029",
    "prefecture": "岐阜県",
    "prefecture_kana": "ギフケン",
    "prefecture_code": 21,
    "city": "岐阜市",
    "city_kana": "ギフシ",
    "town": "東材木町",
    "town_kana": "ヒガシザイモクチョウ",
    "street": null,
    "office_name": null,
    "office_name_kana": null
  },
  "8031": {
    "postcode": "5008031",
    "prefecture": "岐阜県",
    "prefecture_kana": "ギフケン",
    "prefecture_code": 21,
    "city": "岐阜市",
    "city_kana": "ギフシ",
    "town": "蜂屋町",
    "town_kana": "ハチヤチョウ",
    "street": null,
    "office_name": null,
    "office_name_kana": null
  },
  "8032": {
    "postcode": "5008032",
    "prefecture": "岐阜県",
    "prefecture_kana": "ギフケン",
    "prefecture_code": 21,
    "city": "岐阜市",
    "city_kana": "ギフシ",
    "town": "中新町",
    "town_kana": "ナカシンマチ",
    "street": null,
    "office_name": null,
    "office_name_kana": null
  },
  "8033": {
    "postcode": "5008033",
    "prefecture": "岐阜県",
    "prefecture_kana": "ギフケン",
    "prefecture_code": 21,
    "city": "岐阜市",
    "city_kana": "ギフシ",
    "town": "魚屋町",
    "town_kana": "ウオヤチョウ",
    "street": null,
    "office_name": null,
    "office_name_kana": null
  },
  "8034": {
    "postcode": "5008034",
    "prefecture": "岐阜県",
    "prefecture_kana": "ギフケン",
    "prefecture_code": 21,
    "city": "岐阜市",
    "city_kana": "ギフシ",
    "town": "本町",
    "town_kana": "ホンマチ",
    "street": null,
    "office_name": null,
    "office_name_kana": null
  },
  "8035": {
    "postcode": "5008035",
    "prefecture": "岐阜県",
    "prefecture_kana": "ギフケン",
    "prefecture_code": 21,
    "city": "岐阜市",
    "city_kana": "ギフシ",
    "town": "布屋町",
    "town_kana": "ヌノヤチョウ",
    "street": null,
    "office_name": null,
    "office_name_kana": null
  },
  "8036": {
    "postcode": "5008036",
    "prefecture": "岐阜県",
    "prefecture_kana": "ギフケン",
    "prefecture_code": 21,
    "city": "岐阜市",
    "city_kana": "ギフシ",
    "town": "甚衛町",
    "town_kana": "ジンエイチョウ",
    "street": null,
    "office_name": null,
    "office_name_kana": null
  },
  "8037": {
    "postcode": "5008037",
    "prefecture": "岐阜県",
    "prefecture_kana": "ギフケン",
    "prefecture_code": 21,
    "city": "岐阜市",
    "city_kana": "ギフシ",
    "town": "下新町",
    "town_kana": "シモシンマチ",
    "street": null,
    "office_name": null,
    "office_name_kana": null
  },
  "8038": {
    "postcode": "5008038",
    "prefecture": "岐阜県",
    "prefecture_kana": "ギフケン",
    "prefecture_code": 21,
    "city": "岐阜市",
    "city_kana": "ギフシ",
    "town": "大工町",
    "town_kana": "ダイクチョウ",
    "street": null,
    "office_name": null,
    "office_name_kana": null
  },
  "8039": {
    "postcode": "5008039",
    "prefecture": "岐阜県",
    "prefecture_kana": "ギフケン",
    "prefecture_code": 21,
    "city": "岐阜市",
    "city_kana": "ギフシ",
    "town": "下大桑町",
    "town_kana": "シモオオクワチョウ",
    "street": null,
    "office_name": null,
    "office_name_kana": null
  },
  "8041": {
    "postcode": "5008041",
    "prefecture": "岐阜県",
    "prefecture_kana": "ギフケン",
    "prefecture_code": 21,
    "city": "岐阜市",
    "city_kana": "ギフシ",
    "town": "靱屋町",
    "town_kana": "ウツボヤチョウ",
    "street": null,
    "office_name": null,
    "office_name_kana": null
  },
  "8042": {
    "postcode": "5008042",
    "prefecture": "岐阜県",
    "prefecture_kana": "ギフケン",
    "prefecture_code": 21,
    "city": "岐阜市",
    "city_kana": "ギフシ",
    "town": "末広町",
    "town_kana": "スエヒロチョウ",
    "street": null,
    "office_name": null,
    "office_name_kana": null
  },
  "8043": {
    "postcode": "5008043",
    "prefecture": "岐阜県",
    "prefecture_kana": "ギフケン",
    "prefecture_code": 21,
    "city": "岐阜市",
    "city_kana": "ギフシ",
    "town": "伊奈波通",
    "town_kana": "イナバドオリ",
    "street": null,
    "office_name": null,
    "office_name_kana": null
  },
  "8044": {
    "postcode": "5008044",
    "prefecture": "岐阜県",
    "prefecture_kana": "ギフケン",
    "prefecture_code": 21,
    "city": "岐阜市",
    "city_kana": "ギフシ",
    "town": "万力町",
    "town_kana": "マンリキチョウ",
    "street": null,
    "office_name": null,
    "office_name_kana": null
  },
  "8045": {
    "postcode": "5008045",
    "prefecture": "岐阜県",
    "prefecture_kana": "ギフケン",
    "prefecture_code": 21,
    "city": "岐阜市",
    "city_kana": "ギフシ",
    "town": "新桜町",
    "town_kana": "シンサクラマチ",
    "street": null,
    "office_name": null,
    "office_name_kana": null
  },
  "8046": {
    "postcode": "5008046",
    "prefecture": "岐阜県",
    "prefecture_kana": "ギフケン",
    "prefecture_code": 21,
    "city": "岐阜市",
    "city_kana": "ギフシ",
    "town": "米屋町",
    "town_kana": "コメヤチョウ",
    "street": null,
    "office_name": null,
    "office_name_kana": null
  },
  "8047": {
    "postcode": "5008047",
    "prefecture": "岐阜県",
    "prefecture_kana": "ギフケン",
    "prefecture_code": 21,
    "city": "岐阜市",
    "city_kana": "ギフシ",
    "town": "中竹屋町",
    "town_kana": "ナカタケヤチョウ",
    "street": null,
    "office_name": null,
    "office_name_kana": null
  },
  "8048": {
    "postcode": "5008048",
    "prefecture": "岐阜県",
    "prefecture_kana": "ギフケン",
    "prefecture_code": 21,
    "city": "岐阜市",
    "city_kana": "ギフシ",
    "town": "大和町",
    "town_kana": "ヤマトマチ",
    "street": null,
    "office_name": null,
    "office_name_kana": null
  },
  "8049": {
    "postcode": "5008049",
    "prefecture": "岐阜県",
    "prefecture_kana": "ギフケン",
    "prefecture_code": 21,
    "city": "岐阜市",
    "city_kana": "ギフシ",
    "town": "上竹屋町",
    "town_kana": "カミタケヤチョウ",
    "street": null,
    "office_name": null,
    "office_name_kana": null
  },
  "8051": {
    "postcode": "5008051",
    "prefecture": "岐阜県",
    "prefecture_kana": "ギフケン",
    "prefecture_code": 21,
    "city": "岐阜市",
    "city_kana": "ギフシ",
    "town": "駿河山",
    "town_kana": "スルガヤマ",
    "street": null,
    "office_name": null,
    "office_name_kana": null
  },
  "8052": {
    "postcode": "5008052",
    "prefecture": "岐阜県",
    "prefecture_kana": "ギフケン",
    "prefecture_code": 21,
    "city": "岐阜市",
    "city_kana": "ギフシ",
    "town": "鶯谷",
    "town_kana": "ウグイスダニ",
    "street": null,
    "office_name": null,
    "office_name_kana": null
  },
  "8053": {
    "postcode": "5008053",
    "prefecture": "岐阜県",
    "prefecture_kana": "ギフケン",
    "prefecture_code": 21,
    "city": "岐阜市",
    "city_kana": "ギフシ",
    "town": "鶯谷町",
    "town_kana": "ウグイスダニチョウ",
    "street": null,
    "office_name": null,
    "office_name_kana": null
  },
  "8054": {
    "postcode": "5008054",
    "prefecture": "岐阜県",
    "prefecture_kana": "ギフケン",
    "prefecture_code": 21,
    "city": "岐阜市",
    "city_kana": "ギフシ",
    "town": "大門町",
    "town_kana": "ダイモンチョウ",
    "street": null,
    "office_name": null,
    "office_name_kana": null
  },
  "8055": {
    "postcode": "5008055",
    "prefecture": "岐阜県",
    "prefecture_kana": "ギフケン",
    "prefecture_code": 21,
    "city": "岐阜市",
    "city_kana": "ギフシ",
    "town": "笹土居町",
    "town_kana": "ササドイチョウ",
    "street": null,
    "office_name": null,
    "office_name_kana": null
  },
  "8056": {
    "postcode": "5008056",
    "prefecture": "岐阜県",
    "prefecture_kana": "ギフケン",
    "prefecture_code": 21,
    "city": "岐阜市",
    "city_kana": "ギフシ",
    "town": "下竹町",
    "town_kana": "シモタケチョウ",
    "street": null,
    "office_name": null,
    "office_name_kana": null
  },
  "8057": {
    "postcode": "5008057",
    "prefecture": "岐阜県",
    "prefecture_kana": "ギフケン",
    "prefecture_code": 21,
    "city": "岐阜市",
    "city_kana": "ギフシ",
    "town": "上竹町",
    "town_kana": "カミタケチョウ",
    "street": null,
    "office_name": null,
    "office_name_kana": null
  },
  "8058": {
    "postcode": "5008058",
    "prefecture": "岐阜県",
    "prefecture_kana": "ギフケン",
    "prefecture_code": 21,
    "city": "岐阜市",
    "city_kana": "ギフシ",
    "town": "常盤町",
    "town_kana": "トキワチョウ",
    "street": null,
    "office_name": null,
    "office_name_kana": null
  },
  "8059": {
    "postcode": "5008059",
    "prefecture": "岐阜県",
    "prefecture_kana": "ギフケン",
    "prefecture_code": 21,
    "city": "岐阜市",
    "city_kana": "ギフシ",
    "town": "栄扇町",
    "town_kana": "エイセンチョウ",
    "street": null,
    "office_name": null,
    "office_name_kana": null
  },
  "8061": {
    "postcode": "5008061",
    "prefecture": "岐阜県",
    "prefecture_kana": "ギフケン",
    "prefecture_code": 21,
    "city": "岐阜市",
    "city_kana": "ギフシ",
    "town": "小熊町",
    "town_kana": "オグマチョウ",
    "street": null,
    "office_name": null,
    "office_name_kana": null
  },
  "8062": {
    "postcode": "5008062",
    "prefecture": "岐阜県",
    "prefecture_kana": "ギフケン",
    "prefecture_code": 21,
    "city": "岐阜市",
    "city_kana": "ギフシ",
    "town": "初音町",
    "town_kana": "ハツネチョウ",
    "street": null,
    "office_name": null,
    "office_name_kana": null
  },
  "8063": {
    "postcode": "5008063",
    "prefecture": "岐阜県",
    "prefecture_kana": "ギフケン",
    "prefecture_code": 21,
    "city": "岐阜市",
    "city_kana": "ギフシ",
    "town": "金屋横町",
    "town_kana": "カナヤヨコチョウ",
    "street": null,
    "office_name": null,
    "office_name_kana": null
  },
  "8064": {
    "postcode": "5008064",
    "prefecture": "岐阜県",
    "prefecture_kana": "ギフケン",
    "prefecture_code": 21,
    "city": "岐阜市",
    "city_kana": "ギフシ",
    "town": "柳沢町",
    "town_kana": "ヤナザワチョウ",
    "street": null,
    "office_name": null,
    "office_name_kana": null
  },
  "8065": {
    "postcode": "5008065",
    "prefecture": "岐阜県",
    "prefecture_kana": "ギフケン",
    "prefecture_code": 21,
    "city": "岐阜市",
    "city_kana": "ギフシ",
    "town": "金屋町",
    "town_kana": "カナヤチョウ",
    "street": null,
    "office_name": null,
    "office_name_kana": null
  },
  "8066": {
    "postcode": "5008066",
    "prefecture": "岐阜県",
    "prefecture_kana": "ギフケン",
    "prefecture_code": 21,
    "city": "岐阜市",
    "city_kana": "ギフシ",
    "town": "下太田町",
    "town_kana": "シモオオタマチ",
    "street": null,
    "office_name": null,
    "office_name_kana": null
  },
  "8067": {
    "postcode": "5008067",
    "prefecture": "岐阜県",
    "prefecture_kana": "ギフケン",
    "prefecture_code": 21,
    "city": "岐阜市",
    "city_kana": "ギフシ",
    "town": "秋津町",
    "town_kana": "アキツマチ",
    "street": null,
    "office_name": null,
    "office_name_kana": null
  },
  "8068": {
    "postcode": "5008068",
    "prefecture": "岐阜県",
    "prefecture_kana": "ギフケン",
    "prefecture_code": 21,
    "city": "岐阜市",
    "city_kana": "ギフシ",
    "town": "上太田町",
    "town_kana": "カミオオタマチ",
    "street": null,
    "office_name": null,
    "office_name_kana": null
  },
  "8069": {
    "postcode": "5008069",
    "prefecture": "岐阜県",
    "prefecture_kana": "ギフケン",
    "prefecture_code": 21,
    "city": "岐阜市",
    "city_kana": "ギフシ",
    "town": "今小町",
    "town_kana": "イマコマチ",
    "street": null,
    "office_name": null,
    "office_name_kana": null
  },
  "8071": {
    "postcode": "5008071",
    "prefecture": "岐阜県",
    "prefecture_kana": "ギフケン",
    "prefecture_code": 21,
    "city": "岐阜市",
    "city_kana": "ギフシ",
    "town": "柳町",
    "town_kana": "ヤナギマチ",
    "street": null,
    "office_name": null,
    "office_name_kana": null
  },
  "8072": {
    "postcode": "5008072",
    "prefecture": "岐阜県",
    "prefecture_kana": "ギフケン",
    "prefecture_code": 21,
    "city": "岐阜市",
    "city_kana": "ギフシ",
    "town": "緑町",
    "town_kana": "ミドリマチ",
    "street": null,
    "office_name": null,
    "office_name_kana": null
  },
  "8073": {
    "postcode": "5008073",
    "prefecture": "岐阜県",
    "prefecture_kana": "ギフケン",
    "prefecture_code": 21,
    "city": "岐阜市",
    "city_kana": "ギフシ",
    "town": "泉町",
    "town_kana": "イズミマチ",
    "street": null,
    "office_name": null,
    "office_name_kana": null
  },
  "8074": {
    "postcode": "5008074",
    "prefecture": "岐阜県",
    "prefecture_kana": "ギフケン",
    "prefecture_code": 21,
    "city": "岐阜市",
    "city_kana": "ギフシ",
    "town": "七軒町",
    "town_kana": "ヒチケンチョウ",
    "street": null,
    "office_name": null,
    "office_name_kana": null
  },
  "8075": {
    "postcode": "5008075",
    "prefecture": "岐阜県",
    "prefecture_kana": "ギフケン",
    "prefecture_code": 21,
    "city": "岐阜市",
    "city_kana": "ギフシ",
    "town": "室町",
    "town_kana": "ムロマチ",
    "street": null,
    "office_name": null,
    "office_name_kana": null
  },
  "8076": {
    "postcode": "5008076",
    "prefecture": "岐阜県",
    "prefecture_kana": "ギフケン",
    "prefecture_code": 21,
    "city": "岐阜市",
    "city_kana": "ギフシ",
    "town": "司町",
    "town_kana": "ツカサマチ",
    "street": null,
    "office_name": null,
    "office_name_kana": null
  },
  "8077": {
    "postcode": "5008077",
    "prefecture": "岐阜県",
    "prefecture_kana": "ギフケン",
    "prefecture_code": 21,
    "city": "岐阜市",
    "city_kana": "ギフシ",
    "town": "伊吹町",
    "town_kana": "イブキチョウ",
    "street": null,
    "office_name": null,
    "office_name_kana": null
  },
  "8078": {
    "postcode": "5008078",
    "prefecture": "岐阜県",
    "prefecture_kana": "ギフケン",
    "prefecture_code": 21,
    "city": "岐阜市",
    "city_kana": "ギフシ",
    "town": "柳生町",
    "town_kana": "ヤギュウチョウ",
    "street": null,
    "office_name": null,
    "office_name_kana": null
  },
  "8079": {
    "postcode": "5008079",
    "prefecture": "岐阜県",
    "prefecture_kana": "ギフケン",
    "prefecture_code": 21,
    "city": "岐阜市",
    "city_kana": "ギフシ",
    "town": "御杉町",
    "town_kana": "オスギチョウ",
    "street": null,
    "office_name": null,
    "office_name_kana": null
  },
  "8081": {
    "postcode": "5008081",
    "prefecture": "岐阜県",
    "prefecture_kana": "ギフケン",
    "prefecture_code": 21,
    "city": "岐阜市",
    "city_kana": "ギフシ",
    "town": "啓運町",
    "town_kana": "ケイウンチョウ",
    "street": null,
    "office_name": null,
    "office_name_kana": null
  },
  "8082": {
    "postcode": "5008082",
    "prefecture": "岐阜県",
    "prefecture_kana": "ギフケン",
    "prefecture_code": 21,
    "city": "岐阜市",
    "city_kana": "ギフシ",
    "town": "矢島町",
    "town_kana": "ヤジマチョウ",
    "street": null,
    "office_name": null,
    "office_name_kana": null
  },
  "8083": {
    "postcode": "5008083",
    "prefecture": "岐阜県",
    "prefecture_kana": "ギフケン",
    "prefecture_code": 21,
    "city": "岐阜市",
    "city_kana": "ギフシ",
    "town": "間之町",
    "town_kana": "アイノマチ",
    "street": null,
    "office_name": null,
    "office_name_kana": null
  },
  "8084": {
    "postcode": "5008084",
    "prefecture": "岐阜県",
    "prefecture_kana": "ギフケン",
    "prefecture_code": 21,
    "city": "岐阜市",
    "city_kana": "ギフシ",
    "town": "松屋町",
    "town_kana": "マツヤチョウ",
    "street": null,
    "office_name": null,
    "office_name_kana": null
  },
  "8085": {
    "postcode": "5008085",
    "prefecture": "岐阜県",
    "prefecture_kana": "ギフケン",
    "prefecture_code": 21,
    "city": "岐阜市",
    "city_kana": "ギフシ",
    "town": "白木町",
    "town_kana": "シラキチョウ",
    "street": null,
    "office_name": null,
    "office_name_kana": null
  },
  "8086": {
    "postcode": "5008086",
    "prefecture": "岐阜県",
    "prefecture_kana": "ギフケン",
    "prefecture_code": 21,
    "city": "岐阜市",
    "city_kana": "ギフシ",
    "town": "木造町",
    "town_kana": "キヅクリチョウ",
    "street": null,
    "office_name": null,
    "office_name_kana": null
  },
  "8087": {
    "postcode": "5008087",
    "prefecture": "岐阜県",
    "prefecture_kana": "ギフケン",
    "prefecture_code": 21,
    "city": "岐阜市",
    "city_kana": "ギフシ",
    "town": "堀江町",
    "town_kana": "ホリエチョウ",
    "street": null,
    "office_name": null,
    "office_name_kana": null
  },
  "8088": {
    "postcode": "5008088",
    "prefecture": "岐阜県",
    "prefecture_kana": "ギフケン",
    "prefecture_code": 21,
    "city": "岐阜市",
    "city_kana": "ギフシ",
    "town": "四屋町",
    "town_kana": "ヨツヤチョウ",
    "street": null,
    "office_name": null,
    "office_name_kana": null
  },
  "8089": {
    "postcode": "5008089",
    "prefecture": "岐阜県",
    "prefecture_kana": "ギフケン",
    "prefecture_code": 21,
    "city": "岐阜市",
    "city_kana": "ギフシ",
    "town": "若松町",
    "town_kana": "ワカマツチョウ",
    "street": null,
    "office_name": null,
    "office_name_kana": null
  },
  "8101": {
    "postcode": "5008101",
    "prefecture": "岐阜県",
    "prefecture_kana": "ギフケン",
    "prefecture_code": 21,
    "city": "岐阜市",
    "city_kana": "ギフシ",
    "town": "多賀町",
    "town_kana": "タガマチ",
    "street": null,
    "office_name": null,
    "office_name_kana": null
  },
  "8102": {
    "postcode": "5008102",
    "prefecture": "岐阜県",
    "prefecture_kana": "ギフケン",
    "prefecture_code": 21,
    "city": "岐阜市",
    "city_kana": "ギフシ",
    "town": "粕森町",
    "town_kana": "カシモリチョウ",
    "street": null,
    "office_name": null,
    "office_name_kana": null
  },
  "8103": {
    "postcode": "5008103",
    "prefecture": "岐阜県",
    "prefecture_kana": "ギフケン",
    "prefecture_code": 21,
    "city": "岐阜市",
    "city_kana": "ギフシ",
    "town": "藍川町",
    "town_kana": "アイカワチョウ",
    "street": null,
    "office_name": null,
    "office_name_kana": null
  },
  "8104": {
    "postcode": "5008104",
    "prefecture": "岐阜県",
    "prefecture_kana": "ギフケン",
    "prefecture_code": 21,
    "city": "岐阜市",
    "city_kana": "ギフシ",
    "town": "美園町",
    "town_kana": "ミソノチョウ",
    "street": null,
    "office_name": null,
    "office_name_kana": null
  },
  "8105": {
    "postcode": "5008105",
    "prefecture": "岐阜県",
    "prefecture_kana": "ギフケン",
    "prefecture_code": 21,
    "city": "岐阜市",
    "city_kana": "ギフシ",
    "town": "西園町",
    "town_kana": "ニシゾノチョウ",
    "street": null,
    "office_name": null,
    "office_name_kana": null
  },
  "8106": {
    "postcode": "5008106",
    "prefecture": "岐阜県",
    "prefecture_kana": "ギフケン",
    "prefecture_code": 21,
    "city": "岐阜市",
    "city_kana": "ギフシ",
    "town": "東高岩町",
    "town_kana": "ヒガシコウガンチョウ",
    "street": null,
    "office_name": null,
    "office_name_kana": null
  },
  "8107": {
    "postcode": "5008107",
    "prefecture": "岐阜県",
    "prefecture_kana": "ギフケン",
    "prefecture_code": 21,
    "city": "岐阜市",
    "city_kana": "ギフシ",
    "town": "高岩町",
    "town_kana": "コウガンチョウ",
    "street": null,
    "office_name": null,
    "office_name_kana": null
  },
  "8108": {
    "postcode": "5008108",
    "prefecture": "岐阜県",
    "prefecture_kana": "ギフケン",
    "prefecture_code": 21,
    "city": "岐阜市",
    "city_kana": "ギフシ",
    "town": "川端町",
    "town_kana": "カワバタチョウ",
    "street": null,
    "office_name": null,
    "office_name_kana": null
  },
  "8109": {
    "postcode": "5008109",
    "prefecture": "岐阜県",
    "prefecture_kana": "ギフケン",
    "prefecture_code": 21,
    "city": "岐阜市",
    "city_kana": "ギフシ",
    "town": "朝日町",
    "town_kana": "アサヒマチ",
    "street": null,
    "office_name": null,
    "office_name_kana": null
  },
  "8111": {
    "postcode": "5008111",
    "prefecture": "岐阜県",
    "prefecture_kana": "ギフケン",
    "prefecture_code": 21,
    "city": "岐阜市",
    "city_kana": "ギフシ",
    "town": "梅林",
    "town_kana": "バイリン",
    "street": null,
    "office_name": null,
    "office_name_kana": null
  },
  "8112": {
    "postcode": "5008112",
    "prefecture": "岐阜県",
    "prefecture_kana": "ギフケン",
    "prefecture_code": 21,
    "city": "岐阜市",
    "city_kana": "ギフシ",
    "town": "梅林南町",
    "town_kana": "バイリンミナミマチ",
    "street": null,
    "office_name": null,
    "office_name_kana": null
  },
  "8113": {
    "postcode": "5008113",
    "prefecture": "岐阜県",
    "prefecture_kana": "ギフケン",
    "prefecture_code": 21,
    "city": "岐阜市",
    "city_kana": "ギフシ",
    "town": "金園町",
    "town_kana": "カナゾノチョウ",
    "street": null,
    "office_name": null,
    "office_name_kana": null
  },
  "8114": {
    "postcode": "5008114",
    "prefecture": "岐阜県",
    "prefecture_kana": "ギフケン",
    "prefecture_code": 21,
    "city": "岐阜市",
    "city_kana": "ギフシ",
    "town": "金竜町",
    "town_kana": "キンリュウチョウ",
    "street": null,
    "office_name": null,
    "office_name_kana": null
  },
  "8115": {
    "postcode": "5008115",
    "prefecture": "岐阜県",
    "prefecture_kana": "ギフケン",
    "prefecture_code": 21,
    "city": "岐阜市",
    "city_kana": "ギフシ",
    "town": "田端町",
    "town_kana": "タバタチョウ",
    "street": null,
    "office_name": null,
    "office_name_kana": null
  },
  "8116": {
    "postcode": "5008116",
    "prefecture": "岐阜県",
    "prefecture_kana": "ギフケン",
    "prefecture_code": 21,
    "city": "岐阜市",
    "city_kana": "ギフシ",
    "town": "殿町",
    "town_kana": "トノマチ",
    "street": null,
    "office_name": null,
    "office_name_kana": null
  },
  "8117": {
    "postcode": "5008117",
    "prefecture": "岐阜県",
    "prefecture_kana": "ギフケン",
    "prefecture_code": 21,
    "city": "岐阜市",
    "city_kana": "ギフシ",
    "town": "南殿町",
    "town_kana": "ミナミトノマチ",
    "street": null,
    "office_name": null,
    "office_name_kana": null
  },
  "8118": {
    "postcode": "5008118",
    "prefecture": "岐阜県",
    "prefecture_kana": "ギフケン",
    "prefecture_code": 21,
    "city": "岐阜市",
    "city_kana": "ギフシ",
    "town": "寺町",
    "town_kana": "テラマチ",
    "street": null,
    "office_name": null,
    "office_name_kana": null
  },
  "8119": {
    "postcode": "5008119",
    "prefecture": "岐阜県",
    "prefecture_kana": "ギフケン",
    "prefecture_code": 21,
    "city": "岐阜市",
    "city_kana": "ギフシ",
    "town": "梅林西町",
    "town_kana": "バイリンニシマチ",
    "street": null,
    "office_name": null,
    "office_name_kana": null
  },
  "8121": {
    "postcode": "5008121",
    "prefecture": "岐阜県",
    "prefecture_kana": "ギフケン",
    "prefecture_code": 21,
    "city": "岐阜市",
    "city_kana": "ギフシ",
    "town": "上加納山",
    "town_kana": "カミカノウヤマ",
    "street": null,
    "office_name": null,
    "office_name_kana": null
  },
  "8122": {
    "postcode": "5008122",
    "prefecture": "岐阜県",
    "prefecture_kana": "ギフケン",
    "prefecture_code": 21,
    "city": "岐阜市",
    "city_kana": "ギフシ",
    "town": "旭見ケ池町",
    "town_kana": "ヒミガイケチョウ",
    "street": null,
    "office_name": null,
    "office_name_kana": null
  },
  "8123": {
    "postcode": "5008123",
    "prefecture": "岐阜県",
    "prefecture_kana": "ギフケン",
    "prefecture_code": 21,
    "city": "岐阜市",
    "city_kana": "ギフシ",
    "town": "雲竜町",
    "town_kana": "ウンリュウチョウ",
    "street": null,
    "office_name": null,
    "office_name_kana": null
  },
  "8124": {
    "postcode": "5008124",
    "prefecture": "岐阜県",
    "prefecture_kana": "ギフケン",
    "prefecture_code": 21,
    "city": "岐阜市",
    "city_kana": "ギフシ",
    "town": "宝来町",
    "town_kana": "ホウライチョウ",
    "street": null,
    "office_name": null,
    "office_name_kana": null
  },
  "8125": {
    "postcode": "5008125",
    "prefecture": "岐阜県",
    "prefecture_kana": "ギフケン",
    "prefecture_code": 21,
    "city": "岐阜市",
    "city_kana": "ギフシ",
    "town": "城望町",
    "town_kana": "ジョウボウチョウ",
    "street": null,
    "office_name": null,
    "office_name_kana": null
  },
  "8126": {
    "postcode": "5008126",
    "prefecture": "岐阜県",
    "prefecture_kana": "ギフケン",
    "prefecture_code": 21,
    "city": "岐阜市",
    "city_kana": "ギフシ",
    "town": "隆城町",
    "town_kana": "リュウジョウチョウ",
    "street": null,
    "office_name": null,
    "office_name_kana": null
  },
  "8127": {
    "postcode": "5008127",
    "prefecture": "岐阜県",
    "prefecture_kana": "ギフケン",
    "prefecture_code": 21,
    "city": "岐阜市",
    "city_kana": "ギフシ",
    "town": "塩町",
    "town_kana": "シオマチ",
    "street": null,
    "office_name": null,
    "office_name_kana": null
  },
  "8128": {
    "postcode": "5008128",
    "prefecture": "岐阜県",
    "prefecture_kana": "ギフケン",
    "prefecture_code": 21,
    "city": "岐阜市",
    "city_kana": "ギフシ",
    "town": "花月町",
    "town_kana": "カゲツチョウ",
    "street": null,
    "office_name": null,
    "office_name_kana": null
  },
  "8129": {
    "postcode": "5008129",
    "prefecture": "岐阜県",
    "prefecture_kana": "ギフケン",
    "prefecture_code": 21,
    "city": "岐阜市",
    "city_kana": "ギフシ",
    "town": "鶴見町",
    "town_kana": "ツルミチョウ",
    "street": null,
    "office_name": null,
    "office_name_kana": null
  },
  "8131": {
    "postcode": "5008131",
    "prefecture": "岐阜県",
    "prefecture_kana": "ギフケン",
    "prefecture_code": 21,
    "city": "岐阜市",
    "city_kana": "ギフシ",
    "town": "月ノ会町",
    "town_kana": "ツキノエチョウ",
    "street": null,
    "office_name": null,
    "office_name_kana": null
  },
  "8132": {
    "postcode": "5008132",
    "prefecture": "岐阜県",
    "prefecture_kana": "ギフケン",
    "prefecture_code": 21,
    "city": "岐阜市",
    "city_kana": "ギフシ",
    "town": "尼ケ崎町",
    "town_kana": "アマガサキチョウ",
    "street": null,
    "office_name": null,
    "office_name_kana": null
  },
  "8133": {
    "postcode": "5008133",
    "prefecture": "岐阜県",
    "prefecture_kana": "ギフケン",
    "prefecture_code": 21,
    "city": "岐阜市",
    "city_kana": "ギフシ",
    "town": "永楽町",
    "town_kana": "エイラクチョウ",
    "street": null,
    "office_name": null,
    "office_name_kana": null
  },
  "8134": {
    "postcode": "5008134",
    "prefecture": "岐阜県",
    "prefecture_kana": "ギフケン",
    "prefecture_code": 21,
    "city": "岐阜市",
    "city_kana": "ギフシ",
    "town": "岩栄町",
    "town_kana": "イワエイチョウ",
    "street": null,
    "office_name": null,
    "office_name_kana": null
  },
  "8135": {
    "postcode": "5008135",
    "prefecture": "岐阜県",
    "prefecture_kana": "ギフケン",
    "prefecture_code": 21,
    "city": "岐阜市",
    "city_kana": "ギフシ",
    "town": "織田塚町",
    "town_kana": "オダヅカチョウ",
    "street": null,
    "office_name": null,
    "office_name_kana": null
  },
  "8136": {
    "postcode": "5008136",
    "prefecture": "岐阜県",
    "prefecture_kana": "ギフケン",
    "prefecture_code": 21,
    "city": "岐阜市",
    "city_kana": "ギフシ",
    "town": "雪見町",
    "town_kana": "ユキミチョウ",
    "street": null,
    "office_name": null,
    "office_name_kana": null
  },
  "8137": {
    "postcode": "5008137",
    "prefecture": "岐阜県",
    "prefecture_kana": "ギフケン",
    "prefecture_code": 21,
    "city": "岐阜市",
    "city_kana": "ギフシ",
    "town": "東興町",
    "town_kana": "トウコウチョウ",
    "street": null,
    "office_name": null,
    "office_name_kana": null
  },
  "8138": {
    "postcode": "5008138",
    "prefecture": "岐阜県",
    "prefecture_kana": "ギフケン",
    "prefecture_code": 21,
    "city": "岐阜市",
    "city_kana": "ギフシ",
    "town": "中道北",
    "town_kana": "ナカミチキタ",
    "street": null,
    "office_name": null,
    "office_name_kana": null
  },
  "8139": {
    "postcode": "5008139",
    "prefecture": "岐阜県",
    "prefecture_kana": "ギフケン",
    "prefecture_code": 21,
    "city": "岐阜市",
    "city_kana": "ギフシ",
    "town": "庵町",
    "town_kana": "イオリマチ",
    "street": null,
    "office_name": null,
    "office_name_kana": null
  },
  "8141": {
    "postcode": "5008141",
    "prefecture": "岐阜県",
    "prefecture_kana": "ギフケン",
    "prefecture_code": 21,
    "city": "岐阜市",
    "city_kana": "ギフシ",
    "town": "月丘町",
    "town_kana": "ツキオカチョウ",
    "street": null,
    "office_name": null,
    "office_name_kana": null
  },
  "8142": {
    "postcode": "5008142",
    "prefecture": "岐阜県",
    "prefecture_kana": "ギフケン",
    "prefecture_code": 21,
    "city": "岐阜市",
    "city_kana": "ギフシ",
    "town": "花沢町",
    "town_kana": "ハナザワチョウ",
    "street": null,
    "office_name": null,
    "office_name_kana": null
  },
  "8143": {
    "postcode": "5008143",
    "prefecture": "岐阜県",
    "prefecture_kana": "ギフケン",
    "prefecture_code": 21,
    "city": "岐阜市",
    "city_kana": "ギフシ",
    "town": "瑞雲町",
    "town_kana": "ズイウンチョウ",
    "street": null,
    "office_name": null,
    "office_name_kana": null
  },
  "8144": {
    "postcode": "5008144",
    "prefecture": "岐阜県",
    "prefecture_kana": "ギフケン",
    "prefecture_code": 21,
    "city": "岐阜市",
    "city_kana": "ギフシ",
    "town": "東栄町",
    "town_kana": "トウエイチョウ",
    "street": null,
    "office_name": null,
    "office_name_kana": null
  },
  "8145": {
    "postcode": "5008145",
    "prefecture": "岐阜県",
    "prefecture_kana": "ギフケン",
    "prefecture_code": 21,
    "city": "岐阜市",
    "city_kana": "ギフシ",
    "town": "雲井町",
    "town_kana": "クモイチョウ",
    "street": null,
    "office_name": null,
    "office_name_kana": null
  },
  "8146": {
    "postcode": "5008146",
    "prefecture": "岐阜県",
    "prefecture_kana": "ギフケン",
    "prefecture_code": 21,
    "city": "岐阜市",
    "city_kana": "ギフシ",
    "town": "九重町",
    "town_kana": "ココノエチョウ",
    "street": null,
    "office_name": null,
    "office_name_kana": null
  },
  "8147": {
    "postcode": "5008147",
    "prefecture": "岐阜県",
    "prefecture_kana": "ギフケン",
    "prefecture_code": 21,
    "city": "岐阜市",
    "city_kana": "ギフシ",
    "town": "三笠町",
    "town_kana": "ミカサチョウ",
    "street": null,
    "office_name": null,
    "office_name_kana": null
  },
  "8148": {
    "postcode": "5008148",
    "prefecture": "岐阜県",
    "prefecture_kana": "ギフケン",
    "prefecture_code": 21,
    "city": "岐阜市",
    "city_kana": "ギフシ",
    "town": "曙町",
    "town_kana": "アケボノチョウ",
    "street": null,
    "office_name": null,
    "office_name_kana": null
  },
  "8149": {
    "postcode": "5008149",
    "prefecture": "岐阜県",
    "prefecture_kana": "ギフケン",
    "prefecture_code": 21,
    "city": "岐阜市",
    "city_kana": "ギフシ",
    "town": "戎町",
    "town_kana": "エビスチョウ",
    "street": null,
    "office_name": null,
    "office_name_kana": null
  },
  "8151": {
    "postcode": "5008151",
    "prefecture": "岐阜県",
    "prefecture_kana": "ギフケン",
    "prefecture_code": 21,
    "city": "岐阜市",
    "city_kana": "ギフシ",
    "town": "大黒町",
    "town_kana": "ダイコクマチ",
    "street": null,
    "office_name": null,
    "office_name_kana": null
  },
  "8152": {
    "postcode": "5008152",
    "prefecture": "岐阜県",
    "prefecture_kana": "ギフケン",
    "prefecture_code": 21,
    "city": "岐阜市",
    "city_kana": "ギフシ",
    "town": "入舟町",
    "town_kana": "イリフネチョウ",
    "street": null,
    "office_name": null,
    "office_name_kana": null
  },
  "8153": {
    "postcode": "5008153",
    "prefecture": "岐阜県",
    "prefecture_kana": "ギフケン",
    "prefecture_code": 21,
    "city": "岐阜市",
    "city_kana": "ギフシ",
    "town": "石長町",
    "town_kana": "イシナガチョウ",
    "street": null,
    "office_name": null,
    "office_name_kana": null
  },
  "8154": {
    "postcode": "5008154",
    "prefecture": "岐阜県",
    "prefecture_kana": "ギフケン",
    "prefecture_code": 21,
    "city": "岐阜市",
    "city_kana": "ギフシ",
    "town": "木ノ下町",
    "town_kana": "キノシタチョウ",
    "street": null,
    "office_name": null,
    "office_name_kana": null
  },
  "8155": {
    "postcode": "5008155",
    "prefecture": "岐阜県",
    "prefecture_kana": "ギフケン",
    "prefecture_code": 21,
    "city": "岐阜市",
    "city_kana": "ギフシ",
    "town": "市ノ坪町",
    "town_kana": "イチノツボチョウ",
    "street": null,
    "office_name": null,
    "office_name_kana": null
  },
  "8156": {
    "postcode": "5008156",
    "prefecture": "岐阜県",
    "prefecture_kana": "ギフケン",
    "prefecture_code": 21,
    "city": "岐阜市",
    "city_kana": "ギフシ",
    "town": "祈年町",
    "town_kana": "キネンチョウ",
    "street": null,
    "office_name": null,
    "office_name_kana": null
  },
  "8157": [
    {
      "postcode": "5008157",
      "prefecture": "岐阜県",
      "prefecture_kana": "ギフケン",
      "prefecture_code": 21,
      "city": "岐阜市",
      "city_kana": "ギフシ",
      "town": "五坪",
      "town_kana": "ゴツボ",
      "street": null,
      "office_name": null,
      "office_name_kana": null
    },
    {
      "postcode": "5008157",
      "prefecture": "岐阜県",
      "prefecture_kana": "ギフケン",
      "prefecture_code": 21,
      "city": "岐阜市",
      "city_kana": "ギフシ",
      "town": "五坪町",
      "town_kana": "ゴツボチョウ",
      "street": null,
      "office_name": null,
      "office_name_kana": null
    }
  ],
  "8158": {
    "postcode": "5008158",
    "prefecture": "岐阜県",
    "prefecture_kana": "ギフケン",
    "prefecture_code": 21,
    "city": "岐阜市",
    "city_kana": "ギフシ",
    "town": "田神",
    "town_kana": "タガミ",
    "street": null,
    "office_name": null,
    "office_name_kana": null
  },
  "8159": {
    "postcode": "5008159",
    "prefecture": "岐阜県",
    "prefecture_kana": "ギフケン",
    "prefecture_code": 21,
    "city": "岐阜市",
    "city_kana": "ギフシ",
    "town": "田神町",
    "town_kana": "タガミチョウ",
    "street": null,
    "office_name": null,
    "office_name_kana": null
  },
  "8161": {
    "postcode": "5008161",
    "prefecture": "岐阜県",
    "prefecture_kana": "ギフケン",
    "prefecture_code": 21,
    "city": "岐阜市",
    "city_kana": "ギフシ",
    "town": "茨木町",
    "town_kana": "イバラギチョウ",
    "street": null,
    "office_name": null,
    "office_name_kana": null
  },
  "8162": {
    "postcode": "5008162",
    "prefecture": "岐阜県",
    "prefecture_kana": "ギフケン",
    "prefecture_code": 21,
    "city": "岐阜市",
    "city_kana": "ギフシ",
    "town": "高尾町",
    "town_kana": "タカオチョウ",
    "street": null,
    "office_name": null,
    "office_name_kana": null
  },
  "8163": {
    "postcode": "5008163",
    "prefecture": "岐阜県",
    "prefecture_kana": "ギフケン",
    "prefecture_code": 21,
    "city": "岐阜市",
    "city_kana": "ギフシ",
    "town": "鶴舞町",
    "town_kana": "ツルマイチョウ",
    "street": null,
    "office_name": null,
    "office_name_kana": null
  },
  "8164": {
    "postcode": "5008164",
    "prefecture": "岐阜県",
    "prefecture_kana": "ギフケン",
    "prefecture_code": 21,
    "city": "岐阜市",
    "city_kana": "ギフシ",
    "town": "鶴田町",
    "town_kana": "ツルタマチ",
    "street": null,
    "office_name": null,
    "office_name_kana": null
  },
  "8165": {
    "postcode": "5008165",
    "prefecture": "岐阜県",
    "prefecture_kana": "ギフケン",
    "prefecture_code": 21,
    "city": "岐阜市",
    "city_kana": "ギフシ",
    "town": "老松町",
    "town_kana": "オイマツチョウ",
    "street": null,
    "office_name": null,
    "office_name_kana": null
  },
  "8166": {
    "postcode": "5008166",
    "prefecture": "岐阜県",
    "prefecture_kana": "ギフケン",
    "prefecture_code": 21,
    "city": "岐阜市",
    "city_kana": "ギフシ",
    "town": "天王町",
    "town_kana": "テンノウチョウ",
    "street": null,
    "office_name": null,
    "office_name_kana": null
  },
  "8167": {
    "postcode": "5008167",
    "prefecture": "岐阜県",
    "prefecture_kana": "ギフケン",
    "prefecture_code": 21,
    "city": "岐阜市",
    "city_kana": "ギフシ",
    "town": "東金宝町",
    "town_kana": "ヒガシキンポウチョウ",
    "street": null,
    "office_name": null,
    "office_name_kana": null
  },
  "8168": {
    "postcode": "5008168",
    "prefecture": "岐阜県",
    "prefecture_kana": "ギフケン",
    "prefecture_code": 21,
    "city": "岐阜市",
    "city_kana": "ギフシ",
    "town": "東駒爪町",
    "town_kana": "ヒガシコマヅメチョウ",
    "street": null,
    "office_name": null,
    "office_name_kana": null
  },
  "8169": {
    "postcode": "5008169",
    "prefecture": "岐阜県",
    "prefecture_kana": "ギフケン",
    "prefecture_code": 21,
    "city": "岐阜市",
    "city_kana": "ギフシ",
    "town": "溝旗町",
    "town_kana": "ミゾバタチョウ",
    "street": null,
    "office_name": null,
    "office_name_kana": null
  },
  "8171": {
    "postcode": "5008171",
    "prefecture": "岐阜県",
    "prefecture_kana": "ギフケン",
    "prefecture_code": 21,
    "city": "岐阜市",
    "city_kana": "ギフシ",
    "town": "高森町",
    "town_kana": "タカモリチョウ",
    "street": null,
    "office_name": null,
    "office_name_kana": null
  },
  "8172": {
    "postcode": "5008172",
    "prefecture": "岐阜県",
    "prefecture_kana": "ギフケン",
    "prefecture_code": 21,
    "city": "岐阜市",
    "city_kana": "ギフシ",
    "town": "白山町",
    "town_kana": "ハクサンチョウ",
    "street": null,
    "office_name": null,
    "office_name_kana": null
  },
  "8173": {
    "postcode": "5008173",
    "prefecture": "岐阜県",
    "prefecture_kana": "ギフケン",
    "prefecture_code": 21,
    "city": "岐阜市",
    "city_kana": "ギフシ",
    "town": "田生越町",
    "town_kana": "タショウゴエチョウ",
    "street": null,
    "office_name": null,
    "office_name_kana": null
  },
  "8174": {
    "postcode": "5008174",
    "prefecture": "岐阜県",
    "prefecture_kana": "ギフケン",
    "prefecture_code": 21,
    "city": "岐阜市",
    "city_kana": "ギフシ",
    "town": "栗矢田町",
    "town_kana": "クリヤダチョウ",
    "street": null,
    "office_name": null,
    "office_name_kana": null
  },
  "8175": {
    "postcode": "5008175",
    "prefecture": "岐阜県",
    "prefecture_kana": "ギフケン",
    "prefecture_code": 21,
    "city": "岐阜市",
    "city_kana": "ギフシ",
    "town": "長住町",
    "town_kana": "ナガズミチョウ",
    "street": null,
    "office_name": null,
    "office_name_kana": null
  },
  "8176": {
    "postcode": "5008176",
    "prefecture": "岐阜県",
    "prefecture_kana": "ギフケン",
    "prefecture_code": 21,
    "city": "岐阜市",
    "city_kana": "ギフシ",
    "town": "県町",
    "town_kana": "アガタマチ",
    "street": null,
    "office_name": null,
    "office_name_kana": null
  },
  "8177": {
    "postcode": "5008177",
    "prefecture": "岐阜県",
    "prefecture_kana": "ギフケン",
    "prefecture_code": 21,
    "city": "岐阜市",
    "city_kana": "ギフシ",
    "town": "長旗町",
    "town_kana": "ナガハタチョウ",
    "street": null,
    "office_name": null,
    "office_name_kana": null
  },
  "8178": {
    "postcode": "5008178",
    "prefecture": "岐阜県",
    "prefecture_kana": "ギフケン",
    "prefecture_code": 21,
    "city": "岐阜市",
    "city_kana": "ギフシ",
    "town": "清住町",
    "town_kana": "キヨズミチョウ",
    "street": null,
    "office_name": null,
    "office_name_kana": null
  },
  "8179": {
    "postcode": "5008179",
    "prefecture": "岐阜県",
    "prefecture_kana": "ギフケン",
    "prefecture_code": 21,
    "city": "岐阜市",
    "city_kana": "ギフシ",
    "town": "元住町",
    "town_kana": "モトズミチョウ",
    "street": null,
    "office_name": null,
    "office_name_kana": null
  },
  "8181": {
    "postcode": "5008181",
    "prefecture": "岐阜県",
    "prefecture_kana": "ギフケン",
    "prefecture_code": 21,
    "city": "岐阜市",
    "city_kana": "ギフシ",
    "town": "御浪町",
    "town_kana": "オナミチョウ",
    "street": null,
    "office_name": null,
    "office_name_kana": null
  },
  "8182": {
    "postcode": "5008182",
    "prefecture": "岐阜県",
    "prefecture_kana": "ギフケン",
    "prefecture_code": 21,
    "city": "岐阜市",
    "city_kana": "ギフシ",
    "town": "美殿町",
    "town_kana": "ミトノチョウ",
    "street": null,
    "office_name": null,
    "office_name_kana": null
  },
  "8183": {
    "postcode": "5008183",
    "prefecture": "岐阜県",
    "prefecture_kana": "ギフケン",
    "prefecture_code": 21,
    "city": "岐阜市",
    "city_kana": "ギフシ",
    "town": "一番町",
    "town_kana": "イチバンチョウ",
    "street": null,
    "office_name": null,
    "office_name_kana": null
  },
  "8184": {
    "postcode": "5008184",
    "prefecture": "岐阜県",
    "prefecture_kana": "ギフケン",
    "prefecture_code": 21,
    "city": "岐阜市",
    "city_kana": "ギフシ",
    "town": "西駒爪町",
    "town_kana": "ニシコマヅメチョウ",
    "street": null,
    "office_name": null,
    "office_name_kana": null
  },
  "8185": {
    "postcode": "5008185",
    "prefecture": "岐阜県",
    "prefecture_kana": "ギフケン",
    "prefecture_code": 21,
    "city": "岐阜市",
    "city_kana": "ギフシ",
    "town": "元町",
    "town_kana": "モトマチ",
    "street": null,
    "office_name": null,
    "office_name_kana": null
  },
  "8186": {
    "postcode": "5008186",
    "prefecture": "岐阜県",
    "prefecture_kana": "ギフケン",
    "prefecture_code": 21,
    "city": "岐阜市",
    "city_kana": "ギフシ",
    "town": "霞町",
    "town_kana": "カスミチョウ",
    "street": null,
    "office_name": null,
    "office_name_kana": null
  },
  "8187": {
    "postcode": "5008187",
    "prefecture": "岐阜県",
    "prefecture_kana": "ギフケン",
    "prefecture_code": 21,
    "city": "岐阜市",
    "city_kana": "ギフシ",
    "town": "吉津町",
    "town_kana": "ヨシヅマチ",
    "street": null,
    "office_name": null,
    "office_name_kana": null
  },
  "8188": {
    "postcode": "5008188",
    "prefecture": "岐阜県",
    "prefecture_kana": "ギフケン",
    "prefecture_code": 21,
    "city": "岐阜市",
    "city_kana": "ギフシ",
    "town": "二番町",
    "town_kana": "ニバンチョウ",
    "street": null,
    "office_name": null,
    "office_name_kana": null
  },
  "8189": {
    "postcode": "5008189",
    "prefecture": "岐阜県",
    "prefecture_kana": "ギフケン",
    "prefecture_code": 21,
    "city": "岐阜市",
    "city_kana": "ギフシ",
    "town": "三番町",
    "town_kana": "サンバンチョウ",
    "street": null,
    "office_name": null,
    "office_name_kana": null
  },
  "8207": {
    "postcode": "5008207",
    "prefecture": "岐阜県",
    "prefecture_kana": "ギフケン",
    "prefecture_code": 21,
    "city": "岐阜市",
    "city_kana": "ギフシ",
    "town": "日野北",
    "town_kana": "ヒノキタ",
    "street": null,
    "office_name": null,
    "office_name_kana": null
  },
  "8211": {
    "postcode": "5008211",
    "prefecture": "岐阜県",
    "prefecture_kana": "ギフケン",
    "prefecture_code": 21,
    "city": "岐阜市",
    "city_kana": "ギフシ",
    "town": "日野東",
    "town_kana": "ヒノヒガシ",
    "street": null,
    "office_name": null,
    "office_name_kana": null
  },
  "8212": {
    "postcode": "5008212",
    "prefecture": "岐阜県",
    "prefecture_kana": "ギフケン",
    "prefecture_code": 21,
    "city": "岐阜市",
    "city_kana": "ギフシ",
    "town": "日野南",
    "town_kana": "ヒノミナミ",
    "street": null,
    "office_name": null,
    "office_name_kana": null
  },
  "8213": {
    "postcode": "5008213",
    "prefecture": "岐阜県",
    "prefecture_kana": "ギフケン",
    "prefecture_code": 21,
    "city": "岐阜市",
    "city_kana": "ギフシ",
    "town": "日野西",
    "town_kana": "ヒノニシ",
    "street": null,
    "office_name": null,
    "office_name_kana": null
  },
  "8221": {
    "postcode": "5008221",
    "prefecture": "岐阜県",
    "prefecture_kana": "ギフケン",
    "prefecture_code": 21,
    "city": "岐阜市",
    "city_kana": "ギフシ",
    "town": "天池",
    "town_kana": "アマイケ",
    "street": null,
    "office_name": null,
    "office_name_kana": null
  },
  "8222": {
    "postcode": "5008222",
    "prefecture": "岐阜県",
    "prefecture_kana": "ギフケン",
    "prefecture_code": 21,
    "city": "岐阜市",
    "city_kana": "ギフシ",
    "town": "琴塚",
    "town_kana": "コトヅカ",
    "street": null,
    "office_name": null,
    "office_name_kana": null
  },
  "8223": {
    "postcode": "5008223",
    "prefecture": "岐阜県",
    "prefecture_kana": "ギフケン",
    "prefecture_code": 21,
    "city": "岐阜市",
    "city_kana": "ギフシ",
    "town": "水海道",
    "town_kana": "ミズカイドウ",
    "street": null,
    "office_name": null,
    "office_name_kana": null
  },
  "8224": {
    "postcode": "5008224",
    "prefecture": "岐阜県",
    "prefecture_kana": "ギフケン",
    "prefecture_code": 21,
    "city": "岐阜市",
    "city_kana": "ギフシ",
    "town": "高田",
    "town_kana": "タカタ",
    "street": null,
    "office_name": null,
    "office_name_kana": null
  },
  "8225": {
    "postcode": "5008225",
    "prefecture": "岐阜県",
    "prefecture_kana": "ギフケン",
    "prefecture_code": 21,
    "city": "岐阜市",
    "city_kana": "ギフシ",
    "town": "岩地",
    "town_kana": "イワチ",
    "street": null,
    "office_name": null,
    "office_name_kana": null
  },
  "8226": {
    "postcode": "5008226",
    "prefecture": "岐阜県",
    "prefecture_kana": "ギフケン",
    "prefecture_code": 21,
    "city": "岐阜市",
    "city_kana": "ギフシ",
    "town": "野一色",
    "town_kana": "ノイッシキ",
    "street": null,
    "office_name": null,
    "office_name_kana": null
  },
  "8227": {
    "postcode": "5008227",
    "prefecture": "岐阜県",
    "prefecture_kana": "ギフケン",
    "prefecture_code": 21,
    "city": "岐阜市",
    "city_kana": "ギフシ",
    "town": "北一色",
    "town_kana": "キタイッシキ",
    "street": null,
    "office_name": null,
    "office_name_kana": null
  },
  "8228": {
    "postcode": "5008228",
    "prefecture": "岐阜県",
    "prefecture_kana": "ギフケン",
    "prefecture_code": 21,
    "city": "岐阜市",
    "city_kana": "ギフシ",
    "town": "長森本町",
    "town_kana": "ナガモリホンマチ",
    "street": null,
    "office_name": null,
    "office_name_kana": null
  },
  "8229": {
    "postcode": "5008229",
    "prefecture": "岐阜県",
    "prefecture_kana": "ギフケン",
    "prefecture_code": 21,
    "city": "岐阜市",
    "city_kana": "ギフシ",
    "town": "長森岩戸",
    "town_kana": "ナガモリイワド",
    "street": null,
    "office_name": null,
    "office_name_kana": null
  },
  "8231": {
    "postcode": "5008231",
    "prefecture": "岐阜県",
    "prefecture_kana": "ギフケン",
    "prefecture_code": 21,
    "city": "岐阜市",
    "city_kana": "ギフシ",
    "town": "前一色西町",
    "town_kana": "マエイッシキニシマチ",
    "street": null,
    "office_name": null,
    "office_name_kana": null
  },
  "8232": {
    "postcode": "5008232",
    "prefecture": "岐阜県",
    "prefecture_kana": "ギフケン",
    "prefecture_code": 21,
    "city": "岐阜市",
    "city_kana": "ギフシ",
    "town": "前一色",
    "town_kana": "マエイッシキ",
    "street": null,
    "office_name": null,
    "office_name_kana": null
  },
  "8233": {
    "postcode": "5008233",
    "prefecture": "岐阜県",
    "prefecture_kana": "ギフケン",
    "prefecture_code": 21,
    "city": "岐阜市",
    "city_kana": "ギフシ",
    "town": "蔵前",
    "town_kana": "クラノマエ",
    "street": null,
    "office_name": null,
    "office_name_kana": null
  },
  "8234": {
    "postcode": "5008234",
    "prefecture": "岐阜県",
    "prefecture_kana": "ギフケン",
    "prefecture_code": 21,
    "city": "岐阜市",
    "city_kana": "ギフシ",
    "town": "芋島",
    "town_kana": "イモジマ",
    "street": null,
    "office_name": null,
    "office_name_kana": null
  },
  "8235": {
    "postcode": "5008235",
    "prefecture": "岐阜県",
    "prefecture_kana": "ギフケン",
    "prefecture_code": 21,
    "city": "岐阜市",
    "city_kana": "ギフシ",
    "town": "東中島",
    "town_kana": "ヒガシナカジマ",
    "street": null,
    "office_name": null,
    "office_name_kana": null
  },
  "8236": {
    "postcode": "5008236",
    "prefecture": "岐阜県",
    "prefecture_kana": "ギフケン",
    "prefecture_code": 21,
    "city": "岐阜市",
    "city_kana": "ギフシ",
    "town": "手力町",
    "town_kana": "テヂカラチョウ",
    "street": null,
    "office_name": null,
    "office_name_kana": null
  },
  "8237": {
    "postcode": "5008237",
    "prefecture": "岐阜県",
    "prefecture_kana": "ギフケン",
    "prefecture_code": 21,
    "city": "岐阜市",
    "city_kana": "ギフシ",
    "town": "切通",
    "town_kana": "キリドオシ",
    "street": null,
    "office_name": null,
    "office_name_kana": null
  },
  "8238": {
    "postcode": "5008238",
    "prefecture": "岐阜県",
    "prefecture_kana": "ギフケン",
    "prefecture_code": 21,
    "city": "岐阜市",
    "city_kana": "ギフシ",
    "town": "細畑",
    "town_kana": "ホソバタ",
    "street": null,
    "office_name": null,
    "office_name_kana": null
  },
  "8241": {
    "postcode": "5008241",
    "prefecture": "岐阜県",
    "prefecture_kana": "ギフケン",
    "prefecture_code": 21,
    "city": "岐阜市",
    "city_kana": "ギフシ",
    "town": "領下",
    "town_kana": "リョウゲ",
    "street": null,
    "office_name": null,
    "office_name_kana": null
  },
  "8242": {
    "postcode": "5008242",
    "prefecture": "岐阜県",
    "prefecture_kana": "ギフケン",
    "prefecture_code": 21,
    "city": "岐阜市",
    "city_kana": "ギフシ",
    "town": "細畑野寄",
    "town_kana": "ホソバタノヨリ",
    "street": null,
    "office_name": null,
    "office_name_kana": null
  },
  "8243": {
    "postcode": "5008243",
    "prefecture": "岐阜県",
    "prefecture_kana": "ギフケン",
    "prefecture_code": 21,
    "city": "岐阜市",
    "city_kana": "ギフシ",
    "town": "細畑華南",
    "town_kana": "ホソバタカナン",
    "street": null,
    "office_name": null,
    "office_name_kana": null
  },
  "8244": {
    "postcode": "5008244",
    "prefecture": "岐阜県",
    "prefecture_kana": "ギフケン",
    "prefecture_code": 21,
    "city": "岐阜市",
    "city_kana": "ギフシ",
    "town": "細畑塚浦",
    "town_kana": "ホソバタツカウラ",
    "street": null,
    "office_name": null,
    "office_name_kana": null
  },
  "8245": {
    "postcode": "5008245",
    "prefecture": "岐阜県",
    "prefecture_kana": "ギフケン",
    "prefecture_code": 21,
    "city": "岐阜市",
    "city_kana": "ギフシ",
    "town": "上川手",
    "town_kana": "カミカワテ",
    "street": null,
    "office_name": null,
    "office_name_kana": null
  },
  "8246": {
    "postcode": "5008246",
    "prefecture": "岐阜県",
    "prefecture_kana": "ギフケン",
    "prefecture_code": 21,
    "city": "岐阜市",
    "city_kana": "ギフシ",
    "town": "下川手",
    "town_kana": "シモカワテ",
    "street": null,
    "office_name": null,
    "office_name_kana": null
  },
  "8247": {
    "postcode": "5008247",
    "prefecture": "岐阜県",
    "prefecture_kana": "ギフケン",
    "prefecture_code": 21,
    "city": "岐阜市",
    "city_kana": "ギフシ",
    "town": "長森細畑",
    "town_kana": "ナガモリホソバタ",
    "street": null,
    "office_name": null,
    "office_name_kana": null
  },
  "8251": {
    "postcode": "5008251",
    "prefecture": "岐阜県",
    "prefecture_kana": "ギフケン",
    "prefecture_code": 21,
    "city": "岐阜市",
    "city_kana": "ギフシ",
    "town": "加納御車町",
    "town_kana": "カノウミクルマチョウ",
    "street": null,
    "office_name": null,
    "office_name_kana": null
  },
  "8252": {
    "postcode": "5008252",
    "prefecture": "岐阜県",
    "prefecture_kana": "ギフケン",
    "prefecture_code": 21,
    "city": "岐阜市",
    "city_kana": "ギフシ",
    "town": "加納舟田町",
    "town_kana": "カノウフナダチョウ",
    "street": null,
    "office_name": null,
    "office_name_kana": null
  },
  "8253": {
    "postcode": "5008253",
    "prefecture": "岐阜県",
    "prefecture_kana": "ギフケン",
    "prefecture_code": 21,
    "city": "岐阜市",
    "city_kana": "ギフシ",
    "town": "薬師町",
    "town_kana": "ヤクシチョウ",
    "street": null,
    "office_name": null,
    "office_name_kana": null
  },
  "8254": {
    "postcode": "5008254",
    "prefecture": "岐阜県",
    "prefecture_kana": "ギフケン",
    "prefecture_code": 21,
    "city": "岐阜市",
    "city_kana": "ギフシ",
    "town": "光樹町",
    "town_kana": "コウキチョウ",
    "street": null,
    "office_name": null,
    "office_name_kana": null
  },
  "8255": {
    "postcode": "5008255",
    "prefecture": "岐阜県",
    "prefecture_kana": "ギフケン",
    "prefecture_code": 21,
    "city": "岐阜市",
    "city_kana": "ギフシ",
    "town": "朝霧町",
    "town_kana": "アサギリチョウ",
    "street": null,
    "office_name": null,
    "office_name_kana": null
  },
  "8256": {
    "postcode": "5008256",
    "prefecture": "岐阜県",
    "prefecture_kana": "ギフケン",
    "prefecture_code": 21,
    "city": "岐阜市",
    "city_kana": "ギフシ",
    "town": "八坂町",
    "town_kana": "ヤサカチョウ",
    "street": null,
    "office_name": null,
    "office_name_kana": null
  },
  "8257": {
    "postcode": "5008257",
    "prefecture": "岐阜県",
    "prefecture_kana": "ギフケン",
    "prefecture_code": 21,
    "city": "岐阜市",
    "city_kana": "ギフシ",
    "town": "東川手",
    "town_kana": "ヒガシカワテ",
    "street": null,
    "office_name": null,
    "office_name_kana": null
  },
  "8258": {
    "postcode": "5008258",
    "prefecture": "岐阜県",
    "prefecture_kana": "ギフケン",
    "prefecture_code": 21,
    "city": "岐阜市",
    "city_kana": "ギフシ",
    "town": "西川手",
    "town_kana": "ニシカワテ",
    "street": null,
    "office_name": null,
    "office_name_kana": null
  },
  "8259": {
    "postcode": "5008259",
    "prefecture": "岐阜県",
    "prefecture_kana": "ギフケン",
    "prefecture_code": 21,
    "city": "岐阜市",
    "city_kana": "ギフシ",
    "town": "水主町",
    "town_kana": "カコマチ",
    "street": null,
    "office_name": null,
    "office_name_kana": null
  },
  "8261": {
    "postcode": "5008261",
    "prefecture": "岐阜県",
    "prefecture_kana": "ギフケン",
    "prefecture_code": 21,
    "city": "岐阜市",
    "city_kana": "ギフシ",
    "town": "茜部大野",
    "town_kana": "アカナベオオノ",
    "street": null,
    "office_name": null,
    "office_name_kana": null
  },
  "8262": {
    "postcode": "5008262",
    "prefecture": "岐阜県",
    "prefecture_kana": "ギフケン",
    "prefecture_code": 21,
    "city": "岐阜市",
    "city_kana": "ギフシ",
    "town": "茜部本郷",
    "town_kana": "アカナベホンゴウ",
    "street": null,
    "office_name": null,
    "office_name_kana": null
  },
  "8263": {
    "postcode": "5008263",
    "prefecture": "岐阜県",
    "prefecture_kana": "ギフケン",
    "prefecture_code": 21,
    "city": "岐阜市",
    "city_kana": "ギフシ",
    "town": "茜部新所",
    "town_kana": "アカナベシンショ",
    "street": null,
    "office_name": null,
    "office_name_kana": null
  },
  "8264": {
    "postcode": "5008264",
    "prefecture": "岐阜県",
    "prefecture_kana": "ギフケン",
    "prefecture_code": 21,
    "city": "岐阜市",
    "city_kana": "ギフシ",
    "town": "茜部辰新",
    "town_kana": "アカナベタツシン",
    "street": null,
    "office_name": null,
    "office_name_kana": null
  },
  "8265": {
    "postcode": "5008265",
    "prefecture": "岐阜県",
    "prefecture_kana": "ギフケン",
    "prefecture_code": 21,
    "city": "岐阜市",
    "city_kana": "ギフシ",
    "town": "茜部神清寺",
    "town_kana": "アカナベシンセイジ",
    "street": null,
    "office_name": null,
    "office_name_kana": null
  },
  "8266": {
    "postcode": "5008266",
    "prefecture": "岐阜県",
    "prefecture_kana": "ギフケン",
    "prefecture_code": 21,
    "city": "岐阜市",
    "city_kana": "ギフシ",
    "town": "境川",
    "town_kana": "サカイガワ",
    "street": null,
    "office_name": null,
    "office_name_kana": null
  },
  "8267": {
    "postcode": "5008267",
    "prefecture": "岐阜県",
    "prefecture_kana": "ギフケン",
    "prefecture_code": 21,
    "city": "岐阜市",
    "city_kana": "ギフシ",
    "town": "茜部寺屋敷",
    "town_kana": "アカナベテラヤシキ",
    "street": null,
    "office_name": null,
    "office_name_kana": null
  },
  "8268": {
    "postcode": "5008268",
    "prefecture": "岐阜県",
    "prefecture_kana": "ギフケン",
    "prefecture_code": 21,
    "city": "岐阜市",
    "city_kana": "ギフシ",
    "town": "茜部菱野",
    "town_kana": "アカナベヒシノ",
    "street": null,
    "office_name": null,
    "office_name_kana": null
  },
  "8269": {
    "postcode": "5008269",
    "prefecture": "岐阜県",
    "prefecture_kana": "ギフケン",
    "prefecture_code": 21,
    "city": "岐阜市",
    "city_kana": "ギフシ",
    "town": "茜部中島",
    "town_kana": "アカナベナカシマ",
    "street": null,
    "office_name": null,
    "office_name_kana": null
  },
  "8271": {
    "postcode": "5008271",
    "prefecture": "岐阜県",
    "prefecture_kana": "ギフケン",
    "prefecture_code": 21,
    "city": "岐阜市",
    "city_kana": "ギフシ",
    "town": "加納堀田町",
    "town_kana": "カノウホッタチョウ",
    "street": null,
    "office_name": null,
    "office_name_kana": null
  },
  "8272": {
    "postcode": "5008272",
    "prefecture": "岐阜県",
    "prefecture_kana": "ギフケン",
    "prefecture_code": 21,
    "city": "岐阜市",
    "city_kana": "ギフシ",
    "town": "加納奥平町",
    "town_kana": "カノウオクダイラチョウ",
    "street": null,
    "office_name": null,
    "office_name_kana": null
  },
  "8273": {
    "postcode": "5008273",
    "prefecture": "岐阜県",
    "prefecture_kana": "ギフケン",
    "prefecture_code": 21,
    "city": "岐阜市",
    "city_kana": "ギフシ",
    "town": "加納矢場町",
    "town_kana": "カノウヤバチョウ",
    "street": null,
    "office_name": null,
    "office_name_kana": null
  },
  "8274": {
    "postcode": "5008274",
    "prefecture": "岐阜県",
    "prefecture_kana": "ギフケン",
    "prefecture_code": 21,
    "city": "岐阜市",
    "city_kana": "ギフシ",
    "town": "加納鷹匠町",
    "town_kana": "カノウタカショウマチ",
    "street": null,
    "office_name": null,
    "office_name_kana": null
  },
  "8275": {
    "postcode": "5008275",
    "prefecture": "岐阜県",
    "prefecture_kana": "ギフケン",
    "prefecture_code": 21,
    "city": "岐阜市",
    "city_kana": "ギフシ",
    "town": "加納花ノ木町",
    "town_kana": "カノウハナノキチョウ",
    "street": null,
    "office_name": null,
    "office_name_kana": null
  },
  "8276": {
    "postcode": "5008276",
    "prefecture": "岐阜県",
    "prefecture_kana": "ギフケン",
    "prefecture_code": 21,
    "city": "岐阜市",
    "city_kana": "ギフシ",
    "town": "加納南陽町",
    "town_kana": "カノウナンヨウチョウ",
    "street": null,
    "office_name": null,
    "office_name_kana": null
  },
  "8277": {
    "postcode": "5008277",
    "prefecture": "岐阜県",
    "prefecture_kana": "ギフケン",
    "prefecture_code": 21,
    "city": "岐阜市",
    "city_kana": "ギフシ",
    "town": "加納立花町",
    "town_kana": "カノウタチバナチョウ",
    "street": null,
    "office_name": null,
    "office_name_kana": null
  },
  "8278": {
    "postcode": "5008278",
    "prefecture": "岐阜県",
    "prefecture_kana": "ギフケン",
    "prefecture_code": 21,
    "city": "岐阜市",
    "city_kana": "ギフシ",
    "town": "加納西山町",
    "town_kana": "カノウニシヤマチョウ",
    "street": null,
    "office_name": null,
    "office_name_kana": null
  },
  "8279": {
    "postcode": "5008279",
    "prefecture": "岐阜県",
    "prefecture_kana": "ギフケン",
    "prefecture_code": 21,
    "city": "岐阜市",
    "city_kana": "ギフシ",
    "town": "加納梅田町",
    "town_kana": "カノウウメダチョウ",
    "street": null,
    "office_name": null,
    "office_name_kana": null
  },
  "8281": {
    "postcode": "5008281",
    "prefecture": "岐阜県",
    "prefecture_kana": "ギフケン",
    "prefecture_code": 21,
    "city": "岐阜市",
    "city_kana": "ギフシ",
    "town": "東鶉",
    "town_kana": "ヒガシウズラ",
    "street": null,
    "office_name": null,
    "office_name_kana": null
  },
  "8282": {
    "postcode": "5008282",
    "prefecture": "岐阜県",
    "prefecture_kana": "ギフケン",
    "prefecture_code": 21,
    "city": "岐阜市",
    "city_kana": "ギフシ",
    "town": "茜部大川",
    "town_kana": "アカナベオオカワ",
    "street": null,
    "office_name": null,
    "office_name_kana": null
  },
  "8283": {
    "postcode": "5008283",
    "prefecture": "岐阜県",
    "prefecture_kana": "ギフケン",
    "prefecture_code": 21,
    "city": "岐阜市",
    "city_kana": "ギフシ",
    "town": "茜部野瀬",
    "town_kana": "アカナベノセ",
    "street": null,
    "office_name": null,
    "office_name_kana": null
  },
  "8284": {
    "postcode": "5008284",
    "prefecture": "岐阜県",
    "prefecture_kana": "ギフケン",
    "prefecture_code": 21,
    "city": "岐阜市",
    "city_kana": "ギフシ",
    "town": "茜町",
    "town_kana": "アカネチョウ",
    "street": null,
    "office_name": null,
    "office_name_kana": null
  },
  "8285": {
    "postcode": "5008285",
    "prefecture": "岐阜県",
    "prefecture_kana": "ギフケン",
    "prefecture_code": 21,
    "city": "岐阜市",
    "city_kana": "ギフシ",
    "town": "南鶉",
    "town_kana": "ミナミウズラ",
    "street": null,
    "office_name": null,
    "office_name_kana": null
  },
  "8286": {
    "postcode": "5008286",
    "prefecture": "岐阜県",
    "prefecture_kana": "ギフケン",
    "prefecture_code": 21,
    "city": "岐阜市",
    "city_kana": "ギフシ",
    "town": "西鶉",
    "town_kana": "ニシウズラ",
    "street": null,
    "office_name": null,
    "office_name_kana": null
  },
  "8287": {
    "postcode": "5008287",
    "prefecture": "岐阜県",
    "prefecture_kana": "ギフケン",
    "prefecture_code": 21,
    "city": "岐阜市",
    "city_kana": "ギフシ",
    "town": "北鶉",
    "town_kana": "キタウズラ",
    "street": null,
    "office_name": null,
    "office_name_kana": null
  },
  "8288": {
    "postcode": "5008288",
    "prefecture": "岐阜県",
    "prefecture_kana": "ギフケン",
    "prefecture_code": 21,
    "city": "岐阜市",
    "city_kana": "ギフシ",
    "town": "中鶉",
    "town_kana": "ナカウズラ",
    "street": null,
    "office_name": null,
    "office_name_kana": null
  },
  "8289": {
    "postcode": "5008289",
    "prefecture": "岐阜県",
    "prefecture_kana": "ギフケン",
    "prefecture_code": 21,
    "city": "岐阜市",
    "city_kana": "ギフシ",
    "town": "須賀",
    "town_kana": "スガ",
    "street": null,
    "office_name": null,
    "office_name_kana": null
  },
  "8301": {
    "postcode": "5008301",
    "prefecture": "岐阜県",
    "prefecture_kana": "ギフケン",
    "prefecture_code": 21,
    "city": "岐阜市",
    "city_kana": "ギフシ",
    "town": "浪花町",
    "town_kana": "ナニワチョウ",
    "street": null,
    "office_name": null,
    "office_name_kana": null
  },
  "8302": {
    "postcode": "5008302",
    "prefecture": "岐阜県",
    "prefecture_kana": "ギフケン",
    "prefecture_code": 21,
    "city": "岐阜市",
    "city_kana": "ギフシ",
    "town": "本郷町",
    "town_kana": "ホンゴウチョウ",
    "street": null,
    "office_name": null,
    "office_name_kana": null
  },
  "8303": {
    "postcode": "5008303",
    "prefecture": "岐阜県",
    "prefecture_kana": "ギフケン",
    "prefecture_code": 21,
    "city": "岐阜市",
    "city_kana": "ギフシ",
    "town": "春日町",
    "town_kana": "カスガマチ",
    "street": null,
    "office_name": null,
    "office_name_kana": null
  },
  "8304": {
    "postcode": "5008304",
    "prefecture": "岐阜県",
    "prefecture_kana": "ギフケン",
    "prefecture_code": 21,
    "city": "岐阜市",
    "city_kana": "ギフシ",
    "town": "柳川町",
    "town_kana": "ヤナガワチョウ",
    "street": null,
    "office_name": null,
    "office_name_kana": null
  },
  "8305": {
    "postcode": "5008305",
    "prefecture": "岐阜県",
    "prefecture_kana": "ギフケン",
    "prefecture_code": 21,
    "city": "岐阜市",
    "city_kana": "ギフシ",
    "town": "沖ノ橋町",
    "town_kana": "オキノハシチョウ",
    "street": null,
    "office_name": null,
    "office_name_kana": null
  },
  "8306": {
    "postcode": "5008306",
    "prefecture": "岐阜県",
    "prefecture_kana": "ギフケン",
    "prefecture_code": 21,
    "city": "岐阜市",
    "city_kana": "ギフシ",
    "town": "鍵屋東町",
    "town_kana": "カギヤヒガシマチ",
    "street": null,
    "office_name": null,
    "office_name_kana": null
  },
  "8307": {
    "postcode": "5008307",
    "prefecture": "岐阜県",
    "prefecture_kana": "ギフケン",
    "prefecture_code": 21,
    "city": "岐阜市",
    "city_kana": "ギフシ",
    "town": "弁天町",
    "town_kana": "ベンテンチョウ",
    "street": null,
    "office_name": null,
    "office_name_kana": null
  },
  "8308": {
    "postcode": "5008308",
    "prefecture": "岐阜県",
    "prefecture_kana": "ギフケン",
    "prefecture_code": 21,
    "city": "岐阜市",
    "city_kana": "ギフシ",
    "town": "三橋町",
    "town_kana": "ミツハシチョウ",
    "street": null,
    "office_name": null,
    "office_name_kana": null
  },
  "8309": {
    "postcode": "5008309",
    "prefecture": "岐阜県",
    "prefecture_kana": "ギフケン",
    "prefecture_code": 21,
    "city": "岐阜市",
    "city_kana": "ギフシ",
    "town": "都通",
    "town_kana": "ミヤコドオリ",
    "street": null,
    "office_name": null,
    "office_name_kana": null
  },
  "8311": {
    "postcode": "5008311",
    "prefecture": "岐阜県",
    "prefecture_kana": "ギフケン",
    "prefecture_code": 21,
    "city": "岐阜市",
    "city_kana": "ギフシ",
    "town": "長者町",
    "town_kana": "チョウジャマチ",
    "street": null,
    "office_name": null,
    "office_name_kana": null
  },
  "8312": {
    "postcode": "5008312",
    "prefecture": "岐阜県",
    "prefecture_kana": "ギフケン",
    "prefecture_code": 21,
    "city": "岐阜市",
    "city_kana": "ギフシ",
    "town": "村雨町",
    "town_kana": "ムラサメチョウ",
    "street": null,
    "office_name": null,
    "office_name_kana": null
  },
  "8313": {
    "postcode": "5008313",
    "prefecture": "岐阜県",
    "prefecture_kana": "ギフケン",
    "prefecture_code": 21,
    "city": "岐阜市",
    "city_kana": "ギフシ",
    "town": "鍵屋中町",
    "town_kana": "カギヤナカマチ",
    "street": null,
    "office_name": null,
    "office_name_kana": null
  },
  "8314": {
    "postcode": "5008314",
    "prefecture": "岐阜県",
    "prefecture_kana": "ギフケン",
    "prefecture_code": 21,
    "city": "岐阜市",
    "city_kana": "ギフシ",
    "town": "鍵屋西町",
    "town_kana": "カギヤニシマチ",
    "street": null,
    "office_name": null,
    "office_name_kana": null
  },
  "8315": {
    "postcode": "5008315",
    "prefecture": "岐阜県",
    "prefecture_kana": "ギフケン",
    "prefecture_code": 21,
    "city": "岐阜市",
    "city_kana": "ギフシ",
    "town": "島田東町",
    "town_kana": "シマダヒガシマチ",
    "street": null,
    "office_name": null,
    "office_name_kana": null
  },
  "8316": {
    "postcode": "5008316",
    "prefecture": "岐阜県",
    "prefecture_kana": "ギフケン",
    "prefecture_code": 21,
    "city": "岐阜市",
    "city_kana": "ギフシ",
    "town": "島田中町",
    "town_kana": "シマダナカマチ",
    "street": null,
    "office_name": null,
    "office_name_kana": null
  },
  "8317": {
    "postcode": "5008317",
    "prefecture": "岐阜県",
    "prefecture_kana": "ギフケン",
    "prefecture_code": 21,
    "city": "岐阜市",
    "city_kana": "ギフシ",
    "town": "島田西町",
    "town_kana": "シマダニシマチ",
    "street": null,
    "office_name": null,
    "office_name_kana": null
  },
  "8318": {
    "postcode": "5008318",
    "prefecture": "岐阜県",
    "prefecture_kana": "ギフケン",
    "prefecture_code": 21,
    "city": "岐阜市",
    "city_kana": "ギフシ",
    "town": "桜通",
    "town_kana": "サクラドオリ",
    "street": null,
    "office_name": null,
    "office_name_kana": null
  },
  "8319": [
    {
      "postcode": "5008319",
      "prefecture": "岐阜県",
      "prefecture_kana": "ギフケン",
      "prefecture_code": 21,
      "city": "岐阜市",
      "city_kana": "ギフシ",
      "town": "桜木町",
      "town_kana": "サクラギチョウ",
      "street": null,
      "office_name": null,
      "office_name_kana": null
    },
    {
      "postcode": "5008319",
      "prefecture": "岐阜県",
      "prefecture_kana": "ギフケン",
      "prefecture_code": 21,
      "city": "岐阜市",
      "city_kana": "ギフシ",
      "town": "早田",
      "town_kana": "ソウデン",
      "street": null,
      "office_name": null,
      "office_name_kana": null
    }
  ],
  "8321": {
    "postcode": "5008321",
    "prefecture": "岐阜県",
    "prefecture_kana": "ギフケン",
    "prefecture_code": 21,
    "city": "岐阜市",
    "city_kana": "ギフシ",
    "town": "菊井町",
    "town_kana": "キクイチョウ",
    "street": null,
    "office_name": null,
    "office_name_kana": null
  },
  "8322": {
    "postcode": "5008322",
    "prefecture": "岐阜県",
    "prefecture_kana": "ギフケン",
    "prefecture_code": 21,
    "city": "岐阜市",
    "city_kana": "ギフシ",
    "town": "香取町",
    "town_kana": "カトリチョウ",
    "street": null,
    "office_name": null,
    "office_name_kana": null
  },
  "8323": {
    "postcode": "5008323",
    "prefecture": "岐阜県",
    "prefecture_kana": "ギフケン",
    "prefecture_code": 21,
    "city": "岐阜市",
    "city_kana": "ギフシ",
    "town": "鹿島町",
    "town_kana": "カシマチョウ",
    "street": null,
    "office_name": null,
    "office_name_kana": null
  },
  "8324": {
    "postcode": "5008324",
    "prefecture": "岐阜県",
    "prefecture_kana": "ギフケン",
    "prefecture_code": 21,
    "city": "岐阜市",
    "city_kana": "ギフシ",
    "town": "早苗町",
    "town_kana": "サナエチョウ",
    "street": null,
    "office_name": null,
    "office_name_kana": null
  },
  "8325": {
    "postcode": "5008325",
    "prefecture": "岐阜県",
    "prefecture_kana": "ギフケン",
    "prefecture_code": 21,
    "city": "岐阜市",
    "city_kana": "ギフシ",
    "town": "寿町",
    "town_kana": "コトブキチョウ",
    "street": null,
    "office_name": null,
    "office_name_kana": null
  },
  "8326": {
    "postcode": "5008326",
    "prefecture": "岐阜県",
    "prefecture_kana": "ギフケン",
    "prefecture_code": 21,
    "city": "岐阜市",
    "city_kana": "ギフシ",
    "town": "吹上町",
    "town_kana": "フキアゲチョウ",
    "street": null,
    "office_name": null,
    "office_name_kana": null
  },
  "8327": {
    "postcode": "5008327",
    "prefecture": "岐阜県",
    "prefecture_kana": "ギフケン",
    "prefecture_code": 21,
    "city": "岐阜市",
    "city_kana": "ギフシ",
    "town": "如月町",
    "town_kana": "キサラギチョウ",
    "street": null,
    "office_name": null,
    "office_name_kana": null
  },
  "8328": {
    "postcode": "5008328",
    "prefecture": "岐阜県",
    "prefecture_kana": "ギフケン",
    "prefecture_code": 21,
    "city": "岐阜市",
    "city_kana": "ギフシ",
    "town": "五反田町",
    "town_kana": "ゴタンダチョウ",
    "street": null,
    "office_name": null,
    "office_name_kana": null
  },
  "8329": {
    "postcode": "5008329",
    "prefecture": "岐阜県",
    "prefecture_kana": "ギフケン",
    "prefecture_code": 21,
    "city": "岐阜市",
    "city_kana": "ギフシ",
    "town": "本荘町",
    "town_kana": "ホンジョウチョウ",
    "street": null,
    "office_name": null,
    "office_name_kana": null
  },
  "8331": {
    "postcode": "5008331",
    "prefecture": "岐阜県",
    "prefecture_kana": "ギフケン",
    "prefecture_code": 21,
    "city": "岐阜市",
    "city_kana": "ギフシ",
    "town": "錦町",
    "town_kana": "ニシキチョウ",
    "street": null,
    "office_name": null,
    "office_name_kana": null
  },
  "8332": {
    "postcode": "5008332",
    "prefecture": "岐阜県",
    "prefecture_kana": "ギフケン",
    "prefecture_code": 21,
    "city": "岐阜市",
    "city_kana": "ギフシ",
    "town": "羽衣町",
    "town_kana": "ハゴロモチョウ",
    "street": null,
    "office_name": null,
    "office_name_kana": null
  },
  "8333": {
    "postcode": "5008333",
    "prefecture": "岐阜県",
    "prefecture_kana": "ギフケン",
    "prefecture_code": 21,
    "city": "岐阜市",
    "city_kana": "ギフシ",
    "town": "此花町",
    "town_kana": "コノハナチョウ",
    "street": null,
    "office_name": null,
    "office_name_kana": null
  },
  "8334": {
    "postcode": "5008334",
    "prefecture": "岐阜県",
    "prefecture_kana": "ギフケン",
    "prefecture_code": 21,
    "city": "岐阜市",
    "city_kana": "ギフシ",
    "town": "葭町",
    "town_kana": "ヨシチョウ",
    "street": null,
    "office_name": null,
    "office_name_kana": null
  },
  "8335": {
    "postcode": "5008335",
    "prefecture": "岐阜県",
    "prefecture_kana": "ギフケン",
    "prefecture_code": 21,
    "city": "岐阜市",
    "city_kana": "ギフシ",
    "town": "三歳町",
    "town_kana": "ミトセチョウ",
    "street": null,
    "office_name": null,
    "office_name_kana": null
  },
  "8336": {
    "postcode": "5008336",
    "prefecture": "岐阜県",
    "prefecture_kana": "ギフケン",
    "prefecture_code": 21,
    "city": "岐阜市",
    "city_kana": "ギフシ",
    "town": "稲荷町",
    "town_kana": "イナリチョウ",
    "street": null,
    "office_name": null,
    "office_name_kana": null
  },
  "8337": {
    "postcode": "5008337",
    "prefecture": "岐阜県",
    "prefecture_kana": "ギフケン",
    "prefecture_code": 21,
    "city": "岐阜市",
    "city_kana": "ギフシ",
    "town": "雨踊町",
    "town_kana": "アマオドリチョウ",
    "street": null,
    "office_name": null,
    "office_name_kana": null
  },
  "8339": {
    "postcode": "5008339",
    "prefecture": "岐阜県",
    "prefecture_kana": "ギフケン",
    "prefecture_code": 21,
    "city": "岐阜市",
    "city_kana": "ギフシ",
    "town": "千鳥町",
    "town_kana": "チドリチョウ",
    "street": null,
    "office_name": null,
    "office_name_kana": null
  },
  "8341": {
    "postcode": "5008341",
    "prefecture": "岐阜県",
    "prefecture_kana": "ギフケン",
    "prefecture_code": 21,
    "city": "岐阜市",
    "city_kana": "ギフシ",
    "town": "南本荘四条通",
    "town_kana": "ミナミホンジョウ4ジョウドオリ",
    "street": null,
    "office_name": null,
    "office_name_kana": null
  },
  "8342": {
    "postcode": "5008342",
    "prefecture": "岐阜県",
    "prefecture_kana": "ギフケン",
    "prefecture_code": 21,
    "city": "岐阜市",
    "city_kana": "ギフシ",
    "town": "南本荘三条通",
    "town_kana": "ミナミホンジョウ3ジョウドオリ",
    "street": null,
    "office_name": null,
    "office_name_kana": null
  },
  "8343": {
    "postcode": "5008343",
    "prefecture": "岐阜県",
    "prefecture_kana": "ギフケン",
    "prefecture_code": 21,
    "city": "岐阜市",
    "city_kana": "ギフシ",
    "town": "南本荘二条通",
    "town_kana": "ミナミホンジョウ2ジョウドオリ",
    "street": null,
    "office_name": null,
    "office_name_kana": null
  },
  "8344": {
    "postcode": "5008344",
    "prefecture": "岐阜県",
    "prefecture_kana": "ギフケン",
    "prefecture_code": 21,
    "city": "岐阜市",
    "city_kana": "ギフシ",
    "town": "南本荘一条通",
    "town_kana": "ミナミホンジョウ1ジョウドオリ",
    "street": null,
    "office_name": null,
    "office_name_kana": null
  },
  "8345": {
    "postcode": "5008345",
    "prefecture": "岐阜県",
    "prefecture_kana": "ギフケン",
    "prefecture_code": 21,
    "city": "岐阜市",
    "city_kana": "ギフシ",
    "town": "菊地町",
    "town_kana": "キクチチョウ",
    "street": null,
    "office_name": null,
    "office_name_kana": null
  },
  "8346": {
    "postcode": "5008346",
    "prefecture": "岐阜県",
    "prefecture_kana": "ギフケン",
    "prefecture_code": 21,
    "city": "岐阜市",
    "city_kana": "ギフシ",
    "town": "清",
    "town_kana": "セイ",
    "street": null,
    "office_name": null,
    "office_name_kana": null
  },
  "8347": {
    "postcode": "5008347",
    "prefecture": "岐阜県",
    "prefecture_kana": "ギフケン",
    "prefecture_code": 21,
    "city": "岐阜市",
    "city_kana": "ギフシ",
    "town": "松原町",
    "town_kana": "マツバラチョウ",
    "street": null,
    "office_name": null,
    "office_name_kana": null
  },
  "8348": {
    "postcode": "5008348",
    "prefecture": "岐阜県",
    "prefecture_kana": "ギフケン",
    "prefecture_code": 21,
    "city": "岐阜市",
    "city_kana": "ギフシ",
    "town": "三ツ又町",
    "town_kana": "ミツマタチョウ",
    "street": null,
    "office_name": null,
    "office_name_kana": null
  },
  "8349": {
    "postcode": "5008349",
    "prefecture": "岐阜県",
    "prefecture_kana": "ギフケン",
    "prefecture_code": 21,
    "city": "岐阜市",
    "city_kana": "ギフシ",
    "town": "久保見町",
    "town_kana": "クボミチョウ",
    "street": null,
    "office_name": null,
    "office_name_kana": null
  },
  "8351": {
    "postcode": "5008351",
    "prefecture": "岐阜県",
    "prefecture_kana": "ギフケン",
    "prefecture_code": 21,
    "city": "岐阜市",
    "city_kana": "ギフシ",
    "town": "清本町",
    "town_kana": "セイホンマチ",
    "street": null,
    "office_name": null,
    "office_name_kana": null
  },
  "8352": {
    "postcode": "5008352",
    "prefecture": "岐阜県",
    "prefecture_kana": "ギフケン",
    "prefecture_code": 21,
    "city": "岐阜市",
    "city_kana": "ギフシ",
    "town": "六条",
    "town_kana": "ロクジョウ",
    "street": null,
    "office_name": null,
    "office_name_kana": null
  },
  "8353": {
    "postcode": "5008353",
    "prefecture": "岐阜県",
    "prefecture_kana": "ギフケン",
    "prefecture_code": 21,
    "city": "岐阜市",
    "city_kana": "ギフシ",
    "town": "六条東",
    "town_kana": "ロクジョウヒガシ",
    "street": null,
    "office_name": null,
    "office_name_kana": null
  },
  "8354": {
    "postcode": "5008354",
    "prefecture": "岐阜県",
    "prefecture_kana": "ギフケン",
    "prefecture_code": 21,
    "city": "岐阜市",
    "city_kana": "ギフシ",
    "town": "六条福寿町",
    "town_kana": "ロクジョウフクジュチョウ",
    "street": null,
    "office_name": null,
    "office_name_kana": null
  },
  "8355": {
    "postcode": "5008355",
    "prefecture": "岐阜県",
    "prefecture_kana": "ギフケン",
    "prefecture_code": 21,
    "city": "岐阜市",
    "city_kana": "ギフシ",
    "town": "六条片田",
    "town_kana": "ロクジョウカタダ",
    "street": null,
    "office_name": null,
    "office_name_kana": null
  },
  "8356": {
    "postcode": "5008356",
    "prefecture": "岐阜県",
    "prefecture_kana": "ギフケン",
    "prefecture_code": 21,
    "city": "岐阜市",
    "city_kana": "ギフシ",
    "town": "六条江東",
    "town_kana": "ロクジョウエヒガシ",
    "street": null,
    "office_name": null,
    "office_name_kana": null
  },
  "8357": {
    "postcode": "5008357",
    "prefecture": "岐阜県",
    "prefecture_kana": "ギフケン",
    "prefecture_code": 21,
    "city": "岐阜市",
    "city_kana": "ギフシ",
    "town": "六条大溝",
    "town_kana": "ロクジョウオオミゾ",
    "street": null,
    "office_name": null,
    "office_name_kana": null
  },
  "8358": {
    "postcode": "5008358",
    "prefecture": "岐阜県",
    "prefecture_kana": "ギフケン",
    "prefecture_code": 21,
    "city": "岐阜市",
    "city_kana": "ギフシ",
    "town": "六条南",
    "town_kana": "ロクジョウミナミ",
    "street": null,
    "office_name": null,
    "office_name_kana": null
  },
  "8359": {
    "postcode": "5008359",
    "prefecture": "岐阜県",
    "prefecture_kana": "ギフケン",
    "prefecture_code": 21,
    "city": "岐阜市",
    "city_kana": "ギフシ",
    "town": "六条北",
    "town_kana": "ロクジョウキタ",
    "street": null,
    "office_name": null,
    "office_name_kana": null
  },
  "8361": {
    "postcode": "5008361",
    "prefecture": "岐阜県",
    "prefecture_kana": "ギフケン",
    "prefecture_code": 21,
    "city": "岐阜市",
    "city_kana": "ギフシ",
    "town": "本荘西",
    "town_kana": "ホンジョウニシ",
    "street": null,
    "office_name": null,
    "office_name_kana": null
  },
  "8362": {
    "postcode": "5008362",
    "prefecture": "岐阜県",
    "prefecture_kana": "ギフケン",
    "prefecture_code": 21,
    "city": "岐阜市",
    "city_kana": "ギフシ",
    "town": "西荘",
    "town_kana": "ニシノショウ",
    "street": null,
    "office_name": null,
    "office_name_kana": null
  },
  "8363": {
    "postcode": "5008363",
    "prefecture": "岐阜県",
    "prefecture_kana": "ギフケン",
    "prefecture_code": 21,
    "city": "岐阜市",
    "city_kana": "ギフシ",
    "town": "爪",
    "town_kana": "ツメ",
    "street": null,
    "office_name": null,
    "office_name_kana": null
  },
  "8364": {
    "postcode": "5008364",
    "prefecture": "岐阜県",
    "prefecture_kana": "ギフケン",
    "prefecture_code": 21,
    "city": "岐阜市",
    "city_kana": "ギフシ",
    "town": "本荘中ノ町",
    "town_kana": "ホンジョウナカノマチ",
    "street": null,
    "office_name": null,
    "office_name_kana": null
  },
  "8365": {
    "postcode": "5008365",
    "prefecture": "岐阜県",
    "prefecture_kana": "ギフケン",
    "prefecture_code": 21,
    "city": "岐阜市",
    "city_kana": "ギフシ",
    "town": "柳森町",
    "town_kana": "ヤナギモリチョウ",
    "street": null,
    "office_name": null,
    "office_name_kana": null
  },
  "8366": {
    "postcode": "5008366",
    "prefecture": "岐阜県",
    "prefecture_kana": "ギフケン",
    "prefecture_code": 21,
    "city": "岐阜市",
    "city_kana": "ギフシ",
    "town": "宇佐東町",
    "town_kana": "ウサヒガシマチ",
    "street": null,
    "office_name": null,
    "office_name_kana": null
  },
  "8367": {
    "postcode": "5008367",
    "prefecture": "岐阜県",
    "prefecture_kana": "ギフケン",
    "prefecture_code": 21,
    "city": "岐阜市",
    "city_kana": "ギフシ",
    "town": "宇佐南",
    "town_kana": "ウサミナミ",
    "street": null,
    "office_name": null,
    "office_name_kana": null
  },
  "8368": {
    "postcode": "5008368",
    "prefecture": "岐阜県",
    "prefecture_kana": "ギフケン",
    "prefecture_code": 21,
    "city": "岐阜市",
    "city_kana": "ギフシ",
    "town": "宇佐",
    "town_kana": "ウサ",
    "street": null,
    "office_name": null,
    "office_name_kana": null
  },
  "8369": {
    "postcode": "5008369",
    "prefecture": "岐阜県",
    "prefecture_kana": "ギフケン",
    "prefecture_code": 21,
    "city": "岐阜市",
    "city_kana": "ギフシ",
    "town": "敷島町",
    "town_kana": "シキシマチョウ",
    "street": null,
    "office_name": null,
    "office_name_kana": null
  },
  "8371": {
    "postcode": "5008371",
    "prefecture": "岐阜県",
    "prefecture_kana": "ギフケン",
    "prefecture_code": 21,
    "city": "岐阜市",
    "city_kana": "ギフシ",
    "town": "梅園町",
    "town_kana": "ウメゾノチョウ",
    "street": null,
    "office_name": null,
    "office_name_kana": null
  },
  "8372": {
    "postcode": "5008372",
    "prefecture": "岐阜県",
    "prefecture_kana": "ギフケン",
    "prefecture_code": 21,
    "city": "岐阜市",
    "city_kana": "ギフシ",
    "town": "熊野町",
    "town_kana": "クマノチョウ",
    "street": null,
    "office_name": null,
    "office_name_kana": null
  },
  "8373": {
    "postcode": "5008373",
    "prefecture": "岐阜県",
    "prefecture_kana": "ギフケン",
    "prefecture_code": 21,
    "city": "岐阜市",
    "city_kana": "ギフシ",
    "town": "大池町",
    "town_kana": "オオイケチョウ",
    "street": null,
    "office_name": null,
    "office_name_kana": null
  },
  "8374": {
    "postcode": "5008374",
    "prefecture": "岐阜県",
    "prefecture_kana": "ギフケン",
    "prefecture_code": 21,
    "city": "岐阜市",
    "city_kana": "ギフシ",
    "town": "豊岡町",
    "town_kana": "トヨオカチョウ",
    "street": null,
    "office_name": null,
    "office_name_kana": null
  },
  "8375": {
    "postcode": "5008375",
    "prefecture": "岐阜県",
    "prefecture_kana": "ギフケン",
    "prefecture_code": 21,
    "city": "岐阜市",
    "city_kana": "ギフシ",
    "town": "新興町",
    "town_kana": "シンコウチョウ",
    "street": null,
    "office_name": null,
    "office_name_kana": null
  },
  "8376": {
    "postcode": "5008376",
    "prefecture": "岐阜県",
    "prefecture_kana": "ギフケン",
    "prefecture_code": 21,
    "city": "岐阜市",
    "city_kana": "ギフシ",
    "town": "富沢町",
    "town_kana": "トミザワチョウ",
    "street": null,
    "office_name": null,
    "office_name_kana": null
  },
  "8377": {
    "postcode": "5008377",
    "prefecture": "岐阜県",
    "prefecture_kana": "ギフケン",
    "prefecture_code": 21,
    "city": "岐阜市",
    "city_kana": "ギフシ",
    "town": "瑞穂町",
    "town_kana": "ミズホチョウ",
    "street": null,
    "office_name": null,
    "office_name_kana": null
  },
  "8378": {
    "postcode": "5008378",
    "prefecture": "岐阜県",
    "prefecture_kana": "ギフケン",
    "prefecture_code": 21,
    "city": "岐阜市",
    "city_kana": "ギフシ",
    "town": "雲雀ケ丘",
    "town_kana": "ヒバリガオカ",
    "street": null,
    "office_name": null,
    "office_name_kana": null
  },
  "8379": {
    "postcode": "5008379",
    "prefecture": "岐阜県",
    "prefecture_kana": "ギフケン",
    "prefecture_code": 21,
    "city": "岐阜市",
    "city_kana": "ギフシ",
    "town": "権現町",
    "town_kana": "ゴンゲンチョウ",
    "street": null,
    "office_name": null,
    "office_name_kana": null
  },
  "8381": {
    "postcode": "5008381",
    "prefecture": "岐阜県",
    "prefecture_kana": "ギフケン",
    "prefecture_code": 21,
    "city": "岐阜市",
    "city_kana": "ギフシ",
    "town": "市橋",
    "town_kana": "イチハシ",
    "street": null,
    "office_name": null,
    "office_name_kana": null
  },
  "8382": {
    "postcode": "5008382",
    "prefecture": "岐阜県",
    "prefecture_kana": "ギフケン",
    "prefecture_code": 21,
    "city": "岐阜市",
    "city_kana": "ギフシ",
    "town": "薮田東",
    "town_kana": "ヤブタヒガシ",
    "street": null,
    "office_name": null,
    "office_name_kana": null
  },
  "8383": {
    "postcode": "5008383",
    "prefecture": "岐阜県",
    "prefecture_kana": "ギフケン",
    "prefecture_code": 21,
    "city": "岐阜市",
    "city_kana": "ギフシ",
    "town": "江添",
    "town_kana": "エゾエ",
    "street": null,
    "office_name": null,
    "office_name_kana": null
  },
  "8384": {
    "postcode": "5008384",
    "prefecture": "岐阜県",
    "prefecture_kana": "ギフケン",
    "prefecture_code": 21,
    "city": "岐阜市",
    "city_kana": "ギフシ",
    "town": "薮田南",
    "town_kana": "ヤブタミナミ",
    "street": null,
    "office_name": null,
    "office_name_kana": null
  },
  "8385": {
    "postcode": "5008385",
    "prefecture": "岐阜県",
    "prefecture_kana": "ギフケン",
    "prefecture_code": 21,
    "city": "岐阜市",
    "city_kana": "ギフシ",
    "town": "下奈良",
    "town_kana": "シモナラ",
    "street": null,
    "office_name": null,
    "office_name_kana": null
  },
  "8386": {
    "postcode": "5008386",
    "prefecture": "岐阜県",
    "prefecture_kana": "ギフケン",
    "prefecture_code": 21,
    "city": "岐阜市",
    "city_kana": "ギフシ",
    "town": "薮田西",
    "town_kana": "ヤブタニシ",
    "street": null,
    "office_name": null,
    "office_name_kana": null
  },
  "8387": {
    "postcode": "5008387",
    "prefecture": "岐阜県",
    "prefecture_kana": "ギフケン",
    "prefecture_code": 21,
    "city": "岐阜市",
    "city_kana": "ギフシ",
    "town": "薮田中",
    "town_kana": "ヤブタナカ",
    "street": null,
    "office_name": null,
    "office_name_kana": null
  },
  "8388": {
    "postcode": "5008388",
    "prefecture": "岐阜県",
    "prefecture_kana": "ギフケン",
    "prefecture_code": 21,
    "city": "岐阜市",
    "city_kana": "ギフシ",
    "town": "今嶺",
    "town_kana": "イマミネ",
    "street": null,
    "office_name": null,
    "office_name_kana": null
  },
  "8389": {
    "postcode": "5008389",
    "prefecture": "岐阜県",
    "prefecture_kana": "ギフケン",
    "prefecture_code": 21,
    "city": "岐阜市",
    "city_kana": "ギフシ",
    "town": "本荘",
    "town_kana": "ホンジョウ",
    "street": null,
    "office_name": null,
    "office_name_kana": null
  },
  "8401": {
    "postcode": "5008401",
    "prefecture": "岐阜県",
    "prefecture_kana": "ギフケン",
    "prefecture_code": 21,
    "city": "岐阜市",
    "city_kana": "ギフシ",
    "town": "安良田町",
    "town_kana": "アラタマチ",
    "street": null,
    "office_name": null,
    "office_name_kana": null
  },
  "8402": {
    "postcode": "5008402",
    "prefecture": "岐阜県",
    "prefecture_kana": "ギフケン",
    "prefecture_code": 21,
    "city": "岐阜市",
    "city_kana": "ギフシ",
    "town": "竜田町",
    "town_kana": "タツタマチ",
    "street": null,
    "office_name": null,
    "office_name_kana": null
  },
  "8403": {
    "postcode": "5008403",
    "prefecture": "岐阜県",
    "prefecture_kana": "ギフケン",
    "prefecture_code": 21,
    "city": "岐阜市",
    "city_kana": "ギフシ",
    "town": "一松道",
    "town_kana": "イッショウドウ",
    "street": null,
    "office_name": null,
    "office_name_kana": null
  },
  "8404": {
    "postcode": "5008404",
    "prefecture": "岐阜県",
    "prefecture_kana": "ギフケン",
    "prefecture_code": 21,
    "city": "岐阜市",
    "city_kana": "ギフシ",
    "town": "華陽",
    "town_kana": "カヨウ",
    "street": null,
    "office_name": null,
    "office_name_kana": null
  },
  "8405": {
    "postcode": "5008405",
    "prefecture": "岐阜県",
    "prefecture_kana": "ギフケン",
    "prefecture_code": 21,
    "city": "岐阜市",
    "city_kana": "ギフシ",
    "town": "生田町",
    "town_kana": "イクタマチ",
    "street": null,
    "office_name": null,
    "office_name_kana": null
  },
  "8406": {
    "postcode": "5008406",
    "prefecture": "岐阜県",
    "prefecture_kana": "ギフケン",
    "prefecture_code": 21,
    "city": "岐阜市",
    "city_kana": "ギフシ",
    "town": "平安町",
    "town_kana": "ヘイアンチョウ",
    "street": null,
    "office_name": null,
    "office_name_kana": null
  },
  "8407": {
    "postcode": "5008407",
    "prefecture": "岐阜県",
    "prefecture_kana": "ギフケン",
    "prefecture_code": 21,
    "city": "岐阜市",
    "city_kana": "ギフシ",
    "town": "高砂町",
    "town_kana": "タカサゴチョウ",
    "street": null,
    "office_name": null,
    "office_name_kana": null
  },
  "8408": {
    "postcode": "5008408",
    "prefecture": "岐阜県",
    "prefecture_kana": "ギフケン",
    "prefecture_code": 21,
    "city": "岐阜市",
    "city_kana": "ギフシ",
    "town": "住ノ江町",
    "town_kana": "スミノエチョウ",
    "street": null,
    "office_name": null,
    "office_name_kana": null
  },
  "8409": {
    "postcode": "5008409",
    "prefecture": "岐阜県",
    "prefecture_kana": "ギフケン",
    "prefecture_code": 21,
    "city": "岐阜市",
    "city_kana": "ギフシ",
    "town": "幸ノ町",
    "town_kana": "コウノマチ",
    "street": null,
    "office_name": null,
    "office_name_kana": null
  },
  "8411": {
    "postcode": "5008411",
    "prefecture": "岐阜県",
    "prefecture_kana": "ギフケン",
    "prefecture_code": 21,
    "city": "岐阜市",
    "city_kana": "ギフシ",
    "town": "安宅町",
    "town_kana": "アタカマチ",
    "street": null,
    "office_name": null,
    "office_name_kana": null
  },
  "8412": {
    "postcode": "5008412",
    "prefecture": "岐阜県",
    "prefecture_kana": "ギフケン",
    "prefecture_code": 21,
    "city": "岐阜市",
    "city_kana": "ギフシ",
    "town": "松鴻町",
    "town_kana": "ショウコウチョウ",
    "street": null,
    "office_name": null,
    "office_name_kana": null
  },
  "8413": {
    "postcode": "5008413",
    "prefecture": "岐阜県",
    "prefecture_kana": "ギフケン",
    "prefecture_code": 21,
    "city": "岐阜市",
    "city_kana": "ギフシ",
    "town": "加納東陽町",
    "town_kana": "カノウトウヨウチョウ",
    "street": null,
    "office_name": null,
    "office_name_kana": null
  },
  "8414": {
    "postcode": "5008414",
    "prefecture": "岐阜県",
    "prefecture_kana": "ギフケン",
    "prefecture_code": 21,
    "city": "岐阜市",
    "city_kana": "ギフシ",
    "town": "加納東広江町",
    "town_kana": "カノウヒガシヒロエチョウ",
    "street": null,
    "office_name": null,
    "office_name_kana": null
  },
  "8415": {
    "postcode": "5008415",
    "prefecture": "岐阜県",
    "prefecture_kana": "ギフケン",
    "prefecture_code": 21,
    "city": "岐阜市",
    "city_kana": "ギフシ",
    "town": "加納中広江町",
    "town_kana": "カノウナカヒロエチョウ",
    "street": null,
    "office_name": null,
    "office_name_kana": null
  },
  "8416": {
    "postcode": "5008416",
    "prefecture": "岐阜県",
    "prefecture_kana": "ギフケン",
    "prefecture_code": 21,
    "city": "岐阜市",
    "city_kana": "ギフシ",
    "town": "加納徳川町",
    "town_kana": "カノウトクガワチョウ",
    "street": null,
    "office_name": null,
    "office_name_kana": null
  },
  "8417": {
    "postcode": "5008417",
    "prefecture": "岐阜県",
    "prefecture_kana": "ギフケン",
    "prefecture_code": 21,
    "city": "岐阜市",
    "city_kana": "ギフシ",
    "town": "加納清田町",
    "town_kana": "カノウキヨダマチ",
    "street": null,
    "office_name": null,
    "office_name_kana": null
  },
  "8418": {
    "postcode": "5008418",
    "prefecture": "岐阜県",
    "prefecture_kana": "ギフケン",
    "prefecture_code": 21,
    "city": "岐阜市",
    "city_kana": "ギフシ",
    "town": "加納西広江町",
    "town_kana": "カノウニシヒロエチョウ",
    "street": null,
    "office_name": null,
    "office_name_kana": null
  },
  "8419": {
    "postcode": "5008419",
    "prefecture": "岐阜県",
    "prefecture_kana": "ギフケン",
    "prefecture_code": 21,
    "city": "岐阜市",
    "city_kana": "ギフシ",
    "town": "加納北広江町",
    "town_kana": "カノウキタヒロエチョウ",
    "street": null,
    "office_name": null,
    "office_name_kana": null
  },
  "8421": {
    "postcode": "5008421",
    "prefecture": "岐阜県",
    "prefecture_kana": "ギフケン",
    "prefecture_code": 21,
    "city": "岐阜市",
    "city_kana": "ギフシ",
    "town": "加納新柳町",
    "town_kana": "カノウシンヤナギマチ",
    "street": null,
    "office_name": null,
    "office_name_kana": null
  },
  "8422": {
    "postcode": "5008422",
    "prefecture": "岐阜県",
    "prefecture_kana": "ギフケン",
    "prefecture_code": 21,
    "city": "岐阜市",
    "city_kana": "ギフシ",
    "town": "加納安良町",
    "town_kana": "カノウアラマチ",
    "street": null,
    "office_name": null,
    "office_name_kana": null
  },
  "8423": {
    "postcode": "5008423",
    "prefecture": "岐阜県",
    "prefecture_kana": "ギフケン",
    "prefecture_code": 21,
    "city": "岐阜市",
    "city_kana": "ギフシ",
    "town": "渋谷町",
    "town_kana": "シブヤチョウ",
    "street": null,
    "office_name": null,
    "office_name_kana": null
  },
  "8424": {
    "postcode": "5008424",
    "prefecture": "岐阜県",
    "prefecture_kana": "ギフケン",
    "prefecture_code": 21,
    "city": "岐阜市",
    "city_kana": "ギフシ",
    "town": "加納柳町",
    "town_kana": "カノウヤナギマチ",
    "street": null,
    "office_name": null,
    "office_name_kana": null
  },
  "8425": {
    "postcode": "5008425",
    "prefecture": "岐阜県",
    "prefecture_kana": "ギフケン",
    "prefecture_code": 21,
    "city": "岐阜市",
    "city_kana": "ギフシ",
    "town": "加納新町",
    "town_kana": "カノウシンマチ",
    "street": null,
    "office_name": null,
    "office_name_kana": null
  },
  "8426": {
    "postcode": "5008426",
    "prefecture": "岐阜県",
    "prefecture_kana": "ギフケン",
    "prefecture_code": 21,
    "city": "岐阜市",
    "city_kana": "ギフシ",
    "town": "加納南広江町",
    "town_kana": "カノウミナミヒロエチョウ",
    "street": null,
    "office_name": null,
    "office_name_kana": null
  },
  "8427": {
    "postcode": "5008427",
    "prefecture": "岐阜県",
    "prefecture_kana": "ギフケン",
    "prefecture_code": 21,
    "city": "岐阜市",
    "city_kana": "ギフシ",
    "town": "加納大石町",
    "town_kana": "カノウオオイシチョウ",
    "street": null,
    "office_name": null,
    "office_name_kana": null
  },
  "8428": {
    "postcode": "5008428",
    "prefecture": "岐阜県",
    "prefecture_kana": "ギフケン",
    "prefecture_code": 21,
    "city": "岐阜市",
    "city_kana": "ギフシ",
    "town": "加納桜道",
    "town_kana": "カノウサクラミチ",
    "street": null,
    "office_name": null,
    "office_name_kana": null
  },
  "8429": {
    "postcode": "5008429",
    "prefecture": "岐阜県",
    "prefecture_kana": "ギフケン",
    "prefecture_code": 21,
    "city": "岐阜市",
    "city_kana": "ギフシ",
    "town": "加納清水町",
    "town_kana": "カノウシミズチョウ",
    "street": null,
    "office_name": null,
    "office_name_kana": null
  },
  "8431": {
    "postcode": "5008431",
    "prefecture": "岐阜県",
    "prefecture_kana": "ギフケン",
    "prefecture_code": 21,
    "city": "岐阜市",
    "city_kana": "ギフシ",
    "town": "加納八幡町",
    "town_kana": "カノウハチマンチョウ",
    "street": null,
    "office_name": null,
    "office_name_kana": null
  },
  "8432": {
    "postcode": "5008432",
    "prefecture": "岐阜県",
    "prefecture_kana": "ギフケン",
    "prefecture_code": 21,
    "city": "岐阜市",
    "city_kana": "ギフシ",
    "town": "畷町",
    "town_kana": "ナワテマチ",
    "street": null,
    "office_name": null,
    "office_name_kana": null
  },
  "8433": {
    "postcode": "5008433",
    "prefecture": "岐阜県",
    "prefecture_kana": "ギフケン",
    "prefecture_code": 21,
    "city": "岐阜市",
    "city_kana": "ギフシ",
    "town": "若杉町",
    "town_kana": "ワカスギチョウ",
    "street": null,
    "office_name": null,
    "office_name_kana": null
  },
  "8434": {
    "postcode": "5008434",
    "prefecture": "岐阜県",
    "prefecture_kana": "ギフケン",
    "prefecture_code": 21,
    "city": "岐阜市",
    "city_kana": "ギフシ",
    "town": "向陽町",
    "town_kana": "コウヨウチョウ",
    "street": null,
    "office_name": null,
    "office_name_kana": null
  },
  "8435": {
    "postcode": "5008435",
    "prefecture": "岐阜県",
    "prefecture_kana": "ギフケン",
    "prefecture_code": 21,
    "city": "岐阜市",
    "city_kana": "ギフシ",
    "town": "宮北町",
    "town_kana": "ミヤキタチョウ",
    "street": null,
    "office_name": null,
    "office_name_kana": null
  },
  "8436": {
    "postcode": "5008436",
    "prefecture": "岐阜県",
    "prefecture_kana": "ギフケン",
    "prefecture_code": 21,
    "city": "岐阜市",
    "city_kana": "ギフシ",
    "town": "東明見町",
    "town_kana": "ヒガシアケミチョウ",
    "street": null,
    "office_name": null,
    "office_name_kana": null
  },
  "8437": {
    "postcode": "5008437",
    "prefecture": "岐阜県",
    "prefecture_kana": "ギフケン",
    "prefecture_code": 21,
    "city": "岐阜市",
    "city_kana": "ギフシ",
    "town": "石切町",
    "town_kana": "イシキリチョウ",
    "street": null,
    "office_name": null,
    "office_name_kana": null
  },
  "8438": {
    "postcode": "5008438",
    "prefecture": "岐阜県",
    "prefecture_kana": "ギフケン",
    "prefecture_code": 21,
    "city": "岐阜市",
    "city_kana": "ギフシ",
    "town": "島原町",
    "town_kana": "シマバラチョウ",
    "street": null,
    "office_name": null,
    "office_name_kana": null
  },
  "8439": {
    "postcode": "5008439",
    "prefecture": "岐阜県",
    "prefecture_kana": "ギフケン",
    "prefecture_code": 21,
    "city": "岐阜市",
    "city_kana": "ギフシ",
    "town": "村里町",
    "town_kana": "ムラサトチョウ",
    "street": null,
    "office_name": null,
    "office_name_kana": null
  },
  "8441": {
    "postcode": "5008441",
    "prefecture": "岐阜県",
    "prefecture_kana": "ギフケン",
    "prefecture_code": 21,
    "city": "岐阜市",
    "city_kana": "ギフシ",
    "town": "城東通",
    "town_kana": "ジョウトウドオリ",
    "street": null,
    "office_name": null,
    "office_name_kana": null
  },
  "8442": {
    "postcode": "5008442",
    "prefecture": "岐阜県",
    "prefecture_kana": "ギフケン",
    "prefecture_code": 21,
    "city": "岐阜市",
    "city_kana": "ギフシ",
    "town": "正法寺町",
    "town_kana": "ショウホウジチョウ",
    "street": null,
    "office_name": null,
    "office_name_kana": null
  },
  "8443": {
    "postcode": "5008443",
    "prefecture": "岐阜県",
    "prefecture_kana": "ギフケン",
    "prefecture_code": 21,
    "city": "岐阜市",
    "city_kana": "ギフシ",
    "town": "神楽町",
    "town_kana": "カグラチョウ",
    "street": null,
    "office_name": null,
    "office_name_kana": null
  },
  "8444": {
    "postcode": "5008444",
    "prefecture": "岐阜県",
    "prefecture_kana": "ギフケン",
    "prefecture_code": 21,
    "city": "岐阜市",
    "city_kana": "ギフシ",
    "town": "西明見町",
    "town_kana": "ニシアケミチョウ",
    "street": null,
    "office_name": null,
    "office_name_kana": null
  },
  "8445": {
    "postcode": "5008445",
    "prefecture": "岐阜県",
    "prefecture_kana": "ギフケン",
    "prefecture_code": 21,
    "city": "岐阜市",
    "city_kana": "ギフシ",
    "town": "八島町",
    "town_kana": "ヤシマチョウ",
    "street": null,
    "office_name": null,
    "office_name_kana": null
  },
  "8446": {
    "postcode": "5008446",
    "prefecture": "岐阜県",
    "prefecture_kana": "ギフケン",
    "prefecture_code": 21,
    "city": "岐阜市",
    "city_kana": "ギフシ",
    "town": "矢倉町",
    "town_kana": "ヤクラチョウ",
    "street": null,
    "office_name": null,
    "office_name_kana": null
  },
  "8447": {
    "postcode": "5008447",
    "prefecture": "岐阜県",
    "prefecture_kana": "ギフケン",
    "prefecture_code": 21,
    "city": "岐阜市",
    "city_kana": "ギフシ",
    "town": "大倉町",
    "town_kana": "オオクラチョウ",
    "street": null,
    "office_name": null,
    "office_name_kana": null
  },
  "8448": {
    "postcode": "5008448",
    "prefecture": "岐阜県",
    "prefecture_kana": "ギフケン",
    "prefecture_code": 21,
    "city": "岐阜市",
    "city_kana": "ギフシ",
    "town": "中洲町",
    "town_kana": "ナカスチョウ",
    "street": null,
    "office_name": null,
    "office_name_kana": null
  },
  "8449": {
    "postcode": "5008449",
    "prefecture": "岐阜県",
    "prefecture_kana": "ギフケン",
    "prefecture_code": 21,
    "city": "岐阜市",
    "city_kana": "ギフシ",
    "town": "荒川町",
    "town_kana": "アラカワチョウ",
    "street": null,
    "office_name": null,
    "office_name_kana": null
  },
  "8451": {
    "postcode": "5008451",
    "prefecture": "岐阜県",
    "prefecture_kana": "ギフケン",
    "prefecture_code": 21,
    "city": "岐阜市",
    "city_kana": "ギフシ",
    "town": "加納上本町",
    "town_kana": "カノウカミホンマチ",
    "street": null,
    "office_name": null,
    "office_name_kana": null
  },
  "8452": {
    "postcode": "5008452",
    "prefecture": "岐阜県",
    "prefecture_kana": "ギフケン",
    "prefecture_code": 21,
    "city": "岐阜市",
    "city_kana": "ギフシ",
    "town": "加納朝日町",
    "town_kana": "カノウアサヒマチ",
    "street": null,
    "office_name": null,
    "office_name_kana": null
  },
  "8453": {
    "postcode": "5008453",
    "prefecture": "岐阜県",
    "prefecture_kana": "ギフケン",
    "prefecture_code": 21,
    "city": "岐阜市",
    "city_kana": "ギフシ",
    "town": "加納鉄砲町",
    "town_kana": "カノウテッポウチョウ",
    "street": null,
    "office_name": null,
    "office_name_kana": null
  },
  "8454": {
    "postcode": "5008454",
    "prefecture": "岐阜県",
    "prefecture_kana": "ギフケン",
    "prefecture_code": 21,
    "city": "岐阜市",
    "city_kana": "ギフシ",
    "town": "加納永井町",
    "town_kana": "カノウナガイチョウ",
    "street": null,
    "office_name": null,
    "office_name_kana": null
  },
  "8455": {
    "postcode": "5008455",
    "prefecture": "岐阜県",
    "prefecture_kana": "ギフケン",
    "prefecture_code": 21,
    "city": "岐阜市",
    "city_kana": "ギフシ",
    "town": "加納栄町通",
    "town_kana": "カノウサカエマチドオリ",
    "street": null,
    "office_name": null,
    "office_name_kana": null
  },
  "8456": {
    "postcode": "5008456",
    "prefecture": "岐阜県",
    "prefecture_kana": "ギフケン",
    "prefecture_code": 21,
    "city": "岐阜市",
    "city_kana": "ギフシ",
    "town": "加納大黒町",
    "town_kana": "カノウダイコクチョウ",
    "street": null,
    "office_name": null,
    "office_name_kana": null
  },
  "8457": {
    "postcode": "5008457",
    "prefecture": "岐阜県",
    "prefecture_kana": "ギフケン",
    "prefecture_code": 21,
    "city": "岐阜市",
    "city_kana": "ギフシ",
    "town": "加納青藤町",
    "town_kana": "カノウアオフジチョウ",
    "street": null,
    "office_name": null,
    "office_name_kana": null
  },
  "8458": {
    "postcode": "5008458",
    "prefecture": "岐阜県",
    "prefecture_kana": "ギフケン",
    "prefecture_code": 21,
    "city": "岐阜市",
    "city_kana": "ギフシ",
    "town": "加納村松町",
    "town_kana": "カノウムラマツチョウ",
    "street": null,
    "office_name": null,
    "office_name_kana": null
  },
  "8459": {
    "postcode": "5008459",
    "prefecture": "岐阜県",
    "prefecture_kana": "ギフケン",
    "prefecture_code": 21,
    "city": "岐阜市",
    "city_kana": "ギフシ",
    "town": "加納高柳町",
    "town_kana": "カノウタカヤナギチョウ",
    "street": null,
    "office_name": null,
    "office_name_kana": null
  },
  "8461": {
    "postcode": "5008461",
    "prefecture": "岐阜県",
    "prefecture_kana": "ギフケン",
    "prefecture_code": 21,
    "city": "岐阜市",
    "city_kana": "ギフシ",
    "town": "加納黒木町",
    "town_kana": "カノウクロキチョウ",
    "street": null,
    "office_name": null,
    "office_name_kana": null
  },
  "8462": {
    "postcode": "5008462",
    "prefecture": "岐阜県",
    "prefecture_kana": "ギフケン",
    "prefecture_code": 21,
    "city": "岐阜市",
    "city_kana": "ギフシ",
    "town": "加納神明町",
    "town_kana": "カノウシンメイチョウ",
    "street": null,
    "office_name": null,
    "office_name_kana": null
  },
  "8463": {
    "postcode": "5008463",
    "prefecture": "岐阜県",
    "prefecture_kana": "ギフケン",
    "prefecture_code": 21,
    "city": "岐阜市",
    "city_kana": "ギフシ",
    "town": "加納新本町",
    "town_kana": "カノウシンホンマチ",
    "street": null,
    "office_name": null,
    "office_name_kana": null
  },
  "8464": {
    "postcode": "5008464",
    "prefecture": "岐阜県",
    "prefecture_kana": "ギフケン",
    "prefecture_code": 21,
    "city": "岐阜市",
    "city_kana": "ギフシ",
    "town": "加納前田町",
    "town_kana": "カノウマエダマチ",
    "street": null,
    "office_name": null,
    "office_name_kana": null
  },
  "8465": {
    "postcode": "5008465",
    "prefecture": "岐阜県",
    "prefecture_kana": "ギフケン",
    "prefecture_code": 21,
    "city": "岐阜市",
    "city_kana": "ギフシ",
    "town": "加納寿町",
    "town_kana": "カノウコトブキチョウ",
    "street": null,
    "office_name": null,
    "office_name_kana": null
  },
  "8466": {
    "postcode": "5008466",
    "prefecture": "岐阜県",
    "prefecture_kana": "ギフケン",
    "prefecture_code": 21,
    "city": "岐阜市",
    "city_kana": "ギフシ",
    "town": "加納本石町",
    "town_kana": "カノウホンゴクチョウ",
    "street": null,
    "office_name": null,
    "office_name_kana": null
  },
  "8467": {
    "postcode": "5008467",
    "prefecture": "岐阜県",
    "prefecture_kana": "ギフケン",
    "prefecture_code": 21,
    "city": "岐阜市",
    "city_kana": "ギフシ",
    "town": "加納三笠町",
    "town_kana": "カノウミカサチョウ",
    "street": null,
    "office_name": null,
    "office_name_kana": null
  },
  "8468": {
    "postcode": "5008468",
    "prefecture": "岐阜県",
    "prefecture_kana": "ギフケン",
    "prefecture_code": 21,
    "city": "岐阜市",
    "city_kana": "ギフシ",
    "town": "加納桜田町",
    "town_kana": "カノウサクラダチョウ",
    "street": null,
    "office_name": null,
    "office_name_kana": null
  },
  "8469": {
    "postcode": "5008469",
    "prefecture": "岐阜県",
    "prefecture_kana": "ギフケン",
    "prefecture_code": 21,
    "city": "岐阜市",
    "city_kana": "ギフシ",
    "town": "加納竜興町",
    "town_kana": "カノウリュウコウチョウ",
    "street": null,
    "office_name": null,
    "office_name_kana": null
  },
  "8471": {
    "postcode": "5008471",
    "prefecture": "岐阜県",
    "prefecture_kana": "ギフケン",
    "prefecture_code": 21,
    "city": "岐阜市",
    "city_kana": "ギフシ",
    "town": "加納富士町",
    "town_kana": "カノウフジマチ",
    "street": null,
    "office_name": null,
    "office_name_kana": null
  },
  "8472": {
    "postcode": "5008472",
    "prefecture": "岐阜県",
    "prefecture_kana": "ギフケン",
    "prefecture_code": 21,
    "city": "岐阜市",
    "city_kana": "ギフシ",
    "town": "加納清野町",
    "town_kana": "カノウキヨノマチ",
    "street": null,
    "office_name": null,
    "office_name_kana": null
  },
  "8473": {
    "postcode": "5008473",
    "prefecture": "岐阜県",
    "prefecture_kana": "ギフケン",
    "prefecture_code": 21,
    "city": "岐阜市",
    "city_kana": "ギフシ",
    "town": "加納天神町",
    "town_kana": "カノウテンジンマチ",
    "street": null,
    "office_name": null,
    "office_name_kana": null
  },
  "8474": {
    "postcode": "5008474",
    "prefecture": "岐阜県",
    "prefecture_kana": "ギフケン",
    "prefecture_code": 21,
    "city": "岐阜市",
    "city_kana": "ギフシ",
    "town": "加納本町",
    "town_kana": "カノウホンマチ",
    "street": null,
    "office_name": null,
    "office_name_kana": null
  },
  "8475": {
    "postcode": "5008475",
    "prefecture": "岐阜県",
    "prefecture_kana": "ギフケン",
    "prefecture_code": 21,
    "city": "岐阜市",
    "city_kana": "ギフシ",
    "town": "加納坂井町",
    "town_kana": "カノウサカイマチ",
    "street": null,
    "office_name": null,
    "office_name_kana": null
  },
  "8476": {
    "postcode": "5008476",
    "prefecture": "岐阜県",
    "prefecture_kana": "ギフケン",
    "prefecture_code": 21,
    "city": "岐阜市",
    "city_kana": "ギフシ",
    "town": "加納愛宕町",
    "town_kana": "カノウアタゴチョウ",
    "street": null,
    "office_name": null,
    "office_name_kana": null
  },
  "8477": {
    "postcode": "5008477",
    "prefecture": "岐阜県",
    "prefecture_kana": "ギフケン",
    "prefecture_code": 21,
    "city": "岐阜市",
    "city_kana": "ギフシ",
    "town": "加納水野町",
    "town_kana": "カノウミズノマチ",
    "street": null,
    "office_name": null,
    "office_name_kana": null
  },
  "8478": {
    "postcode": "5008478",
    "prefecture": "岐阜県",
    "prefecture_kana": "ギフケン",
    "prefecture_code": 21,
    "city": "岐阜市",
    "city_kana": "ギフシ",
    "town": "加納伏見町",
    "town_kana": "カノウフシミチョウ",
    "street": null,
    "office_name": null,
    "office_name_kana": null
  },
  "8479": {
    "postcode": "5008479",
    "prefecture": "岐阜県",
    "prefecture_kana": "ギフケン",
    "prefecture_code": 21,
    "city": "岐阜市",
    "city_kana": "ギフシ",
    "town": "加納菱野町",
    "town_kana": "カノウヒシノマチ",
    "street": null,
    "office_name": null,
    "office_name_kana": null
  },
  "8481": {
    "postcode": "5008481",
    "prefecture": "岐阜県",
    "prefecture_kana": "ギフケン",
    "prefecture_code": 21,
    "city": "岐阜市",
    "city_kana": "ギフシ",
    "town": "加納沓井町",
    "town_kana": "カノウクツイチョウ",
    "street": null,
    "office_name": null,
    "office_name_kana": null
  },
  "8482": {
    "postcode": "5008482",
    "prefecture": "岐阜県",
    "prefecture_kana": "ギフケン",
    "prefecture_code": 21,
    "city": "岐阜市",
    "city_kana": "ギフシ",
    "town": "加納大手町",
    "town_kana": "カノウオオテマチ",
    "street": null,
    "office_name": null,
    "office_name_kana": null
  },
  "8483": {
    "postcode": "5008483",
    "prefecture": "岐阜県",
    "prefecture_kana": "ギフケン",
    "prefecture_code": 21,
    "city": "岐阜市",
    "city_kana": "ギフシ",
    "town": "加納東丸町",
    "town_kana": "カノウヒガシマルチョウ",
    "street": null,
    "office_name": null,
    "office_name_kana": null
  },
  "8484": {
    "postcode": "5008484",
    "prefecture": "岐阜県",
    "prefecture_kana": "ギフケン",
    "prefecture_code": 21,
    "city": "岐阜市",
    "city_kana": "ギフシ",
    "town": "加納二之丸",
    "town_kana": "カノウニノマル",
    "street": null,
    "office_name": null,
    "office_name_kana": null
  },
  "8485": {
    "postcode": "5008485",
    "prefecture": "岐阜県",
    "prefecture_kana": "ギフケン",
    "prefecture_code": 21,
    "city": "岐阜市",
    "city_kana": "ギフシ",
    "town": "加納丸之内",
    "town_kana": "カノウマルノウチ",
    "street": null,
    "office_name": null,
    "office_name_kana": null
  },
  "8486": {
    "postcode": "5008486",
    "prefecture": "岐阜県",
    "prefecture_kana": "ギフケン",
    "prefecture_code": 21,
    "city": "岐阜市",
    "city_kana": "ギフシ",
    "town": "加納城南通",
    "town_kana": "カノウジョウナンドオリ",
    "street": null,
    "office_name": null,
    "office_name_kana": null
  },
  "8487": {
    "postcode": "5008487",
    "prefecture": "岐阜県",
    "prefecture_kana": "ギフケン",
    "prefecture_code": 21,
    "city": "岐阜市",
    "city_kana": "ギフシ",
    "town": "加納長刀堀",
    "town_kana": "カノウナギナタボリ",
    "street": null,
    "office_name": null,
    "office_name_kana": null
  },
  "8488": {
    "postcode": "5008488",
    "prefecture": "岐阜県",
    "prefecture_kana": "ギフケン",
    "prefecture_code": 21,
    "city": "岐阜市",
    "city_kana": "ギフシ",
    "town": "加納西丸町",
    "town_kana": "カノウニシマルチョウ",
    "street": null,
    "office_name": null,
    "office_name_kana": null
  },
  "8489": {
    "postcode": "5008489",
    "prefecture": "岐阜県",
    "prefecture_kana": "ギフケン",
    "prefecture_code": 21,
    "city": "岐阜市",
    "city_kana": "ギフシ",
    "town": "稲荷山",
    "town_kana": "イナリヤマ",
    "street": null,
    "office_name": null,
    "office_name_kana": null
  },
  "8501": {
    "postcode": "5008501",
    "prefecture": "岐阜県",
    "prefecture_kana": "ギフケン",
    "prefecture_code": 21,
    "city": "岐阜市",
    "city_kana": "ギフシ",
    "town": "薮田南",
    "town_kana": "ヤブタミナミ",
    "street": "２丁目１−１",
    "office_name": "岐阜県警察本部",
    "office_name_kana": "ギフケンケイサツホンブ"
  },
  "8502": {
    "postcode": "5008502",
    "prefecture": "岐阜県",
    "prefecture_kana": "ギフケン",
    "prefecture_code": 21,
    "city": "岐阜市",
    "city_kana": "ギフシ",
    "town": "薮田東",
    "town_kana": "ヤブタヒガシ",
    "street": "１丁目２−２",
    "office_name": "社団法人　岐阜県建設業協会",
    "office_name_kana": "シヤダンホウジン ギフケンケンセツギヨウキヨウカイ"
  },
  "8503": {
    "postcode": "5008503",
    "prefecture": "岐阜県",
    "prefecture_kana": "ギフケン",
    "prefecture_code": 21,
    "city": "岐阜市",
    "city_kana": "ギフシ",
    "town": "薮田南",
    "town_kana": "ヤブタミナミ",
    "street": "５丁目１４−５３",
    "office_name": "岐阜県信用保証協会",
    "office_name_kana": "ギフケンシンヨウホシヨウキヨウカイ"
  },
  "8504": {
    "postcode": "5008504",
    "prefecture": "岐阜県",
    "prefecture_kana": "ギフケン",
    "prefecture_code": 21,
    "city": "岐阜市",
    "city_kana": "ギフシ",
    "town": "薮田南",
    "town_kana": "ヤブタミナミ",
    "street": "５丁目１４番５３号岐阜県県民ふれあい会館内",
    "office_name": "岐阜県音楽療法研究所",
    "office_name_kana": "ギフケンオンガクリヨウホウケンキユウシヨ"
  },
  "8505": {
    "postcode": "5008505",
    "prefecture": "岐阜県",
    "prefecture_kana": "ギフケン",
    "prefecture_code": 21,
    "city": "岐阜市",
    "city_kana": "ギフシ",
    "town": "薮田南",
    "town_kana": "ヤブタミナミ",
    "street": "５丁目１４番５３号",
    "office_name": "財団法人　岐阜県産業経済振興センター",
    "office_name_kana": "ザイダンホウジン ギフケンサンギヨウケイザイシンコウセンタ-"
  },
  "8507": {
    "postcode": "5008507",
    "prefecture": "岐阜県",
    "prefecture_kana": "ギフケン",
    "prefecture_code": 21,
    "city": "岐阜市",
    "city_kana": "ギフシ",
    "town": "薮田南",
    "town_kana": "ヤブタミナミ",
    "street": "１丁目１４番５３号",
    "office_name": "岐阜県県民ふれあい会館",
    "office_name_kana": "ギフケンケンミンフレアイカイカン"
  },
  "8508": {
    "postcode": "5008508",
    "prefecture": "岐阜県",
    "prefecture_kana": "ギフケン",
    "prefecture_code": 21,
    "city": "岐阜市",
    "city_kana": "ギフシ",
    "town": "薮田南",
    "town_kana": "ヤブタミナミ",
    "street": "５丁目１４−５３岐阜県県民ふれあい会館１３階",
    "office_name": "岐阜県市町村職員共済組合",
    "office_name_kana": "ギフケンシチヨウソンシヨクインキヨウサイクミアイ"
  },
  "8510": {
    "postcode": "5008510",
    "prefecture": "岐阜県",
    "prefecture_kana": "ギフケン",
    "prefecture_code": 21,
    "city": "岐阜市",
    "city_kana": "ギフシ",
    "town": "薮田南",
    "town_kana": "ヤブタミナミ",
    "street": "３丁目５−１１",
    "office_name": "社団法人　岐阜県医師会",
    "office_name_kana": "シヤダンホウジン ギフケンイシカイ"
  },
  "8513": {
    "postcode": "5008513",
    "prefecture": "岐阜県",
    "prefecture_kana": "ギフケン",
    "prefecture_code": 21,
    "city": "岐阜市",
    "city_kana": "ギフシ",
    "town": "鹿島町",
    "town_kana": "カシマチョウ",
    "street": "７丁目１",
    "office_name": "岐阜市民病院",
    "office_name_kana": "ギフシミンビヨウイン"
  },
  "8515": {
    "postcode": "5008515",
    "prefecture": "岐阜県",
    "prefecture_kana": "ギフケン",
    "prefecture_code": 21,
    "city": "岐阜市",
    "city_kana": "ギフシ",
    "town": "大宝町",
    "town_kana": "ダイホウチョウ",
    "street": "２丁目１４番地",
    "office_name": "シンガポール　株式会社",
    "office_name_kana": "シンガポ-ル カブシキガイシヤ"
  },
  "8518": {
    "postcode": "5008518",
    "prefecture": "岐阜県",
    "prefecture_kana": "ギフケン",
    "prefecture_code": 21,
    "city": "岐阜市",
    "city_kana": "ギフシ",
    "town": "鹿島町",
    "town_kana": "カシマチョウ",
    "street": "６丁目２７",
    "office_name": "株式会社　市川工務店",
    "office_name_kana": "カブシキガイシヤ イチカワコウムテン"
  },
  "8521": {
    "postcode": "5008521",
    "prefecture": "岐阜県",
    "prefecture_kana": "ギフケン",
    "prefecture_code": 21,
    "city": "岐阜市",
    "city_kana": "ギフシ",
    "town": "橋本町",
    "town_kana": "ハシモトチョウ",
    "street": "１丁目１０番地２３",
    "office_name": "ハートフルスクエアＧ",
    "office_name_kana": "ハ-トフルスクエアジ-"
  },
  "8522": {
    "postcode": "5008522",
    "prefecture": "岐阜県",
    "prefecture_kana": "ギフケン",
    "prefecture_code": 21,
    "city": "岐阜市",
    "city_kana": "ギフシ",
    "town": "加納神明町",
    "town_kana": "カノウシンメイチョウ",
    "street": "２丁目８",
    "office_name": "イギン　株式会社",
    "office_name_kana": "イギン カブシキガイシヤ"
  },
  "8523": {
    "postcode": "5008523",
    "prefecture": "岐阜県",
    "prefecture_kana": "ギフケン",
    "prefecture_code": 21,
    "city": "岐阜市",
    "city_kana": "ギフシ",
    "town": "橋本町",
    "town_kana": "ハシモトチョウ",
    "street": "３丁目２３",
    "office_name": "朝日大学歯学部附属村上記念病院",
    "office_name_kana": "アサヒダイガクシガクブフゾクムラカミキネンビヨウイン"
  },
  "8524": {
    "postcode": "5008524",
    "prefecture": "岐阜県",
    "prefecture_kana": "ギフケン",
    "prefecture_code": 21,
    "city": "岐阜市",
    "city_kana": "ギフシ",
    "town": "金町",
    "town_kana": "コガネマチ",
    "street": "５丁目２４",
    "office_name": "住友生命保険　相互会社　岐阜支社",
    "office_name_kana": "スミトモセイメイホケン ソウゴガイシヤ ギフシシヤ"
  },
  "8525": {
    "postcode": "5008525",
    "prefecture": "岐阜県",
    "prefecture_kana": "ギフケン",
    "prefecture_code": 21,
    "city": "岐阜市",
    "city_kana": "ギフシ",
    "town": "日ノ出町",
    "town_kana": "ヒノデマチ",
    "street": "２丁目２５",
    "office_name": "株式会社　高島屋　岐阜店",
    "office_name_kana": "カブシキガイシヤ タカシマヤ ギフテン"
  },
  "8530": {
    "postcode": "5008530",
    "prefecture": "岐阜県",
    "prefecture_kana": "ギフケン",
    "prefecture_code": 21,
    "city": "岐阜市",
    "city_kana": "ギフシ",
    "town": "",
    "town_kana": "",
    "street": "長住町香蘭地区ＮＴＴドコモ東海岐阜ビル",
    "office_name": "株式会社　エヌ・ティ・ティ・ドコモ東海　岐阜支店",
    "office_name_kana": "カブシキガイシヤ エヌ・テイ・テイ・ドコモトウカイ ギフシテン"
  },
  "8533": {
    "postcode": "5008533",
    "prefecture": "岐阜県",
    "prefecture_kana": "ギフケン",
    "prefecture_code": 21,
    "city": "岐阜市",
    "city_kana": "ギフシ",
    "town": "加納坂井町",
    "town_kana": "カノウサカイマチ",
    "street": "２",
    "office_name": "東邦ガス　株式会社　岐阜営業所",
    "office_name_kana": "トウホウガス カブシキガイシヤ ギフエイギヨウシヨ"
  },
  "8535": {
    "postcode": "5008535",
    "prefecture": "岐阜県",
    "prefecture_kana": "ギフケン",
    "prefecture_code": 21,
    "city": "岐阜市",
    "city_kana": "ギフシ",
    "town": "加納寿町",
    "town_kana": "カノウコトブキチョウ",
    "street": "４丁目１番地",
    "office_name": "ラブリークィーン　株式会社",
    "office_name_kana": "ラブリ-クイ-ン カブシキガイシヤ"
  },
  "8540": {
    "postcode": "5008540",
    "prefecture": "岐阜県",
    "prefecture_kana": "ギフケン",
    "prefecture_code": 21,
    "city": "岐阜市",
    "city_kana": "ギフシ",
    "town": "金町",
    "town_kana": "コガネマチ",
    "street": "５丁目２４川紡住生ビル六階",
    "office_name": "住友海上火災保険　株式会社　岐阜支店",
    "office_name_kana": "スミトモカイジヨウカサイホケン カブシキガイシヤ ギフシテン"
  },
  "8541": {
    "postcode": "5008541",
    "prefecture": "岐阜県",
    "prefecture_kana": "ギフケン",
    "prefecture_code": 21,
    "city": "岐阜市",
    "city_kana": "ギフシ",
    "town": "橋本町",
    "town_kana": "ハシモトチョウ",
    "street": "２丁目８番地",
    "office_name": "丸佐　株式会社",
    "office_name_kana": "マルサ カブシキガイシヤ"
  },
  "8544": {
    "postcode": "5008544",
    "prefecture": "岐阜県",
    "prefecture_kana": "ギフケン",
    "prefecture_code": 21,
    "city": "岐阜市",
    "city_kana": "ギフシ",
    "town": "茜部菱野",
    "town_kana": "アカナベヒシノ",
    "street": "１丁目６０（岐阜中央郵便局私書箱第７３号）",
    "office_name": "吉岡　株式会社",
    "office_name_kana": "ヨシオカ カブシキガイシヤ"
  },
  "8545": {
    "postcode": "5008545",
    "prefecture": "岐阜県",
    "prefecture_kana": "ギフケン",
    "prefecture_code": 21,
    "city": "岐阜市",
    "city_kana": "ギフシ",
    "town": "若宮町",
    "town_kana": "ワカミヤチョウ",
    "street": "９丁目１６",
    "office_name": "商工組合中央金庫　岐阜支店",
    "office_name_kana": "シヨウコウクミアイチユウオウキンコ ギフシテン"
  },
  "8550": {
    "postcode": "5008550",
    "prefecture": "岐阜県",
    "prefecture_kana": "ギフケン",
    "prefecture_code": 21,
    "city": "岐阜市",
    "city_kana": "ギフシ",
    "town": "竜田町",
    "town_kana": "タツタマチ",
    "street": "４丁目８（岐阜中央郵便局私書箱第８１号）",
    "office_name": "株式会社　篠田商会",
    "office_name_kana": "カブシキガイシヤ シノダシヨウカイ"
  },
  "8552": {
    "postcode": "5008552",
    "prefecture": "岐阜県",
    "prefecture_kana": "ギフケン",
    "prefecture_code": 21,
    "city": "岐阜市",
    "city_kana": "ギフシ",
    "town": "神田町",
    "town_kana": "カンダマチ",
    "street": "８丁目２（岐阜中央郵便局私書箱第３７号）",
    "office_name": "ＳＭＢＣ日興証券　株式会社　岐阜支店",
    "office_name_kana": "エスエムビ-シ-ニツコウシヨウケン カブシキガイシヤ ギフシテン"
  },
  "8554": {
    "postcode": "5008554",
    "prefecture": "岐阜県",
    "prefecture_kana": "ギフケン",
    "prefecture_code": 21,
    "city": "岐阜市",
    "city_kana": "ギフシ",
    "town": "京町",
    "town_kana": "キョウマチ",
    "street": "２丁目３（岐阜中央郵便局私書箱第３４号）",
    "office_name": "日本放送協会　岐阜放送局",
    "office_name_kana": "ニツポンホウソウキヨウカイ ギフホウソウキヨク"
  },
  "8555": {
    "postcode": "5008555",
    "prefecture": "岐阜県",
    "prefecture_kana": "ギフケン",
    "prefecture_code": 21,
    "city": "岐阜市",
    "city_kana": "ギフシ",
    "town": "宇佐南",
    "town_kana": "ウサミナミ",
    "street": "１丁目６−８（岐阜中央郵便局私書箱第３５号）",
    "office_name": "大日本土木　株式会社",
    "office_name_kana": "ダイニホンドボク カブシキガイシヤ"
  },
  "8556": {
    "postcode": "5008556",
    "prefecture": "岐阜県",
    "prefecture_kana": "ギフケン",
    "prefecture_code": 21,
    "city": "岐阜市",
    "city_kana": "ギフシ",
    "town": "神田町",
    "town_kana": "カンダマチ",
    "street": "７丁目１２（岐阜中央郵便局私書箱第１８号）",
    "office_name": "株式会社　十六ディーシーカード",
    "office_name_kana": "カブシキガイシヤ ジユウロクデイ-シ-カ-ド"
  },
  "8557": {
    "postcode": "5008557",
    "prefecture": "岐阜県",
    "prefecture_kana": "ギフケン",
    "prefecture_code": 21,
    "city": "岐阜市",
    "city_kana": "ギフシ",
    "town": "橋本町",
    "town_kana": "ハシモトチョウ",
    "street": "２丁目２０（岐阜中央郵便局私書箱第３０号）",
    "office_name": "濃飛倉庫運輸　株式会社",
    "office_name_kana": "ノウヒソウコウンユ カブシキガイシヤ"
  },
  "8558": {
    "postcode": "5008558",
    "prefecture": "岐阜県",
    "prefecture_kana": "ギフケン",
    "prefecture_code": 21,
    "city": "岐阜市",
    "city_kana": "ギフシ",
    "town": "加納桜田町",
    "town_kana": "カノウサクラダチョウ",
    "street": "１丁目１番地",
    "office_name": "アピ　株式会社",
    "office_name_kana": "アピ カブシキガイシヤ"
  },
  "8560": {
    "postcode": "5008560",
    "prefecture": "岐阜県",
    "prefecture_kana": "ギフケン",
    "prefecture_code": 21,
    "city": "岐阜市",
    "city_kana": "ギフシ",
    "town": "今町",
    "town_kana": "イママチ",
    "street": "４丁目２０",
    "office_name": "日建産業　株式会社",
    "office_name_kana": "ニツケンサンギヨウ カブシキガイシヤ"
  },
  "8561": {
    "postcode": "5008561",
    "prefecture": "岐阜県",
    "prefecture_kana": "ギフケン",
    "prefecture_code": 21,
    "city": "岐阜市",
    "city_kana": "ギフシ",
    "town": "日置江",
    "town_kana": "ヒキエ",
    "street": "１丁目５８",
    "office_name": "株式会社　電算システム",
    "office_name_kana": "カブシキカイシヤ デンサンシステム"
  },
  "8562": {
    "postcode": "5008562",
    "prefecture": "岐阜県",
    "prefecture_kana": "ギフケン",
    "prefecture_code": 21,
    "city": "岐阜市",
    "city_kana": "ギフシ",
    "town": "神田町",
    "town_kana": "カンダマチ",
    "street": "６丁目１１番地",
    "office_name": "岐阜信用金庫",
    "office_name_kana": "ギフシンヨウキンコ"
  },
  "8565": {
    "postcode": "5008565",
    "prefecture": "岐阜県",
    "prefecture_kana": "ギフケン",
    "prefecture_code": 21,
    "city": "岐阜市",
    "city_kana": "ギフシ",
    "town": "宇佐南",
    "town_kana": "ウサミナミ",
    "street": "１丁目７−１",
    "office_name": "株式会社　岐阜銀行",
    "office_name_kana": "カブシキガイシヤ ギフギンコウ"
  },
  "8566": {
    "postcode": "5008566",
    "prefecture": "岐阜県",
    "prefecture_kana": "ギフケン",
    "prefecture_code": 21,
    "city": "岐阜市",
    "city_kana": "ギフシ",
    "town": "神田町",
    "town_kana": "カンダマチ",
    "street": "７丁目７−８（岐阜中央郵便局私書箱第１９号）",
    "office_name": "大和証券　株式会社　岐阜支店",
    "office_name_kana": "ダイワシヨウケン カブシキガイシヤ ギフシテン"
  },
  "8567": {
    "postcode": "5008567",
    "prefecture": "岐阜県",
    "prefecture_kana": "ギフケン",
    "prefecture_code": 21,
    "city": "岐阜市",
    "city_kana": "ギフシ",
    "town": "加納清水町",
    "town_kana": "カノウシミズチョウ",
    "street": "４丁目２２（岐阜中央郵便局私書箱第６９号）",
    "office_name": "岐阜南税務署",
    "office_name_kana": "ギフミナミゼイムシヨ"
  },
  "8570": {
    "postcode": "5008570",
    "prefecture": "岐阜県",
    "prefecture_kana": "ギフケン",
    "prefecture_code": 21,
    "city": "岐阜市",
    "city_kana": "ギフシ",
    "town": "薮田南",
    "town_kana": "ヤブタミナミ",
    "street": "２丁目１−１",
    "office_name": "岐阜県庁",
    "office_name_kana": "ギフケンチヨウ"
  },
  "8571": {
    "postcode": "5008571",
    "prefecture": "岐阜県",
    "prefecture_kana": "ギフケン",
    "prefecture_code": 21,
    "city": "岐阜市",
    "city_kana": "ギフシ",
    "town": "薮田南",
    "town_kana": "ヤブタミナミ",
    "street": "２丁目１−１",
    "office_name": "岐阜県庁",
    "office_name_kana": "ギフケンチヨウ"
  },
  "8577": {
    "postcode": "5008577",
    "prefecture": "岐阜県",
    "prefecture_kana": "ギフケン",
    "prefecture_code": 21,
    "city": "岐阜市",
    "city_kana": "ギフシ",
    "town": "今小町",
    "town_kana": "イマコマチ",
    "street": "９",
    "office_name": "株式会社　岐阜新聞社",
    "office_name_kana": "カブシキガイシヤ ギフシンブンシヤ"
  },
  "8588": {
    "postcode": "5008588",
    "prefecture": "岐阜県",
    "prefecture_kana": "ギフケン",
    "prefecture_code": 21,
    "city": "岐阜市",
    "city_kana": "ギフシ",
    "town": "橋本町",
    "town_kana": "ハシモトチョウ",
    "street": "２丁目５２岐阜シティ・タワー４３",
    "office_name": "株式会社　岐阜放送",
    "office_name_kana": "カブシキガイシヤ ギフホウソウ"
  },
  "8601": {
    "postcode": "5008601",
    "prefecture": "岐阜県",
    "prefecture_kana": "ギフケン",
    "prefecture_code": 21,
    "city": "岐阜市",
    "city_kana": "ギフシ",
    "town": "茜部中島",
    "town_kana": "アカナベナカシマ",
    "street": "２丁目９",
    "office_name": "日本赤十字社　岐阜県支部",
    "office_name_kana": "ニホンセキジユウジシヤ ギフケンシブ"
  },
  "8602": {
    "postcode": "5008602",
    "prefecture": "岐阜県",
    "prefecture_kana": "ギフケン",
    "prefecture_code": 21,
    "city": "岐阜市",
    "city_kana": "ギフシ",
    "town": "茜部新所",
    "town_kana": "アカナベシンショ",
    "street": "２丁目５",
    "office_name": "株式会社　岐阜魚介",
    "office_name_kana": "カブシキガイシヤ ギフギヨカイ"
  },
  "8603": {
    "postcode": "5008603",
    "prefecture": "岐阜県",
    "prefecture_kana": "ギフケン",
    "prefecture_code": 21,
    "city": "岐阜市",
    "city_kana": "ギフシ",
    "town": "茜部新所",
    "town_kana": "アカナベシンショ",
    "street": "２丁目５",
    "office_name": "岐果　岐阜青果　株式会社",
    "office_name_kana": "ギカ ギフセイカ カブシキガイシヤ"
  },
  "8605": {
    "postcode": "5008605",
    "prefecture": "岐阜県",
    "prefecture_kana": "ギフケン",
    "prefecture_code": 21,
    "city": "岐阜市",
    "city_kana": "ギフシ",
    "town": "茜部中島",
    "town_kana": "アカナベナカシマ",
    "street": "２丁目６６−６",
    "office_name": "日本ガード　株式会社",
    "office_name_kana": "ニホンガ-ド カブシキガイシヤ"
  },
  "8607": {
    "postcode": "5008607",
    "prefecture": "岐阜県",
    "prefecture_kana": "ギフケン",
    "prefecture_code": 21,
    "city": "岐阜市",
    "city_kana": "ギフシ",
    "town": "茜部新所",
    "town_kana": "アカナベシンショ",
    "street": "２丁目５",
    "office_name": "岐阜中央青果　株式会社",
    "office_name_kana": "ギフチユウオウセイカ カブシキガイシヤ"
  },
  "8610": {
    "postcode": "5008610",
    "prefecture": "岐阜県",
    "prefecture_kana": "ギフケン",
    "prefecture_code": 21,
    "city": "岐阜市",
    "city_kana": "ギフシ",
    "town": "茜部新所",
    "town_kana": "アカナベシンショ",
    "street": "２丁目５",
    "office_name": "岐阜丸魚　株式会社",
    "office_name_kana": "ギフマルウオ カブシキガイシヤ"
  },
  "8615": {
    "postcode": "5008615",
    "prefecture": "岐阜県",
    "prefecture_kana": "ギフケン",
    "prefecture_code": 21,
    "city": "岐阜市",
    "city_kana": "ギフシ",
    "town": "南鶉",
    "town_kana": "ミナミウズラ",
    "street": "５丁目５２−１",
    "office_name": "株式会社　田幸",
    "office_name_kana": "カブシキガイシヤ タコウ"
  },
  "8616": {
    "postcode": "5008616",
    "prefecture": "岐阜県",
    "prefecture_kana": "ギフケン",
    "prefecture_code": 21,
    "city": "岐阜市",
    "city_kana": "ギフシ",
    "town": "中鶉",
    "town_kana": "ナカウズラ",
    "street": "１丁目１３９",
    "office_name": "小林薬品工業　株式会社",
    "office_name_kana": "コバヤシヤクヒンコウギヨウ カブシキガイシヤ"
  },
  "8618": {
    "postcode": "5008618",
    "prefecture": "岐阜県",
    "prefecture_kana": "ギフケン",
    "prefecture_code": 21,
    "city": "岐阜市",
    "city_kana": "ギフシ",
    "town": "東鶉",
    "town_kana": "ヒガシウズラ",
    "street": "１丁目４１番地",
    "office_name": "株式会社　岐阜セラツク製造所",
    "office_name_kana": "カブシキガイシヤ ギフセラツクセイゾウジヨ"
  },
  "8620": {
    "postcode": "5008620",
    "prefecture": "岐阜県",
    "prefecture_kana": "ギフケン",
    "prefecture_code": 21,
    "city": "岐阜市",
    "city_kana": "ギフシ",
    "town": "北鶉",
    "town_kana": "キタウズラ",
    "street": "５丁目５７番地",
    "office_name": "岐阜日野自動車　株式会社　岐阜支店",
    "office_name_kana": "ギフヒノジドウシヤ カブシキガイシヤ ギフシテン"
  },
  "8621": {
    "postcode": "5008621",
    "prefecture": "岐阜県",
    "prefecture_kana": "ギフケン",
    "prefecture_code": 21,
    "city": "岐阜市",
    "city_kana": "ギフシ",
    "town": "須賀",
    "town_kana": "スガ",
    "street": "３丁目１４−１",
    "office_name": "五光山彦　株式会社　岐阜支店",
    "office_name_kana": "ゴコウヤマヒコ カブシキガイシヤ ギフシテン"
  },
  "8622": {
    "postcode": "5008622",
    "prefecture": "岐阜県",
    "prefecture_kana": "ギフケン",
    "prefecture_code": 21,
    "city": "岐阜市",
    "city_kana": "ギフシ",
    "town": "北鶉",
    "town_kana": "キタウズラ",
    "street": "３丁目１６",
    "office_name": "サンラリー　株式会社",
    "office_name_kana": "サンラリ- カブシキガイシヤ"
  },
  "8625": {
    "postcode": "5008625",
    "prefecture": "岐阜県",
    "prefecture_kana": "ギフケン",
    "prefecture_code": 21,
    "city": "岐阜市",
    "city_kana": "ギフシ",
    "town": "橋本町",
    "town_kana": "ハシモトチョウ",
    "street": "２丁目２０番地",
    "office_name": "富士ゼロックス岐阜　株式会社",
    "office_name_kana": "フジゼロツクスギフ カブシキガイシヤ"
  },
  "8630": {
    "postcode": "5008630",
    "prefecture": "岐阜県",
    "prefecture_kana": "ギフケン",
    "prefecture_code": 21,
    "city": "岐阜市",
    "city_kana": "ギフシ",
    "town": "江添",
    "town_kana": "エゾエ",
    "street": "１丁目１−１",
    "office_name": "株式会社　ヒマラヤ",
    "office_name_kana": "カブシキガイシヤ ヒマラヤ"
  },
  "8635": {
    "postcode": "5008635",
    "prefecture": "岐阜県",
    "prefecture_kana": "ギフケン",
    "prefecture_code": 21,
    "city": "岐阜市",
    "city_kana": "ギフシ",
    "town": "宇佐南",
    "town_kana": "ウサミナミ",
    "street": "２丁目３−８",
    "office_name": "濃尾電機　株式会社",
    "office_name_kana": "ノビデンキ カブシキガイシヤ"
  },
  "8636": {
    "postcode": "5008636",
    "prefecture": "岐阜県",
    "prefecture_kana": "ギフケン",
    "prefecture_code": 21,
    "city": "岐阜市",
    "city_kana": "ギフシ",
    "town": "薮田東",
    "town_kana": "ヤブタヒガシ",
    "street": "２丁目１番６号",
    "office_name": "大和ハウス工業　株式会社　岐阜支店",
    "office_name_kana": "ダイワハウスコウギヨウ カブシキガイシヤ ギフシテン"
  },
  "8637": {
    "postcode": "5008637",
    "prefecture": "岐阜県",
    "prefecture_kana": "ギフケン",
    "prefecture_code": 21,
    "city": "岐阜市",
    "city_kana": "ギフシ",
    "town": "六条大溝",
    "town_kana": "ロクジョウオオミゾ",
    "street": "４丁目１−３",
    "office_name": "トヨタカローラ岐阜　株式会社",
    "office_name_kana": "トヨタカロ-ラギフ カブシキガイシヤ"
  },
  "8638": {
    "postcode": "5008638",
    "prefecture": "岐阜県",
    "prefecture_kana": "ギフケン",
    "prefecture_code": 21,
    "city": "岐阜市",
    "city_kana": "ギフシ",
    "town": "六条大溝",
    "town_kana": "ロクジョウオオミゾ",
    "street": "３丁目１３番３号",
    "office_name": "株式会社　安部日鋼工業",
    "office_name_kana": "カブシキガイシヤ アベニツコウコウギヨウ"
  },
  "8639": {
    "postcode": "5008639",
    "prefecture": "岐阜県",
    "prefecture_kana": "ギフケン",
    "prefecture_code": 21,
    "city": "岐阜市",
    "city_kana": "ギフシ",
    "town": "六条南",
    "town_kana": "ロクジョウミナミ",
    "street": "１丁目１６−１６",
    "office_name": "資生堂化粧品販売　株式会社　岐阜支社",
    "office_name_kana": "シセイドウケシヨウヒンハンバイ カブシキガイシヤ ギフシシヤ"
  },
  "8640": {
    "postcode": "5008640",
    "prefecture": "岐阜県",
    "prefecture_kana": "ギフケン",
    "prefecture_code": 21,
    "city": "岐阜市",
    "city_kana": "ギフシ",
    "town": "六条南",
    "town_kana": "ロクジョウミナミ",
    "street": "３丁目９−７",
    "office_name": "株式会社　スギトー",
    "office_name_kana": "カブシキガイシヤ スギト-"
  },
  "8645": {
    "postcode": "5008645",
    "prefecture": "岐阜県",
    "prefecture_kana": "ギフケン",
    "prefecture_code": 21,
    "city": "岐阜市",
    "city_kana": "ギフシ",
    "town": "六条南",
    "town_kana": "ロクジョウミナミ",
    "street": "３丁目１０−１０",
    "office_name": "内藤建設　株式会社",
    "office_name_kana": "ナイトウケンセツ カブシキガイシヤ"
  },
  "8646": {
    "postcode": "5008646",
    "prefecture": "岐阜県",
    "prefecture_kana": "ギフケン",
    "prefecture_code": 21,
    "city": "岐阜市",
    "city_kana": "ギフシ",
    "town": "加納天神町",
    "town_kana": "カノウテンジンマチ",
    "street": "１丁目２６",
    "office_name": "株式会社　マキムラ",
    "office_name_kana": "カブシキガイシヤ マキムラ"
  },
  "8648": {
    "postcode": "5008648",
    "prefecture": "岐阜県",
    "prefecture_kana": "ギフケン",
    "prefecture_code": 21,
    "city": "岐阜市",
    "city_kana": "ギフシ",
    "town": "加納天神町",
    "town_kana": "カノウテンジンマチ",
    "street": "４丁目２４",
    "office_name": "株式会社　小林三之助商店",
    "office_name_kana": "カブシキガイシヤ コバヤシサンノスケシヨウテン"
  },
  "8650": {
    "postcode": "5008650",
    "prefecture": "岐阜県",
    "prefecture_kana": "ギフケン",
    "prefecture_code": 21,
    "city": "岐阜市",
    "city_kana": "ギフシ",
    "town": "清本町",
    "town_kana": "セイホンマチ",
    "street": "２丁目４４",
    "office_name": "株式会社　ヤマニパッケージ",
    "office_name_kana": "カブシキガイシヤ ヤマニパツケ-ジ"
  },
  "8655": {
    "postcode": "5008655",
    "prefecture": "岐阜県",
    "prefecture_kana": "ギフケン",
    "prefecture_code": 21,
    "city": "岐阜市",
    "city_kana": "ギフシ",
    "town": "三歳町",
    "town_kana": "ミトセチョウ",
    "street": "３丁目１１−７",
    "office_name": "二幸　株式会社",
    "office_name_kana": "ニコウ カブシキガイシヤ"
  },
  "8657": {
    "postcode": "5008657",
    "prefecture": "岐阜県",
    "prefecture_kana": "ギフケン",
    "prefecture_code": 21,
    "city": "岐阜市",
    "city_kana": "ギフシ",
    "town": "此花町",
    "town_kana": "コノハナチョウ",
    "street": "６丁目１７",
    "office_name": "株式会社　キタガワ",
    "office_name_kana": "カブシキガイシヤ キタガワ"
  },
  "8660": {
    "postcode": "5008660",
    "prefecture": "岐阜県",
    "prefecture_kana": "ギフケン",
    "prefecture_code": 21,
    "city": "岐阜市",
    "city_kana": "ギフシ",
    "town": "都通",
    "town_kana": "ミヤコドオリ",
    "street": "３丁目１０",
    "office_name": "株式会社　若原工機",
    "office_name_kana": "カブシキガイシヤ ワカハラコウキ"
  },
  "8666": {
    "postcode": "5008666",
    "prefecture": "岐阜県",
    "prefecture_kana": "ギフケン",
    "prefecture_code": 21,
    "city": "岐阜市",
    "city_kana": "ギフシ",
    "town": "都通",
    "town_kana": "ミヤコドオリ",
    "street": "４丁目−８",
    "office_name": "損害保険ジャパン日本興亜　株式会社",
    "office_name_kana": "ソンガイホケンジヤパンニツポンコウア カブシキガイシヤ"
  },
  "8667": {
    "postcode": "5008667",
    "prefecture": "岐阜県",
    "prefecture_kana": "ギフケン",
    "prefecture_code": 21,
    "city": "岐阜市",
    "city_kana": "ギフシ",
    "town": "橋本町",
    "town_kana": "ハシモトチョウ",
    "street": "２丁目８濃飛ニッセイビル",
    "office_name": "全国健康保険協会　岐阜支部",
    "office_name_kana": "ゼンコクケンコウホケンキヨウカイ ギフシブ"
  },
  "8668": {
    "postcode": "5008668",
    "prefecture": "岐阜県",
    "prefecture_kana": "ギフケン",
    "prefecture_code": 21,
    "city": "岐阜市",
    "city_kana": "ギフシ",
    "town": "城東通",
    "town_kana": "ジョウトウドオリ",
    "street": "５丁目５番地丸杉センタービル７Ｆ",
    "office_name": "丸杉建設　株式会社",
    "office_name_kana": "マルスギケンセツ カブシキガイシヤ"
  },
  "8670": {
    "postcode": "5008670",
    "prefecture": "岐阜県",
    "prefecture_kana": "ギフケン",
    "prefecture_code": 21,
    "city": "岐阜市",
    "city_kana": "ギフシ",
    "town": "金町",
    "town_kana": "コガネマチ",
    "street": "６丁目４岐阜東京海上ビル１１階",
    "office_name": "日動火災海上保険　株式会社　岐阜支店",
    "office_name_kana": "ニチドウカサイカイジヨウホケン カブシキガイシヤ ギフシテン"
  },
  "8671": {
    "postcode": "5008671",
    "prefecture": "岐阜県",
    "prefecture_kana": "ギフケン",
    "prefecture_code": 21,
    "city": "岐阜市",
    "city_kana": "ギフシ",
    "town": "金町",
    "town_kana": "コガネマチ",
    "street": "６丁目４番地",
    "office_name": "東京海上日動火災保険　株式会社　岐阜支店",
    "office_name_kana": "トウキヨウカイジヨウニチドウカサイホケン カブシキガイシヤ ギフシテン"
  },
  "8672": {
    "postcode": "5008672",
    "prefecture": "岐阜県",
    "prefecture_kana": "ギフケン",
    "prefecture_code": 21,
    "city": "岐阜市",
    "city_kana": "ギフシ",
    "town": "中鶉",
    "town_kana": "ナカウズラ",
    "street": "２丁目６−２",
    "office_name": "荒井　株式会社",
    "office_name_kana": "アライ カブシキガイシヤ"
  },
  "8676": {
    "postcode": "5008676",
    "prefecture": "岐阜県",
    "prefecture_kana": "ギフケン",
    "prefecture_code": 21,
    "city": "岐阜市",
    "city_kana": "ギフシ",
    "town": "加納城南通",
    "town_kana": "カノウジョウナンドオリ",
    "street": "１丁目１８−３",
    "office_name": "日産プリンス　岐阜販売　株式会社",
    "office_name_kana": "ニツサンプリンス ギフハンバイ カブシキガイシヤ"
  },
  "8677": {
    "postcode": "5008677",
    "prefecture": "岐阜県",
    "prefecture_kana": "ギフケン",
    "prefecture_code": 21,
    "city": "岐阜市",
    "city_kana": "ギフシ",
    "town": "玉姓町",
    "town_kana": "ギョクセイチョウ",
    "street": "３丁目２８番地",
    "office_name": "ヒロタ　株式会社",
    "office_name_kana": "ヒロタ カブシキガイシヤ"
  },
  "8678": {
    "postcode": "5008678",
    "prefecture": "岐阜県",
    "prefecture_kana": "ギフケン",
    "prefecture_code": 21,
    "city": "岐阜市",
    "city_kana": "ギフシ",
    "town": "長住町",
    "town_kana": "ナガズミチョウ",
    "street": "５丁目４",
    "office_name": "石田　株式会社",
    "office_name_kana": "イシダ カブシキガイシヤ"
  },
  "8680": {
    "postcode": "5008680",
    "prefecture": "岐阜県",
    "prefecture_kana": "ギフケン",
    "prefecture_code": 21,
    "city": "岐阜市",
    "city_kana": "ギフシ",
    "town": "長住町",
    "town_kana": "ナガズミチョウ",
    "street": "１０丁目１",
    "office_name": "日本通運　株式会社　岐阜支店",
    "office_name_kana": "ニツポンツウウン カブシキガイシヤ ギフシテン"
  },
  "8681": {
    "postcode": "5008681",
    "prefecture": "岐阜県",
    "prefecture_kana": "ギフケン",
    "prefecture_code": 21,
    "city": "岐阜市",
    "city_kana": "ギフシ",
    "town": "長住町",
    "town_kana": "ナガズミチョウ",
    "street": "１０丁目１",
    "office_name": "日通商事　株式会社　岐阜支店",
    "office_name_kana": "ニツツウシヨウジ カブシキガイシヤ ギフシテン"
  },
  "8682": {
    "postcode": "5008682",
    "prefecture": "岐阜県",
    "prefecture_kana": "ギフケン",
    "prefecture_code": 21,
    "city": "岐阜市",
    "city_kana": "ギフシ",
    "town": "長住町",
    "town_kana": "ナガズミチョウ",
    "street": "４丁目７",
    "office_name": "松久　株式会社",
    "office_name_kana": "マツキユウ カブシキガイシヤ"
  },
  "8685": {
    "postcode": "5008685",
    "prefecture": "岐阜県",
    "prefecture_kana": "ギフケン",
    "prefecture_code": 21,
    "city": "岐阜市",
    "city_kana": "ギフシ",
    "town": "金町",
    "town_kana": "コガネマチ",
    "street": "５丁目２０",
    "office_name": "損害保険ジャパン日本興亜　株式会社",
    "office_name_kana": "ソンガイホケンジヤパンニツポンコウア カブシキガイシヤ"
  },
  "8686": {
    "postcode": "5008686",
    "prefecture": "岐阜県",
    "prefecture_kana": "ギフケン",
    "prefecture_code": 21,
    "city": "岐阜市",
    "city_kana": "ギフシ",
    "town": "香蘭",
    "town_kana": "コウラン",
    "street": "３丁目８",
    "office_name": "株式会社　マンチェス",
    "office_name_kana": "カブシキガイシヤ マンチエス"
  },
  "8687": {
    "postcode": "5008687",
    "prefecture": "岐阜県",
    "prefecture_kana": "ギフケン",
    "prefecture_code": 21,
    "city": "岐阜市",
    "city_kana": "ギフシ",
    "town": "玉宮町",
    "town_kana": "タマミヤチョウ",
    "street": "１丁目１１",
    "office_name": "井上精機　株式会社",
    "office_name_kana": "イノウエセイキ カブシキガイシヤ"
  },
  "8689": {
    "postcode": "5008689",
    "prefecture": "岐阜県",
    "prefecture_kana": "ギフケン",
    "prefecture_code": 21,
    "city": "岐阜市",
    "city_kana": "ギフシ",
    "town": "三歳町",
    "town_kana": "ミトセチョウ",
    "street": "５丁目１−７",
    "office_name": "梅本　株式会社",
    "office_name_kana": "ウメモト カブシキガイシヤ"
  },
  "8701": {
    "postcode": "5008701",
    "prefecture": "岐阜県",
    "prefecture_kana": "ギフケン",
    "prefecture_code": 21,
    "city": "岐阜市",
    "city_kana": "ギフシ",
    "town": "司町",
    "town_kana": "ツカサマチ",
    "street": "４０番地１",
    "office_name": "岐阜市役所",
    "office_name_kana": "ギフシヤクシヨ"
  },
  "8702": {
    "postcode": "5008702",
    "prefecture": "岐阜県",
    "prefecture_kana": "ギフケン",
    "prefecture_code": 21,
    "city": "岐阜市",
    "city_kana": "ギフシ",
    "town": "美江寺町",
    "town_kana": "ミエジチョウ",
    "street": "２丁目５",
    "office_name": "中部電力パワーグリッド　株式会社　岐阜営業所",
    "office_name_kana": "チユウブデンリヨクパワ-グリツド カブシキガイシヤ ギフエイギヨウシヨ"
  },
  "8703": {
    "postcode": "5008703",
    "prefecture": "岐阜県",
    "prefecture_kana": "ギフケン",
    "prefecture_code": 21,
    "city": "岐阜市",
    "city_kana": "ギフシ",
    "town": "香蘭",
    "town_kana": "コウラン",
    "street": "１丁目１番地",
    "office_name": "昭和コンクリート工業　株式会社",
    "office_name_kana": "シヨウワコンクリ-トコウギヨウ カブシキガイシヤ"
  },
  "8707": [
    {
      "postcode": "5008707",
      "prefecture": "岐阜県",
      "prefecture_kana": "ギフケン",
      "prefecture_code": 21,
      "city": "岐阜市",
      "city_kana": "ギフシ",
      "town": "美江寺町",
      "town_kana": "ミエジチョウ",
      "street": "２丁目５",
      "office_name": "中部電力パワーグリッド　株式会社　岐阜支社",
      "office_name_kana": "チユウブデンリヨクパワ-グリツド カブシキガイシヤ ギフシシヤ"
    },
    {
      "postcode": "5008707",
      "prefecture": "岐阜県",
      "prefecture_kana": "ギフケン",
      "prefecture_code": 21,
      "city": "岐阜市",
      "city_kana": "ギフシ",
      "town": "美江寺町",
      "town_kana": "ミエジチョウ",
      "street": "２丁目５",
      "office_name": "中部電力ミライズ　株式会社　岐阜営業本部",
      "office_name_kana": "チユウブデンリヨクミライズ カブシキガイシヤ ギフエイギヨウホンブ"
    }
  ],
  "8708": {
    "postcode": "5008708",
    "prefecture": "岐阜県",
    "prefecture_kana": "ギフケン",
    "prefecture_code": 21,
    "city": "岐阜市",
    "city_kana": "ギフシ",
    "town": "司町",
    "town_kana": "ツカサマチ",
    "street": "１番地",
    "office_name": "岐阜振興局",
    "office_name_kana": "ギフシンコウキヨク"
  },
  "8710": {
    "postcode": "5008710",
    "prefecture": "岐阜県",
    "prefecture_kana": "ギフケン",
    "prefecture_code": 21,
    "city": "岐阜市",
    "city_kana": "ギフシ",
    "town": "美江寺町",
    "town_kana": "ミエジチョウ",
    "street": "２丁目４−１",
    "office_name": "岐阜地方裁判所",
    "office_name_kana": "ギフチホウサイバンシヨ"
  },
  "8711": {
    "postcode": "5008711",
    "prefecture": "岐阜県",
    "prefecture_kana": "ギフケン",
    "prefecture_code": 21,
    "city": "岐阜市",
    "city_kana": "ギフシ",
    "town": "千石町",
    "town_kana": "センゴクチョウ",
    "street": "１丁目４",
    "office_name": "岐阜北税務署",
    "office_name_kana": "ギフキタゼイムシヨ"
  },
  "8715": {
    "postcode": "5008715",
    "prefecture": "岐阜県",
    "prefecture_kana": "ギフケン",
    "prefecture_code": 21,
    "city": "岐阜市",
    "city_kana": "ギフシ",
    "town": "梅ケ枝町",
    "town_kana": "ウメガエチョウ",
    "street": "２丁目３１番地",
    "office_name": "西日本電信電話　株式会社",
    "office_name_kana": "ニシニホンデンシンデンワ カブシキガイシヤ"
  },
  "8716": {
    "postcode": "5008716",
    "prefecture": "岐阜県",
    "prefecture_kana": "ギフケン",
    "prefecture_code": 21,
    "city": "岐阜市",
    "city_kana": "ギフシ",
    "town": "金竜町",
    "town_kana": "キンリュウチョウ",
    "street": "５丁目１３番地",
    "office_name": "財務省　東海財務局　岐阜財務事務所",
    "office_name_kana": "ザイムシヨウ トウカイザイムキヨク ギフザイムジムシヨ"
  },
  "8717": {
    "postcode": "5008717",
    "prefecture": "岐阜県",
    "prefecture_kana": "ギフケン",
    "prefecture_code": 21,
    "city": "岐阜市",
    "city_kana": "ギフシ",
    "town": "野一色",
    "town_kana": "ノイッシキ",
    "street": "４丁目６−１",
    "office_name": "地方独立行政法人　岐阜県総合医療センター",
    "office_name_kana": "チホウドクリツギヨウセイホウジン ギフケンソウゴウイリヨウセンタ-"
  },
  "8718": {
    "postcode": "5008718",
    "prefecture": "岐阜県",
    "prefecture_kana": "ギフケン",
    "prefecture_code": 21,
    "city": "岐阜市",
    "city_kana": "ギフシ",
    "town": "日野東",
    "town_kana": "ヒノヒガシ",
    "street": "５丁目１−１",
    "office_name": "国立療養所岐阜病院",
    "office_name_kana": "コクリツリヨウヨウジヨギフビヨウイン"
  },
  "8721": {
    "postcode": "5008721",
    "prefecture": "岐阜県",
    "prefecture_kana": "ギフケン",
    "prefecture_code": 21,
    "city": "岐阜市",
    "city_kana": "ギフシ",
    "town": "神田町",
    "town_kana": "カンダマチ",
    "street": "９丁目２７番地大岐阜ビル１２階",
    "office_name": "岐阜プラスチック工業　株式会社",
    "office_name_kana": "ギフプラスチツクコウギヨウ カブシキガイシヤ"
  },
  "8722": {
    "postcode": "5008722",
    "prefecture": "岐阜県",
    "prefecture_kana": "ギフケン",
    "prefecture_code": 21,
    "city": "岐阜市",
    "city_kana": "ギフシ",
    "town": "九重町",
    "town_kana": "ココノエチョウ",
    "street": "４丁目２０番地",
    "office_name": "岐阜乗合自動車　株式会社",
    "office_name_kana": "ギフノリアイジドウシヤ カブシキガイシヤ"
  },
  "8723": {
    "postcode": "5008723",
    "prefecture": "岐阜県",
    "prefecture_kana": "ギフケン",
    "prefecture_code": 21,
    "city": "岐阜市",
    "city_kana": "ギフシ",
    "town": "金竜町",
    "town_kana": "キンリュウチョウ",
    "street": "５丁目１３番地岐阜合同庁舎",
    "office_name": "岐阜労働局",
    "office_name_kana": "ギフロウドウキヨク"
  },
  "8725": {
    "postcode": "5008725",
    "prefecture": "岐阜県",
    "prefecture_kana": "ギフケン",
    "prefecture_code": 21,
    "city": "岐阜市",
    "city_kana": "ギフシ",
    "town": "金町",
    "town_kana": "コガネマチ",
    "street": "４丁目３０明治安田生命岐阜金町ビル４Ｆ",
    "office_name": "日本信販岐阜　株式会社",
    "office_name_kana": "ニホンシンパンギフ カブシキガイシヤ"
  },
  "8727": {
    "postcode": "5008727",
    "prefecture": "岐阜県",
    "prefecture_kana": "ギフケン",
    "prefecture_code": 21,
    "city": "岐阜市",
    "city_kana": "ギフシ",
    "town": "神田町",
    "town_kana": "カンダマチ",
    "street": "２丁目２",
    "office_name": "岐阜商工会議所",
    "office_name_kana": "ギフシヨウコウカイギシヨ"
  },
  "8728": {
    "postcode": "5008728",
    "prefecture": "岐阜県",
    "prefecture_kana": "ギフケン",
    "prefecture_code": 21,
    "city": "岐阜市",
    "city_kana": "ギフシ",
    "town": "神田町",
    "town_kana": "カンダマチ",
    "street": "９丁目１２",
    "office_name": "株式会社　パルコ　岐阜店",
    "office_name_kana": "カブシキガイシヤ パルコ ギフテン"
  },
  "8729": {
    "postcode": "5008729",
    "prefecture": "岐阜県",
    "prefecture_kana": "ギフケン",
    "prefecture_code": 21,
    "city": "岐阜市",
    "city_kana": "ギフシ",
    "town": "金竜町",
    "town_kana": "キンリュウチョウ",
    "street": "５丁目１３",
    "office_name": "岐阜地方法務局",
    "office_name_kana": "ギフチホウホウムキヨク"
  },
  "8730": {
    "postcode": "5008730",
    "prefecture": "岐阜県",
    "prefecture_kana": "ギフケン",
    "prefecture_code": 21,
    "city": "岐阜市",
    "city_kana": "ギフシ",
    "town": "神田町",
    "town_kana": "カンダマチ",
    "street": "９丁目１",
    "office_name": "株式会社　新岐阜百貨店",
    "office_name_kana": "カブシキガイシヤ シンギフヒヤツカテン"
  },
  "8731": {
    "postcode": "5008731",
    "prefecture": "岐阜県",
    "prefecture_kana": "ギフケン",
    "prefecture_code": 21,
    "city": "岐阜市",
    "city_kana": "ギフシ",
    "town": "大宮町",
    "town_kana": "オオミヤチョウ",
    "street": "２丁目１２−１",
    "office_name": "オンダ国際特許事務所",
    "office_name_kana": "オンダコクサイトツキヨジムシヨ"
  },
  "8732": {
    "postcode": "5008732",
    "prefecture": "岐阜県",
    "prefecture_kana": "ギフケン",
    "prefecture_code": 21,
    "city": "岐阜市",
    "city_kana": "ギフシ",
    "town": "柳ケ瀬通",
    "town_kana": "ヤナガセドオリ",
    "street": "６丁目１４番地ホテルグランヴェール岐山３Ｆ",
    "office_name": "財団法人　岐阜県教職員互助会",
    "office_name_kana": "ザイダンホウジン ギフケンキヨウシヨクインゴジヨカイ"
  },
  "8733": {
    "postcode": "5008733",
    "prefecture": "岐阜県",
    "prefecture_kana": "ギフケン",
    "prefecture_code": 21,
    "city": "岐阜市",
    "city_kana": "ギフシ",
    "town": "千石町",
    "town_kana": "センゴクチョウ",
    "street": "２丁目２５",
    "office_name": "丸丹　株式会社",
    "office_name_kana": "マルタン カブシキガイシヤ"
  },
  "8734": {
    "postcode": "5008734",
    "prefecture": "岐阜県",
    "prefecture_kana": "ギフケン",
    "prefecture_code": 21,
    "city": "岐阜市",
    "city_kana": "ギフシ",
    "town": "千畳敷下",
    "town_kana": null,
    "street": "２５７",
    "office_name": "岐阜観光索道　株式会社",
    "office_name_kana": "ギフカンコウサクドウ カブシキガイシヤ"
  },
  "8737": {
    "postcode": "5008737",
    "prefecture": "岐阜県",
    "prefecture_kana": "ギフケン",
    "prefecture_code": 21,
    "city": "岐阜市",
    "city_kana": "ギフシ",
    "town": "須賀",
    "town_kana": "スガ",
    "street": "１丁目２−１６",
    "office_name": "シーシーエヌ　（株）",
    "office_name_kana": "シ-シ-エヌ (カブ)"
  },
  "8739": {
    "postcode": "5008739",
    "prefecture": "岐阜県",
    "prefecture_kana": "ギフケン",
    "prefecture_code": 21,
    "city": "岐阜市",
    "city_kana": "ギフシ",
    "town": "金町",
    "town_kana": "コガネマチ",
    "street": "４−３０明治安田生命岐阜金町ビル５階",
    "office_name": "日本年金機構　岐阜事務センター",
    "office_name_kana": "ニツポンネンキンキコウ ギフジムセンタ-"
  },
  "8740": {
    "postcode": "5008740",
    "prefecture": "岐阜県",
    "prefecture_kana": "ギフケン",
    "prefecture_code": 21,
    "city": "岐阜市",
    "city_kana": "ギフシ",
    "town": "五坪",
    "town_kana": "ゴツボ",
    "street": "１丁目１番地１号",
    "office_name": "岐阜県　社会保険診療報酬支払基金",
    "office_name_kana": "ギフケン シヤカイホケンシンリヨウホウシユウシハライキキン"
  },
  "8741": {
    "postcode": "5008741",
    "prefecture": "岐阜県",
    "prefecture_kana": "ギフケン",
    "prefecture_code": 21,
    "city": "岐阜市",
    "city_kana": "ギフシ",
    "town": "正法寺町",
    "town_kana": "ショウホウジチョウ",
    "street": "３３番地",
    "office_name": "済美高等学校",
    "office_name_kana": "セイビコウトウガツコウ"
  },
  "8742": {
    "postcode": "5008742",
    "prefecture": "岐阜県",
    "prefecture_kana": "ギフケン",
    "prefecture_code": 21,
    "city": "岐阜市",
    "city_kana": "ギフシ",
    "town": "西川手",
    "town_kana": "ニシカワテ",
    "street": "５丁目６６",
    "office_name": "株式会社　藤田商店",
    "office_name_kana": "カブシキガイシヤ フジタシヨウテン"
  },
  "8743": {
    "postcode": "5008743",
    "prefecture": "岐阜県",
    "prefecture_kana": "ギフケン",
    "prefecture_code": 21,
    "city": "岐阜市",
    "city_kana": "ギフシ",
    "town": "畷町",
    "town_kana": "ナワテマチ",
    "street": "５",
    "office_name": "株式会社　岡本",
    "office_name_kana": "カブシキガイシヤ オカモト"
  },
  "8748": {
    "postcode": "5008748",
    "prefecture": "岐阜県",
    "prefecture_kana": "ギフケン",
    "prefecture_code": 21,
    "city": "岐阜市",
    "city_kana": "ギフシ",
    "town": "金町",
    "town_kana": "コガネマチ",
    "street": "８丁目１番地フロンティア丸杉ビル",
    "office_name": "株式会社　丸杉",
    "office_name_kana": "カブシキガイシヤ マルスギ"
  },
  "8750": {
    "postcode": "5008750",
    "prefecture": "岐阜県",
    "prefecture_kana": "ギフケン",
    "prefecture_code": 21,
    "city": "岐阜市",
    "city_kana": "ギフシ",
    "town": "鶴田町",
    "town_kana": "ツルタマチ",
    "street": "３丁目７−１１",
    "office_name": "岐阜県労働金庫",
    "office_name_kana": "ギフケンロウドウキンコ"
  },
  "8751": {
    "postcode": "5008751",
    "prefecture": "岐阜県",
    "prefecture_kana": "ギフケン",
    "prefecture_code": 21,
    "city": "岐阜市",
    "city_kana": "ギフシ",
    "town": "鶴田町",
    "town_kana": "ツルタマチ",
    "street": "３丁目７−１",
    "office_name": "株式会社　日本タクシー",
    "office_name_kana": "カブシキガイシヤ ニホンタクシ-"
  },
  "8752": {
    "postcode": "5008752",
    "prefecture": "岐阜県",
    "prefecture_kana": "ギフケン",
    "prefecture_code": 21,
    "city": "岐阜市",
    "city_kana": "ギフシ",
    "town": "鶴田町",
    "town_kana": "ツルタマチ",
    "street": "３丁目２４",
    "office_name": "安田　株式会社",
    "office_name_kana": "ヤスダ カブシキガイシヤ"
  },
  "8753": {
    "postcode": "5008753",
    "prefecture": "岐阜県",
    "prefecture_kana": "ギフケン",
    "prefecture_code": 21,
    "city": "岐阜市",
    "city_kana": "ギフシ",
    "town": "東金宝町",
    "town_kana": "ヒガシキンポウチョウ",
    "street": "１丁目１７",
    "office_name": "株式会社　ニツショー　岐阜支店",
    "office_name_kana": "カブシキガイシヤ ニツシヨ- ギフシテン"
  },
  "8754": {
    "postcode": "5008754",
    "prefecture": "岐阜県",
    "prefecture_kana": "ギフケン",
    "prefecture_code": 21,
    "city": "岐阜市",
    "city_kana": "ギフシ",
    "town": "鶴田町",
    "town_kana": "ツルタマチ",
    "street": "３丁目１８番地",
    "office_name": "日本たばこ産業　株式会社　岐阜営業所",
    "office_name_kana": "ホンタバコサンギヨウ カブシキガオイシヤ ギフエイギヨウシヨ"
  },
  "8755": {
    "postcode": "5008755",
    "prefecture": "岐阜県",
    "prefecture_kana": "ギフケン",
    "prefecture_code": 21,
    "city": "岐阜市",
    "city_kana": "ギフシ",
    "town": "蔵前",
    "town_kana": "クラノマエ",
    "street": "６丁目１３−２６",
    "office_name": "株式会社　ダイテックソリューション",
    "office_name_kana": "カブシキガイシヤ ダイテツクソリユ-シヨン"
  },
  "8765": {
    "postcode": "5008765",
    "prefecture": "岐阜県",
    "prefecture_kana": "ギフケン",
    "prefecture_code": 21,
    "city": "岐阜市",
    "city_kana": "ギフシ",
    "town": "野一色",
    "town_kana": "ノイッシキ",
    "street": "４丁目１７番１号",
    "office_name": "学校法人　富田学園",
    "office_name_kana": "ガツコウホウジン トミタガクエン"
  },
  "8801": {
    "postcode": "5008801",
    "prefecture": "岐阜県",
    "prefecture_kana": "ギフケン",
    "prefecture_code": 21,
    "city": "岐阜市",
    "city_kana": "ギフシ",
    "town": "忠節町",
    "town_kana": "チュウセツチョウ",
    "street": null,
    "office_name": null,
    "office_name_kana": null
  },
  "8802": {
    "postcode": "5008802",
    "prefecture": "岐阜県",
    "prefecture_kana": "ギフケン",
    "prefecture_code": 21,
    "city": "岐阜市",
    "city_kana": "ギフシ",
    "town": "不動町",
    "town_kana": "フドウチョウ",
    "street": null,
    "office_name": null,
    "office_name_kana": null
  },
  "8803": {
    "postcode": "5008803",
    "prefecture": "岐阜県",
    "prefecture_kana": "ギフケン",
    "prefecture_code": 21,
    "city": "岐阜市",
    "city_kana": "ギフシ",
    "town": "佐久間町",
    "town_kana": "サクマチョウ",
    "street": null,
    "office_name": null,
    "office_name_kana": null
  },
  "8804": {
    "postcode": "5008804",
    "prefecture": "岐阜県",
    "prefecture_kana": "ギフケン",
    "prefecture_code": 21,
    "city": "岐阜市",
    "city_kana": "ギフシ",
    "town": "京町",
    "town_kana": "キョウマチ",
    "street": null,
    "office_name": null,
    "office_name_kana": null
  },
  "8805": {
    "postcode": "5008805",
    "prefecture": "岐阜県",
    "prefecture_kana": "ギフケン",
    "prefecture_code": 21,
    "city": "岐阜市",
    "city_kana": "ギフシ",
    "town": "忠節三丁目南町",
    "town_kana": "チュウセツサンチョウメミナミマチ",
    "street": null,
    "office_name": null,
    "office_name_kana": null
  },
  "8806": {
    "postcode": "5008806",
    "prefecture": "岐阜県",
    "prefecture_kana": "ギフケン",
    "prefecture_code": 21,
    "city": "岐阜市",
    "city_kana": "ギフシ",
    "town": "天神町",
    "town_kana": "テンジンマチ",
    "street": null,
    "office_name": null,
    "office_name_kana": null
  },
  "8807": {
    "postcode": "5008807",
    "prefecture": "岐阜県",
    "prefecture_kana": "ギフケン",
    "prefecture_code": 21,
    "city": "岐阜市",
    "city_kana": "ギフシ",
    "town": "北野町",
    "town_kana": "キタノマチ",
    "street": null,
    "office_name": null,
    "office_name_kana": null
  },
  "8808": {
    "postcode": "5008808",
    "prefecture": "岐阜県",
    "prefecture_kana": "ギフケン",
    "prefecture_code": 21,
    "city": "岐阜市",
    "city_kana": "ギフシ",
    "town": "永田町",
    "town_kana": "ナガタマチ",
    "street": null,
    "office_name": null,
    "office_name_kana": null
  },
  "8809": {
    "postcode": "5008809",
    "prefecture": "岐阜県",
    "prefecture_kana": "ギフケン",
    "prefecture_code": 21,
    "city": "岐阜市",
    "city_kana": "ギフシ",
    "town": "平河町",
    "town_kana": "ヒラカワチョウ",
    "street": null,
    "office_name": null,
    "office_name_kana": null
  },
  "8811": {
    "postcode": "5008811",
    "prefecture": "岐阜県",
    "prefecture_kana": "ギフケン",
    "prefecture_code": 21,
    "city": "岐阜市",
    "city_kana": "ギフシ",
    "town": "端詰町",
    "town_kana": "ハシヅメチョウ",
    "street": null,
    "office_name": null,
    "office_name_kana": null
  },
  "8812": {
    "postcode": "5008812",
    "prefecture": "岐阜県",
    "prefecture_kana": "ギフケン",
    "prefecture_code": 21,
    "city": "岐阜市",
    "city_kana": "ギフシ",
    "town": "美江寺町",
    "town_kana": "ミエジチョウ",
    "street": null,
    "office_name": null,
    "office_name_kana": null
  },
  "8813": {
    "postcode": "5008813",
    "prefecture": "岐阜県",
    "prefecture_kana": "ギフケン",
    "prefecture_code": 21,
    "city": "岐阜市",
    "city_kana": "ギフシ",
    "town": "明徳町",
    "town_kana": "メイトクチョウ",
    "street": null,
    "office_name": null,
    "office_name_kana": null
  },
  "8814": {
    "postcode": "5008814",
    "prefecture": "岐阜県",
    "prefecture_kana": "ギフケン",
    "prefecture_code": 21,
    "city": "岐阜市",
    "city_kana": "ギフシ",
    "town": "今川町",
    "town_kana": "イマガワチョウ",
    "street": null,
    "office_name": null,
    "office_name_kana": null
  },
  "8815": {
    "postcode": "5008815",
    "prefecture": "岐阜県",
    "prefecture_kana": "ギフケン",
    "prefecture_code": 21,
    "city": "岐阜市",
    "city_kana": "ギフシ",
    "town": "梅河町",
    "town_kana": "ウメガワチョウ",
    "street": null,
    "office_name": null,
    "office_name_kana": null
  },
  "8816": {
    "postcode": "5008816",
    "prefecture": "岐阜県",
    "prefecture_kana": "ギフケン",
    "prefecture_code": 21,
    "city": "岐阜市",
    "city_kana": "ギフシ",
    "town": "菅原町",
    "town_kana": "スガハラチョウ",
    "street": null,
    "office_name": null,
    "office_name_kana": null
  },
  "8817": {
    "postcode": "5008817",
    "prefecture": "岐阜県",
    "prefecture_kana": "ギフケン",
    "prefecture_code": 21,
    "city": "岐阜市",
    "city_kana": "ギフシ",
    "town": "八ツ梅町",
    "town_kana": "ヤツウメチョウ",
    "street": null,
    "office_name": null,
    "office_name_kana": null
  },
  "8818": {
    "postcode": "5008818",
    "prefecture": "岐阜県",
    "prefecture_kana": "ギフケン",
    "prefecture_code": 21,
    "city": "岐阜市",
    "city_kana": "ギフシ",
    "town": "梅ケ枝町",
    "town_kana": "ウメガエチョウ",
    "street": null,
    "office_name": null,
    "office_name_kana": null
  },
  "8819": {
    "postcode": "5008819",
    "prefecture": "岐阜県",
    "prefecture_kana": "ギフケン",
    "prefecture_code": 21,
    "city": "岐阜市",
    "city_kana": "ギフシ",
    "town": "千石町",
    "town_kana": "センゴクチョウ",
    "street": null,
    "office_name": null,
    "office_name_kana": null
  },
  "8821": {
    "postcode": "5008821",
    "prefecture": "岐阜県",
    "prefecture_kana": "ギフケン",
    "prefecture_code": 21,
    "city": "岐阜市",
    "city_kana": "ギフシ",
    "town": "鷹見町",
    "town_kana": "タカミチョウ",
    "street": null,
    "office_name": null,
    "office_name_kana": null
  },
  "8822": {
    "postcode": "5008822",
    "prefecture": "岐阜県",
    "prefecture_kana": "ギフケン",
    "prefecture_code": 21,
    "city": "岐阜市",
    "city_kana": "ギフシ",
    "town": "今沢町",
    "town_kana": "イマザワチョウ",
    "street": null,
    "office_name": null,
    "office_name_kana": null
  },
  "8823": {
    "postcode": "5008823",
    "prefecture": "岐阜県",
    "prefecture_kana": "ギフケン",
    "prefecture_code": 21,
    "city": "岐阜市",
    "city_kana": "ギフシ",
    "town": "江川町",
    "town_kana": "エガワチョウ",
    "street": null,
    "office_name": null,
    "office_name_kana": null
  },
  "8824": {
    "postcode": "5008824",
    "prefecture": "岐阜県",
    "prefecture_kana": "ギフケン",
    "prefecture_code": 21,
    "city": "岐阜市",
    "city_kana": "ギフシ",
    "town": "北八ツ寺町",
    "town_kana": "キタヤツデラマチ",
    "street": null,
    "office_name": null,
    "office_name_kana": null
  },
  "8825": {
    "postcode": "5008825",
    "prefecture": "岐阜県",
    "prefecture_kana": "ギフケン",
    "prefecture_code": 21,
    "city": "岐阜市",
    "city_kana": "ギフシ",
    "town": "八ツ寺町",
    "town_kana": "ヤツデラマチ",
    "street": null,
    "office_name": null,
    "office_name_kana": null
  },
  "8826": {
    "postcode": "5008826",
    "prefecture": "岐阜県",
    "prefecture_kana": "ギフケン",
    "prefecture_code": 21,
    "city": "岐阜市",
    "city_kana": "ギフシ",
    "town": "住吉町",
    "town_kana": "スミヨシチョウ",
    "street": null,
    "office_name": null,
    "office_name_kana": null
  },
  "8827": {
    "postcode": "5008827",
    "prefecture": "岐阜県",
    "prefecture_kana": "ギフケン",
    "prefecture_code": 21,
    "city": "岐阜市",
    "city_kana": "ギフシ",
    "town": "弥八町",
    "town_kana": "ヤハチチョウ",
    "street": null,
    "office_name": null,
    "office_name_kana": null
  },
  "8828": {
    "postcode": "5008828",
    "prefecture": "岐阜県",
    "prefecture_kana": "ギフケン",
    "prefecture_code": 21,
    "city": "岐阜市",
    "city_kana": "ギフシ",
    "town": "若宮町",
    "town_kana": "ワカミヤチョウ",
    "street": null,
    "office_name": null,
    "office_name_kana": null
  },
  "8829": {
    "postcode": "5008829",
    "prefecture": "岐阜県",
    "prefecture_kana": "ギフケン",
    "prefecture_code": 21,
    "city": "岐阜市",
    "city_kana": "ギフシ",
    "town": "杉山町",
    "town_kana": "スギヤマチョウ",
    "street": null,
    "office_name": null,
    "office_name_kana": null
  },
  "8831": {
    "postcode": "5008831",
    "prefecture": "岐阜県",
    "prefecture_kana": "ギフケン",
    "prefecture_code": 21,
    "city": "岐阜市",
    "city_kana": "ギフシ",
    "town": "弥生町",
    "town_kana": "ヤヨイチョウ",
    "street": null,
    "office_name": null,
    "office_name_kana": null
  },
  "8832": {
    "postcode": "5008832",
    "prefecture": "岐阜県",
    "prefecture_kana": "ギフケン",
    "prefecture_code": 21,
    "city": "岐阜市",
    "city_kana": "ギフシ",
    "town": "小柳町",
    "town_kana": "コヤナギチョウ",
    "street": null,
    "office_name": null,
    "office_name_kana": null
  },
  "8833": {
    "postcode": "5008833",
    "prefecture": "岐阜県",
    "prefecture_kana": "ギフケン",
    "prefecture_code": 21,
    "city": "岐阜市",
    "city_kana": "ギフシ",
    "town": "神田町",
    "town_kana": "カンダマチ",
    "street": null,
    "office_name": null,
    "office_name_kana": null
  },
  "8834": {
    "postcode": "5008834",
    "prefecture": "岐阜県",
    "prefecture_kana": "ギフケン",
    "prefecture_code": 21,
    "city": "岐阜市",
    "city_kana": "ギフシ",
    "town": "羽根町",
    "town_kana": "ハネマチ",
    "street": null,
    "office_name": null,
    "office_name_kana": null
  },
  "8835": {
    "postcode": "5008835",
    "prefecture": "岐阜県",
    "prefecture_kana": "ギフケン",
    "prefecture_code": 21,
    "city": "岐阜市",
    "city_kana": "ギフシ",
    "town": "玉宮町",
    "town_kana": "タマミヤチョウ",
    "street": null,
    "office_name": null,
    "office_name_kana": null
  },
  "8836": {
    "postcode": "5008836",
    "prefecture": "岐阜県",
    "prefecture_kana": "ギフケン",
    "prefecture_code": 21,
    "city": "岐阜市",
    "city_kana": "ギフシ",
    "town": "西玉宮町",
    "town_kana": "ニシタマミヤチョウ",
    "street": null,
    "office_name": null,
    "office_name_kana": null
  },
  "8837": {
    "postcode": "5008837",
    "prefecture": "岐阜県",
    "prefecture_kana": "ギフケン",
    "prefecture_code": 21,
    "city": "岐阜市",
    "city_kana": "ギフシ",
    "town": "玉森町",
    "town_kana": "タマモリチョウ",
    "street": null,
    "office_name": null,
    "office_name_kana": null
  },
  "8838": {
    "postcode": "5008838",
    "prefecture": "岐阜県",
    "prefecture_kana": "ギフケン",
    "prefecture_code": 21,
    "city": "岐阜市",
    "city_kana": "ギフシ",
    "town": "八幡町",
    "town_kana": "ハチマンチョウ",
    "street": null,
    "office_name": null,
    "office_name_kana": null
  },
  "8839": {
    "postcode": "5008839",
    "prefecture": "岐阜県",
    "prefecture_kana": "ギフケン",
    "prefecture_code": 21,
    "city": "岐阜市",
    "city_kana": "ギフシ",
    "town": "蕪城町",
    "town_kana": "カブラギチョウ",
    "street": null,
    "office_name": null,
    "office_name_kana": null
  },
  "8841": {
    "postcode": "5008841",
    "prefecture": "岐阜県",
    "prefecture_kana": "ギフケン",
    "prefecture_code": 21,
    "city": "岐阜市",
    "city_kana": "ギフシ",
    "town": "高野町",
    "town_kana": "タカノマチ",
    "street": null,
    "office_name": null,
    "office_name_kana": null
  },
  "8842": {
    "postcode": "5008842",
    "prefecture": "岐阜県",
    "prefecture_kana": "ギフケン",
    "prefecture_code": 21,
    "city": "岐阜市",
    "city_kana": "ギフシ",
    "town": "金町",
    "town_kana": "コガネマチ",
    "street": null,
    "office_name": null,
    "office_name_kana": null
  },
  "8843": {
    "postcode": "5008843",
    "prefecture": "岐阜県",
    "prefecture_kana": "ギフケン",
    "prefecture_code": 21,
    "city": "岐阜市",
    "city_kana": "ギフシ",
    "town": "住田町",
    "town_kana": "スミダマチ",
    "street": null,
    "office_name": null,
    "office_name_kana": null
  },
  "8844": {
    "postcode": "5008844",
    "prefecture": "岐阜県",
    "prefecture_kana": "ギフケン",
    "prefecture_code": 21,
    "city": "岐阜市",
    "city_kana": "ギフシ",
    "town": "吉野町",
    "town_kana": "ヨシノマチ",
    "street": null,
    "office_name": null,
    "office_name_kana": null
  },
  "8845": {
    "postcode": "5008845",
    "prefecture": "岐阜県",
    "prefecture_kana": "ギフケン",
    "prefecture_code": 21,
    "city": "岐阜市",
    "city_kana": "ギフシ",
    "town": "問屋町",
    "town_kana": "トイヤマチ",
    "street": null,
    "office_name": null,
    "office_name_kana": null
  },
  "8846": {
    "postcode": "5008846",
    "prefecture": "岐阜県",
    "prefecture_kana": "ギフケン",
    "prefecture_code": 21,
    "city": "岐阜市",
    "city_kana": "ギフシ",
    "town": "玉姓町",
    "town_kana": "ギョクセイチョウ",
    "street": null,
    "office_name": null,
    "office_name_kana": null
  },
  "8847": {
    "postcode": "5008847",
    "prefecture": "岐阜県",
    "prefecture_kana": "ギフケン",
    "prefecture_code": 21,
    "city": "岐阜市",
    "city_kana": "ギフシ",
    "town": "金宝町",
    "town_kana": "キンポウチョウ",
    "street": null,
    "office_name": null,
    "office_name_kana": null
  },
  "8848": {
    "postcode": "5008848",
    "prefecture": "岐阜県",
    "prefecture_kana": "ギフケン",
    "prefecture_code": 21,
    "city": "岐阜市",
    "city_kana": "ギフシ",
    "town": "神明町",
    "town_kana": "シンメイチョウ",
    "street": null,
    "office_name": null,
    "office_name_kana": null
  },
  "8849": {
    "postcode": "5008849",
    "prefecture": "岐阜県",
    "prefecture_kana": "ギフケン",
    "prefecture_code": 21,
    "city": "岐阜市",
    "city_kana": "ギフシ",
    "town": "金岡町",
    "town_kana": "カナオカチョウ",
    "street": null,
    "office_name": null,
    "office_name_kana": null
  },
  "8851": {
    "postcode": "5008851",
    "prefecture": "岐阜県",
    "prefecture_kana": "ギフケン",
    "prefecture_code": 21,
    "city": "岐阜市",
    "city_kana": "ギフシ",
    "town": "大宝町",
    "town_kana": "ダイホウチョウ",
    "street": null,
    "office_name": null,
    "office_name_kana": null
  },
  "8852": {
    "postcode": "5008852",
    "prefecture": "岐阜県",
    "prefecture_kana": "ギフケン",
    "prefecture_code": 21,
    "city": "岐阜市",
    "city_kana": "ギフシ",
    "town": "日ノ本町",
    "town_kana": "ヒノモトチョウ",
    "street": null,
    "office_name": null,
    "office_name_kana": null
  },
  "8853": {
    "postcode": "5008853",
    "prefecture": "岐阜県",
    "prefecture_kana": "ギフケン",
    "prefecture_code": 21,
    "city": "岐阜市",
    "city_kana": "ギフシ",
    "town": "西問屋町",
    "town_kana": "ニシトイヤマチ",
    "street": null,
    "office_name": null,
    "office_name_kana": null
  },
  "8854": {
    "postcode": "5008854",
    "prefecture": "岐阜県",
    "prefecture_kana": "ギフケン",
    "prefecture_code": 21,
    "city": "岐阜市",
    "city_kana": "ギフシ",
    "town": "花園町",
    "town_kana": "ハナゾノチョウ",
    "street": null,
    "office_name": null,
    "office_name_kana": null
  },
  "8855": {
    "postcode": "5008855",
    "prefecture": "岐阜県",
    "prefecture_kana": "ギフケン",
    "prefecture_code": 21,
    "city": "岐阜市",
    "city_kana": "ギフシ",
    "town": "新栄町",
    "town_kana": "シンサカエマチ",
    "street": null,
    "office_name": null,
    "office_name_kana": null
  },
  "8856": {
    "postcode": "5008856",
    "prefecture": "岐阜県",
    "prefecture_kana": "ギフケン",
    "prefecture_code": 21,
    "city": "岐阜市",
    "city_kana": "ギフシ",
    "town": "橋本町",
    "town_kana": "ハシモトチョウ",
    "street": null,
    "office_name": null,
    "office_name_kana": null
  },
  "8857": {
    "postcode": "5008857",
    "prefecture": "岐阜県",
    "prefecture_kana": "ギフケン",
    "prefecture_code": 21,
    "city": "岐阜市",
    "city_kana": "ギフシ",
    "town": "坂井町",
    "town_kana": "サカイマチ",
    "street": null,
    "office_name": null,
    "office_name_kana": null
  },
  "8858": {
    "postcode": "5008858",
    "prefecture": "岐阜県",
    "prefecture_kana": "ギフケン",
    "prefecture_code": 21,
    "city": "岐阜市",
    "city_kana": "ギフシ",
    "town": "福住町",
    "town_kana": "フクズミチョウ",
    "street": null,
    "office_name": null,
    "office_name_kana": null
  },
  "8859": {
    "postcode": "5008859",
    "prefecture": "岐阜県",
    "prefecture_kana": "ギフケン",
    "prefecture_code": 21,
    "city": "岐阜市",
    "city_kana": "ギフシ",
    "town": "室津町",
    "town_kana": "ムロツマチ",
    "street": null,
    "office_name": null,
    "office_name_kana": null
  },
  "8861": {
    "postcode": "5008861",
    "prefecture": "岐阜県",
    "prefecture_kana": "ギフケン",
    "prefecture_code": 21,
    "city": "岐阜市",
    "city_kana": "ギフシ",
    "town": "千手堂北町",
    "town_kana": "センジュドウキタマチ",
    "street": null,
    "office_name": null,
    "office_name_kana": null
  },
  "8862": {
    "postcode": "5008862",
    "prefecture": "岐阜県",
    "prefecture_kana": "ギフケン",
    "prefecture_code": 21,
    "city": "岐阜市",
    "city_kana": "ギフシ",
    "town": "千手堂中町",
    "town_kana": "センジュドウナカマチ",
    "street": null,
    "office_name": null,
    "office_name_kana": null
  },
  "8863": {
    "postcode": "5008863",
    "prefecture": "岐阜県",
    "prefecture_kana": "ギフケン",
    "prefecture_code": 21,
    "city": "岐阜市",
    "city_kana": "ギフシ",
    "town": "千手堂南町",
    "town_kana": "センジュドウミナミマチ",
    "street": null,
    "office_name": null,
    "office_name_kana": null
  },
  "8864": {
    "postcode": "5008864",
    "prefecture": "岐阜県",
    "prefecture_kana": "ギフケン",
    "prefecture_code": 21,
    "city": "岐阜市",
    "city_kana": "ギフシ",
    "town": "真砂町",
    "town_kana": "マサゴチョウ",
    "street": null,
    "office_name": null,
    "office_name_kana": null
  },
  "8865": {
    "postcode": "5008865",
    "prefecture": "岐阜県",
    "prefecture_kana": "ギフケン",
    "prefecture_code": 21,
    "city": "岐阜市",
    "city_kana": "ギフシ",
    "town": "昭和町",
    "town_kana": "ショウワマチ",
    "street": null,
    "office_name": null,
    "office_name_kana": null
  },
  "8866": {
    "postcode": "5008866",
    "prefecture": "岐阜県",
    "prefecture_kana": "ギフケン",
    "prefecture_code": 21,
    "city": "岐阜市",
    "city_kana": "ギフシ",
    "town": "寺島町",
    "town_kana": "テラジマチョウ",
    "street": null,
    "office_name": null,
    "office_name_kana": null
  },
  "8867": {
    "postcode": "5008867",
    "prefecture": "岐阜県",
    "prefecture_kana": "ギフケン",
    "prefecture_code": 21,
    "city": "岐阜市",
    "city_kana": "ギフシ",
    "town": "木ノ本町",
    "town_kana": "キノモトチョウ",
    "street": null,
    "office_name": null,
    "office_name_kana": null
  },
  "8868": {
    "postcode": "5008868",
    "prefecture": "岐阜県",
    "prefecture_kana": "ギフケン",
    "prefecture_code": 21,
    "city": "岐阜市",
    "city_kana": "ギフシ",
    "town": "光明町",
    "town_kana": "コウメイチョウ",
    "street": null,
    "office_name": null,
    "office_name_kana": null
  },
  "8869": {
    "postcode": "5008869",
    "prefecture": "岐阜県",
    "prefecture_kana": "ギフケン",
    "prefecture_code": 21,
    "city": "岐阜市",
    "city_kana": "ギフシ",
    "town": "元宮町",
    "town_kana": "モトミヤチョウ",
    "street": null,
    "office_name": null,
    "office_name_kana": null
  },
  "8871": {
    "postcode": "5008871",
    "prefecture": "岐阜県",
    "prefecture_kana": "ギフケン",
    "prefecture_code": 21,
    "city": "岐阜市",
    "city_kana": "ギフシ",
    "town": "大正町",
    "town_kana": "タイショウマチ",
    "street": null,
    "office_name": null,
    "office_name_kana": null
  },
  "8872": {
    "postcode": "5008872",
    "prefecture": "岐阜県",
    "prefecture_kana": "ギフケン",
    "prefecture_code": 21,
    "city": "岐阜市",
    "city_kana": "ギフシ",
    "town": "栄枝町",
    "town_kana": "サカエダチョウ",
    "street": null,
    "office_name": null,
    "office_name_kana": null
  },
  "8873": {
    "postcode": "5008873",
    "prefecture": "岐阜県",
    "prefecture_kana": "ギフケン",
    "prefecture_code": 21,
    "city": "岐阜市",
    "city_kana": "ギフシ",
    "town": "大富町",
    "town_kana": "オオトミチョウ",
    "street": null,
    "office_name": null,
    "office_name_kana": null
  },
  "8874": {
    "postcode": "5008874",
    "prefecture": "岐阜県",
    "prefecture_kana": "ギフケン",
    "prefecture_code": 21,
    "city": "岐阜市",
    "city_kana": "ギフシ",
    "town": "銀町",
    "town_kana": "シロガネマチ",
    "street": null,
    "office_name": null,
    "office_name_kana": null
  },
  "8875": {
    "postcode": "5008875",
    "prefecture": "岐阜県",
    "prefecture_kana": "ギフケン",
    "prefecture_code": 21,
    "city": "岐阜市",
    "city_kana": "ギフシ",
    "town": "柳ケ瀬通",
    "town_kana": "ヤナガセドオリ",
    "street": null,
    "office_name": null,
    "office_name_kana": null
  },
  "8876": {
    "postcode": "5008876",
    "prefecture": "岐阜県",
    "prefecture_kana": "ギフケン",
    "prefecture_code": 21,
    "city": "岐阜市",
    "city_kana": "ギフシ",
    "town": "日ノ出町",
    "town_kana": "ヒノデマチ",
    "street": null,
    "office_name": null,
    "office_name_kana": null
  },
  "8877": {
    "postcode": "5008877",
    "prefecture": "岐阜県",
    "prefecture_kana": "ギフケン",
    "prefecture_code": 21,
    "city": "岐阜市",
    "city_kana": "ギフシ",
    "town": "雲雀町",
    "town_kana": "ヒバリチョウ",
    "street": null,
    "office_name": null,
    "office_name_kana": null
  },
  "8878": {
    "postcode": "5008878",
    "prefecture": "岐阜県",
    "prefecture_kana": "ギフケン",
    "prefecture_code": 21,
    "city": "岐阜市",
    "city_kana": "ギフシ",
    "town": "神室町",
    "town_kana": "カムロチョウ",
    "street": null,
    "office_name": null,
    "office_name_kana": null
  },
  "8879": {
    "postcode": "5008879",
    "prefecture": "岐阜県",
    "prefecture_kana": "ギフケン",
    "prefecture_code": 21,
    "city": "岐阜市",
    "city_kana": "ギフシ",
    "town": "徹明通",
    "town_kana": "テツメイドオリ",
    "street": null,
    "office_name": null,
    "office_name_kana": null
  },
  "8881": {
    "postcode": "5008881",
    "prefecture": "岐阜県",
    "prefecture_kana": "ギフケン",
    "prefecture_code": 21,
    "city": "岐阜市",
    "city_kana": "ギフシ",
    "town": "青柳町",
    "town_kana": "アオヤギチョウ",
    "street": null,
    "office_name": null,
    "office_name_kana": null
  },
  "8882": {
    "postcode": "5008882",
    "prefecture": "岐阜県",
    "prefecture_kana": "ギフケン",
    "prefecture_code": 21,
    "city": "岐阜市",
    "city_kana": "ギフシ",
    "town": "西野町",
    "town_kana": "ニシノマチ",
    "street": null,
    "office_name": null,
    "office_name_kana": null
  },
  "8883": {
    "postcode": "5008883",
    "prefecture": "岐阜県",
    "prefecture_kana": "ギフケン",
    "prefecture_code": 21,
    "city": "岐阜市",
    "city_kana": "ギフシ",
    "town": "吾妻町",
    "town_kana": "アヅマチョウ",
    "street": null,
    "office_name": null,
    "office_name_kana": null
  },
  "8884": {
    "postcode": "5008884",
    "prefecture": "岐阜県",
    "prefecture_kana": "ギフケン",
    "prefecture_code": 21,
    "city": "岐阜市",
    "city_kana": "ギフシ",
    "town": "池田町",
    "town_kana": "イケダマチ",
    "street": null,
    "office_name": null,
    "office_name_kana": null
  },
  "8885": {
    "postcode": "5008885",
    "prefecture": "岐阜県",
    "prefecture_kana": "ギフケン",
    "prefecture_code": 21,
    "city": "岐阜市",
    "city_kana": "ギフシ",
    "town": "大柳町",
    "town_kana": "オオヤナギチョウ",
    "street": null,
    "office_name": null,
    "office_name_kana": null
  },
  "8886": {
    "postcode": "5008886",
    "prefecture": "岐阜県",
    "prefecture_kana": "ギフケン",
    "prefecture_code": 21,
    "city": "岐阜市",
    "city_kana": "ギフシ",
    "town": "西野町七丁目北町",
    "town_kana": "ニシノマチナナチョウメキタマチ",
    "street": null,
    "office_name": null,
    "office_name_kana": null
  },
  "8887": {
    "postcode": "5008887",
    "prefecture": "岐阜県",
    "prefecture_kana": "ギフケン",
    "prefecture_code": 21,
    "city": "岐阜市",
    "city_kana": "ギフシ",
    "town": "西野町六丁目北町",
    "town_kana": "ニシノマチロクチョウメキタマチ",
    "street": null,
    "office_name": null,
    "office_name_kana": null
  },
  "8888": {
    "postcode": "5008888",
    "prefecture": "岐阜県",
    "prefecture_kana": "ギフケン",
    "prefecture_code": 21,
    "city": "岐阜市",
    "city_kana": "ギフシ",
    "town": "万年町",
    "town_kana": "マンネンチョウ",
    "street": null,
    "office_name": null,
    "office_name_kana": null
  },
  "8889": {
    "postcode": "5008889",
    "prefecture": "岐阜県",
    "prefecture_kana": "ギフケン",
    "prefecture_code": 21,
    "city": "岐阜市",
    "city_kana": "ギフシ",
    "town": "大縄場",
    "town_kana": "オオナワバ",
    "street": null,
    "office_name": null,
    "office_name_kana": null
  },
  "8891": {
    "postcode": "5008891",
    "prefecture": "岐阜県",
    "prefecture_kana": "ギフケン",
    "prefecture_code": 21,
    "city": "岐阜市",
    "city_kana": "ギフシ",
    "town": "香蘭",
    "town_kana": "コウラン",
    "street": null,
    "office_name": null,
    "office_name_kana": null
  }
}