{
  "0000": {
    "postcode": "5030000",
    "prefecture": "岐阜県",
    "prefecture_kana": "ギフケン",
    "prefecture_code": 21,
    "city": "大垣市",
    "city_kana": "オオガキシ",
    "town": "",
    "town_kana": "",
    "street": null,
    "office_name": null,
    "office_name_kana": null
  },
  "0001": {
    "postcode": "5030001",
    "prefecture": "岐阜県",
    "prefecture_kana": "ギフケン",
    "prefecture_code": 21,
    "city": "大垣市",
    "city_kana": "オオガキシ",
    "town": "大島町",
    "town_kana": "オオシマチョウ",
    "street": null,
    "office_name": null,
    "office_name_kana": null
  },
  "0002": {
    "postcode": "5030002",
    "prefecture": "岐阜県",
    "prefecture_kana": "ギフケン",
    "prefecture_code": 21,
    "city": "大垣市",
    "city_kana": "オオガキシ",
    "town": "開発町",
    "town_kana": "カイハツチョウ",
    "street": null,
    "office_name": null,
    "office_name_kana": null
  },
  "0003": {
    "postcode": "5030003",
    "prefecture": "岐阜県",
    "prefecture_kana": "ギフケン",
    "prefecture_code": 21,
    "city": "大垣市",
    "city_kana": "オオガキシ",
    "town": "津村町",
    "town_kana": "ツムラチョウ",
    "street": null,
    "office_name": null,
    "office_name_kana": null
  },
  "0004": {
    "postcode": "5030004",
    "prefecture": "岐阜県",
    "prefecture_kana": "ギフケン",
    "prefecture_code": 21,
    "city": "大垣市",
    "city_kana": "オオガキシ",
    "town": "新開町",
    "town_kana": "シンカイチョウ",
    "street": null,
    "office_name": null,
    "office_name_kana": null
  },
  "0005": {
    "postcode": "5030005",
    "prefecture": "岐阜県",
    "prefecture_kana": "ギフケン",
    "prefecture_code": 21,
    "city": "大垣市",
    "city_kana": "オオガキシ",
    "town": "和合本町",
    "town_kana": "ワゴウホンマチ",
    "street": null,
    "office_name": null,
    "office_name_kana": null
  },
  "0006": {
    "postcode": "5030006",
    "prefecture": "岐阜県",
    "prefecture_kana": "ギフケン",
    "prefecture_code": 21,
    "city": "大垣市",
    "city_kana": "オオガキシ",
    "town": "加賀野",
    "town_kana": "カガノ",
    "street": null,
    "office_name": null,
    "office_name_kana": null
  },
  "0007": {
    "postcode": "5030007",
    "prefecture": "岐阜県",
    "prefecture_kana": "ギフケン",
    "prefecture_code": 21,
    "city": "大垣市",
    "city_kana": "オオガキシ",
    "town": "貝曽根町",
    "town_kana": "カイゾネチョウ",
    "street": null,
    "office_name": null,
    "office_name_kana": null
  },
  "0008": {
    "postcode": "5030008",
    "prefecture": "岐阜県",
    "prefecture_kana": "ギフケン",
    "prefecture_code": 21,
    "city": "大垣市",
    "city_kana": "オオガキシ",
    "town": "楽田町",
    "town_kana": "ガクデンチョウ",
    "street": null,
    "office_name": null,
    "office_name_kana": null
  },
  "0009": {
    "postcode": "5030009",
    "prefecture": "岐阜県",
    "prefecture_kana": "ギフケン",
    "prefecture_code": 21,
    "city": "大垣市",
    "city_kana": "オオガキシ",
    "town": "坂下町",
    "town_kana": "サカシタチョウ",
    "street": null,
    "office_name": null,
    "office_name_kana": null
  },
  "0011": {
    "postcode": "5030011",
    "prefecture": "岐阜県",
    "prefecture_kana": "ギフケン",
    "prefecture_code": 21,
    "city": "大垣市",
    "city_kana": "オオガキシ",
    "town": "曽根町",
    "town_kana": "ソネチョウ",
    "street": null,
    "office_name": null,
    "office_name_kana": null
  },
  "0012": {
    "postcode": "5030012",
    "prefecture": "岐阜県",
    "prefecture_kana": "ギフケン",
    "prefecture_code": 21,
    "city": "大垣市",
    "city_kana": "オオガキシ",
    "town": "三津屋町",
    "town_kana": "ミツヤチョウ",
    "street": null,
    "office_name": null,
    "office_name_kana": null
  },
  "0013": {
    "postcode": "5030013",
    "prefecture": "岐阜県",
    "prefecture_kana": "ギフケン",
    "prefecture_code": 21,
    "city": "大垣市",
    "city_kana": "オオガキシ",
    "town": "赤花町",
    "town_kana": "アカバナチョウ",
    "street": null,
    "office_name": null,
    "office_name_kana": null
  },
  "0014": {
    "postcode": "5030014",
    "prefecture": "岐阜県",
    "prefecture_kana": "ギフケン",
    "prefecture_code": 21,
    "city": "大垣市",
    "city_kana": "オオガキシ",
    "town": "領家町",
    "town_kana": "リョウケチョウ",
    "street": null,
    "office_name": null,
    "office_name_kana": null
  },
  "0015": {
    "postcode": "5030015",
    "prefecture": "岐阜県",
    "prefecture_kana": "ギフケン",
    "prefecture_code": 21,
    "city": "大垣市",
    "city_kana": "オオガキシ",
    "town": "林町",
    "town_kana": "ハヤシマチ",
    "street": null,
    "office_name": null,
    "office_name_kana": null
  },
  "0016": {
    "postcode": "5030016",
    "prefecture": "岐阜県",
    "prefecture_kana": "ギフケン",
    "prefecture_code": 21,
    "city": "大垣市",
    "city_kana": "オオガキシ",
    "town": "八島町",
    "town_kana": "ヤシマチョウ",
    "street": null,
    "office_name": null,
    "office_name_kana": null
  },
  "0017": {
    "postcode": "5030017",
    "prefecture": "岐阜県",
    "prefecture_kana": "ギフケン",
    "prefecture_code": 21,
    "city": "大垣市",
    "city_kana": "オオガキシ",
    "town": "中川町",
    "town_kana": "ナカガワチョウ",
    "street": null,
    "office_name": null,
    "office_name_kana": null
  },
  "0018": {
    "postcode": "5030018",
    "prefecture": "岐阜県",
    "prefecture_kana": "ギフケン",
    "prefecture_code": 21,
    "city": "大垣市",
    "city_kana": "オオガキシ",
    "town": "西之川町",
    "town_kana": "ニシノカワチョウ",
    "street": null,
    "office_name": null,
    "office_name_kana": null
  },
  "0019": {
    "postcode": "5030019",
    "prefecture": "岐阜県",
    "prefecture_kana": "ギフケン",
    "prefecture_code": 21,
    "city": "大垣市",
    "city_kana": "オオガキシ",
    "town": "北方町",
    "town_kana": "キタガタチョウ",
    "street": null,
    "office_name": null,
    "office_name_kana": null
  },
  "0021": {
    "postcode": "5030021",
    "prefecture": "岐阜県",
    "prefecture_kana": "ギフケン",
    "prefecture_code": 21,
    "city": "大垣市",
    "city_kana": "オオガキシ",
    "town": "河間町",
    "town_kana": "ガマチョウ",
    "street": null,
    "office_name": null,
    "office_name_kana": null
  },
  "0022": {
    "postcode": "5030022",
    "prefecture": "岐阜県",
    "prefecture_kana": "ギフケン",
    "prefecture_code": 21,
    "city": "大垣市",
    "city_kana": "オオガキシ",
    "town": "中野町",
    "town_kana": "ナカノチョウ",
    "street": null,
    "office_name": null,
    "office_name_kana": null
  },
  "0023": {
    "postcode": "5030023",
    "prefecture": "岐阜県",
    "prefecture_kana": "ギフケン",
    "prefecture_code": 21,
    "city": "大垣市",
    "city_kana": "オオガキシ",
    "town": "笠木町",
    "town_kana": "カサギチョウ",
    "street": null,
    "office_name": null,
    "office_name_kana": null
  },
  "0024": {
    "postcode": "5030024",
    "prefecture": "岐阜県",
    "prefecture_kana": "ギフケン",
    "prefecture_code": 21,
    "city": "大垣市",
    "city_kana": "オオガキシ",
    "town": "宿地町",
    "town_kana": "シュクジチョウ",
    "street": null,
    "office_name": null,
    "office_name_kana": null
  },
  "0025": {
    "postcode": "5030025",
    "prefecture": "岐阜県",
    "prefecture_kana": "ギフケン",
    "prefecture_code": 21,
    "city": "大垣市",
    "city_kana": "オオガキシ",
    "town": "見取町",
    "town_kana": "ミドリチョウ",
    "street": null,
    "office_name": null,
    "office_name_kana": null
  },
  "0026": {
    "postcode": "5030026",
    "prefecture": "岐阜県",
    "prefecture_kana": "ギフケン",
    "prefecture_code": 21,
    "city": "大垣市",
    "city_kana": "オオガキシ",
    "town": "室村町",
    "town_kana": "ムロムラチョウ",
    "street": null,
    "office_name": null,
    "office_name_kana": null
  },
  "0027": {
    "postcode": "5030027",
    "prefecture": "岐阜県",
    "prefecture_kana": "ギフケン",
    "prefecture_code": 21,
    "city": "大垣市",
    "city_kana": "オオガキシ",
    "town": "笠縫町",
    "town_kana": "カサヌイチョウ",
    "street": null,
    "office_name": null,
    "office_name_kana": null
  },
  "0031": {
    "postcode": "5030031",
    "prefecture": "岐阜県",
    "prefecture_kana": "ギフケン",
    "prefecture_code": 21,
    "city": "大垣市",
    "city_kana": "オオガキシ",
    "town": "牧野町",
    "town_kana": "マキノチョウ",
    "street": null,
    "office_name": null,
    "office_name_kana": null
  },
  "0032": {
    "postcode": "5030032",
    "prefecture": "岐阜県",
    "prefecture_kana": "ギフケン",
    "prefecture_code": 21,
    "city": "大垣市",
    "city_kana": "オオガキシ",
    "town": "熊野町",
    "town_kana": "クマノチョウ",
    "street": null,
    "office_name": null,
    "office_name_kana": null
  },
  "0033": {
    "postcode": "5030033",
    "prefecture": "岐阜県",
    "prefecture_kana": "ギフケン",
    "prefecture_code": 21,
    "city": "大垣市",
    "city_kana": "オオガキシ",
    "town": "福田町",
    "town_kana": "フクタチョウ",
    "street": null,
    "office_name": null,
    "office_name_kana": null
  },
  "0034": {
    "postcode": "5030034",
    "prefecture": "岐阜県",
    "prefecture_kana": "ギフケン",
    "prefecture_code": 21,
    "city": "大垣市",
    "city_kana": "オオガキシ",
    "town": "荒尾町",
    "town_kana": "アラオチョウ",
    "street": null,
    "office_name": null,
    "office_name_kana": null
  },
  "0035": {
    "postcode": "5030035",
    "prefecture": "岐阜県",
    "prefecture_kana": "ギフケン",
    "prefecture_code": 21,
    "city": "大垣市",
    "city_kana": "オオガキシ",
    "town": "荒尾玉池",
    "town_kana": "アラオタマイケ",
    "street": null,
    "office_name": null,
    "office_name_kana": null
  },
  "0036": {
    "postcode": "5030036",
    "prefecture": "岐阜県",
    "prefecture_kana": "ギフケン",
    "prefecture_code": 21,
    "city": "大垣市",
    "city_kana": "オオガキシ",
    "town": "古知丸",
    "town_kana": "コチマル",
    "street": null,
    "office_name": null,
    "office_name_kana": null
  },
  "0100": {
    "postcode": "5030100",
    "prefecture": "岐阜県",
    "prefecture_kana": "ギフケン",
    "prefecture_code": 21,
    "city": "安八郡安八町",
    "city_kana": "アンパチグンアンパチチョウ",
    "town": "",
    "town_kana": "",
    "street": null,
    "office_name": null,
    "office_name_kana": null
  },
  "0101": {
    "postcode": "5030101",
    "prefecture": "岐阜県",
    "prefecture_kana": "ギフケン",
    "prefecture_code": 21,
    "city": "大垣市",
    "city_kana": "オオガキシ",
    "town": "墨俣町先入方",
    "town_kana": "スノマタチョウセンイリカタ",
    "street": null,
    "office_name": null,
    "office_name_kana": null
  },
  "0102": {
    "postcode": "5030102",
    "prefecture": "岐阜県",
    "prefecture_kana": "ギフケン",
    "prefecture_code": 21,
    "city": "大垣市",
    "city_kana": "オオガキシ",
    "town": "墨俣町墨俣",
    "town_kana": "スノマタチョウスノマタ",
    "street": null,
    "office_name": null,
    "office_name_kana": null
  },
  "0103": {
    "postcode": "5030103",
    "prefecture": "岐阜県",
    "prefecture_kana": "ギフケン",
    "prefecture_code": 21,
    "city": "大垣市",
    "city_kana": "オオガキシ",
    "town": "墨俣町上宿",
    "town_kana": "スノマタチョウカミジュク",
    "street": null,
    "office_name": null,
    "office_name_kana": null
  },
  "0104": {
    "postcode": "5030104",
    "prefecture": "岐阜県",
    "prefecture_kana": "ギフケン",
    "prefecture_code": 21,
    "city": "大垣市",
    "city_kana": "オオガキシ",
    "town": "墨俣町下宿",
    "town_kana": "スノマタチョウシモジュク",
    "street": null,
    "office_name": null,
    "office_name_kana": null
  },
  "0105": {
    "postcode": "5030105",
    "prefecture": "岐阜県",
    "prefecture_kana": "ギフケン",
    "prefecture_code": 21,
    "city": "大垣市",
    "city_kana": "オオガキシ",
    "town": "墨俣町二ツ木",
    "town_kana": "スノマタチョウフタツギ",
    "street": null,
    "office_name": null,
    "office_name_kana": null
  },
  "0106": {
    "postcode": "5030106",
    "prefecture": "岐阜県",
    "prefecture_kana": "ギフケン",
    "prefecture_code": 21,
    "city": "大垣市",
    "city_kana": "オオガキシ",
    "town": "墨俣町さい川",
    "town_kana": "スノマタチョウサイカワ",
    "street": null,
    "office_name": null,
    "office_name_kana": null
  },
  "0111": {
    "postcode": "5030111",
    "prefecture": "岐阜県",
    "prefecture_kana": "ギフケン",
    "prefecture_code": 21,
    "city": "安八郡安八町",
    "city_kana": "アンパチグンアンパチチョウ",
    "town": "西結",
    "town_kana": "ニシムスブ",
    "street": null,
    "office_name": null,
    "office_name_kana": null
  },
  "0112": [
    {
      "postcode": "5030112",
      "prefecture": "岐阜県",
      "prefecture_kana": "ギフケン",
      "prefecture_code": 21,
      "city": "安八郡安八町",
      "city_kana": "アンパチグンアンパチチョウ",
      "town": "芝原",
      "town_kana": "シバハラ",
      "street": null,
      "office_name": null,
      "office_name_kana": null
    },
    {
      "postcode": "5030112",
      "prefecture": "岐阜県",
      "prefecture_kana": "ギフケン",
      "prefecture_code": 21,
      "city": "安八郡安八町",
      "city_kana": "アンパチグンアンパチチョウ",
      "town": "東結",
      "town_kana": "ヒガシムスブ",
      "street": null,
      "office_name": null,
      "office_name_kana": null
    }
  ],
  "0113": {
    "postcode": "5030113",
    "prefecture": "岐阜県",
    "prefecture_kana": "ギフケン",
    "prefecture_code": 21,
    "city": "安八郡安八町",
    "city_kana": "アンパチグンアンパチチョウ",
    "town": "北今ケ渕",
    "town_kana": "キタイマガフチ",
    "street": null,
    "office_name": null,
    "office_name_kana": null
  },
  "0114": {
    "postcode": "5030114",
    "prefecture": "岐阜県",
    "prefecture_kana": "ギフケン",
    "prefecture_code": 21,
    "city": "安八郡安八町",
    "city_kana": "アンパチグンアンパチチョウ",
    "town": "森部",
    "town_kana": "モリベ",
    "street": null,
    "office_name": null,
    "office_name_kana": null
  },
  "0115": {
    "postcode": "5030115",
    "prefecture": "岐阜県",
    "prefecture_kana": "ギフケン",
    "prefecture_code": 21,
    "city": "安八郡安八町",
    "city_kana": "アンパチグンアンパチチョウ",
    "town": "南今ケ渕",
    "town_kana": "ミナミイマガフチ",
    "street": null,
    "office_name": null,
    "office_name_kana": null
  },
  "0116": {
    "postcode": "5030116",
    "prefecture": "岐阜県",
    "prefecture_kana": "ギフケン",
    "prefecture_code": 21,
    "city": "安八郡安八町",
    "city_kana": "アンパチグンアンパチチョウ",
    "town": "大森",
    "town_kana": "オオモリ",
    "street": null,
    "office_name": null,
    "office_name_kana": null
  },
  "0117": {
    "postcode": "5030117",
    "prefecture": "岐阜県",
    "prefecture_kana": "ギフケン",
    "prefecture_code": 21,
    "city": "安八郡安八町",
    "city_kana": "アンパチグンアンパチチョウ",
    "town": "大明神",
    "town_kana": "ダイミョウジン",
    "street": null,
    "office_name": null,
    "office_name_kana": null
  },
  "0118": {
    "postcode": "5030118",
    "prefecture": "岐阜県",
    "prefecture_kana": "ギフケン",
    "prefecture_code": 21,
    "city": "安八郡安八町",
    "city_kana": "アンパチグンアンパチチョウ",
    "town": "宝江",
    "town_kana": "ホウエ",
    "street": null,
    "office_name": null,
    "office_name_kana": null
  },
  "0121": {
    "postcode": "5030121",
    "prefecture": "岐阜県",
    "prefecture_kana": "ギフケン",
    "prefecture_code": 21,
    "city": "安八郡安八町",
    "city_kana": "アンパチグンアンパチチョウ",
    "town": "氷取",
    "town_kana": "コオリトリ",
    "street": null,
    "office_name": null,
    "office_name_kana": null
  },
  "0122": {
    "postcode": "5030122",
    "prefecture": "岐阜県",
    "prefecture_kana": "ギフケン",
    "prefecture_code": 21,
    "city": "安八郡安八町",
    "city_kana": "アンパチグンアンパチチョウ",
    "town": "善光",
    "town_kana": "ゼンコウ",
    "street": null,
    "office_name": null,
    "office_name_kana": null
  },
  "0123": {
    "postcode": "5030123",
    "prefecture": "岐阜県",
    "prefecture_kana": "ギフケン",
    "prefecture_code": 21,
    "city": "安八郡安八町",
    "city_kana": "アンパチグンアンパチチョウ",
    "town": "南條",
    "town_kana": "ミナミジョウ",
    "street": null,
    "office_name": null,
    "office_name_kana": null
  },
  "0124": {
    "postcode": "5030124",
    "prefecture": "岐阜県",
    "prefecture_kana": "ギフケン",
    "prefecture_code": 21,
    "city": "安八郡安八町",
    "city_kana": "アンパチグンアンパチチョウ",
    "town": "中",
    "town_kana": "ナカ",
    "street": null,
    "office_name": null,
    "office_name_kana": null
  },
  "0125": {
    "postcode": "5030125",
    "prefecture": "岐阜県",
    "prefecture_kana": "ギフケン",
    "prefecture_code": 21,
    "city": "安八郡安八町",
    "city_kana": "アンパチグンアンパチチョウ",
    "town": "牧",
    "town_kana": "マキ",
    "street": null,
    "office_name": null,
    "office_name_kana": null
  },
  "0126": {
    "postcode": "5030126",
    "prefecture": "岐阜県",
    "prefecture_kana": "ギフケン",
    "prefecture_code": 21,
    "city": "安八郡安八町",
    "city_kana": "アンパチグンアンパチチョウ",
    "town": "中須",
    "town_kana": "ナカズ",
    "street": null,
    "office_name": null,
    "office_name_kana": null
  },
  "0127": {
    "postcode": "5030127",
    "prefecture": "岐阜県",
    "prefecture_kana": "ギフケン",
    "prefecture_code": 21,
    "city": "安八郡安八町",
    "city_kana": "アンパチグンアンパチチョウ",
    "town": "城",
    "town_kana": "シロ",
    "street": null,
    "office_name": null,
    "office_name_kana": null
  },
  "0128": {
    "postcode": "5030128",
    "prefecture": "岐阜県",
    "prefecture_kana": "ギフケン",
    "prefecture_code": 21,
    "city": "安八郡安八町",
    "city_kana": "アンパチグンアンパチチョウ",
    "town": "大野",
    "town_kana": "オオノ",
    "street": null,
    "office_name": null,
    "office_name_kana": null
  },
  "0129": {
    "postcode": "5030129",
    "prefecture": "岐阜県",
    "prefecture_kana": "ギフケン",
    "prefecture_code": 21,
    "city": "安八郡安八町",
    "city_kana": "アンパチグンアンパチチョウ",
    "town": "外善光",
    "town_kana": "ソトゼンコウ",
    "street": null,
    "office_name": null,
    "office_name_kana": null
  },
  "0141": [
    {
      "postcode": "5030141",
      "prefecture": "岐阜県",
      "prefecture_kana": "ギフケン",
      "prefecture_code": 21,
      "city": "大垣市",
      "city_kana": "オオガキシ",
      "town": "平町",
      "town_kana": "ヒラマチ",
      "street": null,
      "office_name": null,
      "office_name_kana": null
    },
    {
      "postcode": "5030141",
      "prefecture": "岐阜県",
      "prefecture_kana": "ギフケン",
      "prefecture_code": 21,
      "city": "大垣市",
      "city_kana": "オオガキシ",
      "town": "平町揖斐川東",
      "town_kana": "ヒラマチイビガワヒガシ",
      "street": null,
      "office_name": null,
      "office_name_kana": null
    }
  ],
  "0192": {
    "postcode": "5030192",
    "prefecture": "岐阜県",
    "prefecture_kana": "ギフケン",
    "prefecture_code": 21,
    "city": "大垣市",
    "city_kana": "オオガキシ",
    "town": "墨俣町上宿",
    "town_kana": "スノマタチョウカミジュク",
    "street": "４７３−１",
    "office_name": "大垣市　墨俣地域事務所",
    "office_name_kana": "オオガキシ スノマタチイキジムシヨ"
  },
  "0198": {
    "postcode": "5030198",
    "prefecture": "岐阜県",
    "prefecture_kana": "ギフケン",
    "prefecture_code": 21,
    "city": "安八郡安八町",
    "city_kana": "アンパチグンアンパチチョウ",
    "town": "氷取",
    "town_kana": "コオリトリ",
    "street": "１６１",
    "office_name": "安八町役場",
    "office_name_kana": "アンパチチヨウヤクバ"
  },
  "0200": {
    "postcode": "5030200",
    "prefecture": "岐阜県",
    "prefecture_kana": "ギフケン",
    "prefecture_code": 21,
    "city": "安八郡輪之内町",
    "city_kana": "アンパチグンワノウチチョウ",
    "town": "",
    "town_kana": "",
    "street": null,
    "office_name": null,
    "office_name_kana": null
  },
  "0201": {
    "postcode": "5030201",
    "prefecture": "岐阜県",
    "prefecture_kana": "ギフケン",
    "prefecture_code": 21,
    "city": "安八郡輪之内町",
    "city_kana": "アンパチグンワノウチチョウ",
    "town": "楡俣",
    "town_kana": "ニレマタ",
    "street": null,
    "office_name": null,
    "office_name_kana": null
  },
  "0202": {
    "postcode": "5030202",
    "prefecture": "岐阜県",
    "prefecture_kana": "ギフケン",
    "prefecture_code": 21,
    "city": "安八郡輪之内町",
    "city_kana": "アンパチグンワノウチチョウ",
    "town": "大藪",
    "town_kana": "オオヤブ",
    "street": null,
    "office_name": null,
    "office_name_kana": null
  },
  "0203": {
    "postcode": "5030203",
    "prefecture": "岐阜県",
    "prefecture_kana": "ギフケン",
    "prefecture_code": 21,
    "city": "安八郡輪之内町",
    "city_kana": "アンパチグンワノウチチョウ",
    "town": "楡俣新田",
    "town_kana": "ニレマタシンデン",
    "street": null,
    "office_name": null,
    "office_name_kana": null
  },
  "0204": {
    "postcode": "5030204",
    "prefecture": "岐阜県",
    "prefecture_kana": "ギフケン",
    "prefecture_code": 21,
    "city": "安八郡輪之内町",
    "city_kana": "アンパチグンワノウチチョウ",
    "town": "四郷",
    "town_kana": "ヨゴウ",
    "street": null,
    "office_name": null,
    "office_name_kana": null
  },
  "0205": {
    "postcode": "5030205",
    "prefecture": "岐阜県",
    "prefecture_kana": "ギフケン",
    "prefecture_code": 21,
    "city": "安八郡輪之内町",
    "city_kana": "アンパチグンワノウチチョウ",
    "town": "下大榑",
    "town_kana": "シモオオグレ",
    "street": null,
    "office_name": null,
    "office_name_kana": null
  },
  "0206": {
    "postcode": "5030206",
    "prefecture": "岐阜県",
    "prefecture_kana": "ギフケン",
    "prefecture_code": 21,
    "city": "安八郡輪之内町",
    "city_kana": "アンパチグンワノウチチョウ",
    "town": "下大榑新田",
    "town_kana": "シモオオグレシンデン",
    "street": null,
    "office_name": null,
    "office_name_kana": null
  },
  "0211": {
    "postcode": "5030211",
    "prefecture": "岐阜県",
    "prefecture_kana": "ギフケン",
    "prefecture_code": 21,
    "city": "安八郡輪之内町",
    "city_kana": "アンパチグンワノウチチョウ",
    "town": "福束新田",
    "town_kana": "フクヅカシンデン",
    "street": null,
    "office_name": null,
    "office_name_kana": null
  },
  "0212": {
    "postcode": "5030212",
    "prefecture": "岐阜県",
    "prefecture_kana": "ギフケン",
    "prefecture_code": 21,
    "city": "安八郡輪之内町",
    "city_kana": "アンパチグンワノウチチョウ",
    "town": "中郷新田",
    "town_kana": "ナカゴウシンデン",
    "street": null,
    "office_name": null,
    "office_name_kana": null
  },
  "0213": {
    "postcode": "5030213",
    "prefecture": "岐阜県",
    "prefecture_kana": "ギフケン",
    "prefecture_code": 21,
    "city": "安八郡輪之内町",
    "city_kana": "アンパチグンワノウチチョウ",
    "town": "藻池新田",
    "town_kana": "モイケシンデン",
    "street": null,
    "office_name": null,
    "office_name_kana": null
  },
  "0214": {
    "postcode": "5030214",
    "prefecture": "岐阜県",
    "prefecture_kana": "ギフケン",
    "prefecture_code": 21,
    "city": "安八郡輪之内町",
    "city_kana": "アンパチグンワノウチチョウ",
    "town": "海松新田",
    "town_kana": "ミルシンデン",
    "street": null,
    "office_name": null,
    "office_name_kana": null
  },
  "0215": {
    "postcode": "5030215",
    "prefecture": "岐阜県",
    "prefecture_kana": "ギフケン",
    "prefecture_code": 21,
    "city": "安八郡輪之内町",
    "city_kana": "アンパチグンワノウチチョウ",
    "town": "松内",
    "town_kana": "マツウチ",
    "street": null,
    "office_name": null,
    "office_name_kana": null
  },
  "0216": {
    "postcode": "5030216",
    "prefecture": "岐阜県",
    "prefecture_kana": "ギフケン",
    "prefecture_code": 21,
    "city": "安八郡輪之内町",
    "city_kana": "アンパチグンワノウチチョウ",
    "town": "大吉新田",
    "town_kana": "オオヨシシンデン",
    "street": null,
    "office_name": null,
    "office_name_kana": null
  },
  "0231": {
    "postcode": "5030231",
    "prefecture": "岐阜県",
    "prefecture_kana": "ギフケン",
    "prefecture_code": 21,
    "city": "安八郡輪之内町",
    "city_kana": "アンパチグンワノウチチョウ",
    "town": "南波",
    "town_kana": "ナンバ",
    "street": null,
    "office_name": null,
    "office_name_kana": null
  },
  "0232": {
    "postcode": "5030232",
    "prefecture": "岐阜県",
    "prefecture_kana": "ギフケン",
    "prefecture_code": 21,
    "city": "安八郡輪之内町",
    "city_kana": "アンパチグンワノウチチョウ",
    "town": "本戸",
    "town_kana": "ホンド",
    "street": null,
    "office_name": null,
    "office_name_kana": null
  },
  "0233": {
    "postcode": "5030233",
    "prefecture": "岐阜県",
    "prefecture_kana": "ギフケン",
    "prefecture_code": 21,
    "city": "安八郡輪之内町",
    "city_kana": "アンパチグンワノウチチョウ",
    "town": "中郷",
    "town_kana": "ナカゴウ",
    "street": null,
    "office_name": null,
    "office_name_kana": null
  },
  "0234": {
    "postcode": "5030234",
    "prefecture": "岐阜県",
    "prefecture_kana": "ギフケン",
    "prefecture_code": 21,
    "city": "安八郡輪之内町",
    "city_kana": "アンパチグンワノウチチョウ",
    "town": "里",
    "town_kana": "サト",
    "street": null,
    "office_name": null,
    "office_name_kana": null
  },
  "0235": {
    "postcode": "5030235",
    "prefecture": "岐阜県",
    "prefecture_kana": "ギフケン",
    "prefecture_code": 21,
    "city": "安八郡輪之内町",
    "city_kana": "アンパチグンワノウチチョウ",
    "town": "福束",
    "town_kana": "フクヅカ",
    "street": null,
    "office_name": null,
    "office_name_kana": null
  },
  "0236": {
    "postcode": "5030236",
    "prefecture": "岐阜県",
    "prefecture_kana": "ギフケン",
    "prefecture_code": 21,
    "city": "安八郡輪之内町",
    "city_kana": "アンパチグンワノウチチョウ",
    "town": "塩喰",
    "town_kana": "シオバミ",
    "street": null,
    "office_name": null,
    "office_name_kana": null
  },
  "0292": {
    "postcode": "5030292",
    "prefecture": "岐阜県",
    "prefecture_kana": "ギフケン",
    "prefecture_code": 21,
    "city": "安八郡輪之内町",
    "city_kana": "アンパチグンワノウチチョウ",
    "town": "四郷",
    "town_kana": "ヨゴウ",
    "street": "２５３０−１",
    "office_name": "輪之内町役場",
    "office_name_kana": "ワノウチチヨウヤクバ"
  },
  "0295": {
    "postcode": "5030295",
    "prefecture": "岐阜県",
    "prefecture_kana": "ギフケン",
    "prefecture_code": 21,
    "city": "安八郡輪之内町",
    "city_kana": "アンパチグンワノウチチョウ",
    "town": "楡俣",
    "town_kana": "ニレマタ",
    "street": "１６９５−１",
    "office_name": "未来工業　株式会社",
    "office_name_kana": "ミライコウギヨウ カブシキガイシヤ"
  },
  "0301": {
    "postcode": "5030301",
    "prefecture": "岐阜県",
    "prefecture_kana": "ギフケン",
    "prefecture_code": 21,
    "city": "海津市",
    "city_kana": "カイヅシ",
    "town": "平田町須賀",
    "town_kana": "ヒラタチョウスカ",
    "street": null,
    "office_name": null,
    "office_name_kana": null
  },
  "0302": {
    "postcode": "5030302",
    "prefecture": "岐阜県",
    "prefecture_kana": "ギフケン",
    "prefecture_code": 21,
    "city": "海津市",
    "city_kana": "カイヅシ",
    "town": "平田町勝賀",
    "town_kana": "ヒラタチョウカツガ",
    "street": null,
    "office_name": null,
    "office_name_kana": null
  },
  "0303": {
    "postcode": "5030303",
    "prefecture": "岐阜県",
    "prefecture_kana": "ギフケン",
    "prefecture_code": 21,
    "city": "海津市",
    "city_kana": "カイヅシ",
    "town": "平田町野寺",
    "town_kana": "ヒラタチョウノデラ",
    "street": null,
    "office_name": null,
    "office_name_kana": null
  },
  "0304": {
    "postcode": "5030304",
    "prefecture": "岐阜県",
    "prefecture_kana": "ギフケン",
    "prefecture_code": 21,
    "city": "海津市",
    "city_kana": "カイヅシ",
    "town": "平田町幡長",
    "town_kana": "ヒラタチョウハタオサ",
    "street": null,
    "office_name": null,
    "office_name_kana": null
  },
  "0305": {
    "postcode": "5030305",
    "prefecture": "岐阜県",
    "prefecture_kana": "ギフケン",
    "prefecture_code": 21,
    "city": "海津市",
    "city_kana": "カイヅシ",
    "town": "平田町者結",
    "town_kana": "ヒラタチョウジャケツ",
    "street": null,
    "office_name": null,
    "office_name_kana": null
  },
  "0306": {
    "postcode": "5030306",
    "prefecture": "岐阜県",
    "prefecture_kana": "ギフケン",
    "prefecture_code": 21,
    "city": "海津市",
    "city_kana": "カイヅシ",
    "town": "平田町蛇池",
    "town_kana": "ヒラタチョウジャイケ",
    "street": null,
    "office_name": null,
    "office_name_kana": null
  },
  "0307": {
    "postcode": "5030307",
    "prefecture": "岐阜県",
    "prefecture_kana": "ギフケン",
    "prefecture_code": 21,
    "city": "海津市",
    "city_kana": "カイヅシ",
    "town": "平田町岡",
    "town_kana": "ヒラタチョウオカ",
    "street": null,
    "office_name": null,
    "office_name_kana": null
  },
  "0311": {
    "postcode": "5030311",
    "prefecture": "岐阜県",
    "prefecture_kana": "ギフケン",
    "prefecture_code": 21,
    "city": "海津市",
    "city_kana": "カイヅシ",
    "town": "平田町仏師川",
    "town_kana": "ヒラタチョウブシガワ",
    "street": null,
    "office_name": null,
    "office_name_kana": null
  },
  "0312": {
    "postcode": "5030312",
    "prefecture": "岐阜県",
    "prefecture_kana": "ギフケン",
    "prefecture_code": 21,
    "city": "海津市",
    "city_kana": "カイヅシ",
    "town": "平田町三郷",
    "town_kana": "ヒラタチョウサンゴウ",
    "street": null,
    "office_name": null,
    "office_name_kana": null
  },
  "0313": {
    "postcode": "5030313",
    "prefecture": "岐阜県",
    "prefecture_kana": "ギフケン",
    "prefecture_code": 21,
    "city": "海津市",
    "city_kana": "カイヅシ",
    "town": "平田町高田",
    "town_kana": "ヒラタチョウタカダ",
    "street": null,
    "office_name": null,
    "office_name_kana": null
  },
  "0314": {
    "postcode": "5030314",
    "prefecture": "岐阜県",
    "prefecture_kana": "ギフケン",
    "prefecture_code": 21,
    "city": "海津市",
    "city_kana": "カイヅシ",
    "town": "平田町西島",
    "town_kana": "ヒラタチョウニシジマ",
    "street": null,
    "office_name": null,
    "office_name_kana": null
  },
  "0321": {
    "postcode": "5030321",
    "prefecture": "岐阜県",
    "prefecture_kana": "ギフケン",
    "prefecture_code": 21,
    "city": "海津市",
    "city_kana": "カイヅシ",
    "town": "平田町今尾",
    "town_kana": "ヒラタチョウイマオ",
    "street": null,
    "office_name": null,
    "office_name_kana": null
  },
  "0322": {
    "postcode": "5030322",
    "prefecture": "岐阜県",
    "prefecture_kana": "ギフケン",
    "prefecture_code": 21,
    "city": "海津市",
    "city_kana": "カイヅシ",
    "town": "平田町土倉",
    "town_kana": "ヒラタチョウツチクラ",
    "street": null,
    "office_name": null,
    "office_name_kana": null
  },
  "0323": {
    "postcode": "5030323",
    "prefecture": "岐阜県",
    "prefecture_kana": "ギフケン",
    "prefecture_code": 21,
    "city": "海津市",
    "city_kana": "カイヅシ",
    "town": "平田町脇野",
    "town_kana": "ヒラタチョウワキノ",
    "street": null,
    "office_name": null,
    "office_name_kana": null
  },
  "0392": {
    "postcode": "5030392",
    "prefecture": "岐阜県",
    "prefecture_kana": "ギフケン",
    "prefecture_code": 21,
    "city": "海津市",
    "city_kana": "カイヅシ",
    "town": "平田町仏師川",
    "town_kana": "ヒラタチョウブシガワ",
    "street": "４８３",
    "office_name": "海津市役所　平田支所",
    "office_name_kana": "カイヅシヤクシヨ ヒラタシシヨ"
  },
  "0401": {
    "postcode": "5030401",
    "prefecture": "岐阜県",
    "prefecture_kana": "ギフケン",
    "prefecture_code": 21,
    "city": "海津市",
    "city_kana": "カイヅシ",
    "town": "南濃町津屋",
    "town_kana": "ナンノウチョウツヤ",
    "street": null,
    "office_name": null,
    "office_name_kana": null
  },
  "0402": {
    "postcode": "5030402",
    "prefecture": "岐阜県",
    "prefecture_kana": "ギフケン",
    "prefecture_code": 21,
    "city": "海津市",
    "city_kana": "カイヅシ",
    "town": "南濃町志津新田",
    "town_kana": "ナンノウチョウシヅシンデン",
    "street": null,
    "office_name": null,
    "office_name_kana": null
  },
  "0403": {
    "postcode": "5030403",
    "prefecture": "岐阜県",
    "prefecture_kana": "ギフケン",
    "prefecture_code": 21,
    "city": "海津市",
    "city_kana": "カイヅシ",
    "town": "南濃町志津",
    "town_kana": "ナンノウチョウシヅ",
    "street": null,
    "office_name": null,
    "office_name_kana": null
  },
  "0404": {
    "postcode": "5030404",
    "prefecture": "岐阜県",
    "prefecture_kana": "ギフケン",
    "prefecture_code": 21,
    "city": "海津市",
    "city_kana": "カイヅシ",
    "town": "南濃町早瀬",
    "town_kana": "ナンノウチョウハヤセ",
    "street": null,
    "office_name": null,
    "office_name_kana": null
  },
  "0405": {
    "postcode": "5030405",
    "prefecture": "岐阜県",
    "prefecture_kana": "ギフケン",
    "prefecture_code": 21,
    "city": "海津市",
    "city_kana": "カイヅシ",
    "town": "南濃町駒野新田",
    "town_kana": "ナンノウチョウコマノシンデン",
    "street": null,
    "office_name": null,
    "office_name_kana": null
  },
  "0406": {
    "postcode": "5030406",
    "prefecture": "岐阜県",
    "prefecture_kana": "ギフケン",
    "prefecture_code": 21,
    "city": "海津市",
    "city_kana": "カイヅシ",
    "town": "南濃町戸田",
    "town_kana": "ナンノウチョウトダ",
    "street": null,
    "office_name": null,
    "office_name_kana": null
  },
  "0407": {
    "postcode": "5030407",
    "prefecture": "岐阜県",
    "prefecture_kana": "ギフケン",
    "prefecture_code": 21,
    "city": "海津市",
    "city_kana": "カイヅシ",
    "town": "南濃町徳田",
    "town_kana": "ナンノウチョウトクダ",
    "street": null,
    "office_name": null,
    "office_name_kana": null
  },
  "0408": {
    "postcode": "5030408",
    "prefecture": "岐阜県",
    "prefecture_kana": "ギフケン",
    "prefecture_code": 21,
    "city": "海津市",
    "city_kana": "カイヅシ",
    "town": "南濃町庭田",
    "town_kana": "ナンノウチョウニワダ",
    "street": null,
    "office_name": null,
    "office_name_kana": null
  },
  "0411": {
    "postcode": "5030411",
    "prefecture": "岐阜県",
    "prefecture_kana": "ギフケン",
    "prefecture_code": 21,
    "city": "海津市",
    "city_kana": "カイヅシ",
    "town": "南濃町駒野",
    "town_kana": "ナンノウチョウコマノ",
    "street": null,
    "office_name": null,
    "office_name_kana": null
  },
  "0412": {
    "postcode": "5030412",
    "prefecture": "岐阜県",
    "prefecture_kana": "ギフケン",
    "prefecture_code": 21,
    "city": "海津市",
    "city_kana": "カイヅシ",
    "town": "南濃町奥条",
    "town_kana": "ナンノウチョウオクジョウ",
    "street": null,
    "office_name": null,
    "office_name_kana": null
  },
  "0413": {
    "postcode": "5030413",
    "prefecture": "岐阜県",
    "prefecture_kana": "ギフケン",
    "prefecture_code": 21,
    "city": "海津市",
    "city_kana": "カイヅシ",
    "town": "南濃町羽沢",
    "town_kana": "ナンノウチョウハザワ",
    "street": null,
    "office_name": null,
    "office_name_kana": null
  },
  "0414": {
    "postcode": "5030414",
    "prefecture": "岐阜県",
    "prefecture_kana": "ギフケン",
    "prefecture_code": 21,
    "city": "海津市",
    "city_kana": "カイヅシ",
    "town": "南濃町上野河戸",
    "town_kana": "ナンノウチョウウエノコウズ",
    "street": null,
    "office_name": null,
    "office_name_kana": null
  },
  "0415": {
    "postcode": "5030415",
    "prefecture": "岐阜県",
    "prefecture_kana": "ギフケン",
    "prefecture_code": 21,
    "city": "海津市",
    "city_kana": "カイヅシ",
    "town": "南濃町山崎",
    "town_kana": "ナンノウチョウヤマザキ",
    "street": null,
    "office_name": null,
    "office_name_kana": null
  },
  "0495": {
    "postcode": "5030495",
    "prefecture": "岐阜県",
    "prefecture_kana": "ギフケン",
    "prefecture_code": 21,
    "city": "海津市",
    "city_kana": "カイヅシ",
    "town": "南濃町駒野奥条入会地",
    "town_kana": null,
    "street": "９９−１",
    "office_name": "海津市役所　城山支所",
    "office_name_kana": "カイヅシヤクシヨ シロヤマシシヨ"
  },
  "0531": {
    "postcode": "5030531",
    "prefecture": "岐阜県",
    "prefecture_kana": "ギフケン",
    "prefecture_code": 21,
    "city": "海津市",
    "city_kana": "カイヅシ",
    "town": "南濃町安江",
    "town_kana": "ナンノウチョウヤスエ",
    "street": null,
    "office_name": null,
    "office_name_kana": null
  },
  "0532": {
    "postcode": "5030532",
    "prefecture": "岐阜県",
    "prefecture_kana": "ギフケン",
    "prefecture_code": 21,
    "city": "海津市",
    "city_kana": "カイヅシ",
    "town": "南濃町太田",
    "town_kana": "ナンノウチョウオオタ",
    "street": null,
    "office_name": null,
    "office_name_kana": null
  },
  "0533": {
    "postcode": "5030533",
    "prefecture": "岐阜県",
    "prefecture_kana": "ギフケン",
    "prefecture_code": 21,
    "city": "海津市",
    "city_kana": "カイヅシ",
    "town": "南濃町田鶴",
    "town_kana": "ナンノウチョウタヅル",
    "street": null,
    "office_name": null,
    "office_name_kana": null
  },
  "0534": {
    "postcode": "5030534",
    "prefecture": "岐阜県",
    "prefecture_kana": "ギフケン",
    "prefecture_code": 21,
    "city": "海津市",
    "city_kana": "カイヅシ",
    "town": "南濃町境",
    "town_kana": "ナンノウチョウサカイ",
    "street": null,
    "office_name": null,
    "office_name_kana": null
  },
  "0535": {
    "postcode": "5030535",
    "prefecture": "岐阜県",
    "prefecture_kana": "ギフケン",
    "prefecture_code": 21,
    "city": "海津市",
    "city_kana": "カイヅシ",
    "town": "南濃町松山",
    "town_kana": "ナンノウチョウマツヤマ",
    "street": null,
    "office_name": null,
    "office_name_kana": null
  },
  "0536": {
    "postcode": "5030536",
    "prefecture": "岐阜県",
    "prefecture_kana": "ギフケン",
    "prefecture_code": 21,
    "city": "海津市",
    "city_kana": "カイヅシ",
    "town": "南濃町吉田",
    "town_kana": "ナンノウチョウヨシダ",
    "street": null,
    "office_name": null,
    "office_name_kana": null
  },
  "0600": {
    "postcode": "5030600",
    "prefecture": "岐阜県",
    "prefecture_kana": "ギフケン",
    "prefecture_code": 21,
    "city": "海津市",
    "city_kana": "カイヅシ",
    "town": "",
    "town_kana": "",
    "street": null,
    "office_name": null,
    "office_name_kana": null
  },
  "0601": {
    "postcode": "5030601",
    "prefecture": "岐阜県",
    "prefecture_kana": "ギフケン",
    "prefecture_code": 21,
    "city": "海津市",
    "city_kana": "カイヅシ",
    "town": "海津町松木",
    "town_kana": "カイヅチョウマツノキ",
    "street": null,
    "office_name": null,
    "office_name_kana": null
  },
  "0602": {
    "postcode": "5030602",
    "prefecture": "岐阜県",
    "prefecture_kana": "ギフケン",
    "prefecture_code": 21,
    "city": "海津市",
    "city_kana": "カイヅシ",
    "town": "海津町瀬古",
    "town_kana": "カイヅチョウセコ",
    "street": null,
    "office_name": null,
    "office_name_kana": null
  },
  "0603": {
    "postcode": "5030603",
    "prefecture": "岐阜県",
    "prefecture_kana": "ギフケン",
    "prefecture_code": 21,
    "city": "海津市",
    "city_kana": "カイヅシ",
    "town": "海津町神桐",
    "town_kana": "カイヅチョウカミギリ",
    "street": null,
    "office_name": null,
    "office_name_kana": null
  },
  "0604": {
    "postcode": "5030604",
    "prefecture": "岐阜県",
    "prefecture_kana": "ギフケン",
    "prefecture_code": 21,
    "city": "海津市",
    "city_kana": "カイヅシ",
    "town": "海津町成戸",
    "town_kana": "カイヅチョウナリト",
    "street": null,
    "office_name": null,
    "office_name_kana": null
  },
  "0605": {
    "postcode": "5030605",
    "prefecture": "岐阜県",
    "prefecture_kana": "ギフケン",
    "prefecture_code": 21,
    "city": "海津市",
    "city_kana": "カイヅシ",
    "town": "海津町福一色",
    "town_kana": "カイヅチョウフクイシキ",
    "street": null,
    "office_name": null,
    "office_name_kana": null
  },
  "0606": {
    "postcode": "5030606",
    "prefecture": "岐阜県",
    "prefecture_kana": "ギフケン",
    "prefecture_code": 21,
    "city": "海津市",
    "city_kana": "カイヅシ",
    "town": "海津町田中",
    "town_kana": "カイヅチョウタナカ",
    "street": null,
    "office_name": null,
    "office_name_kana": null
  },
  "0608": {
    "postcode": "5030608",
    "prefecture": "岐阜県",
    "prefecture_kana": "ギフケン",
    "prefecture_code": 21,
    "city": "海津市",
    "city_kana": "カイヅシ",
    "town": "海津町鹿野",
    "town_kana": "カイヅチョウカノ",
    "street": null,
    "office_name": null,
    "office_name_kana": null
  },
  "0611": {
    "postcode": "5030611",
    "prefecture": "岐阜県",
    "prefecture_kana": "ギフケン",
    "prefecture_code": 21,
    "city": "海津市",
    "city_kana": "カイヅシ",
    "town": "海津町秋江",
    "town_kana": "カイヅチョウアキエ",
    "street": null,
    "office_name": null,
    "office_name_kana": null
  },
  "0612": {
    "postcode": "5030612",
    "prefecture": "岐阜県",
    "prefecture_kana": "ギフケン",
    "prefecture_code": 21,
    "city": "海津市",
    "city_kana": "カイヅシ",
    "town": "海津町大和田",
    "town_kana": "カイヅチョウオワダ",
    "street": null,
    "office_name": null,
    "office_name_kana": null
  },
  "0613": {
    "postcode": "5030613",
    "prefecture": "岐阜県",
    "prefecture_kana": "ギフケン",
    "prefecture_code": 21,
    "city": "海津市",
    "city_kana": "カイヅシ",
    "town": "海津町駒ケ江",
    "town_kana": "カイヅチョウコマガエ",
    "street": null,
    "office_name": null,
    "office_name_kana": null
  },
  "0614": {
    "postcode": "5030614",
    "prefecture": "岐阜県",
    "prefecture_kana": "ギフケン",
    "prefecture_code": 21,
    "city": "海津市",
    "city_kana": "カイヅシ",
    "town": "海津町長瀬",
    "town_kana": "カイヅチョウナガセ",
    "street": null,
    "office_name": null,
    "office_name_kana": null
  },
  "0615": {
    "postcode": "5030615",
    "prefecture": "岐阜県",
    "prefecture_kana": "ギフケン",
    "prefecture_code": 21,
    "city": "海津市",
    "city_kana": "カイヅシ",
    "town": "海津町日原",
    "town_kana": "カイヅチョウヒワラ",
    "street": null,
    "office_name": null,
    "office_name_kana": null
  },
  "0616": {
    "postcode": "5030616",
    "prefecture": "岐阜県",
    "prefecture_kana": "ギフケン",
    "prefecture_code": 21,
    "city": "海津市",
    "city_kana": "カイヅシ",
    "town": "海津町長久保",
    "town_kana": "カイヅチョウナガクボ",
    "street": null,
    "office_name": null,
    "office_name_kana": null
  },
  "0617": {
    "postcode": "5030617",
    "prefecture": "岐阜県",
    "prefecture_kana": "ギフケン",
    "prefecture_code": 21,
    "city": "海津市",
    "city_kana": "カイヅシ",
    "town": "海津町立野",
    "town_kana": "カイヅチョウタテノ",
    "street": null,
    "office_name": null,
    "office_name_kana": null
  },
  "0618": {
    "postcode": "5030618",
    "prefecture": "岐阜県",
    "prefecture_kana": "ギフケン",
    "prefecture_code": 21,
    "city": "海津市",
    "city_kana": "カイヅシ",
    "town": "海津町草場",
    "town_kana": "カイヅチョウクサバ",
    "street": null,
    "office_name": null,
    "office_name_kana": null
  },
  "0621": {
    "postcode": "5030621",
    "prefecture": "岐阜県",
    "prefecture_kana": "ギフケン",
    "prefecture_code": 21,
    "city": "海津市",
    "city_kana": "カイヅシ",
    "town": "海津町外浜",
    "town_kana": "カイヅチョウソトハマ",
    "street": null,
    "office_name": null,
    "office_name_kana": null
  },
  "0622": {
    "postcode": "5030622",
    "prefecture": "岐阜県",
    "prefecture_kana": "ギフケン",
    "prefecture_code": 21,
    "city": "海津市",
    "city_kana": "カイヅシ",
    "town": "海津町森下",
    "town_kana": "カイヅチョウモリシタ",
    "street": null,
    "office_name": null,
    "office_name_kana": null
  },
  "0623": {
    "postcode": "5030623",
    "prefecture": "岐阜県",
    "prefecture_kana": "ギフケン",
    "prefecture_code": 21,
    "city": "海津市",
    "city_kana": "カイヅシ",
    "town": "海津町古中島",
    "town_kana": "カイヅチョウフルナカジマ",
    "street": null,
    "office_name": null,
    "office_name_kana": null
  },
  "0624": {
    "postcode": "5030624",
    "prefecture": "岐阜県",
    "prefecture_kana": "ギフケン",
    "prefecture_code": 21,
    "city": "海津市",
    "city_kana": "カイヅシ",
    "town": "海津町金廻",
    "town_kana": "カイヅチョウカナマワリ",
    "street": null,
    "office_name": null,
    "office_name_kana": null
  },
  "0625": {
    "postcode": "5030625",
    "prefecture": "岐阜県",
    "prefecture_kana": "ギフケン",
    "prefecture_code": 21,
    "city": "海津市",
    "city_kana": "カイヅシ",
    "town": "海津町油島",
    "town_kana": "カイヅチョウアブラジマ",
    "street": null,
    "office_name": null,
    "office_name_kana": null
  },
  "0626": {
    "postcode": "5030626",
    "prefecture": "岐阜県",
    "prefecture_kana": "ギフケン",
    "prefecture_code": 21,
    "city": "海津市",
    "city_kana": "カイヅシ",
    "town": "海津町万寿新田",
    "town_kana": "カイヅチョウマンジュシンデン",
    "street": null,
    "office_name": null,
    "office_name_kana": null
  },
  "0627": {
    "postcode": "5030627",
    "prefecture": "岐阜県",
    "prefecture_kana": "ギフケン",
    "prefecture_code": 21,
    "city": "海津市",
    "city_kana": "カイヅシ",
    "town": "海津町七右衛門新田",
    "town_kana": "カイヅチョウシチウエモンシンデン",
    "street": null,
    "office_name": null,
    "office_name_kana": null
  },
  "0628": {
    "postcode": "5030628",
    "prefecture": "岐阜県",
    "prefecture_kana": "ギフケン",
    "prefecture_code": 21,
    "city": "海津市",
    "city_kana": "カイヅシ",
    "town": "海津町福江",
    "town_kana": "カイヅチョウフクエ",
    "street": null,
    "office_name": null,
    "office_name_kana": null
  },
  "0629": {
    "postcode": "5030629",
    "prefecture": "岐阜県",
    "prefecture_kana": "ギフケン",
    "prefecture_code": 21,
    "city": "海津市",
    "city_kana": "カイヅシ",
    "town": "海津町石亀",
    "town_kana": "カイヅチョウイシガメ",
    "street": null,
    "office_name": null,
    "office_name_kana": null
  },
  "0631": {
    "postcode": "5030631",
    "prefecture": "岐阜県",
    "prefecture_kana": "ギフケン",
    "prefecture_code": 21,
    "city": "海津市",
    "city_kana": "カイヅシ",
    "town": "海津町稲山",
    "town_kana": "カイヅチョウイナヤマ",
    "street": null,
    "office_name": null,
    "office_name_kana": null
  },
  "0632": {
    "postcode": "5030632",
    "prefecture": "岐阜県",
    "prefecture_kana": "ギフケン",
    "prefecture_code": 21,
    "city": "海津市",
    "city_kana": "カイヅシ",
    "town": "海津町宮地",
    "town_kana": "カイヅチョウミヤジ",
    "street": null,
    "office_name": null,
    "office_name_kana": null
  },
  "0633": {
    "postcode": "5030633",
    "prefecture": "岐阜県",
    "prefecture_kana": "ギフケン",
    "prefecture_code": 21,
    "city": "海津市",
    "city_kana": "カイヅシ",
    "town": "海津町本阿弥新田",
    "town_kana": "カイヅチョウホンナミシンデン",
    "street": null,
    "office_name": null,
    "office_name_kana": null
  },
  "0634": {
    "postcode": "5030634",
    "prefecture": "岐阜県",
    "prefecture_kana": "ギフケン",
    "prefecture_code": 21,
    "city": "海津市",
    "city_kana": "カイヅシ",
    "town": "海津町沼新田",
    "town_kana": "カイヅチョウヌマシンデン",
    "street": null,
    "office_name": null,
    "office_name_kana": null
  },
  "0635": {
    "postcode": "5030635",
    "prefecture": "岐阜県",
    "prefecture_kana": "ギフケン",
    "prefecture_code": 21,
    "city": "海津市",
    "city_kana": "カイヅシ",
    "town": "海津町江東",
    "town_kana": "カイヅチョウエヒガシ",
    "street": null,
    "office_name": null,
    "office_name_kana": null
  },
  "0636": {
    "postcode": "5030636",
    "prefecture": "岐阜県",
    "prefecture_kana": "ギフケン",
    "prefecture_code": 21,
    "city": "海津市",
    "city_kana": "カイヅシ",
    "town": "海津町帆引新田",
    "town_kana": "カイヅチョウホビキシンデン",
    "street": null,
    "office_name": null,
    "office_name_kana": null
  },
  "0637": {
    "postcode": "5030637",
    "prefecture": "岐阜県",
    "prefecture_kana": "ギフケン",
    "prefecture_code": 21,
    "city": "海津市",
    "city_kana": "カイヅシ",
    "town": "海津町安田",
    "town_kana": "カイヅチョウヤスダ",
    "street": null,
    "office_name": null,
    "office_name_kana": null
  },
  "0638": {
    "postcode": "5030638",
    "prefecture": "岐阜県",
    "prefecture_kana": "ギフケン",
    "prefecture_code": 21,
    "city": "海津市",
    "city_kana": "カイヅシ",
    "town": "海津町安田新田",
    "town_kana": "カイヅチョウヤスダシンデン",
    "street": null,
    "office_name": null,
    "office_name_kana": null
  },
  "0641": {
    "postcode": "5030641",
    "prefecture": "岐阜県",
    "prefecture_kana": "ギフケン",
    "prefecture_code": 21,
    "city": "海津市",
    "city_kana": "カイヅシ",
    "town": "海津町内記",
    "town_kana": "カイヅチョウナイキ",
    "street": null,
    "office_name": null,
    "office_name_kana": null
  },
  "0643": {
    "postcode": "5030643",
    "prefecture": "岐阜県",
    "prefecture_kana": "ギフケン",
    "prefecture_code": 21,
    "city": "海津市",
    "city_kana": "カイヅシ",
    "town": "海津町札野",
    "town_kana": "カイヅチョウフダノ",
    "street": null,
    "office_name": null,
    "office_name_kana": null
  },
  "0644": {
    "postcode": "5030644",
    "prefecture": "岐阜県",
    "prefecture_kana": "ギフケン",
    "prefecture_code": 21,
    "city": "海津市",
    "city_kana": "カイヅシ",
    "town": "海津町深浜",
    "town_kana": "カイヅチョウフカハマ",
    "street": null,
    "office_name": null,
    "office_name_kana": null
  },
  "0645": {
    "postcode": "5030645",
    "prefecture": "岐阜県",
    "prefecture_kana": "ギフケン",
    "prefecture_code": 21,
    "city": "海津市",
    "city_kana": "カイヅシ",
    "town": "海津町五町",
    "town_kana": "カイヅチョウゴチョウ",
    "street": null,
    "office_name": null,
    "office_name_kana": null
  },
  "0646": {
    "postcode": "5030646",
    "prefecture": "岐阜県",
    "prefecture_kana": "ギフケン",
    "prefecture_code": 21,
    "city": "海津市",
    "city_kana": "カイヅシ",
    "town": "海津町萱野",
    "town_kana": "カイヅチョウカヤノ",
    "street": null,
    "office_name": null,
    "office_name_kana": null
  },
  "0647": {
    "postcode": "5030647",
    "prefecture": "岐阜県",
    "prefecture_kana": "ギフケン",
    "prefecture_code": 21,
    "city": "海津市",
    "city_kana": "カイヅシ",
    "town": "海津町東小島",
    "town_kana": "カイヅチョウヒガシオジマ",
    "street": null,
    "office_name": null,
    "office_name_kana": null
  },
  "0648": {
    "postcode": "5030648",
    "prefecture": "岐阜県",
    "prefecture_kana": "ギフケン",
    "prefecture_code": 21,
    "city": "海津市",
    "city_kana": "カイヅシ",
    "town": "海津町西小島",
    "town_kana": "カイヅチョウニシオジマ",
    "street": null,
    "office_name": null,
    "office_name_kana": null
  },
  "0651": {
    "postcode": "5030651",
    "prefecture": "岐阜県",
    "prefecture_kana": "ギフケン",
    "prefecture_code": 21,
    "city": "海津市",
    "city_kana": "カイヅシ",
    "town": "海津町平原",
    "town_kana": "カイヅチョウヒラハラ",
    "street": null,
    "office_name": null,
    "office_name_kana": null
  },
  "0652": {
    "postcode": "5030652",
    "prefecture": "岐阜県",
    "prefecture_kana": "ギフケン",
    "prefecture_code": 21,
    "city": "海津市",
    "city_kana": "カイヅシ",
    "town": "海津町馬目",
    "town_kana": "カイヅチョウマノメ",
    "street": null,
    "office_name": null,
    "office_name_kana": null
  },
  "0653": {
    "postcode": "5030653",
    "prefecture": "岐阜県",
    "prefecture_kana": "ギフケン",
    "prefecture_code": 21,
    "city": "海津市",
    "city_kana": "カイヅシ",
    "town": "海津町高須町",
    "town_kana": "カイヅチョウタカスマチ",
    "street": null,
    "office_name": null,
    "office_name_kana": null
  },
  "0654": {
    "postcode": "5030654",
    "prefecture": "岐阜県",
    "prefecture_kana": "ギフケン",
    "prefecture_code": 21,
    "city": "海津市",
    "city_kana": "カイヅシ",
    "town": "海津町高須",
    "town_kana": "カイヅチョウタカス",
    "street": null,
    "office_name": null,
    "office_name_kana": null
  },
  "0655": {
    "postcode": "5030655",
    "prefecture": "岐阜県",
    "prefecture_kana": "ギフケン",
    "prefecture_code": 21,
    "city": "海津市",
    "city_kana": "カイヅシ",
    "town": "海津町福岡",
    "town_kana": "カイヅチョウフクオカ",
    "street": null,
    "office_name": null,
    "office_name_kana": null
  },
  "0695": {
    "postcode": "5030695",
    "prefecture": "岐阜県",
    "prefecture_kana": "ギフケン",
    "prefecture_code": 21,
    "city": "海津市",
    "city_kana": "カイヅシ",
    "town": "海津町高須",
    "town_kana": "カイヅチョウタカス",
    "street": "５１５",
    "office_name": "海津市役所",
    "office_name_kana": "カイヅシヤクシヨ"
  },
  "0801": {
    "postcode": "5030801",
    "prefecture": "岐阜県",
    "prefecture_kana": "ギフケン",
    "prefecture_code": 21,
    "city": "大垣市",
    "city_kana": "オオガキシ",
    "town": "和合新町",
    "town_kana": "ワゴウシンマチ",
    "street": null,
    "office_name": null,
    "office_name_kana": null
  },
  "0802": {
    "postcode": "5030802",
    "prefecture": "岐阜県",
    "prefecture_kana": "ギフケン",
    "prefecture_code": 21,
    "city": "大垣市",
    "city_kana": "オオガキシ",
    "town": "東町",
    "town_kana": "アズマチョウ",
    "street": null,
    "office_name": null,
    "office_name_kana": null
  },
  "0803": {
    "postcode": "5030803",
    "prefecture": "岐阜県",
    "prefecture_kana": "ギフケン",
    "prefecture_code": 21,
    "city": "大垣市",
    "city_kana": "オオガキシ",
    "town": "小野",
    "town_kana": "コノ",
    "street": null,
    "office_name": null,
    "office_name_kana": null
  },
  "0804": {
    "postcode": "5030804",
    "prefecture": "岐阜県",
    "prefecture_kana": "ギフケン",
    "prefecture_code": 21,
    "city": "大垣市",
    "city_kana": "オオガキシ",
    "town": "中ノ江",
    "town_kana": "ナカノエ",
    "street": null,
    "office_name": null,
    "office_name_kana": null
  },
  "0805": {
    "postcode": "5030805",
    "prefecture": "岐阜県",
    "prefecture_kana": "ギフケン",
    "prefecture_code": 21,
    "city": "大垣市",
    "city_kana": "オオガキシ",
    "town": "鶴見町",
    "town_kana": "ツルミチョウ",
    "street": null,
    "office_name": null,
    "office_name_kana": null
  },
  "0806": {
    "postcode": "5030806",
    "prefecture": "岐阜県",
    "prefecture_kana": "ギフケン",
    "prefecture_code": 21,
    "city": "大垣市",
    "city_kana": "オオガキシ",
    "town": "緑園",
    "town_kana": "ミドリエン",
    "street": null,
    "office_name": null,
    "office_name_kana": null
  },
  "0807": {
    "postcode": "5030807",
    "prefecture": "岐阜県",
    "prefecture_kana": "ギフケン",
    "prefecture_code": 21,
    "city": "大垣市",
    "city_kana": "オオガキシ",
    "town": "今宿",
    "town_kana": "イマジュク",
    "street": null,
    "office_name": null,
    "office_name_kana": null
  },
  "0808": {
    "postcode": "5030808",
    "prefecture": "岐阜県",
    "prefecture_kana": "ギフケン",
    "prefecture_code": 21,
    "city": "大垣市",
    "city_kana": "オオガキシ",
    "town": "三塚町",
    "town_kana": "ミツヅカチョウ",
    "street": null,
    "office_name": null,
    "office_name_kana": null
  },
  "0811": {
    "postcode": "5030811",
    "prefecture": "岐阜県",
    "prefecture_kana": "ギフケン",
    "prefecture_code": 21,
    "city": "大垣市",
    "city_kana": "オオガキシ",
    "town": "波須",
    "town_kana": "ハス",
    "street": null,
    "office_name": null,
    "office_name_kana": null
  },
  "0812": {
    "postcode": "5030812",
    "prefecture": "岐阜県",
    "prefecture_kana": "ギフケン",
    "prefecture_code": 21,
    "city": "大垣市",
    "city_kana": "オオガキシ",
    "town": "万石",
    "town_kana": "マンゴク",
    "street": null,
    "office_name": null,
    "office_name_kana": null
  },
  "0813": {
    "postcode": "5030813",
    "prefecture": "岐阜県",
    "prefecture_kana": "ギフケン",
    "prefecture_code": 21,
    "city": "大垣市",
    "city_kana": "オオガキシ",
    "town": "三本木",
    "town_kana": "サンボンギ",
    "street": null,
    "office_name": null,
    "office_name_kana": null
  },
  "0814": {
    "postcode": "5030814",
    "prefecture": "岐阜県",
    "prefecture_kana": "ギフケン",
    "prefecture_code": 21,
    "city": "大垣市",
    "city_kana": "オオガキシ",
    "town": "大村",
    "town_kana": "オオムラ",
    "street": null,
    "office_name": null,
    "office_name_kana": null
  },
  "0815": {
    "postcode": "5030815",
    "prefecture": "岐阜県",
    "prefecture_kana": "ギフケン",
    "prefecture_code": 21,
    "city": "大垣市",
    "city_kana": "オオガキシ",
    "town": "直江町",
    "town_kana": "スグエチョウ",
    "street": null,
    "office_name": null,
    "office_name_kana": null
  },
  "0816": {
    "postcode": "5030816",
    "prefecture": "岐阜県",
    "prefecture_kana": "ギフケン",
    "prefecture_code": 21,
    "city": "大垣市",
    "city_kana": "オオガキシ",
    "town": "小泉町",
    "town_kana": "コイズミチョウ",
    "street": null,
    "office_name": null,
    "office_name_kana": null
  },
  "0817": {
    "postcode": "5030817",
    "prefecture": "岐阜県",
    "prefecture_kana": "ギフケン",
    "prefecture_code": 21,
    "city": "大垣市",
    "city_kana": "オオガキシ",
    "town": "上面",
    "town_kana": "ジョウメン",
    "street": null,
    "office_name": null,
    "office_name_kana": null
  },
  "0821": {
    "postcode": "5030821",
    "prefecture": "岐阜県",
    "prefecture_kana": "ギフケン",
    "prefecture_code": 21,
    "city": "大垣市",
    "city_kana": "オオガキシ",
    "town": "早苗町",
    "town_kana": "サナエチョウ",
    "street": null,
    "office_name": null,
    "office_name_kana": null
  },
  "0822": {
    "postcode": "5030822",
    "prefecture": "岐阜県",
    "prefecture_kana": "ギフケン",
    "prefecture_code": 21,
    "city": "大垣市",
    "city_kana": "オオガキシ",
    "town": "住吉町",
    "town_kana": "スミヨシチョウ",
    "street": null,
    "office_name": null,
    "office_name_kana": null
  },
  "0823": {
    "postcode": "5030823",
    "prefecture": "岐阜県",
    "prefecture_kana": "ギフケン",
    "prefecture_code": 21,
    "city": "大垣市",
    "city_kana": "オオガキシ",
    "town": "鹿島町",
    "town_kana": "カシマチョウ",
    "street": null,
    "office_name": null,
    "office_name_kana": null
  },
  "0824": {
    "postcode": "5030824",
    "prefecture": "岐阜県",
    "prefecture_kana": "ギフケン",
    "prefecture_code": 21,
    "city": "大垣市",
    "city_kana": "オオガキシ",
    "town": "旭町",
    "town_kana": "アサヒマチ",
    "street": null,
    "office_name": null,
    "office_name_kana": null
  },
  "0825": {
    "postcode": "5030825",
    "prefecture": "岐阜県",
    "prefecture_kana": "ギフケン",
    "prefecture_code": 21,
    "city": "大垣市",
    "city_kana": "オオガキシ",
    "town": "花園町",
    "town_kana": "ハナゾノチョウ",
    "street": null,
    "office_name": null,
    "office_name_kana": null
  },
  "0826": {
    "postcode": "5030826",
    "prefecture": "岐阜県",
    "prefecture_kana": "ギフケン",
    "prefecture_code": 21,
    "city": "大垣市",
    "city_kana": "オオガキシ",
    "town": "恵比寿町北",
    "town_kana": "エビスチョウキタ",
    "street": null,
    "office_name": null,
    "office_name_kana": null
  },
  "0827": {
    "postcode": "5030827",
    "prefecture": "岐阜県",
    "prefecture_kana": "ギフケン",
    "prefecture_code": 21,
    "city": "大垣市",
    "city_kana": "オオガキシ",
    "town": "恵比寿町南",
    "town_kana": "エビスチョウミナミ",
    "street": null,
    "office_name": null,
    "office_name_kana": null
  },
  "0828": {
    "postcode": "5030828",
    "prefecture": "岐阜県",
    "prefecture_kana": "ギフケン",
    "prefecture_code": 21,
    "city": "大垣市",
    "city_kana": "オオガキシ",
    "town": "恵比寿町",
    "town_kana": "エビスチョウ",
    "street": null,
    "office_name": null,
    "office_name_kana": null
  },
  "0831": {
    "postcode": "5030831",
    "prefecture": "岐阜県",
    "prefecture_kana": "ギフケン",
    "prefecture_code": 21,
    "city": "大垣市",
    "city_kana": "オオガキシ",
    "town": "新長沢町",
    "town_kana": "シンナガサワチョウ",
    "street": null,
    "office_name": null,
    "office_name_kana": null
  },
  "0832": {
    "postcode": "5030832",
    "prefecture": "岐阜県",
    "prefecture_kana": "ギフケン",
    "prefecture_code": 21,
    "city": "大垣市",
    "city_kana": "オオガキシ",
    "town": "寿町",
    "town_kana": "コトブキチョウ",
    "street": null,
    "office_name": null,
    "office_name_kana": null
  },
  "0833": {
    "postcode": "5030833",
    "prefecture": "岐阜県",
    "prefecture_kana": "ギフケン",
    "prefecture_code": 21,
    "city": "大垣市",
    "city_kana": "オオガキシ",
    "town": "長沢町",
    "town_kana": "ナガサワチョウ",
    "street": null,
    "office_name": null,
    "office_name_kana": null
  },
  "0834": {
    "postcode": "5030834",
    "prefecture": "岐阜県",
    "prefecture_kana": "ギフケン",
    "prefecture_code": 21,
    "city": "大垣市",
    "city_kana": "オオガキシ",
    "town": "犬ケ渕町",
    "town_kana": "イヌガブチチョウ",
    "street": null,
    "office_name": null,
    "office_name_kana": null
  },
  "0835": {
    "postcode": "5030835",
    "prefecture": "岐阜県",
    "prefecture_kana": "ギフケン",
    "prefecture_code": 21,
    "city": "大垣市",
    "city_kana": "オオガキシ",
    "town": "東前",
    "town_kana": "ヒガシマエ",
    "street": null,
    "office_name": null,
    "office_name_kana": null
  },
  "0836": {
    "postcode": "5030836",
    "prefecture": "岐阜県",
    "prefecture_kana": "ギフケン",
    "prefecture_code": 21,
    "city": "大垣市",
    "city_kana": "オオガキシ",
    "town": "大井",
    "town_kana": "オオイ",
    "street": null,
    "office_name": null,
    "office_name_kana": null
  },
  "0837": {
    "postcode": "5030837",
    "prefecture": "岐阜県",
    "prefecture_kana": "ギフケン",
    "prefecture_code": 21,
    "city": "大垣市",
    "city_kana": "オオガキシ",
    "town": "安井町",
    "town_kana": "ヤスイチョウ",
    "street": null,
    "office_name": null,
    "office_name_kana": null
  },
  "0838": {
    "postcode": "5030838",
    "prefecture": "岐阜県",
    "prefecture_kana": "ギフケン",
    "prefecture_code": 21,
    "city": "大垣市",
    "city_kana": "オオガキシ",
    "town": "江崎町",
    "town_kana": "エザキチョウ",
    "street": null,
    "office_name": null,
    "office_name_kana": null
  },
  "0839": {
    "postcode": "5030839",
    "prefecture": "岐阜県",
    "prefecture_kana": "ギフケン",
    "prefecture_code": 21,
    "city": "大垣市",
    "city_kana": "オオガキシ",
    "town": "長井町",
    "town_kana": "ナガイチョウ",
    "street": null,
    "office_name": null,
    "office_name_kana": null
  },
  "0841": {
    "postcode": "5030841",
    "prefecture": "岐阜県",
    "prefecture_kana": "ギフケン",
    "prefecture_code": 21,
    "city": "大垣市",
    "city_kana": "オオガキシ",
    "town": "平町",
    "town_kana": "ヒラマチ",
    "street": null,
    "office_name": null,
    "office_name_kana": null
  },
  "0842": {
    "postcode": "5030842",
    "prefecture": "岐阜県",
    "prefecture_kana": "ギフケン",
    "prefecture_code": 21,
    "city": "大垣市",
    "city_kana": "オオガキシ",
    "town": "馬の瀬町",
    "town_kana": "ウマノセチョウ",
    "street": null,
    "office_name": null,
    "office_name_kana": null
  },
  "0843": {
    "postcode": "5030843",
    "prefecture": "岐阜県",
    "prefecture_kana": "ギフケン",
    "prefecture_code": 21,
    "city": "大垣市",
    "city_kana": "オオガキシ",
    "town": "今福町",
    "town_kana": "イマフクチョウ",
    "street": null,
    "office_name": null,
    "office_name_kana": null
  },
  "0844": {
    "postcode": "5030844",
    "prefecture": "岐阜県",
    "prefecture_kana": "ギフケン",
    "prefecture_code": 21,
    "city": "大垣市",
    "city_kana": "オオガキシ",
    "town": "難波野町",
    "town_kana": "ナンバノチョウ",
    "street": null,
    "office_name": null,
    "office_name_kana": null
  },
  "0845": {
    "postcode": "5030845",
    "prefecture": "岐阜県",
    "prefecture_kana": "ギフケン",
    "prefecture_code": 21,
    "city": "大垣市",
    "city_kana": "オオガキシ",
    "town": "牧新田町",
    "town_kana": "マキシンデンチョウ",
    "street": null,
    "office_name": null,
    "office_name_kana": null
  },
  "0846": {
    "postcode": "5030846",
    "prefecture": "岐阜県",
    "prefecture_kana": "ギフケン",
    "prefecture_code": 21,
    "city": "大垣市",
    "city_kana": "オオガキシ",
    "town": "深池町",
    "town_kana": "フカイケチョウ",
    "street": null,
    "office_name": null,
    "office_name_kana": null
  },
  "0847": {
    "postcode": "5030847",
    "prefecture": "岐阜県",
    "prefecture_kana": "ギフケン",
    "prefecture_code": 21,
    "city": "大垣市",
    "city_kana": "オオガキシ",
    "town": "米野町",
    "town_kana": "コメノチョウ",
    "street": null,
    "office_name": null,
    "office_name_kana": null
  },
  "0848": {
    "postcode": "5030848",
    "prefecture": "岐阜県",
    "prefecture_kana": "ギフケン",
    "prefecture_code": 21,
    "city": "大垣市",
    "city_kana": "オオガキシ",
    "town": "古宮町",
    "town_kana": "フルミヤチョウ",
    "street": null,
    "office_name": null,
    "office_name_kana": null
  },
  "0849": {
    "postcode": "5030849",
    "prefecture": "岐阜県",
    "prefecture_kana": "ギフケン",
    "prefecture_code": 21,
    "city": "大垣市",
    "city_kana": "オオガキシ",
    "town": "東前町",
    "town_kana": "ヒガシマエチョウ",
    "street": null,
    "office_name": null,
    "office_name_kana": null
  },
  "0851": {
    "postcode": "5030851",
    "prefecture": "岐阜県",
    "prefecture_kana": "ギフケン",
    "prefecture_code": 21,
    "city": "大垣市",
    "city_kana": "オオガキシ",
    "town": "禾森",
    "town_kana": "ノギノモリ",
    "street": null,
    "office_name": null,
    "office_name_kana": null
  },
  "0852": {
    "postcode": "5030852",
    "prefecture": "岐阜県",
    "prefecture_kana": "ギフケン",
    "prefecture_code": 21,
    "city": "大垣市",
    "city_kana": "オオガキシ",
    "town": "禾森町",
    "town_kana": "ノギノモリチョウ",
    "street": null,
    "office_name": null,
    "office_name_kana": null
  },
  "0853": {
    "postcode": "5030853",
    "prefecture": "岐阜県",
    "prefecture_kana": "ギフケン",
    "prefecture_code": 21,
    "city": "大垣市",
    "city_kana": "オオガキシ",
    "town": "田口町",
    "town_kana": "タグチチョウ",
    "street": null,
    "office_name": null,
    "office_name_kana": null
  },
  "0854": {
    "postcode": "5030854",
    "prefecture": "岐阜県",
    "prefecture_kana": "ギフケン",
    "prefecture_code": 21,
    "city": "大垣市",
    "city_kana": "オオガキシ",
    "town": "築捨町",
    "town_kana": "ツキズテチョウ",
    "street": null,
    "office_name": null,
    "office_name_kana": null
  },
  "0855": {
    "postcode": "5030855",
    "prefecture": "岐阜県",
    "prefecture_kana": "ギフケン",
    "prefecture_code": 21,
    "city": "大垣市",
    "city_kana": "オオガキシ",
    "town": "問屋町",
    "town_kana": "トイヤマチ",
    "street": null,
    "office_name": null,
    "office_name_kana": null
  },
  "0856": {
    "postcode": "5030856",
    "prefecture": "岐阜県",
    "prefecture_kana": "ギフケン",
    "prefecture_code": 21,
    "city": "大垣市",
    "city_kana": "オオガキシ",
    "town": "新田町",
    "town_kana": "シンデンチョウ",
    "street": null,
    "office_name": null,
    "office_name_kana": null
  },
  "0857": {
    "postcode": "5030857",
    "prefecture": "岐阜県",
    "prefecture_kana": "ギフケン",
    "prefecture_code": 21,
    "city": "大垣市",
    "city_kana": "オオガキシ",
    "town": "美和町",
    "town_kana": "ミワチョウ",
    "street": null,
    "office_name": null,
    "office_name_kana": null
  },
  "0858": {
    "postcode": "5030858",
    "prefecture": "岐阜県",
    "prefecture_kana": "ギフケン",
    "prefecture_code": 21,
    "city": "大垣市",
    "city_kana": "オオガキシ",
    "town": "世安町",
    "town_kana": "ヨヤスチョウ",
    "street": null,
    "office_name": null,
    "office_name_kana": null
  },
  "0861": {
    "postcode": "5030861",
    "prefecture": "岐阜県",
    "prefecture_kana": "ギフケン",
    "prefecture_code": 21,
    "city": "大垣市",
    "city_kana": "オオガキシ",
    "town": "羽衣町",
    "town_kana": "ハゴロモチョウ",
    "street": null,
    "office_name": null,
    "office_name_kana": null
  },
  "0862": {
    "postcode": "5030862",
    "prefecture": "岐阜県",
    "prefecture_kana": "ギフケン",
    "prefecture_code": 21,
    "city": "大垣市",
    "city_kana": "オオガキシ",
    "town": "二葉町",
    "town_kana": "フタバチョウ",
    "street": null,
    "office_name": null,
    "office_name_kana": null
  },
  "0863": {
    "postcode": "5030863",
    "prefecture": "岐阜県",
    "prefecture_kana": "ギフケン",
    "prefecture_code": 21,
    "city": "大垣市",
    "city_kana": "オオガキシ",
    "town": "大池町",
    "town_kana": "オオイケチョウ",
    "street": null,
    "office_name": null,
    "office_name_kana": null
  },
  "0864": {
    "postcode": "5030864",
    "prefecture": "岐阜県",
    "prefecture_kana": "ギフケン",
    "prefecture_code": 21,
    "city": "大垣市",
    "city_kana": "オオガキシ",
    "town": "南頬町",
    "town_kana": "ミナミノカワチョウ",
    "street": null,
    "office_name": null,
    "office_name_kana": null
  },
  "0865": {
    "postcode": "5030865",
    "prefecture": "岐阜県",
    "prefecture_kana": "ギフケン",
    "prefecture_code": 21,
    "city": "大垣市",
    "city_kana": "オオガキシ",
    "town": "寺内町",
    "town_kana": "ジナイチョウ",
    "street": null,
    "office_name": null,
    "office_name_kana": null
  },
  "0871": {
    "postcode": "5030871",
    "prefecture": "岐阜県",
    "prefecture_kana": "ギフケン",
    "prefecture_code": 21,
    "city": "大垣市",
    "city_kana": "オオガキシ",
    "town": "魚屋町",
    "town_kana": "ウオヤチョウ",
    "street": null,
    "office_name": null,
    "office_name_kana": null
  },
  "0872": {
    "postcode": "5030872",
    "prefecture": "岐阜県",
    "prefecture_kana": "ギフケン",
    "prefecture_code": 21,
    "city": "大垣市",
    "city_kana": "オオガキシ",
    "town": "新町",
    "town_kana": "シンマチ",
    "street": null,
    "office_name": null,
    "office_name_kana": null
  },
  "0873": {
    "postcode": "5030873",
    "prefecture": "岐阜県",
    "prefecture_kana": "ギフケン",
    "prefecture_code": 21,
    "city": "大垣市",
    "city_kana": "オオガキシ",
    "town": "南高橋町",
    "town_kana": "ミナミタカハシチョウ",
    "street": null,
    "office_name": null,
    "office_name_kana": null
  },
  "0874": {
    "postcode": "5030874",
    "prefecture": "岐阜県",
    "prefecture_kana": "ギフケン",
    "prefecture_code": 21,
    "city": "大垣市",
    "city_kana": "オオガキシ",
    "town": "今岡町",
    "town_kana": "イマオカチョウ",
    "street": null,
    "office_name": null,
    "office_name_kana": null
  },
  "0875": {
    "postcode": "5030875",
    "prefecture": "岐阜県",
    "prefecture_kana": "ギフケン",
    "prefecture_code": 21,
    "city": "大垣市",
    "city_kana": "オオガキシ",
    "town": "田町",
    "town_kana": "タマチ",
    "street": null,
    "office_name": null,
    "office_name_kana": null
  },
  "0876": {
    "postcode": "5030876",
    "prefecture": "岐阜県",
    "prefecture_kana": "ギフケン",
    "prefecture_code": 21,
    "city": "大垣市",
    "city_kana": "オオガキシ",
    "town": "俵町",
    "town_kana": "タワラマチ",
    "street": null,
    "office_name": null,
    "office_name_kana": null
  },
  "0877": {
    "postcode": "5030877",
    "prefecture": "岐阜県",
    "prefecture_kana": "ギフケン",
    "prefecture_code": 21,
    "city": "大垣市",
    "city_kana": "オオガキシ",
    "town": "御殿町",
    "town_kana": "ゴテンマチ",
    "street": null,
    "office_name": null,
    "office_name_kana": null
  },
  "0878": {
    "postcode": "5030878",
    "prefecture": "岐阜県",
    "prefecture_kana": "ギフケン",
    "prefecture_code": 21,
    "city": "大垣市",
    "city_kana": "オオガキシ",
    "town": "竹島町",
    "town_kana": "タケジマチョウ",
    "street": null,
    "office_name": null,
    "office_name_kana": null
  },
  "0881": {
    "postcode": "5030881",
    "prefecture": "岐阜県",
    "prefecture_kana": "ギフケン",
    "prefecture_code": 21,
    "city": "大垣市",
    "city_kana": "オオガキシ",
    "town": "岐阜町",
    "town_kana": "ギフマチ",
    "street": null,
    "office_name": null,
    "office_name_kana": null
  },
  "0882": {
    "postcode": "5030882",
    "prefecture": "岐阜県",
    "prefecture_kana": "ギフケン",
    "prefecture_code": 21,
    "city": "大垣市",
    "city_kana": "オオガキシ",
    "town": "東長町",
    "town_kana": "ヒガシナガチョウ",
    "street": null,
    "office_name": null,
    "office_name_kana": null
  },
  "0883": {
    "postcode": "5030883",
    "prefecture": "岐阜県",
    "prefecture_kana": "ギフケン",
    "prefecture_code": 21,
    "city": "大垣市",
    "city_kana": "オオガキシ",
    "town": "清水町",
    "town_kana": "シミズチョウ",
    "street": null,
    "office_name": null,
    "office_name_kana": null
  },
  "0884": {
    "postcode": "5030884",
    "prefecture": "岐阜県",
    "prefecture_kana": "ギフケン",
    "prefecture_code": 21,
    "city": "大垣市",
    "city_kana": "オオガキシ",
    "town": "中町",
    "town_kana": "ナカマチ",
    "street": null,
    "office_name": null,
    "office_name_kana": null
  },
  "0885": {
    "postcode": "5030885",
    "prefecture": "岐阜県",
    "prefecture_kana": "ギフケン",
    "prefecture_code": 21,
    "city": "大垣市",
    "city_kana": "オオガキシ",
    "town": "本町",
    "town_kana": "ホンマチ",
    "street": null,
    "office_name": null,
    "office_name_kana": null
  },
  "0886": {
    "postcode": "5030886",
    "prefecture": "岐阜県",
    "prefecture_kana": "ギフケン",
    "prefecture_code": 21,
    "city": "大垣市",
    "city_kana": "オオガキシ",
    "town": "郭町東",
    "town_kana": "クルワマチヒガシ",
    "street": null,
    "office_name": null,
    "office_name_kana": null
  },
  "0887": {
    "postcode": "5030887",
    "prefecture": "岐阜県",
    "prefecture_kana": "ギフケン",
    "prefecture_code": 21,
    "city": "大垣市",
    "city_kana": "オオガキシ",
    "town": "郭町",
    "town_kana": "クルワマチ",
    "street": null,
    "office_name": null,
    "office_name_kana": null
  },
  "0888": {
    "postcode": "5030888",
    "prefecture": "岐阜県",
    "prefecture_kana": "ギフケン",
    "prefecture_code": 21,
    "city": "大垣市",
    "city_kana": "オオガキシ",
    "town": "丸の内",
    "town_kana": "マルノウチ",
    "street": null,
    "office_name": null,
    "office_name_kana": null
  },
  "0889": {
    "postcode": "5030889",
    "prefecture": "岐阜県",
    "prefecture_kana": "ギフケン",
    "prefecture_code": 21,
    "city": "大垣市",
    "city_kana": "オオガキシ",
    "town": "高砂町",
    "town_kana": "タカサゴチョウ",
    "street": null,
    "office_name": null,
    "office_name_kana": null
  },
  "0891": {
    "postcode": "5030891",
    "prefecture": "岐阜県",
    "prefecture_kana": "ギフケン",
    "prefecture_code": 21,
    "city": "大垣市",
    "city_kana": "オオガキシ",
    "town": "千鳥町",
    "town_kana": "チドリチョウ",
    "street": null,
    "office_name": null,
    "office_name_kana": null
  },
  "0892": {
    "postcode": "5030892",
    "prefecture": "岐阜県",
    "prefecture_kana": "ギフケン",
    "prefecture_code": 21,
    "city": "大垣市",
    "city_kana": "オオガキシ",
    "town": "橘町",
    "town_kana": "タチバナチョウ",
    "street": null,
    "office_name": null,
    "office_name_kana": null
  },
  "0893": {
    "postcode": "5030893",
    "prefecture": "岐阜県",
    "prefecture_kana": "ギフケン",
    "prefecture_code": 21,
    "city": "大垣市",
    "city_kana": "オオガキシ",
    "town": "藤江町",
    "town_kana": "フジエチョウ",
    "street": null,
    "office_name": null,
    "office_name_kana": null
  },
  "0894": {
    "postcode": "5030894",
    "prefecture": "岐阜県",
    "prefecture_kana": "ギフケン",
    "prefecture_code": 21,
    "city": "大垣市",
    "city_kana": "オオガキシ",
    "town": "新地町",
    "town_kana": "シンチチョウ",
    "street": null,
    "office_name": null,
    "office_name_kana": null
  },
  "0895": {
    "postcode": "5030895",
    "prefecture": "岐阜県",
    "prefecture_kana": "ギフケン",
    "prefecture_code": 21,
    "city": "大垣市",
    "city_kana": "オオガキシ",
    "town": "代官町",
    "town_kana": "ダイカンチョウ",
    "street": null,
    "office_name": null,
    "office_name_kana": null
  },
  "0896": {
    "postcode": "5030896",
    "prefecture": "岐阜県",
    "prefecture_kana": "ギフケン",
    "prefecture_code": 21,
    "city": "大垣市",
    "city_kana": "オオガキシ",
    "town": "高橋町",
    "town_kana": "タカハシチョウ",
    "street": null,
    "office_name": null,
    "office_name_kana": null
  },
  "0897": {
    "postcode": "5030897",
    "prefecture": "岐阜県",
    "prefecture_kana": "ギフケン",
    "prefecture_code": 21,
    "city": "大垣市",
    "city_kana": "オオガキシ",
    "town": "伝馬町",
    "town_kana": "テンマチョウ",
    "street": null,
    "office_name": null,
    "office_name_kana": null
  },
  "0898": {
    "postcode": "5030898",
    "prefecture": "岐阜県",
    "prefecture_kana": "ギフケン",
    "prefecture_code": 21,
    "city": "大垣市",
    "city_kana": "オオガキシ",
    "town": "歩行町",
    "town_kana": "オカチマチ",
    "street": null,
    "office_name": null,
    "office_name_kana": null
  },
  "0899": {
    "postcode": "5030899",
    "prefecture": "岐阜県",
    "prefecture_kana": "ギフケン",
    "prefecture_code": 21,
    "city": "大垣市",
    "city_kana": "オオガキシ",
    "town": "錦町",
    "town_kana": "ニシキマチ",
    "street": null,
    "office_name": null,
    "office_name_kana": null
  },
  "0901": {
    "postcode": "5030901",
    "prefecture": "岐阜県",
    "prefecture_kana": "ギフケン",
    "prefecture_code": 21,
    "city": "大垣市",
    "city_kana": "オオガキシ",
    "town": "高屋町",
    "town_kana": "タカヤチョウ",
    "street": null,
    "office_name": null,
    "office_name_kana": null
  },
  "0902": {
    "postcode": "5030902",
    "prefecture": "岐阜県",
    "prefecture_kana": "ギフケン",
    "prefecture_code": 21,
    "city": "大垣市",
    "city_kana": "オオガキシ",
    "town": "栗屋町",
    "town_kana": "クリヤチョウ",
    "street": null,
    "office_name": null,
    "office_name_kana": null
  },
  "0903": {
    "postcode": "5030903",
    "prefecture": "岐阜県",
    "prefecture_kana": "ギフケン",
    "prefecture_code": 21,
    "city": "大垣市",
    "city_kana": "オオガキシ",
    "town": "東外側町",
    "town_kana": "ヒガシトガワチョウ",
    "street": null,
    "office_name": null,
    "office_name_kana": null
  },
  "0904": {
    "postcode": "5030904",
    "prefecture": "岐阜県",
    "prefecture_kana": "ギフケン",
    "prefecture_code": 21,
    "city": "大垣市",
    "city_kana": "オオガキシ",
    "town": "桐ケ崎町",
    "town_kana": "キリガサキチョウ",
    "street": null,
    "office_name": null,
    "office_name_kana": null
  },
  "0905": {
    "postcode": "5030905",
    "prefecture": "岐阜県",
    "prefecture_kana": "ギフケン",
    "prefecture_code": 21,
    "city": "大垣市",
    "city_kana": "オオガキシ",
    "town": "宮町",
    "town_kana": "ミヤマチ",
    "street": null,
    "office_name": null,
    "office_name_kana": null
  },
  "0906": {
    "postcode": "5030906",
    "prefecture": "岐阜県",
    "prefecture_kana": "ギフケン",
    "prefecture_code": 21,
    "city": "大垣市",
    "city_kana": "オオガキシ",
    "town": "室町",
    "town_kana": "ムロマチ",
    "street": null,
    "office_name": null,
    "office_name_kana": null
  },
  "0907": {
    "postcode": "5030907",
    "prefecture": "岐阜県",
    "prefecture_kana": "ギフケン",
    "prefecture_code": 21,
    "city": "大垣市",
    "city_kana": "オオガキシ",
    "town": "番組町",
    "town_kana": "バングミチョウ",
    "street": null,
    "office_name": null,
    "office_name_kana": null
  },
  "0908": {
    "postcode": "5030908",
    "prefecture": "岐阜県",
    "prefecture_kana": "ギフケン",
    "prefecture_code": 21,
    "city": "大垣市",
    "city_kana": "オオガキシ",
    "town": "西外側町",
    "town_kana": "ニシトガワチョウ",
    "street": null,
    "office_name": null,
    "office_name_kana": null
  },
  "0911": {
    "postcode": "5030911",
    "prefecture": "岐阜県",
    "prefecture_kana": "ギフケン",
    "prefecture_code": 21,
    "city": "大垣市",
    "city_kana": "オオガキシ",
    "town": "室本町",
    "town_kana": "ムロホンマチ",
    "street": null,
    "office_name": null,
    "office_name_kana": null
  },
  "0912": {
    "postcode": "5030912",
    "prefecture": "岐阜県",
    "prefecture_kana": "ギフケン",
    "prefecture_code": 21,
    "city": "大垣市",
    "city_kana": "オオガキシ",
    "town": "鳩部屋町",
    "town_kana": "ハトベヤチョウ",
    "street": null,
    "office_name": null,
    "office_name_kana": null
  },
  "0913": {
    "postcode": "5030913",
    "prefecture": "岐阜県",
    "prefecture_kana": "ギフケン",
    "prefecture_code": 21,
    "city": "大垣市",
    "city_kana": "オオガキシ",
    "town": "鷹匠町",
    "town_kana": "タカジョウチョウ",
    "street": null,
    "office_name": null,
    "office_name_kana": null
  },
  "0914": {
    "postcode": "5030914",
    "prefecture": "岐阜県",
    "prefecture_kana": "ギフケン",
    "prefecture_code": 21,
    "city": "大垣市",
    "city_kana": "オオガキシ",
    "town": "西長町",
    "town_kana": "ニシナガチョウ",
    "street": null,
    "office_name": null,
    "office_name_kana": null
  },
  "0915": {
    "postcode": "5030915",
    "prefecture": "岐阜県",
    "prefecture_kana": "ギフケン",
    "prefecture_code": 21,
    "city": "大垣市",
    "city_kana": "オオガキシ",
    "town": "北切石町",
    "town_kana": "キタキリイシチョウ",
    "street": null,
    "office_name": null,
    "office_name_kana": null
  },
  "0916": {
    "postcode": "5030916",
    "prefecture": "岐阜県",
    "prefecture_kana": "ギフケン",
    "prefecture_code": 21,
    "city": "大垣市",
    "city_kana": "オオガキシ",
    "town": "日の出町",
    "town_kana": "ヒノデチョウ",
    "street": null,
    "office_name": null,
    "office_name_kana": null
  },
  "0917": {
    "postcode": "5030917",
    "prefecture": "岐阜県",
    "prefecture_kana": "ギフケン",
    "prefecture_code": 21,
    "city": "大垣市",
    "city_kana": "オオガキシ",
    "town": "神田町",
    "town_kana": "カンダチョウ",
    "street": null,
    "office_name": null,
    "office_name_kana": null
  },
  "0918": {
    "postcode": "5030918",
    "prefecture": "岐阜県",
    "prefecture_kana": "ギフケン",
    "prefecture_code": 21,
    "city": "大垣市",
    "city_kana": "オオガキシ",
    "town": "西崎町",
    "town_kana": "ニシザキチョウ",
    "street": null,
    "office_name": null,
    "office_name_kana": null
  },
  "0921": {
    "postcode": "5030921",
    "prefecture": "岐阜県",
    "prefecture_kana": "ギフケン",
    "prefecture_code": 21,
    "city": "大垣市",
    "city_kana": "オオガキシ",
    "town": "新馬場町",
    "town_kana": "シンババチョウ",
    "street": null,
    "office_name": null,
    "office_name_kana": null
  },
  "0922": {
    "postcode": "5030922",
    "prefecture": "岐阜県",
    "prefecture_kana": "ギフケン",
    "prefecture_code": 21,
    "city": "大垣市",
    "city_kana": "オオガキシ",
    "town": "馬場町",
    "town_kana": "ババチョウ",
    "street": null,
    "office_name": null,
    "office_name_kana": null
  },
  "0923": {
    "postcode": "5030923",
    "prefecture": "岐阜県",
    "prefecture_kana": "ギフケン",
    "prefecture_code": 21,
    "city": "大垣市",
    "city_kana": "オオガキシ",
    "town": "船町",
    "town_kana": "フナマチ",
    "street": null,
    "office_name": null,
    "office_name_kana": null
  },
  "0924": {
    "postcode": "5030924",
    "prefecture": "岐阜県",
    "prefecture_kana": "ギフケン",
    "prefecture_code": 21,
    "city": "大垣市",
    "city_kana": "オオガキシ",
    "town": "今町",
    "town_kana": "イママチ",
    "street": null,
    "office_name": null,
    "office_name_kana": null
  },
  "0925": {
    "postcode": "5030925",
    "prefecture": "岐阜県",
    "prefecture_kana": "ギフケン",
    "prefecture_code": 21,
    "city": "大垣市",
    "city_kana": "オオガキシ",
    "town": "南切石町",
    "town_kana": "ミナミキリイシチョウ",
    "street": null,
    "office_name": null,
    "office_name_kana": null
  },
  "0926": {
    "postcode": "5030926",
    "prefecture": "岐阜県",
    "prefecture_kana": "ギフケン",
    "prefecture_code": 21,
    "city": "大垣市",
    "city_kana": "オオガキシ",
    "town": "切石町",
    "town_kana": "キリイシチョウ",
    "street": null,
    "office_name": null,
    "office_name_kana": null
  },
  "0931": {
    "postcode": "5030931",
    "prefecture": "岐阜県",
    "prefecture_kana": "ギフケン",
    "prefecture_code": 21,
    "city": "大垣市",
    "city_kana": "オオガキシ",
    "town": "本今",
    "town_kana": "モトイマ",
    "street": null,
    "office_name": null,
    "office_name_kana": null
  },
  "0932": {
    "postcode": "5030932",
    "prefecture": "岐阜県",
    "prefecture_kana": "ギフケン",
    "prefecture_code": 21,
    "city": "大垣市",
    "city_kana": "オオガキシ",
    "town": "本今町",
    "town_kana": "モトイマチョウ",
    "street": null,
    "office_name": null,
    "office_name_kana": null
  },
  "0933": {
    "postcode": "5030933",
    "prefecture": "岐阜県",
    "prefecture_kana": "ギフケン",
    "prefecture_code": 21,
    "city": "大垣市",
    "city_kana": "オオガキシ",
    "town": "外野",
    "town_kana": "ソトノ",
    "street": null,
    "office_name": null,
    "office_name_kana": null
  },
  "0934": {
    "postcode": "5030934",
    "prefecture": "岐阜県",
    "prefecture_kana": "ギフケン",
    "prefecture_code": 21,
    "city": "大垣市",
    "city_kana": "オオガキシ",
    "town": "外渕",
    "town_kana": "ソブツ",
    "street": null,
    "office_name": null,
    "office_name_kana": null
  },
  "0935": {
    "postcode": "5030935",
    "prefecture": "岐阜県",
    "prefecture_kana": "ギフケン",
    "prefecture_code": 21,
    "city": "大垣市",
    "city_kana": "オオガキシ",
    "town": "島里",
    "town_kana": "シマザト",
    "street": null,
    "office_name": null,
    "office_name_kana": null
  },
  "0936": {
    "postcode": "5030936",
    "prefecture": "岐阜県",
    "prefecture_kana": "ギフケン",
    "prefecture_code": 21,
    "city": "大垣市",
    "city_kana": "オオガキシ",
    "town": "内原",
    "town_kana": "ウチワラ",
    "street": null,
    "office_name": null,
    "office_name_kana": null
  },
  "0937": {
    "postcode": "5030937",
    "prefecture": "岐阜県",
    "prefecture_kana": "ギフケン",
    "prefecture_code": 21,
    "city": "大垣市",
    "city_kana": "オオガキシ",
    "town": "釜笛",
    "town_kana": "カマフエ",
    "street": null,
    "office_name": null,
    "office_name_kana": null
  },
  "0941": {
    "postcode": "5030941",
    "prefecture": "岐阜県",
    "prefecture_kana": "ギフケン",
    "prefecture_code": 21,
    "city": "大垣市",
    "city_kana": "オオガキシ",
    "town": "川口",
    "town_kana": "カワグチ",
    "street": null,
    "office_name": null,
    "office_name_kana": null
  },
  "0942": {
    "postcode": "5030942",
    "prefecture": "岐阜県",
    "prefecture_kana": "ギフケン",
    "prefecture_code": 21,
    "city": "大垣市",
    "city_kana": "オオガキシ",
    "town": "昭和",
    "town_kana": "ショウワ",
    "street": null,
    "office_name": null,
    "office_name_kana": null
  },
  "0943": {
    "postcode": "5030943",
    "prefecture": "岐阜県",
    "prefecture_kana": "ギフケン",
    "prefecture_code": 21,
    "city": "大垣市",
    "city_kana": "オオガキシ",
    "town": "横曽根町",
    "town_kana": "ヨコゾネチョウ",
    "street": null,
    "office_name": null,
    "office_name_kana": null
  },
  "0944": {
    "postcode": "5030944",
    "prefecture": "岐阜県",
    "prefecture_kana": "ギフケン",
    "prefecture_code": 21,
    "city": "大垣市",
    "city_kana": "オオガキシ",
    "town": "横曽根",
    "town_kana": "ヨコゾネ",
    "street": null,
    "office_name": null,
    "office_name_kana": null
  },
  "0945": {
    "postcode": "5030945",
    "prefecture": "岐阜県",
    "prefecture_kana": "ギフケン",
    "prefecture_code": 21,
    "city": "大垣市",
    "city_kana": "オオガキシ",
    "town": "浅西",
    "town_kana": "アサニシ",
    "street": null,
    "office_name": null,
    "office_name_kana": null
  },
  "0946": {
    "postcode": "5030946",
    "prefecture": "岐阜県",
    "prefecture_kana": "ギフケン",
    "prefecture_code": 21,
    "city": "大垣市",
    "city_kana": "オオガキシ",
    "town": "浅中",
    "town_kana": "アサナカ",
    "street": null,
    "office_name": null,
    "office_name_kana": null
  },
  "0947": {
    "postcode": "5030947",
    "prefecture": "岐阜県",
    "prefecture_kana": "ギフケン",
    "prefecture_code": 21,
    "city": "大垣市",
    "city_kana": "オオガキシ",
    "town": "浅草",
    "town_kana": "アサクサ",
    "street": null,
    "office_name": null,
    "office_name_kana": null
  },
  "0951": {
    "postcode": "5030951",
    "prefecture": "岐阜県",
    "prefecture_kana": "ギフケン",
    "prefecture_code": 21,
    "city": "大垣市",
    "city_kana": "オオガキシ",
    "town": "外野町",
    "town_kana": "ソトノチョウ",
    "street": null,
    "office_name": null,
    "office_name_kana": null
  },
  "0952": {
    "postcode": "5030952",
    "prefecture": "岐阜県",
    "prefecture_kana": "ギフケン",
    "prefecture_code": 21,
    "city": "大垣市",
    "city_kana": "オオガキシ",
    "town": "割田町",
    "town_kana": "ワリデンチョウ",
    "street": null,
    "office_name": null,
    "office_name_kana": null
  },
  "0953": {
    "postcode": "5030953",
    "prefecture": "岐阜県",
    "prefecture_kana": "ギフケン",
    "prefecture_code": 21,
    "city": "大垣市",
    "city_kana": "オオガキシ",
    "town": "割田",
    "town_kana": "ワリデン",
    "street": null,
    "office_name": null,
    "office_name_kana": null
  },
  "0954": {
    "postcode": "5030954",
    "prefecture": "岐阜県",
    "prefecture_kana": "ギフケン",
    "prefecture_code": 21,
    "city": "大垣市",
    "city_kana": "オオガキシ",
    "town": "外花",
    "town_kana": "トバナ",
    "street": null,
    "office_name": null,
    "office_name_kana": null
  },
  "0955": {
    "postcode": "5030955",
    "prefecture": "岐阜県",
    "prefecture_kana": "ギフケン",
    "prefecture_code": 21,
    "city": "大垣市",
    "city_kana": "オオガキシ",
    "town": "友江",
    "town_kana": "トモエ",
    "street": null,
    "office_name": null,
    "office_name_kana": null
  },
  "0956": {
    "postcode": "5030956",
    "prefecture": "岐阜県",
    "prefecture_kana": "ギフケン",
    "prefecture_code": 21,
    "city": "大垣市",
    "city_kana": "オオガキシ",
    "town": "大外羽",
    "town_kana": "オオトバ",
    "street": null,
    "office_name": null,
    "office_name_kana": null
  },
  "0957": {
    "postcode": "5030957",
    "prefecture": "岐阜県",
    "prefecture_kana": "ギフケン",
    "prefecture_code": 21,
    "city": "大垣市",
    "city_kana": "オオガキシ",
    "town": "上屋",
    "town_kana": "カミヤ",
    "street": null,
    "office_name": null,
    "office_name_kana": null
  },
  "0958": {
    "postcode": "5030958",
    "prefecture": "岐阜県",
    "prefecture_kana": "ギフケン",
    "prefecture_code": 21,
    "city": "大垣市",
    "city_kana": "オオガキシ",
    "town": "高渕",
    "town_kana": "タカブチ",
    "street": null,
    "office_name": null,
    "office_name_kana": null
  },
  "0959": {
    "postcode": "5030959",
    "prefecture": "岐阜県",
    "prefecture_kana": "ギフケン",
    "prefecture_code": 21,
    "city": "大垣市",
    "city_kana": "オオガキシ",
    "town": "高渕町",
    "town_kana": "タカブチチョウ",
    "street": null,
    "office_name": null,
    "office_name_kana": null
  },
  "0961": {
    "postcode": "5030961",
    "prefecture": "岐阜県",
    "prefecture_kana": "ギフケン",
    "prefecture_code": 21,
    "city": "大垣市",
    "city_kana": "オオガキシ",
    "town": "青柳町",
    "town_kana": "アオヤナギチョウ",
    "street": null,
    "office_name": null,
    "office_name_kana": null
  },
  "0962": {
    "postcode": "5030962",
    "prefecture": "岐阜県",
    "prefecture_kana": "ギフケン",
    "prefecture_code": 21,
    "city": "大垣市",
    "city_kana": "オオガキシ",
    "town": "入方",
    "town_kana": "イリカタ",
    "street": null,
    "office_name": null,
    "office_name_kana": null
  },
  "0963": {
    "postcode": "5030963",
    "prefecture": "岐阜県",
    "prefecture_kana": "ギフケン",
    "prefecture_code": 21,
    "city": "大垣市",
    "city_kana": "オオガキシ",
    "town": "西大外羽",
    "town_kana": "ニシオオトバ",
    "street": null,
    "office_name": null,
    "office_name_kana": null
  },
  "0964": {
    "postcode": "5030964",
    "prefecture": "岐阜県",
    "prefecture_kana": "ギフケン",
    "prefecture_code": 21,
    "city": "大垣市",
    "city_kana": "オオガキシ",
    "town": "上笠",
    "town_kana": "カミガサ",
    "street": null,
    "office_name": null,
    "office_name_kana": null
  },
  "0965": {
    "postcode": "5030965",
    "prefecture": "岐阜県",
    "prefecture_kana": "ギフケン",
    "prefecture_code": 21,
    "city": "大垣市",
    "city_kana": "オオガキシ",
    "town": "多芸島",
    "town_kana": "タギシマ",
    "street": null,
    "office_name": null,
    "office_name_kana": null
  },
  "0971": {
    "postcode": "5030971",
    "prefecture": "岐阜県",
    "prefecture_kana": "ギフケン",
    "prefecture_code": 21,
    "city": "大垣市",
    "city_kana": "オオガキシ",
    "town": "南一色町",
    "town_kana": "ミナミイッシキチョウ",
    "street": null,
    "office_name": null,
    "office_name_kana": null
  },
  "0972": {
    "postcode": "5030972",
    "prefecture": "岐阜県",
    "prefecture_kana": "ギフケン",
    "prefecture_code": 21,
    "city": "大垣市",
    "city_kana": "オオガキシ",
    "town": "宝和町",
    "town_kana": "ホウワチョウ",
    "street": null,
    "office_name": null,
    "office_name_kana": null
  },
  "0973": {
    "postcode": "5030973",
    "prefecture": "岐阜県",
    "prefecture_kana": "ギフケン",
    "prefecture_code": 21,
    "city": "大垣市",
    "city_kana": "オオガキシ",
    "town": "木戸町",
    "town_kana": "キドチョウ",
    "street": null,
    "office_name": null,
    "office_name_kana": null
  },
  "0974": {
    "postcode": "5030974",
    "prefecture": "岐阜県",
    "prefecture_kana": "ギフケン",
    "prefecture_code": 21,
    "city": "大垣市",
    "city_kana": "オオガキシ",
    "town": "久瀬川町",
    "town_kana": "クゼガワチョウ",
    "street": null,
    "office_name": null,
    "office_name_kana": null
  },
  "0975": {
    "postcode": "5030975",
    "prefecture": "岐阜県",
    "prefecture_kana": "ギフケン",
    "prefecture_code": 21,
    "city": "大垣市",
    "city_kana": "オオガキシ",
    "town": "若森町",
    "town_kana": "ワカモリチョウ",
    "street": null,
    "office_name": null,
    "office_name_kana": null
  },
  "0976": {
    "postcode": "5030976",
    "prefecture": "岐阜県",
    "prefecture_kana": "ギフケン",
    "prefecture_code": 21,
    "city": "大垣市",
    "city_kana": "オオガキシ",
    "town": "南若森町",
    "town_kana": "ミナミワカモリチョウ",
    "street": null,
    "office_name": null,
    "office_name_kana": null
  },
  "0977": {
    "postcode": "5030977",
    "prefecture": "岐阜県",
    "prefecture_kana": "ギフケン",
    "prefecture_code": 21,
    "city": "大垣市",
    "city_kana": "オオガキシ",
    "town": "南若森",
    "town_kana": "ミナミワカモリ",
    "street": null,
    "office_name": null,
    "office_name_kana": null
  },
  "0981": {
    "postcode": "5030981",
    "prefecture": "岐阜県",
    "prefecture_kana": "ギフケン",
    "prefecture_code": 21,
    "city": "大垣市",
    "city_kana": "オオガキシ",
    "town": "桧町",
    "town_kana": "ヒノキチョウ",
    "street": null,
    "office_name": null,
    "office_name_kana": null
  },
  "0982": {
    "postcode": "5030982",
    "prefecture": "岐阜県",
    "prefecture_kana": "ギフケン",
    "prefecture_code": 21,
    "city": "大垣市",
    "city_kana": "オオガキシ",
    "town": "久徳町",
    "town_kana": "キュウトクチョウ",
    "street": null,
    "office_name": null,
    "office_name_kana": null
  },
  "0983": {
    "postcode": "5030983",
    "prefecture": "岐阜県",
    "prefecture_kana": "ギフケン",
    "prefecture_code": 21,
    "city": "大垣市",
    "city_kana": "オオガキシ",
    "town": "静里町",
    "town_kana": "シズサトチョウ",
    "street": null,
    "office_name": null,
    "office_name_kana": null
  },
  "0984": {
    "postcode": "5030984",
    "prefecture": "岐阜県",
    "prefecture_kana": "ギフケン",
    "prefecture_code": 21,
    "city": "大垣市",
    "city_kana": "オオガキシ",
    "town": "綾野",
    "town_kana": "アヤノ",
    "street": null,
    "office_name": null,
    "office_name_kana": null
  },
  "0985": {
    "postcode": "5030985",
    "prefecture": "岐阜県",
    "prefecture_kana": "ギフケン",
    "prefecture_code": 21,
    "city": "大垣市",
    "city_kana": "オオガキシ",
    "town": "野口",
    "town_kana": "ノグチ",
    "street": null,
    "office_name": null,
    "office_name_kana": null
  },
  "0986": {
    "postcode": "5030986",
    "prefecture": "岐阜県",
    "prefecture_kana": "ギフケン",
    "prefecture_code": 21,
    "city": "大垣市",
    "city_kana": "オオガキシ",
    "town": "中曽根町",
    "town_kana": "ナカゾネチョウ",
    "street": null,
    "office_name": null,
    "office_name_kana": null
  },
  "0991": {
    "postcode": "5030991",
    "prefecture": "岐阜県",
    "prefecture_kana": "ギフケン",
    "prefecture_code": 21,
    "city": "大垣市",
    "city_kana": "オオガキシ",
    "town": "木呂町",
    "town_kana": "キロチョウ",
    "street": null,
    "office_name": null,
    "office_name_kana": null
  },
  "0992": {
    "postcode": "5030992",
    "prefecture": "岐阜県",
    "prefecture_kana": "ギフケン",
    "prefecture_code": 21,
    "city": "大垣市",
    "city_kana": "オオガキシ",
    "town": "新長松",
    "town_kana": "シンナガマツ",
    "street": null,
    "office_name": null,
    "office_name_kana": null
  },
  "0993": {
    "postcode": "5030993",
    "prefecture": "岐阜県",
    "prefecture_kana": "ギフケン",
    "prefecture_code": 21,
    "city": "大垣市",
    "city_kana": "オオガキシ",
    "town": "荒川町",
    "town_kana": "アラカワチョウ",
    "street": null,
    "office_name": null,
    "office_name_kana": null
  },
  "0994": {
    "postcode": "5030994",
    "prefecture": "岐阜県",
    "prefecture_kana": "ギフケン",
    "prefecture_code": 21,
    "city": "大垣市",
    "city_kana": "オオガキシ",
    "town": "綾野町",
    "town_kana": "アヤノチョウ",
    "street": null,
    "office_name": null,
    "office_name_kana": null
  },
  "0995": {
    "postcode": "5030995",
    "prefecture": "岐阜県",
    "prefecture_kana": "ギフケン",
    "prefecture_code": 21,
    "city": "大垣市",
    "city_kana": "オオガキシ",
    "town": "十六町",
    "town_kana": "ジュウロクチョウ",
    "street": null,
    "office_name": null,
    "office_name_kana": null
  },
  "0996": {
    "postcode": "5030996",
    "prefecture": "岐阜県",
    "prefecture_kana": "ギフケン",
    "prefecture_code": 21,
    "city": "大垣市",
    "city_kana": "オオガキシ",
    "town": "島町",
    "town_kana": "シマチョウ",
    "street": null,
    "office_name": null,
    "office_name_kana": null
  },
  "0997": {
    "postcode": "5030997",
    "prefecture": "岐阜県",
    "prefecture_kana": "ギフケン",
    "prefecture_code": 21,
    "city": "大垣市",
    "city_kana": "オオガキシ",
    "town": "長松町",
    "town_kana": "ナガマツチョウ",
    "street": null,
    "office_name": null,
    "office_name_kana": null
  },
  "1241": {
    "postcode": "5031241",
    "prefecture": "岐阜県",
    "prefecture_kana": "ギフケン",
    "prefecture_code": 21,
    "city": "養老郡養老町",
    "city_kana": "ヨウロウグンヨウロウチョウ",
    "town": "沢田",
    "town_kana": "サワダ",
    "street": null,
    "office_name": null,
    "office_name_kana": null
  },
  "1242": {
    "postcode": "5031242",
    "prefecture": "岐阜県",
    "prefecture_kana": "ギフケン",
    "prefecture_code": 21,
    "city": "養老郡養老町",
    "city_kana": "ヨウロウグンヨウロウチョウ",
    "town": "桜井",
    "town_kana": "サクライ",
    "street": null,
    "office_name": null,
    "office_name_kana": null
  },
  "1243": {
    "postcode": "5031243",
    "prefecture": "岐阜県",
    "prefecture_kana": "ギフケン",
    "prefecture_code": 21,
    "city": "養老郡養老町",
    "city_kana": "ヨウロウグンヨウロウチョウ",
    "town": "五日市",
    "town_kana": "イツカイチ",
    "street": null,
    "office_name": null,
    "office_name_kana": null
  },
  "1244": {
    "postcode": "5031244",
    "prefecture": "岐阜県",
    "prefecture_kana": "ギフケン",
    "prefecture_code": 21,
    "city": "養老郡養老町",
    "city_kana": "ヨウロウグンヨウロウチョウ",
    "town": "竜泉寺",
    "town_kana": "リュウセンジ",
    "street": null,
    "office_name": null,
    "office_name_kana": null
  },
  "1245": {
    "postcode": "5031245",
    "prefecture": "岐阜県",
    "prefecture_kana": "ギフケン",
    "prefecture_code": 21,
    "city": "養老郡養老町",
    "city_kana": "ヨウロウグンヨウロウチョウ",
    "town": "上方",
    "town_kana": "ウワガタ",
    "street": null,
    "office_name": null,
    "office_name_kana": null
  },
  "1251": {
    "postcode": "5031251",
    "prefecture": "岐阜県",
    "prefecture_kana": "ギフケン",
    "prefecture_code": 21,
    "city": "養老郡養老町",
    "city_kana": "ヨウロウグンヨウロウチョウ",
    "town": "石畑",
    "town_kana": "イシバタ",
    "street": null,
    "office_name": null,
    "office_name_kana": null
  },
  "1252": {
    "postcode": "5031252",
    "prefecture": "岐阜県",
    "prefecture_kana": "ギフケン",
    "prefecture_code": 21,
    "city": "養老郡養老町",
    "city_kana": "ヨウロウグンヨウロウチョウ",
    "town": "明徳",
    "town_kana": "ミョウトク",
    "street": null,
    "office_name": null,
    "office_name_kana": null
  },
  "1253": {
    "postcode": "5031253",
    "prefecture": "岐阜県",
    "prefecture_kana": "ギフケン",
    "prefecture_code": 21,
    "city": "養老郡養老町",
    "city_kana": "ヨウロウグンヨウロウチョウ",
    "town": "柏尾",
    "town_kana": "カシワオ",
    "street": null,
    "office_name": null,
    "office_name_kana": null
  },
  "1254": {
    "postcode": "5031254",
    "prefecture": "岐阜県",
    "prefecture_kana": "ギフケン",
    "prefecture_code": 21,
    "city": "養老郡養老町",
    "city_kana": "ヨウロウグンヨウロウチョウ",
    "town": "養老公園",
    "town_kana": "ヨウロウコウエン",
    "street": null,
    "office_name": null,
    "office_name_kana": null
  },
  "1255": {
    "postcode": "5031255",
    "prefecture": "岐阜県",
    "prefecture_kana": "ギフケン",
    "prefecture_code": 21,
    "city": "養老郡養老町",
    "city_kana": "ヨウロウグンヨウロウチョウ",
    "town": "養老",
    "town_kana": "ヨウロウ",
    "street": null,
    "office_name": null,
    "office_name_kana": null
  },
  "1256": {
    "postcode": "5031256",
    "prefecture": "岐阜県",
    "prefecture_kana": "ギフケン",
    "prefecture_code": 21,
    "city": "養老郡養老町",
    "city_kana": "ヨウロウグンヨウロウチョウ",
    "town": "勢至",
    "town_kana": "セイシ",
    "street": null,
    "office_name": null,
    "office_name_kana": null
  },
  "1261": {
    "postcode": "5031261",
    "prefecture": "岐阜県",
    "prefecture_kana": "ギフケン",
    "prefecture_code": 21,
    "city": "養老郡養老町",
    "city_kana": "ヨウロウグンヨウロウチョウ",
    "town": "鷲巣",
    "town_kana": "ワシノス",
    "street": null,
    "office_name": null,
    "office_name_kana": null
  },
  "1262": {
    "postcode": "5031262",
    "prefecture": "岐阜県",
    "prefecture_kana": "ギフケン",
    "prefecture_code": 21,
    "city": "養老郡養老町",
    "city_kana": "ヨウロウグンヨウロウチョウ",
    "town": "小倉",
    "town_kana": "オグラ",
    "street": null,
    "office_name": null,
    "office_name_kana": null
  },
  "1263": {
    "postcode": "5031263",
    "prefecture": "岐阜県",
    "prefecture_kana": "ギフケン",
    "prefecture_code": 21,
    "city": "養老郡養老町",
    "city_kana": "ヨウロウグンヨウロウチョウ",
    "town": "船見",
    "town_kana": "フナミ",
    "street": null,
    "office_name": null,
    "office_name_kana": null
  },
  "1264": {
    "postcode": "5031264",
    "prefecture": "岐阜県",
    "prefecture_kana": "ギフケン",
    "prefecture_code": 21,
    "city": "養老郡養老町",
    "city_kana": "ヨウロウグンヨウロウチョウ",
    "town": "一色",
    "town_kana": "イッシキ",
    "street": null,
    "office_name": null,
    "office_name_kana": null
  },
  "1265": {
    "postcode": "5031265",
    "prefecture": "岐阜県",
    "prefecture_kana": "ギフケン",
    "prefecture_code": 21,
    "city": "養老郡養老町",
    "city_kana": "ヨウロウグンヨウロウチョウ",
    "town": "若宮",
    "town_kana": "ワカミヤ",
    "street": null,
    "office_name": null,
    "office_name_kana": null
  },
  "1266": {
    "postcode": "5031266",
    "prefecture": "岐阜県",
    "prefecture_kana": "ギフケン",
    "prefecture_code": 21,
    "city": "養老郡養老町",
    "city_kana": "ヨウロウグンヨウロウチョウ",
    "town": "京ケ脇",
    "town_kana": "キョウガワキ",
    "street": null,
    "office_name": null,
    "office_name_kana": null
  },
  "1267": {
    "postcode": "5031267",
    "prefecture": "岐阜県",
    "prefecture_kana": "ギフケン",
    "prefecture_code": 21,
    "city": "養老郡養老町",
    "city_kana": "ヨウロウグンヨウロウチョウ",
    "town": "高林",
    "town_kana": "タカバヤシ",
    "street": null,
    "office_name": null,
    "office_name_kana": null
  },
  "1268": {
    "postcode": "5031268",
    "prefecture": "岐阜県",
    "prefecture_kana": "ギフケン",
    "prefecture_code": 21,
    "city": "養老郡養老町",
    "city_kana": "ヨウロウグンヨウロウチョウ",
    "town": "西小倉",
    "town_kana": "ニシオグラ",
    "street": null,
    "office_name": null,
    "office_name_kana": null
  },
  "1271": {
    "postcode": "5031271",
    "prefecture": "岐阜県",
    "prefecture_kana": "ギフケン",
    "prefecture_code": 21,
    "city": "養老郡養老町",
    "city_kana": "ヨウロウグンヨウロウチョウ",
    "town": "田",
    "town_kana": "タ",
    "street": null,
    "office_name": null,
    "office_name_kana": null
  },
  "1272": {
    "postcode": "5031272",
    "prefecture": "岐阜県",
    "prefecture_kana": "ギフケン",
    "prefecture_code": 21,
    "city": "養老郡養老町",
    "city_kana": "ヨウロウグンヨウロウチョウ",
    "town": "大場",
    "town_kana": "オオバ",
    "street": null,
    "office_name": null,
    "office_name_kana": null
  },
  "1273": {
    "postcode": "5031273",
    "prefecture": "岐阜県",
    "prefecture_kana": "ギフケン",
    "prefecture_code": 21,
    "city": "養老郡養老町",
    "city_kana": "ヨウロウグンヨウロウチョウ",
    "town": "根古地",
    "town_kana": "ネコジ",
    "street": null,
    "office_name": null,
    "office_name_kana": null
  },
  "1274": {
    "postcode": "5031274",
    "prefecture": "岐阜県",
    "prefecture_kana": "ギフケン",
    "prefecture_code": 21,
    "city": "養老郡養老町",
    "city_kana": "ヨウロウグンヨウロウチョウ",
    "town": "瑞穂",
    "town_kana": "ミズホ",
    "street": null,
    "office_name": null,
    "office_name_kana": null
  },
  "1275": {
    "postcode": "5031275",
    "prefecture": "岐阜県",
    "prefecture_kana": "ギフケン",
    "prefecture_code": 21,
    "city": "養老郡養老町",
    "city_kana": "ヨウロウグンヨウロウチョウ",
    "town": "大巻",
    "town_kana": "オオマキ",
    "street": null,
    "office_name": null,
    "office_name_kana": null
  },
  "1276": {
    "postcode": "5031276",
    "prefecture": "岐阜県",
    "prefecture_kana": "ギフケン",
    "prefecture_code": 21,
    "city": "養老郡養老町",
    "city_kana": "ヨウロウグンヨウロウチョウ",
    "town": "釜段",
    "town_kana": "カマダン",
    "street": null,
    "office_name": null,
    "office_name_kana": null
  },
  "1277": {
    "postcode": "5031277",
    "prefecture": "岐阜県",
    "prefecture_kana": "ギフケン",
    "prefecture_code": 21,
    "city": "養老郡養老町",
    "city_kana": "ヨウロウグンヨウロウチョウ",
    "town": "有尾",
    "town_kana": "アリオ",
    "street": null,
    "office_name": null,
    "office_name_kana": null
  },
  "1278": {
    "postcode": "5031278",
    "prefecture": "岐阜県",
    "prefecture_kana": "ギフケン",
    "prefecture_code": 21,
    "city": "養老郡養老町",
    "city_kana": "ヨウロウグンヨウロウチョウ",
    "town": "横屋",
    "town_kana": "ヨコヤ",
    "street": null,
    "office_name": null,
    "office_name_kana": null
  },
  "1300": {
    "postcode": "5031300",
    "prefecture": "岐阜県",
    "prefecture_kana": "ギフケン",
    "prefecture_code": 21,
    "city": "養老郡養老町",
    "city_kana": "ヨウロウグンヨウロウチョウ",
    "town": "",
    "town_kana": "",
    "street": null,
    "office_name": null,
    "office_name_kana": null
  },
  "1301": {
    "postcode": "5031301",
    "prefecture": "岐阜県",
    "prefecture_kana": "ギフケン",
    "prefecture_code": 21,
    "city": "養老郡養老町",
    "city_kana": "ヨウロウグンヨウロウチョウ",
    "town": "室原",
    "town_kana": "ムロハラ",
    "street": null,
    "office_name": null,
    "office_name_kana": null
  },
  "1302": {
    "postcode": "5031302",
    "prefecture": "岐阜県",
    "prefecture_kana": "ギフケン",
    "prefecture_code": 21,
    "city": "養老郡養老町",
    "city_kana": "ヨウロウグンヨウロウチョウ",
    "town": "大坪",
    "town_kana": "オオツボ",
    "street": null,
    "office_name": null,
    "office_name_kana": null
  },
  "1303": {
    "postcode": "5031303",
    "prefecture": "岐阜県",
    "prefecture_kana": "ギフケン",
    "prefecture_code": 21,
    "city": "養老郡養老町",
    "city_kana": "ヨウロウグンヨウロウチョウ",
    "town": "蛇持",
    "town_kana": "ジャモチ",
    "street": null,
    "office_name": null,
    "office_name_kana": null
  },
  "1304": {
    "postcode": "5031304",
    "prefecture": "岐阜県",
    "prefecture_kana": "ギフケン",
    "prefecture_code": 21,
    "city": "養老郡養老町",
    "city_kana": "ヨウロウグンヨウロウチョウ",
    "town": "飯田",
    "town_kana": "イイダ",
    "street": null,
    "office_name": null,
    "office_name_kana": null
  },
  "1305": {
    "postcode": "5031305",
    "prefecture": "岐阜県",
    "prefecture_kana": "ギフケン",
    "prefecture_code": 21,
    "city": "養老郡養老町",
    "city_kana": "ヨウロウグンヨウロウチョウ",
    "town": "祖父江",
    "town_kana": "ソブエ",
    "street": null,
    "office_name": null,
    "office_name_kana": null
  },
  "1306": {
    "postcode": "5031306",
    "prefecture": "岐阜県",
    "prefecture_kana": "ギフケン",
    "prefecture_code": 21,
    "city": "養老郡養老町",
    "city_kana": "ヨウロウグンヨウロウチョウ",
    "town": "江月",
    "town_kana": "エツキ",
    "street": null,
    "office_name": null,
    "office_name_kana": null
  },
  "1311": {
    "postcode": "5031311",
    "prefecture": "岐阜県",
    "prefecture_kana": "ギフケン",
    "prefecture_code": 21,
    "city": "養老郡養老町",
    "city_kana": "ヨウロウグンヨウロウチョウ",
    "town": "泉町",
    "town_kana": "イズミマチ",
    "street": null,
    "office_name": null,
    "office_name_kana": null
  },
  "1312": {
    "postcode": "5031312",
    "prefecture": "岐阜県",
    "prefecture_kana": "ギフケン",
    "prefecture_code": 21,
    "city": "養老郡養老町",
    "city_kana": "ヨウロウグンヨウロウチョウ",
    "town": "三神町",
    "town_kana": "ミカミマチ",
    "street": null,
    "office_name": null,
    "office_name_kana": null
  },
  "1313": {
    "postcode": "5031313",
    "prefecture": "岐阜県",
    "prefecture_kana": "ギフケン",
    "prefecture_code": 21,
    "city": "養老郡養老町",
    "city_kana": "ヨウロウグンヨウロウチョウ",
    "town": "高田馬場町",
    "town_kana": "タカダババチョウ",
    "street": null,
    "office_name": null,
    "office_name_kana": null
  },
  "1314": {
    "postcode": "5031314",
    "prefecture": "岐阜県",
    "prefecture_kana": "ギフケン",
    "prefecture_code": 21,
    "city": "養老郡養老町",
    "city_kana": "ヨウロウグンヨウロウチョウ",
    "town": "高田",
    "town_kana": "タカダ",
    "street": null,
    "office_name": null,
    "office_name_kana": null
  },
  "1315": {
    "postcode": "5031315",
    "prefecture": "岐阜県",
    "prefecture_kana": "ギフケン",
    "prefecture_code": 21,
    "city": "養老郡養老町",
    "city_kana": "ヨウロウグンヨウロウチョウ",
    "town": "烏江",
    "town_kana": "カラスエ",
    "street": null,
    "office_name": null,
    "office_name_kana": null
  },
  "1316": {
    "postcode": "5031316",
    "prefecture": "岐阜県",
    "prefecture_kana": "ギフケン",
    "prefecture_code": 21,
    "city": "養老郡養老町",
    "city_kana": "ヨウロウグンヨウロウチョウ",
    "town": "押越",
    "town_kana": "オシコシ",
    "street": null,
    "office_name": null,
    "office_name_kana": null
  },
  "1317": {
    "postcode": "5031317",
    "prefecture": "岐阜県",
    "prefecture_kana": "ギフケン",
    "prefecture_code": 21,
    "city": "養老郡養老町",
    "city_kana": "ヨウロウグンヨウロウチョウ",
    "town": "滝見町",
    "town_kana": "タキミマチ",
    "street": null,
    "office_name": null,
    "office_name_kana": null
  },
  "1321": {
    "postcode": "5031321",
    "prefecture": "岐阜県",
    "prefecture_kana": "ギフケン",
    "prefecture_code": 21,
    "city": "養老郡養老町",
    "city_kana": "ヨウロウグンヨウロウチョウ",
    "town": "岩道",
    "town_kana": "イワミチ",
    "street": null,
    "office_name": null,
    "office_name_kana": null
  },
  "1322": {
    "postcode": "5031322",
    "prefecture": "岐阜県",
    "prefecture_kana": "ギフケン",
    "prefecture_code": 21,
    "city": "養老郡養老町",
    "city_kana": "ヨウロウグンヨウロウチョウ",
    "town": "西岩道",
    "town_kana": "ニシイワミチ",
    "street": null,
    "office_name": null,
    "office_name_kana": null
  },
  "1323": {
    "postcode": "5031323",
    "prefecture": "岐阜県",
    "prefecture_kana": "ギフケン",
    "prefecture_code": 21,
    "city": "養老郡養老町",
    "city_kana": "ヨウロウグンヨウロウチョウ",
    "town": "口ケ島",
    "town_kana": "クチガシマ",
    "street": null,
    "office_name": null,
    "office_name_kana": null
  },
  "1324": {
    "postcode": "5031324",
    "prefecture": "岐阜県",
    "prefecture_kana": "ギフケン",
    "prefecture_code": 21,
    "city": "養老郡養老町",
    "city_kana": "ヨウロウグンヨウロウチョウ",
    "town": "大跡",
    "town_kana": "オオアト",
    "street": null,
    "office_name": null,
    "office_name_kana": null
  },
  "1325": {
    "postcode": "5031325",
    "prefecture": "岐阜県",
    "prefecture_kana": "ギフケン",
    "prefecture_code": 21,
    "city": "養老郡養老町",
    "city_kana": "ヨウロウグンヨウロウチョウ",
    "town": "飯ノ木",
    "town_kana": "ハンノキ",
    "street": null,
    "office_name": null,
    "office_name_kana": null
  },
  "1331": {
    "postcode": "5031331",
    "prefecture": "岐阜県",
    "prefecture_kana": "ギフケン",
    "prefecture_code": 21,
    "city": "養老郡養老町",
    "city_kana": "ヨウロウグンヨウロウチョウ",
    "town": "橋爪",
    "town_kana": "ハシヅメ",
    "street": null,
    "office_name": null,
    "office_name_kana": null
  },
  "1332": {
    "postcode": "5031332",
    "prefecture": "岐阜県",
    "prefecture_kana": "ギフケン",
    "prefecture_code": 21,
    "city": "養老郡養老町",
    "city_kana": "ヨウロウグンヨウロウチョウ",
    "town": "中",
    "town_kana": "ナカ",
    "street": null,
    "office_name": null,
    "office_name_kana": null
  },
  "1333": {
    "postcode": "5031333",
    "prefecture": "岐阜県",
    "prefecture_kana": "ギフケン",
    "prefecture_code": 21,
    "city": "養老郡養老町",
    "city_kana": "ヨウロウグンヨウロウチョウ",
    "town": "色目",
    "town_kana": "イロメ",
    "street": null,
    "office_name": null,
    "office_name_kana": null
  },
  "1334": {
    "postcode": "5031334",
    "prefecture": "岐阜県",
    "prefecture_kana": "ギフケン",
    "prefecture_code": 21,
    "city": "養老郡養老町",
    "city_kana": "ヨウロウグンヨウロウチョウ",
    "town": "豊",
    "town_kana": "トヨ",
    "street": null,
    "office_name": null,
    "office_name_kana": null
  },
  "1335": {
    "postcode": "5031335",
    "prefecture": "岐阜県",
    "prefecture_kana": "ギフケン",
    "prefecture_code": 21,
    "city": "養老郡養老町",
    "city_kana": "ヨウロウグンヨウロウチョウ",
    "town": "宇田",
    "town_kana": "ウタ",
    "street": null,
    "office_name": null,
    "office_name_kana": null
  },
  "1336": {
    "postcode": "5031336",
    "prefecture": "岐阜県",
    "prefecture_kana": "ギフケン",
    "prefecture_code": 21,
    "city": "養老郡養老町",
    "city_kana": "ヨウロウグンヨウロウチョウ",
    "town": "飯積",
    "town_kana": "イイヅミ",
    "street": null,
    "office_name": null,
    "office_name_kana": null
  },
  "1337": {
    "postcode": "5031337",
    "prefecture": "岐阜県",
    "prefecture_kana": "ギフケン",
    "prefecture_code": 21,
    "city": "養老郡養老町",
    "city_kana": "ヨウロウグンヨウロウチョウ",
    "town": "直江",
    "town_kana": "ナオエ",
    "street": null,
    "office_name": null,
    "office_name_kana": null
  },
  "1338": {
    "postcode": "5031338",
    "prefecture": "岐阜県",
    "prefecture_kana": "ギフケン",
    "prefecture_code": 21,
    "city": "養老郡養老町",
    "city_kana": "ヨウロウグンヨウロウチョウ",
    "town": "安久",
    "town_kana": "ヤスヒサ",
    "street": null,
    "office_name": null,
    "office_name_kana": null
  },
  "1339": {
    "postcode": "5031339",
    "prefecture": "岐阜県",
    "prefecture_kana": "ギフケン",
    "prefecture_code": 21,
    "city": "養老郡養老町",
    "city_kana": "ヨウロウグンヨウロウチョウ",
    "town": "金屋",
    "town_kana": "カナヤ",
    "street": null,
    "office_name": null,
    "office_name_kana": null
  },
  "1381": {
    "postcode": "5031381",
    "prefecture": "岐阜県",
    "prefecture_kana": "ギフケン",
    "prefecture_code": 21,
    "city": "養老郡養老町",
    "city_kana": "ヨウロウグンヨウロウチョウ",
    "town": "栗笠",
    "town_kana": "クリガサ",
    "street": null,
    "office_name": null,
    "office_name_kana": null
  },
  "1382": {
    "postcode": "5031382",
    "prefecture": "岐阜県",
    "prefecture_kana": "ギフケン",
    "prefecture_code": 21,
    "city": "養老郡養老町",
    "city_kana": "ヨウロウグンヨウロウチョウ",
    "town": "船附",
    "town_kana": "フナツケ",
    "street": null,
    "office_name": null,
    "office_name_kana": null
  },
  "1383": {
    "postcode": "5031383",
    "prefecture": "岐阜県",
    "prefecture_kana": "ギフケン",
    "prefecture_code": 21,
    "city": "養老郡養老町",
    "city_kana": "ヨウロウグンヨウロウチョウ",
    "town": "大野",
    "town_kana": "オオノ",
    "street": null,
    "office_name": null,
    "office_name_kana": null
  },
  "1384": {
    "postcode": "5031384",
    "prefecture": "岐阜県",
    "prefecture_kana": "ギフケン",
    "prefecture_code": 21,
    "city": "養老郡養老町",
    "city_kana": "ヨウロウグンヨウロウチョウ",
    "town": "下笠",
    "town_kana": "シモガサ",
    "street": null,
    "office_name": null,
    "office_name_kana": null
  },
  "1385": {
    "postcode": "5031385",
    "prefecture": "岐阜県",
    "prefecture_kana": "ギフケン",
    "prefecture_code": 21,
    "city": "養老郡養老町",
    "city_kana": "ヨウロウグンヨウロウチョウ",
    "town": "上之郷",
    "town_kana": "カミノゴウ",
    "street": null,
    "office_name": null,
    "office_name_kana": null
  },
  "1392": {
    "postcode": "5031392",
    "prefecture": "岐阜県",
    "prefecture_kana": "ギフケン",
    "prefecture_code": 21,
    "city": "養老郡養老町",
    "city_kana": "ヨウロウグンヨウロウチョウ",
    "town": "高田",
    "town_kana": "タカダ",
    "street": "７９８",
    "office_name": "養老町役場",
    "office_name_kana": "ヨウロウチヨウヤクバ"
  },
  "1393": {
    "postcode": "5031393",
    "prefecture": "岐阜県",
    "prefecture_kana": "ギフケン",
    "prefecture_code": 21,
    "city": "養老郡養老町",
    "city_kana": "ヨウロウグンヨウロウチョウ",
    "town": "高田",
    "town_kana": "タカダ",
    "street": "８００−３",
    "office_name": "玉泉堂酒造　株式会社",
    "office_name_kana": "ギヨクセンドウシユゾウ カブシキガイシヤ"
  },
  "1394": {
    "postcode": "5031394",
    "prefecture": "岐阜県",
    "prefecture_kana": "ギフケン",
    "prefecture_code": 21,
    "city": "養老郡養老町",
    "city_kana": "ヨウロウグンヨウロウチョウ",
    "town": "押越",
    "town_kana": "オシコシ",
    "street": "９８６",
    "office_name": "西美濃厚生病院",
    "office_name_kana": "ニシミノコウセイビヨウイン"
  },
  "1395": {
    "postcode": "5031395",
    "prefecture": "岐阜県",
    "prefecture_kana": "ギフケン",
    "prefecture_code": 21,
    "city": "養老郡養老町",
    "city_kana": "ヨウロウグンヨウロウチョウ",
    "town": "押越",
    "town_kana": "オシコシ",
    "street": "１９７４",
    "office_name": "藤井ハウス産業　株式会社",
    "office_name_kana": "フジイハウスサンギヨウ カブシキガイシヤ"
  },
  "1396": {
    "postcode": "5031396",
    "prefecture": "岐阜県",
    "prefecture_kana": "ギフケン",
    "prefecture_code": 21,
    "city": "養老郡養老町",
    "city_kana": "ヨウロウグンヨウロウチョウ",
    "town": "蛇持",
    "town_kana": "ジャモチ",
    "street": "２２５",
    "office_name": "佐竹鉄工　株式会社",
    "office_name_kana": "サタケテツコウ カブシキガイシヤ"
  },
  "1500": {
    "postcode": "5031500",
    "prefecture": "岐阜県",
    "prefecture_kana": "ギフケン",
    "prefecture_code": 21,
    "city": "不破郡関ケ原町",
    "city_kana": "フワグンセキガハラチョウ",
    "town": "",
    "town_kana": "",
    "street": null,
    "office_name": null,
    "office_name_kana": null
  },
  "1501": {
    "postcode": "5031501",
    "prefecture": "岐阜県",
    "prefecture_kana": "ギフケン",
    "prefecture_code": 21,
    "city": "不破郡関ケ原町",
    "city_kana": "フワグンセキガハラチョウ",
    "town": "関ケ原",
    "town_kana": "セキガハラ",
    "street": null,
    "office_name": null,
    "office_name_kana": null
  },
  "1511": {
    "postcode": "5031511",
    "prefecture": "岐阜県",
    "prefecture_kana": "ギフケン",
    "prefecture_code": 21,
    "city": "不破郡関ケ原町",
    "city_kana": "フワグンセキガハラチョウ",
    "town": "東町",
    "town_kana": "ヒガシマチ",
    "street": null,
    "office_name": null,
    "office_name_kana": null
  },
  "1512": {
    "postcode": "5031512",
    "prefecture": "岐阜県",
    "prefecture_kana": "ギフケン",
    "prefecture_code": 21,
    "city": "不破郡関ケ原町",
    "city_kana": "フワグンセキガハラチョウ",
    "town": "公門",
    "town_kana": "クモン",
    "street": null,
    "office_name": null,
    "office_name_kana": null
  },
  "1513": {
    "postcode": "5031513",
    "prefecture": "岐阜県",
    "prefecture_kana": "ギフケン",
    "prefecture_code": 21,
    "city": "不破郡関ケ原町",
    "city_kana": "フワグンセキガハラチョウ",
    "town": "中山",
    "town_kana": "ナカヤマ",
    "street": null,
    "office_name": null,
    "office_name_kana": null
  },
  "1514": [
    {
      "postcode": "5031514",
      "prefecture": "岐阜県",
      "prefecture_kana": "ギフケン",
      "prefecture_code": 21,
      "city": "不破郡関ケ原町",
      "city_kana": "フワグンセキガハラチョウ",
      "town": "稲荷",
      "town_kana": "イナリ",
      "street": null,
      "office_name": null,
      "office_name_kana": null
    },
    {
      "postcode": "5031514",
      "prefecture": "岐阜県",
      "prefecture_kana": "ギフケン",
      "prefecture_code": 21,
      "city": "不破郡関ケ原町",
      "city_kana": "フワグンセキガハラチョウ",
      "town": "西町",
      "town_kana": "ニシマチ",
      "street": null,
      "office_name": null,
      "office_name_kana": null
    }
  ],
  "1515": {
    "postcode": "5031515",
    "prefecture": "岐阜県",
    "prefecture_kana": "ギフケン",
    "prefecture_code": 21,
    "city": "不破郡関ケ原町",
    "city_kana": "フワグンセキガハラチョウ",
    "town": "中町",
    "town_kana": "ナカマチ",
    "street": null,
    "office_name": null,
    "office_name_kana": null
  },
  "1521": {
    "postcode": "5031521",
    "prefecture": "岐阜県",
    "prefecture_kana": "ギフケン",
    "prefecture_code": 21,
    "city": "不破郡関ケ原町",
    "city_kana": "フワグンセキガハラチョウ",
    "town": "宝有",
    "town_kana": "ホウユウ",
    "street": null,
    "office_name": null,
    "office_name_kana": null
  },
  "1522": {
    "postcode": "5031522",
    "prefecture": "岐阜県",
    "prefecture_kana": "ギフケン",
    "prefecture_code": 21,
    "city": "不破郡関ケ原町",
    "city_kana": "フワグンセキガハラチョウ",
    "town": "陣場野",
    "town_kana": "ジンバノ",
    "street": null,
    "office_name": null,
    "office_name_kana": null
  },
  "1523": [
    {
      "postcode": "5031523",
      "prefecture": "岐阜県",
      "prefecture_kana": "ギフケン",
      "prefecture_code": 21,
      "city": "不破郡関ケ原町",
      "city_kana": "フワグンセキガハラチョウ",
      "town": "小池",
      "town_kana": "コイケ",
      "street": null,
      "office_name": null,
      "office_name_kana": null
    },
    {
      "postcode": "5031523",
      "prefecture": "岐阜県",
      "prefecture_kana": "ギフケン",
      "prefecture_code": 21,
      "city": "不破郡関ケ原町",
      "city_kana": "フワグンセキガハラチョウ",
      "town": "小関",
      "town_kana": "コゼキ",
      "street": null,
      "office_name": null,
      "office_name_kana": null
    }
  ],
  "1524": [
    {
      "postcode": "5031524",
      "prefecture": "岐阜県",
      "prefecture_kana": "ギフケン",
      "prefecture_code": 21,
      "city": "不破郡関ケ原町",
      "city_kana": "フワグンセキガハラチョウ",
      "town": "御祭田",
      "town_kana": "ゴサイデン",
      "street": null,
      "office_name": null,
      "office_name_kana": null
    },
    {
      "postcode": "5031524",
      "prefecture": "岐阜県",
      "prefecture_kana": "ギフケン",
      "prefecture_code": 21,
      "city": "不破郡関ケ原町",
      "city_kana": "フワグンセキガハラチョウ",
      "town": "笹尾",
      "town_kana": "ササオ",
      "street": null,
      "office_name": null,
      "office_name_kana": null
    },
    {
      "postcode": "5031524",
      "prefecture": "岐阜県",
      "prefecture_kana": "ギフケン",
      "prefecture_code": 21,
      "city": "不破郡関ケ原町",
      "city_kana": "フワグンセキガハラチョウ",
      "town": "緑ケ丘",
      "town_kana": "ミドリガオカ",
      "street": null,
      "office_name": null,
      "office_name_kana": null
    }
  ],
  "1531": {
    "postcode": "5031531",
    "prefecture": "岐阜県",
    "prefecture_kana": "ギフケン",
    "prefecture_code": 21,
    "city": "不破郡関ケ原町",
    "city_kana": "フワグンセキガハラチョウ",
    "town": "大高",
    "town_kana": "オダカ",
    "street": null,
    "office_name": null,
    "office_name_kana": null
  },
  "1532": {
    "postcode": "5031532",
    "prefecture": "岐阜県",
    "prefecture_kana": "ギフケン",
    "prefecture_code": 21,
    "city": "不破郡関ケ原町",
    "city_kana": "フワグンセキガハラチョウ",
    "town": "野上",
    "town_kana": "ノガミ",
    "street": null,
    "office_name": null,
    "office_name_kana": null
  },
  "1541": {
    "postcode": "5031541",
    "prefecture": "岐阜県",
    "prefecture_kana": "ギフケン",
    "prefecture_code": 21,
    "city": "不破郡関ケ原町",
    "city_kana": "フワグンセキガハラチョウ",
    "town": "松尾",
    "town_kana": "マツオ",
    "street": null,
    "office_name": null,
    "office_name_kana": null
  },
  "1542": {
    "postcode": "5031542",
    "prefecture": "岐阜県",
    "prefecture_kana": "ギフケン",
    "prefecture_code": 21,
    "city": "不破郡関ケ原町",
    "city_kana": "フワグンセキガハラチョウ",
    "town": "藤下",
    "town_kana": "トウゲ",
    "street": null,
    "office_name": null,
    "office_name_kana": null
  },
  "1543": {
    "postcode": "5031543",
    "prefecture": "岐阜県",
    "prefecture_kana": "ギフケン",
    "prefecture_code": 21,
    "city": "不破郡関ケ原町",
    "city_kana": "フワグンセキガハラチョウ",
    "town": "今須",
    "town_kana": "イマス",
    "street": null,
    "office_name": null,
    "office_name_kana": null
  },
  "1544": {
    "postcode": "5031544",
    "prefecture": "岐阜県",
    "prefecture_kana": "ギフケン",
    "prefecture_code": 21,
    "city": "不破郡関ケ原町",
    "city_kana": "フワグンセキガハラチョウ",
    "town": "山中",
    "town_kana": "ヤマナカ",
    "street": null,
    "office_name": null,
    "office_name_kana": null
  },
  "1545": {
    "postcode": "5031545",
    "prefecture": "岐阜県",
    "prefecture_kana": "ギフケン",
    "prefecture_code": 21,
    "city": "不破郡関ケ原町",
    "city_kana": "フワグンセキガハラチョウ",
    "town": "玉",
    "town_kana": "タマ",
    "street": null,
    "office_name": null,
    "office_name_kana": null
  },
  "1592": {
    "postcode": "5031592",
    "prefecture": "岐阜県",
    "prefecture_kana": "ギフケン",
    "prefecture_code": 21,
    "city": "不破郡関ケ原町",
    "city_kana": "フワグンセキガハラチョウ",
    "town": "大字関ケ原",
    "town_kana": null,
    "street": "３２１０−１",
    "office_name": "関ケ原町役場",
    "office_name_kana": "セキガハラチヨウヤクバ"
  },
  "1593": {
    "postcode": "5031593",
    "prefecture": "岐阜県",
    "prefecture_kana": "ギフケン",
    "prefecture_code": 21,
    "city": "不破郡関ケ原町",
    "city_kana": "フワグンセキガハラチョウ",
    "town": "大字関ケ原",
    "town_kana": null,
    "street": "２０６７",
    "office_name": "株式会社　関ケ原製作所",
    "office_name_kana": "カブシキガイシヤ セキガハラセイサクシヨ"
  },
  "1595": {
    "postcode": "5031595",
    "prefecture": "岐阜県",
    "prefecture_kana": "ギフケン",
    "prefecture_code": 21,
    "city": "不破郡関ケ原町",
    "city_kana": "フワグンセキガハラチョウ",
    "town": "大字関ケ原",
    "town_kana": null,
    "street": "２６８２",
    "office_name": "関ケ原石材　株式会社",
    "office_name_kana": "セキガハラセキザイ カブシキガイシヤ"
  },
  "1601": {
    "postcode": "5031601",
    "prefecture": "岐阜県",
    "prefecture_kana": "ギフケン",
    "prefecture_code": 21,
    "city": "大垣市",
    "city_kana": "オオガキシ",
    "town": "上石津町乙坂",
    "town_kana": "カミイシヅチョウオツサカ",
    "street": null,
    "office_name": null,
    "office_name_kana": null
  },
  "1602": {
    "postcode": "5031602",
    "prefecture": "岐阜県",
    "prefecture_kana": "ギフケン",
    "prefecture_code": 21,
    "city": "大垣市",
    "city_kana": "オオガキシ",
    "town": "上石津町牧田",
    "town_kana": "カミイシヅチョウマキダ",
    "street": null,
    "office_name": null,
    "office_name_kana": null
  },
  "1611": {
    "postcode": "5031611",
    "prefecture": "岐阜県",
    "prefecture_kana": "ギフケン",
    "prefecture_code": 21,
    "city": "大垣市",
    "city_kana": "オオガキシ",
    "town": "上石津町奥",
    "town_kana": "カミイシヅチョウオク",
    "street": null,
    "office_name": null,
    "office_name_kana": null
  },
  "1612": {
    "postcode": "5031612",
    "prefecture": "岐阜県",
    "prefecture_kana": "ギフケン",
    "prefecture_code": 21,
    "city": "大垣市",
    "city_kana": "オオガキシ",
    "town": "上石津町谷畑",
    "town_kana": "カミイシヅチョウタニハタ",
    "street": null,
    "office_name": null,
    "office_name_kana": null
  },
  "1613": {
    "postcode": "5031613",
    "prefecture": "岐阜県",
    "prefecture_kana": "ギフケン",
    "prefecture_code": 21,
    "city": "大垣市",
    "city_kana": "オオガキシ",
    "town": "上石津町上鍛治屋",
    "town_kana": "カミイシヅチョウカミカジヤ",
    "street": null,
    "office_name": null,
    "office_name_kana": null
  },
  "1614": {
    "postcode": "5031614",
    "prefecture": "岐阜県",
    "prefecture_kana": "ギフケン",
    "prefecture_code": 21,
    "city": "大垣市",
    "city_kana": "オオガキシ",
    "town": "上石津町一之瀬",
    "town_kana": "カミイシヅチョウイチノセ",
    "street": null,
    "office_name": null,
    "office_name_kana": null
  },
  "1621": {
    "postcode": "5031621",
    "prefecture": "岐阜県",
    "prefecture_kana": "ギフケン",
    "prefecture_code": 21,
    "city": "大垣市",
    "city_kana": "オオガキシ",
    "town": "上石津町下多良",
    "town_kana": "カミイシヅチョウシモタラ",
    "street": null,
    "office_name": null,
    "office_name_kana": null
  },
  "1622": {
    "postcode": "5031622",
    "prefecture": "岐阜県",
    "prefecture_kana": "ギフケン",
    "prefecture_code": 21,
    "city": "大垣市",
    "city_kana": "オオガキシ",
    "town": "上石津町上原",
    "town_kana": "カミイシヅチョウウワハラ",
    "street": null,
    "office_name": null,
    "office_name_kana": null
  },
  "1623": {
    "postcode": "5031623",
    "prefecture": "岐阜県",
    "prefecture_kana": "ギフケン",
    "prefecture_code": 21,
    "city": "大垣市",
    "city_kana": "オオガキシ",
    "town": "上石津町上多良",
    "town_kana": "カミイシヅチョウカミタラ",
    "street": null,
    "office_name": null,
    "office_name_kana": null
  },
  "1624": {
    "postcode": "5031624",
    "prefecture": "岐阜県",
    "prefecture_kana": "ギフケン",
    "prefecture_code": 21,
    "city": "大垣市",
    "city_kana": "オオガキシ",
    "town": "上石津町三ツ里",
    "town_kana": "カミイシヅチョウミツサト",
    "street": null,
    "office_name": null,
    "office_name_kana": null
  },
  "1625": {
    "postcode": "5031625",
    "prefecture": "岐阜県",
    "prefecture_kana": "ギフケン",
    "prefecture_code": 21,
    "city": "大垣市",
    "city_kana": "オオガキシ",
    "town": "上石津町宮",
    "town_kana": "カミイシヅチョウミヤ",
    "street": null,
    "office_name": null,
    "office_name_kana": null
  },
  "1626": {
    "postcode": "5031626",
    "prefecture": "岐阜県",
    "prefecture_kana": "ギフケン",
    "prefecture_code": 21,
    "city": "大垣市",
    "city_kana": "オオガキシ",
    "town": "上石津町祢宜上",
    "town_kana": "カミイシヅチョウネギカミ",
    "street": null,
    "office_name": null,
    "office_name_kana": null
  },
  "1631": {
    "postcode": "5031631",
    "prefecture": "岐阜県",
    "prefecture_kana": "ギフケン",
    "prefecture_code": 21,
    "city": "大垣市",
    "city_kana": "オオガキシ",
    "town": "上石津町前ケ瀬",
    "town_kana": "カミイシヅチョウマエガセ",
    "street": null,
    "office_name": null,
    "office_name_kana": null
  },
  "1632": {
    "postcode": "5031632",
    "prefecture": "岐阜県",
    "prefecture_kana": "ギフケン",
    "prefecture_code": 21,
    "city": "大垣市",
    "city_kana": "オオガキシ",
    "town": "上石津町下山",
    "town_kana": "カミイシヅチョウシモヤマ",
    "street": null,
    "office_name": null,
    "office_name_kana": null
  },
  "1633": {
    "postcode": "5031633",
    "prefecture": "岐阜県",
    "prefecture_kana": "ギフケン",
    "prefecture_code": 21,
    "city": "大垣市",
    "city_kana": "オオガキシ",
    "town": "上石津町打上",
    "town_kana": "カミイシヅチョウウチアゲ",
    "street": null,
    "office_name": null,
    "office_name_kana": null
  },
  "1634": {
    "postcode": "5031634",
    "prefecture": "岐阜県",
    "prefecture_kana": "ギフケン",
    "prefecture_code": 21,
    "city": "大垣市",
    "city_kana": "オオガキシ",
    "town": "上石津町細野",
    "town_kana": "カミイシヅチョウホソノ",
    "street": null,
    "office_name": null,
    "office_name_kana": null
  },
  "1635": {
    "postcode": "5031635",
    "prefecture": "岐阜県",
    "prefecture_kana": "ギフケン",
    "prefecture_code": 21,
    "city": "大垣市",
    "city_kana": "オオガキシ",
    "town": "上石津町時山",
    "town_kana": "カミイシヅチョウトキヤマ",
    "street": null,
    "office_name": null,
    "office_name_kana": null
  },
  "1636": {
    "postcode": "5031636",
    "prefecture": "岐阜県",
    "prefecture_kana": "ギフケン",
    "prefecture_code": 21,
    "city": "大垣市",
    "city_kana": "オオガキシ",
    "town": "上石津町西山",
    "town_kana": "カミイシヅチョウニシヤマ",
    "street": null,
    "office_name": null,
    "office_name_kana": null
  },
  "1637": {
    "postcode": "5031637",
    "prefecture": "岐阜県",
    "prefecture_kana": "ギフケン",
    "prefecture_code": 21,
    "city": "大垣市",
    "city_kana": "オオガキシ",
    "town": "上石津町堂之上",
    "town_kana": "カミイシヅチョウドウノウエ",
    "street": null,
    "office_name": null,
    "office_name_kana": null
  },
  "1638": {
    "postcode": "5031638",
    "prefecture": "岐阜県",
    "prefecture_kana": "ギフケン",
    "prefecture_code": 21,
    "city": "大垣市",
    "city_kana": "オオガキシ",
    "town": "上石津町上",
    "town_kana": "カミイシヅチョウカミ",
    "street": null,
    "office_name": null,
    "office_name_kana": null
  },
  "1696": {
    "postcode": "5031696",
    "prefecture": "岐阜県",
    "prefecture_kana": "ギフケン",
    "prefecture_code": 21,
    "city": "大垣市",
    "city_kana": "オオガキシ",
    "town": "上石津町乙坂",
    "town_kana": "カミイシヅチョウオツサカ",
    "street": "１３０−１",
    "office_name": "株式会社　丸順",
    "office_name_kana": "カブシキガイシヤ マルジユン"
  },
  "2100": {
    "postcode": "5032100",
    "prefecture": "岐阜県",
    "prefecture_kana": "ギフケン",
    "prefecture_code": 21,
    "city": "不破郡垂井町",
    "city_kana": "フワグンタルイチョウ",
    "town": "",
    "town_kana": "",
    "street": null,
    "office_name": null,
    "office_name_kana": null
  },
  "2101": {
    "postcode": "5032101",
    "prefecture": "岐阜県",
    "prefecture_kana": "ギフケン",
    "prefecture_code": 21,
    "city": "不破郡垂井町",
    "city_kana": "フワグンタルイチョウ",
    "town": "大滝",
    "town_kana": "オオタキ",
    "street": null,
    "office_name": null,
    "office_name_kana": null
  },
  "2102": {
    "postcode": "5032102",
    "prefecture": "岐阜県",
    "prefecture_kana": "ギフケン",
    "prefecture_code": 21,
    "city": "不破郡垂井町",
    "city_kana": "フワグンタルイチョウ",
    "town": "敷原",
    "town_kana": "シキハラ",
    "street": null,
    "office_name": null,
    "office_name_kana": null
  },
  "2103": {
    "postcode": "5032103",
    "prefecture": "岐阜県",
    "prefecture_kana": "ギフケン",
    "prefecture_code": 21,
    "city": "不破郡垂井町",
    "city_kana": "フワグンタルイチョウ",
    "town": "梅谷",
    "town_kana": "ウメタニ",
    "street": null,
    "office_name": null,
    "office_name_kana": null
  },
  "2104": {
    "postcode": "5032104",
    "prefecture": "岐阜県",
    "prefecture_kana": "ギフケン",
    "prefecture_code": 21,
    "city": "不破郡垂井町",
    "city_kana": "フワグンタルイチョウ",
    "town": "市之尾",
    "town_kana": "イチノオ",
    "street": null,
    "office_name": null,
    "office_name_kana": null
  },
  "2105": {
    "postcode": "5032105",
    "prefecture": "岐阜県",
    "prefecture_kana": "ギフケン",
    "prefecture_code": 21,
    "city": "不破郡垂井町",
    "city_kana": "フワグンタルイチョウ",
    "town": "新井",
    "town_kana": "アライ",
    "street": null,
    "office_name": null,
    "office_name_kana": null
  },
  "2106": {
    "postcode": "5032106",
    "prefecture": "岐阜県",
    "prefecture_kana": "ギフケン",
    "prefecture_code": 21,
    "city": "不破郡垂井町",
    "city_kana": "フワグンタルイチョウ",
    "town": "伊吹",
    "town_kana": "イブキ",
    "street": null,
    "office_name": null,
    "office_name_kana": null
  },
  "2107": {
    "postcode": "5032107",
    "prefecture": "岐阜県",
    "prefecture_kana": "ギフケン",
    "prefecture_code": 21,
    "city": "不破郡垂井町",
    "city_kana": "フワグンタルイチョウ",
    "town": "岩手",
    "town_kana": "イワデ",
    "street": null,
    "office_name": null,
    "office_name_kana": null
  },
  "2108": {
    "postcode": "5032108",
    "prefecture": "岐阜県",
    "prefecture_kana": "ギフケン",
    "prefecture_code": 21,
    "city": "不破郡垂井町",
    "city_kana": "フワグンタルイチョウ",
    "town": "大石",
    "town_kana": "オオイシ",
    "street": null,
    "office_name": null,
    "office_name_kana": null
  },
  "2109": {
    "postcode": "5032109",
    "prefecture": "岐阜県",
    "prefecture_kana": "ギフケン",
    "prefecture_code": 21,
    "city": "不破郡垂井町",
    "city_kana": "フワグンタルイチョウ",
    "town": "南新井",
    "town_kana": "ミナミアライ",
    "street": null,
    "office_name": null,
    "office_name_kana": null
  },
  "2111": {
    "postcode": "5032111",
    "prefecture": "岐阜県",
    "prefecture_kana": "ギフケン",
    "prefecture_code": 21,
    "city": "不破郡垂井町",
    "city_kana": "フワグンタルイチョウ",
    "town": "平尾",
    "town_kana": "ヒラオ",
    "street": null,
    "office_name": null,
    "office_name_kana": null
  },
  "2112": {
    "postcode": "5032112",
    "prefecture": "岐阜県",
    "prefecture_kana": "ギフケン",
    "prefecture_code": 21,
    "city": "不破郡垂井町",
    "city_kana": "フワグンタルイチョウ",
    "town": "綾戸",
    "town_kana": "アヤド",
    "street": null,
    "office_name": null,
    "office_name_kana": null
  },
  "2113": {
    "postcode": "5032113",
    "prefecture": "岐阜県",
    "prefecture_kana": "ギフケン",
    "prefecture_code": 21,
    "city": "不破郡垂井町",
    "city_kana": "フワグンタルイチョウ",
    "town": "清水",
    "town_kana": "シミズ",
    "street": null,
    "office_name": null,
    "office_name_kana": null
  },
  "2114": {
    "postcode": "5032114",
    "prefecture": "岐阜県",
    "prefecture_kana": "ギフケン",
    "prefecture_code": 21,
    "city": "不破郡垂井町",
    "city_kana": "フワグンタルイチョウ",
    "town": "府中",
    "town_kana": "フチュウ",
    "street": null,
    "office_name": null,
    "office_name_kana": null
  },
  "2121": {
    "postcode": "5032121",
    "prefecture": "岐阜県",
    "prefecture_kana": "ギフケン",
    "prefecture_code": 21,
    "city": "不破郡垂井町",
    "city_kana": "フワグンタルイチョウ",
    "town": "",
    "town_kana": "",
    "street": null,
    "office_name": null,
    "office_name_kana": null
  },
  "2122": {
    "postcode": "5032122",
    "prefecture": "岐阜県",
    "prefecture_kana": "ギフケン",
    "prefecture_code": 21,
    "city": "不破郡垂井町",
    "city_kana": "フワグンタルイチョウ",
    "town": "表佐",
    "town_kana": "オサ",
    "street": null,
    "office_name": null,
    "office_name_kana": null
  },
  "2123": {
    "postcode": "5032123",
    "prefecture": "岐阜県",
    "prefecture_kana": "ギフケン",
    "prefecture_code": 21,
    "city": "不破郡垂井町",
    "city_kana": "フワグンタルイチョウ",
    "town": "栗原",
    "town_kana": "クリハラ",
    "street": null,
    "office_name": null,
    "office_name_kana": null
  },
  "2124": {
    "postcode": "5032124",
    "prefecture": "岐阜県",
    "prefecture_kana": "ギフケン",
    "prefecture_code": 21,
    "city": "不破郡垂井町",
    "city_kana": "フワグンタルイチョウ",
    "town": "宮代",
    "town_kana": "ミヤシロ",
    "street": null,
    "office_name": null,
    "office_name_kana": null
  },
  "2125": {
    "postcode": "5032125",
    "prefecture": "岐阜県",
    "prefecture_kana": "ギフケン",
    "prefecture_code": 21,
    "city": "不破郡垂井町",
    "city_kana": "フワグンタルイチョウ",
    "town": "東神田",
    "town_kana": "ヒガシカンダ",
    "street": null,
    "office_name": null,
    "office_name_kana": null
  },
  "2192": {
    "postcode": "5032192",
    "prefecture": "岐阜県",
    "prefecture_kana": "ギフケン",
    "prefecture_code": 21,
    "city": "不破郡垂井町",
    "city_kana": "フワグンタルイチョウ",
    "town": "宮代",
    "town_kana": "ミヤシロ",
    "street": "１１１０−１",
    "office_name": "ナブテスコ　株式会社　岐阜工場",
    "office_name_kana": "ナブテスコ カブシキガイシヤ ギフコウジヨウ"
  },
  "2193": {
    "postcode": "5032193",
    "prefecture": "岐阜県",
    "prefecture_kana": "ギフケン",
    "prefecture_code": 21,
    "city": "不破郡垂井町",
    "city_kana": "フワグンタルイチョウ",
    "town": "宮代",
    "town_kana": "ミヤシロ",
    "street": "２９５７番地の１１",
    "office_name": "垂井町役場",
    "office_name_kana": "タルイチヨウヤクバ"
  },
  "2201": {
    "postcode": "5032201",
    "prefecture": "岐阜県",
    "prefecture_kana": "ギフケン",
    "prefecture_code": 21,
    "city": "大垣市",
    "city_kana": "オオガキシ",
    "town": "草道島町",
    "town_kana": "ソウドウジマチョウ",
    "street": null,
    "office_name": null,
    "office_name_kana": null
  },
  "2202": {
    "postcode": "5032202",
    "prefecture": "岐阜県",
    "prefecture_kana": "ギフケン",
    "prefecture_code": 21,
    "city": "大垣市",
    "city_kana": "オオガキシ",
    "town": "青木町",
    "town_kana": "アオキチョウ",
    "street": null,
    "office_name": null,
    "office_name_kana": null
  },
  "2203": {
    "postcode": "5032203",
    "prefecture": "岐阜県",
    "prefecture_kana": "ギフケン",
    "prefecture_code": 21,
    "city": "大垣市",
    "city_kana": "オオガキシ",
    "town": "興福地町",
    "town_kana": "コウフクジチョウ",
    "street": null,
    "office_name": null,
    "office_name_kana": null
  },
  "2204": {
    "postcode": "5032204",
    "prefecture": "岐阜県",
    "prefecture_kana": "ギフケン",
    "prefecture_code": 21,
    "city": "大垣市",
    "city_kana": "オオガキシ",
    "town": "池尻町",
    "town_kana": "イケジリチョウ",
    "street": null,
    "office_name": null,
    "office_name_kana": null
  },
  "2205": {
    "postcode": "5032205",
    "prefecture": "岐阜県",
    "prefecture_kana": "ギフケン",
    "prefecture_code": 21,
    "city": "大垣市",
    "city_kana": "オオガキシ",
    "town": "神明",
    "town_kana": "シンメイ",
    "street": null,
    "office_name": null,
    "office_name_kana": null
  },
  "2206": {
    "postcode": "5032206",
    "prefecture": "岐阜県",
    "prefecture_kana": "ギフケン",
    "prefecture_code": 21,
    "city": "大垣市",
    "city_kana": "オオガキシ",
    "town": "赤坂新町",
    "town_kana": "アカサカシンマチ",
    "street": null,
    "office_name": null,
    "office_name_kana": null
  },
  "2207": {
    "postcode": "5032207",
    "prefecture": "岐阜県",
    "prefecture_kana": "ギフケン",
    "prefecture_code": 21,
    "city": "大垣市",
    "city_kana": "オオガキシ",
    "town": "枝郷",
    "town_kana": "エダゴウ",
    "street": null,
    "office_name": null,
    "office_name_kana": null
  },
  "2208": {
    "postcode": "5032208",
    "prefecture": "岐阜県",
    "prefecture_kana": "ギフケン",
    "prefecture_code": 21,
    "city": "大垣市",
    "city_kana": "オオガキシ",
    "town": "菅野",
    "town_kana": "スガノ",
    "street": null,
    "office_name": null,
    "office_name_kana": null
  },
  "2211": {
    "postcode": "5032211",
    "prefecture": "岐阜県",
    "prefecture_kana": "ギフケン",
    "prefecture_code": 21,
    "city": "大垣市",
    "city_kana": "オオガキシ",
    "town": "南市橋町",
    "town_kana": "ミナミイチハシチョウ",
    "street": null,
    "office_name": null,
    "office_name_kana": null
  },
  "2212": {
    "postcode": "5032212",
    "prefecture": "岐阜県",
    "prefecture_kana": "ギフケン",
    "prefecture_code": 21,
    "city": "大垣市",
    "city_kana": "オオガキシ",
    "town": "赤坂東町",
    "town_kana": "アカサカヒガシマチ",
    "street": null,
    "office_name": null,
    "office_name_kana": null
  },
  "2213": {
    "postcode": "5032213",
    "prefecture": "岐阜県",
    "prefecture_kana": "ギフケン",
    "prefecture_code": 21,
    "city": "大垣市",
    "city_kana": "オオガキシ",
    "town": "赤坂町",
    "town_kana": "アカサカチョウ",
    "street": null,
    "office_name": null,
    "office_name_kana": null
  },
  "2214": {
    "postcode": "5032214",
    "prefecture": "岐阜県",
    "prefecture_kana": "ギフケン",
    "prefecture_code": 21,
    "city": "大垣市",
    "city_kana": "オオガキシ",
    "town": "赤坂新田",
    "town_kana": "アカサカシンデン",
    "street": null,
    "office_name": null,
    "office_name_kana": null
  },
  "2215": {
    "postcode": "5032215",
    "prefecture": "岐阜県",
    "prefecture_kana": "ギフケン",
    "prefecture_code": 21,
    "city": "大垣市",
    "city_kana": "オオガキシ",
    "town": "赤坂大門",
    "town_kana": "アカサカダイモン",
    "street": null,
    "office_name": null,
    "office_name_kana": null
  },
  "2216": {
    "postcode": "5032216",
    "prefecture": "岐阜県",
    "prefecture_kana": "ギフケン",
    "prefecture_code": 21,
    "city": "大垣市",
    "city_kana": "オオガキシ",
    "town": "昼飯町",
    "town_kana": "ヒルイチョウ",
    "street": null,
    "office_name": null,
    "office_name_kana": null
  },
  "2221": {
    "postcode": "5032221",
    "prefecture": "岐阜県",
    "prefecture_kana": "ギフケン",
    "prefecture_code": 21,
    "city": "大垣市",
    "city_kana": "オオガキシ",
    "town": "青墓町",
    "town_kana": "アオハカチョウ",
    "street": null,
    "office_name": null,
    "office_name_kana": null
  },
  "2222": {
    "postcode": "5032222",
    "prefecture": "岐阜県",
    "prefecture_kana": "ギフケン",
    "prefecture_code": 21,
    "city": "大垣市",
    "city_kana": "オオガキシ",
    "town": "榎戸町",
    "town_kana": "ヨノキドチョウ",
    "street": null,
    "office_name": null,
    "office_name_kana": null
  },
  "2223": {
    "postcode": "5032223",
    "prefecture": "岐阜県",
    "prefecture_kana": "ギフケン",
    "prefecture_code": 21,
    "city": "大垣市",
    "city_kana": "オオガキシ",
    "town": "矢道町",
    "town_kana": "ヤミチチョウ",
    "street": null,
    "office_name": null,
    "office_name_kana": null
  },
  "2224": {
    "postcode": "5032224",
    "prefecture": "岐阜県",
    "prefecture_kana": "ギフケン",
    "prefecture_code": 21,
    "city": "大垣市",
    "city_kana": "オオガキシ",
    "town": "稲葉東",
    "town_kana": "イナバヒガシ",
    "street": null,
    "office_name": null,
    "office_name_kana": null
  },
  "2225": {
    "postcode": "5032225",
    "prefecture": "岐阜県",
    "prefecture_kana": "ギフケン",
    "prefecture_code": 21,
    "city": "大垣市",
    "city_kana": "オオガキシ",
    "town": "稲葉西",
    "town_kana": "イナバニシ",
    "street": null,
    "office_name": null,
    "office_name_kana": null
  },
  "2226": {
    "postcode": "5032226",
    "prefecture": "岐阜県",
    "prefecture_kana": "ギフケン",
    "prefecture_code": 21,
    "city": "大垣市",
    "city_kana": "オオガキシ",
    "town": "稲葉北",
    "town_kana": "イナバキタ",
    "street": null,
    "office_name": null,
    "office_name_kana": null
  },
  "2227": {
    "postcode": "5032227",
    "prefecture": "岐阜県",
    "prefecture_kana": "ギフケン",
    "prefecture_code": 21,
    "city": "大垣市",
    "city_kana": "オオガキシ",
    "town": "青野町",
    "town_kana": "アオノチョウ",
    "street": null,
    "office_name": null,
    "office_name_kana": null
  },
  "2300": {
    "postcode": "5032300",
    "prefecture": "岐阜県",
    "prefecture_kana": "ギフケン",
    "prefecture_code": 21,
    "city": "安八郡神戸町",
    "city_kana": "アンパチグンゴウドチョウ",
    "town": "",
    "town_kana": "",
    "street": null,
    "office_name": null,
    "office_name_kana": null
  },
  "2301": {
    "postcode": "5032301",
    "prefecture": "岐阜県",
    "prefecture_kana": "ギフケン",
    "prefecture_code": 21,
    "city": "安八郡神戸町",
    "city_kana": "アンパチグンゴウドチョウ",
    "town": "横井",
    "town_kana": "ヨコイ",
    "street": null,
    "office_name": null,
    "office_name_kana": null
  },
  "2302": {
    "postcode": "5032302",
    "prefecture": "岐阜県",
    "prefecture_kana": "ギフケン",
    "prefecture_code": 21,
    "city": "安八郡神戸町",
    "city_kana": "アンパチグンゴウドチョウ",
    "town": "田",
    "town_kana": "タ",
    "street": null,
    "office_name": null,
    "office_name_kana": null
  },
  "2303": {
    "postcode": "5032303",
    "prefecture": "岐阜県",
    "prefecture_kana": "ギフケン",
    "prefecture_code": 21,
    "city": "安八郡神戸町",
    "city_kana": "アンパチグンゴウドチョウ",
    "town": "安次",
    "town_kana": "ヤスツグ",
    "street": null,
    "office_name": null,
    "office_name_kana": null
  },
  "2304": {
    "postcode": "5032304",
    "prefecture": "岐阜県",
    "prefecture_kana": "ギフケン",
    "prefecture_code": 21,
    "city": "安八郡神戸町",
    "city_kana": "アンパチグンゴウドチョウ",
    "town": "丈六道",
    "town_kana": "ジョウロクドウ",
    "street": null,
    "office_name": null,
    "office_name_kana": null
  },
  "2305": {
    "postcode": "5032305",
    "prefecture": "岐阜県",
    "prefecture_kana": "ギフケン",
    "prefecture_code": 21,
    "city": "安八郡神戸町",
    "city_kana": "アンパチグンゴウドチョウ",
    "town": "神戸",
    "town_kana": "ゴウド",
    "street": null,
    "office_name": null,
    "office_name_kana": null
  },
  "2306": {
    "postcode": "5032306",
    "prefecture": "岐阜県",
    "prefecture_kana": "ギフケン",
    "prefecture_code": 21,
    "city": "安八郡神戸町",
    "city_kana": "アンパチグンゴウドチョウ",
    "town": "北一色",
    "town_kana": "キタイシキ",
    "street": null,
    "office_name": null,
    "office_name_kana": null
  },
  "2311": {
    "postcode": "5032311",
    "prefecture": "岐阜県",
    "prefecture_kana": "ギフケン",
    "prefecture_code": 21,
    "city": "安八郡神戸町",
    "city_kana": "アンパチグンゴウドチョウ",
    "town": "川西",
    "town_kana": "カワニシ",
    "street": null,
    "office_name": null,
    "office_name_kana": null
  },
  "2312": {
    "postcode": "5032312",
    "prefecture": "岐阜県",
    "prefecture_kana": "ギフケン",
    "prefecture_code": 21,
    "city": "安八郡神戸町",
    "city_kana": "アンパチグンゴウドチョウ",
    "town": "下宮",
    "town_kana": "シモミヤ",
    "street": null,
    "office_name": null,
    "office_name_kana": null
  },
  "2313": {
    "postcode": "5032313",
    "prefecture": "岐阜県",
    "prefecture_kana": "ギフケン",
    "prefecture_code": 21,
    "city": "安八郡神戸町",
    "city_kana": "アンパチグンゴウドチョウ",
    "town": "新屋敷",
    "town_kana": "シンヤシキ",
    "street": null,
    "office_name": null,
    "office_name_kana": null
  },
  "2314": {
    "postcode": "5032314",
    "prefecture": "岐阜県",
    "prefecture_kana": "ギフケン",
    "prefecture_code": 21,
    "city": "安八郡神戸町",
    "city_kana": "アンパチグンゴウドチョウ",
    "town": "落合",
    "town_kana": "オチアイ",
    "street": null,
    "office_name": null,
    "office_name_kana": null
  },
  "2315": {
    "postcode": "5032315",
    "prefecture": "岐阜県",
    "prefecture_kana": "ギフケン",
    "prefecture_code": 21,
    "city": "安八郡神戸町",
    "city_kana": "アンパチグンゴウドチョウ",
    "town": "付寄",
    "town_kana": "ツキヨリ",
    "street": null,
    "office_name": null,
    "office_name_kana": null
  },
  "2316": {
    "postcode": "5032316",
    "prefecture": "岐阜県",
    "prefecture_kana": "ギフケン",
    "prefecture_code": 21,
    "city": "安八郡神戸町",
    "city_kana": "アンパチグンゴウドチョウ",
    "town": "斉田",
    "town_kana": "サイダ",
    "street": null,
    "office_name": null,
    "office_name_kana": null
  },
  "2317": {
    "postcode": "5032317",
    "prefecture": "岐阜県",
    "prefecture_kana": "ギフケン",
    "prefecture_code": 21,
    "city": "安八郡神戸町",
    "city_kana": "アンパチグンゴウドチョウ",
    "town": "柳瀬",
    "town_kana": "ヤナゼ",
    "street": null,
    "office_name": null,
    "office_name_kana": null
  },
  "2318": {
    "postcode": "5032318",
    "prefecture": "岐阜県",
    "prefecture_kana": "ギフケン",
    "prefecture_code": 21,
    "city": "安八郡神戸町",
    "city_kana": "アンパチグンゴウドチョウ",
    "town": "瀬古",
    "town_kana": "セコ",
    "street": null,
    "office_name": null,
    "office_name_kana": null
  },
  "2319": {
    "postcode": "5032319",
    "prefecture": "岐阜県",
    "prefecture_kana": "ギフケン",
    "prefecture_code": 21,
    "city": "安八郡神戸町",
    "city_kana": "アンパチグンゴウドチョウ",
    "town": "前田",
    "town_kana": "マエダ",
    "street": null,
    "office_name": null,
    "office_name_kana": null
  },
  "2321": {
    "postcode": "5032321",
    "prefecture": "岐阜県",
    "prefecture_kana": "ギフケン",
    "prefecture_code": 21,
    "city": "安八郡神戸町",
    "city_kana": "アンパチグンゴウドチョウ",
    "town": "末守",
    "town_kana": "スエモリ",
    "street": null,
    "office_name": null,
    "office_name_kana": null
  },
  "2322": {
    "postcode": "5032322",
    "prefecture": "岐阜県",
    "prefecture_kana": "ギフケン",
    "prefecture_code": 21,
    "city": "安八郡神戸町",
    "city_kana": "アンパチグンゴウドチョウ",
    "town": "更屋敷",
    "town_kana": "サラヤシキ",
    "street": null,
    "office_name": null,
    "office_name_kana": null
  },
  "2323": {
    "postcode": "5032323",
    "prefecture": "岐阜県",
    "prefecture_kana": "ギフケン",
    "prefecture_code": 21,
    "city": "安八郡神戸町",
    "city_kana": "アンパチグンゴウドチョウ",
    "town": "西保",
    "town_kana": "ニシノホ",
    "street": null,
    "office_name": null,
    "office_name_kana": null
  },
  "2324": {
    "postcode": "5032324",
    "prefecture": "岐阜県",
    "prefecture_kana": "ギフケン",
    "prefecture_code": 21,
    "city": "安八郡神戸町",
    "city_kana": "アンパチグンゴウドチョウ",
    "town": "八条",
    "town_kana": "ハチジョウ",
    "street": null,
    "office_name": null,
    "office_name_kana": null
  },
  "2325": {
    "postcode": "5032325",
    "prefecture": "岐阜県",
    "prefecture_kana": "ギフケン",
    "prefecture_code": 21,
    "city": "安八郡神戸町",
    "city_kana": "アンパチグンゴウドチョウ",
    "town": "加納",
    "town_kana": "カノウ",
    "street": null,
    "office_name": null,
    "office_name_kana": null
  },
  "2326": {
    "postcode": "5032326",
    "prefecture": "岐阜県",
    "prefecture_kana": "ギフケン",
    "prefecture_code": 21,
    "city": "安八郡神戸町",
    "city_kana": "アンパチグンゴウドチョウ",
    "town": "中沢",
    "town_kana": "ナカザワ",
    "street": null,
    "office_name": null,
    "office_name_kana": null
  },
  "2327": {
    "postcode": "5032327",
    "prefecture": "岐阜県",
    "prefecture_kana": "ギフケン",
    "prefecture_code": 21,
    "city": "安八郡神戸町",
    "city_kana": "アンパチグンゴウドチョウ",
    "town": "和泉",
    "town_kana": "イズミ",
    "street": null,
    "office_name": null,
    "office_name_kana": null
  },
  "2328": {
    "postcode": "5032328",
    "prefecture": "岐阜県",
    "prefecture_kana": "ギフケン",
    "prefecture_code": 21,
    "city": "安八郡神戸町",
    "city_kana": "アンパチグンゴウドチョウ",
    "town": "南方",
    "town_kana": "ミナミガタ",
    "street": null,
    "office_name": null,
    "office_name_kana": null
  },
  "2341": {
    "postcode": "5032341",
    "prefecture": "岐阜県",
    "prefecture_kana": "ギフケン",
    "prefecture_code": 21,
    "city": "安八郡神戸町",
    "city_kana": "アンパチグンゴウドチョウ",
    "town": "西座倉",
    "town_kana": "ニシザクラ",
    "street": null,
    "office_name": null,
    "office_name_kana": null
  },
  "2392": {
    "postcode": "5032392",
    "prefecture": "岐阜県",
    "prefecture_kana": "ギフケン",
    "prefecture_code": 21,
    "city": "安八郡神戸町",
    "city_kana": "アンパチグンゴウドチョウ",
    "town": "大字神戸",
    "town_kana": null,
    "street": "１１１１",
    "office_name": "神戸町役場",
    "office_name_kana": "ゴウドチヨウヤクバ"
  },
  "2393": {
    "postcode": "5032393",
    "prefecture": "岐阜県",
    "prefecture_kana": "ギフケン",
    "prefecture_code": 21,
    "city": "安八郡神戸町",
    "city_kana": "アンパチグンゴウドチョウ",
    "town": "大字末守",
    "town_kana": null,
    "street": "３７７−１",
    "office_name": "コダマ樹脂工業　株式会社",
    "office_name_kana": "コダマジユシコウギヨウ カブシキガイシヤ"
  },
  "2394": {
    "postcode": "5032394",
    "prefecture": "岐阜県",
    "prefecture_kana": "ギフケン",
    "prefecture_code": 21,
    "city": "安八郡神戸町",
    "city_kana": "アンパチグンゴウドチョウ",
    "town": "大字横井",
    "town_kana": null,
    "street": "１５２８−１",
    "office_name": "三菱マテリアル　株式会社　岐阜製作所",
    "office_name_kana": "ミツビシマテリアル カブシキガイシヤ ギフセイサクシヨ"
  },
  "2395": {
    "postcode": "5032395",
    "prefecture": "岐阜県",
    "prefecture_kana": "ギフケン",
    "prefecture_code": 21,
    "city": "安八郡神戸町",
    "city_kana": "アンパチグンゴウドチョウ",
    "town": "大字安次",
    "town_kana": null,
    "street": "９００−１",
    "office_name": "東レ　株式会社　岐阜工場",
    "office_name_kana": "トウレ カブシキガイシヤ ギフコウジヨウ"
  },
  "2396": {
    "postcode": "5032396",
    "prefecture": "岐阜県",
    "prefecture_kana": "ギフケン",
    "prefecture_code": 21,
    "city": "安八郡神戸町",
    "city_kana": "アンパチグンゴウドチョウ",
    "town": "大字安次",
    "town_kana": null,
    "street": "７００",
    "office_name": "丸山工業　株式会社",
    "office_name_kana": "マルヤマコウギヨウ カブシキガイシヤ"
  },
  "2397": {
    "postcode": "5032397",
    "prefecture": "岐阜県",
    "prefecture_kana": "ギフケン",
    "prefecture_code": 21,
    "city": "安八郡神戸町",
    "city_kana": "アンパチグンゴウドチョウ",
    "town": "大字横井",
    "town_kana": null,
    "street": "１３０１",
    "office_name": "太平洋工業　株式会社　北大垣工場",
    "office_name_kana": "タイヘイヨウコウギヨウ カブシキガイシヤ キタオオガキコウジヨウ"
  },
  "2400": {
    "postcode": "5032400",
    "prefecture": "岐阜県",
    "prefecture_kana": "ギフケン",
    "prefecture_code": 21,
    "city": "揖斐郡池田町",
    "city_kana": "イビグンイケダチョウ",
    "town": "",
    "town_kana": "",
    "street": null,
    "office_name": null,
    "office_name_kana": null
  },
  "2401": {
    "postcode": "5032401",
    "prefecture": "岐阜県",
    "prefecture_kana": "ギフケン",
    "prefecture_code": 21,
    "city": "揖斐郡池田町",
    "city_kana": "イビグンイケダチョウ",
    "town": "沓井",
    "town_kana": "クツイ",
    "street": null,
    "office_name": null,
    "office_name_kana": null
  },
  "2402": {
    "postcode": "5032402",
    "prefecture": "岐阜県",
    "prefecture_kana": "ギフケン",
    "prefecture_code": 21,
    "city": "揖斐郡池田町",
    "city_kana": "イビグンイケダチョウ",
    "town": "粕ケ原",
    "town_kana": "カスガハラ",
    "street": null,
    "office_name": null,
    "office_name_kana": null
  },
  "2403": {
    "postcode": "5032403",
    "prefecture": "岐阜県",
    "prefecture_kana": "ギフケン",
    "prefecture_code": 21,
    "city": "揖斐郡池田町",
    "city_kana": "イビグンイケダチョウ",
    "town": "田中",
    "town_kana": "タナカ",
    "street": null,
    "office_name": null,
    "office_name_kana": null
  },
  "2404": {
    "postcode": "5032404",
    "prefecture": "岐阜県",
    "prefecture_kana": "ギフケン",
    "prefecture_code": 21,
    "city": "揖斐郡池田町",
    "city_kana": "イビグンイケダチョウ",
    "town": "小牛",
    "town_kana": "コウジ",
    "street": null,
    "office_name": null,
    "office_name_kana": null
  },
  "2405": {
    "postcode": "5032405",
    "prefecture": "岐阜県",
    "prefecture_kana": "ギフケン",
    "prefecture_code": 21,
    "city": "揖斐郡池田町",
    "city_kana": "イビグンイケダチョウ",
    "town": "願成寺",
    "town_kana": "ガンジョウジ",
    "street": null,
    "office_name": null,
    "office_name_kana": null
  },
  "2406": {
    "postcode": "5032406",
    "prefecture": "岐阜県",
    "prefecture_kana": "ギフケン",
    "prefecture_code": 21,
    "city": "揖斐郡池田町",
    "city_kana": "イビグンイケダチョウ",
    "town": "宮地",
    "town_kana": "ミヤジ",
    "street": null,
    "office_name": null,
    "office_name_kana": null
  },
  "2407": {
    "postcode": "5032407",
    "prefecture": "岐阜県",
    "prefecture_kana": "ギフケン",
    "prefecture_code": 21,
    "city": "揖斐郡池田町",
    "city_kana": "イビグンイケダチョウ",
    "town": "般若畑",
    "town_kana": "ハンニャバタ",
    "street": null,
    "office_name": null,
    "office_name_kana": null
  },
  "2408": {
    "postcode": "5032408",
    "prefecture": "岐阜県",
    "prefecture_kana": "ギフケン",
    "prefecture_code": 21,
    "city": "揖斐郡池田町",
    "city_kana": "イビグンイケダチョウ",
    "town": "段",
    "town_kana": "ダン",
    "street": null,
    "office_name": null,
    "office_name_kana": null
  },
  "2409": {
    "postcode": "5032409",
    "prefecture": "岐阜県",
    "prefecture_kana": "ギフケン",
    "prefecture_code": 21,
    "city": "揖斐郡池田町",
    "city_kana": "イビグンイケダチョウ",
    "town": "舟子",
    "town_kana": "フナゴ",
    "street": null,
    "office_name": null,
    "office_name_kana": null
  },
  "2411": {
    "postcode": "5032411",
    "prefecture": "岐阜県",
    "prefecture_kana": "ギフケン",
    "prefecture_code": 21,
    "city": "揖斐郡池田町",
    "city_kana": "イビグンイケダチョウ",
    "town": "杉野",
    "town_kana": "スギノ",
    "street": null,
    "office_name": null,
    "office_name_kana": null
  },
  "2412": {
    "postcode": "5032412",
    "prefecture": "岐阜県",
    "prefecture_kana": "ギフケン",
    "prefecture_code": 21,
    "city": "揖斐郡池田町",
    "city_kana": "イビグンイケダチョウ",
    "town": "砂畑",
    "town_kana": "スナバタ",
    "street": null,
    "office_name": null,
    "office_name_kana": null
  },
  "2413": {
    "postcode": "5032413",
    "prefecture": "岐阜県",
    "prefecture_kana": "ギフケン",
    "prefecture_code": 21,
    "city": "揖斐郡池田町",
    "city_kana": "イビグンイケダチョウ",
    "town": "白鳥",
    "town_kana": "シロトリ",
    "street": null,
    "office_name": null,
    "office_name_kana": null
  },
  "2414": {
    "postcode": "5032414",
    "prefecture": "岐阜県",
    "prefecture_kana": "ギフケン",
    "prefecture_code": 21,
    "city": "揖斐郡池田町",
    "city_kana": "イビグンイケダチョウ",
    "town": "下東野",
    "town_kana": "シモヒガシノ",
    "street": null,
    "office_name": null,
    "office_name_kana": null
  },
  "2415": {
    "postcode": "5032415",
    "prefecture": "岐阜県",
    "prefecture_kana": "ギフケン",
    "prefecture_code": 21,
    "city": "揖斐郡池田町",
    "city_kana": "イビグンイケダチョウ",
    "town": "上田",
    "town_kana": "ウエダ",
    "street": null,
    "office_name": null,
    "office_name_kana": null
  },
  "2416": {
    "postcode": "5032416",
    "prefecture": "岐阜県",
    "prefecture_kana": "ギフケン",
    "prefecture_code": 21,
    "city": "揖斐郡池田町",
    "city_kana": "イビグンイケダチョウ",
    "town": "萩原",
    "town_kana": "ハギワラ",
    "street": null,
    "office_name": null,
    "office_name_kana": null
  },
  "2417": {
    "postcode": "5032417",
    "prefecture": "岐阜県",
    "prefecture_kana": "ギフケン",
    "prefecture_code": 21,
    "city": "揖斐郡池田町",
    "city_kana": "イビグンイケダチョウ",
    "town": "本郷",
    "town_kana": "ホンゴウ",
    "street": null,
    "office_name": null,
    "office_name_kana": null
  },
  "2418": {
    "postcode": "5032418",
    "prefecture": "岐阜県",
    "prefecture_kana": "ギフケン",
    "prefecture_code": 21,
    "city": "揖斐郡池田町",
    "city_kana": "イビグンイケダチョウ",
    "town": "草深",
    "town_kana": "クサブカ",
    "street": null,
    "office_name": null,
    "office_name_kana": null
  },
  "2419": {
    "postcode": "5032419",
    "prefecture": "岐阜県",
    "prefecture_kana": "ギフケン",
    "prefecture_code": 21,
    "city": "揖斐郡池田町",
    "city_kana": "イビグンイケダチョウ",
    "town": "小寺",
    "town_kana": "コデラ",
    "street": null,
    "office_name": null,
    "office_name_kana": null
  },
  "2421": {
    "postcode": "5032421",
    "prefecture": "岐阜県",
    "prefecture_kana": "ギフケン",
    "prefecture_code": 21,
    "city": "揖斐郡池田町",
    "city_kana": "イビグンイケダチョウ",
    "town": "山洞",
    "town_kana": "ヤマホラ",
    "street": null,
    "office_name": null,
    "office_name_kana": null
  },
  "2422": {
    "postcode": "5032422",
    "prefecture": "岐阜県",
    "prefecture_kana": "ギフケン",
    "prefecture_code": 21,
    "city": "揖斐郡池田町",
    "city_kana": "イビグンイケダチョウ",
    "town": "田畑",
    "town_kana": "タバタ",
    "street": null,
    "office_name": null,
    "office_name_kana": null
  },
  "2423": {
    "postcode": "5032423",
    "prefecture": "岐阜県",
    "prefecture_kana": "ギフケン",
    "prefecture_code": 21,
    "city": "揖斐郡池田町",
    "city_kana": "イビグンイケダチョウ",
    "town": "青柳",
    "town_kana": "アオヤナギ",
    "street": null,
    "office_name": null,
    "office_name_kana": null
  },
  "2424": {
    "postcode": "5032424",
    "prefecture": "岐阜県",
    "prefecture_kana": "ギフケン",
    "prefecture_code": 21,
    "city": "揖斐郡池田町",
    "city_kana": "イビグンイケダチョウ",
    "town": "池野",
    "town_kana": "イケノ",
    "street": null,
    "office_name": null,
    "office_name_kana": null
  },
  "2425": {
    "postcode": "5032425",
    "prefecture": "岐阜県",
    "prefecture_kana": "ギフケン",
    "prefecture_code": 21,
    "city": "揖斐郡池田町",
    "city_kana": "イビグンイケダチョウ",
    "town": "六之井",
    "town_kana": "ロクノイ",
    "street": null,
    "office_name": null,
    "office_name_kana": null
  },
  "2426": {
    "postcode": "5032426",
    "prefecture": "岐阜県",
    "prefecture_kana": "ギフケン",
    "prefecture_code": 21,
    "city": "揖斐郡池田町",
    "city_kana": "イビグンイケダチョウ",
    "town": "八幡",
    "town_kana": "ヤワタ",
    "street": null,
    "office_name": null,
    "office_name_kana": null
  },
  "2427": {
    "postcode": "5032427",
    "prefecture": "岐阜県",
    "prefecture_kana": "ギフケン",
    "prefecture_code": 21,
    "city": "揖斐郡池田町",
    "city_kana": "イビグンイケダチョウ",
    "town": "市橋",
    "town_kana": "イチハシ",
    "street": null,
    "office_name": null,
    "office_name_kana": null
  },
  "2428": {
    "postcode": "5032428",
    "prefecture": "岐阜県",
    "prefecture_kana": "ギフケン",
    "prefecture_code": 21,
    "city": "揖斐郡池田町",
    "city_kana": "イビグンイケダチョウ",
    "town": "片山",
    "town_kana": "カタヤマ",
    "street": null,
    "office_name": null,
    "office_name_kana": null
  },
  "2429": {
    "postcode": "5032429",
    "prefecture": "岐阜県",
    "prefecture_kana": "ギフケン",
    "prefecture_code": 21,
    "city": "揖斐郡池田町",
    "city_kana": "イビグンイケダチョウ",
    "town": "藤代",
    "town_kana": "フジシロ",
    "street": null,
    "office_name": null,
    "office_name_kana": null
  },
  "2492": {
    "postcode": "5032492",
    "prefecture": "岐阜県",
    "prefecture_kana": "ギフケン",
    "prefecture_code": 21,
    "city": "揖斐郡池田町",
    "city_kana": "イビグンイケダチョウ",
    "town": "六之井",
    "town_kana": "ロクノイ",
    "street": "１４６８−１",
    "office_name": "池田町役場",
    "office_name_kana": "イケダチヨウヤクバ"
  },
  "2493": {
    "postcode": "5032493",
    "prefecture": "岐阜県",
    "prefecture_kana": "ギフケン",
    "prefecture_code": 21,
    "city": "揖斐郡池田町",
    "city_kana": "イビグンイケダチョウ",
    "town": "片山",
    "town_kana": "カタヤマ",
    "street": "２０００",
    "office_name": "平和教会",
    "office_name_kana": "ヘイワキヨウカイ"
  },
  "2494": {
    "postcode": "5032494",
    "prefecture": "岐阜県",
    "prefecture_kana": "ギフケン",
    "prefecture_code": 21,
    "city": "揖斐郡池田町",
    "city_kana": "イビグンイケダチョウ",
    "town": "片山",
    "town_kana": "カタヤマ",
    "street": "２９５７−１",
    "office_name": "タニサケ　（株）",
    "office_name_kana": "タニサケ (カブ)"
  },
  "2495": {
    "postcode": "5032495",
    "prefecture": "岐阜県",
    "prefecture_kana": "ギフケン",
    "prefecture_code": 21,
    "city": "揖斐郡池田町",
    "city_kana": "イビグンイケダチョウ",
    "town": "六之井",
    "town_kana": "ロクノイ",
    "street": "下向２４２−１",
    "office_name": "岐阜県立　池田高等学校",
    "office_name_kana": "ギフケンリツ イケダコウトウガツコウ"
  },
  "2501": {
    "postcode": "5032501",
    "prefecture": "岐阜県",
    "prefecture_kana": "ギフケン",
    "prefecture_code": 21,
    "city": "揖斐郡揖斐川町",
    "city_kana": "イビグンイビガワチョウ",
    "town": "春日美束",
    "town_kana": "カスガミツカ",
    "street": null,
    "office_name": null,
    "office_name_kana": null
  },
  "2502": {
    "postcode": "5032502",
    "prefecture": "岐阜県",
    "prefecture_kana": "ギフケン",
    "prefecture_code": 21,
    "city": "揖斐郡揖斐川町",
    "city_kana": "イビグンイビガワチョウ",
    "town": "春日六合",
    "town_kana": "カスガロクゴウ",
    "street": null,
    "office_name": null,
    "office_name_kana": null
  },
  "2503": {
    "postcode": "5032503",
    "prefecture": "岐阜県",
    "prefecture_kana": "ギフケン",
    "prefecture_code": 21,
    "city": "揖斐郡揖斐川町",
    "city_kana": "イビグンイビガワチョウ",
    "town": "春日川合",
    "town_kana": "カスガカワイ",
    "street": null,
    "office_name": null,
    "office_name_kana": null
  },
  "2504": {
    "postcode": "5032504",
    "prefecture": "岐阜県",
    "prefecture_kana": "ギフケン",
    "prefecture_code": 21,
    "city": "揖斐郡揖斐川町",
    "city_kana": "イビグンイビガワチョウ",
    "town": "春日中山",
    "town_kana": "カスガナカヤマ",
    "street": null,
    "office_name": null,
    "office_name_kana": null
  },
  "2505": {
    "postcode": "5032505",
    "prefecture": "岐阜県",
    "prefecture_kana": "ギフケン",
    "prefecture_code": 21,
    "city": "揖斐郡揖斐川町",
    "city_kana": "イビグンイビガワチョウ",
    "town": "春日小宮神",
    "town_kana": "カスガコミヤカミ",
    "street": null,
    "office_name": null,
    "office_name_kana": null
  },
  "2506": {
    "postcode": "5032506",
    "prefecture": "岐阜県",
    "prefecture_kana": "ギフケン",
    "prefecture_code": 21,
    "city": "揖斐郡揖斐川町",
    "city_kana": "イビグンイビガワチョウ",
    "town": "春日香六",
    "town_kana": "カスガコウロク",
    "street": null,
    "office_name": null,
    "office_name_kana": null
  },
  "8501": {
    "postcode": "5038501",
    "prefecture": "岐阜県",
    "prefecture_kana": "ギフケン",
    "prefecture_code": 21,
    "city": "大垣市",
    "city_kana": "オオガキシ",
    "town": "田口町",
    "town_kana": "タグチチョウ",
    "street": "１",
    "office_name": "西濃運輸　株式会社",
    "office_name_kana": "セイノウウンユ カブシキガイシヤ"
  },
  "8502": {
    "postcode": "5038502",
    "prefecture": "岐阜県",
    "prefecture_kana": "ギフケン",
    "prefecture_code": 21,
    "city": "大垣市",
    "city_kana": "オオガキシ",
    "town": "南頬町",
    "town_kana": "ミナミノカワチョウ",
    "street": "４丁目８６",
    "office_name": "大垣市民病院",
    "office_name_kana": "オオガキシミンビヨウイン"
  },
  "8503": {
    "postcode": "5038503",
    "prefecture": "岐阜県",
    "prefecture_kana": "ギフケン",
    "prefecture_code": 21,
    "city": "大垣市",
    "city_kana": "オオガキシ",
    "town": "青柳町",
    "town_kana": "アオヤナギチョウ",
    "street": "３００",
    "office_name": "イビデン　株式会社",
    "office_name_kana": "イビデン カブシキガイシヤ"
  },
  "8504": {
    "postcode": "5038504",
    "prefecture": "岐阜県",
    "prefecture_kana": "ギフケン",
    "prefecture_code": 21,
    "city": "大垣市",
    "city_kana": "オオガキシ",
    "town": "神田町",
    "town_kana": "カンダチョウ",
    "street": "２丁目３５",
    "office_name": "日本合成",
    "office_name_kana": "ニツポンゴウセイ"
  },
  "8505": {
    "postcode": "5038505",
    "prefecture": "岐阜県",
    "prefecture_kana": "ギフケン",
    "prefecture_code": 21,
    "city": "大垣市",
    "city_kana": "オオガキシ",
    "town": "本今町",
    "town_kana": "モトイマチョウ",
    "street": "１６８２−２",
    "office_name": "神鋼造機",
    "office_name_kana": "シンコウゾウキ"
  },
  "8506": {
    "postcode": "5038506",
    "prefecture": "岐阜県",
    "prefecture_kana": "ギフケン",
    "prefecture_code": 21,
    "city": "大垣市",
    "city_kana": "オオガキシ",
    "town": "中曽根町",
    "town_kana": "ナカゾネチョウ",
    "street": "６１０",
    "office_name": "日本耐酸壜工業　株式会社",
    "office_name_kana": "ニホンタイサンビンコウギヨウ カブシキガイシヤ"
  },
  "8507": {
    "postcode": "5038507",
    "prefecture": "岐阜県",
    "prefecture_kana": "ギフケン",
    "prefecture_code": 21,
    "city": "大垣市",
    "city_kana": "オオガキシ",
    "town": "美和町",
    "town_kana": "ミワチョウ",
    "street": "１６８８",
    "office_name": "大垣扶桑紡績　株式会社",
    "office_name_kana": "オオガキフソウボウセキ カブシキガイシヤ"
  },
  "8508": {
    "postcode": "5038508",
    "prefecture": "岐阜県",
    "prefecture_kana": "ギフケン",
    "prefecture_code": 21,
    "city": "大垣市",
    "city_kana": "オオガキシ",
    "town": "築捨町",
    "town_kana": "ツキズテチョウ",
    "street": "５丁目７７",
    "office_name": "株式会社　デリカスイト",
    "office_name_kana": "カ)デリカスイト"
  },
  "8509": {
    "postcode": "5038509",
    "prefecture": "岐阜県",
    "prefecture_kana": "ギフケン",
    "prefecture_code": 21,
    "city": "大垣市",
    "city_kana": "オオガキシ",
    "town": "田口町",
    "town_kana": "タグチチョウ",
    "street": "１",
    "office_name": "株式会社　セイノー商事",
    "office_name_kana": "カブシキガイシヤ セイノ-シヨウジ"
  },
  "8511": {
    "postcode": "5038511",
    "prefecture": "岐阜県",
    "prefecture_kana": "ギフケン",
    "prefecture_code": 21,
    "city": "大垣市",
    "city_kana": "オオガキシ",
    "town": "上屋",
    "town_kana": "カミヤ",
    "street": "２丁目８０",
    "office_name": "日本合成化学工業（株）大垣事業所大垣フイルム工場",
    "office_name_kana": "ニホンゴウセイカガクコウギヨウ カブシキガイシヤ オオガキジギヨウシヨ オオガキフイルムコウジヨウ"
  },
  "8512": {
    "postcode": "5038512",
    "prefecture": "岐阜県",
    "prefecture_kana": "ギフケン",
    "prefecture_code": 21,
    "city": "大垣市",
    "city_kana": "オオガキシ",
    "town": "田口町",
    "town_kana": "タグチチョウ",
    "street": "１",
    "office_name": "セイノー情報サービス",
    "office_name_kana": "セイノ-ジヨウホウサ-ビス"
  },
  "8513": {
    "postcode": "5038513",
    "prefecture": "岐阜県",
    "prefecture_kana": "ギフケン",
    "prefecture_code": 21,
    "city": "大垣市",
    "city_kana": "オオガキシ",
    "town": "神田町",
    "town_kana": "カンダチョウ",
    "street": "１丁目２５",
    "office_name": "大垣機工",
    "office_name_kana": "オオガキキコウ"
  },
  "8514": {
    "postcode": "5038514",
    "prefecture": "岐阜県",
    "prefecture_kana": "ギフケン",
    "prefecture_code": 21,
    "city": "大垣市",
    "city_kana": "オオガキシ",
    "town": "河間町",
    "town_kana": "ガマチョウ",
    "street": "１丁目６５番地",
    "office_name": "株式会社　川口屋スーパーチェン",
    "office_name_kana": "カブシキガイシヤ カワグチヤス-パ-チエン"
  },
  "8515": {
    "postcode": "5038515",
    "prefecture": "岐阜県",
    "prefecture_kana": "ギフケン",
    "prefecture_code": 21,
    "city": "大垣市",
    "city_kana": "オオガキシ",
    "town": "本今",
    "town_kana": "モトイマ",
    "street": "５丁目１４１",
    "office_name": "大丸松下食品　株式会社",
    "office_name_kana": "ダイマルマツシタシヨクヒン カブシキガイシヤ"
  },
  "8516": {
    "postcode": "5038516",
    "prefecture": "岐阜県",
    "prefecture_kana": "ギフケン",
    "prefecture_code": 21,
    "city": "大垣市",
    "city_kana": "オオガキシ",
    "town": "浅草",
    "town_kana": "アサクサ",
    "street": "１丁目２８０",
    "office_name": "株式会社　宇佐美組",
    "office_name_kana": "カブシキガイシヤ ウサミグミ"
  },
  "8517": {
    "postcode": "5038517",
    "prefecture": "岐阜県",
    "prefecture_kana": "ギフケン",
    "prefecture_code": 21,
    "city": "大垣市",
    "city_kana": "オオガキシ",
    "town": "浅草",
    "town_kana": "アサクサ",
    "street": "２丁目６６",
    "office_name": "大光",
    "office_name_kana": "オオミツ"
  },
  "8518": {
    "postcode": "5038518",
    "prefecture": "岐阜県",
    "prefecture_kana": "ギフケン",
    "prefecture_code": 21,
    "city": "大垣市",
    "city_kana": "オオガキシ",
    "town": "久瀬川町",
    "town_kana": "クゼガワチョウ",
    "street": "７丁目５−１",
    "office_name": "サンメッセ　株式会社",
    "office_name_kana": "サンメツセ カブシキガイシヤ"
  },
  "8519": {
    "postcode": "5038519",
    "prefecture": "岐阜県",
    "prefecture_kana": "ギフケン",
    "prefecture_code": 21,
    "city": "大垣市",
    "city_kana": "オオガキシ",
    "town": "久瀬川町",
    "town_kana": "クゼガワチョウ",
    "street": "７丁目５−８",
    "office_name": "太平洋精工",
    "office_name_kana": "タイヘイヨウセイコウ"
  },
  "8520": {
    "postcode": "5038520",
    "prefecture": "岐阜県",
    "prefecture_kana": "ギフケン",
    "prefecture_code": 21,
    "city": "大垣市",
    "city_kana": "オオガキシ",
    "town": "中曽根町",
    "town_kana": "ナカゾネチョウ",
    "street": "１４７−１",
    "office_name": "大垣西高等学校",
    "office_name_kana": "オオガキニシコウトウガツコウ"
  },
  "8521": {
    "postcode": "5038521",
    "prefecture": "岐阜県",
    "prefecture_kana": "ギフケン",
    "prefecture_code": 21,
    "city": "大垣市",
    "city_kana": "オオガキシ",
    "town": "南若森町",
    "town_kana": "ミナミワカモリチョウ",
    "street": "３０１−１",
    "office_name": "大垣工業高等学校",
    "office_name_kana": "オオガキコウギヨウコウトウガツコウ"
  },
  "8522": {
    "postcode": "5038522",
    "prefecture": "岐阜県",
    "prefecture_kana": "ギフケン",
    "prefecture_code": 21,
    "city": "大垣市",
    "city_kana": "オオガキシ",
    "town": "浅中",
    "town_kana": "アサナカ",
    "street": "２丁目６９",
    "office_name": "大垣南高等学校",
    "office_name_kana": "オオガキミナミコウトウガツコウ"
  },
  "8523": {
    "postcode": "5038523",
    "prefecture": "岐阜県",
    "prefecture_kana": "ギフケン",
    "prefecture_code": 21,
    "city": "大垣市",
    "city_kana": "オオガキシ",
    "town": "鶴見町",
    "town_kana": "ツルミチョウ",
    "street": "字上渡瀬６４１番地の２",
    "office_name": "（株）　平和堂東海　鶴見店",
    "office_name_kana": "(カブ) ヘイワドウトウカイ ツルミテン"
  },
  "8550": {
    "postcode": "5038550",
    "prefecture": "岐阜県",
    "prefecture_kana": "ギフケン",
    "prefecture_code": 21,
    "city": "大垣市",
    "city_kana": "オオガキシ",
    "town": "北方町",
    "town_kana": "キタガタチョウ",
    "street": "５丁目５０",
    "office_name": "岐阜経済大学",
    "office_name_kana": "ギフケイザイダイガク"
  },
  "8552": {
    "postcode": "5038552",
    "prefecture": "岐阜県",
    "prefecture_kana": "ギフケン",
    "prefecture_code": 21,
    "city": "大垣市",
    "city_kana": "オオガキシ",
    "town": "万石",
    "town_kana": "マンゴク",
    "street": "２丁目３１",
    "office_name": "揖斐川工業　株式会社",
    "office_name_kana": "イビガワコウギヨウ カブシキガイシヤ"
  },
  "8553": {
    "postcode": "5038553",
    "prefecture": "岐阜県",
    "prefecture_kana": "ギフケン",
    "prefecture_code": 21,
    "city": "大垣市",
    "city_kana": "オオガキシ",
    "town": "寿町",
    "town_kana": "コトブキチョウ",
    "street": "１番地の１",
    "office_name": "ＪＡ全農ミートフーズ　株式会社　中部営業本部　吉田ハム支店",
    "office_name_kana": "ジエイエイゼンノウミ-トフ-ズ カブシキガイシヤ チユウブエイギヨウホンブ ヨシダハムシテン"
  },
  "8554": {
    "postcode": "5038554",
    "prefecture": "岐阜県",
    "prefecture_kana": "ギフケン",
    "prefecture_code": 21,
    "city": "大垣市",
    "city_kana": "オオガキシ",
    "town": "西之川町",
    "town_kana": "ニシノカワチョウ",
    "street": "１丁目１０９",
    "office_name": "大垣女子短期大学",
    "office_name_kana": "オオガキジヨシタンキダイガク"
  },
  "8556": {
    "postcode": "5038556",
    "prefecture": "岐阜県",
    "prefecture_kana": "ギフケン",
    "prefecture_code": 21,
    "city": "大垣市",
    "city_kana": "オオガキシ",
    "town": "丸の内",
    "town_kana": "マルノウチ",
    "street": "２丁目３０",
    "office_name": "大垣税務署",
    "office_name_kana": "オオガキゼイムシヨ"
  },
  "8557": {
    "postcode": "5038557",
    "prefecture": "岐阜県",
    "prefecture_kana": "ギフケン",
    "prefecture_code": 21,
    "city": "大垣市",
    "city_kana": "オオガキシ",
    "town": "三塚町",
    "town_kana": "ミツヅカチョウ",
    "street": "３３６",
    "office_name": "日電精密工業　株式会社",
    "office_name_kana": "ニチデンセイミツコウギヨウ カブシキガイシヤ"
  },
  "8558": {
    "postcode": "5038558",
    "prefecture": "岐阜県",
    "prefecture_kana": "ギフケン",
    "prefecture_code": 21,
    "city": "大垣市",
    "city_kana": "オオガキシ",
    "town": "高屋町",
    "town_kana": "タカヤチョウ",
    "street": "１丁目５６",
    "office_name": "ヤナゲン",
    "office_name_kana": "ヤナゲン"
  },
  "8559": {
    "postcode": "5038559",
    "prefecture": "岐阜県",
    "prefecture_kana": "ギフケン",
    "prefecture_code": 21,
    "city": "大垣市",
    "city_kana": "オオガキシ",
    "town": "河間町",
    "town_kana": "ガマチョウ",
    "street": "３丁目２００",
    "office_name": "イビデン　株式会社　河間工場",
    "office_name_kana": "イビデン カブシキガイシヤ カワマコウジヨウ"
  },
  "8560": {
    "postcode": "5038560",
    "prefecture": "岐阜県",
    "prefecture_kana": "ギフケン",
    "prefecture_code": 21,
    "city": "大垣市",
    "city_kana": "オオガキシ",
    "town": "河間町",
    "town_kana": "ガマチョウ",
    "street": "３丁目５５",
    "office_name": "イビデングリーンテック　株式会社",
    "office_name_kana": "イビデングリ-ンテツク カブシキガイシヤ"
  },
  "8561": {
    "postcode": "5038561",
    "prefecture": "岐阜県",
    "prefecture_kana": "ギフケン",
    "prefecture_code": 21,
    "city": "大垣市",
    "city_kana": "オオガキシ",
    "town": "河間町",
    "town_kana": "ガマチョウ",
    "street": "１丁目６０番地",
    "office_name": "イビケン　株式会社",
    "office_name_kana": "イビケン カブシキガイシヤ"
  },
  "8562": {
    "postcode": "5038562",
    "prefecture": "岐阜県",
    "prefecture_kana": "ギフケン",
    "prefecture_code": 21,
    "city": "大垣市",
    "city_kana": "オオガキシ",
    "town": "荒尾町",
    "town_kana": "アラオチョウ",
    "street": "１１２２",
    "office_name": "株式会社　大垣村田製作所",
    "office_name_kana": "カブシキガイシヤ オオガキムラタセイサクシヨ"
  },
  "8564": {
    "postcode": "5038564",
    "prefecture": "岐阜県",
    "prefecture_kana": "ギフケン",
    "prefecture_code": 21,
    "city": "大垣市",
    "city_kana": "オオガキシ",
    "town": "林町",
    "town_kana": "ハヤシマチ",
    "street": "６丁目８０",
    "office_name": "オーミケンシ　株式会社　大垣工場",
    "office_name_kana": "オ-ミケンシ カブシキガイシヤ オオガキコウジヨウ"
  },
  "8565": {
    "postcode": "5038565",
    "prefecture": "岐阜県",
    "prefecture_kana": "ギフケン",
    "prefecture_code": 21,
    "city": "大垣市",
    "city_kana": "オオガキシ",
    "town": "小野",
    "town_kana": "コノ",
    "street": "４丁目３５番地の１０",
    "office_name": "大垣商工会議所",
    "office_name_kana": "オオガキシヨウコウカイギシヨ"
  },
  "8566": {
    "postcode": "5038566",
    "prefecture": "岐阜県",
    "prefecture_kana": "ギフケン",
    "prefecture_code": 21,
    "city": "大垣市",
    "city_kana": "オオガキシ",
    "town": "丸の内",
    "town_kana": "マルノウチ",
    "street": "１丁目１８",
    "office_name": "ＮＴＴ　大垣営業所",
    "office_name_kana": "エヌテイ-テイ- オオガキエイギヨウシヨ"
  },
  "8567": {
    "postcode": "5038567",
    "prefecture": "岐阜県",
    "prefecture_kana": "ギフケン",
    "prefecture_code": 21,
    "city": "大垣市",
    "city_kana": "オオガキシ",
    "town": "室本町",
    "town_kana": "ムロホンマチ",
    "street": "５丁目５１",
    "office_name": "スイトピアセンター",
    "office_name_kana": "スイトピアセンタ-"
  },
  "8568": {
    "postcode": "5038568",
    "prefecture": "岐阜県",
    "prefecture_kana": "ギフケン",
    "prefecture_code": 21,
    "city": "大垣市",
    "city_kana": "オオガキシ",
    "town": "高屋町",
    "town_kana": "タカヤチョウ",
    "street": "１丁目１４５",
    "office_name": "大垣ステーションビル　アピオ",
    "office_name_kana": "オオガキステ-シヨンビル アピオ"
  },
  "8569": {
    "postcode": "5038569",
    "prefecture": "岐阜県",
    "prefecture_kana": "ギフケン",
    "prefecture_code": 21,
    "city": "大垣市",
    "city_kana": "オオガキシ",
    "town": "加賀野",
    "town_kana": "カガノ",
    "street": "４丁目１番地の７",
    "office_name": "公益財団法人　ソフトピアジャパン",
    "office_name_kana": "コウエキザイダンホウジン ソフトピアジヤパン"
  },
  "8570": {
    "postcode": "5038570",
    "prefecture": "岐阜県",
    "prefecture_kana": "ギフケン",
    "prefecture_code": 21,
    "city": "大垣市",
    "city_kana": "オオガキシ",
    "town": "林町",
    "town_kana": "ハヤシマチ",
    "street": "６丁目８０番２１",
    "office_name": "ユニー　株式会社　アピタ大垣店",
    "office_name_kana": "ユニ- カブシキガイシヤ アピタオオガキテン"
  },
  "8571": {
    "postcode": "5038571",
    "prefecture": "岐阜県",
    "prefecture_kana": "ギフケン",
    "prefecture_code": 21,
    "city": "大垣市",
    "city_kana": "オオガキシ",
    "town": "林町",
    "town_kana": "ハヤシマチ",
    "street": "６丁目８０番２１",
    "office_name": "ユニー　株式会社　アクアウォーク大垣",
    "office_name_kana": "ユニ- カブシキガイシヤ アクアウオ-クオオガキ"
  },
  "8601": {
    "postcode": "5038601",
    "prefecture": "岐阜県",
    "prefecture_kana": "ギフケン",
    "prefecture_code": 21,
    "city": "大垣市",
    "city_kana": "オオガキシ",
    "town": "丸の内",
    "town_kana": "マルノウチ",
    "street": "２丁目２９",
    "office_name": "大垣市役所",
    "office_name_kana": "オオガキシヤクシヨ"
  },
  "8603": {
    "postcode": "5038603",
    "prefecture": "岐阜県",
    "prefecture_kana": "ギフケン",
    "prefecture_code": 21,
    "city": "大垣市",
    "city_kana": "オオガキシ",
    "town": "久徳町",
    "town_kana": "キュウトクチョウ",
    "street": "１００（大垣郵便局私書箱第２４号）",
    "office_name": "太平洋工業　株式会社",
    "office_name_kana": "タイヘイヨウコウギヨウ カブシキガイシヤ"
  },
  "8604": {
    "postcode": "5038604",
    "prefecture": "岐阜県",
    "prefecture_kana": "ギフケン",
    "prefecture_code": 21,
    "city": "大垣市",
    "city_kana": "オオガキシ",
    "town": "神田町",
    "town_kana": "カンダチョウ",
    "street": "２丁目１（大垣郵便局私書箱第５号）",
    "office_name": "イビデン　株式会社",
    "office_name_kana": "イビデン カブシキガイシヤ"
  }
}