{
  "0301": {
    "postcode": "5120301",
    "prefecture": "三重県",
    "prefecture_kana": "ミエケン",
    "prefecture_code": 24,
    "city": "四日市市",
    "city_kana": "ヨッカイチシ",
    "town": "水沢野田町",
    "town_kana": "スイザワノダチョウ",
    "street": null,
    "office_name": null,
    "office_name_kana": null
  },
  "0901": {
    "postcode": "5120901",
    "prefecture": "三重県",
    "prefecture_kana": "ミエケン",
    "prefecture_code": 24,
    "city": "四日市市",
    "city_kana": "ヨッカイチシ",
    "town": "大谷台",
    "town_kana": "オオタニダイ",
    "street": null,
    "office_name": null,
    "office_name_kana": null
  },
  "0902": {
    "postcode": "5120902",
    "prefecture": "三重県",
    "prefecture_kana": "ミエケン",
    "prefecture_code": 24,
    "city": "四日市市",
    "city_kana": "ヨッカイチシ",
    "town": "小杉町",
    "town_kana": "コスギチョウ",
    "street": null,
    "office_name": null,
    "office_name_kana": null
  },
  "0903": {
    "postcode": "5120903",
    "prefecture": "三重県",
    "prefecture_kana": "ミエケン",
    "prefecture_code": 24,
    "city": "四日市市",
    "city_kana": "ヨッカイチシ",
    "town": "小杉新町",
    "town_kana": "コスギシンマチ",
    "street": null,
    "office_name": null,
    "office_name_kana": null
  },
  "0904": {
    "postcode": "5120904",
    "prefecture": "三重県",
    "prefecture_kana": "ミエケン",
    "prefecture_code": 24,
    "city": "四日市市",
    "city_kana": "ヨッカイチシ",
    "town": "東坂部町",
    "town_kana": "ヒガシサカベチョウ",
    "street": null,
    "office_name": null,
    "office_name_kana": null
  },
  "0905": {
    "postcode": "5120905",
    "prefecture": "三重県",
    "prefecture_kana": "ミエケン",
    "prefecture_code": 24,
    "city": "四日市市",
    "city_kana": "ヨッカイチシ",
    "town": "坂部が丘",
    "town_kana": "サカベガオカ",
    "street": null,
    "office_name": null,
    "office_name_kana": null
  },
  "0906": {
    "postcode": "5120906",
    "prefecture": "三重県",
    "prefecture_kana": "ミエケン",
    "prefecture_code": 24,
    "city": "四日市市",
    "city_kana": "ヨッカイチシ",
    "town": "山之一色町",
    "town_kana": "ヤマノイッシキチョウ",
    "street": null,
    "office_name": null,
    "office_name_kana": null
  },
  "0907": {
    "postcode": "5120907",
    "prefecture": "三重県",
    "prefecture_kana": "ミエケン",
    "prefecture_code": 24,
    "city": "四日市市",
    "city_kana": "ヨッカイチシ",
    "town": "東ケ谷",
    "town_kana": "ヒガシガタニ",
    "street": null,
    "office_name": null,
    "office_name_kana": null
  },
  "0908": {
    "postcode": "5120908",
    "prefecture": "三重県",
    "prefecture_kana": "ミエケン",
    "prefecture_code": 24,
    "city": "四日市市",
    "city_kana": "ヨッカイチシ",
    "town": "坂部台",
    "town_kana": "サカベダイ",
    "street": null,
    "office_name": null,
    "office_name_kana": null
  },
  "0911": {
    "postcode": "5120911",
    "prefecture": "三重県",
    "prefecture_kana": "ミエケン",
    "prefecture_code": 24,
    "city": "四日市市",
    "city_kana": "ヨッカイチシ",
    "town": "生桑町",
    "town_kana": "イクワチョウ",
    "street": null,
    "office_name": null,
    "office_name_kana": null
  },
  "0912": {
    "postcode": "5120912",
    "prefecture": "三重県",
    "prefecture_kana": "ミエケン",
    "prefecture_code": 24,
    "city": "四日市市",
    "city_kana": "ヨッカイチシ",
    "town": "三重",
    "town_kana": "ミエ",
    "street": null,
    "office_name": null,
    "office_name_kana": null
  },
  "0913": {
    "postcode": "5120913",
    "prefecture": "三重県",
    "prefecture_kana": "ミエケン",
    "prefecture_code": 24,
    "city": "四日市市",
    "city_kana": "ヨッカイチシ",
    "town": "西坂部町",
    "town_kana": "ニシサカベチョウ",
    "street": null,
    "office_name": null,
    "office_name_kana": null
  },
  "0914": {
    "postcode": "5120914",
    "prefecture": "三重県",
    "prefecture_kana": "ミエケン",
    "prefecture_code": 24,
    "city": "四日市市",
    "city_kana": "ヨッカイチシ",
    "town": "南坂部町",
    "town_kana": "ミナミサカベチョウ",
    "street": null,
    "office_name": null,
    "office_name_kana": null
  },
  "0921": {
    "postcode": "5120921",
    "prefecture": "三重県",
    "prefecture_kana": "ミエケン",
    "prefecture_code": 24,
    "city": "四日市市",
    "city_kana": "ヨッカイチシ",
    "town": "尾平町",
    "town_kana": "オビラチョウ",
    "street": null,
    "office_name": null,
    "office_name_kana": null
  },
  "0922": {
    "postcode": "5120922",
    "prefecture": "三重県",
    "prefecture_kana": "ミエケン",
    "prefecture_code": 24,
    "city": "四日市市",
    "city_kana": "ヨッカイチシ",
    "town": "曽井町",
    "town_kana": "ソイチョウ",
    "street": null,
    "office_name": null,
    "office_name_kana": null
  },
  "0923": {
    "postcode": "5120923",
    "prefecture": "三重県",
    "prefecture_kana": "ミエケン",
    "prefecture_code": 24,
    "city": "四日市市",
    "city_kana": "ヨッカイチシ",
    "town": "高角町",
    "town_kana": "タカツノチョウ",
    "street": null,
    "office_name": null,
    "office_name_kana": null
  },
  "0924": {
    "postcode": "5120924",
    "prefecture": "三重県",
    "prefecture_kana": "ミエケン",
    "prefecture_code": 24,
    "city": "四日市市",
    "city_kana": "ヨッカイチシ",
    "town": "寺方町",
    "town_kana": "テラガタチョウ",
    "street": null,
    "office_name": null,
    "office_name_kana": null
  },
  "0925": {
    "postcode": "5120925",
    "prefecture": "三重県",
    "prefecture_kana": "ミエケン",
    "prefecture_code": 24,
    "city": "四日市市",
    "city_kana": "ヨッカイチシ",
    "town": "菅原町",
    "town_kana": "スガハラチョウ",
    "street": null,
    "office_name": null,
    "office_name_kana": null
  },
  "0931": {
    "postcode": "5120931",
    "prefecture": "三重県",
    "prefecture_kana": "ミエケン",
    "prefecture_code": 24,
    "city": "四日市市",
    "city_kana": "ヨッカイチシ",
    "town": "浮橋",
    "town_kana": "ウキハシ",
    "street": null,
    "office_name": null,
    "office_name_kana": null
  },
  "0932": {
    "postcode": "5120932",
    "prefecture": "三重県",
    "prefecture_kana": "ミエケン",
    "prefecture_code": 24,
    "city": "四日市市",
    "city_kana": "ヨッカイチシ",
    "town": "小生町",
    "town_kana": "コモチョウ",
    "street": null,
    "office_name": null,
    "office_name_kana": null
  },
  "0933": {
    "postcode": "5120933",
    "prefecture": "三重県",
    "prefecture_kana": "ミエケン",
    "prefecture_code": 24,
    "city": "四日市市",
    "city_kana": "ヨッカイチシ",
    "town": "三滝台",
    "town_kana": "ミタキダイ",
    "street": null,
    "office_name": null,
    "office_name_kana": null
  },
  "0934": {
    "postcode": "5120934",
    "prefecture": "三重県",
    "prefecture_kana": "ミエケン",
    "prefecture_code": 24,
    "city": "四日市市",
    "city_kana": "ヨッカイチシ",
    "town": "川島町",
    "town_kana": "カワシマチョウ",
    "street": null,
    "office_name": null,
    "office_name_kana": null
  },
  "0935": {
    "postcode": "5120935",
    "prefecture": "三重県",
    "prefecture_kana": "ミエケン",
    "prefecture_code": 24,
    "city": "四日市市",
    "city_kana": "ヨッカイチシ",
    "town": "川島新町",
    "town_kana": "カワシマシンマチ",
    "street": null,
    "office_name": null,
    "office_name_kana": null
  },
  "0936": {
    "postcode": "5120936",
    "prefecture": "三重県",
    "prefecture_kana": "ミエケン",
    "prefecture_code": 24,
    "city": "四日市市",
    "city_kana": "ヨッカイチシ",
    "town": "別山",
    "town_kana": "ベツヤマ",
    "street": null,
    "office_name": null,
    "office_name_kana": null
  },
  "1101": {
    "postcode": "5121101",
    "prefecture": "三重県",
    "prefecture_kana": "ミエケン",
    "prefecture_code": 24,
    "city": "四日市市",
    "city_kana": "ヨッカイチシ",
    "town": "内山町",
    "town_kana": "ウチヤマチョウ",
    "street": null,
    "office_name": null,
    "office_name_kana": null
  },
  "1102": {
    "postcode": "5121102",
    "prefecture": "三重県",
    "prefecture_kana": "ミエケン",
    "prefecture_code": 24,
    "city": "四日市市",
    "city_kana": "ヨッカイチシ",
    "town": "小山町",
    "town_kana": "オヤマチョウ",
    "street": null,
    "office_name": null,
    "office_name_kana": null
  },
  "1103": {
    "postcode": "5121103",
    "prefecture": "三重県",
    "prefecture_kana": "ミエケン",
    "prefecture_code": 24,
    "city": "四日市市",
    "city_kana": "ヨッカイチシ",
    "town": "西山町",
    "town_kana": "ニシヤマチョウ",
    "street": null,
    "office_name": null,
    "office_name_kana": null
  },
  "1104": {
    "postcode": "5121104",
    "prefecture": "三重県",
    "prefecture_kana": "ミエケン",
    "prefecture_code": 24,
    "city": "四日市市",
    "city_kana": "ヨッカイチシ",
    "town": "美里町",
    "town_kana": "ミサトチョウ",
    "street": null,
    "office_name": null,
    "office_name_kana": null
  },
  "1105": {
    "postcode": "5121105",
    "prefecture": "三重県",
    "prefecture_kana": "ミエケン",
    "prefecture_code": 24,
    "city": "四日市市",
    "city_kana": "ヨッカイチシ",
    "town": "水沢町",
    "town_kana": "スイザワチョウ",
    "street": null,
    "office_name": null,
    "office_name_kana": null
  },
  "1111": {
    "postcode": "5121111",
    "prefecture": "三重県",
    "prefecture_kana": "ミエケン",
    "prefecture_code": 24,
    "city": "四日市市",
    "city_kana": "ヨッカイチシ",
    "town": "山田町",
    "town_kana": "ヤマダチョウ",
    "street": null,
    "office_name": null,
    "office_name_kana": null
  },
  "1113": {
    "postcode": "5121113",
    "prefecture": "三重県",
    "prefecture_kana": "ミエケン",
    "prefecture_code": 24,
    "city": "四日市市",
    "city_kana": "ヨッカイチシ",
    "town": "鹿間町",
    "town_kana": "シカマチョウ",
    "street": null,
    "office_name": null,
    "office_name_kana": null
  },
  "1114": {
    "postcode": "5121114",
    "prefecture": "三重県",
    "prefecture_kana": "ミエケン",
    "prefecture_code": 24,
    "city": "四日市市",
    "city_kana": "ヨッカイチシ",
    "town": "和無田町",
    "town_kana": "ワンダチョウ",
    "street": null,
    "office_name": null,
    "office_name_kana": null
  },
  "1115": {
    "postcode": "5121115",
    "prefecture": "三重県",
    "prefecture_kana": "ミエケン",
    "prefecture_code": 24,
    "city": "四日市市",
    "city_kana": "ヨッカイチシ",
    "town": "堂ケ山町",
    "town_kana": "ドウガヤマチョウ",
    "street": null,
    "office_name": null,
    "office_name_kana": null
  },
  "1116": {
    "postcode": "5121116",
    "prefecture": "三重県",
    "prefecture_kana": "ミエケン",
    "prefecture_code": 24,
    "city": "四日市市",
    "city_kana": "ヨッカイチシ",
    "town": "六名町",
    "town_kana": "ロクミョウチョウ",
    "street": null,
    "office_name": null,
    "office_name_kana": null
  },
  "1201": {
    "postcode": "5121201",
    "prefecture": "三重県",
    "prefecture_kana": "ミエケン",
    "prefecture_code": 24,
    "city": "四日市市",
    "city_kana": "ヨッカイチシ",
    "town": "上海老町",
    "town_kana": "カミエビチョウ",
    "street": null,
    "office_name": null,
    "office_name_kana": null
  },
  "1202": {
    "postcode": "5121202",
    "prefecture": "三重県",
    "prefecture_kana": "ミエケン",
    "prefecture_code": 24,
    "city": "四日市市",
    "city_kana": "ヨッカイチシ",
    "town": "あがたが丘",
    "town_kana": "アガタガオカ",
    "street": null,
    "office_name": null,
    "office_name_kana": null
  },
  "1203": {
    "postcode": "5121203",
    "prefecture": "三重県",
    "prefecture_kana": "ミエケン",
    "prefecture_code": 24,
    "city": "四日市市",
    "city_kana": "ヨッカイチシ",
    "town": "下海老町",
    "town_kana": "シモエビチョウ",
    "street": null,
    "office_name": null,
    "office_name_kana": null
  },
  "1204": {
    "postcode": "5121204",
    "prefecture": "三重県",
    "prefecture_kana": "ミエケン",
    "prefecture_code": 24,
    "city": "四日市市",
    "city_kana": "ヨッカイチシ",
    "town": "赤水町",
    "town_kana": "アコズチョウ",
    "street": null,
    "office_name": null,
    "office_name_kana": null
  },
  "1205": {
    "postcode": "5121205",
    "prefecture": "三重県",
    "prefecture_kana": "ミエケン",
    "prefecture_code": 24,
    "city": "四日市市",
    "city_kana": "ヨッカイチシ",
    "town": "平尾町",
    "town_kana": "ヒラオチョウ",
    "street": null,
    "office_name": null,
    "office_name_kana": null
  },
  "1206": {
    "postcode": "5121206",
    "prefecture": "三重県",
    "prefecture_kana": "ミエケン",
    "prefecture_code": 24,
    "city": "四日市市",
    "city_kana": "ヨッカイチシ",
    "town": "江村町",
    "town_kana": "エムラチョウ",
    "street": null,
    "office_name": null,
    "office_name_kana": null
  },
  "1207": {
    "postcode": "5121207",
    "prefecture": "三重県",
    "prefecture_kana": "ミエケン",
    "prefecture_code": 24,
    "city": "四日市市",
    "city_kana": "ヨッカイチシ",
    "town": "黒田町",
    "town_kana": "クロダチョウ",
    "street": null,
    "office_name": null,
    "office_name_kana": null
  },
  "1208": {
    "postcode": "5121208",
    "prefecture": "三重県",
    "prefecture_kana": "ミエケン",
    "prefecture_code": 24,
    "city": "四日市市",
    "city_kana": "ヨッカイチシ",
    "town": "北野町",
    "town_kana": "キタノチョウ",
    "street": null,
    "office_name": null,
    "office_name_kana": null
  },
  "1211": {
    "postcode": "5121211",
    "prefecture": "三重県",
    "prefecture_kana": "ミエケン",
    "prefecture_code": 24,
    "city": "四日市市",
    "city_kana": "ヨッカイチシ",
    "town": "桜町",
    "town_kana": "サクラチョウ",
    "street": null,
    "office_name": null,
    "office_name_kana": null
  },
  "1212": {
    "postcode": "5121212",
    "prefecture": "三重県",
    "prefecture_kana": "ミエケン",
    "prefecture_code": 24,
    "city": "四日市市",
    "city_kana": "ヨッカイチシ",
    "town": "智積町",
    "town_kana": "チシャクチョウ",
    "street": null,
    "office_name": null,
    "office_name_kana": null
  },
  "1213": {
    "postcode": "5121213",
    "prefecture": "三重県",
    "prefecture_kana": "ミエケン",
    "prefecture_code": 24,
    "city": "四日市市",
    "city_kana": "ヨッカイチシ",
    "town": "桜台本町",
    "town_kana": "サクラダイホンマチ",
    "street": null,
    "office_name": null,
    "office_name_kana": null
  },
  "1214": {
    "postcode": "5121214",
    "prefecture": "三重県",
    "prefecture_kana": "ミエケン",
    "prefecture_code": 24,
    "city": "四日市市",
    "city_kana": "ヨッカイチシ",
    "town": "桜台",
    "town_kana": "サクラダイ",
    "street": null,
    "office_name": null,
    "office_name_kana": null
  },
  "1215": {
    "postcode": "5121215",
    "prefecture": "三重県",
    "prefecture_kana": "ミエケン",
    "prefecture_code": 24,
    "city": "四日市市",
    "city_kana": "ヨッカイチシ",
    "town": "桜新町",
    "town_kana": "サクラシンマチ",
    "street": null,
    "office_name": null,
    "office_name_kana": null
  },
  "1216": {
    "postcode": "5121216",
    "prefecture": "三重県",
    "prefecture_kana": "ミエケン",
    "prefecture_code": 24,
    "city": "四日市市",
    "city_kana": "ヨッカイチシ",
    "town": "桜花台",
    "town_kana": "オウカダイ",
    "street": null,
    "office_name": null,
    "office_name_kana": null
  },
  "1301": {
    "postcode": "5121301",
    "prefecture": "三重県",
    "prefecture_kana": "ミエケン",
    "prefecture_code": 24,
    "city": "四日市市",
    "city_kana": "ヨッカイチシ",
    "town": "高見台",
    "town_kana": "タカミダイ",
    "street": null,
    "office_name": null,
    "office_name_kana": null
  },
  "1302": {
    "postcode": "5121302",
    "prefecture": "三重県",
    "prefecture_kana": "ミエケン",
    "prefecture_code": 24,
    "city": "四日市市",
    "city_kana": "ヨッカイチシ",
    "town": "市場町",
    "town_kana": "イチバチョウ",
    "street": null,
    "office_name": null,
    "office_name_kana": null
  },
  "1303": {
    "postcode": "5121303",
    "prefecture": "三重県",
    "prefecture_kana": "ミエケン",
    "prefecture_code": 24,
    "city": "四日市市",
    "city_kana": "ヨッカイチシ",
    "town": "小牧町",
    "town_kana": "コマキチョウ",
    "street": null,
    "office_name": null,
    "office_name_kana": null
  },
  "1304": {
    "postcode": "5121304",
    "prefecture": "三重県",
    "prefecture_kana": "ミエケン",
    "prefecture_code": 24,
    "city": "四日市市",
    "city_kana": "ヨッカイチシ",
    "town": "中野町",
    "town_kana": "ナカノチョウ",
    "street": null,
    "office_name": null,
    "office_name_kana": null
  },
  "1305": {
    "postcode": "5121305",
    "prefecture": "三重県",
    "prefecture_kana": "ミエケン",
    "prefecture_code": 24,
    "city": "四日市市",
    "city_kana": "ヨッカイチシ",
    "town": "西村町",
    "town_kana": "ニシムラチョウ",
    "street": null,
    "office_name": null,
    "office_name_kana": null
  },
  "1306": {
    "postcode": "5121306",
    "prefecture": "三重県",
    "prefecture_kana": "ミエケン",
    "prefecture_code": 24,
    "city": "四日市市",
    "city_kana": "ヨッカイチシ",
    "town": "まきの木台",
    "town_kana": "マキノキダイ",
    "street": null,
    "office_name": null,
    "office_name_kana": null
  },
  "8041": {
    "postcode": "5128041",
    "prefecture": "三重県",
    "prefecture_kana": "ミエケン",
    "prefecture_code": 24,
    "city": "四日市市",
    "city_kana": "ヨッカイチシ",
    "town": "山分町",
    "town_kana": "ヤマケチョウ",
    "street": null,
    "office_name": null,
    "office_name_kana": null
  },
  "8042": {
    "postcode": "5128042",
    "prefecture": "三重県",
    "prefecture_kana": "ミエケン",
    "prefecture_code": 24,
    "city": "四日市市",
    "city_kana": "ヨッカイチシ",
    "town": "平津町",
    "town_kana": "ヘイヅチョウ",
    "street": null,
    "office_name": null,
    "office_name_kana": null
  },
  "8043": {
    "postcode": "5128043",
    "prefecture": "三重県",
    "prefecture_kana": "ミエケン",
    "prefecture_code": 24,
    "city": "四日市市",
    "city_kana": "ヨッカイチシ",
    "town": "平津新町",
    "town_kana": "ヘイヅシンマチ",
    "street": null,
    "office_name": null,
    "office_name_kana": null
  },
  "8044": {
    "postcode": "5128044",
    "prefecture": "三重県",
    "prefecture_kana": "ミエケン",
    "prefecture_code": 24,
    "city": "四日市市",
    "city_kana": "ヨッカイチシ",
    "town": "中村町",
    "town_kana": "ナカムラチョウ",
    "street": null,
    "office_name": null,
    "office_name_kana": null
  },
  "8045": {
    "postcode": "5128045",
    "prefecture": "三重県",
    "prefecture_kana": "ミエケン",
    "prefecture_code": 24,
    "city": "四日市市",
    "city_kana": "ヨッカイチシ",
    "town": "萱生町",
    "town_kana": "カヨウチョウ",
    "street": null,
    "office_name": null,
    "office_name_kana": null
  },
  "8046": {
    "postcode": "5128046",
    "prefecture": "三重県",
    "prefecture_kana": "ミエケン",
    "prefecture_code": 24,
    "city": "四日市市",
    "city_kana": "ヨッカイチシ",
    "town": "あかつき台",
    "town_kana": "アカツキダイ",
    "street": null,
    "office_name": null,
    "office_name_kana": null
  },
  "8047": {
    "postcode": "5128047",
    "prefecture": "三重県",
    "prefecture_kana": "ミエケン",
    "prefecture_code": 24,
    "city": "四日市市",
    "city_kana": "ヨッカイチシ",
    "town": "八千代台",
    "town_kana": "ヤチヨダイ",
    "street": null,
    "office_name": null,
    "office_name_kana": null
  },
  "8048": {
    "postcode": "5128048",
    "prefecture": "三重県",
    "prefecture_kana": "ミエケン",
    "prefecture_code": 24,
    "city": "四日市市",
    "city_kana": "ヨッカイチシ",
    "town": "山城町",
    "town_kana": "ヤマジョウチョウ",
    "street": null,
    "office_name": null,
    "office_name_kana": null
  },
  "8051": {
    "postcode": "5128051",
    "prefecture": "三重県",
    "prefecture_kana": "ミエケン",
    "prefecture_code": 24,
    "city": "四日市市",
    "city_kana": "ヨッカイチシ",
    "town": "北山町",
    "town_kana": "キタヤマチョウ",
    "street": null,
    "office_name": null,
    "office_name_kana": null
  },
  "8052": {
    "postcode": "5128052",
    "prefecture": "三重県",
    "prefecture_kana": "ミエケン",
    "prefecture_code": 24,
    "city": "四日市市",
    "city_kana": "ヨッカイチシ",
    "town": "西大鐘町",
    "town_kana": "ニシオオガネチョウ",
    "street": null,
    "office_name": null,
    "office_name_kana": null
  },
  "8053": {
    "postcode": "5128053",
    "prefecture": "三重県",
    "prefecture_kana": "ミエケン",
    "prefecture_code": 24,
    "city": "四日市市",
    "city_kana": "ヨッカイチシ",
    "town": "大鐘町",
    "town_kana": "オオガネチョウ",
    "street": null,
    "office_name": null,
    "office_name_kana": null
  },
  "8054": {
    "postcode": "5128054",
    "prefecture": "三重県",
    "prefecture_kana": "ミエケン",
    "prefecture_code": 24,
    "city": "四日市市",
    "city_kana": "ヨッカイチシ",
    "town": "朝明町",
    "town_kana": "アサケチョウ",
    "street": null,
    "office_name": null,
    "office_name_kana": null
  },
  "8055": {
    "postcode": "5128055",
    "prefecture": "三重県",
    "prefecture_kana": "ミエケン",
    "prefecture_code": 24,
    "city": "四日市市",
    "city_kana": "ヨッカイチシ",
    "town": "あさけが丘",
    "town_kana": "アサケガオカ",
    "street": null,
    "office_name": null,
    "office_name_kana": null
  },
  "8056": {
    "postcode": "5128056",
    "prefecture": "三重県",
    "prefecture_kana": "ミエケン",
    "prefecture_code": 24,
    "city": "四日市市",
    "city_kana": "ヨッカイチシ",
    "town": "札場町",
    "town_kana": "サツバチョウ",
    "street": null,
    "office_name": null,
    "office_name_kana": null
  },
  "8061": {
    "postcode": "5128061",
    "prefecture": "三重県",
    "prefecture_kana": "ミエケン",
    "prefecture_code": 24,
    "city": "四日市市",
    "city_kana": "ヨッカイチシ",
    "town": "広永町",
    "town_kana": "ヒロナガチョウ",
    "street": null,
    "office_name": null,
    "office_name_kana": null
  },
  "8062": {
    "postcode": "5128062",
    "prefecture": "三重県",
    "prefecture_kana": "ミエケン",
    "prefecture_code": 24,
    "city": "四日市市",
    "city_kana": "ヨッカイチシ",
    "town": "黄金町",
    "town_kana": "コガネチョウ",
    "street": null,
    "office_name": null,
    "office_name_kana": null
  },
  "8063": {
    "postcode": "5128063",
    "prefecture": "三重県",
    "prefecture_kana": "ミエケン",
    "prefecture_code": 24,
    "city": "四日市市",
    "city_kana": "ヨッカイチシ",
    "town": "山村町",
    "town_kana": "ヤマムラチョウ",
    "street": null,
    "office_name": null,
    "office_name_kana": null
  },
  "8064": {
    "postcode": "5128064",
    "prefecture": "三重県",
    "prefecture_kana": "ミエケン",
    "prefecture_code": 24,
    "city": "四日市市",
    "city_kana": "ヨッカイチシ",
    "town": "伊坂町",
    "town_kana": "イサカチョウ",
    "street": null,
    "office_name": null,
    "office_name_kana": null
  },
  "8065": {
    "postcode": "5128065",
    "prefecture": "三重県",
    "prefecture_kana": "ミエケン",
    "prefecture_code": 24,
    "city": "四日市市",
    "city_kana": "ヨッカイチシ",
    "town": "千代田町",
    "town_kana": "チヨダチョウ",
    "street": null,
    "office_name": null,
    "office_name_kana": null
  },
  "8066": {
    "postcode": "5128066",
    "prefecture": "三重県",
    "prefecture_kana": "ミエケン",
    "prefecture_code": 24,
    "city": "四日市市",
    "city_kana": "ヨッカイチシ",
    "town": "伊坂台",
    "town_kana": "イサカダイ",
    "street": null,
    "office_name": null,
    "office_name_kana": null
  },
  "8512": {
    "postcode": "5128512",
    "prefecture": "三重県",
    "prefecture_kana": "ミエケン",
    "prefecture_code": 24,
    "city": "四日市市",
    "city_kana": "ヨッカイチシ",
    "town": "萱生町",
    "town_kana": "カヨウチョウ",
    "street": "１２００番地",
    "office_name": "四日市大学",
    "office_name_kana": "ヨツカイチダイガク"
  },
  "8538": {
    "postcode": "5128538",
    "prefecture": "三重県",
    "prefecture_kana": "ミエケン",
    "prefecture_code": 24,
    "city": "四日市市",
    "city_kana": "ヨッカイチシ",
    "town": "萱生町",
    "town_kana": "カヨウチョウ",
    "street": "２３８番地",
    "office_name": "暁学園",
    "office_name_kana": "アカツキガクエン"
  },
  "8550": {
    "postcode": "5128550",
    "prefecture": "三重県",
    "prefecture_kana": "ミエケン",
    "prefecture_code": 24,
    "city": "四日市市",
    "city_kana": "ヨッカイチシ",
    "town": "山之一色町",
    "town_kana": "ヤマノイッシキチョウ",
    "street": "８００番地",
    "office_name": "キオクシア　株式会社　四日市工場",
    "office_name_kana": "キオクシア カブシキガイシヤ ヨツカイチコウジヨウ"
  }
}