{
  "0000": {
    "postcode": "5130000",
    "prefecture": "三重県",
    "prefecture_kana": "ミエケン",
    "prefecture_code": 24,
    "city": "鈴鹿市",
    "city_kana": "スズカシ",
    "town": "",
    "town_kana": "",
    "street": null,
    "office_name": null,
    "office_name_kana": null
  },
  "0001": {
    "postcode": "5130001",
    "prefecture": "三重県",
    "prefecture_kana": "ミエケン",
    "prefecture_code": 24,
    "city": "鈴鹿市",
    "city_kana": "スズカシ",
    "town": "広瀬町",
    "town_kana": "ヒロセチョウ",
    "street": null,
    "office_name": null,
    "office_name_kana": null
  },
  "0002": {
    "postcode": "5130002",
    "prefecture": "三重県",
    "prefecture_kana": "ミエケン",
    "prefecture_code": 24,
    "city": "鈴鹿市",
    "city_kana": "スズカシ",
    "town": "津賀町",
    "town_kana": "ツガチョウ",
    "street": null,
    "office_name": null,
    "office_name_kana": null
  },
  "0003": {
    "postcode": "5130003",
    "prefecture": "三重県",
    "prefecture_kana": "ミエケン",
    "prefecture_code": 24,
    "city": "鈴鹿市",
    "city_kana": "スズカシ",
    "town": "加佐登町",
    "town_kana": "カサドチョウ",
    "street": null,
    "office_name": null,
    "office_name_kana": null
  },
  "0004": {
    "postcode": "5130004",
    "prefecture": "三重県",
    "prefecture_kana": "ミエケン",
    "prefecture_code": 24,
    "city": "鈴鹿市",
    "city_kana": "スズカシ",
    "town": "加佐登",
    "town_kana": "カサド",
    "street": null,
    "office_name": null,
    "office_name_kana": null
  },
  "0005": {
    "postcode": "5130005",
    "prefecture": "三重県",
    "prefecture_kana": "ミエケン",
    "prefecture_code": 24,
    "city": "鈴鹿市",
    "city_kana": "スズカシ",
    "town": "汲川原町",
    "town_kana": "クミガワラチョウ",
    "street": null,
    "office_name": null,
    "office_name_kana": null
  },
  "0006": {
    "postcode": "5130006",
    "prefecture": "三重県",
    "prefecture_kana": "ミエケン",
    "prefecture_code": 24,
    "city": "鈴鹿市",
    "city_kana": "スズカシ",
    "town": "和泉町",
    "town_kana": "イズミチョウ",
    "street": null,
    "office_name": null,
    "office_name_kana": null
  },
  "0007": {
    "postcode": "5130007",
    "prefecture": "三重県",
    "prefecture_kana": "ミエケン",
    "prefecture_code": 24,
    "city": "鈴鹿市",
    "city_kana": "スズカシ",
    "town": "小田町",
    "town_kana": "オダチョウ",
    "street": null,
    "office_name": null,
    "office_name_kana": null
  },
  "0008": {
    "postcode": "5130008",
    "prefecture": "三重県",
    "prefecture_kana": "ミエケン",
    "prefecture_code": 24,
    "city": "鈴鹿市",
    "city_kana": "スズカシ",
    "town": "西冨田町",
    "town_kana": "ニシトミダチョウ",
    "street": null,
    "office_name": null,
    "office_name_kana": null
  },
  "0009": {
    "postcode": "5130009",
    "prefecture": "三重県",
    "prefecture_kana": "ミエケン",
    "prefecture_code": 24,
    "city": "鈴鹿市",
    "city_kana": "スズカシ",
    "town": "中冨田町",
    "town_kana": "ナカトミダチョウ",
    "street": null,
    "office_name": null,
    "office_name_kana": null
  },
  "0010": {
    "postcode": "5130010",
    "prefecture": "三重県",
    "prefecture_kana": "ミエケン",
    "prefecture_code": 24,
    "city": "鈴鹿市",
    "city_kana": "スズカシ",
    "town": "釆女が丘町",
    "town_kana": "ウネメガオカチョウ",
    "street": null,
    "office_name": null,
    "office_name_kana": null
  },
  "0011": {
    "postcode": "5130011",
    "prefecture": "三重県",
    "prefecture_kana": "ミエケン",
    "prefecture_code": 24,
    "city": "鈴鹿市",
    "city_kana": "スズカシ",
    "town": "高塚町",
    "town_kana": "タカツカチョウ",
    "street": null,
    "office_name": null,
    "office_name_kana": null
  },
  "0012": {
    "postcode": "5130012",
    "prefecture": "三重県",
    "prefecture_kana": "ミエケン",
    "prefecture_code": 24,
    "city": "鈴鹿市",
    "city_kana": "スズカシ",
    "town": "石薬師町",
    "town_kana": "イシヤクシチョウ",
    "street": null,
    "office_name": null,
    "office_name_kana": null
  },
  "0013": {
    "postcode": "5130013",
    "prefecture": "三重県",
    "prefecture_kana": "ミエケン",
    "prefecture_code": 24,
    "city": "鈴鹿市",
    "city_kana": "スズカシ",
    "town": "国分町",
    "town_kana": "コクブチョウ",
    "street": null,
    "office_name": null,
    "office_name_kana": null
  },
  "0014": {
    "postcode": "5130014",
    "prefecture": "三重県",
    "prefecture_kana": "ミエケン",
    "prefecture_code": 24,
    "city": "鈴鹿市",
    "city_kana": "スズカシ",
    "town": "高岡町",
    "town_kana": "タカオカチョウ",
    "street": null,
    "office_name": null,
    "office_name_kana": null
  },
  "0015": {
    "postcode": "5130015",
    "prefecture": "三重県",
    "prefecture_kana": "ミエケン",
    "prefecture_code": 24,
    "city": "鈴鹿市",
    "city_kana": "スズカシ",
    "town": "木田町",
    "town_kana": "キダチョウ",
    "street": null,
    "office_name": null,
    "office_name_kana": null
  },
  "0016": {
    "postcode": "5130016",
    "prefecture": "三重県",
    "prefecture_kana": "ミエケン",
    "prefecture_code": 24,
    "city": "鈴鹿市",
    "city_kana": "スズカシ",
    "town": "山辺町",
    "town_kana": "ヤマベチョウ",
    "street": null,
    "office_name": null,
    "office_name_kana": null
  },
  "0017": {
    "postcode": "5130017",
    "prefecture": "三重県",
    "prefecture_kana": "ミエケン",
    "prefecture_code": 24,
    "city": "鈴鹿市",
    "city_kana": "スズカシ",
    "town": "上野町",
    "town_kana": "ウエノチョウ",
    "street": null,
    "office_name": null,
    "office_name_kana": null
  },
  "0018": {
    "postcode": "5130018",
    "prefecture": "三重県",
    "prefecture_kana": "ミエケン",
    "prefecture_code": 24,
    "city": "鈴鹿市",
    "city_kana": "スズカシ",
    "town": "上田町",
    "town_kana": "ウエダチョウ",
    "street": null,
    "office_name": null,
    "office_name_kana": null
  },
  "0019": {
    "postcode": "5130019",
    "prefecture": "三重県",
    "prefecture_kana": "ミエケン",
    "prefecture_code": 24,
    "city": "鈴鹿市",
    "city_kana": "スズカシ",
    "town": "高岡台",
    "town_kana": "タカオカダイ",
    "street": null,
    "office_name": null,
    "office_name_kana": null
  },
  "0021": {
    "postcode": "5130021",
    "prefecture": "三重県",
    "prefecture_kana": "ミエケン",
    "prefecture_code": 24,
    "city": "鈴鹿市",
    "city_kana": "スズカシ",
    "town": "甲斐町",
    "town_kana": "カイチョウ",
    "street": null,
    "office_name": null,
    "office_name_kana": null
  },
  "0022": {
    "postcode": "5130022",
    "prefecture": "三重県",
    "prefecture_kana": "ミエケン",
    "prefecture_code": 24,
    "city": "鈴鹿市",
    "city_kana": "スズカシ",
    "town": "野辺町",
    "town_kana": "ノンベチョウ",
    "street": null,
    "office_name": null,
    "office_name_kana": null
  },
  "0023": {
    "postcode": "5130023",
    "prefecture": "三重県",
    "prefecture_kana": "ミエケン",
    "prefecture_code": 24,
    "city": "鈴鹿市",
    "city_kana": "スズカシ",
    "town": "河田町",
    "town_kana": "コウダチョウ",
    "street": null,
    "office_name": null,
    "office_name_kana": null
  },
  "0024": {
    "postcode": "5130024",
    "prefecture": "三重県",
    "prefecture_kana": "ミエケン",
    "prefecture_code": 24,
    "city": "鈴鹿市",
    "city_kana": "スズカシ",
    "town": "野辺",
    "town_kana": "ノンベ",
    "street": null,
    "office_name": null,
    "office_name_kana": null
  },
  "0025": {
    "postcode": "5130025",
    "prefecture": "三重県",
    "prefecture_kana": "ミエケン",
    "prefecture_code": 24,
    "city": "鈴鹿市",
    "city_kana": "スズカシ",
    "town": "竹野",
    "town_kana": "タケノ",
    "street": null,
    "office_name": null,
    "office_name_kana": null
  },
  "0026": {
    "postcode": "5130026",
    "prefecture": "三重県",
    "prefecture_kana": "ミエケン",
    "prefecture_code": 24,
    "city": "鈴鹿市",
    "city_kana": "スズカシ",
    "town": "竹野町",
    "town_kana": "タケノチョウ",
    "street": null,
    "office_name": null,
    "office_name_kana": null
  },
  "0027": {
    "postcode": "5130027",
    "prefecture": "三重県",
    "prefecture_kana": "ミエケン",
    "prefecture_code": 24,
    "city": "鈴鹿市",
    "city_kana": "スズカシ",
    "town": "岡田",
    "town_kana": "オカダ",
    "street": null,
    "office_name": null,
    "office_name_kana": null
  },
  "0028": {
    "postcode": "5130028",
    "prefecture": "三重県",
    "prefecture_kana": "ミエケン",
    "prefecture_code": 24,
    "city": "鈴鹿市",
    "city_kana": "スズカシ",
    "town": "岡田町",
    "town_kana": "オカダチョウ",
    "street": null,
    "office_name": null,
    "office_name_kana": null
  },
  "0031": {
    "postcode": "5130031",
    "prefecture": "三重県",
    "prefecture_kana": "ミエケン",
    "prefecture_code": 24,
    "city": "鈴鹿市",
    "city_kana": "スズカシ",
    "town": "一ノ宮町",
    "town_kana": "イチノミヤチョウ",
    "street": null,
    "office_name": null,
    "office_name_kana": null
  },
  "0032": {
    "postcode": "5130032",
    "prefecture": "三重県",
    "prefecture_kana": "ミエケン",
    "prefecture_code": 24,
    "city": "鈴鹿市",
    "city_kana": "スズカシ",
    "town": "池田町",
    "town_kana": "イケダチョウ",
    "street": null,
    "office_name": null,
    "office_name_kana": null
  },
  "0033": {
    "postcode": "5130033",
    "prefecture": "三重県",
    "prefecture_kana": "ミエケン",
    "prefecture_code": 24,
    "city": "鈴鹿市",
    "city_kana": "スズカシ",
    "town": "須賀町",
    "town_kana": "スカチョウ",
    "street": null,
    "office_name": null,
    "office_name_kana": null
  },
  "0034": {
    "postcode": "5130034",
    "prefecture": "三重県",
    "prefecture_kana": "ミエケン",
    "prefecture_code": 24,
    "city": "鈴鹿市",
    "city_kana": "スズカシ",
    "town": "須賀",
    "town_kana": "スカ",
    "street": null,
    "office_name": null,
    "office_name_kana": null
  },
  "0035": {
    "postcode": "5130035",
    "prefecture": "三重県",
    "prefecture_kana": "ミエケン",
    "prefecture_code": 24,
    "city": "鈴鹿市",
    "city_kana": "スズカシ",
    "town": "矢橋町",
    "town_kana": "ヤバセチョウ",
    "street": null,
    "office_name": null,
    "office_name_kana": null
  },
  "0036": {
    "postcode": "5130036",
    "prefecture": "三重県",
    "prefecture_kana": "ミエケン",
    "prefecture_code": 24,
    "city": "鈴鹿市",
    "city_kana": "スズカシ",
    "town": "矢橋",
    "town_kana": "ヤバセ",
    "street": null,
    "office_name": null,
    "office_name_kana": null
  },
  "0037": {
    "postcode": "5130037",
    "prefecture": "三重県",
    "prefecture_kana": "ミエケン",
    "prefecture_code": 24,
    "city": "鈴鹿市",
    "city_kana": "スズカシ",
    "town": "十宮",
    "town_kana": "トミヤ",
    "street": null,
    "office_name": null,
    "office_name_kana": null
  },
  "0038": {
    "postcode": "5130038",
    "prefecture": "三重県",
    "prefecture_kana": "ミエケン",
    "prefecture_code": 24,
    "city": "鈴鹿市",
    "city_kana": "スズカシ",
    "town": "十宮町",
    "town_kana": "トミヤチョウ",
    "street": null,
    "office_name": null,
    "office_name_kana": null
  },
  "0041": {
    "postcode": "5130041",
    "prefecture": "三重県",
    "prefecture_kana": "ミエケン",
    "prefecture_code": 24,
    "city": "鈴鹿市",
    "city_kana": "スズカシ",
    "town": "長太新町",
    "town_kana": "ナゴシンマチ",
    "street": null,
    "office_name": null,
    "office_name_kana": null
  },
  "0042": {
    "postcode": "5130042",
    "prefecture": "三重県",
    "prefecture_kana": "ミエケン",
    "prefecture_code": 24,
    "city": "鈴鹿市",
    "city_kana": "スズカシ",
    "town": "長太旭町",
    "town_kana": "ナゴアサヒマチ",
    "street": null,
    "office_name": null,
    "office_name_kana": null
  },
  "0043": {
    "postcode": "5130043",
    "prefecture": "三重県",
    "prefecture_kana": "ミエケン",
    "prefecture_code": 24,
    "city": "鈴鹿市",
    "city_kana": "スズカシ",
    "town": "長太栄町",
    "town_kana": "ナゴサカエマチ",
    "street": null,
    "office_name": null,
    "office_name_kana": null
  },
  "0044": {
    "postcode": "5130044",
    "prefecture": "三重県",
    "prefecture_kana": "ミエケン",
    "prefecture_code": 24,
    "city": "鈴鹿市",
    "city_kana": "スズカシ",
    "town": "北堀江町",
    "town_kana": "キタホリエチョウ",
    "street": null,
    "office_name": null,
    "office_name_kana": null
  },
  "0045": {
    "postcode": "5130045",
    "prefecture": "三重県",
    "prefecture_kana": "ミエケン",
    "prefecture_code": 24,
    "city": "鈴鹿市",
    "city_kana": "スズカシ",
    "town": "北堀江",
    "town_kana": "キタホリエ",
    "street": null,
    "office_name": null,
    "office_name_kana": null
  },
  "0046": {
    "postcode": "5130046",
    "prefecture": "三重県",
    "prefecture_kana": "ミエケン",
    "prefecture_code": 24,
    "city": "鈴鹿市",
    "city_kana": "スズカシ",
    "town": "南堀江",
    "town_kana": "ミナミホリエ",
    "street": null,
    "office_name": null,
    "office_name_kana": null
  },
  "0047": {
    "postcode": "5130047",
    "prefecture": "三重県",
    "prefecture_kana": "ミエケン",
    "prefecture_code": 24,
    "city": "鈴鹿市",
    "city_kana": "スズカシ",
    "town": "南堀江町",
    "town_kana": "ミナミホリエチョウ",
    "street": null,
    "office_name": null,
    "office_name_kana": null
  },
  "0048": {
    "postcode": "5130048",
    "prefecture": "三重県",
    "prefecture_kana": "ミエケン",
    "prefecture_code": 24,
    "city": "鈴鹿市",
    "city_kana": "スズカシ",
    "town": "南長太町",
    "town_kana": "ミナミナゴチョウ",
    "street": null,
    "office_name": null,
    "office_name_kana": null
  },
  "0049": {
    "postcode": "5130049",
    "prefecture": "三重県",
    "prefecture_kana": "ミエケン",
    "prefecture_code": 24,
    "city": "鈴鹿市",
    "city_kana": "スズカシ",
    "town": "北長太町",
    "town_kana": "キタナゴチョウ",
    "street": null,
    "office_name": null,
    "office_name_kana": null
  },
  "0051": {
    "postcode": "5130051",
    "prefecture": "三重県",
    "prefecture_kana": "ミエケン",
    "prefecture_code": 24,
    "city": "鈴鹿市",
    "city_kana": "スズカシ",
    "town": "下箕田町",
    "town_kana": "シモミダチョウ",
    "street": null,
    "office_name": null,
    "office_name_kana": null
  },
  "0052": {
    "postcode": "5130052",
    "prefecture": "三重県",
    "prefecture_kana": "ミエケン",
    "prefecture_code": 24,
    "city": "鈴鹿市",
    "city_kana": "スズカシ",
    "town": "下箕田",
    "town_kana": "シモミダ",
    "street": null,
    "office_name": null,
    "office_name_kana": null
  },
  "0053": {
    "postcode": "5130053",
    "prefecture": "三重県",
    "prefecture_kana": "ミエケン",
    "prefecture_code": 24,
    "city": "鈴鹿市",
    "city_kana": "スズカシ",
    "town": "中箕田町",
    "town_kana": "ナカミダチョウ",
    "street": null,
    "office_name": null,
    "office_name_kana": null
  },
  "0054": {
    "postcode": "5130054",
    "prefecture": "三重県",
    "prefecture_kana": "ミエケン",
    "prefecture_code": 24,
    "city": "鈴鹿市",
    "city_kana": "スズカシ",
    "town": "中箕田",
    "town_kana": "ナカミダ",
    "street": null,
    "office_name": null,
    "office_name_kana": null
  },
  "0055": {
    "postcode": "5130055",
    "prefecture": "三重県",
    "prefecture_kana": "ミエケン",
    "prefecture_code": 24,
    "city": "鈴鹿市",
    "city_kana": "スズカシ",
    "town": "上箕田町",
    "town_kana": "カミミダチョウ",
    "street": null,
    "office_name": null,
    "office_name_kana": null
  },
  "0056": {
    "postcode": "5130056",
    "prefecture": "三重県",
    "prefecture_kana": "ミエケン",
    "prefecture_code": 24,
    "city": "鈴鹿市",
    "city_kana": "スズカシ",
    "town": "上箕田",
    "town_kana": "カミミダ",
    "street": null,
    "office_name": null,
    "office_name_kana": null
  },
  "0057": {
    "postcode": "5130057",
    "prefecture": "三重県",
    "prefecture_kana": "ミエケン",
    "prefecture_code": 24,
    "city": "鈴鹿市",
    "city_kana": "スズカシ",
    "town": "南林崎町",
    "town_kana": "ミナミハヤサキチョウ",
    "street": null,
    "office_name": null,
    "office_name_kana": null
  },
  "0058": {
    "postcode": "5130058",
    "prefecture": "三重県",
    "prefecture_kana": "ミエケン",
    "prefecture_code": 24,
    "city": "鈴鹿市",
    "city_kana": "スズカシ",
    "town": "林崎",
    "town_kana": "ハヤサキ",
    "street": null,
    "office_name": null,
    "office_name_kana": null
  },
  "0059": {
    "postcode": "5130059",
    "prefecture": "三重県",
    "prefecture_kana": "ミエケン",
    "prefecture_code": 24,
    "city": "鈴鹿市",
    "city_kana": "スズカシ",
    "town": "林崎町",
    "town_kana": "ハヤサキチョウ",
    "street": null,
    "office_name": null,
    "office_name_kana": null
  },
  "0801": [
    {
      "postcode": "5130801",
      "prefecture": "三重県",
      "prefecture_kana": "ミエケン",
      "prefecture_code": 24,
      "city": "鈴鹿市",
      "city_kana": "スズカシ",
      "town": "神戸",
      "town_kana": "カンベ",
      "street": null,
      "office_name": null,
      "office_name_kana": null
    },
    {
      "postcode": "5130801",
      "prefecture": "三重県",
      "prefecture_kana": "ミエケン",
      "prefecture_code": 24,
      "city": "鈴鹿市",
      "city_kana": "スズカシ",
      "town": "神戸本多町",
      "town_kana": "カンベホンダマチ",
      "street": null,
      "office_name": null,
      "office_name_kana": null
    }
  ],
  "0802": {
    "postcode": "5130802",
    "prefecture": "三重県",
    "prefecture_kana": "ミエケン",
    "prefecture_code": 24,
    "city": "鈴鹿市",
    "city_kana": "スズカシ",
    "town": "飯野寺家町",
    "town_kana": "イイノジケチョウ",
    "street": null,
    "office_name": null,
    "office_name_kana": null
  },
  "0803": {
    "postcode": "5130803",
    "prefecture": "三重県",
    "prefecture_kana": "ミエケン",
    "prefecture_code": 24,
    "city": "鈴鹿市",
    "city_kana": "スズカシ",
    "town": "三日市町",
    "town_kana": "ミッカイチチョウ",
    "street": null,
    "office_name": null,
    "office_name_kana": null
  },
  "0804": {
    "postcode": "5130804",
    "prefecture": "三重県",
    "prefecture_kana": "ミエケン",
    "prefecture_code": 24,
    "city": "鈴鹿市",
    "city_kana": "スズカシ",
    "town": "三日市南",
    "town_kana": "ミッカイチミナミ",
    "street": null,
    "office_name": null,
    "office_name_kana": null
  },
  "0805": {
    "postcode": "5130805",
    "prefecture": "三重県",
    "prefecture_kana": "ミエケン",
    "prefecture_code": 24,
    "city": "鈴鹿市",
    "city_kana": "スズカシ",
    "town": "算所町",
    "town_kana": "サンジョチョウ",
    "street": null,
    "office_name": null,
    "office_name_kana": null
  },
  "0806": {
    "postcode": "5130806",
    "prefecture": "三重県",
    "prefecture_kana": "ミエケン",
    "prefecture_code": 24,
    "city": "鈴鹿市",
    "city_kana": "スズカシ",
    "town": "算所",
    "town_kana": "サンジョ",
    "street": null,
    "office_name": null,
    "office_name_kana": null
  },
  "0807": {
    "postcode": "5130807",
    "prefecture": "三重県",
    "prefecture_kana": "ミエケン",
    "prefecture_code": 24,
    "city": "鈴鹿市",
    "city_kana": "スズカシ",
    "town": "三日市",
    "town_kana": "ミッカイチ",
    "street": null,
    "office_name": null,
    "office_name_kana": null
  },
  "0808": {
    "postcode": "5130808",
    "prefecture": "三重県",
    "prefecture_kana": "ミエケン",
    "prefecture_code": 24,
    "city": "鈴鹿市",
    "city_kana": "スズカシ",
    "town": "西條町",
    "town_kana": "ニシジョウチョウ",
    "street": null,
    "office_name": null,
    "office_name_kana": null
  },
  "0809": {
    "postcode": "5130809",
    "prefecture": "三重県",
    "prefecture_kana": "ミエケン",
    "prefecture_code": 24,
    "city": "鈴鹿市",
    "city_kana": "スズカシ",
    "town": "西条",
    "town_kana": "ニシジョウ",
    "street": null,
    "office_name": null,
    "office_name_kana": null
  },
  "0811": {
    "postcode": "5130811",
    "prefecture": "三重県",
    "prefecture_kana": "ミエケン",
    "prefecture_code": 24,
    "city": "鈴鹿市",
    "city_kana": "スズカシ",
    "town": "柳町",
    "town_kana": "ヤナギチョウ",
    "street": null,
    "office_name": null,
    "office_name_kana": null
  },
  "0812": {
    "postcode": "5130812",
    "prefecture": "三重県",
    "prefecture_kana": "ミエケン",
    "prefecture_code": 24,
    "city": "鈴鹿市",
    "city_kana": "スズカシ",
    "town": "土師町",
    "town_kana": "ハゼチョウ",
    "street": null,
    "office_name": null,
    "office_name_kana": null
  },
  "0813": {
    "postcode": "5130813",
    "prefecture": "三重県",
    "prefecture_kana": "ミエケン",
    "prefecture_code": 24,
    "city": "鈴鹿市",
    "city_kana": "スズカシ",
    "town": "北玉垣町",
    "town_kana": "キタタマガキチョウ",
    "street": null,
    "office_name": null,
    "office_name_kana": null
  },
  "0814": {
    "postcode": "5130814",
    "prefecture": "三重県",
    "prefecture_kana": "ミエケン",
    "prefecture_code": 24,
    "city": "鈴鹿市",
    "city_kana": "スズカシ",
    "town": "東玉垣町",
    "town_kana": "ヒガシタマガキチョウ",
    "street": null,
    "office_name": null,
    "office_name_kana": null
  },
  "0815": {
    "postcode": "5130815",
    "prefecture": "三重県",
    "prefecture_kana": "ミエケン",
    "prefecture_code": 24,
    "city": "鈴鹿市",
    "city_kana": "スズカシ",
    "town": "西玉垣町",
    "town_kana": "ニシタマガキチョウ",
    "street": null,
    "office_name": null,
    "office_name_kana": null
  },
  "0816": {
    "postcode": "5130816",
    "prefecture": "三重県",
    "prefecture_kana": "ミエケン",
    "prefecture_code": 24,
    "city": "鈴鹿市",
    "city_kana": "スズカシ",
    "town": "南玉垣町",
    "town_kana": "ミナミタマガキチョウ",
    "street": null,
    "office_name": null,
    "office_name_kana": null
  },
  "0817": {
    "postcode": "5130817",
    "prefecture": "三重県",
    "prefecture_kana": "ミエケン",
    "prefecture_code": 24,
    "city": "鈴鹿市",
    "city_kana": "スズカシ",
    "town": "桜島町",
    "town_kana": "サクラジマチョウ",
    "street": null,
    "office_name": null,
    "office_name_kana": null
  },
  "0818": {
    "postcode": "5130818",
    "prefecture": "三重県",
    "prefecture_kana": "ミエケン",
    "prefecture_code": 24,
    "city": "鈴鹿市",
    "city_kana": "スズカシ",
    "town": "安塚町",
    "town_kana": "ヤスヅカチョウ",
    "street": null,
    "office_name": null,
    "office_name_kana": null
  },
  "0819": {
    "postcode": "5130819",
    "prefecture": "三重県",
    "prefecture_kana": "ミエケン",
    "prefecture_code": 24,
    "city": "鈴鹿市",
    "city_kana": "スズカシ",
    "town": "肥田町",
    "town_kana": "ヒダチョウ",
    "street": null,
    "office_name": null,
    "office_name_kana": null
  },
  "0821": {
    "postcode": "5130821",
    "prefecture": "三重県",
    "prefecture_kana": "ミエケン",
    "prefecture_code": 24,
    "city": "鈴鹿市",
    "city_kana": "スズカシ",
    "town": "地子町",
    "town_kana": "ジシマチ",
    "street": null,
    "office_name": null,
    "office_name_kana": null
  },
  "0822": {
    "postcode": "5130822",
    "prefecture": "三重県",
    "prefecture_kana": "ミエケン",
    "prefecture_code": 24,
    "city": "鈴鹿市",
    "city_kana": "スズカシ",
    "town": "末広町",
    "town_kana": "スエヒロチョウ",
    "street": null,
    "office_name": null,
    "office_name_kana": null
  },
  "0823": {
    "postcode": "5130823",
    "prefecture": "三重県",
    "prefecture_kana": "ミエケン",
    "prefecture_code": 24,
    "city": "鈴鹿市",
    "city_kana": "スズカシ",
    "town": "道伯",
    "town_kana": "ドウハク",
    "street": null,
    "office_name": null,
    "office_name_kana": null
  },
  "0824": {
    "postcode": "5130824",
    "prefecture": "三重県",
    "prefecture_kana": "ミエケン",
    "prefecture_code": 24,
    "city": "鈴鹿市",
    "city_kana": "スズカシ",
    "town": "道伯町",
    "town_kana": "ドウハクチョウ",
    "street": null,
    "office_name": null,
    "office_name_kana": null
  },
  "0825": {
    "postcode": "5130825",
    "prefecture": "三重県",
    "prefecture_kana": "ミエケン",
    "prefecture_code": 24,
    "city": "鈴鹿市",
    "city_kana": "スズカシ",
    "town": "住吉町",
    "town_kana": "スミヨシチョウ",
    "street": null,
    "office_name": null,
    "office_name_kana": null
  },
  "0826": {
    "postcode": "5130826",
    "prefecture": "三重県",
    "prefecture_kana": "ミエケン",
    "prefecture_code": 24,
    "city": "鈴鹿市",
    "city_kana": "スズカシ",
    "town": "住吉",
    "town_kana": "スミヨシ",
    "street": null,
    "office_name": null,
    "office_name_kana": null
  },
  "0827": {
    "postcode": "5130827",
    "prefecture": "三重県",
    "prefecture_kana": "ミエケン",
    "prefecture_code": 24,
    "city": "鈴鹿市",
    "city_kana": "スズカシ",
    "town": "大池",
    "town_kana": "オオイケ",
    "street": null,
    "office_name": null,
    "office_name_kana": null
  },
  "0828": {
    "postcode": "5130828",
    "prefecture": "三重県",
    "prefecture_kana": "ミエケン",
    "prefecture_code": 24,
    "city": "鈴鹿市",
    "city_kana": "スズカシ",
    "town": "阿古曽町",
    "town_kana": "アコソチョウ",
    "street": null,
    "office_name": null,
    "office_name_kana": null
  },
  "0831": {
    "postcode": "5130831",
    "prefecture": "三重県",
    "prefecture_kana": "ミエケン",
    "prefecture_code": 24,
    "city": "鈴鹿市",
    "city_kana": "スズカシ",
    "town": "庄野町",
    "town_kana": "ショウノチョウ",
    "street": null,
    "office_name": null,
    "office_name_kana": null
  },
  "0832": {
    "postcode": "5130832",
    "prefecture": "三重県",
    "prefecture_kana": "ミエケン",
    "prefecture_code": 24,
    "city": "鈴鹿市",
    "city_kana": "スズカシ",
    "town": "庄野東",
    "town_kana": "ショウノヒガシ",
    "street": null,
    "office_name": null,
    "office_name_kana": null
  },
  "0833": {
    "postcode": "5130833",
    "prefecture": "三重県",
    "prefecture_kana": "ミエケン",
    "prefecture_code": 24,
    "city": "鈴鹿市",
    "city_kana": "スズカシ",
    "town": "庄野共進",
    "town_kana": "ショウノキョウシン",
    "street": null,
    "office_name": null,
    "office_name_kana": null
  },
  "0834": {
    "postcode": "5130834",
    "prefecture": "三重県",
    "prefecture_kana": "ミエケン",
    "prefecture_code": 24,
    "city": "鈴鹿市",
    "city_kana": "スズカシ",
    "town": "庄野羽山",
    "town_kana": "ショウノハヤマ",
    "street": null,
    "office_name": null,
    "office_name_kana": null
  },
  "0835": {
    "postcode": "5130835",
    "prefecture": "三重県",
    "prefecture_kana": "ミエケン",
    "prefecture_code": 24,
    "city": "鈴鹿市",
    "city_kana": "スズカシ",
    "town": "平野町",
    "town_kana": "ヒラノチョウ",
    "street": null,
    "office_name": null,
    "office_name_kana": null
  },
  "0836": {
    "postcode": "5130836",
    "prefecture": "三重県",
    "prefecture_kana": "ミエケン",
    "prefecture_code": 24,
    "city": "鈴鹿市",
    "city_kana": "スズカシ",
    "town": "国府町",
    "town_kana": "コウチョウ",
    "street": null,
    "office_name": null,
    "office_name_kana": null
  },
  "0837": {
    "postcode": "5130837",
    "prefecture": "三重県",
    "prefecture_kana": "ミエケン",
    "prefecture_code": 24,
    "city": "鈴鹿市",
    "city_kana": "スズカシ",
    "town": "八野町",
    "town_kana": "ハチノチョウ",
    "street": null,
    "office_name": null,
    "office_name_kana": null
  },
  "0841": {
    "postcode": "5130841",
    "prefecture": "三重県",
    "prefecture_kana": "ミエケン",
    "prefecture_code": 24,
    "city": "鈴鹿市",
    "city_kana": "スズカシ",
    "town": "弓削町",
    "town_kana": "ユゲチョウ",
    "street": null,
    "office_name": null,
    "office_name_kana": null
  },
  "0842": {
    "postcode": "5130842",
    "prefecture": "三重県",
    "prefecture_kana": "ミエケン",
    "prefecture_code": 24,
    "city": "鈴鹿市",
    "city_kana": "スズカシ",
    "town": "弓削",
    "town_kana": "ユゲ",
    "street": null,
    "office_name": null,
    "office_name_kana": null
  },
  "0843": {
    "postcode": "5130843",
    "prefecture": "三重県",
    "prefecture_kana": "ミエケン",
    "prefecture_code": 24,
    "city": "鈴鹿市",
    "city_kana": "スズカシ",
    "town": "平田東町",
    "town_kana": "ヒラタヒガシマチ",
    "street": null,
    "office_name": null,
    "office_name_kana": null
  },
  "0844": {
    "postcode": "5130844",
    "prefecture": "三重県",
    "prefecture_kana": "ミエケン",
    "prefecture_code": 24,
    "city": "鈴鹿市",
    "city_kana": "スズカシ",
    "town": "平田",
    "town_kana": "ヒラタ",
    "street": null,
    "office_name": null,
    "office_name_kana": null
  },
  "0845": {
    "postcode": "5130845",
    "prefecture": "三重県",
    "prefecture_kana": "ミエケン",
    "prefecture_code": 24,
    "city": "鈴鹿市",
    "city_kana": "スズカシ",
    "town": "平田新町",
    "town_kana": "ヒラタシンマチ",
    "street": null,
    "office_name": null,
    "office_name_kana": null
  },
  "0846": {
    "postcode": "5130846",
    "prefecture": "三重県",
    "prefecture_kana": "ミエケン",
    "prefecture_code": 24,
    "city": "鈴鹿市",
    "city_kana": "スズカシ",
    "town": "平田中町",
    "town_kana": "ヒラタナカマチ",
    "street": null,
    "office_name": null,
    "office_name_kana": null
  },
  "0847": {
    "postcode": "5130847",
    "prefecture": "三重県",
    "prefecture_kana": "ミエケン",
    "prefecture_code": 24,
    "city": "鈴鹿市",
    "city_kana": "スズカシ",
    "town": "平田町",
    "town_kana": "ヒラタチョウ",
    "street": null,
    "office_name": null,
    "office_name_kana": null
  },
  "0848": {
    "postcode": "5130848",
    "prefecture": "三重県",
    "prefecture_kana": "ミエケン",
    "prefecture_code": 24,
    "city": "鈴鹿市",
    "city_kana": "スズカシ",
    "town": "平田本町",
    "town_kana": "ヒラタホンマチ",
    "street": null,
    "office_name": null,
    "office_name_kana": null
  },
  "0851": {
    "postcode": "5130851",
    "prefecture": "三重県",
    "prefecture_kana": "ミエケン",
    "prefecture_code": 24,
    "city": "鈴鹿市",
    "city_kana": "スズカシ",
    "town": "末広東",
    "town_kana": "スエヒロヒガシ",
    "street": null,
    "office_name": null,
    "office_name_kana": null
  },
  "0852": {
    "postcode": "5130852",
    "prefecture": "三重県",
    "prefecture_kana": "ミエケン",
    "prefecture_code": 24,
    "city": "鈴鹿市",
    "city_kana": "スズカシ",
    "town": "末広西",
    "town_kana": "スエヒロニシ",
    "street": null,
    "office_name": null,
    "office_name_kana": null
  },
  "0853": {
    "postcode": "5130853",
    "prefecture": "三重県",
    "prefecture_kana": "ミエケン",
    "prefecture_code": 24,
    "city": "鈴鹿市",
    "city_kana": "スズカシ",
    "town": "末広南",
    "town_kana": "スエヒロミナミ",
    "street": null,
    "office_name": null,
    "office_name_kana": null
  },
  "0854": {
    "postcode": "5130854",
    "prefecture": "三重県",
    "prefecture_kana": "ミエケン",
    "prefecture_code": 24,
    "city": "鈴鹿市",
    "city_kana": "スズカシ",
    "town": "末広北",
    "town_kana": "スエヒロキタ",
    "street": null,
    "office_name": null,
    "office_name_kana": null
  },
  "0855": {
    "postcode": "5130855",
    "prefecture": "三重県",
    "prefecture_kana": "ミエケン",
    "prefecture_code": 24,
    "city": "鈴鹿市",
    "city_kana": "スズカシ",
    "town": "石垣",
    "town_kana": "イシガキ",
    "street": null,
    "office_name": null,
    "office_name_kana": null
  },
  "1121": {
    "postcode": "5131121",
    "prefecture": "三重県",
    "prefecture_kana": "ミエケン",
    "prefecture_code": 24,
    "city": "鈴鹿市",
    "city_kana": "スズカシ",
    "town": "岸田町",
    "town_kana": "キシタチョウ",
    "street": null,
    "office_name": null,
    "office_name_kana": null
  },
  "1122": {
    "postcode": "5131122",
    "prefecture": "三重県",
    "prefecture_kana": "ミエケン",
    "prefecture_code": 24,
    "city": "鈴鹿市",
    "city_kana": "スズカシ",
    "town": "花川町",
    "town_kana": "ハナガワチョウ",
    "street": null,
    "office_name": null,
    "office_name_kana": null
  },
  "1123": {
    "postcode": "5131123",
    "prefecture": "三重県",
    "prefecture_kana": "ミエケン",
    "prefecture_code": 24,
    "city": "鈴鹿市",
    "city_kana": "スズカシ",
    "town": "下大久保町",
    "town_kana": "シモオオクボチョウ",
    "street": null,
    "office_name": null,
    "office_name_kana": null
  },
  "1124": {
    "postcode": "5131124",
    "prefecture": "三重県",
    "prefecture_kana": "ミエケン",
    "prefecture_code": 24,
    "city": "鈴鹿市",
    "city_kana": "スズカシ",
    "town": "自由ヶ丘",
    "town_kana": "ジユウガオカ",
    "street": null,
    "office_name": null,
    "office_name_kana": null
  },
  "8501": {
    "postcode": "5138501",
    "prefecture": "三重県",
    "prefecture_kana": "ミエケン",
    "prefecture_code": 24,
    "city": "鈴鹿市",
    "city_kana": "スズカシ",
    "town": "加佐登",
    "town_kana": "カサド",
    "street": "３丁目２番１号",
    "office_name": "独立行政法人　国立病院機構　鈴鹿病院",
    "office_name_kana": "ドクリツギヨウセイホウジン コクリツビヨウインキコウ スズカビヨウイン"
  },
  "8505": {
    "postcode": "5138505",
    "prefecture": "三重県",
    "prefecture_kana": "ミエケン",
    "prefecture_code": 24,
    "city": "鈴鹿市",
    "city_kana": "スズカシ",
    "town": "国府町",
    "town_kana": "コウチョウ",
    "street": "字保子里１１２番地１",
    "office_name": "鈴鹿回生総合病院",
    "office_name_kana": "スズカカイセイソウゴウビヨウイン"
  },
  "8510": {
    "postcode": "5138510",
    "prefecture": "三重県",
    "prefecture_kana": "ミエケン",
    "prefecture_code": 24,
    "city": "鈴鹿市",
    "city_kana": "スズカシ",
    "town": "神戸",
    "town_kana": "カンベ",
    "street": "１丁目２４−３",
    "office_name": "津地方法務局　鈴鹿出張所",
    "office_name_kana": "ツチホウホウムキヨク スズカシユツチヨウジヨ"
  },
  "8520": {
    "postcode": "5138520",
    "prefecture": "三重県",
    "prefecture_kana": "ミエケン",
    "prefecture_code": 24,
    "city": "鈴鹿市",
    "city_kana": "スズカシ",
    "town": "庄野町",
    "town_kana": "ショウノチョウ",
    "street": "１２５０",
    "office_name": "鈴鹿短期大学",
    "office_name_kana": "スズカタンキダイガク"
  },
  "8530": {
    "postcode": "5138530",
    "prefecture": "三重県",
    "prefecture_kana": "ミエケン",
    "prefecture_code": 24,
    "city": "鈴鹿市",
    "city_kana": "スズカシ",
    "town": "上野町",
    "town_kana": "ウエノチョウ",
    "street": "字助町４８",
    "office_name": "株式会社　サンケイ",
    "office_name_kana": "カブシキガイシヤ サンケイ"
  },
  "8601": {
    "postcode": "5138601",
    "prefecture": "三重県",
    "prefecture_kana": "ミエケン",
    "prefecture_code": 24,
    "city": "鈴鹿市",
    "city_kana": "スズカシ",
    "town": "国府町",
    "town_kana": "コウチョウ",
    "street": "７７５４−１",
    "office_name": "株式会社　ホンダ・エクスプレス",
    "office_name_kana": "カブシキガイシヤ ホンダ・エクスプレス"
  },
  "8630": {
    "postcode": "5138630",
    "prefecture": "三重県",
    "prefecture_kana": "ミエケン",
    "prefecture_code": 24,
    "city": "鈴鹿市",
    "city_kana": "スズカシ",
    "town": "安塚町",
    "town_kana": "ヤスヅカチョウ",
    "street": "山之花１２７５−５３",
    "office_name": "鈴鹿中央総合病院",
    "office_name_kana": "スズカチユウオウソウゴウビヨウイン"
  },
  "8631": {
    "postcode": "5138631",
    "prefecture": "三重県",
    "prefecture_kana": "ミエケン",
    "prefecture_code": 24,
    "city": "鈴鹿市",
    "city_kana": "スズカシ",
    "town": "三日市町",
    "town_kana": "ミッカイチチョウ",
    "street": "字中の池１８２０",
    "office_name": "住友電装　株式会社　鈴鹿製作所",
    "office_name_kana": "スミトモデンソウ カブシキガイシヤ スズカセイサクシヨ"
  },
  "8632": {
    "postcode": "5138632",
    "prefecture": "三重県",
    "prefecture_kana": "ミエケン",
    "prefecture_code": 24,
    "city": "鈴鹿市",
    "city_kana": "スズカシ",
    "town": "南玉垣町",
    "town_kana": "ミナミタマガキチョウ",
    "street": "６４１０",
    "office_name": "味の素ゼネラルフーヅ　株式会社　鈴鹿工場",
    "office_name_kana": "アジノモトゼネラルフ-ヅ カブシキガイシヤ スズカコウジヨウ"
  },
  "8633": {
    "postcode": "5138633",
    "prefecture": "三重県",
    "prefecture_kana": "ミエケン",
    "prefecture_code": 24,
    "city": "鈴鹿市",
    "city_kana": "スズカシ",
    "town": "南玉垣町",
    "town_kana": "ミナミタマガキチョウ",
    "street": "５５２０",
    "office_name": "富士電機　株式会社　鈴鹿工場",
    "office_name_kana": "フジデンキ カブシキガイシヤ スズカコウジヨウ"
  },
  "8650": {
    "postcode": "5138650",
    "prefecture": "三重県",
    "prefecture_kana": "ミエケン",
    "prefecture_code": 24,
    "city": "鈴鹿市",
    "city_kana": "スズカシ",
    "town": "地子町",
    "town_kana": "ジシマチ",
    "street": "１２６８",
    "office_name": "鈴鹿農業　協同組合",
    "office_name_kana": "スズカノウギヨウ キヨウドウクミアイ"
  },
  "8660": {
    "postcode": "5138660",
    "prefecture": "三重県",
    "prefecture_kana": "ミエケン",
    "prefecture_code": 24,
    "city": "鈴鹿市",
    "city_kana": "スズカシ",
    "town": "平田中町",
    "town_kana": "ヒラタナカマチ",
    "street": "１番１号",
    "office_name": "旭化成　株式会社　製造統括本部　鈴鹿製造所",
    "office_name_kana": "アサヒカセイ カブシキガイシヤ セイゾウトウカツホンブ スズカセイゾウシヨ"
  },
  "8661": {
    "postcode": "5138661",
    "prefecture": "三重県",
    "prefecture_kana": "ミエケン",
    "prefecture_code": 24,
    "city": "鈴鹿市",
    "city_kana": "スズカシ",
    "town": "庄野羽山",
    "town_kana": "ショウノハヤマ",
    "street": "４丁目１−１",
    "office_name": "カネボウウール　株式会社　鈴鹿工場",
    "office_name_kana": "カネボウウ-ル カブシキガイシヤ スズカコウジヨウ"
  },
  "8666": {
    "postcode": "5138666",
    "prefecture": "三重県",
    "prefecture_kana": "ミエケン",
    "prefecture_code": 24,
    "city": "鈴鹿市",
    "city_kana": "スズカシ",
    "town": "平田町",
    "town_kana": "ヒラタチョウ",
    "street": "１９０７",
    "office_name": "本田技研工業　株式会社　鈴鹿製作所",
    "office_name_kana": "ホンダギケンコウギヨウ カブシキガイシヤ スズカセイサクシヨ"
  },
  "8670": {
    "postcode": "5138670",
    "prefecture": "三重県",
    "prefecture_kana": "ミエケン",
    "prefecture_code": 24,
    "city": "鈴鹿市",
    "city_kana": "スズカシ",
    "town": "南玉垣町",
    "town_kana": "ミナミタマガキチョウ",
    "street": "３５００番地３",
    "office_name": "鈴鹿医療科学大学　白子キャンパス",
    "office_name_kana": "スズカイリヨウカガクダイガク シロコキヤンパス"
  },
  "8680": {
    "postcode": "5138680",
    "prefecture": "三重県",
    "prefecture_kana": "ミエケン",
    "prefecture_code": 24,
    "city": "鈴鹿市",
    "city_kana": "スズカシ",
    "town": "住吉町",
    "town_kana": "スミヨシチョウ",
    "street": "８９４７番地",
    "office_name": "株式会社　鈴鹿メディアパーク",
    "office_name_kana": "カブシキガイシヤ スズカメデイアパ-ク"
  },
  "8686": {
    "postcode": "5138686",
    "prefecture": "三重県",
    "prefecture_kana": "ミエケン",
    "prefecture_code": 24,
    "city": "鈴鹿市",
    "city_kana": "スズカシ",
    "town": "算所",
    "town_kana": "サンジョ",
    "street": "２丁目５−１",
    "office_name": "株式会社　鈴鹿ハンター",
    "office_name_kana": "カブシキガイシヤ スズカハンタ-"
  },
  "8701": {
    "postcode": "5138701",
    "prefecture": "三重県",
    "prefecture_kana": "ミエケン",
    "prefecture_code": 24,
    "city": "鈴鹿市",
    "city_kana": "スズカシ",
    "town": "神戸",
    "town_kana": "カンベ",
    "street": "１丁目１８−１８（鈴鹿郵便局私書箱第１１号）",
    "office_name": "鈴鹿市役所",
    "office_name_kana": "スズカシヤクシヨ"
  }
}