{
  "0000": {
    "postcode": "5160000",
    "prefecture": "三重県",
    "prefecture_kana": "ミエケン",
    "prefecture_code": 24,
    "city": "伊勢市",
    "city_kana": "イセシ",
    "town": "",
    "town_kana": "",
    "street": null,
    "office_name": null,
    "office_name_kana": null
  },
  "0001": {
    "postcode": "5160001",
    "prefecture": "三重県",
    "prefecture_kana": "ミエケン",
    "prefecture_code": 24,
    "city": "伊勢市",
    "city_kana": "イセシ",
    "town": "大湊町",
    "town_kana": "オオミナトチョウ",
    "street": null,
    "office_name": null,
    "office_name_kana": null
  },
  "0002": {
    "postcode": "5160002",
    "prefecture": "三重県",
    "prefecture_kana": "ミエケン",
    "prefecture_code": 24,
    "city": "伊勢市",
    "city_kana": "イセシ",
    "town": "馬瀬町",
    "town_kana": "マゼチョウ",
    "street": null,
    "office_name": null,
    "office_name_kana": null
  },
  "0003": {
    "postcode": "5160003",
    "prefecture": "三重県",
    "prefecture_kana": "ミエケン",
    "prefecture_code": 24,
    "city": "伊勢市",
    "city_kana": "イセシ",
    "town": "下野町",
    "town_kana": "シモノチョウ",
    "street": null,
    "office_name": null,
    "office_name_kana": null
  },
  "0004": {
    "postcode": "5160004",
    "prefecture": "三重県",
    "prefecture_kana": "ミエケン",
    "prefecture_code": 24,
    "city": "伊勢市",
    "city_kana": "イセシ",
    "town": "神社港",
    "town_kana": "カミヤシロコウ",
    "street": null,
    "office_name": null,
    "office_name_kana": null
  },
  "0005": {
    "postcode": "5160005",
    "prefecture": "三重県",
    "prefecture_kana": "ミエケン",
    "prefecture_code": 24,
    "city": "伊勢市",
    "city_kana": "イセシ",
    "town": "竹ケ鼻町",
    "town_kana": "タケガハナチョウ",
    "street": null,
    "office_name": null,
    "office_name_kana": null
  },
  "0006": {
    "postcode": "5160006",
    "prefecture": "三重県",
    "prefecture_kana": "ミエケン",
    "prefecture_code": 24,
    "city": "伊勢市",
    "city_kana": "イセシ",
    "town": "田尻町",
    "town_kana": "タジリチョウ",
    "street": null,
    "office_name": null,
    "office_name_kana": null
  },
  "0007": {
    "postcode": "5160007",
    "prefecture": "三重県",
    "prefecture_kana": "ミエケン",
    "prefecture_code": 24,
    "city": "伊勢市",
    "city_kana": "イセシ",
    "town": "小木町",
    "town_kana": "コウギチョウ",
    "street": null,
    "office_name": null,
    "office_name_kana": null
  },
  "0008": {
    "postcode": "5160008",
    "prefecture": "三重県",
    "prefecture_kana": "ミエケン",
    "prefecture_code": 24,
    "city": "伊勢市",
    "city_kana": "イセシ",
    "town": "船江",
    "town_kana": "フナエ",
    "street": null,
    "office_name": null,
    "office_name_kana": null
  },
  "0009": {
    "postcode": "5160009",
    "prefecture": "三重県",
    "prefecture_kana": "ミエケン",
    "prefecture_code": 24,
    "city": "伊勢市",
    "city_kana": "イセシ",
    "town": "河崎",
    "town_kana": "カワサキ",
    "street": null,
    "office_name": null,
    "office_name_kana": null
  },
  "0011": {
    "postcode": "5160011",
    "prefecture": "三重県",
    "prefecture_kana": "ミエケン",
    "prefecture_code": 24,
    "city": "伊勢市",
    "city_kana": "イセシ",
    "town": "一色町",
    "town_kana": "イッシキチョウ",
    "street": null,
    "office_name": null,
    "office_name_kana": null
  },
  "0012": {
    "postcode": "5160012",
    "prefecture": "三重県",
    "prefecture_kana": "ミエケン",
    "prefecture_code": 24,
    "city": "伊勢市",
    "city_kana": "イセシ",
    "town": "通町",
    "town_kana": "トオリチョウ",
    "street": null,
    "office_name": null,
    "office_name_kana": null
  },
  "0013": {
    "postcode": "5160013",
    "prefecture": "三重県",
    "prefecture_kana": "ミエケン",
    "prefecture_code": 24,
    "city": "伊勢市",
    "city_kana": "イセシ",
    "town": "鹿海町",
    "town_kana": "カノミチョウ",
    "street": null,
    "office_name": null,
    "office_name_kana": null
  },
  "0014": {
    "postcode": "5160014",
    "prefecture": "三重県",
    "prefecture_kana": "ミエケン",
    "prefecture_code": 24,
    "city": "伊勢市",
    "city_kana": "イセシ",
    "town": "楠部町",
    "town_kana": "クスベチョウ",
    "street": null,
    "office_name": null,
    "office_name_kana": null
  },
  "0015": {
    "postcode": "5160015",
    "prefecture": "三重県",
    "prefecture_kana": "ミエケン",
    "prefecture_code": 24,
    "city": "伊勢市",
    "city_kana": "イセシ",
    "town": "久世戸町",
    "town_kana": "クセドチョウ",
    "street": null,
    "office_name": null,
    "office_name_kana": null
  },
  "0016": {
    "postcode": "5160016",
    "prefecture": "三重県",
    "prefecture_kana": "ミエケン",
    "prefecture_code": 24,
    "city": "伊勢市",
    "city_kana": "イセシ",
    "town": "神田久志本町",
    "town_kana": "コウダクシモトチョウ",
    "street": null,
    "office_name": null,
    "office_name_kana": null
  },
  "0017": {
    "postcode": "5160017",
    "prefecture": "三重県",
    "prefecture_kana": "ミエケン",
    "prefecture_code": 24,
    "city": "伊勢市",
    "city_kana": "イセシ",
    "town": "神久",
    "town_kana": "ジンキュウ",
    "street": null,
    "office_name": null,
    "office_name_kana": null
  },
  "0018": {
    "postcode": "5160018",
    "prefecture": "三重県",
    "prefecture_kana": "ミエケン",
    "prefecture_code": 24,
    "city": "伊勢市",
    "city_kana": "イセシ",
    "town": "黒瀬町",
    "town_kana": "クロセチョウ",
    "street": null,
    "office_name": null,
    "office_name_kana": null
  },
  "0021": {
    "postcode": "5160021",
    "prefecture": "三重県",
    "prefecture_kana": "ミエケン",
    "prefecture_code": 24,
    "city": "伊勢市",
    "city_kana": "イセシ",
    "town": "朝熊町",
    "town_kana": "アサマチョウ",
    "street": null,
    "office_name": null,
    "office_name_kana": null
  },
  "0022": {
    "postcode": "5160022",
    "prefecture": "三重県",
    "prefecture_kana": "ミエケン",
    "prefecture_code": 24,
    "city": "伊勢市",
    "city_kana": "イセシ",
    "town": "一宇田町",
    "town_kana": "イチウダチョウ",
    "street": null,
    "office_name": null,
    "office_name_kana": null
  },
  "0023": {
    "postcode": "5160023",
    "prefecture": "三重県",
    "prefecture_kana": "ミエケン",
    "prefecture_code": 24,
    "city": "伊勢市",
    "city_kana": "イセシ",
    "town": "宇治館町",
    "town_kana": "ウジタチチョウ",
    "street": null,
    "office_name": null,
    "office_name_kana": null
  },
  "0024": {
    "postcode": "5160024",
    "prefecture": "三重県",
    "prefecture_kana": "ミエケン",
    "prefecture_code": 24,
    "city": "伊勢市",
    "city_kana": "イセシ",
    "town": "宇治今在家町",
    "town_kana": "ウジイマザイケチョウ",
    "street": null,
    "office_name": null,
    "office_name_kana": null
  },
  "0025": {
    "postcode": "5160025",
    "prefecture": "三重県",
    "prefecture_kana": "ミエケン",
    "prefecture_code": 24,
    "city": "伊勢市",
    "city_kana": "イセシ",
    "town": "宇治中之切町",
    "town_kana": "ウジナカノキリチョウ",
    "street": null,
    "office_name": null,
    "office_name_kana": null
  },
  "0026": {
    "postcode": "5160026",
    "prefecture": "三重県",
    "prefecture_kana": "ミエケン",
    "prefecture_code": 24,
    "city": "伊勢市",
    "city_kana": "イセシ",
    "town": "宇治浦田",
    "town_kana": "ウジウラタ",
    "street": null,
    "office_name": null,
    "office_name_kana": null
  },
  "0027": {
    "postcode": "5160027",
    "prefecture": "三重県",
    "prefecture_kana": "ミエケン",
    "prefecture_code": 24,
    "city": "伊勢市",
    "city_kana": "イセシ",
    "town": "桜木町",
    "town_kana": "サクラギチョウ",
    "street": null,
    "office_name": null,
    "office_name_kana": null
  },
  "0028": {
    "postcode": "5160028",
    "prefecture": "三重県",
    "prefecture_kana": "ミエケン",
    "prefecture_code": 24,
    "city": "伊勢市",
    "city_kana": "イセシ",
    "town": "中村町",
    "town_kana": "ナカムラチョウ",
    "street": null,
    "office_name": null,
    "office_name_kana": null
  },
  "0031": {
    "postcode": "5160031",
    "prefecture": "三重県",
    "prefecture_kana": "ミエケン",
    "prefecture_code": 24,
    "city": "伊勢市",
    "city_kana": "イセシ",
    "town": "尾上町",
    "town_kana": "オノエチョウ",
    "street": null,
    "office_name": null,
    "office_name_kana": null
  },
  "0032": {
    "postcode": "5160032",
    "prefecture": "三重県",
    "prefecture_kana": "ミエケン",
    "prefecture_code": 24,
    "city": "伊勢市",
    "city_kana": "イセシ",
    "town": "倭町",
    "town_kana": "ヤマトマチ",
    "street": null,
    "office_name": null,
    "office_name_kana": null
  },
  "0033": {
    "postcode": "5160033",
    "prefecture": "三重県",
    "prefecture_kana": "ミエケン",
    "prefecture_code": 24,
    "city": "伊勢市",
    "city_kana": "イセシ",
    "town": "古市町",
    "town_kana": "フルイチチョウ",
    "street": null,
    "office_name": null,
    "office_name_kana": null
  },
  "0034": {
    "postcode": "5160034",
    "prefecture": "三重県",
    "prefecture_kana": "ミエケン",
    "prefecture_code": 24,
    "city": "伊勢市",
    "city_kana": "イセシ",
    "town": "中之町",
    "town_kana": "ナカノチョウ",
    "street": null,
    "office_name": null,
    "office_name_kana": null
  },
  "0035": {
    "postcode": "5160035",
    "prefecture": "三重県",
    "prefecture_kana": "ミエケン",
    "prefecture_code": 24,
    "city": "伊勢市",
    "city_kana": "イセシ",
    "town": "勢田町",
    "town_kana": "セイタチョウ",
    "street": null,
    "office_name": null,
    "office_name_kana": null
  },
  "0036": {
    "postcode": "5160036",
    "prefecture": "三重県",
    "prefecture_kana": "ミエケン",
    "prefecture_code": 24,
    "city": "伊勢市",
    "city_kana": "イセシ",
    "town": "岡本",
    "town_kana": "オカモト",
    "street": null,
    "office_name": null,
    "office_name_kana": null
  },
  "0037": {
    "postcode": "5160037",
    "prefecture": "三重県",
    "prefecture_kana": "ミエケン",
    "prefecture_code": 24,
    "city": "伊勢市",
    "city_kana": "イセシ",
    "town": "岩渕",
    "town_kana": "イワブチ",
    "street": null,
    "office_name": null,
    "office_name_kana": null
  },
  "0038": {
    "postcode": "5160038",
    "prefecture": "三重県",
    "prefecture_kana": "ミエケン",
    "prefecture_code": 24,
    "city": "伊勢市",
    "city_kana": "イセシ",
    "town": "岩渕町",
    "town_kana": "イワブチチョウ",
    "street": null,
    "office_name": null,
    "office_name_kana": null
  },
  "0041": {
    "postcode": "5160041",
    "prefecture": "三重県",
    "prefecture_kana": "ミエケン",
    "prefecture_code": 24,
    "city": "伊勢市",
    "city_kana": "イセシ",
    "town": "常磐",
    "town_kana": "トキワ",
    "street": null,
    "office_name": null,
    "office_name_kana": null
  },
  "0042": {
    "postcode": "5160042",
    "prefecture": "三重県",
    "prefecture_kana": "ミエケン",
    "prefecture_code": 24,
    "city": "伊勢市",
    "city_kana": "イセシ",
    "town": "豊川町",
    "town_kana": "トヨカワチョウ",
    "street": null,
    "office_name": null,
    "office_name_kana": null
  },
  "0043": {
    "postcode": "5160043",
    "prefecture": "三重県",
    "prefecture_kana": "ミエケン",
    "prefecture_code": 24,
    "city": "伊勢市",
    "city_kana": "イセシ",
    "town": "藤里町",
    "town_kana": "フジサトチョウ",
    "street": null,
    "office_name": null,
    "office_name_kana": null
  },
  "0044": {
    "postcode": "5160044",
    "prefecture": "三重県",
    "prefecture_kana": "ミエケン",
    "prefecture_code": 24,
    "city": "伊勢市",
    "city_kana": "イセシ",
    "town": "前山町",
    "town_kana": "マエヤマチョウ",
    "street": null,
    "office_name": null,
    "office_name_kana": null
  },
  "0045": {
    "postcode": "5160045",
    "prefecture": "三重県",
    "prefecture_kana": "ミエケン",
    "prefecture_code": 24,
    "city": "伊勢市",
    "city_kana": "イセシ",
    "town": "旭町",
    "town_kana": "アサヒチョウ",
    "street": null,
    "office_name": null,
    "office_name_kana": null
  },
  "0046": {
    "postcode": "5160046",
    "prefecture": "三重県",
    "prefecture_kana": "ミエケン",
    "prefecture_code": 24,
    "city": "伊勢市",
    "city_kana": "イセシ",
    "town": "辻久留町",
    "town_kana": "ツジクルチョウ",
    "street": null,
    "office_name": null,
    "office_name_kana": null
  },
  "0047": {
    "postcode": "5160047",
    "prefecture": "三重県",
    "prefecture_kana": "ミエケン",
    "prefecture_code": 24,
    "city": "伊勢市",
    "city_kana": "イセシ",
    "town": "常磐町",
    "town_kana": "トキワチョウ",
    "street": null,
    "office_name": null,
    "office_name_kana": null
  },
  "0051": {
    "postcode": "5160051",
    "prefecture": "三重県",
    "prefecture_kana": "ミエケン",
    "prefecture_code": 24,
    "city": "伊勢市",
    "city_kana": "イセシ",
    "town": "上地町",
    "town_kana": "ウエジチョウ",
    "street": null,
    "office_name": null,
    "office_name_kana": null
  },
  "0052": {
    "postcode": "5160052",
    "prefecture": "三重県",
    "prefecture_kana": "ミエケン",
    "prefecture_code": 24,
    "city": "伊勢市",
    "city_kana": "イセシ",
    "town": "川端町",
    "town_kana": "カワバタチョウ",
    "street": null,
    "office_name": null,
    "office_name_kana": null
  },
  "0053": {
    "postcode": "5160053",
    "prefecture": "三重県",
    "prefecture_kana": "ミエケン",
    "prefecture_code": 24,
    "city": "伊勢市",
    "city_kana": "イセシ",
    "town": "中須町",
    "town_kana": "ナカズチョウ",
    "street": null,
    "office_name": null,
    "office_name_kana": null
  },
  "0054": {
    "postcode": "5160054",
    "prefecture": "三重県",
    "prefecture_kana": "ミエケン",
    "prefecture_code": 24,
    "city": "伊勢市",
    "city_kana": "イセシ",
    "town": "粟野町",
    "town_kana": "アワノチョウ",
    "street": null,
    "office_name": null,
    "office_name_kana": null
  },
  "0061": {
    "postcode": "5160061",
    "prefecture": "三重県",
    "prefecture_kana": "ミエケン",
    "prefecture_code": 24,
    "city": "伊勢市",
    "city_kana": "イセシ",
    "town": "宮川",
    "town_kana": "ミヤガワ",
    "street": null,
    "office_name": null,
    "office_name_kana": null
  },
  "0062": {
    "postcode": "5160062",
    "prefecture": "三重県",
    "prefecture_kana": "ミエケン",
    "prefecture_code": 24,
    "city": "伊勢市",
    "city_kana": "イセシ",
    "town": "浦口",
    "town_kana": "ウラグチ",
    "street": null,
    "office_name": null,
    "office_name_kana": null
  },
  "0063": {
    "postcode": "5160063",
    "prefecture": "三重県",
    "prefecture_kana": "ミエケン",
    "prefecture_code": 24,
    "city": "伊勢市",
    "city_kana": "イセシ",
    "town": "浦口町",
    "town_kana": "ウラグチチョウ",
    "street": null,
    "office_name": null,
    "office_name_kana": null
  },
  "0064": {
    "postcode": "5160064",
    "prefecture": "三重県",
    "prefecture_kana": "ミエケン",
    "prefecture_code": 24,
    "city": "伊勢市",
    "city_kana": "イセシ",
    "town": "二俣",
    "town_kana": "フタマタ",
    "street": null,
    "office_name": null,
    "office_name_kana": null
  },
  "0065": {
    "postcode": "5160065",
    "prefecture": "三重県",
    "prefecture_kana": "ミエケン",
    "prefecture_code": 24,
    "city": "伊勢市",
    "city_kana": "イセシ",
    "town": "二俣町",
    "town_kana": "フタマタチョウ",
    "street": null,
    "office_name": null,
    "office_name_kana": null
  },
  "0066": {
    "postcode": "5160066",
    "prefecture": "三重県",
    "prefecture_kana": "ミエケン",
    "prefecture_code": 24,
    "city": "伊勢市",
    "city_kana": "イセシ",
    "town": "辻久留",
    "town_kana": "ツジクル",
    "street": null,
    "office_name": null,
    "office_name_kana": null
  },
  "0067": {
    "postcode": "5160067",
    "prefecture": "三重県",
    "prefecture_kana": "ミエケン",
    "prefecture_code": 24,
    "city": "伊勢市",
    "city_kana": "イセシ",
    "town": "中島",
    "town_kana": "ナカジマ",
    "street": null,
    "office_name": null,
    "office_name_kana": null
  },
  "0071": {
    "postcode": "5160071",
    "prefecture": "三重県",
    "prefecture_kana": "ミエケン",
    "prefecture_code": 24,
    "city": "伊勢市",
    "city_kana": "イセシ",
    "town": "一之木",
    "town_kana": "イチノキ",
    "street": null,
    "office_name": null,
    "office_name_kana": null
  },
  "0072": {
    "postcode": "5160072",
    "prefecture": "三重県",
    "prefecture_kana": "ミエケン",
    "prefecture_code": 24,
    "city": "伊勢市",
    "city_kana": "イセシ",
    "town": "宮後",
    "town_kana": "ミヤジリ",
    "street": null,
    "office_name": null,
    "office_name_kana": null
  },
  "0073": {
    "postcode": "5160073",
    "prefecture": "三重県",
    "prefecture_kana": "ミエケン",
    "prefecture_code": 24,
    "city": "伊勢市",
    "city_kana": "イセシ",
    "town": "吹上",
    "town_kana": "フキアゲ",
    "street": null,
    "office_name": null,
    "office_name_kana": null
  },
  "0074": {
    "postcode": "5160074",
    "prefecture": "三重県",
    "prefecture_kana": "ミエケン",
    "prefecture_code": 24,
    "city": "伊勢市",
    "city_kana": "イセシ",
    "town": "本町",
    "town_kana": "ホンマチ",
    "street": null,
    "office_name": null,
    "office_name_kana": null
  },
  "0075": {
    "postcode": "5160075",
    "prefecture": "三重県",
    "prefecture_kana": "ミエケン",
    "prefecture_code": 24,
    "city": "伊勢市",
    "city_kana": "イセシ",
    "town": "一志町",
    "town_kana": "イチシチョウ",
    "street": null,
    "office_name": null,
    "office_name_kana": null
  },
  "0076": {
    "postcode": "5160076",
    "prefecture": "三重県",
    "prefecture_kana": "ミエケン",
    "prefecture_code": 24,
    "city": "伊勢市",
    "city_kana": "イセシ",
    "town": "八日市場町",
    "town_kana": "ヨウカイチバチョウ",
    "street": null,
    "office_name": null,
    "office_name_kana": null
  },
  "0077": {
    "postcode": "5160077",
    "prefecture": "三重県",
    "prefecture_kana": "ミエケン",
    "prefecture_code": 24,
    "city": "伊勢市",
    "city_kana": "イセシ",
    "town": "宮町",
    "town_kana": "ミヤマチ",
    "street": null,
    "office_name": null,
    "office_name_kana": null
  },
  "0078": {
    "postcode": "5160078",
    "prefecture": "三重県",
    "prefecture_kana": "ミエケン",
    "prefecture_code": 24,
    "city": "伊勢市",
    "city_kana": "イセシ",
    "town": "曽祢",
    "town_kana": "ソネ",
    "street": null,
    "office_name": null,
    "office_name_kana": null
  },
  "0079": {
    "postcode": "5160079",
    "prefecture": "三重県",
    "prefecture_kana": "ミエケン",
    "prefecture_code": 24,
    "city": "伊勢市",
    "city_kana": "イセシ",
    "town": "大世古",
    "town_kana": "オオゼコ",
    "street": null,
    "office_name": null,
    "office_name_kana": null
  },
  "0100": {
    "postcode": "5160100",
    "prefecture": "三重県",
    "prefecture_kana": "ミエケン",
    "prefecture_code": 24,
    "city": "度会郡南伊勢町",
    "city_kana": "ワタライグンミナミイセチョウ",
    "town": "",
    "town_kana": "",
    "street": null,
    "office_name": null,
    "office_name_kana": null
  },
  "0101": {
    "postcode": "5160101",
    "prefecture": "三重県",
    "prefecture_kana": "ミエケン",
    "prefecture_code": 24,
    "city": "度会郡南伊勢町",
    "city_kana": "ワタライグンミナミイセチョウ",
    "town": "五ケ所浦",
    "town_kana": "ゴカショウラ",
    "street": null,
    "office_name": null,
    "office_name_kana": null
  },
  "0102": {
    "postcode": "5160102",
    "prefecture": "三重県",
    "prefecture_kana": "ミエケン",
    "prefecture_code": 24,
    "city": "度会郡南伊勢町",
    "city_kana": "ワタライグンミナミイセチョウ",
    "town": "切原",
    "town_kana": "キリハラ",
    "street": null,
    "office_name": null,
    "office_name_kana": null
  },
  "0103": {
    "postcode": "5160103",
    "prefecture": "三重県",
    "prefecture_kana": "ミエケン",
    "prefecture_code": 24,
    "city": "度会郡南伊勢町",
    "city_kana": "ワタライグンミナミイセチョウ",
    "town": "泉",
    "town_kana": "イズミ",
    "street": null,
    "office_name": null,
    "office_name_kana": null
  },
  "0104": {
    "postcode": "5160104",
    "prefecture": "三重県",
    "prefecture_kana": "ミエケン",
    "prefecture_code": 24,
    "city": "度会郡南伊勢町",
    "city_kana": "ワタライグンミナミイセチョウ",
    "town": "神津佐",
    "town_kana": "コンサ",
    "street": null,
    "office_name": null,
    "office_name_kana": null
  },
  "0105": {
    "postcode": "5160105",
    "prefecture": "三重県",
    "prefecture_kana": "ミエケン",
    "prefecture_code": 24,
    "city": "度会郡南伊勢町",
    "city_kana": "ワタライグンミナミイセチョウ",
    "town": "下津浦",
    "town_kana": "シモツウラ",
    "street": null,
    "office_name": null,
    "office_name_kana": null
  },
  "0106": {
    "postcode": "5160106",
    "prefecture": "三重県",
    "prefecture_kana": "ミエケン",
    "prefecture_code": 24,
    "city": "度会郡南伊勢町",
    "city_kana": "ワタライグンミナミイセチョウ",
    "town": "木谷",
    "town_kana": "キダニ",
    "street": null,
    "office_name": null,
    "office_name_kana": null
  },
  "0107": {
    "postcode": "5160107",
    "prefecture": "三重県",
    "prefecture_kana": "ミエケン",
    "prefecture_code": 24,
    "city": "度会郡南伊勢町",
    "city_kana": "ワタライグンミナミイセチョウ",
    "town": "飯満",
    "town_kana": "ハンマ",
    "street": null,
    "office_name": null,
    "office_name_kana": null
  },
  "0108": {
    "postcode": "5160108",
    "prefecture": "三重県",
    "prefecture_kana": "ミエケン",
    "prefecture_code": 24,
    "city": "度会郡南伊勢町",
    "city_kana": "ワタライグンミナミイセチョウ",
    "town": "中津浜浦",
    "town_kana": "ナカツハマウラ",
    "street": null,
    "office_name": null,
    "office_name_kana": null
  },
  "0109": {
    "postcode": "5160109",
    "prefecture": "三重県",
    "prefecture_kana": "ミエケン",
    "prefecture_code": 24,
    "city": "度会郡南伊勢町",
    "city_kana": "ワタライグンミナミイセチョウ",
    "town": "船越",
    "town_kana": "フナコシ",
    "street": null,
    "office_name": null,
    "office_name_kana": null
  },
  "0111": {
    "postcode": "5160111",
    "prefecture": "三重県",
    "prefecture_kana": "ミエケン",
    "prefecture_code": 24,
    "city": "度会郡南伊勢町",
    "city_kana": "ワタライグンミナミイセチョウ",
    "town": "内瀬",
    "town_kana": "ナイゼ",
    "street": null,
    "office_name": null,
    "office_name_kana": null
  },
  "0112": {
    "postcode": "5160112",
    "prefecture": "三重県",
    "prefecture_kana": "ミエケン",
    "prefecture_code": 24,
    "city": "度会郡南伊勢町",
    "city_kana": "ワタライグンミナミイセチョウ",
    "town": "伊勢路",
    "town_kana": "イセジ",
    "street": null,
    "office_name": null,
    "office_name_kana": null
  },
  "0113": {
    "postcode": "5160113",
    "prefecture": "三重県",
    "prefecture_kana": "ミエケン",
    "prefecture_code": 24,
    "city": "度会郡南伊勢町",
    "city_kana": "ワタライグンミナミイセチョウ",
    "town": "斎田",
    "town_kana": "サイタ",
    "street": null,
    "office_name": null,
    "office_name_kana": null
  },
  "0114": {
    "postcode": "5160114",
    "prefecture": "三重県",
    "prefecture_kana": "ミエケン",
    "prefecture_code": 24,
    "city": "度会郡南伊勢町",
    "city_kana": "ワタライグンミナミイセチョウ",
    "town": "始神",
    "town_kana": "ハジカミ",
    "street": null,
    "office_name": null,
    "office_name_kana": null
  },
  "0115": {
    "postcode": "5160115",
    "prefecture": "三重県",
    "prefecture_kana": "ミエケン",
    "prefecture_code": 24,
    "city": "度会郡南伊勢町",
    "city_kana": "ワタライグンミナミイセチョウ",
    "town": "押渕",
    "town_kana": "オシブチ",
    "street": null,
    "office_name": null,
    "office_name_kana": null
  },
  "0116": {
    "postcode": "5160116",
    "prefecture": "三重県",
    "prefecture_kana": "ミエケン",
    "prefecture_code": 24,
    "city": "度会郡南伊勢町",
    "city_kana": "ワタライグンミナミイセチョウ",
    "town": "迫間浦",
    "town_kana": "ハサマウラ",
    "street": null,
    "office_name": null,
    "office_name_kana": null
  },
  "0117": {
    "postcode": "5160117",
    "prefecture": "三重県",
    "prefecture_kana": "ミエケン",
    "prefecture_code": 24,
    "city": "度会郡南伊勢町",
    "city_kana": "ワタライグンミナミイセチョウ",
    "town": "礫浦",
    "town_kana": "サザラウラ",
    "street": null,
    "office_name": null,
    "office_name_kana": null
  },
  "0118": {
    "postcode": "5160118",
    "prefecture": "三重県",
    "prefecture_kana": "ミエケン",
    "prefecture_code": 24,
    "city": "度会郡南伊勢町",
    "city_kana": "ワタライグンミナミイセチョウ",
    "town": "相賀浦",
    "town_kana": "オウカウラ",
    "street": null,
    "office_name": null,
    "office_name_kana": null
  },
  "0192": {
    "postcode": "5160192",
    "prefecture": "三重県",
    "prefecture_kana": "ミエケン",
    "prefecture_code": 24,
    "city": "度会郡南伊勢町",
    "city_kana": "ワタライグンミナミイセチョウ",
    "town": "迫間浦",
    "town_kana": "ハサマウラ",
    "street": "１３０６−１",
    "office_name": "株式会社　ネットアール",
    "office_name_kana": "カブシキガイシヤ ネツトア-ル"
  },
  "0193": {
    "postcode": "5160193",
    "prefecture": "三重県",
    "prefecture_kana": "ミエケン",
    "prefecture_code": 24,
    "city": "度会郡南伊勢町",
    "city_kana": "ワタライグンミナミイセチョウ",
    "town": "中津浜浦",
    "town_kana": "ナカツハマウラ",
    "street": "４２２−１",
    "office_name": "独立行政法人　水産総合研究センター　養殖研究所",
    "office_name_kana": "ドクリツギヨウセイホウジン スイサンソウゴウケンキユウセンタ- ヨウシヨクケンキユウジヨ"
  },
  "0194": {
    "postcode": "5160194",
    "prefecture": "三重県",
    "prefecture_kana": "ミエケン",
    "prefecture_code": 24,
    "city": "度会郡南伊勢町",
    "city_kana": "ワタライグンミナミイセチョウ",
    "town": "五ケ所浦",
    "town_kana": "ゴカショウラ",
    "street": "３０５７",
    "office_name": "南伊勢町役場　南勢庁舎",
    "office_name_kana": "ミナミイセチヨウヤクバ ナンセイチヨウシヤ"
  },
  "0198": {
    "postcode": "5160198",
    "prefecture": "三重県",
    "prefecture_kana": "ミエケン",
    "prefecture_code": 24,
    "city": "度会郡南伊勢町",
    "city_kana": "ワタライグンミナミイセチョウ",
    "town": "五ケ所浦",
    "town_kana": "ゴカショウラ",
    "street": "３９１７",
    "office_name": "楓幸房",
    "office_name_kana": "カエデコウボウ"
  },
  "0221": {
    "postcode": "5160221",
    "prefecture": "三重県",
    "prefecture_kana": "ミエケン",
    "prefecture_code": 24,
    "city": "度会郡南伊勢町",
    "city_kana": "ワタライグンミナミイセチョウ",
    "town": "宿浦",
    "town_kana": "シュクウラ",
    "street": null,
    "office_name": null,
    "office_name_kana": null
  },
  "0222": {
    "postcode": "5160222",
    "prefecture": "三重県",
    "prefecture_kana": "ミエケン",
    "prefecture_code": 24,
    "city": "度会郡南伊勢町",
    "city_kana": "ワタライグンミナミイセチョウ",
    "town": "田曽浦",
    "town_kana": "タソウラ",
    "street": null,
    "office_name": null,
    "office_name_kana": null
  },
  "0801": {
    "postcode": "5160801",
    "prefecture": "三重県",
    "prefecture_kana": "ミエケン",
    "prefecture_code": 24,
    "city": "伊勢市",
    "city_kana": "イセシ",
    "town": "御薗町小林",
    "town_kana": "ミソノチョウオハヤシ",
    "street": null,
    "office_name": null,
    "office_name_kana": null
  },
  "0802": {
    "postcode": "5160802",
    "prefecture": "三重県",
    "prefecture_kana": "ミエケン",
    "prefecture_code": 24,
    "city": "伊勢市",
    "city_kana": "イセシ",
    "town": "御薗町新開",
    "town_kana": "ミソノチョウシンガイ",
    "street": null,
    "office_name": null,
    "office_name_kana": null
  },
  "0803": {
    "postcode": "5160803",
    "prefecture": "三重県",
    "prefecture_kana": "ミエケン",
    "prefecture_code": 24,
    "city": "伊勢市",
    "city_kana": "イセシ",
    "town": "御薗町王中島",
    "town_kana": "ミソノチョウオウナカジマ",
    "street": null,
    "office_name": null,
    "office_name_kana": null
  },
  "0804": {
    "postcode": "5160804",
    "prefecture": "三重県",
    "prefecture_kana": "ミエケン",
    "prefecture_code": 24,
    "city": "伊勢市",
    "city_kana": "イセシ",
    "town": "御薗町長屋",
    "town_kana": "ミソノチョウナガヤ",
    "street": null,
    "office_name": null,
    "office_name_kana": null
  },
  "0805": {
    "postcode": "5160805",
    "prefecture": "三重県",
    "prefecture_kana": "ミエケン",
    "prefecture_code": 24,
    "city": "伊勢市",
    "city_kana": "イセシ",
    "town": "御薗町高向",
    "town_kana": "ミソノチョウタカブク",
    "street": null,
    "office_name": null,
    "office_name_kana": null
  },
  "0806": {
    "postcode": "5160806",
    "prefecture": "三重県",
    "prefecture_kana": "ミエケン",
    "prefecture_code": 24,
    "city": "伊勢市",
    "city_kana": "イセシ",
    "town": "御薗町上條",
    "town_kana": "ミソノチョウカミジョウ",
    "street": null,
    "office_name": null,
    "office_name_kana": null
  },
  "1101": {
    "postcode": "5161101",
    "prefecture": "三重県",
    "prefecture_kana": "ミエケン",
    "prefecture_code": 24,
    "city": "伊勢市",
    "city_kana": "イセシ",
    "town": "大倉町",
    "town_kana": "オオクラチョウ",
    "street": null,
    "office_name": null,
    "office_name_kana": null
  },
  "1102": {
    "postcode": "5161102",
    "prefecture": "三重県",
    "prefecture_kana": "ミエケン",
    "prefecture_code": 24,
    "city": "伊勢市",
    "city_kana": "イセシ",
    "town": "佐八町",
    "town_kana": "ソウチチョウ",
    "street": null,
    "office_name": null,
    "office_name_kana": null
  },
  "1103": {
    "postcode": "5161103",
    "prefecture": "三重県",
    "prefecture_kana": "ミエケン",
    "prefecture_code": 24,
    "city": "伊勢市",
    "city_kana": "イセシ",
    "town": "津村町",
    "town_kana": "ツムラチョウ",
    "street": null,
    "office_name": null,
    "office_name_kana": null
  },
  "1104": {
    "postcode": "5161104",
    "prefecture": "三重県",
    "prefecture_kana": "ミエケン",
    "prefecture_code": 24,
    "city": "伊勢市",
    "city_kana": "イセシ",
    "town": "上野町",
    "town_kana": "ウエノチョウ",
    "street": null,
    "office_name": null,
    "office_name_kana": null
  },
  "1105": {
    "postcode": "5161105",
    "prefecture": "三重県",
    "prefecture_kana": "ミエケン",
    "prefecture_code": 24,
    "city": "伊勢市",
    "city_kana": "イセシ",
    "town": "矢持町",
    "town_kana": "ヤモチチョウ",
    "street": null,
    "office_name": null,
    "office_name_kana": null
  },
  "1106": {
    "postcode": "5161106",
    "prefecture": "三重県",
    "prefecture_kana": "ミエケン",
    "prefecture_code": 24,
    "city": "伊勢市",
    "city_kana": "イセシ",
    "town": "横輪町",
    "town_kana": "ヨコワチョウ",
    "street": null,
    "office_name": null,
    "office_name_kana": null
  },
  "1107": {
    "postcode": "5161107",
    "prefecture": "三重県",
    "prefecture_kana": "ミエケン",
    "prefecture_code": 24,
    "city": "伊勢市",
    "city_kana": "イセシ",
    "town": "神薗町",
    "town_kana": "カミソノチョウ",
    "street": null,
    "office_name": null,
    "office_name_kana": null
  },
  "1108": {
    "postcode": "5161108",
    "prefecture": "三重県",
    "prefecture_kana": "ミエケン",
    "prefecture_code": 24,
    "city": "伊勢市",
    "city_kana": "イセシ",
    "town": "円座町",
    "town_kana": "エンザチョウ",
    "street": null,
    "office_name": null,
    "office_name_kana": null
  },
  "1192": {
    "postcode": "5161192",
    "prefecture": "三重県",
    "prefecture_kana": "ミエケン",
    "prefecture_code": 24,
    "city": "伊勢市",
    "city_kana": "イセシ",
    "town": "上野町",
    "town_kana": "ウエノチョウ",
    "street": "字和田７００",
    "office_name": "伊勢電子工業　株式会社",
    "office_name_kana": "イセデンシコウギヨウ カブシキガイシヤ"
  },
  "1195": {
    "postcode": "5161195",
    "prefecture": "三重県",
    "prefecture_kana": "ミエケン",
    "prefecture_code": 24,
    "city": "伊勢市",
    "city_kana": "イセシ",
    "town": "佐八町",
    "town_kana": "ソウチチョウ",
    "street": "字池の上１１６５−１",
    "office_name": "ウェルサンピア伊勢（三重厚生年金休暇センター）",
    "office_name_kana": "ウエルサンピアイセ(ミエコウセイネンキンキユウカセンタ-)"
  },
  "1196": {
    "postcode": "5161196",
    "prefecture": "三重県",
    "prefecture_kana": "ミエケン",
    "prefecture_code": 24,
    "city": "伊勢市",
    "city_kana": "イセシ",
    "town": "円座町",
    "town_kana": "エンザチョウ",
    "street": "字細越８７１−６",
    "office_name": "日本特殊陶業　株式会社　伊勢工場",
    "office_name_kana": "ニツポントクシユトウギヨウ カブシキガイシヤ イセコウジヨウ"
  },
  "1198": {
    "postcode": "5161198",
    "prefecture": "三重県",
    "prefecture_kana": "ミエケン",
    "prefecture_code": 24,
    "city": "伊勢市",
    "city_kana": "イセシ",
    "town": "佐八町",
    "town_kana": "ソウチチョウ",
    "street": "１２４８",
    "office_name": "株式会社　玉木鐵鋼所",
    "office_name_kana": "カブシキガイシヤ タマキテツコウシヨ"
  },
  "1231": {
    "postcode": "5161231",
    "prefecture": "三重県",
    "prefecture_kana": "ミエケン",
    "prefecture_code": 24,
    "city": "度会郡度会町",
    "city_kana": "ワタライグンワタライチョウ",
    "town": "川口",
    "town_kana": "カワグチ",
    "street": null,
    "office_name": null,
    "office_name_kana": null
  },
  "1232": {
    "postcode": "5161232",
    "prefecture": "三重県",
    "prefecture_kana": "ミエケン",
    "prefecture_code": 24,
    "city": "度会郡度会町",
    "city_kana": "ワタライグンワタライチョウ",
    "town": "栗原",
    "town_kana": "クリハラ",
    "street": null,
    "office_name": null,
    "office_name_kana": null
  },
  "1233": {
    "postcode": "5161233",
    "prefecture": "三重県",
    "prefecture_kana": "ミエケン",
    "prefecture_code": 24,
    "city": "度会郡度会町",
    "city_kana": "ワタライグンワタライチョウ",
    "town": "日向",
    "town_kana": "ヒナタ",
    "street": null,
    "office_name": null,
    "office_name_kana": null
  },
  "1234": {
    "postcode": "5161234",
    "prefecture": "三重県",
    "prefecture_kana": "ミエケン",
    "prefecture_code": 24,
    "city": "度会郡度会町",
    "city_kana": "ワタライグンワタライチョウ",
    "town": "火打石",
    "town_kana": "ヒウチイシ",
    "street": null,
    "office_name": null,
    "office_name_kana": null
  },
  "1235": {
    "postcode": "5161235",
    "prefecture": "三重県",
    "prefecture_kana": "ミエケン",
    "prefecture_code": 24,
    "city": "度会郡度会町",
    "city_kana": "ワタライグンワタライチョウ",
    "town": "駒ケ野",
    "town_kana": "コマガノ",
    "street": null,
    "office_name": null,
    "office_name_kana": null
  },
  "1236": {
    "postcode": "5161236",
    "prefecture": "三重県",
    "prefecture_kana": "ミエケン",
    "prefecture_code": 24,
    "city": "度会郡度会町",
    "city_kana": "ワタライグンワタライチョウ",
    "town": "小川",
    "town_kana": "オガワ",
    "street": null,
    "office_name": null,
    "office_name_kana": null
  },
  "1237": {
    "postcode": "5161237",
    "prefecture": "三重県",
    "prefecture_kana": "ミエケン",
    "prefecture_code": 24,
    "city": "度会郡度会町",
    "city_kana": "ワタライグンワタライチョウ",
    "town": "五ケ町",
    "town_kana": "ゴカノチョウ",
    "street": null,
    "office_name": null,
    "office_name_kana": null
  },
  "1238": {
    "postcode": "5161238",
    "prefecture": "三重県",
    "prefecture_kana": "ミエケン",
    "prefecture_code": 24,
    "city": "度会郡度会町",
    "city_kana": "ワタライグンワタライチョウ",
    "town": "中之郷",
    "town_kana": "ナカノゴウ",
    "street": null,
    "office_name": null,
    "office_name_kana": null
  },
  "1241": {
    "postcode": "5161241",
    "prefecture": "三重県",
    "prefecture_kana": "ミエケン",
    "prefecture_code": 24,
    "city": "度会郡度会町",
    "city_kana": "ワタライグンワタライチョウ",
    "town": "柳",
    "town_kana": "ヤナギ",
    "street": null,
    "office_name": null,
    "office_name_kana": null
  },
  "1242": {
    "postcode": "5161242",
    "prefecture": "三重県",
    "prefecture_kana": "ミエケン",
    "prefecture_code": 24,
    "city": "度会郡度会町",
    "city_kana": "ワタライグンワタライチョウ",
    "town": "市場",
    "town_kana": "イチバ",
    "street": null,
    "office_name": null,
    "office_name_kana": null
  },
  "1243": {
    "postcode": "5161243",
    "prefecture": "三重県",
    "prefecture_kana": "ミエケン",
    "prefecture_code": 24,
    "city": "度会郡度会町",
    "city_kana": "ワタライグンワタライチョウ",
    "town": "和井野",
    "town_kana": "ワイノ",
    "street": null,
    "office_name": null,
    "office_name_kana": null
  },
  "1244": {
    "postcode": "5161244",
    "prefecture": "三重県",
    "prefecture_kana": "ミエケン",
    "prefecture_code": 24,
    "city": "度会郡度会町",
    "city_kana": "ワタライグンワタライチョウ",
    "town": "南中村",
    "town_kana": "ミナミナカムラ",
    "street": null,
    "office_name": null,
    "office_name_kana": null
  },
  "1245": {
    "postcode": "5161245",
    "prefecture": "三重県",
    "prefecture_kana": "ミエケン",
    "prefecture_code": 24,
    "city": "度会郡度会町",
    "city_kana": "ワタライグンワタライチョウ",
    "town": "川上",
    "town_kana": "カワカミ",
    "street": null,
    "office_name": null,
    "office_name_kana": null
  },
  "1246": {
    "postcode": "5161246",
    "prefecture": "三重県",
    "prefecture_kana": "ミエケン",
    "prefecture_code": 24,
    "city": "度会郡度会町",
    "city_kana": "ワタライグンワタライチョウ",
    "town": "脇出",
    "town_kana": "ワキデ",
    "street": null,
    "office_name": null,
    "office_name_kana": null
  },
  "1247": {
    "postcode": "5161247",
    "prefecture": "三重県",
    "prefecture_kana": "ミエケン",
    "prefecture_code": 24,
    "city": "度会郡度会町",
    "city_kana": "ワタライグンワタライチョウ",
    "town": "小萩",
    "town_kana": "コハギ",
    "street": null,
    "office_name": null,
    "office_name_kana": null
  },
  "1301": {
    "postcode": "5161301",
    "prefecture": "三重県",
    "prefecture_kana": "ミエケン",
    "prefecture_code": 24,
    "city": "度会郡南伊勢町",
    "city_kana": "ワタライグンミナミイセチョウ",
    "town": "道方",
    "town_kana": "ミチカタ",
    "street": null,
    "office_name": null,
    "office_name_kana": null
  },
  "1302": {
    "postcode": "5161302",
    "prefecture": "三重県",
    "prefecture_kana": "ミエケン",
    "prefecture_code": 24,
    "city": "度会郡南伊勢町",
    "city_kana": "ワタライグンミナミイセチョウ",
    "town": "大江",
    "town_kana": "オオエ",
    "street": null,
    "office_name": null,
    "office_name_kana": null
  },
  "1303": {
    "postcode": "5161303",
    "prefecture": "三重県",
    "prefecture_kana": "ミエケン",
    "prefecture_code": 24,
    "city": "度会郡南伊勢町",
    "city_kana": "ワタライグンミナミイセチョウ",
    "town": "道行竈",
    "town_kana": "ミチユクガマ",
    "street": null,
    "office_name": null,
    "office_name_kana": null
  },
  "1304": {
    "postcode": "5161304",
    "prefecture": "三重県",
    "prefecture_kana": "ミエケン",
    "prefecture_code": 24,
    "city": "度会郡南伊勢町",
    "city_kana": "ワタライグンミナミイセチョウ",
    "town": "大方竈",
    "town_kana": "オオカタガマ",
    "street": null,
    "office_name": null,
    "office_name_kana": null
  },
  "1305": {
    "postcode": "5161305",
    "prefecture": "三重県",
    "prefecture_kana": "ミエケン",
    "prefecture_code": 24,
    "city": "度会郡南伊勢町",
    "city_kana": "ワタライグンミナミイセチョウ",
    "town": "阿曽浦",
    "town_kana": "アソウラ",
    "street": null,
    "office_name": null,
    "office_name_kana": null
  },
  "1306": {
    "postcode": "5161306",
    "prefecture": "三重県",
    "prefecture_kana": "ミエケン",
    "prefecture_code": 24,
    "city": "度会郡南伊勢町",
    "city_kana": "ワタライグンミナミイセチョウ",
    "town": "慥柄浦",
    "town_kana": "タシカラウラ",
    "street": null,
    "office_name": null,
    "office_name_kana": null
  },
  "1307": {
    "postcode": "5161307",
    "prefecture": "三重県",
    "prefecture_kana": "ミエケン",
    "prefecture_code": 24,
    "city": "度会郡南伊勢町",
    "city_kana": "ワタライグンミナミイセチョウ",
    "town": "贄浦",
    "town_kana": "ニエウラ",
    "street": null,
    "office_name": null,
    "office_name_kana": null
  },
  "1308": {
    "postcode": "5161308",
    "prefecture": "三重県",
    "prefecture_kana": "ミエケン",
    "prefecture_code": 24,
    "city": "度会郡南伊勢町",
    "city_kana": "ワタライグンミナミイセチョウ",
    "town": "奈屋浦",
    "town_kana": "ナヤウラ",
    "street": null,
    "office_name": null,
    "office_name_kana": null
  },
  "1309": {
    "postcode": "5161309",
    "prefecture": "三重県",
    "prefecture_kana": "ミエケン",
    "prefecture_code": 24,
    "city": "度会郡南伊勢町",
    "city_kana": "ワタライグンミナミイセチョウ",
    "town": "東宮",
    "town_kana": "トウグウ",
    "street": null,
    "office_name": null,
    "office_name_kana": null
  },
  "1421": {
    "postcode": "5161421",
    "prefecture": "三重県",
    "prefecture_kana": "ミエケン",
    "prefecture_code": 24,
    "city": "度会郡南伊勢町",
    "city_kana": "ワタライグンミナミイセチョウ",
    "town": "河内",
    "town_kana": "コウチ",
    "street": null,
    "office_name": null,
    "office_name_kana": null
  },
  "1422": {
    "postcode": "5161422",
    "prefecture": "三重県",
    "prefecture_kana": "ミエケン",
    "prefecture_code": 24,
    "city": "度会郡南伊勢町",
    "city_kana": "ワタライグンミナミイセチョウ",
    "town": "神前浦",
    "town_kana": "カミサキウラ",
    "street": null,
    "office_name": null,
    "office_name_kana": null
  },
  "1423": {
    "postcode": "5161423",
    "prefecture": "三重県",
    "prefecture_kana": "ミエケン",
    "prefecture_code": 24,
    "city": "度会郡南伊勢町",
    "city_kana": "ワタライグンミナミイセチョウ",
    "town": "村山",
    "town_kana": "ムラヤマ",
    "street": null,
    "office_name": null,
    "office_name_kana": null
  },
  "1492": {
    "postcode": "5161492",
    "prefecture": "三重県",
    "prefecture_kana": "ミエケン",
    "prefecture_code": 24,
    "city": "度会郡南伊勢町",
    "city_kana": "ワタライグンミナミイセチョウ",
    "town": "神前浦",
    "town_kana": "カミサキウラ",
    "street": "１５",
    "office_name": "南伊勢町役場　南島庁舎",
    "office_name_kana": "ミナミイセチヨウヤクバ ナントウチヨウシヤ"
  },
  "1531": {
    "postcode": "5161531",
    "prefecture": "三重県",
    "prefecture_kana": "ミエケン",
    "prefecture_code": 24,
    "city": "度会郡南伊勢町",
    "city_kana": "ワタライグンミナミイセチョウ",
    "town": "方座浦",
    "town_kana": "ホウザウラ",
    "street": null,
    "office_name": null,
    "office_name_kana": null
  },
  "1532": {
    "postcode": "5161532",
    "prefecture": "三重県",
    "prefecture_kana": "ミエケン",
    "prefecture_code": 24,
    "city": "度会郡南伊勢町",
    "city_kana": "ワタライグンミナミイセチョウ",
    "town": "小方竈",
    "town_kana": "オガタガマ",
    "street": null,
    "office_name": null,
    "office_name_kana": null
  },
  "1533": {
    "postcode": "5161533",
    "prefecture": "三重県",
    "prefecture_kana": "ミエケン",
    "prefecture_code": 24,
    "city": "度会郡南伊勢町",
    "city_kana": "ワタライグンミナミイセチョウ",
    "town": "栃木竈",
    "town_kana": "トチノキガマ",
    "street": null,
    "office_name": null,
    "office_name_kana": null
  },
  "1534": {
    "postcode": "5161534",
    "prefecture": "三重県",
    "prefecture_kana": "ミエケン",
    "prefecture_code": 24,
    "city": "度会郡南伊勢町",
    "city_kana": "ワタライグンミナミイセチョウ",
    "town": "古和浦",
    "town_kana": "コワウラ",
    "street": null,
    "office_name": null,
    "office_name_kana": null
  },
  "1535": {
    "postcode": "5161535",
    "prefecture": "三重県",
    "prefecture_kana": "ミエケン",
    "prefecture_code": 24,
    "city": "度会郡南伊勢町",
    "city_kana": "ワタライグンミナミイセチョウ",
    "town": "棚橋竈",
    "town_kana": "タナハシガマ",
    "street": null,
    "office_name": null,
    "office_name_kana": null
  },
  "1536": {
    "postcode": "5161536",
    "prefecture": "三重県",
    "prefecture_kana": "ミエケン",
    "prefecture_code": 24,
    "city": "度会郡南伊勢町",
    "city_kana": "ワタライグンミナミイセチョウ",
    "town": "新桑竈",
    "town_kana": "サラクワガマ",
    "street": null,
    "office_name": null,
    "office_name_kana": null
  },
  "2100": {
    "postcode": "5162100",
    "prefecture": "三重県",
    "prefecture_kana": "ミエケン",
    "prefecture_code": 24,
    "city": "度会郡度会町",
    "city_kana": "ワタライグンワタライチョウ",
    "town": "",
    "town_kana": "",
    "street": null,
    "office_name": null,
    "office_name_kana": null
  },
  "2101": {
    "postcode": "5162101",
    "prefecture": "三重県",
    "prefecture_kana": "ミエケン",
    "prefecture_code": 24,
    "city": "度会郡度会町",
    "city_kana": "ワタライグンワタライチョウ",
    "town": "葛原",
    "town_kana": "クズワラ",
    "street": null,
    "office_name": null,
    "office_name_kana": null
  },
  "2102": {
    "postcode": "5162102",
    "prefecture": "三重県",
    "prefecture_kana": "ミエケン",
    "prefecture_code": 24,
    "city": "度会郡度会町",
    "city_kana": "ワタライグンワタライチョウ",
    "town": "大野木",
    "town_kana": "オオノキ",
    "street": null,
    "office_name": null,
    "office_name_kana": null
  },
  "2103": {
    "postcode": "5162103",
    "prefecture": "三重県",
    "prefecture_kana": "ミエケン",
    "prefecture_code": 24,
    "city": "度会郡度会町",
    "city_kana": "ワタライグンワタライチョウ",
    "town": "棚橋",
    "town_kana": "タナハシ",
    "street": null,
    "office_name": null,
    "office_name_kana": null
  },
  "2104": {
    "postcode": "5162104",
    "prefecture": "三重県",
    "prefecture_kana": "ミエケン",
    "prefecture_code": 24,
    "city": "度会郡度会町",
    "city_kana": "ワタライグンワタライチョウ",
    "town": "牧戸",
    "town_kana": "マキド",
    "street": null,
    "office_name": null,
    "office_name_kana": null
  },
  "2105": {
    "postcode": "5162105",
    "prefecture": "三重県",
    "prefecture_kana": "ミエケン",
    "prefecture_code": 24,
    "city": "度会郡度会町",
    "city_kana": "ワタライグンワタライチョウ",
    "town": "平生",
    "town_kana": "ヒロオ",
    "street": null,
    "office_name": null,
    "office_name_kana": null
  },
  "2106": {
    "postcode": "5162106",
    "prefecture": "三重県",
    "prefecture_kana": "ミエケン",
    "prefecture_code": 24,
    "city": "度会郡度会町",
    "city_kana": "ワタライグンワタライチョウ",
    "town": "大久保",
    "town_kana": "オオクボ",
    "street": null,
    "office_name": null,
    "office_name_kana": null
  },
  "2107": {
    "postcode": "5162107",
    "prefecture": "三重県",
    "prefecture_kana": "ミエケン",
    "prefecture_code": 24,
    "city": "度会郡度会町",
    "city_kana": "ワタライグンワタライチョウ",
    "town": "立岡",
    "town_kana": "タチオカ",
    "street": null,
    "office_name": null,
    "office_name_kana": null
  },
  "2108": {
    "postcode": "5162108",
    "prefecture": "三重県",
    "prefecture_kana": "ミエケン",
    "prefecture_code": 24,
    "city": "度会郡度会町",
    "city_kana": "ワタライグンワタライチョウ",
    "town": "鮠川",
    "town_kana": "ハイカワ",
    "street": null,
    "office_name": null,
    "office_name_kana": null
  },
  "2111": {
    "postcode": "5162111",
    "prefecture": "三重県",
    "prefecture_kana": "ミエケン",
    "prefecture_code": 24,
    "city": "度会郡度会町",
    "city_kana": "ワタライグンワタライチョウ",
    "town": "下久具",
    "town_kana": "シモクグ",
    "street": null,
    "office_name": null,
    "office_name_kana": null
  },
  "2112": {
    "postcode": "5162112",
    "prefecture": "三重県",
    "prefecture_kana": "ミエケン",
    "prefecture_code": 24,
    "city": "度会郡度会町",
    "city_kana": "ワタライグンワタライチョウ",
    "town": "上久具",
    "town_kana": "カミクグ",
    "street": null,
    "office_name": null,
    "office_name_kana": null
  },
  "2113": {
    "postcode": "5162113",
    "prefecture": "三重県",
    "prefecture_kana": "ミエケン",
    "prefecture_code": 24,
    "city": "度会郡度会町",
    "city_kana": "ワタライグンワタライチョウ",
    "town": "田間",
    "town_kana": "タマ",
    "street": null,
    "office_name": null,
    "office_name_kana": null
  },
  "2114": {
    "postcode": "5162114",
    "prefecture": "三重県",
    "prefecture_kana": "ミエケン",
    "prefecture_code": 24,
    "city": "度会郡度会町",
    "city_kana": "ワタライグンワタライチョウ",
    "town": "当津",
    "town_kana": "トウヅ",
    "street": null,
    "office_name": null,
    "office_name_kana": null
  },
  "2115": {
    "postcode": "5162115",
    "prefecture": "三重県",
    "prefecture_kana": "ミエケン",
    "prefecture_code": 24,
    "city": "度会郡度会町",
    "city_kana": "ワタライグンワタライチョウ",
    "town": "長原",
    "town_kana": "ナガワラ",
    "street": null,
    "office_name": null,
    "office_name_kana": null
  },
  "2116": {
    "postcode": "5162116",
    "prefecture": "三重県",
    "prefecture_kana": "ミエケン",
    "prefecture_code": 24,
    "city": "度会郡度会町",
    "city_kana": "ワタライグンワタライチョウ",
    "town": "坂井",
    "town_kana": "サカイ",
    "street": null,
    "office_name": null,
    "office_name_kana": null
  },
  "2117": {
    "postcode": "5162117",
    "prefecture": "三重県",
    "prefecture_kana": "ミエケン",
    "prefecture_code": 24,
    "city": "度会郡度会町",
    "city_kana": "ワタライグンワタライチョウ",
    "town": "麻加江",
    "town_kana": "マカエ",
    "street": null,
    "office_name": null,
    "office_name_kana": null
  },
  "2118": {
    "postcode": "5162118",
    "prefecture": "三重県",
    "prefecture_kana": "ミエケン",
    "prefecture_code": 24,
    "city": "度会郡度会町",
    "city_kana": "ワタライグンワタライチョウ",
    "town": "田口",
    "town_kana": "タグチ",
    "street": null,
    "office_name": null,
    "office_name_kana": null
  },
  "2119": {
    "postcode": "5162119",
    "prefecture": "三重県",
    "prefecture_kana": "ミエケン",
    "prefecture_code": 24,
    "city": "度会郡度会町",
    "city_kana": "ワタライグンワタライチョウ",
    "town": "注連指",
    "town_kana": "シメサス",
    "street": null,
    "office_name": null,
    "office_name_kana": null
  },
  "2195": {
    "postcode": "5162195",
    "prefecture": "三重県",
    "prefecture_kana": "ミエケン",
    "prefecture_code": 24,
    "city": "度会郡度会町",
    "city_kana": "ワタライグンワタライチョウ",
    "town": "棚橋",
    "town_kana": "タナハシ",
    "street": "１２１５−１",
    "office_name": "度会町役場",
    "office_name_kana": "ワタライチヨウヤクバ"
  },
  "8501": {
    "postcode": "5168501",
    "prefecture": "三重県",
    "prefecture_kana": "ミエケン",
    "prefecture_code": 24,
    "city": "伊勢市",
    "city_kana": "イセシ",
    "town": "御薗町長屋",
    "town_kana": "ミソノチョウナガヤ",
    "street": "１２２１",
    "office_name": "伊勢市御薗総合支所",
    "office_name_kana": "イセシミソノソウゴウシシヨ"
  },
  "8502": {
    "postcode": "5168502",
    "prefecture": "三重県",
    "prefecture_kana": "ミエケン",
    "prefecture_code": 24,
    "city": "伊勢市",
    "city_kana": "イセシ",
    "town": "磯町",
    "town_kana": "イソチョウ",
    "street": "字尾立２２２５",
    "office_name": "伊勢市立　御薗中学校",
    "office_name_kana": "イセシリツ ミソノチユウガツコウ"
  },
  "8503": {
    "postcode": "5168503",
    "prefecture": "三重県",
    "prefecture_kana": "ミエケン",
    "prefecture_code": 24,
    "city": "伊勢市",
    "city_kana": "イセシ",
    "town": "岡本",
    "town_kana": "オカモト",
    "street": "１丁目１番１３号",
    "office_name": "津地方法務局　伊勢支部",
    "office_name_kana": "ツチホウホウムキヨク イセシブ"
  },
  "8505": {
    "postcode": "5168505",
    "prefecture": "三重県",
    "prefecture_kana": "ミエケン",
    "prefecture_code": 24,
    "city": "伊勢市",
    "city_kana": "イセシ",
    "town": "大世古",
    "town_kana": "オオゼコ",
    "street": "１丁目５−１３",
    "office_name": "有限会社　弥次喜多",
    "office_name_kana": "ユウゲンガイシヤ ヤジキタ"
  },
  "8511": {
    "postcode": "5168511",
    "prefecture": "三重県",
    "prefecture_kana": "ミエケン",
    "prefecture_code": 24,
    "city": "伊勢市",
    "city_kana": "イセシ",
    "town": "岩渕",
    "town_kana": "イワブチ",
    "street": "１丁目２−２４",
    "office_name": "伊勢税務署",
    "office_name_kana": "イセゼイムシヨ"
  },
  "8512": {
    "postcode": "5168512",
    "prefecture": "三重県",
    "prefecture_kana": "ミエケン",
    "prefecture_code": 24,
    "city": "伊勢市",
    "city_kana": "イセシ",
    "town": "船江",
    "town_kana": "フナエ",
    "street": "１丁目４７１番地２",
    "office_name": "伊勢赤十字病院",
    "office_name_kana": "イセセキジユウジビヨウイン"
  },
  "8515": {
    "postcode": "5168515",
    "prefecture": "三重県",
    "prefecture_kana": "ミエケン",
    "prefecture_code": 24,
    "city": "伊勢市",
    "city_kana": "イセシ",
    "town": "神田久志本町",
    "town_kana": "コウダクシモトチョウ",
    "street": "１７０３−１",
    "office_name": "伊勢高等学校",
    "office_name_kana": "イセコウトウガツコウ"
  },
  "8516": {
    "postcode": "5168516",
    "prefecture": "三重県",
    "prefecture_kana": "ミエケン",
    "prefecture_code": 24,
    "city": "伊勢市",
    "city_kana": "イセシ",
    "town": "楠部町",
    "town_kana": "クスベチョウ",
    "street": "乃木乙",
    "office_name": "ジャスコ　株式会社　新伊勢店",
    "office_name_kana": "ジヤスコ カブシキガイシヤ シンイセテン"
  },
  "8518": {
    "postcode": "5168518",
    "prefecture": "三重県",
    "prefecture_kana": "ミエケン",
    "prefecture_code": 24,
    "city": "伊勢市",
    "city_kana": "イセシ",
    "town": "宇治浦田町",
    "town_kana": null,
    "street": "２−１−１０",
    "office_name": "猿田彦神社社務所",
    "office_name_kana": "サルタヒコジンジヤシヤムシヨ"
  },
  "8520": {
    "postcode": "5168520",
    "prefecture": "三重県",
    "prefecture_kana": "ミエケン",
    "prefecture_code": 24,
    "city": "伊勢市",
    "city_kana": "イセシ",
    "town": "黒瀬町",
    "town_kana": "クロセチョウ",
    "street": "５６２−１２",
    "office_name": "伊勢市生涯学習センター　（いせトピア）",
    "office_name_kana": "イセシシヨウガイガクシユウセンタ- (イセトピア)"
  },
  "8530": {
    "postcode": "5168530",
    "prefecture": "三重県",
    "prefecture_kana": "ミエケン",
    "prefecture_code": 24,
    "city": "伊勢市",
    "city_kana": "イセシ",
    "town": "御薗町高向",
    "town_kana": "ミソノチョウタカブク",
    "street": "１０３８番地",
    "office_name": "横浜ゴム　株式会社　三重工場",
    "office_name_kana": "ヨコハマゴム カブシキガイシヤ ミエコウジヨウ"
  },
  "8533": {
    "postcode": "5168533",
    "prefecture": "三重県",
    "prefecture_kana": "ミエケン",
    "prefecture_code": 24,
    "city": "伊勢市",
    "city_kana": "イセシ",
    "town": "岡本",
    "town_kana": "オカモト",
    "street": "１丁目２−６",
    "office_name": "津地方・家庭裁判所伊勢支部　伊勢簡易裁判所",
    "office_name_kana": "ツチホウ・カテイサイバンシヨイセシブ イセカンイサイバンシヨ"
  },
  "8543": {
    "postcode": "5168543",
    "prefecture": "三重県",
    "prefecture_kana": "ミエケン",
    "prefecture_code": 24,
    "city": "伊勢市",
    "city_kana": "イセシ",
    "town": "宮後",
    "town_kana": "ミヤジリ",
    "street": "１丁目１−３５ＭｉｒａＩＳＥ８階",
    "office_name": "伊勢公共職業安定所",
    "office_name_kana": "イセコウキヨウシヨクギヨウアンテイシヨ"
  },
  "8544": {
    "postcode": "5168544",
    "prefecture": "三重県",
    "prefecture_kana": "ミエケン",
    "prefecture_code": 24,
    "city": "伊勢市",
    "city_kana": "イセシ",
    "town": "竹ケ鼻町",
    "town_kana": "タケガハナチョウ",
    "street": "１００",
    "office_name": "株式会社　神電テクノリサーチ",
    "office_name_kana": "カブシキガイシヤ シンデンテクノリサ-チ"
  },
  "8545": {
    "postcode": "5168545",
    "prefecture": "三重県",
    "prefecture_kana": "ミエケン",
    "prefecture_code": 24,
    "city": "伊勢市",
    "city_kana": "イセシ",
    "town": "竹ケ鼻町",
    "town_kana": "タケガハナチョウ",
    "street": "１００",
    "office_name": "神電ファクトリーサービス　株式会社",
    "office_name_kana": "シンデンフアクトリ-サ-ビス カブシキガイシヤ"
  },
  "8546": {
    "postcode": "5168546",
    "prefecture": "三重県",
    "prefecture_kana": "ミエケン",
    "prefecture_code": 24,
    "city": "伊勢市",
    "city_kana": "イセシ",
    "town": "竹ケ鼻町",
    "town_kana": "タケガハナチョウ",
    "street": "１００",
    "office_name": "神電メタル　株式会社",
    "office_name_kana": "シンデンメタル カブシキガイシヤ"
  },
  "8547": {
    "postcode": "5168547",
    "prefecture": "三重県",
    "prefecture_kana": "ミエケン",
    "prefecture_code": 24,
    "city": "伊勢市",
    "city_kana": "イセシ",
    "town": "竹ケ鼻町",
    "town_kana": "タケガハナチョウ",
    "street": "１００",
    "office_name": "株式会社　セルテクノ",
    "office_name_kana": "カブシキガイシヤ セルテクノ"
  },
  "8548": {
    "postcode": "5168548",
    "prefecture": "三重県",
    "prefecture_kana": "ミエケン",
    "prefecture_code": 24,
    "city": "伊勢市",
    "city_kana": "イセシ",
    "town": "竹ケ鼻町",
    "town_kana": "タケガハナチョウ",
    "street": "１００",
    "office_name": "株式会社　セルワークス",
    "office_name_kana": "カブシキガイシヤ セルワ-クス"
  },
  "8549": {
    "postcode": "5168549",
    "prefecture": "三重県",
    "prefecture_kana": "ミエケン",
    "prefecture_code": 24,
    "city": "伊勢市",
    "city_kana": "イセシ",
    "town": "竹ケ鼻町",
    "town_kana": "タケガハナチョウ",
    "street": "１００",
    "office_name": "神電商事　株式会社　流通営業部",
    "office_name_kana": "シンデンシヨウジ カブシキガイシヤ リユウツウエイギヨウブ"
  },
  "8550": {
    "postcode": "5168550",
    "prefecture": "三重県",
    "prefecture_kana": "ミエケン",
    "prefecture_code": 24,
    "city": "伊勢市",
    "city_kana": "イセシ",
    "town": "竹ケ鼻町",
    "town_kana": "タケガハナチョウ",
    "street": "１００番地",
    "office_name": "シンフォニアテクノロジー　株式会社　伊勢製作所",
    "office_name_kana": "シンフオニアテクノロジ- カブシキガイシヤ イセセイサクシヨ"
  },
  "8551": {
    "postcode": "5168551",
    "prefecture": "三重県",
    "prefecture_kana": "ミエケン",
    "prefecture_code": 24,
    "city": "伊勢市",
    "city_kana": "イセシ",
    "town": "竹ケ鼻町",
    "town_kana": "タケガハナチョウ",
    "street": "１００",
    "office_name": "株式会社　アイシーエス",
    "office_name_kana": "カブシキガイシヤ アイシ-エス"
  },
  "8552": {
    "postcode": "5168552",
    "prefecture": "三重県",
    "prefecture_kana": "ミエケン",
    "prefecture_code": 24,
    "city": "伊勢市",
    "city_kana": "イセシ",
    "town": "竹ケ鼻町",
    "town_kana": "タケガハナチョウ",
    "street": "１００",
    "office_name": "神電商事　株式会社　保険営業部",
    "office_name_kana": "シンデンシヨウジ カブシキガイシヤ ホケンエイギヨウブ"
  },
  "8553": {
    "postcode": "5168553",
    "prefecture": "三重県",
    "prefecture_kana": "ミエケン",
    "prefecture_code": 24,
    "city": "伊勢市",
    "city_kana": "イセシ",
    "town": "竹ケ鼻町",
    "town_kana": "タケガハナチョウ",
    "street": "１００",
    "office_name": "神電エンジニアリング　株式会社",
    "office_name_kana": "シンデンエンジニアリング カブシキガイシヤ"
  },
  "8554": {
    "postcode": "5168554",
    "prefecture": "三重県",
    "prefecture_kana": "ミエケン",
    "prefecture_code": 24,
    "city": "伊勢市",
    "city_kana": "イセシ",
    "town": "竹ケ鼻町",
    "town_kana": "タケガハナチョウ",
    "street": "１００",
    "office_name": "神電商事　株式会社　本部",
    "office_name_kana": "シンデンシヨウジ カブシキガイシヤ ホンブ"
  },
  "8555": {
    "postcode": "5168555",
    "prefecture": "三重県",
    "prefecture_kana": "ミエケン",
    "prefecture_code": 24,
    "city": "伊勢市",
    "city_kana": "イセシ",
    "town": "神田久志本町",
    "town_kana": "コウダクシモトチョウ",
    "street": "１７０４",
    "office_name": "皇學館大學",
    "office_name_kana": "コウガクカンダイガク"
  },
  "8558": {
    "postcode": "5168558",
    "prefecture": "三重県",
    "prefecture_kana": "ミエケン",
    "prefecture_code": 24,
    "city": "伊勢市",
    "city_kana": "イセシ",
    "town": "宇治中之切町",
    "town_kana": "ウジナカノキリチョウ",
    "street": "５２番地",
    "office_name": "株式会社　伊勢福",
    "office_name_kana": "カブシキガイシヤ イセフク"
  },
  "8566": {
    "postcode": "5168566",
    "prefecture": "三重県",
    "prefecture_kana": "ミエケン",
    "prefecture_code": 24,
    "city": "伊勢市",
    "city_kana": "イセシ",
    "town": "勢田町",
    "town_kana": "セイタチョウ",
    "street": "６２８−２",
    "office_name": "伊勢県民センター",
    "office_name_kana": "イセケンミンセンタ-"
  },
  "8567": {
    "postcode": "5168567",
    "prefecture": "三重県",
    "prefecture_kana": "ミエケン",
    "prefecture_code": 24,
    "city": "伊勢市",
    "city_kana": "イセシ",
    "town": "小木町",
    "town_kana": "コウギチョウ",
    "street": "字曽祢５３８",
    "office_name": "ララパーク",
    "office_name_kana": "ララパ-ク"
  },
  "8577": {
    "postcode": "5168577",
    "prefecture": "三重県",
    "prefecture_kana": "ミエケン",
    "prefecture_code": 24,
    "city": "伊勢市",
    "city_kana": "イセシ",
    "town": "楠部町",
    "town_kana": "クスベチョウ",
    "street": "１３８",
    "office_name": "皇學館高等学校",
    "office_name_kana": "コウガクカンコウトウガツコウ"
  },
  "8581": {
    "postcode": "5168581",
    "prefecture": "三重県",
    "prefecture_kana": "ミエケン",
    "prefecture_code": 24,
    "city": "伊勢市",
    "city_kana": "イセシ",
    "town": "黒瀬町",
    "town_kana": "クロセチョウ",
    "street": "１４２５",
    "office_name": "御木本製薬　株式会社",
    "office_name_kana": "ミキモトセイヤク カブシキガイシヤ"
  },
  "8588": {
    "postcode": "5168588",
    "prefecture": "三重県",
    "prefecture_kana": "ミエケン",
    "prefecture_code": 24,
    "city": "伊勢市",
    "city_kana": "イセシ",
    "town": "楠部町",
    "town_kana": "クスベチョウ",
    "street": "１３８",
    "office_name": "皇學館中学校",
    "office_name_kana": "コウガクカンチユウガツコウ"
  },
  "8601": {
    "postcode": "5168601",
    "prefecture": "三重県",
    "prefecture_kana": "ミエケン",
    "prefecture_code": 24,
    "city": "伊勢市",
    "city_kana": "イセシ",
    "town": "岩渕",
    "town_kana": "イワブチ",
    "street": "１丁目７−２９",
    "office_name": "伊勢市役所",
    "office_name_kana": "イセシヤクシヨ"
  },
  "8602": {
    "postcode": "5168602",
    "prefecture": "三重県",
    "prefecture_kana": "ミエケン",
    "prefecture_code": 24,
    "city": "伊勢市",
    "city_kana": "イセシ",
    "town": "宇治今在家町",
    "town_kana": "ウジイマザイケチョウ",
    "street": "６３３",
    "office_name": "ミワネットワークス",
    "office_name_kana": "ミワネツトワ-クス"
  },
  "8686": {
    "postcode": "5168686",
    "prefecture": "三重県",
    "prefecture_kana": "ミエケン",
    "prefecture_code": 24,
    "city": "伊勢市",
    "city_kana": "イセシ",
    "town": "朝熊町",
    "town_kana": "アサマチョウ",
    "street": "３４７７−３６",
    "office_name": "キクカワエンタープライズ　株式会社",
    "office_name_kana": "キクカワエンタ-プライズ カブシキガシヤ"
  }
}