{
  "0000": {
    "postcode": "5170000",
    "prefecture": "三重県",
    "prefecture_kana": "ミエケン",
    "prefecture_code": 24,
    "city": "鳥羽市",
    "city_kana": "トバシ",
    "town": "",
    "town_kana": "",
    "street": null,
    "office_name": null,
    "office_name_kana": null
  },
  "0001": {
    "postcode": "5170001",
    "prefecture": "三重県",
    "prefecture_kana": "ミエケン",
    "prefecture_code": 24,
    "city": "鳥羽市",
    "city_kana": "トバシ",
    "town": "神島町",
    "town_kana": "カミジマチョウ",
    "street": null,
    "office_name": null,
    "office_name_kana": null
  },
  "0002": {
    "postcode": "5170002",
    "prefecture": "三重県",
    "prefecture_kana": "ミエケン",
    "prefecture_code": 24,
    "city": "鳥羽市",
    "city_kana": "トバシ",
    "town": "答志町",
    "town_kana": "トウシチョウ",
    "street": null,
    "office_name": null,
    "office_name_kana": null
  },
  "0003": {
    "postcode": "5170003",
    "prefecture": "三重県",
    "prefecture_kana": "ミエケン",
    "prefecture_code": 24,
    "city": "鳥羽市",
    "city_kana": "トバシ",
    "town": "桃取町",
    "town_kana": "モモトリチョウ",
    "street": null,
    "office_name": null,
    "office_name_kana": null
  },
  "0004": {
    "postcode": "5170004",
    "prefecture": "三重県",
    "prefecture_kana": "ミエケン",
    "prefecture_code": 24,
    "city": "鳥羽市",
    "city_kana": "トバシ",
    "town": "菅島町",
    "town_kana": "スガシマチョウ",
    "street": null,
    "office_name": null,
    "office_name_kana": null
  },
  "0005": {
    "postcode": "5170005",
    "prefecture": "三重県",
    "prefecture_kana": "ミエケン",
    "prefecture_code": 24,
    "city": "鳥羽市",
    "city_kana": "トバシ",
    "town": "坂手町",
    "town_kana": "サカテチョウ",
    "street": null,
    "office_name": null,
    "office_name_kana": null
  },
  "0011": {
    "postcode": "5170011",
    "prefecture": "三重県",
    "prefecture_kana": "ミエケン",
    "prefecture_code": 24,
    "city": "鳥羽市",
    "city_kana": "トバシ",
    "town": "鳥羽",
    "town_kana": "トバ",
    "street": null,
    "office_name": null,
    "office_name_kana": null
  },
  "0012": {
    "postcode": "5170012",
    "prefecture": "三重県",
    "prefecture_kana": "ミエケン",
    "prefecture_code": 24,
    "city": "鳥羽市",
    "city_kana": "トバシ",
    "town": "池上町",
    "town_kana": "イケガミチョウ",
    "street": null,
    "office_name": null,
    "office_name_kana": null
  },
  "0013": {
    "postcode": "5170013",
    "prefecture": "三重県",
    "prefecture_kana": "ミエケン",
    "prefecture_code": 24,
    "city": "鳥羽市",
    "city_kana": "トバシ",
    "town": "屋内町",
    "town_kana": "ヤナイチョウ",
    "street": null,
    "office_name": null,
    "office_name_kana": null
  },
  "0014": {
    "postcode": "5170014",
    "prefecture": "三重県",
    "prefecture_kana": "ミエケン",
    "prefecture_code": 24,
    "city": "鳥羽市",
    "city_kana": "トバシ",
    "town": "堅神町",
    "town_kana": "カタカミチョウ",
    "street": null,
    "office_name": null,
    "office_name_kana": null
  },
  "0015": {
    "postcode": "5170015",
    "prefecture": "三重県",
    "prefecture_kana": "ミエケン",
    "prefecture_code": 24,
    "city": "鳥羽市",
    "city_kana": "トバシ",
    "town": "小浜町",
    "town_kana": "オハマチョウ",
    "street": null,
    "office_name": null,
    "office_name_kana": null
  },
  "0021": {
    "postcode": "5170021",
    "prefecture": "三重県",
    "prefecture_kana": "ミエケン",
    "prefecture_code": 24,
    "city": "鳥羽市",
    "city_kana": "トバシ",
    "town": "安楽島町",
    "town_kana": "アラシマチョウ",
    "street": null,
    "office_name": null,
    "office_name_kana": null
  },
  "0022": {
    "postcode": "5170022",
    "prefecture": "三重県",
    "prefecture_kana": "ミエケン",
    "prefecture_code": 24,
    "city": "鳥羽市",
    "city_kana": "トバシ",
    "town": "大明東町",
    "town_kana": "オアキヒガシマチ",
    "street": null,
    "office_name": null,
    "office_name_kana": null
  },
  "0023": {
    "postcode": "5170023",
    "prefecture": "三重県",
    "prefecture_kana": "ミエケン",
    "prefecture_code": 24,
    "city": "鳥羽市",
    "city_kana": "トバシ",
    "town": "大明西町",
    "town_kana": "オアキニシマチ",
    "street": null,
    "office_name": null,
    "office_name_kana": null
  },
  "0024": {
    "postcode": "5170024",
    "prefecture": "三重県",
    "prefecture_kana": "ミエケン",
    "prefecture_code": 24,
    "city": "鳥羽市",
    "city_kana": "トバシ",
    "town": "高丘町",
    "town_kana": "タカオカチョウ",
    "street": null,
    "office_name": null,
    "office_name_kana": null
  },
  "0025": {
    "postcode": "5170025",
    "prefecture": "三重県",
    "prefecture_kana": "ミエケン",
    "prefecture_code": 24,
    "city": "鳥羽市",
    "city_kana": "トバシ",
    "town": "浦村町",
    "town_kana": "ウラムラチョウ",
    "street": null,
    "office_name": null,
    "office_name_kana": null
  },
  "0026": {
    "postcode": "5170026",
    "prefecture": "三重県",
    "prefecture_kana": "ミエケン",
    "prefecture_code": 24,
    "city": "鳥羽市",
    "city_kana": "トバシ",
    "town": "石鏡町",
    "town_kana": "イジカチョウ",
    "street": null,
    "office_name": null,
    "office_name_kana": null
  },
  "0031": {
    "postcode": "5170031",
    "prefecture": "三重県",
    "prefecture_kana": "ミエケン",
    "prefecture_code": 24,
    "city": "鳥羽市",
    "city_kana": "トバシ",
    "town": "国崎町",
    "town_kana": "クザキチョウ",
    "street": null,
    "office_name": null,
    "office_name_kana": null
  },
  "0032": {
    "postcode": "5170032",
    "prefecture": "三重県",
    "prefecture_kana": "ミエケン",
    "prefecture_code": 24,
    "city": "鳥羽市",
    "city_kana": "トバシ",
    "town": "相差町",
    "town_kana": "オウサツチョウ",
    "street": null,
    "office_name": null,
    "office_name_kana": null
  },
  "0033": {
    "postcode": "5170033",
    "prefecture": "三重県",
    "prefecture_kana": "ミエケン",
    "prefecture_code": 24,
    "city": "鳥羽市",
    "city_kana": "トバシ",
    "town": "畔蛸町",
    "town_kana": "アダコチョウ",
    "street": null,
    "office_name": null,
    "office_name_kana": null
  },
  "0034": {
    "postcode": "5170034",
    "prefecture": "三重県",
    "prefecture_kana": "ミエケン",
    "prefecture_code": 24,
    "city": "鳥羽市",
    "city_kana": "トバシ",
    "town": "千賀町",
    "town_kana": "センガチョウ",
    "street": null,
    "office_name": null,
    "office_name_kana": null
  },
  "0035": {
    "postcode": "5170035",
    "prefecture": "三重県",
    "prefecture_kana": "ミエケン",
    "prefecture_code": 24,
    "city": "鳥羽市",
    "city_kana": "トバシ",
    "town": "堅子町",
    "town_kana": "カタコチョウ",
    "street": null,
    "office_name": null,
    "office_name_kana": null
  },
  "0041": {
    "postcode": "5170041",
    "prefecture": "三重県",
    "prefecture_kana": "ミエケン",
    "prefecture_code": 24,
    "city": "鳥羽市",
    "city_kana": "トバシ",
    "town": "岩倉町",
    "town_kana": "イワクラチョウ",
    "street": null,
    "office_name": null,
    "office_name_kana": null
  },
  "0042": {
    "postcode": "5170042",
    "prefecture": "三重県",
    "prefecture_kana": "ミエケン",
    "prefecture_code": 24,
    "city": "鳥羽市",
    "city_kana": "トバシ",
    "town": "松尾町",
    "town_kana": "マツオチョウ",
    "street": null,
    "office_name": null,
    "office_name_kana": null
  },
  "0043": {
    "postcode": "5170043",
    "prefecture": "三重県",
    "prefecture_kana": "ミエケン",
    "prefecture_code": 24,
    "city": "鳥羽市",
    "city_kana": "トバシ",
    "town": "白木町",
    "town_kana": "シラキチョウ",
    "street": null,
    "office_name": null,
    "office_name_kana": null
  },
  "0044": {
    "postcode": "5170044",
    "prefecture": "三重県",
    "prefecture_kana": "ミエケン",
    "prefecture_code": 24,
    "city": "鳥羽市",
    "city_kana": "トバシ",
    "town": "河内町",
    "town_kana": "コウチチョウ",
    "street": null,
    "office_name": null,
    "office_name_kana": null
  },
  "0045": {
    "postcode": "5170045",
    "prefecture": "三重県",
    "prefecture_kana": "ミエケン",
    "prefecture_code": 24,
    "city": "鳥羽市",
    "city_kana": "トバシ",
    "town": "船津町",
    "town_kana": "フナツチョウ",
    "street": null,
    "office_name": null,
    "office_name_kana": null
  },
  "0046": {
    "postcode": "5170046",
    "prefecture": "三重県",
    "prefecture_kana": "ミエケン",
    "prefecture_code": 24,
    "city": "鳥羽市",
    "city_kana": "トバシ",
    "town": "幸丘",
    "town_kana": "サチガオカ",
    "street": null,
    "office_name": null,
    "office_name_kana": null
  },
  "0047": {
    "postcode": "5170047",
    "prefecture": "三重県",
    "prefecture_kana": "ミエケン",
    "prefecture_code": 24,
    "city": "鳥羽市",
    "city_kana": "トバシ",
    "town": "若杉町",
    "town_kana": "ワカスギチョウ",
    "street": null,
    "office_name": null,
    "office_name_kana": null
  },
  "0081": [
    {
      "postcode": "5170081",
      "prefecture": "三重県",
      "prefecture_kana": "ミエケン",
      "prefecture_code": 24,
      "city": "伊勢市",
      "city_kana": "イセシ",
      "town": "朝熊町",
      "town_kana": "アサマチョウ",
      "street": null,
      "office_name": null,
      "office_name_kana": null
    },
    {
      "postcode": "5170081",
      "prefecture": "三重県",
      "prefecture_kana": "ミエケン",
      "prefecture_code": 24,
      "city": "伊勢市",
      "city_kana": "イセシ",
      "town": "朝熊町池の浦",
      "town_kana": "アサマチョウイケノウラ",
      "street": null,
      "office_name": null,
      "office_name_kana": null
    },
    {
      "postcode": "5170081",
      "prefecture": "三重県",
      "prefecture_kana": "ミエケン",
      "prefecture_code": 24,
      "city": "伊勢市",
      "city_kana": "イセシ",
      "town": "朝熊町箕曲瀬",
      "town_kana": "アサマチョウミノセ",
      "street": null,
      "office_name": null,
      "office_name_kana": null
    }
  ],
  "0201": {
    "postcode": "5170201",
    "prefecture": "三重県",
    "prefecture_kana": "ミエケン",
    "prefecture_code": 24,
    "city": "志摩市",
    "city_kana": "シマシ",
    "town": "磯部町五知",
    "town_kana": "イソベチョウゴチ",
    "street": null,
    "office_name": null,
    "office_name_kana": null
  },
  "0202": {
    "postcode": "5170202",
    "prefecture": "三重県",
    "prefecture_kana": "ミエケン",
    "prefecture_code": 24,
    "city": "志摩市",
    "city_kana": "シマシ",
    "town": "磯部町沓掛",
    "town_kana": "イソベチョウクツカケ",
    "street": null,
    "office_name": null,
    "office_name_kana": null
  },
  "0203": {
    "postcode": "5170203",
    "prefecture": "三重県",
    "prefecture_kana": "ミエケン",
    "prefecture_code": 24,
    "city": "志摩市",
    "city_kana": "シマシ",
    "town": "磯部町山田",
    "town_kana": "イソベチョウヤマダ",
    "street": null,
    "office_name": null,
    "office_name_kana": null
  },
  "0204": {
    "postcode": "5170204",
    "prefecture": "三重県",
    "prefecture_kana": "ミエケン",
    "prefecture_code": 24,
    "city": "志摩市",
    "city_kana": "シマシ",
    "town": "磯部町的矢",
    "town_kana": "イソベチョウマトヤ",
    "street": null,
    "office_name": null,
    "office_name_kana": null
  },
  "0205": {
    "postcode": "5170205",
    "prefecture": "三重県",
    "prefecture_kana": "ミエケン",
    "prefecture_code": 24,
    "city": "志摩市",
    "city_kana": "シマシ",
    "town": "磯部町渡鹿野",
    "town_kana": "イソベチョウワタカノ",
    "street": null,
    "office_name": null,
    "office_name_kana": null
  },
  "0206": {
    "postcode": "5170206",
    "prefecture": "三重県",
    "prefecture_kana": "ミエケン",
    "prefecture_code": 24,
    "city": "志摩市",
    "city_kana": "シマシ",
    "town": "磯部町飯浜",
    "town_kana": "イソベチョウイイハマ",
    "street": null,
    "office_name": null,
    "office_name_kana": null
  },
  "0207": {
    "postcode": "5170207",
    "prefecture": "三重県",
    "prefecture_kana": "ミエケン",
    "prefecture_code": 24,
    "city": "志摩市",
    "city_kana": "シマシ",
    "town": "磯部町下之郷",
    "town_kana": "イソベチョウシモノゴウ",
    "street": null,
    "office_name": null,
    "office_name_kana": null
  },
  "0208": {
    "postcode": "5170208",
    "prefecture": "三重県",
    "prefecture_kana": "ミエケン",
    "prefecture_code": 24,
    "city": "志摩市",
    "city_kana": "シマシ",
    "town": "磯部町上之郷",
    "town_kana": "イソベチョウカミノゴウ",
    "street": null,
    "office_name": null,
    "office_name_kana": null
  },
  "0209": {
    "postcode": "5170209",
    "prefecture": "三重県",
    "prefecture_kana": "ミエケン",
    "prefecture_code": 24,
    "city": "志摩市",
    "city_kana": "シマシ",
    "town": "磯部町恵利原",
    "town_kana": "イソベチョウエリハラ",
    "street": null,
    "office_name": null,
    "office_name_kana": null
  },
  "0211": {
    "postcode": "5170211",
    "prefecture": "三重県",
    "prefecture_kana": "ミエケン",
    "prefecture_code": 24,
    "city": "志摩市",
    "city_kana": "シマシ",
    "town": "磯部町三ケ所",
    "town_kana": "イソベチョウサンガショ",
    "street": null,
    "office_name": null,
    "office_name_kana": null
  },
  "0212": {
    "postcode": "5170212",
    "prefecture": "三重県",
    "prefecture_kana": "ミエケン",
    "prefecture_code": 24,
    "city": "志摩市",
    "city_kana": "シマシ",
    "town": "磯部町坂崎",
    "town_kana": "イソベチョウサカザキ",
    "street": null,
    "office_name": null,
    "office_name_kana": null
  },
  "0213": {
    "postcode": "5170213",
    "prefecture": "三重県",
    "prefecture_kana": "ミエケン",
    "prefecture_code": 24,
    "city": "志摩市",
    "city_kana": "シマシ",
    "town": "磯部町穴川",
    "town_kana": "イソベチョウアナガワ",
    "street": null,
    "office_name": null,
    "office_name_kana": null
  },
  "0214": {
    "postcode": "5170214",
    "prefecture": "三重県",
    "prefecture_kana": "ミエケン",
    "prefecture_code": 24,
    "city": "志摩市",
    "city_kana": "シマシ",
    "town": "磯部町迫間",
    "town_kana": "イソベチョウハサマ",
    "street": null,
    "office_name": null,
    "office_name_kana": null
  },
  "0215": {
    "postcode": "5170215",
    "prefecture": "三重県",
    "prefecture_kana": "ミエケン",
    "prefecture_code": 24,
    "city": "志摩市",
    "city_kana": "シマシ",
    "town": "磯部町檜山",
    "town_kana": "イソベチョウヒヤマ",
    "street": null,
    "office_name": null,
    "office_name_kana": null
  },
  "0216": {
    "postcode": "5170216",
    "prefecture": "三重県",
    "prefecture_kana": "ミエケン",
    "prefecture_code": 24,
    "city": "志摩市",
    "city_kana": "シマシ",
    "town": "磯部町栗木広",
    "town_kana": "イソベチョウクリキヒロ",
    "street": null,
    "office_name": null,
    "office_name_kana": null
  },
  "0217": {
    "postcode": "5170217",
    "prefecture": "三重県",
    "prefecture_kana": "ミエケン",
    "prefecture_code": 24,
    "city": "志摩市",
    "city_kana": "シマシ",
    "town": "磯部町山原",
    "town_kana": "イソベチョウヤマハラ",
    "street": null,
    "office_name": null,
    "office_name_kana": null
  },
  "0218": {
    "postcode": "5170218",
    "prefecture": "三重県",
    "prefecture_kana": "ミエケン",
    "prefecture_code": 24,
    "city": "志摩市",
    "city_kana": "シマシ",
    "town": "磯部町築地",
    "town_kana": "イソベチョウツイジ",
    "street": null,
    "office_name": null,
    "office_name_kana": null
  },
  "0292": {
    "postcode": "5170292",
    "prefecture": "三重県",
    "prefecture_kana": "ミエケン",
    "prefecture_code": 24,
    "city": "志摩市",
    "city_kana": "シマシ",
    "town": "磯部町坂崎",
    "town_kana": "イソベチョウサカザキ",
    "street": "字下山９５２−４",
    "office_name": "株式会社　志摩スペイン村",
    "office_name_kana": "カブシキガイシヤ シマスペインムラ"
  },
  "0401": {
    "postcode": "5170401",
    "prefecture": "三重県",
    "prefecture_kana": "ミエケン",
    "prefecture_code": 24,
    "city": "志摩市",
    "city_kana": "シマシ",
    "town": "浜島町桧山路",
    "town_kana": "ハマジマチョウヒヤマジ",
    "street": null,
    "office_name": null,
    "office_name_kana": null
  },
  "0402": {
    "postcode": "5170402",
    "prefecture": "三重県",
    "prefecture_kana": "ミエケン",
    "prefecture_code": 24,
    "city": "志摩市",
    "city_kana": "シマシ",
    "town": "浜島町塩屋",
    "town_kana": "ハマジマチョウシオヤ",
    "street": null,
    "office_name": null,
    "office_name_kana": null
  },
  "0403": {
    "postcode": "5170403",
    "prefecture": "三重県",
    "prefecture_kana": "ミエケン",
    "prefecture_code": 24,
    "city": "志摩市",
    "city_kana": "シマシ",
    "town": "浜島町迫子",
    "town_kana": "ハマジマチョウハザコ",
    "street": null,
    "office_name": null,
    "office_name_kana": null
  },
  "0404": {
    "postcode": "5170404",
    "prefecture": "三重県",
    "prefecture_kana": "ミエケン",
    "prefecture_code": 24,
    "city": "志摩市",
    "city_kana": "シマシ",
    "town": "浜島町浜島",
    "town_kana": "ハマジマチョウハマジマ",
    "street": null,
    "office_name": null,
    "office_name_kana": null
  },
  "0405": {
    "postcode": "5170405",
    "prefecture": "三重県",
    "prefecture_kana": "ミエケン",
    "prefecture_code": 24,
    "city": "志摩市",
    "city_kana": "シマシ",
    "town": "浜島町南張",
    "town_kana": "ハマジマチョウナンバリ",
    "street": null,
    "office_name": null,
    "office_name_kana": null
  },
  "0494": {
    "postcode": "5170494",
    "prefecture": "三重県",
    "prefecture_kana": "ミエケン",
    "prefecture_code": 24,
    "city": "志摩市",
    "city_kana": "シマシ",
    "town": "浜島町浜島",
    "town_kana": "ハマジマチョウハマジマ",
    "street": "１６４５−１",
    "office_name": "ホテル　志摩石亭",
    "office_name_kana": "ホテル シマセキテイ"
  },
  "0500": {
    "postcode": "5170500",
    "prefecture": "三重県",
    "prefecture_kana": "ミエケン",
    "prefecture_code": 24,
    "city": "志摩市",
    "city_kana": "シマシ",
    "town": "",
    "town_kana": "",
    "street": null,
    "office_name": null,
    "office_name_kana": null
  },
  "0501": {
    "postcode": "5170501",
    "prefecture": "三重県",
    "prefecture_kana": "ミエケン",
    "prefecture_code": 24,
    "city": "志摩市",
    "city_kana": "シマシ",
    "town": "阿児町鵜方",
    "town_kana": "アゴチョウウガタ",
    "street": null,
    "office_name": null,
    "office_name_kana": null
  },
  "0502": {
    "postcode": "5170502",
    "prefecture": "三重県",
    "prefecture_kana": "ミエケン",
    "prefecture_code": 24,
    "city": "志摩市",
    "city_kana": "シマシ",
    "town": "阿児町神明",
    "town_kana": "アゴチョウシンメイ",
    "street": null,
    "office_name": null,
    "office_name_kana": null
  },
  "0503": {
    "postcode": "5170503",
    "prefecture": "三重県",
    "prefecture_kana": "ミエケン",
    "prefecture_code": 24,
    "city": "志摩市",
    "city_kana": "シマシ",
    "town": "阿児町立神",
    "town_kana": "アゴチョウタテガミ",
    "street": null,
    "office_name": null,
    "office_name_kana": null
  },
  "0504": {
    "postcode": "5170504",
    "prefecture": "三重県",
    "prefecture_kana": "ミエケン",
    "prefecture_code": 24,
    "city": "志摩市",
    "city_kana": "シマシ",
    "town": "阿児町志島",
    "town_kana": "アゴチョウシジマ",
    "street": null,
    "office_name": null,
    "office_name_kana": null
  },
  "0505": {
    "postcode": "5170505",
    "prefecture": "三重県",
    "prefecture_kana": "ミエケン",
    "prefecture_code": 24,
    "city": "志摩市",
    "city_kana": "シマシ",
    "town": "阿児町甲賀",
    "town_kana": "アゴチョウコウカ",
    "street": null,
    "office_name": null,
    "office_name_kana": null
  },
  "0506": {
    "postcode": "5170506",
    "prefecture": "三重県",
    "prefecture_kana": "ミエケン",
    "prefecture_code": 24,
    "city": "志摩市",
    "city_kana": "シマシ",
    "town": "阿児町国府",
    "town_kana": "アゴチョウコウ",
    "street": null,
    "office_name": null,
    "office_name_kana": null
  },
  "0507": {
    "postcode": "5170507",
    "prefecture": "三重県",
    "prefecture_kana": "ミエケン",
    "prefecture_code": 24,
    "city": "志摩市",
    "city_kana": "シマシ",
    "town": "阿児町安乗",
    "town_kana": "アゴチョウアノリ",
    "street": null,
    "office_name": null,
    "office_name_kana": null
  },
  "0592": {
    "postcode": "5170592",
    "prefecture": "三重県",
    "prefecture_kana": "ミエケン",
    "prefecture_code": 24,
    "city": "志摩市",
    "city_kana": "シマシ",
    "town": "阿児町鵜方",
    "town_kana": "アゴチョウウガタ",
    "street": "３０９８−２２",
    "office_name": "志摩市役所",
    "office_name_kana": "シマシヤクシヨ"
  },
  "0593": {
    "postcode": "5170593",
    "prefecture": "三重県",
    "prefecture_kana": "ミエケン",
    "prefecture_code": 24,
    "city": "志摩市",
    "city_kana": "シマシ",
    "town": "阿児町神明",
    "town_kana": "アゴチョウシンメイ",
    "street": "７１８番地の３",
    "office_name": "株式会社　賢島宝生苑",
    "office_name_kana": "カブシキガイシヤ カシコジマホウジヨウエン"
  },
  "0595": {
    "postcode": "5170595",
    "prefecture": "三重県",
    "prefecture_kana": "ミエケン",
    "prefecture_code": 24,
    "city": "志摩市",
    "city_kana": "シマシ",
    "town": "阿児町鵜方",
    "town_kana": "アゴチョウウガタ",
    "street": "１２５７番地",
    "office_name": "公益社団法人　地域医療振興協会　三重県立志摩病院",
    "office_name_kana": "コウエキシヤダンホウジン チイキイリヨウシンコウキヨウカイ ミエケンリツシマビヨウイン"
  },
  "0601": {
    "postcode": "5170601",
    "prefecture": "三重県",
    "prefecture_kana": "ミエケン",
    "prefecture_code": 24,
    "city": "志摩市",
    "city_kana": "シマシ",
    "town": "大王町畔名",
    "town_kana": "ダイオウチョウアゼナ",
    "street": null,
    "office_name": null,
    "office_name_kana": null
  },
  "0602": {
    "postcode": "5170602",
    "prefecture": "三重県",
    "prefecture_kana": "ミエケン",
    "prefecture_code": 24,
    "city": "志摩市",
    "city_kana": "シマシ",
    "town": "大王町名田",
    "town_kana": "ダイオウチョウナタ",
    "street": null,
    "office_name": null,
    "office_name_kana": null
  },
  "0603": {
    "postcode": "5170603",
    "prefecture": "三重県",
    "prefecture_kana": "ミエケン",
    "prefecture_code": 24,
    "city": "志摩市",
    "city_kana": "シマシ",
    "town": "大王町波切",
    "town_kana": "ダイオウチョウナキリ",
    "street": null,
    "office_name": null,
    "office_name_kana": null
  },
  "0604": {
    "postcode": "5170604",
    "prefecture": "三重県",
    "prefecture_kana": "ミエケン",
    "prefecture_code": 24,
    "city": "志摩市",
    "city_kana": "シマシ",
    "town": "大王町船越",
    "town_kana": "ダイオウチョウフナコシ",
    "street": null,
    "office_name": null,
    "office_name_kana": null
  },
  "0701": {
    "postcode": "5170701",
    "prefecture": "三重県",
    "prefecture_kana": "ミエケン",
    "prefecture_code": 24,
    "city": "志摩市",
    "city_kana": "シマシ",
    "town": "志摩町片田",
    "town_kana": "シマチョウカタダ",
    "street": null,
    "office_name": null,
    "office_name_kana": null
  },
  "0702": {
    "postcode": "5170702",
    "prefecture": "三重県",
    "prefecture_kana": "ミエケン",
    "prefecture_code": 24,
    "city": "志摩市",
    "city_kana": "シマシ",
    "town": "志摩町布施田",
    "town_kana": "シマチョウフセダ",
    "street": null,
    "office_name": null,
    "office_name_kana": null
  },
  "0703": {
    "postcode": "5170703",
    "prefecture": "三重県",
    "prefecture_kana": "ミエケン",
    "prefecture_code": 24,
    "city": "志摩市",
    "city_kana": "シマシ",
    "town": "志摩町和具",
    "town_kana": "シマチョウワグ",
    "street": null,
    "office_name": null,
    "office_name_kana": null
  },
  "0704": {
    "postcode": "5170704",
    "prefecture": "三重県",
    "prefecture_kana": "ミエケン",
    "prefecture_code": 24,
    "city": "志摩市",
    "city_kana": "シマシ",
    "town": "志摩町越賀",
    "town_kana": "シマチョウコシカ",
    "street": null,
    "office_name": null,
    "office_name_kana": null
  },
  "0705": {
    "postcode": "5170705",
    "prefecture": "三重県",
    "prefecture_kana": "ミエケン",
    "prefecture_code": 24,
    "city": "志摩市",
    "city_kana": "シマシ",
    "town": "志摩町御座",
    "town_kana": "シマチョウゴザ",
    "street": null,
    "office_name": null,
    "office_name_kana": null
  },
  "8501": {
    "postcode": "5178501",
    "prefecture": "三重県",
    "prefecture_kana": "ミエケン",
    "prefecture_code": 24,
    "city": "鳥羽市",
    "city_kana": "トバシ",
    "town": "池上町",
    "town_kana": "イケガミチョウ",
    "street": "１−１",
    "office_name": "国立鳥羽商船高等専門学校",
    "office_name_kana": "コクリツトバシヨウセンコウトウセンモンガツコウ"
  },
  "8511": {
    "postcode": "5178511",
    "prefecture": "三重県",
    "prefecture_kana": "ミエケン",
    "prefecture_code": 24,
    "city": "鳥羽市",
    "city_kana": "トバシ",
    "town": "鳥羽",
    "town_kana": "トバ",
    "street": "１丁目７番１号",
    "office_name": "御木本真珠島",
    "office_name_kana": "ミキモトシンジユジマ"
  },
  "8517": {
    "postcode": "5178517",
    "prefecture": "三重県",
    "prefecture_kana": "ミエケン",
    "prefecture_code": 24,
    "city": "鳥羽市",
    "city_kana": "トバシ",
    "town": "鳥羽",
    "town_kana": "トバ",
    "street": "３丁目３−６",
    "office_name": "鳥羽水族館",
    "office_name_kana": "トバスイゾクカン"
  }
}