{
  "0000": {
    "postcode": "5200000",
    "prefecture": "滋賀県",
    "prefecture_kana": "シガケン",
    "prefecture_code": 25,
    "city": "大津市",
    "city_kana": "オオツシ",
    "town": "",
    "town_kana": "",
    "street": null,
    "office_name": null,
    "office_name_kana": null
  },
  "0001": {
    "postcode": "5200001",
    "prefecture": "滋賀県",
    "prefecture_kana": "シガケン",
    "prefecture_code": 25,
    "city": "大津市",
    "city_kana": "オオツシ",
    "town": "蓮池町",
    "town_kana": "ハスイケチョウ",
    "street": null,
    "office_name": null,
    "office_name_kana": null
  },
  "0002": {
    "postcode": "5200002",
    "prefecture": "滋賀県",
    "prefecture_kana": "シガケン",
    "prefecture_code": 25,
    "city": "大津市",
    "city_kana": "オオツシ",
    "town": "際川",
    "town_kana": "サイガワ",
    "street": null,
    "office_name": null,
    "office_name_kana": null
  },
  "0003": {
    "postcode": "5200003",
    "prefecture": "滋賀県",
    "prefecture_kana": "シガケン",
    "prefecture_code": 25,
    "city": "大津市",
    "city_kana": "オオツシ",
    "town": "あかね町",
    "town_kana": "アカネチョウ",
    "street": null,
    "office_name": null,
    "office_name_kana": null
  },
  "0004": {
    "postcode": "5200004",
    "prefecture": "滋賀県",
    "prefecture_kana": "シガケン",
    "prefecture_code": 25,
    "city": "大津市",
    "city_kana": "オオツシ",
    "town": "見世",
    "town_kana": "ミセ",
    "street": null,
    "office_name": null,
    "office_name_kana": null
  },
  "0005": {
    "postcode": "5200005",
    "prefecture": "滋賀県",
    "prefecture_kana": "シガケン",
    "prefecture_code": 25,
    "city": "大津市",
    "city_kana": "オオツシ",
    "town": "高砂町",
    "town_kana": "タカサゴチョウ",
    "street": null,
    "office_name": null,
    "office_name_kana": null
  },
  "0006": {
    "postcode": "5200006",
    "prefecture": "滋賀県",
    "prefecture_kana": "シガケン",
    "prefecture_code": 25,
    "city": "大津市",
    "city_kana": "オオツシ",
    "town": "滋賀里",
    "town_kana": "シガサト",
    "street": null,
    "office_name": null,
    "office_name_kana": null
  },
  "0011": {
    "postcode": "5200011",
    "prefecture": "滋賀県",
    "prefecture_kana": "シガケン",
    "prefecture_code": 25,
    "city": "大津市",
    "city_kana": "オオツシ",
    "town": "南志賀",
    "town_kana": "ミナミシガ",
    "street": null,
    "office_name": null,
    "office_name_kana": null
  },
  "0012": {
    "postcode": "5200012",
    "prefecture": "滋賀県",
    "prefecture_kana": "シガケン",
    "prefecture_code": 25,
    "city": "大津市",
    "city_kana": "オオツシ",
    "town": "鏡が浜",
    "town_kana": "カガミガハマ",
    "street": null,
    "office_name": null,
    "office_name_kana": null
  },
  "0013": {
    "postcode": "5200013",
    "prefecture": "滋賀県",
    "prefecture_kana": "シガケン",
    "prefecture_code": 25,
    "city": "大津市",
    "city_kana": "オオツシ",
    "town": "勧学",
    "town_kana": "カンガク",
    "street": null,
    "office_name": null,
    "office_name_kana": null
  },
  "0014": {
    "postcode": "5200014",
    "prefecture": "滋賀県",
    "prefecture_kana": "シガケン",
    "prefecture_code": 25,
    "city": "大津市",
    "city_kana": "オオツシ",
    "town": "柳川",
    "town_kana": "ヤナガワ",
    "street": null,
    "office_name": null,
    "office_name_kana": null
  },
  "0015": {
    "postcode": "5200015",
    "prefecture": "滋賀県",
    "prefecture_kana": "シガケン",
    "prefecture_code": 25,
    "city": "大津市",
    "city_kana": "オオツシ",
    "town": "神宮町",
    "town_kana": "ジングウチョウ",
    "street": null,
    "office_name": null,
    "office_name_kana": null
  },
  "0016": {
    "postcode": "5200016",
    "prefecture": "滋賀県",
    "prefecture_kana": "シガケン",
    "prefecture_code": 25,
    "city": "大津市",
    "city_kana": "オオツシ",
    "town": "比叡平",
    "town_kana": "ヒエイダイラ",
    "street": null,
    "office_name": null,
    "office_name_kana": null
  },
  "0017": {
    "postcode": "5200017",
    "prefecture": "滋賀県",
    "prefecture_kana": "シガケン",
    "prefecture_code": 25,
    "city": "大津市",
    "city_kana": "オオツシ",
    "town": "山中町",
    "town_kana": "ヤマナカチョウ",
    "street": null,
    "office_name": null,
    "office_name_kana": null
  },
  "0018": {
    "postcode": "5200018",
    "prefecture": "滋賀県",
    "prefecture_kana": "シガケン",
    "prefecture_code": 25,
    "city": "大津市",
    "city_kana": "オオツシ",
    "town": "南滋賀町",
    "town_kana": "ミナミシガチョウ",
    "street": null,
    "office_name": null,
    "office_name_kana": null
  },
  "0021": {
    "postcode": "5200021",
    "prefecture": "滋賀県",
    "prefecture_kana": "シガケン",
    "prefecture_code": 25,
    "city": "大津市",
    "city_kana": "オオツシ",
    "town": "二本松",
    "town_kana": "ニホンマツ",
    "street": null,
    "office_name": null,
    "office_name_kana": null
  },
  "0022": {
    "postcode": "5200022",
    "prefecture": "滋賀県",
    "prefecture_kana": "シガケン",
    "prefecture_code": 25,
    "city": "大津市",
    "city_kana": "オオツシ",
    "town": "柳が崎",
    "town_kana": "ヤナガサキ",
    "street": null,
    "office_name": null,
    "office_name_kana": null
  },
  "0023": {
    "postcode": "5200023",
    "prefecture": "滋賀県",
    "prefecture_kana": "シガケン",
    "prefecture_code": 25,
    "city": "大津市",
    "city_kana": "オオツシ",
    "town": "茶が崎",
    "town_kana": "チャガサキ",
    "street": null,
    "office_name": null,
    "office_name_kana": null
  },
  "0024": {
    "postcode": "5200024",
    "prefecture": "滋賀県",
    "prefecture_kana": "シガケン",
    "prefecture_code": 25,
    "city": "大津市",
    "city_kana": "オオツシ",
    "town": "松山町",
    "town_kana": "マツヤマチョウ",
    "street": null,
    "office_name": null,
    "office_name_kana": null
  },
  "0025": {
    "postcode": "5200025",
    "prefecture": "滋賀県",
    "prefecture_kana": "シガケン",
    "prefecture_code": 25,
    "city": "大津市",
    "city_kana": "オオツシ",
    "town": "皇子が丘",
    "town_kana": "オウジガオカ",
    "street": null,
    "office_name": null,
    "office_name_kana": null
  },
  "0026": {
    "postcode": "5200026",
    "prefecture": "滋賀県",
    "prefecture_kana": "シガケン",
    "prefecture_code": 25,
    "city": "大津市",
    "city_kana": "オオツシ",
    "town": "桜野町",
    "town_kana": "サクラノチョウ",
    "street": null,
    "office_name": null,
    "office_name_kana": null
  },
  "0027": {
    "postcode": "5200027",
    "prefecture": "滋賀県",
    "prefecture_kana": "シガケン",
    "prefecture_code": 25,
    "city": "大津市",
    "city_kana": "オオツシ",
    "town": "錦織",
    "town_kana": "ニシコオリ",
    "street": null,
    "office_name": null,
    "office_name_kana": null
  },
  "0028": {
    "postcode": "5200028",
    "prefecture": "滋賀県",
    "prefecture_kana": "シガケン",
    "prefecture_code": 25,
    "city": "大津市",
    "city_kana": "オオツシ",
    "town": "千石台",
    "town_kana": "センゴクダイ",
    "street": null,
    "office_name": null,
    "office_name_kana": null
  },
  "0031": {
    "postcode": "5200031",
    "prefecture": "滋賀県",
    "prefecture_kana": "シガケン",
    "prefecture_code": 25,
    "city": "大津市",
    "city_kana": "オオツシ",
    "town": "尾花川",
    "town_kana": "オバナガワ",
    "street": null,
    "office_name": null,
    "office_name_kana": null
  },
  "0032": {
    "postcode": "5200032",
    "prefecture": "滋賀県",
    "prefecture_kana": "シガケン",
    "prefecture_code": 25,
    "city": "大津市",
    "city_kana": "オオツシ",
    "town": "観音寺",
    "town_kana": "カンノンジ",
    "street": null,
    "office_name": null,
    "office_name_kana": null
  },
  "0033": {
    "postcode": "5200033",
    "prefecture": "滋賀県",
    "prefecture_kana": "シガケン",
    "prefecture_code": 25,
    "city": "大津市",
    "city_kana": "オオツシ",
    "town": "大門通",
    "town_kana": "ダイモンドオリ",
    "street": null,
    "office_name": null,
    "office_name_kana": null
  },
  "0034": {
    "postcode": "5200034",
    "prefecture": "滋賀県",
    "prefecture_kana": "シガケン",
    "prefecture_code": 25,
    "city": "大津市",
    "city_kana": "オオツシ",
    "town": "三井寺町",
    "town_kana": "ミイデラチョウ",
    "street": null,
    "office_name": null,
    "office_name_kana": null
  },
  "0035": {
    "postcode": "5200035",
    "prefecture": "滋賀県",
    "prefecture_kana": "シガケン",
    "prefecture_code": 25,
    "city": "大津市",
    "city_kana": "オオツシ",
    "town": "小関町",
    "town_kana": "コゼキチョウ",
    "street": null,
    "office_name": null,
    "office_name_kana": null
  },
  "0036": {
    "postcode": "5200036",
    "prefecture": "滋賀県",
    "prefecture_kana": "シガケン",
    "prefecture_code": 25,
    "city": "大津市",
    "city_kana": "オオツシ",
    "town": "園城寺町",
    "town_kana": "オンジョウジチョウ",
    "street": null,
    "office_name": null,
    "office_name_kana": null
  },
  "0037": {
    "postcode": "5200037",
    "prefecture": "滋賀県",
    "prefecture_kana": "シガケン",
    "prefecture_code": 25,
    "city": "大津市",
    "city_kana": "オオツシ",
    "town": "御陵町",
    "town_kana": "ゴリョウチョウ",
    "street": null,
    "office_name": null,
    "office_name_kana": null
  },
  "0038": {
    "postcode": "5200038",
    "prefecture": "滋賀県",
    "prefecture_kana": "シガケン",
    "prefecture_code": 25,
    "city": "大津市",
    "city_kana": "オオツシ",
    "town": "山上町",
    "town_kana": "ヤマガミチョウ",
    "street": null,
    "office_name": null,
    "office_name_kana": null
  },
  "0041": {
    "postcode": "5200041",
    "prefecture": "滋賀県",
    "prefecture_kana": "シガケン",
    "prefecture_code": 25,
    "city": "大津市",
    "city_kana": "オオツシ",
    "town": "浜町",
    "town_kana": "ハママチ",
    "street": null,
    "office_name": null,
    "office_name_kana": null
  },
  "0042": {
    "postcode": "5200042",
    "prefecture": "滋賀県",
    "prefecture_kana": "シガケン",
    "prefecture_code": 25,
    "city": "大津市",
    "city_kana": "オオツシ",
    "town": "島の関",
    "town_kana": "シマノセキ",
    "street": null,
    "office_name": null,
    "office_name_kana": null
  },
  "0043": {
    "postcode": "5200043",
    "prefecture": "滋賀県",
    "prefecture_kana": "シガケン",
    "prefecture_code": 25,
    "city": "大津市",
    "city_kana": "オオツシ",
    "town": "中央",
    "town_kana": "チュウオウ",
    "street": null,
    "office_name": null,
    "office_name_kana": null
  },
  "0044": {
    "postcode": "5200044",
    "prefecture": "滋賀県",
    "prefecture_kana": "シガケン",
    "prefecture_code": 25,
    "city": "大津市",
    "city_kana": "オオツシ",
    "town": "京町",
    "town_kana": "キョウマチ",
    "street": null,
    "office_name": null,
    "office_name_kana": null
  },
  "0045": {
    "postcode": "5200045",
    "prefecture": "滋賀県",
    "prefecture_kana": "シガケン",
    "prefecture_code": 25,
    "city": "大津市",
    "city_kana": "オオツシ",
    "town": "札の辻",
    "town_kana": "フダノツジ",
    "street": null,
    "office_name": null,
    "office_name_kana": null
  },
  "0046": {
    "postcode": "5200046",
    "prefecture": "滋賀県",
    "prefecture_kana": "シガケン",
    "prefecture_code": 25,
    "city": "大津市",
    "city_kana": "オオツシ",
    "town": "長等",
    "town_kana": "ナガラ",
    "street": null,
    "office_name": null,
    "office_name_kana": null
  },
  "0047": {
    "postcode": "5200047",
    "prefecture": "滋賀県",
    "prefecture_kana": "シガケン",
    "prefecture_code": 25,
    "city": "大津市",
    "city_kana": "オオツシ",
    "town": "浜大津",
    "town_kana": "ハマオオツ",
    "street": null,
    "office_name": null,
    "office_name_kana": null
  },
  "0051": {
    "postcode": "5200051",
    "prefecture": "滋賀県",
    "prefecture_kana": "シガケン",
    "prefecture_code": 25,
    "city": "大津市",
    "city_kana": "オオツシ",
    "town": "梅林",
    "town_kana": "ウメバヤシ",
    "street": null,
    "office_name": null,
    "office_name_kana": null
  },
  "0052": {
    "postcode": "5200052",
    "prefecture": "滋賀県",
    "prefecture_kana": "シガケン",
    "prefecture_code": 25,
    "city": "大津市",
    "city_kana": "オオツシ",
    "town": "朝日が丘",
    "town_kana": "アサヒガオカ",
    "street": null,
    "office_name": null,
    "office_name_kana": null
  },
  "0053": {
    "postcode": "5200053",
    "prefecture": "滋賀県",
    "prefecture_kana": "シガケン",
    "prefecture_code": 25,
    "city": "大津市",
    "city_kana": "オオツシ",
    "town": "音羽台",
    "town_kana": "オトワダイ",
    "street": null,
    "office_name": null,
    "office_name_kana": null
  },
  "0054": {
    "postcode": "5200054",
    "prefecture": "滋賀県",
    "prefecture_kana": "シガケン",
    "prefecture_code": 25,
    "city": "大津市",
    "city_kana": "オオツシ",
    "town": "逢坂",
    "town_kana": "オウサカ",
    "street": null,
    "office_name": null,
    "office_name_kana": null
  },
  "0055": {
    "postcode": "5200055",
    "prefecture": "滋賀県",
    "prefecture_kana": "シガケン",
    "prefecture_code": 25,
    "city": "大津市",
    "city_kana": "オオツシ",
    "town": "春日町",
    "town_kana": "カスガチョウ",
    "street": null,
    "office_name": null,
    "office_name_kana": null
  },
  "0056": {
    "postcode": "5200056",
    "prefecture": "滋賀県",
    "prefecture_kana": "シガケン",
    "prefecture_code": 25,
    "city": "大津市",
    "city_kana": "オオツシ",
    "town": "末広町",
    "town_kana": "スエヒロチョウ",
    "street": null,
    "office_name": null,
    "office_name_kana": null
  },
  "0057": {
    "postcode": "5200057",
    "prefecture": "滋賀県",
    "prefecture_kana": "シガケン",
    "prefecture_code": 25,
    "city": "大津市",
    "city_kana": "オオツシ",
    "town": "御幸町",
    "town_kana": "ミユキチョウ",
    "street": null,
    "office_name": null,
    "office_name_kana": null
  },
  "0061": {
    "postcode": "5200061",
    "prefecture": "滋賀県",
    "prefecture_kana": "シガケン",
    "prefecture_code": 25,
    "city": "大津市",
    "city_kana": "オオツシ",
    "town": "神出開町",
    "town_kana": "カミデヒラキマチ",
    "street": null,
    "office_name": null,
    "office_name_kana": null
  },
  "0062": {
    "postcode": "5200062",
    "prefecture": "滋賀県",
    "prefecture_kana": "シガケン",
    "prefecture_code": 25,
    "city": "大津市",
    "city_kana": "オオツシ",
    "town": "大谷町",
    "town_kana": "オオタニチョウ",
    "street": null,
    "office_name": null,
    "office_name_kana": null
  },
  "0063": {
    "postcode": "5200063",
    "prefecture": "滋賀県",
    "prefecture_kana": "シガケン",
    "prefecture_code": 25,
    "city": "大津市",
    "city_kana": "オオツシ",
    "town": "横木",
    "town_kana": "ヨコギ",
    "street": null,
    "office_name": null,
    "office_name_kana": null
  },
  "0064": {
    "postcode": "5200064",
    "prefecture": "滋賀県",
    "prefecture_kana": "シガケン",
    "prefecture_code": 25,
    "city": "大津市",
    "city_kana": "オオツシ",
    "town": "追分町",
    "town_kana": "オイワケチョウ",
    "street": null,
    "office_name": null,
    "office_name_kana": null
  },
  "0065": {
    "postcode": "5200065",
    "prefecture": "滋賀県",
    "prefecture_kana": "シガケン",
    "prefecture_code": 25,
    "city": "大津市",
    "city_kana": "オオツシ",
    "town": "稲葉台",
    "town_kana": "イナバダイ",
    "street": null,
    "office_name": null,
    "office_name_kana": null
  },
  "0066": {
    "postcode": "5200066",
    "prefecture": "滋賀県",
    "prefecture_kana": "シガケン",
    "prefecture_code": 25,
    "city": "大津市",
    "city_kana": "オオツシ",
    "town": "茶戸町",
    "town_kana": "チャドチョウ",
    "street": null,
    "office_name": null,
    "office_name_kana": null
  },
  "0067": {
    "postcode": "5200067",
    "prefecture": "滋賀県",
    "prefecture_kana": "シガケン",
    "prefecture_code": 25,
    "city": "大津市",
    "city_kana": "オオツシ",
    "town": "藤尾奥町",
    "town_kana": "フジオオクマチ",
    "street": null,
    "office_name": null,
    "office_name_kana": null
  },
  "0101": {
    "postcode": "5200101",
    "prefecture": "滋賀県",
    "prefecture_kana": "シガケン",
    "prefecture_code": 25,
    "city": "大津市",
    "city_kana": "オオツシ",
    "town": "雄琴",
    "town_kana": "オゴト",
    "street": null,
    "office_name": null,
    "office_name_kana": null
  },
  "0102": {
    "postcode": "5200102",
    "prefecture": "滋賀県",
    "prefecture_kana": "シガケン",
    "prefecture_code": 25,
    "city": "大津市",
    "city_kana": "オオツシ",
    "town": "苗鹿",
    "town_kana": "ノウカ",
    "street": null,
    "office_name": null,
    "office_name_kana": null
  },
  "0103": {
    "postcode": "5200103",
    "prefecture": "滋賀県",
    "prefecture_kana": "シガケン",
    "prefecture_code": 25,
    "city": "大津市",
    "city_kana": "オオツシ",
    "town": "木の岡町",
    "town_kana": "コノオカチョウ",
    "street": null,
    "office_name": null,
    "office_name_kana": null
  },
  "0104": {
    "postcode": "5200104",
    "prefecture": "滋賀県",
    "prefecture_kana": "シガケン",
    "prefecture_code": 25,
    "city": "大津市",
    "city_kana": "オオツシ",
    "town": "比叡辻",
    "town_kana": "ヒエイツジ",
    "street": null,
    "office_name": null,
    "office_name_kana": null
  },
  "0105": {
    "postcode": "5200105",
    "prefecture": "滋賀県",
    "prefecture_kana": "シガケン",
    "prefecture_code": 25,
    "city": "大津市",
    "city_kana": "オオツシ",
    "town": "下阪本",
    "town_kana": "シモサカモト",
    "street": null,
    "office_name": null,
    "office_name_kana": null
  },
  "0106": {
    "postcode": "5200106",
    "prefecture": "滋賀県",
    "prefecture_kana": "シガケン",
    "prefecture_code": 25,
    "city": "大津市",
    "city_kana": "オオツシ",
    "town": "唐崎",
    "town_kana": "カラサキ",
    "street": null,
    "office_name": null,
    "office_name_kana": null
  },
  "0107": {
    "postcode": "5200107",
    "prefecture": "滋賀県",
    "prefecture_kana": "シガケン",
    "prefecture_code": 25,
    "city": "大津市",
    "city_kana": "オオツシ",
    "town": "雄琴北",
    "town_kana": "オゴトキタ",
    "street": null,
    "office_name": null,
    "office_name_kana": null
  },
  "0111": {
    "postcode": "5200111",
    "prefecture": "滋賀県",
    "prefecture_kana": "シガケン",
    "prefecture_code": 25,
    "city": "大津市",
    "city_kana": "オオツシ",
    "town": "千野",
    "town_kana": "チノ",
    "street": null,
    "office_name": null,
    "office_name_kana": null
  },
  "0112": {
    "postcode": "5200112",
    "prefecture": "滋賀県",
    "prefecture_kana": "シガケン",
    "prefecture_code": 25,
    "city": "大津市",
    "city_kana": "オオツシ",
    "town": "日吉台",
    "town_kana": "ヒヨシダイ",
    "street": null,
    "office_name": null,
    "office_name_kana": null
  },
  "0113": {
    "postcode": "5200113",
    "prefecture": "滋賀県",
    "prefecture_kana": "シガケン",
    "prefecture_code": 25,
    "city": "大津市",
    "city_kana": "オオツシ",
    "town": "坂本",
    "town_kana": "サカモト",
    "street": null,
    "office_name": null,
    "office_name_kana": null
  },
  "0114": {
    "postcode": "5200114",
    "prefecture": "滋賀県",
    "prefecture_kana": "シガケン",
    "prefecture_code": 25,
    "city": "大津市",
    "city_kana": "オオツシ",
    "town": "穴太",
    "town_kana": "アノウ",
    "street": null,
    "office_name": null,
    "office_name_kana": null
  },
  "0115": {
    "postcode": "5200115",
    "prefecture": "滋賀県",
    "prefecture_kana": "シガケン",
    "prefecture_code": 25,
    "city": "大津市",
    "city_kana": "オオツシ",
    "town": "弥生町",
    "town_kana": "ヤヨイチョウ",
    "street": null,
    "office_name": null,
    "office_name_kana": null
  },
  "0116": {
    "postcode": "5200116",
    "prefecture": "滋賀県",
    "prefecture_kana": "シガケン",
    "prefecture_code": 25,
    "city": "大津市",
    "city_kana": "オオツシ",
    "town": "坂本本町",
    "town_kana": "サカモトホンマチ",
    "street": null,
    "office_name": null,
    "office_name_kana": null
  },
  "0221": {
    "postcode": "5200221",
    "prefecture": "滋賀県",
    "prefecture_kana": "シガケン",
    "prefecture_code": 25,
    "city": "大津市",
    "city_kana": "オオツシ",
    "town": "緑町",
    "town_kana": "ミドリチョウ",
    "street": null,
    "office_name": null,
    "office_name_kana": null
  },
  "0222": {
    "postcode": "5200222",
    "prefecture": "滋賀県",
    "prefecture_kana": "シガケン",
    "prefecture_code": 25,
    "city": "大津市",
    "city_kana": "オオツシ",
    "town": "花園町",
    "town_kana": "ハナゾノチョウ",
    "street": null,
    "office_name": null,
    "office_name_kana": null
  },
  "0223": {
    "postcode": "5200223",
    "prefecture": "滋賀県",
    "prefecture_kana": "シガケン",
    "prefecture_code": 25,
    "city": "大津市",
    "city_kana": "オオツシ",
    "town": "美空町",
    "town_kana": "ミソラチョウ",
    "street": null,
    "office_name": null,
    "office_name_kana": null
  },
  "0224": {
    "postcode": "5200224",
    "prefecture": "滋賀県",
    "prefecture_kana": "シガケン",
    "prefecture_code": 25,
    "city": "大津市",
    "city_kana": "オオツシ",
    "town": "向陽町",
    "town_kana": "コウヨウチョウ",
    "street": null,
    "office_name": null,
    "office_name_kana": null
  },
  "0225": {
    "postcode": "5200225",
    "prefecture": "滋賀県",
    "prefecture_kana": "シガケン",
    "prefecture_code": 25,
    "city": "大津市",
    "city_kana": "オオツシ",
    "town": "清風町",
    "town_kana": "セイフウチョウ",
    "street": null,
    "office_name": null,
    "office_name_kana": null
  },
  "0226": {
    "postcode": "5200226",
    "prefecture": "滋賀県",
    "prefecture_kana": "シガケン",
    "prefecture_code": 25,
    "city": "大津市",
    "city_kana": "オオツシ",
    "town": "陽明町",
    "town_kana": "ヨウメイチョウ",
    "street": null,
    "office_name": null,
    "office_name_kana": null
  },
  "0227": {
    "postcode": "5200227",
    "prefecture": "滋賀県",
    "prefecture_kana": "シガケン",
    "prefecture_code": 25,
    "city": "大津市",
    "city_kana": "オオツシ",
    "town": "清和町",
    "town_kana": "セイワチョウ",
    "street": null,
    "office_name": null,
    "office_name_kana": null
  },
  "0231": {
    "postcode": "5200231",
    "prefecture": "滋賀県",
    "prefecture_kana": "シガケン",
    "prefecture_code": 25,
    "city": "大津市",
    "city_kana": "オオツシ",
    "town": "真野普門",
    "town_kana": "マノフモン",
    "street": null,
    "office_name": null,
    "office_name_kana": null
  },
  "0232": {
    "postcode": "5200232",
    "prefecture": "滋賀県",
    "prefecture_kana": "シガケン",
    "prefecture_code": 25,
    "city": "大津市",
    "city_kana": "オオツシ",
    "town": "真野",
    "town_kana": "マノ",
    "street": null,
    "office_name": null,
    "office_name_kana": null
  },
  "0233": {
    "postcode": "5200233",
    "prefecture": "滋賀県",
    "prefecture_kana": "シガケン",
    "prefecture_code": 25,
    "city": "大津市",
    "city_kana": "オオツシ",
    "town": "真野谷口町",
    "town_kana": "マノタニグチチョウ",
    "street": null,
    "office_name": null,
    "office_name_kana": null
  },
  "0234": {
    "postcode": "5200234",
    "prefecture": "滋賀県",
    "prefecture_kana": "シガケン",
    "prefecture_code": 25,
    "city": "大津市",
    "city_kana": "オオツシ",
    "town": "真野家田町",
    "town_kana": "マノイエダチョウ",
    "street": null,
    "office_name": null,
    "office_name_kana": null
  },
  "0235": {
    "postcode": "5200235",
    "prefecture": "滋賀県",
    "prefecture_kana": "シガケン",
    "prefecture_code": 25,
    "city": "大津市",
    "city_kana": "オオツシ",
    "town": "真野大野",
    "town_kana": "マノオオノ",
    "street": null,
    "office_name": null,
    "office_name_kana": null
  },
  "0236": {
    "postcode": "5200236",
    "prefecture": "滋賀県",
    "prefecture_kana": "シガケン",
    "prefecture_code": 25,
    "city": "大津市",
    "city_kana": "オオツシ",
    "town": "真野佐川町",
    "town_kana": "マノサガワチョウ",
    "street": null,
    "office_name": null,
    "office_name_kana": null
  },
  "0241": {
    "postcode": "5200241",
    "prefecture": "滋賀県",
    "prefecture_kana": "シガケン",
    "prefecture_code": 25,
    "city": "大津市",
    "city_kana": "オオツシ",
    "town": "今堅田",
    "town_kana": "イマカタタ",
    "street": null,
    "office_name": null,
    "office_name_kana": null
  },
  "0242": {
    "postcode": "5200242",
    "prefecture": "滋賀県",
    "prefecture_kana": "シガケン",
    "prefecture_code": 25,
    "city": "大津市",
    "city_kana": "オオツシ",
    "town": "本堅田",
    "town_kana": "ホンカタタ",
    "street": null,
    "office_name": null,
    "office_name_kana": null
  },
  "0243": {
    "postcode": "5200243",
    "prefecture": "滋賀県",
    "prefecture_kana": "シガケン",
    "prefecture_code": 25,
    "city": "大津市",
    "city_kana": "オオツシ",
    "town": "堅田",
    "town_kana": "カタタ",
    "street": null,
    "office_name": null,
    "office_name_kana": null
  },
  "0244": {
    "postcode": "5200244",
    "prefecture": "滋賀県",
    "prefecture_kana": "シガケン",
    "prefecture_code": 25,
    "city": "大津市",
    "city_kana": "オオツシ",
    "town": "衣川",
    "town_kana": "キヌガワ",
    "street": null,
    "office_name": null,
    "office_name_kana": null
  },
  "0245": {
    "postcode": "5200245",
    "prefecture": "滋賀県",
    "prefecture_kana": "シガケン",
    "prefecture_code": 25,
    "city": "大津市",
    "city_kana": "オオツシ",
    "town": "仰木町",
    "town_kana": "オオギチョウ",
    "street": null,
    "office_name": null,
    "office_name_kana": null
  },
  "0246": {
    "postcode": "5200246",
    "prefecture": "滋賀県",
    "prefecture_kana": "シガケン",
    "prefecture_code": 25,
    "city": "大津市",
    "city_kana": "オオツシ",
    "town": "仰木の里",
    "town_kana": "オオギノサト",
    "street": null,
    "office_name": null,
    "office_name_kana": null
  },
  "0247": {
    "postcode": "5200247",
    "prefecture": "滋賀県",
    "prefecture_kana": "シガケン",
    "prefecture_code": 25,
    "city": "大津市",
    "city_kana": "オオツシ",
    "town": "仰木",
    "town_kana": "オオギ",
    "street": null,
    "office_name": null,
    "office_name_kana": null
  },
  "0248": {
    "postcode": "5200248",
    "prefecture": "滋賀県",
    "prefecture_kana": "シガケン",
    "prefecture_code": 25,
    "city": "大津市",
    "city_kana": "オオツシ",
    "town": "仰木の里東",
    "town_kana": "オオギノサトヒガシ",
    "street": null,
    "office_name": null,
    "office_name_kana": null
  },
  "0287": {
    "postcode": "5200287",
    "prefecture": "滋賀県",
    "prefecture_kana": "シガケン",
    "prefecture_code": 25,
    "city": "大津市",
    "city_kana": "オオツシ",
    "town": "今堅田",
    "town_kana": "イマカタタ",
    "street": "２丁目２１−２６（堅田郵便局内）",
    "office_name": "滋賀地域センター",
    "office_name_kana": "シガチイキセンタ-"
  },
  "0292": {
    "postcode": "5200292",
    "prefecture": "滋賀県",
    "prefecture_kana": "シガケン",
    "prefecture_code": 25,
    "city": "大津市",
    "city_kana": "オオツシ",
    "town": "堅田",
    "town_kana": "カタタ",
    "street": "２丁目１−１",
    "office_name": "東洋紡　株式会社　総合研究所",
    "office_name_kana": "トウヨウボウ カブシキガイシヤ ソウゴウケンキユウシヨ"
  },
  "0351": {
    "postcode": "5200351",
    "prefecture": "滋賀県",
    "prefecture_kana": "シガケン",
    "prefecture_code": 25,
    "city": "大津市",
    "city_kana": "オオツシ",
    "town": "伊香立北在地町",
    "town_kana": "イカダチキタザイジチョウ",
    "street": null,
    "office_name": null,
    "office_name_kana": null
  },
  "0352": {
    "postcode": "5200352",
    "prefecture": "滋賀県",
    "prefecture_kana": "シガケン",
    "prefecture_code": 25,
    "city": "大津市",
    "city_kana": "オオツシ",
    "town": "伊香立下在地町",
    "town_kana": "イカダチシモザイジチョウ",
    "street": null,
    "office_name": null,
    "office_name_kana": null
  },
  "0353": {
    "postcode": "5200353",
    "prefecture": "滋賀県",
    "prefecture_kana": "シガケン",
    "prefecture_code": 25,
    "city": "大津市",
    "city_kana": "オオツシ",
    "town": "伊香立向在地町",
    "town_kana": "イカダチムカイザイジチョウ",
    "street": null,
    "office_name": null,
    "office_name_kana": null
  },
  "0354": {
    "postcode": "5200354",
    "prefecture": "滋賀県",
    "prefecture_kana": "シガケン",
    "prefecture_code": 25,
    "city": "大津市",
    "city_kana": "オオツシ",
    "town": "伊香立南庄町",
    "town_kana": "イカダチミナミショウチョウ",
    "street": null,
    "office_name": null,
    "office_name_kana": null
  },
  "0355": {
    "postcode": "5200355",
    "prefecture": "滋賀県",
    "prefecture_kana": "シガケン",
    "prefecture_code": 25,
    "city": "大津市",
    "city_kana": "オオツシ",
    "town": "伊香立生津町",
    "town_kana": "イカダチナマヅチョウ",
    "street": null,
    "office_name": null,
    "office_name_kana": null
  },
  "0356": {
    "postcode": "5200356",
    "prefecture": "滋賀県",
    "prefecture_kana": "シガケン",
    "prefecture_code": 25,
    "city": "大津市",
    "city_kana": "オオツシ",
    "town": "伊香立上在地町",
    "town_kana": "イカダチカミザイジチョウ",
    "street": null,
    "office_name": null,
    "office_name_kana": null
  },
  "0357": {
    "postcode": "5200357",
    "prefecture": "滋賀県",
    "prefecture_kana": "シガケン",
    "prefecture_code": 25,
    "city": "大津市",
    "city_kana": "オオツシ",
    "town": "山百合の丘",
    "town_kana": "ヤマユリノオカ",
    "street": null,
    "office_name": null,
    "office_name_kana": null
  },
  "0361": {
    "postcode": "5200361",
    "prefecture": "滋賀県",
    "prefecture_kana": "シガケン",
    "prefecture_code": 25,
    "city": "大津市",
    "city_kana": "オオツシ",
    "town": "伊香立途中町",
    "town_kana": "イカダチトチュウチョウ",
    "street": null,
    "office_name": null,
    "office_name_kana": null
  },
  "0362": {
    "postcode": "5200362",
    "prefecture": "滋賀県",
    "prefecture_kana": "シガケン",
    "prefecture_code": 25,
    "city": "大津市",
    "city_kana": "オオツシ",
    "town": "伊香立上龍華町",
    "town_kana": "イカダチカミリュウゲチョウ",
    "street": null,
    "office_name": null,
    "office_name_kana": null
  },
  "0363": {
    "postcode": "5200363",
    "prefecture": "滋賀県",
    "prefecture_kana": "シガケン",
    "prefecture_code": 25,
    "city": "大津市",
    "city_kana": "オオツシ",
    "town": "伊香立下龍華町",
    "town_kana": "イカダチシモリュウゲチョウ",
    "street": null,
    "office_name": null,
    "office_name_kana": null
  },
  "0461": {
    "postcode": "5200461",
    "prefecture": "京都府",
    "prefecture_kana": "キョウトフ",
    "prefecture_code": 26,
    "city": "京都市左京区",
    "city_kana": "キョウトシサキョウク",
    "town": "久多川合町",
    "town_kana": "クタカワイチョウ",
    "street": null,
    "office_name": null,
    "office_name_kana": null
  },
  "0462": {
    "postcode": "5200462",
    "prefecture": "京都府",
    "prefecture_kana": "キョウトフ",
    "prefecture_code": 26,
    "city": "京都市左京区",
    "city_kana": "キョウトシサキョウク",
    "town": "久多下の町",
    "town_kana": "クタシモノチョウ",
    "street": null,
    "office_name": null,
    "office_name_kana": null
  },
  "0463": {
    "postcode": "5200463",
    "prefecture": "京都府",
    "prefecture_kana": "キョウトフ",
    "prefecture_code": 26,
    "city": "京都市左京区",
    "city_kana": "キョウトシサキョウク",
    "town": "久多宮の町",
    "town_kana": "クタミヤノチョウ",
    "street": null,
    "office_name": null,
    "office_name_kana": null
  },
  "0464": {
    "postcode": "5200464",
    "prefecture": "京都府",
    "prefecture_kana": "キョウトフ",
    "prefecture_code": 26,
    "city": "京都市左京区",
    "city_kana": "キョウトシサキョウク",
    "town": "久多中の町",
    "town_kana": "クタナカノチョウ",
    "street": null,
    "office_name": null,
    "office_name_kana": null
  },
  "0465": {
    "postcode": "5200465",
    "prefecture": "京都府",
    "prefecture_kana": "キョウトフ",
    "prefecture_code": 26,
    "city": "京都市左京区",
    "city_kana": "キョウトシサキョウク",
    "town": "久多上の町",
    "town_kana": "クタカミノチョウ",
    "street": null,
    "office_name": null,
    "office_name_kana": null
  },
  "0471": {
    "postcode": "5200471",
    "prefecture": "滋賀県",
    "prefecture_kana": "シガケン",
    "prefecture_code": 25,
    "city": "大津市",
    "city_kana": "オオツシ",
    "town": "葛川細川町",
    "town_kana": "カツラガワホソカワチョウ",
    "street": null,
    "office_name": null,
    "office_name_kana": null
  },
  "0472": {
    "postcode": "5200472",
    "prefecture": "滋賀県",
    "prefecture_kana": "シガケン",
    "prefecture_code": 25,
    "city": "大津市",
    "city_kana": "オオツシ",
    "town": "葛川貫井町",
    "town_kana": "カツラガワヌクイチョウ",
    "street": null,
    "office_name": null,
    "office_name_kana": null
  },
  "0473": {
    "postcode": "5200473",
    "prefecture": "滋賀県",
    "prefecture_kana": "シガケン",
    "prefecture_code": 25,
    "city": "大津市",
    "city_kana": "オオツシ",
    "town": "葛川梅ノ木町",
    "town_kana": "カツラガワウメノキチョウ",
    "street": null,
    "office_name": null,
    "office_name_kana": null
  },
  "0474": {
    "postcode": "5200474",
    "prefecture": "滋賀県",
    "prefecture_kana": "シガケン",
    "prefecture_code": 25,
    "city": "大津市",
    "city_kana": "オオツシ",
    "town": "葛川町居町",
    "town_kana": "カツラガワマチイチョウ",
    "street": null,
    "office_name": null,
    "office_name_kana": null
  },
  "0475": {
    "postcode": "5200475",
    "prefecture": "滋賀県",
    "prefecture_kana": "シガケン",
    "prefecture_code": 25,
    "city": "大津市",
    "city_kana": "オオツシ",
    "town": "葛川坊村町",
    "town_kana": "カツラガワボウムラチョウ",
    "street": null,
    "office_name": null,
    "office_name_kana": null
  },
  "0476": {
    "postcode": "5200476",
    "prefecture": "滋賀県",
    "prefecture_kana": "シガケン",
    "prefecture_code": 25,
    "city": "大津市",
    "city_kana": "オオツシ",
    "town": "葛川中村町",
    "town_kana": "カツラガワナカムラチョウ",
    "street": null,
    "office_name": null,
    "office_name_kana": null
  },
  "0477": {
    "postcode": "5200477",
    "prefecture": "滋賀県",
    "prefecture_kana": "シガケン",
    "prefecture_code": 25,
    "city": "大津市",
    "city_kana": "オオツシ",
    "town": "葛川木戸口町",
    "town_kana": "カツラガワキドグチチョウ",
    "street": null,
    "office_name": null,
    "office_name_kana": null
  },
  "0478": {
    "postcode": "5200478",
    "prefecture": "滋賀県",
    "prefecture_kana": "シガケン",
    "prefecture_code": 25,
    "city": "大津市",
    "city_kana": "オオツシ",
    "town": "葛川坂下町",
    "town_kana": "カツラガワサカシタチョウ",
    "street": null,
    "office_name": null,
    "office_name_kana": null
  },
  "0501": {
    "postcode": "5200501",
    "prefecture": "滋賀県",
    "prefecture_kana": "シガケン",
    "prefecture_code": 25,
    "city": "大津市",
    "city_kana": "オオツシ",
    "town": "北小松",
    "town_kana": "キタコマツ",
    "street": null,
    "office_name": null,
    "office_name_kana": null
  },
  "0502": {
    "postcode": "5200502",
    "prefecture": "滋賀県",
    "prefecture_kana": "シガケン",
    "prefecture_code": 25,
    "city": "大津市",
    "city_kana": "オオツシ",
    "town": "南小松",
    "town_kana": "ミナミコマツ",
    "street": null,
    "office_name": null,
    "office_name_kana": null
  },
  "0503": {
    "postcode": "5200503",
    "prefecture": "滋賀県",
    "prefecture_kana": "シガケン",
    "prefecture_code": 25,
    "city": "大津市",
    "city_kana": "オオツシ",
    "town": "北比良",
    "town_kana": "キタヒラ",
    "street": null,
    "office_name": null,
    "office_name_kana": null
  },
  "0511": {
    "postcode": "5200511",
    "prefecture": "滋賀県",
    "prefecture_kana": "シガケン",
    "prefecture_code": 25,
    "city": "大津市",
    "city_kana": "オオツシ",
    "town": "南比良",
    "town_kana": "ミナミヒラ",
    "street": null,
    "office_name": null,
    "office_name_kana": null
  },
  "0512": {
    "postcode": "5200512",
    "prefecture": "滋賀県",
    "prefecture_kana": "シガケン",
    "prefecture_code": 25,
    "city": "大津市",
    "city_kana": "オオツシ",
    "town": "大物",
    "town_kana": "ダイモツ",
    "street": null,
    "office_name": null,
    "office_name_kana": null
  },
  "0513": {
    "postcode": "5200513",
    "prefecture": "滋賀県",
    "prefecture_kana": "シガケン",
    "prefecture_code": 25,
    "city": "大津市",
    "city_kana": "オオツシ",
    "town": "荒川",
    "town_kana": "アラカワ",
    "street": null,
    "office_name": null,
    "office_name_kana": null
  },
  "0514": {
    "postcode": "5200514",
    "prefecture": "滋賀県",
    "prefecture_kana": "シガケン",
    "prefecture_code": 25,
    "city": "大津市",
    "city_kana": "オオツシ",
    "town": "木戸",
    "town_kana": "キド",
    "street": null,
    "office_name": null,
    "office_name_kana": null
  },
  "0515": {
    "postcode": "5200515",
    "prefecture": "滋賀県",
    "prefecture_kana": "シガケン",
    "prefecture_code": 25,
    "city": "大津市",
    "city_kana": "オオツシ",
    "town": "八屋戸",
    "town_kana": "ハチヤド",
    "street": null,
    "office_name": null,
    "office_name_kana": null
  },
  "0516": {
    "postcode": "5200516",
    "prefecture": "滋賀県",
    "prefecture_kana": "シガケン",
    "prefecture_code": 25,
    "city": "大津市",
    "city_kana": "オオツシ",
    "town": "南船路",
    "town_kana": "ミナミフナジ",
    "street": null,
    "office_name": null,
    "office_name_kana": null
  },
  "0521": {
    "postcode": "5200521",
    "prefecture": "滋賀県",
    "prefecture_kana": "シガケン",
    "prefecture_code": 25,
    "city": "大津市",
    "city_kana": "オオツシ",
    "town": "和邇北浜",
    "town_kana": "ワニキタハマ",
    "street": null,
    "office_name": null,
    "office_name_kana": null
  },
  "0522": {
    "postcode": "5200522",
    "prefecture": "滋賀県",
    "prefecture_kana": "シガケン",
    "prefecture_code": 25,
    "city": "大津市",
    "city_kana": "オオツシ",
    "town": "和邇中浜",
    "town_kana": "ワニナカハマ",
    "street": null,
    "office_name": null,
    "office_name_kana": null
  },
  "0523": {
    "postcode": "5200523",
    "prefecture": "滋賀県",
    "prefecture_kana": "シガケン",
    "prefecture_code": 25,
    "city": "大津市",
    "city_kana": "オオツシ",
    "town": "和邇南浜",
    "town_kana": "ワニミナミハマ",
    "street": null,
    "office_name": null,
    "office_name_kana": null
  },
  "0524": {
    "postcode": "5200524",
    "prefecture": "滋賀県",
    "prefecture_kana": "シガケン",
    "prefecture_code": 25,
    "city": "大津市",
    "city_kana": "オオツシ",
    "town": "和邇今宿",
    "town_kana": "ワニイマジュク",
    "street": null,
    "office_name": null,
    "office_name_kana": null
  },
  "0525": {
    "postcode": "5200525",
    "prefecture": "滋賀県",
    "prefecture_kana": "シガケン",
    "prefecture_code": 25,
    "city": "大津市",
    "city_kana": "オオツシ",
    "town": "小野",
    "town_kana": "オノ",
    "street": null,
    "office_name": null,
    "office_name_kana": null
  },
  "0526": {
    "postcode": "5200526",
    "prefecture": "滋賀県",
    "prefecture_kana": "シガケン",
    "prefecture_code": 25,
    "city": "大津市",
    "city_kana": "オオツシ",
    "town": "和邇中",
    "town_kana": "ワニナカ",
    "street": null,
    "office_name": null,
    "office_name_kana": null
  },
  "0527": {
    "postcode": "5200527",
    "prefecture": "滋賀県",
    "prefecture_kana": "シガケン",
    "prefecture_code": 25,
    "city": "大津市",
    "city_kana": "オオツシ",
    "town": "栗原",
    "town_kana": "クリハラ",
    "street": null,
    "office_name": null,
    "office_name_kana": null
  },
  "0528": {
    "postcode": "5200528",
    "prefecture": "滋賀県",
    "prefecture_kana": "シガケン",
    "prefecture_code": 25,
    "city": "大津市",
    "city_kana": "オオツシ",
    "town": "和邇高城",
    "town_kana": "ワニタカシロ",
    "street": null,
    "office_name": null,
    "office_name_kana": null
  },
  "0529": {
    "postcode": "5200529",
    "prefecture": "滋賀県",
    "prefecture_kana": "シガケン",
    "prefecture_code": 25,
    "city": "大津市",
    "city_kana": "オオツシ",
    "town": "和邇春日",
    "town_kana": "ワニカスガ",
    "street": null,
    "office_name": null,
    "office_name_kana": null
  },
  "0531": {
    "postcode": "5200531",
    "prefecture": "滋賀県",
    "prefecture_kana": "シガケン",
    "prefecture_code": 25,
    "city": "大津市",
    "city_kana": "オオツシ",
    "town": "水明",
    "town_kana": "スイメイ",
    "street": null,
    "office_name": null,
    "office_name_kana": null
  },
  "0532": {
    "postcode": "5200532",
    "prefecture": "滋賀県",
    "prefecture_kana": "シガケン",
    "prefecture_code": 25,
    "city": "大津市",
    "city_kana": "オオツシ",
    "town": "湖青",
    "town_kana": "コセイ",
    "street": null,
    "office_name": null,
    "office_name_kana": null
  },
  "0533": {
    "postcode": "5200533",
    "prefecture": "滋賀県",
    "prefecture_kana": "シガケン",
    "prefecture_code": 25,
    "city": "大津市",
    "city_kana": "オオツシ",
    "town": "朝日",
    "town_kana": "アサヒ",
    "street": null,
    "office_name": null,
    "office_name_kana": null
  },
  "0580": {
    "postcode": "5200580",
    "prefecture": "滋賀県",
    "prefecture_kana": "シガケン",
    "prefecture_code": 25,
    "city": "大津市",
    "city_kana": "オオツシ",
    "town": "和邇中",
    "town_kana": "ワニナカ",
    "street": "２９８番地",
    "office_name": "大津赤十字志賀病院",
    "office_name_kana": "オオツセキジユウジシガビヨウイン"
  },
  "0588": {
    "postcode": "5200588",
    "prefecture": "滋賀県",
    "prefecture_kana": "シガケン",
    "prefecture_code": 25,
    "city": "大津市",
    "city_kana": "オオツシ",
    "town": "南船路",
    "town_kana": "ミナミフナジ",
    "street": "４−１",
    "office_name": "ＢＳＣウォータースポーツセンター",
    "office_name_kana": "ビ-エスシ-ウオ-タ-スポ-ツセンタ-"
  },
  "0801": {
    "postcode": "5200801",
    "prefecture": "滋賀県",
    "prefecture_kana": "シガケン",
    "prefecture_code": 25,
    "city": "大津市",
    "city_kana": "オオツシ",
    "town": "におの浜",
    "town_kana": "ニオノハマ",
    "street": null,
    "office_name": null,
    "office_name_kana": null
  },
  "0802": {
    "postcode": "5200802",
    "prefecture": "滋賀県",
    "prefecture_kana": "シガケン",
    "prefecture_code": 25,
    "city": "大津市",
    "city_kana": "オオツシ",
    "town": "馬場",
    "town_kana": "バンバ",
    "street": null,
    "office_name": null,
    "office_name_kana": null
  },
  "0803": {
    "postcode": "5200803",
    "prefecture": "滋賀県",
    "prefecture_kana": "シガケン",
    "prefecture_code": 25,
    "city": "大津市",
    "city_kana": "オオツシ",
    "town": "竜が丘",
    "town_kana": "タツガオカ",
    "street": null,
    "office_name": null,
    "office_name_kana": null
  },
  "0804": {
    "postcode": "5200804",
    "prefecture": "滋賀県",
    "prefecture_kana": "シガケン",
    "prefecture_code": 25,
    "city": "大津市",
    "city_kana": "オオツシ",
    "town": "本宮",
    "town_kana": "モトミヤ",
    "street": null,
    "office_name": null,
    "office_name_kana": null
  },
  "0805": {
    "postcode": "5200805",
    "prefecture": "滋賀県",
    "prefecture_kana": "シガケン",
    "prefecture_code": 25,
    "city": "大津市",
    "city_kana": "オオツシ",
    "town": "石場",
    "town_kana": "イシバ",
    "street": null,
    "office_name": null,
    "office_name_kana": null
  },
  "0806": {
    "postcode": "5200806",
    "prefecture": "滋賀県",
    "prefecture_kana": "シガケン",
    "prefecture_code": 25,
    "city": "大津市",
    "city_kana": "オオツシ",
    "town": "打出浜",
    "town_kana": "ウチデハマ",
    "street": null,
    "office_name": null,
    "office_name_kana": null
  },
  "0807": {
    "postcode": "5200807",
    "prefecture": "滋賀県",
    "prefecture_kana": "シガケン",
    "prefecture_code": 25,
    "city": "大津市",
    "city_kana": "オオツシ",
    "town": "松本",
    "town_kana": "マツモト",
    "street": null,
    "office_name": null,
    "office_name_kana": null
  },
  "0811": {
    "postcode": "5200811",
    "prefecture": "滋賀県",
    "prefecture_kana": "シガケン",
    "prefecture_code": 25,
    "city": "大津市",
    "city_kana": "オオツシ",
    "town": "由美浜",
    "town_kana": "ユミハマ",
    "street": null,
    "office_name": null,
    "office_name_kana": null
  },
  "0812": {
    "postcode": "5200812",
    "prefecture": "滋賀県",
    "prefecture_kana": "シガケン",
    "prefecture_code": 25,
    "city": "大津市",
    "city_kana": "オオツシ",
    "town": "木下町",
    "town_kana": "キノシタチョウ",
    "street": null,
    "office_name": null,
    "office_name_kana": null
  },
  "0813": {
    "postcode": "5200813",
    "prefecture": "滋賀県",
    "prefecture_kana": "シガケン",
    "prefecture_code": 25,
    "city": "大津市",
    "city_kana": "オオツシ",
    "town": "丸の内町",
    "town_kana": "マルノウチチョウ",
    "street": null,
    "office_name": null,
    "office_name_kana": null
  },
  "0814": {
    "postcode": "5200814",
    "prefecture": "滋賀県",
    "prefecture_kana": "シガケン",
    "prefecture_code": 25,
    "city": "大津市",
    "city_kana": "オオツシ",
    "town": "本丸町",
    "town_kana": "ホンマルチョウ",
    "street": null,
    "office_name": null,
    "office_name_kana": null
  },
  "0815": {
    "postcode": "5200815",
    "prefecture": "滋賀県",
    "prefecture_kana": "シガケン",
    "prefecture_code": 25,
    "city": "大津市",
    "city_kana": "オオツシ",
    "town": "膳所",
    "town_kana": "ゼゼ",
    "street": null,
    "office_name": null,
    "office_name_kana": null
  },
  "0816": {
    "postcode": "5200816",
    "prefecture": "滋賀県",
    "prefecture_kana": "シガケン",
    "prefecture_code": 25,
    "city": "大津市",
    "city_kana": "オオツシ",
    "town": "相模町",
    "town_kana": "サガミチョウ",
    "street": null,
    "office_name": null,
    "office_name_kana": null
  },
  "0817": {
    "postcode": "5200817",
    "prefecture": "滋賀県",
    "prefecture_kana": "シガケン",
    "prefecture_code": 25,
    "city": "大津市",
    "city_kana": "オオツシ",
    "town": "昭和町",
    "town_kana": "ショウワチョウ",
    "street": null,
    "office_name": null,
    "office_name_kana": null
  },
  "0818": {
    "postcode": "5200818",
    "prefecture": "滋賀県",
    "prefecture_kana": "シガケン",
    "prefecture_code": 25,
    "city": "大津市",
    "city_kana": "オオツシ",
    "town": "西の庄",
    "town_kana": "ニシノショウ",
    "street": null,
    "office_name": null,
    "office_name_kana": null
  },
  "0821": {
    "postcode": "5200821",
    "prefecture": "滋賀県",
    "prefecture_kana": "シガケン",
    "prefecture_code": 25,
    "city": "大津市",
    "city_kana": "オオツシ",
    "town": "湖城が丘",
    "town_kana": "コジョウガオカ",
    "street": null,
    "office_name": null,
    "office_name_kana": null
  },
  "0822": {
    "postcode": "5200822",
    "prefecture": "滋賀県",
    "prefecture_kana": "シガケン",
    "prefecture_code": 25,
    "city": "大津市",
    "city_kana": "オオツシ",
    "town": "秋葉台",
    "town_kana": "アキバダイ",
    "street": null,
    "office_name": null,
    "office_name_kana": null
  },
  "0823": {
    "postcode": "5200823",
    "prefecture": "滋賀県",
    "prefecture_kana": "シガケン",
    "prefecture_code": 25,
    "city": "大津市",
    "city_kana": "オオツシ",
    "town": "膳所上別保町",
    "town_kana": "ゼゼカミベッポチョウ",
    "street": null,
    "office_name": null,
    "office_name_kana": null
  },
  "0824": {
    "postcode": "5200824",
    "prefecture": "滋賀県",
    "prefecture_kana": "シガケン",
    "prefecture_code": 25,
    "city": "大津市",
    "city_kana": "オオツシ",
    "town": "膳所平尾町",
    "town_kana": "ゼゼヒラオチョウ",
    "street": null,
    "office_name": null,
    "office_name_kana": null
  },
  "0825": {
    "postcode": "5200825",
    "prefecture": "滋賀県",
    "prefecture_kana": "シガケン",
    "prefecture_code": 25,
    "city": "大津市",
    "city_kana": "オオツシ",
    "town": "膳所池ノ内町",
    "town_kana": "ゼゼイケノウチチョウ",
    "street": null,
    "office_name": null,
    "office_name_kana": null
  },
  "0826": {
    "postcode": "5200826",
    "prefecture": "滋賀県",
    "prefecture_kana": "シガケン",
    "prefecture_code": 25,
    "city": "大津市",
    "city_kana": "オオツシ",
    "town": "鶴の里",
    "town_kana": "ツルノサト",
    "street": null,
    "office_name": null,
    "office_name_kana": null
  },
  "0827": {
    "postcode": "5200827",
    "prefecture": "滋賀県",
    "prefecture_kana": "シガケン",
    "prefecture_code": 25,
    "city": "大津市",
    "city_kana": "オオツシ",
    "town": "池の里",
    "town_kana": "イケノサト",
    "street": null,
    "office_name": null,
    "office_name_kana": null
  },
  "0831": {
    "postcode": "5200831",
    "prefecture": "滋賀県",
    "prefecture_kana": "シガケン",
    "prefecture_code": 25,
    "city": "大津市",
    "city_kana": "オオツシ",
    "town": "松原町",
    "town_kana": "マツバラチョウ",
    "street": null,
    "office_name": null,
    "office_name_kana": null
  },
  "0832": {
    "postcode": "5200832",
    "prefecture": "滋賀県",
    "prefecture_kana": "シガケン",
    "prefecture_code": 25,
    "city": "大津市",
    "city_kana": "オオツシ",
    "town": "粟津町",
    "town_kana": "アワヅチョウ",
    "street": null,
    "office_name": null,
    "office_name_kana": null
  },
  "0833": {
    "postcode": "5200833",
    "prefecture": "滋賀県",
    "prefecture_kana": "シガケン",
    "prefecture_code": 25,
    "city": "大津市",
    "city_kana": "オオツシ",
    "town": "晴嵐",
    "town_kana": "セイラン",
    "street": null,
    "office_name": null,
    "office_name_kana": null
  },
  "0834": {
    "postcode": "5200834",
    "prefecture": "滋賀県",
    "prefecture_kana": "シガケン",
    "prefecture_code": 25,
    "city": "大津市",
    "city_kana": "オオツシ",
    "town": "御殿浜",
    "town_kana": "ゴテンハマ",
    "street": null,
    "office_name": null,
    "office_name_kana": null
  },
  "0835": {
    "postcode": "5200835",
    "prefecture": "滋賀県",
    "prefecture_kana": "シガケン",
    "prefecture_code": 25,
    "city": "大津市",
    "city_kana": "オオツシ",
    "town": "別保",
    "town_kana": "ベツポ",
    "street": null,
    "office_name": null,
    "office_name_kana": null
  },
  "0836": {
    "postcode": "5200836",
    "prefecture": "滋賀県",
    "prefecture_kana": "シガケン",
    "prefecture_code": 25,
    "city": "大津市",
    "city_kana": "オオツシ",
    "town": "杉浦町",
    "town_kana": "スギウラチョウ",
    "street": null,
    "office_name": null,
    "office_name_kana": null
  },
  "0837": {
    "postcode": "5200837",
    "prefecture": "滋賀県",
    "prefecture_kana": "シガケン",
    "prefecture_code": 25,
    "city": "大津市",
    "city_kana": "オオツシ",
    "town": "中庄",
    "town_kana": "ナカショウ",
    "street": null,
    "office_name": null,
    "office_name_kana": null
  },
  "0841": {
    "postcode": "5200841",
    "prefecture": "滋賀県",
    "prefecture_kana": "シガケン",
    "prefecture_code": 25,
    "city": "大津市",
    "city_kana": "オオツシ",
    "town": "美崎町",
    "town_kana": "ミサキチョウ",
    "street": null,
    "office_name": null,
    "office_name_kana": null
  },
  "0842": {
    "postcode": "5200842",
    "prefecture": "滋賀県",
    "prefecture_kana": "シガケン",
    "prefecture_code": 25,
    "city": "大津市",
    "city_kana": "オオツシ",
    "town": "園山",
    "town_kana": "ソノヤマ",
    "street": null,
    "office_name": null,
    "office_name_kana": null
  },
  "0843": {
    "postcode": "5200843",
    "prefecture": "滋賀県",
    "prefecture_kana": "シガケン",
    "prefecture_code": 25,
    "city": "大津市",
    "city_kana": "オオツシ",
    "town": "北大路",
    "town_kana": "キタオオジ",
    "street": null,
    "office_name": null,
    "office_name_kana": null
  },
  "0844": {
    "postcode": "5200844",
    "prefecture": "滋賀県",
    "prefecture_kana": "シガケン",
    "prefecture_code": 25,
    "city": "大津市",
    "city_kana": "オオツシ",
    "town": "国分",
    "town_kana": "コクブ",
    "street": null,
    "office_name": null,
    "office_name_kana": null
  },
  "0845": {
    "postcode": "5200845",
    "prefecture": "滋賀県",
    "prefecture_kana": "シガケン",
    "prefecture_code": 25,
    "city": "大津市",
    "city_kana": "オオツシ",
    "town": "若葉台",
    "town_kana": "ワカバダイ",
    "street": null,
    "office_name": null,
    "office_name_kana": null
  },
  "0846": {
    "postcode": "5200846",
    "prefecture": "滋賀県",
    "prefecture_kana": "シガケン",
    "prefecture_code": 25,
    "city": "大津市",
    "city_kana": "オオツシ",
    "town": "富士見台",
    "town_kana": "フジミダイ",
    "street": null,
    "office_name": null,
    "office_name_kana": null
  },
  "0851": {
    "postcode": "5200851",
    "prefecture": "滋賀県",
    "prefecture_kana": "シガケン",
    "prefecture_code": 25,
    "city": "大津市",
    "city_kana": "オオツシ",
    "town": "唐橋町",
    "town_kana": "カラハシチョウ",
    "street": null,
    "office_name": null,
    "office_name_kana": null
  },
  "0852": {
    "postcode": "5200852",
    "prefecture": "滋賀県",
    "prefecture_kana": "シガケン",
    "prefecture_code": 25,
    "city": "大津市",
    "city_kana": "オオツシ",
    "town": "田辺町",
    "town_kana": "タナベチョウ",
    "street": null,
    "office_name": null,
    "office_name_kana": null
  },
  "0853": {
    "postcode": "5200853",
    "prefecture": "滋賀県",
    "prefecture_kana": "シガケン",
    "prefecture_code": 25,
    "city": "大津市",
    "city_kana": "オオツシ",
    "town": "螢谷",
    "town_kana": "ホタルダニ",
    "street": null,
    "office_name": null,
    "office_name_kana": null
  },
  "0854": {
    "postcode": "5200854",
    "prefecture": "滋賀県",
    "prefecture_kana": "シガケン",
    "prefecture_code": 25,
    "city": "大津市",
    "city_kana": "オオツシ",
    "town": "鳥居川町",
    "town_kana": "トリイガワチョウ",
    "street": null,
    "office_name": null,
    "office_name_kana": null
  },
  "0855": {
    "postcode": "5200855",
    "prefecture": "滋賀県",
    "prefecture_kana": "シガケン",
    "prefecture_code": 25,
    "city": "大津市",
    "city_kana": "オオツシ",
    "town": "栄町",
    "town_kana": "サカエマチ",
    "street": null,
    "office_name": null,
    "office_name_kana": null
  },
  "0856": {
    "postcode": "5200856",
    "prefecture": "滋賀県",
    "prefecture_kana": "シガケン",
    "prefecture_code": 25,
    "city": "大津市",
    "city_kana": "オオツシ",
    "town": "光が丘町",
    "town_kana": "ヒカリガオカチョウ",
    "street": null,
    "office_name": null,
    "office_name_kana": null
  },
  "0860": {
    "postcode": "5200860",
    "prefecture": "滋賀県",
    "prefecture_kana": "シガケン",
    "prefecture_code": 25,
    "city": "大津市",
    "city_kana": "オオツシ",
    "town": "石山千町",
    "town_kana": "イシヤマセンチョウ",
    "street": null,
    "office_name": null,
    "office_name_kana": null
  },
  "0861": {
    "postcode": "5200861",
    "prefecture": "滋賀県",
    "prefecture_kana": "シガケン",
    "prefecture_code": 25,
    "city": "大津市",
    "city_kana": "オオツシ",
    "town": "石山寺",
    "town_kana": "イシヤマデラ",
    "street": null,
    "office_name": null,
    "office_name_kana": null
  },
  "0862": {
    "postcode": "5200862",
    "prefecture": "滋賀県",
    "prefecture_kana": "シガケン",
    "prefecture_code": 25,
    "city": "大津市",
    "city_kana": "オオツシ",
    "town": "平津",
    "town_kana": "ヒラツ",
    "street": null,
    "office_name": null,
    "office_name_kana": null
  },
  "0863": {
    "postcode": "5200863",
    "prefecture": "滋賀県",
    "prefecture_kana": "シガケン",
    "prefecture_code": 25,
    "city": "大津市",
    "city_kana": "オオツシ",
    "town": "千町",
    "town_kana": "センチョウ",
    "street": null,
    "office_name": null,
    "office_name_kana": null
  },
  "0864": {
    "postcode": "5200864",
    "prefecture": "滋賀県",
    "prefecture_kana": "シガケン",
    "prefecture_code": 25,
    "city": "大津市",
    "city_kana": "オオツシ",
    "town": "赤尾町",
    "town_kana": "アカオチョウ",
    "street": null,
    "office_name": null,
    "office_name_kana": null
  },
  "0865": {
    "postcode": "5200865",
    "prefecture": "滋賀県",
    "prefecture_kana": "シガケン",
    "prefecture_code": 25,
    "city": "大津市",
    "city_kana": "オオツシ",
    "town": "南郷",
    "town_kana": "ナンゴウ",
    "street": null,
    "office_name": null,
    "office_name_kana": null
  },
  "0866": {
    "postcode": "5200866",
    "prefecture": "滋賀県",
    "prefecture_kana": "シガケン",
    "prefecture_code": 25,
    "city": "大津市",
    "city_kana": "オオツシ",
    "town": "石山寺辺町",
    "town_kana": "イシヤマテラベチョウ",
    "street": null,
    "office_name": null,
    "office_name_kana": null
  },
  "0867": {
    "postcode": "5200867",
    "prefecture": "滋賀県",
    "prefecture_kana": "シガケン",
    "prefecture_code": 25,
    "city": "大津市",
    "city_kana": "オオツシ",
    "town": "大平",
    "town_kana": "オオヒラ",
    "street": null,
    "office_name": null,
    "office_name_kana": null
  },
  "0868": {
    "postcode": "5200868",
    "prefecture": "滋賀県",
    "prefecture_kana": "シガケン",
    "prefecture_code": 25,
    "city": "大津市",
    "city_kana": "オオツシ",
    "town": "石山外畑町",
    "town_kana": "イシヤマソトハタチョウ",
    "street": null,
    "office_name": null,
    "office_name_kana": null
  },
  "0869": {
    "postcode": "5200869",
    "prefecture": "滋賀県",
    "prefecture_kana": "シガケン",
    "prefecture_code": 25,
    "city": "大津市",
    "city_kana": "オオツシ",
    "town": "石山内畑町",
    "town_kana": "イシヤマウチハタチョウ",
    "street": null,
    "office_name": null,
    "office_name_kana": null
  },
  "0871": {
    "postcode": "5200871",
    "prefecture": "滋賀県",
    "prefecture_kana": "シガケン",
    "prefecture_code": 25,
    "city": "大津市",
    "city_kana": "オオツシ",
    "town": "南郷上山町",
    "town_kana": "ナンゴウカミヤマチョウ",
    "street": null,
    "office_name": null,
    "office_name_kana": null
  },
  "1100": {
    "postcode": "5201100",
    "prefecture": "滋賀県",
    "prefecture_kana": "シガケン",
    "prefecture_code": 25,
    "city": "高島市",
    "city_kana": "タカシマシ",
    "town": "",
    "town_kana": "",
    "street": null,
    "office_name": null,
    "office_name_kana": null
  },
  "1101": {
    "postcode": "5201101",
    "prefecture": "滋賀県",
    "prefecture_kana": "シガケン",
    "prefecture_code": 25,
    "city": "高島市",
    "city_kana": "タカシマシ",
    "town": "武曽横山",
    "town_kana": "ムソヨコヤマ",
    "street": null,
    "office_name": null,
    "office_name_kana": null
  },
  "1102": {
    "postcode": "5201102",
    "prefecture": "滋賀県",
    "prefecture_kana": "シガケン",
    "prefecture_code": 25,
    "city": "高島市",
    "city_kana": "タカシマシ",
    "town": "野田",
    "town_kana": "ノダ",
    "street": null,
    "office_name": null,
    "office_name_kana": null
  },
  "1103": {
    "postcode": "5201103",
    "prefecture": "滋賀県",
    "prefecture_kana": "シガケン",
    "prefecture_code": 25,
    "city": "高島市",
    "city_kana": "タカシマシ",
    "town": "宮野",
    "town_kana": "ミヤノ",
    "street": null,
    "office_name": null,
    "office_name_kana": null
  },
  "1111": {
    "postcode": "5201111",
    "prefecture": "滋賀県",
    "prefecture_kana": "シガケン",
    "prefecture_code": 25,
    "city": "高島市",
    "city_kana": "タカシマシ",
    "town": "鴨",
    "town_kana": "カモ",
    "street": null,
    "office_name": null,
    "office_name_kana": null
  },
  "1112": {
    "postcode": "5201112",
    "prefecture": "滋賀県",
    "prefecture_kana": "シガケン",
    "prefecture_code": 25,
    "city": "高島市",
    "city_kana": "タカシマシ",
    "town": "永田",
    "town_kana": "ナガタ",
    "street": null,
    "office_name": null,
    "office_name_kana": null
  },
  "1121": {
    "postcode": "5201121",
    "prefecture": "滋賀県",
    "prefecture_kana": "シガケン",
    "prefecture_code": 25,
    "city": "高島市",
    "city_kana": "タカシマシ",
    "town": "勝野",
    "town_kana": "カツノ",
    "street": null,
    "office_name": null,
    "office_name_kana": null
  },
  "1122": {
    "postcode": "5201122",
    "prefecture": "滋賀県",
    "prefecture_kana": "シガケン",
    "prefecture_code": 25,
    "city": "高島市",
    "city_kana": "タカシマシ",
    "town": "鵜川",
    "town_kana": "ウカワ",
    "street": null,
    "office_name": null,
    "office_name_kana": null
  },
  "1123": {
    "postcode": "5201123",
    "prefecture": "滋賀県",
    "prefecture_kana": "シガケン",
    "prefecture_code": 25,
    "city": "高島市",
    "city_kana": "タカシマシ",
    "town": "城山台",
    "town_kana": "シロヤマダイ",
    "street": null,
    "office_name": null,
    "office_name_kana": null
  },
  "1131": {
    "postcode": "5201131",
    "prefecture": "滋賀県",
    "prefecture_kana": "シガケン",
    "prefecture_code": 25,
    "city": "高島市",
    "city_kana": "タカシマシ",
    "town": "音羽",
    "town_kana": "オトワ",
    "street": null,
    "office_name": null,
    "office_name_kana": null
  },
  "1132": {
    "postcode": "5201132",
    "prefecture": "滋賀県",
    "prefecture_kana": "シガケン",
    "prefecture_code": 25,
    "city": "高島市",
    "city_kana": "タカシマシ",
    "town": "拝戸",
    "town_kana": "ハイド",
    "street": null,
    "office_name": null,
    "office_name_kana": null
  },
  "1133": {
    "postcode": "5201133",
    "prefecture": "滋賀県",
    "prefecture_kana": "シガケン",
    "prefecture_code": 25,
    "city": "高島市",
    "city_kana": "タカシマシ",
    "town": "鴨川平",
    "town_kana": "カモガワダイラ",
    "street": null,
    "office_name": null,
    "office_name_kana": null
  },
  "1141": {
    "postcode": "5201141",
    "prefecture": "滋賀県",
    "prefecture_kana": "シガケン",
    "prefecture_code": 25,
    "city": "高島市",
    "city_kana": "タカシマシ",
    "town": "高島",
    "town_kana": "タカシマ",
    "street": null,
    "office_name": null,
    "office_name_kana": null
  },
  "1142": {
    "postcode": "5201142",
    "prefecture": "滋賀県",
    "prefecture_kana": "シガケン",
    "prefecture_code": 25,
    "city": "高島市",
    "city_kana": "タカシマシ",
    "town": "鹿ケ瀬",
    "town_kana": "シシガセ",
    "street": null,
    "office_name": null,
    "office_name_kana": null
  },
  "1143": {
    "postcode": "5201143",
    "prefecture": "滋賀県",
    "prefecture_kana": "シガケン",
    "prefecture_code": 25,
    "city": "高島市",
    "city_kana": "タカシマシ",
    "town": "黒谷",
    "town_kana": "クロダニ",
    "street": null,
    "office_name": null,
    "office_name_kana": null
  },
  "1144": {
    "postcode": "5201144",
    "prefecture": "滋賀県",
    "prefecture_kana": "シガケン",
    "prefecture_code": 25,
    "city": "高島市",
    "city_kana": "タカシマシ",
    "town": "畑",
    "town_kana": "ハタ",
    "street": null,
    "office_name": null,
    "office_name_kana": null
  },
  "1188": {
    "postcode": "5201188",
    "prefecture": "滋賀県",
    "prefecture_kana": "シガケン",
    "prefecture_code": 25,
    "city": "高島市",
    "city_kana": "タカシマシ",
    "town": "野田",
    "town_kana": "ノダ",
    "street": "１６７８",
    "office_name": "株式会社　ＴＡＤコーポレーション",
    "office_name_kana": "カブシキガイシヤ タツドコ-ポレ-シヨン"
  },
  "1192": {
    "postcode": "5201192",
    "prefecture": "滋賀県",
    "prefecture_kana": "シガケン",
    "prefecture_code": 25,
    "city": "高島市",
    "city_kana": "タカシマシ",
    "town": "勝野",
    "town_kana": "カツノ",
    "street": "２１５",
    "office_name": "高島市役所　高島支所",
    "office_name_kana": "タカシマシヤクシヨ タカシマシシヨ"
  },
  "1201": {
    "postcode": "5201201",
    "prefecture": "滋賀県",
    "prefecture_kana": "シガケン",
    "prefecture_code": 25,
    "city": "高島市",
    "city_kana": "タカシマシ",
    "town": "安曇川町上古賀",
    "town_kana": "アドガワチョウカミコガ",
    "street": null,
    "office_name": null,
    "office_name_kana": null
  },
  "1202": {
    "postcode": "5201202",
    "prefecture": "滋賀県",
    "prefecture_kana": "シガケン",
    "prefecture_code": 25,
    "city": "高島市",
    "city_kana": "タカシマシ",
    "town": "安曇川町下古賀",
    "town_kana": "アドガワチョウシモコガ",
    "street": null,
    "office_name": null,
    "office_name_kana": null
  },
  "1203": {
    "postcode": "5201203",
    "prefecture": "滋賀県",
    "prefecture_kana": "シガケン",
    "prefecture_code": 25,
    "city": "高島市",
    "city_kana": "タカシマシ",
    "town": "安曇川町南古賀",
    "town_kana": "アドガワチョウミナミコガ",
    "street": null,
    "office_name": null,
    "office_name_kana": null
  },
  "1204": {
    "postcode": "5201204",
    "prefecture": "滋賀県",
    "prefecture_kana": "シガケン",
    "prefecture_code": 25,
    "city": "高島市",
    "city_kana": "タカシマシ",
    "town": "安曇川町中野",
    "town_kana": "アドガワチョウナカノ",
    "street": null,
    "office_name": null,
    "office_name_kana": null
  },
  "1205": {
    "postcode": "5201205",
    "prefecture": "滋賀県",
    "prefecture_kana": "シガケン",
    "prefecture_code": 25,
    "city": "高島市",
    "city_kana": "タカシマシ",
    "town": "安曇川町長尾",
    "town_kana": "アドガワチョウナガオ",
    "street": null,
    "office_name": null,
    "office_name_kana": null
  },
  "1211": {
    "postcode": "5201211",
    "prefecture": "滋賀県",
    "prefecture_kana": "シガケン",
    "prefecture_code": 25,
    "city": "高島市",
    "city_kana": "タカシマシ",
    "town": "安曇川町常磐木",
    "town_kana": "アドガワチョウトキワギ",
    "street": null,
    "office_name": null,
    "office_name_kana": null
  },
  "1212": {
    "postcode": "5201212",
    "prefecture": "滋賀県",
    "prefecture_kana": "シガケン",
    "prefecture_code": 25,
    "city": "高島市",
    "city_kana": "タカシマシ",
    "town": "安曇川町西万木",
    "town_kana": "アドガワチョウニシユルギ",
    "street": null,
    "office_name": null,
    "office_name_kana": null
  },
  "1213": {
    "postcode": "5201213",
    "prefecture": "滋賀県",
    "prefecture_kana": "シガケン",
    "prefecture_code": 25,
    "city": "高島市",
    "city_kana": "タカシマシ",
    "town": "安曇川町五番領",
    "town_kana": "アドガワチョウゴバンリョウ",
    "street": null,
    "office_name": null,
    "office_name_kana": null
  },
  "1214": {
    "postcode": "5201214",
    "prefecture": "滋賀県",
    "prefecture_kana": "シガケン",
    "prefecture_code": 25,
    "city": "高島市",
    "city_kana": "タカシマシ",
    "town": "安曇川町末広",
    "town_kana": "アドガワチョウスエヒロ",
    "street": null,
    "office_name": null,
    "office_name_kana": null
  },
  "1215": {
    "postcode": "5201215",
    "prefecture": "滋賀県",
    "prefecture_kana": "シガケン",
    "prefecture_code": 25,
    "city": "高島市",
    "city_kana": "タカシマシ",
    "town": "安曇川町三尾里",
    "town_kana": "アドガワチョウミオザト",
    "street": null,
    "office_name": null,
    "office_name_kana": null
  },
  "1216": {
    "postcode": "5201216",
    "prefecture": "滋賀県",
    "prefecture_kana": "シガケン",
    "prefecture_code": 25,
    "city": "高島市",
    "city_kana": "タカシマシ",
    "town": "安曇川町中央",
    "town_kana": "アドガワチョウチュウオウ",
    "street": null,
    "office_name": null,
    "office_name_kana": null
  },
  "1217": {
    "postcode": "5201217",
    "prefecture": "滋賀県",
    "prefecture_kana": "シガケン",
    "prefecture_code": 25,
    "city": "高島市",
    "city_kana": "タカシマシ",
    "town": "安曇川町田中",
    "town_kana": "アドガワチョウタナカ",
    "street": null,
    "office_name": null,
    "office_name_kana": null
  },
  "1221": {
    "postcode": "5201221",
    "prefecture": "滋賀県",
    "prefecture_kana": "シガケン",
    "prefecture_code": 25,
    "city": "高島市",
    "city_kana": "タカシマシ",
    "town": "安曇川町青柳",
    "town_kana": "アドガワチョウアオヤギ",
    "street": null,
    "office_name": null,
    "office_name_kana": null
  },
  "1222": {
    "postcode": "5201222",
    "prefecture": "滋賀県",
    "prefecture_kana": "シガケン",
    "prefecture_code": 25,
    "city": "高島市",
    "city_kana": "タカシマシ",
    "town": "安曇川町横江",
    "town_kana": "アドガワチョウヨコエ",
    "street": null,
    "office_name": null,
    "office_name_kana": null
  },
  "1223": {
    "postcode": "5201223",
    "prefecture": "滋賀県",
    "prefecture_kana": "シガケン",
    "prefecture_code": 25,
    "city": "高島市",
    "city_kana": "タカシマシ",
    "town": "安曇川町下小川",
    "town_kana": "アドガワチョウシモオガワ",
    "street": null,
    "office_name": null,
    "office_name_kana": null
  },
  "1224": {
    "postcode": "5201224",
    "prefecture": "滋賀県",
    "prefecture_kana": "シガケン",
    "prefecture_code": 25,
    "city": "高島市",
    "city_kana": "タカシマシ",
    "town": "安曇川町上小川",
    "town_kana": "アドガワチョウカミオガワ",
    "street": null,
    "office_name": null,
    "office_name_kana": null
  },
  "1231": {
    "postcode": "5201231",
    "prefecture": "滋賀県",
    "prefecture_kana": "シガケン",
    "prefecture_code": 25,
    "city": "高島市",
    "city_kana": "タカシマシ",
    "town": "安曇川町川島",
    "town_kana": "アドガワチョウカワシマ",
    "street": null,
    "office_name": null,
    "office_name_kana": null
  },
  "1232": {
    "postcode": "5201232",
    "prefecture": "滋賀県",
    "prefecture_kana": "シガケン",
    "prefecture_code": 25,
    "city": "高島市",
    "city_kana": "タカシマシ",
    "town": "安曇川町北船木",
    "town_kana": "アドガワチョウキタフナキ",
    "street": null,
    "office_name": null,
    "office_name_kana": null
  },
  "1233": {
    "postcode": "5201233",
    "prefecture": "滋賀県",
    "prefecture_kana": "シガケン",
    "prefecture_code": 25,
    "city": "高島市",
    "city_kana": "タカシマシ",
    "town": "安曇川町南船木",
    "town_kana": "アドガワチョウミナミフナキ",
    "street": null,
    "office_name": null,
    "office_name_kana": null
  },
  "1234": {
    "postcode": "5201234",
    "prefecture": "滋賀県",
    "prefecture_kana": "シガケン",
    "prefecture_code": 25,
    "city": "高島市",
    "city_kana": "タカシマシ",
    "town": "安曇川町四津川",
    "town_kana": "アドガワチョウヨツガワ",
    "street": null,
    "office_name": null,
    "office_name_kana": null
  },
  "1235": {
    "postcode": "5201235",
    "prefecture": "滋賀県",
    "prefecture_kana": "シガケン",
    "prefecture_code": 25,
    "city": "高島市",
    "city_kana": "タカシマシ",
    "town": "安曇川町横江浜",
    "town_kana": "アドガワチョウヨコエハマ",
    "street": null,
    "office_name": null,
    "office_name_kana": null
  },
  "1292": {
    "postcode": "5201292",
    "prefecture": "滋賀県",
    "prefecture_kana": "シガケン",
    "prefecture_code": 25,
    "city": "高島市",
    "city_kana": "タカシマシ",
    "town": "安曇川町田中",
    "town_kana": "アドガワチョウタナカ",
    "street": "４５５",
    "office_name": "高島市役所　安曇川支所",
    "office_name_kana": "タカシマシヤクシヨ アドガワシシヨ"
  },
  "1401": {
    "postcode": "5201401",
    "prefecture": "滋賀県",
    "prefecture_kana": "シガケン",
    "prefecture_code": 25,
    "city": "高島市",
    "city_kana": "タカシマシ",
    "town": "朽木市場",
    "town_kana": "クツキイチバ",
    "street": null,
    "office_name": null,
    "office_name_kana": null
  },
  "1411": {
    "postcode": "5201411",
    "prefecture": "滋賀県",
    "prefecture_kana": "シガケン",
    "prefecture_code": 25,
    "city": "高島市",
    "city_kana": "タカシマシ",
    "town": "朽木荒川",
    "town_kana": "クツキアラカワ",
    "street": null,
    "office_name": null,
    "office_name_kana": null
  },
  "1412": {
    "postcode": "5201412",
    "prefecture": "滋賀県",
    "prefecture_kana": "シガケン",
    "prefecture_code": 25,
    "city": "高島市",
    "city_kana": "タカシマシ",
    "town": "朽木野尻",
    "town_kana": "クツキノジリ",
    "street": null,
    "office_name": null,
    "office_name_kana": null
  },
  "1413": {
    "postcode": "5201413",
    "prefecture": "滋賀県",
    "prefecture_kana": "シガケン",
    "prefecture_code": 25,
    "city": "高島市",
    "city_kana": "タカシマシ",
    "town": "朽木上野",
    "town_kana": "クツキウエノ",
    "street": null,
    "office_name": null,
    "office_name_kana": null
  },
  "1414": {
    "postcode": "5201414",
    "prefecture": "滋賀県",
    "prefecture_kana": "シガケン",
    "prefecture_code": 25,
    "city": "高島市",
    "city_kana": "タカシマシ",
    "town": "朽木宮前坊",
    "town_kana": "クツキミヤマエボウ",
    "street": null,
    "office_name": null,
    "office_name_kana": null
  },
  "1415": {
    "postcode": "5201415",
    "prefecture": "滋賀県",
    "prefecture_kana": "シガケン",
    "prefecture_code": 25,
    "city": "高島市",
    "city_kana": "タカシマシ",
    "town": "朽木柏",
    "town_kana": "クツキカセ",
    "street": null,
    "office_name": null,
    "office_name_kana": null
  },
  "1421": {
    "postcode": "5201421",
    "prefecture": "滋賀県",
    "prefecture_kana": "シガケン",
    "prefecture_code": 25,
    "city": "高島市",
    "city_kana": "タカシマシ",
    "town": "朽木岩瀬",
    "town_kana": "クツキイワセ",
    "street": null,
    "office_name": null,
    "office_name_kana": null
  },
  "1422": {
    "postcode": "5201422",
    "prefecture": "滋賀県",
    "prefecture_kana": "シガケン",
    "prefecture_code": 25,
    "city": "高島市",
    "city_kana": "タカシマシ",
    "town": "朽木古川",
    "town_kana": "クツキフルカワ",
    "street": null,
    "office_name": null,
    "office_name_kana": null
  },
  "1423": {
    "postcode": "5201423",
    "prefecture": "滋賀県",
    "prefecture_kana": "シガケン",
    "prefecture_code": 25,
    "city": "高島市",
    "city_kana": "タカシマシ",
    "town": "朽木大野",
    "town_kana": "クツキオオノ",
    "street": null,
    "office_name": null,
    "office_name_kana": null
  },
  "1424": {
    "postcode": "5201424",
    "prefecture": "滋賀県",
    "prefecture_kana": "シガケン",
    "prefecture_code": 25,
    "city": "高島市",
    "city_kana": "タカシマシ",
    "town": "朽木村井",
    "town_kana": "クツキムライ",
    "street": null,
    "office_name": null,
    "office_name_kana": null
  },
  "1425": {
    "postcode": "5201425",
    "prefecture": "滋賀県",
    "prefecture_kana": "シガケン",
    "prefecture_code": 25,
    "city": "高島市",
    "city_kana": "タカシマシ",
    "town": "朽木栃生",
    "town_kana": "クツキトチュウ",
    "street": null,
    "office_name": null,
    "office_name_kana": null
  },
  "1431": {
    "postcode": "5201431",
    "prefecture": "滋賀県",
    "prefecture_kana": "シガケン",
    "prefecture_code": 25,
    "city": "高島市",
    "city_kana": "タカシマシ",
    "town": "朽木小川",
    "town_kana": "クツキコガワ",
    "street": null,
    "office_name": null,
    "office_name_kana": null
  },
  "1432": {
    "postcode": "5201432",
    "prefecture": "滋賀県",
    "prefecture_kana": "シガケン",
    "prefecture_code": 25,
    "city": "高島市",
    "city_kana": "タカシマシ",
    "town": "朽木平良",
    "town_kana": "クツキヘラ",
    "street": null,
    "office_name": null,
    "office_name_kana": null
  },
  "1433": {
    "postcode": "5201433",
    "prefecture": "滋賀県",
    "prefecture_kana": "シガケン",
    "prefecture_code": 25,
    "city": "高島市",
    "city_kana": "タカシマシ",
    "town": "朽木桑原",
    "town_kana": "クツキクワバラ",
    "street": null,
    "office_name": null,
    "office_name_kana": null
  },
  "1441": {
    "postcode": "5201441",
    "prefecture": "滋賀県",
    "prefecture_kana": "シガケン",
    "prefecture_code": 25,
    "city": "高島市",
    "city_kana": "タカシマシ",
    "town": "朽木古屋",
    "town_kana": "クツキフルヤ",
    "street": null,
    "office_name": null,
    "office_name_kana": null
  },
  "1442": {
    "postcode": "5201442",
    "prefecture": "滋賀県",
    "prefecture_kana": "シガケン",
    "prefecture_code": 25,
    "city": "高島市",
    "city_kana": "タカシマシ",
    "town": "朽木生杉",
    "town_kana": "クツキオイスギ",
    "street": null,
    "office_name": null,
    "office_name_kana": null
  },
  "1443": {
    "postcode": "5201443",
    "prefecture": "滋賀県",
    "prefecture_kana": "シガケン",
    "prefecture_code": 25,
    "city": "高島市",
    "city_kana": "タカシマシ",
    "town": "朽木小入谷",
    "town_kana": "クツキオニュウダニ",
    "street": null,
    "office_name": null,
    "office_name_kana": null
  },
  "1444": {
    "postcode": "5201444",
    "prefecture": "滋賀県",
    "prefecture_kana": "シガケン",
    "prefecture_code": 25,
    "city": "高島市",
    "city_kana": "タカシマシ",
    "town": "朽木中牧",
    "town_kana": "クツキナカマキ",
    "street": null,
    "office_name": null,
    "office_name_kana": null
  },
  "1451": {
    "postcode": "5201451",
    "prefecture": "滋賀県",
    "prefecture_kana": "シガケン",
    "prefecture_code": 25,
    "city": "高島市",
    "city_kana": "タカシマシ",
    "town": "朽木麻生",
    "town_kana": "クツキアソウ",
    "street": null,
    "office_name": null,
    "office_name_kana": null
  },
  "1452": {
    "postcode": "5201452",
    "prefecture": "滋賀県",
    "prefecture_kana": "シガケン",
    "prefecture_code": 25,
    "city": "高島市",
    "city_kana": "タカシマシ",
    "town": "朽木地子原",
    "town_kana": "クツキジシハラ",
    "street": null,
    "office_name": null,
    "office_name_kana": null
  },
  "1453": {
    "postcode": "5201453",
    "prefecture": "滋賀県",
    "prefecture_kana": "シガケン",
    "prefecture_code": 25,
    "city": "高島市",
    "city_kana": "タカシマシ",
    "town": "朽木雲洞谷",
    "town_kana": "クツキウトウダニ",
    "street": null,
    "office_name": null,
    "office_name_kana": null
  },
  "1454": {
    "postcode": "5201454",
    "prefecture": "滋賀県",
    "prefecture_kana": "シガケン",
    "prefecture_code": 25,
    "city": "高島市",
    "city_kana": "タカシマシ",
    "town": "朽木能家",
    "town_kana": "クツキノウゲ",
    "street": null,
    "office_name": null,
    "office_name_kana": null
  },
  "1455": {
    "postcode": "5201455",
    "prefecture": "滋賀県",
    "prefecture_kana": "シガケン",
    "prefecture_code": 25,
    "city": "高島市",
    "city_kana": "タカシマシ",
    "town": "朽木木地山",
    "town_kana": "クツキキジヤマ",
    "street": null,
    "office_name": null,
    "office_name_kana": null
  },
  "1492": {
    "postcode": "5201492",
    "prefecture": "滋賀県",
    "prefecture_kana": "シガケン",
    "prefecture_code": 25,
    "city": "高島市",
    "city_kana": "タカシマシ",
    "town": "朽木市場",
    "town_kana": "クツキイチバ",
    "street": "６０４",
    "office_name": "高島市役所　朽木支所",
    "office_name_kana": "タカシマシヤクシヨ クツキシシヨ"
  },
  "1495": {
    "postcode": "5201495",
    "prefecture": "滋賀県",
    "prefecture_kana": "シガケン",
    "prefecture_code": 25,
    "city": "高島市",
    "city_kana": "タカシマシ",
    "town": "朽木宮前坊",
    "town_kana": "クツキミヤマエボウ",
    "street": "６７−２１２",
    "office_name": "朽木ゴルフ倶楽部",
    "office_name_kana": "クツキゴルフクラブ"
  },
  "1501": {
    "postcode": "5201501",
    "prefecture": "滋賀県",
    "prefecture_kana": "シガケン",
    "prefecture_code": 25,
    "city": "高島市",
    "city_kana": "タカシマシ",
    "town": "新旭町旭",
    "town_kana": "シンアサヒチョウアサヒ",
    "street": null,
    "office_name": null,
    "office_name_kana": null
  },
  "1502": {
    "postcode": "5201502",
    "prefecture": "滋賀県",
    "prefecture_kana": "シガケン",
    "prefecture_code": 25,
    "city": "高島市",
    "city_kana": "タカシマシ",
    "town": "新旭町針江",
    "town_kana": "シンアサヒチョウハリエ",
    "street": null,
    "office_name": null,
    "office_name_kana": null
  },
  "1503": {
    "postcode": "5201503",
    "prefecture": "滋賀県",
    "prefecture_kana": "シガケン",
    "prefecture_code": 25,
    "city": "高島市",
    "city_kana": "タカシマシ",
    "town": "新旭町深溝",
    "town_kana": "シンアサヒチョウフカミゾ",
    "street": null,
    "office_name": null,
    "office_name_kana": null
  },
  "1511": {
    "postcode": "5201511",
    "prefecture": "滋賀県",
    "prefecture_kana": "シガケン",
    "prefecture_code": 25,
    "city": "高島市",
    "city_kana": "タカシマシ",
    "town": "新旭町藁園",
    "town_kana": "シンアサヒチョウワラソノ",
    "street": null,
    "office_name": null,
    "office_name_kana": null
  },
  "1512": {
    "postcode": "5201512",
    "prefecture": "滋賀県",
    "prefecture_kana": "シガケン",
    "prefecture_code": 25,
    "city": "高島市",
    "city_kana": "タカシマシ",
    "town": "新旭町太田",
    "town_kana": "シンアサヒチョウオオタ",
    "street": null,
    "office_name": null,
    "office_name_kana": null
  },
  "1521": {
    "postcode": "5201521",
    "prefecture": "滋賀県",
    "prefecture_kana": "シガケン",
    "prefecture_code": 25,
    "city": "高島市",
    "city_kana": "タカシマシ",
    "town": "新旭町北畑",
    "town_kana": "シンアサヒチョウキタバタ",
    "street": null,
    "office_name": null,
    "office_name_kana": null
  },
  "1522": {
    "postcode": "5201522",
    "prefecture": "滋賀県",
    "prefecture_kana": "シガケン",
    "prefecture_code": 25,
    "city": "高島市",
    "city_kana": "タカシマシ",
    "town": "新旭町新庄",
    "town_kana": "シンアサヒチョウシンジョウ",
    "street": null,
    "office_name": null,
    "office_name_kana": null
  },
  "1531": {
    "postcode": "5201531",
    "prefecture": "滋賀県",
    "prefecture_kana": "シガケン",
    "prefecture_code": 25,
    "city": "高島市",
    "city_kana": "タカシマシ",
    "town": "新旭町饗庭",
    "town_kana": "シンアサヒチョウアイバ",
    "street": null,
    "office_name": null,
    "office_name_kana": null
  },
  "1532": {
    "postcode": "5201532",
    "prefecture": "滋賀県",
    "prefecture_kana": "シガケン",
    "prefecture_code": 25,
    "city": "高島市",
    "city_kana": "タカシマシ",
    "town": "新旭町熊野本",
    "town_kana": "シンアサヒチョウクマノモト",
    "street": null,
    "office_name": null,
    "office_name_kana": null
  },
  "1533": {
    "postcode": "5201533",
    "prefecture": "滋賀県",
    "prefecture_kana": "シガケン",
    "prefecture_code": 25,
    "city": "高島市",
    "city_kana": "タカシマシ",
    "town": "新旭町安井川",
    "town_kana": "シンアサヒチョウヤスイガワ",
    "street": null,
    "office_name": null,
    "office_name_kana": null
  },
  "1592": {
    "postcode": "5201592",
    "prefecture": "滋賀県",
    "prefecture_kana": "シガケン",
    "prefecture_code": 25,
    "city": "高島市",
    "city_kana": "タカシマシ",
    "town": "新旭町北畑",
    "town_kana": "シンアサヒチョウキタバタ",
    "street": "５６５",
    "office_name": "高島市役所",
    "office_name_kana": "タカシマシヤクシヨ"
  },
  "1601": {
    "postcode": "5201601",
    "prefecture": "滋賀県",
    "prefecture_kana": "シガケン",
    "prefecture_code": 25,
    "city": "高島市",
    "city_kana": "タカシマシ",
    "town": "今津町深清水",
    "town_kana": "イマヅチョウフカシミズ",
    "street": null,
    "office_name": null,
    "office_name_kana": null
  },
  "1602": {
    "postcode": "5201602",
    "prefecture": "滋賀県",
    "prefecture_kana": "シガケン",
    "prefecture_code": 25,
    "city": "高島市",
    "city_kana": "タカシマシ",
    "town": "今津町桂",
    "town_kana": "イマヅチョウカツラ",
    "street": null,
    "office_name": null,
    "office_name_kana": null
  },
  "1603": {
    "postcode": "5201603",
    "prefecture": "滋賀県",
    "prefecture_kana": "シガケン",
    "prefecture_code": 25,
    "city": "高島市",
    "city_kana": "タカシマシ",
    "town": "今津町北仰",
    "town_kana": "イマヅチョウキトゲ",
    "street": null,
    "office_name": null,
    "office_name_kana": null
  },
  "1604": {
    "postcode": "5201604",
    "prefecture": "滋賀県",
    "prefecture_kana": "シガケン",
    "prefecture_code": 25,
    "city": "高島市",
    "city_kana": "タカシマシ",
    "town": "今津町浜分",
    "town_kana": "イマヅチョウハマブン",
    "street": null,
    "office_name": null,
    "office_name_kana": null
  },
  "1605": {
    "postcode": "5201605",
    "prefecture": "滋賀県",
    "prefecture_kana": "シガケン",
    "prefecture_code": 25,
    "city": "高島市",
    "city_kana": "タカシマシ",
    "town": "今津町南新保",
    "town_kana": "イマヅチョウミナミシンボ",
    "street": null,
    "office_name": null,
    "office_name_kana": null
  },
  "1611": {
    "postcode": "5201611",
    "prefecture": "滋賀県",
    "prefecture_kana": "シガケン",
    "prefecture_code": 25,
    "city": "高島市",
    "city_kana": "タカシマシ",
    "town": "今津町弘川",
    "town_kana": "イマヅチョウヒロカワ",
    "street": null,
    "office_name": null,
    "office_name_kana": null
  },
  "1612": {
    "postcode": "5201612",
    "prefecture": "滋賀県",
    "prefecture_kana": "シガケン",
    "prefecture_code": 25,
    "city": "高島市",
    "city_kana": "タカシマシ",
    "town": "今津町下弘部",
    "town_kana": "イマヅチョウシモヒロベ",
    "street": null,
    "office_name": null,
    "office_name_kana": null
  },
  "1613": {
    "postcode": "5201613",
    "prefecture": "滋賀県",
    "prefecture_kana": "シガケン",
    "prefecture_code": 25,
    "city": "高島市",
    "city_kana": "タカシマシ",
    "town": "今津町上弘部",
    "town_kana": "イマヅチョウカミヒロベ",
    "street": null,
    "office_name": null,
    "office_name_kana": null
  },
  "1614": {
    "postcode": "5201614",
    "prefecture": "滋賀県",
    "prefecture_kana": "シガケン",
    "prefecture_code": 25,
    "city": "高島市",
    "city_kana": "タカシマシ",
    "town": "今津町藺生",
    "town_kana": "イマヅチョウユウ",
    "street": null,
    "office_name": null,
    "office_name_kana": null
  },
  "1621": {
    "postcode": "5201621",
    "prefecture": "滋賀県",
    "prefecture_kana": "シガケン",
    "prefecture_code": 25,
    "city": "高島市",
    "city_kana": "タカシマシ",
    "town": "今津町今津",
    "town_kana": "イマヅチョウイマヅ",
    "street": null,
    "office_name": null,
    "office_name_kana": null
  },
  "1622": {
    "postcode": "5201622",
    "prefecture": "滋賀県",
    "prefecture_kana": "シガケン",
    "prefecture_code": 25,
    "city": "高島市",
    "city_kana": "タカシマシ",
    "town": "今津町中沼",
    "town_kana": "イマヅチョウナカヌマ",
    "street": null,
    "office_name": null,
    "office_name_kana": null
  },
  "1623": {
    "postcode": "5201623",
    "prefecture": "滋賀県",
    "prefecture_kana": "シガケン",
    "prefecture_code": 25,
    "city": "高島市",
    "city_kana": "タカシマシ",
    "town": "今津町住吉",
    "town_kana": "イマヅチョウスミヨシ",
    "street": null,
    "office_name": null,
    "office_name_kana": null
  },
  "1631": {
    "postcode": "5201631",
    "prefecture": "滋賀県",
    "prefecture_kana": "シガケン",
    "prefecture_code": 25,
    "city": "高島市",
    "city_kana": "タカシマシ",
    "town": "今津町名小路",
    "town_kana": "イマヅチョウナコジ",
    "street": null,
    "office_name": null,
    "office_name_kana": null
  },
  "1632": {
    "postcode": "5201632",
    "prefecture": "滋賀県",
    "prefecture_kana": "シガケン",
    "prefecture_code": 25,
    "city": "高島市",
    "city_kana": "タカシマシ",
    "town": "今津町桜町",
    "town_kana": "イマヅチョウサクラマチ",
    "street": null,
    "office_name": null,
    "office_name_kana": null
  },
  "1633": {
    "postcode": "5201633",
    "prefecture": "滋賀県",
    "prefecture_kana": "シガケン",
    "prefecture_code": 25,
    "city": "高島市",
    "city_kana": "タカシマシ",
    "town": "今津町松陽台",
    "town_kana": "イマヅチョウショウヨウダイ",
    "street": null,
    "office_name": null,
    "office_name_kana": null
  },
  "1634": {
    "postcode": "5201634",
    "prefecture": "滋賀県",
    "prefecture_kana": "シガケン",
    "prefecture_code": 25,
    "city": "高島市",
    "city_kana": "タカシマシ",
    "town": "今津町大供大門",
    "town_kana": "イマヅチョウオオトモダイモン",
    "street": null,
    "office_name": null,
    "office_name_kana": null
  },
  "1635": {
    "postcode": "5201635",
    "prefecture": "滋賀県",
    "prefecture_kana": "シガケン",
    "prefecture_code": 25,
    "city": "高島市",
    "city_kana": "タカシマシ",
    "town": "今津町大供",
    "town_kana": "イマヅチョウオオトモ",
    "street": null,
    "office_name": null,
    "office_name_kana": null
  },
  "1636": {
    "postcode": "5201636",
    "prefecture": "滋賀県",
    "prefecture_kana": "シガケン",
    "prefecture_code": 25,
    "city": "高島市",
    "city_kana": "タカシマシ",
    "town": "今津町舟橋",
    "town_kana": "イマヅチョウフナバシ",
    "street": null,
    "office_name": null,
    "office_name_kana": null
  },
  "1641": {
    "postcode": "5201641",
    "prefecture": "滋賀県",
    "prefecture_kana": "シガケン",
    "prefecture_code": 25,
    "city": "高島市",
    "city_kana": "タカシマシ",
    "town": "今津町南生見",
    "town_kana": "イマヅチョウミナミウミ",
    "street": null,
    "office_name": null,
    "office_name_kana": null
  },
  "1642": {
    "postcode": "5201642",
    "prefecture": "滋賀県",
    "prefecture_kana": "シガケン",
    "prefecture_code": 25,
    "city": "高島市",
    "city_kana": "タカシマシ",
    "town": "今津町北生見",
    "town_kana": "イマヅチョウキタウミ",
    "street": null,
    "office_name": null,
    "office_name_kana": null
  },
  "1643": {
    "postcode": "5201643",
    "prefecture": "滋賀県",
    "prefecture_kana": "シガケン",
    "prefecture_code": 25,
    "city": "高島市",
    "city_kana": "タカシマシ",
    "town": "今津町保坂",
    "town_kana": "イマヅチョウホウザカ",
    "street": null,
    "office_name": null,
    "office_name_kana": null
  },
  "1644": {
    "postcode": "5201644",
    "prefecture": "滋賀県",
    "prefecture_kana": "シガケン",
    "prefecture_code": 25,
    "city": "高島市",
    "city_kana": "タカシマシ",
    "town": "今津町途中谷",
    "town_kana": "イマヅチョウトチュウダニ",
    "street": null,
    "office_name": null,
    "office_name_kana": null
  },
  "1645": {
    "postcode": "5201645",
    "prefecture": "滋賀県",
    "prefecture_kana": "シガケン",
    "prefecture_code": 25,
    "city": "高島市",
    "city_kana": "タカシマシ",
    "town": "今津町椋川",
    "town_kana": "イマヅチョウムクガワ",
    "street": null,
    "office_name": null,
    "office_name_kana": null
  },
  "1646": {
    "postcode": "5201646",
    "prefecture": "滋賀県",
    "prefecture_kana": "シガケン",
    "prefecture_code": 25,
    "city": "高島市",
    "city_kana": "タカシマシ",
    "town": "今津町杉山",
    "town_kana": "イマヅチョウスギヤマ",
    "street": null,
    "office_name": null,
    "office_name_kana": null
  },
  "1647": {
    "postcode": "5201647",
    "prefecture": "滋賀県",
    "prefecture_kana": "シガケン",
    "prefecture_code": 25,
    "city": "高島市",
    "city_kana": "タカシマシ",
    "town": "今津町天増川",
    "town_kana": "イマヅチョウアマスガワ",
    "street": null,
    "office_name": null,
    "office_name_kana": null
  },
  "1648": {
    "postcode": "5201648",
    "prefecture": "滋賀県",
    "prefecture_kana": "シガケン",
    "prefecture_code": 25,
    "city": "高島市",
    "city_kana": "タカシマシ",
    "town": "今津町角川",
    "town_kana": "イマヅチョウツノガワ",
    "street": null,
    "office_name": null,
    "office_name_kana": null
  },
  "1651": {
    "postcode": "5201651",
    "prefecture": "滋賀県",
    "prefecture_kana": "シガケン",
    "prefecture_code": 25,
    "city": "高島市",
    "city_kana": "タカシマシ",
    "town": "今津町酒波",
    "town_kana": "イマヅチョウサナミ",
    "street": null,
    "office_name": null,
    "office_name_kana": null
  },
  "1652": {
    "postcode": "5201652",
    "prefecture": "滋賀県",
    "prefecture_kana": "シガケン",
    "prefecture_code": 25,
    "city": "高島市",
    "city_kana": "タカシマシ",
    "town": "今津町福岡",
    "town_kana": "イマヅチョウフクオカ",
    "street": null,
    "office_name": null,
    "office_name_kana": null
  },
  "1653": {
    "postcode": "5201653",
    "prefecture": "滋賀県",
    "prefecture_kana": "シガケン",
    "prefecture_code": 25,
    "city": "高島市",
    "city_kana": "タカシマシ",
    "town": "今津町岸脇",
    "town_kana": "イマヅチョウキシワキ",
    "street": null,
    "office_name": null,
    "office_name_kana": null
  },
  "1654": {
    "postcode": "5201654",
    "prefecture": "滋賀県",
    "prefecture_kana": "シガケン",
    "prefecture_code": 25,
    "city": "高島市",
    "city_kana": "タカシマシ",
    "town": "今津町梅原",
    "town_kana": "イマヅチョウウメハラ",
    "street": null,
    "office_name": null,
    "office_name_kana": null
  },
  "1655": {
    "postcode": "5201655",
    "prefecture": "滋賀県",
    "prefecture_kana": "シガケン",
    "prefecture_code": 25,
    "city": "高島市",
    "city_kana": "タカシマシ",
    "town": "今津町日置前",
    "town_kana": "イマヅチョウヒオキマエ",
    "street": null,
    "office_name": null,
    "office_name_kana": null
  },
  "1692": {
    "postcode": "5201692",
    "prefecture": "滋賀県",
    "prefecture_kana": "シガケン",
    "prefecture_code": 25,
    "city": "高島市",
    "city_kana": "タカシマシ",
    "town": "今津町弘川",
    "town_kana": "イマヅチョウヒロカワ",
    "street": "２５３",
    "office_name": "高島市役所　今津支所",
    "office_name_kana": "タカシマシヤクシヨ イマヅシシヨ"
  },
  "1801": {
    "postcode": "5201801",
    "prefecture": "滋賀県",
    "prefecture_kana": "シガケン",
    "prefecture_code": 25,
    "city": "高島市",
    "city_kana": "タカシマシ",
    "town": "マキノ町在原",
    "town_kana": "マキノチョウアリハラ",
    "street": null,
    "office_name": null,
    "office_name_kana": null
  },
  "1802": {
    "postcode": "5201802",
    "prefecture": "滋賀県",
    "prefecture_kana": "シガケン",
    "prefecture_code": 25,
    "city": "高島市",
    "city_kana": "タカシマシ",
    "town": "マキノ町野口",
    "town_kana": "マキノチョウノグチ",
    "street": null,
    "office_name": null,
    "office_name_kana": null
  },
  "1803": {
    "postcode": "5201803",
    "prefecture": "滋賀県",
    "prefecture_kana": "シガケン",
    "prefecture_code": 25,
    "city": "高島市",
    "city_kana": "タカシマシ",
    "town": "マキノ町小荒路",
    "town_kana": "マキノチョウコアラジ",
    "street": null,
    "office_name": null,
    "office_name_kana": null
  },
  "1804": {
    "postcode": "5201804",
    "prefecture": "滋賀県",
    "prefecture_kana": "シガケン",
    "prefecture_code": 25,
    "city": "高島市",
    "city_kana": "タカシマシ",
    "town": "マキノ町浦",
    "town_kana": "マキノチョウウラ",
    "street": null,
    "office_name": null,
    "office_name_kana": null
  },
  "1805": {
    "postcode": "5201805",
    "prefecture": "滋賀県",
    "prefecture_kana": "シガケン",
    "prefecture_code": 25,
    "city": "高島市",
    "city_kana": "タカシマシ",
    "town": "マキノ町下",
    "town_kana": "マキノチョウシモ",
    "street": null,
    "office_name": null,
    "office_name_kana": null
  },
  "1806": {
    "postcode": "5201806",
    "prefecture": "滋賀県",
    "prefecture_kana": "シガケン",
    "prefecture_code": 25,
    "city": "高島市",
    "city_kana": "タカシマシ",
    "town": "マキノ町山中",
    "town_kana": "マキノチョウヤマナカ",
    "street": null,
    "office_name": null,
    "office_name_kana": null
  },
  "1811": {
    "postcode": "5201811",
    "prefecture": "滋賀県",
    "prefecture_kana": "シガケン",
    "prefecture_code": 25,
    "city": "高島市",
    "city_kana": "タカシマシ",
    "town": "マキノ町海津",
    "town_kana": "マキノチョウカイヅ",
    "street": null,
    "office_name": null,
    "office_name_kana": null
  },
  "1812": {
    "postcode": "5201812",
    "prefecture": "滋賀県",
    "prefecture_kana": "シガケン",
    "prefecture_code": 25,
    "city": "高島市",
    "city_kana": "タカシマシ",
    "town": "マキノ町西浜",
    "town_kana": "マキノチョウニシハマ",
    "street": null,
    "office_name": null,
    "office_name_kana": null
  },
  "1813": {
    "postcode": "5201813",
    "prefecture": "滋賀県",
    "prefecture_kana": "シガケン",
    "prefecture_code": 25,
    "city": "高島市",
    "city_kana": "タカシマシ",
    "town": "マキノ町高木浜",
    "town_kana": "マキノチョウタカギハマ",
    "street": null,
    "office_name": null,
    "office_name_kana": null
  },
  "1814": {
    "postcode": "5201814",
    "prefecture": "滋賀県",
    "prefecture_kana": "シガケン",
    "prefecture_code": 25,
    "city": "高島市",
    "city_kana": "タカシマシ",
    "town": "マキノ町知内",
    "town_kana": "マキノチョウチナイ",
    "street": null,
    "office_name": null,
    "office_name_kana": null
  },
  "1821": {
    "postcode": "5201821",
    "prefecture": "滋賀県",
    "prefecture_kana": "シガケン",
    "prefecture_code": 25,
    "city": "高島市",
    "city_kana": "タカシマシ",
    "town": "マキノ町沢",
    "town_kana": "マキノチョウサワ",
    "street": null,
    "office_name": null,
    "office_name_kana": null
  },
  "1822": {
    "postcode": "5201822",
    "prefecture": "滋賀県",
    "prefecture_kana": "シガケン",
    "prefecture_code": 25,
    "city": "高島市",
    "city_kana": "タカシマシ",
    "town": "マキノ町新保",
    "town_kana": "マキノチョウシンボ",
    "street": null,
    "office_name": null,
    "office_name_kana": null
  },
  "1823": {
    "postcode": "5201823",
    "prefecture": "滋賀県",
    "prefecture_kana": "シガケン",
    "prefecture_code": 25,
    "city": "高島市",
    "city_kana": "タカシマシ",
    "town": "マキノ町中庄",
    "town_kana": "マキノチョウナカショウ",
    "street": null,
    "office_name": null,
    "office_name_kana": null
  },
  "1824": {
    "postcode": "5201824",
    "prefecture": "滋賀県",
    "prefecture_kana": "シガケン",
    "prefecture_code": 25,
    "city": "高島市",
    "city_kana": "タカシマシ",
    "town": "マキノ町大沼",
    "town_kana": "マキノチョウオオヌマ",
    "street": null,
    "office_name": null,
    "office_name_kana": null
  },
  "1825": {
    "postcode": "5201825",
    "prefecture": "滋賀県",
    "prefecture_kana": "シガケン",
    "prefecture_code": 25,
    "city": "高島市",
    "city_kana": "タカシマシ",
    "town": "マキノ町森西",
    "town_kana": "マキノチョウモリニシ",
    "street": null,
    "office_name": null,
    "office_name_kana": null
  },
  "1826": {
    "postcode": "5201826",
    "prefecture": "滋賀県",
    "prefecture_kana": "シガケン",
    "prefecture_code": 25,
    "city": "高島市",
    "city_kana": "タカシマシ",
    "town": "マキノ町辻",
    "town_kana": "マキノチョウツジ",
    "street": null,
    "office_name": null,
    "office_name_kana": null
  },
  "1831": {
    "postcode": "5201831",
    "prefecture": "滋賀県",
    "prefecture_kana": "シガケン",
    "prefecture_code": 25,
    "city": "高島市",
    "city_kana": "タカシマシ",
    "town": "マキノ町上開田",
    "town_kana": "マキノチョウカミカイデ",
    "street": null,
    "office_name": null,
    "office_name_kana": null
  },
  "1832": {
    "postcode": "5201832",
    "prefecture": "滋賀県",
    "prefecture_kana": "シガケン",
    "prefecture_code": 25,
    "city": "高島市",
    "city_kana": "タカシマシ",
    "town": "マキノ町下開田",
    "town_kana": "マキノチョウシモカイデ",
    "street": null,
    "office_name": null,
    "office_name_kana": null
  },
  "1833": {
    "postcode": "5201833",
    "prefecture": "滋賀県",
    "prefecture_kana": "シガケン",
    "prefecture_code": 25,
    "city": "高島市",
    "city_kana": "タカシマシ",
    "town": "マキノ町蛭口",
    "town_kana": "マキノチョウヒルグチ",
    "street": null,
    "office_name": null,
    "office_name_kana": null
  },
  "1834": {
    "postcode": "5201834",
    "prefecture": "滋賀県",
    "prefecture_kana": "シガケン",
    "prefecture_code": 25,
    "city": "高島市",
    "city_kana": "タカシマシ",
    "town": "マキノ町寺久保",
    "town_kana": "マキノチョウテラクボ",
    "street": null,
    "office_name": null,
    "office_name_kana": null
  },
  "1835": {
    "postcode": "5201835",
    "prefecture": "滋賀県",
    "prefecture_kana": "シガケン",
    "prefecture_code": 25,
    "city": "高島市",
    "city_kana": "タカシマシ",
    "town": "マキノ町石庭",
    "town_kana": "マキノチョウイシバ",
    "street": null,
    "office_name": null,
    "office_name_kana": null
  },
  "1836": {
    "postcode": "5201836",
    "prefecture": "滋賀県",
    "prefecture_kana": "シガケン",
    "prefecture_code": 25,
    "city": "高島市",
    "city_kana": "タカシマシ",
    "town": "マキノ町牧野",
    "town_kana": "マキノチョウマキノ",
    "street": null,
    "office_name": null,
    "office_name_kana": null
  },
  "1837": {
    "postcode": "5201837",
    "prefecture": "滋賀県",
    "prefecture_kana": "シガケン",
    "prefecture_code": 25,
    "city": "高島市",
    "city_kana": "タカシマシ",
    "town": "マキノ町白谷",
    "town_kana": "マキノチョウシラタニ",
    "street": null,
    "office_name": null,
    "office_name_kana": null
  },
  "1892": {
    "postcode": "5201892",
    "prefecture": "滋賀県",
    "prefecture_kana": "シガケン",
    "prefecture_code": 25,
    "city": "高島市",
    "city_kana": "タカシマシ",
    "town": "マキノ町沢",
    "town_kana": "マキノチョウサワ",
    "street": "１４１０",
    "office_name": "高島市役所　マキノ支所",
    "office_name_kana": "タカシマシヤクシヨ マキノシシヨ"
  },
  "2101": {
    "postcode": "5202101",
    "prefecture": "滋賀県",
    "prefecture_kana": "シガケン",
    "prefecture_code": 25,
    "city": "大津市",
    "city_kana": "オオツシ",
    "town": "青山",
    "town_kana": "アオヤマ",
    "street": null,
    "office_name": null,
    "office_name_kana": null
  },
  "2102": {
    "postcode": "5202102",
    "prefecture": "滋賀県",
    "prefecture_kana": "シガケン",
    "prefecture_code": 25,
    "city": "大津市",
    "city_kana": "オオツシ",
    "town": "松が丘",
    "town_kana": "マツガオカ",
    "street": null,
    "office_name": null,
    "office_name_kana": null
  },
  "2111": {
    "postcode": "5202111",
    "prefecture": "滋賀県",
    "prefecture_kana": "シガケン",
    "prefecture_code": 25,
    "city": "大津市",
    "city_kana": "オオツシ",
    "town": "桐生",
    "town_kana": "キリュウ",
    "street": null,
    "office_name": null,
    "office_name_kana": null
  },
  "2112": {
    "postcode": "5202112",
    "prefecture": "滋賀県",
    "prefecture_kana": "シガケン",
    "prefecture_code": 25,
    "city": "大津市",
    "city_kana": "オオツシ",
    "town": "牧",
    "town_kana": "マキ",
    "street": null,
    "office_name": null,
    "office_name_kana": null
  },
  "2113": {
    "postcode": "5202113",
    "prefecture": "滋賀県",
    "prefecture_kana": "シガケン",
    "prefecture_code": 25,
    "city": "大津市",
    "city_kana": "オオツシ",
    "town": "平野",
    "town_kana": "ヒラノ",
    "street": null,
    "office_name": null,
    "office_name_kana": null
  },
  "2114": {
    "postcode": "5202114",
    "prefecture": "滋賀県",
    "prefecture_kana": "シガケン",
    "prefecture_code": 25,
    "city": "大津市",
    "city_kana": "オオツシ",
    "town": "中野",
    "town_kana": "ナカノ",
    "street": null,
    "office_name": null,
    "office_name_kana": null
  },
  "2115": {
    "postcode": "5202115",
    "prefecture": "滋賀県",
    "prefecture_kana": "シガケン",
    "prefecture_code": 25,
    "city": "大津市",
    "city_kana": "オオツシ",
    "town": "新免",
    "town_kana": "シンメン",
    "street": null,
    "office_name": null,
    "office_name_kana": null
  },
  "2116": {
    "postcode": "5202116",
    "prefecture": "滋賀県",
    "prefecture_kana": "シガケン",
    "prefecture_code": 25,
    "city": "大津市",
    "city_kana": "オオツシ",
    "town": "堂",
    "town_kana": "ドウ",
    "street": null,
    "office_name": null,
    "office_name_kana": null
  },
  "2117": {
    "postcode": "5202117",
    "prefecture": "滋賀県",
    "prefecture_kana": "シガケン",
    "prefecture_code": 25,
    "city": "大津市",
    "city_kana": "オオツシ",
    "town": "芝原",
    "town_kana": "シバハラ",
    "street": null,
    "office_name": null,
    "office_name_kana": null
  },
  "2118": {
    "postcode": "5202118",
    "prefecture": "滋賀県",
    "prefecture_kana": "シガケン",
    "prefecture_code": 25,
    "city": "大津市",
    "city_kana": "オオツシ",
    "town": "大鳥居",
    "town_kana": "オオドリイ",
    "street": null,
    "office_name": null,
    "office_name_kana": null
  },
  "2121": {
    "postcode": "5202121",
    "prefecture": "滋賀県",
    "prefecture_kana": "シガケン",
    "prefecture_code": 25,
    "city": "大津市",
    "city_kana": "オオツシ",
    "town": "瀬田月輪町",
    "town_kana": "セタツキノワチョウ",
    "street": null,
    "office_name": null,
    "office_name_kana": null
  },
  "2122": {
    "postcode": "5202122",
    "prefecture": "滋賀県",
    "prefecture_kana": "シガケン",
    "prefecture_code": 25,
    "city": "大津市",
    "city_kana": "オオツシ",
    "town": "瀬田南大萱町",
    "town_kana": "セタミナミオオガヤチョウ",
    "street": null,
    "office_name": null,
    "office_name_kana": null
  },
  "2123": {
    "postcode": "5202123",
    "prefecture": "滋賀県",
    "prefecture_kana": "シガケン",
    "prefecture_code": 25,
    "city": "大津市",
    "city_kana": "オオツシ",
    "town": "瀬田大江町",
    "town_kana": "セタオオエチョウ",
    "street": null,
    "office_name": null,
    "office_name_kana": null
  },
  "2124": {
    "postcode": "5202124",
    "prefecture": "滋賀県",
    "prefecture_kana": "シガケン",
    "prefecture_code": 25,
    "city": "大津市",
    "city_kana": "オオツシ",
    "town": "瀬田神領町",
    "town_kana": "セタジンリョウチョウ",
    "street": null,
    "office_name": null,
    "office_name_kana": null
  },
  "2125": {
    "postcode": "5202125",
    "prefecture": "滋賀県",
    "prefecture_kana": "シガケン",
    "prefecture_code": 25,
    "city": "大津市",
    "city_kana": "オオツシ",
    "town": "瀬田橋本町",
    "town_kana": "セタハシモトチョウ",
    "street": null,
    "office_name": null,
    "office_name_kana": null
  },
  "2131": {
    "postcode": "5202131",
    "prefecture": "滋賀県",
    "prefecture_kana": "シガケン",
    "prefecture_code": 25,
    "city": "大津市",
    "city_kana": "オオツシ",
    "town": "三大寺",
    "town_kana": "サンダイジ",
    "street": null,
    "office_name": null,
    "office_name_kana": null
  },
  "2132": {
    "postcode": "5202132",
    "prefecture": "滋賀県",
    "prefecture_kana": "シガケン",
    "prefecture_code": 25,
    "city": "大津市",
    "city_kana": "オオツシ",
    "town": "神領",
    "town_kana": "ジンリョウ",
    "street": null,
    "office_name": null,
    "office_name_kana": null
  },
  "2133": {
    "postcode": "5202133",
    "prefecture": "滋賀県",
    "prefecture_kana": "シガケン",
    "prefecture_code": 25,
    "city": "大津市",
    "city_kana": "オオツシ",
    "town": "野郷原",
    "town_kana": "ノゴウハラ",
    "street": null,
    "office_name": null,
    "office_name_kana": null
  },
  "2134": {
    "postcode": "5202134",
    "prefecture": "滋賀県",
    "prefecture_kana": "シガケン",
    "prefecture_code": 25,
    "city": "大津市",
    "city_kana": "オオツシ",
    "town": "瀬田",
    "town_kana": "セタ",
    "street": null,
    "office_name": null,
    "office_name_kana": null
  },
  "2135": {
    "postcode": "5202135",
    "prefecture": "滋賀県",
    "prefecture_kana": "シガケン",
    "prefecture_code": 25,
    "city": "大津市",
    "city_kana": "オオツシ",
    "town": "松陽",
    "town_kana": "ショウヨウ",
    "street": null,
    "office_name": null,
    "office_name_kana": null
  },
  "2141": {
    "postcode": "5202141",
    "prefecture": "滋賀県",
    "prefecture_kana": "シガケン",
    "prefecture_code": 25,
    "city": "大津市",
    "city_kana": "オオツシ",
    "town": "大江",
    "town_kana": "オオエ",
    "street": null,
    "office_name": null,
    "office_name_kana": null
  },
  "2142": {
    "postcode": "5202142",
    "prefecture": "滋賀県",
    "prefecture_kana": "シガケン",
    "prefecture_code": 25,
    "city": "大津市",
    "city_kana": "オオツシ",
    "town": "玉野浦",
    "town_kana": "タマノウラ",
    "street": null,
    "office_name": null,
    "office_name_kana": null
  },
  "2143": {
    "postcode": "5202143",
    "prefecture": "滋賀県",
    "prefecture_kana": "シガケン",
    "prefecture_code": 25,
    "city": "大津市",
    "city_kana": "オオツシ",
    "town": "萱野浦",
    "town_kana": "カヤノウラ",
    "street": null,
    "office_name": null,
    "office_name_kana": null
  },
  "2144": {
    "postcode": "5202144",
    "prefecture": "滋賀県",
    "prefecture_kana": "シガケン",
    "prefecture_code": 25,
    "city": "大津市",
    "city_kana": "オオツシ",
    "town": "大萱",
    "town_kana": "オオガヤ",
    "street": null,
    "office_name": null,
    "office_name_kana": null
  },
  "2145": {
    "postcode": "5202145",
    "prefecture": "滋賀県",
    "prefecture_kana": "シガケン",
    "prefecture_code": 25,
    "city": "大津市",
    "city_kana": "オオツシ",
    "town": "大将軍",
    "town_kana": "タイショウグン",
    "street": null,
    "office_name": null,
    "office_name_kana": null
  },
  "2151": {
    "postcode": "5202151",
    "prefecture": "滋賀県",
    "prefecture_kana": "シガケン",
    "prefecture_code": 25,
    "city": "大津市",
    "city_kana": "オオツシ",
    "town": "栗林町",
    "town_kana": "クリバヤシチョウ",
    "street": null,
    "office_name": null,
    "office_name_kana": null
  },
  "2152": {
    "postcode": "5202152",
    "prefecture": "滋賀県",
    "prefecture_kana": "シガケン",
    "prefecture_code": 25,
    "city": "大津市",
    "city_kana": "オオツシ",
    "town": "月輪",
    "town_kana": "ツキノワ",
    "street": null,
    "office_name": null,
    "office_name_kana": null
  },
  "2153": {
    "postcode": "5202153",
    "prefecture": "滋賀県",
    "prefecture_kana": "シガケン",
    "prefecture_code": 25,
    "city": "大津市",
    "city_kana": "オオツシ",
    "town": "一里山",
    "town_kana": "イチリヤマ",
    "street": null,
    "office_name": null,
    "office_name_kana": null
  },
  "2161": {
    "postcode": "5202161",
    "prefecture": "滋賀県",
    "prefecture_kana": "シガケン",
    "prefecture_code": 25,
    "city": "大津市",
    "city_kana": "オオツシ",
    "town": "上田上桐生町",
    "town_kana": "カミタナカミキリュウチョウ",
    "street": null,
    "office_name": null,
    "office_name_kana": null
  },
  "2162": {
    "postcode": "5202162",
    "prefecture": "滋賀県",
    "prefecture_kana": "シガケン",
    "prefecture_code": 25,
    "city": "大津市",
    "city_kana": "オオツシ",
    "town": "上田上牧町",
    "town_kana": "カミタナカミマキチョウ",
    "street": null,
    "office_name": null,
    "office_name_kana": null
  },
  "2163": {
    "postcode": "5202163",
    "prefecture": "滋賀県",
    "prefecture_kana": "シガケン",
    "prefecture_code": 25,
    "city": "大津市",
    "city_kana": "オオツシ",
    "town": "上田上平野町",
    "town_kana": "カミタナカミヒラノチョウ",
    "street": null,
    "office_name": null,
    "office_name_kana": null
  },
  "2164": {
    "postcode": "5202164",
    "prefecture": "滋賀県",
    "prefecture_kana": "シガケン",
    "prefecture_code": 25,
    "city": "大津市",
    "city_kana": "オオツシ",
    "town": "上田上中野町",
    "town_kana": "カミタナカミナカノチョウ",
    "street": null,
    "office_name": null,
    "office_name_kana": null
  },
  "2165": {
    "postcode": "5202165",
    "prefecture": "滋賀県",
    "prefecture_kana": "シガケン",
    "prefecture_code": 25,
    "city": "大津市",
    "city_kana": "オオツシ",
    "town": "上田上新免町",
    "town_kana": "カミタナカミシンメチョウ",
    "street": null,
    "office_name": null,
    "office_name_kana": null
  },
  "2166": {
    "postcode": "5202166",
    "prefecture": "滋賀県",
    "prefecture_kana": "シガケン",
    "prefecture_code": 25,
    "city": "大津市",
    "city_kana": "オオツシ",
    "town": "上田上堂町",
    "town_kana": "カミタナカミドウチョウ",
    "street": null,
    "office_name": null,
    "office_name_kana": null
  },
  "2167": {
    "postcode": "5202167",
    "prefecture": "滋賀県",
    "prefecture_kana": "シガケン",
    "prefecture_code": 25,
    "city": "大津市",
    "city_kana": "オオツシ",
    "town": "上田上芝原町",
    "town_kana": "カミタナカミシバハラチョウ",
    "street": null,
    "office_name": null,
    "office_name_kana": null
  },
  "2192": {
    "postcode": "5202192",
    "prefecture": "滋賀県",
    "prefecture_kana": "シガケン",
    "prefecture_code": 25,
    "city": "大津市",
    "city_kana": "オオツシ",
    "town": "瀬田月輪町",
    "town_kana": "セタツキノワチョウ",
    "street": "",
    "office_name": "滋賀医科大学",
    "office_name_kana": "シガイカダイガク"
  },
  "2194": {
    "postcode": "5202194",
    "prefecture": "滋賀県",
    "prefecture_kana": "シガケン",
    "prefecture_code": 25,
    "city": "大津市",
    "city_kana": "オオツシ",
    "town": "瀬田大江町",
    "town_kana": "セタオオエチョウ",
    "street": "横谷１−５",
    "office_name": "龍谷大学",
    "office_name_kana": "リユウコクダイガク"
  },
  "2261": [
    {
      "postcode": "5202261",
      "prefecture": "滋賀県",
      "prefecture_kana": "シガケン",
      "prefecture_code": 25,
      "city": "大津市",
      "city_kana": "オオツシ",
      "town": "大石曽束",
      "town_kana": "オオイシソツカ",
      "street": null,
      "office_name": null,
      "office_name_kana": null
    },
    {
      "postcode": "5202261",
      "prefecture": "滋賀県",
      "prefecture_kana": "シガケン",
      "prefecture_code": 25,
      "city": "大津市",
      "city_kana": "オオツシ",
      "town": "大石曽束町",
      "town_kana": "オオイシソツカチョウ",
      "street": null,
      "office_name": null,
      "office_name_kana": null
    }
  ],
  "2262": [
    {
      "postcode": "5202262",
      "prefecture": "滋賀県",
      "prefecture_kana": "シガケン",
      "prefecture_code": 25,
      "city": "大津市",
      "city_kana": "オオツシ",
      "town": "大石淀",
      "town_kana": "オオイシヨド",
      "street": null,
      "office_name": null,
      "office_name_kana": null
    },
    {
      "postcode": "5202262",
      "prefecture": "滋賀県",
      "prefecture_kana": "シガケン",
      "prefecture_code": 25,
      "city": "大津市",
      "city_kana": "オオツシ",
      "town": "大石淀町",
      "town_kana": "オオイシヨドチョウ",
      "street": null,
      "office_name": null,
      "office_name_kana": null
    }
  ],
  "2263": {
    "postcode": "5202263",
    "prefecture": "滋賀県",
    "prefecture_kana": "シガケン",
    "prefecture_code": 25,
    "city": "大津市",
    "city_kana": "オオツシ",
    "town": "大石中",
    "town_kana": "オオイシナカ",
    "street": null,
    "office_name": null,
    "office_name_kana": null
  },
  "2264": {
    "postcode": "5202264",
    "prefecture": "滋賀県",
    "prefecture_kana": "シガケン",
    "prefecture_code": 25,
    "city": "大津市",
    "city_kana": "オオツシ",
    "town": "大石東",
    "town_kana": "オオイシヒガシ",
    "street": null,
    "office_name": null,
    "office_name_kana": null
  },
  "2265": [
    {
      "postcode": "5202265",
      "prefecture": "滋賀県",
      "prefecture_kana": "シガケン",
      "prefecture_code": 25,
      "city": "大津市",
      "city_kana": "オオツシ",
      "town": "大石富川",
      "town_kana": "オオイシトミカワ",
      "street": null,
      "office_name": null,
      "office_name_kana": null
    },
    {
      "postcode": "5202265",
      "prefecture": "滋賀県",
      "prefecture_kana": "シガケン",
      "prefecture_code": 25,
      "city": "大津市",
      "city_kana": "オオツシ",
      "town": "大石富川町",
      "town_kana": "オオイシトミカワチョウ",
      "street": null,
      "office_name": null,
      "office_name_kana": null
    }
  ],
  "2266": {
    "postcode": "5202266",
    "prefecture": "滋賀県",
    "prefecture_kana": "シガケン",
    "prefecture_code": 25,
    "city": "大津市",
    "city_kana": "オオツシ",
    "town": "大石龍門",
    "town_kana": "オオイシリュウモン",
    "street": null,
    "office_name": null,
    "office_name_kana": null
  },
  "2267": [
    {
      "postcode": "5202267",
      "prefecture": "滋賀県",
      "prefecture_kana": "シガケン",
      "prefecture_code": 25,
      "city": "大津市",
      "city_kana": "オオツシ",
      "town": "大石小田原",
      "town_kana": "オオイシオダワラ",
      "street": null,
      "office_name": null,
      "office_name_kana": null
    },
    {
      "postcode": "5202267",
      "prefecture": "滋賀県",
      "prefecture_kana": "シガケン",
      "prefecture_code": 25,
      "city": "大津市",
      "city_kana": "オオツシ",
      "town": "大石小田原町",
      "town_kana": "オオイシオダワラチョウ",
      "street": null,
      "office_name": null,
      "office_name_kana": null
    }
  ],
  "2271": {
    "postcode": "5202271",
    "prefecture": "滋賀県",
    "prefecture_kana": "シガケン",
    "prefecture_code": 25,
    "city": "大津市",
    "city_kana": "オオツシ",
    "town": "稲津",
    "town_kana": "イナヅ",
    "street": null,
    "office_name": null,
    "office_name_kana": null
  },
  "2272": {
    "postcode": "5202272",
    "prefecture": "滋賀県",
    "prefecture_kana": "シガケン",
    "prefecture_code": 25,
    "city": "大津市",
    "city_kana": "オオツシ",
    "town": "石居",
    "town_kana": "イシズエ",
    "street": null,
    "office_name": null,
    "office_name_kana": null
  },
  "2273": {
    "postcode": "5202273",
    "prefecture": "滋賀県",
    "prefecture_kana": "シガケン",
    "prefecture_code": 25,
    "city": "大津市",
    "city_kana": "オオツシ",
    "town": "羽栗",
    "town_kana": "ハグリ",
    "street": null,
    "office_name": null,
    "office_name_kana": null
  },
  "2274": {
    "postcode": "5202274",
    "prefecture": "滋賀県",
    "prefecture_kana": "シガケン",
    "prefecture_code": 25,
    "city": "大津市",
    "city_kana": "オオツシ",
    "town": "森",
    "town_kana": "モリ",
    "street": null,
    "office_name": null,
    "office_name_kana": null
  },
  "2275": {
    "postcode": "5202275",
    "prefecture": "滋賀県",
    "prefecture_kana": "シガケン",
    "prefecture_code": 25,
    "city": "大津市",
    "city_kana": "オオツシ",
    "town": "枝",
    "town_kana": "エダ",
    "street": null,
    "office_name": null,
    "office_name_kana": null
  },
  "2276": {
    "postcode": "5202276",
    "prefecture": "滋賀県",
    "prefecture_kana": "シガケン",
    "prefecture_code": 25,
    "city": "大津市",
    "city_kana": "オオツシ",
    "town": "里",
    "town_kana": "サト",
    "street": null,
    "office_name": null,
    "office_name_kana": null
  },
  "2277": {
    "postcode": "5202277",
    "prefecture": "滋賀県",
    "prefecture_kana": "シガケン",
    "prefecture_code": 25,
    "city": "大津市",
    "city_kana": "オオツシ",
    "town": "関津",
    "town_kana": "セキノツ",
    "street": null,
    "office_name": null,
    "office_name_kana": null
  },
  "2278": {
    "postcode": "5202278",
    "prefecture": "滋賀県",
    "prefecture_kana": "シガケン",
    "prefecture_code": 25,
    "city": "大津市",
    "city_kana": "オオツシ",
    "town": "太子",
    "town_kana": "タイシ",
    "street": null,
    "office_name": null,
    "office_name_kana": null
  },
  "2279": {
    "postcode": "5202279",
    "prefecture": "滋賀県",
    "prefecture_kana": "シガケン",
    "prefecture_code": 25,
    "city": "大津市",
    "city_kana": "オオツシ",
    "town": "黒津",
    "town_kana": "クロヅ",
    "street": null,
    "office_name": null,
    "office_name_kana": null
  },
  "2300": {
    "postcode": "5202300",
    "prefecture": "滋賀県",
    "prefecture_kana": "シガケン",
    "prefecture_code": 25,
    "city": "野洲市",
    "city_kana": "ヤスシ",
    "town": "",
    "town_kana": "",
    "street": null,
    "office_name": null,
    "office_name_kana": null
  },
  "2301": {
    "postcode": "5202301",
    "prefecture": "滋賀県",
    "prefecture_kana": "シガケン",
    "prefecture_code": 25,
    "city": "野洲市",
    "city_kana": "ヤスシ",
    "town": "小南",
    "town_kana": "コミナミ",
    "street": null,
    "office_name": null,
    "office_name_kana": null
  },
  "2302": {
    "postcode": "5202302",
    "prefecture": "滋賀県",
    "prefecture_kana": "シガケン",
    "prefecture_code": 25,
    "city": "野洲市",
    "city_kana": "ヤスシ",
    "town": "高木",
    "town_kana": "タカギ",
    "street": null,
    "office_name": null,
    "office_name_kana": null
  },
  "2303": {
    "postcode": "5202303",
    "prefecture": "滋賀県",
    "prefecture_kana": "シガケン",
    "prefecture_code": 25,
    "city": "野洲市",
    "city_kana": "ヤスシ",
    "town": "中北",
    "town_kana": "ナカキタ",
    "street": null,
    "office_name": null,
    "office_name_kana": null
  },
  "2304": {
    "postcode": "5202304",
    "prefecture": "滋賀県",
    "prefecture_kana": "シガケン",
    "prefecture_code": 25,
    "city": "野洲市",
    "city_kana": "ヤスシ",
    "town": "永原",
    "town_kana": "ナガハラ",
    "street": null,
    "office_name": null,
    "office_name_kana": null
  },
  "2305": {
    "postcode": "5202305",
    "prefecture": "滋賀県",
    "prefecture_kana": "シガケン",
    "prefecture_code": 25,
    "city": "野洲市",
    "city_kana": "ヤスシ",
    "town": "北",
    "town_kana": "キタ",
    "street": null,
    "office_name": null,
    "office_name_kana": null
  },
  "2311": {
    "postcode": "5202311",
    "prefecture": "滋賀県",
    "prefecture_kana": "シガケン",
    "prefecture_code": 25,
    "city": "野洲市",
    "city_kana": "ヤスシ",
    "town": "長島",
    "town_kana": "ナガシマ",
    "street": null,
    "office_name": null,
    "office_name_kana": null
  },
  "2312": {
    "postcode": "5202312",
    "prefecture": "滋賀県",
    "prefecture_kana": "シガケン",
    "prefecture_code": 25,
    "city": "野洲市",
    "city_kana": "ヤスシ",
    "town": "入町",
    "town_kana": "イリマチ",
    "street": null,
    "office_name": null,
    "office_name_kana": null
  },
  "2313": {
    "postcode": "5202313",
    "prefecture": "滋賀県",
    "prefecture_kana": "シガケン",
    "prefecture_code": 25,
    "city": "野洲市",
    "city_kana": "ヤスシ",
    "town": "大篠原",
    "town_kana": "オオシノハラ",
    "street": null,
    "office_name": null,
    "office_name_kana": null
  },
  "2314": {
    "postcode": "5202314",
    "prefecture": "滋賀県",
    "prefecture_kana": "シガケン",
    "prefecture_code": 25,
    "city": "野洲市",
    "city_kana": "ヤスシ",
    "town": "小堤",
    "town_kana": "コヅツミ",
    "street": null,
    "office_name": null,
    "office_name_kana": null
  },
  "2315": {
    "postcode": "5202315",
    "prefecture": "滋賀県",
    "prefecture_kana": "シガケン",
    "prefecture_code": 25,
    "city": "野洲市",
    "city_kana": "ヤスシ",
    "town": "辻町",
    "town_kana": "ツジマチ",
    "street": null,
    "office_name": null,
    "office_name_kana": null
  },
  "2316": {
    "postcode": "5202316",
    "prefecture": "滋賀県",
    "prefecture_kana": "シガケン",
    "prefecture_code": 25,
    "city": "野洲市",
    "city_kana": "ヤスシ",
    "town": "上屋",
    "town_kana": "カミヤ",
    "street": null,
    "office_name": null,
    "office_name_kana": null
  },
  "2321": {
    "postcode": "5202321",
    "prefecture": "滋賀県",
    "prefecture_kana": "シガケン",
    "prefecture_code": 25,
    "city": "野洲市",
    "city_kana": "ヤスシ",
    "town": "北桜",
    "town_kana": "キタザクラ",
    "street": null,
    "office_name": null,
    "office_name_kana": null
  },
  "2322": {
    "postcode": "5202322",
    "prefecture": "滋賀県",
    "prefecture_kana": "シガケン",
    "prefecture_code": 25,
    "city": "野洲市",
    "city_kana": "ヤスシ",
    "town": "南桜",
    "town_kana": "ミナミザクラ",
    "street": null,
    "office_name": null,
    "office_name_kana": null
  },
  "2323": {
    "postcode": "5202323",
    "prefecture": "滋賀県",
    "prefecture_kana": "シガケン",
    "prefecture_code": 25,
    "city": "野洲市",
    "city_kana": "ヤスシ",
    "town": "三上",
    "town_kana": "ミカミ",
    "street": null,
    "office_name": null,
    "office_name_kana": null
  },
  "2324": {
    "postcode": "5202324",
    "prefecture": "滋賀県",
    "prefecture_kana": "シガケン",
    "prefecture_code": 25,
    "city": "野洲市",
    "city_kana": "ヤスシ",
    "town": "近江富士",
    "town_kana": "オウミフジ",
    "street": null,
    "office_name": null,
    "office_name_kana": null
  },
  "2331": {
    "postcode": "5202331",
    "prefecture": "滋賀県",
    "prefecture_kana": "シガケン",
    "prefecture_code": 25,
    "city": "野洲市",
    "city_kana": "ヤスシ",
    "town": "小篠原",
    "town_kana": "コシノハラ",
    "street": null,
    "office_name": null,
    "office_name_kana": null
  },
  "2332": {
    "postcode": "5202332",
    "prefecture": "滋賀県",
    "prefecture_kana": "シガケン",
    "prefecture_code": 25,
    "city": "野洲市",
    "city_kana": "ヤスシ",
    "town": "妙光寺",
    "town_kana": "ミョウコウジ",
    "street": null,
    "office_name": null,
    "office_name_kana": null
  },
  "2333": {
    "postcode": "5202333",
    "prefecture": "滋賀県",
    "prefecture_kana": "シガケン",
    "prefecture_code": 25,
    "city": "野洲市",
    "city_kana": "ヤスシ",
    "town": "栄",
    "town_kana": "サカエ",
    "street": null,
    "office_name": null,
    "office_name_kana": null
  },
  "2341": {
    "postcode": "5202341",
    "prefecture": "滋賀県",
    "prefecture_kana": "シガケン",
    "prefecture_code": 25,
    "city": "野洲市",
    "city_kana": "ヤスシ",
    "town": "行畑",
    "town_kana": "ユキハタ",
    "street": null,
    "office_name": null,
    "office_name_kana": null
  },
  "2342": {
    "postcode": "5202342",
    "prefecture": "滋賀県",
    "prefecture_kana": "シガケン",
    "prefecture_code": 25,
    "city": "野洲市",
    "city_kana": "ヤスシ",
    "town": "野洲",
    "town_kana": "ヤス",
    "street": null,
    "office_name": null,
    "office_name_kana": null
  },
  "2343": {
    "postcode": "5202343",
    "prefecture": "滋賀県",
    "prefecture_kana": "シガケン",
    "prefecture_code": 25,
    "city": "野洲市",
    "city_kana": "ヤスシ",
    "town": "大畑",
    "town_kana": "オオハタ",
    "street": null,
    "office_name": null,
    "office_name_kana": null
  },
  "2351": {
    "postcode": "5202351",
    "prefecture": "滋賀県",
    "prefecture_kana": "シガケン",
    "prefecture_code": 25,
    "city": "野洲市",
    "city_kana": "ヤスシ",
    "town": "冨波甲",
    "town_kana": "トバコウ",
    "street": null,
    "office_name": null,
    "office_name_kana": null
  },
  "2352": {
    "postcode": "5202352",
    "prefecture": "滋賀県",
    "prefecture_kana": "シガケン",
    "prefecture_code": 25,
    "city": "野洲市",
    "city_kana": "ヤスシ",
    "town": "冨波乙",
    "town_kana": "トバオツ",
    "street": null,
    "office_name": null,
    "office_name_kana": null
  },
  "2353": {
    "postcode": "5202353",
    "prefecture": "滋賀県",
    "prefecture_kana": "シガケン",
    "prefecture_code": 25,
    "city": "野洲市",
    "city_kana": "ヤスシ",
    "town": "久野部",
    "town_kana": "クノベ",
    "street": null,
    "office_name": null,
    "office_name_kana": null
  },
  "2361": {
    "postcode": "5202361",
    "prefecture": "滋賀県",
    "prefecture_kana": "シガケン",
    "prefecture_code": 25,
    "city": "野洲市",
    "city_kana": "ヤスシ",
    "town": "北野",
    "town_kana": "キタノ",
    "street": null,
    "office_name": null,
    "office_name_kana": null
  },
  "2362": {
    "postcode": "5202362",
    "prefecture": "滋賀県",
    "prefecture_kana": "シガケン",
    "prefecture_code": 25,
    "city": "野洲市",
    "city_kana": "ヤスシ",
    "town": "市三宅",
    "town_kana": "イチミヤケ",
    "street": null,
    "office_name": null,
    "office_name_kana": null
  },
  "2363": {
    "postcode": "5202363",
    "prefecture": "滋賀県",
    "prefecture_kana": "シガケン",
    "prefecture_code": 25,
    "city": "野洲市",
    "city_kana": "ヤスシ",
    "town": "竹生",
    "town_kana": "タケジョウ",
    "street": null,
    "office_name": null,
    "office_name_kana": null
  },
  "2364": {
    "postcode": "5202364",
    "prefecture": "滋賀県",
    "prefecture_kana": "シガケン",
    "prefecture_code": 25,
    "city": "野洲市",
    "city_kana": "ヤスシ",
    "town": "五之里",
    "town_kana": "ゴノリ",
    "street": null,
    "office_name": null,
    "office_name_kana": null
  },
  "2365": {
    "postcode": "5202365",
    "prefecture": "滋賀県",
    "prefecture_kana": "シガケン",
    "prefecture_code": 25,
    "city": "野洲市",
    "city_kana": "ヤスシ",
    "town": "竹ヶ丘",
    "town_kana": "タケガオカ",
    "street": null,
    "office_name": null,
    "office_name_kana": null
  },
  "2392": {
    "postcode": "5202392",
    "prefecture": "滋賀県",
    "prefecture_kana": "シガケン",
    "prefecture_code": 25,
    "city": "野洲市",
    "city_kana": "ヤスシ",
    "town": "市三宅",
    "town_kana": "イチミヤケ",
    "street": "８００",
    "office_name": "ソニーモバイルディスプレイ　株式会社",
    "office_name_kana": "ソニ-モバイルデイスプレイ カブシキガイシヤ"
  },
  "2393": {
    "postcode": "5202393",
    "prefecture": "滋賀県",
    "prefecture_kana": "シガケン",
    "prefecture_code": 25,
    "city": "野洲市",
    "city_kana": "ヤスシ",
    "town": "大篠原",
    "town_kana": "オオシノハラ",
    "street": "２２８８",
    "office_name": "（株）　村田製作所　野洲事業所",
    "office_name_kana": "ムラタセイサクシヨ ヤスジギヨウシヨ"
  },
  "2394": {
    "postcode": "5202394",
    "prefecture": "滋賀県",
    "prefecture_kana": "シガケン",
    "prefecture_code": 25,
    "city": "野洲市",
    "city_kana": "ヤスシ",
    "town": "野洲",
    "town_kana": "ヤス",
    "street": "１４７３−１",
    "office_name": "（株）　長府製作所　滋賀工場",
    "office_name_kana": "(カブ) チヨウフセイサクシヨ シガコウジヨウ"
  },
  "2395": {
    "postcode": "5202395",
    "prefecture": "滋賀県",
    "prefecture_kana": "シガケン",
    "prefecture_code": 25,
    "city": "野洲市",
    "city_kana": "ヤスシ",
    "town": "小篠原",
    "town_kana": "コシノハラ",
    "street": "２１００−１",
    "office_name": "野洲市役所　本庁舎",
    "office_name_kana": "ヤスシヤクシヨ ホンチヨウシヤ"
  },
  "2401": {
    "postcode": "5202401",
    "prefecture": "滋賀県",
    "prefecture_kana": "シガケン",
    "prefecture_code": 25,
    "city": "野洲市",
    "city_kana": "ヤスシ",
    "town": "吉川",
    "town_kana": "ヨシカワ",
    "street": null,
    "office_name": null,
    "office_name_kana": null
  },
  "2402": {
    "postcode": "5202402",
    "prefecture": "滋賀県",
    "prefecture_kana": "シガケン",
    "prefecture_code": 25,
    "city": "野洲市",
    "city_kana": "ヤスシ",
    "town": "菖蒲",
    "town_kana": "アヤメ",
    "street": null,
    "office_name": null,
    "office_name_kana": null
  },
  "2403": {
    "postcode": "5202403",
    "prefecture": "滋賀県",
    "prefecture_kana": "シガケン",
    "prefecture_code": 25,
    "city": "野洲市",
    "city_kana": "ヤスシ",
    "town": "喜合",
    "town_kana": "キゴウ",
    "street": null,
    "office_name": null,
    "office_name_kana": null
  },
  "2411": {
    "postcode": "5202411",
    "prefecture": "滋賀県",
    "prefecture_kana": "シガケン",
    "prefecture_code": 25,
    "city": "野洲市",
    "city_kana": "ヤスシ",
    "town": "安治",
    "town_kana": "アワジ",
    "street": null,
    "office_name": null,
    "office_name_kana": null
  },
  "2412": {
    "postcode": "5202412",
    "prefecture": "滋賀県",
    "prefecture_kana": "シガケン",
    "prefecture_code": 25,
    "city": "野洲市",
    "city_kana": "ヤスシ",
    "town": "六条",
    "town_kana": "ロクジョウ",
    "street": null,
    "office_name": null,
    "office_name_kana": null
  },
  "2413": {
    "postcode": "5202413",
    "prefecture": "滋賀県",
    "prefecture_kana": "シガケン",
    "prefecture_code": 25,
    "city": "野洲市",
    "city_kana": "ヤスシ",
    "town": "吉地",
    "town_kana": "ヨシジ",
    "street": null,
    "office_name": null,
    "office_name_kana": null
  },
  "2414": {
    "postcode": "5202414",
    "prefecture": "滋賀県",
    "prefecture_kana": "シガケン",
    "prefecture_code": 25,
    "city": "野洲市",
    "city_kana": "ヤスシ",
    "town": "井口",
    "town_kana": "イノクチ",
    "street": null,
    "office_name": null,
    "office_name_kana": null
  },
  "2415": {
    "postcode": "5202415",
    "prefecture": "滋賀県",
    "prefecture_kana": "シガケン",
    "prefecture_code": 25,
    "city": "野洲市",
    "city_kana": "ヤスシ",
    "town": "須原",
    "town_kana": "スワラ",
    "street": null,
    "office_name": null,
    "office_name_kana": null
  },
  "2416": {
    "postcode": "5202416",
    "prefecture": "滋賀県",
    "prefecture_kana": "シガケン",
    "prefecture_code": 25,
    "city": "野洲市",
    "city_kana": "ヤスシ",
    "town": "堤",
    "town_kana": "ツツミ",
    "street": null,
    "office_name": null,
    "office_name_kana": null
  },
  "2417": {
    "postcode": "5202417",
    "prefecture": "滋賀県",
    "prefecture_kana": "シガケン",
    "prefecture_code": 25,
    "city": "野洲市",
    "city_kana": "ヤスシ",
    "town": "下堤",
    "town_kana": "シモヅツミ",
    "street": null,
    "office_name": null,
    "office_name_kana": null
  },
  "2421": {
    "postcode": "5202421",
    "prefecture": "滋賀県",
    "prefecture_kana": "シガケン",
    "prefecture_code": 25,
    "city": "野洲市",
    "city_kana": "ヤスシ",
    "town": "野田",
    "town_kana": "ノダ",
    "street": null,
    "office_name": null,
    "office_name_kana": null
  },
  "2422": {
    "postcode": "5202422",
    "prefecture": "滋賀県",
    "prefecture_kana": "シガケン",
    "prefecture_code": 25,
    "city": "野洲市",
    "city_kana": "ヤスシ",
    "town": "比留田",
    "town_kana": "ヒルタ",
    "street": null,
    "office_name": null,
    "office_name_kana": null
  },
  "2423": {
    "postcode": "5202423",
    "prefecture": "滋賀県",
    "prefecture_kana": "シガケン",
    "prefecture_code": 25,
    "city": "野洲市",
    "city_kana": "ヤスシ",
    "town": "西河原",
    "town_kana": "ニシガワラ",
    "street": null,
    "office_name": null,
    "office_name_kana": null
  },
  "2424": {
    "postcode": "5202424",
    "prefecture": "滋賀県",
    "prefecture_kana": "シガケン",
    "prefecture_code": 25,
    "city": "野洲市",
    "city_kana": "ヤスシ",
    "town": "五条",
    "town_kana": "ゴジョウ",
    "street": null,
    "office_name": null,
    "office_name_kana": null
  },
  "2431": {
    "postcode": "5202431",
    "prefecture": "滋賀県",
    "prefecture_kana": "シガケン",
    "prefecture_code": 25,
    "city": "野洲市",
    "city_kana": "ヤスシ",
    "town": "木部",
    "town_kana": "キベ",
    "street": null,
    "office_name": null,
    "office_name_kana": null
  },
  "2432": {
    "postcode": "5202432",
    "prefecture": "滋賀県",
    "prefecture_kana": "シガケン",
    "prefecture_code": 25,
    "city": "野洲市",
    "city_kana": "ヤスシ",
    "town": "虫生",
    "town_kana": "ムシュウ",
    "street": null,
    "office_name": null,
    "office_name_kana": null
  },
  "2433": {
    "postcode": "5202433",
    "prefecture": "滋賀県",
    "prefecture_kana": "シガケン",
    "prefecture_code": 25,
    "city": "野洲市",
    "city_kana": "ヤスシ",
    "town": "八夫",
    "town_kana": "ヤブ",
    "street": null,
    "office_name": null,
    "office_name_kana": null
  },
  "2434": {
    "postcode": "5202434",
    "prefecture": "滋賀県",
    "prefecture_kana": "シガケン",
    "prefecture_code": 25,
    "city": "野洲市",
    "city_kana": "ヤスシ",
    "town": "比江",
    "town_kana": "ヒエ",
    "street": null,
    "office_name": null,
    "office_name_kana": null
  },
  "2435": {
    "postcode": "5202435",
    "prefecture": "滋賀県",
    "prefecture_kana": "シガケン",
    "prefecture_code": 25,
    "city": "野洲市",
    "city_kana": "ヤスシ",
    "town": "乙窪",
    "town_kana": "オチクボ",
    "street": null,
    "office_name": null,
    "office_name_kana": null
  },
  "2436": {
    "postcode": "5202436",
    "prefecture": "滋賀県",
    "prefecture_kana": "シガケン",
    "prefecture_code": 25,
    "city": "野洲市",
    "city_kana": "ヤスシ",
    "town": "北比江",
    "town_kana": "キタヒエ",
    "street": null,
    "office_name": null,
    "office_name_kana": null
  },
  "2437": {
    "postcode": "5202437",
    "prefecture": "滋賀県",
    "prefecture_kana": "シガケン",
    "prefecture_code": 25,
    "city": "野洲市",
    "city_kana": "ヤスシ",
    "town": "小比江",
    "town_kana": "コビエ",
    "street": null,
    "office_name": null,
    "office_name_kana": null
  },
  "2492": {
    "postcode": "5202492",
    "prefecture": "滋賀県",
    "prefecture_kana": "シガケン",
    "prefecture_code": 25,
    "city": "野洲市",
    "city_kana": "ヤスシ",
    "town": "西河原",
    "town_kana": "ニシガワラ",
    "street": "２４００番地",
    "office_name": "野洲市　市民サービスセンター",
    "office_name_kana": "ヤスシ シミンサ-ビスセンタ-"
  },
  "2500": {
    "postcode": "5202500",
    "prefecture": "滋賀県",
    "prefecture_kana": "シガケン",
    "prefecture_code": 25,
    "city": "蒲生郡竜王町",
    "city_kana": "ガモウグンリュウオウチョウ",
    "town": "",
    "town_kana": "",
    "street": null,
    "office_name": null,
    "office_name_kana": null
  },
  "2501": {
    "postcode": "5202501",
    "prefecture": "滋賀県",
    "prefecture_kana": "シガケン",
    "prefecture_code": 25,
    "city": "蒲生郡竜王町",
    "city_kana": "ガモウグンリュウオウチョウ",
    "town": "弓削",
    "town_kana": "ユゲ",
    "street": null,
    "office_name": null,
    "office_name_kana": null
  },
  "2502": {
    "postcode": "5202502",
    "prefecture": "滋賀県",
    "prefecture_kana": "シガケン",
    "prefecture_code": 25,
    "city": "蒲生郡竜王町",
    "city_kana": "ガモウグンリュウオウチョウ",
    "town": "庄",
    "town_kana": "ショウ",
    "street": null,
    "office_name": null,
    "office_name_kana": null
  },
  "2503": {
    "postcode": "5202503",
    "prefecture": "滋賀県",
    "prefecture_kana": "シガケン",
    "prefecture_code": 25,
    "city": "蒲生郡竜王町",
    "city_kana": "ガモウグンリュウオウチョウ",
    "town": "信濃",
    "town_kana": "シナノ",
    "street": null,
    "office_name": null,
    "office_name_kana": null
  },
  "2504": {
    "postcode": "5202504",
    "prefecture": "滋賀県",
    "prefecture_kana": "シガケン",
    "prefecture_code": 25,
    "city": "蒲生郡竜王町",
    "city_kana": "ガモウグンリュウオウチョウ",
    "town": "川上",
    "town_kana": "カワカミ",
    "street": null,
    "office_name": null,
    "office_name_kana": null
  },
  "2511": {
    "postcode": "5202511",
    "prefecture": "滋賀県",
    "prefecture_kana": "シガケン",
    "prefecture_code": 25,
    "city": "蒲生郡竜王町",
    "city_kana": "ガモウグンリュウオウチョウ",
    "town": "林",
    "town_kana": "ハヤシ",
    "street": null,
    "office_name": null,
    "office_name_kana": null
  },
  "2512": {
    "postcode": "5202512",
    "prefecture": "滋賀県",
    "prefecture_kana": "シガケン",
    "prefecture_code": 25,
    "city": "蒲生郡竜王町",
    "city_kana": "ガモウグンリュウオウチョウ",
    "town": "駕輿丁",
    "town_kana": "カヨチョウ",
    "street": null,
    "office_name": null,
    "office_name_kana": null
  },
  "2513": {
    "postcode": "5202513",
    "prefecture": "滋賀県",
    "prefecture_kana": "シガケン",
    "prefecture_code": 25,
    "city": "蒲生郡竜王町",
    "city_kana": "ガモウグンリュウオウチョウ",
    "town": "島",
    "town_kana": "シマ",
    "street": null,
    "office_name": null,
    "office_name_kana": null
  },
  "2514": {
    "postcode": "5202514",
    "prefecture": "滋賀県",
    "prefecture_kana": "シガケン",
    "prefecture_code": 25,
    "city": "蒲生郡竜王町",
    "city_kana": "ガモウグンリュウオウチョウ",
    "town": "橋本",
    "town_kana": "ハシモト",
    "street": null,
    "office_name": null,
    "office_name_kana": null
  },
  "2521": {
    "postcode": "5202521",
    "prefecture": "滋賀県",
    "prefecture_kana": "シガケン",
    "prefecture_code": 25,
    "city": "蒲生郡竜王町",
    "city_kana": "ガモウグンリュウオウチョウ",
    "town": "川守",
    "town_kana": "カワモリ",
    "street": null,
    "office_name": null,
    "office_name_kana": null
  },
  "2522": {
    "postcode": "5202522",
    "prefecture": "滋賀県",
    "prefecture_kana": "シガケン",
    "prefecture_code": 25,
    "city": "蒲生郡竜王町",
    "city_kana": "ガモウグンリュウオウチョウ",
    "town": "岩井",
    "town_kana": "イワイ",
    "street": null,
    "office_name": null,
    "office_name_kana": null
  },
  "2523": {
    "postcode": "5202523",
    "prefecture": "滋賀県",
    "prefecture_kana": "シガケン",
    "prefecture_code": 25,
    "city": "蒲生郡竜王町",
    "city_kana": "ガモウグンリュウオウチョウ",
    "town": "田中",
    "town_kana": "タナカ",
    "street": null,
    "office_name": null,
    "office_name_kana": null
  },
  "2524": {
    "postcode": "5202524",
    "prefecture": "滋賀県",
    "prefecture_kana": "シガケン",
    "prefecture_code": 25,
    "city": "蒲生郡竜王町",
    "city_kana": "ガモウグンリュウオウチョウ",
    "town": "綾戸",
    "town_kana": "アヤド",
    "street": null,
    "office_name": null,
    "office_name_kana": null
  },
  "2531": {
    "postcode": "5202531",
    "prefecture": "滋賀県",
    "prefecture_kana": "シガケン",
    "prefecture_code": 25,
    "city": "蒲生郡竜王町",
    "city_kana": "ガモウグンリュウオウチョウ",
    "town": "山之上",
    "town_kana": "ヤマノウエ",
    "street": null,
    "office_name": null,
    "office_name_kana": null
  },
  "2541": {
    "postcode": "5202541",
    "prefecture": "滋賀県",
    "prefecture_kana": "シガケン",
    "prefecture_code": 25,
    "city": "蒲生郡竜王町",
    "city_kana": "ガモウグンリュウオウチョウ",
    "town": "岡屋",
    "town_kana": "オカヤ",
    "street": null,
    "office_name": null,
    "office_name_kana": null
  },
  "2542": {
    "postcode": "5202542",
    "prefecture": "滋賀県",
    "prefecture_kana": "シガケン",
    "prefecture_code": 25,
    "city": "蒲生郡竜王町",
    "city_kana": "ガモウグンリュウオウチョウ",
    "town": "山中",
    "town_kana": "ヤマナカ",
    "street": null,
    "office_name": null,
    "office_name_kana": null
  },
  "2551": {
    "postcode": "5202551",
    "prefecture": "滋賀県",
    "prefecture_kana": "シガケン",
    "prefecture_code": 25,
    "city": "蒲生郡竜王町",
    "city_kana": "ガモウグンリュウオウチョウ",
    "town": "薬師",
    "town_kana": "クズシ",
    "street": null,
    "office_name": null,
    "office_name_kana": null
  },
  "2552": {
    "postcode": "5202552",
    "prefecture": "滋賀県",
    "prefecture_kana": "シガケン",
    "prefecture_code": 25,
    "city": "蒲生郡竜王町",
    "city_kana": "ガモウグンリュウオウチョウ",
    "town": "小口",
    "town_kana": "オグチ",
    "street": null,
    "office_name": null,
    "office_name_kana": null
  },
  "2561": {
    "postcode": "5202561",
    "prefecture": "滋賀県",
    "prefecture_kana": "シガケン",
    "prefecture_code": 25,
    "city": "蒲生郡竜王町",
    "city_kana": "ガモウグンリュウオウチョウ",
    "town": "須恵",
    "town_kana": "スエ",
    "street": null,
    "office_name": null,
    "office_name_kana": null
  },
  "2562": {
    "postcode": "5202562",
    "prefecture": "滋賀県",
    "prefecture_kana": "シガケン",
    "prefecture_code": 25,
    "city": "蒲生郡竜王町",
    "city_kana": "ガモウグンリュウオウチョウ",
    "town": "鵜川",
    "town_kana": "ウカワ",
    "street": null,
    "office_name": null,
    "office_name_kana": null
  },
  "2563": {
    "postcode": "5202563",
    "prefecture": "滋賀県",
    "prefecture_kana": "シガケン",
    "prefecture_code": 25,
    "city": "蒲生郡竜王町",
    "city_kana": "ガモウグンリュウオウチョウ",
    "town": "七里",
    "town_kana": "シチリ",
    "street": null,
    "office_name": null,
    "office_name_kana": null
  },
  "2564": {
    "postcode": "5202564",
    "prefecture": "滋賀県",
    "prefecture_kana": "シガケン",
    "prefecture_code": 25,
    "city": "蒲生郡竜王町",
    "city_kana": "ガモウグンリュウオウチョウ",
    "town": "山面",
    "town_kana": "ヤマヅラ",
    "street": null,
    "office_name": null,
    "office_name_kana": null
  },
  "2571": {
    "postcode": "5202571",
    "prefecture": "滋賀県",
    "prefecture_kana": "シガケン",
    "prefecture_code": 25,
    "city": "蒲生郡竜王町",
    "city_kana": "ガモウグンリュウオウチョウ",
    "town": "西横関",
    "town_kana": "ニシヨコゼキ",
    "street": null,
    "office_name": null,
    "office_name_kana": null
  },
  "2572": {
    "postcode": "5202572",
    "prefecture": "滋賀県",
    "prefecture_kana": "シガケン",
    "prefecture_code": 25,
    "city": "蒲生郡竜王町",
    "city_kana": "ガモウグンリュウオウチョウ",
    "town": "西川",
    "town_kana": "ニシガワ",
    "street": null,
    "office_name": null,
    "office_name_kana": null
  },
  "2573": {
    "postcode": "5202573",
    "prefecture": "滋賀県",
    "prefecture_kana": "シガケン",
    "prefecture_code": 25,
    "city": "蒲生郡竜王町",
    "city_kana": "ガモウグンリュウオウチョウ",
    "town": "鏡",
    "town_kana": "カガミ",
    "street": null,
    "office_name": null,
    "office_name_kana": null
  },
  "2592": {
    "postcode": "5202592",
    "prefecture": "滋賀県",
    "prefecture_kana": "シガケン",
    "prefecture_code": 25,
    "city": "蒲生郡竜王町",
    "city_kana": "ガモウグンリュウオウチョウ",
    "town": "大字小口",
    "town_kana": null,
    "street": "３",
    "office_name": "竜王町役場",
    "office_name_kana": "リユウオウチヨウヤクバ"
  },
  "2594": {
    "postcode": "5202594",
    "prefecture": "滋賀県",
    "prefecture_kana": "シガケン",
    "prefecture_code": 25,
    "city": "蒲生郡竜王町",
    "city_kana": "ガモウグンリュウオウチョウ",
    "town": "大字山中",
    "town_kana": null,
    "street": "１３９１",
    "office_name": "竜王ゴルフコース",
    "office_name_kana": "リユウオウゴルフコ-ス"
  },
  "2595": {
    "postcode": "5202595",
    "prefecture": "滋賀県",
    "prefecture_kana": "シガケン",
    "prefecture_code": 25,
    "city": "蒲生郡竜王町",
    "city_kana": "ガモウグンリュウオウチョウ",
    "town": "大字西川",
    "town_kana": null,
    "street": "１３２１",
    "office_name": "積水樹脂　株式会社　滋賀竜王工場滋賀製造所",
    "office_name_kana": "セキスイジユシ カブシキガイシヤ シガリユウオウコウジヨウシガセイゾウシヨ"
  },
  "2596": {
    "postcode": "5202596",
    "prefecture": "滋賀県",
    "prefecture_kana": "シガケン",
    "prefecture_code": 25,
    "city": "蒲生郡竜王町",
    "city_kana": "ガモウグンリュウオウチョウ",
    "town": "大字鏡",
    "town_kana": null,
    "street": "７３１−１",
    "office_name": "積水樹脂　株式会社　Ｒ＆Ｄプラザ・滋賀竜王工場竜王製造所",
    "office_name_kana": "セキスイジユシ カブシキガイシヤ ア-ルアンドデイ-プラザ・シガリユウオウコウジヨウリユウオウセイゾウシヨ"
  },
  "3000": {
    "postcode": "5203000",
    "prefecture": "滋賀県",
    "prefecture_kana": "シガケン",
    "prefecture_code": 25,
    "city": "栗東市",
    "city_kana": "リットウシ",
    "town": "",
    "town_kana": "",
    "street": null,
    "office_name": null,
    "office_name_kana": null
  },
  "3001": {
    "postcode": "5203001",
    "prefecture": "滋賀県",
    "prefecture_kana": "シガケン",
    "prefecture_code": 25,
    "city": "栗東市",
    "city_kana": "リットウシ",
    "town": "東坂",
    "town_kana": "ヒガシサカ",
    "street": null,
    "office_name": null,
    "office_name_kana": null
  },
  "3002": {
    "postcode": "5203002",
    "prefecture": "滋賀県",
    "prefecture_kana": "シガケン",
    "prefecture_code": 25,
    "city": "栗東市",
    "city_kana": "リットウシ",
    "town": "観音寺",
    "town_kana": "カンオンジ",
    "street": null,
    "office_name": null,
    "office_name_kana": null
  },
  "3003": {
    "postcode": "5203003",
    "prefecture": "滋賀県",
    "prefecture_kana": "シガケン",
    "prefecture_code": 25,
    "city": "栗東市",
    "city_kana": "リットウシ",
    "town": "荒張",
    "town_kana": "アラハリ",
    "street": null,
    "office_name": null,
    "office_name_kana": null
  },
  "3004": {
    "postcode": "5203004",
    "prefecture": "滋賀県",
    "prefecture_kana": "シガケン",
    "prefecture_code": 25,
    "city": "栗東市",
    "city_kana": "リットウシ",
    "town": "上砥山",
    "town_kana": "カミトヤマ",
    "street": null,
    "office_name": null,
    "office_name_kana": null
  },
  "3005": {
    "postcode": "5203005",
    "prefecture": "滋賀県",
    "prefecture_kana": "シガケン",
    "prefecture_code": 25,
    "city": "栗東市",
    "city_kana": "リットウシ",
    "town": "御園",
    "town_kana": "ミソノ",
    "street": null,
    "office_name": null,
    "office_name_kana": null
  },
  "3006": {
    "postcode": "5203006",
    "prefecture": "滋賀県",
    "prefecture_kana": "シガケン",
    "prefecture_code": 25,
    "city": "栗東市",
    "city_kana": "リットウシ",
    "town": "井上",
    "town_kana": "イノウエ",
    "street": null,
    "office_name": null,
    "office_name_kana": null
  },
  "3011": {
    "postcode": "5203011",
    "prefecture": "滋賀県",
    "prefecture_kana": "シガケン",
    "prefecture_code": 25,
    "city": "栗東市",
    "city_kana": "リットウシ",
    "town": "下戸山",
    "town_kana": "シモドヤマ",
    "street": null,
    "office_name": null,
    "office_name_kana": null
  },
  "3012": {
    "postcode": "5203012",
    "prefecture": "滋賀県",
    "prefecture_kana": "シガケン",
    "prefecture_code": 25,
    "city": "栗東市",
    "city_kana": "リットウシ",
    "town": "岡",
    "town_kana": "オカ",
    "street": null,
    "office_name": null,
    "office_name_kana": null
  },
  "3013": {
    "postcode": "5203013",
    "prefecture": "滋賀県",
    "prefecture_kana": "シガケン",
    "prefecture_code": 25,
    "city": "栗東市",
    "city_kana": "リットウシ",
    "town": "目川",
    "town_kana": "メガワ",
    "street": null,
    "office_name": null,
    "office_name_kana": null
  },
  "3014": {
    "postcode": "5203014",
    "prefecture": "滋賀県",
    "prefecture_kana": "シガケン",
    "prefecture_code": 25,
    "city": "栗東市",
    "city_kana": "リットウシ",
    "town": "川辺",
    "town_kana": "カワヅラ",
    "street": null,
    "office_name": null,
    "office_name_kana": null
  },
  "3015": {
    "postcode": "5203015",
    "prefecture": "滋賀県",
    "prefecture_kana": "シガケン",
    "prefecture_code": 25,
    "city": "栗東市",
    "city_kana": "リットウシ",
    "town": "安養寺",
    "town_kana": "アンヨウジ",
    "street": null,
    "office_name": null,
    "office_name_kana": null
  },
  "3016": {
    "postcode": "5203016",
    "prefecture": "滋賀県",
    "prefecture_kana": "シガケン",
    "prefecture_code": 25,
    "city": "栗東市",
    "city_kana": "リットウシ",
    "town": "小野",
    "town_kana": "オノ",
    "street": null,
    "office_name": null,
    "office_name_kana": null
  },
  "3017": {
    "postcode": "5203017",
    "prefecture": "滋賀県",
    "prefecture_kana": "シガケン",
    "prefecture_code": 25,
    "city": "栗東市",
    "city_kana": "リットウシ",
    "town": "六地蔵",
    "town_kana": "ロクジゾウ",
    "street": null,
    "office_name": null,
    "office_name_kana": null
  },
  "3021": {
    "postcode": "5203021",
    "prefecture": "滋賀県",
    "prefecture_kana": "シガケン",
    "prefecture_code": 25,
    "city": "栗東市",
    "city_kana": "リットウシ",
    "town": "蜂屋",
    "town_kana": "ハチヤ",
    "street": null,
    "office_name": null,
    "office_name_kana": null
  },
  "3022": {
    "postcode": "5203022",
    "prefecture": "滋賀県",
    "prefecture_kana": "シガケン",
    "prefecture_code": 25,
    "city": "栗東市",
    "city_kana": "リットウシ",
    "town": "上鈎",
    "town_kana": "カミマガリ",
    "street": null,
    "office_name": null,
    "office_name_kana": null
  },
  "3023": {
    "postcode": "5203023",
    "prefecture": "滋賀県",
    "prefecture_kana": "シガケン",
    "prefecture_code": 25,
    "city": "栗東市",
    "city_kana": "リットウシ",
    "town": "坊袋",
    "town_kana": "ボウブクロ",
    "street": null,
    "office_name": null,
    "office_name_kana": null
  },
  "3024": {
    "postcode": "5203024",
    "prefecture": "滋賀県",
    "prefecture_kana": "シガケン",
    "prefecture_code": 25,
    "city": "栗東市",
    "city_kana": "リットウシ",
    "town": "小柿",
    "town_kana": "オガキ",
    "street": null,
    "office_name": null,
    "office_name_kana": null
  },
  "3025": {
    "postcode": "5203025",
    "prefecture": "滋賀県",
    "prefecture_kana": "シガケン",
    "prefecture_code": 25,
    "city": "栗東市",
    "city_kana": "リットウシ",
    "town": "中沢",
    "town_kana": "ナカザワ",
    "street": null,
    "office_name": null,
    "office_name_kana": null
  },
  "3026": {
    "postcode": "5203026",
    "prefecture": "滋賀県",
    "prefecture_kana": "シガケン",
    "prefecture_code": 25,
    "city": "栗東市",
    "city_kana": "リットウシ",
    "town": "下鈎",
    "town_kana": "シモマガリ",
    "street": null,
    "office_name": null,
    "office_name_kana": null
  },
  "3027": {
    "postcode": "5203027",
    "prefecture": "滋賀県",
    "prefecture_kana": "シガケン",
    "prefecture_code": 25,
    "city": "栗東市",
    "city_kana": "リットウシ",
    "town": "野尻",
    "town_kana": "ノジリ",
    "street": null,
    "office_name": null,
    "office_name_kana": null
  },
  "3031": {
    "postcode": "5203031",
    "prefecture": "滋賀県",
    "prefecture_kana": "シガケン",
    "prefecture_code": 25,
    "city": "栗東市",
    "city_kana": "リットウシ",
    "town": "綣",
    "town_kana": "ヘソ",
    "street": null,
    "office_name": null,
    "office_name_kana": null
  },
  "3032": {
    "postcode": "5203032",
    "prefecture": "滋賀県",
    "prefecture_kana": "シガケン",
    "prefecture_code": 25,
    "city": "栗東市",
    "city_kana": "リットウシ",
    "town": "苅原",
    "town_kana": "カリハラ",
    "street": null,
    "office_name": null,
    "office_name_kana": null
  },
  "3033": {
    "postcode": "5203033",
    "prefecture": "滋賀県",
    "prefecture_kana": "シガケン",
    "prefecture_code": 25,
    "city": "栗東市",
    "city_kana": "リットウシ",
    "town": "笠川",
    "town_kana": "カサガワ",
    "street": null,
    "office_name": null,
    "office_name_kana": null
  },
  "3034": {
    "postcode": "5203034",
    "prefecture": "滋賀県",
    "prefecture_kana": "シガケン",
    "prefecture_code": 25,
    "city": "栗東市",
    "city_kana": "リットウシ",
    "town": "小平井",
    "town_kana": "コビライ",
    "street": null,
    "office_name": null,
    "office_name_kana": null
  },
  "3035": {
    "postcode": "5203035",
    "prefecture": "滋賀県",
    "prefecture_kana": "シガケン",
    "prefecture_code": 25,
    "city": "栗東市",
    "city_kana": "リットウシ",
    "town": "霊仙寺",
    "town_kana": "リョウセンジ",
    "street": null,
    "office_name": null,
    "office_name_kana": null
  },
  "3036": {
    "postcode": "5203036",
    "prefecture": "滋賀県",
    "prefecture_kana": "シガケン",
    "prefecture_code": 25,
    "city": "栗東市",
    "city_kana": "リットウシ",
    "town": "十里",
    "town_kana": "ジュウリ",
    "street": null,
    "office_name": null,
    "office_name_kana": null
  },
  "3037": {
    "postcode": "5203037",
    "prefecture": "滋賀県",
    "prefecture_kana": "シガケン",
    "prefecture_code": 25,
    "city": "栗東市",
    "city_kana": "リットウシ",
    "town": "北中小路",
    "town_kana": "キタナカコウジ",
    "street": null,
    "office_name": null,
    "office_name_kana": null
  },
  "3041": {
    "postcode": "5203041",
    "prefecture": "滋賀県",
    "prefecture_kana": "シガケン",
    "prefecture_code": 25,
    "city": "栗東市",
    "city_kana": "リットウシ",
    "town": "出庭",
    "town_kana": "デバ",
    "street": null,
    "office_name": null,
    "office_name_kana": null
  },
  "3042": {
    "postcode": "5203042",
    "prefecture": "滋賀県",
    "prefecture_kana": "シガケン",
    "prefecture_code": 25,
    "city": "栗東市",
    "city_kana": "リットウシ",
    "town": "辻",
    "town_kana": "ツジ",
    "street": null,
    "office_name": null,
    "office_name_kana": null
  },
  "3043": {
    "postcode": "5203043",
    "prefecture": "滋賀県",
    "prefecture_kana": "シガケン",
    "prefecture_code": 25,
    "city": "栗東市",
    "city_kana": "リットウシ",
    "town": "林",
    "town_kana": "ハヤシ",
    "street": null,
    "office_name": null,
    "office_name_kana": null
  },
  "3044": {
    "postcode": "5203044",
    "prefecture": "滋賀県",
    "prefecture_kana": "シガケン",
    "prefecture_code": 25,
    "city": "栗東市",
    "city_kana": "リットウシ",
    "town": "伊勢落",
    "town_kana": "イセオチ",
    "street": null,
    "office_name": null,
    "office_name_kana": null
  },
  "3045": {
    "postcode": "5203045",
    "prefecture": "滋賀県",
    "prefecture_kana": "シガケン",
    "prefecture_code": 25,
    "city": "栗東市",
    "city_kana": "リットウシ",
    "town": "高野",
    "town_kana": "タカノ",
    "street": null,
    "office_name": null,
    "office_name_kana": null
  },
  "3046": {
    "postcode": "5203046",
    "prefecture": "滋賀県",
    "prefecture_kana": "シガケン",
    "prefecture_code": 25,
    "city": "栗東市",
    "city_kana": "リットウシ",
    "town": "大橋",
    "town_kana": "オオハシ",
    "street": null,
    "office_name": null,
    "office_name_kana": null
  },
  "3047": {
    "postcode": "5203047",
    "prefecture": "滋賀県",
    "prefecture_kana": "シガケン",
    "prefecture_code": 25,
    "city": "栗東市",
    "city_kana": "リットウシ",
    "town": "手原",
    "town_kana": "テハラ",
    "street": null,
    "office_name": null,
    "office_name_kana": null
  },
  "3080": {
    "postcode": "5203080",
    "prefecture": "滋賀県",
    "prefecture_kana": "シガケン",
    "prefecture_code": 25,
    "city": "栗東市",
    "city_kana": "リットウシ",
    "town": "六地蔵",
    "town_kana": "ロクジゾウ",
    "street": "１３０番地",
    "office_name": "ニデックマシンツール　株式会社",
    "office_name_kana": "ニデツクマシンツ-ル カブシキガイシヤ"
  },
  "3081": {
    "postcode": "5203081",
    "prefecture": "滋賀県",
    "prefecture_kana": "シガケン",
    "prefecture_code": 25,
    "city": "栗東市",
    "city_kana": "リットウシ",
    "town": "野尻",
    "town_kana": "ノジリ",
    "street": "７５",
    "office_name": "積水化学工業　株式会社　滋賀栗東工場",
    "office_name_kana": "セキスイカガクコウギヨウ カブシキガイシヤ シガリツトウコウジヨウ"
  },
  "3082": {
    "postcode": "5203082",
    "prefecture": "滋賀県",
    "prefecture_kana": "シガケン",
    "prefecture_code": 25,
    "city": "栗東市",
    "city_kana": "リットウシ",
    "town": "下鈎",
    "town_kana": "シモマガリ",
    "street": "６６６",
    "office_name": "積水ハウス　株式会社　静岡工場関西物流センター",
    "office_name_kana": "セキスイハウス カブシキガイシヤ シズオカコウジヨウカンサイブツリユウセンタ-"
  },
  "3083": {
    "postcode": "5203083",
    "prefecture": "滋賀県",
    "prefecture_kana": "シガケン",
    "prefecture_code": 25,
    "city": "栗東市",
    "city_kana": "リットウシ",
    "town": "下鈎",
    "town_kana": "シモマガリ",
    "street": "伊関１４０−１",
    "office_name": "日清食品　株式会社　滋賀工場",
    "office_name_kana": "ニツシンシヨクヒン カブシキガイシヤ シガコウジヨウ"
  },
  "3084": {
    "postcode": "5203084",
    "prefecture": "滋賀県",
    "prefecture_kana": "シガケン",
    "prefecture_code": 25,
    "city": "栗東市",
    "city_kana": "リットウシ",
    "town": "上砥山",
    "town_kana": "カミトヤマ",
    "street": "２２２２",
    "office_name": "日本ジョンクレーン",
    "office_name_kana": "ニホンジヨンクレ-ン"
  },
  "3085": {
    "postcode": "5203085",
    "prefecture": "滋賀県",
    "prefecture_kana": "シガケン",
    "prefecture_code": 25,
    "city": "栗東市",
    "city_kana": "リットウシ",
    "town": "御園",
    "town_kana": "ミソノ",
    "street": "１０２８",
    "office_name": "日本中央競馬会　栗東トレーニングセンター",
    "office_name_kana": "ニホンチユウオウケイバカイ リツトウトレ-ニングセンタ-"
  },
  "3088": {
    "postcode": "5203088",
    "prefecture": "滋賀県",
    "prefecture_kana": "シガケン",
    "prefecture_code": 25,
    "city": "栗東市",
    "city_kana": "リットウシ",
    "town": "安養寺",
    "town_kana": "アンヨウジ",
    "street": "１丁目１３−３３",
    "office_name": "栗東市役所",
    "office_name_kana": "リツトウシヤクシヨ"
  },
  "3101": {
    "postcode": "5203101",
    "prefecture": "滋賀県",
    "prefecture_kana": "シガケン",
    "prefecture_code": 25,
    "city": "湖南市",
    "city_kana": "コナンシ",
    "town": "石部",
    "town_kana": "イシベ",
    "street": null,
    "office_name": null,
    "office_name_kana": null
  },
  "3102": {
    "postcode": "5203102",
    "prefecture": "滋賀県",
    "prefecture_kana": "シガケン",
    "prefecture_code": 25,
    "city": "湖南市",
    "city_kana": "コナンシ",
    "town": "宮の森",
    "town_kana": "ミヤノモリ",
    "street": null,
    "office_name": null,
    "office_name_kana": null
  },
  "3103": {
    "postcode": "5203103",
    "prefecture": "滋賀県",
    "prefecture_kana": "シガケン",
    "prefecture_code": 25,
    "city": "湖南市",
    "city_kana": "コナンシ",
    "town": "宝来坂",
    "town_kana": "ホウライザカ",
    "street": null,
    "office_name": null,
    "office_name_kana": null
  },
  "3104": {
    "postcode": "5203104",
    "prefecture": "滋賀県",
    "prefecture_kana": "シガケン",
    "prefecture_code": 25,
    "city": "湖南市",
    "city_kana": "コナンシ",
    "town": "岡出",
    "town_kana": "オカデ",
    "street": null,
    "office_name": null,
    "office_name_kana": null
  },
  "3105": {
    "postcode": "5203105",
    "prefecture": "滋賀県",
    "prefecture_kana": "シガケン",
    "prefecture_code": 25,
    "city": "湖南市",
    "city_kana": "コナンシ",
    "town": "石部西",
    "town_kana": "イシベニシ",
    "street": null,
    "office_name": null,
    "office_name_kana": null
  },
  "3106": {
    "postcode": "5203106",
    "prefecture": "滋賀県",
    "prefecture_kana": "シガケン",
    "prefecture_code": 25,
    "city": "湖南市",
    "city_kana": "コナンシ",
    "town": "石部中央",
    "town_kana": "イシベチュウオウ",
    "street": null,
    "office_name": null,
    "office_name_kana": null
  },
  "3107": {
    "postcode": "5203107",
    "prefecture": "滋賀県",
    "prefecture_kana": "シガケン",
    "prefecture_code": 25,
    "city": "湖南市",
    "city_kana": "コナンシ",
    "town": "石部東",
    "town_kana": "イシベヒガシ",
    "street": null,
    "office_name": null,
    "office_name_kana": null
  },
  "3108": {
    "postcode": "5203108",
    "prefecture": "滋賀県",
    "prefecture_kana": "シガケン",
    "prefecture_code": 25,
    "city": "湖南市",
    "city_kana": "コナンシ",
    "town": "石部南",
    "town_kana": "イシベミナミ",
    "street": null,
    "office_name": null,
    "office_name_kana": null
  },
  "3109": {
    "postcode": "5203109",
    "prefecture": "滋賀県",
    "prefecture_kana": "シガケン",
    "prefecture_code": 25,
    "city": "湖南市",
    "city_kana": "コナンシ",
    "town": "石部が丘",
    "town_kana": "イシベガオカ",
    "street": null,
    "office_name": null,
    "office_name_kana": null
  },
  "3111": {
    "postcode": "5203111",
    "prefecture": "滋賀県",
    "prefecture_kana": "シガケン",
    "prefecture_code": 25,
    "city": "湖南市",
    "city_kana": "コナンシ",
    "town": "東寺",
    "town_kana": "ヒガシテラ",
    "street": null,
    "office_name": null,
    "office_name_kana": null
  },
  "3112": {
    "postcode": "5203112",
    "prefecture": "滋賀県",
    "prefecture_kana": "シガケン",
    "prefecture_code": 25,
    "city": "湖南市",
    "city_kana": "コナンシ",
    "town": "丸山",
    "town_kana": "マルヤマ",
    "street": null,
    "office_name": null,
    "office_name_kana": null
  },
  "3113": {
    "postcode": "5203113",
    "prefecture": "滋賀県",
    "prefecture_kana": "シガケン",
    "prefecture_code": 25,
    "city": "湖南市",
    "city_kana": "コナンシ",
    "town": "石部北",
    "town_kana": "イシベキタ",
    "street": null,
    "office_name": null,
    "office_name_kana": null
  },
  "3114": {
    "postcode": "5203114",
    "prefecture": "滋賀県",
    "prefecture_kana": "シガケン",
    "prefecture_code": 25,
    "city": "湖南市",
    "city_kana": "コナンシ",
    "town": "石部口",
    "town_kana": "イシベグチ",
    "street": null,
    "office_name": null,
    "office_name_kana": null
  },
  "3115": {
    "postcode": "5203115",
    "prefecture": "滋賀県",
    "prefecture_kana": "シガケン",
    "prefecture_code": 25,
    "city": "湖南市",
    "city_kana": "コナンシ",
    "town": "石部緑台",
    "town_kana": "イシベミドリダイ",
    "street": null,
    "office_name": null,
    "office_name_kana": null
  },
  "3116": {
    "postcode": "5203116",
    "prefecture": "滋賀県",
    "prefecture_kana": "シガケン",
    "prefecture_code": 25,
    "city": "湖南市",
    "city_kana": "コナンシ",
    "town": "雨山",
    "town_kana": "アメヤマ",
    "street": null,
    "office_name": null,
    "office_name_kana": null
  },
  "3121": {
    "postcode": "5203121",
    "prefecture": "滋賀県",
    "prefecture_kana": "シガケン",
    "prefecture_code": 25,
    "city": "湖南市",
    "city_kana": "コナンシ",
    "town": "西寺",
    "town_kana": "ニシテラ",
    "street": null,
    "office_name": null,
    "office_name_kana": null
  },
  "3180": {
    "postcode": "5203180",
    "prefecture": "滋賀県",
    "prefecture_kana": "シガケン",
    "prefecture_code": 25,
    "city": "湖南市",
    "city_kana": "コナンシ",
    "town": "石部が丘",
    "town_kana": "イシベガオカ",
    "street": "１丁目１−１",
    "office_name": "日本精工　株式会社　石部工場",
    "office_name_kana": "ニツポンセイコウ カブシキガイシヤ イシベコウジヨウ"
  },
  "3182": {
    "postcode": "5203182",
    "prefecture": "滋賀県",
    "prefecture_kana": "シガケン",
    "prefecture_code": 25,
    "city": "湖南市",
    "city_kana": "コナンシ",
    "town": "石部口",
    "town_kana": "イシベグチ",
    "street": "４丁目３−１",
    "office_name": "株式会社　エム・エス・コミュニケーションズ　大阪物流部　物流センター",
    "office_name_kana": "カブシキガイシヤ エム・エス・コミユニケ-シヨンズ オオサカブツリユウブ ブツリユウセンタ-"
  },
  "3185": {
    "postcode": "5203185",
    "prefecture": "滋賀県",
    "prefecture_kana": "シガケン",
    "prefecture_code": 25,
    "city": "湖南市",
    "city_kana": "コナンシ",
    "town": "丸山",
    "town_kana": "マルヤマ",
    "street": "３丁目３−１",
    "office_name": "シーアイ化成　株式会社　滋賀事業所",
    "office_name_kana": "シ-アイカセイ カブシキガイシヤ シガジギヨウシヨ"
  },
  "3188": {
    "postcode": "5203188",
    "prefecture": "滋賀県",
    "prefecture_kana": "シガケン",
    "prefecture_code": 25,
    "city": "湖南市",
    "city_kana": "コナンシ",
    "town": "石部北",
    "town_kana": "イシベキタ",
    "street": "１丁目４−２６",
    "office_name": "甲賀高分子　株式会社",
    "office_name_kana": "コウガコウブンシ カブシキガイシヤ"
  },
  "3189": {
    "postcode": "5203189",
    "prefecture": "滋賀県",
    "prefecture_kana": "シガケン",
    "prefecture_code": 25,
    "city": "湖南市",
    "city_kana": "コナンシ",
    "town": "石部緑台",
    "town_kana": "イシベミドリダイ",
    "street": "２丁目１−１（甲西郵便局私書箱第１号）",
    "office_name": "株式会社　ゴーシュー",
    "office_name_kana": "カブシキガイシヤ ゴ-シユ-"
  },
  "3194": {
    "postcode": "5203194",
    "prefecture": "滋賀県",
    "prefecture_kana": "シガケン",
    "prefecture_code": 25,
    "city": "湖南市",
    "city_kana": "コナンシ",
    "town": "石部が丘",
    "town_kana": "イシベガオカ",
    "street": "２丁目１番１号",
    "office_name": "社会福祉法人　大木会",
    "office_name_kana": "シヤカイフクシホウジン オオキカイ"
  },
  "3195": {
    "postcode": "5203195",
    "prefecture": "滋賀県",
    "prefecture_kana": "シガケン",
    "prefecture_code": 25,
    "city": "湖南市",
    "city_kana": "コナンシ",
    "town": "石部中央",
    "town_kana": "イシベチュウオウ",
    "street": "１丁目１番１号",
    "office_name": "湖南市役所　西庁舎",
    "office_name_kana": "コナンシヤクシヨ ニシチヨウシヤ"
  },
  "3200": {
    "postcode": "5203200",
    "prefecture": "滋賀県",
    "prefecture_kana": "シガケン",
    "prefecture_code": 25,
    "city": "湖南市",
    "city_kana": "コナンシ",
    "town": "",
    "town_kana": "",
    "street": null,
    "office_name": null,
    "office_name_kana": null
  },
  "3201": {
    "postcode": "5203201",
    "prefecture": "滋賀県",
    "prefecture_kana": "シガケン",
    "prefecture_code": 25,
    "city": "湖南市",
    "city_kana": "コナンシ",
    "town": "下田",
    "town_kana": "シモダ",
    "street": null,
    "office_name": null,
    "office_name_kana": null
  },
  "3202": {
    "postcode": "5203202",
    "prefecture": "滋賀県",
    "prefecture_kana": "シガケン",
    "prefecture_code": 25,
    "city": "湖南市",
    "city_kana": "コナンシ",
    "town": "西峰町",
    "town_kana": "ニシミネチョウ",
    "street": null,
    "office_name": null,
    "office_name_kana": null
  },
  "3203": {
    "postcode": "5203203",
    "prefecture": "滋賀県",
    "prefecture_kana": "シガケン",
    "prefecture_code": 25,
    "city": "湖南市",
    "city_kana": "コナンシ",
    "town": "日枝町",
    "town_kana": "ヒエチョウ",
    "street": null,
    "office_name": null,
    "office_name_kana": null
  },
  "3211": {
    "postcode": "5203211",
    "prefecture": "滋賀県",
    "prefecture_kana": "シガケン",
    "prefecture_code": 25,
    "city": "湖南市",
    "city_kana": "コナンシ",
    "town": "高松町",
    "town_kana": "タカマツチョウ",
    "street": null,
    "office_name": null,
    "office_name_kana": null
  },
  "3212": {
    "postcode": "5203212",
    "prefecture": "滋賀県",
    "prefecture_kana": "シガケン",
    "prefecture_code": 25,
    "city": "湖南市",
    "city_kana": "コナンシ",
    "town": "小砂町",
    "town_kana": "コスナチョウ",
    "street": null,
    "office_name": null,
    "office_name_kana": null
  },
  "3213": {
    "postcode": "5203213",
    "prefecture": "滋賀県",
    "prefecture_kana": "シガケン",
    "prefecture_code": 25,
    "city": "湖南市",
    "city_kana": "コナンシ",
    "town": "大池町",
    "town_kana": "オオイケチョウ",
    "street": null,
    "office_name": null,
    "office_name_kana": null
  },
  "3214": {
    "postcode": "5203214",
    "prefecture": "滋賀県",
    "prefecture_kana": "シガケン",
    "prefecture_code": 25,
    "city": "湖南市",
    "city_kana": "コナンシ",
    "town": "梅影町",
    "town_kana": "ウメカゲチョウ",
    "street": null,
    "office_name": null,
    "office_name_kana": null
  },
  "3215": {
    "postcode": "5203215",
    "prefecture": "滋賀県",
    "prefecture_kana": "シガケン",
    "prefecture_code": 25,
    "city": "湖南市",
    "city_kana": "コナンシ",
    "town": "水戸町",
    "town_kana": "ミトチョウ",
    "street": null,
    "office_name": null,
    "office_name_kana": null
  },
  "3216": {
    "postcode": "5203216",
    "prefecture": "滋賀県",
    "prefecture_kana": "シガケン",
    "prefecture_code": 25,
    "city": "湖南市",
    "city_kana": "コナンシ",
    "town": "若竹町",
    "town_kana": "ワカタケチョウ",
    "street": null,
    "office_name": null,
    "office_name_kana": null
  },
  "3221": {
    "postcode": "5203221",
    "prefecture": "滋賀県",
    "prefecture_kana": "シガケン",
    "prefecture_code": 25,
    "city": "湖南市",
    "city_kana": "コナンシ",
    "town": "三雲",
    "town_kana": "ミクモ",
    "street": null,
    "office_name": null,
    "office_name_kana": null
  },
  "3222": {
    "postcode": "5203222",
    "prefecture": "滋賀県",
    "prefecture_kana": "シガケン",
    "prefecture_code": 25,
    "city": "湖南市",
    "city_kana": "コナンシ",
    "town": "吉永",
    "town_kana": "ヨシナガ",
    "street": null,
    "office_name": null,
    "office_name_kana": null
  },
  "3223": {
    "postcode": "5203223",
    "prefecture": "滋賀県",
    "prefecture_kana": "シガケン",
    "prefecture_code": 25,
    "city": "湖南市",
    "city_kana": "コナンシ",
    "town": "夏見",
    "town_kana": "ナツミ",
    "street": null,
    "office_name": null,
    "office_name_kana": null
  },
  "3231": {
    "postcode": "5203231",
    "prefecture": "滋賀県",
    "prefecture_kana": "シガケン",
    "prefecture_code": 25,
    "city": "湖南市",
    "city_kana": "コナンシ",
    "town": "針",
    "town_kana": "ハリ",
    "street": null,
    "office_name": null,
    "office_name_kana": null
  },
  "3232": {
    "postcode": "5203232",
    "prefecture": "滋賀県",
    "prefecture_kana": "シガケン",
    "prefecture_code": 25,
    "city": "湖南市",
    "city_kana": "コナンシ",
    "town": "平松",
    "town_kana": "ヒラマツ",
    "street": null,
    "office_name": null,
    "office_name_kana": null
  },
  "3233": {
    "postcode": "5203233",
    "prefecture": "滋賀県",
    "prefecture_kana": "シガケン",
    "prefecture_code": 25,
    "city": "湖南市",
    "city_kana": "コナンシ",
    "town": "柑子袋",
    "town_kana": "コウジブクロ",
    "street": null,
    "office_name": null,
    "office_name_kana": null
  },
  "3234": {
    "postcode": "5203234",
    "prefecture": "滋賀県",
    "prefecture_kana": "シガケン",
    "prefecture_code": 25,
    "city": "湖南市",
    "city_kana": "コナンシ",
    "town": "中央",
    "town_kana": "チュウオウ",
    "street": null,
    "office_name": null,
    "office_name_kana": null
  },
  "3235": {
    "postcode": "5203235",
    "prefecture": "滋賀県",
    "prefecture_kana": "シガケン",
    "prefecture_code": 25,
    "city": "湖南市",
    "city_kana": "コナンシ",
    "town": "平松北",
    "town_kana": "ヒラマツキタ",
    "street": null,
    "office_name": null,
    "office_name_kana": null
  },
  "3236": {
    "postcode": "5203236",
    "prefecture": "滋賀県",
    "prefecture_kana": "シガケン",
    "prefecture_code": 25,
    "city": "湖南市",
    "city_kana": "コナンシ",
    "town": "柑子袋東",
    "town_kana": "コウジブクロヒガシ",
    "street": null,
    "office_name": null,
    "office_name_kana": null
  },
  "3237": {
    "postcode": "5203237",
    "prefecture": "滋賀県",
    "prefecture_kana": "シガケン",
    "prefecture_code": 25,
    "city": "湖南市",
    "city_kana": "コナンシ",
    "town": "柑子袋西",
    "town_kana": "コウジブクロニシ",
    "street": null,
    "office_name": null,
    "office_name_kana": null
  },
  "3241": {
    "postcode": "5203241",
    "prefecture": "滋賀県",
    "prefecture_kana": "シガケン",
    "prefecture_code": 25,
    "city": "湖南市",
    "city_kana": "コナンシ",
    "town": "北山台",
    "town_kana": "キタヤマダイ",
    "street": null,
    "office_name": null,
    "office_name_kana": null
  },
  "3242": {
    "postcode": "5203242",
    "prefecture": "滋賀県",
    "prefecture_kana": "シガケン",
    "prefecture_code": 25,
    "city": "湖南市",
    "city_kana": "コナンシ",
    "town": "菩提寺",
    "town_kana": "ボダイジ",
    "street": null,
    "office_name": null,
    "office_name_kana": null
  },
  "3244": {
    "postcode": "5203244",
    "prefecture": "滋賀県",
    "prefecture_kana": "シガケン",
    "prefecture_code": 25,
    "city": "湖南市",
    "city_kana": "コナンシ",
    "town": "サイドタウン",
    "town_kana": "サイドタウン",
    "street": null,
    "office_name": null,
    "office_name_kana": null
  },
  "3245": {
    "postcode": "5203245",
    "prefecture": "滋賀県",
    "prefecture_kana": "シガケン",
    "prefecture_code": 25,
    "city": "湖南市",
    "city_kana": "コナンシ",
    "town": "近江台",
    "town_kana": "オウミダイ",
    "street": null,
    "office_name": null,
    "office_name_kana": null
  },
  "3246": {
    "postcode": "5203246",
    "prefecture": "滋賀県",
    "prefecture_kana": "シガケン",
    "prefecture_code": 25,
    "city": "湖南市",
    "city_kana": "コナンシ",
    "town": "菩提寺北",
    "town_kana": "ボダイジキタ",
    "street": null,
    "office_name": null,
    "office_name_kana": null
  },
  "3247": {
    "postcode": "5203247",
    "prefecture": "滋賀県",
    "prefecture_kana": "シガケン",
    "prefecture_code": 25,
    "city": "湖南市",
    "city_kana": "コナンシ",
    "town": "菩提寺東",
    "town_kana": "ボダイジヒガシ",
    "street": null,
    "office_name": null,
    "office_name_kana": null
  },
  "3248": {
    "postcode": "5203248",
    "prefecture": "滋賀県",
    "prefecture_kana": "シガケン",
    "prefecture_code": 25,
    "city": "湖南市",
    "city_kana": "コナンシ",
    "town": "菩提寺西",
    "town_kana": "ボダイジニシ",
    "street": null,
    "office_name": null,
    "office_name_kana": null
  },
  "3251": {
    "postcode": "5203251",
    "prefecture": "滋賀県",
    "prefecture_kana": "シガケン",
    "prefecture_code": 25,
    "city": "湖南市",
    "city_kana": "コナンシ",
    "town": "朝国",
    "town_kana": "アサクニ",
    "street": null,
    "office_name": null,
    "office_name_kana": null
  },
  "3252": {
    "postcode": "5203252",
    "prefecture": "滋賀県",
    "prefecture_kana": "シガケン",
    "prefecture_code": 25,
    "city": "湖南市",
    "city_kana": "コナンシ",
    "town": "岩根",
    "town_kana": "イワネ",
    "street": null,
    "office_name": null,
    "office_name_kana": null
  },
  "3253": {
    "postcode": "5203253",
    "prefecture": "滋賀県",
    "prefecture_kana": "シガケン",
    "prefecture_code": 25,
    "city": "湖南市",
    "city_kana": "コナンシ",
    "town": "正福寺",
    "town_kana": "ショウフクジ",
    "street": null,
    "office_name": null,
    "office_name_kana": null
  },
  "3254": {
    "postcode": "5203254",
    "prefecture": "滋賀県",
    "prefecture_kana": "シガケン",
    "prefecture_code": 25,
    "city": "湖南市",
    "city_kana": "コナンシ",
    "town": "岩根中央",
    "town_kana": "イワネチュウオウ",
    "street": null,
    "office_name": null,
    "office_name_kana": null
  },
  "3255": {
    "postcode": "5203255",
    "prefecture": "滋賀県",
    "prefecture_kana": "シガケン",
    "prefecture_code": 25,
    "city": "湖南市",
    "city_kana": "コナンシ",
    "town": "日枝山手台",
    "town_kana": "ヒエヤマテダイ",
    "street": null,
    "office_name": null,
    "office_name_kana": null
  },
  "3256": {
    "postcode": "5203256",
    "prefecture": "滋賀県",
    "prefecture_kana": "シガケン",
    "prefecture_code": 25,
    "city": "湖南市",
    "city_kana": "コナンシ",
    "town": "日枝あおい",
    "town_kana": "ヒエアオイ",
    "street": null,
    "office_name": null,
    "office_name_kana": null
  },
  "3281": {
    "postcode": "5203281",
    "prefecture": "滋賀県",
    "prefecture_kana": "シガケン",
    "prefecture_code": 25,
    "city": "湖南市",
    "city_kana": "コナンシ",
    "town": "朝国",
    "town_kana": "アサクニ",
    "street": "１",
    "office_name": "ＴＯＴＯ　株式会社　滋賀工場",
    "office_name_kana": "ト-ト- カブシキガイシヤ シガコウジヨウ"
  },
  "3282": {
    "postcode": "5203282",
    "prefecture": "滋賀県",
    "prefecture_kana": "シガケン",
    "prefecture_code": 25,
    "city": "湖南市",
    "city_kana": "コナンシ",
    "town": "朝国",
    "town_kana": "アサクニ",
    "street": "６５",
    "office_name": "王子製紙　株式会社　滋賀工場",
    "office_name_kana": "オウジセイシ カブシキガイシヤ シガコウジヨウ"
  },
  "3285": {
    "postcode": "5203285",
    "prefecture": "滋賀県",
    "prefecture_kana": "シガケン",
    "prefecture_code": 25,
    "city": "湖南市",
    "city_kana": "コナンシ",
    "town": "小砂町",
    "town_kana": "コスナチョウ",
    "street": "４番地４",
    "office_name": "電元社トーア　株式会社　近江工場",
    "office_name_kana": "デンゲンシヤト-ア カブシキガイシヤ オウミコウジヨウ"
  },
  "3288": {
    "postcode": "5203288",
    "prefecture": "滋賀県",
    "prefecture_kana": "シガケン",
    "prefecture_code": 25,
    "city": "湖南市",
    "city_kana": "コナンシ",
    "town": "中央",
    "town_kana": "チュウオウ",
    "street": "１丁目１（甲西郵便局私書箱第３号）",
    "office_name": "湖南市役所　東庁舎",
    "office_name_kana": "コナンシヤクシヨ ヒガシチヨウシヤ"
  },
  "3289": {
    "postcode": "5203289",
    "prefecture": "滋賀県",
    "prefecture_kana": "シガケン",
    "prefecture_code": 25,
    "city": "湖南市",
    "city_kana": "コナンシ",
    "town": "夏見",
    "town_kana": "ナツミ",
    "street": "１７８１（甲西郵便局私書箱第１９号）",
    "office_name": "日本ポリスター　株式会社",
    "office_name_kana": "ニホンポリスタ- カブシキガイシヤ"
  },
  "3301": {
    "postcode": "5203301",
    "prefecture": "滋賀県",
    "prefecture_kana": "シガケン",
    "prefecture_code": 25,
    "city": "甲賀市",
    "city_kana": "コウカシ",
    "town": "甲南町寺庄",
    "town_kana": "コウナンチョウテラショウ",
    "street": null,
    "office_name": null,
    "office_name_kana": null
  },
  "3302": {
    "postcode": "5203302",
    "prefecture": "滋賀県",
    "prefecture_kana": "シガケン",
    "prefecture_code": 25,
    "city": "甲賀市",
    "city_kana": "コウカシ",
    "town": "甲南町池田",
    "town_kana": "コウナンチョウイケダ",
    "street": null,
    "office_name": null,
    "office_name_kana": null
  },
  "3303": {
    "postcode": "5203303",
    "prefecture": "滋賀県",
    "prefecture_kana": "シガケン",
    "prefecture_code": 25,
    "city": "甲賀市",
    "city_kana": "コウカシ",
    "town": "甲南町上馬杉",
    "town_kana": "コウナンチョウカミマスギ",
    "street": null,
    "office_name": null,
    "office_name_kana": null
  },
  "3304": {
    "postcode": "5203304",
    "prefecture": "滋賀県",
    "prefecture_kana": "シガケン",
    "prefecture_code": 25,
    "city": "甲賀市",
    "city_kana": "コウカシ",
    "town": "甲南町下馬杉",
    "town_kana": "コウナンチョウシモマスギ",
    "street": null,
    "office_name": null,
    "office_name_kana": null
  },
  "3305": {
    "postcode": "5203305",
    "prefecture": "滋賀県",
    "prefecture_kana": "シガケン",
    "prefecture_code": 25,
    "city": "甲賀市",
    "city_kana": "コウカシ",
    "town": "甲南町野川",
    "town_kana": "コウナンチョウノガワ",
    "street": null,
    "office_name": null,
    "office_name_kana": null
  },
  "3306": {
    "postcode": "5203306",
    "prefecture": "滋賀県",
    "prefecture_kana": "シガケン",
    "prefecture_code": 25,
    "city": "甲賀市",
    "city_kana": "コウカシ",
    "town": "甲南町柑子",
    "town_kana": "コウナンチョウコオジ",
    "street": null,
    "office_name": null,
    "office_name_kana": null
  },
  "3307": {
    "postcode": "5203307",
    "prefecture": "滋賀県",
    "prefecture_kana": "シガケン",
    "prefecture_code": 25,
    "city": "甲賀市",
    "city_kana": "コウカシ",
    "town": "甲南町野尻",
    "town_kana": "コウナンチョウノジリ",
    "street": null,
    "office_name": null,
    "office_name_kana": null
  },
  "3308": {
    "postcode": "5203308",
    "prefecture": "滋賀県",
    "prefecture_kana": "シガケン",
    "prefecture_code": 25,
    "city": "甲賀市",
    "city_kana": "コウカシ",
    "town": "甲南町野田",
    "town_kana": "コウナンチョウノダ",
    "street": null,
    "office_name": null,
    "office_name_kana": null
  },
  "3311": {
    "postcode": "5203311",
    "prefecture": "滋賀県",
    "prefecture_kana": "シガケン",
    "prefecture_code": 25,
    "city": "甲賀市",
    "city_kana": "コウカシ",
    "town": "甲南町竜法師",
    "town_kana": "コウナンチョウリュウボウシ",
    "street": null,
    "office_name": null,
    "office_name_kana": null
  },
  "3312": {
    "postcode": "5203312",
    "prefecture": "滋賀県",
    "prefecture_kana": "シガケン",
    "prefecture_code": 25,
    "city": "甲賀市",
    "city_kana": "コウカシ",
    "town": "甲南町磯尾",
    "town_kana": "コウナンチョウイソオ",
    "street": null,
    "office_name": null,
    "office_name_kana": null
  },
  "3313": {
    "postcode": "5203313",
    "prefecture": "滋賀県",
    "prefecture_kana": "シガケン",
    "prefecture_code": 25,
    "city": "甲賀市",
    "city_kana": "コウカシ",
    "town": "甲南町新治",
    "town_kana": "コウナンチョウシンジ",
    "street": null,
    "office_name": null,
    "office_name_kana": null
  },
  "3314": {
    "postcode": "5203314",
    "prefecture": "滋賀県",
    "prefecture_kana": "シガケン",
    "prefecture_code": 25,
    "city": "甲賀市",
    "city_kana": "コウカシ",
    "town": "甲南町杉谷",
    "town_kana": "コウナンチョウスギタニ",
    "street": null,
    "office_name": null,
    "office_name_kana": null
  },
  "3315": {
    "postcode": "5203315",
    "prefecture": "滋賀県",
    "prefecture_kana": "シガケン",
    "prefecture_code": 25,
    "city": "甲賀市",
    "city_kana": "コウカシ",
    "town": "甲南町塩野",
    "town_kana": "コウナンチョウシオノ",
    "street": null,
    "office_name": null,
    "office_name_kana": null
  },
  "3316": {
    "postcode": "5203316",
    "prefecture": "滋賀県",
    "prefecture_kana": "シガケン",
    "prefecture_code": 25,
    "city": "甲賀市",
    "city_kana": "コウカシ",
    "town": "甲南町市原",
    "town_kana": "コウナンチョウイチハラ",
    "street": null,
    "office_name": null,
    "office_name_kana": null
  },
  "3321": {
    "postcode": "5203321",
    "prefecture": "滋賀県",
    "prefecture_kana": "シガケン",
    "prefecture_code": 25,
    "city": "甲賀市",
    "city_kana": "コウカシ",
    "town": "甲南町葛木",
    "town_kana": "コウナンチョウカヅラキ",
    "street": null,
    "office_name": null,
    "office_name_kana": null
  },
  "3322": {
    "postcode": "5203322",
    "prefecture": "滋賀県",
    "prefecture_kana": "シガケン",
    "prefecture_code": 25,
    "city": "甲賀市",
    "city_kana": "コウカシ",
    "town": "甲南町深川",
    "town_kana": "コウナンチョウフカワ",
    "street": null,
    "office_name": null,
    "office_name_kana": null
  },
  "3323": {
    "postcode": "5203323",
    "prefecture": "滋賀県",
    "prefecture_kana": "シガケン",
    "prefecture_code": 25,
    "city": "甲賀市",
    "city_kana": "コウカシ",
    "town": "甲南町深川市場",
    "town_kana": "コウナンチョウフカワイチバ",
    "street": null,
    "office_name": null,
    "office_name_kana": null
  },
  "3324": {
    "postcode": "5203324",
    "prefecture": "滋賀県",
    "prefecture_kana": "シガケン",
    "prefecture_code": 25,
    "city": "甲賀市",
    "city_kana": "コウカシ",
    "town": "甲南町森尻",
    "town_kana": "コウナンチョウモリシリ",
    "street": null,
    "office_name": null,
    "office_name_kana": null
  },
  "3325": {
    "postcode": "5203325",
    "prefecture": "滋賀県",
    "prefecture_kana": "シガケン",
    "prefecture_code": 25,
    "city": "甲賀市",
    "city_kana": "コウカシ",
    "town": "甲南町宝木",
    "town_kana": "コウナンチョウホウノキ",
    "street": null,
    "office_name": null,
    "office_name_kana": null
  },
  "3326": {
    "postcode": "5203326",
    "prefecture": "滋賀県",
    "prefecture_kana": "シガケン",
    "prefecture_code": 25,
    "city": "甲賀市",
    "city_kana": "コウカシ",
    "town": "甲南町耕心",
    "town_kana": "コウナンチョウコウシン",
    "street": null,
    "office_name": null,
    "office_name_kana": null
  },
  "3331": {
    "postcode": "5203331",
    "prefecture": "滋賀県",
    "prefecture_kana": "シガケン",
    "prefecture_code": 25,
    "city": "甲賀市",
    "city_kana": "コウカシ",
    "town": "甲南町稗谷",
    "town_kana": "コウナンチョウヒエダニ",
    "street": null,
    "office_name": null,
    "office_name_kana": null
  },
  "3332": {
    "postcode": "5203332",
    "prefecture": "滋賀県",
    "prefecture_kana": "シガケン",
    "prefecture_code": 25,
    "city": "甲賀市",
    "city_kana": "コウカシ",
    "town": "甲南町希望ケ丘本町",
    "town_kana": "コウナンチョウキボウガオカホンマチ",
    "street": null,
    "office_name": null,
    "office_name_kana": null
  },
  "3333": {
    "postcode": "5203333",
    "prefecture": "滋賀県",
    "prefecture_kana": "シガケン",
    "prefecture_code": 25,
    "city": "甲賀市",
    "city_kana": "コウカシ",
    "town": "甲南町希望ケ丘",
    "town_kana": "コウナンチョウキボウガオカ",
    "street": null,
    "office_name": null,
    "office_name_kana": null
  },
  "3393": {
    "postcode": "5203393",
    "prefecture": "滋賀県",
    "prefecture_kana": "シガケン",
    "prefecture_code": 25,
    "city": "甲賀市",
    "city_kana": "コウカシ",
    "town": "甲南町野田",
    "town_kana": "コウナンチョウノダ",
    "street": "８１０番地",
    "office_name": "甲賀市役所　甲南庁舎",
    "office_name_kana": "コウカシヤクシヨ コウナンチヨウシヤ"
  },
  "3401": {
    "postcode": "5203401",
    "prefecture": "滋賀県",
    "prefecture_kana": "シガケン",
    "prefecture_code": 25,
    "city": "甲賀市",
    "city_kana": "コウカシ",
    "town": "甲賀町岩室",
    "town_kana": "コウカチョウイワムロ",
    "street": null,
    "office_name": null,
    "office_name_kana": null
  },
  "3402": {
    "postcode": "5203402",
    "prefecture": "滋賀県",
    "prefecture_kana": "シガケン",
    "prefecture_code": 25,
    "city": "甲賀市",
    "city_kana": "コウカシ",
    "town": "甲賀町小佐治",
    "town_kana": "コウカチョウコサジ",
    "street": null,
    "office_name": null,
    "office_name_kana": null
  },
  "3403": {
    "postcode": "5203403",
    "prefecture": "滋賀県",
    "prefecture_kana": "シガケン",
    "prefecture_code": 25,
    "city": "甲賀市",
    "city_kana": "コウカシ",
    "town": "甲賀町鳥居野",
    "town_kana": "コウカチョウトリイノ",
    "street": null,
    "office_name": null,
    "office_name_kana": null
  },
  "3404": {
    "postcode": "5203404",
    "prefecture": "滋賀県",
    "prefecture_kana": "シガケン",
    "prefecture_code": 25,
    "city": "甲賀市",
    "city_kana": "コウカシ",
    "town": "甲賀町神保",
    "town_kana": "コウカチョウジンボ",
    "street": null,
    "office_name": null,
    "office_name_kana": null
  },
  "3405": {
    "postcode": "5203405",
    "prefecture": "滋賀県",
    "prefecture_kana": "シガケン",
    "prefecture_code": 25,
    "city": "甲賀市",
    "city_kana": "コウカシ",
    "town": "甲賀町隠岐",
    "town_kana": "コウカチョウオキ",
    "street": null,
    "office_name": null,
    "office_name_kana": null
  },
  "3411": {
    "postcode": "5203411",
    "prefecture": "滋賀県",
    "prefecture_kana": "シガケン",
    "prefecture_code": 25,
    "city": "甲賀市",
    "city_kana": "コウカシ",
    "town": "甲賀町神",
    "town_kana": "コウカチョウカミ",
    "street": null,
    "office_name": null,
    "office_name_kana": null
  },
  "3412": {
    "postcode": "5203412",
    "prefecture": "滋賀県",
    "prefecture_kana": "シガケン",
    "prefecture_code": 25,
    "city": "甲賀市",
    "city_kana": "コウカシ",
    "town": "甲賀町櫟野",
    "town_kana": "コウカチョウイチノ",
    "street": null,
    "office_name": null,
    "office_name_kana": null
  },
  "3413": {
    "postcode": "5203413",
    "prefecture": "滋賀県",
    "prefecture_kana": "シガケン",
    "prefecture_code": 25,
    "city": "甲賀市",
    "city_kana": "コウカシ",
    "town": "甲賀町油日",
    "town_kana": "コウカチョウアブラヒ",
    "street": null,
    "office_name": null,
    "office_name_kana": null
  },
  "3414": {
    "postcode": "5203414",
    "prefecture": "滋賀県",
    "prefecture_kana": "シガケン",
    "prefecture_code": 25,
    "city": "甲賀市",
    "city_kana": "コウカシ",
    "town": "甲賀町大久保",
    "town_kana": "コウカチョウオオクボ",
    "street": null,
    "office_name": null,
    "office_name_kana": null
  },
  "3415": {
    "postcode": "5203415",
    "prefecture": "滋賀県",
    "prefecture_kana": "シガケン",
    "prefecture_code": 25,
    "city": "甲賀市",
    "city_kana": "コウカシ",
    "town": "甲賀町大原上田",
    "town_kana": "コウカチョウオオハラウエダ",
    "street": null,
    "office_name": null,
    "office_name_kana": null
  },
  "3421": {
    "postcode": "5203421",
    "prefecture": "滋賀県",
    "prefecture_kana": "シガケン",
    "prefecture_code": 25,
    "city": "甲賀市",
    "city_kana": "コウカシ",
    "town": "甲賀町上野",
    "town_kana": "コウカチョウウエノ",
    "street": null,
    "office_name": null,
    "office_name_kana": null
  },
  "3422": {
    "postcode": "5203422",
    "prefecture": "滋賀県",
    "prefecture_kana": "シガケン",
    "prefecture_code": 25,
    "city": "甲賀市",
    "city_kana": "コウカシ",
    "town": "甲賀町和田",
    "town_kana": "コウカチョウワタ",
    "street": null,
    "office_name": null,
    "office_name_kana": null
  },
  "3423": {
    "postcode": "5203423",
    "prefecture": "滋賀県",
    "prefecture_kana": "シガケン",
    "prefecture_code": 25,
    "city": "甲賀市",
    "city_kana": "コウカシ",
    "town": "甲賀町五反田",
    "town_kana": "コウカチョウゴタンダ",
    "street": null,
    "office_name": null,
    "office_name_kana": null
  },
  "3424": {
    "postcode": "5203424",
    "prefecture": "滋賀県",
    "prefecture_kana": "シガケン",
    "prefecture_code": 25,
    "city": "甲賀市",
    "city_kana": "コウカシ",
    "town": "甲賀町高嶺",
    "town_kana": "コウカチョウタカミネ",
    "street": null,
    "office_name": null,
    "office_name_kana": null
  },
  "3425": {
    "postcode": "5203425",
    "prefecture": "滋賀県",
    "prefecture_kana": "シガケン",
    "prefecture_code": 25,
    "city": "甲賀市",
    "city_kana": "コウカシ",
    "town": "甲賀町毛枚",
    "town_kana": "コウカチョウモビラ",
    "street": null,
    "office_name": null,
    "office_name_kana": null
  },
  "3426": {
    "postcode": "5203426",
    "prefecture": "滋賀県",
    "prefecture_kana": "シガケン",
    "prefecture_code": 25,
    "city": "甲賀市",
    "city_kana": "コウカシ",
    "town": "甲賀町田堵野",
    "town_kana": "コウカチョウタドノ",
    "street": null,
    "office_name": null,
    "office_name_kana": null
  },
  "3427": {
    "postcode": "5203427",
    "prefecture": "滋賀県",
    "prefecture_kana": "シガケン",
    "prefecture_code": 25,
    "city": "甲賀市",
    "city_kana": "コウカシ",
    "town": "甲賀町鹿深台",
    "town_kana": "コウカチョウカフカダイ",
    "street": null,
    "office_name": null,
    "office_name_kana": null
  },
  "3431": {
    "postcode": "5203431",
    "prefecture": "滋賀県",
    "prefecture_kana": "シガケン",
    "prefecture_code": 25,
    "city": "甲賀市",
    "city_kana": "コウカシ",
    "town": "甲賀町大原中",
    "town_kana": "コウカチョウオオハラナカ",
    "street": null,
    "office_name": null,
    "office_name_kana": null
  },
  "3432": {
    "postcode": "5203432",
    "prefecture": "滋賀県",
    "prefecture_kana": "シガケン",
    "prefecture_code": 25,
    "city": "甲賀市",
    "city_kana": "コウカシ",
    "town": "甲賀町滝",
    "town_kana": "コウカチョウタキ",
    "street": null,
    "office_name": null,
    "office_name_kana": null
  },
  "3433": {
    "postcode": "5203433",
    "prefecture": "滋賀県",
    "prefecture_kana": "シガケン",
    "prefecture_code": 25,
    "city": "甲賀市",
    "city_kana": "コウカシ",
    "town": "甲賀町大原市場",
    "town_kana": "コウカチョウオオハライチバ",
    "street": null,
    "office_name": null,
    "office_name_kana": null
  },
  "3434": {
    "postcode": "5203434",
    "prefecture": "滋賀県",
    "prefecture_kana": "シガケン",
    "prefecture_code": 25,
    "city": "甲賀市",
    "city_kana": "コウカシ",
    "town": "甲賀町高野",
    "town_kana": "コウカチョウタカノ",
    "street": null,
    "office_name": null,
    "office_name_kana": null
  },
  "3435": {
    "postcode": "5203435",
    "prefecture": "滋賀県",
    "prefecture_kana": "シガケン",
    "prefecture_code": 25,
    "city": "甲賀市",
    "city_kana": "コウカシ",
    "town": "甲賀町相模",
    "town_kana": "コウカチョウサガミ",
    "street": null,
    "office_name": null,
    "office_name_kana": null
  },
  "3436": {
    "postcode": "5203436",
    "prefecture": "滋賀県",
    "prefecture_kana": "シガケン",
    "prefecture_code": 25,
    "city": "甲賀市",
    "city_kana": "コウカシ",
    "town": "甲賀町拝坂",
    "town_kana": "コウカチョウハイサカ",
    "street": null,
    "office_name": null,
    "office_name_kana": null
  },
  "3492": {
    "postcode": "5203492",
    "prefecture": "滋賀県",
    "prefecture_kana": "シガケン",
    "prefecture_code": 25,
    "city": "甲賀市",
    "city_kana": "コウカシ",
    "town": "甲賀町相模",
    "town_kana": "コウカチョウサガミ",
    "street": "１７３番地１",
    "office_name": "甲賀市役所　甲賀支所",
    "office_name_kana": "コウカシヤクシヨ コウカシシヨ"
  },
  "3493": {
    "postcode": "5203493",
    "prefecture": "滋賀県",
    "prefecture_kana": "シガケン",
    "prefecture_code": 25,
    "city": "甲賀市",
    "city_kana": "コウカシ",
    "town": "甲賀町鳥居野",
    "town_kana": "コウカチョウトリイノ",
    "street": "中山谷１２１−１",
    "office_name": "バイエル薬品　株式会社　滋賀工場",
    "office_name_kana": "バイエルヤクヒン カブシキガイシヤ シガコウジヨウ"
  },
  "8501": {
    "postcode": "5208501",
    "prefecture": "滋賀県",
    "prefecture_kana": "シガケン",
    "prefecture_code": 25,
    "city": "大津市",
    "city_kana": "オオツシ",
    "town": "打出浜",
    "town_kana": "ウチデハマ",
    "street": "１番１０号",
    "office_name": "滋賀県警察本部",
    "office_name_kana": "シガケンケイサツホンブ"
  },
  "8510": {
    "postcode": "5208510",
    "prefecture": "滋賀県",
    "prefecture_kana": "シガケン",
    "prefecture_code": 25,
    "city": "大津市",
    "city_kana": "オオツシ",
    "town": "京町",
    "town_kana": "キョウマチ",
    "street": "三丁目１番１号大津びわ湖合同庁舎",
    "office_name": "大津税務署",
    "office_name_kana": "オオツゼイムシヨ"
  },
  "8511": {
    "postcode": "5208511",
    "prefecture": "滋賀県",
    "prefecture_kana": "シガケン",
    "prefecture_code": 25,
    "city": "大津市",
    "city_kana": "オオツシ",
    "town": "長等",
    "town_kana": "ナガラ",
    "street": "１丁目１−３５",
    "office_name": "大津赤十字病院",
    "office_name_kana": "オオツセキジユウジビヨウイン"
  },
  "8512": {
    "postcode": "5208512",
    "prefecture": "滋賀県",
    "prefecture_kana": "シガケン",
    "prefecture_code": 25,
    "city": "大津市",
    "city_kana": "オオツシ",
    "town": "京町",
    "town_kana": "キョウマチ",
    "street": "３丁目１番１号",
    "office_name": "大津地方検察庁",
    "office_name_kana": "オオツチホウケンサツチヨウ"
  },
  "8513": {
    "postcode": "5208513",
    "prefecture": "滋賀県",
    "prefecture_kana": "シガケン",
    "prefecture_code": 25,
    "city": "大津市",
    "city_kana": "オオツシ",
    "town": "梅林",
    "town_kana": "ウメバヤシ",
    "street": "１丁目３−１０滋賀ビル",
    "office_name": "全国健康保険協会　滋賀支部",
    "office_name_kana": "ゼンコクケンコウホケンキヨウカイ シガシブ"
  },
  "8515": {
    "postcode": "5208515",
    "prefecture": "滋賀県",
    "prefecture_kana": "シガケン",
    "prefecture_code": 25,
    "city": "大津市",
    "city_kana": "オオツシ",
    "town": "中央",
    "town_kana": "チュウオウ",
    "street": "３−１−８大津第一生命ビル７階",
    "office_name": "日本年金機構　滋賀事務センター",
    "office_name_kana": "ニツポンネンキンキコウ シガジムセンタ-"
  },
  "8516": {
    "postcode": "5208516",
    "prefecture": "滋賀県",
    "prefecture_kana": "シガケン",
    "prefecture_code": 25,
    "city": "大津市",
    "city_kana": "オオツシ",
    "town": "京町",
    "town_kana": "キョウマチ",
    "street": "３丁目１−１",
    "office_name": "大津法務局",
    "office_name_kana": "オオツホオムキヨク"
  },
  "8520": {
    "postcode": "5208520",
    "prefecture": "滋賀県",
    "prefecture_kana": "シガケン",
    "prefecture_code": 25,
    "city": "大津市",
    "city_kana": "オオツシ",
    "town": "におの浜",
    "town_kana": "ニオノハマ",
    "street": "４丁目７−７",
    "office_name": "大津プリンスホテル",
    "office_name_kana": "オオツプリンスホテル"
  },
  "8530": {
    "postcode": "5208530",
    "prefecture": "滋賀県",
    "prefecture_kana": "シガケン",
    "prefecture_code": 25,
    "city": "大津市",
    "city_kana": "オオツシ",
    "town": "長等",
    "town_kana": "ナガラ",
    "street": "３丁目１−２０",
    "office_name": "浜大津都市開発　（株）",
    "office_name_kana": "ハマオオツトシカイハツ カブシキガイシヤ"
  },
  "8550": {
    "postcode": "5208550",
    "prefecture": "滋賀県",
    "prefecture_kana": "シガケン",
    "prefecture_code": 25,
    "city": "大津市",
    "city_kana": "オオツシ",
    "town": "京町",
    "town_kana": "キョウマチ",
    "street": "四丁目３番２８号滋賀県厚生会館別館４Ｆ",
    "office_name": "滋賀県市町村職員共済組合",
    "office_name_kana": "シガケンシチヨウソンシヨクインキヨウサイクミアイ"
  },
  "8555": {
    "postcode": "5208555",
    "prefecture": "滋賀県",
    "prefecture_kana": "シガケン",
    "prefecture_code": 25,
    "city": "大津市",
    "city_kana": "オオツシ",
    "town": "晴嵐",
    "town_kana": "セイラン",
    "street": "２丁目９−１",
    "office_name": "関西日本電気　株式会社",
    "office_name_kana": "カンサイニツポンデンキ カブシキガイシヤ"
  },
  "8558": {
    "postcode": "5208558",
    "prefecture": "滋賀県",
    "prefecture_kana": "シガケン",
    "prefecture_code": 25,
    "city": "大津市",
    "city_kana": "オオツシ",
    "town": "園山",
    "town_kana": "ソノヤマ",
    "street": "１丁目１−１",
    "office_name": "東レ　株式会社　滋賀事業場",
    "office_name_kana": "トウレ カブシキガイシヤ シガジギヨウジヨウ"
  },
  "8567": {
    "postcode": "5208567",
    "prefecture": "滋賀県",
    "prefecture_kana": "シガケン",
    "prefecture_code": 25,
    "city": "大津市",
    "city_kana": "オオツシ",
    "town": "園山",
    "town_kana": "ソノヤマ",
    "street": "三丁目２番１１号",
    "office_name": "株式会社　東レリサーチセンター",
    "office_name_kana": "カブシキガイシヤ トウレリサ-チセンタ-"
  },
  "8570": {
    "postcode": "5208570",
    "prefecture": "滋賀県",
    "prefecture_kana": "シガケン",
    "prefecture_code": 25,
    "city": "大津市",
    "city_kana": "オオツシ",
    "town": "におの浜",
    "town_kana": "ニオノハマ",
    "street": "４丁目１−５１",
    "office_name": "関西電力　（株）　滋賀支店",
    "office_name_kana": "カンサイデンリヨク カブシキガイシヤ シガシテン"
  },
  "8575": {
    "postcode": "5208575",
    "prefecture": "滋賀県",
    "prefecture_kana": "シガケン",
    "prefecture_code": 25,
    "city": "大津市",
    "city_kana": "オオツシ",
    "town": "御陵町",
    "town_kana": "ゴリョウチョウ",
    "street": "３−１",
    "office_name": "大津市役所",
    "office_name_kana": "オオツシヤクシヨ"
  },
  "8577": {
    "postcode": "5208577",
    "prefecture": "滋賀県",
    "prefecture_kana": "シガケン",
    "prefecture_code": 25,
    "city": "大津市",
    "city_kana": "オオツシ",
    "town": "京町",
    "town_kana": "キョウマチ",
    "street": "４丁目１−１",
    "office_name": "滋賀県庁",
    "office_name_kana": "シガケンチヨウ"
  },
  "8580": {
    "postcode": "5208580",
    "prefecture": "滋賀県",
    "prefecture_kana": "シガケン",
    "prefecture_code": 25,
    "city": "大津市",
    "city_kana": "オオツシ",
    "town": "におの浜",
    "town_kana": "ニオノハマ",
    "street": "２丁目３−１",
    "office_name": "株式会社　西武百貨店　大津店",
    "office_name_kana": "カブシキガイシヤ セイブヒヤツカテン オオツテン"
  },
  "8585": {
    "postcode": "5208585",
    "prefecture": "滋賀県",
    "prefecture_kana": "シガケン",
    "prefecture_code": 25,
    "city": "大津市",
    "city_kana": "オオツシ",
    "town": "鶴の里",
    "town_kana": "ツルノサト",
    "street": "１６−１",
    "office_name": "びわ湖放送　株式会社",
    "office_name_kana": "ビワコホウソウ カブシキガイシヤ"
  },
  "8586": {
    "postcode": "5208586",
    "prefecture": "滋賀県",
    "prefecture_kana": "シガケン",
    "prefecture_code": 25,
    "city": "大津市",
    "city_kana": "オオツシ",
    "town": "におの浜",
    "town_kana": "ニオノハマ",
    "street": "４丁目７番５号",
    "office_name": "（株）　みんなで作る新聞社",
    "office_name_kana": "カブシキガイシヤ ミンナデツクルシンブンシヤ"
  },
  "8588": {
    "postcode": "5208588",
    "prefecture": "滋賀県",
    "prefecture_kana": "シガケン",
    "prefecture_code": 25,
    "city": "大津市",
    "city_kana": "オオツシ",
    "town": "浜大津",
    "town_kana": "ハマオオツ",
    "street": "１丁目１−２６",
    "office_name": "ＮＴＴ　大津支店",
    "office_name_kana": "エヌ・テイ-・テイ- オオツシテン"
  },
  "8639": {
    "postcode": "5208639",
    "prefecture": "滋賀県",
    "prefecture_kana": "シガケン",
    "prefecture_code": 25,
    "city": "大津市",
    "city_kana": "オオツシ",
    "town": "晴嵐",
    "town_kana": "セイラン",
    "street": "２丁目７−１",
    "office_name": "日本電気硝子　（株）",
    "office_name_kana": "ニホンデンキガラス"
  },
  "8666": {
    "postcode": "5208666",
    "prefecture": "滋賀県",
    "prefecture_kana": "シガケン",
    "prefecture_code": 25,
    "city": "大津市",
    "city_kana": "オオツシ",
    "town": "大平",
    "town_kana": "オオヒラ",
    "street": "１丁目１番１号",
    "office_name": "滋賀刑務所",
    "office_name_kana": "シガケイムシヨ"
  }
}