{
  "0000": {
    "postcode": "5240000",
    "prefecture": "滋賀県",
    "prefecture_kana": "シガケン",
    "prefecture_code": 25,
    "city": "守山市",
    "city_kana": "モリヤマシ",
    "town": "",
    "town_kana": "",
    "street": null,
    "office_name": null,
    "office_name_kana": null
  },
  "0001": {
    "postcode": "5240001",
    "prefecture": "滋賀県",
    "prefecture_kana": "シガケン",
    "prefecture_code": 25,
    "city": "守山市",
    "city_kana": "モリヤマシ",
    "town": "川田町",
    "town_kana": "カワタチョウ",
    "street": null,
    "office_name": null,
    "office_name_kana": null
  },
  "0002": {
    "postcode": "5240002",
    "prefecture": "滋賀県",
    "prefecture_kana": "シガケン",
    "prefecture_code": 25,
    "city": "守山市",
    "city_kana": "モリヤマシ",
    "town": "小島町",
    "town_kana": "コジマチョウ",
    "street": null,
    "office_name": null,
    "office_name_kana": null
  },
  "0003": {
    "postcode": "5240003",
    "prefecture": "滋賀県",
    "prefecture_kana": "シガケン",
    "prefecture_code": 25,
    "city": "守山市",
    "city_kana": "モリヤマシ",
    "town": "中町",
    "town_kana": "ナカチョウ",
    "street": null,
    "office_name": null,
    "office_name_kana": null
  },
  "0004": {
    "postcode": "5240004",
    "prefecture": "滋賀県",
    "prefecture_kana": "シガケン",
    "prefecture_code": 25,
    "city": "守山市",
    "city_kana": "モリヤマシ",
    "town": "笠原町",
    "town_kana": "カサハラチョウ",
    "street": null,
    "office_name": null,
    "office_name_kana": null
  },
  "0011": {
    "postcode": "5240011",
    "prefecture": "滋賀県",
    "prefecture_kana": "シガケン",
    "prefecture_code": 25,
    "city": "守山市",
    "city_kana": "モリヤマシ",
    "town": "今市町",
    "town_kana": "イマイチチョウ",
    "street": null,
    "office_name": null,
    "office_name_kana": null
  },
  "0012": {
    "postcode": "5240012",
    "prefecture": "滋賀県",
    "prefecture_kana": "シガケン",
    "prefecture_code": 25,
    "city": "守山市",
    "city_kana": "モリヤマシ",
    "town": "播磨田町",
    "town_kana": "ハリマダチョウ",
    "street": null,
    "office_name": null,
    "office_name_kana": null
  },
  "0013": [
    {
      "postcode": "5240013",
      "prefecture": "滋賀県",
      "prefecture_kana": "シガケン",
      "prefecture_code": 25,
      "city": "守山市",
      "city_kana": "モリヤマシ",
      "town": "下之郷",
      "town_kana": "シモノゴウ",
      "street": null,
      "office_name": null,
      "office_name_kana": null
    },
    {
      "postcode": "5240013",
      "prefecture": "滋賀県",
      "prefecture_kana": "シガケン",
      "prefecture_code": 25,
      "city": "守山市",
      "city_kana": "モリヤマシ",
      "town": "下之郷町",
      "town_kana": "シモノゴウチョウ",
      "street": null,
      "office_name": null,
      "office_name_kana": null
    }
  ],
  "0014": {
    "postcode": "5240014",
    "prefecture": "滋賀県",
    "prefecture_kana": "シガケン",
    "prefecture_code": 25,
    "city": "守山市",
    "city_kana": "モリヤマシ",
    "town": "石田町",
    "town_kana": "イシダチョウ",
    "street": null,
    "office_name": null,
    "office_name_kana": null
  },
  "0015": {
    "postcode": "5240015",
    "prefecture": "滋賀県",
    "prefecture_kana": "シガケン",
    "prefecture_code": 25,
    "city": "守山市",
    "city_kana": "モリヤマシ",
    "town": "矢島町",
    "town_kana": "ヤジマチョウ",
    "street": null,
    "office_name": null,
    "office_name_kana": null
  },
  "0016": {
    "postcode": "5240016",
    "prefecture": "滋賀県",
    "prefecture_kana": "シガケン",
    "prefecture_code": 25,
    "city": "守山市",
    "city_kana": "モリヤマシ",
    "town": "荒見町",
    "town_kana": "アラミチョウ",
    "street": null,
    "office_name": null,
    "office_name_kana": null
  },
  "0021": [
    {
      "postcode": "5240021",
      "prefecture": "滋賀県",
      "prefecture_kana": "シガケン",
      "prefecture_code": 25,
      "city": "守山市",
      "city_kana": "モリヤマシ",
      "town": "吉身",
      "town_kana": "ヨシミ",
      "street": null,
      "office_name": null,
      "office_name_kana": null
    },
    {
      "postcode": "5240021",
      "prefecture": "滋賀県",
      "prefecture_kana": "シガケン",
      "prefecture_code": 25,
      "city": "守山市",
      "city_kana": "モリヤマシ",
      "town": "吉身町",
      "town_kana": "ヨシミチョウ",
      "street": null,
      "office_name": null,
      "office_name_kana": null
    }
  ],
  "0022": [
    {
      "postcode": "5240022",
      "prefecture": "滋賀県",
      "prefecture_kana": "シガケン",
      "prefecture_code": 25,
      "city": "守山市",
      "city_kana": "モリヤマシ",
      "town": "守山",
      "town_kana": "モリヤマ",
      "street": null,
      "office_name": null,
      "office_name_kana": null
    },
    {
      "postcode": "5240022",
      "prefecture": "滋賀県",
      "prefecture_kana": "シガケン",
      "prefecture_code": 25,
      "city": "守山市",
      "city_kana": "モリヤマシ",
      "town": "守山町",
      "town_kana": "モリヤマチョウ",
      "street": null,
      "office_name": null,
      "office_name_kana": null
    }
  ],
  "0031": {
    "postcode": "5240031",
    "prefecture": "滋賀県",
    "prefecture_kana": "シガケン",
    "prefecture_code": 25,
    "city": "守山市",
    "city_kana": "モリヤマシ",
    "town": "立入町",
    "town_kana": "タテイリチョウ",
    "street": null,
    "office_name": null,
    "office_name_kana": null
  },
  "0032": {
    "postcode": "5240032",
    "prefecture": "滋賀県",
    "prefecture_kana": "シガケン",
    "prefecture_code": 25,
    "city": "守山市",
    "city_kana": "モリヤマシ",
    "town": "岡町",
    "town_kana": "オカチョウ",
    "street": null,
    "office_name": null,
    "office_name_kana": null
  },
  "0033": {
    "postcode": "5240033",
    "prefecture": "滋賀県",
    "prefecture_kana": "シガケン",
    "prefecture_code": 25,
    "city": "守山市",
    "city_kana": "モリヤマシ",
    "town": "浮気町",
    "town_kana": "フケチョウ",
    "street": null,
    "office_name": null,
    "office_name_kana": null
  },
  "0034": {
    "postcode": "5240034",
    "prefecture": "滋賀県",
    "prefecture_kana": "シガケン",
    "prefecture_code": 25,
    "city": "守山市",
    "city_kana": "モリヤマシ",
    "town": "千代町",
    "town_kana": "チシロチョウ",
    "street": null,
    "office_name": null,
    "office_name_kana": null
  },
  "0035": {
    "postcode": "5240035",
    "prefecture": "滋賀県",
    "prefecture_kana": "シガケン",
    "prefecture_code": 25,
    "city": "守山市",
    "city_kana": "モリヤマシ",
    "town": "阿村町",
    "town_kana": "アムラチョウ",
    "street": null,
    "office_name": null,
    "office_name_kana": null
  },
  "0036": {
    "postcode": "5240036",
    "prefecture": "滋賀県",
    "prefecture_kana": "シガケン",
    "prefecture_code": 25,
    "city": "守山市",
    "city_kana": "モリヤマシ",
    "town": "伊勢町",
    "town_kana": "イセチョウ",
    "street": null,
    "office_name": null,
    "office_name_kana": null
  },
  "0037": {
    "postcode": "5240037",
    "prefecture": "滋賀県",
    "prefecture_kana": "シガケン",
    "prefecture_code": 25,
    "city": "守山市",
    "city_kana": "モリヤマシ",
    "town": "梅田町",
    "town_kana": "ウメダチョウ",
    "street": null,
    "office_name": null,
    "office_name_kana": null
  },
  "0041": [
    {
      "postcode": "5240041",
      "prefecture": "滋賀県",
      "prefecture_kana": "シガケン",
      "prefecture_code": 25,
      "city": "守山市",
      "city_kana": "モリヤマシ",
      "town": "勝部",
      "town_kana": "カツベ",
      "street": null,
      "office_name": null,
      "office_name_kana": null
    },
    {
      "postcode": "5240041",
      "prefecture": "滋賀県",
      "prefecture_kana": "シガケン",
      "prefecture_code": 25,
      "city": "守山市",
      "city_kana": "モリヤマシ",
      "town": "勝部町",
      "town_kana": "カツベチョウ",
      "street": null,
      "office_name": null,
      "office_name_kana": null
    }
  ],
  "0042": {
    "postcode": "5240042",
    "prefecture": "滋賀県",
    "prefecture_kana": "シガケン",
    "prefecture_code": 25,
    "city": "守山市",
    "city_kana": "モリヤマシ",
    "town": "焔魔堂町",
    "town_kana": "エンマドウチョウ",
    "street": null,
    "office_name": null,
    "office_name_kana": null
  },
  "0043": {
    "postcode": "5240043",
    "prefecture": "滋賀県",
    "prefecture_kana": "シガケン",
    "prefecture_code": 25,
    "city": "守山市",
    "city_kana": "モリヤマシ",
    "town": "二町町",
    "town_kana": "フタマチチョウ",
    "street": null,
    "office_name": null,
    "office_name_kana": null
  },
  "0044": {
    "postcode": "5240044",
    "prefecture": "滋賀県",
    "prefecture_kana": "シガケン",
    "prefecture_code": 25,
    "city": "守山市",
    "city_kana": "モリヤマシ",
    "town": "古高町",
    "town_kana": "フルタカチョウ",
    "street": null,
    "office_name": null,
    "office_name_kana": null
  },
  "0045": {
    "postcode": "5240045",
    "prefecture": "滋賀県",
    "prefecture_kana": "シガケン",
    "prefecture_code": 25,
    "city": "守山市",
    "city_kana": "モリヤマシ",
    "town": "金森町",
    "town_kana": "カネガモリチョウ",
    "street": null,
    "office_name": null,
    "office_name_kana": null
  },
  "0046": [
    {
      "postcode": "5240046",
      "prefecture": "滋賀県",
      "prefecture_kana": "シガケン",
      "prefecture_code": 25,
      "city": "守山市",
      "city_kana": "モリヤマシ",
      "town": "今宿",
      "town_kana": "イマジュク",
      "street": null,
      "office_name": null,
      "office_name_kana": null
    },
    {
      "postcode": "5240046",
      "prefecture": "滋賀県",
      "prefecture_kana": "シガケン",
      "prefecture_code": 25,
      "city": "守山市",
      "city_kana": "モリヤマシ",
      "town": "今宿町",
      "town_kana": "イマジュクチョウ",
      "street": null,
      "office_name": null,
      "office_name_kana": null
    }
  ],
  "0051": {
    "postcode": "5240051",
    "prefecture": "滋賀県",
    "prefecture_kana": "シガケン",
    "prefecture_code": 25,
    "city": "守山市",
    "city_kana": "モリヤマシ",
    "town": "三宅町",
    "town_kana": "ミヤケチョウ",
    "street": null,
    "office_name": null,
    "office_name_kana": null
  },
  "0052": {
    "postcode": "5240052",
    "prefecture": "滋賀県",
    "prefecture_kana": "シガケン",
    "prefecture_code": 25,
    "city": "守山市",
    "city_kana": "モリヤマシ",
    "town": "大門町",
    "town_kana": "ダイモンチョウ",
    "street": null,
    "office_name": null,
    "office_name_kana": null
  },
  "0053": {
    "postcode": "5240053",
    "prefecture": "滋賀県",
    "prefecture_kana": "シガケン",
    "prefecture_code": 25,
    "city": "守山市",
    "city_kana": "モリヤマシ",
    "town": "横江町",
    "town_kana": "ヨコエチョウ",
    "street": null,
    "office_name": null,
    "office_name_kana": null
  },
  "0054": {
    "postcode": "5240054",
    "prefecture": "滋賀県",
    "prefecture_kana": "シガケン",
    "prefecture_code": 25,
    "city": "守山市",
    "city_kana": "モリヤマシ",
    "town": "大林町",
    "town_kana": "オオバヤシチョウ",
    "street": null,
    "office_name": null,
    "office_name_kana": null
  },
  "0055": {
    "postcode": "5240055",
    "prefecture": "滋賀県",
    "prefecture_kana": "シガケン",
    "prefecture_code": 25,
    "city": "守山市",
    "city_kana": "モリヤマシ",
    "town": "十二里町",
    "town_kana": "ジュウニリチョウ",
    "street": null,
    "office_name": null,
    "office_name_kana": null
  },
  "0061": {
    "postcode": "5240061",
    "prefecture": "滋賀県",
    "prefecture_kana": "シガケン",
    "prefecture_code": 25,
    "city": "守山市",
    "city_kana": "モリヤマシ",
    "town": "赤野井町",
    "town_kana": "アカノイチョウ",
    "street": null,
    "office_name": null,
    "office_name_kana": null
  },
  "0062": {
    "postcode": "5240062",
    "prefecture": "滋賀県",
    "prefecture_kana": "シガケン",
    "prefecture_code": 25,
    "city": "守山市",
    "city_kana": "モリヤマシ",
    "town": "杉江町",
    "town_kana": "スギエチョウ",
    "street": null,
    "office_name": null,
    "office_name_kana": null
  },
  "0063": {
    "postcode": "5240063",
    "prefecture": "滋賀県",
    "prefecture_kana": "シガケン",
    "prefecture_code": 25,
    "city": "守山市",
    "city_kana": "モリヤマシ",
    "town": "欲賀町",
    "town_kana": "ホシカチョウ",
    "street": null,
    "office_name": null,
    "office_name_kana": null
  },
  "0064": {
    "postcode": "5240064",
    "prefecture": "滋賀県",
    "prefecture_kana": "シガケン",
    "prefecture_code": 25,
    "city": "守山市",
    "city_kana": "モリヤマシ",
    "town": "森川原町",
    "town_kana": "モリカワラチョウ",
    "street": null,
    "office_name": null,
    "office_name_kana": null
  },
  "0065": {
    "postcode": "5240065",
    "prefecture": "滋賀県",
    "prefecture_kana": "シガケン",
    "prefecture_code": 25,
    "city": "守山市",
    "city_kana": "モリヤマシ",
    "town": "山賀町",
    "town_kana": "ヤマガチョウ",
    "street": null,
    "office_name": null,
    "office_name_kana": null
  },
  "0101": {
    "postcode": "5240101",
    "prefecture": "滋賀県",
    "prefecture_kana": "シガケン",
    "prefecture_code": 25,
    "city": "守山市",
    "city_kana": "モリヤマシ",
    "town": "今浜町",
    "town_kana": "イマハマチョウ",
    "street": null,
    "office_name": null,
    "office_name_kana": null
  },
  "0102": {
    "postcode": "5240102",
    "prefecture": "滋賀県",
    "prefecture_kana": "シガケン",
    "prefecture_code": 25,
    "city": "守山市",
    "city_kana": "モリヤマシ",
    "town": "水保町",
    "town_kana": "ミズホチョウ",
    "street": null,
    "office_name": null,
    "office_name_kana": null
  },
  "0103": {
    "postcode": "5240103",
    "prefecture": "滋賀県",
    "prefecture_kana": "シガケン",
    "prefecture_code": 25,
    "city": "守山市",
    "city_kana": "モリヤマシ",
    "town": "洲本町",
    "town_kana": "スモトチョウ",
    "street": null,
    "office_name": null,
    "office_name_kana": null
  },
  "0104": {
    "postcode": "5240104",
    "prefecture": "滋賀県",
    "prefecture_kana": "シガケン",
    "prefecture_code": 25,
    "city": "守山市",
    "city_kana": "モリヤマシ",
    "town": "木浜町",
    "town_kana": "コノハマチョウ",
    "street": null,
    "office_name": null,
    "office_name_kana": null
  },
  "0211": {
    "postcode": "5240211",
    "prefecture": "滋賀県",
    "prefecture_kana": "シガケン",
    "prefecture_code": 25,
    "city": "守山市",
    "city_kana": "モリヤマシ",
    "town": "小浜町",
    "town_kana": "コバマチョウ",
    "street": null,
    "office_name": null,
    "office_name_kana": null
  },
  "0212": {
    "postcode": "5240212",
    "prefecture": "滋賀県",
    "prefecture_kana": "シガケン",
    "prefecture_code": 25,
    "city": "守山市",
    "city_kana": "モリヤマシ",
    "town": "服部町",
    "town_kana": "ハットリチョウ",
    "street": null,
    "office_name": null,
    "office_name_kana": null
  },
  "0213": {
    "postcode": "5240213",
    "prefecture": "滋賀県",
    "prefecture_kana": "シガケン",
    "prefecture_code": 25,
    "city": "守山市",
    "city_kana": "モリヤマシ",
    "town": "新庄町",
    "town_kana": "シンジョウチョウ",
    "street": null,
    "office_name": null,
    "office_name_kana": null
  },
  "0214": {
    "postcode": "5240214",
    "prefecture": "滋賀県",
    "prefecture_kana": "シガケン",
    "prefecture_code": 25,
    "city": "守山市",
    "city_kana": "モリヤマシ",
    "town": "立田町",
    "town_kana": "タツタチョウ",
    "street": null,
    "office_name": null,
    "office_name_kana": null
  },
  "0215": {
    "postcode": "5240215",
    "prefecture": "滋賀県",
    "prefecture_kana": "シガケン",
    "prefecture_code": 25,
    "city": "守山市",
    "city_kana": "モリヤマシ",
    "town": "幸津川町",
    "town_kana": "サヅカワチョウ",
    "street": null,
    "office_name": null,
    "office_name_kana": null
  },
  "0216": {
    "postcode": "5240216",
    "prefecture": "滋賀県",
    "prefecture_kana": "シガケン",
    "prefecture_code": 25,
    "city": "守山市",
    "city_kana": "モリヤマシ",
    "town": "環境学習都市宣言記念公園",
    "town_kana": "カンキョウガクシュウトシセンゲンキネンコウエン",
    "street": null,
    "office_name": null,
    "office_name_kana": null
  },
  "8501": {
    "postcode": "5248501",
    "prefecture": "滋賀県",
    "prefecture_kana": "シガケン",
    "prefecture_code": 25,
    "city": "守山市",
    "city_kana": "モリヤマシ",
    "town": "森川原町",
    "town_kana": "モリカワラチョウ",
    "street": "１６３番地",
    "office_name": "グンゼ　株式会社　守山工場",
    "office_name_kana": "グンゼ カブシキガイシヤ モリヤマコウジヨウ"
  },
  "8524": {
    "postcode": "5248524",
    "prefecture": "滋賀県",
    "prefecture_kana": "シガケン",
    "prefecture_code": 25,
    "city": "守山市",
    "city_kana": "モリヤマシ",
    "town": "守山",
    "town_kana": "モリヤマ",
    "street": "５丁目４番３０号",
    "office_name": "滋賀県立　総合病院",
    "office_name_kana": "シガケンリツ ソウゴウビヨウイン"
  },
  "8577": {
    "postcode": "5248577",
    "prefecture": "滋賀県",
    "prefecture_kana": "シガケン",
    "prefecture_code": 25,
    "city": "守山市",
    "city_kana": "モリヤマシ",
    "town": "三宅町",
    "town_kana": "ミヤケチョウ",
    "street": "２５０",
    "office_name": "立命館守山中学校・高等学校",
    "office_name_kana": "リツメイカンモリヤマチユウガツコウ・コウトウガツコウ"
  },
  "8585": {
    "postcode": "5248585",
    "prefecture": "滋賀県",
    "prefecture_kana": "シガケン",
    "prefecture_code": 25,
    "city": "守山市",
    "city_kana": "モリヤマシ",
    "town": "吉身",
    "town_kana": "ヨシミ",
    "street": "２丁目５番２２号",
    "office_name": "滋賀県　守山市役所",
    "office_name_kana": "シガケン モリヤマシヤクシヨ"
  }
}