{
  "0000": {
    "postcode": "5270000",
    "prefecture": "滋賀県",
    "prefecture_kana": "シガケン",
    "prefecture_code": 25,
    "city": "東近江市",
    "city_kana": "ヒガシオウミシ",
    "town": "",
    "town_kana": "",
    "street": null,
    "office_name": null,
    "office_name_kana": null
  },
  "0001": {
    "postcode": "5270001",
    "prefecture": "滋賀県",
    "prefecture_kana": "シガケン",
    "prefecture_code": 25,
    "city": "東近江市",
    "city_kana": "ヒガシオウミシ",
    "town": "建部下野町",
    "town_kana": "タテベシモノチョウ",
    "street": null,
    "office_name": null,
    "office_name_kana": null
  },
  "0002": {
    "postcode": "5270002",
    "prefecture": "滋賀県",
    "prefecture_kana": "シガケン",
    "prefecture_code": 25,
    "city": "東近江市",
    "city_kana": "ヒガシオウミシ",
    "town": "建部上中町",
    "town_kana": "タテベカミナカチョウ",
    "street": null,
    "office_name": null,
    "office_name_kana": null
  },
  "0003": {
    "postcode": "5270003",
    "prefecture": "滋賀県",
    "prefecture_kana": "シガケン",
    "prefecture_code": 25,
    "city": "東近江市",
    "city_kana": "ヒガシオウミシ",
    "town": "建部北町",
    "town_kana": "タテベキタチョウ",
    "street": null,
    "office_name": null,
    "office_name_kana": null
  },
  "0004": {
    "postcode": "5270004",
    "prefecture": "滋賀県",
    "prefecture_kana": "シガケン",
    "prefecture_code": 25,
    "city": "東近江市",
    "city_kana": "ヒガシオウミシ",
    "town": "建部堺町",
    "town_kana": "タテベサカイチョウ",
    "street": null,
    "office_name": null,
    "office_name_kana": null
  },
  "0005": {
    "postcode": "5270005",
    "prefecture": "滋賀県",
    "prefecture_kana": "シガケン",
    "prefecture_code": 25,
    "city": "東近江市",
    "city_kana": "ヒガシオウミシ",
    "town": "建部南町",
    "town_kana": "タテベミナミチョウ",
    "street": null,
    "office_name": null,
    "office_name_kana": null
  },
  "0006": {
    "postcode": "5270006",
    "prefecture": "滋賀県",
    "prefecture_kana": "シガケン",
    "prefecture_code": 25,
    "city": "東近江市",
    "city_kana": "ヒガシオウミシ",
    "town": "建部日吉町",
    "town_kana": "タテベヒヨシチョウ",
    "street": null,
    "office_name": null,
    "office_name_kana": null
  },
  "0007": {
    "postcode": "5270007",
    "prefecture": "滋賀県",
    "prefecture_kana": "シガケン",
    "prefecture_code": 25,
    "city": "東近江市",
    "city_kana": "ヒガシオウミシ",
    "town": "建部瓦屋寺町",
    "town_kana": "タテベカワラヤジチョウ",
    "street": null,
    "office_name": null,
    "office_name_kana": null
  },
  "0011": {
    "postcode": "5270011",
    "prefecture": "滋賀県",
    "prefecture_kana": "シガケン",
    "prefecture_code": 25,
    "city": "東近江市",
    "city_kana": "ヒガシオウミシ",
    "town": "八日市浜野町",
    "town_kana": "ヨウカイチハマノチョウ",
    "street": null,
    "office_name": null,
    "office_name_kana": null
  },
  "0012": {
    "postcode": "5270012",
    "prefecture": "滋賀県",
    "prefecture_kana": "シガケン",
    "prefecture_code": 25,
    "city": "東近江市",
    "city_kana": "ヒガシオウミシ",
    "town": "八日市本町",
    "town_kana": "ヨウカイチホンマチ",
    "street": null,
    "office_name": null,
    "office_name_kana": null
  },
  "0013": {
    "postcode": "5270013",
    "prefecture": "滋賀県",
    "prefecture_kana": "シガケン",
    "prefecture_code": 25,
    "city": "東近江市",
    "city_kana": "ヒガシオウミシ",
    "town": "東中野町",
    "town_kana": "ヒガシナカノチョウ",
    "street": null,
    "office_name": null,
    "office_name_kana": null
  },
  "0014": {
    "postcode": "5270014",
    "prefecture": "滋賀県",
    "prefecture_kana": "シガケン",
    "prefecture_code": 25,
    "city": "東近江市",
    "city_kana": "ヒガシオウミシ",
    "town": "西中野町",
    "town_kana": "ニシナカノチョウ",
    "street": null,
    "office_name": null,
    "office_name_kana": null
  },
  "0015": {
    "postcode": "5270015",
    "prefecture": "滋賀県",
    "prefecture_kana": "シガケン",
    "prefecture_code": 25,
    "city": "東近江市",
    "city_kana": "ヒガシオウミシ",
    "town": "中野町",
    "town_kana": "ナカノチョウ",
    "street": null,
    "office_name": null,
    "office_name_kana": null
  },
  "0016": {
    "postcode": "5270016",
    "prefecture": "滋賀県",
    "prefecture_kana": "シガケン",
    "prefecture_code": 25,
    "city": "東近江市",
    "city_kana": "ヒガシオウミシ",
    "town": "今崎町",
    "town_kana": "イマサキチョウ",
    "street": null,
    "office_name": null,
    "office_name_kana": null
  },
  "0017": {
    "postcode": "5270017",
    "prefecture": "滋賀県",
    "prefecture_kana": "シガケン",
    "prefecture_code": 25,
    "city": "東近江市",
    "city_kana": "ヒガシオウミシ",
    "town": "昭和町",
    "town_kana": "ショウワチョウ",
    "street": null,
    "office_name": null,
    "office_name_kana": null
  },
  "0018": {
    "postcode": "5270018",
    "prefecture": "滋賀県",
    "prefecture_kana": "シガケン",
    "prefecture_code": 25,
    "city": "東近江市",
    "city_kana": "ヒガシオウミシ",
    "town": "八日市清水",
    "town_kana": "ヨウカイチシミズ",
    "street": null,
    "office_name": null,
    "office_name_kana": null
  },
  "0019": {
    "postcode": "5270019",
    "prefecture": "滋賀県",
    "prefecture_kana": "シガケン",
    "prefecture_code": 25,
    "city": "東近江市",
    "city_kana": "ヒガシオウミシ",
    "town": "八日市松尾町",
    "town_kana": "ヨウカイチマツオチョウ",
    "street": null,
    "office_name": null,
    "office_name_kana": null
  },
  "0021": {
    "postcode": "5270021",
    "prefecture": "滋賀県",
    "prefecture_kana": "シガケン",
    "prefecture_code": 25,
    "city": "東近江市",
    "city_kana": "ヒガシオウミシ",
    "town": "八日市東浜町",
    "town_kana": "ヨウカイチヒガシハマチョウ",
    "street": null,
    "office_name": null,
    "office_name_kana": null
  },
  "0022": {
    "postcode": "5270022",
    "prefecture": "滋賀県",
    "prefecture_kana": "シガケン",
    "prefecture_code": 25,
    "city": "東近江市",
    "city_kana": "ヒガシオウミシ",
    "town": "八日市上之町",
    "town_kana": "ヨウカイチカミノチョウ",
    "street": null,
    "office_name": null,
    "office_name_kana": null
  },
  "0023": {
    "postcode": "5270023",
    "prefecture": "滋賀県",
    "prefecture_kana": "シガケン",
    "prefecture_code": 25,
    "city": "東近江市",
    "city_kana": "ヒガシオウミシ",
    "town": "八日市緑町",
    "town_kana": "ヨウカイチミドリマチ",
    "street": null,
    "office_name": null,
    "office_name_kana": null
  },
  "0024": {
    "postcode": "5270024",
    "prefecture": "滋賀県",
    "prefecture_kana": "シガケン",
    "prefecture_code": 25,
    "city": "東近江市",
    "city_kana": "ヒガシオウミシ",
    "town": "札の辻",
    "town_kana": "フダノツジ",
    "street": null,
    "office_name": null,
    "office_name_kana": null
  },
  "0025": {
    "postcode": "5270025",
    "prefecture": "滋賀県",
    "prefecture_kana": "シガケン",
    "prefecture_code": 25,
    "city": "東近江市",
    "city_kana": "ヒガシオウミシ",
    "town": "八日市東本町",
    "town_kana": "ヨウカイチヒガシホンマチ",
    "street": null,
    "office_name": null,
    "office_name_kana": null
  },
  "0026": {
    "postcode": "5270026",
    "prefecture": "滋賀県",
    "prefecture_kana": "シガケン",
    "prefecture_code": 25,
    "city": "東近江市",
    "city_kana": "ヒガシオウミシ",
    "town": "八日市野々宮町",
    "town_kana": "ヨウカイチノノミヤチョウ",
    "street": null,
    "office_name": null,
    "office_name_kana": null
  },
  "0027": {
    "postcode": "5270027",
    "prefecture": "滋賀県",
    "prefecture_kana": "シガケン",
    "prefecture_code": 25,
    "city": "東近江市",
    "city_kana": "ヒガシオウミシ",
    "town": "栄町",
    "town_kana": "サカエマチ",
    "street": null,
    "office_name": null,
    "office_name_kana": null
  },
  "0028": {
    "postcode": "5270028",
    "prefecture": "滋賀県",
    "prefecture_kana": "シガケン",
    "prefecture_code": 25,
    "city": "東近江市",
    "city_kana": "ヒガシオウミシ",
    "town": "八日市金屋",
    "town_kana": "ヨウカイチカナヤ",
    "street": null,
    "office_name": null,
    "office_name_kana": null
  },
  "0029": {
    "postcode": "5270029",
    "prefecture": "滋賀県",
    "prefecture_kana": "シガケン",
    "prefecture_code": 25,
    "city": "東近江市",
    "city_kana": "ヒガシオウミシ",
    "town": "八日市町",
    "town_kana": "ヨウカイチチョウ",
    "street": null,
    "office_name": null,
    "office_name_kana": null
  },
  "0031": {
    "postcode": "5270031",
    "prefecture": "滋賀県",
    "prefecture_kana": "シガケン",
    "prefecture_code": 25,
    "city": "東近江市",
    "city_kana": "ヒガシオウミシ",
    "town": "幸町",
    "town_kana": "サイワイチョウ",
    "street": null,
    "office_name": null,
    "office_name_kana": null
  },
  "0032": {
    "postcode": "5270032",
    "prefecture": "滋賀県",
    "prefecture_kana": "シガケン",
    "prefecture_code": 25,
    "city": "東近江市",
    "city_kana": "ヒガシオウミシ",
    "town": "春日町",
    "town_kana": "カスガチョウ",
    "street": null,
    "office_name": null,
    "office_name_kana": null
  },
  "0033": {
    "postcode": "5270033",
    "prefecture": "滋賀県",
    "prefecture_kana": "シガケン",
    "prefecture_code": 25,
    "city": "東近江市",
    "city_kana": "ヒガシオウミシ",
    "town": "東沖野",
    "town_kana": "ヒガシオキノ",
    "street": null,
    "office_name": null,
    "office_name_kana": null
  },
  "0034": {
    "postcode": "5270034",
    "prefecture": "滋賀県",
    "prefecture_kana": "シガケン",
    "prefecture_code": 25,
    "city": "東近江市",
    "city_kana": "ヒガシオウミシ",
    "town": "沖野",
    "town_kana": "オキノ",
    "street": null,
    "office_name": null,
    "office_name_kana": null
  },
  "0035": {
    "postcode": "5270035",
    "prefecture": "滋賀県",
    "prefecture_kana": "シガケン",
    "prefecture_code": 25,
    "city": "東近江市",
    "city_kana": "ヒガシオウミシ",
    "town": "ひばり丘町",
    "town_kana": "ヒバリオカチョウ",
    "street": null,
    "office_name": null,
    "office_name_kana": null
  },
  "0036": {
    "postcode": "5270036",
    "prefecture": "滋賀県",
    "prefecture_kana": "シガケン",
    "prefecture_code": 25,
    "city": "東近江市",
    "city_kana": "ヒガシオウミシ",
    "town": "聖和町",
    "town_kana": "セイワチョウ",
    "street": null,
    "office_name": null,
    "office_name_kana": null
  },
  "0037": {
    "postcode": "5270037",
    "prefecture": "滋賀県",
    "prefecture_kana": "シガケン",
    "prefecture_code": 25,
    "city": "東近江市",
    "city_kana": "ヒガシオウミシ",
    "town": "東今崎町",
    "town_kana": "ヒガシイマサキチョウ",
    "street": null,
    "office_name": null,
    "office_name_kana": null
  },
  "0038": {
    "postcode": "5270038",
    "prefecture": "滋賀県",
    "prefecture_kana": "シガケン",
    "prefecture_code": 25,
    "city": "東近江市",
    "city_kana": "ヒガシオウミシ",
    "town": "聖徳町",
    "town_kana": "セイトクチョウ",
    "street": null,
    "office_name": null,
    "office_name_kana": null
  },
  "0039": {
    "postcode": "5270039",
    "prefecture": "滋賀県",
    "prefecture_kana": "シガケン",
    "prefecture_code": 25,
    "city": "東近江市",
    "city_kana": "ヒガシオウミシ",
    "town": "青葉町",
    "town_kana": "アオバチョウ",
    "street": null,
    "office_name": null,
    "office_name_kana": null
  },
  "0041": {
    "postcode": "5270041",
    "prefecture": "滋賀県",
    "prefecture_kana": "シガケン",
    "prefecture_code": 25,
    "city": "東近江市",
    "city_kana": "ヒガシオウミシ",
    "town": "川合寺町",
    "town_kana": "カワイデラチョウ",
    "street": null,
    "office_name": null,
    "office_name_kana": null
  },
  "0042": {
    "postcode": "5270042",
    "prefecture": "滋賀県",
    "prefecture_kana": "シガケン",
    "prefecture_code": 25,
    "city": "東近江市",
    "city_kana": "ヒガシオウミシ",
    "town": "外町",
    "town_kana": "トノチョウ",
    "street": null,
    "office_name": null,
    "office_name_kana": null
  },
  "0043": {
    "postcode": "5270043",
    "prefecture": "滋賀県",
    "prefecture_kana": "シガケン",
    "prefecture_code": 25,
    "city": "東近江市",
    "city_kana": "ヒガシオウミシ",
    "town": "神田町",
    "town_kana": "ジンデンチョウ",
    "street": null,
    "office_name": null,
    "office_name_kana": null
  },
  "0044": {
    "postcode": "5270044",
    "prefecture": "滋賀県",
    "prefecture_kana": "シガケン",
    "prefecture_code": 25,
    "city": "東近江市",
    "city_kana": "ヒガシオウミシ",
    "town": "五智町",
    "town_kana": "ゴチチョウ",
    "street": null,
    "office_name": null,
    "office_name_kana": null
  },
  "0045": {
    "postcode": "5270045",
    "prefecture": "滋賀県",
    "prefecture_kana": "シガケン",
    "prefecture_code": 25,
    "city": "東近江市",
    "city_kana": "ヒガシオウミシ",
    "town": "中小路町",
    "town_kana": "ナコオジチョウ",
    "street": null,
    "office_name": null,
    "office_name_kana": null
  },
  "0046": {
    "postcode": "5270046",
    "prefecture": "滋賀県",
    "prefecture_kana": "シガケン",
    "prefecture_code": 25,
    "city": "東近江市",
    "city_kana": "ヒガシオウミシ",
    "town": "妙法寺町",
    "town_kana": "ミョウホウジチョウ",
    "street": null,
    "office_name": null,
    "office_name_kana": null
  },
  "0047": {
    "postcode": "5270047",
    "prefecture": "滋賀県",
    "prefecture_kana": "シガケン",
    "prefecture_code": 25,
    "city": "東近江市",
    "city_kana": "ヒガシオウミシ",
    "town": "野村町",
    "town_kana": "ノムラチョウ",
    "street": null,
    "office_name": null,
    "office_name_kana": null
  },
  "0051": {
    "postcode": "5270051",
    "prefecture": "滋賀県",
    "prefecture_kana": "シガケン",
    "prefecture_code": 25,
    "city": "東近江市",
    "city_kana": "ヒガシオウミシ",
    "town": "林田町",
    "town_kana": "ハヤシダチョウ",
    "street": null,
    "office_name": null,
    "office_name_kana": null
  },
  "0052": {
    "postcode": "5270052",
    "prefecture": "滋賀県",
    "prefecture_kana": "シガケン",
    "prefecture_code": 25,
    "city": "東近江市",
    "city_kana": "ヒガシオウミシ",
    "town": "寺町",
    "town_kana": "テラチョウ",
    "street": null,
    "office_name": null,
    "office_name_kana": null
  },
  "0053": {
    "postcode": "5270053",
    "prefecture": "滋賀県",
    "prefecture_kana": "シガケン",
    "prefecture_code": 25,
    "city": "東近江市",
    "city_kana": "ヒガシオウミシ",
    "town": "今代町",
    "town_kana": "イマダイチョウ",
    "street": null,
    "office_name": null,
    "office_name_kana": null
  },
  "0054": {
    "postcode": "5270054",
    "prefecture": "滋賀県",
    "prefecture_kana": "シガケン",
    "prefecture_code": 25,
    "city": "東近江市",
    "city_kana": "ヒガシオウミシ",
    "town": "池田町",
    "town_kana": "イケダチョウ",
    "street": null,
    "office_name": null,
    "office_name_kana": null
  },
  "0055": {
    "postcode": "5270055",
    "prefecture": "滋賀県",
    "prefecture_kana": "シガケン",
    "prefecture_code": 25,
    "city": "東近江市",
    "city_kana": "ヒガシオウミシ",
    "town": "瓜生津町",
    "town_kana": "ウリウヅチョウ",
    "street": null,
    "office_name": null,
    "office_name_kana": null
  },
  "0056": {
    "postcode": "5270056",
    "prefecture": "滋賀県",
    "prefecture_kana": "シガケン",
    "prefecture_code": 25,
    "city": "東近江市",
    "city_kana": "ヒガシオウミシ",
    "town": "御園町",
    "town_kana": "ミソノチョウ",
    "street": null,
    "office_name": null,
    "office_name_kana": null
  },
  "0057": {
    "postcode": "5270057",
    "prefecture": "滋賀県",
    "prefecture_kana": "シガケン",
    "prefecture_code": 25,
    "city": "東近江市",
    "city_kana": "ヒガシオウミシ",
    "town": "岡田町",
    "town_kana": "オカダチョウ",
    "street": null,
    "office_name": null,
    "office_name_kana": null
  },
  "0061": {
    "postcode": "5270061",
    "prefecture": "滋賀県",
    "prefecture_kana": "シガケン",
    "prefecture_code": 25,
    "city": "東近江市",
    "city_kana": "ヒガシオウミシ",
    "town": "土器町",
    "town_kana": "ドキチョウ",
    "street": null,
    "office_name": null,
    "office_name_kana": null
  },
  "0062": {
    "postcode": "5270062",
    "prefecture": "滋賀県",
    "prefecture_kana": "シガケン",
    "prefecture_code": 25,
    "city": "東近江市",
    "city_kana": "ヒガシオウミシ",
    "town": "上大森町",
    "town_kana": "カミオオモリチョウ",
    "street": null,
    "office_name": null,
    "office_name_kana": null
  },
  "0063": {
    "postcode": "5270063",
    "prefecture": "滋賀県",
    "prefecture_kana": "シガケン",
    "prefecture_code": 25,
    "city": "東近江市",
    "city_kana": "ヒガシオウミシ",
    "town": "大森町",
    "town_kana": "オオモリチョウ",
    "street": null,
    "office_name": null,
    "office_name_kana": null
  },
  "0064": {
    "postcode": "5270064",
    "prefecture": "滋賀県",
    "prefecture_kana": "シガケン",
    "prefecture_code": 25,
    "city": "東近江市",
    "city_kana": "ヒガシオウミシ",
    "town": "尻無町",
    "town_kana": "シナシチョウ",
    "street": null,
    "office_name": null,
    "office_name_kana": null
  },
  "0065": {
    "postcode": "5270065",
    "prefecture": "滋賀県",
    "prefecture_kana": "シガケン",
    "prefecture_code": 25,
    "city": "東近江市",
    "city_kana": "ヒガシオウミシ",
    "town": "下二俣町",
    "town_kana": "シモフタマタチョウ",
    "street": null,
    "office_name": null,
    "office_name_kana": null
  },
  "0066": {
    "postcode": "5270066",
    "prefecture": "滋賀県",
    "prefecture_kana": "シガケン",
    "prefecture_code": 25,
    "city": "東近江市",
    "city_kana": "ヒガシオウミシ",
    "town": "柴原南町",
    "town_kana": "シバハラミナミチョウ",
    "street": null,
    "office_name": null,
    "office_name_kana": null
  },
  "0067": {
    "postcode": "5270067",
    "prefecture": "滋賀県",
    "prefecture_kana": "シガケン",
    "prefecture_code": 25,
    "city": "東近江市",
    "city_kana": "ヒガシオウミシ",
    "town": "芝原町",
    "town_kana": "シバハラチョウ",
    "street": null,
    "office_name": null,
    "office_name_kana": null
  },
  "0071": {
    "postcode": "5270071",
    "prefecture": "滋賀県",
    "prefecture_kana": "シガケン",
    "prefecture_code": 25,
    "city": "東近江市",
    "city_kana": "ヒガシオウミシ",
    "town": "今堀町",
    "town_kana": "イマボリチョウ",
    "street": null,
    "office_name": null,
    "office_name_kana": null
  },
  "0072": {
    "postcode": "5270072",
    "prefecture": "滋賀県",
    "prefecture_kana": "シガケン",
    "prefecture_code": 25,
    "city": "東近江市",
    "city_kana": "ヒガシオウミシ",
    "town": "布引台",
    "town_kana": "ヌノビキダイ",
    "street": null,
    "office_name": null,
    "office_name_kana": null
  },
  "0073": {
    "postcode": "5270073",
    "prefecture": "滋賀県",
    "prefecture_kana": "シガケン",
    "prefecture_code": 25,
    "city": "東近江市",
    "city_kana": "ヒガシオウミシ",
    "town": "蛇溝町",
    "town_kana": "ヘビミゾチョウ",
    "street": null,
    "office_name": null,
    "office_name_kana": null
  },
  "0074": {
    "postcode": "5270074",
    "prefecture": "滋賀県",
    "prefecture_kana": "シガケン",
    "prefecture_code": 25,
    "city": "東近江市",
    "city_kana": "ヒガシオウミシ",
    "town": "市辺町",
    "town_kana": "イチノベチョウ",
    "street": null,
    "office_name": null,
    "office_name_kana": null
  },
  "0075": {
    "postcode": "5270075",
    "prefecture": "滋賀県",
    "prefecture_kana": "シガケン",
    "prefecture_code": 25,
    "city": "東近江市",
    "city_kana": "ヒガシオウミシ",
    "town": "三津屋町",
    "town_kana": "ミツヤチョウ",
    "street": null,
    "office_name": null,
    "office_name_kana": null
  },
  "0076": {
    "postcode": "5270076",
    "prefecture": "滋賀県",
    "prefecture_kana": "シガケン",
    "prefecture_code": 25,
    "city": "東近江市",
    "city_kana": "ヒガシオウミシ",
    "town": "野口町",
    "town_kana": "ノグチチョウ",
    "street": null,
    "office_name": null,
    "office_name_kana": null
  },
  "0081": {
    "postcode": "5270081",
    "prefecture": "滋賀県",
    "prefecture_kana": "シガケン",
    "prefecture_code": 25,
    "city": "東近江市",
    "city_kana": "ヒガシオウミシ",
    "town": "布施町",
    "town_kana": "フセチョウ",
    "street": null,
    "office_name": null,
    "office_name_kana": null
  },
  "0082": {
    "postcode": "5270082",
    "prefecture": "滋賀県",
    "prefecture_kana": "シガケン",
    "prefecture_code": 25,
    "city": "東近江市",
    "city_kana": "ヒガシオウミシ",
    "town": "上羽田町",
    "town_kana": "カミハネダチョウ",
    "street": null,
    "office_name": null,
    "office_name_kana": null
  },
  "0083": {
    "postcode": "5270083",
    "prefecture": "滋賀県",
    "prefecture_kana": "シガケン",
    "prefecture_code": 25,
    "city": "東近江市",
    "city_kana": "ヒガシオウミシ",
    "town": "柏木町",
    "town_kana": "カシワギチョウ",
    "street": null,
    "office_name": null,
    "office_name_kana": null
  },
  "0084": {
    "postcode": "5270084",
    "prefecture": "滋賀県",
    "prefecture_kana": "シガケン",
    "prefecture_code": 25,
    "city": "東近江市",
    "city_kana": "ヒガシオウミシ",
    "town": "中羽田町",
    "town_kana": "ナカハネダチョウ",
    "street": null,
    "office_name": null,
    "office_name_kana": null
  },
  "0085": {
    "postcode": "5270085",
    "prefecture": "滋賀県",
    "prefecture_kana": "シガケン",
    "prefecture_code": 25,
    "city": "東近江市",
    "city_kana": "ヒガシオウミシ",
    "town": "下羽田町",
    "town_kana": "シモハネダチョウ",
    "street": null,
    "office_name": null,
    "office_name_kana": null
  },
  "0086": {
    "postcode": "5270086",
    "prefecture": "滋賀県",
    "prefecture_kana": "シガケン",
    "prefecture_code": 25,
    "city": "東近江市",
    "city_kana": "ヒガシオウミシ",
    "town": "上平木町",
    "town_kana": "カミヒラギチョウ",
    "street": null,
    "office_name": null,
    "office_name_kana": null
  },
  "0087": {
    "postcode": "5270087",
    "prefecture": "滋賀県",
    "prefecture_kana": "シガケン",
    "prefecture_code": 25,
    "city": "東近江市",
    "city_kana": "ヒガシオウミシ",
    "town": "平田町",
    "town_kana": "ヒラタチョウ",
    "street": null,
    "office_name": null,
    "office_name_kana": null
  },
  "0091": {
    "postcode": "5270091",
    "prefecture": "滋賀県",
    "prefecture_kana": "シガケン",
    "prefecture_code": 25,
    "city": "東近江市",
    "city_kana": "ヒガシオウミシ",
    "town": "小脇町",
    "town_kana": "オワキチョウ",
    "street": null,
    "office_name": null,
    "office_name_kana": null
  },
  "0092": {
    "postcode": "5270092",
    "prefecture": "滋賀県",
    "prefecture_kana": "シガケン",
    "prefecture_code": 25,
    "city": "東近江市",
    "city_kana": "ヒガシオウミシ",
    "town": "小今町",
    "town_kana": "コイマチョウ",
    "street": null,
    "office_name": null,
    "office_name_kana": null
  },
  "0093": {
    "postcode": "5270093",
    "prefecture": "滋賀県",
    "prefecture_kana": "シガケン",
    "prefecture_code": 25,
    "city": "東近江市",
    "city_kana": "ヒガシオウミシ",
    "town": "糠塚町",
    "town_kana": "ヌカヅカチョウ",
    "street": null,
    "office_name": null,
    "office_name_kana": null
  },
  "0101": {
    "postcode": "5270101",
    "prefecture": "滋賀県",
    "prefecture_kana": "シガケン",
    "prefecture_code": 25,
    "city": "東近江市",
    "city_kana": "ヒガシオウミシ",
    "town": "祇園町",
    "town_kana": "ギオンチョウ",
    "street": null,
    "office_name": null,
    "office_name_kana": null
  },
  "0102": {
    "postcode": "5270102",
    "prefecture": "滋賀県",
    "prefecture_kana": "シガケン",
    "prefecture_code": 25,
    "city": "東近江市",
    "city_kana": "ヒガシオウミシ",
    "town": "平柳町",
    "town_kana": "ヒラヤナギチョウ",
    "street": null,
    "office_name": null,
    "office_name_kana": null
  },
  "0103": {
    "postcode": "5270103",
    "prefecture": "滋賀県",
    "prefecture_kana": "シガケン",
    "prefecture_code": 25,
    "city": "東近江市",
    "city_kana": "ヒガシオウミシ",
    "town": "湯屋町",
    "town_kana": "ユヤチョウ",
    "street": null,
    "office_name": null,
    "office_name_kana": null
  },
  "0104": {
    "postcode": "5270104",
    "prefecture": "滋賀県",
    "prefecture_kana": "シガケン",
    "prefecture_code": 25,
    "city": "東近江市",
    "city_kana": "ヒガシオウミシ",
    "town": "読合堂町",
    "town_kana": "ヨミアイドウチョウ",
    "street": null,
    "office_name": null,
    "office_name_kana": null
  },
  "0105": {
    "postcode": "5270105",
    "prefecture": "滋賀県",
    "prefecture_kana": "シガケン",
    "prefecture_code": 25,
    "city": "東近江市",
    "city_kana": "ヒガシオウミシ",
    "town": "中里町",
    "town_kana": "ナカザトチョウ",
    "street": null,
    "office_name": null,
    "office_name_kana": null
  },
  "0106": {
    "postcode": "5270106",
    "prefecture": "滋賀県",
    "prefecture_kana": "シガケン",
    "prefecture_code": 25,
    "city": "東近江市",
    "city_kana": "ヒガシオウミシ",
    "town": "僧坊町",
    "town_kana": "ソウボウチョウ",
    "street": null,
    "office_name": null,
    "office_name_kana": null
  },
  "0107": {
    "postcode": "5270107",
    "prefecture": "滋賀県",
    "prefecture_kana": "シガケン",
    "prefecture_code": 25,
    "city": "東近江市",
    "city_kana": "ヒガシオウミシ",
    "town": "今在家町",
    "town_kana": "イマザイケチョウ",
    "street": null,
    "office_name": null,
    "office_name_kana": null
  },
  "0108": {
    "postcode": "5270108",
    "prefecture": "滋賀県",
    "prefecture_kana": "シガケン",
    "prefecture_code": 25,
    "city": "東近江市",
    "city_kana": "ヒガシオウミシ",
    "town": "小八木町",
    "town_kana": "コヤギチョウ",
    "street": null,
    "office_name": null,
    "office_name_kana": null
  },
  "0111": {
    "postcode": "5270111",
    "prefecture": "滋賀県",
    "prefecture_kana": "シガケン",
    "prefecture_code": 25,
    "city": "東近江市",
    "city_kana": "ヒガシオウミシ",
    "town": "北花沢町",
    "town_kana": "キタハナザワチョウ",
    "street": null,
    "office_name": null,
    "office_name_kana": null
  },
  "0112": {
    "postcode": "5270112",
    "prefecture": "滋賀県",
    "prefecture_kana": "シガケン",
    "prefecture_code": 25,
    "city": "東近江市",
    "city_kana": "ヒガシオウミシ",
    "town": "南花沢町",
    "town_kana": "ミナミハナザワチョウ",
    "street": null,
    "office_name": null,
    "office_name_kana": null
  },
  "0113": {
    "postcode": "5270113",
    "prefecture": "滋賀県",
    "prefecture_kana": "シガケン",
    "prefecture_code": 25,
    "city": "東近江市",
    "city_kana": "ヒガシオウミシ",
    "town": "池庄町",
    "town_kana": "イケショウチョウ",
    "street": null,
    "office_name": null,
    "office_name_kana": null
  },
  "0114": {
    "postcode": "5270114",
    "prefecture": "滋賀県",
    "prefecture_kana": "シガケン",
    "prefecture_code": 25,
    "city": "東近江市",
    "city_kana": "ヒガシオウミシ",
    "town": "大沢町",
    "town_kana": "オオザワチョウ",
    "street": null,
    "office_name": null,
    "office_name_kana": null
  },
  "0115": {
    "postcode": "5270115",
    "prefecture": "滋賀県",
    "prefecture_kana": "シガケン",
    "prefecture_code": 25,
    "city": "東近江市",
    "city_kana": "ヒガシオウミシ",
    "town": "下里町",
    "town_kana": "シモザトチョウ",
    "street": null,
    "office_name": null,
    "office_name_kana": null
  },
  "0121": {
    "postcode": "5270121",
    "prefecture": "滋賀県",
    "prefecture_kana": "シガケン",
    "prefecture_code": 25,
    "city": "東近江市",
    "city_kana": "ヒガシオウミシ",
    "town": "小池町",
    "town_kana": "コイケチョウ",
    "street": null,
    "office_name": null,
    "office_name_kana": null
  },
  "0122": {
    "postcode": "5270122",
    "prefecture": "滋賀県",
    "prefecture_kana": "シガケン",
    "prefecture_code": 25,
    "city": "東近江市",
    "city_kana": "ヒガシオウミシ",
    "town": "長町",
    "town_kana": "オサチョウ",
    "street": null,
    "office_name": null,
    "office_name_kana": null
  },
  "0123": {
    "postcode": "5270123",
    "prefecture": "滋賀県",
    "prefecture_kana": "シガケン",
    "prefecture_code": 25,
    "city": "東近江市",
    "city_kana": "ヒガシオウミシ",
    "town": "中岸本町",
    "town_kana": "ナカギシモトチョウ",
    "street": null,
    "office_name": null,
    "office_name_kana": null
  },
  "0124": {
    "postcode": "5270124",
    "prefecture": "滋賀県",
    "prefecture_kana": "シガケン",
    "prefecture_code": 25,
    "city": "東近江市",
    "city_kana": "ヒガシオウミシ",
    "town": "下岸本町",
    "town_kana": "シモギシモトチョウ",
    "street": null,
    "office_name": null,
    "office_name_kana": null
  },
  "0125": {
    "postcode": "5270125",
    "prefecture": "滋賀県",
    "prefecture_kana": "シガケン",
    "prefecture_code": 25,
    "city": "東近江市",
    "city_kana": "ヒガシオウミシ",
    "town": "小田苅町",
    "town_kana": "コタカリチョウ",
    "street": null,
    "office_name": null,
    "office_name_kana": null
  },
  "0126": {
    "postcode": "5270126",
    "prefecture": "滋賀県",
    "prefecture_kana": "シガケン",
    "prefecture_code": 25,
    "city": "東近江市",
    "city_kana": "ヒガシオウミシ",
    "town": "大清水町",
    "town_kana": "オオシュウズチョウ",
    "street": null,
    "office_name": null,
    "office_name_kana": null
  },
  "0127": {
    "postcode": "5270127",
    "prefecture": "滋賀県",
    "prefecture_kana": "シガケン",
    "prefecture_code": 25,
    "city": "東近江市",
    "city_kana": "ヒガシオウミシ",
    "town": "南清水町",
    "town_kana": "ミナミシュウズチョウ",
    "street": null,
    "office_name": null,
    "office_name_kana": null
  },
  "0128": {
    "postcode": "5270128",
    "prefecture": "滋賀県",
    "prefecture_kana": "シガケン",
    "prefecture_code": 25,
    "city": "東近江市",
    "city_kana": "ヒガシオウミシ",
    "town": "清水中町",
    "town_kana": "シュウズナカチョウ",
    "street": null,
    "office_name": null,
    "office_name_kana": null
  },
  "0129": {
    "postcode": "5270129",
    "prefecture": "滋賀県",
    "prefecture_kana": "シガケン",
    "prefecture_code": 25,
    "city": "東近江市",
    "city_kana": "ヒガシオウミシ",
    "town": "北清水町",
    "town_kana": "キタシュウズチョウ",
    "street": null,
    "office_name": null,
    "office_name_kana": null
  },
  "0131": {
    "postcode": "5270131",
    "prefecture": "滋賀県",
    "prefecture_kana": "シガケン",
    "prefecture_code": 25,
    "city": "東近江市",
    "city_kana": "ヒガシオウミシ",
    "town": "勝堂町",
    "town_kana": "ショウドウチョウ",
    "street": null,
    "office_name": null,
    "office_name_kana": null
  },
  "0132": {
    "postcode": "5270132",
    "prefecture": "滋賀県",
    "prefecture_kana": "シガケン",
    "prefecture_code": 25,
    "city": "東近江市",
    "city_kana": "ヒガシオウミシ",
    "town": "下一色町",
    "town_kana": "シモイシキチョウ",
    "street": null,
    "office_name": null,
    "office_name_kana": null
  },
  "0133": {
    "postcode": "5270133",
    "prefecture": "滋賀県",
    "prefecture_kana": "シガケン",
    "prefecture_code": 25,
    "city": "東近江市",
    "city_kana": "ヒガシオウミシ",
    "town": "中一色町",
    "town_kana": "ナカイシキチョウ",
    "street": null,
    "office_name": null,
    "office_name_kana": null
  },
  "0134": {
    "postcode": "5270134",
    "prefecture": "滋賀県",
    "prefecture_kana": "シガケン",
    "prefecture_code": 25,
    "city": "東近江市",
    "city_kana": "ヒガシオウミシ",
    "town": "平松町",
    "town_kana": "ヒラマツチョウ",
    "street": null,
    "office_name": null,
    "office_name_kana": null
  },
  "0135": {
    "postcode": "5270135",
    "prefecture": "滋賀県",
    "prefecture_kana": "シガケン",
    "prefecture_code": 25,
    "city": "東近江市",
    "city_kana": "ヒガシオウミシ",
    "town": "横溝町",
    "town_kana": "ヨコミゾチョウ",
    "street": null,
    "office_name": null,
    "office_name_kana": null
  },
  "0136": {
    "postcode": "5270136",
    "prefecture": "滋賀県",
    "prefecture_kana": "シガケン",
    "prefecture_code": 25,
    "city": "東近江市",
    "city_kana": "ヒガシオウミシ",
    "town": "南菩提寺町",
    "town_kana": "ミナミボダイジチョウ",
    "street": null,
    "office_name": null,
    "office_name_kana": null
  },
  "0137": {
    "postcode": "5270137",
    "prefecture": "滋賀県",
    "prefecture_kana": "シガケン",
    "prefecture_code": 25,
    "city": "東近江市",
    "city_kana": "ヒガシオウミシ",
    "town": "西菩提寺町",
    "town_kana": "ニシボダイジチョウ",
    "street": null,
    "office_name": null,
    "office_name_kana": null
  },
  "0138": {
    "postcode": "5270138",
    "prefecture": "滋賀県",
    "prefecture_kana": "シガケン",
    "prefecture_code": 25,
    "city": "東近江市",
    "city_kana": "ヒガシオウミシ",
    "town": "北菩提寺町",
    "town_kana": "キタボダイジチョウ",
    "street": null,
    "office_name": null,
    "office_name_kana": null
  },
  "0141": {
    "postcode": "5270141",
    "prefecture": "滋賀県",
    "prefecture_kana": "シガケン",
    "prefecture_code": 25,
    "city": "東近江市",
    "city_kana": "ヒガシオウミシ",
    "town": "百済寺甲町",
    "town_kana": "ヒャクサイジコウチョウ",
    "street": null,
    "office_name": null,
    "office_name_kana": null
  },
  "0142": {
    "postcode": "5270142",
    "prefecture": "滋賀県",
    "prefecture_kana": "シガケン",
    "prefecture_code": 25,
    "city": "東近江市",
    "city_kana": "ヒガシオウミシ",
    "town": "上山町",
    "town_kana": "カミヤマチョウ",
    "street": null,
    "office_name": null,
    "office_name_kana": null
  },
  "0143": {
    "postcode": "5270143",
    "prefecture": "滋賀県",
    "prefecture_kana": "シガケン",
    "prefecture_code": 25,
    "city": "東近江市",
    "city_kana": "ヒガシオウミシ",
    "town": "百済寺本町",
    "town_kana": "ヒャクサイジホンマチ",
    "street": null,
    "office_name": null,
    "office_name_kana": null
  },
  "0144": {
    "postcode": "5270144",
    "prefecture": "滋賀県",
    "prefecture_kana": "シガケン",
    "prefecture_code": 25,
    "city": "東近江市",
    "city_kana": "ヒガシオウミシ",
    "town": "百済寺町",
    "town_kana": "ヒャクサイジチョウ",
    "street": null,
    "office_name": null,
    "office_name_kana": null
  },
  "0145": {
    "postcode": "5270145",
    "prefecture": "滋賀県",
    "prefecture_kana": "シガケン",
    "prefecture_code": 25,
    "city": "東近江市",
    "city_kana": "ヒガシオウミシ",
    "town": "北坂町",
    "town_kana": "キタサカチョウ",
    "street": null,
    "office_name": null,
    "office_name_kana": null
  },
  "0151": {
    "postcode": "5270151",
    "prefecture": "滋賀県",
    "prefecture_kana": "シガケン",
    "prefecture_code": 25,
    "city": "東近江市",
    "city_kana": "ヒガシオウミシ",
    "town": "市ケ原町",
    "town_kana": "イチガハラチョウ",
    "street": null,
    "office_name": null,
    "office_name_kana": null
  },
  "0152": {
    "postcode": "5270152",
    "prefecture": "滋賀県",
    "prefecture_kana": "シガケン",
    "prefecture_code": 25,
    "city": "東近江市",
    "city_kana": "ヒガシオウミシ",
    "town": "大覚寺町",
    "town_kana": "ダイカクジチョウ",
    "street": null,
    "office_name": null,
    "office_name_kana": null
  },
  "0153": {
    "postcode": "5270153",
    "prefecture": "滋賀県",
    "prefecture_kana": "シガケン",
    "prefecture_code": 25,
    "city": "東近江市",
    "city_kana": "ヒガシオウミシ",
    "town": "平尾町",
    "town_kana": "ヒラオチョウ",
    "street": null,
    "office_name": null,
    "office_name_kana": null
  },
  "0154": {
    "postcode": "5270154",
    "prefecture": "滋賀県",
    "prefecture_kana": "シガケン",
    "prefecture_code": 25,
    "city": "東近江市",
    "city_kana": "ヒガシオウミシ",
    "town": "園町",
    "town_kana": "ソノチョウ",
    "street": null,
    "office_name": null,
    "office_name_kana": null
  },
  "0155": {
    "postcode": "5270155",
    "prefecture": "滋賀県",
    "prefecture_kana": "シガケン",
    "prefecture_code": 25,
    "city": "東近江市",
    "city_kana": "ヒガシオウミシ",
    "town": "大林町",
    "town_kana": "オオバヤシチョウ",
    "street": null,
    "office_name": null,
    "office_name_kana": null
  },
  "0156": {
    "postcode": "5270156",
    "prefecture": "滋賀県",
    "prefecture_kana": "シガケン",
    "prefecture_code": 25,
    "city": "東近江市",
    "city_kana": "ヒガシオウミシ",
    "town": "上中野町",
    "town_kana": "ウエナカノチョウ",
    "street": null,
    "office_name": null,
    "office_name_kana": null
  },
  "0157": {
    "postcode": "5270157",
    "prefecture": "滋賀県",
    "prefecture_kana": "シガケン",
    "prefecture_code": 25,
    "city": "東近江市",
    "city_kana": "ヒガシオウミシ",
    "town": "下中野町",
    "town_kana": "シモナカノチョウ",
    "street": null,
    "office_name": null,
    "office_name_kana": null
  },
  "0161": {
    "postcode": "5270161",
    "prefecture": "滋賀県",
    "prefecture_kana": "シガケン",
    "prefecture_code": 25,
    "city": "東近江市",
    "city_kana": "ヒガシオウミシ",
    "town": "中戸町",
    "town_kana": "ナカトチョウ",
    "street": null,
    "office_name": null,
    "office_name_kana": null
  },
  "0162": {
    "postcode": "5270162",
    "prefecture": "滋賀県",
    "prefecture_kana": "シガケン",
    "prefecture_code": 25,
    "city": "東近江市",
    "city_kana": "ヒガシオウミシ",
    "town": "妹町",
    "town_kana": "イモトチョウ",
    "street": null,
    "office_name": null,
    "office_name_kana": null
  },
  "0163": {
    "postcode": "5270163",
    "prefecture": "滋賀県",
    "prefecture_kana": "シガケン",
    "prefecture_code": 25,
    "city": "東近江市",
    "city_kana": "ヒガシオウミシ",
    "town": "曽根町",
    "town_kana": "ソネチョウ",
    "street": null,
    "office_name": null,
    "office_name_kana": null
  },
  "0164": {
    "postcode": "5270164",
    "prefecture": "滋賀県",
    "prefecture_kana": "シガケン",
    "prefecture_code": 25,
    "city": "東近江市",
    "city_kana": "ヒガシオウミシ",
    "town": "青山町",
    "town_kana": "アオヤマチョウ",
    "street": null,
    "office_name": null,
    "office_name_kana": null
  },
  "0165": {
    "postcode": "5270165",
    "prefecture": "滋賀県",
    "prefecture_kana": "シガケン",
    "prefecture_code": 25,
    "city": "東近江市",
    "city_kana": "ヒガシオウミシ",
    "town": "小倉町",
    "town_kana": "オグラチョウ",
    "street": null,
    "office_name": null,
    "office_name_kana": null
  },
  "0166": {
    "postcode": "5270166",
    "prefecture": "滋賀県",
    "prefecture_kana": "シガケン",
    "prefecture_code": 25,
    "city": "東近江市",
    "city_kana": "ヒガシオウミシ",
    "town": "愛東外町",
    "town_kana": "アイトウトノチョウ",
    "street": null,
    "office_name": null,
    "office_name_kana": null
  },
  "0171": {
    "postcode": "5270171",
    "prefecture": "滋賀県",
    "prefecture_kana": "シガケン",
    "prefecture_code": 25,
    "city": "東近江市",
    "city_kana": "ヒガシオウミシ",
    "town": "池之尻町",
    "town_kana": "イケノシリチョウ",
    "street": null,
    "office_name": null,
    "office_name_kana": null
  },
  "0172": {
    "postcode": "5270172",
    "prefecture": "滋賀県",
    "prefecture_kana": "シガケン",
    "prefecture_code": 25,
    "city": "東近江市",
    "city_kana": "ヒガシオウミシ",
    "town": "鯰江町",
    "town_kana": "ナマズエチョウ",
    "street": null,
    "office_name": null,
    "office_name_kana": null
  },
  "0173": {
    "postcode": "5270173",
    "prefecture": "滋賀県",
    "prefecture_kana": "シガケン",
    "prefecture_code": 25,
    "city": "東近江市",
    "city_kana": "ヒガシオウミシ",
    "town": "上岸本町",
    "town_kana": "カミギシモトチョウ",
    "street": null,
    "office_name": null,
    "office_name_kana": null
  },
  "0174": {
    "postcode": "5270174",
    "prefecture": "滋賀県",
    "prefecture_kana": "シガケン",
    "prefecture_code": 25,
    "city": "東近江市",
    "city_kana": "ヒガシオウミシ",
    "town": "大萩町",
    "town_kana": "オオハギチョウ",
    "street": null,
    "office_name": null,
    "office_name_kana": null
  },
  "0175": {
    "postcode": "5270175",
    "prefecture": "滋賀県",
    "prefecture_kana": "シガケン",
    "prefecture_code": 25,
    "city": "東近江市",
    "city_kana": "ヒガシオウミシ",
    "town": "梅林町",
    "town_kana": "ウメバヤシチョウ",
    "street": null,
    "office_name": null,
    "office_name_kana": null
  },
  "0195": {
    "postcode": "5270195",
    "prefecture": "滋賀県",
    "prefecture_kana": "シガケン",
    "prefecture_code": 25,
    "city": "東近江市",
    "city_kana": "ヒガシオウミシ",
    "town": "池庄町",
    "town_kana": "イケショウチョウ",
    "street": "５０５番地",
    "office_name": "東近江市役所　湖東支所",
    "office_name_kana": "ヒガシオウミシヤクシヨ コトウシシヨ"
  },
  "0201": {
    "postcode": "5270201",
    "prefecture": "滋賀県",
    "prefecture_kana": "シガケン",
    "prefecture_code": 25,
    "city": "東近江市",
    "city_kana": "ヒガシオウミシ",
    "town": "蛭谷町",
    "town_kana": "ヒルタニチョウ",
    "street": null,
    "office_name": null,
    "office_name_kana": null
  },
  "0202": {
    "postcode": "5270202",
    "prefecture": "滋賀県",
    "prefecture_kana": "シガケン",
    "prefecture_code": 25,
    "city": "東近江市",
    "city_kana": "ヒガシオウミシ",
    "town": "君ケ畑町",
    "town_kana": "キミガハタチョウ",
    "street": null,
    "office_name": null,
    "office_name_kana": null
  },
  "0203": {
    "postcode": "5270203",
    "prefecture": "滋賀県",
    "prefecture_kana": "シガケン",
    "prefecture_code": 25,
    "city": "東近江市",
    "city_kana": "ヒガシオウミシ",
    "town": "箕川町",
    "town_kana": "ミノガワチョウ",
    "street": null,
    "office_name": null,
    "office_name_kana": null
  },
  "0204": {
    "postcode": "5270204",
    "prefecture": "滋賀県",
    "prefecture_kana": "シガケン",
    "prefecture_code": 25,
    "city": "東近江市",
    "city_kana": "ヒガシオウミシ",
    "town": "政所町",
    "town_kana": "マンドコロチョウ",
    "street": null,
    "office_name": null,
    "office_name_kana": null
  },
  "0205": {
    "postcode": "5270205",
    "prefecture": "滋賀県",
    "prefecture_kana": "シガケン",
    "prefecture_code": 25,
    "city": "東近江市",
    "city_kana": "ヒガシオウミシ",
    "town": "黄和田町",
    "town_kana": "キワダチョウ",
    "street": null,
    "office_name": null,
    "office_name_kana": null
  },
  "0206": {
    "postcode": "5270206",
    "prefecture": "滋賀県",
    "prefecture_kana": "シガケン",
    "prefecture_code": 25,
    "city": "東近江市",
    "city_kana": "ヒガシオウミシ",
    "town": "杠葉尾町",
    "town_kana": "ユズリオチョウ",
    "street": null,
    "office_name": null,
    "office_name_kana": null
  },
  "0207": {
    "postcode": "5270207",
    "prefecture": "滋賀県",
    "prefecture_kana": "シガケン",
    "prefecture_code": 25,
    "city": "東近江市",
    "city_kana": "ヒガシオウミシ",
    "town": "蓼畑町",
    "town_kana": "タテハタチョウ",
    "street": null,
    "office_name": null,
    "office_name_kana": null
  },
  "0208": {
    "postcode": "5270208",
    "prefecture": "滋賀県",
    "prefecture_kana": "シガケン",
    "prefecture_code": 25,
    "city": "東近江市",
    "city_kana": "ヒガシオウミシ",
    "town": "萱尾町",
    "town_kana": "カヤオチョウ",
    "street": null,
    "office_name": null,
    "office_name_kana": null
  },
  "0209": {
    "postcode": "5270209",
    "prefecture": "滋賀県",
    "prefecture_kana": "シガケン",
    "prefecture_code": 25,
    "city": "東近江市",
    "city_kana": "ヒガシオウミシ",
    "town": "佐目町",
    "town_kana": "サメチョウ",
    "street": null,
    "office_name": null,
    "office_name_kana": null
  },
  "0211": {
    "postcode": "5270211",
    "prefecture": "滋賀県",
    "prefecture_kana": "シガケン",
    "prefecture_code": 25,
    "city": "東近江市",
    "city_kana": "ヒガシオウミシ",
    "town": "永源寺相谷町",
    "town_kana": "エイゲンジアイダニチョウ",
    "street": null,
    "office_name": null,
    "office_name_kana": null
  },
  "0212": {
    "postcode": "5270212",
    "prefecture": "滋賀県",
    "prefecture_kana": "シガケン",
    "prefecture_code": 25,
    "city": "東近江市",
    "city_kana": "ヒガシオウミシ",
    "town": "永源寺高野町",
    "town_kana": "エイゲンジタカノチョウ",
    "street": null,
    "office_name": null,
    "office_name_kana": null
  },
  "0213": {
    "postcode": "5270213",
    "prefecture": "滋賀県",
    "prefecture_kana": "シガケン",
    "prefecture_code": 25,
    "city": "東近江市",
    "city_kana": "ヒガシオウミシ",
    "town": "和南町",
    "town_kana": "ワナミチョウ",
    "street": null,
    "office_name": null,
    "office_name_kana": null
  },
  "0214": {
    "postcode": "5270214",
    "prefecture": "滋賀県",
    "prefecture_kana": "シガケン",
    "prefecture_code": 25,
    "city": "東近江市",
    "city_kana": "ヒガシオウミシ",
    "town": "甲津畑町",
    "town_kana": "コウヅハタチョウ",
    "street": null,
    "office_name": null,
    "office_name_kana": null
  },
  "0215": {
    "postcode": "5270215",
    "prefecture": "滋賀県",
    "prefecture_kana": "シガケン",
    "prefecture_code": 25,
    "city": "東近江市",
    "city_kana": "ヒガシオウミシ",
    "town": "九居瀬町",
    "town_kana": "クイゼチョウ",
    "street": null,
    "office_name": null,
    "office_name_kana": null
  },
  "0216": {
    "postcode": "5270216",
    "prefecture": "滋賀県",
    "prefecture_kana": "シガケン",
    "prefecture_code": 25,
    "city": "東近江市",
    "city_kana": "ヒガシオウミシ",
    "town": "茨川町",
    "town_kana": "イバラガワチョウ",
    "street": null,
    "office_name": null,
    "office_name_kana": null
  },
  "0221": {
    "postcode": "5270221",
    "prefecture": "滋賀県",
    "prefecture_kana": "シガケン",
    "prefecture_code": 25,
    "city": "東近江市",
    "city_kana": "ヒガシオウミシ",
    "town": "上二俣町",
    "town_kana": "カミフタマタチョウ",
    "street": null,
    "office_name": null,
    "office_name_kana": null
  },
  "0222": {
    "postcode": "5270222",
    "prefecture": "滋賀県",
    "prefecture_kana": "シガケン",
    "prefecture_code": 25,
    "city": "東近江市",
    "city_kana": "ヒガシオウミシ",
    "town": "池之脇町",
    "town_kana": "イケノワキチョウ",
    "street": null,
    "office_name": null,
    "office_name_kana": null
  },
  "0223": {
    "postcode": "5270223",
    "prefecture": "滋賀県",
    "prefecture_kana": "シガケン",
    "prefecture_code": 25,
    "city": "東近江市",
    "city_kana": "ヒガシオウミシ",
    "town": "高木町",
    "town_kana": "タカギチョウ",
    "street": null,
    "office_name": null,
    "office_name_kana": null
  },
  "0224": {
    "postcode": "5270224",
    "prefecture": "滋賀県",
    "prefecture_kana": "シガケン",
    "prefecture_code": 25,
    "city": "東近江市",
    "city_kana": "ヒガシオウミシ",
    "town": "市原野町",
    "town_kana": "イチハラノチョウ",
    "street": null,
    "office_name": null,
    "office_name_kana": null
  },
  "0225": {
    "postcode": "5270225",
    "prefecture": "滋賀県",
    "prefecture_kana": "シガケン",
    "prefecture_code": 25,
    "city": "東近江市",
    "city_kana": "ヒガシオウミシ",
    "town": "新出町",
    "town_kana": "シンデチョウ",
    "street": null,
    "office_name": null,
    "office_name_kana": null
  },
  "0226": {
    "postcode": "5270226",
    "prefecture": "滋賀県",
    "prefecture_kana": "シガケン",
    "prefecture_code": 25,
    "city": "東近江市",
    "city_kana": "ヒガシオウミシ",
    "town": "一式町",
    "town_kana": "イッシキチョウ",
    "street": null,
    "office_name": null,
    "office_name_kana": null
  },
  "0227": {
    "postcode": "5270227",
    "prefecture": "滋賀県",
    "prefecture_kana": "シガケン",
    "prefecture_code": 25,
    "city": "東近江市",
    "city_kana": "ヒガシオウミシ",
    "town": "石谷町",
    "town_kana": "イシダニチョウ",
    "street": null,
    "office_name": null,
    "office_name_kana": null
  },
  "0228": {
    "postcode": "5270228",
    "prefecture": "滋賀県",
    "prefecture_kana": "シガケン",
    "prefecture_code": 25,
    "city": "東近江市",
    "city_kana": "ヒガシオウミシ",
    "town": "如来町",
    "town_kana": "ニョライチョウ",
    "street": null,
    "office_name": null,
    "office_name_kana": null
  },
  "0231": {
    "postcode": "5270231",
    "prefecture": "滋賀県",
    "prefecture_kana": "シガケン",
    "prefecture_code": 25,
    "city": "東近江市",
    "city_kana": "ヒガシオウミシ",
    "town": "山上町",
    "town_kana": "ヤマカミチョウ",
    "street": null,
    "office_name": null,
    "office_name_kana": null
  },
  "0232": {
    "postcode": "5270232",
    "prefecture": "滋賀県",
    "prefecture_kana": "シガケン",
    "prefecture_code": 25,
    "city": "東近江市",
    "city_kana": "ヒガシオウミシ",
    "town": "青野町",
    "town_kana": "アオノチョウ",
    "street": null,
    "office_name": null,
    "office_name_kana": null
  },
  "8501": {
    "postcode": "5278501",
    "prefecture": "滋賀県",
    "prefecture_kana": "シガケン",
    "prefecture_code": 25,
    "city": "東近江市",
    "city_kana": "ヒガシオウミシ",
    "town": "林田町",
    "town_kana": "ハヤシダチョウ",
    "street": "１５００番地",
    "office_name": "パナソニック　株式会社　ランドリー・クリーナー事業部　八日市工場",
    "office_name_kana": "パナソニツク カブシキガイシヤ ランドリ-・クリ-ナ-ジギヨウブ ヨウカイチコウジヨウ"
  },
  "8505": {
    "postcode": "5278505",
    "prefecture": "滋賀県",
    "prefecture_kana": "シガケン",
    "prefecture_code": 25,
    "city": "東近江市",
    "city_kana": "ヒガシオウミシ",
    "town": "五智町",
    "town_kana": "ゴチチョウ",
    "street": "２５５",
    "office_name": "独立行政法人　国立病院機構　滋賀病院",
    "office_name_kana": "ドクリツギヨウセイホウジン コクリツビヨウインキコウ シガビヨウイン"
  },
  "8508": {
    "postcode": "5278508",
    "prefecture": "滋賀県",
    "prefecture_kana": "シガケン",
    "prefecture_code": 25,
    "city": "東近江市",
    "city_kana": "ヒガシオウミシ",
    "town": "五智町",
    "town_kana": "ゴチチョウ",
    "street": "２９７番地",
    "office_name": "株式会社　ティラド　滋賀製作所",
    "office_name_kana": "カブシキガイシヤ テイラド シガセイサクシヨ"
  },
  "8511": {
    "postcode": "5278511",
    "prefecture": "滋賀県",
    "prefecture_kana": "シガケン",
    "prefecture_code": 25,
    "city": "東近江市",
    "city_kana": "ヒガシオウミシ",
    "town": "八日市緑町",
    "town_kana": "ヨウカイチミドリマチ",
    "street": "７−２３",
    "office_name": "東近江地域振興局",
    "office_name_kana": "ヒガシオウミチイキシンコウキヨク"
  },
  "8512": {
    "postcode": "5278512",
    "prefecture": "滋賀県",
    "prefecture_kana": "シガケン",
    "prefecture_code": 25,
    "city": "東近江市",
    "city_kana": "ヒガシオウミシ",
    "town": "八日市緑町",
    "town_kana": "ヨウカイチミドリマチ",
    "street": "８番２２号",
    "office_name": "滋賀県東近江地域振興局　地域健康福祉部",
    "office_name_kana": "シガケンヒガシオウミチイキシンコウキヨク チイキケンコウフクシブ"
  },
  "8527": {
    "postcode": "5278527",
    "prefecture": "滋賀県",
    "prefecture_kana": "シガケン",
    "prefecture_code": 25,
    "city": "東近江市",
    "city_kana": "ヒガシオウミシ",
    "town": "八日市緑町",
    "town_kana": "ヨウカイチミドリマチ",
    "street": "１０−５",
    "office_name": "東近江市役所",
    "office_name_kana": "ヒガシオウミシヤクシヨ"
  },
  "8542": {
    "postcode": "5278542",
    "prefecture": "滋賀県",
    "prefecture_kana": "シガケン",
    "prefecture_code": 25,
    "city": "東近江市",
    "city_kana": "ヒガシオウミシ",
    "town": "蛇溝町",
    "town_kana": "ヘビミゾチョウ",
    "street": "１５５４",
    "office_name": "三光合成　株式会社　滋賀工場",
    "office_name_kana": "サンコウゴウセイ カブシキガイシヤ シガコウジヨウ"
  },
  "8550": {
    "postcode": "5278550",
    "prefecture": "滋賀県",
    "prefecture_kana": "シガケン",
    "prefecture_code": 25,
    "city": "東近江市",
    "city_kana": "ヒガシオウミシ",
    "town": "沖野",
    "town_kana": "オキノ",
    "street": "一丁目１番１１号",
    "office_name": "満田工業　株式会社",
    "office_name_kana": "ミツダコウギヨウ カブシキガイシヤ"
  },
  "8554": {
    "postcode": "5278554",
    "prefecture": "滋賀県",
    "prefecture_kana": "シガケン",
    "prefecture_code": 25,
    "city": "東近江市",
    "city_kana": "ヒガシオウミシ",
    "town": "八日市緑町",
    "town_kana": "ヨウカイチミドリマチ",
    "street": "８−１４",
    "office_name": "東近江労働基準監督署",
    "office_name_kana": "ヒガシオウミロウドウキジユンカントクシヨ"
  },
  "8555": {
    "postcode": "5278555",
    "prefecture": "滋賀県",
    "prefecture_kana": "シガケン",
    "prefecture_code": 25,
    "city": "東近江市",
    "city_kana": "ヒガシオウミシ",
    "town": "蛇溝町",
    "town_kana": "ヘビミゾチョウ",
    "street": "１１６６−６",
    "office_name": "京セラ　株式会社　滋賀東近江工場　第１ブロック",
    "office_name_kana": "キヨウセラ カブシキガイシヤ シガヒガシオウミコウジヨウ ダイイチブロツク"
  },
  "8558": {
    "postcode": "5278558",
    "prefecture": "滋賀県",
    "prefecture_kana": "シガケン",
    "prefecture_code": 25,
    "city": "東近江市",
    "city_kana": "ヒガシオウミシ",
    "town": "東沖野",
    "town_kana": "ヒガシオキノ",
    "street": "４丁目４番１号",
    "office_name": "株式会社　村田製作所　八日市事業所",
    "office_name_kana": "カブシキガイシヤ ムラタセイサクシヨ ヨウカイチジギヨウシヨ"
  },
  "8566": {
    "postcode": "5278566",
    "prefecture": "滋賀県",
    "prefecture_kana": "シガケン",
    "prefecture_code": 25,
    "city": "東近江市",
    "city_kana": "ヒガシオウミシ",
    "town": "妙法寺町",
    "town_kana": "ミョウホウジチョウ",
    "street": "１１０１−２０",
    "office_name": "凸版印刷　株式会社　エレクトロニクス事業本部",
    "office_name_kana": "トツパンインサツ カブシキガイシヤ エレクトロニクスジギヨウホンブ"
  },
  "8567": {
    "postcode": "5278567",
    "prefecture": "滋賀県",
    "prefecture_kana": "シガケン",
    "prefecture_code": 25,
    "city": "東近江市",
    "city_kana": "ヒガシオウミシ",
    "town": "八日市東本町",
    "town_kana": "ヨウカイチヒガシホンマチ",
    "street": "８番１６号",
    "office_name": "医療法人　敬愛会",
    "office_name_kana": "イリヨウホウジン ケイアイカイ"
  },
  "8577": {
    "postcode": "5278577",
    "prefecture": "滋賀県",
    "prefecture_kana": "シガケン",
    "prefecture_code": 25,
    "city": "東近江市",
    "city_kana": "ヒガシオウミシ",
    "town": "柴原南町",
    "town_kana": "シバハラミナミチョウ",
    "street": "１５００−５",
    "office_name": "シキボウ　株式会社　八日市工場",
    "office_name_kana": "シキボウ カブシキガイシヤ ヨウカイチコウジヨウ"
  },
  "8580": {
    "postcode": "5278580",
    "prefecture": "滋賀県",
    "prefecture_kana": "シガケン",
    "prefecture_code": 25,
    "city": "東近江市",
    "city_kana": "ヒガシオウミシ",
    "town": "東沖野",
    "town_kana": "ヒガシオキノ",
    "street": "３丁目７番７号",
    "office_name": "タキロン　株式会社　八日市工場",
    "office_name_kana": "タキロン カブシキガイシヤ ヨウカイチコウジヨウ"
  },
  "8585": {
    "postcode": "5278585",
    "prefecture": "滋賀県",
    "prefecture_kana": "シガケン",
    "prefecture_code": 25,
    "city": "東近江市",
    "city_kana": "ヒガシオウミシ",
    "town": "八日市緑町",
    "town_kana": "ヨウカイチミドリマチ",
    "street": "２４−１５",
    "office_name": "関西電力　株式会社　八日市営業所",
    "office_name_kana": "カンサイデンリヨク カブシキガイシヤ ヨウカイチエイギヨウシヨ"
  },
  "8588": {
    "postcode": "5278588",
    "prefecture": "滋賀県",
    "prefecture_kana": "シガケン",
    "prefecture_code": 25,
    "city": "東近江市",
    "city_kana": "ヒガシオウミシ",
    "town": "岡田町",
    "town_kana": "オカダチョウ",
    "street": "１１２−１",
    "office_name": "株式会社　ノエビア　滋賀事業所",
    "office_name_kana": "カブシキガイシヤ ノエビア シガジギヨウシヨ"
  },
  "8687": {
    "postcode": "5278687",
    "prefecture": "滋賀県",
    "prefecture_kana": "シガケン",
    "prefecture_code": 25,
    "city": "東近江市",
    "city_kana": "ヒガシオウミシ",
    "town": "青葉町",
    "town_kana": "アオバチョウ",
    "street": "１番１号（八日市郵便局私書箱第１７号）",
    "office_name": "湖東信用金庫",
    "office_name_kana": "コトウシンヨウキンコ"
  }
}