{
  "0000": {
    "postcode": "5300000",
    "prefecture": "大阪府",
    "prefecture_kana": "オオサカフ",
    "prefecture_code": 27,
    "city": "大阪市北区",
    "city_kana": "オオサカシキタク",
    "town": "",
    "town_kana": "",
    "street": null,
    "office_name": null,
    "office_name_kana": null
  },
  "0001": {
    "postcode": "5300001",
    "prefecture": "大阪府",
    "prefecture_kana": "オオサカフ",
    "prefecture_code": 27,
    "city": "大阪市北区",
    "city_kana": "オオサカシキタク",
    "town": "梅田",
    "town_kana": "ウメダ",
    "street": null,
    "office_name": null,
    "office_name_kana": null
  },
  "0002": {
    "postcode": "5300002",
    "prefecture": "大阪府",
    "prefecture_kana": "オオサカフ",
    "prefecture_code": 27,
    "city": "大阪市北区",
    "city_kana": "オオサカシキタク",
    "town": "曽根崎新地",
    "town_kana": "ソネザキシンチ",
    "street": null,
    "office_name": null,
    "office_name_kana": null
  },
  "0003": {
    "postcode": "5300003",
    "prefecture": "大阪府",
    "prefecture_kana": "オオサカフ",
    "prefecture_code": 27,
    "city": "大阪市北区",
    "city_kana": "オオサカシキタク",
    "town": "堂島",
    "town_kana": "ドウジマ",
    "street": null,
    "office_name": null,
    "office_name_kana": null
  },
  "0004": {
    "postcode": "5300004",
    "prefecture": "大阪府",
    "prefecture_kana": "オオサカフ",
    "prefecture_code": 27,
    "city": "大阪市北区",
    "city_kana": "オオサカシキタク",
    "town": "堂島浜",
    "town_kana": "ドウジマハマ",
    "street": null,
    "office_name": null,
    "office_name_kana": null
  },
  "0005": {
    "postcode": "5300005",
    "prefecture": "大阪府",
    "prefecture_kana": "オオサカフ",
    "prefecture_code": 27,
    "city": "大阪市北区",
    "city_kana": "オオサカシキタク",
    "town": "中之島",
    "town_kana": "ナカノシマ",
    "street": null,
    "office_name": null,
    "office_name_kana": null
  },
  "0011": {
    "postcode": "5300011",
    "prefecture": "大阪府",
    "prefecture_kana": "オオサカフ",
    "prefecture_code": 27,
    "city": "大阪市北区",
    "city_kana": "オオサカシキタク",
    "town": "大深町",
    "town_kana": "オオフカチョウ",
    "street": null,
    "office_name": null,
    "office_name_kana": null
  },
  "0012": {
    "postcode": "5300012",
    "prefecture": "大阪府",
    "prefecture_kana": "オオサカフ",
    "prefecture_code": 27,
    "city": "大阪市北区",
    "city_kana": "オオサカシキタク",
    "town": "芝田",
    "town_kana": "シバタ",
    "street": null,
    "office_name": null,
    "office_name_kana": null
  },
  "0013": {
    "postcode": "5300013",
    "prefecture": "大阪府",
    "prefecture_kana": "オオサカフ",
    "prefecture_code": 27,
    "city": "大阪市北区",
    "city_kana": "オオサカシキタク",
    "town": "茶屋町",
    "town_kana": "チャヤマチ",
    "street": null,
    "office_name": null,
    "office_name_kana": null
  },
  "0014": {
    "postcode": "5300014",
    "prefecture": "大阪府",
    "prefecture_kana": "オオサカフ",
    "prefecture_code": 27,
    "city": "大阪市北区",
    "city_kana": "オオサカシキタク",
    "town": "鶴野町",
    "town_kana": "ツルノチョウ",
    "street": null,
    "office_name": null,
    "office_name_kana": null
  },
  "0015": {
    "postcode": "5300015",
    "prefecture": "大阪府",
    "prefecture_kana": "オオサカフ",
    "prefecture_code": 27,
    "city": "大阪市北区",
    "city_kana": "オオサカシキタク",
    "town": "中崎西",
    "town_kana": "ナカザキニシ",
    "street": null,
    "office_name": null,
    "office_name_kana": null
  },
  "0016": {
    "postcode": "5300016",
    "prefecture": "大阪府",
    "prefecture_kana": "オオサカフ",
    "prefecture_code": 27,
    "city": "大阪市北区",
    "city_kana": "オオサカシキタク",
    "town": "中崎",
    "town_kana": "ナカザキ",
    "street": null,
    "office_name": null,
    "office_name_kana": null
  },
  "0017": {
    "postcode": "5300017",
    "prefecture": "大阪府",
    "prefecture_kana": "オオサカフ",
    "prefecture_code": 27,
    "city": "大阪市北区",
    "city_kana": "オオサカシキタク",
    "town": "角田町",
    "town_kana": "カクダチョウ",
    "street": null,
    "office_name": null,
    "office_name_kana": null
  },
  "0018": {
    "postcode": "5300018",
    "prefecture": "大阪府",
    "prefecture_kana": "オオサカフ",
    "prefecture_code": 27,
    "city": "大阪市北区",
    "city_kana": "オオサカシキタク",
    "town": "小松原町",
    "town_kana": "コマツバラチョウ",
    "street": null,
    "office_name": null,
    "office_name_kana": null
  },
  "0021": {
    "postcode": "5300021",
    "prefecture": "大阪府",
    "prefecture_kana": "オオサカフ",
    "prefecture_code": 27,
    "city": "大阪市北区",
    "city_kana": "オオサカシキタク",
    "town": "浮田",
    "town_kana": "ウキダ",
    "street": null,
    "office_name": null,
    "office_name_kana": null
  },
  "0022": {
    "postcode": "5300022",
    "prefecture": "大阪府",
    "prefecture_kana": "オオサカフ",
    "prefecture_code": 27,
    "city": "大阪市北区",
    "city_kana": "オオサカシキタク",
    "town": "浪花町",
    "town_kana": "ナニワチョウ",
    "street": null,
    "office_name": null,
    "office_name_kana": null
  },
  "0023": {
    "postcode": "5300023",
    "prefecture": "大阪府",
    "prefecture_kana": "オオサカフ",
    "prefecture_code": 27,
    "city": "大阪市北区",
    "city_kana": "オオサカシキタク",
    "town": "黒崎町",
    "town_kana": "クロサキチョウ",
    "street": null,
    "office_name": null,
    "office_name_kana": null
  },
  "0024": {
    "postcode": "5300024",
    "prefecture": "大阪府",
    "prefecture_kana": "オオサカフ",
    "prefecture_code": 27,
    "city": "大阪市北区",
    "city_kana": "オオサカシキタク",
    "town": "山崎町",
    "town_kana": "ヤマザキチョウ",
    "street": null,
    "office_name": null,
    "office_name_kana": null
  },
  "0025": {
    "postcode": "5300025",
    "prefecture": "大阪府",
    "prefecture_kana": "オオサカフ",
    "prefecture_code": 27,
    "city": "大阪市北区",
    "city_kana": "オオサカシキタク",
    "town": "扇町",
    "town_kana": "オウギマチ",
    "street": null,
    "office_name": null,
    "office_name_kana": null
  },
  "0026": {
    "postcode": "5300026",
    "prefecture": "大阪府",
    "prefecture_kana": "オオサカフ",
    "prefecture_code": 27,
    "city": "大阪市北区",
    "city_kana": "オオサカシキタク",
    "town": "神山町",
    "town_kana": "カミヤマチョウ",
    "street": null,
    "office_name": null,
    "office_name_kana": null
  },
  "0027": {
    "postcode": "5300027",
    "prefecture": "大阪府",
    "prefecture_kana": "オオサカフ",
    "prefecture_code": 27,
    "city": "大阪市北区",
    "city_kana": "オオサカシキタク",
    "town": "堂山町",
    "town_kana": "ドウヤマチョウ",
    "street": null,
    "office_name": null,
    "office_name_kana": null
  },
  "0028": {
    "postcode": "5300028",
    "prefecture": "大阪府",
    "prefecture_kana": "オオサカフ",
    "prefecture_code": 27,
    "city": "大阪市北区",
    "city_kana": "オオサカシキタク",
    "town": "万歳町",
    "town_kana": "バンザイチョウ",
    "street": null,
    "office_name": null,
    "office_name_kana": null
  },
  "0031": {
    "postcode": "5300031",
    "prefecture": "大阪府",
    "prefecture_kana": "オオサカフ",
    "prefecture_code": 27,
    "city": "大阪市北区",
    "city_kana": "オオサカシキタク",
    "town": "菅栄町",
    "town_kana": "カンエイチョウ",
    "street": null,
    "office_name": null,
    "office_name_kana": null
  },
  "0032": {
    "postcode": "5300032",
    "prefecture": "大阪府",
    "prefecture_kana": "オオサカフ",
    "prefecture_code": 27,
    "city": "大阪市北区",
    "city_kana": "オオサカシキタク",
    "town": "樋之口町",
    "town_kana": "ヒノクチチョウ",
    "street": null,
    "office_name": null,
    "office_name_kana": null
  },
  "0033": {
    "postcode": "5300033",
    "prefecture": "大阪府",
    "prefecture_kana": "オオサカフ",
    "prefecture_code": 27,
    "city": "大阪市北区",
    "city_kana": "オオサカシキタク",
    "town": "池田町",
    "town_kana": "イケダチョウ",
    "street": null,
    "office_name": null,
    "office_name_kana": null
  },
  "0034": {
    "postcode": "5300034",
    "prefecture": "大阪府",
    "prefecture_kana": "オオサカフ",
    "prefecture_code": 27,
    "city": "大阪市北区",
    "city_kana": "オオサカシキタク",
    "town": "錦町",
    "town_kana": "ニシキチョウ",
    "street": null,
    "office_name": null,
    "office_name_kana": null
  },
  "0035": {
    "postcode": "5300035",
    "prefecture": "大阪府",
    "prefecture_kana": "オオサカフ",
    "prefecture_code": 27,
    "city": "大阪市北区",
    "city_kana": "オオサカシキタク",
    "town": "同心",
    "town_kana": "ドウシン",
    "street": null,
    "office_name": null,
    "office_name_kana": null
  },
  "0036": {
    "postcode": "5300036",
    "prefecture": "大阪府",
    "prefecture_kana": "オオサカフ",
    "prefecture_code": 27,
    "city": "大阪市北区",
    "city_kana": "オオサカシキタク",
    "town": "与力町",
    "town_kana": "ヨリキマチ",
    "street": null,
    "office_name": null,
    "office_name_kana": null
  },
  "0037": {
    "postcode": "5300037",
    "prefecture": "大阪府",
    "prefecture_kana": "オオサカフ",
    "prefecture_code": 27,
    "city": "大阪市北区",
    "city_kana": "オオサカシキタク",
    "town": "松ケ枝町",
    "town_kana": "マツガエチョウ",
    "street": null,
    "office_name": null,
    "office_name_kana": null
  },
  "0038": {
    "postcode": "5300038",
    "prefecture": "大阪府",
    "prefecture_kana": "オオサカフ",
    "prefecture_code": 27,
    "city": "大阪市北区",
    "city_kana": "オオサカシキタク",
    "town": "紅梅町",
    "town_kana": "コウバイチョウ",
    "street": null,
    "office_name": null,
    "office_name_kana": null
  },
  "0041": {
    "postcode": "5300041",
    "prefecture": "大阪府",
    "prefecture_kana": "オオサカフ",
    "prefecture_code": 27,
    "city": "大阪市北区",
    "city_kana": "オオサカシキタク",
    "town": "天神橋",
    "town_kana": "テンジンバシ",
    "street": null,
    "office_name": null,
    "office_name_kana": null
  },
  "0042": {
    "postcode": "5300042",
    "prefecture": "大阪府",
    "prefecture_kana": "オオサカフ",
    "prefecture_code": 27,
    "city": "大阪市北区",
    "city_kana": "オオサカシキタク",
    "town": "天満橋",
    "town_kana": "テンマバシ",
    "street": null,
    "office_name": null,
    "office_name_kana": null
  },
  "0043": {
    "postcode": "5300043",
    "prefecture": "大阪府",
    "prefecture_kana": "オオサカフ",
    "prefecture_code": 27,
    "city": "大阪市北区",
    "city_kana": "オオサカシキタク",
    "town": "天満",
    "town_kana": "テンマ",
    "street": null,
    "office_name": null,
    "office_name_kana": null
  },
  "0044": {
    "postcode": "5300044",
    "prefecture": "大阪府",
    "prefecture_kana": "オオサカフ",
    "prefecture_code": 27,
    "city": "大阪市北区",
    "city_kana": "オオサカシキタク",
    "town": "東天満",
    "town_kana": "ヒガシテンマ",
    "street": null,
    "office_name": null,
    "office_name_kana": null
  },
  "0045": {
    "postcode": "5300045",
    "prefecture": "大阪府",
    "prefecture_kana": "オオサカフ",
    "prefecture_code": 27,
    "city": "大阪市北区",
    "city_kana": "オオサカシキタク",
    "town": "天神西町",
    "town_kana": "テンジンニシマチ",
    "street": null,
    "office_name": null,
    "office_name_kana": null
  },
  "0046": {
    "postcode": "5300046",
    "prefecture": "大阪府",
    "prefecture_kana": "オオサカフ",
    "prefecture_code": 27,
    "city": "大阪市北区",
    "city_kana": "オオサカシキタク",
    "town": "菅原町",
    "town_kana": "スガハラチョウ",
    "street": null,
    "office_name": null,
    "office_name_kana": null
  },
  "0047": {
    "postcode": "5300047",
    "prefecture": "大阪府",
    "prefecture_kana": "オオサカフ",
    "prefecture_code": 27,
    "city": "大阪市北区",
    "city_kana": "オオサカシキタク",
    "town": "西天満",
    "town_kana": "ニシテンマ",
    "street": null,
    "office_name": null,
    "office_name_kana": null
  },
  "0051": {
    "postcode": "5300051",
    "prefecture": "大阪府",
    "prefecture_kana": "オオサカフ",
    "prefecture_code": 27,
    "city": "大阪市北区",
    "city_kana": "オオサカシキタク",
    "town": "太融寺町",
    "town_kana": "タイユウジチョウ",
    "street": null,
    "office_name": null,
    "office_name_kana": null
  },
  "0052": {
    "postcode": "5300052",
    "prefecture": "大阪府",
    "prefecture_kana": "オオサカフ",
    "prefecture_code": 27,
    "city": "大阪市北区",
    "city_kana": "オオサカシキタク",
    "town": "南扇町",
    "town_kana": "ミナミオウギマチ",
    "street": null,
    "office_name": null,
    "office_name_kana": null
  },
  "0053": {
    "postcode": "5300053",
    "prefecture": "大阪府",
    "prefecture_kana": "オオサカフ",
    "prefecture_code": 27,
    "city": "大阪市北区",
    "city_kana": "オオサカシキタク",
    "town": "末広町",
    "town_kana": "スエヒロチョウ",
    "street": null,
    "office_name": null,
    "office_name_kana": null
  },
  "0054": {
    "postcode": "5300054",
    "prefecture": "大阪府",
    "prefecture_kana": "オオサカフ",
    "prefecture_code": 27,
    "city": "大阪市北区",
    "city_kana": "オオサカシキタク",
    "town": "南森町",
    "town_kana": "ミナミモリマチ",
    "street": null,
    "office_name": null,
    "office_name_kana": null
  },
  "0055": {
    "postcode": "5300055",
    "prefecture": "大阪府",
    "prefecture_kana": "オオサカフ",
    "prefecture_code": 27,
    "city": "大阪市北区",
    "city_kana": "オオサカシキタク",
    "town": "野崎町",
    "town_kana": "ノザキチョウ",
    "street": null,
    "office_name": null,
    "office_name_kana": null
  },
  "0056": {
    "postcode": "5300056",
    "prefecture": "大阪府",
    "prefecture_kana": "オオサカフ",
    "prefecture_code": 27,
    "city": "大阪市北区",
    "city_kana": "オオサカシキタク",
    "town": "兎我野町",
    "town_kana": "トガノチョウ",
    "street": null,
    "office_name": null,
    "office_name_kana": null
  },
  "0057": {
    "postcode": "5300057",
    "prefecture": "大阪府",
    "prefecture_kana": "オオサカフ",
    "prefecture_code": 27,
    "city": "大阪市北区",
    "city_kana": "オオサカシキタク",
    "town": "曽根崎",
    "town_kana": "ソネザキ",
    "street": null,
    "office_name": null,
    "office_name_kana": null
  },
  "6001": {
    "postcode": "5306001",
    "prefecture": "大阪府",
    "prefecture_kana": "オオサカフ",
    "prefecture_code": 27,
    "city": "大阪市北区",
    "city_kana": "オオサカシキタク",
    "town": "天満橋ＯＡＰタワー　１階",
    "town_kana": "テンマバシOAPタワー1カイ",
    "street": null,
    "office_name": null,
    "office_name_kana": null
  },
  "6002": {
    "postcode": "5306002",
    "prefecture": "大阪府",
    "prefecture_kana": "オオサカフ",
    "prefecture_code": 27,
    "city": "大阪市北区",
    "city_kana": "オオサカシキタク",
    "town": "天満橋ＯＡＰタワー　２階",
    "town_kana": "テンマバシOAPタワー2カイ",
    "street": null,
    "office_name": null,
    "office_name_kana": null
  },
  "6003": {
    "postcode": "5306003",
    "prefecture": "大阪府",
    "prefecture_kana": "オオサカフ",
    "prefecture_code": 27,
    "city": "大阪市北区",
    "city_kana": "オオサカシキタク",
    "town": "天満橋ＯＡＰタワー　３階",
    "town_kana": "テンマバシOAPタワー3カイ",
    "street": null,
    "office_name": null,
    "office_name_kana": null
  },
  "6004": {
    "postcode": "5306004",
    "prefecture": "大阪府",
    "prefecture_kana": "オオサカフ",
    "prefecture_code": 27,
    "city": "大阪市北区",
    "city_kana": "オオサカシキタク",
    "town": "天満橋ＯＡＰタワー　４階",
    "town_kana": "テンマバシOAPタワー4カイ",
    "street": null,
    "office_name": null,
    "office_name_kana": null
  },
  "6005": {
    "postcode": "5306005",
    "prefecture": "大阪府",
    "prefecture_kana": "オオサカフ",
    "prefecture_code": 27,
    "city": "大阪市北区",
    "city_kana": "オオサカシキタク",
    "town": "天満橋ＯＡＰタワー　５階",
    "town_kana": "テンマバシOAPタワー5カイ",
    "street": null,
    "office_name": null,
    "office_name_kana": null
  },
  "6006": {
    "postcode": "5306006",
    "prefecture": "大阪府",
    "prefecture_kana": "オオサカフ",
    "prefecture_code": 27,
    "city": "大阪市北区",
    "city_kana": "オオサカシキタク",
    "town": "天満橋ＯＡＰタワー　６階",
    "town_kana": "テンマバシOAPタワー6カイ",
    "street": null,
    "office_name": null,
    "office_name_kana": null
  },
  "6007": {
    "postcode": "5306007",
    "prefecture": "大阪府",
    "prefecture_kana": "オオサカフ",
    "prefecture_code": 27,
    "city": "大阪市北区",
    "city_kana": "オオサカシキタク",
    "town": "天満橋ＯＡＰタワー　７階",
    "town_kana": "テンマバシOAPタワー7カイ",
    "street": null,
    "office_name": null,
    "office_name_kana": null
  },
  "6008": {
    "postcode": "5306008",
    "prefecture": "大阪府",
    "prefecture_kana": "オオサカフ",
    "prefecture_code": 27,
    "city": "大阪市北区",
    "city_kana": "オオサカシキタク",
    "town": "天満橋ＯＡＰタワー　８階",
    "town_kana": "テンマバシOAPタワー8カイ",
    "street": null,
    "office_name": null,
    "office_name_kana": null
  },
  "6009": {
    "postcode": "5306009",
    "prefecture": "大阪府",
    "prefecture_kana": "オオサカフ",
    "prefecture_code": 27,
    "city": "大阪市北区",
    "city_kana": "オオサカシキタク",
    "town": "天満橋ＯＡＰタワー　９階",
    "town_kana": "テンマバシOAPタワー9カイ",
    "street": null,
    "office_name": null,
    "office_name_kana": null
  },
  "6010": {
    "postcode": "5306010",
    "prefecture": "大阪府",
    "prefecture_kana": "オオサカフ",
    "prefecture_code": 27,
    "city": "大阪市北区",
    "city_kana": "オオサカシキタク",
    "town": "天満橋ＯＡＰタワー　１０階",
    "town_kana": "テンマバシOAPタワー10カイ",
    "street": null,
    "office_name": null,
    "office_name_kana": null
  },
  "6011": {
    "postcode": "5306011",
    "prefecture": "大阪府",
    "prefecture_kana": "オオサカフ",
    "prefecture_code": 27,
    "city": "大阪市北区",
    "city_kana": "オオサカシキタク",
    "town": "天満橋ＯＡＰタワー　１１階",
    "town_kana": "テンマバシOAPタワー11カイ",
    "street": null,
    "office_name": null,
    "office_name_kana": null
  },
  "6012": {
    "postcode": "5306012",
    "prefecture": "大阪府",
    "prefecture_kana": "オオサカフ",
    "prefecture_code": 27,
    "city": "大阪市北区",
    "city_kana": "オオサカシキタク",
    "town": "天満橋ＯＡＰタワー　１２階",
    "town_kana": "テンマバシOAPタワー12カイ",
    "street": null,
    "office_name": null,
    "office_name_kana": null
  },
  "6013": {
    "postcode": "5306013",
    "prefecture": "大阪府",
    "prefecture_kana": "オオサカフ",
    "prefecture_code": 27,
    "city": "大阪市北区",
    "city_kana": "オオサカシキタク",
    "town": "天満橋ＯＡＰタワー　１３階",
    "town_kana": "テンマバシOAPタワー13カイ",
    "street": null,
    "office_name": null,
    "office_name_kana": null
  },
  "6014": {
    "postcode": "5306014",
    "prefecture": "大阪府",
    "prefecture_kana": "オオサカフ",
    "prefecture_code": 27,
    "city": "大阪市北区",
    "city_kana": "オオサカシキタク",
    "town": "天満橋ＯＡＰタワー　１４階",
    "town_kana": "テンマバシOAPタワー14カイ",
    "street": null,
    "office_name": null,
    "office_name_kana": null
  },
  "6015": {
    "postcode": "5306015",
    "prefecture": "大阪府",
    "prefecture_kana": "オオサカフ",
    "prefecture_code": 27,
    "city": "大阪市北区",
    "city_kana": "オオサカシキタク",
    "town": "天満橋ＯＡＰタワー　１５階",
    "town_kana": "テンマバシOAPタワー15カイ",
    "street": null,
    "office_name": null,
    "office_name_kana": null
  },
  "6016": {
    "postcode": "5306016",
    "prefecture": "大阪府",
    "prefecture_kana": "オオサカフ",
    "prefecture_code": 27,
    "city": "大阪市北区",
    "city_kana": "オオサカシキタク",
    "town": "天満橋ＯＡＰタワー　１６階",
    "town_kana": "テンマバシOAPタワー16カイ",
    "street": null,
    "office_name": null,
    "office_name_kana": null
  },
  "6017": {
    "postcode": "5306017",
    "prefecture": "大阪府",
    "prefecture_kana": "オオサカフ",
    "prefecture_code": 27,
    "city": "大阪市北区",
    "city_kana": "オオサカシキタク",
    "town": "天満橋ＯＡＰタワー　１７階",
    "town_kana": "テンマバシOAPタワー17カイ",
    "street": null,
    "office_name": null,
    "office_name_kana": null
  },
  "6018": {
    "postcode": "5306018",
    "prefecture": "大阪府",
    "prefecture_kana": "オオサカフ",
    "prefecture_code": 27,
    "city": "大阪市北区",
    "city_kana": "オオサカシキタク",
    "town": "天満橋ＯＡＰタワー　１８階",
    "town_kana": "テンマバシOAPタワー18カイ",
    "street": null,
    "office_name": null,
    "office_name_kana": null
  },
  "6019": {
    "postcode": "5306019",
    "prefecture": "大阪府",
    "prefecture_kana": "オオサカフ",
    "prefecture_code": 27,
    "city": "大阪市北区",
    "city_kana": "オオサカシキタク",
    "town": "天満橋ＯＡＰタワー　１９階",
    "town_kana": "テンマバシOAPタワー19カイ",
    "street": null,
    "office_name": null,
    "office_name_kana": null
  },
  "6020": {
    "postcode": "5306020",
    "prefecture": "大阪府",
    "prefecture_kana": "オオサカフ",
    "prefecture_code": 27,
    "city": "大阪市北区",
    "city_kana": "オオサカシキタク",
    "town": "天満橋ＯＡＰタワー　２０階",
    "town_kana": "テンマバシOAPタワー20カイ",
    "street": null,
    "office_name": null,
    "office_name_kana": null
  },
  "6021": {
    "postcode": "5306021",
    "prefecture": "大阪府",
    "prefecture_kana": "オオサカフ",
    "prefecture_code": 27,
    "city": "大阪市北区",
    "city_kana": "オオサカシキタク",
    "town": "天満橋ＯＡＰタワー　２１階",
    "town_kana": "テンマバシOAPタワー21カイ",
    "street": null,
    "office_name": null,
    "office_name_kana": null
  },
  "6022": {
    "postcode": "5306022",
    "prefecture": "大阪府",
    "prefecture_kana": "オオサカフ",
    "prefecture_code": 27,
    "city": "大阪市北区",
    "city_kana": "オオサカシキタク",
    "town": "天満橋ＯＡＰタワー　２２階",
    "town_kana": "テンマバシOAPタワー22カイ",
    "street": null,
    "office_name": null,
    "office_name_kana": null
  },
  "6023": {
    "postcode": "5306023",
    "prefecture": "大阪府",
    "prefecture_kana": "オオサカフ",
    "prefecture_code": 27,
    "city": "大阪市北区",
    "city_kana": "オオサカシキタク",
    "town": "天満橋ＯＡＰタワー　２３階",
    "town_kana": "テンマバシOAPタワー23カイ",
    "street": null,
    "office_name": null,
    "office_name_kana": null
  },
  "6024": {
    "postcode": "5306024",
    "prefecture": "大阪府",
    "prefecture_kana": "オオサカフ",
    "prefecture_code": 27,
    "city": "大阪市北区",
    "city_kana": "オオサカシキタク",
    "town": "天満橋ＯＡＰタワー　２４階",
    "town_kana": "テンマバシOAPタワー24カイ",
    "street": null,
    "office_name": null,
    "office_name_kana": null
  },
  "6025": {
    "postcode": "5306025",
    "prefecture": "大阪府",
    "prefecture_kana": "オオサカフ",
    "prefecture_code": 27,
    "city": "大阪市北区",
    "city_kana": "オオサカシキタク",
    "town": "天満橋ＯＡＰタワー　２５階",
    "town_kana": "テンマバシOAPタワー25カイ",
    "street": null,
    "office_name": null,
    "office_name_kana": null
  },
  "6026": {
    "postcode": "5306026",
    "prefecture": "大阪府",
    "prefecture_kana": "オオサカフ",
    "prefecture_code": 27,
    "city": "大阪市北区",
    "city_kana": "オオサカシキタク",
    "town": "天満橋ＯＡＰタワー　２６階",
    "town_kana": "テンマバシOAPタワー26カイ",
    "street": null,
    "office_name": null,
    "office_name_kana": null
  },
  "6027": {
    "postcode": "5306027",
    "prefecture": "大阪府",
    "prefecture_kana": "オオサカフ",
    "prefecture_code": 27,
    "city": "大阪市北区",
    "city_kana": "オオサカシキタク",
    "town": "天満橋ＯＡＰタワー　２７階",
    "town_kana": "テンマバシOAPタワー27カイ",
    "street": null,
    "office_name": null,
    "office_name_kana": null
  },
  "6028": {
    "postcode": "5306028",
    "prefecture": "大阪府",
    "prefecture_kana": "オオサカフ",
    "prefecture_code": 27,
    "city": "大阪市北区",
    "city_kana": "オオサカシキタク",
    "town": "天満橋ＯＡＰタワー　２８階",
    "town_kana": "テンマバシOAPタワー28カイ",
    "street": null,
    "office_name": null,
    "office_name_kana": null
  },
  "6029": {
    "postcode": "5306029",
    "prefecture": "大阪府",
    "prefecture_kana": "オオサカフ",
    "prefecture_code": 27,
    "city": "大阪市北区",
    "city_kana": "オオサカシキタク",
    "town": "天満橋ＯＡＰタワー　２９階",
    "town_kana": "テンマバシOAPタワー29カイ",
    "street": null,
    "office_name": null,
    "office_name_kana": null
  },
  "6030": {
    "postcode": "5306030",
    "prefecture": "大阪府",
    "prefecture_kana": "オオサカフ",
    "prefecture_code": 27,
    "city": "大阪市北区",
    "city_kana": "オオサカシキタク",
    "town": "天満橋ＯＡＰタワー　３０階",
    "town_kana": "テンマバシOAPタワー30カイ",
    "street": null,
    "office_name": null,
    "office_name_kana": null
  },
  "6031": {
    "postcode": "5306031",
    "prefecture": "大阪府",
    "prefecture_kana": "オオサカフ",
    "prefecture_code": 27,
    "city": "大阪市北区",
    "city_kana": "オオサカシキタク",
    "town": "天満橋ＯＡＰタワー　３１階",
    "town_kana": "テンマバシOAPタワー31カイ",
    "street": null,
    "office_name": null,
    "office_name_kana": null
  },
  "6032": {
    "postcode": "5306032",
    "prefecture": "大阪府",
    "prefecture_kana": "オオサカフ",
    "prefecture_code": 27,
    "city": "大阪市北区",
    "city_kana": "オオサカシキタク",
    "town": "天満橋ＯＡＰタワー　３２階",
    "town_kana": "テンマバシOAPタワー32カイ",
    "street": null,
    "office_name": null,
    "office_name_kana": null
  },
  "6033": {
    "postcode": "5306033",
    "prefecture": "大阪府",
    "prefecture_kana": "オオサカフ",
    "prefecture_code": 27,
    "city": "大阪市北区",
    "city_kana": "オオサカシキタク",
    "town": "天満橋ＯＡＰタワー　３３階",
    "town_kana": "テンマバシOAPタワー33カイ",
    "street": null,
    "office_name": null,
    "office_name_kana": null
  },
  "6034": {
    "postcode": "5306034",
    "prefecture": "大阪府",
    "prefecture_kana": "オオサカフ",
    "prefecture_code": 27,
    "city": "大阪市北区",
    "city_kana": "オオサカシキタク",
    "town": "天満橋ＯＡＰタワー　３４階",
    "town_kana": "テンマバシOAPタワー34カイ",
    "street": null,
    "office_name": null,
    "office_name_kana": null
  },
  "6035": {
    "postcode": "5306035",
    "prefecture": "大阪府",
    "prefecture_kana": "オオサカフ",
    "prefecture_code": 27,
    "city": "大阪市北区",
    "city_kana": "オオサカシキタク",
    "town": "天満橋ＯＡＰタワー　３５階",
    "town_kana": "テンマバシOAPタワー35カイ",
    "street": null,
    "office_name": null,
    "office_name_kana": null
  },
  "6036": {
    "postcode": "5306036",
    "prefecture": "大阪府",
    "prefecture_kana": "オオサカフ",
    "prefecture_code": 27,
    "city": "大阪市北区",
    "city_kana": "オオサカシキタク",
    "town": "天満橋ＯＡＰタワー　３６階",
    "town_kana": "テンマバシOAPタワー36カイ",
    "street": null,
    "office_name": null,
    "office_name_kana": null
  },
  "6037": {
    "postcode": "5306037",
    "prefecture": "大阪府",
    "prefecture_kana": "オオサカフ",
    "prefecture_code": 27,
    "city": "大阪市北区",
    "city_kana": "オオサカシキタク",
    "town": "天満橋ＯＡＰタワー　３７階",
    "town_kana": "テンマバシOAPタワー37カイ",
    "street": null,
    "office_name": null,
    "office_name_kana": null
  },
  "6038": {
    "postcode": "5306038",
    "prefecture": "大阪府",
    "prefecture_kana": "オオサカフ",
    "prefecture_code": 27,
    "city": "大阪市北区",
    "city_kana": "オオサカシキタク",
    "town": "天満橋ＯＡＰタワー　３８階",
    "town_kana": "テンマバシOAPタワー38カイ",
    "street": null,
    "office_name": null,
    "office_name_kana": null
  },
  "6039": {
    "postcode": "5306039",
    "prefecture": "大阪府",
    "prefecture_kana": "オオサカフ",
    "prefecture_code": 27,
    "city": "大阪市北区",
    "city_kana": "オオサカシキタク",
    "town": "天満橋ＯＡＰタワー　３９階",
    "town_kana": "テンマバシOAPタワー39カイ",
    "street": null,
    "office_name": null,
    "office_name_kana": null
  },
  "6070": {
    "postcode": "5306070",
    "prefecture": "大阪府",
    "prefecture_kana": "オオサカフ",
    "prefecture_code": 27,
    "city": "大阪市北区",
    "city_kana": "オオサカシキタク",
    "town": "天満橋",
    "town_kana": "テンマバシ",
    "street": "１丁目８番３０号（ＯＡＰタワー２８階）",
    "office_name": "三菱マテリアル　株式会社　大阪支社",
    "office_name_kana": "ミツビシマテリアル カブシキガイシヤ オオサカシシヤ"
  },
  "6090": {
    "postcode": "5306090",
    "prefecture": "大阪府",
    "prefecture_kana": "オオサカフ",
    "prefecture_code": 27,
    "city": "大阪市北区",
    "city_kana": "オオサカシキタク",
    "town": "天満橋ＯＡＰタワー",
    "town_kana": "テンマバシOAPタワー",
    "street": null,
    "office_name": null,
    "office_name_kana": null
  },
  "6101": {
    "postcode": "5306101",
    "prefecture": "大阪府",
    "prefecture_kana": "オオサカフ",
    "prefecture_code": 27,
    "city": "大阪市北区",
    "city_kana": "オオサカシキタク",
    "town": "中之島中之島ダイビル　１階",
    "town_kana": "ナカノシマナカノシマダイビル1カイ",
    "street": null,
    "office_name": null,
    "office_name_kana": null
  },
  "6102": {
    "postcode": "5306102",
    "prefecture": "大阪府",
    "prefecture_kana": "オオサカフ",
    "prefecture_code": 27,
    "city": "大阪市北区",
    "city_kana": "オオサカシキタク",
    "town": "中之島中之島ダイビル　２階",
    "town_kana": "ナカノシマナカノシマダイビル2カイ",
    "street": null,
    "office_name": null,
    "office_name_kana": null
  },
  "6103": {
    "postcode": "5306103",
    "prefecture": "大阪府",
    "prefecture_kana": "オオサカフ",
    "prefecture_code": 27,
    "city": "大阪市北区",
    "city_kana": "オオサカシキタク",
    "town": "中之島中之島ダイビル　３階",
    "town_kana": "ナカノシマナカノシマダイビル3カイ",
    "street": null,
    "office_name": null,
    "office_name_kana": null
  },
  "6104": {
    "postcode": "5306104",
    "prefecture": "大阪府",
    "prefecture_kana": "オオサカフ",
    "prefecture_code": 27,
    "city": "大阪市北区",
    "city_kana": "オオサカシキタク",
    "town": "中之島中之島ダイビル　４階",
    "town_kana": "ナカノシマナカノシマダイビル4カイ",
    "street": null,
    "office_name": null,
    "office_name_kana": null
  },
  "6105": {
    "postcode": "5306105",
    "prefecture": "大阪府",
    "prefecture_kana": "オオサカフ",
    "prefecture_code": 27,
    "city": "大阪市北区",
    "city_kana": "オオサカシキタク",
    "town": "中之島中之島ダイビル　５階",
    "town_kana": "ナカノシマナカノシマダイビル5カイ",
    "street": null,
    "office_name": null,
    "office_name_kana": null
  },
  "6106": {
    "postcode": "5306106",
    "prefecture": "大阪府",
    "prefecture_kana": "オオサカフ",
    "prefecture_code": 27,
    "city": "大阪市北区",
    "city_kana": "オオサカシキタク",
    "town": "中之島中之島ダイビル　６階",
    "town_kana": "ナカノシマナカノシマダイビル6カイ",
    "street": null,
    "office_name": null,
    "office_name_kana": null
  },
  "6107": {
    "postcode": "5306107",
    "prefecture": "大阪府",
    "prefecture_kana": "オオサカフ",
    "prefecture_code": 27,
    "city": "大阪市北区",
    "city_kana": "オオサカシキタク",
    "town": "中之島中之島ダイビル　７階",
    "town_kana": "ナカノシマナカノシマダイビル7カイ",
    "street": null,
    "office_name": null,
    "office_name_kana": null
  },
  "6108": {
    "postcode": "5306108",
    "prefecture": "大阪府",
    "prefecture_kana": "オオサカフ",
    "prefecture_code": 27,
    "city": "大阪市北区",
    "city_kana": "オオサカシキタク",
    "town": "中之島中之島ダイビル　８階",
    "town_kana": "ナカノシマナカノシマダイビル8カイ",
    "street": null,
    "office_name": null,
    "office_name_kana": null
  },
  "6109": {
    "postcode": "5306109",
    "prefecture": "大阪府",
    "prefecture_kana": "オオサカフ",
    "prefecture_code": 27,
    "city": "大阪市北区",
    "city_kana": "オオサカシキタク",
    "town": "中之島中之島ダイビル　９階",
    "town_kana": "ナカノシマナカノシマダイビル9カイ",
    "street": null,
    "office_name": null,
    "office_name_kana": null
  },
  "6110": {
    "postcode": "5306110",
    "prefecture": "大阪府",
    "prefecture_kana": "オオサカフ",
    "prefecture_code": 27,
    "city": "大阪市北区",
    "city_kana": "オオサカシキタク",
    "town": "中之島中之島ダイビル　１０階",
    "town_kana": "ナカノシマナカノシマダイビル10カイ",
    "street": null,
    "office_name": null,
    "office_name_kana": null
  },
  "6111": {
    "postcode": "5306111",
    "prefecture": "大阪府",
    "prefecture_kana": "オオサカフ",
    "prefecture_code": 27,
    "city": "大阪市北区",
    "city_kana": "オオサカシキタク",
    "town": "中之島中之島ダイビル　１１階",
    "town_kana": "ナカノシマナカノシマダイビル11カイ",
    "street": null,
    "office_name": null,
    "office_name_kana": null
  },
  "6112": {
    "postcode": "5306112",
    "prefecture": "大阪府",
    "prefecture_kana": "オオサカフ",
    "prefecture_code": 27,
    "city": "大阪市北区",
    "city_kana": "オオサカシキタク",
    "town": "中之島中之島ダイビル　１２階",
    "town_kana": "ナカノシマナカノシマダイビル12カイ",
    "street": null,
    "office_name": null,
    "office_name_kana": null
  },
  "6113": {
    "postcode": "5306113",
    "prefecture": "大阪府",
    "prefecture_kana": "オオサカフ",
    "prefecture_code": 27,
    "city": "大阪市北区",
    "city_kana": "オオサカシキタク",
    "town": "中之島中之島ダイビル　１３階",
    "town_kana": "ナカノシマナカノシマダイビル13カイ",
    "street": null,
    "office_name": null,
    "office_name_kana": null
  },
  "6114": {
    "postcode": "5306114",
    "prefecture": "大阪府",
    "prefecture_kana": "オオサカフ",
    "prefecture_code": 27,
    "city": "大阪市北区",
    "city_kana": "オオサカシキタク",
    "town": "中之島中之島ダイビル　１４階",
    "town_kana": "ナカノシマナカノシマダイビル14カイ",
    "street": null,
    "office_name": null,
    "office_name_kana": null
  },
  "6115": {
    "postcode": "5306115",
    "prefecture": "大阪府",
    "prefecture_kana": "オオサカフ",
    "prefecture_code": 27,
    "city": "大阪市北区",
    "city_kana": "オオサカシキタク",
    "town": "中之島中之島ダイビル　１５階",
    "town_kana": "ナカノシマナカノシマダイビル15カイ",
    "street": null,
    "office_name": null,
    "office_name_kana": null
  },
  "6116": {
    "postcode": "5306116",
    "prefecture": "大阪府",
    "prefecture_kana": "オオサカフ",
    "prefecture_code": 27,
    "city": "大阪市北区",
    "city_kana": "オオサカシキタク",
    "town": "中之島中之島ダイビル　１６階",
    "town_kana": "ナカノシマナカノシマダイビル16カイ",
    "street": null,
    "office_name": null,
    "office_name_kana": null
  },
  "6117": {
    "postcode": "5306117",
    "prefecture": "大阪府",
    "prefecture_kana": "オオサカフ",
    "prefecture_code": 27,
    "city": "大阪市北区",
    "city_kana": "オオサカシキタク",
    "town": "中之島中之島ダイビル　１７階",
    "town_kana": "ナカノシマナカノシマダイビル17カイ",
    "street": null,
    "office_name": null,
    "office_name_kana": null
  },
  "6118": {
    "postcode": "5306118",
    "prefecture": "大阪府",
    "prefecture_kana": "オオサカフ",
    "prefecture_code": 27,
    "city": "大阪市北区",
    "city_kana": "オオサカシキタク",
    "town": "中之島中之島ダイビル　１８階",
    "town_kana": "ナカノシマナカノシマダイビル18カイ",
    "street": null,
    "office_name": null,
    "office_name_kana": null
  },
  "6119": {
    "postcode": "5306119",
    "prefecture": "大阪府",
    "prefecture_kana": "オオサカフ",
    "prefecture_code": 27,
    "city": "大阪市北区",
    "city_kana": "オオサカシキタク",
    "town": "中之島中之島ダイビル　１９階",
    "town_kana": "ナカノシマナカノシマダイビル19カイ",
    "street": null,
    "office_name": null,
    "office_name_kana": null
  },
  "6120": {
    "postcode": "5306120",
    "prefecture": "大阪府",
    "prefecture_kana": "オオサカフ",
    "prefecture_code": 27,
    "city": "大阪市北区",
    "city_kana": "オオサカシキタク",
    "town": "中之島中之島ダイビル　２０階",
    "town_kana": "ナカノシマナカノシマダイビル20カイ",
    "street": null,
    "office_name": null,
    "office_name_kana": null
  },
  "6121": {
    "postcode": "5306121",
    "prefecture": "大阪府",
    "prefecture_kana": "オオサカフ",
    "prefecture_code": 27,
    "city": "大阪市北区",
    "city_kana": "オオサカシキタク",
    "town": "中之島中之島ダイビル　２１階",
    "town_kana": "ナカノシマナカノシマダイビル21カイ",
    "street": null,
    "office_name": null,
    "office_name_kana": null
  },
  "6122": {
    "postcode": "5306122",
    "prefecture": "大阪府",
    "prefecture_kana": "オオサカフ",
    "prefecture_code": 27,
    "city": "大阪市北区",
    "city_kana": "オオサカシキタク",
    "town": "中之島中之島ダイビル　２２階",
    "town_kana": "ナカノシマナカノシマダイビル22カイ",
    "street": null,
    "office_name": null,
    "office_name_kana": null
  },
  "6123": {
    "postcode": "5306123",
    "prefecture": "大阪府",
    "prefecture_kana": "オオサカフ",
    "prefecture_code": 27,
    "city": "大阪市北区",
    "city_kana": "オオサカシキタク",
    "town": "中之島中之島ダイビル　２３階",
    "town_kana": "ナカノシマナカノシマダイビル23カイ",
    "street": null,
    "office_name": null,
    "office_name_kana": null
  },
  "6124": {
    "postcode": "5306124",
    "prefecture": "大阪府",
    "prefecture_kana": "オオサカフ",
    "prefecture_code": 27,
    "city": "大阪市北区",
    "city_kana": "オオサカシキタク",
    "town": "中之島中之島ダイビル　２４階",
    "town_kana": "ナカノシマナカノシマダイビル24カイ",
    "street": null,
    "office_name": null,
    "office_name_kana": null
  },
  "6125": {
    "postcode": "5306125",
    "prefecture": "大阪府",
    "prefecture_kana": "オオサカフ",
    "prefecture_code": 27,
    "city": "大阪市北区",
    "city_kana": "オオサカシキタク",
    "town": "中之島中之島ダイビル　２５階",
    "town_kana": "ナカノシマナカノシマダイビル25カイ",
    "street": null,
    "office_name": null,
    "office_name_kana": null
  },
  "6126": {
    "postcode": "5306126",
    "prefecture": "大阪府",
    "prefecture_kana": "オオサカフ",
    "prefecture_code": 27,
    "city": "大阪市北区",
    "city_kana": "オオサカシキタク",
    "town": "中之島中之島ダイビル　２６階",
    "town_kana": "ナカノシマナカノシマダイビル26カイ",
    "street": null,
    "office_name": null,
    "office_name_kana": null
  },
  "6127": {
    "postcode": "5306127",
    "prefecture": "大阪府",
    "prefecture_kana": "オオサカフ",
    "prefecture_code": 27,
    "city": "大阪市北区",
    "city_kana": "オオサカシキタク",
    "town": "中之島中之島ダイビル　２７階",
    "town_kana": "ナカノシマナカノシマダイビル27カイ",
    "street": null,
    "office_name": null,
    "office_name_kana": null
  },
  "6128": {
    "postcode": "5306128",
    "prefecture": "大阪府",
    "prefecture_kana": "オオサカフ",
    "prefecture_code": 27,
    "city": "大阪市北区",
    "city_kana": "オオサカシキタク",
    "town": "中之島中之島ダイビル　２８階",
    "town_kana": "ナカノシマナカノシマダイビル28カイ",
    "street": null,
    "office_name": null,
    "office_name_kana": null
  },
  "6129": {
    "postcode": "5306129",
    "prefecture": "大阪府",
    "prefecture_kana": "オオサカフ",
    "prefecture_code": 27,
    "city": "大阪市北区",
    "city_kana": "オオサカシキタク",
    "town": "中之島中之島ダイビル　２９階",
    "town_kana": "ナカノシマナカノシマダイビル29カイ",
    "street": null,
    "office_name": null,
    "office_name_kana": null
  },
  "6130": {
    "postcode": "5306130",
    "prefecture": "大阪府",
    "prefecture_kana": "オオサカフ",
    "prefecture_code": 27,
    "city": "大阪市北区",
    "city_kana": "オオサカシキタク",
    "town": "中之島中之島ダイビル　３０階",
    "town_kana": "ナカノシマナカノシマダイビル30カイ",
    "street": null,
    "office_name": null,
    "office_name_kana": null
  },
  "6131": {
    "postcode": "5306131",
    "prefecture": "大阪府",
    "prefecture_kana": "オオサカフ",
    "prefecture_code": 27,
    "city": "大阪市北区",
    "city_kana": "オオサカシキタク",
    "town": "中之島中之島ダイビル　３１階",
    "town_kana": "ナカノシマナカノシマダイビル31カイ",
    "street": null,
    "office_name": null,
    "office_name_kana": null
  },
  "6132": {
    "postcode": "5306132",
    "prefecture": "大阪府",
    "prefecture_kana": "オオサカフ",
    "prefecture_code": 27,
    "city": "大阪市北区",
    "city_kana": "オオサカシキタク",
    "town": "中之島中之島ダイビル　３２階",
    "town_kana": "ナカノシマナカノシマダイビル32カイ",
    "street": null,
    "office_name": null,
    "office_name_kana": null
  },
  "6133": {
    "postcode": "5306133",
    "prefecture": "大阪府",
    "prefecture_kana": "オオサカフ",
    "prefecture_code": 27,
    "city": "大阪市北区",
    "city_kana": "オオサカシキタク",
    "town": "中之島中之島ダイビル　３３階",
    "town_kana": "ナカノシマナカノシマダイビル33カイ",
    "street": null,
    "office_name": null,
    "office_name_kana": null
  },
  "6134": {
    "postcode": "5306134",
    "prefecture": "大阪府",
    "prefecture_kana": "オオサカフ",
    "prefecture_code": 27,
    "city": "大阪市北区",
    "city_kana": "オオサカシキタク",
    "town": "中之島中之島ダイビル　３４階",
    "town_kana": "ナカノシマナカノシマダイビル34カイ",
    "street": null,
    "office_name": null,
    "office_name_kana": null
  },
  "6135": {
    "postcode": "5306135",
    "prefecture": "大阪府",
    "prefecture_kana": "オオサカフ",
    "prefecture_code": 27,
    "city": "大阪市北区",
    "city_kana": "オオサカシキタク",
    "town": "中之島中之島ダイビル　３５階",
    "town_kana": "ナカノシマナカノシマダイビル35カイ",
    "street": null,
    "office_name": null,
    "office_name_kana": null
  },
  "6190": {
    "postcode": "5306190",
    "prefecture": "大阪府",
    "prefecture_kana": "オオサカフ",
    "prefecture_code": 27,
    "city": "大阪市北区",
    "city_kana": "オオサカシキタク",
    "town": "中之島中之島ダイビル",
    "town_kana": "ナカノシマナカノシマダイビル",
    "street": null,
    "office_name": null,
    "office_name_kana": null
  },
  "8201": {
    "postcode": "5308201",
    "prefecture": "大阪府",
    "prefecture_kana": "オオサカフ",
    "prefecture_code": 27,
    "city": "大阪市北区",
    "city_kana": "オオサカシキタク",
    "town": "中之島",
    "town_kana": "ナカノシマ",
    "street": "１−３−２０",
    "office_name": "大阪市役所",
    "office_name_kana": "オオサカシヤクシヨ"
  },
  "8202": {
    "postcode": "5308202",
    "prefecture": "大阪府",
    "prefecture_kana": "オオサカフ",
    "prefecture_code": 27,
    "city": "大阪市北区",
    "city_kana": "オオサカシキタク",
    "town": "梅田",
    "town_kana": "ウメダ",
    "street": "３丁目１番１号",
    "office_name": "株式会社　大丸松坂屋百貨店　大丸大阪・梅田店",
    "office_name_kana": "カブシキガイシヤ ダイマルマツザカヤヒヤツカテン ダイマルオオサカ・ウメダテン"
  },
  "8203": {
    "postcode": "5308203",
    "prefecture": "大阪府",
    "prefecture_kana": "オオサカフ",
    "prefecture_code": 27,
    "city": "大阪市北区",
    "city_kana": "オオサカシキタク",
    "town": "堂島浜",
    "town_kana": "ドウジマハマ",
    "street": "２丁目１−４０",
    "office_name": "サントリー　株式会社",
    "office_name_kana": "サントリ- カブシキガイシヤ"
  },
  "8204": {
    "postcode": "5308204",
    "prefecture": "大阪府",
    "prefecture_kana": "オオサカフ",
    "prefecture_code": 27,
    "city": "大阪市北区",
    "city_kana": "オオサカシキタク",
    "town": "堂島",
    "town_kana": "ドウジマ",
    "street": "２丁目１−５",
    "office_name": "サントリー　株式会社　アネックスビル",
    "office_name_kana": "サントリ- カブシキガイシヤ アネツクスビルス"
  },
  "8205": {
    "postcode": "5308205",
    "prefecture": "大阪府",
    "prefecture_kana": "オオサカフ",
    "prefecture_code": 27,
    "city": "大阪市北区",
    "city_kana": "オオサカシキタク",
    "town": "中之島",
    "town_kana": "ナカノシマ",
    "street": "３丁目３−２３中之島ダイビル",
    "office_name": "旭化成　株式会社",
    "office_name_kana": "アサヒカセイ カブシキガイシヤ"
  },
  "8206": {
    "postcode": "5308206",
    "prefecture": "大阪府",
    "prefecture_kana": "オオサカフ",
    "prefecture_code": 27,
    "city": "大阪市北区",
    "city_kana": "オオサカシキタク",
    "town": "大深町",
    "town_kana": "オオフカチョウ",
    "street": "４番２０号グランフロント大阪タワーＡ１８Ｆ１９Ｆ２０Ｆ",
    "office_name": "三菱電機　株式会社　関西支社",
    "office_name_kana": "ミツビシデンキ カブシキガイシヤ カンサイシシヤ"
  },
  "8207": {
    "postcode": "5308207",
    "prefecture": "大阪府",
    "prefecture_kana": "オオサカフ",
    "prefecture_code": 27,
    "city": "大阪市北区",
    "city_kana": "オオサカシキタク",
    "town": "梅田",
    "town_kana": "ウメダ",
    "street": "２丁目５−６",
    "office_name": "キョードー大阪",
    "office_name_kana": "キヨ-ド-オオサカ"
  },
  "8209": {
    "postcode": "5308209",
    "prefecture": "大阪府",
    "prefecture_kana": "オオサカフ",
    "prefecture_code": 27,
    "city": "大阪市北区",
    "city_kana": "オオサカシキタク",
    "town": "中之島",
    "town_kana": "ナカノシマ",
    "street": "１丁目３番２０号大阪市役所地下１階",
    "office_name": "税務照会事務処理センター",
    "office_name_kana": "ゼイムシヨウカイジムシヨリセンタ-"
  },
  "8210": {
    "postcode": "5308210",
    "prefecture": "大阪府",
    "prefecture_kana": "オオサカフ",
    "prefecture_code": 27,
    "city": "大阪市北区",
    "city_kana": "オオサカシキタク",
    "town": "中之島",
    "town_kana": "ナカノシマ",
    "street": "３丁目２番４号中之島フェスティバルタワー・ウエスト１４Ｆ",
    "office_name": "大建工業　株式会社",
    "office_name_kana": "ダイケンコウギヨウ カブシキガイシヤ"
  },
  "8211": {
    "postcode": "5308211",
    "prefecture": "大阪府",
    "prefecture_kana": "オオサカフ",
    "prefecture_code": 27,
    "city": "大阪市北区",
    "city_kana": "オオサカシキタク",
    "town": "中之島",
    "town_kana": "ナカノシマ",
    "street": "２丁目３番１８号",
    "office_name": "朝日新聞　大阪本社",
    "office_name_kana": "アサヒシンブン オオサカホンシヤ"
  },
  "8212": {
    "postcode": "5308212",
    "prefecture": "大阪府",
    "prefecture_kana": "オオサカフ",
    "prefecture_code": 27,
    "city": "大阪市北区",
    "city_kana": "オオサカシキタク",
    "town": "堂島浜",
    "town_kana": "ドウジマハマ",
    "street": "１丁目２−６",
    "office_name": "株式会社　ニチメン　保険センター",
    "office_name_kana": "カブシキガイシヤ ニチメン ホケンセンタ-"
  },
  "8213": {
    "postcode": "5308213",
    "prefecture": "大阪府",
    "prefecture_kana": "オオサカフ",
    "prefecture_code": 27,
    "city": "大阪市北区",
    "city_kana": "オオサカシキタク",
    "town": "梅田",
    "town_kana": "ウメダ",
    "street": "２丁目５番２５号ハービスＯＳＡＫＡ１９階",
    "office_name": "三菱ＵＦＪリサーチ＆コンサルティング　株式会社",
    "office_name_kana": "ミツビシユ-エフジエイリサ-チアンドコンサルテイング カブシキガイシヤ"
  },
  "8214": {
    "postcode": "5308214",
    "prefecture": "大阪府",
    "prefecture_kana": "オオサカフ",
    "prefecture_code": 27,
    "city": "大阪市北区",
    "city_kana": "オオサカシキタク",
    "town": "梅田",
    "town_kana": "ウメダ",
    "street": "３−３−２０明治安田生命大阪梅田ビル",
    "office_name": "大阪府中小企業信用保証協会",
    "office_name_kana": "オオサカフチユウシヨウキギヨウシンヨウホシヨウキヨウカイ"
  },
  "8215": {
    "postcode": "5308215",
    "prefecture": "大阪府",
    "prefecture_kana": "オオサカフ",
    "prefecture_code": 27,
    "city": "大阪市北区",
    "city_kana": "オオサカシキタク",
    "town": "梅田",
    "town_kana": "ウメダ",
    "street": "３丁目４番５号１５階・１６階",
    "office_name": "株式会社　エイチ・アイ・エス",
    "office_name_kana": "カブシキガイシヤ エイチ・アイ・エス"
  },
  "8216": {
    "postcode": "5308216",
    "prefecture": "大阪府",
    "prefecture_kana": "オオサカフ",
    "prefecture_code": 27,
    "city": "大阪市北区",
    "city_kana": "オオサカシキタク",
    "town": "梅田",
    "town_kana": "ウメダ",
    "street": "１−２−２−７００大阪駅前第２ビル７階",
    "office_name": "大阪市　梅田市税事務所",
    "office_name_kana": "オオサカシ ウメダシゼイジムシヨ"
  },
  "8217": {
    "postcode": "5308217",
    "prefecture": "大阪府",
    "prefecture_kana": "オオサカフ",
    "prefecture_code": 27,
    "city": "大阪市北区",
    "city_kana": "オオサカシキタク",
    "town": "梅田",
    "town_kana": "ウメダ",
    "street": "３−１−３",
    "office_name": "ＪＲ西日本ＳＣ開発　株式会社（ＬＵＣＵＡ）",
    "office_name_kana": "ジエイア-ルニシニホンエスシ-カイハツ カブシキガイシヤ(ルクア)"
  },
  "8218": {
    "postcode": "5308218",
    "prefecture": "大阪府",
    "prefecture_kana": "オオサカフ",
    "prefecture_code": 27,
    "city": "大阪市北区",
    "city_kana": "オオサカシキタク",
    "town": "天神橋",
    "town_kana": "テンジンバシ",
    "street": "６−４−２０住まい情報センター４階",
    "office_name": "大阪市都市整備局　住宅支援受付窓口",
    "office_name_kana": "オオサカシトシセイビキヨク ジユウタクシエンウケツケマドグチ"
  },
  "8221": {
    "postcode": "5308221",
    "prefecture": "大阪府",
    "prefecture_kana": "オオサカフ",
    "prefecture_code": 27,
    "city": "大阪市北区",
    "city_kana": "オオサカシキタク",
    "town": "梅田",
    "town_kana": "ウメダ",
    "street": "１丁目１−３−２５００",
    "office_name": "株式会社　フェリシモ",
    "office_name_kana": "カブシキガイシヤ フエリシモ"
  },
  "8222": {
    "postcode": "5308222",
    "prefecture": "大阪府",
    "prefecture_kana": "オオサカフ",
    "prefecture_code": 27,
    "city": "大阪市北区",
    "city_kana": "オオサカシキタク",
    "town": "中之島",
    "town_kana": "ナカノシマ",
    "street": "３丁目３−３",
    "office_name": "東レ　株式会社　大阪本社",
    "office_name_kana": "ト-レ カブシキガイシヤ オオサカホンシヤ"
  },
  "8224": {
    "postcode": "5308224",
    "prefecture": "大阪府",
    "prefecture_kana": "オオサカフ",
    "prefecture_code": 27,
    "city": "大阪市北区",
    "city_kana": "オオサカシキタク",
    "town": "梅田",
    "town_kana": "ウメダ",
    "street": "１丁目１３−１３",
    "office_name": "株式会社　阪急阪神百貨店　阪神梅田本店",
    "office_name_kana": "カブシキガイシヤ ハンキユウハンシンヒヤツカテン ハンシンウメダホンテン"
  },
  "8226": {
    "postcode": "5308226",
    "prefecture": "大阪府",
    "prefecture_kana": "オオサカフ",
    "prefecture_code": 27,
    "city": "大阪市北区",
    "city_kana": "オオサカシキタク",
    "town": "中之島",
    "town_kana": "ナカノシマ",
    "street": "３丁目６番１６号関電ビルディング１３Ｆ",
    "office_name": "株式会社　関電システムズ",
    "office_name_kana": "カブシキガイシヤ カンデンシステムズ"
  },
  "8227": {
    "postcode": "5308227",
    "prefecture": "大阪府",
    "prefecture_kana": "オオサカフ",
    "prefecture_code": 27,
    "city": "大阪市北区",
    "city_kana": "オオサカシキタク",
    "town": "梅田",
    "town_kana": "ウメダ",
    "street": "１丁目２−２−９００",
    "office_name": "プロミス　株式会社",
    "office_name_kana": "プロミス カブシキガイシヤ"
  },
  "8228": {
    "postcode": "5308228",
    "prefecture": "大阪府",
    "prefecture_kana": "オオサカフ",
    "prefecture_code": 27,
    "city": "大阪市北区",
    "city_kana": "オオサカシキタク",
    "town": "中之島",
    "town_kana": "ナカノシマ",
    "street": "３丁目２番４号中之島フェスティバルタワー・ウエスト",
    "office_name": "株式会社　電通　関西支社",
    "office_name_kana": "カブシキガイシヤ デンツウ カンサイシシヤ"
  },
  "8230": {
    "postcode": "5308230",
    "prefecture": "大阪府",
    "prefecture_kana": "オオサカフ",
    "prefecture_code": 27,
    "city": "大阪市北区",
    "city_kana": "オオサカシキタク",
    "town": "堂島浜",
    "town_kana": "ドウジマハマ",
    "street": "２丁目２−８",
    "office_name": "東洋紡績　株式会社",
    "office_name_kana": "トウヨウボウセキ カブシキガイシヤ"
  },
  "8232": {
    "postcode": "5308232",
    "prefecture": "大阪府",
    "prefecture_kana": "オオサカフ",
    "prefecture_code": 27,
    "city": "大阪市北区",
    "city_kana": "オオサカシキタク",
    "town": "梅田",
    "town_kana": "ウメダ",
    "street": "２丁目４番９号",
    "office_name": "サンケイチケットセンター",
    "office_name_kana": "サンケイチケツトセンタ-"
  },
  "8234": {
    "postcode": "5308234",
    "prefecture": "大阪府",
    "prefecture_kana": "オオサカフ",
    "prefecture_code": 27,
    "city": "大阪市北区",
    "city_kana": "オオサカシキタク",
    "town": "堂島",
    "town_kana": "ドウジマ",
    "street": "１丁目１−２５",
    "office_name": "山発産業　株式会社",
    "office_name_kana": "ヤマハツサンギヨウ カブシキガイシヤ"
  },
  "8239": {
    "postcode": "5308239",
    "prefecture": "大阪府",
    "prefecture_kana": "オオサカフ",
    "prefecture_code": 27,
    "city": "大阪市北区",
    "city_kana": "オオサカシキタク",
    "town": "梅田",
    "town_kana": "ウメダ",
    "street": "３丁目３−２０",
    "office_name": "オリックス自動車　株式会社",
    "office_name_kana": "オリツクスジドウシヤ カブシキガイシヤ"
  },
  "8240": {
    "postcode": "5308240",
    "prefecture": "大阪府",
    "prefecture_kana": "オオサカフ",
    "prefecture_code": 27,
    "city": "大阪市北区",
    "city_kana": "オオサカシキタク",
    "town": "角田町",
    "town_kana": "カクダチョウ",
    "street": "８番１号梅田阪急ビルオフィスタワー",
    "office_name": "株式会社　リクルートホールディングス",
    "office_name_kana": "カブシキガイシヤ リクル-トホ-ルデイングス"
  },
  "8241": {
    "postcode": "5308241",
    "prefecture": "大阪府",
    "prefecture_kana": "オオサカフ",
    "prefecture_code": 27,
    "city": "大阪市北区",
    "city_kana": "オオサカシキタク",
    "town": "梅田",
    "town_kana": "ウメダ",
    "street": "３丁目３−５",
    "office_name": "大和ハウス工業　株式会社",
    "office_name_kana": "ダイワハウスコウギヨウ カブシキガイシヤ"
  },
  "8245": {
    "postcode": "5308245",
    "prefecture": "大阪府",
    "prefecture_kana": "オオサカフ",
    "prefecture_code": 27,
    "city": "大阪市北区",
    "city_kana": "オオサカシキタク",
    "town": "梅田",
    "town_kana": "ウメダ",
    "street": "３丁目３−２０安田生命大阪ビル１６階",
    "office_name": "オリックス　株式会社",
    "office_name_kana": "オリツクス カブシキガイシヤ"
  },
  "8250": {
    "postcode": "5308250",
    "prefecture": "大阪府",
    "prefecture_kana": "オオサカフ",
    "prefecture_code": 27,
    "city": "大阪市北区",
    "city_kana": "オオサカシキタク",
    "town": "梅田",
    "town_kana": "ウメダ",
    "street": "３丁目３番１０号梅田ダイビル",
    "office_name": "株式会社　富士通ビジネスシステム",
    "office_name_kana": "カブシキガイシヤ フジツウビジネスシステム"
  },
  "8251": {
    "postcode": "5308251",
    "prefecture": "大阪府",
    "prefecture_kana": "オオサカフ",
    "prefecture_code": 27,
    "city": "大阪市北区",
    "city_kana": "オオサカシキタク",
    "town": "梅田",
    "town_kana": "ウメダ",
    "street": "３丁目４−５",
    "office_name": "毎日新聞社",
    "office_name_kana": "マイニチシンブンシヤ"
  },
  "8252": {
    "postcode": "5308252",
    "prefecture": "大阪府",
    "prefecture_kana": "オオサカフ",
    "prefecture_code": 27,
    "city": "大阪市北区",
    "city_kana": "オオサカシキタク",
    "town": "堂島",
    "town_kana": "ドウジマ",
    "street": "一丁目５番３０号",
    "office_name": "住信・パナソニックフィナンシャルサービス　株式会社",
    "office_name_kana": "スミシン・パナソニツクフイナンシヤルサ-ビス (カ"
  },
  "8255": {
    "postcode": "5308255",
    "prefecture": "大阪府",
    "prefecture_kana": "オオサカフ",
    "prefecture_code": 27,
    "city": "大阪市北区",
    "city_kana": "オオサカシキタク",
    "town": "中之島",
    "town_kana": "ナカノシマ",
    "street": "２−３−１８中之島フェスティバルタワー１０階",
    "office_name": "株式会社　アサヒ・ファミリー・ニュース社",
    "office_name_kana": "カブシキガイシヤ アサヒ・フアミリ-・ニユ-スシヤ"
  },
  "8256": {
    "postcode": "5308256",
    "prefecture": "大阪府",
    "prefecture_kana": "オオサカフ",
    "prefecture_code": 27,
    "city": "大阪市北区",
    "city_kana": "オオサカシキタク",
    "town": "梅田",
    "town_kana": "ウメダ",
    "street": "２丁目５−６",
    "office_name": "鐘紡　株式会社",
    "office_name_kana": "カネボウ カブシキガイシヤ"
  },
  "8260": {
    "postcode": "5308260",
    "prefecture": "大阪府",
    "prefecture_kana": "オオサカフ",
    "prefecture_code": 27,
    "city": "大阪市北区",
    "city_kana": "オオサカシキタク",
    "town": "中之島",
    "town_kana": "ナカノシマ",
    "street": "３−２−４中之島フェスティバルタワー・ウエスト",
    "office_name": "キヤノンマーケティングジャパン　株式会社　大阪支店",
    "office_name_kana": "キヤノンマ-ケテイングジヤパン カブシキガイシヤ オオサカシテン"
  },
  "8262": {
    "postcode": "5308262",
    "prefecture": "大阪府",
    "prefecture_kana": "オオサカフ",
    "prefecture_code": 27,
    "city": "大阪市北区",
    "city_kana": "オオサカシキタク",
    "town": "中之島",
    "town_kana": "ナカノシマ",
    "street": "２丁目２−７",
    "office_name": "株式会社　博報堂　関西支社",
    "office_name_kana": "カブシキガイシヤ ハクホウドウ カンサイシシヤ"
  },
  "8263": {
    "postcode": "5308263",
    "prefecture": "大阪府",
    "prefecture_kana": "オオサカフ",
    "prefecture_code": 27,
    "city": "大阪市北区",
    "city_kana": "オオサカシキタク",
    "town": "中之島",
    "town_kana": "ナカノシマ",
    "street": "２丁目２−７",
    "office_name": "株式会社　大広",
    "office_name_kana": "カブシキガイシヤ ダイコウ"
  },
  "8266": {
    "postcode": "5308266",
    "prefecture": "大阪府",
    "prefecture_kana": "オオサカフ",
    "prefecture_code": 27,
    "city": "大阪市北区",
    "city_kana": "オオサカシキタク",
    "town": "西天満",
    "town_kana": "ニシテンマ",
    "street": "１丁目７−２０ＪＩＮ・ＯＲＩＸビル７Ｆ",
    "office_name": "森六ケミカルズ　株式会社　大阪支店",
    "office_name_kana": "モリロクケミカルズ カブシキガイシヤ オオサカシテン"
  },
  "8270": {
    "postcode": "5308270",
    "prefecture": "大阪府",
    "prefecture_kana": "オオサカフ",
    "prefecture_code": 27,
    "city": "大阪市北区",
    "city_kana": "オオサカシキタク",
    "town": "中之島",
    "town_kana": "ナカノシマ",
    "street": "３丁目６−１６",
    "office_name": "関西電力　株式会社",
    "office_name_kana": "カンサイデンリヨク カブシキガイシヤ"
  },
  "8278": {
    "postcode": "5308278",
    "prefecture": "大阪府",
    "prefecture_kana": "オオサカフ",
    "prefecture_code": 27,
    "city": "大阪市北区",
    "city_kana": "オオサカシキタク",
    "town": "梅田",
    "town_kana": "ウメダ",
    "street": "３丁目４−５",
    "office_name": "株式会社　スポーツニッポン新聞社　大阪本社",
    "office_name_kana": "カブシキガイシヤ スポ-ツニツポンシンブンシヤ オオサカホンシヤ"
  },
  "8280": {
    "postcode": "5308280",
    "prefecture": "大阪府",
    "prefecture_kana": "オオサカフ",
    "prefecture_code": 27,
    "city": "大阪市北区",
    "city_kana": "オオサカシキタク",
    "town": "堂島",
    "town_kana": "ドウジマ",
    "street": "１丁目６−２０堂島アバンザ",
    "office_name": "協和発酵キリン　株式会社",
    "office_name_kana": "キヨウワハツコウキリン カブシキガイシヤ"
  },
  "8281": {
    "postcode": "5308281",
    "prefecture": "大阪府",
    "prefecture_kana": "オオサカフ",
    "prefecture_code": 27,
    "city": "大阪市北区",
    "city_kana": "オオサカシキタク",
    "town": "梅田",
    "town_kana": "ウメダ",
    "street": "２丁目５−２５",
    "office_name": "Ｂｅ　Ｈａｐｐｙ！７８９",
    "office_name_kana": "ビ- ハツピ-!789"
  },
  "8282": {
    "postcode": "5308282",
    "prefecture": "大阪府",
    "prefecture_kana": "オオサカフ",
    "prefecture_code": 27,
    "city": "大阪市北区",
    "city_kana": "オオサカシキタク",
    "town": "梅田",
    "town_kana": "ウメダ",
    "street": "３丁目２−１４大弘ビル７階",
    "office_name": "株式会社　日本交通公社　関西営業本部",
    "office_name_kana": "カブシキガイシヤ ニホンコウツウコウシヤ カンサイエイギヨウホンブ"
  },
  "8283": {
    "postcode": "5308283",
    "prefecture": "大阪府",
    "prefecture_kana": "オオサカフ",
    "prefecture_code": 27,
    "city": "大阪市北区",
    "city_kana": "オオサカシキタク",
    "town": "梅田",
    "town_kana": "ウメダ",
    "street": "３丁目４番５号",
    "office_name": "毎日新聞　大阪開発　株式会社",
    "office_name_kana": "マイニチシンブン オオサカカイハツ カブシキガイシヤ"
  },
  "8287": {
    "postcode": "5308287",
    "prefecture": "大阪府",
    "prefecture_kana": "オオサカフ",
    "prefecture_code": 27,
    "city": "大阪市北区",
    "city_kana": "オオサカシキタク",
    "town": "堂島浜",
    "town_kana": "ドウジマハマ",
    "street": "２−２−２８堂島アクシスビル５階",
    "office_name": "（株）　クレハ　大阪営業所",
    "office_name_kana": "(カブ) クレハ オオサカエイギヨウシヨ"
  },
  "8288": {
    "postcode": "5308288",
    "prefecture": "大阪府",
    "prefecture_kana": "オオサカフ",
    "prefecture_code": 27,
    "city": "大阪市北区",
    "city_kana": "オオサカシキタク",
    "town": "中之島",
    "town_kana": "ナカノシマ",
    "street": "二丁目３番１８号",
    "office_name": "株式会社　カネカ",
    "office_name_kana": "カブシキガイシヤ カネカ"
  },
  "8301": {
    "postcode": "5308301",
    "prefecture": "大阪府",
    "prefecture_kana": "オオサカフ",
    "prefecture_code": 27,
    "city": "大阪市北区",
    "city_kana": "オオサカシキタク",
    "town": "小松原町",
    "town_kana": "コマツバラチョウ",
    "street": "１−７",
    "office_name": "武富士　梅田支店",
    "office_name_kana": "タケフジ ウメダシテン"
  },
  "8304": [
    {
      "postcode": "5308304",
      "prefecture": "大阪府",
      "prefecture_kana": "オオサカフ",
      "prefecture_code": 27,
      "city": "大阪市北区",
      "city_kana": "オオサカシキタク",
      "town": "茶屋町",
      "town_kana": "チャヤマチ",
      "street": "１７番１号",
      "office_name": "株式会社　ＭＢＳメディアホールディングス",
      "office_name_kana": "カブシキガイシヤ エムビ-エスメデイアホ-ルデイングス"
    },
    {
      "postcode": "5308304",
      "prefecture": "大阪府",
      "prefecture_kana": "オオサカフ",
      "prefecture_code": 27,
      "city": "大阪市北区",
      "city_kana": "オオサカシキタク",
      "town": "茶屋町",
      "town_kana": "チャヤマチ",
      "street": "１７番１号",
      "office_name": "株式会社　ＭＢＳラジオ",
      "office_name_kana": "カブシキガイシヤ エムビ-エスラジオ"
    },
    {
      "postcode": "5308304",
      "prefecture": "大阪府",
      "prefecture_kana": "オオサカフ",
      "prefecture_code": 27,
      "city": "大阪市北区",
      "city_kana": "オオサカシキタク",
      "town": "茶屋町",
      "town_kana": "チャヤマチ",
      "street": "１７−１",
      "office_name": "株式会社　毎日放送",
      "office_name_kana": "カブシキガイシヤ マイニチホウソウ"
    }
  ],
  "8308": {
    "postcode": "5308308",
    "prefecture": "大阪府",
    "prefecture_kana": "オオサカフ",
    "prefecture_code": 27,
    "city": "大阪市北区",
    "city_kana": "オオサカシキタク",
    "town": "豊崎",
    "town_kana": "トヨサキ",
    "street": "３丁目２０番１２号パールグレイビル７Ｆ",
    "office_name": "株式会社　ダイワエクシード",
    "office_name_kana": "カブシキガイシヤ ダイワエクシ-ド"
  },
  "8310": {
    "postcode": "5308310",
    "prefecture": "大阪府",
    "prefecture_kana": "オオサカフ",
    "prefecture_code": 27,
    "city": "大阪市北区",
    "city_kana": "オオサカシキタク",
    "town": "芝田",
    "town_kana": "シバタ",
    "street": "１丁目１番３５号",
    "office_name": "大阪新阪急ホテル",
    "office_name_kana": "オオサカシンハンキユウホテル"
  },
  "8318": {
    "postcode": "5308318",
    "prefecture": "大阪府",
    "prefecture_kana": "オオサカフ",
    "prefecture_code": 27,
    "city": "大阪市北区",
    "city_kana": "オオサカシキタク",
    "town": "堂島",
    "town_kana": "ドウジマ",
    "street": "１丁目６番２０号",
    "office_name": "ＪＦＥ商事　株式会社",
    "office_name_kana": "ジエイエフイ-シヨウジ カブシキガイシヤ"
  },
  "8321": {
    "postcode": "5308321",
    "prefecture": "大阪府",
    "prefecture_kana": "オオサカフ",
    "prefecture_code": 27,
    "city": "大阪市北区",
    "city_kana": "オオサカシキタク",
    "town": "鶴野町",
    "town_kana": "ツルノチョウ",
    "street": "１番９号",
    "office_name": "ヤンマーアグリジャパン　株式会社",
    "office_name_kana": "ヤンマ-アグリジヤパン カブシキガイシヤ"
  },
  "8322": {
    "postcode": "5308322",
    "prefecture": "大阪府",
    "prefecture_kana": "オオサカフ",
    "prefecture_code": 27,
    "city": "大阪市北区",
    "city_kana": "オオサカシキタク",
    "town": "中崎西",
    "town_kana": "ナカザキニシ",
    "street": "２丁目４−１２",
    "office_name": "グンゼ　株式会社",
    "office_name_kana": "グンゼ カブシキガイシヤ"
  },
  "8323": {
    "postcode": "5308323",
    "prefecture": "大阪府",
    "prefecture_kana": "オオサカフ",
    "prefecture_code": 27,
    "city": "大阪市北区",
    "city_kana": "オオサカシキタク",
    "town": "中崎西",
    "town_kana": "ナカザキニシ",
    "street": "２丁目４−１２",
    "office_name": "ダイキン工業　株式会社　本社",
    "office_name_kana": "ダイキンコウギヨウ カブシキガイシヤ ホンシヤ"
  },
  "8324": {
    "postcode": "5308324",
    "prefecture": "大阪府",
    "prefecture_kana": "オオサカフ",
    "prefecture_code": 27,
    "city": "大阪市北区",
    "city_kana": "オオサカシキタク",
    "town": "中崎西",
    "town_kana": "ナカザキニシ",
    "street": "２丁目３−１",
    "office_name": "マルニ　株式会社",
    "office_name_kana": "マルニ カブシキガイシヤ"
  },
  "8327": {
    "postcode": "5308327",
    "prefecture": "大阪府",
    "prefecture_kana": "オオサカフ",
    "prefecture_code": 27,
    "city": "大阪市北区",
    "city_kana": "オオサカシキタク",
    "town": "鶴野町",
    "town_kana": "ツルノチョウ",
    "street": "２−１２",
    "office_name": "大阪府　社会保険診療報酬支払基金",
    "office_name_kana": "オオサカフ シヤカイホケンシンリヨウホウシユウシハライキキン"
  },
  "8333": {
    "postcode": "5308333",
    "prefecture": "大阪府",
    "prefecture_kana": "オオサカフ",
    "prefecture_code": 27,
    "city": "大阪市北区",
    "city_kana": "オオサカシキタク",
    "town": "中崎西",
    "town_kana": "ナカザキニシ",
    "street": "２丁目４−１２",
    "office_name": "関西セルラー電話　株式会社",
    "office_name_kana": "カンサイセルラ-デンワ カブシキガイシヤ"
  },
  "8334": {
    "postcode": "5308334",
    "prefecture": "大阪府",
    "prefecture_kana": "オオサカフ",
    "prefecture_code": 27,
    "city": "大阪市北区",
    "city_kana": "オオサカシキタク",
    "town": "中之島",
    "town_kana": "ナカノシマ",
    "street": "二丁目３番１８号中之島フェスティバルタワー９階",
    "office_name": "株式会社　日刊スポーツ新聞西日本",
    "office_name_kana": "カブシキガイシヤ ニツカンスポ-ツシンブンニシニホン"
  },
  "8338": {
    "postcode": "5308338",
    "prefecture": "大阪府",
    "prefecture_kana": "オオサカフ",
    "prefecture_code": 27,
    "city": "大阪市北区",
    "city_kana": "オオサカシキタク",
    "town": "中之島",
    "town_kana": "ナカノシマ",
    "street": "３丁目２番１８号住友中之島ビル１３階",
    "office_name": "株式会社　ウィルコム",
    "office_name_kana": "カブシキガイシヤ ウイルコム"
  },
  "8341": {
    "postcode": "5308341",
    "prefecture": "大阪府",
    "prefecture_kana": "オオサカフ",
    "prefecture_code": 27,
    "city": "大阪市北区",
    "city_kana": "オオサカシキタク",
    "town": "芝田",
    "town_kana": "シバタ",
    "street": "２丁目４−２４",
    "office_name": "西日本旅客鉄道　株式会社",
    "office_name_kana": "ニシニホンリヨカクテツドウ カブシキガイシヤ"
  },
  "8346": {
    "postcode": "5308346",
    "prefecture": "大阪府",
    "prefecture_kana": "オオサカフ",
    "prefecture_code": 27,
    "city": "大阪市北区",
    "city_kana": "オオサカシキタク",
    "town": "中之島",
    "town_kana": "ナカノシマ",
    "street": "１丁目３番２０号",
    "office_name": "大阪市役所内郵送事務処理センター",
    "office_name_kana": "オオサカシヤクシヨナイユウソウジムシヨリセンタ-"
  },
  "8350": {
    "postcode": "5308350",
    "prefecture": "大阪府",
    "prefecture_kana": "オオサカフ",
    "prefecture_code": 27,
    "city": "大阪市北区",
    "city_kana": "オオサカシキタク",
    "town": "角田町",
    "town_kana": "カクダチョウ",
    "street": "８−７",
    "office_name": "株式会社　阪急百貨店",
    "office_name_kana": "カブシキガイシヤ ハンキユウヒヤツカテン"
  },
  "8353": {
    "postcode": "5308353",
    "prefecture": "大阪府",
    "prefecture_kana": "オオサカフ",
    "prefecture_code": 27,
    "city": "大阪市北区",
    "city_kana": "オオサカシキタク",
    "town": "堂島",
    "town_kana": "ドウジマ",
    "street": "１丁目６番２０号",
    "office_name": "ＪＦＥスチール　株式会社　大阪支社",
    "office_name_kana": "ジエイエフイ-スチ-ル カブシキガイシヤ オオサカシシヤ"
  },
  "8355": {
    "postcode": "5308355",
    "prefecture": "大阪府",
    "prefecture_kana": "オオサカフ",
    "prefecture_code": 27,
    "city": "大阪市北区",
    "city_kana": "オオサカシキタク",
    "town": "梅田",
    "town_kana": "ウメダ",
    "street": "二丁目５番２５号ハービスＯＳＡＫＡ",
    "office_name": "株式会社　阪急交通社　トラピックス",
    "office_name_kana": "カブシキガイシヤ ハンキユウコウツウシヤ トラピツクス"
  },
  "8383": {
    "postcode": "5308383",
    "prefecture": "大阪府",
    "prefecture_kana": "オオサカフ",
    "prefecture_code": 27,
    "city": "大阪市北区",
    "city_kana": "オオサカシキタク",
    "town": "角田町",
    "town_kana": "カクダチョウ",
    "street": "８−４７",
    "office_name": "株式会社　阪急交通社",
    "office_name_kana": "カブシキガイシヤ ハンキユウコウツウシヤ"
  },
  "8388": {
    "postcode": "5308388",
    "prefecture": "大阪府",
    "prefecture_kana": "オオサカフ",
    "prefecture_code": 27,
    "city": "大阪市北区",
    "city_kana": "オオサカシキタク",
    "town": "芝田",
    "town_kana": "シバタ",
    "street": "２丁目３−１４",
    "office_name": "株式会社　大阪梅田秘書センター",
    "office_name_kana": "カ) オオサカウメダヒシヨセンタ-"
  },
  "8389": {
    "postcode": "5308389",
    "prefecture": "大阪府",
    "prefecture_kana": "オオサカフ",
    "prefecture_code": 27,
    "city": "大阪市北区",
    "city_kana": "オオサカシキタク",
    "town": "芝田",
    "town_kana": "シバタ",
    "street": "１丁目１６−１",
    "office_name": "阪急電鉄　株式会社",
    "office_name_kana": "ハンキユウデンテツ カブシキガイシヤ"
  },
  "8401": {
    "postcode": "5308401",
    "prefecture": "大阪府",
    "prefecture_kana": "オオサカフ",
    "prefecture_code": 27,
    "city": "大阪市北区",
    "city_kana": "オオサカシキタク",
    "town": "扇町",
    "town_kana": "オウギマチ",
    "street": "２丁目１番２７号",
    "office_name": "大阪市北区役所",
    "office_name_kana": "オオサカシキタクヤクシヨ"
  },
  "8402": {
    "postcode": "5308402",
    "prefecture": "大阪府",
    "prefecture_kana": "オオサカフ",
    "prefecture_code": 27,
    "city": "大阪市北区",
    "city_kana": "オオサカシキタク",
    "town": "万歳町",
    "town_kana": "バンザイチョウ",
    "street": "３−２５",
    "office_name": "ヤマヒサ",
    "office_name_kana": "ヤマヒサ"
  },
  "8408": {
    "postcode": "5308408",
    "prefecture": "大阪府",
    "prefecture_kana": "オオサカフ",
    "prefecture_code": 27,
    "city": "大阪市北区",
    "city_kana": "オオサカシキタク",
    "town": "扇町",
    "town_kana": "オウギマチ",
    "street": "２丁目１番７号",
    "office_name": "関西テレビ放送　株式会社",
    "office_name_kana": "カンサイテレビホウソウ カブシキガイシヤ"
  },
  "8410": {
    "postcode": "5308410",
    "prefecture": "大阪府",
    "prefecture_kana": "オオサカフ",
    "prefecture_code": 27,
    "city": "大阪市北区",
    "city_kana": "オオサカシキタク",
    "town": "同心",
    "town_kana": "ドウシン",
    "street": "１丁目４−３１",
    "office_name": "株式会社　千趣会",
    "office_name_kana": "カブシキガイシヤ センシユカイ"
  },
  "8411": {
    "postcode": "5308411",
    "prefecture": "大阪府",
    "prefecture_kana": "オオサカフ",
    "prefecture_code": 27,
    "city": "大阪市北区",
    "city_kana": "オオサカシキタク",
    "town": "中崎西",
    "town_kana": "ナカザキニシ",
    "street": "２丁目４番１２号梅田センタービル２８階",
    "office_name": "高圧ガス工業　株式会社",
    "office_name_kana": "コウアツガスコウギヨウ カブシキガイシヤ"
  },
  "8415": {
    "postcode": "5308415",
    "prefecture": "大阪府",
    "prefecture_kana": "オオサカフ",
    "prefecture_code": 27,
    "city": "大阪市北区",
    "city_kana": "オオサカシキタク",
    "town": "茶屋町",
    "town_kana": "チャヤマチ",
    "street": "１９番１９号",
    "office_name": "東宝　株式会社",
    "office_name_kana": "トウホウ カブシキガイシヤ"
  },
  "8441": {
    "postcode": "5308441",
    "prefecture": "大阪府",
    "prefecture_kana": "オオサカフ",
    "prefecture_code": 27,
    "city": "大阪市北区",
    "city_kana": "オオサカシキタク",
    "town": "梅田",
    "town_kana": "ウメダ",
    "street": "１丁目２番２−９００号",
    "office_name": "コモライフ　株式会社",
    "office_name_kana": "コモライフ カブシキガイシヤ"
  },
  "8448": {
    "postcode": "5308448",
    "prefecture": "大阪府",
    "prefecture_kana": "オオサカフ",
    "prefecture_code": 27,
    "city": "大阪市北区",
    "city_kana": "オオサカシキタク",
    "town": "梅田",
    "town_kana": "ウメダ",
    "street": "３丁目１−３",
    "office_name": "伊藤忠商事　株式会社",
    "office_name_kana": "イトウチユウシヨウジ カブシキガイシヤ"
  },
  "8475": {
    "postcode": "5308475",
    "prefecture": "大阪府",
    "prefecture_kana": "オオサカフ",
    "prefecture_code": 27,
    "city": "大阪市北区",
    "city_kana": "オオサカシキタク",
    "town": "堂島浜",
    "town_kana": "ドウジマハマ",
    "street": "１丁目４−４アクア堂島東館２Ｆ",
    "office_name": "ぴあ　株式会社　関西支社",
    "office_name_kana": "ピア カブシキガイシヤ カンサイシシヤ"
  },
  "8480": {
    "postcode": "5308480",
    "prefecture": "大阪府",
    "prefecture_kana": "オオサカフ",
    "prefecture_code": 27,
    "city": "大阪市北区",
    "city_kana": "オオサカシキタク",
    "town": "扇町",
    "town_kana": "オウギマチ",
    "street": "２丁目４番２０号",
    "office_name": "大阪北野病院",
    "office_name_kana": "オオサカキタノビヨウイン"
  },
  "8501": {
    "postcode": "5308501",
    "prefecture": "大阪府",
    "prefecture_kana": "オオサカフ",
    "prefecture_code": 27,
    "city": "大阪市北区",
    "city_kana": "オオサカシキタク",
    "town": "梅田",
    "town_kana": "ウメダ",
    "street": "３丁目１番３号",
    "office_name": "弁護士法人　みお綜合法律事務所",
    "office_name_kana": "ベンゴシホウジン ミオソウゴウホウリツジムシヨ"
  },
  "8504": {
    "postcode": "5308504",
    "prefecture": "大阪府",
    "prefecture_kana": "オオサカフ",
    "prefecture_code": 27,
    "city": "大阪市北区",
    "city_kana": "オオサカシキタク",
    "town": "松ケ枝町",
    "town_kana": "マツガエチョウ",
    "street": "１−３９東天満エンビィビル６Ｆ",
    "office_name": "株式会社　エスペランス",
    "office_name_kana": "カブシキガイシヤ エスペランス"
  },
  "8506": {
    "postcode": "5308506",
    "prefecture": "大阪府",
    "prefecture_kana": "オオサカフ",
    "prefecture_code": 27,
    "city": "大阪市北区",
    "city_kana": "オオサカシキタク",
    "town": "堂島浜",
    "town_kana": "ドウジマハマ",
    "street": "２丁目１番２９号",
    "office_name": "関西電力　株式会社",
    "office_name_kana": "カンサイデンリヨク カブシキガイシヤ"
  },
  "8507": {
    "postcode": "5308507",
    "prefecture": "大阪府",
    "prefecture_kana": "オオサカフ",
    "prefecture_code": 27,
    "city": "大阪市北区",
    "city_kana": "オオサカシキタク",
    "town": "梅田",
    "town_kana": "ウメダ",
    "street": "三丁目２番２号ＪＰタワー大阪１３階",
    "office_name": "全国健康保険協会　大阪支部",
    "office_name_kana": "ゼンコクケンコウホケンキヨウカイ オオサカシブ"
  },
  "8511": {
    "postcode": "5308511",
    "prefecture": "大阪府",
    "prefecture_kana": "オオサカフ",
    "prefecture_code": 27,
    "city": "大阪市北区",
    "city_kana": "オオサカシキタク",
    "town": "天満",
    "town_kana": "テンマ",
    "street": "１丁目２０−５",
    "office_name": "象印マホービン　株式会社",
    "office_name_kana": "ゾウジルシマホ-ビン カブシキガイシヤ"
  },
  "8512": {
    "postcode": "5308512",
    "prefecture": "大阪府",
    "prefecture_kana": "オオサカフ",
    "prefecture_code": 27,
    "city": "大阪市北区",
    "city_kana": "オオサカシキタク",
    "town": "野崎町",
    "town_kana": "ノザキチョウ",
    "street": "５−９読売大阪ビル８階",
    "office_name": "株式会社　読売情報開発大阪",
    "office_name_kana": "カブシキガイシヤ ヨミウリジヨウホウカイハツオオサカ"
  },
  "8513": {
    "postcode": "5308513",
    "prefecture": "大阪府",
    "prefecture_kana": "オオサカフ",
    "prefecture_code": 27,
    "city": "大阪市北区",
    "city_kana": "オオサカシキタク",
    "town": "天満",
    "town_kana": "テンマ",
    "street": "１丁目１１−１",
    "office_name": "三ツワ理化学工業　株式会社",
    "office_name_kana": "ミツワリカガクコウギヨウ カブシキガイシヤ"
  },
  "8517": {
    "postcode": "5308517",
    "prefecture": "大阪府",
    "prefecture_kana": "オオサカフ",
    "prefecture_code": 27,
    "city": "大阪市北区",
    "city_kana": "オオサカシキタク",
    "town": "梅田",
    "town_kana": "ウメダ",
    "street": "３丁目４−５",
    "office_name": "株式会社　鴻池組　大阪本店",
    "office_name_kana": "カブシキガイシヤ コウノイケグミ オオサカホンテン"
  },
  "8521": {
    "postcode": "5308521",
    "prefecture": "大阪府",
    "prefecture_kana": "オオサカフ",
    "prefecture_code": 27,
    "city": "大阪市北区",
    "city_kana": "オオサカシキタク",
    "town": "西天満",
    "town_kana": "ニシテンマ",
    "street": "２丁目１−１０",
    "office_name": "大阪高等裁判所",
    "office_name_kana": "オオサカコウトウサイバンシヨ"
  },
  "8522": {
    "postcode": "5308522",
    "prefecture": "大阪府",
    "prefecture_kana": "オオサカフ",
    "prefecture_code": 27,
    "city": "大阪市北区",
    "city_kana": "オオサカシキタク",
    "town": "西天満",
    "town_kana": "ニシテンマ",
    "street": "２丁目１−１０",
    "office_name": "大阪地方裁判所",
    "office_name_kana": "オオサカチホウサイバンシヨ"
  },
  "8523": {
    "postcode": "5308523",
    "prefecture": "大阪府",
    "prefecture_kana": "オオサカフ",
    "prefecture_code": 27,
    "city": "大阪市北区",
    "city_kana": "オオサカシキタク",
    "town": "西天満",
    "town_kana": "ニシテンマ",
    "street": "２丁目１−１０",
    "office_name": "大阪簡易裁判所",
    "office_name_kana": "オオサカカンイサイバンシヨ"
  },
  "8531": {
    "postcode": "5308531",
    "prefecture": "大阪府",
    "prefecture_kana": "オオサカフ",
    "prefecture_code": 27,
    "city": "大阪市北区",
    "city_kana": "オオサカシキタク",
    "town": "野崎町",
    "town_kana": "ノザキチョウ",
    "street": "７番１６号",
    "office_name": "関西フエルトファブリック　株式会社",
    "office_name_kana": "カンサイフエルトフアブリツク カブシキガイシヤ"
  },
  "8535": {
    "postcode": "5308535",
    "prefecture": "大阪府",
    "prefecture_kana": "オオサカフ",
    "prefecture_code": 27,
    "city": "大阪市北区",
    "city_kana": "オオサカシキタク",
    "town": "東天満",
    "town_kana": "ヒガシテンマ",
    "street": "１丁目１１−１９",
    "office_name": "デュプロ　（株）",
    "office_name_kana": "デユプロ (カブ)"
  },
  "8544": {
    "postcode": "5308544",
    "prefecture": "大阪府",
    "prefecture_kana": "オオサカフ",
    "prefecture_code": 27,
    "city": "大阪市北区",
    "city_kana": "オオサカシキタク",
    "town": "天満橋",
    "town_kana": "テンマバシ",
    "street": "１丁目８番３０号ＯＡＰタワー１４階",
    "office_name": "国分　株式会社　近畿支社",
    "office_name_kana": "コクブ カブシキガイシヤ キンキシシヤ"
  },
  "8550": {
    "postcode": "5308550",
    "prefecture": "大阪府",
    "prefecture_kana": "オオサカフ",
    "prefecture_code": 27,
    "city": "大阪市北区",
    "city_kana": "オオサカシキタク",
    "town": "天神橋",
    "town_kana": "テンジンバシ",
    "street": "３丁目５番６号",
    "office_name": "エスペック　株式会社",
    "office_name_kana": "エスペツク カブシキガイシヤ"
  },
  "8551": {
    "postcode": "5308551",
    "prefecture": "大阪府",
    "prefecture_kana": "オオサカフ",
    "prefecture_code": 27,
    "city": "大阪市北区",
    "city_kana": "オオサカシキタク",
    "town": "野崎町",
    "town_kana": "ノザキチョウ",
    "street": "５番９号",
    "office_name": "株式会社　読売新聞　大阪本社",
    "office_name_kana": "カブシキガイシヤ ヨミウリシンブン オオサカホンシヤ"
  },
  "8552": {
    "postcode": "5308552",
    "prefecture": "大阪府",
    "prefecture_kana": "オオサカフ",
    "prefecture_code": 27,
    "city": "大阪市北区",
    "city_kana": "オオサカシキタク",
    "town": "大深町",
    "town_kana": "オオフカチョウ",
    "street": "４−２０グランフロント大阪タワーＡ２５Ｆ",
    "office_name": "参天製薬　株式会社",
    "office_name_kana": "サンテンセイヤク カブシキガイシヤ"
  },
  "8553": {
    "postcode": "5308553",
    "prefecture": "大阪府",
    "prefecture_kana": "オオサカフ",
    "prefecture_code": 27,
    "city": "大阪市北区",
    "city_kana": "オオサカシキタク",
    "town": "梅田",
    "town_kana": "ウメダ",
    "street": "１丁目１３番１号",
    "office_name": "交洋貿易　株式会社",
    "office_name_kana": "コウヨウボウエキ カブシキガイシヤ"
  },
  "8555": {
    "postcode": "5308555",
    "prefecture": "大阪府",
    "prefecture_kana": "オオサカフ",
    "prefecture_code": 27,
    "city": "大阪市北区",
    "city_kana": "オオサカシキタク",
    "town": "西天満",
    "town_kana": "ニシテンマ",
    "street": "４丁目１５番１０号",
    "office_name": "ニッセイ同和損害保険　株式会社",
    "office_name_kana": "ニツセイドウワソンガイホケン カブシキガイシヤ"
  },
  "8556": {
    "postcode": "5308556",
    "prefecture": "大阪府",
    "prefecture_kana": "オオサカフ",
    "prefecture_code": 27,
    "city": "大阪市北区",
    "city_kana": "オオサカシキタク",
    "town": "曽根崎",
    "town_kana": "ソネザキ",
    "street": "２丁目２−１全柔協会館梅新ビル",
    "office_name": "全国柔整師協会",
    "office_name_kana": "ゼンコクジユウセイシキヨウカイ"
  },
  "8558": {
    "postcode": "5308558",
    "prefecture": "大阪府",
    "prefecture_kana": "オオサカフ",
    "prefecture_code": 27,
    "city": "大阪市北区",
    "city_kana": "オオサカシキタク",
    "town": "梅田",
    "town_kana": "ウメダ",
    "street": "３−１−３",
    "office_name": "ＪＲ西日本ＳＣ開発　株式会社（ＬＵＣＵＡ　１１００（ルクア　イーレ））",
    "office_name_kana": "ジエイアールニシニホンエスシーカイハツ カブシキガイシヤ(ルクアイーレ)"
  },
  "8560": {
    "postcode": "5308560",
    "prefecture": "大阪府",
    "prefecture_kana": "オオサカフ",
    "prefecture_code": 27,
    "city": "大阪市北区",
    "city_kana": "オオサカシキタク",
    "town": "天神橋",
    "town_kana": "テンジンバシ",
    "street": "２丁目北２番６号",
    "office_name": "ＦＭ　ＣＯＣＯＬＯ",
    "office_name_kana": "エフエム ココロ"
  },
  "8565": {
    "postcode": "5308565",
    "prefecture": "大阪府",
    "prefecture_kana": "オオサカフ",
    "prefecture_code": 27,
    "city": "大阪市北区",
    "city_kana": "オオサカシキタク",
    "town": "西天満",
    "town_kana": "ニシテンマ",
    "street": "２丁目４−４",
    "office_name": "積水化学工業　株式会社",
    "office_name_kana": "セキスイカガクコウギヨウ カブシキガイシヤ"
  },
  "8566": {
    "postcode": "5308566",
    "prefecture": "大阪府",
    "prefecture_kana": "オオサカフ",
    "prefecture_code": 27,
    "city": "大阪市北区",
    "city_kana": "オオサカシキタク",
    "town": "天満橋",
    "town_kana": "テンマバシ",
    "street": "３丁目３−５",
    "office_name": "中西金属工業　株式会社",
    "office_name_kana": "ナカニシキンゾクコウギヨウ カブシキガイシヤ"
  },
  "8567": {
    "postcode": "5308567",
    "prefecture": "大阪府",
    "prefecture_kana": "オオサカフ",
    "prefecture_code": 27,
    "city": "大阪市北区",
    "city_kana": "オオサカシキタク",
    "town": "梅田",
    "town_kana": "ウメダ",
    "street": "１丁目２−２大阪駅前第２ビル１６階",
    "office_name": "梅田公共職業安定所",
    "office_name_kana": "ウメダコウキヨウシヨクギヨウアンテイシヨ"
  },
  "8568": {
    "postcode": "5308568",
    "prefecture": "大阪府",
    "prefecture_kana": "オオサカフ",
    "prefecture_code": 27,
    "city": "大阪市北区",
    "city_kana": "オオサカシキタク",
    "town": "茶屋町",
    "town_kana": "チャヤマチ",
    "street": "１番４５号",
    "office_name": "学校法人　常翔学園（大阪工業大学　梅田キャンパス）",
    "office_name_kana": "ガツコウホウジン ジヨウシヨウガクエン(オオサカコウギヨウダイガク ウメダキヤンパス)"
  },
  "8573": {
    "postcode": "5308573",
    "prefecture": "大阪府",
    "prefecture_kana": "オオサカフ",
    "prefecture_code": 27,
    "city": "大阪市北区",
    "city_kana": "オオサカシキタク",
    "town": "大深町",
    "town_kana": "オオフカチョウ",
    "street": "３番１号グランフロント大阪タワーＢ",
    "office_name": "ＦＷＤ生命保険　株式会社",
    "office_name_kana": "エフダブリユ-デイ-セイメイホケン カブシキガイシヤ"
  },
  "8574": {
    "postcode": "5308574",
    "prefecture": "大阪府",
    "prefecture_kana": "オオサカフ",
    "prefecture_code": 27,
    "city": "大阪市北区",
    "city_kana": "オオサカシキタク",
    "town": "西天満",
    "town_kana": "ニシテンマ",
    "street": "１丁目２−５大阪ＪＡビル",
    "office_name": "共栄火災海上保険　株式会社",
    "office_name_kana": "キヨウエイカサイカイジヨウホケン カブシキガイシヤ"
  },
  "8575": {
    "postcode": "5308575",
    "prefecture": "大阪府",
    "prefecture_kana": "オオサカフ",
    "prefecture_code": 27,
    "city": "大阪市北区",
    "city_kana": "オオサカシキタク",
    "town": "野崎町",
    "town_kana": "ノザキチョウ",
    "street": "５−９",
    "office_name": "株式会社　日刊現代大阪",
    "office_name_kana": "カブシキガイシヤ ニツカンゲンダイオオサカ"
  },
  "8577": {
    "postcode": "5308577",
    "prefecture": "大阪府",
    "prefecture_kana": "オオサカフ",
    "prefecture_code": 27,
    "city": "大阪市北区",
    "city_kana": "オオサカシキタク",
    "town": "野崎町",
    "town_kana": "ノザキチョウ",
    "street": "９番８号永楽ニッセイビル",
    "office_name": "株式会社　廣済堂",
    "office_name_kana": "カブシキガイシヤ コウサイドウ"
  },
  "8578": {
    "postcode": "5308578",
    "prefecture": "大阪府",
    "prefecture_kana": "オオサカフ",
    "prefecture_code": 27,
    "city": "大阪市北区",
    "city_kana": "オオサカシキタク",
    "town": "西天満",
    "town_kana": "ニシテンマ",
    "street": "４丁目１３番８号",
    "office_name": "（株）　近畿しんきんカード",
    "office_name_kana": "(カブ) キンキシンキンカ-ド"
  },
  "8580": {
    "postcode": "5308580",
    "prefecture": "大阪府",
    "prefecture_kana": "オオサカフ",
    "prefecture_code": 27,
    "city": "大阪市北区",
    "city_kana": "オオサカシキタク",
    "town": "天神橋",
    "town_kana": "テンジンバシ",
    "street": "２丁目北２番６号",
    "office_name": "株式会社　ＦＭ８０２",
    "office_name_kana": "カブシキガイシヤ エフエムハチマルニ"
  },
  "8582": {
    "postcode": "5308582",
    "prefecture": "大阪府",
    "prefecture_kana": "オオサカフ",
    "prefecture_code": 27,
    "city": "大阪市北区",
    "city_kana": "オオサカシキタク",
    "town": "天神橋",
    "town_kana": "テンジンバシ",
    "street": "６丁目４番２０号",
    "office_name": "大阪市住宅供給公社",
    "office_name_kana": "オオサカシジユウタクキヨウキユウコウシヤ"
  },
  "8583": {
    "postcode": "5308583",
    "prefecture": "大阪府",
    "prefecture_kana": "オオサカフ",
    "prefecture_code": 27,
    "city": "大阪市北区",
    "city_kana": "オオサカシキタク",
    "town": "野崎町",
    "town_kana": "ノザキチョウ",
    "street": "６−１森ビル４Ｆ",
    "office_name": "ゲッツ編集部",
    "office_name_kana": "ゲツツヘンシユウブ"
  },
  "8585": {
    "postcode": "5308585",
    "prefecture": "大阪府",
    "prefecture_kana": "オオサカフ",
    "prefecture_code": 27,
    "city": "大阪市北区",
    "city_kana": "オオサカシキタク",
    "town": "南扇町",
    "town_kana": "ミナミオウギマチ",
    "street": "７−１３",
    "office_name": "北　税務署",
    "office_name_kana": "キタ ゼイムシヨ"
  },
  "8586": {
    "postcode": "5308586",
    "prefecture": "大阪府",
    "prefecture_kana": "オオサカフ",
    "prefecture_code": 27,
    "city": "大阪市北区",
    "city_kana": "オオサカシキタク",
    "town": "野崎町",
    "town_kana": "ノザキチョウ",
    "street": "５番９号読売大阪ビル８階",
    "office_name": "株式会社　読売情報開発大阪",
    "office_name_kana": "カブシキガイシヤ ヨミウリジヨウホウカイハツオオサカ"
  },
  "8588": {
    "postcode": "5308588",
    "prefecture": "大阪府",
    "prefecture_kana": "オオサカフ",
    "prefecture_code": 27,
    "city": "大阪市北区",
    "city_kana": "オオサカシキタク",
    "town": "天満",
    "town_kana": "テンマ",
    "street": "１丁目３−２１ニチレイ天満橋ビル",
    "office_name": "株式会社　松村組",
    "office_name_kana": "カブシキガイシヤ マツムラグミ"
  },
  "8601": {
    "postcode": "5308601",
    "prefecture": "大阪府",
    "prefecture_kana": "オオサカフ",
    "prefecture_code": 27,
    "city": "大阪市中央区",
    "city_kana": "オオサカシチュウオウク",
    "town": "今橋",
    "town_kana": "イマバシ",
    "street": "３丁目５−１２（大阪北郵便局私書箱第１号）",
    "office_name": "日本生命保険　相互会社",
    "office_name_kana": "ニホンセイメイホケン ソウゴガイシヤ"
  },
  "8602": {
    "postcode": "5308602",
    "prefecture": "大阪府",
    "prefecture_kana": "オオサカフ",
    "prefecture_code": 27,
    "city": "大阪市北区",
    "city_kana": "オオサカシキタク",
    "town": "梅田",
    "town_kana": "ウメダ",
    "street": "２丁目２番２２号（大阪北郵便局私書箱第２４０号）",
    "office_name": "三菱商事　株式会社",
    "office_name_kana": "ミツビシシヨウジ カブシキガイシヤ"
  },
  "8605": {
    "postcode": "5308605",
    "prefecture": "大阪府",
    "prefecture_kana": "オオサカフ",
    "prefecture_code": 27,
    "city": "大阪市北区",
    "city_kana": "オオサカシキタク",
    "town": "中之島",
    "town_kana": "ナカノシマ",
    "street": "三丁目２番４号",
    "office_name": "帝人グループ",
    "office_name_kana": "テイジングル-プ"
  },
  "8606": {
    "postcode": "5308606",
    "prefecture": "大阪府",
    "prefecture_kana": "オオサカフ",
    "prefecture_code": 27,
    "city": "大阪市北区",
    "city_kana": "オオサカシキタク",
    "town": "中之島",
    "town_kana": "ナカノシマ",
    "street": "３丁目２番４号中之島フェスティバルタワー・ウエスト２１階（大阪北郵便局私書箱第１４号）",
    "office_name": "日鉄物産　株式会社　大阪支社",
    "office_name_kana": "ニツテツブツサン カブシキガイシヤ オオサカシシヤ"
  },
  "8610": {
    "postcode": "5308610",
    "prefecture": "大阪府",
    "prefecture_kana": "オオサカフ",
    "prefecture_code": 27,
    "city": "大阪市中央区",
    "city_kana": "オオサカシチュウオウク",
    "town": "城見",
    "town_kana": "シロミ",
    "street": "２丁目２−３３（大阪北郵便局私書箱第６４６号）",
    "office_name": "読売テレビ放送　株式会社",
    "office_name_kana": "ヨミウリテレビホウソウ カブシキガイシヤ"
  },
  "8611": {
    "postcode": "5308611",
    "prefecture": "大阪府",
    "prefecture_kana": "オオサカフ",
    "prefecture_code": 27,
    "city": "大阪市北区",
    "city_kana": "オオサカシキタク",
    "town": "角田町",
    "town_kana": "カクダチョウ",
    "street": "８番１号",
    "office_name": "株式会社　クラレ",
    "office_name_kana": "カブシキガイシヤ クラレ"
  },
  "8618": {
    "postcode": "5308618",
    "prefecture": "大阪府",
    "prefecture_kana": "オオサカフ",
    "prefecture_code": 27,
    "city": "大阪市北区",
    "city_kana": "オオサカシキタク",
    "town": "中之島",
    "town_kana": "ナカノシマ",
    "street": "２丁目２−２（大阪北郵便局私書箱第１８号）",
    "office_name": "ニチメン　株式会社",
    "office_name_kana": "ニチメン カブシキガイシヤ"
  },
  "8660": {
    "postcode": "5308660",
    "prefecture": "大阪府",
    "prefecture_kana": "オオサカフ",
    "prefecture_code": 27,
    "city": "大阪市北区",
    "city_kana": "オオサカシキタク",
    "town": "中之島",
    "town_kana": "ナカノシマ",
    "street": "２−１−４５",
    "office_name": "日本銀行　大阪支店",
    "office_name_kana": "ニツポンギンコウ オオサカシテン"
  },
  "8680": {
    "postcode": "5308680",
    "prefecture": "大阪府",
    "prefecture_kana": "オオサカフ",
    "prefecture_code": 27,
    "city": "大阪市中央区",
    "city_kana": "オオサカシチュウオウク",
    "town": "北浜",
    "town_kana": "キタハマ",
    "street": "４丁目６−５（大阪北郵便局私書箱第４５号）",
    "office_name": "株式会社　住友銀行　本店",
    "office_name_kana": "カブシキガイシヤ スミトモギンコウ ホンテン"
  },
  "8688": {
    "postcode": "5308688",
    "prefecture": "大阪府",
    "prefecture_kana": "オオサカフ",
    "prefecture_code": 27,
    "city": "大阪市北区",
    "city_kana": "オオサカシキタク",
    "town": "天満",
    "town_kana": "テンマ",
    "street": "２丁目７−１７（大阪北郵便局私書箱第１０５３号）",
    "office_name": "株式会社　ぎょうせい　関西支社",
    "office_name_kana": "カブシキガイシヤ ギヨウセイ カンサイシシヤ"
  },
  "8689": {
    "postcode": "5308689",
    "prefecture": "大阪府",
    "prefecture_kana": "オオサカフ",
    "prefecture_code": 27,
    "city": "大阪市北区",
    "city_kana": "オオサカシキタク",
    "town": "梅田",
    "town_kana": "ウメダ",
    "street": "３−３−１０梅田ダイビル１８階（大阪北郵便局私書箱第４号）",
    "office_name": "双日シェアードサービス　株式会社",
    "office_name_kana": "ソウジツシエア-ドサ-ビス カブシキガイシヤ"
  },
  "8791": {
    "postcode": "5308791",
    "prefecture": "大阪府",
    "prefecture_kana": "オオサカフ",
    "prefecture_code": 27,
    "city": "大阪市北区",
    "city_kana": "オオサカシキタク",
    "town": "梅田",
    "town_kana": "ウメダ",
    "street": "３丁目２−４",
    "office_name": "共通事務センター",
    "office_name_kana": "キヨウツウジムセンタ-"
  },
  "8793": {
    "postcode": "5308793",
    "prefecture": "大阪府",
    "prefecture_kana": "オオサカフ",
    "prefecture_code": 27,
    "city": "大阪市中央区",
    "city_kana": "オオサカシチュウオウク",
    "town": "北浜東",
    "town_kana": "キタハマヒガシ",
    "street": "３番９号",
    "office_name": "日本郵便　株式会社　近畿支社　郵便事業本部　（三種）",
    "office_name_kana": "ニホンユウビン カブシキガイシヤ キンキシシヤ ユウビンジギヨウホンブ (サンシユ)"
  },
  "8796": {
    "postcode": "5308796",
    "prefecture": "大阪府",
    "prefecture_kana": "オオサカフ",
    "prefecture_code": 27,
    "city": "大阪市中央区",
    "city_kana": "オオサカシチュウオウク",
    "town": "北浜東",
    "town_kana": "キタハマヒガシ",
    "street": "３−９",
    "office_name": "大阪監査室",
    "office_name_kana": "オオサカカンサシツ"
  },
  "8797": [
    {
      "postcode": "5308797",
      "prefecture": "大阪府",
      "prefecture_kana": "オオサカフ",
      "prefecture_code": 27,
      "city": "大阪市中央区",
      "city_kana": "オオサカシチュウオウク",
      "town": "北浜東",
      "town_kana": "キタハマヒガシ",
      "street": "３番９号",
      "office_name": "株式会社　ゆうちょ銀行　大阪支店",
      "office_name_kana": "カブシキカイシヤ ユウチヨギンコウ オオサカシテン"
    },
    {
      "postcode": "5308797",
      "prefecture": "大阪府",
      "prefecture_kana": "オオサカフ",
      "prefecture_code": 27,
      "city": "大阪市中央区",
      "city_kana": "オオサカシチュウオウク",
      "town": "北浜東",
      "town_kana": "キタハマヒガシ",
      "street": "３番９号",
      "office_name": "株式会社　かんぽ生命　大阪支店",
      "office_name_kana": "カブシキガイシヤ カンポセイメイ オオサカシテン"
    },
    {
      "postcode": "5308797",
      "prefecture": "大阪府",
      "prefecture_kana": "オオサカフ",
      "prefecture_code": 27,
      "city": "大阪市中央区",
      "city_kana": "オオサカシチュウオウク",
      "town": "北浜東",
      "town_kana": "キタハマヒガシ",
      "street": "３番９号",
      "office_name": "日本郵便　株式会社　近畿支社",
      "office_name_kana": "ニホンユウビン カブシキガイシヤ キンキシシヤ"
    }
  ],
  "8798": {
    "postcode": "5308798",
    "prefecture": "大阪府",
    "prefecture_kana": "オオサカフ",
    "prefecture_code": 27,
    "city": "大阪市北区",
    "city_kana": "オオサカシキタク",
    "town": "中崎",
    "town_kana": "ナカザキ",
    "street": "１丁目１−６",
    "office_name": "大阪北逓信病院",
    "office_name_kana": "オオサカキタテイシンビヨウイン"
  }
}