{
  "0000": {
    "postcode": "5360000",
    "prefecture": "大阪府",
    "prefecture_kana": "オオサカフ",
    "prefecture_code": 27,
    "city": "大阪市城東区",
    "city_kana": "オオサカシジョウトウク",
    "town": "",
    "town_kana": "",
    "street": null,
    "office_name": null,
    "office_name_kana": null
  },
  "0001": {
    "postcode": "5360001",
    "prefecture": "大阪府",
    "prefecture_kana": "オオサカフ",
    "prefecture_code": 27,
    "city": "大阪市城東区",
    "city_kana": "オオサカシジョウトウク",
    "town": "古市",
    "town_kana": "フルイチ",
    "street": null,
    "office_name": null,
    "office_name_kana": null
  },
  "0002": {
    "postcode": "5360002",
    "prefecture": "大阪府",
    "prefecture_kana": "オオサカフ",
    "prefecture_code": 27,
    "city": "大阪市城東区",
    "city_kana": "オオサカシジョウトウク",
    "town": "今福東",
    "town_kana": "イマフクヒガシ",
    "street": null,
    "office_name": null,
    "office_name_kana": null
  },
  "0003": {
    "postcode": "5360003",
    "prefecture": "大阪府",
    "prefecture_kana": "オオサカフ",
    "prefecture_code": 27,
    "city": "大阪市城東区",
    "city_kana": "オオサカシジョウトウク",
    "town": "今福南",
    "town_kana": "イマフクミナミ",
    "street": null,
    "office_name": null,
    "office_name_kana": null
  },
  "0004": {
    "postcode": "5360004",
    "prefecture": "大阪府",
    "prefecture_kana": "オオサカフ",
    "prefecture_code": 27,
    "city": "大阪市城東区",
    "city_kana": "オオサカシジョウトウク",
    "town": "今福西",
    "town_kana": "イマフクニシ",
    "street": null,
    "office_name": null,
    "office_name_kana": null
  },
  "0005": {
    "postcode": "5360005",
    "prefecture": "大阪府",
    "prefecture_kana": "オオサカフ",
    "prefecture_code": 27,
    "city": "大阪市城東区",
    "city_kana": "オオサカシジョウトウク",
    "town": "中央",
    "town_kana": "チュウオウ",
    "street": null,
    "office_name": null,
    "office_name_kana": null
  },
  "0006": {
    "postcode": "5360006",
    "prefecture": "大阪府",
    "prefecture_kana": "オオサカフ",
    "prefecture_code": 27,
    "city": "大阪市城東区",
    "city_kana": "オオサカシジョウトウク",
    "town": "野江",
    "town_kana": "ノエ",
    "street": null,
    "office_name": null,
    "office_name_kana": null
  },
  "0007": {
    "postcode": "5360007",
    "prefecture": "大阪府",
    "prefecture_kana": "オオサカフ",
    "prefecture_code": 27,
    "city": "大阪市城東区",
    "city_kana": "オオサカシジョウトウク",
    "town": "成育",
    "town_kana": "セイイク",
    "street": null,
    "office_name": null,
    "office_name_kana": null
  },
  "0008": {
    "postcode": "5360008",
    "prefecture": "大阪府",
    "prefecture_kana": "オオサカフ",
    "prefecture_code": 27,
    "city": "大阪市城東区",
    "city_kana": "オオサカシジョウトウク",
    "town": "関目",
    "town_kana": "セキメ",
    "street": null,
    "office_name": null,
    "office_name_kana": null
  },
  "0011": {
    "postcode": "5360011",
    "prefecture": "大阪府",
    "prefecture_kana": "オオサカフ",
    "prefecture_code": 27,
    "city": "大阪市城東区",
    "city_kana": "オオサカシジョウトウク",
    "town": "放出西",
    "town_kana": "ハナテンニシ",
    "street": null,
    "office_name": null,
    "office_name_kana": null
  },
  "0012": {
    "postcode": "5360012",
    "prefecture": "大阪府",
    "prefecture_kana": "オオサカフ",
    "prefecture_code": 27,
    "city": "大阪市城東区",
    "city_kana": "オオサカシジョウトウク",
    "town": "天王田",
    "town_kana": "テンノウデン",
    "street": null,
    "office_name": null,
    "office_name_kana": null
  },
  "0013": {
    "postcode": "5360013",
    "prefecture": "大阪府",
    "prefecture_kana": "オオサカフ",
    "prefecture_code": 27,
    "city": "大阪市城東区",
    "city_kana": "オオサカシジョウトウク",
    "town": "鴫野東",
    "town_kana": "シギノヒガシ",
    "street": null,
    "office_name": null,
    "office_name_kana": null
  },
  "0014": {
    "postcode": "5360014",
    "prefecture": "大阪府",
    "prefecture_kana": "オオサカフ",
    "prefecture_code": 27,
    "city": "大阪市城東区",
    "city_kana": "オオサカシジョウトウク",
    "town": "鴫野西",
    "town_kana": "シギノニシ",
    "street": null,
    "office_name": null,
    "office_name_kana": null
  },
  "0015": {
    "postcode": "5360015",
    "prefecture": "大阪府",
    "prefecture_kana": "オオサカフ",
    "prefecture_code": 27,
    "city": "大阪市城東区",
    "city_kana": "オオサカシジョウトウク",
    "town": "新喜多",
    "town_kana": "シギタ",
    "street": null,
    "office_name": null,
    "office_name_kana": null
  },
  "0016": {
    "postcode": "5360016",
    "prefecture": "大阪府",
    "prefecture_kana": "オオサカフ",
    "prefecture_code": 27,
    "city": "大阪市城東区",
    "city_kana": "オオサカシジョウトウク",
    "town": "蒲生",
    "town_kana": "ガモウ",
    "street": null,
    "office_name": null,
    "office_name_kana": null
  },
  "0017": {
    "postcode": "5360017",
    "prefecture": "大阪府",
    "prefecture_kana": "オオサカフ",
    "prefecture_code": 27,
    "city": "大阪市城東区",
    "city_kana": "オオサカシジョウトウク",
    "town": "新喜多東",
    "town_kana": "シギタヒガシ",
    "street": null,
    "office_name": null,
    "office_name_kana": null
  },
  "0021": {
    "postcode": "5360021",
    "prefecture": "大阪府",
    "prefecture_kana": "オオサカフ",
    "prefecture_code": 27,
    "city": "大阪市城東区",
    "city_kana": "オオサカシジョウトウク",
    "town": "諏訪",
    "town_kana": "スワ",
    "street": null,
    "office_name": null,
    "office_name_kana": null
  },
  "0022": {
    "postcode": "5360022",
    "prefecture": "大阪府",
    "prefecture_kana": "オオサカフ",
    "prefecture_code": 27,
    "city": "大阪市城東区",
    "city_kana": "オオサカシジョウトウク",
    "town": "永田",
    "town_kana": "ナガタ",
    "street": null,
    "office_name": null,
    "office_name_kana": null
  },
  "0023": {
    "postcode": "5360023",
    "prefecture": "大阪府",
    "prefecture_kana": "オオサカフ",
    "prefecture_code": 27,
    "city": "大阪市城東区",
    "city_kana": "オオサカシジョウトウク",
    "town": "東中浜",
    "town_kana": "ヒガシナカハマ",
    "street": null,
    "office_name": null,
    "office_name_kana": null
  },
  "0024": {
    "postcode": "5360024",
    "prefecture": "大阪府",
    "prefecture_kana": "オオサカフ",
    "prefecture_code": 27,
    "city": "大阪市城東区",
    "city_kana": "オオサカシジョウトウク",
    "town": "中浜",
    "town_kana": "ナカハマ",
    "street": null,
    "office_name": null,
    "office_name_kana": null
  },
  "0025": {
    "postcode": "5360025",
    "prefecture": "大阪府",
    "prefecture_kana": "オオサカフ",
    "prefecture_code": 27,
    "city": "大阪市城東区",
    "city_kana": "オオサカシジョウトウク",
    "town": "森之宮",
    "town_kana": "モリノミヤ",
    "street": null,
    "office_name": null,
    "office_name_kana": null
  },
  "8501": {
    "postcode": "5368501",
    "prefecture": "大阪府",
    "prefecture_kana": "オオサカフ",
    "prefecture_code": 27,
    "city": "大阪市城東区",
    "city_kana": "オオサカシジョウトウク",
    "town": "中央",
    "town_kana": "チュウオウ",
    "street": "３丁目５番２０号",
    "office_name": "大阪府　なにわ東府税事務所",
    "office_name_kana": "オオサカフ ナニワヒガシフゼイジムシヨ"
  },
  "8503": {
    "postcode": "5368503",
    "prefecture": "大阪府",
    "prefecture_kana": "オオサカフ",
    "prefecture_code": 27,
    "city": "大阪市城東区",
    "city_kana": "オオサカシジョウトウク",
    "town": "東中浜",
    "town_kana": "ヒガシナカハマ",
    "street": "８丁目８−３７",
    "office_name": "株式会社　大丸・城東総合センター",
    "office_name_kana": "カブシキガイシヤ ダイマル・ジヨウトウソウゴウセンタ-"
  },
  "8505": {
    "postcode": "5368505",
    "prefecture": "大阪府",
    "prefecture_kana": "オオサカフ",
    "prefecture_code": 27,
    "city": "大阪市城東区",
    "city_kana": "オオサカシジョウトウク",
    "town": "森之宮",
    "town_kana": "モリノミヤ",
    "street": "２丁目４−４３",
    "office_name": "大阪府赤十字血液センター",
    "office_name_kana": "オオサカフセキジユウジケツエキセンタ-"
  },
  "8508": {
    "postcode": "5368508",
    "prefecture": "大阪府",
    "prefecture_kana": "オオサカフ",
    "prefecture_code": 27,
    "city": "大阪市城東区",
    "city_kana": "オオサカシジョウトウク",
    "town": "関目",
    "town_kana": "セキメ",
    "street": "６丁目１−１７",
    "office_name": "大正製薬　株式会社　大阪支店",
    "office_name_kana": "タイシヨウセイヤク カブシキガイシヤ オオサカシテン"
  },
  "8510": {
    "postcode": "5368510",
    "prefecture": "大阪府",
    "prefecture_kana": "オオサカフ",
    "prefecture_code": 27,
    "city": "大阪市城東区",
    "city_kana": "オオサカシジョウトウク",
    "town": "中央",
    "town_kana": "チュウオウ",
    "street": "３丁目５番４５号",
    "office_name": "大阪市城東区役所",
    "office_name_kana": "オオサカシジヨウトウクヤクシヨ"
  },
  "8522": {
    "postcode": "5368522",
    "prefecture": "大阪府",
    "prefecture_kana": "オオサカフ",
    "prefecture_code": 27,
    "city": "大阪市城東区",
    "city_kana": "オオサカシジョウトウク",
    "town": "森之宮",
    "town_kana": "モリノミヤ",
    "street": "２丁目９−２０４",
    "office_name": "独立行政法人　都市再生機構　西日本支社　大阪住宅管理センター",
    "office_name_kana": "ドクリツギヨウセイホウジン トシサイセイキコウ ニシニホンシシヤ オオサカジユウタクカンリセンタ-"
  },
  "8523": {
    "postcode": "5368523",
    "prefecture": "大阪府",
    "prefecture_kana": "オオサカフ",
    "prefecture_code": 27,
    "city": "大阪市城東区",
    "city_kana": "オオサカシジョウトウク",
    "town": "森之宮",
    "town_kana": "モリノミヤ",
    "street": "２丁目３−１１",
    "office_name": "扶桑薬品工業　株式会社",
    "office_name_kana": "フソウヤクヒンコウギヨウ カブシキガイシヤ"
  },
  "8527": {
    "postcode": "5368527",
    "prefecture": "大阪府",
    "prefecture_kana": "オオサカフ",
    "prefecture_code": 27,
    "city": "大阪市城東区",
    "city_kana": "オオサカシジョウトウク",
    "town": "中央",
    "town_kana": "チュウオウ",
    "street": "２丁目１４−２９",
    "office_name": "城東税務署",
    "office_name_kana": "ジヨウトウゼイムシヨ"
  },
  "8536": {
    "postcode": "5368536",
    "prefecture": "大阪府",
    "prefecture_kana": "オオサカフ",
    "prefecture_code": 27,
    "city": "大阪市城東区",
    "city_kana": "オオサカシジョウトウク",
    "town": "鴫野東",
    "town_kana": "シギノヒガシ",
    "street": "１丁目２−１",
    "office_name": "タカラスタンダード　株式会社",
    "office_name_kana": "タカラスタンダ-ド カブシキガイシヤ"
  },
  "8550": {
    "postcode": "5368550",
    "prefecture": "大阪府",
    "prefecture_kana": "オオサカフ",
    "prefecture_code": 27,
    "city": "大阪市城東区",
    "city_kana": "オオサカシジョウトウク",
    "town": "森之宮",
    "town_kana": "モリノミヤ",
    "street": "１丁目６−８５",
    "office_name": "独立行政法人　都市再生機構　西日本支社",
    "office_name_kana": "ドクリツギヨウセイホウジン トシサイセイキコウ ニシニホンシシヤ"
  },
  "8553": {
    "postcode": "5368553",
    "prefecture": "大阪府",
    "prefecture_kana": "オオサカフ",
    "prefecture_code": 27,
    "city": "大阪市城東区",
    "city_kana": "オオサカシジョウトウク",
    "town": "森之宮",
    "town_kana": "モリノミヤ",
    "street": "１丁目６番５０号",
    "office_name": "大阪産業技術研究所　森之宮センター",
    "office_name_kana": "オオサカサンギヨウギジユツケンキユウシヨ モリノミヤセンタ-"
  },
  "8558": {
    "postcode": "5368558",
    "prefecture": "大阪府",
    "prefecture_kana": "オオサカフ",
    "prefecture_code": 27,
    "city": "大阪市城東区",
    "city_kana": "オオサカシジョウトウク",
    "town": "森之宮",
    "town_kana": "モリノミヤ",
    "street": "１丁目６−１１１",
    "office_name": "ＤｏＣｏＭｏサービス　関西",
    "office_name_kana": "ドコモサ-ビス カンサイ"
  },
  "8567": {
    "postcode": "5368567",
    "prefecture": "大阪府",
    "prefecture_kana": "オオサカフ",
    "prefecture_code": 27,
    "city": "大阪市城東区",
    "city_kana": "オオサカシジョウトウク",
    "town": "鴫野西",
    "town_kana": "シギノニシ",
    "street": "２丁目１１−２",
    "office_name": "大阪府貨物運送健康保険組合",
    "office_name_kana": "オオサカフカモツウンソウケンコウホケンクミアイ"
  },
  "8585": {
    "postcode": "5368585",
    "prefecture": "大阪府",
    "prefecture_kana": "オオサカフ",
    "prefecture_code": 27,
    "city": "大阪市城東区",
    "city_kana": "オオサカシジョウトウク",
    "town": "古市",
    "town_kana": "フルイチ",
    "street": "２丁目７−３０",
    "office_name": "学校法人　大阪信愛女学院",
    "office_name_kana": "ガツコウホウジン オオサカシンアイジヨガクイン"
  },
  "8588": {
    "postcode": "5368588",
    "prefecture": "大阪府",
    "prefecture_kana": "オオサカフ",
    "prefecture_code": 27,
    "city": "大阪市城東区",
    "city_kana": "オオサカシジョウトウク",
    "town": "森之宮",
    "town_kana": "モリノミヤ",
    "street": "１丁目６番１０７号",
    "office_name": "公益財団法人　大阪府保健医療財団　大阪がん循環器病予防センター",
    "office_name_kana": "コウエキザイダンホウジン オオサカフホケンイリヨウザイダン オオサカガンジユンカンキビヨウヨボウセンタ-"
  },
  "8686": {
    "postcode": "5368686",
    "prefecture": "大阪府",
    "prefecture_kana": "オオサカフ",
    "prefecture_code": 27,
    "city": "大阪市城東区",
    "city_kana": "オオサカシジョウトウク",
    "town": "今福西",
    "town_kana": "イマフクニシ",
    "street": "２丁目４−７（大阪城東郵便局私書箱第２号）",
    "office_name": "牛乳石鹸共進社　株式会社",
    "office_name_kana": "ギユウニユウセツケンキヨウシンシヤ カブシキガイシヤ"
  }
}