{
  "0041": {
    "postcode": "5410041",
    "prefecture": "大阪府",
    "prefecture_kana": "オオサカフ",
    "prefecture_code": 27,
    "city": "大阪市中央区",
    "city_kana": "オオサカシチュウオウク",
    "town": "北浜",
    "town_kana": "キタハマ",
    "street": null,
    "office_name": null,
    "office_name_kana": null
  },
  "0042": {
    "postcode": "5410042",
    "prefecture": "大阪府",
    "prefecture_kana": "オオサカフ",
    "prefecture_code": 27,
    "city": "大阪市中央区",
    "city_kana": "オオサカシチュウオウク",
    "town": "今橋",
    "town_kana": "イマバシ",
    "street": null,
    "office_name": null,
    "office_name_kana": null
  },
  "0043": {
    "postcode": "5410043",
    "prefecture": "大阪府",
    "prefecture_kana": "オオサカフ",
    "prefecture_code": 27,
    "city": "大阪市中央区",
    "city_kana": "オオサカシチュウオウク",
    "town": "高麗橋",
    "town_kana": "コウライバシ",
    "street": null,
    "office_name": null,
    "office_name_kana": null
  },
  "0044": {
    "postcode": "5410044",
    "prefecture": "大阪府",
    "prefecture_kana": "オオサカフ",
    "prefecture_code": 27,
    "city": "大阪市中央区",
    "city_kana": "オオサカシチュウオウク",
    "town": "伏見町",
    "town_kana": "フシミマチ",
    "street": null,
    "office_name": null,
    "office_name_kana": null
  },
  "0045": {
    "postcode": "5410045",
    "prefecture": "大阪府",
    "prefecture_kana": "オオサカフ",
    "prefecture_code": 27,
    "city": "大阪市中央区",
    "city_kana": "オオサカシチュウオウク",
    "town": "道修町",
    "town_kana": "ドショウマチ",
    "street": null,
    "office_name": null,
    "office_name_kana": null
  },
  "0046": {
    "postcode": "5410046",
    "prefecture": "大阪府",
    "prefecture_kana": "オオサカフ",
    "prefecture_code": 27,
    "city": "大阪市中央区",
    "city_kana": "オオサカシチュウオウク",
    "town": "平野町",
    "town_kana": "ヒラノマチ",
    "street": null,
    "office_name": null,
    "office_name_kana": null
  },
  "0047": {
    "postcode": "5410047",
    "prefecture": "大阪府",
    "prefecture_kana": "オオサカフ",
    "prefecture_code": 27,
    "city": "大阪市中央区",
    "city_kana": "オオサカシチュウオウク",
    "town": "淡路町",
    "town_kana": "アワジマチ",
    "street": null,
    "office_name": null,
    "office_name_kana": null
  },
  "0048": {
    "postcode": "5410048",
    "prefecture": "大阪府",
    "prefecture_kana": "オオサカフ",
    "prefecture_code": 27,
    "city": "大阪市中央区",
    "city_kana": "オオサカシチュウオウク",
    "town": "瓦町",
    "town_kana": "カワラマチ",
    "street": null,
    "office_name": null,
    "office_name_kana": null
  },
  "0051": {
    "postcode": "5410051",
    "prefecture": "大阪府",
    "prefecture_kana": "オオサカフ",
    "prefecture_code": 27,
    "city": "大阪市中央区",
    "city_kana": "オオサカシチュウオウク",
    "town": "備後町",
    "town_kana": "ビンゴマチ",
    "street": null,
    "office_name": null,
    "office_name_kana": null
  },
  "0052": {
    "postcode": "5410052",
    "prefecture": "大阪府",
    "prefecture_kana": "オオサカフ",
    "prefecture_code": 27,
    "city": "大阪市中央区",
    "city_kana": "オオサカシチュウオウク",
    "town": "安土町",
    "town_kana": "アヅチマチ",
    "street": null,
    "office_name": null,
    "office_name_kana": null
  },
  "0053": {
    "postcode": "5410053",
    "prefecture": "大阪府",
    "prefecture_kana": "オオサカフ",
    "prefecture_code": 27,
    "city": "大阪市中央区",
    "city_kana": "オオサカシチュウオウク",
    "town": "本町",
    "town_kana": "ホンマチ",
    "street": null,
    "office_name": null,
    "office_name_kana": null
  },
  "0054": {
    "postcode": "5410054",
    "prefecture": "大阪府",
    "prefecture_kana": "オオサカフ",
    "prefecture_code": 27,
    "city": "大阪市中央区",
    "city_kana": "オオサカシチュウオウク",
    "town": "南本町",
    "town_kana": "ミナミホンマチ",
    "street": null,
    "office_name": null,
    "office_name_kana": null
  },
  "0055": {
    "postcode": "5410055",
    "prefecture": "大阪府",
    "prefecture_kana": "オオサカフ",
    "prefecture_code": 27,
    "city": "大阪市中央区",
    "city_kana": "オオサカシチュウオウク",
    "town": "船場中央",
    "town_kana": "センバチュウオウ",
    "street": null,
    "office_name": null,
    "office_name_kana": null
  },
  "0056": {
    "postcode": "5410056",
    "prefecture": "大阪府",
    "prefecture_kana": "オオサカフ",
    "prefecture_code": 27,
    "city": "大阪市中央区",
    "city_kana": "オオサカシチュウオウク",
    "town": "久太郎町",
    "town_kana": "キュウタロウマチ",
    "street": null,
    "office_name": null,
    "office_name_kana": null
  },
  "0057": {
    "postcode": "5410057",
    "prefecture": "大阪府",
    "prefecture_kana": "オオサカフ",
    "prefecture_code": 27,
    "city": "大阪市中央区",
    "city_kana": "オオサカシチュウオウク",
    "town": "北久宝寺町",
    "town_kana": "キタキュウホウジマチ",
    "street": null,
    "office_name": null,
    "office_name_kana": null
  },
  "0058": {
    "postcode": "5410058",
    "prefecture": "大阪府",
    "prefecture_kana": "オオサカフ",
    "prefecture_code": 27,
    "city": "大阪市中央区",
    "city_kana": "オオサカシチュウオウク",
    "town": "南久宝寺町",
    "town_kana": "ミナミキュウホウジマチ",
    "street": null,
    "office_name": null,
    "office_name_kana": null
  },
  "0059": {
    "postcode": "5410059",
    "prefecture": "大阪府",
    "prefecture_kana": "オオサカフ",
    "prefecture_code": 27,
    "city": "大阪市中央区",
    "city_kana": "オオサカシチュウオウク",
    "town": "博労町",
    "town_kana": "バクロウマチ",
    "street": null,
    "office_name": null,
    "office_name_kana": null
  },
  "6666": {
    "postcode": "5416666",
    "prefecture": "大阪府",
    "prefecture_kana": "オオサカフ",
    "prefecture_code": 27,
    "city": "大阪市中央区",
    "city_kana": "オオサカシチュウオウク",
    "town": "久太郎町",
    "town_kana": "キュウタロウマチ",
    "street": "３−４−１２",
    "office_name": "株式会社　大西",
    "office_name_kana": "カブシキガイシヤ オオニシ"
  },
  "8501": {
    "postcode": "5418501",
    "prefecture": "大阪府",
    "prefecture_kana": "オオサカフ",
    "prefecture_code": 27,
    "city": "大阪市中央区",
    "city_kana": "オオサカシチュウオウク",
    "town": "今橋",
    "town_kana": "イマバシ",
    "street": "３丁目５番１２号",
    "office_name": "日本生命保険　相互会社",
    "office_name_kana": "ニホンセイメイホケン ソウゴガイシヤ"
  },
  "8502": {
    "postcode": "5418502",
    "prefecture": "大阪府",
    "prefecture_kana": "オオサカフ",
    "prefecture_code": 27,
    "city": "大阪市中央区",
    "city_kana": "オオサカシチュウオウク",
    "town": "伏見町",
    "town_kana": "フシミマチ",
    "street": "３丁目６−３",
    "office_name": "三菱ＵＦＪ信託銀行　株式会社　大阪証券代行部",
    "office_name_kana": "ミツビシユ-エフジエイシンタクギンコウ カブシキガイシヤ オオサカシヨウケンダイコウブ"
  },
  "8503": {
    "postcode": "5418503",
    "prefecture": "大阪府",
    "prefecture_kana": "オオサカフ",
    "prefecture_code": 27,
    "city": "大阪市中央区",
    "city_kana": "オオサカシチュウオウク",
    "town": "久太郎町",
    "town_kana": "キュウタロウマチ",
    "street": "２丁目１−５",
    "office_name": "株式会社　プロルート丸光",
    "office_name_kana": "カブシキガイシヤ プロル-トマルコウ"
  },
  "8505": {
    "postcode": "5418505",
    "prefecture": "大阪府",
    "prefecture_kana": "オオサカフ",
    "prefecture_code": 27,
    "city": "大阪市中央区",
    "city_kana": "オオサカシチュウオウク",
    "town": "道修町",
    "town_kana": "ドショウマチ",
    "street": "３丁目２番１０号",
    "office_name": "田辺三菱製薬　株式会社",
    "office_name_kana": "タナベミツビシセイヤク カブシキガイシヤ"
  },
  "8506": {
    "postcode": "5418506",
    "prefecture": "大阪府",
    "prefecture_kana": "オオサカフ",
    "prefecture_code": 27,
    "city": "大阪市中央区",
    "city_kana": "オオサカシチュウオウク",
    "town": "南久宝寺町",
    "town_kana": "ミナミキュウホウジマチ",
    "street": "４丁目５−２",
    "office_name": "清原　株式会社",
    "office_name_kana": "キヨハラ カブシキガイシヤ"
  },
  "8508": {
    "postcode": "5418508",
    "prefecture": "大阪府",
    "prefecture_kana": "オオサカフ",
    "prefecture_code": 27,
    "city": "大阪市中央区",
    "city_kana": "オオサカシチュウオウク",
    "town": "本町",
    "town_kana": "ホンマチ",
    "street": "３丁目４番１０号本町野村ビル",
    "office_name": "朝日火災海上保険　株式会社",
    "office_name_kana": "アサヒカサイカイジヨウホケン カブシキガイシヤ"
  },
  "8509": {
    "postcode": "5418509",
    "prefecture": "大阪府",
    "prefecture_kana": "オオサカフ",
    "prefecture_code": 27,
    "city": "大阪市中央区",
    "city_kana": "オオサカシチュウオウク",
    "town": "淡路町",
    "town_kana": "アワジマチ",
    "street": "２−３−９",
    "office_name": "新生フィナンシャル　株式会社",
    "office_name_kana": "シンセイフイナンシヤル カブシキガイシヤ"
  },
  "8511": {
    "postcode": "5418511",
    "prefecture": "大阪府",
    "prefecture_kana": "オオサカフ",
    "prefecture_code": 27,
    "city": "大阪市中央区",
    "city_kana": "オオサカシチュウオウク",
    "town": "淡路町",
    "town_kana": "アワジマチ",
    "street": "２丁目３−５",
    "office_name": "興和　株式会社　大阪支店",
    "office_name_kana": "コ-ワ カブシキガイシヤ オオサカシテン"
  },
  "8513": {
    "postcode": "5418513",
    "prefecture": "大阪府",
    "prefecture_kana": "オオサカフ",
    "prefecture_code": 27,
    "city": "大阪市中央区",
    "city_kana": "オオサカシチュウオウク",
    "town": "伏見町",
    "town_kana": "フシミマチ",
    "street": "三丁目３番７号",
    "office_name": "ＫＩＳＣＯ　株式会社　大阪本社",
    "office_name_kana": "キスコ カブシキガイシヤ オオサカホンシヤ"
  },
  "8515": {
    "postcode": "5418515",
    "prefecture": "大阪府",
    "prefecture_kana": "オオサカフ",
    "prefecture_code": 27,
    "city": "大阪市中央区",
    "city_kana": "オオサカシチュウオウク",
    "town": "高麗橋",
    "town_kana": "コウライバシ",
    "street": "１丁目４番２号",
    "office_name": "株式会社　日本経済新聞社　大阪本社",
    "office_name_kana": "カブシキガイシヤ ニホンケイザイシンブンシヤ オオサカホンシヤ"
  },
  "8516": {
    "postcode": "5418516",
    "prefecture": "大阪府",
    "prefecture_kana": "オオサカフ",
    "prefecture_code": 27,
    "city": "大阪市中央区",
    "city_kana": "オオサカシチュウオウク",
    "town": "備後町",
    "town_kana": "ビンゴマチ",
    "street": "３丁目２−６",
    "office_name": "シキボウ　株式会社",
    "office_name_kana": "シキボウ カブシキガイシヤ"
  },
  "8517": {
    "postcode": "5418517",
    "prefecture": "大阪府",
    "prefecture_kana": "オオサカフ",
    "prefecture_code": 27,
    "city": "大阪市中央区",
    "city_kana": "オオサカシチュウオウク",
    "town": "南本町",
    "town_kana": "ミナミホンマチ",
    "street": "２−６−１２サンマリオンＮＢＦタワー",
    "office_name": "株式会社　森本組",
    "office_name_kana": "カブシキガイシヤ モリモトグミ"
  },
  "8518": {
    "postcode": "5418518",
    "prefecture": "大阪府",
    "prefecture_kana": "オオサカフ",
    "prefecture_code": 27,
    "city": "大阪市中央区",
    "city_kana": "オオサカシチュウオウク",
    "town": "久太郎町",
    "town_kana": "キュウタロウマチ",
    "street": "１丁目２−２７",
    "office_name": "大阪市中央区役所",
    "office_name_kana": "オオサカシチユウオウクヤクジヨ"
  },
  "8519": {
    "postcode": "5418519",
    "prefecture": "大阪府",
    "prefecture_kana": "オオサカフ",
    "prefecture_code": 27,
    "city": "大阪市中央区",
    "city_kana": "オオサカシチュウオウク",
    "town": "淡路町",
    "town_kana": "アワジマチ",
    "street": "二丁目５番１１号",
    "office_name": "極東開発工業　株式会社",
    "office_name_kana": "キヨクトウカイハツコウギヨウ カブシキカイシヤ"
  },
  "8520": {
    "postcode": "5418520",
    "prefecture": "大阪府",
    "prefecture_kana": "オオサカフ",
    "prefecture_code": 27,
    "city": "大阪市中央区",
    "city_kana": "オオサカシチュウオウク",
    "town": "本町",
    "town_kana": "ホンマチ",
    "street": "３丁目５−７御堂筋本町ビル",
    "office_name": "清水建設　株式会社　大阪支店",
    "office_name_kana": "シミズケンセツ カブシキガイシヤ オオサカシテン"
  },
  "8521": {
    "postcode": "5418521",
    "prefecture": "大阪府",
    "prefecture_kana": "オオサカフ",
    "prefecture_code": 27,
    "city": "大阪市中央区",
    "city_kana": "オオサカシチュウオウク",
    "town": "今橋",
    "town_kana": "イマバシ",
    "street": "１丁目８番１２号",
    "office_name": "岩井コスモ証券　株式会社",
    "office_name_kana": "イワイコスモシヨウケン カブシキガイシヤ"
  },
  "8523": {
    "postcode": "5418523",
    "prefecture": "大阪府",
    "prefecture_kana": "オオサカフ",
    "prefecture_code": 27,
    "city": "大阪市中央区",
    "city_kana": "オオサカシチュウオウク",
    "town": "今橋",
    "town_kana": "イマバシ",
    "street": "２丁目６−１４",
    "office_name": "関西ペイント　株式会社",
    "office_name_kana": "カンサイペイント カブシキガイシヤ"
  },
  "8524": {
    "postcode": "5418524",
    "prefecture": "大阪府",
    "prefecture_kana": "オオサカフ",
    "prefecture_code": 27,
    "city": "大阪市中央区",
    "city_kana": "オオサカシチュウオウク",
    "town": "道修町",
    "town_kana": "ドショウマチ",
    "street": "２丁目６−８",
    "office_name": "大日本住友製薬　株式会社",
    "office_name_kana": "ダイニホンスミトモセイヤク カブシキガイシヤ"
  },
  "8525": {
    "postcode": "5418525",
    "prefecture": "大阪府",
    "prefecture_kana": "オオサカフ",
    "prefecture_code": 27,
    "city": "大阪市中央区",
    "city_kana": "オオサカシチュウオウク",
    "town": "久太郎町",
    "town_kana": "キュウタロウマチ",
    "street": "３丁目５−１９",
    "office_name": "ＤＩＣ　株式会社　大阪支店",
    "office_name_kana": "デイ-アイシ- カブシキガイシヤ オオサカシテン"
  },
  "8526": {
    "postcode": "5418526",
    "prefecture": "大阪府",
    "prefecture_kana": "オオサカフ",
    "prefecture_code": 27,
    "city": "大阪市中央区",
    "city_kana": "オオサカシチュウオウク",
    "town": "道修町",
    "town_kana": "ドショウマチ",
    "street": "２丁目１−５",
    "office_name": "小野薬品工業　株式会社",
    "office_name_kana": "オノヤクヒンコウギヨウ カブシキガイシヤ"
  },
  "8528": {
    "postcode": "5418528",
    "prefecture": "大阪府",
    "prefecture_kana": "オオサカフ",
    "prefecture_code": 27,
    "city": "大阪市中央区",
    "city_kana": "オオサカシチュウオウク",
    "town": "瓦町",
    "town_kana": "カワラマチ",
    "street": "３−６−５",
    "office_name": "株式会社　日建設計",
    "office_name_kana": "カブシキカイシヤ ニツケンセツケイ"
  },
  "8529": {
    "postcode": "5418529",
    "prefecture": "大阪府",
    "prefecture_kana": "オオサカフ",
    "prefecture_code": 27,
    "city": "大阪市中央区",
    "city_kana": "オオサカシチュウオウク",
    "town": "久太郎町",
    "town_kana": "キュウタロウマチ",
    "street": "２丁目５−３０",
    "office_name": "前田建設工業　株式会社　関西支店",
    "office_name_kana": "マエダケンセツコウギヨウ カブシキガイシヤ カンサイシテン"
  },
  "8530": {
    "postcode": "5418530",
    "prefecture": "大阪府",
    "prefecture_kana": "オオサカフ",
    "prefecture_code": 27,
    "city": "大阪市中央区",
    "city_kana": "オオサカシチュウオウク",
    "town": "伏見町",
    "town_kana": "フシミマチ",
    "street": "３−５−６",
    "office_name": "株式会社　三菱ＵＦＪ銀行",
    "office_name_kana": "カブシキガイシヤ ミツビシユ-エフジエイギンコウ"
  },
  "8531": {
    "postcode": "5418531",
    "prefecture": "大阪府",
    "prefecture_kana": "オオサカフ",
    "prefecture_code": 27,
    "city": "大阪市中央区",
    "city_kana": "オオサカシチュウオウク",
    "town": "瓦町",
    "town_kana": "カワラマチ",
    "street": "２丁目４番７号新瓦町ビル７階",
    "office_name": "大阪市職員労働組合",
    "office_name_kana": "オオサカシシヨクインロウドウクミアイ"
  },
  "8534": {
    "postcode": "5418534",
    "prefecture": "大阪府",
    "prefecture_kana": "オオサカフ",
    "prefecture_code": 27,
    "city": "大阪市中央区",
    "city_kana": "オオサカシチュウオウク",
    "town": "南本町",
    "town_kana": "ミナミホンマチ",
    "street": "２丁目５番９号",
    "office_name": "村田長　株式会社",
    "office_name_kana": "ムラタチヨウ カブシキガイシヤ"
  },
  "8535": {
    "postcode": "5418535",
    "prefecture": "大阪府",
    "prefecture_kana": "オオサカフ",
    "prefecture_code": 27,
    "city": "大阪市中央区",
    "city_kana": "オオサカシチュウオウク",
    "town": "伏見町",
    "town_kana": "フシミマチ",
    "street": "３丁目５−６",
    "office_name": "株式会社　三菱東京ＵＦＪ銀行　大阪中央支店",
    "office_name_kana": "カブシキガイシヤ ミツビシトウキヨウユ-エフジエイギンコウ オオサカチユウオウシテン"
  },
  "8537": {
    "postcode": "5418537",
    "prefecture": "大阪府",
    "prefecture_kana": "オオサカフ",
    "prefecture_code": 27,
    "city": "大阪市中央区",
    "city_kana": "オオサカシチュウオウク",
    "town": "今橋",
    "town_kana": "イマバシ",
    "street": "４丁目５−１５",
    "office_name": "三井住友カード　株式会社",
    "office_name_kana": "ミツイスミトモカ-ド カブシキガイシヤ"
  },
  "8538": {
    "postcode": "5418538",
    "prefecture": "大阪府",
    "prefecture_kana": "オオサカフ",
    "prefecture_code": 27,
    "city": "大阪市中央区",
    "city_kana": "オオサカシチュウオウク",
    "town": "北浜",
    "town_kana": "キタハマ",
    "street": "４丁目１−２３",
    "office_name": "ミズノ　株式会社　大阪店",
    "office_name_kana": "ミズノ カブシキガイシヤ オオサカテン"
  },
  "8540": {
    "postcode": "5418540",
    "prefecture": "大阪府",
    "prefecture_kana": "オオサカフ",
    "prefecture_code": 27,
    "city": "大阪市中央区",
    "city_kana": "オオサカシチュウオウク",
    "town": "南本町",
    "town_kana": "ミナミホンマチ",
    "street": "１丁目６−７",
    "office_name": "ＮＩ帝人商事　株式会社",
    "office_name_kana": "エヌアイテイジンシヨウジ カブシキガイシヤ"
  },
  "8541": {
    "postcode": "5418541",
    "prefecture": "大阪府",
    "prefecture_kana": "オオサカフ",
    "prefecture_code": 27,
    "city": "大阪市中央区",
    "city_kana": "オオサカシチュウオウク",
    "town": "南本町",
    "town_kana": "ミナミホンマチ",
    "street": "４−１−１",
    "office_name": "オーミケンシ　株式会社",
    "office_name_kana": "オ-ミケンシ カブシキカイシヤ"
  },
  "8542": {
    "postcode": "5418542",
    "prefecture": "大阪府",
    "prefecture_kana": "オオサカフ",
    "prefecture_code": 27,
    "city": "大阪市中央区",
    "city_kana": "オオサカシチュウオウク",
    "town": "安土町",
    "town_kana": "アヅチマチ",
    "street": "１丁目７−３",
    "office_name": "野村貿易　株式会社",
    "office_name_kana": "ノムラボウエキ カブシキガイシヤ"
  },
  "8543": [
    {
      "postcode": "5418543",
      "prefecture": "大阪府",
      "prefecture_kana": "オオサカフ",
      "prefecture_code": 27,
      "city": "大阪市中央区",
      "city_kana": "オオサカシチュウオウク",
      "town": "高麗橋",
      "town_kana": "コウライバシ",
      "street": "２丁目４−８",
      "office_name": "上野製薬　株式会社",
      "office_name_kana": "ウエノセイヤク カブシキガイシヤ"
    },
    {
      "postcode": "5418543",
      "prefecture": "大阪府",
      "prefecture_kana": "オオサカフ",
      "prefecture_code": 27,
      "city": "大阪市中央区",
      "city_kana": "オオサカシチュウオウク",
      "town": "高麗橋",
      "town_kana": "コウライバシ",
      "street": "２丁目４−８",
      "office_name": "株式会社　ウエノフードテクノ",
      "office_name_kana": "カブシキガイシヤ ウエノフ-ドテクノ"
    }
  ],
  "8545": {
    "postcode": "5418545",
    "prefecture": "大阪府",
    "prefecture_kana": "オオサカフ",
    "prefecture_code": 27,
    "city": "大阪市中央区",
    "city_kana": "オオサカシチュウオウク",
    "town": "瓦町",
    "town_kana": "カワラマチ",
    "street": "４丁目１番２号損保ジャパン日本興亜大阪ビル",
    "office_name": "損保ジャパン日本興亜　株式会社",
    "office_name_kana": "ソンポジヤパンニツポンコウア カブシキガイシヤ"
  },
  "8547": {
    "postcode": "5418547",
    "prefecture": "大阪府",
    "prefecture_kana": "オオサカフ",
    "prefecture_code": 27,
    "city": "大阪市中央区",
    "city_kana": "オオサカシチュウオウク",
    "town": "平野町",
    "town_kana": "ヒラノマチ",
    "street": "３丁目６−１",
    "office_name": "あいおい損害保険　株式会社",
    "office_name_kana": "アイオイソンガイホケン カブシキガイシヤ"
  },
  "8550": {
    "postcode": "5418550",
    "prefecture": "大阪府",
    "prefecture_kana": "オオサカフ",
    "prefecture_code": 27,
    "city": "大阪市中央区",
    "city_kana": "オオサカシチュウオウク",
    "town": "北浜",
    "town_kana": "キタハマ",
    "street": "４丁目５−３３",
    "office_name": "住友工業　株式会社",
    "office_name_kana": "スミトモコウギヨウ カブシキガイシヤ"
  },
  "8551": {
    "postcode": "5418551",
    "prefecture": "大阪府",
    "prefecture_kana": "オオサカフ",
    "prefecture_code": 27,
    "city": "大阪市中央区",
    "city_kana": "オオサカシチュウオウク",
    "town": "船場中央",
    "town_kana": "センバチュウオウ",
    "street": "１−４−３−２０３船場センタービル３号館２階",
    "office_name": "大阪市船場法人市税事務所",
    "office_name_kana": "オオサカシセンバホウジンシゼイジムシヨ"
  },
  "8553": [
    {
      "postcode": "5418553",
      "prefecture": "大阪府",
      "prefecture_kana": "オオサカフ",
      "prefecture_code": 27,
      "city": "大阪市中央区",
      "city_kana": "オオサカシチュウオウク",
      "town": "今橋",
      "town_kana": "イマバシ",
      "street": "３丁目３番１３号",
      "office_name": "サッポログループマネジメント　株式会社",
      "office_name_kana": "サツポログル-プマネジメント カブシキガイシヤ"
    },
    {
      "postcode": "5418553",
      "prefecture": "大阪府",
      "prefecture_kana": "オオサカフ",
      "prefecture_code": 27,
      "city": "大阪市中央区",
      "city_kana": "オオサカシチュウオウク",
      "town": "今橋",
      "town_kana": "イマバシ",
      "street": "３丁目３番１３号",
      "office_name": "サッポロビール　株式会社　近畿圏本部",
      "office_name_kana": "サツポロビ-ル カブシキガイシヤ キンキケンホンブ"
    },
    {
      "postcode": "5418553",
      "prefecture": "大阪府",
      "prefecture_kana": "オオサカフ",
      "prefecture_code": 27,
      "city": "大阪市中央区",
      "city_kana": "オオサカシチュウオウク",
      "town": "今橋",
      "town_kana": "イマバシ",
      "street": "３丁目３番１３号",
      "office_name": "神州一味噌　株式会社",
      "office_name_kana": "シンシユウイチミソ カブシキガイシヤ"
    },
    {
      "postcode": "5418553",
      "prefecture": "大阪府",
      "prefecture_kana": "オオサカフ",
      "prefecture_code": 27,
      "city": "大阪市中央区",
      "city_kana": "オオサカシチュウオウク",
      "town": "今橋",
      "town_kana": "イマバシ",
      "street": "３丁目３番１３号",
      "office_name": "スターネット　株式会社　近畿圏支社",
      "office_name_kana": "スタ-ネツト カブシキガイシヤ キンキケンシシヤ"
    },
    {
      "postcode": "5418553",
      "prefecture": "大阪府",
      "prefecture_kana": "オオサカフ",
      "prefecture_code": 27,
      "city": "大阪市中央区",
      "city_kana": "オオサカシチュウオウク",
      "town": "今橋",
      "town_kana": "イマバシ",
      "street": "３丁目３番１３号",
      "office_name": "スタービバレッジサービス　株式会社",
      "office_name_kana": "スタ-ビバレツジサ-ビス カブシキガイシヤ"
    },
    {
      "postcode": "5418553",
      "prefecture": "大阪府",
      "prefecture_kana": "オオサカフ",
      "prefecture_code": 27,
      "city": "大阪市中央区",
      "city_kana": "オオサカシチュウオウク",
      "town": "今橋",
      "town_kana": "イマバシ",
      "street": "３丁目３番１３号",
      "office_name": "ポッカサッポロフード＆ビバレッジ　株式会社",
      "office_name_kana": "ポツカサツポロフ-ド&ビバレツジ カブシキガイシヤ"
    }
  ],
  "8556": {
    "postcode": "5418556",
    "prefecture": "大阪府",
    "prefecture_kana": "オオサカフ",
    "prefecture_code": 27,
    "city": "大阪市中央区",
    "city_kana": "オオサカシチュウオウク",
    "town": "大手前",
    "town_kana": "オオテマエ",
    "street": "４丁目１−７６",
    "office_name": "近畿厚生局",
    "office_name_kana": "キンキコウセイキヨク"
  },
  "8557": {
    "postcode": "5418557",
    "prefecture": "大阪府",
    "prefecture_kana": "オオサカフ",
    "prefecture_code": 27,
    "city": "大阪市中央区",
    "city_kana": "オオサカシチュウオウク",
    "town": "北浜",
    "town_kana": "キタハマ",
    "street": "２丁目６−１８",
    "office_name": "神鋼商事　株式会社",
    "office_name_kana": "シンコウシヨウジ カブシキガイシヤ"
  },
  "8558": {
    "postcode": "5418558",
    "prefecture": "大阪府",
    "prefecture_kana": "オオサカフ",
    "prefecture_code": 27,
    "city": "大阪市中央区",
    "city_kana": "オオサカシチュウオウク",
    "town": "今橋",
    "town_kana": "イマバシ",
    "street": "２丁目５−８",
    "office_name": "日商岩井　株式会社",
    "office_name_kana": "ニツシヨウイワイ カブシキガイシヤ"
  },
  "8559": {
    "postcode": "5418559",
    "prefecture": "大阪府",
    "prefecture_kana": "オオサカフ",
    "prefecture_code": 27,
    "city": "大阪市中央区",
    "city_kana": "オオサカシチュウオウク",
    "town": "北浜",
    "town_kana": "キタハマ",
    "street": "４丁目５−３３住友ビル１号館",
    "office_name": "日本板硝子　株式会社",
    "office_name_kana": "ニホンイタガラス カブシキガイシヤ"
  },
  "8560": {
    "postcode": "5418560",
    "prefecture": "大阪府",
    "prefecture_kana": "オオサカフ",
    "prefecture_code": 27,
    "city": "大阪市中央区",
    "city_kana": "オオサカシチュウオウク",
    "town": "淡路町",
    "town_kana": "アワジマチ",
    "street": "四丁目２番１３号",
    "office_name": "兼松　株式会社　大阪支社",
    "office_name_kana": "カネマツ カブシキガイシヤ オオサカシシヤ"
  },
  "8561": {
    "postcode": "5418561",
    "prefecture": "大阪府",
    "prefecture_kana": "オオサカフ",
    "prefecture_code": 27,
    "city": "大阪市中央区",
    "city_kana": "オオサカシチュウオウク",
    "town": "瓦町",
    "town_kana": "カワラマチ",
    "street": "２丁目６番６号",
    "office_name": "株式会社　サンケイリビング新聞社",
    "office_name_kana": "カブシキガイシヤ サンケイリビングシンブンシヤ"
  },
  "8563": {
    "postcode": "5418563",
    "prefecture": "大阪府",
    "prefecture_kana": "オオサカフ",
    "prefecture_code": 27,
    "city": "大阪市中央区",
    "city_kana": "オオサカシチュウオウク",
    "town": "瓦町",
    "town_kana": "カワラマチ",
    "street": "３−１−１５",
    "office_name": "旭洋　株式会社",
    "office_name_kana": "キヨクヨウ カブシキガイシヤ"
  },
  "8566": {
    "postcode": "5418566",
    "prefecture": "大阪府",
    "prefecture_kana": "オオサカフ",
    "prefecture_code": 27,
    "city": "大阪市中央区",
    "city_kana": "オオサカシチュウオウク",
    "town": "久太郎町",
    "town_kana": "キュウタロウマチ",
    "street": "４丁目１−３",
    "office_name": "ユニチカ　株式会社",
    "office_name_kana": "ユニチカ カブシキガイシヤ"
  },
  "8567": {
    "postcode": "5418567",
    "prefecture": "大阪府",
    "prefecture_kana": "オオサカフ",
    "prefecture_code": 27,
    "city": "大阪市中央区",
    "city_kana": "オオサカシチュウオウク",
    "town": "大手前",
    "town_kana": "オオテマエ",
    "street": "３丁目１番６９号",
    "office_name": "大阪国際がんセンター",
    "office_name_kana": "オオサカコクサイガンセンタ-"
  },
  "8568": {
    "postcode": "5418568",
    "prefecture": "大阪府",
    "prefecture_kana": "オオサカフ",
    "prefecture_code": 27,
    "city": "大阪市中央区",
    "city_kana": "オオサカシチュウオウク",
    "town": "南本町",
    "town_kana": "ミナミホンマチ",
    "street": "１丁目７−１５",
    "office_name": "コスモ石油　株式会社　大阪支店",
    "office_name_kana": "コスモセキユ カブシキガイシヤ オオサカシテン"
  },
  "8572": {
    "postcode": "5418572",
    "prefecture": "大阪府",
    "prefecture_kana": "オオサカフ",
    "prefecture_code": 27,
    "city": "大阪市中央区",
    "city_kana": "オオサカシチュウオウク",
    "town": "今橋",
    "town_kana": "イマバシ",
    "street": "４丁目５番１５号",
    "office_name": "ＳＭＢＣファイナンスサービス　株式会社",
    "office_name_kana": "エスエムビ-シ-フアイナンスサ-ビス (カ"
  },
  "8575": {
    "postcode": "5418575",
    "prefecture": "大阪府",
    "prefecture_kana": "オオサカフ",
    "prefecture_code": 27,
    "city": "大阪市中央区",
    "city_kana": "オオサカシチュウオウク",
    "town": "今橋",
    "town_kana": "イマバシ",
    "street": "２丁目４番１０号淀屋橋北浜センタービル２階",
    "office_name": "株式会社　明成商会",
    "office_name_kana": "カブシキガイシヤ メイセイシヨウカイ"
  },
  "8576": {
    "postcode": "5418576",
    "prefecture": "大阪府",
    "prefecture_kana": "オオサカフ",
    "prefecture_code": 27,
    "city": "大阪市中央区",
    "city_kana": "オオサカシチュウオウク",
    "town": "北浜",
    "town_kana": "キタハマ",
    "street": "４丁目５−３３",
    "office_name": "住友商事ケミカル　株式会社　関西支社",
    "office_name_kana": "スミトモシヨウジケミカル カブシキガイシヤ カンサイシシヤ"
  },
  "8578": {
    "postcode": "5418578",
    "prefecture": "大阪府",
    "prefecture_kana": "オオサカフ",
    "prefecture_code": 27,
    "city": "大阪市中央区",
    "city_kana": "オオサカシチュウオウク",
    "town": "今橋",
    "town_kana": "イマバシ",
    "street": "２丁目１−１０",
    "office_name": "財団法人　簡易保険加入者協会　近畿地方本部",
    "office_name_kana": "ザイダンホウジン カンイホケンカニユウシヤキヨウカイ キンキチホウホンブ"
  },
  "8581": {
    "postcode": "5418581",
    "prefecture": "大阪府",
    "prefecture_kana": "オオサカフ",
    "prefecture_code": 27,
    "city": "大阪市中央区",
    "city_kana": "オオサカシチュウオウク",
    "town": "久太郎町",
    "town_kana": "キュウタロウマチ",
    "street": "２丁目４−３１",
    "office_name": "倉敷紡績　株式会社",
    "office_name_kana": "クラシキボウセキ カブシキガイシヤ"
  },
  "8585": {
    "postcode": "5418585",
    "prefecture": "大阪府",
    "prefecture_kana": "オオサカフ",
    "prefecture_code": 27,
    "city": "大阪市中央区",
    "city_kana": "オオサカシチュウオウク",
    "town": "伏見町",
    "town_kana": "フシミマチ",
    "street": "４丁目３番９号",
    "office_name": "阪和興業　株式会社",
    "office_name_kana": "ハンワコウギヨウ カブシキガイシヤ"
  },
  "8587": {
    "postcode": "5418587",
    "prefecture": "大阪府",
    "prefecture_kana": "オオサカフ",
    "prefecture_code": 27,
    "city": "大阪市中央区",
    "city_kana": "オオサカシチュウオウク",
    "town": "南本町",
    "town_kana": "ミナミホンマチ",
    "street": "１丁目６−７",
    "office_name": "帝人　株式会社",
    "office_name_kana": "テイジン カブシキガイシヤ"
  },
  "8589": {
    "postcode": "5418589",
    "prefecture": "大阪府",
    "prefecture_kana": "オオサカフ",
    "prefecture_code": 27,
    "city": "大阪市中央区",
    "city_kana": "オオサカシチュウオウク",
    "town": "北浜",
    "town_kana": "キタハマ",
    "street": "３丁目５番２９号−１３階",
    "office_name": "オザックス　株式会社",
    "office_name_kana": "オザツクス カブシキガイシヤ"
  },
  "8630": {
    "postcode": "5418630",
    "prefecture": "大阪府",
    "prefecture_kana": "オオサカフ",
    "prefecture_code": 27,
    "city": "大阪市中央区",
    "city_kana": "オオサカシチュウオウク",
    "town": "北浜",
    "town_kana": "キタハマ",
    "street": "三丁目５番２９号",
    "office_name": "株式会社　大林組",
    "office_name_kana": "カブシキガイシヤ オオバヤシグミ"
  },
  "8765": {
    "postcode": "5418765",
    "prefecture": "大阪府",
    "prefecture_kana": "オオサカフ",
    "prefecture_code": 27,
    "city": "大阪市中央区",
    "city_kana": "オオサカシチュウオウク",
    "town": "伏見町",
    "town_kana": "フシミマチ",
    "street": "４丁目１番１号明治安田生命大阪御堂筋ビル９階",
    "office_name": "エレコム　株式会社",
    "office_name_kana": "エレコム カブシキガイシヤ"
  }
}