{
  "0000": {
    "postcode": "5500000",
    "prefecture": "大阪府",
    "prefecture_kana": "オオサカフ",
    "prefecture_code": 27,
    "city": "大阪市西区",
    "city_kana": "オオサカシニシク",
    "town": "",
    "town_kana": "",
    "street": null,
    "office_name": null,
    "office_name_kana": null
  },
  "0001": {
    "postcode": "5500001",
    "prefecture": "大阪府",
    "prefecture_kana": "オオサカフ",
    "prefecture_code": 27,
    "city": "大阪市西区",
    "city_kana": "オオサカシニシク",
    "town": "土佐堀",
    "town_kana": "トサボリ",
    "street": null,
    "office_name": null,
    "office_name_kana": null
  },
  "0002": {
    "postcode": "5500002",
    "prefecture": "大阪府",
    "prefecture_kana": "オオサカフ",
    "prefecture_code": 27,
    "city": "大阪市西区",
    "city_kana": "オオサカシニシク",
    "town": "江戸堀",
    "town_kana": "エドボリ",
    "street": null,
    "office_name": null,
    "office_name_kana": null
  },
  "0003": {
    "postcode": "5500003",
    "prefecture": "大阪府",
    "prefecture_kana": "オオサカフ",
    "prefecture_code": 27,
    "city": "大阪市西区",
    "city_kana": "オオサカシニシク",
    "town": "京町堀",
    "town_kana": "キョウマチボリ",
    "street": null,
    "office_name": null,
    "office_name_kana": null
  },
  "0004": {
    "postcode": "5500004",
    "prefecture": "大阪府",
    "prefecture_kana": "オオサカフ",
    "prefecture_code": 27,
    "city": "大阪市西区",
    "city_kana": "オオサカシニシク",
    "town": "靱本町",
    "town_kana": "ウツボホンマチ",
    "street": null,
    "office_name": null,
    "office_name_kana": null
  },
  "0005": {
    "postcode": "5500005",
    "prefecture": "大阪府",
    "prefecture_kana": "オオサカフ",
    "prefecture_code": 27,
    "city": "大阪市西区",
    "city_kana": "オオサカシニシク",
    "town": "西本町",
    "town_kana": "ニシホンマチ",
    "street": null,
    "office_name": null,
    "office_name_kana": null
  },
  "0006": {
    "postcode": "5500006",
    "prefecture": "大阪府",
    "prefecture_kana": "オオサカフ",
    "prefecture_code": 27,
    "city": "大阪市西区",
    "city_kana": "オオサカシニシク",
    "town": "江之子島",
    "town_kana": "エノコジマ",
    "street": null,
    "office_name": null,
    "office_name_kana": null
  },
  "0011": {
    "postcode": "5500011",
    "prefecture": "大阪府",
    "prefecture_kana": "オオサカフ",
    "prefecture_code": 27,
    "city": "大阪市西区",
    "city_kana": "オオサカシニシク",
    "town": "阿波座",
    "town_kana": "アワザ",
    "street": null,
    "office_name": null,
    "office_name_kana": null
  },
  "0012": {
    "postcode": "5500012",
    "prefecture": "大阪府",
    "prefecture_kana": "オオサカフ",
    "prefecture_code": 27,
    "city": "大阪市西区",
    "city_kana": "オオサカシニシク",
    "town": "立売堀",
    "town_kana": "イタチボリ",
    "street": null,
    "office_name": null,
    "office_name_kana": null
  },
  "0013": {
    "postcode": "5500013",
    "prefecture": "大阪府",
    "prefecture_kana": "オオサカフ",
    "prefecture_code": 27,
    "city": "大阪市西区",
    "city_kana": "オオサカシニシク",
    "town": "新町",
    "town_kana": "シンマチ",
    "street": null,
    "office_name": null,
    "office_name_kana": null
  },
  "0014": {
    "postcode": "5500014",
    "prefecture": "大阪府",
    "prefecture_kana": "オオサカフ",
    "prefecture_code": 27,
    "city": "大阪市西区",
    "city_kana": "オオサカシニシク",
    "town": "北堀江",
    "town_kana": "キタホリエ",
    "street": null,
    "office_name": null,
    "office_name_kana": null
  },
  "0015": {
    "postcode": "5500015",
    "prefecture": "大阪府",
    "prefecture_kana": "オオサカフ",
    "prefecture_code": 27,
    "city": "大阪市西区",
    "city_kana": "オオサカシニシク",
    "town": "南堀江",
    "town_kana": "ミナミホリエ",
    "street": null,
    "office_name": null,
    "office_name_kana": null
  },
  "0021": {
    "postcode": "5500021",
    "prefecture": "大阪府",
    "prefecture_kana": "オオサカフ",
    "prefecture_code": 27,
    "city": "大阪市西区",
    "city_kana": "オオサカシニシク",
    "town": "川口",
    "town_kana": "カワグチ",
    "street": null,
    "office_name": null,
    "office_name_kana": null
  },
  "0022": {
    "postcode": "5500022",
    "prefecture": "大阪府",
    "prefecture_kana": "オオサカフ",
    "prefecture_code": 27,
    "city": "大阪市西区",
    "city_kana": "オオサカシニシク",
    "town": "本田",
    "town_kana": "ホンデン",
    "street": null,
    "office_name": null,
    "office_name_kana": null
  },
  "0023": {
    "postcode": "5500023",
    "prefecture": "大阪府",
    "prefecture_kana": "オオサカフ",
    "prefecture_code": 27,
    "city": "大阪市西区",
    "city_kana": "オオサカシニシク",
    "town": "千代崎",
    "town_kana": "チヨザキ",
    "street": null,
    "office_name": null,
    "office_name_kana": null
  },
  "0024": {
    "postcode": "5500024",
    "prefecture": "大阪府",
    "prefecture_kana": "オオサカフ",
    "prefecture_code": 27,
    "city": "大阪市西区",
    "city_kana": "オオサカシニシク",
    "town": "境川",
    "town_kana": "サカイガワ",
    "street": null,
    "office_name": null,
    "office_name_kana": null
  },
  "0025": {
    "postcode": "5500025",
    "prefecture": "大阪府",
    "prefecture_kana": "オオサカフ",
    "prefecture_code": 27,
    "city": "大阪市西区",
    "city_kana": "オオサカシニシク",
    "town": "九条南",
    "town_kana": "クジョウミナミ",
    "street": null,
    "office_name": null,
    "office_name_kana": null
  },
  "0026": {
    "postcode": "5500026",
    "prefecture": "大阪府",
    "prefecture_kana": "オオサカフ",
    "prefecture_code": 27,
    "city": "大阪市西区",
    "city_kana": "オオサカシニシク",
    "town": "安治川",
    "town_kana": "アジガワ",
    "street": null,
    "office_name": null,
    "office_name_kana": null
  },
  "0027": {
    "postcode": "5500027",
    "prefecture": "大阪府",
    "prefecture_kana": "オオサカフ",
    "prefecture_code": 27,
    "city": "大阪市西区",
    "city_kana": "オオサカシニシク",
    "town": "九条",
    "town_kana": "クジョウ",
    "street": null,
    "office_name": null,
    "office_name_kana": null
  },
  "8501": {
    "postcode": "5508501",
    "prefecture": "大阪府",
    "prefecture_kana": "オオサカフ",
    "prefecture_code": 27,
    "city": "大阪市西区",
    "city_kana": "オオサカシニシク",
    "town": "新町",
    "town_kana": "シンマチ",
    "street": "４丁目５−１４",
    "office_name": "大阪市西区役所",
    "office_name_kana": "オオサカシニシクヤクシヨ"
  },
  "8502": {
    "postcode": "5508502",
    "prefecture": "大阪府",
    "prefecture_kana": "オオサカフ",
    "prefecture_code": 27,
    "city": "大阪市西区",
    "city_kana": "オオサカシニシク",
    "town": "立売堀",
    "town_kana": "イタチボリ",
    "street": "５丁目７−２７",
    "office_name": "杉本商事　株式会社",
    "office_name_kana": "スギモトシヨウジ カブシキガイシヤ"
  },
  "8503": {
    "postcode": "5508503",
    "prefecture": "大阪府",
    "prefecture_kana": "オオサカフ",
    "prefecture_code": 27,
    "city": "大阪市西区",
    "city_kana": "オオサカシニシク",
    "town": "西本町",
    "town_kana": "ニシホンマチ",
    "street": "３丁目１−４６奥内５号ビル",
    "office_name": "労働法令新報社",
    "office_name_kana": "ロウドウホウレイシンポウシヤ"
  },
  "8505": {
    "postcode": "5508505",
    "prefecture": "大阪府",
    "prefecture_kana": "オオサカフ",
    "prefecture_code": 27,
    "city": "大阪市西区",
    "city_kana": "オオサカシニシク",
    "town": "本田",
    "town_kana": "ホンデン",
    "street": "１丁目６−１６",
    "office_name": "大阪府　なにわ西府税事務所",
    "office_name_kana": "オオサカフ ナニワニシフゼイジムシヨ"
  },
  "8508": {
    "postcode": "5508508",
    "prefecture": "大阪府",
    "prefecture_kana": "オオサカフ",
    "prefecture_code": 27,
    "city": "大阪市西区",
    "city_kana": "オオサカシニシク",
    "town": "南堀江",
    "town_kana": "ミナミホリエ",
    "street": "１丁目１７−２８なんばＳＳビル",
    "office_name": "大日本印刷　株式会社　大阪",
    "office_name_kana": "ダイニツポンインサツ カブシキガイシヤ オオサカ"
  },
  "8527": {
    "postcode": "5508527",
    "prefecture": "大阪府",
    "prefecture_kana": "オオサカフ",
    "prefecture_code": 27,
    "city": "大阪市西区",
    "city_kana": "オオサカシニシク",
    "town": "江戸堀",
    "town_kana": "エドボリ",
    "street": "２丁目１−２７",
    "office_name": "アズワン　株式会社",
    "office_name_kana": "アズワン カブシキガイシヤ"
  },
  "8530": {
    "postcode": "5508530",
    "prefecture": "大阪府",
    "prefecture_kana": "オオサカフ",
    "prefecture_code": 27,
    "city": "大阪市西区",
    "city_kana": "オオサカシニシク",
    "town": "靱本町",
    "town_kana": "ウツボホンマチ",
    "street": "１丁目１０番２４号",
    "office_name": "株式会社　関西ぱど",
    "office_name_kana": "カブシキガイシヤ カンサイパド"
  },
  "8538": {
    "postcode": "5508538",
    "prefecture": "大阪府",
    "prefecture_kana": "オオサカフ",
    "prefecture_code": 27,
    "city": "大阪市西区",
    "city_kana": "オオサカシニシク",
    "town": "江戸堀",
    "town_kana": "エドボリ",
    "street": "１丁目１２−１労金肥後橋ビル",
    "office_name": "近畿労働金庫",
    "office_name_kana": "キンキロウドウキンコ"
  },
  "8541": {
    "postcode": "5508541",
    "prefecture": "大阪府",
    "prefecture_kana": "オオサカフ",
    "prefecture_code": 27,
    "city": "大阪市西区",
    "city_kana": "オオサカシニシク",
    "town": "立売堀",
    "town_kana": "イタチボリ",
    "street": "１丁目９番２８号",
    "office_name": "サンコーインダストリー　株式会社",
    "office_name_kana": "サンコ-インダストリ- カブシキガイシヤ"
  },
  "8550": {
    "postcode": "5508550",
    "prefecture": "大阪府",
    "prefecture_kana": "オオサカフ",
    "prefecture_code": 27,
    "city": "大阪市西区",
    "city_kana": "オオサカシニシク",
    "town": "阿波座",
    "town_kana": "アワザ",
    "street": "２丁目１−４",
    "office_name": "住友電設　株式会社",
    "office_name_kana": "スミトモデンセツ カブシキガイシヤ"
  },
  "8552": {
    "postcode": "5508552",
    "prefecture": "大阪府",
    "prefecture_kana": "オオサカフ",
    "prefecture_code": 27,
    "city": "大阪市西区",
    "city_kana": "オオサカシニシク",
    "town": "九条南",
    "town_kana": "クジョウミナミ",
    "street": "１−１２−６２",
    "office_name": "大阪市高速電気軌道　株式会社",
    "office_name_kana": "オオサカシコウソクデンキキドウ カブシキガイシヤ"
  },
  "8555": {
    "postcode": "5508555",
    "prefecture": "大阪府",
    "prefecture_kana": "オオサカフ",
    "prefecture_code": 27,
    "city": "大阪市西区",
    "city_kana": "オオサカシニシク",
    "town": "西本町",
    "town_kana": "ニシホンマチ",
    "street": "１丁目１３−２５",
    "office_name": "株式会社　立花エレテック",
    "office_name_kana": "カブシキガイシヤ タチバナエレテツク"
  },
  "8558": {
    "postcode": "5508558",
    "prefecture": "大阪府",
    "prefecture_kana": "オオサカフ",
    "prefecture_code": 27,
    "city": "大阪市西区",
    "city_kana": "オオサカシニシク",
    "town": "本田",
    "town_kana": "ホンデン",
    "street": "４−１−７−３Ｆ",
    "office_name": "銘東　株式会社",
    "office_name_kana": "メイトウ カブシキガイシヤ"
  },
  "8566": {
    "postcode": "5508566",
    "prefecture": "大阪府",
    "prefecture_kana": "オオサカフ",
    "prefecture_code": 27,
    "city": "大阪市西区",
    "city_kana": "オオサカシニシク",
    "town": "九条南",
    "town_kana": "クジョウミナミ",
    "street": "１丁目１２番５４号",
    "office_name": "大阪市消防局",
    "office_name_kana": "オオサカシシヨウボウキヨク"
  },
  "8567": {
    "postcode": "5508567",
    "prefecture": "大阪府",
    "prefecture_kana": "オオサカフ",
    "prefecture_code": 27,
    "city": "大阪市西区",
    "city_kana": "オオサカシニシク",
    "town": "立売堀",
    "town_kana": "イタチボリ",
    "street": "３丁目１−１",
    "office_name": "大阪トヨペット　株式会社",
    "office_name_kana": "オオサカトヨペツト カブシキガイシヤ"
  },
  "8570": {
    "postcode": "5508570",
    "prefecture": "大阪府",
    "prefecture_kana": "オオサカフ",
    "prefecture_code": 27,
    "city": "大阪市西区",
    "city_kana": "オオサカシニシク",
    "town": "江戸堀",
    "town_kana": "エドボリ",
    "street": "１丁目１０番８号",
    "office_name": "デイリースポーツ　大阪本社",
    "office_name_kana": "デイリ-スポ-ツ オオサカホンシヤ"
  },
  "8575": {
    "postcode": "5508575",
    "prefecture": "大阪府",
    "prefecture_kana": "オオサカフ",
    "prefecture_code": 27,
    "city": "大阪市西区",
    "city_kana": "オオサカシニシク",
    "town": "江戸堀",
    "town_kana": "エドボリ",
    "street": "１丁目１０番８号",
    "office_name": "株式会社　京阪神エルマガジン社",
    "office_name_kana": "カブシキガイシヤ ケイハンシンエルマガジンシヤ"
  },
  "8577": {
    "postcode": "5508577",
    "prefecture": "大阪府",
    "prefecture_kana": "オオサカフ",
    "prefecture_code": 27,
    "city": "大阪市西区",
    "city_kana": "オオサカシニシク",
    "town": "江戸堀",
    "town_kana": "エドボリ",
    "street": "１丁目１１番４号損保ジャパン日本興亜肥後橋ビル",
    "office_name": "損保ジャパン日本興亜　株式会社",
    "office_name_kana": "ソンポジヤパンニツポンコウア カブシキガイシヤ"
  },
  "8578": {
    "postcode": "5508578",
    "prefecture": "大阪府",
    "prefecture_kana": "オオサカフ",
    "prefecture_code": 27,
    "city": "大阪市西区",
    "city_kana": "オオサカシニシク",
    "town": "北堀江",
    "town_kana": "キタホリエ",
    "street": "２丁目２−２５−２Ｆ",
    "office_name": "株式会社　オーエムエムジー",
    "office_name_kana": "カブシキカイシヤ オ-エムエムジ-"
  },
  "8580": {
    "postcode": "5508580",
    "prefecture": "大阪府",
    "prefecture_kana": "オオサカフ",
    "prefecture_code": 27,
    "city": "大阪市西区",
    "city_kana": "オオサカシニシク",
    "town": "北堀江",
    "town_kana": "キタホリエ",
    "street": "１丁目１２番１９号",
    "office_name": "株式会社　栗本鐵工所",
    "office_name_kana": "カブシキガイシヤ クリモトテツコウシヨ"
  },
  "8585": {
    "postcode": "5508585",
    "prefecture": "大阪府",
    "prefecture_kana": "オオサカフ",
    "prefecture_code": 27,
    "city": "大阪市西区",
    "city_kana": "オオサカシニシク",
    "town": "北堀江",
    "town_kana": "キタホリエ",
    "street": "３丁目１２−２３",
    "office_name": "三木産業　株式会社　大阪支店",
    "office_name_kana": "ミキサンギヨウ カブシキガイシヤ オオサカシテン"
  },
  "8586": {
    "postcode": "5508586",
    "prefecture": "大阪府",
    "prefecture_kana": "オオサカフ",
    "prefecture_code": 27,
    "city": "大阪市西区",
    "city_kana": "オオサカシニシク",
    "town": "川口",
    "town_kana": "カワグチ",
    "street": "２丁目７番９号",
    "office_name": "西税務署",
    "office_name_kana": "ニシゼイムシヨ"
  },
  "8587": {
    "postcode": "5508587",
    "prefecture": "大阪府",
    "prefecture_kana": "オオサカフ",
    "prefecture_code": 27,
    "city": "大阪市西区",
    "city_kana": "オオサカシニシク",
    "town": "土佐堀",
    "town_kana": "トサボリ",
    "street": "一丁目３番７号",
    "office_name": "帝人グループ",
    "office_name_kana": "テイジングル-プ"
  },
  "8659": {
    "postcode": "5508659",
    "prefecture": "大阪府",
    "prefecture_kana": "オオサカフ",
    "prefecture_code": 27,
    "city": "大阪市西区",
    "city_kana": "オオサカシニシク",
    "town": "靱本町",
    "town_kana": "ウツボホンマチ",
    "street": "１丁目６−６（大阪西郵便局私書箱第１１号）",
    "office_name": "株式会社　オーツー",
    "office_name_kana": "カブシキガイシヤ オ-ツ-"
  },
  "8660": {
    "postcode": "5508660",
    "prefecture": "大阪府",
    "prefecture_kana": "オオサカフ",
    "prefecture_code": 27,
    "city": "大阪市西区",
    "city_kana": "オオサカシニシク",
    "town": "立売堀",
    "town_kana": "イタチボリ",
    "street": "２丁目３−１６（大阪西郵便局私書箱第９６号）",
    "office_name": "株式会社　山善",
    "office_name_kana": "カブシキガイシヤ ヤマゼン"
  }
}