{
  "0000": {
    "postcode": "5590000",
    "prefecture": "大阪府",
    "prefecture_kana": "オオサカフ",
    "prefecture_code": 27,
    "city": "大阪市住之江区",
    "city_kana": "オオサカシスミノエク",
    "town": "",
    "town_kana": "",
    "street": null,
    "office_name": null,
    "office_name_kana": null
  },
  "0001": {
    "postcode": "5590001",
    "prefecture": "大阪府",
    "prefecture_kana": "オオサカフ",
    "prefecture_code": 27,
    "city": "大阪市住之江区",
    "city_kana": "オオサカシスミノエク",
    "town": "粉浜",
    "town_kana": "コハマ",
    "street": null,
    "office_name": null,
    "office_name_kana": null
  },
  "0002": {
    "postcode": "5590002",
    "prefecture": "大阪府",
    "prefecture_kana": "オオサカフ",
    "prefecture_code": 27,
    "city": "大阪市住之江区",
    "city_kana": "オオサカシスミノエク",
    "town": "浜口東",
    "town_kana": "ハマグチヒガシ",
    "street": null,
    "office_name": null,
    "office_name_kana": null
  },
  "0003": {
    "postcode": "5590003",
    "prefecture": "大阪府",
    "prefecture_kana": "オオサカフ",
    "prefecture_code": 27,
    "city": "大阪市住之江区",
    "city_kana": "オオサカシスミノエク",
    "town": "安立",
    "town_kana": "アンリュウ",
    "street": null,
    "office_name": null,
    "office_name_kana": null
  },
  "0004": {
    "postcode": "5590004",
    "prefecture": "大阪府",
    "prefecture_kana": "オオサカフ",
    "prefecture_code": 27,
    "city": "大阪市住之江区",
    "city_kana": "オオサカシスミノエク",
    "town": "住之江",
    "town_kana": "スミノエ",
    "street": null,
    "office_name": null,
    "office_name_kana": null
  },
  "0005": {
    "postcode": "5590005",
    "prefecture": "大阪府",
    "prefecture_kana": "オオサカフ",
    "prefecture_code": 27,
    "city": "大阪市住之江区",
    "city_kana": "オオサカシスミノエク",
    "town": "西住之江",
    "town_kana": "ニシスミノエ",
    "street": null,
    "office_name": null,
    "office_name_kana": null
  },
  "0006": {
    "postcode": "5590006",
    "prefecture": "大阪府",
    "prefecture_kana": "オオサカフ",
    "prefecture_code": 27,
    "city": "大阪市住之江区",
    "city_kana": "オオサカシスミノエク",
    "town": "浜口西",
    "town_kana": "ハマグチニシ",
    "street": null,
    "office_name": null,
    "office_name_kana": null
  },
  "0007": {
    "postcode": "5590007",
    "prefecture": "大阪府",
    "prefecture_kana": "オオサカフ",
    "prefecture_code": 27,
    "city": "大阪市住之江区",
    "city_kana": "オオサカシスミノエク",
    "town": "粉浜西",
    "town_kana": "コハマニシ",
    "street": null,
    "office_name": null,
    "office_name_kana": null
  },
  "0011": {
    "postcode": "5590011",
    "prefecture": "大阪府",
    "prefecture_kana": "オオサカフ",
    "prefecture_code": 27,
    "city": "大阪市住之江区",
    "city_kana": "オオサカシスミノエク",
    "town": "北加賀屋",
    "town_kana": "キタカガヤ",
    "street": null,
    "office_name": null,
    "office_name_kana": null
  },
  "0012": {
    "postcode": "5590012",
    "prefecture": "大阪府",
    "prefecture_kana": "オオサカフ",
    "prefecture_code": 27,
    "city": "大阪市住之江区",
    "city_kana": "オオサカシスミノエク",
    "town": "東加賀屋",
    "town_kana": "ヒガシカガヤ",
    "street": null,
    "office_name": null,
    "office_name_kana": null
  },
  "0013": {
    "postcode": "5590013",
    "prefecture": "大阪府",
    "prefecture_kana": "オオサカフ",
    "prefecture_code": 27,
    "city": "大阪市住之江区",
    "city_kana": "オオサカシスミノエク",
    "town": "御崎",
    "town_kana": "ミサキ",
    "street": null,
    "office_name": null,
    "office_name_kana": null
  },
  "0014": {
    "postcode": "5590014",
    "prefecture": "大阪府",
    "prefecture_kana": "オオサカフ",
    "prefecture_code": 27,
    "city": "大阪市住之江区",
    "city_kana": "オオサカシスミノエク",
    "town": "北島",
    "town_kana": "キタジマ",
    "street": null,
    "office_name": null,
    "office_name_kana": null
  },
  "0015": {
    "postcode": "5590015",
    "prefecture": "大阪府",
    "prefecture_kana": "オオサカフ",
    "prefecture_code": 27,
    "city": "大阪市住之江区",
    "city_kana": "オオサカシスミノエク",
    "town": "南加賀屋",
    "town_kana": "ミナミカガヤ",
    "street": null,
    "office_name": null,
    "office_name_kana": null
  },
  "0016": {
    "postcode": "5590016",
    "prefecture": "大阪府",
    "prefecture_kana": "オオサカフ",
    "prefecture_code": 27,
    "city": "大阪市住之江区",
    "city_kana": "オオサカシスミノエク",
    "town": "西加賀屋",
    "town_kana": "ニシカガヤ",
    "street": null,
    "office_name": null,
    "office_name_kana": null
  },
  "0017": {
    "postcode": "5590017",
    "prefecture": "大阪府",
    "prefecture_kana": "オオサカフ",
    "prefecture_code": 27,
    "city": "大阪市住之江区",
    "city_kana": "オオサカシスミノエク",
    "town": "中加賀屋",
    "town_kana": "ナカカガヤ",
    "street": null,
    "office_name": null,
    "office_name_kana": null
  },
  "0021": {
    "postcode": "5590021",
    "prefecture": "大阪府",
    "prefecture_kana": "オオサカフ",
    "prefecture_code": 27,
    "city": "大阪市住之江区",
    "city_kana": "オオサカシスミノエク",
    "town": "柴谷",
    "town_kana": "シバタニ",
    "street": null,
    "office_name": null,
    "office_name_kana": null
  },
  "0022": {
    "postcode": "5590022",
    "prefecture": "大阪府",
    "prefecture_kana": "オオサカフ",
    "prefecture_code": 27,
    "city": "大阪市住之江区",
    "city_kana": "オオサカシスミノエク",
    "town": "緑木",
    "town_kana": "ミドリギ",
    "street": null,
    "office_name": null,
    "office_name_kana": null
  },
  "0023": {
    "postcode": "5590023",
    "prefecture": "大阪府",
    "prefecture_kana": "オオサカフ",
    "prefecture_code": 27,
    "city": "大阪市住之江区",
    "city_kana": "オオサカシスミノエク",
    "town": "泉",
    "town_kana": "イズミ",
    "street": null,
    "office_name": null,
    "office_name_kana": null
  },
  "0024": {
    "postcode": "5590024",
    "prefecture": "大阪府",
    "prefecture_kana": "オオサカフ",
    "prefecture_code": 27,
    "city": "大阪市住之江区",
    "city_kana": "オオサカシスミノエク",
    "town": "新北島",
    "town_kana": "シンキタジマ",
    "street": null,
    "office_name": null,
    "office_name_kana": null
  },
  "0025": {
    "postcode": "5590025",
    "prefecture": "大阪府",
    "prefecture_kana": "オオサカフ",
    "prefecture_code": 27,
    "city": "大阪市住之江区",
    "city_kana": "オオサカシスミノエク",
    "town": "平林南",
    "town_kana": "ヒラバヤシミナミ",
    "street": null,
    "office_name": null,
    "office_name_kana": null
  },
  "0026": {
    "postcode": "5590026",
    "prefecture": "大阪府",
    "prefecture_kana": "オオサカフ",
    "prefecture_code": 27,
    "city": "大阪市住之江区",
    "city_kana": "オオサカシスミノエク",
    "town": "平林北",
    "town_kana": "ヒラバヤシキタ",
    "street": null,
    "office_name": null,
    "office_name_kana": null
  },
  "0031": {
    "postcode": "5590031",
    "prefecture": "大阪府",
    "prefecture_kana": "オオサカフ",
    "prefecture_code": 27,
    "city": "大阪市住之江区",
    "city_kana": "オオサカシスミノエク",
    "town": "南港東",
    "town_kana": "ナンコウヒガシ",
    "street": null,
    "office_name": null,
    "office_name_kana": null
  },
  "0032": {
    "postcode": "5590032",
    "prefecture": "大阪府",
    "prefecture_kana": "オオサカフ",
    "prefecture_code": 27,
    "city": "大阪市住之江区",
    "city_kana": "オオサカシスミノエク",
    "town": "南港南",
    "town_kana": "ナンコウミナミ",
    "street": null,
    "office_name": null,
    "office_name_kana": null
  },
  "0033": {
    "postcode": "5590033",
    "prefecture": "大阪府",
    "prefecture_kana": "オオサカフ",
    "prefecture_code": 27,
    "city": "大阪市住之江区",
    "city_kana": "オオサカシスミノエク",
    "town": "南港中",
    "town_kana": "ナンコウナカ",
    "street": null,
    "office_name": null,
    "office_name_kana": null
  },
  "0034": {
    "postcode": "5590034",
    "prefecture": "大阪府",
    "prefecture_kana": "オオサカフ",
    "prefecture_code": 27,
    "city": "大阪市住之江区",
    "city_kana": "オオサカシスミノエク",
    "town": "南港北",
    "town_kana": "ナンコウキタ",
    "street": null,
    "office_name": null,
    "office_name_kana": null
  },
  "8501": {
    "postcode": "5598501",
    "prefecture": "大阪府",
    "prefecture_kana": "オオサカフ",
    "prefecture_code": 27,
    "city": "大阪市住之江区",
    "city_kana": "オオサカシスミノエク",
    "town": "南港北",
    "town_kana": "ナンコウキタ",
    "street": "１丁目６−３９",
    "office_name": "株式会社　ライカ",
    "office_name_kana": "カブシキガイシヤ ライカ"
  },
  "8502": {
    "postcode": "5598502",
    "prefecture": "大阪府",
    "prefecture_kana": "オオサカフ",
    "prefecture_code": 27,
    "city": "大阪市住之江区",
    "city_kana": "オオサカシスミノエク",
    "town": "東加賀屋",
    "town_kana": "ヒガシカガヤ",
    "street": "１−３−４０",
    "office_name": "舞昆のこうはら",
    "office_name_kana": "マイコンノコウハラ"
  },
  "8506": {
    "postcode": "5598506",
    "prefecture": "大阪府",
    "prefecture_kana": "オオサカフ",
    "prefecture_code": 27,
    "city": "大阪市住之江区",
    "city_kana": "オオサカシスミノエク",
    "town": "浜口西",
    "town_kana": "ハマグチニシ",
    "street": "３丁目９番５号",
    "office_name": "関西電力　株式会社",
    "office_name_kana": "カンサイデンリヨク カブシキガイシヤ"
  },
  "8510": {
    "postcode": "5598510",
    "prefecture": "大阪府",
    "prefecture_kana": "オオサカフ",
    "prefecture_code": 27,
    "city": "大阪市住之江区",
    "city_kana": "オオサカシスミノエク",
    "town": "南港北",
    "town_kana": "ナンコウキタ",
    "street": "１丁目１２−３５",
    "office_name": "ミズノ　株式会社",
    "office_name_kana": "ミズノ カブシキガイシヤ"
  },
  "8511": {
    "postcode": "5598511",
    "prefecture": "大阪府",
    "prefecture_kana": "オオサカフ",
    "prefecture_code": 27,
    "city": "大阪市住之江区",
    "city_kana": "オオサカシスミノエク",
    "town": "南港東",
    "town_kana": "ナンコウヒガシ",
    "street": "３丁目５−６",
    "office_name": "社団法人　大阪府自動車整備振興会",
    "office_name_kana": "シヤダンホウジン オオサカフジドウシヤセイビシンコウカイ"
  },
  "8519": {
    "postcode": "5598519",
    "prefecture": "大阪府",
    "prefecture_kana": "オオサカフ",
    "prefecture_code": 27,
    "city": "大阪市住之江区",
    "city_kana": "オオサカシスミノエク",
    "town": "南港北",
    "town_kana": "ナンコウキタ",
    "street": "１丁目２４−２２",
    "office_name": "いであ　株式会社　大阪支社",
    "office_name_kana": "イデア カブシキガイシヤ オオサカシシヤ"
  },
  "8550": {
    "postcode": "5598550",
    "prefecture": "大阪府",
    "prefecture_kana": "オオサカフ",
    "prefecture_code": 27,
    "city": "大阪市住之江区",
    "city_kana": "オオサカシスミノエク",
    "town": "平林南",
    "town_kana": "ヒラバヤシミナミ",
    "street": "１丁目８−１９",
    "office_name": "津田産業　株式会社",
    "office_name_kana": "ツダサンギヨウ カブシキガイシヤ"
  },
  "8553": {
    "postcode": "5598553",
    "prefecture": "大阪府",
    "prefecture_kana": "オオサカフ",
    "prefecture_code": 27,
    "city": "大阪市住之江区",
    "city_kana": "オオサカシスミノエク",
    "town": "平林南",
    "town_kana": "ヒラバヤシミナミ",
    "street": "２丁目１１−１",
    "office_name": "株式会社　ロゴスコーポレーション",
    "office_name_kana": "カブシキガイシヤ ロゴスコ-ポレ-シヨン"
  },
  "8555": {
    "postcode": "5598555",
    "prefecture": "大阪府",
    "prefecture_kana": "オオサカフ",
    "prefecture_code": 27,
    "city": "大阪市住之江区",
    "city_kana": "オオサカシスミノエク",
    "town": "南港北",
    "town_kana": "ナンコウキタ",
    "street": "１−１４−１６",
    "office_name": "大阪府　咲洲庁舎",
    "office_name_kana": "オオサカフ サキシマチヨウシヤ"
  },
  "8556": {
    "postcode": "5598556",
    "prefecture": "大阪府",
    "prefecture_kana": "オオサカフ",
    "prefecture_code": 27,
    "city": "大阪市住之江区",
    "city_kana": "オオサカシスミノエク",
    "town": "南港中",
    "town_kana": "ナンコウナカ",
    "street": "１−４−１３０ロジポート大阪ベイ４階Ｅ２",
    "office_name": "銘東　株式会社　南港営業所",
    "office_name_kana": "メイトウ カブシキガイシヤ ナンコウエイギヨウシヨ"
  },
  "8558": {
    "postcode": "5598558",
    "prefecture": "大阪府",
    "prefecture_kana": "オオサカフ",
    "prefecture_code": 27,
    "city": "大阪市住之江区",
    "city_kana": "オオサカシスミノエク",
    "town": "南港北",
    "town_kana": "ナンコウキタ",
    "street": "２−１−１０ＡＴＣＩＴＭ棟９〜１０階",
    "office_name": "大阪市水道局",
    "office_name_kana": "オオサカシスイドウキヨク"
  },
  "8559": {
    "postcode": "5598559",
    "prefecture": "大阪府",
    "prefecture_kana": "オオサカフ",
    "prefecture_code": 27,
    "city": "大阪市住之江区",
    "city_kana": "オオサカシスミノエク",
    "town": "南港北",
    "town_kana": "ナンコウキタ",
    "street": "１丁目７−８９",
    "office_name": "日立造船　株式会社",
    "office_name_kana": "ヒタチゾウセン カブシキガイシヤ"
  },
  "8560": {
    "postcode": "5598560",
    "prefecture": "大阪府",
    "prefecture_kana": "オオサカフ",
    "prefecture_code": 27,
    "city": "大阪市住之江区",
    "city_kana": "オオサカシスミノエク",
    "town": "新北島",
    "town_kana": "シンキタジマ",
    "street": "１−２−１オスカードリーム４階",
    "office_name": "日本年金機構　玉出年金事務所",
    "office_name_kana": "ニツポンネンキンキコウ タマデネンキンジムシヨ"
  },
  "8561": {
    "postcode": "5598561",
    "prefecture": "大阪府",
    "prefecture_kana": "オオサカフ",
    "prefecture_code": 27,
    "city": "大阪市住之江区",
    "city_kana": "オオサカシスミノエク",
    "town": "北加賀屋",
    "town_kana": "キタカガヤ",
    "street": "３丁目４−７",
    "office_name": "株式会社　グルメ杵屋",
    "office_name_kana": "カブシキガイシヤ グルメキネヤ"
  },
  "8585": {
    "postcode": "5598585",
    "prefecture": "大阪府",
    "prefecture_kana": "オオサカフ",
    "prefecture_code": 27,
    "city": "大阪市住之江区",
    "city_kana": "オオサカシスミノエク",
    "town": "浜口西",
    "town_kana": "ハマグチニシ",
    "street": "１丁目１３−３",
    "office_name": "真生印刷　株式会社",
    "office_name_kana": "シンセイインサツ カブシキガイシヤ"
  },
  "8588": {
    "postcode": "5598588",
    "prefecture": "大阪府",
    "prefecture_kana": "オオサカフ",
    "prefecture_code": 27,
    "city": "大阪市住之江区",
    "city_kana": "オオサカシスミノエク",
    "town": "南港北",
    "town_kana": "ナンコウキタ",
    "street": "１丁目１４−１６",
    "office_name": "デジタルプラネット衛星放送",
    "office_name_kana": "デジタルプラネツトエイセイホウソウ"
  },
  "8601": {
    "postcode": "5598601",
    "prefecture": "大阪府",
    "prefecture_kana": "オオサカフ",
    "prefecture_code": 27,
    "city": "大阪市住之江区",
    "city_kana": "オオサカシスミノエク",
    "town": "御崎",
    "town_kana": "ミサキ",
    "street": "３丁目１番１７号",
    "office_name": "住之江区役所",
    "office_name_kana": "スミノエクヤクシヨ"
  },
  "8602": {
    "postcode": "5598602",
    "prefecture": "大阪府",
    "prefecture_kana": "オオサカフ",
    "prefecture_code": 27,
    "city": "大阪市住之江区",
    "city_kana": "オオサカシスミノエク",
    "town": "南港北",
    "town_kana": "ナンコウキタ",
    "street": "１−５−１０２",
    "office_name": "インテックス大阪",
    "office_name_kana": "インテツクスオオサカ"
  },
  "8604": {
    "postcode": "5598604",
    "prefecture": "大阪府",
    "prefecture_kana": "オオサカフ",
    "prefecture_code": 27,
    "city": "大阪市住之江区",
    "city_kana": "オオサカシスミノエク",
    "town": "南港南",
    "town_kana": "ナンコウミナミ",
    "street": "２−４−４３ＧＬＰ大阪３階",
    "office_name": "大阪バイイー",
    "office_name_kana": "オオサカバイイ-"
  },
  "8605": {
    "postcode": "5598605",
    "prefecture": "大阪府",
    "prefecture_kana": "オオサカフ",
    "prefecture_code": 27,
    "city": "大阪市住之江区",
    "city_kana": "オオサカシスミノエク",
    "town": "柴谷",
    "town_kana": "シバタニ",
    "street": "２−８−７６",
    "office_name": "株式会社　ワールドサプライ　大阪営業所",
    "office_name_kana": "カブシキガイシヤ ワ-ルドサプライ オオサカエイギヨウシヨ"
  },
  "8611": {
    "postcode": "5598611",
    "prefecture": "大阪府",
    "prefecture_kana": "オオサカフ",
    "prefecture_code": 27,
    "city": "大阪市住之江区",
    "city_kana": "オオサカシスミノエク",
    "town": "南港北",
    "town_kana": "ナンコウキタ",
    "street": "１丁目２６−１６",
    "office_name": "森ノ宮医療大学",
    "office_name_kana": "モリノミヤイリヨウダイガク"
  },
  "8658": {
    "postcode": "5598658",
    "prefecture": "大阪府",
    "prefecture_kana": "オオサカフ",
    "prefecture_code": 27,
    "city": "大阪市住之江区",
    "city_kana": "オオサカシスミノエク",
    "town": "平林南",
    "town_kana": "ヒラバヤシミナミ",
    "street": "２丁目１０−６０（住之江郵便局私書箱第３０号）",
    "office_name": "永大産業　株式会社　本社",
    "office_name_kana": "エイダイサンギヨウ カブシキガイシヤ ホンシヤ"
  },
  "8729": {
    "postcode": "5598729",
    "prefecture": "大阪府",
    "prefecture_kana": "オオサカフ",
    "prefecture_code": 27,
    "city": "大阪市住之江区",
    "city_kana": "オオサカシスミノエク",
    "town": "平林北",
    "town_kana": "ヒラバヤシキタ",
    "street": "１丁目２−６３",
    "office_name": "パナソニック　株式会社　エナジー住之江工場",
    "office_name_kana": "パナソニツク カブシキガイシヤ エナジ-スミノエコウジヨウ"
  }
}