{
  "0000": {
    "postcode": "5600000",
    "prefecture": "大阪府",
    "prefecture_kana": "オオサカフ",
    "prefecture_code": 27,
    "city": "豊中市",
    "city_kana": "トヨナカシ",
    "town": "",
    "town_kana": "",
    "street": null,
    "office_name": null,
    "office_name_kana": null
  },
  "0001": {
    "postcode": "5600001",
    "prefecture": "大阪府",
    "prefecture_kana": "オオサカフ",
    "prefecture_code": 27,
    "city": "豊中市",
    "city_kana": "トヨナカシ",
    "town": "北緑丘",
    "town_kana": "キタミドリガオカ",
    "street": null,
    "office_name": null,
    "office_name_kana": null
  },
  "0002": {
    "postcode": "5600002",
    "prefecture": "大阪府",
    "prefecture_kana": "オオサカフ",
    "prefecture_code": 27,
    "city": "豊中市",
    "city_kana": "トヨナカシ",
    "town": "緑丘",
    "town_kana": "ミドリガオカ",
    "street": null,
    "office_name": null,
    "office_name_kana": null
  },
  "0003": {
    "postcode": "5600003",
    "prefecture": "大阪府",
    "prefecture_kana": "オオサカフ",
    "prefecture_code": 27,
    "city": "豊中市",
    "city_kana": "トヨナカシ",
    "town": "東豊中町",
    "town_kana": "ヒガシトヨナカチョウ",
    "street": null,
    "office_name": null,
    "office_name_kana": null
  },
  "0004": {
    "postcode": "5600004",
    "prefecture": "大阪府",
    "prefecture_kana": "オオサカフ",
    "prefecture_code": 27,
    "city": "豊中市",
    "city_kana": "トヨナカシ",
    "town": "少路",
    "town_kana": "ショウジ",
    "street": null,
    "office_name": null,
    "office_name_kana": null
  },
  "0005": {
    "postcode": "5600005",
    "prefecture": "大阪府",
    "prefecture_kana": "オオサカフ",
    "prefecture_code": 27,
    "city": "豊中市",
    "city_kana": "トヨナカシ",
    "town": "西緑丘",
    "town_kana": "ニシミドリガオカ",
    "street": null,
    "office_name": null,
    "office_name_kana": null
  },
  "0011": {
    "postcode": "5600011",
    "prefecture": "大阪府",
    "prefecture_kana": "オオサカフ",
    "prefecture_code": 27,
    "city": "豊中市",
    "city_kana": "トヨナカシ",
    "town": "上野西",
    "town_kana": "ウエノニシ",
    "street": null,
    "office_name": null,
    "office_name_kana": null
  },
  "0012": {
    "postcode": "5600012",
    "prefecture": "大阪府",
    "prefecture_kana": "オオサカフ",
    "prefecture_code": 27,
    "city": "豊中市",
    "city_kana": "トヨナカシ",
    "town": "上野坂",
    "town_kana": "ウエノサカ",
    "street": null,
    "office_name": null,
    "office_name_kana": null
  },
  "0013": {
    "postcode": "5600013",
    "prefecture": "大阪府",
    "prefecture_kana": "オオサカフ",
    "prefecture_code": 27,
    "city": "豊中市",
    "city_kana": "トヨナカシ",
    "town": "上野東",
    "town_kana": "ウエノヒガシ",
    "street": null,
    "office_name": null,
    "office_name_kana": null
  },
  "0014": {
    "postcode": "5600014",
    "prefecture": "大阪府",
    "prefecture_kana": "オオサカフ",
    "prefecture_code": 27,
    "city": "豊中市",
    "city_kana": "トヨナカシ",
    "town": "熊野町",
    "town_kana": "クマノチョウ",
    "street": null,
    "office_name": null,
    "office_name_kana": null
  },
  "0015": {
    "postcode": "5600015",
    "prefecture": "大阪府",
    "prefecture_kana": "オオサカフ",
    "prefecture_code": 27,
    "city": "豊中市",
    "city_kana": "トヨナカシ",
    "town": "赤阪",
    "town_kana": "アカサカ",
    "street": null,
    "office_name": null,
    "office_name_kana": null
  },
  "0016": {
    "postcode": "5600016",
    "prefecture": "大阪府",
    "prefecture_kana": "オオサカフ",
    "prefecture_code": 27,
    "city": "豊中市",
    "city_kana": "トヨナカシ",
    "town": "栗ケ丘町",
    "town_kana": "クリガオカチョウ",
    "street": null,
    "office_name": null,
    "office_name_kana": null
  },
  "0021": {
    "postcode": "5600021",
    "prefecture": "大阪府",
    "prefecture_kana": "オオサカフ",
    "prefecture_code": 27,
    "city": "豊中市",
    "city_kana": "トヨナカシ",
    "town": "本町",
    "town_kana": "ホンマチ",
    "street": null,
    "office_name": null,
    "office_name_kana": null
  },
  "0022": {
    "postcode": "5600022",
    "prefecture": "大阪府",
    "prefecture_kana": "オオサカフ",
    "prefecture_code": 27,
    "city": "豊中市",
    "city_kana": "トヨナカシ",
    "town": "北桜塚",
    "town_kana": "キタサクラヅカ",
    "street": null,
    "office_name": null,
    "office_name_kana": null
  },
  "0023": {
    "postcode": "5600023",
    "prefecture": "大阪府",
    "prefecture_kana": "オオサカフ",
    "prefecture_code": 27,
    "city": "豊中市",
    "city_kana": "トヨナカシ",
    "town": "岡上の町",
    "town_kana": "オカカミノチョウ",
    "street": null,
    "office_name": null,
    "office_name_kana": null
  },
  "0024": {
    "postcode": "5600024",
    "prefecture": "大阪府",
    "prefecture_kana": "オオサカフ",
    "prefecture_code": 27,
    "city": "豊中市",
    "city_kana": "トヨナカシ",
    "town": "末広町",
    "town_kana": "スエヒロチョウ",
    "street": null,
    "office_name": null,
    "office_name_kana": null
  },
  "0025": {
    "postcode": "5600025",
    "prefecture": "大阪府",
    "prefecture_kana": "オオサカフ",
    "prefecture_code": 27,
    "city": "豊中市",
    "city_kana": "トヨナカシ",
    "town": "立花町",
    "town_kana": "タチバナチョウ",
    "street": null,
    "office_name": null,
    "office_name_kana": null
  },
  "0026": {
    "postcode": "5600026",
    "prefecture": "大阪府",
    "prefecture_kana": "オオサカフ",
    "prefecture_code": 27,
    "city": "豊中市",
    "city_kana": "トヨナカシ",
    "town": "玉井町",
    "town_kana": "タマイチョウ",
    "street": null,
    "office_name": null,
    "office_name_kana": null
  },
  "0031": {
    "postcode": "5600031",
    "prefecture": "大阪府",
    "prefecture_kana": "オオサカフ",
    "prefecture_code": 27,
    "city": "豊中市",
    "city_kana": "トヨナカシ",
    "town": "螢池北町",
    "town_kana": "ホタルガイケキタマチ",
    "street": null,
    "office_name": null,
    "office_name_kana": null
  },
  "0032": {
    "postcode": "5600032",
    "prefecture": "大阪府",
    "prefecture_kana": "オオサカフ",
    "prefecture_code": 27,
    "city": "豊中市",
    "city_kana": "トヨナカシ",
    "town": "螢池東町",
    "town_kana": "ホタルガイケヒガシマチ",
    "street": null,
    "office_name": null,
    "office_name_kana": null
  },
  "0033": {
    "postcode": "5600033",
    "prefecture": "大阪府",
    "prefecture_kana": "オオサカフ",
    "prefecture_code": 27,
    "city": "豊中市",
    "city_kana": "トヨナカシ",
    "town": "螢池中町",
    "town_kana": "ホタルガイケナカマチ",
    "street": null,
    "office_name": null,
    "office_name_kana": null
  },
  "0034": {
    "postcode": "5600034",
    "prefecture": "大阪府",
    "prefecture_kana": "オオサカフ",
    "prefecture_code": 27,
    "city": "豊中市",
    "city_kana": "トヨナカシ",
    "town": "螢池南町",
    "town_kana": "ホタルガイケミナミマチ",
    "street": null,
    "office_name": null,
    "office_name_kana": null
  },
  "0035": {
    "postcode": "5600035",
    "prefecture": "大阪府",
    "prefecture_kana": "オオサカフ",
    "prefecture_code": 27,
    "city": "豊中市",
    "city_kana": "トヨナカシ",
    "town": "箕輪",
    "town_kana": "ミノワ",
    "street": null,
    "office_name": null,
    "office_name_kana": null
  },
  "0036": {
    "postcode": "5600036",
    "prefecture": "大阪府",
    "prefecture_kana": "オオサカフ",
    "prefecture_code": 27,
    "city": "豊中市",
    "city_kana": "トヨナカシ",
    "town": "螢池西町",
    "town_kana": "ホタルガイケニシマチ",
    "street": null,
    "office_name": null,
    "office_name_kana": null
  },
  "0041": {
    "postcode": "5600041",
    "prefecture": "大阪府",
    "prefecture_kana": "オオサカフ",
    "prefecture_code": 27,
    "city": "豊中市",
    "city_kana": "トヨナカシ",
    "town": "清風荘",
    "town_kana": "セイフウソウ",
    "street": null,
    "office_name": null,
    "office_name_kana": null
  },
  "0042": {
    "postcode": "5600042",
    "prefecture": "大阪府",
    "prefecture_kana": "オオサカフ",
    "prefecture_code": 27,
    "city": "豊中市",
    "city_kana": "トヨナカシ",
    "town": "石橋麻田町",
    "town_kana": "イシバシアサダチョウ",
    "street": null,
    "office_name": null,
    "office_name_kana": null
  },
  "0043": {
    "postcode": "5600043",
    "prefecture": "大阪府",
    "prefecture_kana": "オオサカフ",
    "prefecture_code": 27,
    "city": "豊中市",
    "city_kana": "トヨナカシ",
    "town": "待兼山町",
    "town_kana": "マチカネヤマチョウ",
    "street": null,
    "office_name": null,
    "office_name_kana": null
  },
  "0044": {
    "postcode": "5600044",
    "prefecture": "大阪府",
    "prefecture_kana": "オオサカフ",
    "prefecture_code": 27,
    "city": "豊中市",
    "city_kana": "トヨナカシ",
    "town": "刀根山元町",
    "town_kana": "トネヤマモトマチ",
    "street": null,
    "office_name": null,
    "office_name_kana": null
  },
  "0045": {
    "postcode": "5600045",
    "prefecture": "大阪府",
    "prefecture_kana": "オオサカフ",
    "prefecture_code": 27,
    "city": "豊中市",
    "city_kana": "トヨナカシ",
    "town": "刀根山",
    "town_kana": "トネヤマ",
    "street": null,
    "office_name": null,
    "office_name_kana": null
  },
  "0046": {
    "postcode": "5600046",
    "prefecture": "大阪府",
    "prefecture_kana": "オオサカフ",
    "prefecture_code": 27,
    "city": "豊中市",
    "city_kana": "トヨナカシ",
    "town": "千里園",
    "town_kana": "センリエン",
    "street": null,
    "office_name": null,
    "office_name_kana": null
  },
  "0051": {
    "postcode": "5600051",
    "prefecture": "大阪府",
    "prefecture_kana": "オオサカフ",
    "prefecture_code": 27,
    "city": "豊中市",
    "city_kana": "トヨナカシ",
    "town": "永楽荘",
    "town_kana": "エイラクソウ",
    "street": null,
    "office_name": null,
    "office_name_kana": null
  },
  "0052": {
    "postcode": "5600052",
    "prefecture": "大阪府",
    "prefecture_kana": "オオサカフ",
    "prefecture_code": 27,
    "city": "豊中市",
    "city_kana": "トヨナカシ",
    "town": "春日町",
    "town_kana": "カスガチョウ",
    "street": null,
    "office_name": null,
    "office_name_kana": null
  },
  "0053": {
    "postcode": "5600053",
    "prefecture": "大阪府",
    "prefecture_kana": "オオサカフ",
    "prefecture_code": 27,
    "city": "豊中市",
    "city_kana": "トヨナカシ",
    "town": "向丘",
    "town_kana": "ムカイガオカ",
    "street": null,
    "office_name": null,
    "office_name_kana": null
  },
  "0054": {
    "postcode": "5600054",
    "prefecture": "大阪府",
    "prefecture_kana": "オオサカフ",
    "prefecture_code": 27,
    "city": "豊中市",
    "city_kana": "トヨナカシ",
    "town": "桜の町",
    "town_kana": "サクラノチョウ",
    "street": null,
    "office_name": null,
    "office_name_kana": null
  },
  "0055": {
    "postcode": "5600055",
    "prefecture": "大阪府",
    "prefecture_kana": "オオサカフ",
    "prefecture_code": 27,
    "city": "豊中市",
    "city_kana": "トヨナカシ",
    "town": "柴原町",
    "town_kana": "シバハラチョウ",
    "street": null,
    "office_name": null,
    "office_name_kana": null
  },
  "0056": {
    "postcode": "5600056",
    "prefecture": "大阪府",
    "prefecture_kana": "オオサカフ",
    "prefecture_code": 27,
    "city": "豊中市",
    "city_kana": "トヨナカシ",
    "town": "宮山町",
    "town_kana": "ミヤヤマチョウ",
    "street": null,
    "office_name": null,
    "office_name_kana": null
  },
  "0081": {
    "postcode": "5600081",
    "prefecture": "大阪府",
    "prefecture_kana": "オオサカフ",
    "prefecture_code": 27,
    "city": "豊中市",
    "city_kana": "トヨナカシ",
    "town": "新千里北町",
    "town_kana": "シンセンリキタマチ",
    "street": null,
    "office_name": null,
    "office_name_kana": null
  },
  "0082": {
    "postcode": "5600082",
    "prefecture": "大阪府",
    "prefecture_kana": "オオサカフ",
    "prefecture_code": 27,
    "city": "豊中市",
    "city_kana": "トヨナカシ",
    "town": "新千里東町",
    "town_kana": "シンセンリヒガシマチ",
    "street": null,
    "office_name": null,
    "office_name_kana": null
  },
  "0083": {
    "postcode": "5600083",
    "prefecture": "大阪府",
    "prefecture_kana": "オオサカフ",
    "prefecture_code": 27,
    "city": "豊中市",
    "city_kana": "トヨナカシ",
    "town": "新千里西町",
    "town_kana": "シンセンリニシマチ",
    "street": null,
    "office_name": null,
    "office_name_kana": null
  },
  "0084": {
    "postcode": "5600084",
    "prefecture": "大阪府",
    "prefecture_kana": "オオサカフ",
    "prefecture_code": 27,
    "city": "豊中市",
    "city_kana": "トヨナカシ",
    "town": "新千里南町",
    "town_kana": "シンセンリミナミマチ",
    "street": null,
    "office_name": null,
    "office_name_kana": null
  },
  "0085": {
    "postcode": "5600085",
    "prefecture": "大阪府",
    "prefecture_kana": "オオサカフ",
    "prefecture_code": 27,
    "city": "豊中市",
    "city_kana": "トヨナカシ",
    "town": "上新田",
    "town_kana": "カミシンデン",
    "street": null,
    "office_name": null,
    "office_name_kana": null
  },
  "8505": {
    "postcode": "5608505",
    "prefecture": "大阪府",
    "prefecture_kana": "オオサカフ",
    "prefecture_code": 27,
    "city": "豊中市",
    "city_kana": "トヨナカシ",
    "town": "新千里西町",
    "town_kana": "シンセンリニシマチ",
    "street": "１丁目１番５号",
    "office_name": "大正製薬　株式会社　関西支店",
    "office_name_kana": "タイシヨウセイヤク カブシキガイシヤ カンサイシテン"
  },
  "8506": {
    "postcode": "5608506",
    "prefecture": "大阪府",
    "prefecture_kana": "オオサカフ",
    "prefecture_code": 27,
    "city": "豊中市",
    "city_kana": "トヨナカシ",
    "town": "新千里西町",
    "town_kana": "シンセンリニシマチ",
    "street": "１丁目１番５号",
    "office_name": "大正富山医薬品　株式会社　関西支店",
    "office_name_kana": "タイシヨウトヤマイヤクヒン カブシキガイシヤ カンサイシテン"
  },
  "8513": {
    "postcode": "5608513",
    "prefecture": "大阪府",
    "prefecture_kana": "オオサカフ",
    "prefecture_code": 27,
    "city": "豊中市",
    "city_kana": "トヨナカシ",
    "town": "少路",
    "town_kana": "ショウジ",
    "street": "１丁目１０番１号",
    "office_name": "三菱食品　株式会社　関西支社",
    "office_name_kana": "ミツビシシヨクヒン カブシキガイシヤ カンサイシシヤ"
  },
  "8531": {
    "postcode": "5608531",
    "prefecture": "大阪府",
    "prefecture_kana": "オオサカフ",
    "prefecture_code": 27,
    "city": "豊中市",
    "city_kana": "トヨナカシ",
    "town": "待兼山町",
    "town_kana": "マチカネヤマチョウ",
    "street": "１−３",
    "office_name": "大阪大学　基礎工学部／大学院基礎工学研究科",
    "office_name_kana": "オオサカダイガク キソコウガクブ/ダイガクインキソコウガクケンキユウカ"
  },
  "8532": {
    "postcode": "5608532",
    "prefecture": "大阪府",
    "prefecture_kana": "オオサカフ",
    "prefecture_code": 27,
    "city": "豊中市",
    "city_kana": "トヨナカシ",
    "town": "待兼山町",
    "town_kana": "マチカネヤマチョウ",
    "street": "１−５",
    "office_name": "大阪大学　文学部",
    "office_name_kana": "オオサカダイガク ブンガクブ"
  },
  "8543": {
    "postcode": "5608543",
    "prefecture": "大阪府",
    "prefecture_kana": "オオサカフ",
    "prefecture_code": 27,
    "city": "豊中市",
    "city_kana": "トヨナカシ",
    "town": "新千里西町",
    "town_kana": "シンセンリニシマチ",
    "street": "１丁目１番４号",
    "office_name": "パナソニック　ホームズ　株式会社",
    "office_name_kana": "パナソニツク ホ-ムズ カブシキカイシヤ"
  },
  "8548": {
    "postcode": "5608548",
    "prefecture": "大阪府",
    "prefecture_kana": "オオサカフ",
    "prefecture_code": 27,
    "city": "豊中市",
    "city_kana": "トヨナカシ",
    "town": "箕輪",
    "town_kana": "ミノワ",
    "street": "３丁目８番１号",
    "office_name": "ＡＮＡベースメンテナンステクニクス　株式会社",
    "office_name_kana": "エ-エヌエ-ベ-スメンテナンステクニクス カブシキガイシヤ"
  },
  "8550": {
    "postcode": "5608550",
    "prefecture": "大阪府",
    "prefecture_kana": "オオサカフ",
    "prefecture_code": 27,
    "city": "豊中市",
    "city_kana": "トヨナカシ",
    "town": "新千里東町",
    "town_kana": "シンセンリヒガシマチ",
    "street": "１丁目５−１",
    "office_name": "株式会社　阪急阪神百貨店　千里阪急",
    "office_name_kana": "カブシキガイシヤ ハンキユウハンシンヒヤツカテン センリハンキユウ"
  },
  "8551": {
    "postcode": "5608551",
    "prefecture": "大阪府",
    "prefecture_kana": "オオサカフ",
    "prefecture_code": 27,
    "city": "豊中市",
    "city_kana": "トヨナカシ",
    "town": "岡上の町",
    "town_kana": "オカカミノチョウ",
    "street": "１丁目１番１６号",
    "office_name": "阪急バス　株式会社",
    "office_name_kana": "ハンキユウバス カブシキガイシヤ"
  },
  "8552": {
    "postcode": "5608552",
    "prefecture": "大阪府",
    "prefecture_kana": "オオサカフ",
    "prefecture_code": 27,
    "city": "豊中市",
    "city_kana": "トヨナカシ",
    "town": "刀根山",
    "town_kana": "トネヤマ",
    "street": "５丁目１番１号",
    "office_name": "独立行政法人　国立病院機構　刀根山病院",
    "office_name_kana": "ドクリツギヨウセイホウジン コクリツビヨウインキコウ トネヤマビヨウイン"
  },
  "8555": {
    "postcode": "5608555",
    "prefecture": "大阪府",
    "prefecture_kana": "オオサカフ",
    "prefecture_code": 27,
    "city": "豊中市",
    "city_kana": "トヨナカシ",
    "town": "岡上の町",
    "town_kana": "オカカミノチョウ",
    "street": "２丁目２−３",
    "office_name": "株式会社　ニッショーストアー事業本部",
    "office_name_kana": "カブシキガイシヤ ニツシヨ-ストア-ジギヨウホンブ"
  },
  "8560": {
    "postcode": "5608560",
    "prefecture": "大阪府",
    "prefecture_kana": "オオサカフ",
    "prefecture_code": 27,
    "city": "豊中市",
    "city_kana": "トヨナカシ",
    "town": "岡上の町",
    "town_kana": "オカカミノチョウ",
    "street": "４丁目３−４０",
    "office_name": "豊中年金事務所",
    "office_name_kana": "トヨナカネンキンジムシヨ"
  },
  "8561": {
    "postcode": "5608561",
    "prefecture": "大阪府",
    "prefecture_kana": "オオサカフ",
    "prefecture_code": 27,
    "city": "豊中市",
    "city_kana": "トヨナカシ",
    "town": "新千里東町",
    "town_kana": "シンセンリヒガシマチ",
    "street": "１丁目４−１阪急千里中央ビル６Ｆ",
    "office_name": "ＮＨＫ　千里営業センター",
    "office_name_kana": "エヌエイチケイ センリエイギヨウセンタ-"
  },
  "8565": {
    "postcode": "5608565",
    "prefecture": "大阪府",
    "prefecture_kana": "オオサカフ",
    "prefecture_code": 27,
    "city": "豊中市",
    "city_kana": "トヨナカシ",
    "town": "柴原町",
    "town_kana": "シバハラチョウ",
    "street": "４丁目１４−１",
    "office_name": "市立豊中病院",
    "office_name_kana": "シリツトヨナカビヨウイン"
  },
  "8567": {
    "postcode": "5608567",
    "prefecture": "大阪府",
    "prefecture_kana": "オオサカフ",
    "prefecture_code": 27,
    "city": "豊中市",
    "city_kana": "トヨナカシ",
    "town": "螢池西町",
    "town_kana": "ホタルガイケニシマチ",
    "street": "２丁目２−１",
    "office_name": "株式会社　廣済堂",
    "office_name_kana": "カブシキカイシヤ コウサイドウ"
  },
  "8579": {
    "postcode": "5608579",
    "prefecture": "大阪府",
    "prefecture_kana": "オオサカフ",
    "prefecture_code": 27,
    "city": "豊中市",
    "city_kana": "トヨナカシ",
    "town": "新千里東町",
    "town_kana": "シンセンリヒガシマチ",
    "street": "１丁目５−３",
    "office_name": "株式会社　オートバックスセブン",
    "office_name_kana": "カブシキガイシヤ オ-トバツクスセブン"
  },
  "8580": {
    "postcode": "5608580",
    "prefecture": "大阪府",
    "prefecture_kana": "オオサカフ",
    "prefecture_code": 27,
    "city": "豊中市",
    "city_kana": "トヨナカシ",
    "town": "新千里西町",
    "town_kana": "シンセンリニシマチ",
    "street": "１−１−６",
    "office_name": "損害保険ジャパン日本興亜　株式会社",
    "office_name_kana": "ソンガイホケンジヤパンニツポンコウア カブシキガイシヤ"
  }
}