{
  "0000": {
    "postcode": "5630000",
    "prefecture": "大阪府",
    "prefecture_kana": "オオサカフ",
    "prefecture_code": 27,
    "city": "池田市",
    "city_kana": "イケダシ",
    "town": "",
    "town_kana": "",
    "street": null,
    "office_name": null,
    "office_name_kana": null
  },
  "0011": {
    "postcode": "5630011",
    "prefecture": "大阪府",
    "prefecture_kana": "オオサカフ",
    "prefecture_code": 27,
    "city": "池田市",
    "city_kana": "イケダシ",
    "town": "伏尾町",
    "town_kana": "フシオチョウ",
    "street": null,
    "office_name": null,
    "office_name_kana": null
  },
  "0012": {
    "postcode": "5630012",
    "prefecture": "大阪府",
    "prefecture_kana": "オオサカフ",
    "prefecture_code": 27,
    "city": "池田市",
    "city_kana": "イケダシ",
    "town": "東山町",
    "town_kana": "ヒガシヤマチョウ",
    "street": null,
    "office_name": null,
    "office_name_kana": null
  },
  "0013": {
    "postcode": "5630013",
    "prefecture": "大阪府",
    "prefecture_kana": "オオサカフ",
    "prefecture_code": 27,
    "city": "池田市",
    "city_kana": "イケダシ",
    "town": "中川原町",
    "town_kana": "ナカガワラチョウ",
    "street": null,
    "office_name": null,
    "office_name_kana": null
  },
  "0014": {
    "postcode": "5630014",
    "prefecture": "大阪府",
    "prefecture_kana": "オオサカフ",
    "prefecture_code": 27,
    "city": "池田市",
    "city_kana": "イケダシ",
    "town": "木部町",
    "town_kana": "キベチョウ",
    "street": null,
    "office_name": null,
    "office_name_kana": null
  },
  "0015": {
    "postcode": "5630015",
    "prefecture": "大阪府",
    "prefecture_kana": "オオサカフ",
    "prefecture_code": 27,
    "city": "池田市",
    "city_kana": "イケダシ",
    "town": "古江町",
    "town_kana": "フルエチョウ",
    "street": null,
    "office_name": null,
    "office_name_kana": null
  },
  "0016": {
    "postcode": "5630016",
    "prefecture": "大阪府",
    "prefecture_kana": "オオサカフ",
    "prefecture_code": 27,
    "city": "池田市",
    "city_kana": "イケダシ",
    "town": "吉田町",
    "town_kana": "ヨシダチョウ",
    "street": null,
    "office_name": null,
    "office_name_kana": null
  },
  "0017": {
    "postcode": "5630017",
    "prefecture": "大阪府",
    "prefecture_kana": "オオサカフ",
    "prefecture_code": 27,
    "city": "池田市",
    "city_kana": "イケダシ",
    "town": "伏尾台",
    "town_kana": "フシオダイ",
    "street": null,
    "office_name": null,
    "office_name_kana": null
  },
  "0021": {
    "postcode": "5630021",
    "prefecture": "大阪府",
    "prefecture_kana": "オオサカフ",
    "prefecture_code": 27,
    "city": "池田市",
    "city_kana": "イケダシ",
    "town": "畑",
    "town_kana": "ハタ",
    "street": null,
    "office_name": null,
    "office_name_kana": null
  },
  "0022": {
    "postcode": "5630022",
    "prefecture": "大阪府",
    "prefecture_kana": "オオサカフ",
    "prefecture_code": 27,
    "city": "池田市",
    "city_kana": "イケダシ",
    "town": "旭丘",
    "town_kana": "アサヒガオカ",
    "street": null,
    "office_name": null,
    "office_name_kana": null
  },
  "0023": {
    "postcode": "5630023",
    "prefecture": "大阪府",
    "prefecture_kana": "オオサカフ",
    "prefecture_code": 27,
    "city": "池田市",
    "city_kana": "イケダシ",
    "town": "井口堂",
    "town_kana": "イグチドウ",
    "street": null,
    "office_name": null,
    "office_name_kana": null
  },
  "0024": {
    "postcode": "5630024",
    "prefecture": "大阪府",
    "prefecture_kana": "オオサカフ",
    "prefecture_code": 27,
    "city": "池田市",
    "city_kana": "イケダシ",
    "town": "鉢塚",
    "town_kana": "ハチヅカ",
    "street": null,
    "office_name": null,
    "office_name_kana": null
  },
  "0025": {
    "postcode": "5630025",
    "prefecture": "大阪府",
    "prefecture_kana": "オオサカフ",
    "prefecture_code": 27,
    "city": "池田市",
    "city_kana": "イケダシ",
    "town": "城南",
    "town_kana": "ジョウナン",
    "street": null,
    "office_name": null,
    "office_name_kana": null
  },
  "0026": {
    "postcode": "5630026",
    "prefecture": "大阪府",
    "prefecture_kana": "オオサカフ",
    "prefecture_code": 27,
    "city": "池田市",
    "city_kana": "イケダシ",
    "town": "緑丘",
    "town_kana": "ミドリガオカ",
    "street": null,
    "office_name": null,
    "office_name_kana": null
  },
  "0027": {
    "postcode": "5630027",
    "prefecture": "大阪府",
    "prefecture_kana": "オオサカフ",
    "prefecture_code": 27,
    "city": "池田市",
    "city_kana": "イケダシ",
    "town": "上池田",
    "town_kana": "ウエイケダ",
    "street": null,
    "office_name": null,
    "office_name_kana": null
  },
  "0028": {
    "postcode": "5630028",
    "prefecture": "大阪府",
    "prefecture_kana": "オオサカフ",
    "prefecture_code": 27,
    "city": "池田市",
    "city_kana": "イケダシ",
    "town": "渋谷",
    "town_kana": "シブタニ",
    "street": null,
    "office_name": null,
    "office_name_kana": null
  },
  "0029": {
    "postcode": "5630029",
    "prefecture": "大阪府",
    "prefecture_kana": "オオサカフ",
    "prefecture_code": 27,
    "city": "池田市",
    "city_kana": "イケダシ",
    "town": "五月丘",
    "town_kana": "サツキガオカ",
    "street": null,
    "office_name": null,
    "office_name_kana": null
  },
  "0031": {
    "postcode": "5630031",
    "prefecture": "大阪府",
    "prefecture_kana": "オオサカフ",
    "prefecture_code": 27,
    "city": "池田市",
    "city_kana": "イケダシ",
    "town": "天神",
    "town_kana": "テンジン",
    "street": null,
    "office_name": null,
    "office_name_kana": null
  },
  "0032": {
    "postcode": "5630032",
    "prefecture": "大阪府",
    "prefecture_kana": "オオサカフ",
    "prefecture_code": 27,
    "city": "池田市",
    "city_kana": "イケダシ",
    "town": "石橋",
    "town_kana": "イシバシ",
    "street": null,
    "office_name": null,
    "office_name_kana": null
  },
  "0033": {
    "postcode": "5630033",
    "prefecture": "大阪府",
    "prefecture_kana": "オオサカフ",
    "prefecture_code": 27,
    "city": "池田市",
    "city_kana": "イケダシ",
    "town": "住吉",
    "town_kana": "スミヨシ",
    "street": null,
    "office_name": null,
    "office_name_kana": null
  },
  "0034": {
    "postcode": "5630034",
    "prefecture": "大阪府",
    "prefecture_kana": "オオサカフ",
    "prefecture_code": 27,
    "city": "池田市",
    "city_kana": "イケダシ",
    "town": "空港",
    "town_kana": "クウコウ",
    "street": null,
    "office_name": null,
    "office_name_kana": null
  },
  "0035": {
    "postcode": "5630035",
    "prefecture": "大阪府",
    "prefecture_kana": "オオサカフ",
    "prefecture_code": 27,
    "city": "池田市",
    "city_kana": "イケダシ",
    "town": "豊島南",
    "town_kana": "トヨシマミナミ",
    "street": null,
    "office_name": null,
    "office_name_kana": null
  },
  "0036": {
    "postcode": "5630036",
    "prefecture": "大阪府",
    "prefecture_kana": "オオサカフ",
    "prefecture_code": 27,
    "city": "池田市",
    "city_kana": "イケダシ",
    "town": "豊島北",
    "town_kana": "トヨシマキタ",
    "street": null,
    "office_name": null,
    "office_name_kana": null
  },
  "0037": {
    "postcode": "5630037",
    "prefecture": "大阪府",
    "prefecture_kana": "オオサカフ",
    "prefecture_code": 27,
    "city": "池田市",
    "city_kana": "イケダシ",
    "town": "八王寺",
    "town_kana": "ハチオウジ",
    "street": null,
    "office_name": null,
    "office_name_kana": null
  },
  "0038": {
    "postcode": "5630038",
    "prefecture": "大阪府",
    "prefecture_kana": "オオサカフ",
    "prefecture_code": 27,
    "city": "池田市",
    "city_kana": "イケダシ",
    "town": "荘園",
    "town_kana": "ソウエン",
    "street": null,
    "office_name": null,
    "office_name_kana": null
  },
  "0041": {
    "postcode": "5630041",
    "prefecture": "大阪府",
    "prefecture_kana": "オオサカフ",
    "prefecture_code": 27,
    "city": "池田市",
    "city_kana": "イケダシ",
    "town": "満寿美町",
    "town_kana": "マスミチョウ",
    "street": null,
    "office_name": null,
    "office_name_kana": null
  },
  "0042": {
    "postcode": "5630042",
    "prefecture": "大阪府",
    "prefecture_kana": "オオサカフ",
    "prefecture_code": 27,
    "city": "池田市",
    "city_kana": "イケダシ",
    "town": "宇保町",
    "town_kana": "ウホチョウ",
    "street": null,
    "office_name": null,
    "office_name_kana": null
  },
  "0043": {
    "postcode": "5630043",
    "prefecture": "大阪府",
    "prefecture_kana": "オオサカフ",
    "prefecture_code": 27,
    "city": "池田市",
    "city_kana": "イケダシ",
    "town": "神田",
    "town_kana": "コウダ",
    "street": null,
    "office_name": null,
    "office_name_kana": null
  },
  "0044": {
    "postcode": "5630044",
    "prefecture": "大阪府",
    "prefecture_kana": "オオサカフ",
    "prefecture_code": 27,
    "city": "池田市",
    "city_kana": "イケダシ",
    "town": "ダイハツ町",
    "town_kana": "ダイハツチョウ",
    "street": null,
    "office_name": null,
    "office_name_kana": null
  },
  "0045": {
    "postcode": "5630045",
    "prefecture": "大阪府",
    "prefecture_kana": "オオサカフ",
    "prefecture_code": 27,
    "city": "池田市",
    "city_kana": "イケダシ",
    "town": "桃園",
    "town_kana": "モモゾノ",
    "street": null,
    "office_name": null,
    "office_name_kana": null
  },
  "0046": {
    "postcode": "5630046",
    "prefecture": "大阪府",
    "prefecture_kana": "オオサカフ",
    "prefecture_code": 27,
    "city": "池田市",
    "city_kana": "イケダシ",
    "town": "姫室町",
    "town_kana": "ヒメムロチョウ",
    "street": null,
    "office_name": null,
    "office_name_kana": null
  },
  "0047": {
    "postcode": "5630047",
    "prefecture": "大阪府",
    "prefecture_kana": "オオサカフ",
    "prefecture_code": 27,
    "city": "池田市",
    "city_kana": "イケダシ",
    "town": "室町",
    "town_kana": "ムロマチ",
    "street": null,
    "office_name": null,
    "office_name_kana": null
  },
  "0048": {
    "postcode": "5630048",
    "prefecture": "大阪府",
    "prefecture_kana": "オオサカフ",
    "prefecture_code": 27,
    "city": "池田市",
    "city_kana": "イケダシ",
    "town": "呉服町",
    "town_kana": "クレハチョウ",
    "street": null,
    "office_name": null,
    "office_name_kana": null
  },
  "0050": {
    "postcode": "5630050",
    "prefecture": "大阪府",
    "prefecture_kana": "オオサカフ",
    "prefecture_code": 27,
    "city": "池田市",
    "city_kana": "イケダシ",
    "town": "新町",
    "town_kana": "シンマチ",
    "street": null,
    "office_name": null,
    "office_name_kana": null
  },
  "0051": {
    "postcode": "5630051",
    "prefecture": "大阪府",
    "prefecture_kana": "オオサカフ",
    "prefecture_code": 27,
    "city": "池田市",
    "city_kana": "イケダシ",
    "town": "綾羽",
    "town_kana": "アヤハ",
    "street": null,
    "office_name": null,
    "office_name_kana": null
  },
  "0052": {
    "postcode": "5630052",
    "prefecture": "大阪府",
    "prefecture_kana": "オオサカフ",
    "prefecture_code": 27,
    "city": "池田市",
    "city_kana": "イケダシ",
    "town": "城山町",
    "town_kana": "シロヤマチョウ",
    "street": null,
    "office_name": null,
    "office_name_kana": null
  },
  "0053": {
    "postcode": "5630053",
    "prefecture": "大阪府",
    "prefecture_kana": "オオサカフ",
    "prefecture_code": 27,
    "city": "池田市",
    "city_kana": "イケダシ",
    "town": "建石町",
    "town_kana": "タテイシチョウ",
    "street": null,
    "office_name": null,
    "office_name_kana": null
  },
  "0054": {
    "postcode": "5630054",
    "prefecture": "大阪府",
    "prefecture_kana": "オオサカフ",
    "prefecture_code": 27,
    "city": "池田市",
    "city_kana": "イケダシ",
    "town": "大和町",
    "town_kana": "ダイワチョウ",
    "street": null,
    "office_name": null,
    "office_name_kana": null
  },
  "0055": {
    "postcode": "5630055",
    "prefecture": "大阪府",
    "prefecture_kana": "オオサカフ",
    "prefecture_code": 27,
    "city": "池田市",
    "city_kana": "イケダシ",
    "town": "菅原町",
    "town_kana": "スガハラチョウ",
    "street": null,
    "office_name": null,
    "office_name_kana": null
  },
  "0056": {
    "postcode": "5630056",
    "prefecture": "大阪府",
    "prefecture_kana": "オオサカフ",
    "prefecture_code": 27,
    "city": "池田市",
    "city_kana": "イケダシ",
    "town": "栄町",
    "town_kana": "サカエマチ",
    "street": null,
    "office_name": null,
    "office_name_kana": null
  },
  "0057": {
    "postcode": "5630057",
    "prefecture": "大阪府",
    "prefecture_kana": "オオサカフ",
    "prefecture_code": 27,
    "city": "池田市",
    "city_kana": "イケダシ",
    "town": "槻木町",
    "town_kana": "ツキノキチョウ",
    "street": null,
    "office_name": null,
    "office_name_kana": null
  },
  "0058": {
    "postcode": "5630058",
    "prefecture": "大阪府",
    "prefecture_kana": "オオサカフ",
    "prefecture_code": 27,
    "city": "池田市",
    "city_kana": "イケダシ",
    "town": "栄本町",
    "town_kana": "サカエホンマチ",
    "street": null,
    "office_name": null,
    "office_name_kana": null
  },
  "0059": {
    "postcode": "5630059",
    "prefecture": "大阪府",
    "prefecture_kana": "オオサカフ",
    "prefecture_code": 27,
    "city": "池田市",
    "city_kana": "イケダシ",
    "town": "西本町",
    "town_kana": "ニシホンマチ",
    "street": null,
    "office_name": null,
    "office_name_kana": null
  },
  "0100": {
    "postcode": "5630100",
    "prefecture": "大阪府",
    "prefecture_kana": "オオサカフ",
    "prefecture_code": 27,
    "city": "豊能郡豊能町",
    "city_kana": "トヨノグントヨノチョウ",
    "town": "",
    "town_kana": "",
    "street": null,
    "office_name": null,
    "office_name_kana": null
  },
  "0101": {
    "postcode": "5630101",
    "prefecture": "大阪府",
    "prefecture_kana": "オオサカフ",
    "prefecture_code": 27,
    "city": "豊能郡豊能町",
    "city_kana": "トヨノグントヨノチョウ",
    "town": "吉川",
    "town_kana": "ヨシカワ",
    "street": null,
    "office_name": null,
    "office_name_kana": null
  },
  "0102": {
    "postcode": "5630102",
    "prefecture": "大阪府",
    "prefecture_kana": "オオサカフ",
    "prefecture_code": 27,
    "city": "豊能郡豊能町",
    "city_kana": "トヨノグントヨノチョウ",
    "town": "ときわ台",
    "town_kana": "トキワダイ",
    "street": null,
    "office_name": null,
    "office_name_kana": null
  },
  "0103": {
    "postcode": "5630103",
    "prefecture": "大阪府",
    "prefecture_kana": "オオサカフ",
    "prefecture_code": 27,
    "city": "豊能郡豊能町",
    "city_kana": "トヨノグントヨノチョウ",
    "town": "東ときわ台",
    "town_kana": "ヒガシトキワダイ",
    "street": null,
    "office_name": null,
    "office_name_kana": null
  },
  "0104": {
    "postcode": "5630104",
    "prefecture": "大阪府",
    "prefecture_kana": "オオサカフ",
    "prefecture_code": 27,
    "city": "豊能郡豊能町",
    "city_kana": "トヨノグントヨノチョウ",
    "town": "光風台",
    "town_kana": "コウフウダイ",
    "street": null,
    "office_name": null,
    "office_name_kana": null
  },
  "0105": {
    "postcode": "5630105",
    "prefecture": "大阪府",
    "prefecture_kana": "オオサカフ",
    "prefecture_code": 27,
    "city": "豊能郡豊能町",
    "city_kana": "トヨノグントヨノチョウ",
    "town": "新光風台",
    "town_kana": "シンコウフウダイ",
    "street": null,
    "office_name": null,
    "office_name_kana": null
  },
  "0111": {
    "postcode": "5630111",
    "prefecture": "大阪府",
    "prefecture_kana": "オオサカフ",
    "prefecture_code": 27,
    "city": "豊能郡能勢町",
    "city_kana": "トヨノグンノセチョウ",
    "town": "吉野",
    "town_kana": "ヨシノ",
    "street": null,
    "office_name": null,
    "office_name_kana": null
  },
  "0112": {
    "postcode": "5630112",
    "prefecture": "大阪府",
    "prefecture_kana": "オオサカフ",
    "prefecture_code": 27,
    "city": "豊能郡能勢町",
    "city_kana": "トヨノグンノセチョウ",
    "town": "杉原",
    "town_kana": "スギハラ",
    "street": null,
    "office_name": null,
    "office_name_kana": null
  },
  "0113": {
    "postcode": "5630113",
    "prefecture": "大阪府",
    "prefecture_kana": "オオサカフ",
    "prefecture_code": 27,
    "city": "豊能郡能勢町",
    "city_kana": "トヨノグンノセチョウ",
    "town": "倉垣",
    "town_kana": "クラガキ",
    "street": null,
    "office_name": null,
    "office_name_kana": null
  },
  "0114": {
    "postcode": "5630114",
    "prefecture": "大阪府",
    "prefecture_kana": "オオサカフ",
    "prefecture_code": 27,
    "city": "豊能郡能勢町",
    "city_kana": "トヨノグンノセチョウ",
    "town": "山内",
    "town_kana": "ヤマウチ",
    "street": null,
    "office_name": null,
    "office_name_kana": null
  },
  "0121": {
    "postcode": "5630121",
    "prefecture": "大阪府",
    "prefecture_kana": "オオサカフ",
    "prefecture_code": 27,
    "city": "豊能郡能勢町",
    "city_kana": "トヨノグンノセチョウ",
    "town": "地黄",
    "town_kana": "ジオウ",
    "street": null,
    "office_name": null,
    "office_name_kana": null
  },
  "0122": {
    "postcode": "5630122",
    "prefecture": "大阪府",
    "prefecture_kana": "オオサカフ",
    "prefecture_code": 27,
    "city": "豊能郡能勢町",
    "city_kana": "トヨノグンノセチョウ",
    "town": "上田尻",
    "town_kana": "カミタジリ",
    "street": null,
    "office_name": null,
    "office_name_kana": null
  },
  "0123": {
    "postcode": "5630123",
    "prefecture": "大阪府",
    "prefecture_kana": "オオサカフ",
    "prefecture_code": 27,
    "city": "豊能郡能勢町",
    "city_kana": "トヨノグンノセチョウ",
    "town": "下田尻",
    "town_kana": "シモタジリ",
    "street": null,
    "office_name": null,
    "office_name_kana": null
  },
  "0131": {
    "postcode": "5630131",
    "prefecture": "大阪府",
    "prefecture_kana": "オオサカフ",
    "prefecture_code": 27,
    "city": "豊能郡能勢町",
    "city_kana": "トヨノグンノセチョウ",
    "town": "野間大原",
    "town_kana": "ノマオオハラ",
    "street": null,
    "office_name": null,
    "office_name_kana": null
  },
  "0132": {
    "postcode": "5630132",
    "prefecture": "大阪府",
    "prefecture_kana": "オオサカフ",
    "prefecture_code": 27,
    "city": "豊能郡能勢町",
    "city_kana": "トヨノグンノセチョウ",
    "town": "野間中",
    "town_kana": "ノマナカ",
    "street": null,
    "office_name": null,
    "office_name_kana": null
  },
  "0133": {
    "postcode": "5630133",
    "prefecture": "大阪府",
    "prefecture_kana": "オオサカフ",
    "prefecture_code": 27,
    "city": "豊能郡能勢町",
    "city_kana": "トヨノグンノセチョウ",
    "town": "野間稲地",
    "town_kana": "ノマイナジ",
    "street": null,
    "office_name": null,
    "office_name_kana": null
  },
  "0134": {
    "postcode": "5630134",
    "prefecture": "大阪府",
    "prefecture_kana": "オオサカフ",
    "prefecture_code": 27,
    "city": "豊能郡能勢町",
    "city_kana": "トヨノグンノセチョウ",
    "town": "野間出野",
    "town_kana": "ノマシュツノ",
    "street": null,
    "office_name": null,
    "office_name_kana": null
  },
  "0135": {
    "postcode": "5630135",
    "prefecture": "大阪府",
    "prefecture_kana": "オオサカフ",
    "prefecture_code": 27,
    "city": "豊能郡能勢町",
    "city_kana": "トヨノグンノセチョウ",
    "town": "野間西山",
    "town_kana": "ノマニシヤマ",
    "street": null,
    "office_name": null,
    "office_name_kana": null
  },
  "0211": {
    "postcode": "5630211",
    "prefecture": "大阪府",
    "prefecture_kana": "オオサカフ",
    "prefecture_code": 27,
    "city": "豊能郡豊能町",
    "city_kana": "トヨノグントヨノチョウ",
    "town": "牧",
    "town_kana": "マキ",
    "street": null,
    "office_name": null,
    "office_name_kana": null
  },
  "0212": {
    "postcode": "5630212",
    "prefecture": "大阪府",
    "prefecture_kana": "オオサカフ",
    "prefecture_code": 27,
    "city": "豊能郡豊能町",
    "city_kana": "トヨノグントヨノチョウ",
    "town": "寺田",
    "town_kana": "テラダ",
    "street": null,
    "office_name": null,
    "office_name_kana": null
  },
  "0213": {
    "postcode": "5630213",
    "prefecture": "大阪府",
    "prefecture_kana": "オオサカフ",
    "prefecture_code": 27,
    "city": "豊能郡豊能町",
    "city_kana": "トヨノグントヨノチョウ",
    "town": "切畑",
    "town_kana": "キリハタ",
    "street": null,
    "office_name": null,
    "office_name_kana": null
  },
  "0214": {
    "postcode": "5630214",
    "prefecture": "大阪府",
    "prefecture_kana": "オオサカフ",
    "prefecture_code": 27,
    "city": "豊能郡豊能町",
    "city_kana": "トヨノグントヨノチョウ",
    "town": "希望ケ丘",
    "town_kana": "キボウガオカ",
    "street": null,
    "office_name": null,
    "office_name_kana": null
  },
  "0215": {
    "postcode": "5630215",
    "prefecture": "大阪府",
    "prefecture_kana": "オオサカフ",
    "prefecture_code": 27,
    "city": "豊能郡豊能町",
    "city_kana": "トヨノグントヨノチョウ",
    "town": "木代",
    "town_kana": "キシロ",
    "street": null,
    "office_name": null,
    "office_name_kana": null
  },
  "0216": {
    "postcode": "5630216",
    "prefecture": "大阪府",
    "prefecture_kana": "オオサカフ",
    "prefecture_code": 27,
    "city": "豊能郡豊能町",
    "city_kana": "トヨノグントヨノチョウ",
    "town": "高山",
    "town_kana": "タカヤマ",
    "street": null,
    "office_name": null,
    "office_name_kana": null
  },
  "0217": {
    "postcode": "5630217",
    "prefecture": "大阪府",
    "prefecture_kana": "オオサカフ",
    "prefecture_code": 27,
    "city": "豊能郡豊能町",
    "city_kana": "トヨノグントヨノチョウ",
    "town": "川尻",
    "town_kana": "カワシリ",
    "street": null,
    "office_name": null,
    "office_name_kana": null
  },
  "0218": {
    "postcode": "5630218",
    "prefecture": "大阪府",
    "prefecture_kana": "オオサカフ",
    "prefecture_code": 27,
    "city": "豊能郡豊能町",
    "city_kana": "トヨノグントヨノチョウ",
    "town": "野間口",
    "town_kana": "ノマグチ",
    "street": null,
    "office_name": null,
    "office_name_kana": null
  },
  "0219": {
    "postcode": "5630219",
    "prefecture": "大阪府",
    "prefecture_kana": "オオサカフ",
    "prefecture_code": 27,
    "city": "豊能郡豊能町",
    "city_kana": "トヨノグントヨノチョウ",
    "town": "余野",
    "town_kana": "ヨノ",
    "street": null,
    "office_name": null,
    "office_name_kana": null
  },
  "0251": {
    "postcode": "5630251",
    "prefecture": "大阪府",
    "prefecture_kana": "オオサカフ",
    "prefecture_code": 27,
    "city": "箕面市",
    "city_kana": "ミノオシ",
    "town": "上止々呂美",
    "town_kana": "カミトドロミ",
    "street": null,
    "office_name": null,
    "office_name_kana": null
  },
  "0252": {
    "postcode": "5630252",
    "prefecture": "大阪府",
    "prefecture_kana": "オオサカフ",
    "prefecture_code": 27,
    "city": "箕面市",
    "city_kana": "ミノオシ",
    "town": "下止々呂美",
    "town_kana": "シモトドロミ",
    "street": null,
    "office_name": null,
    "office_name_kana": null
  },
  "0255": {
    "postcode": "5630255",
    "prefecture": "大阪府",
    "prefecture_kana": "オオサカフ",
    "prefecture_code": 27,
    "city": "箕面市",
    "city_kana": "ミノオシ",
    "town": "森町西",
    "town_kana": "シンマチニシ",
    "street": null,
    "office_name": null,
    "office_name_kana": null
  },
  "0256": {
    "postcode": "5630256",
    "prefecture": "大阪府",
    "prefecture_kana": "オオサカフ",
    "prefecture_code": 27,
    "city": "箕面市",
    "city_kana": "ミノオシ",
    "town": "森町北",
    "town_kana": "シンマチキタ",
    "street": null,
    "office_name": null,
    "office_name_kana": null
  },
  "0257": {
    "postcode": "5630257",
    "prefecture": "大阪府",
    "prefecture_kana": "オオサカフ",
    "prefecture_code": 27,
    "city": "箕面市",
    "city_kana": "ミノオシ",
    "town": "森町中",
    "town_kana": "シンマチナカ",
    "street": null,
    "office_name": null,
    "office_name_kana": null
  },
  "0258": {
    "postcode": "5630258",
    "prefecture": "大阪府",
    "prefecture_kana": "オオサカフ",
    "prefecture_code": 27,
    "city": "箕面市",
    "city_kana": "ミノオシ",
    "town": "森町南",
    "town_kana": "シンマチミナミ",
    "street": null,
    "office_name": null,
    "office_name_kana": null
  },
  "0292": {
    "postcode": "5630292",
    "prefecture": "大阪府",
    "prefecture_kana": "オオサカフ",
    "prefecture_code": 27,
    "city": "豊能郡豊能町",
    "city_kana": "トヨノグントヨノチョウ",
    "town": "余野",
    "town_kana": "ヨノ",
    "street": "４１４番地１",
    "office_name": "豊能町",
    "office_name_kana": "トヨノチヨウ"
  },
  "0300": {
    "postcode": "5630300",
    "prefecture": "大阪府",
    "prefecture_kana": "オオサカフ",
    "prefecture_code": 27,
    "city": "豊能郡能勢町",
    "city_kana": "トヨノグンノセチョウ",
    "town": "",
    "town_kana": "",
    "street": null,
    "office_name": null,
    "office_name_kana": null
  },
  "0341": {
    "postcode": "5630341",
    "prefecture": "大阪府",
    "prefecture_kana": "オオサカフ",
    "prefecture_code": 27,
    "city": "豊能郡能勢町",
    "city_kana": "トヨノグンノセチョウ",
    "town": "宿野",
    "town_kana": "シュクノ",
    "street": null,
    "office_name": null,
    "office_name_kana": null
  },
  "0351": {
    "postcode": "5630351",
    "prefecture": "大阪府",
    "prefecture_kana": "オオサカフ",
    "prefecture_code": 27,
    "city": "豊能郡能勢町",
    "city_kana": "トヨノグンノセチョウ",
    "town": "栗栖",
    "town_kana": "クルス",
    "street": null,
    "office_name": null,
    "office_name_kana": null
  },
  "0352": {
    "postcode": "5630352",
    "prefecture": "大阪府",
    "prefecture_kana": "オオサカフ",
    "prefecture_code": 27,
    "city": "豊能郡能勢町",
    "city_kana": "トヨノグンノセチョウ",
    "town": "大里",
    "town_kana": "オオザト",
    "street": null,
    "office_name": null,
    "office_name_kana": null
  },
  "0353": {
    "postcode": "5630353",
    "prefecture": "大阪府",
    "prefecture_kana": "オオサカフ",
    "prefecture_code": 27,
    "city": "豊能郡能勢町",
    "city_kana": "トヨノグンノセチョウ",
    "town": "柏原",
    "town_kana": "カシハラ",
    "street": null,
    "office_name": null,
    "office_name_kana": null
  },
  "0354": {
    "postcode": "5630354",
    "prefecture": "大阪府",
    "prefecture_kana": "オオサカフ",
    "prefecture_code": 27,
    "city": "豊能郡能勢町",
    "city_kana": "トヨノグンノセチョウ",
    "town": "片山",
    "town_kana": "カタヤマ",
    "street": null,
    "office_name": null,
    "office_name_kana": null
  },
  "0355": {
    "postcode": "5630355",
    "prefecture": "大阪府",
    "prefecture_kana": "オオサカフ",
    "prefecture_code": 27,
    "city": "豊能郡能勢町",
    "city_kana": "トヨノグンノセチョウ",
    "town": "下田",
    "town_kana": "シモダ",
    "street": null,
    "office_name": null,
    "office_name_kana": null
  },
  "0356": {
    "postcode": "5630356",
    "prefecture": "大阪府",
    "prefecture_kana": "オオサカフ",
    "prefecture_code": 27,
    "city": "豊能郡能勢町",
    "city_kana": "トヨノグンノセチョウ",
    "town": "平通",
    "town_kana": "ヒラドオリ",
    "street": null,
    "office_name": null,
    "office_name_kana": null
  },
  "0361": {
    "postcode": "5630361",
    "prefecture": "大阪府",
    "prefecture_kana": "オオサカフ",
    "prefecture_code": 27,
    "city": "豊能郡能勢町",
    "city_kana": "トヨノグンノセチョウ",
    "town": "今西",
    "town_kana": "イマニシ",
    "street": null,
    "office_name": null,
    "office_name_kana": null
  },
  "0362": {
    "postcode": "5630362",
    "prefecture": "大阪府",
    "prefecture_kana": "オオサカフ",
    "prefecture_code": 27,
    "city": "豊能郡能勢町",
    "city_kana": "トヨノグンノセチョウ",
    "town": "森上",
    "town_kana": "モリガミ",
    "street": null,
    "office_name": null,
    "office_name_kana": null
  },
  "0363": {
    "postcode": "5630363",
    "prefecture": "大阪府",
    "prefecture_kana": "オオサカフ",
    "prefecture_code": 27,
    "city": "豊能郡能勢町",
    "city_kana": "トヨノグンノセチョウ",
    "town": "稲地",
    "town_kana": "イナジ",
    "street": null,
    "office_name": null,
    "office_name_kana": null
  },
  "0364": {
    "postcode": "5630364",
    "prefecture": "大阪府",
    "prefecture_kana": "オオサカフ",
    "prefecture_code": 27,
    "city": "豊能郡能勢町",
    "city_kana": "トヨノグンノセチョウ",
    "town": "平野",
    "town_kana": "ヒラノ",
    "street": null,
    "office_name": null,
    "office_name_kana": null
  },
  "0365": {
    "postcode": "5630365",
    "prefecture": "大阪府",
    "prefecture_kana": "オオサカフ",
    "prefecture_code": 27,
    "city": "豊能郡能勢町",
    "city_kana": "トヨノグンノセチョウ",
    "town": "上杉",
    "town_kana": "ウエスギ",
    "street": null,
    "office_name": null,
    "office_name_kana": null
  },
  "0366": {
    "postcode": "5630366",
    "prefecture": "大阪府",
    "prefecture_kana": "オオサカフ",
    "prefecture_code": 27,
    "city": "豊能郡能勢町",
    "city_kana": "トヨノグンノセチョウ",
    "town": "垂水",
    "town_kana": "タルミ",
    "street": null,
    "office_name": null,
    "office_name_kana": null
  },
  "0367": {
    "postcode": "5630367",
    "prefecture": "大阪府",
    "prefecture_kana": "オオサカフ",
    "prefecture_code": 27,
    "city": "豊能郡能勢町",
    "city_kana": "トヨノグンノセチョウ",
    "town": "神山",
    "town_kana": "コヤマ",
    "street": null,
    "office_name": null,
    "office_name_kana": null
  },
  "0368": {
    "postcode": "5630368",
    "prefecture": "大阪府",
    "prefecture_kana": "オオサカフ",
    "prefecture_code": 27,
    "city": "豊能郡能勢町",
    "city_kana": "トヨノグンノセチョウ",
    "town": "長谷",
    "town_kana": "ナガタニ",
    "street": null,
    "office_name": null,
    "office_name_kana": null
  },
  "0371": {
    "postcode": "5630371",
    "prefecture": "大阪府",
    "prefecture_kana": "オオサカフ",
    "prefecture_code": 27,
    "city": "豊能郡能勢町",
    "city_kana": "トヨノグンノセチョウ",
    "town": "天王",
    "town_kana": "テンノウ",
    "street": null,
    "office_name": null,
    "office_name_kana": null
  },
  "0372": {
    "postcode": "5630372",
    "prefecture": "大阪府",
    "prefecture_kana": "オオサカフ",
    "prefecture_code": 27,
    "city": "豊能郡能勢町",
    "city_kana": "トヨノグンノセチョウ",
    "town": "山辺",
    "town_kana": "ヤマベ",
    "street": null,
    "office_name": null,
    "office_name_kana": null
  },
  "0373": {
    "postcode": "5630373",
    "prefecture": "大阪府",
    "prefecture_kana": "オオサカフ",
    "prefecture_code": 27,
    "city": "豊能郡能勢町",
    "city_kana": "トヨノグンノセチョウ",
    "town": "山田",
    "town_kana": "ヤマダ",
    "street": null,
    "office_name": null,
    "office_name_kana": null
  },
  "0392": {
    "postcode": "5630392",
    "prefecture": "大阪府",
    "prefecture_kana": "オオサカフ",
    "prefecture_code": 27,
    "city": "豊能郡能勢町",
    "city_kana": "トヨノグンノセチョウ",
    "town": "宿野",
    "town_kana": "シュクノ",
    "street": "２８番地",
    "office_name": "能勢町役場",
    "office_name_kana": "ノセチヨウヤクバ"
  },
  "0801": [
    {
      "postcode": "5630801",
      "prefecture": "兵庫県",
      "prefecture_kana": "ヒョウゴケン",
      "prefecture_code": 28,
      "city": "伊丹市",
      "city_kana": "イタミシ",
      "town": "小阪田",
      "town_kana": "オサカデン",
      "street": null,
      "office_name": null,
      "office_name_kana": null
    },
    {
      "postcode": "5630801",
      "prefecture": "兵庫県",
      "prefecture_kana": "ヒョウゴケン",
      "prefecture_code": 28,
      "city": "伊丹市",
      "city_kana": "イタミシ",
      "town": "小阪田食田",
      "town_kana": "オサカデンクイタ",
      "street": null,
      "office_name": null,
      "office_name_kana": null
    }
  ],
  "8510": {
    "postcode": "5638510",
    "prefecture": "大阪府",
    "prefecture_kana": "オオサカフ",
    "prefecture_code": 27,
    "city": "池田市",
    "city_kana": "イケダシ",
    "town": "城南",
    "town_kana": "ジョウナン",
    "street": "３丁目１番１８号",
    "office_name": "市立　池田病院",
    "office_name_kana": "シリツ イケダビヨウイン"
  },
  "8567": {
    "postcode": "5638567",
    "prefecture": "大阪府",
    "prefecture_kana": "オオサカフ",
    "prefecture_code": 27,
    "city": "池田市",
    "city_kana": "イケダシ",
    "town": "満寿美町",
    "town_kana": "マスミチョウ",
    "street": "９番２５号",
    "office_name": "大阪法務局　池田出張所",
    "office_name_kana": "オオサカホウムキヨク イケダシユツチヨウシヨ"
  },
  "8577": {
    "postcode": "5638577",
    "prefecture": "大阪府",
    "prefecture_kana": "オオサカフ",
    "prefecture_code": 27,
    "city": "池田市",
    "city_kana": "イケダシ",
    "town": "緑丘",
    "town_kana": "ミドリガオカ",
    "street": "１丁目８番３１号",
    "office_name": "独立行政法人　産業技術総合研究所　関西センター",
    "office_name_kana": "ドクリツギヨウセイホウジン サンギヨウギジユツソウゴウケンキユウシヨ カンサイセンタ-"
  },
  "8588": {
    "postcode": "5638588",
    "prefecture": "大阪府",
    "prefecture_kana": "オオサカフ",
    "prefecture_code": 27,
    "city": "池田市",
    "city_kana": "イケダシ",
    "town": "城南",
    "town_kana": "ジョウナン",
    "street": "１丁目１番１号",
    "office_name": "大阪府　豊能府税事務所",
    "office_name_kana": "オオサカフ トヨノフゼイジムシヨ"
  },
  "8688": {
    "postcode": "5638688",
    "prefecture": "大阪府",
    "prefecture_kana": "オオサカフ",
    "prefecture_code": 27,
    "city": "池田市",
    "city_kana": "イケダシ",
    "town": "城南",
    "town_kana": "ジョウナン",
    "street": "２丁目１番８号（池田郵便局私書箱第９号）",
    "office_name": "豊能税務署",
    "office_name_kana": "トヨノゼイムシヨ"
  }
}