{
  "0000": {
    "postcode": "5670000",
    "prefecture": "大阪府",
    "prefecture_kana": "オオサカフ",
    "prefecture_code": 27,
    "city": "茨木市",
    "city_kana": "イバラキシ",
    "town": "",
    "town_kana": "",
    "street": null,
    "office_name": null,
    "office_name_kana": null
  },
  "0001": {
    "postcode": "5670001",
    "prefecture": "大阪府",
    "prefecture_kana": "オオサカフ",
    "prefecture_code": 27,
    "city": "茨木市",
    "city_kana": "イバラキシ",
    "town": "安威",
    "town_kana": "アイ",
    "street": null,
    "office_name": null,
    "office_name_kana": null
  },
  "0002": {
    "postcode": "5670002",
    "prefecture": "大阪府",
    "prefecture_kana": "オオサカフ",
    "prefecture_code": 27,
    "city": "茨木市",
    "city_kana": "イバラキシ",
    "town": "東安威",
    "town_kana": "ヒガシアイ",
    "street": null,
    "office_name": null,
    "office_name_kana": null
  },
  "0003": {
    "postcode": "5670003",
    "prefecture": "大阪府",
    "prefecture_kana": "オオサカフ",
    "prefecture_code": 27,
    "city": "茨木市",
    "city_kana": "イバラキシ",
    "town": "西河原北町",
    "town_kana": "ニシガワラキタマチ",
    "street": null,
    "office_name": null,
    "office_name_kana": null
  },
  "0004": {
    "postcode": "5670004",
    "prefecture": "大阪府",
    "prefecture_kana": "オオサカフ",
    "prefecture_code": 27,
    "city": "茨木市",
    "city_kana": "イバラキシ",
    "town": "南耳原",
    "town_kana": "ミナミミノハラ",
    "street": null,
    "office_name": null,
    "office_name_kana": null
  },
  "0005": {
    "postcode": "5670005",
    "prefecture": "大阪府",
    "prefecture_kana": "オオサカフ",
    "prefecture_code": 27,
    "city": "茨木市",
    "city_kana": "イバラキシ",
    "town": "五日市",
    "town_kana": "イツカイチ",
    "street": null,
    "office_name": null,
    "office_name_kana": null
  },
  "0006": {
    "postcode": "5670006",
    "prefecture": "大阪府",
    "prefecture_kana": "オオサカフ",
    "prefecture_code": 27,
    "city": "茨木市",
    "city_kana": "イバラキシ",
    "town": "耳原",
    "town_kana": "ミノハラ",
    "street": null,
    "office_name": null,
    "office_name_kana": null
  },
  "0007": {
    "postcode": "5670007",
    "prefecture": "大阪府",
    "prefecture_kana": "オオサカフ",
    "prefecture_code": 27,
    "city": "茨木市",
    "city_kana": "イバラキシ",
    "town": "南安威",
    "town_kana": "ミナミアイ",
    "street": null,
    "office_name": null,
    "office_name_kana": null
  },
  "0008": {
    "postcode": "5670008",
    "prefecture": "大阪府",
    "prefecture_kana": "オオサカフ",
    "prefecture_code": 27,
    "city": "茨木市",
    "city_kana": "イバラキシ",
    "town": "西安威",
    "town_kana": "ニシアイ",
    "street": null,
    "office_name": null,
    "office_name_kana": null
  },
  "0009": {
    "postcode": "5670009",
    "prefecture": "大阪府",
    "prefecture_kana": "オオサカフ",
    "prefecture_code": 27,
    "city": "茨木市",
    "city_kana": "イバラキシ",
    "town": "山手台",
    "town_kana": "ヤマテダイ",
    "street": null,
    "office_name": null,
    "office_name_kana": null
  },
  "0010": {
    "postcode": "5670010",
    "prefecture": "大阪府",
    "prefecture_kana": "オオサカフ",
    "prefecture_code": 27,
    "city": "茨木市",
    "city_kana": "イバラキシ",
    "town": "山手台新町",
    "town_kana": "ヤマテダイシンマチ",
    "street": null,
    "office_name": null,
    "office_name_kana": null
  },
  "0011": {
    "postcode": "5670011",
    "prefecture": "大阪府",
    "prefecture_kana": "オオサカフ",
    "prefecture_code": 27,
    "city": "茨木市",
    "city_kana": "イバラキシ",
    "town": "高田町",
    "town_kana": "タカダチョウ",
    "street": null,
    "office_name": null,
    "office_name_kana": null
  },
  "0012": {
    "postcode": "5670012",
    "prefecture": "大阪府",
    "prefecture_kana": "オオサカフ",
    "prefecture_code": 27,
    "city": "茨木市",
    "city_kana": "イバラキシ",
    "town": "東太田",
    "town_kana": "ヒガシオオダ",
    "street": null,
    "office_name": null,
    "office_name_kana": null
  },
  "0013": {
    "postcode": "5670013",
    "prefecture": "大阪府",
    "prefecture_kana": "オオサカフ",
    "prefecture_code": 27,
    "city": "茨木市",
    "city_kana": "イバラキシ",
    "town": "太田東芝町",
    "town_kana": "オオダトウシバチョウ",
    "street": null,
    "office_name": null,
    "office_name_kana": null
  },
  "0014": {
    "postcode": "5670014",
    "prefecture": "大阪府",
    "prefecture_kana": "オオサカフ",
    "prefecture_code": 27,
    "city": "茨木市",
    "city_kana": "イバラキシ",
    "town": "城の前町",
    "town_kana": "シロノマエチョウ",
    "street": null,
    "office_name": null,
    "office_name_kana": null
  },
  "0015": {
    "postcode": "5670015",
    "prefecture": "大阪府",
    "prefecture_kana": "オオサカフ",
    "prefecture_code": 27,
    "city": "茨木市",
    "city_kana": "イバラキシ",
    "town": "西太田町",
    "town_kana": "ニシオオダチョウ",
    "street": null,
    "office_name": null,
    "office_name_kana": null
  },
  "0016": {
    "postcode": "5670016",
    "prefecture": "大阪府",
    "prefecture_kana": "オオサカフ",
    "prefecture_code": 27,
    "city": "茨木市",
    "city_kana": "イバラキシ",
    "town": "十日市町",
    "town_kana": "トオカイチチョウ",
    "street": null,
    "office_name": null,
    "office_name_kana": null
  },
  "0017": {
    "postcode": "5670017",
    "prefecture": "大阪府",
    "prefecture_kana": "オオサカフ",
    "prefecture_code": 27,
    "city": "茨木市",
    "city_kana": "イバラキシ",
    "town": "花園",
    "town_kana": "ハナゾノ",
    "street": null,
    "office_name": null,
    "office_name_kana": null
  },
  "0018": {
    "postcode": "5670018",
    "prefecture": "大阪府",
    "prefecture_kana": "オオサカフ",
    "prefecture_code": 27,
    "city": "茨木市",
    "city_kana": "イバラキシ",
    "town": "太田",
    "town_kana": "オオダ",
    "street": null,
    "office_name": null,
    "office_name_kana": null
  },
  "0021": {
    "postcode": "5670021",
    "prefecture": "大阪府",
    "prefecture_kana": "オオサカフ",
    "prefecture_code": 27,
    "city": "茨木市",
    "city_kana": "イバラキシ",
    "town": "三島丘",
    "town_kana": "ミシマオカ",
    "street": null,
    "office_name": null,
    "office_name_kana": null
  },
  "0022": {
    "postcode": "5670022",
    "prefecture": "大阪府",
    "prefecture_kana": "オオサカフ",
    "prefecture_code": 27,
    "city": "茨木市",
    "city_kana": "イバラキシ",
    "town": "三島町",
    "town_kana": "ミシマチョウ",
    "street": null,
    "office_name": null,
    "office_name_kana": null
  },
  "0023": {
    "postcode": "5670023",
    "prefecture": "大阪府",
    "prefecture_kana": "オオサカフ",
    "prefecture_code": 27,
    "city": "茨木市",
    "city_kana": "イバラキシ",
    "town": "西河原",
    "town_kana": "ニシガワラ",
    "street": null,
    "office_name": null,
    "office_name_kana": null
  },
  "0024": {
    "postcode": "5670024",
    "prefecture": "大阪府",
    "prefecture_kana": "オオサカフ",
    "prefecture_code": 27,
    "city": "茨木市",
    "city_kana": "イバラキシ",
    "town": "三咲町",
    "town_kana": "ミサキチョウ",
    "street": null,
    "office_name": null,
    "office_name_kana": null
  },
  "0025": {
    "postcode": "5670025",
    "prefecture": "大阪府",
    "prefecture_kana": "オオサカフ",
    "prefecture_code": 27,
    "city": "茨木市",
    "city_kana": "イバラキシ",
    "town": "田中町",
    "town_kana": "タナカチョウ",
    "street": null,
    "office_name": null,
    "office_name_kana": null
  },
  "0026": {
    "postcode": "5670026",
    "prefecture": "大阪府",
    "prefecture_kana": "オオサカフ",
    "prefecture_code": 27,
    "city": "茨木市",
    "city_kana": "イバラキシ",
    "town": "松下町",
    "town_kana": "マツシタチョウ",
    "street": null,
    "office_name": null,
    "office_name_kana": null
  },
  "0027": {
    "postcode": "5670027",
    "prefecture": "大阪府",
    "prefecture_kana": "オオサカフ",
    "prefecture_code": 27,
    "city": "茨木市",
    "city_kana": "イバラキシ",
    "town": "西田中町",
    "town_kana": "ニシタナカチョウ",
    "street": null,
    "office_name": null,
    "office_name_kana": null
  },
  "0028": {
    "postcode": "5670028",
    "prefecture": "大阪府",
    "prefecture_kana": "オオサカフ",
    "prefecture_code": 27,
    "city": "茨木市",
    "city_kana": "イバラキシ",
    "town": "畑田町",
    "town_kana": "ハタケダチョウ",
    "street": null,
    "office_name": null,
    "office_name_kana": null
  },
  "0029": {
    "postcode": "5670029",
    "prefecture": "大阪府",
    "prefecture_kana": "オオサカフ",
    "prefecture_code": 27,
    "city": "茨木市",
    "city_kana": "イバラキシ",
    "town": "五日市緑町",
    "town_kana": "イツカイチミドリマチ",
    "street": null,
    "office_name": null,
    "office_name_kana": null
  },
  "0031": {
    "postcode": "5670031",
    "prefecture": "大阪府",
    "prefecture_kana": "オオサカフ",
    "prefecture_code": 27,
    "city": "茨木市",
    "city_kana": "イバラキシ",
    "town": "春日",
    "town_kana": "カスガ",
    "street": null,
    "office_name": null,
    "office_name_kana": null
  },
  "0032": {
    "postcode": "5670032",
    "prefecture": "大阪府",
    "prefecture_kana": "オオサカフ",
    "prefecture_code": 27,
    "city": "茨木市",
    "city_kana": "イバラキシ",
    "town": "西駅前町",
    "town_kana": "ニシエキマエチョウ",
    "street": null,
    "office_name": null,
    "office_name_kana": null
  },
  "0033": {
    "postcode": "5670033",
    "prefecture": "大阪府",
    "prefecture_kana": "オオサカフ",
    "prefecture_code": 27,
    "city": "茨木市",
    "city_kana": "イバラキシ",
    "town": "松ケ本町",
    "town_kana": "マツガモトチョウ",
    "street": null,
    "office_name": null,
    "office_name_kana": null
  },
  "0034": {
    "postcode": "5670034",
    "prefecture": "大阪府",
    "prefecture_kana": "オオサカフ",
    "prefecture_code": 27,
    "city": "茨木市",
    "city_kana": "イバラキシ",
    "town": "中穂積",
    "town_kana": "ナカホヅミ",
    "street": null,
    "office_name": null,
    "office_name_kana": null
  },
  "0035": {
    "postcode": "5670035",
    "prefecture": "大阪府",
    "prefecture_kana": "オオサカフ",
    "prefecture_code": 27,
    "city": "茨木市",
    "city_kana": "イバラキシ",
    "town": "見付山",
    "town_kana": "ミツケヤマ",
    "street": null,
    "office_name": null,
    "office_name_kana": null
  },
  "0036": {
    "postcode": "5670036",
    "prefecture": "大阪府",
    "prefecture_kana": "オオサカフ",
    "prefecture_code": 27,
    "city": "茨木市",
    "city_kana": "イバラキシ",
    "town": "上穂積",
    "town_kana": "カミホヅミ",
    "street": null,
    "office_name": null,
    "office_name_kana": null
  },
  "0037": {
    "postcode": "5670037",
    "prefecture": "大阪府",
    "prefecture_kana": "オオサカフ",
    "prefecture_code": 27,
    "city": "茨木市",
    "city_kana": "イバラキシ",
    "town": "上穂東町",
    "town_kana": "カミホヒガシマチ",
    "street": null,
    "office_name": null,
    "office_name_kana": null
  },
  "0041": {
    "postcode": "5670041",
    "prefecture": "大阪府",
    "prefecture_kana": "オオサカフ",
    "prefecture_code": 27,
    "city": "茨木市",
    "city_kana": "イバラキシ",
    "town": "下穂積",
    "town_kana": "シモホヅミ",
    "street": null,
    "office_name": null,
    "office_name_kana": null
  },
  "0042": {
    "postcode": "5670042",
    "prefecture": "大阪府",
    "prefecture_kana": "オオサカフ",
    "prefecture_code": 27,
    "city": "茨木市",
    "city_kana": "イバラキシ",
    "town": "宇野辺",
    "town_kana": "ウノベ",
    "street": null,
    "office_name": null,
    "office_name_kana": null
  },
  "0043": {
    "postcode": "5670043",
    "prefecture": "大阪府",
    "prefecture_kana": "オオサカフ",
    "prefecture_code": 27,
    "city": "茨木市",
    "city_kana": "イバラキシ",
    "town": "小坪井",
    "town_kana": "コツボイ",
    "street": null,
    "office_name": null,
    "office_name_kana": null
  },
  "0044": {
    "postcode": "5670044",
    "prefecture": "大阪府",
    "prefecture_kana": "オオサカフ",
    "prefecture_code": 27,
    "city": "茨木市",
    "city_kana": "イバラキシ",
    "town": "穂積台",
    "town_kana": "ホヅミダイ",
    "street": null,
    "office_name": null,
    "office_name_kana": null
  },
  "0045": {
    "postcode": "5670045",
    "prefecture": "大阪府",
    "prefecture_kana": "オオサカフ",
    "prefecture_code": 27,
    "city": "茨木市",
    "city_kana": "イバラキシ",
    "town": "紫明園",
    "town_kana": "シメイエン",
    "street": null,
    "office_name": null,
    "office_name_kana": null
  },
  "0046": {
    "postcode": "5670046",
    "prefecture": "大阪府",
    "prefecture_kana": "オオサカフ",
    "prefecture_code": 27,
    "city": "茨木市",
    "city_kana": "イバラキシ",
    "town": "南春日丘",
    "town_kana": "ミナミカスガオカ",
    "street": null,
    "office_name": null,
    "office_name_kana": null
  },
  "0047": {
    "postcode": "5670047",
    "prefecture": "大阪府",
    "prefecture_kana": "オオサカフ",
    "prefecture_code": 27,
    "city": "茨木市",
    "city_kana": "イバラキシ",
    "town": "美穂ケ丘",
    "town_kana": "ミホガオカ",
    "street": null,
    "office_name": null,
    "office_name_kana": null
  },
  "0048": {
    "postcode": "5670048",
    "prefecture": "大阪府",
    "prefecture_kana": "オオサカフ",
    "prefecture_code": 27,
    "city": "茨木市",
    "city_kana": "イバラキシ",
    "town": "北春日丘",
    "town_kana": "キタカスガオカ",
    "street": null,
    "office_name": null,
    "office_name_kana": null
  },
  "0051": {
    "postcode": "5670051",
    "prefecture": "大阪府",
    "prefecture_kana": "オオサカフ",
    "prefecture_code": 27,
    "city": "茨木市",
    "city_kana": "イバラキシ",
    "town": "宿久庄",
    "town_kana": "シュクノショウ",
    "street": null,
    "office_name": null,
    "office_name_kana": null
  },
  "0052": {
    "postcode": "5670052",
    "prefecture": "大阪府",
    "prefecture_kana": "オオサカフ",
    "prefecture_code": 27,
    "city": "茨木市",
    "city_kana": "イバラキシ",
    "town": "室山",
    "town_kana": "ムロヤマ",
    "street": null,
    "office_name": null,
    "office_name_kana": null
  },
  "0053": {
    "postcode": "5670053",
    "prefecture": "大阪府",
    "prefecture_kana": "オオサカフ",
    "prefecture_code": 27,
    "city": "茨木市",
    "city_kana": "イバラキシ",
    "town": "豊原町",
    "town_kana": "トヨハラチョウ",
    "street": null,
    "office_name": null,
    "office_name_kana": null
  },
  "0054": {
    "postcode": "5670054",
    "prefecture": "大阪府",
    "prefecture_kana": "オオサカフ",
    "prefecture_code": 27,
    "city": "茨木市",
    "city_kana": "イバラキシ",
    "town": "藤の里",
    "town_kana": "フジノサト",
    "street": null,
    "office_name": null,
    "office_name_kana": null
  },
  "0055": {
    "postcode": "5670055",
    "prefecture": "大阪府",
    "prefecture_kana": "オオサカフ",
    "prefecture_code": 27,
    "city": "茨木市",
    "city_kana": "イバラキシ",
    "town": "宿川原町",
    "town_kana": "シュクガハラチョウ",
    "street": null,
    "office_name": null,
    "office_name_kana": null
  },
  "0056": {
    "postcode": "5670056",
    "prefecture": "大阪府",
    "prefecture_kana": "オオサカフ",
    "prefecture_code": 27,
    "city": "茨木市",
    "city_kana": "イバラキシ",
    "town": "南清水町",
    "town_kana": "ミナミシミズチョウ",
    "street": null,
    "office_name": null,
    "office_name_kana": null
  },
  "0057": {
    "postcode": "5670057",
    "prefecture": "大阪府",
    "prefecture_kana": "オオサカフ",
    "prefecture_code": 27,
    "city": "茨木市",
    "city_kana": "イバラキシ",
    "town": "豊川",
    "town_kana": "トヨカワ",
    "street": null,
    "office_name": null,
    "office_name_kana": null
  },
  "0058": {
    "postcode": "5670058",
    "prefecture": "大阪府",
    "prefecture_kana": "オオサカフ",
    "prefecture_code": 27,
    "city": "茨木市",
    "city_kana": "イバラキシ",
    "town": "西豊川町",
    "town_kana": "ニシトヨカワチョウ",
    "street": null,
    "office_name": null,
    "office_name_kana": null
  },
  "0059": {
    "postcode": "5670059",
    "prefecture": "大阪府",
    "prefecture_kana": "オオサカフ",
    "prefecture_code": 27,
    "city": "茨木市",
    "city_kana": "イバラキシ",
    "town": "清水",
    "town_kana": "シミズ",
    "street": null,
    "office_name": null,
    "office_name_kana": null
  },
  "0061": {
    "postcode": "5670061",
    "prefecture": "大阪府",
    "prefecture_kana": "オオサカフ",
    "prefecture_code": 27,
    "city": "茨木市",
    "city_kana": "イバラキシ",
    "town": "福井",
    "town_kana": "フクイ",
    "street": null,
    "office_name": null,
    "office_name_kana": null
  },
  "0062": {
    "postcode": "5670062",
    "prefecture": "大阪府",
    "prefecture_kana": "オオサカフ",
    "prefecture_code": 27,
    "city": "茨木市",
    "city_kana": "イバラキシ",
    "town": "東福井",
    "town_kana": "ヒガシフクイ",
    "street": null,
    "office_name": null,
    "office_name_kana": null
  },
  "0063": {
    "postcode": "5670063",
    "prefecture": "大阪府",
    "prefecture_kana": "オオサカフ",
    "prefecture_code": 27,
    "city": "茨木市",
    "city_kana": "イバラキシ",
    "town": "中河原町",
    "town_kana": "ナカガワラチョウ",
    "street": null,
    "office_name": null,
    "office_name_kana": null
  },
  "0064": {
    "postcode": "5670064",
    "prefecture": "大阪府",
    "prefecture_kana": "オオサカフ",
    "prefecture_code": 27,
    "city": "茨木市",
    "city_kana": "イバラキシ",
    "town": "上野町",
    "town_kana": "ウエノチョウ",
    "street": null,
    "office_name": null,
    "office_name_kana": null
  },
  "0065": {
    "postcode": "5670065",
    "prefecture": "大阪府",
    "prefecture_kana": "オオサカフ",
    "prefecture_code": 27,
    "city": "茨木市",
    "city_kana": "イバラキシ",
    "town": "上郡",
    "town_kana": "カミゴオリ",
    "street": null,
    "office_name": null,
    "office_name_kana": null
  },
  "0066": {
    "postcode": "5670066",
    "prefecture": "大阪府",
    "prefecture_kana": "オオサカフ",
    "prefecture_code": 27,
    "city": "茨木市",
    "city_kana": "イバラキシ",
    "town": "下井町",
    "town_kana": "シモイチョウ",
    "street": null,
    "office_name": null,
    "office_name_kana": null
  },
  "0067": {
    "postcode": "5670067",
    "prefecture": "大阪府",
    "prefecture_kana": "オオサカフ",
    "prefecture_code": 27,
    "city": "茨木市",
    "city_kana": "イバラキシ",
    "town": "西福井",
    "town_kana": "ニシフクイ",
    "street": null,
    "office_name": null,
    "office_name_kana": null
  },
  "0071": {
    "postcode": "5670071",
    "prefecture": "大阪府",
    "prefecture_kana": "オオサカフ",
    "prefecture_code": 27,
    "city": "茨木市",
    "city_kana": "イバラキシ",
    "town": "郡山",
    "town_kana": "コオリヤマ",
    "street": null,
    "office_name": null,
    "office_name_kana": null
  },
  "0072": {
    "postcode": "5670072",
    "prefecture": "大阪府",
    "prefecture_kana": "オオサカフ",
    "prefecture_code": 27,
    "city": "茨木市",
    "city_kana": "イバラキシ",
    "town": "郡",
    "town_kana": "コオリ",
    "street": null,
    "office_name": null,
    "office_name_kana": null
  },
  "0073": {
    "postcode": "5670073",
    "prefecture": "大阪府",
    "prefecture_kana": "オオサカフ",
    "prefecture_code": 27,
    "city": "茨木市",
    "city_kana": "イバラキシ",
    "town": "西穂積町",
    "town_kana": "ニシホヅミチョウ",
    "street": null,
    "office_name": null,
    "office_name_kana": null
  },
  "0074": {
    "postcode": "5670074",
    "prefecture": "大阪府",
    "prefecture_kana": "オオサカフ",
    "prefecture_code": 27,
    "city": "茨木市",
    "city_kana": "イバラキシ",
    "town": "新郡山",
    "town_kana": "シンコオリヤマ",
    "street": null,
    "office_name": null,
    "office_name_kana": null
  },
  "0075": {
    "postcode": "5670075",
    "prefecture": "大阪府",
    "prefecture_kana": "オオサカフ",
    "prefecture_code": 27,
    "city": "茨木市",
    "city_kana": "イバラキシ",
    "town": "道祖本",
    "town_kana": "サイノモト",
    "street": null,
    "office_name": null,
    "office_name_kana": null
  },
  "0076": {
    "postcode": "5670076",
    "prefecture": "大阪府",
    "prefecture_kana": "オオサカフ",
    "prefecture_code": 27,
    "city": "茨木市",
    "city_kana": "イバラキシ",
    "town": "井口台",
    "town_kana": "イグチダイ",
    "street": null,
    "office_name": null,
    "office_name_kana": null
  },
  "0082": {
    "postcode": "5670082",
    "prefecture": "大阪府",
    "prefecture_kana": "オオサカフ",
    "prefecture_code": 27,
    "city": "茨木市",
    "city_kana": "イバラキシ",
    "town": "彩都はなだ",
    "town_kana": "サイトハナダ",
    "street": null,
    "office_name": null,
    "office_name_kana": null
  },
  "0083": {
    "postcode": "5670083",
    "prefecture": "大阪府",
    "prefecture_kana": "オオサカフ",
    "prefecture_code": 27,
    "city": "茨木市",
    "city_kana": "イバラキシ",
    "town": "彩都もえぎ",
    "town_kana": "サイトモエギ",
    "street": null,
    "office_name": null,
    "office_name_kana": null
  },
  "0084": {
    "postcode": "5670084",
    "prefecture": "大阪府",
    "prefecture_kana": "オオサカフ",
    "prefecture_code": 27,
    "city": "茨木市",
    "city_kana": "イバラキシ",
    "town": "彩都あかね",
    "town_kana": "サイトアカネ",
    "street": null,
    "office_name": null,
    "office_name_kana": null
  },
  "0085": {
    "postcode": "5670085",
    "prefecture": "大阪府",
    "prefecture_kana": "オオサカフ",
    "prefecture_code": 27,
    "city": "茨木市",
    "city_kana": "イバラキシ",
    "town": "彩都あさぎ",
    "town_kana": "サイトアサギ",
    "street": null,
    "office_name": null,
    "office_name_kana": null
  },
  "0086": {
    "postcode": "5670086",
    "prefecture": "大阪府",
    "prefecture_kana": "オオサカフ",
    "prefecture_code": 27,
    "city": "茨木市",
    "city_kana": "イバラキシ",
    "town": "彩都やまぶき",
    "town_kana": "サイトヤマブキ",
    "street": null,
    "office_name": null,
    "office_name_kana": null
  },
  "0801": {
    "postcode": "5670801",
    "prefecture": "大阪府",
    "prefecture_kana": "オオサカフ",
    "prefecture_code": 27,
    "city": "茨木市",
    "city_kana": "イバラキシ",
    "town": "総持寺",
    "town_kana": "ソウジジ",
    "street": null,
    "office_name": null,
    "office_name_kana": null
  },
  "0802": {
    "postcode": "5670802",
    "prefecture": "大阪府",
    "prefecture_kana": "オオサカフ",
    "prefecture_code": 27,
    "city": "茨木市",
    "city_kana": "イバラキシ",
    "town": "総持寺駅前町",
    "town_kana": "ソウジジエキマエチョウ",
    "street": null,
    "office_name": null,
    "office_name_kana": null
  },
  "0803": {
    "postcode": "5670803",
    "prefecture": "大阪府",
    "prefecture_kana": "オオサカフ",
    "prefecture_code": 27,
    "city": "茨木市",
    "city_kana": "イバラキシ",
    "town": "中総持寺町",
    "town_kana": "ナカソウジジチョウ",
    "street": null,
    "office_name": null,
    "office_name_kana": null
  },
  "0804": {
    "postcode": "5670804",
    "prefecture": "大阪府",
    "prefecture_kana": "オオサカフ",
    "prefecture_code": 27,
    "city": "茨木市",
    "city_kana": "イバラキシ",
    "town": "総持寺台",
    "town_kana": "ソウジジダイ",
    "street": null,
    "office_name": null,
    "office_name_kana": null
  },
  "0805": {
    "postcode": "5670805",
    "prefecture": "大阪府",
    "prefecture_kana": "オオサカフ",
    "prefecture_code": 27,
    "city": "茨木市",
    "city_kana": "イバラキシ",
    "town": "橋の内",
    "town_kana": "ハシノウチ",
    "street": null,
    "office_name": null,
    "office_name_kana": null
  },
  "0806": {
    "postcode": "5670806",
    "prefecture": "大阪府",
    "prefecture_kana": "オオサカフ",
    "prefecture_code": 27,
    "city": "茨木市",
    "city_kana": "イバラキシ",
    "town": "庄",
    "town_kana": "ショウ",
    "street": null,
    "office_name": null,
    "office_name_kana": null
  },
  "0810": {
    "postcode": "5670810",
    "prefecture": "大阪府",
    "prefecture_kana": "オオサカフ",
    "prefecture_code": 27,
    "city": "茨木市",
    "city_kana": "イバラキシ",
    "town": "宮元町",
    "town_kana": "ミヤモトチョウ",
    "street": null,
    "office_name": null,
    "office_name_kana": null
  },
  "0811": {
    "postcode": "5670811",
    "prefecture": "大阪府",
    "prefecture_kana": "オオサカフ",
    "prefecture_code": 27,
    "city": "茨木市",
    "city_kana": "イバラキシ",
    "town": "上泉町",
    "town_kana": "カミイズミチョウ",
    "street": null,
    "office_name": null,
    "office_name_kana": null
  },
  "0812": {
    "postcode": "5670812",
    "prefecture": "大阪府",
    "prefecture_kana": "オオサカフ",
    "prefecture_code": 27,
    "city": "茨木市",
    "city_kana": "イバラキシ",
    "town": "東宮町",
    "town_kana": "トウグウチョウ",
    "street": null,
    "office_name": null,
    "office_name_kana": null
  },
  "0813": {
    "postcode": "5670813",
    "prefecture": "大阪府",
    "prefecture_kana": "オオサカフ",
    "prefecture_code": 27,
    "city": "茨木市",
    "city_kana": "イバラキシ",
    "town": "大住町",
    "town_kana": "オオスミチョウ",
    "street": null,
    "office_name": null,
    "office_name_kana": null
  },
  "0814": {
    "postcode": "5670814",
    "prefecture": "大阪府",
    "prefecture_kana": "オオサカフ",
    "prefecture_code": 27,
    "city": "茨木市",
    "city_kana": "イバラキシ",
    "town": "戸伏町",
    "town_kana": "トブシチョウ",
    "street": null,
    "office_name": null,
    "office_name_kana": null
  },
  "0815": {
    "postcode": "5670815",
    "prefecture": "大阪府",
    "prefecture_kana": "オオサカフ",
    "prefecture_code": 27,
    "city": "茨木市",
    "city_kana": "イバラキシ",
    "town": "竹橋町",
    "town_kana": "タケハシチョウ",
    "street": null,
    "office_name": null,
    "office_name_kana": null
  },
  "0816": {
    "postcode": "5670816",
    "prefecture": "大阪府",
    "prefecture_kana": "オオサカフ",
    "prefecture_code": 27,
    "city": "茨木市",
    "city_kana": "イバラキシ",
    "town": "永代町",
    "town_kana": "エイダイチョウ",
    "street": null,
    "office_name": null,
    "office_name_kana": null
  },
  "0817": {
    "postcode": "5670817",
    "prefecture": "大阪府",
    "prefecture_kana": "オオサカフ",
    "prefecture_code": 27,
    "city": "茨木市",
    "city_kana": "イバラキシ",
    "town": "別院町",
    "town_kana": "ベツインチョウ",
    "street": null,
    "office_name": null,
    "office_name_kana": null
  },
  "0818": {
    "postcode": "5670818",
    "prefecture": "大阪府",
    "prefecture_kana": "オオサカフ",
    "prefecture_code": 27,
    "city": "茨木市",
    "city_kana": "イバラキシ",
    "town": "本町",
    "town_kana": "ホンマチ",
    "street": null,
    "office_name": null,
    "office_name_kana": null
  },
  "0819": {
    "postcode": "5670819",
    "prefecture": "大阪府",
    "prefecture_kana": "オオサカフ",
    "prefecture_code": 27,
    "city": "茨木市",
    "city_kana": "イバラキシ",
    "town": "片桐町",
    "town_kana": "カタギリチョウ",
    "street": null,
    "office_name": null,
    "office_name_kana": null
  },
  "0821": {
    "postcode": "5670821",
    "prefecture": "大阪府",
    "prefecture_kana": "オオサカフ",
    "prefecture_code": 27,
    "city": "茨木市",
    "city_kana": "イバラキシ",
    "town": "末広町",
    "town_kana": "スエヒロチョウ",
    "street": null,
    "office_name": null,
    "office_name_kana": null
  },
  "0822": {
    "postcode": "5670822",
    "prefecture": "大阪府",
    "prefecture_kana": "オオサカフ",
    "prefecture_code": 27,
    "city": "茨木市",
    "city_kana": "イバラキシ",
    "town": "中村町",
    "town_kana": "ナカムラチョウ",
    "street": null,
    "office_name": null,
    "office_name_kana": null
  },
  "0823": {
    "postcode": "5670823",
    "prefecture": "大阪府",
    "prefecture_kana": "オオサカフ",
    "prefecture_code": 27,
    "city": "茨木市",
    "city_kana": "イバラキシ",
    "town": "寺田町",
    "town_kana": "テラダチョウ",
    "street": null,
    "office_name": null,
    "office_name_kana": null
  },
  "0824": {
    "postcode": "5670824",
    "prefecture": "大阪府",
    "prefecture_kana": "オオサカフ",
    "prefecture_code": 27,
    "city": "茨木市",
    "city_kana": "イバラキシ",
    "town": "中津町",
    "town_kana": "ナカツチョウ",
    "street": null,
    "office_name": null,
    "office_name_kana": null
  },
  "0825": {
    "postcode": "5670825",
    "prefecture": "大阪府",
    "prefecture_kana": "オオサカフ",
    "prefecture_code": 27,
    "city": "茨木市",
    "city_kana": "イバラキシ",
    "town": "園田町",
    "town_kana": "ソノダチョウ",
    "street": null,
    "office_name": null,
    "office_name_kana": null
  },
  "0826": {
    "postcode": "5670826",
    "prefecture": "大阪府",
    "prefecture_kana": "オオサカフ",
    "prefecture_code": 27,
    "city": "茨木市",
    "city_kana": "イバラキシ",
    "town": "大池",
    "town_kana": "オオイケ",
    "street": null,
    "office_name": null,
    "office_name_kana": null
  },
  "0827": {
    "postcode": "5670827",
    "prefecture": "大阪府",
    "prefecture_kana": "オオサカフ",
    "prefecture_code": 27,
    "city": "茨木市",
    "city_kana": "イバラキシ",
    "town": "稲葉町",
    "town_kana": "イナバチョウ",
    "street": null,
    "office_name": null,
    "office_name_kana": null
  },
  "0828": {
    "postcode": "5670828",
    "prefecture": "大阪府",
    "prefecture_kana": "オオサカフ",
    "prefecture_code": 27,
    "city": "茨木市",
    "city_kana": "イバラキシ",
    "town": "舟木町",
    "town_kana": "フナキチョウ",
    "street": null,
    "office_name": null,
    "office_name_kana": null
  },
  "0829": {
    "postcode": "5670829",
    "prefecture": "大阪府",
    "prefecture_kana": "オオサカフ",
    "prefecture_code": 27,
    "city": "茨木市",
    "city_kana": "イバラキシ",
    "town": "双葉町",
    "town_kana": "フタバチョウ",
    "street": null,
    "office_name": null,
    "office_name_kana": null
  },
  "0831": {
    "postcode": "5670831",
    "prefecture": "大阪府",
    "prefecture_kana": "オオサカフ",
    "prefecture_code": 27,
    "city": "茨木市",
    "city_kana": "イバラキシ",
    "town": "鮎川",
    "town_kana": "アユカワ",
    "street": null,
    "office_name": null,
    "office_name_kana": null
  },
  "0832": {
    "postcode": "5670832",
    "prefecture": "大阪府",
    "prefecture_kana": "オオサカフ",
    "prefecture_code": 27,
    "city": "茨木市",
    "city_kana": "イバラキシ",
    "town": "白川",
    "town_kana": "シラカワ",
    "street": null,
    "office_name": null,
    "office_name_kana": null
  },
  "0833": {
    "postcode": "5670833",
    "prefecture": "大阪府",
    "prefecture_kana": "オオサカフ",
    "prefecture_code": 27,
    "city": "茨木市",
    "city_kana": "イバラキシ",
    "town": "学園町",
    "town_kana": "ガクエンチョウ",
    "street": null,
    "office_name": null,
    "office_name_kana": null
  },
  "0834": {
    "postcode": "5670834",
    "prefecture": "大阪府",
    "prefecture_kana": "オオサカフ",
    "prefecture_code": 27,
    "city": "茨木市",
    "city_kana": "イバラキシ",
    "town": "学園南町",
    "town_kana": "ガクエンミナミマチ",
    "street": null,
    "office_name": null,
    "office_name_kana": null
  },
  "0835": {
    "postcode": "5670835",
    "prefecture": "大阪府",
    "prefecture_kana": "オオサカフ",
    "prefecture_code": 27,
    "city": "茨木市",
    "city_kana": "イバラキシ",
    "town": "新堂",
    "town_kana": "シンドウ",
    "street": null,
    "office_name": null,
    "office_name_kana": null
  },
  "0836": {
    "postcode": "5670836",
    "prefecture": "大阪府",
    "prefecture_kana": "オオサカフ",
    "prefecture_code": 27,
    "city": "茨木市",
    "city_kana": "イバラキシ",
    "town": "目垣",
    "town_kana": "メガキ",
    "street": null,
    "office_name": null,
    "office_name_kana": null
  },
  "0837": {
    "postcode": "5670837",
    "prefecture": "大阪府",
    "prefecture_kana": "オオサカフ",
    "prefecture_code": 27,
    "city": "茨木市",
    "city_kana": "イバラキシ",
    "town": "南目垣",
    "town_kana": "ミナミメガキ",
    "street": null,
    "office_name": null,
    "office_name_kana": null
  },
  "0838": {
    "postcode": "5670838",
    "prefecture": "大阪府",
    "prefecture_kana": "オオサカフ",
    "prefecture_code": 27,
    "city": "茨木市",
    "city_kana": "イバラキシ",
    "town": "東野々宮町",
    "town_kana": "ヒガシノノミヤチョウ",
    "street": null,
    "office_name": null,
    "office_name_kana": null
  },
  "0841": {
    "postcode": "5670841",
    "prefecture": "大阪府",
    "prefecture_kana": "オオサカフ",
    "prefecture_code": 27,
    "city": "茨木市",
    "city_kana": "イバラキシ",
    "town": "桑田町",
    "town_kana": "クワタチョウ",
    "street": null,
    "office_name": null,
    "office_name_kana": null
  },
  "0842": {
    "postcode": "5670842",
    "prefecture": "大阪府",
    "prefecture_kana": "オオサカフ",
    "prefecture_code": 27,
    "city": "茨木市",
    "city_kana": "イバラキシ",
    "town": "五十鈴町",
    "town_kana": "イスズチョウ",
    "street": null,
    "office_name": null,
    "office_name_kana": null
  },
  "0843": {
    "postcode": "5670843",
    "prefecture": "大阪府",
    "prefecture_kana": "オオサカフ",
    "prefecture_code": 27,
    "city": "茨木市",
    "city_kana": "イバラキシ",
    "town": "星見町",
    "town_kana": "ホシミチョウ",
    "street": null,
    "office_name": null,
    "office_name_kana": null
  },
  "0844": {
    "postcode": "5670844",
    "prefecture": "大阪府",
    "prefecture_kana": "オオサカフ",
    "prefecture_code": 27,
    "city": "茨木市",
    "city_kana": "イバラキシ",
    "town": "大同町",
    "town_kana": "ダイドウチョウ",
    "street": null,
    "office_name": null,
    "office_name_kana": null
  },
  "0845": {
    "postcode": "5670845",
    "prefecture": "大阪府",
    "prefecture_kana": "オオサカフ",
    "prefecture_code": 27,
    "city": "茨木市",
    "city_kana": "イバラキシ",
    "town": "平田",
    "town_kana": "ヒラタ",
    "street": null,
    "office_name": null,
    "office_name_kana": null
  },
  "0846": {
    "postcode": "5670846",
    "prefecture": "大阪府",
    "prefecture_kana": "オオサカフ",
    "prefecture_code": 27,
    "city": "茨木市",
    "city_kana": "イバラキシ",
    "town": "玉島",
    "town_kana": "タマシマ",
    "street": null,
    "office_name": null,
    "office_name_kana": null
  },
  "0847": {
    "postcode": "5670847",
    "prefecture": "大阪府",
    "prefecture_kana": "オオサカフ",
    "prefecture_code": 27,
    "city": "茨木市",
    "city_kana": "イバラキシ",
    "town": "野々宮",
    "town_kana": "ノノミヤ",
    "street": null,
    "office_name": null,
    "office_name_kana": null
  },
  "0848": {
    "postcode": "5670848",
    "prefecture": "大阪府",
    "prefecture_kana": "オオサカフ",
    "prefecture_code": 27,
    "city": "茨木市",
    "city_kana": "イバラキシ",
    "town": "玉島台",
    "town_kana": "タマシマダイ",
    "street": null,
    "office_name": null,
    "office_name_kana": null
  },
  "0849": {
    "postcode": "5670849",
    "prefecture": "大阪府",
    "prefecture_kana": "オオサカフ",
    "prefecture_code": 27,
    "city": "茨木市",
    "city_kana": "イバラキシ",
    "town": "平田台",
    "town_kana": "ヒラタダイ",
    "street": null,
    "office_name": null,
    "office_name_kana": null
  },
  "0850": {
    "postcode": "5670850",
    "prefecture": "大阪府",
    "prefecture_kana": "オオサカフ",
    "prefecture_code": 27,
    "city": "茨木市",
    "city_kana": "イバラキシ",
    "town": "真砂玉島台",
    "town_kana": "マサゴタマシマダイ",
    "street": null,
    "office_name": null,
    "office_name_kana": null
  },
  "0851": {
    "postcode": "5670851",
    "prefecture": "大阪府",
    "prefecture_kana": "オオサカフ",
    "prefecture_code": 27,
    "city": "茨木市",
    "city_kana": "イバラキシ",
    "town": "真砂",
    "town_kana": "マサゴ",
    "street": null,
    "office_name": null,
    "office_name_kana": null
  },
  "0852": {
    "postcode": "5670852",
    "prefecture": "大阪府",
    "prefecture_kana": "オオサカフ",
    "prefecture_code": 27,
    "city": "茨木市",
    "city_kana": "イバラキシ",
    "town": "小柳町",
    "town_kana": "コヤナギチョウ",
    "street": null,
    "office_name": null,
    "office_name_kana": null
  },
  "0853": {
    "postcode": "5670853",
    "prefecture": "大阪府",
    "prefecture_kana": "オオサカフ",
    "prefecture_code": 27,
    "city": "茨木市",
    "city_kana": "イバラキシ",
    "town": "宮島",
    "town_kana": "ミヤジマ",
    "street": null,
    "office_name": null,
    "office_name_kana": null
  },
  "0854": {
    "postcode": "5670854",
    "prefecture": "大阪府",
    "prefecture_kana": "オオサカフ",
    "prefecture_code": 27,
    "city": "茨木市",
    "city_kana": "イバラキシ",
    "town": "島",
    "town_kana": "シマ",
    "street": null,
    "office_name": null,
    "office_name_kana": null
  },
  "0855": {
    "postcode": "5670855",
    "prefecture": "大阪府",
    "prefecture_kana": "オオサカフ",
    "prefecture_code": 27,
    "city": "茨木市",
    "city_kana": "イバラキシ",
    "town": "新和町",
    "town_kana": "シンワチョウ",
    "street": null,
    "office_name": null,
    "office_name_kana": null
  },
  "0861": {
    "postcode": "5670861",
    "prefecture": "大阪府",
    "prefecture_kana": "オオサカフ",
    "prefecture_code": 27,
    "city": "茨木市",
    "city_kana": "イバラキシ",
    "town": "東奈良",
    "town_kana": "ヒガシナラ",
    "street": null,
    "office_name": null,
    "office_name_kana": null
  },
  "0862": {
    "postcode": "5670862",
    "prefecture": "大阪府",
    "prefecture_kana": "オオサカフ",
    "prefecture_code": 27,
    "city": "茨木市",
    "city_kana": "イバラキシ",
    "town": "美沢町",
    "town_kana": "ミサワチョウ",
    "street": null,
    "office_name": null,
    "office_name_kana": null
  },
  "0863": {
    "postcode": "5670863",
    "prefecture": "大阪府",
    "prefecture_kana": "オオサカフ",
    "prefecture_code": 27,
    "city": "茨木市",
    "city_kana": "イバラキシ",
    "town": "沢良宜東町",
    "town_kana": "サワラギヒガシマチ",
    "street": null,
    "office_name": null,
    "office_name_kana": null
  },
  "0864": {
    "postcode": "5670864",
    "prefecture": "大阪府",
    "prefecture_kana": "オオサカフ",
    "prefecture_code": 27,
    "city": "茨木市",
    "city_kana": "イバラキシ",
    "town": "沢良宜浜",
    "town_kana": "サワラギハマ",
    "street": null,
    "office_name": null,
    "office_name_kana": null
  },
  "0865": {
    "postcode": "5670865",
    "prefecture": "大阪府",
    "prefecture_kana": "オオサカフ",
    "prefecture_code": 27,
    "city": "茨木市",
    "city_kana": "イバラキシ",
    "town": "横江",
    "town_kana": "ヨコエ",
    "street": null,
    "office_name": null,
    "office_name_kana": null
  },
  "0866": {
    "postcode": "5670866",
    "prefecture": "大阪府",
    "prefecture_kana": "オオサカフ",
    "prefecture_code": 27,
    "city": "茨木市",
    "city_kana": "イバラキシ",
    "town": "高浜町",
    "town_kana": "タカハマチョウ",
    "street": null,
    "office_name": null,
    "office_name_kana": null
  },
  "0867": {
    "postcode": "5670867",
    "prefecture": "大阪府",
    "prefecture_kana": "オオサカフ",
    "prefecture_code": 27,
    "city": "茨木市",
    "city_kana": "イバラキシ",
    "town": "大正町",
    "town_kana": "タイショウチョウ",
    "street": null,
    "office_name": null,
    "office_name_kana": null
  },
  "0868": {
    "postcode": "5670868",
    "prefecture": "大阪府",
    "prefecture_kana": "オオサカフ",
    "prefecture_code": 27,
    "city": "茨木市",
    "city_kana": "イバラキシ",
    "town": "沢良宜西",
    "town_kana": "サワラギニシ",
    "street": null,
    "office_name": null,
    "office_name_kana": null
  },
  "0871": {
    "postcode": "5670871",
    "prefecture": "大阪府",
    "prefecture_kana": "オオサカフ",
    "prefecture_code": 27,
    "city": "茨木市",
    "city_kana": "イバラキシ",
    "town": "岩倉町",
    "town_kana": "イワクラチョウ",
    "street": null,
    "office_name": null,
    "office_name_kana": null
  },
  "0872": {
    "postcode": "5670872",
    "prefecture": "大阪府",
    "prefecture_kana": "オオサカフ",
    "prefecture_code": 27,
    "city": "茨木市",
    "city_kana": "イバラキシ",
    "town": "新中条町",
    "town_kana": "シンチュウジョウチョウ",
    "street": null,
    "office_name": null,
    "office_name_kana": null
  },
  "0873": {
    "postcode": "5670873",
    "prefecture": "大阪府",
    "prefecture_kana": "オオサカフ",
    "prefecture_code": 27,
    "city": "茨木市",
    "city_kana": "イバラキシ",
    "town": "小川町",
    "town_kana": "オガワチョウ",
    "street": null,
    "office_name": null,
    "office_name_kana": null
  },
  "0874": {
    "postcode": "5670874",
    "prefecture": "大阪府",
    "prefecture_kana": "オオサカフ",
    "prefecture_code": 27,
    "city": "茨木市",
    "city_kana": "イバラキシ",
    "town": "奈良町",
    "town_kana": "ナラチョウ",
    "street": null,
    "office_name": null,
    "office_name_kana": null
  },
  "0875": {
    "postcode": "5670875",
    "prefecture": "大阪府",
    "prefecture_kana": "オオサカフ",
    "prefecture_code": 27,
    "city": "茨木市",
    "city_kana": "イバラキシ",
    "town": "若草町",
    "town_kana": "ワカクサチョウ",
    "street": null,
    "office_name": null,
    "office_name_kana": null
  },
  "0876": {
    "postcode": "5670876",
    "prefecture": "大阪府",
    "prefecture_kana": "オオサカフ",
    "prefecture_code": 27,
    "city": "茨木市",
    "city_kana": "イバラキシ",
    "town": "天王",
    "town_kana": "テンノウ",
    "street": null,
    "office_name": null,
    "office_name_kana": null
  },
  "0877": {
    "postcode": "5670877",
    "prefecture": "大阪府",
    "prefecture_kana": "オオサカフ",
    "prefecture_code": 27,
    "city": "茨木市",
    "city_kana": "イバラキシ",
    "town": "丑寅",
    "town_kana": "ウシトラ",
    "street": null,
    "office_name": null,
    "office_name_kana": null
  },
  "0878": {
    "postcode": "5670878",
    "prefecture": "大阪府",
    "prefecture_kana": "オオサカフ",
    "prefecture_code": 27,
    "city": "茨木市",
    "city_kana": "イバラキシ",
    "town": "蔵垣内",
    "town_kana": "クラカキウチ",
    "street": null,
    "office_name": null,
    "office_name_kana": null
  },
  "0879": {
    "postcode": "5670879",
    "prefecture": "大阪府",
    "prefecture_kana": "オオサカフ",
    "prefecture_code": 27,
    "city": "茨木市",
    "city_kana": "イバラキシ",
    "town": "東宇野辺町",
    "town_kana": "ヒガシウノベチョウ",
    "street": null,
    "office_name": null,
    "office_name_kana": null
  },
  "0881": {
    "postcode": "5670881",
    "prefecture": "大阪府",
    "prefecture_kana": "オオサカフ",
    "prefecture_code": 27,
    "city": "茨木市",
    "city_kana": "イバラキシ",
    "town": "上中条",
    "town_kana": "カミチュウジョウ",
    "street": null,
    "office_name": null,
    "office_name_kana": null
  },
  "0882": {
    "postcode": "5670882",
    "prefecture": "大阪府",
    "prefecture_kana": "オオサカフ",
    "prefecture_code": 27,
    "city": "茨木市",
    "city_kana": "イバラキシ",
    "town": "元町",
    "town_kana": "モトマチ",
    "street": null,
    "office_name": null,
    "office_name_kana": null
  },
  "0883": {
    "postcode": "5670883",
    "prefecture": "大阪府",
    "prefecture_kana": "オオサカフ",
    "prefecture_code": 27,
    "city": "茨木市",
    "city_kana": "イバラキシ",
    "town": "大手町",
    "town_kana": "オオテチョウ",
    "street": null,
    "office_name": null,
    "office_name_kana": null
  },
  "0884": {
    "postcode": "5670884",
    "prefecture": "大阪府",
    "prefecture_kana": "オオサカフ",
    "prefecture_code": 27,
    "city": "茨木市",
    "city_kana": "イバラキシ",
    "town": "新庄町",
    "town_kana": "シンジョウチョウ",
    "street": null,
    "office_name": null,
    "office_name_kana": null
  },
  "0885": {
    "postcode": "5670885",
    "prefecture": "大阪府",
    "prefecture_kana": "オオサカフ",
    "prefecture_code": 27,
    "city": "茨木市",
    "city_kana": "イバラキシ",
    "town": "東中条町",
    "town_kana": "ヒガシチュウジョウチョウ",
    "street": null,
    "office_name": null,
    "office_name_kana": null
  },
  "0886": {
    "postcode": "5670886",
    "prefecture": "大阪府",
    "prefecture_kana": "オオサカフ",
    "prefecture_code": 27,
    "city": "茨木市",
    "city_kana": "イバラキシ",
    "town": "下中条町",
    "town_kana": "シモチュウジョウチョウ",
    "street": null,
    "office_name": null,
    "office_name_kana": null
  },
  "0887": {
    "postcode": "5670887",
    "prefecture": "大阪府",
    "prefecture_kana": "オオサカフ",
    "prefecture_code": 27,
    "city": "茨木市",
    "city_kana": "イバラキシ",
    "town": "西中条町",
    "town_kana": "ニシチュウジョウチョウ",
    "street": null,
    "office_name": null,
    "office_name_kana": null
  },
  "0888": {
    "postcode": "5670888",
    "prefecture": "大阪府",
    "prefecture_kana": "オオサカフ",
    "prefecture_code": 27,
    "city": "茨木市",
    "city_kana": "イバラキシ",
    "town": "駅前",
    "town_kana": "エキマエ",
    "street": null,
    "office_name": null,
    "office_name_kana": null
  },
  "0891": {
    "postcode": "5670891",
    "prefecture": "大阪府",
    "prefecture_kana": "オオサカフ",
    "prefecture_code": 27,
    "city": "茨木市",
    "city_kana": "イバラキシ",
    "town": "水尾",
    "town_kana": "ミズオ",
    "street": null,
    "office_name": null,
    "office_name_kana": null
  },
  "0892": {
    "postcode": "5670892",
    "prefecture": "大阪府",
    "prefecture_kana": "オオサカフ",
    "prefecture_code": 27,
    "city": "茨木市",
    "city_kana": "イバラキシ",
    "town": "並木町",
    "town_kana": "ナミキチョウ",
    "street": null,
    "office_name": null,
    "office_name_kana": null
  },
  "0893": {
    "postcode": "5670893",
    "prefecture": "大阪府",
    "prefecture_kana": "オオサカフ",
    "prefecture_code": 27,
    "city": "茨木市",
    "city_kana": "イバラキシ",
    "town": "玉瀬町",
    "town_kana": "タマセチョウ",
    "street": null,
    "office_name": null,
    "office_name_kana": null
  },
  "0894": {
    "postcode": "5670894",
    "prefecture": "大阪府",
    "prefecture_kana": "オオサカフ",
    "prefecture_code": 27,
    "city": "茨木市",
    "city_kana": "イバラキシ",
    "town": "若園町",
    "town_kana": "ワカソノチョウ",
    "street": null,
    "office_name": null,
    "office_name_kana": null
  },
  "0895": {
    "postcode": "5670895",
    "prefecture": "大阪府",
    "prefecture_kana": "オオサカフ",
    "prefecture_code": 27,
    "city": "茨木市",
    "city_kana": "イバラキシ",
    "town": "玉櫛",
    "town_kana": "タマクシ",
    "street": null,
    "office_name": null,
    "office_name_kana": null
  },
  "0896": {
    "postcode": "5670896",
    "prefecture": "大阪府",
    "prefecture_kana": "オオサカフ",
    "prefecture_code": 27,
    "city": "茨木市",
    "city_kana": "イバラキシ",
    "town": "玉水町",
    "town_kana": "タマミズチョウ",
    "street": null,
    "office_name": null,
    "office_name_kana": null
  },
  "0897": {
    "postcode": "5670897",
    "prefecture": "大阪府",
    "prefecture_kana": "オオサカフ",
    "prefecture_code": 27,
    "city": "茨木市",
    "city_kana": "イバラキシ",
    "town": "主原町",
    "town_kana": "アルジハラチョウ",
    "street": null,
    "office_name": null,
    "office_name_kana": null
  },
  "8501": {
    "postcode": "5678501",
    "prefecture": "大阪府",
    "prefecture_kana": "オオサカフ",
    "prefecture_code": 27,
    "city": "茨木市",
    "city_kana": "イバラキシ",
    "town": "西河原",
    "town_kana": "ニシガワラ",
    "street": "３丁目１−１６",
    "office_name": "株式会社　明治屋食品工場",
    "office_name_kana": "カブシキガイシヤ メイジヤシヨクヒンコウジヨウ"
  },
  "8502": {
    "postcode": "5678502",
    "prefecture": "大阪府",
    "prefecture_kana": "オオサカフ",
    "prefecture_code": 27,
    "city": "茨木市",
    "city_kana": "イバラキシ",
    "town": "西安威",
    "town_kana": "ニシアイ",
    "street": "２丁目１−１５",
    "office_name": "追手門学院大学",
    "office_name_kana": "オウテモンガクインダイガク"
  },
  "8505": {
    "postcode": "5678505",
    "prefecture": "大阪府",
    "prefecture_kana": "オオサカフ",
    "prefecture_code": 27,
    "city": "茨木市",
    "city_kana": "イバラキシ",
    "town": "駅前",
    "town_kana": "エキマエ",
    "street": "３丁目８−１３",
    "office_name": "茨木市役所",
    "office_name_kana": "イバラキシヤクシヨ"
  },
  "8507": {
    "postcode": "5678507",
    "prefecture": "大阪府",
    "prefecture_kana": "オオサカフ",
    "prefecture_code": 27,
    "city": "茨木市",
    "city_kana": "イバラキシ",
    "town": "松下町",
    "town_kana": "マツシタチョウ",
    "street": "２−１",
    "office_name": "アマゾン茨木ＦＣ",
    "office_name_kana": "アマゾンイバラキエフシ-"
  },
  "8510": {
    "postcode": "5678510",
    "prefecture": "大阪府",
    "prefecture_kana": "オオサカフ",
    "prefecture_code": 27,
    "city": "茨木市",
    "city_kana": "イバラキシ",
    "town": "庄",
    "town_kana": "ショウ",
    "street": "１丁目２８−１０",
    "office_name": "フジテック　株式会社",
    "office_name_kana": "フジテツク カブシキガイシヤ"
  },
  "8511": {
    "postcode": "5678511",
    "prefecture": "大阪府",
    "prefecture_kana": "オオサカフ",
    "prefecture_code": 27,
    "city": "茨木市",
    "city_kana": "イバラキシ",
    "town": "高田町",
    "town_kana": "タカダチョウ",
    "street": "１１−１８",
    "office_name": "医療法人　恒昭会　藍野病院",
    "office_name_kana": "イリヨウホウジン コウシヨウカイ アイノビヨウイン"
  },
  "8515": {
    "postcode": "5678515",
    "prefecture": "大阪府",
    "prefecture_kana": "オオサカフ",
    "prefecture_code": 27,
    "city": "茨木市",
    "city_kana": "イバラキシ",
    "town": "中穂積",
    "town_kana": "ナカホヅミ",
    "street": "１丁目３−４３",
    "office_name": "大阪府　三島府税事務所",
    "office_name_kana": "オオサカフ ミシマフゼイジムシヨ"
  },
  "8516": {
    "postcode": "5678516",
    "prefecture": "大阪府",
    "prefecture_kana": "オオサカフ",
    "prefecture_code": 27,
    "city": "茨木市",
    "city_kana": "イバラキシ",
    "town": "丑寅",
    "town_kana": "ウシトラ",
    "street": "１丁目１−１ＤＰＬ茨木",
    "office_name": "ＪＰ楽天ロジスティクス　株式会社　楽天フルフィルメントセンター茨木",
    "office_name_kana": "ジエイピ-ラクテンロジステイクス カブシキガイシヤ ラクテンフルフイルメントセンタ-イバラキ"
  },
  "8517": {
    "postcode": "5678517",
    "prefecture": "大阪府",
    "prefecture_kana": "オオサカフ",
    "prefecture_code": 27,
    "city": "茨木市",
    "city_kana": "イバラキシ",
    "town": "東野々宮町",
    "town_kana": "ヒガシノノミヤチョウ",
    "street": "１番４０号",
    "office_name": "ＧＬＰ　ＡＬＦＡＬＩＮＫ　茨木１",
    "office_name_kana": "ジ-エルピ- アルフアリンク イバラギイチ"
  },
  "8518": {
    "postcode": "5678518",
    "prefecture": "大阪府",
    "prefecture_kana": "オオサカフ",
    "prefecture_code": 27,
    "city": "茨木市",
    "city_kana": "イバラキシ",
    "town": "南目垣",
    "town_kana": "ミナミメガキ",
    "street": "三丁目３番３号",
    "office_name": "ＧＬＰ　ＡＬＦＡＬＩＮＫ　茨木２",
    "office_name_kana": "ジ-エルピ- アルフアリンク イバラギニ"
  },
  "8520": {
    "postcode": "5678520",
    "prefecture": "大阪府",
    "prefecture_kana": "オオサカフ",
    "prefecture_code": 27,
    "city": "茨木市",
    "city_kana": "イバラキシ",
    "town": "五日市緑町",
    "town_kana": "イツカイチミドリマチ",
    "street": "２−２８",
    "office_name": "マルカキカイ　株式会社",
    "office_name_kana": "マルカキカイ カブシキガイシヤ"
  },
  "8521": {
    "postcode": "5678521",
    "prefecture": "大阪府",
    "prefecture_kana": "オオサカフ",
    "prefecture_code": 27,
    "city": "茨木市",
    "city_kana": "イバラキシ",
    "town": "岩倉町",
    "town_kana": "イワクラチョウ",
    "street": "２−１",
    "office_name": "サッポロビール　株式会社　大阪工場",
    "office_name_kana": "サツポロビ-ル カブシキガイシヤ オオサカコウジヨウ"
  },
  "8523": {
    "postcode": "5678523",
    "prefecture": "大阪府",
    "prefecture_kana": "オオサカフ",
    "prefecture_code": 27,
    "city": "茨木市",
    "city_kana": "イバラキシ",
    "town": "新庄町",
    "town_kana": "シンジョウチョウ",
    "street": "１２−１",
    "office_name": "大阪府立　茨木高等学校",
    "office_name_kana": "オオサカフリツ イバラキコウトウガツコウ"
  },
  "8525": {
    "postcode": "5678525",
    "prefecture": "大阪府",
    "prefecture_kana": "オオサカフ",
    "prefecture_code": 27,
    "city": "茨木市",
    "city_kana": "イバラキシ",
    "town": "五日市",
    "town_kana": "イツカイチ",
    "street": "１丁目２番１１号",
    "office_name": "株式会社　桜川ポンプ製作所",
    "office_name_kana": "カブシキガイシヤ サクラガワポンプセイサクシヨ"
  },
  "8530": {
    "postcode": "5678530",
    "prefecture": "大阪府",
    "prefecture_kana": "オオサカフ",
    "prefecture_code": 27,
    "city": "茨木市",
    "city_kana": "イバラキシ",
    "town": "上中条",
    "town_kana": "カミチュウジョウ",
    "street": "２丁目５−７",
    "office_name": "茨木労働基準監督署",
    "office_name_kana": "イバラキロウドウキジユンカントクシヨ"
  },
  "8540": {
    "postcode": "5678540",
    "prefecture": "大阪府",
    "prefecture_kana": "オオサカフ",
    "prefecture_code": 27,
    "city": "茨木市",
    "city_kana": "イバラキシ",
    "town": "玉島台",
    "town_kana": "タマシマダイ",
    "street": "２−１５",
    "office_name": "大阪府立　茨木東高等学校",
    "office_name_kana": "オオサカフリツ イバラキヒガシコウトウガツコウ"
  },
  "8557": {
    "postcode": "5678557",
    "prefecture": "大阪府",
    "prefecture_kana": "オオサカフ",
    "prefecture_code": 27,
    "city": "茨木市",
    "city_kana": "イバラキシ",
    "town": "沢良宜西",
    "town_kana": "サワラギニシ",
    "street": "４丁目１５−８",
    "office_name": "ゴルフ場用品　株式会社",
    "office_name_kana": "ゴルフジヨウヨウヒン カブシキガイシヤ"
  },
  "8565": {
    "postcode": "5678565",
    "prefecture": "大阪府",
    "prefecture_kana": "オオサカフ",
    "prefecture_code": 27,
    "city": "茨木市",
    "city_kana": "イバラキシ",
    "town": "上中条",
    "town_kana": "カミチュウジョウ",
    "street": "１丁目９−２１",
    "office_name": "茨木税務署",
    "office_name_kana": "イバラキゼイムシヨ"
  },
  "8567": {
    "postcode": "5678567",
    "prefecture": "大阪府",
    "prefecture_kana": "オオサカフ",
    "prefecture_code": 27,
    "city": "茨木市",
    "city_kana": "イバラキシ",
    "town": "丑寅",
    "town_kana": "ウシトラ",
    "street": "１丁目１−８８",
    "office_name": "日立マクセル　株式会社　本社大阪事業所",
    "office_name_kana": "ヒタチマクセル カブシキガイシヤ ホンシヤオオサカジギヨウシヨ"
  },
  "8570": {
    "postcode": "5678570",
    "prefecture": "大阪府",
    "prefecture_kana": "オオサカフ",
    "prefecture_code": 27,
    "city": "茨木市",
    "city_kana": "イバラキシ",
    "town": "岩倉町",
    "town_kana": "イワクラチョウ",
    "street": "２−１５０",
    "office_name": "立命館大学　大阪いばらきキャンパス",
    "office_name_kana": "リツメイカンダイガク オオサカイバラキキヤンパス"
  },
  "8578": {
    "postcode": "5678578",
    "prefecture": "大阪府",
    "prefecture_kana": "オオサカフ",
    "prefecture_code": 27,
    "city": "茨木市",
    "city_kana": "イバラキシ",
    "town": "宿久庄",
    "town_kana": "シュクノショウ",
    "street": "２丁目１９−５",
    "office_name": "梅花女子大学",
    "office_name_kana": "バイカジヨシダイガク"
  },
  "8585": {
    "postcode": "5678585",
    "prefecture": "大阪府",
    "prefecture_kana": "オオサカフ",
    "prefecture_code": 27,
    "city": "茨木市",
    "city_kana": "イバラキシ",
    "town": "大住町",
    "town_kana": "オオスミチョウ",
    "street": "８−１１",
    "office_name": "大阪府　茨木保健所",
    "office_name_kana": "オオサカフ イバラキホケンシヨ"
  },
  "8588": {
    "postcode": "5678588",
    "prefecture": "大阪府",
    "prefecture_kana": "オオサカフ",
    "prefecture_code": 27,
    "city": "茨木市",
    "city_kana": "イバラキシ",
    "town": "岩倉町",
    "town_kana": "イワクラチョウ",
    "street": "２−１５０",
    "office_name": "茨木商工会議所",
    "office_name_kana": "イバラキシヨウコウカイギシヨ"
  },
  "8620": {
    "postcode": "5678620",
    "prefecture": "大阪府",
    "prefecture_kana": "オオサカフ",
    "prefecture_code": 27,
    "city": "茨木市",
    "city_kana": "イバラキシ",
    "town": "太田東芝町",
    "town_kana": "オオダトウシバチョウ",
    "street": "１番１号",
    "office_name": "追手門学院大学　茨木総持寺キャンパス",
    "office_name_kana": "オウテモンガクインダイガク イバラキソウジジキヤンパス"
  },
  "8651": {
    "postcode": "5678651",
    "prefecture": "大阪府",
    "prefecture_kana": "オオサカフ",
    "prefecture_code": 27,
    "city": "茨木市",
    "city_kana": "イバラキシ",
    "town": "西駅前町",
    "town_kana": "ニシエキマエチョウ",
    "street": "９−３２（茨木郵便局私書箱第２３号）",
    "office_name": "摂津水都信用金庫",
    "office_name_kana": "セツツスイトシンヨウキンコ"
  },
  "8680": {
    "postcode": "5678680",
    "prefecture": "大阪府",
    "prefecture_kana": "オオサカフ",
    "prefecture_code": 27,
    "city": "茨木市",
    "city_kana": "イバラキシ",
    "town": "下穂積",
    "town_kana": "シモホヅミ",
    "street": "１丁目１−２",
    "office_name": "日東電工　株式会社　茨木事業所",
    "office_name_kana": "ニツトウデンコウ カブシキガイシヤ イバラキジギヨウシヨ"
  }
}