{
  "0000": {
    "postcode": "5710000",
    "prefecture": "大阪府",
    "prefecture_kana": "オオサカフ",
    "prefecture_code": 27,
    "city": "門真市",
    "city_kana": "カドマシ",
    "town": "",
    "town_kana": "",
    "street": null,
    "office_name": null,
    "office_name_kana": null
  },
  "0001": {
    "postcode": "5710001",
    "prefecture": "大阪府",
    "prefecture_kana": "オオサカフ",
    "prefecture_code": 27,
    "city": "門真市",
    "city_kana": "カドマシ",
    "town": "巣本町",
    "town_kana": "スモトチョウ",
    "street": null,
    "office_name": null,
    "office_name_kana": null
  },
  "0002": {
    "postcode": "5710002",
    "prefecture": "大阪府",
    "prefecture_kana": "オオサカフ",
    "prefecture_code": 27,
    "city": "門真市",
    "city_kana": "カドマシ",
    "town": "岸和田",
    "town_kana": "キシワダ",
    "street": null,
    "office_name": null,
    "office_name_kana": null
  },
  "0005": {
    "postcode": "5710005",
    "prefecture": "大阪府",
    "prefecture_kana": "オオサカフ",
    "prefecture_code": 27,
    "city": "門真市",
    "city_kana": "カドマシ",
    "town": "南野口町",
    "town_kana": "ミナミノグチチョウ",
    "street": null,
    "office_name": null,
    "office_name_kana": null
  },
  "0007": {
    "postcode": "5710007",
    "prefecture": "大阪府",
    "prefecture_kana": "オオサカフ",
    "prefecture_code": 27,
    "city": "門真市",
    "city_kana": "カドマシ",
    "town": "北岸和田",
    "town_kana": "キタキシワダ",
    "street": null,
    "office_name": null,
    "office_name_kana": null
  },
  "0008": {
    "postcode": "5710008",
    "prefecture": "大阪府",
    "prefecture_kana": "オオサカフ",
    "prefecture_code": 27,
    "city": "門真市",
    "city_kana": "カドマシ",
    "town": "東江端町",
    "town_kana": "ヒガシエバタチョウ",
    "street": null,
    "office_name": null,
    "office_name_kana": null
  },
  "0009": {
    "postcode": "5710009",
    "prefecture": "大阪府",
    "prefecture_kana": "オオサカフ",
    "prefecture_code": 27,
    "city": "門真市",
    "city_kana": "カドマシ",
    "town": "下馬伏町",
    "town_kana": "シモマブシチョウ",
    "street": null,
    "office_name": null,
    "office_name_kana": null
  },
  "0011": {
    "postcode": "5710011",
    "prefecture": "大阪府",
    "prefecture_kana": "オオサカフ",
    "prefecture_code": 27,
    "city": "門真市",
    "city_kana": "カドマシ",
    "town": "脇田町",
    "town_kana": "ワキタチョウ",
    "street": null,
    "office_name": null,
    "office_name_kana": null
  },
  "0012": {
    "postcode": "5710012",
    "prefecture": "大阪府",
    "prefecture_kana": "オオサカフ",
    "prefecture_code": 27,
    "city": "門真市",
    "city_kana": "カドマシ",
    "town": "江端町",
    "town_kana": "エバタチョウ",
    "street": null,
    "office_name": null,
    "office_name_kana": null
  },
  "0013": {
    "postcode": "5710013",
    "prefecture": "大阪府",
    "prefecture_kana": "オオサカフ",
    "prefecture_code": 27,
    "city": "門真市",
    "city_kana": "カドマシ",
    "town": "千石東町",
    "town_kana": "センゴクヒガシマチ",
    "street": null,
    "office_name": null,
    "office_name_kana": null
  },
  "0014": {
    "postcode": "5710014",
    "prefecture": "大阪府",
    "prefecture_kana": "オオサカフ",
    "prefecture_code": 27,
    "city": "門真市",
    "city_kana": "カドマシ",
    "town": "千石西町",
    "town_kana": "センゴクニシマチ",
    "street": null,
    "office_name": null,
    "office_name_kana": null
  },
  "0015": {
    "postcode": "5710015",
    "prefecture": "大阪府",
    "prefecture_kana": "オオサカフ",
    "prefecture_code": 27,
    "city": "門真市",
    "city_kana": "カドマシ",
    "town": "三ツ島",
    "town_kana": "ミツシマ",
    "street": null,
    "office_name": null,
    "office_name_kana": null
  },
  "0016": {
    "postcode": "5710016",
    "prefecture": "大阪府",
    "prefecture_kana": "オオサカフ",
    "prefecture_code": 27,
    "city": "門真市",
    "city_kana": "カドマシ",
    "town": "島頭",
    "town_kana": "シマガシラ",
    "street": null,
    "office_name": null,
    "office_name_kana": null
  },
  "0017": {
    "postcode": "5710017",
    "prefecture": "大阪府",
    "prefecture_kana": "オオサカフ",
    "prefecture_code": 27,
    "city": "門真市",
    "city_kana": "カドマシ",
    "town": "四宮",
    "town_kana": "シノミヤ",
    "street": null,
    "office_name": null,
    "office_name_kana": null
  },
  "0018": {
    "postcode": "5710018",
    "prefecture": "大阪府",
    "prefecture_kana": "オオサカフ",
    "prefecture_code": 27,
    "city": "門真市",
    "city_kana": "カドマシ",
    "town": "北島東町",
    "town_kana": "キタジマヒガシマチ",
    "street": null,
    "office_name": null,
    "office_name_kana": null
  },
  "0021": {
    "postcode": "5710021",
    "prefecture": "大阪府",
    "prefecture_kana": "オオサカフ",
    "prefecture_code": 27,
    "city": "門真市",
    "city_kana": "カドマシ",
    "town": "舟田町",
    "town_kana": "フナダチョウ",
    "street": null,
    "office_name": null,
    "office_name_kana": null
  },
  "0022": {
    "postcode": "5710022",
    "prefecture": "大阪府",
    "prefecture_kana": "オオサカフ",
    "prefecture_code": 27,
    "city": "門真市",
    "city_kana": "カドマシ",
    "town": "沖町",
    "town_kana": "オキマチ",
    "street": null,
    "office_name": null,
    "office_name_kana": null
  },
  "0023": {
    "postcode": "5710023",
    "prefecture": "大阪府",
    "prefecture_kana": "オオサカフ",
    "prefecture_code": 27,
    "city": "門真市",
    "city_kana": "カドマシ",
    "town": "横地",
    "town_kana": "ヨコチ",
    "street": null,
    "office_name": null,
    "office_name_kana": null
  },
  "0024": {
    "postcode": "5710024",
    "prefecture": "大阪府",
    "prefecture_kana": "オオサカフ",
    "prefecture_code": 27,
    "city": "門真市",
    "city_kana": "カドマシ",
    "town": "野口",
    "town_kana": "ノグチ",
    "street": null,
    "office_name": null,
    "office_name_kana": null
  },
  "0025": {
    "postcode": "5710025",
    "prefecture": "大阪府",
    "prefecture_kana": "オオサカフ",
    "prefecture_code": 27,
    "city": "門真市",
    "city_kana": "カドマシ",
    "town": "北島",
    "town_kana": "キタジマ",
    "street": null,
    "office_name": null,
    "office_name_kana": null
  },
  "0026": {
    "postcode": "5710026",
    "prefecture": "大阪府",
    "prefecture_kana": "オオサカフ",
    "prefecture_code": 27,
    "city": "門真市",
    "city_kana": "カドマシ",
    "town": "北島町",
    "town_kana": "キタジマチョウ",
    "street": null,
    "office_name": null,
    "office_name_kana": null
  },
  "0027": {
    "postcode": "5710027",
    "prefecture": "大阪府",
    "prefecture_kana": "オオサカフ",
    "prefecture_code": 27,
    "city": "門真市",
    "city_kana": "カドマシ",
    "town": "五月田町",
    "town_kana": "サツキダチョウ",
    "street": null,
    "office_name": null,
    "office_name_kana": null
  },
  "0028": {
    "postcode": "5710028",
    "prefecture": "大阪府",
    "prefecture_kana": "オオサカフ",
    "prefecture_code": 27,
    "city": "門真市",
    "city_kana": "カドマシ",
    "town": "打越",
    "town_kana": "ウチコシ",
    "street": null,
    "office_name": null,
    "office_name_kana": null
  },
  "0029": {
    "postcode": "5710029",
    "prefecture": "大阪府",
    "prefecture_kana": "オオサカフ",
    "prefecture_code": 27,
    "city": "門真市",
    "city_kana": "カドマシ",
    "town": "打越町",
    "town_kana": "ウチコシチョウ",
    "street": null,
    "office_name": null,
    "office_name_kana": null
  },
  "0030": {
    "postcode": "5710030",
    "prefecture": "大阪府",
    "prefecture_kana": "オオサカフ",
    "prefecture_code": 27,
    "city": "門真市",
    "city_kana": "カドマシ",
    "town": "末広町",
    "town_kana": "スエヒロチョウ",
    "street": null,
    "office_name": null,
    "office_name_kana": null
  },
  "0031": {
    "postcode": "5710031",
    "prefecture": "大阪府",
    "prefecture_kana": "オオサカフ",
    "prefecture_code": 27,
    "city": "門真市",
    "city_kana": "カドマシ",
    "town": "古川町",
    "town_kana": "フルカワチョウ",
    "street": null,
    "office_name": null,
    "office_name_kana": null
  },
  "0032": {
    "postcode": "5710032",
    "prefecture": "大阪府",
    "prefecture_kana": "オオサカフ",
    "prefecture_code": 27,
    "city": "門真市",
    "city_kana": "カドマシ",
    "town": "寿町",
    "town_kana": "コトブキチョウ",
    "street": null,
    "office_name": null,
    "office_name_kana": null
  },
  "0033": {
    "postcode": "5710033",
    "prefecture": "大阪府",
    "prefecture_kana": "オオサカフ",
    "prefecture_code": 27,
    "city": "門真市",
    "city_kana": "カドマシ",
    "town": "一番町",
    "town_kana": "イチバンチョウ",
    "street": null,
    "office_name": null,
    "office_name_kana": null
  },
  "0034": {
    "postcode": "5710034",
    "prefecture": "大阪府",
    "prefecture_kana": "オオサカフ",
    "prefecture_code": 27,
    "city": "門真市",
    "city_kana": "カドマシ",
    "town": "東田町",
    "town_kana": "ヒガシダチョウ",
    "street": null,
    "office_name": null,
    "office_name_kana": null
  },
  "0035": {
    "postcode": "5710035",
    "prefecture": "大阪府",
    "prefecture_kana": "オオサカフ",
    "prefecture_code": 27,
    "city": "門真市",
    "city_kana": "カドマシ",
    "town": "桑才町",
    "town_kana": "クワザイチョウ",
    "street": null,
    "office_name": null,
    "office_name_kana": null
  },
  "0037": {
    "postcode": "5710037",
    "prefecture": "大阪府",
    "prefecture_kana": "オオサカフ",
    "prefecture_code": 27,
    "city": "門真市",
    "city_kana": "カドマシ",
    "town": "ひえ島町",
    "town_kana": "ヒエジマチョウ",
    "street": null,
    "office_name": null,
    "office_name_kana": null
  },
  "0038": {
    "postcode": "5710038",
    "prefecture": "大阪府",
    "prefecture_kana": "オオサカフ",
    "prefecture_code": 27,
    "city": "門真市",
    "city_kana": "カドマシ",
    "town": "柳田町",
    "town_kana": "ヤナギダチョウ",
    "street": null,
    "office_name": null,
    "office_name_kana": null
  },
  "0039": {
    "postcode": "5710039",
    "prefecture": "大阪府",
    "prefecture_kana": "オオサカフ",
    "prefecture_code": 27,
    "city": "門真市",
    "city_kana": "カドマシ",
    "town": "速見町",
    "town_kana": "ハヤミチョウ",
    "street": null,
    "office_name": null,
    "office_name_kana": null
  },
  "0041": {
    "postcode": "5710041",
    "prefecture": "大阪府",
    "prefecture_kana": "オオサカフ",
    "prefecture_code": 27,
    "city": "門真市",
    "city_kana": "カドマシ",
    "town": "柳町",
    "town_kana": "ヤナギマチ",
    "street": null,
    "office_name": null,
    "office_name_kana": null
  },
  "0042": {
    "postcode": "5710042",
    "prefecture": "大阪府",
    "prefecture_kana": "オオサカフ",
    "prefecture_code": 27,
    "city": "門真市",
    "city_kana": "カドマシ",
    "town": "深田町",
    "town_kana": "フカダチョウ",
    "street": null,
    "office_name": null,
    "office_name_kana": null
  },
  "0043": {
    "postcode": "5710043",
    "prefecture": "大阪府",
    "prefecture_kana": "オオサカフ",
    "prefecture_code": 27,
    "city": "門真市",
    "city_kana": "カドマシ",
    "town": "桑才新町",
    "town_kana": "クワザイシンマチ",
    "street": null,
    "office_name": null,
    "office_name_kana": null
  },
  "0044": {
    "postcode": "5710044",
    "prefecture": "大阪府",
    "prefecture_kana": "オオサカフ",
    "prefecture_code": 27,
    "city": "門真市",
    "city_kana": "カドマシ",
    "town": "松生町",
    "town_kana": "マツオチョウ",
    "street": null,
    "office_name": null,
    "office_name_kana": null
  },
  "0045": {
    "postcode": "5710045",
    "prefecture": "大阪府",
    "prefecture_kana": "オオサカフ",
    "prefecture_code": 27,
    "city": "門真市",
    "city_kana": "カドマシ",
    "town": "殿島町",
    "town_kana": "トノシマチョウ",
    "street": null,
    "office_name": null,
    "office_name_kana": null
  },
  "0046": {
    "postcode": "5710046",
    "prefecture": "大阪府",
    "prefecture_kana": "オオサカフ",
    "prefecture_code": 27,
    "city": "門真市",
    "city_kana": "カドマシ",
    "town": "本町",
    "town_kana": "ホンマチ",
    "street": null,
    "office_name": null,
    "office_name_kana": null
  },
  "0047": {
    "postcode": "5710047",
    "prefecture": "大阪府",
    "prefecture_kana": "オオサカフ",
    "prefecture_code": 27,
    "city": "門真市",
    "city_kana": "カドマシ",
    "town": "栄町",
    "town_kana": "サカエマチ",
    "street": null,
    "office_name": null,
    "office_name_kana": null
  },
  "0048": {
    "postcode": "5710048",
    "prefecture": "大阪府",
    "prefecture_kana": "オオサカフ",
    "prefecture_code": 27,
    "city": "門真市",
    "city_kana": "カドマシ",
    "town": "新橋町",
    "town_kana": "シンバシチョウ",
    "street": null,
    "office_name": null,
    "office_name_kana": null
  },
  "0050": {
    "postcode": "5710050",
    "prefecture": "大阪府",
    "prefecture_kana": "オオサカフ",
    "prefecture_code": 27,
    "city": "門真市",
    "city_kana": "カドマシ",
    "town": "門真",
    "town_kana": "カドマ",
    "street": null,
    "office_name": null,
    "office_name_kana": null
  },
  "0051": {
    "postcode": "5710051",
    "prefecture": "大阪府",
    "prefecture_kana": "オオサカフ",
    "prefecture_code": 27,
    "city": "門真市",
    "city_kana": "カドマシ",
    "town": "向島町",
    "town_kana": "ムコウジマチョウ",
    "street": null,
    "office_name": null,
    "office_name_kana": null
  },
  "0052": {
    "postcode": "5710052",
    "prefecture": "大阪府",
    "prefecture_kana": "オオサカフ",
    "prefecture_code": 27,
    "city": "門真市",
    "city_kana": "カドマシ",
    "town": "月出町",
    "town_kana": "ツキデチョウ",
    "street": null,
    "office_name": null,
    "office_name_kana": null
  },
  "0053": {
    "postcode": "5710053",
    "prefecture": "大阪府",
    "prefecture_kana": "オオサカフ",
    "prefecture_code": 27,
    "city": "門真市",
    "city_kana": "カドマシ",
    "town": "泉町",
    "town_kana": "イズミマチ",
    "street": null,
    "office_name": null,
    "office_name_kana": null
  },
  "0054": {
    "postcode": "5710054",
    "prefecture": "大阪府",
    "prefecture_kana": "オオサカフ",
    "prefecture_code": 27,
    "city": "門真市",
    "city_kana": "カドマシ",
    "town": "浜町",
    "town_kana": "ハママチ",
    "street": null,
    "office_name": null,
    "office_name_kana": null
  },
  "0055": {
    "postcode": "5710055",
    "prefecture": "大阪府",
    "prefecture_kana": "オオサカフ",
    "prefecture_code": 27,
    "city": "門真市",
    "city_kana": "カドマシ",
    "town": "中町",
    "town_kana": "ナカマチ",
    "street": null,
    "office_name": null,
    "office_name_kana": null
  },
  "0056": {
    "postcode": "5710056",
    "prefecture": "大阪府",
    "prefecture_kana": "オオサカフ",
    "prefecture_code": 27,
    "city": "門真市",
    "city_kana": "カドマシ",
    "town": "松葉町",
    "town_kana": "マツバチョウ",
    "street": null,
    "office_name": null,
    "office_name_kana": null
  },
  "0057": {
    "postcode": "5710057",
    "prefecture": "大阪府",
    "prefecture_kana": "オオサカフ",
    "prefecture_code": 27,
    "city": "門真市",
    "city_kana": "カドマシ",
    "town": "元町",
    "town_kana": "モトマチ",
    "street": null,
    "office_name": null,
    "office_name_kana": null
  },
  "0058": {
    "postcode": "5710058",
    "prefecture": "大阪府",
    "prefecture_kana": "オオサカフ",
    "prefecture_code": 27,
    "city": "門真市",
    "city_kana": "カドマシ",
    "town": "小路町",
    "town_kana": "ショウジチョウ",
    "street": null,
    "office_name": null,
    "office_name_kana": null
  },
  "0059": {
    "postcode": "5710059",
    "prefecture": "大阪府",
    "prefecture_kana": "オオサカフ",
    "prefecture_code": 27,
    "city": "門真市",
    "city_kana": "カドマシ",
    "town": "堂山町",
    "town_kana": "ドウヤマチョウ",
    "street": null,
    "office_name": null,
    "office_name_kana": null
  },
  "0061": {
    "postcode": "5710061",
    "prefecture": "大阪府",
    "prefecture_kana": "オオサカフ",
    "prefecture_code": 27,
    "city": "門真市",
    "city_kana": "カドマシ",
    "town": "朝日町",
    "town_kana": "アサヒチョウ",
    "street": null,
    "office_name": null,
    "office_name_kana": null
  },
  "0062": {
    "postcode": "5710062",
    "prefecture": "大阪府",
    "prefecture_kana": "オオサカフ",
    "prefecture_code": 27,
    "city": "門真市",
    "city_kana": "カドマシ",
    "town": "宮野町",
    "town_kana": "ミヤノチョウ",
    "street": null,
    "office_name": null,
    "office_name_kana": null
  },
  "0063": {
    "postcode": "5710063",
    "prefecture": "大阪府",
    "prefecture_kana": "オオサカフ",
    "prefecture_code": 27,
    "city": "門真市",
    "city_kana": "カドマシ",
    "town": "常称寺町",
    "town_kana": "ジョウショウジチョウ",
    "street": null,
    "office_name": null,
    "office_name_kana": null
  },
  "0064": {
    "postcode": "5710064",
    "prefecture": "大阪府",
    "prefecture_kana": "オオサカフ",
    "prefecture_code": 27,
    "city": "門真市",
    "city_kana": "カドマシ",
    "town": "御堂町",
    "town_kana": "ミドウチョウ",
    "street": null,
    "office_name": null,
    "office_name_kana": null
  },
  "0065": {
    "postcode": "5710065",
    "prefecture": "大阪府",
    "prefecture_kana": "オオサカフ",
    "prefecture_code": 27,
    "city": "門真市",
    "city_kana": "カドマシ",
    "town": "垣内町",
    "town_kana": "カキウチチョウ",
    "street": null,
    "office_name": null,
    "office_name_kana": null
  },
  "0066": {
    "postcode": "5710066",
    "prefecture": "大阪府",
    "prefecture_kana": "オオサカフ",
    "prefecture_code": 27,
    "city": "門真市",
    "city_kana": "カドマシ",
    "town": "幸福町",
    "town_kana": "コウフクチョウ",
    "street": null,
    "office_name": null,
    "office_name_kana": null
  },
  "0067": {
    "postcode": "5710067",
    "prefecture": "大阪府",
    "prefecture_kana": "オオサカフ",
    "prefecture_code": 27,
    "city": "門真市",
    "city_kana": "カドマシ",
    "town": "石原町",
    "town_kana": "イシハラチョウ",
    "street": null,
    "office_name": null,
    "office_name_kana": null
  },
  "0068": {
    "postcode": "5710068",
    "prefecture": "大阪府",
    "prefecture_kana": "オオサカフ",
    "prefecture_code": 27,
    "city": "門真市",
    "city_kana": "カドマシ",
    "town": "大倉町",
    "town_kana": "オオクラチョウ",
    "street": null,
    "office_name": null,
    "office_name_kana": null
  },
  "0070": {
    "postcode": "5710070",
    "prefecture": "大阪府",
    "prefecture_kana": "オオサカフ",
    "prefecture_code": 27,
    "city": "門真市",
    "city_kana": "カドマシ",
    "town": "上野口町",
    "town_kana": "カミノグチチョウ",
    "street": null,
    "office_name": null,
    "office_name_kana": null
  },
  "0071": {
    "postcode": "5710071",
    "prefecture": "大阪府",
    "prefecture_kana": "オオサカフ",
    "prefecture_code": 27,
    "city": "門真市",
    "city_kana": "カドマシ",
    "town": "上島町",
    "town_kana": "カミシマチョウ",
    "street": null,
    "office_name": null,
    "office_name_kana": null
  },
  "0072": {
    "postcode": "5710072",
    "prefecture": "大阪府",
    "prefecture_kana": "オオサカフ",
    "prefecture_code": 27,
    "city": "門真市",
    "city_kana": "カドマシ",
    "town": "城垣町",
    "town_kana": "シロガキチョウ",
    "street": null,
    "office_name": null,
    "office_name_kana": null
  },
  "0073": {
    "postcode": "5710073",
    "prefecture": "大阪府",
    "prefecture_kana": "オオサカフ",
    "prefecture_code": 27,
    "city": "門真市",
    "city_kana": "カドマシ",
    "town": "北巣本町",
    "town_kana": "キタスモトチョウ",
    "street": null,
    "office_name": null,
    "office_name_kana": null
  },
  "0074": {
    "postcode": "5710074",
    "prefecture": "大阪府",
    "prefecture_kana": "オオサカフ",
    "prefecture_code": 27,
    "city": "門真市",
    "city_kana": "カドマシ",
    "town": "宮前町",
    "town_kana": "ミヤマエチョウ",
    "street": null,
    "office_name": null,
    "office_name_kana": null
  },
  "0075": {
    "postcode": "5710075",
    "prefecture": "大阪府",
    "prefecture_kana": "オオサカフ",
    "prefecture_code": 27,
    "city": "門真市",
    "city_kana": "カドマシ",
    "town": "下島町",
    "town_kana": "シモシマチョウ",
    "street": null,
    "office_name": null,
    "office_name_kana": null
  },
  "0076": {
    "postcode": "5710076",
    "prefecture": "大阪府",
    "prefecture_kana": "オオサカフ",
    "prefecture_code": 27,
    "city": "門真市",
    "city_kana": "カドマシ",
    "town": "大池町",
    "town_kana": "オオイケチョウ",
    "street": null,
    "office_name": null,
    "office_name_kana": null
  },
  "0077": {
    "postcode": "5710077",
    "prefecture": "大阪府",
    "prefecture_kana": "オオサカフ",
    "prefecture_code": 27,
    "city": "門真市",
    "city_kana": "カドマシ",
    "town": "大橋町",
    "town_kana": "オオハシチョウ",
    "street": null,
    "office_name": null,
    "office_name_kana": null
  },
  "0078": {
    "postcode": "5710078",
    "prefecture": "大阪府",
    "prefecture_kana": "オオサカフ",
    "prefecture_code": 27,
    "city": "門真市",
    "city_kana": "カドマシ",
    "town": "常盤町",
    "town_kana": "トキワチョウ",
    "street": null,
    "office_name": null,
    "office_name_kana": null
  },
  "0079": {
    "postcode": "5710079",
    "prefecture": "大阪府",
    "prefecture_kana": "オオサカフ",
    "prefecture_code": 27,
    "city": "門真市",
    "city_kana": "カドマシ",
    "town": "野里町",
    "town_kana": "ノザトチョウ",
    "street": null,
    "office_name": null,
    "office_name_kana": null
  },
  "8502": {
    "postcode": "5718502",
    "prefecture": "大阪府",
    "prefecture_kana": "オオサカフ",
    "prefecture_code": 27,
    "city": "門真市",
    "city_kana": "カドマシ",
    "town": "松葉町",
    "town_kana": "マツバチョウ",
    "street": "２番７号",
    "office_name": "パナソニック　株式会社　生産技術本部",
    "office_name_kana": "パナソニツク カブシキガイシヤ セイサンギジユツホンブ"
  },
  "8503": {
    "postcode": "5718503",
    "prefecture": "大阪府",
    "prefecture_kana": "オオサカフ",
    "prefecture_code": 27,
    "city": "門真市",
    "city_kana": "カドマシ",
    "town": "松葉町",
    "town_kana": "マツバチョウ",
    "street": "２−１５",
    "office_name": "パナソニック　（株）　ＡＶＣネットワークス社",
    "office_name_kana": "パナソニツク カブシキガイシヤ エ-ブイシ-ネツトワ-クスシヤ"
  },
  "8504": {
    "postcode": "5718504",
    "prefecture": "大阪府",
    "prefecture_kana": "オオサカフ",
    "prefecture_code": 27,
    "city": "門真市",
    "city_kana": "カドマシ",
    "town": "松生町",
    "town_kana": "マツオチョウ",
    "street": "１−１５",
    "office_name": "パナソニック　（株）　ＡＶＣネットワークス社",
    "office_name_kana": "パナソニツク カブシキガイシヤ エ-ブイシ-ネツトワ-クスシヤ"
  },
  "8507": {
    "postcode": "5718507",
    "prefecture": "大阪府",
    "prefecture_kana": "オオサカフ",
    "prefecture_code": 27,
    "city": "門真市",
    "city_kana": "カドマシ",
    "town": "松生町",
    "town_kana": "マツオチョウ",
    "street": "１−６",
    "office_name": "松下産業機器　株式会社　配電器事業部",
    "office_name_kana": "マツシタサンギヨウキキ カブシキガイシヤ ハイデンキジギヨウブ"
  },
  "8533": {
    "postcode": "5718533",
    "prefecture": "大阪府",
    "prefecture_kana": "オオサカフ",
    "prefecture_code": 27,
    "city": "門真市",
    "city_kana": "カドマシ",
    "town": "北島東町",
    "town_kana": "キタジマヒガシマチ",
    "street": "２番２９号",
    "office_name": "株式会社　日伝　西部物流センター",
    "office_name_kana": "カブシキガイシヤ ニチデン セイブブツリユウセンタ-"
  },
  "8545": {
    "postcode": "5718545",
    "prefecture": "大阪府",
    "prefecture_kana": "オオサカフ",
    "prefecture_code": 27,
    "city": "門真市",
    "city_kana": "カドマシ",
    "town": "殿島町",
    "town_kana": "トノシマチョウ",
    "street": "８−１２",
    "office_name": "門真税務署",
    "office_name_kana": "カドマゼイムシヨ"
  },
  "8555": {
    "postcode": "5718555",
    "prefecture": "大阪府",
    "prefecture_kana": "オオサカフ",
    "prefecture_code": 27,
    "city": "門真市",
    "city_kana": "カドマシ",
    "town": "一番町",
    "town_kana": "イチバンチョウ",
    "street": "２３−１６",
    "office_name": "大阪府警察本部交通部門真運転免許試験場",
    "office_name_kana": "オオサカフケイサツホンブコウツウブカドマウンテンメンキヨシケンジヨウ"
  },
  "8567": {
    "postcode": "5718567",
    "prefecture": "大阪府",
    "prefecture_kana": "オオサカフ",
    "prefecture_code": 27,
    "city": "門真市",
    "city_kana": "カドマシ",
    "town": "新橋町",
    "town_kana": "シンバシチョウ",
    "street": "３４−２１",
    "office_name": "大阪府　中小企業信用保証協会　門真支所",
    "office_name_kana": "オオサカフ チユウシヨウキギヨウシンヨウホシヨウキヨウカイ カドマシシヨ"
  },
  "8571": {
    "postcode": "5718571",
    "prefecture": "大阪府",
    "prefecture_kana": "オオサカフ",
    "prefecture_code": 27,
    "city": "門真市",
    "city_kana": "カドマシ",
    "town": "速見町",
    "town_kana": "ハヤミチョウ",
    "street": "３−１",
    "office_name": "タイガー魔法瓶　株式会社",
    "office_name_kana": "タイガ-マホウビン カブシキガイシヤ"
  },
  "8580": {
    "postcode": "5718580",
    "prefecture": "大阪府",
    "prefecture_kana": "オオサカフ",
    "prefecture_code": 27,
    "city": "門真市",
    "city_kana": "カドマシ",
    "town": "新橋町",
    "town_kana": "シンバシチョウ",
    "street": "２−１１",
    "office_name": "東和薬品　株式会社",
    "office_name_kana": "トウワヤクヒン (カ"
  },
  "8585": {
    "postcode": "5718585",
    "prefecture": "大阪府",
    "prefecture_kana": "オオサカフ",
    "prefecture_code": 27,
    "city": "門真市",
    "city_kana": "カドマシ",
    "town": "中町",
    "town_kana": "ナカマチ",
    "street": "１番１号",
    "office_name": "門真市役所",
    "office_name_kana": "カドマシヤクシヨ"
  },
  "8620": {
    "postcode": "5718620",
    "prefecture": "大阪府",
    "prefecture_kana": "オオサカフ",
    "prefecture_code": 27,
    "city": "門真市",
    "city_kana": "カドマシ",
    "town": "松生町",
    "town_kana": "マツオチョウ",
    "street": "１番１１号",
    "office_name": "三井ショッピングパーク　ららぽーと門真　三井アウトレットパーク大阪門真",
    "office_name_kana": "ミツイシヨツピングパ-ク ララポ-トカドマ ミツイアウトレツトパ-クオオサカカドマ"
  },
  "8633": {
    "postcode": "5718633",
    "prefecture": "大阪府",
    "prefecture_kana": "オオサカフ",
    "prefecture_code": 27,
    "city": "門真市",
    "city_kana": "カドマシ",
    "town": "柳田町",
    "town_kana": "ヤナギダチョウ",
    "street": "１４−１２",
    "office_name": "株式会社　アテナ商会",
    "office_name_kana": "カブシキガイシヤ アテナシヨウカイ"
  },
  "8640": {
    "postcode": "5718640",
    "prefecture": "大阪府",
    "prefecture_kana": "オオサカフ",
    "prefecture_code": 27,
    "city": "門真市",
    "city_kana": "カドマシ",
    "town": "ひえ島",
    "town_kana": null,
    "street": "２２３配送センター",
    "office_name": "株式会社　全国通販",
    "office_name_kana": "カブシキガイシヤ ゼンコクツウハン"
  },
  "8686": {
    "postcode": "5718686",
    "prefecture": "大阪府",
    "prefecture_kana": "オオサカフ",
    "prefecture_code": 27,
    "city": "門真市",
    "city_kana": "カドマシ",
    "town": "大字門真",
    "town_kana": null,
    "street": "１０４８番地",
    "office_name": "パナソニック　株式会社　エコソリューションズ社",
    "office_name_kana": "パナソニツク カブシキガイシヤ エコソリユ-シヨンズシヤ"
  }
}