{
  "0000": {
    "postcode": "5720000",
    "prefecture": "大阪府",
    "prefecture_kana": "オオサカフ",
    "prefecture_code": 27,
    "city": "寝屋川市",
    "city_kana": "ネヤガワシ",
    "town": "",
    "town_kana": "",
    "street": null,
    "office_name": null,
    "office_name_kana": null
  },
  "0001": {
    "postcode": "5720001",
    "prefecture": "大阪府",
    "prefecture_kana": "オオサカフ",
    "prefecture_code": 27,
    "city": "寝屋川市",
    "city_kana": "ネヤガワシ",
    "town": "成田東町",
    "town_kana": "ナリタヒガシマチ",
    "street": null,
    "office_name": null,
    "office_name_kana": null
  },
  "0002": {
    "postcode": "5720002",
    "prefecture": "大阪府",
    "prefecture_kana": "オオサカフ",
    "prefecture_code": 27,
    "city": "寝屋川市",
    "city_kana": "ネヤガワシ",
    "town": "成田東が丘",
    "town_kana": "ナリタヒガシガオカ",
    "street": null,
    "office_name": null,
    "office_name_kana": null
  },
  "0003": {
    "postcode": "5720003",
    "prefecture": "大阪府",
    "prefecture_kana": "オオサカフ",
    "prefecture_code": 27,
    "city": "寝屋川市",
    "city_kana": "ネヤガワシ",
    "town": "成田南町",
    "town_kana": "ナリタミナミマチ",
    "street": null,
    "office_name": null,
    "office_name_kana": null
  },
  "0004": {
    "postcode": "5720004",
    "prefecture": "大阪府",
    "prefecture_kana": "オオサカフ",
    "prefecture_code": 27,
    "city": "寝屋川市",
    "city_kana": "ネヤガワシ",
    "town": "成田町",
    "town_kana": "ナリタチョウ",
    "street": null,
    "office_name": null,
    "office_name_kana": null
  },
  "0005": {
    "postcode": "5720005",
    "prefecture": "大阪府",
    "prefecture_kana": "オオサカフ",
    "prefecture_code": 27,
    "city": "寝屋川市",
    "city_kana": "ネヤガワシ",
    "town": "成田西町",
    "town_kana": "ナリタニシマチ",
    "street": null,
    "office_name": null,
    "office_name_kana": null
  },
  "0006": {
    "postcode": "5720006",
    "prefecture": "大阪府",
    "prefecture_kana": "オオサカフ",
    "prefecture_code": 27,
    "city": "寝屋川市",
    "city_kana": "ネヤガワシ",
    "town": "美井元町",
    "town_kana": "ミイモトマチ",
    "street": null,
    "office_name": null,
    "office_name_kana": null
  },
  "0007": {
    "postcode": "5720007",
    "prefecture": "大阪府",
    "prefecture_kana": "オオサカフ",
    "prefecture_code": 27,
    "city": "寝屋川市",
    "city_kana": "ネヤガワシ",
    "town": "美井町",
    "town_kana": "ミイチョウ",
    "street": null,
    "office_name": null,
    "office_name_kana": null
  },
  "0008": {
    "postcode": "5720008",
    "prefecture": "大阪府",
    "prefecture_kana": "オオサカフ",
    "prefecture_code": 27,
    "city": "寝屋川市",
    "city_kana": "ネヤガワシ",
    "town": "菅相塚町",
    "town_kana": "カンソウヅカチョウ",
    "street": null,
    "office_name": null,
    "office_name_kana": null
  },
  "0009": {
    "postcode": "5720009",
    "prefecture": "大阪府",
    "prefecture_kana": "オオサカフ",
    "prefecture_code": 27,
    "city": "寝屋川市",
    "city_kana": "ネヤガワシ",
    "town": "末広町",
    "town_kana": "スエヒロチョウ",
    "street": null,
    "office_name": null,
    "office_name_kana": null
  },
  "0011": {
    "postcode": "5720011",
    "prefecture": "大阪府",
    "prefecture_kana": "オオサカフ",
    "prefecture_code": 27,
    "city": "寝屋川市",
    "city_kana": "ネヤガワシ",
    "town": "明徳",
    "town_kana": "メイトク",
    "street": null,
    "office_name": null,
    "office_name_kana": null
  },
  "0012": {
    "postcode": "5720012",
    "prefecture": "大阪府",
    "prefecture_kana": "オオサカフ",
    "prefecture_code": 27,
    "city": "寝屋川市",
    "city_kana": "ネヤガワシ",
    "town": "池の瀬町",
    "town_kana": "イケノセチョウ",
    "street": null,
    "office_name": null,
    "office_name_kana": null
  },
  "0013": {
    "postcode": "5720013",
    "prefecture": "大阪府",
    "prefecture_kana": "オオサカフ",
    "prefecture_code": 27,
    "city": "寝屋川市",
    "city_kana": "ネヤガワシ",
    "town": "三井が丘",
    "town_kana": "ミイガオカ",
    "street": null,
    "office_name": null,
    "office_name_kana": null
  },
  "0014": {
    "postcode": "5720014",
    "prefecture": "大阪府",
    "prefecture_kana": "オオサカフ",
    "prefecture_code": 27,
    "city": "寝屋川市",
    "city_kana": "ネヤガワシ",
    "town": "八幡台",
    "town_kana": "ハチマンダイ",
    "street": null,
    "office_name": null,
    "office_name_kana": null
  },
  "0015": {
    "postcode": "5720015",
    "prefecture": "大阪府",
    "prefecture_kana": "オオサカフ",
    "prefecture_code": 27,
    "city": "寝屋川市",
    "city_kana": "ネヤガワシ",
    "town": "川勝町",
    "town_kana": "カワカツチョウ",
    "street": null,
    "office_name": null,
    "office_name_kana": null
  },
  "0016": {
    "postcode": "5720016",
    "prefecture": "大阪府",
    "prefecture_kana": "オオサカフ",
    "prefecture_code": 27,
    "city": "寝屋川市",
    "city_kana": "ネヤガワシ",
    "town": "国松町",
    "town_kana": "クニマツチョウ",
    "street": null,
    "office_name": null,
    "office_name_kana": null
  },
  "0017": {
    "postcode": "5720017",
    "prefecture": "大阪府",
    "prefecture_kana": "オオサカフ",
    "prefecture_code": 27,
    "city": "寝屋川市",
    "city_kana": "ネヤガワシ",
    "town": "幸町",
    "town_kana": "サイワイチョウ",
    "street": null,
    "office_name": null,
    "office_name_kana": null
  },
  "0018": {
    "postcode": "5720018",
    "prefecture": "大阪府",
    "prefecture_kana": "オオサカフ",
    "prefecture_code": 27,
    "city": "寝屋川市",
    "city_kana": "ネヤガワシ",
    "town": "境橋町",
    "town_kana": "サカイバシチョウ",
    "street": null,
    "office_name": null,
    "office_name_kana": null
  },
  "0019": {
    "postcode": "5720019",
    "prefecture": "大阪府",
    "prefecture_kana": "オオサカフ",
    "prefecture_code": 27,
    "city": "寝屋川市",
    "city_kana": "ネヤガワシ",
    "town": "三井南町",
    "town_kana": "ミイミナミマチ",
    "street": null,
    "office_name": null,
    "office_name_kana": null
  },
  "0020": {
    "postcode": "5720020",
    "prefecture": "大阪府",
    "prefecture_kana": "オオサカフ",
    "prefecture_code": 27,
    "city": "寝屋川市",
    "city_kana": "ネヤガワシ",
    "town": "田井西町",
    "town_kana": "タイニシマチ",
    "street": null,
    "office_name": null,
    "office_name_kana": null
  },
  "0021": {
    "postcode": "5720021",
    "prefecture": "大阪府",
    "prefecture_kana": "オオサカフ",
    "prefecture_code": 27,
    "city": "寝屋川市",
    "city_kana": "ネヤガワシ",
    "town": "田井町",
    "town_kana": "タイチョウ",
    "street": null,
    "office_name": null,
    "office_name_kana": null
  },
  "0022": {
    "postcode": "5720022",
    "prefecture": "大阪府",
    "prefecture_kana": "オオサカフ",
    "prefecture_code": 27,
    "city": "寝屋川市",
    "city_kana": "ネヤガワシ",
    "town": "緑町",
    "town_kana": "ミドリマチ",
    "street": null,
    "office_name": null,
    "office_name_kana": null
  },
  "0023": {
    "postcode": "5720023",
    "prefecture": "大阪府",
    "prefecture_kana": "オオサカフ",
    "prefecture_code": 27,
    "city": "寝屋川市",
    "city_kana": "ネヤガワシ",
    "town": "音羽町",
    "town_kana": "オトワチョウ",
    "street": null,
    "office_name": null,
    "office_name_kana": null
  },
  "0024": {
    "postcode": "5720024",
    "prefecture": "大阪府",
    "prefecture_kana": "オオサカフ",
    "prefecture_code": 27,
    "city": "寝屋川市",
    "city_kana": "ネヤガワシ",
    "town": "石津南町",
    "town_kana": "イシヅミナミマチ",
    "street": null,
    "office_name": null,
    "office_name_kana": null
  },
  "0025": {
    "postcode": "5720025",
    "prefecture": "大阪府",
    "prefecture_kana": "オオサカフ",
    "prefecture_code": 27,
    "city": "寝屋川市",
    "city_kana": "ネヤガワシ",
    "town": "石津元町",
    "town_kana": "イシヅモトマチ",
    "street": null,
    "office_name": null,
    "office_name_kana": null
  },
  "0026": {
    "postcode": "5720026",
    "prefecture": "大阪府",
    "prefecture_kana": "オオサカフ",
    "prefecture_code": 27,
    "city": "寝屋川市",
    "city_kana": "ネヤガワシ",
    "town": "石津中町",
    "town_kana": "イシヅナカマチ",
    "street": null,
    "office_name": null,
    "office_name_kana": null
  },
  "0027": {
    "postcode": "5720027",
    "prefecture": "大阪府",
    "prefecture_kana": "オオサカフ",
    "prefecture_code": 27,
    "city": "寝屋川市",
    "city_kana": "ネヤガワシ",
    "town": "石津東町",
    "town_kana": "イシヅヒガシマチ",
    "street": null,
    "office_name": null,
    "office_name_kana": null
  },
  "0028": {
    "postcode": "5720028",
    "prefecture": "大阪府",
    "prefecture_kana": "オオサカフ",
    "prefecture_code": 27,
    "city": "寝屋川市",
    "city_kana": "ネヤガワシ",
    "town": "日新町",
    "town_kana": "ニッシンチョウ",
    "street": null,
    "office_name": null,
    "office_name_kana": null
  },
  "0029": {
    "postcode": "5720029",
    "prefecture": "大阪府",
    "prefecture_kana": "オオサカフ",
    "prefecture_code": 27,
    "city": "寝屋川市",
    "city_kana": "ネヤガワシ",
    "town": "寿町",
    "town_kana": "コトブキチョウ",
    "street": null,
    "office_name": null,
    "office_name_kana": null
  },
  "0030": {
    "postcode": "5720030",
    "prefecture": "大阪府",
    "prefecture_kana": "オオサカフ",
    "prefecture_code": 27,
    "city": "寝屋川市",
    "city_kana": "ネヤガワシ",
    "town": "池田本町",
    "town_kana": "イケダホンマチ",
    "street": null,
    "office_name": null,
    "office_name_kana": null
  },
  "0031": {
    "postcode": "5720031",
    "prefecture": "大阪府",
    "prefecture_kana": "オオサカフ",
    "prefecture_code": 27,
    "city": "寝屋川市",
    "city_kana": "ネヤガワシ",
    "town": "若葉町",
    "town_kana": "ワカバチョウ",
    "street": null,
    "office_name": null,
    "office_name_kana": null
  },
  "0032": {
    "postcode": "5720032",
    "prefecture": "大阪府",
    "prefecture_kana": "オオサカフ",
    "prefecture_code": 27,
    "city": "寝屋川市",
    "city_kana": "ネヤガワシ",
    "town": "北大利町",
    "town_kana": "キタオオトシチョウ",
    "street": null,
    "office_name": null,
    "office_name_kana": null
  },
  "0033": {
    "postcode": "5720033",
    "prefecture": "大阪府",
    "prefecture_kana": "オオサカフ",
    "prefecture_code": 27,
    "city": "寝屋川市",
    "city_kana": "ネヤガワシ",
    "town": "池田東町",
    "town_kana": "イケダヒガシマチ",
    "street": null,
    "office_name": null,
    "office_name_kana": null
  },
  "0034": {
    "postcode": "5720034",
    "prefecture": "大阪府",
    "prefecture_kana": "オオサカフ",
    "prefecture_code": 27,
    "city": "寝屋川市",
    "city_kana": "ネヤガワシ",
    "town": "池田南町",
    "town_kana": "イケダミナミマチ",
    "street": null,
    "office_name": null,
    "office_name_kana": null
  },
  "0035": {
    "postcode": "5720035",
    "prefecture": "大阪府",
    "prefecture_kana": "オオサカフ",
    "prefecture_code": 27,
    "city": "寝屋川市",
    "city_kana": "ネヤガワシ",
    "town": "池田旭町",
    "town_kana": "イケダアサヒマチ",
    "street": null,
    "office_name": null,
    "office_name_kana": null
  },
  "0036": {
    "postcode": "5720036",
    "prefecture": "大阪府",
    "prefecture_kana": "オオサカフ",
    "prefecture_code": 27,
    "city": "寝屋川市",
    "city_kana": "ネヤガワシ",
    "town": "池田西町",
    "town_kana": "イケダニシマチ",
    "street": null,
    "office_name": null,
    "office_name_kana": null
  },
  "0037": {
    "postcode": "5720037",
    "prefecture": "大阪府",
    "prefecture_kana": "オオサカフ",
    "prefecture_code": 27,
    "city": "寝屋川市",
    "city_kana": "ネヤガワシ",
    "town": "葛原新町",
    "town_kana": "クズハラシンマチ",
    "street": null,
    "office_name": null,
    "office_name_kana": null
  },
  "0038": {
    "postcode": "5720038",
    "prefecture": "大阪府",
    "prefecture_kana": "オオサカフ",
    "prefecture_code": 27,
    "city": "寝屋川市",
    "city_kana": "ネヤガワシ",
    "town": "池田新町",
    "town_kana": "イケダシンマチ",
    "street": null,
    "office_name": null,
    "office_name_kana": null
  },
  "0039": {
    "postcode": "5720039",
    "prefecture": "大阪府",
    "prefecture_kana": "オオサカフ",
    "prefecture_code": 27,
    "city": "寝屋川市",
    "city_kana": "ネヤガワシ",
    "town": "池田",
    "town_kana": "イケダ",
    "street": null,
    "office_name": null,
    "office_name_kana": null
  },
  "0041": {
    "postcode": "5720041",
    "prefecture": "大阪府",
    "prefecture_kana": "オオサカフ",
    "prefecture_code": 27,
    "city": "寝屋川市",
    "city_kana": "ネヤガワシ",
    "town": "桜木町",
    "town_kana": "サクラギチョウ",
    "street": null,
    "office_name": null,
    "office_name_kana": null
  },
  "0042": {
    "postcode": "5720042",
    "prefecture": "大阪府",
    "prefecture_kana": "オオサカフ",
    "prefecture_code": 27,
    "city": "寝屋川市",
    "city_kana": "ネヤガワシ",
    "town": "東大利町",
    "town_kana": "ヒガシオオトシチョウ",
    "street": null,
    "office_name": null,
    "office_name_kana": null
  },
  "0043": {
    "postcode": "5720043",
    "prefecture": "大阪府",
    "prefecture_kana": "オオサカフ",
    "prefecture_code": 27,
    "city": "寝屋川市",
    "city_kana": "ネヤガワシ",
    "town": "錦町",
    "town_kana": "ニシキチョウ",
    "street": null,
    "office_name": null,
    "office_name_kana": null
  },
  "0044": {
    "postcode": "5720044",
    "prefecture": "大阪府",
    "prefecture_kana": "オオサカフ",
    "prefecture_code": 27,
    "city": "寝屋川市",
    "city_kana": "ネヤガワシ",
    "town": "清水町",
    "town_kana": "シミズチョウ",
    "street": null,
    "office_name": null,
    "office_name_kana": null
  },
  "0045": {
    "postcode": "5720045",
    "prefecture": "大阪府",
    "prefecture_kana": "オオサカフ",
    "prefecture_code": 27,
    "city": "寝屋川市",
    "city_kana": "ネヤガワシ",
    "town": "東神田町",
    "town_kana": "ヒガシカミダチョウ",
    "street": null,
    "office_name": null,
    "office_name_kana": null
  },
  "0046": {
    "postcode": "5720046",
    "prefecture": "大阪府",
    "prefecture_kana": "オオサカフ",
    "prefecture_code": 27,
    "city": "寝屋川市",
    "city_kana": "ネヤガワシ",
    "town": "成美町",
    "town_kana": "セイビチョウ",
    "street": null,
    "office_name": null,
    "office_name_kana": null
  },
  "0047": {
    "postcode": "5720047",
    "prefecture": "大阪府",
    "prefecture_kana": "オオサカフ",
    "prefecture_code": 27,
    "city": "寝屋川市",
    "city_kana": "ネヤガワシ",
    "town": "大利元町",
    "town_kana": "オオトシモトマチ",
    "street": null,
    "office_name": null,
    "office_name_kana": null
  },
  "0048": {
    "postcode": "5720048",
    "prefecture": "大阪府",
    "prefecture_kana": "オオサカフ",
    "prefecture_code": 27,
    "city": "寝屋川市",
    "city_kana": "ネヤガワシ",
    "town": "大利町",
    "town_kana": "オオトシチョウ",
    "street": null,
    "office_name": null,
    "office_name_kana": null
  },
  "0050": {
    "postcode": "5720050",
    "prefecture": "大阪府",
    "prefecture_kana": "オオサカフ",
    "prefecture_code": 27,
    "city": "寝屋川市",
    "city_kana": "ネヤガワシ",
    "town": "黒原城内町",
    "town_kana": "クロハラジョウナイチョウ",
    "street": null,
    "office_name": null,
    "office_name_kana": null
  },
  "0051": {
    "postcode": "5720051",
    "prefecture": "大阪府",
    "prefecture_kana": "オオサカフ",
    "prefecture_code": 27,
    "city": "寝屋川市",
    "city_kana": "ネヤガワシ",
    "town": "高柳",
    "town_kana": "タカヤナギ",
    "street": null,
    "office_name": null,
    "office_name_kana": null
  },
  "0052": {
    "postcode": "5720052",
    "prefecture": "大阪府",
    "prefecture_kana": "オオサカフ",
    "prefecture_code": 27,
    "city": "寝屋川市",
    "city_kana": "ネヤガワシ",
    "town": "上神田",
    "town_kana": "カミカミダ",
    "street": null,
    "office_name": null,
    "office_name_kana": null
  },
  "0053": {
    "postcode": "5720053",
    "prefecture": "大阪府",
    "prefecture_kana": "オオサカフ",
    "prefecture_code": 27,
    "city": "寝屋川市",
    "city_kana": "ネヤガワシ",
    "town": "中神田町",
    "town_kana": "ナカカミダチョウ",
    "street": null,
    "office_name": null,
    "office_name_kana": null
  },
  "0054": {
    "postcode": "5720054",
    "prefecture": "大阪府",
    "prefecture_kana": "オオサカフ",
    "prefecture_code": 27,
    "city": "寝屋川市",
    "city_kana": "ネヤガワシ",
    "town": "下神田町",
    "town_kana": "シモカミダチョウ",
    "street": null,
    "office_name": null,
    "office_name_kana": null
  },
  "0055": {
    "postcode": "5720055",
    "prefecture": "大阪府",
    "prefecture_kana": "オオサカフ",
    "prefecture_code": 27,
    "city": "寝屋川市",
    "city_kana": "ネヤガワシ",
    "town": "御幸東町",
    "town_kana": "ミユキヒガシマチ",
    "street": null,
    "office_name": null,
    "office_name_kana": null
  },
  "0056": {
    "postcode": "5720056",
    "prefecture": "大阪府",
    "prefecture_kana": "オオサカフ",
    "prefecture_code": 27,
    "city": "寝屋川市",
    "city_kana": "ネヤガワシ",
    "town": "御幸西町",
    "town_kana": "ミユキニシマチ",
    "street": null,
    "office_name": null,
    "office_name_kana": null
  },
  "0057": {
    "postcode": "5720057",
    "prefecture": "大阪府",
    "prefecture_kana": "オオサカフ",
    "prefecture_code": 27,
    "city": "寝屋川市",
    "city_kana": "ネヤガワシ",
    "town": "黒原旭町",
    "town_kana": "クロハラアサヒマチ",
    "street": null,
    "office_name": null,
    "office_name_kana": null
  },
  "0058": {
    "postcode": "5720058",
    "prefecture": "大阪府",
    "prefecture_kana": "オオサカフ",
    "prefecture_code": 27,
    "city": "寝屋川市",
    "city_kana": "ネヤガワシ",
    "town": "黒原橘町",
    "town_kana": "クロハラタチバナチョウ",
    "street": null,
    "office_name": null,
    "office_name_kana": null
  },
  "0059": {
    "postcode": "5720059",
    "prefecture": "大阪府",
    "prefecture_kana": "オオサカフ",
    "prefecture_code": 27,
    "city": "寝屋川市",
    "city_kana": "ネヤガワシ",
    "town": "黒原新町",
    "town_kana": "クロハラシンマチ",
    "street": null,
    "office_name": null,
    "office_name_kana": null
  },
  "0061": {
    "postcode": "5720061",
    "prefecture": "大阪府",
    "prefecture_kana": "オオサカフ",
    "prefecture_code": 27,
    "city": "寝屋川市",
    "city_kana": "ネヤガワシ",
    "town": "長栄寺町",
    "town_kana": "チョウエイジチョウ",
    "street": null,
    "office_name": null,
    "office_name_kana": null
  },
  "0062": {
    "postcode": "5720062",
    "prefecture": "大阪府",
    "prefecture_kana": "オオサカフ",
    "prefecture_code": 27,
    "city": "寝屋川市",
    "city_kana": "ネヤガワシ",
    "town": "高柳栄町",
    "town_kana": "タカヤナギサカエマチ",
    "street": null,
    "office_name": null,
    "office_name_kana": null
  },
  "0063": {
    "postcode": "5720063",
    "prefecture": "大阪府",
    "prefecture_kana": "オオサカフ",
    "prefecture_code": 27,
    "city": "寝屋川市",
    "city_kana": "ネヤガワシ",
    "town": "春日町",
    "town_kana": "カスガチョウ",
    "street": null,
    "office_name": null,
    "office_name_kana": null
  },
  "0064": {
    "postcode": "5720064",
    "prefecture": "大阪府",
    "prefecture_kana": "オオサカフ",
    "prefecture_code": 27,
    "city": "寝屋川市",
    "city_kana": "ネヤガワシ",
    "town": "対馬江東町",
    "town_kana": "ツシマエヒガシマチ",
    "street": null,
    "office_name": null,
    "office_name_kana": null
  },
  "0065": {
    "postcode": "5720065",
    "prefecture": "大阪府",
    "prefecture_kana": "オオサカフ",
    "prefecture_code": 27,
    "city": "寝屋川市",
    "city_kana": "ネヤガワシ",
    "town": "対馬江西町",
    "town_kana": "ツシマエニシマチ",
    "street": null,
    "office_name": null,
    "office_name_kana": null
  },
  "0066": {
    "postcode": "5720066",
    "prefecture": "大阪府",
    "prefecture_kana": "オオサカフ",
    "prefecture_code": 27,
    "city": "寝屋川市",
    "city_kana": "ネヤガワシ",
    "town": "仁和寺町",
    "town_kana": "ニワジチョウ",
    "street": null,
    "office_name": null,
    "office_name_kana": null
  },
  "0067": {
    "postcode": "5720067",
    "prefecture": "大阪府",
    "prefecture_kana": "オオサカフ",
    "prefecture_code": 27,
    "city": "寝屋川市",
    "city_kana": "ネヤガワシ",
    "town": "宝町",
    "town_kana": "タカラマチ",
    "street": null,
    "office_name": null,
    "office_name_kana": null
  },
  "0071": {
    "postcode": "5720071",
    "prefecture": "大阪府",
    "prefecture_kana": "オオサカフ",
    "prefecture_code": 27,
    "city": "寝屋川市",
    "city_kana": "ネヤガワシ",
    "town": "豊里町",
    "town_kana": "トヨザトチョウ",
    "street": null,
    "office_name": null,
    "office_name_kana": null
  },
  "0072": {
    "postcode": "5720072",
    "prefecture": "大阪府",
    "prefecture_kana": "オオサカフ",
    "prefecture_code": 27,
    "city": "寝屋川市",
    "city_kana": "ネヤガワシ",
    "town": "太間東町",
    "town_kana": "タイマヒガシマチ",
    "street": null,
    "office_name": null,
    "office_name_kana": null
  },
  "0073": {
    "postcode": "5720073",
    "prefecture": "大阪府",
    "prefecture_kana": "オオサカフ",
    "prefecture_code": 27,
    "city": "寝屋川市",
    "city_kana": "ネヤガワシ",
    "town": "池田北町",
    "town_kana": "イケダキタマチ",
    "street": null,
    "office_name": null,
    "office_name_kana": null
  },
  "0074": {
    "postcode": "5720074",
    "prefecture": "大阪府",
    "prefecture_kana": "オオサカフ",
    "prefecture_code": 27,
    "city": "寝屋川市",
    "city_kana": "ネヤガワシ",
    "town": "池田中町",
    "town_kana": "イケダナカマチ",
    "street": null,
    "office_name": null,
    "office_name_kana": null
  },
  "0075": {
    "postcode": "5720075",
    "prefecture": "大阪府",
    "prefecture_kana": "オオサカフ",
    "prefecture_code": 27,
    "city": "寝屋川市",
    "city_kana": "ネヤガワシ",
    "town": "葛原",
    "town_kana": "クズハラ",
    "street": null,
    "office_name": null,
    "office_name_kana": null
  },
  "0076": {
    "postcode": "5720076",
    "prefecture": "大阪府",
    "prefecture_kana": "オオサカフ",
    "prefecture_code": 27,
    "city": "寝屋川市",
    "city_kana": "ネヤガワシ",
    "town": "仁和寺本町",
    "town_kana": "ニワジホンマチ",
    "street": null,
    "office_name": null,
    "office_name_kana": null
  },
  "0077": {
    "postcode": "5720077",
    "prefecture": "大阪府",
    "prefecture_kana": "オオサカフ",
    "prefecture_code": 27,
    "city": "寝屋川市",
    "city_kana": "ネヤガワシ",
    "town": "点野",
    "town_kana": "シメノ",
    "street": null,
    "office_name": null,
    "office_name_kana": null
  },
  "0078": {
    "postcode": "5720078",
    "prefecture": "大阪府",
    "prefecture_kana": "オオサカフ",
    "prefecture_code": 27,
    "city": "寝屋川市",
    "city_kana": "ネヤガワシ",
    "town": "太間町",
    "town_kana": "タイマチョウ",
    "street": null,
    "office_name": null,
    "office_name_kana": null
  },
  "0080": {
    "postcode": "5720080",
    "prefecture": "大阪府",
    "prefecture_kana": "オオサカフ",
    "prefecture_code": 27,
    "city": "寝屋川市",
    "city_kana": "ネヤガワシ",
    "town": "香里北之町",
    "town_kana": "コオリキタノチョウ",
    "street": null,
    "office_name": null,
    "office_name_kana": null
  },
  "0081": {
    "postcode": "5720081",
    "prefecture": "大阪府",
    "prefecture_kana": "オオサカフ",
    "prefecture_code": 27,
    "city": "寝屋川市",
    "city_kana": "ネヤガワシ",
    "town": "東香里園町",
    "town_kana": "ヒガシコオリエンチョウ",
    "street": null,
    "office_name": null,
    "office_name_kana": null
  },
  "0082": {
    "postcode": "5720082",
    "prefecture": "大阪府",
    "prefecture_kana": "オオサカフ",
    "prefecture_code": 27,
    "city": "寝屋川市",
    "city_kana": "ネヤガワシ",
    "town": "香里本通町",
    "town_kana": "コオリホンドオリチョウ",
    "street": null,
    "office_name": null,
    "office_name_kana": null
  },
  "0083": {
    "postcode": "5720083",
    "prefecture": "大阪府",
    "prefecture_kana": "オオサカフ",
    "prefecture_code": 27,
    "city": "寝屋川市",
    "city_kana": "ネヤガワシ",
    "town": "郡元町",
    "town_kana": "コオリモトマチ",
    "street": null,
    "office_name": null,
    "office_name_kana": null
  },
  "0084": {
    "postcode": "5720084",
    "prefecture": "大阪府",
    "prefecture_kana": "オオサカフ",
    "prefecture_code": 27,
    "city": "寝屋川市",
    "city_kana": "ネヤガワシ",
    "town": "香里南之町",
    "town_kana": "コオリミナミノチョウ",
    "street": null,
    "office_name": null,
    "office_name_kana": null
  },
  "0085": {
    "postcode": "5720085",
    "prefecture": "大阪府",
    "prefecture_kana": "オオサカフ",
    "prefecture_code": 27,
    "city": "寝屋川市",
    "city_kana": "ネヤガワシ",
    "town": "香里新町",
    "town_kana": "コオリシンマチ",
    "street": null,
    "office_name": null,
    "office_name_kana": null
  },
  "0086": {
    "postcode": "5720086",
    "prefecture": "大阪府",
    "prefecture_kana": "オオサカフ",
    "prefecture_code": 27,
    "city": "寝屋川市",
    "city_kana": "ネヤガワシ",
    "town": "松屋町",
    "town_kana": "マツヤチョウ",
    "street": null,
    "office_name": null,
    "office_name_kana": null
  },
  "0087": {
    "postcode": "5720087",
    "prefecture": "大阪府",
    "prefecture_kana": "オオサカフ",
    "prefecture_code": 27,
    "city": "寝屋川市",
    "city_kana": "ネヤガワシ",
    "town": "木屋町",
    "town_kana": "コヤチョウ",
    "street": null,
    "office_name": null,
    "office_name_kana": null
  },
  "0088": {
    "postcode": "5720088",
    "prefecture": "大阪府",
    "prefecture_kana": "オオサカフ",
    "prefecture_code": 27,
    "city": "寝屋川市",
    "city_kana": "ネヤガワシ",
    "town": "木屋元町",
    "town_kana": "コヤモトマチ",
    "street": null,
    "office_name": null,
    "office_name_kana": null
  },
  "0089": {
    "postcode": "5720089",
    "prefecture": "大阪府",
    "prefecture_kana": "オオサカフ",
    "prefecture_code": 27,
    "city": "寝屋川市",
    "city_kana": "ネヤガワシ",
    "town": "香里西之町",
    "town_kana": "コオリニシノチョウ",
    "street": null,
    "office_name": null,
    "office_name_kana": null
  },
  "0801": {
    "postcode": "5720801",
    "prefecture": "大阪府",
    "prefecture_kana": "オオサカフ",
    "prefecture_code": 27,
    "city": "寝屋川市",
    "city_kana": "ネヤガワシ",
    "town": "寝屋",
    "town_kana": "ネヤ",
    "street": null,
    "office_name": null,
    "office_name_kana": null
  },
  "0803": {
    "postcode": "5720803",
    "prefecture": "大阪府",
    "prefecture_kana": "オオサカフ",
    "prefecture_code": 27,
    "city": "寝屋川市",
    "city_kana": "ネヤガワシ",
    "town": "梅が丘",
    "town_kana": "ウメガオカ",
    "street": null,
    "office_name": null,
    "office_name_kana": null
  },
  "0806": {
    "postcode": "5720806",
    "prefecture": "大阪府",
    "prefecture_kana": "オオサカフ",
    "prefecture_code": 27,
    "city": "寝屋川市",
    "city_kana": "ネヤガワシ",
    "town": "高宮",
    "town_kana": "タカミヤ",
    "street": null,
    "office_name": null,
    "office_name_kana": null
  },
  "0810": {
    "postcode": "5720810",
    "prefecture": "大阪府",
    "prefecture_kana": "オオサカフ",
    "prefecture_code": 27,
    "city": "寝屋川市",
    "city_kana": "ネヤガワシ",
    "town": "堀溝北町",
    "town_kana": "ホリミゾキタマチ",
    "street": null,
    "office_name": null,
    "office_name_kana": null
  },
  "0811": {
    "postcode": "5720811",
    "prefecture": "大阪府",
    "prefecture_kana": "オオサカフ",
    "prefecture_code": 27,
    "city": "寝屋川市",
    "city_kana": "ネヤガワシ",
    "town": "楠根南町",
    "town_kana": "クスネミナミマチ",
    "street": null,
    "office_name": null,
    "office_name_kana": null
  },
  "0812": {
    "postcode": "5720812",
    "prefecture": "大阪府",
    "prefecture_kana": "オオサカフ",
    "prefecture_code": 27,
    "city": "寝屋川市",
    "city_kana": "ネヤガワシ",
    "town": "新家",
    "town_kana": "シンケ",
    "street": null,
    "office_name": null,
    "office_name_kana": null
  },
  "0813": {
    "postcode": "5720813",
    "prefecture": "大阪府",
    "prefecture_kana": "オオサカフ",
    "prefecture_code": 27,
    "city": "寝屋川市",
    "city_kana": "ネヤガワシ",
    "town": "讃良東町",
    "town_kana": "サンラヒガシマチ",
    "street": null,
    "office_name": null,
    "office_name_kana": null
  },
  "0814": {
    "postcode": "5720814",
    "prefecture": "大阪府",
    "prefecture_kana": "オオサカフ",
    "prefecture_code": 27,
    "city": "寝屋川市",
    "city_kana": "ネヤガワシ",
    "town": "堀溝",
    "town_kana": "ホリミゾ",
    "street": null,
    "office_name": null,
    "office_name_kana": null
  },
  "0815": {
    "postcode": "5720815",
    "prefecture": "大阪府",
    "prefecture_kana": "オオサカフ",
    "prefecture_code": 27,
    "city": "寝屋川市",
    "city_kana": "ネヤガワシ",
    "town": "河北東町",
    "town_kana": "カワキタヒガシマチ",
    "street": null,
    "office_name": null,
    "office_name_kana": null
  },
  "0816": {
    "postcode": "5720816",
    "prefecture": "大阪府",
    "prefecture_kana": "オオサカフ",
    "prefecture_code": 27,
    "city": "寝屋川市",
    "city_kana": "ネヤガワシ",
    "town": "河北中町",
    "town_kana": "カワキタナカマチ",
    "street": null,
    "office_name": null,
    "office_name_kana": null
  },
  "0817": {
    "postcode": "5720817",
    "prefecture": "大阪府",
    "prefecture_kana": "オオサカフ",
    "prefecture_code": 27,
    "city": "寝屋川市",
    "city_kana": "ネヤガワシ",
    "town": "河北西町",
    "town_kana": "カワキタニシマチ",
    "street": null,
    "office_name": null,
    "office_name_kana": null
  },
  "0818": {
    "postcode": "5720818",
    "prefecture": "大阪府",
    "prefecture_kana": "オオサカフ",
    "prefecture_code": 27,
    "city": "寝屋川市",
    "city_kana": "ネヤガワシ",
    "town": "讃良西町",
    "town_kana": "サンラニシマチ",
    "street": null,
    "office_name": null,
    "office_name_kana": null
  },
  "0819": {
    "postcode": "5720819",
    "prefecture": "大阪府",
    "prefecture_kana": "オオサカフ",
    "prefecture_code": 27,
    "city": "寝屋川市",
    "city_kana": "ネヤガワシ",
    "town": "大成町",
    "town_kana": "タイセイチョウ",
    "street": null,
    "office_name": null,
    "office_name_kana": null
  },
  "0820": {
    "postcode": "5720820",
    "prefecture": "大阪府",
    "prefecture_kana": "オオサカフ",
    "prefecture_code": 27,
    "city": "寝屋川市",
    "city_kana": "ネヤガワシ",
    "town": "中木田町",
    "town_kana": "ナカキダチョウ",
    "street": null,
    "office_name": null,
    "office_name_kana": null
  },
  "0821": {
    "postcode": "5720821",
    "prefecture": "大阪府",
    "prefecture_kana": "オオサカフ",
    "prefecture_code": 27,
    "city": "寝屋川市",
    "city_kana": "ネヤガワシ",
    "town": "出雲町",
    "town_kana": "イズモチョウ",
    "street": null,
    "office_name": null,
    "office_name_kana": null
  },
  "0822": {
    "postcode": "5720822",
    "prefecture": "大阪府",
    "prefecture_kana": "オオサカフ",
    "prefecture_code": 27,
    "city": "寝屋川市",
    "city_kana": "ネヤガワシ",
    "town": "木田元宮",
    "town_kana": "キダモトミヤ",
    "street": null,
    "office_name": null,
    "office_name_kana": null
  },
  "0823": {
    "postcode": "5720823",
    "prefecture": "大阪府",
    "prefecture_kana": "オオサカフ",
    "prefecture_code": 27,
    "city": "寝屋川市",
    "city_kana": "ネヤガワシ",
    "town": "下木田町",
    "town_kana": "シモキダチョウ",
    "street": null,
    "office_name": null,
    "office_name_kana": null
  },
  "0824": {
    "postcode": "5720824",
    "prefecture": "大阪府",
    "prefecture_kana": "オオサカフ",
    "prefecture_code": 27,
    "city": "寝屋川市",
    "city_kana": "ネヤガワシ",
    "town": "萱島東",
    "town_kana": "カヤシマヒガシ",
    "street": null,
    "office_name": null,
    "office_name_kana": null
  },
  "0825": {
    "postcode": "5720825",
    "prefecture": "大阪府",
    "prefecture_kana": "オオサカフ",
    "prefecture_code": 27,
    "city": "寝屋川市",
    "city_kana": "ネヤガワシ",
    "town": "萱島南町",
    "town_kana": "カヤシマミナミマチ",
    "street": null,
    "office_name": null,
    "office_name_kana": null
  },
  "0826": {
    "postcode": "5720826",
    "prefecture": "大阪府",
    "prefecture_kana": "オオサカフ",
    "prefecture_code": 27,
    "city": "寝屋川市",
    "city_kana": "ネヤガワシ",
    "town": "南水苑町",
    "town_kana": "ナンスイエンチョウ",
    "street": null,
    "office_name": null,
    "office_name_kana": null
  },
  "0827": {
    "postcode": "5720827",
    "prefecture": "大阪府",
    "prefecture_kana": "オオサカフ",
    "prefecture_code": 27,
    "city": "寝屋川市",
    "city_kana": "ネヤガワシ",
    "town": "萱島本町",
    "town_kana": "カヤシマホンマチ",
    "street": null,
    "office_name": null,
    "office_name_kana": null
  },
  "0828": {
    "postcode": "5720828",
    "prefecture": "大阪府",
    "prefecture_kana": "オオサカフ",
    "prefecture_code": 27,
    "city": "寝屋川市",
    "city_kana": "ネヤガワシ",
    "town": "萱島桜園町",
    "town_kana": "カヤシマサクラエンチョウ",
    "street": null,
    "office_name": null,
    "office_name_kana": null
  },
  "0829": {
    "postcode": "5720829",
    "prefecture": "大阪府",
    "prefecture_kana": "オオサカフ",
    "prefecture_code": 27,
    "city": "寝屋川市",
    "city_kana": "ネヤガワシ",
    "town": "萱島信和町",
    "town_kana": "カヤシマシンワチョウ",
    "street": null,
    "office_name": null,
    "office_name_kana": null
  },
  "0831": {
    "postcode": "5720831",
    "prefecture": "大阪府",
    "prefecture_kana": "オオサカフ",
    "prefecture_code": 27,
    "city": "寝屋川市",
    "city_kana": "ネヤガワシ",
    "town": "豊野町",
    "town_kana": "トヨノチョウ",
    "street": null,
    "office_name": null,
    "office_name_kana": null
  },
  "0832": {
    "postcode": "5720832",
    "prefecture": "大阪府",
    "prefecture_kana": "オオサカフ",
    "prefecture_code": 27,
    "city": "寝屋川市",
    "city_kana": "ネヤガワシ",
    "town": "本町",
    "town_kana": "ホンマチ",
    "street": null,
    "office_name": null,
    "office_name_kana": null
  },
  "0833": {
    "postcode": "5720833",
    "prefecture": "大阪府",
    "prefecture_kana": "オオサカフ",
    "prefecture_code": 27,
    "city": "寝屋川市",
    "city_kana": "ネヤガワシ",
    "town": "初町",
    "town_kana": "ハツチョウ",
    "street": null,
    "office_name": null,
    "office_name_kana": null
  },
  "0834": {
    "postcode": "5720834",
    "prefecture": "大阪府",
    "prefecture_kana": "オオサカフ",
    "prefecture_code": 27,
    "city": "寝屋川市",
    "city_kana": "ネヤガワシ",
    "town": "昭栄町",
    "town_kana": "ショウエイチョウ",
    "street": null,
    "office_name": null,
    "office_name_kana": null
  },
  "0835": {
    "postcode": "5720835",
    "prefecture": "大阪府",
    "prefecture_kana": "オオサカフ",
    "prefecture_code": 27,
    "city": "寝屋川市",
    "city_kana": "ネヤガワシ",
    "town": "日之出町",
    "town_kana": "ヒノデチョウ",
    "street": null,
    "office_name": null,
    "office_name_kana": null
  },
  "0836": {
    "postcode": "5720836",
    "prefecture": "大阪府",
    "prefecture_kana": "オオサカフ",
    "prefecture_code": 27,
    "city": "寝屋川市",
    "city_kana": "ネヤガワシ",
    "town": "木田町",
    "town_kana": "キダチョウ",
    "street": null,
    "office_name": null,
    "office_name_kana": null
  },
  "0837": {
    "postcode": "5720837",
    "prefecture": "大阪府",
    "prefecture_kana": "オオサカフ",
    "prefecture_code": 27,
    "city": "寝屋川市",
    "city_kana": "ネヤガワシ",
    "town": "早子町",
    "town_kana": "ハヤコチョウ",
    "street": null,
    "office_name": null,
    "office_name_kana": null
  },
  "0838": {
    "postcode": "5720838",
    "prefecture": "大阪府",
    "prefecture_kana": "オオサカフ",
    "prefecture_code": 27,
    "city": "寝屋川市",
    "city_kana": "ネヤガワシ",
    "town": "八坂町",
    "town_kana": "ヤサカチョウ",
    "street": null,
    "office_name": null,
    "office_name_kana": null
  },
  "0839": {
    "postcode": "5720839",
    "prefecture": "大阪府",
    "prefecture_kana": "オオサカフ",
    "prefecture_code": 27,
    "city": "寝屋川市",
    "city_kana": "ネヤガワシ",
    "town": "平池町",
    "town_kana": "ヒライケチョウ",
    "street": null,
    "office_name": null,
    "office_name_kana": null
  },
  "0840": {
    "postcode": "5720840",
    "prefecture": "大阪府",
    "prefecture_kana": "オオサカフ",
    "prefecture_code": 27,
    "city": "寝屋川市",
    "city_kana": "ネヤガワシ",
    "town": "太秦桜が丘",
    "town_kana": "ウズマササクラガオカ",
    "street": null,
    "office_name": null,
    "office_name_kana": null
  },
  "0841": {
    "postcode": "5720841",
    "prefecture": "大阪府",
    "prefecture_kana": "オオサカフ",
    "prefecture_code": 27,
    "city": "寝屋川市",
    "city_kana": "ネヤガワシ",
    "town": "太秦東が丘",
    "town_kana": "ウズマサヒガシガオカ",
    "street": null,
    "office_name": null,
    "office_name_kana": null
  },
  "0842": {
    "postcode": "5720842",
    "prefecture": "大阪府",
    "prefecture_kana": "オオサカフ",
    "prefecture_code": 27,
    "city": "寝屋川市",
    "city_kana": "ネヤガワシ",
    "town": "太秦高塚町",
    "town_kana": "ウズマサタカツカチョウ",
    "street": null,
    "office_name": null,
    "office_name_kana": null
  },
  "0843": {
    "postcode": "5720843",
    "prefecture": "大阪府",
    "prefecture_kana": "オオサカフ",
    "prefecture_code": 27,
    "city": "寝屋川市",
    "city_kana": "ネヤガワシ",
    "town": "太秦中町",
    "town_kana": "ウズマサナカマチ",
    "street": null,
    "office_name": null,
    "office_name_kana": null
  },
  "0844": {
    "postcode": "5720844",
    "prefecture": "大阪府",
    "prefecture_kana": "オオサカフ",
    "prefecture_code": 27,
    "city": "寝屋川市",
    "city_kana": "ネヤガワシ",
    "town": "太秦緑が丘",
    "town_kana": "ウズマサミドリガオカ",
    "street": null,
    "office_name": null,
    "office_name_kana": null
  },
  "0845": {
    "postcode": "5720845",
    "prefecture": "大阪府",
    "prefecture_kana": "オオサカフ",
    "prefecture_code": 27,
    "city": "寝屋川市",
    "city_kana": "ネヤガワシ",
    "town": "楠根北町",
    "town_kana": "クスネキタマチ",
    "street": null,
    "office_name": null,
    "office_name_kana": null
  },
  "0846": {
    "postcode": "5720846",
    "prefecture": "大阪府",
    "prefecture_kana": "オオサカフ",
    "prefecture_code": 27,
    "city": "寝屋川市",
    "city_kana": "ネヤガワシ",
    "town": "高宮栄町",
    "town_kana": "タカミヤサカエマチ",
    "street": null,
    "office_name": null,
    "office_name_kana": null
  },
  "0847": {
    "postcode": "5720847",
    "prefecture": "大阪府",
    "prefecture_kana": "オオサカフ",
    "prefecture_code": 27,
    "city": "寝屋川市",
    "city_kana": "ネヤガワシ",
    "town": "高宮新町",
    "town_kana": "タカミヤシンマチ",
    "street": null,
    "office_name": null,
    "office_name_kana": null
  },
  "0848": {
    "postcode": "5720848",
    "prefecture": "大阪府",
    "prefecture_kana": "オオサカフ",
    "prefecture_code": 27,
    "city": "寝屋川市",
    "city_kana": "ネヤガワシ",
    "town": "秦町",
    "town_kana": "ハダチョウ",
    "street": null,
    "office_name": null,
    "office_name_kana": null
  },
  "0849": {
    "postcode": "5720849",
    "prefecture": "大阪府",
    "prefecture_kana": "オオサカフ",
    "prefecture_code": 27,
    "city": "寝屋川市",
    "city_kana": "ネヤガワシ",
    "town": "太秦元町",
    "town_kana": "ウズマサモトマチ",
    "street": null,
    "office_name": null,
    "office_name_kana": null
  },
  "0850": {
    "postcode": "5720850",
    "prefecture": "大阪府",
    "prefecture_kana": "オオサカフ",
    "prefecture_code": 27,
    "city": "寝屋川市",
    "city_kana": "ネヤガワシ",
    "town": "打上高塚町",
    "town_kana": "ウチアゲタカツカチョウ",
    "street": null,
    "office_name": null,
    "office_name_kana": null
  },
  "0851": {
    "postcode": "5720851",
    "prefecture": "大阪府",
    "prefecture_kana": "オオサカフ",
    "prefecture_code": 27,
    "city": "寝屋川市",
    "city_kana": "ネヤガワシ",
    "town": "寝屋北町",
    "town_kana": "ネヤキタマチ",
    "street": null,
    "office_name": null,
    "office_name_kana": null
  },
  "0852": {
    "postcode": "5720852",
    "prefecture": "大阪府",
    "prefecture_kana": "オオサカフ",
    "prefecture_code": 27,
    "city": "寝屋川市",
    "city_kana": "ネヤガワシ",
    "town": "寝屋新町",
    "town_kana": "ネヤシンマチ",
    "street": null,
    "office_name": null,
    "office_name_kana": null
  },
  "0853": {
    "postcode": "5720853",
    "prefecture": "大阪府",
    "prefecture_kana": "オオサカフ",
    "prefecture_code": 27,
    "city": "寝屋川市",
    "city_kana": "ネヤガワシ",
    "town": "大谷町",
    "town_kana": "オオタニチョウ",
    "street": null,
    "office_name": null,
    "office_name_kana": null
  },
  "0854": {
    "postcode": "5720854",
    "prefecture": "大阪府",
    "prefecture_kana": "オオサカフ",
    "prefecture_code": 27,
    "city": "寝屋川市",
    "city_kana": "ネヤガワシ",
    "town": "寝屋川公園",
    "town_kana": "ネヤガワコウエン",
    "street": null,
    "office_name": null,
    "office_name_kana": null
  },
  "0855": {
    "postcode": "5720855",
    "prefecture": "大阪府",
    "prefecture_kana": "オオサカフ",
    "prefecture_code": 27,
    "city": "寝屋川市",
    "city_kana": "ネヤガワシ",
    "town": "寝屋南",
    "town_kana": "ネヤミナミ",
    "street": null,
    "office_name": null,
    "office_name_kana": null
  },
  "0856": {
    "postcode": "5720856",
    "prefecture": "大阪府",
    "prefecture_kana": "オオサカフ",
    "prefecture_code": 27,
    "city": "寝屋川市",
    "city_kana": "ネヤガワシ",
    "town": "宇谷町",
    "town_kana": "ウタニチョウ",
    "street": null,
    "office_name": null,
    "office_name_kana": null
  },
  "0857": {
    "postcode": "5720857",
    "prefecture": "大阪府",
    "prefecture_kana": "オオサカフ",
    "prefecture_code": 27,
    "city": "寝屋川市",
    "city_kana": "ネヤガワシ",
    "town": "打上中町",
    "town_kana": "ウチアゲナカマチ",
    "street": null,
    "office_name": null,
    "office_name_kana": null
  },
  "0858": {
    "postcode": "5720858",
    "prefecture": "大阪府",
    "prefecture_kana": "オオサカフ",
    "prefecture_code": 27,
    "city": "寝屋川市",
    "city_kana": "ネヤガワシ",
    "town": "打上元町",
    "town_kana": "ウチアゲモトマチ",
    "street": null,
    "office_name": null,
    "office_name_kana": null
  },
  "0859": {
    "postcode": "5720859",
    "prefecture": "大阪府",
    "prefecture_kana": "オオサカフ",
    "prefecture_code": 27,
    "city": "寝屋川市",
    "city_kana": "ネヤガワシ",
    "town": "打上新町",
    "town_kana": "ウチアゲシンマチ",
    "street": null,
    "office_name": null,
    "office_name_kana": null
  },
  "0861": {
    "postcode": "5720861",
    "prefecture": "大阪府",
    "prefecture_kana": "オオサカフ",
    "prefecture_code": 27,
    "city": "寝屋川市",
    "city_kana": "ネヤガワシ",
    "town": "打上南町",
    "town_kana": "ウチアゲミナミマチ",
    "street": null,
    "office_name": null,
    "office_name_kana": null
  },
  "0862": {
    "postcode": "5720862",
    "prefecture": "大阪府",
    "prefecture_kana": "オオサカフ",
    "prefecture_code": 27,
    "city": "寝屋川市",
    "city_kana": "ネヤガワシ",
    "town": "打上宮前町",
    "town_kana": "ウチアゲミヤマエチョウ",
    "street": null,
    "office_name": null,
    "office_name_kana": null
  },
  "0863": {
    "postcode": "5720863",
    "prefecture": "大阪府",
    "prefecture_kana": "オオサカフ",
    "prefecture_code": 27,
    "city": "寝屋川市",
    "city_kana": "ネヤガワシ",
    "town": "明和",
    "town_kana": "メイワ",
    "street": null,
    "office_name": null,
    "office_name_kana": null
  },
  "0864": {
    "postcode": "5720864",
    "prefecture": "大阪府",
    "prefecture_kana": "オオサカフ",
    "prefecture_code": 27,
    "city": "寝屋川市",
    "city_kana": "ネヤガワシ",
    "town": "高倉",
    "town_kana": "タカクラ",
    "street": null,
    "office_name": null,
    "office_name_kana": null
  },
  "0865": {
    "postcode": "5720865",
    "prefecture": "大阪府",
    "prefecture_kana": "オオサカフ",
    "prefecture_code": 27,
    "city": "寝屋川市",
    "city_kana": "ネヤガワシ",
    "town": "小路北町",
    "town_kana": "ショウジキタマチ",
    "street": null,
    "office_name": null,
    "office_name_kana": null
  },
  "0866": {
    "postcode": "5720866",
    "prefecture": "大阪府",
    "prefecture_kana": "オオサカフ",
    "prefecture_code": 27,
    "city": "寝屋川市",
    "city_kana": "ネヤガワシ",
    "town": "小路南町",
    "town_kana": "ショウジミナミマチ",
    "street": null,
    "office_name": null,
    "office_name_kana": null
  },
  "0867": {
    "postcode": "5720867",
    "prefecture": "大阪府",
    "prefecture_kana": "オオサカフ",
    "prefecture_code": 27,
    "city": "寝屋川市",
    "city_kana": "ネヤガワシ",
    "town": "高宮あさひ丘",
    "town_kana": "タカミヤアサヒオカ",
    "street": null,
    "office_name": null,
    "office_name_kana": null
  },
  "8501": {
    "postcode": "5728501",
    "prefecture": "大阪府",
    "prefecture_kana": "オオサカフ",
    "prefecture_code": 27,
    "city": "寝屋川市",
    "city_kana": "ネヤガワシ",
    "town": "池田中町",
    "town_kana": "イケダナカマチ",
    "street": "１９−１７",
    "office_name": "日本ペイント　株式会社　寝屋川事業所",
    "office_name_kana": "ニホンペイント カブシキガイシヤ ネヤガワジギヨウシヨ"
  },
  "8505": {
    "postcode": "5728505",
    "prefecture": "大阪府",
    "prefecture_kana": "オオサカフ",
    "prefecture_code": 27,
    "city": "寝屋川市",
    "city_kana": "ネヤガワシ",
    "town": "大成町",
    "town_kana": "タイセイチョウ",
    "street": "１−１",
    "office_name": "株式会社　前田組",
    "office_name_kana": "カブシキガイシヤ マエダグミ"
  },
  "8508": {
    "postcode": "5728508",
    "prefecture": "大阪府",
    "prefecture_kana": "オオサカフ",
    "prefecture_code": 27,
    "city": "寝屋川市",
    "city_kana": "ネヤガワシ",
    "town": "池田中町",
    "town_kana": "イケダナカマチ",
    "street": "１７−８",
    "office_name": "摂南大学",
    "office_name_kana": "セツナンダイガク"
  },
  "8510": {
    "postcode": "5728510",
    "prefecture": "大阪府",
    "prefecture_kana": "オオサカフ",
    "prefecture_code": 27,
    "city": "寝屋川市",
    "city_kana": "ネヤガワシ",
    "town": "昭栄町",
    "town_kana": "ショウエイチョウ",
    "street": "１７−５",
    "office_name": "株式会社　イトーキ寝屋川工場",
    "office_name_kana": "カブシキガイシヤ イト-キネヤガワコウジヨウ"
  },
  "8511": {
    "postcode": "5728511",
    "prefecture": "大阪府",
    "prefecture_kana": "オオサカフ",
    "prefecture_code": 27,
    "city": "寝屋川市",
    "city_kana": "ネヤガワシ",
    "town": "本町",
    "town_kana": "ホンマチ",
    "street": "１番１号",
    "office_name": "寝屋川市教育委員会",
    "office_name_kana": "ネヤガワシキヨウイクイインカイ"
  },
  "8522": {
    "postcode": "5728522",
    "prefecture": "大阪府",
    "prefecture_kana": "オオサカフ",
    "prefecture_code": 27,
    "city": "寝屋川市",
    "city_kana": "ネヤガワシ",
    "town": "昭栄町",
    "town_kana": "ショウエイチョウ",
    "street": "１９−５",
    "office_name": "大日本エリオ　株式会社　大阪工場",
    "office_name_kana": "ダイニホンエリオ カブシキガイシヤ オオサカコウジヨウ"
  },
  "8528": {
    "postcode": "5728528",
    "prefecture": "大阪府",
    "prefecture_kana": "オオサカフ",
    "prefecture_code": 27,
    "city": "寝屋川市",
    "city_kana": "ネヤガワシ",
    "town": "成田西町",
    "town_kana": "ナリタニシマチ",
    "street": "１０−１",
    "office_name": "成田山明王院",
    "office_name_kana": "ナリタサンミヨウオウイン"
  },
  "8530": {
    "postcode": "5728530",
    "prefecture": "大阪府",
    "prefecture_kana": "オオサカフ",
    "prefecture_code": 27,
    "city": "寝屋川市",
    "city_kana": "ネヤガワシ",
    "town": "初町",
    "town_kana": "ハツチョウ",
    "street": "１８−８",
    "office_name": "大阪電気通信大学",
    "office_name_kana": "オオサカデンキツウシンダイガク"
  },
  "8531": {
    "postcode": "5728531",
    "prefecture": "大阪府",
    "prefecture_kana": "オオサカフ",
    "prefecture_code": 27,
    "city": "寝屋川市",
    "city_kana": "ネヤガワシ",
    "town": "美井町",
    "town_kana": "ミイチョウ",
    "street": "１８−１０",
    "office_name": "聖母女学院中学高等学校・大阪聖母学院小学校",
    "office_name_kana": "セイボジヨガクインチユウガクコウトウガツコウ・オオサカセイボガクインシヨウガツコウ"
  },
  "8533": {
    "postcode": "5728533",
    "prefecture": "大阪府",
    "prefecture_kana": "オオサカフ",
    "prefecture_code": 27,
    "city": "寝屋川市",
    "city_kana": "ネヤガワシ",
    "town": "池田西町",
    "town_kana": "イケダニシマチ",
    "street": "２８−２２",
    "office_name": "寝屋川市総合センター",
    "office_name_kana": "ネヤガワシソウゴウセンタ-"
  },
  "8540": {
    "postcode": "5728540",
    "prefecture": "大阪府",
    "prefecture_kana": "オオサカフ",
    "prefecture_code": 27,
    "city": "寝屋川市",
    "city_kana": "ネヤガワシ",
    "town": "日新町",
    "town_kana": "ニッシンチョウ",
    "street": "２−１",
    "office_name": "オンキョー　株式会社",
    "office_name_kana": "オンキヨ- カブシキガイシヤ"
  },
  "8544": {
    "postcode": "5728544",
    "prefecture": "大阪府",
    "prefecture_kana": "オオサカフ",
    "prefecture_code": 27,
    "city": "寝屋川市",
    "city_kana": "ネヤガワシ",
    "town": "早子町",
    "town_kana": "ハヤコチョウ",
    "street": "１２番１６号",
    "office_name": "寝屋川市サービスゲート",
    "office_name_kana": "ネヤガワシサ-ビスゲ-ト"
  },
  "8550": {
    "postcode": "5728550",
    "prefecture": "大阪府",
    "prefecture_kana": "オオサカフ",
    "prefecture_code": 27,
    "city": "寝屋川市",
    "city_kana": "ネヤガワシ",
    "town": "高柳",
    "town_kana": "タカヤナギ",
    "street": "２丁目２１−７",
    "office_name": "関西マネジ興業　株式会社",
    "office_name_kana": "カンサイマネジコウギヨウ カブシキガイシヤ"
  },
  "8551": {
    "postcode": "5728551",
    "prefecture": "大阪府",
    "prefecture_kana": "オオサカフ",
    "prefecture_code": 27,
    "city": "寝屋川市",
    "city_kana": "ネヤガワシ",
    "town": "香里本通町",
    "town_kana": "コオリホンドオリチョウ",
    "street": "８番４５号",
    "office_name": "関西医科大学香里病院",
    "office_name_kana": "カンサイイカダイガクコオリビヨウイン"
  },
  "8555": {
    "postcode": "5728555",
    "prefecture": "大阪府",
    "prefecture_kana": "オオサカフ",
    "prefecture_code": 27,
    "city": "寝屋川市",
    "city_kana": "ネヤガワシ",
    "town": "本町",
    "town_kana": "ホンマチ",
    "street": "１−１",
    "office_name": "寝屋川市",
    "office_name_kana": "ネヤガワシ"
  },
  "8558": {
    "postcode": "5728558",
    "prefecture": "大阪府",
    "prefecture_kana": "オオサカフ",
    "prefecture_code": 27,
    "city": "寝屋川市",
    "city_kana": "ネヤガワシ",
    "town": "大成町",
    "town_kana": "タイセイチョウ",
    "street": "１２−３２",
    "office_name": "日本科学冶金　株式会社",
    "office_name_kana": "ニホンカガクヤキン カブシキガイシヤ"
  },
  "8566": {
    "postcode": "5728566",
    "prefecture": "大阪府",
    "prefecture_kana": "オオサカフ",
    "prefecture_code": 27,
    "city": "寝屋川市",
    "city_kana": "ネヤガワシ",
    "town": "池田西町",
    "town_kana": "イケダニシマチ",
    "street": "２４番５号",
    "office_name": "寝屋川市立池の里市民交流センター",
    "office_name_kana": "ネヤガワシリツイケノサトシミンコウリユウセンタ-"
  },
  "8567": {
    "postcode": "5728567",
    "prefecture": "大阪府",
    "prefecture_kana": "オオサカフ",
    "prefecture_code": 27,
    "city": "寝屋川市",
    "city_kana": "ネヤガワシ",
    "town": "川勝町",
    "town_kana": "カワカツチョウ",
    "street": "１１−６",
    "office_name": "医療法人　協仁会小松病院",
    "office_name_kana": "イリヨウホウジン キヨウジンカイコマツビヨウイン"
  },
  "8570": {
    "postcode": "5728570",
    "prefecture": "大阪府",
    "prefecture_kana": "オオサカフ",
    "prefecture_code": 27,
    "city": "寝屋川市",
    "city_kana": "ネヤガワシ",
    "town": "木田元宮",
    "town_kana": "キダモトミヤ",
    "street": "１丁目１−１",
    "office_name": "株式会社　エクセディ",
    "office_name_kana": "カブシキガイシヤ エクセデイ"
  },
  "8572": {
    "postcode": "5728572",
    "prefecture": "大阪府",
    "prefecture_kana": "オオサカフ",
    "prefecture_code": 27,
    "city": "寝屋川市",
    "city_kana": "ネヤガワシ",
    "town": "幸町",
    "town_kana": "サイワイチョウ",
    "street": "２６番１２号",
    "office_name": "大阪公立大学工業高等専門学校",
    "office_name_kana": "オオサカコウリツダイガクコウギヨウコウトウセンモンガツコウ"
  },
  "8580": {
    "postcode": "5728580",
    "prefecture": "大阪府",
    "prefecture_kana": "オオサカフ",
    "prefecture_code": 27,
    "city": "寝屋川市",
    "city_kana": "ネヤガワシ",
    "town": "池田北町",
    "town_kana": "イケダキタマチ",
    "street": "１５−２０",
    "office_name": "ネッツトヨタ新大阪　株式会社",
    "office_name_kana": "ネツツトヨタシンオオサカ カブシキカイシヤ"
  },
  "8581": {
    "postcode": "5728581",
    "prefecture": "大阪府",
    "prefecture_kana": "オオサカフ",
    "prefecture_code": 27,
    "city": "寝屋川市",
    "city_kana": "ネヤガワシ",
    "town": "讃良東町",
    "town_kana": "サンラヒガシマチ",
    "street": "８−１",
    "office_name": "オリエント化学工業　株式会社",
    "office_name_kana": "オリエントカガクコウギヨウ カブシキガイシヤ"
  },
  "8585": {
    "postcode": "5728585",
    "prefecture": "大阪府",
    "prefecture_kana": "オオサカフ",
    "prefecture_code": 27,
    "city": "寝屋川市",
    "city_kana": "ネヤガワシ",
    "town": "三井南町",
    "town_kana": "ミイミナミマチ",
    "street": "１５−１",
    "office_name": "同志社香里高等学校",
    "office_name_kana": "ドウシシヤコウリコウトウガツコウ"
  },
  "8588": {
    "postcode": "5728588",
    "prefecture": "大阪府",
    "prefecture_kana": "オオサカフ",
    "prefecture_code": 27,
    "city": "寝屋川市",
    "city_kana": "ネヤガワシ",
    "town": "木屋元町",
    "town_kana": "コヤモトマチ",
    "street": "７−１４",
    "office_name": "株式会社　三笑堂　大阪支店",
    "office_name_kana": "カブシキガイシヤ サンシヨウドウ オオサカシテン"
  },
  "8589": {
    "postcode": "5728589",
    "prefecture": "大阪府",
    "prefecture_kana": "オオサカフ",
    "prefecture_code": 27,
    "city": "寝屋川市",
    "city_kana": "ネヤガワシ",
    "town": "石津東町",
    "town_kana": "イシヅヒガシマチ",
    "street": "３１−１",
    "office_name": "株式会社　横井製作所",
    "office_name_kana": "カブシキガイシヤ ヨコイセイサクシヨ"
  }
}