{
  "0000": {
    "postcode": "5810000",
    "prefecture": "大阪府",
    "prefecture_kana": "オオサカフ",
    "prefecture_code": 27,
    "city": "八尾市",
    "city_kana": "ヤオシ",
    "town": "",
    "town_kana": "",
    "street": null,
    "office_name": null,
    "office_name_kana": null
  },
  "0001": {
    "postcode": "5810001",
    "prefecture": "大阪府",
    "prefecture_kana": "オオサカフ",
    "prefecture_code": 27,
    "city": "八尾市",
    "city_kana": "ヤオシ",
    "town": "末広町",
    "town_kana": "スエヒロチョウ",
    "street": null,
    "office_name": null,
    "office_name_kana": null
  },
  "0002": {
    "postcode": "5810002",
    "prefecture": "大阪府",
    "prefecture_kana": "オオサカフ",
    "prefecture_code": 27,
    "city": "八尾市",
    "city_kana": "ヤオシ",
    "town": "東久宝寺",
    "town_kana": "ヒガシキュウホウジ",
    "street": null,
    "office_name": null,
    "office_name_kana": null
  },
  "0003": {
    "postcode": "5810003",
    "prefecture": "大阪府",
    "prefecture_kana": "オオサカフ",
    "prefecture_code": 27,
    "city": "八尾市",
    "city_kana": "ヤオシ",
    "town": "本町",
    "town_kana": "ホンマチ",
    "street": null,
    "office_name": null,
    "office_name_kana": null
  },
  "0004": {
    "postcode": "5810004",
    "prefecture": "大阪府",
    "prefecture_kana": "オオサカフ",
    "prefecture_code": 27,
    "city": "八尾市",
    "city_kana": "ヤオシ",
    "town": "東本町",
    "town_kana": "ヒガシホンマチ",
    "street": null,
    "office_name": null,
    "office_name_kana": null
  },
  "0005": {
    "postcode": "5810005",
    "prefecture": "大阪府",
    "prefecture_kana": "オオサカフ",
    "prefecture_code": 27,
    "city": "八尾市",
    "city_kana": "ヤオシ",
    "town": "荘内町",
    "town_kana": "ソウナイチョウ",
    "street": null,
    "office_name": null,
    "office_name_kana": null
  },
  "0006": {
    "postcode": "5810006",
    "prefecture": "大阪府",
    "prefecture_kana": "オオサカフ",
    "prefecture_code": 27,
    "city": "八尾市",
    "city_kana": "ヤオシ",
    "town": "清水町",
    "town_kana": "シミズチョウ",
    "street": null,
    "office_name": null,
    "office_name_kana": null
  },
  "0007": {
    "postcode": "5810007",
    "prefecture": "大阪府",
    "prefecture_kana": "オオサカフ",
    "prefecture_code": 27,
    "city": "八尾市",
    "city_kana": "ヤオシ",
    "town": "光南町",
    "town_kana": "コウナンチョウ",
    "street": null,
    "office_name": null,
    "office_name_kana": null
  },
  "0010": {
    "postcode": "5810010",
    "prefecture": "大阪府",
    "prefecture_kana": "オオサカフ",
    "prefecture_code": 27,
    "city": "八尾市",
    "city_kana": "ヤオシ",
    "town": "都塚北",
    "town_kana": "ミヤコヅカキタ",
    "street": null,
    "office_name": null,
    "office_name_kana": null
  },
  "0011": {
    "postcode": "5810011",
    "prefecture": "大阪府",
    "prefecture_kana": "オオサカフ",
    "prefecture_code": 27,
    "city": "八尾市",
    "city_kana": "ヤオシ",
    "town": "若草町",
    "town_kana": "ワカクサチョウ",
    "street": null,
    "office_name": null,
    "office_name_kana": null
  },
  "0012": {
    "postcode": "5810012",
    "prefecture": "大阪府",
    "prefecture_kana": "オオサカフ",
    "prefecture_code": 27,
    "city": "八尾市",
    "city_kana": "ヤオシ",
    "town": "小阪合町",
    "town_kana": "コザカアイチョウ",
    "street": null,
    "office_name": null,
    "office_name_kana": null
  },
  "0013": {
    "postcode": "5810013",
    "prefecture": "大阪府",
    "prefecture_kana": "オオサカフ",
    "prefecture_code": 27,
    "city": "八尾市",
    "city_kana": "ヤオシ",
    "town": "山本町南",
    "town_kana": "ヤマモトチョウミナミ",
    "street": null,
    "office_name": null,
    "office_name_kana": null
  },
  "0014": {
    "postcode": "5810014",
    "prefecture": "大阪府",
    "prefecture_kana": "オオサカフ",
    "prefecture_code": 27,
    "city": "八尾市",
    "city_kana": "ヤオシ",
    "town": "中田",
    "town_kana": "ナカタ",
    "street": null,
    "office_name": null,
    "office_name_kana": null
  },
  "0015": {
    "postcode": "5810015",
    "prefecture": "大阪府",
    "prefecture_kana": "オオサカフ",
    "prefecture_code": 27,
    "city": "八尾市",
    "city_kana": "ヤオシ",
    "town": "刑部",
    "town_kana": "オサカベ",
    "street": null,
    "office_name": null,
    "office_name_kana": null
  },
  "0016": {
    "postcode": "5810016",
    "prefecture": "大阪府",
    "prefecture_kana": "オオサカフ",
    "prefecture_code": 27,
    "city": "八尾市",
    "city_kana": "ヤオシ",
    "town": "八尾木北",
    "town_kana": "ヤオギキタ",
    "street": null,
    "office_name": null,
    "office_name_kana": null
  },
  "0017": {
    "postcode": "5810017",
    "prefecture": "大阪府",
    "prefecture_kana": "オオサカフ",
    "prefecture_code": 27,
    "city": "八尾市",
    "city_kana": "ヤオシ",
    "town": "高美町",
    "town_kana": "タカミチョウ",
    "street": null,
    "office_name": null,
    "office_name_kana": null
  },
  "0018": {
    "postcode": "5810018",
    "prefecture": "大阪府",
    "prefecture_kana": "オオサカフ",
    "prefecture_code": 27,
    "city": "八尾市",
    "city_kana": "ヤオシ",
    "town": "青山町",
    "town_kana": "アオヤマチョウ",
    "street": null,
    "office_name": null,
    "office_name_kana": null
  },
  "0019": {
    "postcode": "5810019",
    "prefecture": "大阪府",
    "prefecture_kana": "オオサカフ",
    "prefecture_code": 27,
    "city": "八尾市",
    "city_kana": "ヤオシ",
    "town": "南小阪合町",
    "town_kana": "ミナミコザカアイチョウ",
    "street": null,
    "office_name": null,
    "office_name_kana": null
  },
  "0020": {
    "postcode": "5810020",
    "prefecture": "大阪府",
    "prefecture_kana": "オオサカフ",
    "prefecture_code": 27,
    "city": "八尾市",
    "city_kana": "ヤオシ",
    "town": "曙川東",
    "town_kana": "アケガワヒガシ",
    "street": null,
    "office_name": null,
    "office_name_kana": null
  },
  "0021": {
    "postcode": "5810021",
    "prefecture": "大阪府",
    "prefecture_kana": "オオサカフ",
    "prefecture_code": 27,
    "city": "八尾市",
    "city_kana": "ヤオシ",
    "town": "山本高安町",
    "town_kana": "ヤマモトタカヤスチョウ",
    "street": null,
    "office_name": null,
    "office_name_kana": null
  },
  "0022": {
    "postcode": "5810022",
    "prefecture": "大阪府",
    "prefecture_kana": "オオサカフ",
    "prefecture_code": 27,
    "city": "八尾市",
    "city_kana": "ヤオシ",
    "town": "柏村町",
    "town_kana": "カシムラチョウ",
    "street": null,
    "office_name": null,
    "office_name_kana": null
  },
  "0023": {
    "postcode": "5810023",
    "prefecture": "大阪府",
    "prefecture_kana": "オオサカフ",
    "prefecture_code": 27,
    "city": "八尾市",
    "city_kana": "ヤオシ",
    "town": "都塚",
    "town_kana": "ミヤコヅカ",
    "street": null,
    "office_name": null,
    "office_name_kana": null
  },
  "0024": {
    "postcode": "5810024",
    "prefecture": "大阪府",
    "prefecture_kana": "オオサカフ",
    "prefecture_code": 27,
    "city": "八尾市",
    "city_kana": "ヤオシ",
    "town": "二俣",
    "town_kana": "フタマタ",
    "street": null,
    "office_name": null,
    "office_name_kana": null
  },
  "0025": {
    "postcode": "5810025",
    "prefecture": "大阪府",
    "prefecture_kana": "オオサカフ",
    "prefecture_code": 27,
    "city": "八尾市",
    "city_kana": "ヤオシ",
    "town": "天王寺屋",
    "town_kana": "テンノウジヤ",
    "street": null,
    "office_name": null,
    "office_name_kana": null
  },
  "0026": {
    "postcode": "5810026",
    "prefecture": "大阪府",
    "prefecture_kana": "オオサカフ",
    "prefecture_code": 27,
    "city": "八尾市",
    "city_kana": "ヤオシ",
    "town": "曙町",
    "town_kana": "アケボノチョウ",
    "street": null,
    "office_name": null,
    "office_name_kana": null
  },
  "0027": [
    {
      "postcode": "5810027",
      "prefecture": "大阪府",
      "prefecture_kana": "オオサカフ",
      "prefecture_code": 27,
      "city": "八尾市",
      "city_kana": "ヤオシ",
      "town": "八尾木",
      "town_kana": "ヤオギ",
      "street": null,
      "office_name": null,
      "office_name_kana": null
    },
    {
      "postcode": "5810027",
      "prefecture": "大阪府",
      "prefecture_kana": "オオサカフ",
      "prefecture_code": 27,
      "city": "八尾市",
      "city_kana": "ヤオシ",
      "town": "八尾木",
      "town_kana": "ヨオギ",
      "street": null,
      "office_name": null,
      "office_name_kana": null
    },
    {
      "postcode": "5810027",
      "prefecture": "大阪府",
      "prefecture_kana": "オオサカフ",
      "prefecture_code": 27,
      "city": "八尾市",
      "city_kana": "ヤオシ",
      "town": "八尾木大字",
      "town_kana": "ヨオギオオアザ",
      "street": null,
      "office_name": null,
      "office_name_kana": null
    }
  ],
  "0028": {
    "postcode": "5810028",
    "prefecture": "大阪府",
    "prefecture_kana": "オオサカフ",
    "prefecture_code": 27,
    "city": "八尾市",
    "city_kana": "ヤオシ",
    "town": "八尾木東",
    "town_kana": "ヤオギヒガシ",
    "street": null,
    "office_name": null,
    "office_name_kana": null
  },
  "0029": {
    "postcode": "5810029",
    "prefecture": "大阪府",
    "prefecture_kana": "オオサカフ",
    "prefecture_code": 27,
    "city": "八尾市",
    "city_kana": "ヤオシ",
    "town": "東弓削",
    "town_kana": "ヒガシユウゲ",
    "street": null,
    "office_name": null,
    "office_name_kana": null
  },
  "0030": {
    "postcode": "5810030",
    "prefecture": "大阪府",
    "prefecture_kana": "オオサカフ",
    "prefecture_code": 27,
    "city": "八尾市",
    "city_kana": "ヤオシ",
    "town": "都塚南",
    "town_kana": "ミヤコヅカミナミ",
    "street": null,
    "office_name": null,
    "office_name_kana": null
  },
  "0031": {
    "postcode": "5810031",
    "prefecture": "大阪府",
    "prefecture_kana": "オオサカフ",
    "prefecture_code": 27,
    "city": "八尾市",
    "city_kana": "ヤオシ",
    "town": "志紀町",
    "town_kana": "シキチョウ",
    "street": null,
    "office_name": null,
    "office_name_kana": null
  },
  "0032": {
    "postcode": "5810032",
    "prefecture": "大阪府",
    "prefecture_kana": "オオサカフ",
    "prefecture_code": 27,
    "city": "八尾市",
    "city_kana": "ヤオシ",
    "town": "弓削町",
    "town_kana": "ユウゲチョウ",
    "street": null,
    "office_name": null,
    "office_name_kana": null
  },
  "0033": {
    "postcode": "5810033",
    "prefecture": "大阪府",
    "prefecture_kana": "オオサカフ",
    "prefecture_code": 27,
    "city": "八尾市",
    "city_kana": "ヤオシ",
    "town": "志紀町南",
    "town_kana": "シキチョウミナミ",
    "street": null,
    "office_name": null,
    "office_name_kana": null
  },
  "0034": {
    "postcode": "5810034",
    "prefecture": "大阪府",
    "prefecture_kana": "オオサカフ",
    "prefecture_code": 27,
    "city": "八尾市",
    "city_kana": "ヤオシ",
    "town": "弓削町南",
    "town_kana": "ユウゲチョウミナミ",
    "street": null,
    "office_name": null,
    "office_name_kana": null
  },
  "0035": {
    "postcode": "5810035",
    "prefecture": "大阪府",
    "prefecture_kana": "オオサカフ",
    "prefecture_code": 27,
    "city": "八尾市",
    "city_kana": "ヤオシ",
    "town": "西弓削",
    "town_kana": "ニシユウゲ",
    "street": null,
    "office_name": null,
    "office_name_kana": null
  },
  "0036": {
    "postcode": "5810036",
    "prefecture": "大阪府",
    "prefecture_kana": "オオサカフ",
    "prefecture_code": 27,
    "city": "八尾市",
    "city_kana": "ヤオシ",
    "town": "沼",
    "town_kana": "ヌマ",
    "street": null,
    "office_name": null,
    "office_name_kana": null
  },
  "0037": {
    "postcode": "5810037",
    "prefecture": "大阪府",
    "prefecture_kana": "オオサカフ",
    "prefecture_code": 27,
    "city": "八尾市",
    "city_kana": "ヤオシ",
    "town": "太田",
    "town_kana": "オオタ",
    "street": null,
    "office_name": null,
    "office_name_kana": null
  },
  "0038": {
    "postcode": "5810038",
    "prefecture": "大阪府",
    "prefecture_kana": "オオサカフ",
    "prefecture_code": 27,
    "city": "八尾市",
    "city_kana": "ヤオシ",
    "town": "若林町",
    "town_kana": "ワカバヤシチョウ",
    "street": null,
    "office_name": null,
    "office_name_kana": null
  },
  "0039": {
    "postcode": "5810039",
    "prefecture": "大阪府",
    "prefecture_kana": "オオサカフ",
    "prefecture_code": 27,
    "city": "八尾市",
    "city_kana": "ヤオシ",
    "town": "太田新町",
    "town_kana": "オオタシンマチ",
    "street": null,
    "office_name": null,
    "office_name_kana": null
  },
  "0041": {
    "postcode": "5810041",
    "prefecture": "大阪府",
    "prefecture_kana": "オオサカフ",
    "prefecture_code": 27,
    "city": "八尾市",
    "city_kana": "ヤオシ",
    "town": "北木の本",
    "town_kana": "キタキノモト",
    "street": null,
    "office_name": null,
    "office_name_kana": null
  },
  "0042": {
    "postcode": "5810042",
    "prefecture": "大阪府",
    "prefecture_kana": "オオサカフ",
    "prefecture_code": 27,
    "city": "八尾市",
    "city_kana": "ヤオシ",
    "town": "南木の本",
    "town_kana": "ミナミキノモト",
    "street": null,
    "office_name": null,
    "office_name_kana": null
  },
  "0043": {
    "postcode": "5810043",
    "prefecture": "大阪府",
    "prefecture_kana": "オオサカフ",
    "prefecture_code": 27,
    "city": "八尾市",
    "city_kana": "ヤオシ",
    "town": "空港",
    "town_kana": "クウコウ",
    "street": null,
    "office_name": null,
    "office_name_kana": null
  },
  "0044": {
    "postcode": "5810044",
    "prefecture": "大阪府",
    "prefecture_kana": "オオサカフ",
    "prefecture_code": 27,
    "city": "八尾市",
    "city_kana": "ヤオシ",
    "town": "木の本",
    "town_kana": "キノモト",
    "street": null,
    "office_name": null,
    "office_name_kana": null
  },
  "0045": {
    "postcode": "5810045",
    "prefecture": "大阪府",
    "prefecture_kana": "オオサカフ",
    "prefecture_code": 27,
    "city": "八尾市",
    "city_kana": "ヤオシ",
    "town": "西木の本",
    "town_kana": "ニシキノモト",
    "street": null,
    "office_name": null,
    "office_name_kana": null
  },
  "0051": {
    "postcode": "5810051",
    "prefecture": "大阪府",
    "prefecture_kana": "オオサカフ",
    "prefecture_code": 27,
    "city": "八尾市",
    "city_kana": "ヤオシ",
    "town": "竹渕西",
    "town_kana": "タケフチニシ",
    "street": null,
    "office_name": null,
    "office_name_kana": null
  },
  "0052": {
    "postcode": "5810052",
    "prefecture": "大阪府",
    "prefecture_kana": "オオサカフ",
    "prefecture_code": 27,
    "city": "八尾市",
    "city_kana": "ヤオシ",
    "town": "竹渕",
    "town_kana": "タケフチ",
    "street": null,
    "office_name": null,
    "office_name_kana": null
  },
  "0053": {
    "postcode": "5810053",
    "prefecture": "大阪府",
    "prefecture_kana": "オオサカフ",
    "prefecture_code": 27,
    "city": "八尾市",
    "city_kana": "ヤオシ",
    "town": "竹渕東",
    "town_kana": "タケフチヒガシ",
    "street": null,
    "office_name": null,
    "office_name_kana": null
  },
  "0054": {
    "postcode": "5810054",
    "prefecture": "大阪府",
    "prefecture_kana": "オオサカフ",
    "prefecture_code": 27,
    "city": "八尾市",
    "city_kana": "ヤオシ",
    "town": "南亀井町",
    "town_kana": "ミナミカメイチョウ",
    "street": null,
    "office_name": null,
    "office_name_kana": null
  },
  "0055": {
    "postcode": "5810055",
    "prefecture": "大阪府",
    "prefecture_kana": "オオサカフ",
    "prefecture_code": 27,
    "city": "八尾市",
    "city_kana": "ヤオシ",
    "town": "跡部南の町",
    "town_kana": "アトベミナミノチョウ",
    "street": null,
    "office_name": null,
    "office_name_kana": null
  },
  "0056": {
    "postcode": "5810056",
    "prefecture": "大阪府",
    "prefecture_kana": "オオサカフ",
    "prefecture_code": 27,
    "city": "八尾市",
    "city_kana": "ヤオシ",
    "town": "南太子堂",
    "town_kana": "ミナミタイシドウ",
    "street": null,
    "office_name": null,
    "office_name_kana": null
  },
  "0061": {
    "postcode": "5810061",
    "prefecture": "大阪府",
    "prefecture_kana": "オオサカフ",
    "prefecture_code": 27,
    "city": "八尾市",
    "city_kana": "ヤオシ",
    "town": "春日町",
    "town_kana": "カスガチョウ",
    "street": null,
    "office_name": null,
    "office_name_kana": null
  },
  "0062": {
    "postcode": "5810062",
    "prefecture": "大阪府",
    "prefecture_kana": "オオサカフ",
    "prefecture_code": 27,
    "city": "八尾市",
    "city_kana": "ヤオシ",
    "town": "東太子",
    "town_kana": "ヒガシタイシ",
    "street": null,
    "office_name": null,
    "office_name_kana": null
  },
  "0063": {
    "postcode": "5810063",
    "prefecture": "大阪府",
    "prefecture_kana": "オオサカフ",
    "prefecture_code": 27,
    "city": "八尾市",
    "city_kana": "ヤオシ",
    "town": "太子堂",
    "town_kana": "タイシドウ",
    "street": null,
    "office_name": null,
    "office_name_kana": null
  },
  "0064": {
    "postcode": "5810064",
    "prefecture": "大阪府",
    "prefecture_kana": "オオサカフ",
    "prefecture_code": 27,
    "city": "八尾市",
    "city_kana": "ヤオシ",
    "town": "跡部本町",
    "town_kana": "アトベホンマチ",
    "street": null,
    "office_name": null,
    "office_name_kana": null
  },
  "0065": {
    "postcode": "5810065",
    "prefecture": "大阪府",
    "prefecture_kana": "オオサカフ",
    "prefecture_code": 27,
    "city": "八尾市",
    "city_kana": "ヤオシ",
    "town": "亀井町",
    "town_kana": "カメイチョウ",
    "street": null,
    "office_name": null,
    "office_name_kana": null
  },
  "0066": {
    "postcode": "5810066",
    "prefecture": "大阪府",
    "prefecture_kana": "オオサカフ",
    "prefecture_code": 27,
    "city": "八尾市",
    "city_kana": "ヤオシ",
    "town": "北亀井町",
    "town_kana": "キタカメイチョウ",
    "street": null,
    "office_name": null,
    "office_name_kana": null
  },
  "0067": {
    "postcode": "5810067",
    "prefecture": "大阪府",
    "prefecture_kana": "オオサカフ",
    "prefecture_code": 27,
    "city": "八尾市",
    "city_kana": "ヤオシ",
    "town": "神武町",
    "town_kana": "ジンムチョウ",
    "street": null,
    "office_name": null,
    "office_name_kana": null
  },
  "0068": {
    "postcode": "5810068",
    "prefecture": "大阪府",
    "prefecture_kana": "オオサカフ",
    "prefecture_code": 27,
    "city": "八尾市",
    "city_kana": "ヤオシ",
    "town": "跡部北の町",
    "town_kana": "アトベキタノチョウ",
    "street": null,
    "office_name": null,
    "office_name_kana": null
  },
  "0069": {
    "postcode": "5810069",
    "prefecture": "大阪府",
    "prefecture_kana": "オオサカフ",
    "prefecture_code": 27,
    "city": "八尾市",
    "city_kana": "ヤオシ",
    "town": "龍華町",
    "town_kana": "リュウゲチョウ",
    "street": null,
    "office_name": null,
    "office_name_kana": null
  },
  "0071": {
    "postcode": "5810071",
    "prefecture": "大阪府",
    "prefecture_kana": "オオサカフ",
    "prefecture_code": 27,
    "city": "八尾市",
    "city_kana": "ヤオシ",
    "town": "北久宝寺",
    "town_kana": "キタキュウホウジ",
    "street": null,
    "office_name": null,
    "office_name_kana": null
  },
  "0072": {
    "postcode": "5810072",
    "prefecture": "大阪府",
    "prefecture_kana": "オオサカフ",
    "prefecture_code": 27,
    "city": "八尾市",
    "city_kana": "ヤオシ",
    "town": "久宝寺",
    "town_kana": "キュウホウジ",
    "street": null,
    "office_name": null,
    "office_name_kana": null
  },
  "0073": {
    "postcode": "5810073",
    "prefecture": "大阪府",
    "prefecture_kana": "オオサカフ",
    "prefecture_code": 27,
    "city": "八尾市",
    "city_kana": "ヤオシ",
    "town": "高町",
    "town_kana": "タカマチ",
    "street": null,
    "office_name": null,
    "office_name_kana": null
  },
  "0074": {
    "postcode": "5810074",
    "prefecture": "大阪府",
    "prefecture_kana": "オオサカフ",
    "prefecture_code": 27,
    "city": "八尾市",
    "city_kana": "ヤオシ",
    "town": "栄町",
    "town_kana": "サカエマチ",
    "street": null,
    "office_name": null,
    "office_name_kana": null
  },
  "0075": {
    "postcode": "5810075",
    "prefecture": "大阪府",
    "prefecture_kana": "オオサカフ",
    "prefecture_code": 27,
    "city": "八尾市",
    "city_kana": "ヤオシ",
    "town": "渋川町",
    "town_kana": "シブカワチョウ",
    "street": null,
    "office_name": null,
    "office_name_kana": null
  },
  "0076": {
    "postcode": "5810076",
    "prefecture": "大阪府",
    "prefecture_kana": "オオサカフ",
    "prefecture_code": 27,
    "city": "八尾市",
    "city_kana": "ヤオシ",
    "town": "南久宝寺",
    "town_kana": "ミナミキュウホウジ",
    "street": null,
    "office_name": null,
    "office_name_kana": null
  },
  "0077": {
    "postcode": "5810077",
    "prefecture": "大阪府",
    "prefecture_kana": "オオサカフ",
    "prefecture_code": 27,
    "city": "八尾市",
    "city_kana": "ヤオシ",
    "town": "西久宝寺",
    "town_kana": "ニシキュウホウジ",
    "street": null,
    "office_name": null,
    "office_name_kana": null
  },
  "0081": {
    "postcode": "5810081",
    "prefecture": "大阪府",
    "prefecture_kana": "オオサカフ",
    "prefecture_code": 27,
    "city": "八尾市",
    "city_kana": "ヤオシ",
    "town": "南本町",
    "town_kana": "ミナミホンマチ",
    "street": null,
    "office_name": null,
    "office_name_kana": null
  },
  "0082": {
    "postcode": "5810082",
    "prefecture": "大阪府",
    "prefecture_kana": "オオサカフ",
    "prefecture_code": 27,
    "city": "八尾市",
    "city_kana": "ヤオシ",
    "town": "相生町",
    "town_kana": "アイオイチョウ",
    "street": null,
    "office_name": null,
    "office_name_kana": null
  },
  "0083": {
    "postcode": "5810083",
    "prefecture": "大阪府",
    "prefecture_kana": "オオサカフ",
    "prefecture_code": 27,
    "city": "八尾市",
    "city_kana": "ヤオシ",
    "town": "永畑町",
    "town_kana": "ナガハタチョウ",
    "street": null,
    "office_name": null,
    "office_name_kana": null
  },
  "0084": {
    "postcode": "5810084",
    "prefecture": "大阪府",
    "prefecture_kana": "オオサカフ",
    "prefecture_code": 27,
    "city": "八尾市",
    "city_kana": "ヤオシ",
    "town": "植松町",
    "town_kana": "ウエマツチョウ",
    "street": null,
    "office_name": null,
    "office_name_kana": null
  },
  "0085": {
    "postcode": "5810085",
    "prefecture": "大阪府",
    "prefecture_kana": "オオサカフ",
    "prefecture_code": 27,
    "city": "八尾市",
    "city_kana": "ヤオシ",
    "town": "安中町",
    "town_kana": "ヤスナカチョウ",
    "street": null,
    "office_name": null,
    "office_name_kana": null
  },
  "0086": {
    "postcode": "5810086",
    "prefecture": "大阪府",
    "prefecture_kana": "オオサカフ",
    "prefecture_code": 27,
    "city": "八尾市",
    "city_kana": "ヤオシ",
    "town": "陽光園",
    "town_kana": "ヨウコウエン",
    "street": null,
    "office_name": null,
    "office_name_kana": null
  },
  "0087": {
    "postcode": "5810087",
    "prefecture": "大阪府",
    "prefecture_kana": "オオサカフ",
    "prefecture_code": 27,
    "city": "八尾市",
    "city_kana": "ヤオシ",
    "town": "明美町",
    "town_kana": "アケミチョウ",
    "street": null,
    "office_name": null,
    "office_name_kana": null
  },
  "0088": {
    "postcode": "5810088",
    "prefecture": "大阪府",
    "prefecture_kana": "オオサカフ",
    "prefecture_code": 27,
    "city": "八尾市",
    "city_kana": "ヤオシ",
    "town": "松山町",
    "town_kana": "マツヤマチョウ",
    "street": null,
    "office_name": null,
    "office_name_kana": null
  },
  "0091": {
    "postcode": "5810091",
    "prefecture": "大阪府",
    "prefecture_kana": "オオサカフ",
    "prefecture_code": 27,
    "city": "八尾市",
    "city_kana": "ヤオシ",
    "town": "南植松町",
    "town_kana": "ミナミウエマツチョウ",
    "street": null,
    "office_name": null,
    "office_name_kana": null
  },
  "0092": {
    "postcode": "5810092",
    "prefecture": "大阪府",
    "prefecture_kana": "オオサカフ",
    "prefecture_code": 27,
    "city": "八尾市",
    "city_kana": "ヤオシ",
    "town": "老原",
    "town_kana": "オイハラ",
    "street": null,
    "office_name": null,
    "office_name_kana": null
  },
  "0093": {
    "postcode": "5810093",
    "prefecture": "大阪府",
    "prefecture_kana": "オオサカフ",
    "prefecture_code": 27,
    "city": "八尾市",
    "city_kana": "ヤオシ",
    "town": "東老原",
    "town_kana": "ヒガシオイハラ",
    "street": null,
    "office_name": null,
    "office_name_kana": null
  },
  "0094": {
    "postcode": "5810094",
    "prefecture": "大阪府",
    "prefecture_kana": "オオサカフ",
    "prefecture_code": 27,
    "city": "八尾市",
    "city_kana": "ヤオシ",
    "town": "志紀町西",
    "town_kana": "シキチョウニシ",
    "street": null,
    "office_name": null,
    "office_name_kana": null
  },
  "0095": {
    "postcode": "5810095",
    "prefecture": "大阪府",
    "prefecture_kana": "オオサカフ",
    "prefecture_code": 27,
    "city": "八尾市",
    "city_kana": "ヤオシ",
    "town": "田井中",
    "town_kana": "タイナカ",
    "street": null,
    "office_name": null,
    "office_name_kana": null
  },
  "0801": {
    "postcode": "5810801",
    "prefecture": "大阪府",
    "prefecture_kana": "オオサカフ",
    "prefecture_code": 27,
    "city": "八尾市",
    "city_kana": "ヤオシ",
    "town": "山城町",
    "town_kana": "ヤマシロチョウ",
    "street": null,
    "office_name": null,
    "office_name_kana": null
  },
  "0802": {
    "postcode": "5810802",
    "prefecture": "大阪府",
    "prefecture_kana": "オオサカフ",
    "prefecture_code": 27,
    "city": "八尾市",
    "city_kana": "ヤオシ",
    "town": "北本町",
    "town_kana": "キタホンマチ",
    "street": null,
    "office_name": null,
    "office_name_kana": null
  },
  "0803": {
    "postcode": "5810803",
    "prefecture": "大阪府",
    "prefecture_kana": "オオサカフ",
    "prefecture_code": 27,
    "city": "八尾市",
    "city_kana": "ヤオシ",
    "town": "光町",
    "town_kana": "ヒカリチョウ",
    "street": null,
    "office_name": null,
    "office_name_kana": null
  },
  "0811": {
    "postcode": "5810811",
    "prefecture": "大阪府",
    "prefecture_kana": "オオサカフ",
    "prefecture_code": 27,
    "city": "八尾市",
    "city_kana": "ヤオシ",
    "town": "新家町",
    "town_kana": "シンケチョウ",
    "street": null,
    "office_name": null,
    "office_name_kana": null
  },
  "0812": {
    "postcode": "5810812",
    "prefecture": "大阪府",
    "prefecture_kana": "オオサカフ",
    "prefecture_code": 27,
    "city": "八尾市",
    "city_kana": "ヤオシ",
    "town": "山賀町",
    "town_kana": "ヤマガチョウ",
    "street": null,
    "office_name": null,
    "office_name_kana": null
  },
  "0813": {
    "postcode": "5810813",
    "prefecture": "大阪府",
    "prefecture_kana": "オオサカフ",
    "prefecture_code": 27,
    "city": "八尾市",
    "city_kana": "ヤオシ",
    "town": "泉町",
    "town_kana": "イズミチョウ",
    "street": null,
    "office_name": null,
    "office_name_kana": null
  },
  "0814": {
    "postcode": "5810814",
    "prefecture": "大阪府",
    "prefecture_kana": "オオサカフ",
    "prefecture_code": 27,
    "city": "八尾市",
    "city_kana": "ヤオシ",
    "town": "楠根町",
    "town_kana": "クスネチョウ",
    "street": null,
    "office_name": null,
    "office_name_kana": null
  },
  "0815": {
    "postcode": "5810815",
    "prefecture": "大阪府",
    "prefecture_kana": "オオサカフ",
    "prefecture_code": 27,
    "city": "八尾市",
    "city_kana": "ヤオシ",
    "town": "宮町",
    "town_kana": "ミヤマチ",
    "street": null,
    "office_name": null,
    "office_name_kana": null
  },
  "0816": {
    "postcode": "5810816",
    "prefecture": "大阪府",
    "prefecture_kana": "オオサカフ",
    "prefecture_code": 27,
    "city": "八尾市",
    "city_kana": "ヤオシ",
    "town": "佐堂町",
    "town_kana": "サドウチョウ",
    "street": null,
    "office_name": null,
    "office_name_kana": null
  },
  "0817": {
    "postcode": "5810817",
    "prefecture": "大阪府",
    "prefecture_kana": "オオサカフ",
    "prefecture_code": 27,
    "city": "八尾市",
    "city_kana": "ヤオシ",
    "town": "久宝園",
    "town_kana": "キュウホウエン",
    "street": null,
    "office_name": null,
    "office_name_kana": null
  },
  "0818": {
    "postcode": "5810818",
    "prefecture": "大阪府",
    "prefecture_kana": "オオサカフ",
    "prefecture_code": 27,
    "city": "八尾市",
    "city_kana": "ヤオシ",
    "town": "美園町",
    "town_kana": "ミソノチョウ",
    "street": null,
    "office_name": null,
    "office_name_kana": null
  },
  "0821": {
    "postcode": "5810821",
    "prefecture": "大阪府",
    "prefecture_kana": "オオサカフ",
    "prefecture_code": 27,
    "city": "八尾市",
    "city_kana": "ヤオシ",
    "town": "幸町",
    "town_kana": "サイワイチョウ",
    "street": null,
    "office_name": null,
    "office_name_kana": null
  },
  "0822": {
    "postcode": "5810822",
    "prefecture": "大阪府",
    "prefecture_kana": "オオサカフ",
    "prefecture_code": 27,
    "city": "八尾市",
    "city_kana": "ヤオシ",
    "town": "高砂町",
    "town_kana": "タカサゴチョウ",
    "street": null,
    "office_name": null,
    "office_name_kana": null
  },
  "0823": {
    "postcode": "5810823",
    "prefecture": "大阪府",
    "prefecture_kana": "オオサカフ",
    "prefecture_code": 27,
    "city": "八尾市",
    "city_kana": "ヤオシ",
    "town": "桂町",
    "town_kana": "カツラチョウ",
    "street": null,
    "office_name": null,
    "office_name_kana": null
  },
  "0831": {
    "postcode": "5810831",
    "prefecture": "大阪府",
    "prefecture_kana": "オオサカフ",
    "prefecture_code": 27,
    "city": "八尾市",
    "city_kana": "ヤオシ",
    "town": "山本町北",
    "town_kana": "ヤマモトチョウキタ",
    "street": null,
    "office_name": null,
    "office_name_kana": null
  },
  "0832": {
    "postcode": "5810832",
    "prefecture": "大阪府",
    "prefecture_kana": "オオサカフ",
    "prefecture_code": 27,
    "city": "八尾市",
    "city_kana": "ヤオシ",
    "town": "堤町",
    "town_kana": "ツツミチョウ",
    "street": null,
    "office_name": null,
    "office_name_kana": null
  },
  "0833": {
    "postcode": "5810833",
    "prefecture": "大阪府",
    "prefecture_kana": "オオサカフ",
    "prefecture_code": 27,
    "city": "八尾市",
    "city_kana": "ヤオシ",
    "town": "旭ケ丘",
    "town_kana": "アサヒガオカ",
    "street": null,
    "office_name": null,
    "office_name_kana": null
  },
  "0834": {
    "postcode": "5810834",
    "prefecture": "大阪府",
    "prefecture_kana": "オオサカフ",
    "prefecture_code": 27,
    "city": "八尾市",
    "city_kana": "ヤオシ",
    "town": "萱振町",
    "town_kana": "カヤフリチョウ",
    "street": null,
    "office_name": null,
    "office_name_kana": null
  },
  "0835": {
    "postcode": "5810835",
    "prefecture": "大阪府",
    "prefecture_kana": "オオサカフ",
    "prefecture_code": 27,
    "city": "八尾市",
    "city_kana": "ヤオシ",
    "town": "小畑町",
    "town_kana": "コハタチョウ",
    "street": null,
    "office_name": null,
    "office_name_kana": null
  },
  "0836": {
    "postcode": "5810836",
    "prefecture": "大阪府",
    "prefecture_kana": "オオサカフ",
    "prefecture_code": 27,
    "city": "八尾市",
    "city_kana": "ヤオシ",
    "town": "長池町",
    "town_kana": "ナガイケチョウ",
    "street": null,
    "office_name": null,
    "office_name_kana": null
  },
  "0837": {
    "postcode": "5810837",
    "prefecture": "大阪府",
    "prefecture_kana": "オオサカフ",
    "prefecture_code": 27,
    "city": "八尾市",
    "city_kana": "ヤオシ",
    "town": "緑ケ丘",
    "town_kana": "ミドリガオカ",
    "street": null,
    "office_name": null,
    "office_name_kana": null
  },
  "0841": {
    "postcode": "5810841",
    "prefecture": "大阪府",
    "prefecture_kana": "オオサカフ",
    "prefecture_code": 27,
    "city": "八尾市",
    "city_kana": "ヤオシ",
    "town": "福万寺町北",
    "town_kana": "フクマンジチョウキタ",
    "street": null,
    "office_name": null,
    "office_name_kana": null
  },
  "0842": {
    "postcode": "5810842",
    "prefecture": "大阪府",
    "prefecture_kana": "オオサカフ",
    "prefecture_code": 27,
    "city": "八尾市",
    "city_kana": "ヤオシ",
    "town": "福万寺町",
    "town_kana": "フクマンジチョウ",
    "street": null,
    "office_name": null,
    "office_name_kana": null
  },
  "0843": {
    "postcode": "5810843",
    "prefecture": "大阪府",
    "prefecture_kana": "オオサカフ",
    "prefecture_code": 27,
    "city": "八尾市",
    "city_kana": "ヤオシ",
    "town": "福万寺町南",
    "town_kana": "フクマンジチョウミナミ",
    "street": null,
    "office_name": null,
    "office_name_kana": null
  },
  "0844": {
    "postcode": "5810844",
    "prefecture": "大阪府",
    "prefecture_kana": "オオサカフ",
    "prefecture_code": 27,
    "city": "八尾市",
    "city_kana": "ヤオシ",
    "town": "福栄町",
    "town_kana": "フクエイチョウ",
    "street": null,
    "office_name": null,
    "office_name_kana": null
  },
  "0845": {
    "postcode": "5810845",
    "prefecture": "大阪府",
    "prefecture_kana": "オオサカフ",
    "prefecture_code": 27,
    "city": "八尾市",
    "city_kana": "ヤオシ",
    "town": "上之島町北",
    "town_kana": "カミノシマチョウキタ",
    "street": null,
    "office_name": null,
    "office_name_kana": null
  },
  "0846": {
    "postcode": "5810846",
    "prefecture": "大阪府",
    "prefecture_kana": "オオサカフ",
    "prefecture_code": 27,
    "city": "八尾市",
    "city_kana": "ヤオシ",
    "town": "上之島町南",
    "town_kana": "カミノシマチョウミナミ",
    "street": null,
    "office_name": null,
    "office_name_kana": null
  },
  "0847": {
    "postcode": "5810847",
    "prefecture": "大阪府",
    "prefecture_kana": "オオサカフ",
    "prefecture_code": 27,
    "city": "八尾市",
    "city_kana": "ヤオシ",
    "town": "東山本町",
    "town_kana": "ヒガシヤマモトチョウ",
    "street": null,
    "office_name": null,
    "office_name_kana": null
  },
  "0851": {
    "postcode": "5810851",
    "prefecture": "大阪府",
    "prefecture_kana": "オオサカフ",
    "prefecture_code": 27,
    "city": "八尾市",
    "city_kana": "ヤオシ",
    "town": "上尾町",
    "town_kana": "カミオチョウ",
    "street": null,
    "office_name": null,
    "office_name_kana": null
  },
  "0852": {
    "postcode": "5810852",
    "prefecture": "大阪府",
    "prefecture_kana": "オオサカフ",
    "prefecture_code": 27,
    "city": "八尾市",
    "city_kana": "ヤオシ",
    "town": "西高安町",
    "town_kana": "ニシタカヤスチョウ",
    "street": null,
    "office_name": null,
    "office_name_kana": null
  },
  "0853": {
    "postcode": "5810853",
    "prefecture": "大阪府",
    "prefecture_kana": "オオサカフ",
    "prefecture_code": 27,
    "city": "八尾市",
    "city_kana": "ヤオシ",
    "town": "楽音寺",
    "town_kana": "ガクオンジ",
    "street": null,
    "office_name": null,
    "office_name_kana": null
  },
  "0854": {
    "postcode": "5810854",
    "prefecture": "大阪府",
    "prefecture_kana": "オオサカフ",
    "prefecture_code": 27,
    "city": "八尾市",
    "city_kana": "ヤオシ",
    "town": "大竹",
    "town_kana": "オオタケ",
    "street": null,
    "office_name": null,
    "office_name_kana": null
  },
  "0855": {
    "postcode": "5810855",
    "prefecture": "大阪府",
    "prefecture_kana": "オオサカフ",
    "prefecture_code": 27,
    "city": "八尾市",
    "city_kana": "ヤオシ",
    "town": "神立",
    "town_kana": "コウダチ",
    "street": null,
    "office_name": null,
    "office_name_kana": null
  },
  "0856": {
    "postcode": "5810856",
    "prefecture": "大阪府",
    "prefecture_kana": "オオサカフ",
    "prefecture_code": 27,
    "city": "八尾市",
    "city_kana": "ヤオシ",
    "town": "水越",
    "town_kana": "ミズコシ",
    "street": null,
    "office_name": null,
    "office_name_kana": null
  },
  "0861": {
    "postcode": "5810861",
    "prefecture": "大阪府",
    "prefecture_kana": "オオサカフ",
    "prefecture_code": 27,
    "city": "八尾市",
    "city_kana": "ヤオシ",
    "town": "東町",
    "town_kana": "ヒガシマチ",
    "street": null,
    "office_name": null,
    "office_name_kana": null
  },
  "0862": {
    "postcode": "5810862",
    "prefecture": "大阪府",
    "prefecture_kana": "オオサカフ",
    "prefecture_code": 27,
    "city": "八尾市",
    "city_kana": "ヤオシ",
    "town": "千塚",
    "town_kana": "チヅカ",
    "street": null,
    "office_name": null,
    "office_name_kana": null
  },
  "0863": {
    "postcode": "5810863",
    "prefecture": "大阪府",
    "prefecture_kana": "オオサカフ",
    "prefecture_code": 27,
    "city": "八尾市",
    "city_kana": "ヤオシ",
    "town": "大窪",
    "town_kana": "オオクボ",
    "street": null,
    "office_name": null,
    "office_name_kana": null
  },
  "0864": {
    "postcode": "5810864",
    "prefecture": "大阪府",
    "prefecture_kana": "オオサカフ",
    "prefecture_code": 27,
    "city": "八尾市",
    "city_kana": "ヤオシ",
    "town": "山畑",
    "town_kana": "ヤマタケ",
    "street": null,
    "office_name": null,
    "office_name_kana": null
  },
  "0865": {
    "postcode": "5810865",
    "prefecture": "大阪府",
    "prefecture_kana": "オオサカフ",
    "prefecture_code": 27,
    "city": "八尾市",
    "city_kana": "ヤオシ",
    "town": "服部川",
    "town_kana": "ハットリガワ",
    "street": null,
    "office_name": null,
    "office_name_kana": null
  },
  "0866": {
    "postcode": "5810866",
    "prefecture": "大阪府",
    "prefecture_kana": "オオサカフ",
    "prefecture_code": 27,
    "city": "八尾市",
    "city_kana": "ヤオシ",
    "town": "東山本新町",
    "town_kana": "ヒガシヤマモトシンマチ",
    "street": null,
    "office_name": null,
    "office_name_kana": null
  },
  "0867": {
    "postcode": "5810867",
    "prefecture": "大阪府",
    "prefecture_kana": "オオサカフ",
    "prefecture_code": 27,
    "city": "八尾市",
    "city_kana": "ヤオシ",
    "town": "山本町",
    "town_kana": "ヤマモトチョウ",
    "street": null,
    "office_name": null,
    "office_name_kana": null
  },
  "0868": {
    "postcode": "5810868",
    "prefecture": "大阪府",
    "prefecture_kana": "オオサカフ",
    "prefecture_code": 27,
    "city": "八尾市",
    "city_kana": "ヤオシ",
    "town": "西山本町",
    "town_kana": "ニシヤマモトチョウ",
    "street": null,
    "office_name": null,
    "office_name_kana": null
  },
  "0869": {
    "postcode": "5810869",
    "prefecture": "大阪府",
    "prefecture_kana": "オオサカフ",
    "prefecture_code": 27,
    "city": "八尾市",
    "city_kana": "ヤオシ",
    "town": "桜ケ丘",
    "town_kana": "サクラガオカ",
    "street": null,
    "office_name": null,
    "office_name_kana": null
  },
  "0871": {
    "postcode": "5810871",
    "prefecture": "大阪府",
    "prefecture_kana": "オオサカフ",
    "prefecture_code": 27,
    "city": "八尾市",
    "city_kana": "ヤオシ",
    "town": "高安町北",
    "town_kana": "タカヤスチョウキタ",
    "street": null,
    "office_name": null,
    "office_name_kana": null
  },
  "0872": {
    "postcode": "5810872",
    "prefecture": "大阪府",
    "prefecture_kana": "オオサカフ",
    "prefecture_code": 27,
    "city": "八尾市",
    "city_kana": "ヤオシ",
    "town": "郡川",
    "town_kana": "コオリガワ",
    "street": null,
    "office_name": null,
    "office_name_kana": null
  },
  "0873": {
    "postcode": "5810873",
    "prefecture": "大阪府",
    "prefecture_kana": "オオサカフ",
    "prefecture_code": 27,
    "city": "八尾市",
    "city_kana": "ヤオシ",
    "town": "黒谷",
    "town_kana": "クロダニ",
    "street": null,
    "office_name": null,
    "office_name_kana": null
  },
  "0874": {
    "postcode": "5810874",
    "prefecture": "大阪府",
    "prefecture_kana": "オオサカフ",
    "prefecture_code": 27,
    "city": "八尾市",
    "city_kana": "ヤオシ",
    "town": "教興寺",
    "town_kana": "キョウコウジ",
    "street": null,
    "office_name": null,
    "office_name_kana": null
  },
  "0875": {
    "postcode": "5810875",
    "prefecture": "大阪府",
    "prefecture_kana": "オオサカフ",
    "prefecture_code": 27,
    "city": "八尾市",
    "city_kana": "ヤオシ",
    "town": "高安町南",
    "town_kana": "タカヤスチョウミナミ",
    "street": null,
    "office_name": null,
    "office_name_kana": null
  },
  "0881": {
    "postcode": "5810881",
    "prefecture": "大阪府",
    "prefecture_kana": "オオサカフ",
    "prefecture_code": 27,
    "city": "八尾市",
    "city_kana": "ヤオシ",
    "town": "垣内",
    "town_kana": "カイチ",
    "street": null,
    "office_name": null,
    "office_name_kana": null
  },
  "0882": {
    "postcode": "5810882",
    "prefecture": "大阪府",
    "prefecture_kana": "オオサカフ",
    "prefecture_code": 27,
    "city": "八尾市",
    "city_kana": "ヤオシ",
    "town": "恩智北町",
    "town_kana": "オンヂキタマチ",
    "street": null,
    "office_name": null,
    "office_name_kana": null
  },
  "0883": {
    "postcode": "5810883",
    "prefecture": "大阪府",
    "prefecture_kana": "オオサカフ",
    "prefecture_code": 27,
    "city": "八尾市",
    "city_kana": "ヤオシ",
    "town": "恩智中町",
    "town_kana": "オンヂナカマチ",
    "street": null,
    "office_name": null,
    "office_name_kana": null
  },
  "0884": {
    "postcode": "5810884",
    "prefecture": "大阪府",
    "prefecture_kana": "オオサカフ",
    "prefecture_code": 27,
    "city": "八尾市",
    "city_kana": "ヤオシ",
    "town": "恩智南町",
    "town_kana": "オンヂミナミマチ",
    "street": null,
    "office_name": null,
    "office_name_kana": null
  },
  "0885": {
    "postcode": "5810885",
    "prefecture": "大阪府",
    "prefecture_kana": "オオサカフ",
    "prefecture_code": 27,
    "city": "八尾市",
    "city_kana": "ヤオシ",
    "town": "神宮寺",
    "town_kana": "ジングウジ",
    "street": null,
    "office_name": null,
    "office_name_kana": null
  },
  "8502": {
    "postcode": "5818502",
    "prefecture": "大阪府",
    "prefecture_kana": "オオサカフ",
    "prefecture_code": 27,
    "city": "八尾市",
    "city_kana": "ヤオシ",
    "town": "郡川",
    "town_kana": "コオリガワ",
    "street": "一丁目５５７ＧＬＰ八尾Ⅰ",
    "office_name": "ＪＰ楽天ロジスティクス　株式会社　楽天フルフィルメントセンター八尾",
    "office_name_kana": "ジエイピ-ラクテンロジステイクス カブシキガイシヤ ラクテンフルフイルメントセンタ-ヤオ"
  },
  "8505": {
    "postcode": "5818505",
    "prefecture": "大阪府",
    "prefecture_kana": "オオサカフ",
    "prefecture_code": 27,
    "city": "八尾市",
    "city_kana": "ヤオシ",
    "town": "若林町",
    "town_kana": "ワカバヤシチョウ",
    "street": "１丁目７６−２",
    "office_name": "三起商行　株式会社",
    "office_name_kana": "ミキシヨウコウ カブシキガイシヤ"
  },
  "8511": {
    "postcode": "5818511",
    "prefecture": "大阪府",
    "prefecture_kana": "オオサカフ",
    "prefecture_code": 27,
    "city": "八尾市",
    "city_kana": "ヤオシ",
    "town": "楽音寺",
    "town_kana": "ガクオンジ",
    "street": "６−１０",
    "office_name": "大阪経済法科大学",
    "office_name_kana": "オオサカケイザイホウカダイガク"
  },
  "8539": {
    "postcode": "5818539",
    "prefecture": "大阪府",
    "prefecture_kana": "オオサカフ",
    "prefecture_code": 27,
    "city": "八尾市",
    "city_kana": "ヤオシ",
    "town": "若林町",
    "town_kana": "ワカバヤシチョウ",
    "street": "２丁目１１９",
    "office_name": "（株）　ヤラカス舘　プロダクトセンター",
    "office_name_kana": "カブシキガイシヤ ヤラカスカン プロダクトセンタ-"
  },
  "8555": {
    "postcode": "5818555",
    "prefecture": "大阪府",
    "prefecture_kana": "オオサカフ",
    "prefecture_code": 27,
    "city": "八尾市",
    "city_kana": "ヤオシ",
    "town": "高美町",
    "town_kana": "タカミチョウ",
    "street": "３丁目２番２９号",
    "office_name": "八尾税務署",
    "office_name_kana": "ヤオゼイムシヨ"
  },
  "8558": {
    "postcode": "5818558",
    "prefecture": "大阪府",
    "prefecture_kana": "オオサカフ",
    "prefecture_code": 27,
    "city": "八尾市",
    "city_kana": "ヤオシ",
    "town": "若林町",
    "town_kana": "ワカバヤシチョウ",
    "street": "１丁目７６−２",
    "office_name": "株式会社　ミキハウス",
    "office_name_kana": "カブシキガイシヤ ミキハウス"
  },
  "8585": {
    "postcode": "5818585",
    "prefecture": "大阪府",
    "prefecture_kana": "オオサカフ",
    "prefecture_code": 27,
    "city": "八尾市",
    "city_kana": "ヤオシ",
    "town": "北亀井町",
    "town_kana": "キタカメイチョウ",
    "street": "３丁目１番７２号",
    "office_name": "シャープ　株式会社　Ｓｍａｒｔ　Ａｐｐｌｉａｎｃｅｓ＆Ｓｏｌｕｔｉｏｎｓ事業本部",
    "office_name_kana": "シヤ-プ カブシキガイシヤ スマ-トアプライアンスアンドソリユ-シヨンジギヨウホンブ"
  },
  "8686": {
    "postcode": "5818686",
    "prefecture": "大阪府",
    "prefecture_kana": "オオサカフ",
    "prefecture_code": 27,
    "city": "八尾市",
    "city_kana": "ヤオシ",
    "town": "神武町",
    "town_kana": "ジンムチョウ",
    "street": "２番３５号",
    "office_name": "株式会社　クボタ　久宝寺事業センター",
    "office_name_kana": "カブシキカイシヤ クボタ キユウホウジジギヨウセンタ-"
  }
}