{
  "0000": {
    "postcode": "5820000",
    "prefecture": "大阪府",
    "prefecture_kana": "オオサカフ",
    "prefecture_code": 27,
    "city": "柏原市",
    "city_kana": "カシワラシ",
    "town": "",
    "town_kana": "",
    "street": null,
    "office_name": null,
    "office_name_kana": null
  },
  "0001": {
    "postcode": "5820001",
    "prefecture": "大阪府",
    "prefecture_kana": "オオサカフ",
    "prefecture_code": 27,
    "city": "柏原市",
    "city_kana": "カシワラシ",
    "town": "本郷",
    "town_kana": "ホンゴウ",
    "street": null,
    "office_name": null,
    "office_name_kana": null
  },
  "0002": {
    "postcode": "5820002",
    "prefecture": "大阪府",
    "prefecture_kana": "オオサカフ",
    "prefecture_code": 27,
    "city": "柏原市",
    "city_kana": "カシワラシ",
    "town": "今町",
    "town_kana": "イママチ",
    "street": null,
    "office_name": null,
    "office_name_kana": null
  },
  "0003": {
    "postcode": "5820003",
    "prefecture": "大阪府",
    "prefecture_kana": "オオサカフ",
    "prefecture_code": 27,
    "city": "柏原市",
    "city_kana": "カシワラシ",
    "town": "堂島町",
    "town_kana": "ドウジマチョウ",
    "street": null,
    "office_name": null,
    "office_name_kana": null
  },
  "0004": {
    "postcode": "5820004",
    "prefecture": "大阪府",
    "prefecture_kana": "オオサカフ",
    "prefecture_code": 27,
    "city": "柏原市",
    "city_kana": "カシワラシ",
    "town": "河原町",
    "town_kana": "カワハラチョウ",
    "street": null,
    "office_name": null,
    "office_name_kana": null
  },
  "0005": {
    "postcode": "5820005",
    "prefecture": "大阪府",
    "prefecture_kana": "オオサカフ",
    "prefecture_code": 27,
    "city": "柏原市",
    "city_kana": "カシワラシ",
    "town": "法善寺",
    "town_kana": "ホウゼンジ",
    "street": null,
    "office_name": null,
    "office_name_kana": null
  },
  "0006": {
    "postcode": "5820006",
    "prefecture": "大阪府",
    "prefecture_kana": "オオサカフ",
    "prefecture_code": 27,
    "city": "柏原市",
    "city_kana": "カシワラシ",
    "town": "清州",
    "town_kana": "キヨス",
    "street": null,
    "office_name": null,
    "office_name_kana": null
  },
  "0007": {
    "postcode": "5820007",
    "prefecture": "大阪府",
    "prefecture_kana": "オオサカフ",
    "prefecture_code": 27,
    "city": "柏原市",
    "city_kana": "カシワラシ",
    "town": "上市",
    "town_kana": "カミイチ",
    "street": null,
    "office_name": null,
    "office_name_kana": null
  },
  "0008": {
    "postcode": "5820008",
    "prefecture": "大阪府",
    "prefecture_kana": "オオサカフ",
    "prefecture_code": 27,
    "city": "柏原市",
    "city_kana": "カシワラシ",
    "town": "古町",
    "town_kana": "フルマチ",
    "street": null,
    "office_name": null,
    "office_name_kana": null
  },
  "0009": {
    "postcode": "5820009",
    "prefecture": "大阪府",
    "prefecture_kana": "オオサカフ",
    "prefecture_code": 27,
    "city": "柏原市",
    "city_kana": "カシワラシ",
    "town": "大正",
    "town_kana": "タイショウ",
    "street": null,
    "office_name": null,
    "office_name_kana": null
  },
  "0010": {
    "postcode": "5820010",
    "prefecture": "大阪府",
    "prefecture_kana": "オオサカフ",
    "prefecture_code": 27,
    "city": "柏原市",
    "city_kana": "カシワラシ",
    "town": "山ノ井町",
    "town_kana": "ヤマノイチョウ",
    "street": null,
    "office_name": null,
    "office_name_kana": null
  },
  "0011": {
    "postcode": "5820011",
    "prefecture": "大阪府",
    "prefecture_kana": "オオサカフ",
    "prefecture_code": 27,
    "city": "柏原市",
    "city_kana": "カシワラシ",
    "town": "本堂",
    "town_kana": "ホンドウ",
    "street": null,
    "office_name": null,
    "office_name_kana": null
  },
  "0012": {
    "postcode": "5820012",
    "prefecture": "大阪府",
    "prefecture_kana": "オオサカフ",
    "prefecture_code": 27,
    "city": "柏原市",
    "city_kana": "カシワラシ",
    "town": "雁多尾畑",
    "town_kana": "カリンドオバタ",
    "street": null,
    "office_name": null,
    "office_name_kana": null
  },
  "0013": {
    "postcode": "5820013",
    "prefecture": "大阪府",
    "prefecture_kana": "オオサカフ",
    "prefecture_code": 27,
    "city": "柏原市",
    "city_kana": "カシワラシ",
    "town": "峠",
    "town_kana": "トウゲ",
    "street": null,
    "office_name": null,
    "office_name_kana": null
  },
  "0014": {
    "postcode": "5820014",
    "prefecture": "大阪府",
    "prefecture_kana": "オオサカフ",
    "prefecture_code": 27,
    "city": "柏原市",
    "city_kana": "カシワラシ",
    "town": "青谷",
    "town_kana": "アオタニ",
    "street": null,
    "office_name": null,
    "office_name_kana": null
  },
  "0015": {
    "postcode": "5820015",
    "prefecture": "大阪府",
    "prefecture_kana": "オオサカフ",
    "prefecture_code": 27,
    "city": "柏原市",
    "city_kana": "カシワラシ",
    "town": "高井田",
    "town_kana": "タカイダ",
    "street": null,
    "office_name": null,
    "office_name_kana": null
  },
  "0016": {
    "postcode": "5820016",
    "prefecture": "大阪府",
    "prefecture_kana": "オオサカフ",
    "prefecture_code": 27,
    "city": "柏原市",
    "city_kana": "カシワラシ",
    "town": "安堂町",
    "town_kana": "アンドウチョウ",
    "street": null,
    "office_name": null,
    "office_name_kana": null
  },
  "0017": {
    "postcode": "5820017",
    "prefecture": "大阪府",
    "prefecture_kana": "オオサカフ",
    "prefecture_code": 27,
    "city": "柏原市",
    "city_kana": "カシワラシ",
    "town": "太平寺",
    "town_kana": "タイヘイジ",
    "street": null,
    "office_name": null,
    "office_name_kana": null
  },
  "0018": {
    "postcode": "5820018",
    "prefecture": "大阪府",
    "prefecture_kana": "オオサカフ",
    "prefecture_code": 27,
    "city": "柏原市",
    "city_kana": "カシワラシ",
    "town": "大県",
    "town_kana": "オオガタ",
    "street": null,
    "office_name": null,
    "office_name_kana": null
  },
  "0019": {
    "postcode": "5820019",
    "prefecture": "大阪府",
    "prefecture_kana": "オオサカフ",
    "prefecture_code": 27,
    "city": "柏原市",
    "city_kana": "カシワラシ",
    "town": "平野",
    "town_kana": "ヒラノ",
    "street": null,
    "office_name": null,
    "office_name_kana": null
  },
  "0020": {
    "postcode": "5820020",
    "prefecture": "大阪府",
    "prefecture_kana": "オオサカフ",
    "prefecture_code": 27,
    "city": "柏原市",
    "city_kana": "カシワラシ",
    "town": "片山町",
    "town_kana": "カタヤマチョウ",
    "street": null,
    "office_name": null,
    "office_name_kana": null
  },
  "0021": {
    "postcode": "5820021",
    "prefecture": "大阪府",
    "prefecture_kana": "オオサカフ",
    "prefecture_code": 27,
    "city": "柏原市",
    "city_kana": "カシワラシ",
    "town": "国分本町",
    "town_kana": "コクブホンマチ",
    "street": null,
    "office_name": null,
    "office_name_kana": null
  },
  "0022": {
    "postcode": "5820022",
    "prefecture": "大阪府",
    "prefecture_kana": "オオサカフ",
    "prefecture_code": 27,
    "city": "柏原市",
    "city_kana": "カシワラシ",
    "town": "国分市場",
    "town_kana": "コクブイチバ",
    "street": null,
    "office_name": null,
    "office_name_kana": null
  },
  "0023": {
    "postcode": "5820023",
    "prefecture": "大阪府",
    "prefecture_kana": "オオサカフ",
    "prefecture_code": 27,
    "city": "柏原市",
    "city_kana": "カシワラシ",
    "town": "国分東条町",
    "town_kana": "コクブヒガンジョウチョウ",
    "street": null,
    "office_name": null,
    "office_name_kana": null
  },
  "0024": {
    "postcode": "5820024",
    "prefecture": "大阪府",
    "prefecture_kana": "オオサカフ",
    "prefecture_code": 27,
    "city": "柏原市",
    "city_kana": "カシワラシ",
    "town": "田辺",
    "town_kana": "タナベ",
    "street": null,
    "office_name": null,
    "office_name_kana": null
  },
  "0025": {
    "postcode": "5820025",
    "prefecture": "大阪府",
    "prefecture_kana": "オオサカフ",
    "prefecture_code": 27,
    "city": "柏原市",
    "city_kana": "カシワラシ",
    "town": "国分西",
    "town_kana": "コクブニシ",
    "street": null,
    "office_name": null,
    "office_name_kana": null
  },
  "0026": {
    "postcode": "5820026",
    "prefecture": "大阪府",
    "prefecture_kana": "オオサカフ",
    "prefecture_code": 27,
    "city": "柏原市",
    "city_kana": "カシワラシ",
    "town": "旭ケ丘",
    "town_kana": "アサヒガオカ",
    "street": null,
    "office_name": null,
    "office_name_kana": null
  },
  "0027": {
    "postcode": "5820027",
    "prefecture": "大阪府",
    "prefecture_kana": "オオサカフ",
    "prefecture_code": 27,
    "city": "柏原市",
    "city_kana": "カシワラシ",
    "town": "円明町",
    "town_kana": "エンミョウチョウ",
    "street": null,
    "office_name": null,
    "office_name_kana": null
  },
  "0028": {
    "postcode": "5820028",
    "prefecture": "大阪府",
    "prefecture_kana": "オオサカフ",
    "prefecture_code": 27,
    "city": "柏原市",
    "city_kana": "カシワラシ",
    "town": "玉手町",
    "town_kana": "タマテチョウ",
    "street": null,
    "office_name": null,
    "office_name_kana": null
  },
  "0029": {
    "postcode": "5820029",
    "prefecture": "大阪府",
    "prefecture_kana": "オオサカフ",
    "prefecture_code": 27,
    "city": "柏原市",
    "city_kana": "カシワラシ",
    "town": "石川町",
    "town_kana": "イシカワチョウ",
    "street": null,
    "office_name": null,
    "office_name_kana": null
  },
  "8501": {
    "postcode": "5828501",
    "prefecture": "大阪府",
    "prefecture_kana": "オオサカフ",
    "prefecture_code": 27,
    "city": "柏原市",
    "city_kana": "カシワラシ",
    "town": "片山町",
    "town_kana": "カタヤマチョウ",
    "street": "１３−１３",
    "office_name": "パナソニックサイクルテック　株式会社",
    "office_name_kana": "パナソニツクサイクルテツク カブシキガイシヤ"
  },
  "8555": {
    "postcode": "5828555",
    "prefecture": "大阪府",
    "prefecture_kana": "オオサカフ",
    "prefecture_code": 27,
    "city": "柏原市",
    "city_kana": "カシワラシ",
    "town": "安堂町",
    "town_kana": "アンドウチョウ",
    "street": "１番５５号",
    "office_name": "柏原市役所",
    "office_name_kana": "カシワラシヤクシヨ"
  },
  "8582": {
    "postcode": "5828582",
    "prefecture": "大阪府",
    "prefecture_kana": "オオサカフ",
    "prefecture_code": 27,
    "city": "柏原市",
    "city_kana": "カシワラシ",
    "town": "旭ケ丘",
    "town_kana": "アサヒガオカ",
    "street": "４丁目６９８−１",
    "office_name": "大阪教育大学",
    "office_name_kana": "オオサカキヨウイクダイガク"
  },
  "8585": {
    "postcode": "5828585",
    "prefecture": "大阪府",
    "prefecture_kana": "オオサカフ",
    "prefecture_code": 27,
    "city": "柏原市",
    "city_kana": "カシワラシ",
    "town": "本郷",
    "town_kana": "ホンゴウ",
    "street": "５丁目９９３番地",
    "office_name": "東大阪大学柏原高等学校",
    "office_name_kana": "ヒガシオオサカダイガクカシワラコウトウガツコウ"
  },
  "8588": {
    "postcode": "5828588",
    "prefecture": "大阪府",
    "prefecture_kana": "オオサカフ",
    "prefecture_code": 27,
    "city": "柏原市",
    "city_kana": "カシワラシ",
    "town": "国分東条町",
    "town_kana": "コクブヒガンジョウチョウ",
    "street": "２４番１号",
    "office_name": "株式会社　ジェイテクト　国分工場",
    "office_name_kana": "カブシキガイシヤ ジエイテクト コクブコウジヨウ"
  }
}