{
  "0000": {
    "postcode": "5840000",
    "prefecture": "大阪府",
    "prefecture_kana": "オオサカフ",
    "prefecture_code": 27,
    "city": "富田林市",
    "city_kana": "トンダバヤシシ",
    "town": "",
    "town_kana": "",
    "street": null,
    "office_name": null,
    "office_name_kana": null
  },
  "0001": {
    "postcode": "5840001",
    "prefecture": "大阪府",
    "prefecture_kana": "オオサカフ",
    "prefecture_code": 27,
    "city": "富田林市",
    "city_kana": "トンダバヤシシ",
    "town": "梅の里",
    "town_kana": "ウメノサト",
    "street": null,
    "office_name": null,
    "office_name_kana": null
  },
  "0002": {
    "postcode": "5840002",
    "prefecture": "大阪府",
    "prefecture_kana": "オオサカフ",
    "prefecture_code": 27,
    "city": "富田林市",
    "city_kana": "トンダバヤシシ",
    "town": "平町",
    "town_kana": "ヒラチョウ",
    "street": null,
    "office_name": null,
    "office_name_kana": null
  },
  "0003": {
    "postcode": "5840003",
    "prefecture": "大阪府",
    "prefecture_kana": "オオサカフ",
    "prefecture_code": 27,
    "city": "富田林市",
    "city_kana": "トンダバヤシシ",
    "town": "喜志新家町",
    "town_kana": "キシシンケチョウ",
    "street": null,
    "office_name": null,
    "office_name_kana": null
  },
  "0004": {
    "postcode": "5840004",
    "prefecture": "大阪府",
    "prefecture_kana": "オオサカフ",
    "prefecture_code": 27,
    "city": "富田林市",
    "city_kana": "トンダバヤシシ",
    "town": "木戸山町",
    "town_kana": "キドヤマチョウ",
    "street": null,
    "office_name": null,
    "office_name_kana": null
  },
  "0005": {
    "postcode": "5840005",
    "prefecture": "大阪府",
    "prefecture_kana": "オオサカフ",
    "prefecture_code": 27,
    "city": "富田林市",
    "city_kana": "トンダバヤシシ",
    "town": "喜志町",
    "town_kana": "キシチョウ",
    "street": null,
    "office_name": null,
    "office_name_kana": null
  },
  "0006": {
    "postcode": "5840006",
    "prefecture": "大阪府",
    "prefecture_kana": "オオサカフ",
    "prefecture_code": 27,
    "city": "富田林市",
    "city_kana": "トンダバヤシシ",
    "town": "旭ケ丘町",
    "town_kana": "アサヒガオカチョウ",
    "street": null,
    "office_name": null,
    "office_name_kana": null
  },
  "0007": {
    "postcode": "5840007",
    "prefecture": "大阪府",
    "prefecture_kana": "オオサカフ",
    "prefecture_code": 27,
    "city": "富田林市",
    "city_kana": "トンダバヤシシ",
    "town": "南旭ケ丘町",
    "town_kana": "ミナミアサヒガオカチョウ",
    "street": null,
    "office_name": null,
    "office_name_kana": null
  },
  "0008": {
    "postcode": "5840008",
    "prefecture": "大阪府",
    "prefecture_kana": "オオサカフ",
    "prefecture_code": 27,
    "city": "富田林市",
    "city_kana": "トンダバヤシシ",
    "town": "喜志",
    "town_kana": "キシ",
    "street": null,
    "office_name": null,
    "office_name_kana": null
  },
  "0011": {
    "postcode": "5840011",
    "prefecture": "大阪府",
    "prefecture_kana": "オオサカフ",
    "prefecture_code": 27,
    "city": "富田林市",
    "city_kana": "トンダバヤシシ",
    "town": "宮町",
    "town_kana": "ミヤチョウ",
    "street": null,
    "office_name": null,
    "office_name_kana": null
  },
  "0012": {
    "postcode": "5840012",
    "prefecture": "大阪府",
    "prefecture_kana": "オオサカフ",
    "prefecture_code": 27,
    "city": "富田林市",
    "city_kana": "トンダバヤシシ",
    "town": "粟ケ池町",
    "town_kana": "アワガイケチョウ",
    "street": null,
    "office_name": null,
    "office_name_kana": null
  },
  "0013": {
    "postcode": "5840013",
    "prefecture": "大阪府",
    "prefecture_kana": "オオサカフ",
    "prefecture_code": 27,
    "city": "富田林市",
    "city_kana": "トンダバヤシシ",
    "town": "桜井町",
    "town_kana": "サクライチョウ",
    "street": null,
    "office_name": null,
    "office_name_kana": null
  },
  "0014": {
    "postcode": "5840014",
    "prefecture": "大阪府",
    "prefecture_kana": "オオサカフ",
    "prefecture_code": 27,
    "city": "富田林市",
    "city_kana": "トンダバヤシシ",
    "town": "川面町",
    "town_kana": "カワヅラチョウ",
    "street": null,
    "office_name": null,
    "office_name_kana": null
  },
  "0015": {
    "postcode": "5840015",
    "prefecture": "大阪府",
    "prefecture_kana": "オオサカフ",
    "prefecture_code": 27,
    "city": "富田林市",
    "city_kana": "トンダバヤシシ",
    "town": "西条町",
    "town_kana": "サイジョウチョウ",
    "street": null,
    "office_name": null,
    "office_name_kana": null
  },
  "0016": {
    "postcode": "5840016",
    "prefecture": "大阪府",
    "prefecture_kana": "オオサカフ",
    "prefecture_code": 27,
    "city": "富田林市",
    "city_kana": "トンダバヤシシ",
    "town": "通法寺町",
    "town_kana": "ツウホウジチョウ",
    "street": null,
    "office_name": null,
    "office_name_kana": null
  },
  "0021": {
    "postcode": "5840021",
    "prefecture": "大阪府",
    "prefecture_kana": "オオサカフ",
    "prefecture_code": 27,
    "city": "富田林市",
    "city_kana": "トンダバヤシシ",
    "town": "中野町",
    "town_kana": "ナカノチョウ",
    "street": null,
    "office_name": null,
    "office_name_kana": null
  },
  "0022": {
    "postcode": "5840022",
    "prefecture": "大阪府",
    "prefecture_kana": "オオサカフ",
    "prefecture_code": 27,
    "city": "富田林市",
    "city_kana": "トンダバヤシシ",
    "town": "中野町東",
    "town_kana": "ナカノチョウヒガシ",
    "street": null,
    "office_name": null,
    "office_name_kana": null
  },
  "0023": {
    "postcode": "5840023",
    "prefecture": "大阪府",
    "prefecture_kana": "オオサカフ",
    "prefecture_code": 27,
    "city": "富田林市",
    "city_kana": "トンダバヤシシ",
    "town": "若松町東",
    "town_kana": "ワカマツチョウヒガシ",
    "street": null,
    "office_name": null,
    "office_name_kana": null
  },
  "0024": {
    "postcode": "5840024",
    "prefecture": "大阪府",
    "prefecture_kana": "オオサカフ",
    "prefecture_code": 27,
    "city": "富田林市",
    "city_kana": "トンダバヤシシ",
    "town": "若松町",
    "town_kana": "ワカマツチョウ",
    "street": null,
    "office_name": null,
    "office_name_kana": null
  },
  "0025": {
    "postcode": "5840025",
    "prefecture": "大阪府",
    "prefecture_kana": "オオサカフ",
    "prefecture_code": 27,
    "city": "富田林市",
    "city_kana": "トンダバヤシシ",
    "town": "若松町西",
    "town_kana": "ワカマツチョウニシ",
    "street": null,
    "office_name": null,
    "office_name_kana": null
  },
  "0026": {
    "postcode": "5840026",
    "prefecture": "大阪府",
    "prefecture_kana": "オオサカフ",
    "prefecture_code": 27,
    "city": "富田林市",
    "city_kana": "トンダバヤシシ",
    "town": "緑ケ丘町",
    "town_kana": "ミドリガオカチョウ",
    "street": null,
    "office_name": null,
    "office_name_kana": null
  },
  "0027": {
    "postcode": "5840027",
    "prefecture": "大阪府",
    "prefecture_kana": "オオサカフ",
    "prefecture_code": 27,
    "city": "富田林市",
    "city_kana": "トンダバヤシシ",
    "town": "中野",
    "town_kana": "ナカノ",
    "street": null,
    "office_name": null,
    "office_name_kana": null
  },
  "0028": {
    "postcode": "5840028",
    "prefecture": "大阪府",
    "prefecture_kana": "オオサカフ",
    "prefecture_code": 27,
    "city": "富田林市",
    "city_kana": "トンダバヤシシ",
    "town": "中野町西",
    "town_kana": "ナカノチョウニシ",
    "street": null,
    "office_name": null,
    "office_name_kana": null
  },
  "0031": {
    "postcode": "5840031",
    "prefecture": "大阪府",
    "prefecture_kana": "オオサカフ",
    "prefecture_code": 27,
    "city": "富田林市",
    "city_kana": "トンダバヤシシ",
    "town": "寿町",
    "town_kana": "コトブキチョウ",
    "street": null,
    "office_name": null,
    "office_name_kana": null
  },
  "0032": {
    "postcode": "5840032",
    "prefecture": "大阪府",
    "prefecture_kana": "オオサカフ",
    "prefecture_code": 27,
    "city": "富田林市",
    "city_kana": "トンダバヤシシ",
    "town": "常盤町",
    "town_kana": "トキワチョウ",
    "street": null,
    "office_name": null,
    "office_name_kana": null
  },
  "0033": {
    "postcode": "5840033",
    "prefecture": "大阪府",
    "prefecture_kana": "オオサカフ",
    "prefecture_code": 27,
    "city": "富田林市",
    "city_kana": "トンダバヤシシ",
    "town": "富田林町",
    "town_kana": "トンダバヤシチョウ",
    "street": null,
    "office_name": null,
    "office_name_kana": null
  },
  "0034": {
    "postcode": "5840034",
    "prefecture": "大阪府",
    "prefecture_kana": "オオサカフ",
    "prefecture_code": 27,
    "city": "富田林市",
    "city_kana": "トンダバヤシシ",
    "town": "清水町",
    "town_kana": "シミズチョウ",
    "street": null,
    "office_name": null,
    "office_name_kana": null
  },
  "0035": {
    "postcode": "5840035",
    "prefecture": "大阪府",
    "prefecture_kana": "オオサカフ",
    "prefecture_code": 27,
    "city": "富田林市",
    "city_kana": "トンダバヤシシ",
    "town": "谷川町",
    "town_kana": "タニガワチョウ",
    "street": null,
    "office_name": null,
    "office_name_kana": null
  },
  "0036": {
    "postcode": "5840036",
    "prefecture": "大阪府",
    "prefecture_kana": "オオサカフ",
    "prefecture_code": 27,
    "city": "富田林市",
    "city_kana": "トンダバヤシシ",
    "town": "甲田",
    "town_kana": "コウダ",
    "street": null,
    "office_name": null,
    "office_name_kana": null
  },
  "0037": {
    "postcode": "5840037",
    "prefecture": "大阪府",
    "prefecture_kana": "オオサカフ",
    "prefecture_code": 27,
    "city": "富田林市",
    "city_kana": "トンダバヤシシ",
    "town": "宮甲田町",
    "town_kana": "ミヤコウダチョウ",
    "street": null,
    "office_name": null,
    "office_name_kana": null
  },
  "0038": {
    "postcode": "5840038",
    "prefecture": "大阪府",
    "prefecture_kana": "オオサカフ",
    "prefecture_code": 27,
    "city": "富田林市",
    "city_kana": "トンダバヤシシ",
    "town": "錦ケ丘町",
    "town_kana": "ニシキガオカチョウ",
    "street": null,
    "office_name": null,
    "office_name_kana": null
  },
  "0039": {
    "postcode": "5840039",
    "prefecture": "大阪府",
    "prefecture_kana": "オオサカフ",
    "prefecture_code": 27,
    "city": "富田林市",
    "city_kana": "トンダバヤシシ",
    "town": "美山台",
    "town_kana": "ミヤマダイ",
    "street": null,
    "office_name": null,
    "office_name_kana": null
  },
  "0040": {
    "postcode": "5840040",
    "prefecture": "大阪府",
    "prefecture_kana": "オオサカフ",
    "prefecture_code": 27,
    "city": "富田林市",
    "city_kana": "トンダバヤシシ",
    "town": "かがり台",
    "town_kana": "カガリダイ",
    "street": null,
    "office_name": null,
    "office_name_kana": null
  },
  "0041": {
    "postcode": "5840041",
    "prefecture": "大阪府",
    "prefecture_kana": "オオサカフ",
    "prefecture_code": 27,
    "city": "富田林市",
    "city_kana": "トンダバヤシシ",
    "town": "楠町",
    "town_kana": "クスノキチョウ",
    "street": null,
    "office_name": null,
    "office_name_kana": null
  },
  "0042": {
    "postcode": "5840042",
    "prefecture": "大阪府",
    "prefecture_kana": "オオサカフ",
    "prefecture_code": 27,
    "city": "富田林市",
    "city_kana": "トンダバヤシシ",
    "town": "北大伴町",
    "town_kana": "キタオオトモチョウ",
    "street": null,
    "office_name": null,
    "office_name_kana": null
  },
  "0043": {
    "postcode": "5840043",
    "prefecture": "大阪府",
    "prefecture_kana": "オオサカフ",
    "prefecture_code": 27,
    "city": "富田林市",
    "city_kana": "トンダバヤシシ",
    "town": "南大伴町",
    "town_kana": "ミナミオオトモチョウ",
    "street": null,
    "office_name": null,
    "office_name_kana": null
  },
  "0044": {
    "postcode": "5840044",
    "prefecture": "大阪府",
    "prefecture_kana": "オオサカフ",
    "prefecture_code": 27,
    "city": "富田林市",
    "city_kana": "トンダバヤシシ",
    "town": "別井",
    "town_kana": "ベツイ",
    "street": null,
    "office_name": null,
    "office_name_kana": null
  },
  "0045": {
    "postcode": "5840045",
    "prefecture": "大阪府",
    "prefecture_kana": "オオサカフ",
    "prefecture_code": 27,
    "city": "富田林市",
    "city_kana": "トンダバヤシシ",
    "town": "山中田町",
    "town_kana": "ヤマチュウダチョウ",
    "street": null,
    "office_name": null,
    "office_name_kana": null
  },
  "0046": {
    "postcode": "5840046",
    "prefecture": "大阪府",
    "prefecture_kana": "オオサカフ",
    "prefecture_code": 27,
    "city": "富田林市",
    "city_kana": "トンダバヤシシ",
    "town": "東板持町",
    "town_kana": "ヒガシイタモチチョウ",
    "street": null,
    "office_name": null,
    "office_name_kana": null
  },
  "0047": {
    "postcode": "5840047",
    "prefecture": "大阪府",
    "prefecture_kana": "オオサカフ",
    "prefecture_code": 27,
    "city": "富田林市",
    "city_kana": "トンダバヤシシ",
    "town": "山手町",
    "town_kana": "ヤマテチョウ",
    "street": null,
    "office_name": null,
    "office_name_kana": null
  },
  "0048": {
    "postcode": "5840048",
    "prefecture": "大阪府",
    "prefecture_kana": "オオサカフ",
    "prefecture_code": 27,
    "city": "富田林市",
    "city_kana": "トンダバヤシシ",
    "town": "西板持町",
    "town_kana": "ニシイタモチチョウ",
    "street": null,
    "office_name": null,
    "office_name_kana": null
  },
  "0049": {
    "postcode": "5840049",
    "prefecture": "大阪府",
    "prefecture_kana": "オオサカフ",
    "prefecture_code": 27,
    "city": "富田林市",
    "city_kana": "トンダバヤシシ",
    "town": "川向町",
    "town_kana": "カワムカイチョウ",
    "street": null,
    "office_name": null,
    "office_name_kana": null
  },
  "0051": {
    "postcode": "5840051",
    "prefecture": "大阪府",
    "prefecture_kana": "オオサカフ",
    "prefecture_code": 27,
    "city": "富田林市",
    "city_kana": "トンダバヤシシ",
    "town": "楠風台",
    "town_kana": "ナンプウダイ",
    "street": null,
    "office_name": null,
    "office_name_kana": null
  },
  "0052": {
    "postcode": "5840052",
    "prefecture": "大阪府",
    "prefecture_kana": "オオサカフ",
    "prefecture_code": 27,
    "city": "富田林市",
    "city_kana": "トンダバヤシシ",
    "town": "佐備",
    "town_kana": "サビ",
    "street": null,
    "office_name": null,
    "office_name_kana": null
  },
  "0053": {
    "postcode": "5840053",
    "prefecture": "大阪府",
    "prefecture_kana": "オオサカフ",
    "prefecture_code": 27,
    "city": "富田林市",
    "city_kana": "トンダバヤシシ",
    "town": "龍泉",
    "town_kana": "リュウセン",
    "street": null,
    "office_name": null,
    "office_name_kana": null
  },
  "0054": {
    "postcode": "5840054",
    "prefecture": "大阪府",
    "prefecture_kana": "オオサカフ",
    "prefecture_code": 27,
    "city": "富田林市",
    "city_kana": "トンダバヤシシ",
    "town": "甘南備",
    "town_kana": "カンナビ",
    "street": null,
    "office_name": null,
    "office_name_kana": null
  },
  "0055": {
    "postcode": "5840055",
    "prefecture": "大阪府",
    "prefecture_kana": "オオサカフ",
    "prefecture_code": 27,
    "city": "富田林市",
    "city_kana": "トンダバヤシシ",
    "town": "伏見堂",
    "town_kana": "フシミドウ",
    "street": null,
    "office_name": null,
    "office_name_kana": null
  },
  "0056": {
    "postcode": "5840056",
    "prefecture": "大阪府",
    "prefecture_kana": "オオサカフ",
    "prefecture_code": 27,
    "city": "富田林市",
    "city_kana": "トンダバヤシシ",
    "town": "嬉",
    "town_kana": "ウレシ",
    "street": null,
    "office_name": null,
    "office_name_kana": null
  },
  "0057": {
    "postcode": "5840057",
    "prefecture": "大阪府",
    "prefecture_kana": "オオサカフ",
    "prefecture_code": 27,
    "city": "富田林市",
    "city_kana": "トンダバヤシシ",
    "town": "横山",
    "town_kana": "ヨコヤマ",
    "street": null,
    "office_name": null,
    "office_name_kana": null
  },
  "0058": {
    "postcode": "5840058",
    "prefecture": "大阪府",
    "prefecture_kana": "オオサカフ",
    "prefecture_code": 27,
    "city": "富田林市",
    "city_kana": "トンダバヤシシ",
    "town": "彼方",
    "town_kana": "オチカタ",
    "street": null,
    "office_name": null,
    "office_name_kana": null
  },
  "0061": {
    "postcode": "5840061",
    "prefecture": "大阪府",
    "prefecture_kana": "オオサカフ",
    "prefecture_code": 27,
    "city": "富田林市",
    "city_kana": "トンダバヤシシ",
    "town": "伏山",
    "town_kana": "フシヤマ",
    "street": null,
    "office_name": null,
    "office_name_kana": null
  },
  "0062": {
    "postcode": "5840062",
    "prefecture": "大阪府",
    "prefecture_kana": "オオサカフ",
    "prefecture_code": 27,
    "city": "富田林市",
    "city_kana": "トンダバヤシシ",
    "town": "須賀",
    "town_kana": "スガ",
    "street": null,
    "office_name": null,
    "office_name_kana": null
  },
  "0063": {
    "postcode": "5840063",
    "prefecture": "大阪府",
    "prefecture_kana": "オオサカフ",
    "prefecture_code": 27,
    "city": "富田林市",
    "city_kana": "トンダバヤシシ",
    "town": "錦織",
    "town_kana": "ニシキオリ",
    "street": null,
    "office_name": null,
    "office_name_kana": null
  },
  "0064": {
    "postcode": "5840064",
    "prefecture": "大阪府",
    "prefecture_kana": "オオサカフ",
    "prefecture_code": 27,
    "city": "富田林市",
    "city_kana": "トンダバヤシシ",
    "town": "不動ケ丘町",
    "town_kana": "フドウガオカチョウ",
    "street": null,
    "office_name": null,
    "office_name_kana": null
  },
  "0065": {
    "postcode": "5840065",
    "prefecture": "大阪府",
    "prefecture_kana": "オオサカフ",
    "prefecture_code": 27,
    "city": "富田林市",
    "city_kana": "トンダバヤシシ",
    "town": "金剛伏山台",
    "town_kana": "コンゴウフシヤマダイ",
    "street": null,
    "office_name": null,
    "office_name_kana": null
  },
  "0066": {
    "postcode": "5840066",
    "prefecture": "大阪府",
    "prefecture_kana": "オオサカフ",
    "prefecture_code": 27,
    "city": "富田林市",
    "city_kana": "トンダバヤシシ",
    "town": "錦織北",
    "town_kana": "ニシキオリキタ",
    "street": null,
    "office_name": null,
    "office_name_kana": null
  },
  "0067": {
    "postcode": "5840067",
    "prefecture": "大阪府",
    "prefecture_kana": "オオサカフ",
    "prefecture_code": 27,
    "city": "富田林市",
    "city_kana": "トンダバヤシシ",
    "town": "錦織南",
    "town_kana": "ニシキオリミナミ",
    "street": null,
    "office_name": null,
    "office_name_kana": null
  },
  "0068": {
    "postcode": "5840068",
    "prefecture": "大阪府",
    "prefecture_kana": "オオサカフ",
    "prefecture_code": 27,
    "city": "富田林市",
    "city_kana": "トンダバヤシシ",
    "town": "錦織中",
    "town_kana": "ニシキオリナカ",
    "street": null,
    "office_name": null,
    "office_name_kana": null
  },
  "0069": {
    "postcode": "5840069",
    "prefecture": "大阪府",
    "prefecture_kana": "オオサカフ",
    "prefecture_code": 27,
    "city": "富田林市",
    "city_kana": "トンダバヤシシ",
    "town": "錦織東",
    "town_kana": "ニシキオリヒガシ",
    "street": null,
    "office_name": null,
    "office_name_kana": null
  },
  "0070": {
    "postcode": "5840070",
    "prefecture": "大阪府",
    "prefecture_kana": "オオサカフ",
    "prefecture_code": 27,
    "city": "富田林市",
    "city_kana": "トンダバヤシシ",
    "town": "金剛錦織台",
    "town_kana": "コンゴウニシキオリダイ",
    "street": null,
    "office_name": null,
    "office_name_kana": null
  },
  "0071": {
    "postcode": "5840071",
    "prefecture": "大阪府",
    "prefecture_kana": "オオサカフ",
    "prefecture_code": 27,
    "city": "富田林市",
    "city_kana": "トンダバヤシシ",
    "town": "藤沢台",
    "town_kana": "フジサワダイ",
    "street": null,
    "office_name": null,
    "office_name_kana": null
  },
  "0072": {
    "postcode": "5840072",
    "prefecture": "大阪府",
    "prefecture_kana": "オオサカフ",
    "prefecture_code": 27,
    "city": "富田林市",
    "city_kana": "トンダバヤシシ",
    "town": "高辺台",
    "town_kana": "タカベダイ",
    "street": null,
    "office_name": null,
    "office_name_kana": null
  },
  "0073": {
    "postcode": "5840073",
    "prefecture": "大阪府",
    "prefecture_kana": "オオサカフ",
    "prefecture_code": 27,
    "city": "富田林市",
    "city_kana": "トンダバヤシシ",
    "town": "寺池台",
    "town_kana": "テライケダイ",
    "street": null,
    "office_name": null,
    "office_name_kana": null
  },
  "0074": {
    "postcode": "5840074",
    "prefecture": "大阪府",
    "prefecture_kana": "オオサカフ",
    "prefecture_code": 27,
    "city": "富田林市",
    "city_kana": "トンダバヤシシ",
    "town": "久野喜台",
    "town_kana": "クノキダイ",
    "street": null,
    "office_name": null,
    "office_name_kana": null
  },
  "0076": {
    "postcode": "5840076",
    "prefecture": "大阪府",
    "prefecture_kana": "オオサカフ",
    "prefecture_code": 27,
    "city": "富田林市",
    "city_kana": "トンダバヤシシ",
    "town": "青葉丘",
    "town_kana": "アオバオカ",
    "street": null,
    "office_name": null,
    "office_name_kana": null
  },
  "0077": {
    "postcode": "5840077",
    "prefecture": "大阪府",
    "prefecture_kana": "オオサカフ",
    "prefecture_code": 27,
    "city": "富田林市",
    "city_kana": "トンダバヤシシ",
    "town": "新青葉丘町",
    "town_kana": "シンアオバオカチョウ",
    "street": null,
    "office_name": null,
    "office_name_kana": null
  },
  "0078": {
    "postcode": "5840078",
    "prefecture": "大阪府",
    "prefecture_kana": "オオサカフ",
    "prefecture_code": 27,
    "city": "富田林市",
    "city_kana": "トンダバヤシシ",
    "town": "加太",
    "town_kana": "カダ",
    "street": null,
    "office_name": null,
    "office_name_kana": null
  },
  "0079": {
    "postcode": "5840079",
    "prefecture": "大阪府",
    "prefecture_kana": "オオサカフ",
    "prefecture_code": 27,
    "city": "富田林市",
    "city_kana": "トンダバヤシシ",
    "town": "五軒家",
    "town_kana": "ゴケンヤ",
    "street": null,
    "office_name": null,
    "office_name_kana": null
  },
  "0081": {
    "postcode": "5840081",
    "prefecture": "大阪府",
    "prefecture_kana": "オオサカフ",
    "prefecture_code": 27,
    "city": "富田林市",
    "city_kana": "トンダバヤシシ",
    "town": "廿山",
    "town_kana": "ツヅヤマ",
    "street": null,
    "office_name": null,
    "office_name_kana": null
  },
  "0082": {
    "postcode": "5840082",
    "prefecture": "大阪府",
    "prefecture_kana": "オオサカフ",
    "prefecture_code": 27,
    "city": "富田林市",
    "city_kana": "トンダバヤシシ",
    "town": "向陽台",
    "town_kana": "コウヨウダイ",
    "street": null,
    "office_name": null,
    "office_name_kana": null
  },
  "0083": {
    "postcode": "5840083",
    "prefecture": "大阪府",
    "prefecture_kana": "オオサカフ",
    "prefecture_code": 27,
    "city": "富田林市",
    "city_kana": "トンダバヤシシ",
    "town": "小金台",
    "town_kana": "コガネダイ",
    "street": null,
    "office_name": null,
    "office_name_kana": null
  },
  "0084": {
    "postcode": "5840084",
    "prefecture": "大阪府",
    "prefecture_kana": "オオサカフ",
    "prefecture_code": 27,
    "city": "富田林市",
    "city_kana": "トンダバヤシシ",
    "town": "桜ケ丘町",
    "town_kana": "サクラガオカチョウ",
    "street": null,
    "office_name": null,
    "office_name_kana": null
  },
  "0085": {
    "postcode": "5840085",
    "prefecture": "大阪府",
    "prefecture_kana": "オオサカフ",
    "prefecture_code": 27,
    "city": "富田林市",
    "city_kana": "トンダバヤシシ",
    "town": "新家",
    "town_kana": "シンケ",
    "street": null,
    "office_name": null,
    "office_name_kana": null
  },
  "0086": {
    "postcode": "5840086",
    "prefecture": "大阪府",
    "prefecture_kana": "オオサカフ",
    "prefecture_code": 27,
    "city": "富田林市",
    "city_kana": "トンダバヤシシ",
    "town": "津々山台",
    "town_kana": "ツヅヤマダイ",
    "street": null,
    "office_name": null,
    "office_name_kana": null
  },
  "0091": {
    "postcode": "5840091",
    "prefecture": "大阪府",
    "prefecture_kana": "オオサカフ",
    "prefecture_code": 27,
    "city": "富田林市",
    "city_kana": "トンダバヤシシ",
    "town": "新堂",
    "town_kana": "シンドウ",
    "street": null,
    "office_name": null,
    "office_name_kana": null
  },
  "0092": {
    "postcode": "5840092",
    "prefecture": "大阪府",
    "prefecture_kana": "オオサカフ",
    "prefecture_code": 27,
    "city": "富田林市",
    "city_kana": "トンダバヤシシ",
    "town": "昭和町",
    "town_kana": "ショウワチョウ",
    "street": null,
    "office_name": null,
    "office_name_kana": null
  },
  "0093": {
    "postcode": "5840093",
    "prefecture": "大阪府",
    "prefecture_kana": "オオサカフ",
    "prefecture_code": 27,
    "city": "富田林市",
    "city_kana": "トンダバヤシシ",
    "town": "本町",
    "town_kana": "ホンマチ",
    "street": null,
    "office_name": null,
    "office_name_kana": null
  },
  "0094": {
    "postcode": "5840094",
    "prefecture": "大阪府",
    "prefecture_kana": "オオサカフ",
    "prefecture_code": 27,
    "city": "富田林市",
    "city_kana": "トンダバヤシシ",
    "town": "富美ケ丘町",
    "town_kana": "フミガオカチョウ",
    "street": null,
    "office_name": null,
    "office_name_kana": null
  },
  "0095": {
    "postcode": "5840095",
    "prefecture": "大阪府",
    "prefecture_kana": "オオサカフ",
    "prefecture_code": 27,
    "city": "富田林市",
    "city_kana": "トンダバヤシシ",
    "town": "毛人谷",
    "town_kana": "エビタニ",
    "street": null,
    "office_name": null,
    "office_name_kana": null
  },
  "8501": {
    "postcode": "5848501",
    "prefecture": "大阪府",
    "prefecture_kana": "オオサカフ",
    "prefecture_code": 27,
    "city": "富田林市",
    "city_kana": "トンダバヤシシ",
    "town": "若松町西",
    "town_kana": "ワカマツチョウニシ",
    "street": "２丁目１６９７番地１",
    "office_name": "富田林税務署",
    "office_name_kana": "トンダバヤシゼイムシヨ"
  },
  "8511": {
    "postcode": "5848511",
    "prefecture": "大阪府",
    "prefecture_kana": "オオサカフ",
    "prefecture_code": 27,
    "city": "富田林市",
    "city_kana": "トンダバヤシシ",
    "town": "常盤町",
    "town_kana": "トキワチョウ",
    "street": "１−１",
    "office_name": "富田林市役所",
    "office_name_kana": "トンダバヤシシヤクシヨ"
  },
  "8522": {
    "postcode": "5848522",
    "prefecture": "大阪府",
    "prefecture_kana": "オオサカフ",
    "prefecture_code": 27,
    "city": "富田林市",
    "city_kana": "トンダバヤシシ",
    "town": "錦織北",
    "town_kana": "ニシキオリキタ",
    "street": "３丁目１１番３１号",
    "office_name": "大阪大谷短期大学",
    "office_name_kana": "オオサカオオタニタンキダイガク"
  },
  "8531": {
    "postcode": "5848531",
    "prefecture": "大阪府",
    "prefecture_kana": "オオサカフ",
    "prefecture_code": 27,
    "city": "富田林市",
    "city_kana": "トンダバヤシシ",
    "town": "寿町",
    "town_kana": "コトブキチョウ",
    "street": "２丁目６番１号",
    "office_name": "大阪府　南河内府税事務所",
    "office_name_kana": "オオサカフ ミナミカワチフゼイジムシヨ"
  },
  "8540": {
    "postcode": "5848540",
    "prefecture": "大阪府",
    "prefecture_kana": "オオサカフ",
    "prefecture_code": 27,
    "city": "富田林市",
    "city_kana": "トンダバヤシシ",
    "town": "錦織北",
    "town_kana": "ニシキオリキタ",
    "street": "３丁目１１番１号",
    "office_name": "大阪大谷大学",
    "office_name_kana": "オオサカオオタニダイガク"
  },
  "8585": {
    "postcode": "5848585",
    "prefecture": "大阪府",
    "prefecture_kana": "オオサカフ",
    "prefecture_code": 27,
    "city": "富田林市",
    "city_kana": "トンダバヤシシ",
    "town": "大字新堂",
    "town_kana": null,
    "street": "２２０４",
    "office_name": "医療法人　宝生会ＰＬ病院",
    "office_name_kana": "イリヨウホウジン ホウシヨウカイピ-エルビヨウイン"
  },
  "8651": {
    "postcode": "5848651",
    "prefecture": "大阪府",
    "prefecture_kana": "オオサカフ",
    "prefecture_code": 27,
    "city": "富田林市",
    "city_kana": "トンダバヤシシ",
    "town": "大字新堂",
    "town_kana": null,
    "street": "２１７２−１（富田林郵便局私書箱第１号）",
    "office_name": "パーフェクトリバティー教団　（ＰＬ）大本庁",
    "office_name_kana": "パ-フエクトリバテイ-キヨウダン ピ-エルダイホンチヨウ"
  }
}