{
  "0000": {
    "postcode": "5860000",
    "prefecture": "大阪府",
    "prefecture_kana": "オオサカフ",
    "prefecture_code": 27,
    "city": "河内長野市",
    "city_kana": "カワチナガノシ",
    "town": "",
    "town_kana": "",
    "street": null,
    "office_name": null,
    "office_name_kana": null
  },
  "0001": [
    {
      "postcode": "5860001",
      "prefecture": "大阪府",
      "prefecture_kana": "オオサカフ",
      "prefecture_code": 27,
      "city": "河内長野市",
      "city_kana": "カワチナガノシ",
      "town": "木戸",
      "town_kana": "キド",
      "street": null,
      "office_name": null,
      "office_name_kana": null
    },
    {
      "postcode": "5860001",
      "prefecture": "大阪府",
      "prefecture_kana": "オオサカフ",
      "prefecture_code": 27,
      "city": "河内長野市",
      "city_kana": "カワチナガノシ",
      "town": "木戸町",
      "town_kana": "キドチョウ",
      "street": null,
      "office_name": null,
      "office_name_kana": null
    }
  ],
  "0002": {
    "postcode": "5860002",
    "prefecture": "大阪府",
    "prefecture_kana": "オオサカフ",
    "prefecture_code": 27,
    "city": "河内長野市",
    "city_kana": "カワチナガノシ",
    "town": "市町",
    "town_kana": "イチチョウ",
    "street": null,
    "office_name": null,
    "office_name_kana": null
  },
  "0003": {
    "postcode": "5860003",
    "prefecture": "大阪府",
    "prefecture_kana": "オオサカフ",
    "prefecture_code": 27,
    "city": "河内長野市",
    "city_kana": "カワチナガノシ",
    "town": "楠町東",
    "town_kana": "クスノキチョウヒガシ",
    "street": null,
    "office_name": null,
    "office_name_kana": null
  },
  "0004": {
    "postcode": "5860004",
    "prefecture": "大阪府",
    "prefecture_kana": "オオサカフ",
    "prefecture_code": 27,
    "city": "河内長野市",
    "city_kana": "カワチナガノシ",
    "town": "楠町西",
    "town_kana": "クスノキチョウニシ",
    "street": null,
    "office_name": null,
    "office_name_kana": null
  },
  "0005": {
    "postcode": "5860005",
    "prefecture": "大阪府",
    "prefecture_kana": "オオサカフ",
    "prefecture_code": 27,
    "city": "河内長野市",
    "city_kana": "カワチナガノシ",
    "town": "松ケ丘西町",
    "town_kana": "マツガオカニシマチ",
    "street": null,
    "office_name": null,
    "office_name_kana": null
  },
  "0006": {
    "postcode": "5860006",
    "prefecture": "大阪府",
    "prefecture_kana": "オオサカフ",
    "prefecture_code": 27,
    "city": "河内長野市",
    "city_kana": "カワチナガノシ",
    "town": "松ケ丘中町",
    "town_kana": "マツガオカナカマチ",
    "street": null,
    "office_name": null,
    "office_name_kana": null
  },
  "0007": {
    "postcode": "5860007",
    "prefecture": "大阪府",
    "prefecture_kana": "オオサカフ",
    "prefecture_code": 27,
    "city": "河内長野市",
    "city_kana": "カワチナガノシ",
    "town": "松ケ丘東町",
    "town_kana": "マツガオカヒガシマチ",
    "street": null,
    "office_name": null,
    "office_name_kana": null
  },
  "0008": {
    "postcode": "5860008",
    "prefecture": "大阪府",
    "prefecture_kana": "オオサカフ",
    "prefecture_code": 27,
    "city": "河内長野市",
    "city_kana": "カワチナガノシ",
    "town": "木戸東町",
    "town_kana": "キドヒガシマチ",
    "street": null,
    "office_name": null,
    "office_name_kana": null
  },
  "0009": {
    "postcode": "5860009",
    "prefecture": "大阪府",
    "prefecture_kana": "オオサカフ",
    "prefecture_code": 27,
    "city": "河内長野市",
    "city_kana": "カワチナガノシ",
    "town": "木戸西町",
    "town_kana": "キドニシマチ",
    "street": null,
    "office_name": null,
    "office_name_kana": null
  },
  "0011": {
    "postcode": "5860011",
    "prefecture": "大阪府",
    "prefecture_kana": "オオサカフ",
    "prefecture_code": 27,
    "city": "河内長野市",
    "city_kana": "カワチナガノシ",
    "town": "汐の宮町",
    "town_kana": "シオノミヤチョウ",
    "street": null,
    "office_name": null,
    "office_name_kana": null
  },
  "0012": {
    "postcode": "5860012",
    "prefecture": "大阪府",
    "prefecture_kana": "オオサカフ",
    "prefecture_code": 27,
    "city": "河内長野市",
    "city_kana": "カワチナガノシ",
    "town": "菊水町",
    "town_kana": "キクスイチョウ",
    "street": null,
    "office_name": null,
    "office_name_kana": null
  },
  "0013": {
    "postcode": "5860013",
    "prefecture": "大阪府",
    "prefecture_kana": "オオサカフ",
    "prefecture_code": 27,
    "city": "河内長野市",
    "city_kana": "カワチナガノシ",
    "town": "向野町",
    "town_kana": "ムカイノチョウ",
    "street": null,
    "office_name": null,
    "office_name_kana": null
  },
  "0014": {
    "postcode": "5860014",
    "prefecture": "大阪府",
    "prefecture_kana": "オオサカフ",
    "prefecture_code": 27,
    "city": "河内長野市",
    "city_kana": "カワチナガノシ",
    "town": "長野町",
    "town_kana": "ナガノチョウ",
    "street": null,
    "office_name": null,
    "office_name_kana": null
  },
  "0015": {
    "postcode": "5860015",
    "prefecture": "大阪府",
    "prefecture_kana": "オオサカフ",
    "prefecture_code": 27,
    "city": "河内長野市",
    "city_kana": "カワチナガノシ",
    "town": "本町",
    "town_kana": "ホンマチ",
    "street": null,
    "office_name": null,
    "office_name_kana": null
  },
  "0016": {
    "postcode": "5860016",
    "prefecture": "大阪府",
    "prefecture_kana": "オオサカフ",
    "prefecture_code": 27,
    "city": "河内長野市",
    "city_kana": "カワチナガノシ",
    "town": "西代町",
    "town_kana": "ニシダイチョウ",
    "street": null,
    "office_name": null,
    "office_name_kana": null
  },
  "0017": {
    "postcode": "5860017",
    "prefecture": "大阪府",
    "prefecture_kana": "オオサカフ",
    "prefecture_code": 27,
    "city": "河内長野市",
    "city_kana": "カワチナガノシ",
    "town": "古野町",
    "town_kana": "フルノチョウ",
    "street": null,
    "office_name": null,
    "office_name_kana": null
  },
  "0018": {
    "postcode": "5860018",
    "prefecture": "大阪府",
    "prefecture_kana": "オオサカフ",
    "prefecture_code": 27,
    "city": "河内長野市",
    "city_kana": "カワチナガノシ",
    "town": "千代田南町",
    "town_kana": "チヨダミナミチョウ",
    "street": null,
    "office_name": null,
    "office_name_kana": null
  },
  "0021": {
    "postcode": "5860021",
    "prefecture": "大阪府",
    "prefecture_kana": "オオサカフ",
    "prefecture_code": 27,
    "city": "河内長野市",
    "city_kana": "カワチナガノシ",
    "town": "原町",
    "town_kana": "ハラチョウ",
    "street": null,
    "office_name": null,
    "office_name_kana": null
  },
  "0022": {
    "postcode": "5860022",
    "prefecture": "大阪府",
    "prefecture_kana": "オオサカフ",
    "prefecture_code": 27,
    "city": "河内長野市",
    "city_kana": "カワチナガノシ",
    "town": "本多町",
    "town_kana": "ホンダチョウ",
    "street": null,
    "office_name": null,
    "office_name_kana": null
  },
  "0023": {
    "postcode": "5860023",
    "prefecture": "大阪府",
    "prefecture_kana": "オオサカフ",
    "prefecture_code": 27,
    "city": "河内長野市",
    "city_kana": "カワチナガノシ",
    "town": "野作町",
    "town_kana": "ノサクチョウ",
    "street": null,
    "office_name": null,
    "office_name_kana": null
  },
  "0024": {
    "postcode": "5860024",
    "prefecture": "大阪府",
    "prefecture_kana": "オオサカフ",
    "prefecture_code": 27,
    "city": "河内長野市",
    "city_kana": "カワチナガノシ",
    "town": "西之山町",
    "town_kana": "ニシノヤマチョウ",
    "street": null,
    "office_name": null,
    "office_name_kana": null
  },
  "0025": {
    "postcode": "5860025",
    "prefecture": "大阪府",
    "prefecture_kana": "オオサカフ",
    "prefecture_code": 27,
    "city": "河内長野市",
    "city_kana": "カワチナガノシ",
    "town": "昭栄町",
    "town_kana": "ショウエイチョウ",
    "street": null,
    "office_name": null,
    "office_name_kana": null
  },
  "0026": {
    "postcode": "5860026",
    "prefecture": "大阪府",
    "prefecture_kana": "オオサカフ",
    "prefecture_code": 27,
    "city": "河内長野市",
    "city_kana": "カワチナガノシ",
    "town": "寿町",
    "town_kana": "コトブキチョウ",
    "street": null,
    "office_name": null,
    "office_name_kana": null
  },
  "0027": {
    "postcode": "5860027",
    "prefecture": "大阪府",
    "prefecture_kana": "オオサカフ",
    "prefecture_code": 27,
    "city": "河内長野市",
    "city_kana": "カワチナガノシ",
    "town": "千代田台町",
    "town_kana": "チヨダダイチョウ",
    "street": null,
    "office_name": null,
    "office_name_kana": null
  },
  "0031": {
    "postcode": "5860031",
    "prefecture": "大阪府",
    "prefecture_kana": "オオサカフ",
    "prefecture_code": 27,
    "city": "河内長野市",
    "city_kana": "カワチナガノシ",
    "town": "錦町",
    "town_kana": "ニシキチョウ",
    "street": null,
    "office_name": null,
    "office_name_kana": null
  },
  "0032": {
    "postcode": "5860032",
    "prefecture": "大阪府",
    "prefecture_kana": "オオサカフ",
    "prefecture_code": 27,
    "city": "河内長野市",
    "city_kana": "カワチナガノシ",
    "town": "栄町",
    "town_kana": "サカエチョウ",
    "street": null,
    "office_name": null,
    "office_name_kana": null
  },
  "0033": {
    "postcode": "5860033",
    "prefecture": "大阪府",
    "prefecture_kana": "オオサカフ",
    "prefecture_code": 27,
    "city": "河内長野市",
    "city_kana": "カワチナガノシ",
    "town": "喜多町",
    "town_kana": "キタチョウ",
    "street": null,
    "office_name": null,
    "office_name_kana": null
  },
  "0034": {
    "postcode": "5860034",
    "prefecture": "大阪府",
    "prefecture_kana": "オオサカフ",
    "prefecture_code": 27,
    "city": "河内長野市",
    "city_kana": "カワチナガノシ",
    "town": "上田町",
    "town_kana": "ウエダチョウ",
    "street": null,
    "office_name": null,
    "office_name_kana": null
  },
  "0035": {
    "postcode": "5860035",
    "prefecture": "大阪府",
    "prefecture_kana": "オオサカフ",
    "prefecture_code": 27,
    "city": "河内長野市",
    "city_kana": "カワチナガノシ",
    "town": "小塩町",
    "town_kana": "オシオチョウ",
    "street": null,
    "office_name": null,
    "office_name_kana": null
  },
  "0036": {
    "postcode": "5860036",
    "prefecture": "大阪府",
    "prefecture_kana": "オオサカフ",
    "prefecture_code": 27,
    "city": "河内長野市",
    "city_kana": "カワチナガノシ",
    "town": "高向",
    "town_kana": "タコウ",
    "street": null,
    "office_name": null,
    "office_name_kana": null
  },
  "0037": {
    "postcode": "5860037",
    "prefecture": "大阪府",
    "prefecture_kana": "オオサカフ",
    "prefecture_code": 27,
    "city": "河内長野市",
    "city_kana": "カワチナガノシ",
    "town": "上原町",
    "town_kana": "ウワハラチョウ",
    "street": null,
    "office_name": null,
    "office_name_kana": null
  },
  "0038": {
    "postcode": "5860038",
    "prefecture": "大阪府",
    "prefecture_kana": "オオサカフ",
    "prefecture_code": 27,
    "city": "河内長野市",
    "city_kana": "カワチナガノシ",
    "town": "上原西町",
    "town_kana": "ウワハラニシマチ",
    "street": null,
    "office_name": null,
    "office_name_kana": null
  },
  "0039": {
    "postcode": "5860039",
    "prefecture": "大阪府",
    "prefecture_kana": "オオサカフ",
    "prefecture_code": 27,
    "city": "河内長野市",
    "city_kana": "カワチナガノシ",
    "town": "楠ケ丘",
    "town_kana": "クスガオカ",
    "street": null,
    "office_name": null,
    "office_name_kana": null
  },
  "0041": {
    "postcode": "5860041",
    "prefecture": "大阪府",
    "prefecture_kana": "オオサカフ",
    "prefecture_code": 27,
    "city": "河内長野市",
    "city_kana": "カワチナガノシ",
    "town": "大師町",
    "town_kana": "ダイシチョウ",
    "street": null,
    "office_name": null,
    "office_name_kana": null
  },
  "0042": {
    "postcode": "5860042",
    "prefecture": "大阪府",
    "prefecture_kana": "オオサカフ",
    "prefecture_code": 27,
    "city": "河内長野市",
    "city_kana": "カワチナガノシ",
    "town": "日東町",
    "town_kana": "ニットウチョウ",
    "street": null,
    "office_name": null,
    "office_name_kana": null
  },
  "0043": {
    "postcode": "5860043",
    "prefecture": "大阪府",
    "prefecture_kana": "オオサカフ",
    "prefecture_code": 27,
    "city": "河内長野市",
    "city_kana": "カワチナガノシ",
    "town": "清見台",
    "town_kana": "キヨミダイ",
    "street": null,
    "office_name": null,
    "office_name_kana": null
  },
  "0044": {
    "postcode": "5860044",
    "prefecture": "大阪府",
    "prefecture_kana": "オオサカフ",
    "prefecture_code": 27,
    "city": "河内長野市",
    "city_kana": "カワチナガノシ",
    "town": "美加の台",
    "town_kana": "ミカノダイ",
    "street": null,
    "office_name": null,
    "office_name_kana": null
  },
  "0045": {
    "postcode": "5860045",
    "prefecture": "大阪府",
    "prefecture_kana": "オオサカフ",
    "prefecture_code": 27,
    "city": "河内長野市",
    "city_kana": "カワチナガノシ",
    "town": "東片添町",
    "town_kana": "ヒガシカタソエチョウ",
    "street": null,
    "office_name": null,
    "office_name_kana": null
  },
  "0046": {
    "postcode": "5860046",
    "prefecture": "大阪府",
    "prefecture_kana": "オオサカフ",
    "prefecture_code": 27,
    "city": "河内長野市",
    "city_kana": "カワチナガノシ",
    "town": "中片添町",
    "town_kana": "ナカカタソエチョウ",
    "street": null,
    "office_name": null,
    "office_name_kana": null
  },
  "0047": {
    "postcode": "5860047",
    "prefecture": "大阪府",
    "prefecture_kana": "オオサカフ",
    "prefecture_code": 27,
    "city": "河内長野市",
    "city_kana": "カワチナガノシ",
    "town": "西片添町",
    "town_kana": "ニシカタソエチョウ",
    "street": null,
    "office_name": null,
    "office_name_kana": null
  },
  "0048": {
    "postcode": "5860048",
    "prefecture": "大阪府",
    "prefecture_kana": "オオサカフ",
    "prefecture_code": 27,
    "city": "河内長野市",
    "city_kana": "カワチナガノシ",
    "town": "三日市町",
    "town_kana": "ミッカイチチョウ",
    "street": null,
    "office_name": null,
    "office_name_kana": null
  },
  "0051": {
    "postcode": "5860051",
    "prefecture": "大阪府",
    "prefecture_kana": "オオサカフ",
    "prefecture_code": 27,
    "city": "河内長野市",
    "city_kana": "カワチナガノシ",
    "town": "末広町",
    "town_kana": "スエヒロチョウ",
    "street": null,
    "office_name": null,
    "office_name_kana": null
  },
  "0052": {
    "postcode": "5860052",
    "prefecture": "大阪府",
    "prefecture_kana": "オオサカフ",
    "prefecture_code": 27,
    "city": "河内長野市",
    "city_kana": "カワチナガノシ",
    "town": "河合寺",
    "town_kana": "カワイデラ",
    "street": null,
    "office_name": null,
    "office_name_kana": null
  },
  "0053": {
    "postcode": "5860053",
    "prefecture": "大阪府",
    "prefecture_kana": "オオサカフ",
    "prefecture_code": 27,
    "city": "河内長野市",
    "city_kana": "カワチナガノシ",
    "town": "寺元",
    "town_kana": "テラモト",
    "street": null,
    "office_name": null,
    "office_name_kana": null
  },
  "0054": {
    "postcode": "5860054",
    "prefecture": "大阪府",
    "prefecture_kana": "オオサカフ",
    "prefecture_code": 27,
    "city": "河内長野市",
    "city_kana": "カワチナガノシ",
    "town": "神ガ丘",
    "town_kana": "カミガオカ",
    "street": null,
    "office_name": null,
    "office_name_kana": null
  },
  "0055": {
    "postcode": "5860055",
    "prefecture": "大阪府",
    "prefecture_kana": "オオサカフ",
    "prefecture_code": 27,
    "city": "河内長野市",
    "city_kana": "カワチナガノシ",
    "town": "鳩原",
    "town_kana": "ハトハラ",
    "street": null,
    "office_name": null,
    "office_name_kana": null
  },
  "0056": {
    "postcode": "5860056",
    "prefecture": "大阪府",
    "prefecture_kana": "オオサカフ",
    "prefecture_code": 27,
    "city": "河内長野市",
    "city_kana": "カワチナガノシ",
    "town": "太井",
    "town_kana": "オオイ",
    "street": null,
    "office_name": null,
    "office_name_kana": null
  },
  "0057": {
    "postcode": "5860057",
    "prefecture": "大阪府",
    "prefecture_kana": "オオサカフ",
    "prefecture_code": 27,
    "city": "河内長野市",
    "city_kana": "カワチナガノシ",
    "town": "小深",
    "town_kana": "コブカ",
    "street": null,
    "office_name": null,
    "office_name_kana": null
  },
  "0058": {
    "postcode": "5860058",
    "prefecture": "大阪府",
    "prefecture_kana": "オオサカフ",
    "prefecture_code": 27,
    "city": "河内長野市",
    "city_kana": "カワチナガノシ",
    "town": "石見川",
    "town_kana": "イシミガワ",
    "street": null,
    "office_name": null,
    "office_name_kana": null
  },
  "0061": {
    "postcode": "5860061",
    "prefecture": "大阪府",
    "prefecture_kana": "オオサカフ",
    "prefecture_code": 27,
    "city": "河内長野市",
    "city_kana": "カワチナガノシ",
    "town": "岩瀬",
    "town_kana": "イワゼ",
    "street": null,
    "office_name": null,
    "office_name_kana": null
  },
  "0062": {
    "postcode": "5860062",
    "prefecture": "大阪府",
    "prefecture_kana": "オオサカフ",
    "prefecture_code": 27,
    "city": "河内長野市",
    "city_kana": "カワチナガノシ",
    "town": "天見",
    "town_kana": "アマミ",
    "street": null,
    "office_name": null,
    "office_name_kana": null
  },
  "0063": {
    "postcode": "5860063",
    "prefecture": "大阪府",
    "prefecture_kana": "オオサカフ",
    "prefecture_code": 27,
    "city": "河内長野市",
    "city_kana": "カワチナガノシ",
    "town": "流谷",
    "town_kana": "ナガレダニ",
    "street": null,
    "office_name": null,
    "office_name_kana": null
  },
  "0064": {
    "postcode": "5860064",
    "prefecture": "大阪府",
    "prefecture_kana": "オオサカフ",
    "prefecture_code": 27,
    "city": "河内長野市",
    "city_kana": "カワチナガノシ",
    "town": "唐久谷",
    "town_kana": "カラクダニ",
    "street": null,
    "office_name": null,
    "office_name_kana": null
  },
  "0065": {
    "postcode": "5860065",
    "prefecture": "大阪府",
    "prefecture_kana": "オオサカフ",
    "prefecture_code": 27,
    "city": "河内長野市",
    "city_kana": "カワチナガノシ",
    "town": "南ケ丘",
    "town_kana": "ミナミガオカ",
    "street": null,
    "office_name": null,
    "office_name_kana": null
  },
  "0066": {
    "postcode": "5860066",
    "prefecture": "大阪府",
    "prefecture_kana": "オオサカフ",
    "prefecture_code": 27,
    "city": "河内長野市",
    "city_kana": "カワチナガノシ",
    "town": "清水",
    "town_kana": "シミズ",
    "street": null,
    "office_name": null,
    "office_name_kana": null
  },
  "0067": {
    "postcode": "5860067",
    "prefecture": "大阪府",
    "prefecture_kana": "オオサカフ",
    "prefecture_code": 27,
    "city": "河内長野市",
    "city_kana": "カワチナガノシ",
    "town": "南青葉台",
    "town_kana": "ミナミアオバダイ",
    "street": null,
    "office_name": null,
    "office_name_kana": null
  },
  "0068": {
    "postcode": "5860068",
    "prefecture": "大阪府",
    "prefecture_kana": "オオサカフ",
    "prefecture_code": 27,
    "city": "河内長野市",
    "city_kana": "カワチナガノシ",
    "town": "北青葉台",
    "town_kana": "キタアオバダイ",
    "street": null,
    "office_name": null,
    "office_name_kana": null
  },
  "0069": {
    "postcode": "5860069",
    "prefecture": "大阪府",
    "prefecture_kana": "オオサカフ",
    "prefecture_code": 27,
    "city": "河内長野市",
    "city_kana": "カワチナガノシ",
    "town": "石仏",
    "town_kana": "イシボトケ",
    "street": null,
    "office_name": null,
    "office_name_kana": null
  },
  "0071": {
    "postcode": "5860071",
    "prefecture": "大阪府",
    "prefecture_kana": "オオサカフ",
    "prefecture_code": 27,
    "city": "河内長野市",
    "city_kana": "カワチナガノシ",
    "town": "加賀田",
    "town_kana": "カガタ",
    "street": null,
    "office_name": null,
    "office_name_kana": null
  },
  "0072": {
    "postcode": "5860072",
    "prefecture": "大阪府",
    "prefecture_kana": "オオサカフ",
    "prefecture_code": 27,
    "city": "河内長野市",
    "city_kana": "カワチナガノシ",
    "town": "滝畑",
    "town_kana": "タキハタ",
    "street": null,
    "office_name": null,
    "office_name_kana": null
  },
  "0073": {
    "postcode": "5860073",
    "prefecture": "大阪府",
    "prefecture_kana": "オオサカフ",
    "prefecture_code": 27,
    "city": "河内長野市",
    "city_kana": "カワチナガノシ",
    "town": "大矢船西町",
    "town_kana": "オオヤブネニシマチ",
    "street": null,
    "office_name": null,
    "office_name_kana": null
  },
  "0074": {
    "postcode": "5860074",
    "prefecture": "大阪府",
    "prefecture_kana": "オオサカフ",
    "prefecture_code": 27,
    "city": "河内長野市",
    "city_kana": "カワチナガノシ",
    "town": "大矢船南町",
    "town_kana": "オオヤブネミナミマチ",
    "street": null,
    "office_name": null,
    "office_name_kana": null
  },
  "0075": {
    "postcode": "5860075",
    "prefecture": "大阪府",
    "prefecture_kana": "オオサカフ",
    "prefecture_code": 27,
    "city": "河内長野市",
    "city_kana": "カワチナガノシ",
    "town": "大矢船中町",
    "town_kana": "オオヤブネナカマチ",
    "street": null,
    "office_name": null,
    "office_name_kana": null
  },
  "0076": {
    "postcode": "5860076",
    "prefecture": "大阪府",
    "prefecture_kana": "オオサカフ",
    "prefecture_code": 27,
    "city": "河内長野市",
    "city_kana": "カワチナガノシ",
    "town": "大矢船北町",
    "town_kana": "オオヤブネキタマチ",
    "street": null,
    "office_name": null,
    "office_name_kana": null
  },
  "0077": {
    "postcode": "5860077",
    "prefecture": "大阪府",
    "prefecture_kana": "オオサカフ",
    "prefecture_code": 27,
    "city": "河内長野市",
    "city_kana": "カワチナガノシ",
    "town": "南花台",
    "town_kana": "ナンカダイ",
    "street": null,
    "office_name": null,
    "office_name_kana": null
  },
  "0081": {
    "postcode": "5860081",
    "prefecture": "大阪府",
    "prefecture_kana": "オオサカフ",
    "prefecture_code": 27,
    "city": "河内長野市",
    "city_kana": "カワチナガノシ",
    "town": "緑ケ丘北町",
    "town_kana": "ミドリガオカキタマチ",
    "street": null,
    "office_name": null,
    "office_name_kana": null
  },
  "0082": {
    "postcode": "5860082",
    "prefecture": "大阪府",
    "prefecture_kana": "オオサカフ",
    "prefecture_code": 27,
    "city": "河内長野市",
    "city_kana": "カワチナガノシ",
    "town": "緑ケ丘中町",
    "town_kana": "ミドリガオカナカマチ",
    "street": null,
    "office_name": null,
    "office_name_kana": null
  },
  "0083": {
    "postcode": "5860083",
    "prefecture": "大阪府",
    "prefecture_kana": "オオサカフ",
    "prefecture_code": 27,
    "city": "河内長野市",
    "city_kana": "カワチナガノシ",
    "town": "緑ケ丘南町",
    "town_kana": "ミドリガオカミナミマチ",
    "street": null,
    "office_name": null,
    "office_name_kana": null
  },
  "0084": {
    "postcode": "5860084",
    "prefecture": "大阪府",
    "prefecture_kana": "オオサカフ",
    "prefecture_code": 27,
    "city": "河内長野市",
    "city_kana": "カワチナガノシ",
    "town": "旭ケ丘",
    "town_kana": "アサヒガオカ",
    "street": null,
    "office_name": null,
    "office_name_kana": null
  },
  "0085": {
    "postcode": "5860085",
    "prefecture": "大阪府",
    "prefecture_kana": "オオサカフ",
    "prefecture_code": 27,
    "city": "河内長野市",
    "city_kana": "カワチナガノシ",
    "town": "日野",
    "town_kana": "ヒノ",
    "street": null,
    "office_name": null,
    "office_name_kana": null
  },
  "0086": {
    "postcode": "5860086",
    "prefecture": "大阪府",
    "prefecture_kana": "オオサカフ",
    "prefecture_code": 27,
    "city": "河内長野市",
    "city_kana": "カワチナガノシ",
    "town": "天野町",
    "town_kana": "アマノチョウ",
    "street": null,
    "office_name": null,
    "office_name_kana": null
  },
  "0087": {
    "postcode": "5860087",
    "prefecture": "大阪府",
    "prefecture_kana": "オオサカフ",
    "prefecture_code": 27,
    "city": "河内長野市",
    "city_kana": "カワチナガノシ",
    "town": "下里町",
    "town_kana": "シモザトチョウ",
    "street": null,
    "office_name": null,
    "office_name_kana": null
  },
  "0091": {
    "postcode": "5860091",
    "prefecture": "大阪府",
    "prefecture_kana": "オオサカフ",
    "prefecture_code": 27,
    "city": "河内長野市",
    "city_kana": "カワチナガノシ",
    "town": "北貴望ケ丘",
    "town_kana": "キタキボウガオカ",
    "street": null,
    "office_name": null,
    "office_name_kana": null
  },
  "0092": {
    "postcode": "5860092",
    "prefecture": "大阪府",
    "prefecture_kana": "オオサカフ",
    "prefecture_code": 27,
    "city": "河内長野市",
    "city_kana": "カワチナガノシ",
    "town": "南貴望ケ丘",
    "town_kana": "ミナミキボウガオカ",
    "street": null,
    "office_name": null,
    "office_name_kana": null
  },
  "0093": {
    "postcode": "5860093",
    "prefecture": "大阪府",
    "prefecture_kana": "オオサカフ",
    "prefecture_code": 27,
    "city": "河内長野市",
    "city_kana": "カワチナガノシ",
    "town": "荘園町",
    "town_kana": "ソウエンチョウ",
    "street": null,
    "office_name": null,
    "office_name_kana": null
  },
  "0094": {
    "postcode": "5860094",
    "prefecture": "大阪府",
    "prefecture_kana": "オオサカフ",
    "prefecture_code": 27,
    "city": "河内長野市",
    "city_kana": "カワチナガノシ",
    "town": "小山田町",
    "town_kana": "オヤマダチョウ",
    "street": null,
    "office_name": null,
    "office_name_kana": null
  },
  "0095": {
    "postcode": "5860095",
    "prefecture": "大阪府",
    "prefecture_kana": "オオサカフ",
    "prefecture_code": 27,
    "city": "河内長野市",
    "city_kana": "カワチナガノシ",
    "town": "あかしあ台",
    "town_kana": "アカシアダイ",
    "street": null,
    "office_name": null,
    "office_name_kana": null
  },
  "0096": {
    "postcode": "5860096",
    "prefecture": "大阪府",
    "prefecture_kana": "オオサカフ",
    "prefecture_code": 27,
    "city": "河内長野市",
    "city_kana": "カワチナガノシ",
    "town": "自由ケ丘",
    "town_kana": "ジユウガオカ",
    "street": null,
    "office_name": null,
    "office_name_kana": null
  },
  "0097": {
    "postcode": "5860097",
    "prefecture": "大阪府",
    "prefecture_kana": "オオサカフ",
    "prefecture_code": 27,
    "city": "河内長野市",
    "city_kana": "カワチナガノシ",
    "town": "桐ケ丘",
    "town_kana": "キリガオカ",
    "street": null,
    "office_name": null,
    "office_name_kana": null
  },
  "8501": {
    "postcode": "5868501",
    "prefecture": "大阪府",
    "prefecture_kana": "オオサカフ",
    "prefecture_code": 27,
    "city": "河内長野市",
    "city_kana": "カワチナガノシ",
    "town": "原町",
    "town_kana": "ハラチョウ",
    "street": "一丁目１番１号",
    "office_name": "河内長野市役所",
    "office_name_kana": "カワチナガノシヤクシヨ"
  },
  "8511": {
    "postcode": "5868511",
    "prefecture": "大阪府",
    "prefecture_kana": "オオサカフ",
    "prefecture_code": 27,
    "city": "河内長野市",
    "city_kana": "カワチナガノシ",
    "town": "小山田町",
    "town_kana": "オヤマダチョウ",
    "street": "１６８５",
    "office_name": "大阪千代田短期大学",
    "office_name_kana": "オオサカチヨダタンキダイガク"
  },
  "8521": {
    "postcode": "5868521",
    "prefecture": "大阪府",
    "prefecture_kana": "オオサカフ",
    "prefecture_code": 27,
    "city": "河内長野市",
    "city_kana": "カワチナガノシ",
    "town": "木戸東町",
    "town_kana": "キドヒガシマチ",
    "street": "２−１",
    "office_name": "独立行政法人　国立病院機構　大阪南医療センター",
    "office_name_kana": "ドクリツギヨウセイホウジン コクリツビヨウインキコウ オオサカミナミイリヨウセンタ-"
  },
  "8528": {
    "postcode": "5868528",
    "prefecture": "大阪府",
    "prefecture_kana": "オオサカフ",
    "prefecture_code": 27,
    "city": "河内長野市",
    "city_kana": "カワチナガノシ",
    "town": "上原西町",
    "town_kana": "ウワハラニシマチ",
    "street": "１６−１",
    "office_name": "（株）　吉年",
    "office_name_kana": "カブシキガイシヤ ヨドシ"
  },
  "8555": {
    "postcode": "5868555",
    "prefecture": "大阪府",
    "prefecture_kana": "オオサカフ",
    "prefecture_code": 27,
    "city": "河内長野市",
    "city_kana": "カワチナガノシ",
    "town": "楠町東",
    "town_kana": "クスノキチョウヒガシ",
    "street": "１６１５番地",
    "office_name": "モリ工業　株式会社",
    "office_name_kana": "モリコウギヨウ カブシキガイシヤ"
  },
  "8577": {
    "postcode": "5868577",
    "prefecture": "大阪府",
    "prefecture_kana": "オオサカフ",
    "prefecture_code": 27,
    "city": "河内長野市",
    "city_kana": "カワチナガノシ",
    "town": "楠町西",
    "town_kana": "クスノキチョウニシ",
    "street": "１０９０",
    "office_name": "学校法人　千代田学園",
    "office_name_kana": "ガツコウホウジン チヨダガクエン"
  },
  "8585": {
    "postcode": "5868585",
    "prefecture": "大阪府",
    "prefecture_kana": "オオサカフ",
    "prefecture_code": 27,
    "city": "河内長野市",
    "city_kana": "カワチナガノシ",
    "town": "末広町",
    "town_kana": "スエヒロチョウ",
    "street": "６２３",
    "office_name": "学校法人　清教学園",
    "office_name_kana": "ガツコウホウジン セイキヨウガクエン"
  }
}