{
  "0000": {
    "postcode": "5900000",
    "prefecture": "大阪府",
    "prefecture_kana": "オオサカフ",
    "prefecture_code": 27,
    "city": "堺市堺区",
    "city_kana": "サカイシサカイク",
    "town": "",
    "town_kana": "",
    "street": null,
    "office_name": null,
    "office_name_kana": null
  },
  "0001": {
    "postcode": "5900001",
    "prefecture": "大阪府",
    "prefecture_kana": "オオサカフ",
    "prefecture_code": 27,
    "city": "堺市堺区",
    "city_kana": "サカイシサカイク",
    "town": "遠里小野町",
    "town_kana": "オリオノチョウ",
    "street": null,
    "office_name": null,
    "office_name_kana": null
  },
  "0002": {
    "postcode": "5900002",
    "prefecture": "大阪府",
    "prefecture_kana": "オオサカフ",
    "prefecture_code": 27,
    "city": "堺市堺区",
    "city_kana": "サカイシサカイク",
    "town": "砂道町",
    "town_kana": "スナミチチョウ",
    "street": null,
    "office_name": null,
    "office_name_kana": null
  },
  "0003": {
    "postcode": "5900003",
    "prefecture": "大阪府",
    "prefecture_kana": "オオサカフ",
    "prefecture_code": 27,
    "city": "堺市堺区",
    "city_kana": "サカイシサカイク",
    "town": "高須町",
    "town_kana": "タカスチョウ",
    "street": null,
    "office_name": null,
    "office_name_kana": null
  },
  "0004": {
    "postcode": "5900004",
    "prefecture": "大阪府",
    "prefecture_kana": "オオサカフ",
    "prefecture_code": 27,
    "city": "堺市堺区",
    "city_kana": "サカイシサカイク",
    "town": "北清水町",
    "town_kana": "キタシミズチョウ",
    "street": null,
    "office_name": null,
    "office_name_kana": null
  },
  "0005": {
    "postcode": "5900005",
    "prefecture": "大阪府",
    "prefecture_kana": "オオサカフ",
    "prefecture_code": 27,
    "city": "堺市堺区",
    "city_kana": "サカイシサカイク",
    "town": "南清水町",
    "town_kana": "ミナミシミズチョウ",
    "street": null,
    "office_name": null,
    "office_name_kana": null
  },
  "0006": {
    "postcode": "5900006",
    "prefecture": "大阪府",
    "prefecture_kana": "オオサカフ",
    "prefecture_code": 27,
    "city": "堺市堺区",
    "city_kana": "サカイシサカイク",
    "town": "錦綾町",
    "town_kana": "キンリョウチョウ",
    "street": null,
    "office_name": null,
    "office_name_kana": null
  },
  "0007": {
    "postcode": "5900007",
    "prefecture": "大阪府",
    "prefecture_kana": "オオサカフ",
    "prefecture_code": 27,
    "city": "堺市堺区",
    "city_kana": "サカイシサカイク",
    "town": "北庄町",
    "town_kana": "キタショウチョウ",
    "street": null,
    "office_name": null,
    "office_name_kana": null
  },
  "0008": {
    "postcode": "5900008",
    "prefecture": "大阪府",
    "prefecture_kana": "オオサカフ",
    "prefecture_code": 27,
    "city": "堺市堺区",
    "city_kana": "サカイシサカイク",
    "town": "南庄町",
    "town_kana": "ミナミショウチョウ",
    "street": null,
    "office_name": null,
    "office_name_kana": null
  },
  "0011": {
    "postcode": "5900011",
    "prefecture": "大阪府",
    "prefecture_kana": "オオサカフ",
    "prefecture_code": 27,
    "city": "堺市堺区",
    "city_kana": "サカイシサカイク",
    "town": "香ケ丘町",
    "town_kana": "カオリガオカチョウ",
    "street": null,
    "office_name": null,
    "office_name_kana": null
  },
  "0012": {
    "postcode": "5900012",
    "prefecture": "大阪府",
    "prefecture_kana": "オオサカフ",
    "prefecture_code": 27,
    "city": "堺市堺区",
    "city_kana": "サカイシサカイク",
    "town": "浅香山町",
    "town_kana": "アサカヤマチョウ",
    "street": null,
    "office_name": null,
    "office_name_kana": null
  },
  "0013": {
    "postcode": "5900013",
    "prefecture": "大阪府",
    "prefecture_kana": "オオサカフ",
    "prefecture_code": 27,
    "city": "堺市堺区",
    "city_kana": "サカイシサカイク",
    "town": "東雲西町",
    "town_kana": "シノノメニシマチ",
    "street": null,
    "office_name": null,
    "office_name_kana": null
  },
  "0014": {
    "postcode": "5900014",
    "prefecture": "大阪府",
    "prefecture_kana": "オオサカフ",
    "prefecture_code": 27,
    "city": "堺市堺区",
    "city_kana": "サカイシサカイク",
    "town": "田出井町",
    "town_kana": "タデイチョウ",
    "street": null,
    "office_name": null,
    "office_name_kana": null
  },
  "0015": {
    "postcode": "5900015",
    "prefecture": "大阪府",
    "prefecture_kana": "オオサカフ",
    "prefecture_code": 27,
    "city": "堺市堺区",
    "city_kana": "サカイシサカイク",
    "town": "南田出井町",
    "town_kana": "ミナミタデイチョウ",
    "street": null,
    "office_name": null,
    "office_name_kana": null
  },
  "0016": {
    "postcode": "5900016",
    "prefecture": "大阪府",
    "prefecture_kana": "オオサカフ",
    "prefecture_code": 27,
    "city": "堺市堺区",
    "city_kana": "サカイシサカイク",
    "town": "中田出井町",
    "town_kana": "ナカタデイチョウ",
    "street": null,
    "office_name": null,
    "office_name_kana": null
  },
  "0017": {
    "postcode": "5900017",
    "prefecture": "大阪府",
    "prefecture_kana": "オオサカフ",
    "prefecture_code": 27,
    "city": "堺市堺区",
    "city_kana": "サカイシサカイク",
    "town": "北田出井町",
    "town_kana": "キタタデイチョウ",
    "street": null,
    "office_name": null,
    "office_name_kana": null
  },
  "0018": {
    "postcode": "5900018",
    "prefecture": "大阪府",
    "prefecture_kana": "オオサカフ",
    "prefecture_code": 27,
    "city": "堺市堺区",
    "city_kana": "サカイシサカイク",
    "town": "今池町",
    "town_kana": "イマイケチョウ",
    "street": null,
    "office_name": null,
    "office_name_kana": null
  },
  "0021": {
    "postcode": "5900021",
    "prefecture": "大阪府",
    "prefecture_kana": "オオサカフ",
    "prefecture_code": 27,
    "city": "堺市堺区",
    "city_kana": "サカイシサカイク",
    "town": "北三国ケ丘町",
    "town_kana": "キタミクニガオカチョウ",
    "street": null,
    "office_name": null,
    "office_name_kana": null
  },
  "0022": {
    "postcode": "5900022",
    "prefecture": "大阪府",
    "prefecture_kana": "オオサカフ",
    "prefecture_code": 27,
    "city": "堺市堺区",
    "city_kana": "サカイシサカイク",
    "town": "中三国ケ丘町",
    "town_kana": "ナカミクニガオカチョウ",
    "street": null,
    "office_name": null,
    "office_name_kana": null
  },
  "0023": {
    "postcode": "5900023",
    "prefecture": "大阪府",
    "prefecture_kana": "オオサカフ",
    "prefecture_code": 27,
    "city": "堺市堺区",
    "city_kana": "サカイシサカイク",
    "town": "南三国ケ丘町",
    "town_kana": "ミナミミクニガオカチョウ",
    "street": null,
    "office_name": null,
    "office_name_kana": null
  },
  "0024": {
    "postcode": "5900024",
    "prefecture": "大阪府",
    "prefecture_kana": "オオサカフ",
    "prefecture_code": 27,
    "city": "堺市堺区",
    "city_kana": "サカイシサカイク",
    "town": "向陵中町",
    "town_kana": "コウリョウナカマチ",
    "street": null,
    "office_name": null,
    "office_name_kana": null
  },
  "0025": {
    "postcode": "5900025",
    "prefecture": "大阪府",
    "prefecture_kana": "オオサカフ",
    "prefecture_code": 27,
    "city": "堺市堺区",
    "city_kana": "サカイシサカイク",
    "town": "向陵東町",
    "town_kana": "コウリョウヒガシマチ",
    "street": null,
    "office_name": null,
    "office_name_kana": null
  },
  "0026": {
    "postcode": "5900026",
    "prefecture": "大阪府",
    "prefecture_kana": "オオサカフ",
    "prefecture_code": 27,
    "city": "堺市堺区",
    "city_kana": "サカイシサカイク",
    "town": "向陵西町",
    "town_kana": "コウリョウニシマチ",
    "street": null,
    "office_name": null,
    "office_name_kana": null
  },
  "0027": {
    "postcode": "5900027",
    "prefecture": "大阪府",
    "prefecture_kana": "オオサカフ",
    "prefecture_code": 27,
    "city": "堺市堺区",
    "city_kana": "サカイシサカイク",
    "town": "榎元町",
    "town_kana": "エノキモトマチ",
    "street": null,
    "office_name": null,
    "office_name_kana": null
  },
  "0028": {
    "postcode": "5900028",
    "prefecture": "大阪府",
    "prefecture_kana": "オオサカフ",
    "prefecture_code": 27,
    "city": "堺市堺区",
    "city_kana": "サカイシサカイク",
    "town": "三国ケ丘御幸通",
    "town_kana": "ミクニガオカミユキドオリ",
    "street": null,
    "office_name": null,
    "office_name_kana": null
  },
  "0031": {
    "postcode": "5900031",
    "prefecture": "大阪府",
    "prefecture_kana": "オオサカフ",
    "prefecture_code": 27,
    "city": "堺市堺区",
    "city_kana": "サカイシサカイク",
    "town": "五月町",
    "town_kana": "サツキチョウ",
    "street": null,
    "office_name": null,
    "office_name_kana": null
  },
  "0032": {
    "postcode": "5900032",
    "prefecture": "大阪府",
    "prefecture_kana": "オオサカフ",
    "prefecture_code": 27,
    "city": "堺市堺区",
    "city_kana": "サカイシサカイク",
    "town": "西永山園",
    "town_kana": "ニシナガヤマエン",
    "street": null,
    "office_name": null,
    "office_name_kana": null
  },
  "0033": {
    "postcode": "5900033",
    "prefecture": "大阪府",
    "prefecture_kana": "オオサカフ",
    "prefecture_code": 27,
    "city": "堺市堺区",
    "city_kana": "サカイシサカイク",
    "town": "中永山園",
    "town_kana": "ナカナガヤマエン",
    "street": null,
    "office_name": null,
    "office_name_kana": null
  },
  "0034": {
    "postcode": "5900034",
    "prefecture": "大阪府",
    "prefecture_kana": "オオサカフ",
    "prefecture_code": 27,
    "city": "堺市堺区",
    "city_kana": "サカイシサカイク",
    "town": "東永山園",
    "town_kana": "ヒガシナガヤマエン",
    "street": null,
    "office_name": null,
    "office_name_kana": null
  },
  "0035": {
    "postcode": "5900035",
    "prefecture": "大阪府",
    "prefecture_kana": "オオサカフ",
    "prefecture_code": 27,
    "city": "堺市堺区",
    "city_kana": "サカイシサカイク",
    "town": "大仙町",
    "town_kana": "ダイセンチョウ",
    "street": null,
    "office_name": null,
    "office_name_kana": null
  },
  "0036": {
    "postcode": "5900036",
    "prefecture": "大阪府",
    "prefecture_kana": "オオサカフ",
    "prefecture_code": 27,
    "city": "堺市堺区",
    "city_kana": "サカイシサカイク",
    "town": "南丸保園",
    "town_kana": "ミナミマルホエン",
    "street": null,
    "office_name": null,
    "office_name_kana": null
  },
  "0037": {
    "postcode": "5900037",
    "prefecture": "大阪府",
    "prefecture_kana": "オオサカフ",
    "prefecture_code": 27,
    "city": "堺市堺区",
    "city_kana": "サカイシサカイク",
    "town": "北丸保園",
    "town_kana": "キタマルホエン",
    "street": null,
    "office_name": null,
    "office_name_kana": null
  },
  "0041": {
    "postcode": "5900041",
    "prefecture": "大阪府",
    "prefecture_kana": "オオサカフ",
    "prefecture_code": 27,
    "city": "堺市堺区",
    "city_kana": "サカイシサカイク",
    "town": "陵西通",
    "town_kana": "リョウサイドオリ",
    "street": null,
    "office_name": null,
    "office_name_kana": null
  },
  "0042": {
    "postcode": "5900042",
    "prefecture": "大阪府",
    "prefecture_kana": "オオサカフ",
    "prefecture_code": 27,
    "city": "堺市堺区",
    "city_kana": "サカイシサカイク",
    "town": "七条通",
    "town_kana": "シチジョウドオリ",
    "street": null,
    "office_name": null,
    "office_name_kana": null
  },
  "0043": {
    "postcode": "5900043",
    "prefecture": "大阪府",
    "prefecture_kana": "オオサカフ",
    "prefecture_code": 27,
    "city": "堺市堺区",
    "city_kana": "サカイシサカイク",
    "town": "六条通",
    "town_kana": "ロクジョウドオリ",
    "street": null,
    "office_name": null,
    "office_name_kana": null
  },
  "0044": {
    "postcode": "5900044",
    "prefecture": "大阪府",
    "prefecture_kana": "オオサカフ",
    "prefecture_code": 27,
    "city": "堺市堺区",
    "city_kana": "サカイシサカイク",
    "town": "五条通",
    "town_kana": "ゴジョウドオリ",
    "street": null,
    "office_name": null,
    "office_name_kana": null
  },
  "0045": {
    "postcode": "5900045",
    "prefecture": "大阪府",
    "prefecture_kana": "オオサカフ",
    "prefecture_code": 27,
    "city": "堺市堺区",
    "city_kana": "サカイシサカイク",
    "town": "四条通",
    "town_kana": "シジョウドオリ",
    "street": null,
    "office_name": null,
    "office_name_kana": null
  },
  "0046": {
    "postcode": "5900046",
    "prefecture": "大阪府",
    "prefecture_kana": "オオサカフ",
    "prefecture_code": 27,
    "city": "堺市堺区",
    "city_kana": "サカイシサカイク",
    "town": "三条通",
    "town_kana": "サンジョウドオリ",
    "street": null,
    "office_name": null,
    "office_name_kana": null
  },
  "0047": {
    "postcode": "5900047",
    "prefecture": "大阪府",
    "prefecture_kana": "オオサカフ",
    "prefecture_code": 27,
    "city": "堺市堺区",
    "city_kana": "サカイシサカイク",
    "town": "二条通",
    "town_kana": "ニジョウドオリ",
    "street": null,
    "office_name": null,
    "office_name_kana": null
  },
  "0048": {
    "postcode": "5900048",
    "prefecture": "大阪府",
    "prefecture_kana": "オオサカフ",
    "prefecture_code": 27,
    "city": "堺市堺区",
    "city_kana": "サカイシサカイク",
    "town": "一条通",
    "town_kana": "イチジョウドオリ",
    "street": null,
    "office_name": null,
    "office_name_kana": null
  },
  "0051": {
    "postcode": "5900051",
    "prefecture": "大阪府",
    "prefecture_kana": "オオサカフ",
    "prefecture_code": 27,
    "city": "堺市堺区",
    "city_kana": "サカイシサカイク",
    "town": "幸通",
    "town_kana": "サイワイドオリ",
    "street": null,
    "office_name": null,
    "office_name_kana": null
  },
  "0052": {
    "postcode": "5900052",
    "prefecture": "大阪府",
    "prefecture_kana": "オオサカフ",
    "prefecture_code": 27,
    "city": "堺市堺区",
    "city_kana": "サカイシサカイク",
    "town": "八千代通",
    "town_kana": "ヤチヨドオリ",
    "street": null,
    "office_name": null,
    "office_name_kana": null
  },
  "0053": {
    "postcode": "5900053",
    "prefecture": "大阪府",
    "prefecture_kana": "オオサカフ",
    "prefecture_code": 27,
    "city": "堺市堺区",
    "city_kana": "サカイシサカイク",
    "town": "文珠橋通",
    "town_kana": "モンジュバシドオリ",
    "street": null,
    "office_name": null,
    "office_name_kana": null
  },
  "0054": {
    "postcode": "5900054",
    "prefecture": "大阪府",
    "prefecture_kana": "オオサカフ",
    "prefecture_code": 27,
    "city": "堺市堺区",
    "city_kana": "サカイシサカイク",
    "town": "京町通",
    "town_kana": "キョウマチドオリ",
    "street": null,
    "office_name": null,
    "office_name_kana": null
  },
  "0055": {
    "postcode": "5900055",
    "prefecture": "大阪府",
    "prefecture_kana": "オオサカフ",
    "prefecture_code": 27,
    "city": "堺市堺区",
    "city_kana": "サカイシサカイク",
    "town": "旭通",
    "town_kana": "アサヒドオリ",
    "street": null,
    "office_name": null,
    "office_name_kana": null
  },
  "0056": {
    "postcode": "5900056",
    "prefecture": "大阪府",
    "prefecture_kana": "オオサカフ",
    "prefecture_code": 27,
    "city": "堺市堺区",
    "city_kana": "サカイシサカイク",
    "town": "神保通",
    "town_kana": "シンポドオリ",
    "street": null,
    "office_name": null,
    "office_name_kana": null
  },
  "0057": {
    "postcode": "5900057",
    "prefecture": "大阪府",
    "prefecture_kana": "オオサカフ",
    "prefecture_code": 27,
    "city": "堺市堺区",
    "city_kana": "サカイシサカイク",
    "town": "御陵通",
    "town_kana": "ゴリョウドオリ",
    "street": null,
    "office_name": null,
    "office_name_kana": null
  },
  "0061": {
    "postcode": "5900061",
    "prefecture": "大阪府",
    "prefecture_kana": "オオサカフ",
    "prefecture_code": 27,
    "city": "堺市堺区",
    "city_kana": "サカイシサカイク",
    "town": "翁橋町",
    "town_kana": "オキナバシチョウ",
    "street": null,
    "office_name": null,
    "office_name_kana": null
  },
  "0062": {
    "postcode": "5900062",
    "prefecture": "大阪府",
    "prefecture_kana": "オオサカフ",
    "prefecture_code": 27,
    "city": "堺市堺区",
    "city_kana": "サカイシサカイク",
    "town": "北安井町",
    "town_kana": "キタヤスイチョウ",
    "street": null,
    "office_name": null,
    "office_name_kana": null
  },
  "0063": {
    "postcode": "5900063",
    "prefecture": "大阪府",
    "prefecture_kana": "オオサカフ",
    "prefecture_code": 27,
    "city": "堺市堺区",
    "city_kana": "サカイシサカイク",
    "town": "中安井町",
    "town_kana": "ナカヤスイチョウ",
    "street": null,
    "office_name": null,
    "office_name_kana": null
  },
  "0064": {
    "postcode": "5900064",
    "prefecture": "大阪府",
    "prefecture_kana": "オオサカフ",
    "prefecture_code": 27,
    "city": "堺市堺区",
    "city_kana": "サカイシサカイク",
    "town": "南安井町",
    "town_kana": "ミナミヤスイチョウ",
    "street": null,
    "office_name": null,
    "office_name_kana": null
  },
  "0065": {
    "postcode": "5900065",
    "prefecture": "大阪府",
    "prefecture_kana": "オオサカフ",
    "prefecture_code": 27,
    "city": "堺市堺区",
    "city_kana": "サカイシサカイク",
    "town": "永代町",
    "town_kana": "エイタイチョウ",
    "street": null,
    "office_name": null,
    "office_name_kana": null
  },
  "0066": {
    "postcode": "5900066",
    "prefecture": "大阪府",
    "prefecture_kana": "オオサカフ",
    "prefecture_code": 27,
    "city": "堺市堺区",
    "city_kana": "サカイシサカイク",
    "town": "賑町",
    "town_kana": "ニギワイチョウ",
    "street": null,
    "office_name": null,
    "office_name_kana": null
  },
  "0071": {
    "postcode": "5900071",
    "prefecture": "大阪府",
    "prefecture_kana": "オオサカフ",
    "prefecture_code": 27,
    "city": "堺市堺区",
    "city_kana": "サカイシサカイク",
    "town": "北向陽町",
    "town_kana": "キタコウヨウチョウ",
    "street": null,
    "office_name": null,
    "office_name_kana": null
  },
  "0072": {
    "postcode": "5900072",
    "prefecture": "大阪府",
    "prefecture_kana": "オオサカフ",
    "prefecture_code": 27,
    "city": "堺市堺区",
    "city_kana": "サカイシサカイク",
    "town": "中向陽町",
    "town_kana": "ナカコウヨウチョウ",
    "street": null,
    "office_name": null,
    "office_name_kana": null
  },
  "0073": {
    "postcode": "5900073",
    "prefecture": "大阪府",
    "prefecture_kana": "オオサカフ",
    "prefecture_code": 27,
    "city": "堺市堺区",
    "city_kana": "サカイシサカイク",
    "town": "南向陽町",
    "town_kana": "ミナミコウヨウチョウ",
    "street": null,
    "office_name": null,
    "office_name_kana": null
  },
  "0074": {
    "postcode": "5900074",
    "prefecture": "大阪府",
    "prefecture_kana": "オオサカフ",
    "prefecture_code": 27,
    "city": "堺市堺区",
    "city_kana": "サカイシサカイク",
    "town": "北花田口町",
    "town_kana": "キタハナダグチチョウ",
    "street": null,
    "office_name": null,
    "office_name_kana": null
  },
  "0075": {
    "postcode": "5900075",
    "prefecture": "大阪府",
    "prefecture_kana": "オオサカフ",
    "prefecture_code": 27,
    "city": "堺市堺区",
    "city_kana": "サカイシサカイク",
    "town": "南花田口町",
    "town_kana": "ミナミハナダグチチョウ",
    "street": null,
    "office_name": null,
    "office_name_kana": null
  },
  "0076": {
    "postcode": "5900076",
    "prefecture": "大阪府",
    "prefecture_kana": "オオサカフ",
    "prefecture_code": 27,
    "city": "堺市堺区",
    "city_kana": "サカイシサカイク",
    "town": "北瓦町",
    "town_kana": "キタカワラマチ",
    "street": null,
    "office_name": null,
    "office_name_kana": null
  },
  "0077": {
    "postcode": "5900077",
    "prefecture": "大阪府",
    "prefecture_kana": "オオサカフ",
    "prefecture_code": 27,
    "city": "堺市堺区",
    "city_kana": "サカイシサカイク",
    "town": "中瓦町",
    "town_kana": "ナカカワラマチ",
    "street": null,
    "office_name": null,
    "office_name_kana": null
  },
  "0078": {
    "postcode": "5900078",
    "prefecture": "大阪府",
    "prefecture_kana": "オオサカフ",
    "prefecture_code": 27,
    "city": "堺市堺区",
    "city_kana": "サカイシサカイク",
    "town": "南瓦町",
    "town_kana": "ミナミカワラマチ",
    "street": null,
    "office_name": null,
    "office_name_kana": null
  },
  "0079": {
    "postcode": "5900079",
    "prefecture": "大阪府",
    "prefecture_kana": "オオサカフ",
    "prefecture_code": 27,
    "city": "堺市堺区",
    "city_kana": "サカイシサカイク",
    "town": "新町",
    "town_kana": "シンマチ",
    "street": null,
    "office_name": null,
    "office_name_kana": null
  },
  "0100": {
    "postcode": "5900100",
    "prefecture": "大阪府",
    "prefecture_kana": "オオサカフ",
    "prefecture_code": 27,
    "city": "堺市南区",
    "city_kana": "サカイシミナミク",
    "town": "",
    "town_kana": "",
    "street": null,
    "office_name": null,
    "office_name_kana": null
  },
  "0101": {
    "postcode": "5900101",
    "prefecture": "大阪府",
    "prefecture_kana": "オオサカフ",
    "prefecture_code": 27,
    "city": "堺市南区",
    "city_kana": "サカイシミナミク",
    "town": "宮山台",
    "town_kana": "ミヤヤマダイ",
    "street": null,
    "office_name": null,
    "office_name_kana": null
  },
  "0102": {
    "postcode": "5900102",
    "prefecture": "大阪府",
    "prefecture_kana": "オオサカフ",
    "prefecture_code": 27,
    "city": "堺市南区",
    "city_kana": "サカイシミナミク",
    "town": "和田東",
    "town_kana": "ワダヒガシ",
    "street": null,
    "office_name": null,
    "office_name_kana": null
  },
  "0103": {
    "postcode": "5900103",
    "prefecture": "大阪府",
    "prefecture_kana": "オオサカフ",
    "prefecture_code": 27,
    "city": "堺市南区",
    "city_kana": "サカイシミナミク",
    "town": "深阪南",
    "town_kana": "フカサカミナミ",
    "street": null,
    "office_name": null,
    "office_name_kana": null
  },
  "0104": {
    "postcode": "5900104",
    "prefecture": "大阪府",
    "prefecture_kana": "オオサカフ",
    "prefecture_code": 27,
    "city": "堺市南区",
    "city_kana": "サカイシミナミク",
    "town": "土佐屋台",
    "town_kana": "トサヤダイ",
    "street": null,
    "office_name": null,
    "office_name_kana": null
  },
  "0105": {
    "postcode": "5900105",
    "prefecture": "大阪府",
    "prefecture_kana": "オオサカフ",
    "prefecture_code": 27,
    "city": "堺市南区",
    "city_kana": "サカイシミナミク",
    "town": "竹城台",
    "town_kana": "タケシロダイ",
    "street": null,
    "office_name": null,
    "office_name_kana": null
  },
  "0106": {
    "postcode": "5900106",
    "prefecture": "大阪府",
    "prefecture_kana": "オオサカフ",
    "prefecture_code": 27,
    "city": "堺市南区",
    "city_kana": "サカイシミナミク",
    "town": "豊田",
    "town_kana": "トヨダ",
    "street": null,
    "office_name": null,
    "office_name_kana": null
  },
  "0111": {
    "postcode": "5900111",
    "prefecture": "大阪府",
    "prefecture_kana": "オオサカフ",
    "prefecture_code": 27,
    "city": "堺市南区",
    "city_kana": "サカイシミナミク",
    "town": "三原台",
    "town_kana": "ミハラダイ",
    "street": null,
    "office_name": null,
    "office_name_kana": null
  },
  "0112": {
    "postcode": "5900112",
    "prefecture": "大阪府",
    "prefecture_kana": "オオサカフ",
    "prefecture_code": 27,
    "city": "堺市南区",
    "city_kana": "サカイシミナミク",
    "town": "岩室",
    "town_kana": "イワムロ",
    "street": null,
    "office_name": null,
    "office_name_kana": null
  },
  "0113": {
    "postcode": "5900113",
    "prefecture": "大阪府",
    "prefecture_kana": "オオサカフ",
    "prefecture_code": 27,
    "city": "堺市南区",
    "city_kana": "サカイシミナミク",
    "town": "晴美台",
    "town_kana": "ハルミダイ",
    "street": null,
    "office_name": null,
    "office_name_kana": null
  },
  "0114": {
    "postcode": "5900114",
    "prefecture": "大阪府",
    "prefecture_kana": "オオサカフ",
    "prefecture_code": 27,
    "city": "堺市南区",
    "city_kana": "サカイシミナミク",
    "town": "槇塚台",
    "town_kana": "マキヅカダイ",
    "street": null,
    "office_name": null,
    "office_name_kana": null
  },
  "0115": {
    "postcode": "5900115",
    "prefecture": "大阪府",
    "prefecture_kana": "オオサカフ",
    "prefecture_code": 27,
    "city": "堺市南区",
    "city_kana": "サカイシミナミク",
    "town": "茶山台",
    "town_kana": "チャヤマダイ",
    "street": null,
    "office_name": null,
    "office_name_kana": null
  },
  "0116": {
    "postcode": "5900116",
    "prefecture": "大阪府",
    "prefecture_kana": "オオサカフ",
    "prefecture_code": 27,
    "city": "堺市南区",
    "city_kana": "サカイシミナミク",
    "town": "若松台",
    "town_kana": "ワカマツダイ",
    "street": null,
    "office_name": null,
    "office_name_kana": null
  },
  "0117": {
    "postcode": "5900117",
    "prefecture": "大阪府",
    "prefecture_kana": "オオサカフ",
    "prefecture_code": 27,
    "city": "堺市南区",
    "city_kana": "サカイシミナミク",
    "town": "高倉台",
    "town_kana": "タカクラダイ",
    "street": null,
    "office_name": null,
    "office_name_kana": null
  },
  "0121": {
    "postcode": "5900121",
    "prefecture": "大阪府",
    "prefecture_kana": "オオサカフ",
    "prefecture_code": 27,
    "city": "堺市南区",
    "city_kana": "サカイシミナミク",
    "town": "片蔵",
    "town_kana": "カタクラ",
    "street": null,
    "office_name": null,
    "office_name_kana": null
  },
  "0122": {
    "postcode": "5900122",
    "prefecture": "大阪府",
    "prefecture_kana": "オオサカフ",
    "prefecture_code": 27,
    "city": "堺市南区",
    "city_kana": "サカイシミナミク",
    "town": "釜室",
    "town_kana": "カマムロ",
    "street": null,
    "office_name": null,
    "office_name_kana": null
  },
  "0123": {
    "postcode": "5900123",
    "prefecture": "大阪府",
    "prefecture_kana": "オオサカフ",
    "prefecture_code": 27,
    "city": "堺市南区",
    "city_kana": "サカイシミナミク",
    "town": "逆瀬川",
    "town_kana": "サカセガワ",
    "street": null,
    "office_name": null,
    "office_name_kana": null
  },
  "0124": {
    "postcode": "5900124",
    "prefecture": "大阪府",
    "prefecture_kana": "オオサカフ",
    "prefecture_code": 27,
    "city": "堺市南区",
    "city_kana": "サカイシミナミク",
    "town": "畑",
    "town_kana": "ハタ",
    "street": null,
    "office_name": null,
    "office_name_kana": null
  },
  "0125": {
    "postcode": "5900125",
    "prefecture": "大阪府",
    "prefecture_kana": "オオサカフ",
    "prefecture_code": 27,
    "city": "堺市南区",
    "city_kana": "サカイシミナミク",
    "town": "鉢ケ峯寺",
    "town_kana": "ハチガミネジ",
    "street": null,
    "office_name": null,
    "office_name_kana": null
  },
  "0126": {
    "postcode": "5900126",
    "prefecture": "大阪府",
    "prefecture_kana": "オオサカフ",
    "prefecture_code": 27,
    "city": "堺市南区",
    "city_kana": "サカイシミナミク",
    "town": "泉田中",
    "town_kana": "イズミタナカ",
    "street": null,
    "office_name": null,
    "office_name_kana": null
  },
  "0127": {
    "postcode": "5900127",
    "prefecture": "大阪府",
    "prefecture_kana": "オオサカフ",
    "prefecture_code": 27,
    "city": "堺市南区",
    "city_kana": "サカイシミナミク",
    "town": "富蔵",
    "town_kana": "トミクラ",
    "street": null,
    "office_name": null,
    "office_name_kana": null
  },
  "0131": {
    "postcode": "5900131",
    "prefecture": "大阪府",
    "prefecture_kana": "オオサカフ",
    "prefecture_code": 27,
    "city": "堺市南区",
    "city_kana": "サカイシミナミク",
    "town": "栂",
    "town_kana": "トガ",
    "street": null,
    "office_name": null,
    "office_name_kana": null
  },
  "0132": {
    "postcode": "5900132",
    "prefecture": "大阪府",
    "prefecture_kana": "オオサカフ",
    "prefecture_code": 27,
    "city": "堺市南区",
    "city_kana": "サカイシミナミク",
    "town": "原山台",
    "town_kana": "ハラヤマダイ",
    "street": null,
    "office_name": null,
    "office_name_kana": null
  },
  "0133": {
    "postcode": "5900133",
    "prefecture": "大阪府",
    "prefecture_kana": "オオサカフ",
    "prefecture_code": 27,
    "city": "堺市南区",
    "city_kana": "サカイシミナミク",
    "town": "庭代台",
    "town_kana": "ニワシロダイ",
    "street": null,
    "office_name": null,
    "office_name_kana": null
  },
  "0134": {
    "postcode": "5900134",
    "prefecture": "大阪府",
    "prefecture_kana": "オオサカフ",
    "prefecture_code": 27,
    "city": "堺市南区",
    "city_kana": "サカイシミナミク",
    "town": "御池台",
    "town_kana": "ミイケダイ",
    "street": null,
    "office_name": null,
    "office_name_kana": null
  },
  "0135": {
    "postcode": "5900135",
    "prefecture": "大阪府",
    "prefecture_kana": "オオサカフ",
    "prefecture_code": 27,
    "city": "堺市南区",
    "city_kana": "サカイシミナミク",
    "town": "別所",
    "town_kana": "ベッシヨ",
    "street": null,
    "office_name": null,
    "office_name_kana": null
  },
  "0136": {
    "postcode": "5900136",
    "prefecture": "大阪府",
    "prefecture_kana": "オオサカフ",
    "prefecture_code": 27,
    "city": "堺市南区",
    "city_kana": "サカイシミナミク",
    "town": "美木多上",
    "town_kana": "ミキタカミ",
    "street": null,
    "office_name": null,
    "office_name_kana": null
  },
  "0137": {
    "postcode": "5900137",
    "prefecture": "大阪府",
    "prefecture_kana": "オオサカフ",
    "prefecture_code": 27,
    "city": "堺市南区",
    "city_kana": "サカイシミナミク",
    "town": "城山台",
    "town_kana": "シロヤマダイ",
    "street": null,
    "office_name": null,
    "office_name_kana": null
  },
  "0138": {
    "postcode": "5900138",
    "prefecture": "大阪府",
    "prefecture_kana": "オオサカフ",
    "prefecture_code": 27,
    "city": "堺市南区",
    "city_kana": "サカイシミナミク",
    "town": "鴨谷台",
    "town_kana": "カモタニダイ",
    "street": null,
    "office_name": null,
    "office_name_kana": null
  },
  "0141": {
    "postcode": "5900141",
    "prefecture": "大阪府",
    "prefecture_kana": "オオサカフ",
    "prefecture_code": 27,
    "city": "堺市南区",
    "city_kana": "サカイシミナミク",
    "town": "桃山台",
    "town_kana": "モモヤマダイ",
    "street": null,
    "office_name": null,
    "office_name_kana": null
  },
  "0142": {
    "postcode": "5900142",
    "prefecture": "大阪府",
    "prefecture_kana": "オオサカフ",
    "prefecture_code": 27,
    "city": "堺市南区",
    "city_kana": "サカイシミナミク",
    "town": "檜尾",
    "town_kana": "ヒノオ",
    "street": null,
    "office_name": null,
    "office_name_kana": null
  },
  "0143": {
    "postcode": "5900143",
    "prefecture": "大阪府",
    "prefecture_kana": "オオサカフ",
    "prefecture_code": 27,
    "city": "堺市南区",
    "city_kana": "サカイシミナミク",
    "town": "新檜尾台",
    "town_kana": "シンヒノオダイ",
    "street": null,
    "office_name": null,
    "office_name_kana": null
  },
  "0144": {
    "postcode": "5900144",
    "prefecture": "大阪府",
    "prefecture_kana": "オオサカフ",
    "prefecture_code": 27,
    "city": "堺市南区",
    "city_kana": "サカイシミナミク",
    "town": "赤坂台",
    "town_kana": "アカサカダイ",
    "street": null,
    "office_name": null,
    "office_name_kana": null
  },
  "0145": {
    "postcode": "5900145",
    "prefecture": "大阪府",
    "prefecture_kana": "オオサカフ",
    "prefecture_code": 27,
    "city": "堺市南区",
    "city_kana": "サカイシミナミク",
    "town": "大森",
    "town_kana": "オオモリ",
    "street": null,
    "office_name": null,
    "office_name_kana": null
  },
  "0151": {
    "postcode": "5900151",
    "prefecture": "大阪府",
    "prefecture_kana": "オオサカフ",
    "prefecture_code": 27,
    "city": "堺市南区",
    "city_kana": "サカイシミナミク",
    "town": "小代",
    "town_kana": "コダイ",
    "street": null,
    "office_name": null,
    "office_name_kana": null
  },
  "0152": {
    "postcode": "5900152",
    "prefecture": "大阪府",
    "prefecture_kana": "オオサカフ",
    "prefecture_code": 27,
    "city": "堺市南区",
    "city_kana": "サカイシミナミク",
    "town": "和田",
    "town_kana": "ワダ",
    "street": null,
    "office_name": null,
    "office_name_kana": null
  },
  "0153": {
    "postcode": "5900153",
    "prefecture": "大阪府",
    "prefecture_kana": "オオサカフ",
    "prefecture_code": 27,
    "city": "堺市南区",
    "city_kana": "サカイシミナミク",
    "town": "大庭寺",
    "town_kana": "オオバデラ",
    "street": null,
    "office_name": null,
    "office_name_kana": null
  },
  "0154": {
    "postcode": "5900154",
    "prefecture": "大阪府",
    "prefecture_kana": "オオサカフ",
    "prefecture_code": 27,
    "city": "堺市南区",
    "city_kana": "サカイシミナミク",
    "town": "三木閉",
    "town_kana": "ミキトジ",
    "street": null,
    "office_name": null,
    "office_name_kana": null
  },
  "0155": {
    "postcode": "5900155",
    "prefecture": "大阪府",
    "prefecture_kana": "オオサカフ",
    "prefecture_code": 27,
    "city": "堺市南区",
    "city_kana": "サカイシミナミク",
    "town": "野々井",
    "town_kana": "ノノイ",
    "street": null,
    "office_name": null,
    "office_name_kana": null
  },
  "0156": {
    "postcode": "5900156",
    "prefecture": "大阪府",
    "prefecture_kana": "オオサカフ",
    "prefecture_code": 27,
    "city": "堺市南区",
    "city_kana": "サカイシミナミク",
    "town": "稲葉",
    "town_kana": "イナバ",
    "street": null,
    "office_name": null,
    "office_name_kana": null
  },
  "0157": {
    "postcode": "5900157",
    "prefecture": "大阪府",
    "prefecture_kana": "オオサカフ",
    "prefecture_code": 27,
    "city": "堺市南区",
    "city_kana": "サカイシミナミク",
    "town": "高尾",
    "town_kana": "タカオ",
    "street": null,
    "office_name": null,
    "office_name_kana": null
  },
  "0158": {
    "postcode": "5900158",
    "prefecture": "大阪府",
    "prefecture_kana": "オオサカフ",
    "prefecture_code": 27,
    "city": "堺市南区",
    "city_kana": "サカイシミナミク",
    "town": "太平寺",
    "town_kana": "タイヘイジ",
    "street": null,
    "office_name": null,
    "office_name_kana": null
  },
  "0400": {
    "postcode": "5900400",
    "prefecture": "大阪府",
    "prefecture_kana": "オオサカフ",
    "prefecture_code": 27,
    "city": "泉南郡熊取町",
    "city_kana": "センナングンクマトリチョウ",
    "town": "",
    "town_kana": "",
    "street": null,
    "office_name": null,
    "office_name_kana": null
  },
  "0401": {
    "postcode": "5900401",
    "prefecture": "大阪府",
    "prefecture_kana": "オオサカフ",
    "prefecture_code": 27,
    "city": "泉南郡熊取町",
    "city_kana": "センナングンクマトリチョウ",
    "town": "大久保",
    "town_kana": "オオクボ",
    "street": null,
    "office_name": null,
    "office_name_kana": null
  },
  "0402": {
    "postcode": "5900402",
    "prefecture": "大阪府",
    "prefecture_kana": "オオサカフ",
    "prefecture_code": 27,
    "city": "泉南郡熊取町",
    "city_kana": "センナングンクマトリチョウ",
    "town": "大久保北",
    "town_kana": "オオクボキタ",
    "street": null,
    "office_name": null,
    "office_name_kana": null
  },
  "0403": {
    "postcode": "5900403",
    "prefecture": "大阪府",
    "prefecture_kana": "オオサカフ",
    "prefecture_code": 27,
    "city": "泉南郡熊取町",
    "city_kana": "センナングンクマトリチョウ",
    "town": "大久保中",
    "town_kana": "オオクボナカ",
    "street": null,
    "office_name": null,
    "office_name_kana": null
  },
  "0404": {
    "postcode": "5900404",
    "prefecture": "大阪府",
    "prefecture_kana": "オオサカフ",
    "prefecture_code": 27,
    "city": "泉南郡熊取町",
    "city_kana": "センナングンクマトリチョウ",
    "town": "大久保西",
    "town_kana": "オオクボニシ",
    "street": null,
    "office_name": null,
    "office_name_kana": null
  },
  "0405": {
    "postcode": "5900405",
    "prefecture": "大阪府",
    "prefecture_kana": "オオサカフ",
    "prefecture_code": 27,
    "city": "泉南郡熊取町",
    "city_kana": "センナングンクマトリチョウ",
    "town": "大久保南",
    "town_kana": "オオクボミナミ",
    "street": null,
    "office_name": null,
    "office_name_kana": null
  },
  "0406": {
    "postcode": "5900406",
    "prefecture": "大阪府",
    "prefecture_kana": "オオサカフ",
    "prefecture_code": 27,
    "city": "泉南郡熊取町",
    "city_kana": "センナングンクマトリチョウ",
    "town": "大久保東",
    "town_kana": "オオクボヒガシ",
    "street": null,
    "office_name": null,
    "office_name_kana": null
  },
  "0407": {
    "postcode": "5900407",
    "prefecture": "大阪府",
    "prefecture_kana": "オオサカフ",
    "prefecture_code": 27,
    "city": "泉南郡熊取町",
    "city_kana": "センナングンクマトリチョウ",
    "town": "青葉台",
    "town_kana": "アオバダイ",
    "street": null,
    "office_name": null,
    "office_name_kana": null
  },
  "0411": {
    "postcode": "5900411",
    "prefecture": "大阪府",
    "prefecture_kana": "オオサカフ",
    "prefecture_code": 27,
    "city": "泉南郡熊取町",
    "city_kana": "センナングンクマトリチョウ",
    "town": "五門",
    "town_kana": "ゴモン",
    "street": null,
    "office_name": null,
    "office_name_kana": null
  },
  "0412": {
    "postcode": "5900412",
    "prefecture": "大阪府",
    "prefecture_kana": "オオサカフ",
    "prefecture_code": 27,
    "city": "泉南郡熊取町",
    "city_kana": "センナングンクマトリチョウ",
    "town": "紺屋",
    "town_kana": "コンヤ",
    "street": null,
    "office_name": null,
    "office_name_kana": null
  },
  "0413": {
    "postcode": "5900413",
    "prefecture": "大阪府",
    "prefecture_kana": "オオサカフ",
    "prefecture_code": 27,
    "city": "泉南郡熊取町",
    "city_kana": "センナングンクマトリチョウ",
    "town": "桜が丘",
    "town_kana": "サクラガオカ",
    "street": null,
    "office_name": null,
    "office_name_kana": null
  },
  "0414": {
    "postcode": "5900414",
    "prefecture": "大阪府",
    "prefecture_kana": "オオサカフ",
    "prefecture_code": 27,
    "city": "泉南郡熊取町",
    "city_kana": "センナングンクマトリチョウ",
    "town": "五門東",
    "town_kana": "ゴモンヒガシ",
    "street": null,
    "office_name": null,
    "office_name_kana": null
  },
  "0415": {
    "postcode": "5900415",
    "prefecture": "大阪府",
    "prefecture_kana": "オオサカフ",
    "prefecture_code": 27,
    "city": "泉南郡熊取町",
    "city_kana": "センナングンクマトリチョウ",
    "town": "五門西",
    "town_kana": "ゴモンニシ",
    "street": null,
    "office_name": null,
    "office_name_kana": null
  },
  "0416": {
    "postcode": "5900416",
    "prefecture": "大阪府",
    "prefecture_kana": "オオサカフ",
    "prefecture_code": 27,
    "city": "泉南郡熊取町",
    "city_kana": "センナングンクマトリチョウ",
    "town": "東和苑",
    "town_kana": "トウワエン",
    "street": null,
    "office_name": null,
    "office_name_kana": null
  },
  "0417": {
    "postcode": "5900417",
    "prefecture": "大阪府",
    "prefecture_kana": "オオサカフ",
    "prefecture_code": 27,
    "city": "泉南郡熊取町",
    "city_kana": "センナングンクマトリチョウ",
    "town": "和田",
    "town_kana": "ワダ",
    "street": null,
    "office_name": null,
    "office_name_kana": null
  },
  "0421": {
    "postcode": "5900421",
    "prefecture": "大阪府",
    "prefecture_kana": "オオサカフ",
    "prefecture_code": 27,
    "city": "泉南郡熊取町",
    "city_kana": "センナングンクマトリチョウ",
    "town": "七山",
    "town_kana": "シチヤマ",
    "street": null,
    "office_name": null,
    "office_name_kana": null
  },
  "0422": {
    "postcode": "5900422",
    "prefecture": "大阪府",
    "prefecture_kana": "オオサカフ",
    "prefecture_code": 27,
    "city": "泉南郡熊取町",
    "city_kana": "センナングンクマトリチョウ",
    "town": "希望が丘",
    "town_kana": "キボウガオカ",
    "street": null,
    "office_name": null,
    "office_name_kana": null
  },
  "0423": {
    "postcode": "5900423",
    "prefecture": "大阪府",
    "prefecture_kana": "オオサカフ",
    "prefecture_code": 27,
    "city": "泉南郡熊取町",
    "city_kana": "センナングンクマトリチョウ",
    "town": "自由が丘",
    "town_kana": "ジュウガオカ",
    "street": null,
    "office_name": null,
    "office_name_kana": null
  },
  "0424": {
    "postcode": "5900424",
    "prefecture": "大阪府",
    "prefecture_kana": "オオサカフ",
    "prefecture_code": 27,
    "city": "泉南郡熊取町",
    "city_kana": "センナングンクマトリチョウ",
    "town": "七山北",
    "town_kana": "シチヤマキタ",
    "street": null,
    "office_name": null,
    "office_name_kana": null
  },
  "0425": {
    "postcode": "5900425",
    "prefecture": "大阪府",
    "prefecture_kana": "オオサカフ",
    "prefecture_code": 27,
    "city": "泉南郡熊取町",
    "city_kana": "センナングンクマトリチョウ",
    "town": "七山東",
    "town_kana": "シチヤマヒガシ",
    "street": null,
    "office_name": null,
    "office_name_kana": null
  },
  "0426": {
    "postcode": "5900426",
    "prefecture": "大阪府",
    "prefecture_kana": "オオサカフ",
    "prefecture_code": 27,
    "city": "泉南郡熊取町",
    "city_kana": "センナングンクマトリチョウ",
    "town": "七山南",
    "town_kana": "シチヤマミナミ",
    "street": null,
    "office_name": null,
    "office_name_kana": null
  },
  "0427": {
    "postcode": "5900427",
    "prefecture": "大阪府",
    "prefecture_kana": "オオサカフ",
    "prefecture_code": 27,
    "city": "泉南郡熊取町",
    "city_kana": "センナングンクマトリチョウ",
    "town": "七山西",
    "town_kana": "シチヤマニシ",
    "street": null,
    "office_name": null,
    "office_name_kana": null
  },
  "0431": {
    "postcode": "5900431",
    "prefecture": "大阪府",
    "prefecture_kana": "オオサカフ",
    "prefecture_code": 27,
    "city": "泉南郡熊取町",
    "city_kana": "センナングンクマトリチョウ",
    "town": "小谷",
    "town_kana": "オダニ",
    "street": null,
    "office_name": null,
    "office_name_kana": null
  },
  "0432": {
    "postcode": "5900432",
    "prefecture": "大阪府",
    "prefecture_kana": "オオサカフ",
    "prefecture_code": 27,
    "city": "泉南郡熊取町",
    "city_kana": "センナングンクマトリチョウ",
    "town": "小垣内",
    "town_kana": "オガイト",
    "street": null,
    "office_name": null,
    "office_name_kana": null
  },
  "0433": {
    "postcode": "5900433",
    "prefecture": "大阪府",
    "prefecture_kana": "オオサカフ",
    "prefecture_code": 27,
    "city": "泉南郡熊取町",
    "city_kana": "センナングンクマトリチョウ",
    "town": "若葉",
    "town_kana": "ワカバ",
    "street": null,
    "office_name": null,
    "office_name_kana": null
  },
  "0434": {
    "postcode": "5900434",
    "prefecture": "大阪府",
    "prefecture_kana": "オオサカフ",
    "prefecture_code": 27,
    "city": "泉南郡熊取町",
    "city_kana": "センナングンクマトリチョウ",
    "town": "小谷北",
    "town_kana": "オダニキタ",
    "street": null,
    "office_name": null,
    "office_name_kana": null
  },
  "0435": {
    "postcode": "5900435",
    "prefecture": "大阪府",
    "prefecture_kana": "オオサカフ",
    "prefecture_code": 27,
    "city": "泉南郡熊取町",
    "city_kana": "センナングンクマトリチョウ",
    "town": "小谷南",
    "town_kana": "オダニミナミ",
    "street": null,
    "office_name": null,
    "office_name_kana": null
  },
  "0436": {
    "postcode": "5900436",
    "prefecture": "大阪府",
    "prefecture_kana": "オオサカフ",
    "prefecture_code": 27,
    "city": "泉南郡熊取町",
    "city_kana": "センナングンクマトリチョウ",
    "town": "高田",
    "town_kana": "コウダ",
    "street": null,
    "office_name": null,
    "office_name_kana": null
  },
  "0441": {
    "postcode": "5900441",
    "prefecture": "大阪府",
    "prefecture_kana": "オオサカフ",
    "prefecture_code": 27,
    "city": "泉南郡熊取町",
    "city_kana": "センナングンクマトリチョウ",
    "town": "久保",
    "town_kana": "クボ",
    "street": null,
    "office_name": null,
    "office_name_kana": null
  },
  "0442": {
    "postcode": "5900442",
    "prefecture": "大阪府",
    "prefecture_kana": "オオサカフ",
    "prefecture_code": 27,
    "city": "泉南郡熊取町",
    "city_kana": "センナングンクマトリチョウ",
    "town": "つばさが丘東",
    "town_kana": "ツバサガオカヒガシ",
    "street": null,
    "office_name": null,
    "office_name_kana": null
  },
  "0443": {
    "postcode": "5900443",
    "prefecture": "大阪府",
    "prefecture_kana": "オオサカフ",
    "prefecture_code": 27,
    "city": "泉南郡熊取町",
    "city_kana": "センナングンクマトリチョウ",
    "town": "つばさが丘西",
    "town_kana": "ツバサガオカニシ",
    "street": null,
    "office_name": null,
    "office_name_kana": null
  },
  "0444": {
    "postcode": "5900444",
    "prefecture": "大阪府",
    "prefecture_kana": "オオサカフ",
    "prefecture_code": 27,
    "city": "泉南郡熊取町",
    "city_kana": "センナングンクマトリチョウ",
    "town": "つばさが丘北",
    "town_kana": "ツバサガオカキタ",
    "street": null,
    "office_name": null,
    "office_name_kana": null
  },
  "0445": {
    "postcode": "5900445",
    "prefecture": "大阪府",
    "prefecture_kana": "オオサカフ",
    "prefecture_code": 27,
    "city": "泉南郡熊取町",
    "city_kana": "センナングンクマトリチョウ",
    "town": "五月ケ丘",
    "town_kana": "サツキガオカ",
    "street": null,
    "office_name": null,
    "office_name_kana": null
  },
  "0446": {
    "postcode": "5900446",
    "prefecture": "大阪府",
    "prefecture_kana": "オオサカフ",
    "prefecture_code": 27,
    "city": "泉南郡熊取町",
    "city_kana": "センナングンクマトリチョウ",
    "town": "成合北",
    "town_kana": "ナリアイキタ",
    "street": null,
    "office_name": null,
    "office_name_kana": null
  },
  "0447": {
    "postcode": "5900447",
    "prefecture": "大阪府",
    "prefecture_kana": "オオサカフ",
    "prefecture_code": 27,
    "city": "泉南郡熊取町",
    "city_kana": "センナングンクマトリチョウ",
    "town": "成合東",
    "town_kana": "ナリアイヒガシ",
    "street": null,
    "office_name": null,
    "office_name_kana": null
  },
  "0448": {
    "postcode": "5900448",
    "prefecture": "大阪府",
    "prefecture_kana": "オオサカフ",
    "prefecture_code": 27,
    "city": "泉南郡熊取町",
    "city_kana": "センナングンクマトリチョウ",
    "town": "成合南",
    "town_kana": "ナリアイミナミ",
    "street": null,
    "office_name": null,
    "office_name_kana": null
  },
  "0449": {
    "postcode": "5900449",
    "prefecture": "大阪府",
    "prefecture_kana": "オオサカフ",
    "prefecture_code": 27,
    "city": "泉南郡熊取町",
    "city_kana": "センナングンクマトリチョウ",
    "town": "成合西",
    "town_kana": "ナリアイニシ",
    "street": null,
    "office_name": null,
    "office_name_kana": null
  },
  "0450": {
    "postcode": "5900450",
    "prefecture": "大阪府",
    "prefecture_kana": "オオサカフ",
    "prefecture_code": 27,
    "city": "泉南郡熊取町",
    "city_kana": "センナングンクマトリチョウ",
    "town": "大宮",
    "town_kana": "オオミヤ",
    "street": null,
    "office_name": null,
    "office_name_kana": null
  },
  "0451": {
    "postcode": "5900451",
    "prefecture": "大阪府",
    "prefecture_kana": "オオサカフ",
    "prefecture_code": 27,
    "city": "泉南郡熊取町",
    "city_kana": "センナングンクマトリチョウ",
    "town": "野田",
    "town_kana": "ノダ",
    "street": null,
    "office_name": null,
    "office_name_kana": null
  },
  "0452": {
    "postcode": "5900452",
    "prefecture": "大阪府",
    "prefecture_kana": "オオサカフ",
    "prefecture_code": 27,
    "city": "泉南郡熊取町",
    "city_kana": "センナングンクマトリチョウ",
    "town": "山の手台",
    "town_kana": "ヤマノテダイ",
    "street": null,
    "office_name": null,
    "office_name_kana": null
  },
  "0453": {
    "postcode": "5900453",
    "prefecture": "大阪府",
    "prefecture_kana": "オオサカフ",
    "prefecture_code": 27,
    "city": "泉南郡熊取町",
    "city_kana": "センナングンクマトリチョウ",
    "town": "南山の手台",
    "town_kana": "ミナミヤマノテダイ",
    "street": null,
    "office_name": null,
    "office_name_kana": null
  },
  "0454": {
    "postcode": "5900454",
    "prefecture": "大阪府",
    "prefecture_kana": "オオサカフ",
    "prefecture_code": 27,
    "city": "泉南郡熊取町",
    "city_kana": "センナングンクマトリチョウ",
    "town": "新野田",
    "town_kana": "シンノダ",
    "street": null,
    "office_name": null,
    "office_name_kana": null
  },
  "0455": {
    "postcode": "5900455",
    "prefecture": "大阪府",
    "prefecture_kana": "オオサカフ",
    "prefecture_code": 27,
    "city": "泉南郡熊取町",
    "city_kana": "センナングンクマトリチョウ",
    "town": "長池",
    "town_kana": "ナガイケ",
    "street": null,
    "office_name": null,
    "office_name_kana": null
  },
  "0456": {
    "postcode": "5900456",
    "prefecture": "大阪府",
    "prefecture_kana": "オオサカフ",
    "prefecture_code": 27,
    "city": "泉南郡熊取町",
    "city_kana": "センナングンクマトリチョウ",
    "town": "美熊台",
    "town_kana": "ミクマダイ",
    "street": null,
    "office_name": null,
    "office_name_kana": null
  },
  "0457": {
    "postcode": "5900457",
    "prefecture": "大阪府",
    "prefecture_kana": "オオサカフ",
    "prefecture_code": 27,
    "city": "泉南郡熊取町",
    "city_kana": "センナングンクマトリチョウ",
    "town": "朝代東",
    "town_kana": "アサシロヒガシ",
    "street": null,
    "office_name": null,
    "office_name_kana": null
  },
  "0458": {
    "postcode": "5900458",
    "prefecture": "大阪府",
    "prefecture_kana": "オオサカフ",
    "prefecture_code": 27,
    "city": "泉南郡熊取町",
    "city_kana": "センナングンクマトリチョウ",
    "town": "朝代西",
    "town_kana": "アサシロニシ",
    "street": null,
    "office_name": null,
    "office_name_kana": null
  },
  "0459": {
    "postcode": "5900459",
    "prefecture": "大阪府",
    "prefecture_kana": "オオサカフ",
    "prefecture_code": 27,
    "city": "泉南郡熊取町",
    "city_kana": "センナングンクマトリチョウ",
    "town": "朝代台",
    "town_kana": "アサシロダイ",
    "street": null,
    "office_name": null,
    "office_name_kana": null
  },
  "0461": {
    "postcode": "5900461",
    "prefecture": "大阪府",
    "prefecture_kana": "オオサカフ",
    "prefecture_code": 27,
    "city": "貝塚市",
    "city_kana": "カイヅカシ",
    "town": "三ツ松",
    "town_kana": "ミツマツ",
    "street": null,
    "office_name": null,
    "office_name_kana": null
  },
  "0481": {
    "postcode": "5900481",
    "prefecture": "大阪府",
    "prefecture_kana": "オオサカフ",
    "prefecture_code": 27,
    "city": "泉南郡熊取町",
    "city_kana": "センナングンクマトリチョウ",
    "town": "朝代西",
    "town_kana": "アサシロニシ",
    "street": "１丁目９５０",
    "office_name": "原子燃料工業　株式会社　熊取事業所",
    "office_name_kana": "ゲンシネンリヨウコウギヨウ カブシキカイシヤ クマトリジギヨウシヨ"
  },
  "0482": {
    "postcode": "5900482",
    "prefecture": "大阪府",
    "prefecture_kana": "オオサカフ",
    "prefecture_code": 27,
    "city": "泉南郡熊取町",
    "city_kana": "センナングンクマトリチョウ",
    "town": "若葉",
    "town_kana": "ワカバ",
    "street": "２丁目１１−１",
    "office_name": "関西鍼灸大学",
    "office_name_kana": "カンサイシンキユウダイガク"
  },
  "0493": {
    "postcode": "5900493",
    "prefecture": "大阪府",
    "prefecture_kana": "オオサカフ",
    "prefecture_code": 27,
    "city": "泉南郡熊取町",
    "city_kana": "センナングンクマトリチョウ",
    "town": "大久保南",
    "town_kana": "オオクボミナミ",
    "street": "５丁目３−１",
    "office_name": "大阪観光大学",
    "office_name_kana": "オオサカカンコウダイガク"
  },
  "0494": {
    "postcode": "5900494",
    "prefecture": "大阪府",
    "prefecture_kana": "オオサカフ",
    "prefecture_code": 27,
    "city": "泉南郡熊取町",
    "city_kana": "センナングンクマトリチョウ",
    "town": "朝代西",
    "town_kana": "アサシロニシ",
    "street": "２丁目１０１０",
    "office_name": "京都大学　原子炉実験所",
    "office_name_kana": "キヨウトダイガク ゲンシロジツケンシヨ"
  },
  "0495": {
    "postcode": "5900495",
    "prefecture": "大阪府",
    "prefecture_kana": "オオサカフ",
    "prefecture_code": 27,
    "city": "泉南郡熊取町",
    "city_kana": "センナングンクマトリチョウ",
    "town": "野田",
    "town_kana": "ノダ",
    "street": "１丁目１−１",
    "office_name": "熊取町役場",
    "office_name_kana": "クマトリチヨウヤクバ"
  },
  "0496": {
    "postcode": "5900496",
    "prefecture": "大阪府",
    "prefecture_kana": "オオサカフ",
    "prefecture_code": 27,
    "city": "泉南郡熊取町",
    "city_kana": "センナングンクマトリチョウ",
    "town": "朝代台",
    "town_kana": "アサシロダイ",
    "street": "１−１",
    "office_name": "学校法人　浪商学園大阪体育大学",
    "office_name_kana": "ガツコウホウジン ナミシヨウガクエンオオサカタイイクダイガク"
  },
  "0500": {
    "postcode": "5900500",
    "prefecture": "大阪府",
    "prefecture_kana": "オオサカフ",
    "prefecture_code": 27,
    "city": "泉南市",
    "city_kana": "センナンシ",
    "town": "",
    "town_kana": "",
    "street": null,
    "office_name": null,
    "office_name_kana": null
  },
  "0501": {
    "postcode": "5900501",
    "prefecture": "大阪府",
    "prefecture_kana": "オオサカフ",
    "prefecture_code": 27,
    "city": "泉南市",
    "city_kana": "センナンシ",
    "town": "兎田",
    "town_kana": "ウサイダ",
    "street": null,
    "office_name": null,
    "office_name_kana": null
  },
  "0502": {
    "postcode": "5900502",
    "prefecture": "大阪府",
    "prefecture_kana": "オオサカフ",
    "prefecture_code": 27,
    "city": "泉南市",
    "city_kana": "センナンシ",
    "town": "別所",
    "town_kana": "ベッシヨ",
    "street": null,
    "office_name": null,
    "office_name_kana": null
  },
  "0503": {
    "postcode": "5900503",
    "prefecture": "大阪府",
    "prefecture_kana": "オオサカフ",
    "prefecture_code": 27,
    "city": "泉南市",
    "city_kana": "センナンシ",
    "town": "新家",
    "town_kana": "シンゲ",
    "street": null,
    "office_name": null,
    "office_name_kana": null
  },
  "0504": {
    "postcode": "5900504",
    "prefecture": "大阪府",
    "prefecture_kana": "オオサカフ",
    "prefecture_code": 27,
    "city": "泉南市",
    "city_kana": "センナンシ",
    "town": "信達市場",
    "town_kana": "シンダチイチバ",
    "street": null,
    "office_name": null,
    "office_name_kana": null
  },
  "0505": {
    "postcode": "5900505",
    "prefecture": "大阪府",
    "prefecture_kana": "オオサカフ",
    "prefecture_code": 27,
    "city": "泉南市",
    "city_kana": "センナンシ",
    "town": "信達大苗代",
    "town_kana": "シンダチオノシロ",
    "street": null,
    "office_name": null,
    "office_name_kana": null
  },
  "0511": {
    "postcode": "5900511",
    "prefecture": "大阪府",
    "prefecture_kana": "オオサカフ",
    "prefecture_code": 27,
    "city": "泉南市",
    "city_kana": "センナンシ",
    "town": "信達葛畑",
    "town_kana": "シンダチツズラバタ",
    "street": null,
    "office_name": null,
    "office_name_kana": null
  },
  "0512": {
    "postcode": "5900512",
    "prefecture": "大阪府",
    "prefecture_kana": "オオサカフ",
    "prefecture_code": 27,
    "city": "泉南市",
    "city_kana": "センナンシ",
    "town": "信達童子畑",
    "town_kana": "シンダチワラヅハタ",
    "street": null,
    "office_name": null,
    "office_name_kana": null
  },
  "0513": {
    "postcode": "5900513",
    "prefecture": "大阪府",
    "prefecture_kana": "オオサカフ",
    "prefecture_code": 27,
    "city": "泉南市",
    "city_kana": "センナンシ",
    "town": "信達楠畑",
    "town_kana": "シンダチクスバタ",
    "street": null,
    "office_name": null,
    "office_name_kana": null
  },
  "0514": {
    "postcode": "5900514",
    "prefecture": "大阪府",
    "prefecture_kana": "オオサカフ",
    "prefecture_code": 27,
    "city": "泉南市",
    "city_kana": "センナンシ",
    "town": "信達金熊寺",
    "town_kana": "シンダチキンユウジ",
    "street": null,
    "office_name": null,
    "office_name_kana": null
  },
  "0515": {
    "postcode": "5900515",
    "prefecture": "大阪府",
    "prefecture_kana": "オオサカフ",
    "prefecture_code": 27,
    "city": "泉南市",
    "city_kana": "センナンシ",
    "town": "信達六尾",
    "town_kana": "シンダチムツオ",
    "street": null,
    "office_name": null,
    "office_name_kana": null
  },
  "0521": {
    "postcode": "5900521",
    "prefecture": "大阪府",
    "prefecture_kana": "オオサカフ",
    "prefecture_code": 27,
    "city": "泉南市",
    "city_kana": "センナンシ",
    "town": "樽井",
    "town_kana": "タルイ",
    "street": null,
    "office_name": null,
    "office_name_kana": null
  },
  "0522": {
    "postcode": "5900522",
    "prefecture": "大阪府",
    "prefecture_kana": "オオサカフ",
    "prefecture_code": 27,
    "city": "泉南市",
    "city_kana": "センナンシ",
    "town": "信達牧野",
    "town_kana": "シンダチマキノ",
    "street": null,
    "office_name": null,
    "office_name_kana": null
  },
  "0523": {
    "postcode": "5900523",
    "prefecture": "大阪府",
    "prefecture_kana": "オオサカフ",
    "prefecture_code": 27,
    "city": "泉南市",
    "city_kana": "センナンシ",
    "town": "信達岡中",
    "town_kana": "シンダチオカナカ",
    "street": null,
    "office_name": null,
    "office_name_kana": null
  },
  "0524": {
    "postcode": "5900524",
    "prefecture": "大阪府",
    "prefecture_kana": "オオサカフ",
    "prefecture_code": 27,
    "city": "泉南市",
    "city_kana": "センナンシ",
    "town": "幡代",
    "town_kana": "ハタシロ",
    "street": null,
    "office_name": null,
    "office_name_kana": null
  },
  "0525": {
    "postcode": "5900525",
    "prefecture": "大阪府",
    "prefecture_kana": "オオサカフ",
    "prefecture_code": 27,
    "city": "泉南市",
    "city_kana": "センナンシ",
    "town": "馬場",
    "town_kana": "ババ",
    "street": null,
    "office_name": null,
    "office_name_kana": null
  },
  "0526": {
    "postcode": "5900526",
    "prefecture": "大阪府",
    "prefecture_kana": "オオサカフ",
    "prefecture_code": 27,
    "city": "泉南市",
    "city_kana": "センナンシ",
    "town": "男里",
    "town_kana": "オノサト",
    "street": null,
    "office_name": null,
    "office_name_kana": null
  },
  "0531": {
    "postcode": "5900531",
    "prefecture": "大阪府",
    "prefecture_kana": "オオサカフ",
    "prefecture_code": 27,
    "city": "泉南市",
    "city_kana": "センナンシ",
    "town": "岡田",
    "town_kana": "オカダ",
    "street": null,
    "office_name": null,
    "office_name_kana": null
  },
  "0532": {
    "postcode": "5900532",
    "prefecture": "大阪府",
    "prefecture_kana": "オオサカフ",
    "prefecture_code": 27,
    "city": "泉南市",
    "city_kana": "センナンシ",
    "town": "北野",
    "town_kana": "キタノ",
    "street": null,
    "office_name": null,
    "office_name_kana": null
  },
  "0533": {
    "postcode": "5900533",
    "prefecture": "大阪府",
    "prefecture_kana": "オオサカフ",
    "prefecture_code": 27,
    "city": "泉南市",
    "city_kana": "センナンシ",
    "town": "中小路",
    "town_kana": "ナコウジ",
    "street": null,
    "office_name": null,
    "office_name_kana": null
  },
  "0534": {
    "postcode": "5900534",
    "prefecture": "大阪府",
    "prefecture_kana": "オオサカフ",
    "prefecture_code": 27,
    "city": "泉南市",
    "city_kana": "センナンシ",
    "town": "鳴滝",
    "town_kana": "ナルタキ",
    "street": null,
    "office_name": null,
    "office_name_kana": null
  },
  "0535": {
    "postcode": "5900535",
    "prefecture": "大阪府",
    "prefecture_kana": "オオサカフ",
    "prefecture_code": 27,
    "city": "泉南市",
    "city_kana": "センナンシ",
    "town": "りんくう南浜",
    "town_kana": "リンクウミナミハマ",
    "street": null,
    "office_name": null,
    "office_name_kana": null
  },
  "0592": {
    "postcode": "5900592",
    "prefecture": "大阪府",
    "prefecture_kana": "オオサカフ",
    "prefecture_code": 27,
    "city": "泉南市",
    "city_kana": "センナンシ",
    "town": "樽井",
    "town_kana": "タルイ",
    "street": "１丁目１−１",
    "office_name": "大阪府泉南市役所",
    "office_name_kana": "オオサカフセンナンシヤクシヨ"
  },
  "0801": {
    "postcode": "5900801",
    "prefecture": "大阪府",
    "prefecture_kana": "オオサカフ",
    "prefecture_code": 27,
    "city": "堺市堺区",
    "city_kana": "サカイシサカイク",
    "town": "大仙中町",
    "town_kana": "ダイセンナカマチ",
    "street": null,
    "office_name": null,
    "office_name_kana": null
  },
  "0802": {
    "postcode": "5900802",
    "prefecture": "大阪府",
    "prefecture_kana": "オオサカフ",
    "prefecture_code": 27,
    "city": "堺市堺区",
    "city_kana": "サカイシサカイク",
    "town": "百舌鳥夕雲町",
    "town_kana": "モズセキウンチョウ",
    "street": null,
    "office_name": null,
    "office_name_kana": null
  },
  "0803": {
    "postcode": "5900803",
    "prefecture": "大阪府",
    "prefecture_kana": "オオサカフ",
    "prefecture_code": 27,
    "city": "堺市堺区",
    "city_kana": "サカイシサカイク",
    "town": "東上野芝町",
    "town_kana": "ヒガシウエノシバチョウ",
    "street": null,
    "office_name": null,
    "office_name_kana": null
  },
  "0804": {
    "postcode": "5900804",
    "prefecture": "大阪府",
    "prefecture_kana": "オオサカフ",
    "prefecture_code": 27,
    "city": "堺市堺区",
    "city_kana": "サカイシサカイク",
    "town": "緑ヶ丘南町",
    "town_kana": "ミドリガオカミナミマチ",
    "street": null,
    "office_name": null,
    "office_name_kana": null
  },
  "0805": {
    "postcode": "5900805",
    "prefecture": "大阪府",
    "prefecture_kana": "オオサカフ",
    "prefecture_code": 27,
    "city": "堺市堺区",
    "city_kana": "サカイシサカイク",
    "town": "緑ヶ丘中町",
    "town_kana": "ミドリガオカナカマチ",
    "street": null,
    "office_name": null,
    "office_name_kana": null
  },
  "0806": {
    "postcode": "5900806",
    "prefecture": "大阪府",
    "prefecture_kana": "オオサカフ",
    "prefecture_code": 27,
    "city": "堺市堺区",
    "city_kana": "サカイシサカイク",
    "town": "緑ヶ丘北町",
    "town_kana": "ミドリガオカキタマチ",
    "street": null,
    "office_name": null,
    "office_name_kana": null
  },
  "0807": {
    "postcode": "5900807",
    "prefecture": "大阪府",
    "prefecture_kana": "オオサカフ",
    "prefecture_code": 27,
    "city": "堺市堺区",
    "city_kana": "サカイシサカイク",
    "town": "旭ケ丘南町",
    "town_kana": "アサヒガオカミナミマチ",
    "street": null,
    "office_name": null,
    "office_name_kana": null
  },
  "0808": {
    "postcode": "5900808",
    "prefecture": "大阪府",
    "prefecture_kana": "オオサカフ",
    "prefecture_code": 27,
    "city": "堺市堺区",
    "city_kana": "サカイシサカイク",
    "town": "旭ケ丘中町",
    "town_kana": "アサヒガオカナカマチ",
    "street": null,
    "office_name": null,
    "office_name_kana": null
  },
  "0809": {
    "postcode": "5900809",
    "prefecture": "大阪府",
    "prefecture_kana": "オオサカフ",
    "prefecture_code": 27,
    "city": "堺市堺区",
    "city_kana": "サカイシサカイク",
    "town": "旭ケ丘北町",
    "town_kana": "アサヒガオカキタマチ",
    "street": null,
    "office_name": null,
    "office_name_kana": null
  },
  "0811": {
    "postcode": "5900811",
    "prefecture": "大阪府",
    "prefecture_kana": "オオサカフ",
    "prefecture_code": 27,
    "city": "堺市堺区",
    "city_kana": "サカイシサカイク",
    "town": "南陵町",
    "town_kana": "ナンリョウチョウ",
    "street": null,
    "office_name": null,
    "office_name_kana": null
  },
  "0812": {
    "postcode": "5900812",
    "prefecture": "大阪府",
    "prefecture_kana": "オオサカフ",
    "prefecture_code": 27,
    "city": "堺市堺区",
    "city_kana": "サカイシサカイク",
    "town": "霞ケ丘町",
    "town_kana": "カスミガオカチョウ",
    "street": null,
    "office_name": null,
    "office_name_kana": null
  },
  "0813": {
    "postcode": "5900813",
    "prefecture": "大阪府",
    "prefecture_kana": "オオサカフ",
    "prefecture_code": 27,
    "city": "堺市堺区",
    "city_kana": "サカイシサカイク",
    "town": "神石市之町",
    "town_kana": "カミイシイチノチョウ",
    "street": null,
    "office_name": null,
    "office_name_kana": null
  },
  "0814": {
    "postcode": "5900814",
    "prefecture": "大阪府",
    "prefecture_kana": "オオサカフ",
    "prefecture_code": 27,
    "city": "堺市堺区",
    "city_kana": "サカイシサカイク",
    "town": "石津町",
    "town_kana": "イシヅチョウ",
    "street": null,
    "office_name": null,
    "office_name_kana": null
  },
  "0820": {
    "postcode": "5900820",
    "prefecture": "大阪府",
    "prefecture_kana": "オオサカフ",
    "prefecture_code": 27,
    "city": "堺市堺区",
    "city_kana": "サカイシサカイク",
    "town": "高砂町",
    "town_kana": "タカサゴチョウ",
    "street": null,
    "office_name": null,
    "office_name_kana": null
  },
  "0821": {
    "postcode": "5900821",
    "prefecture": "大阪府",
    "prefecture_kana": "オオサカフ",
    "prefecture_code": 27,
    "city": "堺市堺区",
    "city_kana": "サカイシサカイク",
    "town": "大仙西町",
    "town_kana": "ダイセンニシマチ",
    "street": null,
    "office_name": null,
    "office_name_kana": null
  },
  "0822": {
    "postcode": "5900822",
    "prefecture": "大阪府",
    "prefecture_kana": "オオサカフ",
    "prefecture_code": 27,
    "city": "堺市堺区",
    "city_kana": "サカイシサカイク",
    "town": "協和町",
    "town_kana": "キョウワチョウ",
    "street": null,
    "office_name": null,
    "office_name_kana": null
  },
  "0823": {
    "postcode": "5900823",
    "prefecture": "大阪府",
    "prefecture_kana": "オオサカフ",
    "prefecture_code": 27,
    "city": "堺市堺区",
    "city_kana": "サカイシサカイク",
    "town": "石津北町",
    "town_kana": "イシヅキタマチ",
    "street": null,
    "office_name": null,
    "office_name_kana": null
  },
  "0824": {
    "postcode": "5900824",
    "prefecture": "大阪府",
    "prefecture_kana": "オオサカフ",
    "prefecture_code": 27,
    "city": "堺市堺区",
    "city_kana": "サカイシサカイク",
    "town": "老松町",
    "town_kana": "オイマツチョウ",
    "street": null,
    "office_name": null,
    "office_name_kana": null
  },
  "0825": {
    "postcode": "5900825",
    "prefecture": "大阪府",
    "prefecture_kana": "オオサカフ",
    "prefecture_code": 27,
    "city": "堺市堺区",
    "city_kana": "サカイシサカイク",
    "town": "昭和通",
    "town_kana": "ショウワドオリ",
    "street": null,
    "office_name": null,
    "office_name_kana": null
  },
  "0826": {
    "postcode": "5900826",
    "prefecture": "大阪府",
    "prefecture_kana": "オオサカフ",
    "prefecture_code": 27,
    "city": "堺市堺区",
    "city_kana": "サカイシサカイク",
    "town": "菅原通",
    "town_kana": "スガハラドオリ",
    "street": null,
    "office_name": null,
    "office_name_kana": null
  },
  "0827": {
    "postcode": "5900827",
    "prefecture": "大阪府",
    "prefecture_kana": "オオサカフ",
    "prefecture_code": 27,
    "city": "堺市堺区",
    "city_kana": "サカイシサカイク",
    "town": "春日通",
    "town_kana": "カスガドオリ",
    "street": null,
    "office_name": null,
    "office_name_kana": null
  },
  "0828": {
    "postcode": "5900828",
    "prefecture": "大阪府",
    "prefecture_kana": "オオサカフ",
    "prefecture_code": 27,
    "city": "堺市堺区",
    "city_kana": "サカイシサカイク",
    "town": "八幡通",
    "town_kana": "ヤハタドオリ",
    "street": null,
    "office_name": null,
    "office_name_kana": null
  },
  "0829": {
    "postcode": "5900829",
    "prefecture": "大阪府",
    "prefecture_kana": "オオサカフ",
    "prefecture_code": 27,
    "city": "堺市堺区",
    "city_kana": "サカイシサカイク",
    "town": "東湊町",
    "town_kana": "ヒガシミナトチョウ",
    "street": null,
    "office_name": null,
    "office_name_kana": null
  },
  "0831": {
    "postcode": "5900831",
    "prefecture": "大阪府",
    "prefecture_kana": "オオサカフ",
    "prefecture_code": 27,
    "city": "堺市堺区",
    "city_kana": "サカイシサカイク",
    "town": "出島西町",
    "town_kana": "デジマニシマチ",
    "street": null,
    "office_name": null,
    "office_name_kana": null
  },
  "0832": {
    "postcode": "5900832",
    "prefecture": "大阪府",
    "prefecture_kana": "オオサカフ",
    "prefecture_code": 27,
    "city": "堺市堺区",
    "city_kana": "サカイシサカイク",
    "town": "出島浜通",
    "town_kana": "デジマハマドオリ",
    "street": null,
    "office_name": null,
    "office_name_kana": null
  },
  "0833": {
    "postcode": "5900833",
    "prefecture": "大阪府",
    "prefecture_kana": "オオサカフ",
    "prefecture_code": 27,
    "city": "堺市堺区",
    "city_kana": "サカイシサカイク",
    "town": "出島海岸通",
    "town_kana": "デジマカイガンドオリ",
    "street": null,
    "office_name": null,
    "office_name_kana": null
  },
  "0834": {
    "postcode": "5900834",
    "prefecture": "大阪府",
    "prefecture_kana": "オオサカフ",
    "prefecture_code": 27,
    "city": "堺市堺区",
    "city_kana": "サカイシサカイク",
    "town": "出島町",
    "town_kana": "デジマチョウ",
    "street": null,
    "office_name": null,
    "office_name_kana": null
  },
  "0835": {
    "postcode": "5900835",
    "prefecture": "大阪府",
    "prefecture_kana": "オオサカフ",
    "prefecture_code": 27,
    "city": "堺市堺区",
    "city_kana": "サカイシサカイク",
    "town": "西湊町",
    "town_kana": "ニシミナトチョウ",
    "street": null,
    "office_name": null,
    "office_name_kana": null
  },
  "0836": {
    "postcode": "5900836",
    "prefecture": "大阪府",
    "prefecture_kana": "オオサカフ",
    "prefecture_code": 27,
    "city": "堺市堺区",
    "city_kana": "サカイシサカイク",
    "town": "楠町",
    "town_kana": "クスノキチョウ",
    "street": null,
    "office_name": null,
    "office_name_kana": null
  },
  "0837": {
    "postcode": "5900837",
    "prefecture": "大阪府",
    "prefecture_kana": "オオサカフ",
    "prefecture_code": 27,
    "city": "堺市堺区",
    "city_kana": "サカイシサカイク",
    "town": "柏木町",
    "town_kana": "カシワギチョウ",
    "street": null,
    "office_name": null,
    "office_name_kana": null
  },
  "0901": {
    "postcode": "5900901",
    "prefecture": "大阪府",
    "prefecture_kana": "オオサカフ",
    "prefecture_code": 27,
    "city": "堺市堺区",
    "city_kana": "サカイシサカイク",
    "town": "築港八幡町",
    "town_kana": "チッコウヤワタマチ",
    "street": null,
    "office_name": null,
    "office_name_kana": null
  },
  "0902": {
    "postcode": "5900902",
    "prefecture": "大阪府",
    "prefecture_kana": "オオサカフ",
    "prefecture_code": 27,
    "city": "堺市堺区",
    "city_kana": "サカイシサカイク",
    "town": "松屋大和川通",
    "town_kana": "マツヤヤマトガワドオリ",
    "street": null,
    "office_name": null,
    "office_name_kana": null
  },
  "0903": {
    "postcode": "5900903",
    "prefecture": "大阪府",
    "prefecture_kana": "オオサカフ",
    "prefecture_code": 27,
    "city": "堺市堺区",
    "city_kana": "サカイシサカイク",
    "town": "松屋町",
    "town_kana": "マツヤチョウ",
    "street": null,
    "office_name": null,
    "office_name_kana": null
  },
  "0904": {
    "postcode": "5900904",
    "prefecture": "大阪府",
    "prefecture_kana": "オオサカフ",
    "prefecture_code": 27,
    "city": "堺市堺区",
    "city_kana": "サカイシサカイク",
    "town": "南島町",
    "town_kana": "ミナミジマチョウ",
    "street": null,
    "office_name": null,
    "office_name_kana": null
  },
  "0905": {
    "postcode": "5900905",
    "prefecture": "大阪府",
    "prefecture_kana": "オオサカフ",
    "prefecture_code": 27,
    "city": "堺市堺区",
    "city_kana": "サカイシサカイク",
    "town": "鉄砲町",
    "town_kana": "テッポウチョウ",
    "street": null,
    "office_name": null,
    "office_name_kana": null
  },
  "0906": {
    "postcode": "5900906",
    "prefecture": "大阪府",
    "prefecture_kana": "オオサカフ",
    "prefecture_code": 27,
    "city": "堺市堺区",
    "city_kana": "サカイシサカイク",
    "town": "三宝町",
    "town_kana": "サンボウチョウ",
    "street": null,
    "office_name": null,
    "office_name_kana": null
  },
  "0907": {
    "postcode": "5900907",
    "prefecture": "大阪府",
    "prefecture_kana": "オオサカフ",
    "prefecture_code": 27,
    "city": "堺市堺区",
    "city_kana": "サカイシサカイク",
    "town": "緑町",
    "town_kana": "ミドリチョウ",
    "street": null,
    "office_name": null,
    "office_name_kana": null
  },
  "0908": {
    "postcode": "5900908",
    "prefecture": "大阪府",
    "prefecture_kana": "オオサカフ",
    "prefecture_code": 27,
    "city": "堺市堺区",
    "city_kana": "サカイシサカイク",
    "town": "匠町",
    "town_kana": "タクミチョウ",
    "street": null,
    "office_name": null,
    "office_name_kana": null
  },
  "0911": {
    "postcode": "5900911",
    "prefecture": "大阪府",
    "prefecture_kana": "オオサカフ",
    "prefecture_code": 27,
    "city": "堺市堺区",
    "city_kana": "サカイシサカイク",
    "town": "七道西町",
    "town_kana": "シチドウニシマチ",
    "street": null,
    "office_name": null,
    "office_name_kana": null
  },
  "0912": {
    "postcode": "5900912",
    "prefecture": "大阪府",
    "prefecture_kana": "オオサカフ",
    "prefecture_code": 27,
    "city": "堺市堺区",
    "city_kana": "サカイシサカイク",
    "town": "並松町",
    "town_kana": "ナミマツチョウ",
    "street": null,
    "office_name": null,
    "office_name_kana": null
  },
  "0913": {
    "postcode": "5900913",
    "prefecture": "大阪府",
    "prefecture_kana": "オオサカフ",
    "prefecture_code": 27,
    "city": "堺市堺区",
    "city_kana": "サカイシサカイク",
    "town": "七道東町",
    "town_kana": "シチドウヒガシマチ",
    "street": null,
    "office_name": null,
    "office_name_kana": null
  },
  "0921": {
    "postcode": "5900921",
    "prefecture": "大阪府",
    "prefecture_kana": "オオサカフ",
    "prefecture_code": 27,
    "city": "堺市堺区",
    "city_kana": "サカイシサカイク",
    "town": "北半町西",
    "town_kana": "キタハンチョウニシ",
    "street": null,
    "office_name": null,
    "office_name_kana": null
  },
  "0922": {
    "postcode": "5900922",
    "prefecture": "大阪府",
    "prefecture_kana": "オオサカフ",
    "prefecture_code": 27,
    "city": "堺市堺区",
    "city_kana": "サカイシサカイク",
    "town": "北半町東",
    "town_kana": "キタハンチョウヒガシ",
    "street": null,
    "office_name": null,
    "office_name_kana": null
  },
  "0923": {
    "postcode": "5900923",
    "prefecture": "大阪府",
    "prefecture_kana": "オオサカフ",
    "prefecture_code": 27,
    "city": "堺市堺区",
    "city_kana": "サカイシサカイク",
    "town": "北旅籠町東",
    "town_kana": "キタハタゴチョウヒガシ",
    "street": null,
    "office_name": null,
    "office_name_kana": null
  },
  "0924": {
    "postcode": "5900924",
    "prefecture": "大阪府",
    "prefecture_kana": "オオサカフ",
    "prefecture_code": 27,
    "city": "堺市堺区",
    "city_kana": "サカイシサカイク",
    "town": "桜之町東",
    "town_kana": "サクラノチョウヒガシ",
    "street": null,
    "office_name": null,
    "office_name_kana": null
  },
  "0925": {
    "postcode": "5900925",
    "prefecture": "大阪府",
    "prefecture_kana": "オオサカフ",
    "prefecture_code": 27,
    "city": "堺市堺区",
    "city_kana": "サカイシサカイク",
    "town": "綾之町東",
    "town_kana": "アヤノチョウヒガシ",
    "street": null,
    "office_name": null,
    "office_name_kana": null
  },
  "0926": {
    "postcode": "5900926",
    "prefecture": "大阪府",
    "prefecture_kana": "オオサカフ",
    "prefecture_code": 27,
    "city": "堺市堺区",
    "city_kana": "サカイシサカイク",
    "town": "綾之町西",
    "town_kana": "アヤノチョウニシ",
    "street": null,
    "office_name": null,
    "office_name_kana": null
  },
  "0927": {
    "postcode": "5900927",
    "prefecture": "大阪府",
    "prefecture_kana": "オオサカフ",
    "prefecture_code": 27,
    "city": "堺市堺区",
    "city_kana": "サカイシサカイク",
    "town": "桜之町西",
    "town_kana": "サクラノチョウニシ",
    "street": null,
    "office_name": null,
    "office_name_kana": null
  },
  "0928": {
    "postcode": "5900928",
    "prefecture": "大阪府",
    "prefecture_kana": "オオサカフ",
    "prefecture_code": 27,
    "city": "堺市堺区",
    "city_kana": "サカイシサカイク",
    "town": "北旅籠町西",
    "town_kana": "キタハタゴチョウニシ",
    "street": null,
    "office_name": null,
    "office_name_kana": null
  },
  "0930": {
    "postcode": "5900930",
    "prefecture": "大阪府",
    "prefecture_kana": "オオサカフ",
    "prefecture_code": 27,
    "city": "堺市堺区",
    "city_kana": "サカイシサカイク",
    "town": "柳之町西",
    "town_kana": "ヤナギノチョウニシ",
    "street": null,
    "office_name": null,
    "office_name_kana": null
  },
  "0931": {
    "postcode": "5900931",
    "prefecture": "大阪府",
    "prefecture_kana": "オオサカフ",
    "prefecture_code": 27,
    "city": "堺市堺区",
    "city_kana": "サカイシサカイク",
    "town": "錦之町西",
    "town_kana": "ニシキノチョウニシ",
    "street": null,
    "office_name": null,
    "office_name_kana": null
  },
  "0932": {
    "postcode": "5900932",
    "prefecture": "大阪府",
    "prefecture_kana": "オオサカフ",
    "prefecture_code": 27,
    "city": "堺市堺区",
    "city_kana": "サカイシサカイク",
    "town": "錦之町東",
    "town_kana": "ニシキノチョウヒガシ",
    "street": null,
    "office_name": null,
    "office_name_kana": null
  },
  "0933": {
    "postcode": "5900933",
    "prefecture": "大阪府",
    "prefecture_kana": "オオサカフ",
    "prefecture_code": 27,
    "city": "堺市堺区",
    "city_kana": "サカイシサカイク",
    "town": "柳之町東",
    "town_kana": "ヤナギノチョウヒガシ",
    "street": null,
    "office_name": null,
    "office_name_kana": null
  },
  "0934": {
    "postcode": "5900934",
    "prefecture": "大阪府",
    "prefecture_kana": "オオサカフ",
    "prefecture_code": 27,
    "city": "堺市堺区",
    "city_kana": "サカイシサカイク",
    "town": "九間町東",
    "town_kana": "クケンチョウヒガシ",
    "street": null,
    "office_name": null,
    "office_name_kana": null
  },
  "0935": {
    "postcode": "5900935",
    "prefecture": "大阪府",
    "prefecture_kana": "オオサカフ",
    "prefecture_code": 27,
    "city": "堺市堺区",
    "city_kana": "サカイシサカイク",
    "town": "神明町東",
    "town_kana": "シンメイチョウヒガシ",
    "street": null,
    "office_name": null,
    "office_name_kana": null
  },
  "0936": {
    "postcode": "5900936",
    "prefecture": "大阪府",
    "prefecture_kana": "オオサカフ",
    "prefecture_code": 27,
    "city": "堺市堺区",
    "city_kana": "サカイシサカイク",
    "town": "宿屋町東",
    "town_kana": "シュクヤチョウヒガシ",
    "street": null,
    "office_name": null,
    "office_name_kana": null
  },
  "0937": {
    "postcode": "5900937",
    "prefecture": "大阪府",
    "prefecture_kana": "オオサカフ",
    "prefecture_code": 27,
    "city": "堺市堺区",
    "city_kana": "サカイシサカイク",
    "town": "宿屋町西",
    "town_kana": "シュクヤチョウニシ",
    "street": null,
    "office_name": null,
    "office_name_kana": null
  },
  "0938": {
    "postcode": "5900938",
    "prefecture": "大阪府",
    "prefecture_kana": "オオサカフ",
    "prefecture_code": 27,
    "city": "堺市堺区",
    "city_kana": "サカイシサカイク",
    "town": "神明町西",
    "town_kana": "シンメイチョウニシ",
    "street": null,
    "office_name": null,
    "office_name_kana": null
  },
  "0939": {
    "postcode": "5900939",
    "prefecture": "大阪府",
    "prefecture_kana": "オオサカフ",
    "prefecture_code": 27,
    "city": "堺市堺区",
    "city_kana": "サカイシサカイク",
    "town": "九間町西",
    "town_kana": "クケンチョウニシ",
    "street": null,
    "office_name": null,
    "office_name_kana": null
  },
  "0940": {
    "postcode": "5900940",
    "prefecture": "大阪府",
    "prefecture_kana": "オオサカフ",
    "prefecture_code": 27,
    "city": "堺市堺区",
    "city_kana": "サカイシサカイク",
    "town": "車之町西",
    "town_kana": "クルマノチョウニシ",
    "street": null,
    "office_name": null,
    "office_name_kana": null
  },
  "0941": {
    "postcode": "5900941",
    "prefecture": "大阪府",
    "prefecture_kana": "オオサカフ",
    "prefecture_code": 27,
    "city": "堺市堺区",
    "city_kana": "サカイシサカイク",
    "town": "材木町西",
    "town_kana": "ザイモクチョウニシ",
    "street": null,
    "office_name": null,
    "office_name_kana": null
  },
  "0942": {
    "postcode": "5900942",
    "prefecture": "大阪府",
    "prefecture_kana": "オオサカフ",
    "prefecture_code": 27,
    "city": "堺市堺区",
    "city_kana": "サカイシサカイク",
    "town": "材木町東",
    "town_kana": "ザイモクチョウヒガシ",
    "street": null,
    "office_name": null,
    "office_name_kana": null
  },
  "0943": {
    "postcode": "5900943",
    "prefecture": "大阪府",
    "prefecture_kana": "オオサカフ",
    "prefecture_code": 27,
    "city": "堺市堺区",
    "city_kana": "サカイシサカイク",
    "town": "車之町東",
    "town_kana": "クルマノチョウヒガシ",
    "street": null,
    "office_name": null,
    "office_name_kana": null
  },
  "0944": {
    "postcode": "5900944",
    "prefecture": "大阪府",
    "prefecture_kana": "オオサカフ",
    "prefecture_code": 27,
    "city": "堺市堺区",
    "city_kana": "サカイシサカイク",
    "town": "櫛屋町東",
    "town_kana": "クシヤチョウヒガシ",
    "street": null,
    "office_name": null,
    "office_name_kana": null
  },
  "0945": {
    "postcode": "5900945",
    "prefecture": "大阪府",
    "prefecture_kana": "オオサカフ",
    "prefecture_code": 27,
    "city": "堺市堺区",
    "city_kana": "サカイシサカイク",
    "town": "戎之町東",
    "town_kana": "エビスノチョウヒガシ",
    "street": null,
    "office_name": null,
    "office_name_kana": null
  },
  "0946": {
    "postcode": "5900946",
    "prefecture": "大阪府",
    "prefecture_kana": "オオサカフ",
    "prefecture_code": 27,
    "city": "堺市堺区",
    "city_kana": "サカイシサカイク",
    "town": "熊野町東",
    "town_kana": "クマノチョウヒガシ",
    "street": null,
    "office_name": null,
    "office_name_kana": null
  },
  "0947": {
    "postcode": "5900947",
    "prefecture": "大阪府",
    "prefecture_kana": "オオサカフ",
    "prefecture_code": 27,
    "city": "堺市堺区",
    "city_kana": "サカイシサカイク",
    "town": "熊野町西",
    "town_kana": "クマノチョウニシ",
    "street": null,
    "office_name": null,
    "office_name_kana": null
  },
  "0948": {
    "postcode": "5900948",
    "prefecture": "大阪府",
    "prefecture_kana": "オオサカフ",
    "prefecture_code": 27,
    "city": "堺市堺区",
    "city_kana": "サカイシサカイク",
    "town": "戎之町西",
    "town_kana": "エビスノチョウニシ",
    "street": null,
    "office_name": null,
    "office_name_kana": null
  },
  "0949": {
    "postcode": "5900949",
    "prefecture": "大阪府",
    "prefecture_kana": "オオサカフ",
    "prefecture_code": 27,
    "city": "堺市堺区",
    "city_kana": "サカイシサカイク",
    "town": "櫛屋町西",
    "town_kana": "クシヤチョウニシ",
    "street": null,
    "office_name": null,
    "office_name_kana": null
  },
  "0950": {
    "postcode": "5900950",
    "prefecture": "大阪府",
    "prefecture_kana": "オオサカフ",
    "prefecture_code": 27,
    "city": "堺市堺区",
    "city_kana": "サカイシサカイク",
    "town": "甲斐町西",
    "town_kana": "カイノチョウニシ",
    "street": null,
    "office_name": null,
    "office_name_kana": null
  },
  "0951": {
    "postcode": "5900951",
    "prefecture": "大阪府",
    "prefecture_kana": "オオサカフ",
    "prefecture_code": 27,
    "city": "堺市堺区",
    "city_kana": "サカイシサカイク",
    "town": "市之町西",
    "town_kana": "イチノチョウニシ",
    "street": null,
    "office_name": null,
    "office_name_kana": null
  },
  "0952": {
    "postcode": "5900952",
    "prefecture": "大阪府",
    "prefecture_kana": "オオサカフ",
    "prefecture_code": 27,
    "city": "堺市堺区",
    "city_kana": "サカイシサカイク",
    "town": "市之町東",
    "town_kana": "イチノチョウヒガシ",
    "street": null,
    "office_name": null,
    "office_name_kana": null
  },
  "0953": {
    "postcode": "5900953",
    "prefecture": "大阪府",
    "prefecture_kana": "オオサカフ",
    "prefecture_code": 27,
    "city": "堺市堺区",
    "city_kana": "サカイシサカイク",
    "town": "甲斐町東",
    "town_kana": "カイノチョウヒガシ",
    "street": null,
    "office_name": null,
    "office_name_kana": null
  },
  "0954": {
    "postcode": "5900954",
    "prefecture": "大阪府",
    "prefecture_kana": "オオサカフ",
    "prefecture_code": 27,
    "city": "堺市堺区",
    "city_kana": "サカイシサカイク",
    "town": "大町東",
    "town_kana": "オオチョウヒガシ",
    "street": null,
    "office_name": null,
    "office_name_kana": null
  },
  "0955": {
    "postcode": "5900955",
    "prefecture": "大阪府",
    "prefecture_kana": "オオサカフ",
    "prefecture_code": 27,
    "city": "堺市堺区",
    "city_kana": "サカイシサカイク",
    "town": "宿院町東",
    "town_kana": "シュクインチョウヒガシ",
    "street": null,
    "office_name": null,
    "office_name_kana": null
  },
  "0956": {
    "postcode": "5900956",
    "prefecture": "大阪府",
    "prefecture_kana": "オオサカフ",
    "prefecture_code": 27,
    "city": "堺市堺区",
    "city_kana": "サカイシサカイク",
    "town": "中之町東",
    "town_kana": "ナカノチョウヒガシ",
    "street": null,
    "office_name": null,
    "office_name_kana": null
  },
  "0957": {
    "postcode": "5900957",
    "prefecture": "大阪府",
    "prefecture_kana": "オオサカフ",
    "prefecture_code": 27,
    "city": "堺市堺区",
    "city_kana": "サカイシサカイク",
    "town": "中之町西",
    "town_kana": "ナカノチョウニシ",
    "street": null,
    "office_name": null,
    "office_name_kana": null
  },
  "0958": {
    "postcode": "5900958",
    "prefecture": "大阪府",
    "prefecture_kana": "オオサカフ",
    "prefecture_code": 27,
    "city": "堺市堺区",
    "city_kana": "サカイシサカイク",
    "town": "宿院町西",
    "town_kana": "シュクインチョウニシ",
    "street": null,
    "office_name": null,
    "office_name_kana": null
  },
  "0959": {
    "postcode": "5900959",
    "prefecture": "大阪府",
    "prefecture_kana": "オオサカフ",
    "prefecture_code": 27,
    "city": "堺市堺区",
    "city_kana": "サカイシサカイク",
    "town": "大町西",
    "town_kana": "オオチョウニシ",
    "street": null,
    "office_name": null,
    "office_name_kana": null
  },
  "0960": {
    "postcode": "5900960",
    "prefecture": "大阪府",
    "prefecture_kana": "オオサカフ",
    "prefecture_code": 27,
    "city": "堺市堺区",
    "city_kana": "サカイシサカイク",
    "town": "少林寺町西",
    "town_kana": "ショウリンジチョウニシ",
    "street": null,
    "office_name": null,
    "office_name_kana": null
  },
  "0961": {
    "postcode": "5900961",
    "prefecture": "大阪府",
    "prefecture_kana": "オオサカフ",
    "prefecture_code": 27,
    "city": "堺市堺区",
    "city_kana": "サカイシサカイク",
    "town": "寺地町西",
    "town_kana": "テラジチョウニシ",
    "street": null,
    "office_name": null,
    "office_name_kana": null
  },
  "0962": {
    "postcode": "5900962",
    "prefecture": "大阪府",
    "prefecture_kana": "オオサカフ",
    "prefecture_code": 27,
    "city": "堺市堺区",
    "city_kana": "サカイシサカイク",
    "town": "寺地町東",
    "town_kana": "テラジチョウヒガシ",
    "street": null,
    "office_name": null,
    "office_name_kana": null
  },
  "0963": {
    "postcode": "5900963",
    "prefecture": "大阪府",
    "prefecture_kana": "オオサカフ",
    "prefecture_code": 27,
    "city": "堺市堺区",
    "city_kana": "サカイシサカイク",
    "town": "少林寺町東",
    "town_kana": "ショウリンジチョウヒガシ",
    "street": null,
    "office_name": null,
    "office_name_kana": null
  },
  "0964": {
    "postcode": "5900964",
    "prefecture": "大阪府",
    "prefecture_kana": "オオサカフ",
    "prefecture_code": 27,
    "city": "堺市堺区",
    "city_kana": "サカイシサカイク",
    "town": "新在家町東",
    "town_kana": "シンザイケチョウヒガシ",
    "street": null,
    "office_name": null,
    "office_name_kana": null
  },
  "0965": {
    "postcode": "5900965",
    "prefecture": "大阪府",
    "prefecture_kana": "オオサカフ",
    "prefecture_code": 27,
    "city": "堺市堺区",
    "city_kana": "サカイシサカイク",
    "town": "南旅篭町東",
    "town_kana": "ミナミハタゴチョウヒガシ",
    "street": null,
    "office_name": null,
    "office_name_kana": null
  },
  "0966": {
    "postcode": "5900966",
    "prefecture": "大阪府",
    "prefecture_kana": "オオサカフ",
    "prefecture_code": 27,
    "city": "堺市堺区",
    "city_kana": "サカイシサカイク",
    "town": "南半町東",
    "town_kana": "ミナミハンチョウヒガシ",
    "street": null,
    "office_name": null,
    "office_name_kana": null
  },
  "0967": {
    "postcode": "5900967",
    "prefecture": "大阪府",
    "prefecture_kana": "オオサカフ",
    "prefecture_code": 27,
    "city": "堺市堺区",
    "city_kana": "サカイシサカイク",
    "town": "南半町西",
    "town_kana": "ミナミハンチョウニシ",
    "street": null,
    "office_name": null,
    "office_name_kana": null
  },
  "0968": {
    "postcode": "5900968",
    "prefecture": "大阪府",
    "prefecture_kana": "オオサカフ",
    "prefecture_code": 27,
    "city": "堺市堺区",
    "city_kana": "サカイシサカイク",
    "town": "南旅篭町西",
    "town_kana": "ミナミハタゴチョウニシ",
    "street": null,
    "office_name": null,
    "office_name_kana": null
  },
  "0969": {
    "postcode": "5900969",
    "prefecture": "大阪府",
    "prefecture_kana": "オオサカフ",
    "prefecture_code": 27,
    "city": "堺市堺区",
    "city_kana": "サカイシサカイク",
    "town": "新在家町西",
    "town_kana": "シンザイケチョウニシ",
    "street": null,
    "office_name": null,
    "office_name_kana": null
  },
  "0971": {
    "postcode": "5900971",
    "prefecture": "大阪府",
    "prefecture_kana": "オオサカフ",
    "prefecture_code": 27,
    "city": "堺市堺区",
    "city_kana": "サカイシサカイク",
    "town": "栄橋町",
    "town_kana": "サカエバシチョウ",
    "street": null,
    "office_name": null,
    "office_name_kana": null
  },
  "0972": {
    "postcode": "5900972",
    "prefecture": "大阪府",
    "prefecture_kana": "オオサカフ",
    "prefecture_code": 27,
    "city": "堺市堺区",
    "city_kana": "サカイシサカイク",
    "town": "竜神橋町",
    "town_kana": "リュウジンバシチョウ",
    "street": null,
    "office_name": null,
    "office_name_kana": null
  },
  "0973": {
    "postcode": "5900973",
    "prefecture": "大阪府",
    "prefecture_kana": "オオサカフ",
    "prefecture_code": 27,
    "city": "堺市堺区",
    "city_kana": "サカイシサカイク",
    "town": "住吉橋町",
    "town_kana": "スミヨシバシチョウ",
    "street": null,
    "office_name": null,
    "office_name_kana": null
  },
  "0974": {
    "postcode": "5900974",
    "prefecture": "大阪府",
    "prefecture_kana": "オオサカフ",
    "prefecture_code": 27,
    "city": "堺市堺区",
    "city_kana": "サカイシサカイク",
    "town": "大浜北町",
    "town_kana": "オオハマキタマチ",
    "street": null,
    "office_name": null,
    "office_name_kana": null
  },
  "0975": {
    "postcode": "5900975",
    "prefecture": "大阪府",
    "prefecture_kana": "オオサカフ",
    "prefecture_code": 27,
    "city": "堺市堺区",
    "city_kana": "サカイシサカイク",
    "town": "大浜中町",
    "town_kana": "オオハマナカマチ",
    "street": null,
    "office_name": null,
    "office_name_kana": null
  },
  "0976": {
    "postcode": "5900976",
    "prefecture": "大阪府",
    "prefecture_kana": "オオサカフ",
    "prefecture_code": 27,
    "city": "堺市堺区",
    "city_kana": "サカイシサカイク",
    "town": "大浜南町",
    "town_kana": "オオハマミナミマチ",
    "street": null,
    "office_name": null,
    "office_name_kana": null
  },
  "0977": {
    "postcode": "5900977",
    "prefecture": "大阪府",
    "prefecture_kana": "オオサカフ",
    "prefecture_code": 27,
    "city": "堺市堺区",
    "city_kana": "サカイシサカイク",
    "town": "大浜西町",
    "town_kana": "オオハマニシマチ",
    "street": null,
    "office_name": null,
    "office_name_kana": null
  },
  "0981": {
    "postcode": "5900981",
    "prefecture": "大阪府",
    "prefecture_kana": "オオサカフ",
    "prefecture_code": 27,
    "city": "堺市堺区",
    "city_kana": "サカイシサカイク",
    "town": "塩浜町",
    "town_kana": "シオハマチョウ",
    "street": null,
    "office_name": null,
    "office_name_kana": null
  },
  "0982": {
    "postcode": "5900982",
    "prefecture": "大阪府",
    "prefecture_kana": "オオサカフ",
    "prefecture_code": 27,
    "city": "堺市堺区",
    "city_kana": "サカイシサカイク",
    "town": "海山町",
    "town_kana": "カイサンチョウ",
    "street": null,
    "office_name": null,
    "office_name_kana": null
  },
  "0983": {
    "postcode": "5900983",
    "prefecture": "大阪府",
    "prefecture_kana": "オオサカフ",
    "prefecture_code": 27,
    "city": "堺市堺区",
    "city_kana": "サカイシサカイク",
    "town": "山本町",
    "town_kana": "ヤマモトチョウ",
    "street": null,
    "office_name": null,
    "office_name_kana": null
  },
  "0984": {
    "postcode": "5900984",
    "prefecture": "大阪府",
    "prefecture_kana": "オオサカフ",
    "prefecture_code": 27,
    "city": "堺市堺区",
    "city_kana": "サカイシサカイク",
    "town": "神南辺町",
    "town_kana": "カンナベチョウ",
    "street": null,
    "office_name": null,
    "office_name_kana": null
  },
  "0985": {
    "postcode": "5900985",
    "prefecture": "大阪府",
    "prefecture_kana": "オオサカフ",
    "prefecture_code": 27,
    "city": "堺市堺区",
    "city_kana": "サカイシサカイク",
    "town": "戎島町",
    "town_kana": "エビスジマチョウ",
    "street": null,
    "office_name": null,
    "office_name_kana": null
  },
  "0986": {
    "postcode": "5900986",
    "prefecture": "大阪府",
    "prefecture_kana": "オオサカフ",
    "prefecture_code": 27,
    "city": "堺市堺区",
    "city_kana": "サカイシサカイク",
    "town": "北波止町",
    "town_kana": "キタハトチョウ",
    "street": null,
    "office_name": null,
    "office_name_kana": null
  },
  "0987": {
    "postcode": "5900987",
    "prefecture": "大阪府",
    "prefecture_kana": "オオサカフ",
    "prefecture_code": 27,
    "city": "堺市堺区",
    "city_kana": "サカイシサカイク",
    "town": "築港南町",
    "town_kana": "チッコウミナミマチ",
    "street": null,
    "office_name": null,
    "office_name_kana": null
  },
  "8501": {
    "postcode": "5908501",
    "prefecture": "大阪府",
    "prefecture_kana": "オオサカフ",
    "prefecture_code": 27,
    "city": "堺市堺区",
    "city_kana": "サカイシサカイク",
    "town": "南瓦町",
    "town_kana": "ミナミカワラマチ",
    "street": "３−１",
    "office_name": "堺市役所・堺区役所",
    "office_name_kana": "サカイシヤクシヨ・サカイクヤクシヨ"
  },
  "8502": {
    "postcode": "5908502",
    "prefecture": "大阪府",
    "prefecture_kana": "オオサカフ",
    "prefecture_code": 27,
    "city": "堺市堺区",
    "city_kana": "サカイシサカイク",
    "town": "戎島町",
    "town_kana": "エビスジマチョウ",
    "street": "５丁２番地",
    "office_name": "堺化学工業　株式会社",
    "office_name_kana": "サカイカガクコウギヨウ カブシキカイシヤ"
  },
  "8503": {
    "postcode": "5908503",
    "prefecture": "大阪府",
    "prefecture_kana": "オオサカフ",
    "prefecture_code": 27,
    "city": "堺市堺区",
    "city_kana": "サカイシサカイク",
    "town": "匠町",
    "town_kana": "タクミチョウ",
    "street": "１",
    "office_name": "コーニングジャパン　株式会社　堺工場",
    "office_name_kana": "コ-ニングジヤパン カブシキガイシヤ サカイコウジヨウ"
  },
  "8505": {
    "postcode": "5908505",
    "prefecture": "大阪府",
    "prefecture_kana": "オオサカフ",
    "prefecture_code": 27,
    "city": "堺市堺区",
    "city_kana": "サカイシサカイク",
    "town": "協和町",
    "town_kana": "キョウワチョウ",
    "street": "４丁４６５",
    "office_name": "社会医療法人　同仁会　耳原総合病院",
    "office_name_kana": "シヤカイイリヨウホウジン ドウジンカイ ミミハラソウゴウビヨウイン"
  },
  "8511": {
    "postcode": "5908511",
    "prefecture": "大阪府",
    "prefecture_kana": "オオサカフ",
    "prefecture_code": 27,
    "city": "堺市堺区",
    "city_kana": "サカイシサカイク",
    "town": "南瓦町",
    "town_kana": "ミナミカワラマチ",
    "street": "２−２８",
    "office_name": "大阪地方裁判所　堺支部",
    "office_name_kana": "オオサカチホウサイバンシヨ サカイシブ"
  },
  "8515": {
    "postcode": "5908515",
    "prefecture": "大阪府",
    "prefecture_kana": "オオサカフ",
    "prefecture_code": 27,
    "city": "堺市堺区",
    "city_kana": "サカイシサカイク",
    "town": "香ヶ丘町",
    "town_kana": null,
    "street": "１丁１１−１",
    "office_name": "関西大学　堺キャンパス",
    "office_name_kana": "カンサイダイガク サカイキヤンパス"
  },
  "8517": {
    "postcode": "5908517",
    "prefecture": "大阪府",
    "prefecture_kana": "オオサカフ",
    "prefecture_code": 27,
    "city": "堺市堺区",
    "city_kana": "サカイシサカイク",
    "town": "匠町",
    "town_kana": "タクミチョウ",
    "street": "１",
    "office_name": "大陽日酸　株式会社　堺浜ファインガスセンター",
    "office_name_kana": "タイヨウニツサン カブシキガイシヤ サカイハマフアインガスセンタ-"
  },
  "8522": {
    "postcode": "5908522",
    "prefecture": "大阪府",
    "prefecture_kana": "オオサカフ",
    "prefecture_code": 27,
    "city": "堺市堺区",
    "city_kana": "サカイシサカイク",
    "town": "匠町",
    "town_kana": "タクミチョウ",
    "street": "１番地",
    "office_name": "シャープ　株式会社　本社・堺事業所",
    "office_name_kana": "シヤ-プ カブシキガイシヤ ホンシヤ・サカイジギヨウシヨ"
  },
  "8527": {
    "postcode": "5908527",
    "prefecture": "大阪府",
    "prefecture_kana": "オオサカフ",
    "prefecture_code": 27,
    "city": "堺市堺区",
    "city_kana": "サカイシサカイク",
    "town": "匠町",
    "town_kana": "タクミチョウ",
    "street": "１",
    "office_name": "ナガセケムテックス　株式会社　堺工場",
    "office_name_kana": "ナガセケムテツクス カブシキガイシヤ サカイコウジヨウ"
  },
  "8528": {
    "postcode": "5908528",
    "prefecture": "大阪府",
    "prefecture_kana": "オオサカフ",
    "prefecture_code": 27,
    "city": "堺市堺区",
    "city_kana": "サカイシサカイク",
    "town": "匠町",
    "town_kana": "タクミチョウ",
    "street": "１",
    "office_name": "長瀬産業　株式会社　堺営業所",
    "office_name_kana": "ナガセサンギヨウ カブシキガイシヤ サカイエイギヨウシヨ"
  },
  "8529": {
    "postcode": "5908529",
    "prefecture": "大阪府",
    "prefecture_kana": "オオサカフ",
    "prefecture_code": 27,
    "city": "堺市堺区",
    "city_kana": "サカイシサカイク",
    "town": "匠町",
    "town_kana": "タクミチョウ",
    "street": "１",
    "office_name": "株式会社　堺ガスセンター",
    "office_name_kana": "カブシキガイシヤ サカイガスセンタ-"
  },
  "8530": {
    "postcode": "5908530",
    "prefecture": "大阪府",
    "prefecture_kana": "オオサカフ",
    "prefecture_code": 27,
    "city": "堺市堺区",
    "city_kana": "サカイシサカイク",
    "town": "南花田口町",
    "town_kana": "ミナミハナダグチチョウ",
    "street": "２丁３−２０住友生命堺東ビル南館７Ｆ",
    "office_name": "生活情報サンロクマル事業部",
    "office_name_kana": "セイカツジヨウホウサンロクマルジギヨウブ"
  },
  "8531": {
    "postcode": "5908531",
    "prefecture": "大阪府",
    "prefecture_kana": "オオサカフ",
    "prefecture_code": 27,
    "city": "堺市堺区",
    "city_kana": "サカイシサカイク",
    "town": "南瓦町",
    "town_kana": "ミナミカワラマチ",
    "street": "２番２９号",
    "office_name": "大阪地方検察庁　堺支部",
    "office_name_kana": "オオサカチホウケンサツチヨウ サカイシブ"
  },
  "8540": {
    "postcode": "5908540",
    "prefecture": "大阪府",
    "prefecture_kana": "オオサカフ",
    "prefecture_code": 27,
    "city": "堺市堺区",
    "city_kana": "サカイシサカイク",
    "town": "築港八幡町",
    "town_kana": "チッコウヤワタマチ",
    "street": "１番地",
    "office_name": "日本製鉄　株式会社　関西製鉄所",
    "office_name_kana": "ニツポンセイテツ カブシキカイシヤ カンサイセイテツシヨ"
  },
  "8550": {
    "postcode": "5908550",
    "prefecture": "大阪府",
    "prefecture_kana": "オオサカフ",
    "prefecture_code": 27,
    "city": "堺市堺区",
    "city_kana": "サカイシサカイク",
    "town": "南瓦町",
    "town_kana": "ミナミカワラマチ",
    "street": "２−２０",
    "office_name": "堺税務署",
    "office_name_kana": "サカイゼイムシヨ"
  },
  "8551": {
    "postcode": "5908551",
    "prefecture": "大阪府",
    "prefecture_kana": "オオサカフ",
    "prefecture_code": 27,
    "city": "堺市堺区",
    "city_kana": "サカイシサカイク",
    "town": "大仙西町",
    "town_kana": "ダイセンニシマチ",
    "street": "三丁９１番地",
    "office_name": "コニカミノルタ　株式会社　堺サイト",
    "office_name_kana": "コニカミノルタ カブシキガイシヤ サカイサイト"
  },
  "8560": {
    "postcode": "5908560",
    "prefecture": "大阪府",
    "prefecture_kana": "オオサカフ",
    "prefecture_code": 27,
    "city": "堺市堺区",
    "city_kana": "サカイシサカイク",
    "town": "南瓦町",
    "town_kana": "ミナミカワラマチ",
    "street": "２−２９",
    "office_name": "大阪法務局　堺支局",
    "office_name_kana": "オオサカホウムキヨク サカイシキヨク"
  },
  "8567": {
    "postcode": "5908567",
    "prefecture": "大阪府",
    "prefecture_kana": "オオサカフ",
    "prefecture_code": 27,
    "city": "堺市堺区",
    "city_kana": "サカイシサカイク",
    "town": "向陵西町",
    "town_kana": "コウリョウニシマチ",
    "street": "１丁７番１号",
    "office_name": "株式会社　泉州銀行　事務統括部",
    "office_name_kana": "カブシキガイシヤ センシユウギンコウ ジムトウカツブ"
  },
  "8568": {
    "postcode": "5908568",
    "prefecture": "大阪府",
    "prefecture_kana": "オオサカフ",
    "prefecture_code": 27,
    "city": "堺市堺区",
    "city_kana": "サカイシサカイク",
    "town": "石津北町",
    "town_kana": "イシヅキタマチ",
    "street": "８１番１",
    "office_name": "トラスコ中山　株式会社　プラネット大阪",
    "office_name_kana": "トラスコナカヤマ カブシキガイシヤ プラネツトオオサカ"
  },
  "8576": {
    "postcode": "5908576",
    "prefecture": "大阪府",
    "prefecture_kana": "オオサカフ",
    "prefecture_code": 27,
    "city": "堺市堺区",
    "city_kana": "サカイシサカイク",
    "town": "海山町",
    "town_kana": "カイサンチョウ",
    "street": "６丁２２４番地",
    "office_name": "堺アルミ　株式会社",
    "office_name_kana": "サカイアルミ カブシキガイシヤ"
  },
  "8577": {
    "postcode": "5908577",
    "prefecture": "大阪府",
    "prefecture_kana": "オオサカフ",
    "prefecture_code": 27,
    "city": "堺市堺区",
    "city_kana": "サカイシサカイク",
    "town": "老松町",
    "town_kana": "オイマツチョウ",
    "street": "３丁７７番地",
    "office_name": "株式会社　シマノ",
    "office_name_kana": "カブシキガイシヤ シマノ"
  },
  "8585": {
    "postcode": "5908585",
    "prefecture": "大阪府",
    "prefecture_kana": "オオサカフ",
    "prefecture_code": 27,
    "city": "堺市堺区",
    "city_kana": "サカイシサカイク",
    "town": "北向陽町",
    "town_kana": "キタコウヨウチョウ",
    "street": "２丁１−２５",
    "office_name": "ＥＨ　株式会社",
    "office_name_kana": "イ-エイチ カブシキガイシヤ"
  },
  "8588": {
    "postcode": "5908588",
    "prefecture": "大阪府",
    "prefecture_kana": "オオサカフ",
    "prefecture_code": 27,
    "city": "堺市堺区",
    "city_kana": "サカイシサカイク",
    "town": "北向陽町",
    "town_kana": "キタコウヨウチョウ",
    "street": "２丁１番２５号",
    "office_name": "真諭商　株式会社",
    "office_name_kana": "マユシヨウ カブシキガイシヤ"
  },
  "8589": {
    "postcode": "5908589",
    "prefecture": "大阪府",
    "prefecture_kana": "オオサカフ",
    "prefecture_code": 27,
    "city": "堺市堺区",
    "city_kana": "サカイシサカイク",
    "town": "築港八幡町",
    "town_kana": "チッコウヤワタマチ",
    "street": "１３８番７号",
    "office_name": "アマゾン　堺ＦＣ　入庫係",
    "office_name_kana": "アマゾン サカイエフシ- ニユウコガカリ"
  },
  "8686": {
    "postcode": "5908686",
    "prefecture": "大阪府",
    "prefecture_kana": "オオサカフ",
    "prefecture_code": 27,
    "city": "堺市堺区",
    "city_kana": "サカイシサカイク",
    "town": "北向陽町",
    "town_kana": "キタコウヨウチョウ",
    "street": "２丁３−４（堺郵便局私書箱第１８６号）",
    "office_name": "サマーウッド　株式会社",
    "office_name_kana": "サマ-ウツド カブシキガイシヤ"
  }
}