{
  "0000": {
    "postcode": "5910000",
    "prefecture": "大阪府",
    "prefecture_kana": "オオサカフ",
    "prefecture_code": 27,
    "city": "堺市北区",
    "city_kana": "サカイシキタク",
    "town": "",
    "town_kana": "",
    "street": null,
    "office_name": null,
    "office_name_kana": null
  },
  "8001": {
    "postcode": "5918001",
    "prefecture": "大阪府",
    "prefecture_kana": "オオサカフ",
    "prefecture_code": 27,
    "city": "堺市北区",
    "city_kana": "サカイシキタク",
    "town": "常磐町",
    "town_kana": "トキワチョウ",
    "street": null,
    "office_name": null,
    "office_name_kana": null
  },
  "8002": {
    "postcode": "5918002",
    "prefecture": "大阪府",
    "prefecture_kana": "オオサカフ",
    "prefecture_code": 27,
    "city": "堺市北区",
    "city_kana": "サカイシキタク",
    "town": "北花田町",
    "town_kana": "キタハナダチョウ",
    "street": null,
    "office_name": null,
    "office_name_kana": null
  },
  "8003": {
    "postcode": "5918003",
    "prefecture": "大阪府",
    "prefecture_kana": "オオサカフ",
    "prefecture_code": 27,
    "city": "堺市北区",
    "city_kana": "サカイシキタク",
    "town": "船堂町",
    "town_kana": "センドウチョウ",
    "street": null,
    "office_name": null,
    "office_name_kana": null
  },
  "8004": {
    "postcode": "5918004",
    "prefecture": "大阪府",
    "prefecture_kana": "オオサカフ",
    "prefecture_code": 27,
    "city": "堺市北区",
    "city_kana": "サカイシキタク",
    "town": "蔵前町",
    "town_kana": "クラマエチョウ",
    "street": null,
    "office_name": null,
    "office_name_kana": null
  },
  "8005": {
    "postcode": "5918005",
    "prefecture": "大阪府",
    "prefecture_kana": "オオサカフ",
    "prefecture_code": 27,
    "city": "堺市北区",
    "city_kana": "サカイシキタク",
    "town": "新堀町",
    "town_kana": "シンボリチョウ",
    "street": null,
    "office_name": null,
    "office_name_kana": null
  },
  "8006": {
    "postcode": "5918006",
    "prefecture": "大阪府",
    "prefecture_kana": "オオサカフ",
    "prefecture_code": 27,
    "city": "堺市北区",
    "city_kana": "サカイシキタク",
    "town": "宮本町",
    "town_kana": "ミヤモトチョウ",
    "street": null,
    "office_name": null,
    "office_name_kana": null
  },
  "8007": {
    "postcode": "5918007",
    "prefecture": "大阪府",
    "prefecture_kana": "オオサカフ",
    "prefecture_code": 27,
    "city": "堺市北区",
    "city_kana": "サカイシキタク",
    "town": "奥本町",
    "town_kana": "オクモトチョウ",
    "street": null,
    "office_name": null,
    "office_name_kana": null
  },
  "8008": {
    "postcode": "5918008",
    "prefecture": "大阪府",
    "prefecture_kana": "オオサカフ",
    "prefecture_code": 27,
    "city": "堺市北区",
    "city_kana": "サカイシキタク",
    "town": "東浅香山町",
    "town_kana": "ヒガシアサカヤマチョウ",
    "street": null,
    "office_name": null,
    "office_name_kana": null
  },
  "8011": {
    "postcode": "5918011",
    "prefecture": "大阪府",
    "prefecture_kana": "オオサカフ",
    "prefecture_code": 27,
    "city": "堺市北区",
    "city_kana": "サカイシキタク",
    "town": "南花田町",
    "town_kana": "ミナミハナダチョウ",
    "street": null,
    "office_name": null,
    "office_name_kana": null
  },
  "8012": {
    "postcode": "5918012",
    "prefecture": "大阪府",
    "prefecture_kana": "オオサカフ",
    "prefecture_code": 27,
    "city": "堺市北区",
    "city_kana": "サカイシキタク",
    "town": "中村町",
    "town_kana": "ナカムラチョウ",
    "street": null,
    "office_name": null,
    "office_name_kana": null
  },
  "8013": {
    "postcode": "5918013",
    "prefecture": "大阪府",
    "prefecture_kana": "オオサカフ",
    "prefecture_code": 27,
    "city": "堺市北区",
    "city_kana": "サカイシキタク",
    "town": "野遠町",
    "town_kana": "ノトウチョウ",
    "street": null,
    "office_name": null,
    "office_name_kana": null
  },
  "8014": {
    "postcode": "5918014",
    "prefecture": "大阪府",
    "prefecture_kana": "オオサカフ",
    "prefecture_code": 27,
    "city": "堺市北区",
    "city_kana": "サカイシキタク",
    "town": "八下北",
    "town_kana": "ヤシモキタ",
    "street": null,
    "office_name": null,
    "office_name_kana": null
  },
  "8021": {
    "postcode": "5918021",
    "prefecture": "大阪府",
    "prefecture_kana": "オオサカフ",
    "prefecture_code": 27,
    "city": "堺市北区",
    "city_kana": "サカイシキタク",
    "town": "新金岡町",
    "town_kana": "シンカナオカチョウ",
    "street": null,
    "office_name": null,
    "office_name_kana": null
  },
  "8022": {
    "postcode": "5918022",
    "prefecture": "大阪府",
    "prefecture_kana": "オオサカフ",
    "prefecture_code": 27,
    "city": "堺市北区",
    "city_kana": "サカイシキタク",
    "town": "金岡町",
    "town_kana": "カナオカチョウ",
    "street": null,
    "office_name": null,
    "office_name_kana": null
  },
  "8023": {
    "postcode": "5918023",
    "prefecture": "大阪府",
    "prefecture_kana": "オオサカフ",
    "prefecture_code": 27,
    "city": "堺市北区",
    "city_kana": "サカイシキタク",
    "town": "中百舌鳥町",
    "town_kana": "ナカモズチョウ",
    "street": null,
    "office_name": null,
    "office_name_kana": null
  },
  "8024": {
    "postcode": "5918024",
    "prefecture": "大阪府",
    "prefecture_kana": "オオサカフ",
    "prefecture_code": 27,
    "city": "堺市北区",
    "city_kana": "サカイシキタク",
    "town": "黒土町",
    "town_kana": "クロツチチョウ",
    "street": null,
    "office_name": null,
    "office_name_kana": null
  },
  "8025": {
    "postcode": "5918025",
    "prefecture": "大阪府",
    "prefecture_kana": "オオサカフ",
    "prefecture_code": 27,
    "city": "堺市北区",
    "city_kana": "サカイシキタク",
    "town": "長曽根町",
    "town_kana": "ナガソネチョウ",
    "street": null,
    "office_name": null,
    "office_name_kana": null
  },
  "8031": {
    "postcode": "5918031",
    "prefecture": "大阪府",
    "prefecture_kana": "オオサカフ",
    "prefecture_code": 27,
    "city": "堺市北区",
    "city_kana": "サカイシキタク",
    "town": "百舌鳥梅北町",
    "town_kana": "モズウメキタチョウ",
    "street": null,
    "office_name": null,
    "office_name_kana": null
  },
  "8032": {
    "postcode": "5918032",
    "prefecture": "大阪府",
    "prefecture_kana": "オオサカフ",
    "prefecture_code": 27,
    "city": "堺市北区",
    "city_kana": "サカイシキタク",
    "town": "百舌鳥梅町",
    "town_kana": "モズウメマチ",
    "street": null,
    "office_name": null,
    "office_name_kana": null
  },
  "8033": {
    "postcode": "5918033",
    "prefecture": "大阪府",
    "prefecture_kana": "オオサカフ",
    "prefecture_code": 27,
    "city": "堺市北区",
    "city_kana": "サカイシキタク",
    "town": "百舌鳥西之町",
    "town_kana": "モズニシノチョウ",
    "street": null,
    "office_name": null,
    "office_name_kana": null
  },
  "8034": {
    "postcode": "5918034",
    "prefecture": "大阪府",
    "prefecture_kana": "オオサカフ",
    "prefecture_code": 27,
    "city": "堺市北区",
    "city_kana": "サカイシキタク",
    "town": "百舌鳥陵南町",
    "town_kana": "モズリョウナンチョウ",
    "street": null,
    "office_name": null,
    "office_name_kana": null
  },
  "8035": {
    "postcode": "5918035",
    "prefecture": "大阪府",
    "prefecture_kana": "オオサカフ",
    "prefecture_code": 27,
    "city": "堺市北区",
    "city_kana": "サカイシキタク",
    "town": "東上野芝町",
    "town_kana": "ヒガシウエノシバチョウ",
    "street": null,
    "office_name": null,
    "office_name_kana": null
  },
  "8036": {
    "postcode": "5918036",
    "prefecture": "大阪府",
    "prefecture_kana": "オオサカフ",
    "prefecture_code": 27,
    "city": "堺市北区",
    "city_kana": "サカイシキタク",
    "town": "百舌鳥本町",
    "town_kana": "モズホンマチ",
    "street": null,
    "office_name": null,
    "office_name_kana": null
  },
  "8037": {
    "postcode": "5918037",
    "prefecture": "大阪府",
    "prefecture_kana": "オオサカフ",
    "prefecture_code": 27,
    "city": "堺市北区",
    "city_kana": "サカイシキタク",
    "town": "百舌鳥赤畑町",
    "town_kana": "モズアカハタチョウ",
    "street": null,
    "office_name": null,
    "office_name_kana": null
  },
  "8041": {
    "postcode": "5918041",
    "prefecture": "大阪府",
    "prefecture_kana": "オオサカフ",
    "prefecture_code": 27,
    "city": "堺市北区",
    "city_kana": "サカイシキタク",
    "town": "東雲東町",
    "town_kana": "シノノメヒガシマチ",
    "street": null,
    "office_name": null,
    "office_name_kana": null
  },
  "8042": {
    "postcode": "5918042",
    "prefecture": "大阪府",
    "prefecture_kana": "オオサカフ",
    "prefecture_code": 27,
    "city": "堺市北区",
    "city_kana": "サカイシキタク",
    "town": "大豆塚町",
    "town_kana": "マメヅカチョウ",
    "street": null,
    "office_name": null,
    "office_name_kana": null
  },
  "8043": {
    "postcode": "5918043",
    "prefecture": "大阪府",
    "prefecture_kana": "オオサカフ",
    "prefecture_code": 27,
    "city": "堺市北区",
    "city_kana": "サカイシキタク",
    "town": "北長尾町",
    "town_kana": "キタナガオチョウ",
    "street": null,
    "office_name": null,
    "office_name_kana": null
  },
  "8044": {
    "postcode": "5918044",
    "prefecture": "大阪府",
    "prefecture_kana": "オオサカフ",
    "prefecture_code": 27,
    "city": "堺市北区",
    "city_kana": "サカイシキタク",
    "town": "中長尾町",
    "town_kana": "ナカナガオチョウ",
    "street": null,
    "office_name": null,
    "office_name_kana": null
  },
  "8045": {
    "postcode": "5918045",
    "prefecture": "大阪府",
    "prefecture_kana": "オオサカフ",
    "prefecture_code": 27,
    "city": "堺市北区",
    "city_kana": "サカイシキタク",
    "town": "南長尾町",
    "town_kana": "ミナミナガオチョウ",
    "street": null,
    "office_name": null,
    "office_name_kana": null
  },
  "8046": {
    "postcode": "5918046",
    "prefecture": "大阪府",
    "prefecture_kana": "オオサカフ",
    "prefecture_code": 27,
    "city": "堺市北区",
    "city_kana": "サカイシキタク",
    "town": "東三国ケ丘町",
    "town_kana": "ヒガシミクニガオカチョウ",
    "street": null,
    "office_name": null,
    "office_name_kana": null
  },
  "8501": {
    "postcode": "5918501",
    "prefecture": "大阪府",
    "prefecture_kana": "オオサカフ",
    "prefecture_code": 27,
    "city": "堺市北区",
    "city_kana": "サカイシキタク",
    "town": "長曽根町",
    "town_kana": "ナガソネチョウ",
    "street": "１１７９−３",
    "office_name": "大阪労災病院",
    "office_name_kana": "オオサカロウサイビヨウイン"
  },
  "8502": {
    "postcode": "5918502",
    "prefecture": "大阪府",
    "prefecture_kana": "オオサカフ",
    "prefecture_code": 27,
    "city": "堺市北区",
    "city_kana": "サカイシキタク",
    "town": "長曽根町",
    "town_kana": "ナガソネチョウ",
    "street": "１３０−２３",
    "office_name": "堺商工会議所",
    "office_name_kana": "サカイシヨウコウカイギシヨ"
  },
  "8505": {
    "postcode": "5918505",
    "prefecture": "大阪府",
    "prefecture_kana": "オオサカフ",
    "prefecture_code": 27,
    "city": "堺市北区",
    "city_kana": "サカイシキタク",
    "town": "百舌鳥梅北町",
    "town_kana": "モズウメキタチョウ",
    "street": "１丁３９−２",
    "office_name": "堺市上下水道局",
    "office_name_kana": "サカイシジヨウゲスイドウキヨク"
  },
  "8511": {
    "postcode": "5918511",
    "prefecture": "大阪府",
    "prefecture_kana": "オオサカフ",
    "prefecture_code": 27,
    "city": "堺市北区",
    "city_kana": "サカイシキタク",
    "town": "金岡町",
    "town_kana": "カナオカチョウ",
    "street": "１３０４",
    "office_name": "ダイキン工業　株式会社　堺製作所　金岡工場",
    "office_name_kana": "ダイキンコウギヨウ カブシキガイシヤ サカイセイサクシヨ カナオカコウジヨウ"
  },
  "8555": {
    "postcode": "5918555",
    "prefecture": "大阪府",
    "prefecture_kana": "オオサカフ",
    "prefecture_code": 27,
    "city": "堺市北区",
    "city_kana": "サカイシキタク",
    "town": "長曽根町",
    "town_kana": "ナガソネチョウ",
    "street": "１１８０",
    "office_name": "国立療養所　近畿中央病院",
    "office_name_kana": "コクリツリヨウヨウシヨ キンキチユウオウビヨウイン"
  },
  "8701": {
    "postcode": "5918701",
    "prefecture": "大阪府",
    "prefecture_kana": "オオサカフ",
    "prefecture_code": 27,
    "city": "堺市北区",
    "city_kana": "サカイシキタク",
    "town": "百舌鳥赤畑町",
    "town_kana": "モズアカハタチョウ",
    "street": "１丁３番地１",
    "office_name": "堺市市民税管理課　特別徴収係",
    "office_name_kana": "サカイシシミンゼイカンリカ トクベツチヨウシユウカカリ"
  }
}