{
  "0000": {
    "postcode": "5930000",
    "prefecture": "大阪府",
    "prefecture_kana": "オオサカフ",
    "prefecture_code": 27,
    "city": "堺市西区",
    "city_kana": "サカイシニシク",
    "town": "",
    "town_kana": "",
    "street": null,
    "office_name": null,
    "office_name_kana": null
  },
  "8301": {
    "postcode": "5938301",
    "prefecture": "大阪府",
    "prefecture_kana": "オオサカフ",
    "prefecture_code": 27,
    "city": "堺市西区",
    "city_kana": "サカイシニシク",
    "town": "上野芝町",
    "town_kana": "ウエノシバチョウ",
    "street": null,
    "office_name": null,
    "office_name_kana": null
  },
  "8302": {
    "postcode": "5938302",
    "prefecture": "大阪府",
    "prefecture_kana": "オオサカフ",
    "prefecture_code": 27,
    "city": "堺市西区",
    "city_kana": "サカイシニシク",
    "town": "北条町",
    "town_kana": "ホウジョウチョウ",
    "street": null,
    "office_name": null,
    "office_name_kana": null
  },
  "8303": {
    "postcode": "5938303",
    "prefecture": "大阪府",
    "prefecture_kana": "オオサカフ",
    "prefecture_code": 27,
    "city": "堺市西区",
    "city_kana": "サカイシニシク",
    "town": "上野芝向ケ丘町",
    "town_kana": "ウエノシバムコウガオカチョウ",
    "street": null,
    "office_name": null,
    "office_name_kana": null
  },
  "8304": {
    "postcode": "5938304",
    "prefecture": "大阪府",
    "prefecture_kana": "オオサカフ",
    "prefecture_code": 27,
    "city": "堺市西区",
    "city_kana": "サカイシニシク",
    "town": "家原寺町",
    "town_kana": "エバラジチョウ",
    "street": null,
    "office_name": null,
    "office_name_kana": null
  },
  "8305": {
    "postcode": "5938305",
    "prefecture": "大阪府",
    "prefecture_kana": "オオサカフ",
    "prefecture_code": 27,
    "city": "堺市西区",
    "city_kana": "サカイシニシク",
    "town": "堀上緑町",
    "town_kana": "ホリアゲミドリマチ",
    "street": null,
    "office_name": null,
    "office_name_kana": null
  },
  "8306": {
    "postcode": "5938306",
    "prefecture": "大阪府",
    "prefecture_kana": "オオサカフ",
    "prefecture_code": 27,
    "city": "堺市西区",
    "city_kana": "サカイシニシク",
    "town": "八田寺町",
    "town_kana": "ハンダイジチョウ",
    "street": null,
    "office_name": null,
    "office_name_kana": null
  },
  "8307": {
    "postcode": "5938307",
    "prefecture": "大阪府",
    "prefecture_kana": "オオサカフ",
    "prefecture_code": 27,
    "city": "堺市西区",
    "city_kana": "サカイシニシク",
    "town": "平岡町",
    "town_kana": "ヒラオカチョウ",
    "street": null,
    "office_name": null,
    "office_name_kana": null
  },
  "8308": {
    "postcode": "5938308",
    "prefecture": "大阪府",
    "prefecture_kana": "オオサカフ",
    "prefecture_code": 27,
    "city": "堺市西区",
    "city_kana": "サカイシニシク",
    "town": "神野町",
    "town_kana": "コウノチョウ",
    "street": null,
    "office_name": null,
    "office_name_kana": null
  },
  "8311": {
    "postcode": "5938311",
    "prefecture": "大阪府",
    "prefecture_kana": "オオサカフ",
    "prefecture_code": 27,
    "city": "堺市西区",
    "city_kana": "サカイシニシク",
    "town": "上",
    "town_kana": "カミ",
    "street": null,
    "office_name": null,
    "office_name_kana": null
  },
  "8312": {
    "postcode": "5938312",
    "prefecture": "大阪府",
    "prefecture_kana": "オオサカフ",
    "prefecture_code": 27,
    "city": "堺市西区",
    "city_kana": "サカイシニシク",
    "town": "草部",
    "town_kana": "クサベ",
    "street": null,
    "office_name": null,
    "office_name_kana": null
  },
  "8313": {
    "postcode": "5938313",
    "prefecture": "大阪府",
    "prefecture_kana": "オオサカフ",
    "prefecture_code": 27,
    "city": "堺市西区",
    "city_kana": "サカイシニシク",
    "town": "小代",
    "town_kana": "コダイ",
    "street": null,
    "office_name": null,
    "office_name_kana": null
  },
  "8314": {
    "postcode": "5938314",
    "prefecture": "大阪府",
    "prefecture_kana": "オオサカフ",
    "prefecture_code": 27,
    "city": "堺市西区",
    "city_kana": "サカイシニシク",
    "town": "太平寺",
    "town_kana": "タイヘイジ",
    "street": null,
    "office_name": null,
    "office_name_kana": null
  },
  "8315": {
    "postcode": "5938315",
    "prefecture": "大阪府",
    "prefecture_kana": "オオサカフ",
    "prefecture_code": 27,
    "city": "堺市西区",
    "city_kana": "サカイシニシク",
    "town": "菱木",
    "town_kana": "ヒシキ",
    "street": null,
    "office_name": null,
    "office_name_kana": null
  },
  "8316": {
    "postcode": "5938316",
    "prefecture": "大阪府",
    "prefecture_kana": "オオサカフ",
    "prefecture_code": 27,
    "city": "堺市西区",
    "city_kana": "サカイシニシク",
    "town": "山田",
    "town_kana": "ヤマダ",
    "street": null,
    "office_name": null,
    "office_name_kana": null
  },
  "8317": {
    "postcode": "5938317",
    "prefecture": "大阪府",
    "prefecture_kana": "オオサカフ",
    "prefecture_code": 27,
    "city": "堺市西区",
    "city_kana": "サカイシニシク",
    "town": "原田",
    "town_kana": "ハラダ",
    "street": null,
    "office_name": null,
    "office_name_kana": null
  },
  "8321": {
    "postcode": "5938321",
    "prefecture": "大阪府",
    "prefecture_kana": "オオサカフ",
    "prefecture_code": 27,
    "city": "堺市西区",
    "city_kana": "サカイシニシク",
    "town": "宮下町",
    "town_kana": "ミヤシモチョウ",
    "street": null,
    "office_name": null,
    "office_name_kana": null
  },
  "8322": {
    "postcode": "5938322",
    "prefecture": "大阪府",
    "prefecture_kana": "オオサカフ",
    "prefecture_code": 27,
    "city": "堺市西区",
    "city_kana": "サカイシニシク",
    "town": "津久野町",
    "town_kana": "ツクノチョウ",
    "street": null,
    "office_name": null,
    "office_name_kana": null
  },
  "8323": {
    "postcode": "5938323",
    "prefecture": "大阪府",
    "prefecture_kana": "オオサカフ",
    "prefecture_code": 27,
    "city": "堺市西区",
    "city_kana": "サカイシニシク",
    "town": "鶴田町",
    "town_kana": "ツルタチョウ",
    "street": null,
    "office_name": null,
    "office_name_kana": null
  },
  "8324": {
    "postcode": "5938324",
    "prefecture": "大阪府",
    "prefecture_kana": "オオサカフ",
    "prefecture_code": 27,
    "city": "堺市西区",
    "city_kana": "サカイシニシク",
    "town": "鳳東町",
    "town_kana": "オオトリヒガシマチ",
    "street": null,
    "office_name": null,
    "office_name_kana": null
  },
  "8325": {
    "postcode": "5938325",
    "prefecture": "大阪府",
    "prefecture_kana": "オオサカフ",
    "prefecture_code": 27,
    "city": "堺市西区",
    "city_kana": "サカイシニシク",
    "town": "鳳南町",
    "town_kana": "オオトリミナミマチ",
    "street": null,
    "office_name": null,
    "office_name_kana": null
  },
  "8326": {
    "postcode": "5938326",
    "prefecture": "大阪府",
    "prefecture_kana": "オオサカフ",
    "prefecture_code": 27,
    "city": "堺市西区",
    "city_kana": "サカイシニシク",
    "town": "鳳西町",
    "town_kana": "オオトリニシマチ",
    "street": null,
    "office_name": null,
    "office_name_kana": null
  },
  "8327": {
    "postcode": "5938327",
    "prefecture": "大阪府",
    "prefecture_kana": "オオサカフ",
    "prefecture_code": 27,
    "city": "堺市西区",
    "city_kana": "サカイシニシク",
    "town": "鳳中町",
    "town_kana": "オオトリナカマチ",
    "street": null,
    "office_name": null,
    "office_name_kana": null
  },
  "8328": {
    "postcode": "5938328",
    "prefecture": "大阪府",
    "prefecture_kana": "オオサカフ",
    "prefecture_code": 27,
    "city": "堺市西区",
    "city_kana": "サカイシニシク",
    "town": "鳳北町",
    "town_kana": "オオトリキタマチ",
    "street": null,
    "office_name": null,
    "office_name_kana": null
  },
  "8329": {
    "postcode": "5938329",
    "prefecture": "大阪府",
    "prefecture_kana": "オオサカフ",
    "prefecture_code": 27,
    "city": "堺市西区",
    "city_kana": "サカイシニシク",
    "town": "下田町",
    "town_kana": "シモダチョウ",
    "street": null,
    "office_name": null,
    "office_name_kana": null
  },
  "8504": {
    "postcode": "5938504",
    "prefecture": "大阪府",
    "prefecture_kana": "オオサカフ",
    "prefecture_code": 27,
    "city": "堺市西区",
    "city_kana": "サカイシニシク",
    "town": "家原寺町",
    "town_kana": "エバラジチョウ",
    "street": "１丁１番１号",
    "office_name": "堺市立総合医療センター",
    "office_name_kana": "サカイシリツソウゴウイリヨウセンタ-"
  }
}