{
  "0000": [
    {
      "postcode": "5980000",
      "prefecture": "大阪府",
      "prefecture_kana": "オオサカフ",
      "prefecture_code": 27,
      "city": "泉佐野市",
      "city_kana": "イズミサノシ",
      "town": "",
      "town_kana": "",
      "street": null,
      "office_name": null,
      "office_name_kana": null
    },
    {
      "postcode": "5980000",
      "prefecture": "大阪府",
      "prefecture_kana": "オオサカフ",
      "prefecture_code": 27,
      "city": "泉南郡田尻町",
      "city_kana": "センナングンタジリチョウ",
      "town": "",
      "town_kana": "",
      "street": null,
      "office_name": null,
      "office_name_kana": null
    }
  ],
  "0001": {
    "postcode": "5980001",
    "prefecture": "大阪府",
    "prefecture_kana": "オオサカフ",
    "prefecture_code": 27,
    "city": "泉佐野市",
    "city_kana": "イズミサノシ",
    "town": "上瓦屋",
    "town_kana": "カミカワラヤ",
    "street": null,
    "office_name": null,
    "office_name_kana": null
  },
  "0002": {
    "postcode": "5980002",
    "prefecture": "大阪府",
    "prefecture_kana": "オオサカフ",
    "prefecture_code": 27,
    "city": "泉佐野市",
    "city_kana": "イズミサノシ",
    "town": "中庄",
    "town_kana": "ナカショウ",
    "street": null,
    "office_name": null,
    "office_name_kana": null
  },
  "0003": {
    "postcode": "5980003",
    "prefecture": "大阪府",
    "prefecture_kana": "オオサカフ",
    "prefecture_code": 27,
    "city": "泉佐野市",
    "city_kana": "イズミサノシ",
    "town": "俵屋",
    "town_kana": "タワラヤ",
    "street": null,
    "office_name": null,
    "office_name_kana": null
  },
  "0004": {
    "postcode": "5980004",
    "prefecture": "大阪府",
    "prefecture_kana": "オオサカフ",
    "prefecture_code": 27,
    "city": "泉佐野市",
    "city_kana": "イズミサノシ",
    "town": "市場南",
    "town_kana": "イチバミナミ",
    "street": null,
    "office_name": null,
    "office_name_kana": null
  },
  "0005": {
    "postcode": "5980005",
    "prefecture": "大阪府",
    "prefecture_kana": "オオサカフ",
    "prefecture_code": 27,
    "city": "泉佐野市",
    "city_kana": "イズミサノシ",
    "town": "市場東",
    "town_kana": "イチバヒガシ",
    "street": null,
    "office_name": null,
    "office_name_kana": null
  },
  "0006": {
    "postcode": "5980006",
    "prefecture": "大阪府",
    "prefecture_kana": "オオサカフ",
    "prefecture_code": 27,
    "city": "泉佐野市",
    "city_kana": "イズミサノシ",
    "town": "市場西",
    "town_kana": "イチバニシ",
    "street": null,
    "office_name": null,
    "office_name_kana": null
  },
  "0007": {
    "postcode": "5980007",
    "prefecture": "大阪府",
    "prefecture_kana": "オオサカフ",
    "prefecture_code": 27,
    "city": "泉佐野市",
    "city_kana": "イズミサノシ",
    "town": "上町",
    "town_kana": "ウエマチ",
    "street": null,
    "office_name": null,
    "office_name_kana": null
  },
  "0008": {
    "postcode": "5980008",
    "prefecture": "大阪府",
    "prefecture_kana": "オオサカフ",
    "prefecture_code": 27,
    "city": "泉佐野市",
    "city_kana": "イズミサノシ",
    "town": "松風台",
    "town_kana": "ショウフウダイ",
    "street": null,
    "office_name": null,
    "office_name_kana": null
  },
  "0011": {
    "postcode": "5980011",
    "prefecture": "大阪府",
    "prefecture_kana": "オオサカフ",
    "prefecture_code": 27,
    "city": "泉佐野市",
    "city_kana": "イズミサノシ",
    "town": "高松北",
    "town_kana": "タカマツキタ",
    "street": null,
    "office_name": null,
    "office_name_kana": null
  },
  "0012": {
    "postcode": "5980012",
    "prefecture": "大阪府",
    "prefecture_kana": "オオサカフ",
    "prefecture_code": 27,
    "city": "泉佐野市",
    "city_kana": "イズミサノシ",
    "town": "高松東",
    "town_kana": "タカマツヒガシ",
    "street": null,
    "office_name": null,
    "office_name_kana": null
  },
  "0013": {
    "postcode": "5980013",
    "prefecture": "大阪府",
    "prefecture_kana": "オオサカフ",
    "prefecture_code": 27,
    "city": "泉佐野市",
    "city_kana": "イズミサノシ",
    "town": "中町",
    "town_kana": "ナカマチ",
    "street": null,
    "office_name": null,
    "office_name_kana": null
  },
  "0014": {
    "postcode": "5980014",
    "prefecture": "大阪府",
    "prefecture_kana": "オオサカフ",
    "prefecture_code": 27,
    "city": "泉佐野市",
    "city_kana": "イズミサノシ",
    "town": "葵町",
    "town_kana": "アオイチョウ",
    "street": null,
    "office_name": null,
    "office_name_kana": null
  },
  "0015": {
    "postcode": "5980015",
    "prefecture": "大阪府",
    "prefecture_kana": "オオサカフ",
    "prefecture_code": 27,
    "city": "泉佐野市",
    "city_kana": "イズミサノシ",
    "town": "高松南",
    "town_kana": "タカマツミナミ",
    "street": null,
    "office_name": null,
    "office_name_kana": null
  },
  "0016": {
    "postcode": "5980016",
    "prefecture": "大阪府",
    "prefecture_kana": "オオサカフ",
    "prefecture_code": 27,
    "city": "泉佐野市",
    "city_kana": "イズミサノシ",
    "town": "高松西",
    "town_kana": "タカマツニシ",
    "street": null,
    "office_name": null,
    "office_name_kana": null
  },
  "0021": {
    "postcode": "5980021",
    "prefecture": "大阪府",
    "prefecture_kana": "オオサカフ",
    "prefecture_code": 27,
    "city": "泉佐野市",
    "city_kana": "イズミサノシ",
    "town": "日根野",
    "town_kana": "ヒネノ",
    "street": null,
    "office_name": null,
    "office_name_kana": null
  },
  "0022": {
    "postcode": "5980022",
    "prefecture": "大阪府",
    "prefecture_kana": "オオサカフ",
    "prefecture_code": 27,
    "city": "泉佐野市",
    "city_kana": "イズミサノシ",
    "town": "土丸",
    "town_kana": "ツチマル",
    "street": null,
    "office_name": null,
    "office_name_kana": null
  },
  "0023": {
    "postcode": "5980023",
    "prefecture": "大阪府",
    "prefecture_kana": "オオサカフ",
    "prefecture_code": 27,
    "city": "泉佐野市",
    "city_kana": "イズミサノシ",
    "town": "大木",
    "town_kana": "オオギ",
    "street": null,
    "office_name": null,
    "office_name_kana": null
  },
  "0024": {
    "postcode": "5980024",
    "prefecture": "大阪府",
    "prefecture_kana": "オオサカフ",
    "prefecture_code": 27,
    "city": "泉佐野市",
    "city_kana": "イズミサノシ",
    "town": "上之郷",
    "town_kana": "カミノゴウ",
    "street": null,
    "office_name": null,
    "office_name_kana": null
  },
  "0031": {
    "postcode": "5980031",
    "prefecture": "大阪府",
    "prefecture_kana": "オオサカフ",
    "prefecture_code": 27,
    "city": "泉佐野市",
    "city_kana": "イズミサノシ",
    "town": "東羽倉崎町",
    "town_kana": "ヒガシハグラザキチョウ",
    "street": null,
    "office_name": null,
    "office_name_kana": null
  },
  "0032": {
    "postcode": "5980032",
    "prefecture": "大阪府",
    "prefecture_kana": "オオサカフ",
    "prefecture_code": 27,
    "city": "泉佐野市",
    "city_kana": "イズミサノシ",
    "town": "新安松",
    "town_kana": "シンヤスマツ",
    "street": null,
    "office_name": null,
    "office_name_kana": null
  },
  "0033": {
    "postcode": "5980033",
    "prefecture": "大阪府",
    "prefecture_kana": "オオサカフ",
    "prefecture_code": 27,
    "city": "泉佐野市",
    "city_kana": "イズミサノシ",
    "town": "南中安松",
    "town_kana": "ミナミナカヤスマツ",
    "street": null,
    "office_name": null,
    "office_name_kana": null
  },
  "0034": {
    "postcode": "5980034",
    "prefecture": "大阪府",
    "prefecture_kana": "オオサカフ",
    "prefecture_code": 27,
    "city": "泉佐野市",
    "city_kana": "イズミサノシ",
    "town": "長滝",
    "town_kana": "ナガタキ",
    "street": null,
    "office_name": null,
    "office_name_kana": null
  },
  "0035": {
    "postcode": "5980035",
    "prefecture": "大阪府",
    "prefecture_kana": "オオサカフ",
    "prefecture_code": 27,
    "city": "泉佐野市",
    "city_kana": "イズミサノシ",
    "town": "南中樫井",
    "town_kana": "ミナミナカカシイ",
    "street": null,
    "office_name": null,
    "office_name_kana": null
  },
  "0036": [
    {
      "postcode": "5980036",
      "prefecture": "大阪府",
      "prefecture_kana": "オオサカフ",
      "prefecture_code": 27,
      "city": "泉佐野市",
      "city_kana": "イズミサノシ",
      "town": "岡本",
      "town_kana": "オカモト",
      "street": null,
      "office_name": null,
      "office_name_kana": null
    },
    {
      "postcode": "5980036",
      "prefecture": "大阪府",
      "prefecture_kana": "オオサカフ",
      "prefecture_code": 27,
      "city": "泉佐野市",
      "city_kana": "イズミサノシ",
      "town": "南中岡本",
      "town_kana": "ミナミナカオカモト",
      "street": null,
      "office_name": null,
      "office_name_kana": null
    }
  ],
  "0037": {
    "postcode": "5980037",
    "prefecture": "大阪府",
    "prefecture_kana": "オオサカフ",
    "prefecture_code": 27,
    "city": "泉佐野市",
    "city_kana": "イズミサノシ",
    "town": "羽倉崎上町",
    "town_kana": "ハグラザキウエマチ",
    "street": null,
    "office_name": null,
    "office_name_kana": null
  },
  "0041": {
    "postcode": "5980041",
    "prefecture": "大阪府",
    "prefecture_kana": "オオサカフ",
    "prefecture_code": 27,
    "city": "泉佐野市",
    "city_kana": "イズミサノシ",
    "town": "野出町",
    "town_kana": "ノデチョウ",
    "street": null,
    "office_name": null,
    "office_name_kana": null
  },
  "0042": {
    "postcode": "5980042",
    "prefecture": "大阪府",
    "prefecture_kana": "オオサカフ",
    "prefecture_code": 27,
    "city": "泉佐野市",
    "city_kana": "イズミサノシ",
    "town": "西本町",
    "town_kana": "ニシホンマチ",
    "street": null,
    "office_name": null,
    "office_name_kana": null
  },
  "0043": {
    "postcode": "5980043",
    "prefecture": "大阪府",
    "prefecture_kana": "オオサカフ",
    "prefecture_code": 27,
    "city": "泉佐野市",
    "city_kana": "イズミサノシ",
    "town": "大西",
    "town_kana": "オオニシ",
    "street": null,
    "office_name": null,
    "office_name_kana": null
  },
  "0044": {
    "postcode": "5980044",
    "prefecture": "大阪府",
    "prefecture_kana": "オオサカフ",
    "prefecture_code": 27,
    "city": "泉佐野市",
    "city_kana": "イズミサノシ",
    "town": "笠松",
    "town_kana": "カサマツ",
    "street": null,
    "office_name": null,
    "office_name_kana": null
  },
  "0045": {
    "postcode": "5980045",
    "prefecture": "大阪府",
    "prefecture_kana": "オオサカフ",
    "prefecture_code": 27,
    "city": "泉佐野市",
    "city_kana": "イズミサノシ",
    "town": "松原",
    "town_kana": "マツバラ",
    "street": null,
    "office_name": null,
    "office_name_kana": null
  },
  "0046": {
    "postcode": "5980046",
    "prefecture": "大阪府",
    "prefecture_kana": "オオサカフ",
    "prefecture_code": 27,
    "city": "泉佐野市",
    "city_kana": "イズミサノシ",
    "town": "羽倉崎",
    "town_kana": "ハグラザキ",
    "street": null,
    "office_name": null,
    "office_name_kana": null
  },
  "0047": {
    "postcode": "5980047",
    "prefecture": "大阪府",
    "prefecture_kana": "オオサカフ",
    "prefecture_code": 27,
    "city": "泉佐野市",
    "city_kana": "イズミサノシ",
    "town": "りんくう往来南",
    "town_kana": "リンクウオウライミナミ",
    "street": null,
    "office_name": null,
    "office_name_kana": null
  },
  "0048": {
    "postcode": "5980048",
    "prefecture": "大阪府",
    "prefecture_kana": "オオサカフ",
    "prefecture_code": 27,
    "city": "泉佐野市",
    "city_kana": "イズミサノシ",
    "town": "りんくう往来北",
    "town_kana": "リンクウオウライキタ",
    "street": null,
    "office_name": null,
    "office_name_kana": null
  },
  "0051": {
    "postcode": "5980051",
    "prefecture": "大阪府",
    "prefecture_kana": "オオサカフ",
    "prefecture_code": 27,
    "city": "泉佐野市",
    "city_kana": "イズミサノシ",
    "town": "新町",
    "town_kana": "シンマチ",
    "street": null,
    "office_name": null,
    "office_name_kana": null
  },
  "0052": {
    "postcode": "5980052",
    "prefecture": "大阪府",
    "prefecture_kana": "オオサカフ",
    "prefecture_code": 27,
    "city": "泉佐野市",
    "city_kana": "イズミサノシ",
    "town": "旭町",
    "town_kana": "アサヒチョウ",
    "street": null,
    "office_name": null,
    "office_name_kana": null
  },
  "0053": {
    "postcode": "5980053",
    "prefecture": "大阪府",
    "prefecture_kana": "オオサカフ",
    "prefecture_code": 27,
    "city": "泉佐野市",
    "city_kana": "イズミサノシ",
    "town": "大宮町",
    "town_kana": "オオミヤチョウ",
    "street": null,
    "office_name": null,
    "office_name_kana": null
  },
  "0054": {
    "postcode": "5980054",
    "prefecture": "大阪府",
    "prefecture_kana": "オオサカフ",
    "prefecture_code": 27,
    "city": "泉佐野市",
    "city_kana": "イズミサノシ",
    "town": "栄町",
    "town_kana": "サカエマチ",
    "street": null,
    "office_name": null,
    "office_name_kana": null
  },
  "0055": {
    "postcode": "5980055",
    "prefecture": "大阪府",
    "prefecture_kana": "オオサカフ",
    "prefecture_code": 27,
    "city": "泉佐野市",
    "city_kana": "イズミサノシ",
    "town": "若宮町",
    "town_kana": "ワカミヤチョウ",
    "street": null,
    "office_name": null,
    "office_name_kana": null
  },
  "0056": {
    "postcode": "5980056",
    "prefecture": "大阪府",
    "prefecture_kana": "オオサカフ",
    "prefecture_code": 27,
    "city": "泉佐野市",
    "city_kana": "イズミサノシ",
    "town": "元町",
    "town_kana": "モトマチ",
    "street": null,
    "office_name": null,
    "office_name_kana": null
  },
  "0057": {
    "postcode": "5980057",
    "prefecture": "大阪府",
    "prefecture_kana": "オオサカフ",
    "prefecture_code": 27,
    "city": "泉佐野市",
    "city_kana": "イズミサノシ",
    "town": "本町",
    "town_kana": "ホンマチ",
    "street": null,
    "office_name": null,
    "office_name_kana": null
  },
  "0058": {
    "postcode": "5980058",
    "prefecture": "大阪府",
    "prefecture_kana": "オオサカフ",
    "prefecture_code": 27,
    "city": "泉佐野市",
    "city_kana": "イズミサノシ",
    "town": "春日町",
    "town_kana": "カスガチョウ",
    "street": null,
    "office_name": null,
    "office_name_kana": null
  },
  "0061": {
    "postcode": "5980061",
    "prefecture": "大阪府",
    "prefecture_kana": "オオサカフ",
    "prefecture_code": 27,
    "city": "泉佐野市",
    "city_kana": "イズミサノシ",
    "town": "住吉町",
    "town_kana": "スミヨシチョウ",
    "street": null,
    "office_name": null,
    "office_name_kana": null
  },
  "0062": {
    "postcode": "5980062",
    "prefecture": "大阪府",
    "prefecture_kana": "オオサカフ",
    "prefecture_code": 27,
    "city": "泉佐野市",
    "city_kana": "イズミサノシ",
    "town": "下瓦屋",
    "town_kana": "シモカワラヤ",
    "street": null,
    "office_name": null,
    "office_name_kana": null
  },
  "0063": {
    "postcode": "5980063",
    "prefecture": "大阪府",
    "prefecture_kana": "オオサカフ",
    "prefecture_code": 27,
    "city": "泉佐野市",
    "city_kana": "イズミサノシ",
    "town": "湊",
    "town_kana": "ミナト",
    "street": null,
    "office_name": null,
    "office_name_kana": null
  },
  "0064": {
    "postcode": "5980064",
    "prefecture": "大阪府",
    "prefecture_kana": "オオサカフ",
    "prefecture_code": 27,
    "city": "泉佐野市",
    "city_kana": "イズミサノシ",
    "town": "新浜町",
    "town_kana": "ニイハマチョウ",
    "street": null,
    "office_name": null,
    "office_name_kana": null
  },
  "0071": {
    "postcode": "5980071",
    "prefecture": "大阪府",
    "prefecture_kana": "オオサカフ",
    "prefecture_code": 27,
    "city": "泉佐野市",
    "city_kana": "イズミサノシ",
    "town": "鶴原",
    "town_kana": "ツルハラ",
    "street": null,
    "office_name": null,
    "office_name_kana": null
  },
  "0072": {
    "postcode": "5980072",
    "prefecture": "大阪府",
    "prefecture_kana": "オオサカフ",
    "prefecture_code": 27,
    "city": "泉佐野市",
    "city_kana": "イズミサノシ",
    "town": "泉ケ丘",
    "town_kana": "イズミガオカ",
    "street": null,
    "office_name": null,
    "office_name_kana": null
  },
  "0073": {
    "postcode": "5980073",
    "prefecture": "大阪府",
    "prefecture_kana": "オオサカフ",
    "prefecture_code": 27,
    "city": "泉佐野市",
    "city_kana": "イズミサノシ",
    "town": "南泉ケ丘",
    "town_kana": "ミナミイズミガオカ",
    "street": null,
    "office_name": null,
    "office_name_kana": null
  },
  "0074": {
    "postcode": "5980074",
    "prefecture": "大阪府",
    "prefecture_kana": "オオサカフ",
    "prefecture_code": 27,
    "city": "泉佐野市",
    "city_kana": "イズミサノシ",
    "town": "東佐野台",
    "town_kana": "ヒガシサノダイ",
    "street": null,
    "office_name": null,
    "office_name_kana": null
  },
  "0075": {
    "postcode": "5980075",
    "prefecture": "大阪府",
    "prefecture_kana": "オオサカフ",
    "prefecture_code": 27,
    "city": "泉佐野市",
    "city_kana": "イズミサノシ",
    "town": "佐野台",
    "town_kana": "サノダイ",
    "street": null,
    "office_name": null,
    "office_name_kana": null
  },
  "0076": {
    "postcode": "5980076",
    "prefecture": "大阪府",
    "prefecture_kana": "オオサカフ",
    "prefecture_code": 27,
    "city": "泉佐野市",
    "city_kana": "イズミサノシ",
    "town": "貝田町",
    "town_kana": "カイタチョウ",
    "street": null,
    "office_name": null,
    "office_name_kana": null
  },
  "0091": {
    "postcode": "5980091",
    "prefecture": "大阪府",
    "prefecture_kana": "オオサカフ",
    "prefecture_code": 27,
    "city": "泉南郡田尻町",
    "city_kana": "センナングンタジリチョウ",
    "town": "嘉祥寺",
    "town_kana": "カショウジ",
    "street": null,
    "office_name": null,
    "office_name_kana": null
  },
  "0092": {
    "postcode": "5980092",
    "prefecture": "大阪府",
    "prefecture_kana": "オオサカフ",
    "prefecture_code": 27,
    "city": "泉南郡田尻町",
    "city_kana": "センナングンタジリチョウ",
    "town": "吉見",
    "town_kana": "ヨシミ",
    "street": null,
    "office_name": null,
    "office_name_kana": null
  },
  "0093": {
    "postcode": "5980093",
    "prefecture": "大阪府",
    "prefecture_kana": "オオサカフ",
    "prefecture_code": 27,
    "city": "泉南郡田尻町",
    "city_kana": "センナングンタジリチョウ",
    "town": "りんくうポート北",
    "town_kana": "リンクウポートキタ",
    "street": null,
    "office_name": null,
    "office_name_kana": null
  },
  "0094": {
    "postcode": "5980094",
    "prefecture": "大阪府",
    "prefecture_kana": "オオサカフ",
    "prefecture_code": 27,
    "city": "泉南郡田尻町",
    "city_kana": "センナングンタジリチョウ",
    "town": "りんくうポート南",
    "town_kana": "リンクウポートミナミ",
    "street": null,
    "office_name": null,
    "office_name_kana": null
  },
  "8503": {
    "postcode": "5988503",
    "prefecture": "大阪府",
    "prefecture_kana": "オオサカフ",
    "prefecture_code": 27,
    "city": "泉佐野市",
    "city_kana": "イズミサノシ",
    "town": "日根野",
    "town_kana": "ヒネノ",
    "street": "３６８３−１",
    "office_name": "泉佐野　税務署",
    "office_name_kana": "イズミサノ ゼイムシヨ"
  },
  "8508": {
    "postcode": "5988508",
    "prefecture": "大阪府",
    "prefecture_kana": "オオサカフ",
    "prefecture_code": 27,
    "city": "泉佐野市",
    "city_kana": "イズミサノシ",
    "town": "りんくう往来南",
    "town_kana": "リンクウオウライミナミ",
    "street": "３−２８",
    "office_name": "りんくうプレミアム・アウトレット　メインサイド",
    "office_name_kana": "リンクウプレミアム・アウトレツト メインサイド"
  },
  "8509": {
    "postcode": "5988509",
    "prefecture": "大阪府",
    "prefecture_kana": "オオサカフ",
    "prefecture_code": 27,
    "city": "泉佐野市",
    "city_kana": "イズミサノシ",
    "town": "りんくう往来南",
    "town_kana": "リンクウオウライミナミ",
    "street": "４−１７",
    "office_name": "りんくうプレミアム・アウトレット　シーサイド",
    "office_name_kana": "リンクウプレミアム・アウトレツト シ-サイド"
  },
  "8511": {
    "postcode": "5988511",
    "prefecture": "大阪府",
    "prefecture_kana": "オオサカフ",
    "prefecture_code": 27,
    "city": "泉佐野市",
    "city_kana": "イズミサノシ",
    "town": "りんくう往来北",
    "town_kana": "リンクウオウライキタ",
    "street": "１番地",
    "office_name": "スターゲイトホテル関西エアポート",
    "office_name_kana": "スタ-ゲイトホテルカンサイエアポ-ト"
  },
  "8522": {
    "postcode": "5988522",
    "prefecture": "大阪府",
    "prefecture_kana": "オオサカフ",
    "prefecture_code": 27,
    "city": "泉佐野市",
    "city_kana": "イズミサノシ",
    "town": "りんくう往来北",
    "town_kana": "リンクウオウライキタ",
    "street": "１−７",
    "office_name": "関西エアポートワシントンホテル",
    "office_name_kana": "カンサイエアポ-トワシントンホテル"
  },
  "8531": {
    "postcode": "5988531",
    "prefecture": "大阪府",
    "prefecture_kana": "オオサカフ",
    "prefecture_code": 27,
    "city": "泉佐野市",
    "city_kana": "イズミサノシ",
    "town": "りんくう往来北",
    "town_kana": "リンクウオウライキタ",
    "street": "１−５８",
    "office_name": "大阪府立大学　りんくうキャンパス",
    "office_name_kana": "オオサカフリツダイガク リンクウキヤンパス"
  },
  "8540": {
    "postcode": "5988540",
    "prefecture": "大阪府",
    "prefecture_kana": "オオサカフ",
    "prefecture_code": 27,
    "city": "泉佐野市",
    "city_kana": "イズミサノシ",
    "town": "住吉町",
    "town_kana": "スミヨシチョウ",
    "street": "１−１",
    "office_name": "不二製油　株式会社　阪南事業所",
    "office_name_kana": "フジセイユ カブシキガイシヤ ハンナンジギヨウシヨ"
  },
  "8550": {
    "postcode": "5988550",
    "prefecture": "大阪府",
    "prefecture_kana": "オオサカフ",
    "prefecture_code": 27,
    "city": "泉佐野市",
    "city_kana": "イズミサノシ",
    "town": "市場東",
    "town_kana": "イチバヒガシ",
    "street": "一丁目１番１号",
    "office_name": "泉佐野市役所",
    "office_name_kana": "イズミサノシヤクシヨ"
  },
  "8555": {
    "postcode": "5988555",
    "prefecture": "大阪府",
    "prefecture_kana": "オオサカフ",
    "prefecture_code": 27,
    "city": "泉佐野市",
    "city_kana": "イズミサノシ",
    "town": "りんくう往来北",
    "town_kana": "リンクウオウライキタ",
    "street": "１番",
    "office_name": "りんくうパピリオ管理事務所",
    "office_name_kana": "リンクウパピリオカンリジムシヨ"
  },
  "8560": {
    "postcode": "5988560",
    "prefecture": "大阪府",
    "prefecture_kana": "オオサカフ",
    "prefecture_code": 27,
    "city": "泉佐野市",
    "city_kana": "イズミサノシ",
    "town": "高松東",
    "town_kana": "タカマツヒガシ",
    "street": "１丁目３−５０",
    "office_name": "大阪府立　佐野工業高等学校",
    "office_name_kana": "オオサカフリツ サノコウギヨウコウトウガツコウ"
  },
  "8566": {
    "postcode": "5988566",
    "prefecture": "大阪府",
    "prefecture_kana": "オオサカフ",
    "prefecture_code": 27,
    "city": "泉佐野市",
    "city_kana": "イズミサノシ",
    "town": "りんくう往来南",
    "town_kana": "リンクウオウライミナミ",
    "street": "２−２りんくうエルガビル４Ｆ",
    "office_name": "ジェイコムウエストメディア事業部りんくうサブセンター",
    "office_name_kana": "ジエイコムウエストメデイアジギヨウブリンクウサブセンタ-"
  }
}