{
  "0000": [
    {
      "postcode": "5990000",
      "prefecture": "大阪府",
      "prefecture_kana": "オオサカフ",
      "prefecture_code": 27,
      "city": "堺市中区",
      "city_kana": "サカイシナカク",
      "town": "",
      "town_kana": "",
      "street": null,
      "office_name": null,
      "office_name_kana": null
    },
    {
      "postcode": "5990000",
      "prefecture": "大阪府",
      "prefecture_kana": "オオサカフ",
      "prefecture_code": 27,
      "city": "堺市東区",
      "city_kana": "サカイシヒガシク",
      "town": "",
      "town_kana": "",
      "street": null,
      "office_name": null,
      "office_name_kana": null
    }
  ],
  "0200": {
    "postcode": "5990200",
    "prefecture": "大阪府",
    "prefecture_kana": "オオサカフ",
    "prefecture_code": 27,
    "city": "阪南市",
    "city_kana": "ハンナンシ",
    "town": "",
    "town_kana": "",
    "street": null,
    "office_name": null,
    "office_name_kana": null
  },
  "0201": {
    "postcode": "5990201",
    "prefecture": "大阪府",
    "prefecture_kana": "オオサカフ",
    "prefecture_code": 27,
    "city": "阪南市",
    "city_kana": "ハンナンシ",
    "town": "尾崎町",
    "town_kana": "オザキチョウ",
    "street": null,
    "office_name": null,
    "office_name_kana": null
  },
  "0202": {
    "postcode": "5990202",
    "prefecture": "大阪府",
    "prefecture_kana": "オオサカフ",
    "prefecture_code": 27,
    "city": "阪南市",
    "city_kana": "ハンナンシ",
    "town": "下出",
    "town_kana": "シモイデ",
    "street": null,
    "office_name": null,
    "office_name_kana": null
  },
  "0203": {
    "postcode": "5990203",
    "prefecture": "大阪府",
    "prefecture_kana": "オオサカフ",
    "prefecture_code": 27,
    "city": "阪南市",
    "city_kana": "ハンナンシ",
    "town": "黒田",
    "town_kana": "クロダ",
    "street": null,
    "office_name": null,
    "office_name_kana": null
  },
  "0204": {
    "postcode": "5990204",
    "prefecture": "大阪府",
    "prefecture_kana": "オオサカフ",
    "prefecture_code": 27,
    "city": "阪南市",
    "city_kana": "ハンナンシ",
    "town": "鳥取",
    "town_kana": "トットリ",
    "street": null,
    "office_name": null,
    "office_name_kana": null
  },
  "0205": {
    "postcode": "5990205",
    "prefecture": "大阪府",
    "prefecture_kana": "オオサカフ",
    "prefecture_code": 27,
    "city": "阪南市",
    "city_kana": "ハンナンシ",
    "town": "新町",
    "town_kana": "シンマチ",
    "street": null,
    "office_name": null,
    "office_name_kana": null
  },
  "0211": {
    "postcode": "5990211",
    "prefecture": "大阪府",
    "prefecture_kana": "オオサカフ",
    "prefecture_code": 27,
    "city": "阪南市",
    "city_kana": "ハンナンシ",
    "town": "鳥取中",
    "town_kana": "トットリナカ",
    "street": null,
    "office_name": null,
    "office_name_kana": null
  },
  "0212": {
    "postcode": "5990212",
    "prefecture": "大阪府",
    "prefecture_kana": "オオサカフ",
    "prefecture_code": 27,
    "city": "阪南市",
    "city_kana": "ハンナンシ",
    "town": "自然田",
    "town_kana": "ジネンダ",
    "street": null,
    "office_name": null,
    "office_name_kana": null
  },
  "0213": {
    "postcode": "5990213",
    "prefecture": "大阪府",
    "prefecture_kana": "オオサカフ",
    "prefecture_code": 27,
    "city": "阪南市",
    "city_kana": "ハンナンシ",
    "town": "和泉鳥取",
    "town_kana": "イズミトットリ",
    "street": null,
    "office_name": null,
    "office_name_kana": null
  },
  "0214": {
    "postcode": "5990214",
    "prefecture": "大阪府",
    "prefecture_kana": "オオサカフ",
    "prefecture_code": 27,
    "city": "阪南市",
    "city_kana": "ハンナンシ",
    "town": "山中渓",
    "town_kana": "ヤマナカダニ",
    "street": null,
    "office_name": null,
    "office_name_kana": null
  },
  "0215": {
    "postcode": "5990215",
    "prefecture": "大阪府",
    "prefecture_kana": "オオサカフ",
    "prefecture_code": 27,
    "city": "阪南市",
    "city_kana": "ハンナンシ",
    "town": "さつき台",
    "town_kana": "サツキダイ",
    "street": null,
    "office_name": null,
    "office_name_kana": null
  },
  "0216": {
    "postcode": "5990216",
    "prefecture": "大阪府",
    "prefecture_kana": "オオサカフ",
    "prefecture_code": 27,
    "city": "阪南市",
    "city_kana": "ハンナンシ",
    "town": "緑ケ丘",
    "town_kana": "ミドリガオカ",
    "street": null,
    "office_name": null,
    "office_name_kana": null
  },
  "0221": {
    "postcode": "5990221",
    "prefecture": "大阪府",
    "prefecture_kana": "オオサカフ",
    "prefecture_code": 27,
    "city": "阪南市",
    "city_kana": "ハンナンシ",
    "town": "石田",
    "town_kana": "イシダ",
    "street": null,
    "office_name": null,
    "office_name_kana": null
  },
  "0222": {
    "postcode": "5990222",
    "prefecture": "大阪府",
    "prefecture_kana": "オオサカフ",
    "prefecture_code": 27,
    "city": "阪南市",
    "city_kana": "ハンナンシ",
    "town": "桑畑",
    "town_kana": "クワバタ",
    "street": null,
    "office_name": null,
    "office_name_kana": null
  },
  "0223": {
    "postcode": "5990223",
    "prefecture": "大阪府",
    "prefecture_kana": "オオサカフ",
    "prefecture_code": 27,
    "city": "阪南市",
    "city_kana": "ハンナンシ",
    "town": "光陽台",
    "town_kana": "コウヨウダイ",
    "street": null,
    "office_name": null,
    "office_name_kana": null
  },
  "0224": {
    "postcode": "5990224",
    "prefecture": "大阪府",
    "prefecture_kana": "オオサカフ",
    "prefecture_code": 27,
    "city": "阪南市",
    "city_kana": "ハンナンシ",
    "town": "舞",
    "town_kana": "マイ",
    "street": null,
    "office_name": null,
    "office_name_kana": null
  },
  "0225": {
    "postcode": "5990225",
    "prefecture": "大阪府",
    "prefecture_kana": "オオサカフ",
    "prefecture_code": 27,
    "city": "阪南市",
    "city_kana": "ハンナンシ",
    "town": "鳥取三井",
    "town_kana": "トットリミツイ",
    "street": null,
    "office_name": null,
    "office_name_kana": null
  },
  "0231": {
    "postcode": "5990231",
    "prefecture": "大阪府",
    "prefecture_kana": "オオサカフ",
    "prefecture_code": 27,
    "city": "阪南市",
    "city_kana": "ハンナンシ",
    "town": "貝掛",
    "town_kana": "カイカケ",
    "street": null,
    "office_name": null,
    "office_name_kana": null
  },
  "0232": {
    "postcode": "5990232",
    "prefecture": "大阪府",
    "prefecture_kana": "オオサカフ",
    "prefecture_code": 27,
    "city": "阪南市",
    "city_kana": "ハンナンシ",
    "town": "箱作",
    "town_kana": "ハコツクリ",
    "street": null,
    "office_name": null,
    "office_name_kana": null
  },
  "0233": {
    "postcode": "5990233",
    "prefecture": "大阪府",
    "prefecture_kana": "オオサカフ",
    "prefecture_code": 27,
    "city": "阪南市",
    "city_kana": "ハンナンシ",
    "town": "南山中",
    "town_kana": "ミナミヤマナカ",
    "street": null,
    "office_name": null,
    "office_name_kana": null
  },
  "0234": {
    "postcode": "5990234",
    "prefecture": "大阪府",
    "prefecture_kana": "オオサカフ",
    "prefecture_code": 27,
    "city": "阪南市",
    "city_kana": "ハンナンシ",
    "town": "淡輪",
    "town_kana": "タンノワ",
    "street": null,
    "office_name": null,
    "office_name_kana": null
  },
  "0235": {
    "postcode": "5990235",
    "prefecture": "大阪府",
    "prefecture_kana": "オオサカフ",
    "prefecture_code": 27,
    "city": "阪南市",
    "city_kana": "ハンナンシ",
    "town": "箱の浦",
    "town_kana": "ハコノウラ",
    "street": null,
    "office_name": null,
    "office_name_kana": null
  },
  "0236": {
    "postcode": "5990236",
    "prefecture": "大阪府",
    "prefecture_kana": "オオサカフ",
    "prefecture_code": 27,
    "city": "阪南市",
    "city_kana": "ハンナンシ",
    "town": "桃の木台",
    "town_kana": "モモノキダイ",
    "street": null,
    "office_name": null,
    "office_name_kana": null
  },
  "0292": {
    "postcode": "5990292",
    "prefecture": "大阪府",
    "prefecture_kana": "オオサカフ",
    "prefecture_code": 27,
    "city": "阪南市",
    "city_kana": "ハンナンシ",
    "town": "尾崎町",
    "town_kana": "オザキチョウ",
    "street": "３５番地の１",
    "office_name": "阪南市役所",
    "office_name_kana": "ハンナンシヤクシヨ"
  },
  "0300": {
    "postcode": "5990300",
    "prefecture": "大阪府",
    "prefecture_kana": "オオサカフ",
    "prefecture_code": 27,
    "city": "泉南郡岬町",
    "city_kana": "センナングンミサキチョウ",
    "town": "",
    "town_kana": "",
    "street": null,
    "office_name": null,
    "office_name_kana": null
  },
  "0301": {
    "postcode": "5990301",
    "prefecture": "大阪府",
    "prefecture_kana": "オオサカフ",
    "prefecture_code": 27,
    "city": "泉南郡岬町",
    "city_kana": "センナングンミサキチョウ",
    "town": "淡輪",
    "town_kana": "タンノワ",
    "street": null,
    "office_name": null,
    "office_name_kana": null
  },
  "0302": {
    "postcode": "5990302",
    "prefecture": "大阪府",
    "prefecture_kana": "オオサカフ",
    "prefecture_code": 27,
    "city": "泉南郡岬町",
    "city_kana": "センナングンミサキチョウ",
    "town": "孝子",
    "town_kana": "キョウシ",
    "street": null,
    "office_name": null,
    "office_name_kana": null
  },
  "0303": {
    "postcode": "5990303",
    "prefecture": "大阪府",
    "prefecture_kana": "オオサカフ",
    "prefecture_code": 27,
    "city": "泉南郡岬町",
    "city_kana": "センナングンミサキチョウ",
    "town": "深日",
    "town_kana": "フケ",
    "street": null,
    "office_name": null,
    "office_name_kana": null
  },
  "0304": {
    "postcode": "5990304",
    "prefecture": "大阪府",
    "prefecture_kana": "オオサカフ",
    "prefecture_code": 27,
    "city": "泉南郡岬町",
    "city_kana": "センナングンミサキチョウ",
    "town": "望海坂",
    "town_kana": "ノゾミザカ",
    "street": null,
    "office_name": null,
    "office_name_kana": null
  },
  "0311": {
    "postcode": "5990311",
    "prefecture": "大阪府",
    "prefecture_kana": "オオサカフ",
    "prefecture_code": 27,
    "city": "泉南郡岬町",
    "city_kana": "センナングンミサキチョウ",
    "town": "多奈川谷川",
    "town_kana": "タナガワタニガワ",
    "street": null,
    "office_name": null,
    "office_name_kana": null
  },
  "0312": {
    "postcode": "5990312",
    "prefecture": "大阪府",
    "prefecture_kana": "オオサカフ",
    "prefecture_code": 27,
    "city": "泉南郡岬町",
    "city_kana": "センナングンミサキチョウ",
    "town": "多奈川東畑",
    "town_kana": "タナガワヒガシバタ",
    "street": null,
    "office_name": null,
    "office_name_kana": null
  },
  "0313": {
    "postcode": "5990313",
    "prefecture": "大阪府",
    "prefecture_kana": "オオサカフ",
    "prefecture_code": 27,
    "city": "泉南郡岬町",
    "city_kana": "センナングンミサキチョウ",
    "town": "多奈川西畑",
    "town_kana": "タナガワニシバタ",
    "street": null,
    "office_name": null,
    "office_name_kana": null
  },
  "0314": {
    "postcode": "5990314",
    "prefecture": "大阪府",
    "prefecture_kana": "オオサカフ",
    "prefecture_code": 27,
    "city": "泉南郡岬町",
    "city_kana": "センナングンミサキチョウ",
    "town": "多奈川小島",
    "town_kana": "タナガワコシマ",
    "street": null,
    "office_name": null,
    "office_name_kana": null
  },
  "0392": {
    "postcode": "5990392",
    "prefecture": "大阪府",
    "prefecture_kana": "オオサカフ",
    "prefecture_code": 27,
    "city": "泉南郡岬町",
    "city_kana": "センナングンミサキチョウ",
    "town": "深日",
    "town_kana": "フケ",
    "street": "２０００−１",
    "office_name": "岬町役場",
    "office_name_kana": "ミサキチヨウヤクバ"
  },
  "8101": {
    "postcode": "5998101",
    "prefecture": "大阪府",
    "prefecture_kana": "オオサカフ",
    "prefecture_code": 27,
    "city": "堺市東区",
    "city_kana": "サカイシヒガシク",
    "town": "八下町",
    "town_kana": "ヤシモチョウ",
    "street": null,
    "office_name": null,
    "office_name_kana": null
  },
  "8102": {
    "postcode": "5998102",
    "prefecture": "大阪府",
    "prefecture_kana": "オオサカフ",
    "prefecture_code": 27,
    "city": "堺市東区",
    "city_kana": "サカイシヒガシク",
    "town": "石原町",
    "town_kana": "イシハラチョウ",
    "street": null,
    "office_name": null,
    "office_name_kana": null
  },
  "8103": {
    "postcode": "5998103",
    "prefecture": "大阪府",
    "prefecture_kana": "オオサカフ",
    "prefecture_code": 27,
    "city": "堺市東区",
    "city_kana": "サカイシヒガシク",
    "town": "菩提町",
    "town_kana": "ボダイチョウ",
    "street": null,
    "office_name": null,
    "office_name_kana": null
  },
  "8104": {
    "postcode": "5998104",
    "prefecture": "大阪府",
    "prefecture_kana": "オオサカフ",
    "prefecture_code": 27,
    "city": "堺市東区",
    "city_kana": "サカイシヒガシク",
    "town": "引野町",
    "town_kana": "ヒキノチョウ",
    "street": null,
    "office_name": null,
    "office_name_kana": null
  },
  "8107": {
    "postcode": "5998107",
    "prefecture": "大阪府",
    "prefecture_kana": "オオサカフ",
    "prefecture_code": 27,
    "city": "堺市東区",
    "city_kana": "サカイシヒガシク",
    "town": "白鷺町",
    "town_kana": "シラサギチョウ",
    "street": null,
    "office_name": null,
    "office_name_kana": null
  },
  "8111": {
    "postcode": "5998111",
    "prefecture": "大阪府",
    "prefecture_kana": "オオサカフ",
    "prefecture_code": 27,
    "city": "堺市東区",
    "city_kana": "サカイシヒガシク",
    "town": "日置荘北町",
    "town_kana": "ヒキショウキタマチ",
    "street": null,
    "office_name": null,
    "office_name_kana": null
  },
  "8112": {
    "postcode": "5998112",
    "prefecture": "大阪府",
    "prefecture_kana": "オオサカフ",
    "prefecture_code": 27,
    "city": "堺市東区",
    "city_kana": "サカイシヒガシク",
    "town": "日置荘原寺町",
    "town_kana": "ヒキショウハラデラマチ",
    "street": null,
    "office_name": null,
    "office_name_kana": null
  },
  "8113": {
    "postcode": "5998113",
    "prefecture": "大阪府",
    "prefecture_kana": "オオサカフ",
    "prefecture_code": 27,
    "city": "堺市東区",
    "city_kana": "サカイシヒガシク",
    "town": "日置荘田中町",
    "town_kana": "ヒキショウタナカマチ",
    "street": null,
    "office_name": null,
    "office_name_kana": null
  },
  "8114": {
    "postcode": "5998114",
    "prefecture": "大阪府",
    "prefecture_kana": "オオサカフ",
    "prefecture_code": 27,
    "city": "堺市東区",
    "city_kana": "サカイシヒガシク",
    "town": "日置荘西町",
    "town_kana": "ヒキショウニシマチ",
    "street": null,
    "office_name": null,
    "office_name_kana": null
  },
  "8115": {
    "postcode": "5998115",
    "prefecture": "大阪府",
    "prefecture_kana": "オオサカフ",
    "prefecture_code": 27,
    "city": "堺市東区",
    "city_kana": "サカイシヒガシク",
    "town": "関茶屋",
    "town_kana": "セキチャヤ",
    "street": null,
    "office_name": null,
    "office_name_kana": null
  },
  "8116": {
    "postcode": "5998116",
    "prefecture": "大阪府",
    "prefecture_kana": "オオサカフ",
    "prefecture_code": 27,
    "city": "堺市東区",
    "city_kana": "サカイシヒガシク",
    "town": "野尻町",
    "town_kana": "ノジリチョウ",
    "street": null,
    "office_name": null,
    "office_name_kana": null
  },
  "8121": {
    "postcode": "5998121",
    "prefecture": "大阪府",
    "prefecture_kana": "オオサカフ",
    "prefecture_code": 27,
    "city": "堺市東区",
    "city_kana": "サカイシヒガシク",
    "town": "高松",
    "town_kana": "タカマツ",
    "street": null,
    "office_name": null,
    "office_name_kana": null
  },
  "8122": {
    "postcode": "5998122",
    "prefecture": "大阪府",
    "prefecture_kana": "オオサカフ",
    "prefecture_code": 27,
    "city": "堺市東区",
    "city_kana": "サカイシヒガシク",
    "town": "丈六",
    "town_kana": "ジョウロク",
    "street": null,
    "office_name": null,
    "office_name_kana": null
  },
  "8123": {
    "postcode": "5998123",
    "prefecture": "大阪府",
    "prefecture_kana": "オオサカフ",
    "prefecture_code": 27,
    "city": "堺市東区",
    "city_kana": "サカイシヒガシク",
    "town": "北野田",
    "town_kana": "キタノダ",
    "street": null,
    "office_name": null,
    "office_name_kana": null
  },
  "8124": {
    "postcode": "5998124",
    "prefecture": "大阪府",
    "prefecture_kana": "オオサカフ",
    "prefecture_code": 27,
    "city": "堺市東区",
    "city_kana": "サカイシヒガシク",
    "town": "南野田",
    "town_kana": "ミナミノダ",
    "street": null,
    "office_name": null,
    "office_name_kana": null
  },
  "8125": {
    "postcode": "5998125",
    "prefecture": "大阪府",
    "prefecture_kana": "オオサカフ",
    "prefecture_code": 27,
    "city": "堺市東区",
    "city_kana": "サカイシヒガシク",
    "town": "西野",
    "town_kana": "ニシノ",
    "street": null,
    "office_name": null,
    "office_name_kana": null
  },
  "8126": {
    "postcode": "5998126",
    "prefecture": "大阪府",
    "prefecture_kana": "オオサカフ",
    "prefecture_code": 27,
    "city": "堺市東区",
    "city_kana": "サカイシヒガシク",
    "town": "大美野",
    "town_kana": "オオミノ",
    "street": null,
    "office_name": null,
    "office_name_kana": null
  },
  "8127": {
    "postcode": "5998127",
    "prefecture": "大阪府",
    "prefecture_kana": "オオサカフ",
    "prefecture_code": 27,
    "city": "堺市東区",
    "city_kana": "サカイシヒガシク",
    "town": "草尾",
    "town_kana": "クサオ",
    "street": null,
    "office_name": null,
    "office_name_kana": null
  },
  "8128": {
    "postcode": "5998128",
    "prefecture": "大阪府",
    "prefecture_kana": "オオサカフ",
    "prefecture_code": 27,
    "city": "堺市東区",
    "city_kana": "サカイシヒガシク",
    "town": "中茶屋",
    "town_kana": "ナカチャヤ",
    "street": null,
    "office_name": null,
    "office_name_kana": null
  },
  "8231": {
    "postcode": "5998231",
    "prefecture": "大阪府",
    "prefecture_kana": "オオサカフ",
    "prefecture_code": 27,
    "city": "堺市中区",
    "city_kana": "サカイシナカク",
    "town": "学園町",
    "town_kana": "ガクエンチョウ",
    "street": null,
    "office_name": null,
    "office_name_kana": null
  },
  "8232": {
    "postcode": "5998232",
    "prefecture": "大阪府",
    "prefecture_kana": "オオサカフ",
    "prefecture_code": 27,
    "city": "堺市中区",
    "city_kana": "サカイシナカク",
    "town": "新家町",
    "town_kana": "シンケチョウ",
    "street": null,
    "office_name": null,
    "office_name_kana": null
  },
  "8233": {
    "postcode": "5998233",
    "prefecture": "大阪府",
    "prefecture_kana": "オオサカフ",
    "prefecture_code": 27,
    "city": "堺市中区",
    "city_kana": "サカイシナカク",
    "town": "大野芝町",
    "town_kana": "オオノシバチョウ",
    "street": null,
    "office_name": null,
    "office_name_kana": null
  },
  "8234": {
    "postcode": "5998234",
    "prefecture": "大阪府",
    "prefecture_kana": "オオサカフ",
    "prefecture_code": 27,
    "city": "堺市中区",
    "city_kana": "サカイシナカク",
    "town": "土塔町",
    "town_kana": "ドトウチョウ",
    "street": null,
    "office_name": null,
    "office_name_kana": null
  },
  "8235": {
    "postcode": "5998235",
    "prefecture": "大阪府",
    "prefecture_kana": "オオサカフ",
    "prefecture_code": 27,
    "city": "堺市中区",
    "city_kana": "サカイシナカク",
    "town": "深井東町",
    "town_kana": "フカイヒガシマチ",
    "street": null,
    "office_name": null,
    "office_name_kana": null
  },
  "8236": {
    "postcode": "5998236",
    "prefecture": "大阪府",
    "prefecture_kana": "オオサカフ",
    "prefecture_code": 27,
    "city": "堺市中区",
    "city_kana": "サカイシナカク",
    "town": "深井沢町",
    "town_kana": "フカイサワマチ",
    "street": null,
    "office_name": null,
    "office_name_kana": null
  },
  "8237": {
    "postcode": "5998237",
    "prefecture": "大阪府",
    "prefecture_kana": "オオサカフ",
    "prefecture_code": 27,
    "city": "堺市中区",
    "city_kana": "サカイシナカク",
    "town": "深井水池町",
    "town_kana": "フカイミズガイケチョウ",
    "street": null,
    "office_name": null,
    "office_name_kana": null
  },
  "8238": {
    "postcode": "5998238",
    "prefecture": "大阪府",
    "prefecture_kana": "オオサカフ",
    "prefecture_code": 27,
    "city": "堺市中区",
    "city_kana": "サカイシナカク",
    "town": "土師町",
    "town_kana": "ハゼチョウ",
    "street": null,
    "office_name": null,
    "office_name_kana": null
  },
  "8241": {
    "postcode": "5998241",
    "prefecture": "大阪府",
    "prefecture_kana": "オオサカフ",
    "prefecture_code": 27,
    "city": "堺市中区",
    "city_kana": "サカイシナカク",
    "town": "福田",
    "town_kana": "フクダ",
    "street": null,
    "office_name": null,
    "office_name_kana": null
  },
  "8242": {
    "postcode": "5998242",
    "prefecture": "大阪府",
    "prefecture_kana": "オオサカフ",
    "prefecture_code": 27,
    "city": "堺市中区",
    "city_kana": "サカイシナカク",
    "town": "陶器北",
    "town_kana": "トウキキタ",
    "street": null,
    "office_name": null,
    "office_name_kana": null
  },
  "8243": {
    "postcode": "5998243",
    "prefecture": "大阪府",
    "prefecture_kana": "オオサカフ",
    "prefecture_code": 27,
    "city": "堺市中区",
    "city_kana": "サカイシナカク",
    "town": "見野山",
    "town_kana": "ミノヤマ",
    "street": null,
    "office_name": null,
    "office_name_kana": null
  },
  "8244": {
    "postcode": "5998244",
    "prefecture": "大阪府",
    "prefecture_kana": "オオサカフ",
    "prefecture_code": 27,
    "city": "堺市中区",
    "city_kana": "サカイシナカク",
    "town": "上之",
    "town_kana": "ウエノ",
    "street": null,
    "office_name": null,
    "office_name_kana": null
  },
  "8245": {
    "postcode": "5998245",
    "prefecture": "大阪府",
    "prefecture_kana": "オオサカフ",
    "prefecture_code": 27,
    "city": "堺市中区",
    "city_kana": "サカイシナカク",
    "town": "辻之",
    "town_kana": "ツジノ",
    "street": null,
    "office_name": null,
    "office_name_kana": null
  },
  "8246": {
    "postcode": "5998246",
    "prefecture": "大阪府",
    "prefecture_kana": "オオサカフ",
    "prefecture_code": 27,
    "city": "堺市中区",
    "city_kana": "サカイシナカク",
    "town": "田園",
    "town_kana": "タゾノ",
    "street": null,
    "office_name": null,
    "office_name_kana": null
  },
  "8247": {
    "postcode": "5998247",
    "prefecture": "大阪府",
    "prefecture_kana": "オオサカフ",
    "prefecture_code": 27,
    "city": "堺市中区",
    "city_kana": "サカイシナカク",
    "town": "東山",
    "town_kana": "ヒガシヤマ",
    "street": null,
    "office_name": null,
    "office_name_kana": null
  },
  "8248": {
    "postcode": "5998248",
    "prefecture": "大阪府",
    "prefecture_kana": "オオサカフ",
    "prefecture_code": 27,
    "city": "堺市中区",
    "city_kana": "サカイシナカク",
    "town": "深井畑山町",
    "town_kana": "フカイハタヤマチョウ",
    "street": null,
    "office_name": null,
    "office_name_kana": null
  },
  "8251": {
    "postcode": "5998251",
    "prefecture": "大阪府",
    "prefecture_kana": "オオサカフ",
    "prefecture_code": 27,
    "city": "堺市中区",
    "city_kana": "サカイシナカク",
    "town": "平井",
    "town_kana": "ヒライ",
    "street": null,
    "office_name": null,
    "office_name_kana": null
  },
  "8252": {
    "postcode": "5998252",
    "prefecture": "大阪府",
    "prefecture_kana": "オオサカフ",
    "prefecture_code": 27,
    "city": "堺市中区",
    "city_kana": "サカイシナカク",
    "town": "楢葉",
    "town_kana": "ナラバ",
    "street": null,
    "office_name": null,
    "office_name_kana": null
  },
  "8253": {
    "postcode": "5998253",
    "prefecture": "大阪府",
    "prefecture_kana": "オオサカフ",
    "prefecture_code": 27,
    "city": "堺市中区",
    "city_kana": "サカイシナカク",
    "town": "深阪",
    "town_kana": "フカサカ",
    "street": null,
    "office_name": null,
    "office_name_kana": null
  },
  "8254": {
    "postcode": "5998254",
    "prefecture": "大阪府",
    "prefecture_kana": "オオサカフ",
    "prefecture_code": 27,
    "city": "堺市中区",
    "city_kana": "サカイシナカク",
    "town": "伏尾",
    "town_kana": "フセオ",
    "street": null,
    "office_name": null,
    "office_name_kana": null
  },
  "8261": {
    "postcode": "5998261",
    "prefecture": "大阪府",
    "prefecture_kana": "オオサカフ",
    "prefecture_code": 27,
    "city": "堺市中区",
    "city_kana": "サカイシナカク",
    "town": "堀上町",
    "town_kana": "ホリアゲチョウ",
    "street": null,
    "office_name": null,
    "office_name_kana": null
  },
  "8262": {
    "postcode": "5998262",
    "prefecture": "大阪府",
    "prefecture_kana": "オオサカフ",
    "prefecture_code": 27,
    "city": "堺市中区",
    "city_kana": "サカイシナカク",
    "town": "八田北町",
    "town_kana": "ハンダキタチョウ",
    "street": null,
    "office_name": null,
    "office_name_kana": null
  },
  "8263": {
    "postcode": "5998263",
    "prefecture": "大阪府",
    "prefecture_kana": "オオサカフ",
    "prefecture_code": 27,
    "city": "堺市中区",
    "city_kana": "サカイシナカク",
    "town": "八田南之町",
    "town_kana": "ハンダミナミノチョウ",
    "street": null,
    "office_name": null,
    "office_name_kana": null
  },
  "8264": {
    "postcode": "5998264",
    "prefecture": "大阪府",
    "prefecture_kana": "オオサカフ",
    "prefecture_code": 27,
    "city": "堺市中区",
    "city_kana": "サカイシナカク",
    "town": "小阪西町",
    "town_kana": "コサカニシマチ",
    "street": null,
    "office_name": null,
    "office_name_kana": null
  },
  "8265": {
    "postcode": "5998265",
    "prefecture": "大阪府",
    "prefecture_kana": "オオサカフ",
    "prefecture_code": 27,
    "city": "堺市中区",
    "city_kana": "サカイシナカク",
    "town": "八田西町",
    "town_kana": "ハンダニシマチ",
    "street": null,
    "office_name": null,
    "office_name_kana": null
  },
  "8266": {
    "postcode": "5998266",
    "prefecture": "大阪府",
    "prefecture_kana": "オオサカフ",
    "prefecture_code": 27,
    "city": "堺市中区",
    "city_kana": "サカイシナカク",
    "town": "毛穴町",
    "town_kana": "ケナチョウ",
    "street": null,
    "office_name": null,
    "office_name_kana": null
  },
  "8267": {
    "postcode": "5998267",
    "prefecture": "大阪府",
    "prefecture_kana": "オオサカフ",
    "prefecture_code": 27,
    "city": "堺市中区",
    "city_kana": "サカイシナカク",
    "town": "八田寺町",
    "town_kana": "ハンダイジチョウ",
    "street": null,
    "office_name": null,
    "office_name_kana": null
  },
  "8271": {
    "postcode": "5998271",
    "prefecture": "大阪府",
    "prefecture_kana": "オオサカフ",
    "prefecture_code": 27,
    "city": "堺市中区",
    "city_kana": "サカイシナカク",
    "town": "深井北町",
    "town_kana": "フカイキタマチ",
    "street": null,
    "office_name": null,
    "office_name_kana": null
  },
  "8272": {
    "postcode": "5998272",
    "prefecture": "大阪府",
    "prefecture_kana": "オオサカフ",
    "prefecture_code": 27,
    "city": "堺市中区",
    "city_kana": "サカイシナカク",
    "town": "深井中町",
    "town_kana": "フカイナカマチ",
    "street": null,
    "office_name": null,
    "office_name_kana": null
  },
  "8273": {
    "postcode": "5998273",
    "prefecture": "大阪府",
    "prefecture_kana": "オオサカフ",
    "prefecture_code": 27,
    "city": "堺市中区",
    "city_kana": "サカイシナカク",
    "town": "深井清水町",
    "town_kana": "フカイシミズチョウ",
    "street": null,
    "office_name": null,
    "office_name_kana": null
  },
  "8274": {
    "postcode": "5998274",
    "prefecture": "大阪府",
    "prefecture_kana": "オオサカフ",
    "prefecture_code": 27,
    "city": "堺市中区",
    "city_kana": "サカイシナカク",
    "town": "宮園町",
    "town_kana": "ミヤゾノチョウ",
    "street": null,
    "office_name": null,
    "office_name_kana": null
  },
  "8275": {
    "postcode": "5998275",
    "prefecture": "大阪府",
    "prefecture_kana": "オオサカフ",
    "prefecture_code": 27,
    "city": "堺市中区",
    "city_kana": "サカイシナカク",
    "town": "東八田",
    "town_kana": "ヒガシハンダ",
    "street": null,
    "office_name": null,
    "office_name_kana": null
  },
  "8276": {
    "postcode": "5998276",
    "prefecture": "大阪府",
    "prefecture_kana": "オオサカフ",
    "prefecture_code": 27,
    "city": "堺市中区",
    "city_kana": "サカイシナカク",
    "town": "小阪",
    "town_kana": "コサカ",
    "street": null,
    "office_name": null,
    "office_name_kana": null
  },
  "8531": {
    "postcode": "5998531",
    "prefecture": "大阪府",
    "prefecture_kana": "オオサカフ",
    "prefecture_code": 27,
    "city": "堺市中区",
    "city_kana": "サカイシナカク",
    "town": "学園町",
    "town_kana": "ガクエンチョウ",
    "street": "１番１号",
    "office_name": "大阪公立大学　中百舌鳥キャンパス",
    "office_name_kana": "オオサカコウリツダイガク ナカモズキヤンパス"
  }
}