{
  "0000": {
    "postcode": "6100000",
    "prefecture": "京都府",
    "prefecture_kana": "キョウトフ",
    "prefecture_code": 26,
    "city": "京都市西京区",
    "city_kana": "キョウトシニシキョウク",
    "town": "",
    "town_kana": "",
    "street": null,
    "office_name": null,
    "office_name_kana": null
  },
  "0100": {
    "postcode": "6100100",
    "prefecture": "京都府",
    "prefecture_kana": "キョウトフ",
    "prefecture_code": 26,
    "city": "城陽市",
    "city_kana": "ジョウヨウシ",
    "town": "",
    "town_kana": "",
    "street": null,
    "office_name": null,
    "office_name_kana": null
  },
  "0101": {
    "postcode": "6100101",
    "prefecture": "京都府",
    "prefecture_kana": "キョウトフ",
    "prefecture_code": 26,
    "city": "城陽市",
    "city_kana": "ジョウヨウシ",
    "town": "平川",
    "town_kana": "ヒラカワ",
    "street": null,
    "office_name": null,
    "office_name_kana": null
  },
  "0102": {
    "postcode": "6100102",
    "prefecture": "京都府",
    "prefecture_kana": "キョウトフ",
    "prefecture_code": 26,
    "city": "城陽市",
    "city_kana": "ジョウヨウシ",
    "town": "久世",
    "town_kana": "クセ",
    "street": null,
    "office_name": null,
    "office_name_kana": null
  },
  "0103": {
    "postcode": "6100103",
    "prefecture": "京都府",
    "prefecture_kana": "キョウトフ",
    "prefecture_code": 26,
    "city": "城陽市",
    "city_kana": "ジョウヨウシ",
    "town": "上津屋",
    "town_kana": "コウヅヤ",
    "street": null,
    "office_name": null,
    "office_name_kana": null
  },
  "0111": {
    "postcode": "6100111",
    "prefecture": "京都府",
    "prefecture_kana": "キョウトフ",
    "prefecture_code": 26,
    "city": "城陽市",
    "city_kana": "ジョウヨウシ",
    "town": "富野",
    "town_kana": "トノ",
    "street": null,
    "office_name": null,
    "office_name_kana": null
  },
  "0112": {
    "postcode": "6100112",
    "prefecture": "京都府",
    "prefecture_kana": "キョウトフ",
    "prefecture_code": 26,
    "city": "城陽市",
    "city_kana": "ジョウヨウシ",
    "town": "長池",
    "town_kana": "ナガイケ",
    "street": null,
    "office_name": null,
    "office_name_kana": null
  },
  "0113": {
    "postcode": "6100113",
    "prefecture": "京都府",
    "prefecture_kana": "キョウトフ",
    "prefecture_code": 26,
    "city": "城陽市",
    "city_kana": "ジョウヨウシ",
    "town": "中",
    "town_kana": "ナカ",
    "street": null,
    "office_name": null,
    "office_name_kana": null
  },
  "0114": {
    "postcode": "6100114",
    "prefecture": "京都府",
    "prefecture_kana": "キョウトフ",
    "prefecture_code": 26,
    "city": "城陽市",
    "city_kana": "ジョウヨウシ",
    "town": "市辺",
    "town_kana": "イチノベ",
    "street": null,
    "office_name": null,
    "office_name_kana": null
  },
  "0115": {
    "postcode": "6100115",
    "prefecture": "京都府",
    "prefecture_kana": "キョウトフ",
    "prefecture_code": 26,
    "city": "城陽市",
    "city_kana": "ジョウヨウシ",
    "town": "観音堂",
    "town_kana": "カンノンドウ",
    "street": null,
    "office_name": null,
    "office_name_kana": null
  },
  "0116": {
    "postcode": "6100116",
    "prefecture": "京都府",
    "prefecture_kana": "キョウトフ",
    "prefecture_code": 26,
    "city": "城陽市",
    "city_kana": "ジョウヨウシ",
    "town": "奈島",
    "town_kana": "ナシマ",
    "street": null,
    "office_name": null,
    "office_name_kana": null
  },
  "0117": {
    "postcode": "6100117",
    "prefecture": "京都府",
    "prefecture_kana": "キョウトフ",
    "prefecture_code": 26,
    "city": "城陽市",
    "city_kana": "ジョウヨウシ",
    "town": "枇杷庄",
    "town_kana": "ビワノショウ",
    "street": null,
    "office_name": null,
    "office_name_kana": null
  },
  "0118": {
    "postcode": "6100118",
    "prefecture": "京都府",
    "prefecture_kana": "キョウトフ",
    "prefecture_code": 26,
    "city": "城陽市",
    "city_kana": "ジョウヨウシ",
    "town": "水主",
    "town_kana": "ミズシ",
    "street": null,
    "office_name": null,
    "office_name_kana": null
  },
  "0119": {
    "postcode": "6100119",
    "prefecture": "京都府",
    "prefecture_kana": "キョウトフ",
    "prefecture_code": 26,
    "city": "城陽市",
    "city_kana": "ジョウヨウシ",
    "town": "令涼つむぎ",
    "town_kana": "レイリョウツムギ",
    "street": null,
    "office_name": null,
    "office_name_kana": null
  },
  "0121": {
    "postcode": "6100121",
    "prefecture": "京都府",
    "prefecture_kana": "キョウトフ",
    "prefecture_code": 26,
    "city": "城陽市",
    "city_kana": "ジョウヨウシ",
    "town": "寺田",
    "town_kana": "テラダ",
    "street": null,
    "office_name": null,
    "office_name_kana": null
  },
  "0192": {
    "postcode": "6100192",
    "prefecture": "京都府",
    "prefecture_kana": "キョウトフ",
    "prefecture_code": 26,
    "city": "城陽市",
    "city_kana": "ジョウヨウシ",
    "town": "寺田",
    "town_kana": "テラダ",
    "street": "新池３６",
    "office_name": "星和電機　株式会社",
    "office_name_kana": "セイワデンキ カブシキガイシヤ"
  },
  "0195": {
    "postcode": "6100195",
    "prefecture": "京都府",
    "prefecture_kana": "キョウトフ",
    "prefecture_code": 26,
    "city": "城陽市",
    "city_kana": "ジョウヨウシ",
    "town": "寺田",
    "town_kana": "テラダ",
    "street": "東ノ口１６番地・１７番地",
    "office_name": "城陽市役所",
    "office_name_kana": "ジヨウヨウシヤクシヨ"
  },
  "0196": {
    "postcode": "6100196",
    "prefecture": "京都府",
    "prefecture_kana": "キョウトフ",
    "prefecture_code": 26,
    "city": "城陽市",
    "city_kana": "ジョウヨウシ",
    "town": "富野",
    "town_kana": "トノ",
    "street": "久保田１番地の１",
    "office_name": "城陽商工会議所",
    "office_name_kana": "ジヨウヨウシヨウコウカイギシヨ"
  },
  "0200": {
    "postcode": "6100200",
    "prefecture": "京都府",
    "prefecture_kana": "キョウトフ",
    "prefecture_code": 26,
    "city": "綴喜郡宇治田原町",
    "city_kana": "ツヅキグンウジタワラチョウ",
    "town": "",
    "town_kana": "",
    "street": null,
    "office_name": null,
    "office_name_kana": null
  },
  "0201": {
    "postcode": "6100201",
    "prefecture": "京都府",
    "prefecture_kana": "キョウトフ",
    "prefecture_code": 26,
    "city": "綴喜郡宇治田原町",
    "city_kana": "ツヅキグンウジタワラチョウ",
    "town": "禅定寺",
    "town_kana": "ゼンジョウジ",
    "street": null,
    "office_name": null,
    "office_name_kana": null
  },
  "0202": {
    "postcode": "6100202",
    "prefecture": "京都府",
    "prefecture_kana": "キョウトフ",
    "prefecture_code": 26,
    "city": "綴喜郡宇治田原町",
    "city_kana": "ツヅキグンウジタワラチョウ",
    "town": "緑苑坂",
    "town_kana": "リョクエンザカ",
    "street": null,
    "office_name": null,
    "office_name_kana": null
  },
  "0211": {
    "postcode": "6100211",
    "prefecture": "京都府",
    "prefecture_kana": "キョウトフ",
    "prefecture_code": 26,
    "city": "綴喜郡宇治田原町",
    "city_kana": "ツヅキグンウジタワラチョウ",
    "town": "奥山田",
    "town_kana": "オクヤマダ",
    "street": null,
    "office_name": null,
    "office_name_kana": null
  },
  "0221": {
    "postcode": "6100221",
    "prefecture": "京都府",
    "prefecture_kana": "キョウトフ",
    "prefecture_code": 26,
    "city": "綴喜郡宇治田原町",
    "city_kana": "ツヅキグンウジタワラチョウ",
    "town": "湯屋谷",
    "town_kana": "ユヤダニ",
    "street": null,
    "office_name": null,
    "office_name_kana": null
  },
  "0231": {
    "postcode": "6100231",
    "prefecture": "京都府",
    "prefecture_kana": "キョウトフ",
    "prefecture_code": 26,
    "city": "綴喜郡宇治田原町",
    "city_kana": "ツヅキグンウジタワラチョウ",
    "town": "立川",
    "town_kana": "タチカワ",
    "street": null,
    "office_name": null,
    "office_name_kana": null
  },
  "0241": {
    "postcode": "6100241",
    "prefecture": "京都府",
    "prefecture_kana": "キョウトフ",
    "prefecture_code": 26,
    "city": "綴喜郡宇治田原町",
    "city_kana": "ツヅキグンウジタワラチョウ",
    "town": "南",
    "town_kana": "ミナミ",
    "street": null,
    "office_name": null,
    "office_name_kana": null
  },
  "0251": {
    "postcode": "6100251",
    "prefecture": "京都府",
    "prefecture_kana": "キョウトフ",
    "prefecture_code": 26,
    "city": "綴喜郡宇治田原町",
    "city_kana": "ツヅキグンウジタワラチョウ",
    "town": "高尾",
    "town_kana": "コウノ",
    "street": null,
    "office_name": null,
    "office_name_kana": null
  },
  "0252": {
    "postcode": "6100252",
    "prefecture": "京都府",
    "prefecture_kana": "キョウトフ",
    "prefecture_code": 26,
    "city": "綴喜郡宇治田原町",
    "city_kana": "ツヅキグンウジタワラチョウ",
    "town": "荒木",
    "town_kana": "アラキ",
    "street": null,
    "office_name": null,
    "office_name_kana": null
  },
  "0253": {
    "postcode": "6100253",
    "prefecture": "京都府",
    "prefecture_kana": "キョウトフ",
    "prefecture_code": 26,
    "city": "綴喜郡宇治田原町",
    "city_kana": "ツヅキグンウジタワラチョウ",
    "town": "贄田",
    "town_kana": "ネダ",
    "street": null,
    "office_name": null,
    "office_name_kana": null
  },
  "0254": {
    "postcode": "6100254",
    "prefecture": "京都府",
    "prefecture_kana": "キョウトフ",
    "prefecture_code": 26,
    "city": "綴喜郡宇治田原町",
    "city_kana": "ツヅキグンウジタワラチョウ",
    "town": "銘城台",
    "town_kana": "メイジョウダイ",
    "street": null,
    "office_name": null,
    "office_name_kana": null
  },
  "0255": {
    "postcode": "6100255",
    "prefecture": "京都府",
    "prefecture_kana": "キョウトフ",
    "prefecture_code": 26,
    "city": "綴喜郡宇治田原町",
    "city_kana": "ツヅキグンウジタワラチョウ",
    "town": "郷之口",
    "town_kana": "ゴウノクチ",
    "street": null,
    "office_name": null,
    "office_name_kana": null
  },
  "0261": {
    "postcode": "6100261",
    "prefecture": "京都府",
    "prefecture_kana": "キョウトフ",
    "prefecture_code": 26,
    "city": "綴喜郡宇治田原町",
    "city_kana": "ツヅキグンウジタワラチョウ",
    "town": "岩山",
    "town_kana": "イワヤマ",
    "street": null,
    "office_name": null,
    "office_name_kana": null
  },
  "0281": {
    "postcode": "6100281",
    "prefecture": "京都府",
    "prefecture_kana": "キョウトフ",
    "prefecture_code": 26,
    "city": "綴喜郡宇治田原町",
    "city_kana": "ツヅキグンウジタワラチョウ",
    "town": "大字郷之口",
    "town_kana": null,
    "street": "小字紫坊４−１（郷ノ口郵便局私書箱第９号）",
    "office_name": "株式会社　宇治田原製茶場",
    "office_name_kana": "カブシキガイシヤ ウジタワラセイチヤジヨウ"
  },
  "0287": {
    "postcode": "6100287",
    "prefecture": "京都府",
    "prefecture_kana": "キョウトフ",
    "prefecture_code": 26,
    "city": "綴喜郡宇治田原町",
    "city_kana": "ツヅキグンウジタワラチョウ",
    "town": "立川",
    "town_kana": "タチカワ",
    "street": "坂口１３番地（郷ノ口郵便局私書箱第３８号）",
    "office_name": "須河車体　株式会社",
    "office_name_kana": "スガワシヤタイ カブシキガイシヤ"
  },
  "0289": {
    "postcode": "6100289",
    "prefecture": "京都府",
    "prefecture_kana": "キョウトフ",
    "prefecture_code": 26,
    "city": "綴喜郡宇治田原町",
    "city_kana": "ツヅキグンウジタワラチョウ",
    "town": "大字立川",
    "town_kana": null,
    "street": "小字坂口１８番地の１",
    "office_name": "宇治田原町役場",
    "office_name_kana": "ウジタワラチヨウヤクバ"
  },
  "0300": [
    {
      "postcode": "6100300",
      "prefecture": "京都府",
      "prefecture_kana": "キョウトフ",
      "prefecture_code": 26,
      "city": "京田辺市",
      "city_kana": "キョウタナベシ",
      "town": "",
      "town_kana": "",
      "street": null,
      "office_name": null,
      "office_name_kana": null
    },
    {
      "postcode": "6100300",
      "prefecture": "京都府",
      "prefecture_kana": "キョウトフ",
      "prefecture_code": 26,
      "city": "綴喜郡井手町",
      "city_kana": "ツヅキグンイデチョウ",
      "town": "",
      "town_kana": "",
      "street": null,
      "office_name": null,
      "office_name_kana": null
    }
  ],
  "0301": {
    "postcode": "6100301",
    "prefecture": "京都府",
    "prefecture_kana": "キョウトフ",
    "prefecture_code": 26,
    "city": "綴喜郡井手町",
    "city_kana": "ツヅキグンイデチョウ",
    "town": "多賀",
    "town_kana": "タガ",
    "street": null,
    "office_name": null,
    "office_name_kana": null
  },
  "0302": {
    "postcode": "6100302",
    "prefecture": "京都府",
    "prefecture_kana": "キョウトフ",
    "prefecture_code": 26,
    "city": "綴喜郡井手町",
    "city_kana": "ツヅキグンイデチョウ",
    "town": "井手",
    "town_kana": "イデ",
    "street": null,
    "office_name": null,
    "office_name_kana": null
  },
  "0303": {
    "postcode": "6100303",
    "prefecture": "京都府",
    "prefecture_kana": "キョウトフ",
    "prefecture_code": 26,
    "city": "綴喜郡井手町",
    "city_kana": "ツヅキグンイデチョウ",
    "town": "田村新田",
    "town_kana": "タムラシンデン",
    "street": null,
    "office_name": null,
    "office_name_kana": null
  },
  "0311": {
    "postcode": "6100311",
    "prefecture": "京都府",
    "prefecture_kana": "キョウトフ",
    "prefecture_code": 26,
    "city": "京田辺市",
    "city_kana": "キョウタナベシ",
    "town": "草内",
    "town_kana": "クサウチ",
    "street": null,
    "office_name": null,
    "office_name_kana": null
  },
  "0312": {
    "postcode": "6100312",
    "prefecture": "京都府",
    "prefecture_kana": "キョウトフ",
    "prefecture_code": 26,
    "city": "京田辺市",
    "city_kana": "キョウタナベシ",
    "town": "飯岡",
    "town_kana": "イノオカ",
    "street": null,
    "office_name": null,
    "office_name_kana": null
  },
  "0313": {
    "postcode": "6100313",
    "prefecture": "京都府",
    "prefecture_kana": "キョウトフ",
    "prefecture_code": 26,
    "city": "京田辺市",
    "city_kana": "キョウタナベシ",
    "town": "三山木",
    "town_kana": "ミヤマキ",
    "street": null,
    "office_name": null,
    "office_name_kana": null
  },
  "0314": {
    "postcode": "6100314",
    "prefecture": "京都府",
    "prefecture_kana": "キョウトフ",
    "prefecture_code": 26,
    "city": "京田辺市",
    "city_kana": "キョウタナベシ",
    "town": "宮津",
    "town_kana": "ミヤヅ",
    "street": null,
    "office_name": null,
    "office_name_kana": null
  },
  "0315": {
    "postcode": "6100315",
    "prefecture": "京都府",
    "prefecture_kana": "キョウトフ",
    "prefecture_code": 26,
    "city": "京田辺市",
    "city_kana": "キョウタナベシ",
    "town": "同志社山手",
    "town_kana": "ドウシシャヤマテ",
    "street": null,
    "office_name": null,
    "office_name_kana": null
  },
  "0321": {
    "postcode": "6100321",
    "prefecture": "京都府",
    "prefecture_kana": "キョウトフ",
    "prefecture_code": 26,
    "city": "京田辺市",
    "city_kana": "キョウタナベシ",
    "town": "多々羅",
    "town_kana": "タタラ",
    "street": null,
    "office_name": null,
    "office_name_kana": null
  },
  "0322": {
    "postcode": "6100322",
    "prefecture": "京都府",
    "prefecture_kana": "キョウトフ",
    "prefecture_code": 26,
    "city": "京田辺市",
    "city_kana": "キョウタナベシ",
    "town": "普賢寺",
    "town_kana": "フゲンジ",
    "street": null,
    "office_name": null,
    "office_name_kana": null
  },
  "0323": {
    "postcode": "6100323",
    "prefecture": "京都府",
    "prefecture_kana": "キョウトフ",
    "prefecture_code": 26,
    "city": "京田辺市",
    "city_kana": "キョウタナベシ",
    "town": "水取",
    "town_kana": "ミズトリ",
    "street": null,
    "office_name": null,
    "office_name_kana": null
  },
  "0324": {
    "postcode": "6100324",
    "prefecture": "京都府",
    "prefecture_kana": "キョウトフ",
    "prefecture_code": 26,
    "city": "京田辺市",
    "city_kana": "キョウタナベシ",
    "town": "打田",
    "town_kana": "ウツタ",
    "street": null,
    "office_name": null,
    "office_name_kana": null
  },
  "0325": {
    "postcode": "6100325",
    "prefecture": "京都府",
    "prefecture_kana": "キョウトフ",
    "prefecture_code": 26,
    "city": "京田辺市",
    "city_kana": "キョウタナベシ",
    "town": "高船",
    "town_kana": "タカフネ",
    "street": null,
    "office_name": null,
    "office_name_kana": null
  },
  "0326": {
    "postcode": "6100326",
    "prefecture": "京都府",
    "prefecture_kana": "キョウトフ",
    "prefecture_code": 26,
    "city": "京田辺市",
    "city_kana": "キョウタナベシ",
    "town": "天王",
    "town_kana": "テンノウ",
    "street": null,
    "office_name": null,
    "office_name_kana": null
  },
  "0331": {
    "postcode": "6100331",
    "prefecture": "京都府",
    "prefecture_kana": "キョウトフ",
    "prefecture_code": 26,
    "city": "京田辺市",
    "city_kana": "キョウタナベシ",
    "town": "田辺",
    "town_kana": "タナベ",
    "street": null,
    "office_name": null,
    "office_name_kana": null
  },
  "0332": {
    "postcode": "6100332",
    "prefecture": "京都府",
    "prefecture_kana": "キョウトフ",
    "prefecture_code": 26,
    "city": "京田辺市",
    "city_kana": "キョウタナベシ",
    "town": "興戸",
    "town_kana": "コウド",
    "street": null,
    "office_name": null,
    "office_name_kana": null
  },
  "0333": {
    "postcode": "6100333",
    "prefecture": "京都府",
    "prefecture_kana": "キョウトフ",
    "prefecture_code": 26,
    "city": "京田辺市",
    "city_kana": "キョウタナベシ",
    "town": "甘南備台",
    "town_kana": "カンナビダイ",
    "street": null,
    "office_name": null,
    "office_name_kana": null
  },
  "0334": {
    "postcode": "6100334",
    "prefecture": "京都府",
    "prefecture_kana": "キョウトフ",
    "prefecture_code": 26,
    "city": "京田辺市",
    "city_kana": "キョウタナベシ",
    "town": "田辺中央",
    "town_kana": "タナベチュウオウ",
    "street": null,
    "office_name": null,
    "office_name_kana": null
  },
  "0341": {
    "postcode": "6100341",
    "prefecture": "京都府",
    "prefecture_kana": "キョウトフ",
    "prefecture_code": 26,
    "city": "京田辺市",
    "city_kana": "キョウタナベシ",
    "town": "薪",
    "town_kana": "タキギ",
    "street": null,
    "office_name": null,
    "office_name_kana": null
  },
  "0342": {
    "postcode": "6100342",
    "prefecture": "京都府",
    "prefecture_kana": "キョウトフ",
    "prefecture_code": 26,
    "city": "京田辺市",
    "city_kana": "キョウタナベシ",
    "town": "松井",
    "town_kana": "マツイ",
    "street": null,
    "office_name": null,
    "office_name_kana": null
  },
  "0343": {
    "postcode": "6100343",
    "prefecture": "京都府",
    "prefecture_kana": "キョウトフ",
    "prefecture_code": 26,
    "city": "京田辺市",
    "city_kana": "キョウタナベシ",
    "town": "大住",
    "town_kana": "オオスミ",
    "street": null,
    "office_name": null,
    "office_name_kana": null
  },
  "0351": {
    "postcode": "6100351",
    "prefecture": "京都府",
    "prefecture_kana": "キョウトフ",
    "prefecture_code": 26,
    "city": "京田辺市",
    "city_kana": "キョウタナベシ",
    "town": "大住ケ丘",
    "town_kana": "オオスミガオカ",
    "street": null,
    "office_name": null,
    "office_name_kana": null
  },
  "0352": {
    "postcode": "6100352",
    "prefecture": "京都府",
    "prefecture_kana": "キョウトフ",
    "prefecture_code": 26,
    "city": "京田辺市",
    "city_kana": "キョウタナベシ",
    "town": "花住坂",
    "town_kana": "カスミザカ",
    "street": null,
    "office_name": null,
    "office_name_kana": null
  },
  "0353": {
    "postcode": "6100353",
    "prefecture": "京都府",
    "prefecture_kana": "キョウトフ",
    "prefecture_code": 26,
    "city": "京田辺市",
    "city_kana": "キョウタナベシ",
    "town": "松井ケ丘",
    "town_kana": "マツイガオカ",
    "street": null,
    "office_name": null,
    "office_name_kana": null
  },
  "0354": {
    "postcode": "6100354",
    "prefecture": "京都府",
    "prefecture_kana": "キョウトフ",
    "prefecture_code": 26,
    "city": "京田辺市",
    "city_kana": "キョウタナベシ",
    "town": "山手南",
    "town_kana": "ヤマテミナミ",
    "street": null,
    "office_name": null,
    "office_name_kana": null
  },
  "0355": {
    "postcode": "6100355",
    "prefecture": "京都府",
    "prefecture_kana": "キョウトフ",
    "prefecture_code": 26,
    "city": "京田辺市",
    "city_kana": "キョウタナベシ",
    "town": "山手西",
    "town_kana": "ヤマテニシ",
    "street": null,
    "office_name": null,
    "office_name_kana": null
  },
  "0356": {
    "postcode": "6100356",
    "prefecture": "京都府",
    "prefecture_kana": "キョウトフ",
    "prefecture_code": 26,
    "city": "京田辺市",
    "city_kana": "キョウタナベシ",
    "town": "山手中央",
    "town_kana": "ヤマテチュウオウ",
    "street": null,
    "office_name": null,
    "office_name_kana": null
  },
  "0357": {
    "postcode": "6100357",
    "prefecture": "京都府",
    "prefecture_kana": "キョウトフ",
    "prefecture_code": 26,
    "city": "京田辺市",
    "city_kana": "キョウタナベシ",
    "town": "山手東",
    "town_kana": "ヤマテヒガシ",
    "street": null,
    "office_name": null,
    "office_name_kana": null
  },
  "0361": {
    "postcode": "6100361",
    "prefecture": "京都府",
    "prefecture_kana": "キョウトフ",
    "prefecture_code": 26,
    "city": "京田辺市",
    "city_kana": "キョウタナベシ",
    "town": "河原",
    "town_kana": "カワラ",
    "street": null,
    "office_name": null,
    "office_name_kana": null
  },
  "0362": {
    "postcode": "6100362",
    "prefecture": "京都府",
    "prefecture_kana": "キョウトフ",
    "prefecture_code": 26,
    "city": "京田辺市",
    "city_kana": "キョウタナベシ",
    "town": "東",
    "town_kana": "ヒガシ",
    "street": null,
    "office_name": null,
    "office_name_kana": null
  },
  "0380": {
    "postcode": "6100380",
    "prefecture": "京都府",
    "prefecture_kana": "キョウトフ",
    "prefecture_code": 26,
    "city": "京田辺市",
    "city_kana": "キョウタナベシ",
    "town": "甘南備台",
    "town_kana": "カンナビダイ",
    "street": "１丁目１番３号（山城田辺郵便局私書箱第２３号）",
    "office_name": "株式会社　椿本チエイン　京田辺工場",
    "office_name_kana": "カブシキガイシヤ ツバキモトチエイン キヨウタナベコウジヨウ"
  },
  "0393": {
    "postcode": "6100393",
    "prefecture": "京都府",
    "prefecture_kana": "キョウトフ",
    "prefecture_code": 26,
    "city": "京田辺市",
    "city_kana": "キョウタナベシ",
    "town": "田辺",
    "town_kana": "タナベ",
    "street": "８０",
    "office_name": "京田辺市役所",
    "office_name_kana": "キヨウタナベシヤクシヨ"
  },
  "0394": {
    "postcode": "6100394",
    "prefecture": "京都府",
    "prefecture_kana": "キョウトフ",
    "prefecture_code": 26,
    "city": "京田辺市",
    "city_kana": "キョウタナベシ",
    "town": "多々羅都谷",
    "town_kana": null,
    "street": "１−３",
    "office_name": "同志社大学",
    "office_name_kana": "ドウシシヤダイガク"
  },
  "0395": {
    "postcode": "6100395",
    "prefecture": "京都府",
    "prefecture_kana": "キョウトフ",
    "prefecture_code": 26,
    "city": "京田辺市",
    "city_kana": "キョウタナベシ",
    "town": "興戸南鉾立",
    "town_kana": null,
    "street": "９７−１",
    "office_name": "同志社女子大学",
    "office_name_kana": "ドウシシヤジヨシダイガク"
  },
  "0396": {
    "postcode": "6100396",
    "prefecture": "京都府",
    "prefecture_kana": "キョウトフ",
    "prefecture_code": 26,
    "city": "綴喜郡井手町",
    "city_kana": "ツヅキグンイデチョウ",
    "town": "大字多賀",
    "town_kana": null,
    "street": "小字茶臼塚１２−２",
    "office_name": "ワタキューセイモア　株式会社",
    "office_name_kana": "ワタキユ-セイモア カブシキガイシヤ"
  },
  "0397": {
    "postcode": "6100397",
    "prefecture": "京都府",
    "prefecture_kana": "キョウトフ",
    "prefecture_code": 26,
    "city": "京田辺市",
    "city_kana": "キョウタナベシ",
    "town": "松井宮田",
    "town_kana": null,
    "street": "１",
    "office_name": "アマゾン京田辺ＦＣ",
    "office_name_kana": "アマゾンキヨウタナベエフシ-"
  },
  "1101": {
    "postcode": "6101101",
    "prefecture": "京都府",
    "prefecture_kana": "キョウトフ",
    "prefecture_code": 26,
    "city": "京都市西京区",
    "city_kana": "キョウトシニシキョウク",
    "town": "大枝北沓掛町",
    "town_kana": "オオエキタクツカケチョウ",
    "street": null,
    "office_name": null,
    "office_name_kana": null
  },
  "1102": {
    "postcode": "6101102",
    "prefecture": "京都府",
    "prefecture_kana": "キョウトフ",
    "prefecture_code": 26,
    "city": "京都市西京区",
    "city_kana": "キョウトシニシキョウク",
    "town": "御陵大枝山町",
    "town_kana": "ゴリョウオオエヤマチョウ",
    "street": null,
    "office_name": null,
    "office_name_kana": null
  },
  "1103": {
    "postcode": "6101103",
    "prefecture": "京都府",
    "prefecture_kana": "キョウトフ",
    "prefecture_code": 26,
    "city": "京都市西京区",
    "city_kana": "キョウトシニシキョウク",
    "town": "御陵峰ケ堂町",
    "town_kana": "ゴリョウミネガドウチョウ",
    "street": null,
    "office_name": null,
    "office_name_kana": null
  },
  "1104": {
    "postcode": "6101104",
    "prefecture": "京都府",
    "prefecture_kana": "キョウトフ",
    "prefecture_code": 26,
    "city": "京都市西京区",
    "city_kana": "キョウトシニシキョウク",
    "town": "大枝中山町",
    "town_kana": "オオエナカヤマチョウ",
    "street": null,
    "office_name": null,
    "office_name_kana": null
  },
  "1105": {
    "postcode": "6101105",
    "prefecture": "京都府",
    "prefecture_kana": "キョウトフ",
    "prefecture_code": 26,
    "city": "京都市西京区",
    "city_kana": "キョウトシニシキョウク",
    "town": "大枝塚原町",
    "town_kana": "オオエツカハラチョウ",
    "street": null,
    "office_name": null,
    "office_name_kana": null
  },
  "1106": {
    "postcode": "6101106",
    "prefecture": "京都府",
    "prefecture_kana": "キョウトフ",
    "prefecture_code": 26,
    "city": "京都市西京区",
    "city_kana": "キョウトシニシキョウク",
    "town": "大枝沓掛町",
    "town_kana": "オオエクツカケチョウ",
    "street": null,
    "office_name": null,
    "office_name_kana": null
  },
  "1107": {
    "postcode": "6101107",
    "prefecture": "京都府",
    "prefecture_kana": "キョウトフ",
    "prefecture_code": 26,
    "city": "京都市西京区",
    "city_kana": "キョウトシニシキョウク",
    "town": "御陵北大枝山町",
    "town_kana": "ゴリョウキタオオエヤマチョウ",
    "street": null,
    "office_name": null,
    "office_name_kana": null
  },
  "1111": {
    "postcode": "6101111",
    "prefecture": "京都府",
    "prefecture_kana": "キョウトフ",
    "prefecture_code": 26,
    "city": "京都市西京区",
    "city_kana": "キョウトシニシキョウク",
    "town": "大枝東長町",
    "town_kana": "オオエヒガシナガチョウ",
    "street": null,
    "office_name": null,
    "office_name_kana": null
  },
  "1112": {
    "postcode": "6101112",
    "prefecture": "京都府",
    "prefecture_kana": "キョウトフ",
    "prefecture_code": 26,
    "city": "京都市西京区",
    "city_kana": "キョウトシニシキョウク",
    "town": "大枝北福西町",
    "town_kana": "オオエキタフクニシチョウ",
    "street": null,
    "office_name": null,
    "office_name_kana": null
  },
  "1113": {
    "postcode": "6101113",
    "prefecture": "京都府",
    "prefecture_kana": "キョウトフ",
    "prefecture_code": 26,
    "city": "京都市西京区",
    "city_kana": "キョウトシニシキョウク",
    "town": "大枝南福西町",
    "town_kana": "オオエミナミフクニシチョウ",
    "street": null,
    "office_name": null,
    "office_name_kana": null
  },
  "1121": {
    "postcode": "6101121",
    "prefecture": "京都府",
    "prefecture_kana": "キョウトフ",
    "prefecture_code": 26,
    "city": "京都市西京区",
    "city_kana": "キョウトシニシキョウク",
    "town": "大原野上里北ノ町",
    "town_kana": "オオハラノカミザトキタノチョウ",
    "street": null,
    "office_name": null,
    "office_name_kana": null
  },
  "1122": {
    "postcode": "6101122",
    "prefecture": "京都府",
    "prefecture_kana": "キョウトフ",
    "prefecture_code": 26,
    "city": "京都市西京区",
    "city_kana": "キョウトシニシキョウク",
    "town": "大原野東野町",
    "town_kana": "オオハラノヒガシノチョウ",
    "street": null,
    "office_name": null,
    "office_name_kana": null
  },
  "1123": {
    "postcode": "6101123",
    "prefecture": "京都府",
    "prefecture_kana": "キョウトフ",
    "prefecture_code": 26,
    "city": "京都市西京区",
    "city_kana": "キョウトシニシキョウク",
    "town": "大原野上里南ノ町",
    "town_kana": "オオハラノカミザトミナミノチョウ",
    "street": null,
    "office_name": null,
    "office_name_kana": null
  },
  "1124": {
    "postcode": "6101124",
    "prefecture": "京都府",
    "prefecture_kana": "キョウトフ",
    "prefecture_code": 26,
    "city": "京都市西京区",
    "city_kana": "キョウトシニシキョウク",
    "town": "大原野上里紅葉町",
    "town_kana": "オオハラノカミザトモミジチョウ",
    "street": null,
    "office_name": null,
    "office_name_kana": null
  },
  "1125": {
    "postcode": "6101125",
    "prefecture": "京都府",
    "prefecture_kana": "キョウトフ",
    "prefecture_code": 26,
    "city": "京都市西京区",
    "city_kana": "キョウトシニシキョウク",
    "town": "大原野上里勝山町",
    "town_kana": "オオハラノカミザトカツヤマチョウ",
    "street": null,
    "office_name": null,
    "office_name_kana": null
  },
  "1126": {
    "postcode": "6101126",
    "prefecture": "京都府",
    "prefecture_kana": "キョウトフ",
    "prefecture_code": 26,
    "city": "京都市西京区",
    "city_kana": "キョウトシニシキョウク",
    "town": "大原野上里男鹿町",
    "town_kana": "オオハラノカミザトオジカチョウ",
    "street": null,
    "office_name": null,
    "office_name_kana": null
  },
  "1127": {
    "postcode": "6101127",
    "prefecture": "京都府",
    "prefecture_kana": "キョウトフ",
    "prefecture_code": 26,
    "city": "京都市西京区",
    "city_kana": "キョウトシニシキョウク",
    "town": "大原野上里鳥見町",
    "town_kana": "オオハラノカミザトトリミチョウ",
    "street": null,
    "office_name": null,
    "office_name_kana": null
  },
  "1128": {
    "postcode": "6101128",
    "prefecture": "京都府",
    "prefecture_kana": "キョウトフ",
    "prefecture_code": 26,
    "city": "京都市西京区",
    "city_kana": "キョウトシニシキョウク",
    "town": "大原野石見町",
    "town_kana": "オオハラノイワミチョウ",
    "street": null,
    "office_name": null,
    "office_name_kana": null
  },
  "1131": {
    "postcode": "6101131",
    "prefecture": "京都府",
    "prefecture_kana": "キョウトフ",
    "prefecture_code": 26,
    "city": "京都市西京区",
    "city_kana": "キョウトシニシキョウク",
    "town": "大原野上羽町",
    "town_kana": "オオハラノウエバチョウ",
    "street": null,
    "office_name": null,
    "office_name_kana": null
  },
  "1132": {
    "postcode": "6101132",
    "prefecture": "京都府",
    "prefecture_kana": "キョウトフ",
    "prefecture_code": 26,
    "city": "京都市西京区",
    "city_kana": "キョウトシニシキョウク",
    "town": "大原野灰方町",
    "town_kana": "オオハラノハイガタチョウ",
    "street": null,
    "office_name": null,
    "office_name_kana": null
  },
  "1133": {
    "postcode": "6101133",
    "prefecture": "京都府",
    "prefecture_kana": "キョウトフ",
    "prefecture_code": 26,
    "city": "京都市西京区",
    "city_kana": "キョウトシニシキョウク",
    "town": "大原野小塩町",
    "town_kana": "オオハラノオシオチョウ",
    "street": null,
    "office_name": null,
    "office_name_kana": null
  },
  "1134": {
    "postcode": "6101134",
    "prefecture": "京都府",
    "prefecture_kana": "キョウトフ",
    "prefecture_code": 26,
    "city": "京都市西京区",
    "city_kana": "キョウトシニシキョウク",
    "town": "大原野石作町",
    "town_kana": "オオハラノイシヅクリチョウ",
    "street": null,
    "office_name": null,
    "office_name_kana": null
  },
  "1135": {
    "postcode": "6101135",
    "prefecture": "京都府",
    "prefecture_kana": "キョウトフ",
    "prefecture_code": 26,
    "city": "京都市西京区",
    "city_kana": "キョウトシニシキョウク",
    "town": "大原野出灰町",
    "town_kana": "オオハラノイズリハチョウ",
    "street": null,
    "office_name": null,
    "office_name_kana": null
  },
  "1136": {
    "postcode": "6101136",
    "prefecture": "京都府",
    "prefecture_kana": "キョウトフ",
    "prefecture_code": 26,
    "city": "京都市西京区",
    "city_kana": "キョウトシニシキョウク",
    "town": "大原野外畑町",
    "town_kana": "オオハラノトノハタチョウ",
    "street": null,
    "office_name": null,
    "office_name_kana": null
  },
  "1141": {
    "postcode": "6101141",
    "prefecture": "京都府",
    "prefecture_kana": "キョウトフ",
    "prefecture_code": 26,
    "city": "京都市西京区",
    "city_kana": "キョウトシニシキョウク",
    "town": "大枝西新林町",
    "town_kana": "オオエニシシンバヤシチョウ",
    "street": null,
    "office_name": null,
    "office_name_kana": null
  },
  "1142": {
    "postcode": "6101142",
    "prefecture": "京都府",
    "prefecture_kana": "キョウトフ",
    "prefecture_code": 26,
    "city": "京都市西京区",
    "city_kana": "キョウトシニシキョウク",
    "town": "大枝東新林町",
    "town_kana": "オオエヒガシシンバヤシチョウ",
    "street": null,
    "office_name": null,
    "office_name_kana": null
  },
  "1143": {
    "postcode": "6101143",
    "prefecture": "京都府",
    "prefecture_kana": "キョウトフ",
    "prefecture_code": 26,
    "city": "京都市西京区",
    "city_kana": "キョウトシニシキョウク",
    "town": "大原野東境谷町",
    "town_kana": "オオハラノヒガシサカイダニチョウ",
    "street": null,
    "office_name": null,
    "office_name_kana": null
  },
  "1144": {
    "postcode": "6101144",
    "prefecture": "京都府",
    "prefecture_kana": "キョウトフ",
    "prefecture_code": 26,
    "city": "京都市西京区",
    "city_kana": "キョウトシニシキョウク",
    "town": "大原野東竹の里町",
    "town_kana": "オオハラノヒガシタケノサトチョウ",
    "street": null,
    "office_name": null,
    "office_name_kana": null
  },
  "1145": {
    "postcode": "6101145",
    "prefecture": "京都府",
    "prefecture_kana": "キョウトフ",
    "prefecture_code": 26,
    "city": "京都市西京区",
    "city_kana": "キョウトシニシキョウク",
    "town": "大原野西竹の里町",
    "town_kana": "オオハラノニシタケノサトチョウ",
    "street": null,
    "office_name": null,
    "office_name_kana": null
  },
  "1146": {
    "postcode": "6101146",
    "prefecture": "京都府",
    "prefecture_kana": "キョウトフ",
    "prefecture_code": 26,
    "city": "京都市西京区",
    "city_kana": "キョウトシニシキョウク",
    "town": "大原野西境谷町",
    "town_kana": "オオハラノニシサカイダニチョウ",
    "street": null,
    "office_name": null,
    "office_name_kana": null
  },
  "1151": {
    "postcode": "6101151",
    "prefecture": "京都府",
    "prefecture_kana": "キョウトフ",
    "prefecture_code": 26,
    "city": "京都市西京区",
    "city_kana": "キョウトシニシキョウク",
    "town": "大枝西長町",
    "town_kana": "オオエニシナガチョウ",
    "street": null,
    "office_name": null,
    "office_name_kana": null
  },
  "1152": {
    "postcode": "6101152",
    "prefecture": "京都府",
    "prefecture_kana": "キョウトフ",
    "prefecture_code": 26,
    "city": "京都市西京区",
    "city_kana": "キョウトシニシキョウク",
    "town": "大原野北春日町",
    "town_kana": "オオハラノキタカスガチョウ",
    "street": null,
    "office_name": null,
    "office_name_kana": null
  },
  "1153": {
    "postcode": "6101153",
    "prefecture": "京都府",
    "prefecture_kana": "キョウトフ",
    "prefecture_code": 26,
    "city": "京都市西京区",
    "city_kana": "キョウトシニシキョウク",
    "town": "大原野南春日町",
    "town_kana": "オオハラノミナミカスガチョウ",
    "street": null,
    "office_name": null,
    "office_name_kana": null
  },
  "1192": {
    "postcode": "6101192",
    "prefecture": "京都府",
    "prefecture_kana": "キョウトフ",
    "prefecture_code": 26,
    "city": "京都市西京区",
    "city_kana": "キョウトシニシキョウク",
    "town": "御陵大枝山",
    "town_kana": null,
    "street": "３−２",
    "office_name": "国際日本文化研究センター",
    "office_name_kana": "コクサイニホンブンカケンキユウセンタ-"
  },
  "1195": {
    "postcode": "6101195",
    "prefecture": "京都府",
    "prefecture_kana": "キョウトフ",
    "prefecture_code": 26,
    "city": "京都市西京区",
    "city_kana": "キョウトシニシキョウク",
    "town": "大枝東長町",
    "town_kana": "オオエヒガシナガチョウ",
    "street": "３−１",
    "office_name": "京都経済短期大学　（学校法人　明徳学園）",
    "office_name_kana": "キヨウトケイザイタンキダイガク (ガツコウホウジン メイトクガクエン)"
  },
  "1198": {
    "postcode": "6101198",
    "prefecture": "京都府",
    "prefecture_kana": "キョウトフ",
    "prefecture_code": 26,
    "city": "京都市西京区",
    "city_kana": "キョウトシニシキョウク",
    "town": "",
    "town_kana": "",
    "street": "大原野東境谷町２−１−２",
    "office_name": "京都市西京区役所　洛西支所",
    "office_name_kana": "キヨウトシニシキヨウクヤクシヨ ラクサイシシヨ"
  }
}