{
  "0000": {
    "postcode": "6110000",
    "prefecture": "京都府",
    "prefecture_kana": "キョウトフ",
    "prefecture_code": 26,
    "city": "宇治市",
    "city_kana": "ウジシ",
    "town": "",
    "town_kana": "",
    "street": null,
    "office_name": null,
    "office_name_kana": null
  },
  "0001": {
    "postcode": "6110001",
    "prefecture": "京都府",
    "prefecture_kana": "キョウトフ",
    "prefecture_code": 26,
    "city": "宇治市",
    "city_kana": "ウジシ",
    "town": "六地蔵",
    "town_kana": "ロクジゾウ",
    "street": null,
    "office_name": null,
    "office_name_kana": null
  },
  "0002": {
    "postcode": "6110002",
    "prefecture": "京都府",
    "prefecture_kana": "キョウトフ",
    "prefecture_code": 26,
    "city": "宇治市",
    "city_kana": "ウジシ",
    "town": "木幡",
    "town_kana": "コハタ",
    "street": null,
    "office_name": null,
    "office_name_kana": null
  },
  "0003": {
    "postcode": "6110003",
    "prefecture": "京都府",
    "prefecture_kana": "キョウトフ",
    "prefecture_code": 26,
    "city": "宇治市",
    "city_kana": "ウジシ",
    "town": "平尾台",
    "town_kana": "ヒラオダイ",
    "street": null,
    "office_name": null,
    "office_name_kana": null
  },
  "0011": {
    "postcode": "6110011",
    "prefecture": "京都府",
    "prefecture_kana": "キョウトフ",
    "prefecture_code": 26,
    "city": "宇治市",
    "city_kana": "ウジシ",
    "town": "五ケ庄",
    "town_kana": "ゴカショウ",
    "street": null,
    "office_name": null,
    "office_name_kana": null
  },
  "0012": {
    "postcode": "6110012",
    "prefecture": "京都府",
    "prefecture_kana": "キョウトフ",
    "prefecture_code": 26,
    "city": "宇治市",
    "city_kana": "ウジシ",
    "town": "羽戸山",
    "town_kana": "ハドヤマ",
    "street": null,
    "office_name": null,
    "office_name_kana": null
  },
  "0013": {
    "postcode": "6110013",
    "prefecture": "京都府",
    "prefecture_kana": "キョウトフ",
    "prefecture_code": 26,
    "city": "宇治市",
    "city_kana": "ウジシ",
    "town": "莵道",
    "town_kana": "トドウ",
    "street": null,
    "office_name": null,
    "office_name_kana": null
  },
  "0014": {
    "postcode": "6110014",
    "prefecture": "京都府",
    "prefecture_kana": "キョウトフ",
    "prefecture_code": 26,
    "city": "宇治市",
    "city_kana": "ウジシ",
    "town": "明星町",
    "town_kana": "ミョウジョウチョウ",
    "street": null,
    "office_name": null,
    "office_name_kana": null
  },
  "0015": {
    "postcode": "6110015",
    "prefecture": "京都府",
    "prefecture_kana": "キョウトフ",
    "prefecture_code": 26,
    "city": "宇治市",
    "city_kana": "ウジシ",
    "town": "志津川",
    "town_kana": "シツカワ",
    "street": null,
    "office_name": null,
    "office_name_kana": null
  },
  "0021": {
    "postcode": "6110021",
    "prefecture": "京都府",
    "prefecture_kana": "キョウトフ",
    "prefecture_code": 26,
    "city": "宇治市",
    "city_kana": "ウジシ",
    "town": "宇治",
    "town_kana": "ウジ",
    "street": null,
    "office_name": null,
    "office_name_kana": null
  },
  "0022": {
    "postcode": "6110022",
    "prefecture": "京都府",
    "prefecture_kana": "キョウトフ",
    "prefecture_code": 26,
    "city": "宇治市",
    "city_kana": "ウジシ",
    "town": "白川",
    "town_kana": "シラカワ",
    "street": null,
    "office_name": null,
    "office_name_kana": null
  },
  "0023": {
    "postcode": "6110023",
    "prefecture": "京都府",
    "prefecture_kana": "キョウトフ",
    "prefecture_code": 26,
    "city": "宇治市",
    "city_kana": "ウジシ",
    "town": "折居台",
    "town_kana": "オリイダイ",
    "street": null,
    "office_name": null,
    "office_name_kana": null
  },
  "0024": {
    "postcode": "6110024",
    "prefecture": "京都府",
    "prefecture_kana": "キョウトフ",
    "prefecture_code": 26,
    "city": "宇治市",
    "city_kana": "ウジシ",
    "town": "琵琶台",
    "town_kana": "ビワダイ",
    "street": null,
    "office_name": null,
    "office_name_kana": null
  },
  "0025": {
    "postcode": "6110025",
    "prefecture": "京都府",
    "prefecture_kana": "キョウトフ",
    "prefecture_code": 26,
    "city": "宇治市",
    "city_kana": "ウジシ",
    "town": "神明",
    "town_kana": "シンメイ",
    "street": null,
    "office_name": null,
    "office_name_kana": null
  },
  "0026": {
    "postcode": "6110026",
    "prefecture": "京都府",
    "prefecture_kana": "キョウトフ",
    "prefecture_code": 26,
    "city": "宇治市",
    "city_kana": "ウジシ",
    "town": "開町",
    "town_kana": "ヒラキチョウ",
    "street": null,
    "office_name": null,
    "office_name_kana": null
  },
  "0027": {
    "postcode": "6110027",
    "prefecture": "京都府",
    "prefecture_kana": "キョウトフ",
    "prefecture_code": 26,
    "city": "宇治市",
    "city_kana": "ウジシ",
    "town": "羽拍子町",
    "town_kana": "ハビョウシチョウ",
    "street": null,
    "office_name": null,
    "office_name_kana": null
  },
  "0028": {
    "postcode": "6110028",
    "prefecture": "京都府",
    "prefecture_kana": "キョウトフ",
    "prefecture_code": 26,
    "city": "宇治市",
    "city_kana": "ウジシ",
    "town": "南陵町",
    "town_kana": "ナンリョウチョウ",
    "street": null,
    "office_name": null,
    "office_name_kana": null
  },
  "0029": {
    "postcode": "6110029",
    "prefecture": "京都府",
    "prefecture_kana": "キョウトフ",
    "prefecture_code": 26,
    "city": "宇治市",
    "city_kana": "ウジシ",
    "town": "天神台",
    "town_kana": "テンジンダイ",
    "street": null,
    "office_name": null,
    "office_name_kana": null
  },
  "0031": {
    "postcode": "6110031",
    "prefecture": "京都府",
    "prefecture_kana": "キョウトフ",
    "prefecture_code": 26,
    "city": "宇治市",
    "city_kana": "ウジシ",
    "town": "広野町",
    "town_kana": "ヒロノチョウ",
    "street": null,
    "office_name": null,
    "office_name_kana": null
  },
  "0032": {
    "postcode": "6110032",
    "prefecture": "京都府",
    "prefecture_kana": "キョウトフ",
    "prefecture_code": 26,
    "city": "宇治市",
    "city_kana": "ウジシ",
    "town": "寺山台",
    "town_kana": "テラヤマダイ",
    "street": null,
    "office_name": null,
    "office_name_kana": null
  },
  "0033": {
    "postcode": "6110033",
    "prefecture": "京都府",
    "prefecture_kana": "キョウトフ",
    "prefecture_code": 26,
    "city": "宇治市",
    "city_kana": "ウジシ",
    "town": "大久保町",
    "town_kana": "オオクボチョウ",
    "street": null,
    "office_name": null,
    "office_name_kana": null
  },
  "0041": {
    "postcode": "6110041",
    "prefecture": "京都府",
    "prefecture_kana": "キョウトフ",
    "prefecture_code": 26,
    "city": "宇治市",
    "city_kana": "ウジシ",
    "town": "槇島町",
    "town_kana": "マキシマチョウ",
    "street": null,
    "office_name": null,
    "office_name_kana": null
  },
  "0042": {
    "postcode": "6110042",
    "prefecture": "京都府",
    "prefecture_kana": "キョウトフ",
    "prefecture_code": 26,
    "city": "宇治市",
    "city_kana": "ウジシ",
    "town": "小倉町",
    "town_kana": "オグラチョウ",
    "street": null,
    "office_name": null,
    "office_name_kana": null
  },
  "0043": {
    "postcode": "6110043",
    "prefecture": "京都府",
    "prefecture_kana": "キョウトフ",
    "prefecture_code": 26,
    "city": "宇治市",
    "city_kana": "ウジシ",
    "town": "伊勢田町",
    "town_kana": "イセダチョウ",
    "street": null,
    "office_name": null,
    "office_name_kana": null
  },
  "0044": {
    "postcode": "6110044",
    "prefecture": "京都府",
    "prefecture_kana": "キョウトフ",
    "prefecture_code": 26,
    "city": "宇治市",
    "city_kana": "ウジシ",
    "town": "伊勢田町名木",
    "town_kana": "イセダチョウナギ",
    "street": null,
    "office_name": null,
    "office_name_kana": null
  },
  "0045": {
    "postcode": "6110045",
    "prefecture": "京都府",
    "prefecture_kana": "キョウトフ",
    "prefecture_code": 26,
    "city": "宇治市",
    "city_kana": "ウジシ",
    "town": "安田町",
    "town_kana": "ヤスダチョウ",
    "street": null,
    "office_name": null,
    "office_name_kana": null
  },
  "8501": {
    "postcode": "6118501",
    "prefecture": "京都府",
    "prefecture_kana": "キョウトフ",
    "prefecture_code": 26,
    "city": "宇治市",
    "city_kana": "ウジシ",
    "town": "宇治",
    "town_kana": "ウジ",
    "street": "琵琶３３",
    "office_name": "宇治市役所",
    "office_name_kana": "ウジシヤクシヨ"
  },
  "8521": {
    "postcode": "6118521",
    "prefecture": "京都府",
    "prefecture_kana": "キョウトフ",
    "prefecture_code": 26,
    "city": "宇治市",
    "city_kana": "ウジシ",
    "town": "宇治",
    "town_kana": "ウジ",
    "street": "折居１８番地",
    "office_name": "城南衛生管理組合",
    "office_name_kana": "ジヨウナンエイセイカンリクミアイ"
  },
  "8555": {
    "postcode": "6118555",
    "prefecture": "京都府",
    "prefecture_kana": "キョウトフ",
    "prefecture_code": 26,
    "city": "宇治市",
    "city_kana": "ウジシ",
    "town": "宇治",
    "town_kana": "ウジ",
    "street": "戸ノ内５番地",
    "office_name": "ユニチカ　株式会社　宇治事業所",
    "office_name_kana": "ユニチカ カブシキカイシヤ ウジジギヨウシヨ"
  },
  "8585": {
    "postcode": "6118585",
    "prefecture": "京都府",
    "prefecture_kana": "キョウトフ",
    "prefecture_code": 26,
    "city": "宇治市",
    "city_kana": "ウジシ",
    "town": "木幡",
    "town_kana": "コハタ",
    "street": "西中２５",
    "office_name": "松下電子部品　株式会社　コンデンサ事業部",
    "office_name_kana": "マツシタデンシブヒン カブシキガイシヤ コンデンサジギヨウブ"
  },
  "8588": {
    "postcode": "6118588",
    "prefecture": "京都府",
    "prefecture_kana": "キョウトフ",
    "prefecture_code": 26,
    "city": "宇治市",
    "city_kana": "ウジシ",
    "town": "大久保町",
    "town_kana": "オオクボチョウ",
    "street": "井ノ尻６０−３",
    "office_name": "宇治税務署",
    "office_name_kana": "ウジゼイムシヨ"
  },
  "8660": {
    "postcode": "6118660",
    "prefecture": "京都府",
    "prefecture_kana": "キョウトフ",
    "prefecture_code": 26,
    "city": "宇治市",
    "city_kana": "ウジシ",
    "town": "宇治",
    "town_kana": "ウジ",
    "street": "宇文字２−１８",
    "office_name": "京都中央信用金庫　宇治支店",
    "office_name_kana": "キヨウトチユウオウシンヨウキンコ ウジシテン"
  }
}