{
  "0000": [
    {
      "postcode": "6170000",
      "prefecture": "京都府",
      "prefecture_kana": "キョウトフ",
      "prefecture_code": 26,
      "city": "向日市",
      "city_kana": "ムコウシ",
      "town": "",
      "town_kana": "",
      "street": null,
      "office_name": null,
      "office_name_kana": null
    },
    {
      "postcode": "6170000",
      "prefecture": "京都府",
      "prefecture_kana": "キョウトフ",
      "prefecture_code": 26,
      "city": "長岡京市",
      "city_kana": "ナガオカキョウシ",
      "town": "",
      "town_kana": "",
      "street": null,
      "office_name": null,
      "office_name_kana": null
    }
  ],
  "0001": {
    "postcode": "6170001",
    "prefecture": "京都府",
    "prefecture_kana": "キョウトフ",
    "prefecture_code": 26,
    "city": "向日市",
    "city_kana": "ムコウシ",
    "town": "物集女町",
    "town_kana": "モズメチョウ",
    "street": null,
    "office_name": null,
    "office_name_kana": null
  },
  "0002": {
    "postcode": "6170002",
    "prefecture": "京都府",
    "prefecture_kana": "キョウトフ",
    "prefecture_code": 26,
    "city": "向日市",
    "city_kana": "ムコウシ",
    "town": "寺戸町",
    "town_kana": "テラドチョウ",
    "street": null,
    "office_name": null,
    "office_name_kana": null
  },
  "0003": {
    "postcode": "6170003",
    "prefecture": "京都府",
    "prefecture_kana": "キョウトフ",
    "prefecture_code": 26,
    "city": "向日市",
    "city_kana": "ムコウシ",
    "town": "森本町",
    "town_kana": "モリモトチョウ",
    "street": null,
    "office_name": null,
    "office_name_kana": null
  },
  "0004": {
    "postcode": "6170004",
    "prefecture": "京都府",
    "prefecture_kana": "キョウトフ",
    "prefecture_code": 26,
    "city": "向日市",
    "city_kana": "ムコウシ",
    "town": "鶏冠井町",
    "town_kana": "カイデチョウ",
    "street": null,
    "office_name": null,
    "office_name_kana": null
  },
  "0005": {
    "postcode": "6170005",
    "prefecture": "京都府",
    "prefecture_kana": "キョウトフ",
    "prefecture_code": 26,
    "city": "向日市",
    "city_kana": "ムコウシ",
    "town": "向日町",
    "town_kana": "ムコウチョウ",
    "street": null,
    "office_name": null,
    "office_name_kana": null
  },
  "0006": {
    "postcode": "6170006",
    "prefecture": "京都府",
    "prefecture_kana": "キョウトフ",
    "prefecture_code": 26,
    "city": "向日市",
    "city_kana": "ムコウシ",
    "town": "上植野町",
    "town_kana": "カミウエノチョウ",
    "street": null,
    "office_name": null,
    "office_name_kana": null
  },
  "0811": {
    "postcode": "6170811",
    "prefecture": "京都府",
    "prefecture_kana": "キョウトフ",
    "prefecture_code": 26,
    "city": "長岡京市",
    "city_kana": "ナガオカキョウシ",
    "town": "粟生",
    "town_kana": "アオ",
    "street": null,
    "office_name": null,
    "office_name_kana": null
  },
  "0812": {
    "postcode": "6170812",
    "prefecture": "京都府",
    "prefecture_kana": "キョウトフ",
    "prefecture_code": 26,
    "city": "長岡京市",
    "city_kana": "ナガオカキョウシ",
    "town": "長法寺",
    "town_kana": "チョウホウジ",
    "street": null,
    "office_name": null,
    "office_name_kana": null
  },
  "0813": {
    "postcode": "6170813",
    "prefecture": "京都府",
    "prefecture_kana": "キョウトフ",
    "prefecture_code": 26,
    "city": "長岡京市",
    "city_kana": "ナガオカキョウシ",
    "town": "井ノ内",
    "town_kana": "イノウチ",
    "street": null,
    "office_name": null,
    "office_name_kana": null
  },
  "0814": {
    "postcode": "6170814",
    "prefecture": "京都府",
    "prefecture_kana": "キョウトフ",
    "prefecture_code": 26,
    "city": "長岡京市",
    "city_kana": "ナガオカキョウシ",
    "town": "今里",
    "town_kana": "イマザト",
    "street": null,
    "office_name": null,
    "office_name_kana": null
  },
  "0815": {
    "postcode": "6170815",
    "prefecture": "京都府",
    "prefecture_kana": "キョウトフ",
    "prefecture_code": 26,
    "city": "長岡京市",
    "city_kana": "ナガオカキョウシ",
    "town": "うぐいす台",
    "town_kana": "ウグイスダイ",
    "street": null,
    "office_name": null,
    "office_name_kana": null
  },
  "0816": {
    "postcode": "6170816",
    "prefecture": "京都府",
    "prefecture_kana": "キョウトフ",
    "prefecture_code": 26,
    "city": "長岡京市",
    "city_kana": "ナガオカキョウシ",
    "town": "西の京",
    "town_kana": "ニシノキョウ",
    "street": null,
    "office_name": null,
    "office_name_kana": null
  },
  "0817": {
    "postcode": "6170817",
    "prefecture": "京都府",
    "prefecture_kana": "キョウトフ",
    "prefecture_code": 26,
    "city": "長岡京市",
    "city_kana": "ナガオカキョウシ",
    "town": "滝ノ町",
    "town_kana": "タキノチョウ",
    "street": null,
    "office_name": null,
    "office_name_kana": null
  },
  "0818": {
    "postcode": "6170818",
    "prefecture": "京都府",
    "prefecture_kana": "キョウトフ",
    "prefecture_code": 26,
    "city": "長岡京市",
    "city_kana": "ナガオカキョウシ",
    "town": "柴の里",
    "town_kana": "シバノサト",
    "street": null,
    "office_name": null,
    "office_name_kana": null
  },
  "0821": {
    "postcode": "6170821",
    "prefecture": "京都府",
    "prefecture_kana": "キョウトフ",
    "prefecture_code": 26,
    "city": "長岡京市",
    "city_kana": "ナガオカキョウシ",
    "town": "野添",
    "town_kana": "ノゾエ",
    "street": null,
    "office_name": null,
    "office_name_kana": null
  },
  "0822": {
    "postcode": "6170822",
    "prefecture": "京都府",
    "prefecture_kana": "キョウトフ",
    "prefecture_code": 26,
    "city": "長岡京市",
    "city_kana": "ナガオカキョウシ",
    "town": "八条が丘",
    "town_kana": "ハチジョウガオカ",
    "street": null,
    "office_name": null,
    "office_name_kana": null
  },
  "0823": {
    "postcode": "6170823",
    "prefecture": "京都府",
    "prefecture_kana": "キョウトフ",
    "prefecture_code": 26,
    "city": "長岡京市",
    "city_kana": "ナガオカキョウシ",
    "town": "長岡",
    "town_kana": "ナガオカ",
    "street": null,
    "office_name": null,
    "office_name_kana": null
  },
  "0824": {
    "postcode": "6170824",
    "prefecture": "京都府",
    "prefecture_kana": "キョウトフ",
    "prefecture_code": 26,
    "city": "長岡京市",
    "city_kana": "ナガオカキョウシ",
    "town": "天神",
    "town_kana": "テンジン",
    "street": null,
    "office_name": null,
    "office_name_kana": null
  },
  "0825": {
    "postcode": "6170825",
    "prefecture": "京都府",
    "prefecture_kana": "キョウトフ",
    "prefecture_code": 26,
    "city": "長岡京市",
    "city_kana": "ナガオカキョウシ",
    "town": "一文橋",
    "town_kana": "イチモンバシ",
    "street": null,
    "office_name": null,
    "office_name_kana": null
  },
  "0826": {
    "postcode": "6170826",
    "prefecture": "京都府",
    "prefecture_kana": "キョウトフ",
    "prefecture_code": 26,
    "city": "長岡京市",
    "city_kana": "ナガオカキョウシ",
    "town": "開田",
    "town_kana": "カイデン",
    "street": null,
    "office_name": null,
    "office_name_kana": null
  },
  "0827": {
    "postcode": "6170827",
    "prefecture": "京都府",
    "prefecture_kana": "キョウトフ",
    "prefecture_code": 26,
    "city": "長岡京市",
    "city_kana": "ナガオカキョウシ",
    "town": "竹の台",
    "town_kana": "タケノダイ",
    "street": null,
    "office_name": null,
    "office_name_kana": null
  },
  "0828": {
    "postcode": "6170828",
    "prefecture": "京都府",
    "prefecture_kana": "キョウトフ",
    "prefecture_code": 26,
    "city": "長岡京市",
    "city_kana": "ナガオカキョウシ",
    "town": "馬場",
    "town_kana": "ババ",
    "street": null,
    "office_name": null,
    "office_name_kana": null
  },
  "0831": {
    "postcode": "6170831",
    "prefecture": "京都府",
    "prefecture_kana": "キョウトフ",
    "prefecture_code": 26,
    "city": "長岡京市",
    "city_kana": "ナガオカキョウシ",
    "town": "一里塚",
    "town_kana": "イチリヅカ",
    "street": null,
    "office_name": null,
    "office_name_kana": null
  },
  "0832": {
    "postcode": "6170832",
    "prefecture": "京都府",
    "prefecture_kana": "キョウトフ",
    "prefecture_code": 26,
    "city": "長岡京市",
    "city_kana": "ナガオカキョウシ",
    "town": "東神足",
    "town_kana": "ヒガシコウタリ",
    "street": null,
    "office_name": null,
    "office_name_kana": null
  },
  "0833": {
    "postcode": "6170833",
    "prefecture": "京都府",
    "prefecture_kana": "キョウトフ",
    "prefecture_code": 26,
    "city": "長岡京市",
    "city_kana": "ナガオカキョウシ",
    "town": "神足",
    "town_kana": "コウタリ",
    "street": null,
    "office_name": null,
    "office_name_kana": null
  },
  "0834": {
    "postcode": "6170834",
    "prefecture": "京都府",
    "prefecture_kana": "キョウトフ",
    "prefecture_code": 26,
    "city": "長岡京市",
    "city_kana": "ナガオカキョウシ",
    "town": "東和苑",
    "town_kana": "トウワエン",
    "street": null,
    "office_name": null,
    "office_name_kana": null
  },
  "0835": {
    "postcode": "6170835",
    "prefecture": "京都府",
    "prefecture_kana": "キョウトフ",
    "prefecture_code": 26,
    "city": "長岡京市",
    "city_kana": "ナガオカキョウシ",
    "town": "城の里",
    "town_kana": "シロノサト",
    "street": null,
    "office_name": null,
    "office_name_kana": null
  },
  "0836": {
    "postcode": "6170836",
    "prefecture": "京都府",
    "prefecture_kana": "キョウトフ",
    "prefecture_code": 26,
    "city": "長岡京市",
    "city_kana": "ナガオカキョウシ",
    "town": "勝竜寺",
    "town_kana": "ショウリュウジ",
    "street": null,
    "office_name": null,
    "office_name_kana": null
  },
  "0837": {
    "postcode": "6170837",
    "prefecture": "京都府",
    "prefecture_kana": "キョウトフ",
    "prefecture_code": 26,
    "city": "長岡京市",
    "city_kana": "ナガオカキョウシ",
    "town": "久貝",
    "town_kana": "クガイ",
    "street": null,
    "office_name": null,
    "office_name_kana": null
  },
  "0838": {
    "postcode": "6170838",
    "prefecture": "京都府",
    "prefecture_kana": "キョウトフ",
    "prefecture_code": 26,
    "city": "長岡京市",
    "city_kana": "ナガオカキョウシ",
    "town": "緑が丘",
    "town_kana": "ミドリガオカ",
    "street": null,
    "office_name": null,
    "office_name_kana": null
  },
  "0841": {
    "postcode": "6170841",
    "prefecture": "京都府",
    "prefecture_kana": "キョウトフ",
    "prefecture_code": 26,
    "city": "長岡京市",
    "city_kana": "ナガオカキョウシ",
    "town": "梅が丘",
    "town_kana": "ウメガオカ",
    "street": null,
    "office_name": null,
    "office_name_kana": null
  },
  "0842": {
    "postcode": "6170842",
    "prefecture": "京都府",
    "prefecture_kana": "キョウトフ",
    "prefecture_code": 26,
    "city": "長岡京市",
    "city_kana": "ナガオカキョウシ",
    "town": "花山",
    "town_kana": "ハナヤマ",
    "street": null,
    "office_name": null,
    "office_name_kana": null
  },
  "0843": {
    "postcode": "6170843",
    "prefecture": "京都府",
    "prefecture_kana": "キョウトフ",
    "prefecture_code": 26,
    "city": "長岡京市",
    "city_kana": "ナガオカキョウシ",
    "town": "友岡",
    "town_kana": "トモオカ",
    "street": null,
    "office_name": null,
    "office_name_kana": null
  },
  "0844": {
    "postcode": "6170844",
    "prefecture": "京都府",
    "prefecture_kana": "キョウトフ",
    "prefecture_code": 26,
    "city": "長岡京市",
    "city_kana": "ナガオカキョウシ",
    "town": "調子",
    "town_kana": "チョウシ",
    "street": null,
    "office_name": null,
    "office_name_kana": null
  },
  "0845": {
    "postcode": "6170845",
    "prefecture": "京都府",
    "prefecture_kana": "キョウトフ",
    "prefecture_code": 26,
    "city": "長岡京市",
    "city_kana": "ナガオカキョウシ",
    "town": "下海印寺",
    "town_kana": "シモカイインジ",
    "street": null,
    "office_name": null,
    "office_name_kana": null
  },
  "0846": {
    "postcode": "6170846",
    "prefecture": "京都府",
    "prefecture_kana": "キョウトフ",
    "prefecture_code": 26,
    "city": "長岡京市",
    "city_kana": "ナガオカキョウシ",
    "town": "泉が丘",
    "town_kana": "イズミガオカ",
    "street": null,
    "office_name": null,
    "office_name_kana": null
  },
  "0847": {
    "postcode": "6170847",
    "prefecture": "京都府",
    "prefecture_kana": "キョウトフ",
    "prefecture_code": 26,
    "city": "長岡京市",
    "city_kana": "ナガオカキョウシ",
    "town": "高台",
    "town_kana": "タカダイ",
    "street": null,
    "office_name": null,
    "office_name_kana": null
  },
  "0851": {
    "postcode": "6170851",
    "prefecture": "京都府",
    "prefecture_kana": "キョウトフ",
    "prefecture_code": 26,
    "city": "長岡京市",
    "city_kana": "ナガオカキョウシ",
    "town": "光風台",
    "town_kana": "コウフウダイ",
    "street": null,
    "office_name": null,
    "office_name_kana": null
  },
  "0852": {
    "postcode": "6170852",
    "prefecture": "京都府",
    "prefecture_kana": "キョウトフ",
    "prefecture_code": 26,
    "city": "長岡京市",
    "city_kana": "ナガオカキョウシ",
    "town": "河陽が丘",
    "town_kana": "カヨウガオカ",
    "street": null,
    "office_name": null,
    "office_name_kana": null
  },
  "0853": {
    "postcode": "6170853",
    "prefecture": "京都府",
    "prefecture_kana": "キョウトフ",
    "prefecture_code": 26,
    "city": "長岡京市",
    "city_kana": "ナガオカキョウシ",
    "town": "奥海印寺",
    "town_kana": "オクカイインジ",
    "street": null,
    "office_name": null,
    "office_name_kana": null
  },
  "0854": {
    "postcode": "6170854",
    "prefecture": "京都府",
    "prefecture_kana": "キョウトフ",
    "prefecture_code": 26,
    "city": "長岡京市",
    "city_kana": "ナガオカキョウシ",
    "town": "こがねが丘",
    "town_kana": "コガネガオカ",
    "street": null,
    "office_name": null,
    "office_name_kana": null
  },
  "0855": {
    "postcode": "6170855",
    "prefecture": "京都府",
    "prefecture_kana": "キョウトフ",
    "prefecture_code": 26,
    "city": "長岡京市",
    "city_kana": "ナガオカキョウシ",
    "town": "浄土谷",
    "town_kana": "ジョウドダニ",
    "street": null,
    "office_name": null,
    "office_name_kana": null
  },
  "0856": {
    "postcode": "6170856",
    "prefecture": "京都府",
    "prefecture_kana": "キョウトフ",
    "prefecture_code": 26,
    "city": "長岡京市",
    "city_kana": "ナガオカキョウシ",
    "town": "金ケ原",
    "town_kana": "カネガハラ",
    "street": null,
    "office_name": null,
    "office_name_kana": null
  },
  "0857": {
    "postcode": "6170857",
    "prefecture": "京都府",
    "prefecture_kana": "キョウトフ",
    "prefecture_code": 26,
    "city": "長岡京市",
    "city_kana": "ナガオカキョウシ",
    "town": "高台西",
    "town_kana": "タカダイニシ",
    "street": null,
    "office_name": null,
    "office_name_kana": null
  },
  "8501": {
    "postcode": "6178501",
    "prefecture": "京都府",
    "prefecture_kana": "キョウトフ",
    "prefecture_code": 26,
    "city": "長岡京市",
    "city_kana": "ナガオカキョウシ",
    "town": "開田",
    "town_kana": "カイデン",
    "street": "１丁目１番１号",
    "office_name": "長岡京市役所",
    "office_name_kana": "ナガオカキヨウシヤクシヨ"
  },
  "8511": {
    "postcode": "6178511",
    "prefecture": "京都府",
    "prefecture_kana": "キョウトフ",
    "prefecture_code": 26,
    "city": "長岡京市",
    "city_kana": "ナガオカキョウシ",
    "town": "神足",
    "town_kana": "コウタリ",
    "street": "上八ノ坪１２",
    "office_name": "（株）　工進",
    "office_name_kana": "カブ コウシン"
  },
  "8520": {
    "postcode": "6178520",
    "prefecture": "京都府",
    "prefecture_kana": "キョウトフ",
    "prefecture_code": 26,
    "city": "長岡京市",
    "city_kana": "ナガオカキョウシ",
    "town": "神足",
    "town_kana": "コウタリ",
    "street": "焼町１番地",
    "office_name": "ヌヴォトン　テクノロジージャパン　株式会社",
    "office_name_kana": "ヌヴオトン テクノロジ-ジヤパン カブシキガイシヤ"
  },
  "8530": {
    "postcode": "6178530",
    "prefecture": "京都府",
    "prefecture_kana": "キョウトフ",
    "prefecture_code": 26,
    "city": "長岡京市",
    "city_kana": "ナガオカキョウシ",
    "town": "調子",
    "town_kana": "チョウシ",
    "street": "３丁目１−１",
    "office_name": "サントリー　株式会社　桂ビール工場",
    "office_name_kana": "サントリ- カブシキガイシヤ カツラビ-ルコウジヨウ"
  },
  "8550": {
    "postcode": "6178550",
    "prefecture": "京都府",
    "prefecture_kana": "キョウトフ",
    "prefecture_code": 26,
    "city": "長岡京市",
    "city_kana": "ナガオカキョウシ",
    "town": "馬場",
    "town_kana": "ババ",
    "street": "図所１番地",
    "office_name": "三菱電機　株式会社　ＡＶ統括事業部",
    "office_name_kana": "ミツビシデンキ カブシキガイシヤ エ-ブイトウカツジギヨウブ"
  },
  "8551": {
    "postcode": "6178551",
    "prefecture": "京都府",
    "prefecture_kana": "キョウトフ",
    "prefecture_code": 26,
    "city": "向日市",
    "city_kana": "ムコウシ",
    "town": "鶏冠井町",
    "town_kana": "カイデチョウ",
    "street": "十相３３−１１",
    "office_name": "エイエムジー　株式会社",
    "office_name_kana": "エイエムジ- カブシキガイシヤ"
  },
  "8555": {
    "postcode": "6178555",
    "prefecture": "京都府",
    "prefecture_kana": "キョウトフ",
    "prefecture_code": 26,
    "city": "長岡京市",
    "city_kana": "ナガオカキョウシ",
    "town": "東神足",
    "town_kana": "ヒガシコウタリ",
    "street": "１丁目１０番１号",
    "office_name": "株式会社　村田製作所",
    "office_name_kana": "カブシキガイシヤ ムラタセイサクシヨ"
  },
  "8566": {
    "postcode": "6178566",
    "prefecture": "京都府",
    "prefecture_kana": "キョウトフ",
    "prefecture_code": 26,
    "city": "長岡京市",
    "city_kana": "ナガオカキョウシ",
    "town": "天神",
    "town_kana": "テンジン",
    "street": "２丁目２６番１０号",
    "office_name": "株式会社　村田製作所　長岡事業所",
    "office_name_kana": "カブシキガイシヤ ムラタセイサクシヨ ナガオカジギヨウシヨ"
  },
  "8577": {
    "postcode": "6178577",
    "prefecture": "京都府",
    "prefecture_kana": "キョウトフ",
    "prefecture_code": 26,
    "city": "長岡京市",
    "city_kana": "ナガオカキョウシ",
    "town": "調子",
    "town_kana": "チョウシ",
    "street": "１丁目１番１号",
    "office_name": "立命館中学校・高等学校",
    "office_name_kana": "リツメイカンチユウガツコウ・コウトウガツコウ"
  },
  "8585": {
    "postcode": "6178585",
    "prefecture": "京都府",
    "prefecture_kana": "キョウトフ",
    "prefecture_code": 26,
    "city": "長岡京市",
    "city_kana": "ナガオカキョウシ",
    "town": "東神足",
    "town_kana": "ヒガシコウタリ",
    "street": "２丁目１番１号",
    "office_name": "三菱ロジスネクスト　株式会社",
    "office_name_kana": "ミツビシロジスネクスト カブシキガイシヤ"
  },
  "8588": {
    "postcode": "6178588",
    "prefecture": "京都府",
    "prefecture_kana": "キョウトフ",
    "prefecture_code": 26,
    "city": "向日市",
    "city_kana": "ムコウシ",
    "town": "森本町",
    "town_kana": "モリモトチョウ",
    "street": "戌亥５番地の３",
    "office_name": "佐川印刷　株式会社",
    "office_name_kana": "サガワインサツ カブシキガイシヤ"
  },
  "8617": {
    "postcode": "6178617",
    "prefecture": "京都府",
    "prefecture_kana": "キョウトフ",
    "prefecture_code": 26,
    "city": "長岡京市",
    "city_kana": "ナガオカキョウシ",
    "town": "下海印寺",
    "town_kana": "シモカイインジ",
    "street": "下内田１０１番地",
    "office_name": "社会福祉法人　恩賜財団済生会　京都済生会病院",
    "office_name_kana": "シヤカイフクシホウジン オンシザイダンサイセイカイ キヨウトサイセイカイビヨウイン"
  },
  "8665": {
    "postcode": "6178665",
    "prefecture": "京都府",
    "prefecture_kana": "キョウトフ",
    "prefecture_code": 26,
    "city": "向日市",
    "city_kana": "ムコウシ",
    "town": "寺戸町",
    "town_kana": "テラドチョウ",
    "street": "中野２０（向日町郵便局私書箱第１号）",
    "office_name": "向日市役所",
    "office_name_kana": "ムコウシヤクシヨ"
  },
  "8666": {
    "postcode": "6178666",
    "prefecture": "京都府",
    "prefecture_kana": "キョウトフ",
    "prefecture_code": 26,
    "city": "長岡京市",
    "city_kana": "ナガオカキョウシ",
    "town": "開田",
    "town_kana": "カイデン",
    "street": "１丁目６番６号",
    "office_name": "三菱製紙　株式会社　京都工場",
    "office_name_kana": "ミツビシセイシ カブシキガイシヤ キヨウトコウジヨウ"
  },
  "8772": {
    "postcode": "6178772",
    "prefecture": "京都府",
    "prefecture_kana": "キョウトフ",
    "prefecture_code": 26,
    "city": "向日市",
    "city_kana": "ムコウシ",
    "town": "寺戸町",
    "town_kana": "テラドチョウ",
    "street": "小佃５番地の１",
    "office_name": "向日市役所　東向日別館",
    "office_name_kana": "ムコウシヤクシヨ ヒガシムコウベツカン"
  }
}