{
  "0000": {
    "postcode": "6210000",
    "prefecture": "京都府",
    "prefecture_kana": "キョウトフ",
    "prefecture_code": 26,
    "city": "亀岡市",
    "city_kana": "カメオカシ",
    "town": "",
    "town_kana": "",
    "street": null,
    "office_name": null,
    "office_name_kana": null
  },
  "0001": {
    "postcode": "6210001",
    "prefecture": "京都府",
    "prefecture_kana": "キョウトフ",
    "prefecture_code": 26,
    "city": "亀岡市",
    "city_kana": "カメオカシ",
    "town": "旭町",
    "town_kana": "アサヒチョウ",
    "street": null,
    "office_name": null,
    "office_name_kana": null
  },
  "0002": {
    "postcode": "6210002",
    "prefecture": "京都府",
    "prefecture_kana": "キョウトフ",
    "prefecture_code": 26,
    "city": "亀岡市",
    "city_kana": "カメオカシ",
    "town": "千歳町千歳",
    "town_kana": "チトセチョウチトセ",
    "street": null,
    "office_name": null,
    "office_name_kana": null
  },
  "0003": {
    "postcode": "6210003",
    "prefecture": "京都府",
    "prefecture_kana": "キョウトフ",
    "prefecture_code": 26,
    "city": "亀岡市",
    "city_kana": "カメオカシ",
    "town": "千歳町国分",
    "town_kana": "チトセチョウコクブ",
    "street": null,
    "office_name": null,
    "office_name_kana": null
  },
  "0004": {
    "postcode": "6210004",
    "prefecture": "京都府",
    "prefecture_kana": "キョウトフ",
    "prefecture_code": 26,
    "city": "亀岡市",
    "city_kana": "カメオカシ",
    "town": "千歳町毘沙門",
    "town_kana": "チトセチョウビシャモン",
    "street": null,
    "office_name": null,
    "office_name_kana": null
  },
  "0005": {
    "postcode": "6210005",
    "prefecture": "京都府",
    "prefecture_kana": "キョウトフ",
    "prefecture_code": 26,
    "city": "亀岡市",
    "city_kana": "カメオカシ",
    "town": "保津町",
    "town_kana": "ホヅチョウ",
    "street": null,
    "office_name": null,
    "office_name_kana": null
  },
  "0006": {
    "postcode": "6210006",
    "prefecture": "京都府",
    "prefecture_kana": "キョウトフ",
    "prefecture_code": 26,
    "city": "亀岡市",
    "city_kana": "カメオカシ",
    "town": "河原林町勝林島",
    "town_kana": "カワラバヤシチョウショウリンジマ",
    "street": null,
    "office_name": null,
    "office_name_kana": null
  },
  "0007": {
    "postcode": "6210007",
    "prefecture": "京都府",
    "prefecture_kana": "キョウトフ",
    "prefecture_code": 26,
    "city": "亀岡市",
    "city_kana": "カメオカシ",
    "town": "河原林町河原尻",
    "town_kana": "カワラバヤシチョウカワラジリ",
    "street": null,
    "office_name": null,
    "office_name_kana": null
  },
  "0008": {
    "postcode": "6210008",
    "prefecture": "京都府",
    "prefecture_kana": "キョウトフ",
    "prefecture_code": 26,
    "city": "亀岡市",
    "city_kana": "カメオカシ",
    "town": "馬路町",
    "town_kana": "ウマジチョウ",
    "street": null,
    "office_name": null,
    "office_name_kana": null
  },
  "0011": {
    "postcode": "6210011",
    "prefecture": "京都府",
    "prefecture_kana": "キョウトフ",
    "prefecture_code": 26,
    "city": "亀岡市",
    "city_kana": "カメオカシ",
    "town": "大井町土田",
    "town_kana": "オオイチョウツチダ",
    "street": null,
    "office_name": null,
    "office_name_kana": null
  },
  "0012": {
    "postcode": "6210012",
    "prefecture": "京都府",
    "prefecture_kana": "キョウトフ",
    "prefecture_code": 26,
    "city": "亀岡市",
    "city_kana": "カメオカシ",
    "town": "大井町かすみケ丘",
    "town_kana": "オオイチョウカスミガオカ",
    "street": null,
    "office_name": null,
    "office_name_kana": null
  },
  "0013": {
    "postcode": "6210013",
    "prefecture": "京都府",
    "prefecture_kana": "キョウトフ",
    "prefecture_code": 26,
    "city": "亀岡市",
    "city_kana": "カメオカシ",
    "town": "大井町並河",
    "town_kana": "オオイチョウナミカワ",
    "street": null,
    "office_name": null,
    "office_name_kana": null
  },
  "0014": {
    "postcode": "6210014",
    "prefecture": "京都府",
    "prefecture_kana": "キョウトフ",
    "prefecture_code": 26,
    "city": "亀岡市",
    "city_kana": "カメオカシ",
    "town": "吉川町穴川",
    "town_kana": "ヨシカワチョウアナガワ",
    "street": null,
    "office_name": null,
    "office_name_kana": null
  },
  "0015": {
    "postcode": "6210015",
    "prefecture": "京都府",
    "prefecture_kana": "キョウトフ",
    "prefecture_code": 26,
    "city": "亀岡市",
    "city_kana": "カメオカシ",
    "town": "吉川町吉田",
    "town_kana": "ヨシカワチョウヨシダ",
    "street": null,
    "office_name": null,
    "office_name_kana": null
  },
  "0016": {
    "postcode": "6210016",
    "prefecture": "京都府",
    "prefecture_kana": "キョウトフ",
    "prefecture_code": 26,
    "city": "亀岡市",
    "city_kana": "カメオカシ",
    "town": "大井町南金岐",
    "town_kana": "オオイチョウミナミカナゲ",
    "street": null,
    "office_name": null,
    "office_name_kana": null
  },
  "0017": {
    "postcode": "6210017",
    "prefecture": "京都府",
    "prefecture_kana": "キョウトフ",
    "prefecture_code": 26,
    "city": "亀岡市",
    "city_kana": "カメオカシ",
    "town": "大井町北金岐",
    "town_kana": "オオイチョウキタカナゲ",
    "street": null,
    "office_name": null,
    "office_name_kana": null
  },
  "0018": {
    "postcode": "6210018",
    "prefecture": "京都府",
    "prefecture_kana": "キョウトフ",
    "prefecture_code": 26,
    "city": "亀岡市",
    "city_kana": "カメオカシ",
    "town": "大井町小金岐",
    "town_kana": "オオイチョウコカナゲ",
    "street": null,
    "office_name": null,
    "office_name_kana": null
  },
  "0021": {
    "postcode": "6210021",
    "prefecture": "京都府",
    "prefecture_kana": "キョウトフ",
    "prefecture_code": 26,
    "city": "亀岡市",
    "city_kana": "カメオカシ",
    "town": "曽我部町重利",
    "town_kana": "ソガベチョウシゲトシ",
    "street": null,
    "office_name": null,
    "office_name_kana": null
  },
  "0022": {
    "postcode": "6210022",
    "prefecture": "京都府",
    "prefecture_kana": "キョウトフ",
    "prefecture_code": 26,
    "city": "亀岡市",
    "city_kana": "カメオカシ",
    "town": "曽我部町南条",
    "town_kana": "ソガベチョウナンジョウ",
    "street": null,
    "office_name": null,
    "office_name_kana": null
  },
  "0023": {
    "postcode": "6210023",
    "prefecture": "京都府",
    "prefecture_kana": "キョウトフ",
    "prefecture_code": 26,
    "city": "亀岡市",
    "city_kana": "カメオカシ",
    "town": "曽我部町寺",
    "town_kana": "ソガベチョウテラ",
    "street": null,
    "office_name": null,
    "office_name_kana": null
  },
  "0024": {
    "postcode": "6210024",
    "prefecture": "京都府",
    "prefecture_kana": "キョウトフ",
    "prefecture_code": 26,
    "city": "亀岡市",
    "city_kana": "カメオカシ",
    "town": "曽我部町春日部",
    "town_kana": "ソガベチョウカスカベ",
    "street": null,
    "office_name": null,
    "office_name_kana": null
  },
  "0025": {
    "postcode": "6210025",
    "prefecture": "京都府",
    "prefecture_kana": "キョウトフ",
    "prefecture_code": 26,
    "city": "亀岡市",
    "city_kana": "カメオカシ",
    "town": "曽我部町中",
    "town_kana": "ソガベチョウナカ",
    "street": null,
    "office_name": null,
    "office_name_kana": null
  },
  "0026": {
    "postcode": "6210026",
    "prefecture": "京都府",
    "prefecture_kana": "キョウトフ",
    "prefecture_code": 26,
    "city": "亀岡市",
    "city_kana": "カメオカシ",
    "town": "曽我部町法貴",
    "town_kana": "ソガベチョウホウキ",
    "street": null,
    "office_name": null,
    "office_name_kana": null
  },
  "0027": {
    "postcode": "6210027",
    "prefecture": "京都府",
    "prefecture_kana": "キョウトフ",
    "prefecture_code": 26,
    "city": "亀岡市",
    "city_kana": "カメオカシ",
    "town": "曽我部町犬飼",
    "town_kana": "ソガベチョウイヌカイ",
    "street": null,
    "office_name": null,
    "office_name_kana": null
  },
  "0028": {
    "postcode": "6210028",
    "prefecture": "京都府",
    "prefecture_kana": "キョウトフ",
    "prefecture_code": 26,
    "city": "亀岡市",
    "city_kana": "カメオカシ",
    "town": "曽我部町西条",
    "town_kana": "ソガベチョウニシジョウ",
    "street": null,
    "office_name": null,
    "office_name_kana": null
  },
  "0029": {
    "postcode": "6210029",
    "prefecture": "京都府",
    "prefecture_kana": "キョウトフ",
    "prefecture_code": 26,
    "city": "亀岡市",
    "city_kana": "カメオカシ",
    "town": "曽我部町穴太",
    "town_kana": "ソガベチョウアナオ",
    "street": null,
    "office_name": null,
    "office_name_kana": null
  },
  "0031": {
    "postcode": "6210031",
    "prefecture": "京都府",
    "prefecture_kana": "キョウトフ",
    "prefecture_code": 26,
    "city": "亀岡市",
    "city_kana": "カメオカシ",
    "town": "ひえ田野町太田",
    "town_kana": "ヒエダノチョウオオタ",
    "street": null,
    "office_name": null,
    "office_name_kana": null
  },
  "0032": {
    "postcode": "6210032",
    "prefecture": "京都府",
    "prefecture_kana": "キョウトフ",
    "prefecture_code": 26,
    "city": "亀岡市",
    "city_kana": "カメオカシ",
    "town": "ひえ田野町天川",
    "town_kana": "ヒエダノチョウテンガワ",
    "street": null,
    "office_name": null,
    "office_name_kana": null
  },
  "0033": {
    "postcode": "6210033",
    "prefecture": "京都府",
    "prefecture_kana": "キョウトフ",
    "prefecture_code": 26,
    "city": "亀岡市",
    "city_kana": "カメオカシ",
    "town": "ひえ田野町佐伯",
    "town_kana": "ヒエダノチョウサエキ",
    "street": null,
    "office_name": null,
    "office_name_kana": null
  },
  "0034": {
    "postcode": "6210034",
    "prefecture": "京都府",
    "prefecture_kana": "キョウトフ",
    "prefecture_code": 26,
    "city": "亀岡市",
    "city_kana": "カメオカシ",
    "town": "ひえ田野町芦ノ山",
    "town_kana": "ヒエダノチョウアシノヤマ",
    "street": null,
    "office_name": null,
    "office_name_kana": null
  },
  "0035": {
    "postcode": "6210035",
    "prefecture": "京都府",
    "prefecture_kana": "キョウトフ",
    "prefecture_code": 26,
    "city": "亀岡市",
    "city_kana": "カメオカシ",
    "town": "ひえ田野町奥条",
    "town_kana": "ヒエダノチョウオクジョウ",
    "street": null,
    "office_name": null,
    "office_name_kana": null
  },
  "0036": {
    "postcode": "6210036",
    "prefecture": "京都府",
    "prefecture_kana": "キョウトフ",
    "prefecture_code": 26,
    "city": "亀岡市",
    "city_kana": "カメオカシ",
    "town": "ひえ田野町柿花",
    "town_kana": "ヒエダノチョウカキハナ",
    "street": null,
    "office_name": null,
    "office_name_kana": null
  },
  "0037": {
    "postcode": "6210037",
    "prefecture": "京都府",
    "prefecture_kana": "キョウトフ",
    "prefecture_code": 26,
    "city": "亀岡市",
    "city_kana": "カメオカシ",
    "town": "ひえ田野町鹿谷",
    "town_kana": "ヒエダノチョウロクヤ",
    "street": null,
    "office_name": null,
    "office_name_kana": null
  },
  "0041": {
    "postcode": "6210041",
    "prefecture": "京都府",
    "prefecture_kana": "キョウトフ",
    "prefecture_code": 26,
    "city": "亀岡市",
    "city_kana": "カメオカシ",
    "town": "千代川町小川",
    "town_kana": "チヨカワチョウオガワ",
    "street": null,
    "office_name": null,
    "office_name_kana": null
  },
  "0042": {
    "postcode": "6210042",
    "prefecture": "京都府",
    "prefecture_kana": "キョウトフ",
    "prefecture_code": 26,
    "city": "亀岡市",
    "city_kana": "カメオカシ",
    "town": "千代川町高野林",
    "town_kana": "チヨカワチョウタカノハヤシ",
    "street": null,
    "office_name": null,
    "office_name_kana": null
  },
  "0043": {
    "postcode": "6210043",
    "prefecture": "京都府",
    "prefecture_kana": "キョウトフ",
    "prefecture_code": 26,
    "city": "亀岡市",
    "city_kana": "カメオカシ",
    "town": "千代川町小林",
    "town_kana": "チヨカワチョウオバヤシ",
    "street": null,
    "office_name": null,
    "office_name_kana": null
  },
  "0044": {
    "postcode": "6210044",
    "prefecture": "京都府",
    "prefecture_kana": "キョウトフ",
    "prefecture_code": 26,
    "city": "亀岡市",
    "city_kana": "カメオカシ",
    "town": "千代川町日吉台",
    "town_kana": "チヨカワチョウヒヨシダイ",
    "street": null,
    "office_name": null,
    "office_name_kana": null
  },
  "0045": {
    "postcode": "6210045",
    "prefecture": "京都府",
    "prefecture_kana": "キョウトフ",
    "prefecture_code": 26,
    "city": "亀岡市",
    "city_kana": "カメオカシ",
    "town": "千代川町湯井",
    "town_kana": "チヨカワチョウユイ",
    "street": null,
    "office_name": null,
    "office_name_kana": null
  },
  "0046": {
    "postcode": "6210046",
    "prefecture": "京都府",
    "prefecture_kana": "キョウトフ",
    "prefecture_code": 26,
    "city": "亀岡市",
    "city_kana": "カメオカシ",
    "town": "千代川町北ノ庄",
    "town_kana": "チヨカワチョウキタノショウ",
    "street": null,
    "office_name": null,
    "office_name_kana": null
  },
  "0047": {
    "postcode": "6210047",
    "prefecture": "京都府",
    "prefecture_kana": "キョウトフ",
    "prefecture_code": 26,
    "city": "亀岡市",
    "city_kana": "カメオカシ",
    "town": "千代川町明晴",
    "town_kana": "チヨカワチョウアスハレ",
    "street": null,
    "office_name": null,
    "office_name_kana": null
  },
  "0051": {
    "postcode": "6210051",
    "prefecture": "京都府",
    "prefecture_kana": "キョウトフ",
    "prefecture_code": 26,
    "city": "亀岡市",
    "city_kana": "カメオカシ",
    "town": "千代川町今津",
    "town_kana": "チヨカワチョウイマヅ",
    "street": null,
    "office_name": null,
    "office_name_kana": null
  },
  "0052": {
    "postcode": "6210052",
    "prefecture": "京都府",
    "prefecture_kana": "キョウトフ",
    "prefecture_code": 26,
    "city": "亀岡市",
    "city_kana": "カメオカシ",
    "town": "千代川町千原",
    "town_kana": "チヨカワチョウチハラ",
    "street": null,
    "office_name": null,
    "office_name_kana": null
  },
  "0053": {
    "postcode": "6210053",
    "prefecture": "京都府",
    "prefecture_kana": "キョウトフ",
    "prefecture_code": 26,
    "city": "亀岡市",
    "city_kana": "カメオカシ",
    "town": "千代川町拝田",
    "town_kana": "チヨカワチョウハイダ",
    "street": null,
    "office_name": null,
    "office_name_kana": null
  },
  "0054": {
    "postcode": "6210054",
    "prefecture": "京都府",
    "prefecture_kana": "キョウトフ",
    "prefecture_code": 26,
    "city": "亀岡市",
    "city_kana": "カメオカシ",
    "town": "千代川町川関",
    "town_kana": "チヨカワチョウカワゼキ",
    "street": null,
    "office_name": null,
    "office_name_kana": null
  },
  "0101": {
    "postcode": "6210101",
    "prefecture": "京都府",
    "prefecture_kana": "キョウトフ",
    "prefecture_code": 26,
    "city": "亀岡市",
    "city_kana": "カメオカシ",
    "town": "東別院町小泉",
    "town_kana": "ヒガシベツインチョウコイズミ",
    "street": null,
    "office_name": null,
    "office_name_kana": null
  },
  "0102": {
    "postcode": "6210102",
    "prefecture": "京都府",
    "prefecture_kana": "キョウトフ",
    "prefecture_code": 26,
    "city": "亀岡市",
    "city_kana": "カメオカシ",
    "town": "東別院町神原",
    "town_kana": "ヒガシベツインチョウカミハラ",
    "street": null,
    "office_name": null,
    "office_name_kana": null
  },
  "0103": {
    "postcode": "6210103",
    "prefecture": "京都府",
    "prefecture_kana": "キョウトフ",
    "prefecture_code": 26,
    "city": "亀岡市",
    "city_kana": "カメオカシ",
    "town": "東別院町東掛",
    "town_kana": "ヒガシベツインチョウトウゲ",
    "street": null,
    "office_name": null,
    "office_name_kana": null
  },
  "0104": {
    "postcode": "6210104",
    "prefecture": "京都府",
    "prefecture_kana": "キョウトフ",
    "prefecture_code": 26,
    "city": "亀岡市",
    "city_kana": "カメオカシ",
    "town": "東別院町大野",
    "town_kana": "ヒガシベツインチョウオオノ",
    "street": null,
    "office_name": null,
    "office_name_kana": null
  },
  "0111": {
    "postcode": "6210111",
    "prefecture": "京都府",
    "prefecture_kana": "キョウトフ",
    "prefecture_code": 26,
    "city": "亀岡市",
    "city_kana": "カメオカシ",
    "town": "東別院町南掛",
    "town_kana": "ヒガシベツインチョウナンゲ",
    "street": null,
    "office_name": null,
    "office_name_kana": null
  },
  "0112": {
    "postcode": "6210112",
    "prefecture": "京都府",
    "prefecture_kana": "キョウトフ",
    "prefecture_code": 26,
    "city": "亀岡市",
    "city_kana": "カメオカシ",
    "town": "東別院町湯谷",
    "town_kana": "ヒガシベツインチョウユヤ",
    "street": null,
    "office_name": null,
    "office_name_kana": null
  },
  "0113": {
    "postcode": "6210113",
    "prefecture": "京都府",
    "prefecture_kana": "キョウトフ",
    "prefecture_code": 26,
    "city": "亀岡市",
    "city_kana": "カメオカシ",
    "town": "東別院町倉谷",
    "town_kana": "ヒガシベツインチョウクラダニ",
    "street": null,
    "office_name": null,
    "office_name_kana": null
  },
  "0114": {
    "postcode": "6210114",
    "prefecture": "京都府",
    "prefecture_kana": "キョウトフ",
    "prefecture_code": 26,
    "city": "亀岡市",
    "city_kana": "カメオカシ",
    "town": "東別院町鎌倉",
    "town_kana": "ヒガシベツインチョウカマクラ",
    "street": null,
    "office_name": null,
    "office_name_kana": null
  },
  "0115": {
    "postcode": "6210115",
    "prefecture": "京都府",
    "prefecture_kana": "キョウトフ",
    "prefecture_code": 26,
    "city": "亀岡市",
    "city_kana": "カメオカシ",
    "town": "東別院町栢原",
    "town_kana": "ヒガシベツインチョウカイバラ",
    "street": null,
    "office_name": null,
    "office_name_kana": null
  },
  "0121": {
    "postcode": "6210121",
    "prefecture": "京都府",
    "prefecture_kana": "キョウトフ",
    "prefecture_code": 26,
    "city": "亀岡市",
    "city_kana": "カメオカシ",
    "town": "西別院町大槻並",
    "town_kana": "ニシベツインチョウオオツクナミ",
    "street": null,
    "office_name": null,
    "office_name_kana": null
  },
  "0122": {
    "postcode": "6210122",
    "prefecture": "京都府",
    "prefecture_kana": "キョウトフ",
    "prefecture_code": 26,
    "city": "亀岡市",
    "city_kana": "カメオカシ",
    "town": "西別院町万願寺",
    "town_kana": "ニシベツインチョウマンガンジ",
    "street": null,
    "office_name": null,
    "office_name_kana": null
  },
  "0123": {
    "postcode": "6210123",
    "prefecture": "京都府",
    "prefecture_kana": "キョウトフ",
    "prefecture_code": 26,
    "city": "亀岡市",
    "city_kana": "カメオカシ",
    "town": "西別院町寺田",
    "town_kana": "ニシベツインチョウテラダ",
    "street": null,
    "office_name": null,
    "office_name_kana": null
  },
  "0124": {
    "postcode": "6210124",
    "prefecture": "京都府",
    "prefecture_kana": "キョウトフ",
    "prefecture_code": 26,
    "city": "亀岡市",
    "city_kana": "カメオカシ",
    "town": "西別院町柚原",
    "town_kana": "ニシベツインチョウユノハラ",
    "street": null,
    "office_name": null,
    "office_name_kana": null
  },
  "0125": {
    "postcode": "6210125",
    "prefecture": "京都府",
    "prefecture_kana": "キョウトフ",
    "prefecture_code": 26,
    "city": "亀岡市",
    "city_kana": "カメオカシ",
    "town": "西別院町笑路",
    "town_kana": "ニシベツインチョウワロウジ",
    "street": null,
    "office_name": null,
    "office_name_kana": null
  },
  "0126": {
    "postcode": "6210126",
    "prefecture": "京都府",
    "prefecture_kana": "キョウトフ",
    "prefecture_code": 26,
    "city": "亀岡市",
    "city_kana": "カメオカシ",
    "town": "西別院町犬甘野",
    "town_kana": "ニシベツインチョウイヌカンノ",
    "street": null,
    "office_name": null,
    "office_name_kana": null
  },
  "0127": {
    "postcode": "6210127",
    "prefecture": "京都府",
    "prefecture_kana": "キョウトフ",
    "prefecture_code": 26,
    "city": "亀岡市",
    "city_kana": "カメオカシ",
    "town": "西別院町神地",
    "town_kana": "ニシベツインチョウコウジ",
    "street": null,
    "office_name": null,
    "office_name_kana": null
  },
  "0231": {
    "postcode": "6210231",
    "prefecture": "京都府",
    "prefecture_kana": "キョウトフ",
    "prefecture_code": 26,
    "city": "亀岡市",
    "city_kana": "カメオカシ",
    "town": "東本梅町大内",
    "town_kana": "ヒガシホンメチョウオオウチ",
    "street": null,
    "office_name": null,
    "office_name_kana": null
  },
  "0232": {
    "postcode": "6210232",
    "prefecture": "京都府",
    "prefecture_kana": "キョウトフ",
    "prefecture_code": 26,
    "city": "亀岡市",
    "city_kana": "カメオカシ",
    "town": "東本梅町松熊",
    "town_kana": "ヒガシホンメチョウマツクマ",
    "street": null,
    "office_name": null,
    "office_name_kana": null
  },
  "0233": {
    "postcode": "6210233",
    "prefecture": "京都府",
    "prefecture_kana": "キョウトフ",
    "prefecture_code": 26,
    "city": "亀岡市",
    "city_kana": "カメオカシ",
    "town": "東本梅町中野",
    "town_kana": "ヒガシホンメチョウナカノ",
    "street": null,
    "office_name": null,
    "office_name_kana": null
  },
  "0234": {
    "postcode": "6210234",
    "prefecture": "京都府",
    "prefecture_kana": "キョウトフ",
    "prefecture_code": 26,
    "city": "亀岡市",
    "city_kana": "カメオカシ",
    "town": "東本梅町赤熊",
    "town_kana": "ヒガシホンメチョウアカクマ",
    "street": null,
    "office_name": null,
    "office_name_kana": null
  },
  "0235": {
    "postcode": "6210235",
    "prefecture": "京都府",
    "prefecture_kana": "キョウトフ",
    "prefecture_code": 26,
    "city": "亀岡市",
    "city_kana": "カメオカシ",
    "town": "東本梅町東大谷",
    "town_kana": "ヒガシホンメチョウヒガシオオタニ",
    "street": null,
    "office_name": null,
    "office_name_kana": null
  },
  "0241": {
    "postcode": "6210241",
    "prefecture": "京都府",
    "prefecture_kana": "キョウトフ",
    "prefecture_code": 26,
    "city": "亀岡市",
    "city_kana": "カメオカシ",
    "town": "宮前町猪倉",
    "town_kana": "ミヤザキチョウイノクラ",
    "street": null,
    "office_name": null,
    "office_name_kana": null
  },
  "0242": {
    "postcode": "6210242",
    "prefecture": "京都府",
    "prefecture_kana": "キョウトフ",
    "prefecture_code": 26,
    "city": "亀岡市",
    "city_kana": "カメオカシ",
    "town": "宮前町神前",
    "town_kana": "ミヤザキチョウコウザキ",
    "street": null,
    "office_name": null,
    "office_name_kana": null
  },
  "0243": {
    "postcode": "6210243",
    "prefecture": "京都府",
    "prefecture_kana": "キョウトフ",
    "prefecture_code": 26,
    "city": "亀岡市",
    "city_kana": "カメオカシ",
    "town": "宮前町宮川",
    "town_kana": "ミヤザキチョウミヤガワ",
    "street": null,
    "office_name": null,
    "office_name_kana": null
  },
  "0251": {
    "postcode": "6210251",
    "prefecture": "京都府",
    "prefecture_kana": "キョウトフ",
    "prefecture_code": 26,
    "city": "亀岡市",
    "city_kana": "カメオカシ",
    "town": "本梅町平松",
    "town_kana": "ホンメチョウヒラマツ",
    "street": null,
    "office_name": null,
    "office_name_kana": null
  },
  "0252": {
    "postcode": "6210252",
    "prefecture": "京都府",
    "prefecture_kana": "キョウトフ",
    "prefecture_code": 26,
    "city": "亀岡市",
    "city_kana": "カメオカシ",
    "town": "本梅町中野",
    "town_kana": "ホンメチョウナカノ",
    "street": null,
    "office_name": null,
    "office_name_kana": null
  },
  "0253": {
    "postcode": "6210253",
    "prefecture": "京都府",
    "prefecture_kana": "キョウトフ",
    "prefecture_code": 26,
    "city": "亀岡市",
    "city_kana": "カメオカシ",
    "town": "本梅町井手",
    "town_kana": "ホンメチョウイデ",
    "street": null,
    "office_name": null,
    "office_name_kana": null
  },
  "0254": {
    "postcode": "6210254",
    "prefecture": "京都府",
    "prefecture_kana": "キョウトフ",
    "prefecture_code": 26,
    "city": "亀岡市",
    "city_kana": "カメオカシ",
    "town": "本梅町東加舎",
    "town_kana": "ホンメチョウヒガシカヤ",
    "street": null,
    "office_name": null,
    "office_name_kana": null
  },
  "0255": {
    "postcode": "6210255",
    "prefecture": "京都府",
    "prefecture_kana": "キョウトフ",
    "prefecture_code": 26,
    "city": "亀岡市",
    "city_kana": "カメオカシ",
    "town": "本梅町西加舎",
    "town_kana": "ホンメチョウニシカヤ",
    "street": null,
    "office_name": null,
    "office_name_kana": null
  },
  "0261": {
    "postcode": "6210261",
    "prefecture": "京都府",
    "prefecture_kana": "キョウトフ",
    "prefecture_code": 26,
    "city": "亀岡市",
    "city_kana": "カメオカシ",
    "town": "畑野町千ケ畑",
    "town_kana": "ハタノチョウセンガハタ",
    "street": null,
    "office_name": null,
    "office_name_kana": null
  },
  "0262": {
    "postcode": "6210262",
    "prefecture": "京都府",
    "prefecture_kana": "キョウトフ",
    "prefecture_code": 26,
    "city": "亀岡市",
    "city_kana": "カメオカシ",
    "town": "畑野町広野",
    "town_kana": "ハタノチョウヒロノ",
    "street": null,
    "office_name": null,
    "office_name_kana": null
  },
  "0263": {
    "postcode": "6210263",
    "prefecture": "京都府",
    "prefecture_kana": "キョウトフ",
    "prefecture_code": 26,
    "city": "亀岡市",
    "city_kana": "カメオカシ",
    "town": "畑野町土ケ畑",
    "town_kana": "ハタノチョウドンガハタ",
    "street": null,
    "office_name": null,
    "office_name_kana": null
  },
  "0801": {
    "postcode": "6210801",
    "prefecture": "京都府",
    "prefecture_kana": "キョウトフ",
    "prefecture_code": 26,
    "city": "亀岡市",
    "city_kana": "カメオカシ",
    "town": "宇津根町",
    "town_kana": "ウツネチョウ",
    "street": null,
    "office_name": null,
    "office_name_kana": null
  },
  "0802": {
    "postcode": "6210802",
    "prefecture": "京都府",
    "prefecture_kana": "キョウトフ",
    "prefecture_code": 26,
    "city": "亀岡市",
    "city_kana": "カメオカシ",
    "town": "北河原町",
    "town_kana": "キタカワラマチ",
    "street": null,
    "office_name": null,
    "office_name_kana": null
  },
  "0803": {
    "postcode": "6210803",
    "prefecture": "京都府",
    "prefecture_kana": "キョウトフ",
    "prefecture_code": 26,
    "city": "亀岡市",
    "city_kana": "カメオカシ",
    "town": "河原町",
    "town_kana": "カワラマチ",
    "street": null,
    "office_name": null,
    "office_name_kana": null
  },
  "0804": {
    "postcode": "6210804",
    "prefecture": "京都府",
    "prefecture_kana": "キョウトフ",
    "prefecture_code": 26,
    "city": "亀岡市",
    "city_kana": "カメオカシ",
    "town": "追分町",
    "town_kana": "オイワケチョウ",
    "street": null,
    "office_name": null,
    "office_name_kana": null
  },
  "0805": {
    "postcode": "6210805",
    "prefecture": "京都府",
    "prefecture_kana": "キョウトフ",
    "prefecture_code": 26,
    "city": "亀岡市",
    "city_kana": "カメオカシ",
    "town": "安町",
    "town_kana": "ヤスマチ",
    "street": null,
    "office_name": null,
    "office_name_kana": null
  },
  "0806": {
    "postcode": "6210806",
    "prefecture": "京都府",
    "prefecture_kana": "キョウトフ",
    "prefecture_code": 26,
    "city": "亀岡市",
    "city_kana": "カメオカシ",
    "town": "余部町",
    "town_kana": "アマルベチョウ",
    "street": null,
    "office_name": null,
    "office_name_kana": null
  },
  "0807": {
    "postcode": "6210807",
    "prefecture": "京都府",
    "prefecture_kana": "キョウトフ",
    "prefecture_code": 26,
    "city": "亀岡市",
    "city_kana": "カメオカシ",
    "town": "亀岡駅北",
    "town_kana": "カメオカエキキタ",
    "street": null,
    "office_name": null,
    "office_name_kana": null
  },
  "0811": {
    "postcode": "6210811",
    "prefecture": "京都府",
    "prefecture_kana": "キョウトフ",
    "prefecture_code": 26,
    "city": "亀岡市",
    "city_kana": "カメオカシ",
    "town": "北古世町",
    "town_kana": "キタコセチョウ",
    "street": null,
    "office_name": null,
    "office_name_kana": null
  },
  "0812": {
    "postcode": "6210812",
    "prefecture": "京都府",
    "prefecture_kana": "キョウトフ",
    "prefecture_code": 26,
    "city": "亀岡市",
    "city_kana": "カメオカシ",
    "town": "横町",
    "town_kana": "ヨコチョウ",
    "street": null,
    "office_name": null,
    "office_name_kana": null
  },
  "0813": {
    "postcode": "6210813",
    "prefecture": "京都府",
    "prefecture_kana": "キョウトフ",
    "prefecture_code": 26,
    "city": "亀岡市",
    "city_kana": "カメオカシ",
    "town": "突抜町",
    "town_kana": "ツキヌケチョウ",
    "street": null,
    "office_name": null,
    "office_name_kana": null
  },
  "0814": {
    "postcode": "6210814",
    "prefecture": "京都府",
    "prefecture_kana": "キョウトフ",
    "prefecture_code": 26,
    "city": "亀岡市",
    "city_kana": "カメオカシ",
    "town": "三宅町",
    "town_kana": "ミヤケチョウ",
    "street": null,
    "office_name": null,
    "office_name_kana": null
  },
  "0815": {
    "postcode": "6210815",
    "prefecture": "京都府",
    "prefecture_kana": "キョウトフ",
    "prefecture_code": 26,
    "city": "亀岡市",
    "city_kana": "カメオカシ",
    "town": "古世町",
    "town_kana": "コセチョウ",
    "street": null,
    "office_name": null,
    "office_name_kana": null
  },
  "0816": {
    "postcode": "6210816",
    "prefecture": "京都府",
    "prefecture_kana": "キョウトフ",
    "prefecture_code": 26,
    "city": "亀岡市",
    "city_kana": "カメオカシ",
    "town": "東竪町",
    "town_kana": "ヒガシタツチョウ",
    "street": null,
    "office_name": null,
    "office_name_kana": null
  },
  "0817": {
    "postcode": "6210817",
    "prefecture": "京都府",
    "prefecture_kana": "キョウトフ",
    "prefecture_code": 26,
    "city": "亀岡市",
    "city_kana": "カメオカシ",
    "town": "西竪町",
    "town_kana": "ニシタツチョウ",
    "street": null,
    "office_name": null,
    "office_name_kana": null
  },
  "0818": {
    "postcode": "6210818",
    "prefecture": "京都府",
    "prefecture_kana": "キョウトフ",
    "prefecture_code": 26,
    "city": "亀岡市",
    "city_kana": "カメオカシ",
    "town": "京町",
    "town_kana": "キョウマチ",
    "street": null,
    "office_name": null,
    "office_name_kana": null
  },
  "0819": {
    "postcode": "6210819",
    "prefecture": "京都府",
    "prefecture_kana": "キョウトフ",
    "prefecture_code": 26,
    "city": "亀岡市",
    "city_kana": "カメオカシ",
    "town": "呉服町",
    "town_kana": "ゴフクマチ",
    "street": null,
    "office_name": null,
    "office_name_kana": null
  },
  "0821": {
    "postcode": "6210821",
    "prefecture": "京都府",
    "prefecture_kana": "キョウトフ",
    "prefecture_code": 26,
    "city": "亀岡市",
    "city_kana": "カメオカシ",
    "town": "篠町柏原",
    "town_kana": "シノチョウカセバラ",
    "street": null,
    "office_name": null,
    "office_name_kana": null
  },
  "0822": {
    "postcode": "6210822",
    "prefecture": "京都府",
    "prefecture_kana": "キョウトフ",
    "prefecture_code": 26,
    "city": "亀岡市",
    "city_kana": "カメオカシ",
    "town": "篠町野条",
    "town_kana": "シノチョウノジョウ",
    "street": null,
    "office_name": null,
    "office_name_kana": null
  },
  "0823": {
    "postcode": "6210823",
    "prefecture": "京都府",
    "prefecture_kana": "キョウトフ",
    "prefecture_code": 26,
    "city": "亀岡市",
    "city_kana": "カメオカシ",
    "town": "篠町馬堀",
    "town_kana": "シノチョウウマホリ",
    "street": null,
    "office_name": null,
    "office_name_kana": null
  },
  "0824": {
    "postcode": "6210824",
    "prefecture": "京都府",
    "prefecture_kana": "キョウトフ",
    "prefecture_code": 26,
    "city": "亀岡市",
    "city_kana": "カメオカシ",
    "town": "篠町見晴",
    "town_kana": "シノチョウミハル",
    "street": null,
    "office_name": null,
    "office_name_kana": null
  },
  "0825": {
    "postcode": "6210825",
    "prefecture": "京都府",
    "prefecture_kana": "キョウトフ",
    "prefecture_code": 26,
    "city": "亀岡市",
    "city_kana": "カメオカシ",
    "town": "篠町山本",
    "town_kana": "シノチョウヤマモト",
    "street": null,
    "office_name": null,
    "office_name_kana": null
  },
  "0826": {
    "postcode": "6210826",
    "prefecture": "京都府",
    "prefecture_kana": "キョウトフ",
    "prefecture_code": 26,
    "city": "亀岡市",
    "city_kana": "カメオカシ",
    "town": "篠町篠",
    "town_kana": "シノチョウシノ",
    "street": null,
    "office_name": null,
    "office_name_kana": null
  },
  "0827": {
    "postcode": "6210827",
    "prefecture": "京都府",
    "prefecture_kana": "キョウトフ",
    "prefecture_code": 26,
    "city": "亀岡市",
    "city_kana": "カメオカシ",
    "town": "篠町王子",
    "town_kana": "シノチョウオウジ",
    "street": null,
    "office_name": null,
    "office_name_kana": null
  },
  "0828": {
    "postcode": "6210828",
    "prefecture": "京都府",
    "prefecture_kana": "キョウトフ",
    "prefecture_code": 26,
    "city": "亀岡市",
    "city_kana": "カメオカシ",
    "town": "篠町馬堀駅前",
    "town_kana": "シノチョウウマホリエキマエ",
    "street": null,
    "office_name": null,
    "office_name_kana": null
  },
  "0829": {
    "postcode": "6210829",
    "prefecture": "京都府",
    "prefecture_kana": "キョウトフ",
    "prefecture_code": 26,
    "city": "亀岡市",
    "city_kana": "カメオカシ",
    "town": "篠町夕日ケ丘",
    "town_kana": "シノチョウユウヒガオカ",
    "street": null,
    "office_name": null,
    "office_name_kana": null
  },
  "0831": {
    "postcode": "6210831",
    "prefecture": "京都府",
    "prefecture_kana": "キョウトフ",
    "prefecture_code": 26,
    "city": "亀岡市",
    "city_kana": "カメオカシ",
    "town": "篠町森",
    "town_kana": "シノチョウモリ",
    "street": null,
    "office_name": null,
    "office_name_kana": null
  },
  "0832": {
    "postcode": "6210832",
    "prefecture": "京都府",
    "prefecture_kana": "キョウトフ",
    "prefecture_code": 26,
    "city": "亀岡市",
    "city_kana": "カメオカシ",
    "town": "東つつじケ丘都台",
    "town_kana": "ヒガシツツジガオカミヤコダイ",
    "street": null,
    "office_name": null,
    "office_name_kana": null
  },
  "0833": {
    "postcode": "6210833",
    "prefecture": "京都府",
    "prefecture_kana": "キョウトフ",
    "prefecture_code": 26,
    "city": "亀岡市",
    "city_kana": "カメオカシ",
    "town": "東つつじケ丘曙台",
    "town_kana": "ヒガシツツジガオカアケボノダイ",
    "street": null,
    "office_name": null,
    "office_name_kana": null
  },
  "0834": {
    "postcode": "6210834",
    "prefecture": "京都府",
    "prefecture_kana": "キョウトフ",
    "prefecture_code": 26,
    "city": "亀岡市",
    "city_kana": "カメオカシ",
    "town": "篠町広田",
    "town_kana": "シノチョウヒロタ",
    "street": null,
    "office_name": null,
    "office_name_kana": null
  },
  "0835": {
    "postcode": "6210835",
    "prefecture": "京都府",
    "prefecture_kana": "キョウトフ",
    "prefecture_code": 26,
    "city": "亀岡市",
    "city_kana": "カメオカシ",
    "town": "篠町浄法寺",
    "town_kana": "シノチョウジョウボウジ",
    "street": null,
    "office_name": null,
    "office_name_kana": null
  },
  "0841": {
    "postcode": "6210841",
    "prefecture": "京都府",
    "prefecture_kana": "キョウトフ",
    "prefecture_code": 26,
    "city": "亀岡市",
    "city_kana": "カメオカシ",
    "town": "西つつじケ丘五月台",
    "town_kana": "ニシツツジガオカサツキダイ",
    "street": null,
    "office_name": null,
    "office_name_kana": null
  },
  "0842": {
    "postcode": "6210842",
    "prefecture": "京都府",
    "prefecture_kana": "キョウトフ",
    "prefecture_code": 26,
    "city": "亀岡市",
    "city_kana": "カメオカシ",
    "town": "西つつじケ丘雲仙台",
    "town_kana": "ニシツツジガオカウンゼンダイ",
    "street": null,
    "office_name": null,
    "office_name_kana": null
  },
  "0843": {
    "postcode": "6210843",
    "prefecture": "京都府",
    "prefecture_kana": "キョウトフ",
    "prefecture_code": 26,
    "city": "亀岡市",
    "city_kana": "カメオカシ",
    "town": "西つつじケ丘大山台",
    "town_kana": "ニシツツジガオカダイセンダイ",
    "street": null,
    "office_name": null,
    "office_name_kana": null
  },
  "0844": {
    "postcode": "6210844",
    "prefecture": "京都府",
    "prefecture_kana": "キョウトフ",
    "prefecture_code": 26,
    "city": "亀岡市",
    "city_kana": "カメオカシ",
    "town": "西つつじケ丘霧島台",
    "town_kana": "ニシツツジガオカキリシマダイ",
    "street": null,
    "office_name": null,
    "office_name_kana": null
  },
  "0845": {
    "postcode": "6210845",
    "prefecture": "京都府",
    "prefecture_kana": "キョウトフ",
    "prefecture_code": 26,
    "city": "亀岡市",
    "city_kana": "カメオカシ",
    "town": "西つつじケ丘美山台",
    "town_kana": "ニシツツジガオカミヤマダイ",
    "street": null,
    "office_name": null,
    "office_name_kana": null
  },
  "0846": {
    "postcode": "6210846",
    "prefecture": "京都府",
    "prefecture_kana": "キョウトフ",
    "prefecture_code": 26,
    "city": "亀岡市",
    "city_kana": "カメオカシ",
    "town": "南つつじケ丘大葉台",
    "town_kana": "ミナミツツジガオカオオバダイ",
    "street": null,
    "office_name": null,
    "office_name_kana": null
  },
  "0847": {
    "postcode": "6210847",
    "prefecture": "京都府",
    "prefecture_kana": "キョウトフ",
    "prefecture_code": 26,
    "city": "亀岡市",
    "city_kana": "カメオカシ",
    "town": "南つつじケ丘桜台",
    "town_kana": "ミナミツツジガオカサクラダイ",
    "street": null,
    "office_name": null,
    "office_name_kana": null
  },
  "0851": {
    "postcode": "6210851",
    "prefecture": "京都府",
    "prefecture_kana": "キョウトフ",
    "prefecture_code": 26,
    "city": "亀岡市",
    "city_kana": "カメオカシ",
    "town": "荒塚町",
    "town_kana": "アラツカチョウ",
    "street": null,
    "office_name": null,
    "office_name_kana": null
  },
  "0852": {
    "postcode": "6210852",
    "prefecture": "京都府",
    "prefecture_kana": "キョウトフ",
    "prefecture_code": 26,
    "city": "亀岡市",
    "city_kana": "カメオカシ",
    "town": "紺屋町",
    "town_kana": "コンヤマチ",
    "street": null,
    "office_name": null,
    "office_name_kana": null
  },
  "0853": {
    "postcode": "6210853",
    "prefecture": "京都府",
    "prefecture_kana": "キョウトフ",
    "prefecture_code": 26,
    "city": "亀岡市",
    "city_kana": "カメオカシ",
    "town": "矢田町",
    "town_kana": "ヤダマチ",
    "street": null,
    "office_name": null,
    "office_name_kana": null
  },
  "0854": {
    "postcode": "6210854",
    "prefecture": "京都府",
    "prefecture_kana": "キョウトフ",
    "prefecture_code": 26,
    "city": "亀岡市",
    "city_kana": "カメオカシ",
    "town": "下矢田町",
    "town_kana": "シモヤダチョウ",
    "street": null,
    "office_name": null,
    "office_name_kana": null
  },
  "0855": {
    "postcode": "6210855",
    "prefecture": "京都府",
    "prefecture_kana": "キョウトフ",
    "prefecture_code": 26,
    "city": "亀岡市",
    "city_kana": "カメオカシ",
    "town": "中矢田町",
    "town_kana": "ナカヤダチョウ",
    "street": null,
    "office_name": null,
    "office_name_kana": null
  },
  "0856": {
    "postcode": "6210856",
    "prefecture": "京都府",
    "prefecture_kana": "キョウトフ",
    "prefecture_code": 26,
    "city": "亀岡市",
    "city_kana": "カメオカシ",
    "town": "上矢田町",
    "town_kana": "カミヤダチョウ",
    "street": null,
    "office_name": null,
    "office_name_kana": null
  },
  "0861": {
    "postcode": "6210861",
    "prefecture": "京都府",
    "prefecture_kana": "キョウトフ",
    "prefecture_code": 26,
    "city": "亀岡市",
    "city_kana": "カメオカシ",
    "town": "北町",
    "town_kana": "キタマチ",
    "street": null,
    "office_name": null,
    "office_name_kana": null
  },
  "0862": {
    "postcode": "6210862",
    "prefecture": "京都府",
    "prefecture_kana": "キョウトフ",
    "prefecture_code": 26,
    "city": "亀岡市",
    "city_kana": "カメオカシ",
    "town": "西町",
    "town_kana": "ニシマチ",
    "street": null,
    "office_name": null,
    "office_name_kana": null
  },
  "0863": {
    "postcode": "6210863",
    "prefecture": "京都府",
    "prefecture_kana": "キョウトフ",
    "prefecture_code": 26,
    "city": "亀岡市",
    "city_kana": "カメオカシ",
    "town": "南郷町",
    "town_kana": "ナンゴウチョウ",
    "street": null,
    "office_name": null,
    "office_name_kana": null
  },
  "0864": {
    "postcode": "6210864",
    "prefecture": "京都府",
    "prefecture_kana": "キョウトフ",
    "prefecture_code": 26,
    "city": "亀岡市",
    "city_kana": "カメオカシ",
    "town": "内丸町",
    "town_kana": "ウチマルチョウ",
    "street": null,
    "office_name": null,
    "office_name_kana": null
  },
  "0865": {
    "postcode": "6210865",
    "prefecture": "京都府",
    "prefecture_kana": "キョウトフ",
    "prefecture_code": 26,
    "city": "亀岡市",
    "city_kana": "カメオカシ",
    "town": "新町",
    "town_kana": "シンマチ",
    "street": null,
    "office_name": null,
    "office_name_kana": null
  },
  "0866": {
    "postcode": "6210866",
    "prefecture": "京都府",
    "prefecture_kana": "キョウトフ",
    "prefecture_code": 26,
    "city": "亀岡市",
    "city_kana": "カメオカシ",
    "town": "旅籠町",
    "town_kana": "ハタゴマチ",
    "street": null,
    "office_name": null,
    "office_name_kana": null
  },
  "0867": {
    "postcode": "6210867",
    "prefecture": "京都府",
    "prefecture_kana": "キョウトフ",
    "prefecture_code": 26,
    "city": "亀岡市",
    "city_kana": "カメオカシ",
    "town": "塩屋町",
    "town_kana": "シオヤマチ",
    "street": null,
    "office_name": null,
    "office_name_kana": null
  },
  "0868": {
    "postcode": "6210868",
    "prefecture": "京都府",
    "prefecture_kana": "キョウトフ",
    "prefecture_code": 26,
    "city": "亀岡市",
    "city_kana": "カメオカシ",
    "town": "柳町",
    "town_kana": "ヤナギマチ",
    "street": null,
    "office_name": null,
    "office_name_kana": null
  },
  "0869": {
    "postcode": "6210869",
    "prefecture": "京都府",
    "prefecture_kana": "キョウトフ",
    "prefecture_code": 26,
    "city": "亀岡市",
    "city_kana": "カメオカシ",
    "town": "本町",
    "town_kana": "ホンマチ",
    "street": null,
    "office_name": null,
    "office_name_kana": null
  },
  "8501": {
    "postcode": "6218501",
    "prefecture": "京都府",
    "prefecture_kana": "キョウトフ",
    "prefecture_code": 26,
    "city": "亀岡市",
    "city_kana": "カメオカシ",
    "town": "安町",
    "town_kana": "ヤスマチ",
    "street": "野々神８",
    "office_name": "亀岡市役所",
    "office_name_kana": "カメオカシヤクシヨ"
  },
  "8555": {
    "postcode": "6218555",
    "prefecture": "京都府",
    "prefecture_kana": "キョウトフ",
    "prefecture_code": 26,
    "city": "亀岡市",
    "city_kana": "カメオカシ",
    "town": "曽我部町南条",
    "town_kana": "ソガベチョウナンジョウ",
    "street": "大谷１−１",
    "office_name": "京都学園大学",
    "office_name_kana": "キヨウトガクエンダイガク"
  },
  "8585": {
    "postcode": "6218585",
    "prefecture": "京都府",
    "prefecture_kana": "キョウトフ",
    "prefecture_code": 26,
    "city": "亀岡市",
    "city_kana": "カメオカシ",
    "town": "篠町篠",
    "town_kana": "シノチョウシノ",
    "street": "野田１−１",
    "office_name": "亀岡市立病院",
    "office_name_kana": "カメオカシリツビヨウイン"
  },
  "8686": {
    "postcode": "6218686",
    "prefecture": "京都府",
    "prefecture_kana": "キョウトフ",
    "prefecture_code": 26,
    "city": "亀岡市",
    "city_kana": "カメオカシ",
    "town": "荒塚町",
    "town_kana": "アラツカチョウ",
    "street": "内丸１（亀岡郵便局私書箱第１３号）",
    "office_name": "宗教法人　大本",
    "office_name_kana": "シユウキヨウホウジン オオモト"
  }
}