{
  "0000": {
    "postcode": "6220000",
    "prefecture": "京都府",
    "prefecture_kana": "キョウトフ",
    "prefecture_code": 26,
    "city": "南丹市",
    "city_kana": "ナンタンシ",
    "town": "",
    "town_kana": "",
    "street": null,
    "office_name": null,
    "office_name_kana": null
  },
  "0001": {
    "postcode": "6220001",
    "prefecture": "京都府",
    "prefecture_kana": "キョウトフ",
    "prefecture_code": 26,
    "city": "南丹市",
    "city_kana": "ナンタンシ",
    "town": "園部町宮町",
    "town_kana": "ソノベチョウミヤマチ",
    "street": null,
    "office_name": null,
    "office_name_kana": null
  },
  "0002": {
    "postcode": "6220002",
    "prefecture": "京都府",
    "prefecture_kana": "キョウトフ",
    "prefecture_code": 26,
    "city": "南丹市",
    "city_kana": "ナンタンシ",
    "town": "園部町美園町",
    "town_kana": "ソノベチョウミソノマチ",
    "street": null,
    "office_name": null,
    "office_name_kana": null
  },
  "0003": {
    "postcode": "6220003",
    "prefecture": "京都府",
    "prefecture_kana": "キョウトフ",
    "prefecture_code": 26,
    "city": "南丹市",
    "city_kana": "ナンタンシ",
    "town": "園部町新町",
    "town_kana": "ソノベチョウシンマチ",
    "street": null,
    "office_name": null,
    "office_name_kana": null
  },
  "0004": {
    "postcode": "6220004",
    "prefecture": "京都府",
    "prefecture_kana": "キョウトフ",
    "prefecture_code": 26,
    "city": "南丹市",
    "city_kana": "ナンタンシ",
    "town": "園部町小桜町",
    "town_kana": "ソノベチョウコザクラマチ",
    "street": null,
    "office_name": null,
    "office_name_kana": null
  },
  "0011": {
    "postcode": "6220011",
    "prefecture": "京都府",
    "prefecture_kana": "キョウトフ",
    "prefecture_code": 26,
    "city": "南丹市",
    "city_kana": "ナンタンシ",
    "town": "園部町上木崎町",
    "town_kana": "ソノベチョウカミキザキマチ",
    "street": null,
    "office_name": null,
    "office_name_kana": null
  },
  "0012": {
    "postcode": "6220012",
    "prefecture": "京都府",
    "prefecture_kana": "キョウトフ",
    "prefecture_code": 26,
    "city": "南丹市",
    "city_kana": "ナンタンシ",
    "town": "園部町内林町",
    "town_kana": "ソノベチョウウチバヤシマチ",
    "street": null,
    "office_name": null,
    "office_name_kana": null
  },
  "0013": {
    "postcode": "6220013",
    "prefecture": "京都府",
    "prefecture_kana": "キョウトフ",
    "prefecture_code": 26,
    "city": "南丹市",
    "city_kana": "ナンタンシ",
    "town": "園部町本町",
    "town_kana": "ソノベチョウホンマチ",
    "street": null,
    "office_name": null,
    "office_name_kana": null
  },
  "0014": {
    "postcode": "6220014",
    "prefecture": "京都府",
    "prefecture_kana": "キョウトフ",
    "prefecture_code": 26,
    "city": "南丹市",
    "city_kana": "ナンタンシ",
    "town": "園部町上本町",
    "town_kana": "ソノベチョウカミホンマチ",
    "street": null,
    "office_name": null,
    "office_name_kana": null
  },
  "0015": {
    "postcode": "6220015",
    "prefecture": "京都府",
    "prefecture_kana": "キョウトフ",
    "prefecture_code": 26,
    "city": "南丹市",
    "city_kana": "ナンタンシ",
    "town": "園部町木崎町",
    "town_kana": "ソノベチョウキザキマチ",
    "street": null,
    "office_name": null,
    "office_name_kana": null
  },
  "0016": {
    "postcode": "6220016",
    "prefecture": "京都府",
    "prefecture_kana": "キョウトフ",
    "prefecture_code": 26,
    "city": "南丹市",
    "city_kana": "ナンタンシ",
    "town": "園部町河原町",
    "town_kana": "ソノベチョウカワラマチ",
    "street": null,
    "office_name": null,
    "office_name_kana": null
  },
  "0017": {
    "postcode": "6220017",
    "prefecture": "京都府",
    "prefecture_kana": "キョウトフ",
    "prefecture_code": 26,
    "city": "南丹市",
    "city_kana": "ナンタンシ",
    "town": "園部町若松町",
    "town_kana": "ソノベチョウワカマツチョウ",
    "street": null,
    "office_name": null,
    "office_name_kana": null
  },
  "0021": {
    "postcode": "6220021",
    "prefecture": "京都府",
    "prefecture_kana": "キョウトフ",
    "prefecture_code": 26,
    "city": "南丹市",
    "city_kana": "ナンタンシ",
    "town": "園部町瓜生野",
    "town_kana": "ソノベチョウウリウノ",
    "street": null,
    "office_name": null,
    "office_name_kana": null
  },
  "0022": {
    "postcode": "6220022",
    "prefecture": "京都府",
    "prefecture_kana": "キョウトフ",
    "prefecture_code": 26,
    "city": "南丹市",
    "city_kana": "ナンタンシ",
    "town": "園部町熊崎",
    "town_kana": "ソノベチョウクマザキ",
    "street": null,
    "office_name": null,
    "office_name_kana": null
  },
  "0023": {
    "postcode": "6220023",
    "prefecture": "京都府",
    "prefecture_kana": "キョウトフ",
    "prefecture_code": 26,
    "city": "南丹市",
    "city_kana": "ナンタンシ",
    "town": "園部町新堂",
    "town_kana": "ソノベチョウシンドウ",
    "street": null,
    "office_name": null,
    "office_name_kana": null
  },
  "0024": {
    "postcode": "6220024",
    "prefecture": "京都府",
    "prefecture_kana": "キョウトフ",
    "prefecture_code": 26,
    "city": "南丹市",
    "city_kana": "ナンタンシ",
    "town": "園部町千妻",
    "town_kana": "ソノベチョウセンヅマ",
    "street": null,
    "office_name": null,
    "office_name_kana": null
  },
  "0025": {
    "postcode": "6220025",
    "prefecture": "京都府",
    "prefecture_kana": "キョウトフ",
    "prefecture_code": 26,
    "city": "南丹市",
    "city_kana": "ナンタンシ",
    "town": "園部町曽我谷",
    "town_kana": "ソノベチョウソガダニ",
    "street": null,
    "office_name": null,
    "office_name_kana": null
  },
  "0031": {
    "postcode": "6220031",
    "prefecture": "京都府",
    "prefecture_kana": "キョウトフ",
    "prefecture_code": 26,
    "city": "南丹市",
    "city_kana": "ナンタンシ",
    "town": "園部町船岡",
    "town_kana": "ソノベチョウフナオカ",
    "street": null,
    "office_name": null,
    "office_name_kana": null
  },
  "0032": {
    "postcode": "6220032",
    "prefecture": "京都府",
    "prefecture_kana": "キョウトフ",
    "prefecture_code": 26,
    "city": "南丹市",
    "city_kana": "ナンタンシ",
    "town": "園部町高屋",
    "town_kana": "ソノベチョウタカヤ",
    "street": null,
    "office_name": null,
    "office_name_kana": null
  },
  "0033": {
    "postcode": "6220033",
    "prefecture": "京都府",
    "prefecture_kana": "キョウトフ",
    "prefecture_code": 26,
    "city": "南丹市",
    "city_kana": "ナンタンシ",
    "town": "園部町大戸",
    "town_kana": "ソノベチョウオオド",
    "street": null,
    "office_name": null,
    "office_name_kana": null
  },
  "0034": {
    "postcode": "6220034",
    "prefecture": "京都府",
    "prefecture_kana": "キョウトフ",
    "prefecture_code": 26,
    "city": "南丹市",
    "city_kana": "ナンタンシ",
    "town": "園部町熊原",
    "town_kana": "ソノベチョウクマハラ",
    "street": null,
    "office_name": null,
    "office_name_kana": null
  },
  "0035": {
    "postcode": "6220035",
    "prefecture": "京都府",
    "prefecture_kana": "キョウトフ",
    "prefecture_code": 26,
    "city": "南丹市",
    "city_kana": "ナンタンシ",
    "town": "園部町佐切",
    "town_kana": "ソノベチョウサギリ",
    "street": null,
    "office_name": null,
    "office_name_kana": null
  },
  "0036": {
    "postcode": "6220036",
    "prefecture": "京都府",
    "prefecture_kana": "キョウトフ",
    "prefecture_code": 26,
    "city": "南丹市",
    "city_kana": "ナンタンシ",
    "town": "園部町越方",
    "town_kana": "ソノベチョウオチカタ",
    "street": null,
    "office_name": null,
    "office_name_kana": null
  },
  "0041": {
    "postcode": "6220041",
    "prefecture": "京都府",
    "prefecture_kana": "キョウトフ",
    "prefecture_code": 26,
    "city": "南丹市",
    "city_kana": "ナンタンシ",
    "town": "園部町小山東町",
    "town_kana": "ソノベチョウオヤマヒガシマチ",
    "street": null,
    "office_name": null,
    "office_name_kana": null
  },
  "0042": {
    "postcode": "6220042",
    "prefecture": "京都府",
    "prefecture_kana": "キョウトフ",
    "prefecture_code": 26,
    "city": "南丹市",
    "city_kana": "ナンタンシ",
    "town": "園部町栄町",
    "town_kana": "ソノベチョウサカエマチ",
    "street": null,
    "office_name": null,
    "office_name_kana": null
  },
  "0043": {
    "postcode": "6220043",
    "prefecture": "京都府",
    "prefecture_kana": "キョウトフ",
    "prefecture_code": 26,
    "city": "南丹市",
    "city_kana": "ナンタンシ",
    "town": "園部町小山西町",
    "town_kana": "ソノベチョウオヤマニシマチ",
    "street": null,
    "office_name": null,
    "office_name_kana": null
  },
  "0044": {
    "postcode": "6220044",
    "prefecture": "京都府",
    "prefecture_kana": "キョウトフ",
    "prefecture_code": 26,
    "city": "南丹市",
    "city_kana": "ナンタンシ",
    "town": "園部町城南町",
    "town_kana": "ソノベチョウジョウナンマチ",
    "street": null,
    "office_name": null,
    "office_name_kana": null
  },
  "0045": {
    "postcode": "6220045",
    "prefecture": "京都府",
    "prefecture_kana": "キョウトフ",
    "prefecture_code": 26,
    "city": "南丹市",
    "city_kana": "ナンタンシ",
    "town": "園部町半田",
    "town_kana": "ソノベチョウハンダ",
    "street": null,
    "office_name": null,
    "office_name_kana": null
  },
  "0046": {
    "postcode": "6220046",
    "prefecture": "京都府",
    "prefecture_kana": "キョウトフ",
    "prefecture_code": 26,
    "city": "南丹市",
    "city_kana": "ナンタンシ",
    "town": "園部町口人",
    "town_kana": "ソノベチョウクチウド",
    "street": null,
    "office_name": null,
    "office_name_kana": null
  },
  "0047": {
    "postcode": "6220047",
    "prefecture": "京都府",
    "prefecture_kana": "キョウトフ",
    "prefecture_code": 26,
    "city": "南丹市",
    "city_kana": "ナンタンシ",
    "town": "園部町口司",
    "town_kana": "ソノベチョウコウシ",
    "street": null,
    "office_name": null,
    "office_name_kana": null
  },
  "0051": {
    "postcode": "6220051",
    "prefecture": "京都府",
    "prefecture_kana": "キョウトフ",
    "prefecture_code": 26,
    "city": "南丹市",
    "city_kana": "ナンタンシ",
    "town": "園部町横田",
    "town_kana": "ソノベチョウヨコタ",
    "street": null,
    "office_name": null,
    "office_name_kana": null
  },
  "0052": {
    "postcode": "6220052",
    "prefecture": "京都府",
    "prefecture_kana": "キョウトフ",
    "prefecture_code": 26,
    "city": "南丹市",
    "city_kana": "ナンタンシ",
    "town": "園部町黒田",
    "town_kana": "ソノベチョウクロダ",
    "street": null,
    "office_name": null,
    "office_name_kana": null
  },
  "0053": {
    "postcode": "6220053",
    "prefecture": "京都府",
    "prefecture_kana": "キョウトフ",
    "prefecture_code": 26,
    "city": "南丹市",
    "city_kana": "ナンタンシ",
    "town": "園部町船阪",
    "town_kana": "ソノベチョウフナサカ",
    "street": null,
    "office_name": null,
    "office_name_kana": null
  },
  "0054": {
    "postcode": "6220054",
    "prefecture": "京都府",
    "prefecture_kana": "キョウトフ",
    "prefecture_code": 26,
    "city": "南丹市",
    "city_kana": "ナンタンシ",
    "town": "園部町大西",
    "town_kana": "ソノベチョウオオニシ",
    "street": null,
    "office_name": null,
    "office_name_kana": null
  },
  "0055": {
    "postcode": "6220055",
    "prefecture": "京都府",
    "prefecture_kana": "キョウトフ",
    "prefecture_code": 26,
    "city": "南丹市",
    "city_kana": "ナンタンシ",
    "town": "園部町宍人",
    "town_kana": "ソノベチョウシシウド",
    "street": null,
    "office_name": null,
    "office_name_kana": null
  },
  "0056": {
    "postcode": "6220056",
    "prefecture": "京都府",
    "prefecture_kana": "キョウトフ",
    "prefecture_code": 26,
    "city": "南丹市",
    "city_kana": "ナンタンシ",
    "town": "園部町埴生",
    "town_kana": "ソノベチョウハブ",
    "street": null,
    "office_name": null,
    "office_name_kana": null
  },
  "0057": {
    "postcode": "6220057",
    "prefecture": "京都府",
    "prefecture_kana": "キョウトフ",
    "prefecture_code": 26,
    "city": "南丹市",
    "city_kana": "ナンタンシ",
    "town": "園部町殿谷",
    "town_kana": "ソノベチョウトノダニ",
    "street": null,
    "office_name": null,
    "office_name_kana": null
  },
  "0058": {
    "postcode": "6220058",
    "prefecture": "京都府",
    "prefecture_kana": "キョウトフ",
    "prefecture_code": 26,
    "city": "南丹市",
    "city_kana": "ナンタンシ",
    "town": "園部町若森",
    "town_kana": "ソノベチョウワカモリ",
    "street": null,
    "office_name": null,
    "office_name_kana": null
  },
  "0059": {
    "postcode": "6220059",
    "prefecture": "京都府",
    "prefecture_kana": "キョウトフ",
    "prefecture_code": 26,
    "city": "南丹市",
    "city_kana": "ナンタンシ",
    "town": "園部町南大谷",
    "town_kana": "ソノベチョウミナミオオタニ",
    "street": null,
    "office_name": null,
    "office_name_kana": null
  },
  "0061": {
    "postcode": "6220061",
    "prefecture": "京都府",
    "prefecture_kana": "キョウトフ",
    "prefecture_code": 26,
    "city": "南丹市",
    "city_kana": "ナンタンシ",
    "town": "園部町仁江",
    "town_kana": "ソノベチョウニエ",
    "street": null,
    "office_name": null,
    "office_name_kana": null
  },
  "0062": {
    "postcode": "6220062",
    "prefecture": "京都府",
    "prefecture_kana": "キョウトフ",
    "prefecture_code": 26,
    "city": "南丹市",
    "city_kana": "ナンタンシ",
    "town": "園部町竹井",
    "town_kana": "ソノベチョウタケイ",
    "street": null,
    "office_name": null,
    "office_name_kana": null
  },
  "0063": {
    "postcode": "6220063",
    "prefecture": "京都府",
    "prefecture_kana": "キョウトフ",
    "prefecture_code": 26,
    "city": "南丹市",
    "city_kana": "ナンタンシ",
    "town": "園部町天引",
    "town_kana": "ソノベチョウアマビキ",
    "street": null,
    "office_name": null,
    "office_name_kana": null
  },
  "0064": {
    "postcode": "6220064",
    "prefecture": "京都府",
    "prefecture_kana": "キョウトフ",
    "prefecture_code": 26,
    "city": "南丹市",
    "city_kana": "ナンタンシ",
    "town": "園部町法京",
    "town_kana": "ソノベチョウホウキョウ",
    "street": null,
    "office_name": null,
    "office_name_kana": null
  },
  "0065": {
    "postcode": "6220065",
    "prefecture": "京都府",
    "prefecture_kana": "キョウトフ",
    "prefecture_code": 26,
    "city": "南丹市",
    "city_kana": "ナンタンシ",
    "town": "園部町大河内",
    "town_kana": "ソノベチョウオオカワチ",
    "street": null,
    "office_name": null,
    "office_name_kana": null
  },
  "0066": {
    "postcode": "6220066",
    "prefecture": "京都府",
    "prefecture_kana": "キョウトフ",
    "prefecture_code": 26,
    "city": "南丹市",
    "city_kana": "ナンタンシ",
    "town": "園部町南八田",
    "town_kana": "ソノベチョウミナミハツタ",
    "street": null,
    "office_name": null,
    "office_name_kana": null
  },
  "0200": {
    "postcode": "6220200",
    "prefecture": "京都府",
    "prefecture_kana": "キョウトフ",
    "prefecture_code": 26,
    "city": "船井郡京丹波町",
    "city_kana": "フナイグンキョウタンバチョウ",
    "town": "",
    "town_kana": "",
    "street": null,
    "office_name": null,
    "office_name_kana": null
  },
  "0201": {
    "postcode": "6220201",
    "prefecture": "京都府",
    "prefecture_kana": "キョウトフ",
    "prefecture_code": 26,
    "city": "船井郡京丹波町",
    "city_kana": "フナイグンキョウタンバチョウ",
    "town": "下山",
    "town_kana": "シモヤマ",
    "street": null,
    "office_name": null,
    "office_name_kana": null
  },
  "0202": {
    "postcode": "6220202",
    "prefecture": "京都府",
    "prefecture_kana": "キョウトフ",
    "prefecture_code": 26,
    "city": "船井郡京丹波町",
    "city_kana": "フナイグンキョウタンバチョウ",
    "town": "実勢",
    "town_kana": "ジッセ",
    "street": null,
    "office_name": null,
    "office_name_kana": null
  },
  "0203": {
    "postcode": "6220203",
    "prefecture": "京都府",
    "prefecture_kana": "キョウトフ",
    "prefecture_code": 26,
    "city": "船井郡京丹波町",
    "city_kana": "フナイグンキョウタンバチョウ",
    "town": "富田",
    "town_kana": "トミタ",
    "street": null,
    "office_name": null,
    "office_name_kana": null
  },
  "0211": {
    "postcode": "6220211",
    "prefecture": "京都府",
    "prefecture_kana": "キョウトフ",
    "prefecture_code": 26,
    "city": "船井郡京丹波町",
    "city_kana": "フナイグンキョウタンバチョウ",
    "town": "上野",
    "town_kana": "ウエノ",
    "street": null,
    "office_name": null,
    "office_name_kana": null
  },
  "0212": {
    "postcode": "6220212",
    "prefecture": "京都府",
    "prefecture_kana": "キョウトフ",
    "prefecture_code": 26,
    "city": "船井郡京丹波町",
    "city_kana": "フナイグンキョウタンバチョウ",
    "town": "市森",
    "town_kana": "イチモリ",
    "street": null,
    "office_name": null,
    "office_name_kana": null
  },
  "0213": {
    "postcode": "6220213",
    "prefecture": "京都府",
    "prefecture_kana": "キョウトフ",
    "prefecture_code": 26,
    "city": "船井郡京丹波町",
    "city_kana": "フナイグンキョウタンバチョウ",
    "town": "須知",
    "town_kana": "シュウチ",
    "street": null,
    "office_name": null,
    "office_name_kana": null
  },
  "0214": {
    "postcode": "6220214",
    "prefecture": "京都府",
    "prefecture_kana": "キョウトフ",
    "prefecture_code": 26,
    "city": "船井郡京丹波町",
    "city_kana": "フナイグンキョウタンバチョウ",
    "town": "蒲生",
    "town_kana": "コモ",
    "street": null,
    "office_name": null,
    "office_name_kana": null
  },
  "0221": {
    "postcode": "6220221",
    "prefecture": "京都府",
    "prefecture_kana": "キョウトフ",
    "prefecture_code": 26,
    "city": "船井郡京丹波町",
    "city_kana": "フナイグンキョウタンバチョウ",
    "town": "水戸",
    "town_kana": "ミト",
    "street": null,
    "office_name": null,
    "office_name_kana": null
  },
  "0222": {
    "postcode": "6220222",
    "prefecture": "京都府",
    "prefecture_kana": "キョウトフ",
    "prefecture_code": 26,
    "city": "船井郡京丹波町",
    "city_kana": "フナイグンキョウタンバチョウ",
    "town": "新水戸",
    "town_kana": "シンミト",
    "street": null,
    "office_name": null,
    "office_name_kana": null
  },
  "0223": {
    "postcode": "6220223",
    "prefecture": "京都府",
    "prefecture_kana": "キョウトフ",
    "prefecture_code": 26,
    "city": "船井郡京丹波町",
    "city_kana": "フナイグンキョウタンバチョウ",
    "town": "口八田",
    "town_kana": "クチハッタ",
    "street": null,
    "office_name": null,
    "office_name_kana": null
  },
  "0224": {
    "postcode": "6220224",
    "prefecture": "京都府",
    "prefecture_kana": "キョウトフ",
    "prefecture_code": 26,
    "city": "船井郡京丹波町",
    "city_kana": "フナイグンキョウタンバチョウ",
    "town": "高岡",
    "town_kana": "タカオカ",
    "street": null,
    "office_name": null,
    "office_name_kana": null
  },
  "0231": {
    "postcode": "6220231",
    "prefecture": "京都府",
    "prefecture_kana": "キョウトフ",
    "prefecture_code": 26,
    "city": "船井郡京丹波町",
    "city_kana": "フナイグンキョウタンバチョウ",
    "town": "豊田",
    "town_kana": "トヨタ",
    "street": null,
    "office_name": null,
    "office_name_kana": null
  },
  "0232": {
    "postcode": "6220232",
    "prefecture": "京都府",
    "prefecture_kana": "キョウトフ",
    "prefecture_code": 26,
    "city": "船井郡京丹波町",
    "city_kana": "フナイグンキョウタンバチョウ",
    "town": "曽根",
    "town_kana": "ソネ",
    "street": null,
    "office_name": null,
    "office_name_kana": null
  },
  "0233": {
    "postcode": "6220233",
    "prefecture": "京都府",
    "prefecture_kana": "キョウトフ",
    "prefecture_code": 26,
    "city": "船井郡京丹波町",
    "city_kana": "フナイグンキョウタンバチョウ",
    "town": "森",
    "town_kana": "モリ",
    "street": null,
    "office_name": null,
    "office_name_kana": null
  },
  "0234": {
    "postcode": "6220234",
    "prefecture": "京都府",
    "prefecture_kana": "キョウトフ",
    "prefecture_code": 26,
    "city": "船井郡京丹波町",
    "city_kana": "フナイグンキョウタンバチョウ",
    "town": "塩田谷",
    "town_kana": "シオタダニ",
    "street": null,
    "office_name": null,
    "office_name_kana": null
  },
  "0235": {
    "postcode": "6220235",
    "prefecture": "京都府",
    "prefecture_kana": "キョウトフ",
    "prefecture_code": 26,
    "city": "船井郡京丹波町",
    "city_kana": "フナイグンキョウタンバチョウ",
    "town": "安井",
    "town_kana": "ヤスイ",
    "street": null,
    "office_name": null,
    "office_name_kana": null
  },
  "0236": {
    "postcode": "6220236",
    "prefecture": "京都府",
    "prefecture_kana": "キョウトフ",
    "prefecture_code": 26,
    "city": "船井郡京丹波町",
    "city_kana": "フナイグンキョウタンバチョウ",
    "town": "院内",
    "town_kana": "インナイ",
    "street": null,
    "office_name": null,
    "office_name_kana": null
  },
  "0292": {
    "postcode": "6220292",
    "prefecture": "京都府",
    "prefecture_kana": "キョウトフ",
    "prefecture_code": 26,
    "city": "船井郡京丹波町",
    "city_kana": "フナイグンキョウタンバチョウ",
    "town": "蒲生",
    "town_kana": "コモ",
    "street": "蒲生野４８７番地１",
    "office_name": "京丹波町役場",
    "office_name_kana": "キヨウタンバチヨウヤクバ"
  },
  "0301": {
    "postcode": "6220301",
    "prefecture": "京都府",
    "prefecture_kana": "キョウトフ",
    "prefecture_code": 26,
    "city": "船井郡京丹波町",
    "city_kana": "フナイグンキョウタンバチョウ",
    "town": "粟野",
    "town_kana": "アワノ",
    "street": null,
    "office_name": null,
    "office_name_kana": null
  },
  "0302": {
    "postcode": "6220302",
    "prefecture": "京都府",
    "prefecture_kana": "キョウトフ",
    "prefecture_code": 26,
    "city": "船井郡京丹波町",
    "city_kana": "フナイグンキョウタンバチョウ",
    "town": "妙楽寺",
    "town_kana": "ミョウラクジ",
    "street": null,
    "office_name": null,
    "office_name_kana": null
  },
  "0303": {
    "postcode": "6220303",
    "prefecture": "京都府",
    "prefecture_kana": "キョウトフ",
    "prefecture_code": 26,
    "city": "船井郡京丹波町",
    "city_kana": "フナイグンキョウタンバチョウ",
    "town": "三ノ宮",
    "town_kana": "サンノミヤ",
    "street": null,
    "office_name": null,
    "office_name_kana": null
  },
  "0304": {
    "postcode": "6220304",
    "prefecture": "京都府",
    "prefecture_kana": "キョウトフ",
    "prefecture_code": 26,
    "city": "船井郡京丹波町",
    "city_kana": "フナイグンキョウタンバチョウ",
    "town": "猪鼻",
    "town_kana": "イノハナ",
    "street": null,
    "office_name": null,
    "office_name_kana": null
  },
  "0311": {
    "postcode": "6220311",
    "prefecture": "京都府",
    "prefecture_kana": "キョウトフ",
    "prefecture_code": 26,
    "city": "船井郡京丹波町",
    "city_kana": "フナイグンキョウタンバチョウ",
    "town": "和田",
    "town_kana": "ワダ",
    "street": null,
    "office_name": null,
    "office_name_kana": null
  },
  "0312": {
    "postcode": "6220312",
    "prefecture": "京都府",
    "prefecture_kana": "キョウトフ",
    "prefecture_code": 26,
    "city": "船井郡京丹波町",
    "city_kana": "フナイグンキョウタンバチョウ",
    "town": "井脇",
    "town_kana": "イワキ",
    "street": null,
    "office_name": null,
    "office_name_kana": null
  },
  "0313": {
    "postcode": "6220313",
    "prefecture": "京都府",
    "prefecture_kana": "キョウトフ",
    "prefecture_code": 26,
    "city": "船井郡京丹波町",
    "city_kana": "フナイグンキョウタンバチョウ",
    "town": "保井谷",
    "town_kana": "ホイダニ",
    "street": null,
    "office_name": null,
    "office_name_kana": null
  },
  "0314": {
    "postcode": "6220314",
    "prefecture": "京都府",
    "prefecture_kana": "キョウトフ",
    "prefecture_code": 26,
    "city": "船井郡京丹波町",
    "city_kana": "フナイグンキョウタンバチョウ",
    "town": "水呑",
    "town_kana": "ミズノミ",
    "street": null,
    "office_name": null,
    "office_name_kana": null
  },
  "0315": {
    "postcode": "6220315",
    "prefecture": "京都府",
    "prefecture_kana": "キョウトフ",
    "prefecture_code": 26,
    "city": "船井郡京丹波町",
    "city_kana": "フナイグンキョウタンバチョウ",
    "town": "質志",
    "town_kana": "シズシ",
    "street": null,
    "office_name": null,
    "office_name_kana": null
  },
  "0316": {
    "postcode": "6220316",
    "prefecture": "京都府",
    "prefecture_kana": "キョウトフ",
    "prefecture_code": 26,
    "city": "船井郡京丹波町",
    "city_kana": "フナイグンキョウタンバチョウ",
    "town": "戸津川",
    "town_kana": "トツカワ",
    "street": null,
    "office_name": null,
    "office_name_kana": null
  },
  "0321": {
    "postcode": "6220321",
    "prefecture": "京都府",
    "prefecture_kana": "キョウトフ",
    "prefecture_code": 26,
    "city": "船井郡京丹波町",
    "city_kana": "フナイグンキョウタンバチョウ",
    "town": "橋爪",
    "town_kana": "ハシヅメ",
    "street": null,
    "office_name": null,
    "office_name_kana": null
  },
  "0322": {
    "postcode": "6220322",
    "prefecture": "京都府",
    "prefecture_kana": "キョウトフ",
    "prefecture_code": 26,
    "city": "船井郡京丹波町",
    "city_kana": "フナイグンキョウタンバチョウ",
    "town": "大朴",
    "town_kana": "オボソ",
    "street": null,
    "office_name": null,
    "office_name_kana": null
  },
  "0323": {
    "postcode": "6220323",
    "prefecture": "京都府",
    "prefecture_kana": "キョウトフ",
    "prefecture_code": 26,
    "city": "船井郡京丹波町",
    "city_kana": "フナイグンキョウタンバチョウ",
    "town": "井尻",
    "town_kana": "イジリ",
    "street": null,
    "office_name": null,
    "office_name_kana": null
  },
  "0324": {
    "postcode": "6220324",
    "prefecture": "京都府",
    "prefecture_kana": "キョウトフ",
    "prefecture_code": 26,
    "city": "船井郡京丹波町",
    "city_kana": "フナイグンキョウタンバチョウ",
    "town": "八田",
    "town_kana": "ハッタ",
    "street": null,
    "office_name": null,
    "office_name_kana": null
  },
  "0325": {
    "postcode": "6220325",
    "prefecture": "京都府",
    "prefecture_kana": "キョウトフ",
    "prefecture_code": 26,
    "city": "船井郡京丹波町",
    "city_kana": "フナイグンキョウタンバチョウ",
    "town": "小野",
    "town_kana": "コノ",
    "street": null,
    "office_name": null,
    "office_name_kana": null
  },
  "0331": {
    "postcode": "6220331",
    "prefecture": "京都府",
    "prefecture_kana": "キョウトフ",
    "prefecture_code": 26,
    "city": "船井郡京丹波町",
    "city_kana": "フナイグンキョウタンバチョウ",
    "town": "中台",
    "town_kana": "チュウダイ",
    "street": null,
    "office_name": null,
    "office_name_kana": null
  },
  "0332": {
    "postcode": "6220332",
    "prefecture": "京都府",
    "prefecture_kana": "キョウトフ",
    "prefecture_code": 26,
    "city": "船井郡京丹波町",
    "city_kana": "フナイグンキョウタンバチョウ",
    "town": "質美",
    "town_kana": "シツミ",
    "street": null,
    "office_name": null,
    "office_name_kana": null
  },
  "0441": {
    "postcode": "6220441",
    "prefecture": "京都府",
    "prefecture_kana": "キョウトフ",
    "prefecture_code": 26,
    "city": "船井郡京丹波町",
    "city_kana": "フナイグンキョウタンバチョウ",
    "town": "坂井",
    "town_kana": "サカイ",
    "street": null,
    "office_name": null,
    "office_name_kana": null
  },
  "0442": {
    "postcode": "6220442",
    "prefecture": "京都府",
    "prefecture_kana": "キョウトフ",
    "prefecture_code": 26,
    "city": "船井郡京丹波町",
    "city_kana": "フナイグンキョウタンバチョウ",
    "town": "鎌谷下",
    "town_kana": "カマダニシモ",
    "street": null,
    "office_name": null,
    "office_name_kana": null
  },
  "0443": {
    "postcode": "6220443",
    "prefecture": "京都府",
    "prefecture_kana": "キョウトフ",
    "prefecture_code": 26,
    "city": "船井郡京丹波町",
    "city_kana": "フナイグンキョウタンバチョウ",
    "town": "東又",
    "town_kana": "ヒガシマタ",
    "street": null,
    "office_name": null,
    "office_name_kana": null
  },
  "0444": {
    "postcode": "6220444",
    "prefecture": "京都府",
    "prefecture_kana": "キョウトフ",
    "prefecture_code": 26,
    "city": "船井郡京丹波町",
    "city_kana": "フナイグンキョウタンバチョウ",
    "town": "鎌谷中",
    "town_kana": "カマダニナカ",
    "street": null,
    "office_name": null,
    "office_name_kana": null
  },
  "0445": {
    "postcode": "6220445",
    "prefecture": "京都府",
    "prefecture_kana": "キョウトフ",
    "prefecture_code": 26,
    "city": "船井郡京丹波町",
    "city_kana": "フナイグンキョウタンバチョウ",
    "town": "鎌谷奥",
    "town_kana": "カマダニオク",
    "street": null,
    "office_name": null,
    "office_name_kana": null
  },
  "0451": {
    "postcode": "6220451",
    "prefecture": "京都府",
    "prefecture_kana": "キョウトフ",
    "prefecture_code": 26,
    "city": "船井郡京丹波町",
    "city_kana": "フナイグンキョウタンバチョウ",
    "town": "下大久保",
    "town_kana": "シモオオクボ",
    "street": null,
    "office_name": null,
    "office_name_kana": null
  },
  "0452": {
    "postcode": "6220452",
    "prefecture": "京都府",
    "prefecture_kana": "キョウトフ",
    "prefecture_code": 26,
    "city": "船井郡京丹波町",
    "city_kana": "フナイグンキョウタンバチョウ",
    "town": "上大久保",
    "town_kana": "カミオオクボ",
    "street": null,
    "office_name": null,
    "office_name_kana": null
  },
  "0453": {
    "postcode": "6220453",
    "prefecture": "京都府",
    "prefecture_kana": "キョウトフ",
    "prefecture_code": 26,
    "city": "船井郡京丹波町",
    "city_kana": "フナイグンキョウタンバチョウ",
    "town": "水原",
    "town_kana": "ミズハラ",
    "street": null,
    "office_name": null,
    "office_name_kana": null
  },
  "8501": {
    "postcode": "6228501",
    "prefecture": "京都府",
    "prefecture_kana": "キョウトフ",
    "prefecture_code": 26,
    "city": "南丹市",
    "city_kana": "ナンタンシ",
    "town": "園部町小山東町",
    "town_kana": "ソノベチョウオヤマヒガシマチ",
    "street": "平成台１号１１",
    "office_name": "園部税務署",
    "office_name_kana": "ソノベゼイムシヨ"
  },
  "8651": {
    "postcode": "6228651",
    "prefecture": "京都府",
    "prefecture_kana": "キョウトフ",
    "prefecture_code": 26,
    "city": "南丹市",
    "city_kana": "ナンタンシ",
    "town": "園部町小桜町",
    "town_kana": "ソノベチョウコザクラマチ",
    "street": "４７番地（園部郵便局私書箱第２号）",
    "office_name": "南丹市役所",
    "office_name_kana": "ナンタンシヤクシヨ"
  }
}