{
  "0000": [
    {
      "postcode": "6300000",
      "prefecture": "奈良県",
      "prefecture_kana": "ナラケン",
      "prefecture_code": 29,
      "city": "奈良市",
      "city_kana": "ナラシ",
      "town": "",
      "town_kana": "",
      "street": null,
      "office_name": null,
      "office_name_kana": null
    },
    {
      "postcode": "6300000",
      "prefecture": "奈良県",
      "prefecture_kana": "ナラケン",
      "prefecture_code": 29,
      "city": "山辺郡山添村",
      "city_kana": "ヤマベグンヤマゾエムラ",
      "town": "",
      "town_kana": "",
      "street": null,
      "office_name": null,
      "office_name_kana": null
    }
  ],
  "0101": {
    "postcode": "6300101",
    "prefecture": "奈良県",
    "prefecture_kana": "ナラケン",
    "prefecture_code": 29,
    "city": "生駒市",
    "city_kana": "イコマシ",
    "town": "高山町",
    "town_kana": "タカヤマチョウ",
    "street": null,
    "office_name": null,
    "office_name_kana": null
  },
  "0111": {
    "postcode": "6300111",
    "prefecture": "奈良県",
    "prefecture_kana": "ナラケン",
    "prefecture_code": 29,
    "city": "生駒市",
    "city_kana": "イコマシ",
    "town": "鹿ノ台北",
    "town_kana": "シカノダイキタ",
    "street": null,
    "office_name": null,
    "office_name_kana": null
  },
  "0112": {
    "postcode": "6300112",
    "prefecture": "奈良県",
    "prefecture_kana": "ナラケン",
    "prefecture_code": 29,
    "city": "生駒市",
    "city_kana": "イコマシ",
    "town": "鹿ノ台東",
    "town_kana": "シカノダイヒガシ",
    "street": null,
    "office_name": null,
    "office_name_kana": null
  },
  "0113": {
    "postcode": "6300113",
    "prefecture": "奈良県",
    "prefecture_kana": "ナラケン",
    "prefecture_code": 29,
    "city": "生駒市",
    "city_kana": "イコマシ",
    "town": "鹿ノ台南",
    "town_kana": "シカノダイミナミ",
    "street": null,
    "office_name": null,
    "office_name_kana": null
  },
  "0114": {
    "postcode": "6300114",
    "prefecture": "奈良県",
    "prefecture_kana": "ナラケン",
    "prefecture_code": 29,
    "city": "生駒市",
    "city_kana": "イコマシ",
    "town": "鹿ノ台西",
    "town_kana": "シカノダイニシ",
    "street": null,
    "office_name": null,
    "office_name_kana": null
  },
  "0115": {
    "postcode": "6300115",
    "prefecture": "奈良県",
    "prefecture_kana": "ナラケン",
    "prefecture_code": 29,
    "city": "生駒市",
    "city_kana": "イコマシ",
    "town": "鹿畑町",
    "town_kana": "シカハタチョウ",
    "street": null,
    "office_name": null,
    "office_name_kana": null
  },
  "0116": {
    "postcode": "6300116",
    "prefecture": "奈良県",
    "prefecture_kana": "ナラケン",
    "prefecture_code": 29,
    "city": "生駒市",
    "city_kana": "イコマシ",
    "town": "美鹿の台",
    "town_kana": "ミカノダイ",
    "street": null,
    "office_name": null,
    "office_name_kana": null
  },
  "0121": {
    "postcode": "6300121",
    "prefecture": "奈良県",
    "prefecture_kana": "ナラケン",
    "prefecture_code": 29,
    "city": "生駒市",
    "city_kana": "イコマシ",
    "town": "北大和",
    "town_kana": "キタヤマト",
    "street": null,
    "office_name": null,
    "office_name_kana": null
  },
  "0122": {
    "postcode": "6300122",
    "prefecture": "奈良県",
    "prefecture_kana": "ナラケン",
    "prefecture_code": 29,
    "city": "生駒市",
    "city_kana": "イコマシ",
    "town": "真弓",
    "town_kana": "マユミ",
    "street": null,
    "office_name": null,
    "office_name_kana": null
  },
  "0123": {
    "postcode": "6300123",
    "prefecture": "奈良県",
    "prefecture_kana": "ナラケン",
    "prefecture_code": 29,
    "city": "生駒市",
    "city_kana": "イコマシ",
    "town": "真弓南",
    "town_kana": "マユミミナミ",
    "street": null,
    "office_name": null,
    "office_name_kana": null
  },
  "0131": {
    "postcode": "6300131",
    "prefecture": "奈良県",
    "prefecture_kana": "ナラケン",
    "prefecture_code": 29,
    "city": "生駒市",
    "city_kana": "イコマシ",
    "town": "上町",
    "town_kana": "カミマチ",
    "street": null,
    "office_name": null,
    "office_name_kana": null
  },
  "0132": {
    "postcode": "6300132",
    "prefecture": "奈良県",
    "prefecture_kana": "ナラケン",
    "prefecture_code": 29,
    "city": "生駒市",
    "city_kana": "イコマシ",
    "town": "あすか台",
    "town_kana": "アスカダイ",
    "street": null,
    "office_name": null,
    "office_name_kana": null
  },
  "0133": {
    "postcode": "6300133",
    "prefecture": "奈良県",
    "prefecture_kana": "ナラケン",
    "prefecture_code": 29,
    "city": "生駒市",
    "city_kana": "イコマシ",
    "town": "あすか野南",
    "town_kana": "アスカノミナミ",
    "street": null,
    "office_name": null,
    "office_name_kana": null
  },
  "0134": {
    "postcode": "6300134",
    "prefecture": "奈良県",
    "prefecture_kana": "ナラケン",
    "prefecture_code": 29,
    "city": "生駒市",
    "city_kana": "イコマシ",
    "town": "あすか野北",
    "town_kana": "アスカノキタ",
    "street": null,
    "office_name": null,
    "office_name_kana": null
  },
  "0135": {
    "postcode": "6300135",
    "prefecture": "奈良県",
    "prefecture_kana": "ナラケン",
    "prefecture_code": 29,
    "city": "生駒市",
    "city_kana": "イコマシ",
    "town": "南田原町",
    "town_kana": "ミナミタワラチョウ",
    "street": null,
    "office_name": null,
    "office_name_kana": null
  },
  "0136": {
    "postcode": "6300136",
    "prefecture": "奈良県",
    "prefecture_kana": "ナラケン",
    "prefecture_code": 29,
    "city": "生駒市",
    "city_kana": "イコマシ",
    "town": "白庭台",
    "town_kana": "シラニワダイ",
    "street": null,
    "office_name": null,
    "office_name_kana": null
  },
  "0137": {
    "postcode": "6300137",
    "prefecture": "奈良県",
    "prefecture_kana": "ナラケン",
    "prefecture_code": 29,
    "city": "生駒市",
    "city_kana": "イコマシ",
    "town": "西白庭台",
    "town_kana": "ニシシラニワダイ",
    "street": null,
    "office_name": null,
    "office_name_kana": null
  },
  "0138": {
    "postcode": "6300138",
    "prefecture": "奈良県",
    "prefecture_kana": "ナラケン",
    "prefecture_code": 29,
    "city": "生駒市",
    "city_kana": "イコマシ",
    "town": "上町台",
    "town_kana": "カミマチダイ",
    "street": null,
    "office_name": null,
    "office_name_kana": null
  },
  "0141": {
    "postcode": "6300141",
    "prefecture": "奈良県",
    "prefecture_kana": "ナラケン",
    "prefecture_code": 29,
    "city": "生駒市",
    "city_kana": "イコマシ",
    "town": "ひかりが丘",
    "town_kana": "ヒカリガオカ",
    "street": null,
    "office_name": null,
    "office_name_kana": null
  },
  "0142": {
    "postcode": "6300142",
    "prefecture": "奈良県",
    "prefecture_kana": "ナラケン",
    "prefecture_code": 29,
    "city": "生駒市",
    "city_kana": "イコマシ",
    "town": "北田原町",
    "town_kana": "キタタハラチョウ",
    "street": null,
    "office_name": null,
    "office_name_kana": null
  },
  "0192": {
    "postcode": "6300192",
    "prefecture": "奈良県",
    "prefecture_kana": "ナラケン",
    "prefecture_code": 29,
    "city": "生駒市",
    "city_kana": "イコマシ",
    "town": "高山町",
    "town_kana": "タカヤマチョウ",
    "street": "８９１６−５",
    "office_name": "奈良先端科学技術大学院大学",
    "office_name_kana": "ナラセンタンカガクギジユツダイガクインダイガク"
  },
  "0200": {
    "postcode": "6300200",
    "prefecture": "奈良県",
    "prefecture_kana": "ナラケン",
    "prefecture_code": 29,
    "city": "生駒市",
    "city_kana": "イコマシ",
    "town": "",
    "town_kana": "",
    "street": null,
    "office_name": null,
    "office_name_kana": null
  },
  "0201": {
    "postcode": "6300201",
    "prefecture": "奈良県",
    "prefecture_kana": "ナラケン",
    "prefecture_code": 29,
    "city": "生駒市",
    "city_kana": "イコマシ",
    "town": "小明町",
    "town_kana": "コウミョウチョウ",
    "street": null,
    "office_name": null,
    "office_name_kana": null
  },
  "0202": {
    "postcode": "6300202",
    "prefecture": "奈良県",
    "prefecture_kana": "ナラケン",
    "prefecture_code": 29,
    "city": "生駒市",
    "city_kana": "イコマシ",
    "town": "生駒台南",
    "town_kana": "イコマダイミナミ",
    "street": null,
    "office_name": null,
    "office_name_kana": null
  },
  "0203": {
    "postcode": "6300203",
    "prefecture": "奈良県",
    "prefecture_kana": "ナラケン",
    "prefecture_code": 29,
    "city": "生駒市",
    "city_kana": "イコマシ",
    "town": "生駒台北",
    "town_kana": "イコマダイキタ",
    "street": null,
    "office_name": null,
    "office_name_kana": null
  },
  "0211": {
    "postcode": "6300211",
    "prefecture": "奈良県",
    "prefecture_kana": "ナラケン",
    "prefecture_code": 29,
    "city": "生駒市",
    "city_kana": "イコマシ",
    "town": "桜ケ丘",
    "town_kana": "サクラガオカ",
    "street": null,
    "office_name": null,
    "office_name_kana": null
  },
  "0212": {
    "postcode": "6300212",
    "prefecture": "奈良県",
    "prefecture_kana": "ナラケン",
    "prefecture_code": 29,
    "city": "生駒市",
    "city_kana": "イコマシ",
    "town": "辻町",
    "town_kana": "ツジマチ",
    "street": null,
    "office_name": null,
    "office_name_kana": null
  },
  "0213": {
    "postcode": "6300213",
    "prefecture": "奈良県",
    "prefecture_kana": "ナラケン",
    "prefecture_code": 29,
    "city": "生駒市",
    "city_kana": "イコマシ",
    "town": "東生駒",
    "town_kana": "ヒガシイコマ",
    "street": null,
    "office_name": null,
    "office_name_kana": null
  },
  "0214": {
    "postcode": "6300214",
    "prefecture": "奈良県",
    "prefecture_kana": "ナラケン",
    "prefecture_code": 29,
    "city": "生駒市",
    "city_kana": "イコマシ",
    "town": "東生駒月見町",
    "town_kana": "ヒガシイコマツキミチョウ",
    "street": null,
    "office_name": null,
    "office_name_kana": null
  },
  "0215": {
    "postcode": "6300215",
    "prefecture": "奈良県",
    "prefecture_kana": "ナラケン",
    "prefecture_code": 29,
    "city": "生駒市",
    "city_kana": "イコマシ",
    "town": "東菜畑",
    "town_kana": "ヒガシナバタ",
    "street": null,
    "office_name": null,
    "office_name_kana": null
  },
  "0221": {
    "postcode": "6300221",
    "prefecture": "奈良県",
    "prefecture_kana": "ナラケン",
    "prefecture_code": 29,
    "city": "生駒市",
    "city_kana": "イコマシ",
    "town": "さつき台",
    "town_kana": "サツキダイ",
    "street": null,
    "office_name": null,
    "office_name_kana": null
  },
  "0222": {
    "postcode": "6300222",
    "prefecture": "奈良県",
    "prefecture_kana": "ナラケン",
    "prefecture_code": 29,
    "city": "生駒市",
    "city_kana": "イコマシ",
    "town": "壱分町",
    "town_kana": "イチブチョウ",
    "street": null,
    "office_name": null,
    "office_name_kana": null
  },
  "0223": {
    "postcode": "6300223",
    "prefecture": "奈良県",
    "prefecture_kana": "ナラケン",
    "prefecture_code": 29,
    "city": "生駒市",
    "city_kana": "イコマシ",
    "town": "小瀬町",
    "town_kana": "オゼチョウ",
    "street": null,
    "office_name": null,
    "office_name_kana": null
  },
  "0224": {
    "postcode": "6300224",
    "prefecture": "奈良県",
    "prefecture_kana": "ナラケン",
    "prefecture_code": 29,
    "city": "生駒市",
    "city_kana": "イコマシ",
    "town": "萩の台",
    "town_kana": "ハギノダイ",
    "street": null,
    "office_name": null,
    "office_name_kana": null
  },
  "0225": {
    "postcode": "6300225",
    "prefecture": "奈良県",
    "prefecture_kana": "ナラケン",
    "prefecture_code": 29,
    "city": "生駒市",
    "city_kana": "イコマシ",
    "town": "東山町",
    "town_kana": "ヒガシヤマチョウ",
    "street": null,
    "office_name": null,
    "office_name_kana": null
  },
  "0226": {
    "postcode": "6300226",
    "prefecture": "奈良県",
    "prefecture_kana": "ナラケン",
    "prefecture_code": 29,
    "city": "生駒市",
    "city_kana": "イコマシ",
    "town": "小平尾町",
    "town_kana": "コビラオチョウ",
    "street": null,
    "office_name": null,
    "office_name_kana": null
  },
  "0227": {
    "postcode": "6300227",
    "prefecture": "奈良県",
    "prefecture_kana": "ナラケン",
    "prefecture_code": 29,
    "city": "生駒市",
    "city_kana": "イコマシ",
    "town": "乙田町",
    "town_kana": "オトダチョウ",
    "street": null,
    "office_name": null,
    "office_name_kana": null
  },
  "0228": {
    "postcode": "6300228",
    "prefecture": "奈良県",
    "prefecture_kana": "ナラケン",
    "prefecture_code": 29,
    "city": "生駒市",
    "city_kana": "イコマシ",
    "town": "南山手台",
    "town_kana": "ミナミヤマテダイ",
    "street": null,
    "office_name": null,
    "office_name_kana": null
  },
  "0229": {
    "postcode": "6300229",
    "prefecture": "奈良県",
    "prefecture_kana": "ナラケン",
    "prefecture_code": 29,
    "city": "生駒市",
    "city_kana": "イコマシ",
    "town": "翠光台",
    "town_kana": "スイコウダイ",
    "street": null,
    "office_name": null,
    "office_name_kana": null
  },
  "0231": {
    "postcode": "6300231",
    "prefecture": "奈良県",
    "prefecture_kana": "ナラケン",
    "prefecture_code": 29,
    "city": "生駒市",
    "city_kana": "イコマシ",
    "town": "菜畑町",
    "town_kana": "ナバタチョウ",
    "street": null,
    "office_name": null,
    "office_name_kana": null
  },
  "0232": {
    "postcode": "6300232",
    "prefecture": "奈良県",
    "prefecture_kana": "ナラケン",
    "prefecture_code": 29,
    "city": "生駒市",
    "city_kana": "イコマシ",
    "town": "小倉寺町",
    "town_kana": "オグラジチョウ",
    "street": null,
    "office_name": null,
    "office_name_kana": null
  },
  "0233": {
    "postcode": "6300233",
    "prefecture": "奈良県",
    "prefecture_kana": "ナラケン",
    "prefecture_code": 29,
    "city": "生駒市",
    "city_kana": "イコマシ",
    "town": "有里町",
    "town_kana": "アリサトチョウ",
    "street": null,
    "office_name": null,
    "office_name_kana": null
  },
  "0234": {
    "postcode": "6300234",
    "prefecture": "奈良県",
    "prefecture_kana": "ナラケン",
    "prefecture_code": 29,
    "city": "生駒市",
    "city_kana": "イコマシ",
    "town": "萩原町",
    "town_kana": "ハギハラチョウ",
    "street": null,
    "office_name": null,
    "office_name_kana": null
  },
  "0235": {
    "postcode": "6300235",
    "prefecture": "奈良県",
    "prefecture_kana": "ナラケン",
    "prefecture_code": 29,
    "city": "生駒市",
    "city_kana": "イコマシ",
    "town": "藤尾町",
    "town_kana": "フジオチョウ",
    "street": null,
    "office_name": null,
    "office_name_kana": null
  },
  "0236": {
    "postcode": "6300236",
    "prefecture": "奈良県",
    "prefecture_kana": "ナラケン",
    "prefecture_code": 29,
    "city": "生駒市",
    "city_kana": "イコマシ",
    "town": "西畑町",
    "town_kana": "ニシハタチョウ",
    "street": null,
    "office_name": null,
    "office_name_kana": null
  },
  "0237": {
    "postcode": "6300237",
    "prefecture": "奈良県",
    "prefecture_kana": "ナラケン",
    "prefecture_code": 29,
    "city": "生駒市",
    "city_kana": "イコマシ",
    "town": "鬼取町",
    "town_kana": "オニトリチョウ",
    "street": null,
    "office_name": null,
    "office_name_kana": null
  },
  "0238": {
    "postcode": "6300238",
    "prefecture": "奈良県",
    "prefecture_kana": "ナラケン",
    "prefecture_code": 29,
    "city": "生駒市",
    "city_kana": "イコマシ",
    "town": "大門町",
    "town_kana": "ダイモンチョウ",
    "street": null,
    "office_name": null,
    "office_name_kana": null
  },
  "0239": {
    "postcode": "6300239",
    "prefecture": "奈良県",
    "prefecture_kana": "ナラケン",
    "prefecture_code": 29,
    "city": "生駒市",
    "city_kana": "イコマシ",
    "town": "青山台",
    "town_kana": "アオヤマダイ",
    "street": null,
    "office_name": null,
    "office_name_kana": null
  },
  "0241": {
    "postcode": "6300241",
    "prefecture": "奈良県",
    "prefecture_kana": "ナラケン",
    "prefecture_code": 29,
    "city": "生駒市",
    "city_kana": "イコマシ",
    "town": "松美台",
    "town_kana": "マツミダイ",
    "street": null,
    "office_name": null,
    "office_name_kana": null
  },
  "0242": {
    "postcode": "6300242",
    "prefecture": "奈良県",
    "prefecture_kana": "ナラケン",
    "prefecture_code": 29,
    "city": "生駒市",
    "city_kana": "イコマシ",
    "town": "新生駒台",
    "town_kana": "シンイコマダイ",
    "street": null,
    "office_name": null,
    "office_name_kana": null
  },
  "0243": {
    "postcode": "6300243",
    "prefecture": "奈良県",
    "prefecture_kana": "ナラケン",
    "prefecture_code": 29,
    "city": "生駒市",
    "city_kana": "イコマシ",
    "town": "俵口町",
    "town_kana": "タワラグチチョウ",
    "street": null,
    "office_name": null,
    "office_name_kana": null
  },
  "0244": {
    "postcode": "6300244",
    "prefecture": "奈良県",
    "prefecture_kana": "ナラケン",
    "prefecture_code": 29,
    "city": "生駒市",
    "city_kana": "イコマシ",
    "town": "東松ケ丘",
    "town_kana": "ヒガシマツガオカ",
    "street": null,
    "office_name": null,
    "office_name_kana": null
  },
  "0245": {
    "postcode": "6300245",
    "prefecture": "奈良県",
    "prefecture_kana": "ナラケン",
    "prefecture_code": 29,
    "city": "生駒市",
    "city_kana": "イコマシ",
    "town": "北新町",
    "town_kana": "キタシンマチ",
    "street": null,
    "office_name": null,
    "office_name_kana": null
  },
  "0246": {
    "postcode": "6300246",
    "prefecture": "奈良県",
    "prefecture_kana": "ナラケン",
    "prefecture_code": 29,
    "city": "生駒市",
    "city_kana": "イコマシ",
    "town": "西松ケ丘",
    "town_kana": "ニシマツガオカ",
    "street": null,
    "office_name": null,
    "office_name_kana": null
  },
  "0247": {
    "postcode": "6300247",
    "prefecture": "奈良県",
    "prefecture_kana": "ナラケン",
    "prefecture_code": 29,
    "city": "生駒市",
    "city_kana": "イコマシ",
    "town": "光陽台",
    "town_kana": "コウヨウダイ",
    "street": null,
    "office_name": null,
    "office_name_kana": null
  },
  "0248": {
    "postcode": "6300248",
    "prefecture": "奈良県",
    "prefecture_kana": "ナラケン",
    "prefecture_code": 29,
    "city": "生駒市",
    "city_kana": "イコマシ",
    "town": "喜里が丘",
    "town_kana": "キリガオカ",
    "street": null,
    "office_name": null,
    "office_name_kana": null
  },
  "0251": {
    "postcode": "6300251",
    "prefecture": "奈良県",
    "prefecture_kana": "ナラケン",
    "prefecture_code": 29,
    "city": "生駒市",
    "city_kana": "イコマシ",
    "town": "谷田町",
    "town_kana": "タニダチョウ",
    "street": null,
    "office_name": null,
    "office_name_kana": null
  },
  "0252": {
    "postcode": "6300252",
    "prefecture": "奈良県",
    "prefecture_kana": "ナラケン",
    "prefecture_code": 29,
    "city": "生駒市",
    "city_kana": "イコマシ",
    "town": "山崎町",
    "town_kana": "ヤマサキチョウ",
    "street": null,
    "office_name": null,
    "office_name_kana": null
  },
  "0253": {
    "postcode": "6300253",
    "prefecture": "奈良県",
    "prefecture_kana": "ナラケン",
    "prefecture_code": 29,
    "city": "生駒市",
    "city_kana": "イコマシ",
    "town": "新旭ケ丘",
    "town_kana": "シンアサヒガオカ",
    "street": null,
    "office_name": null,
    "office_name_kana": null
  },
  "0254": {
    "postcode": "6300254",
    "prefecture": "奈良県",
    "prefecture_kana": "ナラケン",
    "prefecture_code": 29,
    "city": "生駒市",
    "city_kana": "イコマシ",
    "town": "東旭ケ丘",
    "town_kana": "ヒガシアサヒガオカ",
    "street": null,
    "office_name": null,
    "office_name_kana": null
  },
  "0255": {
    "postcode": "6300255",
    "prefecture": "奈良県",
    "prefecture_kana": "ナラケン",
    "prefecture_code": 29,
    "city": "生駒市",
    "city_kana": "イコマシ",
    "town": "山崎新町",
    "town_kana": "ヤマサキシンマチ",
    "street": null,
    "office_name": null,
    "office_name_kana": null
  },
  "0256": {
    "postcode": "6300256",
    "prefecture": "奈良県",
    "prefecture_kana": "ナラケン",
    "prefecture_code": 29,
    "city": "生駒市",
    "city_kana": "イコマシ",
    "town": "本町",
    "town_kana": "ホンマチ",
    "street": null,
    "office_name": null,
    "office_name_kana": null
  },
  "0257": {
    "postcode": "6300257",
    "prefecture": "奈良県",
    "prefecture_kana": "ナラケン",
    "prefecture_code": 29,
    "city": "生駒市",
    "city_kana": "イコマシ",
    "town": "元町",
    "town_kana": "モトマチ",
    "street": null,
    "office_name": null,
    "office_name_kana": null
  },
  "0258": {
    "postcode": "6300258",
    "prefecture": "奈良県",
    "prefecture_kana": "ナラケン",
    "prefecture_code": 29,
    "city": "生駒市",
    "city_kana": "イコマシ",
    "town": "東新町",
    "town_kana": "ヒガシシンマチ",
    "street": null,
    "office_name": null,
    "office_name_kana": null
  },
  "0261": {
    "postcode": "6300261",
    "prefecture": "奈良県",
    "prefecture_kana": "ナラケン",
    "prefecture_code": 29,
    "city": "生駒市",
    "city_kana": "イコマシ",
    "town": "西旭ケ丘",
    "town_kana": "ニシアサヒガオカ",
    "street": null,
    "office_name": null,
    "office_name_kana": null
  },
  "0262": {
    "postcode": "6300262",
    "prefecture": "奈良県",
    "prefecture_kana": "ナラケン",
    "prefecture_code": 29,
    "city": "生駒市",
    "city_kana": "イコマシ",
    "town": "緑ケ丘",
    "town_kana": "ミドリガオカ",
    "street": null,
    "office_name": null,
    "office_name_kana": null
  },
  "0263": {
    "postcode": "6300263",
    "prefecture": "奈良県",
    "prefecture_kana": "ナラケン",
    "prefecture_code": 29,
    "city": "生駒市",
    "city_kana": "イコマシ",
    "town": "中菜畑",
    "town_kana": "ナカナバタ",
    "street": null,
    "office_name": null,
    "office_name_kana": null
  },
  "0264": {
    "postcode": "6300264",
    "prefecture": "奈良県",
    "prefecture_kana": "ナラケン",
    "prefecture_code": 29,
    "city": "生駒市",
    "city_kana": "イコマシ",
    "town": "西菜畑町",
    "town_kana": "ニシナバタチョウ",
    "street": null,
    "office_name": null,
    "office_name_kana": null
  },
  "0265": {
    "postcode": "6300265",
    "prefecture": "奈良県",
    "prefecture_kana": "ナラケン",
    "prefecture_code": 29,
    "city": "生駒市",
    "city_kana": "イコマシ",
    "town": "軽井沢町",
    "town_kana": "カルイザワチョウ",
    "street": null,
    "office_name": null,
    "office_name_kana": null
  },
  "0266": {
    "postcode": "6300266",
    "prefecture": "奈良県",
    "prefecture_kana": "ナラケン",
    "prefecture_code": 29,
    "city": "生駒市",
    "city_kana": "イコマシ",
    "town": "門前町",
    "town_kana": "モンゼンチョウ",
    "street": null,
    "office_name": null,
    "office_name_kana": null
  },
  "0267": {
    "postcode": "6300267",
    "prefecture": "奈良県",
    "prefecture_kana": "ナラケン",
    "prefecture_code": 29,
    "city": "生駒市",
    "city_kana": "イコマシ",
    "town": "仲之町",
    "town_kana": "ナカノチョウ",
    "street": null,
    "office_name": null,
    "office_name_kana": null
  },
  "0271": {
    "postcode": "6300271",
    "prefecture": "大阪府",
    "prefecture_kana": "オオサカフ",
    "prefecture_code": 27,
    "city": "東大阪市",
    "city_kana": "ヒガシオオサカシ",
    "town": "上石切町",
    "town_kana": "カミイシキリチョウ",
    "street": null,
    "office_name": null,
    "office_name_kana": null
  },
  "0272": {
    "postcode": "6300272",
    "prefecture": "大阪府",
    "prefecture_kana": "オオサカフ",
    "prefecture_code": 27,
    "city": "東大阪市",
    "city_kana": "ヒガシオオサカシ",
    "town": "山手町",
    "town_kana": "ヤマテチョウ",
    "street": null,
    "office_name": null,
    "office_name_kana": null
  },
  "0288": {
    "postcode": "6300288",
    "prefecture": "奈良県",
    "prefecture_kana": "ナラケン",
    "prefecture_code": 29,
    "city": "生駒市",
    "city_kana": "イコマシ",
    "town": "東新町",
    "town_kana": "ヒガシシンマチ",
    "street": "８番３８号",
    "office_name": "生駒市役所",
    "office_name_kana": "イコマシヤクシヨ"
  },
  "0292": {
    "postcode": "6300292",
    "prefecture": "奈良県",
    "prefecture_kana": "ナラケン",
    "prefecture_code": 29,
    "city": "生駒市",
    "city_kana": "イコマシ",
    "town": "東生駒",
    "town_kana": "ヒガシイコマ",
    "street": "１丁目７０−１",
    "office_name": "近鉄ケーブルネットワーク　株式会社",
    "office_name_kana": "キンテツケ-ブルネツトワ-ク カブシキガイシヤ"
  },
  "0293": {
    "postcode": "6300293",
    "prefecture": "奈良県",
    "prefecture_kana": "ナラケン",
    "prefecture_code": 29,
    "city": "生駒市",
    "city_kana": "イコマシ",
    "town": "乙田町",
    "town_kana": "オトダチョウ",
    "street": "１２４８番−１",
    "office_name": "近畿大学　奈良病院",
    "office_name_kana": "キンキダイガク ナラビヨウイン"
  },
  "1101": {
    "postcode": "6301101",
    "prefecture": "奈良県",
    "prefecture_kana": "ナラケン",
    "prefecture_code": 29,
    "city": "奈良市",
    "city_kana": "ナラシ",
    "town": "広岡町",
    "town_kana": "ヒロオカチョウ",
    "street": null,
    "office_name": null,
    "office_name_kana": null
  },
  "1102": {
    "postcode": "6301102",
    "prefecture": "奈良県",
    "prefecture_kana": "ナラケン",
    "prefecture_code": 29,
    "city": "奈良市",
    "city_kana": "ナラシ",
    "town": "下狭川町",
    "town_kana": "シモサガワチョウ",
    "street": null,
    "office_name": null,
    "office_name_kana": null
  },
  "1103": {
    "postcode": "6301103",
    "prefecture": "奈良県",
    "prefecture_kana": "ナラケン",
    "prefecture_code": 29,
    "city": "奈良市",
    "city_kana": "ナラシ",
    "town": "狭川東町",
    "town_kana": "サガワヒガシマチ",
    "street": null,
    "office_name": null,
    "office_name_kana": null
  },
  "1104": {
    "postcode": "6301104",
    "prefecture": "奈良県",
    "prefecture_kana": "ナラケン",
    "prefecture_code": 29,
    "city": "奈良市",
    "city_kana": "ナラシ",
    "town": "狭川両町",
    "town_kana": "サガワリョウチョウ",
    "street": null,
    "office_name": null,
    "office_name_kana": null
  },
  "1105": {
    "postcode": "6301105",
    "prefecture": "奈良県",
    "prefecture_kana": "ナラケン",
    "prefecture_code": 29,
    "city": "奈良市",
    "city_kana": "ナラシ",
    "town": "西狭川町",
    "town_kana": "ニシサガワチョウ",
    "street": null,
    "office_name": null,
    "office_name_kana": null
  },
  "1111": {
    "postcode": "6301111",
    "prefecture": "奈良県",
    "prefecture_kana": "ナラケン",
    "prefecture_code": 29,
    "city": "奈良市",
    "city_kana": "ナラシ",
    "town": "須川町",
    "town_kana": "スガワチョウ",
    "street": null,
    "office_name": null,
    "office_name_kana": null
  },
  "1112": {
    "postcode": "6301112",
    "prefecture": "奈良県",
    "prefecture_kana": "ナラケン",
    "prefecture_code": 29,
    "city": "奈良市",
    "city_kana": "ナラシ",
    "town": "南庄町",
    "town_kana": "ミナミショウチョウ",
    "street": null,
    "office_name": null,
    "office_name_kana": null
  },
  "1113": {
    "postcode": "6301113",
    "prefecture": "奈良県",
    "prefecture_kana": "ナラケン",
    "prefecture_code": 29,
    "city": "奈良市",
    "city_kana": "ナラシ",
    "town": "北村町",
    "town_kana": "キタムラチョウ",
    "street": null,
    "office_name": null,
    "office_name_kana": null
  },
  "1121": {
    "postcode": "6301121",
    "prefecture": "奈良県",
    "prefecture_kana": "ナラケン",
    "prefecture_code": 29,
    "city": "奈良市",
    "city_kana": "ナラシ",
    "town": "園田町",
    "town_kana": "ソノダチョウ",
    "street": null,
    "office_name": null,
    "office_name_kana": null
  },
  "1122": {
    "postcode": "6301122",
    "prefecture": "奈良県",
    "prefecture_kana": "ナラケン",
    "prefecture_code": 29,
    "city": "奈良市",
    "city_kana": "ナラシ",
    "town": "平清水町",
    "town_kana": "ヒラシミズチョウ",
    "street": null,
    "office_name": null,
    "office_name_kana": null
  },
  "1123": {
    "postcode": "6301123",
    "prefecture": "奈良県",
    "prefecture_kana": "ナラケン",
    "prefecture_code": 29,
    "city": "奈良市",
    "city_kana": "ナラシ",
    "town": "生琉里町",
    "town_kana": "フルサトチョウ",
    "street": null,
    "office_name": null,
    "office_name_kana": null
  },
  "1124": {
    "postcode": "6301124",
    "prefecture": "奈良県",
    "prefecture_kana": "ナラケン",
    "prefecture_code": 29,
    "city": "奈良市",
    "city_kana": "ナラシ",
    "town": "中ノ川町",
    "town_kana": "ナカノカワチョウ",
    "street": null,
    "office_name": null,
    "office_name_kana": null
  },
  "1125": {
    "postcode": "6301125",
    "prefecture": "奈良県",
    "prefecture_kana": "ナラケン",
    "prefecture_code": 29,
    "city": "奈良市",
    "city_kana": "ナラシ",
    "town": "東鳴川町",
    "town_kana": "ヒガシナルカワチョウ",
    "street": null,
    "office_name": null,
    "office_name_kana": null
  },
  "1126": {
    "postcode": "6301126",
    "prefecture": "奈良県",
    "prefecture_kana": "ナラケン",
    "prefecture_code": 29,
    "city": "奈良市",
    "city_kana": "ナラシ",
    "town": "法用町",
    "town_kana": "ホウヨウチョウ",
    "street": null,
    "office_name": null,
    "office_name_kana": null
  },
  "1231": {
    "postcode": "6301231",
    "prefecture": "奈良県",
    "prefecture_kana": "ナラケン",
    "prefecture_code": 29,
    "city": "奈良市",
    "city_kana": "ナラシ",
    "town": "柳生下町",
    "town_kana": "ヤギュウシモチョウ",
    "street": null,
    "office_name": null,
    "office_name_kana": null
  },
  "1232": {
    "postcode": "6301232",
    "prefecture": "奈良県",
    "prefecture_kana": "ナラケン",
    "prefecture_code": 29,
    "city": "奈良市",
    "city_kana": "ナラシ",
    "town": "興ヶ原町",
    "town_kana": "オクガハラチョウ",
    "street": null,
    "office_name": null,
    "office_name_kana": null
  },
  "1233": {
    "postcode": "6301233",
    "prefecture": "奈良県",
    "prefecture_kana": "ナラケン",
    "prefecture_code": 29,
    "city": "奈良市",
    "city_kana": "ナラシ",
    "town": "邑地町",
    "town_kana": "オオジチョウ",
    "street": null,
    "office_name": null,
    "office_name_kana": null
  },
  "1234": {
    "postcode": "6301234",
    "prefecture": "奈良県",
    "prefecture_kana": "ナラケン",
    "prefecture_code": 29,
    "city": "奈良市",
    "city_kana": "ナラシ",
    "town": "北野山町",
    "town_kana": "キタノヤマチョウ",
    "street": null,
    "office_name": null,
    "office_name_kana": null
  },
  "1235": {
    "postcode": "6301235",
    "prefecture": "奈良県",
    "prefecture_kana": "ナラケン",
    "prefecture_code": 29,
    "city": "奈良市",
    "city_kana": "ナラシ",
    "town": "丹生町",
    "town_kana": "ニュウチョウ",
    "street": null,
    "office_name": null,
    "office_name_kana": null
  },
  "1236": {
    "postcode": "6301236",
    "prefecture": "奈良県",
    "prefecture_kana": "ナラケン",
    "prefecture_code": 29,
    "city": "奈良市",
    "city_kana": "ナラシ",
    "town": "大保町",
    "town_kana": "オオボチョウ",
    "street": null,
    "office_name": null,
    "office_name_kana": null
  },
  "1237": {
    "postcode": "6301237",
    "prefecture": "奈良県",
    "prefecture_kana": "ナラケン",
    "prefecture_code": 29,
    "city": "奈良市",
    "city_kana": "ナラシ",
    "town": "柳生町",
    "town_kana": "ヤギュウチョウ",
    "street": null,
    "office_name": null,
    "office_name_kana": null
  },
  "1241": {
    "postcode": "6301241",
    "prefecture": "奈良県",
    "prefecture_kana": "ナラケン",
    "prefecture_code": 29,
    "city": "奈良市",
    "city_kana": "ナラシ",
    "town": "阪原町",
    "town_kana": "サカハラチョウ",
    "street": null,
    "office_name": null,
    "office_name_kana": null
  },
  "1242": {
    "postcode": "6301242",
    "prefecture": "奈良県",
    "prefecture_kana": "ナラケン",
    "prefecture_code": 29,
    "city": "奈良市",
    "city_kana": "ナラシ",
    "town": "大柳生町",
    "town_kana": "オオヤギュウチョウ",
    "street": null,
    "office_name": null,
    "office_name_kana": null
  },
  "1243": {
    "postcode": "6301243",
    "prefecture": "奈良県",
    "prefecture_kana": "ナラケン",
    "prefecture_code": 29,
    "city": "奈良市",
    "city_kana": "ナラシ",
    "town": "大平尾町",
    "town_kana": "オビラオチョウ",
    "street": null,
    "office_name": null,
    "office_name_kana": null
  },
  "1244": {
    "postcode": "6301244",
    "prefecture": "奈良県",
    "prefecture_kana": "ナラケン",
    "prefecture_code": 29,
    "city": "奈良市",
    "city_kana": "ナラシ",
    "town": "忍辱山町",
    "town_kana": "ニンニクセンチョウ",
    "street": null,
    "office_name": null,
    "office_name_kana": null
  },
  "1245": {
    "postcode": "6301245",
    "prefecture": "奈良県",
    "prefecture_kana": "ナラケン",
    "prefecture_code": 29,
    "city": "奈良市",
    "city_kana": "ナラシ",
    "town": "大慈仙町",
    "town_kana": "ダイジセンチョウ",
    "street": null,
    "office_name": null,
    "office_name_kana": null
  },
  "2151": {
    "postcode": "6302151",
    "prefecture": "奈良県",
    "prefecture_kana": "ナラケン",
    "prefecture_code": 29,
    "city": "奈良市",
    "city_kana": "ナラシ",
    "town": "水間町",
    "town_kana": "ミマチョウ",
    "street": null,
    "office_name": null,
    "office_name_kana": null
  },
  "2152": {
    "postcode": "6302152",
    "prefecture": "奈良県",
    "prefecture_kana": "ナラケン",
    "prefecture_code": 29,
    "city": "奈良市",
    "city_kana": "ナラシ",
    "town": "杣ノ川町",
    "town_kana": "ソマノカワチョウ",
    "street": null,
    "office_name": null,
    "office_name_kana": null
  },
  "2153": {
    "postcode": "6302153",
    "prefecture": "奈良県",
    "prefecture_kana": "ナラケン",
    "prefecture_code": 29,
    "city": "奈良市",
    "city_kana": "ナラシ",
    "town": "別所町",
    "town_kana": "ベッシヨチョウ",
    "street": null,
    "office_name": null,
    "office_name_kana": null
  },
  "2161": {
    "postcode": "6302161",
    "prefecture": "奈良県",
    "prefecture_kana": "ナラケン",
    "prefecture_code": 29,
    "city": "奈良市",
    "city_kana": "ナラシ",
    "town": "大野町",
    "town_kana": "オオノチョウ",
    "street": null,
    "office_name": null,
    "office_name_kana": null
  },
  "2162": {
    "postcode": "6302162",
    "prefecture": "奈良県",
    "prefecture_kana": "ナラケン",
    "prefecture_code": 29,
    "city": "奈良市",
    "city_kana": "ナラシ",
    "town": "中貫町",
    "town_kana": "ナカヅラチョウ",
    "street": null,
    "office_name": null,
    "office_name_kana": null
  },
  "2163": {
    "postcode": "6302163",
    "prefecture": "奈良県",
    "prefecture_kana": "ナラケン",
    "prefecture_code": 29,
    "city": "奈良市",
    "city_kana": "ナラシ",
    "town": "中之庄町",
    "town_kana": "ナカノショウチョウ",
    "street": null,
    "office_name": null,
    "office_name_kana": null
  },
  "2164": {
    "postcode": "6302164",
    "prefecture": "奈良県",
    "prefecture_kana": "ナラケン",
    "prefecture_code": 29,
    "city": "奈良市",
    "city_kana": "ナラシ",
    "town": "南田原町",
    "town_kana": "ミナミタワラチョウ",
    "street": null,
    "office_name": null,
    "office_name_kana": null
  },
  "2165": {
    "postcode": "6302165",
    "prefecture": "奈良県",
    "prefecture_kana": "ナラケン",
    "prefecture_code": 29,
    "city": "奈良市",
    "city_kana": "ナラシ",
    "town": "長谷町",
    "town_kana": "ナガタニチョウ",
    "street": null,
    "office_name": null,
    "office_name_kana": null
  },
  "2166": {
    "postcode": "6302166",
    "prefecture": "奈良県",
    "prefecture_kana": "ナラケン",
    "prefecture_code": 29,
    "city": "奈良市",
    "city_kana": "ナラシ",
    "town": "矢田原町",
    "town_kana": "ヤダワラチョウ",
    "street": null,
    "office_name": null,
    "office_name_kana": null
  },
  "2167": {
    "postcode": "6302167",
    "prefecture": "奈良県",
    "prefecture_kana": "ナラケン",
    "prefecture_code": 29,
    "city": "奈良市",
    "city_kana": "ナラシ",
    "town": "田原春日野町",
    "town_kana": "タワラカスガノチョウ",
    "street": null,
    "office_name": null,
    "office_name_kana": null
  },
  "2168": {
    "postcode": "6302168",
    "prefecture": "奈良県",
    "prefecture_kana": "ナラケン",
    "prefecture_code": 29,
    "city": "奈良市",
    "city_kana": "ナラシ",
    "town": "菩提山町",
    "town_kana": "ボダイセンチョウ",
    "street": null,
    "office_name": null,
    "office_name_kana": null
  },
  "2171": {
    "postcode": "6302171",
    "prefecture": "奈良県",
    "prefecture_kana": "ナラケン",
    "prefecture_code": 29,
    "city": "奈良市",
    "city_kana": "ナラシ",
    "town": "誓多林町",
    "town_kana": "セタリンチョウ",
    "street": null,
    "office_name": null,
    "office_name_kana": null
  },
  "2172": {
    "postcode": "6302172",
    "prefecture": "奈良県",
    "prefecture_kana": "ナラケン",
    "prefecture_code": 29,
    "city": "奈良市",
    "city_kana": "ナラシ",
    "town": "沓掛町",
    "town_kana": "クツカケチョウ",
    "street": null,
    "office_name": null,
    "office_name_kana": null
  },
  "2173": {
    "postcode": "6302173",
    "prefecture": "奈良県",
    "prefecture_kana": "ナラケン",
    "prefecture_code": 29,
    "city": "奈良市",
    "city_kana": "ナラシ",
    "town": "日笠町",
    "town_kana": "ヒガサチョウ",
    "street": null,
    "office_name": null,
    "office_name_kana": null
  },
  "2174": {
    "postcode": "6302174",
    "prefecture": "奈良県",
    "prefecture_kana": "ナラケン",
    "prefecture_code": 29,
    "city": "奈良市",
    "city_kana": "ナラシ",
    "town": "横田町",
    "town_kana": "ヨコタチョウ",
    "street": null,
    "office_name": null,
    "office_name_kana": null
  },
  "2175": {
    "postcode": "6302175",
    "prefecture": "奈良県",
    "prefecture_kana": "ナラケン",
    "prefecture_code": 29,
    "city": "奈良市",
    "city_kana": "ナラシ",
    "town": "茗荷町",
    "town_kana": "ミョウガチョウ",
    "street": null,
    "office_name": null,
    "office_name_kana": null
  },
  "2176": {
    "postcode": "6302176",
    "prefecture": "奈良県",
    "prefecture_kana": "ナラケン",
    "prefecture_code": 29,
    "city": "奈良市",
    "city_kana": "ナラシ",
    "town": "和田町",
    "town_kana": "ワダチョウ",
    "street": null,
    "office_name": null,
    "office_name_kana": null
  },
  "2177": {
    "postcode": "6302177",
    "prefecture": "奈良県",
    "prefecture_kana": "ナラケン",
    "prefecture_code": 29,
    "city": "奈良市",
    "city_kana": "ナラシ",
    "town": "此瀬町",
    "town_kana": "コノセチョウ",
    "street": null,
    "office_name": null,
    "office_name_kana": null
  },
  "2178": {
    "postcode": "6302178",
    "prefecture": "奈良県",
    "prefecture_kana": "ナラケン",
    "prefecture_code": 29,
    "city": "奈良市",
    "city_kana": "ナラシ",
    "town": "須山町",
    "town_kana": "スヤマチョウ",
    "street": null,
    "office_name": null,
    "office_name_kana": null
  },
  "2192": {
    "postcode": "6302192",
    "prefecture": "奈良県",
    "prefecture_kana": "ナラケン",
    "prefecture_code": 29,
    "city": "奈良市",
    "city_kana": "ナラシ",
    "town": "鹿野園町",
    "town_kana": "ロクヤオンチョウ",
    "street": "１５８４番地の２",
    "office_name": "社会福祉法人史明会　ボイス",
    "office_name_kana": "シヤカイフクシホウジンシメイカイ ボイス"
  },
  "2201": {
    "postcode": "6302201",
    "prefecture": "奈良県",
    "prefecture_kana": "ナラケン",
    "prefecture_code": 29,
    "city": "山辺郡山添村",
    "city_kana": "ヤマベグンヤマゾエムラ",
    "town": "峰寺",
    "town_kana": "ミネデラ",
    "street": null,
    "office_name": null,
    "office_name_kana": null
  },
  "2202": {
    "postcode": "6302202",
    "prefecture": "奈良県",
    "prefecture_kana": "ナラケン",
    "prefecture_code": 29,
    "city": "山辺郡山添村",
    "city_kana": "ヤマベグンヤマゾエムラ",
    "town": "的野",
    "town_kana": "マトノ",
    "street": null,
    "office_name": null,
    "office_name_kana": null
  },
  "2203": {
    "postcode": "6302203",
    "prefecture": "奈良県",
    "prefecture_kana": "ナラケン",
    "prefecture_code": 29,
    "city": "山辺郡山添村",
    "city_kana": "ヤマベグンヤマゾエムラ",
    "town": "松尾",
    "town_kana": "マツオ",
    "street": null,
    "office_name": null,
    "office_name_kana": null
  },
  "2204": {
    "postcode": "6302204",
    "prefecture": "奈良県",
    "prefecture_kana": "ナラケン",
    "prefecture_code": 29,
    "city": "山辺郡山添村",
    "city_kana": "ヤマベグンヤマゾエムラ",
    "town": "室津",
    "town_kana": "ムロヅ",
    "street": null,
    "office_name": null,
    "office_name_kana": null
  },
  "2205": {
    "postcode": "6302205",
    "prefecture": "奈良県",
    "prefecture_kana": "ナラケン",
    "prefecture_code": 29,
    "city": "山辺郡山添村",
    "city_kana": "ヤマベグンヤマゾエムラ",
    "town": "桐山",
    "town_kana": "キリヤマ",
    "street": null,
    "office_name": null,
    "office_name_kana": null
  },
  "2211": {
    "postcode": "6302211",
    "prefecture": "奈良県",
    "prefecture_kana": "ナラケン",
    "prefecture_code": 29,
    "city": "山辺郡山添村",
    "city_kana": "ヤマベグンヤマゾエムラ",
    "town": "北野",
    "town_kana": "キタノ",
    "street": null,
    "office_name": null,
    "office_name_kana": null
  },
  "2212": {
    "postcode": "6302212",
    "prefecture": "奈良県",
    "prefecture_kana": "ナラケン",
    "prefecture_code": 29,
    "city": "山辺郡山添村",
    "city_kana": "ヤマベグンヤマゾエムラ",
    "town": "大塩",
    "town_kana": "オオシオ",
    "street": null,
    "office_name": null,
    "office_name_kana": null
  },
  "2221": {
    "postcode": "6302221",
    "prefecture": "奈良県",
    "prefecture_kana": "ナラケン",
    "prefecture_code": 29,
    "city": "山辺郡山添村",
    "city_kana": "ヤマベグンヤマゾエムラ",
    "town": "箕輪",
    "town_kana": "ミノワ",
    "street": null,
    "office_name": null,
    "office_name_kana": null
  },
  "2222": {
    "postcode": "6302222",
    "prefecture": "奈良県",
    "prefecture_kana": "ナラケン",
    "prefecture_code": 29,
    "city": "山辺郡山添村",
    "city_kana": "ヤマベグンヤマゾエムラ",
    "town": "堂前",
    "town_kana": "ドウマエ",
    "street": null,
    "office_name": null,
    "office_name_kana": null
  },
  "2223": {
    "postcode": "6302223",
    "prefecture": "奈良県",
    "prefecture_kana": "ナラケン",
    "prefecture_code": 29,
    "city": "山辺郡山添村",
    "city_kana": "ヤマベグンヤマゾエムラ",
    "town": "三ケ谷",
    "town_kana": "ミカダニ",
    "street": null,
    "office_name": null,
    "office_name_kana": null
  },
  "2224": {
    "postcode": "6302224",
    "prefecture": "奈良県",
    "prefecture_kana": "ナラケン",
    "prefecture_code": 29,
    "city": "山辺郡山添村",
    "city_kana": "ヤマベグンヤマゾエムラ",
    "town": "助命",
    "town_kana": "ゼミョウ",
    "street": null,
    "office_name": null,
    "office_name_kana": null
  },
  "2225": {
    "postcode": "6302225",
    "prefecture": "奈良県",
    "prefecture_kana": "ナラケン",
    "prefecture_code": 29,
    "city": "山辺郡山添村",
    "city_kana": "ヤマベグンヤマゾエムラ",
    "town": "伏拝",
    "town_kana": "フシオガミ",
    "street": null,
    "office_name": null,
    "office_name_kana": null
  },
  "2231": {
    "postcode": "6302231",
    "prefecture": "奈良県",
    "prefecture_kana": "ナラケン",
    "prefecture_code": 29,
    "city": "山辺郡山添村",
    "city_kana": "ヤマベグンヤマゾエムラ",
    "town": "勝原",
    "town_kana": "カツハラ",
    "street": null,
    "office_name": null,
    "office_name_kana": null
  },
  "2232": {
    "postcode": "6302232",
    "prefecture": "奈良県",
    "prefecture_kana": "ナラケン",
    "prefecture_code": 29,
    "city": "山辺郡山添村",
    "city_kana": "ヤマベグンヤマゾエムラ",
    "town": "岩屋",
    "town_kana": "イワヤ",
    "street": null,
    "office_name": null,
    "office_name_kana": null
  },
  "2233": {
    "postcode": "6302233",
    "prefecture": "奈良県",
    "prefecture_kana": "ナラケン",
    "prefecture_code": 29,
    "city": "山辺郡山添村",
    "city_kana": "ヤマベグンヤマゾエムラ",
    "town": "毛原",
    "town_kana": "ケハラ",
    "street": null,
    "office_name": null,
    "office_name_kana": null
  },
  "2234": {
    "postcode": "6302234",
    "prefecture": "奈良県",
    "prefecture_kana": "ナラケン",
    "prefecture_code": 29,
    "city": "山辺郡山添村",
    "city_kana": "ヤマベグンヤマゾエムラ",
    "town": "切幡",
    "town_kana": "キリハタ",
    "street": null,
    "office_name": null,
    "office_name_kana": null
  },
  "2301": {
    "postcode": "6302301",
    "prefecture": "奈良県",
    "prefecture_kana": "ナラケン",
    "prefecture_code": 29,
    "city": "奈良市",
    "city_kana": "ナラシ",
    "town": "月ヶ瀬石打",
    "town_kana": "ツキガセイシウチ",
    "street": null,
    "office_name": null,
    "office_name_kana": null
  },
  "2302": {
    "postcode": "6302302",
    "prefecture": "奈良県",
    "prefecture_kana": "ナラケン",
    "prefecture_code": 29,
    "city": "奈良市",
    "city_kana": "ナラシ",
    "town": "月ヶ瀬尾山",
    "town_kana": "ツキガセオヤマ",
    "street": null,
    "office_name": null,
    "office_name_kana": null
  },
  "2303": {
    "postcode": "6302303",
    "prefecture": "奈良県",
    "prefecture_kana": "ナラケン",
    "prefecture_code": 29,
    "city": "奈良市",
    "city_kana": "ナラシ",
    "town": "月ヶ瀬長引",
    "town_kana": "ツキガセナガヒキ",
    "street": null,
    "office_name": null,
    "office_name_kana": null
  },
  "2304": {
    "postcode": "6302304",
    "prefecture": "奈良県",
    "prefecture_kana": "ナラケン",
    "prefecture_code": 29,
    "city": "奈良市",
    "city_kana": "ナラシ",
    "town": "月ヶ瀬嵩",
    "town_kana": "ツキガセダケ",
    "street": null,
    "office_name": null,
    "office_name_kana": null
  },
  "2305": {
    "postcode": "6302305",
    "prefecture": "奈良県",
    "prefecture_kana": "ナラケン",
    "prefecture_code": 29,
    "city": "奈良市",
    "city_kana": "ナラシ",
    "town": "月ヶ瀬月瀬",
    "town_kana": "ツキガセツキセ",
    "street": null,
    "office_name": null,
    "office_name_kana": null
  },
  "2306": {
    "postcode": "6302306",
    "prefecture": "奈良県",
    "prefecture_kana": "ナラケン",
    "prefecture_code": 29,
    "city": "奈良市",
    "city_kana": "ナラシ",
    "town": "月ヶ瀬桃香野",
    "town_kana": "ツキガセモモガノ",
    "street": null,
    "office_name": null,
    "office_name_kana": null
  },
  "2341": {
    "postcode": "6302341",
    "prefecture": "奈良県",
    "prefecture_kana": "ナラケン",
    "prefecture_code": 29,
    "city": "山辺郡山添村",
    "city_kana": "ヤマベグンヤマゾエムラ",
    "town": "遅瀬",
    "town_kana": "オソセ",
    "street": null,
    "office_name": null,
    "office_name_kana": null
  },
  "2342": {
    "postcode": "6302342",
    "prefecture": "奈良県",
    "prefecture_kana": "ナラケン",
    "prefecture_code": 29,
    "city": "山辺郡山添村",
    "city_kana": "ヤマベグンヤマゾエムラ",
    "town": "広代",
    "town_kana": "ヒロダイ",
    "street": null,
    "office_name": null,
    "office_name_kana": null
  },
  "2343": {
    "postcode": "6302343",
    "prefecture": "奈良県",
    "prefecture_kana": "ナラケン",
    "prefecture_code": 29,
    "city": "山辺郡山添村",
    "city_kana": "ヤマベグンヤマゾエムラ",
    "town": "春日",
    "town_kana": "カスガ",
    "street": null,
    "office_name": null,
    "office_name_kana": null
  },
  "2344": {
    "postcode": "6302344",
    "prefecture": "奈良県",
    "prefecture_kana": "ナラケン",
    "prefecture_code": 29,
    "city": "山辺郡山添村",
    "city_kana": "ヤマベグンヤマゾエムラ",
    "town": "大西",
    "town_kana": "オオニシ",
    "street": null,
    "office_name": null,
    "office_name_kana": null
  },
  "2345": {
    "postcode": "6302345",
    "prefecture": "奈良県",
    "prefecture_kana": "ナラケン",
    "prefecture_code": 29,
    "city": "山辺郡山添村",
    "city_kana": "ヤマベグンヤマゾエムラ",
    "town": "菅生",
    "town_kana": "スゴウ",
    "street": null,
    "office_name": null,
    "office_name_kana": null
  },
  "2346": {
    "postcode": "6302346",
    "prefecture": "奈良県",
    "prefecture_kana": "ナラケン",
    "prefecture_code": 29,
    "city": "山辺郡山添村",
    "city_kana": "ヤマベグンヤマゾエムラ",
    "town": "西波多",
    "town_kana": "ニシハタ",
    "street": null,
    "office_name": null,
    "office_name_kana": null
  },
  "2351": {
    "postcode": "6302351",
    "prefecture": "奈良県",
    "prefecture_kana": "ナラケン",
    "prefecture_code": 29,
    "city": "山辺郡山添村",
    "city_kana": "ヤマベグンヤマゾエムラ",
    "town": "中峰山",
    "town_kana": "チュウムザン",
    "street": null,
    "office_name": null,
    "office_name_kana": null
  },
  "2352": {
    "postcode": "6302352",
    "prefecture": "奈良県",
    "prefecture_kana": "ナラケン",
    "prefecture_code": 29,
    "city": "山辺郡山添村",
    "city_kana": "ヤマベグンヤマゾエムラ",
    "town": "中之庄",
    "town_kana": "ナカノショウ",
    "street": null,
    "office_name": null,
    "office_name_kana": null
  },
  "2353": {
    "postcode": "6302353",
    "prefecture": "奈良県",
    "prefecture_kana": "ナラケン",
    "prefecture_code": 29,
    "city": "山辺郡山添村",
    "city_kana": "ヤマベグンヤマゾエムラ",
    "town": "吉田",
    "town_kana": "ヨシダ",
    "street": null,
    "office_name": null,
    "office_name_kana": null
  },
  "2354": {
    "postcode": "6302354",
    "prefecture": "奈良県",
    "prefecture_kana": "ナラケン",
    "prefecture_code": 29,
    "city": "山辺郡山添村",
    "city_kana": "ヤマベグンヤマゾエムラ",
    "town": "広瀬",
    "town_kana": "ヒロセ",
    "street": null,
    "office_name": null,
    "office_name_kana": null
  },
  "2355": {
    "postcode": "6302355",
    "prefecture": "奈良県",
    "prefecture_kana": "ナラケン",
    "prefecture_code": 29,
    "city": "山辺郡山添村",
    "city_kana": "ヤマベグンヤマゾエムラ",
    "town": "鵜山",
    "town_kana": "ウヤマ",
    "street": null,
    "office_name": null,
    "office_name_kana": null
  },
  "2356": {
    "postcode": "6302356",
    "prefecture": "奈良県",
    "prefecture_kana": "ナラケン",
    "prefecture_code": 29,
    "city": "山辺郡山添村",
    "city_kana": "ヤマベグンヤマゾエムラ",
    "town": "片平",
    "town_kana": "カタヒラ",
    "street": null,
    "office_name": null,
    "office_name_kana": null
  },
  "2357": {
    "postcode": "6302357",
    "prefecture": "奈良県",
    "prefecture_kana": "ナラケン",
    "prefecture_code": 29,
    "city": "山辺郡山添村",
    "city_kana": "ヤマベグンヤマゾエムラ",
    "town": "葛尾",
    "town_kana": "クズオ",
    "street": null,
    "office_name": null,
    "office_name_kana": null
  },
  "8001": {
    "postcode": "6308001",
    "prefecture": "奈良県",
    "prefecture_kana": "ナラケン",
    "prefecture_code": 29,
    "city": "奈良市",
    "city_kana": "ナラシ",
    "town": "法華寺町",
    "town_kana": "ホッケジチョウ",
    "street": null,
    "office_name": null,
    "office_name_kana": null
  },
  "8002": {
    "postcode": "6308002",
    "prefecture": "奈良県",
    "prefecture_kana": "ナラケン",
    "prefecture_code": 29,
    "city": "奈良市",
    "city_kana": "ナラシ",
    "town": "二条町",
    "town_kana": "ニジョウチョウ",
    "street": null,
    "office_name": null,
    "office_name_kana": null
  },
  "8003": {
    "postcode": "6308003",
    "prefecture": "奈良県",
    "prefecture_kana": "ナラケン",
    "prefecture_code": 29,
    "city": "奈良市",
    "city_kana": "ナラシ",
    "town": "佐紀町",
    "town_kana": "サキチョウ",
    "street": null,
    "office_name": null,
    "office_name_kana": null
  },
  "8011": {
    "postcode": "6308011",
    "prefecture": "奈良県",
    "prefecture_kana": "ナラケン",
    "prefecture_code": 29,
    "city": "奈良市",
    "city_kana": "ナラシ",
    "town": "北新町",
    "town_kana": "キタシンマチ",
    "street": null,
    "office_name": null,
    "office_name_kana": null
  },
  "8012": {
    "postcode": "6308012",
    "prefecture": "奈良県",
    "prefecture_kana": "ナラケン",
    "prefecture_code": 29,
    "city": "奈良市",
    "city_kana": "ナラシ",
    "town": "二条大路南",
    "town_kana": "ニジョウオオジミナミ",
    "street": null,
    "office_name": null,
    "office_name_kana": null
  },
  "8013": {
    "postcode": "6308013",
    "prefecture": "奈良県",
    "prefecture_kana": "ナラケン",
    "prefecture_code": 29,
    "city": "奈良市",
    "city_kana": "ナラシ",
    "town": "三条大路",
    "town_kana": "サンジョウオオジ",
    "street": null,
    "office_name": null,
    "office_name_kana": null
  },
  "8014": {
    "postcode": "6308014",
    "prefecture": "奈良県",
    "prefecture_kana": "ナラケン",
    "prefecture_code": 29,
    "city": "奈良市",
    "city_kana": "ナラシ",
    "town": "四条大路",
    "town_kana": "シジョウオオジ",
    "street": null,
    "office_name": null,
    "office_name_kana": null
  },
  "8015": {
    "postcode": "6308015",
    "prefecture": "奈良県",
    "prefecture_kana": "ナラケン",
    "prefecture_code": 29,
    "city": "奈良市",
    "city_kana": "ナラシ",
    "town": "四条大路南町",
    "town_kana": "シジョウオオジミナミマチ",
    "street": null,
    "office_name": null,
    "office_name_kana": null
  },
  "8016": {
    "postcode": "6308016",
    "prefecture": "奈良県",
    "prefecture_kana": "ナラケン",
    "prefecture_code": 29,
    "city": "奈良市",
    "city_kana": "ナラシ",
    "town": "南新町",
    "town_kana": "ミナミシンチョウ",
    "street": null,
    "office_name": null,
    "office_name_kana": null
  },
  "8021": {
    "postcode": "6308021",
    "prefecture": "奈良県",
    "prefecture_kana": "ナラケン",
    "prefecture_code": 29,
    "city": "奈良市",
    "city_kana": "ナラシ",
    "town": "尼辻町",
    "town_kana": "アマガツジチョウ",
    "street": null,
    "office_name": null,
    "office_name_kana": null
  },
  "8022": {
    "postcode": "6308022",
    "prefecture": "奈良県",
    "prefecture_kana": "ナラケン",
    "prefecture_code": 29,
    "city": "奈良市",
    "city_kana": "ナラシ",
    "town": "尼辻南町",
    "town_kana": "アマガツジミナミマチ",
    "street": null,
    "office_name": null,
    "office_name_kana": null
  },
  "8023": {
    "postcode": "6308023",
    "prefecture": "奈良県",
    "prefecture_kana": "ナラケン",
    "prefecture_code": 29,
    "city": "奈良市",
    "city_kana": "ナラシ",
    "town": "尼辻西町",
    "town_kana": "アマガツジニシマチ",
    "street": null,
    "office_name": null,
    "office_name_kana": null
  },
  "8024": {
    "postcode": "6308024",
    "prefecture": "奈良県",
    "prefecture_kana": "ナラケン",
    "prefecture_code": 29,
    "city": "奈良市",
    "city_kana": "ナラシ",
    "town": "尼辻中町",
    "town_kana": "アマガツジナカマチ",
    "street": null,
    "office_name": null,
    "office_name_kana": null
  },
  "8025": {
    "postcode": "6308025",
    "prefecture": "奈良県",
    "prefecture_kana": "ナラケン",
    "prefecture_code": 29,
    "city": "奈良市",
    "city_kana": "ナラシ",
    "town": "尼辻北町",
    "town_kana": "アマガツジキタマチ",
    "street": null,
    "office_name": null,
    "office_name_kana": null
  },
  "8031": {
    "postcode": "6308031",
    "prefecture": "奈良県",
    "prefecture_kana": "ナラケン",
    "prefecture_code": 29,
    "city": "奈良市",
    "city_kana": "ナラシ",
    "town": "柏木町",
    "town_kana": "カシワギチョウ",
    "street": null,
    "office_name": null,
    "office_name_kana": null
  },
  "8032": {
    "postcode": "6308032",
    "prefecture": "奈良県",
    "prefecture_kana": "ナラケン",
    "prefecture_code": 29,
    "city": "奈良市",
    "city_kana": "ナラシ",
    "town": "五条町",
    "town_kana": "ゴジョウチョウ",
    "street": null,
    "office_name": null,
    "office_name_kana": null
  },
  "8033": {
    "postcode": "6308033",
    "prefecture": "奈良県",
    "prefecture_kana": "ナラケン",
    "prefecture_code": 29,
    "city": "奈良市",
    "city_kana": "ナラシ",
    "town": "五条",
    "town_kana": "ゴジョウ",
    "street": null,
    "office_name": null,
    "office_name_kana": null
  },
  "8034": {
    "postcode": "6308034",
    "prefecture": "奈良県",
    "prefecture_kana": "ナラケン",
    "prefecture_code": 29,
    "city": "奈良市",
    "city_kana": "ナラシ",
    "town": "五条西",
    "town_kana": "ゴジョウニシ",
    "street": null,
    "office_name": null,
    "office_name_kana": null
  },
  "8035": {
    "postcode": "6308035",
    "prefecture": "奈良県",
    "prefecture_kana": "ナラケン",
    "prefecture_code": 29,
    "city": "奈良市",
    "city_kana": "ナラシ",
    "town": "赤膚町",
    "town_kana": "アカハダチョウ",
    "street": null,
    "office_name": null,
    "office_name_kana": null
  },
  "8036": {
    "postcode": "6308036",
    "prefecture": "奈良県",
    "prefecture_kana": "ナラケン",
    "prefecture_code": 29,
    "city": "奈良市",
    "city_kana": "ナラシ",
    "town": "五条畑",
    "town_kana": "ゴジョウバタ",
    "street": null,
    "office_name": null,
    "office_name_kana": null
  },
  "8037": {
    "postcode": "6308037",
    "prefecture": "奈良県",
    "prefecture_kana": "ナラケン",
    "prefecture_code": 29,
    "city": "奈良市",
    "city_kana": "ナラシ",
    "town": "中町",
    "town_kana": "ナカマチ",
    "street": null,
    "office_name": null,
    "office_name_kana": null
  },
  "8041": {
    "postcode": "6308041",
    "prefecture": "奈良県",
    "prefecture_kana": "ナラケン",
    "prefecture_code": 29,
    "city": "奈良市",
    "city_kana": "ナラシ",
    "town": "六条町",
    "town_kana": "ロクジョウチョウ",
    "street": null,
    "office_name": null,
    "office_name_kana": null
  },
  "8042": {
    "postcode": "6308042",
    "prefecture": "奈良県",
    "prefecture_kana": "ナラケン",
    "prefecture_code": 29,
    "city": "奈良市",
    "city_kana": "ナラシ",
    "town": "西ノ京町",
    "town_kana": "ニシノキョウチョウ",
    "street": null,
    "office_name": null,
    "office_name_kana": null
  },
  "8043": {
    "postcode": "6308043",
    "prefecture": "奈良県",
    "prefecture_kana": "ナラケン",
    "prefecture_code": 29,
    "city": "奈良市",
    "city_kana": "ナラシ",
    "town": "六条",
    "town_kana": "ロクジョウ",
    "street": null,
    "office_name": null,
    "office_name_kana": null
  },
  "8044": {
    "postcode": "6308044",
    "prefecture": "奈良県",
    "prefecture_kana": "ナラケン",
    "prefecture_code": 29,
    "city": "奈良市",
    "city_kana": "ナラシ",
    "town": "六条西",
    "town_kana": "ロクジョウニシ",
    "street": null,
    "office_name": null,
    "office_name_kana": null
  },
  "8045": {
    "postcode": "6308045",
    "prefecture": "奈良県",
    "prefecture_kana": "ナラケン",
    "prefecture_code": 29,
    "city": "奈良市",
    "city_kana": "ナラシ",
    "town": "六条緑町",
    "town_kana": "ロクジョウミドリマチ",
    "street": null,
    "office_name": null,
    "office_name_kana": null
  },
  "8051": {
    "postcode": "6308051",
    "prefecture": "奈良県",
    "prefecture_kana": "ナラケン",
    "prefecture_code": 29,
    "city": "奈良市",
    "city_kana": "ナラシ",
    "town": "七条町",
    "town_kana": "シチジョウチョウ",
    "street": null,
    "office_name": null,
    "office_name_kana": null
  },
  "8052": {
    "postcode": "6308052",
    "prefecture": "奈良県",
    "prefecture_kana": "ナラケン",
    "prefecture_code": 29,
    "city": "奈良市",
    "city_kana": "ナラシ",
    "town": "七条東町",
    "town_kana": "シチジョウヒガシマチ",
    "street": null,
    "office_name": null,
    "office_name_kana": null
  },
  "8053": {
    "postcode": "6308053",
    "prefecture": "奈良県",
    "prefecture_kana": "ナラケン",
    "prefecture_code": 29,
    "city": "奈良市",
    "city_kana": "ナラシ",
    "town": "七条",
    "town_kana": "シチジョウ",
    "street": null,
    "office_name": null,
    "office_name_kana": null
  },
  "8054": {
    "postcode": "6308054",
    "prefecture": "奈良県",
    "prefecture_kana": "ナラケン",
    "prefecture_code": 29,
    "city": "奈良市",
    "city_kana": "ナラシ",
    "town": "七条西町",
    "town_kana": "シチジョウニシマチ",
    "street": null,
    "office_name": null,
    "office_name_kana": null
  },
  "8101": {
    "postcode": "6308101",
    "prefecture": "奈良県",
    "prefecture_kana": "ナラケン",
    "prefecture_code": 29,
    "city": "奈良市",
    "city_kana": "ナラシ",
    "town": "青山",
    "town_kana": "アオヤマ",
    "street": null,
    "office_name": null,
    "office_name_kana": null
  },
  "8102": {
    "postcode": "6308102",
    "prefecture": "奈良県",
    "prefecture_kana": "ナラケン",
    "prefecture_code": 29,
    "city": "奈良市",
    "city_kana": "ナラシ",
    "town": "般若寺町",
    "town_kana": "ハンニャジチョウ",
    "street": null,
    "office_name": null,
    "office_name_kana": null
  },
  "8103": {
    "postcode": "6308103",
    "prefecture": "奈良県",
    "prefecture_kana": "ナラケン",
    "prefecture_code": 29,
    "city": "奈良市",
    "city_kana": "ナラシ",
    "town": "興善院町",
    "town_kana": "コウゼンインチョウ",
    "street": null,
    "office_name": null,
    "office_name_kana": null
  },
  "8104": {
    "postcode": "6308104",
    "prefecture": "奈良県",
    "prefecture_kana": "ナラケン",
    "prefecture_code": 29,
    "city": "奈良市",
    "city_kana": "ナラシ",
    "town": "奈良阪町",
    "town_kana": "ナラザカチョウ",
    "street": null,
    "office_name": null,
    "office_name_kana": null
  },
  "8105": {
    "postcode": "6308105",
    "prefecture": "奈良県",
    "prefecture_kana": "ナラケン",
    "prefecture_code": 29,
    "city": "奈良市",
    "city_kana": "ナラシ",
    "town": "佐保台",
    "town_kana": "サホダイ",
    "street": null,
    "office_name": null,
    "office_name_kana": null
  },
  "8106": {
    "postcode": "6308106",
    "prefecture": "奈良県",
    "prefecture_kana": "ナラケン",
    "prefecture_code": 29,
    "city": "奈良市",
    "city_kana": "ナラシ",
    "town": "佐保台西町",
    "town_kana": "サホダイニシマチ",
    "street": null,
    "office_name": null,
    "office_name_kana": null
  },
  "8107": {
    "postcode": "6308107",
    "prefecture": "奈良県",
    "prefecture_kana": "ナラケン",
    "prefecture_code": 29,
    "city": "奈良市",
    "city_kana": "ナラシ",
    "town": "奈保町",
    "town_kana": "ナホチョウ",
    "street": null,
    "office_name": null,
    "office_name_kana": null
  },
  "8108": {
    "postcode": "6308108",
    "prefecture": "奈良県",
    "prefecture_kana": "ナラケン",
    "prefecture_code": 29,
    "city": "奈良市",
    "city_kana": "ナラシ",
    "town": "法蓮佐保山",
    "town_kana": "ホウレンサホヤマ",
    "street": null,
    "office_name": null,
    "office_name_kana": null
  },
  "8111": {
    "postcode": "6308111",
    "prefecture": "奈良県",
    "prefecture_kana": "ナラケン",
    "prefecture_code": 29,
    "city": "奈良市",
    "city_kana": "ナラシ",
    "town": "半田開町",
    "town_kana": "ハンダビラキチョウ",
    "street": null,
    "office_name": null,
    "office_name_kana": null
  },
  "8112": {
    "postcode": "6308112",
    "prefecture": "奈良県",
    "prefecture_kana": "ナラケン",
    "prefecture_code": 29,
    "city": "奈良市",
    "city_kana": "ナラシ",
    "town": "多門町",
    "town_kana": "タモンチョウ",
    "street": null,
    "office_name": null,
    "office_name_kana": null
  },
  "8113": {
    "postcode": "6308113",
    "prefecture": "奈良県",
    "prefecture_kana": "ナラケン",
    "prefecture_code": 29,
    "city": "奈良市",
    "city_kana": "ナラシ",
    "town": "法蓮町",
    "town_kana": "ホウレンチョウ",
    "street": null,
    "office_name": null,
    "office_name_kana": null
  },
  "8114": {
    "postcode": "6308114",
    "prefecture": "奈良県",
    "prefecture_kana": "ナラケン",
    "prefecture_code": 29,
    "city": "奈良市",
    "city_kana": "ナラシ",
    "town": "芝辻町",
    "town_kana": "シバツジチョウ",
    "street": null,
    "office_name": null,
    "office_name_kana": null
  },
  "8115": {
    "postcode": "6308115",
    "prefecture": "奈良県",
    "prefecture_kana": "ナラケン",
    "prefecture_code": 29,
    "city": "奈良市",
    "city_kana": "ナラシ",
    "town": "大宮町",
    "town_kana": "オオミヤチョウ",
    "street": null,
    "office_name": null,
    "office_name_kana": null
  },
  "8121": {
    "postcode": "6308121",
    "prefecture": "奈良県",
    "prefecture_kana": "ナラケン",
    "prefecture_code": 29,
    "city": "奈良市",
    "city_kana": "ナラシ",
    "town": "三条宮前町",
    "town_kana": "サンジョウミヤマエチョウ",
    "street": null,
    "office_name": null,
    "office_name_kana": null
  },
  "8122": {
    "postcode": "6308122",
    "prefecture": "奈良県",
    "prefecture_kana": "ナラケン",
    "prefecture_code": 29,
    "city": "奈良市",
    "city_kana": "ナラシ",
    "town": "三条本町",
    "town_kana": "サンジョウホンマチ",
    "street": null,
    "office_name": null,
    "office_name_kana": null
  },
  "8123": {
    "postcode": "6308123",
    "prefecture": "奈良県",
    "prefecture_kana": "ナラケン",
    "prefecture_code": 29,
    "city": "奈良市",
    "city_kana": "ナラシ",
    "town": "三条大宮町",
    "town_kana": "サンジョウオオミヤチョウ",
    "street": null,
    "office_name": null,
    "office_name_kana": null
  },
  "8124": {
    "postcode": "6308124",
    "prefecture": "奈良県",
    "prefecture_kana": "ナラケン",
    "prefecture_code": 29,
    "city": "奈良市",
    "city_kana": "ナラシ",
    "town": "三条桧町",
    "town_kana": "サンジョウヒノキマチ",
    "street": null,
    "office_name": null,
    "office_name_kana": null
  },
  "8125": {
    "postcode": "6308125",
    "prefecture": "奈良県",
    "prefecture_kana": "ナラケン",
    "prefecture_code": 29,
    "city": "奈良市",
    "city_kana": "ナラシ",
    "town": "三条川西町",
    "town_kana": "サンジョウカワニシチョウ",
    "street": null,
    "office_name": null,
    "office_name_kana": null
  },
  "8126": {
    "postcode": "6308126",
    "prefecture": "奈良県",
    "prefecture_kana": "ナラケン",
    "prefecture_code": 29,
    "city": "奈良市",
    "city_kana": "ナラシ",
    "town": "三条栄町",
    "town_kana": "サンジョウサカエマチ",
    "street": null,
    "office_name": null,
    "office_name_kana": null
  },
  "8127": {
    "postcode": "6308127",
    "prefecture": "奈良県",
    "prefecture_kana": "ナラケン",
    "prefecture_code": 29,
    "city": "奈良市",
    "city_kana": "ナラシ",
    "town": "三条添川町",
    "town_kana": "サンジョウソエカワチョウ",
    "street": null,
    "office_name": null,
    "office_name_kana": null
  },
  "8131": {
    "postcode": "6308131",
    "prefecture": "奈良県",
    "prefecture_kana": "ナラケン",
    "prefecture_code": 29,
    "city": "奈良市",
    "city_kana": "ナラシ",
    "town": "大森町",
    "town_kana": "オオモリチョウ",
    "street": null,
    "office_name": null,
    "office_name_kana": null
  },
  "8132": {
    "postcode": "6308132",
    "prefecture": "奈良県",
    "prefecture_kana": "ナラケン",
    "prefecture_code": 29,
    "city": "奈良市",
    "city_kana": "ナラシ",
    "town": "大森西町",
    "town_kana": "オオモリニシマチ",
    "street": null,
    "office_name": null,
    "office_name_kana": null
  },
  "8133": {
    "postcode": "6308133",
    "prefecture": "奈良県",
    "prefecture_kana": "ナラケン",
    "prefecture_code": 29,
    "city": "奈良市",
    "city_kana": "ナラシ",
    "town": "大安寺",
    "town_kana": "ダイアンジ",
    "street": null,
    "office_name": null,
    "office_name_kana": null
  },
  "8134": {
    "postcode": "6308134",
    "prefecture": "奈良県",
    "prefecture_kana": "ナラケン",
    "prefecture_code": 29,
    "city": "奈良市",
    "city_kana": "ナラシ",
    "town": "大安寺町",
    "town_kana": "ダイアンジチョウ",
    "street": null,
    "office_name": null,
    "office_name_kana": null
  },
  "8135": {
    "postcode": "6308135",
    "prefecture": "奈良県",
    "prefecture_kana": "ナラケン",
    "prefecture_code": 29,
    "city": "奈良市",
    "city_kana": "ナラシ",
    "town": "大安寺西",
    "town_kana": "ダイアンジニシ",
    "street": null,
    "office_name": null,
    "office_name_kana": null
  },
  "8136": {
    "postcode": "6308136",
    "prefecture": "奈良県",
    "prefecture_kana": "ナラケン",
    "prefecture_code": 29,
    "city": "奈良市",
    "city_kana": "ナラシ",
    "town": "恋の窪",
    "town_kana": "コイノクボ",
    "street": null,
    "office_name": null,
    "office_name_kana": null
  },
  "8137": {
    "postcode": "6308137",
    "prefecture": "奈良県",
    "prefecture_kana": "ナラケン",
    "prefecture_code": 29,
    "city": "奈良市",
    "city_kana": "ナラシ",
    "town": "恋の窪東町",
    "town_kana": "コイノクボヒガシマチ",
    "street": null,
    "office_name": null,
    "office_name_kana": null
  },
  "8141": {
    "postcode": "6308141",
    "prefecture": "奈良県",
    "prefecture_kana": "ナラケン",
    "prefecture_code": 29,
    "city": "奈良市",
    "city_kana": "ナラシ",
    "town": "南京終町",
    "town_kana": "ミナミキョウバテチョウ",
    "street": null,
    "office_name": null,
    "office_name_kana": null
  },
  "8142": {
    "postcode": "6308142",
    "prefecture": "奈良県",
    "prefecture_kana": "ナラケン",
    "prefecture_code": 29,
    "city": "奈良市",
    "city_kana": "ナラシ",
    "town": "肘塚町",
    "town_kana": "カイノヅカチョウ",
    "street": null,
    "office_name": null,
    "office_name_kana": null
  },
  "8143": {
    "postcode": "6308143",
    "prefecture": "奈良県",
    "prefecture_kana": "ナラケン",
    "prefecture_code": 29,
    "city": "奈良市",
    "city_kana": "ナラシ",
    "town": "桂木町",
    "town_kana": "カツラギチョウ",
    "street": null,
    "office_name": null,
    "office_name_kana": null
  },
  "8144": {
    "postcode": "6308144",
    "prefecture": "奈良県",
    "prefecture_kana": "ナラケン",
    "prefecture_code": 29,
    "city": "奈良市",
    "city_kana": "ナラシ",
    "town": "東九条町",
    "town_kana": "トウクジョウチョウ",
    "street": null,
    "office_name": null,
    "office_name_kana": null
  },
  "8145": {
    "postcode": "6308145",
    "prefecture": "奈良県",
    "prefecture_kana": "ナラケン",
    "prefecture_code": 29,
    "city": "奈良市",
    "city_kana": "ナラシ",
    "town": "八条",
    "town_kana": "ハチジョウ",
    "street": null,
    "office_name": null,
    "office_name_kana": null
  },
  "8146": {
    "postcode": "6308146",
    "prefecture": "奈良県",
    "prefecture_kana": "ナラケン",
    "prefecture_code": 29,
    "city": "奈良市",
    "city_kana": "ナラシ",
    "town": "八条町",
    "town_kana": "ハチジョウチョウ",
    "street": null,
    "office_name": null,
    "office_name_kana": null
  },
  "8201": {
    "postcode": "6308201",
    "prefecture": "奈良県",
    "prefecture_kana": "ナラケン",
    "prefecture_code": 29,
    "city": "奈良市",
    "city_kana": "ナラシ",
    "town": "中ノ川町",
    "town_kana": "ナカノカワチョウ",
    "street": null,
    "office_name": null,
    "office_name_kana": null
  },
  "8202": {
    "postcode": "6308202",
    "prefecture": "奈良県",
    "prefecture_kana": "ナラケン",
    "prefecture_code": 29,
    "city": "奈良市",
    "city_kana": "ナラシ",
    "town": "川上町",
    "town_kana": "カワカミチョウ",
    "street": null,
    "office_name": null,
    "office_name_kana": null
  },
  "8203": {
    "postcode": "6308203",
    "prefecture": "奈良県",
    "prefecture_kana": "ナラケン",
    "prefecture_code": 29,
    "city": "奈良市",
    "city_kana": "ナラシ",
    "town": "東之阪町",
    "town_kana": "ヒガシノサカチョウ",
    "street": null,
    "office_name": null,
    "office_name_kana": null
  },
  "8204": {
    "postcode": "6308204",
    "prefecture": "奈良県",
    "prefecture_kana": "ナラケン",
    "prefecture_code": 29,
    "city": "奈良市",
    "city_kana": "ナラシ",
    "town": "北御門町",
    "town_kana": "キタミカドチョウ",
    "street": null,
    "office_name": null,
    "office_name_kana": null
  },
  "8205": {
    "postcode": "6308205",
    "prefecture": "奈良県",
    "prefecture_kana": "ナラケン",
    "prefecture_code": 29,
    "city": "奈良市",
    "city_kana": "ナラシ",
    "town": "今在家町",
    "town_kana": "イマザイケチョウ",
    "street": null,
    "office_name": null,
    "office_name_kana": null
  },
  "8206": {
    "postcode": "6308206",
    "prefecture": "奈良県",
    "prefecture_kana": "ナラケン",
    "prefecture_code": 29,
    "city": "奈良市",
    "city_kana": "ナラシ",
    "town": "手貝町",
    "town_kana": "テガイチョウ",
    "street": null,
    "office_name": null,
    "office_name_kana": null
  },
  "8207": {
    "postcode": "6308207",
    "prefecture": "奈良県",
    "prefecture_kana": "ナラケン",
    "prefecture_code": 29,
    "city": "奈良市",
    "city_kana": "ナラシ",
    "town": "今小路町",
    "town_kana": "イマコウジチョウ",
    "street": null,
    "office_name": null,
    "office_name_kana": null
  },
  "8208": {
    "postcode": "6308208",
    "prefecture": "奈良県",
    "prefecture_kana": "ナラケン",
    "prefecture_code": 29,
    "city": "奈良市",
    "city_kana": "ナラシ",
    "town": "水門町",
    "town_kana": "スイモンチョウ",
    "street": null,
    "office_name": null,
    "office_name_kana": null
  },
  "8211": {
    "postcode": "6308211",
    "prefecture": "奈良県",
    "prefecture_kana": "ナラケン",
    "prefecture_code": 29,
    "city": "奈良市",
    "city_kana": "ナラシ",
    "town": "雑司町",
    "town_kana": "ゾウシチョウ",
    "street": null,
    "office_name": null,
    "office_name_kana": null
  },
  "8212": {
    "postcode": "6308212",
    "prefecture": "奈良県",
    "prefecture_kana": "ナラケン",
    "prefecture_code": 29,
    "city": "奈良市",
    "city_kana": "ナラシ",
    "town": "春日野町",
    "town_kana": "カスガノチョウ",
    "street": null,
    "office_name": null,
    "office_name_kana": null
  },
  "8213": {
    "postcode": "6308213",
    "prefecture": "奈良県",
    "prefecture_kana": "ナラケン",
    "prefecture_code": 29,
    "city": "奈良市",
    "city_kana": "ナラシ",
    "town": "登大路町",
    "town_kana": "ノボリオオジチョウ",
    "street": null,
    "office_name": null,
    "office_name_kana": null
  },
  "8214": {
    "postcode": "6308214",
    "prefecture": "奈良県",
    "prefecture_kana": "ナラケン",
    "prefecture_code": 29,
    "city": "奈良市",
    "city_kana": "ナラシ",
    "town": "東向北町",
    "town_kana": "ヒガシムキキタマチ",
    "street": null,
    "office_name": null,
    "office_name_kana": null
  },
  "8215": {
    "postcode": "6308215",
    "prefecture": "奈良県",
    "prefecture_kana": "ナラケン",
    "prefecture_code": 29,
    "city": "奈良市",
    "city_kana": "ナラシ",
    "town": "東向中町",
    "town_kana": "ヒガシムキナカマチ",
    "street": null,
    "office_name": null,
    "office_name_kana": null
  },
  "8216": {
    "postcode": "6308216",
    "prefecture": "奈良県",
    "prefecture_kana": "ナラケン",
    "prefecture_code": 29,
    "city": "奈良市",
    "city_kana": "ナラシ",
    "town": "東向南町",
    "town_kana": "ヒガシムキミナミマチ",
    "street": null,
    "office_name": null,
    "office_name_kana": null
  },
  "8217": {
    "postcode": "6308217",
    "prefecture": "奈良県",
    "prefecture_kana": "ナラケン",
    "prefecture_code": 29,
    "city": "奈良市",
    "city_kana": "ナラシ",
    "town": "橋本町",
    "town_kana": "ハシモトチョウ",
    "street": null,
    "office_name": null,
    "office_name_kana": null
  },
  "8218": {
    "postcode": "6308218",
    "prefecture": "奈良県",
    "prefecture_kana": "ナラケン",
    "prefecture_code": 29,
    "city": "奈良市",
    "city_kana": "ナラシ",
    "town": "樽井町",
    "town_kana": "タルイチョウ",
    "street": null,
    "office_name": null,
    "office_name_kana": null
  },
  "8221": {
    "postcode": "6308221",
    "prefecture": "奈良県",
    "prefecture_kana": "ナラケン",
    "prefecture_code": 29,
    "city": "奈良市",
    "city_kana": "ナラシ",
    "town": "元林院町",
    "town_kana": "ガンリインチョウ",
    "street": null,
    "office_name": null,
    "office_name_kana": null
  },
  "8222": {
    "postcode": "6308222",
    "prefecture": "奈良県",
    "prefecture_kana": "ナラケン",
    "prefecture_code": 29,
    "city": "奈良市",
    "city_kana": "ナラシ",
    "town": "餅飯殿町",
    "town_kana": "モチイドノチョウ",
    "street": null,
    "office_name": null,
    "office_name_kana": null
  },
  "8223": {
    "postcode": "6308223",
    "prefecture": "奈良県",
    "prefecture_kana": "ナラケン",
    "prefecture_code": 29,
    "city": "奈良市",
    "city_kana": "ナラシ",
    "town": "角振新屋町",
    "town_kana": "ツノフリシンヤチョウ",
    "street": null,
    "office_name": null,
    "office_name_kana": null
  },
  "8224": {
    "postcode": "6308224",
    "prefecture": "奈良県",
    "prefecture_kana": "ナラケン",
    "prefecture_code": 29,
    "city": "奈良市",
    "city_kana": "ナラシ",
    "town": "角振町",
    "town_kana": "ツノフリチョウ",
    "street": null,
    "office_name": null,
    "office_name_kana": null
  },
  "8225": {
    "postcode": "6308225",
    "prefecture": "奈良県",
    "prefecture_kana": "ナラケン",
    "prefecture_code": 29,
    "city": "奈良市",
    "city_kana": "ナラシ",
    "town": "西御門町",
    "town_kana": "ニシミカドチョウ",
    "street": null,
    "office_name": null,
    "office_name_kana": null
  },
  "8226": {
    "postcode": "6308226",
    "prefecture": "奈良県",
    "prefecture_kana": "ナラケン",
    "prefecture_code": 29,
    "city": "奈良市",
    "city_kana": "ナラシ",
    "town": "小西町",
    "town_kana": "コニシチョウ",
    "street": null,
    "office_name": null,
    "office_name_kana": null
  },
  "8227": {
    "postcode": "6308227",
    "prefecture": "奈良県",
    "prefecture_kana": "ナラケン",
    "prefecture_code": 29,
    "city": "奈良市",
    "city_kana": "ナラシ",
    "town": "林小路町",
    "town_kana": "ハヤシコウジチョウ",
    "street": null,
    "office_name": null,
    "office_name_kana": null
  },
  "8228": {
    "postcode": "6308228",
    "prefecture": "奈良県",
    "prefecture_kana": "ナラケン",
    "prefecture_code": 29,
    "city": "奈良市",
    "city_kana": "ナラシ",
    "town": "上三条町",
    "town_kana": "カミサンジョウチョウ",
    "street": null,
    "office_name": null,
    "office_name_kana": null
  },
  "8231": {
    "postcode": "6308231",
    "prefecture": "奈良県",
    "prefecture_kana": "ナラケン",
    "prefecture_code": 29,
    "city": "奈良市",
    "city_kana": "ナラシ",
    "town": "本子守町",
    "town_kana": "ホンコモリチョウ",
    "street": null,
    "office_name": null,
    "office_name_kana": null
  },
  "8232": {
    "postcode": "6308232",
    "prefecture": "奈良県",
    "prefecture_kana": "ナラケン",
    "prefecture_code": 29,
    "city": "奈良市",
    "city_kana": "ナラシ",
    "town": "北向町",
    "town_kana": "キタムキチョウ",
    "street": null,
    "office_name": null,
    "office_name_kana": null
  },
  "8233": {
    "postcode": "6308233",
    "prefecture": "奈良県",
    "prefecture_kana": "ナラケン",
    "prefecture_code": 29,
    "city": "奈良市",
    "city_kana": "ナラシ",
    "town": "小川町",
    "town_kana": "オガワチョウ",
    "street": null,
    "office_name": null,
    "office_name_kana": null
  },
  "8234": {
    "postcode": "6308234",
    "prefecture": "奈良県",
    "prefecture_kana": "ナラケン",
    "prefecture_code": 29,
    "city": "奈良市",
    "city_kana": "ナラシ",
    "town": "寺町",
    "town_kana": "テラマチ",
    "street": null,
    "office_name": null,
    "office_name_kana": null
  },
  "8235": {
    "postcode": "6308235",
    "prefecture": "奈良県",
    "prefecture_kana": "ナラケン",
    "prefecture_code": 29,
    "city": "奈良市",
    "city_kana": "ナラシ",
    "town": "奥子守町",
    "town_kana": "オクコモリチョウ",
    "street": null,
    "office_name": null,
    "office_name_kana": null
  },
  "8236": {
    "postcode": "6308236",
    "prefecture": "奈良県",
    "prefecture_kana": "ナラケン",
    "prefecture_code": 29,
    "city": "奈良市",
    "city_kana": "ナラシ",
    "town": "下三条町",
    "town_kana": "シモサンジョウチョウ",
    "street": null,
    "office_name": null,
    "office_name_kana": null
  },
  "8237": {
    "postcode": "6308237",
    "prefecture": "奈良県",
    "prefecture_kana": "ナラケン",
    "prefecture_code": 29,
    "city": "奈良市",
    "city_kana": "ナラシ",
    "town": "中筋町",
    "town_kana": "ナカスジチョウ",
    "street": null,
    "office_name": null,
    "office_name_kana": null
  },
  "8238": {
    "postcode": "6308238",
    "prefecture": "奈良県",
    "prefecture_kana": "ナラケン",
    "prefecture_code": 29,
    "city": "奈良市",
    "city_kana": "ナラシ",
    "town": "高天市町",
    "town_kana": "タカマイチチョウ",
    "street": null,
    "office_name": null,
    "office_name_kana": null
  },
  "8241": {
    "postcode": "6308241",
    "prefecture": "奈良県",
    "prefecture_kana": "ナラケン",
    "prefecture_code": 29,
    "city": "奈良市",
    "city_kana": "ナラシ",
    "town": "高天町",
    "town_kana": "タカマチョウ",
    "street": null,
    "office_name": null,
    "office_name_kana": null
  },
  "8242": {
    "postcode": "6308242",
    "prefecture": "奈良県",
    "prefecture_kana": "ナラケン",
    "prefecture_code": 29,
    "city": "奈良市",
    "city_kana": "ナラシ",
    "town": "漢国町",
    "town_kana": "カンゴクチョウ",
    "street": null,
    "office_name": null,
    "office_name_kana": null
  },
  "8243": {
    "postcode": "6308243",
    "prefecture": "奈良県",
    "prefecture_kana": "ナラケン",
    "prefecture_code": 29,
    "city": "奈良市",
    "city_kana": "ナラシ",
    "town": "今辻子町",
    "town_kana": "イマヅシチョウ",
    "street": null,
    "office_name": null,
    "office_name_kana": null
  },
  "8244": {
    "postcode": "6308244",
    "prefecture": "奈良県",
    "prefecture_kana": "ナラケン",
    "prefecture_code": 29,
    "city": "奈良市",
    "city_kana": "ナラシ",
    "town": "三条町",
    "town_kana": "サンジョウチョウ",
    "street": null,
    "office_name": null,
    "office_name_kana": null
  },
  "8245": {
    "postcode": "6308245",
    "prefecture": "奈良県",
    "prefecture_kana": "ナラケン",
    "prefecture_code": 29,
    "city": "奈良市",
    "city_kana": "ナラシ",
    "town": "西之阪町",
    "town_kana": "ニシノサカチョウ",
    "street": null,
    "office_name": null,
    "office_name_kana": null
  },
  "8246": {
    "postcode": "6308246",
    "prefecture": "奈良県",
    "prefecture_kana": "ナラケン",
    "prefecture_code": 29,
    "city": "奈良市",
    "city_kana": "ナラシ",
    "town": "油阪地方町",
    "town_kana": "アブラサカジカタチョウ",
    "street": null,
    "office_name": null,
    "office_name_kana": null
  },
  "8247": {
    "postcode": "6308247",
    "prefecture": "奈良県",
    "prefecture_kana": "ナラケン",
    "prefecture_code": 29,
    "city": "奈良市",
    "city_kana": "ナラシ",
    "town": "油阪町",
    "town_kana": "アブラサカチョウ",
    "street": null,
    "office_name": null,
    "office_name_kana": null
  },
  "8248": {
    "postcode": "6308248",
    "prefecture": "奈良県",
    "prefecture_kana": "ナラケン",
    "prefecture_code": 29,
    "city": "奈良市",
    "city_kana": "ナラシ",
    "town": "西新在家町",
    "town_kana": "ニシシンザイケチョウ",
    "street": null,
    "office_name": null,
    "office_name_kana": null
  },
  "8251": {
    "postcode": "6308251",
    "prefecture": "奈良県",
    "prefecture_kana": "ナラケン",
    "prefecture_code": 29,
    "city": "奈良市",
    "city_kana": "ナラシ",
    "town": "西新在家号所町",
    "town_kana": "ニシシンザイケゴウショチョウ",
    "street": null,
    "office_name": null,
    "office_name_kana": null
  },
  "8252": {
    "postcode": "6308252",
    "prefecture": "奈良県",
    "prefecture_kana": "ナラケン",
    "prefecture_code": 29,
    "city": "奈良市",
    "city_kana": "ナラシ",
    "town": "北小路町",
    "town_kana": "キタコウジチョウ",
    "street": null,
    "office_name": null,
    "office_name_kana": null
  },
  "8253": {
    "postcode": "6308253",
    "prefecture": "奈良県",
    "prefecture_kana": "ナラケン",
    "prefecture_code": 29,
    "city": "奈良市",
    "city_kana": "ナラシ",
    "town": "内侍原町",
    "town_kana": "ナシハラチョウ",
    "street": null,
    "office_name": null,
    "office_name_kana": null
  },
  "8254": {
    "postcode": "6308254",
    "prefecture": "奈良県",
    "prefecture_kana": "ナラケン",
    "prefecture_code": 29,
    "city": "奈良市",
    "city_kana": "ナラシ",
    "town": "菖蒲池町",
    "town_kana": "ショウブイケチョウ",
    "street": null,
    "office_name": null,
    "office_name_kana": null
  },
  "8255": {
    "postcode": "6308255",
    "prefecture": "奈良県",
    "prefecture_kana": "ナラケン",
    "prefecture_code": 29,
    "city": "奈良市",
    "city_kana": "ナラシ",
    "town": "阪新屋町",
    "town_kana": "サカノシンヤチョウ",
    "street": null,
    "office_name": null,
    "office_name_kana": null
  },
  "8256": {
    "postcode": "6308256",
    "prefecture": "奈良県",
    "prefecture_kana": "ナラケン",
    "prefecture_code": 29,
    "city": "奈良市",
    "city_kana": "ナラシ",
    "town": "奥芝町",
    "town_kana": "オクシバチョウ",
    "street": null,
    "office_name": null,
    "office_name_kana": null
  },
  "8257": {
    "postcode": "6308257",
    "prefecture": "奈良県",
    "prefecture_kana": "ナラケン",
    "prefecture_code": 29,
    "city": "奈良市",
    "city_kana": "ナラシ",
    "town": "畑中町",
    "town_kana": "ハタケナカチョウ",
    "street": null,
    "office_name": null,
    "office_name_kana": null
  },
  "8258": {
    "postcode": "6308258",
    "prefecture": "奈良県",
    "prefecture_kana": "ナラケン",
    "prefecture_code": 29,
    "city": "奈良市",
    "city_kana": "ナラシ",
    "town": "船橋町",
    "town_kana": "フナハシチョウ",
    "street": null,
    "office_name": null,
    "office_name_kana": null
  },
  "8261": {
    "postcode": "6308261",
    "prefecture": "奈良県",
    "prefecture_kana": "ナラケン",
    "prefecture_code": 29,
    "city": "奈良市",
    "city_kana": "ナラシ",
    "town": "北市町",
    "town_kana": "キタイチチョウ",
    "street": null,
    "office_name": null,
    "office_name_kana": null
  },
  "8262": {
    "postcode": "6308262",
    "prefecture": "奈良県",
    "prefecture_kana": "ナラケン",
    "prefecture_code": 29,
    "city": "奈良市",
    "city_kana": "ナラシ",
    "town": "北袋町",
    "town_kana": "キタフクロチョウ",
    "street": null,
    "office_name": null,
    "office_name_kana": null
  },
  "8263": {
    "postcode": "6308263",
    "prefecture": "奈良県",
    "prefecture_kana": "ナラケン",
    "prefecture_code": 29,
    "city": "奈良市",
    "city_kana": "ナラシ",
    "town": "北魚屋西町",
    "town_kana": "キタウオヤニシマチ",
    "street": null,
    "office_name": null,
    "office_name_kana": null
  },
  "8264": {
    "postcode": "6308264",
    "prefecture": "奈良県",
    "prefecture_kana": "ナラケン",
    "prefecture_code": 29,
    "city": "奈良市",
    "city_kana": "ナラシ",
    "town": "鍋屋町",
    "town_kana": "ナベヤチョウ",
    "street": null,
    "office_name": null,
    "office_name_kana": null
  },
  "8265": {
    "postcode": "6308265",
    "prefecture": "奈良県",
    "prefecture_kana": "ナラケン",
    "prefecture_code": 29,
    "city": "奈良市",
    "city_kana": "ナラシ",
    "town": "宿院町",
    "town_kana": "シュクインチョウ",
    "street": null,
    "office_name": null,
    "office_name_kana": null
  },
  "8266": {
    "postcode": "6308266",
    "prefecture": "奈良県",
    "prefecture_kana": "ナラケン",
    "prefecture_code": 29,
    "city": "奈良市",
    "city_kana": "ナラシ",
    "town": "花芝町",
    "town_kana": "ハナシバチョウ",
    "street": null,
    "office_name": null,
    "office_name_kana": null
  },
  "8267": {
    "postcode": "6308267",
    "prefecture": "奈良県",
    "prefecture_kana": "ナラケン",
    "prefecture_code": 29,
    "city": "奈良市",
    "city_kana": "ナラシ",
    "town": "大豆山突抜町",
    "town_kana": "マメヤマツキヌケチョウ",
    "street": null,
    "office_name": null,
    "office_name_kana": null
  },
  "8268": {
    "postcode": "6308268",
    "prefecture": "奈良県",
    "prefecture_kana": "ナラケン",
    "prefecture_code": 29,
    "city": "奈良市",
    "city_kana": "ナラシ",
    "town": "大豆山町",
    "town_kana": "マメヤマチョウ",
    "street": null,
    "office_name": null,
    "office_name_kana": null
  },
  "8271": {
    "postcode": "6308271",
    "prefecture": "奈良県",
    "prefecture_kana": "ナラケン",
    "prefecture_code": 29,
    "city": "奈良市",
    "city_kana": "ナラシ",
    "town": "坊屋敷町",
    "town_kana": "ボウヤシキチョウ",
    "street": null,
    "office_name": null,
    "office_name_kana": null
  },
  "8272": {
    "postcode": "6308272",
    "prefecture": "奈良県",
    "prefecture_kana": "ナラケン",
    "prefecture_code": 29,
    "city": "奈良市",
    "city_kana": "ナラシ",
    "town": "東新在家町",
    "town_kana": "ヒガシシンザイケチョウ",
    "street": null,
    "office_name": null,
    "office_name_kana": null
  },
  "8273": {
    "postcode": "6308273",
    "prefecture": "奈良県",
    "prefecture_kana": "ナラケン",
    "prefecture_code": 29,
    "city": "奈良市",
    "city_kana": "ナラシ",
    "town": "押上町",
    "town_kana": "オシアゲチョウ",
    "street": null,
    "office_name": null,
    "office_name_kana": null
  },
  "8274": {
    "postcode": "6308274",
    "prefecture": "奈良県",
    "prefecture_kana": "ナラケン",
    "prefecture_code": 29,
    "city": "奈良市",
    "city_kana": "ナラシ",
    "town": "北半田東町",
    "town_kana": "キタハンダヒガシマチ",
    "street": null,
    "office_name": null,
    "office_name_kana": null
  },
  "8275": {
    "postcode": "6308275",
    "prefecture": "奈良県",
    "prefecture_kana": "ナラケン",
    "prefecture_code": 29,
    "city": "奈良市",
    "city_kana": "ナラシ",
    "town": "北半田中町",
    "town_kana": "キタハンダナカマチ",
    "street": null,
    "office_name": null,
    "office_name_kana": null
  },
  "8276": {
    "postcode": "6308276",
    "prefecture": "奈良県",
    "prefecture_kana": "ナラケン",
    "prefecture_code": 29,
    "city": "奈良市",
    "city_kana": "ナラシ",
    "town": "北半田西町",
    "town_kana": "キタハンダニシマチ",
    "street": null,
    "office_name": null,
    "office_name_kana": null
  },
  "8277": {
    "postcode": "6308277",
    "prefecture": "奈良県",
    "prefecture_kana": "ナラケン",
    "prefecture_code": 29,
    "city": "奈良市",
    "city_kana": "ナラシ",
    "town": "南半田東町",
    "town_kana": "ミナミハンダヒガシマチ",
    "street": null,
    "office_name": null,
    "office_name_kana": null
  },
  "8281": {
    "postcode": "6308281",
    "prefecture": "奈良県",
    "prefecture_kana": "ナラケン",
    "prefecture_code": 29,
    "city": "奈良市",
    "city_kana": "ナラシ",
    "town": "南半田中町",
    "town_kana": "ミナミハンダナカマチ",
    "street": null,
    "office_name": null,
    "office_name_kana": null
  },
  "8282": {
    "postcode": "6308282",
    "prefecture": "奈良県",
    "prefecture_kana": "ナラケン",
    "prefecture_code": 29,
    "city": "奈良市",
    "city_kana": "ナラシ",
    "town": "南半田西町",
    "town_kana": "ミナミハンダニシマチ",
    "street": null,
    "office_name": null,
    "office_name_kana": null
  },
  "8283": {
    "postcode": "6308283",
    "prefecture": "奈良県",
    "prefecture_kana": "ナラケン",
    "prefecture_code": 29,
    "city": "奈良市",
    "city_kana": "ナラシ",
    "town": "油留木町",
    "town_kana": "ユルギチョウ",
    "street": null,
    "office_name": null,
    "office_name_kana": null
  },
  "8284": {
    "postcode": "6308284",
    "prefecture": "奈良県",
    "prefecture_kana": "ナラケン",
    "prefecture_code": 29,
    "city": "奈良市",
    "city_kana": "ナラシ",
    "town": "半田横町",
    "town_kana": "ハンダヨコマチ",
    "street": null,
    "office_name": null,
    "office_name_kana": null
  },
  "8285": {
    "postcode": "6308285",
    "prefecture": "奈良県",
    "prefecture_kana": "ナラケン",
    "prefecture_code": 29,
    "city": "奈良市",
    "city_kana": "ナラシ",
    "town": "北魚屋東町",
    "town_kana": "キタウオヤヒガシマチ",
    "street": null,
    "office_name": null,
    "office_name_kana": null
  },
  "8286": {
    "postcode": "6308286",
    "prefecture": "奈良県",
    "prefecture_kana": "ナラケン",
    "prefecture_code": 29,
    "city": "奈良市",
    "city_kana": "ナラシ",
    "town": "東包永町",
    "town_kana": "ヒガシカネナガチョウ",
    "street": null,
    "office_name": null,
    "office_name_kana": null
  },
  "8287": {
    "postcode": "6308287",
    "prefecture": "奈良県",
    "prefecture_kana": "ナラケン",
    "prefecture_code": 29,
    "city": "奈良市",
    "city_kana": "ナラシ",
    "town": "西包永町",
    "town_kana": "ニシカネナガチョウ",
    "street": null,
    "office_name": null,
    "office_name_kana": null
  },
  "8288": {
    "postcode": "6308288",
    "prefecture": "奈良県",
    "prefecture_kana": "ナラケン",
    "prefecture_code": 29,
    "city": "奈良市",
    "city_kana": "ナラシ",
    "town": "東笹鉾町",
    "town_kana": "ヒガシササボコチョウ",
    "street": null,
    "office_name": null,
    "office_name_kana": null
  },
  "8291": {
    "postcode": "6308291",
    "prefecture": "奈良県",
    "prefecture_kana": "ナラケン",
    "prefecture_code": 29,
    "city": "奈良市",
    "city_kana": "ナラシ",
    "town": "西笹鉾町",
    "town_kana": "ニシササボコチョウ",
    "street": null,
    "office_name": null,
    "office_name_kana": null
  },
  "8292": {
    "postcode": "6308292",
    "prefecture": "奈良県",
    "prefecture_kana": "ナラケン",
    "prefecture_code": 29,
    "city": "奈良市",
    "city_kana": "ナラシ",
    "town": "中御門町",
    "town_kana": "ナカミカドチョウ",
    "street": null,
    "office_name": null,
    "office_name_kana": null
  },
  "8293": {
    "postcode": "6308293",
    "prefecture": "奈良県",
    "prefecture_kana": "ナラケン",
    "prefecture_code": 29,
    "city": "奈良市",
    "city_kana": "ナラシ",
    "town": "川久保町",
    "town_kana": "カワクボチョウ",
    "street": null,
    "office_name": null,
    "office_name_kana": null
  },
  "8294": {
    "postcode": "6308294",
    "prefecture": "奈良県",
    "prefecture_kana": "ナラケン",
    "prefecture_code": 29,
    "city": "奈良市",
    "city_kana": "ナラシ",
    "town": "押小路町",
    "town_kana": "オシコウジチョウ",
    "street": null,
    "office_name": null,
    "office_name_kana": null
  },
  "8295": {
    "postcode": "6308295",
    "prefecture": "奈良県",
    "prefecture_kana": "ナラケン",
    "prefecture_code": 29,
    "city": "奈良市",
    "city_kana": "ナラシ",
    "town": "半田突抜町",
    "town_kana": "ハンダツキヌケチョウ",
    "street": null,
    "office_name": null,
    "office_name_kana": null
  },
  "8296": {
    "postcode": "6308296",
    "prefecture": "奈良県",
    "prefecture_kana": "ナラケン",
    "prefecture_code": 29,
    "city": "奈良市",
    "city_kana": "ナラシ",
    "town": "後藤町",
    "town_kana": "ゴトウチョウ",
    "street": null,
    "office_name": null,
    "office_name_kana": null
  },
  "8297": {
    "postcode": "6308297",
    "prefecture": "奈良県",
    "prefecture_kana": "ナラケン",
    "prefecture_code": 29,
    "city": "奈良市",
    "city_kana": "ナラシ",
    "town": "北川端町",
    "town_kana": "キタカワバタチョウ",
    "street": null,
    "office_name": null,
    "office_name_kana": null
  },
  "8301": {
    "postcode": "6308301",
    "prefecture": "奈良県",
    "prefecture_kana": "ナラケン",
    "prefecture_code": 29,
    "city": "奈良市",
    "city_kana": "ナラシ",
    "town": "高畑町",
    "town_kana": "タカバタケチョウ",
    "street": null,
    "office_name": null,
    "office_name_kana": null
  },
  "8302": {
    "postcode": "6308302",
    "prefecture": "奈良県",
    "prefecture_kana": "ナラケン",
    "prefecture_code": 29,
    "city": "奈良市",
    "city_kana": "ナラシ",
    "town": "白毫寺町",
    "town_kana": "ビャクゴウジチョウ",
    "street": null,
    "office_name": null,
    "office_name_kana": null
  },
  "8303": {
    "postcode": "6308303",
    "prefecture": "奈良県",
    "prefecture_kana": "ナラケン",
    "prefecture_code": 29,
    "city": "奈良市",
    "city_kana": "ナラシ",
    "town": "南紀寺町",
    "town_kana": "ミナミキデラチョウ",
    "street": null,
    "office_name": null,
    "office_name_kana": null
  },
  "8304": {
    "postcode": "6308304",
    "prefecture": "奈良県",
    "prefecture_kana": "ナラケン",
    "prefecture_code": 29,
    "city": "奈良市",
    "city_kana": "ナラシ",
    "town": "南肘塚町",
    "town_kana": "ミナミカイノヅカチョウ",
    "street": null,
    "office_name": null,
    "office_name_kana": null
  },
  "8305": {
    "postcode": "6308305",
    "prefecture": "奈良県",
    "prefecture_kana": "ナラケン",
    "prefecture_code": 29,
    "city": "奈良市",
    "city_kana": "ナラシ",
    "town": "東紀寺町",
    "town_kana": "ヒガシキデラチョウ",
    "street": null,
    "office_name": null,
    "office_name_kana": null
  },
  "8306": {
    "postcode": "6308306",
    "prefecture": "奈良県",
    "prefecture_kana": "ナラケン",
    "prefecture_code": 29,
    "city": "奈良市",
    "city_kana": "ナラシ",
    "town": "紀寺町",
    "town_kana": "キデラチョウ",
    "street": null,
    "office_name": null,
    "office_name_kana": null
  },
  "8307": {
    "postcode": "6308307",
    "prefecture": "奈良県",
    "prefecture_kana": "ナラケン",
    "prefecture_code": 29,
    "city": "奈良市",
    "city_kana": "ナラシ",
    "town": "西紀寺町",
    "town_kana": "ニシキデラチョウ",
    "street": null,
    "office_name": null,
    "office_name_kana": null
  },
  "8311": {
    "postcode": "6308311",
    "prefecture": "奈良県",
    "prefecture_kana": "ナラケン",
    "prefecture_code": 29,
    "city": "奈良市",
    "city_kana": "ナラシ",
    "town": "十輪院畑町",
    "town_kana": "ジュウリインハタチョウ",
    "street": null,
    "office_name": null,
    "office_name_kana": null
  },
  "8312": {
    "postcode": "6308312",
    "prefecture": "奈良県",
    "prefecture_kana": "ナラケン",
    "prefecture_code": 29,
    "city": "奈良市",
    "city_kana": "ナラシ",
    "town": "十輪院町",
    "town_kana": "ジュウリインチョウ",
    "street": null,
    "office_name": null,
    "office_name_kana": null
  },
  "8313": {
    "postcode": "6308313",
    "prefecture": "奈良県",
    "prefecture_kana": "ナラケン",
    "prefecture_code": 29,
    "city": "奈良市",
    "city_kana": "ナラシ",
    "town": "川之上町",
    "town_kana": "カワノカミチョウ",
    "street": null,
    "office_name": null,
    "office_name_kana": null
  },
  "8314": {
    "postcode": "6308314",
    "prefecture": "奈良県",
    "prefecture_kana": "ナラケン",
    "prefecture_code": 29,
    "city": "奈良市",
    "city_kana": "ナラシ",
    "town": "川之上突抜町",
    "town_kana": "カワノカミツキヌケチョウ",
    "street": null,
    "office_name": null,
    "office_name_kana": null
  },
  "8315": {
    "postcode": "6308315",
    "prefecture": "奈良県",
    "prefecture_kana": "ナラケン",
    "prefecture_code": 29,
    "city": "奈良市",
    "city_kana": "ナラシ",
    "town": "中辻町",
    "town_kana": "ナカツジチョウ",
    "street": null,
    "office_name": null,
    "office_name_kana": null
  },
  "8316": {
    "postcode": "6308316",
    "prefecture": "奈良県",
    "prefecture_kana": "ナラケン",
    "prefecture_code": 29,
    "city": "奈良市",
    "city_kana": "ナラシ",
    "town": "築地之内町",
    "town_kana": "ツジノウチチョウ",
    "street": null,
    "office_name": null,
    "office_name_kana": null
  },
  "8317": {
    "postcode": "6308317",
    "prefecture": "奈良県",
    "prefecture_kana": "ナラケン",
    "prefecture_code": 29,
    "city": "奈良市",
    "city_kana": "ナラシ",
    "town": "井上町",
    "town_kana": "イノウエチョウ",
    "street": null,
    "office_name": null,
    "office_name_kana": null
  },
  "8318": {
    "postcode": "6308318",
    "prefecture": "奈良県",
    "prefecture_kana": "ナラケン",
    "prefecture_code": 29,
    "city": "奈良市",
    "city_kana": "ナラシ",
    "town": "納院町",
    "town_kana": "ノウインチョウ",
    "street": null,
    "office_name": null,
    "office_name_kana": null
  },
  "8321": {
    "postcode": "6308321",
    "prefecture": "奈良県",
    "prefecture_kana": "ナラケン",
    "prefecture_code": 29,
    "city": "奈良市",
    "city_kana": "ナラシ",
    "town": "薬師堂町",
    "town_kana": "ヤクシドウチョウ",
    "street": null,
    "office_name": null,
    "office_name_kana": null
  },
  "8322": {
    "postcode": "6308322",
    "prefecture": "奈良県",
    "prefecture_kana": "ナラケン",
    "prefecture_code": 29,
    "city": "奈良市",
    "city_kana": "ナラシ",
    "town": "北京終町",
    "town_kana": "キタキョウバテチョウ",
    "street": null,
    "office_name": null,
    "office_name_kana": null
  },
  "8323": {
    "postcode": "6308323",
    "prefecture": "奈良県",
    "prefecture_kana": "ナラケン",
    "prefecture_code": 29,
    "city": "奈良市",
    "city_kana": "ナラシ",
    "town": "京終地方東側町",
    "town_kana": "キョウバテジカタヒガシガワチョウ",
    "street": null,
    "office_name": null,
    "office_name_kana": null
  },
  "8324": {
    "postcode": "6308324",
    "prefecture": "奈良県",
    "prefecture_kana": "ナラケン",
    "prefecture_code": 29,
    "city": "奈良市",
    "city_kana": "ナラシ",
    "town": "京終地方西側町",
    "town_kana": "キョウバテジカタニシガワチョウ",
    "street": null,
    "office_name": null,
    "office_name_kana": null
  },
  "8325": {
    "postcode": "6308325",
    "prefecture": "奈良県",
    "prefecture_kana": "ナラケン",
    "prefecture_code": 29,
    "city": "奈良市",
    "city_kana": "ナラシ",
    "town": "西木辻町",
    "town_kana": "ニシキツジチョウ",
    "street": null,
    "office_name": null,
    "office_name_kana": null
  },
  "8326": {
    "postcode": "6308326",
    "prefecture": "奈良県",
    "prefecture_kana": "ナラケン",
    "prefecture_code": 29,
    "city": "奈良市",
    "city_kana": "ナラシ",
    "town": "瓦堂町",
    "town_kana": "カワラドウチョウ",
    "street": null,
    "office_name": null,
    "office_name_kana": null
  },
  "8327": {
    "postcode": "6308327",
    "prefecture": "奈良県",
    "prefecture_kana": "ナラケン",
    "prefecture_code": 29,
    "city": "奈良市",
    "city_kana": "ナラシ",
    "town": "東木辻町",
    "town_kana": "ヒガシキツジチョウ",
    "street": null,
    "office_name": null,
    "office_name_kana": null
  },
  "8328": {
    "postcode": "6308328",
    "prefecture": "奈良県",
    "prefecture_kana": "ナラケン",
    "prefecture_code": 29,
    "city": "奈良市",
    "city_kana": "ナラシ",
    "town": "花園町",
    "town_kana": "ハナゾノチョウ",
    "street": null,
    "office_name": null,
    "office_name_kana": null
  },
  "8331": {
    "postcode": "6308331",
    "prefecture": "奈良県",
    "prefecture_kana": "ナラケン",
    "prefecture_code": 29,
    "city": "奈良市",
    "city_kana": "ナラシ",
    "town": "三棟町",
    "town_kana": "ミツムネチョウ",
    "street": null,
    "office_name": null,
    "office_name_kana": null
  },
  "8332": {
    "postcode": "6308332",
    "prefecture": "奈良県",
    "prefecture_kana": "ナラケン",
    "prefecture_code": 29,
    "city": "奈良市",
    "city_kana": "ナラシ",
    "town": "元興寺町",
    "town_kana": "ガンゴウジチョウ",
    "street": null,
    "office_name": null,
    "office_name_kana": null
  },
  "8333": {
    "postcode": "6308333",
    "prefecture": "奈良県",
    "prefecture_kana": "ナラケン",
    "prefecture_code": 29,
    "city": "奈良市",
    "city_kana": "ナラシ",
    "town": "中新屋町",
    "town_kana": "ナカノシンヤチョウ",
    "street": null,
    "office_name": null,
    "office_name_kana": null
  },
  "8334": {
    "postcode": "6308334",
    "prefecture": "奈良県",
    "prefecture_kana": "ナラケン",
    "prefecture_code": 29,
    "city": "奈良市",
    "city_kana": "ナラシ",
    "town": "西新屋町",
    "town_kana": "ニシノシンヤチョウ",
    "street": null,
    "office_name": null,
    "office_name_kana": null
  },
  "8335": {
    "postcode": "6308335",
    "prefecture": "奈良県",
    "prefecture_kana": "ナラケン",
    "prefecture_code": 29,
    "city": "奈良市",
    "city_kana": "ナラシ",
    "town": "鳴川町",
    "town_kana": "ナルカワチョウ",
    "street": null,
    "office_name": null,
    "office_name_kana": null
  },
  "8336": {
    "postcode": "6308336",
    "prefecture": "奈良県",
    "prefecture_kana": "ナラケン",
    "prefecture_code": 29,
    "city": "奈良市",
    "city_kana": "ナラシ",
    "town": "高御門町",
    "town_kana": "タカミカドチョウ",
    "street": null,
    "office_name": null,
    "office_name_kana": null
  },
  "8337": {
    "postcode": "6308337",
    "prefecture": "奈良県",
    "prefecture_kana": "ナラケン",
    "prefecture_code": 29,
    "city": "奈良市",
    "city_kana": "ナラシ",
    "town": "脇戸町",
    "town_kana": "ワキドチョウ",
    "street": null,
    "office_name": null,
    "office_name_kana": null
  },
  "8338": {
    "postcode": "6308338",
    "prefecture": "奈良県",
    "prefecture_kana": "ナラケン",
    "prefecture_code": 29,
    "city": "奈良市",
    "city_kana": "ナラシ",
    "town": "陰陽町",
    "town_kana": "インヨウチョウ",
    "street": null,
    "office_name": null,
    "office_name_kana": null
  },
  "8341": {
    "postcode": "6308341",
    "prefecture": "奈良県",
    "prefecture_kana": "ナラケン",
    "prefecture_code": 29,
    "city": "奈良市",
    "city_kana": "ナラシ",
    "town": "南城戸町",
    "town_kana": "ミナミジョウドチョウ",
    "street": null,
    "office_name": null,
    "office_name_kana": null
  },
  "8342": {
    "postcode": "6308342",
    "prefecture": "奈良県",
    "prefecture_kana": "ナラケン",
    "prefecture_code": 29,
    "city": "奈良市",
    "city_kana": "ナラシ",
    "town": "南袋町",
    "town_kana": "ミナミフクロチョウ",
    "street": null,
    "office_name": null,
    "office_name_kana": null
  },
  "8343": {
    "postcode": "6308343",
    "prefecture": "奈良県",
    "prefecture_kana": "ナラケン",
    "prefecture_code": 29,
    "city": "奈良市",
    "city_kana": "ナラシ",
    "town": "椿井町",
    "town_kana": "ツバイチョウ",
    "street": null,
    "office_name": null,
    "office_name_kana": null
  },
  "8344": {
    "postcode": "6308344",
    "prefecture": "奈良県",
    "prefecture_kana": "ナラケン",
    "prefecture_code": 29,
    "city": "奈良市",
    "city_kana": "ナラシ",
    "town": "東城戸町",
    "town_kana": "ヒガシジョウドチョウ",
    "street": null,
    "office_name": null,
    "office_name_kana": null
  },
  "8345": {
    "postcode": "6308345",
    "prefecture": "奈良県",
    "prefecture_kana": "ナラケン",
    "prefecture_code": 29,
    "city": "奈良市",
    "city_kana": "ナラシ",
    "town": "西城戸町",
    "town_kana": "ニシジョウドチョウ",
    "street": null,
    "office_name": null,
    "office_name_kana": null
  },
  "8346": {
    "postcode": "6308346",
    "prefecture": "奈良県",
    "prefecture_kana": "ナラケン",
    "prefecture_code": 29,
    "city": "奈良市",
    "city_kana": "ナラシ",
    "town": "阿字万字町",
    "town_kana": "アゼマメチョウ",
    "street": null,
    "office_name": null,
    "office_name_kana": null
  },
  "8347": {
    "postcode": "6308347",
    "prefecture": "奈良県",
    "prefecture_kana": "ナラケン",
    "prefecture_code": 29,
    "city": "奈良市",
    "city_kana": "ナラシ",
    "town": "南中町",
    "town_kana": "ミナミナカマチ",
    "street": null,
    "office_name": null,
    "office_name_kana": null
  },
  "8348": {
    "postcode": "6308348",
    "prefecture": "奈良県",
    "prefecture_kana": "ナラケン",
    "prefecture_code": 29,
    "city": "奈良市",
    "city_kana": "ナラシ",
    "town": "小太郎町",
    "town_kana": "コタロウマチ",
    "street": null,
    "office_name": null,
    "office_name_kana": null
  },
  "8351": {
    "postcode": "6308351",
    "prefecture": "奈良県",
    "prefecture_kana": "ナラケン",
    "prefecture_code": 29,
    "city": "奈良市",
    "city_kana": "ナラシ",
    "town": "南風呂町",
    "town_kana": "ミナミフロチョウ",
    "street": null,
    "office_name": null,
    "office_name_kana": null
  },
  "8352": {
    "postcode": "6308352",
    "prefecture": "奈良県",
    "prefecture_kana": "ナラケン",
    "prefecture_code": 29,
    "city": "奈良市",
    "city_kana": "ナラシ",
    "town": "北風呂町",
    "town_kana": "キタフロチョウ",
    "street": null,
    "office_name": null,
    "office_name_kana": null
  },
  "8353": {
    "postcode": "6308353",
    "prefecture": "奈良県",
    "prefecture_kana": "ナラケン",
    "prefecture_code": 29,
    "city": "奈良市",
    "city_kana": "ナラシ",
    "town": "柳町",
    "town_kana": "ヤナギマチ",
    "street": null,
    "office_name": null,
    "office_name_kana": null
  },
  "8354": {
    "postcode": "6308354",
    "prefecture": "奈良県",
    "prefecture_kana": "ナラケン",
    "prefecture_code": 29,
    "city": "奈良市",
    "city_kana": "ナラシ",
    "town": "馬場町",
    "town_kana": "ババチョウ",
    "street": null,
    "office_name": null,
    "office_name_kana": null
  },
  "8355": {
    "postcode": "6308355",
    "prefecture": "奈良県",
    "prefecture_kana": "ナラケン",
    "prefecture_code": 29,
    "city": "奈良市",
    "city_kana": "ナラシ",
    "town": "南魚屋町",
    "town_kana": "ミナミウオヤチョウ",
    "street": null,
    "office_name": null,
    "office_name_kana": null
  },
  "8356": {
    "postcode": "6308356",
    "prefecture": "奈良県",
    "prefecture_kana": "ナラケン",
    "prefecture_code": 29,
    "city": "奈良市",
    "city_kana": "ナラシ",
    "town": "南新町",
    "town_kana": "ミナミシンマチ",
    "street": null,
    "office_name": null,
    "office_name_kana": null
  },
  "8357": {
    "postcode": "6308357",
    "prefecture": "奈良県",
    "prefecture_kana": "ナラケン",
    "prefecture_code": 29,
    "city": "奈良市",
    "city_kana": "ナラシ",
    "town": "杉ヶ町",
    "town_kana": "スルガマチ",
    "street": null,
    "office_name": null,
    "office_name_kana": null
  },
  "8361": {
    "postcode": "6308361",
    "prefecture": "奈良県",
    "prefecture_kana": "ナラケン",
    "prefecture_code": 29,
    "city": "奈良市",
    "city_kana": "ナラシ",
    "town": "池之町",
    "town_kana": "イケノチョウ",
    "street": null,
    "office_name": null,
    "office_name_kana": null
  },
  "8362": {
    "postcode": "6308362",
    "prefecture": "奈良県",
    "prefecture_kana": "ナラケン",
    "prefecture_code": 29,
    "city": "奈良市",
    "city_kana": "ナラシ",
    "town": "東寺林町",
    "town_kana": "ヒガシテラバヤシチョウ",
    "street": null,
    "office_name": null,
    "office_name_kana": null
  },
  "8363": {
    "postcode": "6308363",
    "prefecture": "奈良県",
    "prefecture_kana": "ナラケン",
    "prefecture_code": 29,
    "city": "奈良市",
    "city_kana": "ナラシ",
    "town": "勝南院町",
    "town_kana": "ショウナミチョウ",
    "street": null,
    "office_name": null,
    "office_name_kana": null
  },
  "8364": {
    "postcode": "6308364",
    "prefecture": "奈良県",
    "prefecture_kana": "ナラケン",
    "prefecture_code": 29,
    "city": "奈良市",
    "city_kana": "ナラシ",
    "town": "北室町",
    "town_kana": "キタムロチョウ",
    "street": null,
    "office_name": null,
    "office_name_kana": null
  },
  "8365": {
    "postcode": "6308365",
    "prefecture": "奈良県",
    "prefecture_kana": "ナラケン",
    "prefecture_code": 29,
    "city": "奈良市",
    "city_kana": "ナラシ",
    "town": "下御門町",
    "town_kana": "シモミカドチョウ",
    "street": null,
    "office_name": null,
    "office_name_kana": null
  },
  "8371": {
    "postcode": "6308371",
    "prefecture": "奈良県",
    "prefecture_kana": "ナラケン",
    "prefecture_code": 29,
    "city": "奈良市",
    "city_kana": "ナラシ",
    "town": "光明院町",
    "town_kana": "コウミョウインチョウ",
    "street": null,
    "office_name": null,
    "office_name_kana": null
  },
  "8372": {
    "postcode": "6308372",
    "prefecture": "奈良県",
    "prefecture_kana": "ナラケン",
    "prefecture_code": 29,
    "city": "奈良市",
    "city_kana": "ナラシ",
    "town": "西寺林町",
    "town_kana": "ニシテラバヤシチョウ",
    "street": null,
    "office_name": null,
    "office_name_kana": null
  },
  "8373": {
    "postcode": "6308373",
    "prefecture": "奈良県",
    "prefecture_kana": "ナラケン",
    "prefecture_code": 29,
    "city": "奈良市",
    "city_kana": "ナラシ",
    "town": "南市町",
    "town_kana": "ミナミイチチョウ",
    "street": null,
    "office_name": null,
    "office_name_kana": null
  },
  "8374": {
    "postcode": "6308374",
    "prefecture": "奈良県",
    "prefecture_kana": "ナラケン",
    "prefecture_code": 29,
    "city": "奈良市",
    "city_kana": "ナラシ",
    "town": "今御門町",
    "town_kana": "イマミカドチョウ",
    "street": null,
    "office_name": null,
    "office_name_kana": null
  },
  "8381": {
    "postcode": "6308381",
    "prefecture": "奈良県",
    "prefecture_kana": "ナラケン",
    "prefecture_code": 29,
    "city": "奈良市",
    "city_kana": "ナラシ",
    "town": "福智院町",
    "town_kana": "フクチインチョウ",
    "street": null,
    "office_name": null,
    "office_name_kana": null
  },
  "8382": {
    "postcode": "6308382",
    "prefecture": "奈良県",
    "prefecture_kana": "ナラケン",
    "prefecture_code": 29,
    "city": "奈良市",
    "city_kana": "ナラシ",
    "town": "公納堂町",
    "town_kana": "クノウドウチョウ",
    "street": null,
    "office_name": null,
    "office_name_kana": null
  },
  "8383": {
    "postcode": "6308383",
    "prefecture": "奈良県",
    "prefecture_kana": "ナラケン",
    "prefecture_code": 29,
    "city": "奈良市",
    "city_kana": "ナラシ",
    "town": "毘沙門町",
    "town_kana": "ビシャモンチョウ",
    "street": null,
    "office_name": null,
    "office_name_kana": null
  },
  "8384": {
    "postcode": "6308384",
    "prefecture": "奈良県",
    "prefecture_kana": "ナラケン",
    "prefecture_code": 29,
    "city": "奈良市",
    "city_kana": "ナラシ",
    "town": "芝新屋町",
    "town_kana": "シバノシンヤチョウ",
    "street": null,
    "office_name": null,
    "office_name_kana": null
  },
  "8385": {
    "postcode": "6308385",
    "prefecture": "奈良県",
    "prefecture_kana": "ナラケン",
    "prefecture_code": 29,
    "city": "奈良市",
    "city_kana": "ナラシ",
    "town": "芝突抜町",
    "town_kana": "シバツキヌケチョウ",
    "street": null,
    "office_name": null,
    "office_name_kana": null
  },
  "8391": {
    "postcode": "6308391",
    "prefecture": "奈良県",
    "prefecture_kana": "ナラケン",
    "prefecture_code": 29,
    "city": "奈良市",
    "city_kana": "ナラシ",
    "town": "鵲町",
    "town_kana": "カササギチョウ",
    "street": null,
    "office_name": null,
    "office_name_kana": null
  },
  "8392": {
    "postcode": "6308392",
    "prefecture": "奈良県",
    "prefecture_kana": "ナラケン",
    "prefecture_code": 29,
    "city": "奈良市",
    "city_kana": "ナラシ",
    "town": "中院町",
    "town_kana": "チュウインチョウ",
    "street": null,
    "office_name": null,
    "office_name_kana": null
  },
  "8393": {
    "postcode": "6308393",
    "prefecture": "奈良県",
    "prefecture_kana": "ナラケン",
    "prefecture_code": 29,
    "city": "奈良市",
    "city_kana": "ナラシ",
    "town": "鶴福院町",
    "town_kana": "ツルフクインチョウ",
    "street": null,
    "office_name": null,
    "office_name_kana": null
  },
  "8394": {
    "postcode": "6308394",
    "prefecture": "奈良県",
    "prefecture_kana": "ナラケン",
    "prefecture_code": 29,
    "city": "奈良市",
    "city_kana": "ナラシ",
    "town": "不審ヶ辻子町",
    "town_kana": "フシガヅシチョウ",
    "street": null,
    "office_name": null,
    "office_name_kana": null
  },
  "8401": {
    "postcode": "6308401",
    "prefecture": "奈良県",
    "prefecture_kana": "ナラケン",
    "prefecture_code": 29,
    "city": "奈良市",
    "city_kana": "ナラシ",
    "town": "中畑町",
    "town_kana": "ナカハタチョウ",
    "street": null,
    "office_name": null,
    "office_name_kana": null
  },
  "8402": {
    "postcode": "6308402",
    "prefecture": "奈良県",
    "prefecture_kana": "ナラケン",
    "prefecture_code": 29,
    "city": "奈良市",
    "city_kana": "ナラシ",
    "town": "米谷町",
    "town_kana": "マイタニチョウ",
    "street": null,
    "office_name": null,
    "office_name_kana": null
  },
  "8403": {
    "postcode": "6308403",
    "prefecture": "奈良県",
    "prefecture_kana": "ナラケン",
    "prefecture_code": 29,
    "city": "奈良市",
    "city_kana": "ナラシ",
    "town": "興隆寺町",
    "town_kana": "コウリュウジチョウ",
    "street": null,
    "office_name": null,
    "office_name_kana": null
  },
  "8404": {
    "postcode": "6308404",
    "prefecture": "奈良県",
    "prefecture_kana": "ナラケン",
    "prefecture_code": 29,
    "city": "奈良市",
    "city_kana": "ナラシ",
    "town": "南椿尾町",
    "town_kana": "ミナミツバオチョウ",
    "street": null,
    "office_name": null,
    "office_name_kana": null
  },
  "8405": {
    "postcode": "6308405",
    "prefecture": "奈良県",
    "prefecture_kana": "ナラケン",
    "prefecture_code": 29,
    "city": "奈良市",
    "city_kana": "ナラシ",
    "town": "北椿尾町",
    "town_kana": "キタツバオチョウ",
    "street": null,
    "office_name": null,
    "office_name_kana": null
  },
  "8411": {
    "postcode": "6308411",
    "prefecture": "奈良県",
    "prefecture_kana": "ナラケン",
    "prefecture_code": 29,
    "city": "奈良市",
    "city_kana": "ナラシ",
    "town": "高樋町",
    "town_kana": "タカヒチョウ",
    "street": null,
    "office_name": null,
    "office_name_kana": null
  },
  "8412": {
    "postcode": "6308412",
    "prefecture": "奈良県",
    "prefecture_kana": "ナラケン",
    "prefecture_code": 29,
    "city": "奈良市",
    "city_kana": "ナラシ",
    "town": "虚空蔵町",
    "town_kana": "コクゾウチョウ",
    "street": null,
    "office_name": null,
    "office_name_kana": null
  },
  "8413": {
    "postcode": "6308413",
    "prefecture": "奈良県",
    "prefecture_kana": "ナラケン",
    "prefecture_code": 29,
    "city": "奈良市",
    "city_kana": "ナラシ",
    "town": "菩提山町",
    "town_kana": "ボダイセンチョウ",
    "street": null,
    "office_name": null,
    "office_name_kana": null
  },
  "8414": {
    "postcode": "6308414",
    "prefecture": "奈良県",
    "prefecture_kana": "ナラケン",
    "prefecture_code": 29,
    "city": "奈良市",
    "city_kana": "ナラシ",
    "town": "鉢伏町",
    "town_kana": "ハチブセチョウ",
    "street": null,
    "office_name": null,
    "office_name_kana": null
  },
  "8421": {
    "postcode": "6308421",
    "prefecture": "奈良県",
    "prefecture_kana": "ナラケン",
    "prefecture_code": 29,
    "city": "奈良市",
    "city_kana": "ナラシ",
    "town": "藤原町",
    "town_kana": "フジワラチョウ",
    "street": null,
    "office_name": null,
    "office_name_kana": null
  },
  "8422": [
    {
      "postcode": "6308422",
      "prefecture": "奈良県",
      "prefecture_kana": "ナラケン",
      "prefecture_code": 29,
      "city": "奈良市",
      "city_kana": "ナラシ",
      "town": "横井",
      "town_kana": "ヨコイ",
      "street": null,
      "office_name": null,
      "office_name_kana": null
    },
    {
      "postcode": "6308422",
      "prefecture": "奈良県",
      "prefecture_kana": "ナラケン",
      "prefecture_code": 29,
      "city": "奈良市",
      "city_kana": "ナラシ",
      "town": "横井町",
      "town_kana": "ヨコイチョウ",
      "street": null,
      "office_name": null,
      "office_name_kana": null
    }
  ],
  "8423": {
    "postcode": "6308423",
    "prefecture": "奈良県",
    "prefecture_kana": "ナラケン",
    "prefecture_code": 29,
    "city": "奈良市",
    "city_kana": "ナラシ",
    "town": "出屋敷町",
    "town_kana": "デヤシキチョウ",
    "street": null,
    "office_name": null,
    "office_name_kana": null
  },
  "8424": {
    "postcode": "6308424",
    "prefecture": "奈良県",
    "prefecture_kana": "ナラケン",
    "prefecture_code": 29,
    "city": "奈良市",
    "city_kana": "ナラシ",
    "town": "古市町",
    "town_kana": "フルイチチョウ",
    "street": null,
    "office_name": null,
    "office_name_kana": null
  },
  "8425": {
    "postcode": "6308425",
    "prefecture": "奈良県",
    "prefecture_kana": "ナラケン",
    "prefecture_code": 29,
    "city": "奈良市",
    "city_kana": "ナラシ",
    "town": "鹿野園町",
    "town_kana": "ロクヤオンチョウ",
    "street": null,
    "office_name": null,
    "office_name_kana": null
  },
  "8431": {
    "postcode": "6308431",
    "prefecture": "奈良県",
    "prefecture_kana": "ナラケン",
    "prefecture_code": 29,
    "city": "奈良市",
    "city_kana": "ナラシ",
    "town": "窪之庄町",
    "town_kana": "クボノショウチョウ",
    "street": null,
    "office_name": null,
    "office_name_kana": null
  },
  "8432": {
    "postcode": "6308432",
    "prefecture": "奈良県",
    "prefecture_kana": "ナラケン",
    "prefecture_code": 29,
    "city": "奈良市",
    "city_kana": "ナラシ",
    "town": "田中町",
    "town_kana": "タナカチョウ",
    "street": null,
    "office_name": null,
    "office_name_kana": null
  },
  "8433": {
    "postcode": "6308433",
    "prefecture": "奈良県",
    "prefecture_kana": "ナラケン",
    "prefecture_code": 29,
    "city": "奈良市",
    "city_kana": "ナラシ",
    "town": "柴屋町",
    "town_kana": "シバヤチョウ",
    "street": null,
    "office_name": null,
    "office_name_kana": null
  },
  "8434": {
    "postcode": "6308434",
    "prefecture": "奈良県",
    "prefecture_kana": "ナラケン",
    "prefecture_code": 29,
    "city": "奈良市",
    "city_kana": "ナラシ",
    "town": "山町",
    "town_kana": "ヤマチョウ",
    "street": null,
    "office_name": null,
    "office_name_kana": null
  },
  "8435": {
    "postcode": "6308435",
    "prefecture": "奈良県",
    "prefecture_kana": "ナラケン",
    "prefecture_code": 29,
    "city": "奈良市",
    "city_kana": "ナラシ",
    "town": "八島町",
    "town_kana": "ヤシマチョウ",
    "street": null,
    "office_name": null,
    "office_name_kana": null
  },
  "8441": {
    "postcode": "6308441",
    "prefecture": "奈良県",
    "prefecture_kana": "ナラケン",
    "prefecture_code": 29,
    "city": "奈良市",
    "city_kana": "ナラシ",
    "town": "神殿町",
    "town_kana": "コドノチョウ",
    "street": null,
    "office_name": null,
    "office_name_kana": null
  },
  "8442": {
    "postcode": "6308442",
    "prefecture": "奈良県",
    "prefecture_kana": "ナラケン",
    "prefecture_code": 29,
    "city": "奈良市",
    "city_kana": "ナラシ",
    "town": "北永井町",
    "town_kana": "キタナガイチョウ",
    "street": null,
    "office_name": null,
    "office_name_kana": null
  },
  "8443": {
    "postcode": "6308443",
    "prefecture": "奈良県",
    "prefecture_kana": "ナラケン",
    "prefecture_code": 29,
    "city": "奈良市",
    "city_kana": "ナラシ",
    "town": "南永井町",
    "town_kana": "ミナミナガイチョウ",
    "street": null,
    "office_name": null,
    "office_name_kana": null
  },
  "8444": {
    "postcode": "6308444",
    "prefecture": "奈良県",
    "prefecture_kana": "ナラケン",
    "prefecture_code": 29,
    "city": "奈良市",
    "city_kana": "ナラシ",
    "town": "今市町",
    "town_kana": "イマイチチョウ",
    "street": null,
    "office_name": null,
    "office_name_kana": null
  },
  "8445": {
    "postcode": "6308445",
    "prefecture": "奈良県",
    "prefecture_kana": "ナラケン",
    "prefecture_code": 29,
    "city": "奈良市",
    "city_kana": "ナラシ",
    "town": "池田町",
    "town_kana": "イケダチョウ",
    "street": null,
    "office_name": null,
    "office_name_kana": null
  },
  "8451": {
    "postcode": "6308451",
    "prefecture": "奈良県",
    "prefecture_kana": "ナラケン",
    "prefecture_code": 29,
    "city": "奈良市",
    "city_kana": "ナラシ",
    "town": "北之庄町",
    "town_kana": "キタノショウチョウ",
    "street": null,
    "office_name": null,
    "office_name_kana": null
  },
  "8452": {
    "postcode": "6308452",
    "prefecture": "奈良県",
    "prefecture_kana": "ナラケン",
    "prefecture_code": 29,
    "city": "奈良市",
    "city_kana": "ナラシ",
    "town": "北之庄西町",
    "town_kana": "キタノショウニシマチ",
    "street": null,
    "office_name": null,
    "office_name_kana": null
  },
  "8453": {
    "postcode": "6308453",
    "prefecture": "奈良県",
    "prefecture_kana": "ナラケン",
    "prefecture_code": 29,
    "city": "奈良市",
    "city_kana": "ナラシ",
    "town": "西九条町",
    "town_kana": "サイクジョウチョウ",
    "street": null,
    "office_name": null,
    "office_name_kana": null
  },
  "8454": {
    "postcode": "6308454",
    "prefecture": "奈良県",
    "prefecture_kana": "ナラケン",
    "prefecture_code": 29,
    "city": "奈良市",
    "city_kana": "ナラシ",
    "town": "杏町",
    "town_kana": "カラモモチョウ",
    "street": null,
    "office_name": null,
    "office_name_kana": null
  },
  "8501": {
    "postcode": "6308501",
    "prefecture": "奈良県",
    "prefecture_kana": "ナラケン",
    "prefecture_code": 29,
    "city": "奈良市",
    "city_kana": "ナラシ",
    "town": "登大路町",
    "town_kana": "ノボリオオジチョウ",
    "street": "３０",
    "office_name": "奈良県庁",
    "office_name_kana": "ナラケンチヨウ"
  },
  "8502": {
    "postcode": "6308502",
    "prefecture": "奈良県",
    "prefecture_kana": "ナラケン",
    "prefecture_code": 29,
    "city": "奈良市",
    "city_kana": "ナラシ",
    "town": "登大路町",
    "town_kana": "ノボリオオジチョウ",
    "street": "３０",
    "office_name": "奈良県　教育委員会",
    "office_name_kana": "ナラケン キヨウイクイインカイ"
  },
  "8503": {
    "postcode": "6308503",
    "prefecture": "奈良県",
    "prefecture_kana": "ナラケン",
    "prefecture_code": 29,
    "city": "奈良市",
    "city_kana": "ナラシ",
    "town": "恋の窪",
    "town_kana": "コイノクボ",
    "street": "１丁目２−２",
    "office_name": "市民生活協同組合　ならコープ",
    "office_name_kana": "シミンセイカツキヨウドウクミアイ ナラコ-プ"
  },
  "8505": {
    "postcode": "6308505",
    "prefecture": "奈良県",
    "prefecture_kana": "ナラケン",
    "prefecture_code": 29,
    "city": "奈良市",
    "city_kana": "ナラシ",
    "town": "下三条町",
    "town_kana": "シモサンジョウチョウ",
    "street": "１番地１",
    "office_name": "西日本電信電話　株式会社　奈良支店",
    "office_name_kana": "ニシニホンデンシンデンワ カブシキガイシヤ ナラシテン"
  },
  "8506": {
    "postcode": "6308506",
    "prefecture": "奈良県",
    "prefecture_kana": "ナラケン",
    "prefecture_code": 29,
    "city": "奈良市",
    "city_kana": "ナラシ",
    "town": "北魚屋東町",
    "town_kana": "キタウオヤヒガシマチ",
    "street": "",
    "office_name": "奈良女子大学",
    "office_name_kana": "ナラジヨシダイガク"
  },
  "8508": {
    "postcode": "6308508",
    "prefecture": "奈良県",
    "prefecture_kana": "ナラケン",
    "prefecture_code": 29,
    "city": "奈良市",
    "city_kana": "ナラシ",
    "town": "柏木町",
    "town_kana": "カシワギチョウ",
    "street": "３９８",
    "office_name": "株式会社　ヒラサワ",
    "office_name_kana": "カブシキガイシヤ ヒラサワ"
  },
  "8512": {
    "postcode": "6308512",
    "prefecture": "奈良県",
    "prefecture_kana": "ナラケン",
    "prefecture_code": 29,
    "city": "奈良市",
    "city_kana": "ナラシ",
    "town": "芝辻町",
    "town_kana": "シバツジチョウ",
    "street": "４丁目９−４",
    "office_name": "日本年金機構　奈良年金事務所",
    "office_name_kana": "ニツポンネンキンキコウ ナラネンキンジムシヨ"
  },
  "8518": {
    "postcode": "6308518",
    "prefecture": "奈良県",
    "prefecture_kana": "ナラケン",
    "prefecture_code": 29,
    "city": "奈良市",
    "city_kana": "ナラシ",
    "town": "西九条町",
    "town_kana": "サイクジョウチョウ",
    "street": "４丁目３−１",
    "office_name": "近畿セキスイハイム工業　株式会社",
    "office_name_kana": "キンキセキスイハイムコウギヨウ カブシキガイシヤ"
  },
  "8520": {
    "postcode": "6308520",
    "prefecture": "奈良県",
    "prefecture_kana": "ナラケン",
    "prefecture_code": 29,
    "city": "奈良市",
    "city_kana": "ナラシ",
    "town": "杏町",
    "town_kana": "カラモモチョウ",
    "street": "２１６−１",
    "office_name": "スケーター　株式会社",
    "office_name_kana": "スケ-タ- カブシキガイシヤ"
  },
  "8522": {
    "postcode": "6308522",
    "prefecture": "奈良県",
    "prefecture_kana": "ナラケン",
    "prefecture_code": 29,
    "city": "奈良市",
    "city_kana": "ナラシ",
    "town": "法華寺町",
    "town_kana": "ホッケジチョウ",
    "street": "１５７８",
    "office_name": "航空自衛隊　奈良基地",
    "office_name_kana": "コウクウジエイタイ ナラキチ"
  },
  "8528": {
    "postcode": "6308528",
    "prefecture": "奈良県",
    "prefecture_kana": "ナラケン",
    "prefecture_code": 29,
    "city": "奈良市",
    "city_kana": "ナラシ",
    "town": "高畑町",
    "town_kana": "タカバタケチョウ",
    "street": "",
    "office_name": "国立大学法人　奈良教育大学",
    "office_name_kana": "コクリツダイガクホウジン ナラキヨウイクダイガク"
  },
  "8529": {
    "postcode": "6308529",
    "prefecture": "奈良県",
    "prefecture_kana": "ナラケン",
    "prefecture_code": 29,
    "city": "奈良市",
    "city_kana": "ナラシ",
    "town": "佐保台西町",
    "town_kana": "サホダイニシマチ",
    "street": "１１４番地１",
    "office_name": "社会保険診療報酬支払基金　奈良支部",
    "office_name_kana": "シヤカイホケンシンリヨウホウシユウシハライキキン ナラシブ"
  },
  "8530": {
    "postcode": "6308530",
    "prefecture": "奈良県",
    "prefecture_kana": "ナラケン",
    "prefecture_code": 29,
    "city": "奈良市",
    "city_kana": "ナラシ",
    "town": "大宮町",
    "town_kana": "オオミヤチョウ",
    "street": "７丁目１−２０",
    "office_name": "関西電力　株式会社　奈良営業所",
    "office_name_kana": "カンサイデンリヨク カブシキガイシヤ ナラエイギヨウシヨ"
  },
  "8533": {
    "postcode": "6308533",
    "prefecture": "奈良県",
    "prefecture_kana": "ナラケン",
    "prefecture_code": 29,
    "city": "奈良市",
    "city_kana": "ナラシ",
    "town": "大森町",
    "town_kana": "オオモリチョウ",
    "street": "５７番地の１２",
    "office_name": "奈良警察署",
    "office_name_kana": "ナラケイサツシヨ"
  },
  "8535": {
    "postcode": "6308535",
    "prefecture": "奈良県",
    "prefecture_kana": "ナラケン",
    "prefecture_code": 29,
    "city": "奈良市",
    "city_kana": "ナラシ",
    "town": "大宮町",
    "town_kana": "オオミヤチョウ",
    "street": "７丁目１−３３奈良センタービル",
    "office_name": "全国健康保険協会　奈良支部",
    "office_name_kana": "ゼンコクケンコウホケンキヨウカイ ナラシブ"
  },
  "8536": {
    "postcode": "6308536",
    "prefecture": "奈良県",
    "prefecture_kana": "ナラケン",
    "prefecture_code": 29,
    "city": "奈良市",
    "city_kana": "ナラシ",
    "town": "三条大路",
    "town_kana": "サンジョウオオジ",
    "street": "１丁目９−１７",
    "office_name": "朝日新聞　奈良総局",
    "office_name_kana": "アサヒシンブン ナラソウキヨク"
  },
  "8540": {
    "postcode": "6308540",
    "prefecture": "奈良県",
    "prefecture_kana": "ナラケン",
    "prefecture_code": 29,
    "city": "奈良市",
    "city_kana": "ナラシ",
    "town": "三条大路",
    "town_kana": "サンジョウオオジ",
    "street": "１丁目１−２０",
    "office_name": "ＮＨＫ　奈良放送局",
    "office_name_kana": "エヌエイチケイ ナラホウソウキヨク"
  },
  "8543": {
    "postcode": "6308543",
    "prefecture": "奈良県",
    "prefecture_kana": "ナラケン",
    "prefecture_code": 29,
    "city": "奈良市",
    "city_kana": "ナラシ",
    "town": "油阪町",
    "town_kana": "アブラサカチョウ",
    "street": "出口１−１４住友生命奈良ビル",
    "office_name": "住友生命保険　相互会社　奈良支社",
    "office_name_kana": "スミトモセイメイホケン ソウゴガイシヤ ナラシシヤ"
  },
  "8548": {
    "postcode": "6308548",
    "prefecture": "奈良県",
    "prefecture_kana": "ナラケン",
    "prefecture_code": 29,
    "city": "奈良市",
    "city_kana": "ナラシ",
    "town": "大森町",
    "town_kana": "オオモリチョウ",
    "street": "４８",
    "office_name": "関西電力　株式会社　奈良支店",
    "office_name_kana": "カンサイデンリヨク カブシキガイシヤ ナラシテン"
  },
  "8550": {
    "postcode": "6308550",
    "prefecture": "奈良県",
    "prefecture_kana": "ナラケン",
    "prefecture_code": 29,
    "city": "奈良市",
    "city_kana": "ナラシ",
    "town": "大森町",
    "town_kana": "オオモリチョウ",
    "street": "５７−３",
    "office_name": "奈良県農業協同組合中央会",
    "office_name_kana": "ナラケンノウギヨウキヨウドウクミアイチユウオウカイ"
  },
  "8552": {
    "postcode": "6308552",
    "prefecture": "奈良県",
    "prefecture_kana": "ナラケン",
    "prefecture_code": 29,
    "city": "奈良市",
    "city_kana": "ナラシ",
    "town": "大森町",
    "town_kana": "オオモリチョウ",
    "street": "５７−３",
    "office_name": "奈良県　共済農業協同連合会",
    "office_name_kana": "ナラケン キヨウサイノウギヨウキヨウドウクミアイレンゴウカイ"
  },
  "8555": {
    "postcode": "6308555",
    "prefecture": "奈良県",
    "prefecture_kana": "ナラケン",
    "prefecture_code": 29,
    "city": "奈良市",
    "city_kana": "ナラシ",
    "town": "三条大路",
    "town_kana": "サンジョウオオジ",
    "street": "四丁目１番１号",
    "office_name": "積水化学工業　株式会社　奈良事業所",
    "office_name_kana": "セキスイカガクコウギヨウ カブシキガイシヤ ナラジギヨウシヨ"
  },
  "8558": {
    "postcode": "6308558",
    "prefecture": "奈良県",
    "prefecture_kana": "ナラケン",
    "prefecture_code": 29,
    "city": "奈良市",
    "city_kana": "ナラシ",
    "town": "法蓮町",
    "town_kana": "ホウレンチョウ",
    "street": "１０００番地",
    "office_name": "学校法人　奈良育英学園　奈良育英中学校・高等学校",
    "office_name_kana": "ガツコウホウジン ナライクエイガクエン ナライクエイチユウガツコウ・コウトウガツコウ"
  },
  "8563": {
    "postcode": "6308563",
    "prefecture": "奈良県",
    "prefecture_kana": "ナラケン",
    "prefecture_code": 29,
    "city": "奈良市",
    "city_kana": "ナラシ",
    "town": "西ノ京町",
    "town_kana": "ニシノキョウチョウ",
    "street": "４５７",
    "office_name": "薬師寺",
    "office_name_kana": "ヤクシジ"
  },
  "8566": {
    "postcode": "6308566",
    "prefecture": "奈良県",
    "prefecture_kana": "ナラケン",
    "prefecture_code": 29,
    "city": "奈良市",
    "city_kana": "ナラシ",
    "town": "鹿野園町",
    "town_kana": "ロクヤオンチョウ",
    "street": "８０６",
    "office_name": "奈良佐保短期大学",
    "office_name_kana": "ナラサホタンキダイガク"
  },
  "8567": {
    "postcode": "6308567",
    "prefecture": "奈良県",
    "prefecture_kana": "ナラケン",
    "prefecture_code": 29,
    "city": "奈良市",
    "city_kana": "ナラシ",
    "town": "登大路町",
    "town_kana": "ノボリオオジチョウ",
    "street": "８１",
    "office_name": "奈良税務署",
    "office_name_kana": "ナラゼイムシヨ"
  },
  "8570": {
    "postcode": "6308570",
    "prefecture": "奈良県",
    "prefecture_kana": "ナラケン",
    "prefecture_code": 29,
    "city": "奈良市",
    "city_kana": "ナラシ",
    "town": "法蓮町",
    "town_kana": "ホウレンチョウ",
    "street": "３８７番地奈良第三地方合同庁舎（２Ｆ）",
    "office_name": "奈良労働局",
    "office_name_kana": "ナラロウドウキヨク"
  },
  "8575": {
    "postcode": "6308575",
    "prefecture": "奈良県",
    "prefecture_kana": "ナラケン",
    "prefecture_code": 29,
    "city": "奈良市",
    "city_kana": "ナラシ",
    "town": "法蓮佐保山",
    "town_kana": "ホウレンサホヤマ",
    "street": "３丁目１−１１",
    "office_name": "奈良テレビ放送　株式会社",
    "office_name_kana": "ナラテレビホウソウ カブシキガイシヤ"
  },
  "8577": {
    "postcode": "6308577",
    "prefecture": "奈良県",
    "prefecture_kana": "ナラケン",
    "prefecture_code": 29,
    "city": "奈良市",
    "city_kana": "ナラシ",
    "town": "二条町",
    "town_kana": "ニジョウチョウ",
    "street": "二丁目９番１号",
    "office_name": "独立行政法人　国立文化財機構奈良文化財研究所",
    "office_name_kana": "ドクリツギヨウセイホウジン コクリツブンカザイキコウナラブンカザイケンキユウジヨ"
  },
  "8578": {
    "postcode": "6308578",
    "prefecture": "奈良県",
    "prefecture_kana": "ナラケン",
    "prefecture_code": 29,
    "city": "奈良市",
    "city_kana": "ナラシ",
    "town": "登大路町",
    "town_kana": "ノボリオオジチョウ",
    "street": "８０",
    "office_name": "奈良県　警察本部",
    "office_name_kana": "ナラケン ケイサツホンブ"
  },
  "8580": {
    "postcode": "6308580",
    "prefecture": "奈良県",
    "prefecture_kana": "ナラケン",
    "prefecture_code": 29,
    "city": "奈良市",
    "city_kana": "ナラシ",
    "town": "二条大路南",
    "town_kana": "ニジョウオオジミナミ",
    "street": "１丁目１−１",
    "office_name": "奈良市役所",
    "office_name_kana": "ナラシヤクシヨ"
  },
  "8581": {
    "postcode": "6308581",
    "prefecture": "奈良県",
    "prefecture_kana": "ナラケン",
    "prefecture_code": 29,
    "city": "奈良市",
    "city_kana": "ナラシ",
    "town": "七条西町",
    "town_kana": "シチジョウニシマチ",
    "street": "２丁目８９７−５",
    "office_name": "地方独立行政法人　奈良県立病院機構　奈良県総合医療センター",
    "office_name_kana": "チホウドクリツギヨウセイホウジン ナラケンリツビヨウインキコウ ナラケンソウゴウイリヨウセンタ-"
  },
  "8585": {
    "postcode": "6308585",
    "prefecture": "奈良県",
    "prefecture_kana": "ナラケン",
    "prefecture_code": 29,
    "city": "奈良市",
    "city_kana": "ナラシ",
    "town": "東九条町",
    "town_kana": "トウクジョウチョウ",
    "street": "１０９−１",
    "office_name": "日本自動車連盟奈良支部",
    "office_name_kana": "ニホンジドウシヤケンメイナラシブ"
  },
  "8587": {
    "postcode": "6308587",
    "prefecture": "奈良県",
    "prefecture_kana": "ナラケン",
    "prefecture_code": 29,
    "city": "奈良市",
    "city_kana": "ナラシ",
    "town": "雑司町",
    "town_kana": "ゾウシチョウ",
    "street": "４０６−１",
    "office_name": "東大寺",
    "office_name_kana": "トウダイジ"
  },
  "8588": {
    "postcode": "6308588",
    "prefecture": "奈良県",
    "prefecture_kana": "ナラケン",
    "prefecture_code": 29,
    "city": "奈良市",
    "city_kana": "ナラシ",
    "town": "南京終町",
    "town_kana": "ミナミキョウバテチョウ",
    "street": "４丁目２４７",
    "office_name": "草竹コンクリート工業　株式会社",
    "office_name_kana": "クサタケコンクリ-トコウギヨウ カブシキガイシヤ"
  },
  "8589": {
    "postcode": "6308589",
    "prefecture": "奈良県",
    "prefecture_kana": "ナラケン",
    "prefecture_code": 29,
    "city": "奈良市",
    "city_kana": "ナラシ",
    "town": "北魚屋東町",
    "town_kana": "キタウオヤヒガシマチ",
    "street": "奈良女子大学コラボレーションセンター３Ｆ",
    "office_name": "放送大学奈良学習センター",
    "office_name_kana": "ホウソウダイガクナラガクシユウセンタ-"
  },
  "8651": {
    "postcode": "6308651",
    "prefecture": "奈良県",
    "prefecture_kana": "ナラケン",
    "prefecture_code": 29,
    "city": "奈良市",
    "city_kana": "ナラシ",
    "town": "大宮町",
    "town_kana": "オオミヤチョウ",
    "street": "１丁目１−２５（奈良中央郵便局私書箱第１号）",
    "office_name": "奈良交通　株式会社",
    "office_name_kana": "ナラコウツウ カブシキガイシヤ"
  },
  "8655": {
    "postcode": "6308655",
    "prefecture": "奈良県",
    "prefecture_kana": "ナラケン",
    "prefecture_code": 29,
    "city": "奈良市",
    "city_kana": "ナラシ",
    "town": "大森町",
    "town_kana": "オオモリチョウ",
    "street": "５７−３（奈良中央郵便局私書箱第８号）",
    "office_name": "奈良県　信用農業協同組合連合会",
    "office_name_kana": "ナラケン シンヨウノウギヨウキヨウドウクミアイレンゴウカイ"
  },
  "8666": {
    "postcode": "6308666",
    "prefecture": "奈良県",
    "prefecture_kana": "ナラケン",
    "prefecture_code": 29,
    "city": "奈良市",
    "city_kana": "ナラシ",
    "town": "高天町",
    "town_kana": "タカマチョウ",
    "street": "４８−１（奈良中央郵便局私書箱第２１号）",
    "office_name": "大和証券　株式会社　奈良支店",
    "office_name_kana": "ダイワシヨウケン カブシキガイシヤ ナラシテン"
  },
  "8668": {
    "postcode": "6308668",
    "prefecture": "奈良県",
    "prefecture_kana": "ナラケン",
    "prefecture_code": 29,
    "city": "奈良市",
    "city_kana": "ナラシ",
    "town": "法蓮町",
    "town_kana": "ホウレンチョウ",
    "street": "１６３−２（奈良中央郵便局私書箱第１１号）",
    "office_name": "奈良県信用保証協会",
    "office_name_kana": "ナラケン シンヨウホシヨウキヨウカイ"
  },
  "8670": {
    "postcode": "6308670",
    "prefecture": "奈良県",
    "prefecture_kana": "ナラケン",
    "prefecture_code": 29,
    "city": "奈良市",
    "city_kana": "ナラシ",
    "town": "南京終町",
    "town_kana": "ミナミキョウバテチョウ",
    "street": "７丁目５７６",
    "office_name": "株式会社　呉竹",
    "office_name_kana": "カブシキガイシヤ クレタケ"
  },
  "8677": {
    "postcode": "6308677",
    "prefecture": "奈良県",
    "prefecture_kana": "ナラケン",
    "prefecture_code": 29,
    "city": "奈良市",
    "city_kana": "ナラシ",
    "town": "橋本町",
    "town_kana": "ハシモトチョウ",
    "street": "１６（奈良中央郵便局私書箱第７号）",
    "office_name": "株式会社　南都銀行　本店",
    "office_name_kana": "カブシキガイシヤ ナントギンコウ ホンテン"
  },
  "8686": {
    "postcode": "6308686",
    "prefecture": "奈良県",
    "prefecture_kana": "ナラケン",
    "prefecture_code": 29,
    "city": "奈良市",
    "city_kana": "ナラシ",
    "town": "法華寺町",
    "town_kana": "ホッケジチョウ",
    "street": "２−４",
    "office_name": "（株）　奈良新聞社",
    "office_name_kana": "カブシキガイシヤ ナラシンブンシヤ"
  },
  "8688": {
    "postcode": "6308688",
    "prefecture": "奈良県",
    "prefecture_kana": "ナラケン",
    "prefecture_code": 29,
    "city": "奈良市",
    "city_kana": "ナラシ",
    "town": "南京終町",
    "town_kana": "ミナミキョウバテチョウ",
    "street": "１丁目９３−２（奈良中央郵便局私書箱第２５号）",
    "office_name": "株式会社　南都銀行　事務センター",
    "office_name_kana": "カブシキガイシヤ ナントギンコウ ジムセンタ-"
  }
}