{
  "0001": {
    "postcode": "6310001",
    "prefecture": "奈良県",
    "prefecture_kana": "ナラケン",
    "prefecture_code": 29,
    "city": "奈良市",
    "city_kana": "ナラシ",
    "town": "北登美ヶ丘",
    "town_kana": "キタトミガオカ",
    "street": null,
    "office_name": null,
    "office_name_kana": null
  },
  "0002": {
    "postcode": "6310002",
    "prefecture": "奈良県",
    "prefecture_kana": "ナラケン",
    "prefecture_code": 29,
    "city": "奈良市",
    "city_kana": "ナラシ",
    "town": "東登美ヶ丘",
    "town_kana": "ヒガシトミガオカ",
    "street": null,
    "office_name": null,
    "office_name_kana": null
  },
  "0003": {
    "postcode": "6310003",
    "prefecture": "奈良県",
    "prefecture_kana": "ナラケン",
    "prefecture_code": 29,
    "city": "奈良市",
    "city_kana": "ナラシ",
    "town": "中登美ヶ丘",
    "town_kana": "ナカトミガオカ",
    "street": null,
    "office_name": null,
    "office_name_kana": null
  },
  "0004": {
    "postcode": "6310004",
    "prefecture": "奈良県",
    "prefecture_kana": "ナラケン",
    "prefecture_code": 29,
    "city": "奈良市",
    "city_kana": "ナラシ",
    "town": "登美ヶ丘",
    "town_kana": "トミガオカ",
    "street": null,
    "office_name": null,
    "office_name_kana": null
  },
  "0005": {
    "postcode": "6310005",
    "prefecture": "奈良県",
    "prefecture_kana": "ナラケン",
    "prefecture_code": 29,
    "city": "奈良市",
    "city_kana": "ナラシ",
    "town": "大渕町",
    "town_kana": "オオブチチョウ",
    "street": null,
    "office_name": null,
    "office_name_kana": null
  },
  "0006": {
    "postcode": "6310006",
    "prefecture": "奈良県",
    "prefecture_kana": "ナラケン",
    "prefecture_code": 29,
    "city": "奈良市",
    "city_kana": "ナラシ",
    "town": "西登美ヶ丘",
    "town_kana": "ニシトミガオカ",
    "street": null,
    "office_name": null,
    "office_name_kana": null
  },
  "0007": {
    "postcode": "6310007",
    "prefecture": "奈良県",
    "prefecture_kana": "ナラケン",
    "prefecture_code": 29,
    "city": "奈良市",
    "city_kana": "ナラシ",
    "town": "松陽台",
    "town_kana": "ショウヨウダイ",
    "street": null,
    "office_name": null,
    "office_name_kana": null
  },
  "0008": {
    "postcode": "6310008",
    "prefecture": "奈良県",
    "prefecture_kana": "ナラケン",
    "prefecture_code": 29,
    "city": "奈良市",
    "city_kana": "ナラシ",
    "town": "二名町",
    "town_kana": "ニミョウチョウ",
    "street": null,
    "office_name": null,
    "office_name_kana": null
  },
  "0011": {
    "postcode": "6310011",
    "prefecture": "奈良県",
    "prefecture_kana": "ナラケン",
    "prefecture_code": 29,
    "city": "奈良市",
    "city_kana": "ナラシ",
    "town": "押熊町",
    "town_kana": "オシクマチョウ",
    "street": null,
    "office_name": null,
    "office_name_kana": null
  },
  "0012": {
    "postcode": "6310012",
    "prefecture": "奈良県",
    "prefecture_kana": "ナラケン",
    "prefecture_code": 29,
    "city": "奈良市",
    "city_kana": "ナラシ",
    "town": "中山町",
    "town_kana": "ナカヤマチョウ",
    "street": null,
    "office_name": null,
    "office_name_kana": null
  },
  "0013": {
    "postcode": "6310013",
    "prefecture": "奈良県",
    "prefecture_kana": "ナラケン",
    "prefecture_code": 29,
    "city": "奈良市",
    "city_kana": "ナラシ",
    "town": "中山町西",
    "town_kana": "ナカヤマチョウニシ",
    "street": null,
    "office_name": null,
    "office_name_kana": null
  },
  "0014": {
    "postcode": "6310014",
    "prefecture": "奈良県",
    "prefecture_kana": "ナラケン",
    "prefecture_code": 29,
    "city": "奈良市",
    "city_kana": "ナラシ",
    "town": "朝日町",
    "town_kana": "アサヒチョウ",
    "street": null,
    "office_name": null,
    "office_name_kana": null
  },
  "0015": {
    "postcode": "6310015",
    "prefecture": "奈良県",
    "prefecture_kana": "ナラケン",
    "prefecture_code": 29,
    "city": "奈良市",
    "city_kana": "ナラシ",
    "town": "学園朝日元町",
    "town_kana": "ガクエンアサヒモトマチ",
    "street": null,
    "office_name": null,
    "office_name_kana": null
  },
  "0016": {
    "postcode": "6310016",
    "prefecture": "奈良県",
    "prefecture_kana": "ナラケン",
    "prefecture_code": 29,
    "city": "奈良市",
    "city_kana": "ナラシ",
    "town": "学園朝日町",
    "town_kana": "ガクエンアサヒチョウ",
    "street": null,
    "office_name": null,
    "office_name_kana": null
  },
  "0021": {
    "postcode": "6310021",
    "prefecture": "奈良県",
    "prefecture_kana": "ナラケン",
    "prefecture_code": 29,
    "city": "奈良市",
    "city_kana": "ナラシ",
    "town": "鶴舞東町",
    "town_kana": "ツルマイヒガシマチ",
    "street": null,
    "office_name": null,
    "office_name_kana": null
  },
  "0022": {
    "postcode": "6310022",
    "prefecture": "奈良県",
    "prefecture_kana": "ナラケン",
    "prefecture_code": 29,
    "city": "奈良市",
    "city_kana": "ナラシ",
    "town": "鶴舞西町",
    "town_kana": "ツルマイニシマチ",
    "street": null,
    "office_name": null,
    "office_name_kana": null
  },
  "0023": {
    "postcode": "6310023",
    "prefecture": "奈良県",
    "prefecture_kana": "ナラケン",
    "prefecture_code": 29,
    "city": "奈良市",
    "city_kana": "ナラシ",
    "town": "南登美ヶ丘",
    "town_kana": "ミナミトミガオカ",
    "street": null,
    "office_name": null,
    "office_name_kana": null
  },
  "0024": {
    "postcode": "6310024",
    "prefecture": "奈良県",
    "prefecture_kana": "ナラケン",
    "prefecture_code": 29,
    "city": "奈良市",
    "city_kana": "ナラシ",
    "town": "百楽園",
    "town_kana": "ヒャクラクエン",
    "street": null,
    "office_name": null,
    "office_name_kana": null
  },
  "0025": {
    "postcode": "6310025",
    "prefecture": "奈良県",
    "prefecture_kana": "ナラケン",
    "prefecture_code": 29,
    "city": "奈良市",
    "city_kana": "ナラシ",
    "town": "学園新田町",
    "town_kana": "ガクエンシンデンチョウ",
    "street": null,
    "office_name": null,
    "office_name_kana": null
  },
  "0026": {
    "postcode": "6310026",
    "prefecture": "奈良県",
    "prefecture_kana": "ナラケン",
    "prefecture_code": 29,
    "city": "奈良市",
    "city_kana": "ナラシ",
    "town": "学園緑ヶ丘",
    "town_kana": "ガクエンミドリガオカ",
    "street": null,
    "office_name": null,
    "office_name_kana": null
  },
  "0027": {
    "postcode": "6310027",
    "prefecture": "奈良県",
    "prefecture_kana": "ナラケン",
    "prefecture_code": 29,
    "city": "奈良市",
    "city_kana": "ナラシ",
    "town": "学園赤松町",
    "town_kana": "ガクエンアカマツチョウ",
    "street": null,
    "office_name": null,
    "office_name_kana": null
  },
  "0031": {
    "postcode": "6310031",
    "prefecture": "奈良県",
    "prefecture_kana": "ナラケン",
    "prefecture_code": 29,
    "city": "奈良市",
    "city_kana": "ナラシ",
    "town": "敷島町",
    "town_kana": "シキシマチョウ",
    "street": null,
    "office_name": null,
    "office_name_kana": null
  },
  "0032": {
    "postcode": "6310032",
    "prefecture": "奈良県",
    "prefecture_kana": "ナラケン",
    "prefecture_code": 29,
    "city": "奈良市",
    "city_kana": "ナラシ",
    "town": "あやめ池北",
    "town_kana": "アヤメイケキタ",
    "street": null,
    "office_name": null,
    "office_name_kana": null
  },
  "0033": {
    "postcode": "6310033",
    "prefecture": "奈良県",
    "prefecture_kana": "ナラケン",
    "prefecture_code": 29,
    "city": "奈良市",
    "city_kana": "ナラシ",
    "town": "あやめ池南",
    "town_kana": "アヤメイケミナミ",
    "street": null,
    "office_name": null,
    "office_name_kana": null
  },
  "0034": {
    "postcode": "6310034",
    "prefecture": "奈良県",
    "prefecture_kana": "ナラケン",
    "prefecture_code": 29,
    "city": "奈良市",
    "city_kana": "ナラシ",
    "town": "学園南",
    "town_kana": "ガクエンミナミ",
    "street": null,
    "office_name": null,
    "office_name_kana": null
  },
  "0035": {
    "postcode": "6310035",
    "prefecture": "奈良県",
    "prefecture_kana": "ナラケン",
    "prefecture_code": 29,
    "city": "奈良市",
    "city_kana": "ナラシ",
    "town": "学園中",
    "town_kana": "ガクエンナカ",
    "street": null,
    "office_name": null,
    "office_name_kana": null
  },
  "0036": {
    "postcode": "6310036",
    "prefecture": "奈良県",
    "prefecture_kana": "ナラケン",
    "prefecture_code": 29,
    "city": "奈良市",
    "city_kana": "ナラシ",
    "town": "学園北",
    "town_kana": "ガクエンキタ",
    "street": null,
    "office_name": null,
    "office_name_kana": null
  },
  "0041": {
    "postcode": "6310041",
    "prefecture": "奈良県",
    "prefecture_kana": "ナラケン",
    "prefecture_code": 29,
    "city": "奈良市",
    "city_kana": "ナラシ",
    "town": "学園大和町",
    "town_kana": "ガクエンダイワチョウ",
    "street": null,
    "office_name": null,
    "office_name_kana": null
  },
  "0042": {
    "postcode": "6310042",
    "prefecture": "奈良県",
    "prefecture_kana": "ナラケン",
    "prefecture_code": 29,
    "city": "奈良市",
    "city_kana": "ナラシ",
    "town": "大倭町",
    "town_kana": "オオヤマトチョウ",
    "street": null,
    "office_name": null,
    "office_name_kana": null
  },
  "0043": {
    "postcode": "6310043",
    "prefecture": "奈良県",
    "prefecture_kana": "ナラケン",
    "prefecture_code": 29,
    "city": "奈良市",
    "city_kana": "ナラシ",
    "town": "菅野台",
    "town_kana": "スガノダイ",
    "street": null,
    "office_name": null,
    "office_name_kana": null
  },
  "0044": {
    "postcode": "6310044",
    "prefecture": "奈良県",
    "prefecture_kana": "ナラケン",
    "prefecture_code": 29,
    "city": "奈良市",
    "city_kana": "ナラシ",
    "town": "藤ノ木台",
    "town_kana": "フジノキダイ",
    "street": null,
    "office_name": null,
    "office_name_kana": null
  },
  "0045": {
    "postcode": "6310045",
    "prefecture": "奈良県",
    "prefecture_kana": "ナラケン",
    "prefecture_code": 29,
    "city": "奈良市",
    "city_kana": "ナラシ",
    "town": "千代ヶ丘",
    "town_kana": "チヨガオカ",
    "street": null,
    "office_name": null,
    "office_name_kana": null
  },
  "0046": {
    "postcode": "6310046",
    "prefecture": "奈良県",
    "prefecture_kana": "ナラケン",
    "prefecture_code": 29,
    "city": "奈良市",
    "city_kana": "ナラシ",
    "town": "西千代ヶ丘",
    "town_kana": "ニシチヨガオカ",
    "street": null,
    "office_name": null,
    "office_name_kana": null
  },
  "0051": {
    "postcode": "6310051",
    "prefecture": "奈良県",
    "prefecture_kana": "ナラケン",
    "prefecture_code": 29,
    "city": "奈良市",
    "city_kana": "ナラシ",
    "town": "富雄泉ヶ丘",
    "town_kana": "トミオイズミガオカ",
    "street": null,
    "office_name": null,
    "office_name_kana": null
  },
  "0052": {
    "postcode": "6310052",
    "prefecture": "奈良県",
    "prefecture_kana": "ナラケン",
    "prefecture_code": 29,
    "city": "奈良市",
    "city_kana": "ナラシ",
    "town": "中町",
    "town_kana": "ナカマチ",
    "street": null,
    "office_name": null,
    "office_name_kana": null
  },
  "0053": {
    "postcode": "6310053",
    "prefecture": "奈良県",
    "prefecture_kana": "ナラケン",
    "prefecture_code": 29,
    "city": "奈良市",
    "city_kana": "ナラシ",
    "town": "青垣台",
    "town_kana": "アオガキダイ",
    "street": null,
    "office_name": null,
    "office_name_kana": null
  },
  "0054": {
    "postcode": "6310054",
    "prefecture": "奈良県",
    "prefecture_kana": "ナラケン",
    "prefecture_code": 29,
    "city": "奈良市",
    "city_kana": "ナラシ",
    "town": "石木町",
    "town_kana": "イシキチョウ",
    "street": null,
    "office_name": null,
    "office_name_kana": null
  },
  "0055": {
    "postcode": "6310055",
    "prefecture": "奈良県",
    "prefecture_kana": "ナラケン",
    "prefecture_code": 29,
    "city": "奈良市",
    "city_kana": "ナラシ",
    "town": "大和田町",
    "town_kana": "オオワダチョウ",
    "street": null,
    "office_name": null,
    "office_name_kana": null
  },
  "0056": {
    "postcode": "6310056",
    "prefecture": "奈良県",
    "prefecture_kana": "ナラケン",
    "prefecture_code": 29,
    "city": "奈良市",
    "city_kana": "ナラシ",
    "town": "丸山",
    "town_kana": "マルヤマ",
    "street": null,
    "office_name": null,
    "office_name_kana": null
  },
  "0061": [
    {
      "postcode": "6310061",
      "prefecture": "奈良県",
      "prefecture_kana": "ナラケン",
      "prefecture_code": 29,
      "city": "奈良市",
      "city_kana": "ナラシ",
      "town": "三碓",
      "town_kana": "ミツガラス",
      "street": null,
      "office_name": null,
      "office_name_kana": null
    },
    {
      "postcode": "6310061",
      "prefecture": "奈良県",
      "prefecture_kana": "ナラケン",
      "prefecture_code": 29,
      "city": "奈良市",
      "city_kana": "ナラシ",
      "town": "三碓町",
      "town_kana": "ミツガラスチョウ",
      "street": null,
      "office_name": null,
      "office_name_kana": null
    }
  ],
  "0062": {
    "postcode": "6310062",
    "prefecture": "奈良県",
    "prefecture_kana": "ナラケン",
    "prefecture_code": 29,
    "city": "奈良市",
    "city_kana": "ナラシ",
    "town": "帝塚山",
    "town_kana": "テヅカヤマ",
    "street": null,
    "office_name": null,
    "office_name_kana": null
  },
  "0063": {
    "postcode": "6310063",
    "prefecture": "奈良県",
    "prefecture_kana": "ナラケン",
    "prefecture_code": 29,
    "city": "奈良市",
    "city_kana": "ナラシ",
    "town": "帝塚山中町",
    "town_kana": "テヅカヤマナカマチ",
    "street": null,
    "office_name": null,
    "office_name_kana": null
  },
  "0064": {
    "postcode": "6310064",
    "prefecture": "奈良県",
    "prefecture_kana": "ナラケン",
    "prefecture_code": 29,
    "city": "奈良市",
    "city_kana": "ナラシ",
    "town": "帝塚山南",
    "town_kana": "テヅカヤマミナミ",
    "street": null,
    "office_name": null,
    "office_name_kana": null
  },
  "0065": {
    "postcode": "6310065",
    "prefecture": "奈良県",
    "prefecture_kana": "ナラケン",
    "prefecture_code": 29,
    "city": "奈良市",
    "city_kana": "ナラシ",
    "town": "鳥見町",
    "town_kana": "トリミチョウ",
    "street": null,
    "office_name": null,
    "office_name_kana": null
  },
  "0066": {
    "postcode": "6310066",
    "prefecture": "奈良県",
    "prefecture_kana": "ナラケン",
    "prefecture_code": 29,
    "city": "奈良市",
    "city_kana": "ナラシ",
    "town": "帝塚山西",
    "town_kana": "テヅカヤマニシ",
    "street": null,
    "office_name": null,
    "office_name_kana": null
  },
  "0071": {
    "postcode": "6310071",
    "prefecture": "奈良県",
    "prefecture_kana": "ナラケン",
    "prefecture_code": 29,
    "city": "奈良市",
    "city_kana": "ナラシ",
    "town": "二名平野",
    "town_kana": "ニミョウヒラノ",
    "street": null,
    "office_name": null,
    "office_name_kana": null
  },
  "0072": {
    "postcode": "6310072",
    "prefecture": "奈良県",
    "prefecture_kana": "ナラケン",
    "prefecture_code": 29,
    "city": "奈良市",
    "city_kana": "ナラシ",
    "town": "二名",
    "town_kana": "ニミョウ",
    "street": null,
    "office_name": null,
    "office_name_kana": null
  },
  "0073": {
    "postcode": "6310073",
    "prefecture": "奈良県",
    "prefecture_kana": "ナラケン",
    "prefecture_code": 29,
    "city": "奈良市",
    "city_kana": "ナラシ",
    "town": "二名東町",
    "town_kana": "ニミョウヒガシマチ",
    "street": null,
    "office_name": null,
    "office_name_kana": null
  },
  "0074": {
    "postcode": "6310074",
    "prefecture": "奈良県",
    "prefecture_kana": "ナラケン",
    "prefecture_code": 29,
    "city": "奈良市",
    "city_kana": "ナラシ",
    "town": "三松",
    "town_kana": "ミマツ",
    "street": null,
    "office_name": null,
    "office_name_kana": null
  },
  "0075": {
    "postcode": "6310075",
    "prefecture": "奈良県",
    "prefecture_kana": "ナラケン",
    "prefecture_code": 29,
    "city": "奈良市",
    "city_kana": "ナラシ",
    "town": "三松ヶ丘",
    "town_kana": "ミマツガオカ",
    "street": null,
    "office_name": null,
    "office_name_kana": null
  },
  "0076": {
    "postcode": "6310076",
    "prefecture": "奈良県",
    "prefecture_kana": "ナラケン",
    "prefecture_code": 29,
    "city": "奈良市",
    "city_kana": "ナラシ",
    "town": "富雄北",
    "town_kana": "トミオキタ",
    "street": null,
    "office_name": null,
    "office_name_kana": null
  },
  "0077": {
    "postcode": "6310077",
    "prefecture": "奈良県",
    "prefecture_kana": "ナラケン",
    "prefecture_code": 29,
    "city": "奈良市",
    "city_kana": "ナラシ",
    "town": "富雄川西",
    "town_kana": "トミオカワニシ",
    "street": null,
    "office_name": null,
    "office_name_kana": null
  },
  "0078": {
    "postcode": "6310078",
    "prefecture": "奈良県",
    "prefecture_kana": "ナラケン",
    "prefecture_code": 29,
    "city": "奈良市",
    "city_kana": "ナラシ",
    "town": "富雄元町",
    "town_kana": "トミオモトマチ",
    "street": null,
    "office_name": null,
    "office_name_kana": null
  },
  "0801": {
    "postcode": "6310801",
    "prefecture": "奈良県",
    "prefecture_kana": "ナラケン",
    "prefecture_code": 29,
    "city": "奈良市",
    "city_kana": "ナラシ",
    "town": "左京",
    "town_kana": "サキョウ",
    "street": null,
    "office_name": null,
    "office_name_kana": null
  },
  "0802": {
    "postcode": "6310802",
    "prefecture": "奈良県",
    "prefecture_kana": "ナラケン",
    "prefecture_code": 29,
    "city": "奈良市",
    "city_kana": "ナラシ",
    "town": "歌姫町",
    "town_kana": "ウタヒメチョウ",
    "street": null,
    "office_name": null,
    "office_name_kana": null
  },
  "0803": {
    "postcode": "6310803",
    "prefecture": "奈良県",
    "prefecture_kana": "ナラケン",
    "prefecture_code": 29,
    "city": "奈良市",
    "city_kana": "ナラシ",
    "town": "山陵町",
    "town_kana": "ミササギチョウ",
    "street": null,
    "office_name": null,
    "office_name_kana": null
  },
  "0804": {
    "postcode": "6310804",
    "prefecture": "奈良県",
    "prefecture_kana": "ナラケン",
    "prefecture_code": 29,
    "city": "奈良市",
    "city_kana": "ナラシ",
    "town": "神功",
    "town_kana": "ジングウ",
    "street": null,
    "office_name": null,
    "office_name_kana": null
  },
  "0805": {
    "postcode": "6310805",
    "prefecture": "奈良県",
    "prefecture_kana": "ナラケン",
    "prefecture_code": 29,
    "city": "奈良市",
    "city_kana": "ナラシ",
    "town": "右京",
    "town_kana": "ウキョウ",
    "street": null,
    "office_name": null,
    "office_name_kana": null
  },
  "0806": {
    "postcode": "6310806",
    "prefecture": "奈良県",
    "prefecture_kana": "ナラケン",
    "prefecture_code": 29,
    "city": "奈良市",
    "city_kana": "ナラシ",
    "town": "朱雀",
    "town_kana": "スザク",
    "street": null,
    "office_name": null,
    "office_name_kana": null
  },
  "0811": {
    "postcode": "6310811",
    "prefecture": "奈良県",
    "prefecture_kana": "ナラケン",
    "prefecture_code": 29,
    "city": "奈良市",
    "city_kana": "ナラシ",
    "town": "秋篠町",
    "town_kana": "アキシノチョウ",
    "street": null,
    "office_name": null,
    "office_name_kana": null
  },
  "0812": {
    "postcode": "6310812",
    "prefecture": "奈良県",
    "prefecture_kana": "ナラケン",
    "prefecture_code": 29,
    "city": "奈良市",
    "city_kana": "ナラシ",
    "town": "秋篠早月町",
    "town_kana": "アキシノサツキチョウ",
    "street": null,
    "office_name": null,
    "office_name_kana": null
  },
  "0813": {
    "postcode": "6310813",
    "prefecture": "奈良県",
    "prefecture_kana": "ナラケン",
    "prefecture_code": 29,
    "city": "奈良市",
    "city_kana": "ナラシ",
    "town": "秋篠新町",
    "town_kana": "アキシノシンマチ",
    "street": null,
    "office_name": null,
    "office_name_kana": null
  },
  "0814": {
    "postcode": "6310814",
    "prefecture": "奈良県",
    "prefecture_kana": "ナラケン",
    "prefecture_code": 29,
    "city": "奈良市",
    "city_kana": "ナラシ",
    "town": "秋篠三和町",
    "town_kana": "アキシノサンワチョウ",
    "street": null,
    "office_name": null,
    "office_name_kana": null
  },
  "0815": {
    "postcode": "6310815",
    "prefecture": "奈良県",
    "prefecture_kana": "ナラケン",
    "prefecture_code": 29,
    "city": "奈良市",
    "city_kana": "ナラシ",
    "town": "西大寺新町",
    "town_kana": "サイダイジシンマチ",
    "street": null,
    "office_name": null,
    "office_name_kana": null
  },
  "0816": {
    "postcode": "6310816",
    "prefecture": "奈良県",
    "prefecture_kana": "ナラケン",
    "prefecture_code": 29,
    "city": "奈良市",
    "city_kana": "ナラシ",
    "town": "西大寺本町",
    "town_kana": "サイダイジホンマチ",
    "street": null,
    "office_name": null,
    "office_name_kana": null
  },
  "0817": {
    "postcode": "6310817",
    "prefecture": "奈良県",
    "prefecture_kana": "ナラケン",
    "prefecture_code": 29,
    "city": "奈良市",
    "city_kana": "ナラシ",
    "town": "西大寺北町",
    "town_kana": "サイダイジキタマチ",
    "street": null,
    "office_name": null,
    "office_name_kana": null
  },
  "0818": {
    "postcode": "6310818",
    "prefecture": "奈良県",
    "prefecture_kana": "ナラケン",
    "prefecture_code": 29,
    "city": "奈良市",
    "city_kana": "ナラシ",
    "town": "西大寺赤田町",
    "town_kana": "サイダイジアコダチョウ",
    "street": null,
    "office_name": null,
    "office_name_kana": null
  },
  "0821": {
    "postcode": "6310821",
    "prefecture": "奈良県",
    "prefecture_kana": "ナラケン",
    "prefecture_code": 29,
    "city": "奈良市",
    "city_kana": "ナラシ",
    "town": "西大寺東町",
    "town_kana": "サイダイジヒガシマチ",
    "street": null,
    "office_name": null,
    "office_name_kana": null
  },
  "0822": {
    "postcode": "6310822",
    "prefecture": "奈良県",
    "prefecture_kana": "ナラケン",
    "prefecture_code": 29,
    "city": "奈良市",
    "city_kana": "ナラシ",
    "town": "西大寺栄町",
    "town_kana": "サイダイジサカエマチ",
    "street": null,
    "office_name": null,
    "office_name_kana": null
  },
  "0823": {
    "postcode": "6310823",
    "prefecture": "奈良県",
    "prefecture_kana": "ナラケン",
    "prefecture_code": 29,
    "city": "奈良市",
    "city_kana": "ナラシ",
    "town": "西大寺国見町",
    "town_kana": "サイダイジクニミチョウ",
    "street": null,
    "office_name": null,
    "office_name_kana": null
  },
  "0824": {
    "postcode": "6310824",
    "prefecture": "奈良県",
    "prefecture_kana": "ナラケン",
    "prefecture_code": 29,
    "city": "奈良市",
    "city_kana": "ナラシ",
    "town": "西大寺南町",
    "town_kana": "サイダイジミナミマチ",
    "street": null,
    "office_name": null,
    "office_name_kana": null
  },
  "0825": {
    "postcode": "6310825",
    "prefecture": "奈良県",
    "prefecture_kana": "ナラケン",
    "prefecture_code": 29,
    "city": "奈良市",
    "city_kana": "ナラシ",
    "town": "西大寺芝町",
    "town_kana": "サイダイジシバマチ",
    "street": null,
    "office_name": null,
    "office_name_kana": null
  },
  "0826": {
    "postcode": "6310826",
    "prefecture": "奈良県",
    "prefecture_kana": "ナラケン",
    "prefecture_code": 29,
    "city": "奈良市",
    "city_kana": "ナラシ",
    "town": "西大寺町",
    "town_kana": "サイダイジチョウ",
    "street": null,
    "office_name": null,
    "office_name_kana": null
  },
  "0827": {
    "postcode": "6310827",
    "prefecture": "奈良県",
    "prefecture_kana": "ナラケン",
    "prefecture_code": 29,
    "city": "奈良市",
    "city_kana": "ナラシ",
    "town": "西大寺小坊町",
    "town_kana": "サイダイジコボウチョウ",
    "street": null,
    "office_name": null,
    "office_name_kana": null
  },
  "0831": {
    "postcode": "6310831",
    "prefecture": "奈良県",
    "prefecture_kana": "ナラケン",
    "prefecture_code": 29,
    "city": "奈良市",
    "city_kana": "ナラシ",
    "town": "西大寺宝ヶ丘",
    "town_kana": "サイダイジタカラガオカ",
    "street": null,
    "office_name": null,
    "office_name_kana": null
  },
  "0832": {
    "postcode": "6310832",
    "prefecture": "奈良県",
    "prefecture_kana": "ナラケン",
    "prefecture_code": 29,
    "city": "奈良市",
    "city_kana": "ナラシ",
    "town": "西大寺新田町",
    "town_kana": "サイダイジシンデンチョウ",
    "street": null,
    "office_name": null,
    "office_name_kana": null
  },
  "0833": {
    "postcode": "6310833",
    "prefecture": "奈良県",
    "prefecture_kana": "ナラケン",
    "prefecture_code": 29,
    "city": "奈良市",
    "city_kana": "ナラシ",
    "town": "西大寺野神町",
    "town_kana": "サイダイジノガミチョウ",
    "street": null,
    "office_name": null,
    "office_name_kana": null
  },
  "0834": {
    "postcode": "6310834",
    "prefecture": "奈良県",
    "prefecture_kana": "ナラケン",
    "prefecture_code": 29,
    "city": "奈良市",
    "city_kana": "ナラシ",
    "town": "西大寺新池町",
    "town_kana": "サイダイジシンイケチョウ",
    "street": null,
    "office_name": null,
    "office_name_kana": null
  },
  "0835": {
    "postcode": "6310835",
    "prefecture": "奈良県",
    "prefecture_kana": "ナラケン",
    "prefecture_code": 29,
    "city": "奈良市",
    "city_kana": "ナラシ",
    "town": "西大寺高塚町",
    "town_kana": "サイダイジタカツカチョウ",
    "street": null,
    "office_name": null,
    "office_name_kana": null
  },
  "0836": {
    "postcode": "6310836",
    "prefecture": "奈良県",
    "prefecture_kana": "ナラケン",
    "prefecture_code": 29,
    "city": "奈良市",
    "city_kana": "ナラシ",
    "town": "西大寺竜王町",
    "town_kana": "サイダイジリュウオウチョウ",
    "street": null,
    "office_name": null,
    "office_name_kana": null
  },
  "0837": {
    "postcode": "6310837",
    "prefecture": "奈良県",
    "prefecture_kana": "ナラケン",
    "prefecture_code": 29,
    "city": "奈良市",
    "city_kana": "ナラシ",
    "town": "若葉台",
    "town_kana": "ワカバダイ",
    "street": null,
    "office_name": null,
    "office_name_kana": null
  },
  "0841": {
    "postcode": "6310841",
    "prefecture": "奈良県",
    "prefecture_kana": "ナラケン",
    "prefecture_code": 29,
    "city": "奈良市",
    "city_kana": "ナラシ",
    "town": "青野町",
    "town_kana": "アオノチョウ",
    "street": null,
    "office_name": null,
    "office_name_kana": null
  },
  "0842": [
    {
      "postcode": "6310842",
      "prefecture": "奈良県",
      "prefecture_kana": "ナラケン",
      "prefecture_code": 29,
      "city": "奈良市",
      "city_kana": "ナラシ",
      "town": "菅原町",
      "town_kana": "スガハラチョウ",
      "street": null,
      "office_name": null,
      "office_name_kana": null
    },
    {
      "postcode": "6310842",
      "prefecture": "奈良県",
      "prefecture_kana": "ナラケン",
      "prefecture_code": 29,
      "city": "奈良市",
      "city_kana": "ナラシ",
      "town": "菅原東",
      "town_kana": "スガハラヒガシ",
      "street": null,
      "office_name": null,
      "office_name_kana": null
    }
  ],
  "0843": {
    "postcode": "6310843",
    "prefecture": "奈良県",
    "prefecture_kana": "ナラケン",
    "prefecture_code": 29,
    "city": "奈良市",
    "city_kana": "ナラシ",
    "town": "疋田町",
    "town_kana": "ヒキダチョウ",
    "street": null,
    "office_name": null,
    "office_name_kana": null
  },
  "0844": {
    "postcode": "6310844",
    "prefecture": "奈良県",
    "prefecture_kana": "ナラケン",
    "prefecture_code": 29,
    "city": "奈良市",
    "city_kana": "ナラシ",
    "town": "宝来町",
    "town_kana": "ホウライチョウ",
    "street": null,
    "office_name": null,
    "office_name_kana": null
  },
  "0845": {
    "postcode": "6310845",
    "prefecture": "奈良県",
    "prefecture_kana": "ナラケン",
    "prefecture_code": 29,
    "city": "奈良市",
    "city_kana": "ナラシ",
    "town": "宝来",
    "town_kana": "ホウライ",
    "street": null,
    "office_name": null,
    "office_name_kana": null
  },
  "0846": {
    "postcode": "6310846",
    "prefecture": "奈良県",
    "prefecture_kana": "ナラケン",
    "prefecture_code": 29,
    "city": "奈良市",
    "city_kana": "ナラシ",
    "town": "平松",
    "town_kana": "ヒラマツ",
    "street": null,
    "office_name": null,
    "office_name_kana": null
  },
  "8501": {
    "postcode": "6318501",
    "prefecture": "奈良県",
    "prefecture_kana": "ナラケン",
    "prefecture_code": 29,
    "city": "奈良市",
    "city_kana": "ナラシ",
    "town": "帝塚山",
    "town_kana": "テヅカヤマ",
    "street": "７丁目１−１",
    "office_name": "帝塚山大学",
    "office_name_kana": "テヅカヤマダイガク"
  },
  "8502": {
    "postcode": "6318502",
    "prefecture": "奈良県",
    "prefecture_kana": "ナラケン",
    "prefecture_code": 29,
    "city": "奈良市",
    "city_kana": "ナラシ",
    "town": "山陵町",
    "town_kana": "ミササギチョウ",
    "street": "１５００",
    "office_name": "奈良大学",
    "office_name_kana": "ナラダイガク"
  },
  "8503": {
    "postcode": "6318503",
    "prefecture": "奈良県",
    "prefecture_kana": "ナラケン",
    "prefecture_code": 29,
    "city": "奈良市",
    "city_kana": "ナラシ",
    "town": "西大寺栄町",
    "town_kana": "サイダイジサカエマチ",
    "street": "３番７号",
    "office_name": "三和建設　株式会社",
    "office_name_kana": "サンワケンセツ カブシキガイシヤ"
  },
  "8505": {
    "postcode": "6318505",
    "prefecture": "奈良県",
    "prefecture_kana": "ナラケン",
    "prefecture_code": 29,
    "city": "奈良市",
    "city_kana": "ナラシ",
    "town": "中町",
    "town_kana": "ナカマチ",
    "street": "３３２７−２０４",
    "office_name": "近畿大学　農学部",
    "office_name_kana": "キンキダイガク ノウガクブ"
  },
  "8511": {
    "postcode": "6318511",
    "prefecture": "奈良県",
    "prefecture_kana": "ナラケン",
    "prefecture_code": 29,
    "city": "奈良市",
    "city_kana": "ナラシ",
    "town": "西大寺東町",
    "town_kana": "サイダイジヒガシマチ",
    "street": "２丁目４−１",
    "office_name": "株式会社　近鉄百貨店　奈良店",
    "office_name_kana": "カブシキガイシヤ キンテツヒヤツカテン ナラテン"
  },
  "8522": {
    "postcode": "6318522",
    "prefecture": "奈良県",
    "prefecture_kana": "ナラケン",
    "prefecture_code": 29,
    "city": "奈良市",
    "city_kana": "ナラシ",
    "town": "中登美ヶ丘",
    "town_kana": "ナカトミガオカ",
    "street": "３丁目１５番１号",
    "office_name": "奈良学園幼稚園・奈良学園小学校・奈良学園登美ヶ丘中学校・奈良学園登美ヶ丘高等学校",
    "office_name_kana": "ナラガクエンヨウチエン・ナラガクエンシヨウガツコウ・ナラガクエントミガオカチユウガツコウ・ナラガクエントミガオカコウトウガツコウ"
  },
  "8523": {
    "postcode": "6318523",
    "prefecture": "奈良県",
    "prefecture_kana": "ナラケン",
    "prefecture_code": 29,
    "city": "奈良市",
    "city_kana": "ナラシ",
    "town": "中登美ヶ丘",
    "town_kana": "ナカトミガオカ",
    "street": "３丁目１５番１号",
    "office_name": "奈良文化女子短期大学",
    "office_name_kana": "ナラブンカジヨシタンキダイガク"
  },
  "8524": {
    "postcode": "6318524",
    "prefecture": "奈良県",
    "prefecture_kana": "ナラケン",
    "prefecture_code": 29,
    "city": "奈良市",
    "city_kana": "ナラシ",
    "town": "中登美ヶ丘",
    "town_kana": "ナカトミガオカ",
    "street": "３丁目１５番１号",
    "office_name": "奈良学園大学　登美ヶ丘キャンパス",
    "office_name_kana": "ナラガクエンダイガク トミガオカキヤンパス"
  },
  "8555": {
    "postcode": "6318555",
    "prefecture": "奈良県",
    "prefecture_kana": "ナラケン",
    "prefecture_code": 29,
    "city": "奈良市",
    "city_kana": "ナラシ",
    "town": "秋篠町",
    "town_kana": "アキシノチョウ",
    "street": "５０",
    "office_name": "奈良大学附属高等学校",
    "office_name_kana": "ナラダイガクフゾクコウトウガツコウ"
  },
  "8585": {
    "postcode": "6318585",
    "prefecture": "奈良県",
    "prefecture_kana": "ナラケン",
    "prefecture_code": 29,
    "city": "奈良市",
    "city_kana": "ナラシ",
    "town": "学園南",
    "town_kana": "ガクエンミナミ",
    "street": "３丁目１−３",
    "office_name": "帝塚山短期大学",
    "office_name_kana": "テヅカヤマタンキダイガク"
  },
  "8586": {
    "postcode": "6318586",
    "prefecture": "奈良県",
    "prefecture_kana": "ナラケン",
    "prefecture_code": 29,
    "city": "奈良市",
    "city_kana": "ナラシ",
    "town": "西大寺南町",
    "town_kana": "サイダイジミナミマチ",
    "street": "８番３３号",
    "office_name": "奈良商工会議所",
    "office_name_kana": "ナラシヨウコウカイギシヨ"
  }
}