{
  "0000": {
    "postcode": "6320000",
    "prefecture": "奈良県",
    "prefecture_kana": "ナラケン",
    "prefecture_code": 29,
    "city": "天理市",
    "city_kana": "テンリシ",
    "town": "",
    "town_kana": "",
    "street": null,
    "office_name": null,
    "office_name_kana": null
  },
  "0001": {
    "postcode": "6320001",
    "prefecture": "奈良県",
    "prefecture_kana": "ナラケン",
    "prefecture_code": 29,
    "city": "天理市",
    "city_kana": "テンリシ",
    "town": "中之庄町",
    "town_kana": "ナカノショウチョウ",
    "street": null,
    "office_name": null,
    "office_name_kana": null
  },
  "0002": {
    "postcode": "6320002",
    "prefecture": "奈良県",
    "prefecture_kana": "ナラケン",
    "prefecture_code": 29,
    "city": "天理市",
    "city_kana": "テンリシ",
    "town": "和爾町",
    "town_kana": "ワニチョウ",
    "street": null,
    "office_name": null,
    "office_name_kana": null
  },
  "0003": {
    "postcode": "6320003",
    "prefecture": "奈良県",
    "prefecture_kana": "ナラケン",
    "prefecture_code": 29,
    "city": "天理市",
    "city_kana": "テンリシ",
    "town": "岩屋町",
    "town_kana": "イワヤチョウ",
    "street": null,
    "office_name": null,
    "office_name_kana": null
  },
  "0004": {
    "postcode": "6320004",
    "prefecture": "奈良県",
    "prefecture_kana": "ナラケン",
    "prefecture_code": 29,
    "city": "天理市",
    "city_kana": "テンリシ",
    "town": "櫟本町",
    "town_kana": "イチノモトチョウ",
    "street": null,
    "office_name": null,
    "office_name_kana": null
  },
  "0005": {
    "postcode": "6320005",
    "prefecture": "奈良県",
    "prefecture_kana": "ナラケン",
    "prefecture_code": 29,
    "city": "天理市",
    "city_kana": "テンリシ",
    "town": "楢町",
    "town_kana": "ナラチョウ",
    "street": null,
    "office_name": null,
    "office_name_kana": null
  },
  "0006": {
    "postcode": "6320006",
    "prefecture": "奈良県",
    "prefecture_kana": "ナラケン",
    "prefecture_code": 29,
    "city": "天理市",
    "city_kana": "テンリシ",
    "town": "蔵之庄町",
    "town_kana": "クラノショウチョウ",
    "street": null,
    "office_name": null,
    "office_name_kana": null
  },
  "0007": {
    "postcode": "6320007",
    "prefecture": "奈良県",
    "prefecture_kana": "ナラケン",
    "prefecture_code": 29,
    "city": "天理市",
    "city_kana": "テンリシ",
    "town": "森本町",
    "town_kana": "モリモトチョウ",
    "street": null,
    "office_name": null,
    "office_name_kana": null
  },
  "0011": {
    "postcode": "6320011",
    "prefecture": "奈良県",
    "prefecture_kana": "ナラケン",
    "prefecture_code": 29,
    "city": "天理市",
    "city_kana": "テンリシ",
    "town": "石上町",
    "town_kana": "イソノカミチョウ",
    "street": null,
    "office_name": null,
    "office_name_kana": null
  },
  "0012": {
    "postcode": "6320012",
    "prefecture": "奈良県",
    "prefecture_kana": "ナラケン",
    "prefecture_code": 29,
    "city": "天理市",
    "city_kana": "テンリシ",
    "town": "豊田町",
    "town_kana": "トヨダチョウ",
    "street": null,
    "office_name": null,
    "office_name_kana": null
  },
  "0013": {
    "postcode": "6320013",
    "prefecture": "奈良県",
    "prefecture_kana": "ナラケン",
    "prefecture_code": 29,
    "city": "天理市",
    "city_kana": "テンリシ",
    "town": "豊井町",
    "town_kana": "トヨイチョウ",
    "street": null,
    "office_name": null,
    "office_name_kana": null
  },
  "0014": {
    "postcode": "6320014",
    "prefecture": "奈良県",
    "prefecture_kana": "ナラケン",
    "prefecture_code": 29,
    "city": "天理市",
    "city_kana": "テンリシ",
    "town": "布留町",
    "town_kana": "フルチョウ",
    "street": null,
    "office_name": null,
    "office_name_kana": null
  },
  "0015": {
    "postcode": "6320015",
    "prefecture": "奈良県",
    "prefecture_kana": "ナラケン",
    "prefecture_code": 29,
    "city": "天理市",
    "city_kana": "テンリシ",
    "town": "三島町",
    "town_kana": "ミシマチョウ",
    "street": null,
    "office_name": null,
    "office_name_kana": null
  },
  "0016": {
    "postcode": "6320016",
    "prefecture": "奈良県",
    "prefecture_kana": "ナラケン",
    "prefecture_code": 29,
    "city": "天理市",
    "city_kana": "テンリシ",
    "town": "川原城町",
    "town_kana": "カワハラジョウチョウ",
    "street": null,
    "office_name": null,
    "office_name_kana": null
  },
  "0017": {
    "postcode": "6320017",
    "prefecture": "奈良県",
    "prefecture_kana": "ナラケン",
    "prefecture_code": 29,
    "city": "天理市",
    "city_kana": "テンリシ",
    "town": "田部町",
    "town_kana": "タベチョウ",
    "street": null,
    "office_name": null,
    "office_name_kana": null
  },
  "0018": {
    "postcode": "6320018",
    "prefecture": "奈良県",
    "prefecture_kana": "ナラケン",
    "prefecture_code": 29,
    "city": "天理市",
    "city_kana": "テンリシ",
    "town": "別所町",
    "town_kana": "ベッショチョウ",
    "street": null,
    "office_name": null,
    "office_name_kana": null
  },
  "0021": {
    "postcode": "6320021",
    "prefecture": "奈良県",
    "prefecture_kana": "ナラケン",
    "prefecture_code": 29,
    "city": "天理市",
    "city_kana": "テンリシ",
    "town": "滝本町",
    "town_kana": "タキモトチョウ",
    "street": null,
    "office_name": null,
    "office_name_kana": null
  },
  "0022": {
    "postcode": "6320022",
    "prefecture": "奈良県",
    "prefecture_kana": "ナラケン",
    "prefecture_code": 29,
    "city": "天理市",
    "city_kana": "テンリシ",
    "town": "苣原町",
    "town_kana": "チシャワラチョウ",
    "street": null,
    "office_name": null,
    "office_name_kana": null
  },
  "0023": {
    "postcode": "6320023",
    "prefecture": "奈良県",
    "prefecture_kana": "ナラケン",
    "prefecture_code": 29,
    "city": "天理市",
    "city_kana": "テンリシ",
    "town": "下仁興町",
    "town_kana": "シモニゴウチョウ",
    "street": null,
    "office_name": null,
    "office_name_kana": null
  },
  "0024": {
    "postcode": "6320024",
    "prefecture": "奈良県",
    "prefecture_kana": "ナラケン",
    "prefecture_code": 29,
    "city": "天理市",
    "city_kana": "テンリシ",
    "town": "上仁興町",
    "town_kana": "カミニゴウチョウ",
    "street": null,
    "office_name": null,
    "office_name_kana": null
  },
  "0025": {
    "postcode": "6320025",
    "prefecture": "奈良県",
    "prefecture_kana": "ナラケン",
    "prefecture_code": 29,
    "city": "天理市",
    "city_kana": "テンリシ",
    "town": "藤井町",
    "town_kana": "フジイチョウ",
    "street": null,
    "office_name": null,
    "office_name_kana": null
  },
  "0031": {
    "postcode": "6320031",
    "prefecture": "奈良県",
    "prefecture_kana": "ナラケン",
    "prefecture_code": 29,
    "city": "天理市",
    "city_kana": "テンリシ",
    "town": "内馬場町",
    "town_kana": "ウチババチョウ",
    "street": null,
    "office_name": null,
    "office_name_kana": null
  },
  "0032": {
    "postcode": "6320032",
    "prefecture": "奈良県",
    "prefecture_kana": "ナラケン",
    "prefecture_code": 29,
    "city": "天理市",
    "city_kana": "テンリシ",
    "town": "杣之内町",
    "town_kana": "ソマノウチチョウ",
    "street": null,
    "office_name": null,
    "office_name_kana": null
  },
  "0033": {
    "postcode": "6320033",
    "prefecture": "奈良県",
    "prefecture_kana": "ナラケン",
    "prefecture_code": 29,
    "city": "天理市",
    "city_kana": "テンリシ",
    "town": "勾田町",
    "town_kana": "マガタチョウ",
    "street": null,
    "office_name": null,
    "office_name_kana": null
  },
  "0034": {
    "postcode": "6320034",
    "prefecture": "奈良県",
    "prefecture_kana": "ナラケン",
    "prefecture_code": 29,
    "city": "天理市",
    "city_kana": "テンリシ",
    "town": "丹波市町",
    "town_kana": "タンバイチチョウ",
    "street": null,
    "office_name": null,
    "office_name_kana": null
  },
  "0035": {
    "postcode": "6320035",
    "prefecture": "奈良県",
    "prefecture_kana": "ナラケン",
    "prefecture_code": 29,
    "city": "天理市",
    "city_kana": "テンリシ",
    "town": "守目堂町",
    "town_kana": "モリメドウチョウ",
    "street": null,
    "office_name": null,
    "office_name_kana": null
  },
  "0036": {
    "postcode": "6320036",
    "prefecture": "奈良県",
    "prefecture_kana": "ナラケン",
    "prefecture_code": 29,
    "city": "天理市",
    "city_kana": "テンリシ",
    "town": "御経野町",
    "town_kana": "ゴキョウノチョウ",
    "street": null,
    "office_name": null,
    "office_name_kana": null
  },
  "0041": {
    "postcode": "6320041",
    "prefecture": "奈良県",
    "prefecture_kana": "ナラケン",
    "prefecture_code": 29,
    "city": "天理市",
    "city_kana": "テンリシ",
    "town": "竹之内町",
    "town_kana": "タケノウチチョウ",
    "street": null,
    "office_name": null,
    "office_name_kana": null
  },
  "0042": {
    "postcode": "6320042",
    "prefecture": "奈良県",
    "prefecture_kana": "ナラケン",
    "prefecture_code": 29,
    "city": "天理市",
    "city_kana": "テンリシ",
    "town": "萱生町",
    "town_kana": "カヨウチョウ",
    "street": null,
    "office_name": null,
    "office_name_kana": null
  },
  "0043": {
    "postcode": "6320043",
    "prefecture": "奈良県",
    "prefecture_kana": "ナラケン",
    "prefecture_code": 29,
    "city": "天理市",
    "city_kana": "テンリシ",
    "town": "佐保庄町",
    "town_kana": "サホノショウチョウ",
    "street": null,
    "office_name": null,
    "office_name_kana": null
  },
  "0044": {
    "postcode": "6320044",
    "prefecture": "奈良県",
    "prefecture_kana": "ナラケン",
    "prefecture_code": 29,
    "city": "天理市",
    "city_kana": "テンリシ",
    "town": "兵庫町",
    "town_kana": "ヒョウゴチョウ",
    "street": null,
    "office_name": null,
    "office_name_kana": null
  },
  "0045": {
    "postcode": "6320045",
    "prefecture": "奈良県",
    "prefecture_kana": "ナラケン",
    "prefecture_code": 29,
    "city": "天理市",
    "city_kana": "テンリシ",
    "town": "福知堂町",
    "town_kana": "フクチドウチョウ",
    "street": null,
    "office_name": null,
    "office_name_kana": null
  },
  "0046": {
    "postcode": "6320046",
    "prefecture": "奈良県",
    "prefecture_kana": "ナラケン",
    "prefecture_code": 29,
    "city": "天理市",
    "city_kana": "テンリシ",
    "town": "三昧田町",
    "town_kana": "サンマイデンチョウ",
    "street": null,
    "office_name": null,
    "office_name_kana": null
  },
  "0047": {
    "postcode": "6320047",
    "prefecture": "奈良県",
    "prefecture_kana": "ナラケン",
    "prefecture_code": 29,
    "city": "天理市",
    "city_kana": "テンリシ",
    "town": "乙木町",
    "town_kana": "オトギチョウ",
    "street": null,
    "office_name": null,
    "office_name_kana": null
  },
  "0048": {
    "postcode": "6320048",
    "prefecture": "奈良県",
    "prefecture_kana": "ナラケン",
    "prefecture_code": 29,
    "city": "天理市",
    "city_kana": "テンリシ",
    "town": "園原町",
    "town_kana": "ソノハラチョウ",
    "street": null,
    "office_name": null,
    "office_name_kana": null
  },
  "0051": {
    "postcode": "6320051",
    "prefecture": "奈良県",
    "prefecture_kana": "ナラケン",
    "prefecture_code": 29,
    "city": "天理市",
    "city_kana": "テンリシ",
    "town": "中山町",
    "town_kana": "ナカヤマチョウ",
    "street": null,
    "office_name": null,
    "office_name_kana": null
  },
  "0052": {
    "postcode": "6320052",
    "prefecture": "奈良県",
    "prefecture_kana": "ナラケン",
    "prefecture_code": 29,
    "city": "天理市",
    "city_kana": "テンリシ",
    "town": "柳本町",
    "town_kana": "ヤナギモトチョウ",
    "street": null,
    "office_name": null,
    "office_name_kana": null
  },
  "0053": {
    "postcode": "6320053",
    "prefecture": "奈良県",
    "prefecture_kana": "ナラケン",
    "prefecture_code": 29,
    "city": "天理市",
    "city_kana": "テンリシ",
    "town": "渋谷町",
    "town_kana": "シブタニチョウ",
    "street": null,
    "office_name": null,
    "office_name_kana": null
  },
  "0054": {
    "postcode": "6320054",
    "prefecture": "奈良県",
    "prefecture_kana": "ナラケン",
    "prefecture_code": 29,
    "city": "天理市",
    "city_kana": "テンリシ",
    "town": "檜垣町",
    "town_kana": "ヒガイチョウ",
    "street": null,
    "office_name": null,
    "office_name_kana": null
  },
  "0055": {
    "postcode": "6320055",
    "prefecture": "奈良県",
    "prefecture_kana": "ナラケン",
    "prefecture_code": 29,
    "city": "天理市",
    "city_kana": "テンリシ",
    "town": "遠田町",
    "town_kana": "トオダチョウ",
    "street": null,
    "office_name": null,
    "office_name_kana": null
  },
  "0056": {
    "postcode": "6320056",
    "prefecture": "奈良県",
    "prefecture_kana": "ナラケン",
    "prefecture_code": 29,
    "city": "天理市",
    "city_kana": "テンリシ",
    "town": "岸田町",
    "town_kana": "キシダチョウ",
    "street": null,
    "office_name": null,
    "office_name_kana": null
  },
  "0057": {
    "postcode": "6320057",
    "prefecture": "奈良県",
    "prefecture_kana": "ナラケン",
    "prefecture_code": 29,
    "city": "天理市",
    "city_kana": "テンリシ",
    "town": "新泉町",
    "town_kana": "ニイズミチョウ",
    "street": null,
    "office_name": null,
    "office_name_kana": null
  },
  "0058": {
    "postcode": "6320058",
    "prefecture": "奈良県",
    "prefecture_kana": "ナラケン",
    "prefecture_code": 29,
    "city": "天理市",
    "city_kana": "テンリシ",
    "town": "成願寺町",
    "town_kana": "ジョウガンジチョウ",
    "street": null,
    "office_name": null,
    "office_name_kana": null
  },
  "0061": {
    "postcode": "6320061",
    "prefecture": "奈良県",
    "prefecture_kana": "ナラケン",
    "prefecture_code": 29,
    "city": "天理市",
    "city_kana": "テンリシ",
    "town": "永原町",
    "town_kana": "ナガハラチョウ",
    "street": null,
    "office_name": null,
    "office_name_kana": null
  },
  "0062": {
    "postcode": "6320062",
    "prefecture": "奈良県",
    "prefecture_kana": "ナラケン",
    "prefecture_code": 29,
    "city": "天理市",
    "city_kana": "テンリシ",
    "town": "長柄町",
    "town_kana": "ナガラチョウ",
    "street": null,
    "office_name": null,
    "office_name_kana": null
  },
  "0063": {
    "postcode": "6320063",
    "prefecture": "奈良県",
    "prefecture_kana": "ナラケン",
    "prefecture_code": 29,
    "city": "天理市",
    "city_kana": "テンリシ",
    "town": "西長柄町",
    "town_kana": "ニシナガラチョウ",
    "street": null,
    "office_name": null,
    "office_name_kana": null
  },
  "0064": {
    "postcode": "6320064",
    "prefecture": "奈良県",
    "prefecture_kana": "ナラケン",
    "prefecture_code": 29,
    "city": "天理市",
    "city_kana": "テンリシ",
    "town": "海知町",
    "town_kana": "カイチチョウ",
    "street": null,
    "office_name": null,
    "office_name_kana": null
  },
  "0065": {
    "postcode": "6320065",
    "prefecture": "奈良県",
    "prefecture_kana": "ナラケン",
    "prefecture_code": 29,
    "city": "天理市",
    "city_kana": "テンリシ",
    "town": "武蔵町",
    "town_kana": "ムサシチョウ",
    "street": null,
    "office_name": null,
    "office_name_kana": null
  },
  "0066": {
    "postcode": "6320066",
    "prefecture": "奈良県",
    "prefecture_kana": "ナラケン",
    "prefecture_code": 29,
    "city": "天理市",
    "city_kana": "テンリシ",
    "town": "備前町",
    "town_kana": "ビゼンチョウ",
    "street": null,
    "office_name": null,
    "office_name_kana": null
  },
  "0067": {
    "postcode": "6320067",
    "prefecture": "奈良県",
    "prefecture_kana": "ナラケン",
    "prefecture_code": 29,
    "city": "天理市",
    "city_kana": "テンリシ",
    "town": "吉田町",
    "town_kana": "ヨシダチョウ",
    "street": null,
    "office_name": null,
    "office_name_kana": null
  },
  "0068": {
    "postcode": "6320068",
    "prefecture": "奈良県",
    "prefecture_kana": "ナラケン",
    "prefecture_code": 29,
    "city": "天理市",
    "city_kana": "テンリシ",
    "town": "合場町",
    "town_kana": "アイバチョウ",
    "street": null,
    "office_name": null,
    "office_name_kana": null
  },
  "0069": {
    "postcode": "6320069",
    "prefecture": "奈良県",
    "prefecture_kana": "ナラケン",
    "prefecture_code": 29,
    "city": "天理市",
    "city_kana": "テンリシ",
    "town": "九条町",
    "town_kana": "クジョウチョウ",
    "street": null,
    "office_name": null,
    "office_name_kana": null
  },
  "0071": {
    "postcode": "6320071",
    "prefecture": "奈良県",
    "prefecture_kana": "ナラケン",
    "prefecture_code": 29,
    "city": "天理市",
    "city_kana": "テンリシ",
    "town": "田井庄町",
    "town_kana": "タイノショウチョウ",
    "street": null,
    "office_name": null,
    "office_name_kana": null
  },
  "0072": {
    "postcode": "6320072",
    "prefecture": "奈良県",
    "prefecture_kana": "ナラケン",
    "prefecture_code": 29,
    "city": "天理市",
    "city_kana": "テンリシ",
    "town": "富堂町",
    "town_kana": "トミドウチョウ",
    "street": null,
    "office_name": null,
    "office_name_kana": null
  },
  "0073": {
    "postcode": "6320073",
    "prefecture": "奈良県",
    "prefecture_kana": "ナラケン",
    "prefecture_code": 29,
    "city": "天理市",
    "city_kana": "テンリシ",
    "town": "田町",
    "town_kana": "タチョウ",
    "street": null,
    "office_name": null,
    "office_name_kana": null
  },
  "0074": {
    "postcode": "6320074",
    "prefecture": "奈良県",
    "prefecture_kana": "ナラケン",
    "prefecture_code": 29,
    "city": "天理市",
    "city_kana": "テンリシ",
    "town": "東井戸堂町",
    "town_kana": "ヒガシイドウドウチョウ",
    "street": null,
    "office_name": null,
    "office_name_kana": null
  },
  "0075": {
    "postcode": "6320075",
    "prefecture": "奈良県",
    "prefecture_kana": "ナラケン",
    "prefecture_code": 29,
    "city": "天理市",
    "city_kana": "テンリシ",
    "town": "西井戸堂町",
    "town_kana": "ニシイドウドウチョウ",
    "street": null,
    "office_name": null,
    "office_name_kana": null
  },
  "0076": {
    "postcode": "6320076",
    "prefecture": "奈良県",
    "prefecture_kana": "ナラケン",
    "prefecture_code": 29,
    "city": "天理市",
    "city_kana": "テンリシ",
    "town": "岩室町",
    "town_kana": "イワムロチョウ",
    "street": null,
    "office_name": null,
    "office_name_kana": null
  },
  "0077": {
    "postcode": "6320077",
    "prefecture": "奈良県",
    "prefecture_kana": "ナラケン",
    "prefecture_code": 29,
    "city": "天理市",
    "city_kana": "テンリシ",
    "town": "平等坊町",
    "town_kana": "ビョウドウボウチョウ",
    "street": null,
    "office_name": null,
    "office_name_kana": null
  },
  "0078": {
    "postcode": "6320078",
    "prefecture": "奈良県",
    "prefecture_kana": "ナラケン",
    "prefecture_code": 29,
    "city": "天理市",
    "city_kana": "テンリシ",
    "town": "杉本町",
    "town_kana": "スギモトチョウ",
    "street": null,
    "office_name": null,
    "office_name_kana": null
  },
  "0081": {
    "postcode": "6320081",
    "prefecture": "奈良県",
    "prefecture_kana": "ナラケン",
    "prefecture_code": 29,
    "city": "天理市",
    "city_kana": "テンリシ",
    "town": "二階堂上ノ庄町",
    "town_kana": "ニカイドウカミノショウチョウ",
    "street": null,
    "office_name": null,
    "office_name_kana": null
  },
  "0082": {
    "postcode": "6320082",
    "prefecture": "奈良県",
    "prefecture_kana": "ナラケン",
    "prefecture_code": 29,
    "city": "天理市",
    "city_kana": "テンリシ",
    "town": "荒蒔町",
    "town_kana": "アラマキチョウ",
    "street": null,
    "office_name": null,
    "office_name_kana": null
  },
  "0083": {
    "postcode": "6320083",
    "prefecture": "奈良県",
    "prefecture_kana": "ナラケン",
    "prefecture_code": 29,
    "city": "天理市",
    "city_kana": "テンリシ",
    "town": "稲葉町",
    "town_kana": "イナバチョウ",
    "street": null,
    "office_name": null,
    "office_name_kana": null
  },
  "0084": {
    "postcode": "6320084",
    "prefecture": "奈良県",
    "prefecture_kana": "ナラケン",
    "prefecture_code": 29,
    "city": "天理市",
    "city_kana": "テンリシ",
    "town": "嘉幡町",
    "town_kana": "カバタチョウ",
    "street": null,
    "office_name": null,
    "office_name_kana": null
  },
  "0085": {
    "postcode": "6320085",
    "prefecture": "奈良県",
    "prefecture_kana": "ナラケン",
    "prefecture_code": 29,
    "city": "天理市",
    "city_kana": "テンリシ",
    "town": "小島町",
    "town_kana": "コジマチョウ",
    "street": null,
    "office_name": null,
    "office_name_kana": null
  },
  "0086": {
    "postcode": "6320086",
    "prefecture": "奈良県",
    "prefecture_kana": "ナラケン",
    "prefecture_code": 29,
    "city": "天理市",
    "city_kana": "テンリシ",
    "town": "庵治町",
    "town_kana": "オウジチョウ",
    "street": null,
    "office_name": null,
    "office_name_kana": null
  },
  "0087": {
    "postcode": "6320087",
    "prefecture": "奈良県",
    "prefecture_kana": "ナラケン",
    "prefecture_code": 29,
    "city": "天理市",
    "city_kana": "テンリシ",
    "town": "二階堂南菅田町",
    "town_kana": "ニカイドウミナミスガタチョウ",
    "street": null,
    "office_name": null,
    "office_name_kana": null
  },
  "0088": {
    "postcode": "6320088",
    "prefecture": "奈良県",
    "prefecture_kana": "ナラケン",
    "prefecture_code": 29,
    "city": "天理市",
    "city_kana": "テンリシ",
    "town": "二階堂北菅田町",
    "town_kana": "ニカイドウキタスガタチョウ",
    "street": null,
    "office_name": null,
    "office_name_kana": null
  },
  "0091": {
    "postcode": "6320091",
    "prefecture": "奈良県",
    "prefecture_kana": "ナラケン",
    "prefecture_code": 29,
    "city": "天理市",
    "city_kana": "テンリシ",
    "town": "上総町",
    "town_kana": "カンサチョウ",
    "street": null,
    "office_name": null,
    "office_name_kana": null
  },
  "0092": {
    "postcode": "6320092",
    "prefecture": "奈良県",
    "prefecture_kana": "ナラケン",
    "prefecture_code": 29,
    "city": "天理市",
    "city_kana": "テンリシ",
    "town": "小田中町",
    "town_kana": "コダナカチョウ",
    "street": null,
    "office_name": null,
    "office_name_kana": null
  },
  "0093": {
    "postcode": "6320093",
    "prefecture": "奈良県",
    "prefecture_kana": "ナラケン",
    "prefecture_code": 29,
    "city": "天理市",
    "city_kana": "テンリシ",
    "town": "指柳町",
    "town_kana": "サシヤナギチョウ",
    "street": null,
    "office_name": null,
    "office_name_kana": null
  },
  "0094": {
    "postcode": "6320094",
    "prefecture": "奈良県",
    "prefecture_kana": "ナラケン",
    "prefecture_code": 29,
    "city": "天理市",
    "city_kana": "テンリシ",
    "town": "前栽町",
    "town_kana": "センザイチョウ",
    "street": null,
    "office_name": null,
    "office_name_kana": null
  },
  "0095": {
    "postcode": "6320095",
    "prefecture": "奈良県",
    "prefecture_kana": "ナラケン",
    "prefecture_code": 29,
    "city": "天理市",
    "city_kana": "テンリシ",
    "town": "喜殿町",
    "town_kana": "キドノチョウ",
    "street": null,
    "office_name": null,
    "office_name_kana": null
  },
  "0096": {
    "postcode": "6320096",
    "prefecture": "奈良県",
    "prefecture_kana": "ナラケン",
    "prefecture_code": 29,
    "city": "天理市",
    "city_kana": "テンリシ",
    "town": "小路町",
    "town_kana": "ショウジチョウ",
    "street": null,
    "office_name": null,
    "office_name_kana": null
  },
  "0097": {
    "postcode": "6320097",
    "prefecture": "奈良県",
    "prefecture_kana": "ナラケン",
    "prefecture_code": 29,
    "city": "天理市",
    "city_kana": "テンリシ",
    "town": "中町",
    "town_kana": "ナカチョウ",
    "street": null,
    "office_name": null,
    "office_name_kana": null
  },
  "0098": {
    "postcode": "6320098",
    "prefecture": "奈良県",
    "prefecture_kana": "ナラケン",
    "prefecture_code": 29,
    "city": "天理市",
    "city_kana": "テンリシ",
    "town": "南六条町",
    "town_kana": "ミナミロクジョウチョウ",
    "street": null,
    "office_name": null,
    "office_name_kana": null
  },
  "0101": {
    "postcode": "6320101",
    "prefecture": "奈良県",
    "prefecture_kana": "ナラケン",
    "prefecture_code": 29,
    "city": "奈良市",
    "city_kana": "ナラシ",
    "town": "下深川町",
    "town_kana": "シモフカワチョウ",
    "street": null,
    "office_name": null,
    "office_name_kana": null
  },
  "0102": {
    "postcode": "6320102",
    "prefecture": "奈良県",
    "prefecture_kana": "ナラケン",
    "prefecture_code": 29,
    "city": "奈良市",
    "city_kana": "ナラシ",
    "town": "上深川町",
    "town_kana": "カミフカワチョウ",
    "street": null,
    "office_name": null,
    "office_name_kana": null
  },
  "0103": {
    "postcode": "6320103",
    "prefecture": "奈良県",
    "prefecture_kana": "ナラケン",
    "prefecture_code": 29,
    "city": "奈良市",
    "city_kana": "ナラシ",
    "town": "荻町",
    "town_kana": "オオギチョウ",
    "street": null,
    "office_name": null,
    "office_name_kana": null
  },
  "0111": {
    "postcode": "6320111",
    "prefecture": "奈良県",
    "prefecture_kana": "ナラケン",
    "prefecture_code": 29,
    "city": "奈良市",
    "city_kana": "ナラシ",
    "town": "小倉町",
    "town_kana": "オグラチョウ",
    "street": null,
    "office_name": null,
    "office_name_kana": null
  },
  "0112": {
    "postcode": "6320112",
    "prefecture": "奈良県",
    "prefecture_kana": "ナラケン",
    "prefecture_code": 29,
    "city": "奈良市",
    "city_kana": "ナラシ",
    "town": "針ヶ別所町",
    "town_kana": "ハリガベッショチョウ",
    "street": null,
    "office_name": null,
    "office_name_kana": null
  },
  "0113": {
    "postcode": "6320113",
    "prefecture": "奈良県",
    "prefecture_kana": "ナラケン",
    "prefecture_code": 29,
    "city": "奈良市",
    "city_kana": "ナラシ",
    "town": "都祁馬場町",
    "town_kana": "ツゲババチョウ",
    "street": null,
    "office_name": null,
    "office_name_kana": null
  },
  "0121": {
    "postcode": "6320121",
    "prefecture": "奈良県",
    "prefecture_kana": "ナラケン",
    "prefecture_code": 29,
    "city": "天理市",
    "city_kana": "テンリシ",
    "town": "山田町",
    "town_kana": "ヤマダチョウ",
    "street": null,
    "office_name": null,
    "office_name_kana": null
  },
  "0122": {
    "postcode": "6320122",
    "prefecture": "奈良県",
    "prefecture_kana": "ナラケン",
    "prefecture_code": 29,
    "city": "天理市",
    "city_kana": "テンリシ",
    "town": "福住町",
    "town_kana": "フクスミチョウ",
    "street": null,
    "office_name": null,
    "office_name_kana": null
  },
  "0123": {
    "postcode": "6320123",
    "prefecture": "奈良県",
    "prefecture_kana": "ナラケン",
    "prefecture_code": 29,
    "city": "天理市",
    "city_kana": "テンリシ",
    "town": "長滝町",
    "town_kana": "ナガタキチョウ",
    "street": null,
    "office_name": null,
    "office_name_kana": null
  },
  "0201": {
    "postcode": "6320201",
    "prefecture": "奈良県",
    "prefecture_kana": "ナラケン",
    "prefecture_code": 29,
    "city": "宇陀市",
    "city_kana": "ウダシ",
    "town": "室生下笠間",
    "town_kana": "ムロウシモカサマ",
    "street": null,
    "office_name": null,
    "office_name_kana": null
  },
  "0202": {
    "postcode": "6320202",
    "prefecture": "奈良県",
    "prefecture_kana": "ナラケン",
    "prefecture_code": 29,
    "city": "宇陀市",
    "city_kana": "ウダシ",
    "town": "室生上笠間",
    "town_kana": "ムロウカミカサマ",
    "street": null,
    "office_name": null,
    "office_name_kana": null
  },
  "0203": {
    "postcode": "6320203",
    "prefecture": "奈良県",
    "prefecture_kana": "ナラケン",
    "prefecture_code": 29,
    "city": "宇陀市",
    "city_kana": "ウダシ",
    "town": "室生深野",
    "town_kana": "ムロウフカノ",
    "street": null,
    "office_name": null,
    "office_name_kana": null
  },
  "0204": {
    "postcode": "6320204",
    "prefecture": "奈良県",
    "prefecture_kana": "ナラケン",
    "prefecture_code": 29,
    "city": "宇陀市",
    "city_kana": "ウダシ",
    "town": "室生小原",
    "town_kana": "ムロウオハラ",
    "street": null,
    "office_name": null,
    "office_name_kana": null
  },
  "0205": {
    "postcode": "6320205",
    "prefecture": "奈良県",
    "prefecture_kana": "ナラケン",
    "prefecture_code": 29,
    "city": "宇陀市",
    "city_kana": "ウダシ",
    "town": "室生染田",
    "town_kana": "ムロウソメダ",
    "street": null,
    "office_name": null,
    "office_name_kana": null
  },
  "0206": {
    "postcode": "6320206",
    "prefecture": "奈良県",
    "prefecture_kana": "ナラケン",
    "prefecture_code": 29,
    "city": "宇陀市",
    "city_kana": "ウダシ",
    "town": "室生多田",
    "town_kana": "ムロウタダ",
    "street": null,
    "office_name": null,
    "office_name_kana": null
  },
  "0207": {
    "postcode": "6320207",
    "prefecture": "奈良県",
    "prefecture_kana": "ナラケン",
    "prefecture_code": 29,
    "city": "宇陀市",
    "city_kana": "ウダシ",
    "town": "室生無山",
    "town_kana": "ムロウムヤマ",
    "street": null,
    "office_name": null,
    "office_name_kana": null
  },
  "0221": {
    "postcode": "6320221",
    "prefecture": "奈良県",
    "prefecture_kana": "ナラケン",
    "prefecture_code": 29,
    "city": "奈良市",
    "city_kana": "ナラシ",
    "town": "都祁白石町",
    "town_kana": "ツゲシライシチョウ",
    "street": null,
    "office_name": null,
    "office_name_kana": null
  },
  "0231": {
    "postcode": "6320231",
    "prefecture": "奈良県",
    "prefecture_kana": "ナラケン",
    "prefecture_code": 29,
    "city": "奈良市",
    "city_kana": "ナラシ",
    "town": "都祁吐山町",
    "town_kana": "ツゲハヤマチョウ",
    "street": null,
    "office_name": null,
    "office_name_kana": null
  },
  "0232": {
    "postcode": "6320232",
    "prefecture": "奈良県",
    "prefecture_kana": "ナラケン",
    "prefecture_code": 29,
    "city": "奈良市",
    "city_kana": "ナラシ",
    "town": "都祁こぶしが丘",
    "town_kana": "ツゲコブシガオカ",
    "street": null,
    "office_name": null,
    "office_name_kana": null
  },
  "0241": {
    "postcode": "6320241",
    "prefecture": "奈良県",
    "prefecture_kana": "ナラケン",
    "prefecture_code": 29,
    "city": "奈良市",
    "city_kana": "ナラシ",
    "town": "都祁南之庄町",
    "town_kana": "ツゲミナミノショウチョウ",
    "street": null,
    "office_name": null,
    "office_name_kana": null
  },
  "0242": {
    "postcode": "6320242",
    "prefecture": "奈良県",
    "prefecture_kana": "ナラケン",
    "prefecture_code": 29,
    "city": "奈良市",
    "city_kana": "ナラシ",
    "town": "都祁相河町",
    "town_kana": "ツゲソウゴチョウ",
    "street": null,
    "office_name": null,
    "office_name_kana": null
  },
  "0243": {
    "postcode": "6320243",
    "prefecture": "奈良県",
    "prefecture_kana": "ナラケン",
    "prefecture_code": 29,
    "city": "奈良市",
    "city_kana": "ナラシ",
    "town": "都祁小山戸町",
    "town_kana": "ツゲオヤマトチョウ",
    "street": null,
    "office_name": null,
    "office_name_kana": null
  },
  "0244": {
    "postcode": "6320244",
    "prefecture": "奈良県",
    "prefecture_kana": "ナラケン",
    "prefecture_code": 29,
    "city": "奈良市",
    "city_kana": "ナラシ",
    "town": "来迎寺町",
    "town_kana": "ライコウジチョウ",
    "street": null,
    "office_name": null,
    "office_name_kana": null
  },
  "0245": {
    "postcode": "6320245",
    "prefecture": "奈良県",
    "prefecture_kana": "ナラケン",
    "prefecture_code": 29,
    "city": "奈良市",
    "city_kana": "ナラシ",
    "town": "藺生町",
    "town_kana": "イウチョウ",
    "street": null,
    "office_name": null,
    "office_name_kana": null
  },
  "0246": {
    "postcode": "6320246",
    "prefecture": "奈良県",
    "prefecture_kana": "ナラケン",
    "prefecture_code": 29,
    "city": "奈良市",
    "city_kana": "ナラシ",
    "town": "都祁友田町",
    "town_kana": "ツゲトモダチョウ",
    "street": null,
    "office_name": null,
    "office_name_kana": null
  },
  "0247": {
    "postcode": "6320247",
    "prefecture": "奈良県",
    "prefecture_kana": "ナラケン",
    "prefecture_code": 29,
    "city": "奈良市",
    "city_kana": "ナラシ",
    "town": "都祁甲岡町",
    "town_kana": "ツゲコウカチョウ",
    "street": null,
    "office_name": null,
    "office_name_kana": null
  },
  "0251": {
    "postcode": "6320251",
    "prefecture": "奈良県",
    "prefecture_kana": "ナラケン",
    "prefecture_code": 29,
    "city": "奈良市",
    "city_kana": "ナラシ",
    "town": "針町",
    "town_kana": "ハリチョウ",
    "street": null,
    "office_name": null,
    "office_name_kana": null
  },
  "0292": {
    "postcode": "6320292",
    "prefecture": "奈良県",
    "prefecture_kana": "ナラケン",
    "prefecture_code": 29,
    "city": "奈良市",
    "city_kana": "ナラシ",
    "town": "都祁白石町",
    "town_kana": "ツゲシライシチョウ",
    "street": "１０２６−１",
    "office_name": "奈良市　都祁行政センター",
    "office_name_kana": "ナラシ ツゲギヨウセイセンタ-"
  },
  "8510": {
    "postcode": "6328510",
    "prefecture": "奈良県",
    "prefecture_kana": "ナラケン",
    "prefecture_code": 29,
    "city": "天理市",
    "city_kana": "テンリシ",
    "town": "杣之内町",
    "town_kana": "ソマノウチチョウ",
    "street": "１０５０",
    "office_name": "天理大学",
    "office_name_kana": "テンリダイガク"
  },
  "8540": {
    "postcode": "6328540",
    "prefecture": "奈良県",
    "prefecture_kana": "ナラケン",
    "prefecture_code": 29,
    "city": "天理市",
    "city_kana": "テンリシ",
    "town": "守目堂町",
    "town_kana": "モリメドウチョウ",
    "street": "２５０番地",
    "office_name": "天理大学附属参考館",
    "office_name_kana": "テンリダイガクフゾクサンコウカン"
  },
  "8552": {
    "postcode": "6328552",
    "prefecture": "奈良県",
    "prefecture_kana": "ナラケン",
    "prefecture_code": 29,
    "city": "天理市",
    "city_kana": "テンリシ",
    "town": "三島町",
    "town_kana": "ミシマチョウ",
    "street": "２００",
    "office_name": "天理よろづ相談所",
    "office_name_kana": "テンリヨロヅソウダンシヨ"
  },
  "8555": {
    "postcode": "6328555",
    "prefecture": "奈良県",
    "prefecture_kana": "ナラケン",
    "prefecture_code": 29,
    "city": "天理市",
    "city_kana": "テンリシ",
    "town": "川原城町",
    "town_kana": "カワハラジョウチョウ",
    "street": "６０５",
    "office_name": "天理市役所",
    "office_name_kana": "テンリシヤクシヨ"
  },
  "8558": {
    "postcode": "6328558",
    "prefecture": "奈良県",
    "prefecture_kana": "ナラケン",
    "prefecture_code": 29,
    "city": "天理市",
    "city_kana": "テンリシ",
    "town": "川原城町",
    "town_kana": "カワハラジョウチョウ",
    "street": "６００−１０",
    "office_name": "天理市　上下水道局",
    "office_name_kana": "テンリシ ジヨウゲスイドウキヨク"
  },
  "8567": {
    "postcode": "6328567",
    "prefecture": "奈良県",
    "prefecture_kana": "ナラケン",
    "prefecture_code": 29,
    "city": "天理市",
    "city_kana": "テンリシ",
    "town": "櫟本町",
    "town_kana": "イチノモトチョウ",
    "street": "２６１３−１",
    "office_name": "シャープ　株式会社",
    "office_name_kana": "シヤ-プ カブシキガイシヤ"
  },
  "8577": {
    "postcode": "6328577",
    "prefecture": "奈良県",
    "prefecture_kana": "ナラケン",
    "prefecture_code": 29,
    "city": "天理市",
    "city_kana": "テンリシ",
    "town": "杣之内町",
    "town_kana": "ソマノウチチョウ",
    "street": "１０５０",
    "office_name": "天理大学附属図書館",
    "office_name_kana": "テンリダイガクフゾクトシヨカン"
  },
  "8585": {
    "postcode": "6328585",
    "prefecture": "奈良県",
    "prefecture_kana": "ナラケン",
    "prefecture_code": 29,
    "city": "天理市",
    "city_kana": "テンリシ",
    "town": "杣之内町",
    "town_kana": "ソマノウチチョウ",
    "street": "１２６０",
    "office_name": "天理高等学校",
    "office_name_kana": "テンリコウトウガツコウ"
  },
  "8587": {
    "postcode": "6328587",
    "prefecture": "奈良県",
    "prefecture_kana": "ナラケン",
    "prefecture_code": 29,
    "city": "天理市",
    "city_kana": "テンリシ",
    "town": "嘉幡町",
    "town_kana": "カバタチョウ",
    "street": "６５５",
    "office_name": "株式会社　花の大和",
    "office_name_kana": "カブシキガイシヤ ハナノヤマト"
  },
  "8588": {
    "postcode": "6328588",
    "prefecture": "奈良県",
    "prefecture_kana": "ナラケン",
    "prefecture_code": 29,
    "city": "天理市",
    "city_kana": "テンリシ",
    "town": "嘉幡町",
    "town_kana": "カバタチョウ",
    "street": "２２９",
    "office_name": "光洋サーモシステム　株式会社",
    "office_name_kana": "コウヨウサ-モシステム カブシキガイシヤ"
  },
  "8679": {
    "postcode": "6328679",
    "prefecture": "奈良県",
    "prefecture_kana": "ナラケン",
    "prefecture_code": 29,
    "city": "天理市",
    "city_kana": "テンリシ",
    "town": "守目堂町",
    "town_kana": "モリメドウチョウ",
    "street": "２１４−３（天理郵便局私書箱第５７号）",
    "office_name": "天理教　一れつ会",
    "office_name_kana": "テンリキヨウ イチレツカイ"
  },
  "8688": {
    "postcode": "6328688",
    "prefecture": "奈良県",
    "prefecture_kana": "ナラケン",
    "prefecture_code": 29,
    "city": "天理市",
    "city_kana": "テンリシ",
    "town": "守目堂町",
    "town_kana": "モリメドウチョウ",
    "street": "２１３−４（天理郵便局私書箱第５８号）",
    "office_name": "天理教　少年会本部",
    "office_name_kana": "テンリキヨウ シヨウネンカイホンブ"
  }
}