{
  "0000": {
    "postcode": "6340000",
    "prefecture": "奈良県",
    "prefecture_kana": "ナラケン",
    "prefecture_code": 29,
    "city": "橿原市",
    "city_kana": "カシハラシ",
    "town": "",
    "town_kana": "",
    "street": null,
    "office_name": null,
    "office_name_kana": null
  },
  "0001": {
    "postcode": "6340001",
    "prefecture": "奈良県",
    "prefecture_kana": "ナラケン",
    "prefecture_code": 29,
    "city": "橿原市",
    "city_kana": "カシハラシ",
    "town": "太田市町",
    "town_kana": "オダイチチョウ",
    "street": null,
    "office_name": null,
    "office_name_kana": null
  },
  "0002": {
    "postcode": "6340002",
    "prefecture": "奈良県",
    "prefecture_kana": "ナラケン",
    "prefecture_code": 29,
    "city": "橿原市",
    "city_kana": "カシハラシ",
    "town": "東竹田町",
    "town_kana": "ヒガシタケダチョウ",
    "street": null,
    "office_name": null,
    "office_name_kana": null
  },
  "0003": {
    "postcode": "6340003",
    "prefecture": "奈良県",
    "prefecture_kana": "ナラケン",
    "prefecture_code": 29,
    "city": "橿原市",
    "city_kana": "カシハラシ",
    "town": "常盤町",
    "town_kana": "トキワチョウ",
    "street": null,
    "office_name": null,
    "office_name_kana": null
  },
  "0004": {
    "postcode": "6340004",
    "prefecture": "奈良県",
    "prefecture_kana": "ナラケン",
    "prefecture_code": 29,
    "city": "橿原市",
    "city_kana": "カシハラシ",
    "town": "木原町",
    "town_kana": "キハラチョウ",
    "street": null,
    "office_name": null,
    "office_name_kana": null
  },
  "0005": {
    "postcode": "6340005",
    "prefecture": "奈良県",
    "prefecture_kana": "ナラケン",
    "prefecture_code": 29,
    "city": "橿原市",
    "city_kana": "カシハラシ",
    "town": "北八木町",
    "town_kana": "キタヤギチョウ",
    "street": null,
    "office_name": null,
    "office_name_kana": null
  },
  "0006": {
    "postcode": "6340006",
    "prefecture": "奈良県",
    "prefecture_kana": "ナラケン",
    "prefecture_code": 29,
    "city": "橿原市",
    "city_kana": "カシハラシ",
    "town": "新賀町",
    "town_kana": "シンガチョウ",
    "street": null,
    "office_name": null,
    "office_name_kana": null
  },
  "0007": {
    "postcode": "6340007",
    "prefecture": "奈良県",
    "prefecture_kana": "ナラケン",
    "prefecture_code": 29,
    "city": "橿原市",
    "city_kana": "カシハラシ",
    "town": "葛本町",
    "town_kana": "クズモトチョウ",
    "street": null,
    "office_name": null,
    "office_name_kana": null
  },
  "0008": {
    "postcode": "6340008",
    "prefecture": "奈良県",
    "prefecture_kana": "ナラケン",
    "prefecture_code": 29,
    "city": "橿原市",
    "city_kana": "カシハラシ",
    "town": "十市町",
    "town_kana": "トオイチチョウ",
    "street": null,
    "office_name": null,
    "office_name_kana": null
  },
  "0009": {
    "postcode": "6340009",
    "prefecture": "奈良県",
    "prefecture_kana": "ナラケン",
    "prefecture_code": 29,
    "city": "橿原市",
    "city_kana": "カシハラシ",
    "town": "中町",
    "town_kana": "ナカチョウ",
    "street": null,
    "office_name": null,
    "office_name_kana": null
  },
  "0011": {
    "postcode": "6340011",
    "prefecture": "奈良県",
    "prefecture_kana": "ナラケン",
    "prefecture_code": 29,
    "city": "橿原市",
    "city_kana": "カシハラシ",
    "town": "出垣内町",
    "town_kana": "デガイトチョウ",
    "street": null,
    "office_name": null,
    "office_name_kana": null
  },
  "0012": {
    "postcode": "6340012",
    "prefecture": "奈良県",
    "prefecture_kana": "ナラケン",
    "prefecture_code": 29,
    "city": "橿原市",
    "city_kana": "カシハラシ",
    "town": "膳夫町",
    "town_kana": "カシワテチョウ",
    "street": null,
    "office_name": null,
    "office_name_kana": null
  },
  "0013": {
    "postcode": "6340013",
    "prefecture": "奈良県",
    "prefecture_kana": "ナラケン",
    "prefecture_code": 29,
    "city": "橿原市",
    "city_kana": "カシハラシ",
    "town": "出合町",
    "town_kana": "デアイチョウ",
    "street": null,
    "office_name": null,
    "office_name_kana": null
  },
  "0014": {
    "postcode": "6340014",
    "prefecture": "奈良県",
    "prefecture_kana": "ナラケン",
    "prefecture_code": 29,
    "city": "橿原市",
    "city_kana": "カシハラシ",
    "town": "石原田町",
    "town_kana": "イシハラダチョウ",
    "street": null,
    "office_name": null,
    "office_name_kana": null
  },
  "0021": {
    "postcode": "6340021",
    "prefecture": "奈良県",
    "prefecture_kana": "ナラケン",
    "prefecture_code": 29,
    "city": "橿原市",
    "city_kana": "カシハラシ",
    "town": "東池尻町",
    "town_kana": "ヒガシイケジリチョウ",
    "street": null,
    "office_name": null,
    "office_name_kana": null
  },
  "0022": {
    "postcode": "6340022",
    "prefecture": "奈良県",
    "prefecture_kana": "ナラケン",
    "prefecture_code": 29,
    "city": "橿原市",
    "city_kana": "カシハラシ",
    "town": "南浦町",
    "town_kana": "ミナミウラチョウ",
    "street": null,
    "office_name": null,
    "office_name_kana": null
  },
  "0023": {
    "postcode": "6340023",
    "prefecture": "奈良県",
    "prefecture_kana": "ナラケン",
    "prefecture_code": 29,
    "city": "橿原市",
    "city_kana": "カシハラシ",
    "town": "戒外町",
    "town_kana": "カイゲチョウ",
    "street": null,
    "office_name": null,
    "office_name_kana": null
  },
  "0024": {
    "postcode": "6340024",
    "prefecture": "奈良県",
    "prefecture_kana": "ナラケン",
    "prefecture_code": 29,
    "city": "橿原市",
    "city_kana": "カシハラシ",
    "town": "南山町",
    "town_kana": "ミナミヤマチョウ",
    "street": null,
    "office_name": null,
    "office_name_kana": null
  },
  "0025": {
    "postcode": "6340025",
    "prefecture": "奈良県",
    "prefecture_kana": "ナラケン",
    "prefecture_code": 29,
    "city": "橿原市",
    "city_kana": "カシハラシ",
    "town": "木之本町",
    "town_kana": "キノモトチョウ",
    "street": null,
    "office_name": null,
    "office_name_kana": null
  },
  "0026": {
    "postcode": "6340026",
    "prefecture": "奈良県",
    "prefecture_kana": "ナラケン",
    "prefecture_code": 29,
    "city": "橿原市",
    "city_kana": "カシハラシ",
    "town": "別所町",
    "town_kana": "ベッシヨチョウ",
    "street": null,
    "office_name": null,
    "office_name_kana": null
  },
  "0027": {
    "postcode": "6340027",
    "prefecture": "奈良県",
    "prefecture_kana": "ナラケン",
    "prefecture_code": 29,
    "city": "橿原市",
    "city_kana": "カシハラシ",
    "town": "高殿町",
    "town_kana": "タカドノチョウ",
    "street": null,
    "office_name": null,
    "office_name_kana": null
  },
  "0028": {
    "postcode": "6340028",
    "prefecture": "奈良県",
    "prefecture_kana": "ナラケン",
    "prefecture_code": 29,
    "city": "橿原市",
    "city_kana": "カシハラシ",
    "town": "法花寺町",
    "town_kana": "ホッケイジチョウ",
    "street": null,
    "office_name": null,
    "office_name_kana": null
  },
  "0029": {
    "postcode": "6340029",
    "prefecture": "奈良県",
    "prefecture_kana": "ナラケン",
    "prefecture_code": 29,
    "city": "橿原市",
    "city_kana": "カシハラシ",
    "town": "下八釣町",
    "town_kana": "シモヤツリチョウ",
    "street": null,
    "office_name": null,
    "office_name_kana": null
  },
  "0031": {
    "postcode": "6340031",
    "prefecture": "奈良県",
    "prefecture_kana": "ナラケン",
    "prefecture_code": 29,
    "city": "橿原市",
    "city_kana": "カシハラシ",
    "town": "上飛騨町",
    "town_kana": "カミヒダチョウ",
    "street": null,
    "office_name": null,
    "office_name_kana": null
  },
  "0032": {
    "postcode": "6340032",
    "prefecture": "奈良県",
    "prefecture_kana": "ナラケン",
    "prefecture_code": 29,
    "city": "橿原市",
    "city_kana": "カシハラシ",
    "town": "田中町",
    "town_kana": "タナカチョウ",
    "street": null,
    "office_name": null,
    "office_name_kana": null
  },
  "0033": {
    "postcode": "6340033",
    "prefecture": "奈良県",
    "prefecture_kana": "ナラケン",
    "prefecture_code": 29,
    "city": "橿原市",
    "city_kana": "カシハラシ",
    "town": "城殿町",
    "town_kana": "キドノチョウ",
    "street": null,
    "office_name": null,
    "office_name_kana": null
  },
  "0034": {
    "postcode": "6340034",
    "prefecture": "奈良県",
    "prefecture_kana": "ナラケン",
    "prefecture_code": 29,
    "city": "橿原市",
    "city_kana": "カシハラシ",
    "town": "飛騨町",
    "town_kana": "ヒダチョウ",
    "street": null,
    "office_name": null,
    "office_name_kana": null
  },
  "0041": {
    "postcode": "6340041",
    "prefecture": "奈良県",
    "prefecture_kana": "ナラケン",
    "prefecture_code": 29,
    "city": "橿原市",
    "city_kana": "カシハラシ",
    "town": "和田町",
    "town_kana": "ワダチョウ",
    "street": null,
    "office_name": null,
    "office_name_kana": null
  },
  "0042": {
    "postcode": "6340042",
    "prefecture": "奈良県",
    "prefecture_kana": "ナラケン",
    "prefecture_code": 29,
    "city": "橿原市",
    "city_kana": "カシハラシ",
    "town": "菖蒲町",
    "town_kana": "ショウブチョウ",
    "street": null,
    "office_name": null,
    "office_name_kana": null
  },
  "0043": {
    "postcode": "6340043",
    "prefecture": "奈良県",
    "prefecture_kana": "ナラケン",
    "prefecture_code": 29,
    "city": "橿原市",
    "city_kana": "カシハラシ",
    "town": "五条野町",
    "town_kana": "ゴジョウノチョウ",
    "street": null,
    "office_name": null,
    "office_name_kana": null
  },
  "0044": {
    "postcode": "6340044",
    "prefecture": "奈良県",
    "prefecture_kana": "ナラケン",
    "prefecture_code": 29,
    "city": "橿原市",
    "city_kana": "カシハラシ",
    "town": "大軽町",
    "town_kana": "オオガルチョウ",
    "street": null,
    "office_name": null,
    "office_name_kana": null
  },
  "0045": {
    "postcode": "6340045",
    "prefecture": "奈良県",
    "prefecture_kana": "ナラケン",
    "prefecture_code": 29,
    "city": "橿原市",
    "city_kana": "カシハラシ",
    "town": "石川町",
    "town_kana": "イシカワチョウ",
    "street": null,
    "office_name": null,
    "office_name_kana": null
  },
  "0046": {
    "postcode": "6340046",
    "prefecture": "奈良県",
    "prefecture_kana": "ナラケン",
    "prefecture_code": 29,
    "city": "橿原市",
    "city_kana": "カシハラシ",
    "town": "栄和町",
    "town_kana": "エイワチョウ",
    "street": null,
    "office_name": null,
    "office_name_kana": null
  },
  "0051": {
    "postcode": "6340051",
    "prefecture": "奈良県",
    "prefecture_kana": "ナラケン",
    "prefecture_code": 29,
    "city": "橿原市",
    "city_kana": "カシハラシ",
    "town": "白橿町",
    "town_kana": "シラカシチョウ",
    "street": null,
    "office_name": null,
    "office_name_kana": null
  },
  "0052": {
    "postcode": "6340052",
    "prefecture": "奈良県",
    "prefecture_kana": "ナラケン",
    "prefecture_code": 29,
    "city": "橿原市",
    "city_kana": "カシハラシ",
    "town": "南妙法寺町",
    "town_kana": "ミナミミョウホウジチョウ",
    "street": null,
    "office_name": null,
    "office_name_kana": null
  },
  "0061": {
    "postcode": "6340061",
    "prefecture": "奈良県",
    "prefecture_kana": "ナラケン",
    "prefecture_code": 29,
    "city": "橿原市",
    "city_kana": "カシハラシ",
    "town": "大久保町",
    "town_kana": "オオクボチョウ",
    "street": null,
    "office_name": null,
    "office_name_kana": null
  },
  "0062": {
    "postcode": "6340062",
    "prefecture": "奈良県",
    "prefecture_kana": "ナラケン",
    "prefecture_code": 29,
    "city": "橿原市",
    "city_kana": "カシハラシ",
    "town": "御坊町",
    "town_kana": "ゴボウチョウ",
    "street": null,
    "office_name": null,
    "office_name_kana": null
  },
  "0063": {
    "postcode": "6340063",
    "prefecture": "奈良県",
    "prefecture_kana": "ナラケン",
    "prefecture_code": 29,
    "city": "橿原市",
    "city_kana": "カシハラシ",
    "town": "久米町",
    "town_kana": "クメチョウ",
    "street": null,
    "office_name": null,
    "office_name_kana": null
  },
  "0064": {
    "postcode": "6340064",
    "prefecture": "奈良県",
    "prefecture_kana": "ナラケン",
    "prefecture_code": 29,
    "city": "橿原市",
    "city_kana": "カシハラシ",
    "town": "見瀬町",
    "town_kana": "ミセチョウ",
    "street": null,
    "office_name": null,
    "office_name_kana": null
  },
  "0065": {
    "postcode": "6340065",
    "prefecture": "奈良県",
    "prefecture_kana": "ナラケン",
    "prefecture_code": 29,
    "city": "橿原市",
    "city_kana": "カシハラシ",
    "town": "畝傍町",
    "town_kana": "ウネビチョウ",
    "street": null,
    "office_name": null,
    "office_name_kana": null
  },
  "0071": {
    "postcode": "6340071",
    "prefecture": "奈良県",
    "prefecture_kana": "ナラケン",
    "prefecture_code": 29,
    "city": "橿原市",
    "city_kana": "カシハラシ",
    "town": "山之坊町",
    "town_kana": "ヤマノボウチョウ",
    "street": null,
    "office_name": null,
    "office_name_kana": null
  },
  "0072": {
    "postcode": "6340072",
    "prefecture": "奈良県",
    "prefecture_kana": "ナラケン",
    "prefecture_code": 29,
    "city": "橿原市",
    "city_kana": "カシハラシ",
    "town": "醍醐町",
    "town_kana": "ダイゴチョウ",
    "street": null,
    "office_name": null,
    "office_name_kana": null
  },
  "0073": {
    "postcode": "6340073",
    "prefecture": "奈良県",
    "prefecture_kana": "ナラケン",
    "prefecture_code": 29,
    "city": "橿原市",
    "city_kana": "カシハラシ",
    "town": "縄手町",
    "town_kana": "ナワテチョウ",
    "street": null,
    "office_name": null,
    "office_name_kana": null
  },
  "0074": {
    "postcode": "6340074",
    "prefecture": "奈良県",
    "prefecture_kana": "ナラケン",
    "prefecture_code": 29,
    "city": "橿原市",
    "city_kana": "カシハラシ",
    "town": "四分町",
    "town_kana": "シブチョウ",
    "street": null,
    "office_name": null,
    "office_name_kana": null
  },
  "0075": {
    "postcode": "6340075",
    "prefecture": "奈良県",
    "prefecture_kana": "ナラケン",
    "prefecture_code": 29,
    "city": "橿原市",
    "city_kana": "カシハラシ",
    "town": "小房町",
    "town_kana": "オウサチョウ",
    "street": null,
    "office_name": null,
    "office_name_kana": null
  },
  "0076": {
    "postcode": "6340076",
    "prefecture": "奈良県",
    "prefecture_kana": "ナラケン",
    "prefecture_code": 29,
    "city": "橿原市",
    "city_kana": "カシハラシ",
    "town": "兵部町",
    "town_kana": "ヒョウブチョウ",
    "street": null,
    "office_name": null,
    "office_name_kana": null
  },
  "0077": {
    "postcode": "6340077",
    "prefecture": "奈良県",
    "prefecture_kana": "ナラケン",
    "prefecture_code": 29,
    "city": "橿原市",
    "city_kana": "カシハラシ",
    "town": "南八木町",
    "town_kana": "ミナミヤギチョウ",
    "street": null,
    "office_name": null,
    "office_name_kana": null
  },
  "0078": {
    "postcode": "6340078",
    "prefecture": "奈良県",
    "prefecture_kana": "ナラケン",
    "prefecture_code": 29,
    "city": "橿原市",
    "city_kana": "カシハラシ",
    "town": "八木町",
    "town_kana": "ヤギチョウ",
    "street": null,
    "office_name": null,
    "office_name_kana": null
  },
  "0100": {
    "postcode": "6340100",
    "prefecture": "奈良県",
    "prefecture_kana": "ナラケン",
    "prefecture_code": 29,
    "city": "高市郡明日香村",
    "city_kana": "タカイチグンアスカムラ",
    "town": "",
    "town_kana": "",
    "street": null,
    "office_name": null,
    "office_name_kana": null
  },
  "0101": {
    "postcode": "6340101",
    "prefecture": "奈良県",
    "prefecture_kana": "ナラケン",
    "prefecture_code": 29,
    "city": "高市郡明日香村",
    "city_kana": "タカイチグンアスカムラ",
    "town": "小山",
    "town_kana": "コヤマ",
    "street": null,
    "office_name": null,
    "office_name_kana": null
  },
  "0102": {
    "postcode": "6340102",
    "prefecture": "奈良県",
    "prefecture_kana": "ナラケン",
    "prefecture_code": 29,
    "city": "高市郡明日香村",
    "city_kana": "タカイチグンアスカムラ",
    "town": "奥山",
    "town_kana": "オクヤマ",
    "street": null,
    "office_name": null,
    "office_name_kana": null
  },
  "0103": {
    "postcode": "6340103",
    "prefecture": "奈良県",
    "prefecture_kana": "ナラケン",
    "prefecture_code": 29,
    "city": "高市郡明日香村",
    "city_kana": "タカイチグンアスカムラ",
    "town": "飛鳥",
    "town_kana": "アスカ",
    "street": null,
    "office_name": null,
    "office_name_kana": null
  },
  "0104": {
    "postcode": "6340104",
    "prefecture": "奈良県",
    "prefecture_kana": "ナラケン",
    "prefecture_code": 29,
    "city": "高市郡明日香村",
    "city_kana": "タカイチグンアスカムラ",
    "town": "八釣",
    "town_kana": "ヤツリ",
    "street": null,
    "office_name": null,
    "office_name_kana": null
  },
  "0105": {
    "postcode": "6340105",
    "prefecture": "奈良県",
    "prefecture_kana": "ナラケン",
    "prefecture_code": 29,
    "city": "高市郡明日香村",
    "city_kana": "タカイチグンアスカムラ",
    "town": "東山",
    "town_kana": "ヒガシヤマ",
    "street": null,
    "office_name": null,
    "office_name_kana": null
  },
  "0106": {
    "postcode": "6340106",
    "prefecture": "奈良県",
    "prefecture_kana": "ナラケン",
    "prefecture_code": 29,
    "city": "高市郡明日香村",
    "city_kana": "タカイチグンアスカムラ",
    "town": "小原",
    "town_kana": "オオハラ",
    "street": null,
    "office_name": null,
    "office_name_kana": null
  },
  "0107": {
    "postcode": "6340107",
    "prefecture": "奈良県",
    "prefecture_kana": "ナラケン",
    "prefecture_code": 29,
    "city": "高市郡明日香村",
    "city_kana": "タカイチグンアスカムラ",
    "town": "豊浦",
    "town_kana": "トヨウラ",
    "street": null,
    "office_name": null,
    "office_name_kana": null
  },
  "0108": {
    "postcode": "6340108",
    "prefecture": "奈良県",
    "prefecture_kana": "ナラケン",
    "prefecture_code": 29,
    "city": "高市郡明日香村",
    "city_kana": "タカイチグンアスカムラ",
    "town": "雷",
    "town_kana": "イカツチ",
    "street": null,
    "office_name": null,
    "office_name_kana": null
  },
  "0111": {
    "postcode": "6340111",
    "prefecture": "奈良県",
    "prefecture_kana": "ナラケン",
    "prefecture_code": 29,
    "city": "高市郡明日香村",
    "city_kana": "タカイチグンアスカムラ",
    "town": "岡",
    "town_kana": "オカ",
    "street": null,
    "office_name": null,
    "office_name_kana": null
  },
  "0112": {
    "postcode": "6340112",
    "prefecture": "奈良県",
    "prefecture_kana": "ナラケン",
    "prefecture_code": 29,
    "city": "高市郡明日香村",
    "city_kana": "タカイチグンアスカムラ",
    "town": "島庄",
    "town_kana": "シマショウ",
    "street": null,
    "office_name": null,
    "office_name_kana": null
  },
  "0113": {
    "postcode": "6340113",
    "prefecture": "奈良県",
    "prefecture_kana": "ナラケン",
    "prefecture_code": 29,
    "city": "高市郡明日香村",
    "city_kana": "タカイチグンアスカムラ",
    "town": "上居",
    "town_kana": "ジョウゴ",
    "street": null,
    "office_name": null,
    "office_name_kana": null
  },
  "0114": {
    "postcode": "6340114",
    "prefecture": "奈良県",
    "prefecture_kana": "ナラケン",
    "prefecture_code": 29,
    "city": "高市郡明日香村",
    "city_kana": "タカイチグンアスカムラ",
    "town": "細川",
    "town_kana": "ホソカワ",
    "street": null,
    "office_name": null,
    "office_name_kana": null
  },
  "0115": {
    "postcode": "6340115",
    "prefecture": "奈良県",
    "prefecture_kana": "ナラケン",
    "prefecture_code": 29,
    "city": "高市郡明日香村",
    "city_kana": "タカイチグンアスカムラ",
    "town": "上",
    "town_kana": "カムラ",
    "street": null,
    "office_name": null,
    "office_name_kana": null
  },
  "0116": {
    "postcode": "6340116",
    "prefecture": "奈良県",
    "prefecture_kana": "ナラケン",
    "prefecture_code": 29,
    "city": "高市郡明日香村",
    "city_kana": "タカイチグンアスカムラ",
    "town": "尾曽",
    "town_kana": "オオソ",
    "street": null,
    "office_name": null,
    "office_name_kana": null
  },
  "0117": {
    "postcode": "6340117",
    "prefecture": "奈良県",
    "prefecture_kana": "ナラケン",
    "prefecture_code": 29,
    "city": "高市郡明日香村",
    "city_kana": "タカイチグンアスカムラ",
    "town": "冬野",
    "town_kana": "フユノ",
    "street": null,
    "office_name": null,
    "office_name_kana": null
  },
  "0118": {
    "postcode": "6340118",
    "prefecture": "奈良県",
    "prefecture_kana": "ナラケン",
    "prefecture_code": 29,
    "city": "高市郡明日香村",
    "city_kana": "タカイチグンアスカムラ",
    "town": "畑",
    "town_kana": "ハタ",
    "street": null,
    "office_name": null,
    "office_name_kana": null
  },
  "0121": {
    "postcode": "6340121",
    "prefecture": "奈良県",
    "prefecture_kana": "ナラケン",
    "prefecture_code": 29,
    "city": "高市郡明日香村",
    "city_kana": "タカイチグンアスカムラ",
    "town": "祝戸",
    "town_kana": "イワイド",
    "street": null,
    "office_name": null,
    "office_name_kana": null
  },
  "0122": {
    "postcode": "6340122",
    "prefecture": "奈良県",
    "prefecture_kana": "ナラケン",
    "prefecture_code": 29,
    "city": "高市郡明日香村",
    "city_kana": "タカイチグンアスカムラ",
    "town": "阪田",
    "town_kana": "サカダ",
    "street": null,
    "office_name": null,
    "office_name_kana": null
  },
  "0123": {
    "postcode": "6340123",
    "prefecture": "奈良県",
    "prefecture_kana": "ナラケン",
    "prefecture_code": 29,
    "city": "高市郡明日香村",
    "city_kana": "タカイチグンアスカムラ",
    "town": "稲渕",
    "town_kana": "イナブチ",
    "street": null,
    "office_name": null,
    "office_name_kana": null
  },
  "0124": {
    "postcode": "6340124",
    "prefecture": "奈良県",
    "prefecture_kana": "ナラケン",
    "prefecture_code": 29,
    "city": "高市郡明日香村",
    "city_kana": "タカイチグンアスカムラ",
    "town": "栢森",
    "town_kana": "カヤモリ",
    "street": null,
    "office_name": null,
    "office_name_kana": null
  },
  "0125": {
    "postcode": "6340125",
    "prefecture": "奈良県",
    "prefecture_kana": "ナラケン",
    "prefecture_code": 29,
    "city": "高市郡明日香村",
    "city_kana": "タカイチグンアスカムラ",
    "town": "入谷",
    "town_kana": "ニュウダニ",
    "street": null,
    "office_name": null,
    "office_name_kana": null
  },
  "0131": {
    "postcode": "6340131",
    "prefecture": "奈良県",
    "prefecture_kana": "ナラケン",
    "prefecture_code": 29,
    "city": "高市郡明日香村",
    "city_kana": "タカイチグンアスカムラ",
    "town": "御園",
    "town_kana": "ミソノ",
    "street": null,
    "office_name": null,
    "office_name_kana": null
  },
  "0132": {
    "postcode": "6340132",
    "prefecture": "奈良県",
    "prefecture_kana": "ナラケン",
    "prefecture_code": 29,
    "city": "高市郡明日香村",
    "city_kana": "タカイチグンアスカムラ",
    "town": "栗原",
    "town_kana": "クリハラ",
    "street": null,
    "office_name": null,
    "office_name_kana": null
  },
  "0133": {
    "postcode": "6340133",
    "prefecture": "奈良県",
    "prefecture_kana": "ナラケン",
    "prefecture_code": 29,
    "city": "高市郡明日香村",
    "city_kana": "タカイチグンアスカムラ",
    "town": "大根田",
    "town_kana": "オオネダ",
    "street": null,
    "office_name": null,
    "office_name_kana": null
  },
  "0134": {
    "postcode": "6340134",
    "prefecture": "奈良県",
    "prefecture_kana": "ナラケン",
    "prefecture_code": 29,
    "city": "高市郡明日香村",
    "city_kana": "タカイチグンアスカムラ",
    "town": "阿部山",
    "town_kana": "アベヤマ",
    "street": null,
    "office_name": null,
    "office_name_kana": null
  },
  "0135": {
    "postcode": "6340135",
    "prefecture": "奈良県",
    "prefecture_kana": "ナラケン",
    "prefecture_code": 29,
    "city": "高市郡明日香村",
    "city_kana": "タカイチグンアスカムラ",
    "town": "檜前",
    "town_kana": "ヒノクマ",
    "street": null,
    "office_name": null,
    "office_name_kana": null
  },
  "0136": {
    "postcode": "6340136",
    "prefecture": "奈良県",
    "prefecture_kana": "ナラケン",
    "prefecture_code": 29,
    "city": "高市郡明日香村",
    "city_kana": "タカイチグンアスカムラ",
    "town": "地ノ窪",
    "town_kana": "ジノクボ",
    "street": null,
    "office_name": null,
    "office_name_kana": null
  },
  "0137": {
    "postcode": "6340137",
    "prefecture": "奈良県",
    "prefecture_kana": "ナラケン",
    "prefecture_code": 29,
    "city": "高市郡明日香村",
    "city_kana": "タカイチグンアスカムラ",
    "town": "真弓",
    "town_kana": "マユミ",
    "street": null,
    "office_name": null,
    "office_name_kana": null
  },
  "0138": {
    "postcode": "6340138",
    "prefecture": "奈良県",
    "prefecture_kana": "ナラケン",
    "prefecture_code": 29,
    "city": "高市郡明日香村",
    "city_kana": "タカイチグンアスカムラ",
    "town": "越",
    "town_kana": "コシ",
    "street": null,
    "office_name": null,
    "office_name_kana": null
  },
  "0141": {
    "postcode": "6340141",
    "prefecture": "奈良県",
    "prefecture_kana": "ナラケン",
    "prefecture_code": 29,
    "city": "高市郡明日香村",
    "city_kana": "タカイチグンアスカムラ",
    "town": "川原",
    "town_kana": "カワハラ",
    "street": null,
    "office_name": null,
    "office_name_kana": null
  },
  "0142": {
    "postcode": "6340142",
    "prefecture": "奈良県",
    "prefecture_kana": "ナラケン",
    "prefecture_code": 29,
    "city": "高市郡明日香村",
    "city_kana": "タカイチグンアスカムラ",
    "town": "橘",
    "town_kana": "タチバナ",
    "street": null,
    "office_name": null,
    "office_name_kana": null
  },
  "0143": {
    "postcode": "6340143",
    "prefecture": "奈良県",
    "prefecture_kana": "ナラケン",
    "prefecture_code": 29,
    "city": "高市郡明日香村",
    "city_kana": "タカイチグンアスカムラ",
    "town": "立部",
    "town_kana": "タチベ",
    "street": null,
    "office_name": null,
    "office_name_kana": null
  },
  "0144": {
    "postcode": "6340144",
    "prefecture": "奈良県",
    "prefecture_kana": "ナラケン",
    "prefecture_code": 29,
    "city": "高市郡明日香村",
    "city_kana": "タカイチグンアスカムラ",
    "town": "平田",
    "town_kana": "ヒラタ",
    "street": null,
    "office_name": null,
    "office_name_kana": null
  },
  "0145": {
    "postcode": "6340145",
    "prefecture": "奈良県",
    "prefecture_kana": "ナラケン",
    "prefecture_code": 29,
    "city": "高市郡明日香村",
    "city_kana": "タカイチグンアスカムラ",
    "town": "野口",
    "town_kana": "ノグチ",
    "street": null,
    "office_name": null,
    "office_name_kana": null
  },
  "0801": {
    "postcode": "6340801",
    "prefecture": "奈良県",
    "prefecture_kana": "ナラケン",
    "prefecture_code": 29,
    "city": "橿原市",
    "city_kana": "カシハラシ",
    "town": "西新堂町",
    "town_kana": "ニシシンドウチョウ",
    "street": null,
    "office_name": null,
    "office_name_kana": null
  },
  "0802": {
    "postcode": "6340802",
    "prefecture": "奈良県",
    "prefecture_kana": "ナラケン",
    "prefecture_code": 29,
    "city": "橿原市",
    "city_kana": "カシハラシ",
    "town": "新口町",
    "town_kana": "ニノクチチョウ",
    "street": null,
    "office_name": null,
    "office_name_kana": null
  },
  "0803": {
    "postcode": "6340803",
    "prefecture": "奈良県",
    "prefecture_kana": "ナラケン",
    "prefecture_code": 29,
    "city": "橿原市",
    "city_kana": "カシハラシ",
    "town": "上品寺町",
    "town_kana": "ジョウボンジチョウ",
    "street": null,
    "office_name": null,
    "office_name_kana": null
  },
  "0804": {
    "postcode": "6340804",
    "prefecture": "奈良県",
    "prefecture_kana": "ナラケン",
    "prefecture_code": 29,
    "city": "橿原市",
    "city_kana": "カシハラシ",
    "town": "内膳町",
    "town_kana": "ナイゼンチョウ",
    "street": null,
    "office_name": null,
    "office_name_kana": null
  },
  "0805": {
    "postcode": "6340805",
    "prefecture": "奈良県",
    "prefecture_kana": "ナラケン",
    "prefecture_code": 29,
    "city": "橿原市",
    "city_kana": "カシハラシ",
    "town": "地黄町",
    "town_kana": "ジオチョウ",
    "street": null,
    "office_name": null,
    "office_name_kana": null
  },
  "0811": {
    "postcode": "6340811",
    "prefecture": "奈良県",
    "prefecture_kana": "ナラケン",
    "prefecture_code": 29,
    "city": "橿原市",
    "city_kana": "カシハラシ",
    "town": "小綱町",
    "town_kana": "ショウコチョウ",
    "street": null,
    "office_name": null,
    "office_name_kana": null
  },
  "0812": {
    "postcode": "6340812",
    "prefecture": "奈良県",
    "prefecture_kana": "ナラケン",
    "prefecture_code": 29,
    "city": "橿原市",
    "city_kana": "カシハラシ",
    "town": "今井町",
    "town_kana": "イマイチョウ",
    "street": null,
    "office_name": null,
    "office_name_kana": null
  },
  "0813": {
    "postcode": "6340813",
    "prefecture": "奈良県",
    "prefecture_kana": "ナラケン",
    "prefecture_code": 29,
    "city": "橿原市",
    "city_kana": "カシハラシ",
    "town": "四条町",
    "town_kana": "シジョウチョウ",
    "street": null,
    "office_name": null,
    "office_name_kana": null
  },
  "0814": {
    "postcode": "6340814",
    "prefecture": "奈良県",
    "prefecture_kana": "ナラケン",
    "prefecture_code": 29,
    "city": "橿原市",
    "city_kana": "カシハラシ",
    "town": "山本町",
    "town_kana": "ヤマモトチョウ",
    "street": null,
    "office_name": null,
    "office_name_kana": null
  },
  "0815": {
    "postcode": "6340815",
    "prefecture": "奈良県",
    "prefecture_kana": "ナラケン",
    "prefecture_code": 29,
    "city": "橿原市",
    "city_kana": "カシハラシ",
    "town": "大谷町",
    "town_kana": "オオタニチョウ",
    "street": null,
    "office_name": null,
    "office_name_kana": null
  },
  "0816": {
    "postcode": "6340816",
    "prefecture": "奈良県",
    "prefecture_kana": "ナラケン",
    "prefecture_code": 29,
    "city": "橿原市",
    "city_kana": "カシハラシ",
    "town": "慈明寺町",
    "town_kana": "ジミョウジチョウ",
    "street": null,
    "office_name": null,
    "office_name_kana": null
  },
  "0817": {
    "postcode": "6340817",
    "prefecture": "奈良県",
    "prefecture_kana": "ナラケン",
    "prefecture_code": 29,
    "city": "橿原市",
    "city_kana": "カシハラシ",
    "town": "寺田町",
    "town_kana": "テラダチョウ",
    "street": null,
    "office_name": null,
    "office_name_kana": null
  },
  "0821": {
    "postcode": "6340821",
    "prefecture": "奈良県",
    "prefecture_kana": "ナラケン",
    "prefecture_code": 29,
    "city": "橿原市",
    "city_kana": "カシハラシ",
    "town": "西池尻町",
    "town_kana": "ニシイケジリチョウ",
    "street": null,
    "office_name": null,
    "office_name_kana": null
  },
  "0822": {
    "postcode": "6340822",
    "prefecture": "奈良県",
    "prefecture_kana": "ナラケン",
    "prefecture_code": 29,
    "city": "橿原市",
    "city_kana": "カシハラシ",
    "town": "鳥屋町",
    "town_kana": "トリヤチョウ",
    "street": null,
    "office_name": null,
    "office_name_kana": null
  },
  "0823": {
    "postcode": "6340823",
    "prefecture": "奈良県",
    "prefecture_kana": "ナラケン",
    "prefecture_code": 29,
    "city": "橿原市",
    "city_kana": "カシハラシ",
    "town": "北越智町",
    "town_kana": "キタオチチョウ",
    "street": null,
    "office_name": null,
    "office_name_kana": null
  },
  "0824": {
    "postcode": "6340824",
    "prefecture": "奈良県",
    "prefecture_kana": "ナラケン",
    "prefecture_code": 29,
    "city": "橿原市",
    "city_kana": "カシハラシ",
    "town": "一町",
    "town_kana": "カズチョウ",
    "street": null,
    "office_name": null,
    "office_name_kana": null
  },
  "0825": {
    "postcode": "6340825",
    "prefecture": "奈良県",
    "prefecture_kana": "ナラケン",
    "prefecture_code": 29,
    "city": "橿原市",
    "city_kana": "カシハラシ",
    "town": "観音寺町",
    "town_kana": "カンノンジチョウ",
    "street": null,
    "office_name": null,
    "office_name_kana": null
  },
  "0826": {
    "postcode": "6340826",
    "prefecture": "奈良県",
    "prefecture_kana": "ナラケン",
    "prefecture_code": 29,
    "city": "橿原市",
    "city_kana": "カシハラシ",
    "town": "川西町",
    "town_kana": "カワニシチョウ",
    "street": null,
    "office_name": null,
    "office_name_kana": null
  },
  "0827": {
    "postcode": "6340827",
    "prefecture": "奈良県",
    "prefecture_kana": "ナラケン",
    "prefecture_code": 29,
    "city": "橿原市",
    "city_kana": "カシハラシ",
    "town": "光陽町",
    "town_kana": "コウヨウチョウ",
    "street": null,
    "office_name": null,
    "office_name_kana": null
  },
  "0828": {
    "postcode": "6340828",
    "prefecture": "奈良県",
    "prefecture_kana": "ナラケン",
    "prefecture_code": 29,
    "city": "橿原市",
    "city_kana": "カシハラシ",
    "town": "古川町",
    "town_kana": "フルカワチョウ",
    "street": null,
    "office_name": null,
    "office_name_kana": null
  },
  "0829": {
    "postcode": "6340829",
    "prefecture": "奈良県",
    "prefecture_kana": "ナラケン",
    "prefecture_code": 29,
    "city": "橿原市",
    "city_kana": "カシハラシ",
    "town": "吉田町",
    "town_kana": "ヨシダチョウ",
    "street": null,
    "office_name": null,
    "office_name_kana": null
  },
  "0831": {
    "postcode": "6340831",
    "prefecture": "奈良県",
    "prefecture_kana": "ナラケン",
    "prefecture_code": 29,
    "city": "橿原市",
    "city_kana": "カシハラシ",
    "town": "曽我町",
    "town_kana": "ソガチョウ",
    "street": null,
    "office_name": null,
    "office_name_kana": null
  },
  "0832": {
    "postcode": "6340832",
    "prefecture": "奈良県",
    "prefecture_kana": "ナラケン",
    "prefecture_code": 29,
    "city": "橿原市",
    "city_kana": "カシハラシ",
    "town": "五井町",
    "town_kana": "ゴイチョウ",
    "street": null,
    "office_name": null,
    "office_name_kana": null
  },
  "0833": {
    "postcode": "6340833",
    "prefecture": "奈良県",
    "prefecture_kana": "ナラケン",
    "prefecture_code": 29,
    "city": "橿原市",
    "city_kana": "カシハラシ",
    "town": "忌部町",
    "town_kana": "インベチョウ",
    "street": null,
    "office_name": null,
    "office_name_kana": null
  },
  "0834": {
    "postcode": "6340834",
    "prefecture": "奈良県",
    "prefecture_kana": "ナラケン",
    "prefecture_code": 29,
    "city": "橿原市",
    "city_kana": "カシハラシ",
    "town": "雲梯町",
    "town_kana": "ウナテチョウ",
    "street": null,
    "office_name": null,
    "office_name_kana": null
  },
  "0835": {
    "postcode": "6340835",
    "prefecture": "奈良県",
    "prefecture_kana": "ナラケン",
    "prefecture_code": 29,
    "city": "橿原市",
    "city_kana": "カシハラシ",
    "town": "東坊城町",
    "town_kana": "ヒガシボウジョウチョウ",
    "street": null,
    "office_name": null,
    "office_name_kana": null
  },
  "0836": {
    "postcode": "6340836",
    "prefecture": "奈良県",
    "prefecture_kana": "ナラケン",
    "prefecture_code": 29,
    "city": "橿原市",
    "city_kana": "カシハラシ",
    "town": "新堂町",
    "town_kana": "シンドウチョウ",
    "street": null,
    "office_name": null,
    "office_name_kana": null
  },
  "0837": {
    "postcode": "6340837",
    "prefecture": "奈良県",
    "prefecture_kana": "ナラケン",
    "prefecture_code": 29,
    "city": "橿原市",
    "city_kana": "カシハラシ",
    "town": "曲川町",
    "town_kana": "マガリカワチョウ",
    "street": null,
    "office_name": null,
    "office_name_kana": null
  },
  "0841": {
    "postcode": "6340841",
    "prefecture": "奈良県",
    "prefecture_kana": "ナラケン",
    "prefecture_code": 29,
    "city": "橿原市",
    "city_kana": "カシハラシ",
    "town": "大垣町",
    "town_kana": "オオガキチョウ",
    "street": null,
    "office_name": null,
    "office_name_kana": null
  },
  "0842": {
    "postcode": "6340842",
    "prefecture": "奈良県",
    "prefecture_kana": "ナラケン",
    "prefecture_code": 29,
    "city": "橿原市",
    "city_kana": "カシハラシ",
    "town": "豊田町",
    "town_kana": "トヨダチョウ",
    "street": null,
    "office_name": null,
    "office_name_kana": null
  },
  "0843": {
    "postcode": "6340843",
    "prefecture": "奈良県",
    "prefecture_kana": "ナラケン",
    "prefecture_code": 29,
    "city": "橿原市",
    "city_kana": "カシハラシ",
    "town": "北妙法寺町",
    "town_kana": "キタミョウホウジチョウ",
    "street": null,
    "office_name": null,
    "office_name_kana": null
  },
  "0844": {
    "postcode": "6340844",
    "prefecture": "奈良県",
    "prefecture_kana": "ナラケン",
    "prefecture_code": 29,
    "city": "橿原市",
    "city_kana": "カシハラシ",
    "town": "土橋町",
    "town_kana": "ツチハシチョウ",
    "street": null,
    "office_name": null,
    "office_name_kana": null
  },
  "0845": {
    "postcode": "6340845",
    "prefecture": "奈良県",
    "prefecture_kana": "ナラケン",
    "prefecture_code": 29,
    "city": "橿原市",
    "city_kana": "カシハラシ",
    "town": "中曽司町",
    "town_kana": "ナカゾシチョウ",
    "street": null,
    "office_name": null,
    "office_name_kana": null
  },
  "0846": {
    "postcode": "6340846",
    "prefecture": "奈良県",
    "prefecture_kana": "ナラケン",
    "prefecture_code": 29,
    "city": "橿原市",
    "city_kana": "カシハラシ",
    "town": "小槻町",
    "town_kana": "オウヅクチョウ",
    "street": null,
    "office_name": null,
    "office_name_kana": null
  },
  "0847": {
    "postcode": "6340847",
    "prefecture": "奈良県",
    "prefecture_kana": "ナラケン",
    "prefecture_code": 29,
    "city": "橿原市",
    "city_kana": "カシハラシ",
    "town": "飯高町",
    "town_kana": "ヒダカチョウ",
    "street": null,
    "office_name": null,
    "office_name_kana": null
  },
  "8501": {
    "postcode": "6348501",
    "prefecture": "奈良県",
    "prefecture_kana": "ナラケン",
    "prefecture_code": 29,
    "city": "橿原市",
    "city_kana": "カシハラシ",
    "town": "四条町",
    "town_kana": "シジョウチョウ",
    "street": "６１８−１",
    "office_name": "橿原警察署",
    "office_name_kana": "カシハラケイサツシヨ"
  },
  "8502": {
    "postcode": "6348502",
    "prefecture": "奈良県",
    "prefecture_kana": "ナラケン",
    "prefecture_code": 29,
    "city": "橿原市",
    "city_kana": "カシハラシ",
    "town": "内膳町",
    "town_kana": "ナイゼンチョウ",
    "street": "５丁目５−８",
    "office_name": "奈良県医師会",
    "office_name_kana": "ナラケンイシカイ"
  },
  "8503": {
    "postcode": "6348503",
    "prefecture": "奈良県",
    "prefecture_kana": "ナラケン",
    "prefecture_code": 29,
    "city": "橿原市",
    "city_kana": "カシハラシ",
    "town": "四条町",
    "town_kana": "シジョウチョウ",
    "street": "６１８−１",
    "office_name": "奈良県　警察交通反則通告センター",
    "office_name_kana": "ナラケン ケイサツコウツウハンソクツウコクセンタ-"
  },
  "8505": {
    "postcode": "6348505",
    "prefecture": "奈良県",
    "prefecture_kana": "ナラケン",
    "prefecture_code": 29,
    "city": "橿原市",
    "city_kana": "カシハラシ",
    "town": "醍醐町",
    "town_kana": "ダイゴチョウ",
    "street": "１２２−１",
    "office_name": "マルコ　株式会社　本社事務所",
    "office_name_kana": "マルコ カ) ホンシヤジムシヨ"
  },
  "8506": {
    "postcode": "6348506",
    "prefecture": "奈良県",
    "prefecture_kana": "ナラケン",
    "prefecture_code": 29,
    "city": "橿原市",
    "city_kana": "カシハラシ",
    "town": "常盤町",
    "town_kana": "トキワチョウ",
    "street": "６０５番地の５",
    "office_name": "中南和県税事務所",
    "office_name_kana": "チユウナンワケンゼイジムシヨ"
  },
  "8507": {
    "postcode": "6348507",
    "prefecture": "奈良県",
    "prefecture_kana": "ナラケン",
    "prefecture_code": 29,
    "city": "橿原市",
    "city_kana": "カシハラシ",
    "town": "常盤町",
    "town_kana": "トキワチョウ",
    "street": "６０５番地の５",
    "office_name": "奈良県中和保健所",
    "office_name_kana": "ナラケンチユウワホケンシヨ"
  },
  "8510": {
    "postcode": "6348510",
    "prefecture": "奈良県",
    "prefecture_kana": "ナラケン",
    "prefecture_code": 29,
    "city": "橿原市",
    "city_kana": "カシハラシ",
    "town": "中曽司町",
    "town_kana": "ナカゾシチョウ",
    "street": "５５５−１",
    "office_name": "オカハシ　株式会社",
    "office_name_kana": "オカハシ カブシキガイシヤ"
  },
  "8511": {
    "postcode": "6348511",
    "prefecture": "奈良県",
    "prefecture_kana": "ナラケン",
    "prefecture_code": 29,
    "city": "橿原市",
    "city_kana": "カシハラシ",
    "town": "北八木町",
    "town_kana": "キタヤギチョウ",
    "street": "３丁目６５−１１",
    "office_name": "株式会社　近鉄百貨店　橿原店",
    "office_name_kana": "カブシキガイシヤ キンテツヒヤツカテン カシハラテン"
  },
  "8521": {
    "postcode": "6348521",
    "prefecture": "奈良県",
    "prefecture_kana": "ナラケン",
    "prefecture_code": 29,
    "city": "橿原市",
    "city_kana": "カシハラシ",
    "town": "四条町",
    "town_kana": "シジョウチョウ",
    "street": "８４０",
    "office_name": "奈良県立医科大学",
    "office_name_kana": "ナラケンリツイカダイガク"
  },
  "8522": {
    "postcode": "6348522",
    "prefecture": "奈良県",
    "prefecture_kana": "ナラケン",
    "prefecture_code": 29,
    "city": "橿原市",
    "city_kana": "カシハラシ",
    "town": "四条町",
    "town_kana": "シジョウチョウ",
    "street": "８４０",
    "office_name": "奈良県立医科大学付属病院",
    "office_name_kana": "ナラケンリツイカダイガクフゾクビヨウイン"
  },
  "8523": {
    "postcode": "6348523",
    "prefecture": "奈良県",
    "prefecture_kana": "ナラケン",
    "prefecture_code": 29,
    "city": "橿原市",
    "city_kana": "カシハラシ",
    "town": "四条町",
    "town_kana": "シジョウチョウ",
    "street": "８４０",
    "office_name": "奈良県立医科大学付属図書館",
    "office_name_kana": "ナラケンリツイカダイガクフゾクトシヨカン"
  },
  "8524": {
    "postcode": "6348524",
    "prefecture": "奈良県",
    "prefecture_kana": "ナラケン",
    "prefecture_code": 29,
    "city": "橿原市",
    "city_kana": "カシハラシ",
    "town": "四条町",
    "town_kana": "シジョウチョウ",
    "street": "８４０",
    "office_name": "奈良県立医科大学　看護短期大学部",
    "office_name_kana": "ナラケンリツイカダイガク カンゴタンキダイガクブ"
  },
  "8550": {
    "postcode": "6348550",
    "prefecture": "奈良県",
    "prefecture_kana": "ナラケン",
    "prefecture_code": 29,
    "city": "橿原市",
    "city_kana": "カシハラシ",
    "town": "久米町",
    "town_kana": "クメチョウ",
    "street": "９３４",
    "office_name": "橿原神宮",
    "office_name_kana": "カシハラジングウ"
  },
  "8551": {
    "postcode": "6348551",
    "prefecture": "奈良県",
    "prefecture_kana": "ナラケン",
    "prefecture_code": 29,
    "city": "橿原市",
    "city_kana": "カシハラシ",
    "town": "曽我町",
    "town_kana": "ソガチョウ",
    "street": "８００",
    "office_name": "株式会社　タカギ",
    "office_name_kana": "カブシキガイシヤ タカギ"
  },
  "8555": {
    "postcode": "6348555",
    "prefecture": "奈良県",
    "prefecture_kana": "ナラケン",
    "prefecture_code": 29,
    "city": "橿原市",
    "city_kana": "カシハラシ",
    "town": "十市町",
    "town_kana": "トオイチチョウ",
    "street": "３３３番地２号",
    "office_name": "株式会社　ジェイテクト　奈良工場",
    "office_name_kana": "カブシキガイシヤ ジエイテクト ナラコウジヨウ"
  },
  "8560": {
    "postcode": "6348560",
    "prefecture": "奈良県",
    "prefecture_kana": "ナラケン",
    "prefecture_code": 29,
    "city": "橿原市",
    "city_kana": "カシハラシ",
    "town": "城殿町",
    "town_kana": "キドノチョウ",
    "street": "４５９番地",
    "office_name": "大和平野土地改良区事務所",
    "office_name_kana": "ヤマトヘイヤトチカイリヨウクジムシヨ"
  },
  "8561": {
    "postcode": "6348561",
    "prefecture": "奈良県",
    "prefecture_kana": "ナラケン",
    "prefecture_code": 29,
    "city": "橿原市",
    "city_kana": "カシハラシ",
    "town": "大久保町",
    "town_kana": "オオクボチョウ",
    "street": "３０２番１",
    "office_name": "奈良県　市町村職員共済組合",
    "office_name_kana": "ナラケン シチヨウソンシヨクインキヨウサイクミアイ"
  },
  "8567": {
    "postcode": "6348567",
    "prefecture": "奈良県",
    "prefecture_kana": "ナラケン",
    "prefecture_code": 29,
    "city": "橿原市",
    "city_kana": "カシハラシ",
    "town": "観音寺町",
    "town_kana": "カンノンジチョウ",
    "street": "９−２",
    "office_name": "佐藤薬品工業　株式会社",
    "office_name_kana": "サトウヤクヒンコウギヨウ カブシキガイシヤ"
  },
  "8580": {
    "postcode": "6348580",
    "prefecture": "奈良県",
    "prefecture_kana": "ナラケン",
    "prefecture_code": 29,
    "city": "橿原市",
    "city_kana": "カシハラシ",
    "town": "新堂町",
    "town_kana": "シンドウチョウ",
    "street": "３１３−１",
    "office_name": "株式会社　タカトリ",
    "office_name_kana": "カブシキガイシヤ タカトリ"
  },
  "8585": {
    "postcode": "6348585",
    "prefecture": "奈良県",
    "prefecture_kana": "ナラケン",
    "prefecture_code": 29,
    "city": "橿原市",
    "city_kana": "カシハラシ",
    "town": "雲梯町",
    "town_kana": "ウナテチョウ",
    "street": "５９４",
    "office_name": "三和澱粉工業　株式会社",
    "office_name_kana": "サンワデンプンコウギヨウ カブシキガイシヤ"
  },
  "8586": {
    "postcode": "6348586",
    "prefecture": "奈良県",
    "prefecture_kana": "ナラケン",
    "prefecture_code": 29,
    "city": "橿原市",
    "city_kana": "カシハラシ",
    "town": "八木町",
    "town_kana": "ヤギチョウ",
    "street": "１丁目１−１８",
    "office_name": "橿原市役所",
    "office_name_kana": "カシハラシヤクシヨ"
  }
}