{
  "0000": [
    {
      "postcode": "6350000",
      "prefecture": "奈良県",
      "prefecture_kana": "ナラケン",
      "prefecture_code": 29,
      "city": "大和高田市",
      "city_kana": "ヤマトタカダシ",
      "town": "",
      "town_kana": "",
      "street": null,
      "office_name": null,
      "office_name_kana": null
    },
    {
      "postcode": "6350000",
      "prefecture": "奈良県",
      "prefecture_kana": "ナラケン",
      "prefecture_code": 29,
      "city": "北葛城郡広陵町",
      "city_kana": "キタカツラギグンコウリョウチョウ",
      "town": "",
      "town_kana": "",
      "street": null,
      "office_name": null,
      "office_name_kana": null
    }
  ],
  "0001": {
    "postcode": "6350001",
    "prefecture": "奈良県",
    "prefecture_kana": "ナラケン",
    "prefecture_code": 29,
    "city": "大和高田市",
    "city_kana": "ヤマトタカダシ",
    "town": "松塚",
    "town_kana": "マツヅカ",
    "street": null,
    "office_name": null,
    "office_name_kana": null
  },
  "0002": {
    "postcode": "6350002",
    "prefecture": "奈良県",
    "prefecture_kana": "ナラケン",
    "prefecture_code": 29,
    "city": "大和高田市",
    "city_kana": "ヤマトタカダシ",
    "town": "土庫",
    "town_kana": "ドンゴ",
    "street": null,
    "office_name": null,
    "office_name_kana": null
  },
  "0003": {
    "postcode": "6350003",
    "prefecture": "奈良県",
    "prefecture_kana": "ナラケン",
    "prefecture_code": 29,
    "city": "大和高田市",
    "city_kana": "ヤマトタカダシ",
    "town": "土庫",
    "town_kana": "ドンゴ",
    "street": null,
    "office_name": null,
    "office_name_kana": null
  },
  "0004": {
    "postcode": "6350004",
    "prefecture": "奈良県",
    "prefecture_kana": "ナラケン",
    "prefecture_code": 29,
    "city": "大和高田市",
    "city_kana": "ヤマトタカダシ",
    "town": "藤森",
    "town_kana": "フジノモリ",
    "street": null,
    "office_name": null,
    "office_name_kana": null
  },
  "0011": {
    "postcode": "6350011",
    "prefecture": "奈良県",
    "prefecture_kana": "ナラケン",
    "prefecture_code": 29,
    "city": "大和高田市",
    "city_kana": "ヤマトタカダシ",
    "town": "材木町",
    "town_kana": "ザイモクチョウ",
    "street": null,
    "office_name": null,
    "office_name_kana": null
  },
  "0012": {
    "postcode": "6350012",
    "prefecture": "奈良県",
    "prefecture_kana": "ナラケン",
    "prefecture_code": 29,
    "city": "大和高田市",
    "city_kana": "ヤマトタカダシ",
    "town": "曙町",
    "town_kana": "アケボノチョウ",
    "street": null,
    "office_name": null,
    "office_name_kana": null
  },
  "0013": {
    "postcode": "6350013",
    "prefecture": "奈良県",
    "prefecture_kana": "ナラケン",
    "prefecture_code": 29,
    "city": "大和高田市",
    "city_kana": "ヤマトタカダシ",
    "town": "昭和町",
    "town_kana": "ショウワチョウ",
    "street": null,
    "office_name": null,
    "office_name_kana": null
  },
  "0014": {
    "postcode": "6350014",
    "prefecture": "奈良県",
    "prefecture_kana": "ナラケン",
    "prefecture_code": 29,
    "city": "大和高田市",
    "city_kana": "ヤマトタカダシ",
    "town": "三和町",
    "town_kana": "サンワチョウ",
    "street": null,
    "office_name": null,
    "office_name_kana": null
  },
  "0015": {
    "postcode": "6350015",
    "prefecture": "奈良県",
    "prefecture_kana": "ナラケン",
    "prefecture_code": 29,
    "city": "大和高田市",
    "city_kana": "ヤマトタカダシ",
    "town": "幸町",
    "town_kana": "サイワイチョウ",
    "street": null,
    "office_name": null,
    "office_name_kana": null
  },
  "0016": {
    "postcode": "6350016",
    "prefecture": "奈良県",
    "prefecture_kana": "ナラケン",
    "prefecture_code": 29,
    "city": "大和高田市",
    "city_kana": "ヤマトタカダシ",
    "town": "大東町",
    "town_kana": "オオヒガシチョウ",
    "street": null,
    "office_name": null,
    "office_name_kana": null
  },
  "0017": {
    "postcode": "6350017",
    "prefecture": "奈良県",
    "prefecture_kana": "ナラケン",
    "prefecture_code": 29,
    "city": "大和高田市",
    "city_kana": "ヤマトタカダシ",
    "town": "東雲町",
    "town_kana": "シノノメチョウ",
    "street": null,
    "office_name": null,
    "office_name_kana": null
  },
  "0021": {
    "postcode": "6350021",
    "prefecture": "奈良県",
    "prefecture_kana": "ナラケン",
    "prefecture_code": 29,
    "city": "大和高田市",
    "city_kana": "ヤマトタカダシ",
    "town": "池尻",
    "town_kana": "イケジリ",
    "street": null,
    "office_name": null,
    "office_name_kana": null
  },
  "0022": [
    {
      "postcode": "6350022",
      "prefecture": "奈良県",
      "prefecture_kana": "ナラケン",
      "prefecture_code": 29,
      "city": "大和高田市",
      "city_kana": "ヤマトタカダシ",
      "town": "高田",
      "town_kana": "タカダ",
      "street": null,
      "office_name": null,
      "office_name_kana": null
    },
    {
      "postcode": "6350022",
      "prefecture": "奈良県",
      "prefecture_kana": "ナラケン",
      "prefecture_code": 29,
      "city": "大和高田市",
      "city_kana": "ヤマトタカダシ",
      "town": "日之出町",
      "town_kana": "ヒノデチョウ",
      "street": null,
      "office_name": null,
      "office_name_kana": null
    }
  ],
  "0023": {
    "postcode": "6350023",
    "prefecture": "奈良県",
    "prefecture_kana": "ナラケン",
    "prefecture_code": 29,
    "city": "大和高田市",
    "city_kana": "ヤマトタカダシ",
    "town": "日之出東本町",
    "town_kana": "ヒノデヒガシホンマチ",
    "street": null,
    "office_name": null,
    "office_name_kana": null
  },
  "0024": {
    "postcode": "6350024",
    "prefecture": "奈良県",
    "prefecture_kana": "ナラケン",
    "prefecture_code": 29,
    "city": "大和高田市",
    "city_kana": "ヤマトタカダシ",
    "town": "日之出西本町",
    "town_kana": "ヒノデニシホンマチ",
    "street": null,
    "office_name": null,
    "office_name_kana": null
  },
  "0025": {
    "postcode": "6350025",
    "prefecture": "奈良県",
    "prefecture_kana": "ナラケン",
    "prefecture_code": 29,
    "city": "大和高田市",
    "city_kana": "ヤマトタカダシ",
    "town": "神楽",
    "town_kana": "ジンラク",
    "street": null,
    "office_name": null,
    "office_name_kana": null
  },
  "0026": {
    "postcode": "6350026",
    "prefecture": "奈良県",
    "prefecture_kana": "ナラケン",
    "prefecture_code": 29,
    "city": "大和高田市",
    "city_kana": "ヤマトタカダシ",
    "town": "神楽",
    "town_kana": "ジンラク",
    "street": null,
    "office_name": null,
    "office_name_kana": null
  },
  "0031": [
    {
      "postcode": "6350031",
      "prefecture": "奈良県",
      "prefecture_kana": "ナラケン",
      "prefecture_code": 29,
      "city": "大和高田市",
      "city_kana": "ヤマトタカダシ",
      "town": "今里",
      "town_kana": "イマザト",
      "street": null,
      "office_name": null,
      "office_name_kana": null
    },
    {
      "postcode": "6350031",
      "prefecture": "奈良県",
      "prefecture_kana": "ナラケン",
      "prefecture_code": 29,
      "city": "大和高田市",
      "city_kana": "ヤマトタカダシ",
      "town": "今里町",
      "town_kana": "イマザトチョウ",
      "street": null,
      "office_name": null,
      "office_name_kana": null
    }
  ],
  "0032": {
    "postcode": "6350032",
    "prefecture": "奈良県",
    "prefecture_kana": "ナラケン",
    "prefecture_code": 29,
    "city": "大和高田市",
    "city_kana": "ヤマトタカダシ",
    "town": "今里川合方",
    "town_kana": "イマザトカワイホウ",
    "street": null,
    "office_name": null,
    "office_name_kana": null
  },
  "0033": {
    "postcode": "6350033",
    "prefecture": "奈良県",
    "prefecture_kana": "ナラケン",
    "prefecture_code": 29,
    "city": "大和高田市",
    "city_kana": "ヤマトタカダシ",
    "town": "南今里町",
    "town_kana": "ミナミイマザトチョウ",
    "street": null,
    "office_name": null,
    "office_name_kana": null
  },
  "0034": {
    "postcode": "6350034",
    "prefecture": "奈良県",
    "prefecture_kana": "ナラケン",
    "prefecture_code": 29,
    "city": "大和高田市",
    "city_kana": "ヤマトタカダシ",
    "town": "東三倉堂町",
    "town_kana": "ヒガシミクラドウチョウ",
    "street": null,
    "office_name": null,
    "office_name_kana": null
  },
  "0035": {
    "postcode": "6350035",
    "prefecture": "奈良県",
    "prefecture_kana": "ナラケン",
    "prefecture_code": 29,
    "city": "大和高田市",
    "city_kana": "ヤマトタカダシ",
    "town": "旭南町",
    "town_kana": "アサヒミナミチョウ",
    "street": null,
    "office_name": null,
    "office_name_kana": null
  },
  "0036": {
    "postcode": "6350036",
    "prefecture": "奈良県",
    "prefecture_kana": "ナラケン",
    "prefecture_code": 29,
    "city": "大和高田市",
    "city_kana": "ヤマトタカダシ",
    "town": "旭北町",
    "town_kana": "アサヒキタチョウ",
    "street": null,
    "office_name": null,
    "office_name_kana": null
  },
  "0037": {
    "postcode": "6350037",
    "prefecture": "奈良県",
    "prefecture_kana": "ナラケン",
    "prefecture_code": 29,
    "city": "大和高田市",
    "city_kana": "ヤマトタカダシ",
    "town": "中今里町",
    "town_kana": "ナカイマザトチョウ",
    "street": null,
    "office_name": null,
    "office_name_kana": null
  },
  "0041": {
    "postcode": "6350041",
    "prefecture": "奈良県",
    "prefecture_kana": "ナラケン",
    "prefecture_code": 29,
    "city": "大和高田市",
    "city_kana": "ヤマトタカダシ",
    "town": "田井",
    "town_kana": "タイ",
    "street": null,
    "office_name": null,
    "office_name_kana": null
  },
  "0042": {
    "postcode": "6350042",
    "prefecture": "奈良県",
    "prefecture_kana": "ナラケン",
    "prefecture_code": 29,
    "city": "大和高田市",
    "city_kana": "ヤマトタカダシ",
    "town": "勝目",
    "town_kana": "カジメ",
    "street": null,
    "office_name": null,
    "office_name_kana": null
  },
  "0043": {
    "postcode": "6350043",
    "prefecture": "奈良県",
    "prefecture_kana": "ナラケン",
    "prefecture_code": 29,
    "city": "大和高田市",
    "city_kana": "ヤマトタカダシ",
    "town": "出",
    "town_kana": "イデ",
    "street": null,
    "office_name": null,
    "office_name_kana": null
  },
  "0044": {
    "postcode": "6350044",
    "prefecture": "奈良県",
    "prefecture_kana": "ナラケン",
    "prefecture_code": 29,
    "city": "大和高田市",
    "city_kana": "ヤマトタカダシ",
    "town": "蔵之宮町",
    "town_kana": "クラノミヤチョウ",
    "street": null,
    "office_name": null,
    "office_name_kana": null
  },
  "0045": {
    "postcode": "6350045",
    "prefecture": "奈良県",
    "prefecture_kana": "ナラケン",
    "prefecture_code": 29,
    "city": "大和高田市",
    "city_kana": "ヤマトタカダシ",
    "town": "中三倉堂",
    "town_kana": "ナカミクラドウ",
    "street": null,
    "office_name": null,
    "office_name_kana": null
  },
  "0046": {
    "postcode": "6350046",
    "prefecture": "奈良県",
    "prefecture_kana": "ナラケン",
    "prefecture_code": 29,
    "city": "大和高田市",
    "city_kana": "ヤマトタカダシ",
    "town": "西三倉堂",
    "town_kana": "ニシミクラドウ",
    "street": null,
    "office_name": null,
    "office_name_kana": null
  },
  "0047": {
    "postcode": "6350047",
    "prefecture": "奈良県",
    "prefecture_kana": "ナラケン",
    "prefecture_code": 29,
    "city": "大和高田市",
    "city_kana": "ヤマトタカダシ",
    "town": "田井新町",
    "town_kana": "タイシンマチ",
    "street": null,
    "office_name": null,
    "office_name_kana": null
  },
  "0051": {
    "postcode": "6350051",
    "prefecture": "奈良県",
    "prefecture_kana": "ナラケン",
    "prefecture_code": 29,
    "city": "大和高田市",
    "city_kana": "ヤマトタカダシ",
    "town": "根成柿",
    "town_kana": "ネナリガキ",
    "street": null,
    "office_name": null,
    "office_name_kana": null
  },
  "0052": {
    "postcode": "6350052",
    "prefecture": "奈良県",
    "prefecture_kana": "ナラケン",
    "prefecture_code": 29,
    "city": "大和高田市",
    "city_kana": "ヤマトタカダシ",
    "town": "奥田",
    "town_kana": "オクダ",
    "street": null,
    "office_name": null,
    "office_name_kana": null
  },
  "0053": {
    "postcode": "6350053",
    "prefecture": "奈良県",
    "prefecture_kana": "ナラケン",
    "prefecture_code": 29,
    "city": "大和高田市",
    "city_kana": "ヤマトタカダシ",
    "town": "秋吉",
    "town_kana": "アキヨシ",
    "street": null,
    "office_name": null,
    "office_name_kana": null
  },
  "0054": {
    "postcode": "6350054",
    "prefecture": "奈良県",
    "prefecture_kana": "ナラケン",
    "prefecture_code": 29,
    "city": "大和高田市",
    "city_kana": "ヤマトタカダシ",
    "town": "曽大根",
    "town_kana": "ソオネ",
    "street": null,
    "office_name": null,
    "office_name_kana": null
  },
  "0055": {
    "postcode": "6350055",
    "prefecture": "奈良県",
    "prefecture_kana": "ナラケン",
    "prefecture_code": 29,
    "city": "大和高田市",
    "city_kana": "ヤマトタカダシ",
    "town": "曽大根",
    "town_kana": "ソオネ",
    "street": null,
    "office_name": null,
    "office_name_kana": null
  },
  "0056": {
    "postcode": "6350056",
    "prefecture": "奈良県",
    "prefecture_kana": "ナラケン",
    "prefecture_code": 29,
    "city": "大和高田市",
    "city_kana": "ヤマトタカダシ",
    "town": "甘田町",
    "town_kana": "カンダチョウ",
    "street": null,
    "office_name": null,
    "office_name_kana": null
  },
  "0057": {
    "postcode": "6350057",
    "prefecture": "奈良県",
    "prefecture_kana": "ナラケン",
    "prefecture_code": 29,
    "city": "大和高田市",
    "city_kana": "ヤマトタカダシ",
    "town": "南陽町",
    "town_kana": "ナンヨウチョウ",
    "street": null,
    "office_name": null,
    "office_name_kana": null
  },
  "0058": {
    "postcode": "6350058",
    "prefecture": "奈良県",
    "prefecture_kana": "ナラケン",
    "prefecture_code": 29,
    "city": "大和高田市",
    "city_kana": "ヤマトタカダシ",
    "town": "西坊城",
    "town_kana": "ニシボウジョウ",
    "street": null,
    "office_name": null,
    "office_name_kana": null
  },
  "0059": {
    "postcode": "6350059",
    "prefecture": "奈良県",
    "prefecture_kana": "ナラケン",
    "prefecture_code": 29,
    "city": "大和高田市",
    "city_kana": "ヤマトタカダシ",
    "town": "吉井",
    "town_kana": "ヨシイ",
    "street": null,
    "office_name": null,
    "office_name_kana": null
  },
  "0061": {
    "postcode": "6350061",
    "prefecture": "奈良県",
    "prefecture_kana": "ナラケン",
    "prefecture_code": 29,
    "city": "大和高田市",
    "city_kana": "ヤマトタカダシ",
    "town": "礒野東町",
    "town_kana": "イソノヒガシチョウ",
    "street": null,
    "office_name": null,
    "office_name_kana": null
  },
  "0062": {
    "postcode": "6350062",
    "prefecture": "奈良県",
    "prefecture_kana": "ナラケン",
    "prefecture_code": 29,
    "city": "大和高田市",
    "city_kana": "ヤマトタカダシ",
    "town": "礒野南町",
    "town_kana": "イソノミナミマチ",
    "street": null,
    "office_name": null,
    "office_name_kana": null
  },
  "0063": {
    "postcode": "6350063",
    "prefecture": "奈良県",
    "prefecture_kana": "ナラケン",
    "prefecture_code": 29,
    "city": "大和高田市",
    "city_kana": "ヤマトタカダシ",
    "town": "礒野新町",
    "town_kana": "イソノシンマチ",
    "street": null,
    "office_name": null,
    "office_name_kana": null
  },
  "0064": {
    "postcode": "6350064",
    "prefecture": "奈良県",
    "prefecture_kana": "ナラケン",
    "prefecture_code": 29,
    "city": "大和高田市",
    "city_kana": "ヤマトタカダシ",
    "town": "栄町",
    "town_kana": "サカエマチ",
    "street": null,
    "office_name": null,
    "office_name_kana": null
  },
  "0065": {
    "postcode": "6350065",
    "prefecture": "奈良県",
    "prefecture_kana": "ナラケン",
    "prefecture_code": 29,
    "city": "大和高田市",
    "city_kana": "ヤマトタカダシ",
    "town": "東中",
    "town_kana": "ヒガシナカ",
    "street": null,
    "office_name": null,
    "office_name_kana": null
  },
  "0066": {
    "postcode": "6350066",
    "prefecture": "奈良県",
    "prefecture_kana": "ナラケン",
    "prefecture_code": 29,
    "city": "大和高田市",
    "city_kana": "ヤマトタカダシ",
    "town": "東中",
    "town_kana": "ヒガシナカ",
    "street": null,
    "office_name": null,
    "office_name_kana": null
  },
  "0067": {
    "postcode": "6350067",
    "prefecture": "奈良県",
    "prefecture_kana": "ナラケン",
    "prefecture_code": 29,
    "city": "大和高田市",
    "city_kana": "ヤマトタカダシ",
    "town": "春日町",
    "town_kana": "カスガチョウ",
    "street": null,
    "office_name": null,
    "office_name_kana": null
  },
  "0071": {
    "postcode": "6350071",
    "prefecture": "奈良県",
    "prefecture_kana": "ナラケン",
    "prefecture_code": 29,
    "city": "大和高田市",
    "city_kana": "ヤマトタカダシ",
    "town": "築山",
    "town_kana": "ツキヤマ",
    "street": null,
    "office_name": null,
    "office_name_kana": null
  },
  "0072": {
    "postcode": "6350072",
    "prefecture": "奈良県",
    "prefecture_kana": "ナラケン",
    "prefecture_code": 29,
    "city": "大和高田市",
    "city_kana": "ヤマトタカダシ",
    "town": "有井",
    "town_kana": "アリイ",
    "street": null,
    "office_name": null,
    "office_name_kana": null
  },
  "0073": {
    "postcode": "6350073",
    "prefecture": "奈良県",
    "prefecture_kana": "ナラケン",
    "prefecture_code": 29,
    "city": "大和高田市",
    "city_kana": "ヤマトタカダシ",
    "town": "岡崎",
    "town_kana": "オカザキ",
    "street": null,
    "office_name": null,
    "office_name_kana": null
  },
  "0074": {
    "postcode": "6350074",
    "prefecture": "奈良県",
    "prefecture_kana": "ナラケン",
    "prefecture_code": 29,
    "city": "大和高田市",
    "city_kana": "ヤマトタカダシ",
    "town": "市場",
    "town_kana": "イチバ",
    "street": null,
    "office_name": null,
    "office_name_kana": null
  },
  "0075": {
    "postcode": "6350075",
    "prefecture": "奈良県",
    "prefecture_kana": "ナラケン",
    "prefecture_code": 29,
    "city": "大和高田市",
    "city_kana": "ヤマトタカダシ",
    "town": "野口",
    "town_kana": "ノグチ",
    "street": null,
    "office_name": null,
    "office_name_kana": null
  },
  "0076": {
    "postcode": "6350076",
    "prefecture": "奈良県",
    "prefecture_kana": "ナラケン",
    "prefecture_code": 29,
    "city": "大和高田市",
    "city_kana": "ヤマトタカダシ",
    "town": "大谷",
    "town_kana": "オオタニ",
    "street": null,
    "office_name": null,
    "office_name_kana": null
  },
  "0077": {
    "postcode": "6350077",
    "prefecture": "奈良県",
    "prefecture_kana": "ナラケン",
    "prefecture_code": 29,
    "city": "大和高田市",
    "city_kana": "ヤマトタカダシ",
    "town": "池田",
    "town_kana": "イケダ",
    "street": null,
    "office_name": null,
    "office_name_kana": null
  },
  "0081": {
    "postcode": "6350081",
    "prefecture": "奈良県",
    "prefecture_kana": "ナラケン",
    "prefecture_code": 29,
    "city": "大和高田市",
    "city_kana": "ヤマトタカダシ",
    "town": "高砂町",
    "town_kana": "タカサゴチョウ",
    "street": null,
    "office_name": null,
    "office_name_kana": null
  },
  "0082": {
    "postcode": "6350082",
    "prefecture": "奈良県",
    "prefecture_kana": "ナラケン",
    "prefecture_code": 29,
    "city": "大和高田市",
    "city_kana": "ヤマトタカダシ",
    "town": "本郷町",
    "town_kana": "ホンゴウチョウ",
    "street": null,
    "office_name": null,
    "office_name_kana": null
  },
  "0083": {
    "postcode": "6350083",
    "prefecture": "奈良県",
    "prefecture_kana": "ナラケン",
    "prefecture_code": 29,
    "city": "大和高田市",
    "city_kana": "ヤマトタカダシ",
    "town": "永和町",
    "town_kana": "エイワチョウ",
    "street": null,
    "office_name": null,
    "office_name_kana": null
  },
  "0084": {
    "postcode": "6350084",
    "prefecture": "奈良県",
    "prefecture_kana": "ナラケン",
    "prefecture_code": 29,
    "city": "大和高田市",
    "city_kana": "ヤマトタカダシ",
    "town": "北片塩町",
    "town_kana": "キタカタシオチョウ",
    "street": null,
    "office_name": null,
    "office_name_kana": null
  },
  "0085": {
    "postcode": "6350085",
    "prefecture": "奈良県",
    "prefecture_kana": "ナラケン",
    "prefecture_code": 29,
    "city": "大和高田市",
    "city_kana": "ヤマトタカダシ",
    "town": "片塩町",
    "town_kana": "カタシオチョウ",
    "street": null,
    "office_name": null,
    "office_name_kana": null
  },
  "0086": {
    "postcode": "6350086",
    "prefecture": "奈良県",
    "prefecture_kana": "ナラケン",
    "prefecture_code": 29,
    "city": "大和高田市",
    "city_kana": "ヤマトタカダシ",
    "town": "南本町",
    "town_kana": "ミナミホンマチ",
    "street": null,
    "office_name": null,
    "office_name_kana": null
  },
  "0087": {
    "postcode": "6350087",
    "prefecture": "奈良県",
    "prefecture_kana": "ナラケン",
    "prefecture_code": 29,
    "city": "大和高田市",
    "city_kana": "ヤマトタカダシ",
    "town": "内本町",
    "town_kana": "ウチホンマチ",
    "street": null,
    "office_name": null,
    "office_name_kana": null
  },
  "0091": {
    "postcode": "6350091",
    "prefecture": "奈良県",
    "prefecture_kana": "ナラケン",
    "prefecture_code": 29,
    "city": "大和高田市",
    "city_kana": "ヤマトタカダシ",
    "town": "大中東町",
    "town_kana": "オオナカヒガシチョウ",
    "street": null,
    "office_name": null,
    "office_name_kana": null
  },
  "0092": {
    "postcode": "6350092",
    "prefecture": "奈良県",
    "prefecture_kana": "ナラケン",
    "prefecture_code": 29,
    "city": "大和高田市",
    "city_kana": "ヤマトタカダシ",
    "town": "大中南町",
    "town_kana": "オオナカミナミチョウ",
    "street": null,
    "office_name": null,
    "office_name_kana": null
  },
  "0093": [
    {
      "postcode": "6350093",
      "prefecture": "奈良県",
      "prefecture_kana": "ナラケン",
      "prefecture_code": 29,
      "city": "大和高田市",
      "city_kana": "ヤマトタカダシ",
      "town": "礒野",
      "town_kana": "イソノ",
      "street": null,
      "office_name": null,
      "office_name_kana": null
    },
    {
      "postcode": "6350093",
      "prefecture": "奈良県",
      "prefecture_kana": "ナラケン",
      "prefecture_code": 29,
      "city": "大和高田市",
      "city_kana": "ヤマトタカダシ",
      "town": "礒野町",
      "town_kana": "イソノチョウ",
      "street": null,
      "office_name": null,
      "office_name_kana": null
    }
  ],
  "0094": {
    "postcode": "6350094",
    "prefecture": "奈良県",
    "prefecture_kana": "ナラケン",
    "prefecture_code": 29,
    "city": "大和高田市",
    "city_kana": "ヤマトタカダシ",
    "town": "礒野北町",
    "town_kana": "イソノキタチョウ",
    "street": null,
    "office_name": null,
    "office_name_kana": null
  },
  "0095": {
    "postcode": "6350095",
    "prefecture": "奈良県",
    "prefecture_kana": "ナラケン",
    "prefecture_code": 29,
    "city": "大和高田市",
    "city_kana": "ヤマトタカダシ",
    "town": "大中",
    "town_kana": "オオナカ",
    "street": null,
    "office_name": null,
    "office_name_kana": null
  },
  "0096": {
    "postcode": "6350096",
    "prefecture": "奈良県",
    "prefecture_kana": "ナラケン",
    "prefecture_code": 29,
    "city": "大和高田市",
    "city_kana": "ヤマトタカダシ",
    "town": "西町",
    "town_kana": "ニシマチ",
    "street": null,
    "office_name": null,
    "office_name_kana": null
  },
  "0097": {
    "postcode": "6350097",
    "prefecture": "奈良県",
    "prefecture_kana": "ナラケン",
    "prefecture_code": 29,
    "city": "大和高田市",
    "city_kana": "ヤマトタカダシ",
    "town": "北本町",
    "town_kana": "キタホンマチ",
    "street": null,
    "office_name": null,
    "office_name_kana": null
  },
  "0100": {
    "postcode": "6350100",
    "prefecture": "奈良県",
    "prefecture_kana": "ナラケン",
    "prefecture_code": 29,
    "city": "高市郡高取町",
    "city_kana": "タカイチグンタカトリチョウ",
    "town": "",
    "town_kana": "",
    "street": null,
    "office_name": null,
    "office_name_kana": null
  },
  "0101": {
    "postcode": "6350101",
    "prefecture": "奈良県",
    "prefecture_kana": "ナラケン",
    "prefecture_code": 29,
    "city": "高市郡高取町",
    "city_kana": "タカイチグンタカトリチョウ",
    "town": "高取",
    "town_kana": "タカトリ",
    "street": null,
    "office_name": null,
    "office_name_kana": null
  },
  "0102": {
    "postcode": "6350102",
    "prefecture": "奈良県",
    "prefecture_kana": "ナラケン",
    "prefecture_code": 29,
    "city": "高市郡高取町",
    "city_kana": "タカイチグンタカトリチョウ",
    "town": "壺阪",
    "town_kana": "ツボサカ",
    "street": null,
    "office_name": null,
    "office_name_kana": null
  },
  "0103": {
    "postcode": "6350103",
    "prefecture": "奈良県",
    "prefecture_kana": "ナラケン",
    "prefecture_code": 29,
    "city": "高市郡高取町",
    "city_kana": "タカイチグンタカトリチョウ",
    "town": "清水谷",
    "town_kana": "シミズタニ",
    "street": null,
    "office_name": null,
    "office_name_kana": null
  },
  "0104": {
    "postcode": "6350104",
    "prefecture": "奈良県",
    "prefecture_kana": "ナラケン",
    "prefecture_code": 29,
    "city": "高市郡高取町",
    "city_kana": "タカイチグンタカトリチョウ",
    "town": "上子島",
    "town_kana": "カミコシマ",
    "street": null,
    "office_name": null,
    "office_name_kana": null
  },
  "0111": {
    "postcode": "6350111",
    "prefecture": "奈良県",
    "prefecture_kana": "ナラケン",
    "prefecture_code": 29,
    "city": "高市郡高取町",
    "city_kana": "タカイチグンタカトリチョウ",
    "town": "松山",
    "town_kana": "マツヤマ",
    "street": null,
    "office_name": null,
    "office_name_kana": null
  },
  "0112": {
    "postcode": "6350112",
    "prefecture": "奈良県",
    "prefecture_kana": "ナラケン",
    "prefecture_code": 29,
    "city": "高市郡高取町",
    "city_kana": "タカイチグンタカトリチョウ",
    "town": "藤井",
    "town_kana": "フジイ",
    "street": null,
    "office_name": null,
    "office_name_kana": null
  },
  "0113": {
    "postcode": "6350113",
    "prefecture": "奈良県",
    "prefecture_kana": "ナラケン",
    "prefecture_code": 29,
    "city": "高市郡高取町",
    "city_kana": "タカイチグンタカトリチョウ",
    "town": "羽内",
    "town_kana": "ホウチ",
    "street": null,
    "office_name": null,
    "office_name_kana": null
  },
  "0121": {
    "postcode": "6350121",
    "prefecture": "奈良県",
    "prefecture_kana": "ナラケン",
    "prefecture_code": 29,
    "city": "高市郡高取町",
    "city_kana": "タカイチグンタカトリチョウ",
    "town": "丹生谷",
    "town_kana": "ニウダニ",
    "street": null,
    "office_name": null,
    "office_name_kana": null
  },
  "0122": {
    "postcode": "6350122",
    "prefecture": "奈良県",
    "prefecture_kana": "ナラケン",
    "prefecture_code": 29,
    "city": "高市郡高取町",
    "city_kana": "タカイチグンタカトリチョウ",
    "town": "谷田",
    "town_kana": "ヤタ",
    "street": null,
    "office_name": null,
    "office_name_kana": null
  },
  "0123": {
    "postcode": "6350123",
    "prefecture": "奈良県",
    "prefecture_kana": "ナラケン",
    "prefecture_code": 29,
    "city": "高市郡高取町",
    "city_kana": "タカイチグンタカトリチョウ",
    "town": "市尾",
    "town_kana": "イチオ",
    "street": null,
    "office_name": null,
    "office_name_kana": null
  },
  "0131": {
    "postcode": "6350131",
    "prefecture": "奈良県",
    "prefecture_kana": "ナラケン",
    "prefecture_code": 29,
    "city": "高市郡高取町",
    "city_kana": "タカイチグンタカトリチョウ",
    "town": "佐田",
    "town_kana": "サダ",
    "street": null,
    "office_name": null,
    "office_name_kana": null
  },
  "0132": {
    "postcode": "6350132",
    "prefecture": "奈良県",
    "prefecture_kana": "ナラケン",
    "prefecture_code": 29,
    "city": "高市郡高取町",
    "city_kana": "タカイチグンタカトリチョウ",
    "town": "森",
    "town_kana": "モリ",
    "street": null,
    "office_name": null,
    "office_name_kana": null
  },
  "0133": {
    "postcode": "6350133",
    "prefecture": "奈良県",
    "prefecture_kana": "ナラケン",
    "prefecture_code": 29,
    "city": "高市郡高取町",
    "city_kana": "タカイチグンタカトリチョウ",
    "town": "吉備",
    "town_kana": "キビ",
    "street": null,
    "office_name": null,
    "office_name_kana": null
  },
  "0134": {
    "postcode": "6350134",
    "prefecture": "奈良県",
    "prefecture_kana": "ナラケン",
    "prefecture_code": 29,
    "city": "高市郡高取町",
    "city_kana": "タカイチグンタカトリチョウ",
    "town": "薩摩",
    "town_kana": "サツマ",
    "street": null,
    "office_name": null,
    "office_name_kana": null
  },
  "0135": {
    "postcode": "6350135",
    "prefecture": "奈良県",
    "prefecture_kana": "ナラケン",
    "prefecture_code": 29,
    "city": "高市郡高取町",
    "city_kana": "タカイチグンタカトリチョウ",
    "town": "田井庄",
    "town_kana": "タイノショウ",
    "street": null,
    "office_name": null,
    "office_name_kana": null
  },
  "0136": {
    "postcode": "6350136",
    "prefecture": "奈良県",
    "prefecture_kana": "ナラケン",
    "prefecture_code": 29,
    "city": "高市郡高取町",
    "city_kana": "タカイチグンタカトリチョウ",
    "town": "兵庫",
    "town_kana": "ヒョウゴ",
    "street": null,
    "office_name": null,
    "office_name_kana": null
  },
  "0141": {
    "postcode": "6350141",
    "prefecture": "奈良県",
    "prefecture_kana": "ナラケン",
    "prefecture_code": 29,
    "city": "高市郡高取町",
    "city_kana": "タカイチグンタカトリチョウ",
    "town": "与楽",
    "town_kana": "ヨウラク",
    "street": null,
    "office_name": null,
    "office_name_kana": null
  },
  "0142": {
    "postcode": "6350142",
    "prefecture": "奈良県",
    "prefecture_kana": "ナラケン",
    "prefecture_code": 29,
    "city": "高市郡高取町",
    "city_kana": "タカイチグンタカトリチョウ",
    "town": "寺崎",
    "town_kana": "テラサキ",
    "street": null,
    "office_name": null,
    "office_name_kana": null
  },
  "0143": {
    "postcode": "6350143",
    "prefecture": "奈良県",
    "prefecture_kana": "ナラケン",
    "prefecture_code": 29,
    "city": "高市郡高取町",
    "city_kana": "タカイチグンタカトリチョウ",
    "town": "車木",
    "town_kana": "クルマキ",
    "street": null,
    "office_name": null,
    "office_name_kana": null
  },
  "0144": {
    "postcode": "6350144",
    "prefecture": "奈良県",
    "prefecture_kana": "ナラケン",
    "prefecture_code": 29,
    "city": "高市郡高取町",
    "city_kana": "タカイチグンタカトリチョウ",
    "town": "越智",
    "town_kana": "オチ",
    "street": null,
    "office_name": null,
    "office_name_kana": null
  },
  "0151": {
    "postcode": "6350151",
    "prefecture": "奈良県",
    "prefecture_kana": "ナラケン",
    "prefecture_code": 29,
    "city": "高市郡高取町",
    "city_kana": "タカイチグンタカトリチョウ",
    "town": "下子島",
    "town_kana": "シモコシマ",
    "street": null,
    "office_name": null,
    "office_name_kana": null
  },
  "0152": {
    "postcode": "6350152",
    "prefecture": "奈良県",
    "prefecture_kana": "ナラケン",
    "prefecture_code": 29,
    "city": "高市郡高取町",
    "city_kana": "タカイチグンタカトリチョウ",
    "town": "上土佐",
    "town_kana": "カミトサ",
    "street": null,
    "office_name": null,
    "office_name_kana": null
  },
  "0153": {
    "postcode": "6350153",
    "prefecture": "奈良県",
    "prefecture_kana": "ナラケン",
    "prefecture_code": 29,
    "city": "高市郡高取町",
    "city_kana": "タカイチグンタカトリチョウ",
    "town": "下土佐",
    "town_kana": "シモトサ",
    "street": null,
    "office_name": null,
    "office_name_kana": null
  },
  "0154": {
    "postcode": "6350154",
    "prefecture": "奈良県",
    "prefecture_kana": "ナラケン",
    "prefecture_code": 29,
    "city": "高市郡高取町",
    "city_kana": "タカイチグンタカトリチョウ",
    "town": "観覚寺",
    "town_kana": "カンガクジ",
    "street": null,
    "office_name": null,
    "office_name_kana": null
  },
  "0801": {
    "postcode": "6350801",
    "prefecture": "奈良県",
    "prefecture_kana": "ナラケン",
    "prefecture_code": 29,
    "city": "北葛城郡広陵町",
    "city_kana": "キタカツラギグンコウリョウチョウ",
    "town": "大場",
    "town_kana": "オオバ",
    "street": null,
    "office_name": null,
    "office_name_kana": null
  },
  "0802": {
    "postcode": "6350802",
    "prefecture": "奈良県",
    "prefecture_kana": "ナラケン",
    "prefecture_code": 29,
    "city": "北葛城郡広陵町",
    "city_kana": "キタカツラギグンコウリョウチョウ",
    "town": "的場",
    "town_kana": "マトバ",
    "street": null,
    "office_name": null,
    "office_name_kana": null
  },
  "0803": {
    "postcode": "6350803",
    "prefecture": "奈良県",
    "prefecture_kana": "ナラケン",
    "prefecture_code": 29,
    "city": "北葛城郡広陵町",
    "city_kana": "キタカツラギグンコウリョウチョウ",
    "town": "大野",
    "town_kana": "オオノ",
    "street": null,
    "office_name": null,
    "office_name_kana": null
  },
  "0804": {
    "postcode": "6350804",
    "prefecture": "奈良県",
    "prefecture_kana": "ナラケン",
    "prefecture_code": 29,
    "city": "北葛城郡広陵町",
    "city_kana": "キタカツラギグンコウリョウチョウ",
    "town": "沢",
    "town_kana": "サワ",
    "street": null,
    "office_name": null,
    "office_name_kana": null
  },
  "0805": {
    "postcode": "6350805",
    "prefecture": "奈良県",
    "prefecture_kana": "ナラケン",
    "prefecture_code": 29,
    "city": "北葛城郡広陵町",
    "city_kana": "キタカツラギグンコウリョウチョウ",
    "town": "萱野",
    "town_kana": "カヤノ",
    "street": null,
    "office_name": null,
    "office_name_kana": null
  },
  "0811": {
    "postcode": "6350811",
    "prefecture": "奈良県",
    "prefecture_kana": "ナラケン",
    "prefecture_code": 29,
    "city": "北葛城郡広陵町",
    "city_kana": "キタカツラギグンコウリョウチョウ",
    "town": "弁財天",
    "town_kana": "ベザイテン",
    "street": null,
    "office_name": null,
    "office_name_kana": null
  },
  "0812": {
    "postcode": "6350812",
    "prefecture": "奈良県",
    "prefecture_kana": "ナラケン",
    "prefecture_code": 29,
    "city": "北葛城郡広陵町",
    "city_kana": "キタカツラギグンコウリョウチョウ",
    "town": "広瀬",
    "town_kana": "ヒロセ",
    "street": null,
    "office_name": null,
    "office_name_kana": null
  },
  "0813": {
    "postcode": "6350813",
    "prefecture": "奈良県",
    "prefecture_kana": "ナラケン",
    "prefecture_code": 29,
    "city": "北葛城郡広陵町",
    "city_kana": "キタカツラギグンコウリョウチョウ",
    "town": "百済",
    "town_kana": "クダラ",
    "street": null,
    "office_name": null,
    "office_name_kana": null
  },
  "0814": {
    "postcode": "6350814",
    "prefecture": "奈良県",
    "prefecture_kana": "ナラケン",
    "prefecture_code": 29,
    "city": "北葛城郡広陵町",
    "city_kana": "キタカツラギグンコウリョウチョウ",
    "town": "南郷",
    "town_kana": "ナンゴウ",
    "street": null,
    "office_name": null,
    "office_name_kana": null
  },
  "0815": {
    "postcode": "6350815",
    "prefecture": "奈良県",
    "prefecture_kana": "ナラケン",
    "prefecture_code": 29,
    "city": "北葛城郡広陵町",
    "city_kana": "キタカツラギグンコウリョウチョウ",
    "town": "古寺",
    "town_kana": "コデラ",
    "street": null,
    "office_name": null,
    "office_name_kana": null
  },
  "0816": {
    "postcode": "6350816",
    "prefecture": "奈良県",
    "prefecture_kana": "ナラケン",
    "prefecture_code": 29,
    "city": "北葛城郡広陵町",
    "city_kana": "キタカツラギグンコウリョウチョウ",
    "town": "中",
    "town_kana": "ナカ",
    "street": null,
    "office_name": null,
    "office_name_kana": null
  },
  "0817": {
    "postcode": "6350817",
    "prefecture": "奈良県",
    "prefecture_kana": "ナラケン",
    "prefecture_code": 29,
    "city": "北葛城郡広陵町",
    "city_kana": "キタカツラギグンコウリョウチョウ",
    "town": "寺戸",
    "town_kana": "テラド",
    "street": null,
    "office_name": null,
    "office_name_kana": null
  },
  "0818": {
    "postcode": "6350818",
    "prefecture": "奈良県",
    "prefecture_kana": "ナラケン",
    "prefecture_code": 29,
    "city": "北葛城郡広陵町",
    "city_kana": "キタカツラギグンコウリョウチョウ",
    "town": "南",
    "town_kana": "ミナミ",
    "street": null,
    "office_name": null,
    "office_name_kana": null
  },
  "0821": {
    "postcode": "6350821",
    "prefecture": "奈良県",
    "prefecture_kana": "ナラケン",
    "prefecture_code": 29,
    "city": "北葛城郡広陵町",
    "city_kana": "キタカツラギグンコウリョウチョウ",
    "town": "笠",
    "town_kana": "カサ",
    "street": null,
    "office_name": null,
    "office_name_kana": null
  },
  "0822": {
    "postcode": "6350822",
    "prefecture": "奈良県",
    "prefecture_kana": "ナラケン",
    "prefecture_code": 29,
    "city": "北葛城郡広陵町",
    "city_kana": "キタカツラギグンコウリョウチョウ",
    "town": "平尾",
    "town_kana": "ヒラオ",
    "street": null,
    "office_name": null,
    "office_name_kana": null
  },
  "0823": {
    "postcode": "6350823",
    "prefecture": "奈良県",
    "prefecture_kana": "ナラケン",
    "prefecture_code": 29,
    "city": "北葛城郡広陵町",
    "city_kana": "キタカツラギグンコウリョウチョウ",
    "town": "三吉",
    "town_kana": "ミツヨシ",
    "street": null,
    "office_name": null,
    "office_name_kana": null
  },
  "0824": {
    "postcode": "6350824",
    "prefecture": "奈良県",
    "prefecture_kana": "ナラケン",
    "prefecture_code": 29,
    "city": "北葛城郡広陵町",
    "city_kana": "キタカツラギグンコウリョウチョウ",
    "town": "疋相",
    "town_kana": "ヒキソ",
    "street": null,
    "office_name": null,
    "office_name_kana": null
  },
  "0825": {
    "postcode": "6350825",
    "prefecture": "奈良県",
    "prefecture_kana": "ナラケン",
    "prefecture_code": 29,
    "city": "北葛城郡広陵町",
    "city_kana": "キタカツラギグンコウリョウチョウ",
    "town": "安部",
    "town_kana": "アベ",
    "street": null,
    "office_name": null,
    "office_name_kana": null
  },
  "0831": {
    "postcode": "6350831",
    "prefecture": "奈良県",
    "prefecture_kana": "ナラケン",
    "prefecture_code": 29,
    "city": "北葛城郡広陵町",
    "city_kana": "キタカツラギグンコウリョウチョウ",
    "town": "馬見北",
    "town_kana": "ウマミキタ",
    "street": null,
    "office_name": null,
    "office_name_kana": null
  },
  "0832": {
    "postcode": "6350832",
    "prefecture": "奈良県",
    "prefecture_kana": "ナラケン",
    "prefecture_code": 29,
    "city": "北葛城郡広陵町",
    "city_kana": "キタカツラギグンコウリョウチョウ",
    "town": "馬見中",
    "town_kana": "ウマミナカ",
    "street": null,
    "office_name": null,
    "office_name_kana": null
  },
  "0833": {
    "postcode": "6350833",
    "prefecture": "奈良県",
    "prefecture_kana": "ナラケン",
    "prefecture_code": 29,
    "city": "北葛城郡広陵町",
    "city_kana": "キタカツラギグンコウリョウチョウ",
    "town": "馬見南",
    "town_kana": "ウマミミナミ",
    "street": null,
    "office_name": null,
    "office_name_kana": null
  },
  "0834": {
    "postcode": "6350834",
    "prefecture": "奈良県",
    "prefecture_kana": "ナラケン",
    "prefecture_code": 29,
    "city": "北葛城郡広陵町",
    "city_kana": "キタカツラギグンコウリョウチョウ",
    "town": "大塚",
    "town_kana": "オオツカ",
    "street": null,
    "office_name": null,
    "office_name_kana": null
  },
  "0835": {
    "postcode": "6350835",
    "prefecture": "奈良県",
    "prefecture_kana": "ナラケン",
    "prefecture_code": 29,
    "city": "北葛城郡広陵町",
    "city_kana": "キタカツラギグンコウリョウチョウ",
    "town": "みささぎ台",
    "town_kana": "ミササギダイ",
    "street": null,
    "office_name": null,
    "office_name_kana": null
  },
  "8501": {
    "postcode": "6358501",
    "prefecture": "奈良県",
    "prefecture_kana": "ナラケン",
    "prefecture_code": 29,
    "city": "大和高田市",
    "city_kana": "ヤマトタカダシ",
    "town": "礒野北町",
    "town_kana": "イソノキタチョウ",
    "street": "１−１",
    "office_name": "大和高田市立病院",
    "office_name_kana": "ヤマトタカダシリツビヨウイン"
  },
  "8502": {
    "postcode": "6358502",
    "prefecture": "奈良県",
    "prefecture_kana": "ナラケン",
    "prefecture_code": 29,
    "city": "大和高田市",
    "city_kana": "ヤマトタカダシ",
    "town": "大字大中",
    "town_kana": null,
    "street": "１０１−４",
    "office_name": "奈良地方裁判所葛城支部・奈良家庭裁判所葛城支部・葛城簡易裁判所・葛城検察審査会",
    "office_name_kana": "ナラチホウサイバンシヨカツラギシブ・ナラカテイサイバンシヨカツラギシブ・カツラギカンイサイバンシヨ・カツラギケンサツシンサカイ"
  },
  "8503": {
    "postcode": "6358503",
    "prefecture": "奈良県",
    "prefecture_kana": "ナラケン",
    "prefecture_code": 29,
    "city": "大和高田市",
    "city_kana": "ヤマトタカダシ",
    "town": "西町",
    "town_kana": "ニシマチ",
    "street": "１番１５号",
    "office_name": "葛城税務署",
    "office_name_kana": "カツラギゼイムシヨ"
  },
  "8511": {
    "postcode": "6358511",
    "prefecture": "奈良県",
    "prefecture_kana": "ナラケン",
    "prefecture_code": 29,
    "city": "大和高田市",
    "city_kana": "ヤマトタカダシ",
    "town": "大字大中",
    "town_kana": null,
    "street": "９８番地４",
    "office_name": "大和高田市役所",
    "office_name_kana": "ヤマトタカダシヤクシヨ"
  },
  "8515": {
    "postcode": "6358515",
    "prefecture": "奈良県",
    "prefecture_kana": "ナラケン",
    "prefecture_code": 29,
    "city": "北葛城郡広陵町",
    "city_kana": "キタカツラギグンコウリョウチョウ",
    "town": "大字南郷",
    "town_kana": null,
    "street": "５８３−１",
    "office_name": "広陵町役場",
    "office_name_kana": "コウリヨウチヨウヤクバ"
  },
  "8520": {
    "postcode": "6358520",
    "prefecture": "奈良県",
    "prefecture_kana": "ナラケン",
    "prefecture_code": 29,
    "city": "大和高田市",
    "city_kana": "ヤマトタカダシ",
    "town": "曽大根",
    "town_kana": "ソオネ",
    "street": "２丁目６−１",
    "office_name": "浪華ゴム工業　株式会社",
    "office_name_kana": "ナニワゴムコウギヨウ カブシキガイシヤ"
  },
  "8528": {
    "postcode": "6358528",
    "prefecture": "奈良県",
    "prefecture_kana": "ナラケン",
    "prefecture_code": 29,
    "city": "大和高田市",
    "city_kana": "ヤマトタカダシ",
    "town": "東中",
    "town_kana": "ヒガシナカ",
    "street": "２丁目１２−２５",
    "office_name": "（株）　ナカガワ",
    "office_name_kana": "カブシキガイシヤ ナカガワ"
  },
  "8530": {
    "postcode": "6358530",
    "prefecture": "奈良県",
    "prefecture_kana": "ナラケン",
    "prefecture_code": 29,
    "city": "大和高田市",
    "city_kana": "ヤマトタカダシ",
    "town": "東中",
    "town_kana": "ヒガシナカ",
    "street": "１２７",
    "office_name": "奈良文化高等学校",
    "office_name_kana": "ナラブンカコウトウガツコウ"
  },
  "8585": {
    "postcode": "6358585",
    "prefecture": "奈良県",
    "prefecture_kana": "ナラケン",
    "prefecture_code": 29,
    "city": "大和高田市",
    "city_kana": "ヤマトタカダシ",
    "town": "大字池田",
    "town_kana": null,
    "street": "５７４−６",
    "office_name": "ハローワーク大和高田　（大和高田公共職業安定所）",
    "office_name_kana": "ハロ-ワ-クヤマトタカダ (ヤマトタカダコウキヨウシヨクギヨウアンテイシヨ)"
  },
  "8787": {
    "postcode": "6358787",
    "prefecture": "奈良県",
    "prefecture_kana": "ナラケン",
    "prefecture_code": 29,
    "city": "大和高田市",
    "city_kana": "ヤマトタカダシ",
    "town": "神楽",
    "town_kana": "ジンラク",
    "street": "２丁目７−４６（大和高田郵便局内）",
    "office_name": "奈良地域センター",
    "office_name_kana": "ナラチイキセンタ-"
  }
}