{
  "0200": [
    {
      "postcode": "6390200",
      "prefecture": "奈良県",
      "prefecture_kana": "ナラケン",
      "prefecture_code": 29,
      "city": "香芝市",
      "city_kana": "カシバシ",
      "town": "",
      "town_kana": "",
      "street": null,
      "office_name": null,
      "office_name_kana": null
    },
    {
      "postcode": "6390200",
      "prefecture": "奈良県",
      "prefecture_kana": "ナラケン",
      "prefecture_code": 29,
      "city": "北葛城郡上牧町",
      "city_kana": "キタカツラギグンカンマキチョウ",
      "town": "",
      "town_kana": "",
      "street": null,
      "office_name": null,
      "office_name_kana": null
    }
  ],
  "0201": {
    "postcode": "6390201",
    "prefecture": "奈良県",
    "prefecture_kana": "ナラケン",
    "prefecture_code": 29,
    "city": "北葛城郡上牧町",
    "city_kana": "キタカツラギグンカンマキチョウ",
    "town": "片岡台",
    "town_kana": "カタオカダイ",
    "street": null,
    "office_name": null,
    "office_name_kana": null
  },
  "0202": {
    "postcode": "6390202",
    "prefecture": "奈良県",
    "prefecture_kana": "ナラケン",
    "prefecture_code": 29,
    "city": "北葛城郡上牧町",
    "city_kana": "キタカツラギグンカンマキチョウ",
    "town": "桜ケ丘",
    "town_kana": "サクラガオカ",
    "street": null,
    "office_name": null,
    "office_name_kana": null
  },
  "0203": {
    "postcode": "6390203",
    "prefecture": "奈良県",
    "prefecture_kana": "ナラケン",
    "prefecture_code": 29,
    "city": "北葛城郡上牧町",
    "city_kana": "キタカツラギグンカンマキチョウ",
    "town": "友が丘",
    "town_kana": "トモガオカ",
    "street": null,
    "office_name": null,
    "office_name_kana": null
  },
  "0204": {
    "postcode": "6390204",
    "prefecture": "奈良県",
    "prefecture_kana": "ナラケン",
    "prefecture_code": 29,
    "city": "北葛城郡上牧町",
    "city_kana": "キタカツラギグンカンマキチョウ",
    "town": "緑ケ丘",
    "town_kana": "ミドリガオカ",
    "street": null,
    "office_name": null,
    "office_name_kana": null
  },
  "0205": {
    "postcode": "6390205",
    "prefecture": "奈良県",
    "prefecture_kana": "ナラケン",
    "prefecture_code": 29,
    "city": "北葛城郡上牧町",
    "city_kana": "キタカツラギグンカンマキチョウ",
    "town": "下牧",
    "town_kana": "シモマキ",
    "street": null,
    "office_name": null,
    "office_name_kana": null
  },
  "0206": {
    "postcode": "6390206",
    "prefecture": "奈良県",
    "prefecture_kana": "ナラケン",
    "prefecture_code": 29,
    "city": "北葛城郡上牧町",
    "city_kana": "キタカツラギグンカンマキチョウ",
    "town": "ゆりが丘",
    "town_kana": "ユリガオカ",
    "street": null,
    "office_name": null,
    "office_name_kana": null
  },
  "0211": {
    "postcode": "6390211",
    "prefecture": "奈良県",
    "prefecture_kana": "ナラケン",
    "prefecture_code": 29,
    "city": "北葛城郡上牧町",
    "city_kana": "キタカツラギグンカンマキチョウ",
    "town": "滝川台",
    "town_kana": "タキガワダイ",
    "street": null,
    "office_name": null,
    "office_name_kana": null
  },
  "0212": {
    "postcode": "6390212",
    "prefecture": "奈良県",
    "prefecture_kana": "ナラケン",
    "prefecture_code": 29,
    "city": "北葛城郡上牧町",
    "city_kana": "キタカツラギグンカンマキチョウ",
    "town": "服部台",
    "town_kana": "ハットリダイ",
    "street": null,
    "office_name": null,
    "office_name_kana": null
  },
  "0213": {
    "postcode": "6390213",
    "prefecture": "奈良県",
    "prefecture_kana": "ナラケン",
    "prefecture_code": 29,
    "city": "北葛城郡上牧町",
    "city_kana": "キタカツラギグンカンマキチョウ",
    "town": "米山台",
    "town_kana": "ヨネヤマダイ",
    "street": null,
    "office_name": null,
    "office_name_kana": null
  },
  "0214": {
    "postcode": "6390214",
    "prefecture": "奈良県",
    "prefecture_kana": "ナラケン",
    "prefecture_code": 29,
    "city": "北葛城郡上牧町",
    "city_kana": "キタカツラギグンカンマキチョウ",
    "town": "上牧",
    "town_kana": "カンマキ",
    "street": null,
    "office_name": null,
    "office_name_kana": null
  },
  "0215": {
    "postcode": "6390215",
    "prefecture": "奈良県",
    "prefecture_kana": "ナラケン",
    "prefecture_code": 29,
    "city": "北葛城郡上牧町",
    "city_kana": "キタカツラギグンカンマキチョウ",
    "town": "葛城台",
    "town_kana": "カツラギダイ",
    "street": null,
    "office_name": null,
    "office_name_kana": null
  },
  "0216": {
    "postcode": "6390216",
    "prefecture": "奈良県",
    "prefecture_kana": "ナラケン",
    "prefecture_code": 29,
    "city": "北葛城郡上牧町",
    "city_kana": "キタカツラギグンカンマキチョウ",
    "town": "松里園",
    "town_kana": "ショウリエン",
    "street": null,
    "office_name": null,
    "office_name_kana": null
  },
  "0217": {
    "postcode": "6390217",
    "prefecture": "奈良県",
    "prefecture_kana": "ナラケン",
    "prefecture_code": 29,
    "city": "北葛城郡上牧町",
    "city_kana": "キタカツラギグンカンマキチョウ",
    "town": "中筋出作",
    "town_kana": "ナカスジシュツサク",
    "street": null,
    "office_name": null,
    "office_name_kana": null
  },
  "0218": {
    "postcode": "6390218",
    "prefecture": "奈良県",
    "prefecture_kana": "ナラケン",
    "prefecture_code": 29,
    "city": "北葛城郡上牧町",
    "city_kana": "キタカツラギグンカンマキチョウ",
    "town": "ささゆり台",
    "town_kana": "ササユリダイ",
    "street": null,
    "office_name": null,
    "office_name_kana": null
  },
  "0221": {
    "postcode": "6390221",
    "prefecture": "奈良県",
    "prefecture_kana": "ナラケン",
    "prefecture_code": 29,
    "city": "香芝市",
    "city_kana": "カシバシ",
    "town": "五ケ所",
    "town_kana": "ゴカショ",
    "street": null,
    "office_name": null,
    "office_name_kana": null
  },
  "0222": {
    "postcode": "6390222",
    "prefecture": "奈良県",
    "prefecture_kana": "ナラケン",
    "prefecture_code": 29,
    "city": "香芝市",
    "city_kana": "カシバシ",
    "town": "西真美",
    "town_kana": "ニシマミ",
    "street": null,
    "office_name": null,
    "office_name_kana": null
  },
  "0223": {
    "postcode": "6390223",
    "prefecture": "奈良県",
    "prefecture_kana": "ナラケン",
    "prefecture_code": 29,
    "city": "香芝市",
    "city_kana": "カシバシ",
    "town": "真美ケ丘",
    "town_kana": "マミガオカ",
    "street": null,
    "office_name": null,
    "office_name_kana": null
  },
  "0224": {
    "postcode": "6390224",
    "prefecture": "奈良県",
    "prefecture_kana": "ナラケン",
    "prefecture_code": 29,
    "city": "香芝市",
    "city_kana": "カシバシ",
    "town": "別所",
    "town_kana": "ベッシヨ",
    "street": null,
    "office_name": null,
    "office_name_kana": null
  },
  "0225": {
    "postcode": "6390225",
    "prefecture": "奈良県",
    "prefecture_kana": "ナラケン",
    "prefecture_code": 29,
    "city": "香芝市",
    "city_kana": "カシバシ",
    "town": "瓦口",
    "town_kana": "カワラグチ",
    "street": null,
    "office_name": null,
    "office_name_kana": null
  },
  "0226": {
    "postcode": "6390226",
    "prefecture": "奈良県",
    "prefecture_kana": "ナラケン",
    "prefecture_code": 29,
    "city": "香芝市",
    "city_kana": "カシバシ",
    "town": "五位堂",
    "town_kana": "ゴイドウ",
    "street": null,
    "office_name": null,
    "office_name_kana": null
  },
  "0227": {
    "postcode": "6390227",
    "prefecture": "奈良県",
    "prefecture_kana": "ナラケン",
    "prefecture_code": 29,
    "city": "香芝市",
    "city_kana": "カシバシ",
    "town": "鎌田",
    "town_kana": "カマダ",
    "street": null,
    "office_name": null,
    "office_name_kana": null
  },
  "0231": {
    "postcode": "6390231",
    "prefecture": "奈良県",
    "prefecture_kana": "ナラケン",
    "prefecture_code": 29,
    "city": "香芝市",
    "city_kana": "カシバシ",
    "town": "下田西",
    "town_kana": "シモダニシ",
    "street": null,
    "office_name": null,
    "office_name_kana": null
  },
  "0232": {
    "postcode": "6390232",
    "prefecture": "奈良県",
    "prefecture_kana": "ナラケン",
    "prefecture_code": 29,
    "city": "香芝市",
    "city_kana": "カシバシ",
    "town": "下田東",
    "town_kana": "シモダヒガシ",
    "street": null,
    "office_name": null,
    "office_name_kana": null
  },
  "0233": {
    "postcode": "6390233",
    "prefecture": "奈良県",
    "prefecture_kana": "ナラケン",
    "prefecture_code": 29,
    "city": "香芝市",
    "city_kana": "カシバシ",
    "town": "下田",
    "town_kana": "シモダ",
    "street": null,
    "office_name": null,
    "office_name_kana": null
  },
  "0234": {
    "postcode": "6390234",
    "prefecture": "奈良県",
    "prefecture_kana": "ナラケン",
    "prefecture_code": 29,
    "city": "香芝市",
    "city_kana": "カシバシ",
    "town": "狐井",
    "town_kana": "キツイ",
    "street": null,
    "office_name": null,
    "office_name_kana": null
  },
  "0235": {
    "postcode": "6390235",
    "prefecture": "奈良県",
    "prefecture_kana": "ナラケン",
    "prefecture_code": 29,
    "city": "香芝市",
    "city_kana": "カシバシ",
    "town": "良福寺",
    "town_kana": "リョウフクジ",
    "street": null,
    "office_name": null,
    "office_name_kana": null
  },
  "0236": {
    "postcode": "6390236",
    "prefecture": "奈良県",
    "prefecture_kana": "ナラケン",
    "prefecture_code": 29,
    "city": "香芝市",
    "city_kana": "カシバシ",
    "town": "磯壁",
    "town_kana": "イソカベ",
    "street": null,
    "office_name": null,
    "office_name_kana": null
  },
  "0237": {
    "postcode": "6390237",
    "prefecture": "奈良県",
    "prefecture_kana": "ナラケン",
    "prefecture_code": 29,
    "city": "香芝市",
    "city_kana": "カシバシ",
    "town": "すみれ野",
    "town_kana": "スミレノ",
    "street": null,
    "office_name": null,
    "office_name_kana": null
  },
  "0241": {
    "postcode": "6390241",
    "prefecture": "奈良県",
    "prefecture_kana": "ナラケン",
    "prefecture_code": 29,
    "city": "香芝市",
    "city_kana": "カシバシ",
    "town": "高",
    "town_kana": "タカ",
    "street": null,
    "office_name": null,
    "office_name_kana": null
  },
  "0242": {
    "postcode": "6390242",
    "prefecture": "奈良県",
    "prefecture_kana": "ナラケン",
    "prefecture_code": 29,
    "city": "香芝市",
    "city_kana": "カシバシ",
    "town": "北今市",
    "town_kana": "キタイマイチ",
    "street": null,
    "office_name": null,
    "office_name_kana": null
  },
  "0243": {
    "postcode": "6390243",
    "prefecture": "奈良県",
    "prefecture_kana": "ナラケン",
    "prefecture_code": 29,
    "city": "香芝市",
    "city_kana": "カシバシ",
    "town": "藤山",
    "town_kana": "フジヤマ",
    "street": null,
    "office_name": null,
    "office_name_kana": null
  },
  "0244": {
    "postcode": "6390244",
    "prefecture": "奈良県",
    "prefecture_kana": "ナラケン",
    "prefecture_code": 29,
    "city": "香芝市",
    "city_kana": "カシバシ",
    "town": "本町",
    "town_kana": "ホンマチ",
    "street": null,
    "office_name": null,
    "office_name_kana": null
  },
  "0245": {
    "postcode": "6390245",
    "prefecture": "奈良県",
    "prefecture_kana": "ナラケン",
    "prefecture_code": 29,
    "city": "香芝市",
    "city_kana": "カシバシ",
    "town": "畑",
    "town_kana": "ハタ",
    "street": null,
    "office_name": null,
    "office_name_kana": null
  },
  "0251": {
    "postcode": "6390251",
    "prefecture": "奈良県",
    "prefecture_kana": "ナラケン",
    "prefecture_code": 29,
    "city": "香芝市",
    "city_kana": "カシバシ",
    "town": "逢坂",
    "town_kana": "オウサカ",
    "street": null,
    "office_name": null,
    "office_name_kana": null
  },
  "0252": {
    "postcode": "6390252",
    "prefecture": "奈良県",
    "prefecture_kana": "ナラケン",
    "prefecture_code": 29,
    "city": "香芝市",
    "city_kana": "カシバシ",
    "town": "穴虫",
    "town_kana": "アナムシ",
    "street": null,
    "office_name": null,
    "office_name_kana": null
  },
  "0253": {
    "postcode": "6390253",
    "prefecture": "奈良県",
    "prefecture_kana": "ナラケン",
    "prefecture_code": 29,
    "city": "香芝市",
    "city_kana": "カシバシ",
    "town": "田尻",
    "town_kana": "タジリ",
    "street": null,
    "office_name": null,
    "office_name_kana": null
  },
  "0254": {
    "postcode": "6390254",
    "prefecture": "奈良県",
    "prefecture_kana": "ナラケン",
    "prefecture_code": 29,
    "city": "香芝市",
    "city_kana": "カシバシ",
    "town": "関屋北",
    "town_kana": "セキヤキタ",
    "street": null,
    "office_name": null,
    "office_name_kana": null
  },
  "0255": {
    "postcode": "6390255",
    "prefecture": "奈良県",
    "prefecture_kana": "ナラケン",
    "prefecture_code": 29,
    "city": "香芝市",
    "city_kana": "カシバシ",
    "town": "関屋",
    "town_kana": "セキヤ",
    "street": null,
    "office_name": null,
    "office_name_kana": null
  },
  "0256": {
    "postcode": "6390256",
    "prefecture": "奈良県",
    "prefecture_kana": "ナラケン",
    "prefecture_code": 29,
    "city": "香芝市",
    "city_kana": "カシバシ",
    "town": "高山台",
    "town_kana": "タカヤマダイ",
    "street": null,
    "office_name": null,
    "office_name_kana": null
  },
  "0261": {
    "postcode": "6390261",
    "prefecture": "奈良県",
    "prefecture_kana": "ナラケン",
    "prefecture_code": 29,
    "city": "香芝市",
    "city_kana": "カシバシ",
    "town": "尼寺",
    "town_kana": "ニンジ",
    "street": null,
    "office_name": null,
    "office_name_kana": null
  },
  "0262": {
    "postcode": "6390262",
    "prefecture": "奈良県",
    "prefecture_kana": "ナラケン",
    "prefecture_code": 29,
    "city": "香芝市",
    "city_kana": "カシバシ",
    "town": "白鳳台",
    "town_kana": "ハクホウダイ",
    "street": null,
    "office_name": null,
    "office_name_kana": null
  },
  "0263": {
    "postcode": "6390263",
    "prefecture": "奈良県",
    "prefecture_kana": "ナラケン",
    "prefecture_code": 29,
    "city": "香芝市",
    "city_kana": "カシバシ",
    "town": "平野",
    "town_kana": "ヒラノ",
    "street": null,
    "office_name": null,
    "office_name_kana": null
  },
  "0264": {
    "postcode": "6390264",
    "prefecture": "奈良県",
    "prefecture_kana": "ナラケン",
    "prefecture_code": 29,
    "city": "香芝市",
    "city_kana": "カシバシ",
    "town": "今泉",
    "town_kana": "イマイズミ",
    "street": null,
    "office_name": null,
    "office_name_kana": null
  },
  "0265": {
    "postcode": "6390265",
    "prefecture": "奈良県",
    "prefecture_kana": "ナラケン",
    "prefecture_code": 29,
    "city": "香芝市",
    "city_kana": "カシバシ",
    "town": "上中",
    "town_kana": "カミナカ",
    "street": null,
    "office_name": null,
    "office_name_kana": null
  },
  "0266": {
    "postcode": "6390266",
    "prefecture": "奈良県",
    "prefecture_kana": "ナラケン",
    "prefecture_code": 29,
    "city": "香芝市",
    "city_kana": "カシバシ",
    "town": "旭ケ丘",
    "town_kana": "アサヒガオカ",
    "street": null,
    "office_name": null,
    "office_name_kana": null
  },
  "0271": {
    "postcode": "6390271",
    "prefecture": "奈良県",
    "prefecture_kana": "ナラケン",
    "prefecture_code": 29,
    "city": "葛城市",
    "city_kana": "カツラギシ",
    "town": "加守",
    "town_kana": "カモリ",
    "street": null,
    "office_name": null,
    "office_name_kana": null
  },
  "0272": {
    "postcode": "6390272",
    "prefecture": "奈良県",
    "prefecture_kana": "ナラケン",
    "prefecture_code": 29,
    "city": "葛城市",
    "city_kana": "カツラギシ",
    "town": "新在家",
    "town_kana": "シンザイケ",
    "street": null,
    "office_name": null,
    "office_name_kana": null
  },
  "0273": {
    "postcode": "6390273",
    "prefecture": "奈良県",
    "prefecture_kana": "ナラケン",
    "prefecture_code": 29,
    "city": "葛城市",
    "city_kana": "カツラギシ",
    "town": "染野",
    "town_kana": "ソメノ",
    "street": null,
    "office_name": null,
    "office_name_kana": null
  },
  "0274": {
    "postcode": "6390274",
    "prefecture": "奈良県",
    "prefecture_kana": "ナラケン",
    "prefecture_code": 29,
    "city": "葛城市",
    "city_kana": "カツラギシ",
    "town": "今在家",
    "town_kana": "イマザイケ",
    "street": null,
    "office_name": null,
    "office_name_kana": null
  },
  "0275": {
    "postcode": "6390275",
    "prefecture": "奈良県",
    "prefecture_kana": "ナラケン",
    "prefecture_code": 29,
    "city": "葛城市",
    "city_kana": "カツラギシ",
    "town": "勝根",
    "town_kana": "カツネ",
    "street": null,
    "office_name": null,
    "office_name_kana": null
  },
  "0276": {
    "postcode": "6390276",
    "prefecture": "奈良県",
    "prefecture_kana": "ナラケン",
    "prefecture_code": 29,
    "city": "葛城市",
    "city_kana": "カツラギシ",
    "town": "當麻",
    "town_kana": "タイマ",
    "street": null,
    "office_name": null,
    "office_name_kana": null
  },
  "0292": {
    "postcode": "6390292",
    "prefecture": "奈良県",
    "prefecture_kana": "ナラケン",
    "prefecture_code": 29,
    "city": "香芝市",
    "city_kana": "カシバシ",
    "town": "本町",
    "town_kana": "ホンマチ",
    "street": "１３９７",
    "office_name": "香芝市役所",
    "office_name_kana": "カシバシヤクシヨ"
  },
  "0293": {
    "postcode": "6390293",
    "prefecture": "奈良県",
    "prefecture_kana": "ナラケン",
    "prefecture_code": 29,
    "city": "北葛城郡上牧町",
    "city_kana": "キタカツラギグンカンマキチョウ",
    "town": "大字上牧",
    "town_kana": null,
    "street": "３３５０",
    "office_name": "上牧町役場",
    "office_name_kana": "カンマキチヨウヤクバ"
  },
  "0298": {
    "postcode": "6390298",
    "prefecture": "奈良県",
    "prefecture_kana": "ナラケン",
    "prefecture_code": 29,
    "city": "香芝市",
    "city_kana": "カシバシ",
    "town": "関屋",
    "town_kana": "セキヤ",
    "street": "９５８",
    "office_name": "樟蔭女子短期大学",
    "office_name_kana": "シヨウインジヨシタンキダイガク"
  },
  "1001": {
    "postcode": "6391001",
    "prefecture": "奈良県",
    "prefecture_kana": "ナラケン",
    "prefecture_code": 29,
    "city": "大和郡山市",
    "city_kana": "ヤマトコオリヤマシ",
    "town": "九条町",
    "town_kana": "クジョウチョウ",
    "street": null,
    "office_name": null,
    "office_name_kana": null
  },
  "1002": {
    "postcode": "6391002",
    "prefecture": "奈良県",
    "prefecture_kana": "ナラケン",
    "prefecture_code": 29,
    "city": "大和郡山市",
    "city_kana": "ヤマトコオリヤマシ",
    "town": "九条平野町",
    "town_kana": "クジョウヒラノチョウ",
    "street": null,
    "office_name": null,
    "office_name_kana": null
  },
  "1003": {
    "postcode": "6391003",
    "prefecture": "奈良県",
    "prefecture_kana": "ナラケン",
    "prefecture_code": 29,
    "city": "大和郡山市",
    "city_kana": "ヤマトコオリヤマシ",
    "town": "代官町",
    "town_kana": "ダイカンチョウ",
    "street": null,
    "office_name": null,
    "office_name_kana": null
  },
  "1004": {
    "postcode": "6391004",
    "prefecture": "奈良県",
    "prefecture_kana": "ナラケン",
    "prefecture_code": 29,
    "city": "大和郡山市",
    "city_kana": "ヤマトコオリヤマシ",
    "town": "城北町",
    "town_kana": "ジョウホクチョウ",
    "street": null,
    "office_name": null,
    "office_name_kana": null
  },
  "1005": {
    "postcode": "6391005",
    "prefecture": "奈良県",
    "prefecture_kana": "ナラケン",
    "prefecture_code": 29,
    "city": "大和郡山市",
    "city_kana": "ヤマトコオリヤマシ",
    "town": "植槻町",
    "town_kana": "ウエツキチョウ",
    "street": null,
    "office_name": null,
    "office_name_kana": null
  },
  "1006": {
    "postcode": "6391006",
    "prefecture": "奈良県",
    "prefecture_kana": "ナラケン",
    "prefecture_code": 29,
    "city": "大和郡山市",
    "city_kana": "ヤマトコオリヤマシ",
    "town": "天理町",
    "town_kana": "テンリチョウ",
    "street": null,
    "office_name": null,
    "office_name_kana": null
  },
  "1007": {
    "postcode": "6391007",
    "prefecture": "奈良県",
    "prefecture_kana": "ナラケン",
    "prefecture_code": 29,
    "city": "大和郡山市",
    "city_kana": "ヤマトコオリヤマシ",
    "town": "南郡山町",
    "town_kana": "ミナミコオリヤマチョウ",
    "street": null,
    "office_name": null,
    "office_name_kana": null
  },
  "1008": {
    "postcode": "6391008",
    "prefecture": "奈良県",
    "prefecture_kana": "ナラケン",
    "prefecture_code": 29,
    "city": "大和郡山市",
    "city_kana": "ヤマトコオリヤマシ",
    "town": "城の台町",
    "town_kana": "シロノダイチョウ",
    "street": null,
    "office_name": null,
    "office_name_kana": null
  },
  "1011": {
    "postcode": "6391011",
    "prefecture": "奈良県",
    "prefecture_kana": "ナラケン",
    "prefecture_code": 29,
    "city": "大和郡山市",
    "city_kana": "ヤマトコオリヤマシ",
    "town": "城内町",
    "town_kana": "ジョウナイチョウ",
    "street": null,
    "office_name": null,
    "office_name_kana": null
  },
  "1012": {
    "postcode": "6391012",
    "prefecture": "奈良県",
    "prefecture_kana": "ナラケン",
    "prefecture_code": 29,
    "city": "大和郡山市",
    "city_kana": "ヤマトコオリヤマシ",
    "town": "城見町",
    "town_kana": "シロミチョウ",
    "street": null,
    "office_name": null,
    "office_name_kana": null
  },
  "1013": {
    "postcode": "6391013",
    "prefecture": "奈良県",
    "prefecture_kana": "ナラケン",
    "prefecture_code": 29,
    "city": "大和郡山市",
    "city_kana": "ヤマトコオリヤマシ",
    "town": "朝日町",
    "town_kana": "アサヒチョウ",
    "street": null,
    "office_name": null,
    "office_name_kana": null
  },
  "1014": {
    "postcode": "6391014",
    "prefecture": "奈良県",
    "prefecture_kana": "ナラケン",
    "prefecture_code": 29,
    "city": "大和郡山市",
    "city_kana": "ヤマトコオリヤマシ",
    "town": "西岡町",
    "town_kana": "ニシオカチョウ",
    "street": null,
    "office_name": null,
    "office_name_kana": null
  },
  "1015": {
    "postcode": "6391015",
    "prefecture": "奈良県",
    "prefecture_kana": "ナラケン",
    "prefecture_code": 29,
    "city": "大和郡山市",
    "city_kana": "ヤマトコオリヤマシ",
    "town": "箕山町",
    "town_kana": "ミノヤマチョウ",
    "street": null,
    "office_name": null,
    "office_name_kana": null
  },
  "1016": {
    "postcode": "6391016",
    "prefecture": "奈良県",
    "prefecture_kana": "ナラケン",
    "prefecture_code": 29,
    "city": "大和郡山市",
    "city_kana": "ヤマトコオリヤマシ",
    "town": "城南町",
    "town_kana": "ジョウナンチョウ",
    "street": null,
    "office_name": null,
    "office_name_kana": null
  },
  "1017": {
    "postcode": "6391017",
    "prefecture": "奈良県",
    "prefecture_kana": "ナラケン",
    "prefecture_code": 29,
    "city": "大和郡山市",
    "city_kana": "ヤマトコオリヤマシ",
    "town": "藤原町",
    "town_kana": "フジワラチョウ",
    "street": null,
    "office_name": null,
    "office_name_kana": null
  },
  "1018": {
    "postcode": "6391018",
    "prefecture": "奈良県",
    "prefecture_kana": "ナラケン",
    "prefecture_code": 29,
    "city": "大和郡山市",
    "city_kana": "ヤマトコオリヤマシ",
    "town": "冠山町",
    "town_kana": "カンザンチョウ",
    "street": null,
    "office_name": null,
    "office_name_kana": null
  },
  "1019": {
    "postcode": "6391019",
    "prefecture": "奈良県",
    "prefecture_kana": "ナラケン",
    "prefecture_code": 29,
    "city": "大和郡山市",
    "city_kana": "ヤマトコオリヤマシ",
    "town": "永慶寺町",
    "town_kana": "エイケイジチョウ",
    "street": null,
    "office_name": null,
    "office_name_kana": null
  },
  "1021": {
    "postcode": "6391021",
    "prefecture": "奈良県",
    "prefecture_kana": "ナラケン",
    "prefecture_code": 29,
    "city": "大和郡山市",
    "city_kana": "ヤマトコオリヤマシ",
    "town": "新木町",
    "town_kana": "ニキチョウ",
    "street": null,
    "office_name": null,
    "office_name_kana": null
  },
  "1022": {
    "postcode": "6391022",
    "prefecture": "奈良県",
    "prefecture_kana": "ナラケン",
    "prefecture_code": 29,
    "city": "大和郡山市",
    "city_kana": "ヤマトコオリヤマシ",
    "town": "豊浦町",
    "town_kana": "トヨウラチョウ",
    "street": null,
    "office_name": null,
    "office_name_kana": null
  },
  "1023": {
    "postcode": "6391023",
    "prefecture": "奈良県",
    "prefecture_kana": "ナラケン",
    "prefecture_code": 29,
    "city": "大和郡山市",
    "city_kana": "ヤマトコオリヤマシ",
    "town": "小南町",
    "town_kana": "コミナミチョウ",
    "street": null,
    "office_name": null,
    "office_name_kana": null
  },
  "1024": {
    "postcode": "6391024",
    "prefecture": "奈良県",
    "prefecture_kana": "ナラケン",
    "prefecture_code": 29,
    "city": "大和郡山市",
    "city_kana": "ヤマトコオリヤマシ",
    "town": "南井町",
    "town_kana": "ミナミイチョウ",
    "street": null,
    "office_name": null,
    "office_name_kana": null
  },
  "1025": {
    "postcode": "6391025",
    "prefecture": "奈良県",
    "prefecture_kana": "ナラケン",
    "prefecture_code": 29,
    "city": "大和郡山市",
    "city_kana": "ヤマトコオリヤマシ",
    "town": "北西町",
    "town_kana": "キタニシチョウ",
    "street": null,
    "office_name": null,
    "office_name_kana": null
  },
  "1026": {
    "postcode": "6391026",
    "prefecture": "奈良県",
    "prefecture_kana": "ナラケン",
    "prefecture_code": 29,
    "city": "大和郡山市",
    "city_kana": "ヤマトコオリヤマシ",
    "town": "小林町",
    "town_kana": "コバヤシチョウ",
    "street": null,
    "office_name": null,
    "office_name_kana": null
  },
  "1027": {
    "postcode": "6391027",
    "prefecture": "奈良県",
    "prefecture_kana": "ナラケン",
    "prefecture_code": 29,
    "city": "大和郡山市",
    "city_kana": "ヤマトコオリヤマシ",
    "town": "池之内町",
    "town_kana": "イケノウチチョウ",
    "street": null,
    "office_name": null,
    "office_name_kana": null
  },
  "1028": {
    "postcode": "6391028",
    "prefecture": "奈良県",
    "prefecture_kana": "ナラケン",
    "prefecture_code": 29,
    "city": "大和郡山市",
    "city_kana": "ヤマトコオリヤマシ",
    "town": "田中町",
    "town_kana": "タナカチョウ",
    "street": null,
    "office_name": null,
    "office_name_kana": null
  },
  "1031": {
    "postcode": "6391031",
    "prefecture": "奈良県",
    "prefecture_kana": "ナラケン",
    "prefecture_code": 29,
    "city": "大和郡山市",
    "city_kana": "ヤマトコオリヤマシ",
    "town": "今国府町",
    "town_kana": "イマゴウチョウ",
    "street": null,
    "office_name": null,
    "office_name_kana": null
  },
  "1032": {
    "postcode": "6391032",
    "prefecture": "奈良県",
    "prefecture_kana": "ナラケン",
    "prefecture_code": 29,
    "city": "大和郡山市",
    "city_kana": "ヤマトコオリヤマシ",
    "town": "池沢町",
    "town_kana": "イケザワチョウ",
    "street": null,
    "office_name": null,
    "office_name_kana": null
  },
  "1033": {
    "postcode": "6391033",
    "prefecture": "奈良県",
    "prefecture_kana": "ナラケン",
    "prefecture_code": 29,
    "city": "大和郡山市",
    "city_kana": "ヤマトコオリヤマシ",
    "town": "昭和町",
    "town_kana": "ショウワチョウ",
    "street": null,
    "office_name": null,
    "office_name_kana": null
  },
  "1034": {
    "postcode": "6391034",
    "prefecture": "奈良県",
    "prefecture_kana": "ナラケン",
    "prefecture_code": 29,
    "city": "大和郡山市",
    "city_kana": "ヤマトコオリヤマシ",
    "town": "柏木町",
    "town_kana": "カシワギチョウ",
    "street": null,
    "office_name": null,
    "office_name_kana": null
  },
  "1035": {
    "postcode": "6391035",
    "prefecture": "奈良県",
    "prefecture_kana": "ナラケン",
    "prefecture_code": 29,
    "city": "大和郡山市",
    "city_kana": "ヤマトコオリヤマシ",
    "town": "額田部南町",
    "town_kana": "ヌカタベミナミチョウ",
    "street": null,
    "office_name": null,
    "office_name_kana": null
  },
  "1036": {
    "postcode": "6391036",
    "prefecture": "奈良県",
    "prefecture_kana": "ナラケン",
    "prefecture_code": 29,
    "city": "大和郡山市",
    "city_kana": "ヤマトコオリヤマシ",
    "town": "額田部寺町",
    "town_kana": "ヌカタベテラマチ",
    "street": null,
    "office_name": null,
    "office_name_kana": null
  },
  "1037": {
    "postcode": "6391037",
    "prefecture": "奈良県",
    "prefecture_kana": "ナラケン",
    "prefecture_code": 29,
    "city": "大和郡山市",
    "city_kana": "ヤマトコオリヤマシ",
    "town": "額田部北町",
    "town_kana": "ヌカタベキタマチ",
    "street": null,
    "office_name": null,
    "office_name_kana": null
  },
  "1038": {
    "postcode": "6391038",
    "prefecture": "奈良県",
    "prefecture_kana": "ナラケン",
    "prefecture_code": 29,
    "city": "大和郡山市",
    "city_kana": "ヤマトコオリヤマシ",
    "town": "西町",
    "town_kana": "ニシマチ",
    "street": null,
    "office_name": null,
    "office_name_kana": null
  },
  "1039": {
    "postcode": "6391039",
    "prefecture": "奈良県",
    "prefecture_kana": "ナラケン",
    "prefecture_code": 29,
    "city": "大和郡山市",
    "city_kana": "ヤマトコオリヤマシ",
    "town": "椎木町",
    "town_kana": "シギチョウ",
    "street": null,
    "office_name": null,
    "office_name_kana": null
  },
  "1041": {
    "postcode": "6391041",
    "prefecture": "奈良県",
    "prefecture_kana": "ナラケン",
    "prefecture_code": 29,
    "city": "大和郡山市",
    "city_kana": "ヤマトコオリヤマシ",
    "town": "満願寺町",
    "town_kana": "マンガンジチョウ",
    "street": null,
    "office_name": null,
    "office_name_kana": null
  },
  "1042": {
    "postcode": "6391042",
    "prefecture": "奈良県",
    "prefecture_kana": "ナラケン",
    "prefecture_code": 29,
    "city": "大和郡山市",
    "city_kana": "ヤマトコオリヤマシ",
    "town": "小泉町",
    "town_kana": "コイズミチョウ",
    "street": null,
    "office_name": null,
    "office_name_kana": null
  },
  "1043": {
    "postcode": "6391043",
    "prefecture": "奈良県",
    "prefecture_kana": "ナラケン",
    "prefecture_code": 29,
    "city": "大和郡山市",
    "city_kana": "ヤマトコオリヤマシ",
    "town": "西田中町",
    "town_kana": "ニシタナカチョウ",
    "street": null,
    "office_name": null,
    "office_name_kana": null
  },
  "1044": {
    "postcode": "6391044",
    "prefecture": "奈良県",
    "prefecture_kana": "ナラケン",
    "prefecture_code": 29,
    "city": "大和郡山市",
    "city_kana": "ヤマトコオリヤマシ",
    "town": "小泉町東",
    "town_kana": "コイズミチョウヒガシ",
    "street": null,
    "office_name": null,
    "office_name_kana": null
  },
  "1045": {
    "postcode": "6391045",
    "prefecture": "奈良県",
    "prefecture_kana": "ナラケン",
    "prefecture_code": 29,
    "city": "大和郡山市",
    "city_kana": "ヤマトコオリヤマシ",
    "town": "小林町西",
    "town_kana": "コバヤシチョウニシ",
    "street": null,
    "office_name": null,
    "office_name_kana": null
  },
  "1051": {
    "postcode": "6391051",
    "prefecture": "奈良県",
    "prefecture_kana": "ナラケン",
    "prefecture_code": 29,
    "city": "大和郡山市",
    "city_kana": "ヤマトコオリヤマシ",
    "town": "城町",
    "town_kana": "ジョウチョウ",
    "street": null,
    "office_name": null,
    "office_name_kana": null
  },
  "1052": {
    "postcode": "6391052",
    "prefecture": "奈良県",
    "prefecture_kana": "ナラケン",
    "prefecture_code": 29,
    "city": "大和郡山市",
    "city_kana": "ヤマトコオリヤマシ",
    "town": "外川町",
    "town_kana": "トガワチョウ",
    "street": null,
    "office_name": null,
    "office_name_kana": null
  },
  "1053": {
    "postcode": "6391053",
    "prefecture": "奈良県",
    "prefecture_kana": "ナラケン",
    "prefecture_code": 29,
    "city": "大和郡山市",
    "city_kana": "ヤマトコオリヤマシ",
    "town": "千日町",
    "town_kana": "センニチチョウ",
    "street": null,
    "office_name": null,
    "office_name_kana": null
  },
  "1054": {
    "postcode": "6391054",
    "prefecture": "奈良県",
    "prefecture_kana": "ナラケン",
    "prefecture_code": 29,
    "city": "大和郡山市",
    "city_kana": "ヤマトコオリヤマシ",
    "town": "新町",
    "town_kana": "シンマチ",
    "street": null,
    "office_name": null,
    "office_name_kana": null
  },
  "1055": {
    "postcode": "6391055",
    "prefecture": "奈良県",
    "prefecture_kana": "ナラケン",
    "prefecture_code": 29,
    "city": "大和郡山市",
    "city_kana": "ヤマトコオリヤマシ",
    "town": "矢田山町",
    "town_kana": "ヤタヤマチョウ",
    "street": null,
    "office_name": null,
    "office_name_kana": null
  },
  "1056": {
    "postcode": "6391056",
    "prefecture": "奈良県",
    "prefecture_kana": "ナラケン",
    "prefecture_code": 29,
    "city": "大和郡山市",
    "city_kana": "ヤマトコオリヤマシ",
    "town": "泉原町",
    "town_kana": "イズミハラチョウ",
    "street": null,
    "office_name": null,
    "office_name_kana": null
  },
  "1057": {
    "postcode": "6391057",
    "prefecture": "奈良県",
    "prefecture_kana": "ナラケン",
    "prefecture_code": 29,
    "city": "大和郡山市",
    "city_kana": "ヤマトコオリヤマシ",
    "town": "山田町",
    "town_kana": "ヤマダチョウ",
    "street": null,
    "office_name": null,
    "office_name_kana": null
  },
  "1058": {
    "postcode": "6391058",
    "prefecture": "奈良県",
    "prefecture_kana": "ナラケン",
    "prefecture_code": 29,
    "city": "大和郡山市",
    "city_kana": "ヤマトコオリヤマシ",
    "town": "矢田町",
    "town_kana": "ヤタチョウ",
    "street": null,
    "office_name": null,
    "office_name_kana": null
  },
  "1061": {
    "postcode": "6391061",
    "prefecture": "奈良県",
    "prefecture_kana": "ナラケン",
    "prefecture_code": 29,
    "city": "生駒郡安堵町",
    "city_kana": "イコマグンアンドチョウ",
    "town": "東安堵",
    "town_kana": "ヒガシアンド",
    "street": null,
    "office_name": null,
    "office_name_kana": null
  },
  "1062": {
    "postcode": "6391062",
    "prefecture": "奈良県",
    "prefecture_kana": "ナラケン",
    "prefecture_code": 29,
    "city": "生駒郡安堵町",
    "city_kana": "イコマグンアンドチョウ",
    "town": "岡崎",
    "town_kana": "オカサキ",
    "street": null,
    "office_name": null,
    "office_name_kana": null
  },
  "1063": {
    "postcode": "6391063",
    "prefecture": "奈良県",
    "prefecture_kana": "ナラケン",
    "prefecture_code": 29,
    "city": "生駒郡安堵町",
    "city_kana": "イコマグンアンドチョウ",
    "town": "かしの木台",
    "town_kana": "カシノキダイ",
    "street": null,
    "office_name": null,
    "office_name_kana": null
  },
  "1064": {
    "postcode": "6391064",
    "prefecture": "奈良県",
    "prefecture_kana": "ナラケン",
    "prefecture_code": 29,
    "city": "生駒郡安堵町",
    "city_kana": "イコマグンアンドチョウ",
    "town": "窪田",
    "town_kana": "クボタ",
    "street": null,
    "office_name": null,
    "office_name_kana": null
  },
  "1065": {
    "postcode": "6391065",
    "prefecture": "奈良県",
    "prefecture_kana": "ナラケン",
    "prefecture_code": 29,
    "city": "生駒郡安堵町",
    "city_kana": "イコマグンアンドチョウ",
    "town": "笠目",
    "town_kana": "カサメ",
    "street": null,
    "office_name": null,
    "office_name_kana": null
  },
  "1066": {
    "postcode": "6391066",
    "prefecture": "奈良県",
    "prefecture_kana": "ナラケン",
    "prefecture_code": 29,
    "city": "生駒郡安堵町",
    "city_kana": "イコマグンアンドチョウ",
    "town": "西安堵",
    "town_kana": "ニシアンド",
    "street": null,
    "office_name": null,
    "office_name_kana": null
  },
  "1080": {
    "postcode": "6391080",
    "prefecture": "奈良県",
    "prefecture_kana": "ナラケン",
    "prefecture_code": 29,
    "city": "大和郡山市",
    "city_kana": "ヤマトコオリヤマシ",
    "town": "矢田町",
    "town_kana": "ヤタチョウ",
    "street": "２２",
    "office_name": "奈良工業高等専門学校",
    "office_name_kana": "ナラコウギヨウコウトウセンモンガツコウ"
  },
  "1081": {
    "postcode": "6391081",
    "prefecture": "奈良県",
    "prefecture_kana": "ナラケン",
    "prefecture_code": 29,
    "city": "大和郡山市",
    "city_kana": "ヤマトコオリヤマシ",
    "town": "高田町",
    "town_kana": "タカダチョウ",
    "street": "４２１−２",
    "office_name": "岩崎工業　株式会社",
    "office_name_kana": "イワサキコウギヨウ カブシキガイシヤ"
  },
  "1082": {
    "postcode": "6391082",
    "prefecture": "奈良県",
    "prefecture_kana": "ナラケン",
    "prefecture_code": 29,
    "city": "大和郡山市",
    "city_kana": "ヤマトコオリヤマシ",
    "town": "南郡山町",
    "town_kana": "ミナミコオリヤマチョウ",
    "street": "５２９−６（大和郡山郵便局私書箱第３号）",
    "office_name": "奈良信用金庫",
    "office_name_kana": "ナラシンヨウキンコ"
  },
  "1085": {
    "postcode": "6391085",
    "prefecture": "奈良県",
    "prefecture_kana": "ナラケン",
    "prefecture_code": 29,
    "city": "大和郡山市",
    "city_kana": "ヤマトコオリヤマシ",
    "town": "池沢町",
    "town_kana": "イケザワチョウ",
    "street": "１７２",
    "office_name": "ニッタ　株式会社　奈良工場",
    "office_name_kana": "ニツタ カブシキガイシヤ ナラコウジヨウ"
  },
  "1089": {
    "postcode": "6391089",
    "prefecture": "奈良県",
    "prefecture_kana": "ナラケン",
    "prefecture_code": 29,
    "city": "大和郡山市",
    "city_kana": "ヤマトコオリヤマシ",
    "town": "南郡山町",
    "town_kana": "ミナミコオリヤマチョウ",
    "street": "２１１−９（大和郡山郵便局私書箱第１号）",
    "office_name": "株式会社　南都銀行　郡山支店",
    "office_name_kana": "カブシキガイシヤ ナントギンコウ コオリヤマシテン"
  },
  "1093": {
    "postcode": "6391093",
    "prefecture": "奈良県",
    "prefecture_kana": "ナラケン",
    "prefecture_code": 29,
    "city": "大和郡山市",
    "city_kana": "ヤマトコオリヤマシ",
    "town": "山田町",
    "town_kana": "ヤマダチョウ",
    "street": "４３０",
    "office_name": "奈良学園",
    "office_name_kana": "ナラガクエン"
  },
  "1095": {
    "postcode": "6391095",
    "prefecture": "奈良県",
    "prefecture_kana": "ナラケン",
    "prefecture_code": 29,
    "city": "生駒郡安堵町",
    "city_kana": "イコマグンアンドチョウ",
    "town": "大字東安堵",
    "town_kana": null,
    "street": "９５８",
    "office_name": "安堵町役場",
    "office_name_kana": "アンドチヨウヤクバ"
  },
  "1100": [
    {
      "postcode": "6391100",
      "prefecture": "奈良県",
      "prefecture_kana": "ナラケン",
      "prefecture_code": 29,
      "city": "大和郡山市",
      "city_kana": "ヤマトコオリヤマシ",
      "town": "",
      "town_kana": "",
      "street": null,
      "office_name": null,
      "office_name_kana": null
    },
    {
      "postcode": "6391100",
      "prefecture": "奈良県",
      "prefecture_kana": "ナラケン",
      "prefecture_code": 29,
      "city": "生駒郡安堵町",
      "city_kana": "イコマグンアンドチョウ",
      "town": "",
      "town_kana": "",
      "street": null,
      "office_name": null,
      "office_name_kana": null
    }
  ],
  "1101": {
    "postcode": "6391101",
    "prefecture": "奈良県",
    "prefecture_kana": "ナラケン",
    "prefecture_code": 29,
    "city": "大和郡山市",
    "city_kana": "ヤマトコオリヤマシ",
    "town": "下三橋町",
    "town_kana": "シモミツハシチョウ",
    "street": null,
    "office_name": null,
    "office_name_kana": null
  },
  "1102": {
    "postcode": "6391102",
    "prefecture": "奈良県",
    "prefecture_kana": "ナラケン",
    "prefecture_code": 29,
    "city": "大和郡山市",
    "city_kana": "ヤマトコオリヤマシ",
    "town": "上三橋町",
    "town_kana": "カミミツハシチョウ",
    "street": null,
    "office_name": null,
    "office_name_kana": null
  },
  "1103": {
    "postcode": "6391103",
    "prefecture": "奈良県",
    "prefecture_kana": "ナラケン",
    "prefecture_code": 29,
    "city": "大和郡山市",
    "city_kana": "ヤマトコオリヤマシ",
    "town": "美濃庄町",
    "town_kana": "ミノショウチョウ",
    "street": null,
    "office_name": null,
    "office_name_kana": null
  },
  "1104": {
    "postcode": "6391104",
    "prefecture": "奈良県",
    "prefecture_kana": "ナラケン",
    "prefecture_code": 29,
    "city": "大和郡山市",
    "city_kana": "ヤマトコオリヤマシ",
    "town": "井戸野町",
    "town_kana": "イドノチョウ",
    "street": null,
    "office_name": null,
    "office_name_kana": null
  },
  "1105": {
    "postcode": "6391105",
    "prefecture": "奈良県",
    "prefecture_kana": "ナラケン",
    "prefecture_code": 29,
    "city": "大和郡山市",
    "city_kana": "ヤマトコオリヤマシ",
    "town": "番匠田中町",
    "town_kana": "バンジョウタナカチョウ",
    "street": null,
    "office_name": null,
    "office_name_kana": null
  },
  "1106": {
    "postcode": "6391106",
    "prefecture": "奈良県",
    "prefecture_kana": "ナラケン",
    "prefecture_code": 29,
    "city": "大和郡山市",
    "city_kana": "ヤマトコオリヤマシ",
    "town": "大江町",
    "town_kana": "オオエチョウ",
    "street": null,
    "office_name": null,
    "office_name_kana": null
  },
  "1107": {
    "postcode": "6391107",
    "prefecture": "奈良県",
    "prefecture_kana": "ナラケン",
    "prefecture_code": 29,
    "city": "大和郡山市",
    "city_kana": "ヤマトコオリヤマシ",
    "town": "若槻町",
    "town_kana": "ワカツキチョウ",
    "street": null,
    "office_name": null,
    "office_name_kana": null
  },
  "1108": {
    "postcode": "6391108",
    "prefecture": "奈良県",
    "prefecture_kana": "ナラケン",
    "prefecture_code": 29,
    "city": "大和郡山市",
    "city_kana": "ヤマトコオリヤマシ",
    "town": "稗田町",
    "town_kana": "ヒエダチョウ",
    "street": null,
    "office_name": null,
    "office_name_kana": null
  },
  "1111": {
    "postcode": "6391111",
    "prefecture": "奈良県",
    "prefecture_kana": "ナラケン",
    "prefecture_code": 29,
    "city": "大和郡山市",
    "city_kana": "ヤマトコオリヤマシ",
    "town": "石川町",
    "town_kana": "イシカワチョウ",
    "street": null,
    "office_name": null,
    "office_name_kana": null
  },
  "1112": {
    "postcode": "6391112",
    "prefecture": "奈良県",
    "prefecture_kana": "ナラケン",
    "prefecture_code": 29,
    "city": "大和郡山市",
    "city_kana": "ヤマトコオリヤマシ",
    "town": "白土町",
    "town_kana": "シラツチチョウ",
    "street": null,
    "office_name": null,
    "office_name_kana": null
  },
  "1113": {
    "postcode": "6391113",
    "prefecture": "奈良県",
    "prefecture_kana": "ナラケン",
    "prefecture_code": 29,
    "city": "大和郡山市",
    "city_kana": "ヤマトコオリヤマシ",
    "town": "櫟枝町",
    "town_kana": "イチエダチョウ",
    "street": null,
    "office_name": null,
    "office_name_kana": null
  },
  "1114": {
    "postcode": "6391114",
    "prefecture": "奈良県",
    "prefecture_kana": "ナラケン",
    "prefecture_code": 29,
    "city": "大和郡山市",
    "city_kana": "ヤマトコオリヤマシ",
    "town": "新庄町",
    "town_kana": "シンジョウチョウ",
    "street": null,
    "office_name": null,
    "office_name_kana": null
  },
  "1115": {
    "postcode": "6391115",
    "prefecture": "奈良県",
    "prefecture_kana": "ナラケン",
    "prefecture_code": 29,
    "city": "大和郡山市",
    "city_kana": "ヤマトコオリヤマシ",
    "town": "横田町",
    "town_kana": "ヨコタチョウ",
    "street": null,
    "office_name": null,
    "office_name_kana": null
  },
  "1116": {
    "postcode": "6391116",
    "prefecture": "奈良県",
    "prefecture_kana": "ナラケン",
    "prefecture_code": 29,
    "city": "大和郡山市",
    "city_kana": "ヤマトコオリヤマシ",
    "town": "伊豆七条町",
    "town_kana": "イズシチジョウチョウ",
    "street": null,
    "office_name": null,
    "office_name_kana": null
  },
  "1117": {
    "postcode": "6391117",
    "prefecture": "奈良県",
    "prefecture_kana": "ナラケン",
    "prefecture_code": 29,
    "city": "大和郡山市",
    "city_kana": "ヤマトコオリヤマシ",
    "town": "番条町",
    "town_kana": "バンジョウチョウ",
    "street": null,
    "office_name": null,
    "office_name_kana": null
  },
  "1118": {
    "postcode": "6391118",
    "prefecture": "奈良県",
    "prefecture_kana": "ナラケン",
    "prefecture_code": 29,
    "city": "大和郡山市",
    "city_kana": "ヤマトコオリヤマシ",
    "town": "中城町",
    "town_kana": "ナカジョウチョウ",
    "street": null,
    "office_name": null,
    "office_name_kana": null
  },
  "1119": {
    "postcode": "6391119",
    "prefecture": "奈良県",
    "prefecture_kana": "ナラケン",
    "prefecture_code": 29,
    "city": "大和郡山市",
    "city_kana": "ヤマトコオリヤマシ",
    "town": "発志院町",
    "town_kana": "ハツシインチョウ",
    "street": null,
    "office_name": null,
    "office_name_kana": null
  },
  "1121": {
    "postcode": "6391121",
    "prefecture": "奈良県",
    "prefecture_kana": "ナラケン",
    "prefecture_code": 29,
    "city": "大和郡山市",
    "city_kana": "ヤマトコオリヤマシ",
    "town": "杉町",
    "town_kana": "スギチョウ",
    "street": null,
    "office_name": null,
    "office_name_kana": null
  },
  "1122": {
    "postcode": "6391122",
    "prefecture": "奈良県",
    "prefecture_kana": "ナラケン",
    "prefecture_code": 29,
    "city": "大和郡山市",
    "city_kana": "ヤマトコオリヤマシ",
    "town": "丹後庄町",
    "town_kana": "タンゴノショウチョウ",
    "street": null,
    "office_name": null,
    "office_name_kana": null
  },
  "1123": {
    "postcode": "6391123",
    "prefecture": "奈良県",
    "prefecture_kana": "ナラケン",
    "prefecture_code": 29,
    "city": "大和郡山市",
    "city_kana": "ヤマトコオリヤマシ",
    "town": "筒井町",
    "town_kana": "ツツイチョウ",
    "street": null,
    "office_name": null,
    "office_name_kana": null
  },
  "1124": {
    "postcode": "6391124",
    "prefecture": "奈良県",
    "prefecture_kana": "ナラケン",
    "prefecture_code": 29,
    "city": "大和郡山市",
    "city_kana": "ヤマトコオリヤマシ",
    "town": "馬司町",
    "town_kana": "マツカサチョウ",
    "street": null,
    "office_name": null,
    "office_name_kana": null
  },
  "1125": {
    "postcode": "6391125",
    "prefecture": "奈良県",
    "prefecture_kana": "ナラケン",
    "prefecture_code": 29,
    "city": "大和郡山市",
    "city_kana": "ヤマトコオリヤマシ",
    "town": "八条町",
    "town_kana": "ハチジョウチョウ",
    "street": null,
    "office_name": null,
    "office_name_kana": null
  },
  "1126": {
    "postcode": "6391126",
    "prefecture": "奈良県",
    "prefecture_kana": "ナラケン",
    "prefecture_code": 29,
    "city": "大和郡山市",
    "city_kana": "ヤマトコオリヤマシ",
    "town": "宮堂町",
    "town_kana": "ミヤドウチョウ",
    "street": null,
    "office_name": null,
    "office_name_kana": null
  },
  "1127": {
    "postcode": "6391127",
    "prefecture": "奈良県",
    "prefecture_kana": "ナラケン",
    "prefecture_code": 29,
    "city": "大和郡山市",
    "city_kana": "ヤマトコオリヤマシ",
    "town": "長安寺町",
    "town_kana": "チョウアンジチョウ",
    "street": null,
    "office_name": null,
    "office_name_kana": null
  },
  "1131": {
    "postcode": "6391131",
    "prefecture": "奈良県",
    "prefecture_kana": "ナラケン",
    "prefecture_code": 29,
    "city": "大和郡山市",
    "city_kana": "ヤマトコオリヤマシ",
    "town": "野垣内町",
    "town_kana": "ノガイトチョウ",
    "street": null,
    "office_name": null,
    "office_name_kana": null
  },
  "1132": {
    "postcode": "6391132",
    "prefecture": "奈良県",
    "prefecture_kana": "ナラケン",
    "prefecture_code": 29,
    "city": "大和郡山市",
    "city_kana": "ヤマトコオリヤマシ",
    "town": "高田町",
    "town_kana": "タカダチョウ",
    "street": null,
    "office_name": null,
    "office_name_kana": null
  },
  "1133": {
    "postcode": "6391133",
    "prefecture": "奈良県",
    "prefecture_kana": "ナラケン",
    "prefecture_code": 29,
    "city": "大和郡山市",
    "city_kana": "ヤマトコオリヤマシ",
    "town": "高田口町",
    "town_kana": "タカダグチチョウ",
    "street": null,
    "office_name": null,
    "office_name_kana": null
  },
  "1134": [
    {
      "postcode": "6391134",
      "prefecture": "奈良県",
      "prefecture_kana": "ナラケン",
      "prefecture_code": 29,
      "city": "大和郡山市",
      "city_kana": "ヤマトコオリヤマシ",
      "town": "柳",
      "town_kana": "ヤナギ",
      "street": null,
      "office_name": null,
      "office_name_kana": null
    },
    {
      "postcode": "6391134",
      "prefecture": "奈良県",
      "prefecture_kana": "ナラケン",
      "prefecture_code": 29,
      "city": "大和郡山市",
      "city_kana": "ヤマトコオリヤマシ",
      "town": "柳町",
      "town_kana": "ヤナギマチ",
      "street": null,
      "office_name": null,
      "office_name_kana": null
    }
  ],
  "1135": {
    "postcode": "6391135",
    "prefecture": "奈良県",
    "prefecture_kana": "ナラケン",
    "prefecture_code": 29,
    "city": "大和郡山市",
    "city_kana": "ヤマトコオリヤマシ",
    "town": "天井町",
    "town_kana": "テンジョウチョウ",
    "street": null,
    "office_name": null,
    "office_name_kana": null
  },
  "1136": {
    "postcode": "6391136",
    "prefecture": "奈良県",
    "prefecture_kana": "ナラケン",
    "prefecture_code": 29,
    "city": "大和郡山市",
    "city_kana": "ヤマトコオリヤマシ",
    "town": "本庄町",
    "town_kana": "ホンジョウチョウ",
    "street": null,
    "office_name": null,
    "office_name_kana": null
  },
  "1137": {
    "postcode": "6391137",
    "prefecture": "奈良県",
    "prefecture_kana": "ナラケン",
    "prefecture_code": 29,
    "city": "大和郡山市",
    "city_kana": "ヤマトコオリヤマシ",
    "town": "東岡町",
    "town_kana": "ヒガシオカチョウ",
    "street": null,
    "office_name": null,
    "office_name_kana": null
  },
  "1138": {
    "postcode": "6391138",
    "prefecture": "奈良県",
    "prefecture_kana": "ナラケン",
    "prefecture_code": 29,
    "city": "大和郡山市",
    "city_kana": "ヤマトコオリヤマシ",
    "town": "大宮町",
    "town_kana": "オオミヤチョウ",
    "street": null,
    "office_name": null,
    "office_name_kana": null
  },
  "1141": {
    "postcode": "6391141",
    "prefecture": "奈良県",
    "prefecture_kana": "ナラケン",
    "prefecture_code": 29,
    "city": "大和郡山市",
    "city_kana": "ヤマトコオリヤマシ",
    "town": "材木町",
    "town_kana": "ザイモクマチ",
    "street": null,
    "office_name": null,
    "office_name_kana": null
  },
  "1142": {
    "postcode": "6391142",
    "prefecture": "奈良県",
    "prefecture_kana": "ナラケン",
    "prefecture_code": 29,
    "city": "大和郡山市",
    "city_kana": "ヤマトコオリヤマシ",
    "town": "矢田町通",
    "town_kana": "ヤタマチドオリ",
    "street": null,
    "office_name": null,
    "office_name_kana": null
  },
  "1143": {
    "postcode": "6391143",
    "prefecture": "奈良県",
    "prefecture_kana": "ナラケン",
    "prefecture_code": 29,
    "city": "大和郡山市",
    "city_kana": "ヤマトコオリヤマシ",
    "town": "新紺屋町",
    "town_kana": "シンコンヤマチ",
    "street": null,
    "office_name": null,
    "office_name_kana": null
  },
  "1144": {
    "postcode": "6391144",
    "prefecture": "奈良県",
    "prefecture_kana": "ナラケン",
    "prefecture_code": 29,
    "city": "大和郡山市",
    "city_kana": "ヤマトコオリヤマシ",
    "town": "洞泉寺町",
    "town_kana": "トウセンジチョウ",
    "street": null,
    "office_name": null,
    "office_name_kana": null
  },
  "1145": {
    "postcode": "6391145",
    "prefecture": "奈良県",
    "prefecture_kana": "ナラケン",
    "prefecture_code": 29,
    "city": "大和郡山市",
    "city_kana": "ヤマトコオリヤマシ",
    "town": "南大工町",
    "town_kana": "ミナミダイクマチ",
    "street": null,
    "office_name": null,
    "office_name_kana": null
  },
  "1146": {
    "postcode": "6391146",
    "prefecture": "奈良県",
    "prefecture_kana": "ナラケン",
    "prefecture_code": 29,
    "city": "大和郡山市",
    "city_kana": "ヤマトコオリヤマシ",
    "town": "北大工町",
    "town_kana": "キタダイクマチ",
    "street": null,
    "office_name": null,
    "office_name_kana": null
  },
  "1147": {
    "postcode": "6391147",
    "prefecture": "奈良県",
    "prefecture_kana": "ナラケン",
    "prefecture_code": 29,
    "city": "大和郡山市",
    "city_kana": "ヤマトコオリヤマシ",
    "town": "車町",
    "town_kana": "クルママチ",
    "street": null,
    "office_name": null,
    "office_name_kana": null
  },
  "1148": {
    "postcode": "6391148",
    "prefecture": "奈良県",
    "prefecture_kana": "ナラケン",
    "prefecture_code": 29,
    "city": "大和郡山市",
    "city_kana": "ヤマトコオリヤマシ",
    "town": "紺屋町",
    "town_kana": "コンヤマチ",
    "street": null,
    "office_name": null,
    "office_name_kana": null
  },
  "1149": {
    "postcode": "6391149",
    "prefecture": "奈良県",
    "prefecture_kana": "ナラケン",
    "prefecture_code": 29,
    "city": "大和郡山市",
    "city_kana": "ヤマトコオリヤマシ",
    "town": "豆腐町",
    "town_kana": "トウフマチ",
    "street": null,
    "office_name": null,
    "office_name_kana": null
  },
  "1150": {
    "postcode": "6391150",
    "prefecture": "奈良県",
    "prefecture_kana": "ナラケン",
    "prefecture_code": 29,
    "city": "大和郡山市",
    "city_kana": "ヤマトコオリヤマシ",
    "town": "雑穀町",
    "town_kana": "ザコクマチ",
    "street": null,
    "office_name": null,
    "office_name_kana": null
  },
  "1151": {
    "postcode": "6391151",
    "prefecture": "奈良県",
    "prefecture_kana": "ナラケン",
    "prefecture_code": 29,
    "city": "大和郡山市",
    "city_kana": "ヤマトコオリヤマシ",
    "town": "本町",
    "town_kana": "ホンマチ",
    "street": null,
    "office_name": null,
    "office_name_kana": null
  },
  "1152": {
    "postcode": "6391152",
    "prefecture": "奈良県",
    "prefecture_kana": "ナラケン",
    "prefecture_code": 29,
    "city": "大和郡山市",
    "city_kana": "ヤマトコオリヤマシ",
    "town": "茶町",
    "town_kana": "チャマチ",
    "street": null,
    "office_name": null,
    "office_name_kana": null
  },
  "1153": {
    "postcode": "6391153",
    "prefecture": "奈良県",
    "prefecture_kana": "ナラケン",
    "prefecture_code": 29,
    "city": "大和郡山市",
    "city_kana": "ヤマトコオリヤマシ",
    "town": "西野垣内町",
    "town_kana": "ニシノガイトチョウ",
    "street": null,
    "office_name": null,
    "office_name_kana": null
  },
  "1154": {
    "postcode": "6391154",
    "prefecture": "奈良県",
    "prefecture_kana": "ナラケン",
    "prefecture_code": 29,
    "city": "大和郡山市",
    "city_kana": "ヤマトコオリヤマシ",
    "town": "綿町",
    "town_kana": "ワタマチ",
    "street": null,
    "office_name": null,
    "office_name_kana": null
  },
  "1155": {
    "postcode": "6391155",
    "prefecture": "奈良県",
    "prefecture_kana": "ナラケン",
    "prefecture_code": 29,
    "city": "大和郡山市",
    "city_kana": "ヤマトコオリヤマシ",
    "town": "今井町",
    "town_kana": "イマイマチ",
    "street": null,
    "office_name": null,
    "office_name_kana": null
  },
  "1156": {
    "postcode": "6391156",
    "prefecture": "奈良県",
    "prefecture_kana": "ナラケン",
    "prefecture_code": 29,
    "city": "大和郡山市",
    "city_kana": "ヤマトコオリヤマシ",
    "town": "堺町",
    "town_kana": "サカイチョウ",
    "street": null,
    "office_name": null,
    "office_name_kana": null
  },
  "1157": {
    "postcode": "6391157",
    "prefecture": "奈良県",
    "prefecture_kana": "ナラケン",
    "prefecture_code": 29,
    "city": "大和郡山市",
    "city_kana": "ヤマトコオリヤマシ",
    "town": "新中町",
    "town_kana": "シンナカマチ",
    "street": null,
    "office_name": null,
    "office_name_kana": null
  },
  "1158": {
    "postcode": "6391158",
    "prefecture": "奈良県",
    "prefecture_kana": "ナラケン",
    "prefecture_code": 29,
    "city": "大和郡山市",
    "city_kana": "ヤマトコオリヤマシ",
    "town": "藺町",
    "town_kana": "イノマチ",
    "street": null,
    "office_name": null,
    "office_name_kana": null
  },
  "1159": {
    "postcode": "6391159",
    "prefecture": "奈良県",
    "prefecture_kana": "ナラケン",
    "prefecture_code": 29,
    "city": "大和郡山市",
    "city_kana": "ヤマトコオリヤマシ",
    "town": "奈良町",
    "town_kana": "ナラマチ",
    "street": null,
    "office_name": null,
    "office_name_kana": null
  },
  "1160": {
    "postcode": "6391160",
    "prefecture": "奈良県",
    "prefecture_kana": "ナラケン",
    "prefecture_code": 29,
    "city": "大和郡山市",
    "city_kana": "ヤマトコオリヤマシ",
    "town": "北郡山町",
    "town_kana": "キタコオリヤマチョウ",
    "street": null,
    "office_name": null,
    "office_name_kana": null
  },
  "1161": {
    "postcode": "6391161",
    "prefecture": "奈良県",
    "prefecture_kana": "ナラケン",
    "prefecture_code": 29,
    "city": "大和郡山市",
    "city_kana": "ヤマトコオリヤマシ",
    "town": "観音寺町",
    "town_kana": "カンノンジチョウ",
    "street": null,
    "office_name": null,
    "office_name_kana": null
  },
  "1162": {
    "postcode": "6391162",
    "prefecture": "奈良県",
    "prefecture_kana": "ナラケン",
    "prefecture_code": 29,
    "city": "大和郡山市",
    "city_kana": "ヤマトコオリヤマシ",
    "town": "東奈良口町",
    "town_kana": "ヒガシナラグチチョウ",
    "street": null,
    "office_name": null,
    "office_name_kana": null
  },
  "1163": {
    "postcode": "6391163",
    "prefecture": "奈良県",
    "prefecture_kana": "ナラケン",
    "prefecture_code": 29,
    "city": "大和郡山市",
    "city_kana": "ヤマトコオリヤマシ",
    "town": "西奈良口町",
    "town_kana": "ニシナラグチチョウ",
    "street": null,
    "office_name": null,
    "office_name_kana": null
  },
  "1164": {
    "postcode": "6391164",
    "prefecture": "奈良県",
    "prefecture_kana": "ナラケン",
    "prefecture_code": 29,
    "city": "大和郡山市",
    "city_kana": "ヤマトコオリヤマシ",
    "town": "西観音寺町",
    "town_kana": "ニシカンノンジチョウ",
    "street": null,
    "office_name": null,
    "office_name_kana": null
  },
  "1165": {
    "postcode": "6391165",
    "prefecture": "奈良県",
    "prefecture_kana": "ナラケン",
    "prefecture_code": 29,
    "city": "大和郡山市",
    "city_kana": "ヤマトコオリヤマシ",
    "town": "北鍛冶町",
    "town_kana": "キタカジマチ",
    "street": null,
    "office_name": null,
    "office_name_kana": null
  },
  "1166": {
    "postcode": "6391166",
    "prefecture": "奈良県",
    "prefecture_kana": "ナラケン",
    "prefecture_code": 29,
    "city": "大和郡山市",
    "city_kana": "ヤマトコオリヤマシ",
    "town": "中鍛冶町",
    "town_kana": "ナカカジマチ",
    "street": null,
    "office_name": null,
    "office_name_kana": null
  },
  "1167": {
    "postcode": "6391167",
    "prefecture": "奈良県",
    "prefecture_kana": "ナラケン",
    "prefecture_code": 29,
    "city": "大和郡山市",
    "city_kana": "ヤマトコオリヤマシ",
    "town": "南鍛冶町",
    "town_kana": "ミナミカジマチ",
    "street": null,
    "office_name": null,
    "office_name_kana": null
  },
  "1168": {
    "postcode": "6391168",
    "prefecture": "奈良県",
    "prefecture_kana": "ナラケン",
    "prefecture_code": 29,
    "city": "大和郡山市",
    "city_kana": "ヤマトコオリヤマシ",
    "town": "魚町",
    "town_kana": "ウオマチ",
    "street": null,
    "office_name": null,
    "office_name_kana": null
  },
  "1169": {
    "postcode": "6391169",
    "prefecture": "奈良県",
    "prefecture_kana": "ナラケン",
    "prefecture_code": 29,
    "city": "大和郡山市",
    "city_kana": "ヤマトコオリヤマシ",
    "town": "塩町",
    "town_kana": "シオマチ",
    "street": null,
    "office_name": null,
    "office_name_kana": null
  },
  "1183": {
    "postcode": "6391183",
    "prefecture": "奈良県",
    "prefecture_kana": "ナラケン",
    "prefecture_code": 29,
    "city": "大和郡山市",
    "city_kana": "ヤマトコオリヤマシ",
    "town": "井戸野町",
    "town_kana": "イドノチョウ",
    "street": "３６２",
    "office_name": "株式会社　森精機製作所",
    "office_name_kana": "カブシキガイシヤ モリセイキセイサクシヨ"
  },
  "1184": {
    "postcode": "6391184",
    "prefecture": "奈良県",
    "prefecture_kana": "ナラケン",
    "prefecture_code": 29,
    "city": "大和郡山市",
    "city_kana": "ヤマトコオリヤマシ",
    "town": "満願寺町",
    "town_kana": "マンガンジチョウ",
    "street": "６０−１",
    "office_name": "奈良県自動車税事務所",
    "office_name_kana": "ナラケンジドウシヤゼイジムシヨ"
  },
  "1186": {
    "postcode": "6391186",
    "prefecture": "奈良県",
    "prefecture_kana": "ナラケン",
    "prefecture_code": 29,
    "city": "大和郡山市",
    "city_kana": "ヤマトコオリヤマシ",
    "town": "美濃庄町",
    "town_kana": "ミノショウチョウ",
    "street": "４９２（大和郡山郵便局私書箱第２号）",
    "office_name": "シャープ　株式会社",
    "office_name_kana": "シヤ-プ カブシキガイシヤ"
  },
  "1188": {
    "postcode": "6391188",
    "prefecture": "奈良県",
    "prefecture_kana": "ナラケン",
    "prefecture_code": 29,
    "city": "大和郡山市",
    "city_kana": "ヤマトコオリヤマシ",
    "town": "筒井町",
    "town_kana": "ツツイチョウ",
    "street": "８００",
    "office_name": "パナソニック　株式会社　ホームアプライアンス社",
    "office_name_kana": "パナソニツク カブシキガイシヤ ホ-ムアプライアンスシヤ"
  },
  "1192": {
    "postcode": "6391192",
    "prefecture": "奈良県",
    "prefecture_kana": "ナラケン",
    "prefecture_code": 29,
    "city": "大和郡山市",
    "city_kana": "ヤマトコオリヤマシ",
    "town": "馬司町",
    "town_kana": "マツカサチョウ",
    "street": "６４２−２（奈良県中央卸売市場内郵便局私書箱第３６号）",
    "office_name": "奈良大果　株式会社",
    "office_name_kana": "ナラタイカ カブシキガイシヤ"
  },
  "1196": {
    "postcode": "6391196",
    "prefecture": "奈良県",
    "prefecture_kana": "ナラケン",
    "prefecture_code": 29,
    "city": "大和郡山市",
    "city_kana": "ヤマトコオリヤマシ",
    "town": "筒井町",
    "town_kana": "ツツイチョウ",
    "street": "９５７−１（奈良県中央卸売市場内郵便局私書箱第３４号）",
    "office_name": "株式会社　奈良魚市",
    "office_name_kana": "カブシキガイシヤ ナラウオイチ"
  },
  "1197": {
    "postcode": "6391197",
    "prefecture": "奈良県",
    "prefecture_kana": "ナラケン",
    "prefecture_code": 29,
    "city": "大和郡山市",
    "city_kana": "ヤマトコオリヤマシ",
    "town": "馬司町",
    "town_kana": "マツカサチョウ",
    "street": "６４２−２（奈良県中央卸売市場内郵便局私書箱第３５号）",
    "office_name": "奈良中央青果　株式会社",
    "office_name_kana": "ナラチユウオウセイカ カブシキガイシヤ"
  },
  "1198": {
    "postcode": "6391198",
    "prefecture": "奈良県",
    "prefecture_kana": "ナラケン",
    "prefecture_code": 29,
    "city": "大和郡山市",
    "city_kana": "ヤマトコオリヤマシ",
    "town": "北郡山町",
    "town_kana": "キタコオリヤマチョウ",
    "street": "２４８−４",
    "office_name": "大和郡山市役所",
    "office_name_kana": "ヤマトコオリヤマシヤクシヨ"
  },
  "2100": {
    "postcode": "6392100",
    "prefecture": "奈良県",
    "prefecture_kana": "ナラケン",
    "prefecture_code": 29,
    "city": "葛城市",
    "city_kana": "カツラギシ",
    "town": "",
    "town_kana": "",
    "street": null,
    "office_name": null,
    "office_name_kana": null
  },
  "2101": {
    "postcode": "6392101",
    "prefecture": "奈良県",
    "prefecture_kana": "ナラケン",
    "prefecture_code": 29,
    "city": "葛城市",
    "city_kana": "カツラギシ",
    "town": "疋田",
    "town_kana": "ヒキダ",
    "street": null,
    "office_name": null,
    "office_name_kana": null
  },
  "2102": {
    "postcode": "6392102",
    "prefecture": "奈良県",
    "prefecture_kana": "ナラケン",
    "prefecture_code": 29,
    "city": "葛城市",
    "city_kana": "カツラギシ",
    "town": "東室",
    "town_kana": "ヒガシムロ",
    "street": null,
    "office_name": null,
    "office_name_kana": null
  },
  "2103": {
    "postcode": "6392103",
    "prefecture": "奈良県",
    "prefecture_kana": "ナラケン",
    "prefecture_code": 29,
    "city": "葛城市",
    "city_kana": "カツラギシ",
    "town": "西室",
    "town_kana": "ニシムロ",
    "street": null,
    "office_name": null,
    "office_name_kana": null
  },
  "2111": {
    "postcode": "6392111",
    "prefecture": "奈良県",
    "prefecture_kana": "ナラケン",
    "prefecture_code": 29,
    "city": "葛城市",
    "city_kana": "カツラギシ",
    "town": "柿本",
    "town_kana": "カキノモト",
    "street": null,
    "office_name": null,
    "office_name_kana": null
  },
  "2112": {
    "postcode": "6392112",
    "prefecture": "奈良県",
    "prefecture_kana": "ナラケン",
    "prefecture_code": 29,
    "city": "葛城市",
    "city_kana": "カツラギシ",
    "town": "笛堂",
    "town_kana": "フエドウ",
    "street": null,
    "office_name": null,
    "office_name_kana": null
  },
  "2113": {
    "postcode": "6392113",
    "prefecture": "奈良県",
    "prefecture_kana": "ナラケン",
    "prefecture_code": 29,
    "city": "葛城市",
    "city_kana": "カツラギシ",
    "town": "北花内",
    "town_kana": "キタハナウチ",
    "street": null,
    "office_name": null,
    "office_name_kana": null
  },
  "2121": {
    "postcode": "6392121",
    "prefecture": "奈良県",
    "prefecture_kana": "ナラケン",
    "prefecture_code": 29,
    "city": "葛城市",
    "city_kana": "カツラギシ",
    "town": "新村",
    "town_kana": "シムラ",
    "street": null,
    "office_name": null,
    "office_name_kana": null
  },
  "2122": {
    "postcode": "6392122",
    "prefecture": "奈良県",
    "prefecture_kana": "ナラケン",
    "prefecture_code": 29,
    "city": "葛城市",
    "city_kana": "カツラギシ",
    "town": "薑",
    "town_kana": "ハジカミ",
    "street": null,
    "office_name": null,
    "office_name_kana": null
  },
  "2123": [
    {
      "postcode": "6392123",
      "prefecture": "奈良県",
      "prefecture_kana": "ナラケン",
      "prefecture_code": 29,
      "city": "葛城市",
      "city_kana": "カツラギシ",
      "town": "忍海",
      "town_kana": "オシミ",
      "street": null,
      "office_name": null,
      "office_name_kana": null
    },
    {
      "postcode": "6392123",
      "prefecture": "奈良県",
      "prefecture_kana": "ナラケン",
      "prefecture_code": 29,
      "city": "葛城市",
      "city_kana": "カツラギシ",
      "town": "南新町",
      "town_kana": "ミナミシンマチ",
      "street": null,
      "office_name": null,
      "office_name_kana": null
    }
  ],
  "2124": {
    "postcode": "6392124",
    "prefecture": "奈良県",
    "prefecture_kana": "ナラケン",
    "prefecture_code": 29,
    "city": "葛城市",
    "city_kana": "カツラギシ",
    "town": "脇田",
    "town_kana": "ワキダ",
    "street": null,
    "office_name": null,
    "office_name_kana": null
  },
  "2125": {
    "postcode": "6392125",
    "prefecture": "奈良県",
    "prefecture_kana": "ナラケン",
    "prefecture_code": 29,
    "city": "葛城市",
    "city_kana": "カツラギシ",
    "town": "西辻",
    "town_kana": "ニシツジ",
    "street": null,
    "office_name": null,
    "office_name_kana": null
  },
  "2126": {
    "postcode": "6392126",
    "prefecture": "奈良県",
    "prefecture_kana": "ナラケン",
    "prefecture_code": 29,
    "city": "葛城市",
    "city_kana": "カツラギシ",
    "town": "南花内",
    "town_kana": "ミナミハナウチ",
    "street": null,
    "office_name": null,
    "office_name_kana": null
  },
  "2127": {
    "postcode": "6392127",
    "prefecture": "奈良県",
    "prefecture_kana": "ナラケン",
    "prefecture_code": 29,
    "city": "葛城市",
    "city_kana": "カツラギシ",
    "town": "新町",
    "town_kana": "シンマチ",
    "street": null,
    "office_name": null,
    "office_name_kana": null
  },
  "2131": {
    "postcode": "6392131",
    "prefecture": "奈良県",
    "prefecture_kana": "ナラケン",
    "prefecture_code": 29,
    "city": "葛城市",
    "city_kana": "カツラギシ",
    "town": "林堂",
    "town_kana": "ハヤシドウ",
    "street": null,
    "office_name": null,
    "office_name_kana": null
  },
  "2132": {
    "postcode": "6392132",
    "prefecture": "奈良県",
    "prefecture_kana": "ナラケン",
    "prefecture_code": 29,
    "city": "葛城市",
    "city_kana": "カツラギシ",
    "town": "笛吹",
    "town_kana": "フエフキ",
    "street": null,
    "office_name": null,
    "office_name_kana": null
  },
  "2133": {
    "postcode": "6392133",
    "prefecture": "奈良県",
    "prefecture_kana": "ナラケン",
    "prefecture_code": 29,
    "city": "葛城市",
    "city_kana": "カツラギシ",
    "town": "梅室",
    "town_kana": "ウメムロ",
    "street": null,
    "office_name": null,
    "office_name_kana": null
  },
  "2134": {
    "postcode": "6392134",
    "prefecture": "奈良県",
    "prefecture_kana": "ナラケン",
    "prefecture_code": 29,
    "city": "葛城市",
    "city_kana": "カツラギシ",
    "town": "山口",
    "town_kana": "ヤマグチ",
    "street": null,
    "office_name": null,
    "office_name_kana": null
  },
  "2135": {
    "postcode": "6392135",
    "prefecture": "奈良県",
    "prefecture_kana": "ナラケン",
    "prefecture_code": 29,
    "city": "葛城市",
    "city_kana": "カツラギシ",
    "town": "寺口",
    "town_kana": "テラグチ",
    "street": null,
    "office_name": null,
    "office_name_kana": null
  },
  "2136": {
    "postcode": "6392136",
    "prefecture": "奈良県",
    "prefecture_kana": "ナラケン",
    "prefecture_code": 29,
    "city": "葛城市",
    "city_kana": "カツラギシ",
    "town": "平岡",
    "town_kana": "ヒラオカ",
    "street": null,
    "office_name": null,
    "office_name_kana": null
  },
  "2137": {
    "postcode": "6392137",
    "prefecture": "奈良県",
    "prefecture_kana": "ナラケン",
    "prefecture_code": 29,
    "city": "葛城市",
    "city_kana": "カツラギシ",
    "town": "南藤井",
    "town_kana": "ミナミフジイ",
    "street": null,
    "office_name": null,
    "office_name_kana": null
  },
  "2138": {
    "postcode": "6392138",
    "prefecture": "奈良県",
    "prefecture_kana": "ナラケン",
    "prefecture_code": 29,
    "city": "葛城市",
    "city_kana": "カツラギシ",
    "town": "山田",
    "town_kana": "ヤマダ",
    "street": null,
    "office_name": null,
    "office_name_kana": null
  },
  "2141": {
    "postcode": "6392141",
    "prefecture": "奈良県",
    "prefecture_kana": "ナラケン",
    "prefecture_code": 29,
    "city": "葛城市",
    "city_kana": "カツラギシ",
    "town": "弁之庄",
    "town_kana": "ベンノショウ",
    "street": null,
    "office_name": null,
    "office_name_kana": null
  },
  "2142": {
    "postcode": "6392142",
    "prefecture": "奈良県",
    "prefecture_kana": "ナラケン",
    "prefecture_code": 29,
    "city": "葛城市",
    "city_kana": "カツラギシ",
    "town": "北道穂",
    "town_kana": "キタミツボ",
    "street": null,
    "office_name": null,
    "office_name_kana": null
  },
  "2143": {
    "postcode": "6392143",
    "prefecture": "奈良県",
    "prefecture_kana": "ナラケン",
    "prefecture_code": 29,
    "city": "葛城市",
    "city_kana": "カツラギシ",
    "town": "南道穂",
    "town_kana": "ミナミミツボ",
    "street": null,
    "office_name": null,
    "office_name_kana": null
  },
  "2144": {
    "postcode": "6392144",
    "prefecture": "奈良県",
    "prefecture_kana": "ナラケン",
    "prefecture_code": 29,
    "city": "葛城市",
    "city_kana": "カツラギシ",
    "town": "葛木",
    "town_kana": "カツラギ",
    "street": null,
    "office_name": null,
    "office_name_kana": null
  },
  "2145": {
    "postcode": "6392145",
    "prefecture": "奈良県",
    "prefecture_kana": "ナラケン",
    "prefecture_code": 29,
    "city": "葛城市",
    "city_kana": "カツラギシ",
    "town": "大屋",
    "town_kana": "オオヤ",
    "street": null,
    "office_name": null,
    "office_name_kana": null
  },
  "2146": {
    "postcode": "6392146",
    "prefecture": "奈良県",
    "prefecture_kana": "ナラケン",
    "prefecture_code": 29,
    "city": "葛城市",
    "city_kana": "カツラギシ",
    "town": "中戸",
    "town_kana": "ナカト",
    "street": null,
    "office_name": null,
    "office_name_kana": null
  },
  "2147": {
    "postcode": "6392147",
    "prefecture": "奈良県",
    "prefecture_kana": "ナラケン",
    "prefecture_code": 29,
    "city": "葛城市",
    "city_kana": "カツラギシ",
    "town": "新庄",
    "town_kana": "シンジョウ",
    "street": null,
    "office_name": null,
    "office_name_kana": null
  },
  "2151": {
    "postcode": "6392151",
    "prefecture": "奈良県",
    "prefecture_kana": "ナラケン",
    "prefecture_code": 29,
    "city": "葛城市",
    "city_kana": "カツラギシ",
    "town": "南今市",
    "town_kana": "ミナミイマイチ",
    "street": null,
    "office_name": null,
    "office_name_kana": null
  },
  "2152": {
    "postcode": "6392152",
    "prefecture": "奈良県",
    "prefecture_kana": "ナラケン",
    "prefecture_code": 29,
    "city": "葛城市",
    "city_kana": "カツラギシ",
    "town": "大畑",
    "town_kana": "オバタケ",
    "street": null,
    "office_name": null,
    "office_name_kana": null
  },
  "2153": {
    "postcode": "6392153",
    "prefecture": "奈良県",
    "prefecture_kana": "ナラケン",
    "prefecture_code": 29,
    "city": "葛城市",
    "city_kana": "カツラギシ",
    "town": "太田",
    "town_kana": "オオタ",
    "street": null,
    "office_name": null,
    "office_name_kana": null
  },
  "2154": {
    "postcode": "6392154",
    "prefecture": "奈良県",
    "prefecture_kana": "ナラケン",
    "prefecture_code": 29,
    "city": "葛城市",
    "city_kana": "カツラギシ",
    "town": "兵家",
    "town_kana": "ヒョウゲ",
    "street": null,
    "office_name": null,
    "office_name_kana": null
  },
  "2155": {
    "postcode": "6392155",
    "prefecture": "奈良県",
    "prefecture_kana": "ナラケン",
    "prefecture_code": 29,
    "city": "葛城市",
    "city_kana": "カツラギシ",
    "town": "竹内",
    "town_kana": "タケノウチ",
    "street": null,
    "office_name": null,
    "office_name_kana": null
  },
  "2161": {
    "postcode": "6392161",
    "prefecture": "奈良県",
    "prefecture_kana": "ナラケン",
    "prefecture_code": 29,
    "city": "葛城市",
    "city_kana": "カツラギシ",
    "town": "木戸",
    "town_kana": "キド",
    "street": null,
    "office_name": null,
    "office_name_kana": null
  },
  "2162": {
    "postcode": "6392162",
    "prefecture": "奈良県",
    "prefecture_kana": "ナラケン",
    "prefecture_code": 29,
    "city": "葛城市",
    "city_kana": "カツラギシ",
    "town": "尺土",
    "town_kana": "シャクド",
    "street": null,
    "office_name": null,
    "office_name_kana": null
  },
  "2163": {
    "postcode": "6392163",
    "prefecture": "奈良県",
    "prefecture_kana": "ナラケン",
    "prefecture_code": 29,
    "city": "葛城市",
    "city_kana": "カツラギシ",
    "town": "八川",
    "town_kana": "ハチガワ",
    "street": null,
    "office_name": null,
    "office_name_kana": null
  },
  "2164": {
    "postcode": "6392164",
    "prefecture": "奈良県",
    "prefecture_kana": "ナラケン",
    "prefecture_code": 29,
    "city": "葛城市",
    "city_kana": "カツラギシ",
    "town": "長尾",
    "town_kana": "ナガオ",
    "street": null,
    "office_name": null,
    "office_name_kana": null
  },
  "2195": {
    "postcode": "6392195",
    "prefecture": "奈良県",
    "prefecture_kana": "ナラケン",
    "prefecture_code": 29,
    "city": "葛城市",
    "city_kana": "カツラギシ",
    "town": "柿本",
    "town_kana": "カキノモト",
    "street": "１６６",
    "office_name": "葛城市役所　新庄庁舎",
    "office_name_kana": "カツラギシヤクシヨ シンジヨウチヨウシヤ"
  },
  "2197": {
    "postcode": "6392197",
    "prefecture": "奈良県",
    "prefecture_kana": "ナラケン",
    "prefecture_code": 29,
    "city": "葛城市",
    "city_kana": "カツラギシ",
    "town": "長尾",
    "town_kana": "ナガオ",
    "street": "８５",
    "office_name": "葛城市役所　當麻庁舎",
    "office_name_kana": "カツラギシヤクシヨ タイマチヨウシヤ"
  },
  "2198": {
    "postcode": "6392198",
    "prefecture": "奈良県",
    "prefecture_kana": "ナラケン",
    "prefecture_code": 29,
    "city": "葛城市",
    "city_kana": "カツラギシ",
    "town": "薑",
    "town_kana": "ハジカミ",
    "street": "２８２−１",
    "office_name": "シャープ　株式会社",
    "office_name_kana": "シヤ-プ カブシキガイシヤ"
  },
  "2200": {
    "postcode": "6392200",
    "prefecture": "奈良県",
    "prefecture_kana": "ナラケン",
    "prefecture_code": 29,
    "city": "御所市",
    "city_kana": "ゴセシ",
    "town": "",
    "town_kana": "",
    "street": null,
    "office_name": null,
    "office_name_kana": null
  },
  "2201": {
    "postcode": "6392201",
    "prefecture": "奈良県",
    "prefecture_kana": "ナラケン",
    "prefecture_code": 29,
    "city": "御所市",
    "city_kana": "ゴセシ",
    "town": "柳原",
    "town_kana": "ヤナギハラ",
    "street": null,
    "office_name": null,
    "office_name_kana": null
  },
  "2202": {
    "postcode": "6392202",
    "prefecture": "奈良県",
    "prefecture_kana": "ナラケン",
    "prefecture_code": 29,
    "city": "御所市",
    "city_kana": "ゴセシ",
    "town": "出屋敷",
    "town_kana": "デヤシキ",
    "street": null,
    "office_name": null,
    "office_name_kana": null
  },
  "2203": {
    "postcode": "6392203",
    "prefecture": "奈良県",
    "prefecture_kana": "ナラケン",
    "prefecture_code": 29,
    "city": "御所市",
    "city_kana": "ゴセシ",
    "town": "北十三",
    "town_kana": "キタジュウソ",
    "street": null,
    "office_name": null,
    "office_name_kana": null
  },
  "2204": {
    "postcode": "6392204",
    "prefecture": "奈良県",
    "prefecture_kana": "ナラケン",
    "prefecture_code": 29,
    "city": "御所市",
    "city_kana": "ゴセシ",
    "town": "南十三",
    "town_kana": "ミナミジュウソ",
    "street": null,
    "office_name": null,
    "office_name_kana": null
  },
  "2205": {
    "postcode": "6392205",
    "prefecture": "奈良県",
    "prefecture_kana": "ナラケン",
    "prefecture_code": 29,
    "city": "御所市",
    "city_kana": "ゴセシ",
    "town": "東辻",
    "town_kana": "ヒガシツジ",
    "street": null,
    "office_name": null,
    "office_name_kana": null
  },
  "2206": {
    "postcode": "6392206",
    "prefecture": "奈良県",
    "prefecture_kana": "ナラケン",
    "prefecture_code": 29,
    "city": "御所市",
    "city_kana": "ゴセシ",
    "town": "竹田",
    "town_kana": "タケダ",
    "street": null,
    "office_name": null,
    "office_name_kana": null
  },
  "2207": {
    "postcode": "6392207",
    "prefecture": "奈良県",
    "prefecture_kana": "ナラケン",
    "prefecture_code": 29,
    "city": "御所市",
    "city_kana": "ゴセシ",
    "town": "今城",
    "town_kana": "イマンジョウ",
    "street": null,
    "office_name": null,
    "office_name_kana": null
  },
  "2211": {
    "postcode": "6392211",
    "prefecture": "奈良県",
    "prefecture_kana": "ナラケン",
    "prefecture_code": 29,
    "city": "御所市",
    "city_kana": "ゴセシ",
    "town": "ＪＲ御所駅前通り",
    "town_kana": "ジェイアールゴセエキマエドオリ",
    "street": null,
    "office_name": null,
    "office_name_kana": null
  },
  "2212": {
    "postcode": "6392212",
    "prefecture": "奈良県",
    "prefecture_kana": "ナラケン",
    "prefecture_code": 29,
    "city": "御所市",
    "city_kana": "ゴセシ",
    "town": "中央通り",
    "town_kana": "チュウオウドオリ",
    "street": null,
    "office_name": null,
    "office_name_kana": null
  },
  "2213": {
    "postcode": "6392213",
    "prefecture": "奈良県",
    "prefecture_kana": "ナラケン",
    "prefecture_code": 29,
    "city": "御所市",
    "city_kana": "ゴセシ",
    "town": "神宮町",
    "town_kana": "ジングウチョウ",
    "street": null,
    "office_name": null,
    "office_name_kana": null
  },
  "2214": {
    "postcode": "6392214",
    "prefecture": "奈良県",
    "prefecture_kana": "ナラケン",
    "prefecture_code": 29,
    "city": "御所市",
    "city_kana": "ゴセシ",
    "town": "御堂魚棚町",
    "town_kana": "ミドウウオンタナチョウ",
    "street": null,
    "office_name": null,
    "office_name_kana": null
  },
  "2215": {
    "postcode": "6392215",
    "prefecture": "奈良県",
    "prefecture_kana": "ナラケン",
    "prefecture_code": 29,
    "city": "御所市",
    "city_kana": "ゴセシ",
    "town": "西町",
    "town_kana": "ニシマチ",
    "street": null,
    "office_name": null,
    "office_name_kana": null
  },
  "2216": {
    "postcode": "6392216",
    "prefecture": "奈良県",
    "prefecture_kana": "ナラケン",
    "prefecture_code": 29,
    "city": "御所市",
    "city_kana": "ゴセシ",
    "town": "御国通り",
    "town_kana": "ミクニドオリ",
    "street": null,
    "office_name": null,
    "office_name_kana": null
  },
  "2217": {
    "postcode": "6392217",
    "prefecture": "奈良県",
    "prefecture_kana": "ナラケン",
    "prefecture_code": 29,
    "city": "御所市",
    "city_kana": "ゴセシ",
    "town": "新地町",
    "town_kana": "シンチマチ",
    "street": null,
    "office_name": null,
    "office_name_kana": null
  },
  "2221": {
    "postcode": "6392221",
    "prefecture": "奈良県",
    "prefecture_kana": "ナラケン",
    "prefecture_code": 29,
    "city": "御所市",
    "city_kana": "ゴセシ",
    "town": "栄町",
    "town_kana": "サカエマチ",
    "street": null,
    "office_name": null,
    "office_name_kana": null
  },
  "2222": {
    "postcode": "6392222",
    "prefecture": "奈良県",
    "prefecture_kana": "ナラケン",
    "prefecture_code": 29,
    "city": "御所市",
    "city_kana": "ゴセシ",
    "town": "六軒町",
    "town_kana": "ロッケンマチ",
    "street": null,
    "office_name": null,
    "office_name_kana": null
  },
  "2223": {
    "postcode": "6392223",
    "prefecture": "奈良県",
    "prefecture_kana": "ナラケン",
    "prefecture_code": 29,
    "city": "御所市",
    "city_kana": "ゴセシ",
    "town": "本町",
    "town_kana": "ホンマチ",
    "street": null,
    "office_name": null,
    "office_name_kana": null
  },
  "2224": {
    "postcode": "6392224",
    "prefecture": "奈良県",
    "prefecture_kana": "ナラケン",
    "prefecture_code": 29,
    "city": "御所市",
    "city_kana": "ゴセシ",
    "town": "西柏町",
    "town_kana": "サイカシチョウ",
    "street": null,
    "office_name": null,
    "office_name_kana": null
  },
  "2225": {
    "postcode": "6392225",
    "prefecture": "奈良県",
    "prefecture_kana": "ナラケン",
    "prefecture_code": 29,
    "city": "御所市",
    "city_kana": "ゴセシ",
    "town": "中本町",
    "town_kana": "ナカホンマチ",
    "street": null,
    "office_name": null,
    "office_name_kana": null
  },
  "2226": {
    "postcode": "6392226",
    "prefecture": "奈良県",
    "prefecture_kana": "ナラケン",
    "prefecture_code": 29,
    "city": "御所市",
    "city_kana": "ゴセシ",
    "town": "南中町",
    "town_kana": "ミナミナカマチ",
    "street": null,
    "office_name": null,
    "office_name_kana": null
  },
  "2227": {
    "postcode": "6392227",
    "prefecture": "奈良県",
    "prefecture_kana": "ナラケン",
    "prefecture_code": 29,
    "city": "御所市",
    "city_kana": "ゴセシ",
    "town": "東久保町",
    "town_kana": "ヒガシクボチョウ",
    "street": null,
    "office_name": null,
    "office_name_kana": null
  },
  "2228": {
    "postcode": "6392228",
    "prefecture": "奈良県",
    "prefecture_kana": "ナラケン",
    "prefecture_code": 29,
    "city": "御所市",
    "city_kana": "ゴセシ",
    "town": "西久保本町",
    "town_kana": "ニシクボホンマチ",
    "street": null,
    "office_name": null,
    "office_name_kana": null
  },
  "2229": {
    "postcode": "6392229",
    "prefecture": "奈良県",
    "prefecture_kana": "ナラケン",
    "prefecture_code": 29,
    "city": "御所市",
    "city_kana": "ゴセシ",
    "town": "鴨口町",
    "town_kana": "カモグチチョウ",
    "street": null,
    "office_name": null,
    "office_name_kana": null
  },
  "2231": {
    "postcode": "6392231",
    "prefecture": "奈良県",
    "prefecture_kana": "ナラケン",
    "prefecture_code": 29,
    "city": "御所市",
    "city_kana": "ゴセシ",
    "town": "柿ケ坪町",
    "town_kana": "カキガツボチョウ",
    "street": null,
    "office_name": null,
    "office_name_kana": null
  },
  "2232": {
    "postcode": "6392232",
    "prefecture": "奈良県",
    "prefecture_kana": "ナラケン",
    "prefecture_code": 29,
    "city": "御所市",
    "city_kana": "ゴセシ",
    "town": "御門町",
    "town_kana": "ミカドチョウ",
    "street": null,
    "office_name": null,
    "office_name_kana": null
  },
  "2233": {
    "postcode": "6392233",
    "prefecture": "奈良県",
    "prefecture_kana": "ナラケン",
    "prefecture_code": 29,
    "city": "御所市",
    "city_kana": "ゴセシ",
    "town": "都町",
    "town_kana": "ミヤコマチ",
    "street": null,
    "office_name": null,
    "office_name_kana": null
  },
  "2234": {
    "postcode": "6392234",
    "prefecture": "奈良県",
    "prefecture_kana": "ナラケン",
    "prefecture_code": 29,
    "city": "御所市",
    "city_kana": "ゴセシ",
    "town": "柳町",
    "town_kana": "ヤナギマチ",
    "street": null,
    "office_name": null,
    "office_name_kana": null
  },
  "2235": {
    "postcode": "6392235",
    "prefecture": "奈良県",
    "prefecture_kana": "ナラケン",
    "prefecture_code": 29,
    "city": "御所市",
    "city_kana": "ゴセシ",
    "town": "寺内町",
    "town_kana": "ジナイチョウ",
    "street": null,
    "office_name": null,
    "office_name_kana": null
  },
  "2236": {
    "postcode": "6392236",
    "prefecture": "奈良県",
    "prefecture_kana": "ナラケン",
    "prefecture_code": 29,
    "city": "御所市",
    "city_kana": "ゴセシ",
    "town": "代官町",
    "town_kana": "ダイカンマチ",
    "street": null,
    "office_name": null,
    "office_name_kana": null
  },
  "2237": {
    "postcode": "6392237",
    "prefecture": "奈良県",
    "prefecture_kana": "ナラケン",
    "prefecture_code": 29,
    "city": "御所市",
    "city_kana": "ゴセシ",
    "town": "豊年橋通り",
    "town_kana": "ホウネンバシドオリ",
    "street": null,
    "office_name": null,
    "office_name_kana": null
  },
  "2238": {
    "postcode": "6392238",
    "prefecture": "奈良県",
    "prefecture_kana": "ナラケン",
    "prefecture_code": 29,
    "city": "御所市",
    "city_kana": "ゴセシ",
    "town": "大橋通り",
    "town_kana": "オオハシドオリ",
    "street": null,
    "office_name": null,
    "office_name_kana": null
  },
  "2239": {
    "postcode": "6392239",
    "prefecture": "奈良県",
    "prefecture_kana": "ナラケン",
    "prefecture_code": 29,
    "city": "御所市",
    "city_kana": "ゴセシ",
    "town": "旭町",
    "town_kana": "アサヒマチ",
    "street": null,
    "office_name": null,
    "office_name_kana": null
  },
  "2241": {
    "postcode": "6392241",
    "prefecture": "奈良県",
    "prefecture_kana": "ナラケン",
    "prefecture_code": 29,
    "city": "御所市",
    "city_kana": "ゴセシ",
    "town": "茅原",
    "town_kana": "チハラ",
    "street": null,
    "office_name": null,
    "office_name_kana": null
  },
  "2242": {
    "postcode": "6392242",
    "prefecture": "奈良県",
    "prefecture_kana": "ナラケン",
    "prefecture_code": 29,
    "city": "御所市",
    "city_kana": "ゴセシ",
    "town": "本馬",
    "town_kana": "ホンマ",
    "street": null,
    "office_name": null,
    "office_name_kana": null
  },
  "2243": {
    "postcode": "6392243",
    "prefecture": "奈良県",
    "prefecture_kana": "ナラケン",
    "prefecture_code": 29,
    "city": "御所市",
    "city_kana": "ゴセシ",
    "town": "東寺田",
    "town_kana": "ヒガシテラダ",
    "street": null,
    "office_name": null,
    "office_name_kana": null
  },
  "2244": {
    "postcode": "6392244",
    "prefecture": "奈良県",
    "prefecture_kana": "ナラケン",
    "prefecture_code": 29,
    "city": "御所市",
    "city_kana": "ゴセシ",
    "town": "柏原",
    "town_kana": "カシハラ",
    "street": null,
    "office_name": null,
    "office_name_kana": null
  },
  "2245": {
    "postcode": "6392245",
    "prefecture": "奈良県",
    "prefecture_kana": "ナラケン",
    "prefecture_code": 29,
    "city": "御所市",
    "city_kana": "ゴセシ",
    "town": "今住",
    "town_kana": "イマズミ",
    "street": null,
    "office_name": null,
    "office_name_kana": null
  },
  "2246": {
    "postcode": "6392246",
    "prefecture": "奈良県",
    "prefecture_kana": "ナラケン",
    "prefecture_code": 29,
    "city": "御所市",
    "city_kana": "ゴセシ",
    "town": "原谷",
    "town_kana": "ハラダニ",
    "street": null,
    "office_name": null,
    "office_name_kana": null
  },
  "2247": {
    "postcode": "6392247",
    "prefecture": "奈良県",
    "prefecture_kana": "ナラケン",
    "prefecture_code": 29,
    "city": "御所市",
    "city_kana": "ゴセシ",
    "town": "玉手",
    "town_kana": "タマデ",
    "street": null,
    "office_name": null,
    "office_name_kana": null
  },
  "2248": {
    "postcode": "6392248",
    "prefecture": "奈良県",
    "prefecture_kana": "ナラケン",
    "prefecture_code": 29,
    "city": "御所市",
    "city_kana": "ゴセシ",
    "town": "緑町",
    "town_kana": "ミドリマチ",
    "street": null,
    "office_name": null,
    "office_name_kana": null
  },
  "2251": {
    "postcode": "6392251",
    "prefecture": "奈良県",
    "prefecture_kana": "ナラケン",
    "prefecture_code": 29,
    "city": "御所市",
    "city_kana": "ゴセシ",
    "town": "戸毛",
    "town_kana": "トウゲ",
    "street": null,
    "office_name": null,
    "office_name_kana": null
  },
  "2252": {
    "postcode": "6392252",
    "prefecture": "奈良県",
    "prefecture_kana": "ナラケン",
    "prefecture_code": 29,
    "city": "御所市",
    "city_kana": "ゴセシ",
    "town": "樋野",
    "town_kana": "ヒノ",
    "street": null,
    "office_name": null,
    "office_name_kana": null
  },
  "2253": {
    "postcode": "6392253",
    "prefecture": "奈良県",
    "prefecture_kana": "ナラケン",
    "prefecture_code": 29,
    "city": "御所市",
    "city_kana": "ゴセシ",
    "town": "奉膳",
    "town_kana": "ブンゼ",
    "street": null,
    "office_name": null,
    "office_name_kana": null
  },
  "2254": {
    "postcode": "6392254",
    "prefecture": "奈良県",
    "prefecture_kana": "ナラケン",
    "prefecture_code": 29,
    "city": "御所市",
    "city_kana": "ゴセシ",
    "town": "古瀬",
    "town_kana": "コセ",
    "street": null,
    "office_name": null,
    "office_name_kana": null
  },
  "2255": {
    "postcode": "6392255",
    "prefecture": "奈良県",
    "prefecture_kana": "ナラケン",
    "prefecture_code": 29,
    "city": "御所市",
    "city_kana": "ゴセシ",
    "town": "朝町",
    "town_kana": "アサマチ",
    "street": null,
    "office_name": null,
    "office_name_kana": null
  },
  "2256": {
    "postcode": "6392256",
    "prefecture": "奈良県",
    "prefecture_kana": "ナラケン",
    "prefecture_code": 29,
    "city": "御所市",
    "city_kana": "ゴセシ",
    "town": "栗阪",
    "town_kana": "クリサカ",
    "street": null,
    "office_name": null,
    "office_name_kana": null
  },
  "2257": {
    "postcode": "6392257",
    "prefecture": "奈良県",
    "prefecture_kana": "ナラケン",
    "prefecture_code": 29,
    "city": "御所市",
    "city_kana": "ゴセシ",
    "town": "小殿",
    "town_kana": "オドノ",
    "street": null,
    "office_name": null,
    "office_name_kana": null
  },
  "2258": {
    "postcode": "6392258",
    "prefecture": "奈良県",
    "prefecture_kana": "ナラケン",
    "prefecture_code": 29,
    "city": "御所市",
    "city_kana": "ゴセシ",
    "town": "稲宿",
    "town_kana": "イナイド",
    "street": null,
    "office_name": null,
    "office_name_kana": null
  },
  "2261": {
    "postcode": "6392261",
    "prefecture": "奈良県",
    "prefecture_kana": "ナラケン",
    "prefecture_code": 29,
    "city": "御所市",
    "city_kana": "ゴセシ",
    "town": "城山台",
    "town_kana": "シロヤマダイ",
    "street": null,
    "office_name": null,
    "office_name_kana": null
  },
  "2262": [
    {
      "postcode": "6392262",
      "prefecture": "奈良県",
      "prefecture_kana": "ナラケン",
      "prefecture_code": 29,
      "city": "御所市",
      "city_kana": "ゴセシ",
      "town": "東持田",
      "town_kana": "ヒガシモッタ",
      "street": null,
      "office_name": null,
      "office_name_kana": null
    },
    {
      "postcode": "6392262",
      "prefecture": "奈良県",
      "prefecture_kana": "ナラケン",
      "prefecture_code": 29,
      "city": "御所市",
      "city_kana": "ゴセシ",
      "town": "持田",
      "town_kana": "モッタ",
      "street": null,
      "office_name": null,
      "office_name_kana": null
    }
  ],
  "2263": {
    "postcode": "6392263",
    "prefecture": "奈良県",
    "prefecture_kana": "ナラケン",
    "prefecture_code": 29,
    "city": "御所市",
    "city_kana": "ゴセシ",
    "town": "鳥井戸",
    "town_kana": "トリイド",
    "street": null,
    "office_name": null,
    "office_name_kana": null
  },
  "2264": {
    "postcode": "6392264",
    "prefecture": "奈良県",
    "prefecture_kana": "ナラケン",
    "prefecture_code": 29,
    "city": "御所市",
    "city_kana": "ゴセシ",
    "town": "五百家",
    "town_kana": "イウカ",
    "street": null,
    "office_name": null,
    "office_name_kana": null
  },
  "2265": {
    "postcode": "6392265",
    "prefecture": "奈良県",
    "prefecture_kana": "ナラケン",
    "prefecture_code": 29,
    "city": "御所市",
    "city_kana": "ゴセシ",
    "town": "新田",
    "town_kana": "シンデン",
    "street": null,
    "office_name": null,
    "office_name_kana": null
  },
  "2266": {
    "postcode": "6392266",
    "prefecture": "奈良県",
    "prefecture_kana": "ナラケン",
    "prefecture_code": 29,
    "city": "御所市",
    "city_kana": "ゴセシ",
    "town": "重阪",
    "town_kana": "ヘイサカ",
    "street": null,
    "office_name": null,
    "office_name_kana": null
  },
  "2267": {
    "postcode": "6392267",
    "prefecture": "奈良県",
    "prefecture_kana": "ナラケン",
    "prefecture_code": 29,
    "city": "御所市",
    "city_kana": "ゴセシ",
    "town": "内谷",
    "town_kana": "ウチタニ",
    "street": null,
    "office_name": null,
    "office_name_kana": null
  },
  "2268": {
    "postcode": "6392268",
    "prefecture": "奈良県",
    "prefecture_kana": "ナラケン",
    "prefecture_code": 29,
    "city": "御所市",
    "city_kana": "ゴセシ",
    "town": "船路",
    "town_kana": "フナジ",
    "street": null,
    "office_name": null,
    "office_name_kana": null
  },
  "2271": {
    "postcode": "6392271",
    "prefecture": "奈良県",
    "prefecture_kana": "ナラケン",
    "prefecture_code": 29,
    "city": "御所市",
    "city_kana": "ゴセシ",
    "town": "宮前町",
    "town_kana": "ミヤマエマチ",
    "street": null,
    "office_name": null,
    "office_name_kana": null
  },
  "2272": {
    "postcode": "6392272",
    "prefecture": "奈良県",
    "prefecture_kana": "ナラケン",
    "prefecture_code": 29,
    "city": "御所市",
    "city_kana": "ゴセシ",
    "town": "蛇穴",
    "town_kana": "サラギ",
    "street": null,
    "office_name": null,
    "office_name_kana": null
  },
  "2273": {
    "postcode": "6392273",
    "prefecture": "奈良県",
    "prefecture_kana": "ナラケン",
    "prefecture_code": 29,
    "city": "御所市",
    "city_kana": "ゴセシ",
    "town": "池之内",
    "town_kana": "イケノウチ",
    "street": null,
    "office_name": null,
    "office_name_kana": null
  },
  "2274": {
    "postcode": "6392274",
    "prefecture": "奈良県",
    "prefecture_kana": "ナラケン",
    "prefecture_code": 29,
    "city": "御所市",
    "city_kana": "ゴセシ",
    "town": "冨田",
    "town_kana": "トミタ",
    "street": null,
    "office_name": null,
    "office_name_kana": null
  },
  "2275": {
    "postcode": "6392275",
    "prefecture": "奈良県",
    "prefecture_kana": "ナラケン",
    "prefecture_code": 29,
    "city": "御所市",
    "city_kana": "ゴセシ",
    "town": "出走",
    "town_kana": "デハシリ",
    "street": null,
    "office_name": null,
    "office_name_kana": null
  },
  "2276": {
    "postcode": "6392276",
    "prefecture": "奈良県",
    "prefecture_kana": "ナラケン",
    "prefecture_code": 29,
    "city": "御所市",
    "city_kana": "ゴセシ",
    "town": "條",
    "town_kana": "ジョウ",
    "street": null,
    "office_name": null,
    "office_name_kana": null
  },
  "2277": {
    "postcode": "6392277",
    "prefecture": "奈良県",
    "prefecture_kana": "ナラケン",
    "prefecture_code": 29,
    "city": "御所市",
    "city_kana": "ゴセシ",
    "town": "室",
    "town_kana": "ムロ",
    "street": null,
    "office_name": null,
    "office_name_kana": null
  },
  "2278": {
    "postcode": "6392278",
    "prefecture": "奈良県",
    "prefecture_kana": "ナラケン",
    "prefecture_code": 29,
    "city": "御所市",
    "city_kana": "ゴセシ",
    "town": "緑ケ丘",
    "town_kana": "ミドリガオカ",
    "street": null,
    "office_name": null,
    "office_name_kana": null
  },
  "2279": {
    "postcode": "6392279",
    "prefecture": "奈良県",
    "prefecture_kana": "ナラケン",
    "prefecture_code": 29,
    "city": "御所市",
    "city_kana": "ゴセシ",
    "town": "今出",
    "town_kana": "イマデ",
    "street": null,
    "office_name": null,
    "office_name_kana": null
  },
  "2292": {
    "postcode": "6392292",
    "prefecture": "奈良県",
    "prefecture_kana": "ナラケン",
    "prefecture_code": 29,
    "city": "御所市",
    "city_kana": "ゴセシ",
    "town": "大字南十三",
    "town_kana": null,
    "street": "６９−２（御所郵便局私書箱第６号）",
    "office_name": "塚本産業　株式会社",
    "office_name_kana": "ツカモトサンギヨウ カブシキガイシヤ"
  },
  "2295": {
    "postcode": "6392295",
    "prefecture": "奈良県",
    "prefecture_kana": "ナラケン",
    "prefecture_code": 29,
    "city": "御所市",
    "city_kana": "ゴセシ",
    "town": "大字西寺田",
    "town_kana": null,
    "street": "５０",
    "office_name": "田村薬品工業　株式会社",
    "office_name_kana": "タムラヤクヒンコウギヨウ カブシキガイシヤ"
  },
  "2298": {
    "postcode": "6392298",
    "prefecture": "奈良県",
    "prefecture_kana": "ナラケン",
    "prefecture_code": 29,
    "city": "御所市",
    "city_kana": "ゴセシ",
    "town": "",
    "town_kana": "",
    "street": "１−３",
    "office_name": "御所市役所",
    "office_name_kana": "ゴセシヤクシヨ"
  },
  "2301": {
    "postcode": "6392301",
    "prefecture": "奈良県",
    "prefecture_kana": "ナラケン",
    "prefecture_code": 29,
    "city": "御所市",
    "city_kana": "ゴセシ",
    "town": "元町",
    "town_kana": "モトマチ",
    "street": null,
    "office_name": null,
    "office_name_kana": null
  },
  "2302": {
    "postcode": "6392302",
    "prefecture": "奈良県",
    "prefecture_kana": "ナラケン",
    "prefecture_code": 29,
    "city": "御所市",
    "city_kana": "ゴセシ",
    "town": "東松本",
    "town_kana": "ヒガシマツモト",
    "street": null,
    "office_name": null,
    "office_name_kana": null
  },
  "2303": {
    "postcode": "6392303",
    "prefecture": "奈良県",
    "prefecture_kana": "ナラケン",
    "prefecture_code": 29,
    "city": "御所市",
    "city_kana": "ゴセシ",
    "town": "末広町",
    "town_kana": "スエヒロチョウ",
    "street": null,
    "office_name": null,
    "office_name_kana": null
  },
  "2304": {
    "postcode": "6392304",
    "prefecture": "奈良県",
    "prefecture_kana": "ナラケン",
    "prefecture_code": 29,
    "city": "御所市",
    "city_kana": "ゴセシ",
    "town": "大広町",
    "town_kana": "オオヒロチョウ",
    "street": null,
    "office_name": null,
    "office_name_kana": null
  },
  "2305": {
    "postcode": "6392305",
    "prefecture": "奈良県",
    "prefecture_kana": "ナラケン",
    "prefecture_code": 29,
    "city": "御所市",
    "city_kana": "ゴセシ",
    "town": "柳田町",
    "town_kana": "ヤナギダチョウ",
    "street": null,
    "office_name": null,
    "office_name_kana": null
  },
  "2306": {
    "postcode": "6392306",
    "prefecture": "奈良県",
    "prefecture_kana": "ナラケン",
    "prefecture_code": 29,
    "city": "御所市",
    "city_kana": "ゴセシ",
    "town": "三室",
    "town_kana": "ミムロ",
    "street": null,
    "office_name": null,
    "office_name_kana": null
  },
  "2311": {
    "postcode": "6392311",
    "prefecture": "奈良県",
    "prefecture_kana": "ナラケン",
    "prefecture_code": 29,
    "city": "御所市",
    "city_kana": "ゴセシ",
    "town": "小林",
    "town_kana": "コバヤシ",
    "street": null,
    "office_name": null,
    "office_name_kana": null
  },
  "2312": {
    "postcode": "6392312",
    "prefecture": "奈良県",
    "prefecture_kana": "ナラケン",
    "prefecture_code": 29,
    "city": "御所市",
    "city_kana": "ゴセシ",
    "town": "櫛羅",
    "town_kana": "クジラ",
    "street": null,
    "office_name": null,
    "office_name_kana": null
  },
  "2313": {
    "postcode": "6392313",
    "prefecture": "奈良県",
    "prefecture_kana": "ナラケン",
    "prefecture_code": 29,
    "city": "御所市",
    "city_kana": "ゴセシ",
    "town": "楢原",
    "town_kana": "ナラバラ",
    "street": null,
    "office_name": null,
    "office_name_kana": null
  },
  "2314": {
    "postcode": "6392314",
    "prefecture": "奈良県",
    "prefecture_kana": "ナラケン",
    "prefecture_code": 29,
    "city": "御所市",
    "city_kana": "ゴセシ",
    "town": "幸町",
    "town_kana": "サイワイチョウ",
    "street": null,
    "office_name": null,
    "office_name_kana": null
  },
  "2315": {
    "postcode": "6392315",
    "prefecture": "奈良県",
    "prefecture_kana": "ナラケン",
    "prefecture_code": 29,
    "city": "御所市",
    "city_kana": "ゴセシ",
    "town": "宮戸",
    "town_kana": "ミヤド",
    "street": null,
    "office_name": null,
    "office_name_kana": null
  },
  "2316": {
    "postcode": "6392316",
    "prefecture": "奈良県",
    "prefecture_kana": "ナラケン",
    "prefecture_code": 29,
    "city": "御所市",
    "city_kana": "ゴセシ",
    "town": "西寺田",
    "town_kana": "ニシテラダ",
    "street": null,
    "office_name": null,
    "office_name_kana": null
  },
  "2317": {
    "postcode": "6392317",
    "prefecture": "奈良県",
    "prefecture_kana": "ナラケン",
    "prefecture_code": 29,
    "city": "御所市",
    "city_kana": "ゴセシ",
    "town": "豊田",
    "town_kana": "トヨダ",
    "street": null,
    "office_name": null,
    "office_name_kana": null
  },
  "2318": {
    "postcode": "6392318",
    "prefecture": "奈良県",
    "prefecture_kana": "ナラケン",
    "prefecture_code": 29,
    "city": "御所市",
    "city_kana": "ゴセシ",
    "town": "森脇",
    "town_kana": "モリワキ",
    "street": null,
    "office_name": null,
    "office_name_kana": null
  },
  "2321": {
    "postcode": "6392321",
    "prefecture": "奈良県",
    "prefecture_kana": "ナラケン",
    "prefecture_code": 29,
    "city": "御所市",
    "city_kana": "ゴセシ",
    "town": "名柄",
    "town_kana": "ナガラ",
    "street": null,
    "office_name": null,
    "office_name_kana": null
  },
  "2322": {
    "postcode": "6392322",
    "prefecture": "奈良県",
    "prefecture_kana": "ナラケン",
    "prefecture_code": 29,
    "city": "御所市",
    "city_kana": "ゴセシ",
    "town": "東名柄",
    "town_kana": "ヒガシナガラ",
    "street": null,
    "office_name": null,
    "office_name_kana": null
  },
  "2323": {
    "postcode": "6392323",
    "prefecture": "奈良県",
    "prefecture_kana": "ナラケン",
    "prefecture_code": 29,
    "city": "御所市",
    "city_kana": "ゴセシ",
    "town": "多田",
    "town_kana": "オイダ",
    "street": null,
    "office_name": null,
    "office_name_kana": null
  },
  "2324": {
    "postcode": "6392324",
    "prefecture": "奈良県",
    "prefecture_kana": "ナラケン",
    "prefecture_code": 29,
    "city": "御所市",
    "city_kana": "ゴセシ",
    "town": "下茶屋",
    "town_kana": "シモノチャヤ",
    "street": null,
    "office_name": null,
    "office_name_kana": null
  },
  "2325": {
    "postcode": "6392325",
    "prefecture": "奈良県",
    "prefecture_kana": "ナラケン",
    "prefecture_code": 29,
    "city": "御所市",
    "city_kana": "ゴセシ",
    "town": "佐田",
    "town_kana": "サダ",
    "street": null,
    "office_name": null,
    "office_name_kana": null
  },
  "2326": {
    "postcode": "6392326",
    "prefecture": "奈良県",
    "prefecture_kana": "ナラケン",
    "prefecture_code": 29,
    "city": "御所市",
    "city_kana": "ゴセシ",
    "town": "井戸",
    "town_kana": "イド",
    "street": null,
    "office_name": null,
    "office_name_kana": null
  },
  "2327": {
    "postcode": "6392327",
    "prefecture": "奈良県",
    "prefecture_kana": "ナラケン",
    "prefecture_code": 29,
    "city": "御所市",
    "city_kana": "ゴセシ",
    "town": "増",
    "town_kana": "マシ",
    "street": null,
    "office_name": null,
    "office_name_kana": null
  },
  "2328": {
    "postcode": "6392328",
    "prefecture": "奈良県",
    "prefecture_kana": "ナラケン",
    "prefecture_code": 29,
    "city": "御所市",
    "city_kana": "ゴセシ",
    "town": "関屋",
    "town_kana": "セキヤ",
    "street": null,
    "office_name": null,
    "office_name_kana": null
  },
  "2331": {
    "postcode": "6392331",
    "prefecture": "奈良県",
    "prefecture_kana": "ナラケン",
    "prefecture_code": 29,
    "city": "御所市",
    "city_kana": "ゴセシ",
    "town": "南郷",
    "town_kana": "ナンゴウ",
    "street": null,
    "office_name": null,
    "office_name_kana": null
  },
  "2332": {
    "postcode": "6392332",
    "prefecture": "奈良県",
    "prefecture_kana": "ナラケン",
    "prefecture_code": 29,
    "city": "御所市",
    "city_kana": "ゴセシ",
    "town": "西持田",
    "town_kana": "ニシモッタ",
    "street": null,
    "office_name": null,
    "office_name_kana": null
  },
  "2333": {
    "postcode": "6392333",
    "prefecture": "奈良県",
    "prefecture_kana": "ナラケン",
    "prefecture_code": 29,
    "city": "御所市",
    "city_kana": "ゴセシ",
    "town": "林",
    "town_kana": "ハヤシ",
    "street": null,
    "office_name": null,
    "office_name_kana": null
  },
  "2334": {
    "postcode": "6392334",
    "prefecture": "奈良県",
    "prefecture_kana": "ナラケン",
    "prefecture_code": 29,
    "city": "御所市",
    "city_kana": "ゴセシ",
    "town": "北窪",
    "town_kana": "キタクボ",
    "street": null,
    "office_name": null,
    "office_name_kana": null
  },
  "2335": {
    "postcode": "6392335",
    "prefecture": "奈良県",
    "prefecture_kana": "ナラケン",
    "prefecture_code": 29,
    "city": "御所市",
    "city_kana": "ゴセシ",
    "town": "西北窪",
    "town_kana": "ニシキタクボ",
    "street": null,
    "office_name": null,
    "office_name_kana": null
  },
  "2336": {
    "postcode": "6392336",
    "prefecture": "奈良県",
    "prefecture_kana": "ナラケン",
    "prefecture_code": 29,
    "city": "御所市",
    "city_kana": "ゴセシ",
    "town": "高天",
    "town_kana": "タカマ",
    "street": null,
    "office_name": null,
    "office_name_kana": null
  },
  "2337": {
    "postcode": "6392337",
    "prefecture": "奈良県",
    "prefecture_kana": "ナラケン",
    "prefecture_code": 29,
    "city": "御所市",
    "city_kana": "ゴセシ",
    "town": "極楽寺",
    "town_kana": "ゴクラクジ",
    "street": null,
    "office_name": null,
    "office_name_kana": null
  },
  "2341": {
    "postcode": "6392341",
    "prefecture": "奈良県",
    "prefecture_kana": "ナラケン",
    "prefecture_code": 29,
    "city": "御所市",
    "city_kana": "ゴセシ",
    "town": "朝妻",
    "town_kana": "アサヅマ",
    "street": null,
    "office_name": null,
    "office_name_kana": null
  },
  "2342": {
    "postcode": "6392342",
    "prefecture": "奈良県",
    "prefecture_kana": "ナラケン",
    "prefecture_code": 29,
    "city": "御所市",
    "city_kana": "ゴセシ",
    "town": "僧堂",
    "town_kana": "ソウドウ",
    "street": null,
    "office_name": null,
    "office_name_kana": null
  },
  "2343": {
    "postcode": "6392343",
    "prefecture": "奈良県",
    "prefecture_kana": "ナラケン",
    "prefecture_code": 29,
    "city": "御所市",
    "city_kana": "ゴセシ",
    "town": "鴨神",
    "town_kana": "カモガミ",
    "street": null,
    "office_name": null,
    "office_name_kana": null
  },
  "2344": {
    "postcode": "6392344",
    "prefecture": "奈良県",
    "prefecture_kana": "ナラケン",
    "prefecture_code": 29,
    "city": "御所市",
    "city_kana": "ゴセシ",
    "town": "東佐味",
    "town_kana": "ヒガシサビ",
    "street": null,
    "office_name": null,
    "office_name_kana": null
  },
  "2345": {
    "postcode": "6392345",
    "prefecture": "奈良県",
    "prefecture_kana": "ナラケン",
    "prefecture_code": 29,
    "city": "御所市",
    "city_kana": "ゴセシ",
    "town": "西佐味",
    "town_kana": "ニシサビ",
    "street": null,
    "office_name": null,
    "office_name_kana": null
  },
  "2346": {
    "postcode": "6392346",
    "prefecture": "奈良県",
    "prefecture_kana": "ナラケン",
    "prefecture_code": 29,
    "city": "御所市",
    "city_kana": "ゴセシ",
    "town": "伏見",
    "town_kana": "フシミ",
    "street": null,
    "office_name": null,
    "office_name_kana": null
  },
  "3100": {
    "postcode": "6393100",
    "prefecture": "奈良県",
    "prefecture_kana": "ナラケン",
    "prefecture_code": 29,
    "city": "吉野郡吉野町",
    "city_kana": "ヨシノグンヨシノチョウ",
    "town": "",
    "town_kana": "",
    "street": null,
    "office_name": null,
    "office_name_kana": null
  },
  "3101": {
    "postcode": "6393101",
    "prefecture": "奈良県",
    "prefecture_kana": "ナラケン",
    "prefecture_code": 29,
    "city": "吉野郡吉野町",
    "city_kana": "ヨシノグンヨシノチョウ",
    "town": "山口",
    "town_kana": "ヤマグチ",
    "street": null,
    "office_name": null,
    "office_name_kana": null
  },
  "3102": [
    {
      "postcode": "6393102",
      "prefecture": "奈良県",
      "prefecture_kana": "ナラケン",
      "prefecture_code": 29,
      "city": "吉野郡吉野町",
      "city_kana": "ヨシノグンヨシノチョウ",
      "town": "河原屋",
      "town_kana": "カワハラヤ",
      "street": null,
      "office_name": null,
      "office_name_kana": null
    },
    {
      "postcode": "6393102",
      "prefecture": "奈良県",
      "prefecture_kana": "ナラケン",
      "prefecture_code": 29,
      "city": "吉野郡吉野町",
      "city_kana": "ヨシノグンヨシノチョウ",
      "town": "津風呂",
      "town_kana": "ツブロ",
      "street": null,
      "office_name": null,
      "office_name_kana": null
    }
  ],
  "3103": {
    "postcode": "6393103",
    "prefecture": "奈良県",
    "prefecture_kana": "ナラケン",
    "prefecture_code": 29,
    "city": "吉野郡吉野町",
    "city_kana": "ヨシノグンヨシノチョウ",
    "town": "平尾",
    "town_kana": "ヒラオ",
    "street": null,
    "office_name": null,
    "office_name_kana": null
  },
  "3104": {
    "postcode": "6393104",
    "prefecture": "奈良県",
    "prefecture_kana": "ナラケン",
    "prefecture_code": 29,
    "city": "吉野郡吉野町",
    "city_kana": "ヨシノグンヨシノチョウ",
    "town": "峰寺",
    "town_kana": "ミネデラ",
    "street": null,
    "office_name": null,
    "office_name_kana": null
  },
  "3105": {
    "postcode": "6393105",
    "prefecture": "奈良県",
    "prefecture_kana": "ナラケン",
    "prefecture_code": 29,
    "city": "吉野郡吉野町",
    "city_kana": "ヨシノグンヨシノチョウ",
    "town": "千股",
    "town_kana": "チマタ",
    "street": null,
    "office_name": null,
    "office_name_kana": null
  },
  "3106": [
    {
      "postcode": "6393106",
      "prefecture": "奈良県",
      "prefecture_kana": "ナラケン",
      "prefecture_code": 29,
      "city": "吉野郡吉野町",
      "city_kana": "ヨシノグンヨシノチョウ",
      "town": "志賀",
      "town_kana": "シガ",
      "street": null,
      "office_name": null,
      "office_name_kana": null
    },
    {
      "postcode": "6393106",
      "prefecture": "奈良県",
      "prefecture_kana": "ナラケン",
      "prefecture_code": 29,
      "city": "吉野郡吉野町",
      "city_kana": "ヨシノグンヨシノチョウ",
      "town": "滝畑",
      "town_kana": "タキハタ",
      "street": null,
      "office_name": null,
      "office_name_kana": null
    }
  ],
  "3107": {
    "postcode": "6393107",
    "prefecture": "奈良県",
    "prefecture_kana": "ナラケン",
    "prefecture_code": 29,
    "city": "吉野郡吉野町",
    "city_kana": "ヨシノグンヨシノチョウ",
    "town": "佐々羅",
    "town_kana": "ササラ",
    "street": null,
    "office_name": null,
    "office_name_kana": null
  },
  "3108": [
    {
      "postcode": "6393108",
      "prefecture": "奈良県",
      "prefecture_kana": "ナラケン",
      "prefecture_code": 29,
      "city": "吉野郡吉野町",
      "city_kana": "ヨシノグンヨシノチョウ",
      "town": "西谷",
      "town_kana": "ニシタニ",
      "street": null,
      "office_name": null,
      "office_name_kana": null
    },
    {
      "postcode": "6393108",
      "prefecture": "奈良県",
      "prefecture_kana": "ナラケン",
      "prefecture_code": 29,
      "city": "吉野郡吉野町",
      "city_kana": "ヨシノグンヨシノチョウ",
      "town": "三津",
      "town_kana": "ミヅ",
      "street": null,
      "office_name": null,
      "office_name_kana": null
    }
  ],
  "3111": {
    "postcode": "6393111",
    "prefecture": "奈良県",
    "prefecture_kana": "ナラケン",
    "prefecture_code": 29,
    "city": "吉野郡吉野町",
    "city_kana": "ヨシノグンヨシノチョウ",
    "town": "上市",
    "town_kana": "カミイチ",
    "street": null,
    "office_name": null,
    "office_name_kana": null
  },
  "3112": {
    "postcode": "6393112",
    "prefecture": "奈良県",
    "prefecture_kana": "ナラケン",
    "prefecture_code": 29,
    "city": "吉野郡吉野町",
    "city_kana": "ヨシノグンヨシノチョウ",
    "town": "立野",
    "town_kana": "タチノ",
    "street": null,
    "office_name": null,
    "office_name_kana": null
  },
  "3113": {
    "postcode": "6393113",
    "prefecture": "奈良県",
    "prefecture_kana": "ナラケン",
    "prefecture_code": 29,
    "city": "吉野郡吉野町",
    "city_kana": "ヨシノグンヨシノチョウ",
    "town": "飯貝",
    "town_kana": "イイガイ",
    "street": null,
    "office_name": null,
    "office_name_kana": null
  },
  "3114": {
    "postcode": "6393114",
    "prefecture": "奈良県",
    "prefecture_kana": "ナラケン",
    "prefecture_code": 29,
    "city": "吉野郡吉野町",
    "city_kana": "ヨシノグンヨシノチョウ",
    "town": "丹治",
    "town_kana": "タンジ",
    "street": null,
    "office_name": null,
    "office_name_kana": null
  },
  "3115": {
    "postcode": "6393115",
    "prefecture": "奈良県",
    "prefecture_kana": "ナラケン",
    "prefecture_code": 29,
    "city": "吉野郡吉野町",
    "city_kana": "ヨシノグンヨシノチョウ",
    "town": "吉野山",
    "town_kana": "ヨシノヤマ",
    "street": null,
    "office_name": null,
    "office_name_kana": null
  },
  "3116": {
    "postcode": "6393116",
    "prefecture": "奈良県",
    "prefecture_kana": "ナラケン",
    "prefecture_code": 29,
    "city": "吉野郡吉野町",
    "city_kana": "ヨシノグンヨシノチョウ",
    "town": "六田",
    "town_kana": "ムダ",
    "street": null,
    "office_name": null,
    "office_name_kana": null
  },
  "3117": {
    "postcode": "6393117",
    "prefecture": "奈良県",
    "prefecture_kana": "ナラケン",
    "prefecture_code": 29,
    "city": "吉野郡吉野町",
    "city_kana": "ヨシノグンヨシノチョウ",
    "town": "左曽",
    "town_kana": "サソ",
    "street": null,
    "office_name": null,
    "office_name_kana": null
  },
  "3118": {
    "postcode": "6393118",
    "prefecture": "奈良県",
    "prefecture_kana": "ナラケン",
    "prefecture_code": 29,
    "city": "吉野郡吉野町",
    "city_kana": "ヨシノグンヨシノチョウ",
    "town": "橋屋",
    "town_kana": "ハシヤ",
    "street": null,
    "office_name": null,
    "office_name_kana": null
  },
  "3121": {
    "postcode": "6393121",
    "prefecture": "奈良県",
    "prefecture_kana": "ナラケン",
    "prefecture_code": 29,
    "city": "吉野郡大淀町",
    "city_kana": "ヨシノグンオオヨドチョウ",
    "town": "西増",
    "town_kana": "ニシマシ",
    "street": null,
    "office_name": null,
    "office_name_kana": null
  },
  "3122": {
    "postcode": "6393122",
    "prefecture": "奈良県",
    "prefecture_kana": "ナラケン",
    "prefecture_code": 29,
    "city": "吉野郡大淀町",
    "city_kana": "ヨシノグンオオヨドチョウ",
    "town": "中増",
    "town_kana": "ナカマシ",
    "street": null,
    "office_name": null,
    "office_name_kana": null
  },
  "3123": {
    "postcode": "6393123",
    "prefecture": "奈良県",
    "prefecture_kana": "ナラケン",
    "prefecture_code": 29,
    "city": "吉野郡大淀町",
    "city_kana": "ヨシノグンオオヨドチョウ",
    "town": "増口",
    "town_kana": "マシグチ",
    "street": null,
    "office_name": null,
    "office_name_kana": null
  },
  "3124": {
    "postcode": "6393124",
    "prefecture": "奈良県",
    "prefecture_kana": "ナラケン",
    "prefecture_code": 29,
    "city": "吉野郡大淀町",
    "city_kana": "ヨシノグンオオヨドチョウ",
    "town": "北六田",
    "town_kana": "キタムダ",
    "street": null,
    "office_name": null,
    "office_name_kana": null
  },
  "3125": {
    "postcode": "6393125",
    "prefecture": "奈良県",
    "prefecture_kana": "ナラケン",
    "prefecture_code": 29,
    "city": "吉野郡大淀町",
    "city_kana": "ヨシノグンオオヨドチョウ",
    "town": "北野",
    "town_kana": "キタノ",
    "street": null,
    "office_name": null,
    "office_name_kana": null
  },
  "3126": {
    "postcode": "6393126",
    "prefecture": "奈良県",
    "prefecture_kana": "ナラケン",
    "prefecture_code": 29,
    "city": "吉野郡大淀町",
    "city_kana": "ヨシノグンオオヨドチョウ",
    "town": "新野",
    "town_kana": "ニノ",
    "street": null,
    "office_name": null,
    "office_name_kana": null
  },
  "3127": {
    "postcode": "6393127",
    "prefecture": "奈良県",
    "prefecture_kana": "ナラケン",
    "prefecture_code": 29,
    "city": "吉野郡大淀町",
    "city_kana": "ヨシノグンオオヨドチョウ",
    "town": "馬佐",
    "town_kana": "バサ",
    "street": null,
    "office_name": null,
    "office_name_kana": null
  },
  "3128": {
    "postcode": "6393128",
    "prefecture": "奈良県",
    "prefecture_kana": "ナラケン",
    "prefecture_code": 29,
    "city": "吉野郡大淀町",
    "city_kana": "ヨシノグンオオヨドチョウ",
    "town": "比曽",
    "town_kana": "ヒソ",
    "street": null,
    "office_name": null,
    "office_name_kana": null
  },
  "3192": {
    "postcode": "6393192",
    "prefecture": "奈良県",
    "prefecture_kana": "ナラケン",
    "prefecture_code": 29,
    "city": "吉野郡吉野町",
    "city_kana": "ヨシノグンヨシノチョウ",
    "town": "大字上市",
    "town_kana": null,
    "street": "８０−１",
    "office_name": "吉野町役場",
    "office_name_kana": "ヨシノチヨウヤクバ"
  },
  "3194": {
    "postcode": "6393194",
    "prefecture": "奈良県",
    "prefecture_kana": "ナラケン",
    "prefecture_code": 29,
    "city": "吉野郡吉野町",
    "city_kana": "ヨシノグンヨシノチョウ",
    "town": "丹治",
    "town_kana": "タンジ",
    "street": "２００番１",
    "office_name": "吉野税務署",
    "office_name_kana": "ヨシノゼイムシヨ"
  },
  "3321": {
    "postcode": "6393321",
    "prefecture": "奈良県",
    "prefecture_kana": "ナラケン",
    "prefecture_code": 29,
    "city": "吉野郡吉野町",
    "city_kana": "ヨシノグンヨシノチョウ",
    "town": "三茶屋",
    "town_kana": "ミツチャヤ",
    "street": null,
    "office_name": null,
    "office_name_kana": null
  },
  "3322": {
    "postcode": "6393322",
    "prefecture": "奈良県",
    "prefecture_kana": "ナラケン",
    "prefecture_code": 29,
    "city": "吉野郡吉野町",
    "city_kana": "ヨシノグンヨシノチョウ",
    "town": "小名",
    "town_kana": "コナ",
    "street": null,
    "office_name": null,
    "office_name_kana": null
  },
  "3323": {
    "postcode": "6393323",
    "prefecture": "奈良県",
    "prefecture_kana": "ナラケン",
    "prefecture_code": 29,
    "city": "吉野郡吉野町",
    "city_kana": "ヨシノグンヨシノチョウ",
    "town": "色生",
    "town_kana": "イロウ",
    "street": null,
    "office_name": null,
    "office_name_kana": null
  },
  "3324": {
    "postcode": "6393324",
    "prefecture": "奈良県",
    "prefecture_kana": "ナラケン",
    "prefecture_code": 29,
    "city": "吉野郡吉野町",
    "city_kana": "ヨシノグンヨシノチョウ",
    "town": "香束",
    "town_kana": "コウソク",
    "street": null,
    "office_name": null,
    "office_name_kana": null
  },
  "3325": {
    "postcode": "6393325",
    "prefecture": "奈良県",
    "prefecture_kana": "ナラケン",
    "prefecture_code": 29,
    "city": "吉野郡吉野町",
    "city_kana": "ヨシノグンヨシノチョウ",
    "town": "柳",
    "town_kana": "ヤナギ",
    "street": null,
    "office_name": null,
    "office_name_kana": null
  },
  "3431": {
    "postcode": "6393431",
    "prefecture": "奈良県",
    "prefecture_kana": "ナラケン",
    "prefecture_code": 29,
    "city": "吉野郡吉野町",
    "city_kana": "ヨシノグンヨシノチョウ",
    "town": "入野",
    "town_kana": "シオノ",
    "street": null,
    "office_name": null,
    "office_name_kana": null
  },
  "3432": {
    "postcode": "6393432",
    "prefecture": "奈良県",
    "prefecture_kana": "ナラケン",
    "prefecture_code": 29,
    "city": "吉野郡吉野町",
    "city_kana": "ヨシノグンヨシノチョウ",
    "town": "窪垣内",
    "town_kana": "クボガイト",
    "street": null,
    "office_name": null,
    "office_name_kana": null
  },
  "3433": {
    "postcode": "6393433",
    "prefecture": "奈良県",
    "prefecture_kana": "ナラケン",
    "prefecture_code": 29,
    "city": "吉野郡吉野町",
    "city_kana": "ヨシノグンヨシノチョウ",
    "town": "新子",
    "town_kana": "アタラシ",
    "street": null,
    "office_name": null,
    "office_name_kana": null
  },
  "3434": {
    "postcode": "6393434",
    "prefecture": "奈良県",
    "prefecture_kana": "ナラケン",
    "prefecture_code": 29,
    "city": "吉野郡吉野町",
    "city_kana": "ヨシノグンヨシノチョウ",
    "town": "国栖",
    "town_kana": "クズ",
    "street": null,
    "office_name": null,
    "office_name_kana": null
  },
  "3435": {
    "postcode": "6393435",
    "prefecture": "奈良県",
    "prefecture_kana": "ナラケン",
    "prefecture_code": 29,
    "city": "吉野郡吉野町",
    "city_kana": "ヨシノグンヨシノチョウ",
    "town": "南国栖",
    "town_kana": "ミナミクズ",
    "street": null,
    "office_name": null,
    "office_name_kana": null
  },
  "3436": {
    "postcode": "6393436",
    "prefecture": "奈良県",
    "prefecture_kana": "ナラケン",
    "prefecture_code": 29,
    "city": "吉野郡吉野町",
    "city_kana": "ヨシノグンヨシノチョウ",
    "town": "樫尾",
    "town_kana": "カシオ",
    "street": null,
    "office_name": null,
    "office_name_kana": null
  },
  "3437": {
    "postcode": "6393437",
    "prefecture": "奈良県",
    "prefecture_kana": "ナラケン",
    "prefecture_code": 29,
    "city": "吉野郡吉野町",
    "city_kana": "ヨシノグンヨシノチョウ",
    "town": "南大野",
    "town_kana": "ミナミオオノ",
    "street": null,
    "office_name": null,
    "office_name_kana": null
  },
  "3441": {
    "postcode": "6393441",
    "prefecture": "奈良県",
    "prefecture_kana": "ナラケン",
    "prefecture_code": 29,
    "city": "吉野郡吉野町",
    "city_kana": "ヨシノグンヨシノチョウ",
    "town": "矢治",
    "town_kana": "ヤジ",
    "street": null,
    "office_name": null,
    "office_name_kana": null
  },
  "3442": {
    "postcode": "6393442",
    "prefecture": "奈良県",
    "prefecture_kana": "ナラケン",
    "prefecture_code": 29,
    "city": "吉野郡吉野町",
    "city_kana": "ヨシノグンヨシノチョウ",
    "town": "喜佐谷",
    "town_kana": "キサダニ",
    "street": null,
    "office_name": null,
    "office_name_kana": null
  },
  "3443": {
    "postcode": "6393443",
    "prefecture": "奈良県",
    "prefecture_kana": "ナラケン",
    "prefecture_code": 29,
    "city": "吉野郡吉野町",
    "city_kana": "ヨシノグンヨシノチョウ",
    "town": "宮滝",
    "town_kana": "ミヤタキ",
    "street": null,
    "office_name": null,
    "office_name_kana": null
  },
  "3444": {
    "postcode": "6393444",
    "prefecture": "奈良県",
    "prefecture_kana": "ナラケン",
    "prefecture_code": 29,
    "city": "吉野郡吉野町",
    "city_kana": "ヨシノグンヨシノチョウ",
    "town": "御園",
    "town_kana": "ミソノ",
    "street": null,
    "office_name": null,
    "office_name_kana": null
  },
  "3445": {
    "postcode": "6393445",
    "prefecture": "奈良県",
    "prefecture_kana": "ナラケン",
    "prefecture_code": 29,
    "city": "吉野郡吉野町",
    "city_kana": "ヨシノグンヨシノチョウ",
    "town": "楢井",
    "town_kana": "ナライ",
    "street": null,
    "office_name": null,
    "office_name_kana": null
  },
  "3446": {
    "postcode": "6393446",
    "prefecture": "奈良県",
    "prefecture_kana": "ナラケン",
    "prefecture_code": 29,
    "city": "吉野郡吉野町",
    "city_kana": "ヨシノグンヨシノチョウ",
    "town": "菜摘",
    "town_kana": "ナツミ",
    "street": null,
    "office_name": null,
    "office_name_kana": null
  },
  "3500": {
    "postcode": "6393500",
    "prefecture": "奈良県",
    "prefecture_kana": "ナラケン",
    "prefecture_code": 29,
    "city": "吉野郡川上村",
    "city_kana": "ヨシノグンカワカミムラ",
    "town": "",
    "town_kana": "",
    "street": null,
    "office_name": null,
    "office_name_kana": null
  },
  "3541": {
    "postcode": "6393541",
    "prefecture": "奈良県",
    "prefecture_kana": "ナラケン",
    "prefecture_code": 29,
    "city": "吉野郡川上村",
    "city_kana": "ヨシノグンカワカミムラ",
    "town": "東川",
    "town_kana": "ウノガワ",
    "street": null,
    "office_name": null,
    "office_name_kana": null
  },
  "3542": {
    "postcode": "6393542",
    "prefecture": "奈良県",
    "prefecture_kana": "ナラケン",
    "prefecture_code": 29,
    "city": "吉野郡川上村",
    "city_kana": "ヨシノグンカワカミムラ",
    "town": "西河",
    "town_kana": "ニシガワ",
    "street": null,
    "office_name": null,
    "office_name_kana": null
  },
  "3543": {
    "postcode": "6393543",
    "prefecture": "奈良県",
    "prefecture_kana": "ナラケン",
    "prefecture_code": 29,
    "city": "吉野郡川上村",
    "city_kana": "ヨシノグンカワカミムラ",
    "town": "大滝",
    "town_kana": "オオタキ",
    "street": null,
    "office_name": null,
    "office_name_kana": null
  },
  "3551": {
    "postcode": "6393551",
    "prefecture": "奈良県",
    "prefecture_kana": "ナラケン",
    "prefecture_code": 29,
    "city": "吉野郡川上村",
    "city_kana": "ヨシノグンカワカミムラ",
    "town": "寺尾",
    "town_kana": "テラオ",
    "street": null,
    "office_name": null,
    "office_name_kana": null
  },
  "3552": {
    "postcode": "6393552",
    "prefecture": "奈良県",
    "prefecture_kana": "ナラケン",
    "prefecture_code": 29,
    "city": "吉野郡川上村",
    "city_kana": "ヨシノグンカワカミムラ",
    "town": "北塩谷",
    "town_kana": "キタシオダニ",
    "street": null,
    "office_name": null,
    "office_name_kana": null
  },
  "3553": {
    "postcode": "6393553",
    "prefecture": "奈良県",
    "prefecture_kana": "ナラケン",
    "prefecture_code": 29,
    "city": "吉野郡川上村",
    "city_kana": "ヨシノグンカワカミムラ",
    "town": "迫",
    "town_kana": "サコ",
    "street": null,
    "office_name": null,
    "office_name_kana": null
  },
  "3554": {
    "postcode": "6393554",
    "prefecture": "奈良県",
    "prefecture_kana": "ナラケン",
    "prefecture_code": 29,
    "city": "吉野郡川上村",
    "city_kana": "ヨシノグンカワカミムラ",
    "town": "高原",
    "town_kana": "タカハラ",
    "street": null,
    "office_name": null,
    "office_name_kana": null
  },
  "3555": {
    "postcode": "6393555",
    "prefecture": "奈良県",
    "prefecture_kana": "ナラケン",
    "prefecture_code": 29,
    "city": "吉野郡川上村",
    "city_kana": "ヨシノグンカワカミムラ",
    "town": "白屋",
    "town_kana": "シラヤ",
    "street": null,
    "office_name": null,
    "office_name_kana": null
  },
  "3556": {
    "postcode": "6393556",
    "prefecture": "奈良県",
    "prefecture_kana": "ナラケン",
    "prefecture_code": 29,
    "city": "吉野郡川上村",
    "city_kana": "ヨシノグンカワカミムラ",
    "town": "高原土場",
    "town_kana": "タカハラドバ",
    "street": null,
    "office_name": null,
    "office_name_kana": null
  },
  "3557": {
    "postcode": "6393557",
    "prefecture": "奈良県",
    "prefecture_kana": "ナラケン",
    "prefecture_code": 29,
    "city": "吉野郡川上村",
    "city_kana": "ヨシノグンカワカミムラ",
    "town": "人知",
    "town_kana": "ヒトジ",
    "street": null,
    "office_name": null,
    "office_name_kana": null
  },
  "3558": {
    "postcode": "6393558",
    "prefecture": "奈良県",
    "prefecture_kana": "ナラケン",
    "prefecture_code": 29,
    "city": "吉野郡川上村",
    "city_kana": "ヨシノグンカワカミムラ",
    "town": "井戸",
    "town_kana": "イド",
    "street": null,
    "office_name": null,
    "office_name_kana": null
  },
  "3594": {
    "postcode": "6393594",
    "prefecture": "奈良県",
    "prefecture_kana": "ナラケン",
    "prefecture_code": 29,
    "city": "吉野郡川上村",
    "city_kana": "ヨシノグンカワカミムラ",
    "town": "大字迫",
    "town_kana": null,
    "street": "１３３５−７",
    "office_name": "川上村役場",
    "office_name_kana": "カワカミムラヤクバ"
  },
  "3601": {
    "postcode": "6393601",
    "prefecture": "奈良県",
    "prefecture_kana": "ナラケン",
    "prefecture_code": 29,
    "city": "吉野郡川上村",
    "city_kana": "ヨシノグンカワカミムラ",
    "town": "柏木",
    "town_kana": "カシワギ",
    "street": null,
    "office_name": null,
    "office_name_kana": null
  },
  "3602": {
    "postcode": "6393602",
    "prefecture": "奈良県",
    "prefecture_kana": "ナラケン",
    "prefecture_code": 29,
    "city": "吉野郡川上村",
    "city_kana": "ヨシノグンカワカミムラ",
    "town": "上多古",
    "town_kana": "コウダコ",
    "street": null,
    "office_name": null,
    "office_name_kana": null
  },
  "3603": {
    "postcode": "6393603",
    "prefecture": "奈良県",
    "prefecture_kana": "ナラケン",
    "prefecture_code": 29,
    "city": "吉野郡川上村",
    "city_kana": "ヨシノグンカワカミムラ",
    "town": "北和田",
    "town_kana": "キタワダ",
    "street": null,
    "office_name": null,
    "office_name_kana": null
  },
  "3604": {
    "postcode": "6393604",
    "prefecture": "奈良県",
    "prefecture_kana": "ナラケン",
    "prefecture_code": 29,
    "city": "吉野郡川上村",
    "city_kana": "ヨシノグンカワカミムラ",
    "town": "上谷",
    "town_kana": "コウダニ",
    "street": null,
    "office_name": null,
    "office_name_kana": null
  },
  "3611": {
    "postcode": "6393611",
    "prefecture": "奈良県",
    "prefecture_kana": "ナラケン",
    "prefecture_code": 29,
    "city": "吉野郡川上村",
    "city_kana": "ヨシノグンカワカミムラ",
    "town": "入之波",
    "town_kana": "シオノハ",
    "street": null,
    "office_name": null,
    "office_name_kana": null
  },
  "3612": {
    "postcode": "6393612",
    "prefecture": "奈良県",
    "prefecture_kana": "ナラケン",
    "prefecture_code": 29,
    "city": "吉野郡川上村",
    "city_kana": "ヨシノグンカワカミムラ",
    "town": "大迫",
    "town_kana": "オオサコ",
    "street": null,
    "office_name": null,
    "office_name_kana": null
  },
  "3613": {
    "postcode": "6393613",
    "prefecture": "奈良県",
    "prefecture_kana": "ナラケン",
    "prefecture_code": 29,
    "city": "吉野郡川上村",
    "city_kana": "ヨシノグンカワカミムラ",
    "town": "伯母谷",
    "town_kana": "オバタニ",
    "street": null,
    "office_name": null,
    "office_name_kana": null
  },
  "3621": {
    "postcode": "6393621",
    "prefecture": "奈良県",
    "prefecture_kana": "ナラケン",
    "prefecture_code": 29,
    "city": "吉野郡川上村",
    "city_kana": "ヨシノグンカワカミムラ",
    "town": "下多古",
    "town_kana": "シモタコ",
    "street": null,
    "office_name": null,
    "office_name_kana": null
  },
  "3622": [
    {
      "postcode": "6393622",
      "prefecture": "奈良県",
      "prefecture_kana": "ナラケン",
      "prefecture_code": 29,
      "city": "吉野郡川上村",
      "city_kana": "ヨシノグンカワカミムラ",
      "town": "井戸",
      "town_kana": "イド",
      "street": null,
      "office_name": null,
      "office_name_kana": null
    },
    {
      "postcode": "6393622",
      "prefecture": "奈良県",
      "prefecture_kana": "ナラケン",
      "prefecture_code": 29,
      "city": "吉野郡川上村",
      "city_kana": "ヨシノグンカワカミムラ",
      "town": "井戸ネジ畑",
      "town_kana": "イドネジバタ",
      "street": null,
      "office_name": null,
      "office_name_kana": null
    },
    {
      "postcode": "6393622",
      "prefecture": "奈良県",
      "prefecture_kana": "ナラケン",
      "prefecture_code": 29,
      "city": "吉野郡川上村",
      "city_kana": "ヨシノグンカワカミムラ",
      "town": "武木",
      "town_kana": "タキギ",
      "street": null,
      "office_name": null,
      "office_name_kana": null
    }
  ],
  "3623": {
    "postcode": "6393623",
    "prefecture": "奈良県",
    "prefecture_kana": "ナラケン",
    "prefecture_code": 29,
    "city": "吉野郡川上村",
    "city_kana": "ヨシノグンカワカミムラ",
    "town": "井光",
    "town_kana": "イカリ",
    "street": null,
    "office_name": null,
    "office_name_kana": null
  },
  "3631": {
    "postcode": "6393631",
    "prefecture": "奈良県",
    "prefecture_kana": "ナラケン",
    "prefecture_code": 29,
    "city": "吉野郡川上村",
    "city_kana": "ヨシノグンカワカミムラ",
    "town": "白川渡",
    "town_kana": "シラカワド",
    "street": null,
    "office_name": null,
    "office_name_kana": null
  },
  "3632": {
    "postcode": "6393632",
    "prefecture": "奈良県",
    "prefecture_kana": "ナラケン",
    "prefecture_code": 29,
    "city": "吉野郡川上村",
    "city_kana": "ヨシノグンカワカミムラ",
    "town": "枌尾",
    "town_kana": "ソギオ",
    "street": null,
    "office_name": null,
    "office_name_kana": null
  },
  "3633": {
    "postcode": "6393633",
    "prefecture": "奈良県",
    "prefecture_kana": "ナラケン",
    "prefecture_code": 29,
    "city": "吉野郡川上村",
    "city_kana": "ヨシノグンカワカミムラ",
    "town": "中奥",
    "town_kana": "ナカオク",
    "street": null,
    "office_name": null,
    "office_name_kana": null
  },
  "3634": {
    "postcode": "6393634",
    "prefecture": "奈良県",
    "prefecture_kana": "ナラケン",
    "prefecture_code": 29,
    "city": "吉野郡川上村",
    "city_kana": "ヨシノグンカワカミムラ",
    "town": "瀬戸",
    "town_kana": "セト",
    "street": null,
    "office_name": null,
    "office_name_kana": null
  },
  "3635": {
    "postcode": "6393635",
    "prefecture": "奈良県",
    "prefecture_kana": "ナラケン",
    "prefecture_code": 29,
    "city": "吉野郡川上村",
    "city_kana": "ヨシノグンカワカミムラ",
    "town": "神之谷",
    "town_kana": "コウノタニ",
    "street": null,
    "office_name": null,
    "office_name_kana": null
  },
  "3700": {
    "postcode": "6393700",
    "prefecture": "奈良県",
    "prefecture_kana": "ナラケン",
    "prefecture_code": 29,
    "city": "吉野郡上北山村",
    "city_kana": "ヨシノグンカミキタヤマムラ",
    "town": "",
    "town_kana": "",
    "street": null,
    "office_name": null,
    "office_name_kana": null
  },
  "3701": {
    "postcode": "6393701",
    "prefecture": "奈良県",
    "prefecture_kana": "ナラケン",
    "prefecture_code": 29,
    "city": "吉野郡上北山村",
    "city_kana": "ヨシノグンカミキタヤマムラ",
    "town": "河合",
    "town_kana": "カワイ",
    "street": null,
    "office_name": null,
    "office_name_kana": null
  },
  "3702": {
    "postcode": "6393702",
    "prefecture": "奈良県",
    "prefecture_kana": "ナラケン",
    "prefecture_code": 29,
    "city": "吉野郡上北山村",
    "city_kana": "ヨシノグンカミキタヤマムラ",
    "town": "小橡",
    "town_kana": "コトチ",
    "street": null,
    "office_name": null,
    "office_name_kana": null
  },
  "3703": {
    "postcode": "6393703",
    "prefecture": "奈良県",
    "prefecture_kana": "ナラケン",
    "prefecture_code": 29,
    "city": "吉野郡上北山村",
    "city_kana": "ヨシノグンカミキタヤマムラ",
    "town": "白川",
    "town_kana": "シラカワ",
    "street": null,
    "office_name": null,
    "office_name_kana": null
  },
  "3704": {
    "postcode": "6393704",
    "prefecture": "奈良県",
    "prefecture_kana": "ナラケン",
    "prefecture_code": 29,
    "city": "吉野郡上北山村",
    "city_kana": "ヨシノグンカミキタヤマムラ",
    "town": "西原",
    "town_kana": "ニシハラ",
    "street": null,
    "office_name": null,
    "office_name_kana": null
  },
  "3705": {
    "postcode": "6393705",
    "prefecture": "奈良県",
    "prefecture_kana": "ナラケン",
    "prefecture_code": 29,
    "city": "吉野郡上北山村",
    "city_kana": "ヨシノグンカミキタヤマムラ",
    "town": "東ノ川",
    "town_kana": "ヒガシノカワ",
    "street": null,
    "office_name": null,
    "office_name_kana": null
  },
  "3800": {
    "postcode": "6393800",
    "prefecture": "奈良県",
    "prefecture_kana": "ナラケン",
    "prefecture_code": 29,
    "city": "吉野郡下北山村",
    "city_kana": "ヨシノグンシモキタヤマムラ",
    "town": "",
    "town_kana": "",
    "street": null,
    "office_name": null,
    "office_name_kana": null
  },
  "3801": {
    "postcode": "6393801",
    "prefecture": "奈良県",
    "prefecture_kana": "ナラケン",
    "prefecture_code": 29,
    "city": "吉野郡下北山村",
    "city_kana": "ヨシノグンシモキタヤマムラ",
    "town": "佐田",
    "town_kana": "サダ",
    "street": null,
    "office_name": null,
    "office_name_kana": null
  },
  "3802": {
    "postcode": "6393802",
    "prefecture": "奈良県",
    "prefecture_kana": "ナラケン",
    "prefecture_code": 29,
    "city": "吉野郡下北山村",
    "city_kana": "ヨシノグンシモキタヤマムラ",
    "town": "浦向",
    "town_kana": "ウラムカイ",
    "street": null,
    "office_name": null,
    "office_name_kana": null
  },
  "3803": {
    "postcode": "6393803",
    "prefecture": "奈良県",
    "prefecture_kana": "ナラケン",
    "prefecture_code": 29,
    "city": "吉野郡下北山村",
    "city_kana": "ヨシノグンシモキタヤマムラ",
    "town": "寺垣内",
    "town_kana": "テラガイト",
    "street": null,
    "office_name": null,
    "office_name_kana": null
  },
  "3804": {
    "postcode": "6393804",
    "prefecture": "奈良県",
    "prefecture_kana": "ナラケン",
    "prefecture_code": 29,
    "city": "吉野郡下北山村",
    "city_kana": "ヨシノグンシモキタヤマムラ",
    "town": "池峰",
    "town_kana": "イケミネ",
    "street": null,
    "office_name": null,
    "office_name_kana": null
  },
  "3805": {
    "postcode": "6393805",
    "prefecture": "奈良県",
    "prefecture_kana": "ナラケン",
    "prefecture_code": 29,
    "city": "吉野郡下北山村",
    "city_kana": "ヨシノグンシモキタヤマムラ",
    "town": "上池原",
    "town_kana": "カミイケハラ",
    "street": null,
    "office_name": null,
    "office_name_kana": null
  },
  "3806": {
    "postcode": "6393806",
    "prefecture": "奈良県",
    "prefecture_kana": "ナラケン",
    "prefecture_code": 29,
    "city": "吉野郡下北山村",
    "city_kana": "ヨシノグンシモキタヤマムラ",
    "town": "下池原",
    "town_kana": "シモイケハラ",
    "street": null,
    "office_name": null,
    "office_name_kana": null
  },
  "3807": {
    "postcode": "6393807",
    "prefecture": "奈良県",
    "prefecture_kana": "ナラケン",
    "prefecture_code": 29,
    "city": "吉野郡下北山村",
    "city_kana": "ヨシノグンシモキタヤマムラ",
    "town": "下桑原",
    "town_kana": "シモクワハラ",
    "street": null,
    "office_name": null,
    "office_name_kana": null
  },
  "3808": {
    "postcode": "6393808",
    "prefecture": "奈良県",
    "prefecture_kana": "ナラケン",
    "prefecture_code": 29,
    "city": "吉野郡下北山村",
    "city_kana": "ヨシノグンシモキタヤマムラ",
    "town": "上桑原",
    "town_kana": "カミクワハラ",
    "street": null,
    "office_name": null,
    "office_name_kana": null
  },
  "3809": {
    "postcode": "6393809",
    "prefecture": "奈良県",
    "prefecture_kana": "ナラケン",
    "prefecture_code": 29,
    "city": "吉野郡下北山村",
    "city_kana": "ヨシノグンシモキタヤマムラ",
    "town": "前鬼",
    "town_kana": "ゼンキ",
    "street": null,
    "office_name": null,
    "office_name_kana": null
  }
}