{
  "0000": {
    "postcode": "6400000",
    "prefecture": "和歌山県",
    "prefecture_kana": "ワカヤマケン",
    "prefecture_code": 30,
    "city": "和歌山市",
    "city_kana": "ワカヤマシ",
    "town": "",
    "town_kana": "",
    "street": null,
    "office_name": null,
    "office_name_kana": null
  },
  "0101": {
    "postcode": "6400101",
    "prefecture": "和歌山県",
    "prefecture_kana": "ワカヤマケン",
    "prefecture_code": 30,
    "city": "和歌山市",
    "city_kana": "ワカヤマシ",
    "town": "大川",
    "town_kana": "オオカワ",
    "street": null,
    "office_name": null,
    "office_name_kana": null
  },
  "0102": {
    "postcode": "6400102",
    "prefecture": "和歌山県",
    "prefecture_kana": "ワカヤマケン",
    "prefecture_code": 30,
    "city": "和歌山市",
    "city_kana": "ワカヤマシ",
    "town": "深山",
    "town_kana": "ミヤマ",
    "street": null,
    "office_name": null,
    "office_name_kana": null
  },
  "0103": {
    "postcode": "6400103",
    "prefecture": "和歌山県",
    "prefecture_kana": "ワカヤマケン",
    "prefecture_code": 30,
    "city": "和歌山市",
    "city_kana": "ワカヤマシ",
    "town": "加太",
    "town_kana": "カダ",
    "street": null,
    "office_name": null,
    "office_name_kana": null
  },
  "0111": {
    "postcode": "6400111",
    "prefecture": "和歌山県",
    "prefecture_kana": "ワカヤマケン",
    "prefecture_code": 30,
    "city": "和歌山市",
    "city_kana": "ワカヤマシ",
    "town": "日野",
    "town_kana": "ヒノ",
    "street": null,
    "office_name": null,
    "office_name_kana": null
  },
  "0112": {
    "postcode": "6400112",
    "prefecture": "和歌山県",
    "prefecture_kana": "ワカヤマケン",
    "prefecture_code": 30,
    "city": "和歌山市",
    "city_kana": "ワカヤマシ",
    "town": "西庄",
    "town_kana": "ニシノショウ",
    "street": null,
    "office_name": null,
    "office_name_kana": null
  },
  "0113": {
    "postcode": "6400113",
    "prefecture": "和歌山県",
    "prefecture_kana": "ワカヤマケン",
    "prefecture_code": 30,
    "city": "和歌山市",
    "city_kana": "ワカヤマシ",
    "town": "本脇",
    "town_kana": "モトワキ",
    "street": null,
    "office_name": null,
    "office_name_kana": null
  },
  "0114": {
    "postcode": "6400114",
    "prefecture": "和歌山県",
    "prefecture_kana": "ワカヤマケン",
    "prefecture_code": 30,
    "city": "和歌山市",
    "city_kana": "ワカヤマシ",
    "town": "磯の浦",
    "town_kana": "イソノウラ",
    "street": null,
    "office_name": null,
    "office_name_kana": null
  },
  "0115": {
    "postcode": "6400115",
    "prefecture": "和歌山県",
    "prefecture_kana": "ワカヤマケン",
    "prefecture_code": 30,
    "city": "和歌山市",
    "city_kana": "ワカヤマシ",
    "town": "つつじが丘",
    "town_kana": "ツツジガオカ",
    "street": null,
    "office_name": null,
    "office_name_kana": null
  },
  "0301": {
    "postcode": "6400301",
    "prefecture": "和歌山県",
    "prefecture_kana": "ワカヤマケン",
    "prefecture_code": 30,
    "city": "和歌山市",
    "city_kana": "ワカヤマシ",
    "town": "木枕",
    "town_kana": "コマクラ",
    "street": null,
    "office_name": null,
    "office_name_kana": null
  },
  "0302": {
    "postcode": "6400302",
    "prefecture": "和歌山県",
    "prefecture_kana": "ワカヤマケン",
    "prefecture_code": 30,
    "city": "和歌山市",
    "city_kana": "ワカヤマシ",
    "town": "永山",
    "town_kana": "ナガヤマ",
    "street": null,
    "office_name": null,
    "office_name_kana": null
  },
  "0303": {
    "postcode": "6400303",
    "prefecture": "和歌山県",
    "prefecture_kana": "ワカヤマケン",
    "prefecture_code": 30,
    "city": "和歌山市",
    "city_kana": "ワカヤマシ",
    "town": "山東中",
    "town_kana": "サンドウナカ",
    "street": null,
    "office_name": null,
    "office_name_kana": null
  },
  "0304": {
    "postcode": "6400304",
    "prefecture": "和歌山県",
    "prefecture_kana": "ワカヤマケン",
    "prefecture_code": 30,
    "city": "和歌山市",
    "city_kana": "ワカヤマシ",
    "town": "平尾",
    "town_kana": "ヒラオ",
    "street": null,
    "office_name": null,
    "office_name_kana": null
  },
  "0305": {
    "postcode": "6400305",
    "prefecture": "和歌山県",
    "prefecture_kana": "ワカヤマケン",
    "prefecture_code": 30,
    "city": "和歌山市",
    "city_kana": "ワカヤマシ",
    "town": "明王寺",
    "town_kana": "ミョウオウジ",
    "street": null,
    "office_name": null,
    "office_name_kana": null
  },
  "0306": {
    "postcode": "6400306",
    "prefecture": "和歌山県",
    "prefecture_kana": "ワカヤマケン",
    "prefecture_code": 30,
    "city": "和歌山市",
    "city_kana": "ワカヤマシ",
    "town": "塩ノ谷",
    "town_kana": "シオノタニ",
    "street": null,
    "office_name": null,
    "office_name_kana": null
  },
  "0307": {
    "postcode": "6400307",
    "prefecture": "和歌山県",
    "prefecture_kana": "ワカヤマケン",
    "prefecture_code": 30,
    "city": "和歌山市",
    "city_kana": "ワカヤマシ",
    "town": "矢田",
    "town_kana": "ヤタ",
    "street": null,
    "office_name": null,
    "office_name_kana": null
  },
  "0311": {
    "postcode": "6400311",
    "prefecture": "和歌山県",
    "prefecture_kana": "ワカヤマケン",
    "prefecture_code": 30,
    "city": "和歌山市",
    "city_kana": "ワカヤマシ",
    "town": "黒岩",
    "town_kana": "クロイワ",
    "street": null,
    "office_name": null,
    "office_name_kana": null
  },
  "0312": {
    "postcode": "6400312",
    "prefecture": "和歌山県",
    "prefecture_kana": "ワカヤマケン",
    "prefecture_code": 30,
    "city": "和歌山市",
    "city_kana": "ワカヤマシ",
    "town": "黒谷",
    "town_kana": "クロダニ",
    "street": null,
    "office_name": null,
    "office_name_kana": null
  },
  "0313": {
    "postcode": "6400313",
    "prefecture": "和歌山県",
    "prefecture_kana": "ワカヤマケン",
    "prefecture_code": 30,
    "city": "和歌山市",
    "city_kana": "ワカヤマシ",
    "town": "境原",
    "town_kana": "サカイバラ",
    "street": null,
    "office_name": null,
    "office_name_kana": null
  },
  "0314": {
    "postcode": "6400314",
    "prefecture": "和歌山県",
    "prefecture_kana": "ワカヤマケン",
    "prefecture_code": 30,
    "city": "和歌山市",
    "city_kana": "ワカヤマシ",
    "town": "頭陀寺",
    "town_kana": "ズダジ",
    "street": null,
    "office_name": null,
    "office_name_kana": null
  },
  "0315": {
    "postcode": "6400315",
    "prefecture": "和歌山県",
    "prefecture_kana": "ワカヤマケン",
    "prefecture_code": 30,
    "city": "和歌山市",
    "city_kana": "ワカヤマシ",
    "town": "南畑",
    "town_kana": "ミナミバタ",
    "street": null,
    "office_name": null,
    "office_name_kana": null
  },
  "0316": {
    "postcode": "6400316",
    "prefecture": "和歌山県",
    "prefecture_kana": "ワカヤマケン",
    "prefecture_code": 30,
    "city": "和歌山市",
    "city_kana": "ワカヤマシ",
    "town": "大河内",
    "town_kana": "オオカワチ",
    "street": null,
    "office_name": null,
    "office_name_kana": null
  },
  "0321": {
    "postcode": "6400321",
    "prefecture": "和歌山県",
    "prefecture_kana": "ワカヤマケン",
    "prefecture_code": 30,
    "city": "和歌山市",
    "city_kana": "ワカヤマシ",
    "town": "薬勝寺",
    "town_kana": "ヤクショウジ",
    "street": null,
    "office_name": null,
    "office_name_kana": null
  },
  "0322": {
    "postcode": "6400322",
    "prefecture": "和歌山県",
    "prefecture_kana": "ワカヤマケン",
    "prefecture_code": 30,
    "city": "和歌山市",
    "city_kana": "ワカヤマシ",
    "town": "仁井辺",
    "town_kana": "ニイベ",
    "street": null,
    "office_name": null,
    "office_name_kana": null
  },
  "0323": {
    "postcode": "6400323",
    "prefecture": "和歌山県",
    "prefecture_kana": "ワカヤマケン",
    "prefecture_code": 30,
    "city": "和歌山市",
    "city_kana": "ワカヤマシ",
    "town": "小瀬田",
    "town_kana": "コゼタ",
    "street": null,
    "office_name": null,
    "office_name_kana": null
  },
  "0324": {
    "postcode": "6400324",
    "prefecture": "和歌山県",
    "prefecture_kana": "ワカヤマケン",
    "prefecture_code": 30,
    "city": "和歌山市",
    "city_kana": "ワカヤマシ",
    "town": "本渡",
    "town_kana": "モトワタリ",
    "street": null,
    "office_name": null,
    "office_name_kana": null
  },
  "0331": {
    "postcode": "6400331",
    "prefecture": "和歌山県",
    "prefecture_kana": "ワカヤマケン",
    "prefecture_code": 30,
    "city": "和歌山市",
    "city_kana": "ワカヤマシ",
    "town": "吉原",
    "town_kana": "ヨシハラ",
    "street": null,
    "office_name": null,
    "office_name_kana": null
  },
  "0332": {
    "postcode": "6400332",
    "prefecture": "和歌山県",
    "prefecture_kana": "ワカヤマケン",
    "prefecture_code": 30,
    "city": "和歌山市",
    "city_kana": "ワカヤマシ",
    "town": "冬野",
    "town_kana": "フユノ",
    "street": null,
    "office_name": null,
    "office_name_kana": null
  },
  "0333": {
    "postcode": "6400333",
    "prefecture": "和歌山県",
    "prefecture_kana": "ワカヤマケン",
    "prefecture_code": 30,
    "city": "和歌山市",
    "city_kana": "ワカヤマシ",
    "town": "広原",
    "town_kana": "ヒロハラ",
    "street": null,
    "office_name": null,
    "office_name_kana": null
  },
  "0341": {
    "postcode": "6400341",
    "prefecture": "和歌山県",
    "prefecture_kana": "ワカヤマケン",
    "prefecture_code": 30,
    "city": "和歌山市",
    "city_kana": "ワカヤマシ",
    "town": "相坂",
    "town_kana": "ソウザカ",
    "street": null,
    "office_name": null,
    "office_name_kana": null
  },
  "0342": {
    "postcode": "6400342",
    "prefecture": "和歌山県",
    "prefecture_kana": "ワカヤマケン",
    "prefecture_code": 30,
    "city": "和歌山市",
    "city_kana": "ワカヤマシ",
    "town": "松原",
    "town_kana": "マツバラ",
    "street": null,
    "office_name": null,
    "office_name_kana": null
  },
  "0343": {
    "postcode": "6400343",
    "prefecture": "和歌山県",
    "prefecture_kana": "ワカヤマケン",
    "prefecture_code": 30,
    "city": "和歌山市",
    "city_kana": "ワカヤマシ",
    "town": "江南",
    "town_kana": "エナ",
    "street": null,
    "office_name": null,
    "office_name_kana": null
  },
  "0344": {
    "postcode": "6400344",
    "prefecture": "和歌山県",
    "prefecture_kana": "ワカヤマケン",
    "prefecture_code": 30,
    "city": "和歌山市",
    "city_kana": "ワカヤマシ",
    "town": "朝日",
    "town_kana": "アサヒ",
    "street": null,
    "office_name": null,
    "office_name_kana": null
  },
  "0345": {
    "postcode": "6400345",
    "prefecture": "和歌山県",
    "prefecture_kana": "ワカヤマケン",
    "prefecture_code": 30,
    "city": "和歌山市",
    "city_kana": "ワカヤマシ",
    "town": "桑山",
    "town_kana": "クワヤマ",
    "street": null,
    "office_name": null,
    "office_name_kana": null
  },
  "0351": {
    "postcode": "6400351",
    "prefecture": "和歌山県",
    "prefecture_kana": "ワカヤマケン",
    "prefecture_code": 30,
    "city": "和歌山市",
    "city_kana": "ワカヤマシ",
    "town": "吉礼",
    "town_kana": "キレ",
    "street": null,
    "office_name": null,
    "office_name_kana": null
  },
  "0352": {
    "postcode": "6400352",
    "prefecture": "和歌山県",
    "prefecture_kana": "ワカヤマケン",
    "prefecture_code": 30,
    "city": "和歌山市",
    "city_kana": "ワカヤマシ",
    "town": "井戸",
    "town_kana": "イド",
    "street": null,
    "office_name": null,
    "office_name_kana": null
  },
  "0353": {
    "postcode": "6400353",
    "prefecture": "和歌山県",
    "prefecture_kana": "ワカヤマケン",
    "prefecture_code": 30,
    "city": "和歌山市",
    "city_kana": "ワカヤマシ",
    "town": "馬場",
    "town_kana": "ババ",
    "street": null,
    "office_name": null,
    "office_name_kana": null
  },
  "0361": {
    "postcode": "6400361",
    "prefecture": "和歌山県",
    "prefecture_kana": "ワカヤマケン",
    "prefecture_code": 30,
    "city": "和歌山市",
    "city_kana": "ワカヤマシ",
    "town": "伊太祈曽",
    "town_kana": "イダキソ",
    "street": null,
    "office_name": null,
    "office_name_kana": null
  },
  "0362": {
    "postcode": "6400362",
    "prefecture": "和歌山県",
    "prefecture_kana": "ワカヤマケン",
    "prefecture_code": 30,
    "city": "和歌山市",
    "city_kana": "ワカヤマシ",
    "town": "奥須佐",
    "town_kana": "オクズサ",
    "street": null,
    "office_name": null,
    "office_name_kana": null
  },
  "0363": {
    "postcode": "6400363",
    "prefecture": "和歌山県",
    "prefecture_kana": "ワカヤマケン",
    "prefecture_code": 30,
    "city": "和歌山市",
    "city_kana": "ワカヤマシ",
    "town": "吉里",
    "town_kana": "ヨシザト",
    "street": null,
    "office_name": null,
    "office_name_kana": null
  },
  "0364": {
    "postcode": "6400364",
    "prefecture": "和歌山県",
    "prefecture_kana": "ワカヤマケン",
    "prefecture_code": 30,
    "city": "和歌山市",
    "city_kana": "ワカヤマシ",
    "town": "口須佐",
    "town_kana": "クチズサ",
    "street": null,
    "office_name": null,
    "office_name_kana": null
  },
  "0401": {
    "postcode": "6400401",
    "prefecture": "和歌山県",
    "prefecture_kana": "ワカヤマケン",
    "prefecture_code": 30,
    "city": "紀の川市",
    "city_kana": "キノカワシ",
    "town": "貴志川町丸栖",
    "town_kana": "キシガワチョウマルス",
    "street": null,
    "office_name": null,
    "office_name_kana": null
  },
  "0402": {
    "postcode": "6400402",
    "prefecture": "和歌山県",
    "prefecture_kana": "ワカヤマケン",
    "prefecture_code": 30,
    "city": "紀の川市",
    "city_kana": "キノカワシ",
    "town": "貴志川町北山",
    "town_kana": "キシガワチョウキタヤマ",
    "street": null,
    "office_name": null,
    "office_name_kana": null
  },
  "0403": {
    "postcode": "6400403",
    "prefecture": "和歌山県",
    "prefecture_kana": "ワカヤマケン",
    "prefecture_code": 30,
    "city": "紀の川市",
    "city_kana": "キノカワシ",
    "town": "貴志川町尼寺",
    "town_kana": "キシガワチョウアマテラ",
    "street": null,
    "office_name": null,
    "office_name_kana": null
  },
  "0404": {
    "postcode": "6400404",
    "prefecture": "和歌山県",
    "prefecture_kana": "ワカヤマケン",
    "prefecture_code": 30,
    "city": "紀の川市",
    "city_kana": "キノカワシ",
    "town": "貴志川町鳥居",
    "town_kana": "キシガワチョウトリイ",
    "street": null,
    "office_name": null,
    "office_name_kana": null
  },
  "0405": {
    "postcode": "6400405",
    "prefecture": "和歌山県",
    "prefecture_kana": "ワカヤマケン",
    "prefecture_code": 30,
    "city": "紀の川市",
    "city_kana": "キノカワシ",
    "town": "貴志川町岸宮",
    "town_kana": "キシガワチョウキシミヤ",
    "street": null,
    "office_name": null,
    "office_name_kana": null
  },
  "0406": {
    "postcode": "6400406",
    "prefecture": "和歌山県",
    "prefecture_kana": "ワカヤマケン",
    "prefecture_code": 30,
    "city": "紀の川市",
    "city_kana": "キノカワシ",
    "town": "貴志川町西山",
    "town_kana": "キシガワチョウニシヤマ",
    "street": null,
    "office_name": null,
    "office_name_kana": null
  },
  "0411": {
    "postcode": "6400411",
    "prefecture": "和歌山県",
    "prefecture_kana": "ワカヤマケン",
    "prefecture_code": 30,
    "city": "紀の川市",
    "city_kana": "キノカワシ",
    "town": "貴志川町前田",
    "town_kana": "キシガワチョウマエダ",
    "street": null,
    "office_name": null,
    "office_name_kana": null
  },
  "0412": {
    "postcode": "6400412",
    "prefecture": "和歌山県",
    "prefecture_kana": "ワカヤマケン",
    "prefecture_code": 30,
    "city": "紀の川市",
    "city_kana": "キノカワシ",
    "town": "貴志川町上野山",
    "town_kana": "キシガワチョウウエノヤマ",
    "street": null,
    "office_name": null,
    "office_name_kana": null
  },
  "0413": {
    "postcode": "6400413",
    "prefecture": "和歌山県",
    "prefecture_kana": "ワカヤマケン",
    "prefecture_code": 30,
    "city": "紀の川市",
    "city_kana": "キノカワシ",
    "town": "貴志川町神戸",
    "town_kana": "キシガワチョウコウド",
    "street": null,
    "office_name": null,
    "office_name_kana": null
  },
  "0414": {
    "postcode": "6400414",
    "prefecture": "和歌山県",
    "prefecture_kana": "ワカヤマケン",
    "prefecture_code": 30,
    "city": "紀の川市",
    "city_kana": "キノカワシ",
    "town": "貴志川町国主",
    "town_kana": "キシガワチョウクニシ",
    "street": null,
    "office_name": null,
    "office_name_kana": null
  },
  "0415": {
    "postcode": "6400415",
    "prefecture": "和歌山県",
    "prefecture_kana": "ワカヤマケン",
    "prefecture_code": 30,
    "city": "紀の川市",
    "city_kana": "キノカワシ",
    "town": "貴志川町長原",
    "town_kana": "キシガワチョウナガハラ",
    "street": null,
    "office_name": null,
    "office_name_kana": null
  },
  "0416": {
    "postcode": "6400416",
    "prefecture": "和歌山県",
    "prefecture_kana": "ワカヤマケン",
    "prefecture_code": 30,
    "city": "紀の川市",
    "city_kana": "キノカワシ",
    "town": "貴志川町長山",
    "town_kana": "キシガワチョウナガヤマ",
    "street": null,
    "office_name": null,
    "office_name_kana": null
  },
  "0421": {
    "postcode": "6400421",
    "prefecture": "和歌山県",
    "prefecture_kana": "ワカヤマケン",
    "prefecture_code": 30,
    "city": "紀の川市",
    "city_kana": "キノカワシ",
    "town": "貴志川町北",
    "town_kana": "キシガワチョウキタ",
    "street": null,
    "office_name": null,
    "office_name_kana": null
  },
  "0422": {
    "postcode": "6400422",
    "prefecture": "和歌山県",
    "prefecture_kana": "ワカヤマケン",
    "prefecture_code": 30,
    "city": "紀の川市",
    "city_kana": "キノカワシ",
    "town": "貴志川町岸小野",
    "town_kana": "キシガワチョウキシオノ",
    "street": null,
    "office_name": null,
    "office_name_kana": null
  },
  "0423": {
    "postcode": "6400423",
    "prefecture": "和歌山県",
    "prefecture_kana": "ワカヤマケン",
    "prefecture_code": 30,
    "city": "紀の川市",
    "city_kana": "キノカワシ",
    "town": "貴志川町高尾",
    "town_kana": "キシガワチョウタカオ",
    "street": null,
    "office_name": null,
    "office_name_kana": null
  },
  "0424": {
    "postcode": "6400424",
    "prefecture": "和歌山県",
    "prefecture_kana": "ワカヤマケン",
    "prefecture_code": 30,
    "city": "紀の川市",
    "city_kana": "キノカワシ",
    "town": "貴志川町井ノ口",
    "town_kana": "キシガワチョウイノクチ",
    "street": null,
    "office_name": null,
    "office_name_kana": null
  },
  "0441": {
    "postcode": "6400441",
    "prefecture": "和歌山県",
    "prefecture_kana": "ワカヤマケン",
    "prefecture_code": 30,
    "city": "海南市",
    "city_kana": "カイナンシ",
    "town": "七山",
    "town_kana": "ナナヤマ",
    "street": null,
    "office_name": null,
    "office_name_kana": null
  },
  "0442": {
    "postcode": "6400442",
    "prefecture": "和歌山県",
    "prefecture_kana": "ワカヤマケン",
    "prefecture_code": 30,
    "city": "海南市",
    "city_kana": "カイナンシ",
    "town": "原野",
    "town_kana": "ハラノ",
    "street": null,
    "office_name": null,
    "office_name_kana": null
  },
  "0443": {
    "postcode": "6400443",
    "prefecture": "和歌山県",
    "prefecture_kana": "ワカヤマケン",
    "prefecture_code": 30,
    "city": "海南市",
    "city_kana": "カイナンシ",
    "town": "下津野",
    "town_kana": "シモツノ",
    "street": null,
    "office_name": null,
    "office_name_kana": null
  },
  "0451": {
    "postcode": "6400451",
    "prefecture": "和歌山県",
    "prefecture_kana": "ワカヤマケン",
    "prefecture_code": 30,
    "city": "海南市",
    "city_kana": "カイナンシ",
    "town": "高津",
    "town_kana": "タカヅ",
    "street": null,
    "office_name": null,
    "office_name_kana": null
  },
  "0452": {
    "postcode": "6400452",
    "prefecture": "和歌山県",
    "prefecture_kana": "ワカヤマケン",
    "prefecture_code": 30,
    "city": "海南市",
    "city_kana": "カイナンシ",
    "town": "孟子",
    "town_kana": "モウコ",
    "street": null,
    "office_name": null,
    "office_name_kana": null
  },
  "0453": {
    "postcode": "6400453",
    "prefecture": "和歌山県",
    "prefecture_kana": "ワカヤマケン",
    "prefecture_code": 30,
    "city": "海南市",
    "city_kana": "カイナンシ",
    "town": "野尻",
    "town_kana": "ノジリ",
    "street": null,
    "office_name": null,
    "office_name_kana": null
  },
  "0454": {
    "postcode": "6400454",
    "prefecture": "和歌山県",
    "prefecture_kana": "ワカヤマケン",
    "prefecture_code": 30,
    "city": "海南市",
    "city_kana": "カイナンシ",
    "town": "別院",
    "town_kana": "ベツイン",
    "street": null,
    "office_name": null,
    "office_name_kana": null
  },
  "0492": {
    "postcode": "6400492",
    "prefecture": "和歌山県",
    "prefecture_kana": "ワカヤマケン",
    "prefecture_code": 30,
    "city": "紀の川市",
    "city_kana": "キノカワシ",
    "town": "貴志川町神戸",
    "town_kana": "キシガワチョウコウド",
    "street": "３３１",
    "office_name": "紀の川市役所　貴志川支所",
    "office_name_kana": "キノカワシヤクシヨ キシガワシシヨ"
  },
  "1100": {
    "postcode": "6401100",
    "prefecture": "和歌山県",
    "prefecture_kana": "ワカヤマケン",
    "prefecture_code": 30,
    "city": "海草郡紀美野町",
    "city_kana": "カイソウグンキミノチョウ",
    "town": "",
    "town_kana": "",
    "street": null,
    "office_name": null,
    "office_name_kana": null
  },
  "1101": {
    "postcode": "6401101",
    "prefecture": "和歌山県",
    "prefecture_kana": "ワカヤマケン",
    "prefecture_code": 30,
    "city": "海草郡紀美野町",
    "city_kana": "カイソウグンキミノチョウ",
    "town": "長谷",
    "town_kana": "ナガタニ",
    "street": null,
    "office_name": null,
    "office_name_kana": null
  },
  "1102": {
    "postcode": "6401102",
    "prefecture": "和歌山県",
    "prefecture_kana": "ワカヤマケン",
    "prefecture_code": 30,
    "city": "海草郡紀美野町",
    "city_kana": "カイソウグンキミノチョウ",
    "town": "柴目",
    "town_kana": "シバメ",
    "street": null,
    "office_name": null,
    "office_name_kana": null
  },
  "1103": {
    "postcode": "6401103",
    "prefecture": "和歌山県",
    "prefecture_kana": "ワカヤマケン",
    "prefecture_code": 30,
    "city": "海草郡紀美野町",
    "city_kana": "カイソウグンキミノチョウ",
    "town": "吉野",
    "town_kana": "ヨシノ",
    "street": null,
    "office_name": null,
    "office_name_kana": null
  },
  "1111": {
    "postcode": "6401111",
    "prefecture": "和歌山県",
    "prefecture_kana": "ワカヤマケン",
    "prefecture_code": 30,
    "city": "海草郡紀美野町",
    "city_kana": "カイソウグンキミノチョウ",
    "town": "福井",
    "town_kana": "フクイ",
    "street": null,
    "office_name": null,
    "office_name_kana": null
  },
  "1112": {
    "postcode": "6401112",
    "prefecture": "和歌山県",
    "prefecture_kana": "ワカヤマケン",
    "prefecture_code": 30,
    "city": "海草郡紀美野町",
    "city_kana": "カイソウグンキミノチョウ",
    "town": "坂本",
    "town_kana": "サカモト",
    "street": null,
    "office_name": null,
    "office_name_kana": null
  },
  "1113": {
    "postcode": "6401113",
    "prefecture": "和歌山県",
    "prefecture_kana": "ワカヤマケン",
    "prefecture_code": 30,
    "city": "海草郡紀美野町",
    "city_kana": "カイソウグンキミノチョウ",
    "town": "梅本",
    "town_kana": "ウメモト",
    "street": null,
    "office_name": null,
    "office_name_kana": null
  },
  "1114": {
    "postcode": "6401114",
    "prefecture": "和歌山県",
    "prefecture_kana": "ワカヤマケン",
    "prefecture_code": 30,
    "city": "海草郡紀美野町",
    "city_kana": "カイソウグンキミノチョウ",
    "town": "中田",
    "town_kana": "ナカダ",
    "street": null,
    "office_name": null,
    "office_name_kana": null
  },
  "1115": {
    "postcode": "6401115",
    "prefecture": "和歌山県",
    "prefecture_kana": "ワカヤマケン",
    "prefecture_code": 30,
    "city": "海草郡紀美野町",
    "city_kana": "カイソウグンキミノチョウ",
    "town": "奥佐々",
    "town_kana": "オクササ",
    "street": null,
    "office_name": null,
    "office_name_kana": null
  },
  "1121": {
    "postcode": "6401121",
    "prefecture": "和歌山県",
    "prefecture_kana": "ワカヤマケン",
    "prefecture_code": 30,
    "city": "海草郡紀美野町",
    "city_kana": "カイソウグンキミノチョウ",
    "town": "下佐々",
    "town_kana": "シモササ",
    "street": null,
    "office_name": null,
    "office_name_kana": null
  },
  "1131": {
    "postcode": "6401131",
    "prefecture": "和歌山県",
    "prefecture_kana": "ワカヤマケン",
    "prefecture_code": 30,
    "city": "海草郡紀美野町",
    "city_kana": "カイソウグンキミノチョウ",
    "town": "動木",
    "town_kana": "トドロキ",
    "street": null,
    "office_name": null,
    "office_name_kana": null
  },
  "1141": {
    "postcode": "6401141",
    "prefecture": "和歌山県",
    "prefecture_kana": "ワカヤマケン",
    "prefecture_code": 30,
    "city": "海草郡紀美野町",
    "city_kana": "カイソウグンキミノチョウ",
    "town": "小畑",
    "town_kana": "ショウバタ",
    "street": null,
    "office_name": null,
    "office_name_kana": null
  },
  "1161": {
    "postcode": "6401161",
    "prefecture": "和歌山県",
    "prefecture_kana": "ワカヤマケン",
    "prefecture_code": 30,
    "city": "海南市",
    "city_kana": "カイナンシ",
    "town": "野上新",
    "town_kana": "ノカミシン",
    "street": null,
    "office_name": null,
    "office_name_kana": null
  },
  "1162": {
    "postcode": "6401162",
    "prefecture": "和歌山県",
    "prefecture_kana": "ワカヤマケン",
    "prefecture_code": 30,
    "city": "海南市",
    "city_kana": "カイナンシ",
    "town": "上谷",
    "town_kana": "カミダニ",
    "street": null,
    "office_name": null,
    "office_name_kana": null
  },
  "1163": {
    "postcode": "6401163",
    "prefecture": "和歌山県",
    "prefecture_kana": "ワカヤマケン",
    "prefecture_code": 30,
    "city": "海南市",
    "city_kana": "カイナンシ",
    "town": "赤沼",
    "town_kana": "アカヌマ",
    "street": null,
    "office_name": null,
    "office_name_kana": null
  },
  "1164": {
    "postcode": "6401164",
    "prefecture": "和歌山県",
    "prefecture_kana": "ワカヤマケン",
    "prefecture_code": 30,
    "city": "海南市",
    "city_kana": "カイナンシ",
    "town": "海老谷",
    "town_kana": "エビタニ",
    "street": null,
    "office_name": null,
    "office_name_kana": null
  },
  "1165": {
    "postcode": "6401165",
    "prefecture": "和歌山県",
    "prefecture_kana": "ワカヤマケン",
    "prefecture_code": 30,
    "city": "海南市",
    "city_kana": "カイナンシ",
    "town": "ひや水",
    "town_kana": "ヒヤミズ",
    "street": null,
    "office_name": null,
    "office_name_kana": null
  },
  "1166": {
    "postcode": "6401166",
    "prefecture": "和歌山県",
    "prefecture_kana": "ワカヤマケン",
    "prefecture_code": 30,
    "city": "海南市",
    "city_kana": "カイナンシ",
    "town": "次ケ谷",
    "town_kana": "ツゲダニ",
    "street": null,
    "office_name": null,
    "office_name_kana": null
  },
  "1167": {
    "postcode": "6401167",
    "prefecture": "和歌山県",
    "prefecture_kana": "ワカヤマケン",
    "prefecture_code": 30,
    "city": "海南市",
    "city_kana": "カイナンシ",
    "town": "九品寺",
    "town_kana": "クホンジ",
    "street": null,
    "office_name": null,
    "office_name_kana": null
  },
  "1171": {
    "postcode": "6401171",
    "prefecture": "和歌山県",
    "prefecture_kana": "ワカヤマケン",
    "prefecture_code": 30,
    "city": "海南市",
    "city_kana": "カイナンシ",
    "town": "野上中",
    "town_kana": "ノカミナカ",
    "street": null,
    "office_name": null,
    "office_name_kana": null
  },
  "1172": {
    "postcode": "6401172",
    "prefecture": "和歌山県",
    "prefecture_kana": "ワカヤマケン",
    "prefecture_code": 30,
    "city": "海南市",
    "city_kana": "カイナンシ",
    "town": "溝ノ口",
    "town_kana": "ミゾノクチ",
    "street": null,
    "office_name": null,
    "office_name_kana": null
  },
  "1173": {
    "postcode": "6401173",
    "prefecture": "和歌山県",
    "prefecture_kana": "ワカヤマケン",
    "prefecture_code": 30,
    "city": "海南市",
    "city_kana": "カイナンシ",
    "town": "椋木",
    "town_kana": "ムクノキ",
    "street": null,
    "office_name": null,
    "office_name_kana": null
  },
  "1174": {
    "postcode": "6401174",
    "prefecture": "和歌山県",
    "prefecture_kana": "ワカヤマケン",
    "prefecture_code": 30,
    "city": "海南市",
    "city_kana": "カイナンシ",
    "town": "木津",
    "town_kana": "キヅ",
    "street": null,
    "office_name": null,
    "office_name_kana": null
  },
  "1175": {
    "postcode": "6401175",
    "prefecture": "和歌山県",
    "prefecture_kana": "ワカヤマケン",
    "prefecture_code": 30,
    "city": "海南市",
    "city_kana": "カイナンシ",
    "town": "沖野々",
    "town_kana": "オキノノ",
    "street": null,
    "office_name": null,
    "office_name_kana": null
  },
  "1192": {
    "postcode": "6401192",
    "prefecture": "和歌山県",
    "prefecture_kana": "ワカヤマケン",
    "prefecture_code": 30,
    "city": "海草郡紀美野町",
    "city_kana": "カイソウグンキミノチョウ",
    "town": "動木",
    "town_kana": "トドロキ",
    "street": "２８７番地",
    "office_name": "紀美野町役場",
    "office_name_kana": "キミノチヨウヤクバ"
  },
  "1196": {
    "postcode": "6401196",
    "prefecture": "和歌山県",
    "prefecture_kana": "ワカヤマケン",
    "prefecture_code": 30,
    "city": "海南市",
    "city_kana": "カイナンシ",
    "town": "椋木",
    "town_kana": "ムクノキ",
    "street": "１１９番地の２",
    "office_name": "株式会社　クロシオ",
    "office_name_kana": "カブシキガイシヤ クロシオ"
  },
  "1201": {
    "postcode": "6401201",
    "prefecture": "和歌山県",
    "prefecture_kana": "ワカヤマケン",
    "prefecture_code": 30,
    "city": "海草郡紀美野町",
    "city_kana": "カイソウグンキミノチョウ",
    "town": "北野",
    "town_kana": "キタノ",
    "street": null,
    "office_name": null,
    "office_name_kana": null
  },
  "1202": {
    "postcode": "6401202",
    "prefecture": "和歌山県",
    "prefecture_kana": "ワカヤマケン",
    "prefecture_code": 30,
    "city": "海草郡紀美野町",
    "city_kana": "カイソウグンキミノチョウ",
    "town": "初生谷",
    "town_kana": "ウイダニ",
    "street": null,
    "office_name": null,
    "office_name_kana": null
  },
  "1203": {
    "postcode": "6401203",
    "prefecture": "和歌山県",
    "prefecture_kana": "ワカヤマケン",
    "prefecture_code": 30,
    "city": "海草郡紀美野町",
    "city_kana": "カイソウグンキミノチョウ",
    "town": "花野原",
    "town_kana": "ハナノハラ",
    "street": null,
    "office_name": null,
    "office_name_kana": null
  },
  "1204": {
    "postcode": "6401204",
    "prefecture": "和歌山県",
    "prefecture_kana": "ワカヤマケン",
    "prefecture_code": 30,
    "city": "海草郡紀美野町",
    "city_kana": "カイソウグンキミノチョウ",
    "town": "蓑津呂",
    "town_kana": "ミノツロ",
    "street": null,
    "office_name": null,
    "office_name_kana": null
  },
  "1205": {
    "postcode": "6401205",
    "prefecture": "和歌山県",
    "prefecture_kana": "ワカヤマケン",
    "prefecture_code": 30,
    "city": "海草郡紀美野町",
    "city_kana": "カイソウグンキミノチョウ",
    "town": "真国宮",
    "town_kana": "マクニミヤ",
    "street": null,
    "office_name": null,
    "office_name_kana": null
  },
  "1206": {
    "postcode": "6401206",
    "prefecture": "和歌山県",
    "prefecture_kana": "ワカヤマケン",
    "prefecture_code": 30,
    "city": "海草郡紀美野町",
    "city_kana": "カイソウグンキミノチョウ",
    "town": "蓑垣内",
    "town_kana": "ミノガイト",
    "street": null,
    "office_name": null,
    "office_name_kana": null
  },
  "1207": {
    "postcode": "6401207",
    "prefecture": "和歌山県",
    "prefecture_kana": "ワカヤマケン",
    "prefecture_code": 30,
    "city": "海草郡紀美野町",
    "city_kana": "カイソウグンキミノチョウ",
    "town": "井堰",
    "town_kana": "イセキ",
    "street": null,
    "office_name": null,
    "office_name_kana": null
  },
  "1211": {
    "postcode": "6401211",
    "prefecture": "和歌山県",
    "prefecture_kana": "ワカヤマケン",
    "prefecture_code": 30,
    "city": "海草郡紀美野町",
    "city_kana": "カイソウグンキミノチョウ",
    "town": "桂瀬",
    "town_kana": "カツラセ",
    "street": null,
    "office_name": null,
    "office_name_kana": null
  },
  "1212": {
    "postcode": "6401212",
    "prefecture": "和歌山県",
    "prefecture_kana": "ワカヤマケン",
    "prefecture_code": 30,
    "city": "海草郡紀美野町",
    "city_kana": "カイソウグンキミノチョウ",
    "town": "高畑",
    "town_kana": "タカハタ",
    "street": null,
    "office_name": null,
    "office_name_kana": null
  },
  "1213": {
    "postcode": "6401213",
    "prefecture": "和歌山県",
    "prefecture_kana": "ワカヤマケン",
    "prefecture_code": 30,
    "city": "海草郡紀美野町",
    "city_kana": "カイソウグンキミノチョウ",
    "town": "赤木",
    "town_kana": "アカギ",
    "street": null,
    "office_name": null,
    "office_name_kana": null
  },
  "1214": {
    "postcode": "6401214",
    "prefecture": "和歌山県",
    "prefecture_kana": "ワカヤマケン",
    "prefecture_code": 30,
    "city": "海草郡紀美野町",
    "city_kana": "カイソウグンキミノチョウ",
    "town": "明添",
    "town_kana": "ミョウゾエ",
    "street": null,
    "office_name": null,
    "office_name_kana": null
  },
  "1215": {
    "postcode": "6401215",
    "prefecture": "和歌山県",
    "prefecture_kana": "ワカヤマケン",
    "prefecture_code": 30,
    "city": "海草郡紀美野町",
    "city_kana": "カイソウグンキミノチョウ",
    "town": "鎌滝",
    "town_kana": "カマタキ",
    "street": null,
    "office_name": null,
    "office_name_kana": null
  },
  "1221": {
    "postcode": "6401221",
    "prefecture": "和歌山県",
    "prefecture_kana": "ワカヤマケン",
    "prefecture_code": 30,
    "city": "海草郡紀美野町",
    "city_kana": "カイソウグンキミノチョウ",
    "town": "三尾川",
    "town_kana": "ミオガワ",
    "street": null,
    "office_name": null,
    "office_name_kana": null
  },
  "1222": {
    "postcode": "6401222",
    "prefecture": "和歌山県",
    "prefecture_kana": "ワカヤマケン",
    "prefecture_code": 30,
    "city": "海草郡紀美野町",
    "city_kana": "カイソウグンキミノチョウ",
    "town": "大角",
    "town_kana": "オオスミ",
    "street": null,
    "office_name": null,
    "office_name_kana": null
  },
  "1223": {
    "postcode": "6401223",
    "prefecture": "和歌山県",
    "prefecture_kana": "ワカヤマケン",
    "prefecture_code": 30,
    "city": "海草郡紀美野町",
    "city_kana": "カイソウグンキミノチョウ",
    "town": "津川",
    "town_kana": "ツガワ",
    "street": null,
    "office_name": null,
    "office_name_kana": null
  },
  "1231": {
    "postcode": "6401231",
    "prefecture": "和歌山県",
    "prefecture_kana": "ワカヤマケン",
    "prefecture_code": 30,
    "city": "海草郡紀美野町",
    "city_kana": "カイソウグンキミノチョウ",
    "town": "上ケ井",
    "town_kana": "アゲイ",
    "street": null,
    "office_name": null,
    "office_name_kana": null
  },
  "1232": {
    "postcode": "6401232",
    "prefecture": "和歌山県",
    "prefecture_kana": "ワカヤマケン",
    "prefecture_code": 30,
    "city": "海草郡紀美野町",
    "city_kana": "カイソウグンキミノチョウ",
    "town": "箕六",
    "town_kana": "ミロク",
    "street": null,
    "office_name": null,
    "office_name_kana": null
  },
  "1233": {
    "postcode": "6401233",
    "prefecture": "和歌山県",
    "prefecture_kana": "ワカヤマケン",
    "prefecture_code": 30,
    "city": "海草郡紀美野町",
    "city_kana": "カイソウグンキミノチョウ",
    "town": "南畑",
    "town_kana": "ミナミハタ",
    "street": null,
    "office_name": null,
    "office_name_kana": null
  },
  "1234": {
    "postcode": "6401234",
    "prefecture": "和歌山県",
    "prefecture_kana": "ワカヤマケン",
    "prefecture_code": 30,
    "city": "海草郡紀美野町",
    "city_kana": "カイソウグンキミノチョウ",
    "town": "安井",
    "town_kana": "ヤスイ",
    "street": null,
    "office_name": null,
    "office_name_kana": null
  },
  "1235": {
    "postcode": "6401235",
    "prefecture": "和歌山県",
    "prefecture_kana": "ワカヤマケン",
    "prefecture_code": 30,
    "city": "海草郡紀美野町",
    "city_kana": "カイソウグンキミノチョウ",
    "town": "野中",
    "town_kana": "ノナカ",
    "street": null,
    "office_name": null,
    "office_name_kana": null
  },
  "1241": {
    "postcode": "6401241",
    "prefecture": "和歌山県",
    "prefecture_kana": "ワカヤマケン",
    "prefecture_code": 30,
    "city": "海草郡紀美野町",
    "city_kana": "カイソウグンキミノチョウ",
    "town": "永谷",
    "town_kana": "ナガタニ",
    "street": null,
    "office_name": null,
    "office_name_kana": null
  },
  "1242": {
    "postcode": "6401242",
    "prefecture": "和歌山県",
    "prefecture_kana": "ワカヤマケン",
    "prefecture_code": 30,
    "city": "海草郡紀美野町",
    "city_kana": "カイソウグンキミノチョウ",
    "town": "樋下",
    "town_kana": "ヒノシタ",
    "street": null,
    "office_name": null,
    "office_name_kana": null
  },
  "1243": {
    "postcode": "6401243",
    "prefecture": "和歌山県",
    "prefecture_kana": "ワカヤマケン",
    "prefecture_code": 30,
    "city": "海草郡紀美野町",
    "city_kana": "カイソウグンキミノチョウ",
    "town": "神野市場",
    "town_kana": "コウノイチバ",
    "street": null,
    "office_name": null,
    "office_name_kana": null
  },
  "1244": {
    "postcode": "6401244",
    "prefecture": "和歌山県",
    "prefecture_kana": "ワカヤマケン",
    "prefecture_code": 30,
    "city": "海草郡紀美野町",
    "city_kana": "カイソウグンキミノチョウ",
    "town": "福田",
    "town_kana": "フクダ",
    "street": null,
    "office_name": null,
    "office_name_kana": null
  },
  "1251": {
    "postcode": "6401251",
    "prefecture": "和歌山県",
    "prefecture_kana": "ワカヤマケン",
    "prefecture_code": 30,
    "city": "海草郡紀美野町",
    "city_kana": "カイソウグンキミノチョウ",
    "town": "国木原",
    "town_kana": "クニギハラ",
    "street": null,
    "office_name": null,
    "office_name_kana": null
  },
  "1252": {
    "postcode": "6401252",
    "prefecture": "和歌山県",
    "prefecture_kana": "ワカヤマケン",
    "prefecture_code": 30,
    "city": "海草郡紀美野町",
    "city_kana": "カイソウグンキミノチョウ",
    "town": "西野",
    "town_kana": "ニシノ",
    "street": null,
    "office_name": null,
    "office_name_kana": null
  },
  "1253": {
    "postcode": "6401253",
    "prefecture": "和歌山県",
    "prefecture_kana": "ワカヤマケン",
    "prefecture_code": 30,
    "city": "海草郡紀美野町",
    "city_kana": "カイソウグンキミノチョウ",
    "town": "東野",
    "town_kana": "ヒガシノ",
    "street": null,
    "office_name": null,
    "office_name_kana": null
  },
  "1254": {
    "postcode": "6401254",
    "prefecture": "和歌山県",
    "prefecture_kana": "ワカヤマケン",
    "prefecture_code": 30,
    "city": "海草郡紀美野町",
    "city_kana": "カイソウグンキミノチョウ",
    "town": "松瀬",
    "town_kana": "マツセ",
    "street": null,
    "office_name": null,
    "office_name_kana": null
  },
  "1255": {
    "postcode": "6401255",
    "prefecture": "和歌山県",
    "prefecture_kana": "ワカヤマケン",
    "prefecture_code": 30,
    "city": "海草郡紀美野町",
    "city_kana": "カイソウグンキミノチョウ",
    "town": "釜滝",
    "town_kana": "カマタキ",
    "street": null,
    "office_name": null,
    "office_name_kana": null
  },
  "1331": {
    "postcode": "6401331",
    "prefecture": "和歌山県",
    "prefecture_kana": "ワカヤマケン",
    "prefecture_code": 30,
    "city": "紀の川市",
    "city_kana": "キノカワシ",
    "town": "桃山町峯",
    "town_kana": "モモヤマチョウミネ",
    "street": null,
    "office_name": null,
    "office_name_kana": null
  },
  "1332": {
    "postcode": "6401332",
    "prefecture": "和歌山県",
    "prefecture_kana": "ワカヤマケン",
    "prefecture_code": 30,
    "city": "紀の川市",
    "city_kana": "キノカワシ",
    "town": "桃山町中畑",
    "town_kana": "モモヤマチョウナカハタ",
    "street": null,
    "office_name": null,
    "office_name_kana": null
  },
  "1333": {
    "postcode": "6401333",
    "prefecture": "和歌山県",
    "prefecture_kana": "ワカヤマケン",
    "prefecture_code": 30,
    "city": "紀の川市",
    "city_kana": "キノカワシ",
    "town": "桃山町垣内",
    "town_kana": "モモヤマチョウカイト",
    "street": null,
    "office_name": null,
    "office_name_kana": null
  },
  "1351": {
    "postcode": "6401351",
    "prefecture": "和歌山県",
    "prefecture_kana": "ワカヤマケン",
    "prefecture_code": 30,
    "city": "海草郡紀美野町",
    "city_kana": "カイソウグンキミノチョウ",
    "town": "勝谷",
    "town_kana": "カチヤ",
    "street": null,
    "office_name": null,
    "office_name_kana": null
  },
  "1352": {
    "postcode": "6401352",
    "prefecture": "和歌山県",
    "prefecture_kana": "ワカヤマケン",
    "prefecture_code": 30,
    "city": "海草郡紀美野町",
    "city_kana": "カイソウグンキミノチョウ",
    "town": "谷",
    "town_kana": "タニ",
    "street": null,
    "office_name": null,
    "office_name_kana": null
  },
  "1353": {
    "postcode": "6401353",
    "prefecture": "和歌山県",
    "prefecture_kana": "ワカヤマケン",
    "prefecture_code": 30,
    "city": "海草郡紀美野町",
    "city_kana": "カイソウグンキミノチョウ",
    "town": "円明寺",
    "town_kana": "エンミョウジ",
    "street": null,
    "office_name": null,
    "office_name_kana": null
  },
  "1354": {
    "postcode": "6401354",
    "prefecture": "和歌山県",
    "prefecture_kana": "ワカヤマケン",
    "prefecture_code": 30,
    "city": "海草郡紀美野町",
    "city_kana": "カイソウグンキミノチョウ",
    "town": "四郷",
    "town_kana": "ヨゴウ",
    "street": null,
    "office_name": null,
    "office_name_kana": null
  },
  "1361": {
    "postcode": "6401361",
    "prefecture": "和歌山県",
    "prefecture_kana": "ワカヤマケン",
    "prefecture_code": 30,
    "city": "海草郡紀美野町",
    "city_kana": "カイソウグンキミノチョウ",
    "town": "中",
    "town_kana": "ナカ",
    "street": null,
    "office_name": null,
    "office_name_kana": null
  },
  "1362": {
    "postcode": "6401362",
    "prefecture": "和歌山県",
    "prefecture_kana": "ワカヤマケン",
    "prefecture_code": 30,
    "city": "海草郡紀美野町",
    "city_kana": "カイソウグンキミノチョウ",
    "town": "滝ノ川",
    "town_kana": "タキノガワ",
    "street": null,
    "office_name": null,
    "office_name_kana": null
  },
  "1363": {
    "postcode": "6401363",
    "prefecture": "和歌山県",
    "prefecture_kana": "ワカヤマケン",
    "prefecture_code": 30,
    "city": "海草郡紀美野町",
    "city_kana": "カイソウグンキミノチョウ",
    "town": "田",
    "town_kana": "タ",
    "street": null,
    "office_name": null,
    "office_name_kana": null
  },
  "1364": {
    "postcode": "6401364",
    "prefecture": "和歌山県",
    "prefecture_kana": "ワカヤマケン",
    "prefecture_code": 30,
    "city": "海草郡紀美野町",
    "city_kana": "カイソウグンキミノチョウ",
    "town": "菅沢",
    "town_kana": "スゲザワ",
    "street": null,
    "office_name": null,
    "office_name_kana": null
  },
  "1365": {
    "postcode": "6401365",
    "prefecture": "和歌山県",
    "prefecture_kana": "ワカヤマケン",
    "prefecture_code": 30,
    "city": "海草郡紀美野町",
    "city_kana": "カイソウグンキミノチョウ",
    "town": "今西",
    "town_kana": "イマニシ",
    "street": null,
    "office_name": null,
    "office_name_kana": null
  },
  "1366": {
    "postcode": "6401366",
    "prefecture": "和歌山県",
    "prefecture_kana": "ワカヤマケン",
    "prefecture_code": 30,
    "city": "海草郡紀美野町",
    "city_kana": "カイソウグンキミノチョウ",
    "town": "松ケ峯",
    "town_kana": "マツガミネ",
    "street": null,
    "office_name": null,
    "office_name_kana": null
  },
  "1471": {
    "postcode": "6401471",
    "prefecture": "和歌山県",
    "prefecture_kana": "ワカヤマケン",
    "prefecture_code": 30,
    "city": "海草郡紀美野町",
    "city_kana": "カイソウグンキミノチョウ",
    "town": "長谷宮",
    "town_kana": "ハセミヤ",
    "street": null,
    "office_name": null,
    "office_name_kana": null
  },
  "1472": {
    "postcode": "6401472",
    "prefecture": "和歌山県",
    "prefecture_kana": "ワカヤマケン",
    "prefecture_code": 30,
    "city": "海草郡紀美野町",
    "city_kana": "カイソウグンキミノチョウ",
    "town": "毛原上",
    "town_kana": "ケバラカミ",
    "street": null,
    "office_name": null,
    "office_name_kana": null
  },
  "1473": {
    "postcode": "6401473",
    "prefecture": "和歌山県",
    "prefecture_kana": "ワカヤマケン",
    "prefecture_code": 30,
    "city": "海草郡紀美野町",
    "city_kana": "カイソウグンキミノチョウ",
    "town": "毛原宮",
    "town_kana": "ケバラミヤ",
    "street": null,
    "office_name": null,
    "office_name_kana": null
  },
  "1474": {
    "postcode": "6401474",
    "prefecture": "和歌山県",
    "prefecture_kana": "ワカヤマケン",
    "prefecture_code": 30,
    "city": "海草郡紀美野町",
    "city_kana": "カイソウグンキミノチョウ",
    "town": "毛原中",
    "town_kana": "ケバラナカ",
    "street": null,
    "office_name": null,
    "office_name_kana": null
  },
  "1475": {
    "postcode": "6401475",
    "prefecture": "和歌山県",
    "prefecture_kana": "ワカヤマケン",
    "prefecture_code": 30,
    "city": "海草郡紀美野町",
    "city_kana": "カイソウグンキミノチョウ",
    "town": "小西",
    "town_kana": "コニシ",
    "street": null,
    "office_name": null,
    "office_name_kana": null
  },
  "1476": {
    "postcode": "6401476",
    "prefecture": "和歌山県",
    "prefecture_kana": "ワカヤマケン",
    "prefecture_code": 30,
    "city": "海草郡紀美野町",
    "city_kana": "カイソウグンキミノチョウ",
    "town": "毛原下",
    "town_kana": "ケバラシモ",
    "street": null,
    "office_name": null,
    "office_name_kana": null
  },
  "1481": {
    "postcode": "6401481",
    "prefecture": "和歌山県",
    "prefecture_kana": "ワカヤマケン",
    "prefecture_code": 30,
    "city": "伊都郡かつらぎ町",
    "city_kana": "イトグンカツラギチョウ",
    "town": "新城",
    "town_kana": "シンジョウ",
    "street": null,
    "office_name": null,
    "office_name_kana": null
  },
  "8001": {
    "postcode": "6408001",
    "prefecture": "和歌山県",
    "prefecture_kana": "ワカヤマケン",
    "prefecture_code": 30,
    "city": "和歌山市",
    "city_kana": "ワカヤマシ",
    "town": "北新七軒丁",
    "town_kana": "キタシンシチケンチョウ",
    "street": null,
    "office_name": null,
    "office_name_kana": null
  },
  "8002": {
    "postcode": "6408002",
    "prefecture": "和歌山県",
    "prefecture_kana": "ワカヤマケン",
    "prefecture_code": 30,
    "city": "和歌山市",
    "city_kana": "ワカヤマシ",
    "town": "北新",
    "town_kana": "キタシン",
    "street": null,
    "office_name": null,
    "office_name_kana": null
  },
  "8003": {
    "postcode": "6408003",
    "prefecture": "和歌山県",
    "prefecture_kana": "ワカヤマケン",
    "prefecture_code": 30,
    "city": "和歌山市",
    "city_kana": "ワカヤマシ",
    "town": "北新博労町",
    "town_kana": "キタシンバクロウマチ",
    "street": null,
    "office_name": null,
    "office_name_kana": null
  },
  "8004": {
    "postcode": "6408004",
    "prefecture": "和歌山県",
    "prefecture_kana": "ワカヤマケン",
    "prefecture_code": 30,
    "city": "和歌山市",
    "city_kana": "ワカヤマシ",
    "town": "東旅籠町",
    "town_kana": "ヒガシハタゴマチ",
    "street": null,
    "office_name": null,
    "office_name_kana": null
  },
  "8005": {
    "postcode": "6408005",
    "prefecture": "和歌山県",
    "prefecture_kana": "ワカヤマケン",
    "prefecture_code": 30,
    "city": "和歌山市",
    "city_kana": "ワカヤマシ",
    "town": "元寺町南ノ丁",
    "town_kana": "モトデラマチミナミノチョウ",
    "street": null,
    "office_name": null,
    "office_name_kana": null
  },
  "8006": {
    "postcode": "6408006",
    "prefecture": "和歌山県",
    "prefecture_kana": "ワカヤマケン",
    "prefecture_code": 30,
    "city": "和歌山市",
    "city_kana": "ワカヤマシ",
    "town": "元寺町東ノ丁",
    "town_kana": "モトデラマチヒガシノチョウ",
    "street": null,
    "office_name": null,
    "office_name_kana": null
  },
  "8007": {
    "postcode": "6408007",
    "prefecture": "和歌山県",
    "prefecture_kana": "ワカヤマケン",
    "prefecture_code": 30,
    "city": "和歌山市",
    "city_kana": "ワカヤマシ",
    "town": "元寺町西ノ丁",
    "town_kana": "モトデラマチニシノチョウ",
    "street": null,
    "office_name": null,
    "office_name_kana": null
  },
  "8008": {
    "postcode": "6408008",
    "prefecture": "和歌山県",
    "prefecture_kana": "ワカヤマケン",
    "prefecture_code": 30,
    "city": "和歌山市",
    "city_kana": "ワカヤマシ",
    "town": "元寺町北ノ丁",
    "town_kana": "モトデラマチキタノチョウ",
    "street": null,
    "office_name": null,
    "office_name_kana": null
  },
  "8009": {
    "postcode": "6408009",
    "prefecture": "和歌山県",
    "prefecture_kana": "ワカヤマケン",
    "prefecture_code": 30,
    "city": "和歌山市",
    "city_kana": "ワカヤマシ",
    "town": "鍋屋町",
    "town_kana": "ナベヤマチ",
    "street": null,
    "office_name": null,
    "office_name_kana": null
  },
  "8011": {
    "postcode": "6408011",
    "prefecture": "和歌山県",
    "prefecture_kana": "ワカヤマケン",
    "prefecture_code": 30,
    "city": "和歌山市",
    "city_kana": "ワカヤマシ",
    "town": "北新元金屋丁",
    "town_kana": "キタシンモトカナヤチョウ",
    "street": null,
    "office_name": null,
    "office_name_kana": null
  },
  "8012": {
    "postcode": "6408012",
    "prefecture": "和歌山県",
    "prefecture_kana": "ワカヤマケン",
    "prefecture_code": 30,
    "city": "和歌山市",
    "city_kana": "ワカヤマシ",
    "town": "北新金屋丁",
    "town_kana": "キタシンカナヤチョウ",
    "street": null,
    "office_name": null,
    "office_name_kana": null
  },
  "8013": {
    "postcode": "6408013",
    "prefecture": "和歌山県",
    "prefecture_kana": "ワカヤマケン",
    "prefecture_code": 30,
    "city": "和歌山市",
    "city_kana": "ワカヤマシ",
    "town": "東仲間町",
    "town_kana": "ヒガシチュウゲンマチ",
    "street": null,
    "office_name": null,
    "office_name_kana": null
  },
  "8014": {
    "postcode": "6408014",
    "prefecture": "和歌山県",
    "prefecture_kana": "ワカヤマケン",
    "prefecture_code": 30,
    "city": "和歌山市",
    "city_kana": "ワカヤマシ",
    "town": "西仲間町",
    "town_kana": "ニシチュウゲンマチ",
    "street": null,
    "office_name": null,
    "office_name_kana": null
  },
  "8015": {
    "postcode": "6408015",
    "prefecture": "和歌山県",
    "prefecture_kana": "ワカヤマケン",
    "prefecture_code": 30,
    "city": "和歌山市",
    "city_kana": "ワカヤマシ",
    "town": "北新桶屋町",
    "town_kana": "キタシンオケヤマチ",
    "street": null,
    "office_name": null,
    "office_name_kana": null
  },
  "8016": {
    "postcode": "6408016",
    "prefecture": "和歌山県",
    "prefecture_kana": "ワカヤマケン",
    "prefecture_code": 30,
    "city": "和歌山市",
    "city_kana": "ワカヤマシ",
    "town": "北新中ノ丁",
    "town_kana": "キタシンナカノチョウ",
    "street": null,
    "office_name": null,
    "office_name_kana": null
  },
  "8017": {
    "postcode": "6408017",
    "prefecture": "和歌山県",
    "prefecture_kana": "ワカヤマケン",
    "prefecture_code": 30,
    "city": "和歌山市",
    "city_kana": "ワカヤマシ",
    "town": "北新戎ノ丁",
    "town_kana": "キタシンエビスノチョウ",
    "street": null,
    "office_name": null,
    "office_name_kana": null
  },
  "8020": {
    "postcode": "6408020",
    "prefecture": "和歌山県",
    "prefecture_kana": "ワカヤマケン",
    "prefecture_code": 30,
    "city": "和歌山市",
    "city_kana": "ワカヤマシ",
    "town": "北桶屋町",
    "town_kana": "キタオケヤマチ",
    "street": null,
    "office_name": null,
    "office_name_kana": null
  },
  "8021": {
    "postcode": "6408021",
    "prefecture": "和歌山県",
    "prefecture_kana": "ワカヤマケン",
    "prefecture_code": 30,
    "city": "和歌山市",
    "city_kana": "ワカヤマシ",
    "town": "西旅籠町",
    "town_kana": "ニシハタゴマチ",
    "street": null,
    "office_name": null,
    "office_name_kana": null
  },
  "8022": {
    "postcode": "6408022",
    "prefecture": "和歌山県",
    "prefecture_kana": "ワカヤマケン",
    "prefecture_code": 30,
    "city": "和歌山市",
    "city_kana": "ワカヤマシ",
    "town": "住吉町",
    "town_kana": "スミヨシマチ",
    "street": null,
    "office_name": null,
    "office_name_kana": null
  },
  "8023": {
    "postcode": "6408023",
    "prefecture": "和歌山県",
    "prefecture_kana": "ワカヤマケン",
    "prefecture_code": 30,
    "city": "和歌山市",
    "city_kana": "ワカヤマシ",
    "town": "中ノ店北ノ丁",
    "town_kana": "ナカノタナキタノチョウ",
    "street": null,
    "office_name": null,
    "office_name_kana": null
  },
  "8024": {
    "postcode": "6408024",
    "prefecture": "和歌山県",
    "prefecture_kana": "ワカヤマケン",
    "prefecture_code": 30,
    "city": "和歌山市",
    "city_kana": "ワカヤマシ",
    "town": "元寺町",
    "town_kana": "モトデラマチ",
    "street": null,
    "office_name": null,
    "office_name_kana": null
  },
  "8025": {
    "postcode": "6408025",
    "prefecture": "和歌山県",
    "prefecture_kana": "ワカヤマケン",
    "prefecture_code": 30,
    "city": "和歌山市",
    "city_kana": "ワカヤマシ",
    "town": "中ノ店中ノ丁",
    "town_kana": "ナカノタナナカノチョウ",
    "street": null,
    "office_name": null,
    "office_name_kana": null
  },
  "8026": {
    "postcode": "6408026",
    "prefecture": "和歌山県",
    "prefecture_kana": "ワカヤマケン",
    "prefecture_code": 30,
    "city": "和歌山市",
    "city_kana": "ワカヤマシ",
    "town": "中ノ店南ノ丁",
    "town_kana": "ナカノタナミナミノチョウ",
    "street": null,
    "office_name": null,
    "office_name_kana": null
  },
  "8027": {
    "postcode": "6408027",
    "prefecture": "和歌山県",
    "prefecture_kana": "ワカヤマケン",
    "prefecture_code": 30,
    "city": "和歌山市",
    "city_kana": "ワカヤマシ",
    "town": "米屋町",
    "town_kana": "コメヤマチ",
    "street": null,
    "office_name": null,
    "office_name_kana": null
  },
  "8028": {
    "postcode": "6408028",
    "prefecture": "和歌山県",
    "prefecture_kana": "ワカヤマケン",
    "prefecture_code": 30,
    "city": "和歌山市",
    "city_kana": "ワカヤマシ",
    "town": "匠町",
    "town_kana": "タクミマチ",
    "street": null,
    "office_name": null,
    "office_name_kana": null
  },
  "8029": {
    "postcode": "6408029",
    "prefecture": "和歌山県",
    "prefecture_kana": "ワカヤマケン",
    "prefecture_code": 30,
    "city": "和歌山市",
    "city_kana": "ワカヤマシ",
    "town": "南桶屋町",
    "town_kana": "ミナミオケヤマチ",
    "street": null,
    "office_name": null,
    "office_name_kana": null
  },
  "8031": {
    "postcode": "6408031",
    "prefecture": "和歌山県",
    "prefecture_kana": "ワカヤマケン",
    "prefecture_code": 30,
    "city": "和歌山市",
    "city_kana": "ワカヤマシ",
    "town": "北大工町",
    "town_kana": "キタダイクマチ",
    "street": null,
    "office_name": null,
    "office_name_kana": null
  },
  "8032": {
    "postcode": "6408032",
    "prefecture": "和歌山県",
    "prefecture_kana": "ワカヤマケン",
    "prefecture_code": 30,
    "city": "和歌山市",
    "city_kana": "ワカヤマシ",
    "town": "南大工町",
    "town_kana": "ミナミダイクマチ",
    "street": null,
    "office_name": null,
    "office_name_kana": null
  },
  "8033": {
    "postcode": "6408033",
    "prefecture": "和歌山県",
    "prefecture_kana": "ワカヤマケン",
    "prefecture_code": 30,
    "city": "和歌山市",
    "city_kana": "ワカヤマシ",
    "town": "本町",
    "town_kana": "ホンマチ",
    "street": null,
    "office_name": null,
    "office_name_kana": null
  },
  "8034": {
    "postcode": "6408034",
    "prefecture": "和歌山県",
    "prefecture_kana": "ワカヤマケン",
    "prefecture_code": 30,
    "city": "和歌山市",
    "city_kana": "ワカヤマシ",
    "town": "駿河町",
    "town_kana": "スルガマチ",
    "street": null,
    "office_name": null,
    "office_name_kana": null
  },
  "8035": {
    "postcode": "6408035",
    "prefecture": "和歌山県",
    "prefecture_kana": "ワカヤマケン",
    "prefecture_code": 30,
    "city": "和歌山市",
    "city_kana": "ワカヤマシ",
    "town": "万町",
    "town_kana": "ヨロズマチ",
    "street": null,
    "office_name": null,
    "office_name_kana": null
  },
  "8036": {
    "postcode": "6408036",
    "prefecture": "和歌山県",
    "prefecture_kana": "ワカヤマケン",
    "prefecture_code": 30,
    "city": "和歌山市",
    "city_kana": "ワカヤマシ",
    "town": "東鍛冶屋町",
    "town_kana": "ヒガシカジヤマチ",
    "street": null,
    "office_name": null,
    "office_name_kana": null
  },
  "8037": {
    "postcode": "6408037",
    "prefecture": "和歌山県",
    "prefecture_kana": "ワカヤマケン",
    "prefecture_code": 30,
    "city": "和歌山市",
    "city_kana": "ワカヤマシ",
    "town": "西大工町",
    "town_kana": "ニシダイクマチ",
    "street": null,
    "office_name": null,
    "office_name_kana": null
  },
  "8038": {
    "postcode": "6408038",
    "prefecture": "和歌山県",
    "prefecture_kana": "ワカヤマケン",
    "prefecture_code": 30,
    "city": "和歌山市",
    "city_kana": "ワカヤマシ",
    "town": "北町",
    "town_kana": "キタマチ",
    "street": null,
    "office_name": null,
    "office_name_kana": null
  },
  "8039": {
    "postcode": "6408039",
    "prefecture": "和歌山県",
    "prefecture_kana": "ワカヤマケン",
    "prefecture_code": 30,
    "city": "和歌山市",
    "city_kana": "ワカヤマシ",
    "town": "宇治袋町",
    "town_kana": "ウジフクロマチ",
    "street": null,
    "office_name": null,
    "office_name_kana": null
  },
  "8041": {
    "postcode": "6408041",
    "prefecture": "和歌山県",
    "prefecture_kana": "ワカヤマケン",
    "prefecture_code": 30,
    "city": "和歌山市",
    "city_kana": "ワカヤマシ",
    "town": "専光寺門前丁",
    "town_kana": "センコウジモンゼンチョウ",
    "street": null,
    "office_name": null,
    "office_name_kana": null
  },
  "8042": {
    "postcode": "6408042",
    "prefecture": "和歌山県",
    "prefecture_kana": "ワカヤマケン",
    "prefecture_code": 30,
    "city": "和歌山市",
    "city_kana": "ワカヤマシ",
    "town": "西ノ店",
    "town_kana": "ニシノタナ",
    "street": null,
    "office_name": null,
    "office_name_kana": null
  },
  "8043": {
    "postcode": "6408043",
    "prefecture": "和歌山県",
    "prefecture_kana": "ワカヤマケン",
    "prefecture_code": 30,
    "city": "和歌山市",
    "city_kana": "ワカヤマシ",
    "town": "福町",
    "town_kana": "フクマチ",
    "street": null,
    "office_name": null,
    "office_name_kana": null
  },
  "8044": {
    "postcode": "6408044",
    "prefecture": "和歌山県",
    "prefecture_kana": "ワカヤマケン",
    "prefecture_code": 30,
    "city": "和歌山市",
    "city_kana": "ワカヤマシ",
    "town": "板屋町",
    "town_kana": "イタヤマチ",
    "street": null,
    "office_name": null,
    "office_name_kana": null
  },
  "8045": {
    "postcode": "6408045",
    "prefecture": "和歌山県",
    "prefecture_kana": "ワカヤマケン",
    "prefecture_code": 30,
    "city": "和歌山市",
    "city_kana": "ワカヤマシ",
    "town": "卜半町",
    "town_kana": "ボクハンマチ",
    "street": null,
    "office_name": null,
    "office_name_kana": null
  },
  "8046": {
    "postcode": "6408046",
    "prefecture": "和歌山県",
    "prefecture_kana": "ワカヤマケン",
    "prefecture_code": 30,
    "city": "和歌山市",
    "city_kana": "ワカヤマシ",
    "town": "西鍛冶屋町",
    "town_kana": "ニシカジヤマチ",
    "street": null,
    "office_name": null,
    "office_name_kana": null
  },
  "8047": {
    "postcode": "6408047",
    "prefecture": "和歌山県",
    "prefecture_kana": "ワカヤマケン",
    "prefecture_code": 30,
    "city": "和歌山市",
    "city_kana": "ワカヤマシ",
    "town": "鷺ノ森南ノ丁",
    "town_kana": "サギノモリミナミノチョウ",
    "street": null,
    "office_name": null,
    "office_name_kana": null
  },
  "8051": {
    "postcode": "6408051",
    "prefecture": "和歌山県",
    "prefecture_kana": "ワカヤマケン",
    "prefecture_code": 30,
    "city": "和歌山市",
    "city_kana": "ワカヤマシ",
    "town": "鷺ノ森東ノ丁",
    "town_kana": "サギノモリヒガシノチョウ",
    "street": null,
    "office_name": null,
    "office_name_kana": null
  },
  "8052": {
    "postcode": "6408052",
    "prefecture": "和歌山県",
    "prefecture_kana": "ワカヤマケン",
    "prefecture_code": 30,
    "city": "和歌山市",
    "city_kana": "ワカヤマシ",
    "town": "鷺ノ森堂前丁",
    "town_kana": "サギノモリドウマエチョウ",
    "street": null,
    "office_name": null,
    "office_name_kana": null
  },
  "8053": {
    "postcode": "6408053",
    "prefecture": "和歌山県",
    "prefecture_kana": "ワカヤマケン",
    "prefecture_code": 30,
    "city": "和歌山市",
    "city_kana": "ワカヤマシ",
    "town": "鷺ノ森",
    "town_kana": "サギノモリ",
    "street": null,
    "office_name": null,
    "office_name_kana": null
  },
  "8054": {
    "postcode": "6408054",
    "prefecture": "和歌山県",
    "prefecture_kana": "ワカヤマケン",
    "prefecture_code": 30,
    "city": "和歌山市",
    "city_kana": "ワカヤマシ",
    "town": "鷺ノ森片町",
    "town_kana": "サギノモリカタマチ",
    "street": null,
    "office_name": null,
    "office_name_kana": null
  },
  "8055": {
    "postcode": "6408055",
    "prefecture": "和歌山県",
    "prefecture_kana": "ワカヤマケン",
    "prefecture_code": 30,
    "city": "和歌山市",
    "city_kana": "ワカヤマシ",
    "town": "九家ノ丁",
    "town_kana": "クケノチョウ",
    "street": null,
    "office_name": null,
    "office_name_kana": null
  },
  "8056": {
    "postcode": "6408056",
    "prefecture": "和歌山県",
    "prefecture_kana": "ワカヤマケン",
    "prefecture_code": 30,
    "city": "和歌山市",
    "city_kana": "ワカヤマシ",
    "town": "鷺ノ森西ノ丁",
    "town_kana": "サギノモリニシノチョウ",
    "street": null,
    "office_name": null,
    "office_name_kana": null
  },
  "8057": {
    "postcode": "6408057",
    "prefecture": "和歌山県",
    "prefecture_kana": "ワカヤマケン",
    "prefecture_code": 30,
    "city": "和歌山市",
    "city_kana": "ワカヤマシ",
    "town": "鷺ノ森新道",
    "town_kana": "サギノモリシンミチ",
    "street": null,
    "office_name": null,
    "office_name_kana": null
  },
  "8058": {
    "postcode": "6408058",
    "prefecture": "和歌山県",
    "prefecture_kana": "ワカヤマケン",
    "prefecture_code": 30,
    "city": "和歌山市",
    "city_kana": "ワカヤマシ",
    "town": "鷺ノ森中ノ丁",
    "town_kana": "サギノモリナカノチョウ",
    "street": null,
    "office_name": null,
    "office_name_kana": null
  },
  "8059": {
    "postcode": "6408059",
    "prefecture": "和歌山県",
    "prefecture_kana": "ワカヤマケン",
    "prefecture_code": 30,
    "city": "和歌山市",
    "city_kana": "ワカヤマシ",
    "town": "鷺ノ森明神丁",
    "town_kana": "サギノモリミョウジンチョウ",
    "street": null,
    "office_name": null,
    "office_name_kana": null
  },
  "8060": {
    "postcode": "6408060",
    "prefecture": "和歌山県",
    "prefecture_kana": "ワカヤマケン",
    "prefecture_code": 30,
    "city": "和歌山市",
    "city_kana": "ワカヤマシ",
    "town": "四筋目",
    "town_kana": "ヨスジメ",
    "street": null,
    "office_name": null,
    "office_name_kana": null
  },
  "8061": {
    "postcode": "6408061",
    "prefecture": "和歌山県",
    "prefecture_kana": "ワカヤマケン",
    "prefecture_code": 30,
    "city": "和歌山市",
    "city_kana": "ワカヤマシ",
    "town": "畳屋町",
    "town_kana": "タタミヤマチ",
    "street": null,
    "office_name": null,
    "office_name_kana": null
  },
  "8062": {
    "postcode": "6408062",
    "prefecture": "和歌山県",
    "prefecture_kana": "ワカヤマケン",
    "prefecture_code": 30,
    "city": "和歌山市",
    "city_kana": "ワカヤマシ",
    "town": "北釘貫丁",
    "town_kana": "キタクギヌキチョウ",
    "street": null,
    "office_name": null,
    "office_name_kana": null
  },
  "8063": {
    "postcode": "6408063",
    "prefecture": "和歌山県",
    "prefecture_kana": "ワカヤマケン",
    "prefecture_code": 30,
    "city": "和歌山市",
    "city_kana": "ワカヤマシ",
    "town": "西釘貫丁",
    "town_kana": "ニシクギヌキチョウ",
    "street": null,
    "office_name": null,
    "office_name_kana": null
  },
  "8064": {
    "postcode": "6408064",
    "prefecture": "和歌山県",
    "prefecture_kana": "ワカヤマケン",
    "prefecture_code": 30,
    "city": "和歌山市",
    "city_kana": "ワカヤマシ",
    "town": "東釘貫丁",
    "town_kana": "ヒガシクギヌキチョウ",
    "street": null,
    "office_name": null,
    "office_name_kana": null
  },
  "8065": {
    "postcode": "6408065",
    "prefecture": "和歌山県",
    "prefecture_kana": "ワカヤマケン",
    "prefecture_code": 30,
    "city": "和歌山市",
    "city_kana": "ワカヤマシ",
    "town": "山吹丁",
    "town_kana": "ヤマブキチョウ",
    "street": null,
    "office_name": null,
    "office_name_kana": null
  },
  "8066": {
    "postcode": "6408066",
    "prefecture": "和歌山県",
    "prefecture_kana": "ワカヤマケン",
    "prefecture_code": 30,
    "city": "和歌山市",
    "city_kana": "ワカヤマシ",
    "town": "東布経丁",
    "town_kana": "ヒガシヌノエチョウ",
    "street": null,
    "office_name": null,
    "office_name_kana": null
  },
  "8067": {
    "postcode": "6408067",
    "prefecture": "和歌山県",
    "prefecture_kana": "ワカヤマケン",
    "prefecture_code": 30,
    "city": "和歌山市",
    "city_kana": "ワカヤマシ",
    "town": "一筋目",
    "town_kana": "ヒトスジメ",
    "street": null,
    "office_name": null,
    "office_name_kana": null
  },
  "8068": {
    "postcode": "6408068",
    "prefecture": "和歌山県",
    "prefecture_kana": "ワカヤマケン",
    "prefecture_code": 30,
    "city": "和歌山市",
    "city_kana": "ワカヤマシ",
    "town": "二筋目",
    "town_kana": "フタスジメ",
    "street": null,
    "office_name": null,
    "office_name_kana": null
  },
  "8069": {
    "postcode": "6408069",
    "prefecture": "和歌山県",
    "prefecture_kana": "ワカヤマケン",
    "prefecture_code": 30,
    "city": "和歌山市",
    "city_kana": "ワカヤマシ",
    "town": "三筋目",
    "town_kana": "ミスジメ",
    "street": null,
    "office_name": null,
    "office_name_kana": null
  },
  "8071": {
    "postcode": "6408071",
    "prefecture": "和歌山県",
    "prefecture_kana": "ワカヤマケン",
    "prefecture_code": 30,
    "city": "和歌山市",
    "city_kana": "ワカヤマシ",
    "town": "宇治薮下",
    "town_kana": "ウジヤブシタ",
    "street": null,
    "office_name": null,
    "office_name_kana": null
  },
  "8072": {
    "postcode": "6408072",
    "prefecture": "和歌山県",
    "prefecture_kana": "ワカヤマケン",
    "prefecture_code": 30,
    "city": "和歌山市",
    "city_kana": "ワカヤマシ",
    "town": "宇治家裏",
    "town_kana": "ウジヤウラ",
    "street": null,
    "office_name": null,
    "office_name_kana": null
  },
  "8073": {
    "postcode": "6408073",
    "prefecture": "和歌山県",
    "prefecture_kana": "ワカヤマケン",
    "prefecture_code": 30,
    "city": "和歌山市",
    "city_kana": "ワカヤマシ",
    "town": "嘉家作丁",
    "town_kana": "カケヅクリチョウ",
    "street": null,
    "office_name": null,
    "office_name_kana": null
  },
  "8074": {
    "postcode": "6408074",
    "prefecture": "和歌山県",
    "prefecture_kana": "ワカヤマケン",
    "prefecture_code": 30,
    "city": "和歌山市",
    "city_kana": "ワカヤマシ",
    "town": "新魚町",
    "town_kana": "シンギョマチ",
    "street": null,
    "office_name": null,
    "office_name_kana": null
  },
  "8075": {
    "postcode": "6408075",
    "prefecture": "和歌山県",
    "prefecture_kana": "ワカヤマケン",
    "prefecture_code": 30,
    "city": "和歌山市",
    "city_kana": "ワカヤマシ",
    "town": "源蔵馬場",
    "town_kana": "ゲンゾウババ",
    "street": null,
    "office_name": null,
    "office_name_kana": null
  },
  "8076": {
    "postcode": "6408076",
    "prefecture": "和歌山県",
    "prefecture_kana": "ワカヤマケン",
    "prefecture_code": 30,
    "city": "和歌山市",
    "city_kana": "ワカヤマシ",
    "town": "五筋目",
    "town_kana": "イツスジメ",
    "street": null,
    "office_name": null,
    "office_name_kana": null
  },
  "8077": {
    "postcode": "6408077",
    "prefecture": "和歌山県",
    "prefecture_kana": "ワカヤマケン",
    "prefecture_code": 30,
    "city": "和歌山市",
    "city_kana": "ワカヤマシ",
    "town": "六筋目",
    "town_kana": "ムスジメ",
    "street": null,
    "office_name": null,
    "office_name_kana": null
  },
  "8078": {
    "postcode": "6408078",
    "prefecture": "和歌山県",
    "prefecture_kana": "ワカヤマケン",
    "prefecture_code": 30,
    "city": "和歌山市",
    "city_kana": "ワカヤマシ",
    "town": "宇治鉄砲場",
    "town_kana": "ウジテッポウバ",
    "street": null,
    "office_name": null,
    "office_name_kana": null
  },
  "8101": {
    "postcode": "6408101",
    "prefecture": "和歌山県",
    "prefecture_kana": "ワカヤマケン",
    "prefecture_code": 30,
    "city": "和歌山市",
    "city_kana": "ワカヤマシ",
    "town": "新雑賀町",
    "town_kana": "シンサイカマチ",
    "street": null,
    "office_name": null,
    "office_name_kana": null
  },
  "8102": {
    "postcode": "6408102",
    "prefecture": "和歌山県",
    "prefecture_kana": "ワカヤマケン",
    "prefecture_code": 30,
    "city": "和歌山市",
    "city_kana": "ワカヤマシ",
    "town": "南雑賀町",
    "town_kana": "ミナミサイカマチ",
    "street": null,
    "office_name": null,
    "office_name_kana": null
  },
  "8103": {
    "postcode": "6408103",
    "prefecture": "和歌山県",
    "prefecture_kana": "ワカヤマケン",
    "prefecture_code": 30,
    "city": "和歌山市",
    "city_kana": "ワカヤマシ",
    "town": "北休賀町",
    "town_kana": "キタキュウカマチ",
    "street": null,
    "office_name": null,
    "office_name_kana": null
  },
  "8104": {
    "postcode": "6408104",
    "prefecture": "和歌山県",
    "prefecture_kana": "ワカヤマケン",
    "prefecture_code": 30,
    "city": "和歌山市",
    "city_kana": "ワカヤマシ",
    "town": "南休賀町",
    "town_kana": "ミナミキュウカマチ",
    "street": null,
    "office_name": null,
    "office_name_kana": null
  },
  "8105": {
    "postcode": "6408105",
    "prefecture": "和歌山県",
    "prefecture_kana": "ワカヤマケン",
    "prefecture_code": 30,
    "city": "和歌山市",
    "city_kana": "ワカヤマシ",
    "town": "三木町南ノ丁",
    "town_kana": "ミキマチミナミノチョウ",
    "street": null,
    "office_name": null,
    "office_name_kana": null
  },
  "8106": {
    "postcode": "6408106",
    "prefecture": "和歌山県",
    "prefecture_kana": "ワカヤマケン",
    "prefecture_code": 30,
    "city": "和歌山市",
    "city_kana": "ワカヤマシ",
    "town": "三木町中ノ丁",
    "town_kana": "ミキマチナカノチョウ",
    "street": null,
    "office_name": null,
    "office_name_kana": null
  },
  "8107": {
    "postcode": "6408107",
    "prefecture": "和歌山県",
    "prefecture_kana": "ワカヤマケン",
    "prefecture_code": 30,
    "city": "和歌山市",
    "city_kana": "ワカヤマシ",
    "town": "三木町堀詰",
    "town_kana": "ミキマチホリヅメ",
    "street": null,
    "office_name": null,
    "office_name_kana": null
  },
  "8108": {
    "postcode": "6408108",
    "prefecture": "和歌山県",
    "prefecture_kana": "ワカヤマケン",
    "prefecture_code": 30,
    "city": "和歌山市",
    "city_kana": "ワカヤマシ",
    "town": "雑賀町",
    "town_kana": "サイカマチ",
    "street": null,
    "office_name": null,
    "office_name_kana": null
  },
  "8111": {
    "postcode": "6408111",
    "prefecture": "和歌山県",
    "prefecture_kana": "ワカヤマケン",
    "prefecture_code": 30,
    "city": "和歌山市",
    "city_kana": "ワカヤマシ",
    "town": "新通",
    "town_kana": "シントオリ",
    "street": null,
    "office_name": null,
    "office_name_kana": null
  },
  "8112": {
    "postcode": "6408112",
    "prefecture": "和歌山県",
    "prefecture_kana": "ワカヤマケン",
    "prefecture_code": 30,
    "city": "和歌山市",
    "city_kana": "ワカヤマシ",
    "town": "南材木丁",
    "town_kana": "ミナミザイモクチョウ",
    "street": null,
    "office_name": null,
    "office_name_kana": null
  },
  "8113": {
    "postcode": "6408113",
    "prefecture": "和歌山県",
    "prefecture_kana": "ワカヤマケン",
    "prefecture_code": 30,
    "city": "和歌山市",
    "city_kana": "ワカヤマシ",
    "town": "広瀬通丁",
    "town_kana": "ヒロセトオリチョウ",
    "street": null,
    "office_name": null,
    "office_name_kana": null
  },
  "8114": {
    "postcode": "6408114",
    "prefecture": "和歌山県",
    "prefecture_kana": "ワカヤマケン",
    "prefecture_code": 30,
    "city": "和歌山市",
    "city_kana": "ワカヤマシ",
    "town": "船場町",
    "town_kana": "センバチョウ",
    "street": null,
    "office_name": null,
    "office_name_kana": null
  },
  "8115": {
    "postcode": "6408115",
    "prefecture": "和歌山県",
    "prefecture_kana": "ワカヤマケン",
    "prefecture_code": 30,
    "city": "和歌山市",
    "city_kana": "ワカヤマシ",
    "town": "東紺屋町",
    "town_kana": "ヒガシコンヤマチ",
    "street": null,
    "office_name": null,
    "office_name_kana": null
  },
  "8116": {
    "postcode": "6408116",
    "prefecture": "和歌山県",
    "prefecture_kana": "ワカヤマケン",
    "prefecture_code": 30,
    "city": "和歌山市",
    "city_kana": "ワカヤマシ",
    "town": "西紺屋町",
    "town_kana": "ニシコンヤマチ",
    "street": null,
    "office_name": null,
    "office_name_kana": null
  },
  "8117": {
    "postcode": "6408117",
    "prefecture": "和歌山県",
    "prefecture_kana": "ワカヤマケン",
    "prefecture_code": 30,
    "city": "和歌山市",
    "city_kana": "ワカヤマシ",
    "town": "南細工町",
    "town_kana": "ミナミサイクマチ",
    "street": null,
    "office_name": null,
    "office_name_kana": null
  },
  "8118": {
    "postcode": "6408118",
    "prefecture": "和歌山県",
    "prefecture_kana": "ワカヤマケン",
    "prefecture_code": 30,
    "city": "和歌山市",
    "city_kana": "ワカヤマシ",
    "town": "北細工町",
    "town_kana": "キタサイクマチ",
    "street": null,
    "office_name": null,
    "office_name_kana": null
  },
  "8119": {
    "postcode": "6408119",
    "prefecture": "和歌山県",
    "prefecture_kana": "ワカヤマケン",
    "prefecture_code": 30,
    "city": "和歌山市",
    "city_kana": "ワカヤマシ",
    "town": "和歌町",
    "town_kana": "ワカマチ",
    "street": null,
    "office_name": null,
    "office_name_kana": null
  },
  "8121": {
    "postcode": "6408121",
    "prefecture": "和歌山県",
    "prefecture_kana": "ワカヤマケン",
    "prefecture_code": 30,
    "city": "和歌山市",
    "city_kana": "ワカヤマシ",
    "town": "雑賀道",
    "town_kana": "サイカミチ",
    "street": null,
    "office_name": null,
    "office_name_kana": null
  },
  "8122": {
    "postcode": "6408122",
    "prefecture": "和歌山県",
    "prefecture_kana": "ワカヤマケン",
    "prefecture_code": 30,
    "city": "和歌山市",
    "city_kana": "ワカヤマシ",
    "town": "汐見町",
    "town_kana": "シオミチョウ",
    "street": null,
    "office_name": null,
    "office_name_kana": null
  },
  "8123": {
    "postcode": "6408123",
    "prefecture": "和歌山県",
    "prefecture_kana": "ワカヤマケン",
    "prefecture_code": 30,
    "city": "和歌山市",
    "city_kana": "ワカヤマシ",
    "town": "三沢町",
    "town_kana": "ミサワチョウ",
    "street": null,
    "office_name": null,
    "office_name_kana": null
  },
  "8124": {
    "postcode": "6408124",
    "prefecture": "和歌山県",
    "prefecture_kana": "ワカヤマケン",
    "prefecture_code": 30,
    "city": "和歌山市",
    "city_kana": "ワカヤマシ",
    "town": "雄松町",
    "town_kana": "オマツチョウ",
    "street": null,
    "office_name": null,
    "office_name_kana": null
  },
  "8125": {
    "postcode": "6408125",
    "prefecture": "和歌山県",
    "prefecture_kana": "ワカヤマケン",
    "prefecture_code": 30,
    "city": "和歌山市",
    "city_kana": "ワカヤマシ",
    "town": "島崎町",
    "town_kana": "シマザキチョウ",
    "street": null,
    "office_name": null,
    "office_name_kana": null
  },
  "8126": {
    "postcode": "6408126",
    "prefecture": "和歌山県",
    "prefecture_kana": "ワカヤマケン",
    "prefecture_code": 30,
    "city": "和歌山市",
    "city_kana": "ワカヤマシ",
    "town": "南片原",
    "town_kana": "ミナミカタハラ",
    "street": null,
    "office_name": null,
    "office_name_kana": null
  },
  "8127": {
    "postcode": "6408127",
    "prefecture": "和歌山県",
    "prefecture_kana": "ワカヤマケン",
    "prefecture_code": 30,
    "city": "和歌山市",
    "city_kana": "ワカヤマシ",
    "town": "元町奉行丁",
    "town_kana": "モトマチブギョウチョウ",
    "street": null,
    "office_name": null,
    "office_name_kana": null
  },
  "8128": {
    "postcode": "6408128",
    "prefecture": "和歌山県",
    "prefecture_kana": "ワカヤマケン",
    "prefecture_code": 30,
    "city": "和歌山市",
    "city_kana": "ワカヤマシ",
    "town": "広瀬中ノ丁",
    "town_kana": "ヒロセナカノチョウ",
    "street": null,
    "office_name": null,
    "office_name_kana": null
  },
  "8131": {
    "postcode": "6408131",
    "prefecture": "和歌山県",
    "prefecture_kana": "ワカヤマケン",
    "prefecture_code": 30,
    "city": "和歌山市",
    "city_kana": "ワカヤマシ",
    "town": "弁財天丁",
    "town_kana": "ベザイテンチョウ",
    "street": null,
    "office_name": null,
    "office_name_kana": null
  },
  "8132": {
    "postcode": "6408132",
    "prefecture": "和歌山県",
    "prefecture_kana": "ワカヤマケン",
    "prefecture_code": 30,
    "city": "和歌山市",
    "city_kana": "ワカヤマシ",
    "town": "山蔭丁",
    "town_kana": "ヤマカゲチョウ",
    "street": null,
    "office_name": null,
    "office_name_kana": null
  },
  "8133": {
    "postcode": "6408133",
    "prefecture": "和歌山県",
    "prefecture_kana": "ワカヤマケン",
    "prefecture_code": 30,
    "city": "和歌山市",
    "city_kana": "ワカヤマシ",
    "town": "谷町",
    "town_kana": "タニマチ",
    "street": null,
    "office_name": null,
    "office_name_kana": null
  },
  "8134": {
    "postcode": "6408134",
    "prefecture": "和歌山県",
    "prefecture_kana": "ワカヤマケン",
    "prefecture_code": 30,
    "city": "和歌山市",
    "city_kana": "ワカヤマシ",
    "town": "芦辺丁",
    "town_kana": "アシベチョウ",
    "street": null,
    "office_name": null,
    "office_name_kana": null
  },
  "8135": {
    "postcode": "6408135",
    "prefecture": "和歌山県",
    "prefecture_kana": "ワカヤマケン",
    "prefecture_code": 30,
    "city": "和歌山市",
    "city_kana": "ワカヤマシ",
    "town": "鷹匠町",
    "town_kana": "タカジョウマチ",
    "street": null,
    "office_name": null,
    "office_name_kana": null
  },
  "8136": {
    "postcode": "6408136",
    "prefecture": "和歌山県",
    "prefecture_kana": "ワカヤマケン",
    "prefecture_code": 30,
    "city": "和歌山市",
    "city_kana": "ワカヤマシ",
    "town": "堀止東",
    "town_kana": "ホリドメヒガシ",
    "street": null,
    "office_name": null,
    "office_name_kana": null
  },
  "8137": {
    "postcode": "6408137",
    "prefecture": "和歌山県",
    "prefecture_kana": "ワカヤマケン",
    "prefecture_code": 30,
    "city": "和歌山市",
    "city_kana": "ワカヤマシ",
    "town": "吹上",
    "town_kana": "フキアゲ",
    "street": null,
    "office_name": null,
    "office_name_kana": null
  },
  "8138": {
    "postcode": "6408138",
    "prefecture": "和歌山県",
    "prefecture_kana": "ワカヤマケン",
    "prefecture_code": 30,
    "city": "和歌山市",
    "city_kana": "ワカヤマシ",
    "town": "薮ノ丁",
    "town_kana": "ヤブノチョウ",
    "street": null,
    "office_name": null,
    "office_name_kana": null
  },
  "8139": {
    "postcode": "6408139",
    "prefecture": "和歌山県",
    "prefecture_kana": "ワカヤマケン",
    "prefecture_code": 30,
    "city": "和歌山市",
    "city_kana": "ワカヤマシ",
    "town": "片岡町",
    "town_kana": "カタオカチョウ",
    "street": null,
    "office_name": null,
    "office_name_kana": null
  },
  "8141": {
    "postcode": "6408141",
    "prefecture": "和歌山県",
    "prefecture_kana": "ワカヤマケン",
    "prefecture_code": 30,
    "city": "和歌山市",
    "city_kana": "ワカヤマシ",
    "town": "五番丁",
    "town_kana": "ゴバンチョウ",
    "street": null,
    "office_name": null,
    "office_name_kana": null
  },
  "8142": {
    "postcode": "6408142",
    "prefecture": "和歌山県",
    "prefecture_kana": "ワカヤマケン",
    "prefecture_code": 30,
    "city": "和歌山市",
    "city_kana": "ワカヤマシ",
    "town": "三番丁",
    "town_kana": "サンバンチョウ",
    "street": null,
    "office_name": null,
    "office_name_kana": null
  },
  "8143": {
    "postcode": "6408143",
    "prefecture": "和歌山県",
    "prefecture_kana": "ワカヤマケン",
    "prefecture_code": 30,
    "city": "和歌山市",
    "city_kana": "ワカヤマシ",
    "town": "二番丁",
    "town_kana": "ニバンチョウ",
    "street": null,
    "office_name": null,
    "office_name_kana": null
  },
  "8144": {
    "postcode": "6408144",
    "prefecture": "和歌山県",
    "prefecture_kana": "ワカヤマケン",
    "prefecture_code": 30,
    "city": "和歌山市",
    "city_kana": "ワカヤマシ",
    "town": "四番丁",
    "town_kana": "ヨンバンチョウ",
    "street": null,
    "office_name": null,
    "office_name_kana": null
  },
  "8145": {
    "postcode": "6408145",
    "prefecture": "和歌山県",
    "prefecture_kana": "ワカヤマケン",
    "prefecture_code": 30,
    "city": "和歌山市",
    "city_kana": "ワカヤマシ",
    "town": "岡山丁",
    "town_kana": "オカヤマチョウ",
    "street": null,
    "office_name": null,
    "office_name_kana": null
  },
  "8146": {
    "postcode": "6408146",
    "prefecture": "和歌山県",
    "prefecture_kana": "ワカヤマケン",
    "prefecture_code": 30,
    "city": "和歌山市",
    "city_kana": "ワカヤマシ",
    "town": "一番丁",
    "town_kana": "イチバンチョウ",
    "street": null,
    "office_name": null,
    "office_name_kana": null
  },
  "8150": {
    "postcode": "6408150",
    "prefecture": "和歌山県",
    "prefecture_kana": "ワカヤマケン",
    "prefecture_code": 30,
    "city": "和歌山市",
    "city_kana": "ワカヤマシ",
    "town": "十三番丁",
    "town_kana": "ジュウサンバンチョウ",
    "street": null,
    "office_name": null,
    "office_name_kana": null
  },
  "8151": {
    "postcode": "6408151",
    "prefecture": "和歌山県",
    "prefecture_kana": "ワカヤマケン",
    "prefecture_code": 30,
    "city": "和歌山市",
    "city_kana": "ワカヤマシ",
    "town": "屋形町",
    "town_kana": "ヤカタマチ",
    "street": null,
    "office_name": null,
    "office_name_kana": null
  },
  "8152": {
    "postcode": "6408152",
    "prefecture": "和歌山県",
    "prefecture_kana": "ワカヤマケン",
    "prefecture_code": 30,
    "city": "和歌山市",
    "city_kana": "ワカヤマシ",
    "town": "十番丁",
    "town_kana": "ジュウバンチョウ",
    "street": null,
    "office_name": null,
    "office_name_kana": null
  },
  "8153": {
    "postcode": "6408153",
    "prefecture": "和歌山県",
    "prefecture_kana": "ワカヤマケン",
    "prefecture_code": 30,
    "city": "和歌山市",
    "city_kana": "ワカヤマシ",
    "town": "三木町台所町",
    "town_kana": "ミキマチダイドコロマチ",
    "street": null,
    "office_name": null,
    "office_name_kana": null
  },
  "8154": {
    "postcode": "6408154",
    "prefecture": "和歌山県",
    "prefecture_kana": "ワカヤマケン",
    "prefecture_code": 30,
    "city": "和歌山市",
    "city_kana": "ワカヤマシ",
    "town": "六番丁",
    "town_kana": "ロクバンチョウ",
    "street": null,
    "office_name": null,
    "office_name_kana": null
  },
  "8155": {
    "postcode": "6408155",
    "prefecture": "和歌山県",
    "prefecture_kana": "ワカヤマケン",
    "prefecture_code": 30,
    "city": "和歌山市",
    "city_kana": "ワカヤマシ",
    "town": "九番丁",
    "town_kana": "キュウバンチョウ",
    "street": null,
    "office_name": null,
    "office_name_kana": null
  },
  "8156": {
    "postcode": "6408156",
    "prefecture": "和歌山県",
    "prefecture_kana": "ワカヤマケン",
    "prefecture_code": 30,
    "city": "和歌山市",
    "city_kana": "ワカヤマシ",
    "town": "七番丁",
    "town_kana": "シチバンチョウ",
    "street": null,
    "office_name": null,
    "office_name_kana": null
  },
  "8157": {
    "postcode": "6408157",
    "prefecture": "和歌山県",
    "prefecture_kana": "ワカヤマケン",
    "prefecture_code": 30,
    "city": "和歌山市",
    "city_kana": "ワカヤマシ",
    "town": "八番丁",
    "town_kana": "ハチバンチョウ",
    "street": null,
    "office_name": null,
    "office_name_kana": null
  },
  "8158": {
    "postcode": "6408158",
    "prefecture": "和歌山県",
    "prefecture_kana": "ワカヤマケン",
    "prefecture_code": 30,
    "city": "和歌山市",
    "city_kana": "ワカヤマシ",
    "town": "十二番丁",
    "town_kana": "ジュウニバンチョウ",
    "street": null,
    "office_name": null,
    "office_name_kana": null
  },
  "8159": {
    "postcode": "6408159",
    "prefecture": "和歌山県",
    "prefecture_kana": "ワカヤマケン",
    "prefecture_code": 30,
    "city": "和歌山市",
    "city_kana": "ワカヤマシ",
    "town": "十一番丁",
    "town_kana": "ジュウイチバンチョウ",
    "street": null,
    "office_name": null,
    "office_name_kana": null
  },
  "8201": {
    "postcode": "6408201",
    "prefecture": "和歌山県",
    "prefecture_kana": "ワカヤマケン",
    "prefecture_code": 30,
    "city": "和歌山市",
    "city_kana": "ワカヤマシ",
    "town": "石橋丁",
    "town_kana": "イシバシチョウ",
    "street": null,
    "office_name": null,
    "office_name_kana": null
  },
  "8202": {
    "postcode": "6408202",
    "prefecture": "和歌山県",
    "prefecture_kana": "ワカヤマケン",
    "prefecture_code": 30,
    "city": "和歌山市",
    "city_kana": "ワカヤマシ",
    "town": "屏風丁",
    "town_kana": "ビョウブチョウ",
    "street": null,
    "office_name": null,
    "office_name_kana": null
  },
  "8203": {
    "postcode": "6408203",
    "prefecture": "和歌山県",
    "prefecture_kana": "ワカヤマケン",
    "prefecture_code": 30,
    "city": "和歌山市",
    "city_kana": "ワカヤマシ",
    "town": "東蔵前丁",
    "town_kana": "ヒガシクラマエチョウ",
    "street": null,
    "office_name": null,
    "office_name_kana": null
  },
  "8204": {
    "postcode": "6408204",
    "prefecture": "和歌山県",
    "prefecture_kana": "ワカヤマケン",
    "prefecture_code": 30,
    "city": "和歌山市",
    "city_kana": "ワカヤマシ",
    "town": "伝法橋南ノ丁",
    "town_kana": "デンポウバシミナミノチョウ",
    "street": null,
    "office_name": null,
    "office_name_kana": null
  },
  "8205": {
    "postcode": "6408205",
    "prefecture": "和歌山県",
    "prefecture_kana": "ワカヤマケン",
    "prefecture_code": 30,
    "city": "和歌山市",
    "city_kana": "ワカヤマシ",
    "town": "西蔵前丁",
    "town_kana": "ニシクラマエチョウ",
    "street": null,
    "office_name": null,
    "office_name_kana": null
  },
  "8206": {
    "postcode": "6408206",
    "prefecture": "和歌山県",
    "prefecture_kana": "ワカヤマケン",
    "prefecture_code": 30,
    "city": "和歌山市",
    "city_kana": "ワカヤマシ",
    "town": "徳田木丁",
    "town_kana": "トクダギチョウ",
    "street": null,
    "office_name": null,
    "office_name_kana": null
  },
  "8211": {
    "postcode": "6408211",
    "prefecture": "和歌山県",
    "prefecture_kana": "ワカヤマケン",
    "prefecture_code": 30,
    "city": "和歌山市",
    "city_kana": "ワカヤマシ",
    "town": "西布経丁",
    "town_kana": "ニシヌノエチョウ",
    "street": null,
    "office_name": null,
    "office_name_kana": null
  },
  "8212": {
    "postcode": "6408212",
    "prefecture": "和歌山県",
    "prefecture_kana": "ワカヤマケン",
    "prefecture_code": 30,
    "city": "和歌山市",
    "city_kana": "ワカヤマシ",
    "town": "杉ノ馬場",
    "town_kana": "スギノババ",
    "street": null,
    "office_name": null,
    "office_name_kana": null
  },
  "8213": {
    "postcode": "6408213",
    "prefecture": "和歌山県",
    "prefecture_kana": "ワカヤマケン",
    "prefecture_code": 30,
    "city": "和歌山市",
    "city_kana": "ワカヤマシ",
    "town": "舟大工町",
    "town_kana": "フナダイクマチ",
    "street": null,
    "office_name": null,
    "office_name_kana": null
  },
  "8214": {
    "postcode": "6408214",
    "prefecture": "和歌山県",
    "prefecture_kana": "ワカヤマケン",
    "prefecture_code": 30,
    "city": "和歌山市",
    "city_kana": "ワカヤマシ",
    "town": "寄合町",
    "town_kana": "ヨリアイマチ",
    "street": null,
    "office_name": null,
    "office_name_kana": null
  },
  "8215": {
    "postcode": "6408215",
    "prefecture": "和歌山県",
    "prefecture_kana": "ワカヤマケン",
    "prefecture_code": 30,
    "city": "和歌山市",
    "city_kana": "ワカヤマシ",
    "town": "橋丁",
    "town_kana": "ハシチョウ",
    "street": null,
    "office_name": null,
    "office_name_kana": null
  },
  "8216": {
    "postcode": "6408216",
    "prefecture": "和歌山県",
    "prefecture_kana": "ワカヤマケン",
    "prefecture_code": 30,
    "city": "和歌山市",
    "city_kana": "ワカヤマシ",
    "town": "元博労町",
    "town_kana": "モトバクロウマチ",
    "street": null,
    "office_name": null,
    "office_name_kana": null
  },
  "8220": {
    "postcode": "6408220",
    "prefecture": "和歌山県",
    "prefecture_kana": "ワカヤマケン",
    "prefecture_code": 30,
    "city": "和歌山市",
    "city_kana": "ワカヤマシ",
    "town": "下町",
    "town_kana": "ゲノマチ",
    "street": null,
    "office_name": null,
    "office_name_kana": null
  },
  "8221": {
    "postcode": "6408221",
    "prefecture": "和歌山県",
    "prefecture_kana": "ワカヤマケン",
    "prefecture_code": 30,
    "city": "和歌山市",
    "city_kana": "ワカヤマシ",
    "town": "湊紺屋町",
    "town_kana": "ミナトコンヤマチ",
    "street": null,
    "office_name": null,
    "office_name_kana": null
  },
  "8222": {
    "postcode": "6408222",
    "prefecture": "和歌山県",
    "prefecture_kana": "ワカヤマケン",
    "prefecture_code": 30,
    "city": "和歌山市",
    "city_kana": "ワカヤマシ",
    "town": "湊本町",
    "town_kana": "ミナトホンマチ",
    "street": null,
    "office_name": null,
    "office_name_kana": null
  },
  "8223": {
    "postcode": "6408223",
    "prefecture": "和歌山県",
    "prefecture_kana": "ワカヤマケン",
    "prefecture_code": 30,
    "city": "和歌山市",
    "city_kana": "ワカヤマシ",
    "town": "湊北町",
    "town_kana": "ミナトキタマチ",
    "street": null,
    "office_name": null,
    "office_name_kana": null
  },
  "8224": {
    "postcode": "6408224",
    "prefecture": "和歌山県",
    "prefecture_kana": "ワカヤマケン",
    "prefecture_code": 30,
    "city": "和歌山市",
    "city_kana": "ワカヤマシ",
    "town": "小野町",
    "town_kana": "オノマチ",
    "street": null,
    "office_name": null,
    "office_name_kana": null
  },
  "8225": {
    "postcode": "6408225",
    "prefecture": "和歌山県",
    "prefecture_kana": "ワカヤマケン",
    "prefecture_code": 30,
    "city": "和歌山市",
    "city_kana": "ワカヤマシ",
    "town": "久保丁",
    "town_kana": "クボチョウ",
    "street": null,
    "office_name": null,
    "office_name_kana": null
  },
  "8226": {
    "postcode": "6408226",
    "prefecture": "和歌山県",
    "prefecture_kana": "ワカヤマケン",
    "prefecture_code": 30,
    "city": "和歌山市",
    "city_kana": "ワカヤマシ",
    "town": "小人町",
    "town_kana": "コビトマチ",
    "street": null,
    "office_name": null,
    "office_name_kana": null
  },
  "8227": {
    "postcode": "6408227",
    "prefecture": "和歌山県",
    "prefecture_kana": "ワカヤマケン",
    "prefecture_code": 30,
    "city": "和歌山市",
    "city_kana": "ワカヤマシ",
    "town": "西汀丁",
    "town_kana": "ニシミギワチョウ",
    "street": null,
    "office_name": null,
    "office_name_kana": null
  },
  "8228": {
    "postcode": "6408228",
    "prefecture": "和歌山県",
    "prefecture_kana": "ワカヤマケン",
    "prefecture_code": 30,
    "city": "和歌山市",
    "city_kana": "ワカヤマシ",
    "town": "小人町南ノ丁",
    "town_kana": "コビトマチミナミノチョウ",
    "street": null,
    "office_name": null,
    "office_name_kana": null
  },
  "8229": {
    "postcode": "6408229",
    "prefecture": "和歌山県",
    "prefecture_kana": "ワカヤマケン",
    "prefecture_code": 30,
    "city": "和歌山市",
    "city_kana": "ワカヤマシ",
    "town": "道場町",
    "town_kana": "ドウジョウマチ",
    "street": null,
    "office_name": null,
    "office_name_kana": null
  },
  "8230": {
    "postcode": "6408230",
    "prefecture": "和歌山県",
    "prefecture_kana": "ワカヤマケン",
    "prefecture_code": 30,
    "city": "和歌山市",
    "city_kana": "ワカヤマシ",
    "town": "男野芝丁",
    "town_kana": "オノシバチョウ",
    "street": null,
    "office_name": null,
    "office_name_kana": null
  },
  "8231": {
    "postcode": "6408231",
    "prefecture": "和歌山県",
    "prefecture_kana": "ワカヤマケン",
    "prefecture_code": 30,
    "city": "和歌山市",
    "city_kana": "ワカヤマシ",
    "town": "北汀丁",
    "town_kana": "キタミギワチョウ",
    "street": null,
    "office_name": null,
    "office_name_kana": null
  },
  "8232": {
    "postcode": "6408232",
    "prefecture": "和歌山県",
    "prefecture_kana": "ワカヤマケン",
    "prefecture_code": 30,
    "city": "和歌山市",
    "city_kana": "ワカヤマシ",
    "town": "南汀丁",
    "town_kana": "ミナミミギワチョウ",
    "street": null,
    "office_name": null,
    "office_name_kana": null
  },
  "8233": {
    "postcode": "6408233",
    "prefecture": "和歌山県",
    "prefecture_kana": "ワカヤマケン",
    "prefecture_code": 30,
    "city": "和歌山市",
    "city_kana": "ワカヤマシ",
    "town": "北坂ノ上丁",
    "town_kana": "キタサカノウエチョウ",
    "street": null,
    "office_name": null,
    "office_name_kana": null
  },
  "8234": {
    "postcode": "6408234",
    "prefecture": "和歌山県",
    "prefecture_kana": "ワカヤマケン",
    "prefecture_code": 30,
    "city": "和歌山市",
    "city_kana": "ワカヤマシ",
    "town": "西坂ノ上丁",
    "town_kana": "ニシサカノウエチョウ",
    "street": null,
    "office_name": null,
    "office_name_kana": null
  },
  "8235": {
    "postcode": "6408235",
    "prefecture": "和歌山県",
    "prefecture_kana": "ワカヤマケン",
    "prefecture_code": 30,
    "city": "和歌山市",
    "city_kana": "ワカヤマシ",
    "town": "東長町",
    "town_kana": "ヒガシナガマチ",
    "street": null,
    "office_name": null,
    "office_name_kana": null
  },
  "8236": {
    "postcode": "6408236",
    "prefecture": "和歌山県",
    "prefecture_kana": "ワカヤマケン",
    "prefecture_code": 30,
    "city": "和歌山市",
    "city_kana": "ワカヤマシ",
    "town": "七曲り",
    "town_kana": "ナナマガリ",
    "street": null,
    "office_name": null,
    "office_name_kana": null
  },
  "8237": {
    "postcode": "6408237",
    "prefecture": "和歌山県",
    "prefecture_kana": "ワカヤマケン",
    "prefecture_code": 30,
    "city": "和歌山市",
    "city_kana": "ワカヤマシ",
    "town": "材木丁",
    "town_kana": "ザイモクチョウ",
    "street": null,
    "office_name": null,
    "office_name_kana": null
  },
  "8238": {
    "postcode": "6408238",
    "prefecture": "和歌山県",
    "prefecture_kana": "ワカヤマケン",
    "prefecture_code": 30,
    "city": "和歌山市",
    "city_kana": "ワカヤマシ",
    "town": "網屋町",
    "town_kana": "アミヤマチ",
    "street": null,
    "office_name": null,
    "office_name_kana": null
  },
  "8239": {
    "postcode": "6408239",
    "prefecture": "和歌山県",
    "prefecture_kana": "ワカヤマケン",
    "prefecture_code": 30,
    "city": "和歌山市",
    "city_kana": "ワカヤマシ",
    "town": "上町",
    "town_kana": "ウワマチ",
    "street": null,
    "office_name": null,
    "office_name_kana": null
  },
  "8241": {
    "postcode": "6408241",
    "prefecture": "和歌山県",
    "prefecture_kana": "ワカヤマケン",
    "prefecture_code": 30,
    "city": "和歌山市",
    "city_kana": "ワカヤマシ",
    "town": "雑賀屋町東ノ丁",
    "town_kana": "サイカヤマチヒガシノチョウ",
    "street": null,
    "office_name": null,
    "office_name_kana": null
  },
  "8242": {
    "postcode": "6408242",
    "prefecture": "和歌山県",
    "prefecture_kana": "ワカヤマケン",
    "prefecture_code": 30,
    "city": "和歌山市",
    "city_kana": "ワカヤマシ",
    "town": "上野町",
    "town_kana": "ウエノマチ",
    "street": null,
    "office_name": null,
    "office_name_kana": null
  },
  "8243": {
    "postcode": "6408243",
    "prefecture": "和歌山県",
    "prefecture_kana": "ワカヤマケン",
    "prefecture_code": 30,
    "city": "和歌山市",
    "city_kana": "ワカヤマシ",
    "town": "徒町",
    "town_kana": "カチマチ",
    "street": null,
    "office_name": null,
    "office_name_kana": null
  },
  "8244": {
    "postcode": "6408244",
    "prefecture": "和歌山県",
    "prefecture_kana": "ワカヤマケン",
    "prefecture_code": 30,
    "city": "和歌山市",
    "city_kana": "ワカヤマシ",
    "town": "久右衛門丁",
    "town_kana": "キュウエモンチョウ",
    "street": null,
    "office_name": null,
    "office_name_kana": null
  },
  "8245": {
    "postcode": "6408245",
    "prefecture": "和歌山県",
    "prefecture_kana": "ワカヤマケン",
    "prefecture_code": 30,
    "city": "和歌山市",
    "city_kana": "ワカヤマシ",
    "town": "有田屋町南ノ丁",
    "town_kana": "アリダヤマチミナミノチョウ",
    "street": null,
    "office_name": null,
    "office_name_kana": null
  },
  "8246": {
    "postcode": "6408246",
    "prefecture": "和歌山県",
    "prefecture_kana": "ワカヤマケン",
    "prefecture_code": 30,
    "city": "和歌山市",
    "city_kana": "ワカヤマシ",
    "town": "有田屋町西ノ丁",
    "town_kana": "アリダヤマチニシノチョウ",
    "street": null,
    "office_name": null,
    "office_name_kana": null
  },
  "8247": {
    "postcode": "6408247",
    "prefecture": "和歌山県",
    "prefecture_kana": "ワカヤマケン",
    "prefecture_code": 30,
    "city": "和歌山市",
    "city_kana": "ワカヤマシ",
    "town": "東坂ノ上丁",
    "town_kana": "ヒガシサカノウエチョウ",
    "street": null,
    "office_name": null,
    "office_name_kana": null
  },
  "8248": {
    "postcode": "6408248",
    "prefecture": "和歌山県",
    "prefecture_kana": "ワカヤマケン",
    "prefecture_code": 30,
    "city": "和歌山市",
    "city_kana": "ワカヤマシ",
    "town": "有田屋町",
    "town_kana": "アリダヤマチ",
    "street": null,
    "office_name": null,
    "office_name_kana": null
  },
  "8249": {
    "postcode": "6408249",
    "prefecture": "和歌山県",
    "prefecture_kana": "ワカヤマケン",
    "prefecture_code": 30,
    "city": "和歌山市",
    "city_kana": "ワカヤマシ",
    "town": "雑賀屋町",
    "town_kana": "サイカヤマチ",
    "street": null,
    "office_name": null,
    "office_name_kana": null
  },
  "8251": {
    "postcode": "6408251",
    "prefecture": "和歌山県",
    "prefecture_kana": "ワカヤマケン",
    "prefecture_code": 30,
    "city": "和歌山市",
    "city_kana": "ワカヤマシ",
    "town": "南中間町",
    "town_kana": "ミナミチュウゲンマチ",
    "street": null,
    "office_name": null,
    "office_name_kana": null
  },
  "8252": {
    "postcode": "6408252",
    "prefecture": "和歌山県",
    "prefecture_kana": "ワカヤマケン",
    "prefecture_code": 30,
    "city": "和歌山市",
    "city_kana": "ワカヤマシ",
    "town": "北田辺丁",
    "town_kana": "キタタナベチョウ",
    "street": null,
    "office_name": null,
    "office_name_kana": null
  },
  "8253": {
    "postcode": "6408253",
    "prefecture": "和歌山県",
    "prefecture_kana": "ワカヤマケン",
    "prefecture_code": 30,
    "city": "和歌山市",
    "city_kana": "ワカヤマシ",
    "town": "北相生丁",
    "town_kana": "キタアイオイチョウ",
    "street": null,
    "office_name": null,
    "office_name_kana": null
  },
  "8254": {
    "postcode": "6408254",
    "prefecture": "和歌山県",
    "prefecture_kana": "ワカヤマケン",
    "prefecture_code": 30,
    "city": "和歌山市",
    "city_kana": "ワカヤマシ",
    "town": "南田辺丁",
    "town_kana": "ミナミタナベチョウ",
    "street": null,
    "office_name": null,
    "office_name_kana": null
  },
  "8255": {
    "postcode": "6408255",
    "prefecture": "和歌山県",
    "prefecture_kana": "ワカヤマケン",
    "prefecture_code": 30,
    "city": "和歌山市",
    "city_kana": "ワカヤマシ",
    "town": "舟津町",
    "town_kana": "フナヅチョウ",
    "street": null,
    "office_name": null,
    "office_name_kana": null
  },
  "8256": {
    "postcode": "6408256",
    "prefecture": "和歌山県",
    "prefecture_kana": "ワカヤマケン",
    "prefecture_code": 30,
    "city": "和歌山市",
    "city_kana": "ワカヤマシ",
    "town": "土佐町",
    "town_kana": "トサマチ",
    "street": null,
    "office_name": null,
    "office_name_kana": null
  },
  "8261": {
    "postcode": "6408261",
    "prefecture": "和歌山県",
    "prefecture_kana": "ワカヤマケン",
    "prefecture_code": 30,
    "city": "和歌山市",
    "city_kana": "ワカヤマシ",
    "town": "真砂丁",
    "town_kana": "マサゴチョウ",
    "street": null,
    "office_name": null,
    "office_name_kana": null
  },
  "8262": {
    "postcode": "6408262",
    "prefecture": "和歌山県",
    "prefecture_kana": "ワカヤマケン",
    "prefecture_code": 30,
    "city": "和歌山市",
    "city_kana": "ワカヤマシ",
    "town": "湊通丁北",
    "town_kana": "ミナトトオリチョウキタ",
    "street": null,
    "office_name": null,
    "office_name_kana": null
  },
  "8263": {
    "postcode": "6408263",
    "prefecture": "和歌山県",
    "prefecture_kana": "ワカヤマケン",
    "prefecture_code": 30,
    "city": "和歌山市",
    "city_kana": "ワカヤマシ",
    "town": "茶屋ノ丁",
    "town_kana": "チャヤノチョウ",
    "street": null,
    "office_name": null,
    "office_name_kana": null
  },
  "8264": {
    "postcode": "6408264",
    "prefecture": "和歌山県",
    "prefecture_kana": "ワカヤマケン",
    "prefecture_code": 30,
    "city": "和歌山市",
    "city_kana": "ワカヤマシ",
    "town": "湊桶屋町",
    "town_kana": "ミナトオケヤマチ",
    "street": null,
    "office_name": null,
    "office_name_kana": null
  },
  "8265": {
    "postcode": "6408265",
    "prefecture": "和歌山県",
    "prefecture_kana": "ワカヤマケン",
    "prefecture_code": 30,
    "city": "和歌山市",
    "city_kana": "ワカヤマシ",
    "town": "小松原",
    "town_kana": "コマツバラ",
    "street": null,
    "office_name": null,
    "office_name_kana": null
  },
  "8266": {
    "postcode": "6408266",
    "prefecture": "和歌山県",
    "prefecture_kana": "ワカヤマケン",
    "prefecture_code": 30,
    "city": "和歌山市",
    "city_kana": "ワカヤマシ",
    "town": "東長町中ノ丁",
    "town_kana": "ヒガシナガマチナカノチョウ",
    "street": null,
    "office_name": null,
    "office_name_kana": null
  },
  "8267": {
    "postcode": "6408267",
    "prefecture": "和歌山県",
    "prefecture_kana": "ワカヤマケン",
    "prefecture_code": 30,
    "city": "和歌山市",
    "city_kana": "ワカヤマシ",
    "town": "芝ノ丁",
    "town_kana": "シバノチョウ",
    "street": null,
    "office_name": null,
    "office_name_kana": null
  },
  "8268": {
    "postcode": "6408268",
    "prefecture": "和歌山県",
    "prefecture_kana": "ワカヤマケン",
    "prefecture_code": 30,
    "city": "和歌山市",
    "city_kana": "ワカヤマシ",
    "town": "広道",
    "town_kana": "ヒロミチ",
    "street": null,
    "office_name": null,
    "office_name_kana": null
  },
  "8269": {
    "postcode": "6408269",
    "prefecture": "和歌山県",
    "prefecture_kana": "ワカヤマケン",
    "prefecture_code": 30,
    "city": "和歌山市",
    "city_kana": "ワカヤマシ",
    "town": "小松原通",
    "town_kana": "コマツバラドオリ",
    "street": null,
    "office_name": null,
    "office_name_kana": null
  },
  "8271": {
    "postcode": "6408271",
    "prefecture": "和歌山県",
    "prefecture_kana": "ワカヤマケン",
    "prefecture_code": 30,
    "city": "和歌山市",
    "city_kana": "ワカヤマシ",
    "town": "尾崎丁",
    "town_kana": "オザキチョウ",
    "street": null,
    "office_name": null,
    "office_name_kana": null
  },
  "8272": {
    "postcode": "6408272",
    "prefecture": "和歌山県",
    "prefecture_kana": "ワカヤマケン",
    "prefecture_code": 30,
    "city": "和歌山市",
    "city_kana": "ワカヤマシ",
    "town": "砂山南",
    "town_kana": "スナヤマミナミ",
    "street": null,
    "office_name": null,
    "office_name_kana": null
  },
  "8273": {
    "postcode": "6408273",
    "prefecture": "和歌山県",
    "prefecture_kana": "ワカヤマケン",
    "prefecture_code": 30,
    "city": "和歌山市",
    "city_kana": "ワカヤマシ",
    "town": "葵町",
    "town_kana": "アオイチョウ",
    "street": null,
    "office_name": null,
    "office_name_kana": null
  },
  "8274": {
    "postcode": "6408274",
    "prefecture": "和歌山県",
    "prefecture_kana": "ワカヤマケン",
    "prefecture_code": 30,
    "city": "和歌山市",
    "city_kana": "ワカヤマシ",
    "town": "金龍寺丁",
    "town_kana": "キンリュウジチョウ",
    "street": null,
    "office_name": null,
    "office_name_kana": null
  },
  "8275": {
    "postcode": "6408275",
    "prefecture": "和歌山県",
    "prefecture_kana": "ワカヤマケン",
    "prefecture_code": 30,
    "city": "和歌山市",
    "city_kana": "ワカヤマシ",
    "town": "南相生丁",
    "town_kana": "ミナミアイオイチョウ",
    "street": null,
    "office_name": null,
    "office_name_kana": null
  },
  "8276": {
    "postcode": "6408276",
    "prefecture": "和歌山県",
    "prefecture_kana": "ワカヤマケン",
    "prefecture_code": 30,
    "city": "和歌山市",
    "city_kana": "ワカヤマシ",
    "town": "作事丁",
    "town_kana": "サクジチョウ",
    "street": null,
    "office_name": null,
    "office_name_kana": null
  },
  "8281": {
    "postcode": "6408281",
    "prefecture": "和歌山県",
    "prefecture_kana": "ワカヤマケン",
    "prefecture_code": 30,
    "city": "和歌山市",
    "city_kana": "ワカヤマシ",
    "town": "湊通丁南",
    "town_kana": "ミナトトオリチョウミナミ",
    "street": null,
    "office_name": null,
    "office_name_kana": null
  },
  "8282": {
    "postcode": "6408282",
    "prefecture": "和歌山県",
    "prefecture_kana": "ワカヤマケン",
    "prefecture_code": 30,
    "city": "和歌山市",
    "city_kana": "ワカヤマシ",
    "town": "出口甲賀丁",
    "town_kana": "デグチコウガチョウ",
    "street": null,
    "office_name": null,
    "office_name_kana": null
  },
  "8283": {
    "postcode": "6408283",
    "prefecture": "和歌山県",
    "prefecture_kana": "ワカヤマケン",
    "prefecture_code": 30,
    "city": "和歌山市",
    "city_kana": "ワカヤマシ",
    "town": "出口中ノ丁",
    "town_kana": "デグチナカノチョウ",
    "street": null,
    "office_name": null,
    "office_name_kana": null
  },
  "8284": {
    "postcode": "6408284",
    "prefecture": "和歌山県",
    "prefecture_kana": "ワカヤマケン",
    "prefecture_code": 30,
    "city": "和歌山市",
    "city_kana": "ワカヤマシ",
    "town": "出口端ノ丁",
    "town_kana": "デグチハシノチョウ",
    "street": null,
    "office_name": null,
    "office_name_kana": null
  },
  "8285": {
    "postcode": "6408285",
    "prefecture": "和歌山県",
    "prefecture_kana": "ワカヤマケン",
    "prefecture_code": 30,
    "city": "和歌山市",
    "city_kana": "ワカヤマシ",
    "town": "出口新端ノ丁",
    "town_kana": "デグチシンハシノチョウ",
    "street": null,
    "office_name": null,
    "office_name_kana": null
  },
  "8286": {
    "postcode": "6408286",
    "prefecture": "和歌山県",
    "prefecture_kana": "ワカヤマケン",
    "prefecture_code": 30,
    "city": "和歌山市",
    "city_kana": "ワカヤマシ",
    "town": "湊御殿",
    "town_kana": "ミナトゴテン",
    "street": null,
    "office_name": null,
    "office_name_kana": null
  },
  "8287": {
    "postcode": "6408287",
    "prefecture": "和歌山県",
    "prefecture_kana": "ワカヤマケン",
    "prefecture_code": 30,
    "city": "和歌山市",
    "city_kana": "ワカヤマシ",
    "town": "築港",
    "town_kana": "チッコウ",
    "street": null,
    "office_name": null,
    "office_name_kana": null
  },
  "8288": {
    "postcode": "6408288",
    "prefecture": "和歌山県",
    "prefecture_kana": "ワカヤマケン",
    "prefecture_code": 30,
    "city": "和歌山市",
    "city_kana": "ワカヤマシ",
    "town": "加納町",
    "town_kana": "カノウマチ",
    "street": null,
    "office_name": null,
    "office_name_kana": null
  },
  "8290": {
    "postcode": "6408290",
    "prefecture": "和歌山県",
    "prefecture_kana": "ワカヤマケン",
    "prefecture_code": 30,
    "city": "和歌山市",
    "city_kana": "ワカヤマシ",
    "town": "西長町",
    "town_kana": "ニシナガマチ",
    "street": null,
    "office_name": null,
    "office_name_kana": null
  },
  "8291": {
    "postcode": "6408291",
    "prefecture": "和歌山県",
    "prefecture_kana": "ワカヤマケン",
    "prefecture_code": 30,
    "city": "和歌山市",
    "city_kana": "ワカヤマシ",
    "town": "北甚五兵衛丁",
    "town_kana": "キタジンゴベエチョウ",
    "street": null,
    "office_name": null,
    "office_name_kana": null
  },
  "8292": {
    "postcode": "6408292",
    "prefecture": "和歌山県",
    "prefecture_kana": "ワカヤマケン",
    "prefecture_code": 30,
    "city": "和歌山市",
    "city_kana": "ワカヤマシ",
    "town": "南甚五兵衛丁",
    "town_kana": "ミナミジンゴベエチョウ",
    "street": null,
    "office_name": null,
    "office_name_kana": null
  },
  "8293": {
    "postcode": "6408293",
    "prefecture": "和歌山県",
    "prefecture_kana": "ワカヤマケン",
    "prefecture_code": 30,
    "city": "和歌山市",
    "city_kana": "ワカヤマシ",
    "town": "駕町",
    "town_kana": "カゴマチ",
    "street": null,
    "office_name": null,
    "office_name_kana": null
  },
  "8294": {
    "postcode": "6408294",
    "prefecture": "和歌山県",
    "prefecture_kana": "ワカヤマケン",
    "prefecture_code": 30,
    "city": "和歌山市",
    "city_kana": "ワカヤマシ",
    "town": "北中間町",
    "town_kana": "キタチュウゲンマチ",
    "street": null,
    "office_name": null,
    "office_name_kana": null
  },
  "8295": {
    "postcode": "6408295",
    "prefecture": "和歌山県",
    "prefecture_kana": "ワカヤマケン",
    "prefecture_code": 30,
    "city": "和歌山市",
    "city_kana": "ワカヤマシ",
    "town": "南牛町",
    "town_kana": "ミナミウシマチ",
    "street": null,
    "office_name": null,
    "office_name_kana": null
  },
  "8296": {
    "postcode": "6408296",
    "prefecture": "和歌山県",
    "prefecture_kana": "ワカヤマケン",
    "prefecture_code": 30,
    "city": "和歌山市",
    "city_kana": "ワカヤマシ",
    "town": "北土佐丁",
    "town_kana": "キタトサチョウ",
    "street": null,
    "office_name": null,
    "office_name_kana": null
  },
  "8297": {
    "postcode": "6408297",
    "prefecture": "和歌山県",
    "prefecture_kana": "ワカヤマケン",
    "prefecture_code": 30,
    "city": "和歌山市",
    "city_kana": "ワカヤマシ",
    "town": "西河岸町",
    "town_kana": "ニシカワギシチョウ",
    "street": null,
    "office_name": null,
    "office_name_kana": null
  },
  "8298": {
    "postcode": "6408298",
    "prefecture": "和歌山県",
    "prefecture_kana": "ワカヤマケン",
    "prefecture_code": 30,
    "city": "和歌山市",
    "city_kana": "ワカヤマシ",
    "town": "植松丁",
    "town_kana": "ウエマツチョウ",
    "street": null,
    "office_name": null,
    "office_name_kana": null
  },
  "8299": {
    "postcode": "6408299",
    "prefecture": "和歌山県",
    "prefecture_kana": "ワカヤマケン",
    "prefecture_code": 30,
    "city": "和歌山市",
    "city_kana": "ワカヤマシ",
    "town": "北牛町",
    "town_kana": "キタウシマチ",
    "street": null,
    "office_name": null,
    "office_name_kana": null
  },
  "8301": {
    "postcode": "6408301",
    "prefecture": "和歌山県",
    "prefecture_kana": "ワカヤマケン",
    "prefecture_code": 30,
    "city": "和歌山市",
    "city_kana": "ワカヤマシ",
    "town": "岩橋",
    "town_kana": "イワセ",
    "street": null,
    "office_name": null,
    "office_name_kana": null
  },
  "8302": {
    "postcode": "6408302",
    "prefecture": "和歌山県",
    "prefecture_kana": "ワカヤマケン",
    "prefecture_code": 30,
    "city": "和歌山市",
    "city_kana": "ワカヤマシ",
    "town": "井辺",
    "town_kana": "インベ",
    "street": null,
    "office_name": null,
    "office_name_kana": null
  },
  "8303": {
    "postcode": "6408303",
    "prefecture": "和歌山県",
    "prefecture_kana": "ワカヤマケン",
    "prefecture_code": 30,
    "city": "和歌山市",
    "city_kana": "ワカヤマシ",
    "town": "鳴神",
    "town_kana": "ナルカミ",
    "street": null,
    "office_name": null,
    "office_name_kana": null
  },
  "8304": {
    "postcode": "6408304",
    "prefecture": "和歌山県",
    "prefecture_kana": "ワカヤマケン",
    "prefecture_code": 30,
    "city": "和歌山市",
    "city_kana": "ワカヤマシ",
    "town": "松島",
    "town_kana": "マツシマ",
    "street": null,
    "office_name": null,
    "office_name_kana": null
  },
  "8305": {
    "postcode": "6408305",
    "prefecture": "和歌山県",
    "prefecture_kana": "ワカヤマケン",
    "prefecture_code": 30,
    "city": "和歌山市",
    "city_kana": "ワカヤマシ",
    "town": "栗栖",
    "town_kana": "クルス",
    "street": null,
    "office_name": null,
    "office_name_kana": null
  },
  "8306": {
    "postcode": "6408306",
    "prefecture": "和歌山県",
    "prefecture_kana": "ワカヤマケン",
    "prefecture_code": 30,
    "city": "和歌山市",
    "city_kana": "ワカヤマシ",
    "town": "出島",
    "town_kana": "デジマ",
    "street": null,
    "office_name": null,
    "office_name_kana": null
  },
  "8311": {
    "postcode": "6408311",
    "prefecture": "和歌山県",
    "prefecture_kana": "ワカヤマケン",
    "prefecture_code": 30,
    "city": "和歌山市",
    "city_kana": "ワカヤマシ",
    "town": "寺内",
    "town_kana": "テラウチ",
    "street": null,
    "office_name": null,
    "office_name_kana": null
  },
  "8312": {
    "postcode": "6408312",
    "prefecture": "和歌山県",
    "prefecture_kana": "ワカヤマケン",
    "prefecture_code": 30,
    "city": "和歌山市",
    "city_kana": "ワカヤマシ",
    "town": "森小手穂",
    "town_kana": "モリオテボ",
    "street": null,
    "office_name": null,
    "office_name_kana": null
  },
  "8313": {
    "postcode": "6408313",
    "prefecture": "和歌山県",
    "prefecture_kana": "ワカヤマケン",
    "prefecture_code": 30,
    "city": "和歌山市",
    "city_kana": "ワカヤマシ",
    "town": "西",
    "town_kana": "ニシ",
    "street": null,
    "office_name": null,
    "office_name_kana": null
  },
  "8314": {
    "postcode": "6408314",
    "prefecture": "和歌山県",
    "prefecture_kana": "ワカヤマケン",
    "prefecture_code": 30,
    "city": "和歌山市",
    "city_kana": "ワカヤマシ",
    "town": "神前",
    "town_kana": "コウザキ",
    "street": null,
    "office_name": null,
    "office_name_kana": null
  },
  "8315": {
    "postcode": "6408315",
    "prefecture": "和歌山県",
    "prefecture_kana": "ワカヤマケン",
    "prefecture_code": 30,
    "city": "和歌山市",
    "city_kana": "ワカヤマシ",
    "town": "津秦",
    "town_kana": "ツワダ",
    "street": null,
    "office_name": null,
    "office_name_kana": null
  },
  "8316": {
    "postcode": "6408316",
    "prefecture": "和歌山県",
    "prefecture_kana": "ワカヤマケン",
    "prefecture_code": 30,
    "city": "和歌山市",
    "city_kana": "ワカヤマシ",
    "town": "有家",
    "town_kana": "アリエ",
    "street": null,
    "office_name": null,
    "office_name_kana": null
  },
  "8317": {
    "postcode": "6408317",
    "prefecture": "和歌山県",
    "prefecture_kana": "ワカヤマケン",
    "prefecture_code": 30,
    "city": "和歌山市",
    "city_kana": "ワカヤマシ",
    "town": "北出島",
    "town_kana": "キタデジマ",
    "street": null,
    "office_name": null,
    "office_name_kana": null
  },
  "8318": {
    "postcode": "6408318",
    "prefecture": "和歌山県",
    "prefecture_kana": "ワカヤマケン",
    "prefecture_code": 30,
    "city": "和歌山市",
    "city_kana": "ワカヤマシ",
    "town": "南出島",
    "town_kana": "ミナミデジマ",
    "street": null,
    "office_name": null,
    "office_name_kana": null
  },
  "8319": {
    "postcode": "6408319",
    "prefecture": "和歌山県",
    "prefecture_kana": "ワカヤマケン",
    "prefecture_code": 30,
    "city": "和歌山市",
    "city_kana": "ワカヤマシ",
    "town": "手平",
    "town_kana": "テビラ",
    "street": null,
    "office_name": null,
    "office_name_kana": null
  },
  "8320": {
    "postcode": "6408320",
    "prefecture": "和歌山県",
    "prefecture_kana": "ワカヤマケン",
    "prefecture_code": 30,
    "city": "和歌山市",
    "city_kana": "ワカヤマシ",
    "town": "手平出島",
    "town_kana": "テビラデジマ",
    "street": null,
    "office_name": null,
    "office_name_kana": null
  },
  "8321": {
    "postcode": "6408321",
    "prefecture": "和歌山県",
    "prefecture_kana": "ワカヤマケン",
    "prefecture_code": 30,
    "city": "和歌山市",
    "city_kana": "ワカヤマシ",
    "town": "出水",
    "town_kana": "デミズ",
    "street": null,
    "office_name": null,
    "office_name_kana": null
  },
  "8322": {
    "postcode": "6408322",
    "prefecture": "和歌山県",
    "prefecture_kana": "ワカヤマケン",
    "prefecture_code": 30,
    "city": "和歌山市",
    "city_kana": "ワカヤマシ",
    "town": "秋月",
    "town_kana": "アキヅキ",
    "street": null,
    "office_name": null,
    "office_name_kana": null
  },
  "8323": {
    "postcode": "6408323",
    "prefecture": "和歌山県",
    "prefecture_kana": "ワカヤマケン",
    "prefecture_code": 30,
    "city": "和歌山市",
    "city_kana": "ワカヤマシ",
    "town": "太田",
    "town_kana": "オオダ",
    "street": null,
    "office_name": null,
    "office_name_kana": null
  },
  "8324": {
    "postcode": "6408324",
    "prefecture": "和歌山県",
    "prefecture_kana": "ワカヤマケン",
    "prefecture_code": 30,
    "city": "和歌山市",
    "city_kana": "ワカヤマシ",
    "town": "吹屋町",
    "town_kana": "フキヤチョウ",
    "street": null,
    "office_name": null,
    "office_name_kana": null
  },
  "8325": {
    "postcode": "6408325",
    "prefecture": "和歌山県",
    "prefecture_kana": "ワカヤマケン",
    "prefecture_code": 30,
    "city": "和歌山市",
    "city_kana": "ワカヤマシ",
    "town": "新生町",
    "town_kana": "シンセイチョウ",
    "street": null,
    "office_name": null,
    "office_name_kana": null
  },
  "8326": {
    "postcode": "6408326",
    "prefecture": "和歌山県",
    "prefecture_kana": "ワカヤマケン",
    "prefecture_code": 30,
    "city": "和歌山市",
    "city_kana": "ワカヤマシ",
    "town": "新留丁",
    "town_kana": "ニントメチョウ",
    "street": null,
    "office_name": null,
    "office_name_kana": null
  },
  "8327": {
    "postcode": "6408327",
    "prefecture": "和歌山県",
    "prefecture_kana": "ワカヤマケン",
    "prefecture_code": 30,
    "city": "和歌山市",
    "city_kana": "ワカヤマシ",
    "town": "橋向丁",
    "town_kana": "ハシムカイチョウ",
    "street": null,
    "office_name": null,
    "office_name_kana": null
  },
  "8328": {
    "postcode": "6408328",
    "prefecture": "和歌山県",
    "prefecture_kana": "ワカヤマケン",
    "prefecture_code": 30,
    "city": "和歌山市",
    "city_kana": "ワカヤマシ",
    "town": "木広町",
    "town_kana": "キヒロチョウ",
    "street": null,
    "office_name": null,
    "office_name_kana": null
  },
  "8329": {
    "postcode": "6408329",
    "prefecture": "和歌山県",
    "prefecture_kana": "ワカヤマケン",
    "prefecture_code": 30,
    "city": "和歌山市",
    "city_kana": "ワカヤマシ",
    "town": "田中町",
    "town_kana": "タナカマチ",
    "street": null,
    "office_name": null,
    "office_name_kana": null
  },
  "8331": {
    "postcode": "6408331",
    "prefecture": "和歌山県",
    "prefecture_kana": "ワカヤマケン",
    "prefecture_code": 30,
    "city": "和歌山市",
    "city_kana": "ワカヤマシ",
    "town": "美園町",
    "town_kana": "ミソノチョウ",
    "street": null,
    "office_name": null,
    "office_name_kana": null
  },
  "8332": {
    "postcode": "6408332",
    "prefecture": "和歌山県",
    "prefecture_kana": "ワカヤマケン",
    "prefecture_code": 30,
    "city": "和歌山市",
    "city_kana": "ワカヤマシ",
    "town": "楠右衛門小路",
    "town_kana": "クスエモンショウジ",
    "street": null,
    "office_name": null,
    "office_name_kana": null
  },
  "8333": {
    "postcode": "6408333",
    "prefecture": "和歌山県",
    "prefecture_kana": "ワカヤマケン",
    "prefecture_code": 30,
    "city": "和歌山市",
    "city_kana": "ワカヤマシ",
    "town": "蔵小路",
    "town_kana": "クラショウジ",
    "street": null,
    "office_name": null,
    "office_name_kana": null
  },
  "8334": {
    "postcode": "6408334",
    "prefecture": "和歌山県",
    "prefecture_kana": "ワカヤマケン",
    "prefecture_code": 30,
    "city": "和歌山市",
    "city_kana": "ワカヤマシ",
    "town": "茶屋町",
    "town_kana": "チャヤマチ",
    "street": null,
    "office_name": null,
    "office_name_kana": null
  },
  "8335": {
    "postcode": "6408335",
    "prefecture": "和歌山県",
    "prefecture_kana": "ワカヤマケン",
    "prefecture_code": 30,
    "city": "和歌山市",
    "city_kana": "ワカヤマシ",
    "town": "餌差町",
    "town_kana": "エサシマチ",
    "street": null,
    "office_name": null,
    "office_name_kana": null
  },
  "8336": {
    "postcode": "6408336",
    "prefecture": "和歌山県",
    "prefecture_kana": "ワカヤマケン",
    "prefecture_code": 30,
    "city": "和歌山市",
    "city_kana": "ワカヤマシ",
    "town": "柳丁",
    "town_kana": "ヤナギチョウ",
    "street": null,
    "office_name": null,
    "office_name_kana": null
  },
  "8337": {
    "postcode": "6408337",
    "prefecture": "和歌山県",
    "prefecture_kana": "ワカヤマケン",
    "prefecture_code": 30,
    "city": "和歌山市",
    "city_kana": "ワカヤマシ",
    "town": "毛革屋丁",
    "town_kana": "ケガワヤチョウ",
    "street": null,
    "office_name": null,
    "office_name_kana": null
  },
  "8341": {
    "postcode": "6408341",
    "prefecture": "和歌山県",
    "prefecture_kana": "ワカヤマケン",
    "prefecture_code": 30,
    "city": "和歌山市",
    "city_kana": "ワカヤマシ",
    "town": "黒田",
    "town_kana": "クロダ",
    "street": null,
    "office_name": null,
    "office_name_kana": null
  },
  "8342": {
    "postcode": "6408342",
    "prefecture": "和歌山県",
    "prefecture_kana": "ワカヤマケン",
    "prefecture_code": 30,
    "city": "和歌山市",
    "city_kana": "ワカヤマシ",
    "town": "友田町",
    "town_kana": "トモダチョウ",
    "street": null,
    "office_name": null,
    "office_name_kana": null
  },
  "8343": {
    "postcode": "6408343",
    "prefecture": "和歌山県",
    "prefecture_kana": "ワカヤマケン",
    "prefecture_code": 30,
    "city": "和歌山市",
    "city_kana": "ワカヤマシ",
    "town": "吉田",
    "town_kana": "ヨシダ",
    "street": null,
    "office_name": null,
    "office_name_kana": null
  },
  "8344": {
    "postcode": "6408344",
    "prefecture": "和歌山県",
    "prefecture_kana": "ワカヤマケン",
    "prefecture_code": 30,
    "city": "和歌山市",
    "city_kana": "ワカヤマシ",
    "town": "納定",
    "town_kana": "ノウジョウ",
    "street": null,
    "office_name": null,
    "office_name_kana": null
  },
  "8345": {
    "postcode": "6408345",
    "prefecture": "和歌山県",
    "prefecture_kana": "ワカヤマケン",
    "prefecture_code": 30,
    "city": "和歌山市",
    "city_kana": "ワカヤマシ",
    "town": "新在家",
    "town_kana": "シンザイケ",
    "street": null,
    "office_name": null,
    "office_name_kana": null
  },
  "8350": {
    "postcode": "6408350",
    "prefecture": "和歌山県",
    "prefecture_kana": "ワカヤマケン",
    "prefecture_code": 30,
    "city": "和歌山市",
    "city_kana": "ワカヤマシ",
    "town": "北ノ新地分銅丁",
    "town_kana": "キタノシンチフンドウチョウ",
    "street": null,
    "office_name": null,
    "office_name_kana": null
  },
  "8351": {
    "postcode": "6408351",
    "prefecture": "和歌山県",
    "prefecture_kana": "ワカヤマケン",
    "prefecture_code": 30,
    "city": "和歌山市",
    "city_kana": "ワカヤマシ",
    "town": "新内",
    "town_kana": "アロチ",
    "street": null,
    "office_name": null,
    "office_name_kana": null
  },
  "8352": {
    "postcode": "6408352",
    "prefecture": "和歌山県",
    "prefecture_kana": "ワカヤマケン",
    "prefecture_code": 30,
    "city": "和歌山市",
    "city_kana": "ワカヤマシ",
    "town": "北ノ新地裏田町",
    "town_kana": "キタノシンチウラタマチ",
    "street": null,
    "office_name": null,
    "office_name_kana": null
  },
  "8353": {
    "postcode": "6408353",
    "prefecture": "和歌山県",
    "prefecture_kana": "ワカヤマケン",
    "prefecture_code": 30,
    "city": "和歌山市",
    "city_kana": "ワカヤマシ",
    "town": "北ノ新地榎丁",
    "town_kana": "キタノシンチエノキチョウ",
    "street": null,
    "office_name": null,
    "office_name_kana": null
  },
  "8354": {
    "postcode": "6408354",
    "prefecture": "和歌山県",
    "prefecture_kana": "ワカヤマケン",
    "prefecture_code": 30,
    "city": "和歌山市",
    "city_kana": "ワカヤマシ",
    "town": "北ノ新地東ノ丁",
    "town_kana": "キタノシンチヒガシノチョウ",
    "street": null,
    "office_name": null,
    "office_name_kana": null
  },
  "8355": {
    "postcode": "6408355",
    "prefecture": "和歌山県",
    "prefecture_kana": "ワカヤマケン",
    "prefecture_code": 30,
    "city": "和歌山市",
    "city_kana": "ワカヤマシ",
    "town": "北ノ新地",
    "town_kana": "キタノシンチ",
    "street": null,
    "office_name": null,
    "office_name_kana": null
  },
  "8356": {
    "postcode": "6408356",
    "prefecture": "和歌山県",
    "prefecture_kana": "ワカヤマケン",
    "prefecture_code": 30,
    "city": "和歌山市",
    "city_kana": "ワカヤマシ",
    "town": "北ノ新地上六軒丁",
    "town_kana": "キタノシンチカミロッケンチョウ",
    "street": null,
    "office_name": null,
    "office_name_kana": null
  },
  "8357": {
    "postcode": "6408357",
    "prefecture": "和歌山県",
    "prefecture_kana": "ワカヤマケン",
    "prefecture_code": 30,
    "city": "和歌山市",
    "city_kana": "ワカヤマシ",
    "town": "北ノ新地中六軒丁",
    "town_kana": "キタノシンチナカロッケンチョウ",
    "street": null,
    "office_name": null,
    "office_name_kana": null
  },
  "8358": {
    "postcode": "6408358",
    "prefecture": "和歌山県",
    "prefecture_kana": "ワカヤマケン",
    "prefecture_code": 30,
    "city": "和歌山市",
    "city_kana": "ワカヤマシ",
    "town": "北ノ新地下六軒丁",
    "town_kana": "キタノシンチシモロッケンチョウ",
    "street": null,
    "office_name": null,
    "office_name_kana": null
  },
  "8359": {
    "postcode": "6408359",
    "prefecture": "和歌山県",
    "prefecture_kana": "ワカヤマケン",
    "prefecture_code": 30,
    "city": "和歌山市",
    "city_kana": "ワカヤマシ",
    "town": "北ノ新地田町",
    "town_kana": "キタノシンチタマチ",
    "street": null,
    "office_name": null,
    "office_name_kana": null
  },
  "8361": {
    "postcode": "6408361",
    "prefecture": "和歌山県",
    "prefecture_kana": "ワカヤマケン",
    "prefecture_code": 30,
    "city": "和歌山市",
    "city_kana": "ワカヤマシ",
    "town": "岡円福院東ノ丁",
    "town_kana": "オカエンプクインヒガシノチョウ",
    "street": null,
    "office_name": null,
    "office_name_kana": null
  },
  "8362": {
    "postcode": "6408362",
    "prefecture": "和歌山県",
    "prefecture_kana": "ワカヤマケン",
    "prefecture_code": 30,
    "city": "和歌山市",
    "city_kana": "ワカヤマシ",
    "town": "岡織屋小路",
    "town_kana": "オカオリヤショウジ",
    "street": null,
    "office_name": null,
    "office_name_kana": null
  },
  "8363": {
    "postcode": "6408363",
    "prefecture": "和歌山県",
    "prefecture_kana": "ワカヤマケン",
    "prefecture_code": 30,
    "city": "和歌山市",
    "city_kana": "ワカヤマシ",
    "town": "岡南ノ丁",
    "town_kana": "オカミナミノチョウ",
    "street": null,
    "office_name": null,
    "office_name_kana": null
  },
  "8364": {
    "postcode": "6408364",
    "prefecture": "和歌山県",
    "prefecture_kana": "ワカヤマケン",
    "prefecture_code": 30,
    "city": "和歌山市",
    "city_kana": "ワカヤマシ",
    "town": "岡円福院西ノ丁",
    "town_kana": "オカエンプクインニシノチョウ",
    "street": null,
    "office_name": null,
    "office_name_kana": null
  },
  "8365": {
    "postcode": "6408365",
    "prefecture": "和歌山県",
    "prefecture_kana": "ワカヤマケン",
    "prefecture_code": 30,
    "city": "和歌山市",
    "city_kana": "ワカヤマシ",
    "town": "岡北ノ丁",
    "town_kana": "オカキタノチョウ",
    "street": null,
    "office_name": null,
    "office_name_kana": null
  },
  "8371": {
    "postcode": "6408371",
    "prefecture": "和歌山県",
    "prefecture_kana": "ワカヤマケン",
    "prefecture_code": 30,
    "city": "和歌山市",
    "city_kana": "ワカヤマシ",
    "town": "新八百屋丁",
    "town_kana": "シンヤオヤチョウ",
    "street": null,
    "office_name": null,
    "office_name_kana": null
  },
  "8372": {
    "postcode": "6408372",
    "prefecture": "和歌山県",
    "prefecture_kana": "ワカヤマケン",
    "prefecture_code": 30,
    "city": "和歌山市",
    "city_kana": "ワカヤマシ",
    "town": "新大工町",
    "town_kana": "シンダイクマチ",
    "street": null,
    "office_name": null,
    "office_name_kana": null
  },
  "8373": {
    "postcode": "6408373",
    "prefecture": "和歌山県",
    "prefecture_kana": "ワカヤマケン",
    "prefecture_code": 30,
    "city": "和歌山市",
    "city_kana": "ワカヤマシ",
    "town": "木挽丁",
    "town_kana": "コビキチョウ",
    "street": null,
    "office_name": null,
    "office_name_kana": null
  },
  "8374": {
    "postcode": "6408374",
    "prefecture": "和歌山県",
    "prefecture_kana": "ワカヤマケン",
    "prefecture_code": 30,
    "city": "和歌山市",
    "city_kana": "ワカヤマシ",
    "town": "数寄屋丁",
    "town_kana": "スキヤチョウ",
    "street": null,
    "office_name": null,
    "office_name_kana": null
  },
  "8375": {
    "postcode": "6408375",
    "prefecture": "和歌山県",
    "prefecture_kana": "ワカヤマケン",
    "prefecture_code": 30,
    "city": "和歌山市",
    "city_kana": "ワカヤマシ",
    "town": "坊主丁",
    "town_kana": "ボウズチョウ",
    "street": null,
    "office_name": null,
    "office_name_kana": null
  },
  "8376": {
    "postcode": "6408376",
    "prefecture": "和歌山県",
    "prefecture_kana": "ワカヤマケン",
    "prefecture_code": 30,
    "city": "和歌山市",
    "city_kana": "ワカヤマシ",
    "town": "新中通",
    "town_kana": "シンナカドオリ",
    "street": null,
    "office_name": null,
    "office_name_kana": null
  },
  "8377": {
    "postcode": "6408377",
    "prefecture": "和歌山県",
    "prefecture_kana": "ワカヤマケン",
    "prefecture_code": 30,
    "city": "和歌山市",
    "city_kana": "ワカヤマシ",
    "town": "新堺丁",
    "town_kana": "シンサカイチョウ",
    "street": null,
    "office_name": null,
    "office_name_kana": null
  },
  "8378": {
    "postcode": "6408378",
    "prefecture": "和歌山県",
    "prefecture_kana": "ワカヤマケン",
    "prefecture_code": 30,
    "city": "和歌山市",
    "city_kana": "ワカヤマシ",
    "town": "鈴丸丁",
    "town_kana": "スズマルチョウ",
    "street": null,
    "office_name": null,
    "office_name_kana": null
  },
  "8381": {
    "postcode": "6408381",
    "prefecture": "和歌山県",
    "prefecture_kana": "ワカヤマケン",
    "prefecture_code": 30,
    "city": "和歌山市",
    "city_kana": "ワカヤマシ",
    "town": "畑屋敷東ノ丁",
    "town_kana": "ハタヤシキヒガシノチョウ",
    "street": null,
    "office_name": null,
    "office_name_kana": null
  },
  "8382": {
    "postcode": "6408382",
    "prefecture": "和歌山県",
    "prefecture_kana": "ワカヤマケン",
    "prefecture_code": 30,
    "city": "和歌山市",
    "city_kana": "ワカヤマシ",
    "town": "畑屋敷榎丁",
    "town_kana": "ハタヤシキエノキノチョウ",
    "street": null,
    "office_name": null,
    "office_name_kana": null
  },
  "8383": {
    "postcode": "6408383",
    "prefecture": "和歌山県",
    "prefecture_kana": "ワカヤマケン",
    "prefecture_code": 30,
    "city": "和歌山市",
    "city_kana": "ワカヤマシ",
    "town": "畑屋敷円福院東ノ丁",
    "town_kana": "ハタヤシキエンプクインヒガシノチョウ",
    "street": null,
    "office_name": null,
    "office_name_kana": null
  },
  "8384": {
    "postcode": "6408384",
    "prefecture": "和歌山県",
    "prefecture_kana": "ワカヤマケン",
    "prefecture_code": 30,
    "city": "和歌山市",
    "city_kana": "ワカヤマシ",
    "town": "畑屋敷葛屋丁",
    "town_kana": "ハタヤシキクズヤチョウ",
    "street": null,
    "office_name": null,
    "office_name_kana": null
  },
  "8385": {
    "postcode": "6408385",
    "prefecture": "和歌山県",
    "prefecture_kana": "ワカヤマケン",
    "prefecture_code": 30,
    "city": "和歌山市",
    "city_kana": "ワカヤマシ",
    "town": "畑屋敷円福院西ノ丁",
    "town_kana": "ハタヤシキエンプクインニシノチョウ",
    "street": null,
    "office_name": null,
    "office_name_kana": null
  },
  "8386": {
    "postcode": "6408386",
    "prefecture": "和歌山県",
    "prefecture_kana": "ワカヤマケン",
    "prefecture_code": 30,
    "city": "和歌山市",
    "city_kana": "ワカヤマシ",
    "town": "畑屋敷雁木丁",
    "town_kana": "ハタヤシキガンギチョウ",
    "street": null,
    "office_name": null,
    "office_name_kana": null
  },
  "8387": {
    "postcode": "6408387",
    "prefecture": "和歌山県",
    "prefecture_kana": "ワカヤマケン",
    "prefecture_code": 30,
    "city": "和歌山市",
    "city_kana": "ワカヤマシ",
    "town": "畑屋敷袋町",
    "town_kana": "ハタヤシキフクロマチ",
    "street": null,
    "office_name": null,
    "office_name_kana": null
  },
  "8390": {
    "postcode": "6408390",
    "prefecture": "和歌山県",
    "prefecture_kana": "ワカヤマケン",
    "prefecture_code": 30,
    "city": "和歌山市",
    "city_kana": "ワカヤマシ",
    "town": "有本",
    "town_kana": "アリモト",
    "street": null,
    "office_name": null,
    "office_name_kana": null
  },
  "8391": {
    "postcode": "6408391",
    "prefecture": "和歌山県",
    "prefecture_kana": "ワカヤマケン",
    "prefecture_code": 30,
    "city": "和歌山市",
    "city_kana": "ワカヤマシ",
    "town": "加納",
    "town_kana": "カノウ",
    "street": null,
    "office_name": null,
    "office_name_kana": null
  },
  "8392": {
    "postcode": "6408392",
    "prefecture": "和歌山県",
    "prefecture_kana": "ワカヤマケン",
    "prefecture_code": 30,
    "city": "和歌山市",
    "city_kana": "ワカヤマシ",
    "town": "中之島",
    "town_kana": "ナカノシマ",
    "street": null,
    "office_name": null,
    "office_name_kana": null
  },
  "8393": {
    "postcode": "6408393",
    "prefecture": "和歌山県",
    "prefecture_kana": "ワカヤマケン",
    "prefecture_code": 30,
    "city": "和歌山市",
    "city_kana": "ワカヤマシ",
    "town": "畑屋敷端ノ丁",
    "town_kana": "ハタヤシキハシノチョウ",
    "street": null,
    "office_name": null,
    "office_name_kana": null
  },
  "8394": {
    "postcode": "6408394",
    "prefecture": "和歌山県",
    "prefecture_kana": "ワカヤマケン",
    "prefecture_code": 30,
    "city": "和歌山市",
    "city_kana": "ワカヤマシ",
    "town": "畑屋敷千体仏丁",
    "town_kana": "ハタヤシキセンタイブツチョウ",
    "street": null,
    "office_name": null,
    "office_name_kana": null
  },
  "8395": {
    "postcode": "6408395",
    "prefecture": "和歌山県",
    "prefecture_kana": "ワカヤマケン",
    "prefecture_code": 30,
    "city": "和歌山市",
    "city_kana": "ワカヤマシ",
    "town": "畑屋敷中ノ丁",
    "town_kana": "ハタヤシキナカノチョウ",
    "street": null,
    "office_name": null,
    "office_name_kana": null
  },
  "8396": {
    "postcode": "6408396",
    "prefecture": "和歌山県",
    "prefecture_kana": "ワカヤマケン",
    "prefecture_code": 30,
    "city": "和歌山市",
    "city_kana": "ワカヤマシ",
    "town": "畑屋敷西ノ丁",
    "town_kana": "ハタヤシキニシノチョウ",
    "street": null,
    "office_name": null,
    "office_name_kana": null
  },
  "8397": {
    "postcode": "6408397",
    "prefecture": "和歌山県",
    "prefecture_kana": "ワカヤマケン",
    "prefecture_code": 30,
    "city": "和歌山市",
    "city_kana": "ワカヤマシ",
    "town": "畑屋敷新道丁",
    "town_kana": "ハタヤシキシンミチチョウ",
    "street": null,
    "office_name": null,
    "office_name_kana": null
  },
  "8398": {
    "postcode": "6408398",
    "prefecture": "和歌山県",
    "prefecture_kana": "ワカヤマケン",
    "prefecture_code": 30,
    "city": "和歌山市",
    "city_kana": "ワカヤマシ",
    "town": "畑屋敷松ケ枝丁",
    "town_kana": "ハタヤシキマツガエチョウ",
    "street": null,
    "office_name": null,
    "office_name_kana": null
  },
  "8399": {
    "postcode": "6408399",
    "prefecture": "和歌山県",
    "prefecture_kana": "ワカヤマケン",
    "prefecture_code": 30,
    "city": "和歌山市",
    "city_kana": "ワカヤマシ",
    "town": "畑屋敷兵庫ノ丁",
    "town_kana": "ハタヤシキヒョウゴノチョウ",
    "street": null,
    "office_name": null,
    "office_name_kana": null
  },
  "8401": {
    "postcode": "6408401",
    "prefecture": "和歌山県",
    "prefecture_kana": "ワカヤマケン",
    "prefecture_code": 30,
    "city": "和歌山市",
    "city_kana": "ワカヤマシ",
    "town": "福島",
    "town_kana": "フクシマ",
    "street": null,
    "office_name": null,
    "office_name_kana": null
  },
  "8402": {
    "postcode": "6408402",
    "prefecture": "和歌山県",
    "prefecture_kana": "ワカヤマケン",
    "prefecture_code": 30,
    "city": "和歌山市",
    "city_kana": "ワカヤマシ",
    "town": "野崎",
    "town_kana": "ノザキ",
    "street": null,
    "office_name": null,
    "office_name_kana": null
  },
  "8403": {
    "postcode": "6408403",
    "prefecture": "和歌山県",
    "prefecture_kana": "ワカヤマケン",
    "prefecture_code": 30,
    "city": "和歌山市",
    "city_kana": "ワカヤマシ",
    "town": "北島",
    "town_kana": "キタジマ",
    "street": null,
    "office_name": null,
    "office_name_kana": null
  },
  "8404": {
    "postcode": "6408404",
    "prefecture": "和歌山県",
    "prefecture_kana": "ワカヤマケン",
    "prefecture_code": 30,
    "city": "和歌山市",
    "city_kana": "ワカヤマシ",
    "town": "湊",
    "town_kana": "ミナト",
    "street": null,
    "office_name": null,
    "office_name_kana": null
  },
  "8411": {
    "postcode": "6408411",
    "prefecture": "和歌山県",
    "prefecture_kana": "ワカヤマケン",
    "prefecture_code": 30,
    "city": "和歌山市",
    "city_kana": "ワカヤマシ",
    "town": "梶取",
    "town_kana": "カンドリ",
    "street": null,
    "office_name": null,
    "office_name_kana": null
  },
  "8412": {
    "postcode": "6408412",
    "prefecture": "和歌山県",
    "prefecture_kana": "ワカヤマケン",
    "prefecture_code": 30,
    "city": "和歌山市",
    "city_kana": "ワカヤマシ",
    "town": "狐島",
    "town_kana": "キツネジマ",
    "street": null,
    "office_name": null,
    "office_name_kana": null
  },
  "8413": {
    "postcode": "6408413",
    "prefecture": "和歌山県",
    "prefecture_kana": "ワカヤマケン",
    "prefecture_code": 30,
    "city": "和歌山市",
    "city_kana": "ワカヤマシ",
    "town": "島橋東ノ丁",
    "town_kana": "シマバシヒガシノチョウ",
    "street": null,
    "office_name": null,
    "office_name_kana": null
  },
  "8414": {
    "postcode": "6408414",
    "prefecture": "和歌山県",
    "prefecture_kana": "ワカヤマケン",
    "prefecture_code": 30,
    "city": "和歌山市",
    "city_kana": "ワカヤマシ",
    "town": "島橋西ノ丁",
    "town_kana": "シマバシニシノチョウ",
    "street": null,
    "office_name": null,
    "office_name_kana": null
  },
  "8415": {
    "postcode": "6408415",
    "prefecture": "和歌山県",
    "prefecture_kana": "ワカヤマケン",
    "prefecture_code": 30,
    "city": "和歌山市",
    "city_kana": "ワカヤマシ",
    "town": "島橋南ノ丁",
    "town_kana": "シマバシミナミノチョウ",
    "street": null,
    "office_name": null,
    "office_name_kana": null
  },
  "8416": {
    "postcode": "6408416",
    "prefecture": "和歌山県",
    "prefecture_kana": "ワカヤマケン",
    "prefecture_code": 30,
    "city": "和歌山市",
    "city_kana": "ワカヤマシ",
    "town": "島橋北ノ丁",
    "town_kana": "シマバシキタノチョウ",
    "street": null,
    "office_name": null,
    "office_name_kana": null
  },
  "8421": {
    "postcode": "6408421",
    "prefecture": "和歌山県",
    "prefecture_kana": "ワカヤマケン",
    "prefecture_code": 30,
    "city": "和歌山市",
    "city_kana": "ワカヤマシ",
    "town": "松江",
    "town_kana": "マツエ",
    "street": null,
    "office_name": null,
    "office_name_kana": null
  },
  "8422": {
    "postcode": "6408422",
    "prefecture": "和歌山県",
    "prefecture_kana": "ワカヤマケン",
    "prefecture_code": 30,
    "city": "和歌山市",
    "city_kana": "ワカヤマシ",
    "town": "松江東",
    "town_kana": "マツエヒガシ",
    "street": null,
    "office_name": null,
    "office_name_kana": null
  },
  "8423": {
    "postcode": "6408423",
    "prefecture": "和歌山県",
    "prefecture_kana": "ワカヤマケン",
    "prefecture_code": 30,
    "city": "和歌山市",
    "city_kana": "ワカヤマシ",
    "town": "松江中",
    "town_kana": "マツエナカ",
    "street": null,
    "office_name": null,
    "office_name_kana": null
  },
  "8424": {
    "postcode": "6408424",
    "prefecture": "和歌山県",
    "prefecture_kana": "ワカヤマケン",
    "prefecture_code": 30,
    "city": "和歌山市",
    "city_kana": "ワカヤマシ",
    "town": "松江西",
    "town_kana": "マツエニシ",
    "street": null,
    "office_name": null,
    "office_name_kana": null
  },
  "8425": {
    "postcode": "6408425",
    "prefecture": "和歌山県",
    "prefecture_kana": "ワカヤマケン",
    "prefecture_code": 30,
    "city": "和歌山市",
    "city_kana": "ワカヤマシ",
    "town": "松江北",
    "town_kana": "マツエキタ",
    "street": null,
    "office_name": null,
    "office_name_kana": null
  },
  "8431": {
    "postcode": "6408431",
    "prefecture": "和歌山県",
    "prefecture_kana": "ワカヤマケン",
    "prefecture_code": 30,
    "city": "和歌山市",
    "city_kana": "ワカヤマシ",
    "town": "向",
    "town_kana": "ムカイ",
    "street": null,
    "office_name": null,
    "office_name_kana": null
  },
  "8432": {
    "postcode": "6408432",
    "prefecture": "和歌山県",
    "prefecture_kana": "ワカヤマケン",
    "prefecture_code": 30,
    "city": "和歌山市",
    "city_kana": "ワカヤマシ",
    "town": "土入",
    "town_kana": "ドウニュウ",
    "street": null,
    "office_name": null,
    "office_name_kana": null
  },
  "8433": {
    "postcode": "6408433",
    "prefecture": "和歌山県",
    "prefecture_kana": "ワカヤマケン",
    "prefecture_code": 30,
    "city": "和歌山市",
    "city_kana": "ワカヤマシ",
    "town": "中野",
    "town_kana": "ナカノ",
    "street": null,
    "office_name": null,
    "office_name_kana": null
  },
  "8434": {
    "postcode": "6408434",
    "prefecture": "和歌山県",
    "prefecture_kana": "ワカヤマケン",
    "prefecture_code": 30,
    "city": "和歌山市",
    "city_kana": "ワカヤマシ",
    "town": "榎原",
    "town_kana": "エノキハラ",
    "street": null,
    "office_name": null,
    "office_name_kana": null
  },
  "8435": {
    "postcode": "6408435",
    "prefecture": "和歌山県",
    "prefecture_kana": "ワカヤマケン",
    "prefecture_code": 30,
    "city": "和歌山市",
    "city_kana": "ワカヤマシ",
    "town": "古屋",
    "town_kana": "コヤ",
    "street": null,
    "office_name": null,
    "office_name_kana": null
  },
  "8441": {
    "postcode": "6408441",
    "prefecture": "和歌山県",
    "prefecture_kana": "ワカヤマケン",
    "prefecture_code": 30,
    "city": "和歌山市",
    "city_kana": "ワカヤマシ",
    "town": "栄谷",
    "town_kana": "サカエダニ",
    "street": null,
    "office_name": null,
    "office_name_kana": null
  },
  "8442": {
    "postcode": "6408442",
    "prefecture": "和歌山県",
    "prefecture_kana": "ワカヤマケン",
    "prefecture_code": 30,
    "city": "和歌山市",
    "city_kana": "ワカヤマシ",
    "town": "平井",
    "town_kana": "ヒライ",
    "street": null,
    "office_name": null,
    "office_name_kana": null
  },
  "8443": {
    "postcode": "6408443",
    "prefecture": "和歌山県",
    "prefecture_kana": "ワカヤマケン",
    "prefecture_code": 30,
    "city": "和歌山市",
    "city_kana": "ワカヤマシ",
    "town": "延時",
    "town_kana": "ノブトキ",
    "street": null,
    "office_name": null,
    "office_name_kana": null
  },
  "8444": {
    "postcode": "6408444",
    "prefecture": "和歌山県",
    "prefecture_kana": "ワカヤマケン",
    "prefecture_code": 30,
    "city": "和歌山市",
    "city_kana": "ワカヤマシ",
    "town": "次郎丸",
    "town_kana": "ジロマル",
    "street": null,
    "office_name": null,
    "office_name_kana": null
  },
  "8451": {
    "postcode": "6408451",
    "prefecture": "和歌山県",
    "prefecture_kana": "ワカヤマケン",
    "prefecture_code": 30,
    "city": "和歌山市",
    "city_kana": "ワカヤマシ",
    "town": "中",
    "town_kana": "ナカ",
    "street": null,
    "office_name": null,
    "office_name_kana": null
  },
  "8452": {
    "postcode": "6408452",
    "prefecture": "和歌山県",
    "prefecture_kana": "ワカヤマケン",
    "prefecture_code": 30,
    "city": "和歌山市",
    "city_kana": "ワカヤマシ",
    "town": "梅原",
    "town_kana": "ウメハラ",
    "street": null,
    "office_name": null,
    "office_name_kana": null
  },
  "8453": {
    "postcode": "6408453",
    "prefecture": "和歌山県",
    "prefecture_kana": "ワカヤマケン",
    "prefecture_code": 30,
    "city": "和歌山市",
    "city_kana": "ワカヤマシ",
    "town": "木ノ本",
    "town_kana": "キノモト",
    "street": null,
    "office_name": null,
    "office_name_kana": null
  },
  "8454": {
    "postcode": "6408454",
    "prefecture": "和歌山県",
    "prefecture_kana": "ワカヤマケン",
    "prefecture_code": 30,
    "city": "和歌山市",
    "city_kana": "ワカヤマシ",
    "town": "ふじと台",
    "town_kana": "フジトダイ",
    "street": null,
    "office_name": null,
    "office_name_kana": null
  },
  "8461": {
    "postcode": "6408461",
    "prefecture": "和歌山県",
    "prefecture_kana": "ワカヤマケン",
    "prefecture_code": 30,
    "city": "和歌山市",
    "city_kana": "ワカヤマシ",
    "town": "船所",
    "town_kana": "フナドコロ",
    "street": null,
    "office_name": null,
    "office_name_kana": null
  },
  "8462": {
    "postcode": "6408462",
    "prefecture": "和歌山県",
    "prefecture_kana": "ワカヤマケン",
    "prefecture_code": 30,
    "city": "和歌山市",
    "city_kana": "ワカヤマシ",
    "town": "粟",
    "town_kana": "アワ",
    "street": null,
    "office_name": null,
    "office_name_kana": null
  },
  "8463": {
    "postcode": "6408463",
    "prefecture": "和歌山県",
    "prefecture_kana": "ワカヤマケン",
    "prefecture_code": 30,
    "city": "和歌山市",
    "city_kana": "ワカヤマシ",
    "town": "楠見中",
    "town_kana": "クスミナカ",
    "street": null,
    "office_name": null,
    "office_name_kana": null
  },
  "8464": {
    "postcode": "6408464",
    "prefecture": "和歌山県",
    "prefecture_kana": "ワカヤマケン",
    "prefecture_code": 30,
    "city": "和歌山市",
    "city_kana": "ワカヤマシ",
    "town": "市小路",
    "town_kana": "イチショウジ",
    "street": null,
    "office_name": null,
    "office_name_kana": null
  },
  "8471": {
    "postcode": "6408471",
    "prefecture": "和歌山県",
    "prefecture_kana": "ワカヤマケン",
    "prefecture_code": 30,
    "city": "和歌山市",
    "city_kana": "ワカヤマシ",
    "town": "善明寺",
    "town_kana": "ゼンミョウジ",
    "street": null,
    "office_name": null,
    "office_name_kana": null
  },
  "8472": {
    "postcode": "6408472",
    "prefecture": "和歌山県",
    "prefecture_kana": "ワカヤマケン",
    "prefecture_code": 30,
    "city": "和歌山市",
    "city_kana": "ワカヤマシ",
    "town": "大谷",
    "town_kana": "オオタニ",
    "street": null,
    "office_name": null,
    "office_name_kana": null
  },
  "8481": {
    "postcode": "6408481",
    "prefecture": "和歌山県",
    "prefecture_kana": "ワカヤマケン",
    "prefecture_code": 30,
    "city": "和歌山市",
    "city_kana": "ワカヤマシ",
    "town": "直川",
    "town_kana": "ノウガワ",
    "street": null,
    "office_name": null,
    "office_name_kana": null
  },
  "8482": {
    "postcode": "6408482",
    "prefecture": "和歌山県",
    "prefecture_kana": "ワカヤマケン",
    "prefecture_code": 30,
    "city": "和歌山市",
    "city_kana": "ワカヤマシ",
    "town": "六十谷",
    "town_kana": "ムソタ",
    "street": null,
    "office_name": null,
    "office_name_kana": null
  },
  "8483": {
    "postcode": "6408483",
    "prefecture": "和歌山県",
    "prefecture_kana": "ワカヤマケン",
    "prefecture_code": 30,
    "city": "和歌山市",
    "city_kana": "ワカヤマシ",
    "town": "園部",
    "town_kana": "ソノベ",
    "street": null,
    "office_name": null,
    "office_name_kana": null
  },
  "8501": {
    "postcode": "6408501",
    "prefecture": "和歌山県",
    "prefecture_kana": "ワカヤマケン",
    "prefecture_code": 30,
    "city": "和歌山市",
    "city_kana": "ワカヤマシ",
    "town": "美園町",
    "town_kana": "ミソノチョウ",
    "street": "５丁目１−１",
    "office_name": "和歌山県農業協同組合中央会・和歌山県信用農業協同組合連合会・和歌山県農業協同組合連合会・和歌山県共済農業協同組合連合会",
    "office_name_kana": "ワカヤマケン ノウギヨウキヨウドウクミアイチユウオウカイ・ワカヤマケン シンヨウノウギヨウキヨウドウクミアイレンゴウカイ・ワカヤマケン ノウギヨウキヨウドウクミアイレンゴウカイ・ワカヤ"
  },
  "8502": {
    "postcode": "6408502",
    "prefecture": "和歌山県",
    "prefecture_kana": "ワカヤマケン",
    "prefecture_code": 30,
    "city": "和歌山市",
    "city_kana": "ワカヤマシ",
    "town": "元寺町",
    "town_kana": "モトデラマチ",
    "street": "５丁目５８",
    "office_name": "株式会社　長崎屋　和歌山店",
    "office_name_kana": "カブシキガイシヤ ナガサキヤ ワカヤマテン"
  },
  "8503": {
    "postcode": "6408503",
    "prefecture": "和歌山県",
    "prefecture_kana": "ワカヤマケン",
    "prefecture_code": 30,
    "city": "和歌山市",
    "city_kana": "ワカヤマシ",
    "town": "十三番丁",
    "town_kana": "ジュウサンバンチョウ",
    "street": "１２番地",
    "office_name": "株式会社　貴志",
    "office_name_kana": "カブシキガイシヤ キシ"
  },
  "8505": {
    "postcode": "6408505",
    "prefecture": "和歌山県",
    "prefecture_kana": "ワカヤマケン",
    "prefecture_code": 30,
    "city": "和歌山市",
    "city_kana": "ワカヤマシ",
    "town": "古屋",
    "town_kana": "コヤ",
    "street": "４３５",
    "office_name": "独立行政法人　労働者健康福祉機構　和歌山労災病院",
    "office_name_kana": "ドクリツギヨウセイホウジン ロウドウシヤケンコウフクシキコウ ワカヤマロウサイビヨウイン"
  },
  "8507": {
    "postcode": "6408507",
    "prefecture": "和歌山県",
    "prefecture_kana": "ワカヤマケン",
    "prefecture_code": 30,
    "city": "和歌山市",
    "city_kana": "ワカヤマシ",
    "town": "加納",
    "town_kana": "カノウ",
    "street": "３８３",
    "office_name": "和歌山刑務所",
    "office_name_kana": "ワカヤマケイムシヨ"
  },
  "8508": {
    "postcode": "6408508",
    "prefecture": "和歌山県",
    "prefecture_kana": "ワカヤマケン",
    "prefecture_code": 30,
    "city": "和歌山市",
    "city_kana": "ワカヤマシ",
    "town": "橋丁",
    "town_kana": "ハシチョウ",
    "street": "２３番地",
    "office_name": "南海通信特機　株式会社",
    "office_name_kana": "ナンカイツウシントツキ カブシキガイシヤ"
  },
  "8509": {
    "postcode": "6408509",
    "prefecture": "和歌山県",
    "prefecture_kana": "ワカヤマケン",
    "prefecture_code": 30,
    "city": "和歌山市",
    "city_kana": "ワカヤマシ",
    "town": "本町",
    "town_kana": "ホンマチ",
    "street": "１−４３和歌山京橋ビル３階",
    "office_name": "日本年金機構　和歌山事務センター",
    "office_name_kana": "ニツポンネンキンキコウ ワカヤマジムセンタ-"
  },
  "8510": {
    "postcode": "6408510",
    "prefecture": "和歌山県",
    "prefecture_kana": "ワカヤマケン",
    "prefecture_code": 30,
    "city": "和歌山市",
    "city_kana": "ワカヤマシ",
    "town": "栄谷",
    "town_kana": "サカエダニ",
    "street": "９３０",
    "office_name": "和歌山大学",
    "office_name_kana": "ワカヤマダイガク"
  },
  "8511": {
    "postcode": "6408511",
    "prefecture": "和歌山県",
    "prefecture_kana": "ワカヤマケン",
    "prefecture_code": 30,
    "city": "和歌山市",
    "city_kana": "ワカヤマシ",
    "town": "七番丁",
    "town_kana": "シチバンチョウ",
    "street": "２３番地",
    "office_name": "和歌山市役所",
    "office_name_kana": "ワカヤマシヤクシヨ"
  },
  "8512": {
    "postcode": "6408512",
    "prefecture": "和歌山県",
    "prefecture_kana": "ワカヤマケン",
    "prefecture_code": 30,
    "city": "和歌山市",
    "city_kana": "ワカヤマシ",
    "town": "湊",
    "town_kana": "ミナト",
    "street": "５丁目１２番２３号",
    "office_name": "株式会社　雪印アクセス　和歌山支店",
    "office_name_kana": "カブシキガイシヤ ユキジルシアクセス ワカヤマシテン"
  },
  "8513": {
    "postcode": "6408513",
    "prefecture": "和歌山県",
    "prefecture_kana": "ワカヤマケン",
    "prefecture_code": 30,
    "city": "和歌山市",
    "city_kana": "ワカヤマシ",
    "town": "栄谷",
    "town_kana": "サカエダニ",
    "street": "１５３",
    "office_name": "和歌山県　赤十字血液センター",
    "office_name_kana": "ワカヤマケン セキジユウジケツエキセンタ-"
  },
  "8514": {
    "postcode": "6408514",
    "prefecture": "和歌山県",
    "prefecture_kana": "ワカヤマケン",
    "prefecture_code": 30,
    "city": "和歌山市",
    "city_kana": "ワカヤマシ",
    "town": "小松原通",
    "town_kana": "コマツバラドオリ",
    "street": "１丁目１県民文化会館",
    "office_name": "和歌山県医師会",
    "office_name_kana": "ワカヤマケンイシカイ"
  },
  "8515": {
    "postcode": "6408515",
    "prefecture": "和歌山県",
    "prefecture_kana": "ワカヤマケン",
    "prefecture_code": 30,
    "city": "和歌山市",
    "city_kana": "ワカヤマシ",
    "town": "松島",
    "town_kana": "マツシマ",
    "street": "３２３−１",
    "office_name": "株式会社　スズケン　和歌山支店",
    "office_name_kana": "カブシキガイシヤ スズケン ワカヤマシテン"
  },
  "8516": {
    "postcode": "6408516",
    "prefecture": "和歌山県",
    "prefecture_kana": "ワカヤマケン",
    "prefecture_code": 30,
    "city": "和歌山市",
    "city_kana": "ワカヤマシ",
    "town": "六番丁",
    "town_kana": "ロクバンチョウ",
    "street": "５和歌山六番丁８０１ビル",
    "office_name": "全国健康保険協会　和歌山支部",
    "office_name_kana": "ゼンコクケンコウホケンキヨウカイ ワカヤマシブ"
  },
  "8519": {
    "postcode": "6408519",
    "prefecture": "和歌山県",
    "prefecture_kana": "ワカヤマケン",
    "prefecture_code": 30,
    "city": "和歌山市",
    "city_kana": "ワカヤマシ",
    "town": "一番丁",
    "town_kana": "イチバンチョウ",
    "street": "５",
    "office_name": "西日本電信電話　株式会社　和歌山支店",
    "office_name_kana": "ニシニホンデンシンデンワ カブシキガイシヤ ワカヤマシテン"
  },
  "8520": {
    "postcode": "6408520",
    "prefecture": "和歌山県",
    "prefecture_kana": "ワカヤマケン",
    "prefecture_code": 30,
    "city": "和歌山市",
    "city_kana": "ワカヤマシ",
    "town": "二番丁",
    "town_kana": "ニバンチョウ",
    "street": "３和歌山地方合同庁舎",
    "office_name": "和歌山税務署",
    "office_name_kana": "ワカヤマゼイムシヨ"
  },
  "8524": {
    "postcode": "6408524",
    "prefecture": "和歌山県",
    "prefecture_kana": "ワカヤマケン",
    "prefecture_code": 30,
    "city": "和歌山市",
    "city_kana": "ワカヤマシ",
    "town": "西",
    "town_kana": "ニシ",
    "street": "１番地",
    "office_name": "和歌山県　警察本部交通センター",
    "office_name_kana": "ワカヤマケン ケイサツホンブコウツウセンタ-"
  },
  "8525": {
    "postcode": "6408525",
    "prefecture": "和歌山県",
    "prefecture_kana": "ワカヤマケン",
    "prefecture_code": 30,
    "city": "和歌山市",
    "city_kana": "ワカヤマシ",
    "town": "手平",
    "town_kana": "テビラ",
    "street": "３丁目８番４３号",
    "office_name": "株式会社　大黒",
    "office_name_kana": "カブシキガイシヤ ダイコク"
  },
  "8530": {
    "postcode": "6408530",
    "prefecture": "和歌山県",
    "prefecture_kana": "ワカヤマケン",
    "prefecture_code": 30,
    "city": "和歌山市",
    "city_kana": "ワカヤマシ",
    "town": "吹上",
    "town_kana": "フキアゲ",
    "street": "２丁目５−１４",
    "office_name": "和歌山県　社会保険診療報酬支払基金",
    "office_name_kana": "ワカヤマケン シヤカイホケンシンリヨウホウシユウシハライキキン"
  },
  "8533": {
    "postcode": "6408533",
    "prefecture": "和歌山県",
    "prefecture_kana": "ワカヤマケン",
    "prefecture_code": 30,
    "city": "和歌山市",
    "city_kana": "ワカヤマシ",
    "town": "栄谷",
    "town_kana": "サカエダニ",
    "street": "１５１",
    "office_name": "株式会社　テレビ和歌山",
    "office_name_kana": "カブシキガイシヤ テレビワカヤマ"
  },
  "8535": {
    "postcode": "6408535",
    "prefecture": "和歌山県",
    "prefecture_kana": "ワカヤマケン",
    "prefecture_code": 30,
    "city": "和歌山市",
    "city_kana": "ワカヤマシ",
    "town": "中野",
    "town_kana": "ナカノ",
    "street": "３１−１",
    "office_name": "パームシティ　和歌山店",
    "office_name_kana": "パ-ムシテイ ワカヤマテン"
  },
  "8536": {
    "postcode": "6408536",
    "prefecture": "和歌山県",
    "prefecture_kana": "ワカヤマケン",
    "prefecture_code": 30,
    "city": "和歌山市",
    "city_kana": "ワカヤマシ",
    "town": "西汀丁",
    "town_kana": "ニシミギワチョウ",
    "street": "３６番地商工会議所１階",
    "office_name": "和歌山市　選挙管理委員会事務局",
    "office_name_kana": "ワカヤマシ センキヨカンリイインカイジムキヨク"
  },
  "8538": {
    "postcode": "6408538",
    "prefecture": "和歌山県",
    "prefecture_kana": "ワカヤマケン",
    "prefecture_code": 30,
    "city": "和歌山市",
    "city_kana": "ワカヤマシ",
    "town": "東坂ノ上丁",
    "town_kana": "ヒガシサカノウエチョウ",
    "street": "３番地",
    "office_name": "東京医療保健大学　和歌山看護学部　雄湊キャンパス",
    "office_name_kana": "トウキヨウイリヨウホケンダイガク ワカヤマカンゴガクブ オノミナトキヤンパス"
  },
  "8540": {
    "postcode": "6408540",
    "prefecture": "和歌山県",
    "prefecture_kana": "ワカヤマケン",
    "prefecture_code": 30,
    "city": "和歌山市",
    "city_kana": "ワカヤマシ",
    "town": "本町",
    "town_kana": "ホンマチ",
    "street": "４丁目６１番地",
    "office_name": "住友生命保険　相互会社　和歌山支社",
    "office_name_kana": "スミトモセイメイホケン ソウゴカイシヤ ワカヤマシシヤ"
  },
  "8541": {
    "postcode": "6408541",
    "prefecture": "和歌山県",
    "prefecture_kana": "ワカヤマケン",
    "prefecture_code": 30,
    "city": "和歌山市",
    "city_kana": "ワカヤマシ",
    "town": "太田",
    "town_kana": "オオダ",
    "street": "３丁目３−９",
    "office_name": "和歌山東年金事務所",
    "office_name_kana": "ワカヤマヒガシネンキンジムシヨ"
  },
  "8544": {
    "postcode": "6408544",
    "prefecture": "和歌山県",
    "prefecture_kana": "ワカヤマケン",
    "prefecture_code": 30,
    "city": "和歌山市",
    "city_kana": "ワカヤマシ",
    "town": "有家",
    "town_kana": "アリエ",
    "street": "５７−１５",
    "office_name": "有限会社　ジェイ・ウィング",
    "office_name_kana": "ユウゲンガイシヤ ジエイ・ウイング"
  },
  "8545": {
    "postcode": "6408545",
    "prefecture": "和歌山県",
    "prefecture_kana": "ワカヤマケン",
    "prefecture_code": 30,
    "city": "和歌山市",
    "city_kana": "ワカヤマシ",
    "town": "手平",
    "town_kana": "テビラ",
    "street": "２丁目１番２号県民交流プラザ和歌山ビック愛",
    "office_name": "社会福祉法人　和歌山県社会福祉協議会",
    "office_name_kana": "シヤカイフクシホウジン ワカヤマケンシヤカイフクシキヨウギカイ"
  },
  "8546": {
    "postcode": "6408546",
    "prefecture": "和歌山県",
    "prefecture_kana": "ワカヤマケン",
    "prefecture_code": 30,
    "city": "和歌山市",
    "city_kana": "ワカヤマシ",
    "town": "友田町",
    "town_kana": "トモダチョウ",
    "street": "５丁目４６番地",
    "office_name": "株式会社　和歌山近鉄百貨店",
    "office_name_kana": "カブシキガイシヤ ワカヤマキンテツヒヤツカテン"
  },
  "8550": {
    "postcode": "6408550",
    "prefecture": "和歌山県",
    "prefecture_kana": "ワカヤマケン",
    "prefecture_code": 30,
    "city": "和歌山市",
    "city_kana": "ワカヤマシ",
    "town": "梅原",
    "town_kana": "ウメハラ",
    "street": "５７９−１",
    "office_name": "ノーリツプレシジョン　株式会社",
    "office_name_kana": "ノ-リツプレシジヨン カブシキガイシヤ"
  },
  "8551": {
    "postcode": "6408551",
    "prefecture": "和歌山県",
    "prefecture_kana": "ワカヤマケン",
    "prefecture_code": 30,
    "city": "和歌山市",
    "city_kana": "ワカヤマシ",
    "town": "小松原通",
    "town_kana": "コマツバラドオリ",
    "street": "３丁目６９番地",
    "office_name": "株式会社　淺川組",
    "office_name_kana": "カブシキガイシヤ アサカワグミ"
  },
  "8552": {
    "postcode": "6408552",
    "prefecture": "和歌山県",
    "prefecture_kana": "ワカヤマケン",
    "prefecture_code": 30,
    "city": "和歌山市",
    "city_kana": "ワカヤマシ",
    "town": "二番丁",
    "town_kana": "ニバンチョウ",
    "street": "３",
    "office_name": "和歌山地方法務局",
    "office_name_kana": "ワカヤマチホウホウムキヨク"
  },
  "8555": {
    "postcode": "6408555",
    "prefecture": "和歌山県",
    "prefecture_kana": "ワカヤマケン",
    "prefecture_code": 30,
    "city": "和歌山市",
    "city_kana": "ワカヤマシ",
    "town": "湊",
    "town_kana": "ミナト",
    "street": "１８５０番地",
    "office_name": "日本製鉄　株式会社　関西製鉄所",
    "office_name_kana": "ニツポンセイテツ カブシキカイシヤ カンサイセイテツシヨ"
  },
  "8556": {
    "postcode": "6408556",
    "prefecture": "和歌山県",
    "prefecture_kana": "ワカヤマケン",
    "prefecture_code": 30,
    "city": "和歌山市",
    "city_kana": "ワカヤマシ",
    "town": "吹上",
    "town_kana": "フキアゲ",
    "street": "２丁目３番４７号",
    "office_name": "日本放送協会　和歌山放送局",
    "office_name_kana": "ニホンホウソウキヨウカイ ワカヤマホウソウキヨク"
  },
  "8557": {
    "postcode": "6408557",
    "prefecture": "和歌山県",
    "prefecture_kana": "ワカヤマケン",
    "prefecture_code": 30,
    "city": "和歌山市",
    "city_kana": "ワカヤマシ",
    "town": "小野町",
    "town_kana": "オノマチ",
    "street": "１丁目１８番地",
    "office_name": "株式会社　和歌山リビング新聞社",
    "office_name_kana": "カブシキガイシヤ ワカヤマリビングシンブンシヤ"
  },
  "8558": {
    "postcode": "6408558",
    "prefecture": "和歌山県",
    "prefecture_kana": "ワカヤマケン",
    "prefecture_code": 30,
    "city": "和歌山市",
    "city_kana": "ワカヤマシ",
    "town": "小松原通",
    "town_kana": "コマツバラドオリ",
    "street": "４丁目２０",
    "office_name": "日本赤十字社　和歌山医療センター",
    "office_name_kana": "ニツポンセキジユウジシヤ ワカヤマイリヨウセンタ-"
  },
  "8560": {
    "postcode": "6408560",
    "prefecture": "和歌山県",
    "prefecture_kana": "ワカヤマケン",
    "prefecture_code": 30,
    "city": "和歌山市",
    "city_kana": "ワカヤマシ",
    "town": "東蔵前丁",
    "town_kana": "ヒガシクラマエチョウ",
    "street": "４番地",
    "office_name": "千代田火災海上保険　株式会社　和歌山支店",
    "office_name_kana": "チヨダカサイカイジヨウホケン カブシキガイシヤ ワカヤマシテン"
  },
  "8564": {
    "postcode": "6408564",
    "prefecture": "和歌山県",
    "prefecture_kana": "ワカヤマケン",
    "prefecture_code": 30,
    "city": "和歌山市",
    "city_kana": "ワカヤマシ",
    "town": "南桶屋町",
    "town_kana": "ミナミオケヤマチ",
    "street": "７番地",
    "office_name": "株式会社　ゴトウ洋服店",
    "office_name_kana": "カブシキガイシヤ ゴトウヨウフクテン"
  },
  "8565": {
    "postcode": "6408565",
    "prefecture": "和歌山県",
    "prefecture_kana": "ワカヤマケン",
    "prefecture_code": 30,
    "city": "和歌山市",
    "city_kana": "ワカヤマシ",
    "town": "元博労町",
    "town_kana": "モトバクロウマチ",
    "street": "３８",
    "office_name": "株式会社　山本種苗園",
    "office_name_kana": "カブシキガイシヤ ヤマモトシユビヨウエン"
  },
  "8566": {
    "postcode": "6408566",
    "prefecture": "和歌山県",
    "prefecture_kana": "ワカヤマケン",
    "prefecture_code": 30,
    "city": "和歌山市",
    "city_kana": "ワカヤマシ",
    "town": "西汀丁",
    "town_kana": "ニシミギワチョウ",
    "street": "２６",
    "office_name": "社団法人　和歌山県　経済センター",
    "office_name_kana": "シヤダンホウジン ワカヤマケン ケイザイセンタ-"
  },
  "8567": {
    "postcode": "6408567",
    "prefecture": "和歌山県",
    "prefecture_kana": "ワカヤマケン",
    "prefecture_code": 30,
    "city": "和歌山市",
    "city_kana": "ワカヤマシ",
    "town": "西汀丁",
    "town_kana": "ニシミギワチョウ",
    "street": "３６",
    "office_name": "和歌山商工会議所",
    "office_name_kana": "ワカヤマシヨウコウカイギシヨ"
  },
  "8570": {
    "postcode": "6408570",
    "prefecture": "和歌山県",
    "prefecture_kana": "ワカヤマケン",
    "prefecture_code": 30,
    "city": "和歌山市",
    "city_kana": "ワカヤマシ",
    "town": "南中間町",
    "town_kana": "ミナミチュウゲンマチ",
    "street": "２０番地",
    "office_name": "ニュース和歌山　株式会社",
    "office_name_kana": "ニユ-スワカヤマ カブシキガイシヤ"
  },
  "8575": {
    "postcode": "6408575",
    "prefecture": "和歌山県",
    "prefecture_kana": "ワカヤマケン",
    "prefecture_code": 30,
    "city": "和歌山市",
    "city_kana": "ワカヤマシ",
    "town": "本町",
    "town_kana": "ホンマチ",
    "street": "２丁目１番地",
    "office_name": "株式会社　丸正",
    "office_name_kana": "カブシキガイシヤ マルシヨウ"
  },
  "8577": {
    "postcode": "6408577",
    "prefecture": "和歌山県",
    "prefecture_kana": "ワカヤマケン",
    "prefecture_code": 30,
    "city": "和歌山市",
    "city_kana": "ワカヤマシ",
    "town": "湊本町",
    "town_kana": "ミナトホンマチ",
    "street": "３丁目３番地",
    "office_name": "株式会社　和歌山放送",
    "office_name_kana": "カブシキガイシヤ ワカヤマホウソウ"
  },
  "8580": {
    "postcode": "6408580",
    "prefecture": "和歌山県",
    "prefecture_kana": "ワカヤマケン",
    "prefecture_code": 30,
    "city": "和歌山市",
    "city_kana": "ワカヤマシ",
    "town": "湊",
    "town_kana": "ミナト",
    "street": "１３３４",
    "office_name": "花王　株式会社　和歌山工場",
    "office_name_kana": "カオウ カブシキガイシヤ ワカヤマコウジヨウ"
  },
  "8581": {
    "postcode": "6408581",
    "prefecture": "和歌山県",
    "prefecture_kana": "ワカヤマケン",
    "prefecture_code": 30,
    "city": "和歌山市",
    "city_kana": "ワカヤマシ",
    "town": "黒田",
    "town_kana": "クロダ",
    "street": "４８",
    "office_name": "和歌山労働局",
    "office_name_kana": "ワカヤマロウドウキヨク"
  },
  "8582": {
    "postcode": "6408582",
    "prefecture": "和歌山県",
    "prefecture_kana": "ワカヤマケン",
    "prefecture_code": 30,
    "city": "和歌山市",
    "city_kana": "ワカヤマシ",
    "town": "黒田",
    "town_kana": "クロダ",
    "street": "４８",
    "office_name": "和歌山労働基準監督署",
    "office_name_kana": "ワカヤマロウドウキジユンカントクシヨ"
  },
  "8585": {
    "postcode": "6408585",
    "prefecture": "和歌山県",
    "prefecture_kana": "ワカヤマケン",
    "prefecture_code": 30,
    "city": "和歌山市",
    "city_kana": "ワカヤマシ",
    "town": "小松原通",
    "town_kana": "コマツバラドオリ",
    "street": "１丁目１",
    "office_name": "和歌山県庁",
    "office_name_kana": "ワカヤマケンチヨウ"
  },
  "8586": {
    "postcode": "6408586",
    "prefecture": "和歌山県",
    "prefecture_kana": "ワカヤマケン",
    "prefecture_code": 30,
    "city": "和歌山市",
    "city_kana": "ワカヤマシ",
    "town": "二番丁",
    "town_kana": "ニバンチョウ",
    "street": "３番地",
    "office_name": "和歌山地方検察庁",
    "office_name_kana": "ワカヤマチホウケンサツチヨウ"
  },
  "8588": {
    "postcode": "6408588",
    "prefecture": "和歌山県",
    "prefecture_kana": "ワカヤマケン",
    "prefecture_code": 30,
    "city": "和歌山市",
    "city_kana": "ワカヤマシ",
    "town": "小松原通",
    "town_kana": "コマツバラドオリ",
    "street": "１丁目１",
    "office_name": "和歌山県警察本部",
    "office_name_kana": "ワカヤマケンケイサツホンブ"
  },
  "8589": {
    "postcode": "6408589",
    "prefecture": "和歌山県",
    "prefecture_kana": "ワカヤマケン",
    "prefecture_code": 30,
    "city": "和歌山市",
    "city_kana": "ワカヤマシ",
    "town": "雑賀屋町東ノ丁",
    "town_kana": "サイカヤマチヒガシノチョウ",
    "street": "３５番地",
    "office_name": "株式会社　日本教育書道研究会",
    "office_name_kana": "カブシキガイシヤ ニホンキヨウイクシヨドウケンキユウカイ"
  },
  "8651": {
    "postcode": "6408651",
    "prefecture": "和歌山県",
    "prefecture_kana": "ワカヤマケン",
    "prefecture_code": 30,
    "city": "和歌山市",
    "city_kana": "ワカヤマシ",
    "town": "本町",
    "town_kana": "ホンマチ",
    "street": "１丁目４７（和歌山中央郵便局私書箱第３７号）",
    "office_name": "大和証券　株式会社　和歌山支店",
    "office_name_kana": "ダイワシヨウケン カブシキガイシヤ ワカヤマシテン"
  },
  "8652": {
    "postcode": "6408652",
    "prefecture": "和歌山県",
    "prefecture_kana": "ワカヤマケン",
    "prefecture_code": 30,
    "city": "和歌山市",
    "city_kana": "ワカヤマシ",
    "town": "美園町",
    "town_kana": "ミソノチョウ",
    "street": "５丁目１−３（和歌山中央郵便局私書箱第１８号）",
    "office_name": "泉州銀行　和歌山支店",
    "office_name_kana": "センシユウギンコウ ワカヤマシテン"
  },
  "8653": {
    "postcode": "6408653",
    "prefecture": "和歌山県",
    "prefecture_kana": "ワカヤマケン",
    "prefecture_code": 30,
    "city": "和歌山市",
    "city_kana": "ワカヤマシ",
    "town": "本町",
    "town_kana": "ホンマチ",
    "street": "３丁目２７（和歌山中央郵便局私書箱第５号）",
    "office_name": "商工組合中央金庫　和歌山支店",
    "office_name_kana": "シヨウコウクミアイチユウオウキンコ ワカヤマシテン"
  },
  "8654": {
    "postcode": "6408654",
    "prefecture": "和歌山県",
    "prefecture_kana": "ワカヤマケン",
    "prefecture_code": 30,
    "city": "和歌山市",
    "city_kana": "ワカヤマシ",
    "town": "十番丁",
    "town_kana": "ジュウバンチョウ",
    "street": "１５（和歌山中央郵便局私書箱第１９号）",
    "office_name": "東洋信託銀行　和歌山支店",
    "office_name_kana": "トウヨウシンタクギンコウ ワカヤマシテン"
  },
  "8655": {
    "postcode": "6408655",
    "prefecture": "和歌山県",
    "prefecture_kana": "ワカヤマケン",
    "prefecture_code": 30,
    "city": "和歌山市",
    "city_kana": "ワカヤマシ",
    "town": "本町",
    "town_kana": "ホンマチ",
    "street": "２丁目３８（和歌山中央郵便局私書箱第４８号）",
    "office_name": "きのくに信用金庫",
    "office_name_kana": "キノクニシンヨウキンコ"
  },
  "8656": {
    "postcode": "6408656",
    "prefecture": "和歌山県",
    "prefecture_kana": "ワカヤマケン",
    "prefecture_code": 30,
    "city": "和歌山市",
    "city_kana": "ワカヤマシ",
    "town": "本町",
    "town_kana": "ホンマチ",
    "street": "１丁目３５番地（和歌山中央郵便局私書箱第２１号）",
    "office_name": "株式会社　紀陽銀行",
    "office_name_kana": "カブシキガイシヤ キヨウギンコウ"
  },
  "8657": {
    "postcode": "6408657",
    "prefecture": "和歌山県",
    "prefecture_kana": "ワカヤマケン",
    "prefecture_code": 30,
    "city": "和歌山市",
    "city_kana": "ワカヤマシ",
    "town": "六番丁",
    "town_kana": "ロクバンチョウ",
    "street": "２４番地（和歌山中央郵便局私書箱第３０号）",
    "office_name": "農林中央金庫　和歌山事務所",
    "office_name_kana": "ノウリンチユウオウキンコ ワカヤマジムシヨ"
  },
  "8659": {
    "postcode": "6408659",
    "prefecture": "和歌山県",
    "prefecture_kana": "ワカヤマケン",
    "prefecture_code": 30,
    "city": "和歌山市",
    "city_kana": "ワカヤマシ",
    "town": "七番丁",
    "town_kana": "シチバンチョウ",
    "street": "２４番地（和歌山中央郵便局私書箱第２９号）",
    "office_name": "株式会社　和歌山銀行",
    "office_name_kana": "カブシキガイシヤ ワカヤマギンコウ"
  },
  "8666": {
    "postcode": "6408666",
    "prefecture": "和歌山県",
    "prefecture_kana": "ワカヤマケン",
    "prefecture_code": 30,
    "city": "和歌山市",
    "city_kana": "ワカヤマシ",
    "town": "八番丁",
    "town_kana": "ハチバンチョウ",
    "street": "１１（和歌山中央郵便局私書箱第１１号）",
    "office_name": "日本生命保険　相互会社　和歌山支社",
    "office_name_kana": "ニホンセイメイホケン ソウゴガイシヤ ワカヤマシシヤ"
  },
  "8668": {
    "postcode": "6408668",
    "prefecture": "和歌山県",
    "prefecture_kana": "ワカヤマケン",
    "prefecture_code": 30,
    "city": "和歌山市",
    "city_kana": "ワカヤマシ",
    "town": "中之島",
    "town_kana": "ナカノシマ",
    "street": "２２４０番地（和歌山中央郵便局私書箱第４９号）",
    "office_name": "株式会社　紀陽銀行　向芝オフィス",
    "office_name_kana": "カブシキガイシヤ キヨウギンコウ ムコウノシバオフイス"
  },
  "8686": {
    "postcode": "6408686",
    "prefecture": "和歌山県",
    "prefecture_kana": "ワカヤマケン",
    "prefecture_code": 30,
    "city": "和歌山市",
    "city_kana": "ワカヤマシ",
    "town": "手平",
    "town_kana": "テビラ",
    "street": "６丁目５番６６号（和歌山中央郵便局私書箱第１５号）",
    "office_name": "三菱電機　株式会社　冷熱システム製作所",
    "office_name_kana": "ミツビシデンキ レイネツシステムセイサクシヨ"
  },
  "8687": {
    "postcode": "6408687",
    "prefecture": "和歌山県",
    "prefecture_kana": "ワカヤマケン",
    "prefecture_code": 30,
    "city": "和歌山市",
    "city_kana": "ワカヤマシ",
    "town": "十番丁",
    "town_kana": "ジュウバンチョウ",
    "street": "９−２（和歌山中央郵便局私書箱第２７号）",
    "office_name": "野村證券　株式会社　和歌山支店",
    "office_name_kana": "ノムラシヨウケン カブシキガイシヤ ワカヤマシテン"
  },
  "8787": {
    "postcode": "6408787",
    "prefecture": "和歌山県",
    "prefecture_kana": "ワカヤマケン",
    "prefecture_code": 30,
    "city": "和歌山市",
    "city_kana": "ワカヤマシ",
    "town": "黒田",
    "town_kana": "クロダ",
    "street": "１丁目１番１９号阪和第一ビル３Ｆ",
    "office_name": "株式会社　ゆうちょ銀行　和歌山パートナーセンター",
    "office_name_kana": "カブシキガイシヤ ユウチヨギンコウ ワカヤマパ-トナ-センタ-"
  }
}