{
  "0051": {
    "postcode": "6510051",
    "prefecture": "兵庫県",
    "prefecture_kana": "ヒョウゴケン",
    "prefecture_code": 28,
    "city": "神戸市中央区",
    "city_kana": "コウベシチュウオウク",
    "town": "神仙寺通",
    "town_kana": "シンセンジドオリ",
    "street": null,
    "office_name": null,
    "office_name_kana": null
  },
  "0052": {
    "postcode": "6510052",
    "prefecture": "兵庫県",
    "prefecture_kana": "ヒョウゴケン",
    "prefecture_code": 28,
    "city": "神戸市中央区",
    "city_kana": "コウベシチュウオウク",
    "town": "中島通",
    "town_kana": "ナカジマドオリ",
    "street": null,
    "office_name": null,
    "office_name_kana": null
  },
  "0053": {
    "postcode": "6510053",
    "prefecture": "兵庫県",
    "prefecture_kana": "ヒョウゴケン",
    "prefecture_code": 28,
    "city": "神戸市中央区",
    "city_kana": "コウベシチュウオウク",
    "town": "籠池通",
    "town_kana": "カゴイケドオリ",
    "street": null,
    "office_name": null,
    "office_name_kana": null
  },
  "0054": {
    "postcode": "6510054",
    "prefecture": "兵庫県",
    "prefecture_kana": "ヒョウゴケン",
    "prefecture_code": 28,
    "city": "神戸市中央区",
    "city_kana": "コウベシチュウオウク",
    "town": "野崎通",
    "town_kana": "ノザキドオリ",
    "street": null,
    "office_name": null,
    "office_name_kana": null
  },
  "0055": {
    "postcode": "6510055",
    "prefecture": "兵庫県",
    "prefecture_kana": "ヒョウゴケン",
    "prefecture_code": 28,
    "city": "神戸市中央区",
    "city_kana": "コウベシチュウオウク",
    "town": "熊内橋通",
    "town_kana": "クモチバシドオリ",
    "street": null,
    "office_name": null,
    "office_name_kana": null
  },
  "0056": {
    "postcode": "6510056",
    "prefecture": "兵庫県",
    "prefecture_kana": "ヒョウゴケン",
    "prefecture_code": 28,
    "city": "神戸市中央区",
    "city_kana": "コウベシチュウオウク",
    "town": "熊内町",
    "town_kana": "クモチチョウ",
    "street": null,
    "office_name": null,
    "office_name_kana": null
  },
  "0057": {
    "postcode": "6510057",
    "prefecture": "兵庫県",
    "prefecture_kana": "ヒョウゴケン",
    "prefecture_code": 28,
    "city": "神戸市中央区",
    "city_kana": "コウベシチュウオウク",
    "town": "中尾町",
    "town_kana": "ナカオチョウ",
    "street": null,
    "office_name": null,
    "office_name_kana": null
  },
  "0058": {
    "postcode": "6510058",
    "prefecture": "兵庫県",
    "prefecture_kana": "ヒョウゴケン",
    "prefecture_code": 28,
    "city": "神戸市中央区",
    "city_kana": "コウベシチュウオウク",
    "town": "葺合町",
    "town_kana": "フキアイチョウ",
    "street": null,
    "office_name": null,
    "office_name_kana": null
  },
  "0061": {
    "postcode": "6510061",
    "prefecture": "兵庫県",
    "prefecture_kana": "ヒョウゴケン",
    "prefecture_code": 28,
    "city": "神戸市中央区",
    "city_kana": "コウベシチュウオウク",
    "town": "上筒井通",
    "town_kana": "カミツツイドオリ",
    "street": null,
    "office_name": null,
    "office_name_kana": null
  },
  "0062": {
    "postcode": "6510062",
    "prefecture": "兵庫県",
    "prefecture_kana": "ヒョウゴケン",
    "prefecture_code": 28,
    "city": "神戸市中央区",
    "city_kana": "コウベシチュウオウク",
    "town": "坂口通",
    "town_kana": "サカグチドオリ",
    "street": null,
    "office_name": null,
    "office_name_kana": null
  },
  "0063": {
    "postcode": "6510063",
    "prefecture": "兵庫県",
    "prefecture_kana": "ヒョウゴケン",
    "prefecture_code": 28,
    "city": "神戸市中央区",
    "city_kana": "コウベシチュウオウク",
    "town": "宮本通",
    "town_kana": "ミヤモトドオリ",
    "street": null,
    "office_name": null,
    "office_name_kana": null
  },
  "0064": {
    "postcode": "6510064",
    "prefecture": "兵庫県",
    "prefecture_kana": "ヒョウゴケン",
    "prefecture_code": 28,
    "city": "神戸市中央区",
    "city_kana": "コウベシチュウオウク",
    "town": "大日通",
    "town_kana": "ダイニチドオリ",
    "street": null,
    "office_name": null,
    "office_name_kana": null
  },
  "0065": {
    "postcode": "6510065",
    "prefecture": "兵庫県",
    "prefecture_kana": "ヒョウゴケン",
    "prefecture_code": 28,
    "city": "神戸市中央区",
    "city_kana": "コウベシチュウオウク",
    "town": "割塚通",
    "town_kana": "ワリヅカドオリ",
    "street": null,
    "office_name": null,
    "office_name_kana": null
  },
  "0066": {
    "postcode": "6510066",
    "prefecture": "兵庫県",
    "prefecture_kana": "ヒョウゴケン",
    "prefecture_code": 28,
    "city": "神戸市中央区",
    "city_kana": "コウベシチュウオウク",
    "town": "国香通",
    "town_kana": "クニカドオリ",
    "street": null,
    "office_name": null,
    "office_name_kana": null
  },
  "0067": {
    "postcode": "6510067",
    "prefecture": "兵庫県",
    "prefecture_kana": "ヒョウゴケン",
    "prefecture_code": 28,
    "city": "神戸市中央区",
    "city_kana": "コウベシチュウオウク",
    "town": "神若通",
    "town_kana": "カミワカドオリ",
    "street": null,
    "office_name": null,
    "office_name_kana": null
  },
  "0068": {
    "postcode": "6510068",
    "prefecture": "兵庫県",
    "prefecture_kana": "ヒョウゴケン",
    "prefecture_code": 28,
    "city": "神戸市中央区",
    "city_kana": "コウベシチュウオウク",
    "town": "旗塚通",
    "town_kana": "ハタヅカドオリ",
    "street": null,
    "office_name": null,
    "office_name_kana": null
  },
  "0071": {
    "postcode": "6510071",
    "prefecture": "兵庫県",
    "prefecture_kana": "ヒョウゴケン",
    "prefecture_code": 28,
    "city": "神戸市中央区",
    "city_kana": "コウベシチュウオウク",
    "town": "筒井町",
    "town_kana": "ツツイチョウ",
    "street": null,
    "office_name": null,
    "office_name_kana": null
  },
  "0072": {
    "postcode": "6510072",
    "prefecture": "兵庫県",
    "prefecture_kana": "ヒョウゴケン",
    "prefecture_code": 28,
    "city": "神戸市中央区",
    "city_kana": "コウベシチュウオウク",
    "town": "脇浜町",
    "town_kana": "ワキノハマチョウ",
    "street": null,
    "office_name": null,
    "office_name_kana": null
  },
  "0073": {
    "postcode": "6510073",
    "prefecture": "兵庫県",
    "prefecture_kana": "ヒョウゴケン",
    "prefecture_code": 28,
    "city": "神戸市中央区",
    "city_kana": "コウベシチュウオウク",
    "town": "脇浜海岸通",
    "town_kana": "ワキノハマカイガンドオリ",
    "street": null,
    "office_name": null,
    "office_name_kana": null
  },
  "0074": {
    "postcode": "6510074",
    "prefecture": "兵庫県",
    "prefecture_kana": "ヒョウゴケン",
    "prefecture_code": 28,
    "city": "神戸市中央区",
    "city_kana": "コウベシチュウオウク",
    "town": "南本町通",
    "town_kana": "ミナミホンマチドオリ",
    "street": null,
    "office_name": null,
    "office_name_kana": null
  },
  "0075": {
    "postcode": "6510075",
    "prefecture": "兵庫県",
    "prefecture_kana": "ヒョウゴケン",
    "prefecture_code": 28,
    "city": "神戸市中央区",
    "city_kana": "コウベシチュウオウク",
    "town": "北本町通",
    "town_kana": "キタホンマチドオリ",
    "street": null,
    "office_name": null,
    "office_name_kana": null
  },
  "0076": {
    "postcode": "6510076",
    "prefecture": "兵庫県",
    "prefecture_kana": "ヒョウゴケン",
    "prefecture_code": 28,
    "city": "神戸市中央区",
    "city_kana": "コウベシチュウオウク",
    "town": "吾妻通",
    "town_kana": "アヅマドオリ",
    "street": null,
    "office_name": null,
    "office_name_kana": null
  },
  "0077": {
    "postcode": "6510077",
    "prefecture": "兵庫県",
    "prefecture_kana": "ヒョウゴケン",
    "prefecture_code": 28,
    "city": "神戸市中央区",
    "city_kana": "コウベシチュウオウク",
    "town": "日暮通",
    "town_kana": "ヒグレドオリ",
    "street": null,
    "office_name": null,
    "office_name_kana": null
  },
  "0078": {
    "postcode": "6510078",
    "prefecture": "兵庫県",
    "prefecture_kana": "ヒョウゴケン",
    "prefecture_code": 28,
    "city": "神戸市中央区",
    "city_kana": "コウベシチュウオウク",
    "town": "八雲通",
    "town_kana": "ヤグモドオリ",
    "street": null,
    "office_name": null,
    "office_name_kana": null
  },
  "0079": {
    "postcode": "6510079",
    "prefecture": "兵庫県",
    "prefecture_kana": "ヒョウゴケン",
    "prefecture_code": 28,
    "city": "神戸市中央区",
    "city_kana": "コウベシチュウオウク",
    "town": "東雲通",
    "town_kana": "シノノメドオリ",
    "street": null,
    "office_name": null,
    "office_name_kana": null
  },
  "0081": {
    "postcode": "6510081",
    "prefecture": "兵庫県",
    "prefecture_kana": "ヒョウゴケン",
    "prefecture_code": 28,
    "city": "神戸市中央区",
    "city_kana": "コウベシチュウオウク",
    "town": "真砂通",
    "town_kana": "マサゴドオリ",
    "street": null,
    "office_name": null,
    "office_name_kana": null
  },
  "0082": {
    "postcode": "6510082",
    "prefecture": "兵庫県",
    "prefecture_kana": "ヒョウゴケン",
    "prefecture_code": 28,
    "city": "神戸市中央区",
    "city_kana": "コウベシチュウオウク",
    "town": "小野浜町",
    "town_kana": "オノハマチョウ",
    "street": null,
    "office_name": null,
    "office_name_kana": null
  },
  "0083": {
    "postcode": "6510083",
    "prefecture": "兵庫県",
    "prefecture_kana": "ヒョウゴケン",
    "prefecture_code": 28,
    "city": "神戸市中央区",
    "city_kana": "コウベシチュウオウク",
    "town": "浜辺通",
    "town_kana": "ハマベドオリ",
    "street": null,
    "office_name": null,
    "office_name_kana": null
  },
  "0084": {
    "postcode": "6510084",
    "prefecture": "兵庫県",
    "prefecture_kana": "ヒョウゴケン",
    "prefecture_code": 28,
    "city": "神戸市中央区",
    "city_kana": "コウベシチュウオウク",
    "town": "磯辺通",
    "town_kana": "イソベドオリ",
    "street": null,
    "office_name": null,
    "office_name_kana": null
  },
  "0085": {
    "postcode": "6510085",
    "prefecture": "兵庫県",
    "prefecture_kana": "ヒョウゴケン",
    "prefecture_code": 28,
    "city": "神戸市中央区",
    "city_kana": "コウベシチュウオウク",
    "town": "八幡通",
    "town_kana": "ハチマンドオリ",
    "street": null,
    "office_name": null,
    "office_name_kana": null
  },
  "0086": {
    "postcode": "6510086",
    "prefecture": "兵庫県",
    "prefecture_kana": "ヒョウゴケン",
    "prefecture_code": 28,
    "city": "神戸市中央区",
    "city_kana": "コウベシチュウオウク",
    "town": "磯上通",
    "town_kana": "イソガミドオリ",
    "street": null,
    "office_name": null,
    "office_name_kana": null
  },
  "0087": {
    "postcode": "6510087",
    "prefecture": "兵庫県",
    "prefecture_kana": "ヒョウゴケン",
    "prefecture_code": 28,
    "city": "神戸市中央区",
    "city_kana": "コウベシチュウオウク",
    "town": "御幸通",
    "town_kana": "ゴコウドオリ",
    "street": null,
    "office_name": null,
    "office_name_kana": null
  },
  "0088": {
    "postcode": "6510088",
    "prefecture": "兵庫県",
    "prefecture_kana": "ヒョウゴケン",
    "prefecture_code": 28,
    "city": "神戸市中央区",
    "city_kana": "コウベシチュウオウク",
    "town": "小野柄通",
    "town_kana": "オノエドオリ",
    "street": null,
    "office_name": null,
    "office_name_kana": null
  },
  "0091": {
    "postcode": "6510091",
    "prefecture": "兵庫県",
    "prefecture_kana": "ヒョウゴケン",
    "prefecture_code": 28,
    "city": "神戸市中央区",
    "city_kana": "コウベシチュウオウク",
    "town": "若菜通",
    "town_kana": "ワカナドオリ",
    "street": null,
    "office_name": null,
    "office_name_kana": null
  },
  "0092": {
    "postcode": "6510092",
    "prefecture": "兵庫県",
    "prefecture_kana": "ヒョウゴケン",
    "prefecture_code": 28,
    "city": "神戸市中央区",
    "city_kana": "コウベシチュウオウク",
    "town": "生田町",
    "town_kana": "イクタチョウ",
    "street": null,
    "office_name": null,
    "office_name_kana": null
  },
  "0093": {
    "postcode": "6510093",
    "prefecture": "兵庫県",
    "prefecture_kana": "ヒョウゴケン",
    "prefecture_code": 28,
    "city": "神戸市中央区",
    "city_kana": "コウベシチュウオウク",
    "town": "二宮町",
    "town_kana": "ニノミヤチョウ",
    "street": null,
    "office_name": null,
    "office_name_kana": null
  },
  "0094": {
    "postcode": "6510094",
    "prefecture": "兵庫県",
    "prefecture_kana": "ヒョウゴケン",
    "prefecture_code": 28,
    "city": "神戸市中央区",
    "city_kana": "コウベシチュウオウク",
    "town": "琴ノ緒町",
    "town_kana": "コトノオチョウ",
    "street": null,
    "office_name": null,
    "office_name_kana": null
  },
  "0095": {
    "postcode": "6510095",
    "prefecture": "兵庫県",
    "prefecture_kana": "ヒョウゴケン",
    "prefecture_code": 28,
    "city": "神戸市中央区",
    "city_kana": "コウベシチュウオウク",
    "town": "旭通",
    "town_kana": "アサヒドオリ",
    "street": null,
    "office_name": null,
    "office_name_kana": null
  },
  "0096": {
    "postcode": "6510096",
    "prefecture": "兵庫県",
    "prefecture_kana": "ヒョウゴケン",
    "prefecture_code": 28,
    "city": "神戸市中央区",
    "city_kana": "コウベシチュウオウク",
    "town": "雲井通",
    "town_kana": "クモイドオリ",
    "street": null,
    "office_name": null,
    "office_name_kana": null
  },
  "0097": {
    "postcode": "6510097",
    "prefecture": "兵庫県",
    "prefecture_kana": "ヒョウゴケン",
    "prefecture_code": 28,
    "city": "神戸市中央区",
    "city_kana": "コウベシチュウオウク",
    "town": "布引町",
    "town_kana": "ヌノビキチョウ",
    "street": null,
    "office_name": null,
    "office_name_kana": null
  },
  "0170": {
    "postcode": "6510170",
    "prefecture": "兵庫県",
    "prefecture_kana": "ヒョウゴケン",
    "prefecture_code": 28,
    "city": "神戸市中央区",
    "city_kana": "コウベシチュウオウク",
    "town": "西町",
    "town_kana": "ニシマチ",
    "street": "３５番地（神戸ポート郵便局私書箱第３７２号）",
    "office_name": "株式会社　みなとカード",
    "office_name_kana": "カブシキガイシヤ ミナトカ-ド"
  },
  "0171": {
    "postcode": "6510171",
    "prefecture": "兵庫県",
    "prefecture_kana": "ヒョウゴケン",
    "prefecture_code": 28,
    "city": "神戸市中央区",
    "city_kana": "コウベシチュウオウク",
    "town": "栄町通",
    "town_kana": "サカエマチドオリ",
    "street": "１丁目１番１８号（神戸ポート郵便局私書箱第３４６号）",
    "office_name": "三井住友海上火災保険　株式会社　神戸支店",
    "office_name_kana": "ミツイスミトモカイジヨウカサイホケン カブシキガイシヤ コウベシテン"
  },
  "0172": {
    "postcode": "6510172",
    "prefecture": "兵庫県",
    "prefecture_kana": "ヒョウゴケン",
    "prefecture_code": 28,
    "city": "神戸市中央区",
    "city_kana": "コウベシチュウオウク",
    "town": "御幸通",
    "town_kana": "ゴコウドオリ",
    "street": "８丁目１番６号（神戸ポート郵便局私書箱第３３０号）",
    "office_name": "三井住友信託銀行　株式会社　神戸三宮支店",
    "office_name_kana": "ミツイスミトモシンタクギンコウ カブシキガイシヤ コウベサンノミヤシテン"
  },
  "0177": {
    "postcode": "6510177",
    "prefecture": "兵庫県",
    "prefecture_kana": "ヒョウゴケン",
    "prefecture_code": 28,
    "city": "神戸市中央区",
    "city_kana": "コウベシチュウオウク",
    "town": "三宮町",
    "town_kana": "サンノミヤチョウ",
    "street": "２丁目７−４（神戸ポート郵便局私書箱第３２０号）",
    "office_name": "ＳＭＢＣ日興証券　株式会社　神戸支店",
    "office_name_kana": "エスエムビ-シ-ニツコウシヨウケン カブシキガイシヤ コウベシテン"
  },
  "0178": {
    "postcode": "6510178",
    "prefecture": "兵庫県",
    "prefecture_kana": "ヒョウゴケン",
    "prefecture_code": 28,
    "city": "神戸市中央区",
    "city_kana": "コウベシチュウオウク",
    "town": "京町",
    "town_kana": "キョウマチ",
    "street": "７７−１（神戸ポート郵便局私書箱第１７８号）",
    "office_name": "神栄　株式会社",
    "office_name_kana": "シンエイ カブシキガイシヤ"
  },
  "0185": {
    "postcode": "6510185",
    "prefecture": "兵庫県",
    "prefecture_kana": "ヒョウゴケン",
    "prefecture_code": 28,
    "city": "神戸市中央区",
    "city_kana": "コウベシチュウオウク",
    "town": "東町",
    "town_kana": "ヒガシマチ",
    "street": "１２６神戸シルクセンタービル７階（神戸ポート郵便局私書箱第１１９号）",
    "office_name": "住友生命保険　相互会社　神戸支社",
    "office_name_kana": "スミトモセイメイホケン ソウゴガイシヤ コウベシシヤ"
  },
  "0187": {
    "postcode": "6510187",
    "prefecture": "兵庫県",
    "prefecture_kana": "ヒョウゴケン",
    "prefecture_code": 28,
    "city": "神戸市中央区",
    "city_kana": "コウベシチュウオウク",
    "town": "浪花町",
    "town_kana": "ナニワマチ",
    "street": "１５",
    "office_name": "株式会社　ノザワ",
    "office_name_kana": "カブシキガイシヤ ノザワ"
  },
  "0188": {
    "postcode": "6510188",
    "prefecture": "兵庫県",
    "prefecture_kana": "ヒョウゴケン",
    "prefecture_code": 28,
    "city": "神戸市中央区",
    "city_kana": "コウベシチュウオウク",
    "town": "御幸通",
    "town_kana": "ゴコウドオリ",
    "street": "５丁目１−２１（神戸ポート郵便局私書箱第４１１号）",
    "office_name": "富永貿易　株式会社",
    "office_name_kana": "トミナガボウエキ カブシキガイシヤ"
  },
  "0193": {
    "postcode": "6510193",
    "prefecture": "兵庫県",
    "prefecture_kana": "ヒョウゴケン",
    "prefecture_code": 28,
    "city": "神戸市中央区",
    "city_kana": "コウベシチュウオウク",
    "town": "三宮町",
    "town_kana": "サンノミヤチョウ",
    "street": "２丁目１−１（神戸ポート郵便局私書箱第１３３号）",
    "office_name": "みなと銀行",
    "office_name_kana": "ミナトギンコウ"
  },
  "0195": {
    "postcode": "6510195",
    "prefecture": "兵庫県",
    "prefecture_kana": "ヒョウゴケン",
    "prefecture_code": 28,
    "city": "神戸市中央区",
    "city_kana": "コウベシチュウオウク",
    "town": "浪花町",
    "town_kana": "ナニワマチ",
    "street": "６２−１（神戸ポート郵便局私書箱第４１６号）",
    "office_name": "兵庫県　信用保証協会",
    "office_name_kana": "ヒヨウゴケン シンヨウホシヨウキヨウカイ"
  },
  "1100": {
    "postcode": "6511100",
    "prefecture": "兵庫県",
    "prefecture_kana": "ヒョウゴケン",
    "prefecture_code": 28,
    "city": "神戸市北区",
    "city_kana": "コウベシキタク",
    "town": "",
    "town_kana": "",
    "street": null,
    "office_name": null,
    "office_name_kana": null
  },
  "1101": {
    "postcode": "6511101",
    "prefecture": "兵庫県",
    "prefecture_kana": "ヒョウゴケン",
    "prefecture_code": 28,
    "city": "神戸市北区",
    "city_kana": "コウベシキタク",
    "town": "山田町小部",
    "town_kana": "ヤマダチョウオウブ",
    "street": null,
    "office_name": null,
    "office_name_kana": null
  },
  "1102": [
    {
      "postcode": "6511102",
      "prefecture": "兵庫県",
      "prefecture_kana": "ヒョウゴケン",
      "prefecture_code": 28,
      "city": "神戸市北区",
      "city_kana": "コウベシキタク",
      "town": "山田町下谷上",
      "town_kana": "ヤマダチョウシモタニガミ",
      "street": null,
      "office_name": null,
      "office_name_kana": null
    },
    {
      "postcode": "6511102",
      "prefecture": "兵庫県",
      "prefecture_kana": "ヒョウゴケン",
      "prefecture_code": 28,
      "city": "神戸市北区",
      "city_kana": "コウベシキタク",
      "town": "山田町下谷上大上谷",
      "town_kana": "ヤマダチョウシモタニガミオオカミダニ",
      "street": null,
      "office_name": null,
      "office_name_kana": null
    },
    {
      "postcode": "6511102",
      "prefecture": "兵庫県",
      "prefecture_kana": "ヒョウゴケン",
      "prefecture_code": 28,
      "city": "神戸市北区",
      "city_kana": "コウベシキタク",
      "town": "山田町下谷上修法ケ原",
      "town_kana": "ヤマダチョウシモタニガミシュウホウガハラ",
      "street": null,
      "office_name": null,
      "office_name_kana": null
    },
    {
      "postcode": "6511102",
      "prefecture": "兵庫県",
      "prefecture_kana": "ヒョウゴケン",
      "prefecture_code": 28,
      "city": "神戸市北区",
      "city_kana": "コウベシキタク",
      "town": "山田町下谷上長尾山",
      "town_kana": "ヤマダチョウシモタニガミナガオヤマ",
      "street": null,
      "office_name": null,
      "office_name_kana": null
    },
    {
      "postcode": "6511102",
      "prefecture": "兵庫県",
      "prefecture_kana": "ヒョウゴケン",
      "prefecture_code": 28,
      "city": "神戸市北区",
      "city_kana": "コウベシキタク",
      "town": "山田町下谷上再度公園",
      "town_kana": "ヤマダチョウシモタニガミフタタビコウエン",
      "street": null,
      "office_name": null,
      "office_name_kana": null
    }
  ],
  "1103": {
    "postcode": "6511103",
    "prefecture": "兵庫県",
    "prefecture_kana": "ヒョウゴケン",
    "prefecture_code": 28,
    "city": "神戸市北区",
    "city_kana": "コウベシキタク",
    "town": "中里町",
    "town_kana": "ナカザトチョウ",
    "street": null,
    "office_name": null,
    "office_name_kana": null
  },
  "1104": {
    "postcode": "6511104",
    "prefecture": "兵庫県",
    "prefecture_kana": "ヒョウゴケン",
    "prefecture_code": 28,
    "city": "神戸市北区",
    "city_kana": "コウベシキタク",
    "town": "山田町藍那",
    "town_kana": "ヤマダチョウアイナ",
    "street": null,
    "office_name": null,
    "office_name_kana": null
  },
  "1105": {
    "postcode": "6511105",
    "prefecture": "兵庫県",
    "prefecture_kana": "ヒョウゴケン",
    "prefecture_code": 28,
    "city": "神戸市北区",
    "city_kana": "コウベシキタク",
    "town": "山田町小河",
    "town_kana": "ヤマダチョウオウゴ",
    "street": null,
    "office_name": null,
    "office_name_kana": null
  },
  "1106": {
    "postcode": "6511106",
    "prefecture": "兵庫県",
    "prefecture_kana": "ヒョウゴケン",
    "prefecture_code": 28,
    "city": "神戸市北区",
    "city_kana": "コウベシキタク",
    "town": "しあわせの村",
    "town_kana": "シアワセノムラ",
    "street": null,
    "office_name": null,
    "office_name_kana": null
  },
  "1111": {
    "postcode": "6511111",
    "prefecture": "兵庫県",
    "prefecture_kana": "ヒョウゴケン",
    "prefecture_code": 28,
    "city": "神戸市北区",
    "city_kana": "コウベシキタク",
    "town": "鈴蘭台北町",
    "town_kana": "スズランダイキタマチ",
    "street": null,
    "office_name": null,
    "office_name_kana": null
  },
  "1112": {
    "postcode": "6511112",
    "prefecture": "兵庫県",
    "prefecture_kana": "ヒョウゴケン",
    "prefecture_code": 28,
    "city": "神戸市北区",
    "city_kana": "コウベシキタク",
    "town": "鈴蘭台東町",
    "town_kana": "スズランダイヒガシマチ",
    "street": null,
    "office_name": null,
    "office_name_kana": null
  },
  "1113": {
    "postcode": "6511113",
    "prefecture": "兵庫県",
    "prefecture_kana": "ヒョウゴケン",
    "prefecture_code": 28,
    "city": "神戸市北区",
    "city_kana": "コウベシキタク",
    "town": "鈴蘭台南町",
    "town_kana": "スズランダイミナミマチ",
    "street": null,
    "office_name": null,
    "office_name_kana": null
  },
  "1114": {
    "postcode": "6511114",
    "prefecture": "兵庫県",
    "prefecture_kana": "ヒョウゴケン",
    "prefecture_code": 28,
    "city": "神戸市北区",
    "city_kana": "コウベシキタク",
    "town": "鈴蘭台西町",
    "town_kana": "スズランダイニシマチ",
    "street": null,
    "office_name": null,
    "office_name_kana": null
  },
  "1121": {
    "postcode": "6511121",
    "prefecture": "兵庫県",
    "prefecture_kana": "ヒョウゴケン",
    "prefecture_code": 28,
    "city": "神戸市北区",
    "city_kana": "コウベシキタク",
    "town": "星和台",
    "town_kana": "セイワダイ",
    "street": null,
    "office_name": null,
    "office_name_kana": null
  },
  "1122": {
    "postcode": "6511122",
    "prefecture": "兵庫県",
    "prefecture_kana": "ヒョウゴケン",
    "prefecture_code": 28,
    "city": "神戸市北区",
    "city_kana": "コウベシキタク",
    "town": "君影町",
    "town_kana": "キミカゲチョウ",
    "street": null,
    "office_name": null,
    "office_name_kana": null
  },
  "1123": {
    "postcode": "6511123",
    "prefecture": "兵庫県",
    "prefecture_kana": "ヒョウゴケン",
    "prefecture_code": 28,
    "city": "神戸市北区",
    "city_kana": "コウベシキタク",
    "town": "ひよどり台",
    "town_kana": "ヒヨドリダイ",
    "street": null,
    "office_name": null,
    "office_name_kana": null
  },
  "1124": {
    "postcode": "6511124",
    "prefecture": "兵庫県",
    "prefecture_kana": "ヒョウゴケン",
    "prefecture_code": 28,
    "city": "神戸市北区",
    "city_kana": "コウベシキタク",
    "town": "ひよどり北町",
    "town_kana": "ヒヨドリキタマチ",
    "street": null,
    "office_name": null,
    "office_name_kana": null
  },
  "1125": {
    "postcode": "6511125",
    "prefecture": "兵庫県",
    "prefecture_kana": "ヒョウゴケン",
    "prefecture_code": 28,
    "city": "神戸市北区",
    "city_kana": "コウベシキタク",
    "town": "ひよどり台南町",
    "town_kana": "ヒヨドリダイミナミマチ",
    "street": null,
    "office_name": null,
    "office_name_kana": null
  },
  "1131": {
    "postcode": "6511131",
    "prefecture": "兵庫県",
    "prefecture_kana": "ヒョウゴケン",
    "prefecture_code": 28,
    "city": "神戸市北区",
    "city_kana": "コウベシキタク",
    "town": "北五葉",
    "town_kana": "キタゴヨウ",
    "street": null,
    "office_name": null,
    "office_name_kana": null
  },
  "1132": {
    "postcode": "6511132",
    "prefecture": "兵庫県",
    "prefecture_kana": "ヒョウゴケン",
    "prefecture_code": 28,
    "city": "神戸市北区",
    "city_kana": "コウベシキタク",
    "town": "南五葉",
    "town_kana": "ミナミゴヨウ",
    "street": null,
    "office_name": null,
    "office_name_kana": null
  },
  "1133": {
    "postcode": "6511133",
    "prefecture": "兵庫県",
    "prefecture_kana": "ヒョウゴケン",
    "prefecture_code": 28,
    "city": "神戸市北区",
    "city_kana": "コウベシキタク",
    "town": "鳴子",
    "town_kana": "ナルコ",
    "street": null,
    "office_name": null,
    "office_name_kana": null
  },
  "1141": {
    "postcode": "6511141",
    "prefecture": "兵庫県",
    "prefecture_kana": "ヒョウゴケン",
    "prefecture_code": 28,
    "city": "神戸市北区",
    "city_kana": "コウベシキタク",
    "town": "泉台",
    "town_kana": "イズミダイ",
    "street": null,
    "office_name": null,
    "office_name_kana": null
  },
  "1142": {
    "postcode": "6511142",
    "prefecture": "兵庫県",
    "prefecture_kana": "ヒョウゴケン",
    "prefecture_code": 28,
    "city": "神戸市北区",
    "city_kana": "コウベシキタク",
    "town": "甲栄台",
    "town_kana": "コウエイダイ",
    "street": null,
    "office_name": null,
    "office_name_kana": null
  },
  "1143": {
    "postcode": "6511143",
    "prefecture": "兵庫県",
    "prefecture_kana": "ヒョウゴケン",
    "prefecture_code": 28,
    "city": "神戸市北区",
    "city_kana": "コウベシキタク",
    "town": "若葉台",
    "town_kana": "ワカバダイ",
    "street": null,
    "office_name": null,
    "office_name_kana": null
  },
  "1144": {
    "postcode": "6511144",
    "prefecture": "兵庫県",
    "prefecture_kana": "ヒョウゴケン",
    "prefecture_code": 28,
    "city": "神戸市北区",
    "city_kana": "コウベシキタク",
    "town": "大脇台",
    "town_kana": "オオワキダイ",
    "street": null,
    "office_name": null,
    "office_name_kana": null
  },
  "1145": {
    "postcode": "6511145",
    "prefecture": "兵庫県",
    "prefecture_kana": "ヒョウゴケン",
    "prefecture_code": 28,
    "city": "神戸市北区",
    "city_kana": "コウベシキタク",
    "town": "惣山町",
    "town_kana": "ソウヤマチョウ",
    "street": null,
    "office_name": null,
    "office_name_kana": null
  },
  "1146": {
    "postcode": "6511146",
    "prefecture": "兵庫県",
    "prefecture_kana": "ヒョウゴケン",
    "prefecture_code": 28,
    "city": "神戸市北区",
    "city_kana": "コウベシキタク",
    "town": "杉尾台",
    "town_kana": "スギオダイ",
    "street": null,
    "office_name": null,
    "office_name_kana": null
  },
  "1147": {
    "postcode": "6511147",
    "prefecture": "兵庫県",
    "prefecture_kana": "ヒョウゴケン",
    "prefecture_code": 28,
    "city": "神戸市北区",
    "city_kana": "コウベシキタク",
    "town": "松宮台",
    "town_kana": "マツミヤダイ",
    "street": null,
    "office_name": null,
    "office_name_kana": null
  },
  "1195": {
    "postcode": "6511195",
    "prefecture": "兵庫県",
    "prefecture_kana": "ヒョウゴケン",
    "prefecture_code": 28,
    "city": "神戸市北区",
    "city_kana": "コウベシキタク",
    "town": "鈴蘭台北町",
    "town_kana": "スズランダイキタマチ",
    "street": "１丁目９−１",
    "office_name": "神戸市北区役所",
    "office_name_kana": "コウベシキタクヤクシヨ"
  },
  "1201": {
    "postcode": "6511201",
    "prefecture": "兵庫県",
    "prefecture_kana": "ヒョウゴケン",
    "prefecture_code": 28,
    "city": "神戸市北区",
    "city_kana": "コウベシキタク",
    "town": "西大池",
    "town_kana": "ニシオオイケ",
    "street": null,
    "office_name": null,
    "office_name_kana": null
  },
  "1202": {
    "postcode": "6511202",
    "prefecture": "兵庫県",
    "prefecture_kana": "ヒョウゴケン",
    "prefecture_code": 28,
    "city": "神戸市北区",
    "city_kana": "コウベシキタク",
    "town": "花山中尾台",
    "town_kana": "ハナヤマナカオダイ",
    "street": null,
    "office_name": null,
    "office_name_kana": null
  },
  "1203": {
    "postcode": "6511203",
    "prefecture": "兵庫県",
    "prefecture_kana": "ヒョウゴケン",
    "prefecture_code": 28,
    "city": "神戸市北区",
    "city_kana": "コウベシキタク",
    "town": "幸陽町",
    "town_kana": "コウヨウチョウ",
    "street": null,
    "office_name": null,
    "office_name_kana": null
  },
  "1204": {
    "postcode": "6511204",
    "prefecture": "兵庫県",
    "prefecture_kana": "ヒョウゴケン",
    "prefecture_code": 28,
    "city": "神戸市北区",
    "city_kana": "コウベシキタク",
    "town": "花山東町",
    "town_kana": "ハナヤマヒガシマチ",
    "street": null,
    "office_name": null,
    "office_name_kana": null
  },
  "1205": {
    "postcode": "6511205",
    "prefecture": "兵庫県",
    "prefecture_kana": "ヒョウゴケン",
    "prefecture_code": 28,
    "city": "神戸市北区",
    "city_kana": "コウベシキタク",
    "town": "花山台",
    "town_kana": "ハナヤマダイ",
    "street": null,
    "office_name": null,
    "office_name_kana": null
  },
  "1206": {
    "postcode": "6511206",
    "prefecture": "兵庫県",
    "prefecture_kana": "ヒョウゴケン",
    "prefecture_code": 28,
    "city": "神戸市北区",
    "city_kana": "コウベシキタク",
    "town": "大池見山台",
    "town_kana": "オオイケミヤマダイ",
    "street": null,
    "office_name": null,
    "office_name_kana": null
  },
  "1211": {
    "postcode": "6511211",
    "prefecture": "兵庫県",
    "prefecture_kana": "ヒョウゴケン",
    "prefecture_code": 28,
    "city": "神戸市北区",
    "city_kana": "コウベシキタク",
    "town": "小倉台",
    "town_kana": "オグラダイ",
    "street": null,
    "office_name": null,
    "office_name_kana": null
  },
  "1212": {
    "postcode": "6511212",
    "prefecture": "兵庫県",
    "prefecture_kana": "ヒョウゴケン",
    "prefecture_code": 28,
    "city": "神戸市北区",
    "city_kana": "コウベシキタク",
    "town": "筑紫が丘",
    "town_kana": "ツクシガオカ",
    "street": null,
    "office_name": null,
    "office_name_kana": null
  },
  "1213": {
    "postcode": "6511213",
    "prefecture": "兵庫県",
    "prefecture_kana": "ヒョウゴケン",
    "prefecture_code": 28,
    "city": "神戸市北区",
    "city_kana": "コウベシキタク",
    "town": "広陵町",
    "town_kana": "コウリョウチョウ",
    "street": null,
    "office_name": null,
    "office_name_kana": null
  },
  "1214": {
    "postcode": "6511214",
    "prefecture": "兵庫県",
    "prefecture_kana": "ヒョウゴケン",
    "prefecture_code": 28,
    "city": "神戸市北区",
    "city_kana": "コウベシキタク",
    "town": "桜森町",
    "town_kana": "サクラシンマチ",
    "street": null,
    "office_name": null,
    "office_name_kana": null
  },
  "1221": {
    "postcode": "6511221",
    "prefecture": "兵庫県",
    "prefecture_kana": "ヒョウゴケン",
    "prefecture_code": 28,
    "city": "神戸市北区",
    "city_kana": "コウベシキタク",
    "town": "緑町",
    "town_kana": "ミドリマチ",
    "street": null,
    "office_name": null,
    "office_name_kana": null
  },
  "1222": {
    "postcode": "6511222",
    "prefecture": "兵庫県",
    "prefecture_kana": "ヒョウゴケン",
    "prefecture_code": 28,
    "city": "神戸市北区",
    "city_kana": "コウベシキタク",
    "town": "大原",
    "town_kana": "オオハラ",
    "street": null,
    "office_name": null,
    "office_name_kana": null
  },
  "1223": {
    "postcode": "6511223",
    "prefecture": "兵庫県",
    "prefecture_kana": "ヒョウゴケン",
    "prefecture_code": 28,
    "city": "神戸市北区",
    "city_kana": "コウベシキタク",
    "town": "桂木",
    "town_kana": "カツラギ",
    "street": null,
    "office_name": null,
    "office_name_kana": null
  },
  "1224": {
    "postcode": "6511224",
    "prefecture": "兵庫県",
    "prefecture_kana": "ヒョウゴケン",
    "prefecture_code": 28,
    "city": "神戸市北区",
    "city_kana": "コウベシキタク",
    "town": "山の街",
    "town_kana": "ヤマノマチ",
    "street": null,
    "office_name": null,
    "office_name_kana": null
  },
  "1231": {
    "postcode": "6511231",
    "prefecture": "兵庫県",
    "prefecture_kana": "ヒョウゴケン",
    "prefecture_code": 28,
    "city": "神戸市北区",
    "city_kana": "コウベシキタク",
    "town": "青葉台",
    "town_kana": "アオバダイ",
    "street": null,
    "office_name": null,
    "office_name_kana": null
  },
  "1232": {
    "postcode": "6511232",
    "prefecture": "兵庫県",
    "prefecture_kana": "ヒョウゴケン",
    "prefecture_code": 28,
    "city": "神戸市北区",
    "city_kana": "コウベシキタク",
    "town": "松が枝町",
    "town_kana": "マツガエチョウ",
    "street": null,
    "office_name": null,
    "office_name_kana": null
  },
  "1233": {
    "postcode": "6511233",
    "prefecture": "兵庫県",
    "prefecture_kana": "ヒョウゴケン",
    "prefecture_code": 28,
    "city": "神戸市北区",
    "city_kana": "コウベシキタク",
    "town": "日の峰",
    "town_kana": "ヒノミネ",
    "street": null,
    "office_name": null,
    "office_name_kana": null
  },
  "1241": {
    "postcode": "6511241",
    "prefecture": "兵庫県",
    "prefecture_kana": "ヒョウゴケン",
    "prefecture_code": 28,
    "city": "神戸市北区",
    "city_kana": "コウベシキタク",
    "town": "山田町大池",
    "town_kana": "ヤマダチョウオオイケ",
    "street": null,
    "office_name": null,
    "office_name_kana": null
  },
  "1242": {
    "postcode": "6511242",
    "prefecture": "兵庫県",
    "prefecture_kana": "ヒョウゴケン",
    "prefecture_code": 28,
    "city": "神戸市北区",
    "city_kana": "コウベシキタク",
    "town": "山田町上谷上",
    "town_kana": "ヤマダチョウカミタニガミ",
    "street": null,
    "office_name": null,
    "office_name_kana": null
  },
  "1243": {
    "postcode": "6511243",
    "prefecture": "兵庫県",
    "prefecture_kana": "ヒョウゴケン",
    "prefecture_code": 28,
    "city": "神戸市北区",
    "city_kana": "コウベシキタク",
    "town": "山田町下谷上",
    "town_kana": "ヤマダチョウシモタニガミ",
    "street": null,
    "office_name": null,
    "office_name_kana": null
  },
  "1244": {
    "postcode": "6511244",
    "prefecture": "兵庫県",
    "prefecture_kana": "ヒョウゴケン",
    "prefecture_code": 28,
    "city": "神戸市北区",
    "city_kana": "コウベシキタク",
    "town": "谷上南町",
    "town_kana": "タニガミミナミマチ",
    "street": null,
    "office_name": null,
    "office_name_kana": null
  },
  "1245": {
    "postcode": "6511245",
    "prefecture": "兵庫県",
    "prefecture_kana": "ヒョウゴケン",
    "prefecture_code": 28,
    "city": "神戸市北区",
    "city_kana": "コウベシキタク",
    "town": "谷上東町",
    "town_kana": "タニガミヒガシマチ",
    "street": null,
    "office_name": null,
    "office_name_kana": null
  },
  "1246": {
    "postcode": "6511246",
    "prefecture": "兵庫県",
    "prefecture_kana": "ヒョウゴケン",
    "prefecture_code": 28,
    "city": "神戸市北区",
    "city_kana": "コウベシキタク",
    "town": "谷上西町",
    "town_kana": "タニガミニシマチ",
    "street": null,
    "office_name": null,
    "office_name_kana": null
  },
  "1251": {
    "postcode": "6511251",
    "prefecture": "兵庫県",
    "prefecture_kana": "ヒョウゴケン",
    "prefecture_code": 28,
    "city": "神戸市北区",
    "city_kana": "コウベシキタク",
    "town": "山田町与左衛門新田",
    "town_kana": "ヤマダチョウヨザエモンシンデン",
    "street": null,
    "office_name": null,
    "office_name_kana": null
  },
  "1252": {
    "postcode": "6511252",
    "prefecture": "兵庫県",
    "prefecture_kana": "ヒョウゴケン",
    "prefecture_code": 28,
    "city": "神戸市北区",
    "city_kana": "コウベシキタク",
    "town": "山田町原野",
    "town_kana": "ヤマダチョウハラノ",
    "street": null,
    "office_name": null,
    "office_name_kana": null
  },
  "1253": {
    "postcode": "6511253",
    "prefecture": "兵庫県",
    "prefecture_kana": "ヒョウゴケン",
    "prefecture_code": 28,
    "city": "神戸市北区",
    "city_kana": "コウベシキタク",
    "town": "山田町中",
    "town_kana": "ヤマダチョウナカ",
    "street": null,
    "office_name": null,
    "office_name_kana": null
  },
  "1254": {
    "postcode": "6511254",
    "prefecture": "兵庫県",
    "prefecture_kana": "ヒョウゴケン",
    "prefecture_code": 28,
    "city": "神戸市北区",
    "city_kana": "コウベシキタク",
    "town": "山田町福地",
    "town_kana": "ヤマダチョウフクチ",
    "street": null,
    "office_name": null,
    "office_name_kana": null
  },
  "1255": {
    "postcode": "6511255",
    "prefecture": "兵庫県",
    "prefecture_kana": "ヒョウゴケン",
    "prefecture_code": 28,
    "city": "神戸市北区",
    "city_kana": "コウベシキタク",
    "town": "柏尾台",
    "town_kana": "カシオダイ",
    "street": null,
    "office_name": null,
    "office_name_kana": null
  },
  "1261": {
    "postcode": "6511261",
    "prefecture": "兵庫県",
    "prefecture_kana": "ヒョウゴケン",
    "prefecture_code": 28,
    "city": "神戸市北区",
    "city_kana": "コウベシキタク",
    "town": "山田町坂本",
    "town_kana": "ヤマダチョウサカモト",
    "street": null,
    "office_name": null,
    "office_name_kana": null
  },
  "1262": {
    "postcode": "6511262",
    "prefecture": "兵庫県",
    "prefecture_kana": "ヒョウゴケン",
    "prefecture_code": 28,
    "city": "神戸市北区",
    "city_kana": "コウベシキタク",
    "town": "山田町東下",
    "town_kana": "ヤマダチョウヒガシシモ",
    "street": null,
    "office_name": null,
    "office_name_kana": null
  },
  "1263": {
    "postcode": "6511263",
    "prefecture": "兵庫県",
    "prefecture_kana": "ヒョウゴケン",
    "prefecture_code": 28,
    "city": "神戸市北区",
    "city_kana": "コウベシキタク",
    "town": "山田町西下",
    "town_kana": "ヤマダチョウニシシモ",
    "street": null,
    "office_name": null,
    "office_name_kana": null
  },
  "1264": {
    "postcode": "6511264",
    "prefecture": "兵庫県",
    "prefecture_kana": "ヒョウゴケン",
    "prefecture_code": 28,
    "city": "神戸市北区",
    "city_kana": "コウベシキタク",
    "town": "山田町衝原",
    "town_kana": "ヤマダチョウツクハラ",
    "street": null,
    "office_name": null,
    "office_name_kana": null
  },
  "1301": {
    "postcode": "6511301",
    "prefecture": "兵庫県",
    "prefecture_kana": "ヒョウゴケン",
    "prefecture_code": 28,
    "city": "神戸市北区",
    "city_kana": "コウベシキタク",
    "town": "藤原台北町",
    "town_kana": "フジワラダイキタマチ",
    "street": null,
    "office_name": null,
    "office_name_kana": null
  },
  "1302": {
    "postcode": "6511302",
    "prefecture": "兵庫県",
    "prefecture_kana": "ヒョウゴケン",
    "prefecture_code": 28,
    "city": "神戸市北区",
    "city_kana": "コウベシキタク",
    "town": "藤原台中町",
    "town_kana": "フジワラダイナカマチ",
    "street": null,
    "office_name": null,
    "office_name_kana": null
  },
  "1303": {
    "postcode": "6511303",
    "prefecture": "兵庫県",
    "prefecture_kana": "ヒョウゴケン",
    "prefecture_code": 28,
    "city": "神戸市北区",
    "city_kana": "コウベシキタク",
    "town": "藤原台南町",
    "town_kana": "フジワラダイミナミマチ",
    "street": null,
    "office_name": null,
    "office_name_kana": null
  },
  "1304": {
    "postcode": "6511304",
    "prefecture": "兵庫県",
    "prefecture_kana": "ヒョウゴケン",
    "prefecture_code": 28,
    "city": "神戸市北区",
    "city_kana": "コウベシキタク",
    "town": "京地",
    "town_kana": "キョウジ",
    "street": null,
    "office_name": null,
    "office_name_kana": null
  },
  "1305": {
    "postcode": "6511305",
    "prefecture": "兵庫県",
    "prefecture_kana": "ヒョウゴケン",
    "prefecture_code": 28,
    "city": "神戸市北区",
    "city_kana": "コウベシキタク",
    "town": "西山",
    "town_kana": "ニシヤマ",
    "street": null,
    "office_name": null,
    "office_name_kana": null
  },
  "1306": {
    "postcode": "6511306",
    "prefecture": "兵庫県",
    "prefecture_kana": "ヒョウゴケン",
    "prefecture_code": 28,
    "city": "神戸市北区",
    "city_kana": "コウベシキタク",
    "town": "菖蒲が丘",
    "town_kana": "ショウブガオカ",
    "street": null,
    "office_name": null,
    "office_name_kana": null
  },
  "1311": {
    "postcode": "6511311",
    "prefecture": "兵庫県",
    "prefecture_kana": "ヒョウゴケン",
    "prefecture_code": 28,
    "city": "神戸市北区",
    "city_kana": "コウベシキタク",
    "town": "有野町二郎",
    "town_kana": "アリノチョウニロウ",
    "street": null,
    "office_name": null,
    "office_name_kana": null
  },
  "1312": {
    "postcode": "6511312",
    "prefecture": "兵庫県",
    "prefecture_kana": "ヒョウゴケン",
    "prefecture_code": 28,
    "city": "神戸市北区",
    "city_kana": "コウベシキタク",
    "town": "有野町有野",
    "town_kana": "アリノチョウアリノ",
    "street": null,
    "office_name": null,
    "office_name_kana": null
  },
  "1313": {
    "postcode": "6511313",
    "prefecture": "兵庫県",
    "prefecture_kana": "ヒョウゴケン",
    "prefecture_code": 28,
    "city": "神戸市北区",
    "city_kana": "コウベシキタク",
    "town": "有野中町",
    "town_kana": "アリノナカマチ",
    "street": null,
    "office_name": null,
    "office_name_kana": null
  },
  "1321": {
    "postcode": "6511321",
    "prefecture": "兵庫県",
    "prefecture_kana": "ヒョウゴケン",
    "prefecture_code": 28,
    "city": "神戸市北区",
    "city_kana": "コウベシキタク",
    "town": "有野台",
    "town_kana": "アリノダイ",
    "street": null,
    "office_name": null,
    "office_name_kana": null
  },
  "1322": {
    "postcode": "6511322",
    "prefecture": "兵庫県",
    "prefecture_kana": "ヒョウゴケン",
    "prefecture_code": 28,
    "city": "神戸市北区",
    "city_kana": "コウベシキタク",
    "town": "東有野台",
    "town_kana": "ヒガシアリノダイ",
    "street": null,
    "office_name": null,
    "office_name_kana": null
  },
  "1331": {
    "postcode": "6511331",
    "prefecture": "兵庫県",
    "prefecture_kana": "ヒョウゴケン",
    "prefecture_code": 28,
    "city": "神戸市北区",
    "city_kana": "コウベシキタク",
    "town": "有野町唐櫃",
    "town_kana": "アリノチョウカラト",
    "street": null,
    "office_name": null,
    "office_name_kana": null
  },
  "1332": {
    "postcode": "6511332",
    "prefecture": "兵庫県",
    "prefecture_kana": "ヒョウゴケン",
    "prefecture_code": 28,
    "city": "神戸市北区",
    "city_kana": "コウベシキタク",
    "town": "唐櫃台",
    "town_kana": "カラトダイ",
    "street": null,
    "office_name": null,
    "office_name_kana": null
  },
  "1333": {
    "postcode": "6511333",
    "prefecture": "兵庫県",
    "prefecture_kana": "ヒョウゴケン",
    "prefecture_code": 28,
    "city": "神戸市北区",
    "city_kana": "コウベシキタク",
    "town": "東大池",
    "town_kana": "ヒガシオオイケ",
    "street": null,
    "office_name": null,
    "office_name_kana": null
  },
  "1334": {
    "postcode": "6511334",
    "prefecture": "兵庫県",
    "prefecture_kana": "ヒョウゴケン",
    "prefecture_code": 28,
    "city": "神戸市北区",
    "city_kana": "コウベシキタク",
    "town": "唐櫃六甲台",
    "town_kana": "カラトロッコウダイ",
    "street": null,
    "office_name": null,
    "office_name_kana": null
  },
  "1341": {
    "postcode": "6511341",
    "prefecture": "兵庫県",
    "prefecture_kana": "ヒョウゴケン",
    "prefecture_code": 28,
    "city": "神戸市北区",
    "city_kana": "コウベシキタク",
    "town": "八多町深谷",
    "town_kana": "ハタチョウフカタニ",
    "street": null,
    "office_name": null,
    "office_name_kana": null
  },
  "1342": {
    "postcode": "6511342",
    "prefecture": "兵庫県",
    "prefecture_kana": "ヒョウゴケン",
    "prefecture_code": 28,
    "city": "神戸市北区",
    "city_kana": "コウベシキタク",
    "town": "八多町柳谷",
    "town_kana": "ハタチョウヤナギダニ",
    "street": null,
    "office_name": null,
    "office_name_kana": null
  },
  "1343": {
    "postcode": "6511343",
    "prefecture": "兵庫県",
    "prefecture_kana": "ヒョウゴケン",
    "prefecture_code": 28,
    "city": "神戸市北区",
    "city_kana": "コウベシキタク",
    "town": "八多町附物",
    "town_kana": "ハタチョウツクモノ",
    "street": null,
    "office_name": null,
    "office_name_kana": null
  },
  "1344": {
    "postcode": "6511344",
    "prefecture": "兵庫県",
    "prefecture_kana": "ヒョウゴケン",
    "prefecture_code": 28,
    "city": "神戸市北区",
    "city_kana": "コウベシキタク",
    "town": "八多町屏風",
    "town_kana": "ハタチョウビョウブ",
    "street": null,
    "office_name": null,
    "office_name_kana": null
  },
  "1345": {
    "postcode": "6511345",
    "prefecture": "兵庫県",
    "prefecture_kana": "ヒョウゴケン",
    "prefecture_code": 28,
    "city": "神戸市北区",
    "city_kana": "コウベシキタク",
    "town": "八多町西畑",
    "town_kana": "ハタチョウニシバタ",
    "street": null,
    "office_name": null,
    "office_name_kana": null
  },
  "1351": {
    "postcode": "6511351",
    "prefecture": "兵庫県",
    "prefecture_kana": "ヒョウゴケン",
    "prefecture_code": 28,
    "city": "神戸市北区",
    "city_kana": "コウベシキタク",
    "town": "八多町中",
    "town_kana": "ハタチョウナカ",
    "street": null,
    "office_name": null,
    "office_name_kana": null
  },
  "1352": {
    "postcode": "6511352",
    "prefecture": "兵庫県",
    "prefecture_kana": "ヒョウゴケン",
    "prefecture_code": 28,
    "city": "神戸市北区",
    "city_kana": "コウベシキタク",
    "town": "八多町下小名田",
    "town_kana": "ハタチョウシモオナダ",
    "street": null,
    "office_name": null,
    "office_name_kana": null
  },
  "1353": {
    "postcode": "6511353",
    "prefecture": "兵庫県",
    "prefecture_kana": "ヒョウゴケン",
    "prefecture_code": 28,
    "city": "神戸市北区",
    "city_kana": "コウベシキタク",
    "town": "八多町吉尾",
    "town_kana": "ハタチョウヨシオ",
    "street": null,
    "office_name": null,
    "office_name_kana": null
  },
  "1354": {
    "postcode": "6511354",
    "prefecture": "兵庫県",
    "prefecture_kana": "ヒョウゴケン",
    "prefecture_code": 28,
    "city": "神戸市北区",
    "city_kana": "コウベシキタク",
    "town": "八多町上小名田",
    "town_kana": "ハタチョウカミオナダ",
    "street": null,
    "office_name": null,
    "office_name_kana": null
  },
  "1401": {
    "postcode": "6511401",
    "prefecture": "兵庫県",
    "prefecture_kana": "ヒョウゴケン",
    "prefecture_code": 28,
    "city": "神戸市北区",
    "city_kana": "コウベシキタク",
    "town": "有馬町",
    "town_kana": "アリマチョウ",
    "street": null,
    "office_name": null,
    "office_name_kana": null
  },
  "1411": {
    "postcode": "6511411",
    "prefecture": "兵庫県",
    "prefecture_kana": "ヒョウゴケン",
    "prefecture_code": 28,
    "city": "西宮市",
    "city_kana": "ニシノミヤシ",
    "town": "山口町名来",
    "town_kana": "ヤマグチチョウナライ",
    "street": null,
    "office_name": null,
    "office_name_kana": null
  },
  "1412": {
    "postcode": "6511412",
    "prefecture": "兵庫県",
    "prefecture_kana": "ヒョウゴケン",
    "prefecture_code": 28,
    "city": "西宮市",
    "city_kana": "ニシノミヤシ",
    "town": "山口町下山口",
    "town_kana": "ヤマグチチョウシモヤマグチ",
    "street": null,
    "office_name": null,
    "office_name_kana": null
  },
  "1413": {
    "postcode": "6511413",
    "prefecture": "兵庫県",
    "prefecture_kana": "ヒョウゴケン",
    "prefecture_code": 28,
    "city": "西宮市",
    "city_kana": "ニシノミヤシ",
    "town": "北六甲台",
    "town_kana": "キタロッコウダイ",
    "street": null,
    "office_name": null,
    "office_name_kana": null
  },
  "1421": {
    "postcode": "6511421",
    "prefecture": "兵庫県",
    "prefecture_kana": "ヒョウゴケン",
    "prefecture_code": 28,
    "city": "西宮市",
    "city_kana": "ニシノミヤシ",
    "town": "山口町上山口",
    "town_kana": "ヤマグチチョウカミヤマグチ",
    "street": null,
    "office_name": null,
    "office_name_kana": null
  },
  "1422": {
    "postcode": "6511422",
    "prefecture": "兵庫県",
    "prefecture_kana": "ヒョウゴケン",
    "prefecture_code": 28,
    "city": "西宮市",
    "city_kana": "ニシノミヤシ",
    "town": "山口町金仙寺",
    "town_kana": "ヤマグチチョウキンセンジ",
    "street": null,
    "office_name": null,
    "office_name_kana": null
  },
  "1423": {
    "postcode": "6511423",
    "prefecture": "兵庫県",
    "prefecture_kana": "ヒョウゴケン",
    "prefecture_code": 28,
    "city": "西宮市",
    "city_kana": "ニシノミヤシ",
    "town": "山口町船坂",
    "town_kana": "ヤマグチチョウフナサカ",
    "street": null,
    "office_name": null,
    "office_name_kana": null
  },
  "1424": {
    "postcode": "6511424",
    "prefecture": "兵庫県",
    "prefecture_kana": "ヒョウゴケン",
    "prefecture_code": 28,
    "city": "西宮市",
    "city_kana": "ニシノミヤシ",
    "town": "山口町香花園",
    "town_kana": "ヤマグチチョウコウカエン",
    "street": null,
    "office_name": null,
    "office_name_kana": null
  },
  "1431": {
    "postcode": "6511431",
    "prefecture": "兵庫県",
    "prefecture_kana": "ヒョウゴケン",
    "prefecture_code": 28,
    "city": "西宮市",
    "city_kana": "ニシノミヤシ",
    "town": "山口町阪神流通センター",
    "town_kana": "ヤマグチチョウハンシンリュウツウセンター",
    "street": null,
    "office_name": null,
    "office_name_kana": null
  },
  "1432": {
    "postcode": "6511432",
    "prefecture": "兵庫県",
    "prefecture_kana": "ヒョウゴケン",
    "prefecture_code": 28,
    "city": "西宮市",
    "city_kana": "ニシノミヤシ",
    "town": "すみれ台",
    "town_kana": "スミレダイ",
    "street": null,
    "office_name": null,
    "office_name_kana": null
  },
  "1433": {
    "postcode": "6511433",
    "prefecture": "兵庫県",
    "prefecture_kana": "ヒョウゴケン",
    "prefecture_code": 28,
    "city": "西宮市",
    "city_kana": "ニシノミヤシ",
    "town": "山口町中野",
    "town_kana": "ヤマグチチョウナカノ",
    "street": null,
    "office_name": null,
    "office_name_kana": null
  },
  "1501": {
    "postcode": "6511501",
    "prefecture": "兵庫県",
    "prefecture_kana": "ヒョウゴケン",
    "prefecture_code": 28,
    "city": "神戸市北区",
    "city_kana": "コウベシキタク",
    "town": "道場町道場",
    "town_kana": "ドウジョウチョウドウジョウ",
    "street": null,
    "office_name": null,
    "office_name_kana": null
  },
  "1502": {
    "postcode": "6511502",
    "prefecture": "兵庫県",
    "prefecture_kana": "ヒョウゴケン",
    "prefecture_code": 28,
    "city": "神戸市北区",
    "city_kana": "コウベシキタク",
    "town": "道場町塩田",
    "town_kana": "ドウジョウチョウシオタ",
    "street": null,
    "office_name": null,
    "office_name_kana": null
  },
  "1503": {
    "postcode": "6511503",
    "prefecture": "兵庫県",
    "prefecture_kana": "ヒョウゴケン",
    "prefecture_code": 28,
    "city": "神戸市北区",
    "city_kana": "コウベシキタク",
    "town": "道場町生野",
    "town_kana": "ドウジョウチョウイクノ",
    "street": null,
    "office_name": null,
    "office_name_kana": null
  },
  "1504": {
    "postcode": "6511504",
    "prefecture": "兵庫県",
    "prefecture_kana": "ヒョウゴケン",
    "prefecture_code": 28,
    "city": "神戸市北区",
    "city_kana": "コウベシキタク",
    "town": "道場町平田",
    "town_kana": "ドウジョウチョウヒラタ",
    "street": null,
    "office_name": null,
    "office_name_kana": null
  },
  "1505": {
    "postcode": "6511505",
    "prefecture": "兵庫県",
    "prefecture_kana": "ヒョウゴケン",
    "prefecture_code": 28,
    "city": "神戸市北区",
    "city_kana": "コウベシキタク",
    "town": "道場町日下部",
    "town_kana": "ドウジョウチョウクサカベ",
    "street": null,
    "office_name": null,
    "office_name_kana": null
  },
  "1511": {
    "postcode": "6511511",
    "prefecture": "兵庫県",
    "prefecture_kana": "ヒョウゴケン",
    "prefecture_code": 28,
    "city": "神戸市北区",
    "city_kana": "コウベシキタク",
    "town": "長尾町宅原",
    "town_kana": "ナガオチョウエイバラ",
    "street": null,
    "office_name": null,
    "office_name_kana": null
  },
  "1512": {
    "postcode": "6511512",
    "prefecture": "兵庫県",
    "prefecture_kana": "ヒョウゴケン",
    "prefecture_code": 28,
    "city": "神戸市北区",
    "city_kana": "コウベシキタク",
    "town": "長尾町上津",
    "town_kana": "ナガオチョウコウヅ",
    "street": null,
    "office_name": null,
    "office_name_kana": null
  },
  "1513": {
    "postcode": "6511513",
    "prefecture": "兵庫県",
    "prefecture_kana": "ヒョウゴケン",
    "prefecture_code": 28,
    "city": "神戸市北区",
    "city_kana": "コウベシキタク",
    "town": "鹿の子台北町",
    "town_kana": "カノコダイキタマチ",
    "street": null,
    "office_name": null,
    "office_name_kana": null
  },
  "1514": {
    "postcode": "6511514",
    "prefecture": "兵庫県",
    "prefecture_kana": "ヒョウゴケン",
    "prefecture_code": 28,
    "city": "神戸市北区",
    "city_kana": "コウベシキタク",
    "town": "鹿の子台南町",
    "town_kana": "カノコダイミナミマチ",
    "street": null,
    "office_name": null,
    "office_name_kana": null
  },
  "1515": {
    "postcode": "6511515",
    "prefecture": "兵庫県",
    "prefecture_kana": "ヒョウゴケン",
    "prefecture_code": 28,
    "city": "神戸市北区",
    "city_kana": "コウベシキタク",
    "town": "上津台",
    "town_kana": "コウヅダイ",
    "street": null,
    "office_name": null,
    "office_name_kana": null
  },
  "1516": {
    "postcode": "6511516",
    "prefecture": "兵庫県",
    "prefecture_kana": "ヒョウゴケン",
    "prefecture_code": 28,
    "city": "神戸市北区",
    "city_kana": "コウベシキタク",
    "town": "赤松台",
    "town_kana": "アカマツダイ",
    "street": null,
    "office_name": null,
    "office_name_kana": null
  },
  "1521": {
    "postcode": "6511521",
    "prefecture": "兵庫県",
    "prefecture_kana": "ヒョウゴケン",
    "prefecture_code": 28,
    "city": "神戸市北区",
    "city_kana": "コウベシキタク",
    "town": "大沢町市原",
    "town_kana": "オオゾウチョウイチハラ",
    "street": null,
    "office_name": null,
    "office_name_kana": null
  },
  "1522": {
    "postcode": "6511522",
    "prefecture": "兵庫県",
    "prefecture_kana": "ヒョウゴケン",
    "prefecture_code": 28,
    "city": "神戸市北区",
    "city_kana": "コウベシキタク",
    "town": "大沢町上大沢",
    "town_kana": "オオゾウチョウカミオオゾウ",
    "street": null,
    "office_name": null,
    "office_name_kana": null
  },
  "1523": {
    "postcode": "6511523",
    "prefecture": "兵庫県",
    "prefecture_kana": "ヒョウゴケン",
    "prefecture_code": 28,
    "city": "神戸市北区",
    "city_kana": "コウベシキタク",
    "town": "大沢町神付",
    "town_kana": "オオゾウチョウカンヅケ",
    "street": null,
    "office_name": null,
    "office_name_kana": null
  },
  "1524": {
    "postcode": "6511524",
    "prefecture": "兵庫県",
    "prefecture_kana": "ヒョウゴケン",
    "prefecture_code": 28,
    "city": "神戸市北区",
    "city_kana": "コウベシキタク",
    "town": "大沢町中大沢",
    "town_kana": "オオゾウチョウナカオオゾウ",
    "street": null,
    "office_name": null,
    "office_name_kana": null
  },
  "1525": {
    "postcode": "6511525",
    "prefecture": "兵庫県",
    "prefecture_kana": "ヒョウゴケン",
    "prefecture_code": 28,
    "city": "神戸市北区",
    "city_kana": "コウベシキタク",
    "town": "大沢町日西原",
    "town_kana": "オオゾウチョウヒサイバラ",
    "street": null,
    "office_name": null,
    "office_name_kana": null
  },
  "1526": {
    "postcode": "6511526",
    "prefecture": "兵庫県",
    "prefecture_kana": "ヒョウゴケン",
    "prefecture_code": 28,
    "city": "神戸市北区",
    "city_kana": "コウベシキタク",
    "town": "大沢町簾",
    "town_kana": "オオゾウチョウスダレ",
    "street": null,
    "office_name": null,
    "office_name_kana": null
  },
  "1596": {
    "postcode": "6511596",
    "prefecture": "兵庫県",
    "prefecture_kana": "ヒョウゴケン",
    "prefecture_code": 28,
    "city": "神戸市北区",
    "city_kana": "コウベシキタク",
    "town": "上津台",
    "town_kana": "コウヅダイ",
    "street": "７丁目３",
    "office_name": "神戸三田プレミアム・アウトレット",
    "office_name_kana": "コウベサンダプレミアム・アウトレツト"
  },
  "1601": {
    "postcode": "6511601",
    "prefecture": "兵庫県",
    "prefecture_kana": "ヒョウゴケン",
    "prefecture_code": 28,
    "city": "神戸市北区",
    "city_kana": "コウベシキタク",
    "town": "淡河町北僧尾",
    "town_kana": "オウゴチョウキタソオ",
    "street": null,
    "office_name": null,
    "office_name_kana": null
  },
  "1602": {
    "postcode": "6511602",
    "prefecture": "兵庫県",
    "prefecture_kana": "ヒョウゴケン",
    "prefecture_code": 28,
    "city": "神戸市北区",
    "city_kana": "コウベシキタク",
    "town": "淡河町南僧尾",
    "town_kana": "オウゴチョウミナミソオ",
    "street": null,
    "office_name": null,
    "office_name_kana": null
  },
  "1603": {
    "postcode": "6511603",
    "prefecture": "兵庫県",
    "prefecture_kana": "ヒョウゴケン",
    "prefecture_code": 28,
    "city": "神戸市北区",
    "city_kana": "コウベシキタク",
    "town": "淡河町淡河",
    "town_kana": "オウゴチョウオウゴ",
    "street": null,
    "office_name": null,
    "office_name_kana": null
  },
  "1604": {
    "postcode": "6511604",
    "prefecture": "兵庫県",
    "prefecture_kana": "ヒョウゴケン",
    "prefecture_code": 28,
    "city": "神戸市北区",
    "city_kana": "コウベシキタク",
    "town": "淡河町勝雄",
    "town_kana": "オウゴチョウカツオ",
    "street": null,
    "office_name": null,
    "office_name_kana": null
  },
  "1611": {
    "postcode": "6511611",
    "prefecture": "兵庫県",
    "prefecture_kana": "ヒョウゴケン",
    "prefecture_code": 28,
    "city": "神戸市北区",
    "city_kana": "コウベシキタク",
    "town": "淡河町中山",
    "town_kana": "オウゴチョウナカヤマ",
    "street": null,
    "office_name": null,
    "office_name_kana": null
  },
  "1612": {
    "postcode": "6511612",
    "prefecture": "兵庫県",
    "prefecture_kana": "ヒョウゴケン",
    "prefecture_code": 28,
    "city": "神戸市北区",
    "city_kana": "コウベシキタク",
    "town": "淡河町東畑",
    "town_kana": "オウゴチョウヒガシバタ",
    "street": null,
    "office_name": null,
    "office_name_kana": null
  },
  "1613": {
    "postcode": "6511613",
    "prefecture": "兵庫県",
    "prefecture_kana": "ヒョウゴケン",
    "prefecture_code": 28,
    "city": "神戸市北区",
    "city_kana": "コウベシキタク",
    "town": "淡河町行原",
    "town_kana": "オウゴチョウギョウノハラ",
    "street": null,
    "office_name": null,
    "office_name_kana": null
  },
  "1614": {
    "postcode": "6511614",
    "prefecture": "兵庫県",
    "prefecture_kana": "ヒョウゴケン",
    "prefecture_code": 28,
    "city": "神戸市北区",
    "city_kana": "コウベシキタク",
    "town": "淡河町木津",
    "town_kana": "オウゴチョウキヅ",
    "street": null,
    "office_name": null,
    "office_name_kana": null
  },
  "1615": {
    "postcode": "6511615",
    "prefecture": "兵庫県",
    "prefecture_kana": "ヒョウゴケン",
    "prefecture_code": 28,
    "city": "神戸市北区",
    "city_kana": "コウベシキタク",
    "town": "淡河町萩原",
    "town_kana": "オウゴチョウハギワラ",
    "street": null,
    "office_name": null,
    "office_name_kana": null
  },
  "1616": {
    "postcode": "6511616",
    "prefecture": "兵庫県",
    "prefecture_kana": "ヒョウゴケン",
    "prefecture_code": 28,
    "city": "神戸市北区",
    "city_kana": "コウベシキタク",
    "town": "淡河町北畑",
    "town_kana": "オウゴチョウキタハタ",
    "street": null,
    "office_name": null,
    "office_name_kana": null
  },
  "1621": {
    "postcode": "6511621",
    "prefecture": "兵庫県",
    "prefecture_kana": "ヒョウゴケン",
    "prefecture_code": 28,
    "city": "神戸市北区",
    "city_kana": "コウベシキタク",
    "town": "淡河町神影",
    "town_kana": "オウゴチョウミカゲ",
    "street": null,
    "office_name": null,
    "office_name_kana": null
  },
  "1622": {
    "postcode": "6511622",
    "prefecture": "兵庫県",
    "prefecture_kana": "ヒョウゴケン",
    "prefecture_code": 28,
    "city": "神戸市北区",
    "city_kana": "コウベシキタク",
    "town": "淡河町神田",
    "town_kana": "オウゴチョウコウダ",
    "street": null,
    "office_name": null,
    "office_name_kana": null
  },
  "1623": {
    "postcode": "6511623",
    "prefecture": "兵庫県",
    "prefecture_kana": "ヒョウゴケン",
    "prefecture_code": 28,
    "city": "神戸市北区",
    "city_kana": "コウベシキタク",
    "town": "淡河町野瀬",
    "town_kana": "オウゴチョウノセ",
    "street": null,
    "office_name": null,
    "office_name_kana": null
  },
  "2101": {
    "postcode": "6512101",
    "prefecture": "兵庫県",
    "prefecture_kana": "ヒョウゴケン",
    "prefecture_code": 28,
    "city": "神戸市西区",
    "city_kana": "コウベシニシク",
    "town": "伊川谷町布施畑",
    "town_kana": "イカワダニチョウフセハタ",
    "street": null,
    "office_name": null,
    "office_name_kana": null
  },
  "2102": {
    "postcode": "6512102",
    "prefecture": "兵庫県",
    "prefecture_kana": "ヒョウゴケン",
    "prefecture_code": 28,
    "city": "神戸市西区",
    "city_kana": "コウベシニシク",
    "town": "学園東町",
    "town_kana": "ガクエンヒガシマチ",
    "street": null,
    "office_name": null,
    "office_name_kana": null
  },
  "2103": {
    "postcode": "6512103",
    "prefecture": "兵庫県",
    "prefecture_kana": "ヒョウゴケン",
    "prefecture_code": 28,
    "city": "神戸市西区",
    "city_kana": "コウベシニシク",
    "town": "学園西町",
    "town_kana": "ガクエンニシマチ",
    "street": null,
    "office_name": null,
    "office_name_kana": null
  },
  "2104": {
    "postcode": "6512104",
    "prefecture": "兵庫県",
    "prefecture_kana": "ヒョウゴケン",
    "prefecture_code": 28,
    "city": "神戸市西区",
    "city_kana": "コウベシニシク",
    "town": "伊川谷町長坂",
    "town_kana": "イカワダニチョウナガサカ",
    "street": null,
    "office_name": null,
    "office_name_kana": null
  },
  "2105": {
    "postcode": "6512105",
    "prefecture": "兵庫県",
    "prefecture_kana": "ヒョウゴケン",
    "prefecture_code": 28,
    "city": "神戸市西区",
    "city_kana": "コウベシニシク",
    "town": "伊川谷町上脇",
    "town_kana": "イカワダニチョウカミワキ",
    "street": null,
    "office_name": null,
    "office_name_kana": null
  },
  "2106": {
    "postcode": "6512106",
    "prefecture": "兵庫県",
    "prefecture_kana": "ヒョウゴケン",
    "prefecture_code": 28,
    "city": "神戸市西区",
    "city_kana": "コウベシニシク",
    "town": "伊川谷町井吹",
    "town_kana": "イカワダニチョウイブキ",
    "street": null,
    "office_name": null,
    "office_name_kana": null
  },
  "2107": {
    "postcode": "6512107",
    "prefecture": "兵庫県",
    "prefecture_kana": "ヒョウゴケン",
    "prefecture_code": 28,
    "city": "神戸市西区",
    "city_kana": "コウベシニシク",
    "town": "伊川谷町小寺",
    "town_kana": "イカワダニチョウコデラ",
    "street": null,
    "office_name": null,
    "office_name_kana": null
  },
  "2108": {
    "postcode": "6512108",
    "prefecture": "兵庫県",
    "prefecture_kana": "ヒョウゴケン",
    "prefecture_code": 28,
    "city": "神戸市西区",
    "city_kana": "コウベシニシク",
    "town": "伊川谷町前開",
    "town_kana": "イカワダニチョウゼンカイ",
    "street": null,
    "office_name": null,
    "office_name_kana": null
  },
  "2109": {
    "postcode": "6512109",
    "prefecture": "兵庫県",
    "prefecture_kana": "ヒョウゴケン",
    "prefecture_code": 28,
    "city": "神戸市西区",
    "city_kana": "コウベシニシク",
    "town": "前開南町",
    "town_kana": "ゼンカイミナミマチ",
    "street": null,
    "office_name": null,
    "office_name_kana": null
  },
  "2111": {
    "postcode": "6512111",
    "prefecture": "兵庫県",
    "prefecture_kana": "ヒョウゴケン",
    "prefecture_code": 28,
    "city": "神戸市西区",
    "city_kana": "コウベシニシク",
    "town": "池上",
    "town_kana": "イケガミ",
    "street": null,
    "office_name": null,
    "office_name_kana": null
  },
  "2112": {
    "postcode": "6512112",
    "prefecture": "兵庫県",
    "prefecture_kana": "ヒョウゴケン",
    "prefecture_code": 28,
    "city": "神戸市西区",
    "city_kana": "コウベシニシク",
    "town": "大津和",
    "town_kana": "オオツワ",
    "street": null,
    "office_name": null,
    "office_name_kana": null
  },
  "2113": {
    "postcode": "6512113",
    "prefecture": "兵庫県",
    "prefecture_kana": "ヒョウゴケン",
    "prefecture_code": 28,
    "city": "神戸市西区",
    "city_kana": "コウベシニシク",
    "town": "伊川谷町有瀬",
    "town_kana": "イカワダニチョウアリセ",
    "street": null,
    "office_name": null,
    "office_name_kana": null
  },
  "2114": {
    "postcode": "6512114",
    "prefecture": "兵庫県",
    "prefecture_kana": "ヒョウゴケン",
    "prefecture_code": 28,
    "city": "神戸市西区",
    "city_kana": "コウベシニシク",
    "town": "今寺",
    "town_kana": "イマデラ",
    "street": null,
    "office_name": null,
    "office_name_kana": null
  },
  "2115": {
    "postcode": "6512115",
    "prefecture": "兵庫県",
    "prefecture_kana": "ヒョウゴケン",
    "prefecture_code": 28,
    "city": "神戸市西区",
    "city_kana": "コウベシニシク",
    "town": "伊川谷町別府",
    "town_kana": "イカワダニチョウベフ",
    "street": null,
    "office_name": null,
    "office_name_kana": null
  },
  "2116": {
    "postcode": "6512116",
    "prefecture": "兵庫県",
    "prefecture_kana": "ヒョウゴケン",
    "prefecture_code": 28,
    "city": "神戸市西区",
    "city_kana": "コウベシニシク",
    "town": "南別府",
    "town_kana": "ミナミベフ",
    "street": null,
    "office_name": null,
    "office_name_kana": null
  },
  "2117": {
    "postcode": "6512117",
    "prefecture": "兵庫県",
    "prefecture_kana": "ヒョウゴケン",
    "prefecture_code": 28,
    "city": "神戸市西区",
    "city_kana": "コウベシニシク",
    "town": "北別府",
    "town_kana": "キタベフ",
    "street": null,
    "office_name": null,
    "office_name_kana": null
  },
  "2120": {
    "postcode": "6512120",
    "prefecture": "兵庫県",
    "prefecture_kana": "ヒョウゴケン",
    "prefecture_code": 28,
    "city": "神戸市西区",
    "city_kana": "コウベシニシク",
    "town": "和井取",
    "town_kana": "ワイドリ",
    "street": null,
    "office_name": null,
    "office_name_kana": null
  },
  "2121": [
    {
      "postcode": "6512121",
      "prefecture": "兵庫県",
      "prefecture_kana": "ヒョウゴケン",
      "prefecture_code": 28,
      "city": "神戸市西区",
      "city_kana": "コウベシニシク",
      "town": "玉津町水谷",
      "town_kana": "タマツチョウミタニ",
      "street": null,
      "office_name": null,
      "office_name_kana": null
    },
    {
      "postcode": "6512121",
      "prefecture": "兵庫県",
      "prefecture_kana": "ヒョウゴケン",
      "prefecture_code": 28,
      "city": "神戸市西区",
      "city_kana": "コウベシニシク",
      "town": "水谷",
      "town_kana": "ミタニ",
      "street": null,
      "office_name": null,
      "office_name_kana": null
    }
  ],
  "2122": {
    "postcode": "6512122",
    "prefecture": "兵庫県",
    "prefecture_kana": "ヒョウゴケン",
    "prefecture_code": 28,
    "city": "神戸市西区",
    "city_kana": "コウベシニシク",
    "town": "玉津町高津橋",
    "town_kana": "タマツチョウコウヅバシ",
    "street": null,
    "office_name": null,
    "office_name_kana": null
  },
  "2123": {
    "postcode": "6512123",
    "prefecture": "兵庫県",
    "prefecture_kana": "ヒョウゴケン",
    "prefecture_code": 28,
    "city": "神戸市西区",
    "city_kana": "コウベシニシク",
    "town": "天王山",
    "town_kana": "テンノウザン",
    "street": null,
    "office_name": null,
    "office_name_kana": null
  },
  "2124": {
    "postcode": "6512124",
    "prefecture": "兵庫県",
    "prefecture_kana": "ヒョウゴケン",
    "prefecture_code": 28,
    "city": "神戸市西区",
    "city_kana": "コウベシニシク",
    "town": "伊川谷町潤和",
    "town_kana": "イカワダニチョウジュンナ",
    "street": null,
    "office_name": null,
    "office_name_kana": null
  },
  "2125": {
    "postcode": "6512125",
    "prefecture": "兵庫県",
    "prefecture_kana": "ヒョウゴケン",
    "prefecture_code": 28,
    "city": "神戸市西区",
    "city_kana": "コウベシニシク",
    "town": "玉津町新方",
    "town_kana": "タマツチョウシンポウ",
    "street": null,
    "office_name": null,
    "office_name_kana": null
  },
  "2126": {
    "postcode": "6512126",
    "prefecture": "兵庫県",
    "prefecture_kana": "ヒョウゴケン",
    "prefecture_code": 28,
    "city": "神戸市西区",
    "city_kana": "コウベシニシク",
    "town": "玉津町上池",
    "town_kana": "タマツチョウカミイケ",
    "street": null,
    "office_name": null,
    "office_name_kana": null
  },
  "2127": {
    "postcode": "6512127",
    "prefecture": "兵庫県",
    "prefecture_kana": "ヒョウゴケン",
    "prefecture_code": 28,
    "city": "神戸市西区",
    "city_kana": "コウベシニシク",
    "town": "玉津町西河原",
    "town_kana": "タマツチョウニシガワラ",
    "street": null,
    "office_name": null,
    "office_name_kana": null
  },
  "2128": {
    "postcode": "6512128",
    "prefecture": "兵庫県",
    "prefecture_kana": "ヒョウゴケン",
    "prefecture_code": 28,
    "city": "神戸市西区",
    "city_kana": "コウベシニシク",
    "town": "玉津町今津",
    "town_kana": "タマツチョウイマヅ",
    "street": null,
    "office_name": null,
    "office_name_kana": null
  },
  "2129": {
    "postcode": "6512129",
    "prefecture": "兵庫県",
    "prefecture_kana": "ヒョウゴケン",
    "prefecture_code": 28,
    "city": "神戸市西区",
    "city_kana": "コウベシニシク",
    "town": "白水",
    "town_kana": "シラミズ",
    "street": null,
    "office_name": null,
    "office_name_kana": null
  },
  "2131": {
    "postcode": "6512131",
    "prefecture": "兵庫県",
    "prefecture_kana": "ヒョウゴケン",
    "prefecture_code": 28,
    "city": "神戸市西区",
    "city_kana": "コウベシニシク",
    "town": "持子",
    "town_kana": "モチコ",
    "street": null,
    "office_name": null,
    "office_name_kana": null
  },
  "2132": {
    "postcode": "6512132",
    "prefecture": "兵庫県",
    "prefecture_kana": "ヒョウゴケン",
    "prefecture_code": 28,
    "city": "神戸市西区",
    "city_kana": "コウベシニシク",
    "town": "森友",
    "town_kana": "モリトモ",
    "street": null,
    "office_name": null,
    "office_name_kana": null
  },
  "2133": {
    "postcode": "6512133",
    "prefecture": "兵庫県",
    "prefecture_kana": "ヒョウゴケン",
    "prefecture_code": 28,
    "city": "神戸市西区",
    "city_kana": "コウベシニシク",
    "town": "枝吉",
    "town_kana": "エダヨシ",
    "street": null,
    "office_name": null,
    "office_name_kana": null
  },
  "2134": {
    "postcode": "6512134",
    "prefecture": "兵庫県",
    "prefecture_kana": "ヒョウゴケン",
    "prefecture_code": 28,
    "city": "神戸市西区",
    "city_kana": "コウベシニシク",
    "town": "曙町",
    "town_kana": "アケボノチョウ",
    "street": null,
    "office_name": null,
    "office_name_kana": null
  },
  "2135": {
    "postcode": "6512135",
    "prefecture": "兵庫県",
    "prefecture_kana": "ヒョウゴケン",
    "prefecture_code": 28,
    "city": "神戸市西区",
    "city_kana": "コウベシニシク",
    "town": "王塚台",
    "town_kana": "オウツカダイ",
    "street": null,
    "office_name": null,
    "office_name_kana": null
  },
  "2136": {
    "postcode": "6512136",
    "prefecture": "兵庫県",
    "prefecture_kana": "ヒョウゴケン",
    "prefecture_code": 28,
    "city": "神戸市西区",
    "city_kana": "コウベシニシク",
    "town": "中野",
    "town_kana": "ナカノ",
    "street": null,
    "office_name": null,
    "office_name_kana": null
  },
  "2137": {
    "postcode": "6512137",
    "prefecture": "兵庫県",
    "prefecture_kana": "ヒョウゴケン",
    "prefecture_code": 28,
    "city": "神戸市西区",
    "city_kana": "コウベシニシク",
    "town": "玉津町出合",
    "town_kana": "タマツチョウデアイ",
    "street": null,
    "office_name": null,
    "office_name_kana": null
  },
  "2138": {
    "postcode": "6512138",
    "prefecture": "兵庫県",
    "prefecture_kana": "ヒョウゴケン",
    "prefecture_code": 28,
    "city": "神戸市西区",
    "city_kana": "コウベシニシク",
    "town": "玉津町吉田",
    "town_kana": "タマツチョウヨシダ",
    "street": null,
    "office_name": null,
    "office_name_kana": null
  },
  "2141": {
    "postcode": "6512141",
    "prefecture": "兵庫県",
    "prefecture_kana": "ヒョウゴケン",
    "prefecture_code": 28,
    "city": "神戸市西区",
    "city_kana": "コウベシニシク",
    "town": "天が岡",
    "town_kana": "アマガオカ",
    "street": null,
    "office_name": null,
    "office_name_kana": null
  },
  "2142": [
    {
      "postcode": "6512142",
      "prefecture": "兵庫県",
      "prefecture_kana": "ヒョウゴケン",
      "prefecture_code": 28,
      "city": "神戸市西区",
      "city_kana": "コウベシニシク",
      "town": "玉津町二ツ屋",
      "town_kana": "タマツチョウフタツヤ",
      "street": null,
      "office_name": null,
      "office_name_kana": null
    },
    {
      "postcode": "6512142",
      "prefecture": "兵庫県",
      "prefecture_kana": "ヒョウゴケン",
      "prefecture_code": 28,
      "city": "神戸市西区",
      "city_kana": "コウベシニシク",
      "town": "二ツ屋",
      "town_kana": "フタツヤ",
      "street": null,
      "office_name": null,
      "office_name_kana": null
    }
  ],
  "2143": [
    {
      "postcode": "6512143",
      "prefecture": "兵庫県",
      "prefecture_kana": "ヒョウゴケン",
      "prefecture_code": 28,
      "city": "神戸市西区",
      "city_kana": "コウベシニシク",
      "town": "玉津町丸塚",
      "town_kana": "タマツチョウマルヅカ",
      "street": null,
      "office_name": null,
      "office_name_kana": null
    },
    {
      "postcode": "6512143",
      "prefecture": "兵庫県",
      "prefecture_kana": "ヒョウゴケン",
      "prefecture_code": 28,
      "city": "神戸市西区",
      "city_kana": "コウベシニシク",
      "town": "丸塚",
      "town_kana": "マルヅカ",
      "street": null,
      "office_name": null,
      "office_name_kana": null
    }
  ],
  "2144": [
    {
      "postcode": "6512144",
      "prefecture": "兵庫県",
      "prefecture_kana": "ヒョウゴケン",
      "prefecture_code": 28,
      "city": "神戸市西区",
      "city_kana": "コウベシニシク",
      "town": "小山",
      "town_kana": "コヤマ",
      "street": null,
      "office_name": null,
      "office_name_kana": null
    },
    {
      "postcode": "6512144",
      "prefecture": "兵庫県",
      "prefecture_kana": "ヒョウゴケン",
      "prefecture_code": 28,
      "city": "神戸市西区",
      "city_kana": "コウベシニシク",
      "town": "玉津町小山",
      "town_kana": "タマツチョウコヤマ",
      "street": null,
      "office_name": null,
      "office_name_kana": null
    }
  ],
  "2145": {
    "postcode": "6512145",
    "prefecture": "兵庫県",
    "prefecture_kana": "ヒョウゴケン",
    "prefecture_code": 28,
    "city": "神戸市西区",
    "city_kana": "コウベシニシク",
    "town": "玉津町居住",
    "town_kana": "タマツチョウイスミ",
    "street": null,
    "office_name": null,
    "office_name_kana": null
  },
  "2146": {
    "postcode": "6512146",
    "prefecture": "兵庫県",
    "prefecture_kana": "ヒョウゴケン",
    "prefecture_code": 28,
    "city": "神戸市西区",
    "city_kana": "コウベシニシク",
    "town": "宮下",
    "town_kana": "ミヤシタ",
    "street": null,
    "office_name": null,
    "office_name_kana": null
  },
  "2147": {
    "postcode": "6512147",
    "prefecture": "兵庫県",
    "prefecture_kana": "ヒョウゴケン",
    "prefecture_code": 28,
    "city": "神戸市西区",
    "city_kana": "コウベシニシク",
    "town": "玉津町田中",
    "town_kana": "タマツチョウタナカ",
    "street": null,
    "office_name": null,
    "office_name_kana": null
  },
  "2148": {
    "postcode": "6512148",
    "prefecture": "兵庫県",
    "prefecture_kana": "ヒョウゴケン",
    "prefecture_code": 28,
    "city": "神戸市西区",
    "city_kana": "コウベシニシク",
    "town": "長畑町",
    "town_kana": "ナガハタチョウ",
    "street": null,
    "office_name": null,
    "office_name_kana": null
  },
  "2180": {
    "postcode": "6512180",
    "prefecture": "兵庫県",
    "prefecture_kana": "ヒョウゴケン",
    "prefecture_code": 28,
    "city": "神戸市西区",
    "city_kana": "コウベシニシク",
    "town": "伊川谷町有瀬",
    "town_kana": "イカワダニチョウアリセ",
    "street": "５１８",
    "office_name": "神戸学院大学　有瀬キャンパス",
    "office_name_kana": "コウベガクインダイガク アリセキヤンパス"
  },
  "2181": {
    "postcode": "6512181",
    "prefecture": "兵庫県",
    "prefecture_kana": "ヒョウゴケン",
    "prefecture_code": 28,
    "city": "神戸市西区",
    "city_kana": "コウベシニシク",
    "town": "曙町",
    "town_kana": "アケボノチョウ",
    "street": "１０７０",
    "office_name": "総合リハビリテーションセンター",
    "office_name_kana": "ソウゴウリハビリテ-シヨンセンタ-"
  },
  "2187": {
    "postcode": "6512187",
    "prefecture": "兵庫県",
    "prefecture_kana": "ヒョウゴケン",
    "prefecture_code": 28,
    "city": "神戸市西区",
    "city_kana": "コウベシニシク",
    "town": "学園東町",
    "town_kana": "ガクエンヒガシマチ",
    "street": "９丁目１",
    "office_name": "神戸市外国語大学",
    "office_name_kana": "コウベシガイコクゴダイガク"
  },
  "2188": {
    "postcode": "6512188",
    "prefecture": "兵庫県",
    "prefecture_kana": "ヒョウゴケン",
    "prefecture_code": 28,
    "city": "神戸市西区",
    "city_kana": "コウベシニシク",
    "town": "学園西町",
    "town_kana": "ガクエンニシマチ",
    "street": "３丁目１番",
    "office_name": "学校法人中内学園　流通科学大学",
    "office_name_kana": "ガツコウホウジンナカウチガクエン リユウツウカガクダイガク"
  },
  "2194": {
    "postcode": "6512194",
    "prefecture": "兵庫県",
    "prefecture_kana": "ヒョウゴケン",
    "prefecture_code": 28,
    "city": "神戸市西区",
    "city_kana": "コウベシニシク",
    "town": "学園東町",
    "town_kana": "ガクエンヒガシマチ",
    "street": "８丁目３",
    "office_name": "神戸市立工業高等専門学校",
    "office_name_kana": "コウベシリツコウギヨウコウトウセンモンガツコウ"
  },
  "2196": {
    "postcode": "6512196",
    "prefecture": "兵庫県",
    "prefecture_kana": "ヒョウゴケン",
    "prefecture_code": 28,
    "city": "神戸市西区",
    "city_kana": "コウベシニシク",
    "town": "学園西町",
    "town_kana": "ガクエンニシマチ",
    "street": "８丁目１−１",
    "office_name": "神戸芸術工科大学",
    "office_name_kana": "コウベゲイジユツコウカダイガク"
  },
  "2197": {
    "postcode": "6512197",
    "prefecture": "兵庫県",
    "prefecture_kana": "ヒョウゴケン",
    "prefecture_code": 28,
    "city": "神戸市西区",
    "city_kana": "コウベシニシク",
    "town": "学園西町",
    "town_kana": "ガクエンニシマチ",
    "street": "８丁目２−１",
    "office_name": "兵庫県立大学　学園都市キャンパス",
    "office_name_kana": "ヒヨウゴケンリツダイガク ガクエントシキヤンパス"
  },
  "2201": {
    "postcode": "6512201",
    "prefecture": "兵庫県",
    "prefecture_kana": "ヒョウゴケン",
    "prefecture_code": 28,
    "city": "神戸市西区",
    "city_kana": "コウベシニシク",
    "town": "高雄台",
    "town_kana": "タカオダイ",
    "street": null,
    "office_name": null,
    "office_name_kana": null
  },
  "2202": {
    "postcode": "6512202",
    "prefecture": "兵庫県",
    "prefecture_kana": "ヒョウゴケン",
    "prefecture_code": 28,
    "city": "神戸市西区",
    "city_kana": "コウベシニシク",
    "town": "押部谷町西盛",
    "town_kana": "オシベダニチョウニシモリ",
    "street": null,
    "office_name": null,
    "office_name_kana": null
  },
  "2203": {
    "postcode": "6512203",
    "prefecture": "兵庫県",
    "prefecture_kana": "ヒョウゴケン",
    "prefecture_code": 28,
    "city": "神戸市西区",
    "city_kana": "コウベシニシク",
    "town": "押部谷町近江",
    "town_kana": "オシベダニチョウキンコウ",
    "street": null,
    "office_name": null,
    "office_name_kana": null
  },
  "2204": {
    "postcode": "6512204",
    "prefecture": "兵庫県",
    "prefecture_kana": "ヒョウゴケン",
    "prefecture_code": 28,
    "city": "神戸市西区",
    "city_kana": "コウベシニシク",
    "town": "押部谷町高和",
    "town_kana": "オシベダニチョウタカワ",
    "street": null,
    "office_name": null,
    "office_name_kana": null
  },
  "2205": {
    "postcode": "6512205",
    "prefecture": "兵庫県",
    "prefecture_kana": "ヒョウゴケン",
    "prefecture_code": 28,
    "city": "神戸市西区",
    "city_kana": "コウベシニシク",
    "town": "押部谷町養田",
    "town_kana": "オシベダニチョウヨウダ",
    "street": null,
    "office_name": null,
    "office_name_kana": null
  },
  "2206": {
    "postcode": "6512206",
    "prefecture": "兵庫県",
    "prefecture_kana": "ヒョウゴケン",
    "prefecture_code": 28,
    "city": "神戸市西区",
    "city_kana": "コウベシニシク",
    "town": "押部谷町和田",
    "town_kana": "オシベダニチョウワダ",
    "street": null,
    "office_name": null,
    "office_name_kana": null
  },
  "2207": {
    "postcode": "6512207",
    "prefecture": "兵庫県",
    "prefecture_kana": "ヒョウゴケン",
    "prefecture_code": 28,
    "city": "神戸市西区",
    "city_kana": "コウベシニシク",
    "town": "押部谷町細田",
    "town_kana": "オシベダニチョウサイタ",
    "street": null,
    "office_name": null,
    "office_name_kana": null
  },
  "2211": {
    "postcode": "6512211",
    "prefecture": "兵庫県",
    "prefecture_kana": "ヒョウゴケン",
    "prefecture_code": 28,
    "city": "神戸市西区",
    "city_kana": "コウベシニシク",
    "town": "押部谷町栄",
    "town_kana": "オシベダニチョウサカエ",
    "street": null,
    "office_name": null,
    "office_name_kana": null
  },
  "2212": {
    "postcode": "6512212",
    "prefecture": "兵庫県",
    "prefecture_kana": "ヒョウゴケン",
    "prefecture_code": 28,
    "city": "神戸市西区",
    "city_kana": "コウベシニシク",
    "town": "押部谷町押部",
    "town_kana": "オシベダニチョウオシベ",
    "street": null,
    "office_name": null,
    "office_name_kana": null
  },
  "2213": {
    "postcode": "6512213",
    "prefecture": "兵庫県",
    "prefecture_kana": "ヒョウゴケン",
    "prefecture_code": 28,
    "city": "神戸市西区",
    "city_kana": "コウベシニシク",
    "town": "押部谷町福住",
    "town_kana": "オシベダニチョウフクズミ",
    "street": null,
    "office_name": null,
    "office_name_kana": null
  },
  "2214": {
    "postcode": "6512214",
    "prefecture": "兵庫県",
    "prefecture_kana": "ヒョウゴケン",
    "prefecture_code": 28,
    "city": "神戸市西区",
    "city_kana": "コウベシニシク",
    "town": "富士見が丘",
    "town_kana": "フジミガオカ",
    "street": null,
    "office_name": null,
    "office_name_kana": null
  },
  "2215": {
    "postcode": "6512215",
    "prefecture": "兵庫県",
    "prefecture_kana": "ヒョウゴケン",
    "prefecture_code": 28,
    "city": "神戸市西区",
    "city_kana": "コウベシニシク",
    "town": "北山台",
    "town_kana": "キタヤマダイ",
    "street": null,
    "office_name": null,
    "office_name_kana": null
  },
  "2216": {
    "postcode": "6512216",
    "prefecture": "兵庫県",
    "prefecture_kana": "ヒョウゴケン",
    "prefecture_code": 28,
    "city": "神戸市西区",
    "city_kana": "コウベシニシク",
    "town": "美穂が丘",
    "town_kana": "ミホガオカ",
    "street": null,
    "office_name": null,
    "office_name_kana": null
  },
  "2217": {
    "postcode": "6512217",
    "prefecture": "兵庫県",
    "prefecture_kana": "ヒョウゴケン",
    "prefecture_code": 28,
    "city": "神戸市西区",
    "city_kana": "コウベシニシク",
    "town": "月が丘",
    "town_kana": "ツキガオカ",
    "street": null,
    "office_name": null,
    "office_name_kana": null
  },
  "2221": {
    "postcode": "6512221",
    "prefecture": "兵庫県",
    "prefecture_kana": "ヒョウゴケン",
    "prefecture_code": 28,
    "city": "神戸市西区",
    "city_kana": "コウベシニシク",
    "town": "押部谷町木幡",
    "town_kana": "オシベダニチョウコバタ",
    "street": null,
    "office_name": null,
    "office_name_kana": null
  },
  "2222": {
    "postcode": "6512222",
    "prefecture": "兵庫県",
    "prefecture_kana": "ヒョウゴケン",
    "prefecture_code": 28,
    "city": "神戸市西区",
    "city_kana": "コウベシニシク",
    "town": "押部谷町木津",
    "town_kana": "オシベダニチョウキヅ",
    "street": null,
    "office_name": null,
    "office_name_kana": null
  },
  "2223": {
    "postcode": "6512223",
    "prefecture": "兵庫県",
    "prefecture_kana": "ヒョウゴケン",
    "prefecture_code": 28,
    "city": "神戸市西区",
    "city_kana": "コウベシニシク",
    "town": "押部谷町木見",
    "town_kana": "オシベダニチョウコウミ",
    "street": null,
    "office_name": null,
    "office_name_kana": null
  },
  "2224": {
    "postcode": "6512224",
    "prefecture": "兵庫県",
    "prefecture_kana": "ヒョウゴケン",
    "prefecture_code": 28,
    "city": "神戸市西区",
    "city_kana": "コウベシニシク",
    "town": "秋葉台",
    "town_kana": "アキバダイ",
    "street": null,
    "office_name": null,
    "office_name_kana": null
  },
  "2225": {
    "postcode": "6512225",
    "prefecture": "兵庫県",
    "prefecture_kana": "ヒョウゴケン",
    "prefecture_code": 28,
    "city": "神戸市西区",
    "city_kana": "コウベシニシク",
    "town": "桜が丘東町",
    "town_kana": "サクラガオカヒガシマチ",
    "street": null,
    "office_name": null,
    "office_name_kana": null
  },
  "2226": {
    "postcode": "6512226",
    "prefecture": "兵庫県",
    "prefecture_kana": "ヒョウゴケン",
    "prefecture_code": 28,
    "city": "神戸市西区",
    "city_kana": "コウベシニシク",
    "town": "桜が丘中町",
    "town_kana": "サクラガオカナカマチ",
    "street": null,
    "office_name": null,
    "office_name_kana": null
  },
  "2227": {
    "postcode": "6512227",
    "prefecture": "兵庫県",
    "prefecture_kana": "ヒョウゴケン",
    "prefecture_code": 28,
    "city": "神戸市西区",
    "city_kana": "コウベシニシク",
    "town": "桜が丘西町",
    "town_kana": "サクラガオカニシマチ",
    "street": null,
    "office_name": null,
    "office_name_kana": null
  },
  "2228": {
    "postcode": "6512228",
    "prefecture": "兵庫県",
    "prefecture_kana": "ヒョウゴケン",
    "prefecture_code": 28,
    "city": "神戸市西区",
    "city_kana": "コウベシニシク",
    "town": "見津が丘",
    "town_kana": "ミツガオカ",
    "street": null,
    "office_name": null,
    "office_name_kana": null
  },
  "2231": {
    "postcode": "6512231",
    "prefecture": "兵庫県",
    "prefecture_kana": "ヒョウゴケン",
    "prefecture_code": 28,
    "city": "神戸市西区",
    "city_kana": "コウベシニシク",
    "town": "櫨谷町寺谷",
    "town_kana": "ハセタニチョウテラタニ",
    "street": null,
    "office_name": null,
    "office_name_kana": null
  },
  "2232": {
    "postcode": "6512232",
    "prefecture": "兵庫県",
    "prefecture_kana": "ヒョウゴケン",
    "prefecture_code": 28,
    "city": "神戸市西区",
    "city_kana": "コウベシニシク",
    "town": "櫨谷町友清",
    "town_kana": "ハセタニチョウトモキヨ",
    "street": null,
    "office_name": null,
    "office_name_kana": null
  },
  "2233": {
    "postcode": "6512233",
    "prefecture": "兵庫県",
    "prefecture_kana": "ヒョウゴケン",
    "prefecture_code": 28,
    "city": "神戸市西区",
    "city_kana": "コウベシニシク",
    "town": "櫨谷町福谷",
    "town_kana": "ハセタニチョウフクタニ",
    "street": null,
    "office_name": null,
    "office_name_kana": null
  },
  "2234": {
    "postcode": "6512234",
    "prefecture": "兵庫県",
    "prefecture_kana": "ヒョウゴケン",
    "prefecture_code": 28,
    "city": "神戸市西区",
    "city_kana": "コウベシニシク",
    "town": "櫨谷町池谷",
    "town_kana": "ハセタニチョウイケタニ",
    "street": null,
    "office_name": null,
    "office_name_kana": null
  },
  "2235": {
    "postcode": "6512235",
    "prefecture": "兵庫県",
    "prefecture_kana": "ヒョウゴケン",
    "prefecture_code": 28,
    "city": "神戸市西区",
    "city_kana": "コウベシニシク",
    "town": "櫨谷町長谷",
    "town_kana": "ハセタニチョウハセ",
    "street": null,
    "office_name": null,
    "office_name_kana": null
  },
  "2236": {
    "postcode": "6512236",
    "prefecture": "兵庫県",
    "prefecture_kana": "ヒョウゴケン",
    "prefecture_code": 28,
    "city": "神戸市西区",
    "city_kana": "コウベシニシク",
    "town": "櫨谷町栃木",
    "town_kana": "ハセタニチョウトチノキ",
    "street": null,
    "office_name": null,
    "office_name_kana": null
  },
  "2237": {
    "postcode": "6512237",
    "prefecture": "兵庫県",
    "prefecture_kana": "ヒョウゴケン",
    "prefecture_code": 28,
    "city": "神戸市西区",
    "city_kana": "コウベシニシク",
    "town": "櫨谷町谷口",
    "town_kana": "ハセタニチョウタニグチ",
    "street": null,
    "office_name": null,
    "office_name_kana": null
  },
  "2238": {
    "postcode": "6512238",
    "prefecture": "兵庫県",
    "prefecture_kana": "ヒョウゴケン",
    "prefecture_code": 28,
    "city": "神戸市西区",
    "city_kana": "コウベシニシク",
    "town": "櫨谷町菅野",
    "town_kana": "ハセタニチョウスガノ",
    "street": null,
    "office_name": null,
    "office_name_kana": null
  },
  "2239": {
    "postcode": "6512239",
    "prefecture": "兵庫県",
    "prefecture_kana": "ヒョウゴケン",
    "prefecture_code": 28,
    "city": "神戸市西区",
    "city_kana": "コウベシニシク",
    "town": "櫨谷町松本",
    "town_kana": "ハセタニチョウマツモト",
    "street": null,
    "office_name": null,
    "office_name_kana": null
  },
  "2241": {
    "postcode": "6512241",
    "prefecture": "兵庫県",
    "prefecture_kana": "ヒョウゴケン",
    "prefecture_code": 28,
    "city": "神戸市西区",
    "city_kana": "コウベシニシク",
    "town": "室谷",
    "town_kana": "ムロタニ",
    "street": null,
    "office_name": null,
    "office_name_kana": null
  },
  "2242": {
    "postcode": "6512242",
    "prefecture": "兵庫県",
    "prefecture_kana": "ヒョウゴケン",
    "prefecture_code": 28,
    "city": "神戸市西区",
    "city_kana": "コウベシニシク",
    "town": "井吹台東町",
    "town_kana": "イブキダイヒガシマチ",
    "street": null,
    "office_name": null,
    "office_name_kana": null
  },
  "2243": {
    "postcode": "6512243",
    "prefecture": "兵庫県",
    "prefecture_kana": "ヒョウゴケン",
    "prefecture_code": 28,
    "city": "神戸市西区",
    "city_kana": "コウベシニシク",
    "town": "井吹台西町",
    "town_kana": "イブキダイニシマチ",
    "street": null,
    "office_name": null,
    "office_name_kana": null
  },
  "2244": {
    "postcode": "6512244",
    "prefecture": "兵庫県",
    "prefecture_kana": "ヒョウゴケン",
    "prefecture_code": 28,
    "city": "神戸市西区",
    "city_kana": "コウベシニシク",
    "town": "井吹台北町",
    "town_kana": "イブキダイキタマチ",
    "street": null,
    "office_name": null,
    "office_name_kana": null
  },
  "2251": {
    "postcode": "6512251",
    "prefecture": "兵庫県",
    "prefecture_kana": "ヒョウゴケン",
    "prefecture_code": 28,
    "city": "神戸市西区",
    "city_kana": "コウベシニシク",
    "town": "平野町下村",
    "town_kana": "ヒラノチョウシモムラ",
    "street": null,
    "office_name": null,
    "office_name_kana": null
  },
  "2252": {
    "postcode": "6512252",
    "prefecture": "兵庫県",
    "prefecture_kana": "ヒョウゴケン",
    "prefecture_code": 28,
    "city": "神戸市西区",
    "city_kana": "コウベシニシク",
    "town": "平野町福中",
    "town_kana": "ヒラノチョウフクナカ",
    "street": null,
    "office_name": null,
    "office_name_kana": null
  },
  "2253": {
    "postcode": "6512253",
    "prefecture": "兵庫県",
    "prefecture_kana": "ヒョウゴケン",
    "prefecture_code": 28,
    "city": "神戸市西区",
    "city_kana": "コウベシニシク",
    "town": "平野町向井",
    "town_kana": "ヒラノチョウムカイ",
    "street": null,
    "office_name": null,
    "office_name_kana": null
  },
  "2254": {
    "postcode": "6512254",
    "prefecture": "兵庫県",
    "prefecture_kana": "ヒョウゴケン",
    "prefecture_code": 28,
    "city": "神戸市西区",
    "city_kana": "コウベシニシク",
    "town": "平野町芝崎",
    "town_kana": "ヒラノチョウシバサキ",
    "street": null,
    "office_name": null,
    "office_name_kana": null
  },
  "2255": {
    "postcode": "6512255",
    "prefecture": "兵庫県",
    "prefecture_kana": "ヒョウゴケン",
    "prefecture_code": 28,
    "city": "神戸市西区",
    "city_kana": "コウベシニシク",
    "town": "平野町慶明",
    "town_kana": "ヒラノチョウケイメイ",
    "street": null,
    "office_name": null,
    "office_name_kana": null
  },
  "2256": {
    "postcode": "6512256",
    "prefecture": "兵庫県",
    "prefecture_kana": "ヒョウゴケン",
    "prefecture_code": 28,
    "city": "神戸市西区",
    "city_kana": "コウベシニシク",
    "town": "平野町大野",
    "town_kana": "ヒラノチョウオオノ",
    "street": null,
    "office_name": null,
    "office_name_kana": null
  },
  "2257": {
    "postcode": "6512257",
    "prefecture": "兵庫県",
    "prefecture_kana": "ヒョウゴケン",
    "prefecture_code": 28,
    "city": "神戸市西区",
    "city_kana": "コウベシニシク",
    "town": "平野町中津",
    "town_kana": "ヒラノチョウナカツ",
    "street": null,
    "office_name": null,
    "office_name_kana": null
  },
  "2261": {
    "postcode": "6512261",
    "prefecture": "兵庫県",
    "prefecture_kana": "ヒョウゴケン",
    "prefecture_code": 28,
    "city": "神戸市西区",
    "city_kana": "コウベシニシク",
    "town": "平野町堅田",
    "town_kana": "ヒラノチョウカタダ",
    "street": null,
    "office_name": null,
    "office_name_kana": null
  },
  "2262": {
    "postcode": "6512262",
    "prefecture": "兵庫県",
    "prefecture_kana": "ヒョウゴケン",
    "prefecture_code": 28,
    "city": "神戸市西区",
    "city_kana": "コウベシニシク",
    "town": "平野町繁田",
    "town_kana": "ヒラノチョウシゲタ",
    "street": null,
    "office_name": null,
    "office_name_kana": null
  },
  "2263": {
    "postcode": "6512263",
    "prefecture": "兵庫県",
    "prefecture_kana": "ヒョウゴケン",
    "prefecture_code": 28,
    "city": "神戸市西区",
    "city_kana": "コウベシニシク",
    "town": "平野町常本",
    "town_kana": "ヒラノチョウツネモト",
    "street": null,
    "office_name": null,
    "office_name_kana": null
  },
  "2264": {
    "postcode": "6512264",
    "prefecture": "兵庫県",
    "prefecture_kana": "ヒョウゴケン",
    "prefecture_code": 28,
    "city": "神戸市西区",
    "city_kana": "コウベシニシク",
    "town": "平野町大畑",
    "town_kana": "ヒラノチョウオオハタ",
    "street": null,
    "office_name": null,
    "office_name_kana": null
  },
  "2265": {
    "postcode": "6512265",
    "prefecture": "兵庫県",
    "prefecture_kana": "ヒョウゴケン",
    "prefecture_code": 28,
    "city": "神戸市西区",
    "city_kana": "コウベシニシク",
    "town": "平野町宮前",
    "town_kana": "ヒラノチョウミヤマエ",
    "street": null,
    "office_name": null,
    "office_name_kana": null
  },
  "2266": {
    "postcode": "6512266",
    "prefecture": "兵庫県",
    "prefecture_kana": "ヒョウゴケン",
    "prefecture_code": 28,
    "city": "神戸市西区",
    "city_kana": "コウベシニシク",
    "town": "平野町印路",
    "town_kana": "ヒラノチョウインジ",
    "street": null,
    "office_name": null,
    "office_name_kana": null
  },
  "2267": {
    "postcode": "6512267",
    "prefecture": "兵庫県",
    "prefecture_kana": "ヒョウゴケン",
    "prefecture_code": 28,
    "city": "神戸市西区",
    "city_kana": "コウベシニシク",
    "town": "平野町西戸田",
    "town_kana": "ヒラノチョウニシトダ",
    "street": null,
    "office_name": null,
    "office_name_kana": null
  },
  "2268": {
    "postcode": "6512268",
    "prefecture": "兵庫県",
    "prefecture_kana": "ヒョウゴケン",
    "prefecture_code": 28,
    "city": "神戸市西区",
    "city_kana": "コウベシニシク",
    "town": "平野町黒田",
    "town_kana": "ヒラノチョウクロダ",
    "street": null,
    "office_name": null,
    "office_name_kana": null
  },
  "2271": {
    "postcode": "6512271",
    "prefecture": "兵庫県",
    "prefecture_kana": "ヒョウゴケン",
    "prefecture_code": 28,
    "city": "神戸市西区",
    "city_kana": "コウベシニシク",
    "town": "高塚台",
    "town_kana": "タカツカダイ",
    "street": null,
    "office_name": null,
    "office_name_kana": null
  },
  "2272": {
    "postcode": "6512272",
    "prefecture": "兵庫県",
    "prefecture_kana": "ヒョウゴケン",
    "prefecture_code": 28,
    "city": "神戸市西区",
    "city_kana": "コウベシニシク",
    "town": "狩場台",
    "town_kana": "カリバダイ",
    "street": null,
    "office_name": null,
    "office_name_kana": null
  },
  "2273": {
    "postcode": "6512273",
    "prefecture": "兵庫県",
    "prefecture_kana": "ヒョウゴケン",
    "prefecture_code": 28,
    "city": "神戸市西区",
    "city_kana": "コウベシニシク",
    "town": "糀台",
    "town_kana": "コウジダイ",
    "street": null,
    "office_name": null,
    "office_name_kana": null
  },
  "2274": {
    "postcode": "6512274",
    "prefecture": "兵庫県",
    "prefecture_kana": "ヒョウゴケン",
    "prefecture_code": 28,
    "city": "神戸市西区",
    "city_kana": "コウベシニシク",
    "town": "竹の台",
    "town_kana": "タケノダイ",
    "street": null,
    "office_name": null,
    "office_name_kana": null
  },
  "2275": {
    "postcode": "6512275",
    "prefecture": "兵庫県",
    "prefecture_kana": "ヒョウゴケン",
    "prefecture_code": 28,
    "city": "神戸市西区",
    "city_kana": "コウベシニシク",
    "town": "樫野台",
    "town_kana": "カシノダイ",
    "street": null,
    "office_name": null,
    "office_name_kana": null
  },
  "2276": {
    "postcode": "6512276",
    "prefecture": "兵庫県",
    "prefecture_kana": "ヒョウゴケン",
    "prefecture_code": 28,
    "city": "神戸市西区",
    "city_kana": "コウベシニシク",
    "town": "春日台",
    "town_kana": "カスガダイ",
    "street": null,
    "office_name": null,
    "office_name_kana": null
  },
  "2277": {
    "postcode": "6512277",
    "prefecture": "兵庫県",
    "prefecture_kana": "ヒョウゴケン",
    "prefecture_code": 28,
    "city": "神戸市西区",
    "city_kana": "コウベシニシク",
    "town": "美賀多台",
    "town_kana": "ミカタダイ",
    "street": null,
    "office_name": null,
    "office_name_kana": null
  },
  "2295": {
    "postcode": "6512295",
    "prefecture": "兵庫県",
    "prefecture_kana": "ヒョウゴケン",
    "prefecture_code": 28,
    "city": "神戸市西区",
    "city_kana": "コウベシニシク",
    "town": "糀台",
    "town_kana": "コウジダイ",
    "street": "５丁目４番地の１",
    "office_name": "神戸市西区役所",
    "office_name_kana": "コウベシニシクヤクシヨ"
  },
  "2301": {
    "postcode": "6512301",
    "prefecture": "兵庫県",
    "prefecture_kana": "ヒョウゴケン",
    "prefecture_code": 28,
    "city": "神戸市西区",
    "city_kana": "コウベシニシク",
    "town": "神出町勝成",
    "town_kana": "カンデチョウヨシナリ",
    "street": null,
    "office_name": null,
    "office_name_kana": null
  },
  "2302": {
    "postcode": "6512302",
    "prefecture": "兵庫県",
    "prefecture_kana": "ヒョウゴケン",
    "prefecture_code": 28,
    "city": "神戸市西区",
    "city_kana": "コウベシニシク",
    "town": "神出町古神",
    "town_kana": "カンデチョウコガミ",
    "street": null,
    "office_name": null,
    "office_name_kana": null
  },
  "2303": {
    "postcode": "6512303",
    "prefecture": "兵庫県",
    "prefecture_kana": "ヒョウゴケン",
    "prefecture_code": 28,
    "city": "神戸市西区",
    "city_kana": "コウベシニシク",
    "town": "神出町五百蔵",
    "town_kana": "カンデチョウイオロイ",
    "street": null,
    "office_name": null,
    "office_name_kana": null
  },
  "2304": {
    "postcode": "6512304",
    "prefecture": "兵庫県",
    "prefecture_kana": "ヒョウゴケン",
    "prefecture_code": 28,
    "city": "神戸市西区",
    "city_kana": "コウベシニシク",
    "town": "神出町小束野",
    "town_kana": "カンデチョウコソクノ",
    "street": null,
    "office_name": null,
    "office_name_kana": null
  },
  "2311": {
    "postcode": "6512311",
    "prefecture": "兵庫県",
    "prefecture_kana": "ヒョウゴケン",
    "prefecture_code": 28,
    "city": "神戸市西区",
    "city_kana": "コウベシニシク",
    "town": "神出町東",
    "town_kana": "カンデチョウヒガシ",
    "street": null,
    "office_name": null,
    "office_name_kana": null
  },
  "2312": {
    "postcode": "6512312",
    "prefecture": "兵庫県",
    "prefecture_kana": "ヒョウゴケン",
    "prefecture_code": 28,
    "city": "神戸市西区",
    "city_kana": "コウベシニシク",
    "town": "神出町南",
    "town_kana": "カンデチョウミナミ",
    "street": null,
    "office_name": null,
    "office_name_kana": null
  },
  "2313": {
    "postcode": "6512313",
    "prefecture": "兵庫県",
    "prefecture_kana": "ヒョウゴケン",
    "prefecture_code": 28,
    "city": "神戸市西区",
    "city_kana": "コウベシニシク",
    "town": "神出町田井",
    "town_kana": "カンデチョウタイ",
    "street": null,
    "office_name": null,
    "office_name_kana": null
  },
  "2321": {
    "postcode": "6512321",
    "prefecture": "兵庫県",
    "prefecture_kana": "ヒョウゴケン",
    "prefecture_code": 28,
    "city": "神戸市西区",
    "city_kana": "コウベシニシク",
    "town": "神出町宝勢",
    "town_kana": "カンデチョウホウセイ",
    "street": null,
    "office_name": null,
    "office_name_kana": null
  },
  "2331": {
    "postcode": "6512331",
    "prefecture": "兵庫県",
    "prefecture_kana": "ヒョウゴケン",
    "prefecture_code": 28,
    "city": "神戸市西区",
    "city_kana": "コウベシニシク",
    "town": "神出町広谷",
    "town_kana": "カンデチョウヒロタニ",
    "street": null,
    "office_name": null,
    "office_name_kana": null
  },
  "2332": {
    "postcode": "6512332",
    "prefecture": "兵庫県",
    "prefecture_kana": "ヒョウゴケン",
    "prefecture_code": 28,
    "city": "神戸市西区",
    "city_kana": "コウベシニシク",
    "town": "神出町北",
    "town_kana": "カンデチョウキタ",
    "street": null,
    "office_name": null,
    "office_name_kana": null
  },
  "2333": {
    "postcode": "6512333",
    "prefecture": "兵庫県",
    "prefecture_kana": "ヒョウゴケン",
    "prefecture_code": 28,
    "city": "神戸市西区",
    "city_kana": "コウベシニシク",
    "town": "神出町池田",
    "town_kana": "カンデチョウイケダ",
    "street": null,
    "office_name": null,
    "office_name_kana": null
  },
  "2334": {
    "postcode": "6512334",
    "prefecture": "兵庫県",
    "prefecture_kana": "ヒョウゴケン",
    "prefecture_code": 28,
    "city": "神戸市西区",
    "city_kana": "コウベシニシク",
    "town": "神出町紫合",
    "town_kana": "カンデチョウユウダ",
    "street": null,
    "office_name": null,
    "office_name_kana": null
  },
  "2401": {
    "postcode": "6512401",
    "prefecture": "兵庫県",
    "prefecture_kana": "ヒョウゴケン",
    "prefecture_code": 28,
    "city": "神戸市西区",
    "city_kana": "コウベシニシク",
    "town": "岩岡町岩岡",
    "town_kana": "イワオカチョウイワオカ",
    "street": null,
    "office_name": null,
    "office_name_kana": null
  },
  "2402": {
    "postcode": "6512402",
    "prefecture": "兵庫県",
    "prefecture_kana": "ヒョウゴケン",
    "prefecture_code": 28,
    "city": "神戸市西区",
    "city_kana": "コウベシニシク",
    "town": "岩岡町印路",
    "town_kana": "イワオカチョウインジ",
    "street": null,
    "office_name": null,
    "office_name_kana": null
  },
  "2403": {
    "postcode": "6512403",
    "prefecture": "兵庫県",
    "prefecture_kana": "ヒョウゴケン",
    "prefecture_code": 28,
    "city": "神戸市西区",
    "city_kana": "コウベシニシク",
    "town": "岩岡町西脇",
    "town_kana": "イワオカチョウニシワキ",
    "street": null,
    "office_name": null,
    "office_name_kana": null
  },
  "2404": {
    "postcode": "6512404",
    "prefecture": "兵庫県",
    "prefecture_kana": "ヒョウゴケン",
    "prefecture_code": 28,
    "city": "神戸市西区",
    "city_kana": "コウベシニシク",
    "town": "岩岡町古郷",
    "town_kana": "イワオカチョウフルサト",
    "street": null,
    "office_name": null,
    "office_name_kana": null
  },
  "2405": {
    "postcode": "6512405",
    "prefecture": "兵庫県",
    "prefecture_kana": "ヒョウゴケン",
    "prefecture_code": 28,
    "city": "神戸市西区",
    "city_kana": "コウベシニシク",
    "town": "岩岡町野中",
    "town_kana": "イワオカチョウノナカ",
    "street": null,
    "office_name": null,
    "office_name_kana": null
  },
  "2411": {
    "postcode": "6512411",
    "prefecture": "兵庫県",
    "prefecture_kana": "ヒョウゴケン",
    "prefecture_code": 28,
    "city": "神戸市西区",
    "city_kana": "コウベシニシク",
    "town": "上新地",
    "town_kana": "カミシンチ",
    "street": null,
    "office_name": null,
    "office_name_kana": null
  },
  "2412": {
    "postcode": "6512412",
    "prefecture": "兵庫県",
    "prefecture_kana": "ヒョウゴケン",
    "prefecture_code": 28,
    "city": "神戸市西区",
    "city_kana": "コウベシニシク",
    "town": "竜が岡",
    "town_kana": "リュウガオカ",
    "street": null,
    "office_name": null,
    "office_name_kana": null
  },
  "2413": {
    "postcode": "6512413",
    "prefecture": "兵庫県",
    "prefecture_kana": "ヒョウゴケン",
    "prefecture_code": 28,
    "city": "神戸市西区",
    "city_kana": "コウベシニシク",
    "town": "福吉台",
    "town_kana": "フクヨシダイ",
    "street": null,
    "office_name": null,
    "office_name_kana": null
  },
  "2414": {
    "postcode": "6512414",
    "prefecture": "兵庫県",
    "prefecture_kana": "ヒョウゴケン",
    "prefecture_code": 28,
    "city": "神戸市西区",
    "city_kana": "コウベシニシク",
    "town": "大沢",
    "town_kana": "オオサワ",
    "street": null,
    "office_name": null,
    "office_name_kana": null
  },
  "2492": {
    "postcode": "6512492",
    "prefecture": "兵庫県",
    "prefecture_kana": "ヒョウゴケン",
    "prefecture_code": 28,
    "city": "神戸市西区",
    "city_kana": "コウベシニシク",
    "town": "岩岡町岩岡",
    "town_kana": "イワオカチョウイワオカ",
    "street": "５８８−２",
    "office_name": "国立研究開発法人　情報通信研究機構　未来ＩＣＴ研究所",
    "office_name_kana": "コクリツケンキユウカイハツホウジン ジヨウホウツウシンケンキユウキコウ ミライアイシ-テイ-ケンキユウシヨ"
  },
  "2494": {
    "postcode": "6512494",
    "prefecture": "兵庫県",
    "prefecture_kana": "ヒョウゴケン",
    "prefecture_code": 28,
    "city": "神戸市西区",
    "city_kana": "コウベシニシク",
    "town": "岩岡町野中",
    "town_kana": "イワオカチョウノナカ",
    "street": "福吉５５６（明石西郵便局私書箱第１号）",
    "office_name": "ヒラキ　株式会社",
    "office_name_kana": "ヒラキ カブシキガイシヤ"
  },
  "8501": {
    "postcode": "6518501",
    "prefecture": "兵庫県",
    "prefecture_kana": "ヒョウゴケン",
    "prefecture_code": 28,
    "city": "神戸市中央区",
    "city_kana": "コウベシチュウオウク",
    "town": "小野柄通",
    "town_kana": "オノエドオリ",
    "street": "７丁目１−１日本生命三宮駅前ビル",
    "office_name": "日本生命保険　相互会社　神戸支社",
    "office_name_kana": "ニホンセイメイホケン ソウゴガイシヤ コウベシシヤ"
  },
  "8502": {
    "postcode": "6518502",
    "prefecture": "兵庫県",
    "prefecture_kana": "ヒョウゴケン",
    "prefecture_code": 28,
    "city": "神戸市中央区",
    "city_kana": "コウベシチュウオウク",
    "town": "雲井通",
    "town_kana": "クモイドオリ",
    "street": "６−１−１５",
    "office_name": "三宮オーパ２",
    "office_name_kana": "サンノミヤオ-パツ-"
  },
  "8511": {
    "postcode": "6518511",
    "prefecture": "兵庫県",
    "prefecture_kana": "ヒョウゴケン",
    "prefecture_code": 28,
    "city": "神戸市中央区",
    "city_kana": "コウベシチュウオウク",
    "town": "小野柄通",
    "town_kana": "オノエドオリ",
    "street": "８−１−８",
    "office_name": "神戸阪急",
    "office_name_kana": "コウベハンキユウ"
  },
  "8512": {
    "postcode": "6518512",
    "prefecture": "兵庫県",
    "prefecture_kana": "ヒョウゴケン",
    "prefecture_code": 28,
    "city": "神戸市中央区",
    "city_kana": "コウベシチュウオウク",
    "town": "磯上通",
    "town_kana": "イソガミドオリ",
    "street": "７−１−５三宮プラザＥＡＳＴ１２階",
    "office_name": "全国健康保険協会　兵庫支部",
    "office_name_kana": "ゼンコクケンコウホケンキヨウカイ ヒヨウゴシブ"
  },
  "8514": {
    "postcode": "6518514",
    "prefecture": "兵庫県",
    "prefecture_kana": "ヒョウゴケン",
    "prefecture_code": 28,
    "city": "神戸市中央区",
    "city_kana": "コウベシチュウオウク",
    "town": "脇浜町",
    "town_kana": "ワキノハマチョウ",
    "street": "２−１１−１４神戸脇浜ビル",
    "office_name": "日本年金機構　兵庫事務センター",
    "office_name_kana": "ニツポンネンキンキコウ ヒヨウゴジムセンタ-"
  },
  "8525": {
    "postcode": "6518525",
    "prefecture": "兵庫県",
    "prefecture_kana": "ヒョウゴケン",
    "prefecture_code": 28,
    "city": "神戸市須磨区",
    "city_kana": "コウベシスマク",
    "town": "弥栄台",
    "town_kana": "ヤサカダイ",
    "street": "２丁目７",
    "office_name": "株式会社　フェリシモ　交換返品係（日本郵便神戸郵便局留め）",
    "office_name_kana": "カブシキガイシヤ フエリシモ コウカンヘンピンガカリ(ニツポンユウビンコウベユウビンキヨクドメ)"
  },
  "8526": {
    "postcode": "6518526",
    "prefecture": "兵庫県",
    "prefecture_kana": "ヒョウゴケン",
    "prefecture_code": 28,
    "city": "神戸市中央区",
    "city_kana": "コウベシチュウオウク",
    "town": "御幸通",
    "town_kana": "ゴコウドオリ",
    "street": "６丁目１番１２号三宮ビルディング東館５階",
    "office_name": "神戸市郵送請求処理センター",
    "office_name_kana": "コウベシユウソウセイキユウシヨリセンタ-"
  },
  "8555": {
    "postcode": "6518555",
    "prefecture": "兵庫県",
    "prefecture_kana": "ヒョウゴケン",
    "prefecture_code": 28,
    "city": "神戸市中央区",
    "city_kana": "コウベシチュウオウク",
    "town": "磯上通",
    "town_kana": "イソガミドオリ",
    "street": "６丁目１−１１",
    "office_name": "社団法人　兵庫県医師会",
    "office_name_kana": "シヤダンホウジン ヒヨウゴケンイシカイ"
  },
  "8567": {
    "postcode": "6518567",
    "prefecture": "兵庫県",
    "prefecture_kana": "ヒョウゴケン",
    "prefecture_code": 28,
    "city": "神戸市中央区",
    "city_kana": "コウベシチュウオウク",
    "town": "脇浜町",
    "town_kana": "ワキノハマチョウ",
    "street": "３丁目６−９",
    "office_name": "住友ゴム工業　（株）",
    "office_name_kana": "スミトモゴムコウギヨウ カブシキガイシヤ"
  },
  "8570": {
    "postcode": "6518570",
    "prefecture": "兵庫県",
    "prefecture_kana": "ヒョウゴケン",
    "prefecture_code": 28,
    "city": "神戸市中央区",
    "city_kana": "コウベシチュウオウク",
    "town": "東町",
    "town_kana": "ヒガシマチ",
    "street": "１１５番地",
    "office_name": "神戸市中央区役所",
    "office_name_kana": "コウベシチユウオウクヤクシヨ"
  },
  "8585": {
    "postcode": "6518585",
    "prefecture": "兵庫県",
    "prefecture_kana": "ヒョウゴケン",
    "prefecture_code": 28,
    "city": "神戸市中央区",
    "city_kana": "コウベシチュウオウク",
    "town": "脇浜海岸通",
    "town_kana": "ワキノハマカイガンドオリ",
    "street": "２−２−４",
    "office_name": "株式会社　神戸製鋼所",
    "office_name_kana": "カブシキガイシヤ コウベセイコウシヨ"
  },
  "8798": {
    "postcode": "6518798",
    "prefecture": "兵庫県",
    "prefecture_kana": "ヒョウゴケン",
    "prefecture_code": 28,
    "city": "神戸市中央区",
    "city_kana": "コウベシチュウオウク",
    "town": "上筒井通",
    "town_kana": "カミツツイドオリ",
    "street": "６丁目２−４３",
    "office_name": "神戸逓信病院",
    "office_name_kana": "コウベテイシンビヨウイン"
  }
}