{
  "0000": {
    "postcode": "6530000",
    "prefecture": "兵庫県",
    "prefecture_kana": "ヒョウゴケン",
    "prefecture_code": 28,
    "city": "神戸市長田区",
    "city_kana": "コウベシナガタク",
    "town": "",
    "town_kana": "",
    "street": null,
    "office_name": null,
    "office_name_kana": null
  },
  "0001": {
    "postcode": "6530001",
    "prefecture": "兵庫県",
    "prefecture_kana": "ヒョウゴケン",
    "prefecture_code": 28,
    "city": "神戸市長田区",
    "city_kana": "コウベシナガタク",
    "town": "七番町",
    "town_kana": "ナナバンチョウ",
    "street": null,
    "office_name": null,
    "office_name_kana": null
  },
  "0002": {
    "postcode": "6530002",
    "prefecture": "兵庫県",
    "prefecture_kana": "ヒョウゴケン",
    "prefecture_code": 28,
    "city": "神戸市長田区",
    "city_kana": "コウベシナガタク",
    "town": "六番町",
    "town_kana": "ロクバンチョウ",
    "street": null,
    "office_name": null,
    "office_name_kana": null
  },
  "0003": {
    "postcode": "6530003",
    "prefecture": "兵庫県",
    "prefecture_kana": "ヒョウゴケン",
    "prefecture_code": 28,
    "city": "神戸市長田区",
    "city_kana": "コウベシナガタク",
    "town": "五番町",
    "town_kana": "ゴバンチョウ",
    "street": null,
    "office_name": null,
    "office_name_kana": null
  },
  "0004": {
    "postcode": "6530004",
    "prefecture": "兵庫県",
    "prefecture_kana": "ヒョウゴケン",
    "prefecture_code": 28,
    "city": "神戸市長田区",
    "city_kana": "コウベシナガタク",
    "town": "四番町",
    "town_kana": "ヨンバンチョウ",
    "street": null,
    "office_name": null,
    "office_name_kana": null
  },
  "0011": {
    "postcode": "6530011",
    "prefecture": "兵庫県",
    "prefecture_kana": "ヒョウゴケン",
    "prefecture_code": 28,
    "city": "神戸市長田区",
    "city_kana": "コウベシナガタク",
    "town": "三番町",
    "town_kana": "サンバンチョウ",
    "street": null,
    "office_name": null,
    "office_name_kana": null
  },
  "0012": {
    "postcode": "6530012",
    "prefecture": "兵庫県",
    "prefecture_kana": "ヒョウゴケン",
    "prefecture_code": 28,
    "city": "神戸市長田区",
    "city_kana": "コウベシナガタク",
    "town": "二番町",
    "town_kana": "ニバンチョウ",
    "street": null,
    "office_name": null,
    "office_name_kana": null
  },
  "0013": {
    "postcode": "6530013",
    "prefecture": "兵庫県",
    "prefecture_kana": "ヒョウゴケン",
    "prefecture_code": 28,
    "city": "神戸市長田区",
    "city_kana": "コウベシナガタク",
    "town": "一番町",
    "town_kana": "イチバンチョウ",
    "street": null,
    "office_name": null,
    "office_name_kana": null
  },
  "0014": {
    "postcode": "6530014",
    "prefecture": "兵庫県",
    "prefecture_kana": "ヒョウゴケン",
    "prefecture_code": 28,
    "city": "神戸市長田区",
    "city_kana": "コウベシナガタク",
    "town": "御蔵通",
    "town_kana": "ミクラドオリ",
    "street": null,
    "office_name": null,
    "office_name_kana": null
  },
  "0015": {
    "postcode": "6530015",
    "prefecture": "兵庫県",
    "prefecture_kana": "ヒョウゴケン",
    "prefecture_code": 28,
    "city": "神戸市長田区",
    "city_kana": "コウベシナガタク",
    "town": "菅原通",
    "town_kana": "スガハラドオリ",
    "street": null,
    "office_name": null,
    "office_name_kana": null
  },
  "0016": {
    "postcode": "6530016",
    "prefecture": "兵庫県",
    "prefecture_kana": "ヒョウゴケン",
    "prefecture_code": 28,
    "city": "神戸市長田区",
    "city_kana": "コウベシナガタク",
    "town": "北町",
    "town_kana": "キタマチ",
    "street": null,
    "office_name": null,
    "office_name_kana": null
  },
  "0021": {
    "postcode": "6530021",
    "prefecture": "兵庫県",
    "prefecture_kana": "ヒョウゴケン",
    "prefecture_code": 28,
    "city": "神戸市長田区",
    "city_kana": "コウベシナガタク",
    "town": "梅ケ香町",
    "town_kana": "ウメガカチョウ",
    "street": null,
    "office_name": null,
    "office_name_kana": null
  },
  "0022": {
    "postcode": "6530022",
    "prefecture": "兵庫県",
    "prefecture_kana": "ヒョウゴケン",
    "prefecture_code": 28,
    "city": "神戸市長田区",
    "city_kana": "コウベシナガタク",
    "town": "東尻池町",
    "town_kana": "ヒガシシリイケチョウ",
    "street": null,
    "office_name": null,
    "office_name_kana": null
  },
  "0023": {
    "postcode": "6530023",
    "prefecture": "兵庫県",
    "prefecture_kana": "ヒョウゴケン",
    "prefecture_code": 28,
    "city": "神戸市長田区",
    "city_kana": "コウベシナガタク",
    "town": "東尻池新町",
    "town_kana": "ヒガシシリイケシンチョウ",
    "street": null,
    "office_name": null,
    "office_name_kana": null
  },
  "0024": {
    "postcode": "6530024",
    "prefecture": "兵庫県",
    "prefecture_kana": "ヒョウゴケン",
    "prefecture_code": 28,
    "city": "神戸市長田区",
    "city_kana": "コウベシナガタク",
    "town": "浜添通",
    "town_kana": "ハマゾエドオリ",
    "street": null,
    "office_name": null,
    "office_name_kana": null
  },
  "0025": {
    "postcode": "6530025",
    "prefecture": "兵庫県",
    "prefecture_kana": "ヒョウゴケン",
    "prefecture_code": 28,
    "city": "神戸市長田区",
    "city_kana": "コウベシナガタク",
    "town": "真野町",
    "town_kana": "マノチョウ",
    "street": null,
    "office_name": null,
    "office_name_kana": null
  },
  "0031": {
    "postcode": "6530031",
    "prefecture": "兵庫県",
    "prefecture_kana": "ヒョウゴケン",
    "prefecture_code": 28,
    "city": "神戸市長田区",
    "city_kana": "コウベシナガタク",
    "town": "西尻池町",
    "town_kana": "ニシシリイケチョウ",
    "street": null,
    "office_name": null,
    "office_name_kana": null
  },
  "0032": {
    "postcode": "6530032",
    "prefecture": "兵庫県",
    "prefecture_kana": "ヒョウゴケン",
    "prefecture_code": 28,
    "city": "神戸市長田区",
    "city_kana": "コウベシナガタク",
    "town": "苅藻通",
    "town_kana": "カルモドオリ",
    "street": null,
    "office_name": null,
    "office_name_kana": null
  },
  "0033": {
    "postcode": "6530033",
    "prefecture": "兵庫県",
    "prefecture_kana": "ヒョウゴケン",
    "prefecture_code": 28,
    "city": "神戸市長田区",
    "city_kana": "コウベシナガタク",
    "town": "苅藻島町",
    "town_kana": "カルモジマチョウ",
    "street": null,
    "office_name": null,
    "office_name_kana": null
  },
  "0034": {
    "postcode": "6530034",
    "prefecture": "兵庫県",
    "prefecture_kana": "ヒョウゴケン",
    "prefecture_code": 28,
    "city": "神戸市長田区",
    "city_kana": "コウベシナガタク",
    "town": "駒栄町",
    "town_kana": "コマエチョウ",
    "street": null,
    "office_name": null,
    "office_name_kana": null
  },
  "0035": {
    "postcode": "6530035",
    "prefecture": "兵庫県",
    "prefecture_kana": "ヒョウゴケン",
    "prefecture_code": 28,
    "city": "神戸市長田区",
    "city_kana": "コウベシナガタク",
    "town": "庄田町",
    "town_kana": "ショウダチョウ",
    "street": null,
    "office_name": null,
    "office_name_kana": null
  },
  "0036": {
    "postcode": "6530036",
    "prefecture": "兵庫県",
    "prefecture_kana": "ヒョウゴケン",
    "prefecture_code": 28,
    "city": "神戸市長田区",
    "city_kana": "コウベシナガタク",
    "town": "腕塚町",
    "town_kana": "ウデヅカチョウ",
    "street": null,
    "office_name": null,
    "office_name_kana": null
  },
  "0037": {
    "postcode": "6530037",
    "prefecture": "兵庫県",
    "prefecture_kana": "ヒョウゴケン",
    "prefecture_code": 28,
    "city": "神戸市長田区",
    "city_kana": "コウベシナガタク",
    "town": "大橋町",
    "town_kana": "オオハシチョウ",
    "street": null,
    "office_name": null,
    "office_name_kana": null
  },
  "0038": {
    "postcode": "6530038",
    "prefecture": "兵庫県",
    "prefecture_kana": "ヒョウゴケン",
    "prefecture_code": 28,
    "city": "神戸市長田区",
    "city_kana": "コウベシナガタク",
    "town": "若松町",
    "town_kana": "ワカマツチョウ",
    "street": null,
    "office_name": null,
    "office_name_kana": null
  },
  "0039": {
    "postcode": "6530039",
    "prefecture": "兵庫県",
    "prefecture_kana": "ヒョウゴケン",
    "prefecture_code": 28,
    "city": "神戸市長田区",
    "city_kana": "コウベシナガタク",
    "town": "日吉町",
    "town_kana": "ヒヨシチョウ",
    "street": null,
    "office_name": null,
    "office_name_kana": null
  },
  "0041": {
    "postcode": "6530041",
    "prefecture": "兵庫県",
    "prefecture_kana": "ヒョウゴケン",
    "prefecture_code": 28,
    "city": "神戸市長田区",
    "city_kana": "コウベシナガタク",
    "town": "久保町",
    "town_kana": "クボチョウ",
    "street": null,
    "office_name": null,
    "office_name_kana": null
  },
  "0042": {
    "postcode": "6530042",
    "prefecture": "兵庫県",
    "prefecture_kana": "ヒョウゴケン",
    "prefecture_code": 28,
    "city": "神戸市長田区",
    "city_kana": "コウベシナガタク",
    "town": "二葉町",
    "town_kana": "フタバチョウ",
    "street": null,
    "office_name": null,
    "office_name_kana": null
  },
  "0043": {
    "postcode": "6530043",
    "prefecture": "兵庫県",
    "prefecture_kana": "ヒョウゴケン",
    "prefecture_code": 28,
    "city": "神戸市長田区",
    "city_kana": "コウベシナガタク",
    "town": "駒ケ林町",
    "town_kana": "コマガバヤシチョウ",
    "street": null,
    "office_name": null,
    "office_name_kana": null
  },
  "0044": {
    "postcode": "6530044",
    "prefecture": "兵庫県",
    "prefecture_kana": "ヒョウゴケン",
    "prefecture_code": 28,
    "city": "神戸市長田区",
    "city_kana": "コウベシナガタク",
    "town": "南駒栄町",
    "town_kana": "ミナミコマエチョウ",
    "street": null,
    "office_name": null,
    "office_name_kana": null
  },
  "0045": {
    "postcode": "6530045",
    "prefecture": "兵庫県",
    "prefecture_kana": "ヒョウゴケン",
    "prefecture_code": 28,
    "city": "神戸市長田区",
    "city_kana": "コウベシナガタク",
    "town": "駒ケ林南町",
    "town_kana": "コマガバヤシミナミチョウ",
    "street": null,
    "office_name": null,
    "office_name_kana": null
  },
  "0051": {
    "postcode": "6530051",
    "prefecture": "兵庫県",
    "prefecture_kana": "ヒョウゴケン",
    "prefecture_code": 28,
    "city": "神戸市長田区",
    "city_kana": "コウベシナガタク",
    "town": "野田町",
    "town_kana": "ノダチョウ",
    "street": null,
    "office_name": null,
    "office_name_kana": null
  },
  "0052": {
    "postcode": "6530052",
    "prefecture": "兵庫県",
    "prefecture_kana": "ヒョウゴケン",
    "prefecture_code": 28,
    "city": "神戸市長田区",
    "city_kana": "コウベシナガタク",
    "town": "海運町",
    "town_kana": "カイウンチョウ",
    "street": null,
    "office_name": null,
    "office_name_kana": null
  },
  "0053": {
    "postcode": "6530053",
    "prefecture": "兵庫県",
    "prefecture_kana": "ヒョウゴケン",
    "prefecture_code": 28,
    "city": "神戸市長田区",
    "city_kana": "コウベシナガタク",
    "town": "本庄町",
    "town_kana": "ホンジョウチョウ",
    "street": null,
    "office_name": null,
    "office_name_kana": null
  },
  "0054": {
    "postcode": "6530054",
    "prefecture": "兵庫県",
    "prefecture_kana": "ヒョウゴケン",
    "prefecture_code": 28,
    "city": "神戸市長田区",
    "city_kana": "コウベシナガタク",
    "town": "長楽町",
    "town_kana": "ナガラチョウ",
    "street": null,
    "office_name": null,
    "office_name_kana": null
  },
  "0055": {
    "postcode": "6530055",
    "prefecture": "兵庫県",
    "prefecture_kana": "ヒョウゴケン",
    "prefecture_code": 28,
    "city": "神戸市長田区",
    "city_kana": "コウベシナガタク",
    "town": "浪松町",
    "town_kana": "ナミマツチョウ",
    "street": null,
    "office_name": null,
    "office_name_kana": null
  },
  "0801": {
    "postcode": "6530801",
    "prefecture": "兵庫県",
    "prefecture_kana": "ヒョウゴケン",
    "prefecture_code": 28,
    "city": "神戸市長田区",
    "city_kana": "コウベシナガタク",
    "town": "房王寺町",
    "town_kana": "ボウオウジチョウ",
    "street": null,
    "office_name": null,
    "office_name_kana": null
  },
  "0802": {
    "postcode": "6530802",
    "prefecture": "兵庫県",
    "prefecture_kana": "ヒョウゴケン",
    "prefecture_code": 28,
    "city": "神戸市長田区",
    "city_kana": "コウベシナガタク",
    "town": "重池町",
    "town_kana": "オモイケチョウ",
    "street": null,
    "office_name": null,
    "office_name_kana": null
  },
  "0803": {
    "postcode": "6530803",
    "prefecture": "兵庫県",
    "prefecture_kana": "ヒョウゴケン",
    "prefecture_code": 28,
    "city": "神戸市長田区",
    "city_kana": "コウベシナガタク",
    "town": "前原町",
    "town_kana": "マエバラチョウ",
    "street": null,
    "office_name": null,
    "office_name_kana": null
  },
  "0804": {
    "postcode": "6530804",
    "prefecture": "兵庫県",
    "prefecture_kana": "ヒョウゴケン",
    "prefecture_code": 28,
    "city": "神戸市長田区",
    "city_kana": "コウベシナガタク",
    "town": "寺池町",
    "town_kana": "テライケチョウ",
    "street": null,
    "office_name": null,
    "office_name_kana": null
  },
  "0805": {
    "postcode": "6530805",
    "prefecture": "兵庫県",
    "prefecture_kana": "ヒョウゴケン",
    "prefecture_code": 28,
    "city": "神戸市長田区",
    "city_kana": "コウベシナガタク",
    "town": "片山町",
    "town_kana": "カタヤマチョウ",
    "street": null,
    "office_name": null,
    "office_name_kana": null
  },
  "0806": {
    "postcode": "6530806",
    "prefecture": "兵庫県",
    "prefecture_kana": "ヒョウゴケン",
    "prefecture_code": 28,
    "city": "神戸市長田区",
    "city_kana": "コウベシナガタク",
    "town": "大丸町",
    "town_kana": "ダイマルチョウ",
    "street": null,
    "office_name": null,
    "office_name_kana": null
  },
  "0811": {
    "postcode": "6530811",
    "prefecture": "兵庫県",
    "prefecture_kana": "ヒョウゴケン",
    "prefecture_code": 28,
    "city": "神戸市長田区",
    "city_kana": "コウベシナガタク",
    "town": "大塚町",
    "town_kana": "オオツカチョウ",
    "street": null,
    "office_name": null,
    "office_name_kana": null
  },
  "0812": {
    "postcode": "6530812",
    "prefecture": "兵庫県",
    "prefecture_kana": "ヒョウゴケン",
    "prefecture_code": 28,
    "city": "神戸市長田区",
    "city_kana": "コウベシナガタク",
    "town": "長田町",
    "town_kana": "ナガタチョウ",
    "street": null,
    "office_name": null,
    "office_name_kana": null
  },
  "0813": {
    "postcode": "6530813",
    "prefecture": "兵庫県",
    "prefecture_kana": "ヒョウゴケン",
    "prefecture_code": 28,
    "city": "神戸市長田区",
    "city_kana": "コウベシナガタク",
    "town": "宮川町",
    "town_kana": "ミヤガワチョウ",
    "street": null,
    "office_name": null,
    "office_name_kana": null
  },
  "0814": {
    "postcode": "6530814",
    "prefecture": "兵庫県",
    "prefecture_kana": "ヒョウゴケン",
    "prefecture_code": 28,
    "city": "神戸市長田区",
    "city_kana": "コウベシナガタク",
    "town": "池田広町",
    "town_kana": "イケダヒロマチ",
    "street": null,
    "office_name": null,
    "office_name_kana": null
  },
  "0821": {
    "postcode": "6530821",
    "prefecture": "兵庫県",
    "prefecture_kana": "ヒョウゴケン",
    "prefecture_code": 28,
    "city": "神戸市長田区",
    "city_kana": "コウベシナガタク",
    "town": "池田谷町",
    "town_kana": "イケダタニマチ",
    "street": null,
    "office_name": null,
    "office_name_kana": null
  },
  "0822": {
    "postcode": "6530822",
    "prefecture": "兵庫県",
    "prefecture_kana": "ヒョウゴケン",
    "prefecture_code": 28,
    "city": "神戸市長田区",
    "city_kana": "コウベシナガタク",
    "town": "池田寺町",
    "town_kana": "イケダテラマチ",
    "street": null,
    "office_name": null,
    "office_name_kana": null
  },
  "0823": {
    "postcode": "6530823",
    "prefecture": "兵庫県",
    "prefecture_kana": "ヒョウゴケン",
    "prefecture_code": 28,
    "city": "神戸市長田区",
    "city_kana": "コウベシナガタク",
    "town": "池田経町",
    "town_kana": "イケダキョウマチ",
    "street": null,
    "office_name": null,
    "office_name_kana": null
  },
  "0824": {
    "postcode": "6530824",
    "prefecture": "兵庫県",
    "prefecture_kana": "ヒョウゴケン",
    "prefecture_code": 28,
    "city": "神戸市長田区",
    "city_kana": "コウベシナガタク",
    "town": "池田上町",
    "town_kana": "イケダウエマチ",
    "street": null,
    "office_name": null,
    "office_name_kana": null
  },
  "0825": {
    "postcode": "6530825",
    "prefecture": "兵庫県",
    "prefecture_kana": "ヒョウゴケン",
    "prefecture_code": 28,
    "city": "神戸市長田区",
    "city_kana": "コウベシナガタク",
    "town": "池田新町",
    "town_kana": "イケダシンマチ",
    "street": null,
    "office_name": null,
    "office_name_kana": null
  },
  "0826": {
    "postcode": "6530826",
    "prefecture": "兵庫県",
    "prefecture_kana": "ヒョウゴケン",
    "prefecture_code": 28,
    "city": "神戸市長田区",
    "city_kana": "コウベシナガタク",
    "town": "池田塩町",
    "town_kana": "イケダシオマチ",
    "street": null,
    "office_name": null,
    "office_name_kana": null
  },
  "0827": {
    "postcode": "6530827",
    "prefecture": "兵庫県",
    "prefecture_kana": "ヒョウゴケン",
    "prefecture_code": 28,
    "city": "神戸市長田区",
    "city_kana": "コウベシナガタク",
    "town": "上池田",
    "town_kana": "カミイケダ",
    "street": null,
    "office_name": null,
    "office_name_kana": null
  },
  "0831": {
    "postcode": "6530831",
    "prefecture": "兵庫県",
    "prefecture_kana": "ヒョウゴケン",
    "prefecture_code": 28,
    "city": "神戸市長田区",
    "city_kana": "コウベシナガタク",
    "town": "蓮宮通",
    "town_kana": "ハスミヤドオリ",
    "street": null,
    "office_name": null,
    "office_name_kana": null
  },
  "0832": {
    "postcode": "6530832",
    "prefecture": "兵庫県",
    "prefecture_kana": "ヒョウゴケン",
    "prefecture_code": 28,
    "city": "神戸市長田区",
    "city_kana": "コウベシナガタク",
    "town": "御船通",
    "town_kana": "ミフネドオリ",
    "street": null,
    "office_name": null,
    "office_name_kana": null
  },
  "0833": {
    "postcode": "6530833",
    "prefecture": "兵庫県",
    "prefecture_kana": "ヒョウゴケン",
    "prefecture_code": 28,
    "city": "神戸市長田区",
    "city_kana": "コウベシナガタク",
    "town": "大道通",
    "town_kana": "オオミチドオリ",
    "street": null,
    "office_name": null,
    "office_name_kana": null
  },
  "0834": {
    "postcode": "6530834",
    "prefecture": "兵庫県",
    "prefecture_kana": "ヒョウゴケン",
    "prefecture_code": 28,
    "city": "神戸市長田区",
    "city_kana": "コウベシナガタク",
    "town": "川西通",
    "town_kana": "カワニシドオリ",
    "street": null,
    "office_name": null,
    "office_name_kana": null
  },
  "0835": {
    "postcode": "6530835",
    "prefecture": "兵庫県",
    "prefecture_kana": "ヒョウゴケン",
    "prefecture_code": 28,
    "city": "神戸市長田区",
    "city_kana": "コウベシナガタク",
    "town": "細田町",
    "town_kana": "ホソダチョウ",
    "street": null,
    "office_name": null,
    "office_name_kana": null
  },
  "0836": {
    "postcode": "6530836",
    "prefecture": "兵庫県",
    "prefecture_kana": "ヒョウゴケン",
    "prefecture_code": 28,
    "city": "神戸市長田区",
    "city_kana": "コウベシナガタク",
    "town": "神楽町",
    "town_kana": "カグラチョウ",
    "street": null,
    "office_name": null,
    "office_name_kana": null
  },
  "0837": {
    "postcode": "6530837",
    "prefecture": "兵庫県",
    "prefecture_kana": "ヒョウゴケン",
    "prefecture_code": 28,
    "city": "神戸市長田区",
    "city_kana": "コウベシナガタク",
    "town": "蓮池町",
    "town_kana": "ハスイケチョウ",
    "street": null,
    "office_name": null,
    "office_name_kana": null
  },
  "0838": {
    "postcode": "6530838",
    "prefecture": "兵庫県",
    "prefecture_kana": "ヒョウゴケン",
    "prefecture_code": 28,
    "city": "神戸市長田区",
    "city_kana": "コウベシナガタク",
    "town": "大谷町",
    "town_kana": "オオタニチョウ",
    "street": null,
    "office_name": null,
    "office_name_kana": null
  },
  "0841": {
    "postcode": "6530841",
    "prefecture": "兵庫県",
    "prefecture_kana": "ヒョウゴケン",
    "prefecture_code": 28,
    "city": "神戸市長田区",
    "city_kana": "コウベシナガタク",
    "town": "松野通",
    "town_kana": "マツノドオリ",
    "street": null,
    "office_name": null,
    "office_name_kana": null
  },
  "0842": {
    "postcode": "6530842",
    "prefecture": "兵庫県",
    "prefecture_kana": "ヒョウゴケン",
    "prefecture_code": 28,
    "city": "神戸市長田区",
    "city_kana": "コウベシナガタク",
    "town": "水笠通",
    "town_kana": "ミズカサドオリ",
    "street": null,
    "office_name": null,
    "office_name_kana": null
  },
  "0843": {
    "postcode": "6530843",
    "prefecture": "兵庫県",
    "prefecture_kana": "ヒョウゴケン",
    "prefecture_code": 28,
    "city": "神戸市長田区",
    "city_kana": "コウベシナガタク",
    "town": "御屋敷通",
    "town_kana": "オヤシキドオリ",
    "street": null,
    "office_name": null,
    "office_name_kana": null
  },
  "0844": {
    "postcode": "6530844",
    "prefecture": "兵庫県",
    "prefecture_kana": "ヒョウゴケン",
    "prefecture_code": 28,
    "city": "神戸市長田区",
    "city_kana": "コウベシナガタク",
    "town": "西代通",
    "town_kana": "ニシダイドオリ",
    "street": null,
    "office_name": null,
    "office_name_kana": null
  },
  "0845": {
    "postcode": "6530845",
    "prefecture": "兵庫県",
    "prefecture_kana": "ヒョウゴケン",
    "prefecture_code": 28,
    "city": "神戸市長田区",
    "city_kana": "コウベシナガタク",
    "town": "戸崎通",
    "town_kana": "トザキドオリ",
    "street": null,
    "office_name": null,
    "office_name_kana": null
  },
  "0851": {
    "postcode": "6530851",
    "prefecture": "兵庫県",
    "prefecture_kana": "ヒョウゴケン",
    "prefecture_code": 28,
    "city": "神戸市長田区",
    "city_kana": "コウベシナガタク",
    "town": "五位ノ池町",
    "town_kana": "ゴイノイケチョウ",
    "street": null,
    "office_name": null,
    "office_name_kana": null
  },
  "0852": {
    "postcode": "6530852",
    "prefecture": "兵庫県",
    "prefecture_kana": "ヒョウゴケン",
    "prefecture_code": 28,
    "city": "神戸市長田区",
    "city_kana": "コウベシナガタク",
    "town": "山下町",
    "town_kana": "ヤマシタチョウ",
    "street": null,
    "office_name": null,
    "office_name_kana": null
  },
  "0853": {
    "postcode": "6530853",
    "prefecture": "兵庫県",
    "prefecture_kana": "ヒョウゴケン",
    "prefecture_code": 28,
    "city": "神戸市長田区",
    "city_kana": "コウベシナガタク",
    "town": "庄山町",
    "town_kana": "ショウヤマチョウ",
    "street": null,
    "office_name": null,
    "office_name_kana": null
  },
  "0854": {
    "postcode": "6530854",
    "prefecture": "兵庫県",
    "prefecture_kana": "ヒョウゴケン",
    "prefecture_code": 28,
    "city": "神戸市長田区",
    "city_kana": "コウベシナガタク",
    "town": "平和台町",
    "town_kana": "ヘイワダイチョウ",
    "street": null,
    "office_name": null,
    "office_name_kana": null
  },
  "0855": {
    "postcode": "6530855",
    "prefecture": "兵庫県",
    "prefecture_kana": "ヒョウゴケン",
    "prefecture_code": 28,
    "city": "神戸市長田区",
    "city_kana": "コウベシナガタク",
    "town": "長尾町",
    "town_kana": "ナガオチョウ",
    "street": null,
    "office_name": null,
    "office_name_kana": null
  },
  "0856": {
    "postcode": "6530856",
    "prefecture": "兵庫県",
    "prefecture_kana": "ヒョウゴケン",
    "prefecture_code": 28,
    "city": "神戸市長田区",
    "city_kana": "コウベシナガタク",
    "town": "高取山町",
    "town_kana": "タカトリサンチョウ",
    "street": null,
    "office_name": null,
    "office_name_kana": null
  },
  "0861": {
    "postcode": "6530861",
    "prefecture": "兵庫県",
    "prefecture_kana": "ヒョウゴケン",
    "prefecture_code": 28,
    "city": "神戸市長田区",
    "city_kana": "コウベシナガタク",
    "town": "林山町",
    "town_kana": "ハヤシヤマチョウ",
    "street": null,
    "office_name": null,
    "office_name_kana": null
  },
  "0862": {
    "postcode": "6530862",
    "prefecture": "兵庫県",
    "prefecture_kana": "ヒョウゴケン",
    "prefecture_code": 28,
    "city": "神戸市長田区",
    "city_kana": "コウベシナガタク",
    "town": "西山町",
    "town_kana": "ニシヤマチョウ",
    "street": null,
    "office_name": null,
    "office_name_kana": null
  },
  "0863": {
    "postcode": "6530863",
    "prefecture": "兵庫県",
    "prefecture_kana": "ヒョウゴケン",
    "prefecture_code": 28,
    "city": "神戸市長田区",
    "city_kana": "コウベシナガタク",
    "town": "宮丘町",
    "town_kana": "ミヤオカチョウ",
    "street": null,
    "office_name": null,
    "office_name_kana": null
  },
  "0864": {
    "postcode": "6530864",
    "prefecture": "兵庫県",
    "prefecture_kana": "ヒョウゴケン",
    "prefecture_code": 28,
    "city": "神戸市長田区",
    "city_kana": "コウベシナガタク",
    "town": "池田惣町",
    "town_kana": "イケダソウマチ",
    "street": null,
    "office_name": null,
    "office_name_kana": null
  },
  "0865": {
    "postcode": "6530865",
    "prefecture": "兵庫県",
    "prefecture_kana": "ヒョウゴケン",
    "prefecture_code": 28,
    "city": "神戸市長田区",
    "city_kana": "コウベシナガタク",
    "town": "池田宮町",
    "town_kana": "イケダミヤマチ",
    "street": null,
    "office_name": null,
    "office_name_kana": null
  },
  "0866": {
    "postcode": "6530866",
    "prefecture": "兵庫県",
    "prefecture_kana": "ヒョウゴケン",
    "prefecture_code": 28,
    "city": "神戸市長田区",
    "city_kana": "コウベシナガタク",
    "town": "長者町",
    "town_kana": "チョウジャマチ",
    "street": null,
    "office_name": null,
    "office_name_kana": null
  },
  "0867": {
    "postcode": "6530867",
    "prefecture": "兵庫県",
    "prefecture_kana": "ヒョウゴケン",
    "prefecture_code": 28,
    "city": "神戸市長田区",
    "city_kana": "コウベシナガタク",
    "town": "高東町",
    "town_kana": "コウトウチョウ",
    "street": null,
    "office_name": null,
    "office_name_kana": null
  },
  "0871": {
    "postcode": "6530871",
    "prefecture": "兵庫県",
    "prefecture_kana": "ヒョウゴケン",
    "prefecture_code": 28,
    "city": "神戸市長田区",
    "city_kana": "コウベシナガタク",
    "town": "鶯町",
    "town_kana": "ウグイスチョウ",
    "street": null,
    "office_name": null,
    "office_name_kana": null
  },
  "0872": {
    "postcode": "6530872",
    "prefecture": "兵庫県",
    "prefecture_kana": "ヒョウゴケン",
    "prefecture_code": 28,
    "city": "神戸市長田区",
    "city_kana": "コウベシナガタク",
    "town": "大日丘町",
    "town_kana": "ダイニチガオカチョウ",
    "street": null,
    "office_name": null,
    "office_name_kana": null
  },
  "0873": {
    "postcode": "6530873",
    "prefecture": "兵庫県",
    "prefecture_kana": "ヒョウゴケン",
    "prefecture_code": 28,
    "city": "神戸市長田区",
    "city_kana": "コウベシナガタク",
    "town": "萩乃町",
    "town_kana": "ハギノチョウ",
    "street": null,
    "office_name": null,
    "office_name_kana": null
  },
  "0874": {
    "postcode": "6530874",
    "prefecture": "兵庫県",
    "prefecture_kana": "ヒョウゴケン",
    "prefecture_code": 28,
    "city": "神戸市長田区",
    "city_kana": "コウベシナガタク",
    "town": "西丸山町",
    "town_kana": "ニシマルヤマチョウ",
    "street": null,
    "office_name": null,
    "office_name_kana": null
  },
  "0875": {
    "postcode": "6530875",
    "prefecture": "兵庫県",
    "prefecture_kana": "ヒョウゴケン",
    "prefecture_code": 28,
    "city": "神戸市長田区",
    "city_kana": "コウベシナガタク",
    "town": "丸山町",
    "town_kana": "マルヤマチョウ",
    "street": null,
    "office_name": null,
    "office_name_kana": null
  },
  "0876": {
    "postcode": "6530876",
    "prefecture": "兵庫県",
    "prefecture_kana": "ヒョウゴケン",
    "prefecture_code": 28,
    "city": "神戸市長田区",
    "city_kana": "コウベシナガタク",
    "town": "花山町",
    "town_kana": "ハナヤマチョウ",
    "street": null,
    "office_name": null,
    "office_name_kana": null
  },
  "0877": {
    "postcode": "6530877",
    "prefecture": "兵庫県",
    "prefecture_kana": "ヒョウゴケン",
    "prefecture_code": 28,
    "city": "神戸市長田区",
    "city_kana": "コウベシナガタク",
    "town": "鹿松町",
    "town_kana": "シカマツチョウ",
    "street": null,
    "office_name": null,
    "office_name_kana": null
  },
  "0878": {
    "postcode": "6530878",
    "prefecture": "兵庫県",
    "prefecture_kana": "ヒョウゴケン",
    "prefecture_code": 28,
    "city": "神戸市長田区",
    "city_kana": "コウベシナガタク",
    "town": "一里山町",
    "town_kana": "イチリヤマチョウ",
    "street": null,
    "office_name": null,
    "office_name_kana": null
  },
  "0879": {
    "postcode": "6530879",
    "prefecture": "兵庫県",
    "prefecture_kana": "ヒョウゴケン",
    "prefecture_code": 28,
    "city": "神戸市長田区",
    "city_kana": "コウベシナガタク",
    "town": "雲雀ケ丘",
    "town_kana": "ヒバリガオカ",
    "street": null,
    "office_name": null,
    "office_name_kana": null
  },
  "0881": {
    "postcode": "6530881",
    "prefecture": "兵庫県",
    "prefecture_kana": "ヒョウゴケン",
    "prefecture_code": 28,
    "city": "神戸市長田区",
    "city_kana": "コウベシナガタク",
    "town": "滝谷町",
    "town_kana": "タキタニチョウ",
    "street": null,
    "office_name": null,
    "office_name_kana": null
  },
  "0882": {
    "postcode": "6530882",
    "prefecture": "兵庫県",
    "prefecture_kana": "ヒョウゴケン",
    "prefecture_code": 28,
    "city": "神戸市長田区",
    "city_kana": "コウベシナガタク",
    "town": "長田天神町",
    "town_kana": "ナガタテンジンチョウ",
    "street": null,
    "office_name": null,
    "office_name_kana": null
  },
  "0883": {
    "postcode": "6530883",
    "prefecture": "兵庫県",
    "prefecture_kana": "ヒョウゴケン",
    "prefecture_code": 28,
    "city": "神戸市長田区",
    "city_kana": "コウベシナガタク",
    "town": "名倉町",
    "town_kana": "ナグラチョウ",
    "street": null,
    "office_name": null,
    "office_name_kana": null
  },
  "0884": {
    "postcode": "6530884",
    "prefecture": "兵庫県",
    "prefecture_kana": "ヒョウゴケン",
    "prefecture_code": 28,
    "city": "神戸市長田区",
    "city_kana": "コウベシナガタク",
    "town": "明泉寺町",
    "town_kana": "ミョウセンジチョウ",
    "street": null,
    "office_name": null,
    "office_name_kana": null
  },
  "0885": {
    "postcode": "6530885",
    "prefecture": "兵庫県",
    "prefecture_kana": "ヒョウゴケン",
    "prefecture_code": 28,
    "city": "神戸市長田区",
    "city_kana": "コウベシナガタク",
    "town": "堀切町",
    "town_kana": "ホリキリチョウ",
    "street": null,
    "office_name": null,
    "office_name_kana": null
  },
  "0886": {
    "postcode": "6530886",
    "prefecture": "兵庫県",
    "prefecture_kana": "ヒョウゴケン",
    "prefecture_code": 28,
    "city": "神戸市長田区",
    "city_kana": "コウベシナガタク",
    "town": "東丸山町",
    "town_kana": "ヒガシマルヤマチョウ",
    "street": null,
    "office_name": null,
    "office_name_kana": null
  },
  "0887": {
    "postcode": "6530887",
    "prefecture": "兵庫県",
    "prefecture_kana": "ヒョウゴケン",
    "prefecture_code": 28,
    "city": "神戸市長田区",
    "city_kana": "コウベシナガタク",
    "town": "檜川町",
    "town_kana": "ヒカワチョウ",
    "street": null,
    "office_name": null,
    "office_name_kana": null
  },
  "0888": {
    "postcode": "6530888",
    "prefecture": "兵庫県",
    "prefecture_kana": "ヒョウゴケン",
    "prefecture_code": 28,
    "city": "神戸市長田区",
    "city_kana": "コウベシナガタク",
    "town": "源平町",
    "town_kana": "ゲンペイチョウ",
    "street": null,
    "office_name": null,
    "office_name_kana": null
  },
  "8570": {
    "postcode": "6538570",
    "prefecture": "兵庫県",
    "prefecture_kana": "ヒョウゴケン",
    "prefecture_code": 28,
    "city": "神戸市長田区",
    "city_kana": "コウベシナガタク",
    "town": "北町",
    "town_kana": "キタマチ",
    "street": "３丁目４−３",
    "office_name": "長田区役所",
    "office_name_kana": "ナガタクヤクシヨ"
  },
  "8585": {
    "postcode": "6538585",
    "prefecture": "兵庫県",
    "prefecture_kana": "ヒョウゴケン",
    "prefecture_code": 28,
    "city": "神戸市長田区",
    "city_kana": "コウベシナガタク",
    "town": "御屋敷通",
    "town_kana": "オヤシキドオリ",
    "street": "３丁目１番１号",
    "office_name": "株式会社　ケーブルネット神戸芦屋　Ｊ：ＣＯＭ神戸・三木",
    "office_name_kana": "カブシキガイシヤ ケ-ブルネツトコウベアシヤ ジエイコムコウベ・ミキ"
  },
  "8762": {
    "postcode": "6538762",
    "prefecture": "兵庫県",
    "prefecture_kana": "ヒョウゴケン",
    "prefecture_code": 28,
    "city": "神戸市長田区",
    "city_kana": "コウベシナガタク",
    "town": "二葉町",
    "town_kana": "フタバチョウ",
    "street": "５丁目１−３２",
    "office_name": "神戸市行財政局税務部",
    "office_name_kana": "コウベシギヨウザイセイキヨクゼイムブ"
  },
  "8766": {
    "postcode": "6538766",
    "prefecture": "兵庫県",
    "prefecture_kana": "ヒョウゴケン",
    "prefecture_code": 28,
    "city": "神戸市長田区",
    "city_kana": "コウベシナガタク",
    "town": "二葉町",
    "town_kana": "フタバチョウ",
    "street": "５丁目１番３２号",
    "office_name": "兵庫県神戸県民センター神戸県税事務所",
    "office_name_kana": "ヒヨウゴケンコウベケンミンセンタ-コウベケンゼイジムシヨ"
  },
  "8767": {
    "postcode": "6538767",
    "prefecture": "兵庫県",
    "prefecture_kana": "ヒョウゴケン",
    "prefecture_code": 28,
    "city": "神戸市長田区",
    "city_kana": "コウベシナガタク",
    "town": "二葉町",
    "town_kana": "フタバチョウ",
    "street": "５−１−３２新長田合同庁舎７階",
    "office_name": "兵庫県神戸県民センター県民交流室",
    "office_name_kana": "ヒヨウゴケンコウベケンミンセンタ-ケンミンコウリユウシツ"
  }
}