{
  "0000": {
    "postcode": "6680000",
    "prefecture": "兵庫県",
    "prefecture_kana": "ヒョウゴケン",
    "prefecture_code": 28,
    "city": "豊岡市",
    "city_kana": "トヨオカシ",
    "town": "",
    "town_kana": "",
    "street": null,
    "office_name": null,
    "office_name_kana": null
  },
  "0001": {
    "postcode": "6680001",
    "prefecture": "兵庫県",
    "prefecture_kana": "ヒョウゴケン",
    "prefecture_code": 28,
    "city": "豊岡市",
    "city_kana": "トヨオカシ",
    "town": "伊賀谷",
    "town_kana": "イガダニ",
    "street": null,
    "office_name": null,
    "office_name_kana": null
  },
  "0002": {
    "postcode": "6680002",
    "prefecture": "兵庫県",
    "prefecture_kana": "ヒョウゴケン",
    "prefecture_code": 28,
    "city": "豊岡市",
    "city_kana": "トヨオカシ",
    "town": "岩熊",
    "town_kana": "イワクマ",
    "street": null,
    "office_name": null,
    "office_name_kana": null
  },
  "0003": {
    "postcode": "6680003",
    "prefecture": "兵庫県",
    "prefecture_kana": "ヒョウゴケン",
    "prefecture_code": 28,
    "city": "豊岡市",
    "city_kana": "トヨオカシ",
    "town": "江野",
    "town_kana": "ゴウノ",
    "street": null,
    "office_name": null,
    "office_name_kana": null
  },
  "0004": {
    "postcode": "6680004",
    "prefecture": "兵庫県",
    "prefecture_kana": "ヒョウゴケン",
    "prefecture_code": 28,
    "city": "豊岡市",
    "city_kana": "トヨオカシ",
    "town": "新堂",
    "town_kana": "シンドウ",
    "street": null,
    "office_name": null,
    "office_name_kana": null
  },
  "0005": {
    "postcode": "6680005",
    "prefecture": "兵庫県",
    "prefecture_kana": "ヒョウゴケン",
    "prefecture_code": 28,
    "city": "豊岡市",
    "city_kana": "トヨオカシ",
    "town": "滝",
    "town_kana": "タキ",
    "street": null,
    "office_name": null,
    "office_name_kana": null
  },
  "0006": {
    "postcode": "6680006",
    "prefecture": "兵庫県",
    "prefecture_kana": "ヒョウゴケン",
    "prefecture_code": 28,
    "city": "豊岡市",
    "city_kana": "トヨオカシ",
    "town": "森津",
    "town_kana": "モリヅ",
    "street": null,
    "office_name": null,
    "office_name_kana": null
  },
  "0011": {
    "postcode": "6680011",
    "prefecture": "兵庫県",
    "prefecture_kana": "ヒョウゴケン",
    "prefecture_code": 28,
    "city": "豊岡市",
    "city_kana": "トヨオカシ",
    "town": "上陰",
    "town_kana": "カミカゲ",
    "street": null,
    "office_name": null,
    "office_name_kana": null
  },
  "0012": {
    "postcode": "6680012",
    "prefecture": "兵庫県",
    "prefecture_kana": "ヒョウゴケン",
    "prefecture_code": 28,
    "city": "豊岡市",
    "city_kana": "トヨオカシ",
    "town": "下陰",
    "town_kana": "シモカゲ",
    "street": null,
    "office_name": null,
    "office_name_kana": null
  },
  "0013": {
    "postcode": "6680013",
    "prefecture": "兵庫県",
    "prefecture_kana": "ヒョウゴケン",
    "prefecture_code": 28,
    "city": "豊岡市",
    "city_kana": "トヨオカシ",
    "town": "中陰",
    "town_kana": "ナカカゲ",
    "street": null,
    "office_name": null,
    "office_name_kana": null
  },
  "0014": {
    "postcode": "6680014",
    "prefecture": "兵庫県",
    "prefecture_kana": "ヒョウゴケン",
    "prefecture_code": 28,
    "city": "豊岡市",
    "city_kana": "トヨオカシ",
    "town": "野田",
    "town_kana": "ノダ",
    "street": null,
    "office_name": null,
    "office_name_kana": null
  },
  "0015": {
    "postcode": "6680015",
    "prefecture": "兵庫県",
    "prefecture_kana": "ヒョウゴケン",
    "prefecture_code": 28,
    "city": "豊岡市",
    "city_kana": "トヨオカシ",
    "town": "一日市",
    "town_kana": "ヒトイチ",
    "street": null,
    "office_name": null,
    "office_name_kana": null
  },
  "0016": {
    "postcode": "6680016",
    "prefecture": "兵庫県",
    "prefecture_kana": "ヒョウゴケン",
    "prefecture_code": 28,
    "city": "豊岡市",
    "city_kana": "トヨオカシ",
    "town": "宮島",
    "town_kana": "ミヤジマ",
    "street": null,
    "office_name": null,
    "office_name_kana": null
  },
  "0021": {
    "postcode": "6680021",
    "prefecture": "兵庫県",
    "prefecture_kana": "ヒョウゴケン",
    "prefecture_code": 28,
    "city": "豊岡市",
    "city_kana": "トヨオカシ",
    "town": "泉町",
    "town_kana": "イズミチョウ",
    "street": null,
    "office_name": null,
    "office_name_kana": null
  },
  "0022": {
    "postcode": "6680022",
    "prefecture": "兵庫県",
    "prefecture_kana": "ヒョウゴケン",
    "prefecture_code": 28,
    "city": "豊岡市",
    "city_kana": "トヨオカシ",
    "town": "小田井町",
    "town_kana": "オダイチョウ",
    "street": null,
    "office_name": null,
    "office_name_kana": null
  },
  "0023": {
    "postcode": "6680023",
    "prefecture": "兵庫県",
    "prefecture_kana": "ヒョウゴケン",
    "prefecture_code": 28,
    "city": "豊岡市",
    "city_kana": "トヨオカシ",
    "town": "加広町",
    "town_kana": "カヒロチョウ",
    "street": null,
    "office_name": null,
    "office_name_kana": null
  },
  "0024": {
    "postcode": "6680024",
    "prefecture": "兵庫県",
    "prefecture_kana": "ヒョウゴケン",
    "prefecture_code": 28,
    "city": "豊岡市",
    "city_kana": "トヨオカシ",
    "town": "寿町",
    "town_kana": "コトブキチョウ",
    "street": null,
    "office_name": null,
    "office_name_kana": null
  },
  "0025": {
    "postcode": "6680025",
    "prefecture": "兵庫県",
    "prefecture_kana": "ヒョウゴケン",
    "prefecture_code": 28,
    "city": "豊岡市",
    "city_kana": "トヨオカシ",
    "town": "幸町",
    "town_kana": "サイワイチョウ",
    "street": null,
    "office_name": null,
    "office_name_kana": null
  },
  "0026": {
    "postcode": "6680026",
    "prefecture": "兵庫県",
    "prefecture_kana": "ヒョウゴケン",
    "prefecture_code": 28,
    "city": "豊岡市",
    "city_kana": "トヨオカシ",
    "town": "元町",
    "town_kana": "モトマチ",
    "street": null,
    "office_name": null,
    "office_name_kana": null
  },
  "0027": {
    "postcode": "6680027",
    "prefecture": "兵庫県",
    "prefecture_kana": "ヒョウゴケン",
    "prefecture_code": 28,
    "city": "豊岡市",
    "city_kana": "トヨオカシ",
    "town": "若松町",
    "town_kana": "ワカマツチョウ",
    "street": null,
    "office_name": null,
    "office_name_kana": null
  },
  "0031": {
    "postcode": "6680031",
    "prefecture": "兵庫県",
    "prefecture_kana": "ヒョウゴケン",
    "prefecture_code": 28,
    "city": "豊岡市",
    "city_kana": "トヨオカシ",
    "town": "大手町",
    "town_kana": "オオテマチ",
    "street": null,
    "office_name": null,
    "office_name_kana": null
  },
  "0032": {
    "postcode": "6680032",
    "prefecture": "兵庫県",
    "prefecture_kana": "ヒョウゴケン",
    "prefecture_code": 28,
    "city": "豊岡市",
    "city_kana": "トヨオカシ",
    "town": "千代田町",
    "town_kana": "チヨダチョウ",
    "street": null,
    "office_name": null,
    "office_name_kana": null
  },
  "0033": {
    "postcode": "6680033",
    "prefecture": "兵庫県",
    "prefecture_kana": "ヒョウゴケン",
    "prefecture_code": 28,
    "city": "豊岡市",
    "city_kana": "トヨオカシ",
    "town": "中央町",
    "town_kana": "チュウオウマチ",
    "street": null,
    "office_name": null,
    "office_name_kana": null
  },
  "0041": {
    "postcode": "6680041",
    "prefecture": "兵庫県",
    "prefecture_kana": "ヒョウゴケン",
    "prefecture_code": 28,
    "city": "豊岡市",
    "city_kana": "トヨオカシ",
    "town": "大磯町",
    "town_kana": "オオイソチョウ",
    "street": null,
    "office_name": null,
    "office_name_kana": null
  },
  "0042": {
    "postcode": "6680042",
    "prefecture": "兵庫県",
    "prefecture_kana": "ヒョウゴケン",
    "prefecture_code": 28,
    "city": "豊岡市",
    "city_kana": "トヨオカシ",
    "town": "京町",
    "town_kana": "キョウマチ",
    "street": null,
    "office_name": null,
    "office_name_kana": null
  },
  "0043": {
    "postcode": "6680043",
    "prefecture": "兵庫県",
    "prefecture_kana": "ヒョウゴケン",
    "prefecture_code": 28,
    "city": "豊岡市",
    "city_kana": "トヨオカシ",
    "town": "桜町",
    "town_kana": "サクラマチ",
    "street": null,
    "office_name": null,
    "office_name_kana": null
  },
  "0044": {
    "postcode": "6680044",
    "prefecture": "兵庫県",
    "prefecture_kana": "ヒョウゴケン",
    "prefecture_code": 28,
    "city": "豊岡市",
    "city_kana": "トヨオカシ",
    "town": "山王町",
    "town_kana": "サンノウチョウ",
    "street": null,
    "office_name": null,
    "office_name_kana": null
  },
  "0045": {
    "postcode": "6680045",
    "prefecture": "兵庫県",
    "prefecture_kana": "ヒョウゴケン",
    "prefecture_code": 28,
    "city": "豊岡市",
    "city_kana": "トヨオカシ",
    "town": "城南町",
    "town_kana": "ジョウナンチョウ",
    "street": null,
    "office_name": null,
    "office_name_kana": null
  },
  "0046": {
    "postcode": "6680046",
    "prefecture": "兵庫県",
    "prefecture_kana": "ヒョウゴケン",
    "prefecture_code": 28,
    "city": "豊岡市",
    "city_kana": "トヨオカシ",
    "town": "立野町",
    "town_kana": "タチノチョウ",
    "street": null,
    "office_name": null,
    "office_name_kana": null
  },
  "0047": {
    "postcode": "6680047",
    "prefecture": "兵庫県",
    "prefecture_kana": "ヒョウゴケン",
    "prefecture_code": 28,
    "city": "豊岡市",
    "city_kana": "トヨオカシ",
    "town": "三坂町",
    "town_kana": "ミサカチョウ",
    "street": null,
    "office_name": null,
    "office_name_kana": null
  },
  "0051": {
    "postcode": "6680051",
    "prefecture": "兵庫県",
    "prefecture_kana": "ヒョウゴケン",
    "prefecture_code": 28,
    "city": "豊岡市",
    "city_kana": "トヨオカシ",
    "town": "九日市上町",
    "town_kana": "ココノカイチカミノチョウ",
    "street": null,
    "office_name": null,
    "office_name_kana": null
  },
  "0052": {
    "postcode": "6680052",
    "prefecture": "兵庫県",
    "prefecture_kana": "ヒョウゴケン",
    "prefecture_code": 28,
    "city": "豊岡市",
    "city_kana": "トヨオカシ",
    "town": "九日市下町",
    "town_kana": "ココノカイチシモノチョウ",
    "street": null,
    "office_name": null,
    "office_name_kana": null
  },
  "0053": {
    "postcode": "6680053",
    "prefecture": "兵庫県",
    "prefecture_kana": "ヒョウゴケン",
    "prefecture_code": 28,
    "city": "豊岡市",
    "city_kana": "トヨオカシ",
    "town": "九日市中町",
    "town_kana": "ココノカイチナカノチョウ",
    "street": null,
    "office_name": null,
    "office_name_kana": null
  },
  "0054": {
    "postcode": "6680054",
    "prefecture": "兵庫県",
    "prefecture_kana": "ヒョウゴケン",
    "prefecture_code": 28,
    "city": "豊岡市",
    "city_kana": "トヨオカシ",
    "town": "塩津町",
    "town_kana": "シオツチョウ",
    "street": null,
    "office_name": null,
    "office_name_kana": null
  },
  "0055": {
    "postcode": "6680055",
    "prefecture": "兵庫県",
    "prefecture_kana": "ヒョウゴケン",
    "prefecture_code": 28,
    "city": "豊岡市",
    "city_kana": "トヨオカシ",
    "town": "昭和町",
    "town_kana": "ショウワチョウ",
    "street": null,
    "office_name": null,
    "office_name_kana": null
  },
  "0056": {
    "postcode": "6680056",
    "prefecture": "兵庫県",
    "prefecture_kana": "ヒョウゴケン",
    "prefecture_code": 28,
    "city": "豊岡市",
    "city_kana": "トヨオカシ",
    "town": "妙楽寺",
    "town_kana": "ミョウラクジ",
    "street": null,
    "office_name": null,
    "office_name_kana": null
  },
  "0057": {
    "postcode": "6680057",
    "prefecture": "兵庫県",
    "prefecture_kana": "ヒョウゴケン",
    "prefecture_code": 28,
    "city": "豊岡市",
    "city_kana": "トヨオカシ",
    "town": "弥栄町",
    "town_kana": "ヤサカチョウ",
    "street": null,
    "office_name": null,
    "office_name_kana": null
  },
  "0061": {
    "postcode": "6680061",
    "prefecture": "兵庫県",
    "prefecture_kana": "ヒョウゴケン",
    "prefecture_code": 28,
    "city": "豊岡市",
    "city_kana": "トヨオカシ",
    "town": "上佐野",
    "town_kana": "カミサノ",
    "street": null,
    "office_name": null,
    "office_name_kana": null
  },
  "0062": {
    "postcode": "6680062",
    "prefecture": "兵庫県",
    "prefecture_kana": "ヒョウゴケン",
    "prefecture_code": 28,
    "city": "豊岡市",
    "city_kana": "トヨオカシ",
    "town": "佐野",
    "town_kana": "サノ",
    "street": null,
    "office_name": null,
    "office_name_kana": null
  },
  "0063": {
    "postcode": "6680063",
    "prefecture": "兵庫県",
    "prefecture_kana": "ヒョウゴケン",
    "prefecture_code": 28,
    "city": "豊岡市",
    "city_kana": "トヨオカシ",
    "town": "正法寺",
    "town_kana": "ショウボウジ",
    "street": null,
    "office_name": null,
    "office_name_kana": null
  },
  "0064": {
    "postcode": "6680064",
    "prefecture": "兵庫県",
    "prefecture_kana": "ヒョウゴケン",
    "prefecture_code": 28,
    "city": "豊岡市",
    "city_kana": "トヨオカシ",
    "town": "高屋",
    "town_kana": "タカヤ",
    "street": null,
    "office_name": null,
    "office_name_kana": null
  },
  "0065": {
    "postcode": "6680065",
    "prefecture": "兵庫県",
    "prefecture_kana": "ヒョウゴケン",
    "prefecture_code": 28,
    "city": "豊岡市",
    "city_kana": "トヨオカシ",
    "town": "戸牧",
    "town_kana": "トベラ",
    "street": null,
    "office_name": null,
    "office_name_kana": null
  },
  "0071": {
    "postcode": "6680071",
    "prefecture": "兵庫県",
    "prefecture_kana": "ヒョウゴケン",
    "prefecture_code": 28,
    "city": "豊岡市",
    "city_kana": "トヨオカシ",
    "town": "内町",
    "town_kana": "ウチマチ",
    "street": null,
    "office_name": null,
    "office_name_kana": null
  },
  "0072": {
    "postcode": "6680072",
    "prefecture": "兵庫県",
    "prefecture_kana": "ヒョウゴケン",
    "prefecture_code": 28,
    "city": "豊岡市",
    "city_kana": "トヨオカシ",
    "town": "大谷",
    "town_kana": "オオタニ",
    "street": null,
    "office_name": null,
    "office_name_kana": null
  },
  "0073": {
    "postcode": "6680073",
    "prefecture": "兵庫県",
    "prefecture_kana": "ヒョウゴケン",
    "prefecture_code": 28,
    "city": "豊岡市",
    "city_kana": "トヨオカシ",
    "town": "辻",
    "town_kana": "ツジ",
    "street": null,
    "office_name": null,
    "office_name_kana": null
  },
  "0074": {
    "postcode": "6680074",
    "prefecture": "兵庫県",
    "prefecture_kana": "ヒョウゴケン",
    "prefecture_code": 28,
    "city": "豊岡市",
    "city_kana": "トヨオカシ",
    "town": "野垣",
    "town_kana": "ノガキ",
    "street": null,
    "office_name": null,
    "office_name_kana": null
  },
  "0075": {
    "postcode": "6680075",
    "prefecture": "兵庫県",
    "prefecture_kana": "ヒョウゴケン",
    "prefecture_code": 28,
    "city": "豊岡市",
    "city_kana": "トヨオカシ",
    "town": "福成寺",
    "town_kana": "フクジョウジ",
    "street": null,
    "office_name": null,
    "office_name_kana": null
  },
  "0076": {
    "postcode": "6680076",
    "prefecture": "兵庫県",
    "prefecture_kana": "ヒョウゴケン",
    "prefecture_code": 28,
    "city": "豊岡市",
    "city_kana": "トヨオカシ",
    "town": "船谷",
    "town_kana": "フナダニ",
    "street": null,
    "office_name": null,
    "office_name_kana": null
  },
  "0077": {
    "postcode": "6680077",
    "prefecture": "兵庫県",
    "prefecture_kana": "ヒョウゴケン",
    "prefecture_code": 28,
    "city": "豊岡市",
    "city_kana": "トヨオカシ",
    "town": "目坂",
    "town_kana": "メサカ",
    "street": null,
    "office_name": null,
    "office_name_kana": null
  },
  "0078": {
    "postcode": "6680078",
    "prefecture": "兵庫県",
    "prefecture_kana": "ヒョウゴケン",
    "prefecture_code": 28,
    "city": "豊岡市",
    "city_kana": "トヨオカシ",
    "town": "吉井",
    "town_kana": "ヨシイ",
    "street": null,
    "office_name": null,
    "office_name_kana": null
  },
  "0081": {
    "postcode": "6680081",
    "prefecture": "兵庫県",
    "prefecture_kana": "ヒョウゴケン",
    "prefecture_code": 28,
    "city": "豊岡市",
    "city_kana": "トヨオカシ",
    "town": "岩井",
    "town_kana": "イワイ",
    "street": null,
    "office_name": null,
    "office_name_kana": null
  },
  "0082": {
    "postcode": "6680082",
    "prefecture": "兵庫県",
    "prefecture_kana": "ヒョウゴケン",
    "prefecture_code": 28,
    "city": "豊岡市",
    "city_kana": "トヨオカシ",
    "town": "庄",
    "town_kana": "ショウ",
    "street": null,
    "office_name": null,
    "office_name_kana": null
  },
  "0083": {
    "postcode": "6680083",
    "prefecture": "兵庫県",
    "prefecture_kana": "ヒョウゴケン",
    "prefecture_code": 28,
    "city": "豊岡市",
    "city_kana": "トヨオカシ",
    "town": "栃江",
    "town_kana": "トチエ",
    "street": null,
    "office_name": null,
    "office_name_kana": null
  },
  "0084": {
    "postcode": "6680084",
    "prefecture": "兵庫県",
    "prefecture_kana": "ヒョウゴケン",
    "prefecture_code": 28,
    "city": "豊岡市",
    "city_kana": "トヨオカシ",
    "town": "福田",
    "town_kana": "フクダ",
    "street": null,
    "office_name": null,
    "office_name_kana": null
  },
  "0085": {
    "postcode": "6680085",
    "prefecture": "兵庫県",
    "prefecture_kana": "ヒョウゴケン",
    "prefecture_code": 28,
    "city": "豊岡市",
    "city_kana": "トヨオカシ",
    "town": "宮井",
    "town_kana": "ミヤイ",
    "street": null,
    "office_name": null,
    "office_name_kana": null
  },
  "0201": {
    "postcode": "6680201",
    "prefecture": "兵庫県",
    "prefecture_kana": "ヒョウゴケン",
    "prefecture_code": 28,
    "city": "豊岡市",
    "city_kana": "トヨオカシ",
    "town": "出石町奥小野",
    "town_kana": "イズシチョウオクオノ",
    "street": null,
    "office_name": null,
    "office_name_kana": null
  },
  "0202": {
    "postcode": "6680202",
    "prefecture": "兵庫県",
    "prefecture_kana": "ヒョウゴケン",
    "prefecture_code": 28,
    "city": "豊岡市",
    "city_kana": "トヨオカシ",
    "town": "出石町口小野",
    "town_kana": "イズシチョウクチオノ",
    "street": null,
    "office_name": null,
    "office_name_kana": null
  },
  "0203": {
    "postcode": "6680203",
    "prefecture": "兵庫県",
    "prefecture_kana": "ヒョウゴケン",
    "prefecture_code": 28,
    "city": "豊岡市",
    "city_kana": "トヨオカシ",
    "town": "出石町袴狭",
    "town_kana": "イズシチョウハカザ",
    "street": null,
    "office_name": null,
    "office_name_kana": null
  },
  "0204": {
    "postcode": "6680204",
    "prefecture": "兵庫県",
    "prefecture_kana": "ヒョウゴケン",
    "prefecture_code": 28,
    "city": "豊岡市",
    "city_kana": "トヨオカシ",
    "town": "出石町宮内",
    "town_kana": "イズシチョウミヤウチ",
    "street": null,
    "office_name": null,
    "office_name_kana": null
  },
  "0205": {
    "postcode": "6680205",
    "prefecture": "兵庫県",
    "prefecture_kana": "ヒョウゴケン",
    "prefecture_code": 28,
    "city": "豊岡市",
    "city_kana": "トヨオカシ",
    "town": "出石町嶋",
    "town_kana": "イズシチョウシマ",
    "street": null,
    "office_name": null,
    "office_name_kana": null
  },
  "0206": {
    "postcode": "6680206",
    "prefecture": "兵庫県",
    "prefecture_kana": "ヒョウゴケン",
    "prefecture_code": 28,
    "city": "豊岡市",
    "city_kana": "トヨオカシ",
    "town": "出石町福居",
    "town_kana": "イズシチョウフクイ",
    "street": null,
    "office_name": null,
    "office_name_kana": null
  },
  "0207": {
    "postcode": "6680207",
    "prefecture": "兵庫県",
    "prefecture_kana": "ヒョウゴケン",
    "prefecture_code": 28,
    "city": "豊岡市",
    "city_kana": "トヨオカシ",
    "town": "出石町伊豆",
    "town_kana": "イズシチョウイズ",
    "street": null,
    "office_name": null,
    "office_name_kana": null
  },
  "0208": {
    "postcode": "6680208",
    "prefecture": "兵庫県",
    "prefecture_kana": "ヒョウゴケン",
    "prefecture_code": 28,
    "city": "豊岡市",
    "city_kana": "トヨオカシ",
    "town": "出石町安良",
    "town_kana": "イズシチョウヤスラ",
    "street": null,
    "office_name": null,
    "office_name_kana": null
  },
  "0209": {
    "postcode": "6680209",
    "prefecture": "兵庫県",
    "prefecture_kana": "ヒョウゴケン",
    "prefecture_code": 28,
    "city": "豊岡市",
    "city_kana": "トヨオカシ",
    "town": "出石町田多地",
    "town_kana": "イズシチョウタダチ",
    "street": null,
    "office_name": null,
    "office_name_kana": null
  },
  "0211": {
    "postcode": "6680211",
    "prefecture": "兵庫県",
    "prefecture_kana": "ヒョウゴケン",
    "prefecture_code": 28,
    "city": "豊岡市",
    "city_kana": "トヨオカシ",
    "town": "出石町下谷",
    "town_kana": "イズシチョウシモタニ",
    "street": null,
    "office_name": null,
    "office_name_kana": null
  },
  "0212": {
    "postcode": "6680212",
    "prefecture": "兵庫県",
    "prefecture_kana": "ヒョウゴケン",
    "prefecture_code": 28,
    "city": "豊岡市",
    "city_kana": "トヨオカシ",
    "town": "出石町谷山",
    "town_kana": "イズシチョウタニヤマ",
    "street": null,
    "office_name": null,
    "office_name_kana": null
  },
  "0213": {
    "postcode": "6680213",
    "prefecture": "兵庫県",
    "prefecture_kana": "ヒョウゴケン",
    "prefecture_code": 28,
    "city": "豊岡市",
    "city_kana": "トヨオカシ",
    "town": "出石町伊木",
    "town_kana": "イズシチョウイギ",
    "street": null,
    "office_name": null,
    "office_name_kana": null
  },
  "0214": {
    "postcode": "6680214",
    "prefecture": "兵庫県",
    "prefecture_kana": "ヒョウゴケン",
    "prefecture_code": 28,
    "city": "豊岡市",
    "city_kana": "トヨオカシ",
    "town": "出石町内町",
    "town_kana": "イズシチョウウチマチ",
    "street": null,
    "office_name": null,
    "office_name_kana": null
  },
  "0215": {
    "postcode": "6680215",
    "prefecture": "兵庫県",
    "prefecture_kana": "ヒョウゴケン",
    "prefecture_code": 28,
    "city": "豊岡市",
    "city_kana": "トヨオカシ",
    "town": "出石町魚屋",
    "town_kana": "イズシチョウウオヤ",
    "street": null,
    "office_name": null,
    "office_name_kana": null
  },
  "0216": {
    "postcode": "6680216",
    "prefecture": "兵庫県",
    "prefecture_kana": "ヒョウゴケン",
    "prefecture_code": 28,
    "city": "豊岡市",
    "city_kana": "トヨオカシ",
    "town": "出石町材木",
    "town_kana": "イズシチョウザイモク",
    "street": null,
    "office_name": null,
    "office_name_kana": null
  },
  "0217": {
    "postcode": "6680217",
    "prefecture": "兵庫県",
    "prefecture_kana": "ヒョウゴケン",
    "prefecture_code": 28,
    "city": "豊岡市",
    "city_kana": "トヨオカシ",
    "town": "出石町東條",
    "town_kana": "イズシチョウトウジョウ",
    "street": null,
    "office_name": null,
    "office_name_kana": null
  },
  "0218": {
    "postcode": "6680218",
    "prefecture": "兵庫県",
    "prefecture_kana": "ヒョウゴケン",
    "prefecture_code": 28,
    "city": "豊岡市",
    "city_kana": "トヨオカシ",
    "town": "出石町入佐",
    "town_kana": "イズシチョウイルサ",
    "street": null,
    "office_name": null,
    "office_name_kana": null
  },
  "0221": {
    "postcode": "6680221",
    "prefecture": "兵庫県",
    "prefecture_kana": "ヒョウゴケン",
    "prefecture_code": 28,
    "city": "豊岡市",
    "city_kana": "トヨオカシ",
    "town": "出石町町分",
    "town_kana": "イズシチョウマチブン",
    "street": null,
    "office_name": null,
    "office_name_kana": null
  },
  "0222": {
    "postcode": "6680222",
    "prefecture": "兵庫県",
    "prefecture_kana": "ヒョウゴケン",
    "prefecture_code": 28,
    "city": "豊岡市",
    "city_kana": "トヨオカシ",
    "town": "出石町寺町",
    "town_kana": "イズシチョウテラマチ",
    "street": null,
    "office_name": null,
    "office_name_kana": null
  },
  "0223": {
    "postcode": "6680223",
    "prefecture": "兵庫県",
    "prefecture_kana": "ヒョウゴケン",
    "prefecture_code": 28,
    "city": "豊岡市",
    "city_kana": "トヨオカシ",
    "town": "出石町鉄砲",
    "town_kana": "イズシチョウテッポウ",
    "street": null,
    "office_name": null,
    "office_name_kana": null
  },
  "0224": {
    "postcode": "6680224",
    "prefecture": "兵庫県",
    "prefecture_kana": "ヒョウゴケン",
    "prefecture_code": 28,
    "city": "豊岡市",
    "city_kana": "トヨオカシ",
    "town": "出石町本町",
    "town_kana": "イズシチョウホンマチ",
    "street": null,
    "office_name": null,
    "office_name_kana": null
  },
  "0225": {
    "postcode": "6680225",
    "prefecture": "兵庫県",
    "prefecture_kana": "ヒョウゴケン",
    "prefecture_code": 28,
    "city": "豊岡市",
    "city_kana": "トヨオカシ",
    "town": "出石町八木",
    "town_kana": "イズシチョウヤギ",
    "street": null,
    "office_name": null,
    "office_name_kana": null
  },
  "0231": {
    "postcode": "6680231",
    "prefecture": "兵庫県",
    "prefecture_kana": "ヒョウゴケン",
    "prefecture_code": 28,
    "city": "豊岡市",
    "city_kana": "トヨオカシ",
    "town": "出石町川原",
    "town_kana": "イズシチョウカワラ",
    "street": null,
    "office_name": null,
    "office_name_kana": null
  },
  "0232": {
    "postcode": "6680232",
    "prefecture": "兵庫県",
    "prefecture_kana": "ヒョウゴケン",
    "prefecture_code": 28,
    "city": "豊岡市",
    "city_kana": "トヨオカシ",
    "town": "出石町宵田",
    "town_kana": "イズシチョウヨイダ",
    "street": null,
    "office_name": null,
    "office_name_kana": null
  },
  "0233": {
    "postcode": "6680233",
    "prefecture": "兵庫県",
    "prefecture_kana": "ヒョウゴケン",
    "prefecture_code": 28,
    "city": "豊岡市",
    "city_kana": "トヨオカシ",
    "town": "出石町田結庄",
    "town_kana": "イズシチョウタイノショウ",
    "street": null,
    "office_name": null,
    "office_name_kana": null
  },
  "0234": {
    "postcode": "6680234",
    "prefecture": "兵庫県",
    "prefecture_kana": "ヒョウゴケン",
    "prefecture_code": 28,
    "city": "豊岡市",
    "city_kana": "トヨオカシ",
    "town": "出石町柳",
    "town_kana": "イズシチョウヤナギ",
    "street": null,
    "office_name": null,
    "office_name_kana": null
  },
  "0235": {
    "postcode": "6680235",
    "prefecture": "兵庫県",
    "prefecture_kana": "ヒョウゴケン",
    "prefecture_code": 28,
    "city": "豊岡市",
    "city_kana": "トヨオカシ",
    "town": "出石町鍛冶屋",
    "town_kana": "イズシチョウカジヤ",
    "street": null,
    "office_name": null,
    "office_name_kana": null
  },
  "0236": {
    "postcode": "6680236",
    "prefecture": "兵庫県",
    "prefecture_kana": "ヒョウゴケン",
    "prefecture_code": 28,
    "city": "豊岡市",
    "city_kana": "トヨオカシ",
    "town": "出石町松枝",
    "town_kana": "イズシチョウマツガエ",
    "street": null,
    "office_name": null,
    "office_name_kana": null
  },
  "0237": {
    "postcode": "6680237",
    "prefecture": "兵庫県",
    "prefecture_kana": "ヒョウゴケン",
    "prefecture_code": 28,
    "city": "豊岡市",
    "city_kana": "トヨオカシ",
    "town": "出石町馬場",
    "town_kana": "イズシチョウババ",
    "street": null,
    "office_name": null,
    "office_name_kana": null
  },
  "0238": {
    "postcode": "6680238",
    "prefecture": "兵庫県",
    "prefecture_kana": "ヒョウゴケン",
    "prefecture_code": 28,
    "city": "豊岡市",
    "city_kana": "トヨオカシ",
    "town": "出石町弘原",
    "town_kana": "イズシチョウヒロハラ",
    "street": null,
    "office_name": null,
    "office_name_kana": null
  },
  "0241": {
    "postcode": "6680241",
    "prefecture": "兵庫県",
    "prefecture_kana": "ヒョウゴケン",
    "prefecture_code": 28,
    "city": "豊岡市",
    "city_kana": "トヨオカシ",
    "town": "出石町寺坂",
    "town_kana": "イズシチョウテラサカ",
    "street": null,
    "office_name": null,
    "office_name_kana": null
  },
  "0242": {
    "postcode": "6680242",
    "prefecture": "兵庫県",
    "prefecture_kana": "ヒョウゴケン",
    "prefecture_code": 28,
    "city": "豊岡市",
    "city_kana": "トヨオカシ",
    "town": "出石町桐野",
    "town_kana": "イズシチョウキリノ",
    "street": null,
    "office_name": null,
    "office_name_kana": null
  },
  "0243": {
    "postcode": "6680243",
    "prefecture": "兵庫県",
    "prefecture_kana": "ヒョウゴケン",
    "prefecture_code": 28,
    "city": "豊岡市",
    "city_kana": "トヨオカシ",
    "town": "出石町中野",
    "town_kana": "イズシチョウナカノ",
    "street": null,
    "office_name": null,
    "office_name_kana": null
  },
  "0244": {
    "postcode": "6680244",
    "prefecture": "兵庫県",
    "prefecture_kana": "ヒョウゴケン",
    "prefecture_code": 28,
    "city": "豊岡市",
    "city_kana": "トヨオカシ",
    "town": "出石町上野",
    "town_kana": "イズシチョウウエノ",
    "street": null,
    "office_name": null,
    "office_name_kana": null
  },
  "0245": {
    "postcode": "6680245",
    "prefecture": "兵庫県",
    "prefecture_kana": "ヒョウゴケン",
    "prefecture_code": 28,
    "city": "豊岡市",
    "city_kana": "トヨオカシ",
    "town": "出石町百合",
    "town_kana": "イズシチョウユリ",
    "street": null,
    "office_name": null,
    "office_name_kana": null
  },
  "0246": {
    "postcode": "6680246",
    "prefecture": "兵庫県",
    "prefecture_kana": "ヒョウゴケン",
    "prefecture_code": 28,
    "city": "豊岡市",
    "city_kana": "トヨオカシ",
    "town": "出石町日野辺",
    "town_kana": "イズシチョウヒノベ",
    "street": null,
    "office_name": null,
    "office_name_kana": null
  },
  "0251": {
    "postcode": "6680251",
    "prefecture": "兵庫県",
    "prefecture_kana": "ヒョウゴケン",
    "prefecture_code": 28,
    "city": "豊岡市",
    "city_kana": "トヨオカシ",
    "town": "出石町奥山",
    "town_kana": "イズシチョウオクヤマ",
    "street": null,
    "office_name": null,
    "office_name_kana": null
  },
  "0252": {
    "postcode": "6680252",
    "prefecture": "兵庫県",
    "prefecture_kana": "ヒョウゴケン",
    "prefecture_code": 28,
    "city": "豊岡市",
    "city_kana": "トヨオカシ",
    "town": "出石町和屋",
    "town_kana": "イズシチョウワヤ",
    "street": null,
    "office_name": null,
    "office_name_kana": null
  },
  "0253": {
    "postcode": "6680253",
    "prefecture": "兵庫県",
    "prefecture_kana": "ヒョウゴケン",
    "prefecture_code": 28,
    "city": "豊岡市",
    "city_kana": "トヨオカシ",
    "town": "出石町榎見",
    "town_kana": "イズシチョウヨノミ",
    "street": null,
    "office_name": null,
    "office_name_kana": null
  },
  "0254": {
    "postcode": "6680254",
    "prefecture": "兵庫県",
    "prefecture_kana": "ヒョウゴケン",
    "prefecture_code": 28,
    "city": "豊岡市",
    "city_kana": "トヨオカシ",
    "town": "出石町中村",
    "town_kana": "イズシチョウナカムラ",
    "street": null,
    "office_name": null,
    "office_name_kana": null
  },
  "0255": {
    "postcode": "6680255",
    "prefecture": "兵庫県",
    "prefecture_kana": "ヒョウゴケン",
    "prefecture_code": 28,
    "city": "豊岡市",
    "city_kana": "トヨオカシ",
    "town": "出石町上村",
    "town_kana": "イズシチョウカミムラ",
    "street": null,
    "office_name": null,
    "office_name_kana": null
  },
  "0256": {
    "postcode": "6680256",
    "prefecture": "兵庫県",
    "prefecture_kana": "ヒョウゴケン",
    "prefecture_code": 28,
    "city": "豊岡市",
    "city_kana": "トヨオカシ",
    "town": "出石町小人",
    "town_kana": "イズシチョウコビト",
    "street": null,
    "office_name": null,
    "office_name_kana": null
  },
  "0257": {
    "postcode": "6680257",
    "prefecture": "兵庫県",
    "prefecture_kana": "ヒョウゴケン",
    "prefecture_code": 28,
    "city": "豊岡市",
    "city_kana": "トヨオカシ",
    "town": "出石町坪口",
    "town_kana": "イズシチョウツボグチ",
    "street": null,
    "office_name": null,
    "office_name_kana": null
  },
  "0261": {
    "postcode": "6680261",
    "prefecture": "兵庫県",
    "prefecture_kana": "ヒョウゴケン",
    "prefecture_code": 28,
    "city": "豊岡市",
    "city_kana": "トヨオカシ",
    "town": "出石町荒木",
    "town_kana": "イズシチョウアラキ",
    "street": null,
    "office_name": null,
    "office_name_kana": null
  },
  "0262": {
    "postcode": "6680262",
    "prefecture": "兵庫県",
    "prefecture_kana": "ヒョウゴケン",
    "prefecture_code": 28,
    "city": "豊岡市",
    "city_kana": "トヨオカシ",
    "town": "出石町細見",
    "town_kana": "イズシチョウホソミ",
    "street": null,
    "office_name": null,
    "office_name_kana": null
  },
  "0263": {
    "postcode": "6680263",
    "prefecture": "兵庫県",
    "prefecture_kana": "ヒョウゴケン",
    "prefecture_code": 28,
    "city": "豊岡市",
    "city_kana": "トヨオカシ",
    "town": "出石町福住",
    "town_kana": "イズシチョウフクスミ",
    "street": null,
    "office_name": null,
    "office_name_kana": null
  },
  "0264": {
    "postcode": "6680264",
    "prefecture": "兵庫県",
    "prefecture_kana": "ヒョウゴケン",
    "prefecture_code": 28,
    "city": "豊岡市",
    "city_kana": "トヨオカシ",
    "town": "出石町暮坂",
    "town_kana": "イズシチョウクレサカ",
    "street": null,
    "office_name": null,
    "office_name_kana": null
  },
  "0265": {
    "postcode": "6680265",
    "prefecture": "兵庫県",
    "prefecture_kana": "ヒョウゴケン",
    "prefecture_code": 28,
    "city": "豊岡市",
    "city_kana": "トヨオカシ",
    "town": "出石町福見",
    "town_kana": "イズシチョウフクミ",
    "street": null,
    "office_name": null,
    "office_name_kana": null
  },
  "0266": {
    "postcode": "6680266",
    "prefecture": "兵庫県",
    "prefecture_kana": "ヒョウゴケン",
    "prefecture_code": 28,
    "city": "豊岡市",
    "city_kana": "トヨオカシ",
    "town": "出石町平田",
    "town_kana": "イズシチョウヒラタ",
    "street": null,
    "office_name": null,
    "office_name_kana": null
  },
  "0271": {
    "postcode": "6680271",
    "prefecture": "兵庫県",
    "prefecture_kana": "ヒョウゴケン",
    "prefecture_code": 28,
    "city": "豊岡市",
    "city_kana": "トヨオカシ",
    "town": "出石町大谷",
    "town_kana": "イズシチョウオオタニ",
    "street": null,
    "office_name": null,
    "office_name_kana": null
  },
  "0272": {
    "postcode": "6680272",
    "prefecture": "兵庫県",
    "prefecture_kana": "ヒョウゴケン",
    "prefecture_code": 28,
    "city": "豊岡市",
    "city_kana": "トヨオカシ",
    "town": "出石町鳥居",
    "town_kana": "イズシチョウトリイ",
    "street": null,
    "office_name": null,
    "office_name_kana": null
  },
  "0273": {
    "postcode": "6680273",
    "prefecture": "兵庫県",
    "prefecture_kana": "ヒョウゴケン",
    "prefecture_code": 28,
    "city": "豊岡市",
    "city_kana": "トヨオカシ",
    "town": "出石町坪井",
    "town_kana": "イズシチョウツボイ",
    "street": null,
    "office_name": null,
    "office_name_kana": null
  },
  "0274": {
    "postcode": "6680274",
    "prefecture": "兵庫県",
    "prefecture_kana": "ヒョウゴケン",
    "prefecture_code": 28,
    "city": "豊岡市",
    "city_kana": "トヨオカシ",
    "town": "出石町水上",
    "town_kana": "イズシチョウムナガイ",
    "street": null,
    "office_name": null,
    "office_name_kana": null
  },
  "0275": {
    "postcode": "6680275",
    "prefecture": "兵庫県",
    "prefecture_kana": "ヒョウゴケン",
    "prefecture_code": 28,
    "city": "豊岡市",
    "city_kana": "トヨオカシ",
    "town": "出石町長砂",
    "town_kana": "イズシチョウナガスナ",
    "street": null,
    "office_name": null,
    "office_name_kana": null
  },
  "0276": {
    "postcode": "6680276",
    "prefecture": "兵庫県",
    "prefecture_kana": "ヒョウゴケン",
    "prefecture_code": 28,
    "city": "豊岡市",
    "city_kana": "トヨオカシ",
    "town": "出石町森井",
    "town_kana": "イズシチョウモリイ",
    "street": null,
    "office_name": null,
    "office_name_kana": null
  },
  "0277": {
    "postcode": "6680277",
    "prefecture": "兵庫県",
    "prefecture_kana": "ヒョウゴケン",
    "prefecture_code": 28,
    "city": "豊岡市",
    "city_kana": "トヨオカシ",
    "town": "出石町丸中",
    "town_kana": "イズシチョウマルナカ",
    "street": null,
    "office_name": null,
    "office_name_kana": null
  },
  "0278": {
    "postcode": "6680278",
    "prefecture": "兵庫県",
    "prefecture_kana": "ヒョウゴケン",
    "prefecture_code": 28,
    "city": "豊岡市",
    "city_kana": "トヨオカシ",
    "town": "出石町三木",
    "town_kana": "イズシチョウミツキ",
    "street": null,
    "office_name": null,
    "office_name_kana": null
  },
  "0279": {
    "postcode": "6680279",
    "prefecture": "兵庫県",
    "prefecture_kana": "ヒョウゴケン",
    "prefecture_code": 28,
    "city": "豊岡市",
    "city_kana": "トヨオカシ",
    "town": "出石町片間",
    "town_kana": "イズシチョウカタマ",
    "street": null,
    "office_name": null,
    "office_name_kana": null
  },
  "0292": {
    "postcode": "6680292",
    "prefecture": "兵庫県",
    "prefecture_kana": "ヒョウゴケン",
    "prefecture_code": 28,
    "city": "豊岡市",
    "city_kana": "トヨオカシ",
    "town": "出石町内町",
    "town_kana": "イズシチョウウチマチ",
    "street": "１",
    "office_name": "豊岡市役所　出石総合支所",
    "office_name_kana": "トヨオカシヤクシヨ イズシソウゴウシシヨ"
  },
  "0293": {
    "postcode": "6680293",
    "prefecture": "兵庫県",
    "prefecture_kana": "ヒョウゴケン",
    "prefecture_code": 28,
    "city": "豊岡市",
    "city_kana": "トヨオカシ",
    "town": "出石町町分",
    "town_kana": "イズシチョウマチブン",
    "street": "３９６−２",
    "office_name": "株式会社　川嶋建設",
    "office_name_kana": "カブシキガイシヤ カワシマケンセツ"
  },
  "0298": {
    "postcode": "6680298",
    "prefecture": "兵庫県",
    "prefecture_kana": "ヒョウゴケン",
    "prefecture_code": 28,
    "city": "豊岡市",
    "city_kana": "トヨオカシ",
    "town": "出石町田多地",
    "town_kana": "イズシチョウタダチ",
    "street": "１",
    "office_name": "パナソニック　エレクトロニックデバイス但馬　株式会社",
    "office_name_kana": "パナソニツク エレクトロニツクデバイスタジマ カブシキガイシヤ"
  },
  "0301": {
    "postcode": "6680301",
    "prefecture": "兵庫県",
    "prefecture_kana": "ヒョウゴケン",
    "prefecture_code": 28,
    "city": "豊岡市",
    "city_kana": "トヨオカシ",
    "town": "但東町奥矢根",
    "town_kana": "タントウチョウオクヤネ",
    "street": null,
    "office_name": null,
    "office_name_kana": null
  },
  "0302": {
    "postcode": "6680302",
    "prefecture": "兵庫県",
    "prefecture_kana": "ヒョウゴケン",
    "prefecture_code": 28,
    "city": "豊岡市",
    "city_kana": "トヨオカシ",
    "town": "但東町矢根",
    "town_kana": "タントウチョウヤネ",
    "street": null,
    "office_name": null,
    "office_name_kana": null
  },
  "0303": {
    "postcode": "6680303",
    "prefecture": "兵庫県",
    "prefecture_kana": "ヒョウゴケン",
    "prefecture_code": 28,
    "city": "豊岡市",
    "city_kana": "トヨオカシ",
    "town": "但東町畑",
    "town_kana": "タントウチョウハタ",
    "street": null,
    "office_name": null,
    "office_name_kana": null
  },
  "0304": {
    "postcode": "6680304",
    "prefecture": "兵庫県",
    "prefecture_kana": "ヒョウゴケン",
    "prefecture_code": 28,
    "city": "豊岡市",
    "city_kana": "トヨオカシ",
    "town": "但東町水石",
    "town_kana": "タントウチョウミズシ",
    "street": null,
    "office_name": null,
    "office_name_kana": null
  },
  "0311": {
    "postcode": "6680311",
    "prefecture": "兵庫県",
    "prefecture_kana": "ヒョウゴケン",
    "prefecture_code": 28,
    "city": "豊岡市",
    "city_kana": "トヨオカシ",
    "town": "但東町出合",
    "town_kana": "タントウチョウデアイ",
    "street": null,
    "office_name": null,
    "office_name_kana": null
  },
  "0312": {
    "postcode": "6680312",
    "prefecture": "兵庫県",
    "prefecture_kana": "ヒョウゴケン",
    "prefecture_code": 28,
    "city": "豊岡市",
    "city_kana": "トヨオカシ",
    "town": "但東町南尾",
    "town_kana": "タントウチョウミノオ",
    "street": null,
    "office_name": null,
    "office_name_kana": null
  },
  "0313": {
    "postcode": "6680313",
    "prefecture": "兵庫県",
    "prefecture_kana": "ヒョウゴケン",
    "prefecture_code": 28,
    "city": "豊岡市",
    "city_kana": "トヨオカシ",
    "town": "但東町出合市場",
    "town_kana": "タントウチョウデアイイチバ",
    "street": null,
    "office_name": null,
    "office_name_kana": null
  },
  "0314": {
    "postcode": "6680314",
    "prefecture": "兵庫県",
    "prefecture_kana": "ヒョウゴケン",
    "prefecture_code": 28,
    "city": "豊岡市",
    "city_kana": "トヨオカシ",
    "town": "但東町日殿",
    "town_kana": "タントウチョウヒドノ",
    "street": null,
    "office_name": null,
    "office_name_kana": null
  },
  "0315": {
    "postcode": "6680315",
    "prefecture": "兵庫県",
    "prefecture_kana": "ヒョウゴケン",
    "prefecture_code": 28,
    "city": "豊岡市",
    "city_kana": "トヨオカシ",
    "town": "但東町河本",
    "town_kana": "タントウチョウコウモト",
    "street": null,
    "office_name": null,
    "office_name_kana": null
  },
  "0316": {
    "postcode": "6680316",
    "prefecture": "兵庫県",
    "prefecture_kana": "ヒョウゴケン",
    "prefecture_code": 28,
    "city": "豊岡市",
    "city_kana": "トヨオカシ",
    "town": "但東町天谷",
    "town_kana": "タントウチョウアマダニ",
    "street": null,
    "office_name": null,
    "office_name_kana": null
  },
  "0317": {
    "postcode": "6680317",
    "prefecture": "兵庫県",
    "prefecture_kana": "ヒョウゴケン",
    "prefecture_code": 28,
    "city": "豊岡市",
    "city_kana": "トヨオカシ",
    "town": "但東町西谷",
    "town_kana": "タントウチョウニシダニ",
    "street": null,
    "office_name": null,
    "office_name_kana": null
  },
  "0321": {
    "postcode": "6680321",
    "prefecture": "兵庫県",
    "prefecture_kana": "ヒョウゴケン",
    "prefecture_code": 28,
    "city": "豊岡市",
    "city_kana": "トヨオカシ",
    "town": "但東町唐川",
    "town_kana": "タントウチョウカラカワ",
    "street": null,
    "office_name": null,
    "office_name_kana": null
  },
  "0322": {
    "postcode": "6680322",
    "prefecture": "兵庫県",
    "prefecture_kana": "ヒョウゴケン",
    "prefecture_code": 28,
    "city": "豊岡市",
    "city_kana": "トヨオカシ",
    "town": "但東町三原",
    "town_kana": "タントウチョウミハラ",
    "street": null,
    "office_name": null,
    "office_name_kana": null
  },
  "0323": {
    "postcode": "6680323",
    "prefecture": "兵庫県",
    "prefecture_kana": "ヒョウゴケン",
    "prefecture_code": 28,
    "city": "豊岡市",
    "city_kana": "トヨオカシ",
    "town": "但東町小谷",
    "town_kana": "タントウチョウオダニ",
    "street": null,
    "office_name": null,
    "office_name_kana": null
  },
  "0324": {
    "postcode": "6680324",
    "prefecture": "兵庫県",
    "prefecture_kana": "ヒョウゴケン",
    "prefecture_code": 28,
    "city": "豊岡市",
    "city_kana": "トヨオカシ",
    "town": "但東町相田",
    "town_kana": "タントウチョウアイダ",
    "street": null,
    "office_name": null,
    "office_name_kana": null
  },
  "0325": {
    "postcode": "6680325",
    "prefecture": "兵庫県",
    "prefecture_kana": "ヒョウゴケン",
    "prefecture_code": 28,
    "city": "豊岡市",
    "city_kana": "トヨオカシ",
    "town": "但東町佐々木",
    "town_kana": "タントウチョウササキ",
    "street": null,
    "office_name": null,
    "office_name_kana": null
  },
  "0331": {
    "postcode": "6680331",
    "prefecture": "兵庫県",
    "prefecture_kana": "ヒョウゴケン",
    "prefecture_code": 28,
    "city": "豊岡市",
    "city_kana": "トヨオカシ",
    "town": "但東町木村",
    "town_kana": "タントウチョウキムラ",
    "street": null,
    "office_name": null,
    "office_name_kana": null
  },
  "0332": {
    "postcode": "6680332",
    "prefecture": "兵庫県",
    "prefecture_kana": "ヒョウゴケン",
    "prefecture_code": 28,
    "city": "豊岡市",
    "city_kana": "トヨオカシ",
    "town": "但東町西野々",
    "town_kana": "タントウチョウニシノノ",
    "street": null,
    "office_name": null,
    "office_name_kana": null
  },
  "0333": {
    "postcode": "6680333",
    "prefecture": "兵庫県",
    "prefecture_kana": "ヒョウゴケン",
    "prefecture_code": 28,
    "city": "豊岡市",
    "city_kana": "トヨオカシ",
    "town": "但東町高龍寺",
    "town_kana": "タントウチョウコウリュウジ",
    "street": null,
    "office_name": null,
    "office_name_kana": null
  },
  "0334": {
    "postcode": "6680334",
    "prefecture": "兵庫県",
    "prefecture_kana": "ヒョウゴケン",
    "prefecture_code": 28,
    "city": "豊岡市",
    "city_kana": "トヨオカシ",
    "town": "但東町坂野",
    "town_kana": "タントウチョウサカノ",
    "street": null,
    "office_name": null,
    "office_name_kana": null
  },
  "0335": {
    "postcode": "6680335",
    "prefecture": "兵庫県",
    "prefecture_kana": "ヒョウゴケン",
    "prefecture_code": 28,
    "city": "豊岡市",
    "city_kana": "トヨオカシ",
    "town": "但東町太田",
    "town_kana": "タントウチョウオオタ",
    "street": null,
    "office_name": null,
    "office_name_kana": null
  },
  "0336": {
    "postcode": "6680336",
    "prefecture": "兵庫県",
    "prefecture_kana": "ヒョウゴケン",
    "prefecture_code": 28,
    "city": "豊岡市",
    "city_kana": "トヨオカシ",
    "town": "但東町日向",
    "town_kana": "タントウチョウヒナダ",
    "street": null,
    "office_name": null,
    "office_name_kana": null
  },
  "0337": {
    "postcode": "6680337",
    "prefecture": "兵庫県",
    "prefecture_kana": "ヒョウゴケン",
    "prefecture_code": 28,
    "city": "豊岡市",
    "city_kana": "トヨオカシ",
    "town": "但東町東里",
    "town_kana": "タントウチョウトウリ",
    "street": null,
    "office_name": null,
    "office_name_kana": null
  },
  "0341": {
    "postcode": "6680341",
    "prefecture": "兵庫県",
    "prefecture_kana": "ヒョウゴケン",
    "prefecture_code": 28,
    "city": "豊岡市",
    "city_kana": "トヨオカシ",
    "town": "但東町口藤",
    "town_kana": "タントウチョウクチフジ",
    "street": null,
    "office_name": null,
    "office_name_kana": null
  },
  "0342": {
    "postcode": "6680342",
    "prefecture": "兵庫県",
    "prefecture_kana": "ヒョウゴケン",
    "prefecture_code": 28,
    "city": "豊岡市",
    "city_kana": "トヨオカシ",
    "town": "但東町中藤",
    "town_kana": "タントウチョウナカフジ",
    "street": null,
    "office_name": null,
    "office_name_kana": null
  },
  "0343": {
    "postcode": "6680343",
    "prefecture": "兵庫県",
    "prefecture_kana": "ヒョウゴケン",
    "prefecture_code": 28,
    "city": "豊岡市",
    "city_kana": "トヨオカシ",
    "town": "但東町奥藤",
    "town_kana": "タントウチョウオクフジ",
    "street": null,
    "office_name": null,
    "office_name_kana": null
  },
  "0344": {
    "postcode": "6680344",
    "prefecture": "兵庫県",
    "prefecture_kana": "ヒョウゴケン",
    "prefecture_code": 28,
    "city": "豊岡市",
    "city_kana": "トヨオカシ",
    "town": "但東町虫生",
    "town_kana": "タントウチョウムシュウ",
    "street": null,
    "office_name": null,
    "office_name_kana": null
  },
  "0345": {
    "postcode": "6680345",
    "prefecture": "兵庫県",
    "prefecture_kana": "ヒョウゴケン",
    "prefecture_code": 28,
    "city": "豊岡市",
    "city_kana": "トヨオカシ",
    "town": "但東町中山",
    "town_kana": "タントウチョウナカヤマ",
    "street": null,
    "office_name": null,
    "office_name_kana": null
  },
  "0351": {
    "postcode": "6680351",
    "prefecture": "兵庫県",
    "prefecture_kana": "ヒョウゴケン",
    "prefecture_code": 28,
    "city": "豊岡市",
    "city_kana": "トヨオカシ",
    "town": "但東町畑山",
    "town_kana": "タントウチョウハタヤマ",
    "street": null,
    "office_name": null,
    "office_name_kana": null
  },
  "0352": {
    "postcode": "6680352",
    "prefecture": "兵庫県",
    "prefecture_kana": "ヒョウゴケン",
    "prefecture_code": 28,
    "city": "豊岡市",
    "city_kana": "トヨオカシ",
    "town": "但東町赤花",
    "town_kana": "タントウチョウアカバナ",
    "street": null,
    "office_name": null,
    "office_name_kana": null
  },
  "0353": {
    "postcode": "6680353",
    "prefecture": "兵庫県",
    "prefecture_kana": "ヒョウゴケン",
    "prefecture_code": 28,
    "city": "豊岡市",
    "city_kana": "トヨオカシ",
    "town": "但東町奥赤",
    "town_kana": "タントウチョウオクアカ",
    "street": null,
    "office_name": null,
    "office_name_kana": null
  },
  "0354": {
    "postcode": "6680354",
    "prefecture": "兵庫県",
    "prefecture_kana": "ヒョウゴケン",
    "prefecture_code": 28,
    "city": "豊岡市",
    "city_kana": "トヨオカシ",
    "town": "但東町坂津",
    "town_kana": "タントウチョウサカヅ",
    "street": null,
    "office_name": null,
    "office_name_kana": null
  },
  "0361": {
    "postcode": "6680361",
    "prefecture": "兵庫県",
    "prefecture_kana": "ヒョウゴケン",
    "prefecture_code": 28,
    "city": "豊岡市",
    "city_kana": "トヨオカシ",
    "town": "但東町正法寺",
    "town_kana": "タントウチョウショウボウジ",
    "street": null,
    "office_name": null,
    "office_name_kana": null
  },
  "0362": {
    "postcode": "6680362",
    "prefecture": "兵庫県",
    "prefecture_kana": "ヒョウゴケン",
    "prefecture_code": 28,
    "city": "豊岡市",
    "city_kana": "トヨオカシ",
    "town": "但東町平田",
    "town_kana": "タントウチョウヒラタ",
    "street": null,
    "office_name": null,
    "office_name_kana": null
  },
  "0363": {
    "postcode": "6680363",
    "prefecture": "兵庫県",
    "prefecture_kana": "ヒョウゴケン",
    "prefecture_code": 28,
    "city": "豊岡市",
    "city_kana": "トヨオカシ",
    "town": "但東町栗尾",
    "town_kana": "タントウチョウクリオ",
    "street": null,
    "office_name": null,
    "office_name_kana": null
  },
  "0364": {
    "postcode": "6680364",
    "prefecture": "兵庫県",
    "prefecture_kana": "ヒョウゴケン",
    "prefecture_code": 28,
    "city": "豊岡市",
    "city_kana": "トヨオカシ",
    "town": "但東町佐田",
    "town_kana": "タントウチョウサダ",
    "street": null,
    "office_name": null,
    "office_name_kana": null
  },
  "0371": {
    "postcode": "6680371",
    "prefecture": "兵庫県",
    "prefecture_kana": "ヒョウゴケン",
    "prefecture_code": 28,
    "city": "豊岡市",
    "city_kana": "トヨオカシ",
    "town": "但東町薬王寺",
    "town_kana": "タントウチョウヤクオウジ",
    "street": null,
    "office_name": null,
    "office_name_kana": null
  },
  "0372": {
    "postcode": "6680372",
    "prefecture": "兵庫県",
    "prefecture_kana": "ヒョウゴケン",
    "prefecture_code": 28,
    "city": "豊岡市",
    "city_kana": "トヨオカシ",
    "town": "但東町大河内",
    "town_kana": "タントウチョウオオゴウチ",
    "street": null,
    "office_name": null,
    "office_name_kana": null
  },
  "0373": {
    "postcode": "6680373",
    "prefecture": "兵庫県",
    "prefecture_kana": "ヒョウゴケン",
    "prefecture_code": 28,
    "city": "豊岡市",
    "city_kana": "トヨオカシ",
    "town": "但東町久畑",
    "town_kana": "タントウチョウクバタ",
    "street": null,
    "office_name": null,
    "office_name_kana": null
  },
  "0374": {
    "postcode": "6680374",
    "prefecture": "兵庫県",
    "prefecture_kana": "ヒョウゴケン",
    "prefecture_code": 28,
    "city": "豊岡市",
    "city_kana": "トヨオカシ",
    "town": "但東町後",
    "town_kana": "タントウチョウウシロ",
    "street": null,
    "office_name": null,
    "office_name_kana": null
  },
  "0375": {
    "postcode": "6680375",
    "prefecture": "兵庫県",
    "prefecture_kana": "ヒョウゴケン",
    "prefecture_code": 28,
    "city": "豊岡市",
    "city_kana": "トヨオカシ",
    "town": "但東町東中",
    "town_kana": "タントウチョウヒガシナカ",
    "street": null,
    "office_name": null,
    "office_name_kana": null
  },
  "0376": {
    "postcode": "6680376",
    "prefecture": "兵庫県",
    "prefecture_kana": "ヒョウゴケン",
    "prefecture_code": 28,
    "city": "豊岡市",
    "city_kana": "トヨオカシ",
    "town": "但東町小坂",
    "town_kana": "タントウチョウコザコ",
    "street": null,
    "office_name": null,
    "office_name_kana": null
  },
  "0393": {
    "postcode": "6680393",
    "prefecture": "兵庫県",
    "prefecture_kana": "ヒョウゴケン",
    "prefecture_code": 28,
    "city": "豊岡市",
    "city_kana": "トヨオカシ",
    "town": "但東町出合",
    "town_kana": "タントウチョウデアイ",
    "street": "１５０",
    "office_name": "豊岡市役所　但東総合支所",
    "office_name_kana": "トヨオカシヤクシヨ タントウソウゴウシシヨ"
  },
  "0801": {
    "postcode": "6680801",
    "prefecture": "兵庫県",
    "prefecture_kana": "ヒョウゴケン",
    "prefecture_code": 28,
    "city": "豊岡市",
    "city_kana": "トヨオカシ",
    "town": "赤石",
    "town_kana": "アカイシ",
    "street": null,
    "office_name": null,
    "office_name_kana": null
  },
  "0802": {
    "postcode": "6680802",
    "prefecture": "兵庫県",
    "prefecture_kana": "ヒョウゴケン",
    "prefecture_code": 28,
    "city": "豊岡市",
    "city_kana": "トヨオカシ",
    "town": "金剛寺",
    "town_kana": "コンゴウジ",
    "street": null,
    "office_name": null,
    "office_name_kana": null
  },
  "0803": {
    "postcode": "6680803",
    "prefecture": "兵庫県",
    "prefecture_kana": "ヒョウゴケン",
    "prefecture_code": 28,
    "city": "豊岡市",
    "city_kana": "トヨオカシ",
    "town": "下鶴井",
    "town_kana": "シモツルイ",
    "street": null,
    "office_name": null,
    "office_name_kana": null
  },
  "0804": {
    "postcode": "6680804",
    "prefecture": "兵庫県",
    "prefecture_kana": "ヒョウゴケン",
    "prefecture_code": 28,
    "city": "豊岡市",
    "city_kana": "トヨオカシ",
    "town": "野上",
    "town_kana": "ノジョウ",
    "street": null,
    "office_name": null,
    "office_name_kana": null
  },
  "0805": {
    "postcode": "6680805",
    "prefecture": "兵庫県",
    "prefecture_kana": "ヒョウゴケン",
    "prefecture_code": 28,
    "city": "豊岡市",
    "city_kana": "トヨオカシ",
    "town": "船町",
    "town_kana": "フナマチ",
    "street": null,
    "office_name": null,
    "office_name_kana": null
  },
  "0806": {
    "postcode": "6680806",
    "prefecture": "兵庫県",
    "prefecture_kana": "ヒョウゴケン",
    "prefecture_code": 28,
    "city": "豊岡市",
    "city_kana": "トヨオカシ",
    "town": "森",
    "town_kana": "モリ",
    "street": null,
    "office_name": null,
    "office_name_kana": null
  },
  "0807": {
    "postcode": "6680807",
    "prefecture": "兵庫県",
    "prefecture_kana": "ヒョウゴケン",
    "prefecture_code": 28,
    "city": "豊岡市",
    "city_kana": "トヨオカシ",
    "town": "山本",
    "town_kana": "ヤマモト",
    "street": null,
    "office_name": null,
    "office_name_kana": null
  },
  "0811": {
    "postcode": "6680811",
    "prefecture": "兵庫県",
    "prefecture_kana": "ヒョウゴケン",
    "prefecture_code": 28,
    "city": "豊岡市",
    "city_kana": "トヨオカシ",
    "town": "鎌田",
    "town_kana": "カマタ",
    "street": null,
    "office_name": null,
    "office_name_kana": null
  },
  "0812": {
    "postcode": "6680812",
    "prefecture": "兵庫県",
    "prefecture_kana": "ヒョウゴケン",
    "prefecture_code": 28,
    "city": "豊岡市",
    "city_kana": "トヨオカシ",
    "town": "栄町",
    "town_kana": "サカエマチ",
    "street": null,
    "office_name": null,
    "office_name_kana": null
  },
  "0813": {
    "postcode": "6680813",
    "prefecture": "兵庫県",
    "prefecture_kana": "ヒョウゴケン",
    "prefecture_code": 28,
    "city": "豊岡市",
    "city_kana": "トヨオカシ",
    "town": "下宮",
    "town_kana": "シモノミヤ",
    "street": null,
    "office_name": null,
    "office_name_kana": null
  },
  "0814": {
    "postcode": "6680814",
    "prefecture": "兵庫県",
    "prefecture_kana": "ヒョウゴケン",
    "prefecture_code": 28,
    "city": "豊岡市",
    "city_kana": "トヨオカシ",
    "town": "祥雲寺",
    "town_kana": "ショウウンジ",
    "street": null,
    "office_name": null,
    "office_name_kana": null
  },
  "0815": {
    "postcode": "6680815",
    "prefecture": "兵庫県",
    "prefecture_kana": "ヒョウゴケン",
    "prefecture_code": 28,
    "city": "豊岡市",
    "city_kana": "トヨオカシ",
    "town": "日撫",
    "town_kana": "ヒナド",
    "street": null,
    "office_name": null,
    "office_name_kana": null
  },
  "0816": {
    "postcode": "6680816",
    "prefecture": "兵庫県",
    "prefecture_kana": "ヒョウゴケン",
    "prefecture_code": 28,
    "city": "豊岡市",
    "city_kana": "トヨオカシ",
    "town": "法花寺",
    "town_kana": "ホッケイジ",
    "street": null,
    "office_name": null,
    "office_name_kana": null
  },
  "0817": {
    "postcode": "6680817",
    "prefecture": "兵庫県",
    "prefecture_kana": "ヒョウゴケン",
    "prefecture_code": 28,
    "city": "豊岡市",
    "city_kana": "トヨオカシ",
    "town": "六地蔵",
    "town_kana": "ロクジゾウ",
    "street": null,
    "office_name": null,
    "office_name_kana": null
  },
  "0821": {
    "postcode": "6680821",
    "prefecture": "兵庫県",
    "prefecture_kana": "ヒョウゴケン",
    "prefecture_code": 28,
    "city": "豊岡市",
    "city_kana": "トヨオカシ",
    "town": "市場",
    "town_kana": "イチバ",
    "street": null,
    "office_name": null,
    "office_name_kana": null
  },
  "0822": {
    "postcode": "6680822",
    "prefecture": "兵庫県",
    "prefecture_kana": "ヒョウゴケン",
    "prefecture_code": 28,
    "city": "豊岡市",
    "city_kana": "トヨオカシ",
    "town": "奥野",
    "town_kana": "オクノ",
    "street": null,
    "office_name": null,
    "office_name_kana": null
  },
  "0823": {
    "postcode": "6680823",
    "prefecture": "兵庫県",
    "prefecture_kana": "ヒョウゴケン",
    "prefecture_code": 28,
    "city": "豊岡市",
    "city_kana": "トヨオカシ",
    "town": "三宅",
    "town_kana": "ミヤケ",
    "street": null,
    "office_name": null,
    "office_name_kana": null
  },
  "0824": {
    "postcode": "6680824",
    "prefecture": "兵庫県",
    "prefecture_kana": "ヒョウゴケン",
    "prefecture_code": 28,
    "city": "豊岡市",
    "city_kana": "トヨオカシ",
    "town": "森尾",
    "town_kana": "モリオ",
    "street": null,
    "office_name": null,
    "office_name_kana": null
  },
  "0831": {
    "postcode": "6680831",
    "prefecture": "兵庫県",
    "prefecture_kana": "ヒョウゴケン",
    "prefecture_code": 28,
    "city": "豊岡市",
    "city_kana": "トヨオカシ",
    "town": "神美台",
    "town_kana": "カミヨシダイ",
    "street": null,
    "office_name": null,
    "office_name_kana": null
  },
  "0832": {
    "postcode": "6680832",
    "prefecture": "兵庫県",
    "prefecture_kana": "ヒョウゴケン",
    "prefecture_code": 28,
    "city": "豊岡市",
    "city_kana": "トヨオカシ",
    "town": "倉見",
    "town_kana": "クラミ",
    "street": null,
    "office_name": null,
    "office_name_kana": null
  },
  "0833": {
    "postcode": "6680833",
    "prefecture": "兵庫県",
    "prefecture_kana": "ヒョウゴケン",
    "prefecture_code": 28,
    "city": "豊岡市",
    "city_kana": "トヨオカシ",
    "town": "立石",
    "town_kana": "タテイシ",
    "street": null,
    "office_name": null,
    "office_name_kana": null
  },
  "0834": {
    "postcode": "6680834",
    "prefecture": "兵庫県",
    "prefecture_kana": "ヒョウゴケン",
    "prefecture_code": 28,
    "city": "豊岡市",
    "city_kana": "トヨオカシ",
    "town": "長谷",
    "town_kana": "ナガタニ",
    "street": null,
    "office_name": null,
    "office_name_kana": null
  },
  "0841": {
    "postcode": "6680841",
    "prefecture": "兵庫県",
    "prefecture_kana": "ヒョウゴケン",
    "prefecture_code": 28,
    "city": "豊岡市",
    "city_kana": "トヨオカシ",
    "town": "加陽",
    "town_kana": "カヤ",
    "street": null,
    "office_name": null,
    "office_name_kana": null
  },
  "0842": {
    "postcode": "6680842",
    "prefecture": "兵庫県",
    "prefecture_kana": "ヒョウゴケン",
    "prefecture_code": 28,
    "city": "豊岡市",
    "city_kana": "トヨオカシ",
    "town": "中郷",
    "town_kana": "ナカノゴウ",
    "street": null,
    "office_name": null,
    "office_name_kana": null
  },
  "0843": {
    "postcode": "6680843",
    "prefecture": "兵庫県",
    "prefecture_kana": "ヒョウゴケン",
    "prefecture_code": 28,
    "city": "豊岡市",
    "city_kana": "トヨオカシ",
    "town": "引野",
    "town_kana": "ヒキノ",
    "street": null,
    "office_name": null,
    "office_name_kana": null
  },
  "0844": {
    "postcode": "6680844",
    "prefecture": "兵庫県",
    "prefecture_kana": "ヒョウゴケン",
    "prefecture_code": 28,
    "city": "豊岡市",
    "city_kana": "トヨオカシ",
    "town": "土渕",
    "town_kana": "ヒジウチ",
    "street": null,
    "office_name": null,
    "office_name_kana": null
  },
  "0851": {
    "postcode": "6680851",
    "prefecture": "兵庫県",
    "prefecture_kana": "ヒョウゴケン",
    "prefecture_code": 28,
    "city": "豊岡市",
    "city_kana": "トヨオカシ",
    "town": "今森",
    "town_kana": "イマモリ",
    "street": null,
    "office_name": null,
    "office_name_kana": null
  },
  "0852": {
    "postcode": "6680852",
    "prefecture": "兵庫県",
    "prefecture_kana": "ヒョウゴケン",
    "prefecture_code": 28,
    "city": "豊岡市",
    "city_kana": "トヨオカシ",
    "town": "江本",
    "town_kana": "エモト",
    "street": null,
    "office_name": null,
    "office_name_kana": null
  },
  "0853": {
    "postcode": "6680853",
    "prefecture": "兵庫県",
    "prefecture_kana": "ヒョウゴケン",
    "prefecture_code": 28,
    "city": "豊岡市",
    "city_kana": "トヨオカシ",
    "town": "清冷寺",
    "town_kana": "ショウレンジ",
    "street": null,
    "office_name": null,
    "office_name_kana": null
  },
  "0854": {
    "postcode": "6680854",
    "prefecture": "兵庫県",
    "prefecture_kana": "ヒョウゴケン",
    "prefecture_code": 28,
    "city": "豊岡市",
    "city_kana": "トヨオカシ",
    "town": "八社宮",
    "town_kana": "ハサミ",
    "street": null,
    "office_name": null,
    "office_name_kana": null
  },
  "0855": {
    "postcode": "6680855",
    "prefecture": "兵庫県",
    "prefecture_kana": "ヒョウゴケン",
    "prefecture_code": 28,
    "city": "豊岡市",
    "city_kana": "トヨオカシ",
    "town": "伏",
    "town_kana": "フシ",
    "street": null,
    "office_name": null,
    "office_name_kana": null
  },
  "0861": {
    "postcode": "6680861",
    "prefecture": "兵庫県",
    "prefecture_kana": "ヒョウゴケン",
    "prefecture_code": 28,
    "city": "豊岡市",
    "city_kana": "トヨオカシ",
    "town": "大篠岡",
    "town_kana": "オオシノカ",
    "street": null,
    "office_name": null,
    "office_name_kana": null
  },
  "0862": {
    "postcode": "6680862",
    "prefecture": "兵庫県",
    "prefecture_kana": "ヒョウゴケン",
    "prefecture_code": 28,
    "city": "豊岡市",
    "city_kana": "トヨオカシ",
    "town": "香住",
    "town_kana": "カスミ",
    "street": null,
    "office_name": null,
    "office_name_kana": null
  },
  "0863": {
    "postcode": "6680863",
    "prefecture": "兵庫県",
    "prefecture_kana": "ヒョウゴケン",
    "prefecture_code": 28,
    "city": "豊岡市",
    "city_kana": "トヨオカシ",
    "town": "上鉢山",
    "town_kana": "カミハチヤマ",
    "street": null,
    "office_name": null,
    "office_name_kana": null
  },
  "0864": {
    "postcode": "6680864",
    "prefecture": "兵庫県",
    "prefecture_kana": "ヒョウゴケン",
    "prefecture_code": 28,
    "city": "豊岡市",
    "city_kana": "トヨオカシ",
    "town": "木内",
    "town_kana": "キナシ",
    "street": null,
    "office_name": null,
    "office_name_kana": null
  },
  "0865": {
    "postcode": "6680865",
    "prefecture": "兵庫県",
    "prefecture_kana": "ヒョウゴケン",
    "prefecture_code": 28,
    "city": "豊岡市",
    "city_kana": "トヨオカシ",
    "town": "下鉢山",
    "town_kana": "シモハチヤマ",
    "street": null,
    "office_name": null,
    "office_name_kana": null
  },
  "0866": {
    "postcode": "6680866",
    "prefecture": "兵庫県",
    "prefecture_kana": "ヒョウゴケン",
    "prefecture_code": 28,
    "city": "豊岡市",
    "city_kana": "トヨオカシ",
    "town": "駄坂",
    "town_kana": "ダサカ",
    "street": null,
    "office_name": null,
    "office_name_kana": null
  },
  "0871": {
    "postcode": "6680871",
    "prefecture": "兵庫県",
    "prefecture_kana": "ヒョウゴケン",
    "prefecture_code": 28,
    "city": "豊岡市",
    "city_kana": "トヨオカシ",
    "town": "梶原",
    "town_kana": "カジワラ",
    "street": null,
    "office_name": null,
    "office_name_kana": null
  },
  "0872": {
    "postcode": "6680872",
    "prefecture": "兵庫県",
    "prefecture_kana": "ヒョウゴケン",
    "prefecture_code": 28,
    "city": "豊岡市",
    "city_kana": "トヨオカシ",
    "town": "河谷",
    "town_kana": "コウダニ",
    "street": null,
    "office_name": null,
    "office_name_kana": null
  },
  "0873": {
    "postcode": "6680873",
    "prefecture": "兵庫県",
    "prefecture_kana": "ヒョウゴケン",
    "prefecture_code": 28,
    "city": "豊岡市",
    "city_kana": "トヨオカシ",
    "town": "庄境",
    "town_kana": "ショウザカイ",
    "street": null,
    "office_name": null,
    "office_name_kana": null
  },
  "0874": {
    "postcode": "6680874",
    "prefecture": "兵庫県",
    "prefecture_kana": "ヒョウゴケン",
    "prefecture_code": 28,
    "city": "豊岡市",
    "city_kana": "トヨオカシ",
    "town": "中谷",
    "town_kana": "ナカノタニ",
    "street": null,
    "office_name": null,
    "office_name_kana": null
  },
  "0875": {
    "postcode": "6680875",
    "prefecture": "兵庫県",
    "prefecture_kana": "ヒョウゴケン",
    "prefecture_code": 28,
    "city": "豊岡市",
    "city_kana": "トヨオカシ",
    "town": "百合地",
    "town_kana": "ユルジ",
    "street": null,
    "office_name": null,
    "office_name_kana": null
  },
  "8501": {
    "postcode": "6688501",
    "prefecture": "兵庫県",
    "prefecture_kana": "ヒョウゴケン",
    "prefecture_code": 28,
    "city": "豊岡市",
    "city_kana": "トヨオカシ",
    "town": "戸牧",
    "town_kana": "トベラ",
    "street": "１０９４番地",
    "office_name": "公立豊岡病院組合立豊岡病院",
    "office_name_kana": "コウリツトヨオカビヨウインクミアイリツトヨオカビヨウイン"
  },
  "8562": {
    "postcode": "6688562",
    "prefecture": "兵庫県",
    "prefecture_kana": "ヒョウゴケン",
    "prefecture_code": 28,
    "city": "豊岡市",
    "city_kana": "トヨオカシ",
    "town": "上陰",
    "town_kana": "カミカゲ",
    "street": "字ウチダ２１６番地",
    "office_name": "豊岡税務署",
    "office_name_kana": "トヨオカゼイムシヨ"
  },
  "8650": {
    "postcode": "6688650",
    "prefecture": "兵庫県",
    "prefecture_kana": "ヒョウゴケン",
    "prefecture_code": 28,
    "city": "豊岡市",
    "city_kana": "トヨオカシ",
    "town": "千代田町",
    "town_kana": "チヨダチョウ",
    "street": "１−５（豊岡郵便局私書箱第５０号）",
    "office_name": "株式会社　但馬銀行",
    "office_name_kana": "カブシキガイシヤ タジマギンコウ"
  },
  "8655": {
    "postcode": "6688655",
    "prefecture": "兵庫県",
    "prefecture_kana": "ヒョウゴケン",
    "prefecture_code": 28,
    "city": "豊岡市",
    "city_kana": "トヨオカシ",
    "town": "中央町",
    "town_kana": "チュウオウマチ",
    "street": "１７−８（豊岡郵便局私書箱第３５号）",
    "office_name": "但馬信用金庫　本店",
    "office_name_kana": "タジマシンヨウキンコ ホンテン"
  },
  "8666": {
    "postcode": "6688666",
    "prefecture": "兵庫県",
    "prefecture_kana": "ヒョウゴケン",
    "prefecture_code": 28,
    "city": "豊岡市",
    "city_kana": "トヨオカシ",
    "town": "中央町",
    "town_kana": "チュウオウマチ",
    "street": "２−４（豊岡郵便局私書箱第１０号）",
    "office_name": "豊岡市",
    "office_name_kana": "トヨオカシ"
  }
}