{
  "0000": {
    "postcode": "6730000",
    "prefecture": "兵庫県",
    "prefecture_kana": "ヒョウゴケン",
    "prefecture_code": 28,
    "city": "明石市",
    "city_kana": "アカシシ",
    "town": "",
    "town_kana": "",
    "street": null,
    "office_name": null,
    "office_name_kana": null
  },
  "0001": {
    "postcode": "6730001",
    "prefecture": "兵庫県",
    "prefecture_kana": "ヒョウゴケン",
    "prefecture_code": 28,
    "city": "明石市",
    "city_kana": "アカシシ",
    "town": "明南町",
    "town_kana": "メイナンチョウ",
    "street": null,
    "office_name": null,
    "office_name_kana": null
  },
  "0002": {
    "postcode": "6730002",
    "prefecture": "兵庫県",
    "prefecture_kana": "ヒョウゴケン",
    "prefecture_code": 28,
    "city": "明石市",
    "city_kana": "アカシシ",
    "town": "旭が丘",
    "town_kana": "アサヒガオカ",
    "street": null,
    "office_name": null,
    "office_name_kana": null
  },
  "0003": {
    "postcode": "6730003",
    "prefecture": "兵庫県",
    "prefecture_kana": "ヒョウゴケン",
    "prefecture_code": 28,
    "city": "明石市",
    "city_kana": "アカシシ",
    "town": "鳥羽",
    "town_kana": "トバ",
    "street": null,
    "office_name": null,
    "office_name_kana": null
  },
  "0004": {
    "postcode": "6730004",
    "prefecture": "兵庫県",
    "prefecture_kana": "ヒョウゴケン",
    "prefecture_code": 28,
    "city": "明石市",
    "city_kana": "アカシシ",
    "town": "鳥羽弁財天",
    "town_kana": "トバベンザイテン",
    "street": null,
    "office_name": null,
    "office_name_kana": null
  },
  "0005": {
    "postcode": "6730005",
    "prefecture": "兵庫県",
    "prefecture_kana": "ヒョウゴケン",
    "prefecture_code": 28,
    "city": "明石市",
    "city_kana": "アカシシ",
    "town": "小久保",
    "town_kana": "コクボ",
    "street": null,
    "office_name": null,
    "office_name_kana": null
  },
  "0006": {
    "postcode": "6730006",
    "prefecture": "兵庫県",
    "prefecture_kana": "ヒョウゴケン",
    "prefecture_code": 28,
    "city": "明石市",
    "city_kana": "アカシシ",
    "town": "鳥羽二本松",
    "town_kana": "トバニホンマツ",
    "street": null,
    "office_name": null,
    "office_name_kana": null
  },
  "0007": {
    "postcode": "6730007",
    "prefecture": "兵庫県",
    "prefecture_kana": "ヒョウゴケン",
    "prefecture_code": 28,
    "city": "明石市",
    "city_kana": "アカシシ",
    "town": "鳥羽西鳥羽",
    "town_kana": "トバニシトバ",
    "street": null,
    "office_name": null,
    "office_name_kana": null
  },
  "0008": {
    "postcode": "6730008",
    "prefecture": "兵庫県",
    "prefecture_kana": "ヒョウゴケン",
    "prefecture_code": 28,
    "city": "明石市",
    "city_kana": "アカシシ",
    "town": "沢野",
    "town_kana": "サワノ",
    "street": null,
    "office_name": null,
    "office_name_kana": null
  },
  "0009": {
    "postcode": "6730009",
    "prefecture": "兵庫県",
    "prefecture_kana": "ヒョウゴケン",
    "prefecture_code": 28,
    "city": "明石市",
    "city_kana": "アカシシ",
    "town": "西明石東町",
    "town_kana": "ニシアカシヒガシマチ",
    "street": null,
    "office_name": null,
    "office_name_kana": null
  },
  "0011": {
    "postcode": "6730011",
    "prefecture": "兵庫県",
    "prefecture_kana": "ヒョウゴケン",
    "prefecture_code": 28,
    "city": "明石市",
    "city_kana": "アカシシ",
    "town": "西明石町",
    "town_kana": "ニシアカシチョウ",
    "street": null,
    "office_name": null,
    "office_name_kana": null
  },
  "0012": [
    {
      "postcode": "6730012",
      "prefecture": "兵庫県",
      "prefecture_kana": "ヒョウゴケン",
      "prefecture_code": 28,
      "city": "明石市",
      "city_kana": "アカシシ",
      "town": "和坂",
      "town_kana": "カニガサカ",
      "street": null,
      "office_name": null,
      "office_name_kana": null
    },
    {
      "postcode": "6730012",
      "prefecture": "兵庫県",
      "prefecture_kana": "ヒョウゴケン",
      "prefecture_code": 28,
      "city": "明石市",
      "city_kana": "アカシシ",
      "town": "和坂",
      "town_kana": "ワサカ",
      "street": null,
      "office_name": null,
      "office_name_kana": null
    }
  ],
  "0013": {
    "postcode": "6730013",
    "prefecture": "兵庫県",
    "prefecture_kana": "ヒョウゴケン",
    "prefecture_code": 28,
    "city": "明石市",
    "city_kana": "アカシシ",
    "town": "和坂稲荷町",
    "town_kana": "ワサカイナリチョウ",
    "street": null,
    "office_name": null,
    "office_name_kana": null
  },
  "0014": {
    "postcode": "6730014",
    "prefecture": "兵庫県",
    "prefecture_kana": "ヒョウゴケン",
    "prefecture_code": 28,
    "city": "明石市",
    "city_kana": "アカシシ",
    "town": "川崎町",
    "town_kana": "カワサキチョウ",
    "street": null,
    "office_name": null,
    "office_name_kana": null
  },
  "0015": {
    "postcode": "6730015",
    "prefecture": "兵庫県",
    "prefecture_kana": "ヒョウゴケン",
    "prefecture_code": 28,
    "city": "明石市",
    "city_kana": "アカシシ",
    "town": "花園町",
    "town_kana": "ハナゾノチョウ",
    "street": null,
    "office_name": null,
    "office_name_kana": null
  },
  "0016": {
    "postcode": "6730016",
    "prefecture": "兵庫県",
    "prefecture_kana": "ヒョウゴケン",
    "prefecture_code": 28,
    "city": "明石市",
    "city_kana": "アカシシ",
    "town": "松の内",
    "town_kana": "マツノウチ",
    "street": null,
    "office_name": null,
    "office_name_kana": null
  },
  "0017": {
    "postcode": "6730017",
    "prefecture": "兵庫県",
    "prefecture_kana": "ヒョウゴケン",
    "prefecture_code": 28,
    "city": "明石市",
    "city_kana": "アカシシ",
    "town": "野々上",
    "town_kana": "ノノウエ",
    "street": null,
    "office_name": null,
    "office_name_kana": null
  },
  "0018": {
    "postcode": "6730018",
    "prefecture": "兵庫県",
    "prefecture_kana": "ヒョウゴケン",
    "prefecture_code": 28,
    "city": "明石市",
    "city_kana": "アカシシ",
    "town": "西明石北町",
    "town_kana": "ニシアカシキタマチ",
    "street": null,
    "office_name": null,
    "office_name_kana": null
  },
  "0019": {
    "postcode": "6730019",
    "prefecture": "兵庫県",
    "prefecture_kana": "ヒョウゴケン",
    "prefecture_code": 28,
    "city": "明石市",
    "city_kana": "アカシシ",
    "town": "沢野南町",
    "town_kana": "サワノミナミマチ",
    "street": null,
    "office_name": null,
    "office_name_kana": null
  },
  "0021": {
    "postcode": "6730021",
    "prefecture": "兵庫県",
    "prefecture_kana": "ヒョウゴケン",
    "prefecture_code": 28,
    "city": "明石市",
    "city_kana": "アカシシ",
    "town": "北王子町",
    "town_kana": "キタオウジチョウ",
    "street": null,
    "office_name": null,
    "office_name_kana": null
  },
  "0022": {
    "postcode": "6730022",
    "prefecture": "兵庫県",
    "prefecture_kana": "ヒョウゴケン",
    "prefecture_code": 28,
    "city": "明石市",
    "city_kana": "アカシシ",
    "town": "王子",
    "town_kana": "オウジ",
    "street": null,
    "office_name": null,
    "office_name_kana": null
  },
  "0023": {
    "postcode": "6730023",
    "prefecture": "兵庫県",
    "prefecture_kana": "ヒョウゴケン",
    "prefecture_code": 28,
    "city": "明石市",
    "city_kana": "アカシシ",
    "town": "西新町",
    "town_kana": "ニシシンマチ",
    "street": null,
    "office_name": null,
    "office_name_kana": null
  },
  "0024": {
    "postcode": "6730024",
    "prefecture": "兵庫県",
    "prefecture_kana": "ヒョウゴケン",
    "prefecture_code": 28,
    "city": "明石市",
    "city_kana": "アカシシ",
    "town": "南王子町",
    "town_kana": "ミナミオウジチョウ",
    "street": null,
    "office_name": null,
    "office_name_kana": null
  },
  "0025": {
    "postcode": "6730025",
    "prefecture": "兵庫県",
    "prefecture_kana": "ヒョウゴケン",
    "prefecture_code": 28,
    "city": "明石市",
    "city_kana": "アカシシ",
    "town": "田町",
    "town_kana": "タマチ",
    "street": null,
    "office_name": null,
    "office_name_kana": null
  },
  "0026": {
    "postcode": "6730026",
    "prefecture": "兵庫県",
    "prefecture_kana": "ヒョウゴケン",
    "prefecture_code": 28,
    "city": "明石市",
    "city_kana": "アカシシ",
    "town": "船上町",
    "town_kana": "フナゲチョウ",
    "street": null,
    "office_name": null,
    "office_name_kana": null
  },
  "0027": {
    "postcode": "6730027",
    "prefecture": "兵庫県",
    "prefecture_kana": "ヒョウゴケン",
    "prefecture_code": 28,
    "city": "明石市",
    "city_kana": "アカシシ",
    "town": "新明町",
    "town_kana": "シンメイチョウ",
    "street": null,
    "office_name": null,
    "office_name_kana": null
  },
  "0028": {
    "postcode": "6730028",
    "prefecture": "兵庫県",
    "prefecture_kana": "ヒョウゴケン",
    "prefecture_code": 28,
    "city": "明石市",
    "city_kana": "アカシシ",
    "town": "硯町",
    "town_kana": "スズリチョウ",
    "street": null,
    "office_name": null,
    "office_name_kana": null
  },
  "0029": {
    "postcode": "6730029",
    "prefecture": "兵庫県",
    "prefecture_kana": "ヒョウゴケン",
    "prefecture_code": 28,
    "city": "明石市",
    "city_kana": "アカシシ",
    "town": "大道町",
    "town_kana": "ダイドウチョウ",
    "street": null,
    "office_name": null,
    "office_name_kana": null
  },
  "0031": {
    "postcode": "6730031",
    "prefecture": "兵庫県",
    "prefecture_kana": "ヒョウゴケン",
    "prefecture_code": 28,
    "city": "明石市",
    "city_kana": "アカシシ",
    "town": "宮の上",
    "town_kana": "ミヤノウエ",
    "street": null,
    "office_name": null,
    "office_name_kana": null
  },
  "0032": {
    "postcode": "6730032",
    "prefecture": "兵庫県",
    "prefecture_kana": "ヒョウゴケン",
    "prefecture_code": 28,
    "city": "明石市",
    "city_kana": "アカシシ",
    "town": "立石",
    "town_kana": "タテイシ",
    "street": null,
    "office_name": null,
    "office_name_kana": null
  },
  "0033": {
    "postcode": "6730033",
    "prefecture": "兵庫県",
    "prefecture_kana": "ヒョウゴケン",
    "prefecture_code": 28,
    "city": "明石市",
    "city_kana": "アカシシ",
    "town": "林崎町",
    "town_kana": "ハヤシサキチョウ",
    "street": null,
    "office_name": null,
    "office_name_kana": null
  },
  "0034": {
    "postcode": "6730034",
    "prefecture": "兵庫県",
    "prefecture_kana": "ヒョウゴケン",
    "prefecture_code": 28,
    "city": "明石市",
    "city_kana": "アカシシ",
    "town": "林",
    "town_kana": "ハヤシ",
    "street": null,
    "office_name": null,
    "office_name_kana": null
  },
  "0035": {
    "postcode": "6730035",
    "prefecture": "兵庫県",
    "prefecture_kana": "ヒョウゴケン",
    "prefecture_code": 28,
    "city": "明石市",
    "city_kana": "アカシシ",
    "town": "南貴崎町",
    "town_kana": "ミナミキサキチョウ",
    "street": null,
    "office_name": null,
    "office_name_kana": null
  },
  "0036": {
    "postcode": "6730036",
    "prefecture": "兵庫県",
    "prefecture_kana": "ヒョウゴケン",
    "prefecture_code": 28,
    "city": "明石市",
    "city_kana": "アカシシ",
    "town": "松江",
    "town_kana": "マツエ",
    "street": null,
    "office_name": null,
    "office_name_kana": null
  },
  "0037": {
    "postcode": "6730037",
    "prefecture": "兵庫県",
    "prefecture_kana": "ヒョウゴケン",
    "prefecture_code": 28,
    "city": "明石市",
    "city_kana": "アカシシ",
    "town": "貴崎",
    "town_kana": "キサキ",
    "street": null,
    "office_name": null,
    "office_name_kana": null
  },
  "0038": {
    "postcode": "6730038",
    "prefecture": "兵庫県",
    "prefecture_kana": "ヒョウゴケン",
    "prefecture_code": 28,
    "city": "明石市",
    "city_kana": "アカシシ",
    "town": "別所町",
    "town_kana": "ベッショチョウ",
    "street": null,
    "office_name": null,
    "office_name_kana": null
  },
  "0041": {
    "postcode": "6730041",
    "prefecture": "兵庫県",
    "prefecture_kana": "ヒョウゴケン",
    "prefecture_code": 28,
    "city": "明石市",
    "city_kana": "アカシシ",
    "town": "西明石南町",
    "town_kana": "ニシアカシミナミチョウ",
    "street": null,
    "office_name": null,
    "office_name_kana": null
  },
  "0042": {
    "postcode": "6730042",
    "prefecture": "兵庫県",
    "prefecture_kana": "ヒョウゴケン",
    "prefecture_code": 28,
    "city": "明石市",
    "city_kana": "アカシシ",
    "town": "東藤江",
    "town_kana": "ヒガシフジエ",
    "street": null,
    "office_name": null,
    "office_name_kana": null
  },
  "0043": [
    {
      "postcode": "6730043",
      "prefecture": "兵庫県",
      "prefecture_kana": "ヒョウゴケン",
      "prefecture_code": 28,
      "city": "明石市",
      "city_kana": "アカシシ",
      "town": "藤江",
      "town_kana": "フジエ",
      "street": null,
      "office_name": null,
      "office_name_kana": null
    },
    {
      "postcode": "6730043",
      "prefecture": "兵庫県",
      "prefecture_kana": "ヒョウゴケン",
      "prefecture_code": 28,
      "city": "明石市",
      "city_kana": "アカシシ",
      "town": "藤江川添",
      "town_kana": "フジエカワゾエ",
      "street": null,
      "office_name": null,
      "office_name_kana": null
    }
  ],
  "0044": {
    "postcode": "6730044",
    "prefecture": "兵庫県",
    "prefecture_kana": "ヒョウゴケン",
    "prefecture_code": 28,
    "city": "明石市",
    "city_kana": "アカシシ",
    "town": "藤江",
    "town_kana": "フジエ",
    "street": null,
    "office_name": null,
    "office_name_kana": null
  },
  "0045": [
    {
      "postcode": "6730045",
      "prefecture": "兵庫県",
      "prefecture_kana": "ヒョウゴケン",
      "prefecture_code": 28,
      "city": "明石市",
      "city_kana": "アカシシ",
      "town": "藤江",
      "town_kana": "フジエ",
      "street": null,
      "office_name": null,
      "office_name_kana": null
    },
    {
      "postcode": "6730045",
      "prefecture": "兵庫県",
      "prefecture_kana": "ヒョウゴケン",
      "prefecture_code": 28,
      "city": "明石市",
      "city_kana": "アカシシ",
      "town": "藤江若林",
      "town_kana": "フジエワカバヤシ",
      "street": null,
      "office_name": null,
      "office_name_kana": null
    }
  ],
  "0046": {
    "postcode": "6730046",
    "prefecture": "兵庫県",
    "prefecture_kana": "ヒョウゴケン",
    "prefecture_code": 28,
    "city": "明石市",
    "city_kana": "アカシシ",
    "town": "藤が丘",
    "town_kana": "フジガオカ",
    "street": null,
    "office_name": null,
    "office_name_kana": null
  },
  "0047": [
    {
      "postcode": "6730047",
      "prefecture": "兵庫県",
      "prefecture_kana": "ヒョウゴケン",
      "prefecture_code": 28,
      "city": "明石市",
      "city_kana": "アカシシ",
      "town": "藤江",
      "town_kana": "フジエ",
      "street": null,
      "office_name": null,
      "office_name_kana": null
    },
    {
      "postcode": "6730047",
      "prefecture": "兵庫県",
      "prefecture_kana": "ヒョウゴケン",
      "prefecture_code": 28,
      "city": "明石市",
      "city_kana": "アカシシ",
      "town": "藤江中谷町",
      "town_kana": "フジエナカタニチョウ",
      "street": null,
      "office_name": null,
      "office_name_kana": null
    }
  ],
  "0048": [
    {
      "postcode": "6730048",
      "prefecture": "兵庫県",
      "prefecture_kana": "ヒョウゴケン",
      "prefecture_code": 28,
      "city": "明石市",
      "city_kana": "アカシシ",
      "town": "藤江",
      "town_kana": "フジエ",
      "street": null,
      "office_name": null,
      "office_name_kana": null
    },
    {
      "postcode": "6730048",
      "prefecture": "兵庫県",
      "prefecture_kana": "ヒョウゴケン",
      "prefecture_code": 28,
      "city": "明石市",
      "city_kana": "アカシシ",
      "town": "藤江中谷山",
      "town_kana": "フジエナカタニヤマ",
      "street": null,
      "office_name": null,
      "office_name_kana": null
    }
  ],
  "0049": {
    "postcode": "6730049",
    "prefecture": "兵庫県",
    "prefecture_kana": "ヒョウゴケン",
    "prefecture_code": 28,
    "city": "明石市",
    "city_kana": "アカシシ",
    "town": "西明石西町",
    "town_kana": "ニシアカシニシマチ",
    "street": null,
    "office_name": null,
    "office_name_kana": null
  },
  "0400": {
    "postcode": "6730400",
    "prefecture": "兵庫県",
    "prefecture_kana": "ヒョウゴケン",
    "prefecture_code": 28,
    "city": "三木市",
    "city_kana": "ミキシ",
    "town": "",
    "town_kana": "",
    "street": null,
    "office_name": null,
    "office_name_kana": null
  },
  "0401": {
    "postcode": "6730401",
    "prefecture": "兵庫県",
    "prefecture_kana": "ヒョウゴケン",
    "prefecture_code": 28,
    "city": "三木市",
    "city_kana": "ミキシ",
    "town": "跡部",
    "town_kana": "アトベ",
    "street": null,
    "office_name": null,
    "office_name_kana": null
  },
  "0402": {
    "postcode": "6730402",
    "prefecture": "兵庫県",
    "prefecture_kana": "ヒョウゴケン",
    "prefecture_code": 28,
    "city": "三木市",
    "city_kana": "ミキシ",
    "town": "加佐",
    "town_kana": "カサ",
    "street": null,
    "office_name": null,
    "office_name_kana": null
  },
  "0403": {
    "postcode": "6730403",
    "prefecture": "兵庫県",
    "prefecture_kana": "ヒョウゴケン",
    "prefecture_code": 28,
    "city": "三木市",
    "city_kana": "ミキシ",
    "town": "末広",
    "town_kana": "スエヒロ",
    "street": null,
    "office_name": null,
    "office_name_kana": null
  },
  "0404": {
    "postcode": "6730404",
    "prefecture": "兵庫県",
    "prefecture_kana": "ヒョウゴケン",
    "prefecture_code": 28,
    "city": "三木市",
    "city_kana": "ミキシ",
    "town": "大村",
    "town_kana": "オオムラ",
    "street": null,
    "office_name": null,
    "office_name_kana": null
  },
  "0405": {
    "postcode": "6730405",
    "prefecture": "兵庫県",
    "prefecture_kana": "ヒョウゴケン",
    "prefecture_code": 28,
    "city": "三木市",
    "city_kana": "ミキシ",
    "town": "平田",
    "town_kana": "ヒラタ",
    "street": null,
    "office_name": null,
    "office_name_kana": null
  },
  "0411": {
    "postcode": "6730411",
    "prefecture": "兵庫県",
    "prefecture_kana": "ヒョウゴケン",
    "prefecture_code": 28,
    "city": "三木市",
    "city_kana": "ミキシ",
    "town": "久留美",
    "town_kana": "クルミ",
    "street": null,
    "office_name": null,
    "office_name_kana": null
  },
  "0412": {
    "postcode": "6730412",
    "prefecture": "兵庫県",
    "prefecture_kana": "ヒョウゴケン",
    "prefecture_code": 28,
    "city": "三木市",
    "city_kana": "ミキシ",
    "town": "岩宮",
    "town_kana": "イワミヤ",
    "street": null,
    "office_name": null,
    "office_name_kana": null
  },
  "0413": {
    "postcode": "6730413",
    "prefecture": "兵庫県",
    "prefecture_kana": "ヒョウゴケン",
    "prefecture_code": 28,
    "city": "三木市",
    "city_kana": "ミキシ",
    "town": "大塚",
    "town_kana": "オオツカ",
    "street": null,
    "office_name": null,
    "office_name_kana": null
  },
  "0414": {
    "postcode": "6730414",
    "prefecture": "兵庫県",
    "prefecture_kana": "ヒョウゴケン",
    "prefecture_code": 28,
    "city": "三木市",
    "city_kana": "ミキシ",
    "town": "芝町",
    "town_kana": "シバマチ",
    "street": null,
    "office_name": null,
    "office_name_kana": null
  },
  "0415": {
    "postcode": "6730415",
    "prefecture": "兵庫県",
    "prefecture_kana": "ヒョウゴケン",
    "prefecture_code": 28,
    "city": "三木市",
    "city_kana": "ミキシ",
    "town": "府内",
    "town_kana": "フナイ",
    "street": null,
    "office_name": null,
    "office_name_kana": null
  },
  "0416": {
    "postcode": "6730416",
    "prefecture": "兵庫県",
    "prefecture_kana": "ヒョウゴケン",
    "prefecture_code": 28,
    "city": "三木市",
    "city_kana": "ミキシ",
    "town": "府内町",
    "town_kana": "フナイチョウ",
    "street": null,
    "office_name": null,
    "office_name_kana": null
  },
  "0421": {
    "postcode": "6730421",
    "prefecture": "兵庫県",
    "prefecture_kana": "ヒョウゴケン",
    "prefecture_code": 28,
    "city": "三木市",
    "city_kana": "ミキシ",
    "town": "平井",
    "town_kana": "ヒライ",
    "street": null,
    "office_name": null,
    "office_name_kana": null
  },
  "0422": {
    "postcode": "6730422",
    "prefecture": "兵庫県",
    "prefecture_kana": "ヒョウゴケン",
    "prefecture_code": 28,
    "city": "三木市",
    "city_kana": "ミキシ",
    "town": "与呂木",
    "town_kana": "ヨロキ",
    "street": null,
    "office_name": null,
    "office_name_kana": null
  },
  "0423": {
    "postcode": "6730423",
    "prefecture": "兵庫県",
    "prefecture_kana": "ヒョウゴケン",
    "prefecture_code": 28,
    "city": "三木市",
    "city_kana": "ミキシ",
    "town": "宿原",
    "town_kana": "シュクハラ",
    "street": null,
    "office_name": null,
    "office_name_kana": null
  },
  "0424": {
    "postcode": "6730424",
    "prefecture": "兵庫県",
    "prefecture_kana": "ヒョウゴケン",
    "prefecture_code": 28,
    "city": "三木市",
    "city_kana": "ミキシ",
    "town": "自由が丘本町",
    "town_kana": "ジユウガオカホンマチ",
    "street": null,
    "office_name": null,
    "office_name_kana": null
  },
  "0425": {
    "postcode": "6730425",
    "prefecture": "兵庫県",
    "prefecture_kana": "ヒョウゴケン",
    "prefecture_code": 28,
    "city": "三木市",
    "city_kana": "ミキシ",
    "town": "君が峰町",
    "town_kana": "キミガミネチョウ",
    "street": null,
    "office_name": null,
    "office_name_kana": null
  },
  "0431": {
    "postcode": "6730431",
    "prefecture": "兵庫県",
    "prefecture_kana": "ヒョウゴケン",
    "prefecture_code": 28,
    "city": "三木市",
    "city_kana": "ミキシ",
    "town": "本町",
    "town_kana": "ホンマチ",
    "street": null,
    "office_name": null,
    "office_name_kana": null
  },
  "0432": {
    "postcode": "6730432",
    "prefecture": "兵庫県",
    "prefecture_kana": "ヒョウゴケン",
    "prefecture_code": 28,
    "city": "三木市",
    "city_kana": "ミキシ",
    "town": "上の丸町",
    "town_kana": "ウエノマルチョウ",
    "street": null,
    "office_name": null,
    "office_name_kana": null
  },
  "0433": {
    "postcode": "6730433",
    "prefecture": "兵庫県",
    "prefecture_kana": "ヒョウゴケン",
    "prefecture_code": 28,
    "city": "三木市",
    "city_kana": "ミキシ",
    "town": "福井",
    "town_kana": "フクイ",
    "street": null,
    "office_name": null,
    "office_name_kana": null
  },
  "0434": {
    "postcode": "6730434",
    "prefecture": "兵庫県",
    "prefecture_kana": "ヒョウゴケン",
    "prefecture_code": 28,
    "city": "三木市",
    "city_kana": "ミキシ",
    "town": "別所町小林",
    "town_kana": "ベッショチョウコバヤシ",
    "street": null,
    "office_name": null,
    "office_name_kana": null
  },
  "0435": {
    "postcode": "6730435",
    "prefecture": "兵庫県",
    "prefecture_kana": "ヒョウゴケン",
    "prefecture_code": 28,
    "city": "三木市",
    "city_kana": "ミキシ",
    "town": "別所町高木",
    "town_kana": "ベッショチョウタカギ",
    "street": null,
    "office_name": null,
    "office_name_kana": null
  },
  "0436": {
    "postcode": "6730436",
    "prefecture": "兵庫県",
    "prefecture_kana": "ヒョウゴケン",
    "prefecture_code": 28,
    "city": "三木市",
    "city_kana": "ミキシ",
    "town": "さつき台",
    "town_kana": "サツキダイ",
    "street": null,
    "office_name": null,
    "office_name_kana": null
  },
  "0441": {
    "postcode": "6730441",
    "prefecture": "兵庫県",
    "prefecture_kana": "ヒョウゴケン",
    "prefecture_code": 28,
    "city": "三木市",
    "city_kana": "ミキシ",
    "town": "別所町朝日ケ丘",
    "town_kana": "ベッショチョウアサヒガオカ",
    "street": null,
    "office_name": null,
    "office_name_kana": null
  },
  "0442": {
    "postcode": "6730442",
    "prefecture": "兵庫県",
    "prefecture_kana": "ヒョウゴケン",
    "prefecture_code": 28,
    "city": "三木市",
    "city_kana": "ミキシ",
    "town": "別所町興治",
    "town_kana": "ベッショチョウオキハル",
    "street": null,
    "office_name": null,
    "office_name_kana": null
  },
  "0443": {
    "postcode": "6730443",
    "prefecture": "兵庫県",
    "prefecture_kana": "ヒョウゴケン",
    "prefecture_code": 28,
    "city": "三木市",
    "city_kana": "ミキシ",
    "town": "別所町巴",
    "town_kana": "ベッショチョウトモエ",
    "street": null,
    "office_name": null,
    "office_name_kana": null
  },
  "0444": {
    "postcode": "6730444",
    "prefecture": "兵庫県",
    "prefecture_kana": "ヒョウゴケン",
    "prefecture_code": 28,
    "city": "三木市",
    "city_kana": "ミキシ",
    "town": "別所町東這田",
    "town_kana": "ベッショチョウヒガシホウダ",
    "street": null,
    "office_name": null,
    "office_name_kana": null
  },
  "0445": {
    "postcode": "6730445",
    "prefecture": "兵庫県",
    "prefecture_kana": "ヒョウゴケン",
    "prefecture_code": 28,
    "city": "三木市",
    "city_kana": "ミキシ",
    "town": "別所町西這田",
    "town_kana": "ベッショチョウニシホウダ",
    "street": null,
    "office_name": null,
    "office_name_kana": null
  },
  "0446": {
    "postcode": "6730446",
    "prefecture": "兵庫県",
    "prefecture_kana": "ヒョウゴケン",
    "prefecture_code": 28,
    "city": "三木市",
    "city_kana": "ミキシ",
    "town": "別所町花尻",
    "town_kana": "ベッショチョウハナジリ",
    "street": null,
    "office_name": null,
    "office_name_kana": null
  },
  "0451": {
    "postcode": "6730451",
    "prefecture": "兵庫県",
    "prefecture_kana": "ヒョウゴケン",
    "prefecture_code": 28,
    "city": "三木市",
    "city_kana": "ミキシ",
    "town": "別所町近藤",
    "town_kana": "ベッショチョウコンドウ",
    "street": null,
    "office_name": null,
    "office_name_kana": null
  },
  "0452": {
    "postcode": "6730452",
    "prefecture": "兵庫県",
    "prefecture_kana": "ヒョウゴケン",
    "prefecture_code": 28,
    "city": "三木市",
    "city_kana": "ミキシ",
    "town": "別所町石野",
    "town_kana": "ベッショチョウイシノ",
    "street": null,
    "office_name": null,
    "office_name_kana": null
  },
  "0453": {
    "postcode": "6730453",
    "prefecture": "兵庫県",
    "prefecture_kana": "ヒョウゴケン",
    "prefecture_code": 28,
    "city": "三木市",
    "city_kana": "ミキシ",
    "town": "別所町下石野",
    "town_kana": "ベッショチョウシモイシノ",
    "street": null,
    "office_name": null,
    "office_name_kana": null
  },
  "0454": {
    "postcode": "6730454",
    "prefecture": "兵庫県",
    "prefecture_kana": "ヒョウゴケン",
    "prefecture_code": 28,
    "city": "三木市",
    "city_kana": "ミキシ",
    "town": "別所町正法寺",
    "town_kana": "ベッショチョウショウボウジ",
    "street": null,
    "office_name": null,
    "office_name_kana": null
  },
  "0455": {
    "postcode": "6730455",
    "prefecture": "兵庫県",
    "prefecture_kana": "ヒョウゴケン",
    "prefecture_code": 28,
    "city": "三木市",
    "city_kana": "ミキシ",
    "town": "別所町和田",
    "town_kana": "ベッショチョウワダ",
    "street": null,
    "office_name": null,
    "office_name_kana": null
  },
  "0456": {
    "postcode": "6730456",
    "prefecture": "兵庫県",
    "prefecture_kana": "ヒョウゴケン",
    "prefecture_code": 28,
    "city": "三木市",
    "city_kana": "ミキシ",
    "town": "鳥町",
    "town_kana": "トリマチ",
    "street": null,
    "office_name": null,
    "office_name_kana": null
  },
  "0492": {
    "postcode": "6730492",
    "prefecture": "兵庫県",
    "prefecture_kana": "ヒョウゴケン",
    "prefecture_code": 28,
    "city": "三木市",
    "city_kana": "ミキシ",
    "town": "上の丸町",
    "town_kana": "ウエノマルチョウ",
    "street": "１０−３０",
    "office_name": "三木市役所",
    "office_name_kana": "ミキシヤクシヨ"
  },
  "0501": {
    "postcode": "6730501",
    "prefecture": "兵庫県",
    "prefecture_kana": "ヒョウゴケン",
    "prefecture_code": 28,
    "city": "三木市",
    "city_kana": "ミキシ",
    "town": "志染町吉田",
    "town_kana": "シジミチョウヨシダ",
    "street": null,
    "office_name": null,
    "office_name_kana": null
  },
  "0502": {
    "postcode": "6730502",
    "prefecture": "兵庫県",
    "prefecture_kana": "ヒョウゴケン",
    "prefecture_code": 28,
    "city": "三木市",
    "city_kana": "ミキシ",
    "town": "志染町安福田",
    "town_kana": "シジミチョウアブタ",
    "street": null,
    "office_name": null,
    "office_name_kana": null
  },
  "0503": {
    "postcode": "6730503",
    "prefecture": "兵庫県",
    "prefecture_kana": "ヒョウゴケン",
    "prefecture_code": 28,
    "city": "三木市",
    "city_kana": "ミキシ",
    "town": "志染町窟屋",
    "town_kana": "シジミチョウイワヤ",
    "street": null,
    "office_name": null,
    "office_name_kana": null
  },
  "0504": {
    "postcode": "6730504",
    "prefecture": "兵庫県",
    "prefecture_kana": "ヒョウゴケン",
    "prefecture_code": 28,
    "city": "三木市",
    "city_kana": "ミキシ",
    "town": "志染町高男寺",
    "town_kana": "シジミチョウコウナンジ",
    "street": null,
    "office_name": null,
    "office_name_kana": null
  },
  "0505": {
    "postcode": "6730505",
    "prefecture": "兵庫県",
    "prefecture_kana": "ヒョウゴケン",
    "prefecture_code": 28,
    "city": "三木市",
    "city_kana": "ミキシ",
    "town": "志染町細目",
    "town_kana": "シジミチョウホソメ",
    "street": null,
    "office_name": null,
    "office_name_kana": null
  },
  "0506": {
    "postcode": "6730506",
    "prefecture": "兵庫県",
    "prefecture_kana": "ヒョウゴケン",
    "prefecture_code": 28,
    "city": "三木市",
    "city_kana": "ミキシ",
    "town": "志染町四合谷",
    "town_kana": "シジミチョウシゴウダニ",
    "street": null,
    "office_name": null,
    "office_name_kana": null
  },
  "0511": {
    "postcode": "6730511",
    "prefecture": "兵庫県",
    "prefecture_kana": "ヒョウゴケン",
    "prefecture_code": 28,
    "city": "三木市",
    "city_kana": "ミキシ",
    "town": "志染町志染中",
    "town_kana": "シジミチョウシジミナカ",
    "street": null,
    "office_name": null,
    "office_name_kana": null
  },
  "0512": {
    "postcode": "6730512",
    "prefecture": "兵庫県",
    "prefecture_kana": "ヒョウゴケン",
    "prefecture_code": 28,
    "city": "三木市",
    "city_kana": "ミキシ",
    "town": "志染町井上",
    "town_kana": "シジミチョウイノウエ",
    "street": null,
    "office_name": null,
    "office_name_kana": null
  },
  "0513": {
    "postcode": "6730513",
    "prefecture": "兵庫県",
    "prefecture_kana": "ヒョウゴケン",
    "prefecture_code": 28,
    "city": "三木市",
    "city_kana": "ミキシ",
    "town": "志染町大谷",
    "town_kana": "シジミチョウオオタニ",
    "street": null,
    "office_name": null,
    "office_name_kana": null
  },
  "0514": {
    "postcode": "6730514",
    "prefecture": "兵庫県",
    "prefecture_kana": "ヒョウゴケン",
    "prefecture_code": 28,
    "city": "三木市",
    "city_kana": "ミキシ",
    "town": "志染町戸田",
    "town_kana": "シジミチョウトダ",
    "street": null,
    "office_name": null,
    "office_name_kana": null
  },
  "0515": {
    "postcode": "6730515",
    "prefecture": "兵庫県",
    "prefecture_kana": "ヒョウゴケン",
    "prefecture_code": 28,
    "city": "三木市",
    "city_kana": "ミキシ",
    "town": "志染町三津田",
    "town_kana": "シジミチョウミツダ",
    "street": null,
    "office_name": null,
    "office_name_kana": null
  },
  "0516": {
    "postcode": "6730516",
    "prefecture": "兵庫県",
    "prefecture_kana": "ヒョウゴケン",
    "prefecture_code": 28,
    "city": "三木市",
    "city_kana": "ミキシ",
    "town": "志染町御坂",
    "town_kana": "シジミチョウミサカ",
    "street": null,
    "office_name": null,
    "office_name_kana": null
  },
  "0521": {
    "postcode": "6730521",
    "prefecture": "兵庫県",
    "prefecture_kana": "ヒョウゴケン",
    "prefecture_code": 28,
    "city": "三木市",
    "city_kana": "ミキシ",
    "town": "志染町青山",
    "town_kana": "シジミチョウアオヤマ",
    "street": null,
    "office_name": null,
    "office_name_kana": null
  },
  "0531": {
    "postcode": "6730531",
    "prefecture": "兵庫県",
    "prefecture_kana": "ヒョウゴケン",
    "prefecture_code": 28,
    "city": "三木市",
    "city_kana": "ミキシ",
    "town": "緑が丘町西",
    "town_kana": "ミドリガオカチョウニシ",
    "street": null,
    "office_name": null,
    "office_name_kana": null
  },
  "0532": {
    "postcode": "6730532",
    "prefecture": "兵庫県",
    "prefecture_kana": "ヒョウゴケン",
    "prefecture_code": 28,
    "city": "三木市",
    "city_kana": "ミキシ",
    "town": "緑が丘町中",
    "town_kana": "ミドリガオカチョウナカ",
    "street": null,
    "office_name": null,
    "office_name_kana": null
  },
  "0533": {
    "postcode": "6730533",
    "prefecture": "兵庫県",
    "prefecture_kana": "ヒョウゴケン",
    "prefecture_code": 28,
    "city": "三木市",
    "city_kana": "ミキシ",
    "town": "緑が丘町東",
    "town_kana": "ミドリガオカチョウヒガシ",
    "street": null,
    "office_name": null,
    "office_name_kana": null
  },
  "0534": {
    "postcode": "6730534",
    "prefecture": "兵庫県",
    "prefecture_kana": "ヒョウゴケン",
    "prefecture_code": 28,
    "city": "三木市",
    "city_kana": "ミキシ",
    "town": "緑が丘町本町",
    "town_kana": "ミドリガオカチョウホンマチ",
    "street": null,
    "office_name": null,
    "office_name_kana": null
  },
  "0541": {
    "postcode": "6730541",
    "prefecture": "兵庫県",
    "prefecture_kana": "ヒョウゴケン",
    "prefecture_code": 28,
    "city": "三木市",
    "city_kana": "ミキシ",
    "town": "志染町広野",
    "town_kana": "シジミチョウヒロノ",
    "street": null,
    "office_name": null,
    "office_name_kana": null
  },
  "0551": {
    "postcode": "6730551",
    "prefecture": "兵庫県",
    "prefecture_kana": "ヒョウゴケン",
    "prefecture_code": 28,
    "city": "三木市",
    "city_kana": "ミキシ",
    "town": "志染町西自由が丘",
    "town_kana": "シジミチョウニシジユウガオカ",
    "street": null,
    "office_name": null,
    "office_name_kana": null
  },
  "0552": {
    "postcode": "6730552",
    "prefecture": "兵庫県",
    "prefecture_kana": "ヒョウゴケン",
    "prefecture_code": 28,
    "city": "三木市",
    "city_kana": "ミキシ",
    "town": "志染町中自由が丘",
    "town_kana": "シジミチョウナカジユウガオカ",
    "street": null,
    "office_name": null,
    "office_name_kana": null
  },
  "0553": {
    "postcode": "6730553",
    "prefecture": "兵庫県",
    "prefecture_kana": "ヒョウゴケン",
    "prefecture_code": 28,
    "city": "三木市",
    "city_kana": "ミキシ",
    "town": "志染町東自由が丘",
    "town_kana": "シジミチョウヒガシジユウガオカ",
    "street": null,
    "office_name": null,
    "office_name_kana": null
  },
  "0592": {
    "postcode": "6730592",
    "prefecture": "兵庫県",
    "prefecture_kana": "ヒョウゴケン",
    "prefecture_code": 28,
    "city": "三木市",
    "city_kana": "ミキシ",
    "town": "志染町青山",
    "town_kana": "シジミチョウアオヤマ",
    "street": "７丁目１−４",
    "office_name": "生活協同組合　コープこうべ",
    "office_name_kana": "セイカツキヨウドウクミアイ コ-プコウベ"
  },
  "0701": {
    "postcode": "6730701",
    "prefecture": "兵庫県",
    "prefecture_kana": "ヒョウゴケン",
    "prefecture_code": 28,
    "city": "三木市",
    "city_kana": "ミキシ",
    "town": "細川町瑞穂",
    "town_kana": "ホソカワチョウミズホ",
    "street": null,
    "office_name": null,
    "office_name_kana": null
  },
  "0702": {
    "postcode": "6730702",
    "prefecture": "兵庫県",
    "prefecture_kana": "ヒョウゴケン",
    "prefecture_code": 28,
    "city": "三木市",
    "city_kana": "ミキシ",
    "town": "細川町中里",
    "town_kana": "ホソカワチョウナカザト",
    "street": null,
    "office_name": null,
    "office_name_kana": null
  },
  "0703": {
    "postcode": "6730703",
    "prefecture": "兵庫県",
    "prefecture_kana": "ヒョウゴケン",
    "prefecture_code": 28,
    "city": "三木市",
    "city_kana": "ミキシ",
    "town": "細川町垂穂",
    "town_kana": "ホソカワチョウタルホ",
    "street": null,
    "office_name": null,
    "office_name_kana": null
  },
  "0704": {
    "postcode": "6730704",
    "prefecture": "兵庫県",
    "prefecture_kana": "ヒョウゴケン",
    "prefecture_code": 28,
    "city": "三木市",
    "city_kana": "ミキシ",
    "town": "細川町増田",
    "town_kana": "ホソカワチョウマスダ",
    "street": null,
    "office_name": null,
    "office_name_kana": null
  },
  "0711": {
    "postcode": "6730711",
    "prefecture": "兵庫県",
    "prefecture_kana": "ヒョウゴケン",
    "prefecture_code": 28,
    "city": "三木市",
    "city_kana": "ミキシ",
    "town": "細川町金屋",
    "town_kana": "ホソカワチョウカナヤ",
    "street": null,
    "office_name": null,
    "office_name_kana": null
  },
  "0712": {
    "postcode": "6730712",
    "prefecture": "兵庫県",
    "prefecture_kana": "ヒョウゴケン",
    "prefecture_code": 28,
    "city": "三木市",
    "city_kana": "ミキシ",
    "town": "細川町桃津",
    "town_kana": "ホソカワチョウモモヅ",
    "street": null,
    "office_name": null,
    "office_name_kana": null
  },
  "0713": {
    "postcode": "6730713",
    "prefecture": "兵庫県",
    "prefecture_kana": "ヒョウゴケン",
    "prefecture_code": 28,
    "city": "三木市",
    "city_kana": "ミキシ",
    "town": "細川町豊地",
    "town_kana": "ホソカワチョウトヨチ",
    "street": null,
    "office_name": null,
    "office_name_kana": null
  },
  "0714": {
    "postcode": "6730714",
    "prefecture": "兵庫県",
    "prefecture_kana": "ヒョウゴケン",
    "prefecture_code": 28,
    "city": "三木市",
    "city_kana": "ミキシ",
    "town": "細川町細川中",
    "town_kana": "ホソカワチョウホソカワナカ",
    "street": null,
    "office_name": null,
    "office_name_kana": null
  },
  "0715": {
    "postcode": "6730715",
    "prefecture": "兵庫県",
    "prefecture_kana": "ヒョウゴケン",
    "prefecture_code": 28,
    "city": "三木市",
    "city_kana": "ミキシ",
    "town": "細川町西",
    "town_kana": "ホソカワチョウニシ",
    "street": null,
    "office_name": null,
    "office_name_kana": null
  },
  "0721": {
    "postcode": "6730721",
    "prefecture": "兵庫県",
    "prefecture_kana": "ヒョウゴケン",
    "prefecture_code": 28,
    "city": "三木市",
    "city_kana": "ミキシ",
    "town": "細川町高篠",
    "town_kana": "ホソカワチョウタカシノ",
    "street": null,
    "office_name": null,
    "office_name_kana": null
  },
  "0722": {
    "postcode": "6730722",
    "prefecture": "兵庫県",
    "prefecture_kana": "ヒョウゴケン",
    "prefecture_code": 28,
    "city": "三木市",
    "city_kana": "ミキシ",
    "town": "細川町脇川",
    "town_kana": "ホソカワチョウワキガワ",
    "street": null,
    "office_name": null,
    "office_name_kana": null
  },
  "0723": {
    "postcode": "6730723",
    "prefecture": "兵庫県",
    "prefecture_kana": "ヒョウゴケン",
    "prefecture_code": 28,
    "city": "三木市",
    "city_kana": "ミキシ",
    "town": "加佐草荷野",
    "town_kana": "カサソウカノ",
    "street": null,
    "office_name": null,
    "office_name_kana": null
  },
  "0724": {
    "postcode": "6730724",
    "prefecture": "兵庫県",
    "prefecture_kana": "ヒョウゴケン",
    "prefecture_code": 28,
    "city": "三木市",
    "city_kana": "ミキシ",
    "town": "細川町高畑",
    "town_kana": "ホソカワチョウタカハタ",
    "street": null,
    "office_name": null,
    "office_name_kana": null
  },
  "0731": {
    "postcode": "6730731",
    "prefecture": "兵庫県",
    "prefecture_kana": "ヒョウゴケン",
    "prefecture_code": 28,
    "city": "三木市",
    "city_kana": "ミキシ",
    "town": "口吉川町東中",
    "town_kana": "クチヨカワチョウヒガシナカ",
    "street": null,
    "office_name": null,
    "office_name_kana": null
  },
  "0732": {
    "postcode": "6730732",
    "prefecture": "兵庫県",
    "prefecture_kana": "ヒョウゴケン",
    "prefecture_code": 28,
    "city": "三木市",
    "city_kana": "ミキシ",
    "town": "口吉川町馬場",
    "town_kana": "クチヨカワチョウババ",
    "street": null,
    "office_name": null,
    "office_name_kana": null
  },
  "0733": {
    "postcode": "6730733",
    "prefecture": "兵庫県",
    "prefecture_kana": "ヒョウゴケン",
    "prefecture_code": 28,
    "city": "三木市",
    "city_kana": "ミキシ",
    "town": "口吉川町東",
    "town_kana": "クチヨカワチョウヒガシ",
    "street": null,
    "office_name": null,
    "office_name_kana": null
  },
  "0734": {
    "postcode": "6730734",
    "prefecture": "兵庫県",
    "prefecture_kana": "ヒョウゴケン",
    "prefecture_code": 28,
    "city": "三木市",
    "city_kana": "ミキシ",
    "town": "口吉川町蓮花寺",
    "town_kana": "クチヨカワチョウレンゲジ",
    "street": null,
    "office_name": null,
    "office_name_kana": null
  },
  "0735": {
    "postcode": "6730735",
    "prefecture": "兵庫県",
    "prefecture_kana": "ヒョウゴケン",
    "prefecture_code": 28,
    "city": "三木市",
    "city_kana": "ミキシ",
    "town": "口吉川町西中",
    "town_kana": "クチヨカワチョウニシナカ",
    "street": null,
    "office_name": null,
    "office_name_kana": null
  },
  "0736": {
    "postcode": "6730736",
    "prefecture": "兵庫県",
    "prefecture_kana": "ヒョウゴケン",
    "prefecture_code": 28,
    "city": "三木市",
    "city_kana": "ミキシ",
    "town": "口吉川町桃坂",
    "town_kana": "クチヨカワチョウモモザカ",
    "street": null,
    "office_name": null,
    "office_name_kana": null
  },
  "0741": {
    "postcode": "6730741",
    "prefecture": "兵庫県",
    "prefecture_kana": "ヒョウゴケン",
    "prefecture_code": 28,
    "city": "三木市",
    "city_kana": "ミキシ",
    "town": "口吉川町殿畑",
    "town_kana": "クチヨカワチョウトノハタ",
    "street": null,
    "office_name": null,
    "office_name_kana": null
  },
  "0742": {
    "postcode": "6730742",
    "prefecture": "兵庫県",
    "prefecture_kana": "ヒョウゴケン",
    "prefecture_code": 28,
    "city": "三木市",
    "city_kana": "ミキシ",
    "town": "口吉川町保木",
    "town_kana": "クチヨカワチョウホキ",
    "street": null,
    "office_name": null,
    "office_name_kana": null
  },
  "0743": {
    "postcode": "6730743",
    "prefecture": "兵庫県",
    "prefecture_kana": "ヒョウゴケン",
    "prefecture_code": 28,
    "city": "三木市",
    "city_kana": "ミキシ",
    "town": "口吉川町桾原",
    "town_kana": "クチヨカワチョウクヌギハラ",
    "street": null,
    "office_name": null,
    "office_name_kana": null
  },
  "0751": {
    "postcode": "6730751",
    "prefecture": "兵庫県",
    "prefecture_kana": "ヒョウゴケン",
    "prefecture_code": 28,
    "city": "三木市",
    "city_kana": "ミキシ",
    "town": "口吉川町里脇",
    "town_kana": "クチヨカワチョウサトワキ",
    "street": null,
    "office_name": null,
    "office_name_kana": null
  },
  "0752": {
    "postcode": "6730752",
    "prefecture": "兵庫県",
    "prefecture_kana": "ヒョウゴケン",
    "prefecture_code": 28,
    "city": "三木市",
    "city_kana": "ミキシ",
    "town": "口吉川町吉祥寺",
    "town_kana": "クチヨカワチョウキツショウジ",
    "street": null,
    "office_name": null,
    "office_name_kana": null
  },
  "0753": {
    "postcode": "6730753",
    "prefecture": "兵庫県",
    "prefecture_kana": "ヒョウゴケン",
    "prefecture_code": 28,
    "city": "三木市",
    "city_kana": "ミキシ",
    "town": "口吉川町槇",
    "town_kana": "クチヨカワチョウマキ",
    "street": null,
    "office_name": null,
    "office_name_kana": null
  },
  "0754": {
    "postcode": "6730754",
    "prefecture": "兵庫県",
    "prefecture_kana": "ヒョウゴケン",
    "prefecture_code": 28,
    "city": "三木市",
    "city_kana": "ミキシ",
    "town": "口吉川町善祥寺",
    "town_kana": "クチヨカワチョウゼンショウジ",
    "street": null,
    "office_name": null,
    "office_name_kana": null
  },
  "0755": {
    "postcode": "6730755",
    "prefecture": "兵庫県",
    "prefecture_kana": "ヒョウゴケン",
    "prefecture_code": 28,
    "city": "三木市",
    "city_kana": "ミキシ",
    "town": "口吉川町大島",
    "town_kana": "クチヨカワチョウオオシマ",
    "street": null,
    "office_name": null,
    "office_name_kana": null
  },
  "0756": {
    "postcode": "6730756",
    "prefecture": "兵庫県",
    "prefecture_kana": "ヒョウゴケン",
    "prefecture_code": 28,
    "city": "三木市",
    "city_kana": "ミキシ",
    "town": "口吉川町南畑",
    "town_kana": "クチヨカワチョウミナミバタ",
    "street": null,
    "office_name": null,
    "office_name_kana": null
  },
  "0757": {
    "postcode": "6730757",
    "prefecture": "兵庫県",
    "prefecture_kana": "ヒョウゴケン",
    "prefecture_code": 28,
    "city": "三木市",
    "city_kana": "ミキシ",
    "town": "口吉川町笹原",
    "town_kana": "クチヨカワチョウササハラ",
    "street": null,
    "office_name": null,
    "office_name_kana": null
  },
  "0758": {
    "postcode": "6730758",
    "prefecture": "兵庫県",
    "prefecture_kana": "ヒョウゴケン",
    "prefecture_code": 28,
    "city": "三木市",
    "city_kana": "ミキシ",
    "town": "口吉川町久次",
    "town_kana": "クチヨカワチョウヒサツグ",
    "street": null,
    "office_name": null,
    "office_name_kana": null
  },
  "0841": {
    "postcode": "6730841",
    "prefecture": "兵庫県",
    "prefecture_kana": "ヒョウゴケン",
    "prefecture_code": 28,
    "city": "明石市",
    "city_kana": "アカシシ",
    "town": "太寺天王町",
    "town_kana": "タイデラテンノウチョウ",
    "street": null,
    "office_name": null,
    "office_name_kana": null
  },
  "0842": {
    "postcode": "6730842",
    "prefecture": "兵庫県",
    "prefecture_kana": "ヒョウゴケン",
    "prefecture_code": 28,
    "city": "明石市",
    "city_kana": "アカシシ",
    "town": "荷山町",
    "town_kana": "ニヤマチョウ",
    "street": null,
    "office_name": null,
    "office_name_kana": null
  },
  "0843": {
    "postcode": "6730843",
    "prefecture": "兵庫県",
    "prefecture_kana": "ヒョウゴケン",
    "prefecture_code": 28,
    "city": "明石市",
    "city_kana": "アカシシ",
    "town": "太寺大野町",
    "town_kana": "タイデラオオノチョウ",
    "street": null,
    "office_name": null,
    "office_name_kana": null
  },
  "0844": {
    "postcode": "6730844",
    "prefecture": "兵庫県",
    "prefecture_kana": "ヒョウゴケン",
    "prefecture_code": 28,
    "city": "明石市",
    "city_kana": "アカシシ",
    "town": "東野町",
    "town_kana": "ヒガシノチョウ",
    "street": null,
    "office_name": null,
    "office_name_kana": null
  },
  "0845": {
    "postcode": "6730845",
    "prefecture": "兵庫県",
    "prefecture_kana": "ヒョウゴケン",
    "prefecture_code": 28,
    "city": "明石市",
    "city_kana": "アカシシ",
    "town": "太寺",
    "town_kana": "タイデラ",
    "street": null,
    "office_name": null,
    "office_name_kana": null
  },
  "0846": {
    "postcode": "6730846",
    "prefecture": "兵庫県",
    "prefecture_kana": "ヒョウゴケン",
    "prefecture_code": 28,
    "city": "明石市",
    "city_kana": "アカシシ",
    "town": "上ノ丸",
    "town_kana": "ウエノマル",
    "street": null,
    "office_name": null,
    "office_name_kana": null
  },
  "0847": {
    "postcode": "6730847",
    "prefecture": "兵庫県",
    "prefecture_kana": "ヒョウゴケン",
    "prefecture_code": 28,
    "city": "明石市",
    "city_kana": "アカシシ",
    "town": "明石公園",
    "town_kana": "アカシコウエン",
    "street": null,
    "office_name": null,
    "office_name_kana": null
  },
  "0848": {
    "postcode": "6730848",
    "prefecture": "兵庫県",
    "prefecture_kana": "ヒョウゴケン",
    "prefecture_code": 28,
    "city": "明石市",
    "city_kana": "アカシシ",
    "town": "鷹匠町",
    "town_kana": "タカショウマチ",
    "street": null,
    "office_name": null,
    "office_name_kana": null
  },
  "0849": {
    "postcode": "6730849",
    "prefecture": "兵庫県",
    "prefecture_kana": "ヒョウゴケン",
    "prefecture_code": 28,
    "city": "明石市",
    "city_kana": "アカシシ",
    "town": "茶園場町",
    "town_kana": "サエンバチョウ",
    "street": null,
    "office_name": null,
    "office_name_kana": null
  },
  "0851": {
    "postcode": "6730851",
    "prefecture": "兵庫県",
    "prefecture_kana": "ヒョウゴケン",
    "prefecture_code": 28,
    "city": "明石市",
    "city_kana": "アカシシ",
    "town": "朝霧北町",
    "town_kana": "アサギリキタマチ",
    "street": null,
    "office_name": null,
    "office_name_kana": null
  },
  "0852": {
    "postcode": "6730852",
    "prefecture": "兵庫県",
    "prefecture_kana": "ヒョウゴケン",
    "prefecture_code": 28,
    "city": "明石市",
    "city_kana": "アカシシ",
    "town": "朝霧台",
    "town_kana": "アサギリダイ",
    "street": null,
    "office_name": null,
    "office_name_kana": null
  },
  "0853": {
    "postcode": "6730853",
    "prefecture": "兵庫県",
    "prefecture_kana": "ヒョウゴケン",
    "prefecture_code": 28,
    "city": "明石市",
    "city_kana": "アカシシ",
    "town": "朝霧山手町",
    "town_kana": "アサギリヤマテチョウ",
    "street": null,
    "office_name": null,
    "office_name_kana": null
  },
  "0854": {
    "postcode": "6730854",
    "prefecture": "兵庫県",
    "prefecture_kana": "ヒョウゴケン",
    "prefecture_code": 28,
    "city": "明石市",
    "city_kana": "アカシシ",
    "town": "東朝霧丘",
    "town_kana": "ヒガシアサギリオカ",
    "street": null,
    "office_name": null,
    "office_name_kana": null
  },
  "0855": {
    "postcode": "6730855",
    "prefecture": "兵庫県",
    "prefecture_kana": "ヒョウゴケン",
    "prefecture_code": 28,
    "city": "明石市",
    "city_kana": "アカシシ",
    "town": "中朝霧丘",
    "town_kana": "ナカアサギリオカ",
    "street": null,
    "office_name": null,
    "office_name_kana": null
  },
  "0856": {
    "postcode": "6730856",
    "prefecture": "兵庫県",
    "prefecture_kana": "ヒョウゴケン",
    "prefecture_code": 28,
    "city": "明石市",
    "city_kana": "アカシシ",
    "town": "西朝霧丘",
    "town_kana": "ニシアサギリオカ",
    "street": null,
    "office_name": null,
    "office_name_kana": null
  },
  "0857": {
    "postcode": "6730857",
    "prefecture": "兵庫県",
    "prefecture_kana": "ヒョウゴケン",
    "prefecture_code": 28,
    "city": "明石市",
    "city_kana": "アカシシ",
    "town": "北朝霧丘",
    "town_kana": "キタアサギリオカ",
    "street": null,
    "office_name": null,
    "office_name_kana": null
  },
  "0860": {
    "postcode": "6730860",
    "prefecture": "兵庫県",
    "prefecture_kana": "ヒョウゴケン",
    "prefecture_code": 28,
    "city": "明石市",
    "city_kana": "アカシシ",
    "town": "朝霧東町",
    "town_kana": "アサギリヒガシマチ",
    "street": null,
    "office_name": null,
    "office_name_kana": null
  },
  "0861": {
    "postcode": "6730861",
    "prefecture": "兵庫県",
    "prefecture_kana": "ヒョウゴケン",
    "prefecture_code": 28,
    "city": "明石市",
    "city_kana": "アカシシ",
    "town": "松が丘北町",
    "town_kana": "マツガオカキタマチ",
    "street": null,
    "office_name": null,
    "office_name_kana": null
  },
  "0862": {
    "postcode": "6730862",
    "prefecture": "兵庫県",
    "prefecture_kana": "ヒョウゴケン",
    "prefecture_code": 28,
    "city": "明石市",
    "city_kana": "アカシシ",
    "town": "松が丘",
    "town_kana": "マツガオカ",
    "street": null,
    "office_name": null,
    "office_name_kana": null
  },
  "0866": {
    "postcode": "6730866",
    "prefecture": "兵庫県",
    "prefecture_kana": "ヒョウゴケン",
    "prefecture_code": 28,
    "city": "明石市",
    "city_kana": "アカシシ",
    "town": "朝霧町",
    "town_kana": "アサギリチョウ",
    "street": null,
    "office_name": null,
    "office_name_kana": null
  },
  "0867": {
    "postcode": "6730867",
    "prefecture": "兵庫県",
    "prefecture_kana": "ヒョウゴケン",
    "prefecture_code": 28,
    "city": "明石市",
    "city_kana": "アカシシ",
    "town": "大蔵谷奥",
    "town_kana": "オオクラダニオク",
    "street": null,
    "office_name": null,
    "office_name_kana": null
  },
  "0868": {
    "postcode": "6730868",
    "prefecture": "兵庫県",
    "prefecture_kana": "ヒョウゴケン",
    "prefecture_code": 28,
    "city": "明石市",
    "city_kana": "アカシシ",
    "town": "東山町",
    "town_kana": "ヒガシヤマチョウ",
    "street": null,
    "office_name": null,
    "office_name_kana": null
  },
  "0870": {
    "postcode": "6730870",
    "prefecture": "兵庫県",
    "prefecture_kana": "ヒョウゴケン",
    "prefecture_code": 28,
    "city": "明石市",
    "city_kana": "アカシシ",
    "town": "朝霧南町",
    "town_kana": "アサギリミナミマチ",
    "street": null,
    "office_name": null,
    "office_name_kana": null
  },
  "0871": {
    "postcode": "6730871",
    "prefecture": "兵庫県",
    "prefecture_kana": "ヒョウゴケン",
    "prefecture_code": 28,
    "city": "明石市",
    "city_kana": "アカシシ",
    "town": "大蔵八幡町",
    "town_kana": "オオクラハチマンチョウ",
    "street": null,
    "office_name": null,
    "office_name_kana": null
  },
  "0872": {
    "postcode": "6730872",
    "prefecture": "兵庫県",
    "prefecture_kana": "ヒョウゴケン",
    "prefecture_code": 28,
    "city": "明石市",
    "city_kana": "アカシシ",
    "town": "大蔵町",
    "town_kana": "オオクラチョウ",
    "street": null,
    "office_name": null,
    "office_name_kana": null
  },
  "0873": {
    "postcode": "6730873",
    "prefecture": "兵庫県",
    "prefecture_kana": "ヒョウゴケン",
    "prefecture_code": 28,
    "city": "明石市",
    "city_kana": "アカシシ",
    "town": "大蔵中町",
    "town_kana": "オオクラナカマチ",
    "street": null,
    "office_name": null,
    "office_name_kana": null
  },
  "0874": {
    "postcode": "6730874",
    "prefecture": "兵庫県",
    "prefecture_kana": "ヒョウゴケン",
    "prefecture_code": 28,
    "city": "明石市",
    "city_kana": "アカシシ",
    "town": "大蔵本町",
    "town_kana": "オオクラホンマチ",
    "street": null,
    "office_name": null,
    "office_name_kana": null
  },
  "0875": {
    "postcode": "6730875",
    "prefecture": "兵庫県",
    "prefecture_kana": "ヒョウゴケン",
    "prefecture_code": 28,
    "city": "明石市",
    "city_kana": "アカシシ",
    "town": "大蔵天神町",
    "town_kana": "オオクラテンジンチョウ",
    "street": null,
    "office_name": null,
    "office_name_kana": null
  },
  "0876": {
    "postcode": "6730876",
    "prefecture": "兵庫県",
    "prefecture_kana": "ヒョウゴケン",
    "prefecture_code": 28,
    "city": "明石市",
    "city_kana": "アカシシ",
    "town": "東人丸町",
    "town_kana": "ヒガシヒトマルチョウ",
    "street": null,
    "office_name": null,
    "office_name_kana": null
  },
  "0877": {
    "postcode": "6730877",
    "prefecture": "兵庫県",
    "prefecture_kana": "ヒョウゴケン",
    "prefecture_code": 28,
    "city": "明石市",
    "city_kana": "アカシシ",
    "town": "人丸町",
    "town_kana": "ヒトマルチョウ",
    "street": null,
    "office_name": null,
    "office_name_kana": null
  },
  "0878": {
    "postcode": "6730878",
    "prefecture": "兵庫県",
    "prefecture_kana": "ヒョウゴケン",
    "prefecture_code": 28,
    "city": "明石市",
    "city_kana": "アカシシ",
    "town": "山下町",
    "town_kana": "ヤマシタチョウ",
    "street": null,
    "office_name": null,
    "office_name_kana": null
  },
  "0879": {
    "postcode": "6730879",
    "prefecture": "兵庫県",
    "prefecture_kana": "ヒョウゴケン",
    "prefecture_code": 28,
    "city": "明石市",
    "city_kana": "アカシシ",
    "town": "大蔵海岸通",
    "town_kana": "オオクラカイガンドオリ",
    "street": null,
    "office_name": null,
    "office_name_kana": null
  },
  "0881": {
    "postcode": "6730881",
    "prefecture": "兵庫県",
    "prefecture_kana": "ヒョウゴケン",
    "prefecture_code": 28,
    "city": "明石市",
    "city_kana": "アカシシ",
    "town": "天文町",
    "town_kana": "テンモンチョウ",
    "street": null,
    "office_name": null,
    "office_name_kana": null
  },
  "0882": {
    "postcode": "6730882",
    "prefecture": "兵庫県",
    "prefecture_kana": "ヒョウゴケン",
    "prefecture_code": 28,
    "city": "明石市",
    "city_kana": "アカシシ",
    "town": "相生町",
    "town_kana": "アイオイチョウ",
    "street": null,
    "office_name": null,
    "office_name_kana": null
  },
  "0883": {
    "postcode": "6730883",
    "prefecture": "兵庫県",
    "prefecture_kana": "ヒョウゴケン",
    "prefecture_code": 28,
    "city": "明石市",
    "city_kana": "アカシシ",
    "town": "中崎",
    "town_kana": "ナカサキ",
    "street": null,
    "office_name": null,
    "office_name_kana": null
  },
  "0884": {
    "postcode": "6730884",
    "prefecture": "兵庫県",
    "prefecture_kana": "ヒョウゴケン",
    "prefecture_code": 28,
    "city": "明石市",
    "city_kana": "アカシシ",
    "town": "鍛治屋町",
    "town_kana": "カジヤチョウ",
    "street": null,
    "office_name": null,
    "office_name_kana": null
  },
  "0885": {
    "postcode": "6730885",
    "prefecture": "兵庫県",
    "prefecture_kana": "ヒョウゴケン",
    "prefecture_code": 28,
    "city": "明石市",
    "city_kana": "アカシシ",
    "town": "桜町",
    "town_kana": "サクラチョウ",
    "street": null,
    "office_name": null,
    "office_name_kana": null
  },
  "0886": {
    "postcode": "6730886",
    "prefecture": "兵庫県",
    "prefecture_kana": "ヒョウゴケン",
    "prefecture_code": 28,
    "city": "明石市",
    "city_kana": "アカシシ",
    "town": "東仲ノ町",
    "town_kana": "ヒガシナカノチョウ",
    "street": null,
    "office_name": null,
    "office_name_kana": null
  },
  "0891": {
    "postcode": "6730891",
    "prefecture": "兵庫県",
    "prefecture_kana": "ヒョウゴケン",
    "prefecture_code": 28,
    "city": "明石市",
    "city_kana": "アカシシ",
    "town": "大明石町",
    "town_kana": "オオアカシチョウ",
    "street": null,
    "office_name": null,
    "office_name_kana": null
  },
  "0892": {
    "postcode": "6730892",
    "prefecture": "兵庫県",
    "prefecture_kana": "ヒョウゴケン",
    "prefecture_code": 28,
    "city": "明石市",
    "city_kana": "アカシシ",
    "town": "本町",
    "town_kana": "ホンマチ",
    "street": null,
    "office_name": null,
    "office_name_kana": null
  },
  "0893": {
    "postcode": "6730893",
    "prefecture": "兵庫県",
    "prefecture_kana": "ヒョウゴケン",
    "prefecture_code": 28,
    "city": "明石市",
    "city_kana": "アカシシ",
    "town": "材木町",
    "town_kana": "ザイモクチョウ",
    "street": null,
    "office_name": null,
    "office_name_kana": null
  },
  "0894": {
    "postcode": "6730894",
    "prefecture": "兵庫県",
    "prefecture_kana": "ヒョウゴケン",
    "prefecture_code": 28,
    "city": "明石市",
    "city_kana": "アカシシ",
    "town": "港町",
    "town_kana": "ミナトチョウ",
    "street": null,
    "office_name": null,
    "office_name_kana": null
  },
  "0895": {
    "postcode": "6730895",
    "prefecture": "兵庫県",
    "prefecture_kana": "ヒョウゴケン",
    "prefecture_code": 28,
    "city": "明石市",
    "city_kana": "アカシシ",
    "town": "岬町",
    "town_kana": "ミサキチョウ",
    "street": null,
    "office_name": null,
    "office_name_kana": null
  },
  "0896": {
    "postcode": "6730896",
    "prefecture": "兵庫県",
    "prefecture_kana": "ヒョウゴケン",
    "prefecture_code": 28,
    "city": "明石市",
    "city_kana": "アカシシ",
    "town": "日富美町",
    "town_kana": "ヒフミチョウ",
    "street": null,
    "office_name": null,
    "office_name_kana": null
  },
  "0897": {
    "postcode": "6730897",
    "prefecture": "兵庫県",
    "prefecture_kana": "ヒョウゴケン",
    "prefecture_code": 28,
    "city": "明石市",
    "city_kana": "アカシシ",
    "town": "大観町",
    "town_kana": "タイカンチョウ",
    "street": null,
    "office_name": null,
    "office_name_kana": null
  },
  "0898": {
    "postcode": "6730898",
    "prefecture": "兵庫県",
    "prefecture_kana": "ヒョウゴケン",
    "prefecture_code": 28,
    "city": "明石市",
    "city_kana": "アカシシ",
    "town": "樽屋町",
    "town_kana": "タルヤマチ",
    "street": null,
    "office_name": null,
    "office_name_kana": null
  },
  "1101": {
    "postcode": "6731101",
    "prefecture": "兵庫県",
    "prefecture_kana": "ヒョウゴケン",
    "prefecture_code": 28,
    "city": "三木市",
    "city_kana": "ミキシ",
    "town": "吉川町新田",
    "town_kana": "ヨカワチョウニッタ",
    "street": null,
    "office_name": null,
    "office_name_kana": null
  },
  "1102": {
    "postcode": "6731102",
    "prefecture": "兵庫県",
    "prefecture_kana": "ヒョウゴケン",
    "prefecture_code": 28,
    "city": "三木市",
    "city_kana": "ミキシ",
    "town": "吉川町冨岡",
    "town_kana": "ヨカワチョウトミオカ",
    "street": null,
    "office_name": null,
    "office_name_kana": null
  },
  "1103": {
    "postcode": "6731103",
    "prefecture": "兵庫県",
    "prefecture_kana": "ヒョウゴケン",
    "prefecture_code": 28,
    "city": "三木市",
    "city_kana": "ミキシ",
    "town": "吉川町前田",
    "town_kana": "ヨカワチョウマエダ",
    "street": null,
    "office_name": null,
    "office_name_kana": null
  },
  "1104": {
    "postcode": "6731104",
    "prefecture": "兵庫県",
    "prefecture_kana": "ヒョウゴケン",
    "prefecture_code": 28,
    "city": "三木市",
    "city_kana": "ミキシ",
    "town": "吉川町上中",
    "town_kana": "ヨカワチョウカミナカ",
    "street": null,
    "office_name": null,
    "office_name_kana": null
  },
  "1105": {
    "postcode": "6731105",
    "prefecture": "兵庫県",
    "prefecture_kana": "ヒョウゴケン",
    "prefecture_code": 28,
    "city": "三木市",
    "city_kana": "ミキシ",
    "town": "吉川町古川",
    "town_kana": "ヨカワチョウフルカワ",
    "street": null,
    "office_name": null,
    "office_name_kana": null
  },
  "1106": {
    "postcode": "6731106",
    "prefecture": "兵庫県",
    "prefecture_kana": "ヒョウゴケン",
    "prefecture_code": 28,
    "city": "三木市",
    "city_kana": "ミキシ",
    "town": "吉川町実楽",
    "town_kana": "ヨカワチョウジツラク",
    "street": null,
    "office_name": null,
    "office_name_kana": null
  },
  "1107": {
    "postcode": "6731107",
    "prefecture": "兵庫県",
    "prefecture_kana": "ヒョウゴケン",
    "prefecture_code": 28,
    "city": "三木市",
    "city_kana": "ミキシ",
    "town": "吉川町有安",
    "town_kana": "ヨカワチョウアリヤス",
    "street": null,
    "office_name": null,
    "office_name_kana": null
  },
  "1108": {
    "postcode": "6731108",
    "prefecture": "兵庫県",
    "prefecture_kana": "ヒョウゴケン",
    "prefecture_code": 28,
    "city": "三木市",
    "city_kana": "ミキシ",
    "town": "吉川町古市",
    "town_kana": "ヨカワチョウフルイチ",
    "street": null,
    "office_name": null,
    "office_name_kana": null
  },
  "1111": {
    "postcode": "6731111",
    "prefecture": "兵庫県",
    "prefecture_kana": "ヒョウゴケン",
    "prefecture_code": 28,
    "city": "三木市",
    "city_kana": "ミキシ",
    "town": "吉川町上荒川",
    "town_kana": "ヨカワチョウカミアラカワ",
    "street": null,
    "office_name": null,
    "office_name_kana": null
  },
  "1112": {
    "postcode": "6731112",
    "prefecture": "兵庫県",
    "prefecture_kana": "ヒョウゴケン",
    "prefecture_code": 28,
    "city": "三木市",
    "city_kana": "ミキシ",
    "town": "吉川町畑枝",
    "town_kana": "ヨカワチョウハタエダ",
    "street": null,
    "office_name": null,
    "office_name_kana": null
  },
  "1113": {
    "postcode": "6731113",
    "prefecture": "兵庫県",
    "prefecture_kana": "ヒョウゴケン",
    "prefecture_code": 28,
    "city": "三木市",
    "city_kana": "ミキシ",
    "town": "吉川町福井",
    "town_kana": "ヨカワチョウフクイ",
    "street": null,
    "office_name": null,
    "office_name_kana": null
  },
  "1114": {
    "postcode": "6731114",
    "prefecture": "兵庫県",
    "prefecture_kana": "ヒョウゴケン",
    "prefecture_code": 28,
    "city": "三木市",
    "city_kana": "ミキシ",
    "town": "吉川町吉安",
    "town_kana": "ヨカワチョウキチヤス",
    "street": null,
    "office_name": null,
    "office_name_kana": null
  },
  "1115": {
    "postcode": "6731115",
    "prefecture": "兵庫県",
    "prefecture_kana": "ヒョウゴケン",
    "prefecture_code": 28,
    "city": "三木市",
    "city_kana": "ミキシ",
    "town": "吉川町大沢",
    "town_kana": "ヨカワチョウオオソ",
    "street": null,
    "office_name": null,
    "office_name_kana": null
  },
  "1116": {
    "postcode": "6731116",
    "prefecture": "兵庫県",
    "prefecture_kana": "ヒョウゴケン",
    "prefecture_code": 28,
    "city": "三木市",
    "city_kana": "ミキシ",
    "town": "吉川町大畑",
    "town_kana": "ヨカワチョウオオハタ",
    "street": null,
    "office_name": null,
    "office_name_kana": null
  },
  "1117": {
    "postcode": "6731117",
    "prefecture": "兵庫県",
    "prefecture_kana": "ヒョウゴケン",
    "prefecture_code": 28,
    "city": "三木市",
    "city_kana": "ミキシ",
    "town": "吉川町みなぎ台",
    "town_kana": "ヨカワチョウミナギダイ",
    "street": null,
    "office_name": null,
    "office_name_kana": null
  },
  "1118": {
    "postcode": "6731118",
    "prefecture": "兵庫県",
    "prefecture_kana": "ヒョウゴケン",
    "prefecture_code": 28,
    "city": "三木市",
    "city_kana": "ミキシ",
    "town": "吉川町貸潮",
    "town_kana": "ヨカワチョウカシオ",
    "street": null,
    "office_name": null,
    "office_name_kana": null
  },
  "1119": {
    "postcode": "6731119",
    "prefecture": "兵庫県",
    "prefecture_kana": "ヒョウゴケン",
    "prefecture_code": 28,
    "city": "三木市",
    "city_kana": "ミキシ",
    "town": "吉川町鍛治屋",
    "town_kana": "ヨカワチョウカジヤ",
    "street": null,
    "office_name": null,
    "office_name_kana": null
  },
  "1121": {
    "postcode": "6731121",
    "prefecture": "兵庫県",
    "prefecture_kana": "ヒョウゴケン",
    "prefecture_code": 28,
    "city": "三木市",
    "city_kana": "ミキシ",
    "town": "吉川町米田",
    "town_kana": "ヨカワチョウヨネダ",
    "street": null,
    "office_name": null,
    "office_name_kana": null
  },
  "1122": {
    "postcode": "6731122",
    "prefecture": "兵庫県",
    "prefecture_kana": "ヒョウゴケン",
    "prefecture_code": 28,
    "city": "三木市",
    "city_kana": "ミキシ",
    "town": "吉川町西奥",
    "town_kana": "ヨカワチョウニシオク",
    "street": null,
    "office_name": null,
    "office_name_kana": null
  },
  "1123": {
    "postcode": "6731123",
    "prefecture": "兵庫県",
    "prefecture_kana": "ヒョウゴケン",
    "prefecture_code": 28,
    "city": "三木市",
    "city_kana": "ミキシ",
    "town": "吉川町湯谷",
    "town_kana": "ヨカワチョウユダニ",
    "street": null,
    "office_name": null,
    "office_name_kana": null
  },
  "1124": {
    "postcode": "6731124",
    "prefecture": "兵庫県",
    "prefecture_kana": "ヒョウゴケン",
    "prefecture_code": 28,
    "city": "三木市",
    "city_kana": "ミキシ",
    "town": "吉川町法光寺",
    "town_kana": "ヨカワチョウホウコウジ",
    "street": null,
    "office_name": null,
    "office_name_kana": null
  },
  "1125": {
    "postcode": "6731125",
    "prefecture": "兵庫県",
    "prefecture_kana": "ヒョウゴケン",
    "prefecture_code": 28,
    "city": "三木市",
    "city_kana": "ミキシ",
    "town": "吉川町田谷",
    "town_kana": "ヨカワチョウタヤ",
    "street": null,
    "office_name": null,
    "office_name_kana": null
  },
  "1126": {
    "postcode": "6731126",
    "prefecture": "兵庫県",
    "prefecture_kana": "ヒョウゴケン",
    "prefecture_code": 28,
    "city": "三木市",
    "city_kana": "ミキシ",
    "town": "吉川町上松",
    "town_kana": "ヨカワチョウウエマツ",
    "street": null,
    "office_name": null,
    "office_name_kana": null
  },
  "1127": {
    "postcode": "6731127",
    "prefecture": "兵庫県",
    "prefecture_kana": "ヒョウゴケン",
    "prefecture_code": 28,
    "city": "三木市",
    "city_kana": "ミキシ",
    "town": "吉川町長谷",
    "town_kana": "ヨカワチョウナガタニ",
    "street": null,
    "office_name": null,
    "office_name_kana": null
  },
  "1128": {
    "postcode": "6731128",
    "prefecture": "兵庫県",
    "prefecture_kana": "ヒョウゴケン",
    "prefecture_code": 28,
    "city": "三木市",
    "city_kana": "ミキシ",
    "town": "吉川町山上",
    "town_kana": "ヨカワチョウヤマノウエ",
    "street": null,
    "office_name": null,
    "office_name_kana": null
  },
  "1129": {
    "postcode": "6731129",
    "prefecture": "兵庫県",
    "prefecture_kana": "ヒョウゴケン",
    "prefecture_code": 28,
    "city": "三木市",
    "city_kana": "ミキシ",
    "town": "吉川町渡瀬",
    "town_kana": "ヨカワチョウワタセ",
    "street": null,
    "office_name": null,
    "office_name_kana": null
  },
  "1192": {
    "postcode": "6731192",
    "prefecture": "兵庫県",
    "prefecture_kana": "ヒョウゴケン",
    "prefecture_code": 28,
    "city": "三木市",
    "city_kana": "ミキシ",
    "town": "吉川町大沢",
    "town_kana": "ヨカワチョウオオソ",
    "street": "４１２番地",
    "office_name": "三木市吉川支所",
    "office_name_kana": "ミキシヨカワシシヨ"
  },
  "1231": {
    "postcode": "6731231",
    "prefecture": "兵庫県",
    "prefecture_kana": "ヒョウゴケン",
    "prefecture_code": 28,
    "city": "三木市",
    "city_kana": "ミキシ",
    "town": "吉川町稲田",
    "town_kana": "ヨカワチョウイナダ",
    "street": null,
    "office_name": null,
    "office_name_kana": null
  },
  "1232": {
    "postcode": "6731232",
    "prefecture": "兵庫県",
    "prefecture_kana": "ヒョウゴケン",
    "prefecture_code": 28,
    "city": "三木市",
    "city_kana": "ミキシ",
    "town": "吉川町金会",
    "town_kana": "ヨカワチョウキンカイ",
    "street": null,
    "office_name": null,
    "office_name_kana": null
  },
  "1233": {
    "postcode": "6731233",
    "prefecture": "兵庫県",
    "prefecture_kana": "ヒョウゴケン",
    "prefecture_code": 28,
    "city": "三木市",
    "city_kana": "ミキシ",
    "town": "吉川町毘沙門",
    "town_kana": "ヨカワチョウビシャモン",
    "street": null,
    "office_name": null,
    "office_name_kana": null
  },
  "1234": {
    "postcode": "6731234",
    "prefecture": "兵庫県",
    "prefecture_kana": "ヒョウゴケン",
    "prefecture_code": 28,
    "city": "三木市",
    "city_kana": "ミキシ",
    "town": "吉川町福吉",
    "town_kana": "ヨカワチョウフクヨシ",
    "street": null,
    "office_name": null,
    "office_name_kana": null
  },
  "1235": {
    "postcode": "6731235",
    "prefecture": "兵庫県",
    "prefecture_kana": "ヒョウゴケン",
    "prefecture_code": 28,
    "city": "三木市",
    "city_kana": "ミキシ",
    "town": "吉川町市野瀬",
    "town_kana": "ヨカワチョウイチノセ",
    "street": null,
    "office_name": null,
    "office_name_kana": null
  },
  "1236": {
    "postcode": "6731236",
    "prefecture": "兵庫県",
    "prefecture_kana": "ヒョウゴケン",
    "prefecture_code": 28,
    "city": "三木市",
    "city_kana": "ミキシ",
    "town": "吉川町東田",
    "town_kana": "ヨカワチョウヒガシダ",
    "street": null,
    "office_name": null,
    "office_name_kana": null
  },
  "1241": {
    "postcode": "6731241",
    "prefecture": "兵庫県",
    "prefecture_kana": "ヒョウゴケン",
    "prefecture_code": 28,
    "city": "三木市",
    "city_kana": "ミキシ",
    "town": "吉川町楠原",
    "town_kana": "ヨカワチョウクスハラ",
    "street": null,
    "office_name": null,
    "office_name_kana": null
  },
  "1242": {
    "postcode": "6731242",
    "prefecture": "兵庫県",
    "prefecture_kana": "ヒョウゴケン",
    "prefecture_code": 28,
    "city": "三木市",
    "city_kana": "ミキシ",
    "town": "吉川町奥谷",
    "town_kana": "ヨカワチョウオクダニ",
    "street": null,
    "office_name": null,
    "office_name_kana": null
  },
  "1243": {
    "postcode": "6731243",
    "prefecture": "兵庫県",
    "prefecture_kana": "ヒョウゴケン",
    "prefecture_code": 28,
    "city": "三木市",
    "city_kana": "ミキシ",
    "town": "吉川町豊岡",
    "town_kana": "ヨカワチョウトヨオカ",
    "street": null,
    "office_name": null,
    "office_name_kana": null
  },
  "1244": {
    "postcode": "6731244",
    "prefecture": "兵庫県",
    "prefecture_kana": "ヒョウゴケン",
    "prefecture_code": 28,
    "city": "三木市",
    "city_kana": "ミキシ",
    "town": "吉川町水上",
    "town_kana": "ヨカワチョウミズカミ",
    "street": null,
    "office_name": null,
    "office_name_kana": null
  },
  "1301": {
    "postcode": "6731301",
    "prefecture": "兵庫県",
    "prefecture_kana": "ヒョウゴケン",
    "prefecture_code": 28,
    "city": "加東市",
    "city_kana": "カトウシ",
    "town": "黒谷",
    "town_kana": "クロダニ",
    "street": null,
    "office_name": null,
    "office_name_kana": null
  },
  "1302": {
    "postcode": "6731302",
    "prefecture": "兵庫県",
    "prefecture_kana": "ヒョウゴケン",
    "prefecture_code": 28,
    "city": "加東市",
    "city_kana": "カトウシ",
    "town": "秋津",
    "town_kana": "アキツ",
    "street": null,
    "office_name": null,
    "office_name_kana": null
  },
  "1303": {
    "postcode": "6731303",
    "prefecture": "兵庫県",
    "prefecture_kana": "ヒョウゴケン",
    "prefecture_code": 28,
    "city": "加東市",
    "city_kana": "カトウシ",
    "town": "少分谷",
    "town_kana": "ショウブダニ",
    "street": null,
    "office_name": null,
    "office_name_kana": null
  },
  "1304": {
    "postcode": "6731304",
    "prefecture": "兵庫県",
    "prefecture_kana": "ヒョウゴケン",
    "prefecture_code": 28,
    "city": "加東市",
    "city_kana": "カトウシ",
    "town": "長貞",
    "town_kana": "ナガサダ",
    "street": null,
    "office_name": null,
    "office_name_kana": null
  },
  "1311": {
    "postcode": "6731311",
    "prefecture": "兵庫県",
    "prefecture_kana": "ヒョウゴケン",
    "prefecture_code": 28,
    "city": "加東市",
    "city_kana": "カトウシ",
    "town": "天神",
    "town_kana": "テンジン",
    "street": null,
    "office_name": null,
    "office_name_kana": null
  },
  "1312": {
    "postcode": "6731312",
    "prefecture": "兵庫県",
    "prefecture_kana": "ヒョウゴケン",
    "prefecture_code": 28,
    "city": "加東市",
    "city_kana": "カトウシ",
    "town": "掎鹿谷",
    "town_kana": "ハシカダニ",
    "street": null,
    "office_name": null,
    "office_name_kana": null
  },
  "1313": {
    "postcode": "6731313",
    "prefecture": "兵庫県",
    "prefecture_kana": "ヒョウゴケン",
    "prefecture_code": 28,
    "city": "加東市",
    "city_kana": "カトウシ",
    "town": "永福",
    "town_kana": "エイフク",
    "street": null,
    "office_name": null,
    "office_name_kana": null
  },
  "1314": {
    "postcode": "6731314",
    "prefecture": "兵庫県",
    "prefecture_kana": "ヒョウゴケン",
    "prefecture_code": 28,
    "city": "加東市",
    "city_kana": "カトウシ",
    "town": "横谷",
    "town_kana": "ヨコダニ",
    "street": null,
    "office_name": null,
    "office_name_kana": null
  },
  "1321": {
    "postcode": "6731321",
    "prefecture": "兵庫県",
    "prefecture_kana": "ヒョウゴケン",
    "prefecture_code": 28,
    "city": "加東市",
    "city_kana": "カトウシ",
    "town": "岩屋",
    "town_kana": "イワヤ",
    "street": null,
    "office_name": null,
    "office_name_kana": null
  },
  "1322": {
    "postcode": "6731322",
    "prefecture": "兵庫県",
    "prefecture_kana": "ヒョウゴケン",
    "prefecture_code": 28,
    "city": "加東市",
    "city_kana": "カトウシ",
    "town": "森",
    "town_kana": "モリ",
    "street": null,
    "office_name": null,
    "office_name_kana": null
  },
  "1323": {
    "postcode": "6731323",
    "prefecture": "兵庫県",
    "prefecture_kana": "ヒョウゴケン",
    "prefecture_code": 28,
    "city": "加東市",
    "city_kana": "カトウシ",
    "town": "岡本",
    "town_kana": "オカモト",
    "street": null,
    "office_name": null,
    "office_name_kana": null
  },
  "1324": {
    "postcode": "6731324",
    "prefecture": "兵庫県",
    "prefecture_kana": "ヒョウゴケン",
    "prefecture_code": 28,
    "city": "加東市",
    "city_kana": "カトウシ",
    "town": "新定",
    "town_kana": "シンジョウ",
    "street": null,
    "office_name": null,
    "office_name_kana": null
  },
  "1325": {
    "postcode": "6731325",
    "prefecture": "兵庫県",
    "prefecture_kana": "ヒョウゴケン",
    "prefecture_code": 28,
    "city": "加東市",
    "city_kana": "カトウシ",
    "town": "大畑",
    "town_kana": "オオハタ",
    "street": null,
    "office_name": null,
    "office_name_kana": null
  },
  "1331": {
    "postcode": "6731331",
    "prefecture": "兵庫県",
    "prefecture_kana": "ヒョウゴケン",
    "prefecture_code": 28,
    "city": "加東市",
    "city_kana": "カトウシ",
    "town": "森尾",
    "town_kana": "モリオ",
    "street": null,
    "office_name": null,
    "office_name_kana": null
  },
  "1332": {
    "postcode": "6731332",
    "prefecture": "兵庫県",
    "prefecture_kana": "ヒョウゴケン",
    "prefecture_code": 28,
    "city": "加東市",
    "city_kana": "カトウシ",
    "town": "栄枝",
    "town_kana": "サカエ",
    "street": null,
    "office_name": null,
    "office_name_kana": null
  },
  "1333": {
    "postcode": "6731333",
    "prefecture": "兵庫県",
    "prefecture_kana": "ヒョウゴケン",
    "prefecture_code": 28,
    "city": "加東市",
    "city_kana": "カトウシ",
    "town": "小沢",
    "town_kana": "オザワ",
    "street": null,
    "office_name": null,
    "office_name_kana": null
  },
  "1334": {
    "postcode": "6731334",
    "prefecture": "兵庫県",
    "prefecture_kana": "ヒョウゴケン",
    "prefecture_code": 28,
    "city": "加東市",
    "city_kana": "カトウシ",
    "town": "吉井",
    "town_kana": "ヨシイ",
    "street": null,
    "office_name": null,
    "office_name_kana": null
  },
  "1335": {
    "postcode": "6731335",
    "prefecture": "兵庫県",
    "prefecture_kana": "ヒョウゴケン",
    "prefecture_code": 28,
    "city": "加東市",
    "city_kana": "カトウシ",
    "town": "藪",
    "town_kana": "ヤブ",
    "street": null,
    "office_name": null,
    "office_name_kana": null
  },
  "1336": {
    "postcode": "6731336",
    "prefecture": "兵庫県",
    "prefecture_kana": "ヒョウゴケン",
    "prefecture_code": 28,
    "city": "加東市",
    "city_kana": "カトウシ",
    "town": "東垂水",
    "town_kana": "ヒガシタルミ",
    "street": null,
    "office_name": null,
    "office_name_kana": null
  },
  "1337": {
    "postcode": "6731337",
    "prefecture": "兵庫県",
    "prefecture_kana": "ヒョウゴケン",
    "prefecture_code": 28,
    "city": "加東市",
    "city_kana": "カトウシ",
    "town": "松沢",
    "town_kana": "マツザワ",
    "street": null,
    "office_name": null,
    "office_name_kana": null
  },
  "1338": {
    "postcode": "6731338",
    "prefecture": "兵庫県",
    "prefecture_kana": "ヒョウゴケン",
    "prefecture_code": 28,
    "city": "加東市",
    "city_kana": "カトウシ",
    "town": "厚利",
    "town_kana": "アツトシ",
    "street": null,
    "office_name": null,
    "office_name_kana": null
  },
  "1341": {
    "postcode": "6731341",
    "prefecture": "兵庫県",
    "prefecture_kana": "ヒョウゴケン",
    "prefecture_code": 28,
    "city": "加東市",
    "city_kana": "カトウシ",
    "town": "南山",
    "town_kana": "ミナミヤマ",
    "street": null,
    "office_name": null,
    "office_name_kana": null
  },
  "1395": {
    "postcode": "6731395",
    "prefecture": "兵庫県",
    "prefecture_kana": "ヒョウゴケン",
    "prefecture_code": 28,
    "city": "加東市",
    "city_kana": "カトウシ",
    "town": "天神",
    "town_kana": "テンジン",
    "street": "１２５",
    "office_name": "加東市役所　東条庁舎",
    "office_name_kana": "カトウシヤクシヨ トウジヨウチヨウシヤ"
  },
  "1400": {
    "postcode": "6731400",
    "prefecture": "兵庫県",
    "prefecture_kana": "ヒョウゴケン",
    "prefecture_code": 28,
    "city": "加東市",
    "city_kana": "カトウシ",
    "town": "",
    "town_kana": "",
    "street": null,
    "office_name": null,
    "office_name_kana": null
  },
  "1401": {
    "postcode": "6731401",
    "prefecture": "兵庫県",
    "prefecture_kana": "ヒョウゴケン",
    "prefecture_code": 28,
    "city": "加東市",
    "city_kana": "カトウシ",
    "town": "上鴨川",
    "town_kana": "カミカモガワ",
    "street": null,
    "office_name": null,
    "office_name_kana": null
  },
  "1402": {
    "postcode": "6731402",
    "prefecture": "兵庫県",
    "prefecture_kana": "ヒョウゴケン",
    "prefecture_code": 28,
    "city": "加東市",
    "city_kana": "カトウシ",
    "town": "平木",
    "town_kana": "ヒラキ",
    "street": null,
    "office_name": null,
    "office_name_kana": null
  },
  "1403": {
    "postcode": "6731403",
    "prefecture": "兵庫県",
    "prefecture_kana": "ヒョウゴケン",
    "prefecture_code": 28,
    "city": "加東市",
    "city_kana": "カトウシ",
    "town": "下鴨川",
    "town_kana": "シモカモガワ",
    "street": null,
    "office_name": null,
    "office_name_kana": null
  },
  "1404": {
    "postcode": "6731404",
    "prefecture": "兵庫県",
    "prefecture_kana": "ヒョウゴケン",
    "prefecture_code": 28,
    "city": "加東市",
    "city_kana": "カトウシ",
    "town": "馬瀬",
    "town_kana": "ウマゼ",
    "street": null,
    "office_name": null,
    "office_name_kana": null
  },
  "1411": {
    "postcode": "6731411",
    "prefecture": "兵庫県",
    "prefecture_kana": "ヒョウゴケン",
    "prefecture_code": 28,
    "city": "加東市",
    "city_kana": "カトウシ",
    "town": "畑",
    "town_kana": "ハタ",
    "street": null,
    "office_name": null,
    "office_name_kana": null
  },
  "1412": {
    "postcode": "6731412",
    "prefecture": "兵庫県",
    "prefecture_kana": "ヒョウゴケン",
    "prefecture_code": 28,
    "city": "加東市",
    "city_kana": "カトウシ",
    "town": "廻渕",
    "town_kana": "マワリブチ",
    "street": null,
    "office_name": null,
    "office_name_kana": null
  },
  "1413": {
    "postcode": "6731413",
    "prefecture": "兵庫県",
    "prefecture_kana": "ヒョウゴケン",
    "prefecture_code": 28,
    "city": "加東市",
    "city_kana": "カトウシ",
    "town": "池之内",
    "town_kana": "イケノウチ",
    "street": null,
    "office_name": null,
    "office_name_kana": null
  },
  "1414": {
    "postcode": "6731414",
    "prefecture": "兵庫県",
    "prefecture_kana": "ヒョウゴケン",
    "prefecture_code": 28,
    "city": "加東市",
    "city_kana": "カトウシ",
    "town": "上久米",
    "town_kana": "カミクメ",
    "street": null,
    "office_name": null,
    "office_name_kana": null
  },
  "1415": {
    "postcode": "6731415",
    "prefecture": "兵庫県",
    "prefecture_kana": "ヒョウゴケン",
    "prefecture_code": 28,
    "city": "加東市",
    "city_kana": "カトウシ",
    "town": "下久米",
    "town_kana": "シモクメ",
    "street": null,
    "office_name": null,
    "office_name_kana": null
  },
  "1416": {
    "postcode": "6731416",
    "prefecture": "兵庫県",
    "prefecture_kana": "ヒョウゴケン",
    "prefecture_code": 28,
    "city": "加東市",
    "city_kana": "カトウシ",
    "town": "久米",
    "town_kana": "クメ",
    "street": null,
    "office_name": null,
    "office_name_kana": null
  },
  "1421": {
    "postcode": "6731421",
    "prefecture": "兵庫県",
    "prefecture_kana": "ヒョウゴケン",
    "prefecture_code": 28,
    "city": "加東市",
    "city_kana": "カトウシ",
    "town": "山国",
    "town_kana": "ヤマクニ",
    "street": null,
    "office_name": null,
    "office_name_kana": null
  },
  "1422": {
    "postcode": "6731422",
    "prefecture": "兵庫県",
    "prefecture_kana": "ヒョウゴケン",
    "prefecture_code": 28,
    "city": "加東市",
    "city_kana": "カトウシ",
    "town": "屋度",
    "town_kana": "ヤド",
    "street": null,
    "office_name": null,
    "office_name_kana": null
  },
  "1423": {
    "postcode": "6731423",
    "prefecture": "兵庫県",
    "prefecture_kana": "ヒョウゴケン",
    "prefecture_code": 28,
    "city": "加東市",
    "city_kana": "カトウシ",
    "town": "東古瀬",
    "town_kana": "ヒガシゴセ",
    "street": null,
    "office_name": null,
    "office_name_kana": null
  },
  "1424": {
    "postcode": "6731424",
    "prefecture": "兵庫県",
    "prefecture_kana": "ヒョウゴケン",
    "prefecture_code": 28,
    "city": "加東市",
    "city_kana": "カトウシ",
    "town": "中古瀬",
    "town_kana": "ナカゴセ",
    "street": null,
    "office_name": null,
    "office_name_kana": null
  },
  "1425": {
    "postcode": "6731425",
    "prefecture": "兵庫県",
    "prefecture_kana": "ヒョウゴケン",
    "prefecture_code": 28,
    "city": "加東市",
    "city_kana": "カトウシ",
    "town": "西古瀬",
    "town_kana": "ニシコセ",
    "street": null,
    "office_name": null,
    "office_name_kana": null
  },
  "1431": {
    "postcode": "6731431",
    "prefecture": "兵庫県",
    "prefecture_kana": "ヒョウゴケン",
    "prefecture_code": 28,
    "city": "加東市",
    "city_kana": "カトウシ",
    "town": "社",
    "town_kana": "ヤシロ",
    "street": null,
    "office_name": null,
    "office_name_kana": null
  },
  "1432": {
    "postcode": "6731432",
    "prefecture": "兵庫県",
    "prefecture_kana": "ヒョウゴケン",
    "prefecture_code": 28,
    "city": "加東市",
    "city_kana": "カトウシ",
    "town": "ひろのが丘",
    "town_kana": "ヒロノガオカ",
    "street": null,
    "office_name": null,
    "office_name_kana": null
  },
  "1433": {
    "postcode": "6731433",
    "prefecture": "兵庫県",
    "prefecture_kana": "ヒョウゴケン",
    "prefecture_code": 28,
    "city": "加東市",
    "city_kana": "カトウシ",
    "town": "松尾",
    "town_kana": "マツオ",
    "street": null,
    "office_name": null,
    "office_name_kana": null
  },
  "1434": {
    "postcode": "6731434",
    "prefecture": "兵庫県",
    "prefecture_kana": "ヒョウゴケン",
    "prefecture_code": 28,
    "city": "加東市",
    "city_kana": "カトウシ",
    "town": "東実",
    "town_kana": "トウジツ",
    "street": null,
    "office_name": null,
    "office_name_kana": null
  },
  "1441": {
    "postcode": "6731441",
    "prefecture": "兵庫県",
    "prefecture_kana": "ヒョウゴケン",
    "prefecture_code": 28,
    "city": "加東市",
    "city_kana": "カトウシ",
    "town": "田中",
    "town_kana": "タナカ",
    "street": null,
    "office_name": null,
    "office_name_kana": null
  },
  "1442": {
    "postcode": "6731442",
    "prefecture": "兵庫県",
    "prefecture_kana": "ヒョウゴケン",
    "prefecture_code": 28,
    "city": "加東市",
    "city_kana": "カトウシ",
    "town": "出水",
    "town_kana": "イズミ",
    "street": null,
    "office_name": null,
    "office_name_kana": null
  },
  "1443": {
    "postcode": "6731443",
    "prefecture": "兵庫県",
    "prefecture_kana": "ヒョウゴケン",
    "prefecture_code": 28,
    "city": "加東市",
    "city_kana": "カトウシ",
    "town": "福吉",
    "town_kana": "フクヨシ",
    "street": null,
    "office_name": null,
    "office_name_kana": null
  },
  "1444": {
    "postcode": "6731444",
    "prefecture": "兵庫県",
    "prefecture_kana": "ヒョウゴケン",
    "prefecture_code": 28,
    "city": "加東市",
    "city_kana": "カトウシ",
    "town": "沢部",
    "town_kana": "サワベ",
    "street": null,
    "office_name": null,
    "office_name_kana": null
  },
  "1445": {
    "postcode": "6731445",
    "prefecture": "兵庫県",
    "prefecture_kana": "ヒョウゴケン",
    "prefecture_code": 28,
    "city": "加東市",
    "city_kana": "カトウシ",
    "town": "大門",
    "town_kana": "ダイモン",
    "street": null,
    "office_name": null,
    "office_name_kana": null
  },
  "1446": {
    "postcode": "6731446",
    "prefecture": "兵庫県",
    "prefecture_kana": "ヒョウゴケン",
    "prefecture_code": 28,
    "city": "加東市",
    "city_kana": "カトウシ",
    "town": "上田",
    "town_kana": "ウエダ",
    "street": null,
    "office_name": null,
    "office_name_kana": null
  },
  "1447": {
    "postcode": "6731447",
    "prefecture": "兵庫県",
    "prefecture_kana": "ヒョウゴケン",
    "prefecture_code": 28,
    "city": "加東市",
    "city_kana": "カトウシ",
    "town": "佐保",
    "town_kana": "サホ",
    "street": null,
    "office_name": null,
    "office_name_kana": null
  },
  "1451": {
    "postcode": "6731451",
    "prefecture": "兵庫県",
    "prefecture_kana": "ヒョウゴケン",
    "prefecture_code": 28,
    "city": "加東市",
    "city_kana": "カトウシ",
    "town": "家原",
    "town_kana": "イエハラ",
    "street": null,
    "office_name": null,
    "office_name_kana": null
  },
  "1452": {
    "postcode": "6731452",
    "prefecture": "兵庫県",
    "prefecture_kana": "ヒョウゴケン",
    "prefecture_code": 28,
    "city": "加東市",
    "city_kana": "カトウシ",
    "town": "鳥居",
    "town_kana": "トリイ",
    "street": null,
    "office_name": null,
    "office_name_kana": null
  },
  "1453": {
    "postcode": "6731453",
    "prefecture": "兵庫県",
    "prefecture_kana": "ヒョウゴケン",
    "prefecture_code": 28,
    "city": "加東市",
    "city_kana": "カトウシ",
    "town": "貝原",
    "town_kana": "カイハラ",
    "street": null,
    "office_name": null,
    "office_name_kana": null
  },
  "1454": {
    "postcode": "6731454",
    "prefecture": "兵庫県",
    "prefecture_kana": "ヒョウゴケン",
    "prefecture_code": 28,
    "city": "加東市",
    "city_kana": "カトウシ",
    "town": "野村",
    "town_kana": "ノムラ",
    "street": null,
    "office_name": null,
    "office_name_kana": null
  },
  "1455": {
    "postcode": "6731455",
    "prefecture": "兵庫県",
    "prefecture_kana": "ヒョウゴケン",
    "prefecture_code": 28,
    "city": "加東市",
    "city_kana": "カトウシ",
    "town": "西垂水",
    "town_kana": "ニシタルミ",
    "street": null,
    "office_name": null,
    "office_name_kana": null
  },
  "1456": {
    "postcode": "6731456",
    "prefecture": "兵庫県",
    "prefecture_kana": "ヒョウゴケン",
    "prefecture_code": 28,
    "city": "加東市",
    "city_kana": "カトウシ",
    "town": "窪田",
    "town_kana": "クボタ",
    "street": null,
    "office_name": null,
    "office_name_kana": null
  },
  "1461": {
    "postcode": "6731461",
    "prefecture": "兵庫県",
    "prefecture_kana": "ヒョウゴケン",
    "prefecture_code": 28,
    "city": "加東市",
    "city_kana": "カトウシ",
    "town": "木梨",
    "town_kana": "キナシ",
    "street": null,
    "office_name": null,
    "office_name_kana": null
  },
  "1462": {
    "postcode": "6731462",
    "prefecture": "兵庫県",
    "prefecture_kana": "ヒョウゴケン",
    "prefecture_code": 28,
    "city": "加東市",
    "city_kana": "カトウシ",
    "town": "藤田",
    "town_kana": "フジタ",
    "street": null,
    "office_name": null,
    "office_name_kana": null
  },
  "1463": {
    "postcode": "6731463",
    "prefecture": "兵庫県",
    "prefecture_kana": "ヒョウゴケン",
    "prefecture_code": 28,
    "city": "加東市",
    "city_kana": "カトウシ",
    "town": "梶原",
    "town_kana": "カジワラ",
    "street": null,
    "office_name": null,
    "office_name_kana": null
  },
  "1464": {
    "postcode": "6731464",
    "prefecture": "兵庫県",
    "prefecture_kana": "ヒョウゴケン",
    "prefecture_code": 28,
    "city": "加東市",
    "city_kana": "カトウシ",
    "town": "上中",
    "town_kana": "カミナカ",
    "street": null,
    "office_name": null,
    "office_name_kana": null
  },
  "1465": {
    "postcode": "6731465",
    "prefecture": "兵庫県",
    "prefecture_kana": "ヒョウゴケン",
    "prefecture_code": 28,
    "city": "加東市",
    "city_kana": "カトウシ",
    "town": "喜田",
    "town_kana": "キタ",
    "street": null,
    "office_name": null,
    "office_name_kana": null
  },
  "1471": {
    "postcode": "6731471",
    "prefecture": "兵庫県",
    "prefecture_kana": "ヒョウゴケン",
    "prefecture_code": 28,
    "city": "加東市",
    "city_kana": "カトウシ",
    "town": "山口",
    "town_kana": "ヤマグチ",
    "street": null,
    "office_name": null,
    "office_name_kana": null
  },
  "1472": {
    "postcode": "6731472",
    "prefecture": "兵庫県",
    "prefecture_kana": "ヒョウゴケン",
    "prefecture_code": 28,
    "city": "加東市",
    "city_kana": "カトウシ",
    "town": "上三草",
    "town_kana": "カミミクサ",
    "street": null,
    "office_name": null,
    "office_name_kana": null
  },
  "1473": {
    "postcode": "6731473",
    "prefecture": "兵庫県",
    "prefecture_kana": "ヒョウゴケン",
    "prefecture_code": 28,
    "city": "加東市",
    "city_kana": "カトウシ",
    "town": "下三草",
    "town_kana": "シモミクサ",
    "street": null,
    "office_name": null,
    "office_name_kana": null
  },
  "1474": {
    "postcode": "6731474",
    "prefecture": "兵庫県",
    "prefecture_kana": "ヒョウゴケン",
    "prefecture_code": 28,
    "city": "加東市",
    "city_kana": "カトウシ",
    "town": "牧野",
    "town_kana": "マキノ",
    "street": null,
    "office_name": null,
    "office_name_kana": null
  },
  "1475": {
    "postcode": "6731475",
    "prefecture": "兵庫県",
    "prefecture_kana": "ヒョウゴケン",
    "prefecture_code": 28,
    "city": "加東市",
    "city_kana": "カトウシ",
    "town": "吉馬",
    "town_kana": "ヨシマ",
    "street": null,
    "office_name": null,
    "office_name_kana": null
  },
  "1492": {
    "postcode": "6731492",
    "prefecture": "兵庫県",
    "prefecture_kana": "ヒョウゴケン",
    "prefecture_code": 28,
    "city": "加東市",
    "city_kana": "カトウシ",
    "town": "社",
    "town_kana": "ヤシロ",
    "street": "５１番３",
    "office_name": "社税務署",
    "office_name_kana": "ヤシロゼイムシヨ"
  },
  "1493": {
    "postcode": "6731493",
    "prefecture": "兵庫県",
    "prefecture_kana": "ヒョウゴケン",
    "prefecture_code": 28,
    "city": "加東市",
    "city_kana": "カトウシ",
    "town": "社",
    "town_kana": "ヤシロ",
    "street": "５０",
    "office_name": "加東市役所　社庁舎",
    "office_name_kana": "カトウシヤクシヨ ヤシロチヨウシヤ"
  },
  "1494": {
    "postcode": "6731494",
    "prefecture": "兵庫県",
    "prefecture_kana": "ヒョウゴケン",
    "prefecture_code": 28,
    "city": "加東市",
    "city_kana": "カトウシ",
    "town": "下久米",
    "town_kana": "シモクメ",
    "street": "９４２−１",
    "office_name": "国立大学法人　兵庫教育大学",
    "office_name_kana": "コクリツダイガクホウジン ヒヨウゴキヨウイクダイガク"
  },
  "1495": {
    "postcode": "6731495",
    "prefecture": "兵庫県",
    "prefecture_kana": "ヒョウゴケン",
    "prefecture_code": 28,
    "city": "加東市",
    "city_kana": "カトウシ",
    "town": "上三草",
    "town_kana": "カミミクサ",
    "street": "１１７５番地",
    "office_name": "加東市やしろ国際学習塾",
    "office_name_kana": "カトウシヤシロコクサイガクシユウジユク"
  },
  "8501": {
    "postcode": "6738501",
    "prefecture": "兵庫県",
    "prefecture_kana": "ヒョウゴケン",
    "prefecture_code": 28,
    "city": "明石市",
    "city_kana": "アカシシ",
    "town": "鷹匠町",
    "town_kana": "タカショウマチ",
    "street": "１番３３号",
    "office_name": "明石市立市民病院",
    "office_name_kana": "アカシシリツシミンビヨウイン"
  },
  "8511": {
    "postcode": "6738511",
    "prefecture": "兵庫県",
    "prefecture_kana": "ヒョウゴケン",
    "prefecture_code": 28,
    "city": "明石市",
    "city_kana": "アカシシ",
    "town": "東仲ノ町",
    "town_kana": "ヒガシナカノチョウ",
    "street": "２−１４",
    "office_name": "関西電力　株式会社　明石営業所",
    "office_name_kana": "カンサイデンリヨク カブシキガイシヤ アカシエイギヨウシヨ"
  },
  "8522": {
    "postcode": "6738522",
    "prefecture": "兵庫県",
    "prefecture_kana": "ヒョウゴケン",
    "prefecture_code": 28,
    "city": "明石市",
    "city_kana": "アカシシ",
    "town": "本町",
    "town_kana": "ホンマチ",
    "street": "１丁目２−２９明石追手ビル７０２号",
    "office_name": "株式会社　播磨リビング新聞社　明石支社",
    "office_name_kana": "カブシキガイシヤ ハリマリビングシンブンシヤ アカシシシヤ"
  },
  "8555": {
    "postcode": "6738555",
    "prefecture": "兵庫県",
    "prefecture_kana": "ヒョウゴケン",
    "prefecture_code": 28,
    "city": "明石市",
    "city_kana": "アカシシ",
    "town": "田町",
    "town_kana": "タマチ",
    "street": "１丁目１２番１号",
    "office_name": "明石税務署",
    "office_name_kana": "アカシゼイムシヨ"
  },
  "8585": {
    "postcode": "6738585",
    "prefecture": "兵庫県",
    "prefecture_kana": "ヒョウゴケン",
    "prefecture_code": 28,
    "city": "明石市",
    "city_kana": "アカシシ",
    "town": "荷山町",
    "town_kana": "ニヤマチョウ",
    "street": "１７４４",
    "office_name": "兵庫県立明石高等学校",
    "office_name_kana": "ヒヨウゴケンリツアカシコウトウガツコウ"
  },
  "8666": {
    "postcode": "6738666",
    "prefecture": "兵庫県",
    "prefecture_kana": "ヒョウゴケン",
    "prefecture_code": 28,
    "city": "明石市",
    "city_kana": "アカシシ",
    "town": "川崎町",
    "town_kana": "カワサキチョウ",
    "street": "１−１（明石郵便局私書箱第１６号）",
    "office_name": "川崎重工業　株式会社　明石工場",
    "office_name_kana": "カワサキジユウコウギヨウ カブシキガイシヤ アカシコウジヨウ"
  },
  "8686": {
    "postcode": "6738686",
    "prefecture": "兵庫県",
    "prefecture_kana": "ヒョウゴケン",
    "prefecture_code": 28,
    "city": "明石市",
    "city_kana": "アカシシ",
    "town": "中崎",
    "town_kana": "ナカサキ",
    "street": "１丁目５−１（明石郵便局私書箱第２０号）",
    "office_name": "明石市役所",
    "office_name_kana": "アカシシヤクシヨ"
  },
  "8688": {
    "postcode": "6738688",
    "prefecture": "兵庫県",
    "prefecture_kana": "ヒョウゴケン",
    "prefecture_code": 28,
    "city": "明石市",
    "city_kana": "アカシシ",
    "town": "茶園場町",
    "town_kana": "サエンバチョウ",
    "street": "５番２２号",
    "office_name": "大和製衡　株式会社",
    "office_name_kana": "ヤマトセイコウ カブシキガイシヤ"
  }
}