{
  "0000": [
    {
      "postcode": "6750000",
      "prefecture": "兵庫県",
      "prefecture_kana": "ヒョウゴケン",
      "prefecture_code": 28,
      "city": "加古川市",
      "city_kana": "カコガワシ",
      "town": "",
      "town_kana": "",
      "street": null,
      "office_name": null,
      "office_name_kana": null
    },
    {
      "postcode": "6750000",
      "prefecture": "兵庫県",
      "prefecture_kana": "ヒョウゴケン",
      "prefecture_code": 28,
      "city": "加西市",
      "city_kana": "カサイシ",
      "town": "",
      "town_kana": "",
      "street": null,
      "office_name": null,
      "office_name_kana": null
    }
  ],
  "0001": {
    "postcode": "6750001",
    "prefecture": "兵庫県",
    "prefecture_kana": "ヒョウゴケン",
    "prefecture_code": 28,
    "city": "加古川市",
    "city_kana": "カコガワシ",
    "town": "西条山手",
    "town_kana": "サイジョウヤマテ",
    "street": null,
    "office_name": null,
    "office_name_kana": null
  },
  "0002": {
    "postcode": "6750002",
    "prefecture": "兵庫県",
    "prefecture_kana": "ヒョウゴケン",
    "prefecture_code": 28,
    "city": "加古川市",
    "city_kana": "カコガワシ",
    "town": "山手",
    "town_kana": "ヤマテ",
    "street": null,
    "office_name": null,
    "office_name_kana": null
  },
  "0003": {
    "postcode": "6750003",
    "prefecture": "兵庫県",
    "prefecture_kana": "ヒョウゴケン",
    "prefecture_code": 28,
    "city": "加古川市",
    "city_kana": "カコガワシ",
    "town": "神野町神野",
    "town_kana": "カンノチョウカンノ",
    "street": null,
    "office_name": null,
    "office_name_kana": null
  },
  "0004": {
    "postcode": "6750004",
    "prefecture": "兵庫県",
    "prefecture_kana": "ヒョウゴケン",
    "prefecture_code": 28,
    "city": "加古川市",
    "city_kana": "カコガワシ",
    "town": "神野町福留",
    "town_kana": "カンノチョウフクドメ",
    "street": null,
    "office_name": null,
    "office_name_kana": null
  },
  "0005": {
    "postcode": "6750005",
    "prefecture": "兵庫県",
    "prefecture_kana": "ヒョウゴケン",
    "prefecture_code": 28,
    "city": "加古川市",
    "city_kana": "カコガワシ",
    "town": "神野町石守",
    "town_kana": "カンノチョウイシモリ",
    "street": null,
    "office_name": null,
    "office_name_kana": null
  },
  "0006": {
    "postcode": "6750006",
    "prefecture": "兵庫県",
    "prefecture_kana": "ヒョウゴケン",
    "prefecture_code": 28,
    "city": "加古川市",
    "city_kana": "カコガワシ",
    "town": "神野町日岡苑",
    "town_kana": "カンノチョウヒオカエン",
    "street": null,
    "office_name": null,
    "office_name_kana": null
  },
  "0007": {
    "postcode": "6750007",
    "prefecture": "兵庫県",
    "prefecture_kana": "ヒョウゴケン",
    "prefecture_code": 28,
    "city": "加古川市",
    "city_kana": "カコガワシ",
    "town": "神野町西之山",
    "town_kana": "カンノチョウニシノヤマ",
    "street": null,
    "office_name": null,
    "office_name_kana": null
  },
  "0008": {
    "postcode": "6750008",
    "prefecture": "兵庫県",
    "prefecture_kana": "ヒョウゴケン",
    "prefecture_code": 28,
    "city": "加古川市",
    "city_kana": "カコガワシ",
    "town": "新神野",
    "town_kana": "シンカンノ",
    "street": null,
    "office_name": null,
    "office_name_kana": null
  },
  "0009": {
    "postcode": "6750009",
    "prefecture": "兵庫県",
    "prefecture_kana": "ヒョウゴケン",
    "prefecture_code": 28,
    "city": "加古川市",
    "city_kana": "カコガワシ",
    "town": "神野町西条",
    "town_kana": "カンノチョウサイジョウ",
    "street": null,
    "office_name": null,
    "office_name_kana": null
  },
  "0010": {
    "postcode": "6750010",
    "prefecture": "兵庫県",
    "prefecture_kana": "ヒョウゴケン",
    "prefecture_code": 28,
    "city": "加古川市",
    "city_kana": "カコガワシ",
    "town": "野口町坂元北",
    "town_kana": "ノグチチョウサカモトキタ",
    "street": null,
    "office_name": null,
    "office_name_kana": null
  },
  "0011": {
    "postcode": "6750011",
    "prefecture": "兵庫県",
    "prefecture_kana": "ヒョウゴケン",
    "prefecture_code": 28,
    "city": "加古川市",
    "city_kana": "カコガワシ",
    "town": "野口町北野",
    "town_kana": "ノグチチョウキタノ",
    "street": null,
    "office_name": null,
    "office_name_kana": null
  },
  "0012": {
    "postcode": "6750012",
    "prefecture": "兵庫県",
    "prefecture_kana": "ヒョウゴケン",
    "prefecture_code": 28,
    "city": "加古川市",
    "city_kana": "カコガワシ",
    "town": "野口町野口",
    "town_kana": "ノグチチョウノグチ",
    "street": null,
    "office_name": null,
    "office_name_kana": null
  },
  "0013": {
    "postcode": "6750013",
    "prefecture": "兵庫県",
    "prefecture_kana": "ヒョウゴケン",
    "prefecture_code": 28,
    "city": "加古川市",
    "city_kana": "カコガワシ",
    "town": "野口町二屋",
    "town_kana": "ノグチチョウフタヤ",
    "street": null,
    "office_name": null,
    "office_name_kana": null
  },
  "0014": {
    "postcode": "6750014",
    "prefecture": "兵庫県",
    "prefecture_kana": "ヒョウゴケン",
    "prefecture_code": 28,
    "city": "加古川市",
    "city_kana": "カコガワシ",
    "town": "野口町古大内",
    "town_kana": "ノグチチョウフルオウチ",
    "street": null,
    "office_name": null,
    "office_name_kana": null
  },
  "0015": {
    "postcode": "6750015",
    "prefecture": "兵庫県",
    "prefecture_kana": "ヒョウゴケン",
    "prefecture_code": 28,
    "city": "加古川市",
    "city_kana": "カコガワシ",
    "town": "野口町坂井",
    "town_kana": "ノグチチョウサカイ",
    "street": null,
    "office_name": null,
    "office_name_kana": null
  },
  "0016": {
    "postcode": "6750016",
    "prefecture": "兵庫県",
    "prefecture_kana": "ヒョウゴケン",
    "prefecture_code": 28,
    "city": "加古川市",
    "city_kana": "カコガワシ",
    "town": "野口町長砂",
    "town_kana": "ノグチチョウナガスナ",
    "street": null,
    "office_name": null,
    "office_name_kana": null
  },
  "0017": {
    "postcode": "6750017",
    "prefecture": "兵庫県",
    "prefecture_kana": "ヒョウゴケン",
    "prefecture_code": 28,
    "city": "加古川市",
    "city_kana": "カコガワシ",
    "town": "野口町良野",
    "town_kana": "ノグチチョウヨシノ",
    "street": null,
    "office_name": null,
    "office_name_kana": null
  },
  "0018": {
    "postcode": "6750018",
    "prefecture": "兵庫県",
    "prefecture_kana": "ヒョウゴケン",
    "prefecture_code": 28,
    "city": "加古川市",
    "city_kana": "カコガワシ",
    "town": "野口町坂元",
    "town_kana": "ノグチチョウサカモト",
    "street": null,
    "office_name": null,
    "office_name_kana": null
  },
  "0019": {
    "postcode": "6750019",
    "prefecture": "兵庫県",
    "prefecture_kana": "ヒョウゴケン",
    "prefecture_code": 28,
    "city": "加古川市",
    "city_kana": "カコガワシ",
    "town": "野口町水足",
    "town_kana": "ノグチチョウミズアシ",
    "street": null,
    "office_name": null,
    "office_name_kana": null
  },
  "0021": {
    "postcode": "6750021",
    "prefecture": "兵庫県",
    "prefecture_kana": "ヒョウゴケン",
    "prefecture_code": 28,
    "city": "加古川市",
    "city_kana": "カコガワシ",
    "town": "尾上町安田",
    "town_kana": "オノエチョウヤスタ",
    "street": null,
    "office_name": null,
    "office_name_kana": null
  },
  "0022": {
    "postcode": "6750022",
    "prefecture": "兵庫県",
    "prefecture_kana": "ヒョウゴケン",
    "prefecture_code": 28,
    "city": "加古川市",
    "city_kana": "カコガワシ",
    "town": "尾上町口里",
    "town_kana": "オノエチョウクチリ",
    "street": null,
    "office_name": null,
    "office_name_kana": null
  },
  "0023": {
    "postcode": "6750023",
    "prefecture": "兵庫県",
    "prefecture_kana": "ヒョウゴケン",
    "prefecture_code": 28,
    "city": "加古川市",
    "city_kana": "カコガワシ",
    "town": "尾上町池田",
    "town_kana": "オノエチョウイケダ",
    "street": null,
    "office_name": null,
    "office_name_kana": null
  },
  "0024": {
    "postcode": "6750024",
    "prefecture": "兵庫県",
    "prefecture_kana": "ヒョウゴケン",
    "prefecture_code": 28,
    "city": "加古川市",
    "city_kana": "カコガワシ",
    "town": "尾上町長田",
    "town_kana": "オノエチョウナガタ",
    "street": null,
    "office_name": null,
    "office_name_kana": null
  },
  "0025": {
    "postcode": "6750025",
    "prefecture": "兵庫県",
    "prefecture_kana": "ヒョウゴケン",
    "prefecture_code": 28,
    "city": "加古川市",
    "city_kana": "カコガワシ",
    "town": "尾上町養田",
    "town_kana": "オノエチョウヨウタ",
    "street": null,
    "office_name": null,
    "office_name_kana": null
  },
  "0026": {
    "postcode": "6750026",
    "prefecture": "兵庫県",
    "prefecture_kana": "ヒョウゴケン",
    "prefecture_code": 28,
    "city": "加古川市",
    "city_kana": "カコガワシ",
    "town": "尾上町旭",
    "town_kana": "オノエチョウアサヒ",
    "street": null,
    "office_name": null,
    "office_name_kana": null
  },
  "0027": {
    "postcode": "6750027",
    "prefecture": "兵庫県",
    "prefecture_kana": "ヒョウゴケン",
    "prefecture_code": 28,
    "city": "加古川市",
    "city_kana": "カコガワシ",
    "town": "尾上町今福",
    "town_kana": "オノエチョウイマフク",
    "street": null,
    "office_name": null,
    "office_name_kana": null
  },
  "0031": {
    "postcode": "6750031",
    "prefecture": "兵庫県",
    "prefecture_kana": "ヒョウゴケン",
    "prefecture_code": 28,
    "city": "加古川市",
    "city_kana": "カコガワシ",
    "town": "加古川町北在家",
    "town_kana": "カコガワチョウキタザイケ",
    "street": null,
    "office_name": null,
    "office_name_kana": null
  },
  "0032": {
    "postcode": "6750032",
    "prefecture": "兵庫県",
    "prefecture_kana": "ヒョウゴケン",
    "prefecture_code": 28,
    "city": "加古川市",
    "city_kana": "カコガワシ",
    "town": "加古川町備後",
    "town_kana": "カコガワチョウビンゴ",
    "street": null,
    "office_name": null,
    "office_name_kana": null
  },
  "0033": {
    "postcode": "6750033",
    "prefecture": "兵庫県",
    "prefecture_kana": "ヒョウゴケン",
    "prefecture_code": 28,
    "city": "加古川市",
    "city_kana": "カコガワシ",
    "town": "加古川町南備後",
    "town_kana": "カコガワチョウミナミビンゴ",
    "street": null,
    "office_name": null,
    "office_name_kana": null
  },
  "0034": {
    "postcode": "6750034",
    "prefecture": "兵庫県",
    "prefecture_kana": "ヒョウゴケン",
    "prefecture_code": 28,
    "city": "加古川市",
    "city_kana": "カコガワシ",
    "town": "加古川町稲屋",
    "town_kana": "カコガワチョウイナヤ",
    "street": null,
    "office_name": null,
    "office_name_kana": null
  },
  "0035": {
    "postcode": "6750035",
    "prefecture": "兵庫県",
    "prefecture_kana": "ヒョウゴケン",
    "prefecture_code": 28,
    "city": "加古川市",
    "city_kana": "カコガワシ",
    "town": "加古川町友沢",
    "town_kana": "カコガワチョウトモサワ",
    "street": null,
    "office_name": null,
    "office_name_kana": null
  },
  "0036": {
    "postcode": "6750036",
    "prefecture": "兵庫県",
    "prefecture_kana": "ヒョウゴケン",
    "prefecture_code": 28,
    "city": "加古川市",
    "city_kana": "カコガワシ",
    "town": "加古川町西河原",
    "town_kana": "カコガワチョウニシガワラ",
    "street": null,
    "office_name": null,
    "office_name_kana": null
  },
  "0037": {
    "postcode": "6750037",
    "prefecture": "兵庫県",
    "prefecture_kana": "ヒョウゴケン",
    "prefecture_code": 28,
    "city": "加古川市",
    "city_kana": "カコガワシ",
    "town": "加古川町本町",
    "town_kana": "カコガワチョウホンマチ",
    "street": null,
    "office_name": null,
    "office_name_kana": null
  },
  "0038": {
    "postcode": "6750038",
    "prefecture": "兵庫県",
    "prefecture_kana": "ヒョウゴケン",
    "prefecture_code": 28,
    "city": "加古川市",
    "city_kana": "カコガワシ",
    "town": "加古川町木村",
    "town_kana": "カコガワチョウキムラ",
    "street": null,
    "office_name": null,
    "office_name_kana": null
  },
  "0039": {
    "postcode": "6750039",
    "prefecture": "兵庫県",
    "prefecture_kana": "ヒョウゴケン",
    "prefecture_code": 28,
    "city": "加古川市",
    "city_kana": "カコガワシ",
    "town": "加古川町粟津",
    "town_kana": "カコガワチョウアワヅ",
    "street": null,
    "office_name": null,
    "office_name_kana": null
  },
  "0041": {
    "postcode": "6750041",
    "prefecture": "兵庫県",
    "prefecture_kana": "ヒョウゴケン",
    "prefecture_code": 28,
    "city": "加古川市",
    "city_kana": "カコガワシ",
    "town": "西神吉町宮前",
    "town_kana": "ニシカンキチョウミヤマエ",
    "street": null,
    "office_name": null,
    "office_name_kana": null
  },
  "0042": {
    "postcode": "6750042",
    "prefecture": "兵庫県",
    "prefecture_kana": "ヒョウゴケン",
    "prefecture_code": 28,
    "city": "加古川市",
    "city_kana": "カコガワシ",
    "town": "西神吉町西村",
    "town_kana": "ニシカンキチョウニシムラ",
    "street": null,
    "office_name": null,
    "office_name_kana": null
  },
  "0043": {
    "postcode": "6750043",
    "prefecture": "兵庫県",
    "prefecture_kana": "ヒョウゴケン",
    "prefecture_code": 28,
    "city": "加古川市",
    "city_kana": "カコガワシ",
    "town": "西神吉町中西",
    "town_kana": "ニシカンキチョウナカニシ",
    "street": null,
    "office_name": null,
    "office_name_kana": null
  },
  "0044": {
    "postcode": "6750044",
    "prefecture": "兵庫県",
    "prefecture_kana": "ヒョウゴケン",
    "prefecture_code": 28,
    "city": "加古川市",
    "city_kana": "カコガワシ",
    "town": "西神吉町大国",
    "town_kana": "ニシカンキチョウオオグニ",
    "street": null,
    "office_name": null,
    "office_name_kana": null
  },
  "0045": {
    "postcode": "6750045",
    "prefecture": "兵庫県",
    "prefecture_kana": "ヒョウゴケン",
    "prefecture_code": 28,
    "city": "加古川市",
    "city_kana": "カコガワシ",
    "town": "西神吉町岸",
    "town_kana": "ニシカンキチョウキシ",
    "street": null,
    "office_name": null,
    "office_name_kana": null
  },
  "0046": {
    "postcode": "6750046",
    "prefecture": "兵庫県",
    "prefecture_kana": "ヒョウゴケン",
    "prefecture_code": 28,
    "city": "加古川市",
    "city_kana": "カコガワシ",
    "town": "西神吉町辻",
    "town_kana": "ニシカンキチョウツジ",
    "street": null,
    "office_name": null,
    "office_name_kana": null
  },
  "0047": {
    "postcode": "6750047",
    "prefecture": "兵庫県",
    "prefecture_kana": "ヒョウゴケン",
    "prefecture_code": 28,
    "city": "加古川市",
    "city_kana": "カコガワシ",
    "town": "西神吉町鼎",
    "town_kana": "ニシカンキチョウカナエ",
    "street": null,
    "office_name": null,
    "office_name_kana": null
  },
  "0051": {
    "postcode": "6750051",
    "prefecture": "兵庫県",
    "prefecture_kana": "ヒョウゴケン",
    "prefecture_code": 28,
    "city": "加古川市",
    "city_kana": "カコガワシ",
    "town": "東神吉町升田",
    "town_kana": "ヒガシカンキチョウマスダ",
    "street": null,
    "office_name": null,
    "office_name_kana": null
  },
  "0052": {
    "postcode": "6750052",
    "prefecture": "兵庫県",
    "prefecture_kana": "ヒョウゴケン",
    "prefecture_code": 28,
    "city": "加古川市",
    "city_kana": "カコガワシ",
    "town": "東神吉町出河原",
    "town_kana": "ヒガシカンキチョウデガハラ",
    "street": null,
    "office_name": null,
    "office_name_kana": null
  },
  "0053": {
    "postcode": "6750053",
    "prefecture": "兵庫県",
    "prefecture_kana": "ヒョウゴケン",
    "prefecture_code": 28,
    "city": "加古川市",
    "city_kana": "カコガワシ",
    "town": "米田町船頭",
    "town_kana": "ヨネダチョウセンドウ",
    "street": null,
    "office_name": null,
    "office_name_kana": null
  },
  "0054": {
    "postcode": "6750054",
    "prefecture": "兵庫県",
    "prefecture_kana": "ヒョウゴケン",
    "prefecture_code": 28,
    "city": "加古川市",
    "city_kana": "カコガワシ",
    "town": "米田町平津",
    "town_kana": "ヨネダチョウヒラツ",
    "street": null,
    "office_name": null,
    "office_name_kana": null
  },
  "0055": {
    "postcode": "6750055",
    "prefecture": "兵庫県",
    "prefecture_kana": "ヒョウゴケン",
    "prefecture_code": 28,
    "city": "加古川市",
    "city_kana": "カコガワシ",
    "town": "東神吉町西井ノ口",
    "town_kana": "ヒガシカンキチョウニシイノクチ",
    "street": null,
    "office_name": null,
    "office_name_kana": null
  },
  "0056": {
    "postcode": "6750056",
    "prefecture": "兵庫県",
    "prefecture_kana": "ヒョウゴケン",
    "prefecture_code": 28,
    "city": "加古川市",
    "city_kana": "カコガワシ",
    "town": "東神吉町砂部",
    "town_kana": "ヒガシカンキチョウイサベ",
    "street": null,
    "office_name": null,
    "office_name_kana": null
  },
  "0057": {
    "postcode": "6750057",
    "prefecture": "兵庫県",
    "prefecture_kana": "ヒョウゴケン",
    "prefecture_code": 28,
    "city": "加古川市",
    "city_kana": "カコガワシ",
    "town": "東神吉町神吉",
    "town_kana": "ヒガシカンキチョウカンキ",
    "street": null,
    "office_name": null,
    "office_name_kana": null
  },
  "0058": {
    "postcode": "6750058",
    "prefecture": "兵庫県",
    "prefecture_kana": "ヒョウゴケン",
    "prefecture_code": 28,
    "city": "加古川市",
    "city_kana": "カコガワシ",
    "town": "東神吉町天下原",
    "town_kana": "ヒガシカンキチョウアマガハラ",
    "street": null,
    "office_name": null,
    "office_name_kana": null
  },
  "0061": {
    "postcode": "6750061",
    "prefecture": "兵庫県",
    "prefecture_kana": "ヒョウゴケン",
    "prefecture_code": 28,
    "city": "加古川市",
    "city_kana": "カコガワシ",
    "town": "加古川町大野",
    "town_kana": "カコガワチョウオオノ",
    "street": null,
    "office_name": null,
    "office_name_kana": null
  },
  "0062": {
    "postcode": "6750062",
    "prefecture": "兵庫県",
    "prefecture_kana": "ヒョウゴケン",
    "prefecture_code": 28,
    "city": "加古川市",
    "city_kana": "カコガワシ",
    "town": "加古川町美乃利",
    "town_kana": "カコガワチョウミノリ",
    "street": null,
    "office_name": null,
    "office_name_kana": null
  },
  "0063": {
    "postcode": "6750063",
    "prefecture": "兵庫県",
    "prefecture_kana": "ヒョウゴケン",
    "prefecture_code": 28,
    "city": "加古川市",
    "city_kana": "カコガワシ",
    "town": "加古川町平野",
    "town_kana": "カコガワチョウヒラノ",
    "street": null,
    "office_name": null,
    "office_name_kana": null
  },
  "0064": {
    "postcode": "6750064",
    "prefecture": "兵庫県",
    "prefecture_kana": "ヒョウゴケン",
    "prefecture_code": 28,
    "city": "加古川市",
    "city_kana": "カコガワシ",
    "town": "加古川町溝之口",
    "town_kana": "カコガワチョウミゾノクチ",
    "street": null,
    "office_name": null,
    "office_name_kana": null
  },
  "0065": {
    "postcode": "6750065",
    "prefecture": "兵庫県",
    "prefecture_kana": "ヒョウゴケン",
    "prefecture_code": 28,
    "city": "加古川市",
    "city_kana": "カコガワシ",
    "town": "加古川町篠原町",
    "town_kana": "カコガワチョウシノハラチョウ",
    "street": null,
    "office_name": null,
    "office_name_kana": null
  },
  "0066": {
    "postcode": "6750066",
    "prefecture": "兵庫県",
    "prefecture_kana": "ヒョウゴケン",
    "prefecture_code": 28,
    "city": "加古川市",
    "city_kana": "カコガワシ",
    "town": "加古川町寺家町",
    "town_kana": "カコガワチョウジケマチ",
    "street": null,
    "office_name": null,
    "office_name_kana": null
  },
  "0067": {
    "postcode": "6750067",
    "prefecture": "兵庫県",
    "prefecture_kana": "ヒョウゴケン",
    "prefecture_code": 28,
    "city": "加古川市",
    "city_kana": "カコガワシ",
    "town": "加古川町河原",
    "town_kana": "カコガワチョウカワラ",
    "street": null,
    "office_name": null,
    "office_name_kana": null
  },
  "0068": {
    "postcode": "6750068",
    "prefecture": "兵庫県",
    "prefecture_kana": "ヒョウゴケン",
    "prefecture_code": 28,
    "city": "加古川市",
    "city_kana": "カコガワシ",
    "town": "加古川町中津",
    "town_kana": "カコガワチョウナカツ",
    "street": null,
    "office_name": null,
    "office_name_kana": null
  },
  "0100": {
    "postcode": "6750100",
    "prefecture": "兵庫県",
    "prefecture_kana": "ヒョウゴケン",
    "prefecture_code": 28,
    "city": "加古郡播磨町",
    "city_kana": "カコグンハリマチョウ",
    "town": "",
    "town_kana": "",
    "street": null,
    "office_name": null,
    "office_name_kana": null
  },
  "0101": {
    "postcode": "6750101",
    "prefecture": "兵庫県",
    "prefecture_kana": "ヒョウゴケン",
    "prefecture_code": 28,
    "city": "加古川市",
    "city_kana": "カコガワシ",
    "town": "平岡町新在家",
    "town_kana": "ヒラオカチョウシンザイケ",
    "street": null,
    "office_name": null,
    "office_name_kana": null
  },
  "0102": {
    "postcode": "6750102",
    "prefecture": "兵庫県",
    "prefecture_kana": "ヒョウゴケン",
    "prefecture_code": 28,
    "city": "加古川市",
    "city_kana": "カコガワシ",
    "town": "平岡町西谷",
    "town_kana": "ヒラオカチョウニシタニ",
    "street": null,
    "office_name": null,
    "office_name_kana": null
  },
  "0103": {
    "postcode": "6750103",
    "prefecture": "兵庫県",
    "prefecture_kana": "ヒョウゴケン",
    "prefecture_code": 28,
    "city": "加古川市",
    "city_kana": "カコガワシ",
    "town": "平岡町高畑",
    "town_kana": "ヒラオカチョウタカハタ",
    "street": null,
    "office_name": null,
    "office_name_kana": null
  },
  "0104": {
    "postcode": "6750104",
    "prefecture": "兵庫県",
    "prefecture_kana": "ヒョウゴケン",
    "prefecture_code": 28,
    "city": "加古川市",
    "city_kana": "カコガワシ",
    "town": "平岡町土山",
    "town_kana": "ヒラオカチョウツチヤマ",
    "street": null,
    "office_name": null,
    "office_name_kana": null
  },
  "0105": {
    "postcode": "6750105",
    "prefecture": "兵庫県",
    "prefecture_kana": "ヒョウゴケン",
    "prefecture_code": 28,
    "city": "加古川市",
    "city_kana": "カコガワシ",
    "town": "平岡町つつじ野",
    "town_kana": "ヒラオカチョウツツジノ",
    "street": null,
    "office_name": null,
    "office_name_kana": null
  },
  "0111": {
    "postcode": "6750111",
    "prefecture": "兵庫県",
    "prefecture_kana": "ヒョウゴケン",
    "prefecture_code": 28,
    "city": "加古川市",
    "city_kana": "カコガワシ",
    "town": "平岡町二俣",
    "town_kana": "ヒラオカチョウフタマタ",
    "street": null,
    "office_name": null,
    "office_name_kana": null
  },
  "0112": {
    "postcode": "6750112",
    "prefecture": "兵庫県",
    "prefecture_kana": "ヒョウゴケン",
    "prefecture_code": 28,
    "city": "加古川市",
    "city_kana": "カコガワシ",
    "town": "平岡町山之上",
    "town_kana": "ヒラオカチョウヤマノウエ",
    "street": null,
    "office_name": null,
    "office_name_kana": null
  },
  "0113": {
    "postcode": "6750113",
    "prefecture": "兵庫県",
    "prefecture_kana": "ヒョウゴケン",
    "prefecture_code": 28,
    "city": "加古川市",
    "city_kana": "カコガワシ",
    "town": "平岡町中野",
    "town_kana": "ヒラオカチョウナカノ",
    "street": null,
    "office_name": null,
    "office_name_kana": null
  },
  "0114": {
    "postcode": "6750114",
    "prefecture": "兵庫県",
    "prefecture_kana": "ヒョウゴケン",
    "prefecture_code": 28,
    "city": "加古川市",
    "city_kana": "カコガワシ",
    "town": "平岡町八反田",
    "town_kana": "ヒラオカチョウハッタンダ",
    "street": null,
    "office_name": null,
    "office_name_kana": null
  },
  "0115": {
    "postcode": "6750115",
    "prefecture": "兵庫県",
    "prefecture_kana": "ヒョウゴケン",
    "prefecture_code": 28,
    "city": "加古川市",
    "city_kana": "カコガワシ",
    "town": "平岡町一色",
    "town_kana": "ヒラオカチョウイシキ",
    "street": null,
    "office_name": null,
    "office_name_kana": null
  },
  "0116": {
    "postcode": "6750116",
    "prefecture": "兵庫県",
    "prefecture_kana": "ヒョウゴケン",
    "prefecture_code": 28,
    "city": "加古川市",
    "city_kana": "カコガワシ",
    "town": "平岡町一色東",
    "town_kana": "ヒラオカチョウイシキヒガシ",
    "street": null,
    "office_name": null,
    "office_name_kana": null
  },
  "0117": {
    "postcode": "6750117",
    "prefecture": "兵庫県",
    "prefecture_kana": "ヒョウゴケン",
    "prefecture_code": 28,
    "city": "加古川市",
    "city_kana": "カコガワシ",
    "town": "平岡町一色西",
    "town_kana": "ヒラオカチョウイシキニシ",
    "street": null,
    "office_name": null,
    "office_name_kana": null
  },
  "0121": {
    "postcode": "6750121",
    "prefecture": "兵庫県",
    "prefecture_kana": "ヒョウゴケン",
    "prefecture_code": 28,
    "city": "加古川市",
    "city_kana": "カコガワシ",
    "town": "別府町新野辺北町",
    "town_kana": "ベフチョウシノベキタマチ",
    "street": null,
    "office_name": null,
    "office_name_kana": null
  },
  "0122": {
    "postcode": "6750122",
    "prefecture": "兵庫県",
    "prefecture_kana": "ヒョウゴケン",
    "prefecture_code": 28,
    "city": "加古川市",
    "city_kana": "カコガワシ",
    "town": "別府町別府",
    "town_kana": "ベフチョウベフ",
    "street": null,
    "office_name": null,
    "office_name_kana": null
  },
  "0123": {
    "postcode": "6750123",
    "prefecture": "兵庫県",
    "prefecture_kana": "ヒョウゴケン",
    "prefecture_code": 28,
    "city": "加古川市",
    "city_kana": "カコガワシ",
    "town": "別府町朝日町",
    "town_kana": "ベフチョウアサヒマチ",
    "street": null,
    "office_name": null,
    "office_name_kana": null
  },
  "0124": {
    "postcode": "6750124",
    "prefecture": "兵庫県",
    "prefecture_kana": "ヒョウゴケン",
    "prefecture_code": 28,
    "city": "加古川市",
    "city_kana": "カコガワシ",
    "town": "別府町緑町",
    "town_kana": "ベフチョウミドリマチ",
    "street": null,
    "office_name": null,
    "office_name_kana": null
  },
  "0125": {
    "postcode": "6750125",
    "prefecture": "兵庫県",
    "prefecture_kana": "ヒョウゴケン",
    "prefecture_code": 28,
    "city": "加古川市",
    "city_kana": "カコガワシ",
    "town": "別府町西脇",
    "town_kana": "ベフチョウニシワキ",
    "street": null,
    "office_name": null,
    "office_name_kana": null
  },
  "0126": {
    "postcode": "6750126",
    "prefecture": "兵庫県",
    "prefecture_kana": "ヒョウゴケン",
    "prefecture_code": 28,
    "city": "加古川市",
    "city_kana": "カコガワシ",
    "town": "別府町本町",
    "town_kana": "ベフチョウホンマチ",
    "street": null,
    "office_name": null,
    "office_name_kana": null
  },
  "0127": {
    "postcode": "6750127",
    "prefecture": "兵庫県",
    "prefecture_kana": "ヒョウゴケン",
    "prefecture_code": 28,
    "city": "加古川市",
    "city_kana": "カコガワシ",
    "town": "別府町石町",
    "town_kana": "ベフチョウイシマチ",
    "street": null,
    "office_name": null,
    "office_name_kana": null
  },
  "0128": {
    "postcode": "6750128",
    "prefecture": "兵庫県",
    "prefecture_kana": "ヒョウゴケン",
    "prefecture_code": 28,
    "city": "加古川市",
    "city_kana": "カコガワシ",
    "town": "別府町中島町",
    "town_kana": "ベフチョウナカシママチ",
    "street": null,
    "office_name": null,
    "office_name_kana": null
  },
  "0131": {
    "postcode": "6750131",
    "prefecture": "兵庫県",
    "prefecture_kana": "ヒョウゴケン",
    "prefecture_code": 28,
    "city": "加古川市",
    "city_kana": "カコガワシ",
    "town": "別府町新野辺",
    "town_kana": "ベフチョウシノベ",
    "street": null,
    "office_name": null,
    "office_name_kana": null
  },
  "0132": {
    "postcode": "6750132",
    "prefecture": "兵庫県",
    "prefecture_kana": "ヒョウゴケン",
    "prefecture_code": 28,
    "city": "加古川市",
    "city_kana": "カコガワシ",
    "town": "別府町宮田町",
    "town_kana": "ベフチョウミヤデンマチ",
    "street": null,
    "office_name": null,
    "office_name_kana": null
  },
  "0133": {
    "postcode": "6750133",
    "prefecture": "兵庫県",
    "prefecture_kana": "ヒョウゴケン",
    "prefecture_code": 28,
    "city": "加古川市",
    "city_kana": "カコガワシ",
    "town": "別府町西町",
    "town_kana": "ベフチョウニシマチ",
    "street": null,
    "office_name": null,
    "office_name_kana": null
  },
  "0134": {
    "postcode": "6750134",
    "prefecture": "兵庫県",
    "prefecture_kana": "ヒョウゴケン",
    "prefecture_code": 28,
    "city": "加古川市",
    "city_kana": "カコガワシ",
    "town": "別府町元町",
    "town_kana": "ベフチョウモトマチ",
    "street": null,
    "office_name": null,
    "office_name_kana": null
  },
  "0135": {
    "postcode": "6750135",
    "prefecture": "兵庫県",
    "prefecture_kana": "ヒョウゴケン",
    "prefecture_code": 28,
    "city": "加古川市",
    "city_kana": "カコガワシ",
    "town": "別府町東町",
    "town_kana": "ベフチョウヒガシマチ",
    "street": null,
    "office_name": null,
    "office_name_kana": null
  },
  "0136": {
    "postcode": "6750136",
    "prefecture": "兵庫県",
    "prefecture_kana": "ヒョウゴケン",
    "prefecture_code": 28,
    "city": "加古川市",
    "city_kana": "カコガワシ",
    "town": "別府町港町",
    "town_kana": "ベフチョウミナトマチ",
    "street": null,
    "office_name": null,
    "office_name_kana": null
  },
  "0137": {
    "postcode": "6750137",
    "prefecture": "兵庫県",
    "prefecture_kana": "ヒョウゴケン",
    "prefecture_code": 28,
    "city": "加古川市",
    "city_kana": "カコガワシ",
    "town": "金沢町",
    "town_kana": "カナザワチョウ",
    "street": null,
    "office_name": null,
    "office_name_kana": null
  },
  "0141": {
    "postcode": "6750141",
    "prefecture": "兵庫県",
    "prefecture_kana": "ヒョウゴケン",
    "prefecture_code": 28,
    "city": "加古郡播磨町",
    "city_kana": "カコグンハリマチョウ",
    "town": "野添城",
    "town_kana": "ノゾエジョウ",
    "street": null,
    "office_name": null,
    "office_name_kana": null
  },
  "0142": {
    "postcode": "6750142",
    "prefecture": "兵庫県",
    "prefecture_kana": "ヒョウゴケン",
    "prefecture_code": 28,
    "city": "加古郡播磨町",
    "city_kana": "カコグンハリマチョウ",
    "town": "大中",
    "town_kana": "オオナカ",
    "street": null,
    "office_name": null,
    "office_name_kana": null
  },
  "0143": {
    "postcode": "6750143",
    "prefecture": "兵庫県",
    "prefecture_kana": "ヒョウゴケン",
    "prefecture_code": 28,
    "city": "加古郡播磨町",
    "city_kana": "カコグンハリマチョウ",
    "town": "宮北",
    "town_kana": "ミヤキタ",
    "street": null,
    "office_name": null,
    "office_name_kana": null
  },
  "0144": {
    "postcode": "6750144",
    "prefecture": "兵庫県",
    "prefecture_kana": "ヒョウゴケン",
    "prefecture_code": 28,
    "city": "加古郡播磨町",
    "city_kana": "カコグンハリマチョウ",
    "town": "北本荘",
    "town_kana": "キタホンジョウ",
    "street": null,
    "office_name": null,
    "office_name_kana": null
  },
  "0145": {
    "postcode": "6750145",
    "prefecture": "兵庫県",
    "prefecture_kana": "ヒョウゴケン",
    "prefecture_code": 28,
    "city": "加古郡播磨町",
    "city_kana": "カコグンハリマチョウ",
    "town": "宮西",
    "town_kana": "ミヤニシ",
    "street": null,
    "office_name": null,
    "office_name_kana": null
  },
  "0146": {
    "postcode": "6750146",
    "prefecture": "兵庫県",
    "prefecture_kana": "ヒョウゴケン",
    "prefecture_code": 28,
    "city": "加古郡播磨町",
    "city_kana": "カコグンハリマチョウ",
    "town": "古田",
    "town_kana": "フルタ",
    "street": null,
    "office_name": null,
    "office_name_kana": null
  },
  "0147": {
    "postcode": "6750147",
    "prefecture": "兵庫県",
    "prefecture_kana": "ヒョウゴケン",
    "prefecture_code": 28,
    "city": "加古郡播磨町",
    "city_kana": "カコグンハリマチョウ",
    "town": "南大中",
    "town_kana": "ミナミオオナカ",
    "street": null,
    "office_name": null,
    "office_name_kana": null
  },
  "0148": {
    "postcode": "6750148",
    "prefecture": "兵庫県",
    "prefecture_kana": "ヒョウゴケン",
    "prefecture_code": 28,
    "city": "加古郡播磨町",
    "city_kana": "カコグンハリマチョウ",
    "town": "北古田",
    "town_kana": "キタフルタ",
    "street": null,
    "office_name": null,
    "office_name_kana": null
  },
  "0150": {
    "postcode": "6750150",
    "prefecture": "兵庫県",
    "prefecture_kana": "ヒョウゴケン",
    "prefecture_code": 28,
    "city": "加古郡播磨町",
    "city_kana": "カコグンハリマチョウ",
    "town": "南野添",
    "town_kana": "ミナミノゾエ",
    "street": null,
    "office_name": null,
    "office_name_kana": null
  },
  "0151": {
    "postcode": "6750151",
    "prefecture": "兵庫県",
    "prefecture_kana": "ヒョウゴケン",
    "prefecture_code": 28,
    "city": "加古郡播磨町",
    "city_kana": "カコグンハリマチョウ",
    "town": "野添",
    "town_kana": "ノゾエ",
    "street": null,
    "office_name": null,
    "office_name_kana": null
  },
  "0154": {
    "postcode": "6750154",
    "prefecture": "兵庫県",
    "prefecture_kana": "ヒョウゴケン",
    "prefecture_code": 28,
    "city": "加古郡播磨町",
    "city_kana": "カコグンハリマチョウ",
    "town": "本荘",
    "town_kana": "ホンジョウ",
    "street": null,
    "office_name": null,
    "office_name_kana": null
  },
  "0155": {
    "postcode": "6750155",
    "prefecture": "兵庫県",
    "prefecture_kana": "ヒョウゴケン",
    "prefecture_code": 28,
    "city": "加古郡播磨町",
    "city_kana": "カコグンハリマチョウ",
    "town": "新島",
    "town_kana": "ニイジマ",
    "street": null,
    "office_name": null,
    "office_name_kana": null
  },
  "0156": {
    "postcode": "6750156",
    "prefecture": "兵庫県",
    "prefecture_kana": "ヒョウゴケン",
    "prefecture_code": 28,
    "city": "加古郡播磨町",
    "city_kana": "カコグンハリマチョウ",
    "town": "東本荘",
    "town_kana": "ヒガシホンジョウ",
    "street": null,
    "office_name": null,
    "office_name_kana": null
  },
  "0157": {
    "postcode": "6750157",
    "prefecture": "兵庫県",
    "prefecture_kana": "ヒョウゴケン",
    "prefecture_code": 28,
    "city": "加古郡播磨町",
    "city_kana": "カコグンハリマチョウ",
    "town": "上野添",
    "town_kana": "カミノゾエ",
    "street": null,
    "office_name": null,
    "office_name_kana": null
  },
  "0158": {
    "postcode": "6750158",
    "prefecture": "兵庫県",
    "prefecture_kana": "ヒョウゴケン",
    "prefecture_code": 28,
    "city": "加古郡播磨町",
    "city_kana": "カコグンハリマチョウ",
    "town": "北野添",
    "town_kana": "キタノゾエ",
    "street": null,
    "office_name": null,
    "office_name_kana": null
  },
  "0159": {
    "postcode": "6750159",
    "prefecture": "兵庫県",
    "prefecture_kana": "ヒョウゴケン",
    "prefecture_code": 28,
    "city": "加古郡播磨町",
    "city_kana": "カコグンハリマチョウ",
    "town": "東野添",
    "town_kana": "ヒガシノゾエ",
    "street": null,
    "office_name": null,
    "office_name_kana": null
  },
  "0160": {
    "postcode": "6750160",
    "prefecture": "兵庫県",
    "prefecture_kana": "ヒョウゴケン",
    "prefecture_code": 28,
    "city": "加古郡播磨町",
    "city_kana": "カコグンハリマチョウ",
    "town": "西野添",
    "town_kana": "ニシノゾエ",
    "street": null,
    "office_name": null,
    "office_name_kana": null
  },
  "0162": {
    "postcode": "6750162",
    "prefecture": "兵庫県",
    "prefecture_kana": "ヒョウゴケン",
    "prefecture_code": 28,
    "city": "加古郡播磨町",
    "city_kana": "カコグンハリマチョウ",
    "town": "二子",
    "town_kana": "フタゴ",
    "street": null,
    "office_name": null,
    "office_name_kana": null
  },
  "0163": {
    "postcode": "6750163",
    "prefecture": "兵庫県",
    "prefecture_kana": "ヒョウゴケン",
    "prefecture_code": 28,
    "city": "加古郡播磨町",
    "city_kana": "カコグンハリマチョウ",
    "town": "古宮",
    "town_kana": "コミヤ",
    "street": null,
    "office_name": null,
    "office_name_kana": null
  },
  "0164": {
    "postcode": "6750164",
    "prefecture": "兵庫県",
    "prefecture_kana": "ヒョウゴケン",
    "prefecture_code": 28,
    "city": "加古郡播磨町",
    "city_kana": "カコグンハリマチョウ",
    "town": "東新島",
    "town_kana": "ヒガシニイジマ",
    "street": null,
    "office_name": null,
    "office_name_kana": null
  },
  "0180": {
    "postcode": "6750180",
    "prefecture": "兵庫県",
    "prefecture_kana": "ヒョウゴケン",
    "prefecture_code": 28,
    "city": "加古郡播磨町",
    "city_kana": "カコグンハリマチョウ",
    "town": "新島",
    "town_kana": "ニイジマ",
    "street": "８番地",
    "office_name": "川崎重工業　株式会社",
    "office_name_kana": "カワサキジユウコウギヨウ カブシキガイシヤ"
  },
  "0181": {
    "postcode": "6750181",
    "prefecture": "兵庫県",
    "prefecture_kana": "ヒョウゴケン",
    "prefecture_code": 28,
    "city": "加古郡播磨町",
    "city_kana": "カコグンハリマチョウ",
    "town": "新島",
    "town_kana": "ニイジマ",
    "street": "１６番地",
    "office_name": "日本エア・リキード　株式会社",
    "office_name_kana": "ニホンエア・リキ-ド カブシキガイシヤ"
  },
  "0182": {
    "postcode": "6750182",
    "prefecture": "兵庫県",
    "prefecture_kana": "ヒョウゴケン",
    "prefecture_code": 28,
    "city": "加古郡播磨町",
    "city_kana": "カコグンハリマチョウ",
    "town": "東本荘",
    "town_kana": "ヒガシホンジョウ",
    "street": "１丁目５−３０",
    "office_name": "播磨町役場",
    "office_name_kana": "ハリマチヨウヤクバ"
  },
  "0183": {
    "postcode": "6750183",
    "prefecture": "兵庫県",
    "prefecture_kana": "ヒョウゴケン",
    "prefecture_code": 28,
    "city": "加古郡播磨町",
    "city_kana": "カコグンハリマチョウ",
    "town": "宮西",
    "town_kana": "ミヤニシ",
    "street": "３４６−１",
    "office_name": "住友精化　株式会社",
    "office_name_kana": "スミトモセイカ カブシキガイシヤ"
  },
  "0184": {
    "postcode": "6750184",
    "prefecture": "兵庫県",
    "prefecture_kana": "ヒョウゴケン",
    "prefecture_code": 28,
    "city": "加古川市",
    "city_kana": "カコガワシ",
    "town": "金沢町",
    "town_kana": "カナザワチョウ",
    "street": "７番地",
    "office_name": "関西熱化学　株式会社",
    "office_name_kana": "カンサイネツカガク カブシキガイシヤ"
  },
  "0185": {
    "postcode": "6750185",
    "prefecture": "兵庫県",
    "prefecture_kana": "ヒョウゴケン",
    "prefecture_code": 28,
    "city": "加古川市",
    "city_kana": "カコガワシ",
    "town": "金沢町",
    "town_kana": "カナザワチョウ",
    "street": "１番",
    "office_name": "株式会社　神戸製鋼所　加古川製鉄所",
    "office_name_kana": "カブシキガイシヤ コウベセイコウシヨ カコガワセイテツシヨ"
  },
  "0186": {
    "postcode": "6750186",
    "prefecture": "兵庫県",
    "prefecture_kana": "ヒョウゴケン",
    "prefecture_code": 28,
    "city": "加古川市",
    "city_kana": "カコガワシ",
    "town": "別府町石町",
    "town_kana": "ベフチョウイシマチ",
    "street": "５２番地",
    "office_name": "滝川工業　株式会社",
    "office_name_kana": "タキガワコウギヨウ カブシキガイシヤ"
  },
  "0188": {
    "postcode": "6750188",
    "prefecture": "兵庫県",
    "prefecture_kana": "ヒョウゴケン",
    "prefecture_code": 28,
    "city": "加古川市",
    "city_kana": "カコガワシ",
    "town": "平岡町新在家",
    "town_kana": "ヒラオカチョウシンザイケ",
    "street": "９０２−３",
    "office_name": "兵庫県　いなみの学園",
    "office_name_kana": "ヒヨウゴケン イナミノガクエン"
  },
  "0192": {
    "postcode": "6750192",
    "prefecture": "兵庫県",
    "prefecture_kana": "ヒョウゴケン",
    "prefecture_code": 28,
    "city": "加古川市",
    "city_kana": "カコガワシ",
    "town": "別府町緑町",
    "town_kana": "ベフチョウミドリマチ",
    "street": "２番地",
    "office_name": "多木化学　株式会社",
    "office_name_kana": "タキカガク カブシキガイシヤ"
  },
  "0193": {
    "postcode": "6750193",
    "prefecture": "兵庫県",
    "prefecture_kana": "ヒョウゴケン",
    "prefecture_code": 28,
    "city": "加古川市",
    "city_kana": "カコガワシ",
    "town": "平岡町新在家",
    "town_kana": "ヒラオカチョウシンザイケ",
    "street": "１１７番地",
    "office_name": "昭和住宅　株式会社",
    "office_name_kana": "シヨウワジユウタク カブシキガイシヤ"
  },
  "0195": {
    "postcode": "6750195",
    "prefecture": "兵庫県",
    "prefecture_kana": "ヒョウゴケン",
    "prefecture_code": 28,
    "city": "加古川市",
    "city_kana": "カコガワシ",
    "town": "平岡町新在家",
    "town_kana": "ヒラオカチョウシンザイケ",
    "street": "２３０１",
    "office_name": "兵庫大学　兵庫大学短期大学部",
    "office_name_kana": "ヒヨウゴダイガク ヒヨウゴダイガクタンキダイガクブ"
  },
  "0196": {
    "postcode": "6750196",
    "prefecture": "兵庫県",
    "prefecture_kana": "ヒョウゴケン",
    "prefecture_code": 28,
    "city": "加古川市",
    "city_kana": "カコガワシ",
    "town": "平岡町新在家",
    "town_kana": "ヒラオカチョウシンザイケ",
    "street": "１２２４−１２",
    "office_name": "財団法人　加古川総合保健センター",
    "office_name_kana": "ザイダンホウジン カコガワソウゴウホケンセンタ-"
  },
  "0198": {
    "postcode": "6750198",
    "prefecture": "兵庫県",
    "prefecture_kana": "ヒョウゴケン",
    "prefecture_code": 28,
    "city": "加古川市",
    "city_kana": "カコガワシ",
    "town": "平岡町土山",
    "town_kana": "ヒラオカチョウツチヤマ",
    "street": "字コモ池之内６４８",
    "office_name": "バンドー化学　株式会社　加古川工場",
    "office_name_kana": "バンド-カガク カブシキガイシヤ カコガワコウジヨウ"
  },
  "0301": {
    "postcode": "6750301",
    "prefecture": "兵庫県",
    "prefecture_kana": "ヒョウゴケン",
    "prefecture_code": 28,
    "city": "加古川市",
    "city_kana": "カコガワシ",
    "town": "志方町大澤",
    "town_kana": "シカタチョウオオザワ",
    "street": null,
    "office_name": null,
    "office_name_kana": null
  },
  "0302": {
    "postcode": "6750302",
    "prefecture": "兵庫県",
    "prefecture_kana": "ヒョウゴケン",
    "prefecture_code": 28,
    "city": "加古川市",
    "city_kana": "カコガワシ",
    "town": "志方町野尻",
    "town_kana": "シカタチョウノジリ",
    "street": null,
    "office_name": null,
    "office_name_kana": null
  },
  "0303": {
    "postcode": "6750303",
    "prefecture": "兵庫県",
    "prefecture_kana": "ヒョウゴケン",
    "prefecture_code": 28,
    "city": "加古川市",
    "city_kana": "カコガワシ",
    "town": "志方町細工所",
    "town_kana": "シカタチョウサイクジョ",
    "street": null,
    "office_name": null,
    "office_name_kana": null
  },
  "0304": {
    "postcode": "6750304",
    "prefecture": "兵庫県",
    "prefecture_kana": "ヒョウゴケン",
    "prefecture_code": 28,
    "city": "加古川市",
    "city_kana": "カコガワシ",
    "town": "志方町高畑",
    "town_kana": "シカタチョウタカハタ",
    "street": null,
    "office_name": null,
    "office_name_kana": null
  },
  "0305": {
    "postcode": "6750305",
    "prefecture": "兵庫県",
    "prefecture_kana": "ヒョウゴケン",
    "prefecture_code": 28,
    "city": "加古川市",
    "city_kana": "カコガワシ",
    "town": "志方町大宗",
    "town_kana": "シカタチョウオオムネ",
    "street": null,
    "office_name": null,
    "office_name_kana": null
  },
  "0306": {
    "postcode": "6750306",
    "prefecture": "兵庫県",
    "prefecture_kana": "ヒョウゴケン",
    "prefecture_code": 28,
    "city": "加古川市",
    "city_kana": "カコガワシ",
    "town": "志方町東中",
    "town_kana": "シカタチョウヒガシナカ",
    "street": null,
    "office_name": null,
    "office_name_kana": null
  },
  "0311": {
    "postcode": "6750311",
    "prefecture": "兵庫県",
    "prefecture_kana": "ヒョウゴケン",
    "prefecture_code": 28,
    "city": "加古川市",
    "city_kana": "カコガワシ",
    "town": "志方町岡",
    "town_kana": "シカタチョウオカ",
    "street": null,
    "office_name": null,
    "office_name_kana": null
  },
  "0312": {
    "postcode": "6750312",
    "prefecture": "兵庫県",
    "prefecture_kana": "ヒョウゴケン",
    "prefecture_code": 28,
    "city": "加古川市",
    "city_kana": "カコガワシ",
    "town": "志方町広尾",
    "town_kana": "シカタチョウヒロオ",
    "street": null,
    "office_name": null,
    "office_name_kana": null
  },
  "0313": {
    "postcode": "6750313",
    "prefecture": "兵庫県",
    "prefecture_kana": "ヒョウゴケン",
    "prefecture_code": 28,
    "city": "加古川市",
    "city_kana": "カコガワシ",
    "town": "志方町投松",
    "town_kana": "シカタチョウネジマツ",
    "street": null,
    "office_name": null,
    "office_name_kana": null
  },
  "0314": {
    "postcode": "6750314",
    "prefecture": "兵庫県",
    "prefecture_kana": "ヒョウゴケン",
    "prefecture_code": 28,
    "city": "加古川市",
    "city_kana": "カコガワシ",
    "town": "志方町上冨木",
    "town_kana": "シカタチョウカミトミキ",
    "street": null,
    "office_name": null,
    "office_name_kana": null
  },
  "0321": {
    "postcode": "6750321",
    "prefecture": "兵庫県",
    "prefecture_kana": "ヒョウゴケン",
    "prefecture_code": 28,
    "city": "加古川市",
    "city_kana": "カコガワシ",
    "town": "志方町志方町",
    "town_kana": "シカタチョウシカタマチ",
    "street": null,
    "office_name": null,
    "office_name_kana": null
  },
  "0331": {
    "postcode": "6750331",
    "prefecture": "兵庫県",
    "prefecture_kana": "ヒョウゴケン",
    "prefecture_code": 28,
    "city": "加古川市",
    "city_kana": "カコガワシ",
    "town": "志方町西牧",
    "town_kana": "シカタチョウニシマキ",
    "street": null,
    "office_name": null,
    "office_name_kana": null
  },
  "0332": {
    "postcode": "6750332",
    "prefecture": "兵庫県",
    "prefecture_kana": "ヒョウゴケン",
    "prefecture_code": 28,
    "city": "加古川市",
    "city_kana": "カコガワシ",
    "town": "志方町横大路",
    "town_kana": "シカタチョウヨコオオジ",
    "street": null,
    "office_name": null,
    "office_name_kana": null
  },
  "0333": {
    "postcode": "6750333",
    "prefecture": "兵庫県",
    "prefecture_kana": "ヒョウゴケン",
    "prefecture_code": 28,
    "city": "加古川市",
    "city_kana": "カコガワシ",
    "town": "志方町西山",
    "town_kana": "シカタチョウニシヤマ",
    "street": null,
    "office_name": null,
    "office_name_kana": null
  },
  "0334": {
    "postcode": "6750334",
    "prefecture": "兵庫県",
    "prefecture_kana": "ヒョウゴケン",
    "prefecture_code": 28,
    "city": "加古川市",
    "city_kana": "カコガワシ",
    "town": "志方町成井",
    "town_kana": "シカタチョウナルイ",
    "street": null,
    "office_name": null,
    "office_name_kana": null
  },
  "0335": {
    "postcode": "6750335",
    "prefecture": "兵庫県",
    "prefecture_kana": "ヒョウゴケン",
    "prefecture_code": 28,
    "city": "加古川市",
    "city_kana": "カコガワシ",
    "town": "志方町原",
    "town_kana": "シカタチョウハラ",
    "street": null,
    "office_name": null,
    "office_name_kana": null
  },
  "0336": {
    "postcode": "6750336",
    "prefecture": "兵庫県",
    "prefecture_kana": "ヒョウゴケン",
    "prefecture_code": 28,
    "city": "加古川市",
    "city_kana": "カコガワシ",
    "town": "志方町山中",
    "town_kana": "シカタチョウヤマナカ",
    "street": null,
    "office_name": null,
    "office_name_kana": null
  },
  "0341": {
    "postcode": "6750341",
    "prefecture": "兵庫県",
    "prefecture_kana": "ヒョウゴケン",
    "prefecture_code": 28,
    "city": "加古川市",
    "city_kana": "カコガワシ",
    "town": "志方町畑",
    "town_kana": "シカタチョウハタ",
    "street": null,
    "office_name": null,
    "office_name_kana": null
  },
  "0342": {
    "postcode": "6750342",
    "prefecture": "兵庫県",
    "prefecture_kana": "ヒョウゴケン",
    "prefecture_code": 28,
    "city": "加古川市",
    "city_kana": "カコガワシ",
    "town": "志方町雑郷",
    "town_kana": "シカタチョウゾウゴウ",
    "street": null,
    "office_name": null,
    "office_name_kana": null
  },
  "0343": {
    "postcode": "6750343",
    "prefecture": "兵庫県",
    "prefecture_kana": "ヒョウゴケン",
    "prefecture_code": 28,
    "city": "加古川市",
    "city_kana": "カコガワシ",
    "town": "志方町行常",
    "town_kana": "シカタチョウユキツネ",
    "street": null,
    "office_name": null,
    "office_name_kana": null
  },
  "0344": {
    "postcode": "6750344",
    "prefecture": "兵庫県",
    "prefecture_kana": "ヒョウゴケン",
    "prefecture_code": 28,
    "city": "加古川市",
    "city_kana": "カコガワシ",
    "town": "志方町東飯坂",
    "town_kana": "シカタチョウヒガシイイザカ",
    "street": null,
    "office_name": null,
    "office_name_kana": null
  },
  "0345": {
    "postcode": "6750345",
    "prefecture": "兵庫県",
    "prefecture_kana": "ヒョウゴケン",
    "prefecture_code": 28,
    "city": "加古川市",
    "city_kana": "カコガワシ",
    "town": "志方町西飯坂",
    "town_kana": "シカタチョウニシイイザカ",
    "street": null,
    "office_name": null,
    "office_name_kana": null
  },
  "0346": {
    "postcode": "6750346",
    "prefecture": "兵庫県",
    "prefecture_kana": "ヒョウゴケン",
    "prefecture_code": 28,
    "city": "加古川市",
    "city_kana": "カコガワシ",
    "town": "志方町西中",
    "town_kana": "シカタチョウニシナカ",
    "street": null,
    "office_name": null,
    "office_name_kana": null
  },
  "0347": {
    "postcode": "6750347",
    "prefecture": "兵庫県",
    "prefecture_kana": "ヒョウゴケン",
    "prefecture_code": 28,
    "city": "加古川市",
    "city_kana": "カコガワシ",
    "town": "志方町永室",
    "town_kana": "シカタチョウナガムロ",
    "street": null,
    "office_name": null,
    "office_name_kana": null
  },
  "1100": {
    "postcode": "6751100",
    "prefecture": "兵庫県",
    "prefecture_kana": "ヒョウゴケン",
    "prefecture_code": 28,
    "city": "加古郡稲美町",
    "city_kana": "カコグンイナミチョウ",
    "town": "",
    "town_kana": "",
    "street": null,
    "office_name": null,
    "office_name_kana": null
  },
  "1101": {
    "postcode": "6751101",
    "prefecture": "兵庫県",
    "prefecture_kana": "ヒョウゴケン",
    "prefecture_code": 28,
    "city": "加古郡稲美町",
    "city_kana": "カコグンイナミチョウ",
    "town": "下草谷",
    "town_kana": "シモクサダニ",
    "street": null,
    "office_name": null,
    "office_name_kana": null
  },
  "1102": {
    "postcode": "6751102",
    "prefecture": "兵庫県",
    "prefecture_kana": "ヒョウゴケン",
    "prefecture_code": 28,
    "city": "加古郡稲美町",
    "city_kana": "カコグンイナミチョウ",
    "town": "草谷",
    "town_kana": "クサダニ",
    "street": null,
    "office_name": null,
    "office_name_kana": null
  },
  "1103": {
    "postcode": "6751103",
    "prefecture": "兵庫県",
    "prefecture_kana": "ヒョウゴケン",
    "prefecture_code": 28,
    "city": "加古郡稲美町",
    "city_kana": "カコグンイナミチョウ",
    "town": "野谷",
    "town_kana": "ノダニ",
    "street": null,
    "office_name": null,
    "office_name_kana": null
  },
  "1104": {
    "postcode": "6751104",
    "prefecture": "兵庫県",
    "prefecture_kana": "ヒョウゴケン",
    "prefecture_code": 28,
    "city": "加古郡稲美町",
    "city_kana": "カコグンイナミチョウ",
    "town": "野寺",
    "town_kana": "ノデラ",
    "street": null,
    "office_name": null,
    "office_name_kana": null
  },
  "1105": {
    "postcode": "6751105",
    "prefecture": "兵庫県",
    "prefecture_kana": "ヒョウゴケン",
    "prefecture_code": 28,
    "city": "加古郡稲美町",
    "city_kana": "カコグンイナミチョウ",
    "town": "加古",
    "town_kana": "カコ",
    "street": null,
    "office_name": null,
    "office_name_kana": null
  },
  "1111": {
    "postcode": "6751111",
    "prefecture": "兵庫県",
    "prefecture_kana": "ヒョウゴケン",
    "prefecture_code": 28,
    "city": "加古郡稲美町",
    "city_kana": "カコグンイナミチョウ",
    "town": "印南",
    "town_kana": "インナミ",
    "street": null,
    "office_name": null,
    "office_name_kana": null
  },
  "1112": {
    "postcode": "6751112",
    "prefecture": "兵庫県",
    "prefecture_kana": "ヒョウゴケン",
    "prefecture_code": 28,
    "city": "加古郡稲美町",
    "city_kana": "カコグンイナミチョウ",
    "town": "六分一",
    "town_kana": "ロクブイチ",
    "street": null,
    "office_name": null,
    "office_name_kana": null
  },
  "1113": {
    "postcode": "6751113",
    "prefecture": "兵庫県",
    "prefecture_kana": "ヒョウゴケン",
    "prefecture_code": 28,
    "city": "加古郡稲美町",
    "city_kana": "カコグンイナミチョウ",
    "town": "岡",
    "town_kana": "オカ",
    "street": null,
    "office_name": null,
    "office_name_kana": null
  },
  "1114": {
    "postcode": "6751114",
    "prefecture": "兵庫県",
    "prefecture_kana": "ヒョウゴケン",
    "prefecture_code": 28,
    "city": "加古郡稲美町",
    "city_kana": "カコグンイナミチョウ",
    "town": "国安",
    "town_kana": "クニヤス",
    "street": null,
    "office_name": null,
    "office_name_kana": null
  },
  "1115": {
    "postcode": "6751115",
    "prefecture": "兵庫県",
    "prefecture_kana": "ヒョウゴケン",
    "prefecture_code": 28,
    "city": "加古郡稲美町",
    "city_kana": "カコグンイナミチョウ",
    "town": "国岡",
    "town_kana": "クニオカ",
    "street": null,
    "office_name": null,
    "office_name_kana": null
  },
  "1116": {
    "postcode": "6751116",
    "prefecture": "兵庫県",
    "prefecture_kana": "ヒョウゴケン",
    "prefecture_code": 28,
    "city": "加古郡稲美町",
    "city_kana": "カコグンイナミチョウ",
    "town": "蛸草",
    "town_kana": "タコクサ",
    "street": null,
    "office_name": null,
    "office_name_kana": null
  },
  "1121": {
    "postcode": "6751121",
    "prefecture": "兵庫県",
    "prefecture_kana": "ヒョウゴケン",
    "prefecture_code": 28,
    "city": "加古郡稲美町",
    "city_kana": "カコグンイナミチョウ",
    "town": "北山",
    "town_kana": "キタヤマ",
    "street": null,
    "office_name": null,
    "office_name_kana": null
  },
  "1122": {
    "postcode": "6751122",
    "prefecture": "兵庫県",
    "prefecture_kana": "ヒョウゴケン",
    "prefecture_code": 28,
    "city": "加古郡稲美町",
    "city_kana": "カコグンイナミチョウ",
    "town": "中村",
    "town_kana": "ナカムラ",
    "street": null,
    "office_name": null,
    "office_name_kana": null
  },
  "1123": {
    "postcode": "6751123",
    "prefecture": "兵庫県",
    "prefecture_kana": "ヒョウゴケン",
    "prefecture_code": 28,
    "city": "加古郡稲美町",
    "city_kana": "カコグンイナミチョウ",
    "town": "国北",
    "town_kana": "クニホク",
    "street": null,
    "office_name": null,
    "office_name_kana": null
  },
  "1124": {
    "postcode": "6751124",
    "prefecture": "兵庫県",
    "prefecture_kana": "ヒョウゴケン",
    "prefecture_code": 28,
    "city": "加古郡稲美町",
    "city_kana": "カコグンイナミチョウ",
    "town": "森安",
    "town_kana": "モリヤス",
    "street": null,
    "office_name": null,
    "office_name_kana": null
  },
  "1125": {
    "postcode": "6751125",
    "prefecture": "兵庫県",
    "prefecture_kana": "ヒョウゴケン",
    "prefecture_code": 28,
    "city": "加古郡稲美町",
    "city_kana": "カコグンイナミチョウ",
    "town": "和田",
    "town_kana": "ワダ",
    "street": null,
    "office_name": null,
    "office_name_kana": null
  },
  "1126": {
    "postcode": "6751126",
    "prefecture": "兵庫県",
    "prefecture_kana": "ヒョウゴケン",
    "prefecture_code": 28,
    "city": "加古郡稲美町",
    "city_kana": "カコグンイナミチョウ",
    "town": "幸竹",
    "town_kana": "コウタケ",
    "street": null,
    "office_name": null,
    "office_name_kana": null
  },
  "1127": {
    "postcode": "6751127",
    "prefecture": "兵庫県",
    "prefecture_kana": "ヒョウゴケン",
    "prefecture_code": 28,
    "city": "加古郡稲美町",
    "city_kana": "カコグンイナミチョウ",
    "town": "中一色",
    "town_kana": "ナカイシキ",
    "street": null,
    "office_name": null,
    "office_name_kana": null
  },
  "1192": {
    "postcode": "6751192",
    "prefecture": "兵庫県",
    "prefecture_kana": "ヒョウゴケン",
    "prefecture_code": 28,
    "city": "加古郡稲美町",
    "city_kana": "カコグンイナミチョウ",
    "town": "蛸草",
    "town_kana": "タコクサ",
    "street": "３２１",
    "office_name": "キング醸造　株式会社",
    "office_name_kana": "キングジヨウゾウ カブシキガイシヤ"
  },
  "1201": {
    "postcode": "6751201",
    "prefecture": "兵庫県",
    "prefecture_kana": "ヒョウゴケン",
    "prefecture_code": 28,
    "city": "加古川市",
    "city_kana": "カコガワシ",
    "town": "八幡町宗佐",
    "town_kana": "ヤハタチョウソウサ",
    "street": null,
    "office_name": null,
    "office_name_kana": null
  },
  "1202": {
    "postcode": "6751202",
    "prefecture": "兵庫県",
    "prefecture_kana": "ヒョウゴケン",
    "prefecture_code": 28,
    "city": "加古川市",
    "city_kana": "カコガワシ",
    "town": "八幡町野村",
    "town_kana": "ヤハタチョウノムラ",
    "street": null,
    "office_name": null,
    "office_name_kana": null
  },
  "1203": {
    "postcode": "6751203",
    "prefecture": "兵庫県",
    "prefecture_kana": "ヒョウゴケン",
    "prefecture_code": 28,
    "city": "加古川市",
    "city_kana": "カコガワシ",
    "town": "八幡町下村",
    "town_kana": "ヤハタチョウシモムラ",
    "street": null,
    "office_name": null,
    "office_name_kana": null
  },
  "1204": {
    "postcode": "6751204",
    "prefecture": "兵庫県",
    "prefecture_kana": "ヒョウゴケン",
    "prefecture_code": 28,
    "city": "加古川市",
    "city_kana": "カコガワシ",
    "town": "八幡町上西条",
    "town_kana": "ヤハタチョウカミサイジョウ",
    "street": null,
    "office_name": null,
    "office_name_kana": null
  },
  "1205": {
    "postcode": "6751205",
    "prefecture": "兵庫県",
    "prefecture_kana": "ヒョウゴケン",
    "prefecture_code": 28,
    "city": "加古川市",
    "city_kana": "カコガワシ",
    "town": "八幡町中西条",
    "town_kana": "ヤハタチョウナカサイジョウ",
    "street": null,
    "office_name": null,
    "office_name_kana": null
  },
  "1206": {
    "postcode": "6751206",
    "prefecture": "兵庫県",
    "prefecture_kana": "ヒョウゴケン",
    "prefecture_code": 28,
    "city": "加古川市",
    "city_kana": "カコガワシ",
    "town": "八幡町船町",
    "town_kana": "ヤハタチョウフナマチ",
    "street": null,
    "office_name": null,
    "office_name_kana": null
  },
  "1211": {
    "postcode": "6751211",
    "prefecture": "兵庫県",
    "prefecture_kana": "ヒョウゴケン",
    "prefecture_code": 28,
    "city": "加古川市",
    "city_kana": "カコガワシ",
    "town": "上荘町白沢",
    "town_kana": "カミソウチョウシラサワ",
    "street": null,
    "office_name": null,
    "office_name_kana": null
  },
  "1212": {
    "postcode": "6751212",
    "prefecture": "兵庫県",
    "prefecture_kana": "ヒョウゴケン",
    "prefecture_code": 28,
    "city": "加古川市",
    "city_kana": "カコガワシ",
    "town": "上荘町井ノ口",
    "town_kana": "カミソウチョウイノクチ",
    "street": null,
    "office_name": null,
    "office_name_kana": null
  },
  "1213": {
    "postcode": "6751213",
    "prefecture": "兵庫県",
    "prefecture_kana": "ヒョウゴケン",
    "prefecture_code": 28,
    "city": "加古川市",
    "city_kana": "カコガワシ",
    "town": "上荘町国包",
    "town_kana": "カミソウチョウクニカネ",
    "street": null,
    "office_name": null,
    "office_name_kana": null
  },
  "1214": {
    "postcode": "6751214",
    "prefecture": "兵庫県",
    "prefecture_kana": "ヒョウゴケン",
    "prefecture_code": 28,
    "city": "加古川市",
    "city_kana": "カコガワシ",
    "town": "上荘町見土呂",
    "town_kana": "カミソウチョウミドロ",
    "street": null,
    "office_name": null,
    "office_name_kana": null
  },
  "1215": {
    "postcode": "6751215",
    "prefecture": "兵庫県",
    "prefecture_kana": "ヒョウゴケン",
    "prefecture_code": 28,
    "city": "加古川市",
    "city_kana": "カコガワシ",
    "town": "上荘町都台",
    "town_kana": "カミソウチョウミヤコダイ",
    "street": null,
    "office_name": null,
    "office_name_kana": null
  },
  "1216": {
    "postcode": "6751216",
    "prefecture": "兵庫県",
    "prefecture_kana": "ヒョウゴケン",
    "prefecture_code": 28,
    "city": "加古川市",
    "city_kana": "カコガワシ",
    "town": "上荘町都染",
    "town_kana": "カミソウチョウツゾメ",
    "street": null,
    "office_name": null,
    "office_name_kana": null
  },
  "1217": {
    "postcode": "6751217",
    "prefecture": "兵庫県",
    "prefecture_kana": "ヒョウゴケン",
    "prefecture_code": 28,
    "city": "加古川市",
    "city_kana": "カコガワシ",
    "town": "上荘町薬栗",
    "town_kana": "カミソウチョウクスクリ",
    "street": null,
    "office_name": null,
    "office_name_kana": null
  },
  "1218": {
    "postcode": "6751218",
    "prefecture": "兵庫県",
    "prefecture_kana": "ヒョウゴケン",
    "prefecture_code": 28,
    "city": "加古川市",
    "city_kana": "カコガワシ",
    "town": "上荘町小野",
    "town_kana": "カミソウチョウオノ",
    "street": null,
    "office_name": null,
    "office_name_kana": null
  },
  "1221": {
    "postcode": "6751221",
    "prefecture": "兵庫県",
    "prefecture_kana": "ヒョウゴケン",
    "prefecture_code": 28,
    "city": "加古川市",
    "city_kana": "カコガワシ",
    "town": "平荘町山角",
    "town_kana": "ヘイソウチョウヤマカド",
    "street": null,
    "office_name": null,
    "office_name_kana": null
  },
  "1222": {
    "postcode": "6751222",
    "prefecture": "兵庫県",
    "prefecture_kana": "ヒョウゴケン",
    "prefecture_code": 28,
    "city": "加古川市",
    "city_kana": "カコガワシ",
    "town": "平荘町神木",
    "town_kana": "ヘイソウチョウコウギ",
    "street": null,
    "office_name": null,
    "office_name_kana": null
  },
  "1223": {
    "postcode": "6751223",
    "prefecture": "兵庫県",
    "prefecture_kana": "ヒョウゴケン",
    "prefecture_code": 28,
    "city": "加古川市",
    "city_kana": "カコガワシ",
    "town": "平荘町新中山",
    "town_kana": "ヘイソウチョウシンナカヤマ",
    "street": null,
    "office_name": null,
    "office_name_kana": null
  },
  "1224": {
    "postcode": "6751224",
    "prefecture": "兵庫県",
    "prefecture_kana": "ヒョウゴケン",
    "prefecture_code": 28,
    "city": "加古川市",
    "city_kana": "カコガワシ",
    "town": "平荘町上原",
    "town_kana": "ヘイソウチョウカミハラ",
    "street": null,
    "office_name": null,
    "office_name_kana": null
  },
  "1225": {
    "postcode": "6751225",
    "prefecture": "兵庫県",
    "prefecture_kana": "ヒョウゴケン",
    "prefecture_code": 28,
    "city": "加古川市",
    "city_kana": "カコガワシ",
    "town": "平荘町中山",
    "town_kana": "ヘイソウチョウナカヤマ",
    "street": null,
    "office_name": null,
    "office_name_kana": null
  },
  "1226": {
    "postcode": "6751226",
    "prefecture": "兵庫県",
    "prefecture_kana": "ヒョウゴケン",
    "prefecture_code": 28,
    "city": "加古川市",
    "city_kana": "カコガワシ",
    "town": "平荘町磐",
    "town_kana": "ヘイソウチョウイワオ",
    "street": null,
    "office_name": null,
    "office_name_kana": null
  },
  "1231": {
    "postcode": "6751231",
    "prefecture": "兵庫県",
    "prefecture_kana": "ヒョウゴケン",
    "prefecture_code": 28,
    "city": "加古川市",
    "city_kana": "カコガワシ",
    "town": "平荘町養老",
    "town_kana": "ヘイソウチョウヨウロウ",
    "street": null,
    "office_name": null,
    "office_name_kana": null
  },
  "1232": {
    "postcode": "6751232",
    "prefecture": "兵庫県",
    "prefecture_kana": "ヒョウゴケン",
    "prefecture_code": 28,
    "city": "加古川市",
    "city_kana": "カコガワシ",
    "town": "平荘町里",
    "town_kana": "ヘイソウチョウサト",
    "street": null,
    "office_name": null,
    "office_name_kana": null
  },
  "1233": {
    "postcode": "6751233",
    "prefecture": "兵庫県",
    "prefecture_kana": "ヒョウゴケン",
    "prefecture_code": 28,
    "city": "加古川市",
    "city_kana": "カコガワシ",
    "town": "平荘町池尻",
    "town_kana": "ヘイソウチョウイケジリ",
    "street": null,
    "office_name": null,
    "office_name_kana": null
  },
  "1234": {
    "postcode": "6751234",
    "prefecture": "兵庫県",
    "prefecture_kana": "ヒョウゴケン",
    "prefecture_code": 28,
    "city": "加古川市",
    "city_kana": "カコガワシ",
    "town": "平荘町西山",
    "town_kana": "ヘイソウチョウニシヤマ",
    "street": null,
    "office_name": null,
    "office_name_kana": null
  },
  "1235": {
    "postcode": "6751235",
    "prefecture": "兵庫県",
    "prefecture_kana": "ヒョウゴケン",
    "prefecture_code": 28,
    "city": "加古川市",
    "city_kana": "カコガワシ",
    "town": "平荘町小畑",
    "town_kana": "ヘイソウチョウコバタ",
    "street": null,
    "office_name": null,
    "office_name_kana": null
  },
  "1236": {
    "postcode": "6751236",
    "prefecture": "兵庫県",
    "prefecture_kana": "ヒョウゴケン",
    "prefecture_code": 28,
    "city": "加古川市",
    "city_kana": "カコガワシ",
    "town": "平荘町一本松",
    "town_kana": "ヘイソウチョウイッポンマツ",
    "street": null,
    "office_name": null,
    "office_name_kana": null
  },
  "1297": {
    "postcode": "6751297",
    "prefecture": "兵庫県",
    "prefecture_kana": "ヒョウゴケン",
    "prefecture_code": 28,
    "city": "加古川市",
    "city_kana": "カコガワシ",
    "town": "八幡町宗佐",
    "town_kana": "ヤハタチョウソウサ",
    "street": "５４４",
    "office_name": "播磨社会復帰促進センター",
    "office_name_kana": "ハリマシヤカイフツキソクシンセンタ-"
  },
  "1300": {
    "postcode": "6751300",
    "prefecture": "兵庫県",
    "prefecture_kana": "ヒョウゴケン",
    "prefecture_code": 28,
    "city": "小野市",
    "city_kana": "オノシ",
    "town": "",
    "town_kana": "",
    "street": null,
    "office_name": null,
    "office_name_kana": null
  },
  "1301": {
    "postcode": "6751301",
    "prefecture": "兵庫県",
    "prefecture_kana": "ヒョウゴケン",
    "prefecture_code": 28,
    "city": "小野市",
    "city_kana": "オノシ",
    "town": "小田町",
    "town_kana": "オダチョウ",
    "street": null,
    "office_name": null,
    "office_name_kana": null
  },
  "1302": {
    "postcode": "6751302",
    "prefecture": "兵庫県",
    "prefecture_kana": "ヒョウゴケン",
    "prefecture_code": 28,
    "city": "小野市",
    "city_kana": "オノシ",
    "town": "曽根町",
    "town_kana": "ソネチョウ",
    "street": null,
    "office_name": null,
    "office_name_kana": null
  },
  "1303": {
    "postcode": "6751303",
    "prefecture": "兵庫県",
    "prefecture_kana": "ヒョウゴケン",
    "prefecture_code": 28,
    "city": "小野市",
    "city_kana": "オノシ",
    "town": "池田町",
    "town_kana": "イケダチョウ",
    "street": null,
    "office_name": null,
    "office_name_kana": null
  },
  "1304": {
    "postcode": "6751304",
    "prefecture": "兵庫県",
    "prefecture_kana": "ヒョウゴケン",
    "prefecture_code": 28,
    "city": "小野市",
    "city_kana": "オノシ",
    "town": "中谷町",
    "town_kana": "ナカタニチョウ",
    "street": null,
    "office_name": null,
    "office_name_kana": null
  },
  "1305": {
    "postcode": "6751305",
    "prefecture": "兵庫県",
    "prefecture_kana": "ヒョウゴケン",
    "prefecture_code": 28,
    "city": "小野市",
    "city_kana": "オノシ",
    "town": "脇本町",
    "town_kana": "ワキモトチョウ",
    "street": null,
    "office_name": null,
    "office_name_kana": null
  },
  "1306": {
    "postcode": "6751306",
    "prefecture": "兵庫県",
    "prefecture_kana": "ヒョウゴケン",
    "prefecture_code": 28,
    "city": "小野市",
    "city_kana": "オノシ",
    "town": "船木町",
    "town_kana": "フナキチョウ",
    "street": null,
    "office_name": null,
    "office_name_kana": null
  },
  "1307": {
    "postcode": "6751307",
    "prefecture": "兵庫県",
    "prefecture_kana": "ヒョウゴケン",
    "prefecture_code": 28,
    "city": "小野市",
    "city_kana": "オノシ",
    "town": "菅田町",
    "town_kana": "スガタチョウ",
    "street": null,
    "office_name": null,
    "office_name_kana": null
  },
  "1308": {
    "postcode": "6751308",
    "prefecture": "兵庫県",
    "prefecture_kana": "ヒョウゴケン",
    "prefecture_code": 28,
    "city": "小野市",
    "city_kana": "オノシ",
    "town": "中番町",
    "town_kana": "ナカバンチョウ",
    "street": null,
    "office_name": null,
    "office_name_kana": null
  },
  "1309": {
    "postcode": "6751309",
    "prefecture": "兵庫県",
    "prefecture_kana": "ヒョウゴケン",
    "prefecture_code": 28,
    "city": "小野市",
    "city_kana": "オノシ",
    "town": "福住町",
    "town_kana": "フクズミチョウ",
    "street": null,
    "office_name": null,
    "office_name_kana": null
  },
  "1311": {
    "postcode": "6751311",
    "prefecture": "兵庫県",
    "prefecture_kana": "ヒョウゴケン",
    "prefecture_code": 28,
    "city": "小野市",
    "city_kana": "オノシ",
    "town": "万勝寺町",
    "town_kana": "マンショウジチョウ",
    "street": null,
    "office_name": null,
    "office_name_kana": null
  },
  "1312": {
    "postcode": "6751312",
    "prefecture": "兵庫県",
    "prefecture_kana": "ヒョウゴケン",
    "prefecture_code": 28,
    "city": "小野市",
    "city_kana": "オノシ",
    "town": "栄町",
    "town_kana": "サカエチョウ",
    "street": null,
    "office_name": null,
    "office_name_kana": null
  },
  "1313": {
    "postcode": "6751313",
    "prefecture": "兵庫県",
    "prefecture_kana": "ヒョウゴケン",
    "prefecture_code": 28,
    "city": "小野市",
    "city_kana": "オノシ",
    "town": "大開町",
    "town_kana": "ダイカイチョウ",
    "street": null,
    "office_name": null,
    "office_name_kana": null
  },
  "1314": {
    "postcode": "6751314",
    "prefecture": "兵庫県",
    "prefecture_kana": "ヒョウゴケン",
    "prefecture_code": 28,
    "city": "小野市",
    "city_kana": "オノシ",
    "town": "長尾町",
    "town_kana": "ナガオチョウ",
    "street": null,
    "office_name": null,
    "office_name_kana": null
  },
  "1315": {
    "postcode": "6751315",
    "prefecture": "兵庫県",
    "prefecture_kana": "ヒョウゴケン",
    "prefecture_code": 28,
    "city": "小野市",
    "city_kana": "オノシ",
    "town": "日吉町",
    "town_kana": "ヒヨシチョウ",
    "street": null,
    "office_name": null,
    "office_name_kana": null
  },
  "1316": {
    "postcode": "6751316",
    "prefecture": "兵庫県",
    "prefecture_kana": "ヒョウゴケン",
    "prefecture_code": 28,
    "city": "小野市",
    "city_kana": "オノシ",
    "town": "天神町",
    "town_kana": "テンジンチョウ",
    "street": null,
    "office_name": null,
    "office_name_kana": null
  },
  "1317": {
    "postcode": "6751317",
    "prefecture": "兵庫県",
    "prefecture_kana": "ヒョウゴケン",
    "prefecture_code": 28,
    "city": "小野市",
    "city_kana": "オノシ",
    "town": "浄谷町",
    "town_kana": "キヨタニチョウ",
    "street": null,
    "office_name": null,
    "office_name_kana": null
  },
  "1318": {
    "postcode": "6751318",
    "prefecture": "兵庫県",
    "prefecture_kana": "ヒョウゴケン",
    "prefecture_code": 28,
    "city": "小野市",
    "city_kana": "オノシ",
    "town": "北丘町",
    "town_kana": "キタオカチョウ",
    "street": null,
    "office_name": null,
    "office_name_kana": null
  },
  "1321": {
    "postcode": "6751321",
    "prefecture": "兵庫県",
    "prefecture_kana": "ヒョウゴケン",
    "prefecture_code": 28,
    "city": "小野市",
    "city_kana": "オノシ",
    "town": "山田町",
    "town_kana": "ヤマダチョウ",
    "street": null,
    "office_name": null,
    "office_name_kana": null
  },
  "1322": {
    "postcode": "6751322",
    "prefecture": "兵庫県",
    "prefecture_kana": "ヒョウゴケン",
    "prefecture_code": 28,
    "city": "小野市",
    "city_kana": "オノシ",
    "town": "匠台",
    "town_kana": "タクミダイ",
    "street": null,
    "office_name": null,
    "office_name_kana": null
  },
  "1323": {
    "postcode": "6751323",
    "prefecture": "兵庫県",
    "prefecture_kana": "ヒョウゴケン",
    "prefecture_code": 28,
    "city": "小野市",
    "city_kana": "オノシ",
    "town": "榊町",
    "town_kana": "サガキチョウ",
    "street": null,
    "office_name": null,
    "office_name_kana": null
  },
  "1324": {
    "postcode": "6751324",
    "prefecture": "兵庫県",
    "prefecture_kana": "ヒョウゴケン",
    "prefecture_code": 28,
    "city": "小野市",
    "city_kana": "オノシ",
    "town": "育ケ丘町",
    "town_kana": "イクガオカチョウ",
    "street": null,
    "office_name": null,
    "office_name_kana": null
  },
  "1325": {
    "postcode": "6751325",
    "prefecture": "兵庫県",
    "prefecture_kana": "ヒョウゴケン",
    "prefecture_code": 28,
    "city": "小野市",
    "city_kana": "オノシ",
    "town": "樫山町",
    "town_kana": "カシヤマチョウ",
    "street": null,
    "office_name": null,
    "office_name_kana": null
  },
  "1326": {
    "postcode": "6751326",
    "prefecture": "兵庫県",
    "prefecture_kana": "ヒョウゴケン",
    "prefecture_code": 28,
    "city": "小野市",
    "city_kana": "オノシ",
    "town": "池尻町",
    "town_kana": "イケジリチョウ",
    "street": null,
    "office_name": null,
    "office_name_kana": null
  },
  "1327": {
    "postcode": "6751327",
    "prefecture": "兵庫県",
    "prefecture_kana": "ヒョウゴケン",
    "prefecture_code": 28,
    "city": "小野市",
    "city_kana": "オノシ",
    "town": "市場町",
    "town_kana": "イチバチョウ",
    "street": null,
    "office_name": null,
    "office_name_kana": null
  },
  "1328": {
    "postcode": "6751328",
    "prefecture": "兵庫県",
    "prefecture_kana": "ヒョウゴケン",
    "prefecture_code": 28,
    "city": "小野市",
    "city_kana": "オノシ",
    "town": "二葉町",
    "town_kana": "フタバチョウ",
    "street": null,
    "office_name": null,
    "office_name_kana": null
  },
  "1331": {
    "postcode": "6751331",
    "prefecture": "兵庫県",
    "prefecture_kana": "ヒョウゴケン",
    "prefecture_code": 28,
    "city": "小野市",
    "city_kana": "オノシ",
    "town": "神明町",
    "town_kana": "シンメイチョウ",
    "street": null,
    "office_name": null,
    "office_name_kana": null
  },
  "1332": {
    "postcode": "6751332",
    "prefecture": "兵庫県",
    "prefecture_kana": "ヒョウゴケン",
    "prefecture_code": 28,
    "city": "小野市",
    "city_kana": "オノシ",
    "town": "中町",
    "town_kana": "ナカチョウ",
    "street": null,
    "office_name": null,
    "office_name_kana": null
  },
  "1333": {
    "postcode": "6751333",
    "prefecture": "兵庫県",
    "prefecture_kana": "ヒョウゴケン",
    "prefecture_code": 28,
    "city": "小野市",
    "city_kana": "オノシ",
    "town": "垂井町",
    "town_kana": "タルイチョウ",
    "street": null,
    "office_name": null,
    "office_name_kana": null
  },
  "1334": {
    "postcode": "6751334",
    "prefecture": "兵庫県",
    "prefecture_kana": "ヒョウゴケン",
    "prefecture_code": 28,
    "city": "小野市",
    "city_kana": "オノシ",
    "town": "大島町",
    "town_kana": "オオシマチョウ",
    "street": null,
    "office_name": null,
    "office_name_kana": null
  },
  "1335": {
    "postcode": "6751335",
    "prefecture": "兵庫県",
    "prefecture_kana": "ヒョウゴケン",
    "prefecture_code": 28,
    "city": "小野市",
    "city_kana": "オノシ",
    "town": "片山町",
    "town_kana": "カタヤマチョウ",
    "street": null,
    "office_name": null,
    "office_name_kana": null
  },
  "1336": {
    "postcode": "6751336",
    "prefecture": "兵庫県",
    "prefecture_kana": "ヒョウゴケン",
    "prefecture_code": 28,
    "city": "小野市",
    "city_kana": "オノシ",
    "town": "下大部町",
    "town_kana": "シモオオベチョウ",
    "street": null,
    "office_name": null,
    "office_name_kana": null
  },
  "1337": {
    "postcode": "6751337",
    "prefecture": "兵庫県",
    "prefecture_kana": "ヒョウゴケン",
    "prefecture_code": 28,
    "city": "小野市",
    "city_kana": "オノシ",
    "town": "久茂町",
    "town_kana": "クモチョウ",
    "street": null,
    "office_name": null,
    "office_name_kana": null
  },
  "1338": {
    "postcode": "6751338",
    "prefecture": "兵庫県",
    "prefecture_kana": "ヒョウゴケン",
    "prefecture_code": 28,
    "city": "小野市",
    "city_kana": "オノシ",
    "town": "田園町",
    "town_kana": "デンエンチョウ",
    "street": null,
    "office_name": null,
    "office_name_kana": null
  },
  "1341": {
    "postcode": "6751341",
    "prefecture": "兵庫県",
    "prefecture_kana": "ヒョウゴケン",
    "prefecture_code": 28,
    "city": "小野市",
    "city_kana": "オノシ",
    "town": "西脇町",
    "town_kana": "ニシワキチョウ",
    "street": null,
    "office_name": null,
    "office_name_kana": null
  },
  "1342": {
    "postcode": "6751342",
    "prefecture": "兵庫県",
    "prefecture_kana": "ヒョウゴケン",
    "prefecture_code": 28,
    "city": "小野市",
    "city_kana": "オノシ",
    "town": "阿形町",
    "town_kana": "アガタチョウ",
    "street": null,
    "office_name": null,
    "office_name_kana": null
  },
  "1343": {
    "postcode": "6751343",
    "prefecture": "兵庫県",
    "prefecture_kana": "ヒョウゴケン",
    "prefecture_code": 28,
    "city": "小野市",
    "city_kana": "オノシ",
    "town": "来住町",
    "town_kana": "キシチョウ",
    "street": null,
    "office_name": null,
    "office_name_kana": null
  },
  "1344": {
    "postcode": "6751344",
    "prefecture": "兵庫県",
    "prefecture_kana": "ヒョウゴケン",
    "prefecture_code": 28,
    "city": "小野市",
    "city_kana": "オノシ",
    "town": "下来住町",
    "town_kana": "シモキシチョウ",
    "street": null,
    "office_name": null,
    "office_name_kana": null
  },
  "1345": {
    "postcode": "6751345",
    "prefecture": "兵庫県",
    "prefecture_kana": "ヒョウゴケン",
    "prefecture_code": 28,
    "city": "小野市",
    "city_kana": "オノシ",
    "town": "黍田町",
    "town_kana": "キビタチョウ",
    "street": null,
    "office_name": null,
    "office_name_kana": null
  },
  "1346": {
    "postcode": "6751346",
    "prefecture": "兵庫県",
    "prefecture_kana": "ヒョウゴケン",
    "prefecture_code": 28,
    "city": "小野市",
    "city_kana": "オノシ",
    "town": "福甸町",
    "town_kana": "フクデンチョウ",
    "street": null,
    "office_name": null,
    "office_name_kana": null
  },
  "1350": {
    "postcode": "6751350",
    "prefecture": "兵庫県",
    "prefecture_kana": "ヒョウゴケン",
    "prefecture_code": 28,
    "city": "小野市",
    "city_kana": "オノシ",
    "town": "南青野町",
    "town_kana": "ミナミアオノチョウ",
    "street": null,
    "office_name": null,
    "office_name_kana": null
  },
  "1351": {
    "postcode": "6751351",
    "prefecture": "兵庫県",
    "prefecture_kana": "ヒョウゴケン",
    "prefecture_code": 28,
    "city": "小野市",
    "city_kana": "オノシ",
    "town": "桜台",
    "town_kana": "サクラダイ",
    "street": null,
    "office_name": null,
    "office_name_kana": null
  },
  "1352": [
    {
      "postcode": "6751352",
      "prefecture": "兵庫県",
      "prefecture_kana": "ヒョウゴケン",
      "prefecture_code": 28,
      "city": "小野市",
      "city_kana": "オノシ",
      "town": "青野ケ原町",
      "town_kana": "アオノガハラチョウ",
      "street": null,
      "office_name": null,
      "office_name_kana": null
    },
    {
      "postcode": "6751352",
      "prefecture": "兵庫県",
      "prefecture_kana": "ヒョウゴケン",
      "prefecture_code": 28,
      "city": "小野市",
      "city_kana": "オノシ",
      "town": "西山町",
      "town_kana": "ニシヤマチョウ",
      "street": null,
      "office_name": null,
      "office_name_kana": null
    },
    {
      "postcode": "6751352",
      "prefecture": "兵庫県",
      "prefecture_kana": "ヒョウゴケン",
      "prefecture_code": 28,
      "city": "小野市",
      "city_kana": "オノシ",
      "town": "復井町",
      "town_kana": "フクイチョウ",
      "street": null,
      "office_name": null,
      "office_name_kana": null
    }
  ],
  "1353": {
    "postcode": "6751353",
    "prefecture": "兵庫県",
    "prefecture_kana": "ヒョウゴケン",
    "prefecture_code": 28,
    "city": "小野市",
    "city_kana": "オノシ",
    "town": "河合中町",
    "town_kana": "カワイナカチョウ",
    "street": null,
    "office_name": null,
    "office_name_kana": null
  },
  "1354": {
    "postcode": "6751354",
    "prefecture": "兵庫県",
    "prefecture_kana": "ヒョウゴケン",
    "prefecture_code": 28,
    "city": "小野市",
    "city_kana": "オノシ",
    "town": "河合西町",
    "town_kana": "カワイニシチョウ",
    "street": null,
    "office_name": null,
    "office_name_kana": null
  },
  "1355": {
    "postcode": "6751355",
    "prefecture": "兵庫県",
    "prefecture_kana": "ヒョウゴケン",
    "prefecture_code": 28,
    "city": "小野市",
    "city_kana": "オノシ",
    "town": "新部町",
    "town_kana": "シンベチョウ",
    "street": null,
    "office_name": null,
    "office_name_kana": null
  },
  "1356": {
    "postcode": "6751356",
    "prefecture": "兵庫県",
    "prefecture_kana": "ヒョウゴケン",
    "prefecture_code": 28,
    "city": "小野市",
    "city_kana": "オノシ",
    "town": "旭町",
    "town_kana": "アサヒチョウ",
    "street": null,
    "office_name": null,
    "office_name_kana": null
  },
  "1357": {
    "postcode": "6751357",
    "prefecture": "兵庫県",
    "prefecture_kana": "ヒョウゴケン",
    "prefecture_code": 28,
    "city": "小野市",
    "city_kana": "オノシ",
    "town": "三和町",
    "town_kana": "ミワチョウ",
    "street": null,
    "office_name": null,
    "office_name_kana": null
  },
  "1358": {
    "postcode": "6751358",
    "prefecture": "兵庫県",
    "prefecture_kana": "ヒョウゴケン",
    "prefecture_code": 28,
    "city": "小野市",
    "city_kana": "オノシ",
    "town": "粟生町",
    "town_kana": "アオチョウ",
    "street": null,
    "office_name": null,
    "office_name_kana": null
  },
  "1359": {
    "postcode": "6751359",
    "prefecture": "兵庫県",
    "prefecture_kana": "ヒョウゴケン",
    "prefecture_code": 28,
    "city": "小野市",
    "city_kana": "オノシ",
    "town": "昭和町",
    "town_kana": "ショウワチョウ",
    "street": null,
    "office_name": null,
    "office_name_kana": null
  },
  "1360": {
    "postcode": "6751360",
    "prefecture": "兵庫県",
    "prefecture_kana": "ヒョウゴケン",
    "prefecture_code": 28,
    "city": "小野市",
    "city_kana": "オノシ",
    "town": "喜多町",
    "town_kana": "キタチョウ",
    "street": null,
    "office_name": null,
    "office_name_kana": null
  },
  "1361": {
    "postcode": "6751361",
    "prefecture": "兵庫県",
    "prefecture_kana": "ヒョウゴケン",
    "prefecture_code": 28,
    "city": "小野市",
    "city_kana": "オノシ",
    "town": "住吉町",
    "town_kana": "スミヨシチョウ",
    "street": null,
    "office_name": null,
    "office_name_kana": null
  },
  "1362": [
    {
      "postcode": "6751362",
      "prefecture": "兵庫県",
      "prefecture_kana": "ヒョウゴケン",
      "prefecture_code": 28,
      "city": "小野市",
      "city_kana": "オノシ",
      "town": "久保木町",
      "town_kana": "クボキチョウ",
      "street": null,
      "office_name": null,
      "office_name_kana": null
    },
    {
      "postcode": "6751362",
      "prefecture": "兵庫県",
      "prefecture_kana": "ヒョウゴケン",
      "prefecture_code": 28,
      "city": "小野市",
      "city_kana": "オノシ",
      "town": "高山町",
      "town_kana": "タカヤマチョウ",
      "street": null,
      "office_name": null,
      "office_name_kana": null
    }
  ],
  "1363": {
    "postcode": "6751363",
    "prefecture": "兵庫県",
    "prefecture_kana": "ヒョウゴケン",
    "prefecture_code": 28,
    "city": "小野市",
    "city_kana": "オノシ",
    "town": "古川町",
    "town_kana": "フルカワチョウ",
    "street": null,
    "office_name": null,
    "office_name_kana": null
  },
  "1364": {
    "postcode": "6751364",
    "prefecture": "兵庫県",
    "prefecture_kana": "ヒョウゴケン",
    "prefecture_code": 28,
    "city": "小野市",
    "city_kana": "オノシ",
    "town": "鹿野町",
    "town_kana": "カノチョウ",
    "street": null,
    "office_name": null,
    "office_name_kana": null
  },
  "1365": {
    "postcode": "6751365",
    "prefecture": "兵庫県",
    "prefecture_kana": "ヒョウゴケン",
    "prefecture_code": 28,
    "city": "小野市",
    "city_kana": "オノシ",
    "town": "広渡町",
    "town_kana": "コウドチョウ",
    "street": null,
    "office_name": null,
    "office_name_kana": null
  },
  "1366": {
    "postcode": "6751366",
    "prefecture": "兵庫県",
    "prefecture_kana": "ヒョウゴケン",
    "prefecture_code": 28,
    "city": "小野市",
    "city_kana": "オノシ",
    "town": "中島町",
    "town_kana": "ナカシマチョウ",
    "street": null,
    "office_name": null,
    "office_name_kana": null
  },
  "1367": {
    "postcode": "6751367",
    "prefecture": "兵庫県",
    "prefecture_kana": "ヒョウゴケン",
    "prefecture_code": 28,
    "city": "小野市",
    "city_kana": "オノシ",
    "town": "敷地町",
    "town_kana": "シキジチョウ",
    "street": null,
    "office_name": null,
    "office_name_kana": null
  },
  "1368": {
    "postcode": "6751368",
    "prefecture": "兵庫県",
    "prefecture_kana": "ヒョウゴケン",
    "prefecture_code": 28,
    "city": "小野市",
    "city_kana": "オノシ",
    "town": "住永町",
    "town_kana": "スミナガチョウ",
    "street": null,
    "office_name": null,
    "office_name_kana": null
  },
  "1369": {
    "postcode": "6751369",
    "prefecture": "兵庫県",
    "prefecture_kana": "ヒョウゴケン",
    "prefecture_code": 28,
    "city": "小野市",
    "city_kana": "オノシ",
    "town": "高田町",
    "town_kana": "タカタチョウ",
    "street": null,
    "office_name": null,
    "office_name_kana": null
  },
  "1371": {
    "postcode": "6751371",
    "prefecture": "兵庫県",
    "prefecture_kana": "ヒョウゴケン",
    "prefecture_code": 28,
    "city": "小野市",
    "city_kana": "オノシ",
    "town": "黒川町",
    "town_kana": "クロカワチョウ",
    "street": null,
    "office_name": null,
    "office_name_kana": null
  },
  "1372": {
    "postcode": "6751372",
    "prefecture": "兵庫県",
    "prefecture_kana": "ヒョウゴケン",
    "prefecture_code": 28,
    "city": "小野市",
    "city_kana": "オノシ",
    "town": "本町",
    "town_kana": "ホンマチ",
    "street": null,
    "office_name": null,
    "office_name_kana": null
  },
  "1373": {
    "postcode": "6751373",
    "prefecture": "兵庫県",
    "prefecture_kana": "ヒョウゴケン",
    "prefecture_code": 28,
    "city": "小野市",
    "city_kana": "オノシ",
    "town": "東本町",
    "town_kana": "ヒガシホンマチ",
    "street": null,
    "office_name": null,
    "office_name_kana": null
  },
  "1374": {
    "postcode": "6751374",
    "prefecture": "兵庫県",
    "prefecture_kana": "ヒョウゴケン",
    "prefecture_code": 28,
    "city": "小野市",
    "city_kana": "オノシ",
    "town": "本町",
    "town_kana": "ホンマチ",
    "street": null,
    "office_name": null,
    "office_name_kana": null
  },
  "1375": {
    "postcode": "6751375",
    "prefecture": "兵庫県",
    "prefecture_kana": "ヒョウゴケン",
    "prefecture_code": 28,
    "city": "小野市",
    "city_kana": "オノシ",
    "town": "西本町",
    "town_kana": "ニシホンマチ",
    "street": null,
    "office_name": null,
    "office_name_kana": null
  },
  "1376": {
    "postcode": "6751376",
    "prefecture": "兵庫県",
    "prefecture_kana": "ヒョウゴケン",
    "prefecture_code": 28,
    "city": "小野市",
    "city_kana": "オノシ",
    "town": "丸山町",
    "town_kana": "マルヤマチョウ",
    "street": null,
    "office_name": null,
    "office_name_kana": null
  },
  "1377": {
    "postcode": "6751377",
    "prefecture": "兵庫県",
    "prefecture_kana": "ヒョウゴケン",
    "prefecture_code": 28,
    "city": "小野市",
    "city_kana": "オノシ",
    "town": "葉多町",
    "town_kana": "ハタチョウ",
    "street": null,
    "office_name": null,
    "office_name_kana": null
  },
  "1378": [
    {
      "postcode": "6751378",
      "prefecture": "兵庫県",
      "prefecture_kana": "ヒョウゴケン",
      "prefecture_code": 28,
      "city": "小野市",
      "city_kana": "オノシ",
      "town": "王子町",
      "town_kana": "オウジチョウ",
      "street": null,
      "office_name": null,
      "office_name_kana": null
    },
    {
      "postcode": "6751378",
      "prefecture": "兵庫県",
      "prefecture_kana": "ヒョウゴケン",
      "prefecture_code": 28,
      "city": "小野市",
      "city_kana": "オノシ",
      "town": "上新町",
      "town_kana": "カミシンマチ",
      "street": null,
      "office_name": null,
      "office_name_kana": null
    }
  ],
  "1379": {
    "postcode": "6751379",
    "prefecture": "兵庫県",
    "prefecture_kana": "ヒョウゴケン",
    "prefecture_code": 28,
    "city": "小野市",
    "city_kana": "オノシ",
    "town": "上本町",
    "town_kana": "カミホンマチ",
    "street": null,
    "office_name": null,
    "office_name_kana": null
  },
  "1380": {
    "postcode": "6751380",
    "prefecture": "兵庫県",
    "prefecture_kana": "ヒョウゴケン",
    "prefecture_code": 28,
    "city": "小野市",
    "city_kana": "オノシ",
    "town": "中島町",
    "town_kana": "ナカシマチョウ",
    "street": "５３１番地",
    "office_name": "小野市役所",
    "office_name_kana": "オノシヤクシヨ"
  },
  "1392": {
    "postcode": "6751392",
    "prefecture": "兵庫県",
    "prefecture_kana": "ヒョウゴケン",
    "prefecture_code": 28,
    "city": "小野市",
    "city_kana": "オノシ",
    "town": "市場町",
    "town_kana": "イチバチョウ",
    "street": "９２６番地の２５０",
    "office_name": "北播磨総合医療センター",
    "office_name_kana": "キタハリマソウゴウイリヨウセンタ-"
  },
  "1395": {
    "postcode": "6751395",
    "prefecture": "兵庫県",
    "prefecture_kana": "ヒョウゴケン",
    "prefecture_code": 28,
    "city": "小野市",
    "city_kana": "オノシ",
    "town": "王子町",
    "town_kana": "オウジチョウ",
    "street": "８００−１",
    "office_name": "小野商工会議所",
    "office_name_kana": "オノシヨウコウカイギシヨ"
  },
  "2101": {
    "postcode": "6752101",
    "prefecture": "兵庫県",
    "prefecture_kana": "ヒョウゴケン",
    "prefecture_code": 28,
    "city": "加西市",
    "city_kana": "カサイシ",
    "town": "繁昌町",
    "town_kana": "ハンジョウチョウ",
    "street": null,
    "office_name": null,
    "office_name_kana": null
  },
  "2102": {
    "postcode": "6752102",
    "prefecture": "兵庫県",
    "prefecture_kana": "ヒョウゴケン",
    "prefecture_code": 28,
    "city": "加西市",
    "city_kana": "カサイシ",
    "town": "中野町",
    "town_kana": "ナカノチョウ",
    "street": null,
    "office_name": null,
    "office_name_kana": null
  },
  "2103": {
    "postcode": "6752103",
    "prefecture": "兵庫県",
    "prefecture_kana": "ヒョウゴケン",
    "prefecture_code": 28,
    "city": "加西市",
    "city_kana": "カサイシ",
    "town": "鶉野町",
    "town_kana": "ウズラノチョウ",
    "street": null,
    "office_name": null,
    "office_name_kana": null
  },
  "2104": {
    "postcode": "6752104",
    "prefecture": "兵庫県",
    "prefecture_kana": "ヒョウゴケン",
    "prefecture_code": 28,
    "city": "加西市",
    "city_kana": "カサイシ",
    "town": "上宮木町",
    "town_kana": "カミミヤキチョウ",
    "street": null,
    "office_name": null,
    "office_name_kana": null
  },
  "2105": {
    "postcode": "6752105",
    "prefecture": "兵庫県",
    "prefecture_kana": "ヒョウゴケン",
    "prefecture_code": 28,
    "city": "加西市",
    "city_kana": "カサイシ",
    "town": "下宮木町",
    "town_kana": "シモミヤキチョウ",
    "street": null,
    "office_name": null,
    "office_name_kana": null
  },
  "2111": {
    "postcode": "6752111",
    "prefecture": "兵庫県",
    "prefecture_kana": "ヒョウゴケン",
    "prefecture_code": 28,
    "city": "加西市",
    "city_kana": "カサイシ",
    "town": "桑原田町",
    "town_kana": "クワハラダチョウ",
    "street": null,
    "office_name": null,
    "office_name_kana": null
  },
  "2112": {
    "postcode": "6752112",
    "prefecture": "兵庫県",
    "prefecture_kana": "ヒョウゴケン",
    "prefecture_code": 28,
    "city": "加西市",
    "city_kana": "カサイシ",
    "town": "栄町",
    "town_kana": "サカエチョウ",
    "street": null,
    "office_name": null,
    "office_name_kana": null
  },
  "2113": {
    "postcode": "6752113",
    "prefecture": "兵庫県",
    "prefecture_kana": "ヒョウゴケン",
    "prefecture_code": 28,
    "city": "加西市",
    "city_kana": "カサイシ",
    "town": "網引町",
    "town_kana": "アビキチョウ",
    "street": null,
    "office_name": null,
    "office_name_kana": null
  },
  "2114": {
    "postcode": "6752114",
    "prefecture": "兵庫県",
    "prefecture_kana": "ヒョウゴケン",
    "prefecture_code": 28,
    "city": "加西市",
    "city_kana": "カサイシ",
    "town": "田原町",
    "town_kana": "タハラチョウ",
    "street": null,
    "office_name": null,
    "office_name_kana": null
  },
  "2201": {
    "postcode": "6752201",
    "prefecture": "兵庫県",
    "prefecture_kana": "ヒョウゴケン",
    "prefecture_code": 28,
    "city": "加西市",
    "city_kana": "カサイシ",
    "town": "琵琶甲町",
    "town_kana": "ビワコウチョウ",
    "street": null,
    "office_name": null,
    "office_name_kana": null
  },
  "2202": {
    "postcode": "6752202",
    "prefecture": "兵庫県",
    "prefecture_kana": "ヒョウゴケン",
    "prefecture_code": 28,
    "city": "加西市",
    "city_kana": "カサイシ",
    "town": "野条町",
    "town_kana": "ノウジョウチョウ",
    "street": null,
    "office_name": null,
    "office_name_kana": null
  },
  "2203": {
    "postcode": "6752203",
    "prefecture": "兵庫県",
    "prefecture_kana": "ヒョウゴケン",
    "prefecture_code": 28,
    "city": "加西市",
    "city_kana": "カサイシ",
    "town": "牛居町",
    "town_kana": "ウシイチョウ",
    "street": null,
    "office_name": null,
    "office_name_kana": null
  },
  "2204": {
    "postcode": "6752204",
    "prefecture": "兵庫県",
    "prefecture_kana": "ヒョウゴケン",
    "prefecture_code": 28,
    "city": "加西市",
    "city_kana": "カサイシ",
    "town": "新生町",
    "town_kana": "シンジョウチョウ",
    "street": null,
    "office_name": null,
    "office_name_kana": null
  },
  "2211": {
    "postcode": "6752211",
    "prefecture": "兵庫県",
    "prefecture_kana": "ヒョウゴケン",
    "prefecture_code": 28,
    "city": "加西市",
    "city_kana": "カサイシ",
    "town": "野田町",
    "town_kana": "ノダチョウ",
    "street": null,
    "office_name": null,
    "office_name_kana": null
  },
  "2212": {
    "postcode": "6752212",
    "prefecture": "兵庫県",
    "prefecture_kana": "ヒョウゴケン",
    "prefecture_code": 28,
    "city": "加西市",
    "city_kana": "カサイシ",
    "town": "東笠原町",
    "town_kana": "ヒガシカサハラチョウ",
    "street": null,
    "office_name": null,
    "office_name_kana": null
  },
  "2213": {
    "postcode": "6752213",
    "prefecture": "兵庫県",
    "prefecture_kana": "ヒョウゴケン",
    "prefecture_code": 28,
    "city": "加西市",
    "city_kana": "カサイシ",
    "town": "西笠原町",
    "town_kana": "ニシカサハラチョウ",
    "street": null,
    "office_name": null,
    "office_name_kana": null
  },
  "2221": {
    "postcode": "6752221",
    "prefecture": "兵庫県",
    "prefecture_kana": "ヒョウゴケン",
    "prefecture_code": 28,
    "city": "加西市",
    "city_kana": "カサイシ",
    "town": "倉谷町",
    "town_kana": "クラタニチョウ",
    "street": null,
    "office_name": null,
    "office_name_kana": null
  },
  "2222": {
    "postcode": "6752222",
    "prefecture": "兵庫県",
    "prefecture_kana": "ヒョウゴケン",
    "prefecture_code": 28,
    "city": "加西市",
    "city_kana": "カサイシ",
    "town": "坂本町",
    "town_kana": "サカモトチョウ",
    "street": null,
    "office_name": null,
    "office_name_kana": null
  },
  "2223": {
    "postcode": "6752223",
    "prefecture": "兵庫県",
    "prefecture_kana": "ヒョウゴケン",
    "prefecture_code": 28,
    "city": "加西市",
    "city_kana": "カサイシ",
    "town": "三口町",
    "town_kana": "ミクチチョウ",
    "street": null,
    "office_name": null,
    "office_name_kana": null
  },
  "2231": {
    "postcode": "6752231",
    "prefecture": "兵庫県",
    "prefecture_kana": "ヒョウゴケン",
    "prefecture_code": 28,
    "city": "加西市",
    "city_kana": "カサイシ",
    "town": "王子町",
    "town_kana": "オウジチョウ",
    "street": null,
    "office_name": null,
    "office_name_kana": null
  },
  "2232": {
    "postcode": "6752232",
    "prefecture": "兵庫県",
    "prefecture_kana": "ヒョウゴケン",
    "prefecture_code": 28,
    "city": "加西市",
    "city_kana": "カサイシ",
    "town": "戸田井町",
    "town_kana": "トタイチョウ",
    "street": null,
    "office_name": null,
    "office_name_kana": null
  },
  "2233": {
    "postcode": "6752233",
    "prefecture": "兵庫県",
    "prefecture_kana": "ヒョウゴケン",
    "prefecture_code": 28,
    "city": "加西市",
    "city_kana": "カサイシ",
    "town": "両月町",
    "town_kana": "ワチチョウ",
    "street": null,
    "office_name": null,
    "office_name_kana": null
  },
  "2234": {
    "postcode": "6752234",
    "prefecture": "兵庫県",
    "prefecture_kana": "ヒョウゴケン",
    "prefecture_code": 28,
    "city": "加西市",
    "city_kana": "カサイシ",
    "town": "大村町",
    "town_kana": "オオムラチョウ",
    "street": null,
    "office_name": null,
    "office_name_kana": null
  },
  "2241": {
    "postcode": "6752241",
    "prefecture": "兵庫県",
    "prefecture_kana": "ヒョウゴケン",
    "prefecture_code": 28,
    "city": "加西市",
    "city_kana": "カサイシ",
    "town": "段下町",
    "town_kana": "ダンゲチョウ",
    "street": null,
    "office_name": null,
    "office_name_kana": null
  },
  "2242": {
    "postcode": "6752242",
    "prefecture": "兵庫県",
    "prefecture_kana": "ヒョウゴケン",
    "prefecture_code": 28,
    "city": "加西市",
    "city_kana": "カサイシ",
    "town": "尾崎町",
    "town_kana": "オサキチョウ",
    "street": null,
    "office_name": null,
    "office_name_kana": null
  },
  "2243": {
    "postcode": "6752243",
    "prefecture": "兵庫県",
    "prefecture_kana": "ヒョウゴケン",
    "prefecture_code": 28,
    "city": "加西市",
    "city_kana": "カサイシ",
    "town": "中西町",
    "town_kana": "ナカニシチョウ",
    "street": null,
    "office_name": null,
    "office_name_kana": null
  },
  "2301": {
    "postcode": "6752301",
    "prefecture": "兵庫県",
    "prefecture_kana": "ヒョウゴケン",
    "prefecture_code": 28,
    "city": "加西市",
    "city_kana": "カサイシ",
    "town": "北条町小谷",
    "town_kana": "ホウジョウチョウコダニ",
    "street": null,
    "office_name": null,
    "office_name_kana": null
  },
  "2302": {
    "postcode": "6752302",
    "prefecture": "兵庫県",
    "prefecture_kana": "ヒョウゴケン",
    "prefecture_code": 28,
    "city": "加西市",
    "city_kana": "カサイシ",
    "town": "北条町栗田",
    "town_kana": "ホウジョウチョウクリダ",
    "street": null,
    "office_name": null,
    "office_name_kana": null
  },
  "2303": {
    "postcode": "6752303",
    "prefecture": "兵庫県",
    "prefecture_kana": "ヒョウゴケン",
    "prefecture_code": 28,
    "city": "加西市",
    "city_kana": "カサイシ",
    "town": "北条町古坂",
    "town_kana": "ホウジョウチョウフルサカ",
    "street": null,
    "office_name": null,
    "office_name_kana": null
  },
  "2311": {
    "postcode": "6752311",
    "prefecture": "兵庫県",
    "prefecture_kana": "ヒョウゴケン",
    "prefecture_code": 28,
    "city": "加西市",
    "city_kana": "カサイシ",
    "town": "北条町横尾",
    "town_kana": "ホウジョウチョウヨコオ",
    "street": null,
    "office_name": null,
    "office_name_kana": null
  },
  "2312": {
    "postcode": "6752312",
    "prefecture": "兵庫県",
    "prefecture_kana": "ヒョウゴケン",
    "prefecture_code": 28,
    "city": "加西市",
    "city_kana": "カサイシ",
    "town": "北条町北条",
    "town_kana": "ホウジョウチョウホウジョウ",
    "street": null,
    "office_name": null,
    "office_name_kana": null
  },
  "2313": {
    "postcode": "6752313",
    "prefecture": "兵庫県",
    "prefecture_kana": "ヒョウゴケン",
    "prefecture_code": 28,
    "city": "加西市",
    "city_kana": "カサイシ",
    "town": "北条町黒駒",
    "town_kana": "ホウジョウチョウクロコマ",
    "street": null,
    "office_name": null,
    "office_name_kana": null
  },
  "2321": {
    "postcode": "6752321",
    "prefecture": "兵庫県",
    "prefecture_kana": "ヒョウゴケン",
    "prefecture_code": 28,
    "city": "加西市",
    "city_kana": "カサイシ",
    "town": "北条町東高室",
    "town_kana": "ホウジョウチョウヒガシタカムロ",
    "street": null,
    "office_name": null,
    "office_name_kana": null
  },
  "2322": {
    "postcode": "6752322",
    "prefecture": "兵庫県",
    "prefecture_kana": "ヒョウゴケン",
    "prefecture_code": 28,
    "city": "加西市",
    "city_kana": "カサイシ",
    "town": "北条町西高室",
    "town_kana": "ホウジョウチョウニシタカムロ",
    "street": null,
    "office_name": null,
    "office_name_kana": null
  },
  "2323": {
    "postcode": "6752323",
    "prefecture": "兵庫県",
    "prefecture_kana": "ヒョウゴケン",
    "prefecture_code": 28,
    "city": "加西市",
    "city_kana": "カサイシ",
    "town": "北条町西南",
    "town_kana": "ホウジョウチョウニシナン",
    "street": null,
    "office_name": null,
    "office_name_kana": null
  },
  "2324": {
    "postcode": "6752324",
    "prefecture": "兵庫県",
    "prefecture_kana": "ヒョウゴケン",
    "prefecture_code": 28,
    "city": "加西市",
    "city_kana": "カサイシ",
    "town": "北条町東南",
    "town_kana": "ホウジョウチョウヒガシナン",
    "street": null,
    "office_name": null,
    "office_name_kana": null
  },
  "2331": {
    "postcode": "6752331",
    "prefecture": "兵庫県",
    "prefecture_kana": "ヒョウゴケン",
    "prefecture_code": 28,
    "city": "加西市",
    "city_kana": "カサイシ",
    "town": "東横田町",
    "town_kana": "ヒガシヨコタチョウ",
    "street": null,
    "office_name": null,
    "office_name_kana": null
  },
  "2332": {
    "postcode": "6752332",
    "prefecture": "兵庫県",
    "prefecture_kana": "ヒョウゴケン",
    "prefecture_code": 28,
    "city": "加西市",
    "city_kana": "カサイシ",
    "town": "鎮岩町",
    "town_kana": "トコナベチョウ",
    "street": null,
    "office_name": null,
    "office_name_kana": null
  },
  "2333": {
    "postcode": "6752333",
    "prefecture": "兵庫県",
    "prefecture_kana": "ヒョウゴケン",
    "prefecture_code": 28,
    "city": "加西市",
    "city_kana": "カサイシ",
    "town": "岸呂町",
    "town_kana": "キシロチョウ",
    "street": null,
    "office_name": null,
    "office_name_kana": null
  },
  "2334": {
    "postcode": "6752334",
    "prefecture": "兵庫県",
    "prefecture_kana": "ヒョウゴケン",
    "prefecture_code": 28,
    "city": "加西市",
    "city_kana": "カサイシ",
    "town": "福住町",
    "town_kana": "フクズミチョウ",
    "street": null,
    "office_name": null,
    "office_name_kana": null
  },
  "2335": {
    "postcode": "6752335",
    "prefecture": "兵庫県",
    "prefecture_kana": "ヒョウゴケン",
    "prefecture_code": 28,
    "city": "加西市",
    "city_kana": "カサイシ",
    "town": "西横田町",
    "town_kana": "ニシヨコタチョウ",
    "street": null,
    "office_name": null,
    "office_name_kana": null
  },
  "2336": {
    "postcode": "6752336",
    "prefecture": "兵庫県",
    "prefecture_kana": "ヒョウゴケン",
    "prefecture_code": 28,
    "city": "加西市",
    "city_kana": "カサイシ",
    "town": "坂元町",
    "town_kana": "サカモトチョウ",
    "street": null,
    "office_name": null,
    "office_name_kana": null
  },
  "2337": {
    "postcode": "6752337",
    "prefecture": "兵庫県",
    "prefecture_kana": "ヒョウゴケン",
    "prefecture_code": 28,
    "city": "加西市",
    "city_kana": "カサイシ",
    "town": "市村町",
    "town_kana": "イチムラチョウ",
    "street": null,
    "office_name": null,
    "office_name_kana": null
  },
  "2341": {
    "postcode": "6752341",
    "prefecture": "兵庫県",
    "prefecture_kana": "ヒョウゴケン",
    "prefecture_code": 28,
    "city": "加西市",
    "city_kana": "カサイシ",
    "town": "東長町",
    "town_kana": "ヒガシオサチョウ",
    "street": null,
    "office_name": null,
    "office_name_kana": null
  },
  "2342": {
    "postcode": "6752342",
    "prefecture": "兵庫県",
    "prefecture_kana": "ヒョウゴケン",
    "prefecture_code": 28,
    "city": "加西市",
    "city_kana": "カサイシ",
    "town": "西長町",
    "town_kana": "ニシオサチョウ",
    "street": null,
    "office_name": null,
    "office_name_kana": null
  },
  "2343": {
    "postcode": "6752343",
    "prefecture": "兵庫県",
    "prefecture_kana": "ヒョウゴケン",
    "prefecture_code": 28,
    "city": "加西市",
    "city_kana": "カサイシ",
    "town": "中山町",
    "town_kana": "ナカヤマチョウ",
    "street": null,
    "office_name": null,
    "office_name_kana": null
  },
  "2344": {
    "postcode": "6752344",
    "prefecture": "兵庫県",
    "prefecture_kana": "ヒョウゴケン",
    "prefecture_code": 28,
    "city": "加西市",
    "city_kana": "カサイシ",
    "town": "大柳町",
    "town_kana": "オヤナギチョウ",
    "street": null,
    "office_name": null,
    "office_name_kana": null
  },
  "2345": {
    "postcode": "6752345",
    "prefecture": "兵庫県",
    "prefecture_kana": "ヒョウゴケン",
    "prefecture_code": 28,
    "city": "加西市",
    "city_kana": "カサイシ",
    "town": "西剣坂町",
    "town_kana": "ニシケンザカチョウ",
    "street": null,
    "office_name": null,
    "office_name_kana": null
  },
  "2346": {
    "postcode": "6752346",
    "prefecture": "兵庫県",
    "prefecture_kana": "ヒョウゴケン",
    "prefecture_code": 28,
    "city": "加西市",
    "city_kana": "カサイシ",
    "town": "東剣坂町",
    "town_kana": "ヒガシケンザカチョウ",
    "street": null,
    "office_name": null,
    "office_name_kana": null
  },
  "2351": {
    "postcode": "6752351",
    "prefecture": "兵庫県",
    "prefecture_kana": "ヒョウゴケン",
    "prefecture_code": 28,
    "city": "加西市",
    "city_kana": "カサイシ",
    "town": "福居町",
    "town_kana": "フクイチョウ",
    "street": null,
    "office_name": null,
    "office_name_kana": null
  },
  "2352": {
    "postcode": "6752352",
    "prefecture": "兵庫県",
    "prefecture_kana": "ヒョウゴケン",
    "prefecture_code": 28,
    "city": "加西市",
    "city_kana": "カサイシ",
    "town": "谷口町",
    "town_kana": "タニグチチョウ",
    "street": null,
    "office_name": null,
    "office_name_kana": null
  },
  "2353": {
    "postcode": "6752353",
    "prefecture": "兵庫県",
    "prefecture_kana": "ヒョウゴケン",
    "prefecture_code": 28,
    "city": "加西市",
    "city_kana": "カサイシ",
    "town": "吉野町",
    "town_kana": "ヨシノチョウ",
    "street": null,
    "office_name": null,
    "office_name_kana": null
  },
  "2354": {
    "postcode": "6752354",
    "prefecture": "兵庫県",
    "prefecture_kana": "ヒョウゴケン",
    "prefecture_code": 28,
    "city": "加西市",
    "city_kana": "カサイシ",
    "town": "山下町",
    "town_kana": "ヤマシタチョウ",
    "street": null,
    "office_name": null,
    "office_name_kana": null
  },
  "2361": {
    "postcode": "6752361",
    "prefecture": "兵庫県",
    "prefecture_kana": "ヒョウゴケン",
    "prefecture_code": 28,
    "city": "加西市",
    "city_kana": "カサイシ",
    "town": "谷町",
    "town_kana": "タニチョウ",
    "street": null,
    "office_name": null,
    "office_name_kana": null
  },
  "2362": {
    "postcode": "6752362",
    "prefecture": "兵庫県",
    "prefecture_kana": "ヒョウゴケン",
    "prefecture_code": 28,
    "city": "加西市",
    "city_kana": "カサイシ",
    "town": "西上野町",
    "town_kana": "ニシウエノチョウ",
    "street": null,
    "office_name": null,
    "office_name_kana": null
  },
  "2363": {
    "postcode": "6752363",
    "prefecture": "兵庫県",
    "prefecture_kana": "ヒョウゴケン",
    "prefecture_code": 28,
    "city": "加西市",
    "city_kana": "カサイシ",
    "town": "吸谷町",
    "town_kana": "スイダニチョウ",
    "street": null,
    "office_name": null,
    "office_name_kana": null
  },
  "2364": {
    "postcode": "6752364",
    "prefecture": "兵庫県",
    "prefecture_kana": "ヒョウゴケン",
    "prefecture_code": 28,
    "city": "加西市",
    "city_kana": "カサイシ",
    "town": "窪田町",
    "town_kana": "クボタチョウ",
    "street": null,
    "office_name": null,
    "office_name_kana": null
  },
  "2365": {
    "postcode": "6752365",
    "prefecture": "兵庫県",
    "prefecture_kana": "ヒョウゴケン",
    "prefecture_code": 28,
    "city": "加西市",
    "city_kana": "カサイシ",
    "town": "畑町",
    "town_kana": "ハタチョウ",
    "street": null,
    "office_name": null,
    "office_name_kana": null
  },
  "2366": {
    "postcode": "6752366",
    "prefecture": "兵庫県",
    "prefecture_kana": "ヒョウゴケン",
    "prefecture_code": 28,
    "city": "加西市",
    "city_kana": "カサイシ",
    "town": "西谷町",
    "town_kana": "ニシタニチョウ",
    "street": null,
    "office_name": null,
    "office_name_kana": null
  },
  "2393": {
    "postcode": "6752393",
    "prefecture": "兵庫県",
    "prefecture_kana": "ヒョウゴケン",
    "prefecture_code": 28,
    "city": "加西市",
    "city_kana": "カサイシ",
    "town": "北条町横尾",
    "town_kana": "ホウジョウチョウヨコオ",
    "street": "１丁目１３",
    "office_name": "市立加西病院",
    "office_name_kana": "シリツカサイビヨウイン"
  },
  "2395": {
    "postcode": "6752395",
    "prefecture": "兵庫県",
    "prefecture_kana": "ヒョウゴケン",
    "prefecture_code": 28,
    "city": "加西市",
    "city_kana": "カサイシ",
    "town": "北条町横尾",
    "town_kana": "ホウジョウチョウヨコオ",
    "street": "１０００",
    "office_name": "加西市役所",
    "office_name_kana": "カサイシヤクシヨ"
  },
  "2401": {
    "postcode": "6752401",
    "prefecture": "兵庫県",
    "prefecture_kana": "ヒョウゴケン",
    "prefecture_code": 28,
    "city": "加西市",
    "city_kana": "カサイシ",
    "town": "国正町",
    "town_kana": "クニマサチョウ",
    "street": null,
    "office_name": null,
    "office_name_kana": null
  },
  "2402": {
    "postcode": "6752402",
    "prefecture": "兵庫県",
    "prefecture_kana": "ヒョウゴケン",
    "prefecture_code": 28,
    "city": "加西市",
    "city_kana": "カサイシ",
    "town": "田谷町",
    "town_kana": "タヤチョウ",
    "street": null,
    "office_name": null,
    "office_name_kana": null
  },
  "2403": {
    "postcode": "6752403",
    "prefecture": "兵庫県",
    "prefecture_kana": "ヒョウゴケン",
    "prefecture_code": 28,
    "city": "加西市",
    "city_kana": "カサイシ",
    "town": "小印南町",
    "town_kana": "コイナミチョウ",
    "street": null,
    "office_name": null,
    "office_name_kana": null
  },
  "2404": {
    "postcode": "6752404",
    "prefecture": "兵庫県",
    "prefecture_kana": "ヒョウゴケン",
    "prefecture_code": 28,
    "city": "加西市",
    "city_kana": "カサイシ",
    "town": "油谷町",
    "town_kana": "ユダニチョウ",
    "street": null,
    "office_name": null,
    "office_name_kana": null
  },
  "2411": {
    "postcode": "6752411",
    "prefecture": "兵庫県",
    "prefecture_kana": "ヒョウゴケン",
    "prefecture_code": 28,
    "city": "加西市",
    "city_kana": "カサイシ",
    "town": "大工町",
    "town_kana": "ダイクチョウ",
    "street": null,
    "office_name": null,
    "office_name_kana": null
  },
  "2412": {
    "postcode": "6752412",
    "prefecture": "兵庫県",
    "prefecture_kana": "ヒョウゴケン",
    "prefecture_code": 28,
    "city": "加西市",
    "city_kana": "カサイシ",
    "town": "鍛治屋町",
    "town_kana": "カジヤチョウ",
    "street": null,
    "office_name": null,
    "office_name_kana": null
  },
  "2413": {
    "postcode": "6752413",
    "prefecture": "兵庫県",
    "prefecture_kana": "ヒョウゴケン",
    "prefecture_code": 28,
    "city": "加西市",
    "city_kana": "カサイシ",
    "town": "青野町",
    "town_kana": "アオノチョウ",
    "street": null,
    "office_name": null,
    "office_name_kana": null
  },
  "2414": {
    "postcode": "6752414",
    "prefecture": "兵庫県",
    "prefecture_kana": "ヒョウゴケン",
    "prefecture_code": 28,
    "city": "加西市",
    "city_kana": "カサイシ",
    "town": "馬渡谷町",
    "town_kana": "モオタニチョウ",
    "street": null,
    "office_name": null,
    "office_name_kana": null
  },
  "2421": {
    "postcode": "6752421",
    "prefecture": "兵庫県",
    "prefecture_kana": "ヒョウゴケン",
    "prefecture_code": 28,
    "city": "加西市",
    "city_kana": "カサイシ",
    "town": "河内町",
    "town_kana": "コウチチョウ",
    "street": null,
    "office_name": null,
    "office_name_kana": null
  },
  "2422": {
    "postcode": "6752422",
    "prefecture": "兵庫県",
    "prefecture_kana": "ヒョウゴケン",
    "prefecture_code": 28,
    "city": "加西市",
    "city_kana": "カサイシ",
    "town": "山田町",
    "town_kana": "ヤマダチョウ",
    "street": null,
    "office_name": null,
    "office_name_kana": null
  },
  "2423": {
    "postcode": "6752423",
    "prefecture": "兵庫県",
    "prefecture_kana": "ヒョウゴケン",
    "prefecture_code": 28,
    "city": "加西市",
    "city_kana": "カサイシ",
    "town": "和泉町",
    "town_kana": "イズミチョウ",
    "street": null,
    "office_name": null,
    "office_name_kana": null
  },
  "2424": {
    "postcode": "6752424",
    "prefecture": "兵庫県",
    "prefecture_kana": "ヒョウゴケン",
    "prefecture_code": 28,
    "city": "加西市",
    "city_kana": "カサイシ",
    "town": "野上町",
    "town_kana": "ノガミチョウ",
    "street": null,
    "office_name": null,
    "office_name_kana": null
  },
  "2425": {
    "postcode": "6752425",
    "prefecture": "兵庫県",
    "prefecture_kana": "ヒョウゴケン",
    "prefecture_code": 28,
    "city": "加西市",
    "city_kana": "カサイシ",
    "town": "池上町",
    "town_kana": "イケガミチョウ",
    "street": null,
    "office_name": null,
    "office_name_kana": null
  },
  "2426": {
    "postcode": "6752426",
    "prefecture": "兵庫県",
    "prefecture_kana": "ヒョウゴケン",
    "prefecture_code": 28,
    "city": "加西市",
    "city_kana": "カサイシ",
    "town": "西野々町",
    "town_kana": "ニシノノチョウ",
    "street": null,
    "office_name": null,
    "office_name_kana": null
  },
  "2431": {
    "postcode": "6752431",
    "prefecture": "兵庫県",
    "prefecture_kana": "ヒョウゴケン",
    "prefecture_code": 28,
    "city": "加西市",
    "city_kana": "カサイシ",
    "town": "島町",
    "town_kana": "シマチョウ",
    "street": null,
    "office_name": null,
    "office_name_kana": null
  },
  "2432": {
    "postcode": "6752432",
    "prefecture": "兵庫県",
    "prefecture_kana": "ヒョウゴケン",
    "prefecture_code": 28,
    "city": "加西市",
    "city_kana": "カサイシ",
    "town": "満久町",
    "town_kana": "マクチョウ",
    "street": null,
    "office_name": null,
    "office_name_kana": null
  },
  "2433": {
    "postcode": "6752433",
    "prefecture": "兵庫県",
    "prefecture_kana": "ヒョウゴケン",
    "prefecture_code": 28,
    "city": "加西市",
    "city_kana": "カサイシ",
    "town": "北町",
    "town_kana": "キタチョウ",
    "street": null,
    "office_name": null,
    "office_name_kana": null
  },
  "2434": {
    "postcode": "6752434",
    "prefecture": "兵庫県",
    "prefecture_kana": "ヒョウゴケン",
    "prefecture_code": 28,
    "city": "加西市",
    "city_kana": "カサイシ",
    "town": "上野町",
    "town_kana": "ウエノチョウ",
    "street": null,
    "office_name": null,
    "office_name_kana": null
  },
  "2441": {
    "postcode": "6752441",
    "prefecture": "兵庫県",
    "prefecture_kana": "ヒョウゴケン",
    "prefecture_code": 28,
    "city": "加西市",
    "city_kana": "カサイシ",
    "town": "越水町",
    "town_kana": "ウテミチョウ",
    "street": null,
    "office_name": null,
    "office_name_kana": null
  },
  "2442": {
    "postcode": "6752442",
    "prefecture": "兵庫県",
    "prefecture_kana": "ヒョウゴケン",
    "prefecture_code": 28,
    "city": "加西市",
    "city_kana": "カサイシ",
    "town": "中富町",
    "town_kana": "ナカトミチョウ",
    "street": null,
    "office_name": null,
    "office_name_kana": null
  },
  "2443": {
    "postcode": "6752443",
    "prefecture": "兵庫県",
    "prefecture_kana": "ヒョウゴケン",
    "prefecture_code": 28,
    "city": "加西市",
    "city_kana": "カサイシ",
    "town": "笹倉町",
    "town_kana": "ササクラチョウ",
    "street": null,
    "office_name": null,
    "office_name_kana": null
  },
  "2444": {
    "postcode": "6752444",
    "prefecture": "兵庫県",
    "prefecture_kana": "ヒョウゴケン",
    "prefecture_code": 28,
    "city": "加西市",
    "city_kana": "カサイシ",
    "town": "鴨谷町",
    "town_kana": "カモダニチョウ",
    "street": null,
    "office_name": null,
    "office_name_kana": null
  },
  "2445": {
    "postcode": "6752445",
    "prefecture": "兵庫県",
    "prefecture_kana": "ヒョウゴケン",
    "prefecture_code": 28,
    "city": "加西市",
    "city_kana": "カサイシ",
    "town": "殿原町",
    "town_kana": "トノハラチョウ",
    "street": null,
    "office_name": null,
    "office_name_kana": null
  },
  "2451": {
    "postcode": "6752451",
    "prefecture": "兵庫県",
    "prefecture_kana": "ヒョウゴケン",
    "prefecture_code": 28,
    "city": "加西市",
    "city_kana": "カサイシ",
    "town": "上万願寺町",
    "town_kana": "カミマンガンジチョウ",
    "street": null,
    "office_name": null,
    "office_name_kana": null
  },
  "2452": {
    "postcode": "6752452",
    "prefecture": "兵庫県",
    "prefecture_kana": "ヒョウゴケン",
    "prefecture_code": 28,
    "city": "加西市",
    "city_kana": "カサイシ",
    "town": "下万願寺町",
    "town_kana": "シモマンガンジチョウ",
    "street": null,
    "office_name": null,
    "office_name_kana": null
  },
  "2453": {
    "postcode": "6752453",
    "prefecture": "兵庫県",
    "prefecture_kana": "ヒョウゴケン",
    "prefecture_code": 28,
    "city": "加西市",
    "city_kana": "カサイシ",
    "town": "上道山町",
    "town_kana": "カミミチヤマチョウ",
    "street": null,
    "office_name": null,
    "office_name_kana": null
  },
  "2454": {
    "postcode": "6752454",
    "prefecture": "兵庫県",
    "prefecture_kana": "ヒョウゴケン",
    "prefecture_code": 28,
    "city": "加西市",
    "city_kana": "カサイシ",
    "town": "下道山町",
    "town_kana": "シモミチヤマチョウ",
    "street": null,
    "office_name": null,
    "office_name_kana": null
  },
  "2455": {
    "postcode": "6752455",
    "prefecture": "兵庫県",
    "prefecture_kana": "ヒョウゴケン",
    "prefecture_code": 28,
    "city": "加西市",
    "city_kana": "カサイシ",
    "town": "大内町",
    "town_kana": "オオチチョウ",
    "street": null,
    "office_name": null,
    "office_name_kana": null
  },
  "2456": {
    "postcode": "6752456",
    "prefecture": "兵庫県",
    "prefecture_kana": "ヒョウゴケン",
    "prefecture_code": 28,
    "city": "加西市",
    "city_kana": "カサイシ",
    "town": "若井町",
    "town_kana": "ワカイチョウ",
    "street": null,
    "office_name": null,
    "office_name_kana": null
  },
  "2461": {
    "postcode": "6752461",
    "prefecture": "兵庫県",
    "prefecture_kana": "ヒョウゴケン",
    "prefecture_code": 28,
    "city": "加西市",
    "city_kana": "カサイシ",
    "town": "佐谷町",
    "town_kana": "サタニチョウ",
    "street": null,
    "office_name": null,
    "office_name_kana": null
  },
  "2462": {
    "postcode": "6752462",
    "prefecture": "兵庫県",
    "prefecture_kana": "ヒョウゴケン",
    "prefecture_code": 28,
    "city": "加西市",
    "city_kana": "カサイシ",
    "town": "別所町",
    "town_kana": "ベッショチョウ",
    "street": null,
    "office_name": null,
    "office_name_kana": null
  },
  "2463": {
    "postcode": "6752463",
    "prefecture": "兵庫県",
    "prefecture_kana": "ヒョウゴケン",
    "prefecture_code": 28,
    "city": "加西市",
    "city_kana": "カサイシ",
    "town": "広原町",
    "town_kana": "ヒロハラチョウ",
    "street": null,
    "office_name": null,
    "office_name_kana": null
  },
  "2464": {
    "postcode": "6752464",
    "prefecture": "兵庫県",
    "prefecture_kana": "ヒョウゴケン",
    "prefecture_code": 28,
    "city": "加西市",
    "city_kana": "カサイシ",
    "town": "下芥田町",
    "town_kana": "シモゲタチョウ",
    "street": null,
    "office_name": null,
    "office_name_kana": null
  },
  "2465": {
    "postcode": "6752465",
    "prefecture": "兵庫県",
    "prefecture_kana": "ヒョウゴケン",
    "prefecture_code": 28,
    "city": "加西市",
    "city_kana": "カサイシ",
    "town": "上芥田町",
    "town_kana": "カミゲタチョウ",
    "street": null,
    "office_name": null,
    "office_name_kana": null
  },
  "8501": {
    "postcode": "6758501",
    "prefecture": "兵庫県",
    "prefecture_kana": "ヒョウゴケン",
    "prefecture_code": 28,
    "city": "加古川市",
    "city_kana": "カコガワシ",
    "town": "加古川町北在家",
    "town_kana": "カコガワチョウキタザイケ",
    "street": "２０００",
    "office_name": "加古川市役所",
    "office_name_kana": "カコガワシヤクシヨ"
  },
  "8505": {
    "postcode": "6758505",
    "prefecture": "兵庫県",
    "prefecture_kana": "ヒョウゴケン",
    "prefecture_code": 28,
    "city": "加古川市",
    "city_kana": "カコガワシ",
    "town": "加古川町篠原町",
    "town_kana": "カコガワチョウシノハラチョウ",
    "street": "２１番地の８",
    "office_name": "株式会社　加古川ヤマトヤシキ",
    "office_name_kana": "カブシキカイシヤ カコガワヤマトヤシキ"
  },
  "8510": {
    "postcode": "6758510",
    "prefecture": "兵庫県",
    "prefecture_kana": "ヒョウゴケン",
    "prefecture_code": 28,
    "city": "加古川市",
    "city_kana": "カコガワシ",
    "town": "加古川町木村",
    "town_kana": "カコガワチョウキムラ",
    "street": "３０３−１",
    "office_name": "（株）　マルアイ",
    "office_name_kana": "(カブ) マルアイ"
  },
  "8511": {
    "postcode": "6758511",
    "prefecture": "兵庫県",
    "prefecture_kana": "ヒョウゴケン",
    "prefecture_code": 28,
    "city": "加古川市",
    "city_kana": "カコガワシ",
    "town": "野口町長砂",
    "town_kana": "ノグチチョウナガスナ",
    "street": "８８１",
    "office_name": "株式会社　テイエルブイ",
    "office_name_kana": "カブシキガイシヤ テイエルブイ"
  },
  "8519": {
    "postcode": "6758519",
    "prefecture": "兵庫県",
    "prefecture_kana": "ヒョウゴケン",
    "prefecture_code": 28,
    "city": "加古川市",
    "city_kana": "カコガワシ",
    "town": "野口町水足",
    "town_kana": "ノグチチョウミズアシ",
    "street": "２６４番地の１",
    "office_name": "本州製罐　株式会社　兵庫工場",
    "office_name_kana": "ホンシユウセイカン カブシキガイシヤ ヒヨウゴコウジヨウ"
  },
  "8522": {
    "postcode": "6758522",
    "prefecture": "兵庫県",
    "prefecture_kana": "ヒョウゴケン",
    "prefecture_code": 28,
    "city": "加古川市",
    "city_kana": "カコガワシ",
    "town": "加古川町本町",
    "town_kana": "カコガワチョウホンマチ",
    "street": "１９４",
    "office_name": "加古川市　中央消防署",
    "office_name_kana": "カコガワシ チユウオウシヨウボウシヨ"
  },
  "8533": {
    "postcode": "6758533",
    "prefecture": "兵庫県",
    "prefecture_kana": "ヒョウゴケン",
    "prefecture_code": 28,
    "city": "加古川市",
    "city_kana": "カコガワシ",
    "town": "加古川町備後",
    "town_kana": "カコガワチョウビンゴ",
    "street": "３５８−１",
    "office_name": "株式会社　コスモライフ",
    "office_name_kana": "カブシキガイシヤ コスモライフ"
  },
  "8555": {
    "postcode": "6758555",
    "prefecture": "兵庫県",
    "prefecture_kana": "ヒョウゴケン",
    "prefecture_code": 28,
    "city": "加古川市",
    "city_kana": "カコガワシ",
    "town": "神野町神野",
    "town_kana": "カンノチョウカンノ",
    "street": "２０３",
    "office_name": "兵庫県立　加古川医療センター",
    "office_name_kana": "ヒヨウゴケンリツ カコガワイリヨウセンタ-"
  },
  "8558": {
    "postcode": "6758558",
    "prefecture": "兵庫県",
    "prefecture_kana": "ヒョウゴケン",
    "prefecture_code": 28,
    "city": "加古川市",
    "city_kana": "カコガワシ",
    "town": "野口町古大内",
    "town_kana": "ノグチチョウフルオウチ",
    "street": "５１０",
    "office_name": "加古川プラスチックス　株式会社",
    "office_name_kana": "カコガワプラスチツクス カブシキガイシヤ"
  },
  "8565": {
    "postcode": "6758565",
    "prefecture": "兵庫県",
    "prefecture_kana": "ヒョウゴケン",
    "prefecture_code": 28,
    "city": "加古川市",
    "city_kana": "カコガワシ",
    "town": "野口町水足",
    "town_kana": "ノグチチョウミズアシ",
    "street": "１７９番地の６",
    "office_name": "株式会社　大真空",
    "office_name_kana": "カブシキガイシヤ ダイシンクウ"
  },
  "8566": {
    "postcode": "6758566",
    "prefecture": "兵庫県",
    "prefecture_kana": "ヒョウゴケン",
    "prefecture_code": 28,
    "city": "加古川市",
    "city_kana": "カコガワシ",
    "town": "加古川町寺家町",
    "town_kana": "カコガワチョウジケマチ",
    "street": "天神木９７−１",
    "office_name": "兵庫県　加古川県税事務所",
    "office_name_kana": "ヒヨウゴケン カコガワケンゼイジムシヨ"
  },
  "8567": {
    "postcode": "6758567",
    "prefecture": "兵庫県",
    "prefecture_kana": "ヒョウゴケン",
    "prefecture_code": 28,
    "city": "加古川市",
    "city_kana": "カコガワシ",
    "town": "加古川町木村",
    "town_kana": "カコガワチョウキムラ",
    "street": "字木寺５の２",
    "office_name": "加古川税務署",
    "office_name_kana": "カコガワゼイムシヨ"
  },
  "8577": {
    "postcode": "6758577",
    "prefecture": "兵庫県",
    "prefecture_kana": "ヒョウゴケン",
    "prefecture_code": 28,
    "city": "加古川市",
    "city_kana": "カコガワシ",
    "town": "加古川町寺家町",
    "town_kana": "カコガワチョウジケマチ",
    "street": "１７７−１２",
    "office_name": "社会福祉法人　加古川市社会福祉協議会",
    "office_name_kana": "シヤカイフクシホウジン カコガワシシヤカイフクシキヨウギカイ"
  },
  "8588": {
    "postcode": "6758588",
    "prefecture": "兵庫県",
    "prefecture_kana": "ヒョウゴケン",
    "prefecture_code": 28,
    "city": "加古川市",
    "city_kana": "カコガワシ",
    "town": "野口町良野",
    "town_kana": "ノグチチョウヨシノ",
    "street": "３９８−１",
    "office_name": "加古川市上下水道局",
    "office_name_kana": "カコガワシジヨウゲスイドウキヨク"
  },
  "8611": {
    "postcode": "6758611",
    "prefecture": "兵庫県",
    "prefecture_kana": "ヒョウゴケン",
    "prefecture_code": 28,
    "city": "加古川市",
    "city_kana": "カコガワシ",
    "town": "加古川町本町",
    "town_kana": "カコガワチョウホンマチ",
    "street": "４３９",
    "office_name": "加古川中央市民病院",
    "office_name_kana": "カコガワチユウオウシミンビヨウイン"
  },
  "8675": {
    "postcode": "6758675",
    "prefecture": "兵庫県",
    "prefecture_kana": "ヒョウゴケン",
    "prefecture_code": 28,
    "city": "加古川市",
    "city_kana": "カコガワシ",
    "town": "野口町古大内",
    "town_kana": "ノグチチョウフルオウチ",
    "street": "９００番地",
    "office_name": "オークラ輸送機　株式会社",
    "office_name_kana": "オ-クラユソウキ カブシキガイシヤ"
  },
  "8686": {
    "postcode": "6758686",
    "prefecture": "兵庫県",
    "prefecture_kana": "ヒョウゴケン",
    "prefecture_code": 28,
    "city": "加古川市",
    "city_kana": "カコガワシ",
    "town": "加古川町溝之口",
    "town_kana": "カコガワチョウミゾノクチ",
    "street": "５３９（加古川郵便局私書箱第２３号）",
    "office_name": "但陽信用金庫",
    "office_name_kana": "タンヨウシンヨウキンコ"
  },
  "8688": {
    "postcode": "6758688",
    "prefecture": "兵庫県",
    "prefecture_kana": "ヒョウゴケン",
    "prefecture_code": 28,
    "city": "加古川市",
    "city_kana": "カコガワシ",
    "town": "野口町水足",
    "town_kana": "ノグチチョウミズアシ",
    "street": "１７１−１（加古川郵便局私書箱第３号）",
    "office_name": "株式会社　アプコ",
    "office_name_kana": "カブシキガイシヤ アプコ"
  }
}