{
  "0101": {
    "postcode": "6790101",
    "prefecture": "兵庫県",
    "prefecture_kana": "ヒョウゴケン",
    "prefecture_code": 28,
    "city": "加西市",
    "city_kana": "カサイシ",
    "town": "都染町",
    "town_kana": "ツソメチョウ",
    "street": null,
    "office_name": null,
    "office_name_kana": null
  },
  "0102": {
    "postcode": "6790102",
    "prefecture": "兵庫県",
    "prefecture_kana": "ヒョウゴケン",
    "prefecture_code": 28,
    "city": "加西市",
    "city_kana": "カサイシ",
    "town": "青野原町",
    "town_kana": "アオノハラチョウ",
    "street": null,
    "office_name": null,
    "office_name_kana": null
  },
  "0103": {
    "postcode": "6790103",
    "prefecture": "兵庫県",
    "prefecture_kana": "ヒョウゴケン",
    "prefecture_code": 28,
    "city": "加西市",
    "city_kana": "カサイシ",
    "town": "別府町",
    "town_kana": "ベフチョウ",
    "street": null,
    "office_name": null,
    "office_name_kana": null
  },
  "0104": {
    "postcode": "6790104",
    "prefecture": "兵庫県",
    "prefecture_kana": "ヒョウゴケン",
    "prefecture_code": 28,
    "city": "加西市",
    "city_kana": "カサイシ",
    "town": "常吉町",
    "town_kana": "ツネヨシチョウ",
    "street": null,
    "office_name": null,
    "office_name_kana": null
  },
  "0105": {
    "postcode": "6790105",
    "prefecture": "兵庫県",
    "prefecture_kana": "ヒョウゴケン",
    "prefecture_code": 28,
    "city": "加西市",
    "city_kana": "カサイシ",
    "town": "朝妻町",
    "town_kana": "アサヅマチョウ",
    "street": null,
    "office_name": null,
    "office_name_kana": null
  },
  "0106": {
    "postcode": "6790106",
    "prefecture": "兵庫県",
    "prefecture_kana": "ヒョウゴケン",
    "prefecture_code": 28,
    "city": "加西市",
    "city_kana": "カサイシ",
    "town": "豊倉町",
    "town_kana": "トヨクラチョウ",
    "street": null,
    "office_name": null,
    "office_name_kana": null
  },
  "0107": {
    "postcode": "6790107",
    "prefecture": "兵庫県",
    "prefecture_kana": "ヒョウゴケン",
    "prefecture_code": 28,
    "city": "加西市",
    "city_kana": "カサイシ",
    "town": "玉野町",
    "town_kana": "タマノチョウ",
    "street": null,
    "office_name": null,
    "office_name_kana": null
  },
  "0108": {
    "postcode": "6790108",
    "prefecture": "兵庫県",
    "prefecture_kana": "ヒョウゴケン",
    "prefecture_code": 28,
    "city": "加西市",
    "city_kana": "カサイシ",
    "town": "山枝町",
    "town_kana": "ヤマエダチョウ",
    "street": null,
    "office_name": null,
    "office_name_kana": null
  },
  "0109": {
    "postcode": "6790109",
    "prefecture": "兵庫県",
    "prefecture_kana": "ヒョウゴケン",
    "prefecture_code": 28,
    "city": "加西市",
    "city_kana": "カサイシ",
    "town": "玉丘町",
    "town_kana": "タマオカチョウ",
    "street": null,
    "office_name": null,
    "office_name_kana": null
  },
  "0180": {
    "postcode": "6790180",
    "prefecture": "兵庫県",
    "prefecture_kana": "ヒョウゴケン",
    "prefecture_code": 28,
    "city": "加西市",
    "city_kana": "カサイシ",
    "town": "朝妻町",
    "town_kana": "アサヅマチョウ",
    "street": "１１４６−２",
    "office_name": "伊東電機　株式会社",
    "office_name_kana": "イトウデンキ カブシキガイシヤ"
  },
  "0181": {
    "postcode": "6790181",
    "prefecture": "兵庫県",
    "prefecture_kana": "ヒョウゴケン",
    "prefecture_code": 28,
    "city": "加西市",
    "city_kana": "カサイシ",
    "town": "朝妻町",
    "town_kana": "アサヅマチョウ",
    "street": "１１４０",
    "office_name": "椿本チエイン　兵庫工場",
    "office_name_kana": "ツバキモトチエイン ヒヨウゴコウジヨウ"
  },
  "0187": {
    "postcode": "6790187",
    "prefecture": "兵庫県",
    "prefecture_kana": "ヒョウゴケン",
    "prefecture_code": 28,
    "city": "加西市",
    "city_kana": "カサイシ",
    "town": "豊倉町",
    "town_kana": "トヨクラチョウ",
    "street": "飯森１２８２−１",
    "office_name": "財団法人　兵庫県フラワーセンター協会",
    "office_name_kana": "ザイダンホウジン ヒヨウゴケンフラワ-センタ-キヨウカイ"
  },
  "0188": {
    "postcode": "6790188",
    "prefecture": "兵庫県",
    "prefecture_kana": "ヒョウゴケン",
    "prefecture_code": 28,
    "city": "加西市",
    "city_kana": "カサイシ",
    "town": "玉野町",
    "town_kana": "タマノチョウ",
    "street": "１１５６−１",
    "office_name": "兵庫みらい農業協同組合",
    "office_name_kana": "ヒヨウゴミライノウギヨウキヨウドウクミアイ"
  },
  "0198": {
    "postcode": "6790198",
    "prefecture": "兵庫県",
    "prefecture_kana": "ヒョウゴケン",
    "prefecture_code": 28,
    "city": "加西市",
    "city_kana": "カサイシ",
    "town": "別府町",
    "town_kana": "ベフチョウ",
    "street": "南ノ岡甲１５３３",
    "office_name": "兵庫県立　中央農業技術センター",
    "office_name_kana": "ヒヨウゴケンリツ チユウオウノウギヨウギジユツセンタ-"
  },
  "0201": {
    "postcode": "6790201",
    "prefecture": "兵庫県",
    "prefecture_kana": "ヒョウゴケン",
    "prefecture_code": 28,
    "city": "加東市",
    "city_kana": "カトウシ",
    "town": "曽我",
    "town_kana": "ソガ",
    "street": null,
    "office_name": null,
    "office_name_kana": null
  },
  "0202": {
    "postcode": "6790202",
    "prefecture": "兵庫県",
    "prefecture_kana": "ヒョウゴケン",
    "prefecture_code": 28,
    "city": "加東市",
    "city_kana": "カトウシ",
    "town": "多井田",
    "town_kana": "オイダ",
    "street": null,
    "office_name": null,
    "office_name_kana": null
  },
  "0203": {
    "postcode": "6790203",
    "prefecture": "兵庫県",
    "prefecture_kana": "ヒョウゴケン",
    "prefecture_code": 28,
    "city": "加東市",
    "city_kana": "カトウシ",
    "town": "稲尾",
    "town_kana": "イナオ",
    "street": null,
    "office_name": null,
    "office_name_kana": null
  },
  "0204": {
    "postcode": "6790204",
    "prefecture": "兵庫県",
    "prefecture_kana": "ヒョウゴケン",
    "prefecture_code": 28,
    "city": "加東市",
    "city_kana": "カトウシ",
    "town": "新町",
    "town_kana": "シンマチ",
    "street": null,
    "office_name": null,
    "office_name_kana": null
  },
  "0205": {
    "postcode": "6790205",
    "prefecture": "兵庫県",
    "prefecture_kana": "ヒョウゴケン",
    "prefecture_code": 28,
    "city": "加東市",
    "city_kana": "カトウシ",
    "town": "北野",
    "town_kana": "キタノ",
    "street": null,
    "office_name": null,
    "office_name_kana": null
  },
  "0206": {
    "postcode": "6790206",
    "prefecture": "兵庫県",
    "prefecture_kana": "ヒョウゴケン",
    "prefecture_code": 28,
    "city": "加東市",
    "city_kana": "カトウシ",
    "town": "穂積",
    "town_kana": "ホヅミ",
    "street": null,
    "office_name": null,
    "office_name_kana": null
  },
  "0207": {
    "postcode": "6790207",
    "prefecture": "兵庫県",
    "prefecture_kana": "ヒョウゴケン",
    "prefecture_code": 28,
    "city": "加東市",
    "city_kana": "カトウシ",
    "town": "滝野団地",
    "town_kana": "タキノダンチ",
    "street": null,
    "office_name": null,
    "office_name_kana": null
  },
  "0211": {
    "postcode": "6790211",
    "prefecture": "兵庫県",
    "prefecture_kana": "ヒョウゴケン",
    "prefecture_code": 28,
    "city": "加東市",
    "city_kana": "カトウシ",
    "town": "上滝野",
    "town_kana": "カミタキノ",
    "street": null,
    "office_name": null,
    "office_name_kana": null
  },
  "0212": {
    "postcode": "6790212",
    "prefecture": "兵庫県",
    "prefecture_kana": "ヒョウゴケン",
    "prefecture_code": 28,
    "city": "加東市",
    "city_kana": "カトウシ",
    "town": "下滝野",
    "town_kana": "シモタキノ",
    "street": null,
    "office_name": null,
    "office_name_kana": null
  },
  "0213": {
    "postcode": "6790213",
    "prefecture": "兵庫県",
    "prefecture_kana": "ヒョウゴケン",
    "prefecture_code": 28,
    "city": "加東市",
    "city_kana": "カトウシ",
    "town": "光明寺",
    "town_kana": "コウミョウジ",
    "street": null,
    "office_name": null,
    "office_name_kana": null
  },
  "0221": {
    "postcode": "6790221",
    "prefecture": "兵庫県",
    "prefecture_kana": "ヒョウゴケン",
    "prefecture_code": 28,
    "city": "加東市",
    "city_kana": "カトウシ",
    "town": "河高",
    "town_kana": "コウタカ",
    "street": null,
    "office_name": null,
    "office_name_kana": null
  },
  "0222": {
    "postcode": "6790222",
    "prefecture": "兵庫県",
    "prefecture_kana": "ヒョウゴケン",
    "prefecture_code": 28,
    "city": "加東市",
    "city_kana": "カトウシ",
    "town": "高岡",
    "town_kana": "タカオカ",
    "street": null,
    "office_name": null,
    "office_name_kana": null
  },
  "0223": {
    "postcode": "6790223",
    "prefecture": "兵庫県",
    "prefecture_kana": "ヒョウゴケン",
    "prefecture_code": 28,
    "city": "加東市",
    "city_kana": "カトウシ",
    "town": "桜台",
    "town_kana": "サクラダイ",
    "street": null,
    "office_name": null,
    "office_name_kana": null
  },
  "0292": {
    "postcode": "6790292",
    "prefecture": "兵庫県",
    "prefecture_kana": "ヒョウゴケン",
    "prefecture_code": 28,
    "city": "加東市",
    "city_kana": "カトウシ",
    "town": "下滝野",
    "town_kana": "シモタキノ",
    "street": "１２６９−２",
    "office_name": "加東市役所　滝野庁舎",
    "office_name_kana": "カトウシヤクシヨ タキノチヨウシヤ"
  },
  "0295": {
    "postcode": "6790295",
    "prefecture": "兵庫県",
    "prefecture_kana": "ヒョウゴケン",
    "prefecture_code": 28,
    "city": "加東市",
    "city_kana": "カトウシ",
    "town": "上滝野",
    "town_kana": "カミタキノ",
    "street": "１５７３−２",
    "office_name": "藤井電工　株式会社",
    "office_name_kana": "フジイデンコウ カブシキガイシヤ"
  },
  "0301": {
    "postcode": "6790301",
    "prefecture": "兵庫県",
    "prefecture_kana": "ヒョウゴケン",
    "prefecture_code": 28,
    "city": "西脇市",
    "city_kana": "ニシワキシ",
    "town": "黒田庄町小苗",
    "town_kana": "クロダショウチョウコナエ",
    "street": null,
    "office_name": null,
    "office_name_kana": null
  },
  "0302": {
    "postcode": "6790302",
    "prefecture": "兵庫県",
    "prefecture_kana": "ヒョウゴケン",
    "prefecture_code": 28,
    "city": "西脇市",
    "city_kana": "ニシワキシ",
    "town": "黒田庄町黒田",
    "town_kana": "クロダショウチョウクロダ",
    "street": null,
    "office_name": null,
    "office_name_kana": null
  },
  "0303": {
    "postcode": "6790303",
    "prefecture": "兵庫県",
    "prefecture_kana": "ヒョウゴケン",
    "prefecture_code": 28,
    "city": "西脇市",
    "city_kana": "ニシワキシ",
    "town": "黒田庄町前坂",
    "town_kana": "クロダショウチョウマエサカ",
    "street": null,
    "office_name": null,
    "office_name_kana": null
  },
  "0304": {
    "postcode": "6790304",
    "prefecture": "兵庫県",
    "prefecture_kana": "ヒョウゴケン",
    "prefecture_code": 28,
    "city": "西脇市",
    "city_kana": "ニシワキシ",
    "town": "黒田庄町船町",
    "town_kana": "クロダショウチョウフナマチ",
    "street": null,
    "office_name": null,
    "office_name_kana": null
  },
  "0311": {
    "postcode": "6790311",
    "prefecture": "兵庫県",
    "prefecture_kana": "ヒョウゴケン",
    "prefecture_code": 28,
    "city": "西脇市",
    "city_kana": "ニシワキシ",
    "town": "黒田庄町喜多",
    "town_kana": "クロダショウチョウキタ",
    "street": null,
    "office_name": null,
    "office_name_kana": null
  },
  "0312": {
    "postcode": "6790312",
    "prefecture": "兵庫県",
    "prefecture_kana": "ヒョウゴケン",
    "prefecture_code": 28,
    "city": "西脇市",
    "city_kana": "ニシワキシ",
    "town": "黒田庄町門柳",
    "town_kana": "クロダショウチョウモンリュウ",
    "street": null,
    "office_name": null,
    "office_name_kana": null
  },
  "0313": {
    "postcode": "6790313",
    "prefecture": "兵庫県",
    "prefecture_kana": "ヒョウゴケン",
    "prefecture_code": 28,
    "city": "西脇市",
    "city_kana": "ニシワキシ",
    "town": "黒田庄町岡",
    "town_kana": "クロダショウチョウオカ",
    "street": null,
    "office_name": null,
    "office_name_kana": null
  },
  "0314": {
    "postcode": "6790314",
    "prefecture": "兵庫県",
    "prefecture_kana": "ヒョウゴケン",
    "prefecture_code": 28,
    "city": "西脇市",
    "city_kana": "ニシワキシ",
    "town": "黒田庄町福地",
    "town_kana": "クロダショウチョウフクジ",
    "street": null,
    "office_name": null,
    "office_name_kana": null
  },
  "0315": {
    "postcode": "6790315",
    "prefecture": "兵庫県",
    "prefecture_kana": "ヒョウゴケン",
    "prefecture_code": 28,
    "city": "西脇市",
    "city_kana": "ニシワキシ",
    "town": "黒田庄町津万井",
    "town_kana": "クロダショウチョウツマイ",
    "street": null,
    "office_name": null,
    "office_name_kana": null
  },
  "0316": {
    "postcode": "6790316",
    "prefecture": "兵庫県",
    "prefecture_kana": "ヒョウゴケン",
    "prefecture_code": 28,
    "city": "西脇市",
    "city_kana": "ニシワキシ",
    "town": "黒田庄町大門",
    "town_kana": "クロダショウチョウダイモン",
    "street": null,
    "office_name": null,
    "office_name_kana": null
  },
  "0321": {
    "postcode": "6790321",
    "prefecture": "兵庫県",
    "prefecture_kana": "ヒョウゴケン",
    "prefecture_code": 28,
    "city": "西脇市",
    "city_kana": "ニシワキシ",
    "town": "黒田庄町田高",
    "town_kana": "クロダショウチョウタコウ",
    "street": null,
    "office_name": null,
    "office_name_kana": null
  },
  "0322": {
    "postcode": "6790322",
    "prefecture": "兵庫県",
    "prefecture_kana": "ヒョウゴケン",
    "prefecture_code": 28,
    "city": "西脇市",
    "city_kana": "ニシワキシ",
    "town": "黒田庄町石原",
    "town_kana": "クロダショウチョウイシハラ",
    "street": null,
    "office_name": null,
    "office_name_kana": null
  },
  "0323": {
    "postcode": "6790323",
    "prefecture": "兵庫県",
    "prefecture_kana": "ヒョウゴケン",
    "prefecture_code": 28,
    "city": "西脇市",
    "city_kana": "ニシワキシ",
    "town": "黒田庄町西澤",
    "town_kana": "クロダショウチョウニシザワ",
    "street": null,
    "office_name": null,
    "office_name_kana": null
  },
  "0324": {
    "postcode": "6790324",
    "prefecture": "兵庫県",
    "prefecture_kana": "ヒョウゴケン",
    "prefecture_code": 28,
    "city": "西脇市",
    "city_kana": "ニシワキシ",
    "town": "黒田庄町大伏",
    "town_kana": "クロダショウチョウオオフシ",
    "street": null,
    "office_name": null,
    "office_name_kana": null
  },
  "1100": {
    "postcode": "6791100",
    "prefecture": "兵庫県",
    "prefecture_kana": "ヒョウゴケン",
    "prefecture_code": 28,
    "city": "多可郡多可町",
    "city_kana": "タカグンタカチョウ",
    "town": "",
    "town_kana": "",
    "street": null,
    "office_name": null,
    "office_name_kana": null
  },
  "1101": {
    "postcode": "6791101",
    "prefecture": "兵庫県",
    "prefecture_kana": "ヒョウゴケン",
    "prefecture_code": 28,
    "city": "多可郡多可町",
    "city_kana": "タカグンタカチョウ",
    "town": "中区門前",
    "town_kana": "ナカクモンゼン",
    "street": null,
    "office_name": null,
    "office_name_kana": null
  },
  "1102": {
    "postcode": "6791102",
    "prefecture": "兵庫県",
    "prefecture_kana": "ヒョウゴケン",
    "prefecture_code": 28,
    "city": "多可郡多可町",
    "city_kana": "タカグンタカチョウ",
    "town": "中区安楽田",
    "town_kana": "ナカクアラタ",
    "street": null,
    "office_name": null,
    "office_name_kana": null
  },
  "1103": {
    "postcode": "6791103",
    "prefecture": "兵庫県",
    "prefecture_kana": "ヒョウゴケン",
    "prefecture_code": 28,
    "city": "多可郡多可町",
    "city_kana": "タカグンタカチョウ",
    "town": "中区牧野",
    "town_kana": "ナカクマキノ",
    "street": null,
    "office_name": null,
    "office_name_kana": null
  },
  "1104": {
    "postcode": "6791104",
    "prefecture": "兵庫県",
    "prefecture_kana": "ヒョウゴケン",
    "prefecture_code": 28,
    "city": "多可郡多可町",
    "city_kana": "タカグンタカチョウ",
    "town": "中区田野口",
    "town_kana": "ナカクタノクチ",
    "street": null,
    "office_name": null,
    "office_name_kana": null
  },
  "1105": {
    "postcode": "6791105",
    "prefecture": "兵庫県",
    "prefecture_kana": "ヒョウゴケン",
    "prefecture_code": 28,
    "city": "多可郡多可町",
    "city_kana": "タカグンタカチョウ",
    "town": "中区東山",
    "town_kana": "ナカクヒガシヤマ",
    "street": null,
    "office_name": null,
    "office_name_kana": null
  },
  "1106": {
    "postcode": "6791106",
    "prefecture": "兵庫県",
    "prefecture_kana": "ヒョウゴケン",
    "prefecture_code": 28,
    "city": "多可郡多可町",
    "city_kana": "タカグンタカチョウ",
    "town": "中区高岸",
    "town_kana": "ナカクタカギシ",
    "street": null,
    "office_name": null,
    "office_name_kana": null
  },
  "1107": [
    {
      "postcode": "6791107",
      "prefecture": "兵庫県",
      "prefecture_kana": "ヒョウゴケン",
      "prefecture_code": 28,
      "city": "多可郡多可町",
      "city_kana": "タカグンタカチョウ",
      "town": "中区奥中",
      "town_kana": "ナカクオクナカ",
      "street": null,
      "office_name": null,
      "office_name_kana": null
    },
    {
      "postcode": "6791107",
      "prefecture": "兵庫県",
      "prefecture_kana": "ヒョウゴケン",
      "prefecture_code": 28,
      "city": "多可郡多可町",
      "city_kana": "タカグンタカチョウ",
      "town": "中区徳畑",
      "town_kana": "ナカクトクバタ",
      "street": null,
      "office_name": null,
      "office_name_kana": null
    }
  ],
  "1111": {
    "postcode": "6791111",
    "prefecture": "兵庫県",
    "prefecture_kana": "ヒョウゴケン",
    "prefecture_code": 28,
    "city": "多可郡多可町",
    "city_kana": "タカグンタカチョウ",
    "town": "中区鍛冶屋",
    "town_kana": "ナカクカジヤ",
    "street": null,
    "office_name": null,
    "office_name_kana": null
  },
  "1112": {
    "postcode": "6791112",
    "prefecture": "兵庫県",
    "prefecture_kana": "ヒョウゴケン",
    "prefecture_code": 28,
    "city": "多可郡多可町",
    "city_kana": "タカグンタカチョウ",
    "town": "中区間子",
    "town_kana": "ナカクマコウ",
    "street": null,
    "office_name": null,
    "office_name_kana": null
  },
  "1113": {
    "postcode": "6791113",
    "prefecture": "兵庫県",
    "prefecture_kana": "ヒョウゴケン",
    "prefecture_code": 28,
    "city": "多可郡多可町",
    "city_kana": "タカグンタカチョウ",
    "town": "中区中村町",
    "town_kana": "ナカクナカムラマチ",
    "street": null,
    "office_name": null,
    "office_name_kana": null
  },
  "1114": {
    "postcode": "6791114",
    "prefecture": "兵庫県",
    "prefecture_kana": "ヒョウゴケン",
    "prefecture_code": 28,
    "city": "多可郡多可町",
    "city_kana": "タカグンタカチョウ",
    "town": "中区岸上",
    "town_kana": "ナカクキシカミ",
    "street": null,
    "office_name": null,
    "office_name_kana": null
  },
  "1115": {
    "postcode": "6791115",
    "prefecture": "兵庫県",
    "prefecture_kana": "ヒョウゴケン",
    "prefecture_code": 28,
    "city": "多可郡多可町",
    "city_kana": "タカグンタカチョウ",
    "town": "中区天田",
    "town_kana": "ナカクアマダ",
    "street": null,
    "office_name": null,
    "office_name_kana": null
  },
  "1121": {
    "postcode": "6791121",
    "prefecture": "兵庫県",
    "prefecture_kana": "ヒョウゴケン",
    "prefecture_code": 28,
    "city": "多可郡多可町",
    "city_kana": "タカグンタカチョウ",
    "town": "中区東安田",
    "town_kana": "ナカクヒガシヤスダ",
    "street": null,
    "office_name": null,
    "office_name_kana": null
  },
  "1122": {
    "postcode": "6791122",
    "prefecture": "兵庫県",
    "prefecture_kana": "ヒョウゴケン",
    "prefecture_code": 28,
    "city": "多可郡多可町",
    "city_kana": "タカグンタカチョウ",
    "town": "中区中安田",
    "town_kana": "ナカクナカヤスダ",
    "street": null,
    "office_name": null,
    "office_name_kana": null
  },
  "1123": {
    "postcode": "6791123",
    "prefecture": "兵庫県",
    "prefecture_kana": "ヒョウゴケン",
    "prefecture_code": 28,
    "city": "多可郡多可町",
    "city_kana": "タカグンタカチョウ",
    "town": "中区西安田",
    "town_kana": "ナカクニシヤスダ",
    "street": null,
    "office_name": null,
    "office_name_kana": null
  },
  "1124": {
    "postcode": "6791124",
    "prefecture": "兵庫県",
    "prefecture_kana": "ヒョウゴケン",
    "prefecture_code": 28,
    "city": "多可郡多可町",
    "city_kana": "タカグンタカチョウ",
    "town": "中区森本",
    "town_kana": "ナカクモリモト",
    "street": null,
    "office_name": null,
    "office_name_kana": null
  },
  "1131": {
    "postcode": "6791131",
    "prefecture": "兵庫県",
    "prefecture_kana": "ヒョウゴケン",
    "prefecture_code": 28,
    "city": "多可郡多可町",
    "city_kana": "タカグンタカチョウ",
    "town": "中区曽我井",
    "town_kana": "ナカクソガイ",
    "street": null,
    "office_name": null,
    "office_name_kana": null
  },
  "1132": {
    "postcode": "6791132",
    "prefecture": "兵庫県",
    "prefecture_kana": "ヒョウゴケン",
    "prefecture_code": 28,
    "city": "多可郡多可町",
    "city_kana": "タカグンタカチョウ",
    "town": "中区坂本",
    "town_kana": "ナカクサカモト",
    "street": null,
    "office_name": null,
    "office_name_kana": null
  },
  "1133": {
    "postcode": "6791133",
    "prefecture": "兵庫県",
    "prefecture_kana": "ヒョウゴケン",
    "prefecture_code": 28,
    "city": "多可郡多可町",
    "city_kana": "タカグンタカチョウ",
    "town": "中区糀屋",
    "town_kana": "ナカクコウジヤ",
    "street": null,
    "office_name": null,
    "office_name_kana": null
  },
  "1134": {
    "postcode": "6791134",
    "prefecture": "兵庫県",
    "prefecture_kana": "ヒョウゴケン",
    "prefecture_code": 28,
    "city": "多可郡多可町",
    "city_kana": "タカグンタカチョウ",
    "town": "中区茂利",
    "town_kana": "ナカクシゲリ",
    "street": null,
    "office_name": null,
    "office_name_kana": null
  },
  "1135": {
    "postcode": "6791135",
    "prefecture": "兵庫県",
    "prefecture_kana": "ヒョウゴケン",
    "prefecture_code": 28,
    "city": "多可郡多可町",
    "city_kana": "タカグンタカチョウ",
    "town": "中区安坂",
    "town_kana": "ナカクアサカ",
    "street": null,
    "office_name": null,
    "office_name_kana": null
  },
  "1192": {
    "postcode": "6791192",
    "prefecture": "兵庫県",
    "prefecture_kana": "ヒョウゴケン",
    "prefecture_code": 28,
    "city": "多可郡多可町",
    "city_kana": "タカグンタカチョウ",
    "town": "中区中村町",
    "town_kana": "ナカクナカムラマチ",
    "street": "１２３",
    "office_name": "多可町役場",
    "office_name_kana": "タカチヨウヤクバ"
  },
  "1201": {
    "postcode": "6791201",
    "prefecture": "兵庫県",
    "prefecture_kana": "ヒョウゴケン",
    "prefecture_code": 28,
    "city": "多可郡多可町",
    "city_kana": "タカグンタカチョウ",
    "town": "加美区豊部",
    "town_kana": "カミクトヨベ",
    "street": null,
    "office_name": null,
    "office_name_kana": null
  },
  "1202": {
    "postcode": "6791202",
    "prefecture": "兵庫県",
    "prefecture_kana": "ヒョウゴケン",
    "prefecture_code": 28,
    "city": "多可郡多可町",
    "city_kana": "タカグンタカチョウ",
    "town": "加美区熊野部",
    "town_kana": "カミククマノベ",
    "street": null,
    "office_name": null,
    "office_name_kana": null
  },
  "1203": {
    "postcode": "6791203",
    "prefecture": "兵庫県",
    "prefecture_kana": "ヒョウゴケン",
    "prefecture_code": 28,
    "city": "多可郡多可町",
    "city_kana": "タカグンタカチョウ",
    "town": "加美区多田",
    "town_kana": "カミクタダ",
    "street": null,
    "office_name": null,
    "office_name_kana": null
  },
  "1204": {
    "postcode": "6791204",
    "prefecture": "兵庫県",
    "prefecture_kana": "ヒョウゴケン",
    "prefecture_code": 28,
    "city": "多可郡多可町",
    "city_kana": "タカグンタカチョウ",
    "town": "加美区棚釜",
    "town_kana": "カミクタナカマ",
    "street": null,
    "office_name": null,
    "office_name_kana": null
  },
  "1205": {
    "postcode": "6791205",
    "prefecture": "兵庫県",
    "prefecture_kana": "ヒョウゴケン",
    "prefecture_code": 28,
    "city": "多可郡多可町",
    "city_kana": "タカグンタカチョウ",
    "town": "加美区岩座神",
    "town_kana": "カミクイサリガミ",
    "street": null,
    "office_name": null,
    "office_name_kana": null
  },
  "1211": {
    "postcode": "6791211",
    "prefecture": "兵庫県",
    "prefecture_kana": "ヒョウゴケン",
    "prefecture_code": 28,
    "city": "多可郡多可町",
    "city_kana": "タカグンタカチョウ",
    "town": "加美区寺内",
    "town_kana": "カミクテラウチ",
    "street": null,
    "office_name": null,
    "office_name_kana": null
  },
  "1212": {
    "postcode": "6791212",
    "prefecture": "兵庫県",
    "prefecture_kana": "ヒョウゴケン",
    "prefecture_code": 28,
    "city": "多可郡多可町",
    "city_kana": "タカグンタカチョウ",
    "town": "加美区西脇",
    "town_kana": "カミクニシワキ",
    "street": null,
    "office_name": null,
    "office_name_kana": null
  },
  "1213": {
    "postcode": "6791213",
    "prefecture": "兵庫県",
    "prefecture_kana": "ヒョウゴケン",
    "prefecture_code": 28,
    "city": "多可郡多可町",
    "city_kana": "タカグンタカチョウ",
    "town": "加美区山野部",
    "town_kana": "カミクヤマノベ",
    "street": null,
    "office_name": null,
    "office_name_kana": null
  },
  "1214": {
    "postcode": "6791214",
    "prefecture": "兵庫県",
    "prefecture_kana": "ヒョウゴケン",
    "prefecture_code": 28,
    "city": "多可郡多可町",
    "city_kana": "タカグンタカチョウ",
    "town": "加美区的場",
    "town_kana": "カミクマトバ",
    "street": null,
    "office_name": null,
    "office_name_kana": null
  },
  "1215": {
    "postcode": "6791215",
    "prefecture": "兵庫県",
    "prefecture_kana": "ヒョウゴケン",
    "prefecture_code": 28,
    "city": "多可郡多可町",
    "city_kana": "タカグンタカチョウ",
    "town": "加美区奥荒田",
    "town_kana": "カミクオクアラタ",
    "street": null,
    "office_name": null,
    "office_name_kana": null
  },
  "1292": {
    "postcode": "6791292",
    "prefecture": "兵庫県",
    "prefecture_kana": "ヒョウゴケン",
    "prefecture_code": 28,
    "city": "多可郡多可町",
    "city_kana": "タカグンタカチョウ",
    "town": "加美区豊部",
    "town_kana": "カミクトヨベ",
    "street": "２４０",
    "office_name": "多可町役場　加美地域局",
    "office_name_kana": "タカチヨウヤクバ カミチイキキヨク"
  },
  "1321": {
    "postcode": "6791321",
    "prefecture": "兵庫県",
    "prefecture_kana": "ヒョウゴケン",
    "prefecture_code": 28,
    "city": "多可郡多可町",
    "city_kana": "タカグンタカチョウ",
    "town": "加美区山寄上",
    "town_kana": "カミクヤマヨリカミ",
    "street": null,
    "office_name": null,
    "office_name_kana": null
  },
  "1322": {
    "postcode": "6791322",
    "prefecture": "兵庫県",
    "prefecture_kana": "ヒョウゴケン",
    "prefecture_code": 28,
    "city": "多可郡多可町",
    "city_kana": "タカグンタカチョウ",
    "town": "加美区鳥羽",
    "town_kana": "カミクトリマ",
    "street": null,
    "office_name": null,
    "office_name_kana": null
  },
  "1323": {
    "postcode": "6791323",
    "prefecture": "兵庫県",
    "prefecture_kana": "ヒョウゴケン",
    "prefecture_code": 28,
    "city": "多可郡多可町",
    "city_kana": "タカグンタカチョウ",
    "town": "加美区清水",
    "town_kana": "カミクキヨミズ",
    "street": null,
    "office_name": null,
    "office_name_kana": null
  },
  "1324": {
    "postcode": "6791324",
    "prefecture": "兵庫県",
    "prefecture_kana": "ヒョウゴケン",
    "prefecture_code": 28,
    "city": "多可郡多可町",
    "city_kana": "タカグンタカチョウ",
    "town": "加美区轟",
    "town_kana": "カミクトドロキ",
    "street": null,
    "office_name": null,
    "office_name_kana": null
  },
  "1325": {
    "postcode": "6791325",
    "prefecture": "兵庫県",
    "prefecture_kana": "ヒョウゴケン",
    "prefecture_code": 28,
    "city": "多可郡多可町",
    "city_kana": "タカグンタカチョウ",
    "town": "加美区山口",
    "town_kana": "カミクヤマグチ",
    "street": null,
    "office_name": null,
    "office_name_kana": null
  },
  "1326": {
    "postcode": "6791326",
    "prefecture": "兵庫県",
    "prefecture_kana": "ヒョウゴケン",
    "prefecture_code": 28,
    "city": "多可郡多可町",
    "city_kana": "タカグンタカチョウ",
    "town": "加美区西山",
    "town_kana": "カミクニシヤマ",
    "street": null,
    "office_name": null,
    "office_name_kana": null
  },
  "1327": {
    "postcode": "6791327",
    "prefecture": "兵庫県",
    "prefecture_kana": "ヒョウゴケン",
    "prefecture_code": 28,
    "city": "多可郡多可町",
    "city_kana": "タカグンタカチョウ",
    "town": "加美区市原",
    "town_kana": "カミクイチハラ",
    "street": null,
    "office_name": null,
    "office_name_kana": null
  },
  "1331": {
    "postcode": "6791331",
    "prefecture": "兵庫県",
    "prefecture_kana": "ヒョウゴケン",
    "prefecture_code": 28,
    "city": "多可郡多可町",
    "city_kana": "タカグンタカチョウ",
    "town": "加美区丹治",
    "town_kana": "カミクタンジ",
    "street": null,
    "office_name": null,
    "office_name_kana": null
  },
  "1332": {
    "postcode": "6791332",
    "prefecture": "兵庫県",
    "prefecture_kana": "ヒョウゴケン",
    "prefecture_code": 28,
    "city": "多可郡多可町",
    "city_kana": "タカグンタカチョウ",
    "town": "加美区大袋",
    "town_kana": "カミクオオブクロ",
    "street": null,
    "office_name": null,
    "office_name_kana": null
  },
  "1333": {
    "postcode": "6791333",
    "prefecture": "兵庫県",
    "prefecture_kana": "ヒョウゴケン",
    "prefecture_code": 28,
    "city": "多可郡多可町",
    "city_kana": "タカグンタカチョウ",
    "town": "加美区三谷",
    "town_kana": "カミクミダニ",
    "street": null,
    "office_name": null,
    "office_name_kana": null
  },
  "1334": {
    "postcode": "6791334",
    "prefecture": "兵庫県",
    "prefecture_kana": "ヒョウゴケン",
    "prefecture_code": 28,
    "city": "多可郡多可町",
    "city_kana": "タカグンタカチョウ",
    "town": "加美区箸荷",
    "town_kana": "カミクハセガイ",
    "street": null,
    "office_name": null,
    "office_name_kana": null
  },
  "1335": {
    "postcode": "6791335",
    "prefecture": "兵庫県",
    "prefecture_kana": "ヒョウゴケン",
    "prefecture_code": 28,
    "city": "多可郡多可町",
    "city_kana": "タカグンタカチョウ",
    "town": "加美区門村",
    "town_kana": "カミクカドムラ",
    "street": null,
    "office_name": null,
    "office_name_kana": null
  },
  "1336": {
    "postcode": "6791336",
    "prefecture": "兵庫県",
    "prefecture_kana": "ヒョウゴケン",
    "prefecture_code": 28,
    "city": "多可郡多可町",
    "city_kana": "タカグンタカチョウ",
    "town": "加美区杉原",
    "town_kana": "カミクスギハラ",
    "street": null,
    "office_name": null,
    "office_name_kana": null
  },
  "1337": {
    "postcode": "6791337",
    "prefecture": "兵庫県",
    "prefecture_kana": "ヒョウゴケン",
    "prefecture_code": 28,
    "city": "多可郡多可町",
    "city_kana": "タカグンタカチョウ",
    "town": "加美区奥豊部",
    "town_kana": "カミクオクトヨベ",
    "street": null,
    "office_name": null,
    "office_name_kana": null
  },
  "1338": {
    "postcode": "6791338",
    "prefecture": "兵庫県",
    "prefecture_kana": "ヒョウゴケン",
    "prefecture_code": 28,
    "city": "多可郡多可町",
    "city_kana": "タカグンタカチョウ",
    "town": "加美区観音寺",
    "town_kana": "カミクカンノンジ",
    "street": null,
    "office_name": null,
    "office_name_kana": null
  },
  "2101": {
    "postcode": "6792101",
    "prefecture": "兵庫県",
    "prefecture_kana": "ヒョウゴケン",
    "prefecture_code": 28,
    "city": "姫路市",
    "city_kana": "ヒメジシ",
    "town": "船津町",
    "town_kana": "フナツチョウ",
    "street": null,
    "office_name": null,
    "office_name_kana": null
  },
  "2111": {
    "postcode": "6792111",
    "prefecture": "兵庫県",
    "prefecture_kana": "ヒョウゴケン",
    "prefecture_code": 28,
    "city": "姫路市",
    "city_kana": "ヒメジシ",
    "town": "山田町多田",
    "town_kana": "ヤマダチョウタダ",
    "street": null,
    "office_name": null,
    "office_name_kana": null
  },
  "2112": {
    "postcode": "6792112",
    "prefecture": "兵庫県",
    "prefecture_kana": "ヒョウゴケン",
    "prefecture_code": 28,
    "city": "姫路市",
    "city_kana": "ヒメジシ",
    "town": "山田町北山田",
    "town_kana": "ヤマダチョウキタヤマダ",
    "street": null,
    "office_name": null,
    "office_name_kana": null
  },
  "2113": {
    "postcode": "6792113",
    "prefecture": "兵庫県",
    "prefecture_kana": "ヒョウゴケン",
    "prefecture_code": 28,
    "city": "姫路市",
    "city_kana": "ヒメジシ",
    "town": "山田町南山田",
    "town_kana": "ヤマダチョウミナミヤマダ",
    "street": null,
    "office_name": null,
    "office_name_kana": null
  },
  "2114": {
    "postcode": "6792114",
    "prefecture": "兵庫県",
    "prefecture_kana": "ヒョウゴケン",
    "prefecture_code": 28,
    "city": "姫路市",
    "city_kana": "ヒメジシ",
    "town": "山田町牧野",
    "town_kana": "ヤマダチョウマキノ",
    "street": null,
    "office_name": null,
    "office_name_kana": null
  },
  "2115": {
    "postcode": "6792115",
    "prefecture": "兵庫県",
    "prefecture_kana": "ヒョウゴケン",
    "prefecture_code": 28,
    "city": "姫路市",
    "city_kana": "ヒメジシ",
    "town": "山田町西山田",
    "town_kana": "ヤマダチョウニシヤマダ",
    "street": null,
    "office_name": null,
    "office_name_kana": null
  },
  "2121": {
    "postcode": "6792121",
    "prefecture": "兵庫県",
    "prefecture_kana": "ヒョウゴケン",
    "prefecture_code": 28,
    "city": "姫路市",
    "city_kana": "ヒメジシ",
    "town": "豊富町神谷",
    "town_kana": "トヨトミチョウコダニ",
    "street": null,
    "office_name": null,
    "office_name_kana": null
  },
  "2122": {
    "postcode": "6792122",
    "prefecture": "兵庫県",
    "prefecture_kana": "ヒョウゴケン",
    "prefecture_code": 28,
    "city": "姫路市",
    "city_kana": "ヒメジシ",
    "town": "豊富町御蔭",
    "town_kana": "トヨトミチョウミカゲ",
    "street": null,
    "office_name": null,
    "office_name_kana": null
  },
  "2123": {
    "postcode": "6792123",
    "prefecture": "兵庫県",
    "prefecture_kana": "ヒョウゴケン",
    "prefecture_code": 28,
    "city": "姫路市",
    "city_kana": "ヒメジシ",
    "town": "豊富町豊富",
    "town_kana": "トヨトミチョウトヨトミ",
    "street": null,
    "office_name": null,
    "office_name_kana": null
  },
  "2124": {
    "postcode": "6792124",
    "prefecture": "兵庫県",
    "prefecture_kana": "ヒョウゴケン",
    "prefecture_code": 28,
    "city": "姫路市",
    "city_kana": "ヒメジシ",
    "town": "豊富町甲丘",
    "town_kana": "トヨトミチョウカブトオカ",
    "street": null,
    "office_name": null,
    "office_name_kana": null
  },
  "2131": {
    "postcode": "6792131",
    "prefecture": "兵庫県",
    "prefecture_kana": "ヒョウゴケン",
    "prefecture_code": 28,
    "city": "姫路市",
    "city_kana": "ヒメジシ",
    "town": "香寺町犬飼",
    "town_kana": "コウデラチョウイヌカイ",
    "street": null,
    "office_name": null,
    "office_name_kana": null
  },
  "2132": {
    "postcode": "6792132",
    "prefecture": "兵庫県",
    "prefecture_kana": "ヒョウゴケン",
    "prefecture_code": 28,
    "city": "姫路市",
    "city_kana": "ヒメジシ",
    "town": "香寺町須加院",
    "town_kana": "コウデラチョウスカイン",
    "street": null,
    "office_name": null,
    "office_name_kana": null
  },
  "2141": {
    "postcode": "6792141",
    "prefecture": "兵庫県",
    "prefecture_kana": "ヒョウゴケン",
    "prefecture_code": 28,
    "city": "姫路市",
    "city_kana": "ヒメジシ",
    "town": "香寺町岩部",
    "town_kana": "コウデラチョウイワベ",
    "street": null,
    "office_name": null,
    "office_name_kana": null
  },
  "2142": {
    "postcode": "6792142",
    "prefecture": "兵庫県",
    "prefecture_kana": "ヒョウゴケン",
    "prefecture_code": 28,
    "city": "姫路市",
    "city_kana": "ヒメジシ",
    "town": "香寺町広瀬",
    "town_kana": "コウデラチョウヒロセ",
    "street": null,
    "office_name": null,
    "office_name_kana": null
  },
  "2143": {
    "postcode": "6792143",
    "prefecture": "兵庫県",
    "prefecture_kana": "ヒョウゴケン",
    "prefecture_code": 28,
    "city": "姫路市",
    "city_kana": "ヒメジシ",
    "town": "香寺町中仁野",
    "town_kana": "コウデラチョウナカニノ",
    "street": null,
    "office_name": null,
    "office_name_kana": null
  },
  "2144": {
    "postcode": "6792144",
    "prefecture": "兵庫県",
    "prefecture_kana": "ヒョウゴケン",
    "prefecture_code": 28,
    "city": "姫路市",
    "city_kana": "ヒメジシ",
    "town": "香寺町中屋",
    "town_kana": "コウデラチョウナカヤ",
    "street": null,
    "office_name": null,
    "office_name_kana": null
  },
  "2151": {
    "postcode": "6792151",
    "prefecture": "兵庫県",
    "prefecture_kana": "ヒョウゴケン",
    "prefecture_code": 28,
    "city": "姫路市",
    "city_kana": "ヒメジシ",
    "town": "香寺町香呂",
    "town_kana": "コウデラチョウコウロ",
    "street": null,
    "office_name": null,
    "office_name_kana": null
  },
  "2152": {
    "postcode": "6792152",
    "prefecture": "兵庫県",
    "prefecture_kana": "ヒョウゴケン",
    "prefecture_code": 28,
    "city": "姫路市",
    "city_kana": "ヒメジシ",
    "town": "香寺町行重",
    "town_kana": "コウデラチョウユキシゲ",
    "street": null,
    "office_name": null,
    "office_name_kana": null
  },
  "2153": {
    "postcode": "6792153",
    "prefecture": "兵庫県",
    "prefecture_kana": "ヒョウゴケン",
    "prefecture_code": 28,
    "city": "姫路市",
    "city_kana": "ヒメジシ",
    "town": "香寺町田野",
    "town_kana": "コウデラチョウタノ",
    "street": null,
    "office_name": null,
    "office_name_kana": null
  },
  "2154": {
    "postcode": "6792154",
    "prefecture": "兵庫県",
    "prefecture_kana": "ヒョウゴケン",
    "prefecture_code": 28,
    "city": "姫路市",
    "city_kana": "ヒメジシ",
    "town": "香寺町相坂",
    "town_kana": "コウデラチョウアイサカ",
    "street": null,
    "office_name": null,
    "office_name_kana": null
  },
  "2155": {
    "postcode": "6792155",
    "prefecture": "兵庫県",
    "prefecture_kana": "ヒョウゴケン",
    "prefecture_code": 28,
    "city": "姫路市",
    "city_kana": "ヒメジシ",
    "town": "香寺町矢田部",
    "town_kana": "コウデラチョウヤタベ",
    "street": null,
    "office_name": null,
    "office_name_kana": null
  },
  "2161": {
    "postcode": "6792161",
    "prefecture": "兵庫県",
    "prefecture_kana": "ヒョウゴケン",
    "prefecture_code": 28,
    "city": "姫路市",
    "city_kana": "ヒメジシ",
    "town": "香寺町溝口",
    "town_kana": "コウデラチョウミゾグチ",
    "street": null,
    "office_name": null,
    "office_name_kana": null
  },
  "2162": {
    "postcode": "6792162",
    "prefecture": "兵庫県",
    "prefecture_kana": "ヒョウゴケン",
    "prefecture_code": 28,
    "city": "姫路市",
    "city_kana": "ヒメジシ",
    "town": "香寺町野田",
    "town_kana": "コウデラチョウノダ",
    "street": null,
    "office_name": null,
    "office_name_kana": null
  },
  "2163": {
    "postcode": "6792163",
    "prefecture": "兵庫県",
    "prefecture_kana": "ヒョウゴケン",
    "prefecture_code": 28,
    "city": "姫路市",
    "city_kana": "ヒメジシ",
    "town": "香寺町土師",
    "town_kana": "コウデラチョウハゼ",
    "street": null,
    "office_name": null,
    "office_name_kana": null
  },
  "2164": {
    "postcode": "6792164",
    "prefecture": "兵庫県",
    "prefecture_kana": "ヒョウゴケン",
    "prefecture_code": 28,
    "city": "姫路市",
    "city_kana": "ヒメジシ",
    "town": "香寺町中寺",
    "town_kana": "コウデラチョウナカデラ",
    "street": null,
    "office_name": null,
    "office_name_kana": null
  },
  "2165": {
    "postcode": "6792165",
    "prefecture": "兵庫県",
    "prefecture_kana": "ヒョウゴケン",
    "prefecture_code": 28,
    "city": "姫路市",
    "city_kana": "ヒメジシ",
    "town": "香寺町恒屋",
    "town_kana": "コウデラチョウツネヤ",
    "street": null,
    "office_name": null,
    "office_name_kana": null
  },
  "2166": {
    "postcode": "6792166",
    "prefecture": "兵庫県",
    "prefecture_kana": "ヒョウゴケン",
    "prefecture_code": 28,
    "city": "姫路市",
    "city_kana": "ヒメジシ",
    "town": "香寺町中村",
    "town_kana": "コウデラチョウナカムラ",
    "street": null,
    "office_name": null,
    "office_name_kana": null
  },
  "2167": {
    "postcode": "6792167",
    "prefecture": "兵庫県",
    "prefecture_kana": "ヒョウゴケン",
    "prefecture_code": 28,
    "city": "姫路市",
    "city_kana": "ヒメジシ",
    "town": "香寺町久畑",
    "town_kana": "コウデラチョウクバタ",
    "street": null,
    "office_name": null,
    "office_name_kana": null
  },
  "2200": {
    "postcode": "6792200",
    "prefecture": "兵庫県",
    "prefecture_kana": "ヒョウゴケン",
    "prefecture_code": 28,
    "city": "神崎郡福崎町",
    "city_kana": "カンザキグンフクサキチョウ",
    "town": "",
    "town_kana": "",
    "street": null,
    "office_name": null,
    "office_name_kana": null
  },
  "2201": {
    "postcode": "6792201",
    "prefecture": "兵庫県",
    "prefecture_kana": "ヒョウゴケン",
    "prefecture_code": 28,
    "city": "神崎郡福崎町",
    "city_kana": "カンザキグンフクサキチョウ",
    "town": "大貫",
    "town_kana": "オオヌキ",
    "street": null,
    "office_name": null,
    "office_name_kana": null
  },
  "2202": {
    "postcode": "6792202",
    "prefecture": "兵庫県",
    "prefecture_kana": "ヒョウゴケン",
    "prefecture_code": 28,
    "city": "神崎郡福崎町",
    "city_kana": "カンザキグンフクサキチョウ",
    "town": "八千種",
    "town_kana": "ヤチクサ",
    "street": null,
    "office_name": null,
    "office_name_kana": null
  },
  "2203": {
    "postcode": "6792203",
    "prefecture": "兵庫県",
    "prefecture_kana": "ヒョウゴケン",
    "prefecture_code": 28,
    "city": "神崎郡福崎町",
    "city_kana": "カンザキグンフクサキチョウ",
    "town": "南田原",
    "town_kana": "ミナミタワラ",
    "street": null,
    "office_name": null,
    "office_name_kana": null
  },
  "2204": {
    "postcode": "6792204",
    "prefecture": "兵庫県",
    "prefecture_kana": "ヒョウゴケン",
    "prefecture_code": 28,
    "city": "神崎郡福崎町",
    "city_kana": "カンザキグンフクサキチョウ",
    "town": "西田原",
    "town_kana": "ニシタワラ",
    "street": null,
    "office_name": null,
    "office_name_kana": null
  },
  "2205": {
    "postcode": "6792205",
    "prefecture": "兵庫県",
    "prefecture_kana": "ヒョウゴケン",
    "prefecture_code": 28,
    "city": "神崎郡福崎町",
    "city_kana": "カンザキグンフクサキチョウ",
    "town": "東田原",
    "town_kana": "ヒガシタワラ",
    "street": null,
    "office_name": null,
    "office_name_kana": null
  },
  "2211": {
    "postcode": "6792211",
    "prefecture": "兵庫県",
    "prefecture_kana": "ヒョウゴケン",
    "prefecture_code": 28,
    "city": "神崎郡福崎町",
    "city_kana": "カンザキグンフクサキチョウ",
    "town": "山崎",
    "town_kana": "ヤマサキ",
    "street": null,
    "office_name": null,
    "office_name_kana": null
  },
  "2212": {
    "postcode": "6792212",
    "prefecture": "兵庫県",
    "prefecture_kana": "ヒョウゴケン",
    "prefecture_code": 28,
    "city": "神崎郡福崎町",
    "city_kana": "カンザキグンフクサキチョウ",
    "town": "福田",
    "town_kana": "フクダ",
    "street": null,
    "office_name": null,
    "office_name_kana": null
  },
  "2213": {
    "postcode": "6792213",
    "prefecture": "兵庫県",
    "prefecture_kana": "ヒョウゴケン",
    "prefecture_code": 28,
    "city": "神崎郡福崎町",
    "city_kana": "カンザキグンフクサキチョウ",
    "town": "馬田",
    "town_kana": "ウマダ",
    "street": null,
    "office_name": null,
    "office_name_kana": null
  },
  "2214": {
    "postcode": "6792214",
    "prefecture": "兵庫県",
    "prefecture_kana": "ヒョウゴケン",
    "prefecture_code": 28,
    "city": "神崎郡福崎町",
    "city_kana": "カンザキグンフクサキチョウ",
    "town": "福崎新",
    "town_kana": "フクサキシン",
    "street": null,
    "office_name": null,
    "office_name_kana": null
  },
  "2215": {
    "postcode": "6792215",
    "prefecture": "兵庫県",
    "prefecture_kana": "ヒョウゴケン",
    "prefecture_code": 28,
    "city": "神崎郡福崎町",
    "city_kana": "カンザキグンフクサキチョウ",
    "town": "西治",
    "town_kana": "サイジ",
    "street": null,
    "office_name": null,
    "office_name_kana": null
  },
  "2216": {
    "postcode": "6792216",
    "prefecture": "兵庫県",
    "prefecture_kana": "ヒョウゴケン",
    "prefecture_code": 28,
    "city": "神崎郡福崎町",
    "city_kana": "カンザキグンフクサキチョウ",
    "town": "高橋",
    "town_kana": "タカハシ",
    "street": null,
    "office_name": null,
    "office_name_kana": null
  },
  "2217": {
    "postcode": "6792217",
    "prefecture": "兵庫県",
    "prefecture_kana": "ヒョウゴケン",
    "prefecture_code": 28,
    "city": "神崎郡福崎町",
    "city_kana": "カンザキグンフクサキチョウ",
    "town": "高岡",
    "town_kana": "タカオカ",
    "street": null,
    "office_name": null,
    "office_name_kana": null
  },
  "2218": {
    "postcode": "6792218",
    "prefecture": "兵庫県",
    "prefecture_kana": "ヒョウゴケン",
    "prefecture_code": 28,
    "city": "神崎郡福崎町",
    "city_kana": "カンザキグンフクサキチョウ",
    "town": "田口",
    "town_kana": "タグチ",
    "street": null,
    "office_name": null,
    "office_name_kana": null
  },
  "2280": {
    "postcode": "6792280",
    "prefecture": "兵庫県",
    "prefecture_kana": "ヒョウゴケン",
    "prefecture_code": 28,
    "city": "神崎郡福崎町",
    "city_kana": "カンザキグンフクサキチョウ",
    "town": "南田原",
    "town_kana": "ミナミタワラ",
    "street": "３１１６−１（福崎郵便局私書箱第４号）",
    "office_name": "福崎町役場",
    "office_name_kana": "フクサキチヨウヤクバ"
  },
  "2281": {
    "postcode": "6792281",
    "prefecture": "兵庫県",
    "prefecture_kana": "ヒョウゴケン",
    "prefecture_code": 28,
    "city": "神崎郡福崎町",
    "city_kana": "カンザキグンフクサキチョウ",
    "town": "高岡",
    "town_kana": "タカオカ",
    "street": "１９６６−５",
    "office_name": "近畿福祉大学",
    "office_name_kana": "キンキフクシダイガク"
  },
  "2282": {
    "postcode": "6792282",
    "prefecture": "兵庫県",
    "prefecture_kana": "ヒョウゴケン",
    "prefecture_code": 28,
    "city": "神崎郡福崎町",
    "city_kana": "カンザキグンフクサキチョウ",
    "town": "高岡",
    "town_kana": "タカオカ",
    "street": "１９２９",
    "office_name": "中小企業大学校関西校",
    "office_name_kana": "チユウシヨウキギヨウダイガツコウカンサイコウ"
  },
  "2283": {
    "postcode": "6792283",
    "prefecture": "兵庫県",
    "prefecture_kana": "ヒョウゴケン",
    "prefecture_code": 28,
    "city": "神崎郡福崎町",
    "city_kana": "カンザキグンフクサキチョウ",
    "town": "高橋",
    "town_kana": "タカハシ",
    "street": "２９０−２９",
    "office_name": "凸版印刷　株式会社　福崎工場",
    "office_name_kana": "トツパンインサツ カブシキガイシヤ フクサキコウジヨウ"
  },
  "2284": {
    "postcode": "6792284",
    "prefecture": "兵庫県",
    "prefecture_kana": "ヒョウゴケン",
    "prefecture_code": 28,
    "city": "神崎郡福崎町",
    "city_kana": "カンザキグンフクサキチョウ",
    "town": "西治",
    "town_kana": "サイジ",
    "street": "８６０−３",
    "office_name": "グローリープロダクツ　株式会社",
    "office_name_kana": "グロ-リ-プロダクツ カブシキガイシヤ"
  },
  "2285": {
    "postcode": "6792285",
    "prefecture": "兵庫県",
    "prefecture_kana": "ヒョウゴケン",
    "prefecture_code": 28,
    "city": "神崎郡福崎町",
    "city_kana": "カンザキグンフクサキチョウ",
    "town": "西治",
    "town_kana": "サイジ",
    "street": "７６７−７",
    "office_name": "千寿製薬　（株）",
    "office_name_kana": "センジユセイヤク カブシキカイシヤ"
  },
  "2288": {
    "postcode": "6792288",
    "prefecture": "兵庫県",
    "prefecture_kana": "ヒョウゴケン",
    "prefecture_code": 28,
    "city": "神崎郡福崎町",
    "city_kana": "カンザキグンフクサキチョウ",
    "town": "福田",
    "town_kana": "フクダ",
    "street": "４４７−１",
    "office_name": "福伸電機　株式会社",
    "office_name_kana": "フクシンデンキ カブシキガイシヤ"
  },
  "2289": {
    "postcode": "6792289",
    "prefecture": "兵庫県",
    "prefecture_kana": "ヒョウゴケン",
    "prefecture_code": 28,
    "city": "神崎郡福崎町",
    "city_kana": "カンザキグンフクサキチョウ",
    "town": "南田原",
    "town_kana": "ミナミタワラ",
    "street": "２０７７番地の１",
    "office_name": "株式会社　エーモン",
    "office_name_kana": "カブシキガイシヤ エ-モン"
  },
  "2295": {
    "postcode": "6792295",
    "prefecture": "兵庫県",
    "prefecture_kana": "ヒョウゴケン",
    "prefecture_code": 28,
    "city": "神崎郡福崎町",
    "city_kana": "カンザキグンフクサキチョウ",
    "town": "福田",
    "town_kana": "フクダ",
    "street": "１１８",
    "office_name": "サンライズ工業　株式会社",
    "office_name_kana": "サンライズコウギヨウ カブシキガイシヤ"
  },
  "2300": {
    "postcode": "6792300",
    "prefecture": "兵庫県",
    "prefecture_kana": "ヒョウゴケン",
    "prefecture_code": 28,
    "city": "神崎郡市川町",
    "city_kana": "カンザキグンイチカワチョウ",
    "town": "",
    "town_kana": "",
    "street": null,
    "office_name": null,
    "office_name_kana": null
  },
  "2301": {
    "postcode": "6792301",
    "prefecture": "兵庫県",
    "prefecture_kana": "ヒョウゴケン",
    "prefecture_code": 28,
    "city": "神崎郡市川町",
    "city_kana": "カンザキグンイチカワチョウ",
    "town": "上牛尾",
    "town_kana": "カミウシオ",
    "street": null,
    "office_name": null,
    "office_name_kana": null
  },
  "2302": {
    "postcode": "6792302",
    "prefecture": "兵庫県",
    "prefecture_kana": "ヒョウゴケン",
    "prefecture_code": 28,
    "city": "神崎郡市川町",
    "city_kana": "カンザキグンイチカワチョウ",
    "town": "下牛尾",
    "town_kana": "シモウシオ",
    "street": null,
    "office_name": null,
    "office_name_kana": null
  },
  "2303": {
    "postcode": "6792303",
    "prefecture": "兵庫県",
    "prefecture_kana": "ヒョウゴケン",
    "prefecture_code": 28,
    "city": "神崎郡市川町",
    "city_kana": "カンザキグンイチカワチョウ",
    "town": "上瀬加",
    "town_kana": "カミセカ",
    "street": null,
    "office_name": null,
    "office_name_kana": null
  },
  "2304": {
    "postcode": "6792304",
    "prefecture": "兵庫県",
    "prefecture_kana": "ヒョウゴケン",
    "prefecture_code": 28,
    "city": "神崎郡市川町",
    "city_kana": "カンザキグンイチカワチョウ",
    "town": "下瀬加",
    "town_kana": "シモセカ",
    "street": null,
    "office_name": null,
    "office_name_kana": null
  },
  "2311": {
    "postcode": "6792311",
    "prefecture": "兵庫県",
    "prefecture_kana": "ヒョウゴケン",
    "prefecture_code": 28,
    "city": "神崎郡市川町",
    "city_kana": "カンザキグンイチカワチョウ",
    "town": "上田中",
    "town_kana": "ウエダナカ",
    "street": null,
    "office_name": null,
    "office_name_kana": null
  },
  "2312": {
    "postcode": "6792312",
    "prefecture": "兵庫県",
    "prefecture_kana": "ヒョウゴケン",
    "prefecture_code": 28,
    "city": "神崎郡市川町",
    "city_kana": "カンザキグンイチカワチョウ",
    "town": "保喜",
    "town_kana": "ホキ",
    "street": null,
    "office_name": null,
    "office_name_kana": null
  },
  "2313": {
    "postcode": "6792313",
    "prefecture": "兵庫県",
    "prefecture_kana": "ヒョウゴケン",
    "prefecture_code": 28,
    "city": "神崎郡市川町",
    "city_kana": "カンザキグンイチカワチョウ",
    "town": "西田中",
    "town_kana": "ニシタナカ",
    "street": null,
    "office_name": null,
    "office_name_kana": null
  },
  "2314": {
    "postcode": "6792314",
    "prefecture": "兵庫県",
    "prefecture_kana": "ヒョウゴケン",
    "prefecture_code": 28,
    "city": "神崎郡市川町",
    "city_kana": "カンザキグンイチカワチョウ",
    "town": "北田中",
    "town_kana": "キタタナカ",
    "street": null,
    "office_name": null,
    "office_name_kana": null
  },
  "2315": {
    "postcode": "6792315",
    "prefecture": "兵庫県",
    "prefecture_kana": "ヒョウゴケン",
    "prefecture_code": 28,
    "city": "神崎郡市川町",
    "city_kana": "カンザキグンイチカワチョウ",
    "town": "西川辺",
    "town_kana": "ニシカワナベ",
    "street": null,
    "office_name": null,
    "office_name_kana": null
  },
  "2316": {
    "postcode": "6792316",
    "prefecture": "兵庫県",
    "prefecture_kana": "ヒョウゴケン",
    "prefecture_code": 28,
    "city": "神崎郡市川町",
    "city_kana": "カンザキグンイチカワチョウ",
    "town": "東川辺",
    "town_kana": "ヒガシカワナベ",
    "street": null,
    "office_name": null,
    "office_name_kana": null
  },
  "2317": {
    "postcode": "6792317",
    "prefecture": "兵庫県",
    "prefecture_kana": "ヒョウゴケン",
    "prefecture_code": 28,
    "city": "神崎郡市川町",
    "city_kana": "カンザキグンイチカワチョウ",
    "town": "浅野",
    "town_kana": "アサノ",
    "street": null,
    "office_name": null,
    "office_name_kana": null
  },
  "2318": {
    "postcode": "6792318",
    "prefecture": "兵庫県",
    "prefecture_kana": "ヒョウゴケン",
    "prefecture_code": 28,
    "city": "神崎郡市川町",
    "city_kana": "カンザキグンイチカワチョウ",
    "town": "小畑",
    "town_kana": "オバタ",
    "street": null,
    "office_name": null,
    "office_name_kana": null
  },
  "2321": {
    "postcode": "6792321",
    "prefecture": "兵庫県",
    "prefecture_kana": "ヒョウゴケン",
    "prefecture_code": 28,
    "city": "神崎郡市川町",
    "city_kana": "カンザキグンイチカワチョウ",
    "town": "千原",
    "town_kana": "チハラ",
    "street": null,
    "office_name": null,
    "office_name_kana": null
  },
  "2322": {
    "postcode": "6792322",
    "prefecture": "兵庫県",
    "prefecture_kana": "ヒョウゴケン",
    "prefecture_code": 28,
    "city": "神崎郡市川町",
    "city_kana": "カンザキグンイチカワチョウ",
    "town": "小谷",
    "town_kana": "コダニ",
    "street": null,
    "office_name": null,
    "office_name_kana": null
  },
  "2323": {
    "postcode": "6792323",
    "prefecture": "兵庫県",
    "prefecture_kana": "ヒョウゴケン",
    "prefecture_code": 28,
    "city": "神崎郡市川町",
    "city_kana": "カンザキグンイチカワチョウ",
    "town": "甘地",
    "town_kana": "アマジ",
    "street": null,
    "office_name": null,
    "office_name_kana": null
  },
  "2324": {
    "postcode": "6792324",
    "prefecture": "兵庫県",
    "prefecture_kana": "ヒョウゴケン",
    "prefecture_code": 28,
    "city": "神崎郡市川町",
    "city_kana": "カンザキグンイチカワチョウ",
    "town": "坂戸",
    "town_kana": "サカド",
    "street": null,
    "office_name": null,
    "office_name_kana": null
  },
  "2325": {
    "postcode": "6792325",
    "prefecture": "兵庫県",
    "prefecture_kana": "ヒョウゴケン",
    "prefecture_code": 28,
    "city": "神崎郡市川町",
    "city_kana": "カンザキグンイチカワチョウ",
    "town": "奥",
    "town_kana": "オク",
    "street": null,
    "office_name": null,
    "office_name_kana": null
  },
  "2326": {
    "postcode": "6792326",
    "prefecture": "兵庫県",
    "prefecture_kana": "ヒョウゴケン",
    "prefecture_code": 28,
    "city": "神崎郡市川町",
    "city_kana": "カンザキグンイチカワチョウ",
    "town": "谷",
    "town_kana": "タニ",
    "street": null,
    "office_name": null,
    "office_name_kana": null
  },
  "2327": {
    "postcode": "6792327",
    "prefecture": "兵庫県",
    "prefecture_kana": "ヒョウゴケン",
    "prefecture_code": 28,
    "city": "神崎郡市川町",
    "city_kana": "カンザキグンイチカワチョウ",
    "town": "近平",
    "town_kana": "チカラ",
    "street": null,
    "office_name": null,
    "office_name_kana": null
  },
  "2331": {
    "postcode": "6792331",
    "prefecture": "兵庫県",
    "prefecture_kana": "ヒョウゴケン",
    "prefecture_code": 28,
    "city": "神崎郡市川町",
    "city_kana": "カンザキグンイチカワチョウ",
    "town": "小室",
    "town_kana": "コムロ",
    "street": null,
    "office_name": null,
    "office_name_kana": null
  },
  "2332": {
    "postcode": "6792332",
    "prefecture": "兵庫県",
    "prefecture_kana": "ヒョウゴケン",
    "prefecture_code": 28,
    "city": "神崎郡市川町",
    "city_kana": "カンザキグンイチカワチョウ",
    "town": "田中",
    "town_kana": "タナカ",
    "street": null,
    "office_name": null,
    "office_name_kana": null
  },
  "2333": {
    "postcode": "6792333",
    "prefecture": "兵庫県",
    "prefecture_kana": "ヒョウゴケン",
    "prefecture_code": 28,
    "city": "神崎郡市川町",
    "city_kana": "カンザキグンイチカワチョウ",
    "town": "神崎",
    "town_kana": "カンザキ",
    "street": null,
    "office_name": null,
    "office_name_kana": null
  },
  "2334": {
    "postcode": "6792334",
    "prefecture": "兵庫県",
    "prefecture_kana": "ヒョウゴケン",
    "prefecture_code": 28,
    "city": "神崎郡市川町",
    "city_kana": "カンザキグンイチカワチョウ",
    "town": "鶴居",
    "town_kana": "ツルイ",
    "street": null,
    "office_name": null,
    "office_name_kana": null
  },
  "2335": {
    "postcode": "6792335",
    "prefecture": "兵庫県",
    "prefecture_kana": "ヒョウゴケン",
    "prefecture_code": 28,
    "city": "神崎郡市川町",
    "city_kana": "カンザキグンイチカワチョウ",
    "town": "美佐",
    "town_kana": "ミサ",
    "street": null,
    "office_name": null,
    "office_name_kana": null
  },
  "2336": {
    "postcode": "6792336",
    "prefecture": "兵庫県",
    "prefecture_kana": "ヒョウゴケン",
    "prefecture_code": 28,
    "city": "神崎郡市川町",
    "city_kana": "カンザキグンイチカワチョウ",
    "town": "沢",
    "town_kana": "サワ",
    "street": null,
    "office_name": null,
    "office_name_kana": null
  },
  "2337": {
    "postcode": "6792337",
    "prefecture": "兵庫県",
    "prefecture_kana": "ヒョウゴケン",
    "prefecture_code": 28,
    "city": "神崎郡市川町",
    "city_kana": "カンザキグンイチカワチョウ",
    "town": "屋形",
    "town_kana": "ヤカタ",
    "street": null,
    "office_name": null,
    "office_name_kana": null
  },
  "2392": {
    "postcode": "6792392",
    "prefecture": "兵庫県",
    "prefecture_kana": "ヒョウゴケン",
    "prefecture_code": 28,
    "city": "神崎郡市川町",
    "city_kana": "カンザキグンイチカワチョウ",
    "town": "西川辺",
    "town_kana": "ニシカワナベ",
    "street": "１６５−３",
    "office_name": "市川町役場",
    "office_name_kana": "イチカワチヨウヤクバ"
  },
  "2401": {
    "postcode": "6792401",
    "prefecture": "兵庫県",
    "prefecture_kana": "ヒョウゴケン",
    "prefecture_code": 28,
    "city": "神崎郡神河町",
    "city_kana": "カンザキグンカミカワチョウ",
    "town": "新田",
    "town_kana": "シンデン",
    "street": null,
    "office_name": null,
    "office_name_kana": null
  },
  "2402": {
    "postcode": "6792402",
    "prefecture": "兵庫県",
    "prefecture_kana": "ヒョウゴケン",
    "prefecture_code": 28,
    "city": "神崎郡神河町",
    "city_kana": "カンザキグンカミカワチョウ",
    "town": "作畑",
    "town_kana": "サクハタ",
    "street": null,
    "office_name": null,
    "office_name_kana": null
  },
  "2403": {
    "postcode": "6792403",
    "prefecture": "兵庫県",
    "prefecture_kana": "ヒョウゴケン",
    "prefecture_code": 28,
    "city": "神崎郡神河町",
    "city_kana": "カンザキグンカミカワチョウ",
    "town": "大畑",
    "town_kana": "オオハタ",
    "street": null,
    "office_name": null,
    "office_name_kana": null
  },
  "2404": {
    "postcode": "6792404",
    "prefecture": "兵庫県",
    "prefecture_kana": "ヒョウゴケン",
    "prefecture_code": 28,
    "city": "神崎郡神河町",
    "city_kana": "カンザキグンカミカワチョウ",
    "town": "越知",
    "town_kana": "オチ",
    "street": null,
    "office_name": null,
    "office_name_kana": null
  },
  "2405": {
    "postcode": "6792405",
    "prefecture": "兵庫県",
    "prefecture_kana": "ヒョウゴケン",
    "prefecture_code": 28,
    "city": "神崎郡神河町",
    "city_kana": "カンザキグンカミカワチョウ",
    "town": "岩屋",
    "town_kana": "イワヤ",
    "street": null,
    "office_name": null,
    "office_name_kana": null
  },
  "2411": {
    "postcode": "6792411",
    "prefecture": "兵庫県",
    "prefecture_kana": "ヒョウゴケン",
    "prefecture_code": 28,
    "city": "神崎郡神河町",
    "city_kana": "カンザキグンカミカワチョウ",
    "town": "根宇野",
    "town_kana": "ミヨノ",
    "street": null,
    "office_name": null,
    "office_name_kana": null
  },
  "2412": {
    "postcode": "6792412",
    "prefecture": "兵庫県",
    "prefecture_kana": "ヒョウゴケン",
    "prefecture_code": 28,
    "city": "神崎郡神河町",
    "city_kana": "カンザキグンカミカワチョウ",
    "town": "山田",
    "town_kana": "ヤマダ",
    "street": null,
    "office_name": null,
    "office_name_kana": null
  },
  "2413": {
    "postcode": "6792413",
    "prefecture": "兵庫県",
    "prefecture_kana": "ヒョウゴケン",
    "prefecture_code": 28,
    "city": "神崎郡神河町",
    "city_kana": "カンザキグンカミカワチョウ",
    "town": "中村",
    "town_kana": "ナカムラ",
    "street": null,
    "office_name": null,
    "office_name_kana": null
  },
  "2414": {
    "postcode": "6792414",
    "prefecture": "兵庫県",
    "prefecture_kana": "ヒョウゴケン",
    "prefecture_code": 28,
    "city": "神崎郡神河町",
    "city_kana": "カンザキグンカミカワチョウ",
    "town": "粟賀町",
    "town_kana": "アワガマチ",
    "street": null,
    "office_name": null,
    "office_name_kana": null
  },
  "2415": {
    "postcode": "6792415",
    "prefecture": "兵庫県",
    "prefecture_kana": "ヒョウゴケン",
    "prefecture_code": 28,
    "city": "神崎郡神河町",
    "city_kana": "カンザキグンカミカワチョウ",
    "town": "福本",
    "town_kana": "フクモト",
    "street": null,
    "office_name": null,
    "office_name_kana": null
  },
  "2421": {
    "postcode": "6792421",
    "prefecture": "兵庫県",
    "prefecture_kana": "ヒョウゴケン",
    "prefecture_code": 28,
    "city": "神崎郡神河町",
    "city_kana": "カンザキグンカミカワチョウ",
    "town": "加納",
    "town_kana": "カノウ",
    "street": null,
    "office_name": null,
    "office_name_kana": null
  },
  "2422": {
    "postcode": "6792422",
    "prefecture": "兵庫県",
    "prefecture_kana": "ヒョウゴケン",
    "prefecture_code": 28,
    "city": "神崎郡神河町",
    "city_kana": "カンザキグンカミカワチョウ",
    "town": "貝野",
    "town_kana": "カイノ",
    "street": null,
    "office_name": null,
    "office_name_kana": null
  },
  "2423": {
    "postcode": "6792423",
    "prefecture": "兵庫県",
    "prefecture_kana": "ヒョウゴケン",
    "prefecture_code": 28,
    "city": "神崎郡神河町",
    "city_kana": "カンザキグンカミカワチョウ",
    "town": "寺野",
    "town_kana": "テラノ",
    "street": null,
    "office_name": null,
    "office_name_kana": null
  },
  "2424": {
    "postcode": "6792424",
    "prefecture": "兵庫県",
    "prefecture_kana": "ヒョウゴケン",
    "prefecture_code": 28,
    "city": "神崎郡神河町",
    "city_kana": "カンザキグンカミカワチョウ",
    "town": "柏尾",
    "town_kana": "カシオ",
    "street": null,
    "office_name": null,
    "office_name_kana": null
  },
  "2425": {
    "postcode": "6792425",
    "prefecture": "兵庫県",
    "prefecture_kana": "ヒョウゴケン",
    "prefecture_code": 28,
    "city": "神崎郡神河町",
    "city_kana": "カンザキグンカミカワチョウ",
    "town": "東柏尾",
    "town_kana": "ヒガシカシオ",
    "street": null,
    "office_name": null,
    "office_name_kana": null
  },
  "2431": {
    "postcode": "6792431",
    "prefecture": "兵庫県",
    "prefecture_kana": "ヒョウゴケン",
    "prefecture_code": 28,
    "city": "神崎郡神河町",
    "city_kana": "カンザキグンカミカワチョウ",
    "town": "猪篠",
    "town_kana": "イザサ",
    "street": null,
    "office_name": null,
    "office_name_kana": null
  },
  "2432": {
    "postcode": "6792432",
    "prefecture": "兵庫県",
    "prefecture_kana": "ヒョウゴケン",
    "prefecture_code": 28,
    "city": "神崎郡神河町",
    "city_kana": "カンザキグンカミカワチョウ",
    "town": "大山",
    "town_kana": "オオヤマ",
    "street": null,
    "office_name": null,
    "office_name_kana": null
  },
  "2433": {
    "postcode": "6792433",
    "prefecture": "兵庫県",
    "prefecture_kana": "ヒョウゴケン",
    "prefecture_code": 28,
    "city": "神崎郡神河町",
    "city_kana": "カンザキグンカミカワチョウ",
    "town": "杉",
    "town_kana": "スギ",
    "street": null,
    "office_name": null,
    "office_name_kana": null
  },
  "2434": {
    "postcode": "6792434",
    "prefecture": "兵庫県",
    "prefecture_kana": "ヒョウゴケン",
    "prefecture_code": 28,
    "city": "神崎郡神河町",
    "city_kana": "カンザキグンカミカワチョウ",
    "town": "吉冨",
    "town_kana": "ヨシトミ",
    "street": null,
    "office_name": null,
    "office_name_kana": null
  },
  "2493": {
    "postcode": "6792493",
    "prefecture": "兵庫県",
    "prefecture_kana": "ヒョウゴケン",
    "prefecture_code": 28,
    "city": "神崎郡神河町",
    "city_kana": "カンザキグンカミカワチョウ",
    "town": "粟賀町",
    "town_kana": "アワガマチ",
    "street": "３８５",
    "office_name": "公立神崎総合病院",
    "office_name_kana": "コウリツカンザキソウゴウビヨウイン"
  },
  "3100": {
    "postcode": "6793100",
    "prefecture": "兵庫県",
    "prefecture_kana": "ヒョウゴケン",
    "prefecture_code": 28,
    "city": "神崎郡神河町",
    "city_kana": "カンザキグンカミカワチョウ",
    "town": "",
    "town_kana": "",
    "street": null,
    "office_name": null,
    "office_name_kana": null
  },
  "3101": {
    "postcode": "6793101",
    "prefecture": "兵庫県",
    "prefecture_kana": "ヒョウゴケン",
    "prefecture_code": 28,
    "city": "神崎郡神河町",
    "city_kana": "カンザキグンカミカワチョウ",
    "town": "渕",
    "town_kana": "フチ",
    "street": null,
    "office_name": null,
    "office_name_kana": null
  },
  "3102": {
    "postcode": "6793102",
    "prefecture": "兵庫県",
    "prefecture_kana": "ヒョウゴケン",
    "prefecture_code": 28,
    "city": "神崎郡神河町",
    "city_kana": "カンザキグンカミカワチョウ",
    "town": "栗",
    "town_kana": "クリ",
    "street": null,
    "office_name": null,
    "office_name_kana": null
  },
  "3103": {
    "postcode": "6793103",
    "prefecture": "兵庫県",
    "prefecture_kana": "ヒョウゴケン",
    "prefecture_code": 28,
    "city": "神崎郡神河町",
    "city_kana": "カンザキグンカミカワチョウ",
    "town": "長谷",
    "town_kana": "ハセ",
    "street": null,
    "office_name": null,
    "office_name_kana": null
  },
  "3104": {
    "postcode": "6793104",
    "prefecture": "兵庫県",
    "prefecture_kana": "ヒョウゴケン",
    "prefecture_code": 28,
    "city": "神崎郡神河町",
    "city_kana": "カンザキグンカミカワチョウ",
    "town": "川上",
    "town_kana": "カワカミ",
    "street": null,
    "office_name": null,
    "office_name_kana": null
  },
  "3111": {
    "postcode": "6793111",
    "prefecture": "兵庫県",
    "prefecture_kana": "ヒョウゴケン",
    "prefecture_code": 28,
    "city": "神崎郡神河町",
    "city_kana": "カンザキグンカミカワチョウ",
    "town": "大河",
    "town_kana": "オオカワ",
    "street": null,
    "office_name": null,
    "office_name_kana": null
  },
  "3112": {
    "postcode": "6793112",
    "prefecture": "兵庫県",
    "prefecture_kana": "ヒョウゴケン",
    "prefecture_code": 28,
    "city": "神崎郡神河町",
    "city_kana": "カンザキグンカミカワチョウ",
    "town": "鍛治",
    "town_kana": "カジ",
    "street": null,
    "office_name": null,
    "office_name_kana": null
  },
  "3113": {
    "postcode": "6793113",
    "prefecture": "兵庫県",
    "prefecture_kana": "ヒョウゴケン",
    "prefecture_code": 28,
    "city": "神崎郡神河町",
    "city_kana": "カンザキグンカミカワチョウ",
    "town": "野村",
    "town_kana": "ノムラ",
    "street": null,
    "office_name": null,
    "office_name_kana": null
  },
  "3114": {
    "postcode": "6793114",
    "prefecture": "兵庫県",
    "prefecture_kana": "ヒョウゴケン",
    "prefecture_code": 28,
    "city": "神崎郡神河町",
    "city_kana": "カンザキグンカミカワチョウ",
    "town": "新野",
    "town_kana": "ニイノ",
    "street": null,
    "office_name": null,
    "office_name_kana": null
  },
  "3115": {
    "postcode": "6793115",
    "prefecture": "兵庫県",
    "prefecture_kana": "ヒョウゴケン",
    "prefecture_code": 28,
    "city": "神崎郡神河町",
    "city_kana": "カンザキグンカミカワチョウ",
    "town": "比延",
    "town_kana": "ヒエ",
    "street": null,
    "office_name": null,
    "office_name_kana": null
  },
  "3116": {
    "postcode": "6793116",
    "prefecture": "兵庫県",
    "prefecture_kana": "ヒョウゴケン",
    "prefecture_code": 28,
    "city": "神崎郡神河町",
    "city_kana": "カンザキグンカミカワチョウ",
    "town": "寺前",
    "town_kana": "テラマエ",
    "street": null,
    "office_name": null,
    "office_name_kana": null
  },
  "3121": {
    "postcode": "6793121",
    "prefecture": "兵庫県",
    "prefecture_kana": "ヒョウゴケン",
    "prefecture_code": 28,
    "city": "神崎郡神河町",
    "city_kana": "カンザキグンカミカワチョウ",
    "town": "上岩",
    "town_kana": "アゲイワ",
    "street": null,
    "office_name": null,
    "office_name_kana": null
  },
  "3122": {
    "postcode": "6793122",
    "prefecture": "兵庫県",
    "prefecture_kana": "ヒョウゴケン",
    "prefecture_code": 28,
    "city": "神崎郡神河町",
    "city_kana": "カンザキグンカミカワチョウ",
    "town": "高朝田",
    "town_kana": "タカチョウダ",
    "street": null,
    "office_name": null,
    "office_name_kana": null
  },
  "3123": {
    "postcode": "6793123",
    "prefecture": "兵庫県",
    "prefecture_kana": "ヒョウゴケン",
    "prefecture_code": 28,
    "city": "神崎郡神河町",
    "city_kana": "カンザキグンカミカワチョウ",
    "town": "宮野",
    "town_kana": "ミヤノ",
    "street": null,
    "office_name": null,
    "office_name_kana": null
  },
  "3124": {
    "postcode": "6793124",
    "prefecture": "兵庫県",
    "prefecture_kana": "ヒョウゴケン",
    "prefecture_code": 28,
    "city": "神崎郡神河町",
    "city_kana": "カンザキグンカミカワチョウ",
    "town": "南小田",
    "town_kana": "ミナミオダ",
    "street": null,
    "office_name": null,
    "office_name_kana": null
  },
  "3125": {
    "postcode": "6793125",
    "prefecture": "兵庫県",
    "prefecture_kana": "ヒョウゴケン",
    "prefecture_code": 28,
    "city": "神崎郡神河町",
    "city_kana": "カンザキグンカミカワチョウ",
    "town": "上小田",
    "town_kana": "カミオダ",
    "street": null,
    "office_name": null,
    "office_name_kana": null
  },
  "3301": {
    "postcode": "6793301",
    "prefecture": "兵庫県",
    "prefecture_kana": "ヒョウゴケン",
    "prefecture_code": 28,
    "city": "朝来市",
    "city_kana": "アサゴシ",
    "town": "生野町口銀谷",
    "town_kana": "イクノチョウクチガナヤ",
    "street": null,
    "office_name": null,
    "office_name_kana": null
  },
  "3302": {
    "postcode": "6793302",
    "prefecture": "兵庫県",
    "prefecture_kana": "ヒョウゴケン",
    "prefecture_code": 28,
    "city": "朝来市",
    "city_kana": "アサゴシ",
    "town": "生野町円山",
    "town_kana": "イクノチョウマルヤマ",
    "street": null,
    "office_name": null,
    "office_name_kana": null
  },
  "3311": {
    "postcode": "6793311",
    "prefecture": "兵庫県",
    "prefecture_kana": "ヒョウゴケン",
    "prefecture_code": 28,
    "city": "朝来市",
    "city_kana": "アサゴシ",
    "town": "生野町真弓",
    "town_kana": "イクノチョウマユミ",
    "street": null,
    "office_name": null,
    "office_name_kana": null
  },
  "3321": {
    "postcode": "6793321",
    "prefecture": "兵庫県",
    "prefecture_kana": "ヒョウゴケン",
    "prefecture_code": 28,
    "city": "朝来市",
    "city_kana": "アサゴシ",
    "town": "生野町新町",
    "town_kana": "イクノチョウシンマチ",
    "street": null,
    "office_name": null,
    "office_name_kana": null
  },
  "3322": {
    "postcode": "6793322",
    "prefecture": "兵庫県",
    "prefecture_kana": "ヒョウゴケン",
    "prefecture_code": 28,
    "city": "朝来市",
    "city_kana": "アサゴシ",
    "town": "生野町奥銀谷",
    "town_kana": "イクノチョウオクガナヤ",
    "street": null,
    "office_name": null,
    "office_name_kana": null
  },
  "3323": {
    "postcode": "6793323",
    "prefecture": "兵庫県",
    "prefecture_kana": "ヒョウゴケン",
    "prefecture_code": 28,
    "city": "朝来市",
    "city_kana": "アサゴシ",
    "town": "生野町竹原野",
    "town_kana": "イクノチョウタケハラノ",
    "street": null,
    "office_name": null,
    "office_name_kana": null
  },
  "3324": {
    "postcode": "6793324",
    "prefecture": "兵庫県",
    "prefecture_kana": "ヒョウゴケン",
    "prefecture_code": 28,
    "city": "朝来市",
    "city_kana": "アサゴシ",
    "town": "生野町小野",
    "town_kana": "イクノチョウコノ",
    "street": null,
    "office_name": null,
    "office_name_kana": null
  },
  "3325": {
    "postcode": "6793325",
    "prefecture": "兵庫県",
    "prefecture_kana": "ヒョウゴケン",
    "prefecture_code": 28,
    "city": "朝来市",
    "city_kana": "アサゴシ",
    "town": "生野町猪野々",
    "town_kana": "イクノチョウイノノ",
    "street": null,
    "office_name": null,
    "office_name_kana": null
  },
  "3326": {
    "postcode": "6793326",
    "prefecture": "兵庫県",
    "prefecture_kana": "ヒョウゴケン",
    "prefecture_code": 28,
    "city": "朝来市",
    "city_kana": "アサゴシ",
    "town": "生野町白口",
    "town_kana": "イクノチョウシラクチ",
    "street": null,
    "office_name": null,
    "office_name_kana": null
  },
  "3331": {
    "postcode": "6793331",
    "prefecture": "兵庫県",
    "prefecture_kana": "ヒョウゴケン",
    "prefecture_code": 28,
    "city": "朝来市",
    "city_kana": "アサゴシ",
    "town": "生野町栃原",
    "town_kana": "イクノチョウトチハラ",
    "street": null,
    "office_name": null,
    "office_name_kana": null
  },
  "3332": {
    "postcode": "6793332",
    "prefecture": "兵庫県",
    "prefecture_kana": "ヒョウゴケン",
    "prefecture_code": 28,
    "city": "朝来市",
    "city_kana": "アサゴシ",
    "town": "生野町川尻",
    "town_kana": "イクノチョウカワシリ",
    "street": null,
    "office_name": null,
    "office_name_kana": null
  },
  "3341": {
    "postcode": "6793341",
    "prefecture": "兵庫県",
    "prefecture_kana": "ヒョウゴケン",
    "prefecture_code": 28,
    "city": "朝来市",
    "city_kana": "アサゴシ",
    "town": "生野町黒川",
    "town_kana": "イクノチョウクロカワ",
    "street": null,
    "office_name": null,
    "office_name_kana": null
  },
  "3392": {
    "postcode": "6793392",
    "prefecture": "兵庫県",
    "prefecture_kana": "ヒョウゴケン",
    "prefecture_code": 28,
    "city": "朝来市",
    "city_kana": "アサゴシ",
    "town": "生野町口銀谷",
    "town_kana": "イクノチョウクチガナヤ",
    "street": "７９１−１",
    "office_name": "朝来市役所　生野支所",
    "office_name_kana": "アサゴシヤクシヨ イクノシシヨ"
  },
  "3393": {
    "postcode": "6793393",
    "prefecture": "兵庫県",
    "prefecture_kana": "ヒョウゴケン",
    "prefecture_code": 28,
    "city": "朝来市",
    "city_kana": "アサゴシ",
    "town": "生野町真弓",
    "town_kana": "イクノチョウマユミ",
    "street": "道順山３７３−６９",
    "office_name": "ヒラキ　株式会社　生野事業所",
    "office_name_kana": "ヒラキ カブシキガイシヤ イクノシシヨ"
  },
  "3401": {
    "postcode": "6793401",
    "prefecture": "兵庫県",
    "prefecture_kana": "ヒョウゴケン",
    "prefecture_code": 28,
    "city": "朝来市",
    "city_kana": "アサゴシ",
    "town": "物部",
    "town_kana": "モノノベ",
    "street": null,
    "office_name": null,
    "office_name_kana": null
  },
  "3402": {
    "postcode": "6793402",
    "prefecture": "兵庫県",
    "prefecture_kana": "ヒョウゴケン",
    "prefecture_code": 28,
    "city": "朝来市",
    "city_kana": "アサゴシ",
    "town": "桑市",
    "town_kana": "クワイチ",
    "street": null,
    "office_name": null,
    "office_name_kana": null
  },
  "3403": {
    "postcode": "6793403",
    "prefecture": "兵庫県",
    "prefecture_kana": "ヒョウゴケン",
    "prefecture_code": 28,
    "city": "朝来市",
    "city_kana": "アサゴシ",
    "town": "立脇",
    "town_kana": "タチワキ",
    "street": null,
    "office_name": null,
    "office_name_kana": null
  },
  "3411": {
    "postcode": "6793411",
    "prefecture": "兵庫県",
    "prefecture_kana": "ヒョウゴケン",
    "prefecture_code": 28,
    "city": "朝来市",
    "city_kana": "アサゴシ",
    "town": "沢",
    "town_kana": "サワ",
    "street": null,
    "office_name": null,
    "office_name_kana": null
  },
  "3412": {
    "postcode": "6793412",
    "prefecture": "兵庫県",
    "prefecture_kana": "ヒョウゴケン",
    "prefecture_code": 28,
    "city": "朝来市",
    "city_kana": "アサゴシ",
    "town": "山内",
    "town_kana": "ヤマウチ",
    "street": null,
    "office_name": null,
    "office_name_kana": null
  },
  "3413": {
    "postcode": "6793413",
    "prefecture": "兵庫県",
    "prefecture_kana": "ヒョウゴケン",
    "prefecture_code": 28,
    "city": "朝来市",
    "city_kana": "アサゴシ",
    "town": "納座",
    "town_kana": "ノウザ",
    "street": null,
    "office_name": null,
    "office_name_kana": null
  },
  "3414": {
    "postcode": "6793414",
    "prefecture": "兵庫県",
    "prefecture_kana": "ヒョウゴケン",
    "prefecture_code": 28,
    "city": "朝来市",
    "city_kana": "アサゴシ",
    "town": "川上",
    "town_kana": "カワカミ",
    "street": null,
    "office_name": null,
    "office_name_kana": null
  },
  "3421": {
    "postcode": "6793421",
    "prefecture": "兵庫県",
    "prefecture_kana": "ヒョウゴケン",
    "prefecture_code": 28,
    "city": "朝来市",
    "city_kana": "アサゴシ",
    "town": "伊由市場",
    "town_kana": "イユウイチバ",
    "street": null,
    "office_name": null,
    "office_name_kana": null
  },
  "3422": {
    "postcode": "6793422",
    "prefecture": "兵庫県",
    "prefecture_kana": "ヒョウゴケン",
    "prefecture_code": 28,
    "city": "朝来市",
    "city_kana": "アサゴシ",
    "town": "石田",
    "town_kana": "イシダ",
    "street": null,
    "office_name": null,
    "office_name_kana": null
  },
  "3423": {
    "postcode": "6793423",
    "prefecture": "兵庫県",
    "prefecture_kana": "ヒョウゴケン",
    "prefecture_code": 28,
    "city": "朝来市",
    "city_kana": "アサゴシ",
    "town": "多々良木",
    "town_kana": "タタラギ",
    "street": null,
    "office_name": null,
    "office_name_kana": null
  },
  "3424": {
    "postcode": "6793424",
    "prefecture": "兵庫県",
    "prefecture_kana": "ヒョウゴケン",
    "prefecture_code": 28,
    "city": "朝来市",
    "city_kana": "アサゴシ",
    "town": "立野",
    "town_kana": "タテノ",
    "street": null,
    "office_name": null,
    "office_name_kana": null
  },
  "3431": {
    "postcode": "6793431",
    "prefecture": "兵庫県",
    "prefecture_kana": "ヒョウゴケン",
    "prefecture_code": 28,
    "city": "朝来市",
    "city_kana": "アサゴシ",
    "town": "新井",
    "town_kana": "ニイ",
    "street": null,
    "office_name": null,
    "office_name_kana": null
  },
  "3432": {
    "postcode": "6793432",
    "prefecture": "兵庫県",
    "prefecture_kana": "ヒョウゴケン",
    "prefecture_code": 28,
    "city": "朝来市",
    "city_kana": "アサゴシ",
    "town": "山口",
    "town_kana": "ヤマグチ",
    "street": null,
    "office_name": null,
    "office_name_kana": null
  },
  "3433": {
    "postcode": "6793433",
    "prefecture": "兵庫県",
    "prefecture_kana": "ヒョウゴケン",
    "prefecture_code": 28,
    "city": "朝来市",
    "city_kana": "アサゴシ",
    "town": "岩津",
    "town_kana": "イワツ",
    "street": null,
    "office_name": null,
    "office_name_kana": null
  },
  "3441": {
    "postcode": "6793441",
    "prefecture": "兵庫県",
    "prefecture_kana": "ヒョウゴケン",
    "prefecture_code": 28,
    "city": "朝来市",
    "city_kana": "アサゴシ",
    "town": "羽渕",
    "town_kana": "ハブチ",
    "street": null,
    "office_name": null,
    "office_name_kana": null
  },
  "3442": {
    "postcode": "6793442",
    "prefecture": "兵庫県",
    "prefecture_kana": "ヒョウゴケン",
    "prefecture_code": 28,
    "city": "朝来市",
    "city_kana": "アサゴシ",
    "town": "田路",
    "town_kana": "トウジ",
    "street": null,
    "office_name": null,
    "office_name_kana": null
  },
  "3451": {
    "postcode": "6793451",
    "prefecture": "兵庫県",
    "prefecture_kana": "ヒョウゴケン",
    "prefecture_code": 28,
    "city": "朝来市",
    "city_kana": "アサゴシ",
    "town": "上八代",
    "town_kana": "カミヤシロ",
    "street": null,
    "office_name": null,
    "office_name_kana": null
  },
  "3452": {
    "postcode": "6793452",
    "prefecture": "兵庫県",
    "prefecture_kana": "ヒョウゴケン",
    "prefecture_code": 28,
    "city": "朝来市",
    "city_kana": "アサゴシ",
    "town": "八代",
    "town_kana": "ヤシロ",
    "street": null,
    "office_name": null,
    "office_name_kana": null
  },
  "3453": {
    "postcode": "6793453",
    "prefecture": "兵庫県",
    "prefecture_kana": "ヒョウゴケン",
    "prefecture_code": 28,
    "city": "朝来市",
    "city_kana": "アサゴシ",
    "town": "佐嚢",
    "town_kana": "サノウ",
    "street": null,
    "office_name": null,
    "office_name_kana": null
  },
  "4001": {
    "postcode": "6794001",
    "prefecture": "兵庫県",
    "prefecture_kana": "ヒョウゴケン",
    "prefecture_code": 28,
    "city": "たつの市",
    "city_kana": "タツノシ",
    "town": "揖西町新宮",
    "town_kana": "イッサイチョウシングウ",
    "street": null,
    "office_name": null,
    "office_name_kana": null
  },
  "4002": {
    "postcode": "6794002",
    "prefecture": "兵庫県",
    "prefecture_kana": "ヒョウゴケン",
    "prefecture_code": 28,
    "city": "たつの市",
    "city_kana": "タツノシ",
    "town": "揖西町中垣内",
    "town_kana": "イッサイチョウナカガイチ",
    "street": null,
    "office_name": null,
    "office_name_kana": null
  },
  "4003": {
    "postcode": "6794003",
    "prefecture": "兵庫県",
    "prefecture_kana": "ヒョウゴケン",
    "prefecture_code": 28,
    "city": "たつの市",
    "city_kana": "タツノシ",
    "town": "揖西町小神",
    "town_kana": "イッサイチョウオガミ",
    "street": null,
    "office_name": null,
    "office_name_kana": null
  },
  "4004": {
    "postcode": "6794004",
    "prefecture": "兵庫県",
    "prefecture_kana": "ヒョウゴケン",
    "prefecture_code": 28,
    "city": "たつの市",
    "city_kana": "タツノシ",
    "town": "揖西町清水新",
    "town_kana": "イッサイチョウシミズシン",
    "street": null,
    "office_name": null,
    "office_name_kana": null
  },
  "4005": {
    "postcode": "6794005",
    "prefecture": "兵庫県",
    "prefecture_kana": "ヒョウゴケン",
    "prefecture_code": 28,
    "city": "たつの市",
    "city_kana": "タツノシ",
    "town": "揖西町清水",
    "town_kana": "イッサイチョウシミズ",
    "street": null,
    "office_name": null,
    "office_name_kana": null
  },
  "4006": {
    "postcode": "6794006",
    "prefecture": "兵庫県",
    "prefecture_kana": "ヒョウゴケン",
    "prefecture_code": 28,
    "city": "たつの市",
    "city_kana": "タツノシ",
    "town": "揖西町田井",
    "town_kana": "イッサイチョウタイ",
    "street": null,
    "office_name": null,
    "office_name_kana": null
  },
  "4007": {
    "postcode": "6794007",
    "prefecture": "兵庫県",
    "prefecture_kana": "ヒョウゴケン",
    "prefecture_code": 28,
    "city": "たつの市",
    "city_kana": "タツノシ",
    "town": "揖西町構",
    "town_kana": "イッサイチョウカマエ",
    "street": null,
    "office_name": null,
    "office_name_kana": null
  },
  "4008": {
    "postcode": "6794008",
    "prefecture": "兵庫県",
    "prefecture_kana": "ヒョウゴケン",
    "prefecture_code": 28,
    "city": "たつの市",
    "city_kana": "タツノシ",
    "town": "揖西町芦原台",
    "town_kana": "イッサイチョウアシハラダイ",
    "street": null,
    "office_name": null,
    "office_name_kana": null
  },
  "4011": {
    "postcode": "6794011",
    "prefecture": "兵庫県",
    "prefecture_kana": "ヒョウゴケン",
    "prefecture_code": 28,
    "city": "たつの市",
    "city_kana": "タツノシ",
    "town": "揖西町佐江",
    "town_kana": "イッサイチョウサエ",
    "street": null,
    "office_name": null,
    "office_name_kana": null
  },
  "4012": {
    "postcode": "6794012",
    "prefecture": "兵庫県",
    "prefecture_kana": "ヒョウゴケン",
    "prefecture_code": 28,
    "city": "たつの市",
    "city_kana": "タツノシ",
    "town": "揖西町前地",
    "town_kana": "イッサイチョウマエジ",
    "street": null,
    "office_name": null,
    "office_name_kana": null
  },
  "4013": {
    "postcode": "6794013",
    "prefecture": "兵庫県",
    "prefecture_kana": "ヒョウゴケン",
    "prefecture_code": 28,
    "city": "たつの市",
    "city_kana": "タツノシ",
    "town": "揖西町北山",
    "town_kana": "イッサイチョウキタヤマ",
    "street": null,
    "office_name": null,
    "office_name_kana": null
  },
  "4014": {
    "postcode": "6794014",
    "prefecture": "兵庫県",
    "prefecture_kana": "ヒョウゴケン",
    "prefecture_code": 28,
    "city": "たつの市",
    "city_kana": "タツノシ",
    "town": "揖西町竹万",
    "town_kana": "イッサイチョウチクマ",
    "street": null,
    "office_name": null,
    "office_name_kana": null
  },
  "4015": {
    "postcode": "6794015",
    "prefecture": "兵庫県",
    "prefecture_kana": "ヒョウゴケン",
    "prefecture_code": 28,
    "city": "たつの市",
    "city_kana": "タツノシ",
    "town": "揖西町龍子",
    "town_kana": "イッサイチョウリュウコ",
    "street": null,
    "office_name": null,
    "office_name_kana": null
  },
  "4016": {
    "postcode": "6794016",
    "prefecture": "兵庫県",
    "prefecture_kana": "ヒョウゴケン",
    "prefecture_code": 28,
    "city": "たつの市",
    "city_kana": "タツノシ",
    "town": "揖西町南山",
    "town_kana": "イッサイチョウミナミヤマ",
    "street": null,
    "office_name": null,
    "office_name_kana": null
  },
  "4017": {
    "postcode": "6794017",
    "prefecture": "兵庫県",
    "prefecture_kana": "ヒョウゴケン",
    "prefecture_code": 28,
    "city": "たつの市",
    "city_kana": "タツノシ",
    "town": "揖西町土師",
    "town_kana": "イッサイチョウハゼ",
    "street": null,
    "office_name": null,
    "office_name_kana": null
  },
  "4021": {
    "postcode": "6794021",
    "prefecture": "兵庫県",
    "prefecture_kana": "ヒョウゴケン",
    "prefecture_code": 28,
    "city": "たつの市",
    "city_kana": "タツノシ",
    "town": "揖西町小犬丸",
    "town_kana": "イッサイチョウコイヌマル",
    "street": null,
    "office_name": null,
    "office_name_kana": null
  },
  "4022": {
    "postcode": "6794022",
    "prefecture": "兵庫県",
    "prefecture_kana": "ヒョウゴケン",
    "prefecture_code": 28,
    "city": "たつの市",
    "city_kana": "タツノシ",
    "town": "揖西町北沢",
    "town_kana": "イッサイチョウキタサワ",
    "street": null,
    "office_name": null,
    "office_name_kana": null
  },
  "4023": {
    "postcode": "6794023",
    "prefecture": "兵庫県",
    "prefecture_kana": "ヒョウゴケン",
    "prefecture_code": 28,
    "city": "たつの市",
    "city_kana": "タツノシ",
    "town": "揖西町住吉",
    "town_kana": "イッサイチョウスミヨシ",
    "street": null,
    "office_name": null,
    "office_name_kana": null
  },
  "4024": {
    "postcode": "6794024",
    "prefecture": "兵庫県",
    "prefecture_kana": "ヒョウゴケン",
    "prefecture_code": 28,
    "city": "たつの市",
    "city_kana": "タツノシ",
    "town": "揖西町尾崎",
    "town_kana": "イッサイチョウオサキ",
    "street": null,
    "office_name": null,
    "office_name_kana": null
  },
  "4025": {
    "postcode": "6794025",
    "prefecture": "兵庫県",
    "prefecture_kana": "ヒョウゴケン",
    "prefecture_code": 28,
    "city": "たつの市",
    "city_kana": "タツノシ",
    "town": "揖西町小畑",
    "town_kana": "イッサイチョウオバタケ",
    "street": null,
    "office_name": null,
    "office_name_kana": null
  },
  "4026": {
    "postcode": "6794026",
    "prefecture": "兵庫県",
    "prefecture_kana": "ヒョウゴケン",
    "prefecture_code": 28,
    "city": "たつの市",
    "city_kana": "タツノシ",
    "town": "揖西町竹原",
    "town_kana": "イッサイチョウタケハラ",
    "street": null,
    "office_name": null,
    "office_name_kana": null
  },
  "4027": {
    "postcode": "6794027",
    "prefecture": "兵庫県",
    "prefecture_kana": "ヒョウゴケン",
    "prefecture_code": 28,
    "city": "たつの市",
    "city_kana": "タツノシ",
    "town": "揖西町長尾",
    "town_kana": "イッサイチョウナガオ",
    "street": null,
    "office_name": null,
    "office_name_kana": null
  },
  "4100": {
    "postcode": "6794100",
    "prefecture": "兵庫県",
    "prefecture_kana": "ヒョウゴケン",
    "prefecture_code": 28,
    "city": "たつの市",
    "city_kana": "タツノシ",
    "town": "",
    "town_kana": "",
    "street": null,
    "office_name": null,
    "office_name_kana": null
  },
  "4101": {
    "postcode": "6794101",
    "prefecture": "兵庫県",
    "prefecture_kana": "ヒョウゴケン",
    "prefecture_code": 28,
    "city": "たつの市",
    "city_kana": "タツノシ",
    "town": "神岡町奥村",
    "town_kana": "カミオカチョウオクムラ",
    "street": null,
    "office_name": null,
    "office_name_kana": null
  },
  "4102": {
    "postcode": "6794102",
    "prefecture": "兵庫県",
    "prefecture_kana": "ヒョウゴケン",
    "prefecture_code": 28,
    "city": "たつの市",
    "city_kana": "タツノシ",
    "town": "神岡町北横内",
    "town_kana": "カミオカチョウキタヨコウチ",
    "street": null,
    "office_name": null,
    "office_name_kana": null
  },
  "4103": {
    "postcode": "6794103",
    "prefecture": "兵庫県",
    "prefecture_kana": "ヒョウゴケン",
    "prefecture_code": 28,
    "city": "たつの市",
    "city_kana": "タツノシ",
    "town": "神岡町上横内",
    "town_kana": "カミオカチョウカミヨコウチ",
    "street": null,
    "office_name": null,
    "office_name_kana": null
  },
  "4104": {
    "postcode": "6794104",
    "prefecture": "兵庫県",
    "prefecture_kana": "ヒョウゴケン",
    "prefecture_code": 28,
    "city": "たつの市",
    "city_kana": "タツノシ",
    "town": "神岡町筒井",
    "town_kana": "カミオカチョウツツイ",
    "street": null,
    "office_name": null,
    "office_name_kana": null
  },
  "4105": {
    "postcode": "6794105",
    "prefecture": "兵庫県",
    "prefecture_kana": "ヒョウゴケン",
    "prefecture_code": 28,
    "city": "たつの市",
    "city_kana": "タツノシ",
    "town": "神岡町西鳥井",
    "town_kana": "カミオカチョウニシトリイ",
    "street": null,
    "office_name": null,
    "office_name_kana": null
  },
  "4106": {
    "postcode": "6794106",
    "prefecture": "兵庫県",
    "prefecture_kana": "ヒョウゴケン",
    "prefecture_code": 28,
    "city": "たつの市",
    "city_kana": "タツノシ",
    "town": "神岡町横内",
    "town_kana": "カミオカチョウヨコウチ",
    "street": null,
    "office_name": null,
    "office_name_kana": null
  },
  "4107": {
    "postcode": "6794107",
    "prefecture": "兵庫県",
    "prefecture_kana": "ヒョウゴケン",
    "prefecture_code": 28,
    "city": "たつの市",
    "city_kana": "タツノシ",
    "town": "神岡町西横内",
    "town_kana": "カミオカチョウニシヨコウチ",
    "street": null,
    "office_name": null,
    "office_name_kana": null
  },
  "4108": {
    "postcode": "6794108",
    "prefecture": "兵庫県",
    "prefecture_kana": "ヒョウゴケン",
    "prefecture_code": 28,
    "city": "たつの市",
    "city_kana": "タツノシ",
    "town": "神岡町大住寺",
    "town_kana": "カミオカチョウダイジュウジ",
    "street": null,
    "office_name": null,
    "office_name_kana": null
  },
  "4109": {
    "postcode": "6794109",
    "prefecture": "兵庫県",
    "prefecture_kana": "ヒョウゴケン",
    "prefecture_code": 28,
    "city": "たつの市",
    "city_kana": "タツノシ",
    "town": "神岡町東觜崎",
    "town_kana": "カミオカチョウヒガシハシサキ",
    "street": null,
    "office_name": null,
    "office_name_kana": null
  },
  "4111": {
    "postcode": "6794111",
    "prefecture": "兵庫県",
    "prefecture_kana": "ヒョウゴケン",
    "prefecture_code": 28,
    "city": "たつの市",
    "city_kana": "タツノシ",
    "town": "神岡町野部",
    "town_kana": "カミオカチョウノベ",
    "street": null,
    "office_name": null,
    "office_name_kana": null
  },
  "4112": {
    "postcode": "6794112",
    "prefecture": "兵庫県",
    "prefecture_kana": "ヒョウゴケン",
    "prefecture_code": 28,
    "city": "たつの市",
    "city_kana": "タツノシ",
    "town": "神岡町追分",
    "town_kana": "カミオカチョウオイワケ",
    "street": null,
    "office_name": null,
    "office_name_kana": null
  },
  "4113": {
    "postcode": "6794113",
    "prefecture": "兵庫県",
    "prefecture_kana": "ヒョウゴケン",
    "prefecture_code": 28,
    "city": "たつの市",
    "city_kana": "タツノシ",
    "town": "神岡町田中",
    "town_kana": "カミオカチョウタナカ",
    "street": null,
    "office_name": null,
    "office_name_kana": null
  },
  "4114": {
    "postcode": "6794114",
    "prefecture": "兵庫県",
    "prefecture_kana": "ヒョウゴケン",
    "prefecture_code": 28,
    "city": "たつの市",
    "city_kana": "タツノシ",
    "town": "神岡町寄井",
    "town_kana": "カミオカチョウヨリイ",
    "street": null,
    "office_name": null,
    "office_name_kana": null
  },
  "4115": {
    "postcode": "6794115",
    "prefecture": "兵庫県",
    "prefecture_kana": "ヒョウゴケン",
    "prefecture_code": 28,
    "city": "たつの市",
    "city_kana": "タツノシ",
    "town": "神岡町入野",
    "town_kana": "カミオカチョウイリノ",
    "street": null,
    "office_name": null,
    "office_name_kana": null
  },
  "4116": {
    "postcode": "6794116",
    "prefecture": "兵庫県",
    "prefecture_kana": "ヒョウゴケン",
    "prefecture_code": 28,
    "city": "たつの市",
    "city_kana": "タツノシ",
    "town": "神岡町沢田",
    "town_kana": "カミオカチョウサワダ",
    "street": null,
    "office_name": null,
    "office_name_kana": null
  },
  "4121": {
    "postcode": "6794121",
    "prefecture": "兵庫県",
    "prefecture_kana": "ヒョウゴケン",
    "prefecture_code": 28,
    "city": "たつの市",
    "city_kana": "タツノシ",
    "town": "龍野町島田",
    "town_kana": "タツノチョウシマダ",
    "street": null,
    "office_name": null,
    "office_name_kana": null
  },
  "4122": {
    "postcode": "6794122",
    "prefecture": "兵庫県",
    "prefecture_kana": "ヒョウゴケン",
    "prefecture_code": 28,
    "city": "たつの市",
    "city_kana": "タツノシ",
    "town": "龍野町日飼",
    "town_kana": "タツノチョウヒガイ",
    "street": null,
    "office_name": null,
    "office_name_kana": null
  },
  "4123": {
    "postcode": "6794123",
    "prefecture": "兵庫県",
    "prefecture_kana": "ヒョウゴケン",
    "prefecture_code": 28,
    "city": "たつの市",
    "city_kana": "タツノシ",
    "town": "龍野町片山",
    "town_kana": "タツノチョウカタヤマ",
    "street": null,
    "office_name": null,
    "office_name_kana": null
  },
  "4124": {
    "postcode": "6794124",
    "prefecture": "兵庫県",
    "prefecture_kana": "ヒョウゴケン",
    "prefecture_code": 28,
    "city": "たつの市",
    "city_kana": "タツノシ",
    "town": "龍野町中井",
    "town_kana": "タツノチョウナカイ",
    "street": null,
    "office_name": null,
    "office_name_kana": null
  },
  "4125": {
    "postcode": "6794125",
    "prefecture": "兵庫県",
    "prefecture_kana": "ヒョウゴケン",
    "prefecture_code": 28,
    "city": "たつの市",
    "city_kana": "タツノシ",
    "town": "龍野町末政",
    "town_kana": "タツノチョウスエマサ",
    "street": null,
    "office_name": null,
    "office_name_kana": null
  },
  "4126": {
    "postcode": "6794126",
    "prefecture": "兵庫県",
    "prefecture_kana": "ヒョウゴケン",
    "prefecture_code": 28,
    "city": "たつの市",
    "city_kana": "タツノシ",
    "town": "龍野町中村",
    "town_kana": "タツノチョウナカムラ",
    "street": null,
    "office_name": null,
    "office_name_kana": null
  },
  "4127": {
    "postcode": "6794127",
    "prefecture": "兵庫県",
    "prefecture_kana": "ヒョウゴケン",
    "prefecture_code": 28,
    "city": "たつの市",
    "city_kana": "タツノシ",
    "town": "龍野町宮脇",
    "town_kana": "タツノチョウミヤワキ",
    "street": null,
    "office_name": null,
    "office_name_kana": null
  },
  "4128": {
    "postcode": "6794128",
    "prefecture": "兵庫県",
    "prefecture_kana": "ヒョウゴケン",
    "prefecture_code": 28,
    "city": "たつの市",
    "city_kana": "タツノシ",
    "town": "龍野町小宅北",
    "town_kana": "タツノチョウオヤケキタ",
    "street": null,
    "office_name": null,
    "office_name_kana": null
  },
  "4129": {
    "postcode": "6794129",
    "prefecture": "兵庫県",
    "prefecture_kana": "ヒョウゴケン",
    "prefecture_code": 28,
    "city": "たつの市",
    "city_kana": "タツノシ",
    "town": "龍野町堂本",
    "town_kana": "タツノチョウドウモト",
    "street": null,
    "office_name": null,
    "office_name_kana": null
  },
  "4130": {
    "postcode": "6794130",
    "prefecture": "兵庫県",
    "prefecture_kana": "ヒョウゴケン",
    "prefecture_code": 28,
    "city": "たつの市",
    "city_kana": "タツノシ",
    "town": "誉田町長真",
    "town_kana": "ホンダチョウナガザネ",
    "street": null,
    "office_name": null,
    "office_name_kana": null
  },
  "4131": {
    "postcode": "6794131",
    "prefecture": "兵庫県",
    "prefecture_kana": "ヒョウゴケン",
    "prefecture_code": 28,
    "city": "たつの市",
    "city_kana": "タツノシ",
    "town": "誉田町内山",
    "town_kana": "ホンダチョウウチヤマ",
    "street": null,
    "office_name": null,
    "office_name_kana": null
  },
  "4132": {
    "postcode": "6794132",
    "prefecture": "兵庫県",
    "prefecture_kana": "ヒョウゴケン",
    "prefecture_code": 28,
    "city": "たつの市",
    "city_kana": "タツノシ",
    "town": "誉田町福田",
    "town_kana": "ホンダチョウフクダ",
    "street": null,
    "office_name": null,
    "office_name_kana": null
  },
  "4133": {
    "postcode": "6794133",
    "prefecture": "兵庫県",
    "prefecture_kana": "ヒョウゴケン",
    "prefecture_code": 28,
    "city": "たつの市",
    "city_kana": "タツノシ",
    "town": "誉田町誉",
    "town_kana": "ホンダチョウホマレ",
    "street": null,
    "office_name": null,
    "office_name_kana": null
  },
  "4134": {
    "postcode": "6794134",
    "prefecture": "兵庫県",
    "prefecture_kana": "ヒョウゴケン",
    "prefecture_code": 28,
    "city": "たつの市",
    "city_kana": "タツノシ",
    "town": "誉田町広山",
    "town_kana": "ホンダチョウヒロヤマ",
    "street": null,
    "office_name": null,
    "office_name_kana": null
  },
  "4135": {
    "postcode": "6794135",
    "prefecture": "兵庫県",
    "prefecture_kana": "ヒョウゴケン",
    "prefecture_code": 28,
    "city": "たつの市",
    "city_kana": "タツノシ",
    "town": "誉田町高駄",
    "town_kana": "ホンダチョウタカダ",
    "street": null,
    "office_name": null,
    "office_name_kana": null
  },
  "4136": {
    "postcode": "6794136",
    "prefecture": "兵庫県",
    "prefecture_kana": "ヒョウゴケン",
    "prefecture_code": 28,
    "city": "たつの市",
    "city_kana": "タツノシ",
    "town": "誉田町井上",
    "town_kana": "ホンダチョウイノカミ",
    "street": null,
    "office_name": null,
    "office_name_kana": null
  },
  "4137": {
    "postcode": "6794137",
    "prefecture": "兵庫県",
    "prefecture_kana": "ヒョウゴケン",
    "prefecture_code": 28,
    "city": "たつの市",
    "city_kana": "タツノシ",
    "town": "誉田町片吹",
    "town_kana": "ホンダチョウカタブキ",
    "street": null,
    "office_name": null,
    "office_name_kana": null
  },
  "4138": {
    "postcode": "6794138",
    "prefecture": "兵庫県",
    "prefecture_kana": "ヒョウゴケン",
    "prefecture_code": 28,
    "city": "たつの市",
    "city_kana": "タツノシ",
    "town": "誉田町下沖",
    "town_kana": "ホンダチョウシモオキ",
    "street": null,
    "office_name": null,
    "office_name_kana": null
  },
  "4139": {
    "postcode": "6794139",
    "prefecture": "兵庫県",
    "prefecture_kana": "ヒョウゴケン",
    "prefecture_code": 28,
    "city": "たつの市",
    "city_kana": "タツノシ",
    "town": "誉田町上沖",
    "town_kana": "ホンダチョウカミオキ",
    "street": null,
    "office_name": null,
    "office_name_kana": null
  },
  "4141": {
    "postcode": "6794141",
    "prefecture": "兵庫県",
    "prefecture_kana": "ヒョウゴケン",
    "prefecture_code": 28,
    "city": "たつの市",
    "city_kana": "タツノシ",
    "town": "揖保町栄",
    "town_kana": "イボチョウサカエ",
    "street": null,
    "office_name": null,
    "office_name_kana": null
  },
  "4142": {
    "postcode": "6794142",
    "prefecture": "兵庫県",
    "prefecture_kana": "ヒョウゴケン",
    "prefecture_code": 28,
    "city": "たつの市",
    "city_kana": "タツノシ",
    "town": "揖保町松原",
    "town_kana": "イボチョウマツバラ",
    "street": null,
    "office_name": null,
    "office_name_kana": null
  },
  "4143": {
    "postcode": "6794143",
    "prefecture": "兵庫県",
    "prefecture_kana": "ヒョウゴケン",
    "prefecture_code": 28,
    "city": "たつの市",
    "city_kana": "タツノシ",
    "town": "揖保町東用",
    "town_kana": "イボチョウトウヨウ",
    "street": null,
    "office_name": null,
    "office_name_kana": null
  },
  "4144": {
    "postcode": "6794144",
    "prefecture": "兵庫県",
    "prefecture_kana": "ヒョウゴケン",
    "prefecture_code": 28,
    "city": "たつの市",
    "city_kana": "タツノシ",
    "town": "揖保町真砂",
    "town_kana": "イボチョウマサゴ",
    "street": null,
    "office_name": null,
    "office_name_kana": null
  },
  "4145": {
    "postcode": "6794145",
    "prefecture": "兵庫県",
    "prefecture_kana": "ヒョウゴケン",
    "prefecture_code": 28,
    "city": "たつの市",
    "city_kana": "タツノシ",
    "town": "揖保町萩原",
    "town_kana": "イボチョウハイバラ",
    "street": null,
    "office_name": null,
    "office_name_kana": null
  },
  "4146": {
    "postcode": "6794146",
    "prefecture": "兵庫県",
    "prefecture_kana": "ヒョウゴケン",
    "prefecture_code": 28,
    "city": "たつの市",
    "city_kana": "タツノシ",
    "town": "揖保町今市",
    "town_kana": "イボチョウイマイチ",
    "street": null,
    "office_name": null,
    "office_name_kana": null
  },
  "4151": {
    "postcode": "6794151",
    "prefecture": "兵庫県",
    "prefecture_kana": "ヒョウゴケン",
    "prefecture_code": 28,
    "city": "たつの市",
    "city_kana": "タツノシ",
    "town": "揖保町山下",
    "town_kana": "イボチョウヤマシタ",
    "street": null,
    "office_name": null,
    "office_name_kana": null
  },
  "4152": {
    "postcode": "6794152",
    "prefecture": "兵庫県",
    "prefecture_kana": "ヒョウゴケン",
    "prefecture_code": 28,
    "city": "たつの市",
    "city_kana": "タツノシ",
    "town": "揖保町中臣",
    "town_kana": "イボチョウナカジン",
    "street": null,
    "office_name": null,
    "office_name_kana": null
  },
  "4153": {
    "postcode": "6794153",
    "prefecture": "兵庫県",
    "prefecture_kana": "ヒョウゴケン",
    "prefecture_code": 28,
    "city": "たつの市",
    "city_kana": "タツノシ",
    "town": "揖保町門前",
    "town_kana": "イボチョウモンゼン",
    "street": null,
    "office_name": null,
    "office_name_kana": null
  },
  "4154": {
    "postcode": "6794154",
    "prefecture": "兵庫県",
    "prefecture_kana": "ヒョウゴケン",
    "prefecture_code": 28,
    "city": "たつの市",
    "city_kana": "タツノシ",
    "town": "揖保町西構",
    "town_kana": "イボチョウニシガマエ",
    "street": null,
    "office_name": null,
    "office_name_kana": null
  },
  "4155": {
    "postcode": "6794155",
    "prefecture": "兵庫県",
    "prefecture_kana": "ヒョウゴケン",
    "prefecture_code": 28,
    "city": "たつの市",
    "city_kana": "タツノシ",
    "town": "揖保町揖保中",
    "town_kana": "イボチョウイボナカ",
    "street": null,
    "office_name": null,
    "office_name_kana": null
  },
  "4156": {
    "postcode": "6794156",
    "prefecture": "兵庫県",
    "prefecture_kana": "ヒョウゴケン",
    "prefecture_code": 28,
    "city": "たつの市",
    "city_kana": "タツノシ",
    "town": "揖保町揖保上",
    "town_kana": "イボチョウイボカミ",
    "street": null,
    "office_name": null,
    "office_name_kana": null
  },
  "4161": {
    "postcode": "6794161",
    "prefecture": "兵庫県",
    "prefecture_kana": "ヒョウゴケン",
    "prefecture_code": 28,
    "city": "たつの市",
    "city_kana": "タツノシ",
    "town": "龍野町日山",
    "town_kana": "タツノチョウヒヤマ",
    "street": null,
    "office_name": null,
    "office_name_kana": null
  },
  "4162": {
    "postcode": "6794162",
    "prefecture": "兵庫県",
    "prefecture_kana": "ヒョウゴケン",
    "prefecture_code": 28,
    "city": "たつの市",
    "city_kana": "タツノシ",
    "town": "龍野町下霞城",
    "town_kana": "タツノチョウシモカジョウ",
    "street": null,
    "office_name": null,
    "office_name_kana": null
  },
  "4163": {
    "postcode": "6794163",
    "prefecture": "兵庫県",
    "prefecture_kana": "ヒョウゴケン",
    "prefecture_code": 28,
    "city": "たつの市",
    "city_kana": "タツノシ",
    "town": "龍野町福の神",
    "town_kana": "タツノチョウフクノカミ",
    "street": null,
    "office_name": null,
    "office_name_kana": null
  },
  "4164": {
    "postcode": "6794164",
    "prefecture": "兵庫県",
    "prefecture_kana": "ヒョウゴケン",
    "prefecture_code": 28,
    "city": "たつの市",
    "city_kana": "タツノシ",
    "town": "龍野町立町",
    "town_kana": "タツノチョウタテマチ",
    "street": null,
    "office_name": null,
    "office_name_kana": null
  },
  "4165": {
    "postcode": "6794165",
    "prefecture": "兵庫県",
    "prefecture_kana": "ヒョウゴケン",
    "prefecture_code": 28,
    "city": "たつの市",
    "city_kana": "タツノシ",
    "town": "龍野町本町",
    "town_kana": "タツノチョウホンマチ",
    "street": null,
    "office_name": null,
    "office_name_kana": null
  },
  "4166": {
    "postcode": "6794166",
    "prefecture": "兵庫県",
    "prefecture_kana": "ヒョウゴケン",
    "prefecture_code": 28,
    "city": "たつの市",
    "city_kana": "タツノシ",
    "town": "龍野町川原町",
    "town_kana": "タツノチョウカワラチョウ",
    "street": null,
    "office_name": null,
    "office_name_kana": null
  },
  "4167": {
    "postcode": "6794167",
    "prefecture": "兵庫県",
    "prefecture_kana": "ヒョウゴケン",
    "prefecture_code": 28,
    "city": "たつの市",
    "city_kana": "タツノシ",
    "town": "龍野町富永",
    "town_kana": "タツノチョウトミナガ",
    "street": null,
    "office_name": null,
    "office_name_kana": null
  },
  "4168": {
    "postcode": "6794168",
    "prefecture": "兵庫県",
    "prefecture_kana": "ヒョウゴケン",
    "prefecture_code": 28,
    "city": "たつの市",
    "city_kana": "タツノシ",
    "town": "龍野町四箇",
    "town_kana": "タツノチョウヨッカ",
    "street": null,
    "office_name": null,
    "office_name_kana": null
  },
  "4169": {
    "postcode": "6794169",
    "prefecture": "兵庫県",
    "prefecture_kana": "ヒョウゴケン",
    "prefecture_code": 28,
    "city": "たつの市",
    "city_kana": "タツノシ",
    "town": "龍野町大道",
    "town_kana": "タツノチョウダイドウ",
    "street": null,
    "office_name": null,
    "office_name_kana": null
  },
  "4170": {
    "postcode": "6794170",
    "prefecture": "兵庫県",
    "prefecture_kana": "ヒョウゴケン",
    "prefecture_code": 28,
    "city": "たつの市",
    "city_kana": "タツノシ",
    "town": "龍野町中霞城",
    "town_kana": "タツノチョウナカカジョウ",
    "street": null,
    "office_name": null,
    "office_name_kana": null
  },
  "4171": {
    "postcode": "6794171",
    "prefecture": "兵庫県",
    "prefecture_kana": "ヒョウゴケン",
    "prefecture_code": 28,
    "city": "たつの市",
    "city_kana": "タツノシ",
    "town": "龍野町北龍野",
    "town_kana": "タツノチョウキタタツノ",
    "street": null,
    "office_name": null,
    "office_name_kana": null
  },
  "4172": {
    "postcode": "6794172",
    "prefecture": "兵庫県",
    "prefecture_kana": "ヒョウゴケン",
    "prefecture_code": 28,
    "city": "たつの市",
    "city_kana": "タツノシ",
    "town": "龍野町上川原",
    "town_kana": "タツノチョウカミガワラ",
    "street": null,
    "office_name": null,
    "office_name_kana": null
  },
  "4173": {
    "postcode": "6794173",
    "prefecture": "兵庫県",
    "prefecture_kana": "ヒョウゴケン",
    "prefecture_code": 28,
    "city": "たつの市",
    "city_kana": "タツノシ",
    "town": "龍野町門の外",
    "town_kana": "タツノチョウモンノソト",
    "street": null,
    "office_name": null,
    "office_name_kana": null
  },
  "4174": {
    "postcode": "6794174",
    "prefecture": "兵庫県",
    "prefecture_kana": "ヒョウゴケン",
    "prefecture_code": 28,
    "city": "たつの市",
    "city_kana": "タツノシ",
    "town": "龍野町柳原",
    "town_kana": "タツノチョウヤナギハラ",
    "street": null,
    "office_name": null,
    "office_name_kana": null
  },
  "4175": {
    "postcode": "6794175",
    "prefecture": "兵庫県",
    "prefecture_kana": "ヒョウゴケン",
    "prefecture_code": 28,
    "city": "たつの市",
    "city_kana": "タツノシ",
    "town": "龍野町旭町",
    "town_kana": "タツノチョウアサヒマチ",
    "street": null,
    "office_name": null,
    "office_name_kana": null
  },
  "4176": {
    "postcode": "6794176",
    "prefecture": "兵庫県",
    "prefecture_kana": "ヒョウゴケン",
    "prefecture_code": 28,
    "city": "たつの市",
    "city_kana": "タツノシ",
    "town": "龍野町水神町",
    "town_kana": "タツノチョウスイジンチョウ",
    "street": null,
    "office_name": null,
    "office_name_kana": null
  },
  "4177": {
    "postcode": "6794177",
    "prefecture": "兵庫県",
    "prefecture_kana": "ヒョウゴケン",
    "prefecture_code": 28,
    "city": "たつの市",
    "city_kana": "タツノシ",
    "town": "龍野町下川原",
    "town_kana": "タツノチョウシモガワラ",
    "street": null,
    "office_name": null,
    "office_name_kana": null
  },
  "4178": {
    "postcode": "6794178",
    "prefecture": "兵庫県",
    "prefecture_kana": "ヒョウゴケン",
    "prefecture_code": 28,
    "city": "たつの市",
    "city_kana": "タツノシ",
    "town": "龍野町大手",
    "town_kana": "タツノチョウオオテ",
    "street": null,
    "office_name": null,
    "office_name_kana": null
  },
  "4179": {
    "postcode": "6794179",
    "prefecture": "兵庫県",
    "prefecture_kana": "ヒョウゴケン",
    "prefecture_code": 28,
    "city": "たつの市",
    "city_kana": "タツノシ",
    "town": "龍野町上霞城",
    "town_kana": "タツノチョウカミカジョウ",
    "street": null,
    "office_name": null,
    "office_name_kana": null
  },
  "4192": {
    "postcode": "6794192",
    "prefecture": "兵庫県",
    "prefecture_kana": "ヒョウゴケン",
    "prefecture_code": 28,
    "city": "たつの市",
    "city_kana": "タツノシ",
    "town": "龍野町富永",
    "town_kana": "タツノチョウトミナガ",
    "street": "１００５−１",
    "office_name": "たつの市役所",
    "office_name_kana": "タツノシヤクシヨ"
  },
  "4193": {
    "postcode": "6794193",
    "prefecture": "兵庫県",
    "prefecture_kana": "ヒョウゴケン",
    "prefecture_code": 28,
    "city": "たつの市",
    "city_kana": "タツノシ",
    "town": "龍野町富永",
    "town_kana": "タツノチョウトミナガ",
    "street": "１００−３",
    "office_name": "ヒガシマル醤油　株式会社",
    "office_name_kana": "ヒガシマルシヨウユ カブシキガイシヤ"
  },
  "4195": {
    "postcode": "6794195",
    "prefecture": "兵庫県",
    "prefecture_kana": "ヒョウゴケン",
    "prefecture_code": 28,
    "city": "たつの市",
    "city_kana": "タツノシ",
    "town": "龍野町日飼",
    "town_kana": "タツノチョウヒガイ",
    "street": "１９０",
    "office_name": "ＫＬＡＳＳ　株式会社",
    "office_name_kana": "クラス カブシキガイシヤ"
  },
  "4201": {
    "postcode": "6794201",
    "prefecture": "兵庫県",
    "prefecture_kana": "ヒョウゴケン",
    "prefecture_code": 28,
    "city": "姫路市",
    "city_kana": "ヒメジシ",
    "town": "林田町久保",
    "town_kana": "ハヤシダチョウクボ",
    "street": null,
    "office_name": null,
    "office_name_kana": null
  },
  "4202": {
    "postcode": "6794202",
    "prefecture": "兵庫県",
    "prefecture_kana": "ヒョウゴケン",
    "prefecture_code": 28,
    "city": "姫路市",
    "city_kana": "ヒメジシ",
    "town": "林田町下構",
    "town_kana": "ハヤシダチョウシモカマエ",
    "street": null,
    "office_name": null,
    "office_name_kana": null
  },
  "4203": {
    "postcode": "6794203",
    "prefecture": "兵庫県",
    "prefecture_kana": "ヒョウゴケン",
    "prefecture_code": 28,
    "city": "姫路市",
    "city_kana": "ヒメジシ",
    "town": "林田町中構",
    "town_kana": "ハヤシダチョウナカカマエ",
    "street": null,
    "office_name": null,
    "office_name_kana": null
  },
  "4204": {
    "postcode": "6794204",
    "prefecture": "兵庫県",
    "prefecture_kana": "ヒョウゴケン",
    "prefecture_code": 28,
    "city": "姫路市",
    "city_kana": "ヒメジシ",
    "town": "林田町上構",
    "town_kana": "ハヤシダチョウカミカマエ",
    "street": null,
    "office_name": null,
    "office_name_kana": null
  },
  "4205": {
    "postcode": "6794205",
    "prefecture": "兵庫県",
    "prefecture_kana": "ヒョウゴケン",
    "prefecture_code": 28,
    "city": "姫路市",
    "city_kana": "ヒメジシ",
    "town": "林田町新町",
    "town_kana": "ハヤシダチョウシンマチ",
    "street": null,
    "office_name": null,
    "office_name_kana": null
  },
  "4206": {
    "postcode": "6794206",
    "prefecture": "兵庫県",
    "prefecture_kana": "ヒョウゴケン",
    "prefecture_code": 28,
    "city": "姫路市",
    "city_kana": "ヒメジシ",
    "town": "林田町林田",
    "town_kana": "ハヤシダチョウハヤシダ",
    "street": null,
    "office_name": null,
    "office_name_kana": null
  },
  "4211": {
    "postcode": "6794211",
    "prefecture": "兵庫県",
    "prefecture_kana": "ヒョウゴケン",
    "prefecture_code": 28,
    "city": "姫路市",
    "city_kana": "ヒメジシ",
    "town": "林田町六九谷",
    "town_kana": "ハヤシダチョウムクダニ",
    "street": null,
    "office_name": null,
    "office_name_kana": null
  },
  "4212": {
    "postcode": "6794212",
    "prefecture": "兵庫県",
    "prefecture_kana": "ヒョウゴケン",
    "prefecture_code": 28,
    "city": "姫路市",
    "city_kana": "ヒメジシ",
    "town": "林田町松山",
    "town_kana": "ハヤシダチョウマツヤマ",
    "street": null,
    "office_name": null,
    "office_name_kana": null
  },
  "4213": {
    "postcode": "6794213",
    "prefecture": "兵庫県",
    "prefecture_kana": "ヒョウゴケン",
    "prefecture_code": 28,
    "city": "姫路市",
    "city_kana": "ヒメジシ",
    "town": "林田町山田",
    "town_kana": "ハヤシダチョウヤマダ",
    "street": null,
    "office_name": null,
    "office_name_kana": null
  },
  "4214": {
    "postcode": "6794214",
    "prefecture": "兵庫県",
    "prefecture_kana": "ヒョウゴケン",
    "prefecture_code": 28,
    "city": "姫路市",
    "city_kana": "ヒメジシ",
    "town": "林田町中山下",
    "town_kana": "ハヤシダチョウナカヤマシタ",
    "street": null,
    "office_name": null,
    "office_name_kana": null
  },
  "4215": {
    "postcode": "6794215",
    "prefecture": "兵庫県",
    "prefecture_kana": "ヒョウゴケン",
    "prefecture_code": 28,
    "city": "姫路市",
    "city_kana": "ヒメジシ",
    "town": "林田町八幡",
    "town_kana": "ハヤシダチョウヤハタ",
    "street": null,
    "office_name": null,
    "office_name_kana": null
  },
  "4221": {
    "postcode": "6794221",
    "prefecture": "兵庫県",
    "prefecture_kana": "ヒョウゴケン",
    "prefecture_code": 28,
    "city": "姫路市",
    "city_kana": "ヒメジシ",
    "town": "林田町林谷",
    "town_kana": "ハヤシダチョウハヤシダニ",
    "street": null,
    "office_name": null,
    "office_name_kana": null
  },
  "4222": {
    "postcode": "6794222",
    "prefecture": "兵庫県",
    "prefecture_kana": "ヒョウゴケン",
    "prefecture_code": 28,
    "city": "姫路市",
    "city_kana": "ヒメジシ",
    "town": "林田町口佐見",
    "town_kana": "ハヤシダチョウクチサミ",
    "street": null,
    "office_name": null,
    "office_name_kana": null
  },
  "4223": {
    "postcode": "6794223",
    "prefecture": "兵庫県",
    "prefecture_kana": "ヒョウゴケン",
    "prefecture_code": 28,
    "city": "姫路市",
    "city_kana": "ヒメジシ",
    "town": "林田町奥佐見",
    "town_kana": "ハヤシダチョウオクサミ",
    "street": null,
    "office_name": null,
    "office_name_kana": null
  },
  "4231": {
    "postcode": "6794231",
    "prefecture": "兵庫県",
    "prefecture_kana": "ヒョウゴケン",
    "prefecture_code": 28,
    "city": "姫路市",
    "city_kana": "ヒメジシ",
    "town": "林田町大堤",
    "town_kana": "ハヤシダチョウオオヅツミ",
    "street": null,
    "office_name": null,
    "office_name_kana": null
  },
  "4232": {
    "postcode": "6794232",
    "prefecture": "兵庫県",
    "prefecture_kana": "ヒョウゴケン",
    "prefecture_code": 28,
    "city": "姫路市",
    "city_kana": "ヒメジシ",
    "town": "林田町上伊勢",
    "town_kana": "ハヤシダチョウカミイセ",
    "street": null,
    "office_name": null,
    "office_name_kana": null
  },
  "4233": {
    "postcode": "6794233",
    "prefecture": "兵庫県",
    "prefecture_kana": "ヒョウゴケン",
    "prefecture_code": 28,
    "city": "姫路市",
    "city_kana": "ヒメジシ",
    "town": "林田町下伊勢",
    "town_kana": "ハヤシダチョウシモイセ",
    "street": null,
    "office_name": null,
    "office_name_kana": null
  },
  "4298": {
    "postcode": "6794298",
    "prefecture": "兵庫県",
    "prefecture_kana": "ヒョウゴケン",
    "prefecture_code": 28,
    "city": "姫路市",
    "city_kana": "ヒメジシ",
    "town": "林田町六九谷",
    "town_kana": "ハヤシダチョウムクダニ",
    "street": "６８１（林田郵便局私書箱第１号）",
    "office_name": "ヤヱガキ　株式会社",
    "office_name_kana": "ヤエガキ カブシキガイシヤ"
  },
  "4301": {
    "postcode": "6794301",
    "prefecture": "兵庫県",
    "prefecture_kana": "ヒョウゴケン",
    "prefecture_code": 28,
    "city": "たつの市",
    "city_kana": "タツノシ",
    "town": "新宮町篠首",
    "town_kana": "シングウチョウシノクビ",
    "street": null,
    "office_name": null,
    "office_name_kana": null
  },
  "4302": {
    "postcode": "6794302",
    "prefecture": "兵庫県",
    "prefecture_kana": "ヒョウゴケン",
    "prefecture_code": 28,
    "city": "たつの市",
    "city_kana": "タツノシ",
    "town": "新宮町香山",
    "town_kana": "シングウチョウコウヤマ",
    "street": null,
    "office_name": null,
    "office_name_kana": null
  },
  "4303": {
    "postcode": "6794303",
    "prefecture": "兵庫県",
    "prefecture_kana": "ヒョウゴケン",
    "prefecture_code": 28,
    "city": "たつの市",
    "city_kana": "タツノシ",
    "town": "新宮町上笹",
    "town_kana": "シングウチョウカミササ",
    "street": null,
    "office_name": null,
    "office_name_kana": null
  },
  "4304": {
    "postcode": "6794304",
    "prefecture": "兵庫県",
    "prefecture_kana": "ヒョウゴケン",
    "prefecture_code": 28,
    "city": "たつの市",
    "city_kana": "タツノシ",
    "town": "新宮町下笹",
    "town_kana": "シングウチョウシモササ",
    "street": null,
    "office_name": null,
    "office_name_kana": null
  },
  "4305": {
    "postcode": "6794305",
    "prefecture": "兵庫県",
    "prefecture_kana": "ヒョウゴケン",
    "prefecture_code": 28,
    "city": "たつの市",
    "city_kana": "タツノシ",
    "town": "新宮町吉島",
    "town_kana": "シングウチョウヨシマ",
    "street": null,
    "office_name": null,
    "office_name_kana": null
  },
  "4311": {
    "postcode": "6794311",
    "prefecture": "兵庫県",
    "prefecture_kana": "ヒョウゴケン",
    "prefecture_code": 28,
    "city": "たつの市",
    "city_kana": "タツノシ",
    "town": "新宮町宮内",
    "town_kana": "シングウチョウミヤウチ",
    "street": null,
    "office_name": null,
    "office_name_kana": null
  },
  "4312": {
    "postcode": "6794312",
    "prefecture": "兵庫県",
    "prefecture_kana": "ヒョウゴケン",
    "prefecture_code": 28,
    "city": "たつの市",
    "city_kana": "タツノシ",
    "town": "新宮町下野",
    "town_kana": "シングウチョウシモノ",
    "street": null,
    "office_name": null,
    "office_name_kana": null
  },
  "4313": {
    "postcode": "6794313",
    "prefecture": "兵庫県",
    "prefecture_kana": "ヒョウゴケン",
    "prefecture_code": 28,
    "city": "たつの市",
    "city_kana": "タツノシ",
    "town": "新宮町新宮",
    "town_kana": "シングウチョウシングウ",
    "street": null,
    "office_name": null,
    "office_name_kana": null
  },
  "4314": {
    "postcode": "6794314",
    "prefecture": "兵庫県",
    "prefecture_kana": "ヒョウゴケン",
    "prefecture_code": 28,
    "city": "たつの市",
    "city_kana": "タツノシ",
    "town": "新宮町曽我井",
    "town_kana": "シングウチョウソガイ",
    "street": null,
    "office_name": null,
    "office_name_kana": null
  },
  "4315": {
    "postcode": "6794315",
    "prefecture": "兵庫県",
    "prefecture_kana": "ヒョウゴケン",
    "prefecture_code": 28,
    "city": "たつの市",
    "city_kana": "タツノシ",
    "town": "新宮町井野原",
    "town_kana": "シングウチョウイノハラ",
    "street": null,
    "office_name": null,
    "office_name_kana": null
  },
  "4316": {
    "postcode": "6794316",
    "prefecture": "兵庫県",
    "prefecture_kana": "ヒョウゴケン",
    "prefecture_code": 28,
    "city": "たつの市",
    "city_kana": "タツノシ",
    "town": "新宮町芝田",
    "town_kana": "シングウチョウコゲタ",
    "street": null,
    "office_name": null,
    "office_name_kana": null
  },
  "4321": {
    "postcode": "6794321",
    "prefecture": "兵庫県",
    "prefecture_kana": "ヒョウゴケン",
    "prefecture_code": 28,
    "city": "たつの市",
    "city_kana": "タツノシ",
    "town": "新宮町段之上",
    "town_kana": "シングウチョウダンノウエ",
    "street": null,
    "office_name": null,
    "office_name_kana": null
  },
  "4322": {
    "postcode": "6794322",
    "prefecture": "兵庫県",
    "prefecture_kana": "ヒョウゴケン",
    "prefecture_code": 28,
    "city": "たつの市",
    "city_kana": "タツノシ",
    "town": "新宮町仙正",
    "town_kana": "シングウチョウセンショウ",
    "street": null,
    "office_name": null,
    "office_name_kana": null
  },
  "4323": {
    "postcode": "6794323",
    "prefecture": "兵庫県",
    "prefecture_kana": "ヒョウゴケン",
    "prefecture_code": 28,
    "city": "たつの市",
    "city_kana": "タツノシ",
    "town": "新宮町北村",
    "town_kana": "シングウチョウキタムラ",
    "street": null,
    "office_name": null,
    "office_name_kana": null
  },
  "4324": {
    "postcode": "6794324",
    "prefecture": "兵庫県",
    "prefecture_kana": "ヒョウゴケン",
    "prefecture_code": 28,
    "city": "たつの市",
    "city_kana": "タツノシ",
    "town": "新宮町觜崎",
    "town_kana": "シングウチョウハシサキ",
    "street": null,
    "office_name": null,
    "office_name_kana": null
  },
  "4325": {
    "postcode": "6794325",
    "prefecture": "兵庫県",
    "prefecture_kana": "ヒョウゴケン",
    "prefecture_code": 28,
    "city": "たつの市",
    "city_kana": "タツノシ",
    "town": "新宮町佐野",
    "town_kana": "シングウチョウサノ",
    "street": null,
    "office_name": null,
    "office_name_kana": null
  },
  "4326": {
    "postcode": "6794326",
    "prefecture": "兵庫県",
    "prefecture_kana": "ヒョウゴケン",
    "prefecture_code": 28,
    "city": "たつの市",
    "city_kana": "タツノシ",
    "town": "新宮町船渡",
    "town_kana": "シングウチョウフナト",
    "street": null,
    "office_name": null,
    "office_name_kana": null
  },
  "4327": {
    "postcode": "6794327",
    "prefecture": "兵庫県",
    "prefecture_kana": "ヒョウゴケン",
    "prefecture_code": 28,
    "city": "たつの市",
    "city_kana": "タツノシ",
    "town": "新宮町中野庄",
    "town_kana": "シングウチョウナカノショウ",
    "street": null,
    "office_name": null,
    "office_name_kana": null
  },
  "4331": {
    "postcode": "6794331",
    "prefecture": "兵庫県",
    "prefecture_kana": "ヒョウゴケン",
    "prefecture_code": 28,
    "city": "たつの市",
    "city_kana": "タツノシ",
    "town": "新宮町市野保",
    "town_kana": "シングウチョウイチノホ",
    "street": null,
    "office_name": null,
    "office_name_kana": null
  },
  "4332": {
    "postcode": "6794332",
    "prefecture": "兵庫県",
    "prefecture_kana": "ヒョウゴケン",
    "prefecture_code": 28,
    "city": "たつの市",
    "city_kana": "タツノシ",
    "town": "新宮町馬立",
    "town_kana": "シングウチョウウマタテ",
    "street": null,
    "office_name": null,
    "office_name_kana": null
  },
  "4333": {
    "postcode": "6794333",
    "prefecture": "兵庫県",
    "prefecture_kana": "ヒョウゴケン",
    "prefecture_code": 28,
    "city": "たつの市",
    "city_kana": "タツノシ",
    "town": "新宮町下野田",
    "town_kana": "シングウチョウシモノダ",
    "street": null,
    "office_name": null,
    "office_name_kana": null
  },
  "4341": {
    "postcode": "6794341",
    "prefecture": "兵庫県",
    "prefecture_kana": "ヒョウゴケン",
    "prefecture_code": 28,
    "city": "たつの市",
    "city_kana": "タツノシ",
    "town": "新宮町能地",
    "town_kana": "シングウチョウノウジ",
    "street": null,
    "office_name": null,
    "office_name_kana": null
  },
  "4342": {
    "postcode": "6794342",
    "prefecture": "兵庫県",
    "prefecture_kana": "ヒョウゴケン",
    "prefecture_code": 28,
    "city": "たつの市",
    "city_kana": "タツノシ",
    "town": "新宮町平野",
    "town_kana": "シングウチョウヒラノ",
    "street": null,
    "office_name": null,
    "office_name_kana": null
  },
  "4343": {
    "postcode": "6794343",
    "prefecture": "兵庫県",
    "prefecture_kana": "ヒョウゴケン",
    "prefecture_code": 28,
    "city": "たつの市",
    "city_kana": "タツノシ",
    "town": "新宮町大屋",
    "town_kana": "シングウチョウオオヤ",
    "street": null,
    "office_name": null,
    "office_name_kana": null
  },
  "4344": {
    "postcode": "6794344",
    "prefecture": "兵庫県",
    "prefecture_kana": "ヒョウゴケン",
    "prefecture_code": 28,
    "city": "たつの市",
    "city_kana": "タツノシ",
    "town": "新宮町善定",
    "town_kana": "シングウチョウゼンジョ",
    "street": null,
    "office_name": null,
    "office_name_kana": null
  },
  "4345": {
    "postcode": "6794345",
    "prefecture": "兵庫県",
    "prefecture_kana": "ヒョウゴケン",
    "prefecture_code": 28,
    "city": "たつの市",
    "city_kana": "タツノシ",
    "town": "新宮町福栖",
    "town_kana": "シングウチョウフクス",
    "street": null,
    "office_name": null,
    "office_name_kana": null
  },
  "4346": {
    "postcode": "6794346",
    "prefecture": "兵庫県",
    "prefecture_kana": "ヒョウゴケン",
    "prefecture_code": 28,
    "city": "たつの市",
    "city_kana": "タツノシ",
    "town": "新宮町千本",
    "town_kana": "シングウチョウセンボン",
    "street": null,
    "office_name": null,
    "office_name_kana": null
  },
  "4392": {
    "postcode": "6794392",
    "prefecture": "兵庫県",
    "prefecture_kana": "ヒョウゴケン",
    "prefecture_code": 28,
    "city": "たつの市",
    "city_kana": "タツノシ",
    "town": "新宮町宮内",
    "town_kana": "シングウチョウミヤウチ",
    "street": "１６（播磨新宮郵便局私書箱第４号）",
    "office_name": "たつの市　新宮総合支所",
    "office_name_kana": "タツノシ シングウソウゴウシシヨ"
  },
  "4393": {
    "postcode": "6794393",
    "prefecture": "兵庫県",
    "prefecture_kana": "ヒョウゴケン",
    "prefecture_code": 28,
    "city": "たつの市",
    "city_kana": "タツノシ",
    "town": "新宮町新宮",
    "town_kana": "シングウチョウシングウ",
    "street": "３８７（播磨新宮郵便局私書箱第３号）",
    "office_name": "ブンセン　株式会社",
    "office_name_kana": "ブンセン カブシキガイシヤ"
  },
  "4395": {
    "postcode": "6794395",
    "prefecture": "兵庫県",
    "prefecture_kana": "ヒョウゴケン",
    "prefecture_code": 28,
    "city": "たつの市",
    "city_kana": "タツノシ",
    "town": "新宮町平野",
    "town_kana": "シングウチョウヒラノ",
    "street": "６０",
    "office_name": "株式会社　帝国電機製作所",
    "office_name_kana": "カブシキガイシヤ テイコクデンキセイサクシヨ"
  },
  "5131": {
    "postcode": "6795131",
    "prefecture": "兵庫県",
    "prefecture_kana": "ヒョウゴケン",
    "prefecture_code": 28,
    "city": "佐用郡佐用町",
    "city_kana": "サヨウグンサヨウチョウ",
    "town": "上本郷",
    "town_kana": "カミホンゴウ",
    "street": null,
    "office_name": null,
    "office_name_kana": null
  },
  "5132": {
    "postcode": "6795132",
    "prefecture": "兵庫県",
    "prefecture_kana": "ヒョウゴケン",
    "prefecture_code": 28,
    "city": "佐用郡佐用町",
    "city_kana": "サヨウグンサヨウチョウ",
    "town": "下本郷",
    "town_kana": "シモホンゴウ",
    "street": null,
    "office_name": null,
    "office_name_kana": null
  },
  "5133": {
    "postcode": "6795133",
    "prefecture": "兵庫県",
    "prefecture_kana": "ヒョウゴケン",
    "prefecture_code": 28,
    "city": "佐用郡佐用町",
    "city_kana": "サヨウグンサヨウチョウ",
    "town": "三日月",
    "town_kana": "ミカヅキ",
    "street": null,
    "office_name": null,
    "office_name_kana": null
  },
  "5134": {
    "postcode": "6795134",
    "prefecture": "兵庫県",
    "prefecture_kana": "ヒョウゴケン",
    "prefecture_code": 28,
    "city": "佐用郡佐用町",
    "city_kana": "サヨウグンサヨウチョウ",
    "town": "乃井野",
    "town_kana": "ノイノ",
    "street": null,
    "office_name": null,
    "office_name_kana": null
  },
  "5135": {
    "postcode": "6795135",
    "prefecture": "兵庫県",
    "prefecture_kana": "ヒョウゴケン",
    "prefecture_code": 28,
    "city": "佐用郡佐用町",
    "city_kana": "サヨウグンサヨウチョウ",
    "town": "春哉",
    "town_kana": "ハルカナ",
    "street": null,
    "office_name": null,
    "office_name_kana": null
  },
  "5136": {
    "postcode": "6795136",
    "prefecture": "兵庫県",
    "prefecture_kana": "ヒョウゴケン",
    "prefecture_code": 28,
    "city": "佐用郡佐用町",
    "city_kana": "サヨウグンサヨウチョウ",
    "town": "志文",
    "town_kana": "シブミ",
    "street": null,
    "office_name": null,
    "office_name_kana": null
  },
  "5137": {
    "postcode": "6795137",
    "prefecture": "兵庫県",
    "prefecture_kana": "ヒョウゴケン",
    "prefecture_code": 28,
    "city": "佐用郡佐用町",
    "city_kana": "サヨウグンサヨウチョウ",
    "town": "真宗",
    "town_kana": "サノムネ",
    "street": null,
    "office_name": null,
    "office_name_kana": null
  },
  "5141": {
    "postcode": "6795141",
    "prefecture": "兵庫県",
    "prefecture_kana": "ヒョウゴケン",
    "prefecture_code": 28,
    "city": "佐用郡佐用町",
    "city_kana": "サヨウグンサヨウチョウ",
    "town": "廣山",
    "town_kana": "ヒロヤマ",
    "street": null,
    "office_name": null,
    "office_name_kana": null
  },
  "5142": {
    "postcode": "6795142",
    "prefecture": "兵庫県",
    "prefecture_kana": "ヒョウゴケン",
    "prefecture_code": 28,
    "city": "佐用郡佐用町",
    "city_kana": "サヨウグンサヨウチョウ",
    "town": "弦谷",
    "town_kana": "ツルダニ",
    "street": null,
    "office_name": null,
    "office_name_kana": null
  },
  "5143": {
    "postcode": "6795143",
    "prefecture": "兵庫県",
    "prefecture_kana": "ヒョウゴケン",
    "prefecture_code": 28,
    "city": "佐用郡佐用町",
    "city_kana": "サヨウグンサヨウチョウ",
    "town": "三原",
    "town_kana": "ミハラ",
    "street": null,
    "office_name": null,
    "office_name_kana": null
  },
  "5144": {
    "postcode": "6795144",
    "prefecture": "兵庫県",
    "prefecture_kana": "ヒョウゴケン",
    "prefecture_code": 28,
    "city": "佐用郡佐用町",
    "city_kana": "サヨウグンサヨウチョウ",
    "town": "三ツ尾",
    "town_kana": "ミツオ",
    "street": null,
    "office_name": null,
    "office_name_kana": null
  },
  "5145": {
    "postcode": "6795145",
    "prefecture": "兵庫県",
    "prefecture_kana": "ヒョウゴケン",
    "prefecture_code": 28,
    "city": "佐用郡佐用町",
    "city_kana": "サヨウグンサヨウチョウ",
    "town": "大畑",
    "town_kana": "オオハタ",
    "street": null,
    "office_name": null,
    "office_name_kana": null
  },
  "5146": {
    "postcode": "6795146",
    "prefecture": "兵庫県",
    "prefecture_kana": "ヒョウゴケン",
    "prefecture_code": 28,
    "city": "佐用郡佐用町",
    "city_kana": "サヨウグンサヨウチョウ",
    "town": "大下り",
    "town_kana": "オオサガリ",
    "street": null,
    "office_name": null,
    "office_name_kana": null
  },
  "5147": {
    "postcode": "6795147",
    "prefecture": "兵庫県",
    "prefecture_kana": "ヒョウゴケン",
    "prefecture_code": 28,
    "city": "佐用郡佐用町",
    "city_kana": "サヨウグンサヨウチョウ",
    "town": "末廣",
    "town_kana": "スエヒロ",
    "street": null,
    "office_name": null,
    "office_name_kana": null
  },
  "5148": {
    "postcode": "6795148",
    "prefecture": "兵庫県",
    "prefecture_kana": "ヒョウゴケン",
    "prefecture_code": 28,
    "city": "佐用郡佐用町",
    "city_kana": "サヨウグンサヨウチョウ",
    "town": "光都",
    "town_kana": "コウト",
    "street": null,
    "office_name": null,
    "office_name_kana": null
  },
  "5151": {
    "postcode": "6795151",
    "prefecture": "兵庫県",
    "prefecture_kana": "ヒョウゴケン",
    "prefecture_code": 28,
    "city": "たつの市",
    "city_kana": "タツノシ",
    "town": "新宮町奥小屋",
    "town_kana": "シングウチョウオクゴヤ",
    "street": null,
    "office_name": null,
    "office_name_kana": null
  },
  "5152": {
    "postcode": "6795152",
    "prefecture": "兵庫県",
    "prefecture_kana": "ヒョウゴケン",
    "prefecture_code": 28,
    "city": "たつの市",
    "city_kana": "タツノシ",
    "town": "新宮町牧",
    "town_kana": "シングウチョウマキ",
    "street": null,
    "office_name": null,
    "office_name_kana": null
  },
  "5153": {
    "postcode": "6795153",
    "prefecture": "兵庫県",
    "prefecture_kana": "ヒョウゴケン",
    "prefecture_code": 28,
    "city": "たつの市",
    "city_kana": "タツノシ",
    "town": "新宮町時重",
    "town_kana": "シングウチョウトキシゲ",
    "street": null,
    "office_name": null,
    "office_name_kana": null
  },
  "5154": {
    "postcode": "6795154",
    "prefecture": "兵庫県",
    "prefecture_kana": "ヒョウゴケン",
    "prefecture_code": 28,
    "city": "たつの市",
    "city_kana": "タツノシ",
    "town": "新宮町鍛冶屋",
    "town_kana": "シングウチョウカジヤ",
    "street": null,
    "office_name": null,
    "office_name_kana": null
  },
  "5155": {
    "postcode": "6795155",
    "prefecture": "兵庫県",
    "prefecture_kana": "ヒョウゴケン",
    "prefecture_code": 28,
    "city": "たつの市",
    "city_kana": "タツノシ",
    "town": "新宮町栗町",
    "town_kana": "シングウチョウクリマチ",
    "street": null,
    "office_name": null,
    "office_name_kana": null
  },
  "5161": {
    "postcode": "6795161",
    "prefecture": "兵庫県",
    "prefecture_kana": "ヒョウゴケン",
    "prefecture_code": 28,
    "city": "たつの市",
    "city_kana": "タツノシ",
    "town": "新宮町下莇原",
    "town_kana": "シングウチョウシモアザワラ",
    "street": null,
    "office_name": null,
    "office_name_kana": null
  },
  "5162": {
    "postcode": "6795162",
    "prefecture": "兵庫県",
    "prefecture_kana": "ヒョウゴケン",
    "prefecture_code": 28,
    "city": "たつの市",
    "city_kana": "タツノシ",
    "town": "新宮町上莇原",
    "town_kana": "シングウチョウカミアザワラ",
    "street": null,
    "office_name": null,
    "office_name_kana": null
  },
  "5163": {
    "postcode": "6795163",
    "prefecture": "兵庫県",
    "prefecture_kana": "ヒョウゴケン",
    "prefecture_code": 28,
    "city": "たつの市",
    "city_kana": "タツノシ",
    "town": "新宮町角亀",
    "town_kana": "シングウチョウツノガメ",
    "street": null,
    "office_name": null,
    "office_name_kana": null
  },
  "5164": {
    "postcode": "6795164",
    "prefecture": "兵庫県",
    "prefecture_kana": "ヒョウゴケン",
    "prefecture_code": 28,
    "city": "たつの市",
    "city_kana": "タツノシ",
    "town": "新宮町二柏野",
    "town_kana": "シングウチョウフタツガイノ",
    "street": null,
    "office_name": null,
    "office_name_kana": null
  },
  "5165": {
    "postcode": "6795165",
    "prefecture": "兵庫県",
    "prefecture_kana": "ヒョウゴケン",
    "prefecture_code": 28,
    "city": "たつの市",
    "city_kana": "タツノシ",
    "town": "新宮町光都",
    "town_kana": "シングウチョウコウト",
    "street": null,
    "office_name": null,
    "office_name_kana": null
  },
  "5192": {
    "postcode": "6795192",
    "prefecture": "兵庫県",
    "prefecture_kana": "ヒョウゴケン",
    "prefecture_code": 28,
    "city": "佐用郡佐用町",
    "city_kana": "サヨウグンサヨウチョウ",
    "town": "三日月",
    "town_kana": "ミカヅキ",
    "street": "１１１０−１",
    "office_name": "佐用町役場　三日月支所",
    "office_name_kana": "サヨウチヨウヤクバ ミカヅキシシヨ"
  },
  "5198": {
    "postcode": "6795198",
    "prefecture": "兵庫県",
    "prefecture_kana": "ヒョウゴケン",
    "prefecture_code": 28,
    "city": "佐用郡佐用町",
    "city_kana": "サヨウグンサヨウチョウ",
    "town": "光都",
    "town_kana": "コウト",
    "street": "１丁目１番１号",
    "office_name": "財団法人　高輝度光科学研究センター",
    "office_name_kana": "ザイダンホウジン コウキドヒカリカガクケンキユウセンタ-"
  },
  "5201": {
    "postcode": "6795201",
    "prefecture": "兵庫県",
    "prefecture_kana": "ヒョウゴケン",
    "prefecture_code": 28,
    "city": "佐用郡佐用町",
    "city_kana": "サヨウグンサヨウチョウ",
    "town": "多賀",
    "town_kana": "タガ",
    "street": null,
    "office_name": null,
    "office_name_kana": null
  },
  "5202": {
    "postcode": "6795202",
    "prefecture": "兵庫県",
    "prefecture_kana": "ヒョウゴケン",
    "prefecture_code": 28,
    "city": "佐用郡佐用町",
    "city_kana": "サヨウグンサヨウチョウ",
    "town": "中島",
    "town_kana": "ナカシマ",
    "street": null,
    "office_name": null,
    "office_name_kana": null
  },
  "5203": {
    "postcode": "6795203",
    "prefecture": "兵庫県",
    "prefecture_kana": "ヒョウゴケン",
    "prefecture_code": 28,
    "city": "佐用郡佐用町",
    "city_kana": "サヨウグンサヨウチョウ",
    "town": "米田",
    "town_kana": "ヨネダ",
    "street": null,
    "office_name": null,
    "office_name_kana": null
  },
  "5204": {
    "postcode": "6795204",
    "prefecture": "兵庫県",
    "prefecture_kana": "ヒョウゴケン",
    "prefecture_code": 28,
    "city": "佐用郡佐用町",
    "city_kana": "サヨウグンサヨウチョウ",
    "town": "小山",
    "town_kana": "コヤマ",
    "street": null,
    "office_name": null,
    "office_name_kana": null
  },
  "5205": {
    "postcode": "6795205",
    "prefecture": "兵庫県",
    "prefecture_kana": "ヒョウゴケン",
    "prefecture_code": 28,
    "city": "佐用郡佐用町",
    "city_kana": "サヨウグンサヨウチョウ",
    "town": "安川",
    "town_kana": "ヤスカワ",
    "street": null,
    "office_name": null,
    "office_name_kana": null
  },
  "5206": {
    "postcode": "6795206",
    "prefecture": "兵庫県",
    "prefecture_kana": "ヒョウゴケン",
    "prefecture_code": 28,
    "city": "佐用郡佐用町",
    "city_kana": "サヨウグンサヨウチョウ",
    "town": "土井",
    "town_kana": "ドイ",
    "street": null,
    "office_name": null,
    "office_name_kana": null
  },
  "5207": {
    "postcode": "6795207",
    "prefecture": "兵庫県",
    "prefecture_kana": "ヒョウゴケン",
    "prefecture_code": 28,
    "city": "佐用郡佐用町",
    "city_kana": "サヨウグンサヨウチョウ",
    "town": "宝蔵寺",
    "town_kana": "ホウゾウジ",
    "street": null,
    "office_name": null,
    "office_name_kana": null
  },
  "5211": {
    "postcode": "6795211",
    "prefecture": "兵庫県",
    "prefecture_kana": "ヒョウゴケン",
    "prefecture_code": 28,
    "city": "佐用郡佐用町",
    "city_kana": "サヨウグンサヨウチョウ",
    "town": "下徳久",
    "town_kana": "シモトクサ",
    "street": null,
    "office_name": null,
    "office_name_kana": null
  },
  "5212": {
    "postcode": "6795212",
    "prefecture": "兵庫県",
    "prefecture_kana": "ヒョウゴケン",
    "prefecture_code": 28,
    "city": "佐用郡佐用町",
    "city_kana": "サヨウグンサヨウチョウ",
    "town": "林崎",
    "town_kana": "ハヤシサキ",
    "street": null,
    "office_name": null,
    "office_name_kana": null
  },
  "5213": {
    "postcode": "6795213",
    "prefecture": "兵庫県",
    "prefecture_kana": "ヒョウゴケン",
    "prefecture_code": 28,
    "city": "佐用郡佐用町",
    "city_kana": "サヨウグンサヨウチョウ",
    "town": "東徳久",
    "town_kana": "ヒガシトクサ",
    "street": null,
    "office_name": null,
    "office_name_kana": null
  },
  "5214": {
    "postcode": "6795214",
    "prefecture": "兵庫県",
    "prefecture_kana": "ヒョウゴケン",
    "prefecture_code": 28,
    "city": "佐用郡佐用町",
    "city_kana": "サヨウグンサヨウチョウ",
    "town": "西徳久",
    "town_kana": "ニシトクサ",
    "street": null,
    "office_name": null,
    "office_name_kana": null
  },
  "5215": {
    "postcode": "6795215",
    "prefecture": "兵庫県",
    "prefecture_kana": "ヒョウゴケン",
    "prefecture_code": 28,
    "city": "佐用郡佐用町",
    "city_kana": "サヨウグンサヨウチョウ",
    "town": "平松",
    "town_kana": "ヒラマツ",
    "street": null,
    "office_name": null,
    "office_name_kana": null
  },
  "5221": {
    "postcode": "6795221",
    "prefecture": "兵庫県",
    "prefecture_kana": "ヒョウゴケン",
    "prefecture_code": 28,
    "city": "佐用郡佐用町",
    "city_kana": "サヨウグンサヨウチョウ",
    "town": "漆野",
    "town_kana": "ウルシノ",
    "street": null,
    "office_name": null,
    "office_name_kana": null
  },
  "5222": {
    "postcode": "6795222",
    "prefecture": "兵庫県",
    "prefecture_kana": "ヒョウゴケン",
    "prefecture_code": 28,
    "city": "佐用郡佐用町",
    "city_kana": "サヨウグンサヨウチョウ",
    "town": "西下野",
    "town_kana": "ニシシモノ",
    "street": null,
    "office_name": null,
    "office_name_kana": null
  },
  "5223": {
    "postcode": "6795223",
    "prefecture": "兵庫県",
    "prefecture_kana": "ヒョウゴケン",
    "prefecture_code": 28,
    "city": "佐用郡佐用町",
    "city_kana": "サヨウグンサヨウチョウ",
    "town": "下三河",
    "town_kana": "シモミカワ",
    "street": null,
    "office_name": null,
    "office_name_kana": null
  },
  "5224": {
    "postcode": "6795224",
    "prefecture": "兵庫県",
    "prefecture_kana": "ヒョウゴケン",
    "prefecture_code": 28,
    "city": "佐用郡佐用町",
    "city_kana": "サヨウグンサヨウチョウ",
    "town": "中三河",
    "town_kana": "ナカミカワ",
    "street": null,
    "office_name": null,
    "office_name_kana": null
  },
  "5225": {
    "postcode": "6795225",
    "prefecture": "兵庫県",
    "prefecture_kana": "ヒョウゴケン",
    "prefecture_code": 28,
    "city": "佐用郡佐用町",
    "city_kana": "サヨウグンサヨウチョウ",
    "town": "上三河",
    "town_kana": "カミミカワ",
    "street": null,
    "office_name": null,
    "office_name_kana": null
  },
  "5226": {
    "postcode": "6795226",
    "prefecture": "兵庫県",
    "prefecture_kana": "ヒョウゴケン",
    "prefecture_code": 28,
    "city": "佐用郡佐用町",
    "city_kana": "サヨウグンサヨウチョウ",
    "town": "河崎",
    "town_kana": "コウザキ",
    "street": null,
    "office_name": null,
    "office_name_kana": null
  },
  "5227": {
    "postcode": "6795227",
    "prefecture": "兵庫県",
    "prefecture_kana": "ヒョウゴケン",
    "prefecture_code": 28,
    "city": "佐用郡佐用町",
    "city_kana": "サヨウグンサヨウチョウ",
    "town": "船越",
    "town_kana": "フナコシ",
    "street": null,
    "office_name": null,
    "office_name_kana": null
  },
  "5292": {
    "postcode": "6795292",
    "prefecture": "兵庫県",
    "prefecture_kana": "ヒョウゴケン",
    "prefecture_code": 28,
    "city": "佐用郡佐用町",
    "city_kana": "サヨウグンサヨウチョウ",
    "town": "下徳久",
    "town_kana": "シモトクサ",
    "street": "１００４−１",
    "office_name": "佐用町役場　南光支所",
    "office_name_kana": "サヨウチヨウヤクバ ナンコウシシヨ"
  },
  "5300": {
    "postcode": "6795300",
    "prefecture": "兵庫県",
    "prefecture_kana": "ヒョウゴケン",
    "prefecture_code": 28,
    "city": "佐用郡佐用町",
    "city_kana": "サヨウグンサヨウチョウ",
    "town": "",
    "town_kana": "",
    "street": null,
    "office_name": null,
    "office_name_kana": null
  },
  "5301": {
    "postcode": "6795301",
    "prefecture": "兵庫県",
    "prefecture_kana": "ヒョウゴケン",
    "prefecture_code": 28,
    "city": "佐用郡佐用町",
    "city_kana": "サヨウグンサヨウチョウ",
    "town": "佐用",
    "town_kana": "サヨウ",
    "street": null,
    "office_name": null,
    "office_name_kana": null
  },
  "5302": {
    "postcode": "6795302",
    "prefecture": "兵庫県",
    "prefecture_kana": "ヒョウゴケン",
    "prefecture_code": 28,
    "city": "佐用郡佐用町",
    "city_kana": "サヨウグンサヨウチョウ",
    "town": "山脇",
    "town_kana": "ヤマワキ",
    "street": null,
    "office_name": null,
    "office_name_kana": null
  },
  "5303": {
    "postcode": "6795303",
    "prefecture": "兵庫県",
    "prefecture_kana": "ヒョウゴケン",
    "prefecture_code": 28,
    "city": "佐用郡佐用町",
    "city_kana": "サヨウグンサヨウチョウ",
    "town": "真盛",
    "town_kana": "サネモリ",
    "street": null,
    "office_name": null,
    "office_name_kana": null
  },
  "5304": {
    "postcode": "6795304",
    "prefecture": "兵庫県",
    "prefecture_kana": "ヒョウゴケン",
    "prefecture_code": 28,
    "city": "佐用郡佐用町",
    "city_kana": "サヨウグンサヨウチョウ",
    "town": "山田",
    "town_kana": "ヤマダ",
    "street": null,
    "office_name": null,
    "office_name_kana": null
  },
  "5305": {
    "postcode": "6795305",
    "prefecture": "兵庫県",
    "prefecture_kana": "ヒョウゴケン",
    "prefecture_code": 28,
    "city": "佐用郡佐用町",
    "city_kana": "サヨウグンサヨウチョウ",
    "town": "長尾",
    "town_kana": "ナガオ",
    "street": null,
    "office_name": null,
    "office_name_kana": null
  },
  "5306": {
    "postcode": "6795306",
    "prefecture": "兵庫県",
    "prefecture_kana": "ヒョウゴケン",
    "prefecture_code": 28,
    "city": "佐用郡佐用町",
    "city_kana": "サヨウグンサヨウチョウ",
    "town": "本位田",
    "town_kana": "ホンイデン",
    "street": null,
    "office_name": null,
    "office_name_kana": null
  },
  "5307": {
    "postcode": "6795307",
    "prefecture": "兵庫県",
    "prefecture_kana": "ヒョウゴケン",
    "prefecture_code": 28,
    "city": "佐用郡佐用町",
    "city_kana": "サヨウグンサヨウチョウ",
    "town": "円応寺",
    "town_kana": "エンノウジ",
    "street": null,
    "office_name": null,
    "office_name_kana": null
  },
  "5311": {
    "postcode": "6795311",
    "prefecture": "兵庫県",
    "prefecture_kana": "ヒョウゴケン",
    "prefecture_code": 28,
    "city": "佐用郡佐用町",
    "city_kana": "サヨウグンサヨウチョウ",
    "town": "福沢",
    "town_kana": "フクサワ",
    "street": null,
    "office_name": null,
    "office_name_kana": null
  },
  "5312": {
    "postcode": "6795312",
    "prefecture": "兵庫県",
    "prefecture_kana": "ヒョウゴケン",
    "prefecture_code": 28,
    "city": "佐用郡佐用町",
    "city_kana": "サヨウグンサヨウチョウ",
    "town": "仁方",
    "town_kana": "ニガタ",
    "street": null,
    "office_name": null,
    "office_name_kana": null
  },
  "5313": {
    "postcode": "6795313",
    "prefecture": "兵庫県",
    "prefecture_kana": "ヒョウゴケン",
    "prefecture_code": 28,
    "city": "佐用郡佐用町",
    "city_kana": "サヨウグンサヨウチョウ",
    "town": "西河内",
    "town_kana": "ニシガイチ",
    "street": null,
    "office_name": null,
    "office_name_kana": null
  },
  "5314": {
    "postcode": "6795314",
    "prefecture": "兵庫県",
    "prefecture_kana": "ヒョウゴケン",
    "prefecture_code": 28,
    "city": "佐用郡佐用町",
    "city_kana": "サヨウグンサヨウチョウ",
    "town": "大木谷",
    "town_kana": "オオキダニ",
    "street": null,
    "office_name": null,
    "office_name_kana": null
  },
  "5315": {
    "postcode": "6795315",
    "prefecture": "兵庫県",
    "prefecture_kana": "ヒョウゴケン",
    "prefecture_code": 28,
    "city": "佐用郡佐用町",
    "city_kana": "サヨウグンサヨウチョウ",
    "town": "淀",
    "town_kana": "ヨド",
    "street": null,
    "office_name": null,
    "office_name_kana": null
  },
  "5316": {
    "postcode": "6795316",
    "prefecture": "兵庫県",
    "prefecture_kana": "ヒョウゴケン",
    "prefecture_code": 28,
    "city": "佐用郡佐用町",
    "city_kana": "サヨウグンサヨウチョウ",
    "town": "豊福",
    "town_kana": "トヨフク",
    "street": null,
    "office_name": null,
    "office_name_kana": null
  },
  "5317": {
    "postcode": "6795317",
    "prefecture": "兵庫県",
    "prefecture_kana": "ヒョウゴケン",
    "prefecture_code": 28,
    "city": "佐用郡佐用町",
    "city_kana": "サヨウグンサヨウチョウ",
    "town": "末包",
    "town_kana": "スエカネ",
    "street": null,
    "office_name": null,
    "office_name_kana": null
  },
  "5318": {
    "postcode": "6795318",
    "prefecture": "兵庫県",
    "prefecture_kana": "ヒョウゴケン",
    "prefecture_code": 28,
    "city": "佐用郡佐用町",
    "city_kana": "サヨウグンサヨウチョウ",
    "town": "東中山",
    "town_kana": "ヒガシナカヤマ",
    "street": null,
    "office_name": null,
    "office_name_kana": null
  },
  "5319": {
    "postcode": "6795319",
    "prefecture": "兵庫県",
    "prefecture_kana": "ヒョウゴケン",
    "prefecture_code": 28,
    "city": "佐用郡佐用町",
    "city_kana": "サヨウグンサヨウチョウ",
    "town": "大畠",
    "town_kana": "オオバタケ",
    "street": null,
    "office_name": null,
    "office_name_kana": null
  },
  "5321": {
    "postcode": "6795321",
    "prefecture": "兵庫県",
    "prefecture_kana": "ヒョウゴケン",
    "prefecture_code": 28,
    "city": "佐用郡佐用町",
    "city_kana": "サヨウグンサヨウチョウ",
    "town": "下石井",
    "town_kana": "シモイシイ",
    "street": null,
    "office_name": null,
    "office_name_kana": null
  },
  "5322": {
    "postcode": "6795322",
    "prefecture": "兵庫県",
    "prefecture_kana": "ヒョウゴケン",
    "prefecture_code": 28,
    "city": "佐用郡佐用町",
    "city_kana": "サヨウグンサヨウチョウ",
    "town": "上石井",
    "town_kana": "カミイシイ",
    "street": null,
    "office_name": null,
    "office_name_kana": null
  },
  "5323": {
    "postcode": "6795323",
    "prefecture": "兵庫県",
    "prefecture_kana": "ヒョウゴケン",
    "prefecture_code": 28,
    "city": "佐用郡佐用町",
    "city_kana": "サヨウグンサヨウチョウ",
    "town": "若州",
    "town_kana": "ワカス",
    "street": null,
    "office_name": null,
    "office_name_kana": null
  },
  "5324": {
    "postcode": "6795324",
    "prefecture": "兵庫県",
    "prefecture_kana": "ヒョウゴケン",
    "prefecture_code": 28,
    "city": "佐用郡佐用町",
    "city_kana": "サヨウグンサヨウチョウ",
    "town": "奥海",
    "town_kana": "オネミ",
    "street": null,
    "office_name": null,
    "office_name_kana": null
  },
  "5325": {
    "postcode": "6795325",
    "prefecture": "兵庫県",
    "prefecture_kana": "ヒョウゴケン",
    "prefecture_code": 28,
    "city": "佐用郡佐用町",
    "city_kana": "サヨウグンサヨウチョウ",
    "town": "水根",
    "town_kana": "ミズネ",
    "street": null,
    "office_name": null,
    "office_name_kana": null
  },
  "5331": {
    "postcode": "6795331",
    "prefecture": "兵庫県",
    "prefecture_kana": "ヒョウゴケン",
    "prefecture_code": 28,
    "city": "佐用郡佐用町",
    "city_kana": "サヨウグンサヨウチョウ",
    "town": "平福",
    "town_kana": "ヒラフク",
    "street": null,
    "office_name": null,
    "office_name_kana": null
  },
  "5332": {
    "postcode": "6795332",
    "prefecture": "兵庫県",
    "prefecture_kana": "ヒョウゴケン",
    "prefecture_code": 28,
    "city": "佐用郡佐用町",
    "city_kana": "サヨウグンサヨウチョウ",
    "town": "延吉",
    "town_kana": "ノブヨシ",
    "street": null,
    "office_name": null,
    "office_name_kana": null
  },
  "5333": {
    "postcode": "6795333",
    "prefecture": "兵庫県",
    "prefecture_kana": "ヒョウゴケン",
    "prefecture_code": 28,
    "city": "佐用郡佐用町",
    "city_kana": "サヨウグンサヨウチョウ",
    "town": "庵",
    "town_kana": "イオリ",
    "street": null,
    "office_name": null,
    "office_name_kana": null
  },
  "5334": {
    "postcode": "6795334",
    "prefecture": "兵庫県",
    "prefecture_kana": "ヒョウゴケン",
    "prefecture_code": 28,
    "city": "佐用郡佐用町",
    "city_kana": "サヨウグンサヨウチョウ",
    "town": "桑野",
    "town_kana": "クワノ",
    "street": null,
    "office_name": null,
    "office_name_kana": null
  },
  "5335": {
    "postcode": "6795335",
    "prefecture": "兵庫県",
    "prefecture_kana": "ヒョウゴケン",
    "prefecture_code": 28,
    "city": "佐用郡佐用町",
    "city_kana": "サヨウグンサヨウチョウ",
    "town": "海内",
    "town_kana": "ミウチ",
    "street": null,
    "office_name": null,
    "office_name_kana": null
  },
  "5341": {
    "postcode": "6795341",
    "prefecture": "兵庫県",
    "prefecture_kana": "ヒョウゴケン",
    "prefecture_code": 28,
    "city": "佐用郡佐用町",
    "city_kana": "サヨウグンサヨウチョウ",
    "town": "横坂",
    "town_kana": "ヨコサカ",
    "street": null,
    "office_name": null,
    "office_name_kana": null
  },
  "5342": {
    "postcode": "6795342",
    "prefecture": "兵庫県",
    "prefecture_kana": "ヒョウゴケン",
    "prefecture_code": 28,
    "city": "佐用郡佐用町",
    "city_kana": "サヨウグンサヨウチョウ",
    "town": "宗行",
    "town_kana": "ムネユキ",
    "street": null,
    "office_name": null,
    "office_name_kana": null
  },
  "5343": {
    "postcode": "6795343",
    "prefecture": "兵庫県",
    "prefecture_kana": "ヒョウゴケン",
    "prefecture_code": 28,
    "city": "佐用郡佐用町",
    "city_kana": "サヨウグンサヨウチョウ",
    "town": "口長谷",
    "town_kana": "クチナガタニ",
    "street": null,
    "office_name": null,
    "office_name_kana": null
  },
  "5344": {
    "postcode": "6795344",
    "prefecture": "兵庫県",
    "prefecture_kana": "ヒョウゴケン",
    "prefecture_code": 28,
    "city": "佐用郡佐用町",
    "city_kana": "サヨウグンサヨウチョウ",
    "town": "奥長谷",
    "town_kana": "オクナガタニ",
    "street": null,
    "office_name": null,
    "office_name_kana": null
  },
  "5345": {
    "postcode": "6795345",
    "prefecture": "兵庫県",
    "prefecture_kana": "ヒョウゴケン",
    "prefecture_code": 28,
    "city": "佐用郡佐用町",
    "city_kana": "サヨウグンサヨウチョウ",
    "town": "奥金近",
    "town_kana": "オクカネチカ",
    "street": null,
    "office_name": null,
    "office_name_kana": null
  },
  "5346": {
    "postcode": "6795346",
    "prefecture": "兵庫県",
    "prefecture_kana": "ヒョウゴケン",
    "prefecture_code": 28,
    "city": "佐用郡佐用町",
    "city_kana": "サヨウグンサヨウチョウ",
    "town": "口金近",
    "town_kana": "クチカネチカ",
    "street": null,
    "office_name": null,
    "office_name_kana": null
  },
  "5380": {
    "postcode": "6795380",
    "prefecture": "兵庫県",
    "prefecture_kana": "ヒョウゴケン",
    "prefecture_code": 28,
    "city": "佐用郡佐用町",
    "city_kana": "サヨウグンサヨウチョウ",
    "town": "佐用",
    "town_kana": "サヨウ",
    "street": "２６１１−１",
    "office_name": "佐用町役場",
    "office_name_kana": "サヨウチヨウヤクバ"
  },
  "5381": {
    "postcode": "6795381",
    "prefecture": "兵庫県",
    "prefecture_kana": "ヒョウゴケン",
    "prefecture_code": 28,
    "city": "佐用郡佐用町",
    "city_kana": "サヨウグンサヨウチョウ",
    "town": "佐用",
    "town_kana": "サヨウ",
    "street": "２６０",
    "office_name": "兵庫県立　佐用高等学校",
    "office_name_kana": "ヒヨウゴケンリツ サヨウコウトウガツコウ"
  },
  "5382": {
    "postcode": "6795382",
    "prefecture": "兵庫県",
    "prefecture_kana": "ヒョウゴケン",
    "prefecture_code": 28,
    "city": "佐用郡佐用町",
    "city_kana": "サヨウグンサヨウチョウ",
    "town": "佐用",
    "town_kana": "サヨウ",
    "street": "１１１１",
    "office_name": "佐用共立病院",
    "office_name_kana": "サヨウキヨウリツビヨウイン"
  },
  "5383": {
    "postcode": "6795383",
    "prefecture": "兵庫県",
    "prefecture_kana": "ヒョウゴケン",
    "prefecture_code": 28,
    "city": "佐用郡佐用町",
    "city_kana": "サヨウグンサヨウチョウ",
    "town": "佐用",
    "town_kana": "サヨウ",
    "street": "３５２９−３",
    "office_name": "医療法人　聖医会　佐用中央病院",
    "office_name_kana": "イリヨウホウジン セイイカイ サヨウチユウオウビヨウイン"
  },
  "5392": {
    "postcode": "6795392",
    "prefecture": "兵庫県",
    "prefecture_kana": "ヒョウゴケン",
    "prefecture_code": 28,
    "city": "佐用郡佐用町",
    "city_kana": "サヨウグンサヨウチョウ",
    "town": "円應寺",
    "town_kana": null,
    "street": "４５０",
    "office_name": "兵庫西農業共同組合　佐用支店",
    "office_name_kana": "ヒヨウゴニシノウギヨウキヨウドウクミアイ サヨウシテン"
  },
  "5501": {
    "postcode": "6795501",
    "prefecture": "兵庫県",
    "prefecture_kana": "ヒョウゴケン",
    "prefecture_code": 28,
    "city": "佐用郡佐用町",
    "city_kana": "サヨウグンサヨウチョウ",
    "town": "桜山",
    "town_kana": "サクラヤマ",
    "street": null,
    "office_name": null,
    "office_name_kana": null
  },
  "5502": {
    "postcode": "6795502",
    "prefecture": "兵庫県",
    "prefecture_kana": "ヒョウゴケン",
    "prefecture_code": 28,
    "city": "佐用郡佐用町",
    "city_kana": "サヨウグンサヨウチョウ",
    "town": "才金",
    "town_kana": "サイカネ",
    "street": null,
    "office_name": null,
    "office_name_kana": null
  },
  "5503": {
    "postcode": "6795503",
    "prefecture": "兵庫県",
    "prefecture_kana": "ヒョウゴケン",
    "prefecture_code": 28,
    "city": "佐用郡佐用町",
    "city_kana": "サヨウグンサヨウチョウ",
    "town": "本郷",
    "town_kana": "ホンゴウ",
    "street": null,
    "office_name": null,
    "office_name_kana": null
  },
  "5504": {
    "postcode": "6795504",
    "prefecture": "兵庫県",
    "prefecture_kana": "ヒョウゴケン",
    "prefecture_code": 28,
    "city": "佐用郡佐用町",
    "city_kana": "サヨウグンサヨウチョウ",
    "town": "大垣内",
    "town_kana": "オオガイチ",
    "street": null,
    "office_name": null,
    "office_name_kana": null
  },
  "5505": {
    "postcode": "6795505",
    "prefecture": "兵庫県",
    "prefecture_kana": "ヒョウゴケン",
    "prefecture_code": 28,
    "city": "佐用郡佐用町",
    "city_kana": "サヨウグンサヨウチョウ",
    "town": "皆田",
    "town_kana": "カイタ",
    "street": null,
    "office_name": null,
    "office_name_kana": null
  },
  "5511": {
    "postcode": "6795511",
    "prefecture": "兵庫県",
    "prefecture_kana": "ヒョウゴケン",
    "prefecture_code": 28,
    "city": "佐用郡佐用町",
    "city_kana": "サヨウグンサヨウチョウ",
    "town": "福中",
    "town_kana": "フクナカ",
    "street": null,
    "office_name": null,
    "office_name_kana": null
  },
  "5512": {
    "postcode": "6795512",
    "prefecture": "兵庫県",
    "prefecture_kana": "ヒョウゴケン",
    "prefecture_code": 28,
    "city": "佐用郡佐用町",
    "city_kana": "サヨウグンサヨウチョウ",
    "town": "南中山",
    "town_kana": "ミナミナカヤマ",
    "street": null,
    "office_name": null,
    "office_name_kana": null
  },
  "5513": {
    "postcode": "6795513",
    "prefecture": "兵庫県",
    "prefecture_kana": "ヒョウゴケン",
    "prefecture_code": 28,
    "city": "佐用郡佐用町",
    "city_kana": "サヨウグンサヨウチョウ",
    "town": "金屋",
    "town_kana": "カナヤ",
    "street": null,
    "office_name": null,
    "office_name_kana": null
  },
  "5514": {
    "postcode": "6795514",
    "prefecture": "兵庫県",
    "prefecture_kana": "ヒョウゴケン",
    "prefecture_code": 28,
    "city": "佐用郡佐用町",
    "city_kana": "サヨウグンサヨウチョウ",
    "town": "福吉",
    "town_kana": "フクヨシ",
    "street": null,
    "office_name": null,
    "office_name_kana": null
  },
  "5521": {
    "postcode": "6795521",
    "prefecture": "兵庫県",
    "prefecture_kana": "ヒョウゴケン",
    "prefecture_code": 28,
    "city": "佐用郡佐用町",
    "city_kana": "サヨウグンサヨウチョウ",
    "town": "早瀬",
    "town_kana": "ハヤセ",
    "street": null,
    "office_name": null,
    "office_name_kana": null
  },
  "5522": {
    "postcode": "6795522",
    "prefecture": "兵庫県",
    "prefecture_kana": "ヒョウゴケン",
    "prefecture_code": 28,
    "city": "佐用郡佐用町",
    "city_kana": "サヨウグンサヨウチョウ",
    "town": "仁位",
    "town_kana": "ニイ",
    "street": null,
    "office_name": null,
    "office_name_kana": null
  },
  "5523": {
    "postcode": "6795523",
    "prefecture": "兵庫県",
    "prefecture_kana": "ヒョウゴケン",
    "prefecture_code": 28,
    "city": "佐用郡佐用町",
    "city_kana": "サヨウグンサヨウチョウ",
    "town": "上月",
    "town_kana": "コウヅキ",
    "street": null,
    "office_name": null,
    "office_name_kana": null
  },
  "5524": {
    "postcode": "6795524",
    "prefecture": "兵庫県",
    "prefecture_kana": "ヒョウゴケン",
    "prefecture_code": 28,
    "city": "佐用郡佐用町",
    "city_kana": "サヨウグンサヨウチョウ",
    "town": "寄延",
    "town_kana": "ヨリノブ",
    "street": null,
    "office_name": null,
    "office_name_kana": null
  },
  "5525": {
    "postcode": "6795525",
    "prefecture": "兵庫県",
    "prefecture_kana": "ヒョウゴケン",
    "prefecture_code": 28,
    "city": "佐用郡佐用町",
    "city_kana": "サヨウグンサヨウチョウ",
    "town": "目高",
    "town_kana": "メタカ",
    "street": null,
    "office_name": null,
    "office_name_kana": null
  },
  "5531": {
    "postcode": "6795531",
    "prefecture": "兵庫県",
    "prefecture_kana": "ヒョウゴケン",
    "prefecture_code": 28,
    "city": "佐用郡佐用町",
    "city_kana": "サヨウグンサヨウチョウ",
    "town": "宇根",
    "town_kana": "ウネ",
    "street": null,
    "office_name": null,
    "office_name_kana": null
  },
  "5532": {
    "postcode": "6795532",
    "prefecture": "兵庫県",
    "prefecture_kana": "ヒョウゴケン",
    "prefecture_code": 28,
    "city": "佐用郡佐用町",
    "city_kana": "サヨウグンサヨウチョウ",
    "town": "須安",
    "town_kana": "スヤス",
    "street": null,
    "office_name": null,
    "office_name_kana": null
  },
  "5533": {
    "postcode": "6795533",
    "prefecture": "兵庫県",
    "prefecture_kana": "ヒョウゴケン",
    "prefecture_code": 28,
    "city": "佐用郡佐用町",
    "city_kana": "サヨウグンサヨウチョウ",
    "town": "力万",
    "town_kana": "リキマン",
    "street": null,
    "office_name": null,
    "office_name_kana": null
  },
  "5534": {
    "postcode": "6795534",
    "prefecture": "兵庫県",
    "prefecture_kana": "ヒョウゴケン",
    "prefecture_code": 28,
    "city": "佐用郡佐用町",
    "city_kana": "サヨウグンサヨウチョウ",
    "town": "西大畠",
    "town_kana": "ニシオオバタケ",
    "street": null,
    "office_name": null,
    "office_name_kana": null
  },
  "5535": {
    "postcode": "6795535",
    "prefecture": "兵庫県",
    "prefecture_kana": "ヒョウゴケン",
    "prefecture_code": 28,
    "city": "佐用郡佐用町",
    "city_kana": "サヨウグンサヨウチョウ",
    "town": "小日山",
    "town_kana": "コビヤマ",
    "street": null,
    "office_name": null,
    "office_name_kana": null
  },
  "5595": {
    "postcode": "6795595",
    "prefecture": "兵庫県",
    "prefecture_kana": "ヒョウゴケン",
    "prefecture_code": 28,
    "city": "佐用郡佐用町",
    "city_kana": "サヨウグンサヨウチョウ",
    "town": "上月",
    "town_kana": "コウヅキ",
    "street": "７８７−２",
    "office_name": "佐用町役場　上月支所",
    "office_name_kana": "サヨウチヨウヤクバ コウヅキシシヨ"
  },
  "5641": {
    "postcode": "6795641",
    "prefecture": "兵庫県",
    "prefecture_kana": "ヒョウゴケン",
    "prefecture_code": 28,
    "city": "佐用郡佐用町",
    "city_kana": "サヨウグンサヨウチョウ",
    "town": "久崎",
    "town_kana": "クザキ",
    "street": null,
    "office_name": null,
    "office_name_kana": null
  },
  "5642": {
    "postcode": "6795642",
    "prefecture": "兵庫県",
    "prefecture_kana": "ヒョウゴケン",
    "prefecture_code": 28,
    "city": "佐用郡佐用町",
    "city_kana": "サヨウグンサヨウチョウ",
    "town": "円光寺",
    "town_kana": "エンコウジ",
    "street": null,
    "office_name": null,
    "office_name_kana": null
  },
  "5643": {
    "postcode": "6795643",
    "prefecture": "兵庫県",
    "prefecture_kana": "ヒョウゴケン",
    "prefecture_code": 28,
    "city": "佐用郡佐用町",
    "city_kana": "サヨウグンサヨウチョウ",
    "town": "下秋里",
    "town_kana": "シモアキサト",
    "street": null,
    "office_name": null,
    "office_name_kana": null
  },
  "5644": {
    "postcode": "6795644",
    "prefecture": "兵庫県",
    "prefecture_kana": "ヒョウゴケン",
    "prefecture_code": 28,
    "city": "佐用郡佐用町",
    "city_kana": "サヨウグンサヨウチョウ",
    "town": "上秋里",
    "town_kana": "カミアキサト",
    "street": null,
    "office_name": null,
    "office_name_kana": null
  },
  "5645": {
    "postcode": "6795645",
    "prefecture": "兵庫県",
    "prefecture_kana": "ヒョウゴケン",
    "prefecture_code": 28,
    "city": "佐用郡佐用町",
    "city_kana": "サヨウグンサヨウチョウ",
    "town": "西新宿",
    "town_kana": "ニシシンジュク",
    "street": null,
    "office_name": null,
    "office_name_kana": null
  },
  "5646": {
    "postcode": "6795646",
    "prefecture": "兵庫県",
    "prefecture_kana": "ヒョウゴケン",
    "prefecture_code": 28,
    "city": "佐用郡佐用町",
    "city_kana": "サヨウグンサヨウチョウ",
    "town": "大日山",
    "town_kana": "オオビヤマ",
    "street": null,
    "office_name": null,
    "office_name_kana": null
  },
  "5651": {
    "postcode": "6795651",
    "prefecture": "兵庫県",
    "prefecture_kana": "ヒョウゴケン",
    "prefecture_code": 28,
    "city": "佐用郡佐用町",
    "city_kana": "サヨウグンサヨウチョウ",
    "town": "櫛田",
    "town_kana": "クシダ",
    "street": null,
    "office_name": null,
    "office_name_kana": null
  },
  "5652": {
    "postcode": "6795652",
    "prefecture": "兵庫県",
    "prefecture_kana": "ヒョウゴケン",
    "prefecture_code": 28,
    "city": "佐用郡佐用町",
    "city_kana": "サヨウグンサヨウチョウ",
    "town": "家内",
    "town_kana": "ケナイ",
    "street": null,
    "office_name": null,
    "office_name_kana": null
  },
  "5653": {
    "postcode": "6795653",
    "prefecture": "兵庫県",
    "prefecture_kana": "ヒョウゴケン",
    "prefecture_code": 28,
    "city": "佐用郡佐用町",
    "city_kana": "サヨウグンサヨウチョウ",
    "town": "小赤松",
    "town_kana": "コアカマツ",
    "street": null,
    "office_name": null,
    "office_name_kana": null
  },
  "5654": {
    "postcode": "6795654",
    "prefecture": "兵庫県",
    "prefecture_kana": "ヒョウゴケン",
    "prefecture_code": 28,
    "city": "佐用郡佐用町",
    "city_kana": "サヨウグンサヨウチョウ",
    "town": "大酒",
    "town_kana": "オオザケ",
    "street": null,
    "office_name": null,
    "office_name_kana": null
  }
}