{
  "0101": {
    "postcode": "6890101",
    "prefecture": "鳥取県",
    "prefecture_kana": "トットリケン",
    "prefecture_code": 31,
    "city": "鳥取市",
    "city_kana": "トットリシ",
    "town": "福部町岩戸",
    "town_kana": "フクベチョウイワド",
    "street": null,
    "office_name": null,
    "office_name_kana": null
  },
  "0102": {
    "postcode": "6890102",
    "prefecture": "鳥取県",
    "prefecture_kana": "トットリケン",
    "prefecture_code": 31,
    "city": "鳥取市",
    "city_kana": "トットリシ",
    "town": "福部町細川",
    "town_kana": "フクベチョウホソガワ",
    "street": null,
    "office_name": null,
    "office_name_kana": null
  },
  "0103": {
    "postcode": "6890103",
    "prefecture": "鳥取県",
    "prefecture_kana": "トットリケン",
    "prefecture_code": 31,
    "city": "鳥取市",
    "city_kana": "トットリシ",
    "town": "福部町高江",
    "town_kana": "フクベチョウタカエ",
    "street": null,
    "office_name": null,
    "office_name_kana": null
  },
  "0104": {
    "postcode": "6890104",
    "prefecture": "鳥取県",
    "prefecture_kana": "トットリケン",
    "prefecture_code": 31,
    "city": "鳥取市",
    "city_kana": "トットリシ",
    "town": "福部町箭溪",
    "town_kana": "フクベチョウヤダニ",
    "street": null,
    "office_name": null,
    "office_name_kana": null
  },
  "0105": {
    "postcode": "6890105",
    "prefecture": "鳥取県",
    "prefecture_kana": "トットリケン",
    "prefecture_code": 31,
    "city": "鳥取市",
    "city_kana": "トットリシ",
    "town": "福部町湯山",
    "town_kana": "フクベチョウユヤマ",
    "street": null,
    "office_name": null,
    "office_name_kana": null
  },
  "0106": {
    "postcode": "6890106",
    "prefecture": "鳥取県",
    "prefecture_kana": "トットリケン",
    "prefecture_code": 31,
    "city": "鳥取市",
    "city_kana": "トットリシ",
    "town": "福部町海士",
    "town_kana": "フクベチョウアモウ",
    "street": null,
    "office_name": null,
    "office_name_kana": null
  },
  "0111": {
    "postcode": "6890111",
    "prefecture": "鳥取県",
    "prefecture_kana": "トットリケン",
    "prefecture_code": 31,
    "city": "鳥取市",
    "city_kana": "トットリシ",
    "town": "福部町栗谷",
    "town_kana": "フクベチョウクリタニ",
    "street": null,
    "office_name": null,
    "office_name_kana": null
  },
  "0112": {
    "postcode": "6890112",
    "prefecture": "鳥取県",
    "prefecture_kana": "トットリケン",
    "prefecture_code": 31,
    "city": "鳥取市",
    "city_kana": "トットリシ",
    "town": "福部町蔵見",
    "town_kana": "フクベチョウクラミ",
    "street": null,
    "office_name": null,
    "office_name_kana": null
  },
  "0113": {
    "postcode": "6890113",
    "prefecture": "鳥取県",
    "prefecture_kana": "トットリケン",
    "prefecture_code": 31,
    "city": "鳥取市",
    "city_kana": "トットリシ",
    "town": "福部町久志羅",
    "town_kana": "フクベチョウクジラ",
    "street": null,
    "office_name": null,
    "office_name_kana": null
  },
  "0114": {
    "postcode": "6890114",
    "prefecture": "鳥取県",
    "prefecture_kana": "トットリケン",
    "prefecture_code": 31,
    "city": "鳥取市",
    "city_kana": "トットリシ",
    "town": "福部町左近",
    "town_kana": "フクベチョウサコ",
    "street": null,
    "office_name": null,
    "office_name_kana": null
  },
  "0115": {
    "postcode": "6890115",
    "prefecture": "鳥取県",
    "prefecture_kana": "トットリケン",
    "prefecture_code": 31,
    "city": "鳥取市",
    "city_kana": "トットリシ",
    "town": "福部町八重原",
    "town_kana": "フクベチョウヤエバラ",
    "street": null,
    "office_name": null,
    "office_name_kana": null
  },
  "0116": {
    "postcode": "6890116",
    "prefecture": "鳥取県",
    "prefecture_kana": "トットリケン",
    "prefecture_code": 31,
    "city": "鳥取市",
    "city_kana": "トットリシ",
    "town": "福部町中",
    "town_kana": "フクベチョウナカ",
    "street": null,
    "office_name": null,
    "office_name_kana": null
  },
  "0117": {
    "postcode": "6890117",
    "prefecture": "鳥取県",
    "prefecture_kana": "トットリケン",
    "prefecture_code": 31,
    "city": "鳥取市",
    "city_kana": "トットリシ",
    "town": "福部町南田",
    "town_kana": "フクベチョウノウダ",
    "street": null,
    "office_name": null,
    "office_name_kana": null
  },
  "0201": {
    "postcode": "6890201",
    "prefecture": "鳥取県",
    "prefecture_kana": "トットリケン",
    "prefecture_code": 31,
    "city": "鳥取市",
    "city_kana": "トットリシ",
    "town": "伏野",
    "town_kana": "フシノ",
    "street": null,
    "office_name": null,
    "office_name_kana": null
  },
  "0202": {
    "postcode": "6890202",
    "prefecture": "鳥取県",
    "prefecture_kana": "トットリケン",
    "prefecture_code": 31,
    "city": "鳥取市",
    "city_kana": "トットリシ",
    "town": "美萩野",
    "town_kana": "ミハギノ",
    "street": null,
    "office_name": null,
    "office_name_kana": null
  },
  "0203": {
    "postcode": "6890203",
    "prefecture": "鳥取県",
    "prefecture_kana": "トットリケン",
    "prefecture_code": 31,
    "city": "鳥取市",
    "city_kana": "トットリシ",
    "town": "三津",
    "town_kana": "ミツ",
    "street": null,
    "office_name": null,
    "office_name_kana": null
  },
  "0204": {
    "postcode": "6890204",
    "prefecture": "鳥取県",
    "prefecture_kana": "トットリケン",
    "prefecture_code": 31,
    "city": "鳥取市",
    "city_kana": "トットリシ",
    "town": "御熊",
    "town_kana": "ミクマ",
    "street": null,
    "office_name": null,
    "office_name_kana": null
  },
  "0205": {
    "postcode": "6890205",
    "prefecture": "鳥取県",
    "prefecture_kana": "トットリケン",
    "prefecture_code": 31,
    "city": "鳥取市",
    "city_kana": "トットリシ",
    "town": "内海中",
    "town_kana": "ウツミナカ",
    "street": null,
    "office_name": null,
    "office_name_kana": null
  },
  "0206": {
    "postcode": "6890206",
    "prefecture": "鳥取県",
    "prefecture_kana": "トットリケン",
    "prefecture_code": 31,
    "city": "鳥取市",
    "city_kana": "トットリシ",
    "town": "白兎",
    "town_kana": "ハクト",
    "street": null,
    "office_name": null,
    "office_name_kana": null
  },
  "0207": {
    "postcode": "6890207",
    "prefecture": "鳥取県",
    "prefecture_kana": "トットリケン",
    "prefecture_code": 31,
    "city": "鳥取市",
    "city_kana": "トットリシ",
    "town": "小沢見",
    "town_kana": "コゾミ",
    "street": null,
    "office_name": null,
    "office_name_kana": null
  },
  "0211": {
    "postcode": "6890211",
    "prefecture": "鳥取県",
    "prefecture_kana": "トットリケン",
    "prefecture_code": 31,
    "city": "鳥取市",
    "city_kana": "トットリシ",
    "town": "気高町奥沢見",
    "town_kana": "ケタカチョウオクゾウミ",
    "street": null,
    "office_name": null,
    "office_name_kana": null
  },
  "0212": {
    "postcode": "6890212",
    "prefecture": "鳥取県",
    "prefecture_kana": "トットリケン",
    "prefecture_code": 31,
    "city": "鳥取市",
    "city_kana": "トットリシ",
    "town": "気高町常松",
    "town_kana": "ケタカチョウツネマツ",
    "street": null,
    "office_name": null,
    "office_name_kana": null
  },
  "0213": {
    "postcode": "6890213",
    "prefecture": "鳥取県",
    "prefecture_kana": "トットリケン",
    "prefecture_code": 31,
    "city": "鳥取市",
    "city_kana": "トットリシ",
    "town": "気高町下光元",
    "town_kana": "ケタカチョウシモミツモト",
    "street": null,
    "office_name": null,
    "office_name_kana": null
  },
  "0214": {
    "postcode": "6890214",
    "prefecture": "鳥取県",
    "prefecture_kana": "トットリケン",
    "prefecture_code": 31,
    "city": "鳥取市",
    "city_kana": "トットリシ",
    "town": "気高町上光",
    "town_kana": "ケタカチョウカミミツ",
    "street": null,
    "office_name": null,
    "office_name_kana": null
  },
  "0215": {
    "postcode": "6890215",
    "prefecture": "鳥取県",
    "prefecture_kana": "トットリケン",
    "prefecture_code": 31,
    "city": "鳥取市",
    "city_kana": "トットリシ",
    "town": "気高町冨吉",
    "town_kana": "ケタカチョウトミヨシ",
    "street": null,
    "office_name": null,
    "office_name_kana": null
  },
  "0216": {
    "postcode": "6890216",
    "prefecture": "鳥取県",
    "prefecture_kana": "トットリケン",
    "prefecture_code": 31,
    "city": "鳥取市",
    "city_kana": "トットリシ",
    "town": "気高町宝木",
    "town_kana": "ケタカチョウホウギ",
    "street": null,
    "office_name": null,
    "office_name_kana": null
  },
  "0217": {
    "postcode": "6890217",
    "prefecture": "鳥取県",
    "prefecture_kana": "トットリケン",
    "prefecture_code": 31,
    "city": "鳥取市",
    "city_kana": "トットリシ",
    "town": "気高町酒津",
    "town_kana": "ケタカチョウサケノツ",
    "street": null,
    "office_name": null,
    "office_name_kana": null
  },
  "0221": {
    "postcode": "6890221",
    "prefecture": "鳥取県",
    "prefecture_kana": "トットリケン",
    "prefecture_code": 31,
    "city": "鳥取市",
    "city_kana": "トットリシ",
    "town": "気高町下坂本",
    "town_kana": "ケタカチョウシモサカモト",
    "street": null,
    "office_name": null,
    "office_name_kana": null
  },
  "0222": {
    "postcode": "6890222",
    "prefecture": "鳥取県",
    "prefecture_kana": "トットリケン",
    "prefecture_code": 31,
    "city": "鳥取市",
    "city_kana": "トットリシ",
    "town": "気高町日光",
    "town_kana": "ケタカチョウニッコウ",
    "street": null,
    "office_name": null,
    "office_name_kana": null
  },
  "0223": {
    "postcode": "6890223",
    "prefecture": "鳥取県",
    "prefecture_kana": "トットリケン",
    "prefecture_code": 31,
    "city": "鳥取市",
    "city_kana": "トットリシ",
    "town": "気高町二本木",
    "town_kana": "ケタカチョウニホンギ",
    "street": null,
    "office_name": null,
    "office_name_kana": null
  },
  "0224": {
    "postcode": "6890224",
    "prefecture": "鳥取県",
    "prefecture_kana": "トットリケン",
    "prefecture_code": 31,
    "city": "鳥取市",
    "city_kana": "トットリシ",
    "town": "気高町重高",
    "town_kana": "ケタカチョウシゲタカ",
    "street": null,
    "office_name": null,
    "office_name_kana": null
  },
  "0225": {
    "postcode": "6890225",
    "prefecture": "鳥取県",
    "prefecture_kana": "トットリケン",
    "prefecture_code": 31,
    "city": "鳥取市",
    "city_kana": "トットリシ",
    "town": "気高町土居",
    "town_kana": "ケタカチョウドイ",
    "street": null,
    "office_name": null,
    "office_name_kana": null
  },
  "0226": {
    "postcode": "6890226",
    "prefecture": "鳥取県",
    "prefecture_kana": "トットリケン",
    "prefecture_code": 31,
    "city": "鳥取市",
    "city_kana": "トットリシ",
    "town": "気高町宿",
    "town_kana": "ケタカチョウシュク",
    "street": null,
    "office_name": null,
    "office_name_kana": null
  },
  "0331": {
    "postcode": "6890331",
    "prefecture": "鳥取県",
    "prefecture_kana": "トットリケン",
    "prefecture_code": 31,
    "city": "鳥取市",
    "city_kana": "トットリシ",
    "town": "気高町浜村",
    "town_kana": "ケタカチョウハマムラ",
    "street": null,
    "office_name": null,
    "office_name_kana": null
  },
  "0332": {
    "postcode": "6890332",
    "prefecture": "鳥取県",
    "prefecture_kana": "トットリケン",
    "prefecture_code": 31,
    "city": "鳥取市",
    "city_kana": "トットリシ",
    "town": "気高町勝見",
    "town_kana": "ケタカチョウカチミ",
    "street": null,
    "office_name": null,
    "office_name_kana": null
  },
  "0333": {
    "postcode": "6890333",
    "prefecture": "鳥取県",
    "prefecture_kana": "トットリケン",
    "prefecture_code": 31,
    "city": "鳥取市",
    "city_kana": "トットリシ",
    "town": "気高町新町",
    "town_kana": "ケタカチョウシンマチ",
    "street": null,
    "office_name": null,
    "office_name_kana": null
  },
  "0334": {
    "postcode": "6890334",
    "prefecture": "鳥取県",
    "prefecture_kana": "トットリケン",
    "prefecture_code": 31,
    "city": "鳥取市",
    "city_kana": "トットリシ",
    "town": "気高町北浜",
    "town_kana": "ケタカチョウキタハマ",
    "street": null,
    "office_name": null,
    "office_name_kana": null
  },
  "0341": {
    "postcode": "6890341",
    "prefecture": "鳥取県",
    "prefecture_kana": "トットリケン",
    "prefecture_code": 31,
    "city": "鳥取市",
    "city_kana": "トットリシ",
    "town": "気高町下石",
    "town_kana": "ケタカチョウオロジ",
    "street": null,
    "office_name": null,
    "office_name_kana": null
  },
  "0342": {
    "postcode": "6890342",
    "prefecture": "鳥取県",
    "prefecture_kana": "トットリケン",
    "prefecture_code": 31,
    "city": "鳥取市",
    "city_kana": "トットリシ",
    "town": "気高町殿",
    "town_kana": "ケタカチョウトノ",
    "street": null,
    "office_name": null,
    "office_name_kana": null
  },
  "0343": {
    "postcode": "6890343",
    "prefecture": "鳥取県",
    "prefecture_kana": "トットリケン",
    "prefecture_code": 31,
    "city": "鳥取市",
    "city_kana": "トットリシ",
    "town": "気高町飯里",
    "town_kana": "ケタカチョウイイザト",
    "street": null,
    "office_name": null,
    "office_name_kana": null
  },
  "0344": {
    "postcode": "6890344",
    "prefecture": "鳥取県",
    "prefecture_kana": "トットリケン",
    "prefecture_code": 31,
    "city": "鳥取市",
    "city_kana": "トットリシ",
    "town": "気高町上原",
    "town_kana": "ケタカチョウカンバラ",
    "street": null,
    "office_name": null,
    "office_name_kana": null
  },
  "0345": {
    "postcode": "6890345",
    "prefecture": "鳥取県",
    "prefecture_kana": "トットリケン",
    "prefecture_code": 31,
    "city": "鳥取市",
    "city_kana": "トットリシ",
    "town": "気高町山宮",
    "town_kana": "ケタカチョウヤマミヤ",
    "street": null,
    "office_name": null,
    "office_name_kana": null
  },
  "0351": {
    "postcode": "6890351",
    "prefecture": "鳥取県",
    "prefecture_kana": "トットリケン",
    "prefecture_code": 31,
    "city": "鳥取市",
    "city_kana": "トットリシ",
    "town": "気高町八幡",
    "town_kana": "ケタカチョウヤワタ",
    "street": null,
    "office_name": null,
    "office_name_kana": null
  },
  "0352": {
    "postcode": "6890352",
    "prefecture": "鳥取県",
    "prefecture_kana": "トットリケン",
    "prefecture_code": 31,
    "city": "鳥取市",
    "city_kana": "トットリシ",
    "town": "気高町高江",
    "town_kana": "ケタカチョウタカエ",
    "street": null,
    "office_name": null,
    "office_name_kana": null
  },
  "0353": {
    "postcode": "6890353",
    "prefecture": "鳥取県",
    "prefecture_kana": "トットリケン",
    "prefecture_code": 31,
    "city": "鳥取市",
    "city_kana": "トットリシ",
    "town": "気高町郡家",
    "town_kana": "ケタカチョウコウゲ",
    "street": null,
    "office_name": null,
    "office_name_kana": null
  },
  "0354": {
    "postcode": "6890354",
    "prefecture": "鳥取県",
    "prefecture_kana": "トットリケン",
    "prefecture_code": 31,
    "city": "鳥取市",
    "city_kana": "トットリシ",
    "town": "気高町睦逢",
    "town_kana": "ケタカチョウムツオ",
    "street": null,
    "office_name": null,
    "office_name_kana": null
  },
  "0355": {
    "postcode": "6890355",
    "prefecture": "鳥取県",
    "prefecture_kana": "トットリケン",
    "prefecture_code": 31,
    "city": "鳥取市",
    "city_kana": "トットリシ",
    "town": "気高町会下",
    "town_kana": "ケタカチョウエゲ",
    "street": null,
    "office_name": null,
    "office_name_kana": null
  },
  "0356": {
    "postcode": "6890356",
    "prefecture": "鳥取県",
    "prefecture_kana": "トットリケン",
    "prefecture_code": 31,
    "city": "鳥取市",
    "city_kana": "トットリシ",
    "town": "気高町下原",
    "town_kana": "ケタカチョウシモバラ",
    "street": null,
    "office_name": null,
    "office_name_kana": null
  },
  "0357": {
    "postcode": "6890357",
    "prefecture": "鳥取県",
    "prefecture_kana": "トットリケン",
    "prefecture_code": 31,
    "city": "鳥取市",
    "city_kana": "トットリシ",
    "town": "気高町八束水",
    "town_kana": "ケタカチョウヤツカミ",
    "street": null,
    "office_name": null,
    "office_name_kana": null
  },
  "0401": {
    "postcode": "6890401",
    "prefecture": "鳥取県",
    "prefecture_kana": "トットリケン",
    "prefecture_code": 31,
    "city": "鳥取市",
    "city_kana": "トットリシ",
    "town": "鹿野町広木",
    "town_kana": "シカノチョウヒロギ",
    "street": null,
    "office_name": null,
    "office_name_kana": null
  },
  "0402": {
    "postcode": "6890402",
    "prefecture": "鳥取県",
    "prefecture_kana": "トットリケン",
    "prefecture_code": 31,
    "city": "鳥取市",
    "city_kana": "トットリシ",
    "town": "鹿野町閉野",
    "town_kana": "シカノチョウトジノ",
    "street": null,
    "office_name": null,
    "office_name_kana": null
  },
  "0403": {
    "postcode": "6890403",
    "prefecture": "鳥取県",
    "prefecture_kana": "トットリケン",
    "prefecture_code": 31,
    "city": "鳥取市",
    "city_kana": "トットリシ",
    "town": "鹿野町末用",
    "town_kana": "シカノチョウスエモチ",
    "street": null,
    "office_name": null,
    "office_name_kana": null
  },
  "0404": {
    "postcode": "6890404",
    "prefecture": "鳥取県",
    "prefecture_kana": "トットリケン",
    "prefecture_code": 31,
    "city": "鳥取市",
    "city_kana": "トットリシ",
    "town": "鹿野町水谷",
    "town_kana": "シカノチョウミズタニ",
    "street": null,
    "office_name": null,
    "office_name_kana": null
  },
  "0405": {
    "postcode": "6890405",
    "prefecture": "鳥取県",
    "prefecture_kana": "トットリケン",
    "prefecture_code": 31,
    "city": "鳥取市",
    "city_kana": "トットリシ",
    "town": "鹿野町鹿野",
    "town_kana": "シカノチョウシカノ",
    "street": null,
    "office_name": null,
    "office_name_kana": null
  },
  "0411": {
    "postcode": "6890411",
    "prefecture": "鳥取県",
    "prefecture_kana": "トットリケン",
    "prefecture_code": 31,
    "city": "鳥取市",
    "city_kana": "トットリシ",
    "town": "鹿野町鷲峯",
    "town_kana": "シカノチョウジュウボウ",
    "street": null,
    "office_name": null,
    "office_name_kana": null
  },
  "0412": {
    "postcode": "6890412",
    "prefecture": "鳥取県",
    "prefecture_kana": "トットリケン",
    "prefecture_code": 31,
    "city": "鳥取市",
    "city_kana": "トットリシ",
    "town": "鹿野町河内",
    "town_kana": "シカノチョウコウチ",
    "street": null,
    "office_name": null,
    "office_name_kana": null
  },
  "0413": {
    "postcode": "6890413",
    "prefecture": "鳥取県",
    "prefecture_kana": "トットリケン",
    "prefecture_code": 31,
    "city": "鳥取市",
    "city_kana": "トットリシ",
    "town": "鹿野町小別所",
    "town_kana": "シカノチョウコベツシヨ",
    "street": null,
    "office_name": null,
    "office_name_kana": null
  },
  "0421": {
    "postcode": "6890421",
    "prefecture": "鳥取県",
    "prefecture_kana": "トットリケン",
    "prefecture_code": 31,
    "city": "鳥取市",
    "city_kana": "トットリシ",
    "town": "鹿野町乙亥正",
    "town_kana": "シカノチョウオツガセ",
    "street": null,
    "office_name": null,
    "office_name_kana": null
  },
  "0422": {
    "postcode": "6890422",
    "prefecture": "鳥取県",
    "prefecture_kana": "トットリケン",
    "prefecture_code": 31,
    "city": "鳥取市",
    "city_kana": "トットリシ",
    "town": "鹿野町岡木",
    "town_kana": "シカノチョウオカキ",
    "street": null,
    "office_name": null,
    "office_name_kana": null
  },
  "0423": {
    "postcode": "6890423",
    "prefecture": "鳥取県",
    "prefecture_kana": "トットリケン",
    "prefecture_code": 31,
    "city": "鳥取市",
    "city_kana": "トットリシ",
    "town": "鹿野町中園",
    "town_kana": "シカノチョウナカゾノ",
    "street": null,
    "office_name": null,
    "office_name_kana": null
  },
  "0424": {
    "postcode": "6890424",
    "prefecture": "鳥取県",
    "prefecture_kana": "トットリケン",
    "prefecture_code": 31,
    "city": "鳥取市",
    "city_kana": "トットリシ",
    "town": "鹿野町宮方",
    "town_kana": "シカノチョウミヤカタ",
    "street": null,
    "office_name": null,
    "office_name_kana": null
  },
  "0425": {
    "postcode": "6890425",
    "prefecture": "鳥取県",
    "prefecture_kana": "トットリケン",
    "prefecture_code": 31,
    "city": "鳥取市",
    "city_kana": "トットリシ",
    "town": "鹿野町今市",
    "town_kana": "シカノチョウイマイチ",
    "street": null,
    "office_name": null,
    "office_name_kana": null
  },
  "0426": {
    "postcode": "6890426",
    "prefecture": "鳥取県",
    "prefecture_kana": "トットリケン",
    "prefecture_code": 31,
    "city": "鳥取市",
    "city_kana": "トットリシ",
    "town": "鹿野町寺内",
    "town_kana": "シカノチョウテラウチ",
    "street": null,
    "office_name": null,
    "office_name_kana": null
  },
  "0501": {
    "postcode": "6890501",
    "prefecture": "鳥取県",
    "prefecture_kana": "トットリケン",
    "prefecture_code": 31,
    "city": "鳥取市",
    "city_kana": "トットリシ",
    "town": "青谷町青谷",
    "town_kana": "アオヤチョウアオヤ",
    "street": null,
    "office_name": null,
    "office_name_kana": null
  },
  "0511": {
    "postcode": "6890511",
    "prefecture": "鳥取県",
    "prefecture_kana": "トットリケン",
    "prefecture_code": 31,
    "city": "鳥取市",
    "city_kana": "トットリシ",
    "town": "青谷町善田",
    "town_kana": "アオヤチョウヨシダ",
    "street": null,
    "office_name": null,
    "office_name_kana": null
  },
  "0512": {
    "postcode": "6890512",
    "prefecture": "鳥取県",
    "prefecture_kana": "トットリケン",
    "prefecture_code": 31,
    "city": "鳥取市",
    "city_kana": "トットリシ",
    "town": "青谷町養郷",
    "town_kana": "アオヤチョウヨウゴウ",
    "street": null,
    "office_name": null,
    "office_name_kana": null
  },
  "0513": {
    "postcode": "6890513",
    "prefecture": "鳥取県",
    "prefecture_kana": "トットリケン",
    "prefecture_code": 31,
    "city": "鳥取市",
    "city_kana": "トットリシ",
    "town": "青谷町蔵内",
    "town_kana": "アオヤチョウクラウチ",
    "street": null,
    "office_name": null,
    "office_name_kana": null
  },
  "0514": {
    "postcode": "6890514",
    "prefecture": "鳥取県",
    "prefecture_kana": "トットリケン",
    "prefecture_code": 31,
    "city": "鳥取市",
    "city_kana": "トットリシ",
    "town": "青谷町山根",
    "town_kana": "アオヤチョウヤマネ",
    "street": null,
    "office_name": null,
    "office_name_kana": null
  },
  "0515": {
    "postcode": "6890515",
    "prefecture": "鳥取県",
    "prefecture_kana": "トットリケン",
    "prefecture_code": 31,
    "city": "鳥取市",
    "city_kana": "トットリシ",
    "town": "青谷町河原",
    "town_kana": "アオヤチョウカワラ",
    "street": null,
    "office_name": null,
    "office_name_kana": null
  },
  "0516": {
    "postcode": "6890516",
    "prefecture": "鳥取県",
    "prefecture_kana": "トットリケン",
    "prefecture_code": 31,
    "city": "鳥取市",
    "city_kana": "トットリシ",
    "town": "青谷町小畑",
    "town_kana": "アオヤチョウオバタ",
    "street": null,
    "office_name": null,
    "office_name_kana": null
  },
  "0517": {
    "postcode": "6890517",
    "prefecture": "鳥取県",
    "prefecture_kana": "トットリケン",
    "prefecture_code": 31,
    "city": "鳥取市",
    "city_kana": "トットリシ",
    "town": "青谷町早牛",
    "town_kana": "アオヤチョウハヤウジ",
    "street": null,
    "office_name": null,
    "office_name_kana": null
  },
  "0518": {
    "postcode": "6890518",
    "prefecture": "鳥取県",
    "prefecture_kana": "トットリケン",
    "prefecture_code": 31,
    "city": "鳥取市",
    "city_kana": "トットリシ",
    "town": "青谷町大坪",
    "town_kana": "アオヤチョウオオツボ",
    "street": null,
    "office_name": null,
    "office_name_kana": null
  },
  "0519": {
    "postcode": "6890519",
    "prefecture": "鳥取県",
    "prefecture_kana": "トットリケン",
    "prefecture_code": 31,
    "city": "鳥取市",
    "city_kana": "トットリシ",
    "town": "青谷町奥崎",
    "town_kana": "アオヤチョウオクザキ",
    "street": null,
    "office_name": null,
    "office_name_kana": null
  },
  "0521": {
    "postcode": "6890521",
    "prefecture": "鳥取県",
    "prefecture_kana": "トットリケン",
    "prefecture_code": 31,
    "city": "鳥取市",
    "city_kana": "トットリシ",
    "town": "青谷町露谷",
    "town_kana": "アオヤチョウツユダニ",
    "street": null,
    "office_name": null,
    "office_name_kana": null
  },
  "0522": {
    "postcode": "6890522",
    "prefecture": "鳥取県",
    "prefecture_kana": "トットリケン",
    "prefecture_code": 31,
    "city": "鳥取市",
    "city_kana": "トットリシ",
    "town": "青谷町亀尻",
    "town_kana": "アオヤチョウカメジリ",
    "street": null,
    "office_name": null,
    "office_name_kana": null
  },
  "0523": {
    "postcode": "6890523",
    "prefecture": "鳥取県",
    "prefecture_kana": "トットリケン",
    "prefecture_code": 31,
    "city": "鳥取市",
    "city_kana": "トットリシ",
    "town": "青谷町山田",
    "town_kana": "アオヤチョウヤマダ",
    "street": null,
    "office_name": null,
    "office_name_kana": null
  },
  "0524": {
    "postcode": "6890524",
    "prefecture": "鳥取県",
    "prefecture_kana": "トットリケン",
    "prefecture_code": 31,
    "city": "鳥取市",
    "city_kana": "トットリシ",
    "town": "青谷町八葉寺",
    "town_kana": "アオヤチョウハツショウジ",
    "street": null,
    "office_name": null,
    "office_name_kana": null
  },
  "0525": {
    "postcode": "6890525",
    "prefecture": "鳥取県",
    "prefecture_kana": "トットリケン",
    "prefecture_code": 31,
    "city": "鳥取市",
    "city_kana": "トットリシ",
    "town": "青谷町田原谷",
    "town_kana": "アオヤチョウタワラダニ",
    "street": null,
    "office_name": null,
    "office_name_kana": null
  },
  "0526": {
    "postcode": "6890526",
    "prefecture": "鳥取県",
    "prefecture_kana": "トットリケン",
    "prefecture_code": 31,
    "city": "鳥取市",
    "city_kana": "トットリシ",
    "town": "青谷町紙屋",
    "town_kana": "アオヤチョウカミヤ",
    "street": null,
    "office_name": null,
    "office_name_kana": null
  },
  "0527": {
    "postcode": "6890527",
    "prefecture": "鳥取県",
    "prefecture_kana": "トットリケン",
    "prefecture_code": 31,
    "city": "鳥取市",
    "city_kana": "トットリシ",
    "town": "青谷町楠根",
    "town_kana": "アオヤチョウクスネ",
    "street": null,
    "office_name": null,
    "office_name_kana": null
  },
  "0528": {
    "postcode": "6890528",
    "prefecture": "鳥取県",
    "prefecture_kana": "トットリケン",
    "prefecture_code": 31,
    "city": "鳥取市",
    "city_kana": "トットリシ",
    "town": "青谷町澄水",
    "town_kana": "アオヤチョウスンズ",
    "street": null,
    "office_name": null,
    "office_name_kana": null
  },
  "0529": {
    "postcode": "6890529",
    "prefecture": "鳥取県",
    "prefecture_kana": "トットリケン",
    "prefecture_code": 31,
    "city": "鳥取市",
    "city_kana": "トットリシ",
    "town": "青谷町桑原",
    "town_kana": "アオヤチョウクワバラ",
    "street": null,
    "office_name": null,
    "office_name_kana": null
  },
  "0531": {
    "postcode": "6890531",
    "prefecture": "鳥取県",
    "prefecture_kana": "トットリケン",
    "prefecture_code": 31,
    "city": "鳥取市",
    "city_kana": "トットリシ",
    "town": "青谷町鳴滝",
    "town_kana": "アオヤチョウナルタキ",
    "street": null,
    "office_name": null,
    "office_name_kana": null
  },
  "0532": {
    "postcode": "6890532",
    "prefecture": "鳥取県",
    "prefecture_kana": "トットリケン",
    "prefecture_code": 31,
    "city": "鳥取市",
    "city_kana": "トットリシ",
    "town": "青谷町北河原",
    "town_kana": "アオヤチョウキタガワラ",
    "street": null,
    "office_name": null,
    "office_name_kana": null
  },
  "0533": {
    "postcode": "6890533",
    "prefecture": "鳥取県",
    "prefecture_kana": "トットリケン",
    "prefecture_code": 31,
    "city": "鳥取市",
    "city_kana": "トットリシ",
    "town": "青谷町絹見",
    "town_kana": "アオヤチョウキヌミ",
    "street": null,
    "office_name": null,
    "office_name_kana": null
  },
  "0534": {
    "postcode": "6890534",
    "prefecture": "鳥取県",
    "prefecture_kana": "トットリケン",
    "prefecture_code": 31,
    "city": "鳥取市",
    "city_kana": "トットリシ",
    "town": "青谷町吉川",
    "town_kana": "アオヤチョウヨシカワ",
    "street": null,
    "office_name": null,
    "office_name_kana": null
  },
  "0535": {
    "postcode": "6890535",
    "prefecture": "鳥取県",
    "prefecture_kana": "トットリケン",
    "prefecture_code": 31,
    "city": "鳥取市",
    "city_kana": "トットリシ",
    "town": "青谷町井手",
    "town_kana": "アオヤチョウイデ",
    "street": null,
    "office_name": null,
    "office_name_kana": null
  },
  "0536": {
    "postcode": "6890536",
    "prefecture": "鳥取県",
    "prefecture_kana": "トットリケン",
    "prefecture_code": 31,
    "city": "鳥取市",
    "city_kana": "トットリシ",
    "town": "青谷町長和瀬",
    "town_kana": "アオヤチョウナガワセ",
    "street": null,
    "office_name": null,
    "office_name_kana": null
  },
  "0537": {
    "postcode": "6890537",
    "prefecture": "鳥取県",
    "prefecture_kana": "トットリケン",
    "prefecture_code": 31,
    "city": "鳥取市",
    "city_kana": "トットリシ",
    "town": "青谷町栄町",
    "town_kana": "アオヤチョウサカエマチ",
    "street": null,
    "office_name": null,
    "office_name_kana": null
  },
  "0592": {
    "postcode": "6890592",
    "prefecture": "鳥取県",
    "prefecture_kana": "トットリケン",
    "prefecture_code": 31,
    "city": "鳥取市",
    "city_kana": "トットリシ",
    "town": "青谷町青谷",
    "town_kana": "アオヤチョウアオヤ",
    "street": "６６７",
    "office_name": "鳥取市役所　青谷町総合支所",
    "office_name_kana": "トツトリシヤクシヨ アオヤチヨウソウゴウシシヨ"
  },
  "0595": {
    "postcode": "6890595",
    "prefecture": "鳥取県",
    "prefecture_kana": "トットリケン",
    "prefecture_code": 31,
    "city": "鳥取市",
    "city_kana": "トットリシ",
    "town": "青谷町青谷",
    "town_kana": "アオヤチョウアオヤ",
    "street": "２９１２",
    "office_name": "鳥取県立　青谷高等学校",
    "office_name_kana": "トツトリケンリツ アオヤコウトウガツコウ"
  },
  "0601": {
    "postcode": "6890601",
    "prefecture": "鳥取県",
    "prefecture_kana": "トットリケン",
    "prefecture_code": 31,
    "city": "東伯郡湯梨浜町",
    "city_kana": "トウハクグンユリハマチョウ",
    "town": "泊",
    "town_kana": "トマリ",
    "street": null,
    "office_name": null,
    "office_name_kana": null
  },
  "0602": {
    "postcode": "6890602",
    "prefecture": "鳥取県",
    "prefecture_kana": "トットリケン",
    "prefecture_code": 31,
    "city": "東伯郡湯梨浜町",
    "city_kana": "トウハクグンユリハマチョウ",
    "town": "石脇",
    "town_kana": "イシワキ",
    "street": null,
    "office_name": null,
    "office_name_kana": null
  },
  "0603": {
    "postcode": "6890603",
    "prefecture": "鳥取県",
    "prefecture_kana": "トットリケン",
    "prefecture_code": 31,
    "city": "東伯郡湯梨浜町",
    "city_kana": "トウハクグンユリハマチョウ",
    "town": "小浜",
    "town_kana": "コバマ",
    "street": null,
    "office_name": null,
    "office_name_kana": null
  },
  "0604": {
    "postcode": "6890604",
    "prefecture": "鳥取県",
    "prefecture_kana": "トットリケン",
    "prefecture_code": 31,
    "city": "東伯郡湯梨浜町",
    "city_kana": "トウハクグンユリハマチョウ",
    "town": "筒地",
    "town_kana": "ツツジ",
    "street": null,
    "office_name": null,
    "office_name_kana": null
  },
  "0605": {
    "postcode": "6890605",
    "prefecture": "鳥取県",
    "prefecture_kana": "トットリケン",
    "prefecture_code": 31,
    "city": "東伯郡湯梨浜町",
    "city_kana": "トウハクグンユリハマチョウ",
    "town": "園",
    "town_kana": "ソノ",
    "street": null,
    "office_name": null,
    "office_name_kana": null
  },
  "0606": {
    "postcode": "6890606",
    "prefecture": "鳥取県",
    "prefecture_kana": "トットリケン",
    "prefecture_code": 31,
    "city": "東伯郡湯梨浜町",
    "city_kana": "トウハクグンユリハマチョウ",
    "town": "原",
    "town_kana": "ハラ",
    "street": null,
    "office_name": null,
    "office_name_kana": null
  },
  "0607": {
    "postcode": "6890607",
    "prefecture": "鳥取県",
    "prefecture_kana": "トットリケン",
    "prefecture_code": 31,
    "city": "東伯郡湯梨浜町",
    "city_kana": "トウハクグンユリハマチョウ",
    "town": "宇谷",
    "town_kana": "ウタニ",
    "street": null,
    "office_name": null,
    "office_name_kana": null
  },
  "0701": {
    "postcode": "6890701",
    "prefecture": "鳥取県",
    "prefecture_kana": "トットリケン",
    "prefecture_code": 31,
    "city": "東伯郡湯梨浜町",
    "city_kana": "トウハクグンユリハマチョウ",
    "town": "北福",
    "town_kana": "キタフク",
    "street": null,
    "office_name": null,
    "office_name_kana": null
  },
  "0702": {
    "postcode": "6890702",
    "prefecture": "鳥取県",
    "prefecture_kana": "トットリケン",
    "prefecture_code": 31,
    "city": "東伯郡湯梨浜町",
    "city_kana": "トウハクグンユリハマチョウ",
    "town": "漆原",
    "town_kana": "ウルシバラ",
    "street": null,
    "office_name": null,
    "office_name_kana": null
  },
  "0703": {
    "postcode": "6890703",
    "prefecture": "鳥取県",
    "prefecture_kana": "トットリケン",
    "prefecture_code": 31,
    "city": "東伯郡湯梨浜町",
    "city_kana": "トウハクグンユリハマチョウ",
    "town": "方地",
    "town_kana": "ホウジ",
    "street": null,
    "office_name": null,
    "office_name_kana": null
  },
  "0704": {
    "postcode": "6890704",
    "prefecture": "鳥取県",
    "prefecture_kana": "トットリケン",
    "prefecture_code": 31,
    "city": "東伯郡湯梨浜町",
    "city_kana": "トウハクグンユリハマチョウ",
    "town": "白石",
    "town_kana": "シライシ",
    "street": null,
    "office_name": null,
    "office_name_kana": null
  },
  "0705": {
    "postcode": "6890705",
    "prefecture": "鳥取県",
    "prefecture_kana": "トットリケン",
    "prefecture_code": 31,
    "city": "東伯郡湯梨浜町",
    "city_kana": "トウハクグンユリハマチョウ",
    "town": "野方",
    "town_kana": "ノカタ",
    "street": null,
    "office_name": null,
    "office_name_kana": null
  },
  "0706": {
    "postcode": "6890706",
    "prefecture": "鳥取県",
    "prefecture_kana": "トットリケン",
    "prefecture_code": 31,
    "city": "東伯郡湯梨浜町",
    "city_kana": "トウハクグンユリハマチョウ",
    "town": "藤津",
    "town_kana": "フジツ",
    "street": null,
    "office_name": null,
    "office_name_kana": null
  },
  "0707": {
    "postcode": "6890707",
    "prefecture": "鳥取県",
    "prefecture_kana": "トットリケン",
    "prefecture_code": 31,
    "city": "東伯郡湯梨浜町",
    "city_kana": "トウハクグンユリハマチョウ",
    "town": "宮内",
    "town_kana": "ミヤウチ",
    "street": null,
    "office_name": null,
    "office_name_kana": null
  },
  "0711": {
    "postcode": "6890711",
    "prefecture": "鳥取県",
    "prefecture_kana": "トットリケン",
    "prefecture_code": 31,
    "city": "東伯郡湯梨浜町",
    "city_kana": "トウハクグンユリハマチョウ",
    "town": "松崎",
    "town_kana": "マツザキ",
    "street": null,
    "office_name": null,
    "office_name_kana": null
  },
  "0712": {
    "postcode": "6890712",
    "prefecture": "鳥取県",
    "prefecture_kana": "トットリケン",
    "prefecture_code": 31,
    "city": "東伯郡湯梨浜町",
    "city_kana": "トウハクグンユリハマチョウ",
    "town": "中興寺",
    "town_kana": "チュウコウジ",
    "street": null,
    "office_name": null,
    "office_name_kana": null
  },
  "0713": {
    "postcode": "6890713",
    "prefecture": "鳥取県",
    "prefecture_kana": "トットリケン",
    "prefecture_code": 31,
    "city": "東伯郡湯梨浜町",
    "city_kana": "トウハクグンユリハマチョウ",
    "town": "旭",
    "town_kana": "アサヒ",
    "street": null,
    "office_name": null,
    "office_name_kana": null
  },
  "0714": {
    "postcode": "6890714",
    "prefecture": "鳥取県",
    "prefecture_kana": "トットリケン",
    "prefecture_code": 31,
    "city": "東伯郡湯梨浜町",
    "city_kana": "トウハクグンユリハマチョウ",
    "town": "龍島",
    "town_kana": "リュウトウ",
    "street": null,
    "office_name": null,
    "office_name_kana": null
  },
  "0715": {
    "postcode": "6890715",
    "prefecture": "鳥取県",
    "prefecture_kana": "トットリケン",
    "prefecture_code": 31,
    "city": "東伯郡湯梨浜町",
    "city_kana": "トウハクグンユリハマチョウ",
    "town": "引地",
    "town_kana": "ヒキジ",
    "street": null,
    "office_name": null,
    "office_name_kana": null
  },
  "0721": {
    "postcode": "6890721",
    "prefecture": "鳥取県",
    "prefecture_kana": "トットリケン",
    "prefecture_code": 31,
    "city": "東伯郡湯梨浜町",
    "city_kana": "トウハクグンユリハマチョウ",
    "town": "麻畑",
    "town_kana": "アサバタケ",
    "street": null,
    "office_name": null,
    "office_name_kana": null
  },
  "0722": {
    "postcode": "6890722",
    "prefecture": "鳥取県",
    "prefecture_kana": "トットリケン",
    "prefecture_code": 31,
    "city": "東伯郡湯梨浜町",
    "city_kana": "トウハクグンユリハマチョウ",
    "town": "川上",
    "town_kana": "カワカミ",
    "street": null,
    "office_name": null,
    "office_name_kana": null
  },
  "0723": {
    "postcode": "6890723",
    "prefecture": "鳥取県",
    "prefecture_kana": "トットリケン",
    "prefecture_code": 31,
    "city": "東伯郡湯梨浜町",
    "city_kana": "トウハクグンユリハマチョウ",
    "town": "高辻",
    "town_kana": "タカツジ",
    "street": null,
    "office_name": null,
    "office_name_kana": null
  },
  "0724": {
    "postcode": "6890724",
    "prefecture": "鳥取県",
    "prefecture_kana": "トットリケン",
    "prefecture_code": 31,
    "city": "東伯郡湯梨浜町",
    "city_kana": "トウハクグンユリハマチョウ",
    "town": "方面",
    "town_kana": "カタモ",
    "street": null,
    "office_name": null,
    "office_name_kana": null
  },
  "0725": {
    "postcode": "6890725",
    "prefecture": "鳥取県",
    "prefecture_kana": "トットリケン",
    "prefecture_code": 31,
    "city": "東伯郡湯梨浜町",
    "city_kana": "トウハクグンユリハマチョウ",
    "town": "別所",
    "town_kana": "ベッショ",
    "street": null,
    "office_name": null,
    "office_name_kana": null
  },
  "0726": {
    "postcode": "6890726",
    "prefecture": "鳥取県",
    "prefecture_kana": "トットリケン",
    "prefecture_code": 31,
    "city": "東伯郡湯梨浜町",
    "city_kana": "トウハクグンユリハマチョウ",
    "town": "国信",
    "town_kana": "クニノブ",
    "street": null,
    "office_name": null,
    "office_name_kana": null
  },
  "0727": {
    "postcode": "6890727",
    "prefecture": "鳥取県",
    "prefecture_kana": "トットリケン",
    "prefecture_code": 31,
    "city": "東伯郡湯梨浜町",
    "city_kana": "トウハクグンユリハマチョウ",
    "town": "田畑",
    "town_kana": "タバタケ",
    "street": null,
    "office_name": null,
    "office_name_kana": null
  },
  "0728": {
    "postcode": "6890728",
    "prefecture": "鳥取県",
    "prefecture_kana": "トットリケン",
    "prefecture_code": 31,
    "city": "東伯郡湯梨浜町",
    "city_kana": "トウハクグンユリハマチョウ",
    "town": "久見",
    "town_kana": "ヒサミ",
    "street": null,
    "office_name": null,
    "office_name_kana": null
  },
  "0729": {
    "postcode": "6890729",
    "prefecture": "鳥取県",
    "prefecture_kana": "トットリケン",
    "prefecture_code": 31,
    "city": "東伯郡湯梨浜町",
    "city_kana": "トウハクグンユリハマチョウ",
    "town": "小鹿谷",
    "town_kana": "オシカダニ",
    "street": null,
    "office_name": null,
    "office_name_kana": null
  },
  "0731": {
    "postcode": "6890731",
    "prefecture": "鳥取県",
    "prefecture_kana": "トットリケン",
    "prefecture_code": 31,
    "city": "東伯郡湯梨浜町",
    "city_kana": "トウハクグンユリハマチョウ",
    "town": "野花",
    "town_kana": "ノキョウ",
    "street": null,
    "office_name": null,
    "office_name_kana": null
  },
  "0732": {
    "postcode": "6890732",
    "prefecture": "鳥取県",
    "prefecture_kana": "トットリケン",
    "prefecture_code": 31,
    "city": "東伯郡湯梨浜町",
    "city_kana": "トウハクグンユリハマチョウ",
    "town": "長和田",
    "town_kana": "ナゴウタ",
    "street": null,
    "office_name": null,
    "office_name_kana": null
  },
  "0733": {
    "postcode": "6890733",
    "prefecture": "鳥取県",
    "prefecture_kana": "トットリケン",
    "prefecture_code": 31,
    "city": "東伯郡湯梨浜町",
    "city_kana": "トウハクグンユリハマチョウ",
    "town": "羽衣石",
    "town_kana": "ウエシ",
    "street": null,
    "office_name": null,
    "office_name_kana": null
  },
  "0734": {
    "postcode": "6890734",
    "prefecture": "鳥取県",
    "prefecture_kana": "トットリケン",
    "prefecture_code": 31,
    "city": "東伯郡湯梨浜町",
    "city_kana": "トウハクグンユリハマチョウ",
    "town": "埴見",
    "town_kana": "ハナミ",
    "street": null,
    "office_name": null,
    "office_name_kana": null
  },
  "0735": {
    "postcode": "6890735",
    "prefecture": "鳥取県",
    "prefecture_kana": "トットリケン",
    "prefecture_code": 31,
    "city": "東伯郡湯梨浜町",
    "city_kana": "トウハクグンユリハマチョウ",
    "town": "佐美",
    "town_kana": "サビ",
    "street": null,
    "office_name": null,
    "office_name_kana": null
  },
  "0736": {
    "postcode": "6890736",
    "prefecture": "鳥取県",
    "prefecture_kana": "トットリケン",
    "prefecture_code": 31,
    "city": "東伯郡湯梨浜町",
    "city_kana": "トウハクグンユリハマチョウ",
    "town": "門田",
    "town_kana": "カドタ",
    "street": null,
    "office_name": null,
    "office_name_kana": null
  },
  "0737": {
    "postcode": "6890737",
    "prefecture": "鳥取県",
    "prefecture_kana": "トットリケン",
    "prefecture_code": 31,
    "city": "東伯郡湯梨浜町",
    "city_kana": "トウハクグンユリハマチョウ",
    "town": "長江",
    "town_kana": "ナガエ",
    "street": null,
    "office_name": null,
    "office_name_kana": null
  },
  "1101": {
    "postcode": "6891101",
    "prefecture": "鳥取県",
    "prefecture_kana": "トットリケン",
    "prefecture_code": 31,
    "city": "鳥取市",
    "city_kana": "トットリシ",
    "town": "杉崎",
    "town_kana": "スギザキ",
    "street": null,
    "office_name": null,
    "office_name_kana": null
  },
  "1102": {
    "postcode": "6891102",
    "prefecture": "鳥取県",
    "prefecture_kana": "トットリケン",
    "prefecture_code": 31,
    "city": "鳥取市",
    "city_kana": "トットリシ",
    "town": "津ノ井",
    "town_kana": "ツノイ",
    "street": null,
    "office_name": null,
    "office_name_kana": null
  },
  "1103": {
    "postcode": "6891103",
    "prefecture": "鳥取県",
    "prefecture_kana": "トットリケン",
    "prefecture_code": 31,
    "city": "鳥取市",
    "city_kana": "トットリシ",
    "town": "生山",
    "town_kana": "ショウザン",
    "street": null,
    "office_name": null,
    "office_name_kana": null
  },
  "1104": {
    "postcode": "6891104",
    "prefecture": "鳥取県",
    "prefecture_kana": "トットリケン",
    "prefecture_code": 31,
    "city": "鳥取市",
    "city_kana": "トットリシ",
    "town": "桂木",
    "town_kana": "カツラギ",
    "street": null,
    "office_name": null,
    "office_name_kana": null
  },
  "1105": {
    "postcode": "6891105",
    "prefecture": "鳥取県",
    "prefecture_kana": "トットリケン",
    "prefecture_code": 31,
    "city": "鳥取市",
    "city_kana": "トットリシ",
    "town": "東大路",
    "town_kana": "ヒガシオオロ",
    "street": null,
    "office_name": null,
    "office_name_kana": null
  },
  "1106": {
    "postcode": "6891106",
    "prefecture": "鳥取県",
    "prefecture_kana": "トットリケン",
    "prefecture_code": 31,
    "city": "鳥取市",
    "city_kana": "トットリシ",
    "town": "中大路",
    "town_kana": "ナカオオロ",
    "street": null,
    "office_name": null,
    "office_name_kana": null
  },
  "1107": {
    "postcode": "6891107",
    "prefecture": "鳥取県",
    "prefecture_kana": "トットリケン",
    "prefecture_code": 31,
    "city": "鳥取市",
    "city_kana": "トットリシ",
    "town": "西大路",
    "town_kana": "ニシオオロ",
    "street": null,
    "office_name": null,
    "office_name_kana": null
  },
  "1111": {
    "postcode": "6891111",
    "prefecture": "鳥取県",
    "prefecture_kana": "トットリケン",
    "prefecture_code": 31,
    "city": "鳥取市",
    "city_kana": "トットリシ",
    "town": "若葉台北",
    "town_kana": "ワカバダイキタ",
    "street": null,
    "office_name": null,
    "office_name_kana": null
  },
  "1112": {
    "postcode": "6891112",
    "prefecture": "鳥取県",
    "prefecture_kana": "トットリケン",
    "prefecture_code": 31,
    "city": "鳥取市",
    "city_kana": "トットリシ",
    "town": "若葉台南",
    "town_kana": "ワカバダイミナミ",
    "street": null,
    "office_name": null,
    "office_name_kana": null
  },
  "1113": {
    "postcode": "6891113",
    "prefecture": "鳥取県",
    "prefecture_kana": "トットリケン",
    "prefecture_code": 31,
    "city": "鳥取市",
    "city_kana": "トットリシ",
    "town": "祢宜谷",
    "town_kana": "ネギダニ",
    "street": null,
    "office_name": null,
    "office_name_kana": null
  },
  "1114": {
    "postcode": "6891114",
    "prefecture": "鳥取県",
    "prefecture_kana": "トットリケン",
    "prefecture_code": 31,
    "city": "鳥取市",
    "city_kana": "トットリシ",
    "town": "香取",
    "town_kana": "カトリ",
    "street": null,
    "office_name": null,
    "office_name_kana": null
  },
  "1115": {
    "postcode": "6891115",
    "prefecture": "鳥取県",
    "prefecture_kana": "トットリケン",
    "prefecture_code": 31,
    "city": "鳥取市",
    "city_kana": "トットリシ",
    "town": "紙子谷",
    "town_kana": "カゴダニ",
    "street": null,
    "office_name": null,
    "office_name_kana": null
  },
  "1116": {
    "postcode": "6891116",
    "prefecture": "鳥取県",
    "prefecture_kana": "トットリケン",
    "prefecture_code": 31,
    "city": "鳥取市",
    "city_kana": "トットリシ",
    "town": "広岡",
    "town_kana": "ヒロオカ",
    "street": null,
    "office_name": null,
    "office_name_kana": null
  },
  "1117": {
    "postcode": "6891117",
    "prefecture": "鳥取県",
    "prefecture_kana": "トットリケン",
    "prefecture_code": 31,
    "city": "鳥取市",
    "city_kana": "トットリシ",
    "town": "海蔵寺",
    "town_kana": "カイゾウジ",
    "street": null,
    "office_name": null,
    "office_name_kana": null
  },
  "1121": {
    "postcode": "6891121",
    "prefecture": "鳥取県",
    "prefecture_kana": "トットリケン",
    "prefecture_code": 31,
    "city": "鳥取市",
    "city_kana": "トットリシ",
    "town": "南栄町",
    "town_kana": "ナンエイチョウ",
    "street": null,
    "office_name": null,
    "office_name_kana": null
  },
  "1122": {
    "postcode": "6891122",
    "prefecture": "鳥取県",
    "prefecture_kana": "トットリケン",
    "prefecture_code": 31,
    "city": "鳥取市",
    "city_kana": "トットリシ",
    "town": "船木",
    "town_kana": "フナキ",
    "street": null,
    "office_name": null,
    "office_name_kana": null
  },
  "1123": {
    "postcode": "6891123",
    "prefecture": "鳥取県",
    "prefecture_kana": "トットリケン",
    "prefecture_code": 31,
    "city": "鳥取市",
    "city_kana": "トットリシ",
    "town": "久末",
    "town_kana": "ヒサスエ",
    "street": null,
    "office_name": null,
    "office_name_kana": null
  },
  "1124": {
    "postcode": "6891124",
    "prefecture": "鳥取県",
    "prefecture_kana": "トットリケン",
    "prefecture_code": 31,
    "city": "鳥取市",
    "city_kana": "トットリシ",
    "town": "越路",
    "town_kana": "コイジ",
    "street": null,
    "office_name": null,
    "office_name_kana": null
  },
  "1125": {
    "postcode": "6891125",
    "prefecture": "鳥取県",
    "prefecture_kana": "トットリケン",
    "prefecture_code": 31,
    "city": "鳥取市",
    "city_kana": "トットリシ",
    "town": "古郡家",
    "town_kana": "ココオゲ",
    "street": null,
    "office_name": null,
    "office_name_kana": null
  },
  "1126": {
    "postcode": "6891126",
    "prefecture": "鳥取県",
    "prefecture_kana": "トットリケン",
    "prefecture_code": 31,
    "city": "鳥取市",
    "city_kana": "トットリシ",
    "town": "美和",
    "town_kana": "ミワ",
    "street": null,
    "office_name": null,
    "office_name_kana": null
  },
  "1192": {
    "postcode": "6891192",
    "prefecture": "鳥取県",
    "prefecture_kana": "トットリケン",
    "prefecture_code": 31,
    "city": "鳥取市",
    "city_kana": "トットリシ",
    "town": "南栄町",
    "town_kana": "ナンエイチョウ",
    "street": "１８",
    "office_name": "ダイヤモンド電機　株式会社",
    "office_name_kana": "ダイヤモンドデンキ カブシキガイシヤ"
  },
  "1193": {
    "postcode": "6891193",
    "prefecture": "鳥取県",
    "prefecture_kana": "トットリケン",
    "prefecture_code": 31,
    "city": "鳥取市",
    "city_kana": "トットリシ",
    "town": "広岡",
    "town_kana": "ヒロオカ",
    "street": "１７６−１７",
    "office_name": "日本セラミック　株式会社",
    "office_name_kana": "ニホンセラミツク カブシキガイシヤ"
  },
  "1201": {
    "postcode": "6891201",
    "prefecture": "鳥取県",
    "prefecture_kana": "トットリケン",
    "prefecture_code": 31,
    "city": "鳥取市",
    "city_kana": "トットリシ",
    "town": "用瀬町用瀬",
    "town_kana": "モチガセチョウモチガセ",
    "street": null,
    "office_name": null,
    "office_name_kana": null
  },
  "1211": {
    "postcode": "6891211",
    "prefecture": "鳥取県",
    "prefecture_kana": "トットリケン",
    "prefecture_code": 31,
    "city": "鳥取市",
    "city_kana": "トットリシ",
    "town": "用瀬町別府",
    "town_kana": "モチガセチョウベフ",
    "street": null,
    "office_name": null,
    "office_name_kana": null
  },
  "1212": {
    "postcode": "6891212",
    "prefecture": "鳥取県",
    "prefecture_kana": "トットリケン",
    "prefecture_code": 31,
    "city": "鳥取市",
    "city_kana": "トットリシ",
    "town": "用瀬町美成",
    "town_kana": "モチガセチョウミナリ",
    "street": null,
    "office_name": null,
    "office_name_kana": null
  },
  "1213": {
    "postcode": "6891213",
    "prefecture": "鳥取県",
    "prefecture_kana": "トットリケン",
    "prefecture_code": 31,
    "city": "鳥取市",
    "city_kana": "トットリシ",
    "town": "用瀬町鷹狩",
    "town_kana": "モチガセチョウタカガリ",
    "street": null,
    "office_name": null,
    "office_name_kana": null
  },
  "1214": {
    "postcode": "6891214",
    "prefecture": "鳥取県",
    "prefecture_kana": "トットリケン",
    "prefecture_code": 31,
    "city": "鳥取市",
    "city_kana": "トットリシ",
    "town": "用瀬町旭ケ丘",
    "town_kana": "モチガセチョウアサヒガオカ",
    "street": null,
    "office_name": null,
    "office_name_kana": null
  },
  "1215": {
    "postcode": "6891215",
    "prefecture": "鳥取県",
    "prefecture_kana": "トットリケン",
    "prefecture_code": 31,
    "city": "鳥取市",
    "city_kana": "トットリシ",
    "town": "用瀬町赤波",
    "town_kana": "モチガセチョウアガナミ",
    "street": null,
    "office_name": null,
    "office_name_kana": null
  },
  "1221": {
    "postcode": "6891221",
    "prefecture": "鳥取県",
    "prefecture_kana": "トットリケン",
    "prefecture_code": 31,
    "city": "鳥取市",
    "city_kana": "トットリシ",
    "town": "用瀬町古用瀬",
    "town_kana": "モチガセチョウフルモチガセ",
    "street": null,
    "office_name": null,
    "office_name_kana": null
  },
  "1222": {
    "postcode": "6891222",
    "prefecture": "鳥取県",
    "prefecture_kana": "トットリケン",
    "prefecture_code": 31,
    "city": "鳥取市",
    "city_kana": "トットリシ",
    "town": "用瀬町家奥",
    "town_kana": "モチガセチョウイエオク",
    "street": null,
    "office_name": null,
    "office_name_kana": null
  },
  "1223": {
    "postcode": "6891223",
    "prefecture": "鳥取県",
    "prefecture_kana": "トットリケン",
    "prefecture_code": 31,
    "city": "鳥取市",
    "city_kana": "トットリシ",
    "town": "用瀬町金屋",
    "town_kana": "モチガセチョウカナヤ",
    "street": null,
    "office_name": null,
    "office_name_kana": null
  },
  "1224": {
    "postcode": "6891224",
    "prefecture": "鳥取県",
    "prefecture_kana": "トットリケン",
    "prefecture_code": 31,
    "city": "鳥取市",
    "city_kana": "トットリシ",
    "town": "用瀬町樟原",
    "town_kana": "モチガセチョウクヌギワラ",
    "street": null,
    "office_name": null,
    "office_name_kana": null
  },
  "1225": {
    "postcode": "6891225",
    "prefecture": "鳥取県",
    "prefecture_kana": "トットリケン",
    "prefecture_code": 31,
    "city": "鳥取市",
    "city_kana": "トットリシ",
    "town": "用瀬町宮原",
    "town_kana": "モチガセチョウミヤバラ",
    "street": null,
    "office_name": null,
    "office_name_kana": null
  },
  "1226": {
    "postcode": "6891226",
    "prefecture": "鳥取県",
    "prefecture_kana": "トットリケン",
    "prefecture_code": 31,
    "city": "鳥取市",
    "city_kana": "トットリシ",
    "town": "用瀬町川中",
    "town_kana": "モチガセチョウカワナカ",
    "street": null,
    "office_name": null,
    "office_name_kana": null
  },
  "1227": {
    "postcode": "6891227",
    "prefecture": "鳥取県",
    "prefecture_kana": "トットリケン",
    "prefecture_code": 31,
    "city": "鳥取市",
    "city_kana": "トットリシ",
    "town": "用瀬町安蔵",
    "town_kana": "モチガセチョウアゾウ",
    "street": null,
    "office_name": null,
    "office_name_kana": null
  },
  "1228": {
    "postcode": "6891228",
    "prefecture": "鳥取県",
    "prefecture_kana": "トットリケン",
    "prefecture_code": 31,
    "city": "鳥取市",
    "city_kana": "トットリシ",
    "town": "用瀬町屋住",
    "town_kana": "モチガセチョウヤズミ",
    "street": null,
    "office_name": null,
    "office_name_kana": null
  },
  "1229": {
    "postcode": "6891229",
    "prefecture": "鳥取県",
    "prefecture_kana": "トットリケン",
    "prefecture_code": 31,
    "city": "鳥取市",
    "city_kana": "トットリシ",
    "town": "用瀬町江波",
    "town_kana": "モチガセチョウエナミ",
    "street": null,
    "office_name": null,
    "office_name_kana": null
  },
  "1301": {
    "postcode": "6891301",
    "prefecture": "鳥取県",
    "prefecture_kana": "トットリケン",
    "prefecture_code": 31,
    "city": "鳥取市",
    "city_kana": "トットリシ",
    "town": "佐治町葛谷",
    "town_kana": "サジチョウカズラタニ",
    "street": null,
    "office_name": null,
    "office_name_kana": null
  },
  "1302": {
    "postcode": "6891302",
    "prefecture": "鳥取県",
    "prefecture_kana": "トットリケン",
    "prefecture_code": 31,
    "city": "鳥取市",
    "city_kana": "トットリシ",
    "town": "佐治町小原",
    "town_kana": "サジチョウコバラ",
    "street": null,
    "office_name": null,
    "office_name_kana": null
  },
  "1303": {
    "postcode": "6891303",
    "prefecture": "鳥取県",
    "prefecture_kana": "トットリケン",
    "prefecture_code": 31,
    "city": "鳥取市",
    "city_kana": "トットリシ",
    "town": "佐治町刈地",
    "town_kana": "サジチョウカルチ",
    "street": null,
    "office_name": null,
    "office_name_kana": null
  },
  "1304": {
    "postcode": "6891304",
    "prefecture": "鳥取県",
    "prefecture_kana": "トットリケン",
    "prefecture_code": 31,
    "city": "鳥取市",
    "city_kana": "トットリシ",
    "town": "佐治町大井",
    "town_kana": "サジチョウオオイ",
    "street": null,
    "office_name": null,
    "office_name_kana": null
  },
  "1305": {
    "postcode": "6891305",
    "prefecture": "鳥取県",
    "prefecture_kana": "トットリケン",
    "prefecture_code": 31,
    "city": "鳥取市",
    "city_kana": "トットリシ",
    "town": "佐治町森坪",
    "town_kana": "サジチョウモリツボ",
    "street": null,
    "office_name": null,
    "office_name_kana": null
  },
  "1306": {
    "postcode": "6891306",
    "prefecture": "鳥取県",
    "prefecture_kana": "トットリケン",
    "prefecture_code": 31,
    "city": "鳥取市",
    "city_kana": "トットリシ",
    "town": "佐治町古市",
    "town_kana": "サジチョウフルイチ",
    "street": null,
    "office_name": null,
    "office_name_kana": null
  },
  "1307": {
    "postcode": "6891307",
    "prefecture": "鳥取県",
    "prefecture_kana": "トットリケン",
    "prefecture_code": 31,
    "city": "鳥取市",
    "city_kana": "トットリシ",
    "town": "佐治町津無",
    "town_kana": "サジチョウツナシ",
    "street": null,
    "office_name": null,
    "office_name_kana": null
  },
  "1311": {
    "postcode": "6891311",
    "prefecture": "鳥取県",
    "prefecture_kana": "トットリケン",
    "prefecture_code": 31,
    "city": "鳥取市",
    "city_kana": "トットリシ",
    "town": "佐治町津野",
    "town_kana": "サジチョウツノ",
    "street": null,
    "office_name": null,
    "office_name_kana": null
  },
  "1312": {
    "postcode": "6891312",
    "prefecture": "鳥取県",
    "prefecture_kana": "トットリケン",
    "prefecture_code": 31,
    "city": "鳥取市",
    "city_kana": "トットリシ",
    "town": "佐治町高山",
    "town_kana": "サジチョウタカヤマ",
    "street": null,
    "office_name": null,
    "office_name_kana": null
  },
  "1313": {
    "postcode": "6891313",
    "prefecture": "鳥取県",
    "prefecture_kana": "トットリケン",
    "prefecture_code": 31,
    "city": "鳥取市",
    "city_kana": "トットリシ",
    "town": "佐治町加瀬木",
    "town_kana": "サジチョウカセギ",
    "street": null,
    "office_name": null,
    "office_name_kana": null
  },
  "1314": {
    "postcode": "6891314",
    "prefecture": "鳥取県",
    "prefecture_kana": "トットリケン",
    "prefecture_code": 31,
    "city": "鳥取市",
    "city_kana": "トットリシ",
    "town": "佐治町加茂",
    "town_kana": "サジチョウカモ",
    "street": null,
    "office_name": null,
    "office_name_kana": null
  },
  "1315": {
    "postcode": "6891315",
    "prefecture": "鳥取県",
    "prefecture_kana": "トットリケン",
    "prefecture_code": 31,
    "city": "鳥取市",
    "city_kana": "トットリシ",
    "town": "佐治町畑",
    "town_kana": "サジチョウハタ",
    "street": null,
    "office_name": null,
    "office_name_kana": null
  },
  "1316": {
    "postcode": "6891316",
    "prefecture": "鳥取県",
    "prefecture_kana": "トットリケン",
    "prefecture_code": 31,
    "city": "鳥取市",
    "city_kana": "トットリシ",
    "town": "佐治町福園",
    "town_kana": "サジチョウフクゾノ",
    "street": null,
    "office_name": null,
    "office_name_kana": null
  },
  "1321": {
    "postcode": "6891321",
    "prefecture": "鳥取県",
    "prefecture_kana": "トットリケン",
    "prefecture_code": 31,
    "city": "鳥取市",
    "city_kana": "トットリシ",
    "town": "佐治町河本",
    "town_kana": "サジチョウカワモト",
    "street": null,
    "office_name": null,
    "office_name_kana": null
  },
  "1322": {
    "postcode": "6891322",
    "prefecture": "鳥取県",
    "prefecture_kana": "トットリケン",
    "prefecture_code": 31,
    "city": "鳥取市",
    "city_kana": "トットリシ",
    "town": "佐治町つく谷",
    "town_kana": "サジチョウツクダニ",
    "street": null,
    "office_name": null,
    "office_name_kana": null
  },
  "1323": {
    "postcode": "6891323",
    "prefecture": "鳥取県",
    "prefecture_kana": "トットリケン",
    "prefecture_code": 31,
    "city": "鳥取市",
    "city_kana": "トットリシ",
    "town": "佐治町余戸",
    "town_kana": "サジチョウヨド",
    "street": null,
    "office_name": null,
    "office_name_kana": null
  },
  "1324": {
    "postcode": "6891324",
    "prefecture": "鳥取県",
    "prefecture_kana": "トットリケン",
    "prefecture_code": 31,
    "city": "鳥取市",
    "city_kana": "トットリシ",
    "town": "佐治町尾際",
    "town_kana": "サジチョウオワイ",
    "street": null,
    "office_name": null,
    "office_name_kana": null
  },
  "1325": {
    "postcode": "6891325",
    "prefecture": "鳥取県",
    "prefecture_kana": "トットリケン",
    "prefecture_code": 31,
    "city": "鳥取市",
    "city_kana": "トットリシ",
    "town": "佐治町中",
    "town_kana": "サジチョウナカ",
    "street": null,
    "office_name": null,
    "office_name_kana": null
  },
  "1326": {
    "postcode": "6891326",
    "prefecture": "鳥取県",
    "prefecture_kana": "トットリケン",
    "prefecture_code": 31,
    "city": "鳥取市",
    "city_kana": "トットリシ",
    "town": "佐治町栃原",
    "town_kana": "サジチョウトチワラ",
    "street": null,
    "office_name": null,
    "office_name_kana": null
  },
  "1400": {
    "postcode": "6891400",
    "prefecture": "鳥取県",
    "prefecture_kana": "トットリケン",
    "prefecture_code": 31,
    "city": "八頭郡智頭町",
    "city_kana": "ヤズグンチヅチョウ",
    "town": "",
    "town_kana": "",
    "street": null,
    "office_name": null,
    "office_name_kana": null
  },
  "1401": {
    "postcode": "6891401",
    "prefecture": "鳥取県",
    "prefecture_kana": "トットリケン",
    "prefecture_code": 31,
    "city": "八頭郡智頭町",
    "city_kana": "ヤズグンチヅチョウ",
    "town": "市瀬",
    "town_kana": "イチノセ",
    "street": null,
    "office_name": null,
    "office_name_kana": null
  },
  "1402": {
    "postcode": "6891402",
    "prefecture": "鳥取県",
    "prefecture_kana": "トットリケン",
    "prefecture_code": 31,
    "city": "八頭郡智頭町",
    "city_kana": "ヤズグンチヅチョウ",
    "town": "智頭",
    "town_kana": "チズ",
    "street": null,
    "office_name": null,
    "office_name_kana": null
  },
  "1403": {
    "postcode": "6891403",
    "prefecture": "鳥取県",
    "prefecture_kana": "トットリケン",
    "prefecture_code": 31,
    "city": "八頭郡智頭町",
    "city_kana": "ヤズグンチヅチョウ",
    "town": "南方",
    "town_kana": "ミナミガタ",
    "street": null,
    "office_name": null,
    "office_name_kana": null
  },
  "1404": {
    "postcode": "6891404",
    "prefecture": "鳥取県",
    "prefecture_kana": "トットリケン",
    "prefecture_code": 31,
    "city": "八頭郡智頭町",
    "city_kana": "ヤズグンチヅチョウ",
    "town": "岩神",
    "town_kana": "イワガミ",
    "street": null,
    "office_name": null,
    "office_name_kana": null
  },
  "1411": {
    "postcode": "6891411",
    "prefecture": "鳥取県",
    "prefecture_kana": "トットリケン",
    "prefecture_code": 31,
    "city": "八頭郡智頭町",
    "city_kana": "ヤズグンチヅチョウ",
    "town": "八河谷",
    "town_kana": "ヤコウダニ",
    "street": null,
    "office_name": null,
    "office_name_kana": null
  },
  "1412": {
    "postcode": "6891412",
    "prefecture": "鳥取県",
    "prefecture_kana": "トットリケン",
    "prefecture_code": 31,
    "city": "八頭郡智頭町",
    "city_kana": "ヤズグンチヅチョウ",
    "town": "芦津",
    "town_kana": "アシヅ",
    "street": null,
    "office_name": null,
    "office_name_kana": null
  },
  "1413": {
    "postcode": "6891413",
    "prefecture": "鳥取県",
    "prefecture_kana": "トットリケン",
    "prefecture_code": 31,
    "city": "八頭郡智頭町",
    "city_kana": "ヤズグンチヅチョウ",
    "town": "大呂",
    "town_kana": "オオロ",
    "street": null,
    "office_name": null,
    "office_name_kana": null
  },
  "1414": {
    "postcode": "6891414",
    "prefecture": "鳥取県",
    "prefecture_kana": "トットリケン",
    "prefecture_code": 31,
    "city": "八頭郡智頭町",
    "city_kana": "ヤズグンチヅチョウ",
    "town": "西野",
    "town_kana": "ニシノ",
    "street": null,
    "office_name": null,
    "office_name_kana": null
  },
  "1415": {
    "postcode": "6891415",
    "prefecture": "鳥取県",
    "prefecture_kana": "トットリケン",
    "prefecture_code": 31,
    "city": "八頭郡智頭町",
    "city_kana": "ヤズグンチヅチョウ",
    "town": "郷原",
    "town_kana": "ゴウバラ",
    "street": null,
    "office_name": null,
    "office_name_kana": null
  },
  "1416": {
    "postcode": "6891416",
    "prefecture": "鳥取県",
    "prefecture_kana": "トットリケン",
    "prefecture_code": 31,
    "city": "八頭郡智頭町",
    "city_kana": "ヤズグンチヅチョウ",
    "town": "毛谷",
    "town_kana": "ケダニ",
    "street": null,
    "office_name": null,
    "office_name_kana": null
  },
  "1417": {
    "postcode": "6891417",
    "prefecture": "鳥取県",
    "prefecture_kana": "トットリケン",
    "prefecture_code": 31,
    "city": "八頭郡智頭町",
    "city_kana": "ヤズグンチヅチョウ",
    "town": "篠坂",
    "town_kana": "シノザカ",
    "street": null,
    "office_name": null,
    "office_name_kana": null
  },
  "1421": {
    "postcode": "6891421",
    "prefecture": "鳥取県",
    "prefecture_kana": "トットリケン",
    "prefecture_code": 31,
    "city": "八頭郡智頭町",
    "city_kana": "ヤズグンチヅチョウ",
    "town": "大内",
    "town_kana": "オオチ",
    "street": null,
    "office_name": null,
    "office_name_kana": null
  },
  "1422": {
    "postcode": "6891422",
    "prefecture": "鳥取県",
    "prefecture_kana": "トットリケン",
    "prefecture_code": 31,
    "city": "八頭郡智頭町",
    "city_kana": "ヤズグンチヅチョウ",
    "town": "尾見",
    "town_kana": "オミ",
    "street": null,
    "office_name": null,
    "office_name_kana": null
  },
  "1423": {
    "postcode": "6891423",
    "prefecture": "鳥取県",
    "prefecture_kana": "トットリケン",
    "prefecture_code": 31,
    "city": "八頭郡智頭町",
    "city_kana": "ヤズグンチヅチョウ",
    "town": "中原",
    "town_kana": "ナカバラ",
    "street": null,
    "office_name": null,
    "office_name_kana": null
  },
  "1424": {
    "postcode": "6891424",
    "prefecture": "鳥取県",
    "prefecture_kana": "トットリケン",
    "prefecture_code": 31,
    "city": "八頭郡智頭町",
    "city_kana": "ヤズグンチヅチョウ",
    "town": "駒帰",
    "town_kana": "コマガエリ",
    "street": null,
    "office_name": null,
    "office_name_kana": null
  },
  "1425": {
    "postcode": "6891425",
    "prefecture": "鳥取県",
    "prefecture_kana": "トットリケン",
    "prefecture_code": 31,
    "city": "八頭郡智頭町",
    "city_kana": "ヤズグンチヅチョウ",
    "town": "福原",
    "town_kana": "フクワラ",
    "street": null,
    "office_name": null,
    "office_name_kana": null
  },
  "1426": {
    "postcode": "6891426",
    "prefecture": "鳥取県",
    "prefecture_kana": "トットリケン",
    "prefecture_code": 31,
    "city": "八頭郡智頭町",
    "city_kana": "ヤズグンチヅチョウ",
    "town": "西谷",
    "town_kana": "ニシダニ",
    "street": null,
    "office_name": null,
    "office_name_kana": null
  },
  "1431": {
    "postcode": "6891431",
    "prefecture": "鳥取県",
    "prefecture_kana": "トットリケン",
    "prefecture_code": 31,
    "city": "八頭郡智頭町",
    "city_kana": "ヤズグンチヅチョウ",
    "town": "山根",
    "town_kana": "ヤマネ",
    "street": null,
    "office_name": null,
    "office_name_kana": null
  },
  "1432": {
    "postcode": "6891432",
    "prefecture": "鳥取県",
    "prefecture_kana": "トットリケン",
    "prefecture_code": 31,
    "city": "八頭郡智頭町",
    "city_kana": "ヤズグンチヅチョウ",
    "town": "穂見",
    "town_kana": "ホノミ",
    "street": null,
    "office_name": null,
    "office_name_kana": null
  },
  "1433": {
    "postcode": "6891433",
    "prefecture": "鳥取県",
    "prefecture_kana": "トットリケン",
    "prefecture_code": 31,
    "city": "八頭郡智頭町",
    "city_kana": "ヤズグンチヅチョウ",
    "town": "埴師",
    "town_kana": "ハニシ",
    "street": null,
    "office_name": null,
    "office_name_kana": null
  },
  "1434": {
    "postcode": "6891434",
    "prefecture": "鳥取県",
    "prefecture_kana": "トットリケン",
    "prefecture_code": 31,
    "city": "八頭郡智頭町",
    "city_kana": "ヤズグンチヅチョウ",
    "town": "三吉",
    "town_kana": "ミヨシ",
    "street": null,
    "office_name": null,
    "office_name_kana": null
  },
  "1435": {
    "postcode": "6891435",
    "prefecture": "鳥取県",
    "prefecture_kana": "トットリケン",
    "prefecture_code": 31,
    "city": "八頭郡智頭町",
    "city_kana": "ヤズグンチヅチョウ",
    "town": "横田",
    "town_kana": "ヨコタ",
    "street": null,
    "office_name": null,
    "office_name_kana": null
  },
  "1436": {
    "postcode": "6891436",
    "prefecture": "鳥取県",
    "prefecture_kana": "トットリケン",
    "prefecture_code": 31,
    "city": "八頭郡智頭町",
    "city_kana": "ヤズグンチヅチョウ",
    "town": "木原",
    "town_kana": "キハラ",
    "street": null,
    "office_name": null,
    "office_name_kana": null
  },
  "1437": {
    "postcode": "6891437",
    "prefecture": "鳥取県",
    "prefecture_kana": "トットリケン",
    "prefecture_code": 31,
    "city": "八頭郡智頭町",
    "city_kana": "ヤズグンチヅチョウ",
    "town": "三田",
    "town_kana": "ミタ",
    "street": null,
    "office_name": null,
    "office_name_kana": null
  },
  "1441": {
    "postcode": "6891441",
    "prefecture": "鳥取県",
    "prefecture_kana": "トットリケン",
    "prefecture_code": 31,
    "city": "八頭郡智頭町",
    "city_kana": "ヤズグンチヅチョウ",
    "town": "慶所",
    "town_kana": "ケイジョ",
    "street": null,
    "office_name": null,
    "office_name_kana": null
  },
  "1442": {
    "postcode": "6891442",
    "prefecture": "鳥取県",
    "prefecture_kana": "トットリケン",
    "prefecture_code": 31,
    "city": "八頭郡智頭町",
    "city_kana": "ヤズグンチヅチョウ",
    "town": "大屋",
    "town_kana": "オオヤ",
    "street": null,
    "office_name": null,
    "office_name_kana": null
  },
  "1443": {
    "postcode": "6891443",
    "prefecture": "鳥取県",
    "prefecture_kana": "トットリケン",
    "prefecture_code": 31,
    "city": "八頭郡智頭町",
    "city_kana": "ヤズグンチヅチョウ",
    "town": "真鹿野",
    "town_kana": "マガノ",
    "street": null,
    "office_name": null,
    "office_name_kana": null
  },
  "1444": {
    "postcode": "6891444",
    "prefecture": "鳥取県",
    "prefecture_kana": "トットリケン",
    "prefecture_code": 31,
    "city": "八頭郡智頭町",
    "city_kana": "ヤズグンチヅチョウ",
    "town": "野原",
    "town_kana": "ノバラ",
    "street": null,
    "office_name": null,
    "office_name_kana": null
  },
  "1445": {
    "postcode": "6891445",
    "prefecture": "鳥取県",
    "prefecture_kana": "トットリケン",
    "prefecture_code": 31,
    "city": "八頭郡智頭町",
    "city_kana": "ヤズグンチヅチョウ",
    "town": "早瀬",
    "town_kana": "ハヤセ",
    "street": null,
    "office_name": null,
    "office_name_kana": null
  },
  "1451": {
    "postcode": "6891451",
    "prefecture": "鳥取県",
    "prefecture_kana": "トットリケン",
    "prefecture_code": 31,
    "city": "八頭郡智頭町",
    "city_kana": "ヤズグンチヅチョウ",
    "town": "大背",
    "town_kana": "オオセ",
    "street": null,
    "office_name": null,
    "office_name_kana": null
  },
  "1452": {
    "postcode": "6891452",
    "prefecture": "鳥取県",
    "prefecture_kana": "トットリケン",
    "prefecture_code": 31,
    "city": "八頭郡智頭町",
    "city_kana": "ヤズグンチヅチョウ",
    "town": "奥本",
    "town_kana": "オクモト",
    "street": null,
    "office_name": null,
    "office_name_kana": null
  },
  "1453": {
    "postcode": "6891453",
    "prefecture": "鳥取県",
    "prefecture_kana": "トットリケン",
    "prefecture_code": 31,
    "city": "八頭郡智頭町",
    "city_kana": "ヤズグンチヅチョウ",
    "town": "東宇塚",
    "town_kana": "ヒガシウヅカ",
    "street": null,
    "office_name": null,
    "office_name_kana": null
  },
  "1454": {
    "postcode": "6891454",
    "prefecture": "鳥取県",
    "prefecture_kana": "トットリケン",
    "prefecture_code": 31,
    "city": "八頭郡智頭町",
    "city_kana": "ヤズグンチヅチョウ",
    "town": "河津原",
    "town_kana": "コウヅワラ",
    "street": null,
    "office_name": null,
    "office_name_kana": null
  },
  "1455": {
    "postcode": "6891455",
    "prefecture": "鳥取県",
    "prefecture_kana": "トットリケン",
    "prefecture_code": 31,
    "city": "八頭郡智頭町",
    "city_kana": "ヤズグンチヅチョウ",
    "town": "西宇塚",
    "town_kana": "ニシウヅカ",
    "street": null,
    "office_name": null,
    "office_name_kana": null
  },
  "1461": {
    "postcode": "6891461",
    "prefecture": "鳥取県",
    "prefecture_kana": "トットリケン",
    "prefecture_code": 31,
    "city": "八頭郡智頭町",
    "city_kana": "ヤズグンチヅチョウ",
    "town": "坂原",
    "town_kana": "サカワラ",
    "street": null,
    "office_name": null,
    "office_name_kana": null
  },
  "1462": {
    "postcode": "6891462",
    "prefecture": "鳥取県",
    "prefecture_kana": "トットリケン",
    "prefecture_code": 31,
    "city": "八頭郡智頭町",
    "city_kana": "ヤズグンチヅチョウ",
    "town": "中田",
    "town_kana": "ナカダ",
    "street": null,
    "office_name": null,
    "office_name_kana": null
  },
  "1463": {
    "postcode": "6891463",
    "prefecture": "鳥取県",
    "prefecture_kana": "トットリケン",
    "prefecture_code": 31,
    "city": "八頭郡智頭町",
    "city_kana": "ヤズグンチヅチョウ",
    "town": "新見",
    "town_kana": "ニイミ",
    "street": null,
    "office_name": null,
    "office_name_kana": null
  },
  "1464": {
    "postcode": "6891464",
    "prefecture": "鳥取県",
    "prefecture_kana": "トットリケン",
    "prefecture_code": 31,
    "city": "八頭郡智頭町",
    "city_kana": "ヤズグンチヅチョウ",
    "town": "口宇波",
    "town_kana": "クチウナミ",
    "street": null,
    "office_name": null,
    "office_name_kana": null
  },
  "1465": {
    "postcode": "6891465",
    "prefecture": "鳥取県",
    "prefecture_kana": "トットリケン",
    "prefecture_code": 31,
    "city": "八頭郡智頭町",
    "city_kana": "ヤズグンチヅチョウ",
    "town": "宇波",
    "town_kana": "ウナミ",
    "street": null,
    "office_name": null,
    "office_name_kana": null
  },
  "1466": {
    "postcode": "6891466",
    "prefecture": "鳥取県",
    "prefecture_kana": "トットリケン",
    "prefecture_code": 31,
    "city": "八頭郡智頭町",
    "city_kana": "ヤズグンチヅチョウ",
    "town": "波多",
    "town_kana": "ハタ",
    "street": null,
    "office_name": null,
    "office_name_kana": null
  },
  "1467": {
    "postcode": "6891467",
    "prefecture": "鳥取県",
    "prefecture_kana": "トットリケン",
    "prefecture_code": 31,
    "city": "八頭郡智頭町",
    "city_kana": "ヤズグンチヅチョウ",
    "town": "口波多",
    "town_kana": "クチハタ",
    "street": null,
    "office_name": null,
    "office_name_kana": null
  },
  "1468": {
    "postcode": "6891468",
    "prefecture": "鳥取県",
    "prefecture_kana": "トットリケン",
    "prefecture_code": 31,
    "city": "八頭郡智頭町",
    "city_kana": "ヤズグンチヅチョウ",
    "town": "惣地",
    "town_kana": "ソウチ",
    "street": null,
    "office_name": null,
    "office_name_kana": null
  },
  "2101": {
    "postcode": "6892101",
    "prefecture": "鳥取県",
    "prefecture_kana": "トットリケン",
    "prefecture_code": 31,
    "city": "東伯郡北栄町",
    "city_kana": "トウハクグンホクエイチョウ",
    "town": "江北",
    "town_kana": "エキタ",
    "street": null,
    "office_name": null,
    "office_name_kana": null
  },
  "2102": {
    "postcode": "6892102",
    "prefecture": "鳥取県",
    "prefecture_kana": "トットリケン",
    "prefecture_code": 31,
    "city": "東伯郡北栄町",
    "city_kana": "トウハクグンホクエイチョウ",
    "town": "国坂",
    "town_kana": "クニサカ",
    "street": null,
    "office_name": null,
    "office_name_kana": null
  },
  "2103": {
    "postcode": "6892103",
    "prefecture": "鳥取県",
    "prefecture_kana": "トットリケン",
    "prefecture_code": 31,
    "city": "東伯郡北栄町",
    "city_kana": "トウハクグンホクエイチョウ",
    "town": "田井",
    "town_kana": "タイ",
    "street": null,
    "office_name": null,
    "office_name_kana": null
  },
  "2104": {
    "postcode": "6892104",
    "prefecture": "鳥取県",
    "prefecture_kana": "トットリケン",
    "prefecture_code": 31,
    "city": "東伯郡北栄町",
    "city_kana": "トウハクグンホクエイチョウ",
    "town": "弓原",
    "town_kana": "ユミハラ",
    "street": null,
    "office_name": null,
    "office_name_kana": null
  },
  "2105": {
    "postcode": "6892105",
    "prefecture": "鳥取県",
    "prefecture_kana": "トットリケン",
    "prefecture_code": 31,
    "city": "東伯郡北栄町",
    "city_kana": "トウハクグンホクエイチョウ",
    "town": "下神",
    "town_kana": "シモツワ",
    "street": null,
    "office_name": null,
    "office_name_kana": null
  },
  "2106": {
    "postcode": "6892106",
    "prefecture": "鳥取県",
    "prefecture_kana": "トットリケン",
    "prefecture_code": 31,
    "city": "東伯郡北栄町",
    "city_kana": "トウハクグンホクエイチョウ",
    "town": "松神",
    "town_kana": "マツガミ",
    "street": null,
    "office_name": null,
    "office_name_kana": null
  },
  "2111": {
    "postcode": "6892111",
    "prefecture": "鳥取県",
    "prefecture_kana": "トットリケン",
    "prefecture_code": 31,
    "city": "東伯郡北栄町",
    "city_kana": "トウハクグンホクエイチョウ",
    "town": "土下",
    "town_kana": "ハシタ",
    "street": null,
    "office_name": null,
    "office_name_kana": null
  },
  "2112": {
    "postcode": "6892112",
    "prefecture": "鳥取県",
    "prefecture_kana": "トットリケン",
    "prefecture_code": 31,
    "city": "東伯郡北栄町",
    "city_kana": "トウハクグンホクエイチョウ",
    "town": "北条島",
    "town_kana": "ホウジョウシマ",
    "street": null,
    "office_name": null,
    "office_name_kana": null
  },
  "2113": {
    "postcode": "6892113",
    "prefecture": "鳥取県",
    "prefecture_kana": "トットリケン",
    "prefecture_code": 31,
    "city": "東伯郡北栄町",
    "city_kana": "トウハクグンホクエイチョウ",
    "town": "米里",
    "town_kana": "ヨネサト",
    "street": null,
    "office_name": null,
    "office_name_kana": null
  },
  "2114": {
    "postcode": "6892114",
    "prefecture": "鳥取県",
    "prefecture_kana": "トットリケン",
    "prefecture_code": 31,
    "city": "東伯郡北栄町",
    "city_kana": "トウハクグンホクエイチョウ",
    "town": "北尾",
    "town_kana": "キタオ",
    "street": null,
    "office_name": null,
    "office_name_kana": null
  },
  "2115": {
    "postcode": "6892115",
    "prefecture": "鳥取県",
    "prefecture_kana": "トットリケン",
    "prefecture_code": 31,
    "city": "東伯郡北栄町",
    "city_kana": "トウハクグンホクエイチョウ",
    "town": "曲",
    "town_kana": "マガリ",
    "street": null,
    "office_name": null,
    "office_name_kana": null
  },
  "2200": {
    "postcode": "6892200",
    "prefecture": "鳥取県",
    "prefecture_kana": "トットリケン",
    "prefecture_code": 31,
    "city": "東伯郡北栄町",
    "city_kana": "トウハクグンホクエイチョウ",
    "town": "",
    "town_kana": "",
    "street": null,
    "office_name": null,
    "office_name_kana": null
  },
  "2201": {
    "postcode": "6892201",
    "prefecture": "鳥取県",
    "prefecture_kana": "トットリケン",
    "prefecture_code": 31,
    "city": "東伯郡北栄町",
    "city_kana": "トウハクグンホクエイチョウ",
    "town": "西園",
    "town_kana": "ニシソノ",
    "street": null,
    "office_name": null,
    "office_name_kana": null
  },
  "2202": {
    "postcode": "6892202",
    "prefecture": "鳥取県",
    "prefecture_kana": "トットリケン",
    "prefecture_code": 31,
    "city": "東伯郡北栄町",
    "city_kana": "トウハクグンホクエイチョウ",
    "town": "東園",
    "town_kana": "ヒガシソノ",
    "street": null,
    "office_name": null,
    "office_name_kana": null
  },
  "2203": {
    "postcode": "6892203",
    "prefecture": "鳥取県",
    "prefecture_kana": "トットリケン",
    "prefecture_code": 31,
    "city": "東伯郡北栄町",
    "city_kana": "トウハクグンホクエイチョウ",
    "town": "原",
    "town_kana": "ハラ",
    "street": null,
    "office_name": null,
    "office_name_kana": null
  },
  "2204": {
    "postcode": "6892204",
    "prefecture": "鳥取県",
    "prefecture_kana": "トットリケン",
    "prefecture_code": 31,
    "city": "東伯郡北栄町",
    "city_kana": "トウハクグンホクエイチョウ",
    "town": "穂波",
    "town_kana": "ホナミ",
    "street": null,
    "office_name": null,
    "office_name_kana": null
  },
  "2205": {
    "postcode": "6892205",
    "prefecture": "鳥取県",
    "prefecture_kana": "トットリケン",
    "prefecture_code": 31,
    "city": "東伯郡北栄町",
    "city_kana": "トウハクグンホクエイチョウ",
    "town": "瀬戸",
    "town_kana": "セト",
    "street": null,
    "office_name": null,
    "office_name_kana": null
  },
  "2206": {
    "postcode": "6892206",
    "prefecture": "鳥取県",
    "prefecture_kana": "トットリケン",
    "prefecture_code": 31,
    "city": "東伯郡北栄町",
    "city_kana": "トウハクグンホクエイチョウ",
    "town": "大島",
    "town_kana": "オオシマ",
    "street": null,
    "office_name": null,
    "office_name_kana": null
  },
  "2207": {
    "postcode": "6892207",
    "prefecture": "鳥取県",
    "prefecture_kana": "トットリケン",
    "prefecture_code": 31,
    "city": "東伯郡北栄町",
    "city_kana": "トウハクグンホクエイチョウ",
    "town": "西穂波",
    "town_kana": "ニシホナミ",
    "street": null,
    "office_name": null,
    "office_name_kana": null
  },
  "2208": {
    "postcode": "6892208",
    "prefecture": "鳥取県",
    "prefecture_kana": "トットリケン",
    "prefecture_code": 31,
    "city": "東伯郡北栄町",
    "city_kana": "トウハクグンホクエイチョウ",
    "town": "六尾",
    "town_kana": "ムツオ",
    "street": null,
    "office_name": null,
    "office_name_kana": null
  },
  "2211": {
    "postcode": "6892211",
    "prefecture": "鳥取県",
    "prefecture_kana": "トットリケン",
    "prefecture_code": 31,
    "city": "東伯郡北栄町",
    "city_kana": "トウハクグンホクエイチョウ",
    "town": "亀谷",
    "town_kana": "カメダニ",
    "street": null,
    "office_name": null,
    "office_name_kana": null
  },
  "2212": {
    "postcode": "6892212",
    "prefecture": "鳥取県",
    "prefecture_kana": "トットリケン",
    "prefecture_code": 31,
    "city": "東伯郡北栄町",
    "city_kana": "トウハクグンホクエイチョウ",
    "town": "下種",
    "town_kana": "シモダネ",
    "street": null,
    "office_name": null,
    "office_name_kana": null
  },
  "2213": {
    "postcode": "6892213",
    "prefecture": "鳥取県",
    "prefecture_kana": "トットリケン",
    "prefecture_code": 31,
    "city": "東伯郡北栄町",
    "city_kana": "トウハクグンホクエイチョウ",
    "town": "上種",
    "town_kana": "カミダネ",
    "street": null,
    "office_name": null,
    "office_name_kana": null
  },
  "2214": {
    "postcode": "6892214",
    "prefecture": "鳥取県",
    "prefecture_kana": "トットリケン",
    "prefecture_code": 31,
    "city": "東伯郡北栄町",
    "city_kana": "トウハクグンホクエイチョウ",
    "town": "東高尾",
    "town_kana": "ヒガシタカオ",
    "street": null,
    "office_name": null,
    "office_name_kana": null
  },
  "2215": {
    "postcode": "6892215",
    "prefecture": "鳥取県",
    "prefecture_kana": "トットリケン",
    "prefecture_code": 31,
    "city": "東伯郡北栄町",
    "city_kana": "トウハクグンホクエイチョウ",
    "town": "西高尾",
    "town_kana": "ニシタカオ",
    "street": null,
    "office_name": null,
    "office_name_kana": null
  },
  "2216": {
    "postcode": "6892216",
    "prefecture": "鳥取県",
    "prefecture_kana": "トットリケン",
    "prefecture_code": 31,
    "city": "東伯郡北栄町",
    "city_kana": "トウハクグンホクエイチョウ",
    "town": "岩坪",
    "town_kana": "イワツボ",
    "street": null,
    "office_name": null,
    "office_name_kana": null
  },
  "2221": {
    "postcode": "6892221",
    "prefecture": "鳥取県",
    "prefecture_kana": "トットリケン",
    "prefecture_code": 31,
    "city": "東伯郡北栄町",
    "city_kana": "トウハクグンホクエイチョウ",
    "town": "由良宿",
    "town_kana": "ユラシュク",
    "street": null,
    "office_name": null,
    "office_name_kana": null
  },
  "2223": {
    "postcode": "6892223",
    "prefecture": "鳥取県",
    "prefecture_kana": "トットリケン",
    "prefecture_code": 31,
    "city": "東伯郡北栄町",
    "city_kana": "トウハクグンホクエイチョウ",
    "town": "大谷",
    "town_kana": "オオダニ",
    "street": null,
    "office_name": null,
    "office_name_kana": null
  },
  "2224": {
    "postcode": "6892224",
    "prefecture": "鳥取県",
    "prefecture_kana": "トットリケン",
    "prefecture_code": 31,
    "city": "東伯郡北栄町",
    "city_kana": "トウハクグンホクエイチョウ",
    "town": "妻波",
    "town_kana": "ツマナミ",
    "street": null,
    "office_name": null,
    "office_name_kana": null
  },
  "2292": {
    "postcode": "6892292",
    "prefecture": "鳥取県",
    "prefecture_kana": "トットリケン",
    "prefecture_code": 31,
    "city": "東伯郡北栄町",
    "city_kana": "トウハクグンホクエイチョウ",
    "town": "由良宿",
    "town_kana": "ユラシュク",
    "street": "４２３−１",
    "office_name": "北栄町役場　大栄庁舎",
    "office_name_kana": "ホクエイチヨウヤクバ ダイエイチヨウシヤ"
  },
  "2293": {
    "postcode": "6892293",
    "prefecture": "鳥取県",
    "prefecture_kana": "トットリケン",
    "prefecture_code": 31,
    "city": "東伯郡北栄町",
    "city_kana": "トウハクグンホクエイチョウ",
    "town": "東園",
    "town_kana": "ヒガシソノ",
    "street": "３２３−１",
    "office_name": "株式会社　サンセキ",
    "office_name_kana": "カブシキガイシヤ サンセキ"
  },
  "2295": {
    "postcode": "6892295",
    "prefecture": "鳥取県",
    "prefecture_kana": "トットリケン",
    "prefecture_code": 31,
    "city": "東伯郡北栄町",
    "city_kana": "トウハクグンホクエイチョウ",
    "town": "由良宿",
    "town_kana": "ユラシュク",
    "street": "２９１−１",
    "office_name": "鳥取県立　鳥取中央育英高等学校",
    "office_name_kana": "トツトリケンリツ トツトリチユウオウイクエイコウトウガツコウ"
  },
  "2298": {
    "postcode": "6892298",
    "prefecture": "鳥取県",
    "prefecture_kana": "トットリケン",
    "prefecture_code": 31,
    "city": "東伯郡北栄町",
    "city_kana": "トウハクグンホクエイチョウ",
    "town": "由良宿",
    "town_kana": "ユラシュク",
    "street": "５６１",
    "office_name": "ＪＡ鳥取中央　大栄支所",
    "office_name_kana": "ジエイエイトツトリチユウオウ ダイエイシシヨ"
  },
  "2300": {
    "postcode": "6892300",
    "prefecture": "鳥取県",
    "prefecture_kana": "トットリケン",
    "prefecture_code": 31,
    "city": "東伯郡琴浦町",
    "city_kana": "トウハクグンコトウラチョウ",
    "town": "",
    "town_kana": "",
    "street": null,
    "office_name": null,
    "office_name_kana": null
  },
  "2301": {
    "postcode": "6892301",
    "prefecture": "鳥取県",
    "prefecture_kana": "トットリケン",
    "prefecture_code": 31,
    "city": "東伯郡琴浦町",
    "city_kana": "トウハクグンコトウラチョウ",
    "town": "八橋",
    "town_kana": "ヤバセ",
    "street": null,
    "office_name": null,
    "office_name_kana": null
  },
  "2302": {
    "postcode": "6892302",
    "prefecture": "鳥取県",
    "prefecture_kana": "トットリケン",
    "prefecture_code": 31,
    "city": "東伯郡琴浦町",
    "city_kana": "トウハクグンコトウラチョウ",
    "town": "丸尾",
    "town_kana": "マルオ",
    "street": null,
    "office_name": null,
    "office_name_kana": null
  },
  "2303": {
    "postcode": "6892303",
    "prefecture": "鳥取県",
    "prefecture_kana": "トットリケン",
    "prefecture_code": 31,
    "city": "東伯郡琴浦町",
    "city_kana": "トウハクグンコトウラチョウ",
    "town": "徳万",
    "town_kana": "トクマン",
    "street": null,
    "office_name": null,
    "office_name_kana": null
  },
  "2304": {
    "postcode": "6892304",
    "prefecture": "鳥取県",
    "prefecture_kana": "トットリケン",
    "prefecture_code": 31,
    "city": "東伯郡琴浦町",
    "city_kana": "トウハクグンコトウラチョウ",
    "town": "逢束",
    "town_kana": "オオツカ",
    "street": null,
    "office_name": null,
    "office_name_kana": null
  },
  "2305": {
    "postcode": "6892305",
    "prefecture": "鳥取県",
    "prefecture_kana": "トットリケン",
    "prefecture_code": 31,
    "city": "東伯郡琴浦町",
    "city_kana": "トウハクグンコトウラチョウ",
    "town": "槻下",
    "town_kana": "ツキノシタ",
    "street": null,
    "office_name": null,
    "office_name_kana": null
  },
  "2306": {
    "postcode": "6892306",
    "prefecture": "鳥取県",
    "prefecture_kana": "トットリケン",
    "prefecture_code": 31,
    "city": "東伯郡琴浦町",
    "city_kana": "トウハクグンコトウラチョウ",
    "town": "笠見",
    "town_kana": "カサミ",
    "street": null,
    "office_name": null,
    "office_name_kana": null
  },
  "2311": {
    "postcode": "6892311",
    "prefecture": "鳥取県",
    "prefecture_kana": "トットリケン",
    "prefecture_code": 31,
    "city": "東伯郡琴浦町",
    "city_kana": "トウハクグンコトウラチョウ",
    "town": "中尾",
    "town_kana": "ナカオ",
    "street": null,
    "office_name": null,
    "office_name_kana": null
  },
  "2312": {
    "postcode": "6892312",
    "prefecture": "鳥取県",
    "prefecture_kana": "トットリケン",
    "prefecture_code": 31,
    "city": "東伯郡琴浦町",
    "city_kana": "トウハクグンコトウラチョウ",
    "town": "金屋",
    "town_kana": "カナヤ",
    "street": null,
    "office_name": null,
    "office_name_kana": null
  },
  "2313": {
    "postcode": "6892313",
    "prefecture": "鳥取県",
    "prefecture_kana": "トットリケン",
    "prefecture_code": 31,
    "city": "東伯郡琴浦町",
    "city_kana": "トウハクグンコトウラチョウ",
    "town": "杉下",
    "town_kana": "スギシタ",
    "street": null,
    "office_name": null,
    "office_name_kana": null
  },
  "2314": {
    "postcode": "6892314",
    "prefecture": "鳥取県",
    "prefecture_kana": "トットリケン",
    "prefecture_code": 31,
    "city": "東伯郡琴浦町",
    "city_kana": "トウハクグンコトウラチョウ",
    "town": "下大江",
    "town_kana": "シモオオエ",
    "street": null,
    "office_name": null,
    "office_name_kana": null
  },
  "2315": {
    "postcode": "6892315",
    "prefecture": "鳥取県",
    "prefecture_kana": "トットリケン",
    "prefecture_code": 31,
    "city": "東伯郡琴浦町",
    "city_kana": "トウハクグンコトウラチョウ",
    "town": "上伊勢",
    "town_kana": "カミイセ",
    "street": null,
    "office_name": null,
    "office_name_kana": null
  },
  "2316": {
    "postcode": "6892316",
    "prefecture": "鳥取県",
    "prefecture_kana": "トットリケン",
    "prefecture_code": 31,
    "city": "東伯郡琴浦町",
    "city_kana": "トウハクグンコトウラチョウ",
    "town": "下伊勢",
    "town_kana": "シモイセ",
    "street": null,
    "office_name": null,
    "office_name_kana": null
  },
  "2321": {
    "postcode": "6892321",
    "prefecture": "鳥取県",
    "prefecture_kana": "トットリケン",
    "prefecture_code": 31,
    "city": "東伯郡琴浦町",
    "city_kana": "トウハクグンコトウラチョウ",
    "town": "森藤",
    "town_kana": "モリトウ",
    "street": null,
    "office_name": null,
    "office_name_kana": null
  },
  "2322": {
    "postcode": "6892322",
    "prefecture": "鳥取県",
    "prefecture_kana": "トットリケン",
    "prefecture_code": 31,
    "city": "東伯郡琴浦町",
    "city_kana": "トウハクグンコトウラチョウ",
    "town": "八反田",
    "town_kana": "ハッタンダ",
    "street": null,
    "office_name": null,
    "office_name_kana": null
  },
  "2323": {
    "postcode": "6892323",
    "prefecture": "鳥取県",
    "prefecture_kana": "トットリケン",
    "prefecture_code": 31,
    "city": "東伯郡琴浦町",
    "city_kana": "トウハクグンコトウラチョウ",
    "town": "宮場",
    "town_kana": "ミヤバ",
    "street": null,
    "office_name": null,
    "office_name_kana": null
  },
  "2324": {
    "postcode": "6892324",
    "prefecture": "鳥取県",
    "prefecture_kana": "トットリケン",
    "prefecture_code": 31,
    "city": "東伯郡琴浦町",
    "city_kana": "トウハクグンコトウラチョウ",
    "town": "矢下",
    "town_kana": "ヤジタ",
    "street": null,
    "office_name": null,
    "office_name_kana": null
  },
  "2325": {
    "postcode": "6892325",
    "prefecture": "鳥取県",
    "prefecture_kana": "トットリケン",
    "prefecture_code": 31,
    "city": "東伯郡琴浦町",
    "city_kana": "トウハクグンコトウラチョウ",
    "town": "法万",
    "town_kana": "ホウマン",
    "street": null,
    "office_name": null,
    "office_name_kana": null
  },
  "2326": {
    "postcode": "6892326",
    "prefecture": "鳥取県",
    "prefecture_kana": "トットリケン",
    "prefecture_code": 31,
    "city": "東伯郡琴浦町",
    "city_kana": "トウハクグンコトウラチョウ",
    "town": "光好",
    "town_kana": "ミツヨシ",
    "street": null,
    "office_name": null,
    "office_name_kana": null
  },
  "2331": {
    "postcode": "6892331",
    "prefecture": "鳥取県",
    "prefecture_kana": "トットリケン",
    "prefecture_code": 31,
    "city": "東伯郡琴浦町",
    "city_kana": "トウハクグンコトウラチョウ",
    "town": "杉地",
    "town_kana": "スギジ",
    "street": null,
    "office_name": null,
    "office_name_kana": null
  },
  "2332": {
    "postcode": "6892332",
    "prefecture": "鳥取県",
    "prefecture_kana": "トットリケン",
    "prefecture_code": 31,
    "city": "東伯郡琴浦町",
    "city_kana": "トウハクグンコトウラチョウ",
    "town": "古長",
    "town_kana": "フルナガ",
    "street": null,
    "office_name": null,
    "office_name_kana": null
  },
  "2333": {
    "postcode": "6892333",
    "prefecture": "鳥取県",
    "prefecture_kana": "トットリケン",
    "prefecture_code": 31,
    "city": "東伯郡琴浦町",
    "city_kana": "トウハクグンコトウラチョウ",
    "town": "別宮",
    "town_kana": "ベツミヤ",
    "street": null,
    "office_name": null,
    "office_name_kana": null
  },
  "2334": {
    "postcode": "6892334",
    "prefecture": "鳥取県",
    "prefecture_kana": "トットリケン",
    "prefecture_code": 31,
    "city": "東伯郡琴浦町",
    "city_kana": "トウハクグンコトウラチョウ",
    "town": "三本杉",
    "town_kana": "サンボンスギ",
    "street": null,
    "office_name": null,
    "office_name_kana": null
  },
  "2335": {
    "postcode": "6892335",
    "prefecture": "鳥取県",
    "prefecture_kana": "トットリケン",
    "prefecture_code": 31,
    "city": "東伯郡琴浦町",
    "city_kana": "トウハクグンコトウラチョウ",
    "town": "中津原",
    "town_kana": "ナカツハラ",
    "street": null,
    "office_name": null,
    "office_name_kana": null
  },
  "2336": {
    "postcode": "6892336",
    "prefecture": "鳥取県",
    "prefecture_kana": "トットリケン",
    "prefecture_code": 31,
    "city": "東伯郡琴浦町",
    "city_kana": "トウハクグンコトウラチョウ",
    "town": "野井倉",
    "town_kana": "ノイグラ",
    "street": null,
    "office_name": null,
    "office_name_kana": null
  },
  "2341": {
    "postcode": "6892341",
    "prefecture": "鳥取県",
    "prefecture_kana": "トットリケン",
    "prefecture_code": 31,
    "city": "東伯郡琴浦町",
    "city_kana": "トウハクグンコトウラチョウ",
    "town": "倉坂",
    "town_kana": "クラサカ",
    "street": null,
    "office_name": null,
    "office_name_kana": null
  },
  "2342": {
    "postcode": "6892342",
    "prefecture": "鳥取県",
    "prefecture_kana": "トットリケン",
    "prefecture_code": 31,
    "city": "東伯郡琴浦町",
    "city_kana": "トウハクグンコトウラチョウ",
    "town": "公文",
    "town_kana": "クモン",
    "street": null,
    "office_name": null,
    "office_name_kana": null
  },
  "2343": {
    "postcode": "6892343",
    "prefecture": "鳥取県",
    "prefecture_kana": "トットリケン",
    "prefecture_code": 31,
    "city": "東伯郡琴浦町",
    "city_kana": "トウハクグンコトウラチョウ",
    "town": "山田",
    "town_kana": "ヤマタ",
    "street": null,
    "office_name": null,
    "office_name_kana": null
  },
  "2344": {
    "postcode": "6892344",
    "prefecture": "鳥取県",
    "prefecture_kana": "トットリケン",
    "prefecture_code": 31,
    "city": "東伯郡琴浦町",
    "city_kana": "トウハクグンコトウラチョウ",
    "town": "大杉",
    "town_kana": "オオスギ",
    "street": null,
    "office_name": null,
    "office_name_kana": null
  },
  "2345": {
    "postcode": "6892345",
    "prefecture": "鳥取県",
    "prefecture_kana": "トットリケン",
    "prefecture_code": 31,
    "city": "東伯郡琴浦町",
    "city_kana": "トウハクグンコトウラチョウ",
    "town": "福永",
    "town_kana": "フクナガ",
    "street": null,
    "office_name": null,
    "office_name_kana": null
  },
  "2346": {
    "postcode": "6892346",
    "prefecture": "鳥取県",
    "prefecture_kana": "トットリケン",
    "prefecture_code": 31,
    "city": "東伯郡琴浦町",
    "city_kana": "トウハクグンコトウラチョウ",
    "town": "野田",
    "town_kana": "ノタ",
    "street": null,
    "office_name": null,
    "office_name_kana": null
  },
  "2351": {
    "postcode": "6892351",
    "prefecture": "鳥取県",
    "prefecture_kana": "トットリケン",
    "prefecture_code": 31,
    "city": "東伯郡琴浦町",
    "city_kana": "トウハクグンコトウラチョウ",
    "town": "保",
    "town_kana": "ホウ",
    "street": null,
    "office_name": null,
    "office_name_kana": null
  },
  "2352": {
    "postcode": "6892352",
    "prefecture": "鳥取県",
    "prefecture_kana": "トットリケン",
    "prefecture_code": 31,
    "city": "東伯郡琴浦町",
    "city_kana": "トウハクグンコトウラチョウ",
    "town": "浦安",
    "town_kana": "ウラヤス",
    "street": null,
    "office_name": null,
    "office_name_kana": null
  },
  "2353": {
    "postcode": "6892353",
    "prefecture": "鳥取県",
    "prefecture_kana": "トットリケン",
    "prefecture_code": 31,
    "city": "東伯郡琴浦町",
    "city_kana": "トウハクグンコトウラチョウ",
    "town": "三保",
    "town_kana": "ミホ",
    "street": null,
    "office_name": null,
    "office_name_kana": null
  },
  "2354": {
    "postcode": "6892354",
    "prefecture": "鳥取県",
    "prefecture_kana": "トットリケン",
    "prefecture_code": 31,
    "city": "東伯郡琴浦町",
    "city_kana": "トウハクグンコトウラチョウ",
    "town": "美好",
    "town_kana": "ミヨシ",
    "street": null,
    "office_name": null,
    "office_name_kana": null
  },
  "2355": {
    "postcode": "6892355",
    "prefecture": "鳥取県",
    "prefecture_kana": "トットリケン",
    "prefecture_code": 31,
    "city": "東伯郡琴浦町",
    "city_kana": "トウハクグンコトウラチョウ",
    "town": "釛",
    "town_kana": "コガネ",
    "street": null,
    "office_name": null,
    "office_name_kana": null
  },
  "2356": {
    "postcode": "6892356",
    "prefecture": "鳥取県",
    "prefecture_kana": "トットリケン",
    "prefecture_code": 31,
    "city": "東伯郡琴浦町",
    "city_kana": "トウハクグンコトウラチョウ",
    "town": "田越",
    "town_kana": "タコエ",
    "street": null,
    "office_name": null,
    "office_name_kana": null
  },
  "2392": {
    "postcode": "6892392",
    "prefecture": "鳥取県",
    "prefecture_kana": "トットリケン",
    "prefecture_code": 31,
    "city": "東伯郡琴浦町",
    "city_kana": "トウハクグンコトウラチョウ",
    "town": "大字徳万",
    "town_kana": null,
    "street": "５９１−２",
    "office_name": "琴浦町役場",
    "office_name_kana": "コトウラチヨウヤクバ"
  },
  "2393": {
    "postcode": "6892393",
    "prefecture": "鳥取県",
    "prefecture_kana": "トットリケン",
    "prefecture_code": 31,
    "city": "東伯郡琴浦町",
    "city_kana": "トウハクグンコトウラチョウ",
    "town": "大字保",
    "town_kana": null,
    "street": "３７−１",
    "office_name": "大山乳業農業　協同組合",
    "office_name_kana": "ダイセンニユウギヨウノウギヨウ キヨウドウクミアイ"
  },
  "2395": {
    "postcode": "6892395",
    "prefecture": "鳥取県",
    "prefecture_kana": "トットリケン",
    "prefecture_code": 31,
    "city": "東伯郡琴浦町",
    "city_kana": "トウハクグンコトウラチョウ",
    "town": "大字徳万",
    "town_kana": null,
    "street": "５５８−１",
    "office_name": "東伯町農業　協同組合",
    "office_name_kana": "トウハクチヨウノウギヨウ キヨウドウクミアイ"
  },
  "2501": {
    "postcode": "6892501",
    "prefecture": "鳥取県",
    "prefecture_kana": "トットリケン",
    "prefecture_code": 31,
    "city": "東伯郡琴浦町",
    "city_kana": "トウハクグンコトウラチョウ",
    "town": "赤碕",
    "town_kana": "アカサキ",
    "street": null,
    "office_name": null,
    "office_name_kana": null
  },
  "2502": {
    "postcode": "6892502",
    "prefecture": "鳥取県",
    "prefecture_kana": "トットリケン",
    "prefecture_code": 31,
    "city": "東伯郡琴浦町",
    "city_kana": "トウハクグンコトウラチョウ",
    "town": "別所",
    "town_kana": "ベッショ",
    "street": null,
    "office_name": null,
    "office_name_kana": null
  },
  "2503": {
    "postcode": "6892503",
    "prefecture": "鳥取県",
    "prefecture_kana": "トットリケン",
    "prefecture_code": 31,
    "city": "東伯郡琴浦町",
    "city_kana": "トウハクグンコトウラチョウ",
    "town": "松谷",
    "town_kana": "マツダニ",
    "street": null,
    "office_name": null,
    "office_name_kana": null
  },
  "2511": {
    "postcode": "6892511",
    "prefecture": "鳥取県",
    "prefecture_kana": "トットリケン",
    "prefecture_code": 31,
    "city": "東伯郡琴浦町",
    "city_kana": "トウハクグンコトウラチョウ",
    "town": "出上",
    "town_kana": "イデカミ",
    "street": null,
    "office_name": null,
    "office_name_kana": null
  },
  "2512": {
    "postcode": "6892512",
    "prefecture": "鳥取県",
    "prefecture_kana": "トットリケン",
    "prefecture_code": 31,
    "city": "東伯郡琴浦町",
    "city_kana": "トウハクグンコトウラチョウ",
    "town": "勝田",
    "town_kana": "カツタ",
    "street": null,
    "office_name": null,
    "office_name_kana": null
  },
  "2513": {
    "postcode": "6892513",
    "prefecture": "鳥取県",
    "prefecture_kana": "トットリケン",
    "prefecture_code": 31,
    "city": "東伯郡琴浦町",
    "city_kana": "トウハクグンコトウラチョウ",
    "town": "西宮",
    "town_kana": "ニシミヤ",
    "street": null,
    "office_name": null,
    "office_name_kana": null
  },
  "2521": {
    "postcode": "6892521",
    "prefecture": "鳥取県",
    "prefecture_kana": "トットリケン",
    "prefecture_code": 31,
    "city": "東伯郡琴浦町",
    "city_kana": "トウハクグンコトウラチョウ",
    "town": "竹内",
    "town_kana": "タケウチ",
    "street": null,
    "office_name": null,
    "office_name_kana": null
  },
  "2522": {
    "postcode": "6892522",
    "prefecture": "鳥取県",
    "prefecture_kana": "トットリケン",
    "prefecture_code": 31,
    "city": "東伯郡琴浦町",
    "city_kana": "トウハクグンコトウラチョウ",
    "town": "宮木",
    "town_kana": "ミヤキ",
    "street": null,
    "office_name": null,
    "office_name_kana": null
  },
  "2523": {
    "postcode": "6892523",
    "prefecture": "鳥取県",
    "prefecture_kana": "トットリケン",
    "prefecture_code": 31,
    "city": "東伯郡琴浦町",
    "city_kana": "トウハクグンコトウラチョウ",
    "town": "高岡",
    "town_kana": "タカオカ",
    "street": null,
    "office_name": null,
    "office_name_kana": null
  },
  "2524": {
    "postcode": "6892524",
    "prefecture": "鳥取県",
    "prefecture_kana": "トットリケン",
    "prefecture_code": 31,
    "city": "東伯郡琴浦町",
    "city_kana": "トウハクグンコトウラチョウ",
    "town": "大父",
    "town_kana": "オオブ",
    "street": null,
    "office_name": null,
    "office_name_kana": null
  },
  "2525": {
    "postcode": "6892525",
    "prefecture": "鳥取県",
    "prefecture_kana": "トットリケン",
    "prefecture_code": 31,
    "city": "東伯郡琴浦町",
    "city_kana": "トウハクグンコトウラチョウ",
    "town": "山川",
    "town_kana": "ヤマガワ",
    "street": null,
    "office_name": null,
    "office_name_kana": null
  },
  "2531": {
    "postcode": "6892531",
    "prefecture": "鳥取県",
    "prefecture_kana": "トットリケン",
    "prefecture_code": 31,
    "city": "東伯郡琴浦町",
    "city_kana": "トウハクグンコトウラチョウ",
    "town": "佐崎",
    "town_kana": "サザキ",
    "street": null,
    "office_name": null,
    "office_name_kana": null
  },
  "2532": {
    "postcode": "6892532",
    "prefecture": "鳥取県",
    "prefecture_kana": "トットリケン",
    "prefecture_code": 31,
    "city": "東伯郡琴浦町",
    "city_kana": "トウハクグンコトウラチョウ",
    "town": "太一垣",
    "town_kana": "タイチガキ",
    "street": null,
    "office_name": null,
    "office_name_kana": null
  },
  "2533": {
    "postcode": "6892533",
    "prefecture": "鳥取県",
    "prefecture_kana": "トットリケン",
    "prefecture_code": 31,
    "city": "東伯郡琴浦町",
    "city_kana": "トウハクグンコトウラチョウ",
    "town": "中村",
    "town_kana": "ナカムラ",
    "street": null,
    "office_name": null,
    "office_name_kana": null
  },
  "2534": {
    "postcode": "6892534",
    "prefecture": "鳥取県",
    "prefecture_kana": "トットリケン",
    "prefecture_code": 31,
    "city": "東伯郡琴浦町",
    "city_kana": "トウハクグンコトウラチョウ",
    "town": "光",
    "town_kana": "ミツ",
    "street": null,
    "office_name": null,
    "office_name_kana": null
  },
  "2535": {
    "postcode": "6892535",
    "prefecture": "鳥取県",
    "prefecture_kana": "トットリケン",
    "prefecture_code": 31,
    "city": "東伯郡琴浦町",
    "city_kana": "トウハクグンコトウラチョウ",
    "town": "尾張",
    "town_kana": "オワリ",
    "street": null,
    "office_name": null,
    "office_name_kana": null
  },
  "2541": {
    "postcode": "6892541",
    "prefecture": "鳥取県",
    "prefecture_kana": "トットリケン",
    "prefecture_code": 31,
    "city": "東伯郡琴浦町",
    "city_kana": "トウハクグンコトウラチョウ",
    "town": "八幡",
    "town_kana": "ヤワタ",
    "street": null,
    "office_name": null,
    "office_name_kana": null
  },
  "2542": {
    "postcode": "6892542",
    "prefecture": "鳥取県",
    "prefecture_kana": "トットリケン",
    "prefecture_code": 31,
    "city": "東伯郡琴浦町",
    "city_kana": "トウハクグンコトウラチョウ",
    "town": "湯坂",
    "town_kana": "ユザカ",
    "street": null,
    "office_name": null,
    "office_name_kana": null
  },
  "2543": {
    "postcode": "6892543",
    "prefecture": "鳥取県",
    "prefecture_kana": "トットリケン",
    "prefecture_code": 31,
    "city": "東伯郡琴浦町",
    "city_kana": "トウハクグンコトウラチョウ",
    "town": "梅田",
    "town_kana": "ウメダ",
    "street": null,
    "office_name": null,
    "office_name_kana": null
  },
  "2544": {
    "postcode": "6892544",
    "prefecture": "鳥取県",
    "prefecture_kana": "トットリケン",
    "prefecture_code": 31,
    "city": "東伯郡琴浦町",
    "city_kana": "トウハクグンコトウラチョウ",
    "town": "箆津",
    "town_kana": "ノツ",
    "street": null,
    "office_name": null,
    "office_name_kana": null
  },
  "3101": {
    "postcode": "6893101",
    "prefecture": "鳥取県",
    "prefecture_kana": "トットリケン",
    "prefecture_code": 31,
    "city": "西伯郡大山町",
    "city_kana": "サイハクグンダイセンチョウ",
    "town": "潮音寺",
    "town_kana": "チョウオンジ",
    "street": null,
    "office_name": null,
    "office_name_kana": null
  },
  "3102": {
    "postcode": "6893102",
    "prefecture": "鳥取県",
    "prefecture_kana": "トットリケン",
    "prefecture_code": 31,
    "city": "西伯郡大山町",
    "city_kana": "サイハクグンダイセンチョウ",
    "town": "石井垣",
    "town_kana": "イワイガキ",
    "street": null,
    "office_name": null,
    "office_name_kana": null
  },
  "3103": {
    "postcode": "6893103",
    "prefecture": "鳥取県",
    "prefecture_kana": "トットリケン",
    "prefecture_code": 31,
    "city": "西伯郡大山町",
    "city_kana": "サイハクグンダイセンチョウ",
    "town": "樋口",
    "town_kana": "ヒノクチ",
    "street": null,
    "office_name": null,
    "office_name_kana": null
  },
  "3104": {
    "postcode": "6893104",
    "prefecture": "鳥取県",
    "prefecture_kana": "トットリケン",
    "prefecture_code": 31,
    "city": "西伯郡大山町",
    "city_kana": "サイハクグンダイセンチョウ",
    "town": "八重",
    "town_kana": "ヤエ",
    "street": null,
    "office_name": null,
    "office_name_kana": null
  },
  "3105": {
    "postcode": "6893105",
    "prefecture": "鳥取県",
    "prefecture_kana": "トットリケン",
    "prefecture_code": 31,
    "city": "西伯郡大山町",
    "city_kana": "サイハクグンダイセンチョウ",
    "town": "束積",
    "town_kana": "ツカヅミ",
    "street": null,
    "office_name": null,
    "office_name_kana": null
  },
  "3106": {
    "postcode": "6893106",
    "prefecture": "鳥取県",
    "prefecture_kana": "トットリケン",
    "prefecture_code": 31,
    "city": "西伯郡大山町",
    "city_kana": "サイハクグンダイセンチョウ",
    "town": "羽田井",
    "town_kana": "ハタイ",
    "street": null,
    "office_name": null,
    "office_name_kana": null
  },
  "3111": {
    "postcode": "6893111",
    "prefecture": "鳥取県",
    "prefecture_kana": "トットリケン",
    "prefecture_code": 31,
    "city": "西伯郡大山町",
    "city_kana": "サイハクグンダイセンチョウ",
    "town": "赤坂",
    "town_kana": "アカザカ",
    "street": null,
    "office_name": null,
    "office_name_kana": null
  },
  "3112": {
    "postcode": "6893112",
    "prefecture": "鳥取県",
    "prefecture_kana": "トットリケン",
    "prefecture_code": 31,
    "city": "西伯郡大山町",
    "city_kana": "サイハクグンダイセンチョウ",
    "town": "下甲",
    "town_kana": "シモギ",
    "street": null,
    "office_name": null,
    "office_name_kana": null
  },
  "3113": {
    "postcode": "6893113",
    "prefecture": "鳥取県",
    "prefecture_kana": "トットリケン",
    "prefecture_code": 31,
    "city": "西伯郡大山町",
    "city_kana": "サイハクグンダイセンチョウ",
    "town": "御崎",
    "town_kana": "ミサキ",
    "street": null,
    "office_name": null,
    "office_name_kana": null
  },
  "3114": {
    "postcode": "6893114",
    "prefecture": "鳥取県",
    "prefecture_kana": "トットリケン",
    "prefecture_code": 31,
    "city": "西伯郡大山町",
    "city_kana": "サイハクグンダイセンチョウ",
    "town": "田中",
    "town_kana": "タナカ",
    "street": null,
    "office_name": null,
    "office_name_kana": null
  },
  "3115": {
    "postcode": "6893115",
    "prefecture": "鳥取県",
    "prefecture_kana": "トットリケン",
    "prefecture_code": 31,
    "city": "西伯郡大山町",
    "city_kana": "サイハクグンダイセンチョウ",
    "town": "栄田",
    "town_kana": "サカエダ",
    "street": null,
    "office_name": null,
    "office_name_kana": null
  },
  "3121": {
    "postcode": "6893121",
    "prefecture": "鳥取県",
    "prefecture_kana": "トットリケン",
    "prefecture_code": 31,
    "city": "西伯郡大山町",
    "city_kana": "サイハクグンダイセンチョウ",
    "town": "岡",
    "town_kana": "オカ",
    "street": null,
    "office_name": null,
    "office_name_kana": null
  },
  "3122": {
    "postcode": "6893122",
    "prefecture": "鳥取県",
    "prefecture_kana": "トットリケン",
    "prefecture_code": 31,
    "city": "西伯郡大山町",
    "city_kana": "サイハクグンダイセンチョウ",
    "town": "塩津",
    "town_kana": "シオツ",
    "street": null,
    "office_name": null,
    "office_name_kana": null
  },
  "3123": {
    "postcode": "6893123",
    "prefecture": "鳥取県",
    "prefecture_kana": "トットリケン",
    "prefecture_code": 31,
    "city": "西伯郡大山町",
    "city_kana": "サイハクグンダイセンチョウ",
    "town": "住吉",
    "town_kana": "スミヨシ",
    "street": null,
    "office_name": null,
    "office_name_kana": null
  },
  "3124": {
    "postcode": "6893124",
    "prefecture": "鳥取県",
    "prefecture_kana": "トットリケン",
    "prefecture_code": 31,
    "city": "西伯郡大山町",
    "city_kana": "サイハクグンダイセンチョウ",
    "town": "上市",
    "town_kana": "ウワイチ",
    "street": null,
    "office_name": null,
    "office_name_kana": null
  },
  "3125": {
    "postcode": "6893125",
    "prefecture": "鳥取県",
    "prefecture_kana": "トットリケン",
    "prefecture_code": 31,
    "city": "西伯郡大山町",
    "city_kana": "サイハクグンダイセンチョウ",
    "town": "下市",
    "town_kana": "シモイチ",
    "street": null,
    "office_name": null,
    "office_name_kana": null
  },
  "3132": {
    "postcode": "6893132",
    "prefecture": "鳥取県",
    "prefecture_kana": "トットリケン",
    "prefecture_code": 31,
    "city": "西伯郡大山町",
    "city_kana": "サイハクグンダイセンチョウ",
    "town": "松河原",
    "town_kana": "マツガワラ",
    "street": null,
    "office_name": null,
    "office_name_kana": null
  },
  "3133": {
    "postcode": "6893133",
    "prefecture": "鳥取県",
    "prefecture_kana": "トットリケン",
    "prefecture_code": 31,
    "city": "西伯郡大山町",
    "city_kana": "サイハクグンダイセンチョウ",
    "town": "退休寺",
    "town_kana": "タイキュウジ",
    "street": null,
    "office_name": null,
    "office_name_kana": null
  },
  "3134": {
    "postcode": "6893134",
    "prefecture": "鳥取県",
    "prefecture_kana": "トットリケン",
    "prefecture_code": 31,
    "city": "西伯郡大山町",
    "city_kana": "サイハクグンダイセンチョウ",
    "town": "高橋",
    "town_kana": "タカハシ",
    "street": null,
    "office_name": null,
    "office_name_kana": null
  },
  "3135": {
    "postcode": "6893135",
    "prefecture": "鳥取県",
    "prefecture_kana": "トットリケン",
    "prefecture_code": 31,
    "city": "西伯郡大山町",
    "city_kana": "サイハクグンダイセンチョウ",
    "town": "殿河内",
    "town_kana": "トノガワチ",
    "street": null,
    "office_name": null,
    "office_name_kana": null
  },
  "3136": {
    "postcode": "6893136",
    "prefecture": "鳥取県",
    "prefecture_kana": "トットリケン",
    "prefecture_code": 31,
    "city": "西伯郡大山町",
    "city_kana": "サイハクグンダイセンチョウ",
    "town": "長野",
    "town_kana": "ナガノ",
    "street": null,
    "office_name": null,
    "office_name_kana": null
  },
  "3200": {
    "postcode": "6893200",
    "prefecture": "鳥取県",
    "prefecture_kana": "トットリケン",
    "prefecture_code": 31,
    "city": "西伯郡大山町",
    "city_kana": "サイハクグンダイセンチョウ",
    "town": "",
    "town_kana": "",
    "street": null,
    "office_name": null,
    "office_name_kana": null
  },
  "3201": {
    "postcode": "6893201",
    "prefecture": "鳥取県",
    "prefecture_kana": "トットリケン",
    "prefecture_code": 31,
    "city": "西伯郡大山町",
    "city_kana": "サイハクグンダイセンチョウ",
    "town": "豊成",
    "town_kana": "トヨシゲ",
    "street": null,
    "office_name": null,
    "office_name_kana": null
  },
  "3202": {
    "postcode": "6893202",
    "prefecture": "鳥取県",
    "prefecture_kana": "トットリケン",
    "prefecture_code": 31,
    "city": "西伯郡大山町",
    "city_kana": "サイハクグンダイセンチョウ",
    "town": "倉谷",
    "town_kana": "クラダニ",
    "street": null,
    "office_name": null,
    "office_name_kana": null
  },
  "3203": {
    "postcode": "6893203",
    "prefecture": "鳥取県",
    "prefecture_kana": "トットリケン",
    "prefecture_code": 31,
    "city": "西伯郡大山町",
    "city_kana": "サイハクグンダイセンチョウ",
    "town": "小竹",
    "town_kana": "コダケ",
    "street": null,
    "office_name": null,
    "office_name_kana": null
  },
  "3204": {
    "postcode": "6893204",
    "prefecture": "鳥取県",
    "prefecture_kana": "トットリケン",
    "prefecture_code": 31,
    "city": "西伯郡大山町",
    "city_kana": "サイハクグンダイセンチョウ",
    "town": "東坪",
    "town_kana": "ヒガシツボ",
    "street": null,
    "office_name": null,
    "office_name_kana": null
  },
  "3205": {
    "postcode": "6893205",
    "prefecture": "鳥取県",
    "prefecture_kana": "トットリケン",
    "prefecture_code": 31,
    "city": "西伯郡大山町",
    "city_kana": "サイハクグンダイセンチョウ",
    "town": "西坪",
    "town_kana": "ニシツボ",
    "street": null,
    "office_name": null,
    "office_name_kana": null
  },
  "3211": {
    "postcode": "6893211",
    "prefecture": "鳥取県",
    "prefecture_kana": "トットリケン",
    "prefecture_code": 31,
    "city": "西伯郡大山町",
    "city_kana": "サイハクグンダイセンチョウ",
    "town": "御来屋",
    "town_kana": "ミクリヤ",
    "street": null,
    "office_name": null,
    "office_name_kana": null
  },
  "3212": {
    "postcode": "6893212",
    "prefecture": "鳥取県",
    "prefecture_kana": "トットリケン",
    "prefecture_code": 31,
    "city": "西伯郡大山町",
    "city_kana": "サイハクグンダイセンチョウ",
    "town": "名和",
    "town_kana": "ナワ",
    "street": null,
    "office_name": null,
    "office_name_kana": null
  },
  "3213": {
    "postcode": "6893213",
    "prefecture": "鳥取県",
    "prefecture_kana": "トットリケン",
    "prefecture_code": 31,
    "city": "西伯郡大山町",
    "city_kana": "サイハクグンダイセンチョウ",
    "town": "門前",
    "town_kana": "モンゼン",
    "street": null,
    "office_name": null,
    "office_name_kana": null
  },
  "3214": {
    "postcode": "6893214",
    "prefecture": "鳥取県",
    "prefecture_kana": "トットリケン",
    "prefecture_code": 31,
    "city": "西伯郡大山町",
    "city_kana": "サイハクグンダイセンチョウ",
    "town": "加茂",
    "town_kana": "カモ",
    "street": null,
    "office_name": null,
    "office_name_kana": null
  },
  "3221": {
    "postcode": "6893221",
    "prefecture": "鳥取県",
    "prefecture_kana": "トットリケン",
    "prefecture_code": 31,
    "city": "西伯郡大山町",
    "city_kana": "サイハクグンダイセンチョウ",
    "town": "富長",
    "town_kana": "トミナガ",
    "street": null,
    "office_name": null,
    "office_name_kana": null
  },
  "3222": {
    "postcode": "6893222",
    "prefecture": "鳥取県",
    "prefecture_kana": "トットリケン",
    "prefecture_code": 31,
    "city": "西伯郡大山町",
    "city_kana": "サイハクグンダイセンチョウ",
    "town": "古御堂",
    "town_kana": "コミドウ",
    "street": null,
    "office_name": null,
    "office_name_kana": null
  },
  "3223": {
    "postcode": "6893223",
    "prefecture": "鳥取県",
    "prefecture_kana": "トットリケン",
    "prefecture_code": 31,
    "city": "西伯郡大山町",
    "city_kana": "サイハクグンダイセンチョウ",
    "town": "茶畑",
    "town_kana": "チャバタ",
    "street": null,
    "office_name": null,
    "office_name_kana": null
  },
  "3224": {
    "postcode": "6893224",
    "prefecture": "鳥取県",
    "prefecture_kana": "トットリケン",
    "prefecture_code": 31,
    "city": "西伯郡大山町",
    "city_kana": "サイハクグンダイセンチョウ",
    "town": "高田",
    "town_kana": "タカタ",
    "street": null,
    "office_name": null,
    "office_name_kana": null
  },
  "3225": {
    "postcode": "6893225",
    "prefecture": "鳥取県",
    "prefecture_kana": "トットリケン",
    "prefecture_code": 31,
    "city": "西伯郡大山町",
    "city_kana": "サイハクグンダイセンチョウ",
    "town": "押平",
    "town_kana": "オシナラ",
    "street": null,
    "office_name": null,
    "office_name_kana": null
  },
  "3226": {
    "postcode": "6893226",
    "prefecture": "鳥取県",
    "prefecture_kana": "トットリケン",
    "prefecture_code": 31,
    "city": "西伯郡大山町",
    "city_kana": "サイハクグンダイセンチョウ",
    "town": "大塚",
    "town_kana": "オオツカ",
    "street": null,
    "office_name": null,
    "office_name_kana": null
  },
  "3301": {
    "postcode": "6893301",
    "prefecture": "鳥取県",
    "prefecture_kana": "トットリケン",
    "prefecture_code": 31,
    "city": "西伯郡大山町",
    "city_kana": "サイハクグンダイセンチョウ",
    "town": "福尾",
    "town_kana": "フクオ",
    "street": null,
    "office_name": null,
    "office_name_kana": null
  },
  "3302": {
    "postcode": "6893302",
    "prefecture": "鳥取県",
    "prefecture_kana": "トットリケン",
    "prefecture_code": 31,
    "city": "西伯郡大山町",
    "city_kana": "サイハクグンダイセンチョウ",
    "town": "上野",
    "town_kana": "ウエノ",
    "street": null,
    "office_name": null,
    "office_name_kana": null
  },
  "3303": {
    "postcode": "6893303",
    "prefecture": "鳥取県",
    "prefecture_kana": "トットリケン",
    "prefecture_code": 31,
    "city": "西伯郡大山町",
    "city_kana": "サイハクグンダイセンチョウ",
    "town": "所子",
    "town_kana": "トコロゴ",
    "street": null,
    "office_name": null,
    "office_name_kana": null
  },
  "3304": {
    "postcode": "6893304",
    "prefecture": "鳥取県",
    "prefecture_kana": "トットリケン",
    "prefecture_code": 31,
    "city": "西伯郡大山町",
    "city_kana": "サイハクグンダイセンチョウ",
    "town": "平木",
    "town_kana": "ヒラギ",
    "street": null,
    "office_name": null,
    "office_name_kana": null
  },
  "3305": {
    "postcode": "6893305",
    "prefecture": "鳥取県",
    "prefecture_kana": "トットリケン",
    "prefecture_code": 31,
    "city": "西伯郡大山町",
    "city_kana": "サイハクグンダイセンチョウ",
    "town": "神原",
    "town_kana": "カンバラ",
    "street": null,
    "office_name": null,
    "office_name_kana": null
  },
  "3306": {
    "postcode": "6893306",
    "prefecture": "鳥取県",
    "prefecture_kana": "トットリケン",
    "prefecture_code": 31,
    "city": "西伯郡大山町",
    "city_kana": "サイハクグンダイセンチョウ",
    "town": "中高",
    "town_kana": "ナカダカ",
    "street": null,
    "office_name": null,
    "office_name_kana": null
  },
  "3307": {
    "postcode": "6893307",
    "prefecture": "鳥取県",
    "prefecture_kana": "トットリケン",
    "prefecture_code": 31,
    "city": "西伯郡大山町",
    "city_kana": "サイハクグンダイセンチョウ",
    "town": "野田",
    "town_kana": "ノダ",
    "street": null,
    "office_name": null,
    "office_name_kana": null
  },
  "3308": {
    "postcode": "6893308",
    "prefecture": "鳥取県",
    "prefecture_kana": "トットリケン",
    "prefecture_code": 31,
    "city": "西伯郡大山町",
    "city_kana": "サイハクグンダイセンチョウ",
    "town": "清原",
    "town_kana": "キヨハラ",
    "street": null,
    "office_name": null,
    "office_name_kana": null
  },
  "3309": {
    "postcode": "6893309",
    "prefecture": "鳥取県",
    "prefecture_kana": "トットリケン",
    "prefecture_code": 31,
    "city": "西伯郡大山町",
    "city_kana": "サイハクグンダイセンチョウ",
    "town": "国信",
    "town_kana": "クニノブ",
    "street": null,
    "office_name": null,
    "office_name_kana": null
  },
  "3311": {
    "postcode": "6893311",
    "prefecture": "鳥取県",
    "prefecture_kana": "トットリケン",
    "prefecture_code": 31,
    "city": "西伯郡大山町",
    "city_kana": "サイハクグンダイセンチョウ",
    "town": "宮内",
    "town_kana": "ミヤウチ",
    "street": null,
    "office_name": null,
    "office_name_kana": null
  },
  "3312": {
    "postcode": "6893312",
    "prefecture": "鳥取県",
    "prefecture_kana": "トットリケン",
    "prefecture_code": 31,
    "city": "西伯郡大山町",
    "city_kana": "サイハクグンダイセンチョウ",
    "town": "坊領",
    "town_kana": "ボウリョウ",
    "street": null,
    "office_name": null,
    "office_name_kana": null
  },
  "3313": {
    "postcode": "6893313",
    "prefecture": "鳥取県",
    "prefecture_kana": "トットリケン",
    "prefecture_code": 31,
    "city": "西伯郡大山町",
    "city_kana": "サイハクグンダイセンチョウ",
    "town": "佐摩",
    "town_kana": "サマ",
    "street": null,
    "office_name": null,
    "office_name_kana": null
  },
  "3314": {
    "postcode": "6893314",
    "prefecture": "鳥取県",
    "prefecture_kana": "トットリケン",
    "prefecture_code": 31,
    "city": "西伯郡大山町",
    "city_kana": "サイハクグンダイセンチョウ",
    "town": "今在家",
    "town_kana": "イマザイケ",
    "street": null,
    "office_name": null,
    "office_name_kana": null
  },
  "3315": {
    "postcode": "6893315",
    "prefecture": "鳥取県",
    "prefecture_kana": "トットリケン",
    "prefecture_code": 31,
    "city": "西伯郡大山町",
    "city_kana": "サイハクグンダイセンチョウ",
    "town": "前",
    "town_kana": "マエ",
    "street": null,
    "office_name": null,
    "office_name_kana": null
  },
  "3316": {
    "postcode": "6893316",
    "prefecture": "鳥取県",
    "prefecture_kana": "トットリケン",
    "prefecture_code": 31,
    "city": "西伯郡大山町",
    "city_kana": "サイハクグンダイセンチョウ",
    "town": "豊房",
    "town_kana": "トヨフサ",
    "street": null,
    "office_name": null,
    "office_name_kana": null
  },
  "3317": {
    "postcode": "6893317",
    "prefecture": "鳥取県",
    "prefecture_kana": "トットリケン",
    "prefecture_code": 31,
    "city": "西伯郡大山町",
    "city_kana": "サイハクグンダイセンチョウ",
    "town": "鈑戸",
    "town_kana": "タタラド",
    "street": null,
    "office_name": null,
    "office_name_kana": null
  },
  "3318": {
    "postcode": "6893318",
    "prefecture": "鳥取県",
    "prefecture_kana": "トットリケン",
    "prefecture_code": 31,
    "city": "西伯郡大山町",
    "city_kana": "サイハクグンダイセンチョウ",
    "town": "大山",
    "town_kana": "ダイセン",
    "street": null,
    "office_name": null,
    "office_name_kana": null
  },
  "3319": {
    "postcode": "6893319",
    "prefecture": "鳥取県",
    "prefecture_kana": "トットリケン",
    "prefecture_code": 31,
    "city": "西伯郡大山町",
    "city_kana": "サイハクグンダイセンチョウ",
    "town": "赤松",
    "town_kana": "アカマツ",
    "street": null,
    "office_name": null,
    "office_name_kana": null
  },
  "3321": {
    "postcode": "6893321",
    "prefecture": "鳥取県",
    "prefecture_kana": "トットリケン",
    "prefecture_code": 31,
    "city": "西伯郡大山町",
    "city_kana": "サイハクグンダイセンチョウ",
    "town": "平",
    "town_kana": "ヒラ",
    "street": null,
    "office_name": null,
    "office_name_kana": null
  },
  "3322": {
    "postcode": "6893322",
    "prefecture": "鳥取県",
    "prefecture_kana": "トットリケン",
    "prefecture_code": 31,
    "city": "西伯郡大山町",
    "city_kana": "サイハクグンダイセンチョウ",
    "town": "長田",
    "town_kana": "ナガタ",
    "street": null,
    "office_name": null,
    "office_name_kana": null
  },
  "3323": {
    "postcode": "6893323",
    "prefecture": "鳥取県",
    "prefecture_kana": "トットリケン",
    "prefecture_code": 31,
    "city": "西伯郡大山町",
    "city_kana": "サイハクグンダイセンチョウ",
    "town": "荘田",
    "town_kana": "ショウダ",
    "street": null,
    "office_name": null,
    "office_name_kana": null
  },
  "3324": {
    "postcode": "6893324",
    "prefecture": "鳥取県",
    "prefecture_kana": "トットリケン",
    "prefecture_code": 31,
    "city": "西伯郡大山町",
    "city_kana": "サイハクグンダイセンチョウ",
    "town": "妻木",
    "town_kana": "ムキ",
    "street": null,
    "office_name": null,
    "office_name_kana": null
  },
  "3325": {
    "postcode": "6893325",
    "prefecture": "鳥取県",
    "prefecture_kana": "トットリケン",
    "prefecture_code": 31,
    "city": "西伯郡大山町",
    "city_kana": "サイハクグンダイセンチョウ",
    "town": "富岡",
    "town_kana": "トミオカ",
    "street": null,
    "office_name": null,
    "office_name_kana": null
  },
  "3326": {
    "postcode": "6893326",
    "prefecture": "鳥取県",
    "prefecture_kana": "トットリケン",
    "prefecture_code": 31,
    "city": "西伯郡大山町",
    "city_kana": "サイハクグンダイセンチョウ",
    "town": "安原",
    "town_kana": "ヤスハラ",
    "street": null,
    "office_name": null,
    "office_name_kana": null
  },
  "3327": {
    "postcode": "6893327",
    "prefecture": "鳥取県",
    "prefecture_kana": "トットリケン",
    "prefecture_code": 31,
    "city": "西伯郡大山町",
    "city_kana": "サイハクグンダイセンチョウ",
    "town": "保田",
    "town_kana": "ヤスダ",
    "street": null,
    "office_name": null,
    "office_name_kana": null
  },
  "3331": {
    "postcode": "6893331",
    "prefecture": "鳥取県",
    "prefecture_kana": "トットリケン",
    "prefecture_code": 31,
    "city": "西伯郡大山町",
    "city_kana": "サイハクグンダイセンチョウ",
    "town": "末吉",
    "town_kana": "スエヨシ",
    "street": null,
    "office_name": null,
    "office_name_kana": null
  },
  "3332": {
    "postcode": "6893332",
    "prefecture": "鳥取県",
    "prefecture_kana": "トットリケン",
    "prefecture_code": 31,
    "city": "西伯郡大山町",
    "city_kana": "サイハクグンダイセンチョウ",
    "town": "末長",
    "town_kana": "スエナガ",
    "street": null,
    "office_name": null,
    "office_name_kana": null
  },
  "3333": {
    "postcode": "6893333",
    "prefecture": "鳥取県",
    "prefecture_kana": "トットリケン",
    "prefecture_code": 31,
    "city": "西伯郡大山町",
    "city_kana": "サイハクグンダイセンチョウ",
    "town": "唐王",
    "town_kana": "トウノウ",
    "street": null,
    "office_name": null,
    "office_name_kana": null
  },
  "3334": {
    "postcode": "6893334",
    "prefecture": "鳥取県",
    "prefecture_kana": "トットリケン",
    "prefecture_code": 31,
    "city": "西伯郡大山町",
    "city_kana": "サイハクグンダイセンチョウ",
    "town": "稲光",
    "town_kana": "イナミツ",
    "street": null,
    "office_name": null,
    "office_name_kana": null
  },
  "3335": {
    "postcode": "6893335",
    "prefecture": "鳥取県",
    "prefecture_kana": "トットリケン",
    "prefecture_code": 31,
    "city": "西伯郡大山町",
    "city_kana": "サイハクグンダイセンチョウ",
    "town": "上万",
    "town_kana": "ジョウマン",
    "street": null,
    "office_name": null,
    "office_name_kana": null
  },
  "3336": {
    "postcode": "6893336",
    "prefecture": "鳥取県",
    "prefecture_kana": "トットリケン",
    "prefecture_code": 31,
    "city": "西伯郡大山町",
    "city_kana": "サイハクグンダイセンチョウ",
    "town": "平田",
    "town_kana": "ヒラダ",
    "street": null,
    "office_name": null,
    "office_name_kana": null
  },
  "3401": {
    "postcode": "6893401",
    "prefecture": "鳥取県",
    "prefecture_kana": "トットリケン",
    "prefecture_code": 31,
    "city": "米子市",
    "city_kana": "ヨナゴシ",
    "town": "淀江町今津",
    "town_kana": "ヨドエチョウイマヅ",
    "street": null,
    "office_name": null,
    "office_name_kana": null
  },
  "3402": {
    "postcode": "6893402",
    "prefecture": "鳥取県",
    "prefecture_kana": "トットリケン",
    "prefecture_code": 31,
    "city": "米子市",
    "city_kana": "ヨナゴシ",
    "town": "淀江町淀江",
    "town_kana": "ヨドエチョウヨドエ",
    "street": null,
    "office_name": null,
    "office_name_kana": null
  },
  "3403": {
    "postcode": "6893403",
    "prefecture": "鳥取県",
    "prefecture_kana": "トットリケン",
    "prefecture_code": 31,
    "city": "米子市",
    "city_kana": "ヨナゴシ",
    "town": "淀江町西原",
    "town_kana": "ヨドエチョウニシバラ",
    "street": null,
    "office_name": null,
    "office_name_kana": null
  },
  "3411": {
    "postcode": "6893411",
    "prefecture": "鳥取県",
    "prefecture_kana": "トットリケン",
    "prefecture_code": 31,
    "city": "米子市",
    "city_kana": "ヨナゴシ",
    "town": "淀江町福岡",
    "town_kana": "ヨドエチョウフクオカ",
    "street": null,
    "office_name": null,
    "office_name_kana": null
  },
  "3412": {
    "postcode": "6893412",
    "prefecture": "鳥取県",
    "prefecture_kana": "トットリケン",
    "prefecture_code": 31,
    "city": "米子市",
    "city_kana": "ヨナゴシ",
    "town": "淀江町稲吉",
    "town_kana": "ヨドエチョウイナヨシ",
    "street": null,
    "office_name": null,
    "office_name_kana": null
  },
  "3413": {
    "postcode": "6893413",
    "prefecture": "鳥取県",
    "prefecture_kana": "トットリケン",
    "prefecture_code": 31,
    "city": "米子市",
    "city_kana": "ヨナゴシ",
    "town": "淀江町本宮",
    "town_kana": "ヨドエチョウホングウ",
    "street": null,
    "office_name": null,
    "office_name_kana": null
  },
  "3414": {
    "postcode": "6893414",
    "prefecture": "鳥取県",
    "prefecture_kana": "トットリケン",
    "prefecture_code": 31,
    "city": "米子市",
    "city_kana": "ヨナゴシ",
    "town": "淀江町西尾原",
    "town_kana": "ヨドエチョウニシオハラ",
    "street": null,
    "office_name": null,
    "office_name_kana": null
  },
  "3415": {
    "postcode": "6893415",
    "prefecture": "鳥取県",
    "prefecture_kana": "トットリケン",
    "prefecture_code": 31,
    "city": "米子市",
    "city_kana": "ヨナゴシ",
    "town": "淀江町富繁",
    "town_kana": "ヨドエチョウトミシゲ",
    "street": null,
    "office_name": null,
    "office_name_kana": null
  },
  "3416": {
    "postcode": "6893416",
    "prefecture": "鳥取県",
    "prefecture_kana": "トットリケン",
    "prefecture_code": 31,
    "city": "米子市",
    "city_kana": "ヨナゴシ",
    "town": "淀江町福井",
    "town_kana": "ヨドエチョウフクイ",
    "street": null,
    "office_name": null,
    "office_name_kana": null
  },
  "3417": {
    "postcode": "6893417",
    "prefecture": "鳥取県",
    "prefecture_kana": "トットリケン",
    "prefecture_code": 31,
    "city": "米子市",
    "city_kana": "ヨナゴシ",
    "town": "淀江町中西尾",
    "town_kana": "ヨドエチョウナカニシオ",
    "street": null,
    "office_name": null,
    "office_name_kana": null
  },
  "3418": {
    "postcode": "6893418",
    "prefecture": "鳥取県",
    "prefecture_kana": "トットリケン",
    "prefecture_code": 31,
    "city": "米子市",
    "city_kana": "ヨナゴシ",
    "town": "淀江町高井谷",
    "town_kana": "ヨドエチョウタカイダニ",
    "street": null,
    "office_name": null,
    "office_name_kana": null
  },
  "3421": {
    "postcode": "6893421",
    "prefecture": "鳥取県",
    "prefecture_kana": "トットリケン",
    "prefecture_code": 31,
    "city": "米子市",
    "city_kana": "ヨナゴシ",
    "town": "淀江町福頼",
    "town_kana": "ヨドエチョウフクヨリ",
    "street": null,
    "office_name": null,
    "office_name_kana": null
  },
  "3422": {
    "postcode": "6893422",
    "prefecture": "鳥取県",
    "prefecture_kana": "トットリケン",
    "prefecture_code": 31,
    "city": "米子市",
    "city_kana": "ヨナゴシ",
    "town": "淀江町平岡",
    "town_kana": "ヨドエチョウヒラオカ",
    "street": null,
    "office_name": null,
    "office_name_kana": null
  },
  "3423": {
    "postcode": "6893423",
    "prefecture": "鳥取県",
    "prefecture_kana": "トットリケン",
    "prefecture_code": 31,
    "city": "米子市",
    "city_kana": "ヨナゴシ",
    "town": "淀江町小波",
    "town_kana": "ヨドエチョウコナミ",
    "street": null,
    "office_name": null,
    "office_name_kana": null
  },
  "3424": {
    "postcode": "6893424",
    "prefecture": "鳥取県",
    "prefecture_kana": "トットリケン",
    "prefecture_code": 31,
    "city": "米子市",
    "city_kana": "ヨナゴシ",
    "town": "淀江町中間",
    "town_kana": "ヨドエチョウナカマ",
    "street": null,
    "office_name": null,
    "office_name_kana": null
  },
  "3425": {
    "postcode": "6893425",
    "prefecture": "鳥取県",
    "prefecture_kana": "トットリケン",
    "prefecture_code": 31,
    "city": "米子市",
    "city_kana": "ヨナゴシ",
    "town": "淀江町佐陀",
    "town_kana": "ヨドエチョウサダ",
    "street": null,
    "office_name": null,
    "office_name_kana": null
  },
  "3492": {
    "postcode": "6893492",
    "prefecture": "鳥取県",
    "prefecture_kana": "トットリケン",
    "prefecture_code": 31,
    "city": "米子市",
    "city_kana": "ヨナゴシ",
    "town": "淀江町西原",
    "town_kana": "ヨドエチョウニシバラ",
    "street": "１１２９−１",
    "office_name": "米子市　淀江支所",
    "office_name_kana": "ヨナゴシ ヨドエシシヨ"
  },
  "3500": {
    "postcode": "6893500",
    "prefecture": "鳥取県",
    "prefecture_kana": "トットリケン",
    "prefecture_code": 31,
    "city": "西伯郡日吉津村",
    "city_kana": "サイハクグンヒエヅソン",
    "town": "",
    "town_kana": "",
    "street": null,
    "office_name": null,
    "office_name_kana": null
  },
  "3511": {
    "postcode": "6893511",
    "prefecture": "鳥取県",
    "prefecture_kana": "トットリケン",
    "prefecture_code": 31,
    "city": "米子市",
    "city_kana": "ヨナゴシ",
    "town": "下郷",
    "town_kana": "シモノゴウ",
    "street": null,
    "office_name": null,
    "office_name_kana": null
  },
  "3512": {
    "postcode": "6893512",
    "prefecture": "鳥取県",
    "prefecture_kana": "トットリケン",
    "prefecture_code": 31,
    "city": "米子市",
    "city_kana": "ヨナゴシ",
    "town": "泉",
    "town_kana": "イズミ",
    "street": null,
    "office_name": null,
    "office_name_kana": null
  },
  "3513": {
    "postcode": "6893513",
    "prefecture": "鳥取県",
    "prefecture_kana": "トットリケン",
    "prefecture_code": 31,
    "city": "米子市",
    "city_kana": "ヨナゴシ",
    "town": "岡成",
    "town_kana": "オカナリ",
    "street": null,
    "office_name": null,
    "office_name_kana": null
  },
  "3514": {
    "postcode": "6893514",
    "prefecture": "鳥取県",
    "prefecture_kana": "トットリケン",
    "prefecture_code": 31,
    "city": "米子市",
    "city_kana": "ヨナゴシ",
    "town": "尾高",
    "town_kana": "オダカ",
    "street": null,
    "office_name": null,
    "office_name_kana": null
  },
  "3515": {
    "postcode": "6893515",
    "prefecture": "鳥取県",
    "prefecture_kana": "トットリケン",
    "prefecture_code": 31,
    "city": "米子市",
    "city_kana": "ヨナゴシ",
    "town": "赤井手",
    "town_kana": "アカイデ",
    "street": null,
    "office_name": null,
    "office_name_kana": null
  },
  "3516": {
    "postcode": "6893516",
    "prefecture": "鳥取県",
    "prefecture_kana": "トットリケン",
    "prefecture_code": 31,
    "city": "米子市",
    "city_kana": "ヨナゴシ",
    "town": "みのり町",
    "town_kana": "ミノリチョウ",
    "street": null,
    "office_name": null,
    "office_name_kana": null
  },
  "3521": {
    "postcode": "6893521",
    "prefecture": "鳥取県",
    "prefecture_kana": "トットリケン",
    "prefecture_code": 31,
    "city": "米子市",
    "city_kana": "ヨナゴシ",
    "town": "河岡",
    "town_kana": "カワオカ",
    "street": null,
    "office_name": null,
    "office_name_kana": null
  },
  "3522": {
    "postcode": "6893522",
    "prefecture": "鳥取県",
    "prefecture_kana": "トットリケン",
    "prefecture_code": 31,
    "city": "米子市",
    "city_kana": "ヨナゴシ",
    "town": "日下",
    "town_kana": "クサカ",
    "street": null,
    "office_name": null,
    "office_name_kana": null
  },
  "3523": {
    "postcode": "6893523",
    "prefecture": "鳥取県",
    "prefecture_kana": "トットリケン",
    "prefecture_code": 31,
    "city": "米子市",
    "city_kana": "ヨナゴシ",
    "town": "福万",
    "town_kana": "フクマン",
    "street": null,
    "office_name": null,
    "office_name_kana": null
  },
  "3524": {
    "postcode": "6893524",
    "prefecture": "鳥取県",
    "prefecture_kana": "トットリケン",
    "prefecture_code": 31,
    "city": "米子市",
    "city_kana": "ヨナゴシ",
    "town": "石州府",
    "town_kana": "セキシュウフ",
    "street": null,
    "office_name": null,
    "office_name_kana": null
  },
  "3531": {
    "postcode": "6893531",
    "prefecture": "鳥取県",
    "prefecture_kana": "トットリケン",
    "prefecture_code": 31,
    "city": "米子市",
    "city_kana": "ヨナゴシ",
    "town": "下新印",
    "town_kana": "シモシイ",
    "street": null,
    "office_name": null,
    "office_name_kana": null
  },
  "3532": {
    "postcode": "6893532",
    "prefecture": "鳥取県",
    "prefecture_kana": "トットリケン",
    "prefecture_code": 31,
    "city": "米子市",
    "city_kana": "ヨナゴシ",
    "town": "上新印",
    "town_kana": "カミシイ",
    "street": null,
    "office_name": null,
    "office_name_kana": null
  },
  "3533": {
    "postcode": "6893533",
    "prefecture": "鳥取県",
    "prefecture_kana": "トットリケン",
    "prefecture_code": 31,
    "city": "米子市",
    "city_kana": "ヨナゴシ",
    "town": "一部",
    "town_kana": "イチブ",
    "street": null,
    "office_name": null,
    "office_name_kana": null
  },
  "3534": {
    "postcode": "6893534",
    "prefecture": "鳥取県",
    "prefecture_kana": "トットリケン",
    "prefecture_code": 31,
    "city": "米子市",
    "city_kana": "ヨナゴシ",
    "town": "水浜",
    "town_kana": "ミズハマ",
    "street": null,
    "office_name": null,
    "office_name_kana": null
  },
  "3535": {
    "postcode": "6893535",
    "prefecture": "鳥取県",
    "prefecture_kana": "トットリケン",
    "prefecture_code": 31,
    "city": "米子市",
    "city_kana": "ヨナゴシ",
    "town": "東八幡",
    "town_kana": "ヒガシヤワタ",
    "street": null,
    "office_name": null,
    "office_name_kana": null
  },
  "3536": {
    "postcode": "6893536",
    "prefecture": "鳥取県",
    "prefecture_kana": "トットリケン",
    "prefecture_code": 31,
    "city": "米子市",
    "city_kana": "ヨナゴシ",
    "town": "高島",
    "town_kana": "タカシマ",
    "street": null,
    "office_name": null,
    "office_name_kana": null
  },
  "3537": {
    "postcode": "6893537",
    "prefecture": "鳥取県",
    "prefecture_kana": "トットリケン",
    "prefecture_code": 31,
    "city": "米子市",
    "city_kana": "ヨナゴシ",
    "town": "古豊千",
    "town_kana": "コホウチ",
    "street": null,
    "office_name": null,
    "office_name_kana": null
  },
  "3541": {
    "postcode": "6893541",
    "prefecture": "鳥取県",
    "prefecture_kana": "トットリケン",
    "prefecture_code": 31,
    "city": "米子市",
    "city_kana": "ヨナゴシ",
    "town": "二本木",
    "town_kana": "ニホンギ",
    "street": null,
    "office_name": null,
    "office_name_kana": null
  },
  "3542": {
    "postcode": "6893542",
    "prefecture": "鳥取県",
    "prefecture_kana": "トットリケン",
    "prefecture_code": 31,
    "city": "米子市",
    "city_kana": "ヨナゴシ",
    "town": "今在家",
    "town_kana": "イマザイケ",
    "street": null,
    "office_name": null,
    "office_name_kana": null
  },
  "3543": {
    "postcode": "6893543",
    "prefecture": "鳥取県",
    "prefecture_kana": "トットリケン",
    "prefecture_code": 31,
    "city": "米子市",
    "city_kana": "ヨナゴシ",
    "town": "蚊屋",
    "town_kana": "カヤ",
    "street": null,
    "office_name": null,
    "office_name_kana": null
  },
  "3544": {
    "postcode": "6893544",
    "prefecture": "鳥取県",
    "prefecture_kana": "トットリケン",
    "prefecture_code": 31,
    "city": "米子市",
    "city_kana": "ヨナゴシ",
    "town": "浦津",
    "town_kana": "ウラツ",
    "street": null,
    "office_name": null,
    "office_name_kana": null
  },
  "3545": {
    "postcode": "6893545",
    "prefecture": "鳥取県",
    "prefecture_kana": "トットリケン",
    "prefecture_code": 31,
    "city": "米子市",
    "city_kana": "ヨナゴシ",
    "town": "吉岡",
    "town_kana": "ヨシオカ",
    "street": null,
    "office_name": null,
    "office_name_kana": null
  },
  "3546": {
    "postcode": "6893546",
    "prefecture": "鳥取県",
    "prefecture_kana": "トットリケン",
    "prefecture_code": 31,
    "city": "米子市",
    "city_kana": "ヨナゴシ",
    "town": "熊党",
    "town_kana": "クマントウ",
    "street": null,
    "office_name": null,
    "office_name_kana": null
  },
  "3547": {
    "postcode": "6893547",
    "prefecture": "鳥取県",
    "prefecture_kana": "トットリケン",
    "prefecture_code": 31,
    "city": "米子市",
    "city_kana": "ヨナゴシ",
    "town": "流通町",
    "town_kana": "リュウツウチョウ",
    "street": null,
    "office_name": null,
    "office_name_kana": null
  },
  "3551": {
    "postcode": "6893551",
    "prefecture": "鳥取県",
    "prefecture_kana": "トットリケン",
    "prefecture_code": 31,
    "city": "西伯郡日吉津村",
    "city_kana": "サイハクグンヒエヅソン",
    "town": "今吉",
    "town_kana": "イマヨシ",
    "street": null,
    "office_name": null,
    "office_name_kana": null
  },
  "3552": {
    "postcode": "6893552",
    "prefecture": "鳥取県",
    "prefecture_kana": "トットリケン",
    "prefecture_code": 31,
    "city": "西伯郡日吉津村",
    "city_kana": "サイハクグンヒエヅソン",
    "town": "富吉",
    "town_kana": "トミヨシ",
    "street": null,
    "office_name": null,
    "office_name_kana": null
  },
  "3553": {
    "postcode": "6893553",
    "prefecture": "鳥取県",
    "prefecture_kana": "トットリケン",
    "prefecture_code": 31,
    "city": "西伯郡日吉津村",
    "city_kana": "サイハクグンヒエヅソン",
    "town": "日吉津",
    "town_kana": "ヒエヅ",
    "street": null,
    "office_name": null,
    "office_name_kana": null
  },
  "3592": {
    "postcode": "6893592",
    "prefecture": "鳥取県",
    "prefecture_kana": "トットリケン",
    "prefecture_code": 31,
    "city": "米子市",
    "city_kana": "ヨナゴシ",
    "town": "吉岡",
    "town_kana": "ヨシオカ",
    "street": "３７３",
    "office_name": "王子製紙　株式会社　米子工場",
    "office_name_kana": "オウジセイシ カブシキガイシヤ ヨナゴコウジヨウ"
  },
  "4100": {
    "postcode": "6894100",
    "prefecture": "鳥取県",
    "prefecture_kana": "トットリケン",
    "prefecture_code": 31,
    "city": "西伯郡伯耆町",
    "city_kana": "サイハクグンホウキチョウ",
    "town": "",
    "town_kana": "",
    "street": null,
    "office_name": null,
    "office_name_kana": null
  },
  "4101": {
    "postcode": "6894101",
    "prefecture": "鳥取県",
    "prefecture_kana": "トットリケン",
    "prefecture_code": 31,
    "city": "西伯郡伯耆町",
    "city_kana": "サイハクグンホウキチョウ",
    "town": "小林",
    "town_kana": "コバヤシ",
    "street": null,
    "office_name": null,
    "office_name_kana": null
  },
  "4102": {
    "postcode": "6894102",
    "prefecture": "鳥取県",
    "prefecture_kana": "トットリケン",
    "prefecture_code": 31,
    "city": "西伯郡伯耆町",
    "city_kana": "サイハクグンホウキチョウ",
    "town": "大原",
    "town_kana": "オオハラ",
    "street": null,
    "office_name": null,
    "office_name_kana": null
  },
  "4103": {
    "postcode": "6894103",
    "prefecture": "鳥取県",
    "prefecture_kana": "トットリケン",
    "prefecture_code": 31,
    "city": "西伯郡伯耆町",
    "city_kana": "サイハクグンホウキチョウ",
    "town": "真野",
    "town_kana": "マノ",
    "street": null,
    "office_name": null,
    "office_name_kana": null
  },
  "4104": {
    "postcode": "6894104",
    "prefecture": "鳥取県",
    "prefecture_kana": "トットリケン",
    "prefecture_code": 31,
    "city": "西伯郡伯耆町",
    "city_kana": "サイハクグンホウキチョウ",
    "town": "番原",
    "town_kana": "バンバラ",
    "street": null,
    "office_name": null,
    "office_name_kana": null
  },
  "4105": {
    "postcode": "6894105",
    "prefecture": "鳥取県",
    "prefecture_kana": "トットリケン",
    "prefecture_code": 31,
    "city": "西伯郡伯耆町",
    "city_kana": "サイハクグンホウキチョウ",
    "town": "久古",
    "town_kana": "クゴ",
    "street": null,
    "office_name": null,
    "office_name_kana": null
  },
  "4106": {
    "postcode": "6894106",
    "prefecture": "鳥取県",
    "prefecture_kana": "トットリケン",
    "prefecture_code": 31,
    "city": "西伯郡伯耆町",
    "city_kana": "サイハクグンホウキチョウ",
    "town": "口別所",
    "town_kana": "クチベッシヨ",
    "street": null,
    "office_name": null,
    "office_name_kana": null
  },
  "4107": {
    "postcode": "6894107",
    "prefecture": "鳥取県",
    "prefecture_kana": "トットリケン",
    "prefecture_code": 31,
    "city": "西伯郡伯耆町",
    "city_kana": "サイハクグンホウキチョウ",
    "town": "須村",
    "town_kana": "スムラ",
    "street": null,
    "office_name": null,
    "office_name_kana": null
  },
  "4108": {
    "postcode": "6894108",
    "prefecture": "鳥取県",
    "prefecture_kana": "トットリケン",
    "prefecture_code": 31,
    "city": "西伯郡伯耆町",
    "city_kana": "サイハクグンホウキチョウ",
    "town": "丸山",
    "town_kana": "マルヤマ",
    "street": null,
    "office_name": null,
    "office_name_kana": null
  },
  "4111": {
    "postcode": "6894111",
    "prefecture": "鳥取県",
    "prefecture_kana": "トットリケン",
    "prefecture_code": 31,
    "city": "西伯郡伯耆町",
    "city_kana": "サイハクグンホウキチョウ",
    "town": "清原",
    "town_kana": "キヨハラ",
    "street": null,
    "office_name": null,
    "office_name_kana": null
  },
  "4112": {
    "postcode": "6894112",
    "prefecture": "鳥取県",
    "prefecture_kana": "トットリケン",
    "prefecture_code": 31,
    "city": "西伯郡伯耆町",
    "city_kana": "サイハクグンホウキチョウ",
    "town": "上細見",
    "town_kana": "カミホソミ",
    "street": null,
    "office_name": null,
    "office_name_kana": null
  },
  "4113": {
    "postcode": "6894113",
    "prefecture": "鳥取県",
    "prefecture_kana": "トットリケン",
    "prefecture_code": 31,
    "city": "西伯郡伯耆町",
    "city_kana": "サイハクグンホウキチョウ",
    "town": "小野",
    "town_kana": "オノ",
    "street": null,
    "office_name": null,
    "office_name_kana": null
  },
  "4114": {
    "postcode": "6894114",
    "prefecture": "鳥取県",
    "prefecture_kana": "トットリケン",
    "prefecture_code": 31,
    "city": "西伯郡伯耆町",
    "city_kana": "サイハクグンホウキチョウ",
    "town": "立岩",
    "town_kana": "タテイワ",
    "street": null,
    "office_name": null,
    "office_name_kana": null
  },
  "4115": {
    "postcode": "6894115",
    "prefecture": "鳥取県",
    "prefecture_kana": "トットリケン",
    "prefecture_code": 31,
    "city": "西伯郡伯耆町",
    "city_kana": "サイハクグンホウキチョウ",
    "town": "小町",
    "town_kana": "コマチ",
    "street": null,
    "office_name": null,
    "office_name_kana": null
  },
  "4121": {
    "postcode": "6894121",
    "prefecture": "鳥取県",
    "prefecture_kana": "トットリケン",
    "prefecture_code": 31,
    "city": "西伯郡伯耆町",
    "city_kana": "サイハクグンホウキチョウ",
    "town": "大殿",
    "town_kana": "オオトノ",
    "street": null,
    "office_name": null,
    "office_name_kana": null
  },
  "4122": {
    "postcode": "6894122",
    "prefecture": "鳥取県",
    "prefecture_kana": "トットリケン",
    "prefecture_code": 31,
    "city": "西伯郡伯耆町",
    "city_kana": "サイハクグンホウキチョウ",
    "town": "坂長",
    "town_kana": "サカチョウ",
    "street": null,
    "office_name": null,
    "office_name_kana": null
  },
  "4123": {
    "postcode": "6894123",
    "prefecture": "鳥取県",
    "prefecture_kana": "トットリケン",
    "prefecture_code": 31,
    "city": "西伯郡伯耆町",
    "city_kana": "サイハクグンホウキチョウ",
    "town": "岩屋谷",
    "town_kana": "イワヤダニ",
    "street": null,
    "office_name": null,
    "office_name_kana": null
  },
  "4131": {
    "postcode": "6894131",
    "prefecture": "鳥取県",
    "prefecture_kana": "トットリケン",
    "prefecture_code": 31,
    "city": "西伯郡伯耆町",
    "city_kana": "サイハクグンホウキチョウ",
    "town": "吉定",
    "town_kana": "ヨシサダ",
    "street": null,
    "office_name": null,
    "office_name_kana": null
  },
  "4132": {
    "postcode": "6894132",
    "prefecture": "鳥取県",
    "prefecture_kana": "トットリケン",
    "prefecture_code": 31,
    "city": "西伯郡伯耆町",
    "city_kana": "サイハクグンホウキチョウ",
    "town": "岸本",
    "town_kana": "キシモト",
    "street": null,
    "office_name": null,
    "office_name_kana": null
  },
  "4133": {
    "postcode": "6894133",
    "prefecture": "鳥取県",
    "prefecture_kana": "トットリケン",
    "prefecture_code": 31,
    "city": "西伯郡伯耆町",
    "city_kana": "サイハクグンホウキチョウ",
    "town": "吉長",
    "town_kana": "ヨシナガ",
    "street": null,
    "office_name": null,
    "office_name_kana": null
  },
  "4134": {
    "postcode": "6894134",
    "prefecture": "鳥取県",
    "prefecture_kana": "トットリケン",
    "prefecture_code": 31,
    "city": "西伯郡伯耆町",
    "city_kana": "サイハクグンホウキチョウ",
    "town": "遠藤",
    "town_kana": "エンドウ",
    "street": null,
    "office_name": null,
    "office_name_kana": null
  },
  "4135": {
    "postcode": "6894135",
    "prefecture": "鳥取県",
    "prefecture_kana": "トットリケン",
    "prefecture_code": 31,
    "city": "西伯郡伯耆町",
    "city_kana": "サイハクグンホウキチョウ",
    "town": "押口",
    "town_kana": "オサエグチ",
    "street": null,
    "office_name": null,
    "office_name_kana": null
  },
  "4136": {
    "postcode": "6894136",
    "prefecture": "鳥取県",
    "prefecture_kana": "トットリケン",
    "prefecture_code": 31,
    "city": "西伯郡伯耆町",
    "city_kana": "サイハクグンホウキチョウ",
    "town": "福岡原",
    "town_kana": "フクオカハラ",
    "street": null,
    "office_name": null,
    "office_name_kana": null
  },
  "4201": {
    "postcode": "6894201",
    "prefecture": "鳥取県",
    "prefecture_kana": "トットリケン",
    "prefecture_code": 31,
    "city": "西伯郡伯耆町",
    "city_kana": "サイハクグンホウキチョウ",
    "town": "溝口",
    "town_kana": "ミゾクチ",
    "street": null,
    "office_name": null,
    "office_name_kana": null
  },
  "4202": {
    "postcode": "6894202",
    "prefecture": "鳥取県",
    "prefecture_kana": "トットリケン",
    "prefecture_code": 31,
    "city": "西伯郡伯耆町",
    "city_kana": "サイハクグンホウキチョウ",
    "town": "長山",
    "town_kana": "ナガヤマ",
    "street": null,
    "office_name": null,
    "office_name_kana": null
  },
  "4203": {
    "postcode": "6894203",
    "prefecture": "鳥取県",
    "prefecture_kana": "トットリケン",
    "prefecture_code": 31,
    "city": "西伯郡伯耆町",
    "city_kana": "サイハクグンホウキチョウ",
    "town": "貴住",
    "town_kana": "キズミ",
    "street": null,
    "office_name": null,
    "office_name_kana": null
  },
  "4204": {
    "postcode": "6894204",
    "prefecture": "鳥取県",
    "prefecture_kana": "トットリケン",
    "prefecture_code": 31,
    "city": "西伯郡伯耆町",
    "city_kana": "サイハクグンホウキチョウ",
    "town": "谷川",
    "town_kana": "タニガワ",
    "street": null,
    "office_name": null,
    "office_name_kana": null
  },
  "4205": {
    "postcode": "6894205",
    "prefecture": "鳥取県",
    "prefecture_kana": "トットリケン",
    "prefecture_code": 31,
    "city": "西伯郡伯耆町",
    "city_kana": "サイハクグンホウキチョウ",
    "town": "大倉",
    "town_kana": "オオクラ",
    "street": null,
    "office_name": null,
    "office_name_kana": null
  },
  "4206": {
    "postcode": "6894206",
    "prefecture": "鳥取県",
    "prefecture_kana": "トットリケン",
    "prefecture_code": 31,
    "city": "西伯郡伯耆町",
    "city_kana": "サイハクグンホウキチョウ",
    "town": "宮原",
    "town_kana": "ミヤバラ",
    "street": null,
    "office_name": null,
    "office_name_kana": null
  },
  "4207": {
    "postcode": "6894207",
    "prefecture": "鳥取県",
    "prefecture_kana": "トットリケン",
    "prefecture_code": 31,
    "city": "西伯郡伯耆町",
    "city_kana": "サイハクグンホウキチョウ",
    "town": "宇代",
    "town_kana": "ウダイ",
    "street": null,
    "office_name": null,
    "office_name_kana": null
  },
  "4211": {
    "postcode": "6894211",
    "prefecture": "鳥取県",
    "prefecture_kana": "トットリケン",
    "prefecture_code": 31,
    "city": "西伯郡伯耆町",
    "city_kana": "サイハクグンホウキチョウ",
    "town": "大江",
    "town_kana": "オオエ",
    "street": null,
    "office_name": null,
    "office_name_kana": null
  },
  "4212": {
    "postcode": "6894212",
    "prefecture": "鳥取県",
    "prefecture_kana": "トットリケン",
    "prefecture_code": 31,
    "city": "西伯郡伯耆町",
    "city_kana": "サイハクグンホウキチョウ",
    "town": "上野",
    "town_kana": "ウエノ",
    "street": null,
    "office_name": null,
    "office_name_kana": null
  },
  "4213": {
    "postcode": "6894213",
    "prefecture": "鳥取県",
    "prefecture_kana": "トットリケン",
    "prefecture_code": 31,
    "city": "西伯郡伯耆町",
    "city_kana": "サイハクグンホウキチョウ",
    "town": "金屋谷",
    "town_kana": "カナヤダニ",
    "street": null,
    "office_name": null,
    "office_name_kana": null
  },
  "4214": {
    "postcode": "6894214",
    "prefecture": "鳥取県",
    "prefecture_kana": "トットリケン",
    "prefecture_code": 31,
    "city": "西伯郡伯耆町",
    "city_kana": "サイハクグンホウキチョウ",
    "town": "岩立",
    "town_kana": "イワタテ",
    "street": null,
    "office_name": null,
    "office_name_kana": null
  },
  "4215": {
    "postcode": "6894215",
    "prefecture": "鳥取県",
    "prefecture_kana": "トットリケン",
    "prefecture_code": 31,
    "city": "西伯郡伯耆町",
    "city_kana": "サイハクグンホウキチョウ",
    "town": "大内",
    "town_kana": "オオウチ",
    "street": null,
    "office_name": null,
    "office_name_kana": null
  },
  "4216": {
    "postcode": "6894216",
    "prefecture": "鳥取県",
    "prefecture_kana": "トットリケン",
    "prefecture_code": 31,
    "city": "西伯郡伯耆町",
    "city_kana": "サイハクグンホウキチョウ",
    "town": "福兼",
    "town_kana": "フクカネ",
    "street": null,
    "office_name": null,
    "office_name_kana": null
  },
  "4217": {
    "postcode": "6894217",
    "prefecture": "鳥取県",
    "prefecture_kana": "トットリケン",
    "prefecture_code": 31,
    "city": "西伯郡伯耆町",
    "city_kana": "サイハクグンホウキチョウ",
    "town": "添谷",
    "town_kana": "ソエダニ",
    "street": null,
    "office_name": null,
    "office_name_kana": null
  },
  "4221": {
    "postcode": "6894221",
    "prefecture": "鳥取県",
    "prefecture_kana": "トットリケン",
    "prefecture_code": 31,
    "city": "西伯郡伯耆町",
    "city_kana": "サイハクグンホウキチョウ",
    "town": "富江",
    "town_kana": "トミエ",
    "street": null,
    "office_name": null,
    "office_name_kana": null
  },
  "4222": {
    "postcode": "6894222",
    "prefecture": "鳥取県",
    "prefecture_kana": "トットリケン",
    "prefecture_code": 31,
    "city": "西伯郡伯耆町",
    "city_kana": "サイハクグンホウキチョウ",
    "town": "大滝",
    "town_kana": "オオタキ",
    "street": null,
    "office_name": null,
    "office_name_kana": null
  },
  "4223": {
    "postcode": "6894223",
    "prefecture": "鳥取県",
    "prefecture_kana": "トットリケン",
    "prefecture_code": 31,
    "city": "西伯郡伯耆町",
    "city_kana": "サイハクグンホウキチョウ",
    "town": "栃原",
    "town_kana": "トチバラ",
    "street": null,
    "office_name": null,
    "office_name_kana": null
  },
  "4224": {
    "postcode": "6894224",
    "prefecture": "鳥取県",
    "prefecture_kana": "トットリケン",
    "prefecture_code": 31,
    "city": "西伯郡伯耆町",
    "city_kana": "サイハクグンホウキチョウ",
    "town": "根雨原",
    "town_kana": "ネウバラ",
    "street": null,
    "office_name": null,
    "office_name_kana": null
  },
  "4225": {
    "postcode": "6894225",
    "prefecture": "鳥取県",
    "prefecture_kana": "トットリケン",
    "prefecture_code": 31,
    "city": "西伯郡伯耆町",
    "city_kana": "サイハクグンホウキチョウ",
    "town": "白水",
    "town_kana": "シラミ",
    "street": null,
    "office_name": null,
    "office_name_kana": null
  },
  "4226": {
    "postcode": "6894226",
    "prefecture": "鳥取県",
    "prefecture_kana": "トットリケン",
    "prefecture_code": 31,
    "city": "西伯郡伯耆町",
    "city_kana": "サイハクグンホウキチョウ",
    "town": "大坂",
    "town_kana": "オオサカ",
    "street": null,
    "office_name": null,
    "office_name_kana": null
  },
  "4231": {
    "postcode": "6894231",
    "prefecture": "鳥取県",
    "prefecture_kana": "トットリケン",
    "prefecture_code": 31,
    "city": "西伯郡伯耆町",
    "city_kana": "サイハクグンホウキチョウ",
    "town": "船越",
    "town_kana": "フナコシ",
    "street": null,
    "office_name": null,
    "office_name_kana": null
  },
  "4232": {
    "postcode": "6894232",
    "prefecture": "鳥取県",
    "prefecture_kana": "トットリケン",
    "prefecture_code": 31,
    "city": "西伯郡伯耆町",
    "city_kana": "サイハクグンホウキチョウ",
    "town": "福島",
    "town_kana": "フクジマ",
    "street": null,
    "office_name": null,
    "office_name_kana": null
  },
  "4233": {
    "postcode": "6894233",
    "prefecture": "鳥取県",
    "prefecture_kana": "トットリケン",
    "prefecture_code": 31,
    "city": "西伯郡伯耆町",
    "city_kana": "サイハクグンホウキチョウ",
    "town": "二部",
    "town_kana": "ニブ",
    "street": null,
    "office_name": null,
    "office_name_kana": null
  },
  "4234": {
    "postcode": "6894234",
    "prefecture": "鳥取県",
    "prefecture_kana": "トットリケン",
    "prefecture_code": 31,
    "city": "西伯郡伯耆町",
    "city_kana": "サイハクグンホウキチョウ",
    "town": "畑池",
    "town_kana": "ハタイケ",
    "street": null,
    "office_name": null,
    "office_name_kana": null
  },
  "4235": {
    "postcode": "6894235",
    "prefecture": "鳥取県",
    "prefecture_kana": "トットリケン",
    "prefecture_code": 31,
    "city": "西伯郡伯耆町",
    "city_kana": "サイハクグンホウキチョウ",
    "town": "福岡",
    "town_kana": "フクオカ",
    "street": null,
    "office_name": null,
    "office_name_kana": null
  },
  "4236": {
    "postcode": "6894236",
    "prefecture": "鳥取県",
    "prefecture_kana": "トットリケン",
    "prefecture_code": 31,
    "city": "西伯郡伯耆町",
    "city_kana": "サイハクグンホウキチョウ",
    "town": "焼杉",
    "town_kana": "ヤケスギ",
    "street": null,
    "office_name": null,
    "office_name_kana": null
  },
  "4237": {
    "postcode": "6894237",
    "prefecture": "鳥取県",
    "prefecture_kana": "トットリケン",
    "prefecture_code": 31,
    "city": "西伯郡伯耆町",
    "city_kana": "サイハクグンホウキチョウ",
    "town": "福居",
    "town_kana": "フクイ",
    "street": null,
    "office_name": null,
    "office_name_kana": null
  },
  "4241": {
    "postcode": "6894241",
    "prefecture": "鳥取県",
    "prefecture_kana": "トットリケン",
    "prefecture_code": 31,
    "city": "西伯郡伯耆町",
    "city_kana": "サイハクグンホウキチョウ",
    "town": "中祖",
    "town_kana": "ナカゾ",
    "street": null,
    "office_name": null,
    "office_name_kana": null
  },
  "4242": {
    "postcode": "6894242",
    "prefecture": "鳥取県",
    "prefecture_kana": "トットリケン",
    "prefecture_code": 31,
    "city": "西伯郡伯耆町",
    "city_kana": "サイハクグンホウキチョウ",
    "town": "古市",
    "town_kana": "フルイチ",
    "street": null,
    "office_name": null,
    "office_name_kana": null
  },
  "4243": {
    "postcode": "6894243",
    "prefecture": "鳥取県",
    "prefecture_kana": "トットリケン",
    "prefecture_code": 31,
    "city": "西伯郡伯耆町",
    "city_kana": "サイハクグンホウキチョウ",
    "town": "荘",
    "town_kana": "ショウ",
    "street": null,
    "office_name": null,
    "office_name_kana": null
  },
  "4244": {
    "postcode": "6894244",
    "prefecture": "鳥取県",
    "prefecture_kana": "トットリケン",
    "prefecture_code": 31,
    "city": "西伯郡伯耆町",
    "city_kana": "サイハクグンホウキチョウ",
    "town": "父原",
    "town_kana": "チチバラ",
    "street": null,
    "office_name": null,
    "office_name_kana": null
  },
  "4245": {
    "postcode": "6894245",
    "prefecture": "鳥取県",
    "prefecture_kana": "トットリケン",
    "prefecture_code": 31,
    "city": "西伯郡伯耆町",
    "city_kana": "サイハクグンホウキチョウ",
    "town": "福吉",
    "town_kana": "フクヨシ",
    "street": null,
    "office_name": null,
    "office_name_kana": null
  },
  "4246": {
    "postcode": "6894246",
    "prefecture": "鳥取県",
    "prefecture_kana": "トットリケン",
    "prefecture_code": 31,
    "city": "西伯郡伯耆町",
    "city_kana": "サイハクグンホウキチョウ",
    "town": "三部",
    "town_kana": "サンブ",
    "street": null,
    "office_name": null,
    "office_name_kana": null
  },
  "4292": {
    "postcode": "6894292",
    "prefecture": "鳥取県",
    "prefecture_kana": "トットリケン",
    "prefecture_code": 31,
    "city": "西伯郡伯耆町",
    "city_kana": "サイハクグンホウキチョウ",
    "town": "溝口",
    "town_kana": "ミゾクチ",
    "street": "６４７",
    "office_name": "伯耆町役場　溝口分庁舎",
    "office_name_kana": "ホウキチヨウヤクバ ミゾグチブンチヨウシヤ"
  },
  "4400": {
    "postcode": "6894400",
    "prefecture": "鳥取県",
    "prefecture_kana": "トットリケン",
    "prefecture_code": 31,
    "city": "日野郡江府町",
    "city_kana": "ヒノグンコウフチョウ",
    "town": "",
    "town_kana": "",
    "street": null,
    "office_name": null,
    "office_name_kana": null
  },
  "4401": {
    "postcode": "6894401",
    "prefecture": "鳥取県",
    "prefecture_kana": "トットリケン",
    "prefecture_code": 31,
    "city": "日野郡江府町",
    "city_kana": "ヒノグンコウフチョウ",
    "town": "江尾",
    "town_kana": "エビ",
    "street": null,
    "office_name": null,
    "office_name_kana": null
  },
  "4402": {
    "postcode": "6894402",
    "prefecture": "鳥取県",
    "prefecture_kana": "トットリケン",
    "prefecture_code": 31,
    "city": "日野郡江府町",
    "city_kana": "ヒノグンコウフチョウ",
    "town": "小江尾",
    "town_kana": "コエビ",
    "street": null,
    "office_name": null,
    "office_name_kana": null
  },
  "4403": {
    "postcode": "6894403",
    "prefecture": "鳥取県",
    "prefecture_kana": "トットリケン",
    "prefecture_code": 31,
    "city": "日野郡江府町",
    "city_kana": "ヒノグンコウフチョウ",
    "town": "久連",
    "town_kana": "クレ",
    "street": null,
    "office_name": null,
    "office_name_kana": null
  },
  "4411": {
    "postcode": "6894411",
    "prefecture": "鳥取県",
    "prefecture_kana": "トットリケン",
    "prefecture_code": 31,
    "city": "日野郡江府町",
    "city_kana": "ヒノグンコウフチョウ",
    "town": "武庫",
    "town_kana": "ムコ",
    "street": null,
    "office_name": null,
    "office_name_kana": null
  },
  "4412": {
    "postcode": "6894412",
    "prefecture": "鳥取県",
    "prefecture_kana": "トットリケン",
    "prefecture_code": 31,
    "city": "日野郡江府町",
    "city_kana": "ヒノグンコウフチョウ",
    "town": "下安井",
    "town_kana": "シモヤスイ",
    "street": null,
    "office_name": null,
    "office_name_kana": null
  },
  "4413": {
    "postcode": "6894413",
    "prefecture": "鳥取県",
    "prefecture_kana": "トットリケン",
    "prefecture_code": 31,
    "city": "日野郡江府町",
    "city_kana": "ヒノグンコウフチョウ",
    "town": "洲河崎",
    "town_kana": "スガサキ",
    "street": null,
    "office_name": null,
    "office_name_kana": null
  },
  "4414": {
    "postcode": "6894414",
    "prefecture": "鳥取県",
    "prefecture_kana": "トットリケン",
    "prefecture_code": 31,
    "city": "日野郡江府町",
    "city_kana": "ヒノグンコウフチョウ",
    "town": "俣野",
    "town_kana": "マタノ",
    "street": null,
    "office_name": null,
    "office_name_kana": null
  },
  "4421": {
    "postcode": "6894421",
    "prefecture": "鳥取県",
    "prefecture_kana": "トットリケン",
    "prefecture_code": 31,
    "city": "日野郡江府町",
    "city_kana": "ヒノグンコウフチョウ",
    "town": "宮市",
    "town_kana": "ミヤイチ",
    "street": null,
    "office_name": null,
    "office_name_kana": null
  },
  "4422": {
    "postcode": "6894422",
    "prefecture": "鳥取県",
    "prefecture_kana": "トットリケン",
    "prefecture_code": 31,
    "city": "日野郡江府町",
    "city_kana": "ヒノグンコウフチョウ",
    "town": "杉谷",
    "town_kana": "スギタニ",
    "street": null,
    "office_name": null,
    "office_name_kana": null
  },
  "4423": {
    "postcode": "6894423",
    "prefecture": "鳥取県",
    "prefecture_kana": "トットリケン",
    "prefecture_code": 31,
    "city": "日野郡江府町",
    "city_kana": "ヒノグンコウフチョウ",
    "town": "美用",
    "town_kana": "ミヨウ",
    "street": null,
    "office_name": null,
    "office_name_kana": null
  },
  "4424": {
    "postcode": "6894424",
    "prefecture": "鳥取県",
    "prefecture_kana": "トットリケン",
    "prefecture_code": 31,
    "city": "日野郡江府町",
    "city_kana": "ヒノグンコウフチョウ",
    "town": "御机",
    "town_kana": "ミツクエ",
    "street": null,
    "office_name": null,
    "office_name_kana": null
  },
  "4425": {
    "postcode": "6894425",
    "prefecture": "鳥取県",
    "prefecture_kana": "トットリケン",
    "prefecture_code": 31,
    "city": "日野郡江府町",
    "city_kana": "ヒノグンコウフチョウ",
    "town": "下蚊屋",
    "town_kana": "サガリカヤ",
    "street": null,
    "office_name": null,
    "office_name_kana": null
  },
  "4426": {
    "postcode": "6894426",
    "prefecture": "鳥取県",
    "prefecture_kana": "トットリケン",
    "prefecture_code": 31,
    "city": "日野郡江府町",
    "city_kana": "ヒノグンコウフチョウ",
    "town": "助沢",
    "town_kana": "スケサワ",
    "street": null,
    "office_name": null,
    "office_name_kana": null
  },
  "4431": {
    "postcode": "6894431",
    "prefecture": "鳥取県",
    "prefecture_kana": "トットリケン",
    "prefecture_code": 31,
    "city": "日野郡江府町",
    "city_kana": "ヒノグンコウフチョウ",
    "town": "佐川",
    "town_kana": "サガワ",
    "street": null,
    "office_name": null,
    "office_name_kana": null
  },
  "4432": {
    "postcode": "6894432",
    "prefecture": "鳥取県",
    "prefecture_kana": "トットリケン",
    "prefecture_code": 31,
    "city": "日野郡江府町",
    "city_kana": "ヒノグンコウフチョウ",
    "town": "柿原",
    "town_kana": "カキバラ",
    "street": null,
    "office_name": null,
    "office_name_kana": null
  },
  "4433": {
    "postcode": "6894433",
    "prefecture": "鳥取県",
    "prefecture_kana": "トットリケン",
    "prefecture_code": 31,
    "city": "日野郡江府町",
    "city_kana": "ヒノグンコウフチョウ",
    "town": "吉原",
    "town_kana": "ヨシハラ",
    "street": null,
    "office_name": null,
    "office_name_kana": null
  },
  "4434": {
    "postcode": "6894434",
    "prefecture": "鳥取県",
    "prefecture_kana": "トットリケン",
    "prefecture_code": 31,
    "city": "日野郡江府町",
    "city_kana": "ヒノグンコウフチョウ",
    "town": "大河原",
    "town_kana": "オオカワラ",
    "street": null,
    "office_name": null,
    "office_name_kana": null
  },
  "4435": {
    "postcode": "6894435",
    "prefecture": "鳥取県",
    "prefecture_kana": "トットリケン",
    "prefecture_code": 31,
    "city": "日野郡江府町",
    "city_kana": "ヒノグンコウフチョウ",
    "town": "貝田",
    "town_kana": "カイダ",
    "street": null,
    "office_name": null,
    "office_name_kana": null
  },
  "4500": {
    "postcode": "6894500",
    "prefecture": "鳥取県",
    "prefecture_kana": "トットリケン",
    "prefecture_code": 31,
    "city": "日野郡日野町",
    "city_kana": "ヒノグンヒノチョウ",
    "town": "",
    "town_kana": "",
    "street": null,
    "office_name": null,
    "office_name_kana": null
  },
  "4501": {
    "postcode": "6894501",
    "prefecture": "鳥取県",
    "prefecture_kana": "トットリケン",
    "prefecture_code": 31,
    "city": "日野郡日野町",
    "city_kana": "ヒノグンヒノチョウ",
    "town": "貝原",
    "town_kana": "カイハラ",
    "street": null,
    "office_name": null,
    "office_name_kana": null
  },
  "4502": {
    "postcode": "6894502",
    "prefecture": "鳥取県",
    "prefecture_kana": "トットリケン",
    "prefecture_code": 31,
    "city": "日野郡日野町",
    "city_kana": "ヒノグンヒノチョウ",
    "town": "三谷",
    "town_kana": "ミタニ",
    "street": null,
    "office_name": null,
    "office_name_kana": null
  },
  "4503": {
    "postcode": "6894503",
    "prefecture": "鳥取県",
    "prefecture_kana": "トットリケン",
    "prefecture_code": 31,
    "city": "日野郡日野町",
    "city_kana": "ヒノグンヒノチョウ",
    "town": "根雨",
    "town_kana": "ネウ",
    "street": null,
    "office_name": null,
    "office_name_kana": null
  },
  "4504": {
    "postcode": "6894504",
    "prefecture": "鳥取県",
    "prefecture_kana": "トットリケン",
    "prefecture_code": 31,
    "city": "日野郡日野町",
    "city_kana": "ヒノグンヒノチョウ",
    "town": "野田",
    "town_kana": "ノタ",
    "street": null,
    "office_name": null,
    "office_name_kana": null
  },
  "4505": {
    "postcode": "6894505",
    "prefecture": "鳥取県",
    "prefecture_kana": "トットリケン",
    "prefecture_code": 31,
    "city": "日野郡日野町",
    "city_kana": "ヒノグンヒノチョウ",
    "town": "舟場",
    "town_kana": "フナバ",
    "street": null,
    "office_name": null,
    "office_name_kana": null
  },
  "4511": {
    "postcode": "6894511",
    "prefecture": "鳥取県",
    "prefecture_kana": "トットリケン",
    "prefecture_code": 31,
    "city": "日野郡日野町",
    "city_kana": "ヒノグンヒノチョウ",
    "town": "高尾",
    "town_kana": "コオ",
    "street": null,
    "office_name": null,
    "office_name_kana": null
  },
  "4512": {
    "postcode": "6894512",
    "prefecture": "鳥取県",
    "prefecture_kana": "トットリケン",
    "prefecture_code": 31,
    "city": "日野郡日野町",
    "city_kana": "ヒノグンヒノチョウ",
    "town": "金持",
    "town_kana": "カモチ",
    "street": null,
    "office_name": null,
    "office_name_kana": null
  },
  "4513": {
    "postcode": "6894513",
    "prefecture": "鳥取県",
    "prefecture_kana": "トットリケン",
    "prefecture_code": 31,
    "city": "日野郡日野町",
    "city_kana": "ヒノグンヒノチョウ",
    "town": "板井原",
    "town_kana": "イタイバラ",
    "street": null,
    "office_name": null,
    "office_name_kana": null
  },
  "4514": {
    "postcode": "6894514",
    "prefecture": "鳥取県",
    "prefecture_kana": "トットリケン",
    "prefecture_code": 31,
    "city": "日野郡日野町",
    "city_kana": "ヒノグンヒノチョウ",
    "town": "三土",
    "town_kana": "ミツチ",
    "street": null,
    "office_name": null,
    "office_name_kana": null
  },
  "4515": {
    "postcode": "6894515",
    "prefecture": "鳥取県",
    "prefecture_kana": "トットリケン",
    "prefecture_code": 31,
    "city": "日野郡日野町",
    "city_kana": "ヒノグンヒノチョウ",
    "town": "秋縄",
    "town_kana": "アキツナ",
    "street": null,
    "office_name": null,
    "office_name_kana": null
  },
  "4516": {
    "postcode": "6894516",
    "prefecture": "鳥取県",
    "prefecture_kana": "トットリケン",
    "prefecture_code": 31,
    "city": "日野郡日野町",
    "city_kana": "ヒノグンヒノチョウ",
    "town": "門谷",
    "town_kana": "カドタニ",
    "street": null,
    "office_name": null,
    "office_name_kana": null
  },
  "4517": {
    "postcode": "6894517",
    "prefecture": "鳥取県",
    "prefecture_kana": "トットリケン",
    "prefecture_code": 31,
    "city": "日野郡日野町",
    "city_kana": "ヒノグンヒノチョウ",
    "town": "濁谷",
    "town_kana": "ニゴタニ",
    "street": null,
    "office_name": null,
    "office_name_kana": null
  },
  "4521": {
    "postcode": "6894521",
    "prefecture": "鳥取県",
    "prefecture_kana": "トットリケン",
    "prefecture_code": 31,
    "city": "日野郡日野町",
    "city_kana": "ヒノグンヒノチョウ",
    "town": "津地",
    "town_kana": "ツチ",
    "street": null,
    "office_name": null,
    "office_name_kana": null
  },
  "4522": {
    "postcode": "6894522",
    "prefecture": "鳥取県",
    "prefecture_kana": "トットリケン",
    "prefecture_code": 31,
    "city": "日野郡日野町",
    "city_kana": "ヒノグンヒノチョウ",
    "town": "本郷",
    "town_kana": "ホンゴウ",
    "street": null,
    "office_name": null,
    "office_name_kana": null
  },
  "4523": {
    "postcode": "6894523",
    "prefecture": "鳥取県",
    "prefecture_kana": "トットリケン",
    "prefecture_code": 31,
    "city": "日野郡日野町",
    "city_kana": "ヒノグンヒノチョウ",
    "town": "榎市",
    "town_kana": "エノキイチ",
    "street": null,
    "office_name": null,
    "office_name_kana": null
  },
  "4524": {
    "postcode": "6894524",
    "prefecture": "鳥取県",
    "prefecture_kana": "トットリケン",
    "prefecture_code": 31,
    "city": "日野郡日野町",
    "city_kana": "ヒノグンヒノチョウ",
    "town": "別所",
    "town_kana": "ベッショ",
    "street": null,
    "office_name": null,
    "office_name_kana": null
  },
  "4525": {
    "postcode": "6894525",
    "prefecture": "鳥取県",
    "prefecture_kana": "トットリケン",
    "prefecture_code": 31,
    "city": "日野郡日野町",
    "city_kana": "ヒノグンヒノチョウ",
    "town": "小原",
    "town_kana": "コバラ",
    "street": null,
    "office_name": null,
    "office_name_kana": null
  },
  "4526": {
    "postcode": "6894526",
    "prefecture": "鳥取県",
    "prefecture_kana": "トットリケン",
    "prefecture_code": 31,
    "city": "日野郡日野町",
    "city_kana": "ヒノグンヒノチョウ",
    "town": "下榎",
    "town_kana": "シモエノキ",
    "street": null,
    "office_name": null,
    "office_name_kana": null
  },
  "4527": {
    "postcode": "6894527",
    "prefecture": "鳥取県",
    "prefecture_kana": "トットリケン",
    "prefecture_code": 31,
    "city": "日野郡日野町",
    "city_kana": "ヒノグンヒノチョウ",
    "town": "安原",
    "town_kana": "ヤスハラ",
    "street": null,
    "office_name": null,
    "office_name_kana": null
  },
  "5131": {
    "postcode": "6895131",
    "prefecture": "鳥取県",
    "prefecture_kana": "トットリケン",
    "prefecture_code": 31,
    "city": "日野郡日野町",
    "city_kana": "ヒノグンヒノチョウ",
    "town": "黒坂",
    "town_kana": "クロサカ",
    "street": null,
    "office_name": null,
    "office_name_kana": null
  },
  "5132": {
    "postcode": "6895132",
    "prefecture": "鳥取県",
    "prefecture_kana": "トットリケン",
    "prefecture_code": 31,
    "city": "日野郡日野町",
    "city_kana": "ヒノグンヒノチョウ",
    "town": "久住",
    "town_kana": "クスミ",
    "street": null,
    "office_name": null,
    "office_name_kana": null
  },
  "5133": {
    "postcode": "6895133",
    "prefecture": "鳥取県",
    "prefecture_kana": "トットリケン",
    "prefecture_code": 31,
    "city": "日野郡日野町",
    "city_kana": "ヒノグンヒノチョウ",
    "town": "下黒坂",
    "town_kana": "シモグロサカ",
    "street": null,
    "office_name": null,
    "office_name_kana": null
  },
  "5134": {
    "postcode": "6895134",
    "prefecture": "鳥取県",
    "prefecture_kana": "トットリケン",
    "prefecture_code": 31,
    "city": "日野郡日野町",
    "city_kana": "ヒノグンヒノチョウ",
    "town": "下菅",
    "town_kana": "シモスゲ",
    "street": null,
    "office_name": null,
    "office_name_kana": null
  },
  "5135": {
    "postcode": "6895135",
    "prefecture": "鳥取県",
    "prefecture_kana": "トットリケン",
    "prefecture_code": 31,
    "city": "日野郡日野町",
    "city_kana": "ヒノグンヒノチョウ",
    "town": "中菅",
    "town_kana": "ナカスゲ",
    "street": null,
    "office_name": null,
    "office_name_kana": null
  },
  "5136": {
    "postcode": "6895136",
    "prefecture": "鳥取県",
    "prefecture_kana": "トットリケン",
    "prefecture_code": 31,
    "city": "日野郡日野町",
    "city_kana": "ヒノグンヒノチョウ",
    "town": "小河内",
    "town_kana": "オゴウジ",
    "street": null,
    "office_name": null,
    "office_name_kana": null
  },
  "5137": [
    {
      "postcode": "6895137",
      "prefecture": "鳥取県",
      "prefecture_kana": "トットリケン",
      "prefecture_code": 31,
      "city": "日野郡日野町",
      "city_kana": "ヒノグンヒノチョウ",
      "town": "上菅",
      "town_kana": "カミスゲ",
      "street": null,
      "office_name": null,
      "office_name_kana": null
    },
    {
      "postcode": "6895137",
      "prefecture": "鳥取県",
      "prefecture_kana": "トットリケン",
      "prefecture_code": 31,
      "city": "日野郡日野町",
      "city_kana": "ヒノグンヒノチョウ",
      "town": "福長",
      "town_kana": "フクナガ",
      "street": null,
      "office_name": null,
      "office_name_kana": null
    }
  ],
  "5200": {
    "postcode": "6895200",
    "prefecture": "鳥取県",
    "prefecture_kana": "トットリケン",
    "prefecture_code": 31,
    "city": "日野郡日南町",
    "city_kana": "ヒノグンニチナンチョウ",
    "town": "",
    "town_kana": "",
    "street": null,
    "office_name": null,
    "office_name_kana": null
  },
  "5211": {
    "postcode": "6895211",
    "prefecture": "鳥取県",
    "prefecture_kana": "トットリケン",
    "prefecture_code": 31,
    "city": "日野郡日南町",
    "city_kana": "ヒノグンニチナンチョウ",
    "town": "生山",
    "town_kana": "ショウヤマ",
    "street": null,
    "office_name": null,
    "office_name_kana": null
  },
  "5212": {
    "postcode": "6895212",
    "prefecture": "鳥取県",
    "prefecture_kana": "トットリケン",
    "prefecture_code": 31,
    "city": "日野郡日南町",
    "city_kana": "ヒノグンニチナンチョウ",
    "town": "霞",
    "town_kana": "カスミ",
    "street": null,
    "office_name": null,
    "office_name_kana": null
  },
  "5213": {
    "postcode": "6895213",
    "prefecture": "鳥取県",
    "prefecture_kana": "トットリケン",
    "prefecture_code": 31,
    "city": "日野郡日南町",
    "city_kana": "ヒノグンニチナンチョウ",
    "town": "丸山",
    "town_kana": "マルヤマ",
    "street": null,
    "office_name": null,
    "office_name_kana": null
  },
  "5214": {
    "postcode": "6895214",
    "prefecture": "鳥取県",
    "prefecture_kana": "トットリケン",
    "prefecture_code": 31,
    "city": "日野郡日南町",
    "city_kana": "ヒノグンニチナンチョウ",
    "town": "三栄",
    "town_kana": "ミサカエ",
    "street": null,
    "office_name": null,
    "office_name_kana": null
  },
  "5215": {
    "postcode": "6895215",
    "prefecture": "鳥取県",
    "prefecture_kana": "トットリケン",
    "prefecture_code": 31,
    "city": "日野郡日南町",
    "city_kana": "ヒノグンニチナンチョウ",
    "town": "矢戸",
    "town_kana": "ヤト",
    "street": null,
    "office_name": null,
    "office_name_kana": null
  },
  "5216": {
    "postcode": "6895216",
    "prefecture": "鳥取県",
    "prefecture_kana": "トットリケン",
    "prefecture_code": 31,
    "city": "日野郡日南町",
    "city_kana": "ヒノグンニチナンチョウ",
    "town": "宮内",
    "town_kana": "ミヤウチ",
    "street": null,
    "office_name": null,
    "office_name_kana": null
  },
  "5221": {
    "postcode": "6895221",
    "prefecture": "鳥取県",
    "prefecture_kana": "トットリケン",
    "prefecture_code": 31,
    "city": "日野郡日南町",
    "city_kana": "ヒノグンニチナンチョウ",
    "town": "河上",
    "town_kana": "カワカミ",
    "street": null,
    "office_name": null,
    "office_name_kana": null
  },
  "5222": {
    "postcode": "6895222",
    "prefecture": "鳥取県",
    "prefecture_kana": "トットリケン",
    "prefecture_code": 31,
    "city": "日野郡日南町",
    "city_kana": "ヒノグンニチナンチョウ",
    "town": "萩原",
    "town_kana": "ハギハラ",
    "street": null,
    "office_name": null,
    "office_name_kana": null
  },
  "5223": {
    "postcode": "6895223",
    "prefecture": "鳥取県",
    "prefecture_kana": "トットリケン",
    "prefecture_code": 31,
    "city": "日野郡日南町",
    "city_kana": "ヒノグンニチナンチョウ",
    "town": "上萩山",
    "town_kana": "カミハギヤマ",
    "street": null,
    "office_name": null,
    "office_name_kana": null
  },
  "5224": {
    "postcode": "6895224",
    "prefecture": "鳥取県",
    "prefecture_kana": "トットリケン",
    "prefecture_code": 31,
    "city": "日野郡日南町",
    "city_kana": "ヒノグンニチナンチョウ",
    "town": "多里",
    "town_kana": "タリ",
    "street": null,
    "office_name": null,
    "office_name_kana": null
  },
  "5225": {
    "postcode": "6895225",
    "prefecture": "鳥取県",
    "prefecture_kana": "トットリケン",
    "prefecture_code": 31,
    "city": "日野郡日南町",
    "city_kana": "ヒノグンニチナンチョウ",
    "town": "新屋",
    "town_kana": "ニイヤ",
    "street": null,
    "office_name": null,
    "office_name_kana": null
  },
  "5226": {
    "postcode": "6895226",
    "prefecture": "鳥取県",
    "prefecture_kana": "トットリケン",
    "prefecture_code": 31,
    "city": "日野郡日南町",
    "city_kana": "ヒノグンニチナンチョウ",
    "town": "湯河",
    "town_kana": "ユカワ",
    "street": null,
    "office_name": null,
    "office_name_kana": null
  },
  "5292": {
    "postcode": "6895292",
    "prefecture": "鳥取県",
    "prefecture_kana": "トットリケン",
    "prefecture_code": 31,
    "city": "日野郡日南町",
    "city_kana": "ヒノグンニチナンチョウ",
    "town": "霞",
    "town_kana": "カスミ",
    "street": "８００",
    "office_name": "日南町役場",
    "office_name_kana": "ニチナンチヨウヤクバ"
  },
  "5531": {
    "postcode": "6895531",
    "prefecture": "鳥取県",
    "prefecture_kana": "トットリケン",
    "prefecture_code": 31,
    "city": "日野郡日南町",
    "city_kana": "ヒノグンニチナンチョウ",
    "town": "印賀",
    "town_kana": "インガ",
    "street": null,
    "office_name": null,
    "office_name_kana": null
  },
  "5532": {
    "postcode": "6895532",
    "prefecture": "鳥取県",
    "prefecture_kana": "トットリケン",
    "prefecture_code": 31,
    "city": "日野郡日南町",
    "city_kana": "ヒノグンニチナンチョウ",
    "town": "菅沢",
    "town_kana": "スゲザワ",
    "street": null,
    "office_name": null,
    "office_name_kana": null
  },
  "5533": {
    "postcode": "6895533",
    "prefecture": "鳥取県",
    "prefecture_kana": "トットリケン",
    "prefecture_code": 31,
    "city": "日野郡日南町",
    "city_kana": "ヒノグンニチナンチョウ",
    "town": "宝谷",
    "town_kana": "タカラダニ",
    "street": null,
    "office_name": null,
    "office_name_kana": null
  },
  "5534": {
    "postcode": "6895534",
    "prefecture": "鳥取県",
    "prefecture_kana": "トットリケン",
    "prefecture_code": 31,
    "city": "日野郡日南町",
    "city_kana": "ヒノグンニチナンチョウ",
    "town": "折渡",
    "town_kana": "オリワタリ",
    "street": null,
    "office_name": null,
    "office_name_kana": null
  },
  "5541": {
    "postcode": "6895541",
    "prefecture": "鳥取県",
    "prefecture_kana": "トットリケン",
    "prefecture_code": 31,
    "city": "日野郡日南町",
    "city_kana": "ヒノグンニチナンチョウ",
    "town": "佐木谷",
    "town_kana": "サギダニ",
    "street": null,
    "office_name": null,
    "office_name_kana": null
  },
  "5542": {
    "postcode": "6895542",
    "prefecture": "鳥取県",
    "prefecture_kana": "トットリケン",
    "prefecture_code": 31,
    "city": "日野郡日南町",
    "city_kana": "ヒノグンニチナンチョウ",
    "town": "福万来",
    "town_kana": "フクマキ",
    "street": null,
    "office_name": null,
    "office_name_kana": null
  },
  "5543": {
    "postcode": "6895543",
    "prefecture": "鳥取県",
    "prefecture_kana": "トットリケン",
    "prefecture_code": 31,
    "city": "日野郡日南町",
    "city_kana": "ヒノグンニチナンチョウ",
    "town": "笠木",
    "town_kana": "カサギ",
    "street": null,
    "office_name": null,
    "office_name_kana": null
  },
  "5544": {
    "postcode": "6895544",
    "prefecture": "鳥取県",
    "prefecture_kana": "トットリケン",
    "prefecture_code": 31,
    "city": "日野郡日南町",
    "city_kana": "ヒノグンニチナンチョウ",
    "town": "茶屋",
    "town_kana": "チャヤ",
    "street": null,
    "office_name": null,
    "office_name_kana": null
  },
  "5545": {
    "postcode": "6895545",
    "prefecture": "鳥取県",
    "prefecture_kana": "トットリケン",
    "prefecture_code": 31,
    "city": "日野郡日南町",
    "city_kana": "ヒノグンニチナンチョウ",
    "town": "福寿実",
    "town_kana": "フクスミ",
    "street": null,
    "office_name": null,
    "office_name_kana": null
  },
  "5551": {
    "postcode": "6895551",
    "prefecture": "鳥取県",
    "prefecture_kana": "トットリケン",
    "prefecture_code": 31,
    "city": "日野郡日南町",
    "city_kana": "ヒノグンニチナンチョウ",
    "town": "阿毘縁",
    "town_kana": "アビレ",
    "street": null,
    "office_name": null,
    "office_name_kana": null
  },
  "5552": {
    "postcode": "6895552",
    "prefecture": "鳥取県",
    "prefecture_kana": "トットリケン",
    "prefecture_code": 31,
    "city": "日野郡日南町",
    "city_kana": "ヒノグンニチナンチョウ",
    "town": "下阿毘縁",
    "town_kana": "シモアビレ",
    "street": null,
    "office_name": null,
    "office_name_kana": null
  },
  "5661": {
    "postcode": "6895661",
    "prefecture": "鳥取県",
    "prefecture_kana": "トットリケン",
    "prefecture_code": 31,
    "city": "日野郡日南町",
    "city_kana": "ヒノグンニチナンチョウ",
    "town": "花口",
    "town_kana": "ハナグチ",
    "street": null,
    "office_name": null,
    "office_name_kana": null
  },
  "5662": {
    "postcode": "6895662",
    "prefecture": "鳥取県",
    "prefecture_kana": "トットリケン",
    "prefecture_code": 31,
    "city": "日野郡日南町",
    "city_kana": "ヒノグンニチナンチョウ",
    "town": "神戸上",
    "town_kana": "カドノカミ",
    "street": null,
    "office_name": null,
    "office_name_kana": null
  },
  "5663": {
    "postcode": "6895663",
    "prefecture": "鳥取県",
    "prefecture_kana": "トットリケン",
    "prefecture_code": 31,
    "city": "日野郡日南町",
    "city_kana": "ヒノグンニチナンチョウ",
    "town": "上石見",
    "town_kana": "カミイワミ",
    "street": null,
    "office_name": null,
    "office_name_kana": null
  },
  "5664": {
    "postcode": "6895664",
    "prefecture": "鳥取県",
    "prefecture_kana": "トットリケン",
    "prefecture_code": 31,
    "city": "日野郡日南町",
    "city_kana": "ヒノグンニチナンチョウ",
    "town": "中石見",
    "town_kana": "ナカイワミ",
    "street": null,
    "office_name": null,
    "office_name_kana": null
  },
  "5665": {
    "postcode": "6895665",
    "prefecture": "鳥取県",
    "prefecture_kana": "トットリケン",
    "prefecture_code": 31,
    "city": "日野郡日南町",
    "city_kana": "ヒノグンニチナンチョウ",
    "town": "下石見",
    "town_kana": "シモイワミ",
    "street": null,
    "office_name": null,
    "office_name_kana": null
  },
  "5666": {
    "postcode": "6895666",
    "prefecture": "鳥取県",
    "prefecture_kana": "トットリケン",
    "prefecture_code": 31,
    "city": "日野郡日南町",
    "city_kana": "ヒノグンニチナンチョウ",
    "town": "三吉",
    "town_kana": "ミヨシ",
    "street": null,
    "office_name": null,
    "office_name_kana": null
  },
  "5671": {
    "postcode": "6895671",
    "prefecture": "鳥取県",
    "prefecture_kana": "トットリケン",
    "prefecture_code": 31,
    "city": "日野郡日南町",
    "city_kana": "ヒノグンニチナンチョウ",
    "town": "福塚",
    "town_kana": "フクヅカ",
    "street": null,
    "office_name": null,
    "office_name_kana": null
  },
  "5672": {
    "postcode": "6895672",
    "prefecture": "鳥取県",
    "prefecture_kana": "トットリケン",
    "prefecture_code": 31,
    "city": "日野郡日南町",
    "city_kana": "ヒノグンニチナンチョウ",
    "town": "神福",
    "town_kana": "カミフク",
    "street": null,
    "office_name": null,
    "office_name_kana": null
  },
  "5673": {
    "postcode": "6895673",
    "prefecture": "鳥取県",
    "prefecture_kana": "トットリケン",
    "prefecture_code": 31,
    "city": "日野郡日南町",
    "city_kana": "ヒノグンニチナンチョウ",
    "town": "豊栄",
    "town_kana": "トヨサカエ",
    "street": null,
    "office_name": null,
    "office_name_kana": null
  }
}