{
  "0000": {
    "postcode": "6950000",
    "prefecture": "島根県",
    "prefecture_kana": "シマネケン",
    "prefecture_code": 32,
    "city": "江津市",
    "city_kana": "ゴウツシ",
    "town": "",
    "town_kana": "",
    "street": null,
    "office_name": null,
    "office_name_kana": null
  },
  "0001": {
    "postcode": "6950001",
    "prefecture": "島根県",
    "prefecture_kana": "シマネケン",
    "prefecture_code": 32,
    "city": "江津市",
    "city_kana": "ゴウツシ",
    "town": "渡津町",
    "town_kana": "ワタヅチョウ",
    "street": null,
    "office_name": null,
    "office_name_kana": null
  },
  "0002": {
    "postcode": "6950002",
    "prefecture": "島根県",
    "prefecture_kana": "シマネケン",
    "prefecture_code": 32,
    "city": "江津市",
    "city_kana": "ゴウツシ",
    "town": "浅利町",
    "town_kana": "アサリチョウ",
    "street": null,
    "office_name": null,
    "office_name_kana": null
  },
  "0003": {
    "postcode": "6950003",
    "prefecture": "島根県",
    "prefecture_kana": "シマネケン",
    "prefecture_code": 32,
    "city": "江津市",
    "city_kana": "ゴウツシ",
    "town": "松川町下河戸",
    "town_kana": "マツカワチョウシモカワド",
    "street": null,
    "office_name": null,
    "office_name_kana": null
  },
  "0004": {
    "postcode": "6950004",
    "prefecture": "島根県",
    "prefecture_kana": "シマネケン",
    "prefecture_code": 32,
    "city": "江津市",
    "city_kana": "ゴウツシ",
    "town": "松川町市村",
    "town_kana": "マツカワチョウイチムラ",
    "street": null,
    "office_name": null,
    "office_name_kana": null
  },
  "0005": {
    "postcode": "6950005",
    "prefecture": "島根県",
    "prefecture_kana": "シマネケン",
    "prefecture_code": 32,
    "city": "江津市",
    "city_kana": "ゴウツシ",
    "town": "松川町長良",
    "town_kana": "マツカワチョウナガラ",
    "street": null,
    "office_name": null,
    "office_name_kana": null
  },
  "0006": {
    "postcode": "6950006",
    "prefecture": "島根県",
    "prefecture_kana": "シマネケン",
    "prefecture_code": 32,
    "city": "江津市",
    "city_kana": "ゴウツシ",
    "town": "松川町八神",
    "town_kana": "マツカワチョウヤカミ",
    "street": null,
    "office_name": null,
    "office_name_kana": null
  },
  "0007": {
    "postcode": "6950007",
    "prefecture": "島根県",
    "prefecture_kana": "シマネケン",
    "prefecture_code": 32,
    "city": "江津市",
    "city_kana": "ゴウツシ",
    "town": "松川町太田",
    "town_kana": "マツカワチョウオオタ",
    "street": null,
    "office_name": null,
    "office_name_kana": null
  },
  "0011": {
    "postcode": "6950011",
    "prefecture": "島根県",
    "prefecture_kana": "シマネケン",
    "prefecture_code": 32,
    "city": "江津市",
    "city_kana": "ゴウツシ",
    "town": "江津町",
    "town_kana": "ゴウツチョウ",
    "street": null,
    "office_name": null,
    "office_name_kana": null
  },
  "0012": {
    "postcode": "6950012",
    "prefecture": "島根県",
    "prefecture_kana": "シマネケン",
    "prefecture_code": 32,
    "city": "江津市",
    "city_kana": "ゴウツシ",
    "town": "金田町",
    "town_kana": "カネタチョウ",
    "street": null,
    "office_name": null,
    "office_name_kana": null
  },
  "0013": {
    "postcode": "6950013",
    "prefecture": "島根県",
    "prefecture_kana": "シマネケン",
    "prefecture_code": 32,
    "city": "江津市",
    "city_kana": "ゴウツシ",
    "town": "川平町南川上",
    "town_kana": "カワヒラチョウミナミカワノボリ",
    "street": null,
    "office_name": null,
    "office_name_kana": null
  },
  "0014": {
    "postcode": "6950014",
    "prefecture": "島根県",
    "prefecture_kana": "シマネケン",
    "prefecture_code": 32,
    "city": "江津市",
    "city_kana": "ゴウツシ",
    "town": "川平町平田",
    "town_kana": "カワヒラチョウヒラタ",
    "street": null,
    "office_name": null,
    "office_name_kana": null
  },
  "0015": {
    "postcode": "6950015",
    "prefecture": "島根県",
    "prefecture_kana": "シマネケン",
    "prefecture_code": 32,
    "city": "江津市",
    "city_kana": "ゴウツシ",
    "town": "島の星町",
    "town_kana": "シマノホシチョウ",
    "street": null,
    "office_name": null,
    "office_name_kana": null
  },
  "0016": {
    "postcode": "6950016",
    "prefecture": "島根県",
    "prefecture_kana": "シマネケン",
    "prefecture_code": 32,
    "city": "江津市",
    "city_kana": "ゴウツシ",
    "town": "嘉久志町",
    "town_kana": "カクシチョウ",
    "street": null,
    "office_name": null,
    "office_name_kana": null
  },
  "0017": {
    "postcode": "6950017",
    "prefecture": "島根県",
    "prefecture_kana": "シマネケン",
    "prefecture_code": 32,
    "city": "江津市",
    "city_kana": "ゴウツシ",
    "town": "和木町",
    "town_kana": "ワキチョウ",
    "street": null,
    "office_name": null,
    "office_name_kana": null
  },
  "0021": {
    "postcode": "6950021",
    "prefecture": "島根県",
    "prefecture_kana": "シマネケン",
    "prefecture_code": 32,
    "city": "江津市",
    "city_kana": "ゴウツシ",
    "town": "都野津町",
    "town_kana": "ツノヅチョウ",
    "street": null,
    "office_name": null,
    "office_name_kana": null
  },
  "0022": {
    "postcode": "6950022",
    "prefecture": "島根県",
    "prefecture_kana": "シマネケン",
    "prefecture_code": 32,
    "city": "江津市",
    "city_kana": "ゴウツシ",
    "town": "二宮町羽代",
    "town_kana": "ニノミヤチョウハシロ",
    "street": null,
    "office_name": null,
    "office_name_kana": null
  },
  "0023": {
    "postcode": "6950023",
    "prefecture": "島根県",
    "prefecture_kana": "シマネケン",
    "prefecture_code": 32,
    "city": "江津市",
    "city_kana": "ゴウツシ",
    "town": "二宮町神村",
    "town_kana": "ニノミヤチョウカムラ",
    "street": null,
    "office_name": null,
    "office_name_kana": null
  },
  "0024": {
    "postcode": "6950024",
    "prefecture": "島根県",
    "prefecture_kana": "シマネケン",
    "prefecture_code": 32,
    "city": "江津市",
    "city_kana": "ゴウツシ",
    "town": "二宮町神主",
    "town_kana": "ニノミヤチョウカンヌシ",
    "street": null,
    "office_name": null,
    "office_name_kana": null
  },
  "0101": {
    "postcode": "6950101",
    "prefecture": "島根県",
    "prefecture_kana": "シマネケン",
    "prefecture_code": 32,
    "city": "浜田市",
    "city_kana": "ハマダシ",
    "town": "下有福町",
    "town_kana": "シモアリフクチョウ",
    "street": null,
    "office_name": null,
    "office_name_kana": null
  },
  "0102": {
    "postcode": "6950102",
    "prefecture": "島根県",
    "prefecture_kana": "シマネケン",
    "prefecture_code": 32,
    "city": "浜田市",
    "city_kana": "ハマダシ",
    "town": "宇野町",
    "town_kana": "ウノチョウ",
    "street": null,
    "office_name": null,
    "office_name_kana": null
  },
  "0103": {
    "postcode": "6950103",
    "prefecture": "島根県",
    "prefecture_kana": "シマネケン",
    "prefecture_code": 32,
    "city": "浜田市",
    "city_kana": "ハマダシ",
    "town": "大金町",
    "town_kana": "オオガネチョウ",
    "street": null,
    "office_name": null,
    "office_name_kana": null
  },
  "0151": {
    "postcode": "6950151",
    "prefecture": "島根県",
    "prefecture_kana": "シマネケン",
    "prefecture_code": 32,
    "city": "江津市",
    "city_kana": "ゴウツシ",
    "town": "千田町",
    "town_kana": "チダチョウ",
    "street": null,
    "office_name": null,
    "office_name_kana": null
  },
  "0152": {
    "postcode": "6950152",
    "prefecture": "島根県",
    "prefecture_kana": "シマネケン",
    "prefecture_code": 32,
    "city": "江津市",
    "city_kana": "ゴウツシ",
    "town": "跡市町",
    "town_kana": "アトイチチョウ",
    "street": null,
    "office_name": null,
    "office_name_kana": null
  },
  "0153": {
    "postcode": "6950153",
    "prefecture": "島根県",
    "prefecture_kana": "シマネケン",
    "prefecture_code": 32,
    "city": "江津市",
    "city_kana": "ゴウツシ",
    "town": "清見町",
    "town_kana": "セイミチョウ",
    "street": null,
    "office_name": null,
    "office_name_kana": null
  },
  "0154": {
    "postcode": "6950154",
    "prefecture": "島根県",
    "prefecture_kana": "シマネケン",
    "prefecture_code": 32,
    "city": "江津市",
    "city_kana": "ゴウツシ",
    "town": "井沢町",
    "town_kana": "イソウチョウ",
    "street": null,
    "office_name": null,
    "office_name_kana": null
  },
  "0155": {
    "postcode": "6950155",
    "prefecture": "島根県",
    "prefecture_kana": "シマネケン",
    "prefecture_code": 32,
    "city": "江津市",
    "city_kana": "ゴウツシ",
    "town": "有福温泉町本明",
    "town_kana": "アリフクオンセンチョウホンミョウ",
    "street": null,
    "office_name": null,
    "office_name_kana": null
  },
  "0156": {
    "postcode": "6950156",
    "prefecture": "島根県",
    "prefecture_kana": "シマネケン",
    "prefecture_code": 32,
    "city": "江津市",
    "city_kana": "ゴウツシ",
    "town": "有福温泉町",
    "town_kana": "アリフクオンセンチョウ",
    "street": null,
    "office_name": null,
    "office_name_kana": null
  },
  "8501": {
    "postcode": "6958501",
    "prefecture": "島根県",
    "prefecture_kana": "シマネケン",
    "prefecture_code": 32,
    "city": "江津市",
    "city_kana": "ゴウツシ",
    "town": "江津町",
    "town_kana": "ゴウツチョウ",
    "street": "１０１６−４",
    "office_name": "江津市役所",
    "office_name_kana": "ゴウツシヤクシヨ"
  },
  "8502": {
    "postcode": "6958502",
    "prefecture": "島根県",
    "prefecture_kana": "シマネケン",
    "prefecture_code": 32,
    "city": "江津市",
    "city_kana": "ゴウツシ",
    "town": "渡津町",
    "town_kana": "ワタヅチョウ",
    "street": "１９０４−１",
    "office_name": "江の川高等学校",
    "office_name_kana": "ゴウノカワコウトウガツコウ"
  },
  "8505": {
    "postcode": "6958505",
    "prefecture": "島根県",
    "prefecture_kana": "シマネケン",
    "prefecture_code": 32,
    "city": "江津市",
    "city_kana": "ゴウツシ",
    "town": "江津町",
    "town_kana": "ゴウツチョウ",
    "street": "１０１６−３７",
    "office_name": "社会福祉法人　恩賜財団　島根県済生会　江津総合病院",
    "office_name_kana": "シヤカイフクシホウジン オンシザイダン シマネケンサイセイカイ ゴウツソウゴウビヨウイン"
  },
  "8577": {
    "postcode": "6958577",
    "prefecture": "島根県",
    "prefecture_kana": "シマネケン",
    "prefecture_code": 32,
    "city": "江津市",
    "city_kana": "ゴウツシ",
    "town": "嘉久志町",
    "town_kana": "カクシチョウ",
    "street": "２５１２",
    "office_name": "株式会社　しちだ・教育研究所",
    "office_name_kana": "カブシキガイシヤ シチダ・キヨウイクケンキユウシヨ"
  },
  "8585": {
    "postcode": "6958585",
    "prefecture": "島根県",
    "prefecture_kana": "シマネケン",
    "prefecture_code": 32,
    "city": "江津市",
    "city_kana": "ゴウツシ",
    "town": "嘉久志町",
    "town_kana": "カクシチョウ",
    "street": "２３０６−３０",
    "office_name": "協同組合　グリーンモール",
    "office_name_kana": "キヨウドウクミアイ グリ-ンモ-ル"
  }
}