{
  "0101": {
    "postcode": "6990101",
    "prefecture": "島根県",
    "prefecture_kana": "シマネケン",
    "prefecture_code": 32,
    "city": "松江市",
    "city_kana": "マツエシ",
    "town": "東出雲町揖屋",
    "town_kana": "ヒガシイズモチョウイヤ",
    "street": null,
    "office_name": null,
    "office_name_kana": null
  },
  "0102": {
    "postcode": "6990102",
    "prefecture": "島根県",
    "prefecture_kana": "シマネケン",
    "prefecture_code": 32,
    "city": "松江市",
    "city_kana": "マツエシ",
    "town": "東出雲町下意東",
    "town_kana": "ヒガシイズモチョウシモイトウ",
    "street": null,
    "office_name": null,
    "office_name_kana": null
  },
  "0103": {
    "postcode": "6990103",
    "prefecture": "島根県",
    "prefecture_kana": "シマネケン",
    "prefecture_code": 32,
    "city": "松江市",
    "city_kana": "マツエシ",
    "town": "東出雲町上意東",
    "town_kana": "ヒガシイズモチョウカミイトウ",
    "street": null,
    "office_name": null,
    "office_name_kana": null
  },
  "0104": {
    "postcode": "6990104",
    "prefecture": "島根県",
    "prefecture_kana": "シマネケン",
    "prefecture_code": 32,
    "city": "松江市",
    "city_kana": "マツエシ",
    "town": "東出雲町須田",
    "town_kana": "ヒガシイズモチョウスタ",
    "street": null,
    "office_name": null,
    "office_name_kana": null
  },
  "0105": {
    "postcode": "6990105",
    "prefecture": "島根県",
    "prefecture_kana": "シマネケン",
    "prefecture_code": 32,
    "city": "松江市",
    "city_kana": "マツエシ",
    "town": "東出雲町内馬",
    "town_kana": "ヒガシイズモチョウウチウマ",
    "street": null,
    "office_name": null,
    "office_name_kana": null
  },
  "0106": {
    "postcode": "6990106",
    "prefecture": "島根県",
    "prefecture_kana": "シマネケン",
    "prefecture_code": 32,
    "city": "松江市",
    "city_kana": "マツエシ",
    "town": "東出雲町春日",
    "town_kana": "ヒガシイズモチョウカスガ",
    "street": null,
    "office_name": null,
    "office_name_kana": null
  },
  "0107": {
    "postcode": "6990107",
    "prefecture": "島根県",
    "prefecture_kana": "シマネケン",
    "prefecture_code": 32,
    "city": "松江市",
    "city_kana": "マツエシ",
    "town": "東出雲町今宮",
    "town_kana": "ヒガシイズモチョウイマミヤ",
    "street": null,
    "office_name": null,
    "office_name_kana": null
  },
  "0108": {
    "postcode": "6990108",
    "prefecture": "島根県",
    "prefecture_kana": "シマネケン",
    "prefecture_code": 32,
    "city": "松江市",
    "city_kana": "マツエシ",
    "town": "東出雲町出雲郷",
    "town_kana": "ヒガシイズモチョウアダカエ",
    "street": null,
    "office_name": null,
    "office_name_kana": null
  },
  "0109": {
    "postcode": "6990109",
    "prefecture": "島根県",
    "prefecture_kana": "シマネケン",
    "prefecture_code": 32,
    "city": "松江市",
    "city_kana": "マツエシ",
    "town": "東出雲町錦浜",
    "town_kana": "ヒガシイズモチョウニシキハマ",
    "street": null,
    "office_name": null,
    "office_name_kana": null
  },
  "0110": {
    "postcode": "6990110",
    "prefecture": "島根県",
    "prefecture_kana": "シマネケン",
    "prefecture_code": 32,
    "city": "松江市",
    "city_kana": "マツエシ",
    "town": "東出雲町錦新町",
    "town_kana": "ヒガシイズモチョウニシキシンマチ",
    "street": null,
    "office_name": null,
    "office_name_kana": null
  },
  "0111": {
    "postcode": "6990111",
    "prefecture": "島根県",
    "prefecture_kana": "シマネケン",
    "prefecture_code": 32,
    "city": "松江市",
    "city_kana": "マツエシ",
    "town": "東出雲町意宇南",
    "town_kana": "ヒガシイズモチョウイウナン",
    "street": null,
    "office_name": null,
    "office_name_kana": null
  },
  "0112": {
    "postcode": "6990112",
    "prefecture": "島根県",
    "prefecture_kana": "シマネケン",
    "prefecture_code": 32,
    "city": "松江市",
    "city_kana": "マツエシ",
    "town": "東出雲町意宇東",
    "town_kana": "ヒガシイズモチョウイウヒガシ",
    "street": null,
    "office_name": null,
    "office_name_kana": null
  },
  "0192": {
    "postcode": "6990192",
    "prefecture": "島根県",
    "prefecture_kana": "シマネケン",
    "prefecture_code": 32,
    "city": "松江市",
    "city_kana": "マツエシ",
    "town": "東出雲町揖屋",
    "town_kana": "ヒガシイズモチョウイヤ",
    "street": "１１４２",
    "office_name": "東出雲町役場",
    "office_name_kana": "ヒガシイズモチヨウヤクバ"
  },
  "0193": {
    "postcode": "6990193",
    "prefecture": "島根県",
    "prefecture_kana": "シマネケン",
    "prefecture_code": 32,
    "city": "松江市",
    "city_kana": "マツエシ",
    "town": "東出雲町意宇南",
    "town_kana": "ヒガシイズモチョウイウナン",
    "street": "２丁目１−１",
    "office_name": "フジキコーポレーション　株式会社",
    "office_name_kana": "フジキコ-ポレ-シヨン カブシキガイシヤ"
  },
  "0201": {
    "postcode": "6990201",
    "prefecture": "島根県",
    "prefecture_kana": "シマネケン",
    "prefecture_code": 32,
    "city": "松江市",
    "city_kana": "マツエシ",
    "town": "玉湯町玉造",
    "town_kana": "タマユチョウタマツクリ",
    "street": null,
    "office_name": null,
    "office_name_kana": null
  },
  "0202": {
    "postcode": "6990202",
    "prefecture": "島根県",
    "prefecture_kana": "シマネケン",
    "prefecture_code": 32,
    "city": "松江市",
    "city_kana": "マツエシ",
    "town": "玉湯町湯町",
    "town_kana": "タマユチョウユマチ",
    "street": null,
    "office_name": null,
    "office_name_kana": null
  },
  "0203": {
    "postcode": "6990203",
    "prefecture": "島根県",
    "prefecture_kana": "シマネケン",
    "prefecture_code": 32,
    "city": "松江市",
    "city_kana": "マツエシ",
    "town": "玉湯町布志名",
    "town_kana": "タマユチョウフジナ",
    "street": null,
    "office_name": null,
    "office_name_kana": null
  },
  "0204": {
    "postcode": "6990204",
    "prefecture": "島根県",
    "prefecture_kana": "シマネケン",
    "prefecture_code": 32,
    "city": "松江市",
    "city_kana": "マツエシ",
    "town": "玉湯町林",
    "town_kana": "タマユチョウハヤシ",
    "street": null,
    "office_name": null,
    "office_name_kana": null
  },
  "0205": {
    "postcode": "6990205",
    "prefecture": "島根県",
    "prefecture_kana": "シマネケン",
    "prefecture_code": 32,
    "city": "松江市",
    "city_kana": "マツエシ",
    "town": "玉湯町大谷",
    "town_kana": "タマユチョウオオダニ",
    "street": null,
    "office_name": null,
    "office_name_kana": null
  },
  "0292": {
    "postcode": "6990292",
    "prefecture": "島根県",
    "prefecture_kana": "シマネケン",
    "prefecture_code": 32,
    "city": "松江市",
    "city_kana": "マツエシ",
    "town": "玉湯町湯町",
    "town_kana": "タマユチョウユマチ",
    "street": "１７９３",
    "office_name": "松江市役所　玉湯支所",
    "office_name_kana": "マツエシヤクシヨ タマユシシヨ"
  },
  "0293": {
    "postcode": "6990293",
    "prefecture": "島根県",
    "prefecture_kana": "シマネケン",
    "prefecture_code": 32,
    "city": "松江市",
    "city_kana": "マツエシ",
    "town": "玉湯町湯町",
    "town_kana": "タマユチョウユマチ",
    "street": "１−２",
    "office_name": "独立行政法人　地域医療機能推進機構　玉造病院",
    "office_name_kana": "ドクリツギヨウセイホウジン チイキイリヨウキノウスイシンキコウ タマツクリビヨウイン"
  },
  "0401": {
    "postcode": "6990401",
    "prefecture": "島根県",
    "prefecture_kana": "シマネケン",
    "prefecture_code": 32,
    "city": "松江市",
    "city_kana": "マツエシ",
    "town": "宍道町宍道",
    "town_kana": "シンジチョウシンジ",
    "street": null,
    "office_name": null,
    "office_name_kana": null
  },
  "0402": {
    "postcode": "6990402",
    "prefecture": "島根県",
    "prefecture_kana": "シマネケン",
    "prefecture_code": 32,
    "city": "松江市",
    "city_kana": "マツエシ",
    "town": "宍道町白石",
    "town_kana": "シンジチョウハクイシ",
    "street": null,
    "office_name": null,
    "office_name_kana": null
  },
  "0403": {
    "postcode": "6990403",
    "prefecture": "島根県",
    "prefecture_kana": "シマネケン",
    "prefecture_code": 32,
    "city": "松江市",
    "city_kana": "マツエシ",
    "town": "宍道町西来待",
    "town_kana": "シンジチョウニシキマチ",
    "street": null,
    "office_name": null,
    "office_name_kana": null
  },
  "0404": {
    "postcode": "6990404",
    "prefecture": "島根県",
    "prefecture_kana": "シマネケン",
    "prefecture_code": 32,
    "city": "松江市",
    "city_kana": "マツエシ",
    "town": "宍道町東来待",
    "town_kana": "シンジチョウヒガシキマチ",
    "street": null,
    "office_name": null,
    "office_name_kana": null
  },
  "0405": {
    "postcode": "6990405",
    "prefecture": "島根県",
    "prefecture_kana": "シマネケン",
    "prefecture_code": 32,
    "city": "松江市",
    "city_kana": "マツエシ",
    "town": "宍道町上来待",
    "town_kana": "シンジチョウカミキマチ",
    "street": null,
    "office_name": null,
    "office_name_kana": null
  },
  "0406": {
    "postcode": "6990406",
    "prefecture": "島根県",
    "prefecture_kana": "シマネケン",
    "prefecture_code": 32,
    "city": "松江市",
    "city_kana": "マツエシ",
    "town": "宍道町佐々布",
    "town_kana": "シンジチョウサソウ",
    "street": null,
    "office_name": null,
    "office_name_kana": null
  },
  "0407": {
    "postcode": "6990407",
    "prefecture": "島根県",
    "prefecture_kana": "シマネケン",
    "prefecture_code": 32,
    "city": "松江市",
    "city_kana": "マツエシ",
    "town": "宍道町伊志見",
    "town_kana": "シンジチョウイジミ",
    "street": null,
    "office_name": null,
    "office_name_kana": null
  },
  "0408": {
    "postcode": "6990408",
    "prefecture": "島根県",
    "prefecture_kana": "シマネケン",
    "prefecture_code": 32,
    "city": "松江市",
    "city_kana": "マツエシ",
    "town": "宍道町昭和",
    "town_kana": "シンジチョウショウワ",
    "street": null,
    "office_name": null,
    "office_name_kana": null
  },
  "0492": {
    "postcode": "6990492",
    "prefecture": "島根県",
    "prefecture_kana": "シマネケン",
    "prefecture_code": 32,
    "city": "松江市",
    "city_kana": "マツエシ",
    "town": "宍道町宍道",
    "town_kana": "シンジチョウシンジ",
    "street": "１５８６番地",
    "office_name": "島根県立　宍道高等学校",
    "office_name_kana": "シマネケンリツ シンジコウトウガツコウ"
  },
  "0496": {
    "postcode": "6990496",
    "prefecture": "島根県",
    "prefecture_kana": "シマネケン",
    "prefecture_code": 32,
    "city": "松江市",
    "city_kana": "マツエシ",
    "town": "宍道町白石",
    "town_kana": "シンジチョウハクイシ",
    "street": "８１−１０",
    "office_name": "株式会社　原商",
    "office_name_kana": "カブシキガイシヤ ハラシヨウ"
  },
  "0501": {
    "postcode": "6990501",
    "prefecture": "島根県",
    "prefecture_kana": "シマネケン",
    "prefecture_code": 32,
    "city": "出雲市",
    "city_kana": "イズモシ",
    "town": "斐川町学頭",
    "town_kana": "ヒカワチョウガクトウ",
    "street": null,
    "office_name": null,
    "office_name_kana": null
  },
  "0502": {
    "postcode": "6990502",
    "prefecture": "島根県",
    "prefecture_kana": "シマネケン",
    "prefecture_code": 32,
    "city": "出雲市",
    "city_kana": "イズモシ",
    "town": "斐川町荘原",
    "town_kana": "ヒカワチョウショウバラ",
    "street": null,
    "office_name": null,
    "office_name_kana": null
  },
  "0503": {
    "postcode": "6990503",
    "prefecture": "島根県",
    "prefecture_kana": "シマネケン",
    "prefecture_code": 32,
    "city": "出雲市",
    "city_kana": "イズモシ",
    "town": "斐川町神庭",
    "town_kana": "ヒカワチョウカンバ",
    "street": null,
    "office_name": null,
    "office_name_kana": null
  },
  "0504": {
    "postcode": "6990504",
    "prefecture": "島根県",
    "prefecture_kana": "シマネケン",
    "prefecture_code": 32,
    "city": "出雲市",
    "city_kana": "イズモシ",
    "town": "斐川町三絡",
    "town_kana": "ヒカワチョウミツガネ",
    "street": null,
    "office_name": null,
    "office_name_kana": null
  },
  "0505": {
    "postcode": "6990505",
    "prefecture": "島根県",
    "prefecture_kana": "シマネケン",
    "prefecture_code": 32,
    "city": "出雲市",
    "city_kana": "イズモシ",
    "town": "斐川町上庄原",
    "town_kana": "ヒカワチョウカミショウバラ",
    "street": null,
    "office_name": null,
    "office_name_kana": null
  },
  "0551": {
    "postcode": "6990551",
    "prefecture": "島根県",
    "prefecture_kana": "シマネケン",
    "prefecture_code": 32,
    "city": "出雲市",
    "city_kana": "イズモシ",
    "town": "斐川町沖洲",
    "town_kana": "ヒカワチョウオキノス",
    "street": null,
    "office_name": null,
    "office_name_kana": null
  },
  "0552": {
    "postcode": "6990552",
    "prefecture": "島根県",
    "prefecture_kana": "シマネケン",
    "prefecture_code": 32,
    "city": "出雲市",
    "city_kana": "イズモシ",
    "town": "斐川町中洲",
    "town_kana": "ヒカワチョウナカノス",
    "street": null,
    "office_name": null,
    "office_name_kana": null
  },
  "0553": {
    "postcode": "6990553",
    "prefecture": "島根県",
    "prefecture_kana": "シマネケン",
    "prefecture_code": 32,
    "city": "出雲市",
    "city_kana": "イズモシ",
    "town": "斐川町黒目",
    "town_kana": "ヒカワチョウクロメ",
    "street": null,
    "office_name": null,
    "office_name_kana": null
  },
  "0554": {
    "postcode": "6990554",
    "prefecture": "島根県",
    "prefecture_kana": "シマネケン",
    "prefecture_code": 32,
    "city": "出雲市",
    "city_kana": "イズモシ",
    "town": "斐川町三分市",
    "town_kana": "ヒカワチョウサンブイチ",
    "street": null,
    "office_name": null,
    "office_name_kana": null
  },
  "0555": {
    "postcode": "6990555",
    "prefecture": "島根県",
    "prefecture_kana": "シマネケン",
    "prefecture_code": 32,
    "city": "出雲市",
    "city_kana": "イズモシ",
    "town": "斐川町坂田",
    "town_kana": "ヒカワチョウサカダ",
    "street": null,
    "office_name": null,
    "office_name_kana": null
  },
  "0588": {
    "postcode": "6990588",
    "prefecture": "島根県",
    "prefecture_kana": "シマネケン",
    "prefecture_code": 32,
    "city": "出雲市",
    "city_kana": "イズモシ",
    "town": "斐川町神庭",
    "town_kana": "ヒカワチョウカンバ",
    "street": "１３２４−３",
    "office_name": "一般社団法人　日本アマチュア無線連盟　ＪＡＲＬ　ＱＳＬビューロー",
    "office_name_kana": "イツパンシヤダンホウジン ニホンアマチユアムセンレンメイ ジエイエ-ア-ルエル キユ-エスエルビユ-ロ-"
  },
  "0592": {
    "postcode": "6990592",
    "prefecture": "島根県",
    "prefecture_kana": "シマネケン",
    "prefecture_code": 32,
    "city": "出雲市",
    "city_kana": "イズモシ",
    "town": "斐川町荘原",
    "town_kana": "ヒカワチョウショウバラ",
    "street": "２１７２",
    "office_name": "出雲市役所　斐川支所",
    "office_name_kana": "イズモシヤクシヨ ヒカワシシヨ"
  },
  "0593": {
    "postcode": "6990593",
    "prefecture": "島根県",
    "prefecture_kana": "シマネケン",
    "prefecture_code": 32,
    "city": "出雲市",
    "city_kana": "イズモシ",
    "town": "斐川町荘原",
    "town_kana": "ヒカワチョウショウバラ",
    "street": "２１７２番地３",
    "office_name": "島根県農業協同組合　斐川地区本部",
    "office_name_kana": "シマネケンノウギヨウキヨウドウクミアイ ヒカワチクホンブ"
  },
  "0611": {
    "postcode": "6990611",
    "prefecture": "島根県",
    "prefecture_kana": "シマネケン",
    "prefecture_code": 32,
    "city": "出雲市",
    "city_kana": "イズモシ",
    "town": "斐川町阿宮",
    "town_kana": "ヒカワチョウアグ",
    "street": null,
    "office_name": null,
    "office_name_kana": null
  },
  "0612": {
    "postcode": "6990612",
    "prefecture": "島根県",
    "prefecture_kana": "シマネケン",
    "prefecture_code": 32,
    "city": "出雲市",
    "city_kana": "イズモシ",
    "town": "斐川町出西",
    "town_kana": "ヒカワチョウシュッサイ",
    "street": null,
    "office_name": null,
    "office_name_kana": null
  },
  "0613": {
    "postcode": "6990613",
    "prefecture": "島根県",
    "prefecture_kana": "シマネケン",
    "prefecture_code": 32,
    "city": "出雲市",
    "city_kana": "イズモシ",
    "town": "斐川町神氷",
    "town_kana": "ヒカワチョウカンピ",
    "street": null,
    "office_name": null,
    "office_name_kana": null
  },
  "0614": {
    "postcode": "6990614",
    "prefecture": "島根県",
    "prefecture_kana": "シマネケン",
    "prefecture_code": 32,
    "city": "出雲市",
    "city_kana": "イズモシ",
    "town": "斐川町求院",
    "town_kana": "ヒカワチョウグイ",
    "street": null,
    "office_name": null,
    "office_name_kana": null
  },
  "0615": {
    "postcode": "6990615",
    "prefecture": "島根県",
    "prefecture_kana": "シマネケン",
    "prefecture_code": 32,
    "city": "出雲市",
    "city_kana": "イズモシ",
    "town": "斐川町併川",
    "town_kana": "ヒカワチョウアイカワ",
    "street": null,
    "office_name": null,
    "office_name_kana": null
  },
  "0621": {
    "postcode": "6990621",
    "prefecture": "島根県",
    "prefecture_kana": "シマネケン",
    "prefecture_code": 32,
    "city": "出雲市",
    "city_kana": "イズモシ",
    "town": "斐川町富村",
    "town_kana": "ヒカワチョウトビムラ",
    "street": null,
    "office_name": null,
    "office_name_kana": null
  },
  "0622": {
    "postcode": "6990622",
    "prefecture": "島根県",
    "prefecture_kana": "シマネケン",
    "prefecture_code": 32,
    "city": "出雲市",
    "city_kana": "イズモシ",
    "town": "斐川町名島",
    "town_kana": "ヒカワチョウナシマ",
    "street": null,
    "office_name": null,
    "office_name_kana": null
  },
  "0623": {
    "postcode": "6990623",
    "prefecture": "島根県",
    "prefecture_kana": "シマネケン",
    "prefecture_code": 32,
    "city": "出雲市",
    "city_kana": "イズモシ",
    "town": "斐川町鳥井",
    "town_kana": "ヒカワチョウトリイ",
    "street": null,
    "office_name": null,
    "office_name_kana": null
  },
  "0624": {
    "postcode": "6990624",
    "prefecture": "島根県",
    "prefecture_kana": "シマネケン",
    "prefecture_code": 32,
    "city": "出雲市",
    "city_kana": "イズモシ",
    "town": "斐川町上直江",
    "town_kana": "ヒカワチョウカミナオエ",
    "street": null,
    "office_name": null,
    "office_name_kana": null
  },
  "0631": {
    "postcode": "6990631",
    "prefecture": "島根県",
    "prefecture_kana": "シマネケン",
    "prefecture_code": 32,
    "city": "出雲市",
    "city_kana": "イズモシ",
    "town": "斐川町直江",
    "town_kana": "ヒカワチョウナオエ",
    "street": null,
    "office_name": null,
    "office_name_kana": null
  },
  "0641": {
    "postcode": "6990641",
    "prefecture": "島根県",
    "prefecture_kana": "シマネケン",
    "prefecture_code": 32,
    "city": "出雲市",
    "city_kana": "イズモシ",
    "town": "斐川町美南",
    "town_kana": "ヒカワチョウミナミ",
    "street": null,
    "office_name": null,
    "office_name_kana": null
  },
  "0642": {
    "postcode": "6990642",
    "prefecture": "島根県",
    "prefecture_kana": "シマネケン",
    "prefecture_code": 32,
    "city": "出雲市",
    "city_kana": "イズモシ",
    "town": "斐川町福富",
    "town_kana": "ヒカワチョウフクドミ",
    "street": null,
    "office_name": null,
    "office_name_kana": null
  },
  "0643": {
    "postcode": "6990643",
    "prefecture": "島根県",
    "prefecture_kana": "シマネケン",
    "prefecture_code": 32,
    "city": "出雲市",
    "city_kana": "イズモシ",
    "town": "斐川町原鹿",
    "town_kana": "ヒカワチョウハラシカ",
    "street": null,
    "office_name": null,
    "office_name_kana": null
  },
  "0644": {
    "postcode": "6990644",
    "prefecture": "島根県",
    "prefecture_kana": "シマネケン",
    "prefecture_code": 32,
    "city": "出雲市",
    "city_kana": "イズモシ",
    "town": "斐川町今在家",
    "town_kana": "ヒカワチョウイマザイケ",
    "street": null,
    "office_name": null,
    "office_name_kana": null
  },
  "0696": {
    "postcode": "6990696",
    "prefecture": "島根県",
    "prefecture_kana": "シマネケン",
    "prefecture_code": 32,
    "city": "出雲市",
    "city_kana": "イズモシ",
    "town": "斐川町上直江",
    "town_kana": "ヒカワチョウカミナオエ",
    "street": "２３０８",
    "office_name": "株式会社　出雲村田製作所",
    "office_name_kana": "カブシキガイシヤ イズモムラタセイサクシヨ"
  },
  "0697": {
    "postcode": "6990697",
    "prefecture": "島根県",
    "prefecture_kana": "シマネケン",
    "prefecture_code": 32,
    "city": "出雲市",
    "city_kana": "イズモシ",
    "town": "斐川町直江",
    "town_kana": "ヒカワチョウナオエ",
    "street": "５０３０",
    "office_name": "ＪＡ全農　島根県本部",
    "office_name_kana": "ジエイエイゼンノウ シマネケンホンブ"
  },
  "0701": {
    "postcode": "6990701",
    "prefecture": "島根県",
    "prefecture_kana": "シマネケン",
    "prefecture_code": 32,
    "city": "出雲市",
    "city_kana": "イズモシ",
    "town": "大社町杵築東",
    "town_kana": "タイシャチョウキヅキヒガシ",
    "street": null,
    "office_name": null,
    "office_name_kana": null
  },
  "0702": {
    "postcode": "6990702",
    "prefecture": "島根県",
    "prefecture_kana": "シマネケン",
    "prefecture_code": 32,
    "city": "出雲市",
    "city_kana": "イズモシ",
    "town": "大社町杵築北",
    "town_kana": "タイシャチョウキヅキキタ",
    "street": null,
    "office_name": null,
    "office_name_kana": null
  },
  "0711": {
    "postcode": "6990711",
    "prefecture": "島根県",
    "prefecture_kana": "シマネケン",
    "prefecture_code": 32,
    "city": "出雲市",
    "city_kana": "イズモシ",
    "town": "大社町杵築南",
    "town_kana": "タイシャチョウキヅキミナミ",
    "street": null,
    "office_name": null,
    "office_name_kana": null
  },
  "0721": {
    "postcode": "6990721",
    "prefecture": "島根県",
    "prefecture_kana": "シマネケン",
    "prefecture_code": 32,
    "city": "出雲市",
    "city_kana": "イズモシ",
    "town": "大社町修理免",
    "town_kana": "タイシャチョウシュウリメン",
    "street": null,
    "office_name": null,
    "office_name_kana": null
  },
  "0722": {
    "postcode": "6990722",
    "prefecture": "島根県",
    "prefecture_kana": "シマネケン",
    "prefecture_code": 32,
    "city": "出雲市",
    "city_kana": "イズモシ",
    "town": "大社町北荒木",
    "town_kana": "タイシャチョウキタアラキ",
    "street": null,
    "office_name": null,
    "office_name_kana": null
  },
  "0731": {
    "postcode": "6990731",
    "prefecture": "島根県",
    "prefecture_kana": "シマネケン",
    "prefecture_code": 32,
    "city": "出雲市",
    "city_kana": "イズモシ",
    "town": "大社町遙堪",
    "town_kana": "タイシャチョウヨウカン",
    "street": null,
    "office_name": null,
    "office_name_kana": null
  },
  "0732": {
    "postcode": "6990732",
    "prefecture": "島根県",
    "prefecture_kana": "シマネケン",
    "prefecture_code": 32,
    "city": "出雲市",
    "city_kana": "イズモシ",
    "town": "大社町入南",
    "town_kana": "タイシャチョウニュウナン",
    "street": null,
    "office_name": null,
    "office_name_kana": null
  },
  "0733": {
    "postcode": "6990733",
    "prefecture": "島根県",
    "prefecture_kana": "シマネケン",
    "prefecture_code": 32,
    "city": "出雲市",
    "city_kana": "イズモシ",
    "town": "大社町菱根",
    "town_kana": "タイシャチョウヒシネ",
    "street": null,
    "office_name": null,
    "office_name_kana": null
  },
  "0741": {
    "postcode": "6990741",
    "prefecture": "島根県",
    "prefecture_kana": "シマネケン",
    "prefecture_code": 32,
    "city": "出雲市",
    "city_kana": "イズモシ",
    "town": "大社町中荒木",
    "town_kana": "タイシャチョウナカアラキ",
    "street": null,
    "office_name": null,
    "office_name_kana": null
  },
  "0751": {
    "postcode": "6990751",
    "prefecture": "島根県",
    "prefecture_kana": "シマネケン",
    "prefecture_code": 32,
    "city": "出雲市",
    "city_kana": "イズモシ",
    "town": "大社町杵築西",
    "town_kana": "タイシャチョウキヅキニシ",
    "street": null,
    "office_name": null,
    "office_name_kana": null
  },
  "0761": {
    "postcode": "6990761",
    "prefecture": "島根県",
    "prefecture_kana": "シマネケン",
    "prefecture_code": 32,
    "city": "出雲市",
    "city_kana": "イズモシ",
    "town": "大社町鷺浦",
    "town_kana": "タイシャチョウサギウラ",
    "street": null,
    "office_name": null,
    "office_name_kana": null
  },
  "0762": {
    "postcode": "6990762",
    "prefecture": "島根県",
    "prefecture_kana": "シマネケン",
    "prefecture_code": 32,
    "city": "出雲市",
    "city_kana": "イズモシ",
    "town": "大社町鵜峠",
    "town_kana": "タイシャチョウウド",
    "street": null,
    "office_name": null,
    "office_name_kana": null
  },
  "0763": {
    "postcode": "6990763",
    "prefecture": "島根県",
    "prefecture_kana": "シマネケン",
    "prefecture_code": 32,
    "city": "出雲市",
    "city_kana": "イズモシ",
    "town": "大社町日御碕",
    "town_kana": "タイシャチョウヒノミサキ",
    "street": null,
    "office_name": null,
    "office_name_kana": null
  },
  "0764": {
    "postcode": "6990764",
    "prefecture": "島根県",
    "prefecture_kana": "シマネケン",
    "prefecture_code": 32,
    "city": "出雲市",
    "city_kana": "イズモシ",
    "town": "大社町宇龍",
    "town_kana": "タイシャチョウウリュウ",
    "street": null,
    "office_name": null,
    "office_name_kana": null
  },
  "0792": {
    "postcode": "6990792",
    "prefecture": "島根県",
    "prefecture_kana": "シマネケン",
    "prefecture_code": 32,
    "city": "出雲市",
    "city_kana": "イズモシ",
    "town": "大社町杵築南",
    "town_kana": "タイシャチョウキヅキミナミ",
    "street": "１３９５",
    "office_name": "出雲市役所　大社支所",
    "office_name_kana": "イズモシヤクシヨ タイシヤシシヨ"
  },
  "0811": {
    "postcode": "6990811",
    "prefecture": "島根県",
    "prefecture_kana": "シマネケン",
    "prefecture_code": 32,
    "city": "出雲市",
    "city_kana": "イズモシ",
    "town": "湖陵町差海",
    "town_kana": "コリョウチョウサシウミ",
    "street": null,
    "office_name": null,
    "office_name_kana": null
  },
  "0812": {
    "postcode": "6990812",
    "prefecture": "島根県",
    "prefecture_kana": "シマネケン",
    "prefecture_code": 32,
    "city": "出雲市",
    "city_kana": "イズモシ",
    "town": "湖陵町二部",
    "town_kana": "コリョウチョウニブ",
    "street": null,
    "office_name": null,
    "office_name_kana": null
  },
  "0813": {
    "postcode": "6990813",
    "prefecture": "島根県",
    "prefecture_kana": "シマネケン",
    "prefecture_code": 32,
    "city": "出雲市",
    "city_kana": "イズモシ",
    "town": "湖陵町三部",
    "town_kana": "コリョウチョウサンブ",
    "street": null,
    "office_name": null,
    "office_name_kana": null
  },
  "0814": {
    "postcode": "6990814",
    "prefecture": "島根県",
    "prefecture_kana": "シマネケン",
    "prefecture_code": 32,
    "city": "出雲市",
    "city_kana": "イズモシ",
    "town": "湖陵町常楽寺",
    "town_kana": "コリョウチョウジョウラクジ",
    "street": null,
    "office_name": null,
    "office_name_kana": null
  },
  "0815": {
    "postcode": "6990815",
    "prefecture": "島根県",
    "prefecture_kana": "シマネケン",
    "prefecture_code": 32,
    "city": "出雲市",
    "city_kana": "イズモシ",
    "town": "湖陵町畑村",
    "town_kana": "コリョウチョウハタムラ",
    "street": null,
    "office_name": null,
    "office_name_kana": null
  },
  "0816": {
    "postcode": "6990816",
    "prefecture": "島根県",
    "prefecture_kana": "シマネケン",
    "prefecture_code": 32,
    "city": "出雲市",
    "city_kana": "イズモシ",
    "town": "湖陵町大池",
    "town_kana": "コリョウチョウオオイケ",
    "street": null,
    "office_name": null,
    "office_name_kana": null
  },
  "0817": {
    "postcode": "6990817",
    "prefecture": "島根県",
    "prefecture_kana": "シマネケン",
    "prefecture_code": 32,
    "city": "出雲市",
    "city_kana": "イズモシ",
    "town": "湖陵町板津",
    "town_kana": "コリョウチョウイタヅ",
    "street": null,
    "office_name": null,
    "office_name_kana": null
  },
  "0821": {
    "postcode": "6990821",
    "prefecture": "島根県",
    "prefecture_kana": "シマネケン",
    "prefecture_code": 32,
    "city": "出雲市",
    "city_kana": "イズモシ",
    "town": "大島町",
    "town_kana": "オオジマチョウ",
    "street": null,
    "office_name": null,
    "office_name_kana": null
  },
  "0822": {
    "postcode": "6990822",
    "prefecture": "島根県",
    "prefecture_kana": "シマネケン",
    "prefecture_code": 32,
    "city": "出雲市",
    "city_kana": "イズモシ",
    "town": "神西沖町",
    "town_kana": "ジンザイオキチョウ",
    "street": null,
    "office_name": null,
    "office_name_kana": null
  },
  "0823": {
    "postcode": "6990823",
    "prefecture": "島根県",
    "prefecture_kana": "シマネケン",
    "prefecture_code": 32,
    "city": "出雲市",
    "city_kana": "イズモシ",
    "town": "東神西町",
    "town_kana": "ヒガシジンザイチョウ",
    "street": null,
    "office_name": null,
    "office_name_kana": null
  },
  "0824": {
    "postcode": "6990824",
    "prefecture": "島根県",
    "prefecture_kana": "シマネケン",
    "prefecture_code": 32,
    "city": "出雲市",
    "city_kana": "イズモシ",
    "town": "西神西町",
    "town_kana": "ニシジンザイチョウ",
    "street": null,
    "office_name": null,
    "office_name_kana": null
  },
  "0825": {
    "postcode": "6990825",
    "prefecture": "島根県",
    "prefecture_kana": "シマネケン",
    "prefecture_code": 32,
    "city": "出雲市",
    "city_kana": "イズモシ",
    "town": "神西新町",
    "town_kana": "ジンザイシンマチ",
    "street": null,
    "office_name": null,
    "office_name_kana": null
  },
  "0901": {
    "postcode": "6990901",
    "prefecture": "島根県",
    "prefecture_kana": "シマネケン",
    "prefecture_code": 32,
    "city": "出雲市",
    "city_kana": "イズモシ",
    "town": "多伎町久村",
    "town_kana": "タキチョウクムラ",
    "street": null,
    "office_name": null,
    "office_name_kana": null
  },
  "0902": {
    "postcode": "6990902",
    "prefecture": "島根県",
    "prefecture_kana": "シマネケン",
    "prefecture_code": 32,
    "city": "出雲市",
    "city_kana": "イズモシ",
    "town": "多伎町多岐",
    "town_kana": "タキチョウタキ",
    "street": null,
    "office_name": null,
    "office_name_kana": null
  },
  "0903": {
    "postcode": "6990903",
    "prefecture": "島根県",
    "prefecture_kana": "シマネケン",
    "prefecture_code": 32,
    "city": "出雲市",
    "city_kana": "イズモシ",
    "town": "多伎町小田",
    "town_kana": "タキチョウオダ",
    "street": null,
    "office_name": null,
    "office_name_kana": null
  },
  "0904": {
    "postcode": "6990904",
    "prefecture": "島根県",
    "prefecture_kana": "シマネケン",
    "prefecture_code": 32,
    "city": "出雲市",
    "city_kana": "イズモシ",
    "town": "多伎町口田儀",
    "town_kana": "タキチョウクチタギ",
    "street": null,
    "office_name": null,
    "office_name_kana": null
  },
  "0905": {
    "postcode": "6990905",
    "prefecture": "島根県",
    "prefecture_kana": "シマネケン",
    "prefecture_code": 32,
    "city": "出雲市",
    "city_kana": "イズモシ",
    "town": "多伎町奥田儀",
    "town_kana": "タキチョウオクタギ",
    "street": null,
    "office_name": null,
    "office_name_kana": null
  },
  "0906": {
    "postcode": "6990906",
    "prefecture": "島根県",
    "prefecture_kana": "シマネケン",
    "prefecture_code": 32,
    "city": "出雲市",
    "city_kana": "イズモシ",
    "town": "多伎町神原",
    "town_kana": "タキチョウカンバラ",
    "street": null,
    "office_name": null,
    "office_name_kana": null
  },
  "1101": {
    "postcode": "6991101",
    "prefecture": "島根県",
    "prefecture_kana": "シマネケン",
    "prefecture_code": 32,
    "city": "雲南市",
    "city_kana": "ウンナンシ",
    "town": "加茂町大西",
    "town_kana": "カモチョウダイサイ",
    "street": null,
    "office_name": null,
    "office_name_kana": null
  },
  "1102": {
    "postcode": "6991102",
    "prefecture": "島根県",
    "prefecture_kana": "シマネケン",
    "prefecture_code": 32,
    "city": "雲南市",
    "city_kana": "ウンナンシ",
    "town": "加茂町立原",
    "town_kana": "カモチョウタチバラ",
    "street": null,
    "office_name": null,
    "office_name_kana": null
  },
  "1103": {
    "postcode": "6991103",
    "prefecture": "島根県",
    "prefecture_kana": "シマネケン",
    "prefecture_code": 32,
    "city": "雲南市",
    "city_kana": "ウンナンシ",
    "town": "加茂町近松",
    "town_kana": "カモチョウチカマツ",
    "street": null,
    "office_name": null,
    "office_name_kana": null
  },
  "1104": {
    "postcode": "6991104",
    "prefecture": "島根県",
    "prefecture_kana": "シマネケン",
    "prefecture_code": 32,
    "city": "雲南市",
    "city_kana": "ウンナンシ",
    "town": "加茂町南加茂",
    "town_kana": "カモチョウミナミガモ",
    "street": null,
    "office_name": null,
    "office_name_kana": null
  },
  "1105": {
    "postcode": "6991105",
    "prefecture": "島根県",
    "prefecture_kana": "シマネケン",
    "prefecture_code": 32,
    "city": "雲南市",
    "city_kana": "ウンナンシ",
    "town": "加茂町宇治",
    "town_kana": "カモチョウウジ",
    "street": null,
    "office_name": null,
    "office_name_kana": null
  },
  "1106": {
    "postcode": "6991106",
    "prefecture": "島根県",
    "prefecture_kana": "シマネケン",
    "prefecture_code": 32,
    "city": "雲南市",
    "city_kana": "ウンナンシ",
    "town": "加茂町加茂中",
    "town_kana": "カモチョウカモナカ",
    "street": null,
    "office_name": null,
    "office_name_kana": null
  },
  "1111": {
    "postcode": "6991111",
    "prefecture": "島根県",
    "prefecture_kana": "シマネケン",
    "prefecture_code": 32,
    "city": "雲南市",
    "city_kana": "ウンナンシ",
    "town": "加茂町砂子原",
    "town_kana": "カモチョウスナゴハラ",
    "street": null,
    "office_name": null,
    "office_name_kana": null
  },
  "1112": {
    "postcode": "6991112",
    "prefecture": "島根県",
    "prefecture_kana": "シマネケン",
    "prefecture_code": 32,
    "city": "雲南市",
    "city_kana": "ウンナンシ",
    "town": "加茂町新宮",
    "town_kana": "カモチョウシングウ",
    "street": null,
    "office_name": null,
    "office_name_kana": null
  },
  "1113": {
    "postcode": "6991113",
    "prefecture": "島根県",
    "prefecture_kana": "シマネケン",
    "prefecture_code": 32,
    "city": "雲南市",
    "city_kana": "ウンナンシ",
    "town": "加茂町東谷",
    "town_kana": "カモチョウヒガシダニ",
    "street": null,
    "office_name": null,
    "office_name_kana": null
  },
  "1114": {
    "postcode": "6991114",
    "prefecture": "島根県",
    "prefecture_kana": "シマネケン",
    "prefecture_code": 32,
    "city": "雲南市",
    "city_kana": "ウンナンシ",
    "town": "加茂町猪尾",
    "town_kana": "カモチョウイノオ",
    "street": null,
    "office_name": null,
    "office_name_kana": null
  },
  "1115": {
    "postcode": "6991115",
    "prefecture": "島根県",
    "prefecture_kana": "シマネケン",
    "prefecture_code": 32,
    "city": "雲南市",
    "city_kana": "ウンナンシ",
    "town": "加茂町岩倉",
    "town_kana": "カモチョウイワクラ",
    "street": null,
    "office_name": null,
    "office_name_kana": null
  },
  "1121": {
    "postcode": "6991121",
    "prefecture": "島根県",
    "prefecture_kana": "シマネケン",
    "prefecture_code": 32,
    "city": "雲南市",
    "city_kana": "ウンナンシ",
    "town": "加茂町神原",
    "town_kana": "カモチョウカンバラ",
    "street": null,
    "office_name": null,
    "office_name_kana": null
  },
  "1122": {
    "postcode": "6991122",
    "prefecture": "島根県",
    "prefecture_kana": "シマネケン",
    "prefecture_code": 32,
    "city": "雲南市",
    "city_kana": "ウンナンシ",
    "town": "加茂町三代",
    "town_kana": "カモチョウミジロ",
    "street": null,
    "office_name": null,
    "office_name_kana": null
  },
  "1123": {
    "postcode": "6991123",
    "prefecture": "島根県",
    "prefecture_kana": "シマネケン",
    "prefecture_code": 32,
    "city": "雲南市",
    "city_kana": "ウンナンシ",
    "town": "加茂町大竹",
    "town_kana": "カモチョウオオタケ",
    "street": null,
    "office_name": null,
    "office_name_kana": null
  },
  "1124": {
    "postcode": "6991124",
    "prefecture": "島根県",
    "prefecture_kana": "シマネケン",
    "prefecture_code": 32,
    "city": "雲南市",
    "city_kana": "ウンナンシ",
    "town": "加茂町延野",
    "town_kana": "カモチョウノブノ",
    "street": null,
    "office_name": null,
    "office_name_kana": null
  },
  "1125": {
    "postcode": "6991125",
    "prefecture": "島根県",
    "prefecture_kana": "シマネケン",
    "prefecture_code": 32,
    "city": "雲南市",
    "city_kana": "ウンナンシ",
    "town": "加茂町大崎",
    "town_kana": "カモチョウオオサキ",
    "street": null,
    "office_name": null,
    "office_name_kana": null
  },
  "1201": {
    "postcode": "6991201",
    "prefecture": "島根県",
    "prefecture_kana": "シマネケン",
    "prefecture_code": 32,
    "city": "雲南市",
    "city_kana": "ウンナンシ",
    "town": "大東町小河内",
    "town_kana": "ダイトウチョウオガワウチ",
    "street": null,
    "office_name": null,
    "office_name_kana": null
  },
  "1202": {
    "postcode": "6991202",
    "prefecture": "島根県",
    "prefecture_kana": "シマネケン",
    "prefecture_code": 32,
    "city": "雲南市",
    "city_kana": "ウンナンシ",
    "town": "大東町刈畑",
    "town_kana": "ダイトウチョウカリハタ",
    "street": null,
    "office_name": null,
    "office_name_kana": null
  },
  "1203": {
    "postcode": "6991203",
    "prefecture": "島根県",
    "prefecture_kana": "シマネケン",
    "prefecture_code": 32,
    "city": "雲南市",
    "city_kana": "ウンナンシ",
    "town": "大東町北村",
    "town_kana": "ダイトウチョウキタムラ",
    "street": null,
    "office_name": null,
    "office_name_kana": null
  },
  "1204": {
    "postcode": "6991204",
    "prefecture": "島根県",
    "prefecture_kana": "シマネケン",
    "prefecture_code": 32,
    "city": "雲南市",
    "city_kana": "ウンナンシ",
    "town": "大東町薦澤",
    "town_kana": "ダイトウチョウコモザワ",
    "street": null,
    "office_name": null,
    "office_name_kana": null
  },
  "1205": {
    "postcode": "6991205",
    "prefecture": "島根県",
    "prefecture_kana": "シマネケン",
    "prefecture_code": 32,
    "city": "雲南市",
    "city_kana": "ウンナンシ",
    "town": "大東町須賀",
    "town_kana": "ダイトウチョウスガ",
    "street": null,
    "office_name": null,
    "office_name_kana": null
  },
  "1206": {
    "postcode": "6991206",
    "prefecture": "島根県",
    "prefecture_kana": "シマネケン",
    "prefecture_code": 32,
    "city": "雲南市",
    "city_kana": "ウンナンシ",
    "town": "大東町南村",
    "town_kana": "ダイトウチョウミナミムラ",
    "street": null,
    "office_name": null,
    "office_name_kana": null
  },
  "1211": {
    "postcode": "6991211",
    "prefecture": "島根県",
    "prefecture_kana": "シマネケン",
    "prefecture_code": 32,
    "city": "雲南市",
    "city_kana": "ウンナンシ",
    "town": "大東町上久野",
    "town_kana": "ダイトウチョウカミクノ",
    "street": null,
    "office_name": null,
    "office_name_kana": null
  },
  "1212": {
    "postcode": "6991212",
    "prefecture": "島根県",
    "prefecture_kana": "シマネケン",
    "prefecture_code": 32,
    "city": "雲南市",
    "city_kana": "ウンナンシ",
    "town": "大東町下久野",
    "town_kana": "ダイトウチョウシモクノ",
    "street": null,
    "office_name": null,
    "office_name_kana": null
  },
  "1213": {
    "postcode": "6991213",
    "prefecture": "島根県",
    "prefecture_kana": "シマネケン",
    "prefecture_code": 32,
    "city": "雲南市",
    "city_kana": "ウンナンシ",
    "town": "大東町大ケ谷",
    "town_kana": "ダイトウチョウオオカダニ",
    "street": null,
    "office_name": null,
    "office_name_kana": null
  },
  "1214": {
    "postcode": "6991214",
    "prefecture": "島根県",
    "prefecture_kana": "シマネケン",
    "prefecture_code": 32,
    "city": "雲南市",
    "city_kana": "ウンナンシ",
    "town": "大東町上佐世",
    "town_kana": "ダイトウチョウカミサセ",
    "street": null,
    "office_name": null,
    "office_name_kana": null
  },
  "1215": {
    "postcode": "6991215",
    "prefecture": "島根県",
    "prefecture_kana": "シマネケン",
    "prefecture_code": 32,
    "city": "雲南市",
    "city_kana": "ウンナンシ",
    "town": "大東町下佐世",
    "town_kana": "ダイトウチョウシモサセ",
    "street": null,
    "office_name": null,
    "office_name_kana": null
  },
  "1216": {
    "postcode": "6991216",
    "prefecture": "島根県",
    "prefecture_kana": "シマネケン",
    "prefecture_code": 32,
    "city": "雲南市",
    "city_kana": "ウンナンシ",
    "town": "大東町西阿用",
    "town_kana": "ダイトウチョウニシアヨウ",
    "street": null,
    "office_name": null,
    "office_name_kana": null
  },
  "1221": [
    {
      "postcode": "6991221",
      "prefecture": "島根県",
      "prefecture_kana": "シマネケン",
      "prefecture_code": 32,
      "city": "雲南市",
      "city_kana": "ウンナンシ",
      "town": "大東町飯田",
      "town_kana": "ダイトウチョウイイダ",
      "street": null,
      "office_name": null,
      "office_name_kana": null
    },
    {
      "postcode": "6991221",
      "prefecture": "島根県",
      "prefecture_kana": "シマネケン",
      "prefecture_code": 32,
      "city": "雲南市",
      "city_kana": "ウンナンシ",
      "town": "大東町岡村",
      "town_kana": "ダイトウチョウオカムラ",
      "street": null,
      "office_name": null,
      "office_name_kana": null
    }
  ],
  "1222": {
    "postcode": "6991222",
    "prefecture": "島根県",
    "prefecture_kana": "シマネケン",
    "prefecture_code": 32,
    "city": "雲南市",
    "city_kana": "ウンナンシ",
    "town": "大東町川井",
    "town_kana": "ダイトウチョウカワイ",
    "street": null,
    "office_name": null,
    "office_name_kana": null
  },
  "1223": {
    "postcode": "6991223",
    "prefecture": "島根県",
    "prefecture_kana": "シマネケン",
    "prefecture_code": 32,
    "city": "雲南市",
    "city_kana": "ウンナンシ",
    "town": "大東町下阿用",
    "town_kana": "ダイトウチョウシモアヨウ",
    "street": null,
    "office_name": null,
    "office_name_kana": null
  },
  "1224": {
    "postcode": "6991224",
    "prefecture": "島根県",
    "prefecture_kana": "シマネケン",
    "prefecture_code": 32,
    "city": "雲南市",
    "city_kana": "ウンナンシ",
    "town": "大東町東阿用",
    "town_kana": "ダイトウチョウヒガシアヨウ",
    "street": null,
    "office_name": null,
    "office_name_kana": null
  },
  "1231": {
    "postcode": "6991231",
    "prefecture": "島根県",
    "prefecture_kana": "シマネケン",
    "prefecture_code": 32,
    "city": "雲南市",
    "city_kana": "ウンナンシ",
    "town": "大東町遠所",
    "town_kana": "ダイトウチョウエンジョ",
    "street": null,
    "office_name": null,
    "office_name_kana": null
  },
  "1232": {
    "postcode": "6991232",
    "prefecture": "島根県",
    "prefecture_kana": "シマネケン",
    "prefecture_code": 32,
    "city": "雲南市",
    "city_kana": "ウンナンシ",
    "town": "大東町仁和寺",
    "town_kana": "ダイトウチョウニンナジ",
    "street": null,
    "office_name": null,
    "office_name_kana": null
  },
  "1233": {
    "postcode": "6991233",
    "prefecture": "島根県",
    "prefecture_kana": "シマネケン",
    "prefecture_code": 32,
    "city": "雲南市",
    "city_kana": "ウンナンシ",
    "town": "大東町幡屋",
    "town_kana": "ダイトウチョウハタヤ",
    "street": null,
    "office_name": null,
    "office_name_kana": null
  },
  "1234": {
    "postcode": "6991234",
    "prefecture": "島根県",
    "prefecture_kana": "シマネケン",
    "prefecture_code": 32,
    "city": "雲南市",
    "city_kana": "ウンナンシ",
    "town": "大東町前原",
    "town_kana": "ダイトウチョウマエバラ",
    "street": null,
    "office_name": null,
    "office_name_kana": null
  },
  "1241": {
    "postcode": "6991241",
    "prefecture": "島根県",
    "prefecture_kana": "シマネケン",
    "prefecture_code": 32,
    "city": "雲南市",
    "city_kana": "ウンナンシ",
    "town": "大東町山王寺",
    "town_kana": "ダイトウチョウサンノウジ",
    "street": null,
    "office_name": null,
    "office_name_kana": null
  },
  "1242": {
    "postcode": "6991242",
    "prefecture": "島根県",
    "prefecture_kana": "シマネケン",
    "prefecture_code": 32,
    "city": "雲南市",
    "city_kana": "ウンナンシ",
    "town": "大東町大東下分",
    "town_kana": "ダイトウチョウダイトウシモブン",
    "street": null,
    "office_name": null,
    "office_name_kana": null
  },
  "1243": {
    "postcode": "6991243",
    "prefecture": "島根県",
    "prefecture_kana": "シマネケン",
    "prefecture_code": 32,
    "city": "雲南市",
    "city_kana": "ウンナンシ",
    "town": "大東町畑鵯",
    "town_kana": "ダイトウチョウハタヒヨドリ",
    "street": null,
    "office_name": null,
    "office_name_kana": null
  },
  "1244": {
    "postcode": "6991244",
    "prefecture": "島根県",
    "prefecture_kana": "シマネケン",
    "prefecture_code": 32,
    "city": "雲南市",
    "city_kana": "ウンナンシ",
    "town": "大東町山田",
    "town_kana": "ダイトウチョウヤマダ",
    "street": null,
    "office_name": null,
    "office_name_kana": null
  },
  "1245": {
    "postcode": "6991245",
    "prefecture": "島根県",
    "prefecture_kana": "シマネケン",
    "prefecture_code": 32,
    "city": "雲南市",
    "city_kana": "ウンナンシ",
    "town": "大東町養賀",
    "town_kana": "ダイトウチョウヨウカ",
    "street": null,
    "office_name": null,
    "office_name_kana": null
  },
  "1251": [
    {
      "postcode": "6991251",
      "prefecture": "島根県",
      "prefecture_kana": "シマネケン",
      "prefecture_code": 32,
      "city": "雲南市",
      "city_kana": "ウンナンシ",
      "town": "大東町新庄",
      "town_kana": "ダイトウチョウシンジョウ",
      "street": null,
      "office_name": null,
      "office_name_kana": null
    },
    {
      "postcode": "6991251",
      "prefecture": "島根県",
      "prefecture_kana": "シマネケン",
      "prefecture_code": 32,
      "city": "雲南市",
      "city_kana": "ウンナンシ",
      "town": "大東町大東",
      "town_kana": "ダイトウチョウダイトウ",
      "street": null,
      "office_name": null,
      "office_name_kana": null
    }
  ],
  "1252": {
    "postcode": "6991252",
    "prefecture": "島根県",
    "prefecture_kana": "シマネケン",
    "prefecture_code": 32,
    "city": "雲南市",
    "city_kana": "ウンナンシ",
    "town": "大東町田中",
    "town_kana": "ダイトウチョウタナカ",
    "street": null,
    "office_name": null,
    "office_name_kana": null
  },
  "1253": {
    "postcode": "6991253",
    "prefecture": "島根県",
    "prefecture_kana": "シマネケン",
    "prefecture_code": 32,
    "city": "雲南市",
    "city_kana": "ウンナンシ",
    "town": "大東町中湯石",
    "town_kana": "ダイトウチョウナカユイシ",
    "street": null,
    "office_name": null,
    "office_name_kana": null
  },
  "1261": {
    "postcode": "6991261",
    "prefecture": "島根県",
    "prefecture_kana": "シマネケン",
    "prefecture_code": 32,
    "city": "雲南市",
    "city_kana": "ウンナンシ",
    "town": "大東町金成",
    "town_kana": "ダイトウチョウカネナリ",
    "street": null,
    "office_name": null,
    "office_name_kana": null
  },
  "1262": {
    "postcode": "6991262",
    "prefecture": "島根県",
    "prefecture_kana": "シマネケン",
    "prefecture_code": 32,
    "city": "雲南市",
    "city_kana": "ウンナンシ",
    "town": "大東町塩田",
    "town_kana": "ダイトウチョウシオタ",
    "street": null,
    "office_name": null,
    "office_name_kana": null
  },
  "1263": {
    "postcode": "6991263",
    "prefecture": "島根県",
    "prefecture_kana": "シマネケン",
    "prefecture_code": 32,
    "city": "雲南市",
    "city_kana": "ウンナンシ",
    "town": "大東町篠淵",
    "town_kana": "ダイトウチョウシノブチ",
    "street": null,
    "office_name": null,
    "office_name_kana": null
  },
  "1264": {
    "postcode": "6991264",
    "prefecture": "島根県",
    "prefecture_kana": "シマネケン",
    "prefecture_code": 32,
    "city": "雲南市",
    "city_kana": "ウンナンシ",
    "town": "大東町清田",
    "town_kana": "ダイトウチョウセイダ",
    "street": null,
    "office_name": null,
    "office_name_kana": null
  },
  "1292": {
    "postcode": "6991292",
    "prefecture": "島根県",
    "prefecture_kana": "シマネケン",
    "prefecture_code": 32,
    "city": "雲南市",
    "city_kana": "ウンナンシ",
    "town": "大東町大東",
    "town_kana": "ダイトウチョウダイトウ",
    "street": "１６７３−１",
    "office_name": "雲南市役所　大東総合センター",
    "office_name_kana": "ウンナンシヤクシヨ ダイトウソウゴウセンタ-"
  },
  "1293": {
    "postcode": "6991293",
    "prefecture": "島根県",
    "prefecture_kana": "シマネケン",
    "prefecture_code": 32,
    "city": "雲南市",
    "city_kana": "ウンナンシ",
    "town": "大東町飯田",
    "town_kana": "ダイトウチョウイイダ",
    "street": "９６−１",
    "office_name": "公立雲南総合病院",
    "office_name_kana": "コウリツウンナンソウゴウビヨウイン"
  },
  "1311": {
    "postcode": "6991311",
    "prefecture": "島根県",
    "prefecture_kana": "シマネケン",
    "prefecture_code": 32,
    "city": "雲南市",
    "city_kana": "ウンナンシ",
    "town": "木次町里方",
    "town_kana": "キスキチョウサトガタ",
    "street": null,
    "office_name": null,
    "office_name_kana": null
  },
  "1312": {
    "postcode": "6991312",
    "prefecture": "島根県",
    "prefecture_kana": "シマネケン",
    "prefecture_code": 32,
    "city": "雲南市",
    "city_kana": "ウンナンシ",
    "town": "木次町山方",
    "town_kana": "キスキチョウヤマガタ",
    "street": null,
    "office_name": null,
    "office_name_kana": null
  },
  "1321": {
    "postcode": "6991321",
    "prefecture": "島根県",
    "prefecture_kana": "シマネケン",
    "prefecture_code": 32,
    "city": "雲南市",
    "city_kana": "ウンナンシ",
    "town": "木次町宇谷",
    "town_kana": "キスキチョウウダニ",
    "street": null,
    "office_name": null,
    "office_name_kana": null
  },
  "1322": {
    "postcode": "6991322",
    "prefecture": "島根県",
    "prefecture_kana": "シマネケン",
    "prefecture_code": 32,
    "city": "雲南市",
    "city_kana": "ウンナンシ",
    "town": "木次町寺領",
    "town_kana": "キスキチョウジリョウ",
    "street": null,
    "office_name": null,
    "office_name_kana": null
  },
  "1323": {
    "postcode": "6991323",
    "prefecture": "島根県",
    "prefecture_kana": "シマネケン",
    "prefecture_code": 32,
    "city": "雲南市",
    "city_kana": "ウンナンシ",
    "town": "木次町東日登",
    "town_kana": "キスキチョウヒガシヒノボリ",
    "street": null,
    "office_name": null,
    "office_name_kana": null
  },
  "1324": {
    "postcode": "6991324",
    "prefecture": "島根県",
    "prefecture_kana": "シマネケン",
    "prefecture_code": 32,
    "city": "雲南市",
    "city_kana": "ウンナンシ",
    "town": "木次町西日登",
    "town_kana": "キスキチョウニシヒノボリ",
    "street": null,
    "office_name": null,
    "office_name_kana": null
  },
  "1331": {
    "postcode": "6991331",
    "prefecture": "島根県",
    "prefecture_kana": "シマネケン",
    "prefecture_code": 32,
    "city": "雲南市",
    "city_kana": "ウンナンシ",
    "town": "木次町上熊谷",
    "town_kana": "キスキチョウカミクマタニ",
    "street": null,
    "office_name": null,
    "office_name_kana": null
  },
  "1332": {
    "postcode": "6991332",
    "prefecture": "島根県",
    "prefecture_kana": "シマネケン",
    "prefecture_code": 32,
    "city": "雲南市",
    "city_kana": "ウンナンシ",
    "town": "木次町木次",
    "town_kana": "キスキチョウキスキ",
    "street": null,
    "office_name": null,
    "office_name_kana": null
  },
  "1333": {
    "postcode": "6991333",
    "prefecture": "島根県",
    "prefecture_kana": "シマネケン",
    "prefecture_code": 32,
    "city": "雲南市",
    "city_kana": "ウンナンシ",
    "town": "木次町下熊谷",
    "town_kana": "キスキチョウシモクマタニ",
    "street": null,
    "office_name": null,
    "office_name_kana": null
  },
  "1334": {
    "postcode": "6991334",
    "prefecture": "島根県",
    "prefecture_kana": "シマネケン",
    "prefecture_code": 32,
    "city": "雲南市",
    "city_kana": "ウンナンシ",
    "town": "木次町新市",
    "town_kana": "キスキチョウシンイチ",
    "street": null,
    "office_name": null,
    "office_name_kana": null
  },
  "1341": {
    "postcode": "6991341",
    "prefecture": "島根県",
    "prefecture_kana": "シマネケン",
    "prefecture_code": 32,
    "city": "雲南市",
    "city_kana": "ウンナンシ",
    "town": "木次町北原",
    "town_kana": "キスキチョウキタハラ",
    "street": null,
    "office_name": null,
    "office_name_kana": null
  },
  "1342": {
    "postcode": "6991342",
    "prefecture": "島根県",
    "prefecture_kana": "シマネケン",
    "prefecture_code": 32,
    "city": "雲南市",
    "city_kana": "ウンナンシ",
    "town": "木次町平田",
    "town_kana": "キスキチョウヒラタ",
    "street": null,
    "office_name": null,
    "office_name_kana": null
  },
  "1343": {
    "postcode": "6991343",
    "prefecture": "島根県",
    "prefecture_kana": "シマネケン",
    "prefecture_code": 32,
    "city": "雲南市",
    "city_kana": "ウンナンシ",
    "town": "木次町湯村",
    "town_kana": "キスキチョウユムラ",
    "street": null,
    "office_name": null,
    "office_name_kana": null
  },
  "1392": {
    "postcode": "6991392",
    "prefecture": "島根県",
    "prefecture_kana": "シマネケン",
    "prefecture_code": 32,
    "city": "雲南市",
    "city_kana": "ウンナンシ",
    "town": "木次町里方",
    "town_kana": "キスキチョウサトガタ",
    "street": "５２１−１",
    "office_name": "雲南市役所",
    "office_name_kana": "ウンナンシヤクシヨ"
  },
  "1393": {
    "postcode": "6991393",
    "prefecture": "島根県",
    "prefecture_kana": "シマネケン",
    "prefecture_code": 32,
    "city": "雲南市",
    "city_kana": "ウンナンシ",
    "town": "木次町山方",
    "town_kana": "キスキチョウヤマガタ",
    "street": "２７１−１３",
    "office_name": "ホシザキ電機　株式会社　島根工場",
    "office_name_kana": "ホシザキデンキ カブシキガイシヤ シマネコウジヨウ"
  },
  "1394": {
    "postcode": "6991394",
    "prefecture": "島根県",
    "prefecture_kana": "シマネケン",
    "prefecture_code": 32,
    "city": "雲南市",
    "city_kana": "ウンナンシ",
    "town": "木次町山方",
    "town_kana": "キスキチョウヤマガタ",
    "street": "３２０−１",
    "office_name": "島根三洋電機　株式会社",
    "office_name_kana": "シマネサンヨウデンキ カブシキガイシヤ"
  },
  "1395": {
    "postcode": "6991395",
    "prefecture": "島根県",
    "prefecture_kana": "シマネケン",
    "prefecture_code": 32,
    "city": "雲南市",
    "city_kana": "ウンナンシ",
    "town": "木次町里方",
    "town_kana": "キスキチョウサトガタ",
    "street": "１０８８−６",
    "office_name": "雲南農業　協同組合",
    "office_name_kana": "ウンナンノウギヨウ キヨウドウクミアイ"
  },
  "1396": {
    "postcode": "6991396",
    "prefecture": "島根県",
    "prefecture_kana": "シマネケン",
    "prefecture_code": 32,
    "city": "雲南市",
    "city_kana": "ウンナンシ",
    "town": "木次町里方",
    "town_kana": "キスキチョウサトガタ",
    "street": "５３１番地１",
    "office_name": "東部県民センター　雲南事務所",
    "office_name_kana": "トウブケンミンセンタ- ウンナンジムシヨ"
  },
  "1401": [
    {
      "postcode": "6991401",
      "prefecture": "島根県",
      "prefecture_kana": "シマネケン",
      "prefecture_code": 32,
      "city": "雲南市",
      "city_kana": "ウンナンシ",
      "town": "木次町北原",
      "town_kana": "キスキチョウキタハラ",
      "street": null,
      "office_name": null,
      "office_name_kana": null
    },
    {
      "postcode": "6991401",
      "prefecture": "島根県",
      "prefecture_kana": "シマネケン",
      "prefecture_code": 32,
      "city": "雲南市",
      "city_kana": "ウンナンシ",
      "town": "木次町北原尾白",
      "town_kana": "キスキチョウキタハラオジロ",
      "street": null,
      "office_name": null,
      "office_name_kana": null
    }
  ],
  "1431": {
    "postcode": "6991431",
    "prefecture": "島根県",
    "prefecture_kana": "シマネケン",
    "prefecture_code": 32,
    "city": "仁多郡奥出雲町",
    "city_kana": "ニタグンオクイズモチョウ",
    "town": "上三所",
    "town_kana": "カミミトコロ",
    "street": null,
    "office_name": null,
    "office_name_kana": null
  },
  "1432": {
    "postcode": "6991432",
    "prefecture": "島根県",
    "prefecture_kana": "シマネケン",
    "prefecture_code": 32,
    "city": "仁多郡奥出雲町",
    "city_kana": "ニタグンオクイズモチョウ",
    "town": "馬馳",
    "town_kana": "マバセ",
    "street": null,
    "office_name": null,
    "office_name_kana": null
  },
  "1433": {
    "postcode": "6991433",
    "prefecture": "島根県",
    "prefecture_kana": "シマネケン",
    "prefecture_code": 32,
    "city": "仁多郡奥出雲町",
    "city_kana": "ニタグンオクイズモチョウ",
    "town": "八代",
    "town_kana": "ヤシロ",
    "street": null,
    "office_name": null,
    "office_name_kana": null
  },
  "1434": {
    "postcode": "6991434",
    "prefecture": "島根県",
    "prefecture_kana": "シマネケン",
    "prefecture_code": 32,
    "city": "仁多郡奥出雲町",
    "city_kana": "ニタグンオクイズモチョウ",
    "town": "佐白",
    "town_kana": "サジロ",
    "street": null,
    "office_name": null,
    "office_name_kana": null
  },
  "1500": {
    "postcode": "6991500",
    "prefecture": "島根県",
    "prefecture_kana": "シマネケン",
    "prefecture_code": 32,
    "city": "仁多郡奥出雲町",
    "city_kana": "ニタグンオクイズモチョウ",
    "town": "",
    "town_kana": "",
    "street": null,
    "office_name": null,
    "office_name_kana": null
  },
  "1511": {
    "postcode": "6991511",
    "prefecture": "島根県",
    "prefecture_kana": "シマネケン",
    "prefecture_code": 32,
    "city": "仁多郡奥出雲町",
    "city_kana": "ニタグンオクイズモチョウ",
    "town": "三成",
    "town_kana": "ミナリ",
    "street": null,
    "office_name": null,
    "office_name_kana": null
  },
  "1512": {
    "postcode": "6991512",
    "prefecture": "島根県",
    "prefecture_kana": "シマネケン",
    "prefecture_code": 32,
    "city": "仁多郡奥出雲町",
    "city_kana": "ニタグンオクイズモチョウ",
    "town": "高尾",
    "town_kana": "タカオ",
    "street": null,
    "office_name": null,
    "office_name_kana": null
  },
  "1513": {
    "postcode": "6991513",
    "prefecture": "島根県",
    "prefecture_kana": "シマネケン",
    "prefecture_code": 32,
    "city": "仁多郡奥出雲町",
    "city_kana": "ニタグンオクイズモチョウ",
    "town": "三沢",
    "town_kana": "ミザワ",
    "street": null,
    "office_name": null,
    "office_name_kana": null
  },
  "1514": {
    "postcode": "6991514",
    "prefecture": "島根県",
    "prefecture_kana": "シマネケン",
    "prefecture_code": 32,
    "city": "仁多郡奥出雲町",
    "city_kana": "ニタグンオクイズモチョウ",
    "town": "河内",
    "town_kana": "カワチ",
    "street": null,
    "office_name": null,
    "office_name_kana": null
  },
  "1515": {
    "postcode": "6991515",
    "prefecture": "島根県",
    "prefecture_kana": "シマネケン",
    "prefecture_code": 32,
    "city": "仁多郡奥出雲町",
    "city_kana": "ニタグンオクイズモチョウ",
    "town": "鴨倉",
    "town_kana": "カモクラ",
    "street": null,
    "office_name": null,
    "office_name_kana": null
  },
  "1516": {
    "postcode": "6991516",
    "prefecture": "島根県",
    "prefecture_kana": "シマネケン",
    "prefecture_code": 32,
    "city": "仁多郡奥出雲町",
    "city_kana": "ニタグンオクイズモチョウ",
    "town": "三所",
    "town_kana": "ミトコロ",
    "street": null,
    "office_name": null,
    "office_name_kana": null
  },
  "1517": [
    {
      "postcode": "6991517",
      "prefecture": "島根県",
      "prefecture_kana": "シマネケン",
      "prefecture_code": 32,
      "city": "仁多郡奥出雲町",
      "city_kana": "ニタグンオクイズモチョウ",
      "town": "下阿井",
      "town_kana": "シモアイ",
      "street": null,
      "office_name": null,
      "office_name_kana": null
    },
    {
      "postcode": "6991517",
      "prefecture": "島根県",
      "prefecture_kana": "シマネケン",
      "prefecture_code": 32,
      "city": "仁多郡奥出雲町",
      "city_kana": "ニタグンオクイズモチョウ",
      "town": "下阿井宇根路",
      "town_kana": "シモアイウネジ",
      "street": null,
      "office_name": null,
      "office_name_kana": null
    }
  ],
  "1592": {
    "postcode": "6991592",
    "prefecture": "島根県",
    "prefecture_kana": "シマネケン",
    "prefecture_code": 32,
    "city": "仁多郡奥出雲町",
    "city_kana": "ニタグンオクイズモチョウ",
    "town": "三成",
    "town_kana": "ミナリ",
    "street": "３５８−１",
    "office_name": "奥出雲町役場",
    "office_name_kana": "オクイズモチヨウヤクバ"
  },
  "1621": {
    "postcode": "6991621",
    "prefecture": "島根県",
    "prefecture_kana": "シマネケン",
    "prefecture_code": 32,
    "city": "仁多郡奥出雲町",
    "city_kana": "ニタグンオクイズモチョウ",
    "town": "上阿井",
    "town_kana": "カミアイ",
    "street": null,
    "office_name": null,
    "office_name_kana": null
  },
  "1622": {
    "postcode": "6991622",
    "prefecture": "島根県",
    "prefecture_kana": "シマネケン",
    "prefecture_code": 32,
    "city": "仁多郡奥出雲町",
    "city_kana": "ニタグンオクイズモチョウ",
    "town": "下阿井",
    "town_kana": "シモアイ",
    "street": null,
    "office_name": null,
    "office_name_kana": null
  },
  "1701": {
    "postcode": "6991701",
    "prefecture": "島根県",
    "prefecture_kana": "シマネケン",
    "prefecture_code": 32,
    "city": "仁多郡奥出雲町",
    "city_kana": "ニタグンオクイズモチョウ",
    "town": "亀嵩",
    "town_kana": "カメダケ",
    "street": null,
    "office_name": null,
    "office_name_kana": null
  },
  "1702": {
    "postcode": "6991702",
    "prefecture": "島根県",
    "prefecture_kana": "シマネケン",
    "prefecture_code": 32,
    "city": "仁多郡奥出雲町",
    "city_kana": "ニタグンオクイズモチョウ",
    "town": "郡",
    "town_kana": "コオリ",
    "street": null,
    "office_name": null,
    "office_name_kana": null
  },
  "1703": {
    "postcode": "6991703",
    "prefecture": "島根県",
    "prefecture_kana": "シマネケン",
    "prefecture_code": 32,
    "city": "仁多郡奥出雲町",
    "city_kana": "ニタグンオクイズモチョウ",
    "town": "高田",
    "town_kana": "タカタ",
    "street": null,
    "office_name": null,
    "office_name_kana": null
  },
  "1801": {
    "postcode": "6991801",
    "prefecture": "島根県",
    "prefecture_kana": "シマネケン",
    "prefecture_code": 32,
    "city": "仁多郡奥出雲町",
    "city_kana": "ニタグンオクイズモチョウ",
    "town": "竹崎",
    "town_kana": "タケザキ",
    "street": null,
    "office_name": null,
    "office_name_kana": null
  },
  "1802": {
    "postcode": "6991802",
    "prefecture": "島根県",
    "prefecture_kana": "シマネケン",
    "prefecture_code": 32,
    "city": "仁多郡奥出雲町",
    "city_kana": "ニタグンオクイズモチョウ",
    "town": "大呂",
    "town_kana": "オオロ",
    "street": null,
    "office_name": null,
    "office_name_kana": null
  },
  "1811": {
    "postcode": "6991811",
    "prefecture": "島根県",
    "prefecture_kana": "シマネケン",
    "prefecture_code": 32,
    "city": "仁多郡奥出雲町",
    "city_kana": "ニタグンオクイズモチョウ",
    "town": "八川",
    "town_kana": "ヤカワ",
    "street": null,
    "office_name": null,
    "office_name_kana": null
  },
  "1812": {
    "postcode": "6991812",
    "prefecture": "島根県",
    "prefecture_kana": "シマネケン",
    "prefecture_code": 32,
    "city": "仁多郡奥出雲町",
    "city_kana": "ニタグンオクイズモチョウ",
    "town": "大谷",
    "town_kana": "オオタニ",
    "street": null,
    "office_name": null,
    "office_name_kana": null
  },
  "1821": {
    "postcode": "6991821",
    "prefecture": "島根県",
    "prefecture_kana": "シマネケン",
    "prefecture_code": 32,
    "city": "仁多郡奥出雲町",
    "city_kana": "ニタグンオクイズモチョウ",
    "town": "稲原",
    "town_kana": "イナハラ",
    "street": null,
    "office_name": null,
    "office_name_kana": null
  },
  "1822": {
    "postcode": "6991822",
    "prefecture": "島根県",
    "prefecture_kana": "シマネケン",
    "prefecture_code": 32,
    "city": "仁多郡奥出雲町",
    "city_kana": "ニタグンオクイズモチョウ",
    "town": "下横田",
    "town_kana": "シモヨコタ",
    "street": null,
    "office_name": null,
    "office_name_kana": null
  },
  "1831": {
    "postcode": "6991831",
    "prefecture": "島根県",
    "prefecture_kana": "シマネケン",
    "prefecture_code": 32,
    "city": "仁多郡奥出雲町",
    "city_kana": "ニタグンオクイズモチョウ",
    "town": "中村",
    "town_kana": "ナカムラ",
    "street": null,
    "office_name": null,
    "office_name_kana": null
  },
  "1832": {
    "postcode": "6991832",
    "prefecture": "島根県",
    "prefecture_kana": "シマネケン",
    "prefecture_code": 32,
    "city": "仁多郡奥出雲町",
    "city_kana": "ニタグンオクイズモチョウ",
    "town": "横田",
    "town_kana": "ヨコタ",
    "street": null,
    "office_name": null,
    "office_name_kana": null
  },
  "1898": {
    "postcode": "6991898",
    "prefecture": "島根県",
    "prefecture_kana": "シマネケン",
    "prefecture_code": 32,
    "city": "仁多郡奥出雲町",
    "city_kana": "ニタグンオクイズモチョウ",
    "town": "稲原",
    "town_kana": "イナハラ",
    "street": "２１７８−１",
    "office_name": "島根県立　横田高等学校",
    "office_name_kana": "シマネケンリツ ヨコタコウトウガツコウ"
  },
  "1941": {
    "postcode": "6991941",
    "prefecture": "島根県",
    "prefecture_kana": "シマネケン",
    "prefecture_code": 32,
    "city": "仁多郡奥出雲町",
    "city_kana": "ニタグンオクイズモチョウ",
    "town": "大馬木",
    "town_kana": "オオマキ",
    "street": null,
    "office_name": null,
    "office_name_kana": null
  },
  "1942": {
    "postcode": "6991942",
    "prefecture": "島根県",
    "prefecture_kana": "シマネケン",
    "prefecture_code": 32,
    "city": "仁多郡奥出雲町",
    "city_kana": "ニタグンオクイズモチョウ",
    "town": "小馬木",
    "town_kana": "コマキ",
    "street": null,
    "office_name": null,
    "office_name_kana": null
  },
  "2211": {
    "postcode": "6992211",
    "prefecture": "島根県",
    "prefecture_kana": "シマネケン",
    "prefecture_code": 32,
    "city": "大田市",
    "city_kana": "オオダシ",
    "town": "波根町",
    "town_kana": "ハネチョウ",
    "street": null,
    "office_name": null,
    "office_name_kana": null
  },
  "2212": {
    "postcode": "6992212",
    "prefecture": "島根県",
    "prefecture_kana": "シマネケン",
    "prefecture_code": 32,
    "city": "大田市",
    "city_kana": "オオダシ",
    "town": "朝山町仙山",
    "town_kana": "アサヤマチョウセンヤマ",
    "street": null,
    "office_name": null,
    "office_name_kana": null
  },
  "2213": {
    "postcode": "6992213",
    "prefecture": "島根県",
    "prefecture_kana": "シマネケン",
    "prefecture_code": 32,
    "city": "大田市",
    "city_kana": "オオダシ",
    "town": "朝山町朝倉",
    "town_kana": "アサヤマチョウアサクラ",
    "street": null,
    "office_name": null,
    "office_name_kana": null
  },
  "2214": {
    "postcode": "6992214",
    "prefecture": "島根県",
    "prefecture_kana": "シマネケン",
    "prefecture_code": 32,
    "city": "大田市",
    "city_kana": "オオダシ",
    "town": "富山町神原",
    "town_kana": "トミヤマチョウカンバラ",
    "street": null,
    "office_name": null,
    "office_name_kana": null
  },
  "2215": {
    "postcode": "6992215",
    "prefecture": "島根県",
    "prefecture_kana": "シマネケン",
    "prefecture_code": 32,
    "city": "大田市",
    "city_kana": "オオダシ",
    "town": "富山町才坂",
    "town_kana": "トミヤマチョウサイザカ",
    "street": null,
    "office_name": null,
    "office_name_kana": null
  },
  "2216": {
    "postcode": "6992216",
    "prefecture": "島根県",
    "prefecture_kana": "シマネケン",
    "prefecture_code": 32,
    "city": "大田市",
    "city_kana": "オオダシ",
    "town": "富山町山中",
    "town_kana": "トミヤマチョウヤマナカ",
    "street": null,
    "office_name": null,
    "office_name_kana": null
  },
  "2301": {
    "postcode": "6992301",
    "prefecture": "島根県",
    "prefecture_kana": "シマネケン",
    "prefecture_code": 32,
    "city": "大田市",
    "city_kana": "オオダシ",
    "town": "仁摩町仁万",
    "town_kana": "ニマチョウニマ",
    "street": null,
    "office_name": null,
    "office_name_kana": null
  },
  "2302": {
    "postcode": "6992302",
    "prefecture": "島根県",
    "prefecture_kana": "シマネケン",
    "prefecture_code": 32,
    "city": "大田市",
    "city_kana": "オオダシ",
    "town": "仁摩町宅野",
    "town_kana": "ニマチョウタクノ",
    "street": null,
    "office_name": null,
    "office_name_kana": null
  },
  "2303": {
    "postcode": "6992303",
    "prefecture": "島根県",
    "prefecture_kana": "シマネケン",
    "prefecture_code": 32,
    "city": "大田市",
    "city_kana": "オオダシ",
    "town": "仁摩町大国",
    "town_kana": "ニマチョウオオグニ",
    "street": null,
    "office_name": null,
    "office_name_kana": null
  },
  "2304": {
    "postcode": "6992304",
    "prefecture": "島根県",
    "prefecture_kana": "シマネケン",
    "prefecture_code": 32,
    "city": "大田市",
    "city_kana": "オオダシ",
    "town": "仁摩町馬路",
    "town_kana": "ニマチョウマジ",
    "street": null,
    "office_name": null,
    "office_name_kana": null
  },
  "2305": {
    "postcode": "6992305",
    "prefecture": "島根県",
    "prefecture_kana": "シマネケン",
    "prefecture_code": 32,
    "city": "大田市",
    "city_kana": "オオダシ",
    "town": "仁摩町天河内",
    "town_kana": "ニマチョウアマゴウチ",
    "street": null,
    "office_name": null,
    "office_name_kana": null
  },
  "2501": {
    "postcode": "6992501",
    "prefecture": "島根県",
    "prefecture_kana": "シマネケン",
    "prefecture_code": 32,
    "city": "大田市",
    "city_kana": "オオダシ",
    "town": "温泉津町温泉津",
    "town_kana": "ユノツチョウユノツ",
    "street": null,
    "office_name": null,
    "office_name_kana": null
  },
  "2502": {
    "postcode": "6992502",
    "prefecture": "島根県",
    "prefecture_kana": "シマネケン",
    "prefecture_code": 32,
    "city": "大田市",
    "city_kana": "オオダシ",
    "town": "温泉津町湯里",
    "town_kana": "ユノツチョウユサト",
    "street": null,
    "office_name": null,
    "office_name_kana": null
  },
  "2503": {
    "postcode": "6992503",
    "prefecture": "島根県",
    "prefecture_kana": "シマネケン",
    "prefecture_code": 32,
    "city": "大田市",
    "city_kana": "オオダシ",
    "town": "温泉津町西田",
    "town_kana": "ユノツチョウニシタ",
    "street": null,
    "office_name": null,
    "office_name_kana": null
  },
  "2504": {
    "postcode": "6992504",
    "prefecture": "島根県",
    "prefecture_kana": "シマネケン",
    "prefecture_code": 32,
    "city": "大田市",
    "city_kana": "オオダシ",
    "town": "温泉津町荻村",
    "town_kana": "ユノツチョウオギムラ",
    "street": null,
    "office_name": null,
    "office_name_kana": null
  },
  "2505": {
    "postcode": "6992505",
    "prefecture": "島根県",
    "prefecture_kana": "シマネケン",
    "prefecture_code": 32,
    "city": "大田市",
    "city_kana": "オオダシ",
    "town": "温泉津町太田",
    "town_kana": "ユノツチョウオオタ",
    "street": null,
    "office_name": null,
    "office_name_kana": null
  },
  "2506": {
    "postcode": "6992506",
    "prefecture": "島根県",
    "prefecture_kana": "シマネケン",
    "prefecture_code": 32,
    "city": "大田市",
    "city_kana": "オオダシ",
    "town": "温泉津町福田",
    "town_kana": "ユノツチョウフクダ",
    "street": null,
    "office_name": null,
    "office_name_kana": null
  },
  "2507": {
    "postcode": "6992507",
    "prefecture": "島根県",
    "prefecture_kana": "シマネケン",
    "prefecture_code": 32,
    "city": "大田市",
    "city_kana": "オオダシ",
    "town": "温泉津町井田",
    "town_kana": "ユノツチョウイダ",
    "street": null,
    "office_name": null,
    "office_name_kana": null
  },
  "2511": {
    "postcode": "6992511",
    "prefecture": "島根県",
    "prefecture_kana": "シマネケン",
    "prefecture_code": 32,
    "city": "大田市",
    "city_kana": "オオダシ",
    "town": "温泉津町小浜",
    "town_kana": "ユノツチョウコハマ",
    "street": null,
    "office_name": null,
    "office_name_kana": null
  },
  "2512": {
    "postcode": "6992512",
    "prefecture": "島根県",
    "prefecture_kana": "シマネケン",
    "prefecture_code": 32,
    "city": "大田市",
    "city_kana": "オオダシ",
    "town": "温泉津町飯原",
    "town_kana": "ユノツチョウハンバラ",
    "street": null,
    "office_name": null,
    "office_name_kana": null
  },
  "2513": {
    "postcode": "6992513",
    "prefecture": "島根県",
    "prefecture_kana": "シマネケン",
    "prefecture_code": 32,
    "city": "大田市",
    "city_kana": "オオダシ",
    "town": "温泉津町上村",
    "town_kana": "ユノツチョウカミムラ",
    "street": null,
    "office_name": null,
    "office_name_kana": null
  },
  "2514": {
    "postcode": "6992514",
    "prefecture": "島根県",
    "prefecture_kana": "シマネケン",
    "prefecture_code": 32,
    "city": "大田市",
    "city_kana": "オオダシ",
    "town": "温泉津町福光",
    "town_kana": "ユノツチョウフクミツ",
    "street": null,
    "office_name": null,
    "office_name_kana": null
  },
  "2515": {
    "postcode": "6992515",
    "prefecture": "島根県",
    "prefecture_kana": "シマネケン",
    "prefecture_code": 32,
    "city": "大田市",
    "city_kana": "オオダシ",
    "town": "温泉津町今浦",
    "town_kana": "ユノツチョウイマウラ",
    "street": null,
    "office_name": null,
    "office_name_kana": null
  },
  "2516": {
    "postcode": "6992516",
    "prefecture": "島根県",
    "prefecture_kana": "シマネケン",
    "prefecture_code": 32,
    "city": "大田市",
    "city_kana": "オオダシ",
    "town": "温泉津町吉浦",
    "town_kana": "ユノツチョウヨシウラ",
    "street": null,
    "office_name": null,
    "office_name_kana": null
  },
  "2598": {
    "postcode": "6992598",
    "prefecture": "島根県",
    "prefecture_kana": "シマネケン",
    "prefecture_code": 32,
    "city": "大田市",
    "city_kana": "オオダシ",
    "town": "温泉津町小浜",
    "town_kana": "ユノツチョウコハマ",
    "street": "イ４８６",
    "office_name": "大田市役所　温泉津支所",
    "office_name_kana": "オオダシヤクシヨ ユノツシシヨ"
  },
  "2831": {
    "postcode": "6992831",
    "prefecture": "島根県",
    "prefecture_kana": "シマネケン",
    "prefecture_code": 32,
    "city": "江津市",
    "city_kana": "ゴウツシ",
    "town": "黒松町",
    "town_kana": "クロマツチョウ",
    "street": null,
    "office_name": null,
    "office_name_kana": null
  },
  "2832": {
    "postcode": "6992832",
    "prefecture": "島根県",
    "prefecture_kana": "シマネケン",
    "prefecture_code": 32,
    "city": "江津市",
    "city_kana": "ゴウツシ",
    "town": "波積町北",
    "town_kana": "ハヅミチョウキタ",
    "street": null,
    "office_name": null,
    "office_name_kana": null
  },
  "2833": {
    "postcode": "6992833",
    "prefecture": "島根県",
    "prefecture_kana": "シマネケン",
    "prefecture_code": 32,
    "city": "江津市",
    "city_kana": "ゴウツシ",
    "town": "波積町本郷",
    "town_kana": "ハヅミチョウホンゴウ",
    "street": null,
    "office_name": null,
    "office_name_kana": null
  },
  "2834": {
    "postcode": "6992834",
    "prefecture": "島根県",
    "prefecture_kana": "シマネケン",
    "prefecture_code": 32,
    "city": "江津市",
    "city_kana": "ゴウツシ",
    "town": "波積町南",
    "town_kana": "ハヅミチョウミナミ",
    "street": null,
    "office_name": null,
    "office_name_kana": null
  },
  "2835": {
    "postcode": "6992835",
    "prefecture": "島根県",
    "prefecture_kana": "シマネケン",
    "prefecture_code": 32,
    "city": "江津市",
    "city_kana": "ゴウツシ",
    "town": "松川町上津井",
    "town_kana": "マツカワチョウカンヅイ",
    "street": null,
    "office_name": null,
    "office_name_kana": null
  },
  "2836": {
    "postcode": "6992836",
    "prefecture": "島根県",
    "prefecture_kana": "シマネケン",
    "prefecture_code": 32,
    "city": "江津市",
    "city_kana": "ゴウツシ",
    "town": "松川町畑田",
    "town_kana": "マツカワチョウハタダ",
    "street": null,
    "office_name": null,
    "office_name_kana": null
  },
  "2837": {
    "postcode": "6992837",
    "prefecture": "島根県",
    "prefecture_kana": "シマネケン",
    "prefecture_code": 32,
    "city": "江津市",
    "city_kana": "ゴウツシ",
    "town": "松川町上河戸",
    "town_kana": "マツカワチョウカミカワド",
    "street": null,
    "office_name": null,
    "office_name_kana": null
  },
  "2841": {
    "postcode": "6992841",
    "prefecture": "島根県",
    "prefecture_kana": "シマネケン",
    "prefecture_code": 32,
    "city": "江津市",
    "city_kana": "ゴウツシ",
    "town": "後地町",
    "town_kana": "ウシロジチョウ",
    "street": null,
    "office_name": null,
    "office_name_kana": null
  },
  "2842": {
    "postcode": "6992842",
    "prefecture": "島根県",
    "prefecture_kana": "シマネケン",
    "prefecture_code": 32,
    "city": "江津市",
    "city_kana": "ゴウツシ",
    "town": "都治町",
    "town_kana": "ツチチョウ",
    "street": null,
    "office_name": null,
    "office_name_kana": null
  },
  "3161": {
    "postcode": "6993161",
    "prefecture": "島根県",
    "prefecture_kana": "シマネケン",
    "prefecture_code": 32,
    "city": "江津市",
    "city_kana": "ゴウツシ",
    "town": "波子町",
    "town_kana": "ハシチョウ",
    "street": null,
    "office_name": null,
    "office_name_kana": null
  },
  "3162": {
    "postcode": "6993162",
    "prefecture": "島根県",
    "prefecture_kana": "シマネケン",
    "prefecture_code": 32,
    "city": "江津市",
    "city_kana": "ゴウツシ",
    "town": "敬川町",
    "town_kana": "ウヤガワチョウ",
    "street": null,
    "office_name": null,
    "office_name_kana": null
  },
  "3211": {
    "postcode": "6993211",
    "prefecture": "島根県",
    "prefecture_kana": "シマネケン",
    "prefecture_code": 32,
    "city": "浜田市",
    "city_kana": "ハマダシ",
    "town": "三隅町三隅",
    "town_kana": "ミスミチョウミスミ",
    "street": null,
    "office_name": null,
    "office_name_kana": null
  },
  "3212": {
    "postcode": "6993212",
    "prefecture": "島根県",
    "prefecture_kana": "シマネケン",
    "prefecture_code": 32,
    "city": "浜田市",
    "city_kana": "ハマダシ",
    "town": "三隅町向野田",
    "town_kana": "ミスミチョウムカイノタ",
    "street": null,
    "office_name": null,
    "office_name_kana": null
  },
  "3213": {
    "postcode": "6993213",
    "prefecture": "島根県",
    "prefecture_kana": "シマネケン",
    "prefecture_code": 32,
    "city": "浜田市",
    "city_kana": "ハマダシ",
    "town": "三隅町河内",
    "town_kana": "ミスミチョウコウチ",
    "street": null,
    "office_name": null,
    "office_name_kana": null
  },
  "3214": {
    "postcode": "6993214",
    "prefecture": "島根県",
    "prefecture_kana": "シマネケン",
    "prefecture_code": 32,
    "city": "浜田市",
    "city_kana": "ハマダシ",
    "town": "三隅町矢原",
    "town_kana": "ミスミチョウヤバラ",
    "street": null,
    "office_name": null,
    "office_name_kana": null
  },
  "3215": [
    {
      "postcode": "6993215",
      "prefecture": "島根県",
      "prefecture_kana": "シマネケン",
      "prefecture_code": 32,
      "city": "浜田市",
      "city_kana": "ハマダシ",
      "town": "三隅町井川",
      "town_kana": "ミスミチョウイガワ",
      "street": null,
      "office_name": null,
      "office_name_kana": null
    },
    {
      "postcode": "6993215",
      "prefecture": "島根県",
      "prefecture_kana": "シマネケン",
      "prefecture_code": 32,
      "city": "浜田市",
      "city_kana": "ハマダシ",
      "town": "三隅町下古和",
      "town_kana": "ミスミチョウシモコワ",
      "street": null,
      "office_name": null,
      "office_name_kana": null
    }
  ],
  "3216": {
    "postcode": "6993216",
    "prefecture": "島根県",
    "prefecture_kana": "シマネケン",
    "prefecture_code": 32,
    "city": "浜田市",
    "city_kana": "ハマダシ",
    "town": "三隅町上古和",
    "town_kana": "ミスミチョウカミコワ",
    "street": null,
    "office_name": null,
    "office_name_kana": null
  },
  "3217": {
    "postcode": "6993217",
    "prefecture": "島根県",
    "prefecture_kana": "シマネケン",
    "prefecture_code": 32,
    "city": "浜田市",
    "city_kana": "ハマダシ",
    "town": "三隅町黒沢",
    "town_kana": "ミスミチョウクロサワ",
    "street": null,
    "office_name": null,
    "office_name_kana": null
  },
  "3221": {
    "postcode": "6993221",
    "prefecture": "島根県",
    "prefecture_kana": "シマネケン",
    "prefecture_code": 32,
    "city": "浜田市",
    "city_kana": "ハマダシ",
    "town": "三隅町東平原",
    "town_kana": "ミスミチョウヒガシヒラバラ",
    "street": null,
    "office_name": null,
    "office_name_kana": null
  },
  "3222": {
    "postcode": "6993222",
    "prefecture": "島根県",
    "prefecture_kana": "シマネケン",
    "prefecture_code": 32,
    "city": "浜田市",
    "city_kana": "ハマダシ",
    "town": "三隅町折居",
    "town_kana": "ミスミチョウオリイ",
    "street": null,
    "office_name": null,
    "office_name_kana": null
  },
  "3223": {
    "postcode": "6993223",
    "prefecture": "島根県",
    "prefecture_kana": "シマネケン",
    "prefecture_code": 32,
    "city": "浜田市",
    "city_kana": "ハマダシ",
    "town": "三隅町西河内",
    "town_kana": "ミスミチョウサイゴウチ",
    "street": null,
    "office_name": null,
    "office_name_kana": null
  },
  "3224": {
    "postcode": "6993224",
    "prefecture": "島根県",
    "prefecture_kana": "シマネケン",
    "prefecture_code": 32,
    "city": "浜田市",
    "city_kana": "ハマダシ",
    "town": "三隅町湊浦",
    "town_kana": "ミスミチョウミナトウラ",
    "street": null,
    "office_name": null,
    "office_name_kana": null
  },
  "3225": {
    "postcode": "6993225",
    "prefecture": "島根県",
    "prefecture_kana": "シマネケン",
    "prefecture_code": 32,
    "city": "浜田市",
    "city_kana": "ハマダシ",
    "town": "三隅町古市場",
    "town_kana": "ミスミチョウフルイチバ",
    "street": null,
    "office_name": null,
    "office_name_kana": null
  },
  "3226": {
    "postcode": "6993226",
    "prefecture": "島根県",
    "prefecture_kana": "シマネケン",
    "prefecture_code": 32,
    "city": "浜田市",
    "city_kana": "ハマダシ",
    "town": "三隅町岡見",
    "town_kana": "ミスミチョウオカミ",
    "street": null,
    "office_name": null,
    "office_name_kana": null
  },
  "3301": {
    "postcode": "6993301",
    "prefecture": "島根県",
    "prefecture_kana": "シマネケン",
    "prefecture_code": 32,
    "city": "浜田市",
    "city_kana": "ハマダシ",
    "town": "三隅町井野",
    "town_kana": "ミスミチョウイノ",
    "street": null,
    "office_name": null,
    "office_name_kana": null
  },
  "3302": {
    "postcode": "6993302",
    "prefecture": "島根県",
    "prefecture_kana": "シマネケン",
    "prefecture_code": 32,
    "city": "浜田市",
    "city_kana": "ハマダシ",
    "town": "三隅町芦谷",
    "town_kana": "ミスミチョウアシダニ",
    "street": null,
    "office_name": null,
    "office_name_kana": null
  },
  "3303": {
    "postcode": "6993303",
    "prefecture": "島根県",
    "prefecture_kana": "シマネケン",
    "prefecture_code": 32,
    "city": "浜田市",
    "city_kana": "ハマダシ",
    "town": "三隅町室谷",
    "town_kana": "ミスミチョウムロダニ",
    "street": null,
    "office_name": null,
    "office_name_kana": null
  },
  "3501": {
    "postcode": "6993501",
    "prefecture": "島根県",
    "prefecture_kana": "シマネケン",
    "prefecture_code": 32,
    "city": "益田市",
    "city_kana": "マスダシ",
    "town": "金山町",
    "town_kana": "カネヤマチョウ",
    "street": null,
    "office_name": null,
    "office_name_kana": null
  },
  "3502": {
    "postcode": "6993502",
    "prefecture": "島根県",
    "prefecture_kana": "シマネケン",
    "prefecture_code": 32,
    "city": "益田市",
    "city_kana": "マスダシ",
    "town": "木部町",
    "town_kana": "キベチョウ",
    "street": null,
    "office_name": null,
    "office_name_kana": null
  },
  "3503": {
    "postcode": "6993503",
    "prefecture": "島根県",
    "prefecture_kana": "シマネケン",
    "prefecture_code": 32,
    "city": "益田市",
    "city_kana": "マスダシ",
    "town": "下種町",
    "town_kana": "シモタネチョウ",
    "street": null,
    "office_name": null,
    "office_name_kana": null
  },
  "3504": {
    "postcode": "6993504",
    "prefecture": "島根県",
    "prefecture_kana": "シマネケン",
    "prefecture_code": 32,
    "city": "益田市",
    "city_kana": "マスダシ",
    "town": "種村町",
    "town_kana": "タネムラチョウ",
    "street": null,
    "office_name": null,
    "office_name_kana": null
  },
  "3505": {
    "postcode": "6993505",
    "prefecture": "島根県",
    "prefecture_kana": "シマネケン",
    "prefecture_code": 32,
    "city": "益田市",
    "city_kana": "マスダシ",
    "town": "土田町",
    "town_kana": "ツチダチョウ",
    "street": null,
    "office_name": null,
    "office_name_kana": null
  },
  "3506": {
    "postcode": "6993506",
    "prefecture": "島根県",
    "prefecture_kana": "シマネケン",
    "prefecture_code": 32,
    "city": "益田市",
    "city_kana": "マスダシ",
    "town": "西平原町",
    "town_kana": "ニシヒラバラチョウ",
    "street": null,
    "office_name": null,
    "office_name_kana": null
  },
  "3671": {
    "postcode": "6993671",
    "prefecture": "島根県",
    "prefecture_kana": "シマネケン",
    "prefecture_code": 32,
    "city": "益田市",
    "city_kana": "マスダシ",
    "town": "津田町",
    "town_kana": "ツダチョウ",
    "street": null,
    "office_name": null,
    "office_name_kana": null
  },
  "3672": {
    "postcode": "6993672",
    "prefecture": "島根県",
    "prefecture_kana": "シマネケン",
    "prefecture_code": 32,
    "city": "益田市",
    "city_kana": "マスダシ",
    "town": "赤雁町",
    "town_kana": "アカガリチョウ",
    "street": null,
    "office_name": null,
    "office_name_kana": null
  },
  "3673": {
    "postcode": "6993673",
    "prefecture": "島根県",
    "prefecture_kana": "シマネケン",
    "prefecture_code": 32,
    "city": "益田市",
    "city_kana": "マスダシ",
    "town": "山折町",
    "town_kana": "ヤマオリチョウ",
    "street": null,
    "office_name": null,
    "office_name_kana": null
  },
  "3674": {
    "postcode": "6993674",
    "prefecture": "島根県",
    "prefecture_kana": "シマネケン",
    "prefecture_code": 32,
    "city": "益田市",
    "city_kana": "マスダシ",
    "town": "大草町",
    "town_kana": "オオクサチョウ",
    "street": null,
    "office_name": null,
    "office_name_kana": null
  },
  "3675": {
    "postcode": "6993675",
    "prefecture": "島根県",
    "prefecture_kana": "シマネケン",
    "prefecture_code": 32,
    "city": "益田市",
    "city_kana": "マスダシ",
    "town": "乙子町",
    "town_kana": "オトコチョウ",
    "street": null,
    "office_name": null,
    "office_name_kana": null
  },
  "3676": {
    "postcode": "6993676",
    "prefecture": "島根県",
    "prefecture_kana": "シマネケン",
    "prefecture_code": 32,
    "city": "益田市",
    "city_kana": "マスダシ",
    "town": "遠田町",
    "town_kana": "トウダチョウ",
    "street": null,
    "office_name": null,
    "office_name_kana": null
  },
  "3761": {
    "postcode": "6993761",
    "prefecture": "島根県",
    "prefecture_kana": "シマネケン",
    "prefecture_code": 32,
    "city": "益田市",
    "city_kana": "マスダシ",
    "town": "飯浦町",
    "town_kana": "イイノウラチョウ",
    "street": null,
    "office_name": null,
    "office_name_kana": null
  },
  "3762": {
    "postcode": "6993762",
    "prefecture": "島根県",
    "prefecture_kana": "シマネケン",
    "prefecture_code": 32,
    "city": "益田市",
    "city_kana": "マスダシ",
    "town": "小浜町",
    "town_kana": "コハマチョウ",
    "street": null,
    "office_name": null,
    "office_name_kana": null
  },
  "3763": {
    "postcode": "6993763",
    "prefecture": "島根県",
    "prefecture_kana": "シマネケン",
    "prefecture_code": 32,
    "city": "益田市",
    "city_kana": "マスダシ",
    "town": "戸田町",
    "town_kana": "トダチョウ",
    "street": null,
    "office_name": null,
    "office_name_kana": null
  },
  "3764": {
    "postcode": "6993764",
    "prefecture": "島根県",
    "prefecture_kana": "シマネケン",
    "prefecture_code": 32,
    "city": "益田市",
    "city_kana": "マスダシ",
    "town": "喜阿弥町",
    "town_kana": "キアミチョウ",
    "street": null,
    "office_name": null,
    "office_name_kana": null
  },
  "3765": {
    "postcode": "6993765",
    "prefecture": "島根県",
    "prefecture_kana": "シマネケン",
    "prefecture_code": 32,
    "city": "益田市",
    "city_kana": "マスダシ",
    "town": "有田町",
    "town_kana": "アリタチョウ",
    "street": null,
    "office_name": null,
    "office_name_kana": null
  },
  "3766": {
    "postcode": "6993766",
    "prefecture": "島根県",
    "prefecture_kana": "シマネケン",
    "prefecture_code": 32,
    "city": "益田市",
    "city_kana": "マスダシ",
    "town": "美濃地町",
    "town_kana": "ミノジチョウ",
    "street": null,
    "office_name": null,
    "office_name_kana": null
  },
  "4111": {
    "postcode": "6994111",
    "prefecture": "島根県",
    "prefecture_kana": "シマネケン",
    "prefecture_code": 32,
    "city": "江津市",
    "city_kana": "ゴウツシ",
    "town": "桜江町谷住郷",
    "town_kana": "サクラエチョウタニジュウゴウ",
    "street": null,
    "office_name": null,
    "office_name_kana": null
  },
  "4221": {
    "postcode": "6994221",
    "prefecture": "島根県",
    "prefecture_kana": "シマネケン",
    "prefecture_code": 32,
    "city": "江津市",
    "city_kana": "ゴウツシ",
    "town": "桜江町市山",
    "town_kana": "サクラエチョウイチヤマ",
    "street": null,
    "office_name": null,
    "office_name_kana": null
  },
  "4222": {
    "postcode": "6994222",
    "prefecture": "島根県",
    "prefecture_kana": "シマネケン",
    "prefecture_code": 32,
    "city": "江津市",
    "city_kana": "ゴウツシ",
    "town": "桜江町今田",
    "town_kana": "サクラエチョウイマダ",
    "street": null,
    "office_name": null,
    "office_name_kana": null
  },
  "4223": {
    "postcode": "6994223",
    "prefecture": "島根県",
    "prefecture_kana": "シマネケン",
    "prefecture_code": 32,
    "city": "江津市",
    "city_kana": "ゴウツシ",
    "town": "桜江町後山",
    "town_kana": "サクラエチョウウシロヤマ",
    "street": null,
    "office_name": null,
    "office_name_kana": null
  },
  "4224": {
    "postcode": "6994224",
    "prefecture": "島根県",
    "prefecture_kana": "シマネケン",
    "prefecture_code": 32,
    "city": "江津市",
    "city_kana": "ゴウツシ",
    "town": "桜江町江尾",
    "town_kana": "サクラエチョウエノオ",
    "street": null,
    "office_name": null,
    "office_name_kana": null
  },
  "4225": {
    "postcode": "6994225",
    "prefecture": "島根県",
    "prefecture_kana": "シマネケン",
    "prefecture_code": 32,
    "city": "江津市",
    "city_kana": "ゴウツシ",
    "town": "桜江町小田",
    "town_kana": "サクラエチョウオダ",
    "street": null,
    "office_name": null,
    "office_name_kana": null
  },
  "4226": {
    "postcode": "6994226",
    "prefecture": "島根県",
    "prefecture_kana": "シマネケン",
    "prefecture_code": 32,
    "city": "江津市",
    "city_kana": "ゴウツシ",
    "town": "桜江町川戸",
    "town_kana": "サクラエチョウカワド",
    "street": null,
    "office_name": null,
    "office_name_kana": null
  },
  "4292": {
    "postcode": "6994292",
    "prefecture": "島根県",
    "prefecture_kana": "シマネケン",
    "prefecture_code": 32,
    "city": "江津市",
    "city_kana": "ゴウツシ",
    "town": "桜江町川戸",
    "town_kana": "サクラエチョウカワド",
    "street": "１１−１",
    "office_name": "江津市　桜江支所",
    "office_name_kana": "ゴウツシ サクラエシシヨ"
  },
  "4298": {
    "postcode": "6994298",
    "prefecture": "島根県",
    "prefecture_kana": "シマネケン",
    "prefecture_code": 32,
    "city": "江津市",
    "city_kana": "ゴウツシ",
    "town": "桜江町川戸",
    "town_kana": "サクラエチョウカワド",
    "street": "４７２−１",
    "office_name": "今井産業　株式会社",
    "office_name_kana": "イマイサンギヨウ カブシキガイシヤ"
  },
  "4311": {
    "postcode": "6994311",
    "prefecture": "島根県",
    "prefecture_kana": "シマネケン",
    "prefecture_code": 32,
    "city": "邑智郡邑南町",
    "city_kana": "オオチグンオオナンチョウ",
    "town": "日貫",
    "town_kana": "ヒヌイ",
    "street": null,
    "office_name": null,
    "office_name_kana": null
  },
  "4431": {
    "postcode": "6994431",
    "prefecture": "島根県",
    "prefecture_kana": "シマネケン",
    "prefecture_code": 32,
    "city": "江津市",
    "city_kana": "ゴウツシ",
    "town": "桜江町長谷",
    "town_kana": "サクラエチョウナガタニ",
    "street": null,
    "office_name": null,
    "office_name_kana": null
  },
  "4432": {
    "postcode": "6994432",
    "prefecture": "島根県",
    "prefecture_kana": "シマネケン",
    "prefecture_code": 32,
    "city": "江津市",
    "city_kana": "ゴウツシ",
    "town": "桜江町八戸",
    "town_kana": "サクラエチョウヤト",
    "street": null,
    "office_name": null,
    "office_name_kana": null
  },
  "4501": {
    "postcode": "6994501",
    "prefecture": "島根県",
    "prefecture_kana": "シマネケン",
    "prefecture_code": 32,
    "city": "江津市",
    "city_kana": "ゴウツシ",
    "town": "桜江町鹿賀",
    "town_kana": "サクラエチョウシカガ",
    "street": null,
    "office_name": null,
    "office_name_kana": null
  },
  "4502": {
    "postcode": "6994502",
    "prefecture": "島根県",
    "prefecture_kana": "シマネケン",
    "prefecture_code": 32,
    "city": "江津市",
    "city_kana": "ゴウツシ",
    "town": "桜江町川越",
    "town_kana": "サクラエチョウカワゴエ",
    "street": null,
    "office_name": null,
    "office_name_kana": null
  },
  "4503": {
    "postcode": "6994503",
    "prefecture": "島根県",
    "prefecture_kana": "シマネケン",
    "prefecture_code": 32,
    "city": "江津市",
    "city_kana": "ゴウツシ",
    "town": "桜江町田津",
    "town_kana": "サクラエチョウタヅ",
    "street": null,
    "office_name": null,
    "office_name_kana": null
  },
  "4504": {
    "postcode": "6994504",
    "prefecture": "島根県",
    "prefecture_kana": "シマネケン",
    "prefecture_code": 32,
    "city": "江津市",
    "city_kana": "ゴウツシ",
    "town": "桜江町大貫",
    "town_kana": "サクラエチョウオオヌキ",
    "street": null,
    "office_name": null,
    "office_name_kana": null
  },
  "4505": {
    "postcode": "6994505",
    "prefecture": "島根県",
    "prefecture_kana": "シマネケン",
    "prefecture_code": 32,
    "city": "江津市",
    "city_kana": "ゴウツシ",
    "town": "桜江町坂本",
    "town_kana": "サクラエチョウサカモト",
    "street": null,
    "office_name": null,
    "office_name_kana": null
  },
  "4600": {
    "postcode": "6994600",
    "prefecture": "島根県",
    "prefecture_kana": "シマネケン",
    "prefecture_code": 32,
    "city": "邑智郡美郷町",
    "city_kana": "オオチグンミサトチョウ",
    "town": "",
    "town_kana": "",
    "street": null,
    "office_name": null,
    "office_name_kana": null
  },
  "4605": {
    "postcode": "6994605",
    "prefecture": "島根県",
    "prefecture_kana": "シマネケン",
    "prefecture_code": 32,
    "city": "邑智郡美郷町",
    "city_kana": "オオチグンミサトチョウ",
    "town": "高山",
    "town_kana": "タカヤマ",
    "street": null,
    "office_name": null,
    "office_name_kana": null
  },
  "4621": {
    "postcode": "6994621",
    "prefecture": "島根県",
    "prefecture_kana": "シマネケン",
    "prefecture_code": 32,
    "city": "邑智郡美郷町",
    "city_kana": "オオチグンミサトチョウ",
    "town": "粕渕",
    "town_kana": "カスブチ",
    "street": null,
    "office_name": null,
    "office_name_kana": null
  },
  "4622": {
    "postcode": "6994622",
    "prefecture": "島根県",
    "prefecture_kana": "シマネケン",
    "prefecture_code": 32,
    "city": "邑智郡美郷町",
    "city_kana": "オオチグンミサトチョウ",
    "town": "久保",
    "town_kana": "クボ",
    "street": null,
    "office_name": null,
    "office_name_kana": null
  },
  "4623": {
    "postcode": "6994623",
    "prefecture": "島根県",
    "prefecture_kana": "シマネケン",
    "prefecture_code": 32,
    "city": "邑智郡美郷町",
    "city_kana": "オオチグンミサトチョウ",
    "town": "野井",
    "town_kana": "ノイ",
    "street": null,
    "office_name": null,
    "office_name_kana": null
  },
  "4624": {
    "postcode": "6994624",
    "prefecture": "島根県",
    "prefecture_kana": "シマネケン",
    "prefecture_code": 32,
    "city": "邑智郡美郷町",
    "city_kana": "オオチグンミサトチョウ",
    "town": "明塚",
    "town_kana": "アカツカ",
    "street": null,
    "office_name": null,
    "office_name_kana": null
  },
  "4625": {
    "postcode": "6994625",
    "prefecture": "島根県",
    "prefecture_kana": "シマネケン",
    "prefecture_code": 32,
    "city": "邑智郡美郷町",
    "city_kana": "オオチグンミサトチョウ",
    "town": "簗瀬",
    "town_kana": "ヤナゼ",
    "street": null,
    "office_name": null,
    "office_name_kana": null
  },
  "4626": {
    "postcode": "6994626",
    "prefecture": "島根県",
    "prefecture_kana": "シマネケン",
    "prefecture_code": 32,
    "city": "邑智郡美郷町",
    "city_kana": "オオチグンミサトチョウ",
    "town": "乙原",
    "town_kana": "オンバラ",
    "street": null,
    "office_name": null,
    "office_name_kana": null
  },
  "4627": {
    "postcode": "6994627",
    "prefecture": "島根県",
    "prefecture_kana": "シマネケン",
    "prefecture_code": 32,
    "city": "邑智郡美郷町",
    "city_kana": "オオチグンミサトチョウ",
    "town": "吾郷",
    "town_kana": "アゴウ",
    "street": null,
    "office_name": null,
    "office_name_kana": null
  },
  "4631": {
    "postcode": "6994631",
    "prefecture": "島根県",
    "prefecture_kana": "シマネケン",
    "prefecture_code": 32,
    "city": "邑智郡美郷町",
    "city_kana": "オオチグンミサトチョウ",
    "town": "奥山",
    "town_kana": "オクヤマ",
    "street": null,
    "office_name": null,
    "office_name_kana": null
  },
  "4632": {
    "postcode": "6994632",
    "prefecture": "島根県",
    "prefecture_kana": "シマネケン",
    "prefecture_code": 32,
    "city": "邑智郡美郷町",
    "city_kana": "オオチグンミサトチョウ",
    "town": "高畑",
    "town_kana": "タカハタ",
    "street": null,
    "office_name": null,
    "office_name_kana": null
  },
  "4633": {
    "postcode": "6994633",
    "prefecture": "島根県",
    "prefecture_kana": "シマネケン",
    "prefecture_code": 32,
    "city": "邑智郡美郷町",
    "city_kana": "オオチグンミサトチョウ",
    "town": "湯抱",
    "town_kana": "ユガカイ",
    "street": null,
    "office_name": null,
    "office_name_kana": null
  },
  "4692": {
    "postcode": "6994692",
    "prefecture": "島根県",
    "prefecture_kana": "シマネケン",
    "prefecture_code": 32,
    "city": "邑智郡美郷町",
    "city_kana": "オオチグンミサトチョウ",
    "town": "大字粕渕",
    "town_kana": null,
    "street": "１６８",
    "office_name": "美郷町役場",
    "office_name_kana": "ミサトチヨウヤクバ"
  },
  "4701": {
    "postcode": "6994701",
    "prefecture": "島根県",
    "prefecture_kana": "シマネケン",
    "prefecture_code": 32,
    "city": "邑智郡美郷町",
    "city_kana": "オオチグンミサトチョウ",
    "town": "浜原",
    "town_kana": "ハマハラ",
    "street": null,
    "office_name": null,
    "office_name_kana": null
  },
  "4702": {
    "postcode": "6994702",
    "prefecture": "島根県",
    "prefecture_kana": "シマネケン",
    "prefecture_code": 32,
    "city": "邑智郡美郷町",
    "city_kana": "オオチグンミサトチョウ",
    "town": "上川戸",
    "town_kana": "カミカワド",
    "street": null,
    "office_name": null,
    "office_name_kana": null
  },
  "4703": {
    "postcode": "6994703",
    "prefecture": "島根県",
    "prefecture_kana": "シマネケン",
    "prefecture_code": 32,
    "city": "邑智郡美郷町",
    "city_kana": "オオチグンミサトチョウ",
    "town": "熊見",
    "town_kana": "クマミ",
    "street": null,
    "office_name": null,
    "office_name_kana": null
  },
  "4704": {
    "postcode": "6994704",
    "prefecture": "島根県",
    "prefecture_kana": "シマネケン",
    "prefecture_code": 32,
    "city": "邑智郡美郷町",
    "city_kana": "オオチグンミサトチョウ",
    "town": "信喜",
    "town_kana": "シキ",
    "street": null,
    "office_name": null,
    "office_name_kana": null
  },
  "4706": {
    "postcode": "6994706",
    "prefecture": "島根県",
    "prefecture_kana": "シマネケン",
    "prefecture_code": 32,
    "city": "邑智郡美郷町",
    "city_kana": "オオチグンミサトチョウ",
    "town": "滝原",
    "town_kana": "タキバラ",
    "street": null,
    "office_name": null,
    "office_name_kana": null
  },
  "4707": {
    "postcode": "6994707",
    "prefecture": "島根県",
    "prefecture_kana": "シマネケン",
    "prefecture_code": 32,
    "city": "邑智郡美郷町",
    "city_kana": "オオチグンミサトチョウ",
    "town": "亀村",
    "town_kana": "カメムラ",
    "street": null,
    "office_name": null,
    "office_name_kana": null
  },
  "4711": {
    "postcode": "6994711",
    "prefecture": "島根県",
    "prefecture_kana": "シマネケン",
    "prefecture_code": 32,
    "city": "邑智郡美郷町",
    "city_kana": "オオチグンミサトチョウ",
    "town": "千原",
    "town_kana": "チハラ",
    "street": null,
    "office_name": null,
    "office_name_kana": null
  },
  "4712": {
    "postcode": "6994712",
    "prefecture": "島根県",
    "prefecture_kana": "シマネケン",
    "prefecture_code": 32,
    "city": "邑智郡美郷町",
    "city_kana": "オオチグンミサトチョウ",
    "town": "九日市",
    "town_kana": "ココノカイチ",
    "street": null,
    "office_name": null,
    "office_name_kana": null
  },
  "4713": {
    "postcode": "6994713",
    "prefecture": "島根県",
    "prefecture_kana": "シマネケン",
    "prefecture_code": 32,
    "city": "邑智郡美郷町",
    "city_kana": "オオチグンミサトチョウ",
    "town": "酒谷",
    "town_kana": "サケダニ",
    "street": null,
    "office_name": null,
    "office_name_kana": null
  },
  "4714": {
    "postcode": "6994714",
    "prefecture": "島根県",
    "prefecture_kana": "シマネケン",
    "prefecture_code": 32,
    "city": "邑智郡美郷町",
    "city_kana": "オオチグンミサトチョウ",
    "town": "片山",
    "town_kana": "カタヤマ",
    "street": null,
    "office_name": null,
    "office_name_kana": null
  },
  "4715": {
    "postcode": "6994715",
    "prefecture": "島根県",
    "prefecture_kana": "シマネケン",
    "prefecture_code": 32,
    "city": "邑智郡美郷町",
    "city_kana": "オオチグンミサトチョウ",
    "town": "石原",
    "town_kana": "イシハラ",
    "street": null,
    "office_name": null,
    "office_name_kana": null
  },
  "5121": {
    "postcode": "6995121",
    "prefecture": "島根県",
    "prefecture_kana": "シマネケン",
    "prefecture_code": 32,
    "city": "益田市",
    "city_kana": "マスダシ",
    "town": "左ケ山町",
    "town_kana": "ヒダリガヤマチョウ",
    "street": null,
    "office_name": null,
    "office_name_kana": null
  },
  "5122": {
    "postcode": "6995122",
    "prefecture": "島根県",
    "prefecture_kana": "シマネケン",
    "prefecture_code": 32,
    "city": "益田市",
    "city_kana": "マスダシ",
    "town": "本俣賀町",
    "town_kana": "ホンマタガチョウ",
    "street": null,
    "office_name": null,
    "office_name_kana": null
  },
  "5123": {
    "postcode": "6995123",
    "prefecture": "島根県",
    "prefecture_kana": "シマネケン",
    "prefecture_code": 32,
    "city": "益田市",
    "city_kana": "マスダシ",
    "town": "猪木谷町",
    "town_kana": "イノキダニチョウ",
    "street": null,
    "office_name": null,
    "office_name_kana": null
  },
  "5124": {
    "postcode": "6995124",
    "prefecture": "島根県",
    "prefecture_kana": "シマネケン",
    "prefecture_code": 32,
    "city": "益田市",
    "city_kana": "マスダシ",
    "town": "薄原町",
    "town_kana": "ススキバラチョウ",
    "street": null,
    "office_name": null,
    "office_name_kana": null
  },
  "5125": {
    "postcode": "6995125",
    "prefecture": "島根県",
    "prefecture_kana": "シマネケン",
    "prefecture_code": 32,
    "city": "益田市",
    "city_kana": "マスダシ",
    "town": "白岩町",
    "town_kana": "シライワチョウ",
    "street": null,
    "office_name": null,
    "office_name_kana": null
  },
  "5126": {
    "postcode": "6995126",
    "prefecture": "島根県",
    "prefecture_kana": "シマネケン",
    "prefecture_code": 32,
    "city": "益田市",
    "city_kana": "マスダシ",
    "town": "隅村町",
    "town_kana": "スミムラチョウ",
    "street": null,
    "office_name": null,
    "office_name_kana": null
  },
  "5127": {
    "postcode": "6995127",
    "prefecture": "島根県",
    "prefecture_kana": "シマネケン",
    "prefecture_code": 32,
    "city": "益田市",
    "city_kana": "マスダシ",
    "town": "梅月町",
    "town_kana": "ウメツキチョウ",
    "street": null,
    "office_name": null,
    "office_name_kana": null
  },
  "5131": {
    "postcode": "6995131",
    "prefecture": "島根県",
    "prefecture_kana": "シマネケン",
    "prefecture_code": 32,
    "city": "益田市",
    "city_kana": "マスダシ",
    "town": "安富町",
    "town_kana": "ヤスドミチョウ",
    "street": null,
    "office_name": null,
    "office_name_kana": null
  },
  "5132": {
    "postcode": "6995132",
    "prefecture": "島根県",
    "prefecture_kana": "シマネケン",
    "prefecture_code": 32,
    "city": "益田市",
    "city_kana": "マスダシ",
    "town": "横田町",
    "town_kana": "ヨコタチョウ",
    "street": null,
    "office_name": null,
    "office_name_kana": null
  },
  "5133": {
    "postcode": "6995133",
    "prefecture": "島根県",
    "prefecture_kana": "シマネケン",
    "prefecture_code": 32,
    "city": "益田市",
    "city_kana": "マスダシ",
    "town": "神田町",
    "town_kana": "カンダチョウ",
    "street": null,
    "office_name": null,
    "office_name_kana": null
  },
  "5134": {
    "postcode": "6995134",
    "prefecture": "島根県",
    "prefecture_kana": "シマネケン",
    "prefecture_code": 32,
    "city": "益田市",
    "city_kana": "マスダシ",
    "town": "向横田町",
    "town_kana": "ムカイヨコタチョウ",
    "street": null,
    "office_name": null,
    "office_name_kana": null
  },
  "5201": {
    "postcode": "6995201",
    "prefecture": "島根県",
    "prefecture_kana": "シマネケン",
    "prefecture_code": 32,
    "city": "鹿足郡津和野町",
    "city_kana": "カノアシグンツワノチョウ",
    "town": "商人",
    "town_kana": "アキンド",
    "street": null,
    "office_name": null,
    "office_name_kana": null
  },
  "5202": {
    "postcode": "6995202",
    "prefecture": "島根県",
    "prefecture_kana": "シマネケン",
    "prefecture_code": 32,
    "city": "鹿足郡津和野町",
    "city_kana": "カノアシグンツワノチョウ",
    "town": "左鐙",
    "town_kana": "サブミ",
    "street": null,
    "office_name": null,
    "office_name_kana": null
  },
  "5203": {
    "postcode": "6995203",
    "prefecture": "島根県",
    "prefecture_kana": "シマネケン",
    "prefecture_code": 32,
    "city": "鹿足郡津和野町",
    "city_kana": "カノアシグンツワノチョウ",
    "town": "相撲ケ原",
    "town_kana": "スモウガハラ",
    "street": null,
    "office_name": null,
    "office_name_kana": null
  },
  "5204": {
    "postcode": "6995204",
    "prefecture": "島根県",
    "prefecture_kana": "シマネケン",
    "prefecture_code": 32,
    "city": "鹿足郡津和野町",
    "city_kana": "カノアシグンツワノチョウ",
    "town": "須川",
    "town_kana": "スガワ",
    "street": null,
    "office_name": null,
    "office_name_kana": null
  },
  "5205": {
    "postcode": "6995205",
    "prefecture": "島根県",
    "prefecture_kana": "シマネケン",
    "prefecture_code": 32,
    "city": "鹿足郡津和野町",
    "city_kana": "カノアシグンツワノチョウ",
    "town": "瀧谷",
    "town_kana": "タキダニ",
    "street": null,
    "office_name": null,
    "office_name_kana": null
  },
  "5206": {
    "postcode": "6995206",
    "prefecture": "島根県",
    "prefecture_kana": "シマネケン",
    "prefecture_code": 32,
    "city": "鹿足郡津和野町",
    "city_kana": "カノアシグンツワノチョウ",
    "town": "瀧元",
    "town_kana": "タキモト",
    "street": null,
    "office_name": null,
    "office_name_kana": null
  },
  "5207": {
    "postcode": "6995207",
    "prefecture": "島根県",
    "prefecture_kana": "シマネケン",
    "prefecture_code": 32,
    "city": "鹿足郡津和野町",
    "city_kana": "カノアシグンツワノチョウ",
    "town": "枕瀬",
    "town_kana": "マクラセ",
    "street": null,
    "office_name": null,
    "office_name_kana": null
  },
  "5211": {
    "postcode": "6995211",
    "prefecture": "島根県",
    "prefecture_kana": "シマネケン",
    "prefecture_code": 32,
    "city": "鹿足郡津和野町",
    "city_kana": "カノアシグンツワノチョウ",
    "town": "青原",
    "town_kana": "アオハラ",
    "street": null,
    "office_name": null,
    "office_name_kana": null
  },
  "5212": {
    "postcode": "6995212",
    "prefecture": "島根県",
    "prefecture_kana": "シマネケン",
    "prefecture_code": 32,
    "city": "鹿足郡津和野町",
    "city_kana": "カノアシグンツワノチョウ",
    "town": "河村",
    "town_kana": "カワムラ",
    "street": null,
    "office_name": null,
    "office_name_kana": null
  },
  "5213": {
    "postcode": "6995213",
    "prefecture": "島根県",
    "prefecture_kana": "シマネケン",
    "prefecture_code": 32,
    "city": "鹿足郡津和野町",
    "city_kana": "カノアシグンツワノチョウ",
    "town": "添谷",
    "town_kana": "ソエダニ",
    "street": null,
    "office_name": null,
    "office_name_kana": null
  },
  "5214": {
    "postcode": "6995214",
    "prefecture": "島根県",
    "prefecture_kana": "シマネケン",
    "prefecture_code": 32,
    "city": "鹿足郡津和野町",
    "city_kana": "カノアシグンツワノチョウ",
    "town": "溪村",
    "town_kana": "タニムラ",
    "street": null,
    "office_name": null,
    "office_name_kana": null
  },
  "5215": {
    "postcode": "6995215",
    "prefecture": "島根県",
    "prefecture_kana": "シマネケン",
    "prefecture_code": 32,
    "city": "鹿足郡津和野町",
    "city_kana": "カノアシグンツワノチョウ",
    "town": "冨田",
    "town_kana": "トミタ",
    "street": null,
    "office_name": null,
    "office_name_kana": null
  },
  "5216": {
    "postcode": "6995216",
    "prefecture": "島根県",
    "prefecture_kana": "シマネケン",
    "prefecture_code": 32,
    "city": "鹿足郡津和野町",
    "city_kana": "カノアシグンツワノチョウ",
    "town": "池村",
    "town_kana": "イケムラ",
    "street": null,
    "office_name": null,
    "office_name_kana": null
  },
  "5217": {
    "postcode": "6995217",
    "prefecture": "島根県",
    "prefecture_kana": "シマネケン",
    "prefecture_code": 32,
    "city": "鹿足郡津和野町",
    "city_kana": "カノアシグンツワノチョウ",
    "town": "柳村",
    "town_kana": "ヤナギムラ",
    "street": null,
    "office_name": null,
    "office_name_kana": null
  },
  "5221": {
    "postcode": "6995221",
    "prefecture": "島根県",
    "prefecture_kana": "シマネケン",
    "prefecture_code": 32,
    "city": "鹿足郡津和野町",
    "city_kana": "カノアシグンツワノチョウ",
    "town": "日原",
    "town_kana": "ニチハラ",
    "street": null,
    "office_name": null,
    "office_name_kana": null
  },
  "5292": {
    "postcode": "6995292",
    "prefecture": "島根県",
    "prefecture_kana": "シマネケン",
    "prefecture_code": 32,
    "city": "鹿足郡津和野町",
    "city_kana": "カノアシグンツワノチョウ",
    "town": "枕瀬",
    "town_kana": "マクラセ",
    "street": "２１８−１８",
    "office_name": "津和野町役場",
    "office_name_kana": "ツワノチヨウヤクバ"
  },
  "5301": {
    "postcode": "6995301",
    "prefecture": "島根県",
    "prefecture_kana": "シマネケン",
    "prefecture_code": 32,
    "city": "鹿足郡吉賀町",
    "city_kana": "カノアシグンヨシカチョウ",
    "town": "柿木",
    "town_kana": "カキノキ",
    "street": null,
    "office_name": null,
    "office_name_kana": null
  },
  "5302": {
    "postcode": "6995302",
    "prefecture": "島根県",
    "prefecture_kana": "シマネケン",
    "prefecture_code": 32,
    "city": "鹿足郡吉賀町",
    "city_kana": "カノアシグンヨシカチョウ",
    "town": "福川",
    "town_kana": "フクガワ",
    "street": null,
    "office_name": null,
    "office_name_kana": null
  },
  "5303": {
    "postcode": "6995303",
    "prefecture": "島根県",
    "prefecture_kana": "シマネケン",
    "prefecture_code": 32,
    "city": "鹿足郡吉賀町",
    "city_kana": "カノアシグンヨシカチョウ",
    "town": "椛谷",
    "town_kana": "カバタニ",
    "street": null,
    "office_name": null,
    "office_name_kana": null
  },
  "5304": {
    "postcode": "6995304",
    "prefecture": "島根県",
    "prefecture_kana": "シマネケン",
    "prefecture_code": 32,
    "city": "鹿足郡吉賀町",
    "city_kana": "カノアシグンヨシカチョウ",
    "town": "白谷",
    "town_kana": "シラタニ",
    "street": null,
    "office_name": null,
    "office_name_kana": null
  },
  "5305": {
    "postcode": "6995305",
    "prefecture": "島根県",
    "prefecture_kana": "シマネケン",
    "prefecture_code": 32,
    "city": "鹿足郡吉賀町",
    "city_kana": "カノアシグンヨシカチョウ",
    "town": "下須",
    "town_kana": "シモス",
    "street": null,
    "office_name": null,
    "office_name_kana": null
  },
  "5306": {
    "postcode": "6995306",
    "prefecture": "島根県",
    "prefecture_kana": "シマネケン",
    "prefecture_code": 32,
    "city": "鹿足郡吉賀町",
    "city_kana": "カノアシグンヨシカチョウ",
    "town": "大野原",
    "town_kana": "オオノバラ",
    "street": null,
    "office_name": null,
    "office_name_kana": null
  },
  "5307": {
    "postcode": "6995307",
    "prefecture": "島根県",
    "prefecture_kana": "シマネケン",
    "prefecture_code": 32,
    "city": "鹿足郡吉賀町",
    "city_kana": "カノアシグンヨシカチョウ",
    "town": "木部谷",
    "town_kana": "キベダニ",
    "street": null,
    "office_name": null,
    "office_name_kana": null
  },
  "5500": {
    "postcode": "6995500",
    "prefecture": "島根県",
    "prefecture_kana": "シマネケン",
    "prefecture_code": 32,
    "city": "鹿足郡吉賀町",
    "city_kana": "カノアシグンヨシカチョウ",
    "town": "",
    "town_kana": "",
    "street": null,
    "office_name": null,
    "office_name_kana": null
  },
  "5501": {
    "postcode": "6995501",
    "prefecture": "島根県",
    "prefecture_kana": "シマネケン",
    "prefecture_code": 32,
    "city": "鹿足郡吉賀町",
    "city_kana": "カノアシグンヨシカチョウ",
    "town": "上高尻",
    "town_kana": "カミタカジリ",
    "street": null,
    "office_name": null,
    "office_name_kana": null
  },
  "5502": {
    "postcode": "6995502",
    "prefecture": "島根県",
    "prefecture_kana": "シマネケン",
    "prefecture_code": 32,
    "city": "鹿足郡吉賀町",
    "city_kana": "カノアシグンヨシカチョウ",
    "town": "田野原",
    "town_kana": "タノハラ",
    "street": null,
    "office_name": null,
    "office_name_kana": null
  },
  "5503": {
    "postcode": "6995503",
    "prefecture": "島根県",
    "prefecture_kana": "シマネケン",
    "prefecture_code": 32,
    "city": "鹿足郡吉賀町",
    "city_kana": "カノアシグンヨシカチョウ",
    "town": "樋口",
    "town_kana": "ヒグチ",
    "street": null,
    "office_name": null,
    "office_name_kana": null
  },
  "5504": {
    "postcode": "6995504",
    "prefecture": "島根県",
    "prefecture_kana": "シマネケン",
    "prefecture_code": 32,
    "city": "鹿足郡吉賀町",
    "city_kana": "カノアシグンヨシカチョウ",
    "town": "蔵木",
    "town_kana": "クラギ",
    "street": null,
    "office_name": null,
    "office_name_kana": null
  },
  "5505": {
    "postcode": "6995505",
    "prefecture": "島根県",
    "prefecture_kana": "シマネケン",
    "prefecture_code": 32,
    "city": "鹿足郡吉賀町",
    "city_kana": "カノアシグンヨシカチョウ",
    "town": "九郎原",
    "town_kana": "クロウバラ",
    "street": null,
    "office_name": null,
    "office_name_kana": null
  },
  "5506": {
    "postcode": "6995506",
    "prefecture": "島根県",
    "prefecture_kana": "シマネケン",
    "prefecture_code": 32,
    "city": "鹿足郡吉賀町",
    "city_kana": "カノアシグンヨシカチョウ",
    "town": "有飯",
    "town_kana": "アリイ",
    "street": null,
    "office_name": null,
    "office_name_kana": null
  },
  "5507": {
    "postcode": "6995507",
    "prefecture": "島根県",
    "prefecture_kana": "シマネケン",
    "prefecture_code": 32,
    "city": "鹿足郡吉賀町",
    "city_kana": "カノアシグンヨシカチョウ",
    "town": "下高尻",
    "town_kana": "シモタカジリ",
    "street": null,
    "office_name": null,
    "office_name_kana": null
  },
  "5511": {
    "postcode": "6995511",
    "prefecture": "島根県",
    "prefecture_kana": "シマネケン",
    "prefecture_code": 32,
    "city": "鹿足郡吉賀町",
    "city_kana": "カノアシグンヨシカチョウ",
    "town": "立戸",
    "town_kana": "タチド",
    "street": null,
    "office_name": null,
    "office_name_kana": null
  },
  "5512": {
    "postcode": "6995512",
    "prefecture": "島根県",
    "prefecture_kana": "シマネケン",
    "prefecture_code": 32,
    "city": "鹿足郡吉賀町",
    "city_kana": "カノアシグンヨシカチョウ",
    "town": "広石",
    "town_kana": "ヒロイシ",
    "street": null,
    "office_name": null,
    "office_name_kana": null
  },
  "5513": {
    "postcode": "6995513",
    "prefecture": "島根県",
    "prefecture_kana": "シマネケン",
    "prefecture_code": 32,
    "city": "鹿足郡吉賀町",
    "city_kana": "カノアシグンヨシカチョウ",
    "town": "六日市",
    "town_kana": "ムイカイチ",
    "street": null,
    "office_name": null,
    "office_name_kana": null
  },
  "5514": {
    "postcode": "6995514",
    "prefecture": "島根県",
    "prefecture_kana": "シマネケン",
    "prefecture_code": 32,
    "city": "鹿足郡吉賀町",
    "city_kana": "カノアシグンヨシカチョウ",
    "town": "立河内",
    "town_kana": "タチゴウチ",
    "street": null,
    "office_name": null,
    "office_name_kana": null
  },
  "5515": {
    "postcode": "6995515",
    "prefecture": "島根県",
    "prefecture_kana": "シマネケン",
    "prefecture_code": 32,
    "city": "鹿足郡吉賀町",
    "city_kana": "カノアシグンヨシカチョウ",
    "town": "幸地",
    "town_kana": "コウジ",
    "street": null,
    "office_name": null,
    "office_name_kana": null
  },
  "5516": {
    "postcode": "6995516",
    "prefecture": "島根県",
    "prefecture_kana": "シマネケン",
    "prefecture_code": 32,
    "city": "鹿足郡吉賀町",
    "city_kana": "カノアシグンヨシカチョウ",
    "town": "沢田",
    "town_kana": "サワダ",
    "street": null,
    "office_name": null,
    "office_name_kana": null
  },
  "5517": {
    "postcode": "6995517",
    "prefecture": "島根県",
    "prefecture_kana": "シマネケン",
    "prefecture_code": 32,
    "city": "鹿足郡吉賀町",
    "city_kana": "カノアシグンヨシカチョウ",
    "town": "注連川",
    "town_kana": "シメガワ",
    "street": null,
    "office_name": null,
    "office_name_kana": null
  },
  "5521": {
    "postcode": "6995521",
    "prefecture": "島根県",
    "prefecture_kana": "シマネケン",
    "prefecture_code": 32,
    "city": "鹿足郡吉賀町",
    "city_kana": "カノアシグンヨシカチョウ",
    "town": "真田",
    "town_kana": "サナダ",
    "street": null,
    "office_name": null,
    "office_name_kana": null
  },
  "5522": {
    "postcode": "6995522",
    "prefecture": "島根県",
    "prefecture_kana": "シマネケン",
    "prefecture_code": 32,
    "city": "鹿足郡吉賀町",
    "city_kana": "カノアシグンヨシカチョウ",
    "town": "七日市",
    "town_kana": "ナヌカイチ",
    "street": null,
    "office_name": null,
    "office_name_kana": null
  },
  "5523": {
    "postcode": "6995523",
    "prefecture": "島根県",
    "prefecture_kana": "シマネケン",
    "prefecture_code": 32,
    "city": "鹿足郡吉賀町",
    "city_kana": "カノアシグンヨシカチョウ",
    "town": "朝倉",
    "town_kana": "アサクラ",
    "street": null,
    "office_name": null,
    "office_name_kana": null
  },
  "5524": {
    "postcode": "6995524",
    "prefecture": "島根県",
    "prefecture_kana": "シマネケン",
    "prefecture_code": 32,
    "city": "鹿足郡吉賀町",
    "city_kana": "カノアシグンヨシカチョウ",
    "town": "蓼野",
    "town_kana": "タデノ",
    "street": null,
    "office_name": null,
    "office_name_kana": null
  },
  "5525": {
    "postcode": "6995525",
    "prefecture": "島根県",
    "prefecture_kana": "シマネケン",
    "prefecture_code": 32,
    "city": "鹿足郡吉賀町",
    "city_kana": "カノアシグンヨシカチョウ",
    "town": "抜月",
    "town_kana": "ヌクツキ",
    "street": null,
    "office_name": null,
    "office_name_kana": null
  },
  "5600": {
    "postcode": "6995600",
    "prefecture": "島根県",
    "prefecture_kana": "シマネケン",
    "prefecture_code": 32,
    "city": "鹿足郡津和野町",
    "city_kana": "カノアシグンツワノチョウ",
    "town": "",
    "town_kana": "",
    "street": null,
    "office_name": null,
    "office_name_kana": null
  },
  "5601": {
    "postcode": "6995601",
    "prefecture": "島根県",
    "prefecture_kana": "シマネケン",
    "prefecture_code": 32,
    "city": "鹿足郡津和野町",
    "city_kana": "カノアシグンツワノチョウ",
    "town": "商人",
    "town_kana": "アキンド",
    "street": null,
    "office_name": null,
    "office_name_kana": null
  },
  "5602": {
    "postcode": "6995602",
    "prefecture": "島根県",
    "prefecture_kana": "シマネケン",
    "prefecture_code": 32,
    "city": "鹿足郡津和野町",
    "city_kana": "カノアシグンツワノチョウ",
    "town": "直地",
    "town_kana": "タダチ",
    "street": null,
    "office_name": null,
    "office_name_kana": null
  },
  "5603": {
    "postcode": "6995603",
    "prefecture": "島根県",
    "prefecture_kana": "シマネケン",
    "prefecture_code": 32,
    "city": "鹿足郡津和野町",
    "city_kana": "カノアシグンツワノチョウ",
    "town": "笹山",
    "town_kana": "ササヤマ",
    "street": null,
    "office_name": null,
    "office_name_kana": null
  },
  "5604": {
    "postcode": "6995604",
    "prefecture": "島根県",
    "prefecture_kana": "シマネケン",
    "prefecture_code": 32,
    "city": "鹿足郡津和野町",
    "city_kana": "カノアシグンツワノチョウ",
    "town": "森村",
    "town_kana": "モリムラ",
    "street": null,
    "office_name": null,
    "office_name_kana": null
  },
  "5605": {
    "postcode": "6995605",
    "prefecture": "島根県",
    "prefecture_kana": "シマネケン",
    "prefecture_code": 32,
    "city": "鹿足郡津和野町",
    "city_kana": "カノアシグンツワノチョウ",
    "town": "後田",
    "town_kana": "ウシロダ",
    "street": null,
    "office_name": null,
    "office_name_kana": null
  },
  "5606": {
    "postcode": "6995606",
    "prefecture": "島根県",
    "prefecture_kana": "シマネケン",
    "prefecture_code": 32,
    "city": "鹿足郡津和野町",
    "city_kana": "カノアシグンツワノチョウ",
    "town": "寺田",
    "town_kana": "テラダ",
    "street": null,
    "office_name": null,
    "office_name_kana": null
  },
  "5607": {
    "postcode": "6995607",
    "prefecture": "島根県",
    "prefecture_kana": "シマネケン",
    "prefecture_code": 32,
    "city": "鹿足郡津和野町",
    "city_kana": "カノアシグンツワノチョウ",
    "town": "耕田",
    "town_kana": "コウダ",
    "street": null,
    "office_name": null,
    "office_name_kana": null
  },
  "5611": {
    "postcode": "6995611",
    "prefecture": "島根県",
    "prefecture_kana": "シマネケン",
    "prefecture_code": 32,
    "city": "鹿足郡津和野町",
    "city_kana": "カノアシグンツワノチョウ",
    "town": "町田",
    "town_kana": "マチダ",
    "street": null,
    "office_name": null,
    "office_name_kana": null
  },
  "5612": {
    "postcode": "6995612",
    "prefecture": "島根県",
    "prefecture_kana": "シマネケン",
    "prefecture_code": 32,
    "city": "鹿足郡津和野町",
    "city_kana": "カノアシグンツワノチョウ",
    "town": "中座",
    "town_kana": "ナカザ",
    "street": null,
    "office_name": null,
    "office_name_kana": null
  },
  "5613": {
    "postcode": "6995613",
    "prefecture": "島根県",
    "prefecture_kana": "シマネケン",
    "prefecture_code": 32,
    "city": "鹿足郡津和野町",
    "city_kana": "カノアシグンツワノチョウ",
    "town": "鷲原",
    "town_kana": "ワシバラ",
    "street": null,
    "office_name": null,
    "office_name_kana": null
  },
  "5614": {
    "postcode": "6995614",
    "prefecture": "島根県",
    "prefecture_kana": "シマネケン",
    "prefecture_code": 32,
    "city": "鹿足郡津和野町",
    "city_kana": "カノアシグンツワノチョウ",
    "town": "高峯",
    "town_kana": "タカミネ",
    "street": null,
    "office_name": null,
    "office_name_kana": null
  },
  "5615": {
    "postcode": "6995615",
    "prefecture": "島根県",
    "prefecture_kana": "シマネケン",
    "prefecture_code": 32,
    "city": "鹿足郡津和野町",
    "city_kana": "カノアシグンツワノチョウ",
    "town": "名賀",
    "town_kana": "ナヨシ",
    "street": null,
    "office_name": null,
    "office_name_kana": null
  },
  "5616": {
    "postcode": "6995616",
    "prefecture": "島根県",
    "prefecture_kana": "シマネケン",
    "prefecture_code": 32,
    "city": "鹿足郡津和野町",
    "city_kana": "カノアシグンツワノチョウ",
    "town": "部栄",
    "town_kana": "ブサカ",
    "street": null,
    "office_name": null,
    "office_name_kana": null
  },
  "5617": {
    "postcode": "6995617",
    "prefecture": "島根県",
    "prefecture_kana": "シマネケン",
    "prefecture_code": 32,
    "city": "鹿足郡津和野町",
    "city_kana": "カノアシグンツワノチョウ",
    "town": "田二穂",
    "town_kana": "タニホ",
    "street": null,
    "office_name": null,
    "office_name_kana": null
  },
  "5621": {
    "postcode": "6995621",
    "prefecture": "島根県",
    "prefecture_kana": "シマネケン",
    "prefecture_code": 32,
    "city": "鹿足郡津和野町",
    "city_kana": "カノアシグンツワノチョウ",
    "town": "内美",
    "town_kana": "ナイミ",
    "street": null,
    "office_name": null,
    "office_name_kana": null
  },
  "5622": {
    "postcode": "6995622",
    "prefecture": "島根県",
    "prefecture_kana": "シマネケン",
    "prefecture_code": 32,
    "city": "鹿足郡津和野町",
    "city_kana": "カノアシグンツワノチョウ",
    "town": "邑輝",
    "town_kana": "ムラキ",
    "street": null,
    "office_name": null,
    "office_name_kana": null
  },
  "5631": {
    "postcode": "6995631",
    "prefecture": "島根県",
    "prefecture_kana": "シマネケン",
    "prefecture_code": 32,
    "city": "鹿足郡津和野町",
    "city_kana": "カノアシグンツワノチョウ",
    "town": "中山",
    "town_kana": "ナカヤマ",
    "street": null,
    "office_name": null,
    "office_name_kana": null
  },
  "5632": {
    "postcode": "6995632",
    "prefecture": "島根県",
    "prefecture_kana": "シマネケン",
    "prefecture_code": 32,
    "city": "鹿足郡津和野町",
    "city_kana": "カノアシグンツワノチョウ",
    "town": "豊稼",
    "town_kana": "トヨカ",
    "street": null,
    "office_name": null,
    "office_name_kana": null
  },
  "5633": {
    "postcode": "6995633",
    "prefecture": "島根県",
    "prefecture_kana": "シマネケン",
    "prefecture_code": 32,
    "city": "鹿足郡津和野町",
    "city_kana": "カノアシグンツワノチョウ",
    "town": "長福",
    "town_kana": "ナガフク",
    "street": null,
    "office_name": null,
    "office_name_kana": null
  },
  "5634": {
    "postcode": "6995634",
    "prefecture": "島根県",
    "prefecture_kana": "シマネケン",
    "prefecture_code": 32,
    "city": "鹿足郡津和野町",
    "city_kana": "カノアシグンツワノチョウ",
    "town": "中川",
    "town_kana": "ナカガワ",
    "street": null,
    "office_name": null,
    "office_name_kana": null
  },
  "5635": {
    "postcode": "6995635",
    "prefecture": "島根県",
    "prefecture_kana": "シマネケン",
    "prefecture_code": 32,
    "city": "鹿足郡津和野町",
    "city_kana": "カノアシグンツワノチョウ",
    "town": "山下",
    "town_kana": "ヤマシタ",
    "street": null,
    "office_name": null,
    "office_name_kana": null
  },
  "5636": {
    "postcode": "6995636",
    "prefecture": "島根県",
    "prefecture_kana": "シマネケン",
    "prefecture_code": 32,
    "city": "鹿足郡津和野町",
    "city_kana": "カノアシグンツワノチョウ",
    "town": "中曽野",
    "town_kana": "ナカソノ",
    "street": null,
    "office_name": null,
    "office_name_kana": null
  },
  "5637": {
    "postcode": "6995637",
    "prefecture": "島根県",
    "prefecture_kana": "シマネケン",
    "prefecture_code": 32,
    "city": "鹿足郡津和野町",
    "city_kana": "カノアシグンツワノチョウ",
    "town": "吹野",
    "town_kana": "フキノ",
    "street": null,
    "office_name": null,
    "office_name_kana": null
  },
  "5695": {
    "postcode": "6995695",
    "prefecture": "島根県",
    "prefecture_kana": "シマネケン",
    "prefecture_code": 32,
    "city": "鹿足郡津和野町",
    "city_kana": "カノアシグンツワノチョウ",
    "town": "大字森村",
    "town_kana": null,
    "street": "ロ１２７",
    "office_name": "津和野町　教育委員会",
    "office_name_kana": "ツワノチヨウ キヨウイクイインカイ"
  }
}