{
  "0000": [
    {
      "postcode": "7000000",
      "prefecture": "岡山県",
      "prefecture_kana": "オカヤマケン",
      "prefecture_code": 33,
      "city": "岡山市北区",
      "city_kana": "オカヤマシキタク",
      "town": "",
      "town_kana": "",
      "street": null,
      "office_name": null,
      "office_name_kana": null
    },
    {
      "postcode": "7000000",
      "prefecture": "岡山県",
      "prefecture_kana": "オカヤマケン",
      "prefecture_code": 33,
      "city": "岡山市中区",
      "city_kana": "オカヤマシナカク",
      "town": "",
      "town_kana": "",
      "street": null,
      "office_name": null,
      "office_name_kana": null
    },
    {
      "postcode": "7000000",
      "prefecture": "岡山県",
      "prefecture_kana": "オカヤマケン",
      "prefecture_code": 33,
      "city": "岡山市東区",
      "city_kana": "オカヤマシヒガシク",
      "town": "",
      "town_kana": "",
      "street": null,
      "office_name": null,
      "office_name_kana": null
    },
    {
      "postcode": "7000000",
      "prefecture": "岡山県",
      "prefecture_kana": "オカヤマケン",
      "prefecture_code": 33,
      "city": "岡山市南区",
      "city_kana": "オカヤマシミナミク",
      "town": "",
      "town_kana": "",
      "street": null,
      "office_name": null,
      "office_name_kana": null
    }
  ],
  "0001": {
    "postcode": "7000001",
    "prefecture": "岡山県",
    "prefecture_kana": "オカヤマケン",
    "prefecture_code": 33,
    "city": "岡山市北区",
    "city_kana": "オカヤマシキタク",
    "town": "宿",
    "town_kana": "シュク",
    "street": null,
    "office_name": null,
    "office_name_kana": null
  },
  "0002": {
    "postcode": "7000002",
    "prefecture": "岡山県",
    "prefecture_kana": "オカヤマケン",
    "prefecture_code": 33,
    "city": "岡山市北区",
    "city_kana": "オカヤマシキタク",
    "town": "宿本町",
    "town_kana": "シュクホンマチ",
    "street": null,
    "office_name": null,
    "office_name_kana": null
  },
  "0003": {
    "postcode": "7000003",
    "prefecture": "岡山県",
    "prefecture_kana": "オカヤマケン",
    "prefecture_code": 33,
    "city": "岡山市北区",
    "city_kana": "オカヤマシキタク",
    "town": "半田町",
    "town_kana": "ハンダチョウ",
    "street": null,
    "office_name": null,
    "office_name_kana": null
  },
  "0004": {
    "postcode": "7000004",
    "prefecture": "岡山県",
    "prefecture_kana": "オカヤマケン",
    "prefecture_code": 33,
    "city": "岡山市北区",
    "city_kana": "オカヤマシキタク",
    "town": "法界院",
    "town_kana": "ホウカイイン",
    "street": null,
    "office_name": null,
    "office_name_kana": null
  },
  "0005": {
    "postcode": "7000005",
    "prefecture": "岡山県",
    "prefecture_kana": "オカヤマケン",
    "prefecture_code": 33,
    "city": "岡山市北区",
    "city_kana": "オカヤマシキタク",
    "town": "理大町",
    "town_kana": "リダイチョウ",
    "street": null,
    "office_name": null,
    "office_name_kana": null
  },
  "0011": {
    "postcode": "7000011",
    "prefecture": "岡山県",
    "prefecture_kana": "オカヤマケン",
    "prefecture_code": 33,
    "city": "岡山市北区",
    "city_kana": "オカヤマシキタク",
    "town": "学南町",
    "town_kana": "ガクナンチョウ",
    "street": null,
    "office_name": null,
    "office_name_kana": null
  },
  "0012": {
    "postcode": "7000012",
    "prefecture": "岡山県",
    "prefecture_kana": "オカヤマケン",
    "prefecture_code": 33,
    "city": "岡山市北区",
    "city_kana": "オカヤマシキタク",
    "town": "いずみ町",
    "town_kana": "イズミチョウ",
    "street": null,
    "office_name": null,
    "office_name_kana": null
  },
  "0013": {
    "postcode": "7000013",
    "prefecture": "岡山県",
    "prefecture_kana": "オカヤマケン",
    "prefecture_code": 33,
    "city": "岡山市北区",
    "city_kana": "オカヤマシキタク",
    "town": "伊福町",
    "town_kana": "イフクチョウ",
    "street": null,
    "office_name": null,
    "office_name_kana": null
  },
  "0014": {
    "postcode": "7000014",
    "prefecture": "岡山県",
    "prefecture_kana": "オカヤマケン",
    "prefecture_code": 33,
    "city": "岡山市北区",
    "city_kana": "オカヤマシキタク",
    "town": "津倉町",
    "town_kana": "ツクラチョウ",
    "street": null,
    "office_name": null,
    "office_name_kana": null
  },
  "0015": {
    "postcode": "7000015",
    "prefecture": "岡山県",
    "prefecture_kana": "オカヤマケン",
    "prefecture_code": 33,
    "city": "岡山市北区",
    "city_kana": "オカヤマシキタク",
    "town": "京山",
    "town_kana": "キョウヤマ",
    "street": null,
    "office_name": null,
    "office_name_kana": null
  },
  "0016": {
    "postcode": "7000016",
    "prefecture": "岡山県",
    "prefecture_kana": "オカヤマケン",
    "prefecture_code": 33,
    "city": "岡山市北区",
    "city_kana": "オカヤマシキタク",
    "town": "伊島町",
    "town_kana": "イシマチョウ",
    "street": null,
    "office_name": null,
    "office_name_kana": null
  },
  "0017": {
    "postcode": "7000017",
    "prefecture": "岡山県",
    "prefecture_kana": "オカヤマケン",
    "prefecture_code": 33,
    "city": "岡山市北区",
    "city_kana": "オカヤマシキタク",
    "town": "伊島北町",
    "town_kana": "イシマキタマチ",
    "street": null,
    "office_name": null,
    "office_name_kana": null
  },
  "0021": {
    "postcode": "7000021",
    "prefecture": "岡山県",
    "prefecture_kana": "オカヤマケン",
    "prefecture_code": 33,
    "city": "岡山市北区",
    "city_kana": "オカヤマシキタク",
    "town": "国体町",
    "town_kana": "コクタイチョウ",
    "street": null,
    "office_name": null,
    "office_name_kana": null
  },
  "0022": {
    "postcode": "7000022",
    "prefecture": "岡山県",
    "prefecture_kana": "オカヤマケン",
    "prefecture_code": 33,
    "city": "岡山市北区",
    "city_kana": "オカヤマシキタク",
    "town": "岩田町",
    "town_kana": "イワタチョウ",
    "street": null,
    "office_name": null,
    "office_name_kana": null
  },
  "0023": {
    "postcode": "7000023",
    "prefecture": "岡山県",
    "prefecture_kana": "オカヤマケン",
    "prefecture_code": 33,
    "city": "岡山市北区",
    "city_kana": "オカヤマシキタク",
    "town": "駅前町",
    "town_kana": "エキマエチョウ",
    "street": null,
    "office_name": null,
    "office_name_kana": null
  },
  "0024": {
    "postcode": "7000024",
    "prefecture": "岡山県",
    "prefecture_kana": "オカヤマケン",
    "prefecture_code": 33,
    "city": "岡山市北区",
    "city_kana": "オカヤマシキタク",
    "town": "駅元町",
    "town_kana": "エキモトマチ",
    "street": null,
    "office_name": null,
    "office_name_kana": null
  },
  "0025": {
    "postcode": "7000025",
    "prefecture": "岡山県",
    "prefecture_kana": "オカヤマケン",
    "prefecture_code": 33,
    "city": "岡山市北区",
    "city_kana": "オカヤマシキタク",
    "town": "寿町",
    "town_kana": "コトブキチョウ",
    "street": null,
    "office_name": null,
    "office_name_kana": null
  },
  "0026": {
    "postcode": "7000026",
    "prefecture": "岡山県",
    "prefecture_kana": "オカヤマケン",
    "prefecture_code": 33,
    "city": "岡山市北区",
    "city_kana": "オカヤマシキタク",
    "town": "奉還町",
    "town_kana": "ホウカンチョウ",
    "street": null,
    "office_name": null,
    "office_name_kana": null
  },
  "0027": {
    "postcode": "7000027",
    "prefecture": "岡山県",
    "prefecture_kana": "オカヤマケン",
    "prefecture_code": 33,
    "city": "岡山市北区",
    "city_kana": "オカヤマシキタク",
    "town": "清心町",
    "town_kana": "セイシンチョウ",
    "street": null,
    "office_name": null,
    "office_name_kana": null
  },
  "0028": {
    "postcode": "7000028",
    "prefecture": "岡山県",
    "prefecture_kana": "オカヤマケン",
    "prefecture_code": 33,
    "city": "岡山市北区",
    "city_kana": "オカヤマシキタク",
    "town": "絵図町",
    "town_kana": "エズチョウ",
    "street": null,
    "office_name": null,
    "office_name_kana": null
  },
  "0031": {
    "postcode": "7000031",
    "prefecture": "岡山県",
    "prefecture_kana": "オカヤマケン",
    "prefecture_code": 33,
    "city": "岡山市北区",
    "city_kana": "オカヤマシキタク",
    "town": "富町",
    "town_kana": "トミマチ",
    "street": null,
    "office_name": null,
    "office_name_kana": null
  },
  "0032": {
    "postcode": "7000032",
    "prefecture": "岡山県",
    "prefecture_kana": "オカヤマケン",
    "prefecture_code": 33,
    "city": "岡山市北区",
    "city_kana": "オカヤマシキタク",
    "town": "昭和町",
    "town_kana": "ショウワチョウ",
    "street": null,
    "office_name": null,
    "office_name_kana": null
  },
  "0033": {
    "postcode": "7000033",
    "prefecture": "岡山県",
    "prefecture_kana": "オカヤマケン",
    "prefecture_code": 33,
    "city": "岡山市北区",
    "city_kana": "オカヤマシキタク",
    "town": "島田本町",
    "town_kana": "シマダホンマチ",
    "street": null,
    "office_name": null,
    "office_name_kana": null
  },
  "0034": {
    "postcode": "7000034",
    "prefecture": "岡山県",
    "prefecture_kana": "オカヤマケン",
    "prefecture_code": 33,
    "city": "岡山市北区",
    "city_kana": "オカヤマシキタク",
    "town": "高柳東町",
    "town_kana": "タカヤナギヒガシマチ",
    "street": null,
    "office_name": null,
    "office_name_kana": null
  },
  "0035": {
    "postcode": "7000035",
    "prefecture": "岡山県",
    "prefecture_kana": "オカヤマケン",
    "prefecture_code": 33,
    "city": "岡山市北区",
    "city_kana": "オカヤマシキタク",
    "town": "高柳西町",
    "town_kana": "タカヤナギニシマチ",
    "street": null,
    "office_name": null,
    "office_name_kana": null
  },
  "0041": {
    "postcode": "7000041",
    "prefecture": "岡山県",
    "prefecture_kana": "オカヤマケン",
    "prefecture_code": 33,
    "city": "岡山市北区",
    "city_kana": "オカヤマシキタク",
    "town": "岩井宮裏",
    "town_kana": "イワイミヤウラ",
    "street": null,
    "office_name": null,
    "office_name_kana": null
  },
  "0042": {
    "postcode": "7000042",
    "prefecture": "岡山県",
    "prefecture_kana": "オカヤマケン",
    "prefecture_code": 33,
    "city": "岡山市北区",
    "city_kana": "オカヤマシキタク",
    "town": "三門東町",
    "town_kana": "ミカドヒガシマチ",
    "street": null,
    "office_name": null,
    "office_name_kana": null
  },
  "0043": {
    "postcode": "7000043",
    "prefecture": "岡山県",
    "prefecture_kana": "オカヤマケン",
    "prefecture_code": 33,
    "city": "岡山市北区",
    "city_kana": "オカヤマシキタク",
    "town": "三門中町",
    "town_kana": "ミカドナカマチ",
    "street": null,
    "office_name": null,
    "office_name_kana": null
  },
  "0044": {
    "postcode": "7000044",
    "prefecture": "岡山県",
    "prefecture_kana": "オカヤマケン",
    "prefecture_code": 33,
    "city": "岡山市北区",
    "city_kana": "オカヤマシキタク",
    "town": "三門西町",
    "town_kana": "ミカドニシマチ",
    "street": null,
    "office_name": null,
    "office_name_kana": null
  },
  "0045": {
    "postcode": "7000045",
    "prefecture": "岡山県",
    "prefecture_kana": "オカヤマケン",
    "prefecture_code": 33,
    "city": "岡山市北区",
    "city_kana": "オカヤマシキタク",
    "town": "葵町",
    "town_kana": "アオイチョウ",
    "street": null,
    "office_name": null,
    "office_name_kana": null
  },
  "0046": {
    "postcode": "7000046",
    "prefecture": "岡山県",
    "prefecture_kana": "オカヤマケン",
    "prefecture_code": 33,
    "city": "岡山市北区",
    "city_kana": "オカヤマシキタク",
    "town": "岩井",
    "town_kana": "イワイ",
    "street": null,
    "office_name": null,
    "office_name_kana": null
  },
  "0047": {
    "postcode": "7000047",
    "prefecture": "岡山県",
    "prefecture_kana": "オカヤマケン",
    "prefecture_code": 33,
    "city": "岡山市北区",
    "city_kana": "オカヤマシキタク",
    "town": "関西町",
    "town_kana": "カンゼイチョウ",
    "street": null,
    "office_name": null,
    "office_name_kana": null
  },
  "0051": {
    "postcode": "7000051",
    "prefecture": "岡山県",
    "prefecture_kana": "オカヤマケン",
    "prefecture_code": 33,
    "city": "岡山市北区",
    "city_kana": "オカヤマシキタク",
    "town": "下伊福上町",
    "town_kana": "シモイフクカミマチ",
    "street": null,
    "office_name": null,
    "office_name_kana": null
  },
  "0052": {
    "postcode": "7000052",
    "prefecture": "岡山県",
    "prefecture_kana": "オカヤマケン",
    "prefecture_code": 33,
    "city": "岡山市北区",
    "city_kana": "オカヤマシキタク",
    "town": "下伊福",
    "town_kana": "シモイフク",
    "street": null,
    "office_name": null,
    "office_name_kana": null
  },
  "0053": {
    "postcode": "7000053",
    "prefecture": "岡山県",
    "prefecture_kana": "オカヤマケン",
    "prefecture_code": 33,
    "city": "岡山市北区",
    "city_kana": "オカヤマシキタク",
    "town": "下伊福本町",
    "town_kana": "シモイフクホンマチ",
    "street": null,
    "office_name": null,
    "office_name_kana": null
  },
  "0054": {
    "postcode": "7000054",
    "prefecture": "岡山県",
    "prefecture_kana": "オカヤマケン",
    "prefecture_code": 33,
    "city": "岡山市北区",
    "city_kana": "オカヤマシキタク",
    "town": "下伊福西町",
    "town_kana": "シモイフクニシマチ",
    "street": null,
    "office_name": null,
    "office_name_kana": null
  },
  "0055": {
    "postcode": "7000055",
    "prefecture": "岡山県",
    "prefecture_kana": "オカヤマケン",
    "prefecture_code": 33,
    "city": "岡山市北区",
    "city_kana": "オカヤマシキタク",
    "town": "西崎",
    "town_kana": "ニシザキ",
    "street": null,
    "office_name": null,
    "office_name_kana": null
  },
  "0056": {
    "postcode": "7000056",
    "prefecture": "岡山県",
    "prefecture_kana": "オカヤマケン",
    "prefecture_code": 33,
    "city": "岡山市北区",
    "city_kana": "オカヤマシキタク",
    "town": "西崎本町",
    "town_kana": "ニシザキホンマチ",
    "street": null,
    "office_name": null,
    "office_name_kana": null
  },
  "0061": {
    "postcode": "7000061",
    "prefecture": "岡山県",
    "prefecture_kana": "オカヤマケン",
    "prefecture_code": 33,
    "city": "岡山市北区",
    "city_kana": "オカヤマシキタク",
    "town": "大安寺西町",
    "town_kana": "ダイアンジニシマチ",
    "street": null,
    "office_name": null,
    "office_name_kana": null
  },
  "0062": {
    "postcode": "7000062",
    "prefecture": "岡山県",
    "prefecture_kana": "オカヤマケン",
    "prefecture_code": 33,
    "city": "岡山市北区",
    "city_kana": "オカヤマシキタク",
    "town": "大安寺中町",
    "town_kana": "ダイアンジナカマチ",
    "street": null,
    "office_name": null,
    "office_name_kana": null
  },
  "0063": {
    "postcode": "7000063",
    "prefecture": "岡山県",
    "prefecture_kana": "オカヤマケン",
    "prefecture_code": 33,
    "city": "岡山市北区",
    "city_kana": "オカヤマシキタク",
    "town": "大安寺東町",
    "town_kana": "ダイアンジヒガシマチ",
    "street": null,
    "office_name": null,
    "office_name_kana": null
  },
  "0064": {
    "postcode": "7000064",
    "prefecture": "岡山県",
    "prefecture_kana": "オカヤマケン",
    "prefecture_code": 33,
    "city": "岡山市北区",
    "city_kana": "オカヤマシキタク",
    "town": "大安寺南町",
    "town_kana": "ダイアンジミナミマチ",
    "street": null,
    "office_name": null,
    "office_name_kana": null
  },
  "0065": {
    "postcode": "7000065",
    "prefecture": "岡山県",
    "prefecture_kana": "オカヤマケン",
    "prefecture_code": 33,
    "city": "岡山市北区",
    "city_kana": "オカヤマシキタク",
    "town": "野殿東町",
    "town_kana": "ノドノヒガシマチ",
    "street": null,
    "office_name": null,
    "office_name_kana": null
  },
  "0066": {
    "postcode": "7000066",
    "prefecture": "岡山県",
    "prefecture_kana": "オカヤマケン",
    "prefecture_code": 33,
    "city": "岡山市北区",
    "city_kana": "オカヤマシキタク",
    "town": "野殿西町",
    "town_kana": "ノドノニシマチ",
    "street": null,
    "office_name": null,
    "office_name_kana": null
  },
  "0067": {
    "postcode": "7000067",
    "prefecture": "岡山県",
    "prefecture_kana": "オカヤマケン",
    "prefecture_code": 33,
    "city": "岡山市北区",
    "city_kana": "オカヤマシキタク",
    "town": "西野山町",
    "town_kana": "ニシノヤマチョウ",
    "street": null,
    "office_name": null,
    "office_name_kana": null
  },
  "0068": {
    "postcode": "7000068",
    "prefecture": "岡山県",
    "prefecture_kana": "オカヤマケン",
    "prefecture_code": 33,
    "city": "岡山市北区",
    "city_kana": "オカヤマシキタク",
    "town": "東野山町",
    "town_kana": "ヒガシノヤマチョウ",
    "street": null,
    "office_name": null,
    "office_name_kana": null
  },
  "0071": {
    "postcode": "7000071",
    "prefecture": "岡山県",
    "prefecture_kana": "オカヤマケン",
    "prefecture_code": 33,
    "city": "岡山市北区",
    "city_kana": "オカヤマシキタク",
    "town": "谷万成",
    "town_kana": "タニマンナリ",
    "street": null,
    "office_name": null,
    "office_name_kana": null
  },
  "0072": {
    "postcode": "7000072",
    "prefecture": "岡山県",
    "prefecture_kana": "オカヤマケン",
    "prefecture_code": 33,
    "city": "岡山市北区",
    "city_kana": "オカヤマシキタク",
    "town": "万成東町",
    "town_kana": "マンナリヒガシマチ",
    "street": null,
    "office_name": null,
    "office_name_kana": null
  },
  "0073": {
    "postcode": "7000073",
    "prefecture": "岡山県",
    "prefecture_kana": "オカヤマケン",
    "prefecture_code": 33,
    "city": "岡山市北区",
    "city_kana": "オカヤマシキタク",
    "town": "万成西町",
    "town_kana": "マンナリニシマチ",
    "street": null,
    "office_name": null,
    "office_name_kana": null
  },
  "0074": {
    "postcode": "7000074",
    "prefecture": "岡山県",
    "prefecture_kana": "オカヤマケン",
    "prefecture_code": 33,
    "city": "岡山市北区",
    "city_kana": "オカヤマシキタク",
    "town": "矢坂東町",
    "town_kana": "ヤサカヒガシマチ",
    "street": null,
    "office_name": null,
    "office_name_kana": null
  },
  "0075": {
    "postcode": "7000075",
    "prefecture": "岡山県",
    "prefecture_kana": "オカヤマケン",
    "prefecture_code": 33,
    "city": "岡山市北区",
    "city_kana": "オカヤマシキタク",
    "town": "矢坂本町",
    "town_kana": "ヤサカホンマチ",
    "street": null,
    "office_name": null,
    "office_name_kana": null
  },
  "0076": {
    "postcode": "7000076",
    "prefecture": "岡山県",
    "prefecture_kana": "オカヤマケン",
    "prefecture_code": 33,
    "city": "岡山市北区",
    "city_kana": "オカヤマシキタク",
    "town": "矢坂西町",
    "town_kana": "ヤサカニシマチ",
    "street": null,
    "office_name": null,
    "office_name_kana": null
  },
  "0080": {
    "postcode": "7000080",
    "prefecture": "岡山県",
    "prefecture_kana": "オカヤマケン",
    "prefecture_code": 33,
    "city": "岡山市北区",
    "city_kana": "オカヤマシキタク",
    "town": "津島福居",
    "town_kana": "ツシマフクイ",
    "street": null,
    "office_name": null,
    "office_name_kana": null
  },
  "0081": {
    "postcode": "7000081",
    "prefecture": "岡山県",
    "prefecture_kana": "オカヤマケン",
    "prefecture_code": 33,
    "city": "岡山市北区",
    "city_kana": "オカヤマシキタク",
    "town": "津島東",
    "town_kana": "ツシマヒガシ",
    "street": null,
    "office_name": null,
    "office_name_kana": null
  },
  "0082": {
    "postcode": "7000082",
    "prefecture": "岡山県",
    "prefecture_kana": "オカヤマケン",
    "prefecture_code": 33,
    "city": "岡山市北区",
    "city_kana": "オカヤマシキタク",
    "town": "津島中",
    "town_kana": "ツシマナカ",
    "street": null,
    "office_name": null,
    "office_name_kana": null
  },
  "0083": {
    "postcode": "7000083",
    "prefecture": "岡山県",
    "prefecture_kana": "オカヤマケン",
    "prefecture_code": 33,
    "city": "岡山市北区",
    "city_kana": "オカヤマシキタク",
    "town": "津島新野",
    "town_kana": "ツシマニイノ",
    "street": null,
    "office_name": null,
    "office_name_kana": null
  },
  "0084": {
    "postcode": "7000084",
    "prefecture": "岡山県",
    "prefecture_kana": "オカヤマケン",
    "prefecture_code": 33,
    "city": "岡山市北区",
    "city_kana": "オカヤマシキタク",
    "town": "津島桑の木町",
    "town_kana": "ツシマクワノキチョウ",
    "street": null,
    "office_name": null,
    "office_name_kana": null
  },
  "0085": {
    "postcode": "7000085",
    "prefecture": "岡山県",
    "prefecture_kana": "オカヤマケン",
    "prefecture_code": 33,
    "city": "岡山市北区",
    "city_kana": "オカヤマシキタク",
    "town": "津島南",
    "town_kana": "ツシマミナミ",
    "street": null,
    "office_name": null,
    "office_name_kana": null
  },
  "0086": {
    "postcode": "7000086",
    "prefecture": "岡山県",
    "prefecture_kana": "オカヤマケン",
    "prefecture_code": 33,
    "city": "岡山市北区",
    "city_kana": "オカヤマシキタク",
    "town": "津島西坂",
    "town_kana": "ツシマニシザカ",
    "street": null,
    "office_name": null,
    "office_name_kana": null
  },
  "0087": {
    "postcode": "7000087",
    "prefecture": "岡山県",
    "prefecture_kana": "オカヤマケン",
    "prefecture_code": 33,
    "city": "岡山市北区",
    "city_kana": "オカヤマシキタク",
    "town": "津島京町",
    "town_kana": "ツシマキョウマチ",
    "street": null,
    "office_name": null,
    "office_name_kana": null
  },
  "0088": {
    "postcode": "7000088",
    "prefecture": "岡山県",
    "prefecture_kana": "オカヤマケン",
    "prefecture_code": 33,
    "city": "岡山市北区",
    "city_kana": "オカヤマシキタク",
    "town": "津島笹が瀬",
    "town_kana": "ツシマササガセ",
    "street": null,
    "office_name": null,
    "office_name_kana": null
  },
  "0089": {
    "postcode": "7000089",
    "prefecture": "岡山県",
    "prefecture_kana": "オカヤマケン",
    "prefecture_code": 33,
    "city": "岡山市北区",
    "city_kana": "オカヤマシキタク",
    "town": "津島本町",
    "town_kana": "ツシマホンマチ",
    "street": null,
    "office_name": null,
    "office_name_kana": null
  },
  "0801": {
    "postcode": "7000801",
    "prefecture": "岡山県",
    "prefecture_kana": "オカヤマケン",
    "prefecture_code": 33,
    "city": "岡山市北区",
    "city_kana": "オカヤマシキタク",
    "town": "三野本町",
    "town_kana": "ミノホンマチ",
    "street": null,
    "office_name": null,
    "office_name_kana": null
  },
  "0802": {
    "postcode": "7000802",
    "prefecture": "岡山県",
    "prefecture_kana": "オカヤマケン",
    "prefecture_code": 33,
    "city": "岡山市北区",
    "city_kana": "オカヤマシキタク",
    "town": "三野",
    "town_kana": "ミノ",
    "street": null,
    "office_name": null,
    "office_name_kana": null
  },
  "0803": {
    "postcode": "7000803",
    "prefecture": "岡山県",
    "prefecture_kana": "オカヤマケン",
    "prefecture_code": 33,
    "city": "岡山市北区",
    "city_kana": "オカヤマシキタク",
    "town": "北方",
    "town_kana": "キタガタ",
    "street": null,
    "office_name": null,
    "office_name_kana": null
  },
  "0804": {
    "postcode": "7000804",
    "prefecture": "岡山県",
    "prefecture_kana": "オカヤマケン",
    "prefecture_code": 33,
    "city": "岡山市北区",
    "city_kana": "オカヤマシキタク",
    "town": "中井町",
    "town_kana": "ナカイチョウ",
    "street": null,
    "office_name": null,
    "office_name_kana": null
  },
  "0805": {
    "postcode": "7000805",
    "prefecture": "岡山県",
    "prefecture_kana": "オカヤマケン",
    "prefecture_code": 33,
    "city": "岡山市北区",
    "city_kana": "オカヤマシキタク",
    "town": "兵団",
    "town_kana": "ヘイダン",
    "street": null,
    "office_name": null,
    "office_name_kana": null
  },
  "0806": {
    "postcode": "7000806",
    "prefecture": "岡山県",
    "prefecture_kana": "オカヤマケン",
    "prefecture_code": 33,
    "city": "岡山市北区",
    "city_kana": "オカヤマシキタク",
    "town": "広瀬町",
    "town_kana": "ヒロセチョウ",
    "street": null,
    "office_name": null,
    "office_name_kana": null
  },
  "0807": {
    "postcode": "7000807",
    "prefecture": "岡山県",
    "prefecture_kana": "オカヤマケン",
    "prefecture_code": 33,
    "city": "岡山市北区",
    "city_kana": "オカヤマシキタク",
    "town": "南方",
    "town_kana": "ミナミガタ",
    "street": null,
    "office_name": null,
    "office_name_kana": null
  },
  "0808": {
    "postcode": "7000808",
    "prefecture": "岡山県",
    "prefecture_kana": "オカヤマケン",
    "prefecture_code": 33,
    "city": "岡山市北区",
    "city_kana": "オカヤマシキタク",
    "town": "大和町",
    "town_kana": "ヤマトマチ",
    "street": null,
    "office_name": null,
    "office_name_kana": null
  },
  "0811": {
    "postcode": "7000811",
    "prefecture": "岡山県",
    "prefecture_kana": "オカヤマケン",
    "prefecture_code": 33,
    "city": "岡山市北区",
    "city_kana": "オカヤマシキタク",
    "town": "番町",
    "town_kana": "バンチョウ",
    "street": null,
    "office_name": null,
    "office_name_kana": null
  },
  "0812": {
    "postcode": "7000812",
    "prefecture": "岡山県",
    "prefecture_kana": "オカヤマケン",
    "prefecture_code": 33,
    "city": "岡山市北区",
    "city_kana": "オカヤマシキタク",
    "town": "出石町",
    "town_kana": "イズシチョウ",
    "street": null,
    "office_name": null,
    "office_name_kana": null
  },
  "0813": {
    "postcode": "7000813",
    "prefecture": "岡山県",
    "prefecture_kana": "オカヤマケン",
    "prefecture_code": 33,
    "city": "岡山市北区",
    "city_kana": "オカヤマシキタク",
    "town": "石関町",
    "town_kana": "イシゼキチョウ",
    "street": null,
    "office_name": null,
    "office_name_kana": null
  },
  "0814": {
    "postcode": "7000814",
    "prefecture": "岡山県",
    "prefecture_kana": "オカヤマケン",
    "prefecture_code": 33,
    "city": "岡山市北区",
    "city_kana": "オカヤマシキタク",
    "town": "天神町",
    "town_kana": "テンジンチョウ",
    "street": null,
    "office_name": null,
    "office_name_kana": null
  },
  "0815": {
    "postcode": "7000815",
    "prefecture": "岡山県",
    "prefecture_kana": "オカヤマケン",
    "prefecture_code": 33,
    "city": "岡山市北区",
    "city_kana": "オカヤマシキタク",
    "town": "野田屋町",
    "town_kana": "ノダヤチョウ",
    "street": null,
    "office_name": null,
    "office_name_kana": null
  },
  "0816": {
    "postcode": "7000816",
    "prefecture": "岡山県",
    "prefecture_kana": "オカヤマケン",
    "prefecture_code": 33,
    "city": "岡山市北区",
    "city_kana": "オカヤマシキタク",
    "town": "富田町",
    "town_kana": "トンダチョウ",
    "street": null,
    "office_name": null,
    "office_name_kana": null
  },
  "0817": {
    "postcode": "7000817",
    "prefecture": "岡山県",
    "prefecture_kana": "オカヤマケン",
    "prefecture_code": 33,
    "city": "岡山市北区",
    "city_kana": "オカヤマシキタク",
    "town": "弓之町",
    "town_kana": "ユミノチョウ",
    "street": null,
    "office_name": null,
    "office_name_kana": null
  },
  "0818": {
    "postcode": "7000818",
    "prefecture": "岡山県",
    "prefecture_kana": "オカヤマケン",
    "prefecture_code": 33,
    "city": "岡山市北区",
    "city_kana": "オカヤマシキタク",
    "town": "蕃山町",
    "town_kana": "バンザンチョウ",
    "street": null,
    "office_name": null,
    "office_name_kana": null
  },
  "0821": {
    "postcode": "7000821",
    "prefecture": "岡山県",
    "prefecture_kana": "オカヤマケン",
    "prefecture_code": 33,
    "city": "岡山市北区",
    "city_kana": "オカヤマシキタク",
    "town": "中山下",
    "town_kana": "ナカサンゲ",
    "street": null,
    "office_name": null,
    "office_name_kana": null
  },
  "0822": {
    "postcode": "7000822",
    "prefecture": "岡山県",
    "prefecture_kana": "オカヤマケン",
    "prefecture_code": 33,
    "city": "岡山市北区",
    "city_kana": "オカヤマシキタク",
    "town": "表町",
    "town_kana": "オモテチョウ",
    "street": null,
    "office_name": null,
    "office_name_kana": null
  },
  "0823": {
    "postcode": "7000823",
    "prefecture": "岡山県",
    "prefecture_kana": "オカヤマケン",
    "prefecture_code": 33,
    "city": "岡山市北区",
    "city_kana": "オカヤマシキタク",
    "town": "丸の内",
    "town_kana": "マルノウチ",
    "street": null,
    "office_name": null,
    "office_name_kana": null
  },
  "0824": {
    "postcode": "7000824",
    "prefecture": "岡山県",
    "prefecture_kana": "オカヤマケン",
    "prefecture_code": 33,
    "city": "岡山市北区",
    "city_kana": "オカヤマシキタク",
    "town": "内山下",
    "town_kana": "ウチサンゲ",
    "street": null,
    "office_name": null,
    "office_name_kana": null
  },
  "0825": {
    "postcode": "7000825",
    "prefecture": "岡山県",
    "prefecture_kana": "オカヤマケン",
    "prefecture_code": 33,
    "city": "岡山市北区",
    "city_kana": "オカヤマシキタク",
    "town": "田町",
    "town_kana": "タマチ",
    "street": null,
    "office_name": null,
    "office_name_kana": null
  },
  "0826": {
    "postcode": "7000826",
    "prefecture": "岡山県",
    "prefecture_kana": "オカヤマケン",
    "prefecture_code": 33,
    "city": "岡山市北区",
    "city_kana": "オカヤマシキタク",
    "town": "磨屋町",
    "town_kana": "トギヤチョウ",
    "street": null,
    "office_name": null,
    "office_name_kana": null
  },
  "0827": {
    "postcode": "7000827",
    "prefecture": "岡山県",
    "prefecture_kana": "オカヤマケン",
    "prefecture_code": 33,
    "city": "岡山市北区",
    "city_kana": "オカヤマシキタク",
    "town": "平和町",
    "town_kana": "ヘイワチョウ",
    "street": null,
    "office_name": null,
    "office_name_kana": null
  },
  "0831": {
    "postcode": "7000831",
    "prefecture": "岡山県",
    "prefecture_kana": "オカヤマケン",
    "prefecture_code": 33,
    "city": "岡山市北区",
    "city_kana": "オカヤマシキタク",
    "town": "京橋町",
    "town_kana": "キョウバシチョウ",
    "street": null,
    "office_name": null,
    "office_name_kana": null
  },
  "0832": {
    "postcode": "7000832",
    "prefecture": "岡山県",
    "prefecture_kana": "オカヤマケン",
    "prefecture_code": 33,
    "city": "岡山市北区",
    "city_kana": "オカヤマシキタク",
    "town": "京橋南町",
    "town_kana": "キョウバシミナミマチ",
    "street": null,
    "office_name": null,
    "office_name_kana": null
  },
  "0833": {
    "postcode": "7000833",
    "prefecture": "岡山県",
    "prefecture_kana": "オカヤマケン",
    "prefecture_code": 33,
    "city": "岡山市北区",
    "city_kana": "オカヤマシキタク",
    "town": "天瀬",
    "town_kana": "アマセ",
    "street": null,
    "office_name": null,
    "office_name_kana": null
  },
  "0834": {
    "postcode": "7000834",
    "prefecture": "岡山県",
    "prefecture_kana": "オカヤマケン",
    "prefecture_code": 33,
    "city": "岡山市北区",
    "city_kana": "オカヤマシキタク",
    "town": "天瀬南町",
    "town_kana": "アマセミナミマチ",
    "street": null,
    "office_name": null,
    "office_name_kana": null
  },
  "0835": {
    "postcode": "7000835",
    "prefecture": "岡山県",
    "prefecture_kana": "オカヤマケン",
    "prefecture_code": 33,
    "city": "岡山市北区",
    "city_kana": "オカヤマシキタク",
    "town": "東中央町",
    "town_kana": "ヒガシチュウオウチョウ",
    "street": null,
    "office_name": null,
    "office_name_kana": null
  },
  "0836": {
    "postcode": "7000836",
    "prefecture": "岡山県",
    "prefecture_kana": "オカヤマケン",
    "prefecture_code": 33,
    "city": "岡山市北区",
    "city_kana": "オカヤマシキタク",
    "town": "中央町",
    "town_kana": "チュウオウチョウ",
    "street": null,
    "office_name": null,
    "office_name_kana": null
  },
  "0837": {
    "postcode": "7000837",
    "prefecture": "岡山県",
    "prefecture_kana": "オカヤマケン",
    "prefecture_code": 33,
    "city": "岡山市北区",
    "city_kana": "オカヤマシキタク",
    "town": "南中央町",
    "town_kana": "ミナミチュウオウチョウ",
    "street": null,
    "office_name": null,
    "office_name_kana": null
  },
  "0838": {
    "postcode": "7000838",
    "prefecture": "岡山県",
    "prefecture_kana": "オカヤマケン",
    "prefecture_code": 33,
    "city": "岡山市北区",
    "city_kana": "オカヤマシキタク",
    "town": "京町",
    "town_kana": "キョウマチ",
    "street": null,
    "office_name": null,
    "office_name_kana": null
  },
  "0841": {
    "postcode": "7000841",
    "prefecture": "岡山県",
    "prefecture_kana": "オカヤマケン",
    "prefecture_code": 33,
    "city": "岡山市北区",
    "city_kana": "オカヤマシキタク",
    "town": "舟橋町",
    "town_kana": "フナバシチョウ",
    "street": null,
    "office_name": null,
    "office_name_kana": null
  },
  "0842": {
    "postcode": "7000842",
    "prefecture": "岡山県",
    "prefecture_kana": "オカヤマケン",
    "prefecture_code": 33,
    "city": "岡山市北区",
    "city_kana": "オカヤマシキタク",
    "town": "船頭町",
    "town_kana": "センドウチョウ",
    "street": null,
    "office_name": null,
    "office_name_kana": null
  },
  "0843": {
    "postcode": "7000843",
    "prefecture": "岡山県",
    "prefecture_kana": "オカヤマケン",
    "prefecture_code": 33,
    "city": "岡山市北区",
    "city_kana": "オカヤマシキタク",
    "town": "二日市町",
    "town_kana": "フツカイチマチ",
    "street": null,
    "office_name": null,
    "office_name_kana": null
  },
  "0844": {
    "postcode": "7000844",
    "prefecture": "岡山県",
    "prefecture_kana": "オカヤマケン",
    "prefecture_code": 33,
    "city": "岡山市北区",
    "city_kana": "オカヤマシキタク",
    "town": "御舟入町",
    "town_kana": "オフナイリチョウ",
    "street": null,
    "office_name": null,
    "office_name_kana": null
  },
  "0845": {
    "postcode": "7000845",
    "prefecture": "岡山県",
    "prefecture_kana": "オカヤマケン",
    "prefecture_code": 33,
    "city": "岡山市南区",
    "city_kana": "オカヤマシミナミク",
    "town": "浜野",
    "town_kana": "ハマノ",
    "street": null,
    "office_name": null,
    "office_name_kana": null
  },
  "0846": {
    "postcode": "7000846",
    "prefecture": "岡山県",
    "prefecture_kana": "オカヤマケン",
    "prefecture_code": 33,
    "city": "岡山市北区",
    "city_kana": "オカヤマシキタク",
    "town": "下内田町",
    "town_kana": "シモウチダチョウ",
    "street": null,
    "office_name": null,
    "office_name_kana": null
  },
  "0847": {
    "postcode": "7000847",
    "prefecture": "岡山県",
    "prefecture_kana": "オカヤマケン",
    "prefecture_code": 33,
    "city": "岡山市北区",
    "city_kana": "オカヤマシキタク",
    "town": "山科町",
    "town_kana": "ヤマシナチョウ",
    "street": null,
    "office_name": null,
    "office_name_kana": null
  },
  "0851": {
    "postcode": "7000851",
    "prefecture": "岡山県",
    "prefecture_kana": "オカヤマケン",
    "prefecture_code": 33,
    "city": "岡山市北区",
    "city_kana": "オカヤマシキタク",
    "town": "七日市西町",
    "town_kana": "ナノカイチニシマチ",
    "street": null,
    "office_name": null,
    "office_name_kana": null
  },
  "0852": {
    "postcode": "7000852",
    "prefecture": "岡山県",
    "prefecture_kana": "オカヤマケン",
    "prefecture_code": 33,
    "city": "岡山市北区",
    "city_kana": "オカヤマシキタク",
    "town": "七日市東町",
    "town_kana": "ナノカイチヒガシマチ",
    "street": null,
    "office_name": null,
    "office_name_kana": null
  },
  "0853": {
    "postcode": "7000853",
    "prefecture": "岡山県",
    "prefecture_kana": "オカヤマケン",
    "prefecture_code": 33,
    "city": "岡山市南区",
    "city_kana": "オカヤマシミナミク",
    "town": "豊浜町",
    "town_kana": "トヨハマチョウ",
    "street": null,
    "office_name": null,
    "office_name_kana": null
  },
  "0854": {
    "postcode": "7000854",
    "prefecture": "岡山県",
    "prefecture_kana": "オカヤマケン",
    "prefecture_code": 33,
    "city": "岡山市北区",
    "city_kana": "オカヤマシキタク",
    "town": "十日市東町",
    "town_kana": "トウカイチヒガシマチ",
    "street": null,
    "office_name": null,
    "office_name_kana": null
  },
  "0855": {
    "postcode": "7000855",
    "prefecture": "岡山県",
    "prefecture_kana": "オカヤマケン",
    "prefecture_code": 33,
    "city": "岡山市北区",
    "city_kana": "オカヤマシキタク",
    "town": "十日市中町",
    "town_kana": "トウカイチナカマチ",
    "street": null,
    "office_name": null,
    "office_name_kana": null
  },
  "0856": {
    "postcode": "7000856",
    "prefecture": "岡山県",
    "prefecture_kana": "オカヤマケン",
    "prefecture_code": 33,
    "city": "岡山市北区",
    "city_kana": "オカヤマシキタク",
    "town": "十日市西町",
    "town_kana": "トウカイチニシマチ",
    "street": null,
    "office_name": null,
    "office_name_kana": null
  },
  "0861": {
    "postcode": "7000861",
    "prefecture": "岡山県",
    "prefecture_kana": "オカヤマケン",
    "prefecture_code": 33,
    "city": "岡山市北区",
    "city_kana": "オカヤマシキタク",
    "town": "清輝橋",
    "town_kana": "セイキバシ",
    "street": null,
    "office_name": null,
    "office_name_kana": null
  },
  "0862": {
    "postcode": "7000862",
    "prefecture": "岡山県",
    "prefecture_kana": "オカヤマケン",
    "prefecture_code": 33,
    "city": "岡山市北区",
    "city_kana": "オカヤマシキタク",
    "town": "清輝本町",
    "town_kana": "セイキホンマチ",
    "street": null,
    "office_name": null,
    "office_name_kana": null
  },
  "0863": {
    "postcode": "7000863",
    "prefecture": "岡山県",
    "prefecture_kana": "オカヤマケン",
    "prefecture_code": 33,
    "city": "岡山市北区",
    "city_kana": "オカヤマシキタク",
    "town": "新道",
    "town_kana": "シンミチ",
    "street": null,
    "office_name": null,
    "office_name_kana": null
  },
  "0864": {
    "postcode": "7000864",
    "prefecture": "岡山県",
    "prefecture_kana": "オカヤマケン",
    "prefecture_code": 33,
    "city": "岡山市北区",
    "city_kana": "オカヤマシキタク",
    "town": "旭町",
    "town_kana": "アサヒマチ",
    "street": null,
    "office_name": null,
    "office_name_kana": null
  },
  "0865": {
    "postcode": "7000865",
    "prefecture": "岡山県",
    "prefecture_kana": "オカヤマケン",
    "prefecture_code": 33,
    "city": "岡山市北区",
    "city_kana": "オカヤマシキタク",
    "town": "旭本町",
    "town_kana": "アサヒホンマチ",
    "street": null,
    "office_name": null,
    "office_name_kana": null
  },
  "0866": {
    "postcode": "7000866",
    "prefecture": "岡山県",
    "prefecture_kana": "オカヤマケン",
    "prefecture_code": 33,
    "city": "岡山市北区",
    "city_kana": "オカヤマシキタク",
    "town": "岡南町",
    "town_kana": "コウナンチョウ",
    "street": null,
    "office_name": null,
    "office_name_kana": null
  },
  "0867": {
    "postcode": "7000867",
    "prefecture": "岡山県",
    "prefecture_kana": "オカヤマケン",
    "prefecture_code": 33,
    "city": "岡山市北区",
    "city_kana": "オカヤマシキタク",
    "town": "岡町",
    "town_kana": "オカマチ",
    "street": null,
    "office_name": null,
    "office_name_kana": null
  },
  "0901": {
    "postcode": "7000901",
    "prefecture": "岡山県",
    "prefecture_kana": "オカヤマケン",
    "prefecture_code": 33,
    "city": "岡山市北区",
    "city_kana": "オカヤマシキタク",
    "town": "本町",
    "town_kana": "ホンマチ",
    "street": null,
    "office_name": null,
    "office_name_kana": null
  },
  "0902": {
    "postcode": "7000902",
    "prefecture": "岡山県",
    "prefecture_kana": "オカヤマケン",
    "prefecture_code": 33,
    "city": "岡山市北区",
    "city_kana": "オカヤマシキタク",
    "town": "錦町",
    "town_kana": "ニシキマチ",
    "street": null,
    "office_name": null,
    "office_name_kana": null
  },
  "0903": {
    "postcode": "7000903",
    "prefecture": "岡山県",
    "prefecture_kana": "オカヤマケン",
    "prefecture_code": 33,
    "city": "岡山市北区",
    "city_kana": "オカヤマシキタク",
    "town": "幸町",
    "town_kana": "サイワイチョウ",
    "street": null,
    "office_name": null,
    "office_name_kana": null
  },
  "0904": {
    "postcode": "7000904",
    "prefecture": "岡山県",
    "prefecture_kana": "オカヤマケン",
    "prefecture_code": 33,
    "city": "岡山市北区",
    "city_kana": "オカヤマシキタク",
    "town": "柳町",
    "town_kana": "ヤナギマチ",
    "street": null,
    "office_name": null,
    "office_name_kana": null
  },
  "0905": {
    "postcode": "7000905",
    "prefecture": "岡山県",
    "prefecture_kana": "オカヤマケン",
    "prefecture_code": 33,
    "city": "岡山市北区",
    "city_kana": "オカヤマシキタク",
    "town": "春日町",
    "town_kana": "カスガチョウ",
    "street": null,
    "office_name": null,
    "office_name_kana": null
  },
  "0906": {
    "postcode": "7000906",
    "prefecture": "岡山県",
    "prefecture_kana": "オカヤマケン",
    "prefecture_code": 33,
    "city": "岡山市北区",
    "city_kana": "オカヤマシキタク",
    "town": "大学町",
    "town_kana": "ダイガクチョウ",
    "street": null,
    "office_name": null,
    "office_name_kana": null
  },
  "0907": {
    "postcode": "7000907",
    "prefecture": "岡山県",
    "prefecture_kana": "オカヤマケン",
    "prefecture_code": 33,
    "city": "岡山市北区",
    "city_kana": "オカヤマシキタク",
    "town": "下石井",
    "town_kana": "シモイシイ",
    "street": null,
    "office_name": null,
    "office_name_kana": null
  },
  "0911": {
    "postcode": "7000911",
    "prefecture": "岡山県",
    "prefecture_kana": "オカヤマケン",
    "prefecture_code": 33,
    "city": "岡山市北区",
    "city_kana": "オカヤマシキタク",
    "town": "大供本町",
    "town_kana": "ダイクホンマチ",
    "street": null,
    "office_name": null,
    "office_name_kana": null
  },
  "0912": {
    "postcode": "7000912",
    "prefecture": "岡山県",
    "prefecture_kana": "オカヤマケン",
    "prefecture_code": 33,
    "city": "岡山市北区",
    "city_kana": "オカヤマシキタク",
    "town": "大供表町",
    "town_kana": "ダイクオモテマチ",
    "street": null,
    "office_name": null,
    "office_name_kana": null
  },
  "0913": {
    "postcode": "7000913",
    "prefecture": "岡山県",
    "prefecture_kana": "オカヤマケン",
    "prefecture_code": 33,
    "city": "岡山市北区",
    "city_kana": "オカヤマシキタク",
    "town": "大供",
    "town_kana": "ダイク",
    "street": null,
    "office_name": null,
    "office_name_kana": null
  },
  "0914": {
    "postcode": "7000914",
    "prefecture": "岡山県",
    "prefecture_kana": "オカヤマケン",
    "prefecture_code": 33,
    "city": "岡山市北区",
    "city_kana": "オカヤマシキタク",
    "town": "鹿田町",
    "town_kana": "シカタチョウ",
    "street": null,
    "office_name": null,
    "office_name_kana": null
  },
  "0915": {
    "postcode": "7000915",
    "prefecture": "岡山県",
    "prefecture_kana": "オカヤマケン",
    "prefecture_code": 33,
    "city": "岡山市北区",
    "city_kana": "オカヤマシキタク",
    "town": "鹿田本町",
    "town_kana": "シカタホンマチ",
    "street": null,
    "office_name": null,
    "office_name_kana": null
  },
  "0916": {
    "postcode": "7000916",
    "prefecture": "岡山県",
    "prefecture_kana": "オカヤマケン",
    "prefecture_code": 33,
    "city": "岡山市北区",
    "city_kana": "オカヤマシキタク",
    "town": "西之町",
    "town_kana": "ニシノチョウ",
    "street": null,
    "office_name": null,
    "office_name_kana": null
  },
  "0921": {
    "postcode": "7000921",
    "prefecture": "岡山県",
    "prefecture_kana": "オカヤマケン",
    "prefecture_code": 33,
    "city": "岡山市北区",
    "city_kana": "オカヤマシキタク",
    "town": "東古松",
    "town_kana": "ヒガシフルマツ",
    "street": null,
    "office_name": null,
    "office_name_kana": null
  },
  "0922": {
    "postcode": "7000922",
    "prefecture": "岡山県",
    "prefecture_kana": "オカヤマケン",
    "prefecture_code": 33,
    "city": "岡山市北区",
    "city_kana": "オカヤマシキタク",
    "town": "東古松南町",
    "town_kana": "ヒガシフルマツミナミマチ",
    "street": null,
    "office_name": null,
    "office_name_kana": null
  },
  "0923": {
    "postcode": "7000923",
    "prefecture": "岡山県",
    "prefecture_kana": "オカヤマケン",
    "prefecture_code": 33,
    "city": "岡山市北区",
    "city_kana": "オカヤマシキタク",
    "town": "大元駅前",
    "town_kana": "オオモトエキマエ",
    "street": null,
    "office_name": null,
    "office_name_kana": null
  },
  "0924": {
    "postcode": "7000924",
    "prefecture": "岡山県",
    "prefecture_kana": "オカヤマケン",
    "prefecture_code": 33,
    "city": "岡山市北区",
    "city_kana": "オカヤマシキタク",
    "town": "大元",
    "town_kana": "オオモト",
    "street": null,
    "office_name": null,
    "office_name_kana": null
  },
  "0925": {
    "postcode": "7000925",
    "prefecture": "岡山県",
    "prefecture_kana": "オカヤマケン",
    "prefecture_code": 33,
    "city": "岡山市北区",
    "city_kana": "オカヤマシキタク",
    "town": "大元上町",
    "town_kana": "オオモトカミマチ",
    "street": null,
    "office_name": null,
    "office_name_kana": null
  },
  "0926": {
    "postcode": "7000926",
    "prefecture": "岡山県",
    "prefecture_kana": "オカヤマケン",
    "prefecture_code": 33,
    "city": "岡山市北区",
    "city_kana": "オカヤマシキタク",
    "town": "西古松西町",
    "town_kana": "ニシフルマツニシマチ",
    "street": null,
    "office_name": null,
    "office_name_kana": null
  },
  "0927": {
    "postcode": "7000927",
    "prefecture": "岡山県",
    "prefecture_kana": "オカヤマケン",
    "prefecture_code": 33,
    "city": "岡山市北区",
    "city_kana": "オカヤマシキタク",
    "town": "西古松",
    "town_kana": "ニシフルマツ",
    "street": null,
    "office_name": null,
    "office_name_kana": null
  },
  "0931": {
    "postcode": "7000931",
    "prefecture": "岡山県",
    "prefecture_kana": "オカヤマケン",
    "prefecture_code": 33,
    "city": "岡山市北区",
    "city_kana": "オカヤマシキタク",
    "town": "奥田西町",
    "town_kana": "オクダニシマチ",
    "street": null,
    "office_name": null,
    "office_name_kana": null
  },
  "0932": {
    "postcode": "7000932",
    "prefecture": "岡山県",
    "prefecture_kana": "オカヤマケン",
    "prefecture_code": 33,
    "city": "岡山市北区",
    "city_kana": "オカヤマシキタク",
    "town": "奥田本町",
    "town_kana": "オクダホンマチ",
    "street": null,
    "office_name": null,
    "office_name_kana": null
  },
  "0933": {
    "postcode": "7000933",
    "prefecture": "岡山県",
    "prefecture_kana": "オカヤマケン",
    "prefecture_code": 33,
    "city": "岡山市北区",
    "city_kana": "オカヤマシキタク",
    "town": "奥田",
    "town_kana": "オクダ",
    "street": null,
    "office_name": null,
    "office_name_kana": null
  },
  "0934": {
    "postcode": "7000934",
    "prefecture": "岡山県",
    "prefecture_kana": "オカヤマケン",
    "prefecture_code": 33,
    "city": "岡山市北区",
    "city_kana": "オカヤマシキタク",
    "town": "奥田南町",
    "town_kana": "オクダミナミマチ",
    "street": null,
    "office_name": null,
    "office_name_kana": null
  },
  "0935": {
    "postcode": "7000935",
    "prefecture": "岡山県",
    "prefecture_kana": "オカヤマケン",
    "prefecture_code": 33,
    "city": "岡山市北区",
    "city_kana": "オカヤマシキタク",
    "town": "神田町",
    "town_kana": "カンダチョウ",
    "street": null,
    "office_name": null,
    "office_name_kana": null
  },
  "0936": {
    "postcode": "7000936",
    "prefecture": "岡山県",
    "prefecture_kana": "オカヤマケン",
    "prefecture_code": 33,
    "city": "岡山市北区",
    "city_kana": "オカヤマシキタク",
    "town": "富田",
    "town_kana": "トミタ",
    "street": null,
    "office_name": null,
    "office_name_kana": null
  },
  "0941": [
    {
      "postcode": "7000941",
      "prefecture": "岡山県",
      "prefecture_kana": "オカヤマケン",
      "prefecture_code": 33,
      "city": "岡山市北区",
      "city_kana": "オカヤマシキタク",
      "town": "青江",
      "town_kana": "アオエ",
      "street": null,
      "office_name": null,
      "office_name_kana": null
    },
    {
      "postcode": "7000941",
      "prefecture": "岡山県",
      "prefecture_kana": "オカヤマケン",
      "prefecture_code": 33,
      "city": "岡山市南区",
      "city_kana": "オカヤマシミナミク",
      "town": "青江",
      "town_kana": "アオエ",
      "street": null,
      "office_name": null,
      "office_name_kana": null
    }
  ],
  "0942": {
    "postcode": "7000942",
    "prefecture": "岡山県",
    "prefecture_kana": "オカヤマケン",
    "prefecture_code": 33,
    "city": "岡山市南区",
    "city_kana": "オカヤマシミナミク",
    "town": "豊成",
    "town_kana": "トヨナリ",
    "street": null,
    "office_name": null,
    "office_name_kana": null
  },
  "0943": {
    "postcode": "7000943",
    "prefecture": "岡山県",
    "prefecture_kana": "オカヤマケン",
    "prefecture_code": 33,
    "city": "岡山市南区",
    "city_kana": "オカヤマシミナミク",
    "town": "新福",
    "town_kana": "シンプク",
    "street": null,
    "office_name": null,
    "office_name_kana": null
  },
  "0944": {
    "postcode": "7000944",
    "prefecture": "岡山県",
    "prefecture_kana": "オカヤマケン",
    "prefecture_code": 33,
    "city": "岡山市南区",
    "city_kana": "オカヤマシミナミク",
    "town": "泉田",
    "town_kana": "イズミダ",
    "street": null,
    "office_name": null,
    "office_name_kana": null
  },
  "0945": {
    "postcode": "7000945",
    "prefecture": "岡山県",
    "prefecture_kana": "オカヤマケン",
    "prefecture_code": 33,
    "city": "岡山市南区",
    "city_kana": "オカヤマシミナミク",
    "town": "新保",
    "town_kana": "シンボウ",
    "street": null,
    "office_name": null,
    "office_name_kana": null
  },
  "0951": {
    "postcode": "7000951",
    "prefecture": "岡山県",
    "prefecture_kana": "オカヤマケン",
    "prefecture_code": 33,
    "city": "岡山市北区",
    "city_kana": "オカヤマシキタク",
    "town": "田中",
    "town_kana": "タナカ",
    "street": null,
    "office_name": null,
    "office_name_kana": null
  },
  "0952": {
    "postcode": "7000952",
    "prefecture": "岡山県",
    "prefecture_kana": "オカヤマケン",
    "prefecture_code": 33,
    "city": "岡山市北区",
    "city_kana": "オカヤマシキタク",
    "town": "平田",
    "town_kana": "ヒラタ",
    "street": null,
    "office_name": null,
    "office_name_kana": null
  },
  "0953": [
    {
      "postcode": "7000953",
      "prefecture": "岡山県",
      "prefecture_kana": "オカヤマケン",
      "prefecture_code": 33,
      "city": "岡山市北区",
      "city_kana": "オカヤマシキタク",
      "town": "西市",
      "town_kana": "ニシイチ",
      "street": null,
      "office_name": null,
      "office_name_kana": null
    },
    {
      "postcode": "7000953",
      "prefecture": "岡山県",
      "prefecture_kana": "オカヤマケン",
      "prefecture_code": 33,
      "city": "岡山市南区",
      "city_kana": "オカヤマシミナミク",
      "town": "西市",
      "town_kana": "ニシイチ",
      "street": null,
      "office_name": null,
      "office_name_kana": null
    }
  ],
  "0954": {
    "postcode": "7000954",
    "prefecture": "岡山県",
    "prefecture_kana": "オカヤマケン",
    "prefecture_code": 33,
    "city": "岡山市南区",
    "city_kana": "オカヤマシミナミク",
    "town": "米倉",
    "town_kana": "ヨネグラ",
    "street": null,
    "office_name": null,
    "office_name_kana": null
  },
  "0955": {
    "postcode": "7000955",
    "prefecture": "岡山県",
    "prefecture_kana": "オカヤマケン",
    "prefecture_code": 33,
    "city": "岡山市南区",
    "city_kana": "オカヤマシミナミク",
    "town": "万倍",
    "town_kana": "マンバイ",
    "street": null,
    "office_name": null,
    "office_name_kana": null
  },
  "0956": {
    "postcode": "7000956",
    "prefecture": "岡山県",
    "prefecture_kana": "オカヤマケン",
    "prefecture_code": 33,
    "city": "岡山市南区",
    "city_kana": "オカヤマシミナミク",
    "town": "当新田",
    "town_kana": "トウシンデン",
    "street": null,
    "office_name": null,
    "office_name_kana": null
  },
  "0961": {
    "postcode": "7000961",
    "prefecture": "岡山県",
    "prefecture_kana": "オカヤマケン",
    "prefecture_code": 33,
    "city": "岡山市北区",
    "city_kana": "オカヤマシキタク",
    "town": "北長瀬本町",
    "town_kana": "キタナガセホンマチ",
    "street": null,
    "office_name": null,
    "office_name_kana": null
  },
  "0962": {
    "postcode": "7000962",
    "prefecture": "岡山県",
    "prefecture_kana": "オカヤマケン",
    "prefecture_code": 33,
    "city": "岡山市北区",
    "city_kana": "オカヤマシキタク",
    "town": "北長瀬表町",
    "town_kana": "キタナガセオモテマチ",
    "street": null,
    "office_name": null,
    "office_name_kana": null
  },
  "0963": {
    "postcode": "7000963",
    "prefecture": "岡山県",
    "prefecture_kana": "オカヤマケン",
    "prefecture_code": 33,
    "city": "岡山市北区",
    "city_kana": "オカヤマシキタク",
    "town": "北長瀬",
    "town_kana": "キタナガセ",
    "street": null,
    "office_name": null,
    "office_name_kana": null
  },
  "0964": {
    "postcode": "7000964",
    "prefecture": "岡山県",
    "prefecture_kana": "オカヤマケン",
    "prefecture_code": 33,
    "city": "岡山市北区",
    "city_kana": "オカヤマシキタク",
    "town": "中仙道",
    "town_kana": "ナカセンドウ",
    "street": null,
    "office_name": null,
    "office_name_kana": null
  },
  "0965": {
    "postcode": "7000965",
    "prefecture": "岡山県",
    "prefecture_kana": "オカヤマケン",
    "prefecture_code": 33,
    "city": "岡山市北区",
    "city_kana": "オカヤマシキタク",
    "town": "西長瀬",
    "town_kana": "ニシナガセ",
    "street": null,
    "office_name": null,
    "office_name_kana": null
  },
  "0966": {
    "postcode": "7000966",
    "prefecture": "岡山県",
    "prefecture_kana": "オカヤマケン",
    "prefecture_code": 33,
    "city": "岡山市北区",
    "city_kana": "オカヤマシキタク",
    "town": "日吉町",
    "town_kana": "ヒヨシチョウ",
    "street": null,
    "office_name": null,
    "office_name_kana": null
  },
  "0971": {
    "postcode": "7000971",
    "prefecture": "岡山県",
    "prefecture_kana": "オカヤマケン",
    "prefecture_code": 33,
    "city": "岡山市北区",
    "city_kana": "オカヤマシキタク",
    "town": "野田",
    "town_kana": "ノダ",
    "street": null,
    "office_name": null,
    "office_name_kana": null
  },
  "0972": {
    "postcode": "7000972",
    "prefecture": "岡山県",
    "prefecture_kana": "オカヤマケン",
    "prefecture_code": 33,
    "city": "岡山市北区",
    "city_kana": "オカヤマシキタク",
    "town": "上中野",
    "town_kana": "カミナカノ",
    "street": null,
    "office_name": null,
    "office_name_kana": null
  },
  "0973": [
    {
      "postcode": "7000973",
      "prefecture": "岡山県",
      "prefecture_kana": "オカヤマケン",
      "prefecture_code": 33,
      "city": "岡山市北区",
      "city_kana": "オカヤマシキタク",
      "town": "下中野",
      "town_kana": "シモナカノ",
      "street": null,
      "office_name": null,
      "office_name_kana": null
    },
    {
      "postcode": "7000973",
      "prefecture": "岡山県",
      "prefecture_kana": "オカヤマケン",
      "prefecture_code": 33,
      "city": "岡山市南区",
      "city_kana": "オカヤマシミナミク",
      "town": "下中野",
      "town_kana": "シモナカノ",
      "street": null,
      "office_name": null,
      "office_name_kana": null
    }
  ],
  "0974": {
    "postcode": "7000974",
    "prefecture": "岡山県",
    "prefecture_kana": "オカヤマケン",
    "prefecture_code": 33,
    "city": "岡山市北区",
    "city_kana": "オカヤマシキタク",
    "town": "今村",
    "town_kana": "イマムラ",
    "street": null,
    "office_name": null,
    "office_name_kana": null
  },
  "0975": {
    "postcode": "7000975",
    "prefecture": "岡山県",
    "prefecture_kana": "オカヤマケン",
    "prefecture_code": 33,
    "city": "岡山市北区",
    "city_kana": "オカヤマシキタク",
    "town": "今",
    "town_kana": "イマ",
    "street": null,
    "office_name": null,
    "office_name_kana": null
  },
  "0976": {
    "postcode": "7000976",
    "prefecture": "岡山県",
    "prefecture_kana": "オカヤマケン",
    "prefecture_code": 33,
    "city": "岡山市北区",
    "city_kana": "オカヤマシキタク",
    "town": "辰巳",
    "town_kana": "タツミ",
    "street": null,
    "office_name": null,
    "office_name_kana": null
  },
  "0977": {
    "postcode": "7000977",
    "prefecture": "岡山県",
    "prefecture_kana": "オカヤマケン",
    "prefecture_code": 33,
    "city": "岡山市北区",
    "city_kana": "オカヤマシキタク",
    "town": "問屋町",
    "town_kana": "トイヤチョウ",
    "street": null,
    "office_name": null,
    "office_name_kana": null
  },
  "0981": {
    "postcode": "7000981",
    "prefecture": "岡山県",
    "prefecture_kana": "オカヤマケン",
    "prefecture_code": 33,
    "city": "岡山市北区",
    "city_kana": "オカヤマシキタク",
    "town": "西島田町",
    "town_kana": "ニシシマダチョウ",
    "street": null,
    "office_name": null,
    "office_name_kana": null
  },
  "0982": {
    "postcode": "7000982",
    "prefecture": "岡山県",
    "prefecture_kana": "オカヤマケン",
    "prefecture_code": 33,
    "city": "岡山市北区",
    "city_kana": "オカヤマシキタク",
    "town": "中島田町",
    "town_kana": "ナカシマダチョウ",
    "street": null,
    "office_name": null,
    "office_name_kana": null
  },
  "0983": {
    "postcode": "7000983",
    "prefecture": "岡山県",
    "prefecture_kana": "オカヤマケン",
    "prefecture_code": 33,
    "city": "岡山市北区",
    "city_kana": "オカヤマシキタク",
    "town": "東島田町",
    "town_kana": "ヒガシシマダチョウ",
    "street": null,
    "office_name": null,
    "office_name_kana": null
  },
  "0984": {
    "postcode": "7000984",
    "prefecture": "岡山県",
    "prefecture_kana": "オカヤマケン",
    "prefecture_code": 33,
    "city": "岡山市北区",
    "city_kana": "オカヤマシキタク",
    "town": "桑田町",
    "town_kana": "クワダチョウ",
    "street": null,
    "office_name": null,
    "office_name_kana": null
  },
  "0985": {
    "postcode": "7000985",
    "prefecture": "岡山県",
    "prefecture_kana": "オカヤマケン",
    "prefecture_code": 33,
    "city": "岡山市北区",
    "city_kana": "オカヤマシキタク",
    "town": "厚生町",
    "town_kana": "コウセイチョウ",
    "street": null,
    "office_name": null,
    "office_name_kana": null
  },
  "0986": {
    "postcode": "7000986",
    "prefecture": "岡山県",
    "prefecture_kana": "オカヤマケン",
    "prefecture_code": 33,
    "city": "岡山市北区",
    "city_kana": "オカヤマシキタク",
    "town": "新屋敷町",
    "town_kana": "シンヤシキチョウ",
    "street": null,
    "office_name": null,
    "office_name_kana": null
  },
  "8501": {
    "postcode": "7008501",
    "prefecture": "岡山県",
    "prefecture_kana": "オカヤマケン",
    "prefecture_code": 33,
    "city": "岡山市北区",
    "city_kana": "オカヤマシキタク",
    "town": "新屋敷町",
    "town_kana": "シンヤシキチョウ",
    "street": "１−１−１８山陽新聞社新聞製作センタービル５階",
    "office_name": "日本年金機構　中国ブロック本部　岡山広域事務センター",
    "office_name_kana": "ニツポンネンキンキコウ チユウゴクブロツクホンブ オカヤマコウイキジムセンタ-"
  },
  "8502": {
    "postcode": "7008502",
    "prefecture": "岡山県",
    "prefecture_kana": "オカヤマケン",
    "prefecture_code": 33,
    "city": "岡山市北区",
    "city_kana": "オカヤマシキタク",
    "town": "岡町",
    "town_kana": "オカマチ",
    "street": "１３−１６",
    "office_name": "株式会社　天満屋ストア",
    "office_name_kana": "カブシキガイシヤ テンマヤストア"
  },
  "8503": {
    "postcode": "7008503",
    "prefecture": "岡山県",
    "prefecture_kana": "オカヤマケン",
    "prefecture_code": 33,
    "city": "岡山市南区",
    "city_kana": "オカヤマシミナミク",
    "town": "西市",
    "town_kana": "ニシイチ",
    "street": "１１４番地２",
    "office_name": "西日本メディカルリンク　株式会社",
    "office_name_kana": "ニシニホンメデイカルリンク カブシキガイシヤ"
  },
  "8504": {
    "postcode": "7008504",
    "prefecture": "岡山県",
    "prefecture_kana": "オカヤマケン",
    "prefecture_code": 33,
    "city": "岡山市南区",
    "city_kana": "オカヤマシミナミク",
    "town": "豊成",
    "town_kana": "トヨナリ",
    "street": "二丁目７番１６号",
    "office_name": "株式会社　両備システムズ　豊成事業所",
    "office_name_kana": "カブシキガイシヤ リヨウビシステムズ トヨナリジギヨウシヨ"
  },
  "8505": {
    "postcode": "7008505",
    "prefecture": "岡山県",
    "prefecture_kana": "オカヤマケン",
    "prefecture_code": 33,
    "city": "岡山市北区",
    "city_kana": "オカヤマシキタク",
    "town": "中山下",
    "town_kana": "ナカサンゲ",
    "street": "二丁目６番１号",
    "office_name": "川崎医科大学総合医療センター",
    "office_name_kana": "カワサキイカダイガクソウゴウイリヨウセンタ-"
  },
  "8506": {
    "postcode": "7008506",
    "prefecture": "岡山県",
    "prefecture_kana": "オカヤマケン",
    "prefecture_code": 33,
    "city": "岡山市北区",
    "city_kana": "オカヤマシキタク",
    "town": "本町",
    "town_kana": "ホンマチ",
    "street": "６−３６第一セントラルビル",
    "office_name": "全国健康保険協会　岡山支部",
    "office_name_kana": "ゼンコクケンコウホケンキヨウカイ オカヤマシブ"
  },
  "8507": {
    "postcode": "7008507",
    "prefecture": "岡山県",
    "prefecture_kana": "オカヤマケン",
    "prefecture_code": 33,
    "city": "岡山市北区",
    "city_kana": "オカヤマシキタク",
    "town": "青江",
    "town_kana": "アオエ",
    "street": "２丁目６−５１",
    "office_name": "中国電力　株式会社　岡山営業所",
    "office_name_kana": "チユウゴクデンリヨク カブシキガイシヤ オカヤマエイギヨウシヨ"
  },
  "8508": {
    "postcode": "7008508",
    "prefecture": "岡山県",
    "prefecture_kana": "オカヤマケン",
    "prefecture_code": 33,
    "city": "岡山市北区",
    "city_kana": "オカヤマシキタク",
    "town": "下石井",
    "town_kana": "シモイシイ",
    "street": "二丁目１０番１２号杜の街グレースオフィススクエア",
    "office_name": "株式会社　両備システムズ",
    "office_name_kana": "カブシキガイシヤ リヨウビシステムズ"
  },
  "8510": {
    "postcode": "7008510",
    "prefecture": "岡山県",
    "prefecture_kana": "オカヤマケン",
    "prefecture_code": 33,
    "city": "岡山市北区",
    "city_kana": "オカヤマシキタク",
    "town": "表町",
    "town_kana": "オモテチョウ",
    "street": "１丁目１１番２８号",
    "office_name": "ＵＦＪニコス　株式会社　中四国営業部",
    "office_name_kana": "ユ-エフジエイニコス カブシキガイシヤ チユウシコクエイギヨウブ"
  },
  "8511": {
    "postcode": "7008511",
    "prefecture": "岡山県",
    "prefecture_kana": "オカヤマケン",
    "prefecture_code": 33,
    "city": "岡山市北区",
    "city_kana": "オカヤマシキタク",
    "town": "国体町",
    "town_kana": "コクタイチョウ",
    "street": "２番２５号",
    "office_name": "岡山済生会総合病院",
    "office_name_kana": "オカヤマサイセイカイソウゴウビヨウイン"
  },
  "8512": {
    "postcode": "7008512",
    "prefecture": "岡山県",
    "prefecture_kana": "オカヤマケン",
    "prefecture_code": 33,
    "city": "岡山市北区",
    "city_kana": "オカヤマシキタク",
    "town": "内山下",
    "town_kana": "ウチサンゲ",
    "street": "２丁目４−６",
    "office_name": "岡山県警察本部",
    "office_name_kana": "オカヤマケンケイサツホンブ"
  },
  "8514": {
    "postcode": "7008514",
    "prefecture": "岡山県",
    "prefecture_kana": "オカヤマケン",
    "prefecture_code": 33,
    "city": "岡山市北区",
    "city_kana": "オカヤマシキタク",
    "town": "野田",
    "town_kana": "ノダ",
    "street": "３丁目１１−１５",
    "office_name": "株式会社　シバタ　岡山支店",
    "office_name_kana": "カブシキガイシヤ シバタ オカヤマシテン"
  },
  "8515": {
    "postcode": "7008515",
    "prefecture": "岡山県",
    "prefecture_kana": "オカヤマケン",
    "prefecture_code": 33,
    "city": "岡山市北区",
    "city_kana": "オカヤマシキタク",
    "town": "駅元町",
    "town_kana": "エキモトマチ",
    "street": "１−５",
    "office_name": "株式会社　ホテルグランヴィア岡山",
    "office_name_kana": "カブシキガイシヤ ホテルグランヴイアオカヤマ"
  },
  "8516": {
    "postcode": "7008516",
    "prefecture": "岡山県",
    "prefecture_kana": "オカヤマケン",
    "prefecture_code": 33,
    "city": "岡山市北区",
    "city_kana": "オカヤマシキタク",
    "town": "伊福町",
    "town_kana": "イフクチョウ",
    "street": "２丁目１６−９",
    "office_name": "ノートルダム清心女子大学",
    "office_name_kana": "ノ-トルダムセイシンジヨシダイガク"
  },
  "8517": {
    "postcode": "7008517",
    "prefecture": "岡山県",
    "prefecture_kana": "オカヤマケン",
    "prefecture_code": 33,
    "city": "岡山市北区",
    "city_kana": "オカヤマシキタク",
    "town": "下石井",
    "town_kana": "シモイシイ",
    "street": "１丁目４−１岡山第２合同庁舎２Ｆ",
    "office_name": "自衛隊　岡山地方連絡部",
    "office_name_kana": "ジエイタイ オカヤマチホウレンラクブ"
  },
  "8518": {
    "postcode": "7008518",
    "prefecture": "岡山県",
    "prefecture_kana": "オカヤマケン",
    "prefecture_code": 33,
    "city": "岡山市北区",
    "city_kana": "オカヤマシキタク",
    "town": "下石井",
    "town_kana": "シモイシイ",
    "street": "二丁目１０番１２号杜の街グレースオフィススクエア",
    "office_name": "両備ホールディングス　株式会社",
    "office_name_kana": "リヨウビホ-ルデイングス カブシキガイシヤ"
  },
  "8519": {
    "postcode": "7008519",
    "prefecture": "岡山県",
    "prefecture_kana": "オカヤマケン",
    "prefecture_code": 33,
    "city": "岡山市北区",
    "city_kana": "オカヤマシキタク",
    "town": "中山下",
    "town_kana": "ナカサンゲ",
    "street": "２丁目１番９０号",
    "office_name": "西日本電信電話　株式会社　岡山支店",
    "office_name_kana": "ニシニホンデンシンデンワ カブシキガイシヤ オカヤマシテン"
  },
  "8520": {
    "postcode": "7008520",
    "prefecture": "岡山県",
    "prefecture_kana": "オカヤマケン",
    "prefecture_code": 33,
    "city": "岡山市北区",
    "city_kana": "オカヤマシキタク",
    "town": "本町",
    "town_kana": "ホンマチ",
    "street": "６−４０",
    "office_name": "株式会社　岡山高島屋",
    "office_name_kana": "カブシキガイシヤ オカヤマタカシマヤ"
  },
  "8521": {
    "postcode": "7008521",
    "prefecture": "岡山県",
    "prefecture_kana": "オカヤマケン",
    "prefecture_code": 33,
    "city": "岡山市北区",
    "city_kana": "オカヤマシキタク",
    "town": "幸町",
    "town_kana": "サイワイチョウ",
    "street": "８番２９号",
    "office_name": "大樹生命保険　株式会社",
    "office_name_kana": "タイジユセイメイホケン カブシキガイシヤ"
  },
  "8522": {
    "postcode": "7008522",
    "prefecture": "岡山県",
    "prefecture_kana": "オカヤマケン",
    "prefecture_code": 33,
    "city": "岡山市北区",
    "city_kana": "オカヤマシキタク",
    "town": "磨屋町",
    "town_kana": "トギヤチョウ",
    "street": "１０番２０号磨屋町ビル５Ｆ",
    "office_name": "財団法人　社会保険健康事業財団　岡山県支部",
    "office_name_kana": "ザイダンホウジン シヤカイホケンケンコウジギヨウザイダン オカヤマケンシブ"
  },
  "8525": {
    "postcode": "7008525",
    "prefecture": "岡山県",
    "prefecture_kana": "オカヤマケン",
    "prefecture_code": 33,
    "city": "岡山市北区",
    "city_kana": "オカヤマシキタク",
    "town": "鹿田町",
    "town_kana": "シカタチョウ",
    "street": "２丁目５番１号",
    "office_name": "岡山大学大学院　医歯薬学総合研究科（歯学部）、岡山大学病院（歯科）",
    "office_name_kana": "オカヤマダイガクダイガクイン イシヤクガクソウゴウケンキユウカ(シガクブ)、オカヤマダイガクビヨウイン(シカ)"
  },
  "8526": {
    "postcode": "7008526",
    "prefecture": "岡山県",
    "prefecture_kana": "オカヤマケン",
    "prefecture_code": 33,
    "city": "岡山市北区",
    "city_kana": "オカヤマシキタク",
    "town": "問屋町",
    "town_kana": "トイヤチョウ",
    "street": "７−１０１",
    "office_name": "株式会社　岡山文具",
    "office_name_kana": "カブシキガイシヤ オカヤマブング"
  },
  "8528": {
    "postcode": "7008528",
    "prefecture": "岡山県",
    "prefecture_kana": "オカヤマケン",
    "prefecture_code": 33,
    "city": "岡山市北区",
    "city_kana": "オカヤマシキタク",
    "town": "今",
    "town_kana": "イマ",
    "street": "１丁目４−３１",
    "office_name": "株式会社　カワニシ",
    "office_name_kana": "カブシキガイシヤ カワニシ"
  },
  "8530": {
    "postcode": "7008530",
    "prefecture": "岡山県",
    "prefecture_kana": "オカヤマケン",
    "prefecture_code": 33,
    "city": "岡山市北区",
    "city_kana": "オカヤマシキタク",
    "town": "津島中",
    "town_kana": "ツシマナカ",
    "street": "１丁目１−１",
    "office_name": "岡山大学",
    "office_name_kana": "オカヤマダイガク"
  },
  "8531": {
    "postcode": "7008531",
    "prefecture": "岡山県",
    "prefecture_kana": "オカヤマケン",
    "prefecture_code": 33,
    "city": "岡山市北区",
    "city_kana": "オカヤマシキタク",
    "town": "柳町",
    "town_kana": "ヤナギマチ",
    "street": "１丁目１２−１",
    "office_name": "三井住友海上火災保険　株式会社　岡山自動車営業部",
    "office_name_kana": "ミツイスミトモカイジヨウカサイホケン カブシキガイシヤ オカヤマジドウシヤエイギヨウブ"
  },
  "8532": {
    "postcode": "7008532",
    "prefecture": "岡山県",
    "prefecture_kana": "オカヤマケン",
    "prefecture_code": 33,
    "city": "岡山市北区",
    "city_kana": "オカヤマシキタク",
    "town": "下石井",
    "town_kana": "シモイシイ",
    "street": "１丁目４−１岡山第２合同庁舎",
    "office_name": "中国四国農政局",
    "office_name_kana": "チユウゴクシコクノウセイキヨク"
  },
  "8533": {
    "postcode": "7008533",
    "prefecture": "岡山県",
    "prefecture_kana": "オカヤマケン",
    "prefecture_code": 33,
    "city": "岡山市北区",
    "city_kana": "オカヤマシキタク",
    "town": "新屋敷町",
    "town_kana": "シンヤシキチョウ",
    "street": "２丁目１−１６",
    "office_name": "岡山県　社会保険診療報酬支払基金",
    "office_name_kana": "オカヤマケン シヤカイホケンシンリヨウホウシシユウシハライキキン"
  },
  "8534": {
    "postcode": "7008534",
    "prefecture": "岡山県",
    "prefecture_kana": "オカヤマケン",
    "prefecture_code": 33,
    "city": "岡山市北区",
    "city_kana": "オカヤマシキタク",
    "town": "柳町",
    "town_kana": "ヤナギマチ",
    "street": "２丁目１番１号",
    "office_name": "株式会社　山陽新聞社　編集局",
    "office_name_kana": "カブシキガイシヤ サンヨウシンブンシヤ ヘンシユウキヨク"
  },
  "8535": {
    "postcode": "7008535",
    "prefecture": "岡山県",
    "prefecture_kana": "オカヤマケン",
    "prefecture_code": 33,
    "city": "岡山市北区",
    "city_kana": "オカヤマシキタク",
    "town": "大供表町",
    "town_kana": "ダイクオモテマチ",
    "street": "１−１",
    "office_name": "岡山市　農業協同組合",
    "office_name_kana": "オカヤマシノウギヨウキヨウドウクミアイ"
  },
  "8538": {
    "postcode": "7008538",
    "prefecture": "岡山県",
    "prefecture_kana": "オカヤマケン",
    "prefecture_code": 33,
    "city": "岡山市北区",
    "city_kana": "オカヤマシキタク",
    "town": "表町",
    "town_kana": "オモテチョウ",
    "street": "２丁目１−６７ＳＭＫ会館３Ｆ",
    "office_name": "株式会社　トミヤコーポレーション",
    "office_name_kana": "カブシキガイシヤ トミヤコ-ポレ-シヨン"
  },
  "8539": {
    "postcode": "7008539",
    "prefecture": "岡山県",
    "prefecture_kana": "オカヤマケン",
    "prefecture_code": 33,
    "city": "岡山市北区",
    "city_kana": "オカヤマシキタク",
    "town": "富町",
    "town_kana": "トミマチ",
    "street": "２丁目１９−１２",
    "office_name": "中国地方整備局　岡山国道事務所",
    "office_name_kana": "チユウゴクチホウセイビキヨク オカヤマコクドウジムシヨ"
  },
  "8540": {
    "postcode": "7008540",
    "prefecture": "岡山県",
    "prefecture_kana": "オカヤマケン",
    "prefecture_code": 33,
    "city": "岡山市北区",
    "city_kana": "オカヤマシキタク",
    "town": "天瀬",
    "town_kana": "アマセ",
    "street": "４−３３",
    "office_name": "株式会社　荒木組",
    "office_name_kana": "カブシキガイシヤ アラキグミ"
  },
  "8544": {
    "postcode": "7008544",
    "prefecture": "岡山県",
    "prefecture_kana": "オカヤマケン",
    "prefecture_code": 33,
    "city": "岡山市北区",
    "city_kana": "オカヤマシキタク",
    "town": "大供",
    "town_kana": "ダイク",
    "street": "１丁目１−１",
    "office_name": "岡山市役所",
    "office_name_kana": "オカヤマシヤクシヨ"
  },
  "8545": {
    "postcode": "7008545",
    "prefecture": "岡山県",
    "prefecture_kana": "オカヤマケン",
    "prefecture_code": 33,
    "city": "岡山市北区",
    "city_kana": "オカヤマシキタク",
    "town": "大供",
    "town_kana": "ダイク",
    "street": "２丁目３−１０",
    "office_name": "株式会社　金辺商会",
    "office_name_kana": "カブシキガイシヤ カナベシヨウカイ"
  },
  "8546": {
    "postcode": "7008546",
    "prefecture": "岡山県",
    "prefecture_kana": "オカヤマケン",
    "prefecture_code": 33,
    "city": "岡山市北区",
    "city_kana": "オカヤマシキタク",
    "town": "鹿田町",
    "town_kana": "シカタチョウ",
    "street": "１丁目１−１",
    "office_name": "岡山市保健福祉会館",
    "office_name_kana": "オカヤマシホケンフクシカイカン"
  },
  "8549": {
    "postcode": "7008549",
    "prefecture": "岡山県",
    "prefecture_kana": "オカヤマケン",
    "prefecture_code": 33,
    "city": "岡山市北区",
    "city_kana": "オカヤマシキタク",
    "town": "高柳東町",
    "town_kana": "タカヤナギヒガシマチ",
    "street": "１０−２７",
    "office_name": "コーホク印刷　株式会社",
    "office_name_kana": "コ-ホクインサツ カブシキガイシヤ"
  },
  "8550": {
    "postcode": "7008550",
    "prefecture": "岡山県",
    "prefecture_kana": "オカヤマケン",
    "prefecture_code": 33,
    "city": "岡山市北区",
    "city_kana": "オカヤマシキタク",
    "town": "内山下",
    "town_kana": "ウチサンゲ",
    "street": "１丁目１−１３",
    "office_name": "株式会社　大本組",
    "office_name_kana": "カブシキガイシヤ オオモトグミ"
  },
  "8551": {
    "postcode": "7008551",
    "prefecture": "岡山県",
    "prefecture_kana": "オカヤマケン",
    "prefecture_code": 33,
    "city": "岡山市南区",
    "city_kana": "オカヤマシミナミク",
    "town": "西市",
    "town_kana": "ニシイチ",
    "street": "４３３−４",
    "office_name": "旭電業　株式会社",
    "office_name_kana": "アサヒデンギヨウ カブシキガイシヤ"
  },
  "8552": {
    "postcode": "7008552",
    "prefecture": "岡山県",
    "prefecture_kana": "オカヤマケン",
    "prefecture_code": 33,
    "city": "岡山市北区",
    "city_kana": "オカヤマシキタク",
    "town": "駅前町",
    "town_kana": "エキマエチョウ",
    "street": "１丁目３−３",
    "office_name": "（株）　三好野本店えきまえミヨシノ",
    "office_name_kana": "(カブ) ミヨシノホンテンエキマエミヨシノ"
  },
  "8554": {
    "postcode": "7008554",
    "prefecture": "岡山県",
    "prefecture_kana": "オカヤマケン",
    "prefecture_code": 33,
    "city": "岡山市北区",
    "city_kana": "オカヤマシキタク",
    "town": "大供",
    "town_kana": "ダイク",
    "street": "１丁目２番３号",
    "office_name": "岡山市役所　（分庁舎）",
    "office_name_kana": "オカヤマシヤクシヨ (ブンチヨウシヤ)"
  },
  "8555": {
    "postcode": "7008555",
    "prefecture": "岡山県",
    "prefecture_kana": "オカヤマケン",
    "prefecture_code": 33,
    "city": "岡山市北区",
    "city_kana": "オカヤマシキタク",
    "town": "桑田町",
    "town_kana": "クワダチョウ",
    "street": "１−３６",
    "office_name": "中国財務局　岡山財務事務所",
    "office_name_kana": "チユウゴクザイムキヨク オカヤマザイムジムシヨ"
  },
  "8556": {
    "postcode": "7008556",
    "prefecture": "岡山県",
    "prefecture_kana": "オカヤマケン",
    "prefecture_code": 33,
    "city": "岡山市北区",
    "city_kana": "オカヤマシキタク",
    "town": "厚生町",
    "town_kana": "コウセイチョウ",
    "street": "３丁目１−１５",
    "office_name": "岡山商工会議所",
    "office_name_kana": "オカヤマシヨウコウカイギシヨ"
  },
  "8557": {
    "postcode": "7008557",
    "prefecture": "岡山県",
    "prefecture_kana": "オカヤマケン",
    "prefecture_code": 33,
    "city": "岡山市北区",
    "city_kana": "オカヤマシキタク",
    "town": "北長瀬表町",
    "town_kana": "キタナガセオモテマチ",
    "street": "三丁目２０番１号",
    "office_name": "岡山市立市民病院",
    "office_name_kana": "オカヤマシリツシミンビヨウイン"
  },
  "8558": {
    "postcode": "7008558",
    "prefecture": "岡山県",
    "prefecture_kana": "オカヤマケン",
    "prefecture_code": 33,
    "city": "岡山市北区",
    "city_kana": "オカヤマシキタク",
    "town": "鹿田町",
    "town_kana": "シカタチョウ",
    "street": "２丁目５番１号",
    "office_name": "岡山大学大学院　医歯薬学総合研究科（医学部）、岡山大学病院（医科）",
    "office_name_kana": "オカヤマダイガクダイガクイン イシヤクガクソウゴウケンキユウカ(イガクブ)、オカヤマダイガクビヨウイン(イカ)"
  },
  "8560": {
    "postcode": "7008560",
    "prefecture": "岡山県",
    "prefecture_kana": "オカヤマケン",
    "prefecture_code": 33,
    "city": "岡山市北区",
    "city_kana": "オカヤマシキタク",
    "town": "南中央町",
    "town_kana": "ミナミチュウオウチョウ",
    "street": "１２−１６",
    "office_name": "浅野産業　株式会社",
    "office_name_kana": "アサノサンギヨウ カブシキガイシヤ"
  },
  "8561": {
    "postcode": "7008561",
    "prefecture": "岡山県",
    "prefecture_kana": "オカヤマケン",
    "prefecture_code": 33,
    "city": "岡山市北区",
    "city_kana": "オカヤマシキタク",
    "town": "幸町",
    "town_kana": "サイワイチョウ",
    "street": "７−６",
    "office_name": "株式会社　マイカル岡山ビブレ",
    "office_name_kana": "カブシキガイシヤ マイカルオカヤマビブレ"
  },
  "8562": {
    "postcode": "7008562",
    "prefecture": "岡山県",
    "prefecture_kana": "オカヤマケン",
    "prefecture_code": 33,
    "city": "岡山市北区",
    "city_kana": "オカヤマシキタク",
    "town": "問屋町",
    "town_kana": "トイヤチョウ",
    "street": "１０−１０１",
    "office_name": "株式会社　カイタックトレーディング　問屋町",
    "office_name_kana": "カブシキガイシヤ カイタツクトレ-デイング トイヤチヨウ"
  },
  "8567": {
    "postcode": "7008567",
    "prefecture": "岡山県",
    "prefecture_kana": "オカヤマケン",
    "prefecture_code": 33,
    "city": "岡山市北区",
    "city_kana": "オカヤマシキタク",
    "town": "青江",
    "town_kana": "アオエ",
    "street": "１丁目２２−３３",
    "office_name": "社団法人　岡山トラック協会",
    "office_name_kana": "シヤダンホウジン オカヤマケントラツクキヨウカイ"
  },
  "8568": {
    "postcode": "7008568",
    "prefecture": "岡山県",
    "prefecture_kana": "オカヤマケン",
    "prefecture_code": 33,
    "city": "岡山市北区",
    "city_kana": "オカヤマシキタク",
    "town": "桑田町",
    "town_kana": "クワダチョウ",
    "street": "１７−５",
    "office_name": "岡山県国民健康保険団体連合会",
    "office_name_kana": "オカヤマケンコクミンケンコウホケンダンタイレンゴウカイ"
  },
  "8569": {
    "postcode": "7008569",
    "prefecture": "岡山県",
    "prefecture_kana": "オカヤマケン",
    "prefecture_code": 33,
    "city": "岡山市北区",
    "city_kana": "オカヤマシキタク",
    "town": "駅元町",
    "town_kana": "エキモトマチ",
    "street": "６番２６号",
    "office_name": "こくみん共済ｃｏｏｐ岡山推進本部",
    "office_name_kana": "コクミンキヨウサイコ-プオカヤマスイシンホンブ"
  },
  "8570": {
    "postcode": "7008570",
    "prefecture": "岡山県",
    "prefecture_kana": "オカヤマケン",
    "prefecture_code": 33,
    "city": "岡山市北区",
    "city_kana": "オカヤマシキタク",
    "town": "内山下",
    "town_kana": "ウチサンゲ",
    "street": "２丁目４−６",
    "office_name": "岡山県庁",
    "office_name_kana": "オカヤマケンチヨウ"
  },
  "8571": {
    "postcode": "7008571",
    "prefecture": "岡山県",
    "prefecture_kana": "オカヤマケン",
    "prefecture_code": 33,
    "city": "岡山市北区",
    "city_kana": "オカヤマシキタク",
    "town": "中央町",
    "town_kana": "チュウオウチョウ",
    "street": "３番１９号",
    "office_name": "あいおいニッセイ同和損害保険　株式会社",
    "office_name_kana": "アイオイニツセイドウワソンガイホケン カブシキガイシヤ"
  },
  "8572": {
    "postcode": "7008572",
    "prefecture": "岡山県",
    "prefecture_kana": "オカヤマケン",
    "prefecture_code": 33,
    "city": "岡山市北区",
    "city_kana": "オカヤマシキタク",
    "town": "昭和町",
    "town_kana": "ショウワチョウ",
    "street": "１２番７号",
    "office_name": "日本年金機構　岡山西年金事務所",
    "office_name_kana": "ニツポンネンキンキコウ オカヤマニシネンキンジムシヨ"
  },
  "8575": {
    "postcode": "7008575",
    "prefecture": "岡山県",
    "prefecture_kana": "オカヤマケン",
    "prefecture_code": 33,
    "city": "岡山市北区",
    "city_kana": "オカヤマシキタク",
    "town": "磨屋町",
    "town_kana": "トギヤチョウ",
    "street": "１０−１２交通オアシスビル",
    "office_name": "富士通　（株）　Ｏｋａｙａｍａ　Ｈｕｂ",
    "office_name_kana": "フジツウ (カブ) オカヤマハブ"
  },
  "8577": {
    "postcode": "7008577",
    "prefecture": "岡山県",
    "prefecture_kana": "オカヤマケン",
    "prefecture_code": 33,
    "city": "岡山市北区",
    "city_kana": "オカヤマシキタク",
    "town": "今",
    "town_kana": "イマ",
    "street": "１丁目３番９号",
    "office_name": "高塚ライフサイエンス　株式会社",
    "office_name_kana": "タカツカライフサイエンス カブシキガイシヤ"
  },
  "8578": {
    "postcode": "7008578",
    "prefecture": "岡山県",
    "prefecture_kana": "オカヤマケン",
    "prefecture_code": 33,
    "city": "岡山市北区",
    "city_kana": "オカヤマシキタク",
    "town": "下石井",
    "town_kana": "シモイシイ",
    "street": "２丁目岡山第一生命ビル４Ｆ",
    "office_name": "株式会社　タビックスジャパン　岡山支店",
    "office_name_kana": "カブシキガイシヤ タビツクスジヤパン オカヤマシテン"
  },
  "8580": {
    "postcode": "7008580",
    "prefecture": "岡山県",
    "prefecture_kana": "オカヤマケン",
    "prefecture_code": 33,
    "city": "岡山市北区",
    "city_kana": "オカヤマシキタク",
    "town": "天神町",
    "town_kana": "テンジンチョウ",
    "street": "９−２４（岡山中央郵便局私書箱第６１号）",
    "office_name": "ＲＳＫ山陽放送　株式会社",
    "office_name_kana": "ア-ルエスケイサンヨウホウソウ カブシキガイシヤ"
  },
  "8581": {
    "postcode": "7008581",
    "prefecture": "岡山県",
    "prefecture_kana": "オカヤマケン",
    "prefecture_code": 33,
    "city": "岡山市北区",
    "city_kana": "オカヤマシキタク",
    "town": "大供",
    "town_kana": "ダイク",
    "street": "３丁目１−１８",
    "office_name": "株式会社　瀬戸内海放送　岡山本社",
    "office_name_kana": "カブシキガイシヤ セトナイカイホウソウ オカヤマホンシヤ"
  },
  "8584": {
    "postcode": "7008584",
    "prefecture": "岡山県",
    "prefecture_kana": "オカヤマケン",
    "prefecture_code": 33,
    "city": "岡山市北区",
    "city_kana": "オカヤマシキタク",
    "town": "磨屋町",
    "town_kana": "トギヤチョウ",
    "street": "２−１８",
    "office_name": "真言宗　薬師院",
    "office_name_kana": "シンゴンシユウ ヤクシイン"
  },
  "8585": {
    "postcode": "7008585",
    "prefecture": "岡山県",
    "prefecture_kana": "オカヤマケン",
    "prefecture_code": 33,
    "city": "岡山市北区",
    "city_kana": "オカヤマシキタク",
    "town": "柳町",
    "town_kana": "ヤナギマチ",
    "street": "２丁目１１−１９",
    "office_name": "東京海上日動火災保険　株式会社　岡山支店",
    "office_name_kana": "トウキヨウカイジヨウニチドウカサイホケン カブシキガイシヤ オカヤマシテン"
  },
  "8586": {
    "postcode": "7008586",
    "prefecture": "岡山県",
    "prefecture_kana": "オカヤマケン",
    "prefecture_code": 33,
    "city": "岡山市北区",
    "city_kana": "オカヤマシキタク",
    "town": "昭和町",
    "town_kana": "ショウワチョウ",
    "street": "３番１２号",
    "office_name": "株式会社　カイタックホールディングス",
    "office_name_kana": "カブシキガイシヤ カイタツクホ-ルデイングス"
  },
  "8589": {
    "postcode": "7008589",
    "prefecture": "岡山県",
    "prefecture_kana": "オカヤマケン",
    "prefecture_code": 33,
    "city": "岡山市北区",
    "city_kana": "オカヤマシキタク",
    "town": "表町",
    "town_kana": "オモテチョウ",
    "street": "２丁目５−３９",
    "office_name": "ワールドトレーディングサービス＆Ｃｏ",
    "office_name_kana": "ワ-ルドトレ-デイングサ-ビスアンドシ-オ-"
  },
  "8601": {
    "postcode": "7008601",
    "prefecture": "岡山県",
    "prefecture_kana": "オカヤマケン",
    "prefecture_code": 33,
    "city": "岡山市北区",
    "city_kana": "オカヤマシキタク",
    "town": "津島京町",
    "town_kana": "ツシマキョウマチ",
    "street": "２丁目１０−１",
    "office_name": "岡山商科大学",
    "office_name_kana": "オカヤマシヨウカダイガク"
  },
  "8602": {
    "postcode": "7008602",
    "prefecture": "岡山県",
    "prefecture_kana": "オカヤマケン",
    "prefecture_code": 33,
    "city": "岡山市北区",
    "city_kana": "オカヤマシキタク",
    "town": "桑田町",
    "town_kana": "クワダチョウ",
    "street": "１番３０号",
    "office_name": "岡山県農業共済組合",
    "office_name_kana": "オカヤマケンノウギヨウキヨウサイクミアイ"
  },
  "8603": {
    "postcode": "7008603",
    "prefecture": "岡山県",
    "prefecture_kana": "オカヤマケン",
    "prefecture_code": 33,
    "city": "岡山市北区",
    "city_kana": "オカヤマシキタク",
    "town": "十日市西町",
    "town_kana": "トウカイチニシマチ",
    "street": "１番１１号",
    "office_name": "岡山食品容器　株式会社",
    "office_name_kana": "オカヤマシヨクヒンヨウキ カブシキガイシヤ"
  },
  "8604": {
    "postcode": "7008604",
    "prefecture": "岡山県",
    "prefecture_kana": "オカヤマケン",
    "prefecture_code": 33,
    "city": "岡山市北区",
    "city_kana": "オカヤマシキタク",
    "town": "弓之町",
    "town_kana": "ユミノチョウ",
    "street": "６−１",
    "office_name": "岡山県　備前県民局",
    "office_name_kana": "オカヤマケン ビゼンケンミンキヨク"
  },
  "8605": {
    "postcode": "7008605",
    "prefecture": "岡山県",
    "prefecture_kana": "オカヤマケン",
    "prefecture_code": 33,
    "city": "岡山市南区",
    "city_kana": "オカヤマシミナミク",
    "town": "新福",
    "town_kana": "シンプク",
    "street": "１丁目５−６",
    "office_name": "新生電機　株式会社",
    "office_name_kana": "シンセイデンキ カブシキガイシヤ"
  },
  "8606": {
    "postcode": "7008606",
    "prefecture": "岡山県",
    "prefecture_kana": "オカヤマケン",
    "prefecture_code": 33,
    "city": "岡山市北区",
    "city_kana": "オカヤマシキタク",
    "town": "田中",
    "town_kana": "タナカ",
    "street": "１０６−１０９",
    "office_name": "大和流通システム　株式会社",
    "office_name_kana": "ダイワリユウツウシステム カブシキガイシヤ"
  },
  "8607": {
    "postcode": "7008607",
    "prefecture": "岡山県",
    "prefecture_kana": "オカヤマケン",
    "prefecture_code": 33,
    "city": "岡山市北区",
    "city_kana": "オカヤマシキタク",
    "town": "青江",
    "town_kana": "アオエ",
    "street": "２丁目１−１",
    "office_name": "総合病院　岡山赤十字病院",
    "office_name_kana": "ソウゴウビヨウイン オカヤマセキジユウジビヨウイン"
  },
  "8608": {
    "postcode": "7008608",
    "prefecture": "岡山県",
    "prefecture_kana": "オカヤマケン",
    "prefecture_code": 33,
    "city": "岡山市北区",
    "city_kana": "オカヤマシキタク",
    "town": "鹿田町",
    "town_kana": "シカタチョウ",
    "street": "１丁目３−１６",
    "office_name": "蜂谷工業　株式会社",
    "office_name_kana": "ハチヤコウギヨウ カブシキガイシヤ"
  },
  "8610": {
    "postcode": "7008610",
    "prefecture": "岡山県",
    "prefecture_kana": "オカヤマケン",
    "prefecture_code": 33,
    "city": "岡山市北区",
    "city_kana": "オカヤマシキタク",
    "town": "厚生町",
    "town_kana": "コウセイチョウ",
    "street": "２丁目３−２３",
    "office_name": "株式会社　イーオン",
    "office_name_kana": "カブシキガイシヤ イ-オン"
  },
  "8611": {
    "postcode": "7008611",
    "prefecture": "岡山県",
    "prefecture_kana": "オカヤマケン",
    "prefecture_code": 33,
    "city": "岡山市北区",
    "city_kana": "オカヤマシキタク",
    "town": "下石井",
    "town_kana": "シモイシイ",
    "street": "１丁目４−１岡山第２合同庁舎",
    "office_name": "岡山労働局",
    "office_name_kana": "オカヤマロウドウキヨク"
  },
  "8614": {
    "postcode": "7008614",
    "prefecture": "岡山県",
    "prefecture_kana": "オカヤマケン",
    "prefecture_code": 33,
    "city": "岡山市南区",
    "city_kana": "オカヤマシミナミク",
    "town": "米倉",
    "town_kana": "ヨネグラ",
    "street": "３７番地３",
    "office_name": "スミクラ　株式会社",
    "office_name_kana": "スミクラ カブシキガイシヤ"
  },
  "8615": {
    "postcode": "7008615",
    "prefecture": "岡山県",
    "prefecture_kana": "オカヤマケン",
    "prefecture_code": 33,
    "city": "岡山市北区",
    "city_kana": "オカヤマシキタク",
    "town": "中山下",
    "town_kana": "ナカサンゲ",
    "street": "１丁目８−４５ＮＴＴクレド岡山ビル１４階",
    "office_name": "岡山社会保険事務局",
    "office_name_kana": "オカヤマシヤカイホケンジムキヨク"
  },
  "8616": {
    "postcode": "7008616",
    "prefecture": "岡山県",
    "prefecture_kana": "オカヤマケン",
    "prefecture_code": 33,
    "city": "岡山市北区",
    "city_kana": "オカヤマシキタク",
    "town": "南方",
    "town_kana": "ミナミガタ",
    "street": "１丁目３−５８",
    "office_name": "岡山地方法務局",
    "office_name_kana": "オカヤマチホウホウムキヨク"
  },
  "8617": {
    "postcode": "7008617",
    "prefecture": "岡山県",
    "prefecture_kana": "オカヤマケン",
    "prefecture_code": 33,
    "city": "岡山市北区",
    "city_kana": "オカヤマシキタク",
    "town": "津島京町",
    "town_kana": "ツシマキョウマチ",
    "street": "３丁目１−２１",
    "office_name": "株式会社　エイト日本技術開発",
    "office_name_kana": "カブシキガイシヤ エイトニホンギジユツカイハツ"
  },
  "8618": {
    "postcode": "7008618",
    "prefecture": "岡山県",
    "prefecture_kana": "オカヤマケン",
    "prefecture_code": 33,
    "city": "岡山市北区",
    "city_kana": "オカヤマシキタク",
    "town": "新屋敷町",
    "town_kana": "シンヤシキチョウ",
    "street": "１丁目１０−２８",
    "office_name": "株式会社　全備",
    "office_name_kana": "カブシキガイシヤ ゼンビ"
  },
  "8620": {
    "postcode": "7008620",
    "prefecture": "岡山県",
    "prefecture_kana": "オカヤマケン",
    "prefecture_code": 33,
    "city": "岡山市北区",
    "city_kana": "オカヤマシキタク",
    "town": "中山下",
    "town_kana": "ナカサンゲ",
    "street": "１丁目１０−１０新田ビル６Ｆ",
    "office_name": "株式会社　夢番地",
    "office_name_kana": "カブシキガイシヤ ユメバンチ"
  },
  "8621": {
    "postcode": "7008621",
    "prefecture": "岡山県",
    "prefecture_kana": "オカヤマケン",
    "prefecture_code": 33,
    "city": "岡山市北区",
    "city_kana": "オカヤマシキタク",
    "town": "駅元町",
    "town_kana": "エキモトマチ",
    "street": "１５番１号（岡山中央郵便局私書箱第１５０号）",
    "office_name": "日本放送協会　岡山放送局",
    "office_name_kana": "ニツポンホウソウキヨウカイ オカヤマホウソウキヨク"
  },
  "8623": {
    "postcode": "7008623",
    "prefecture": "岡山県",
    "prefecture_kana": "オカヤマケン",
    "prefecture_code": 33,
    "city": "岡山市北区",
    "city_kana": "オカヤマシキタク",
    "town": "蕃山町",
    "town_kana": "バンザンチョウ",
    "street": "４−１（岡山中央郵便局私書箱第２２０号）",
    "office_name": "商工中金　岡山支店",
    "office_name_kana": "シヨウコウチユウキン オカヤマシテン"
  },
  "8625": {
    "postcode": "7008625",
    "prefecture": "岡山県",
    "prefecture_kana": "オカヤマケン",
    "prefecture_code": 33,
    "city": "岡山市北区",
    "city_kana": "オカヤマシキタク",
    "town": "表町",
    "town_kana": "オモテチョウ",
    "street": "２丁目１−１（岡山中央郵便局私書箱第４０号）",
    "office_name": "株式会社　天満屋　岡山店",
    "office_name_kana": "カブシキガイシヤ テンマンヤ オカヤマテン"
  },
  "8628": {
    "postcode": "7008628",
    "prefecture": "岡山県",
    "prefecture_kana": "オカヤマケン",
    "prefecture_code": 33,
    "city": "岡山市北区",
    "city_kana": "オカヤマシキタク",
    "town": "丸の内",
    "town_kana": "マルノウチ",
    "street": "１丁目１５−２０（岡山中央郵便局私書箱第２８号）",
    "office_name": "株式会社　中国銀行",
    "office_name_kana": "カブシキガイシヤ チユウゴクギンコウ"
  },
  "8634": {
    "postcode": "7008634",
    "prefecture": "岡山県",
    "prefecture_kana": "オカヤマケン",
    "prefecture_code": 33,
    "city": "岡山市北区",
    "city_kana": "オカヤマシキタク",
    "town": "柳町",
    "town_kana": "ヤナギマチ",
    "street": "２丁目１−１",
    "office_name": "株式会社　山陽新聞社",
    "office_name_kana": "カブシキガイシヤ サンヨウシンブンシヤ"
  },
  "8635": {
    "postcode": "7008635",
    "prefecture": "岡山県",
    "prefecture_kana": "オカヤマケン",
    "prefecture_code": 33,
    "city": "岡山市北区",
    "city_kana": "オカヤマシキタク",
    "town": "下石井",
    "town_kana": "シモイシイ",
    "street": "２−１０−１２",
    "office_name": "岡山放送　株式会社",
    "office_name_kana": "オカヤマホウソウ カブシキガイシヤ"
  },
  "8639": {
    "postcode": "7008639",
    "prefecture": "岡山県",
    "prefecture_kana": "オカヤマケン",
    "prefecture_code": 33,
    "city": "岡山市北区",
    "city_kana": "オカヤマシキタク",
    "town": "柳町",
    "town_kana": "ヤナギマチ",
    "street": "１丁目１１−２１（岡山中央郵便局私書箱第８９号）",
    "office_name": "おかやま信用金庫",
    "office_name_kana": "オカヤマシンヨウキンコ"
  },
  "8640": {
    "postcode": "7008640",
    "prefecture": "岡山県",
    "prefecture_kana": "オカヤマケン",
    "prefecture_code": 33,
    "city": "岡山市北区",
    "city_kana": "オカヤマシキタク",
    "town": "錦町",
    "town_kana": "ニシキマチ",
    "street": "６−２４（岡山中央郵便局私書箱第４１号）",
    "office_name": "野村証券　株式会社　岡山支店",
    "office_name_kana": "ノムラシヨウケン カブシキガイシヤ オカヤマシテン"
  },
  "8645": {
    "postcode": "7008645",
    "prefecture": "岡山県",
    "prefecture_kana": "オカヤマケン",
    "prefecture_code": 33,
    "city": "岡山市北区",
    "city_kana": "オカヤマシキタク",
    "town": "東中央町",
    "town_kana": "ヒガシチュウオウチョウ",
    "street": "３−６（岡山中央郵便局私書箱第４５号）",
    "office_name": "清水産業　株式会社",
    "office_name_kana": "シミズサンギヨウ カブシキガイシヤ"
  },
  "8650": {
    "postcode": "7008650",
    "prefecture": "岡山県",
    "prefecture_kana": "オカヤマケン",
    "prefecture_code": 33,
    "city": "岡山市北区",
    "city_kana": "オカヤマシキタク",
    "town": "下石井",
    "town_kana": "シモイシイ",
    "street": "１丁目２番１号",
    "office_name": "イオンリテール　株式会社　イオン岡山店",
    "office_name_kana": "イオンリテ-ル カブシキガイシヤ イオンオカヤマテン"
  },
  "8655": {
    "postcode": "7008655",
    "prefecture": "岡山県",
    "prefecture_kana": "オカヤマケン",
    "prefecture_code": 33,
    "city": "岡山市北区",
    "city_kana": "オカヤマシキタク",
    "town": "天神町",
    "town_kana": "テンジンチョウ",
    "street": "３−２３（岡山中央郵便局私書箱第６７号）",
    "office_name": "岡山東税務署",
    "office_name_kana": "オカヤマヒガシゼイムシヨ"
  },
  "8657": {
    "postcode": "7008657",
    "prefecture": "岡山県",
    "prefecture_kana": "オカヤマケン",
    "prefecture_code": 33,
    "city": "岡山市北区",
    "city_kana": "オカヤマシキタク",
    "town": "丸の内",
    "town_kana": "マルノウチ",
    "street": "１丁目１−４（岡山中央郵便局私書箱第１４３号）",
    "office_name": "全日信販　株式会社",
    "office_name_kana": "ゼンニチシンパン カブシキガイシヤ"
  },
  "8660": {
    "postcode": "7008660",
    "prefecture": "岡山県",
    "prefecture_kana": "オカヤマケン",
    "prefecture_code": 33,
    "city": "岡山市北区",
    "city_kana": "オカヤマシキタク",
    "town": "幸町",
    "town_kana": "サイワイチョウ",
    "street": "８−２２",
    "office_name": "三井住友海上火災保険　株式会社",
    "office_name_kana": "ミツイスミトモカイジヨウカサイホケン カブシキガイシヤ"
  },
  "8666": {
    "postcode": "7008666",
    "prefecture": "岡山県",
    "prefecture_kana": "オカヤマケン",
    "prefecture_code": 33,
    "city": "岡山市北区",
    "city_kana": "オカヤマシキタク",
    "town": "天神町",
    "town_kana": "テンジンチョウ",
    "street": "９−２４",
    "office_name": "ＲＳＫ山陽放送　株式会社",
    "office_name_kana": "ア-ルエスケイサンヨウホウソウ カブシキガイシヤ"
  },
  "8677": {
    "postcode": "7008677",
    "prefecture": "岡山県",
    "prefecture_kana": "オカヤマケン",
    "prefecture_code": 33,
    "city": "岡山市北区",
    "city_kana": "オカヤマシキタク",
    "town": "柳町",
    "town_kana": "ヤナギマチ",
    "street": "２丁目１番１号",
    "office_name": "テレビせとうち　株式会社",
    "office_name_kana": "テレビセトウチ カブシキカイシヤ"
  },
  "8680": {
    "postcode": "7008680",
    "prefecture": "岡山県",
    "prefecture_kana": "オカヤマケン",
    "prefecture_code": 33,
    "city": "岡山市北区",
    "city_kana": "オカヤマシキタク",
    "town": "天瀬",
    "town_kana": "アマセ",
    "street": "４番１５号",
    "office_name": "トラスコ中山　株式会社　プラネット山陽",
    "office_name_kana": "トラスコナカヤマ カブシキガイシヤ プラネツトサンヨウ"
  },
  "8681": {
    "postcode": "7008681",
    "prefecture": "岡山県",
    "prefecture_kana": "オカヤマケン",
    "prefecture_code": 33,
    "city": "岡山市北区",
    "city_kana": "オカヤマシキタク",
    "town": "伊福町",
    "town_kana": "イフクチョウ",
    "street": "４丁目５番３８号岡山西税務署内",
    "office_name": "広島国税局業務センター岡山西分室",
    "office_name_kana": "ヒロシマコクゼイキヨクギヨウムセンタ-オカヤマニシブンシツ"
  },
  "8686": {
    "postcode": "7008686",
    "prefecture": "岡山県",
    "prefecture_kana": "オカヤマケン",
    "prefecture_code": 33,
    "city": "岡山市北区",
    "city_kana": "オカヤマシキタク",
    "town": "南方",
    "town_kana": "ミナミガタ",
    "street": "３丁目７−１７（岡山中央郵便局私書箱第１５４号）",
    "office_name": "株式会社　ベネッセコーポレーション　本社",
    "office_name_kana": "カブシキガイシヤ ベネツセコ-ポレ-シヨン ホンシヤ"
  },
  "8687": {
    "postcode": "7008687",
    "prefecture": "岡山県",
    "prefecture_kana": "オカヤマケン",
    "prefecture_code": 33,
    "city": "岡山市北区",
    "city_kana": "オカヤマシキタク",
    "town": "南方",
    "town_kana": "ミナミガタ",
    "street": "３丁目７−１７",
    "office_name": "株式会社　ベネッセコーポレーション　本社",
    "office_name_kana": "カブシキガイシヤ ベネツセコ-ポレ-シヨン ホンシヤ"
  },
  "8688": {
    "postcode": "7008688",
    "prefecture": "岡山県",
    "prefecture_kana": "オカヤマケン",
    "prefecture_code": 33,
    "city": "岡山市北区",
    "city_kana": "オカヤマシキタク",
    "town": "南方",
    "town_kana": "ミナミガタ",
    "street": "３丁目７−１７",
    "office_name": "株式会社　ベネッセコーポレーション　本社",
    "office_name_kana": "カブシキガイシヤ ベネツセコ-ポレ-シヨン ホンシヤ"
  },
  "8689": {
    "postcode": "7008689",
    "prefecture": "岡山県",
    "prefecture_kana": "オカヤマケン",
    "prefecture_code": 33,
    "city": "岡山市北区",
    "city_kana": "オカヤマシキタク",
    "town": "天神町",
    "town_kana": "テンジンチョウ",
    "street": "３番２３号岡山東税務署内",
    "office_name": "広島国税局業務センター岡山東分室",
    "office_name_kana": "ヒロシマコクゼイキヨクギヨウムセンタ-オカヤマヒガシブンシツ"
  },
  "8701": {
    "postcode": "7008701",
    "prefecture": "岡山県",
    "prefecture_kana": "オカヤマケン",
    "prefecture_code": 33,
    "city": "岡山市北区",
    "city_kana": "オカヤマシキタク",
    "town": "田町",
    "town_kana": "タマチ",
    "street": "１丁目４−１５（岡山中央郵便局私書箱第１１０号）",
    "office_name": "木原興業　株式会社",
    "office_name_kana": "キハラコウギヨウ カブシキガイシヤ"
  },
  "8707": {
    "postcode": "7008707",
    "prefecture": "岡山県",
    "prefecture_kana": "オカヤマケン",
    "prefecture_code": 33,
    "city": "岡山市北区",
    "city_kana": "オカヤマシキタク",
    "town": "丸の内",
    "town_kana": "マルノウチ",
    "street": "１丁目６−１（岡山中央郵便局私書箱第３８号）",
    "office_name": "日本銀行　岡山支店",
    "office_name_kana": "ニツポンギンコウ オカヤマシテン"
  },
  "8718": {
    "postcode": "7008718",
    "prefecture": "岡山県",
    "prefecture_kana": "オカヤマケン",
    "prefecture_code": 33,
    "city": "岡山市北区",
    "city_kana": "オカヤマシキタク",
    "town": "今",
    "town_kana": "イマ",
    "street": "３丁目１５−２３",
    "office_name": "カナリア産業　株式会社",
    "office_name_kana": "カナリアサンギヨウ カブシキガイシヤ"
  },
  "8722": {
    "postcode": "7008722",
    "prefecture": "岡山県",
    "prefecture_kana": "オカヤマケン",
    "prefecture_code": 33,
    "city": "岡山市北区",
    "city_kana": "オカヤマシキタク",
    "town": "磨屋町",
    "town_kana": "トギヤチョウ",
    "street": "９−１８−２０１",
    "office_name": "全国農業協同組合連合会　岡山県本部",
    "office_name_kana": "ゼンコクノウギヨウキヨクドウクミアイレンゴウカイ オカヤマケンホンブ"
  },
  "8727": {
    "postcode": "7008727",
    "prefecture": "岡山県",
    "prefecture_kana": "オカヤマケン",
    "prefecture_code": 33,
    "city": "岡山市北区",
    "city_kana": "オカヤマシキタク",
    "town": "磨屋町",
    "town_kana": "トギヤチョウ",
    "street": "９丁目９−１８−１０１（岡山中央郵便局私書箱第６６号）",
    "office_name": "農林中央金庫　岡山支店",
    "office_name_kana": "ノウリンチユウオウキンコ オカヤマシテン"
  },
  "8731": {
    "postcode": "7008731",
    "prefecture": "岡山県",
    "prefecture_kana": "オカヤマケン",
    "prefecture_code": 33,
    "city": "岡山市北区",
    "city_kana": "オカヤマシキタク",
    "town": "丸の内",
    "town_kana": "マルノウチ",
    "street": "１丁目１４−１７（岡山中央郵便局私書箱第１１６号）",
    "office_name": "中銀リース　株式会社",
    "office_name_kana": "チユウギンリ-ス カブシキガイシヤ"
  },
  "8732": {
    "postcode": "7008732",
    "prefecture": "岡山県",
    "prefecture_kana": "オカヤマケン",
    "prefecture_code": 33,
    "city": "岡山市北区",
    "city_kana": "オカヤマシキタク",
    "town": "野田",
    "town_kana": "ノダ",
    "street": "２丁目１２−２３（岡山中央郵便局私書箱第２３号）",
    "office_name": "岡山県　信用保証協会",
    "office_name_kana": "オカヤマケン シンヨウホシヨウキヨウカイ"
  },
  "8733": {
    "postcode": "7008733",
    "prefecture": "岡山県",
    "prefecture_kana": "オカヤマケン",
    "prefecture_code": 33,
    "city": "岡山市北区",
    "city_kana": "オカヤマシキタク",
    "town": "表町",
    "town_kana": "オモテチョウ",
    "street": "１丁目５−１（岡山中央郵便局私書箱第１２５号）",
    "office_name": "アイサワ工業　株式会社",
    "office_name_kana": "アイサワコウギヨウ カブシキガイシヤ"
  },
  "8734": {
    "postcode": "7008734",
    "prefecture": "岡山県",
    "prefecture_kana": "オカヤマケン",
    "prefecture_code": 33,
    "city": "岡山市北区",
    "city_kana": "オカヤマシキタク",
    "town": "新屋敷町",
    "town_kana": "シンヤシキチョウ",
    "street": "１丁目１−１８",
    "office_name": "株式会社　山陽新聞社　新聞製作センター",
    "office_name_kana": "カブシキガイシヤ サンヨウシンブンシヤ シンブンセイサクセンタ-"
  },
  "8738": {
    "postcode": "7008738",
    "prefecture": "岡山県",
    "prefecture_kana": "オカヤマケン",
    "prefecture_code": 33,
    "city": "岡山市北区",
    "city_kana": "オカヤマシキタク",
    "town": "駅前町",
    "town_kana": "エキマエチョウ",
    "street": "２丁目１−１（岡山中央郵便局私書箱第９５号）",
    "office_name": "第一生命保険　株式会社　岡山支社",
    "office_name_kana": "ダイイチセイメイホケン カブシキガイシヤ オカヤマシシヤ"
  },
  "8761": {
    "postcode": "7008761",
    "prefecture": "岡山県",
    "prefecture_kana": "オカヤマケン",
    "prefecture_code": 33,
    "city": "岡山市北区",
    "city_kana": "オカヤマシキタク",
    "town": "北長瀬本町",
    "town_kana": "キタナガセホンマチ",
    "street": "１９番３４号",
    "office_name": "岡山県立岡山大安寺中等教育学校",
    "office_name_kana": "オカヤマケンリツオカヤマダイアンジチユウトウキヨウイクガツコウ"
  },
  "8794": {
    "postcode": "7008794",
    "prefecture": "岡山県",
    "prefecture_kana": "オカヤマケン",
    "prefecture_code": 33,
    "city": "岡山市北区",
    "city_kana": "オカヤマシキタク",
    "town": "大供",
    "town_kana": "ダイク",
    "street": "１丁目８−１",
    "office_name": "岡山地域センター",
    "office_name_kana": "オカヤマチイキセンタ-"
  }
}