{
  "0101": {
    "postcode": "7010101",
    "prefecture": "岡山県",
    "prefecture_kana": "オカヤマケン",
    "prefecture_code": 33,
    "city": "倉敷市",
    "city_kana": "クラシキシ",
    "town": "日畑",
    "town_kana": "ヒバタ",
    "street": null,
    "office_name": null,
    "office_name_kana": null
  },
  "0102": {
    "postcode": "7010102",
    "prefecture": "岡山県",
    "prefecture_kana": "オカヤマケン",
    "prefecture_code": 33,
    "city": "倉敷市",
    "city_kana": "クラシキシ",
    "town": "庄新町",
    "town_kana": "ショウシンマチ",
    "street": null,
    "office_name": null,
    "office_name_kana": null
  },
  "0103": {
    "postcode": "7010103",
    "prefecture": "岡山県",
    "prefecture_kana": "オカヤマケン",
    "prefecture_code": 33,
    "city": "倉敷市",
    "city_kana": "クラシキシ",
    "town": "西尾",
    "town_kana": "ニシオ",
    "street": null,
    "office_name": null,
    "office_name_kana": null
  },
  "0104": {
    "postcode": "7010104",
    "prefecture": "岡山県",
    "prefecture_kana": "オカヤマケン",
    "prefecture_code": 33,
    "city": "倉敷市",
    "city_kana": "クラシキシ",
    "town": "山地",
    "town_kana": "ヤマジ",
    "street": null,
    "office_name": null,
    "office_name_kana": null
  },
  "0105": {
    "postcode": "7010105",
    "prefecture": "岡山県",
    "prefecture_kana": "オカヤマケン",
    "prefecture_code": 33,
    "city": "倉敷市",
    "city_kana": "クラシキシ",
    "town": "矢部",
    "town_kana": "ヤベ",
    "street": null,
    "office_name": null,
    "office_name_kana": null
  },
  "0111": {
    "postcode": "7010111",
    "prefecture": "岡山県",
    "prefecture_kana": "オカヤマケン",
    "prefecture_code": 33,
    "city": "倉敷市",
    "city_kana": "クラシキシ",
    "town": "上東",
    "town_kana": "ジョウトウ",
    "street": null,
    "office_name": null,
    "office_name_kana": null
  },
  "0112": {
    "postcode": "7010112",
    "prefecture": "岡山県",
    "prefecture_kana": "オカヤマケン",
    "prefecture_code": 33,
    "city": "倉敷市",
    "city_kana": "クラシキシ",
    "town": "下庄",
    "town_kana": "シモショウ",
    "street": null,
    "office_name": null,
    "office_name_kana": null
  },
  "0113": {
    "postcode": "7010113",
    "prefecture": "岡山県",
    "prefecture_kana": "オカヤマケン",
    "prefecture_code": 33,
    "city": "倉敷市",
    "city_kana": "クラシキシ",
    "town": "栗坂",
    "town_kana": "クリサカ",
    "street": null,
    "office_name": null,
    "office_name_kana": null
  },
  "0114": {
    "postcode": "7010114",
    "prefecture": "岡山県",
    "prefecture_kana": "オカヤマケン",
    "prefecture_code": 33,
    "city": "倉敷市",
    "city_kana": "クラシキシ",
    "town": "松島",
    "town_kana": "マツシマ",
    "street": null,
    "office_name": null,
    "office_name_kana": null
  },
  "0115": {
    "postcode": "7010115",
    "prefecture": "岡山県",
    "prefecture_kana": "オカヤマケン",
    "prefecture_code": 33,
    "city": "倉敷市",
    "city_kana": "クラシキシ",
    "town": "二子",
    "town_kana": "フタゴ",
    "street": null,
    "office_name": null,
    "office_name_kana": null
  },
  "0131": {
    "postcode": "7010131",
    "prefecture": "岡山県",
    "prefecture_kana": "オカヤマケン",
    "prefecture_code": 33,
    "city": "岡山市北区",
    "city_kana": "オカヤマシキタク",
    "town": "花尻みどり町",
    "town_kana": "ハナジリミドリマチ",
    "street": null,
    "office_name": null,
    "office_name_kana": null
  },
  "0132": {
    "postcode": "7010132",
    "prefecture": "岡山県",
    "prefecture_kana": "オカヤマケン",
    "prefecture_code": 33,
    "city": "岡山市北区",
    "city_kana": "オカヤマシキタク",
    "town": "花尻ききょう町",
    "town_kana": "ハナジリキキョウマチ",
    "street": null,
    "office_name": null,
    "office_name_kana": null
  },
  "0133": {
    "postcode": "7010133",
    "prefecture": "岡山県",
    "prefecture_kana": "オカヤマケン",
    "prefecture_code": 33,
    "city": "岡山市北区",
    "city_kana": "オカヤマシキタク",
    "town": "花尻あかね町",
    "town_kana": "ハナジリアカネマチ",
    "street": null,
    "office_name": null,
    "office_name_kana": null
  },
  "0134": {
    "postcode": "7010134",
    "prefecture": "岡山県",
    "prefecture_kana": "オカヤマケン",
    "prefecture_code": 33,
    "city": "岡山市北区",
    "city_kana": "オカヤマシキタク",
    "town": "花尻",
    "town_kana": "ハナジリ",
    "street": null,
    "office_name": null,
    "office_name_kana": null
  },
  "0135": {
    "postcode": "7010135",
    "prefecture": "岡山県",
    "prefecture_kana": "オカヤマケン",
    "prefecture_code": 33,
    "city": "岡山市北区",
    "city_kana": "オカヤマシキタク",
    "town": "東花尻",
    "town_kana": "ヒガシハナジリ",
    "street": null,
    "office_name": null,
    "office_name_kana": null
  },
  "0136": {
    "postcode": "7010136",
    "prefecture": "岡山県",
    "prefecture_kana": "オカヤマケン",
    "prefecture_code": 33,
    "city": "岡山市北区",
    "city_kana": "オカヤマシキタク",
    "town": "西花尻",
    "town_kana": "ニシハナジリ",
    "street": null,
    "office_name": null,
    "office_name_kana": null
  },
  "0141": {
    "postcode": "7010141",
    "prefecture": "岡山県",
    "prefecture_kana": "オカヤマケン",
    "prefecture_code": 33,
    "city": "岡山市北区",
    "city_kana": "オカヤマシキタク",
    "town": "白石東新町",
    "town_kana": "シライシヒガシシンマチ",
    "street": null,
    "office_name": null,
    "office_name_kana": null
  },
  "0142": {
    "postcode": "7010142",
    "prefecture": "岡山県",
    "prefecture_kana": "オカヤマケン",
    "prefecture_code": 33,
    "city": "岡山市北区",
    "city_kana": "オカヤマシキタク",
    "town": "白石西新町",
    "town_kana": "シライシニシシンマチ",
    "street": null,
    "office_name": null,
    "office_name_kana": null
  },
  "0143": {
    "postcode": "7010143",
    "prefecture": "岡山県",
    "prefecture_kana": "オカヤマケン",
    "prefecture_code": 33,
    "city": "岡山市北区",
    "city_kana": "オカヤマシキタク",
    "town": "白石",
    "town_kana": "シライシ",
    "street": null,
    "office_name": null,
    "office_name_kana": null
  },
  "0144": {
    "postcode": "7010144",
    "prefecture": "岡山県",
    "prefecture_kana": "オカヤマケン",
    "prefecture_code": 33,
    "city": "岡山市北区",
    "city_kana": "オカヤマシキタク",
    "town": "久米",
    "town_kana": "クメ",
    "street": null,
    "office_name": null,
    "office_name_kana": null
  },
  "0145": {
    "postcode": "7010145",
    "prefecture": "岡山県",
    "prefecture_kana": "オカヤマケン",
    "prefecture_code": 33,
    "city": "岡山市北区",
    "city_kana": "オカヤマシキタク",
    "town": "今保",
    "town_kana": "イマボウ",
    "street": null,
    "office_name": null,
    "office_name_kana": null
  },
  "0151": {
    "postcode": "7010151",
    "prefecture": "岡山県",
    "prefecture_kana": "オカヤマケン",
    "prefecture_code": 33,
    "city": "岡山市北区",
    "city_kana": "オカヤマシキタク",
    "town": "平野",
    "town_kana": "ヒラノ",
    "street": null,
    "office_name": null,
    "office_name_kana": null
  },
  "0152": {
    "postcode": "7010152",
    "prefecture": "岡山県",
    "prefecture_kana": "オカヤマケン",
    "prefecture_code": 33,
    "city": "岡山市北区",
    "city_kana": "オカヤマシキタク",
    "town": "延友",
    "town_kana": "ノブトモ",
    "street": null,
    "office_name": null,
    "office_name_kana": null
  },
  "0153": {
    "postcode": "7010153",
    "prefecture": "岡山県",
    "prefecture_kana": "オカヤマケン",
    "prefecture_code": 33,
    "city": "岡山市北区",
    "city_kana": "オカヤマシキタク",
    "town": "庭瀬",
    "town_kana": "ニワセ",
    "street": null,
    "office_name": null,
    "office_name_kana": null
  },
  "0161": {
    "postcode": "7010161",
    "prefecture": "岡山県",
    "prefecture_kana": "オカヤマケン",
    "prefecture_code": 33,
    "city": "岡山市北区",
    "city_kana": "オカヤマシキタク",
    "town": "川入",
    "town_kana": "カワイリ",
    "street": null,
    "office_name": null,
    "office_name_kana": null
  },
  "0162": {
    "postcode": "7010162",
    "prefecture": "岡山県",
    "prefecture_kana": "オカヤマケン",
    "prefecture_code": 33,
    "city": "岡山市北区",
    "city_kana": "オカヤマシキタク",
    "town": "納所",
    "town_kana": "ノウソ",
    "street": null,
    "office_name": null,
    "office_name_kana": null
  },
  "0163": {
    "postcode": "7010163",
    "prefecture": "岡山県",
    "prefecture_kana": "オカヤマケン",
    "prefecture_code": 33,
    "city": "岡山市北区",
    "city_kana": "オカヤマシキタク",
    "town": "中撫川",
    "town_kana": "ナカナツカワ",
    "street": null,
    "office_name": null,
    "office_name_kana": null
  },
  "0164": {
    "postcode": "7010164",
    "prefecture": "岡山県",
    "prefecture_kana": "オカヤマケン",
    "prefecture_code": 33,
    "city": "岡山市北区",
    "city_kana": "オカヤマシキタク",
    "town": "撫川",
    "town_kana": "ナツカワ",
    "street": null,
    "office_name": null,
    "office_name_kana": null
  },
  "0165": {
    "postcode": "7010165",
    "prefecture": "岡山県",
    "prefecture_kana": "オカヤマケン",
    "prefecture_code": 33,
    "city": "岡山市北区",
    "city_kana": "オカヤマシキタク",
    "town": "大内田",
    "town_kana": "オオウチダ",
    "street": null,
    "office_name": null,
    "office_name_kana": null
  },
  "0192": {
    "postcode": "7010192",
    "prefecture": "岡山県",
    "prefecture_kana": "オカヤマケン",
    "prefecture_code": 33,
    "city": "倉敷市",
    "city_kana": "クラシキシ",
    "town": "松島",
    "town_kana": "マツシマ",
    "street": "５７７",
    "office_name": "川崎医科大学",
    "office_name_kana": "カワサキイカダイガク"
  },
  "0193": {
    "postcode": "7010193",
    "prefecture": "岡山県",
    "prefecture_kana": "オカヤマケン",
    "prefecture_code": 33,
    "city": "倉敷市",
    "city_kana": "クラシキシ",
    "town": "松島",
    "town_kana": "マツシマ",
    "street": "２８８",
    "office_name": "川崎医療福祉大学",
    "office_name_kana": "カワサキイリヨウフクシダイガク"
  },
  "0195": {
    "postcode": "7010195",
    "prefecture": "岡山県",
    "prefecture_kana": "オカヤマケン",
    "prefecture_code": 33,
    "city": "倉敷市",
    "city_kana": "クラシキシ",
    "town": "二子",
    "town_kana": "フタゴ",
    "street": "１２００",
    "office_name": "ノートルダム清心学園",
    "office_name_kana": "ノ-トルダムセイシンガクエン"
  },
  "0197": {
    "postcode": "7010197",
    "prefecture": "岡山県",
    "prefecture_kana": "オカヤマケン",
    "prefecture_code": 33,
    "city": "岡山市北区",
    "city_kana": "オカヤマシキタク",
    "town": "庭瀬",
    "town_kana": "ニワセ",
    "street": "８３",
    "office_name": "中国学園",
    "office_name_kana": "チユウゴクガクエン"
  },
  "0201": {
    "postcode": "7010201",
    "prefecture": "岡山県",
    "prefecture_kana": "オカヤマケン",
    "prefecture_code": 33,
    "city": "岡山市南区",
    "city_kana": "オカヤマシミナミク",
    "town": "妹尾崎",
    "town_kana": "セノオザキ",
    "street": null,
    "office_name": null,
    "office_name_kana": null
  },
  "0202": {
    "postcode": "7010202",
    "prefecture": "岡山県",
    "prefecture_kana": "オカヤマケン",
    "prefecture_code": 33,
    "city": "岡山市南区",
    "city_kana": "オカヤマシミナミク",
    "town": "山田",
    "town_kana": "ヤマダ",
    "street": null,
    "office_name": null,
    "office_name_kana": null
  },
  "0203": {
    "postcode": "7010203",
    "prefecture": "岡山県",
    "prefecture_kana": "オカヤマケン",
    "prefecture_code": 33,
    "city": "岡山市南区",
    "city_kana": "オカヤマシミナミク",
    "town": "古新田",
    "town_kana": "コシンデン",
    "street": null,
    "office_name": null,
    "office_name_kana": null
  },
  "0204": {
    "postcode": "7010204",
    "prefecture": "岡山県",
    "prefecture_kana": "オカヤマケン",
    "prefecture_code": 33,
    "city": "岡山市南区",
    "city_kana": "オカヤマシミナミク",
    "town": "大福",
    "town_kana": "オオフク",
    "street": null,
    "office_name": null,
    "office_name_kana": null
  },
  "0205": {
    "postcode": "7010205",
    "prefecture": "岡山県",
    "prefecture_kana": "オカヤマケン",
    "prefecture_code": 33,
    "city": "岡山市南区",
    "city_kana": "オカヤマシミナミク",
    "town": "妹尾",
    "town_kana": "セノオ",
    "street": null,
    "office_name": null,
    "office_name_kana": null
  },
  "0206": {
    "postcode": "7010206",
    "prefecture": "岡山県",
    "prefecture_kana": "オカヤマケン",
    "prefecture_code": 33,
    "city": "岡山市南区",
    "city_kana": "オカヤマシミナミク",
    "town": "箕島",
    "town_kana": "ミシマ",
    "street": null,
    "office_name": null,
    "office_name_kana": null
  },
  "0211": {
    "postcode": "7010211",
    "prefecture": "岡山県",
    "prefecture_kana": "オカヤマケン",
    "prefecture_code": 33,
    "city": "岡山市南区",
    "city_kana": "オカヤマシミナミク",
    "town": "東畦",
    "town_kana": "ヒガシウネ",
    "street": null,
    "office_name": null,
    "office_name_kana": null
  },
  "0212": {
    "postcode": "7010212",
    "prefecture": "岡山県",
    "prefecture_kana": "オカヤマケン",
    "prefecture_code": 33,
    "city": "岡山市南区",
    "city_kana": "オカヤマシミナミク",
    "town": "内尾",
    "town_kana": "ウチオ",
    "street": null,
    "office_name": null,
    "office_name_kana": null
  },
  "0213": {
    "postcode": "7010213",
    "prefecture": "岡山県",
    "prefecture_kana": "オカヤマケン",
    "prefecture_code": 33,
    "city": "岡山市南区",
    "city_kana": "オカヤマシミナミク",
    "town": "中畦",
    "town_kana": "ナカウネ",
    "street": null,
    "office_name": null,
    "office_name_kana": null
  },
  "0214": {
    "postcode": "7010214",
    "prefecture": "岡山県",
    "prefecture_kana": "オカヤマケン",
    "prefecture_code": 33,
    "city": "岡山市南区",
    "city_kana": "オカヤマシミナミク",
    "town": "曽根",
    "town_kana": "ソネ",
    "street": null,
    "office_name": null,
    "office_name_kana": null
  },
  "0215": {
    "postcode": "7010215",
    "prefecture": "岡山県",
    "prefecture_kana": "オカヤマケン",
    "prefecture_code": 33,
    "city": "岡山市南区",
    "city_kana": "オカヤマシミナミク",
    "town": "西畦",
    "town_kana": "ニシウネ",
    "street": null,
    "office_name": null,
    "office_name_kana": null
  },
  "0221": {
    "postcode": "7010221",
    "prefecture": "岡山県",
    "prefecture_kana": "オカヤマケン",
    "prefecture_code": 33,
    "city": "岡山市南区",
    "city_kana": "オカヤマシミナミク",
    "town": "藤田",
    "town_kana": "フジタ",
    "street": null,
    "office_name": null,
    "office_name_kana": null
  },
  "0292": {
    "postcode": "7010292",
    "prefecture": "岡山県",
    "prefecture_kana": "オカヤマケン",
    "prefecture_code": 33,
    "city": "岡山市南区",
    "city_kana": "オカヤマシミナミク",
    "town": "中畦",
    "town_kana": "ナカウネ",
    "street": "６８４",
    "office_name": "小橋工業　株式会社",
    "office_name_kana": "コバシコウギヨウ カブシキガイシヤ"
  },
  "0295": {
    "postcode": "7010295",
    "prefecture": "岡山県",
    "prefecture_kana": "オカヤマケン",
    "prefecture_code": 33,
    "city": "岡山市南区",
    "city_kana": "オカヤマシミナミク",
    "town": "藤田",
    "town_kana": "フジタ",
    "street": "５６６−１２６",
    "office_name": "全農岡山県本部総合流通センター",
    "office_name_kana": "ゼンノウオカヤマケンホンブソウゴウリユウツウセンタ-"
  },
  "0296": {
    "postcode": "7010296",
    "prefecture": "岡山県",
    "prefecture_kana": "オカヤマケン",
    "prefecture_code": 33,
    "city": "岡山市南区",
    "city_kana": "オカヤマシミナミク",
    "town": "藤田",
    "town_kana": "フジタ",
    "street": "５６４−１７８",
    "office_name": "岡山市民生活協同組合",
    "office_name_kana": "オカヤマシミンセイカツキヨウドウクミアイ"
  },
  "0297": {
    "postcode": "7010297",
    "prefecture": "岡山県",
    "prefecture_kana": "オカヤマケン",
    "prefecture_code": 33,
    "city": "岡山市南区",
    "city_kana": "オカヤマシミナミク",
    "town": "藤田",
    "town_kana": "フジタ",
    "street": "１５００",
    "office_name": "岡山県立　興陽高等学校",
    "office_name_kana": "オカヤマケンリツ コウヨウコウトウガツコウ"
  },
  "0298": {
    "postcode": "7010298",
    "prefecture": "岡山県",
    "prefecture_kana": "オカヤマケン",
    "prefecture_code": 33,
    "city": "岡山市南区",
    "city_kana": "オカヤマシミナミク",
    "town": "内尾",
    "town_kana": "ウチオ",
    "street": "７３９−１",
    "office_name": "岡山県　環境保健センター",
    "office_name_kana": "オカヤマケン カンキヨウホケンセンタ-"
  },
  "0300": {
    "postcode": "7010300",
    "prefecture": "岡山県",
    "prefecture_kana": "オカヤマケン",
    "prefecture_code": 33,
    "city": "都窪郡早島町",
    "city_kana": "ツクボグンハヤシマチョウ",
    "town": "",
    "town_kana": "",
    "street": null,
    "office_name": null,
    "office_name_kana": null
  },
  "0301": {
    "postcode": "7010301",
    "prefecture": "岡山県",
    "prefecture_kana": "オカヤマケン",
    "prefecture_code": 33,
    "city": "都窪郡早島町",
    "city_kana": "ツクボグンハヤシマチョウ",
    "town": "矢尾",
    "town_kana": "ヤオ",
    "street": null,
    "office_name": null,
    "office_name_kana": null
  },
  "0302": {
    "postcode": "7010302",
    "prefecture": "岡山県",
    "prefecture_kana": "オカヤマケン",
    "prefecture_code": 33,
    "city": "都窪郡早島町",
    "city_kana": "ツクボグンハヤシマチョウ",
    "town": "若宮",
    "town_kana": "ワカミヤ",
    "street": null,
    "office_name": null,
    "office_name_kana": null
  },
  "0303": {
    "postcode": "7010303",
    "prefecture": "岡山県",
    "prefecture_kana": "オカヤマケン",
    "prefecture_code": 33,
    "city": "都窪郡早島町",
    "city_kana": "ツクボグンハヤシマチョウ",
    "town": "前潟",
    "town_kana": "マエガタ",
    "street": null,
    "office_name": null,
    "office_name_kana": null
  },
  "0304": {
    "postcode": "7010304",
    "prefecture": "岡山県",
    "prefecture_kana": "オカヤマケン",
    "prefecture_code": 33,
    "city": "都窪郡早島町",
    "city_kana": "ツクボグンハヤシマチョウ",
    "town": "早島",
    "town_kana": "ハヤシマ",
    "street": null,
    "office_name": null,
    "office_name_kana": null
  },
  "0393": {
    "postcode": "7010393",
    "prefecture": "岡山県",
    "prefecture_kana": "オカヤマケン",
    "prefecture_code": 33,
    "city": "都窪郡早島町",
    "city_kana": "ツクボグンハヤシマチョウ",
    "town": "早島",
    "town_kana": "ハヤシマ",
    "street": "３２７０番地１",
    "office_name": "株式会社　ハローズ",
    "office_name_kana": "カブシキガイシヤ ハロ-ズ"
  },
  "0398": {
    "postcode": "7010398",
    "prefecture": "岡山県",
    "prefecture_kana": "オカヤマケン",
    "prefecture_code": 33,
    "city": "都窪郡早島町",
    "city_kana": "ツクボグンハヤシマチョウ",
    "town": "矢尾",
    "town_kana": "ヤオ",
    "street": "８３０",
    "office_name": "株式会社　ジップ早島センター",
    "office_name_kana": "カブシキガイシヤ ジツプハヤシマセンタ-"
  },
  "1131": {
    "postcode": "7011131",
    "prefecture": "岡山県",
    "prefecture_kana": "オカヤマケン",
    "prefecture_code": 33,
    "city": "岡山市北区",
    "city_kana": "オカヤマシキタク",
    "town": "日応寺",
    "town_kana": "ニチオウジ",
    "street": null,
    "office_name": null,
    "office_name_kana": null
  },
  "1132": {
    "postcode": "7011132",
    "prefecture": "岡山県",
    "prefecture_kana": "オカヤマケン",
    "prefecture_code": 33,
    "city": "岡山市北区",
    "city_kana": "オカヤマシキタク",
    "town": "田原",
    "town_kana": "タバラ",
    "street": null,
    "office_name": null,
    "office_name_kana": null
  },
  "1133": {
    "postcode": "7011133",
    "prefecture": "岡山県",
    "prefecture_kana": "オカヤマケン",
    "prefecture_code": 33,
    "city": "岡山市北区",
    "city_kana": "オカヤマシキタク",
    "town": "富吉",
    "town_kana": "トミヨシ",
    "street": null,
    "office_name": null,
    "office_name_kana": null
  },
  "1134": {
    "postcode": "7011134",
    "prefecture": "岡山県",
    "prefecture_kana": "オカヤマケン",
    "prefecture_code": 33,
    "city": "岡山市北区",
    "city_kana": "オカヤマシキタク",
    "town": "三和",
    "town_kana": "ミト",
    "street": null,
    "office_name": null,
    "office_name_kana": null
  },
  "1141": {
    "postcode": "7011141",
    "prefecture": "岡山県",
    "prefecture_kana": "オカヤマケン",
    "prefecture_code": 33,
    "city": "岡山市北区",
    "city_kana": "オカヤマシキタク",
    "town": "菅野",
    "town_kana": "スガノ",
    "street": null,
    "office_name": null,
    "office_name_kana": null
  },
  "1142": {
    "postcode": "7011142",
    "prefecture": "岡山県",
    "prefecture_kana": "オカヤマケン",
    "prefecture_code": 33,
    "city": "岡山市北区",
    "city_kana": "オカヤマシキタク",
    "town": "高野",
    "town_kana": "タカノ",
    "street": null,
    "office_name": null,
    "office_name_kana": null
  },
  "1143": {
    "postcode": "7011143",
    "prefecture": "岡山県",
    "prefecture_kana": "オカヤマケン",
    "prefecture_code": 33,
    "city": "岡山市北区",
    "city_kana": "オカヤマシキタク",
    "town": "吉宗",
    "town_kana": "ヨシムネ",
    "street": null,
    "office_name": null,
    "office_name_kana": null
  },
  "1144": {
    "postcode": "7011144",
    "prefecture": "岡山県",
    "prefecture_kana": "オカヤマケン",
    "prefecture_code": 33,
    "city": "岡山市北区",
    "city_kana": "オカヤマシキタク",
    "town": "栢谷",
    "town_kana": "カイダニ",
    "street": null,
    "office_name": null,
    "office_name_kana": null
  },
  "1145": {
    "postcode": "7011145",
    "prefecture": "岡山県",
    "prefecture_kana": "オカヤマケン",
    "prefecture_code": 33,
    "city": "岡山市北区",
    "city_kana": "オカヤマシキタク",
    "town": "横井上",
    "town_kana": "ヨコイカミ",
    "street": null,
    "office_name": null,
    "office_name_kana": null
  },
  "1151": {
    "postcode": "7011151",
    "prefecture": "岡山県",
    "prefecture_kana": "オカヤマケン",
    "prefecture_code": 33,
    "city": "岡山市北区",
    "city_kana": "オカヤマシキタク",
    "town": "津高台",
    "town_kana": "ツダカダイ",
    "street": null,
    "office_name": null,
    "office_name_kana": null
  },
  "1152": {
    "postcode": "7011152",
    "prefecture": "岡山県",
    "prefecture_kana": "オカヤマケン",
    "prefecture_code": 33,
    "city": "岡山市北区",
    "city_kana": "オカヤマシキタク",
    "town": "津高",
    "town_kana": "ツダカ",
    "street": null,
    "office_name": null,
    "office_name_kana": null
  },
  "1153": {
    "postcode": "7011153",
    "prefecture": "岡山県",
    "prefecture_kana": "オカヤマケン",
    "prefecture_code": 33,
    "city": "岡山市北区",
    "city_kana": "オカヤマシキタク",
    "town": "富原",
    "town_kana": "トミハラ",
    "street": null,
    "office_name": null,
    "office_name_kana": null
  },
  "1154": {
    "postcode": "7011154",
    "prefecture": "岡山県",
    "prefecture_kana": "オカヤマケン",
    "prefecture_code": 33,
    "city": "岡山市北区",
    "city_kana": "オカヤマシキタク",
    "town": "田益",
    "town_kana": "タマス",
    "street": null,
    "office_name": null,
    "office_name_kana": null
  },
  "1192": {
    "postcode": "7011192",
    "prefecture": "岡山県",
    "prefecture_kana": "オカヤマケン",
    "prefecture_code": 33,
    "city": "岡山市北区",
    "city_kana": "オカヤマシキタク",
    "town": "田益",
    "town_kana": "タマス",
    "street": "１７１１−１",
    "office_name": "独立行政法人　国立病院機構　岡山医療センター",
    "office_name_kana": "ドクリツギヨウセイホウジン コクリツビヨウインキコウ オカヤマイリヨウセンタ-"
  },
  "1195": {
    "postcode": "7011195",
    "prefecture": "岡山県",
    "prefecture_kana": "オカヤマケン",
    "prefecture_code": 33,
    "city": "岡山市北区",
    "city_kana": "オカヤマシキタク",
    "town": "田益",
    "town_kana": "タマス",
    "street": "１７１１−１",
    "office_name": "独立行政法人　国立病院機構　岡山医療センター附属岡山看護学校",
    "office_name_kana": "ドクリツギヨウセイホウジン コクリツビヨウインキコウ オカヤマイリヨウセンタ-フゾクオカヤマカンゴガツコウ"
  },
  "1201": {
    "postcode": "7011201",
    "prefecture": "岡山県",
    "prefecture_kana": "オカヤマケン",
    "prefecture_code": 33,
    "city": "岡山市北区",
    "city_kana": "オカヤマシキタク",
    "town": "首部",
    "town_kana": "コウベ",
    "street": null,
    "office_name": null,
    "office_name_kana": null
  },
  "1202": {
    "postcode": "7011202",
    "prefecture": "岡山県",
    "prefecture_kana": "オカヤマケン",
    "prefecture_code": 33,
    "city": "岡山市北区",
    "city_kana": "オカヤマシキタク",
    "town": "楢津",
    "town_kana": "ナラヅ",
    "street": null,
    "office_name": null,
    "office_name_kana": null
  },
  "1203": {
    "postcode": "7011203",
    "prefecture": "岡山県",
    "prefecture_kana": "オカヤマケン",
    "prefecture_code": 33,
    "city": "岡山市北区",
    "city_kana": "オカヤマシキタク",
    "town": "一宮山崎",
    "town_kana": "イチノミヤヤマサキ",
    "street": null,
    "office_name": null,
    "office_name_kana": null
  },
  "1204": {
    "postcode": "7011204",
    "prefecture": "岡山県",
    "prefecture_kana": "オカヤマケン",
    "prefecture_code": 33,
    "city": "岡山市北区",
    "city_kana": "オカヤマシキタク",
    "town": "今岡",
    "town_kana": "イマオカ",
    "street": null,
    "office_name": null,
    "office_name_kana": null
  },
  "1205": {
    "postcode": "7011205",
    "prefecture": "岡山県",
    "prefecture_kana": "オカヤマケン",
    "prefecture_code": 33,
    "city": "岡山市北区",
    "city_kana": "オカヤマシキタク",
    "town": "佐山",
    "town_kana": "サヤマ",
    "street": null,
    "office_name": null,
    "office_name_kana": null
  },
  "1211": {
    "postcode": "7011211",
    "prefecture": "岡山県",
    "prefecture_kana": "オカヤマケン",
    "prefecture_code": 33,
    "city": "岡山市北区",
    "city_kana": "オカヤマシキタク",
    "town": "一宮",
    "town_kana": "イチノミヤ",
    "street": null,
    "office_name": null,
    "office_name_kana": null
  },
  "1212": {
    "postcode": "7011212",
    "prefecture": "岡山県",
    "prefecture_kana": "オカヤマケン",
    "prefecture_code": 33,
    "city": "岡山市北区",
    "city_kana": "オカヤマシキタク",
    "town": "尾上",
    "town_kana": "オノウエ",
    "street": null,
    "office_name": null,
    "office_name_kana": null
  },
  "1213": {
    "postcode": "7011213",
    "prefecture": "岡山県",
    "prefecture_kana": "オカヤマケン",
    "prefecture_code": 33,
    "city": "岡山市北区",
    "city_kana": "オカヤマシキタク",
    "town": "西辛川",
    "town_kana": "ニシカラカワ",
    "street": null,
    "office_name": null,
    "office_name_kana": null
  },
  "1214": {
    "postcode": "7011214",
    "prefecture": "岡山県",
    "prefecture_kana": "オカヤマケン",
    "prefecture_code": 33,
    "city": "岡山市北区",
    "city_kana": "オカヤマシキタク",
    "town": "辛川市場",
    "town_kana": "カラカワイチバ",
    "street": null,
    "office_name": null,
    "office_name_kana": null
  },
  "1221": {
    "postcode": "7011221",
    "prefecture": "岡山県",
    "prefecture_kana": "オカヤマケン",
    "prefecture_code": 33,
    "city": "岡山市北区",
    "city_kana": "オカヤマシキタク",
    "town": "芳賀",
    "town_kana": "ハガ",
    "street": null,
    "office_name": null,
    "office_name_kana": null
  },
  "1222": {
    "postcode": "7011222",
    "prefecture": "岡山県",
    "prefecture_kana": "オカヤマケン",
    "prefecture_code": 33,
    "city": "岡山市北区",
    "city_kana": "オカヤマシキタク",
    "town": "松尾",
    "town_kana": "マツオ",
    "street": null,
    "office_name": null,
    "office_name_kana": null
  },
  "1223": {
    "postcode": "7011223",
    "prefecture": "岡山県",
    "prefecture_kana": "オカヤマケン",
    "prefecture_code": 33,
    "city": "岡山市北区",
    "city_kana": "オカヤマシキタク",
    "town": "大窪",
    "town_kana": "オオクボ",
    "street": null,
    "office_name": null,
    "office_name_kana": null
  },
  "1224": {
    "postcode": "7011224",
    "prefecture": "岡山県",
    "prefecture_kana": "オカヤマケン",
    "prefecture_code": 33,
    "city": "岡山市北区",
    "city_kana": "オカヤマシキタク",
    "town": "長野",
    "town_kana": "ナガノ",
    "street": null,
    "office_name": null,
    "office_name_kana": null
  },
  "1225": {
    "postcode": "7011225",
    "prefecture": "岡山県",
    "prefecture_kana": "オカヤマケン",
    "prefecture_code": 33,
    "city": "岡山市北区",
    "city_kana": "オカヤマシキタク",
    "town": "福谷",
    "town_kana": "フクタニ",
    "street": null,
    "office_name": null,
    "office_name_kana": null
  },
  "1226": {
    "postcode": "7011226",
    "prefecture": "岡山県",
    "prefecture_kana": "オカヤマケン",
    "prefecture_code": 33,
    "city": "岡山市北区",
    "city_kana": "オカヤマシキタク",
    "town": "横尾",
    "town_kana": "ヨコオ",
    "street": null,
    "office_name": null,
    "office_name_kana": null
  },
  "1292": {
    "postcode": "7011292",
    "prefecture": "岡山県",
    "prefecture_kana": "オカヤマケン",
    "prefecture_code": 33,
    "city": "岡山市北区",
    "city_kana": "オカヤマシキタク",
    "town": "尾上",
    "town_kana": "オノウエ",
    "street": "２７７０",
    "office_name": "黒住教本部",
    "office_name_kana": "クロズミキヨウホンブ"
  },
  "1296": {
    "postcode": "7011296",
    "prefecture": "岡山県",
    "prefecture_kana": "オカヤマケン",
    "prefecture_code": 33,
    "city": "岡山市北区",
    "city_kana": "オカヤマシキタク",
    "town": "芳賀",
    "town_kana": "ハガ",
    "street": "５３０１",
    "office_name": "岡山県　工業技術センター",
    "office_name_kana": "オカヤマケン コウギヨウギジユツセンタ-"
  },
  "1331": {
    "postcode": "7011331",
    "prefecture": "岡山県",
    "prefecture_kana": "オカヤマケン",
    "prefecture_code": 33,
    "city": "岡山市北区",
    "city_kana": "オカヤマシキタク",
    "town": "高松稲荷",
    "town_kana": "タカマツイナリ",
    "street": null,
    "office_name": null,
    "office_name_kana": null
  },
  "1332": {
    "postcode": "7011332",
    "prefecture": "岡山県",
    "prefecture_kana": "オカヤマケン",
    "prefecture_code": 33,
    "city": "岡山市北区",
    "city_kana": "オカヤマシキタク",
    "town": "平山",
    "town_kana": "ヒラヤマ",
    "street": null,
    "office_name": null,
    "office_name_kana": null
  },
  "1333": {
    "postcode": "7011333",
    "prefecture": "岡山県",
    "prefecture_kana": "オカヤマケン",
    "prefecture_code": 33,
    "city": "岡山市北区",
    "city_kana": "オカヤマシキタク",
    "town": "立田",
    "town_kana": "タツタ",
    "street": null,
    "office_name": null,
    "office_name_kana": null
  },
  "1334": {
    "postcode": "7011334",
    "prefecture": "岡山県",
    "prefecture_kana": "オカヤマケン",
    "prefecture_code": 33,
    "city": "岡山市北区",
    "city_kana": "オカヤマシキタク",
    "town": "高松原古才",
    "town_kana": "タカマツハラコサイ",
    "street": null,
    "office_name": null,
    "office_name_kana": null
  },
  "1335": {
    "postcode": "7011335",
    "prefecture": "岡山県",
    "prefecture_kana": "オカヤマケン",
    "prefecture_code": 33,
    "city": "岡山市北区",
    "city_kana": "オカヤマシキタク",
    "town": "高松",
    "town_kana": "タカマツ",
    "street": null,
    "office_name": null,
    "office_name_kana": null
  },
  "1336": {
    "postcode": "7011336",
    "prefecture": "岡山県",
    "prefecture_kana": "オカヤマケン",
    "prefecture_code": 33,
    "city": "岡山市北区",
    "city_kana": "オカヤマシキタク",
    "town": "大崎",
    "town_kana": "オオザキ",
    "street": null,
    "office_name": null,
    "office_name_kana": null
  },
  "1337": {
    "postcode": "7011337",
    "prefecture": "岡山県",
    "prefecture_kana": "オカヤマケン",
    "prefecture_code": 33,
    "city": "岡山市北区",
    "city_kana": "オカヤマシキタク",
    "town": "和井元",
    "town_kana": "ワイモト",
    "street": null,
    "office_name": null,
    "office_name_kana": null
  },
  "1341": {
    "postcode": "7011341",
    "prefecture": "岡山県",
    "prefecture_kana": "オカヤマケン",
    "prefecture_code": 33,
    "city": "岡山市北区",
    "city_kana": "オカヤマシキタク",
    "town": "吉備津",
    "town_kana": "キビツ",
    "street": null,
    "office_name": null,
    "office_name_kana": null
  },
  "1342": {
    "postcode": "7011342",
    "prefecture": "岡山県",
    "prefecture_kana": "オカヤマケン",
    "prefecture_code": 33,
    "city": "岡山市北区",
    "city_kana": "オカヤマシキタク",
    "town": "加茂",
    "town_kana": "カモ",
    "street": null,
    "office_name": null,
    "office_name_kana": null
  },
  "1343": {
    "postcode": "7011343",
    "prefecture": "岡山県",
    "prefecture_kana": "オカヤマケン",
    "prefecture_code": 33,
    "city": "岡山市北区",
    "city_kana": "オカヤマシキタク",
    "town": "惣爪",
    "town_kana": "ソウヅメ",
    "street": null,
    "office_name": null,
    "office_name_kana": null
  },
  "1344": {
    "postcode": "7011344",
    "prefecture": "岡山県",
    "prefecture_kana": "オカヤマケン",
    "prefecture_code": 33,
    "city": "岡山市北区",
    "city_kana": "オカヤマシキタク",
    "town": "新庄下",
    "town_kana": "シンジョウシモ",
    "street": null,
    "office_name": null,
    "office_name_kana": null
  },
  "1345": {
    "postcode": "7011345",
    "prefecture": "岡山県",
    "prefecture_kana": "オカヤマケン",
    "prefecture_code": 33,
    "city": "岡山市北区",
    "city_kana": "オカヤマシキタク",
    "town": "新庄上",
    "town_kana": "シンジョウカミ",
    "street": null,
    "office_name": null,
    "office_name_kana": null
  },
  "1346": {
    "postcode": "7011346",
    "prefecture": "岡山県",
    "prefecture_kana": "オカヤマケン",
    "prefecture_code": 33,
    "city": "岡山市北区",
    "city_kana": "オカヤマシキタク",
    "town": "津寺",
    "town_kana": "ツデラ",
    "street": null,
    "office_name": null,
    "office_name_kana": null
  },
  "1351": {
    "postcode": "7011351",
    "prefecture": "岡山県",
    "prefecture_kana": "オカヤマケン",
    "prefecture_code": 33,
    "city": "岡山市北区",
    "city_kana": "オカヤマシキタク",
    "town": "門前",
    "town_kana": "モンゼン",
    "street": null,
    "office_name": null,
    "office_name_kana": null
  },
  "1352": {
    "postcode": "7011352",
    "prefecture": "岡山県",
    "prefecture_kana": "オカヤマケン",
    "prefecture_code": 33,
    "city": "岡山市北区",
    "city_kana": "オカヤマシキタク",
    "town": "小山",
    "town_kana": "コヤマ",
    "street": null,
    "office_name": null,
    "office_name_kana": null
  },
  "1353": {
    "postcode": "7011353",
    "prefecture": "岡山県",
    "prefecture_kana": "オカヤマケン",
    "prefecture_code": 33,
    "city": "岡山市北区",
    "city_kana": "オカヤマシキタク",
    "town": "三手",
    "town_kana": "ミテ",
    "street": null,
    "office_name": null,
    "office_name_kana": null
  },
  "1354": {
    "postcode": "7011354",
    "prefecture": "岡山県",
    "prefecture_kana": "オカヤマケン",
    "prefecture_code": 33,
    "city": "岡山市北区",
    "city_kana": "オカヤマシキタク",
    "town": "高塚",
    "town_kana": "タカツカ",
    "street": null,
    "office_name": null,
    "office_name_kana": null
  },
  "1355": {
    "postcode": "7011355",
    "prefecture": "岡山県",
    "prefecture_kana": "オカヤマケン",
    "prefecture_code": 33,
    "city": "岡山市北区",
    "city_kana": "オカヤマシキタク",
    "town": "高松田中",
    "town_kana": "タカマツタナカ",
    "street": null,
    "office_name": null,
    "office_name_kana": null
  },
  "1356": {
    "postcode": "7011356",
    "prefecture": "岡山県",
    "prefecture_kana": "オカヤマケン",
    "prefecture_code": 33,
    "city": "岡山市北区",
    "city_kana": "オカヤマシキタク",
    "town": "下土田",
    "town_kana": "シモツチダ",
    "street": null,
    "office_name": null,
    "office_name_kana": null
  },
  "1357": {
    "postcode": "7011357",
    "prefecture": "岡山県",
    "prefecture_kana": "オカヤマケン",
    "prefecture_code": 33,
    "city": "岡山市北区",
    "city_kana": "オカヤマシキタク",
    "town": "福崎",
    "town_kana": "フクザキ",
    "street": null,
    "office_name": null,
    "office_name_kana": null
  },
  "1461": {
    "postcode": "7011461",
    "prefecture": "岡山県",
    "prefecture_kana": "オカヤマケン",
    "prefecture_code": 33,
    "city": "岡山市北区",
    "city_kana": "オカヤマシキタク",
    "town": "粟井",
    "town_kana": "アワイ",
    "street": null,
    "office_name": null,
    "office_name_kana": null
  },
  "1462": {
    "postcode": "7011462",
    "prefecture": "岡山県",
    "prefecture_kana": "オカヤマケン",
    "prefecture_code": 33,
    "city": "岡山市北区",
    "city_kana": "オカヤマシキタク",
    "town": "大井",
    "town_kana": "オオイ",
    "street": null,
    "office_name": null,
    "office_name_kana": null
  },
  "1463": {
    "postcode": "7011463",
    "prefecture": "岡山県",
    "prefecture_kana": "オカヤマケン",
    "prefecture_code": 33,
    "city": "岡山市北区",
    "city_kana": "オカヤマシキタク",
    "town": "足守",
    "town_kana": "アシモリ",
    "street": null,
    "office_name": null,
    "office_name_kana": null
  },
  "1464": {
    "postcode": "7011464",
    "prefecture": "岡山県",
    "prefecture_kana": "オカヤマケン",
    "prefecture_code": 33,
    "city": "岡山市北区",
    "city_kana": "オカヤマシキタク",
    "town": "下足守",
    "town_kana": "シモアシモリ",
    "street": null,
    "office_name": null,
    "office_name_kana": null
  },
  "1465": {
    "postcode": "7011465",
    "prefecture": "岡山県",
    "prefecture_kana": "オカヤマケン",
    "prefecture_code": 33,
    "city": "岡山市北区",
    "city_kana": "オカヤマシキタク",
    "town": "上土田",
    "town_kana": "カミツチダ",
    "street": null,
    "office_name": null,
    "office_name_kana": null
  },
  "1521": {
    "postcode": "7011521",
    "prefecture": "岡山県",
    "prefecture_kana": "オカヤマケン",
    "prefecture_code": 33,
    "city": "岡山市北区",
    "city_kana": "オカヤマシキタク",
    "town": "日近",
    "town_kana": "ヒジカイ",
    "street": null,
    "office_name": null,
    "office_name_kana": null
  },
  "1522": {
    "postcode": "7011522",
    "prefecture": "岡山県",
    "prefecture_kana": "オカヤマケン",
    "prefecture_code": 33,
    "city": "岡山市北区",
    "city_kana": "オカヤマシキタク",
    "town": "杉谷",
    "town_kana": "スギタニ",
    "street": null,
    "office_name": null,
    "office_name_kana": null
  },
  "1523": {
    "postcode": "7011523",
    "prefecture": "岡山県",
    "prefecture_kana": "オカヤマケン",
    "prefecture_code": 33,
    "city": "岡山市北区",
    "city_kana": "オカヤマシキタク",
    "town": "吉",
    "town_kana": "ヨシ",
    "street": null,
    "office_name": null,
    "office_name_kana": null
  },
  "1524": {
    "postcode": "7011524",
    "prefecture": "岡山県",
    "prefecture_kana": "オカヤマケン",
    "prefecture_code": 33,
    "city": "岡山市北区",
    "city_kana": "オカヤマシキタク",
    "town": "下高田",
    "town_kana": "シモタカダ",
    "street": null,
    "office_name": null,
    "office_name_kana": null
  },
  "1525": {
    "postcode": "7011525",
    "prefecture": "岡山県",
    "prefecture_kana": "オカヤマケン",
    "prefecture_code": 33,
    "city": "岡山市北区",
    "city_kana": "オカヤマシキタク",
    "town": "上高田",
    "town_kana": "カミタカダ",
    "street": null,
    "office_name": null,
    "office_name_kana": null
  },
  "1526": {
    "postcode": "7011526",
    "prefecture": "岡山県",
    "prefecture_kana": "オカヤマケン",
    "prefecture_code": 33,
    "city": "岡山市北区",
    "city_kana": "オカヤマシキタク",
    "town": "山上",
    "town_kana": "ヤマノウエ",
    "street": null,
    "office_name": null,
    "office_name_kana": null
  },
  "1527": {
    "postcode": "7011527",
    "prefecture": "岡山県",
    "prefecture_kana": "オカヤマケン",
    "prefecture_code": 33,
    "city": "岡山市北区",
    "city_kana": "オカヤマシキタク",
    "town": "石妻",
    "town_kana": "イシヅマ",
    "street": null,
    "office_name": null,
    "office_name_kana": null
  },
  "1601": {
    "postcode": "7011601",
    "prefecture": "岡山県",
    "prefecture_kana": "オカヤマケン",
    "prefecture_code": 33,
    "city": "岡山市北区",
    "city_kana": "オカヤマシキタク",
    "town": "掛畑",
    "town_kana": "カケハタ",
    "street": null,
    "office_name": null,
    "office_name_kana": null
  },
  "1602": {
    "postcode": "7011602",
    "prefecture": "岡山県",
    "prefecture_kana": "オカヤマケン",
    "prefecture_code": 33,
    "city": "岡山市北区",
    "city_kana": "オカヤマシキタク",
    "town": "真星",
    "town_kana": "マナボシ",
    "street": null,
    "office_name": null,
    "office_name_kana": null
  },
  "1603": {
    "postcode": "7011603",
    "prefecture": "岡山県",
    "prefecture_kana": "オカヤマケン",
    "prefecture_code": 33,
    "city": "岡山市北区",
    "city_kana": "オカヤマシキタク",
    "town": "庄田",
    "town_kana": "ショウダ",
    "street": null,
    "office_name": null,
    "office_name_kana": null
  },
  "1604": {
    "postcode": "7011604",
    "prefecture": "岡山県",
    "prefecture_kana": "オカヤマケン",
    "prefecture_code": 33,
    "city": "岡山市北区",
    "city_kana": "オカヤマシキタク",
    "town": "苔山",
    "town_kana": "コケヤマ",
    "street": null,
    "office_name": null,
    "office_name_kana": null
  },
  "1605": {
    "postcode": "7011605",
    "prefecture": "岡山県",
    "prefecture_kana": "オカヤマケン",
    "prefecture_code": 33,
    "city": "岡山市北区",
    "city_kana": "オカヤマシキタク",
    "town": "河原",
    "town_kana": "カワハラ",
    "street": null,
    "office_name": null,
    "office_name_kana": null
  },
  "1611": {
    "postcode": "7011611",
    "prefecture": "岡山県",
    "prefecture_kana": "オカヤマケン",
    "prefecture_code": 33,
    "city": "岡山市北区",
    "city_kana": "オカヤマシキタク",
    "town": "東山内",
    "town_kana": "ヒガシヤマノウチ",
    "street": null,
    "office_name": null,
    "office_name_kana": null
  },
  "1612": {
    "postcode": "7011612",
    "prefecture": "岡山県",
    "prefecture_kana": "オカヤマケン",
    "prefecture_code": 33,
    "city": "岡山市北区",
    "city_kana": "オカヤマシキタク",
    "town": "西山内",
    "town_kana": "ニシヤマノウチ",
    "street": null,
    "office_name": null,
    "office_name_kana": null
  },
  "1613": {
    "postcode": "7011613",
    "prefecture": "岡山県",
    "prefecture_kana": "オカヤマケン",
    "prefecture_code": 33,
    "city": "岡山市北区",
    "city_kana": "オカヤマシキタク",
    "town": "間倉",
    "town_kana": "マグラ",
    "street": null,
    "office_name": null,
    "office_name_kana": null
  },
  "2141": {
    "postcode": "7012141",
    "prefecture": "岡山県",
    "prefecture_kana": "オカヤマケン",
    "prefecture_code": 33,
    "city": "岡山市北区",
    "city_kana": "オカヤマシキタク",
    "town": "牟佐",
    "town_kana": "ムサ",
    "street": null,
    "office_name": null,
    "office_name_kana": null
  },
  "2142": {
    "postcode": "7012142",
    "prefecture": "岡山県",
    "prefecture_kana": "オカヤマケン",
    "prefecture_code": 33,
    "city": "岡山市北区",
    "city_kana": "オカヤマシキタク",
    "town": "玉柏",
    "town_kana": "タマガシ",
    "street": null,
    "office_name": null,
    "office_name_kana": null
  },
  "2143": {
    "postcode": "7012143",
    "prefecture": "岡山県",
    "prefecture_kana": "オカヤマケン",
    "prefecture_code": 33,
    "city": "岡山市北区",
    "city_kana": "オカヤマシキタク",
    "town": "下牧",
    "town_kana": "シモマキ",
    "street": null,
    "office_name": null,
    "office_name_kana": null
  },
  "2144": {
    "postcode": "7012144",
    "prefecture": "岡山県",
    "prefecture_kana": "オカヤマケン",
    "prefecture_code": 33,
    "city": "岡山市北区",
    "city_kana": "オカヤマシキタク",
    "town": "中牧",
    "town_kana": "ナカマキ",
    "street": null,
    "office_name": null,
    "office_name_kana": null
  },
  "2151": {
    "postcode": "7012151",
    "prefecture": "岡山県",
    "prefecture_kana": "オカヤマケン",
    "prefecture_code": 33,
    "city": "岡山市北区",
    "city_kana": "オカヤマシキタク",
    "town": "金山寺",
    "town_kana": "カナヤマジ",
    "street": null,
    "office_name": null,
    "office_name_kana": null
  },
  "2152": {
    "postcode": "7012152",
    "prefecture": "岡山県",
    "prefecture_kana": "オカヤマケン",
    "prefecture_code": 33,
    "city": "岡山市北区",
    "city_kana": "オカヤマシキタク",
    "town": "高野尻",
    "town_kana": "コウヤジリ",
    "street": null,
    "office_name": null,
    "office_name_kana": null
  },
  "2153": {
    "postcode": "7012153",
    "prefecture": "岡山県",
    "prefecture_kana": "オカヤマケン",
    "prefecture_code": 33,
    "city": "岡山市北区",
    "city_kana": "オカヤマシキタク",
    "town": "畑鮎",
    "town_kana": "ハタアユ",
    "street": null,
    "office_name": null,
    "office_name_kana": null
  },
  "2154": {
    "postcode": "7012154",
    "prefecture": "岡山県",
    "prefecture_kana": "オカヤマケン",
    "prefecture_code": 33,
    "city": "岡山市北区",
    "city_kana": "オカヤマシキタク",
    "town": "原",
    "town_kana": "ハラ",
    "street": null,
    "office_name": null,
    "office_name_kana": null
  },
  "2155": {
    "postcode": "7012155",
    "prefecture": "岡山県",
    "prefecture_kana": "オカヤマケン",
    "prefecture_code": 33,
    "city": "岡山市北区",
    "city_kana": "オカヤマシキタク",
    "town": "中原",
    "town_kana": "ナカハラ",
    "street": null,
    "office_name": null,
    "office_name_kana": null
  },
  "2201": {
    "postcode": "7012201",
    "prefecture": "岡山県",
    "prefecture_kana": "オカヤマケン",
    "prefecture_code": 33,
    "city": "赤磐市",
    "city_kana": "アカイワシ",
    "town": "小原",
    "town_kana": "コバラ",
    "street": null,
    "office_name": null,
    "office_name_kana": null
  },
  "2202": {
    "postcode": "7012202",
    "prefecture": "岡山県",
    "prefecture_kana": "オカヤマケン",
    "prefecture_code": 33,
    "city": "赤磐市",
    "city_kana": "アカイワシ",
    "town": "坂辺",
    "town_kana": "サカナベ",
    "street": null,
    "office_name": null,
    "office_name_kana": null
  },
  "2203": {
    "postcode": "7012203",
    "prefecture": "岡山県",
    "prefecture_kana": "オカヤマケン",
    "prefecture_code": 33,
    "city": "赤磐市",
    "city_kana": "アカイワシ",
    "town": "惣分",
    "town_kana": "ソウブン",
    "street": null,
    "office_name": null,
    "office_name_kana": null
  },
  "2204": {
    "postcode": "7012204",
    "prefecture": "岡山県",
    "prefecture_kana": "オカヤマケン",
    "prefecture_code": 33,
    "city": "赤磐市",
    "city_kana": "アカイワシ",
    "town": "山手",
    "town_kana": "ヤマテ",
    "street": null,
    "office_name": null,
    "office_name_kana": null
  },
  "2205": {
    "postcode": "7012205",
    "prefecture": "岡山県",
    "prefecture_kana": "オカヤマケン",
    "prefecture_code": 33,
    "city": "赤磐市",
    "city_kana": "アカイワシ",
    "town": "大屋",
    "town_kana": "オオヤ",
    "street": null,
    "office_name": null,
    "office_name_kana": null
  },
  "2211": {
    "postcode": "7012211",
    "prefecture": "岡山県",
    "prefecture_kana": "オカヤマケン",
    "prefecture_code": 33,
    "city": "赤磐市",
    "city_kana": "アカイワシ",
    "town": "北佐古田",
    "town_kana": "キタサコダ",
    "street": null,
    "office_name": null,
    "office_name_kana": null
  },
  "2212": {
    "postcode": "7012212",
    "prefecture": "岡山県",
    "prefecture_kana": "オカヤマケン",
    "prefecture_code": 33,
    "city": "赤磐市",
    "city_kana": "アカイワシ",
    "town": "南佐古田",
    "town_kana": "ミナミサコダ",
    "street": null,
    "office_name": null,
    "office_name_kana": null
  },
  "2213": {
    "postcode": "7012213",
    "prefecture": "岡山県",
    "prefecture_kana": "オカヤマケン",
    "prefecture_code": 33,
    "city": "赤磐市",
    "city_kana": "アカイワシ",
    "town": "今井",
    "town_kana": "イマイ",
    "street": null,
    "office_name": null,
    "office_name_kana": null
  },
  "2214": {
    "postcode": "7012214",
    "prefecture": "岡山県",
    "prefecture_kana": "オカヤマケン",
    "prefecture_code": 33,
    "city": "赤磐市",
    "city_kana": "アカイワシ",
    "town": "東軽部",
    "town_kana": "ヒガシカルベ",
    "street": null,
    "office_name": null,
    "office_name_kana": null
  },
  "2215": {
    "postcode": "7012215",
    "prefecture": "岡山県",
    "prefecture_kana": "オカヤマケン",
    "prefecture_code": 33,
    "city": "赤磐市",
    "city_kana": "アカイワシ",
    "town": "西軽部",
    "town_kana": "ニシカルベ",
    "street": null,
    "office_name": null,
    "office_name_kana": null
  },
  "2216": {
    "postcode": "7012216",
    "prefecture": "岡山県",
    "prefecture_kana": "オカヤマケン",
    "prefecture_code": 33,
    "city": "赤磐市",
    "city_kana": "アカイワシ",
    "town": "多賀",
    "town_kana": "タガ",
    "street": null,
    "office_name": null,
    "office_name_kana": null
  },
  "2221": {
    "postcode": "7012221",
    "prefecture": "岡山県",
    "prefecture_kana": "オカヤマケン",
    "prefecture_code": 33,
    "city": "赤磐市",
    "city_kana": "アカイワシ",
    "town": "大苅田",
    "town_kana": "オオカンダ",
    "street": null,
    "office_name": null,
    "office_name_kana": null
  },
  "2222": {
    "postcode": "7012222",
    "prefecture": "岡山県",
    "prefecture_kana": "オカヤマケン",
    "prefecture_code": 33,
    "city": "赤磐市",
    "city_kana": "アカイワシ",
    "town": "町苅田",
    "town_kana": "マチカンダ",
    "street": null,
    "office_name": null,
    "office_name_kana": null
  },
  "2223": {
    "postcode": "7012223",
    "prefecture": "岡山県",
    "prefecture_kana": "オカヤマケン",
    "prefecture_code": 33,
    "city": "赤磐市",
    "city_kana": "アカイワシ",
    "town": "東窪田",
    "town_kana": "ヒガシクボタ",
    "street": null,
    "office_name": null,
    "office_name_kana": null
  },
  "2224": {
    "postcode": "7012224",
    "prefecture": "岡山県",
    "prefecture_kana": "オカヤマケン",
    "prefecture_code": 33,
    "city": "赤磐市",
    "city_kana": "アカイワシ",
    "town": "西窪田",
    "town_kana": "ニシクボタ",
    "street": null,
    "office_name": null,
    "office_name_kana": null
  },
  "2225": {
    "postcode": "7012225",
    "prefecture": "岡山県",
    "prefecture_kana": "オカヤマケン",
    "prefecture_code": 33,
    "city": "赤磐市",
    "city_kana": "アカイワシ",
    "town": "山口",
    "town_kana": "ヤマグチ",
    "street": null,
    "office_name": null,
    "office_name_kana": null
  },
  "2226": {
    "postcode": "7012226",
    "prefecture": "岡山県",
    "prefecture_kana": "オカヤマケン",
    "prefecture_code": 33,
    "city": "赤磐市",
    "city_kana": "アカイワシ",
    "town": "由津里",
    "town_kana": "ユヅリ",
    "street": null,
    "office_name": null,
    "office_name_kana": null
  },
  "2292": {
    "postcode": "7012292",
    "prefecture": "岡山県",
    "prefecture_kana": "オカヤマケン",
    "prefecture_code": 33,
    "city": "赤磐市",
    "city_kana": "アカイワシ",
    "town": "町苅田",
    "town_kana": "マチカンダ",
    "street": "５１６",
    "office_name": "赤磐市　赤坂支所",
    "office_name_kana": "アカイワシ アカサカシシヨ"
  },
  "2431": {
    "postcode": "7012431",
    "prefecture": "岡山県",
    "prefecture_kana": "オカヤマケン",
    "prefecture_code": 33,
    "city": "赤磐市",
    "city_kana": "アカイワシ",
    "town": "戸津野",
    "town_kana": "トツノ",
    "street": null,
    "office_name": null,
    "office_name_kana": null
  },
  "2432": {
    "postcode": "7012432",
    "prefecture": "岡山県",
    "prefecture_kana": "オカヤマケン",
    "prefecture_code": 33,
    "city": "赤磐市",
    "city_kana": "アカイワシ",
    "town": "塩木",
    "town_kana": "シオギ",
    "street": null,
    "office_name": null,
    "office_name_kana": null
  },
  "2433": {
    "postcode": "7012433",
    "prefecture": "岡山県",
    "prefecture_kana": "オカヤマケン",
    "prefecture_code": 33,
    "city": "赤磐市",
    "city_kana": "アカイワシ",
    "town": "平山",
    "town_kana": "ヒラヤマ",
    "street": null,
    "office_name": null,
    "office_name_kana": null
  },
  "2434": {
    "postcode": "7012434",
    "prefecture": "岡山県",
    "prefecture_kana": "オカヤマケン",
    "prefecture_code": 33,
    "city": "赤磐市",
    "city_kana": "アカイワシ",
    "town": "仁堀東",
    "town_kana": "ニボリヒガシ",
    "street": null,
    "office_name": null,
    "office_name_kana": null
  },
  "2435": {
    "postcode": "7012435",
    "prefecture": "岡山県",
    "prefecture_kana": "オカヤマケン",
    "prefecture_code": 33,
    "city": "赤磐市",
    "city_kana": "アカイワシ",
    "town": "仁堀中",
    "town_kana": "ニボリナカ",
    "street": null,
    "office_name": null,
    "office_name_kana": null
  },
  "2436": {
    "postcode": "7012436",
    "prefecture": "岡山県",
    "prefecture_kana": "オカヤマケン",
    "prefecture_code": 33,
    "city": "赤磐市",
    "city_kana": "アカイワシ",
    "town": "仁堀西",
    "town_kana": "ニボリニシ",
    "street": null,
    "office_name": null,
    "office_name_kana": null
  },
  "2437": {
    "postcode": "7012437",
    "prefecture": "岡山県",
    "prefecture_kana": "オカヤマケン",
    "prefecture_code": 33,
    "city": "赤磐市",
    "city_kana": "アカイワシ",
    "town": "中勢実",
    "town_kana": "ナカセイジツ",
    "street": null,
    "office_name": null,
    "office_name_kana": null
  },
  "2441": {
    "postcode": "7012441",
    "prefecture": "岡山県",
    "prefecture_kana": "オカヤマケン",
    "prefecture_code": 33,
    "city": "赤磐市",
    "city_kana": "アカイワシ",
    "town": "西勢実",
    "town_kana": "ニシセイジツ",
    "street": null,
    "office_name": null,
    "office_name_kana": null
  },
  "2442": {
    "postcode": "7012442",
    "prefecture": "岡山県",
    "prefecture_kana": "オカヤマケン",
    "prefecture_code": 33,
    "city": "赤磐市",
    "city_kana": "アカイワシ",
    "town": "広戸",
    "town_kana": "ヒロド",
    "street": null,
    "office_name": null,
    "office_name_kana": null
  },
  "2443": {
    "postcode": "7012443",
    "prefecture": "岡山県",
    "prefecture_kana": "オカヤマケン",
    "prefecture_code": 33,
    "city": "赤磐市",
    "city_kana": "アカイワシ",
    "town": "合田",
    "town_kana": "アイダ",
    "street": null,
    "office_name": null,
    "office_name_kana": null
  },
  "2444": {
    "postcode": "7012444",
    "prefecture": "岡山県",
    "prefecture_kana": "オカヤマケン",
    "prefecture_code": 33,
    "city": "赤磐市",
    "city_kana": "アカイワシ",
    "town": "中畑",
    "town_kana": "ナカハタ",
    "street": null,
    "office_name": null,
    "office_name_kana": null
  },
  "2445": {
    "postcode": "7012445",
    "prefecture": "岡山県",
    "prefecture_kana": "オカヤマケン",
    "prefecture_code": 33,
    "city": "赤磐市",
    "city_kana": "アカイワシ",
    "town": "石上",
    "town_kana": "イシカミ",
    "street": null,
    "office_name": null,
    "office_name_kana": null
  },
  "2446": {
    "postcode": "7012446",
    "prefecture": "岡山県",
    "prefecture_kana": "オカヤマケン",
    "prefecture_code": 33,
    "city": "赤磐市",
    "city_kana": "アカイワシ",
    "town": "小鎌",
    "town_kana": "オガモ",
    "street": null,
    "office_name": null,
    "office_name_kana": null
  },
  "2501": {
    "postcode": "7012501",
    "prefecture": "岡山県",
    "prefecture_kana": "オカヤマケン",
    "prefecture_code": 33,
    "city": "赤磐市",
    "city_kana": "アカイワシ",
    "town": "河原屋",
    "town_kana": "カワラヤ",
    "street": null,
    "office_name": null,
    "office_name_kana": null
  },
  "2502": {
    "postcode": "7012502",
    "prefecture": "岡山県",
    "prefecture_kana": "オカヤマケン",
    "prefecture_code": 33,
    "city": "赤磐市",
    "city_kana": "アカイワシ",
    "town": "草生",
    "town_kana": "クソウ",
    "street": null,
    "office_name": null,
    "office_name_kana": null
  },
  "2503": {
    "postcode": "7012503",
    "prefecture": "岡山県",
    "prefecture_kana": "オカヤマケン",
    "prefecture_code": 33,
    "city": "赤磐市",
    "city_kana": "アカイワシ",
    "town": "周匝",
    "town_kana": "スサイ",
    "street": null,
    "office_name": null,
    "office_name_kana": null
  },
  "2504": {
    "postcode": "7012504",
    "prefecture": "岡山県",
    "prefecture_kana": "オカヤマケン",
    "prefecture_code": 33,
    "city": "赤磐市",
    "city_kana": "アカイワシ",
    "town": "福田",
    "town_kana": "フクダ",
    "street": null,
    "office_name": null,
    "office_name_kana": null
  },
  "2511": {
    "postcode": "7012511",
    "prefecture": "岡山県",
    "prefecture_kana": "オカヤマケン",
    "prefecture_code": 33,
    "city": "赤磐市",
    "city_kana": "アカイワシ",
    "town": "稲蒔",
    "town_kana": "イナマキ",
    "street": null,
    "office_name": null,
    "office_name_kana": null
  },
  "2512": {
    "postcode": "7012512",
    "prefecture": "岡山県",
    "prefecture_kana": "オカヤマケン",
    "prefecture_code": 33,
    "city": "赤磐市",
    "city_kana": "アカイワシ",
    "town": "暮田",
    "town_kana": "クレダ",
    "street": null,
    "office_name": null,
    "office_name_kana": null
  },
  "2513": {
    "postcode": "7012513",
    "prefecture": "岡山県",
    "prefecture_kana": "オカヤマケン",
    "prefecture_code": 33,
    "city": "赤磐市",
    "city_kana": "アカイワシ",
    "town": "八島田",
    "town_kana": "ヤシマダ",
    "street": null,
    "office_name": null,
    "office_name_kana": null
  },
  "2514": {
    "postcode": "7012514",
    "prefecture": "岡山県",
    "prefecture_kana": "オカヤマケン",
    "prefecture_code": 33,
    "city": "赤磐市",
    "city_kana": "アカイワシ",
    "town": "石",
    "town_kana": "イシ",
    "street": null,
    "office_name": null,
    "office_name_kana": null
  },
  "2515": {
    "postcode": "7012515",
    "prefecture": "岡山県",
    "prefecture_kana": "オカヤマケン",
    "prefecture_code": 33,
    "city": "赤磐市",
    "city_kana": "アカイワシ",
    "town": "光木",
    "town_kana": "コウキ",
    "street": null,
    "office_name": null,
    "office_name_kana": null
  },
  "2521": {
    "postcode": "7012521",
    "prefecture": "岡山県",
    "prefecture_kana": "オカヤマケン",
    "prefecture_code": 33,
    "city": "赤磐市",
    "city_kana": "アカイワシ",
    "town": "黒本",
    "town_kana": "クロモト",
    "street": null,
    "office_name": null,
    "office_name_kana": null
  },
  "2522": {
    "postcode": "7012522",
    "prefecture": "岡山県",
    "prefecture_kana": "オカヤマケン",
    "prefecture_code": 33,
    "city": "赤磐市",
    "city_kana": "アカイワシ",
    "town": "黒沢",
    "town_kana": "クロサワ",
    "street": null,
    "office_name": null,
    "office_name_kana": null
  },
  "2523": {
    "postcode": "7012523",
    "prefecture": "岡山県",
    "prefecture_kana": "オカヤマケン",
    "prefecture_code": 33,
    "city": "赤磐市",
    "city_kana": "アカイワシ",
    "town": "中山",
    "town_kana": "ナカヤマ",
    "street": null,
    "office_name": null,
    "office_name_kana": null
  },
  "2524": {
    "postcode": "7012524",
    "prefecture": "岡山県",
    "prefecture_kana": "オカヤマケン",
    "prefecture_code": 33,
    "city": "赤磐市",
    "city_kana": "アカイワシ",
    "town": "滝山",
    "town_kana": "タキヤマ",
    "street": null,
    "office_name": null,
    "office_name_kana": null
  },
  "2525": {
    "postcode": "7012525",
    "prefecture": "岡山県",
    "prefecture_kana": "オカヤマケン",
    "prefecture_code": 33,
    "city": "赤磐市",
    "city_kana": "アカイワシ",
    "town": "是里",
    "town_kana": "コレサト",
    "street": null,
    "office_name": null,
    "office_name_kana": null
  },
  "2595": {
    "postcode": "7012595",
    "prefecture": "岡山県",
    "prefecture_kana": "オカヤマケン",
    "prefecture_code": 33,
    "city": "赤磐市",
    "city_kana": "アカイワシ",
    "town": "周匝",
    "town_kana": "スサイ",
    "street": "１３６",
    "office_name": "赤磐市　吉井支所",
    "office_name_kana": "アカイワシ ヨシイシシヨ"
  },
  "2601": {
    "postcode": "7012601",
    "prefecture": "岡山県",
    "prefecture_kana": "オカヤマケン",
    "prefecture_code": 33,
    "city": "美作市",
    "city_kana": "ミマサカシ",
    "town": "尾谷",
    "town_kana": "オタニ",
    "street": null,
    "office_name": null,
    "office_name_kana": null
  },
  "2602": {
    "postcode": "7012602",
    "prefecture": "岡山県",
    "prefecture_kana": "オカヤマケン",
    "prefecture_code": 33,
    "city": "美作市",
    "city_kana": "ミマサカシ",
    "town": "真神",
    "town_kana": "マガミ",
    "street": null,
    "office_name": null,
    "office_name_kana": null
  },
  "2603": {
    "postcode": "7012603",
    "prefecture": "岡山県",
    "prefecture_kana": "オカヤマケン",
    "prefecture_code": 33,
    "city": "美作市",
    "city_kana": "ミマサカシ",
    "town": "三保原",
    "town_kana": "ミホバラ",
    "street": null,
    "office_name": null,
    "office_name_kana": null
  },
  "2604": {
    "postcode": "7012604",
    "prefecture": "岡山県",
    "prefecture_kana": "オカヤマケン",
    "prefecture_code": 33,
    "city": "美作市",
    "city_kana": "ミマサカシ",
    "town": "福本",
    "town_kana": "フクモト",
    "street": null,
    "office_name": null,
    "office_name_kana": null
  },
  "2605": {
    "postcode": "7012605",
    "prefecture": "岡山県",
    "prefecture_kana": "オカヤマケン",
    "prefecture_code": 33,
    "city": "美作市",
    "city_kana": "ミマサカシ",
    "town": "奥",
    "town_kana": "オク",
    "street": null,
    "office_name": null,
    "office_name_kana": null
  },
  "2606": {
    "postcode": "7012606",
    "prefecture": "岡山県",
    "prefecture_kana": "オカヤマケン",
    "prefecture_code": 33,
    "city": "美作市",
    "city_kana": "ミマサカシ",
    "town": "井口",
    "town_kana": "イグチ",
    "street": null,
    "office_name": null,
    "office_name_kana": null
  },
  "2611": {
    "postcode": "7012611",
    "prefecture": "岡山県",
    "prefecture_kana": "オカヤマケン",
    "prefecture_code": 33,
    "city": "美作市",
    "city_kana": "ミマサカシ",
    "town": "北",
    "town_kana": "キタ",
    "street": null,
    "office_name": null,
    "office_name_kana": null
  },
  "2612": {
    "postcode": "7012612",
    "prefecture": "岡山県",
    "prefecture_kana": "オカヤマケン",
    "prefecture_code": 33,
    "city": "美作市",
    "city_kana": "ミマサカシ",
    "town": "滝宮",
    "town_kana": "タキミヤ",
    "street": null,
    "office_name": null,
    "office_name_kana": null
  },
  "2613": {
    "postcode": "7012613",
    "prefecture": "岡山県",
    "prefecture_kana": "オカヤマケン",
    "prefecture_code": 33,
    "city": "美作市",
    "city_kana": "ミマサカシ",
    "town": "横尾",
    "town_kana": "ヨコオ",
    "street": null,
    "office_name": null,
    "office_name_kana": null
  },
  "2614": {
    "postcode": "7012614",
    "prefecture": "岡山県",
    "prefecture_kana": "オカヤマケン",
    "prefecture_code": 33,
    "city": "美作市",
    "city_kana": "ミマサカシ",
    "town": "上山",
    "town_kana": "ウエヤマ",
    "street": null,
    "office_name": null,
    "office_name_kana": null
  },
  "2615": {
    "postcode": "7012615",
    "prefecture": "岡山県",
    "prefecture_kana": "オカヤマケン",
    "prefecture_code": 33,
    "city": "美作市",
    "city_kana": "ミマサカシ",
    "town": "中川",
    "town_kana": "ナカガワ",
    "street": null,
    "office_name": null,
    "office_name_kana": null
  },
  "2616": {
    "postcode": "7012616",
    "prefecture": "岡山県",
    "prefecture_kana": "オカヤマケン",
    "prefecture_code": 33,
    "city": "美作市",
    "city_kana": "ミマサカシ",
    "town": "南",
    "town_kana": "ミナミ",
    "street": null,
    "office_name": null,
    "office_name_kana": null
  },
  "2621": {
    "postcode": "7012621",
    "prefecture": "岡山県",
    "prefecture_kana": "オカヤマケン",
    "prefecture_code": 33,
    "city": "美作市",
    "city_kana": "ミマサカシ",
    "town": "下山",
    "town_kana": "シモヤマ",
    "street": null,
    "office_name": null,
    "office_name_kana": null
  },
  "2622": {
    "postcode": "7012622",
    "prefecture": "岡山県",
    "prefecture_kana": "オカヤマケン",
    "prefecture_code": 33,
    "city": "美作市",
    "city_kana": "ミマサカシ",
    "town": "鳥渕",
    "town_kana": "トリブチ",
    "street": null,
    "office_name": null,
    "office_name_kana": null
  },
  "2623": {
    "postcode": "7012623",
    "prefecture": "岡山県",
    "prefecture_kana": "オカヤマケン",
    "prefecture_code": 33,
    "city": "美作市",
    "city_kana": "ミマサカシ",
    "town": "英田青野",
    "town_kana": "アイダアオノ",
    "street": null,
    "office_name": null,
    "office_name_kana": null
  },
  "2624": {
    "postcode": "7012624",
    "prefecture": "岡山県",
    "prefecture_kana": "オカヤマケン",
    "prefecture_code": 33,
    "city": "美作市",
    "city_kana": "ミマサカシ",
    "town": "中河内",
    "town_kana": "ナカゴウチ",
    "street": null,
    "office_name": null,
    "office_name_kana": null
  },
  "2625": {
    "postcode": "7012625",
    "prefecture": "岡山県",
    "prefecture_kana": "オカヤマケン",
    "prefecture_code": 33,
    "city": "美作市",
    "city_kana": "ミマサカシ",
    "town": "城田",
    "town_kana": "ジョウデン",
    "street": null,
    "office_name": null,
    "office_name_kana": null
  },
  "3201": {
    "postcode": "7013201",
    "prefecture": "岡山県",
    "prefecture_kana": "オカヤマケン",
    "prefecture_code": 33,
    "city": "備前市",
    "city_kana": "ビゼンシ",
    "town": "日生町寺山",
    "town_kana": "ヒナセチョウテラヤマ",
    "street": null,
    "office_name": null,
    "office_name_kana": null
  },
  "3202": {
    "postcode": "7013202",
    "prefecture": "岡山県",
    "prefecture_kana": "オカヤマケン",
    "prefecture_code": 33,
    "city": "備前市",
    "city_kana": "ビゼンシ",
    "town": "日生町寒河",
    "town_kana": "ヒナセチョウソウゴ",
    "street": null,
    "office_name": null,
    "office_name_kana": null
  },
  "3203": {
    "postcode": "7013203",
    "prefecture": "岡山県",
    "prefecture_kana": "オカヤマケン",
    "prefecture_code": 33,
    "city": "備前市",
    "city_kana": "ビゼンシ",
    "town": "日生町大多府",
    "town_kana": "ヒナセチョウオオタブ",
    "street": null,
    "office_name": null,
    "office_name_kana": null
  },
  "3204": {
    "postcode": "7013204",
    "prefecture": "岡山県",
    "prefecture_kana": "オカヤマケン",
    "prefecture_code": 33,
    "city": "備前市",
    "city_kana": "ビゼンシ",
    "town": "日生町日生",
    "town_kana": "ヒナセチョウヒナセ",
    "street": null,
    "office_name": null,
    "office_name_kana": null
  },
  "3292": {
    "postcode": "7013292",
    "prefecture": "岡山県",
    "prefecture_kana": "オカヤマケン",
    "prefecture_code": 33,
    "city": "備前市",
    "city_kana": "ビゼンシ",
    "town": "日生町日生",
    "town_kana": "ヒナセチョウヒナセ",
    "street": "６３０",
    "office_name": "備前市　日生総合支所",
    "office_name_kana": "ビゼンシ ヒナセソウゴウシシヨ"
  },
  "3293": {
    "postcode": "7013293",
    "prefecture": "岡山県",
    "prefecture_kana": "オカヤマケン",
    "prefecture_code": 33,
    "city": "備前市",
    "city_kana": "ビゼンシ",
    "town": "日生町日生",
    "town_kana": "ヒナセチョウヒナセ",
    "street": "８８８−５",
    "office_name": "日生信用金庫",
    "office_name_kana": "ヒナセシンヨウキンコ"
  },
  "4200": {
    "postcode": "7014200",
    "prefecture": "岡山県",
    "prefecture_kana": "オカヤマケン",
    "prefecture_code": 33,
    "city": "瀬戸内市",
    "city_kana": "セトウチシ",
    "town": "",
    "town_kana": "",
    "street": null,
    "office_name": null,
    "office_name_kana": null
  },
  "4211": {
    "postcode": "7014211",
    "prefecture": "岡山県",
    "prefecture_kana": "オカヤマケン",
    "prefecture_code": 33,
    "city": "瀬戸内市",
    "city_kana": "セトウチシ",
    "town": "邑久町庄田",
    "town_kana": "オクチョウショウダ",
    "street": null,
    "office_name": null,
    "office_name_kana": null
  },
  "4212": {
    "postcode": "7014212",
    "prefecture": "岡山県",
    "prefecture_kana": "オカヤマケン",
    "prefecture_code": 33,
    "city": "瀬戸内市",
    "city_kana": "セトウチシ",
    "town": "邑久町尻海",
    "town_kana": "オクチョウシリミ",
    "street": null,
    "office_name": null,
    "office_name_kana": null
  },
  "4213": {
    "postcode": "7014213",
    "prefecture": "岡山県",
    "prefecture_kana": "オカヤマケン",
    "prefecture_code": 33,
    "city": "瀬戸内市",
    "city_kana": "セトウチシ",
    "town": "邑久町山手",
    "town_kana": "オクチョウヤマテ",
    "street": null,
    "office_name": null,
    "office_name_kana": null
  },
  "4214": {
    "postcode": "7014214",
    "prefecture": "岡山県",
    "prefecture_kana": "オカヤマケン",
    "prefecture_code": 33,
    "city": "瀬戸内市",
    "city_kana": "セトウチシ",
    "town": "邑久町本庄",
    "town_kana": "オクチョウホンジョウ",
    "street": null,
    "office_name": null,
    "office_name_kana": null
  },
  "4215": {
    "postcode": "7014215",
    "prefecture": "岡山県",
    "prefecture_kana": "オカヤマケン",
    "prefecture_code": 33,
    "city": "瀬戸内市",
    "city_kana": "セトウチシ",
    "town": "邑久町上山田",
    "town_kana": "オクチョウカミヤマダ",
    "street": null,
    "office_name": null,
    "office_name_kana": null
  },
  "4216": {
    "postcode": "7014216",
    "prefecture": "岡山県",
    "prefecture_kana": "オカヤマケン",
    "prefecture_code": 33,
    "city": "瀬戸内市",
    "city_kana": "セトウチシ",
    "town": "邑久町下山田",
    "town_kana": "オクチョウシモヤマダ",
    "street": null,
    "office_name": null,
    "office_name_kana": null
  },
  "4221": {
    "postcode": "7014221",
    "prefecture": "岡山県",
    "prefecture_kana": "オカヤマケン",
    "prefecture_code": 33,
    "city": "瀬戸内市",
    "city_kana": "セトウチシ",
    "town": "邑久町尾張",
    "town_kana": "オクチョウオワリ",
    "street": null,
    "office_name": null,
    "office_name_kana": null
  },
  "4222": {
    "postcode": "7014222",
    "prefecture": "岡山県",
    "prefecture_kana": "オカヤマケン",
    "prefecture_code": 33,
    "city": "瀬戸内市",
    "city_kana": "セトウチシ",
    "town": "邑久町豊安",
    "town_kana": "オクチョウトヨヤス",
    "street": null,
    "office_name": null,
    "office_name_kana": null
  },
  "4223": {
    "postcode": "7014223",
    "prefecture": "岡山県",
    "prefecture_kana": "オカヤマケン",
    "prefecture_code": 33,
    "city": "瀬戸内市",
    "city_kana": "セトウチシ",
    "town": "邑久町豊原",
    "town_kana": "オクチョウトヨハラ",
    "street": null,
    "office_name": null,
    "office_name_kana": null
  },
  "4224": {
    "postcode": "7014224",
    "prefecture": "岡山県",
    "prefecture_kana": "オカヤマケン",
    "prefecture_code": 33,
    "city": "瀬戸内市",
    "city_kana": "セトウチシ",
    "town": "邑久町東谷",
    "town_kana": "オクチョウヒガシダニ",
    "street": null,
    "office_name": null,
    "office_name_kana": null
  },
  "4231": {
    "postcode": "7014231",
    "prefecture": "岡山県",
    "prefecture_kana": "オカヤマケン",
    "prefecture_code": 33,
    "city": "瀬戸内市",
    "city_kana": "セトウチシ",
    "town": "邑久町大窪",
    "town_kana": "オクチョウオオクボ",
    "street": null,
    "office_name": null,
    "office_name_kana": null
  },
  "4232": {
    "postcode": "7014232",
    "prefecture": "岡山県",
    "prefecture_kana": "オカヤマケン",
    "prefecture_code": 33,
    "city": "瀬戸内市",
    "city_kana": "セトウチシ",
    "town": "邑久町北島",
    "town_kana": "オクチョウキタシマ",
    "street": null,
    "office_name": null,
    "office_name_kana": null
  },
  "4233": {
    "postcode": "7014233",
    "prefecture": "岡山県",
    "prefecture_kana": "オカヤマケン",
    "prefecture_code": 33,
    "city": "瀬戸内市",
    "city_kana": "セトウチシ",
    "town": "邑久町向山",
    "town_kana": "オクチョウムコウヤマ",
    "street": null,
    "office_name": null,
    "office_name_kana": null
  },
  "4234": {
    "postcode": "7014234",
    "prefecture": "岡山県",
    "prefecture_kana": "オカヤマケン",
    "prefecture_code": 33,
    "city": "瀬戸内市",
    "city_kana": "セトウチシ",
    "town": "邑久町大富",
    "town_kana": "オクチョウオオドミ",
    "street": null,
    "office_name": null,
    "office_name_kana": null
  },
  "4241": {
    "postcode": "7014241",
    "prefecture": "岡山県",
    "prefecture_kana": "オカヤマケン",
    "prefecture_code": 33,
    "city": "瀬戸内市",
    "city_kana": "セトウチシ",
    "town": "邑久町福元",
    "town_kana": "オクチョウフクモト",
    "street": null,
    "office_name": null,
    "office_name_kana": null
  },
  "4243": {
    "postcode": "7014243",
    "prefecture": "岡山県",
    "prefecture_kana": "オカヤマケン",
    "prefecture_code": 33,
    "city": "瀬戸内市",
    "city_kana": "セトウチシ",
    "town": "邑久町宗三",
    "town_kana": "オクチョウソウサン",
    "street": null,
    "office_name": null,
    "office_name_kana": null
  },
  "4244": {
    "postcode": "7014244",
    "prefecture": "岡山県",
    "prefecture_kana": "オカヤマケン",
    "prefecture_code": 33,
    "city": "瀬戸内市",
    "city_kana": "セトウチシ",
    "town": "邑久町福中",
    "town_kana": "オクチョウフクナカ",
    "street": null,
    "office_name": null,
    "office_name_kana": null
  },
  "4245": {
    "postcode": "7014245",
    "prefecture": "岡山県",
    "prefecture_kana": "オカヤマケン",
    "prefecture_code": 33,
    "city": "瀬戸内市",
    "city_kana": "セトウチシ",
    "town": "邑久町福山",
    "town_kana": "オクチョウフクヤマ",
    "street": null,
    "office_name": null,
    "office_name_kana": null
  },
  "4246": {
    "postcode": "7014246",
    "prefecture": "岡山県",
    "prefecture_kana": "オカヤマケン",
    "prefecture_code": 33,
    "city": "瀬戸内市",
    "city_kana": "セトウチシ",
    "town": "邑久町山田庄",
    "town_kana": "オクチョウヤマダノショウ",
    "street": null,
    "office_name": null,
    "office_name_kana": null
  },
  "4247": {
    "postcode": "7014247",
    "prefecture": "岡山県",
    "prefecture_kana": "オカヤマケン",
    "prefecture_code": 33,
    "city": "瀬戸内市",
    "city_kana": "セトウチシ",
    "town": "邑久町下笠加",
    "town_kana": "オクチョウシモガサカ",
    "street": null,
    "office_name": null,
    "office_name_kana": null
  },
  "4248": {
    "postcode": "7014248",
    "prefecture": "岡山県",
    "prefecture_kana": "オカヤマケン",
    "prefecture_code": 33,
    "city": "瀬戸内市",
    "city_kana": "セトウチシ",
    "town": "邑久町百田",
    "town_kana": "オクチョウモモダ",
    "street": null,
    "office_name": null,
    "office_name_kana": null
  },
  "4251": {
    "postcode": "7014251",
    "prefecture": "岡山県",
    "prefecture_kana": "オカヤマケン",
    "prefecture_code": 33,
    "city": "瀬戸内市",
    "city_kana": "セトウチシ",
    "town": "邑久町北池",
    "town_kana": "オクチョウキタイケ",
    "street": null,
    "office_name": null,
    "office_name_kana": null
  },
  "4252": {
    "postcode": "7014252",
    "prefecture": "岡山県",
    "prefecture_kana": "オカヤマケン",
    "prefecture_code": 33,
    "city": "瀬戸内市",
    "city_kana": "セトウチシ",
    "town": "邑久町上笠加",
    "town_kana": "オクチョウカミガサカ",
    "street": null,
    "office_name": null,
    "office_name_kana": null
  },
  "4253": {
    "postcode": "7014253",
    "prefecture": "岡山県",
    "prefecture_kana": "オカヤマケン",
    "prefecture_code": 33,
    "city": "瀬戸内市",
    "city_kana": "セトウチシ",
    "town": "邑久町箕輪",
    "town_kana": "オクチョウミノワ",
    "street": null,
    "office_name": null,
    "office_name_kana": null
  },
  "4254": {
    "postcode": "7014254",
    "prefecture": "岡山県",
    "prefecture_kana": "オカヤマケン",
    "prefecture_code": 33,
    "city": "瀬戸内市",
    "city_kana": "セトウチシ",
    "town": "邑久町豆田",
    "town_kana": "オクチョウマメダ",
    "street": null,
    "office_name": null,
    "office_name_kana": null
  },
  "4261": {
    "postcode": "7014261",
    "prefecture": "岡山県",
    "prefecture_kana": "オカヤマケン",
    "prefecture_code": 33,
    "city": "瀬戸内市",
    "city_kana": "セトウチシ",
    "town": "長船町飯井",
    "town_kana": "オサフネチョウイイ",
    "street": null,
    "office_name": null,
    "office_name_kana": null
  },
  "4262": {
    "postcode": "7014262",
    "prefecture": "岡山県",
    "prefecture_kana": "オカヤマケン",
    "prefecture_code": 33,
    "city": "瀬戸内市",
    "city_kana": "セトウチシ",
    "town": "長船町東須恵",
    "town_kana": "オサフネチョウヒガシスエ",
    "street": null,
    "office_name": null,
    "office_name_kana": null
  },
  "4263": {
    "postcode": "7014263",
    "prefecture": "岡山県",
    "prefecture_kana": "オカヤマケン",
    "prefecture_code": 33,
    "city": "瀬戸内市",
    "city_kana": "セトウチシ",
    "town": "長船町西須恵",
    "town_kana": "オサフネチョウニシスエ",
    "street": null,
    "office_name": null,
    "office_name_kana": null
  },
  "4264": {
    "postcode": "7014264",
    "prefecture": "岡山県",
    "prefecture_kana": "オカヤマケン",
    "prefecture_code": 33,
    "city": "瀬戸内市",
    "city_kana": "セトウチシ",
    "town": "長船町土師",
    "town_kana": "オサフネチョウハジ",
    "street": null,
    "office_name": null,
    "office_name_kana": null
  },
  "4265": {
    "postcode": "7014265",
    "prefecture": "岡山県",
    "prefecture_kana": "オカヤマケン",
    "prefecture_code": 33,
    "city": "瀬戸内市",
    "city_kana": "セトウチシ",
    "town": "長船町福岡",
    "town_kana": "オサフネチョウフクオカ",
    "street": null,
    "office_name": null,
    "office_name_kana": null
  },
  "4271": {
    "postcode": "7014271",
    "prefecture": "岡山県",
    "prefecture_kana": "オカヤマケン",
    "prefecture_code": 33,
    "city": "瀬戸内市",
    "city_kana": "セトウチシ",
    "town": "長船町長船",
    "town_kana": "オサフネチョウオサフネ",
    "street": null,
    "office_name": null,
    "office_name_kana": null
  },
  "4272": {
    "postcode": "7014272",
    "prefecture": "岡山県",
    "prefecture_kana": "オカヤマケン",
    "prefecture_code": 33,
    "city": "瀬戸内市",
    "city_kana": "セトウチシ",
    "town": "長船町八日市",
    "town_kana": "オサフネチョウヨウカイチ",
    "street": null,
    "office_name": null,
    "office_name_kana": null
  },
  "4273": {
    "postcode": "7014273",
    "prefecture": "岡山県",
    "prefecture_kana": "オカヤマケン",
    "prefecture_code": 33,
    "city": "瀬戸内市",
    "city_kana": "セトウチシ",
    "town": "長船町磯上",
    "town_kana": "オサフネチョウイソカミ",
    "street": null,
    "office_name": null,
    "office_name_kana": null
  },
  "4274": {
    "postcode": "7014274",
    "prefecture": "岡山県",
    "prefecture_kana": "オカヤマケン",
    "prefecture_code": 33,
    "city": "瀬戸内市",
    "city_kana": "セトウチシ",
    "town": "長船町牛文",
    "town_kana": "オサフネチョウウシフミ",
    "street": null,
    "office_name": null,
    "office_name_kana": null
  },
  "4275": {
    "postcode": "7014275",
    "prefecture": "岡山県",
    "prefecture_kana": "オカヤマケン",
    "prefecture_code": 33,
    "city": "瀬戸内市",
    "city_kana": "セトウチシ",
    "town": "長船町福里",
    "town_kana": "オサフネチョウフクサト",
    "street": null,
    "office_name": null,
    "office_name_kana": null
  },
  "4276": {
    "postcode": "7014276",
    "prefecture": "岡山県",
    "prefecture_kana": "オカヤマケン",
    "prefecture_code": 33,
    "city": "瀬戸内市",
    "city_kana": "セトウチシ",
    "town": "長船町服部",
    "town_kana": "オサフネチョウハットリ",
    "street": null,
    "office_name": null,
    "office_name_kana": null
  },
  "4292": {
    "postcode": "7014292",
    "prefecture": "岡山県",
    "prefecture_kana": "オカヤマケン",
    "prefecture_code": 33,
    "city": "瀬戸内市",
    "city_kana": "セトウチシ",
    "town": "邑久町尾張",
    "town_kana": "オクチョウオワリ",
    "street": "３００番地１",
    "office_name": "瀬戸内市役所",
    "office_name_kana": "セトウチシヤクシヨ"
  },
  "4293": {
    "postcode": "7014293",
    "prefecture": "岡山県",
    "prefecture_kana": "オカヤマケン",
    "prefecture_code": 33,
    "city": "瀬戸内市",
    "city_kana": "セトウチシ",
    "town": "長船町土師",
    "town_kana": "オサフネチョウハジ",
    "street": "２８８番地１",
    "office_name": "瀬戸内市役所　長船支所",
    "office_name_kana": "セトウチシヤクシヨ オサフネシシヨ"
  },
  "4301": {
    "postcode": "7014301",
    "prefecture": "岡山県",
    "prefecture_kana": "オカヤマケン",
    "prefecture_code": 33,
    "city": "瀬戸内市",
    "city_kana": "セトウチシ",
    "town": "牛窓町長浜",
    "town_kana": "ウシマドチョウナガハマ",
    "street": null,
    "office_name": null,
    "office_name_kana": null
  },
  "4302": {
    "postcode": "7014302",
    "prefecture": "岡山県",
    "prefecture_kana": "オカヤマケン",
    "prefecture_code": 33,
    "city": "瀬戸内市",
    "city_kana": "セトウチシ",
    "town": "牛窓町牛窓",
    "town_kana": "ウシマドチョウウシマド",
    "street": null,
    "office_name": null,
    "office_name_kana": null
  },
  "4303": {
    "postcode": "7014303",
    "prefecture": "岡山県",
    "prefecture_kana": "オカヤマケン",
    "prefecture_code": 33,
    "city": "瀬戸内市",
    "city_kana": "セトウチシ",
    "town": "牛窓町鹿忍",
    "town_kana": "ウシマドチョウカシノ",
    "street": null,
    "office_name": null,
    "office_name_kana": null
  },
  "4304": {
    "postcode": "7014304",
    "prefecture": "岡山県",
    "prefecture_kana": "オカヤマケン",
    "prefecture_code": 33,
    "city": "瀬戸内市",
    "city_kana": "セトウチシ",
    "town": "牛窓町千手",
    "town_kana": "ウシマドチョウセンズ",
    "street": null,
    "office_name": null,
    "office_name_kana": null
  },
  "4392": {
    "postcode": "7014392",
    "prefecture": "岡山県",
    "prefecture_kana": "オカヤマケン",
    "prefecture_code": 33,
    "city": "瀬戸内市",
    "city_kana": "セトウチシ",
    "town": "牛窓町牛窓",
    "town_kana": "ウシマドチョウウシマド",
    "street": "４９１１",
    "office_name": "瀬戸内市役所　牛窓支所",
    "office_name_kana": "セトウチシヤクシヨ ウシマドシシヨ"
  },
  "4394": {
    "postcode": "7014394",
    "prefecture": "岡山県",
    "prefecture_kana": "オカヤマケン",
    "prefecture_code": 33,
    "city": "瀬戸内市",
    "city_kana": "セトウチシ",
    "town": "牛窓町牛窓",
    "town_kana": "ウシマドチョウウシマド",
    "street": "３９１１−１０（牛窓郵便局私書箱第４号）",
    "office_name": "日本オリーブ　株式会社",
    "office_name_kana": "ニツポンオリ-ブ カブシキガイシヤ"
  },
  "4398": {
    "postcode": "7014398",
    "prefecture": "岡山県",
    "prefecture_kana": "オカヤマケン",
    "prefecture_code": 33,
    "city": "瀬戸内市",
    "city_kana": "セトウチシ",
    "town": "牛窓町牛窓",
    "town_kana": "ウシマドチョウウシマド",
    "street": "６４１０（牛窓郵便局私書箱第８号）",
    "office_name": "株式会社　元浜組",
    "office_name_kana": "カブシキガイシヤ モトハマグミ"
  },
  "4501": {
    "postcode": "7014501",
    "prefecture": "岡山県",
    "prefecture_kana": "オカヤマケン",
    "prefecture_code": 33,
    "city": "瀬戸内市",
    "city_kana": "セトウチシ",
    "town": "邑久町虫明",
    "town_kana": "オクチョウムシアゲ",
    "street": null,
    "office_name": null,
    "office_name_kana": null
  },
  "4502": {
    "postcode": "7014502",
    "prefecture": "岡山県",
    "prefecture_kana": "オカヤマケン",
    "prefecture_code": 33,
    "city": "瀬戸内市",
    "city_kana": "セトウチシ",
    "town": "邑久町福谷",
    "town_kana": "オクチョウフクタニ",
    "street": null,
    "office_name": null,
    "office_name_kana": null
  },
  "4592": {
    "postcode": "7014592",
    "prefecture": "岡山県",
    "prefecture_kana": "オカヤマケン",
    "prefecture_code": 33,
    "city": "瀬戸内市",
    "city_kana": "セトウチシ",
    "town": "邑久町虫明",
    "town_kana": "オクチョウムシアゲ",
    "street": "６５３９",
    "office_name": "国立療養所　長島愛生園",
    "office_name_kana": "コクリツリヨウヨウシヨ ナガシマアイセイエン"
  },
  "4593": {
    "postcode": "7014593",
    "prefecture": "岡山県",
    "prefecture_kana": "オカヤマケン",
    "prefecture_code": 33,
    "city": "瀬戸内市",
    "city_kana": "セトウチシ",
    "town": "邑久町虫明",
    "town_kana": "オクチョウムシアゲ",
    "street": "６２５３",
    "office_name": "国立療養所　邑久光明園",
    "office_name_kana": "コクリツリヨウヨウシヨ オクコウミヨウエン"
  }
}