{
  "0000": {
    "postcode": "7060000",
    "prefecture": "岡山県",
    "prefecture_kana": "オカヤマケン",
    "prefecture_code": 33,
    "city": "玉野市",
    "city_kana": "タマノシ",
    "town": "",
    "town_kana": "",
    "street": null,
    "office_name": null,
    "office_name_kana": null
  },
  "0001": {
    "postcode": "7060001",
    "prefecture": "岡山県",
    "prefecture_kana": "オカヤマケン",
    "prefecture_code": 33,
    "city": "玉野市",
    "city_kana": "タマノシ",
    "town": "田井",
    "town_kana": "タイ",
    "street": null,
    "office_name": null,
    "office_name_kana": null
  },
  "0002": {
    "postcode": "7060002",
    "prefecture": "岡山県",
    "prefecture_kana": "オカヤマケン",
    "prefecture_code": 33,
    "city": "玉野市",
    "city_kana": "タマノシ",
    "town": "築港",
    "town_kana": "チッコウ",
    "street": null,
    "office_name": null,
    "office_name_kana": null
  },
  "0011": {
    "postcode": "7060011",
    "prefecture": "岡山県",
    "prefecture_kana": "オカヤマケン",
    "prefecture_code": 33,
    "city": "玉野市",
    "city_kana": "タマノシ",
    "town": "宇野",
    "town_kana": "ウノ",
    "street": null,
    "office_name": null,
    "office_name_kana": null
  },
  "0012": {
    "postcode": "7060012",
    "prefecture": "岡山県",
    "prefecture_kana": "オカヤマケン",
    "prefecture_code": 33,
    "city": "玉野市",
    "city_kana": "タマノシ",
    "town": "玉",
    "town_kana": "タマ",
    "street": null,
    "office_name": null,
    "office_name_kana": null
  },
  "0013": {
    "postcode": "7060013",
    "prefecture": "岡山県",
    "prefecture_kana": "オカヤマケン",
    "prefecture_code": 33,
    "city": "玉野市",
    "city_kana": "タマノシ",
    "town": "奥玉",
    "town_kana": "オクタマ",
    "street": null,
    "office_name": null,
    "office_name_kana": null
  },
  "0014": {
    "postcode": "7060014",
    "prefecture": "岡山県",
    "prefecture_kana": "オカヤマケン",
    "prefecture_code": 33,
    "city": "玉野市",
    "city_kana": "タマノシ",
    "town": "玉原",
    "town_kana": "タマハラ",
    "street": null,
    "office_name": null,
    "office_name_kana": null
  },
  "0021": {
    "postcode": "7060021",
    "prefecture": "岡山県",
    "prefecture_kana": "オカヤマケン",
    "prefecture_code": 33,
    "city": "玉野市",
    "city_kana": "タマノシ",
    "town": "和田",
    "town_kana": "ワダ",
    "street": null,
    "office_name": null,
    "office_name_kana": null
  },
  "0022": {
    "postcode": "7060022",
    "prefecture": "岡山県",
    "prefecture_kana": "オカヤマケン",
    "prefecture_code": 33,
    "city": "玉野市",
    "city_kana": "タマノシ",
    "town": "向日比",
    "town_kana": "ムカイヒビ",
    "street": null,
    "office_name": null,
    "office_name_kana": null
  },
  "0023": {
    "postcode": "7060023",
    "prefecture": "岡山県",
    "prefecture_kana": "オカヤマケン",
    "prefecture_code": 33,
    "city": "玉野市",
    "city_kana": "タマノシ",
    "town": "深井町",
    "town_kana": "フカイチョウ",
    "street": null,
    "office_name": null,
    "office_name_kana": null
  },
  "0024": {
    "postcode": "7060024",
    "prefecture": "岡山県",
    "prefecture_kana": "オカヤマケン",
    "prefecture_code": 33,
    "city": "玉野市",
    "city_kana": "タマノシ",
    "town": "御崎",
    "town_kana": "オンザキ",
    "street": null,
    "office_name": null,
    "office_name_kana": null
  },
  "0025": {
    "postcode": "7060025",
    "prefecture": "岡山県",
    "prefecture_kana": "オカヤマケン",
    "prefecture_code": 33,
    "city": "玉野市",
    "city_kana": "タマノシ",
    "town": "明神町",
    "town_kana": "ミョウジンチョウ",
    "street": null,
    "office_name": null,
    "office_name_kana": null
  },
  "0026": {
    "postcode": "7060026",
    "prefecture": "岡山県",
    "prefecture_kana": "オカヤマケン",
    "prefecture_code": 33,
    "city": "玉野市",
    "city_kana": "タマノシ",
    "town": "羽根崎町",
    "town_kana": "ハネザキチョウ",
    "street": null,
    "office_name": null,
    "office_name_kana": null
  },
  "0027": {
    "postcode": "7060027",
    "prefecture": "岡山県",
    "prefecture_kana": "オカヤマケン",
    "prefecture_code": 33,
    "city": "玉野市",
    "city_kana": "タマノシ",
    "town": "日比",
    "town_kana": "ヒビ",
    "street": null,
    "office_name": null,
    "office_name_kana": null
  },
  "0028": {
    "postcode": "7060028",
    "prefecture": "岡山県",
    "prefecture_kana": "オカヤマケン",
    "prefecture_code": 33,
    "city": "玉野市",
    "city_kana": "タマノシ",
    "town": "渋川",
    "town_kana": "シブカワ",
    "street": null,
    "office_name": null,
    "office_name_kana": null
  },
  "0131": {
    "postcode": "7060131",
    "prefecture": "岡山県",
    "prefecture_kana": "オカヤマケン",
    "prefecture_code": 33,
    "city": "玉野市",
    "city_kana": "タマノシ",
    "town": "東紅陽台",
    "town_kana": "ヒガシコウヨウダイ",
    "street": null,
    "office_name": null,
    "office_name_kana": null
  },
  "0132": {
    "postcode": "7060132",
    "prefecture": "岡山県",
    "prefecture_kana": "オカヤマケン",
    "prefecture_code": 33,
    "city": "玉野市",
    "city_kana": "タマノシ",
    "town": "用吉",
    "town_kana": "モチヨシ",
    "street": null,
    "office_name": null,
    "office_name_kana": null
  },
  "0133": {
    "postcode": "7060133",
    "prefecture": "岡山県",
    "prefecture_kana": "オカヤマケン",
    "prefecture_code": 33,
    "city": "玉野市",
    "city_kana": "タマノシ",
    "town": "宇藤木",
    "town_kana": "ウトウギ",
    "street": null,
    "office_name": null,
    "office_name_kana": null
  },
  "0134": {
    "postcode": "7060134",
    "prefecture": "岡山県",
    "prefecture_kana": "オカヤマケン",
    "prefecture_code": 33,
    "city": "玉野市",
    "city_kana": "タマノシ",
    "town": "東高崎",
    "town_kana": "ヒガシタカサキ",
    "street": null,
    "office_name": null,
    "office_name_kana": null
  },
  "0141": {
    "postcode": "7060141",
    "prefecture": "岡山県",
    "prefecture_kana": "オカヤマケン",
    "prefecture_code": 33,
    "city": "玉野市",
    "city_kana": "タマノシ",
    "town": "槌ケ原",
    "town_kana": "ツチガハラ",
    "street": null,
    "office_name": null,
    "office_name_kana": null
  },
  "0142": {
    "postcode": "7060142",
    "prefecture": "岡山県",
    "prefecture_kana": "オカヤマケン",
    "prefecture_code": 33,
    "city": "玉野市",
    "city_kana": "タマノシ",
    "town": "迫間",
    "town_kana": "ハザマ",
    "street": null,
    "office_name": null,
    "office_name_kana": null
  },
  "0143": {
    "postcode": "7060143",
    "prefecture": "岡山県",
    "prefecture_kana": "オカヤマケン",
    "prefecture_code": 33,
    "city": "玉野市",
    "city_kana": "タマノシ",
    "town": "木目",
    "town_kana": "モクメ",
    "street": null,
    "office_name": null,
    "office_name_kana": null
  },
  "0144": {
    "postcode": "7060144",
    "prefecture": "岡山県",
    "prefecture_kana": "オカヤマケン",
    "prefecture_code": 33,
    "city": "玉野市",
    "city_kana": "タマノシ",
    "town": "小島地",
    "town_kana": "コシマジ",
    "street": null,
    "office_name": null,
    "office_name_kana": null
  },
  "0151": {
    "postcode": "7060151",
    "prefecture": "岡山県",
    "prefecture_kana": "オカヤマケン",
    "prefecture_code": 33,
    "city": "玉野市",
    "city_kana": "タマノシ",
    "town": "長尾",
    "town_kana": "ナガオ",
    "street": null,
    "office_name": null,
    "office_name_kana": null
  },
  "0152": {
    "postcode": "7060152",
    "prefecture": "岡山県",
    "prefecture_kana": "オカヤマケン",
    "prefecture_code": 33,
    "city": "玉野市",
    "city_kana": "タマノシ",
    "town": "永井",
    "town_kana": "ナガイ",
    "street": null,
    "office_name": null,
    "office_name_kana": null
  },
  "0153": {
    "postcode": "7060153",
    "prefecture": "岡山県",
    "prefecture_kana": "オカヤマケン",
    "prefecture_code": 33,
    "city": "玉野市",
    "city_kana": "タマノシ",
    "town": "滝",
    "town_kana": "タキ",
    "street": null,
    "office_name": null,
    "office_name_kana": null
  },
  "0154": {
    "postcode": "7060154",
    "prefecture": "岡山県",
    "prefecture_kana": "オカヤマケン",
    "prefecture_code": 33,
    "city": "玉野市",
    "city_kana": "タマノシ",
    "town": "広岡",
    "town_kana": "ヒロオカ",
    "street": null,
    "office_name": null,
    "office_name_kana": null
  },
  "0221": {
    "postcode": "7060221",
    "prefecture": "岡山県",
    "prefecture_kana": "オカヤマケン",
    "prefecture_code": 33,
    "city": "玉野市",
    "city_kana": "タマノシ",
    "town": "八浜町八浜",
    "town_kana": "ハチハマチョウハチハマ",
    "street": null,
    "office_name": null,
    "office_name_kana": null
  },
  "0222": {
    "postcode": "7060222",
    "prefecture": "岡山県",
    "prefecture_kana": "オカヤマケン",
    "prefecture_code": 33,
    "city": "玉野市",
    "city_kana": "タマノシ",
    "town": "八浜町見石",
    "town_kana": "ハチハマチョウミイシ",
    "street": null,
    "office_name": null,
    "office_name_kana": null
  },
  "0223": {
    "postcode": "7060223",
    "prefecture": "岡山県",
    "prefecture_kana": "オカヤマケン",
    "prefecture_code": 33,
    "city": "玉野市",
    "city_kana": "タマノシ",
    "town": "八浜町波知",
    "town_kana": "ハチハマチョウハチ",
    "street": null,
    "office_name": null,
    "office_name_kana": null
  },
  "0224": {
    "postcode": "7060224",
    "prefecture": "岡山県",
    "prefecture_kana": "オカヤマケン",
    "prefecture_code": 33,
    "city": "玉野市",
    "city_kana": "タマノシ",
    "town": "八浜町大崎",
    "town_kana": "ハチハマチョウオオサキ",
    "street": null,
    "office_name": null,
    "office_name_kana": null
  },
  "0225": {
    "postcode": "7060225",
    "prefecture": "岡山県",
    "prefecture_kana": "オカヤマケン",
    "prefecture_code": 33,
    "city": "玉野市",
    "city_kana": "タマノシ",
    "town": "南七区",
    "town_kana": "ミナミナナク",
    "street": null,
    "office_name": null,
    "office_name_kana": null
  },
  "0226": {
    "postcode": "7060226",
    "prefecture": "岡山県",
    "prefecture_kana": "オカヤマケン",
    "prefecture_code": 33,
    "city": "玉野市",
    "city_kana": "タマノシ",
    "town": "東七区",
    "town_kana": "ヒガシナナク",
    "street": null,
    "office_name": null,
    "office_name_kana": null
  },
  "0301": {
    "postcode": "7060301",
    "prefecture": "岡山県",
    "prefecture_kana": "オカヤマケン",
    "prefecture_code": 33,
    "city": "玉野市",
    "city_kana": "タマノシ",
    "town": "北方",
    "town_kana": "キタガタ",
    "street": null,
    "office_name": null,
    "office_name_kana": null
  },
  "0302": {
    "postcode": "7060302",
    "prefecture": "岡山県",
    "prefecture_kana": "オカヤマケン",
    "prefecture_code": 33,
    "city": "玉野市",
    "city_kana": "タマノシ",
    "town": "下山坂",
    "town_kana": "シモヤマサカ",
    "street": null,
    "office_name": null,
    "office_name_kana": null
  },
  "0303": {
    "postcode": "7060303",
    "prefecture": "岡山県",
    "prefecture_kana": "オカヤマケン",
    "prefecture_code": 33,
    "city": "玉野市",
    "city_kana": "タマノシ",
    "town": "上山坂",
    "town_kana": "カミヤマサカ",
    "street": null,
    "office_name": null,
    "office_name_kana": null
  },
  "0304": {
    "postcode": "7060304",
    "prefecture": "岡山県",
    "prefecture_kana": "オカヤマケン",
    "prefecture_code": 33,
    "city": "玉野市",
    "city_kana": "タマノシ",
    "town": "番田",
    "town_kana": "バンダ",
    "street": null,
    "office_name": null,
    "office_name_kana": null
  },
  "0305": {
    "postcode": "7060305",
    "prefecture": "岡山県",
    "prefecture_kana": "オカヤマケン",
    "prefecture_code": 33,
    "city": "玉野市",
    "city_kana": "タマノシ",
    "town": "胸上",
    "town_kana": "ムネアゲ",
    "street": null,
    "office_name": null,
    "office_name_kana": null
  },
  "0306": {
    "postcode": "7060306",
    "prefecture": "岡山県",
    "prefecture_kana": "オカヤマケン",
    "prefecture_code": 33,
    "city": "玉野市",
    "city_kana": "タマノシ",
    "town": "石島",
    "town_kana": "イシマ",
    "street": null,
    "office_name": null,
    "office_name_kana": null
  },
  "0311": {
    "postcode": "7060311",
    "prefecture": "岡山県",
    "prefecture_kana": "オカヤマケン",
    "prefecture_code": 33,
    "city": "玉野市",
    "city_kana": "タマノシ",
    "town": "梶岡",
    "town_kana": "カジオカ",
    "street": null,
    "office_name": null,
    "office_name_kana": null
  },
  "0312": {
    "postcode": "7060312",
    "prefecture": "岡山県",
    "prefecture_kana": "オカヤマケン",
    "prefecture_code": 33,
    "city": "玉野市",
    "city_kana": "タマノシ",
    "town": "東田井地",
    "town_kana": "ヒガシタイジ",
    "street": null,
    "office_name": null,
    "office_name_kana": null
  },
  "0313": {
    "postcode": "7060313",
    "prefecture": "岡山県",
    "prefecture_kana": "オカヤマケン",
    "prefecture_code": 33,
    "city": "玉野市",
    "city_kana": "タマノシ",
    "town": "西田井地",
    "town_kana": "ニシタイジ",
    "street": null,
    "office_name": null,
    "office_name_kana": null
  },
  "0314": [
    {
      "postcode": "7060314",
      "prefecture": "岡山県",
      "prefecture_kana": "オカヤマケン",
      "prefecture_code": 33,
      "city": "玉野市",
      "city_kana": "タマノシ",
      "town": "東野崎",
      "town_kana": "ヒガシノザキ",
      "street": null,
      "office_name": null,
      "office_name_kana": null
    },
    {
      "postcode": "7060314",
      "prefecture": "岡山県",
      "prefecture_kana": "オカヤマケン",
      "prefecture_code": 33,
      "city": "玉野市",
      "city_kana": "タマノシ",
      "town": "山田",
      "town_kana": "ヤマダ",
      "street": null,
      "office_name": null,
      "office_name_kana": null
    }
  ],
  "0315": {
    "postcode": "7060315",
    "prefecture": "岡山県",
    "prefecture_kana": "オカヤマケン",
    "prefecture_code": 33,
    "city": "玉野市",
    "city_kana": "タマノシ",
    "town": "後閑",
    "town_kana": "ゴカン",
    "street": null,
    "office_name": null,
    "office_name_kana": null
  },
  "0316": {
    "postcode": "7060316",
    "prefecture": "岡山県",
    "prefecture_kana": "オカヤマケン",
    "prefecture_code": 33,
    "city": "玉野市",
    "city_kana": "タマノシ",
    "town": "沼",
    "town_kana": "ヌマ",
    "street": null,
    "office_name": null,
    "office_name_kana": null
  },
  "0317": {
    "postcode": "7060317",
    "prefecture": "岡山県",
    "prefecture_kana": "オカヤマケン",
    "prefecture_code": 33,
    "city": "玉野市",
    "city_kana": "タマノシ",
    "town": "大薮",
    "town_kana": "オオヤブ",
    "street": null,
    "office_name": null,
    "office_name_kana": null
  },
  "8501": {
    "postcode": "7068501",
    "prefecture": "岡山県",
    "prefecture_kana": "オカヤマケン",
    "prefecture_code": 33,
    "city": "玉野市",
    "city_kana": "タマノシ",
    "town": "玉",
    "town_kana": "タマ",
    "street": "２丁目５−５",
    "office_name": "三井造船生活　協同組合",
    "office_name_kana": "ミツイゾウセンセイカツ キヨウドウクミアイ"
  },
  "8510": {
    "postcode": "7068510",
    "prefecture": "岡山県",
    "prefecture_kana": "オカヤマケン",
    "prefecture_code": 33,
    "city": "玉野市",
    "city_kana": "タマノシ",
    "town": "宇野",
    "town_kana": "ウノ",
    "street": "１丁目２７−１",
    "office_name": "玉野市役所",
    "office_name_kana": "タマノシヤクシヨ"
  },
  "8511": {
    "postcode": "7068511",
    "prefecture": "岡山県",
    "prefecture_kana": "オカヤマケン",
    "prefecture_code": 33,
    "city": "玉野市",
    "city_kana": "タマノシ",
    "town": "日比",
    "town_kana": "ヒビ",
    "street": "６丁目１−１",
    "office_name": "三井金属鉱業株式会社　金属事業部　日比製煉所",
    "office_name_kana": "ミツイキンゾクコウギヨウカブシキガイシヤ キンゾクジギヨウブ ヒビセイレンジヨ"
  },
  "8531": {
    "postcode": "7068531",
    "prefecture": "岡山県",
    "prefecture_kana": "オカヤマケン",
    "prefecture_code": 33,
    "city": "玉野市",
    "city_kana": "タマノシ",
    "town": "宇野",
    "town_kana": "ウノ",
    "street": "２丁目１番２０号",
    "office_name": "地方独立行政法人　玉野医療センターたまの病院",
    "office_name_kana": "チホウドクリツギヨウセイホウジン タマノイリヨウセンタ-タマノビヨウイン"
  },
  "8533": {
    "postcode": "7068533",
    "prefecture": "岡山県",
    "prefecture_kana": "オカヤマケン",
    "prefecture_code": 33,
    "city": "玉野市",
    "city_kana": "タマノシ",
    "town": "築港",
    "town_kana": "チッコウ",
    "street": "１丁目１番３号",
    "office_name": "玉野商工会議所",
    "office_name_kana": "タマノシヨウコウカイギシヨ"
  },
  "8555": {
    "postcode": "7068555",
    "prefecture": "岡山県",
    "prefecture_kana": "オカヤマケン",
    "prefecture_code": 33,
    "city": "玉野市",
    "city_kana": "タマノシ",
    "town": "築港",
    "town_kana": "チッコウ",
    "street": "３丁目１１−１",
    "office_name": "岡山県立玉野高等学校",
    "office_name_kana": "オカヤマケンリツタマノコウトウガツコウ"
  },
  "8588": {
    "postcode": "7068588",
    "prefecture": "岡山県",
    "prefecture_kana": "オカヤマケン",
    "prefecture_code": 33,
    "city": "玉野市",
    "city_kana": "タマノシ",
    "town": "玉",
    "town_kana": "タマ",
    "street": "３丁目１番１号",
    "office_name": "三菱重工マリタイムシステムズ　株式会社",
    "office_name_kana": "ミツビシジユウコウマリタイムシステムズ カブシキガイシヤ"
  },
  "8651": {
    "postcode": "7068651",
    "prefecture": "岡山県",
    "prefecture_kana": "オカヤマケン",
    "prefecture_code": 33,
    "city": "玉野市",
    "city_kana": "タマノシ",
    "town": "玉",
    "town_kana": "タマ",
    "street": "３丁目１番１号（玉野郵便局私書箱第１号）",
    "office_name": "株式会社　三井Ｅ＆Ｓ玉野総合事務所",
    "office_name_kana": "カブシキガイシヤ ミツイイ-アンドエスタマノソウゴウジムシヨ"
  },
  "8655": {
    "postcode": "7068655",
    "prefecture": "岡山県",
    "prefecture_kana": "オカヤマケン",
    "prefecture_code": 33,
    "city": "玉野市",
    "city_kana": "タマノシ",
    "town": "宇野",
    "town_kana": "ウノ",
    "street": "２丁目４−１２（玉野郵便局私書箱第２７号）",
    "office_name": "玉野税務署",
    "office_name_kana": "タマノゼイムシヨ"
  }
}