{
  "0000": {
    "postcode": "7080000",
    "prefecture": "岡山県",
    "prefecture_kana": "オカヤマケン",
    "prefecture_code": 33,
    "city": "津山市",
    "city_kana": "ツヤマシ",
    "town": "",
    "town_kana": "",
    "street": null,
    "office_name": null,
    "office_name_kana": null
  },
  "0001": {
    "postcode": "7080001",
    "prefecture": "岡山県",
    "prefecture_kana": "オカヤマケン",
    "prefecture_code": 33,
    "city": "津山市",
    "city_kana": "ツヤマシ",
    "town": "小原",
    "town_kana": "オバラ",
    "street": null,
    "office_name": null,
    "office_name_kana": null
  },
  "0002": {
    "postcode": "7080002",
    "prefecture": "岡山県",
    "prefecture_kana": "オカヤマケン",
    "prefecture_code": 33,
    "city": "津山市",
    "city_kana": "ツヤマシ",
    "town": "上河原",
    "town_kana": "カミガワラ",
    "street": null,
    "office_name": null,
    "office_name_kana": null
  },
  "0003": {
    "postcode": "7080003",
    "prefecture": "岡山県",
    "prefecture_kana": "オカヤマケン",
    "prefecture_code": 33,
    "city": "津山市",
    "city_kana": "ツヤマシ",
    "town": "北園町",
    "town_kana": "キタゾノチョウ",
    "street": null,
    "office_name": null,
    "office_name_kana": null
  },
  "0004": {
    "postcode": "7080004",
    "prefecture": "岡山県",
    "prefecture_kana": "オカヤマケン",
    "prefecture_code": 33,
    "city": "津山市",
    "city_kana": "ツヤマシ",
    "town": "山北",
    "town_kana": "ヤマキタ",
    "street": null,
    "office_name": null,
    "office_name_kana": null
  },
  "0005": {
    "postcode": "7080005",
    "prefecture": "岡山県",
    "prefecture_kana": "オカヤマケン",
    "prefecture_code": 33,
    "city": "津山市",
    "city_kana": "ツヤマシ",
    "town": "城代町",
    "town_kana": "ジョウダイマチ",
    "street": null,
    "office_name": null,
    "office_name_kana": null
  },
  "0006": {
    "postcode": "7080006",
    "prefecture": "岡山県",
    "prefecture_kana": "オカヤマケン",
    "prefecture_code": 33,
    "city": "津山市",
    "city_kana": "ツヤマシ",
    "town": "小田中",
    "town_kana": "オダナカ",
    "street": null,
    "office_name": null,
    "office_name_kana": null
  },
  "0007": {
    "postcode": "7080007",
    "prefecture": "岡山県",
    "prefecture_kana": "オカヤマケン",
    "prefecture_code": 33,
    "city": "津山市",
    "city_kana": "ツヤマシ",
    "town": "総社",
    "town_kana": "ソウジャ",
    "street": null,
    "office_name": null,
    "office_name_kana": null
  },
  "0011": {
    "postcode": "7080011",
    "prefecture": "岡山県",
    "prefecture_kana": "オカヤマケン",
    "prefecture_code": 33,
    "city": "津山市",
    "city_kana": "ツヤマシ",
    "town": "上田邑",
    "town_kana": "カミタノムラ",
    "street": null,
    "office_name": null,
    "office_name_kana": null
  },
  "0012": {
    "postcode": "7080012",
    "prefecture": "岡山県",
    "prefecture_kana": "オカヤマケン",
    "prefecture_code": 33,
    "city": "津山市",
    "city_kana": "ツヤマシ",
    "town": "下田邑",
    "town_kana": "シモタノムラ",
    "street": null,
    "office_name": null,
    "office_name_kana": null
  },
  "0013": {
    "postcode": "7080013",
    "prefecture": "岡山県",
    "prefecture_kana": "オカヤマケン",
    "prefecture_code": 33,
    "city": "津山市",
    "city_kana": "ツヤマシ",
    "town": "二宮",
    "town_kana": "ニノミヤ",
    "street": null,
    "office_name": null,
    "office_name_kana": null
  },
  "0014": {
    "postcode": "7080014",
    "prefecture": "岡山県",
    "prefecture_kana": "オカヤマケン",
    "prefecture_code": 33,
    "city": "津山市",
    "city_kana": "ツヤマシ",
    "town": "院庄",
    "town_kana": "インノショウ",
    "street": null,
    "office_name": null,
    "office_name_kana": null
  },
  "0015": {
    "postcode": "7080015",
    "prefecture": "岡山県",
    "prefecture_kana": "オカヤマケン",
    "prefecture_code": 33,
    "city": "津山市",
    "city_kana": "ツヤマシ",
    "town": "神戸",
    "town_kana": "ジンゴ",
    "street": null,
    "office_name": null,
    "office_name_kana": null
  },
  "0016": {
    "postcode": "7080016",
    "prefecture": "岡山県",
    "prefecture_kana": "オカヤマケン",
    "prefecture_code": 33,
    "city": "津山市",
    "city_kana": "ツヤマシ",
    "town": "戸島",
    "town_kana": "トシマ",
    "street": null,
    "office_name": null,
    "office_name_kana": null
  },
  "0021": {
    "postcode": "7080021",
    "prefecture": "岡山県",
    "prefecture_kana": "オカヤマケン",
    "prefecture_code": 33,
    "city": "津山市",
    "city_kana": "ツヤマシ",
    "town": "北町",
    "town_kana": "キタマチ",
    "street": null,
    "office_name": null,
    "office_name_kana": null
  },
  "0022": {
    "postcode": "7080022",
    "prefecture": "岡山県",
    "prefecture_kana": "オカヤマケン",
    "prefecture_code": 33,
    "city": "津山市",
    "city_kana": "ツヤマシ",
    "town": "山下",
    "town_kana": "サンゲ",
    "street": null,
    "office_name": null,
    "office_name_kana": null
  },
  "0023": {
    "postcode": "7080023",
    "prefecture": "岡山県",
    "prefecture_kana": "オカヤマケン",
    "prefecture_code": 33,
    "city": "津山市",
    "city_kana": "ツヤマシ",
    "town": "大手町",
    "town_kana": "オオテマチ",
    "street": null,
    "office_name": null,
    "office_name_kana": null
  },
  "0024": {
    "postcode": "7080024",
    "prefecture": "岡山県",
    "prefecture_kana": "オカヤマケン",
    "prefecture_code": 33,
    "city": "津山市",
    "city_kana": "ツヤマシ",
    "town": "二階町",
    "town_kana": "ニカイマチ",
    "street": null,
    "office_name": null,
    "office_name_kana": null
  },
  "0031": {
    "postcode": "7080031",
    "prefecture": "岡山県",
    "prefecture_kana": "オカヤマケン",
    "prefecture_code": 33,
    "city": "津山市",
    "city_kana": "ツヤマシ",
    "town": "材木町",
    "town_kana": "ザイモクマチ",
    "street": null,
    "office_name": null,
    "office_name_kana": null
  },
  "0032": {
    "postcode": "7080032",
    "prefecture": "岡山県",
    "prefecture_kana": "オカヤマケン",
    "prefecture_code": 33,
    "city": "津山市",
    "city_kana": "ツヤマシ",
    "town": "伏見町",
    "town_kana": "フシミチョウ",
    "street": null,
    "office_name": null,
    "office_name_kana": null
  },
  "0033": {
    "postcode": "7080033",
    "prefecture": "岡山県",
    "prefecture_kana": "オカヤマケン",
    "prefecture_code": 33,
    "city": "津山市",
    "city_kana": "ツヤマシ",
    "town": "河原町",
    "town_kana": "カワラマチ",
    "street": null,
    "office_name": null,
    "office_name_kana": null
  },
  "0034": {
    "postcode": "7080034",
    "prefecture": "岡山県",
    "prefecture_kana": "オカヤマケン",
    "prefecture_code": 33,
    "city": "津山市",
    "city_kana": "ツヤマシ",
    "town": "船頭町",
    "town_kana": "センドウマチ",
    "street": null,
    "office_name": null,
    "office_name_kana": null
  },
  "0035": {
    "postcode": "7080035",
    "prefecture": "岡山県",
    "prefecture_kana": "オカヤマケン",
    "prefecture_code": 33,
    "city": "津山市",
    "city_kana": "ツヤマシ",
    "town": "吹屋町",
    "town_kana": "フキヤマチ",
    "street": null,
    "office_name": null,
    "office_name_kana": null
  },
  "0036": {
    "postcode": "7080036",
    "prefecture": "岡山県",
    "prefecture_kana": "オカヤマケン",
    "prefecture_code": 33,
    "city": "津山市",
    "city_kana": "ツヤマシ",
    "town": "南新座",
    "town_kana": "ミナミシンザ",
    "street": null,
    "office_name": null,
    "office_name_kana": null
  },
  "0037": {
    "postcode": "7080037",
    "prefecture": "岡山県",
    "prefecture_kana": "オカヤマケン",
    "prefecture_code": 33,
    "city": "津山市",
    "city_kana": "ツヤマシ",
    "town": "戸川町",
    "town_kana": "トガワマチ",
    "street": null,
    "office_name": null,
    "office_name_kana": null
  },
  "0041": {
    "postcode": "7080041",
    "prefecture": "岡山県",
    "prefecture_kana": "オカヤマケン",
    "prefecture_code": 33,
    "city": "津山市",
    "city_kana": "ツヤマシ",
    "town": "鉄砲町",
    "town_kana": "テッポウマチ",
    "street": null,
    "office_name": null,
    "office_name_kana": null
  },
  "0042": {
    "postcode": "7080042",
    "prefecture": "岡山県",
    "prefecture_kana": "オカヤマケン",
    "prefecture_code": 33,
    "city": "津山市",
    "city_kana": "ツヤマシ",
    "town": "新茅町",
    "town_kana": "シンカヤマチ",
    "street": null,
    "office_name": null,
    "office_name_kana": null
  },
  "0043": {
    "postcode": "7080043",
    "prefecture": "岡山県",
    "prefecture_kana": "オカヤマケン",
    "prefecture_code": 33,
    "city": "津山市",
    "city_kana": "ツヤマシ",
    "town": "茅町",
    "town_kana": "カヤマチ",
    "street": null,
    "office_name": null,
    "office_name_kana": null
  },
  "0044": {
    "postcode": "7080044",
    "prefecture": "岡山県",
    "prefecture_kana": "オカヤマケン",
    "prefecture_code": 33,
    "city": "津山市",
    "city_kana": "ツヤマシ",
    "town": "安岡町",
    "town_kana": "ヤスオカマチ",
    "street": null,
    "office_name": null,
    "office_name_kana": null
  },
  "0045": {
    "postcode": "7080045",
    "prefecture": "岡山県",
    "prefecture_kana": "オカヤマケン",
    "prefecture_code": 33,
    "city": "津山市",
    "city_kana": "ツヤマシ",
    "town": "西寺町",
    "town_kana": "ニシテラマチ",
    "street": null,
    "office_name": null,
    "office_name_kana": null
  },
  "0046": {
    "postcode": "7080046",
    "prefecture": "岡山県",
    "prefecture_kana": "オカヤマケン",
    "prefecture_code": 33,
    "city": "津山市",
    "city_kana": "ツヤマシ",
    "town": "西今町",
    "town_kana": "ニシイママチ",
    "street": null,
    "office_name": null,
    "office_name_kana": null
  },
  "0047": {
    "postcode": "7080047",
    "prefecture": "岡山県",
    "prefecture_kana": "オカヤマケン",
    "prefecture_code": 33,
    "city": "津山市",
    "city_kana": "ツヤマシ",
    "town": "宮脇町",
    "town_kana": "ミヤワキチョウ",
    "street": null,
    "office_name": null,
    "office_name_kana": null
  },
  "0051": {
    "postcode": "7080051",
    "prefecture": "岡山県",
    "prefecture_kana": "オカヤマケン",
    "prefecture_code": 33,
    "city": "津山市",
    "city_kana": "ツヤマシ",
    "town": "椿高下",
    "town_kana": "ツバキコウゲ",
    "street": null,
    "office_name": null,
    "office_name_kana": null
  },
  "0052": {
    "postcode": "7080052",
    "prefecture": "岡山県",
    "prefecture_kana": "オカヤマケン",
    "prefecture_code": 33,
    "city": "津山市",
    "city_kana": "ツヤマシ",
    "town": "田町",
    "town_kana": "タマチ",
    "street": null,
    "office_name": null,
    "office_name_kana": null
  },
  "0053": {
    "postcode": "7080053",
    "prefecture": "岡山県",
    "prefecture_kana": "オカヤマケン",
    "prefecture_code": 33,
    "city": "津山市",
    "city_kana": "ツヤマシ",
    "town": "細工町",
    "town_kana": "サイクノチョウ",
    "street": null,
    "office_name": null,
    "office_name_kana": null
  },
  "0061": {
    "postcode": "7080061",
    "prefecture": "岡山県",
    "prefecture_kana": "オカヤマケン",
    "prefecture_code": 33,
    "city": "津山市",
    "city_kana": "ツヤマシ",
    "town": "元魚町",
    "town_kana": "モトウオマチ",
    "street": null,
    "office_name": null,
    "office_name_kana": null
  },
  "0062": {
    "postcode": "7080062",
    "prefecture": "岡山県",
    "prefecture_kana": "オカヤマケン",
    "prefecture_code": 33,
    "city": "津山市",
    "city_kana": "ツヤマシ",
    "town": "京町",
    "town_kana": "キョウマチ",
    "street": null,
    "office_name": null,
    "office_name_kana": null
  },
  "0063": {
    "postcode": "7080063",
    "prefecture": "岡山県",
    "prefecture_kana": "オカヤマケン",
    "prefecture_code": 33,
    "city": "津山市",
    "city_kana": "ツヤマシ",
    "town": "小性町",
    "town_kana": "コショウマチ",
    "street": null,
    "office_name": null,
    "office_name_kana": null
  },
  "0064": {
    "postcode": "7080064",
    "prefecture": "岡山県",
    "prefecture_kana": "オカヤマケン",
    "prefecture_code": 33,
    "city": "津山市",
    "city_kana": "ツヤマシ",
    "town": "堺町",
    "town_kana": "サカイマチ",
    "street": null,
    "office_name": null,
    "office_name_kana": null
  },
  "0065": {
    "postcode": "7080065",
    "prefecture": "岡山県",
    "prefecture_kana": "オカヤマケン",
    "prefecture_code": 33,
    "city": "津山市",
    "city_kana": "ツヤマシ",
    "town": "新魚町",
    "town_kana": "シンウオマチ",
    "street": null,
    "office_name": null,
    "office_name_kana": null
  },
  "0066": {
    "postcode": "7080066",
    "prefecture": "岡山県",
    "prefecture_kana": "オカヤマケン",
    "prefecture_code": 33,
    "city": "津山市",
    "city_kana": "ツヤマシ",
    "town": "桶屋町",
    "town_kana": "オケヤマチ",
    "street": null,
    "office_name": null,
    "office_name_kana": null
  },
  "0067": {
    "postcode": "7080067",
    "prefecture": "岡山県",
    "prefecture_kana": "オカヤマケン",
    "prefecture_code": 33,
    "city": "津山市",
    "city_kana": "ツヤマシ",
    "town": "新職人町",
    "town_kana": "シンショクニンマチ",
    "street": null,
    "office_name": null,
    "office_name_kana": null
  },
  "0071": {
    "postcode": "7080071",
    "prefecture": "岡山県",
    "prefecture_kana": "オカヤマケン",
    "prefecture_code": 33,
    "city": "津山市",
    "city_kana": "ツヤマシ",
    "town": "下紺屋町",
    "town_kana": "シモコウヤマチ",
    "street": null,
    "office_name": null,
    "office_name_kana": null
  },
  "0072": {
    "postcode": "7080072",
    "prefecture": "岡山県",
    "prefecture_kana": "オカヤマケン",
    "prefecture_code": 33,
    "city": "津山市",
    "city_kana": "ツヤマシ",
    "town": "美濃町",
    "town_kana": "ミノマチ",
    "street": null,
    "office_name": null,
    "office_name_kana": null
  },
  "0073": {
    "postcode": "7080073",
    "prefecture": "岡山県",
    "prefecture_kana": "オカヤマケン",
    "prefecture_code": 33,
    "city": "津山市",
    "city_kana": "ツヤマシ",
    "town": "本町",
    "town_kana": "ホンマチ",
    "street": null,
    "office_name": null,
    "office_name_kana": null
  },
  "0074": {
    "postcode": "7080074",
    "prefecture": "岡山県",
    "prefecture_kana": "オカヤマケン",
    "prefecture_code": 33,
    "city": "津山市",
    "city_kana": "ツヤマシ",
    "town": "福渡町",
    "town_kana": "フクワタリマチ",
    "street": null,
    "office_name": null,
    "office_name_kana": null
  },
  "0075": {
    "postcode": "7080075",
    "prefecture": "岡山県",
    "prefecture_kana": "オカヤマケン",
    "prefecture_code": 33,
    "city": "津山市",
    "city_kana": "ツヤマシ",
    "town": "坪井町",
    "town_kana": "ツボイマチ",
    "street": null,
    "office_name": null,
    "office_name_kana": null
  },
  "0076": {
    "postcode": "7080076",
    "prefecture": "岡山県",
    "prefecture_kana": "オカヤマケン",
    "prefecture_code": 33,
    "city": "津山市",
    "city_kana": "ツヤマシ",
    "town": "上紺屋町",
    "town_kana": "カミコウヤマチ",
    "street": null,
    "office_name": null,
    "office_name_kana": null
  },
  "0077": {
    "postcode": "7080077",
    "prefecture": "岡山県",
    "prefecture_kana": "オカヤマケン",
    "prefecture_code": 33,
    "city": "津山市",
    "city_kana": "ツヤマシ",
    "town": "鍛治町",
    "town_kana": "カジマチ",
    "street": null,
    "office_name": null,
    "office_name_kana": null
  },
  "0300": {
    "postcode": "7080300",
    "prefecture": "岡山県",
    "prefecture_kana": "オカヤマケン",
    "prefecture_code": 33,
    "city": "苫田郡鏡野町",
    "city_kana": "トマタグンカガミノチョウ",
    "town": "",
    "town_kana": "",
    "street": null,
    "office_name": null,
    "office_name_kana": null
  },
  "0301": {
    "postcode": "7080301",
    "prefecture": "岡山県",
    "prefecture_kana": "オカヤマケン",
    "prefecture_code": 33,
    "city": "苫田郡鏡野町",
    "city_kana": "トマタグンカガミノチョウ",
    "town": "越畑",
    "town_kana": "コシワタ",
    "street": null,
    "office_name": null,
    "office_name_kana": null
  },
  "0302": {
    "postcode": "7080302",
    "prefecture": "岡山県",
    "prefecture_kana": "オカヤマケン",
    "prefecture_code": 33,
    "city": "苫田郡鏡野町",
    "city_kana": "トマタグンカガミノチョウ",
    "town": "岩屋",
    "town_kana": "イワヤ",
    "street": null,
    "office_name": null,
    "office_name_kana": null
  },
  "0303": {
    "postcode": "7080303",
    "prefecture": "岡山県",
    "prefecture_kana": "オカヤマケン",
    "prefecture_code": 33,
    "city": "苫田郡鏡野町",
    "city_kana": "トマタグンカガミノチョウ",
    "town": "大町",
    "town_kana": "オオマチ",
    "street": null,
    "office_name": null,
    "office_name_kana": null
  },
  "0304": {
    "postcode": "7080304",
    "prefecture": "岡山県",
    "prefecture_kana": "オカヤマケン",
    "prefecture_code": 33,
    "city": "苫田郡鏡野町",
    "city_kana": "トマタグンカガミノチョウ",
    "town": "真経",
    "town_kana": "サネツネ",
    "street": null,
    "office_name": null,
    "office_name_kana": null
  },
  "0305": {
    "postcode": "7080305",
    "prefecture": "岡山県",
    "prefecture_kana": "オカヤマケン",
    "prefecture_code": 33,
    "city": "苫田郡鏡野町",
    "city_kana": "トマタグンカガミノチョウ",
    "town": "百谷",
    "town_kana": "モモダニ",
    "street": null,
    "office_name": null,
    "office_name_kana": null
  },
  "0311": {
    "postcode": "7080311",
    "prefecture": "岡山県",
    "prefecture_kana": "オカヤマケン",
    "prefecture_code": 33,
    "city": "苫田郡鏡野町",
    "city_kana": "トマタグンカガミノチョウ",
    "town": "寺和田",
    "town_kana": "テラワダ",
    "street": null,
    "office_name": null,
    "office_name_kana": null
  },
  "0312": {
    "postcode": "7080312",
    "prefecture": "岡山県",
    "prefecture_kana": "オカヤマケン",
    "prefecture_code": 33,
    "city": "苫田郡鏡野町",
    "city_kana": "トマタグンカガミノチョウ",
    "town": "香々美",
    "town_kana": "カガミ",
    "street": null,
    "office_name": null,
    "office_name_kana": null
  },
  "0313": {
    "postcode": "7080313",
    "prefecture": "岡山県",
    "prefecture_kana": "オカヤマケン",
    "prefecture_code": 33,
    "city": "苫田郡鏡野町",
    "city_kana": "トマタグンカガミノチョウ",
    "town": "公保田",
    "town_kana": "クホウデン",
    "street": null,
    "office_name": null,
    "office_name_kana": null
  },
  "0314": {
    "postcode": "7080314",
    "prefecture": "岡山県",
    "prefecture_kana": "オカヤマケン",
    "prefecture_code": 33,
    "city": "苫田郡鏡野町",
    "city_kana": "トマタグンカガミノチョウ",
    "town": "沢田",
    "town_kana": "サワタ",
    "street": null,
    "office_name": null,
    "office_name_kana": null
  },
  "0315": {
    "postcode": "7080315",
    "prefecture": "岡山県",
    "prefecture_kana": "オカヤマケン",
    "prefecture_code": 33,
    "city": "苫田郡鏡野町",
    "city_kana": "トマタグンカガミノチョウ",
    "town": "市場",
    "town_kana": "イチバ",
    "street": null,
    "office_name": null,
    "office_name_kana": null
  },
  "0316": {
    "postcode": "7080316",
    "prefecture": "岡山県",
    "prefecture_kana": "オカヤマケン",
    "prefecture_code": 33,
    "city": "苫田郡鏡野町",
    "city_kana": "トマタグンカガミノチョウ",
    "town": "和田",
    "town_kana": "ワダ",
    "street": null,
    "office_name": null,
    "office_name_kana": null
  },
  "0317": {
    "postcode": "7080317",
    "prefecture": "岡山県",
    "prefecture_kana": "オカヤマケン",
    "prefecture_code": 33,
    "city": "苫田郡鏡野町",
    "city_kana": "トマタグンカガミノチョウ",
    "town": "土居",
    "town_kana": "ドイ",
    "street": null,
    "office_name": null,
    "office_name_kana": null
  },
  "0321": {
    "postcode": "7080321",
    "prefecture": "岡山県",
    "prefecture_kana": "オカヤマケン",
    "prefecture_code": 33,
    "city": "苫田郡鏡野町",
    "city_kana": "トマタグンカガミノチョウ",
    "town": "円宗寺",
    "town_kana": "エンジュウジ",
    "street": null,
    "office_name": null,
    "office_name_kana": null
  },
  "0322": {
    "postcode": "7080322",
    "prefecture": "岡山県",
    "prefecture_kana": "オカヤマケン",
    "prefecture_code": 33,
    "city": "苫田郡鏡野町",
    "city_kana": "トマタグンカガミノチョウ",
    "town": "沖",
    "town_kana": "オキ",
    "street": null,
    "office_name": null,
    "office_name_kana": null
  },
  "0323": {
    "postcode": "7080323",
    "prefecture": "岡山県",
    "prefecture_kana": "オカヤマケン",
    "prefecture_code": 33,
    "city": "苫田郡鏡野町",
    "city_kana": "トマタグンカガミノチョウ",
    "town": "寺元",
    "town_kana": "テラモト",
    "street": null,
    "office_name": null,
    "office_name_kana": null
  },
  "0324": {
    "postcode": "7080324",
    "prefecture": "岡山県",
    "prefecture_kana": "オカヤマケン",
    "prefecture_code": 33,
    "city": "苫田郡鏡野町",
    "city_kana": "トマタグンカガミノチョウ",
    "town": "竹田",
    "town_kana": "タケダ",
    "street": null,
    "office_name": null,
    "office_name_kana": null
  },
  "0325": {
    "postcode": "7080325",
    "prefecture": "岡山県",
    "prefecture_kana": "オカヤマケン",
    "prefecture_code": 33,
    "city": "苫田郡鏡野町",
    "city_kana": "トマタグンカガミノチョウ",
    "town": "瀬戸",
    "town_kana": "セト",
    "street": null,
    "office_name": null,
    "office_name_kana": null
  },
  "0331": {
    "postcode": "7080331",
    "prefecture": "岡山県",
    "prefecture_kana": "オカヤマケン",
    "prefecture_code": 33,
    "city": "苫田郡鏡野町",
    "city_kana": "トマタグンカガミノチョウ",
    "town": "布原",
    "town_kana": "ヌノハラ",
    "street": null,
    "office_name": null,
    "office_name_kana": null
  },
  "0332": {
    "postcode": "7080332",
    "prefecture": "岡山県",
    "prefecture_kana": "オカヤマケン",
    "prefecture_code": 33,
    "city": "苫田郡鏡野町",
    "city_kana": "トマタグンカガミノチョウ",
    "town": "吉原",
    "town_kana": "ヨシハラ",
    "street": null,
    "office_name": null,
    "office_name_kana": null
  },
  "0333": {
    "postcode": "7080333",
    "prefecture": "岡山県",
    "prefecture_kana": "オカヤマケン",
    "prefecture_code": 33,
    "city": "苫田郡鏡野町",
    "city_kana": "トマタグンカガミノチョウ",
    "town": "古川",
    "town_kana": "フルカワ",
    "street": null,
    "office_name": null,
    "office_name_kana": null
  },
  "0334": {
    "postcode": "7080334",
    "prefecture": "岡山県",
    "prefecture_kana": "オカヤマケン",
    "prefecture_code": 33,
    "city": "苫田郡鏡野町",
    "city_kana": "トマタグンカガミノチョウ",
    "town": "宗枝",
    "town_kana": "ムネダ",
    "street": null,
    "office_name": null,
    "office_name_kana": null
  },
  "0335": {
    "postcode": "7080335",
    "prefecture": "岡山県",
    "prefecture_kana": "オカヤマケン",
    "prefecture_code": 33,
    "city": "苫田郡鏡野町",
    "city_kana": "トマタグンカガミノチョウ",
    "town": "真加部",
    "town_kana": "マカベ",
    "street": null,
    "office_name": null,
    "office_name_kana": null
  },
  "0341": {
    "postcode": "7080341",
    "prefecture": "岡山県",
    "prefecture_kana": "オカヤマケン",
    "prefecture_code": 33,
    "city": "苫田郡鏡野町",
    "city_kana": "トマタグンカガミノチョウ",
    "town": "下原",
    "town_kana": "シモバラ",
    "street": null,
    "office_name": null,
    "office_name_kana": null
  },
  "0342": {
    "postcode": "7080342",
    "prefecture": "岡山県",
    "prefecture_kana": "オカヤマケン",
    "prefecture_code": 33,
    "city": "苫田郡鏡野町",
    "city_kana": "トマタグンカガミノチョウ",
    "town": "薪森原",
    "town_kana": "タキギモリバラ",
    "street": null,
    "office_name": null,
    "office_name_kana": null
  },
  "0343": {
    "postcode": "7080343",
    "prefecture": "岡山県",
    "prefecture_kana": "オカヤマケン",
    "prefecture_code": 33,
    "city": "苫田郡鏡野町",
    "city_kana": "トマタグンカガミノチョウ",
    "town": "河本",
    "town_kana": "コウモト",
    "street": null,
    "office_name": null,
    "office_name_kana": null
  },
  "0344": {
    "postcode": "7080344",
    "prefecture": "岡山県",
    "prefecture_kana": "オカヤマケン",
    "prefecture_code": 33,
    "city": "苫田郡鏡野町",
    "city_kana": "トマタグンカガミノチョウ",
    "town": "原",
    "town_kana": "ハラ",
    "street": null,
    "office_name": null,
    "office_name_kana": null
  },
  "0345": {
    "postcode": "7080345",
    "prefecture": "岡山県",
    "prefecture_kana": "オカヤマケン",
    "prefecture_code": 33,
    "city": "苫田郡鏡野町",
    "city_kana": "トマタグンカガミノチョウ",
    "town": "高山",
    "town_kana": "タカヤマ",
    "street": null,
    "office_name": null,
    "office_name_kana": null
  },
  "0351": {
    "postcode": "7080351",
    "prefecture": "岡山県",
    "prefecture_kana": "オカヤマケン",
    "prefecture_code": 33,
    "city": "苫田郡鏡野町",
    "city_kana": "トマタグンカガミノチョウ",
    "town": "入",
    "town_kana": "イリ",
    "street": null,
    "office_name": null,
    "office_name_kana": null
  },
  "0352": {
    "postcode": "7080352",
    "prefecture": "岡山県",
    "prefecture_kana": "オカヤマケン",
    "prefecture_code": 33,
    "city": "苫田郡鏡野町",
    "city_kana": "トマタグンカガミノチョウ",
    "town": "山城",
    "town_kana": "ヤマシロ",
    "street": null,
    "office_name": null,
    "office_name_kana": null
  },
  "0353": {
    "postcode": "7080353",
    "prefecture": "岡山県",
    "prefecture_kana": "オカヤマケン",
    "prefecture_code": 33,
    "city": "苫田郡鏡野町",
    "city_kana": "トマタグンカガミノチョウ",
    "town": "中谷",
    "town_kana": "ナカダニ",
    "street": null,
    "office_name": null,
    "office_name_kana": null
  },
  "0361": {
    "postcode": "7080361",
    "prefecture": "岡山県",
    "prefecture_kana": "オカヤマケン",
    "prefecture_code": 33,
    "city": "苫田郡鏡野町",
    "city_kana": "トマタグンカガミノチョウ",
    "town": "上森原",
    "town_kana": "カミモリバラ",
    "street": null,
    "office_name": null,
    "office_name_kana": null
  },
  "0362": {
    "postcode": "7080362",
    "prefecture": "岡山県",
    "prefecture_kana": "オカヤマケン",
    "prefecture_code": 33,
    "city": "苫田郡鏡野町",
    "city_kana": "トマタグンカガミノチョウ",
    "town": "貞永寺",
    "town_kana": "テエジ",
    "street": null,
    "office_name": null,
    "office_name_kana": null
  },
  "0363": {
    "postcode": "7080363",
    "prefecture": "岡山県",
    "prefecture_kana": "オカヤマケン",
    "prefecture_code": 33,
    "city": "苫田郡鏡野町",
    "city_kana": "トマタグンカガミノチョウ",
    "town": "小座",
    "town_kana": "オザ",
    "street": null,
    "office_name": null,
    "office_name_kana": null
  },
  "0364": {
    "postcode": "7080364",
    "prefecture": "岡山県",
    "prefecture_kana": "オカヤマケン",
    "prefecture_code": 33,
    "city": "苫田郡鏡野町",
    "city_kana": "トマタグンカガミノチョウ",
    "town": "下森原",
    "town_kana": "シモモリバラ",
    "street": null,
    "office_name": null,
    "office_name_kana": null
  },
  "0365": {
    "postcode": "7080365",
    "prefecture": "岡山県",
    "prefecture_kana": "オカヤマケン",
    "prefecture_code": 33,
    "city": "苫田郡鏡野町",
    "city_kana": "トマタグンカガミノチョウ",
    "town": "塚谷",
    "town_kana": "ツカダニ",
    "street": null,
    "office_name": null,
    "office_name_kana": null
  },
  "0366": {
    "postcode": "7080366",
    "prefecture": "岡山県",
    "prefecture_kana": "オカヤマケン",
    "prefecture_code": 33,
    "city": "苫田郡鏡野町",
    "city_kana": "トマタグンカガミノチョウ",
    "town": "馬場",
    "town_kana": "ババ",
    "street": null,
    "office_name": null,
    "office_name_kana": null
  },
  "0392": {
    "postcode": "7080392",
    "prefecture": "岡山県",
    "prefecture_kana": "オカヤマケン",
    "prefecture_code": 33,
    "city": "苫田郡鏡野町",
    "city_kana": "トマタグンカガミノチョウ",
    "town": "竹田",
    "town_kana": "タケダ",
    "street": "６６０",
    "office_name": "鏡野町役場",
    "office_name_kana": "カガミノチヨウヤクバ"
  },
  "0393": {
    "postcode": "7080393",
    "prefecture": "岡山県",
    "prefecture_kana": "オカヤマケン",
    "prefecture_code": 33,
    "city": "苫田郡鏡野町",
    "city_kana": "トマタグンカガミノチョウ",
    "town": "市場",
    "town_kana": "イチバ",
    "street": "１９４",
    "office_name": "株式会社　山田養蜂場",
    "office_name_kana": "カブシキガイシヤ ヤマダヨウホウジヨウ"
  },
  "0421": {
    "postcode": "7080421",
    "prefecture": "岡山県",
    "prefecture_kana": "オカヤマケン",
    "prefecture_code": 33,
    "city": "苫田郡鏡野町",
    "city_kana": "トマタグンカガミノチョウ",
    "town": "井坂",
    "town_kana": "イザカ",
    "street": null,
    "office_name": null,
    "office_name_kana": null
  },
  "0422": {
    "postcode": "7080422",
    "prefecture": "岡山県",
    "prefecture_kana": "オカヤマケン",
    "prefecture_code": 33,
    "city": "苫田郡鏡野町",
    "city_kana": "トマタグンカガミノチョウ",
    "town": "養野",
    "town_kana": "ヨウノ",
    "street": null,
    "office_name": null,
    "office_name_kana": null
  },
  "0423": {
    "postcode": "7080423",
    "prefecture": "岡山県",
    "prefecture_kana": "オカヤマケン",
    "prefecture_code": 33,
    "city": "苫田郡鏡野町",
    "city_kana": "トマタグンカガミノチョウ",
    "town": "女原",
    "town_kana": "オナバラ",
    "street": null,
    "office_name": null,
    "office_name_kana": null
  },
  "0424": {
    "postcode": "7080424",
    "prefecture": "岡山県",
    "prefecture_kana": "オカヤマケン",
    "prefecture_code": 33,
    "city": "苫田郡鏡野町",
    "city_kana": "トマタグンカガミノチョウ",
    "town": "杉",
    "town_kana": "スギ",
    "street": null,
    "office_name": null,
    "office_name_kana": null
  },
  "0425": {
    "postcode": "7080425",
    "prefecture": "岡山県",
    "prefecture_kana": "オカヤマケン",
    "prefecture_code": 33,
    "city": "苫田郡鏡野町",
    "city_kana": "トマタグンカガミノチョウ",
    "town": "箱",
    "town_kana": "ハコ",
    "street": null,
    "office_name": null,
    "office_name_kana": null
  },
  "0426": {
    "postcode": "7080426",
    "prefecture": "岡山県",
    "prefecture_kana": "オカヤマケン",
    "prefecture_code": 33,
    "city": "苫田郡鏡野町",
    "city_kana": "トマタグンカガミノチョウ",
    "town": "西屋",
    "town_kana": "ニシヤ",
    "street": null,
    "office_name": null,
    "office_name_kana": null
  },
  "0427": {
    "postcode": "7080427",
    "prefecture": "岡山県",
    "prefecture_kana": "オカヤマケン",
    "prefecture_code": 33,
    "city": "苫田郡鏡野町",
    "city_kana": "トマタグンカガミノチョウ",
    "town": "至孝農",
    "town_kana": "シコウノ",
    "street": null,
    "office_name": null,
    "office_name_kana": null
  },
  "0431": {
    "postcode": "7080431",
    "prefecture": "岡山県",
    "prefecture_kana": "オカヤマケン",
    "prefecture_code": 33,
    "city": "苫田郡鏡野町",
    "city_kana": "トマタグンカガミノチョウ",
    "town": "河内",
    "town_kana": "コウチ",
    "street": null,
    "office_name": null,
    "office_name_kana": null
  },
  "0432": {
    "postcode": "7080432",
    "prefecture": "岡山県",
    "prefecture_kana": "オカヤマケン",
    "prefecture_code": 33,
    "city": "苫田郡鏡野町",
    "city_kana": "トマタグンカガミノチョウ",
    "town": "久田上原",
    "town_kana": "クタカミノハラ",
    "street": null,
    "office_name": null,
    "office_name_kana": null
  },
  "0433": {
    "postcode": "7080433",
    "prefecture": "岡山県",
    "prefecture_kana": "オカヤマケン",
    "prefecture_code": 33,
    "city": "苫田郡鏡野町",
    "city_kana": "トマタグンカガミノチョウ",
    "town": "久田下原",
    "town_kana": "クタシモノハラ",
    "street": null,
    "office_name": null,
    "office_name_kana": null
  },
  "0434": {
    "postcode": "7080434",
    "prefecture": "岡山県",
    "prefecture_kana": "オカヤマケン",
    "prefecture_code": 33,
    "city": "苫田郡鏡野町",
    "city_kana": "トマタグンカガミノチョウ",
    "town": "土生",
    "town_kana": "ハブ",
    "street": null,
    "office_name": null,
    "office_name_kana": null
  },
  "0435": {
    "postcode": "7080435",
    "prefecture": "岡山県",
    "prefecture_kana": "オカヤマケン",
    "prefecture_code": 33,
    "city": "苫田郡鏡野町",
    "city_kana": "トマタグンカガミノチョウ",
    "town": "黒木",
    "town_kana": "クロギ",
    "street": null,
    "office_name": null,
    "office_name_kana": null
  },
  "0501": {
    "postcode": "7080501",
    "prefecture": "岡山県",
    "prefecture_kana": "オカヤマケン",
    "prefecture_code": 33,
    "city": "苫田郡鏡野町",
    "city_kana": "トマタグンカガミノチョウ",
    "town": "下斎原",
    "town_kana": "シモサイバラ",
    "street": null,
    "office_name": null,
    "office_name_kana": null
  },
  "0502": {
    "postcode": "7080502",
    "prefecture": "岡山県",
    "prefecture_kana": "オカヤマケン",
    "prefecture_code": 33,
    "city": "苫田郡鏡野町",
    "city_kana": "トマタグンカガミノチョウ",
    "town": "長藤",
    "town_kana": "ナガトウ",
    "street": null,
    "office_name": null,
    "office_name_kana": null
  },
  "0503": {
    "postcode": "7080503",
    "prefecture": "岡山県",
    "prefecture_kana": "オカヤマケン",
    "prefecture_code": 33,
    "city": "苫田郡鏡野町",
    "city_kana": "トマタグンカガミノチョウ",
    "town": "奥津",
    "town_kana": "オクツ",
    "street": null,
    "office_name": null,
    "office_name_kana": null
  },
  "0504": {
    "postcode": "7080504",
    "prefecture": "岡山県",
    "prefecture_kana": "オカヤマケン",
    "prefecture_code": 33,
    "city": "苫田郡鏡野町",
    "city_kana": "トマタグンカガミノチョウ",
    "town": "奥津川西",
    "town_kana": "オクツカワニシ",
    "street": null,
    "office_name": null,
    "office_name_kana": null
  },
  "0511": {
    "postcode": "7080511",
    "prefecture": "岡山県",
    "prefecture_kana": "オカヤマケン",
    "prefecture_code": 33,
    "city": "苫田郡鏡野町",
    "city_kana": "トマタグンカガミノチョウ",
    "town": "羽出",
    "town_kana": "ハデ",
    "street": null,
    "office_name": null,
    "office_name_kana": null
  },
  "0512": {
    "postcode": "7080512",
    "prefecture": "岡山県",
    "prefecture_kana": "オカヤマケン",
    "prefecture_code": 33,
    "city": "苫田郡鏡野町",
    "city_kana": "トマタグンカガミノチョウ",
    "town": "羽出西谷",
    "town_kana": "ハデニシダニ",
    "street": null,
    "office_name": null,
    "office_name_kana": null
  },
  "0601": {
    "postcode": "7080601",
    "prefecture": "岡山県",
    "prefecture_kana": "オカヤマケン",
    "prefecture_code": 33,
    "city": "苫田郡鏡野町",
    "city_kana": "トマタグンカガミノチョウ",
    "town": "上齋原",
    "town_kana": "カミサイバラ",
    "street": null,
    "office_name": null,
    "office_name_kana": null
  },
  "0698": {
    "postcode": "7080698",
    "prefecture": "岡山県",
    "prefecture_kana": "オカヤマケン",
    "prefecture_code": 33,
    "city": "苫田郡鏡野町",
    "city_kana": "トマタグンカガミノチョウ",
    "town": "上齋原",
    "town_kana": "カミサイバラ",
    "street": "１５５０",
    "office_name": "国立研究開発法人　日本原子力研究開発機構　人形峠環境技術センター",
    "office_name_kana": "コクリツケンキユウカイハツホウジン ニホンゲンシリヨクケンキユウカイハツキコウ ニンギヨウトウゲカンキヨウギジユツセンタ-"
  },
  "0701": {
    "postcode": "7080701",
    "prefecture": "岡山県",
    "prefecture_kana": "オカヤマケン",
    "prefecture_code": 33,
    "city": "苫田郡鏡野町",
    "city_kana": "トマタグンカガミノチョウ",
    "town": "富西谷",
    "town_kana": "トミニシダニ",
    "street": null,
    "office_name": null,
    "office_name_kana": null
  },
  "0702": {
    "postcode": "7080702",
    "prefecture": "岡山県",
    "prefecture_kana": "オカヤマケン",
    "prefecture_code": 33,
    "city": "苫田郡鏡野町",
    "city_kana": "トマタグンカガミノチョウ",
    "town": "富東谷",
    "town_kana": "トミヒガシダニ",
    "street": null,
    "office_name": null,
    "office_name_kana": null
  },
  "0703": {
    "postcode": "7080703",
    "prefecture": "岡山県",
    "prefecture_kana": "オカヤマケン",
    "prefecture_code": 33,
    "city": "苫田郡鏡野町",
    "city_kana": "トマタグンカガミノチョウ",
    "town": "富仲間",
    "town_kana": "トミナカマ",
    "street": null,
    "office_name": null,
    "office_name_kana": null
  },
  "0704": {
    "postcode": "7080704",
    "prefecture": "岡山県",
    "prefecture_kana": "オカヤマケン",
    "prefecture_code": 33,
    "city": "苫田郡鏡野町",
    "city_kana": "トマタグンカガミノチョウ",
    "town": "大",
    "town_kana": "オオ",
    "street": null,
    "office_name": null,
    "office_name_kana": null
  },
  "0705": {
    "postcode": "7080705",
    "prefecture": "岡山県",
    "prefecture_kana": "オカヤマケン",
    "prefecture_code": 33,
    "city": "苫田郡鏡野町",
    "city_kana": "トマタグンカガミノチョウ",
    "town": "楠",
    "town_kana": "クス",
    "street": null,
    "office_name": null,
    "office_name_kana": null
  },
  "0801": {
    "postcode": "7080801",
    "prefecture": "岡山県",
    "prefecture_kana": "オカヤマケン",
    "prefecture_code": 33,
    "city": "津山市",
    "city_kana": "ツヤマシ",
    "town": "上横野",
    "town_kana": "カミヨコノ",
    "street": null,
    "office_name": null,
    "office_name_kana": null
  },
  "0802": {
    "postcode": "7080802",
    "prefecture": "岡山県",
    "prefecture_kana": "オカヤマケン",
    "prefecture_code": 33,
    "city": "津山市",
    "city_kana": "ツヤマシ",
    "town": "大篠",
    "town_kana": "オオササ",
    "street": null,
    "office_name": null,
    "office_name_kana": null
  },
  "0803": {
    "postcode": "7080803",
    "prefecture": "岡山県",
    "prefecture_kana": "オカヤマケン",
    "prefecture_code": 33,
    "city": "津山市",
    "city_kana": "ツヤマシ",
    "town": "籾保",
    "town_kana": "モミホ",
    "street": null,
    "office_name": null,
    "office_name_kana": null
  },
  "0804": {
    "postcode": "7080804",
    "prefecture": "岡山県",
    "prefecture_kana": "オカヤマケン",
    "prefecture_code": 33,
    "city": "津山市",
    "city_kana": "ツヤマシ",
    "town": "勝部",
    "town_kana": "カツベ",
    "street": null,
    "office_name": null,
    "office_name_kana": null
  },
  "0805": {
    "postcode": "7080805",
    "prefecture": "岡山県",
    "prefecture_kana": "オカヤマケン",
    "prefecture_code": 33,
    "city": "津山市",
    "city_kana": "ツヤマシ",
    "town": "紫保井",
    "town_kana": "シボイ",
    "street": null,
    "office_name": null,
    "office_name_kana": null
  },
  "0806": {
    "postcode": "7080806",
    "prefecture": "岡山県",
    "prefecture_kana": "オカヤマケン",
    "prefecture_code": 33,
    "city": "津山市",
    "city_kana": "ツヤマシ",
    "town": "大田",
    "town_kana": "オオダ",
    "street": null,
    "office_name": null,
    "office_name_kana": null
  },
  "0807": {
    "postcode": "7080807",
    "prefecture": "岡山県",
    "prefecture_kana": "オカヤマケン",
    "prefecture_code": 33,
    "city": "津山市",
    "city_kana": "ツヤマシ",
    "town": "下横野",
    "town_kana": "シモヨコノ",
    "street": null,
    "office_name": null,
    "office_name_kana": null
  },
  "0811": {
    "postcode": "7080811",
    "prefecture": "岡山県",
    "prefecture_kana": "オカヤマケン",
    "prefecture_code": 33,
    "city": "津山市",
    "city_kana": "ツヤマシ",
    "town": "西田辺",
    "town_kana": "ニシタナベ",
    "street": null,
    "office_name": null,
    "office_name_kana": null
  },
  "0812": {
    "postcode": "7080812",
    "prefecture": "岡山県",
    "prefecture_kana": "オカヤマケン",
    "prefecture_code": 33,
    "city": "津山市",
    "city_kana": "ツヤマシ",
    "town": "東田辺",
    "town_kana": "ヒガシタナベ",
    "street": null,
    "office_name": null,
    "office_name_kana": null
  },
  "0813": {
    "postcode": "7080813",
    "prefecture": "岡山県",
    "prefecture_kana": "オカヤマケン",
    "prefecture_code": 33,
    "city": "津山市",
    "city_kana": "ツヤマシ",
    "town": "山方",
    "town_kana": "ヤマガタ",
    "street": null,
    "office_name": null,
    "office_name_kana": null
  },
  "0814": {
    "postcode": "7080814",
    "prefecture": "岡山県",
    "prefecture_kana": "オカヤマケン",
    "prefecture_code": 33,
    "city": "津山市",
    "city_kana": "ツヤマシ",
    "town": "東一宮",
    "town_kana": "ヒガシイチノミヤ",
    "street": null,
    "office_name": null,
    "office_name_kana": null
  },
  "0815": {
    "postcode": "7080815",
    "prefecture": "岡山県",
    "prefecture_kana": "オカヤマケン",
    "prefecture_code": 33,
    "city": "津山市",
    "city_kana": "ツヤマシ",
    "town": "一宮",
    "town_kana": "イチノミヤ",
    "street": null,
    "office_name": null,
    "office_name_kana": null
  },
  "0821": {
    "postcode": "7080821",
    "prefecture": "岡山県",
    "prefecture_kana": "オカヤマケン",
    "prefecture_code": 33,
    "city": "津山市",
    "city_kana": "ツヤマシ",
    "town": "野介代",
    "town_kana": "ノケダ",
    "street": null,
    "office_name": null,
    "office_name_kana": null
  },
  "0822": {
    "postcode": "7080822",
    "prefecture": "岡山県",
    "prefecture_kana": "オカヤマケン",
    "prefecture_code": 33,
    "city": "津山市",
    "city_kana": "ツヤマシ",
    "town": "林田",
    "town_kana": "ハイダ",
    "street": null,
    "office_name": null,
    "office_name_kana": null
  },
  "0823": {
    "postcode": "7080823",
    "prefecture": "岡山県",
    "prefecture_kana": "オカヤマケン",
    "prefecture_code": 33,
    "city": "津山市",
    "city_kana": "ツヤマシ",
    "town": "弥生町",
    "town_kana": "ヤヨイチョウ",
    "street": null,
    "office_name": null,
    "office_name_kana": null
  },
  "0824": {
    "postcode": "7080824",
    "prefecture": "岡山県",
    "prefecture_kana": "オカヤマケン",
    "prefecture_code": 33,
    "city": "津山市",
    "city_kana": "ツヤマシ",
    "town": "沼",
    "town_kana": "ヌマ",
    "street": null,
    "office_name": null,
    "office_name_kana": null
  },
  "0825": {
    "postcode": "7080825",
    "prefecture": "岡山県",
    "prefecture_kana": "オカヤマケン",
    "prefecture_code": 33,
    "city": "津山市",
    "city_kana": "ツヤマシ",
    "town": "志戸部",
    "town_kana": "シトベ",
    "street": null,
    "office_name": null,
    "office_name_kana": null
  },
  "0831": {
    "postcode": "7080831",
    "prefecture": "岡山県",
    "prefecture_kana": "オカヤマケン",
    "prefecture_code": 33,
    "city": "津山市",
    "city_kana": "ツヤマシ",
    "town": "上之町",
    "town_kana": "ウエノチョウ",
    "street": null,
    "office_name": null,
    "office_name_kana": null
  },
  "0832": {
    "postcode": "7080832",
    "prefecture": "岡山県",
    "prefecture_kana": "オカヤマケン",
    "prefecture_code": 33,
    "city": "津山市",
    "city_kana": "ツヤマシ",
    "town": "東新町",
    "town_kana": "ヒガシシンマチ",
    "street": null,
    "office_name": null,
    "office_name_kana": null
  },
  "0833": {
    "postcode": "7080833",
    "prefecture": "岡山県",
    "prefecture_kana": "オカヤマケン",
    "prefecture_code": 33,
    "city": "津山市",
    "city_kana": "ツヤマシ",
    "town": "西新町",
    "town_kana": "ニシシンマチ",
    "street": null,
    "office_name": null,
    "office_name_kana": null
  },
  "0834": {
    "postcode": "7080834",
    "prefecture": "岡山県",
    "prefecture_kana": "オカヤマケン",
    "prefecture_code": 33,
    "city": "津山市",
    "city_kana": "ツヤマシ",
    "town": "中之町",
    "town_kana": "ナカノチョウ",
    "street": null,
    "office_name": null,
    "office_name_kana": null
  },
  "0835": {
    "postcode": "7080835",
    "prefecture": "岡山県",
    "prefecture_kana": "オカヤマケン",
    "prefecture_code": 33,
    "city": "津山市",
    "city_kana": "ツヤマシ",
    "town": "勝間田町",
    "town_kana": "カツマダマチ",
    "street": null,
    "office_name": null,
    "office_name_kana": null
  },
  "0836": {
    "postcode": "7080836",
    "prefecture": "岡山県",
    "prefecture_kana": "オカヤマケン",
    "prefecture_code": 33,
    "city": "津山市",
    "city_kana": "ツヤマシ",
    "town": "林田町",
    "town_kana": "ハイダマチ",
    "street": null,
    "office_name": null,
    "office_name_kana": null
  },
  "0837": {
    "postcode": "7080837",
    "prefecture": "岡山県",
    "prefecture_kana": "オカヤマケン",
    "prefecture_code": 33,
    "city": "津山市",
    "city_kana": "ツヤマシ",
    "town": "橋本町",
    "town_kana": "ハシモトマチ",
    "street": null,
    "office_name": null,
    "office_name_kana": null
  },
  "0841": {
    "postcode": "7080841",
    "prefecture": "岡山県",
    "prefecture_kana": "オカヤマケン",
    "prefecture_code": 33,
    "city": "津山市",
    "city_kana": "ツヤマシ",
    "town": "川崎",
    "town_kana": "カワサキ",
    "street": null,
    "office_name": null,
    "office_name_kana": null
  },
  "0842": {
    "postcode": "7080842",
    "prefecture": "岡山県",
    "prefecture_kana": "オカヤマケン",
    "prefecture_code": 33,
    "city": "津山市",
    "city_kana": "ツヤマシ",
    "town": "河辺",
    "town_kana": "カワナベ",
    "street": null,
    "office_name": null,
    "office_name_kana": null
  },
  "0843": {
    "postcode": "7080843",
    "prefecture": "岡山県",
    "prefecture_kana": "オカヤマケン",
    "prefecture_code": 33,
    "city": "津山市",
    "city_kana": "ツヤマシ",
    "town": "国分寺",
    "town_kana": "コクブンジ",
    "street": null,
    "office_name": null,
    "office_name_kana": null
  },
  "0844": {
    "postcode": "7080844",
    "prefecture": "岡山県",
    "prefecture_kana": "オカヤマケン",
    "prefecture_code": 33,
    "city": "津山市",
    "city_kana": "ツヤマシ",
    "town": "瓜生原",
    "town_kana": "ウリュウバラ",
    "street": null,
    "office_name": null,
    "office_name_kana": null
  },
  "0845": {
    "postcode": "7080845",
    "prefecture": "岡山県",
    "prefecture_kana": "オカヤマケン",
    "prefecture_code": 33,
    "city": "津山市",
    "city_kana": "ツヤマシ",
    "town": "日上",
    "town_kana": "ヒカミ",
    "street": null,
    "office_name": null,
    "office_name_kana": null
  },
  "0851": {
    "postcode": "7080851",
    "prefecture": "岡山県",
    "prefecture_kana": "オカヤマケン",
    "prefecture_code": 33,
    "city": "津山市",
    "city_kana": "ツヤマシ",
    "town": "新田",
    "town_kana": "ニイダ",
    "street": null,
    "office_name": null,
    "office_name_kana": null
  },
  "0852": {
    "postcode": "7080852",
    "prefecture": "岡山県",
    "prefecture_kana": "オカヤマケン",
    "prefecture_code": 33,
    "city": "津山市",
    "city_kana": "ツヤマシ",
    "town": "池ケ原",
    "town_kana": "イケガハラ",
    "street": null,
    "office_name": null,
    "office_name_kana": null
  },
  "0853": {
    "postcode": "7080853",
    "prefecture": "岡山県",
    "prefecture_kana": "オカヤマケン",
    "prefecture_code": 33,
    "city": "津山市",
    "city_kana": "ツヤマシ",
    "town": "堂尾",
    "town_kana": "ドウノオ",
    "street": null,
    "office_name": null,
    "office_name_kana": null
  },
  "0854": {
    "postcode": "7080854",
    "prefecture": "岡山県",
    "prefecture_kana": "オカヤマケン",
    "prefecture_code": 33,
    "city": "津山市",
    "city_kana": "ツヤマシ",
    "town": "中原",
    "town_kana": "ナカバラ",
    "street": null,
    "office_name": null,
    "office_name_kana": null
  },
  "0855": {
    "postcode": "7080855",
    "prefecture": "岡山県",
    "prefecture_kana": "オカヤマケン",
    "prefecture_code": 33,
    "city": "津山市",
    "city_kana": "ツヤマシ",
    "town": "金井",
    "town_kana": "カナイ",
    "street": null,
    "office_name": null,
    "office_name_kana": null
  },
  "0856": {
    "postcode": "7080856",
    "prefecture": "岡山県",
    "prefecture_kana": "オカヤマケン",
    "prefecture_code": 33,
    "city": "津山市",
    "city_kana": "ツヤマシ",
    "town": "西吉田",
    "town_kana": "ニシヨシダ",
    "street": null,
    "office_name": null,
    "office_name_kana": null
  },
  "0857": {
    "postcode": "7080857",
    "prefecture": "岡山県",
    "prefecture_kana": "オカヤマケン",
    "prefecture_code": 33,
    "city": "津山市",
    "city_kana": "ツヤマシ",
    "town": "福力",
    "town_kana": "フクリキ",
    "street": null,
    "office_name": null,
    "office_name_kana": null
  },
  "0861": {
    "postcode": "7080861",
    "prefecture": "岡山県",
    "prefecture_kana": "オカヤマケン",
    "prefecture_code": 33,
    "city": "津山市",
    "city_kana": "ツヤマシ",
    "town": "八出",
    "town_kana": "ヤイデ",
    "street": null,
    "office_name": null,
    "office_name_kana": null
  },
  "0862": {
    "postcode": "7080862",
    "prefecture": "岡山県",
    "prefecture_kana": "オカヤマケン",
    "prefecture_code": 33,
    "city": "津山市",
    "city_kana": "ツヤマシ",
    "town": "横山",
    "town_kana": "ヨコヤマ",
    "street": null,
    "office_name": null,
    "office_name_kana": null
  },
  "0863": {
    "postcode": "7080863",
    "prefecture": "岡山県",
    "prefecture_kana": "オカヤマケン",
    "prefecture_code": 33,
    "city": "津山市",
    "city_kana": "ツヤマシ",
    "town": "小桁",
    "town_kana": "オゲタ",
    "street": null,
    "office_name": null,
    "office_name_kana": null
  },
  "0864": {
    "postcode": "7080864",
    "prefecture": "岡山県",
    "prefecture_kana": "オカヤマケン",
    "prefecture_code": 33,
    "city": "津山市",
    "city_kana": "ツヤマシ",
    "town": "金屋",
    "town_kana": "カナヤ",
    "street": null,
    "office_name": null,
    "office_name_kana": null
  },
  "0865": {
    "postcode": "7080865",
    "prefecture": "岡山県",
    "prefecture_kana": "オカヤマケン",
    "prefecture_code": 33,
    "city": "津山市",
    "city_kana": "ツヤマシ",
    "town": "押渕",
    "town_kana": "オシブチ",
    "street": null,
    "office_name": null,
    "office_name_kana": null
  },
  "0866": {
    "postcode": "7080866",
    "prefecture": "岡山県",
    "prefecture_kana": "オカヤマケン",
    "prefecture_code": 33,
    "city": "津山市",
    "city_kana": "ツヤマシ",
    "town": "荒神山",
    "town_kana": "コウジンヤマ",
    "street": null,
    "office_name": null,
    "office_name_kana": null
  },
  "0871": {
    "postcode": "7080871",
    "prefecture": "岡山県",
    "prefecture_kana": "オカヤマケン",
    "prefecture_code": 33,
    "city": "津山市",
    "city_kana": "ツヤマシ",
    "town": "中島",
    "town_kana": "ナカシマ",
    "street": null,
    "office_name": null,
    "office_name_kana": null
  },
  "0872": {
    "postcode": "7080872",
    "prefecture": "岡山県",
    "prefecture_kana": "オカヤマケン",
    "prefecture_code": 33,
    "city": "津山市",
    "city_kana": "ツヤマシ",
    "town": "平福",
    "town_kana": "ヒラフク",
    "street": null,
    "office_name": null,
    "office_name_kana": null
  },
  "0873": {
    "postcode": "7080873",
    "prefecture": "岡山県",
    "prefecture_kana": "オカヤマケン",
    "prefecture_code": 33,
    "city": "津山市",
    "city_kana": "ツヤマシ",
    "town": "皿",
    "town_kana": "サラ",
    "street": null,
    "office_name": null,
    "office_name_kana": null
  },
  "0874": {
    "postcode": "7080874",
    "prefecture": "岡山県",
    "prefecture_kana": "オカヤマケン",
    "prefecture_code": 33,
    "city": "津山市",
    "city_kana": "ツヤマシ",
    "town": "種",
    "town_kana": "タネ",
    "street": null,
    "office_name": null,
    "office_name_kana": null
  },
  "0875": {
    "postcode": "7080875",
    "prefecture": "岡山県",
    "prefecture_kana": "オカヤマケン",
    "prefecture_code": 33,
    "city": "津山市",
    "city_kana": "ツヤマシ",
    "town": "福田",
    "town_kana": "フクダ",
    "street": null,
    "office_name": null,
    "office_name_kana": null
  },
  "0876": {
    "postcode": "7080876",
    "prefecture": "岡山県",
    "prefecture_kana": "オカヤマケン",
    "prefecture_code": 33,
    "city": "津山市",
    "city_kana": "ツヤマシ",
    "town": "高尾",
    "town_kana": "タカオ",
    "street": null,
    "office_name": null,
    "office_name_kana": null
  },
  "0881": {
    "postcode": "7080881",
    "prefecture": "岡山県",
    "prefecture_kana": "オカヤマケン",
    "prefecture_code": 33,
    "city": "津山市",
    "city_kana": "ツヤマシ",
    "town": "南町",
    "town_kana": "ミナミマチ",
    "street": null,
    "office_name": null,
    "office_name_kana": null
  },
  "0882": {
    "postcode": "7080882",
    "prefecture": "岡山県",
    "prefecture_kana": "オカヤマケン",
    "prefecture_code": 33,
    "city": "津山市",
    "city_kana": "ツヤマシ",
    "town": "大谷",
    "town_kana": "オオタニ",
    "street": null,
    "office_name": null,
    "office_name_kana": null
  },
  "0883": {
    "postcode": "7080883",
    "prefecture": "岡山県",
    "prefecture_kana": "オカヤマケン",
    "prefecture_code": 33,
    "city": "津山市",
    "city_kana": "ツヤマシ",
    "town": "一方",
    "town_kana": "イッポウ",
    "street": null,
    "office_name": null,
    "office_name_kana": null
  },
  "0884": {
    "postcode": "7080884",
    "prefecture": "岡山県",
    "prefecture_kana": "オカヤマケン",
    "prefecture_code": 33,
    "city": "津山市",
    "city_kana": "ツヤマシ",
    "town": "津山口",
    "town_kana": "ツヤマグチ",
    "street": null,
    "office_name": null,
    "office_name_kana": null
  },
  "0885": {
    "postcode": "7080885",
    "prefecture": "岡山県",
    "prefecture_kana": "オカヤマケン",
    "prefecture_code": 33,
    "city": "津山市",
    "city_kana": "ツヤマシ",
    "town": "井口",
    "town_kana": "イノクチ",
    "street": null,
    "office_name": null,
    "office_name_kana": null
  },
  "0886": {
    "postcode": "7080886",
    "prefecture": "岡山県",
    "prefecture_kana": "オカヤマケン",
    "prefecture_code": 33,
    "city": "津山市",
    "city_kana": "ツヤマシ",
    "town": "昭和町",
    "town_kana": "ショウワマチ",
    "street": null,
    "office_name": null,
    "office_name_kana": null
  },
  "1101": {
    "postcode": "7081101",
    "prefecture": "岡山県",
    "prefecture_kana": "オカヤマケン",
    "prefecture_code": 33,
    "city": "津山市",
    "city_kana": "ツヤマシ",
    "town": "三浦",
    "town_kana": "ミウラ",
    "street": null,
    "office_name": null,
    "office_name_kana": null
  },
  "1102": {
    "postcode": "7081102",
    "prefecture": "岡山県",
    "prefecture_kana": "オカヤマケン",
    "prefecture_code": 33,
    "city": "津山市",
    "city_kana": "ツヤマシ",
    "town": "妙原",
    "town_kana": "ミョウバラ",
    "street": null,
    "office_name": null,
    "office_name_kana": null
  },
  "1103": {
    "postcode": "7081103",
    "prefecture": "岡山県",
    "prefecture_kana": "オカヤマケン",
    "prefecture_code": 33,
    "city": "津山市",
    "city_kana": "ツヤマシ",
    "town": "堀坂",
    "town_kana": "ホリサカ",
    "street": null,
    "office_name": null,
    "office_name_kana": null
  },
  "1104": {
    "postcode": "7081104",
    "prefecture": "岡山県",
    "prefecture_kana": "オカヤマケン",
    "prefecture_code": 33,
    "city": "津山市",
    "city_kana": "ツヤマシ",
    "town": "綾部",
    "town_kana": "アヤベ",
    "street": null,
    "office_name": null,
    "office_name_kana": null
  },
  "1105": {
    "postcode": "7081105",
    "prefecture": "岡山県",
    "prefecture_kana": "オカヤマケン",
    "prefecture_code": 33,
    "city": "津山市",
    "city_kana": "ツヤマシ",
    "town": "吉見",
    "town_kana": "ヨシミ",
    "street": null,
    "office_name": null,
    "office_name_kana": null
  },
  "1111": {
    "postcode": "7081111",
    "prefecture": "岡山県",
    "prefecture_kana": "オカヤマケン",
    "prefecture_code": 33,
    "city": "津山市",
    "city_kana": "ツヤマシ",
    "town": "楢",
    "town_kana": "ナラ",
    "street": null,
    "office_name": null,
    "office_name_kana": null
  },
  "1112": {
    "postcode": "7081112",
    "prefecture": "岡山県",
    "prefecture_kana": "オカヤマケン",
    "prefecture_code": 33,
    "city": "津山市",
    "city_kana": "ツヤマシ",
    "town": "近長",
    "town_kana": "チカナガ",
    "street": null,
    "office_name": null,
    "office_name_kana": null
  },
  "1113": {
    "postcode": "7081113",
    "prefecture": "岡山県",
    "prefecture_kana": "オカヤマケン",
    "prefecture_code": 33,
    "city": "津山市",
    "city_kana": "ツヤマシ",
    "town": "田熊",
    "town_kana": "タノクマ",
    "street": null,
    "office_name": null,
    "office_name_kana": null
  },
  "1114": {
    "postcode": "7081114",
    "prefecture": "岡山県",
    "prefecture_kana": "オカヤマケン",
    "prefecture_code": 33,
    "city": "津山市",
    "city_kana": "ツヤマシ",
    "town": "福井",
    "town_kana": "フクイ",
    "street": null,
    "office_name": null,
    "office_name_kana": null
  },
  "1115": {
    "postcode": "7081115",
    "prefecture": "岡山県",
    "prefecture_kana": "オカヤマケン",
    "prefecture_code": 33,
    "city": "津山市",
    "city_kana": "ツヤマシ",
    "town": "河面",
    "town_kana": "コウモ",
    "street": null,
    "office_name": null,
    "office_name_kana": null
  },
  "1116": {
    "postcode": "7081116",
    "prefecture": "岡山県",
    "prefecture_kana": "オカヤマケン",
    "prefecture_code": 33,
    "city": "津山市",
    "city_kana": "ツヤマシ",
    "town": "野村",
    "town_kana": "ノムラ",
    "street": null,
    "office_name": null,
    "office_name_kana": null
  },
  "1117": {
    "postcode": "7081117",
    "prefecture": "岡山県",
    "prefecture_kana": "オカヤマケン",
    "prefecture_code": 33,
    "city": "津山市",
    "city_kana": "ツヤマシ",
    "town": "草加部",
    "town_kana": "クサカベ",
    "street": null,
    "office_name": null,
    "office_name_kana": null
  },
  "1121": {
    "postcode": "7081121",
    "prefecture": "岡山県",
    "prefecture_kana": "オカヤマケン",
    "prefecture_code": 33,
    "city": "津山市",
    "city_kana": "ツヤマシ",
    "town": "上高倉",
    "town_kana": "カミタカクラ",
    "street": null,
    "office_name": null,
    "office_name_kana": null
  },
  "1122": {
    "postcode": "7081122",
    "prefecture": "岡山県",
    "prefecture_kana": "オカヤマケン",
    "prefecture_code": 33,
    "city": "津山市",
    "city_kana": "ツヤマシ",
    "town": "下高倉東",
    "town_kana": "シモタカクラヒガシ",
    "street": null,
    "office_name": null,
    "office_name_kana": null
  },
  "1123": {
    "postcode": "7081123",
    "prefecture": "岡山県",
    "prefecture_kana": "オカヤマケン",
    "prefecture_code": 33,
    "city": "津山市",
    "city_kana": "ツヤマシ",
    "town": "下高倉西",
    "town_kana": "シモタカクラニシ",
    "street": null,
    "office_name": null,
    "office_name_kana": null
  },
  "1124": {
    "postcode": "7081124",
    "prefecture": "岡山県",
    "prefecture_kana": "オカヤマケン",
    "prefecture_code": 33,
    "city": "津山市",
    "city_kana": "ツヤマシ",
    "town": "高野山西",
    "town_kana": "タカノヤマニシ",
    "street": null,
    "office_name": null,
    "office_name_kana": null
  },
  "1125": {
    "postcode": "7081125",
    "prefecture": "岡山県",
    "prefecture_kana": "オカヤマケン",
    "prefecture_code": 33,
    "city": "津山市",
    "city_kana": "ツヤマシ",
    "town": "高野本郷",
    "town_kana": "タカノホンゴウ",
    "street": null,
    "office_name": null,
    "office_name_kana": null
  },
  "1126": {
    "postcode": "7081126",
    "prefecture": "岡山県",
    "prefecture_kana": "オカヤマケン",
    "prefecture_code": 33,
    "city": "津山市",
    "city_kana": "ツヤマシ",
    "town": "押入",
    "town_kana": "オシイレ",
    "street": null,
    "office_name": null,
    "office_name_kana": null
  },
  "1193": {
    "postcode": "7081193",
    "prefecture": "岡山県",
    "prefecture_kana": "オカヤマケン",
    "prefecture_code": 33,
    "city": "津山市",
    "city_kana": "ツヤマシ",
    "town": "草加部",
    "town_kana": "クサカベ",
    "street": "１１７０番地９",
    "office_name": "トーステ　株式会社　サニタリー事業本部",
    "office_name_kana": "ト-ステ カブシキガイシヤ サニタリ-ジギヨウホンブ"
  },
  "1198": {
    "postcode": "7081198",
    "prefecture": "岡山県",
    "prefecture_kana": "オカヤマケン",
    "prefecture_code": 33,
    "city": "津山市",
    "city_kana": "ツヤマシ",
    "town": "下高倉西",
    "town_kana": "シモタカクラニシ",
    "street": "１２０３−１",
    "office_name": "山陽ロード工業　株式会社",
    "office_name_kana": "サンヨウロ-ドコウギヨウ カブシキガイシヤ"
  },
  "1201": [
    {
      "postcode": "7081201",
      "prefecture": "岡山県",
      "prefecture_kana": "オカヤマケン",
      "prefecture_code": 33,
      "city": "津山市",
      "city_kana": "ツヤマシ",
      "town": "奥津川",
      "town_kana": "オクツガワ",
      "street": null,
      "office_name": null,
      "office_name_kana": null
    },
    {
      "postcode": "7081201",
      "prefecture": "岡山県",
      "prefecture_kana": "オカヤマケン",
      "prefecture_code": 33,
      "city": "津山市",
      "city_kana": "ツヤマシ",
      "town": "加茂町下津川",
      "town_kana": "カモチョウシモツガワ",
      "street": null,
      "office_name": null,
      "office_name_kana": null
    }
  ],
  "1202": {
    "postcode": "7081202",
    "prefecture": "岡山県",
    "prefecture_kana": "オカヤマケン",
    "prefecture_code": 33,
    "city": "津山市",
    "city_kana": "ツヤマシ",
    "town": "大岩",
    "town_kana": "オオイワ",
    "street": null,
    "office_name": null,
    "office_name_kana": null
  },
  "1203": {
    "postcode": "7081203",
    "prefecture": "岡山県",
    "prefecture_kana": "オカヤマケン",
    "prefecture_code": 33,
    "city": "津山市",
    "city_kana": "ツヤマシ",
    "town": "大吉",
    "town_kana": "オオヨシ",
    "street": null,
    "office_name": null,
    "office_name_kana": null
  },
  "1204": {
    "postcode": "7081204",
    "prefecture": "岡山県",
    "prefecture_kana": "オカヤマケン",
    "prefecture_code": 33,
    "city": "津山市",
    "city_kana": "ツヤマシ",
    "town": "日本原",
    "town_kana": "ニホンバラ",
    "street": null,
    "office_name": null,
    "office_name_kana": null
  },
  "1205": {
    "postcode": "7081205",
    "prefecture": "岡山県",
    "prefecture_kana": "オカヤマケン",
    "prefecture_code": 33,
    "city": "津山市",
    "city_kana": "ツヤマシ",
    "town": "新野東",
    "town_kana": "ニイノヒガシ",
    "street": null,
    "office_name": null,
    "office_name_kana": null
  },
  "1206": {
    "postcode": "7081206",
    "prefecture": "岡山県",
    "prefecture_kana": "オカヤマケン",
    "prefecture_code": 33,
    "city": "津山市",
    "city_kana": "ツヤマシ",
    "town": "市場",
    "town_kana": "イチバ",
    "street": null,
    "office_name": null,
    "office_name_kana": null
  },
  "1211": {
    "postcode": "7081211",
    "prefecture": "岡山県",
    "prefecture_kana": "オカヤマケン",
    "prefecture_code": 33,
    "city": "津山市",
    "city_kana": "ツヤマシ",
    "town": "原",
    "town_kana": "ハラ",
    "street": null,
    "office_name": null,
    "office_name_kana": null
  },
  "1212": {
    "postcode": "7081212",
    "prefecture": "岡山県",
    "prefecture_kana": "オカヤマケン",
    "prefecture_code": 33,
    "city": "津山市",
    "city_kana": "ツヤマシ",
    "town": "安井",
    "town_kana": "ヤスイ",
    "street": null,
    "office_name": null,
    "office_name_kana": null
  },
  "1213": {
    "postcode": "7081213",
    "prefecture": "岡山県",
    "prefecture_kana": "オカヤマケン",
    "prefecture_code": 33,
    "city": "津山市",
    "city_kana": "ツヤマシ",
    "town": "下野田",
    "town_kana": "シモノダ",
    "street": null,
    "office_name": null,
    "office_name_kana": null
  },
  "1214": {
    "postcode": "7081214",
    "prefecture": "岡山県",
    "prefecture_kana": "オカヤマケン",
    "prefecture_code": 33,
    "city": "津山市",
    "city_kana": "ツヤマシ",
    "town": "上野田",
    "town_kana": "カミノダ",
    "street": null,
    "office_name": null,
    "office_name_kana": null
  },
  "1215": {
    "postcode": "7081215",
    "prefecture": "岡山県",
    "prefecture_kana": "オカヤマケン",
    "prefecture_code": 33,
    "city": "津山市",
    "city_kana": "ツヤマシ",
    "town": "杉宮",
    "town_kana": "スギノミヤ",
    "street": null,
    "office_name": null,
    "office_name_kana": null
  },
  "1216": {
    "postcode": "7081216",
    "prefecture": "岡山県",
    "prefecture_kana": "オカヤマケン",
    "prefecture_code": 33,
    "city": "津山市",
    "city_kana": "ツヤマシ",
    "town": "中村",
    "town_kana": "ナカムラ",
    "street": null,
    "office_name": null,
    "office_name_kana": null
  },
  "1221": {
    "postcode": "7081221",
    "prefecture": "岡山県",
    "prefecture_kana": "オカヤマケン",
    "prefecture_code": 33,
    "city": "津山市",
    "city_kana": "ツヤマシ",
    "town": "西上",
    "town_kana": "ニシカミ",
    "street": null,
    "office_name": null,
    "office_name_kana": null
  },
  "1222": {
    "postcode": "7081222",
    "prefecture": "岡山県",
    "prefecture_kana": "オカヤマケン",
    "prefecture_code": 33,
    "city": "津山市",
    "city_kana": "ツヤマシ",
    "town": "西中",
    "town_kana": "ニシナカ",
    "street": null,
    "office_name": null,
    "office_name_kana": null
  },
  "1223": {
    "postcode": "7081223",
    "prefecture": "岡山県",
    "prefecture_kana": "オカヤマケン",
    "prefecture_code": 33,
    "city": "津山市",
    "city_kana": "ツヤマシ",
    "town": "坂上",
    "town_kana": "サカウエ",
    "street": null,
    "office_name": null,
    "office_name_kana": null
  },
  "1224": {
    "postcode": "7081224",
    "prefecture": "岡山県",
    "prefecture_kana": "オカヤマケン",
    "prefecture_code": 33,
    "city": "津山市",
    "city_kana": "ツヤマシ",
    "town": "上村",
    "town_kana": "カミムラ",
    "street": null,
    "office_name": null,
    "office_name_kana": null
  },
  "1225": {
    "postcode": "7081225",
    "prefecture": "岡山県",
    "prefecture_kana": "オカヤマケン",
    "prefecture_code": 33,
    "city": "津山市",
    "city_kana": "ツヤマシ",
    "town": "西下",
    "town_kana": "ニシシモ",
    "street": null,
    "office_name": null,
    "office_name_kana": null
  },
  "1226": {
    "postcode": "7081226",
    "prefecture": "岡山県",
    "prefecture_kana": "オカヤマケン",
    "prefecture_code": 33,
    "city": "津山市",
    "city_kana": "ツヤマシ",
    "town": "新野山形",
    "town_kana": "ニイノヤマガタ",
    "street": null,
    "office_name": null,
    "office_name_kana": null
  },
  "1300": {
    "postcode": "7081300",
    "prefecture": "岡山県",
    "prefecture_kana": "オカヤマケン",
    "prefecture_code": 33,
    "city": "勝田郡奈義町",
    "city_kana": "カツタグンナギチョウ",
    "town": "",
    "town_kana": "",
    "street": null,
    "office_name": null,
    "office_name_kana": null
  },
  "1301": {
    "postcode": "7081301",
    "prefecture": "岡山県",
    "prefecture_kana": "オカヤマケン",
    "prefecture_code": 33,
    "city": "勝田郡奈義町",
    "city_kana": "カツタグンナギチョウ",
    "town": "馬桑",
    "town_kana": "マグワ",
    "street": null,
    "office_name": null,
    "office_name_kana": null
  },
  "1302": {
    "postcode": "7081302",
    "prefecture": "岡山県",
    "prefecture_kana": "オカヤマケン",
    "prefecture_code": 33,
    "city": "勝田郡奈義町",
    "city_kana": "カツタグンナギチョウ",
    "town": "小坂",
    "town_kana": "オサカ",
    "street": null,
    "office_name": null,
    "office_name_kana": null
  },
  "1303": {
    "postcode": "7081303",
    "prefecture": "岡山県",
    "prefecture_kana": "オカヤマケン",
    "prefecture_code": 33,
    "city": "勝田郡奈義町",
    "city_kana": "カツタグンナギチョウ",
    "town": "皆木",
    "town_kana": "ミナギ",
    "street": null,
    "office_name": null,
    "office_name_kana": null
  },
  "1304": {
    "postcode": "7081304",
    "prefecture": "岡山県",
    "prefecture_kana": "オカヤマケン",
    "prefecture_code": 33,
    "city": "勝田郡奈義町",
    "city_kana": "カツタグンナギチョウ",
    "town": "関本",
    "town_kana": "セキモト",
    "street": null,
    "office_name": null,
    "office_name_kana": null
  },
  "1305": {
    "postcode": "7081305",
    "prefecture": "岡山県",
    "prefecture_kana": "オカヤマケン",
    "prefecture_code": 33,
    "city": "勝田郡奈義町",
    "city_kana": "カツタグンナギチョウ",
    "town": "行方",
    "town_kana": "ギョウホウ",
    "street": null,
    "office_name": null,
    "office_name_kana": null
  },
  "1306": {
    "postcode": "7081306",
    "prefecture": "岡山県",
    "prefecture_kana": "オカヤマケン",
    "prefecture_code": 33,
    "city": "勝田郡奈義町",
    "city_kana": "カツタグンナギチョウ",
    "town": "西原",
    "town_kana": "ニシバラ",
    "street": null,
    "office_name": null,
    "office_name_kana": null
  },
  "1307": {
    "postcode": "7081307",
    "prefecture": "岡山県",
    "prefecture_kana": "オカヤマケン",
    "prefecture_code": 33,
    "city": "勝田郡奈義町",
    "city_kana": "カツタグンナギチョウ",
    "town": "高円",
    "town_kana": "コウエン",
    "street": null,
    "office_name": null,
    "office_name_kana": null
  },
  "1311": {
    "postcode": "7081311",
    "prefecture": "岡山県",
    "prefecture_kana": "オカヤマケン",
    "prefecture_code": 33,
    "city": "勝田郡奈義町",
    "city_kana": "カツタグンナギチョウ",
    "town": "久常",
    "town_kana": "ヒサツネ",
    "street": null,
    "office_name": null,
    "office_name_kana": null
  },
  "1312": {
    "postcode": "7081312",
    "prefecture": "岡山県",
    "prefecture_kana": "オカヤマケン",
    "prefecture_code": 33,
    "city": "勝田郡奈義町",
    "city_kana": "カツタグンナギチョウ",
    "town": "柿",
    "town_kana": "カキ",
    "street": null,
    "office_name": null,
    "office_name_kana": null
  },
  "1313": {
    "postcode": "7081313",
    "prefecture": "岡山県",
    "prefecture_kana": "オカヤマケン",
    "prefecture_code": 33,
    "city": "勝田郡奈義町",
    "city_kana": "カツタグンナギチョウ",
    "town": "中島東",
    "town_kana": "ナカシマヒガシ",
    "street": null,
    "office_name": null,
    "office_name_kana": null
  },
  "1314": {
    "postcode": "7081314",
    "prefecture": "岡山県",
    "prefecture_kana": "オカヤマケン",
    "prefecture_code": 33,
    "city": "勝田郡奈義町",
    "city_kana": "カツタグンナギチョウ",
    "town": "荒内西",
    "town_kana": "アラウチニシ",
    "street": null,
    "office_name": null,
    "office_name_kana": null
  },
  "1315": {
    "postcode": "7081315",
    "prefecture": "岡山県",
    "prefecture_kana": "オカヤマケン",
    "prefecture_code": 33,
    "city": "勝田郡奈義町",
    "city_kana": "カツタグンナギチョウ",
    "town": "中島西",
    "town_kana": "ナカシマニシ",
    "street": null,
    "office_name": null,
    "office_name_kana": null
  },
  "1321": {
    "postcode": "7081321",
    "prefecture": "岡山県",
    "prefecture_kana": "オカヤマケン",
    "prefecture_code": 33,
    "city": "勝田郡奈義町",
    "city_kana": "カツタグンナギチョウ",
    "town": "宮内",
    "town_kana": "ミヤウチ",
    "street": null,
    "office_name": null,
    "office_name_kana": null
  },
  "1322": {
    "postcode": "7081322",
    "prefecture": "岡山県",
    "prefecture_kana": "オカヤマケン",
    "prefecture_code": 33,
    "city": "勝田郡奈義町",
    "city_kana": "カツタグンナギチョウ",
    "town": "成松",
    "town_kana": "ナリマツ",
    "street": null,
    "office_name": null,
    "office_name_kana": null
  },
  "1323": {
    "postcode": "7081323",
    "prefecture": "岡山県",
    "prefecture_kana": "オカヤマケン",
    "prefecture_code": 33,
    "city": "勝田郡奈義町",
    "city_kana": "カツタグンナギチョウ",
    "town": "豊沢",
    "town_kana": "トヨサワ",
    "street": null,
    "office_name": null,
    "office_name_kana": null
  },
  "1324": {
    "postcode": "7081324",
    "prefecture": "岡山県",
    "prefecture_kana": "オカヤマケン",
    "prefecture_code": 33,
    "city": "勝田郡奈義町",
    "city_kana": "カツタグンナギチョウ",
    "town": "広岡",
    "town_kana": "ヒロオカ",
    "street": null,
    "office_name": null,
    "office_name_kana": null
  },
  "1325": {
    "postcode": "7081325",
    "prefecture": "岡山県",
    "prefecture_kana": "オカヤマケン",
    "prefecture_code": 33,
    "city": "勝田郡奈義町",
    "city_kana": "カツタグンナギチョウ",
    "town": "滝本",
    "town_kana": "タキモト",
    "street": null,
    "office_name": null,
    "office_name_kana": null
  },
  "1326": {
    "postcode": "7081326",
    "prefecture": "岡山県",
    "prefecture_kana": "オカヤマケン",
    "prefecture_code": 33,
    "city": "勝田郡奈義町",
    "city_kana": "カツタグンナギチョウ",
    "town": "上町川",
    "town_kana": "カミマチガワ",
    "street": null,
    "office_name": null,
    "office_name_kana": null
  },
  "1392": {
    "postcode": "7081392",
    "prefecture": "岡山県",
    "prefecture_kana": "オカヤマケン",
    "prefecture_code": 33,
    "city": "勝田郡奈義町",
    "city_kana": "カツタグンナギチョウ",
    "town": "豊沢",
    "town_kana": "トヨサワ",
    "street": "３０６−１",
    "office_name": "奈義町役場",
    "office_name_kana": "ナギチヨウヤクバ"
  },
  "1393": {
    "postcode": "7081393",
    "prefecture": "岡山県",
    "prefecture_kana": "オカヤマケン",
    "prefecture_code": 33,
    "city": "勝田郡奈義町",
    "city_kana": "カツタグンナギチョウ",
    "town": "滝本",
    "town_kana": "タキモト",
    "street": "官有無番地",
    "office_name": "陸上自衛隊　日本原駐屯地",
    "office_name_kana": "リクジヨウジエイタイ ニホンバラチユウトンチ"
  },
  "1501": {
    "postcode": "7081501",
    "prefecture": "岡山県",
    "prefecture_kana": "オカヤマケン",
    "prefecture_code": 33,
    "city": "久米郡美咲町",
    "city_kana": "クメグンミサキチョウ",
    "town": "安井",
    "town_kana": "ヤスイ",
    "street": null,
    "office_name": null,
    "office_name_kana": null
  },
  "1502": {
    "postcode": "7081502",
    "prefecture": "岡山県",
    "prefecture_kana": "オカヤマケン",
    "prefecture_code": 33,
    "city": "久米郡美咲町",
    "city_kana": "クメグンミサキチョウ",
    "town": "宮山",
    "town_kana": "ミヤヤマ",
    "street": null,
    "office_name": null,
    "office_name_kana": null
  },
  "1503": {
    "postcode": "7081503",
    "prefecture": "岡山県",
    "prefecture_kana": "オカヤマケン",
    "prefecture_code": 33,
    "city": "久米郡美咲町",
    "city_kana": "クメグンミサキチョウ",
    "town": "塩気",
    "town_kana": "シオケ",
    "street": null,
    "office_name": null,
    "office_name_kana": null
  },
  "1504": {
    "postcode": "7081504",
    "prefecture": "岡山県",
    "prefecture_kana": "オカヤマケン",
    "prefecture_code": 33,
    "city": "久米郡美咲町",
    "city_kana": "クメグンミサキチョウ",
    "town": "吉留",
    "town_kana": "ヨシドメ",
    "street": null,
    "office_name": null,
    "office_name_kana": null
  },
  "1505": {
    "postcode": "7081505",
    "prefecture": "岡山県",
    "prefecture_kana": "オカヤマケン",
    "prefecture_code": 33,
    "city": "久米郡美咲町",
    "city_kana": "クメグンミサキチョウ",
    "town": "重藤",
    "town_kana": "シゲトウ",
    "street": null,
    "office_name": null,
    "office_name_kana": null
  },
  "1506": {
    "postcode": "7081506",
    "prefecture": "岡山県",
    "prefecture_kana": "オカヤマケン",
    "prefecture_code": 33,
    "city": "久米郡美咲町",
    "city_kana": "クメグンミサキチョウ",
    "town": "上間",
    "town_kana": "ウワマ",
    "street": null,
    "office_name": null,
    "office_name_kana": null
  },
  "1507": {
    "postcode": "7081507",
    "prefecture": "岡山県",
    "prefecture_kana": "オカヤマケン",
    "prefecture_code": 33,
    "city": "久米郡美咲町",
    "city_kana": "クメグンミサキチョウ",
    "town": "百々",
    "town_kana": "ドウドウ",
    "street": null,
    "office_name": null,
    "office_name_kana": null
  },
  "1511": {
    "postcode": "7081511",
    "prefecture": "岡山県",
    "prefecture_kana": "オカヤマケン",
    "prefecture_code": 33,
    "city": "久米郡美咲町",
    "city_kana": "クメグンミサキチョウ",
    "town": "行信",
    "town_kana": "ユキノブ",
    "street": null,
    "office_name": null,
    "office_name_kana": null
  },
  "1512": {
    "postcode": "7081512",
    "prefecture": "岡山県",
    "prefecture_kana": "オカヤマケン",
    "prefecture_code": 33,
    "city": "久米郡美咲町",
    "city_kana": "クメグンミサキチョウ",
    "town": "松尾",
    "town_kana": "マツオ",
    "street": null,
    "office_name": null,
    "office_name_kana": null
  },
  "1513": {
    "postcode": "7081513",
    "prefecture": "岡山県",
    "prefecture_kana": "オカヤマケン",
    "prefecture_code": 33,
    "city": "久米郡美咲町",
    "city_kana": "クメグンミサキチョウ",
    "town": "藤田下",
    "town_kana": "フジタシモ",
    "street": null,
    "office_name": null,
    "office_name_kana": null
  },
  "1514": {
    "postcode": "7081514",
    "prefecture": "岡山県",
    "prefecture_kana": "オカヤマケン",
    "prefecture_code": 33,
    "city": "久米郡美咲町",
    "city_kana": "クメグンミサキチョウ",
    "town": "藤田上",
    "town_kana": "フジタカミ",
    "street": null,
    "office_name": null,
    "office_name_kana": null
  },
  "1515": {
    "postcode": "7081515",
    "prefecture": "岡山県",
    "prefecture_kana": "オカヤマケン",
    "prefecture_code": 33,
    "city": "久米郡美咲町",
    "city_kana": "クメグンミサキチョウ",
    "town": "下谷",
    "town_kana": "シモダニ",
    "street": null,
    "office_name": null,
    "office_name_kana": null
  },
  "1516": {
    "postcode": "7081516",
    "prefecture": "岡山県",
    "prefecture_kana": "オカヤマケン",
    "prefecture_code": 33,
    "city": "久米郡美咲町",
    "city_kana": "クメグンミサキチョウ",
    "town": "連石",
    "town_kana": "レンジャク",
    "street": null,
    "office_name": null,
    "office_name_kana": null
  },
  "1521": {
    "postcode": "7081521",
    "prefecture": "岡山県",
    "prefecture_kana": "オカヤマケン",
    "prefecture_code": 33,
    "city": "久米郡美咲町",
    "city_kana": "クメグンミサキチョウ",
    "town": "休石",
    "town_kana": "ヤスミイシ",
    "street": null,
    "office_name": null,
    "office_name_kana": null
  },
  "1522": {
    "postcode": "7081522",
    "prefecture": "岡山県",
    "prefecture_kana": "オカヤマケン",
    "prefecture_code": 33,
    "city": "久米郡美咲町",
    "city_kana": "クメグンミサキチョウ",
    "town": "惣田",
    "town_kana": "ソウダ",
    "street": null,
    "office_name": null,
    "office_name_kana": null
  },
  "1523": {
    "postcode": "7081523",
    "prefecture": "岡山県",
    "prefecture_kana": "オカヤマケン",
    "prefecture_code": 33,
    "city": "久米郡美咲町",
    "city_kana": "クメグンミサキチョウ",
    "town": "吉ケ原",
    "town_kana": "キチガハラ",
    "street": null,
    "office_name": null,
    "office_name_kana": null
  },
  "1524": {
    "postcode": "7081524",
    "prefecture": "岡山県",
    "prefecture_kana": "オカヤマケン",
    "prefecture_code": 33,
    "city": "久米郡美咲町",
    "city_kana": "クメグンミサキチョウ",
    "town": "飯岡",
    "town_kana": "ユウカ",
    "street": null,
    "office_name": null,
    "office_name_kana": null
  },
  "1525": {
    "postcode": "7081525",
    "prefecture": "岡山県",
    "prefecture_kana": "オカヤマケン",
    "prefecture_code": 33,
    "city": "久米郡美咲町",
    "city_kana": "クメグンミサキチョウ",
    "town": "王子",
    "town_kana": "オオジ",
    "street": null,
    "office_name": null,
    "office_name_kana": null
  },
  "1526": {
    "postcode": "7081526",
    "prefecture": "岡山県",
    "prefecture_kana": "オカヤマケン",
    "prefecture_code": 33,
    "city": "久米郡美咲町",
    "city_kana": "クメグンミサキチョウ",
    "town": "高下",
    "town_kana": "コウゲ",
    "street": null,
    "office_name": null,
    "office_name_kana": null
  },
  "1527": {
    "postcode": "7081527",
    "prefecture": "岡山県",
    "prefecture_kana": "オカヤマケン",
    "prefecture_code": 33,
    "city": "久米郡美咲町",
    "city_kana": "クメグンミサキチョウ",
    "town": "柵原",
    "town_kana": "ヤナハラ",
    "street": null,
    "office_name": null,
    "office_name_kana": null
  },
  "1531": {
    "postcode": "7081531",
    "prefecture": "岡山県",
    "prefecture_kana": "オカヤマケン",
    "prefecture_code": 33,
    "city": "久米郡美咲町",
    "city_kana": "クメグンミサキチョウ",
    "town": "栗子",
    "town_kana": "クリゴ",
    "street": null,
    "office_name": null,
    "office_name_kana": null
  },
  "1532": {
    "postcode": "7081532",
    "prefecture": "岡山県",
    "prefecture_kana": "オカヤマケン",
    "prefecture_code": 33,
    "city": "久米郡美咲町",
    "city_kana": "クメグンミサキチョウ",
    "town": "小瀬",
    "town_kana": "コセ",
    "street": null,
    "office_name": null,
    "office_name_kana": null
  },
  "1533": {
    "postcode": "7081533",
    "prefecture": "岡山県",
    "prefecture_kana": "オカヤマケン",
    "prefecture_code": 33,
    "city": "久米郡美咲町",
    "city_kana": "クメグンミサキチョウ",
    "town": "久木",
    "town_kana": "ヒサギ",
    "street": null,
    "office_name": null,
    "office_name_kana": null
  },
  "1534": {
    "postcode": "7081534",
    "prefecture": "岡山県",
    "prefecture_kana": "オカヤマケン",
    "prefecture_code": 33,
    "city": "久米郡美咲町",
    "city_kana": "クメグンミサキチョウ",
    "town": "藤原",
    "town_kana": "フジワラ",
    "street": null,
    "office_name": null,
    "office_name_kana": null
  },
  "1535": {
    "postcode": "7081535",
    "prefecture": "岡山県",
    "prefecture_kana": "オカヤマケン",
    "prefecture_code": 33,
    "city": "久米郡美咲町",
    "city_kana": "クメグンミサキチョウ",
    "town": "高城",
    "town_kana": "タカシロ",
    "street": null,
    "office_name": null,
    "office_name_kana": null
  },
  "1536": {
    "postcode": "7081536",
    "prefecture": "岡山県",
    "prefecture_kana": "オカヤマケン",
    "prefecture_code": 33,
    "city": "久米郡美咲町",
    "city_kana": "クメグンミサキチョウ",
    "town": "定宗",
    "town_kana": "サダムネ",
    "street": null,
    "office_name": null,
    "office_name_kana": null
  },
  "1541": {
    "postcode": "7081541",
    "prefecture": "岡山県",
    "prefecture_kana": "オカヤマケン",
    "prefecture_code": 33,
    "city": "久米郡美咲町",
    "city_kana": "クメグンミサキチョウ",
    "town": "塚角",
    "town_kana": "ツカツノ",
    "street": null,
    "office_name": null,
    "office_name_kana": null
  },
  "1542": {
    "postcode": "7081542",
    "prefecture": "岡山県",
    "prefecture_kana": "オカヤマケン",
    "prefecture_code": 33,
    "city": "久米郡美咲町",
    "city_kana": "クメグンミサキチョウ",
    "town": "羽仁",
    "town_kana": "ハニ",
    "street": null,
    "office_name": null,
    "office_name_kana": null
  },
  "1543": {
    "postcode": "7081543",
    "prefecture": "岡山県",
    "prefecture_kana": "オカヤマケン",
    "prefecture_code": 33,
    "city": "久米郡美咲町",
    "city_kana": "クメグンミサキチョウ",
    "town": "書副",
    "town_kana": "カイゾエ",
    "street": null,
    "office_name": null,
    "office_name_kana": null
  },
  "1544": {
    "postcode": "7081544",
    "prefecture": "岡山県",
    "prefecture_kana": "オカヤマケン",
    "prefecture_code": 33,
    "city": "久米郡美咲町",
    "city_kana": "クメグンミサキチョウ",
    "town": "周佐",
    "town_kana": "スサ",
    "street": null,
    "office_name": null,
    "office_name_kana": null
  },
  "1545": {
    "postcode": "7081545",
    "prefecture": "岡山県",
    "prefecture_kana": "オカヤマケン",
    "prefecture_code": 33,
    "city": "久米郡美咲町",
    "city_kana": "クメグンミサキチョウ",
    "town": "大戸上",
    "town_kana": "ダイトカミ",
    "street": null,
    "office_name": null,
    "office_name_kana": null
  },
  "1546": {
    "postcode": "7081546",
    "prefecture": "岡山県",
    "prefecture_kana": "オカヤマケン",
    "prefecture_code": 33,
    "city": "久米郡美咲町",
    "city_kana": "クメグンミサキチョウ",
    "town": "大戸下",
    "town_kana": "ダイトシモ",
    "street": null,
    "office_name": null,
    "office_name_kana": null
  },
  "1547": {
    "postcode": "7081547",
    "prefecture": "岡山県",
    "prefecture_kana": "オカヤマケン",
    "prefecture_code": 33,
    "city": "久米郡美咲町",
    "city_kana": "クメグンミサキチョウ",
    "town": "八神",
    "town_kana": "ネリガミ",
    "street": null,
    "office_name": null,
    "office_name_kana": null
  },
  "8501": {
    "postcode": "7088501",
    "prefecture": "岡山県",
    "prefecture_kana": "オカヤマケン",
    "prefecture_code": 33,
    "city": "津山市",
    "city_kana": "ツヤマシ",
    "town": "山北",
    "town_kana": "ヤマキタ",
    "street": "５２０",
    "office_name": "津山市役所",
    "office_name_kana": "ツヤマシヤクシヨ"
  },
  "8502": {
    "postcode": "7088502",
    "prefecture": "岡山県",
    "prefecture_kana": "オカヤマケン",
    "prefecture_code": 33,
    "city": "津山市",
    "city_kana": "ツヤマシ",
    "town": "戸島",
    "town_kana": "トシマ",
    "street": "６３４−１８",
    "office_name": "津山卸センター",
    "office_name_kana": "ツヤマオロシセンタ-"
  },
  "8503": {
    "postcode": "7088503",
    "prefecture": "岡山県",
    "prefecture_kana": "オカヤマケン",
    "prefecture_code": 33,
    "city": "津山市",
    "city_kana": "ツヤマシ",
    "town": "津山口",
    "town_kana": "ツヤマグチ",
    "street": "２７５−９",
    "office_name": "津山総合食品卸売市場",
    "office_name_kana": "ツヤマソウゴウシヨクヒンオロシウリイチバ"
  },
  "8505": {
    "postcode": "7088505",
    "prefecture": "岡山県",
    "prefecture_kana": "オカヤマケン",
    "prefecture_code": 33,
    "city": "津山市",
    "city_kana": "ツヤマシ",
    "town": "上河原",
    "town_kana": "カミガワラ",
    "street": "２０９−４",
    "office_name": "株式会社　マルイ",
    "office_name_kana": "カブシキガイシヤ マルイ"
  },
  "8506": {
    "postcode": "7088506",
    "prefecture": "岡山県",
    "prefecture_kana": "オカヤマケン",
    "prefecture_code": 33,
    "city": "津山市",
    "city_kana": "ツヤマシ",
    "town": "山下",
    "town_kana": "サンゲ",
    "street": "５３",
    "office_name": "岡山県美作県民局",
    "office_name_kana": "オカヤマケン ミマサカケンミンキヨク"
  },
  "8507": {
    "postcode": "7088507",
    "prefecture": "岡山県",
    "prefecture_kana": "オカヤマケン",
    "prefecture_code": 33,
    "city": "津山市",
    "city_kana": "ツヤマシ",
    "town": "材木町",
    "town_kana": "ザイモクマチ",
    "street": "１３２８−２５",
    "office_name": "ナンバ　株式会社",
    "office_name_kana": "ナンバ カブシキガイシヤ"
  },
  "8509": {
    "postcode": "7088509",
    "prefecture": "岡山県",
    "prefecture_kana": "オカヤマケン",
    "prefecture_code": 33,
    "city": "津山市",
    "city_kana": "ツヤマシ",
    "town": "沼",
    "town_kana": "ヌマ",
    "street": "６２４−１",
    "office_name": "津山工業高等専門学校",
    "office_name_kana": "ツヤマコウギヨウコウトウセンモンガツコウ"
  },
  "8510": {
    "postcode": "7088510",
    "prefecture": "岡山県",
    "prefecture_kana": "オカヤマケン",
    "prefecture_code": 33,
    "city": "津山市",
    "city_kana": "ツヤマシ",
    "town": "田町",
    "town_kana": "タマチ",
    "street": "３１",
    "office_name": "津山教育事務所",
    "office_name_kana": "ツヤマキヨウイクジムシヨ"
  },
  "8511": {
    "postcode": "7088511",
    "prefecture": "岡山県",
    "prefecture_kana": "オカヤマケン",
    "prefecture_code": 33,
    "city": "津山市",
    "city_kana": "ツヤマシ",
    "town": "北園町",
    "town_kana": "キタゾノチョウ",
    "street": "５０",
    "office_name": "美作大学",
    "office_name_kana": "ミマサカダイガク"
  },
  "8512": {
    "postcode": "7088512",
    "prefecture": "岡山県",
    "prefecture_kana": "オカヤマケン",
    "prefecture_code": 33,
    "city": "津山市",
    "city_kana": "ツヤマシ",
    "town": "川崎",
    "town_kana": "カワサキ",
    "street": "５２１−２",
    "office_name": "小原産業　株式会社",
    "office_name_kana": "オハラサンギヨウ カブシキガイシヤ"
  },
  "8515": {
    "postcode": "7088515",
    "prefecture": "岡山県",
    "prefecture_kana": "オカヤマケン",
    "prefecture_code": 33,
    "city": "津山市",
    "city_kana": "ツヤマシ",
    "town": "伏見町",
    "town_kana": "フシミチョウ",
    "street": "５０",
    "office_name": "イズミ津山店",
    "office_name_kana": "イズミツヤマテン"
  },
  "8516": {
    "postcode": "7088516",
    "prefecture": "岡山県",
    "prefecture_kana": "オカヤマケン",
    "prefecture_code": 33,
    "city": "津山市",
    "city_kana": "ツヤマシ",
    "town": "山下",
    "town_kana": "サンゲ",
    "street": "３０−９",
    "office_name": "津山商工会議所",
    "office_name_kana": "ツヤマシヨウコウカイギシヨ"
  },
  "8517": {
    "postcode": "7088517",
    "prefecture": "岡山県",
    "prefecture_kana": "オカヤマケン",
    "prefecture_code": 33,
    "city": "津山市",
    "city_kana": "ツヤマシ",
    "town": "河辺",
    "town_kana": "カワナベ",
    "street": "字下閂１１１１−１",
    "office_name": "パナソニック　インダストリー　株式会社",
    "office_name_kana": "パナソニツク インダストリ- カブシキガイシヤ"
  },
  "8518": {
    "postcode": "7088518",
    "prefecture": "岡山県",
    "prefecture_kana": "オカヤマケン",
    "prefecture_code": 33,
    "city": "津山市",
    "city_kana": "ツヤマシ",
    "town": "八出",
    "town_kana": "ヤイデ",
    "street": "１３２０",
    "office_name": "作陽高等学校",
    "office_name_kana": "サクヨウコウトウガツコウ"
  },
  "8519": {
    "postcode": "7088519",
    "prefecture": "岡山県",
    "prefecture_kana": "オカヤマケン",
    "prefecture_code": 33,
    "city": "津山市",
    "city_kana": "ツヤマシ",
    "town": "新魚町",
    "town_kana": "シンウオマチ",
    "street": "１７",
    "office_name": "株式会社　天満屋　津山店",
    "office_name_kana": "カブシキガイシヤ テンマヤ ツヤマテン"
  },
  "8520": {
    "postcode": "7088520",
    "prefecture": "岡山県",
    "prefecture_kana": "オカヤマケン",
    "prefecture_code": 33,
    "city": "津山市",
    "city_kana": "ツヤマシ",
    "town": "新魚町",
    "town_kana": "シンウオマチ",
    "street": "１７",
    "office_name": "アルネ・津山",
    "office_name_kana": "アルネ・ツヤマ"
  },
  "8609": {
    "postcode": "7088609",
    "prefecture": "岡山県",
    "prefecture_kana": "オカヤマケン",
    "prefecture_code": 33,
    "city": "津山市",
    "city_kana": "ツヤマシ",
    "town": "山下",
    "town_kana": "サンゲ",
    "street": "９−６",
    "office_name": "津山公共職業安定所",
    "office_name_kana": "ツヤマコウキヨウシヨクギヨウアンテイシヨ"
  },
  "8652": {
    "postcode": "7088652",
    "prefecture": "岡山県",
    "prefecture_kana": "オカヤマケン",
    "prefecture_code": 33,
    "city": "津山市",
    "city_kana": "ツヤマシ",
    "town": "高尾",
    "town_kana": "タカオ",
    "street": "５７３−１",
    "office_name": "日本植生　株式会社",
    "office_name_kana": "ニホンシヨクセイ カブシキガイシヤ"
  },
  "8653": {
    "postcode": "7088653",
    "prefecture": "岡山県",
    "prefecture_kana": "オカヤマケン",
    "prefecture_code": 33,
    "city": "津山市",
    "city_kana": "ツヤマシ",
    "town": "山下",
    "town_kana": "サンゲ",
    "street": "３０−７（津山郵便局私書箱第３号）",
    "office_name": "中国銀行　津山支店",
    "office_name_kana": "チユウゴクギンコウ ツヤマシテン"
  },
  "8654": {
    "postcode": "7088654",
    "prefecture": "岡山県",
    "prefecture_kana": "オカヤマケン",
    "prefecture_code": 33,
    "city": "津山市",
    "city_kana": "ツヤマシ",
    "town": "上河原",
    "town_kana": "カミガワラ",
    "street": "２０８−３（津山郵便局私書箱第１４号）",
    "office_name": "中国電力　津山営業所",
    "office_name_kana": "チユウゴクデンリヨク ツヤマエイギヨウシヨ"
  },
  "8657": {
    "postcode": "7088657",
    "prefecture": "岡山県",
    "prefecture_kana": "オカヤマケン",
    "prefecture_code": 33,
    "city": "津山市",
    "city_kana": "ツヤマシ",
    "town": "田町",
    "town_kana": "タマチ",
    "street": "６７（津山郵便局私書箱第７号）",
    "office_name": "津山　税務署",
    "office_name_kana": "ツヤマ ゼイムシヨ"
  }
}