{
  "0000": {
    "postcode": "7160000",
    "prefecture": "岡山県",
    "prefecture_kana": "オカヤマケン",
    "prefecture_code": 33,
    "city": "高梁市",
    "city_kana": "タカハシシ",
    "town": "",
    "town_kana": "",
    "street": null,
    "office_name": null,
    "office_name_kana": null
  },
  "0001": {
    "postcode": "7160001",
    "prefecture": "岡山県",
    "prefecture_kana": "オカヤマケン",
    "prefecture_code": 33,
    "city": "高梁市",
    "city_kana": "タカハシシ",
    "town": "津川町八川",
    "town_kana": "ツガワチョウヤガワ",
    "street": null,
    "office_name": null,
    "office_name_kana": null
  },
  "0002": {
    "postcode": "7160002",
    "prefecture": "岡山県",
    "prefecture_kana": "オカヤマケン",
    "prefecture_code": 33,
    "city": "高梁市",
    "city_kana": "タカハシシ",
    "town": "津川町今津",
    "town_kana": "ツガワチョウイマヅ",
    "street": null,
    "office_name": null,
    "office_name_kana": null
  },
  "0003": {
    "postcode": "7160003",
    "prefecture": "岡山県",
    "prefecture_kana": "オカヤマケン",
    "prefecture_code": 33,
    "city": "高梁市",
    "city_kana": "タカハシシ",
    "town": "高倉町大瀬八長",
    "town_kana": "タカクラチョウオオセオナガ",
    "street": null,
    "office_name": null,
    "office_name_kana": null
  },
  "0004": {
    "postcode": "7160004",
    "prefecture": "岡山県",
    "prefecture_kana": "オカヤマケン",
    "prefecture_code": 33,
    "city": "高梁市",
    "city_kana": "タカハシシ",
    "town": "内山下",
    "town_kana": "ウチサンゲ",
    "street": null,
    "office_name": null,
    "office_name_kana": null
  },
  "0005": {
    "postcode": "7160005",
    "prefecture": "岡山県",
    "prefecture_kana": "オカヤマケン",
    "prefecture_code": 33,
    "city": "高梁市",
    "city_kana": "タカハシシ",
    "town": "川端町",
    "town_kana": "カワバタチョウ",
    "street": null,
    "office_name": null,
    "office_name_kana": null
  },
  "0006": {
    "postcode": "7160006",
    "prefecture": "岡山県",
    "prefecture_kana": "オカヤマケン",
    "prefecture_code": 33,
    "city": "高梁市",
    "city_kana": "タカハシシ",
    "town": "小高下町",
    "town_kana": "ココウゲチョウ",
    "street": null,
    "office_name": null,
    "office_name_kana": null
  },
  "0007": {
    "postcode": "7160007",
    "prefecture": "岡山県",
    "prefecture_kana": "オカヤマケン",
    "prefecture_code": 33,
    "city": "高梁市",
    "city_kana": "タカハシシ",
    "town": "奥万田町",
    "town_kana": "オクマンダチョウ",
    "street": null,
    "office_name": null,
    "office_name_kana": null
  },
  "0008": {
    "postcode": "7160008",
    "prefecture": "岡山県",
    "prefecture_kana": "オカヤマケン",
    "prefecture_code": 33,
    "city": "高梁市",
    "city_kana": "タカハシシ",
    "town": "和田町",
    "town_kana": "ワダチョウ",
    "street": null,
    "office_name": null,
    "office_name_kana": null
  },
  "0009": {
    "postcode": "7160009",
    "prefecture": "岡山県",
    "prefecture_kana": "オカヤマケン",
    "prefecture_code": 33,
    "city": "高梁市",
    "city_kana": "タカハシシ",
    "town": "間之町",
    "town_kana": "アイノマチ",
    "street": null,
    "office_name": null,
    "office_name_kana": null
  },
  "0011": {
    "postcode": "7160011",
    "prefecture": "岡山県",
    "prefecture_kana": "オカヤマケン",
    "prefecture_code": 33,
    "city": "高梁市",
    "city_kana": "タカハシシ",
    "town": "本町",
    "town_kana": "ホンマチ",
    "street": null,
    "office_name": null,
    "office_name_kana": null
  },
  "0012": {
    "postcode": "7160012",
    "prefecture": "岡山県",
    "prefecture_kana": "オカヤマケン",
    "prefecture_code": 33,
    "city": "高梁市",
    "city_kana": "タカハシシ",
    "town": "新町",
    "town_kana": "シンマチ",
    "street": null,
    "office_name": null,
    "office_name_kana": null
  },
  "0013": {
    "postcode": "7160013",
    "prefecture": "岡山県",
    "prefecture_kana": "オカヤマケン",
    "prefecture_code": 33,
    "city": "高梁市",
    "city_kana": "タカハシシ",
    "town": "片原町",
    "town_kana": "カタハラチョウ",
    "street": null,
    "office_name": null,
    "office_name_kana": null
  },
  "0014": {
    "postcode": "7160014",
    "prefecture": "岡山県",
    "prefecture_kana": "オカヤマケン",
    "prefecture_code": 33,
    "city": "高梁市",
    "city_kana": "タカハシシ",
    "town": "中之町",
    "town_kana": "ナカノチョウ",
    "street": null,
    "office_name": null,
    "office_name_kana": null
  },
  "0015": {
    "postcode": "7160015",
    "prefecture": "岡山県",
    "prefecture_kana": "オカヤマケン",
    "prefecture_code": 33,
    "city": "高梁市",
    "city_kana": "タカハシシ",
    "town": "石火矢町",
    "town_kana": "イシビヤチョウ",
    "street": null,
    "office_name": null,
    "office_name_kana": null
  },
  "0016": {
    "postcode": "7160016",
    "prefecture": "岡山県",
    "prefecture_kana": "オカヤマケン",
    "prefecture_code": 33,
    "city": "高梁市",
    "city_kana": "タカハシシ",
    "town": "頼久寺町",
    "town_kana": "ライキュウジチョウ",
    "street": null,
    "office_name": null,
    "office_name_kana": null
  },
  "0017": {
    "postcode": "7160017",
    "prefecture": "岡山県",
    "prefecture_kana": "オカヤマケン",
    "prefecture_code": 33,
    "city": "高梁市",
    "city_kana": "タカハシシ",
    "town": "御前町",
    "town_kana": "オンザキチョウ",
    "street": null,
    "office_name": null,
    "office_name_kana": null
  },
  "0018": {
    "postcode": "7160018",
    "prefecture": "岡山県",
    "prefecture_kana": "オカヤマケン",
    "prefecture_code": 33,
    "city": "高梁市",
    "city_kana": "タカハシシ",
    "town": "伊賀町",
    "town_kana": "イガマチ",
    "street": null,
    "office_name": null,
    "office_name_kana": null
  },
  "0019": {
    "postcode": "7160019",
    "prefecture": "岡山県",
    "prefecture_kana": "オカヤマケン",
    "prefecture_code": 33,
    "city": "高梁市",
    "city_kana": "タカハシシ",
    "town": "寺町",
    "town_kana": "テラマチ",
    "street": null,
    "office_name": null,
    "office_name_kana": null
  },
  "0021": {
    "postcode": "7160021",
    "prefecture": "岡山県",
    "prefecture_kana": "オカヤマケン",
    "prefecture_code": 33,
    "city": "高梁市",
    "city_kana": "タカハシシ",
    "town": "中間町",
    "town_kana": "チュウゲンマチ",
    "street": null,
    "office_name": null,
    "office_name_kana": null
  },
  "0022": {
    "postcode": "7160022",
    "prefecture": "岡山県",
    "prefecture_kana": "オカヤマケン",
    "prefecture_code": 33,
    "city": "高梁市",
    "city_kana": "タカハシシ",
    "town": "下町",
    "town_kana": "シモマチ",
    "street": null,
    "office_name": null,
    "office_name_kana": null
  },
  "0023": {
    "postcode": "7160023",
    "prefecture": "岡山県",
    "prefecture_kana": "オカヤマケン",
    "prefecture_code": 33,
    "city": "高梁市",
    "city_kana": "タカハシシ",
    "town": "鍜冶町",
    "town_kana": "カジマチ",
    "street": null,
    "office_name": null,
    "office_name_kana": null
  },
  "0024": {
    "postcode": "7160024",
    "prefecture": "岡山県",
    "prefecture_kana": "オカヤマケン",
    "prefecture_code": 33,
    "city": "高梁市",
    "city_kana": "タカハシシ",
    "town": "大工町",
    "town_kana": "ダイクチョウ",
    "street": null,
    "office_name": null,
    "office_name_kana": null
  },
  "0025": {
    "postcode": "7160025",
    "prefecture": "岡山県",
    "prefecture_kana": "オカヤマケン",
    "prefecture_code": 33,
    "city": "高梁市",
    "city_kana": "タカハシシ",
    "town": "荒神町",
    "town_kana": "コウジンチョウ",
    "street": null,
    "office_name": null,
    "office_name_kana": null
  },
  "0026": {
    "postcode": "7160026",
    "prefecture": "岡山県",
    "prefecture_kana": "オカヤマケン",
    "prefecture_code": 33,
    "city": "高梁市",
    "city_kana": "タカハシシ",
    "town": "甲賀町",
    "town_kana": "コウガチョウ",
    "street": null,
    "office_name": null,
    "office_name_kana": null
  },
  "0027": {
    "postcode": "7160027",
    "prefecture": "岡山県",
    "prefecture_kana": "オカヤマケン",
    "prefecture_code": 33,
    "city": "高梁市",
    "city_kana": "タカハシシ",
    "town": "八幡町",
    "town_kana": "ヤハタチョウ",
    "street": null,
    "office_name": null,
    "office_name_kana": null
  },
  "0028": {
    "postcode": "7160028",
    "prefecture": "岡山県",
    "prefecture_kana": "オカヤマケン",
    "prefecture_code": 33,
    "city": "高梁市",
    "city_kana": "タカハシシ",
    "town": "柿木町",
    "town_kana": "カキノキチョウ",
    "street": null,
    "office_name": null,
    "office_name_kana": null
  },
  "0029": {
    "postcode": "7160029",
    "prefecture": "岡山県",
    "prefecture_kana": "オカヤマケン",
    "prefecture_code": 33,
    "city": "高梁市",
    "city_kana": "タカハシシ",
    "town": "向町",
    "town_kana": "ムコウチョウ",
    "street": null,
    "office_name": null,
    "office_name_kana": null
  },
  "0031": {
    "postcode": "7160031",
    "prefecture": "岡山県",
    "prefecture_kana": "オカヤマケン",
    "prefecture_code": 33,
    "city": "高梁市",
    "city_kana": "タカハシシ",
    "town": "鉄砲町",
    "town_kana": "テッポウチョウ",
    "street": null,
    "office_name": null,
    "office_name_kana": null
  },
  "0032": {
    "postcode": "7160032",
    "prefecture": "岡山県",
    "prefecture_kana": "オカヤマケン",
    "prefecture_code": 33,
    "city": "高梁市",
    "city_kana": "タカハシシ",
    "town": "弓之町",
    "town_kana": "ユミノチョウ",
    "street": null,
    "office_name": null,
    "office_name_kana": null
  },
  "0033": {
    "postcode": "7160033",
    "prefecture": "岡山県",
    "prefecture_kana": "オカヤマケン",
    "prefecture_code": 33,
    "city": "高梁市",
    "city_kana": "タカハシシ",
    "town": "南町",
    "town_kana": "ミナミマチ",
    "street": null,
    "office_name": null,
    "office_name_kana": null
  },
  "0034": {
    "postcode": "7160034",
    "prefecture": "岡山県",
    "prefecture_kana": "オカヤマケン",
    "prefecture_code": 33,
    "city": "高梁市",
    "city_kana": "タカハシシ",
    "town": "東町",
    "town_kana": "ヒガシマチ",
    "street": null,
    "office_name": null,
    "office_name_kana": null
  },
  "0035": {
    "postcode": "7160035",
    "prefecture": "岡山県",
    "prefecture_kana": "オカヤマケン",
    "prefecture_code": 33,
    "city": "高梁市",
    "city_kana": "タカハシシ",
    "town": "栄町",
    "town_kana": "サカエマチ",
    "street": null,
    "office_name": null,
    "office_name_kana": null
  },
  "0036": {
    "postcode": "7160036",
    "prefecture": "岡山県",
    "prefecture_kana": "オカヤマケン",
    "prefecture_code": 33,
    "city": "高梁市",
    "city_kana": "タカハシシ",
    "town": "松原通",
    "town_kana": "マツバラドオリ",
    "street": null,
    "office_name": null,
    "office_name_kana": null
  },
  "0037": {
    "postcode": "7160037",
    "prefecture": "岡山県",
    "prefecture_kana": "オカヤマケン",
    "prefecture_code": 33,
    "city": "高梁市",
    "city_kana": "タカハシシ",
    "town": "正宗町",
    "town_kana": "マサムネチョウ",
    "street": null,
    "office_name": null,
    "office_name_kana": null
  },
  "0038": {
    "postcode": "7160038",
    "prefecture": "岡山県",
    "prefecture_kana": "オカヤマケン",
    "prefecture_code": 33,
    "city": "高梁市",
    "city_kana": "タカハシシ",
    "town": "浜町",
    "town_kana": "ハマチョウ",
    "street": null,
    "office_name": null,
    "office_name_kana": null
  },
  "0039": {
    "postcode": "7160039",
    "prefecture": "岡山県",
    "prefecture_kana": "オカヤマケン",
    "prefecture_code": 33,
    "city": "高梁市",
    "city_kana": "タカハシシ",
    "town": "旭町",
    "town_kana": "アサヒマチ",
    "street": null,
    "office_name": null,
    "office_name_kana": null
  },
  "0041": {
    "postcode": "7160041",
    "prefecture": "岡山県",
    "prefecture_kana": "オカヤマケン",
    "prefecture_code": 33,
    "city": "高梁市",
    "city_kana": "タカハシシ",
    "town": "上谷町",
    "town_kana": "カミダニチョウ",
    "street": null,
    "office_name": null,
    "office_name_kana": null
  },
  "0042": {
    "postcode": "7160042",
    "prefecture": "岡山県",
    "prefecture_kana": "オカヤマケン",
    "prefecture_code": 33,
    "city": "高梁市",
    "city_kana": "タカハシシ",
    "town": "下谷町",
    "town_kana": "シモダニチョウ",
    "street": null,
    "office_name": null,
    "office_name_kana": null
  },
  "0043": {
    "postcode": "7160043",
    "prefecture": "岡山県",
    "prefecture_kana": "オカヤマケン",
    "prefecture_code": 33,
    "city": "高梁市",
    "city_kana": "タカハシシ",
    "town": "原田北町",
    "town_kana": "ハラダキタチョウ",
    "street": null,
    "office_name": null,
    "office_name_kana": null
  },
  "0044": {
    "postcode": "7160044",
    "prefecture": "岡山県",
    "prefecture_kana": "オカヤマケン",
    "prefecture_code": 33,
    "city": "高梁市",
    "city_kana": "タカハシシ",
    "town": "原田南町",
    "town_kana": "ハラダミナミチョウ",
    "street": null,
    "office_name": null,
    "office_name_kana": null
  },
  "0045": {
    "postcode": "7160045",
    "prefecture": "岡山県",
    "prefecture_kana": "オカヤマケン",
    "prefecture_code": 33,
    "city": "高梁市",
    "city_kana": "タカハシシ",
    "town": "中原町",
    "town_kana": "ナカバラチョウ",
    "street": null,
    "office_name": null,
    "office_name_kana": null
  },
  "0046": {
    "postcode": "7160046",
    "prefecture": "岡山県",
    "prefecture_kana": "オカヤマケン",
    "prefecture_code": 33,
    "city": "高梁市",
    "city_kana": "タカハシシ",
    "town": "横町",
    "town_kana": "ヨコチョウ",
    "street": null,
    "office_name": null,
    "office_name_kana": null
  },
  "0047": {
    "postcode": "7160047",
    "prefecture": "岡山県",
    "prefecture_kana": "オカヤマケン",
    "prefecture_code": 33,
    "city": "高梁市",
    "city_kana": "タカハシシ",
    "town": "段町",
    "town_kana": "ダンチョウ",
    "street": null,
    "office_name": null,
    "office_name_kana": null
  },
  "0051": {
    "postcode": "7160051",
    "prefecture": "岡山県",
    "prefecture_kana": "オカヤマケン",
    "prefecture_code": 33,
    "city": "高梁市",
    "city_kana": "タカハシシ",
    "town": "松山",
    "town_kana": "マツヤマ",
    "street": null,
    "office_name": null,
    "office_name_kana": null
  },
  "0052": {
    "postcode": "7160052",
    "prefecture": "岡山県",
    "prefecture_kana": "オカヤマケン",
    "prefecture_code": 33,
    "city": "高梁市",
    "city_kana": "タカハシシ",
    "town": "玉川町玉",
    "town_kana": "タマガワチョウタマ",
    "street": null,
    "office_name": null,
    "office_name_kana": null
  },
  "0053": {
    "postcode": "7160053",
    "prefecture": "岡山県",
    "prefecture_kana": "オカヤマケン",
    "prefecture_code": 33,
    "city": "高梁市",
    "city_kana": "タカハシシ",
    "town": "玉川町下切",
    "town_kana": "タマガワチョウシタギリ",
    "street": null,
    "office_name": null,
    "office_name_kana": null
  },
  "0054": {
    "postcode": "7160054",
    "prefecture": "岡山県",
    "prefecture_kana": "オカヤマケン",
    "prefecture_code": 33,
    "city": "高梁市",
    "city_kana": "タカハシシ",
    "town": "玉川町増原",
    "town_kana": "タマガワチョウマシハラ",
    "street": null,
    "office_name": null,
    "office_name_kana": null
  },
  "0061": {
    "postcode": "7160061",
    "prefecture": "岡山県",
    "prefecture_kana": "オカヤマケン",
    "prefecture_code": 33,
    "city": "高梁市",
    "city_kana": "タカハシシ",
    "town": "落合町阿部",
    "town_kana": "オチアイチョウアベ",
    "street": null,
    "office_name": null,
    "office_name_kana": null
  },
  "0062": {
    "postcode": "7160062",
    "prefecture": "岡山県",
    "prefecture_kana": "オカヤマケン",
    "prefecture_code": 33,
    "city": "高梁市",
    "city_kana": "タカハシシ",
    "town": "落合町近似",
    "town_kana": "オチアイチョウチカノリ",
    "street": null,
    "office_name": null,
    "office_name_kana": null
  },
  "0063": {
    "postcode": "7160063",
    "prefecture": "岡山県",
    "prefecture_kana": "オカヤマケン",
    "prefecture_code": 33,
    "city": "高梁市",
    "city_kana": "タカハシシ",
    "town": "落合町原田",
    "town_kana": "オチアイチョウハラダ",
    "street": null,
    "office_name": null,
    "office_name_kana": null
  },
  "0064": {
    "postcode": "7160064",
    "prefecture": "岡山県",
    "prefecture_kana": "オカヤマケン",
    "prefecture_code": 33,
    "city": "高梁市",
    "city_kana": "タカハシシ",
    "town": "落合町福地",
    "town_kana": "オチアイチョウシロチ",
    "street": null,
    "office_name": null,
    "office_name_kana": null
  },
  "0065": {
    "postcode": "7160065",
    "prefecture": "岡山県",
    "prefecture_kana": "オカヤマケン",
    "prefecture_code": 33,
    "city": "高梁市",
    "city_kana": "タカハシシ",
    "town": "松原町大津寄",
    "town_kana": "マツバラチョウオオヅヨリ",
    "street": null,
    "office_name": null,
    "office_name_kana": null
  },
  "0066": {
    "postcode": "7160066",
    "prefecture": "岡山県",
    "prefecture_kana": "オカヤマケン",
    "prefecture_code": 33,
    "city": "高梁市",
    "city_kana": "タカハシシ",
    "town": "松原町松岡",
    "town_kana": "マツバラチョウマツオカ",
    "street": null,
    "office_name": null,
    "office_name_kana": null
  },
  "0067": {
    "postcode": "7160067",
    "prefecture": "岡山県",
    "prefecture_kana": "オカヤマケン",
    "prefecture_code": 33,
    "city": "高梁市",
    "city_kana": "タカハシシ",
    "town": "松原町春木",
    "town_kana": "マツバラチョウハルキ",
    "street": null,
    "office_name": null,
    "office_name_kana": null
  },
  "0068": {
    "postcode": "7160068",
    "prefecture": "岡山県",
    "prefecture_kana": "オカヤマケン",
    "prefecture_code": 33,
    "city": "高梁市",
    "city_kana": "タカハシシ",
    "town": "松原町神原",
    "town_kana": "マツバラチョウコウバラ",
    "street": null,
    "office_name": null,
    "office_name_kana": null
  },
  "0101": {
    "postcode": "7160101",
    "prefecture": "岡山県",
    "prefecture_kana": "オカヤマケン",
    "prefecture_code": 33,
    "city": "高梁市",
    "city_kana": "タカハシシ",
    "town": "成羽町下日名",
    "town_kana": "ナリワチョウシモヒナ",
    "street": null,
    "office_name": null,
    "office_name_kana": null
  },
  "0102": {
    "postcode": "7160102",
    "prefecture": "岡山県",
    "prefecture_kana": "オカヤマケン",
    "prefecture_code": 33,
    "city": "高梁市",
    "city_kana": "タカハシシ",
    "town": "成羽町上日名",
    "town_kana": "ナリワチョウカミヒナ",
    "street": null,
    "office_name": null,
    "office_name_kana": null
  },
  "0111": {
    "postcode": "7160111",
    "prefecture": "岡山県",
    "prefecture_kana": "オカヤマケン",
    "prefecture_code": 33,
    "city": "高梁市",
    "city_kana": "タカハシシ",
    "town": "成羽町下原",
    "town_kana": "ナリワチョウシモハラ",
    "street": null,
    "office_name": null,
    "office_name_kana": null
  },
  "0112": {
    "postcode": "7160112",
    "prefecture": "岡山県",
    "prefecture_kana": "オカヤマケン",
    "prefecture_code": 33,
    "city": "高梁市",
    "city_kana": "タカハシシ",
    "town": "成羽町星原",
    "town_kana": "ナリワチョウホシバラ",
    "street": null,
    "office_name": null,
    "office_name_kana": null
  },
  "0113": {
    "postcode": "7160113",
    "prefecture": "岡山県",
    "prefecture_kana": "オカヤマケン",
    "prefecture_code": 33,
    "city": "高梁市",
    "city_kana": "タカハシシ",
    "town": "成羽町佐々木",
    "town_kana": "ナリワチョウササキ",
    "street": null,
    "office_name": null,
    "office_name_kana": null
  },
  "0121": {
    "postcode": "7160121",
    "prefecture": "岡山県",
    "prefecture_kana": "オカヤマケン",
    "prefecture_code": 33,
    "city": "高梁市",
    "city_kana": "タカハシシ",
    "town": "成羽町成羽",
    "town_kana": "ナリワチョウナリワ",
    "street": null,
    "office_name": null,
    "office_name_kana": null
  },
  "0122": {
    "postcode": "7160122",
    "prefecture": "岡山県",
    "prefecture_kana": "オカヤマケン",
    "prefecture_code": 33,
    "city": "高梁市",
    "city_kana": "タカハシシ",
    "town": "成羽町羽山",
    "town_kana": "ナリワチョウハヤマ",
    "street": null,
    "office_name": null,
    "office_name_kana": null
  },
  "0192": {
    "postcode": "7160192",
    "prefecture": "岡山県",
    "prefecture_kana": "オカヤマケン",
    "prefecture_code": 33,
    "city": "高梁市",
    "city_kana": "タカハシシ",
    "town": "成羽町成羽",
    "town_kana": "ナリワチョウナリワ",
    "street": "２９０１",
    "office_name": "住友電工焼結合金　株式会社",
    "office_name_kana": "スミトモデンコウシヨウケツゴウキン カブシキガイシヤ"
  },
  "0201": {
    "postcode": "7160201",
    "prefecture": "岡山県",
    "prefecture_kana": "オカヤマケン",
    "prefecture_code": 33,
    "city": "高梁市",
    "city_kana": "タカハシシ",
    "town": "川上町地頭",
    "town_kana": "カワカミチョウジトウ",
    "street": null,
    "office_name": null,
    "office_name_kana": null
  },
  "0202": {
    "postcode": "7160202",
    "prefecture": "岡山県",
    "prefecture_kana": "オカヤマケン",
    "prefecture_code": 33,
    "city": "高梁市",
    "city_kana": "タカハシシ",
    "town": "川上町七地",
    "town_kana": "カワカミチョウナナチ",
    "street": null,
    "office_name": null,
    "office_name_kana": null
  },
  "0203": {
    "postcode": "7160203",
    "prefecture": "岡山県",
    "prefecture_kana": "オカヤマケン",
    "prefecture_code": 33,
    "city": "高梁市",
    "city_kana": "タカハシシ",
    "town": "川上町三沢",
    "town_kana": "カワカミチョウミサワ",
    "street": null,
    "office_name": null,
    "office_name_kana": null
  },
  "0204": {
    "postcode": "7160204",
    "prefecture": "岡山県",
    "prefecture_kana": "オカヤマケン",
    "prefecture_code": 33,
    "city": "高梁市",
    "city_kana": "タカハシシ",
    "town": "川上町領家",
    "town_kana": "カワカミチョウリョウケ",
    "street": null,
    "office_name": null,
    "office_name_kana": null
  },
  "0205": {
    "postcode": "7160205",
    "prefecture": "岡山県",
    "prefecture_kana": "オカヤマケン",
    "prefecture_code": 33,
    "city": "高梁市",
    "city_kana": "タカハシシ",
    "town": "川上町臘数",
    "town_kana": "カワカミチョウシワス",
    "street": null,
    "office_name": null,
    "office_name_kana": null
  },
  "0206": {
    "postcode": "7160206",
    "prefecture": "岡山県",
    "prefecture_kana": "オカヤマケン",
    "prefecture_code": 33,
    "city": "高梁市",
    "city_kana": "タカハシシ",
    "town": "川上町吉木",
    "town_kana": "カワカミチョウヨシギ",
    "street": null,
    "office_name": null,
    "office_name_kana": null
  },
  "0207": {
    "postcode": "7160207",
    "prefecture": "岡山県",
    "prefecture_kana": "オカヤマケン",
    "prefecture_code": 33,
    "city": "高梁市",
    "city_kana": "タカハシシ",
    "town": "川上町仁賀",
    "town_kana": "カワカミチョウニカ",
    "street": null,
    "office_name": null,
    "office_name_kana": null
  },
  "0211": {
    "postcode": "7160211",
    "prefecture": "岡山県",
    "prefecture_kana": "オカヤマケン",
    "prefecture_code": 33,
    "city": "高梁市",
    "city_kana": "タカハシシ",
    "town": "川上町上大竹",
    "town_kana": "カワカミチョウカミオオタケ",
    "street": null,
    "office_name": null,
    "office_name_kana": null
  },
  "0212": {
    "postcode": "7160212",
    "prefecture": "岡山県",
    "prefecture_kana": "オカヤマケン",
    "prefecture_code": 33,
    "city": "高梁市",
    "city_kana": "タカハシシ",
    "town": "川上町下大竹",
    "town_kana": "カワカミチョウシモオオタケ",
    "street": null,
    "office_name": null,
    "office_name_kana": null
  },
  "0221": {
    "postcode": "7160221",
    "prefecture": "岡山県",
    "prefecture_kana": "オカヤマケン",
    "prefecture_code": 33,
    "city": "高梁市",
    "city_kana": "タカハシシ",
    "town": "川上町高山市",
    "town_kana": "カワカミチョウコウヤマイチ",
    "street": null,
    "office_name": null,
    "office_name_kana": null
  },
  "0222": {
    "postcode": "7160222",
    "prefecture": "岡山県",
    "prefecture_kana": "オカヤマケン",
    "prefecture_code": 33,
    "city": "高梁市",
    "city_kana": "タカハシシ",
    "town": "川上町大原",
    "town_kana": "カワカミチョウオオバラ",
    "street": null,
    "office_name": null,
    "office_name_kana": null
  },
  "0223": {
    "postcode": "7160223",
    "prefecture": "岡山県",
    "prefecture_kana": "オカヤマケン",
    "prefecture_code": 33,
    "city": "高梁市",
    "city_kana": "タカハシシ",
    "town": "川上町高山",
    "town_kana": "カワカミチョウコウヤマ",
    "street": null,
    "office_name": null,
    "office_name_kana": null
  },
  "0295": {
    "postcode": "7160295",
    "prefecture": "岡山県",
    "prefecture_kana": "オカヤマケン",
    "prefecture_code": 33,
    "city": "高梁市",
    "city_kana": "タカハシシ",
    "town": "川上町地頭",
    "town_kana": "カワカミチョウジトウ",
    "street": "１８２２番地",
    "office_name": "高梁市川上地域局",
    "office_name_kana": "タカハシシカワカミチイキキヨク"
  },
  "0301": {
    "postcode": "7160301",
    "prefecture": "岡山県",
    "prefecture_kana": "オカヤマケン",
    "prefecture_code": 33,
    "city": "高梁市",
    "city_kana": "タカハシシ",
    "town": "備中町志藤用瀬",
    "town_kana": "ビッチュウチョウシトウヨウゼ",
    "street": null,
    "office_name": null,
    "office_name_kana": null
  },
  "0302": {
    "postcode": "7160302",
    "prefecture": "岡山県",
    "prefecture_kana": "オカヤマケン",
    "prefecture_code": 33,
    "city": "高梁市",
    "city_kana": "タカハシシ",
    "town": "備中町布瀬",
    "town_kana": "ビッチュウチョウフセ",
    "street": null,
    "office_name": null,
    "office_name_kana": null
  },
  "0303": {
    "postcode": "7160303",
    "prefecture": "岡山県",
    "prefecture_kana": "オカヤマケン",
    "prefecture_code": 33,
    "city": "高梁市",
    "city_kana": "タカハシシ",
    "town": "備中町長屋",
    "town_kana": "ビッチュウチョウナガヤ",
    "street": null,
    "office_name": null,
    "office_name_kana": null
  },
  "0304": {
    "postcode": "7160304",
    "prefecture": "岡山県",
    "prefecture_kana": "オカヤマケン",
    "prefecture_code": 33,
    "city": "高梁市",
    "city_kana": "タカハシシ",
    "town": "備中町布賀",
    "town_kana": "ビッチュウチョウフカ",
    "street": null,
    "office_name": null,
    "office_name_kana": null
  },
  "0311": {
    "postcode": "7160311",
    "prefecture": "岡山県",
    "prefecture_kana": "オカヤマケン",
    "prefecture_code": 33,
    "city": "高梁市",
    "city_kana": "タカハシシ",
    "town": "備中町平川",
    "town_kana": "ビッチュウチョウヒラカワ",
    "street": null,
    "office_name": null,
    "office_name_kana": null
  },
  "0321": {
    "postcode": "7160321",
    "prefecture": "岡山県",
    "prefecture_kana": "オカヤマケン",
    "prefecture_code": 33,
    "city": "高梁市",
    "city_kana": "タカハシシ",
    "town": "備中町東油野",
    "town_kana": "ビッチュウチョウヒガシユノ",
    "street": null,
    "office_name": null,
    "office_name_kana": null
  },
  "0322": {
    "postcode": "7160322",
    "prefecture": "岡山県",
    "prefecture_kana": "オカヤマケン",
    "prefecture_code": 33,
    "city": "高梁市",
    "city_kana": "タカハシシ",
    "town": "備中町西油野",
    "town_kana": "ビッチュウチョウニシユノ",
    "street": null,
    "office_name": null,
    "office_name_kana": null
  },
  "0323": {
    "postcode": "7160323",
    "prefecture": "岡山県",
    "prefecture_kana": "オカヤマケン",
    "prefecture_code": 33,
    "city": "高梁市",
    "city_kana": "タカハシシ",
    "town": "備中町西山",
    "town_kana": "ビッチュウチョウニシヤマ",
    "street": null,
    "office_name": null,
    "office_name_kana": null
  },
  "0331": {
    "postcode": "7160331",
    "prefecture": "岡山県",
    "prefecture_kana": "オカヤマケン",
    "prefecture_code": 33,
    "city": "高梁市",
    "city_kana": "タカハシシ",
    "town": "成羽町羽根",
    "town_kana": "ナリワチョウハネ",
    "street": null,
    "office_name": null,
    "office_name_kana": null
  },
  "0332": {
    "postcode": "7160332",
    "prefecture": "岡山県",
    "prefecture_kana": "オカヤマケン",
    "prefecture_code": 33,
    "city": "高梁市",
    "city_kana": "タカハシシ",
    "town": "成羽町小泉",
    "town_kana": "ナリワチョウコイズミ",
    "street": null,
    "office_name": null,
    "office_name_kana": null
  },
  "0333": {
    "postcode": "7160333",
    "prefecture": "岡山県",
    "prefecture_kana": "オカヤマケン",
    "prefecture_code": 33,
    "city": "高梁市",
    "city_kana": "タカハシシ",
    "town": "成羽町相坂",
    "town_kana": "ナリワチョウアイサカ",
    "street": null,
    "office_name": null,
    "office_name_kana": null
  },
  "0334": {
    "postcode": "7160334",
    "prefecture": "岡山県",
    "prefecture_kana": "オカヤマケン",
    "prefecture_code": 33,
    "city": "高梁市",
    "city_kana": "タカハシシ",
    "town": "成羽町長地",
    "town_kana": "ナリワチョウオサジ",
    "street": null,
    "office_name": null,
    "office_name_kana": null
  },
  "0335": {
    "postcode": "7160335",
    "prefecture": "岡山県",
    "prefecture_kana": "オカヤマケン",
    "prefecture_code": 33,
    "city": "高梁市",
    "city_kana": "タカハシシ",
    "town": "成羽町布寄",
    "town_kana": "ナリワチョウフヨリ",
    "street": null,
    "office_name": null,
    "office_name_kana": null
  },
  "0396": {
    "postcode": "7160396",
    "prefecture": "岡山県",
    "prefecture_kana": "オカヤマケン",
    "prefecture_code": 33,
    "city": "高梁市",
    "city_kana": "タカハシシ",
    "town": "備中町布賀",
    "town_kana": "ビッチュウチョウフカ",
    "street": "２９−２",
    "office_name": "高梁市備中地域局",
    "office_name_kana": "タカハシシビツチユウチイキキヨク"
  },
  "1100": {
    "postcode": "7161100",
    "prefecture": "岡山県",
    "prefecture_kana": "オカヤマケン",
    "prefecture_code": 33,
    "city": "加賀郡吉備中央町",
    "city_kana": "カガグンキビチュウオウチョウ",
    "town": "",
    "town_kana": "",
    "street": null,
    "office_name": null,
    "office_name_kana": null
  },
  "1101": {
    "postcode": "7161101",
    "prefecture": "岡山県",
    "prefecture_kana": "オカヤマケン",
    "prefecture_code": 33,
    "city": "加賀郡吉備中央町",
    "city_kana": "カガグンキビチュウオウチョウ",
    "town": "豊野",
    "town_kana": "トヨノ",
    "street": null,
    "office_name": null,
    "office_name_kana": null
  },
  "1102": {
    "postcode": "7161102",
    "prefecture": "岡山県",
    "prefecture_kana": "オカヤマケン",
    "prefecture_code": 33,
    "city": "加賀郡吉備中央町",
    "city_kana": "カガグンキビチュウオウチョウ",
    "town": "黒土",
    "town_kana": "クロツチ",
    "street": null,
    "office_name": null,
    "office_name_kana": null
  },
  "1111": {
    "postcode": "7161111",
    "prefecture": "岡山県",
    "prefecture_kana": "オカヤマケン",
    "prefecture_code": 33,
    "city": "加賀郡吉備中央町",
    "city_kana": "カガグンキビチュウオウチョウ",
    "town": "田土",
    "town_kana": "タド",
    "street": null,
    "office_name": null,
    "office_name_kana": null
  },
  "1112": {
    "postcode": "7161112",
    "prefecture": "岡山県",
    "prefecture_kana": "オカヤマケン",
    "prefecture_code": 33,
    "city": "加賀郡吉備中央町",
    "city_kana": "カガグンキビチュウオウチョウ",
    "town": "湯山",
    "town_kana": "ユヤマ",
    "street": null,
    "office_name": null,
    "office_name_kana": null
  },
  "1121": {
    "postcode": "7161121",
    "prefecture": "岡山県",
    "prefecture_kana": "オカヤマケン",
    "prefecture_code": 33,
    "city": "加賀郡吉備中央町",
    "city_kana": "カガグンキビチュウオウチョウ",
    "town": "納地",
    "town_kana": "ノウチ",
    "street": null,
    "office_name": null,
    "office_name_kana": null
  },
  "1122": {
    "postcode": "7161122",
    "prefecture": "岡山県",
    "prefecture_kana": "オカヤマケン",
    "prefecture_code": 33,
    "city": "加賀郡吉備中央町",
    "city_kana": "カガグンキビチュウオウチョウ",
    "town": "竹荘",
    "town_kana": "タケショウ",
    "street": null,
    "office_name": null,
    "office_name_kana": null
  },
  "1131": {
    "postcode": "7161131",
    "prefecture": "岡山県",
    "prefecture_kana": "オカヤマケン",
    "prefecture_code": 33,
    "city": "加賀郡吉備中央町",
    "city_kana": "カガグンキビチュウオウチョウ",
    "town": "上竹",
    "town_kana": "カミタケ",
    "street": null,
    "office_name": null,
    "office_name_kana": null
  },
  "1192": {
    "postcode": "7161192",
    "prefecture": "岡山県",
    "prefecture_kana": "オカヤマケン",
    "prefecture_code": 33,
    "city": "加賀郡吉備中央町",
    "city_kana": "カガグンキビチュウオウチョウ",
    "town": "大字豊野",
    "town_kana": null,
    "street": "１−２",
    "office_name": "吉備中央町役場",
    "office_name_kana": "キビチユウオウチヨウヤクバ"
  },
  "1241": {
    "postcode": "7161241",
    "prefecture": "岡山県",
    "prefecture_kana": "オカヤマケン",
    "prefecture_code": 33,
    "city": "加賀郡吉備中央町",
    "city_kana": "カガグンキビチュウオウチョウ",
    "town": "吉川",
    "town_kana": "ヨシカワ",
    "street": null,
    "office_name": null,
    "office_name_kana": null
  },
  "1242": {
    "postcode": "7161242",
    "prefecture": "岡山県",
    "prefecture_kana": "オカヤマケン",
    "prefecture_code": 33,
    "city": "加賀郡吉備中央町",
    "city_kana": "カガグンキビチュウオウチョウ",
    "town": "黒山",
    "town_kana": "クロヤマ",
    "street": null,
    "office_name": null,
    "office_name_kana": null
  },
  "1311": {
    "postcode": "7161311",
    "prefecture": "岡山県",
    "prefecture_kana": "オカヤマケン",
    "prefecture_code": 33,
    "city": "高梁市",
    "city_kana": "タカハシシ",
    "town": "巨瀬町",
    "town_kana": "コセチョウ",
    "street": null,
    "office_name": null,
    "office_name_kana": null
  },
  "1321": {
    "postcode": "7161321",
    "prefecture": "岡山県",
    "prefecture_kana": "オカヤマケン",
    "prefecture_code": 33,
    "city": "高梁市",
    "city_kana": "タカハシシ",
    "town": "有漢町有漢",
    "town_kana": "ウカンチョウウカン",
    "street": null,
    "office_name": null,
    "office_name_kana": null
  },
  "1322": {
    "postcode": "7161322",
    "prefecture": "岡山県",
    "prefecture_kana": "オカヤマケン",
    "prefecture_code": 33,
    "city": "高梁市",
    "city_kana": "タカハシシ",
    "town": "有漢町上有漢",
    "town_kana": "ウカンチョウカミウカン",
    "street": null,
    "office_name": null,
    "office_name_kana": null
  },
  "1392": {
    "postcode": "7161392",
    "prefecture": "岡山県",
    "prefecture_kana": "オカヤマケン",
    "prefecture_code": 33,
    "city": "高梁市",
    "city_kana": "タカハシシ",
    "town": "有漢町有漢",
    "town_kana": "ウカンチョウウカン",
    "street": "３３８７",
    "office_name": "高梁市有漢地域局",
    "office_name_kana": "タカハシシウカンチイキキヨク"
  },
  "1401": {
    "postcode": "7161401",
    "prefecture": "岡山県",
    "prefecture_kana": "オカヤマケン",
    "prefecture_code": 33,
    "city": "真庭市",
    "city_kana": "マニワシ",
    "town": "五名",
    "town_kana": "ゴミョウ",
    "street": null,
    "office_name": null,
    "office_name_kana": null
  },
  "1402": {
    "postcode": "7161402",
    "prefecture": "岡山県",
    "prefecture_kana": "オカヤマケン",
    "prefecture_code": 33,
    "city": "真庭市",
    "city_kana": "マニワシ",
    "town": "山田",
    "town_kana": "ヤマダ",
    "street": null,
    "office_name": null,
    "office_name_kana": null
  },
  "1403": {
    "postcode": "7161403",
    "prefecture": "岡山県",
    "prefecture_kana": "オカヤマケン",
    "prefecture_code": 33,
    "city": "真庭市",
    "city_kana": "マニワシ",
    "town": "宮地",
    "town_kana": "ミヤジ",
    "street": null,
    "office_name": null,
    "office_name_kana": null
  },
  "1411": {
    "postcode": "7161411",
    "prefecture": "岡山県",
    "prefecture_kana": "オカヤマケン",
    "prefecture_code": 33,
    "city": "真庭市",
    "city_kana": "マニワシ",
    "town": "上水田",
    "town_kana": "カミミズタ",
    "street": null,
    "office_name": null,
    "office_name_kana": null
  },
  "1421": {
    "postcode": "7161421",
    "prefecture": "岡山県",
    "prefecture_kana": "オカヤマケン",
    "prefecture_code": 33,
    "city": "真庭市",
    "city_kana": "マニワシ",
    "town": "下中津井",
    "town_kana": "シモナカツイ",
    "street": null,
    "office_name": null,
    "office_name_kana": null
  },
  "1422": {
    "postcode": "7161422",
    "prefecture": "岡山県",
    "prefecture_kana": "オカヤマケン",
    "prefecture_code": 33,
    "city": "真庭市",
    "city_kana": "マニワシ",
    "town": "上中津井",
    "town_kana": "カミナカツイ",
    "street": null,
    "office_name": null,
    "office_name_kana": null
  },
  "1431": {
    "postcode": "7161431",
    "prefecture": "岡山県",
    "prefecture_kana": "オカヤマケン",
    "prefecture_code": 33,
    "city": "真庭市",
    "city_kana": "マニワシ",
    "town": "阿口",
    "town_kana": "アクチ",
    "street": null,
    "office_name": null,
    "office_name_kana": null
  },
  "1432": {
    "postcode": "7161432",
    "prefecture": "岡山県",
    "prefecture_kana": "オカヤマケン",
    "prefecture_code": 33,
    "city": "真庭市",
    "city_kana": "マニワシ",
    "town": "上呰部",
    "town_kana": "カミアザエ",
    "street": null,
    "office_name": null,
    "office_name_kana": null
  },
  "1433": {
    "postcode": "7161433",
    "prefecture": "岡山県",
    "prefecture_kana": "オカヤマケン",
    "prefecture_code": 33,
    "city": "真庭市",
    "city_kana": "マニワシ",
    "town": "下呰部",
    "town_kana": "シモアザエ",
    "street": null,
    "office_name": null,
    "office_name_kana": null
  },
  "1551": {
    "postcode": "7161551",
    "prefecture": "岡山県",
    "prefecture_kana": "オカヤマケン",
    "prefecture_code": 33,
    "city": "加賀郡吉備中央町",
    "city_kana": "カガグンキビチュウオウチョウ",
    "town": "北",
    "town_kana": "キタ",
    "street": null,
    "office_name": null,
    "office_name_kana": null
  },
  "1552": {
    "postcode": "7161552",
    "prefecture": "岡山県",
    "prefecture_kana": "オカヤマケン",
    "prefecture_code": 33,
    "city": "加賀郡吉備中央町",
    "city_kana": "カガグンキビチュウオウチョウ",
    "town": "岨谷",
    "town_kana": "スワタニ",
    "street": null,
    "office_name": null,
    "office_name_kana": null
  },
  "1553": {
    "postcode": "7161553",
    "prefecture": "岡山県",
    "prefecture_kana": "オカヤマケン",
    "prefecture_code": 33,
    "city": "加賀郡吉備中央町",
    "city_kana": "カガグンキビチュウオウチョウ",
    "town": "宮地",
    "town_kana": "ミヤチ",
    "street": null,
    "office_name": null,
    "office_name_kana": null
  },
  "1554": {
    "postcode": "7161554",
    "prefecture": "岡山県",
    "prefecture_kana": "オカヤマケン",
    "prefecture_code": 33,
    "city": "加賀郡吉備中央町",
    "city_kana": "カガグンキビチュウオウチョウ",
    "town": "西",
    "town_kana": "ニシ",
    "street": null,
    "office_name": null,
    "office_name_kana": null
  },
  "8501": {
    "postcode": "7168501",
    "prefecture": "岡山県",
    "prefecture_kana": "オカヤマケン",
    "prefecture_code": 33,
    "city": "高梁市",
    "city_kana": "タカハシシ",
    "town": "松原通",
    "town_kana": "マツバラドオリ",
    "street": "２０４３",
    "office_name": "高梁市役所",
    "office_name_kana": "タカハシシヤクシヨ"
  },
  "8508": {
    "postcode": "7168508",
    "prefecture": "岡山県",
    "prefecture_kana": "オカヤマケン",
    "prefecture_code": 33,
    "city": "高梁市",
    "city_kana": "タカハシシ",
    "town": "伊賀町",
    "town_kana": "イガマチ",
    "street": "８",
    "office_name": "学校法人　高梁学園",
    "office_name_kana": "ガツコウホウジン タカハシガクエン"
  },
  "8511": {
    "postcode": "7168511",
    "prefecture": "岡山県",
    "prefecture_kana": "オカヤマケン",
    "prefecture_code": 33,
    "city": "高梁市",
    "city_kana": "タカハシシ",
    "town": "落合町阿部",
    "town_kana": "オチアイチョウアベ",
    "street": "１２１２",
    "office_name": "イーグル工業　株式会社　岡山事業場",
    "office_name_kana": "イ-グルコウギヨウ カブシキガイシヤ オカヤマジギヨウジヨウ"
  },
  "8585": {
    "postcode": "7168585",
    "prefecture": "岡山県",
    "prefecture_kana": "オカヤマケン",
    "prefecture_code": 33,
    "city": "高梁市",
    "city_kana": "タカハシシ",
    "town": "落合町近似",
    "town_kana": "オチアイチョウチカノリ",
    "street": "２８６−１",
    "office_name": "岡山県　高梁地方振興局",
    "office_name_kana": "オカヤマケン タカハシチホウシンコウキヨク"
  },
  "8601": {
    "postcode": "7168601",
    "prefecture": "岡山県",
    "prefecture_kana": "オカヤマケン",
    "prefecture_code": 33,
    "city": "高梁市",
    "city_kana": "タカハシシ",
    "town": "南町",
    "town_kana": "ミナミマチ",
    "street": "１６−２（高梁郵便局私書箱第６号）",
    "office_name": "高梁商工会議所",
    "office_name_kana": "タカハシシヨウコウカイギシヨ"
  }
}