{
  "0001": {
    "postcode": "7200001",
    "prefecture": "広島県",
    "prefecture_kana": "ヒロシマケン",
    "prefecture_code": 34,
    "city": "福山市",
    "city_kana": "フクヤマシ",
    "town": "御幸町上岩成",
    "town_kana": "ミユキチョウカミイワナリ",
    "street": null,
    "office_name": null,
    "office_name_kana": null
  },
  "0002": {
    "postcode": "7200002",
    "prefecture": "広島県",
    "prefecture_kana": "ヒロシマケン",
    "prefecture_code": 34,
    "city": "福山市",
    "city_kana": "フクヤマシ",
    "town": "御幸町下岩成",
    "town_kana": "ミユキチョウシモイワナリ",
    "street": null,
    "office_name": null,
    "office_name_kana": null
  },
  "0003": {
    "postcode": "7200003",
    "prefecture": "広島県",
    "prefecture_kana": "ヒロシマケン",
    "prefecture_code": 34,
    "city": "福山市",
    "city_kana": "フクヤマシ",
    "town": "御幸町森脇",
    "town_kana": "ミユキチョウモリワケ",
    "street": null,
    "office_name": null,
    "office_name_kana": null
  },
  "0004": {
    "postcode": "7200004",
    "prefecture": "広島県",
    "prefecture_kana": "ヒロシマケン",
    "prefecture_code": 34,
    "city": "福山市",
    "city_kana": "フクヤマシ",
    "town": "御幸町中津原",
    "town_kana": "ミユキチョウナカツハラ",
    "street": null,
    "office_name": null,
    "office_name_kana": null
  },
  "0011": {
    "postcode": "7200011",
    "prefecture": "広島県",
    "prefecture_kana": "ヒロシマケン",
    "prefecture_code": 34,
    "city": "福山市",
    "city_kana": "フクヤマシ",
    "town": "横尾町",
    "town_kana": "ヨコオチョウ",
    "street": null,
    "office_name": null,
    "office_name_kana": null
  },
  "0013": {
    "postcode": "7200013",
    "prefecture": "広島県",
    "prefecture_kana": "ヒロシマケン",
    "prefecture_code": 34,
    "city": "福山市",
    "city_kana": "フクヤマシ",
    "town": "千田町千田",
    "town_kana": "センダチョウセンダ",
    "street": null,
    "office_name": null,
    "office_name_kana": null
  },
  "0014": {
    "postcode": "7200014",
    "prefecture": "広島県",
    "prefecture_kana": "ヒロシマケン",
    "prefecture_code": 34,
    "city": "福山市",
    "city_kana": "フクヤマシ",
    "town": "千田町薮路",
    "town_kana": "センダチョウヤブロ",
    "street": null,
    "office_name": null,
    "office_name_kana": null
  },
  "0015": {
    "postcode": "7200015",
    "prefecture": "広島県",
    "prefecture_kana": "ヒロシマケン",
    "prefecture_code": 34,
    "city": "福山市",
    "city_kana": "フクヤマシ",
    "town": "千田町坂田",
    "town_kana": "センダチョウサカタ",
    "street": null,
    "office_name": null,
    "office_name_kana": null
  },
  "0016": {
    "postcode": "7200016",
    "prefecture": "広島県",
    "prefecture_kana": "ヒロシマケン",
    "prefecture_code": 34,
    "city": "福山市",
    "city_kana": "フクヤマシ",
    "town": "千田町坂田北",
    "town_kana": "センダチョウサカタキタ",
    "street": null,
    "office_name": null,
    "office_name_kana": null
  },
  "0017": {
    "postcode": "7200017",
    "prefecture": "広島県",
    "prefecture_kana": "ヒロシマケン",
    "prefecture_code": 34,
    "city": "福山市",
    "city_kana": "フクヤマシ",
    "town": "千田町",
    "town_kana": "センダチョウ",
    "street": null,
    "office_name": null,
    "office_name_kana": null
  },
  "0021": {
    "postcode": "7200021",
    "prefecture": "広島県",
    "prefecture_kana": "ヒロシマケン",
    "prefecture_code": 34,
    "city": "福山市",
    "city_kana": "フクヤマシ",
    "town": "緑陽町",
    "town_kana": "リョクヨウチョウ",
    "street": null,
    "office_name": null,
    "office_name_kana": null
  },
  "0022": {
    "postcode": "7200022",
    "prefecture": "広島県",
    "prefecture_kana": "ヒロシマケン",
    "prefecture_code": 34,
    "city": "福山市",
    "city_kana": "フクヤマシ",
    "town": "奈良津町",
    "town_kana": "ナラヅチョウ",
    "street": null,
    "office_name": null,
    "office_name_kana": null
  },
  "0023": {
    "postcode": "7200023",
    "prefecture": "広島県",
    "prefecture_kana": "ヒロシマケン",
    "prefecture_code": 34,
    "city": "福山市",
    "city_kana": "フクヤマシ",
    "town": "北美台",
    "town_kana": "キタミダイ",
    "street": null,
    "office_name": null,
    "office_name_kana": null
  },
  "0024": {
    "postcode": "7200024",
    "prefecture": "広島県",
    "prefecture_kana": "ヒロシマケン",
    "prefecture_code": 34,
    "city": "福山市",
    "city_kana": "フクヤマシ",
    "town": "高美台",
    "town_kana": "タカミダイ",
    "street": null,
    "office_name": null,
    "office_name_kana": null
  },
  "0025": {
    "postcode": "7200025",
    "prefecture": "広島県",
    "prefecture_kana": "ヒロシマケン",
    "prefecture_code": 34,
    "city": "福山市",
    "city_kana": "フクヤマシ",
    "town": "清水ケ丘",
    "town_kana": "シミズガオカ",
    "street": null,
    "office_name": null,
    "office_name_kana": null
  },
  "0031": {
    "postcode": "7200031",
    "prefecture": "広島県",
    "prefecture_kana": "ヒロシマケン",
    "prefecture_code": 34,
    "city": "福山市",
    "city_kana": "フクヤマシ",
    "town": "三吉町",
    "town_kana": "ミヨシチョウ",
    "street": null,
    "office_name": null,
    "office_name_kana": null
  },
  "0032": {
    "postcode": "7200032",
    "prefecture": "広島県",
    "prefecture_kana": "ヒロシマケン",
    "prefecture_code": 34,
    "city": "福山市",
    "city_kana": "フクヤマシ",
    "town": "三吉町南",
    "town_kana": "ミヨシチョウミナミ",
    "street": null,
    "office_name": null,
    "office_name_kana": null
  },
  "0033": {
    "postcode": "7200033",
    "prefecture": "広島県",
    "prefecture_kana": "ヒロシマケン",
    "prefecture_code": 34,
    "city": "福山市",
    "city_kana": "フクヤマシ",
    "town": "旭町",
    "town_kana": "アサヒマチ",
    "street": null,
    "office_name": null,
    "office_name_kana": null
  },
  "0034": {
    "postcode": "7200034",
    "prefecture": "広島県",
    "prefecture_kana": "ヒロシマケン",
    "prefecture_code": 34,
    "city": "福山市",
    "city_kana": "フクヤマシ",
    "town": "若松町",
    "town_kana": "ワカマツチョウ",
    "street": null,
    "office_name": null,
    "office_name_kana": null
  },
  "0041": {
    "postcode": "7200041",
    "prefecture": "広島県",
    "prefecture_kana": "ヒロシマケン",
    "prefecture_code": 34,
    "city": "福山市",
    "city_kana": "フクヤマシ",
    "town": "寺町",
    "town_kana": "テラマチ",
    "street": null,
    "office_name": null,
    "office_name_kana": null
  },
  "0042": {
    "postcode": "7200042",
    "prefecture": "広島県",
    "prefecture_kana": "ヒロシマケン",
    "prefecture_code": 34,
    "city": "福山市",
    "city_kana": "フクヤマシ",
    "town": "御船町",
    "town_kana": "ミフネチョウ",
    "street": null,
    "office_name": null,
    "office_name_kana": null
  },
  "0043": {
    "postcode": "7200043",
    "prefecture": "広島県",
    "prefecture_kana": "ヒロシマケン",
    "prefecture_code": 34,
    "city": "福山市",
    "city_kana": "フクヤマシ",
    "town": "船町",
    "town_kana": "フナマチ",
    "street": null,
    "office_name": null,
    "office_name_kana": null
  },
  "0044": {
    "postcode": "7200044",
    "prefecture": "広島県",
    "prefecture_kana": "ヒロシマケン",
    "prefecture_code": 34,
    "city": "福山市",
    "city_kana": "フクヤマシ",
    "town": "笠岡町",
    "town_kana": "カサオカマチ",
    "street": null,
    "office_name": null,
    "office_name_kana": null
  },
  "0045": {
    "postcode": "7200045",
    "prefecture": "広島県",
    "prefecture_kana": "ヒロシマケン",
    "prefecture_code": 34,
    "city": "福山市",
    "city_kana": "フクヤマシ",
    "town": "宝町",
    "town_kana": "タカラマチ",
    "street": null,
    "office_name": null,
    "office_name_kana": null
  },
  "0046": {
    "postcode": "7200046",
    "prefecture": "広島県",
    "prefecture_kana": "ヒロシマケン",
    "prefecture_code": 34,
    "city": "福山市",
    "city_kana": "フクヤマシ",
    "town": "今町",
    "town_kana": "イママチ",
    "street": null,
    "office_name": null,
    "office_name_kana": null
  },
  "0051": {
    "postcode": "7200051",
    "prefecture": "広島県",
    "prefecture_kana": "ヒロシマケン",
    "prefecture_code": 34,
    "city": "福山市",
    "city_kana": "フクヤマシ",
    "town": "桜馬場町",
    "town_kana": "サクラババチョウ",
    "street": null,
    "office_name": null,
    "office_name_kana": null
  },
  "0052": {
    "postcode": "7200052",
    "prefecture": "広島県",
    "prefecture_kana": "ヒロシマケン",
    "prefecture_code": 34,
    "city": "福山市",
    "city_kana": "フクヤマシ",
    "town": "東町",
    "town_kana": "ヒガシマチ",
    "street": null,
    "office_name": null,
    "office_name_kana": null
  },
  "0053": {
    "postcode": "7200053",
    "prefecture": "広島県",
    "prefecture_kana": "ヒロシマケン",
    "prefecture_code": 34,
    "city": "福山市",
    "city_kana": "フクヤマシ",
    "town": "大黒町",
    "town_kana": "ダイコクマチ",
    "street": null,
    "office_name": null,
    "office_name_kana": null
  },
  "0054": {
    "postcode": "7200054",
    "prefecture": "広島県",
    "prefecture_kana": "ヒロシマケン",
    "prefecture_code": 34,
    "city": "福山市",
    "city_kana": "フクヤマシ",
    "town": "城見町",
    "town_kana": "シロミチョウ",
    "street": null,
    "office_name": null,
    "office_name_kana": null
  },
  "0055": {
    "postcode": "7200055",
    "prefecture": "広島県",
    "prefecture_kana": "ヒロシマケン",
    "prefecture_code": 34,
    "city": "福山市",
    "city_kana": "フクヤマシ",
    "town": "胡町",
    "town_kana": "エビスマチ",
    "street": null,
    "office_name": null,
    "office_name_kana": null
  },
  "0056": {
    "postcode": "7200056",
    "prefecture": "広島県",
    "prefecture_kana": "ヒロシマケン",
    "prefecture_code": 34,
    "city": "福山市",
    "city_kana": "フクヤマシ",
    "town": "本町",
    "town_kana": "ホンマチ",
    "street": null,
    "office_name": null,
    "office_name_kana": null
  },
  "0061": {
    "postcode": "7200061",
    "prefecture": "広島県",
    "prefecture_kana": "ヒロシマケン",
    "prefecture_code": 34,
    "city": "福山市",
    "city_kana": "フクヤマシ",
    "town": "丸之内",
    "town_kana": "マルノウチ",
    "street": null,
    "office_name": null,
    "office_name_kana": null
  },
  "0062": {
    "postcode": "7200062",
    "prefecture": "広島県",
    "prefecture_kana": "ヒロシマケン",
    "prefecture_code": 34,
    "city": "福山市",
    "city_kana": "フクヤマシ",
    "town": "伏見町",
    "town_kana": "フシミチョウ",
    "street": null,
    "office_name": null,
    "office_name_kana": null
  },
  "0063": {
    "postcode": "7200063",
    "prefecture": "広島県",
    "prefecture_kana": "ヒロシマケン",
    "prefecture_code": 34,
    "city": "福山市",
    "city_kana": "フクヤマシ",
    "town": "元町",
    "town_kana": "モトマチ",
    "street": null,
    "office_name": null,
    "office_name_kana": null
  },
  "0064": {
    "postcode": "7200064",
    "prefecture": "広島県",
    "prefecture_kana": "ヒロシマケン",
    "prefecture_code": 34,
    "city": "福山市",
    "city_kana": "フクヤマシ",
    "town": "延広町",
    "town_kana": "ノブヒロチョウ",
    "street": null,
    "office_name": null,
    "office_name_kana": null
  },
  "0065": {
    "postcode": "7200065",
    "prefecture": "広島県",
    "prefecture_kana": "ヒロシマケン",
    "prefecture_code": 34,
    "city": "福山市",
    "city_kana": "フクヤマシ",
    "town": "東桜町",
    "town_kana": "ヒガシサクラマチ",
    "street": null,
    "office_name": null,
    "office_name_kana": null
  },
  "0066": {
    "postcode": "7200066",
    "prefecture": "広島県",
    "prefecture_kana": "ヒロシマケン",
    "prefecture_code": 34,
    "city": "福山市",
    "city_kana": "フクヤマシ",
    "town": "三之丸町",
    "town_kana": "サンノマルチョウ",
    "street": null,
    "office_name": null,
    "office_name_kana": null
  },
  "0067": {
    "postcode": "7200067",
    "prefecture": "広島県",
    "prefecture_kana": "ヒロシマケン",
    "prefecture_code": 34,
    "city": "福山市",
    "city_kana": "フクヤマシ",
    "town": "西町",
    "town_kana": "ニシマチ",
    "street": null,
    "office_name": null,
    "office_name_kana": null
  },
  "0071": {
    "postcode": "7200071",
    "prefecture": "広島県",
    "prefecture_kana": "ヒロシマケン",
    "prefecture_code": 34,
    "city": "福山市",
    "city_kana": "フクヤマシ",
    "town": "東吉津町",
    "town_kana": "ヒガシヨシヅチョウ",
    "street": null,
    "office_name": null,
    "office_name_kana": null
  },
  "0072": {
    "postcode": "7200072",
    "prefecture": "広島県",
    "prefecture_kana": "ヒロシマケン",
    "prefecture_code": 34,
    "city": "福山市",
    "city_kana": "フクヤマシ",
    "town": "吉津町",
    "town_kana": "ヨシヅチョウ",
    "street": null,
    "office_name": null,
    "office_name_kana": null
  },
  "0073": {
    "postcode": "7200073",
    "prefecture": "広島県",
    "prefecture_kana": "ヒロシマケン",
    "prefecture_code": 34,
    "city": "福山市",
    "city_kana": "フクヤマシ",
    "town": "北吉津町",
    "town_kana": "キタヨシヅチョウ",
    "street": null,
    "office_name": null,
    "office_name_kana": null
  },
  "0074": {
    "postcode": "7200074",
    "prefecture": "広島県",
    "prefecture_kana": "ヒロシマケン",
    "prefecture_code": 34,
    "city": "福山市",
    "city_kana": "フクヤマシ",
    "town": "北本庄",
    "town_kana": "キタホンジョウ",
    "street": null,
    "office_name": null,
    "office_name_kana": null
  },
  "0075": {
    "postcode": "7200075",
    "prefecture": "広島県",
    "prefecture_kana": "ヒロシマケン",
    "prefecture_code": 34,
    "city": "福山市",
    "city_kana": "フクヤマシ",
    "town": "長者町",
    "town_kana": "チョウジャマチ",
    "street": null,
    "office_name": null,
    "office_name_kana": null
  },
  "0076": {
    "postcode": "7200076",
    "prefecture": "広島県",
    "prefecture_kana": "ヒロシマケン",
    "prefecture_code": 34,
    "city": "福山市",
    "city_kana": "フクヤマシ",
    "town": "本庄町中",
    "town_kana": "ホンジョウチョウナカ",
    "street": null,
    "office_name": null,
    "office_name_kana": null
  },
  "0077": {
    "postcode": "7200077",
    "prefecture": "広島県",
    "prefecture_kana": "ヒロシマケン",
    "prefecture_code": 34,
    "city": "福山市",
    "city_kana": "フクヤマシ",
    "town": "南本庄",
    "town_kana": "ミナミホンジョウ",
    "street": null,
    "office_name": null,
    "office_name_kana": null
  },
  "0081": {
    "postcode": "7200081",
    "prefecture": "広島県",
    "prefecture_kana": "ヒロシマケン",
    "prefecture_code": 34,
    "city": "福山市",
    "city_kana": "フクヤマシ",
    "town": "向陽町",
    "town_kana": "コウヨウチョウ",
    "street": null,
    "office_name": null,
    "office_name_kana": null
  },
  "0082": {
    "postcode": "7200082",
    "prefecture": "広島県",
    "prefecture_kana": "ヒロシマケン",
    "prefecture_code": 34,
    "city": "福山市",
    "city_kana": "フクヤマシ",
    "town": "木之庄町",
    "town_kana": "キノショウチョウ",
    "street": null,
    "office_name": null,
    "office_name_kana": null
  },
  "0083": {
    "postcode": "7200083",
    "prefecture": "広島県",
    "prefecture_kana": "ヒロシマケン",
    "prefecture_code": 34,
    "city": "福山市",
    "city_kana": "フクヤマシ",
    "town": "久松台",
    "town_kana": "ヒサマツダイ",
    "street": null,
    "office_name": null,
    "office_name_kana": null
  },
  "0091": {
    "postcode": "7200091",
    "prefecture": "広島県",
    "prefecture_kana": "ヒロシマケン",
    "prefecture_code": 34,
    "city": "福山市",
    "city_kana": "フクヤマシ",
    "town": "神島町",
    "town_kana": "カシマチョウ",
    "street": null,
    "office_name": null,
    "office_name_kana": null
  },
  "0092": {
    "postcode": "7200092",
    "prefecture": "広島県",
    "prefecture_kana": "ヒロシマケン",
    "prefecture_code": 34,
    "city": "福山市",
    "city_kana": "フクヤマシ",
    "town": "山手町",
    "town_kana": "ヤマテチョウ",
    "street": null,
    "office_name": null,
    "office_name_kana": null
  },
  "0093": {
    "postcode": "7200093",
    "prefecture": "広島県",
    "prefecture_kana": "ヒロシマケン",
    "prefecture_code": 34,
    "city": "福山市",
    "city_kana": "フクヤマシ",
    "town": "郷分町",
    "town_kana": "ゴウブンチョウ",
    "street": null,
    "office_name": null,
    "office_name_kana": null
  },
  "0201": {
    "postcode": "7200201",
    "prefecture": "広島県",
    "prefecture_kana": "ヒロシマケン",
    "prefecture_code": 34,
    "city": "福山市",
    "city_kana": "フクヤマシ",
    "town": "鞆町鞆",
    "town_kana": "トモチョウトモ",
    "street": null,
    "office_name": null,
    "office_name_kana": null
  },
  "0202": {
    "postcode": "7200202",
    "prefecture": "広島県",
    "prefecture_kana": "ヒロシマケン",
    "prefecture_code": 34,
    "city": "福山市",
    "city_kana": "フクヤマシ",
    "town": "鞆町後地",
    "town_kana": "トモチョウウシロジ",
    "street": null,
    "office_name": null,
    "office_name_kana": null
  },
  "0203": {
    "postcode": "7200203",
    "prefecture": "広島県",
    "prefecture_kana": "ヒロシマケン",
    "prefecture_code": 34,
    "city": "福山市",
    "city_kana": "フクヤマシ",
    "town": "田尻町",
    "town_kana": "タジリチョウ",
    "street": null,
    "office_name": null,
    "office_name_kana": null
  },
  "0204": {
    "postcode": "7200204",
    "prefecture": "広島県",
    "prefecture_kana": "ヒロシマケン",
    "prefecture_code": 34,
    "city": "福山市",
    "city_kana": "フクヤマシ",
    "town": "走島町",
    "town_kana": "ハシリジマチョウ",
    "street": null,
    "office_name": null,
    "office_name_kana": null
  },
  "0311": {
    "postcode": "7200311",
    "prefecture": "広島県",
    "prefecture_kana": "ヒロシマケン",
    "prefecture_code": 34,
    "city": "福山市",
    "city_kana": "フクヤマシ",
    "town": "沼隈町草深",
    "town_kana": "ヌマクマチョウクサブカ",
    "street": null,
    "office_name": null,
    "office_name_kana": null
  },
  "0312": {
    "postcode": "7200312",
    "prefecture": "広島県",
    "prefecture_kana": "ヒロシマケン",
    "prefecture_code": 34,
    "city": "福山市",
    "city_kana": "フクヤマシ",
    "town": "沼隈町能登原",
    "town_kana": "ヌマクマチョウノトハラ",
    "street": null,
    "office_name": null,
    "office_name_kana": null
  },
  "0313": {
    "postcode": "7200313",
    "prefecture": "広島県",
    "prefecture_kana": "ヒロシマケン",
    "prefecture_code": 34,
    "city": "福山市",
    "city_kana": "フクヤマシ",
    "town": "沼隈町常石",
    "town_kana": "ヌマクマチョウツネイシ",
    "street": null,
    "office_name": null,
    "office_name_kana": null
  },
  "0392": {
    "postcode": "7200392",
    "prefecture": "広島県",
    "prefecture_kana": "ヒロシマケン",
    "prefecture_code": 34,
    "city": "福山市",
    "city_kana": "フクヤマシ",
    "town": "沼隈町大字草深",
    "town_kana": null,
    "street": "１８８９−６",
    "office_name": "福山市役所　沼隈支所",
    "office_name_kana": "フクヤマシヤクシヨ ヌマクマシシヨ"
  },
  "0397": {
    "postcode": "7200397",
    "prefecture": "広島県",
    "prefecture_kana": "ヒロシマケン",
    "prefecture_code": 34,
    "city": "福山市",
    "city_kana": "フクヤマシ",
    "town": "沼隈町大字常石",
    "town_kana": null,
    "street": "２１２８",
    "office_name": "常石鉄工　株式会社",
    "office_name_kana": "ツネイシテツコウ カブシキガイシヤ"
  },
  "0398": {
    "postcode": "7200398",
    "prefecture": "広島県",
    "prefecture_kana": "ヒロシマケン",
    "prefecture_code": 34,
    "city": "福山市",
    "city_kana": "フクヤマシ",
    "town": "沼隈町常石",
    "town_kana": "ヌマクマチョウツネイシ",
    "street": "１０８３",
    "office_name": "常石商事　株式会社",
    "office_name_kana": "ツネイシシヨウジ カブシキガイシヤ"
  },
  "0401": {
    "postcode": "7200401",
    "prefecture": "広島県",
    "prefecture_kana": "ヒロシマケン",
    "prefecture_code": 34,
    "city": "福山市",
    "city_kana": "フクヤマシ",
    "town": "沼隈町上山南",
    "town_kana": "ヌマクマチョウカミサンナ",
    "street": null,
    "office_name": null,
    "office_name_kana": null
  },
  "0402": {
    "postcode": "7200402",
    "prefecture": "広島県",
    "prefecture_kana": "ヒロシマケン",
    "prefecture_code": 34,
    "city": "福山市",
    "city_kana": "フクヤマシ",
    "town": "沼隈町中山南",
    "town_kana": "ヌマクマチョウナカサンナ",
    "street": null,
    "office_name": null,
    "office_name_kana": null
  },
  "0403": {
    "postcode": "7200403",
    "prefecture": "広島県",
    "prefecture_kana": "ヒロシマケン",
    "prefecture_code": 34,
    "city": "福山市",
    "city_kana": "フクヤマシ",
    "town": "沼隈町下山南",
    "town_kana": "ヌマクマチョウシモサンナ",
    "street": null,
    "office_name": null,
    "office_name_kana": null
  },
  "0411": {
    "postcode": "7200411",
    "prefecture": "広島県",
    "prefecture_kana": "ヒロシマケン",
    "prefecture_code": 34,
    "city": "福山市",
    "city_kana": "フクヤマシ",
    "town": "熊野町",
    "town_kana": "クマノチョウ",
    "street": null,
    "office_name": null,
    "office_name_kana": null
  },
  "0541": {
    "postcode": "7200541",
    "prefecture": "広島県",
    "prefecture_kana": "ヒロシマケン",
    "prefecture_code": 34,
    "city": "福山市",
    "city_kana": "フクヤマシ",
    "town": "金江町金見",
    "town_kana": "カナエチョウカナミ",
    "street": null,
    "office_name": null,
    "office_name_kana": null
  },
  "0542": {
    "postcode": "7200542",
    "prefecture": "広島県",
    "prefecture_kana": "ヒロシマケン",
    "prefecture_code": 34,
    "city": "福山市",
    "city_kana": "フクヤマシ",
    "town": "金江町藁江",
    "town_kana": "カナエチョウワラエ",
    "street": null,
    "office_name": null,
    "office_name_kana": null
  },
  "0543": {
    "postcode": "7200543",
    "prefecture": "広島県",
    "prefecture_kana": "ヒロシマケン",
    "prefecture_code": 34,
    "city": "福山市",
    "city_kana": "フクヤマシ",
    "town": "藤江町",
    "town_kana": "フジエチョウ",
    "street": null,
    "office_name": null,
    "office_name_kana": null
  },
  "0551": {
    "postcode": "7200551",
    "prefecture": "広島県",
    "prefecture_kana": "ヒロシマケン",
    "prefecture_code": 34,
    "city": "尾道市",
    "city_kana": "オノミチシ",
    "town": "浦崎町",
    "town_kana": "ウラサキチョウ",
    "street": null,
    "office_name": null,
    "office_name_kana": null
  },
  "0801": {
    "postcode": "7200801",
    "prefecture": "広島県",
    "prefecture_kana": "ヒロシマケン",
    "prefecture_code": 34,
    "city": "福山市",
    "city_kana": "フクヤマシ",
    "town": "入船町",
    "town_kana": "イリフネチョウ",
    "street": null,
    "office_name": null,
    "office_name_kana": null
  },
  "0802": {
    "postcode": "7200802",
    "prefecture": "広島県",
    "prefecture_kana": "ヒロシマケン",
    "prefecture_code": 34,
    "city": "福山市",
    "city_kana": "フクヤマシ",
    "town": "松浜町",
    "town_kana": "マツハマチョウ",
    "street": null,
    "office_name": null,
    "office_name_kana": null
  },
  "0803": {
    "postcode": "7200803",
    "prefecture": "広島県",
    "prefecture_kana": "ヒロシマケン",
    "prefecture_code": 34,
    "city": "福山市",
    "city_kana": "フクヤマシ",
    "town": "花園町",
    "town_kana": "ハナゾノチョウ",
    "street": null,
    "office_name": null,
    "office_name_kana": null
  },
  "0804": {
    "postcode": "7200804",
    "prefecture": "広島県",
    "prefecture_kana": "ヒロシマケン",
    "prefecture_code": 34,
    "city": "福山市",
    "city_kana": "フクヤマシ",
    "town": "緑町",
    "town_kana": "ミドリマチ",
    "street": null,
    "office_name": null,
    "office_name_kana": null
  },
  "0805": {
    "postcode": "7200805",
    "prefecture": "広島県",
    "prefecture_kana": "ヒロシマケン",
    "prefecture_code": 34,
    "city": "福山市",
    "city_kana": "フクヤマシ",
    "town": "御門町",
    "town_kana": "ミカドチョウ",
    "street": null,
    "office_name": null,
    "office_name_kana": null
  },
  "0806": {
    "postcode": "7200806",
    "prefecture": "広島県",
    "prefecture_kana": "ヒロシマケン",
    "prefecture_code": 34,
    "city": "福山市",
    "city_kana": "フクヤマシ",
    "town": "南町",
    "town_kana": "ミナミマチ",
    "street": null,
    "office_name": null,
    "office_name_kana": null
  },
  "0807": {
    "postcode": "7200807",
    "prefecture": "広島県",
    "prefecture_kana": "ヒロシマケン",
    "prefecture_code": 34,
    "city": "福山市",
    "city_kana": "フクヤマシ",
    "town": "明治町",
    "town_kana": "メイジチョウ",
    "street": null,
    "office_name": null,
    "office_name_kana": null
  },
  "0808": {
    "postcode": "7200808",
    "prefecture": "広島県",
    "prefecture_kana": "ヒロシマケン",
    "prefecture_code": 34,
    "city": "福山市",
    "city_kana": "フクヤマシ",
    "town": "昭和町",
    "town_kana": "ショウワチョウ",
    "street": null,
    "office_name": null,
    "office_name_kana": null
  },
  "0809": {
    "postcode": "7200809",
    "prefecture": "広島県",
    "prefecture_kana": "ヒロシマケン",
    "prefecture_code": 34,
    "city": "福山市",
    "city_kana": "フクヤマシ",
    "town": "住吉町",
    "town_kana": "スミヨシチョウ",
    "street": null,
    "office_name": null,
    "office_name_kana": null
  },
  "0811": {
    "postcode": "7200811",
    "prefecture": "広島県",
    "prefecture_kana": "ヒロシマケン",
    "prefecture_code": 34,
    "city": "福山市",
    "city_kana": "フクヤマシ",
    "town": "紅葉町",
    "town_kana": "モミジチョウ",
    "street": null,
    "office_name": null,
    "office_name_kana": null
  },
  "0812": {
    "postcode": "7200812",
    "prefecture": "広島県",
    "prefecture_kana": "ヒロシマケン",
    "prefecture_code": 34,
    "city": "福山市",
    "city_kana": "フクヤマシ",
    "town": "霞町",
    "town_kana": "カスミチョウ",
    "street": null,
    "office_name": null,
    "office_name_kana": null
  },
  "0813": {
    "postcode": "7200813",
    "prefecture": "広島県",
    "prefecture_kana": "ヒロシマケン",
    "prefecture_code": 34,
    "city": "福山市",
    "city_kana": "フクヤマシ",
    "town": "道三町",
    "town_kana": "ドウサンチョウ",
    "street": null,
    "office_name": null,
    "office_name_kana": null
  },
  "0814": {
    "postcode": "7200814",
    "prefecture": "広島県",
    "prefecture_kana": "ヒロシマケン",
    "prefecture_code": 34,
    "city": "福山市",
    "city_kana": "フクヤマシ",
    "town": "光南町",
    "town_kana": "コウナンチョウ",
    "street": null,
    "office_name": null,
    "office_name_kana": null
  },
  "0815": {
    "postcode": "7200815",
    "prefecture": "広島県",
    "prefecture_kana": "ヒロシマケン",
    "prefecture_code": 34,
    "city": "福山市",
    "city_kana": "フクヤマシ",
    "town": "野上町",
    "town_kana": "ノガミチョウ",
    "street": null,
    "office_name": null,
    "office_name_kana": null
  },
  "0816": {
    "postcode": "7200816",
    "prefecture": "広島県",
    "prefecture_kana": "ヒロシマケン",
    "prefecture_code": 34,
    "city": "福山市",
    "city_kana": "フクヤマシ",
    "town": "地吹町",
    "town_kana": "ジブキチョウ",
    "street": null,
    "office_name": null,
    "office_name_kana": null
  },
  "0817": {
    "postcode": "7200817",
    "prefecture": "広島県",
    "prefecture_kana": "ヒロシマケン",
    "prefecture_code": 34,
    "city": "福山市",
    "city_kana": "フクヤマシ",
    "town": "古野上町",
    "town_kana": "フルノガミチョウ",
    "street": null,
    "office_name": null,
    "office_name_kana": null
  },
  "0818": {
    "postcode": "7200818",
    "prefecture": "広島県",
    "prefecture_kana": "ヒロシマケン",
    "prefecture_code": 34,
    "city": "福山市",
    "city_kana": "フクヤマシ",
    "town": "西桜町",
    "town_kana": "ニシサクラマチ",
    "street": null,
    "office_name": null,
    "office_name_kana": null
  },
  "0821": {
    "postcode": "7200821",
    "prefecture": "広島県",
    "prefecture_kana": "ヒロシマケン",
    "prefecture_code": 34,
    "city": "福山市",
    "city_kana": "フクヤマシ",
    "town": "東川口町",
    "town_kana": "ヒガシカワグチチョウ",
    "street": null,
    "office_name": null,
    "office_name_kana": null
  },
  "0822": {
    "postcode": "7200822",
    "prefecture": "広島県",
    "prefecture_kana": "ヒロシマケン",
    "prefecture_code": 34,
    "city": "福山市",
    "city_kana": "フクヤマシ",
    "town": "川口町",
    "town_kana": "カワグチチョウ",
    "street": null,
    "office_name": null,
    "office_name_kana": null
  },
  "0823": {
    "postcode": "7200823",
    "prefecture": "広島県",
    "prefecture_kana": "ヒロシマケン",
    "prefecture_code": 34,
    "city": "福山市",
    "city_kana": "フクヤマシ",
    "town": "千代田町",
    "town_kana": "チヨダチョウ",
    "street": null,
    "office_name": null,
    "office_name_kana": null
  },
  "0824": {
    "postcode": "7200824",
    "prefecture": "広島県",
    "prefecture_kana": "ヒロシマケン",
    "prefecture_code": 34,
    "city": "福山市",
    "city_kana": "フクヤマシ",
    "town": "多治米町",
    "town_kana": "タジメチョウ",
    "street": null,
    "office_name": null,
    "office_name_kana": null
  },
  "0825": {
    "postcode": "7200825",
    "prefecture": "広島県",
    "prefecture_kana": "ヒロシマケン",
    "prefecture_code": 34,
    "city": "福山市",
    "city_kana": "フクヤマシ",
    "town": "沖野上町",
    "town_kana": "オキノガミチョウ",
    "street": null,
    "office_name": null,
    "office_name_kana": null
  },
  "0830": {
    "postcode": "7200830",
    "prefecture": "広島県",
    "prefecture_kana": "ヒロシマケン",
    "prefecture_code": 34,
    "city": "福山市",
    "city_kana": "フクヤマシ",
    "town": "水呑町三新田",
    "town_kana": "ミノミチョウサンシンデン",
    "street": null,
    "office_name": null,
    "office_name_kana": null
  },
  "0831": {
    "postcode": "7200831",
    "prefecture": "広島県",
    "prefecture_kana": "ヒロシマケン",
    "prefecture_code": 34,
    "city": "福山市",
    "city_kana": "フクヤマシ",
    "town": "草戸町",
    "town_kana": "クサドチョウ",
    "street": null,
    "office_name": null,
    "office_name_kana": null
  },
  "0832": {
    "postcode": "7200832",
    "prefecture": "広島県",
    "prefecture_kana": "ヒロシマケン",
    "prefecture_code": 34,
    "city": "福山市",
    "city_kana": "フクヤマシ",
    "town": "水呑町",
    "town_kana": "ミノミチョウ",
    "street": null,
    "office_name": null,
    "office_name_kana": null
  },
  "0833": {
    "postcode": "7200833",
    "prefecture": "広島県",
    "prefecture_kana": "ヒロシマケン",
    "prefecture_code": 34,
    "city": "福山市",
    "city_kana": "フクヤマシ",
    "town": "水呑向丘",
    "town_kana": "ミノミムカイガオカ",
    "street": null,
    "office_name": null,
    "office_name_kana": null
  },
  "0834": {
    "postcode": "7200834",
    "prefecture": "広島県",
    "prefecture_kana": "ヒロシマケン",
    "prefecture_code": 34,
    "city": "福山市",
    "city_kana": "フクヤマシ",
    "town": "明王台",
    "town_kana": "ミョウオウダイ",
    "street": null,
    "office_name": null,
    "office_name_kana": null
  },
  "0835": {
    "postcode": "7200835",
    "prefecture": "広島県",
    "prefecture_kana": "ヒロシマケン",
    "prefecture_code": 34,
    "city": "福山市",
    "city_kana": "フクヤマシ",
    "town": "佐波町",
    "town_kana": "サバチョウ",
    "street": null,
    "office_name": null,
    "office_name_kana": null
  },
  "0836": {
    "postcode": "7200836",
    "prefecture": "広島県",
    "prefecture_kana": "ヒロシマケン",
    "prefecture_code": 34,
    "city": "福山市",
    "city_kana": "フクヤマシ",
    "town": "瀬戸町長和",
    "town_kana": "セトチョウナガワ",
    "street": null,
    "office_name": null,
    "office_name_kana": null
  },
  "0837": {
    "postcode": "7200837",
    "prefecture": "広島県",
    "prefecture_kana": "ヒロシマケン",
    "prefecture_code": 34,
    "city": "福山市",
    "city_kana": "フクヤマシ",
    "town": "瀬戸町地頭分",
    "town_kana": "セトチョウジトウブ",
    "street": null,
    "office_name": null,
    "office_name_kana": null
  },
  "0838": {
    "postcode": "7200838",
    "prefecture": "広島県",
    "prefecture_kana": "ヒロシマケン",
    "prefecture_code": 34,
    "city": "福山市",
    "city_kana": "フクヤマシ",
    "town": "瀬戸町山北",
    "town_kana": "セトチョウサボク",
    "street": null,
    "office_name": null,
    "office_name_kana": null
  },
  "0839": {
    "postcode": "7200839",
    "prefecture": "広島県",
    "prefecture_kana": "ヒロシマケン",
    "prefecture_code": 34,
    "city": "福山市",
    "city_kana": "フクヤマシ",
    "town": "東明王台",
    "town_kana": "ヒガシミョウオウダイ",
    "street": null,
    "office_name": null,
    "office_name_kana": null
  },
  "0841": {
    "postcode": "7200841",
    "prefecture": "広島県",
    "prefecture_kana": "ヒロシマケン",
    "prefecture_code": 34,
    "city": "福山市",
    "city_kana": "フクヤマシ",
    "town": "津之郷町津之郷",
    "town_kana": "ツノゴウチョウツノゴウ",
    "street": null,
    "office_name": null,
    "office_name_kana": null
  },
  "0842": {
    "postcode": "7200842",
    "prefecture": "広島県",
    "prefecture_kana": "ヒロシマケン",
    "prefecture_code": 34,
    "city": "福山市",
    "city_kana": "フクヤマシ",
    "town": "津之郷町加屋",
    "town_kana": "ツノゴウチョウカヤ",
    "street": null,
    "office_name": null,
    "office_name_kana": null
  },
  "0843": {
    "postcode": "7200843",
    "prefecture": "広島県",
    "prefecture_kana": "ヒロシマケン",
    "prefecture_code": 34,
    "city": "福山市",
    "city_kana": "フクヤマシ",
    "town": "赤坂町赤坂",
    "town_kana": "アカサカチョウアカサカ",
    "street": null,
    "office_name": null,
    "office_name_kana": null
  },
  "0844": {
    "postcode": "7200844",
    "prefecture": "広島県",
    "prefecture_kana": "ヒロシマケン",
    "prefecture_code": 34,
    "city": "福山市",
    "city_kana": "フクヤマシ",
    "town": "赤坂町早戸",
    "town_kana": "アカサカチョウハヤト",
    "street": null,
    "office_name": null,
    "office_name_kana": null
  },
  "0845": {
    "postcode": "7200845",
    "prefecture": "広島県",
    "prefecture_kana": "ヒロシマケン",
    "prefecture_code": 34,
    "city": "福山市",
    "city_kana": "フクヤマシ",
    "town": "芦田町福田",
    "town_kana": "アシダチョウフクダ",
    "street": null,
    "office_name": null,
    "office_name_kana": null
  },
  "1131": {
    "postcode": "7201131",
    "prefecture": "広島県",
    "prefecture_kana": "ヒロシマケン",
    "prefecture_code": 34,
    "city": "福山市",
    "city_kana": "フクヤマシ",
    "town": "駅家町万能倉",
    "town_kana": "エキヤチョウマナグラ",
    "street": null,
    "office_name": null,
    "office_name_kana": null
  },
  "1132": {
    "postcode": "7201132",
    "prefecture": "広島県",
    "prefecture_kana": "ヒロシマケン",
    "prefecture_code": 34,
    "city": "福山市",
    "city_kana": "フクヤマシ",
    "town": "駅家町倉光",
    "town_kana": "エキヤチョウクラミツ",
    "street": null,
    "office_name": null,
    "office_name_kana": null
  },
  "1133": {
    "postcode": "7201133",
    "prefecture": "広島県",
    "prefecture_kana": "ヒロシマケン",
    "prefecture_code": 34,
    "city": "福山市",
    "city_kana": "フクヤマシ",
    "town": "駅家町近田",
    "town_kana": "エキヤチョウチカタ",
    "street": null,
    "office_name": null,
    "office_name_kana": null
  },
  "1134": {
    "postcode": "7201134",
    "prefecture": "広島県",
    "prefecture_kana": "ヒロシマケン",
    "prefecture_code": 34,
    "city": "福山市",
    "city_kana": "フクヤマシ",
    "town": "駅家町中島",
    "town_kana": "エキヤチョウナカシマ",
    "street": null,
    "office_name": null,
    "office_name_kana": null
  },
  "1135": {
    "postcode": "7201135",
    "prefecture": "広島県",
    "prefecture_kana": "ヒロシマケン",
    "prefecture_code": 34,
    "city": "福山市",
    "city_kana": "フクヤマシ",
    "town": "駅家町弥生ケ丘",
    "town_kana": "エキヤチョウヤヨイガオカ",
    "street": null,
    "office_name": null,
    "office_name_kana": null
  },
  "1141": {
    "postcode": "7201141",
    "prefecture": "広島県",
    "prefecture_kana": "ヒロシマケン",
    "prefecture_code": 34,
    "city": "福山市",
    "city_kana": "フクヤマシ",
    "town": "駅家町江良",
    "town_kana": "エキヤチョウエラ",
    "street": null,
    "office_name": null,
    "office_name_kana": null
  },
  "1142": {
    "postcode": "7201142",
    "prefecture": "広島県",
    "prefecture_kana": "ヒロシマケン",
    "prefecture_code": 34,
    "city": "福山市",
    "city_kana": "フクヤマシ",
    "town": "駅家町上山守",
    "town_kana": "エキヤチョウカミヤマモリ",
    "street": null,
    "office_name": null,
    "office_name_kana": null
  },
  "1143": {
    "postcode": "7201143",
    "prefecture": "広島県",
    "prefecture_kana": "ヒロシマケン",
    "prefecture_code": 34,
    "city": "福山市",
    "city_kana": "フクヤマシ",
    "town": "駅家町下山守",
    "town_kana": "エキヤチョウシモヤマモリ",
    "street": null,
    "office_name": null,
    "office_name_kana": null
  },
  "1144": {
    "postcode": "7201144",
    "prefecture": "広島県",
    "prefecture_kana": "ヒロシマケン",
    "prefecture_code": 34,
    "city": "福山市",
    "city_kana": "フクヤマシ",
    "town": "駅家町坊寺",
    "town_kana": "エキヤチョウボウジ",
    "street": null,
    "office_name": null,
    "office_name_kana": null
  },
  "1145": {
    "postcode": "7201145",
    "prefecture": "広島県",
    "prefecture_kana": "ヒロシマケン",
    "prefecture_code": 34,
    "city": "福山市",
    "city_kana": "フクヤマシ",
    "town": "駅家町今岡",
    "town_kana": "エキヤチョウイマオカ",
    "street": null,
    "office_name": null,
    "office_name_kana": null
  },
  "1146": {
    "postcode": "7201146",
    "prefecture": "広島県",
    "prefecture_kana": "ヒロシマケン",
    "prefecture_code": 34,
    "city": "福山市",
    "city_kana": "フクヤマシ",
    "town": "駅家町大橋",
    "town_kana": "エキヤチョウオオハシ",
    "street": null,
    "office_name": null,
    "office_name_kana": null
  },
  "1147": {
    "postcode": "7201147",
    "prefecture": "広島県",
    "prefecture_kana": "ヒロシマケン",
    "prefecture_code": 34,
    "city": "福山市",
    "city_kana": "フクヤマシ",
    "town": "駅家町向永谷",
    "town_kana": "エキヤチョウムカイナガタニ",
    "street": null,
    "office_name": null,
    "office_name_kana": null
  },
  "1261": {
    "postcode": "7201261",
    "prefecture": "広島県",
    "prefecture_kana": "ヒロシマケン",
    "prefecture_code": 34,
    "city": "福山市",
    "city_kana": "フクヤマシ",
    "town": "芦田町上有地",
    "town_kana": "アシダチョウカミアルジ",
    "street": null,
    "office_name": null,
    "office_name_kana": null
  },
  "1262": {
    "postcode": "7201262",
    "prefecture": "広島県",
    "prefecture_kana": "ヒロシマケン",
    "prefecture_code": 34,
    "city": "福山市",
    "city_kana": "フクヤマシ",
    "town": "芦田町下有地",
    "town_kana": "アシダチョウシモアルジ",
    "street": null,
    "office_name": null,
    "office_name_kana": null
  },
  "1263": {
    "postcode": "7201263",
    "prefecture": "広島県",
    "prefecture_kana": "ヒロシマケン",
    "prefecture_code": 34,
    "city": "福山市",
    "city_kana": "フクヤマシ",
    "town": "芦田町柞磨",
    "town_kana": "アシダチョウタルマ",
    "street": null,
    "office_name": null,
    "office_name_kana": null
  },
  "1264": {
    "postcode": "7201264",
    "prefecture": "広島県",
    "prefecture_kana": "ヒロシマケン",
    "prefecture_code": 34,
    "city": "福山市",
    "city_kana": "フクヤマシ",
    "town": "芦田町福田",
    "town_kana": "アシダチョウフクダ",
    "street": null,
    "office_name": null,
    "office_name_kana": null
  },
  "1265": {
    "postcode": "7201265",
    "prefecture": "広島県",
    "prefecture_kana": "ヒロシマケン",
    "prefecture_code": 34,
    "city": "福山市",
    "city_kana": "フクヤマシ",
    "town": "芦田町向陽台",
    "town_kana": "アシダチョウコウヨウダイ",
    "street": null,
    "office_name": null,
    "office_name_kana": null
  },
  "1410": {
    "postcode": "7201410",
    "prefecture": "広島県",
    "prefecture_kana": "ヒロシマケン",
    "prefecture_code": 34,
    "city": "神石郡神石高原町",
    "city_kana": "ジンセキグンジンセキコウゲンチョウ",
    "town": "高蓋",
    "town_kana": "タカフタ",
    "street": null,
    "office_name": null,
    "office_name_kana": null
  },
  "1411": {
    "postcode": "7201411",
    "prefecture": "広島県",
    "prefecture_kana": "ヒロシマケン",
    "prefecture_code": 34,
    "city": "神石郡神石高原町",
    "city_kana": "ジンセキグンジンセキコウゲンチョウ",
    "town": "光信",
    "town_kana": "ミツノブ",
    "street": null,
    "office_name": null,
    "office_name_kana": null
  },
  "1412": {
    "postcode": "7201412",
    "prefecture": "広島県",
    "prefecture_kana": "ヒロシマケン",
    "prefecture_code": 34,
    "city": "神石郡神石高原町",
    "city_kana": "ジンセキグンジンセキコウゲンチョウ",
    "town": "光末",
    "town_kana": "ミツスエ",
    "street": null,
    "office_name": null,
    "office_name_kana": null
  },
  "1413": {
    "postcode": "7201413",
    "prefecture": "広島県",
    "prefecture_kana": "ヒロシマケン",
    "prefecture_code": 34,
    "city": "神石郡神石高原町",
    "city_kana": "ジンセキグンジンセキコウゲンチョウ",
    "town": "父木野",
    "town_kana": "チチキノ",
    "street": null,
    "office_name": null,
    "office_name_kana": null
  },
  "1414": {
    "postcode": "7201414",
    "prefecture": "広島県",
    "prefecture_kana": "ヒロシマケン",
    "prefecture_code": 34,
    "city": "神石郡神石高原町",
    "city_kana": "ジンセキグンジンセキコウゲンチョウ",
    "town": "桑木",
    "town_kana": "クワギ",
    "street": null,
    "office_name": null,
    "office_name_kana": null
  },
  "1415": {
    "postcode": "7201415",
    "prefecture": "広島県",
    "prefecture_kana": "ヒロシマケン",
    "prefecture_code": 34,
    "city": "神石郡神石高原町",
    "city_kana": "ジンセキグンジンセキコウゲンチョウ",
    "town": "階見",
    "town_kana": "シナミ",
    "street": null,
    "office_name": null,
    "office_name_kana": null
  },
  "1416": {
    "postcode": "7201416",
    "prefecture": "広島県",
    "prefecture_kana": "ヒロシマケン",
    "prefecture_code": 34,
    "city": "神石郡神石高原町",
    "city_kana": "ジンセキグンジンセキコウゲンチョウ",
    "town": "木津和",
    "town_kana": "キツワ",
    "street": null,
    "office_name": null,
    "office_name_kana": null
  },
  "1521": {
    "postcode": "7201521",
    "prefecture": "広島県",
    "prefecture_kana": "ヒロシマケン",
    "prefecture_code": 34,
    "city": "神石郡神石高原町",
    "city_kana": "ジンセキグンジンセキコウゲンチョウ",
    "town": "阿下",
    "town_kana": "アゲ",
    "street": null,
    "office_name": null,
    "office_name_kana": null
  },
  "1522": {
    "postcode": "7201522",
    "prefecture": "広島県",
    "prefecture_kana": "ヒロシマケン",
    "prefecture_code": 34,
    "city": "神石郡神石高原町",
    "city_kana": "ジンセキグンジンセキコウゲンチョウ",
    "town": "小畠",
    "town_kana": "コバタケ",
    "street": null,
    "office_name": null,
    "office_name_kana": null
  },
  "1523": {
    "postcode": "7201523",
    "prefecture": "広島県",
    "prefecture_kana": "ヒロシマケン",
    "prefecture_code": 34,
    "city": "神石郡神石高原町",
    "city_kana": "ジンセキグンジンセキコウゲンチョウ",
    "town": "亀石",
    "town_kana": "カメイシ",
    "street": null,
    "office_name": null,
    "office_name_kana": null
  },
  "1524": {
    "postcode": "7201524",
    "prefecture": "広島県",
    "prefecture_kana": "ヒロシマケン",
    "prefecture_code": 34,
    "city": "神石郡神石高原町",
    "city_kana": "ジンセキグンジンセキコウゲンチョウ",
    "town": "常光",
    "town_kana": "ツネミツ",
    "street": null,
    "office_name": null,
    "office_name_kana": null
  },
  "1525": {
    "postcode": "7201525",
    "prefecture": "広島県",
    "prefecture_kana": "ヒロシマケン",
    "prefecture_code": 34,
    "city": "神石郡神石高原町",
    "city_kana": "ジンセキグンジンセキコウゲンチョウ",
    "town": "上",
    "town_kana": "カミ",
    "street": null,
    "office_name": null,
    "office_name_kana": null
  },
  "1601": {
    "postcode": "7201601",
    "prefecture": "広島県",
    "prefecture_kana": "ヒロシマケン",
    "prefecture_code": 34,
    "city": "神石郡神石高原町",
    "city_kana": "ジンセキグンジンセキコウゲンチョウ",
    "town": "大矢",
    "town_kana": "オオヤ",
    "street": null,
    "office_name": null,
    "office_name_kana": null
  },
  "1602": {
    "postcode": "7201602",
    "prefecture": "広島県",
    "prefecture_kana": "ヒロシマケン",
    "prefecture_code": 34,
    "city": "神石郡神石高原町",
    "city_kana": "ジンセキグンジンセキコウゲンチョウ",
    "town": "井関",
    "town_kana": "イセキ",
    "street": null,
    "office_name": null,
    "office_name_kana": null
  },
  "1603": {
    "postcode": "7201603",
    "prefecture": "広島県",
    "prefecture_kana": "ヒロシマケン",
    "prefecture_code": 34,
    "city": "神石郡神石高原町",
    "city_kana": "ジンセキグンジンセキコウゲンチョウ",
    "town": "時安",
    "town_kana": "トキヤス",
    "street": null,
    "office_name": null,
    "office_name_kana": null
  },
  "1604": {
    "postcode": "7201604",
    "prefecture": "広島県",
    "prefecture_kana": "ヒロシマケン",
    "prefecture_code": 34,
    "city": "神石郡神石高原町",
    "city_kana": "ジンセキグンジンセキコウゲンチョウ",
    "town": "坂瀬川",
    "town_kana": "サカセガワ",
    "street": null,
    "office_name": null,
    "office_name_kana": null
  },
  "1621": {
    "postcode": "7201621",
    "prefecture": "広島県",
    "prefecture_kana": "ヒロシマケン",
    "prefecture_code": 34,
    "city": "神石郡神石高原町",
    "city_kana": "ジンセキグンジンセキコウゲンチョウ",
    "town": "李",
    "town_kana": "スモモ",
    "street": null,
    "office_name": null,
    "office_name_kana": null
  },
  "1622": {
    "postcode": "7201622",
    "prefecture": "広島県",
    "prefecture_kana": "ヒロシマケン",
    "prefecture_code": 34,
    "city": "神石郡神石高原町",
    "city_kana": "ジンセキグンジンセキコウゲンチョウ",
    "town": "近田",
    "town_kana": "チカダ",
    "street": null,
    "office_name": null,
    "office_name_kana": null
  },
  "1623": {
    "postcode": "7201623",
    "prefecture": "広島県",
    "prefecture_kana": "ヒロシマケン",
    "prefecture_code": 34,
    "city": "神石郡神石高原町",
    "city_kana": "ジンセキグンジンセキコウゲンチョウ",
    "town": "花済",
    "town_kana": "ハナズミ",
    "street": null,
    "office_name": null,
    "office_name_kana": null
  },
  "1624": {
    "postcode": "7201624",
    "prefecture": "広島県",
    "prefecture_kana": "ヒロシマケン",
    "prefecture_code": 34,
    "city": "神石郡神石高原町",
    "city_kana": "ジンセキグンジンセキコウゲンチョウ",
    "town": "上野",
    "town_kana": "ウエノ",
    "street": null,
    "office_name": null,
    "office_name_kana": null
  },
  "1701": {
    "postcode": "7201701",
    "prefecture": "広島県",
    "prefecture_kana": "ヒロシマケン",
    "prefecture_code": 34,
    "city": "神石郡神石高原町",
    "city_kana": "ジンセキグンジンセキコウゲンチョウ",
    "town": "有木",
    "town_kana": "アルギ",
    "street": null,
    "office_name": null,
    "office_name_kana": null
  },
  "1702": {
    "postcode": "7201702",
    "prefecture": "広島県",
    "prefecture_kana": "ヒロシマケン",
    "prefecture_code": 34,
    "city": "神石郡神石高原町",
    "city_kana": "ジンセキグンジンセキコウゲンチョウ",
    "town": "上豊松",
    "town_kana": "カミトヨマツ",
    "street": null,
    "office_name": null,
    "office_name_kana": null
  },
  "1703": {
    "postcode": "7201703",
    "prefecture": "広島県",
    "prefecture_kana": "ヒロシマケン",
    "prefecture_code": 34,
    "city": "神石郡神石高原町",
    "city_kana": "ジンセキグンジンセキコウゲンチョウ",
    "town": "笹尾",
    "town_kana": "ササオ",
    "street": null,
    "office_name": null,
    "office_name_kana": null
  },
  "1704": {
    "postcode": "7201704",
    "prefecture": "広島県",
    "prefecture_kana": "ヒロシマケン",
    "prefecture_code": 34,
    "city": "神石郡神石高原町",
    "city_kana": "ジンセキグンジンセキコウゲンチョウ",
    "town": "下豊松",
    "town_kana": "シモトヨマツ",
    "street": null,
    "office_name": null,
    "office_name_kana": null
  },
  "1705": {
    "postcode": "7201705",
    "prefecture": "広島県",
    "prefecture_kana": "ヒロシマケン",
    "prefecture_code": 34,
    "city": "神石郡神石高原町",
    "city_kana": "ジンセキグンジンセキコウゲンチョウ",
    "town": "中平",
    "town_kana": "ナカダイラ",
    "street": null,
    "office_name": null,
    "office_name_kana": null
  },
  "1800": {
    "postcode": "7201800",
    "prefecture": "広島県",
    "prefecture_kana": "ヒロシマケン",
    "prefecture_code": 34,
    "city": "神石郡神石高原町",
    "city_kana": "ジンセキグンジンセキコウゲンチョウ",
    "town": "",
    "town_kana": "",
    "street": null,
    "office_name": null,
    "office_name_kana": null
  },
  "1811": {
    "postcode": "7201811",
    "prefecture": "広島県",
    "prefecture_kana": "ヒロシマケン",
    "prefecture_code": 34,
    "city": "神石郡神石高原町",
    "city_kana": "ジンセキグンジンセキコウゲンチョウ",
    "town": "安田",
    "town_kana": "ヤスダ",
    "street": null,
    "office_name": null,
    "office_name_kana": null
  },
  "1812": {
    "postcode": "7201812",
    "prefecture": "広島県",
    "prefecture_kana": "ヒロシマケン",
    "prefecture_code": 34,
    "city": "神石郡神石高原町",
    "city_kana": "ジンセキグンジンセキコウゲンチョウ",
    "town": "油木",
    "town_kana": "ユキ",
    "street": null,
    "office_name": null,
    "office_name_kana": null
  },
  "1901": {
    "postcode": "7201901",
    "prefecture": "広島県",
    "prefecture_kana": "ヒロシマケン",
    "prefecture_code": 34,
    "city": "神石郡神石高原町",
    "city_kana": "ジンセキグンジンセキコウゲンチョウ",
    "town": "小野",
    "town_kana": "オノ",
    "street": null,
    "office_name": null,
    "office_name_kana": null
  },
  "1902": {
    "postcode": "7201902",
    "prefecture": "広島県",
    "prefecture_kana": "ヒロシマケン",
    "prefecture_code": 34,
    "city": "神石郡神石高原町",
    "city_kana": "ジンセキグンジンセキコウゲンチョウ",
    "town": "新免",
    "town_kana": "シンメン",
    "street": null,
    "office_name": null,
    "office_name_kana": null
  },
  "2101": {
    "postcode": "7202101",
    "prefecture": "広島県",
    "prefecture_kana": "ヒロシマケン",
    "prefecture_code": 34,
    "city": "福山市",
    "city_kana": "フクヤマシ",
    "town": "神辺町三谷",
    "town_kana": "カンナベチョウミタニ",
    "street": null,
    "office_name": null,
    "office_name_kana": null
  },
  "2102": {
    "postcode": "7202102",
    "prefecture": "広島県",
    "prefecture_kana": "ヒロシマケン",
    "prefecture_code": 34,
    "city": "福山市",
    "city_kana": "フクヤマシ",
    "town": "神辺町東中条",
    "town_kana": "カンナベチョウヒガシチュウジョウ",
    "street": null,
    "office_name": null,
    "office_name_kana": null
  },
  "2103": {
    "postcode": "7202103",
    "prefecture": "広島県",
    "prefecture_kana": "ヒロシマケン",
    "prefecture_code": 34,
    "city": "福山市",
    "city_kana": "フクヤマシ",
    "town": "神辺町西中条",
    "town_kana": "カンナベチョウニシチュウジョウ",
    "street": null,
    "office_name": null,
    "office_name_kana": null
  },
  "2104": {
    "postcode": "7202104",
    "prefecture": "広島県",
    "prefecture_kana": "ヒロシマケン",
    "prefecture_code": 34,
    "city": "福山市",
    "city_kana": "フクヤマシ",
    "town": "神辺町道上",
    "town_kana": "カンナベチョウミチノウエ",
    "street": null,
    "office_name": null,
    "office_name_kana": null
  },
  "2105": {
    "postcode": "7202105",
    "prefecture": "広島県",
    "prefecture_kana": "ヒロシマケン",
    "prefecture_code": 34,
    "city": "福山市",
    "city_kana": "フクヤマシ",
    "town": "神辺町十三軒屋",
    "town_kana": "カンナベチョウジュウサンゲンヤ",
    "street": null,
    "office_name": null,
    "office_name_kana": null
  },
  "2106": {
    "postcode": "7202106",
    "prefecture": "広島県",
    "prefecture_kana": "ヒロシマケン",
    "prefecture_code": 34,
    "city": "福山市",
    "city_kana": "フクヤマシ",
    "town": "神辺町十九軒屋",
    "town_kana": "カンナベチョウジュウクケンヤ",
    "street": null,
    "office_name": null,
    "office_name_kana": null
  },
  "2107": {
    "postcode": "7202107",
    "prefecture": "広島県",
    "prefecture_kana": "ヒロシマケン",
    "prefecture_code": 34,
    "city": "福山市",
    "city_kana": "フクヤマシ",
    "town": "神辺町新道上",
    "town_kana": "カンナベチョウシンミチノウエ",
    "street": null,
    "office_name": null,
    "office_name_kana": null
  },
  "2108": {
    "postcode": "7202108",
    "prefecture": "広島県",
    "prefecture_kana": "ヒロシマケン",
    "prefecture_code": 34,
    "city": "福山市",
    "city_kana": "フクヤマシ",
    "town": "神辺町新十九",
    "town_kana": "カンナベチョウシンジュウク",
    "street": null,
    "office_name": null,
    "office_name_kana": null
  },
  "2111": {
    "postcode": "7202111",
    "prefecture": "広島県",
    "prefecture_kana": "ヒロシマケン",
    "prefecture_code": 34,
    "city": "福山市",
    "city_kana": "フクヤマシ",
    "town": "神辺町上御領",
    "town_kana": "カンナベチョウカミゴリョウ",
    "street": null,
    "office_name": null,
    "office_name_kana": null
  },
  "2112": {
    "postcode": "7202112",
    "prefecture": "広島県",
    "prefecture_kana": "ヒロシマケン",
    "prefecture_code": 34,
    "city": "福山市",
    "city_kana": "フクヤマシ",
    "town": "神辺町八尋",
    "town_kana": "カンナベチョウヤヒロ",
    "street": null,
    "office_name": null,
    "office_name_kana": null
  },
  "2113": {
    "postcode": "7202113",
    "prefecture": "広島県",
    "prefecture_kana": "ヒロシマケン",
    "prefecture_code": 34,
    "city": "福山市",
    "city_kana": "フクヤマシ",
    "town": "神辺町旭丘",
    "town_kana": "カンナベチョウアサヒオカ",
    "street": null,
    "office_name": null,
    "office_name_kana": null
  },
  "2114": {
    "postcode": "7202114",
    "prefecture": "広島県",
    "prefecture_kana": "ヒロシマケン",
    "prefecture_code": 34,
    "city": "福山市",
    "city_kana": "フクヤマシ",
    "town": "神辺町上竹田",
    "town_kana": "カンナベチョウカミタケダ",
    "street": null,
    "office_name": null,
    "office_name_kana": null
  },
  "2115": {
    "postcode": "7202115",
    "prefecture": "広島県",
    "prefecture_kana": "ヒロシマケン",
    "prefecture_code": 34,
    "city": "福山市",
    "city_kana": "フクヤマシ",
    "town": "神辺町下竹田",
    "town_kana": "カンナベチョウシモタケダ",
    "street": null,
    "office_name": null,
    "office_name_kana": null
  },
  "2116": {
    "postcode": "7202116",
    "prefecture": "広島県",
    "prefecture_kana": "ヒロシマケン",
    "prefecture_code": 34,
    "city": "福山市",
    "city_kana": "フクヤマシ",
    "town": "神辺町平野",
    "town_kana": "カンナベチョウヒラノ",
    "street": null,
    "office_name": null,
    "office_name_kana": null
  },
  "2117": {
    "postcode": "7202117",
    "prefecture": "広島県",
    "prefecture_kana": "ヒロシマケン",
    "prefecture_code": 34,
    "city": "福山市",
    "city_kana": "フクヤマシ",
    "town": "神辺町下御領",
    "town_kana": "カンナベチョウシモゴリョウ",
    "street": null,
    "office_name": null,
    "office_name_kana": null
  },
  "2121": {
    "postcode": "7202121",
    "prefecture": "広島県",
    "prefecture_kana": "ヒロシマケン",
    "prefecture_code": 34,
    "city": "福山市",
    "city_kana": "フクヤマシ",
    "town": "神辺町湯野",
    "town_kana": "カンナベチョウユノ",
    "street": null,
    "office_name": null,
    "office_name_kana": null
  },
  "2122": {
    "postcode": "7202122",
    "prefecture": "広島県",
    "prefecture_kana": "ヒロシマケン",
    "prefecture_code": 34,
    "city": "福山市",
    "city_kana": "フクヤマシ",
    "town": "神辺町新湯野",
    "town_kana": "カンナベチョウシンユノ",
    "street": null,
    "office_name": null,
    "office_name_kana": null
  },
  "2123": {
    "postcode": "7202123",
    "prefecture": "広島県",
    "prefecture_kana": "ヒロシマケン",
    "prefecture_code": 34,
    "city": "福山市",
    "city_kana": "フクヤマシ",
    "town": "神辺町川北",
    "town_kana": "カンナベチョウカワキタ",
    "street": null,
    "office_name": null,
    "office_name_kana": null
  },
  "2124": {
    "postcode": "7202124",
    "prefecture": "広島県",
    "prefecture_kana": "ヒロシマケン",
    "prefecture_code": 34,
    "city": "福山市",
    "city_kana": "フクヤマシ",
    "town": "神辺町川南",
    "town_kana": "カンナベチョウカワミナミ",
    "street": null,
    "office_name": null,
    "office_name_kana": null
  },
  "2125": {
    "postcode": "7202125",
    "prefecture": "広島県",
    "prefecture_kana": "ヒロシマケン",
    "prefecture_code": 34,
    "city": "福山市",
    "city_kana": "フクヤマシ",
    "town": "神辺町新徳田",
    "town_kana": "カンナベチョウシントクダ",
    "street": null,
    "office_name": null,
    "office_name_kana": null
  },
  "2126": {
    "postcode": "7202126",
    "prefecture": "広島県",
    "prefecture_kana": "ヒロシマケン",
    "prefecture_code": 34,
    "city": "福山市",
    "city_kana": "フクヤマシ",
    "town": "神辺町徳田",
    "town_kana": "カンナベチョウトクダ",
    "street": null,
    "office_name": null,
    "office_name_kana": null
  },
  "2127": {
    "postcode": "7202127",
    "prefecture": "広島県",
    "prefecture_kana": "ヒロシマケン",
    "prefecture_code": 34,
    "city": "福山市",
    "city_kana": "フクヤマシ",
    "town": "神辺町箱田",
    "town_kana": "カンナベチョウハコダ",
    "street": null,
    "office_name": null,
    "office_name_kana": null
  },
  "2192": {
    "postcode": "7202192",
    "prefecture": "広島県",
    "prefecture_kana": "ヒロシマケン",
    "prefecture_code": 34,
    "city": "福山市",
    "city_kana": "フクヤマシ",
    "town": "神辺町大字川南",
    "town_kana": null,
    "street": "７４１−１（神辺郵便局私書箱第２号）",
    "office_name": "株式会社　サンエス",
    "office_name_kana": "カブシキガイシヤ サンエス"
  },
  "2195": {
    "postcode": "7202195",
    "prefecture": "広島県",
    "prefecture_kana": "ヒロシマケン",
    "prefecture_code": 34,
    "city": "福山市",
    "city_kana": "フクヤマシ",
    "town": "神辺町大字川北",
    "town_kana": null,
    "street": "８９５−１",
    "office_name": "福山市役所　神辺支所",
    "office_name_kana": "フクヤマシヤクシヨ カンナベシシヨ"
  },
  "2410": {
    "postcode": "7202410",
    "prefecture": "広島県",
    "prefecture_kana": "ヒロシマケン",
    "prefecture_code": 34,
    "city": "福山市",
    "city_kana": "フクヤマシ",
    "town": "加茂町八軒屋",
    "town_kana": "カモチョウハチケンヤ",
    "street": null,
    "office_name": null,
    "office_name_kana": null
  },
  "2411": {
    "postcode": "7202411",
    "prefecture": "広島県",
    "prefecture_kana": "ヒロシマケン",
    "prefecture_code": 34,
    "city": "福山市",
    "city_kana": "フクヤマシ",
    "town": "北匠町",
    "town_kana": "ホクショウチョウ",
    "street": null,
    "office_name": null,
    "office_name_kana": null
  },
  "2412": {
    "postcode": "7202412",
    "prefecture": "広島県",
    "prefecture_kana": "ヒロシマケン",
    "prefecture_code": 34,
    "city": "福山市",
    "city_kana": "フクヤマシ",
    "town": "加茂町下加茂",
    "town_kana": "カモチョウシモガモ",
    "street": null,
    "office_name": null,
    "office_name_kana": null
  },
  "2413": {
    "postcode": "7202413",
    "prefecture": "広島県",
    "prefecture_kana": "ヒロシマケン",
    "prefecture_code": 34,
    "city": "福山市",
    "city_kana": "フクヤマシ",
    "town": "駅家町法成寺",
    "town_kana": "エキヤチョウホウジョウジ",
    "street": null,
    "office_name": null,
    "office_name_kana": null
  },
  "2414": {
    "postcode": "7202414",
    "prefecture": "広島県",
    "prefecture_kana": "ヒロシマケン",
    "prefecture_code": 34,
    "city": "福山市",
    "city_kana": "フクヤマシ",
    "town": "加茂町百谷",
    "town_kana": "カモチョウモモダニ",
    "street": null,
    "office_name": null,
    "office_name_kana": null
  },
  "2415": {
    "postcode": "7202415",
    "prefecture": "広島県",
    "prefecture_kana": "ヒロシマケン",
    "prefecture_code": 34,
    "city": "福山市",
    "city_kana": "フクヤマシ",
    "town": "加茂町北山",
    "town_kana": "カモチョウキタヤマ",
    "street": null,
    "office_name": null,
    "office_name_kana": null
  },
  "2416": {
    "postcode": "7202416",
    "prefecture": "広島県",
    "prefecture_kana": "ヒロシマケン",
    "prefecture_code": 34,
    "city": "福山市",
    "city_kana": "フクヤマシ",
    "town": "加茂町粟根",
    "town_kana": "カモチョウアワネ",
    "street": null,
    "office_name": null,
    "office_name_kana": null
  },
  "2417": {
    "postcode": "7202417",
    "prefecture": "広島県",
    "prefecture_kana": "ヒロシマケン",
    "prefecture_code": 34,
    "city": "福山市",
    "city_kana": "フクヤマシ",
    "town": "加茂町芦原",
    "town_kana": "カモチョウアシワラ",
    "street": null,
    "office_name": null,
    "office_name_kana": null
  },
  "2418": {
    "postcode": "7202418",
    "prefecture": "広島県",
    "prefecture_kana": "ヒロシマケン",
    "prefecture_code": 34,
    "city": "福山市",
    "city_kana": "フクヤマシ",
    "town": "加茂町中野",
    "town_kana": "カモチョウナカノ",
    "street": null,
    "office_name": null,
    "office_name_kana": null
  },
  "2419": {
    "postcode": "7202419",
    "prefecture": "広島県",
    "prefecture_kana": "ヒロシマケン",
    "prefecture_code": 34,
    "city": "福山市",
    "city_kana": "フクヤマシ",
    "town": "加茂町上加茂",
    "town_kana": "カモチョウカミガモ",
    "street": null,
    "office_name": null,
    "office_name_kana": null
  },
  "2521": {
    "postcode": "7202521",
    "prefecture": "広島県",
    "prefecture_kana": "ヒロシマケン",
    "prefecture_code": 34,
    "city": "福山市",
    "city_kana": "フクヤマシ",
    "town": "駅家町服部本郷",
    "town_kana": "エキヤチョウハットリホンゴウ",
    "street": null,
    "office_name": null,
    "office_name_kana": null
  },
  "2522": {
    "postcode": "7202522",
    "prefecture": "広島県",
    "prefecture_kana": "ヒロシマケン",
    "prefecture_code": 34,
    "city": "福山市",
    "city_kana": "フクヤマシ",
    "town": "駅家町服部永谷",
    "town_kana": "エキヤチョウハットリナガタニ",
    "street": null,
    "office_name": null,
    "office_name_kana": null
  },
  "2523": {
    "postcode": "7202523",
    "prefecture": "広島県",
    "prefecture_kana": "ヒロシマケン",
    "prefecture_code": 34,
    "city": "福山市",
    "city_kana": "フクヤマシ",
    "town": "駅家町新山",
    "town_kana": "エキヤチョウニイヤマ",
    "street": null,
    "office_name": null,
    "office_name_kana": null
  },
  "2524": {
    "postcode": "7202524",
    "prefecture": "広島県",
    "prefecture_kana": "ヒロシマケン",
    "prefecture_code": 34,
    "city": "福山市",
    "city_kana": "フクヤマシ",
    "town": "駅家町助元",
    "town_kana": "エキヤチョウスケモト",
    "street": null,
    "office_name": null,
    "office_name_kana": null
  },
  "2525": {
    "postcode": "7202525",
    "prefecture": "広島県",
    "prefecture_kana": "ヒロシマケン",
    "prefecture_code": 34,
    "city": "福山市",
    "city_kana": "フクヤマシ",
    "town": "駅家町雨木",
    "town_kana": "エキヤチョウアメギ",
    "street": null,
    "office_name": null,
    "office_name_kana": null
  },
  "2601": {
    "postcode": "7202601",
    "prefecture": "広島県",
    "prefecture_kana": "ヒロシマケン",
    "prefecture_code": 34,
    "city": "福山市",
    "city_kana": "フクヤマシ",
    "town": "山野町矢川",
    "town_kana": "ヤマノチョウヤカワ",
    "street": null,
    "office_name": null,
    "office_name_kana": null
  },
  "2602": {
    "postcode": "7202602",
    "prefecture": "広島県",
    "prefecture_kana": "ヒロシマケン",
    "prefecture_code": 34,
    "city": "福山市",
    "city_kana": "フクヤマシ",
    "town": "山野町山野",
    "town_kana": "ヤマノチョウヤマノ",
    "street": null,
    "office_name": null,
    "office_name_kana": null
  },
  "8501": {
    "postcode": "7208501",
    "prefecture": "広島県",
    "prefecture_kana": "ヒロシマケン",
    "prefecture_code": 34,
    "city": "福山市",
    "city_kana": "フクヤマシ",
    "town": "東桜町",
    "town_kana": "ヒガシサクラマチ",
    "street": "３−５",
    "office_name": "福山市役所",
    "office_name_kana": "フクヤマシヤクシヨ"
  },
  "8502": {
    "postcode": "7208502",
    "prefecture": "広島県",
    "prefecture_kana": "ヒロシマケン",
    "prefecture_code": 34,
    "city": "福山市",
    "city_kana": "フクヤマシ",
    "town": "明王台",
    "town_kana": "ミョウオウダイ",
    "street": "二丁目４番１号",
    "office_name": "広島県立福山明王台高等学校",
    "office_name_kana": "ヒロシマケンリツフクヤマミヨウオウダイコウトウガツコウ"
  },
  "8503": {
    "postcode": "7208503",
    "prefecture": "広島県",
    "prefecture_kana": "ヒロシマケン",
    "prefecture_code": 34,
    "city": "福山市",
    "city_kana": "フクヤマシ",
    "town": "旭町",
    "town_kana": "アサヒマチ",
    "street": "１−７",
    "office_name": "福山労働基準監督署",
    "office_name_kana": "フクヤマロウドウキジユンカントクシヨ"
  },
  "8504": {
    "postcode": "7208504",
    "prefecture": "広島県",
    "prefecture_kana": "ヒロシマケン",
    "prefecture_code": 34,
    "city": "福山市",
    "city_kana": "フクヤマシ",
    "town": "千田町千田",
    "town_kana": "センダチョウセンダ",
    "street": "４８７−４",
    "office_name": "盈進学園",
    "office_name_kana": "エイシンガクエン"
  },
  "8507": {
    "postcode": "7208507",
    "prefecture": "広島県",
    "prefecture_kana": "ヒロシマケン",
    "prefecture_code": 34,
    "city": "福山市",
    "city_kana": "フクヤマシ",
    "town": "神島町",
    "town_kana": "カシマチョウ",
    "street": "１０−１８",
    "office_name": "富士建設　株式会社",
    "office_name_kana": "フジケンセツ カブシキガイシヤ"
  },
  "8508": {
    "postcode": "7208508",
    "prefecture": "広島県",
    "prefecture_kana": "ヒロシマケン",
    "prefecture_code": 34,
    "city": "福山市",
    "city_kana": "フクヤマシ",
    "town": "丸之内",
    "town_kana": "マルノウチ",
    "street": "１丁目４−１",
    "office_name": "株式会社　鈴木工務店",
    "office_name_kana": "カブシキガイシヤ スズキコウムテン"
  },
  "8509": {
    "postcode": "7208509",
    "prefecture": "広島県",
    "prefecture_kana": "ヒロシマケン",
    "prefecture_code": 34,
    "city": "福山市",
    "city_kana": "フクヤマシ",
    "town": "西町",
    "town_kana": "ニシマチ",
    "street": "１丁目１３−１８",
    "office_name": "広島県トラック協会　福山支部",
    "office_name_kana": "ヒロシマケントラツクキヨウカイ フクヤマシブ"
  },
  "8510": {
    "postcode": "7208510",
    "prefecture": "広島県",
    "prefecture_kana": "ヒロシマケン",
    "prefecture_code": 34,
    "city": "福山市",
    "city_kana": "フクヤマシ",
    "town": "草戸町",
    "town_kana": "クサドチョウ",
    "street": "１丁目２３−２１",
    "office_name": "株式会社　福山臨床検査センター",
    "office_name_kana": "カブシキガイシヤ フクヤマリンシヨウケンサセンタ-"
  },
  "8511": [
    {
      "postcode": "7208511",
      "prefecture": "広島県",
      "prefecture_kana": "ヒロシマケン",
      "prefecture_code": 34,
      "city": "福山市",
      "city_kana": "フクヤマシ",
      "town": "三吉町",
      "town_kana": "ミヨシチョウ",
      "street": "１丁目１番１号",
      "office_name": "広島県　東部建設事務所",
      "office_name_kana": "ヒロシマケン トウブケンセツジムシヨ"
    },
    {
      "postcode": "7208511",
      "prefecture": "広島県",
      "prefecture_kana": "ヒロシマケン",
      "prefecture_code": 34,
      "city": "福山市",
      "city_kana": "フクヤマシ",
      "town": "三吉町",
      "town_kana": "ミヨシチョウ",
      "street": "１丁目１番１号",
      "office_name": "広島県　東部県税事務所",
      "office_name_kana": "ヒロシマケン トウブケンゼイジムシヨ"
    },
    {
      "postcode": "7208511",
      "prefecture": "広島県",
      "prefecture_kana": "ヒロシマケン",
      "prefecture_code": 34,
      "city": "福山市",
      "city_kana": "フクヤマシ",
      "town": "三吉町",
      "town_kana": "ミヨシチョウ",
      "street": "１丁目１番１号",
      "office_name": "広島県　東部厚生環境事務所　福山支所",
      "office_name_kana": "ヒロシマケン トウブコウセイカンキヨウジムシヨ フクヤマシシヨ"
    },
    {
      "postcode": "7208511",
      "prefecture": "広島県",
      "prefecture_kana": "ヒロシマケン",
      "prefecture_code": 34,
      "city": "福山市",
      "city_kana": "フクヤマシ",
      "town": "三吉町",
      "town_kana": "ミヨシチョウ",
      "street": "１丁目１番１号",
      "office_name": "広島県　東部総務事務所",
      "office_name_kana": "ヒロシマケン トウブソウムジムシヨ"
    },
    {
      "postcode": "7208511",
      "prefecture": "広島県",
      "prefecture_kana": "ヒロシマケン",
      "prefecture_code": 34,
      "city": "福山市",
      "city_kana": "フクヤマシ",
      "town": "三吉町",
      "town_kana": "ミヨシチョウ",
      "street": "１丁目１番１号",
      "office_name": "広島県　東部農林水産事務所",
      "office_name_kana": "ヒロシマケン トウブノウリンスイサンジムシヨ"
    }
  ],
  "8512": {
    "postcode": "7208512",
    "prefecture": "広島県",
    "prefecture_kana": "ヒロシマケン",
    "prefecture_code": 34,
    "city": "福山市",
    "city_kana": "フクヤマシ",
    "town": "三吉町南",
    "town_kana": "ミヨシチョウミナミ",
    "street": "２丁目１１−２２",
    "office_name": "福山すこやかセンター",
    "office_name_kana": "フクヤマスコヤカセンタ-"
  },
  "8515": {
    "postcode": "7208515",
    "prefecture": "広島県",
    "prefecture_kana": "ヒロシマケン",
    "prefecture_code": 34,
    "city": "福山市",
    "city_kana": "フクヤマシ",
    "town": "南町",
    "town_kana": "ミナミマチ",
    "street": "７−２７",
    "office_name": "株式会社　栄工社",
    "office_name_kana": "カブシキガイシヤ エイコウシヤ"
  },
  "8517": {
    "postcode": "7208517",
    "prefecture": "広島県",
    "prefecture_kana": "ヒロシマケン",
    "prefecture_code": 34,
    "city": "福山市",
    "city_kana": "フクヤマシ",
    "town": "松浜町",
    "town_kana": "マツハマチョウ",
    "street": "３丁目４−１７",
    "office_name": "株式会社　テラダ",
    "office_name_kana": "カブシキガイシヤ テラダ"
  },
  "8518": {
    "postcode": "7208518",
    "prefecture": "広島県",
    "prefecture_kana": "ヒロシマケン",
    "prefecture_code": 34,
    "city": "福山市",
    "city_kana": "フクヤマシ",
    "town": "東桜町",
    "town_kana": "ヒガシサクラマチ",
    "street": "１−３７",
    "office_name": "ＮＨＫ　広島放送局　福山支局",
    "office_name_kana": "エヌエツチケ- ヒロシマホウソウキヨク フクヤマシキヨク"
  },
  "8520": {
    "postcode": "7208520",
    "prefecture": "広島県",
    "prefecture_kana": "ヒロシマケン",
    "prefecture_code": 34,
    "city": "福山市",
    "city_kana": "フクヤマシ",
    "town": "沖野上町",
    "town_kana": "オキノガミチョウ",
    "street": "４丁目１４−１７",
    "office_name": "独立行政法人　国立病院機構　福山医療センター",
    "office_name_kana": "ドクリツギヨウセイホウジン コクリツビヨウインキコウ フクヤマイリヨウセンタ-"
  },
  "8522": {
    "postcode": "7208522",
    "prefecture": "広島県",
    "prefecture_kana": "ヒロシマケン",
    "prefecture_code": 34,
    "city": "福山市",
    "city_kana": "フクヤマシ",
    "town": "西町",
    "town_kana": "ニシマチ",
    "street": "２丁目８−１５",
    "office_name": "福山ＹＭＣＡ",
    "office_name_kana": "フクヤマワイエムシ-エ-"
  },
  "8524": {
    "postcode": "7208524",
    "prefecture": "広島県",
    "prefecture_kana": "ヒロシマケン",
    "prefecture_code": 34,
    "city": "福山市",
    "city_kana": "フクヤマシ",
    "town": "入船町",
    "town_kana": "イリフネチョウ",
    "street": "３丁目１−６０",
    "office_name": "株式会社　イズミ　ゆめタウン福山",
    "office_name_kana": "カブシキガイシヤ イズミ ユメタウンフクヤマ"
  },
  "8525": {
    "postcode": "7208525",
    "prefecture": "広島県",
    "prefecture_kana": "ヒロシマケン",
    "prefecture_code": 34,
    "city": "福山市",
    "city_kana": "フクヤマシ",
    "town": "千田町大字千田",
    "town_kana": null,
    "street": "１７４１−１",
    "office_name": "タカヤ商事　株式会社",
    "office_name_kana": "タカヤシヨウジ カブシキガイシヤ"
  },
  "8526": {
    "postcode": "7208526",
    "prefecture": "広島県",
    "prefecture_kana": "ヒロシマケン",
    "prefecture_code": 34,
    "city": "福山市",
    "city_kana": "フクヤマシ",
    "town": "古野上町",
    "town_kana": "フルノガミチョウ",
    "street": "１５−２５",
    "office_name": "福山市上下水道局",
    "office_name_kana": "フクヤマシジヨウゲスイドウキヨク"
  },
  "8527": {
    "postcode": "7208527",
    "prefecture": "広島県",
    "prefecture_kana": "ヒロシマケン",
    "prefecture_code": 34,
    "city": "福山市",
    "city_kana": "フクヤマシ",
    "town": "花園町",
    "town_kana": "ハナゾノチョウ",
    "street": "２丁目５−２０",
    "office_name": "藤野商事　株式会社",
    "office_name_kana": "フジノシヨウジ カブシキガイシヤ"
  },
  "8531": {
    "postcode": "7208531",
    "prefecture": "広島県",
    "prefecture_kana": "ヒロシマケン",
    "prefecture_code": 34,
    "city": "福山市",
    "city_kana": "フクヤマシ",
    "town": "三吉町南",
    "town_kana": "ミヨシチョウミナミ",
    "street": "２丁目５−３１",
    "office_name": "福山東警察署",
    "office_name_kana": "フクヤマヒガシケイサツシヨ"
  },
  "8535": {
    "postcode": "7208535",
    "prefecture": "広島県",
    "prefecture_kana": "ヒロシマケン",
    "prefecture_code": 34,
    "city": "福山市",
    "city_kana": "フクヤマシ",
    "town": "三吉町南",
    "town_kana": "ミヨシチョウミナミ",
    "street": "２丁目１３−１７",
    "office_name": "あいおい損害保険　株式会社　福山サービスセンター",
    "office_name_kana": "アイオイソンガイホケン カブシキガイシヤ フクヤマサ-ビスセンタ-"
  },
  "8536": {
    "postcode": "7208536",
    "prefecture": "広島県",
    "prefecture_kana": "ヒロシマケン",
    "prefecture_code": 34,
    "city": "福山市",
    "city_kana": "フクヤマシ",
    "town": "御幸町大字上岩成",
    "town_kana": null,
    "street": "１４８−１３",
    "office_name": "公立学校共済組合　中国中央病院",
    "office_name_kana": "コウリツガツコウキヨウサイクミアイ チユウゴクチユウオウビヨウイン"
  },
  "8555": {
    "postcode": "7208555",
    "prefecture": "広島県",
    "prefecture_kana": "ヒロシマケン",
    "prefecture_code": 34,
    "city": "福山市",
    "city_kana": "フクヤマシ",
    "town": "西町",
    "town_kana": "ニシマチ",
    "street": "２丁目１０−１",
    "office_name": "（株）　エフエムふくやま",
    "office_name_kana": "(カブ) エフエムフクヤマ"
  },
  "8601": {
    "postcode": "7208601",
    "prefecture": "広島県",
    "prefecture_kana": "ヒロシマケン",
    "prefecture_code": 34,
    "city": "福山市",
    "city_kana": "フクヤマシ",
    "town": "霞町",
    "town_kana": "カスミチョウ",
    "street": "２丁目１−２",
    "office_name": "株式会社　ジーベック",
    "office_name_kana": "カブシキガイシヤ ジ-ベツク"
  },
  "8636": {
    "postcode": "7208636",
    "prefecture": "広島県",
    "prefecture_kana": "ヒロシマケン",
    "prefecture_code": 34,
    "city": "福山市",
    "city_kana": "フクヤマシ",
    "town": "元町",
    "town_kana": "モトマチ",
    "street": "１−１（福山郵便局私書箱第４０号）",
    "office_name": "株式会社　天満屋　福山店",
    "office_name_kana": "カブシキガイシヤ テンマヤ フクヤマテン"
  },
  "8637": {
    "postcode": "7208637",
    "prefecture": "広島県",
    "prefecture_kana": "ヒロシマケン",
    "prefecture_code": 34,
    "city": "福山市",
    "city_kana": "フクヤマシ",
    "town": "松浜町",
    "town_kana": "マツハマチョウ",
    "street": "三丁目１番６３号",
    "office_name": "福山ゴム工業　株式会社",
    "office_name_kana": "フクヤマゴムコウギヨウ カブシキガイシヤ"
  },
  "8638": {
    "postcode": "7208638",
    "prefecture": "広島県",
    "prefecture_kana": "ヒロシマケン",
    "prefecture_code": 34,
    "city": "福山市",
    "city_kana": "フクヤマシ",
    "town": "桜馬場町",
    "town_kana": "サクラババチョウ",
    "street": "２−２８（福山郵便局私書箱第２７号）",
    "office_name": "池田糖化工業　株式会社",
    "office_name_kana": "イケダトウカコウギヨウ カブシキガイシヤ"
  },
  "8640": {
    "postcode": "7208640",
    "prefecture": "広島県",
    "prefecture_kana": "ヒロシマケン",
    "prefecture_code": 34,
    "city": "福山市",
    "city_kana": "フクヤマシ",
    "town": "松浜町",
    "town_kana": "マツハマチョウ",
    "street": "３丁目１−１（福山郵便局私書箱第７号）",
    "office_name": "早川ゴム　株式会社",
    "office_name_kana": "ハヤカワゴム カブシキガイシヤ"
  },
  "8641": {
    "postcode": "7208641",
    "prefecture": "広島県",
    "prefecture_kana": "ヒロシマケン",
    "prefecture_code": 34,
    "city": "福山市",
    "city_kana": "フクヤマシ",
    "town": "延広町",
    "town_kana": "ノブヒロチョウ",
    "street": "１−１",
    "office_name": "大和証券　株式会社　福山支店",
    "office_name_kana": "ダイワシヨウケン カブシキガイシヤ フクヤマシテン"
  },
  "8643": {
    "postcode": "7208643",
    "prefecture": "広島県",
    "prefecture_kana": "ヒロシマケン",
    "prefecture_code": 34,
    "city": "福山市",
    "city_kana": "フクヤマシ",
    "town": "延広町",
    "town_kana": "ノブヒロチョウ",
    "street": "１−３０（福山郵便局私書箱第３０号）",
    "office_name": "株式会社　みずほ銀行　福山中央支店",
    "office_name_kana": "カブシキガイシヤ ミズホギンコウ フクヤマチユウオウシテン"
  },
  "8645": {
    "postcode": "7208645",
    "prefecture": "広島県",
    "prefecture_kana": "ヒロシマケン",
    "prefecture_code": 34,
    "city": "福山市",
    "city_kana": "フクヤマシ",
    "town": "光南町",
    "town_kana": "コウナンチョウ",
    "street": "１丁目１−３０（福山郵便局私書箱第８５号）",
    "office_name": "商工組合　中央金庫　福山支店",
    "office_name_kana": "シヨウコウクミアイ チユウオウキンコ フクヤマシテン"
  },
  "8647": {
    "postcode": "7208647",
    "prefecture": "広島県",
    "prefecture_kana": "ヒロシマケン",
    "prefecture_code": 34,
    "city": "福山市",
    "city_kana": "フクヤマシ",
    "town": "緑町",
    "town_kana": "ミドリマチ",
    "street": "１−８（福山郵便局私書箱第２６号）",
    "office_name": "三菱電機　株式会社　福山製作所",
    "office_name_kana": "ミツビシデンキ カブシキガイシヤ フクヤマセイサクシヨ"
  },
  "8650": {
    "postcode": "7208650",
    "prefecture": "広島県",
    "prefecture_kana": "ヒロシマケン",
    "prefecture_code": 34,
    "city": "福山市",
    "city_kana": "フクヤマシ",
    "town": "草戸町",
    "town_kana": "クサドチョウ",
    "street": "３丁目１２番２０号（福山郵便局私書箱第６１号）",
    "office_name": "ホーコス　株式会社",
    "office_name_kana": "ホ-コス カブシキガイシヤ"
  },
  "8652": {
    "postcode": "7208652",
    "prefecture": "広島県",
    "prefecture_kana": "ヒロシマケン",
    "prefecture_code": 34,
    "city": "福山市",
    "city_kana": "フクヤマシ",
    "town": "三吉町",
    "town_kana": "ミヨシチョウ",
    "street": "４丁目４番８号",
    "office_name": "福山税務署",
    "office_name_kana": "フクヤマゼイムシヨ"
  }
}