{
  "0100": {
    "postcode": "7310100",
    "prefecture": "広島県",
    "prefecture_kana": "ヒロシマケン",
    "prefecture_code": 34,
    "city": "広島市安佐南区",
    "city_kana": "ヒロシマシアサミナミク",
    "town": "",
    "town_kana": "",
    "street": null,
    "office_name": null,
    "office_name_kana": null
  },
  "0101": [
    {
      "postcode": "7310101",
      "prefecture": "広島県",
      "prefecture_kana": "ヒロシマケン",
      "prefecture_code": 34,
      "city": "広島市安佐南区",
      "city_kana": "ヒロシマシアサミナミク",
      "town": "八木",
      "town_kana": "ヤギ",
      "street": null,
      "office_name": null,
      "office_name_kana": null
    },
    {
      "postcode": "7310101",
      "prefecture": "広島県",
      "prefecture_kana": "ヒロシマケン",
      "prefecture_code": 34,
      "city": "広島市安佐南区",
      "city_kana": "ヒロシマシアサミナミク",
      "town": "八木町",
      "town_kana": "ヤギチョウ",
      "street": null,
      "office_name": null,
      "office_name_kana": null
    }
  ],
  "0102": {
    "postcode": "7310102",
    "prefecture": "広島県",
    "prefecture_kana": "ヒロシマケン",
    "prefecture_code": 34,
    "city": "広島市安佐南区",
    "city_kana": "ヒロシマシアサミナミク",
    "town": "川内",
    "town_kana": "カワウチ",
    "street": null,
    "office_name": null,
    "office_name_kana": null
  },
  "0103": {
    "postcode": "7310103",
    "prefecture": "広島県",
    "prefecture_kana": "ヒロシマケン",
    "prefecture_code": 34,
    "city": "広島市安佐南区",
    "city_kana": "ヒロシマシアサミナミク",
    "town": "緑井",
    "town_kana": "ミドリイ",
    "street": null,
    "office_name": null,
    "office_name_kana": null
  },
  "0111": {
    "postcode": "7310111",
    "prefecture": "広島県",
    "prefecture_kana": "ヒロシマケン",
    "prefecture_code": 34,
    "city": "広島市安佐南区",
    "city_kana": "ヒロシマシアサミナミク",
    "town": "東野",
    "town_kana": "ヒガシノ",
    "street": null,
    "office_name": null,
    "office_name_kana": null
  },
  "0112": {
    "postcode": "7310112",
    "prefecture": "広島県",
    "prefecture_kana": "ヒロシマケン",
    "prefecture_code": 34,
    "city": "広島市安佐南区",
    "city_kana": "ヒロシマシアサミナミク",
    "town": "東原",
    "town_kana": "ヒガシハラ",
    "street": null,
    "office_name": null,
    "office_name_kana": null
  },
  "0113": {
    "postcode": "7310113",
    "prefecture": "広島県",
    "prefecture_kana": "ヒロシマケン",
    "prefecture_code": 34,
    "city": "広島市安佐南区",
    "city_kana": "ヒロシマシアサミナミク",
    "town": "西原",
    "town_kana": "ニシハラ",
    "street": null,
    "office_name": null,
    "office_name_kana": null
  },
  "0121": {
    "postcode": "7310121",
    "prefecture": "広島県",
    "prefecture_kana": "ヒロシマケン",
    "prefecture_code": 34,
    "city": "広島市安佐南区",
    "city_kana": "ヒロシマシアサミナミク",
    "town": "中須",
    "town_kana": "ナカス",
    "street": null,
    "office_name": null,
    "office_name_kana": null
  },
  "0122": {
    "postcode": "7310122",
    "prefecture": "広島県",
    "prefecture_kana": "ヒロシマケン",
    "prefecture_code": 34,
    "city": "広島市安佐南区",
    "city_kana": "ヒロシマシアサミナミク",
    "town": "中筋",
    "town_kana": "ナカスジ",
    "street": null,
    "office_name": null,
    "office_name_kana": null
  },
  "0123": {
    "postcode": "7310123",
    "prefecture": "広島県",
    "prefecture_kana": "ヒロシマケン",
    "prefecture_code": 34,
    "city": "広島市安佐南区",
    "city_kana": "ヒロシマシアサミナミク",
    "town": "古市",
    "town_kana": "フルイチ",
    "street": null,
    "office_name": null,
    "office_name_kana": null
  },
  "0124": {
    "postcode": "7310124",
    "prefecture": "広島県",
    "prefecture_kana": "ヒロシマケン",
    "prefecture_code": 34,
    "city": "広島市安佐南区",
    "city_kana": "ヒロシマシアサミナミク",
    "town": "大町東",
    "town_kana": "オオマチヒガシ",
    "street": null,
    "office_name": null,
    "office_name_kana": null
  },
  "0125": {
    "postcode": "7310125",
    "prefecture": "広島県",
    "prefecture_kana": "ヒロシマケン",
    "prefecture_code": 34,
    "city": "広島市安佐南区",
    "city_kana": "ヒロシマシアサミナミク",
    "town": "大町西",
    "town_kana": "オオマチニシ",
    "street": null,
    "office_name": null,
    "office_name_kana": null
  },
  "0126": {
    "postcode": "7310126",
    "prefecture": "広島県",
    "prefecture_kana": "ヒロシマケン",
    "prefecture_code": 34,
    "city": "広島市安佐南区",
    "city_kana": "ヒロシマシアサミナミク",
    "town": "大町",
    "town_kana": "オオマチ",
    "street": null,
    "office_name": null,
    "office_name_kana": null
  },
  "0135": {
    "postcode": "7310135",
    "prefecture": "広島県",
    "prefecture_kana": "ヒロシマケン",
    "prefecture_code": 34,
    "city": "広島市安佐南区",
    "city_kana": "ヒロシマシアサミナミク",
    "town": "長束",
    "town_kana": "ナガツカ",
    "street": null,
    "office_name": null,
    "office_name_kana": null
  },
  "0136": {
    "postcode": "7310136",
    "prefecture": "広島県",
    "prefecture_kana": "ヒロシマケン",
    "prefecture_code": 34,
    "city": "広島市安佐南区",
    "city_kana": "ヒロシマシアサミナミク",
    "town": "長束西",
    "town_kana": "ナガツカニシ",
    "street": null,
    "office_name": null,
    "office_name_kana": null
  },
  "0137": [
    {
      "postcode": "7310137",
      "prefecture": "広島県",
      "prefecture_kana": "ヒロシマケン",
      "prefecture_code": 34,
      "city": "広島市安佐南区",
      "city_kana": "ヒロシマシアサミナミク",
      "town": "山本",
      "town_kana": "ヤマモト",
      "street": null,
      "office_name": null,
      "office_name_kana": null
    },
    {
      "postcode": "7310137",
      "prefecture": "広島県",
      "prefecture_kana": "ヒロシマケン",
      "prefecture_code": 34,
      "city": "広島市安佐南区",
      "city_kana": "ヒロシマシアサミナミク",
      "town": "山本町",
      "town_kana": "ヤマモトチョウ",
      "street": null,
      "office_name": null,
      "office_name_kana": null
    }
  ],
  "0138": {
    "postcode": "7310138",
    "prefecture": "広島県",
    "prefecture_kana": "ヒロシマケン",
    "prefecture_code": 34,
    "city": "広島市安佐南区",
    "city_kana": "ヒロシマシアサミナミク",
    "town": "祇園",
    "town_kana": "ギオン",
    "street": null,
    "office_name": null,
    "office_name_kana": null
  },
  "0139": {
    "postcode": "7310139",
    "prefecture": "広島県",
    "prefecture_kana": "ヒロシマケン",
    "prefecture_code": 34,
    "city": "広島市安佐南区",
    "city_kana": "ヒロシマシアサミナミク",
    "town": "山本新町",
    "town_kana": "ヤマモトシンマチ",
    "street": null,
    "office_name": null,
    "office_name_kana": null
  },
  "0141": {
    "postcode": "7310141",
    "prefecture": "広島県",
    "prefecture_kana": "ヒロシマケン",
    "prefecture_code": 34,
    "city": "広島市安佐南区",
    "city_kana": "ヒロシマシアサミナミク",
    "town": "相田",
    "town_kana": "アイタ",
    "street": null,
    "office_name": null,
    "office_name_kana": null
  },
  "0142": [
    {
      "postcode": "7310142",
      "prefecture": "広島県",
      "prefecture_kana": "ヒロシマケン",
      "prefecture_code": 34,
      "city": "広島市安佐南区",
      "city_kana": "ヒロシマシアサミナミク",
      "town": "高取南",
      "town_kana": "タカトリミナミ",
      "street": null,
      "office_name": null,
      "office_name_kana": null
    },
    {
      "postcode": "7310142",
      "prefecture": "広島県",
      "prefecture_kana": "ヒロシマケン",
      "prefecture_code": 34,
      "city": "広島市安佐南区",
      "city_kana": "ヒロシマシアサミナミク",
      "town": "高取南町",
      "town_kana": "タカトリミナミマチ",
      "street": null,
      "office_name": null,
      "office_name_kana": null
    }
  ],
  "0143": [
    {
      "postcode": "7310143",
      "prefecture": "広島県",
      "prefecture_kana": "ヒロシマケン",
      "prefecture_code": 34,
      "city": "広島市安佐南区",
      "city_kana": "ヒロシマシアサミナミク",
      "town": "長楽寺",
      "town_kana": "チョウラクジ",
      "street": null,
      "office_name": null,
      "office_name_kana": null
    },
    {
      "postcode": "7310143",
      "prefecture": "広島県",
      "prefecture_kana": "ヒロシマケン",
      "prefecture_code": 34,
      "city": "広島市安佐南区",
      "city_kana": "ヒロシマシアサミナミク",
      "town": "長楽寺町",
      "town_kana": "チョウラクジチョウ",
      "street": null,
      "office_name": null,
      "office_name_kana": null
    }
  ],
  "0144": {
    "postcode": "7310144",
    "prefecture": "広島県",
    "prefecture_kana": "ヒロシマケン",
    "prefecture_code": 34,
    "city": "広島市安佐南区",
    "city_kana": "ヒロシマシアサミナミク",
    "town": "高取北",
    "town_kana": "タカトリキタ",
    "street": null,
    "office_name": null,
    "office_name_kana": null
  },
  "0151": {
    "postcode": "7310151",
    "prefecture": "広島県",
    "prefecture_kana": "ヒロシマケン",
    "prefecture_code": 34,
    "city": "広島市安佐南区",
    "city_kana": "ヒロシマシアサミナミク",
    "town": "毘沙門台東",
    "town_kana": "ビシャモンダイヒガシ",
    "street": null,
    "office_name": null,
    "office_name_kana": null
  },
  "0152": {
    "postcode": "7310152",
    "prefecture": "広島県",
    "prefecture_kana": "ヒロシマケン",
    "prefecture_code": 34,
    "city": "広島市安佐南区",
    "city_kana": "ヒロシマシアサミナミク",
    "town": "毘沙門台",
    "town_kana": "ビシャモンダイ",
    "street": null,
    "office_name": null,
    "office_name_kana": null
  },
  "0153": {
    "postcode": "7310153",
    "prefecture": "広島県",
    "prefecture_kana": "ヒロシマケン",
    "prefecture_code": 34,
    "city": "広島市安佐南区",
    "city_kana": "ヒロシマシアサミナミク",
    "town": "安東",
    "town_kana": "ヤスヒガシ",
    "street": null,
    "office_name": null,
    "office_name_kana": null
  },
  "0154": [
    {
      "postcode": "7310154",
      "prefecture": "広島県",
      "prefecture_kana": "ヒロシマケン",
      "prefecture_code": 34,
      "city": "広島市安佐南区",
      "city_kana": "ヒロシマシアサミナミク",
      "town": "上安",
      "town_kana": "カミヤス",
      "street": null,
      "office_name": null,
      "office_name_kana": null
    },
    {
      "postcode": "7310154",
      "prefecture": "広島県",
      "prefecture_kana": "ヒロシマケン",
      "prefecture_code": 34,
      "city": "広島市安佐南区",
      "city_kana": "ヒロシマシアサミナミク",
      "town": "上安町",
      "town_kana": "カミヤスチョウ",
      "street": null,
      "office_name": null,
      "office_name_kana": null
    }
  ],
  "0192": {
    "postcode": "7310192",
    "prefecture": "広島県",
    "prefecture_kana": "ヒロシマケン",
    "prefecture_code": 34,
    "city": "広島市安佐南区",
    "city_kana": "ヒロシマシアサミナミク",
    "town": "祇園",
    "town_kana": "ギオン",
    "street": "５丁目３７−１",
    "office_name": "広島経済大学",
    "office_name_kana": "ヒロシマケイザイダイガク"
  },
  "0193": {
    "postcode": "7310193",
    "prefecture": "広島県",
    "prefecture_kana": "ヒロシマケン",
    "prefecture_code": 34,
    "city": "広島市安佐南区",
    "city_kana": "ヒロシマシアサミナミク",
    "town": "古市",
    "town_kana": "フルイチ",
    "street": "１丁目３３−１４",
    "office_name": "安佐南区役所",
    "office_name_kana": "アサミナミクヤクシヨ"
  },
  "0194": {
    "postcode": "7310194",
    "prefecture": "広島県",
    "prefecture_kana": "ヒロシマケン",
    "prefecture_code": 34,
    "city": "広島市安佐南区",
    "city_kana": "ヒロシマシアサミナミク",
    "town": "中須",
    "town_kana": "ナカス",
    "street": "１丁目３８番１３号",
    "office_name": "広島市安佐南区　総合福祉センター",
    "office_name_kana": "ヒロシマシアサミナミク ソウゴウフクシセンタ-"
  },
  "0195": {
    "postcode": "7310195",
    "prefecture": "広島県",
    "prefecture_kana": "ヒロシマケン",
    "prefecture_code": 34,
    "city": "広島市安佐南区",
    "city_kana": "ヒロシマシアサミナミク",
    "town": "緑井",
    "town_kana": "ミドリイ",
    "street": "５丁目２２−１",
    "office_name": "株式会社　天満屋　広島緑井店",
    "office_name_kana": "カブシキカイシヤ テンマヤ ヒロシマミドリイテン"
  },
  "0196": {
    "postcode": "7310196",
    "prefecture": "広島県",
    "prefecture_kana": "ヒロシマケン",
    "prefecture_code": 34,
    "city": "広島市安佐南区",
    "city_kana": "ヒロシマシアサミナミク",
    "town": "祇園",
    "town_kana": "ギオン",
    "street": "３丁目２−１",
    "office_name": "イオンモール　株式会社　イオンモール祇園",
    "office_name_kana": "イオンモ-ル カブシキガイシヤ イオンモ-ルギオン"
  },
  "0197": {
    "postcode": "7310197",
    "prefecture": "広島県",
    "prefecture_kana": "ヒロシマケン",
    "prefecture_code": 34,
    "city": "広島市安佐南区",
    "city_kana": "ヒロシマシアサミナミク",
    "town": "西原",
    "town_kana": "ニシハラ",
    "street": "２丁目２０−１３",
    "office_name": "大進物流センター",
    "office_name_kana": "ダイシンブツリユウセンタ-"
  },
  "0198": {
    "postcode": "7310198",
    "prefecture": "広島県",
    "prefecture_kana": "ヒロシマケン",
    "prefecture_code": 34,
    "city": "広島市安佐南区",
    "city_kana": "ヒロシマシアサミナミク",
    "town": "祇園",
    "town_kana": "ギオン",
    "street": "三丁目２８番２４号",
    "office_name": "株式会社　山貴",
    "office_name_kana": "カブシキガイシヤ ヤマキ"
  },
  "0201": {
    "postcode": "7310201",
    "prefecture": "広島県",
    "prefecture_kana": "ヒロシマケン",
    "prefecture_code": 34,
    "city": "広島市安佐北区",
    "city_kana": "ヒロシマシアサキタク",
    "town": "大林",
    "town_kana": "オオバヤシ",
    "street": null,
    "office_name": null,
    "office_name_kana": null
  },
  "0202": {
    "postcode": "7310202",
    "prefecture": "広島県",
    "prefecture_kana": "ヒロシマケン",
    "prefecture_code": 34,
    "city": "広島市安佐北区",
    "city_kana": "ヒロシマシアサキタク",
    "town": "大林町",
    "town_kana": "オオバヤシチョウ",
    "street": null,
    "office_name": null,
    "office_name_kana": null
  },
  "0211": {
    "postcode": "7310211",
    "prefecture": "広島県",
    "prefecture_kana": "ヒロシマケン",
    "prefecture_code": 34,
    "city": "広島市安佐北区",
    "city_kana": "ヒロシマシアサキタク",
    "town": "三入",
    "town_kana": "ミイリ",
    "street": null,
    "office_name": null,
    "office_name_kana": null
  },
  "0212": {
    "postcode": "7310212",
    "prefecture": "広島県",
    "prefecture_kana": "ヒロシマケン",
    "prefecture_code": 34,
    "city": "広島市安佐北区",
    "city_kana": "ヒロシマシアサキタク",
    "town": "三入東",
    "town_kana": "ミイリヒガシ",
    "street": null,
    "office_name": null,
    "office_name_kana": null
  },
  "0213": {
    "postcode": "7310213",
    "prefecture": "広島県",
    "prefecture_kana": "ヒロシマケン",
    "prefecture_code": 34,
    "city": "広島市安佐北区",
    "city_kana": "ヒロシマシアサキタク",
    "town": "三入南",
    "town_kana": "ミイリミナミ",
    "street": null,
    "office_name": null,
    "office_name_kana": null
  },
  "0214": {
    "postcode": "7310214",
    "prefecture": "広島県",
    "prefecture_kana": "ヒロシマケン",
    "prefecture_code": 34,
    "city": "広島市安佐北区",
    "city_kana": "ヒロシマシアサキタク",
    "town": "可部町桐原",
    "town_kana": "カベチョウトゲ",
    "street": null,
    "office_name": null,
    "office_name_kana": null
  },
  "0215": {
    "postcode": "7310215",
    "prefecture": "広島県",
    "prefecture_kana": "ヒロシマケン",
    "prefecture_code": 34,
    "city": "広島市安佐北区",
    "city_kana": "ヒロシマシアサキタク",
    "town": "可部町南原",
    "town_kana": "カベチョウナバラ",
    "street": null,
    "office_name": null,
    "office_name_kana": null
  },
  "0216": {
    "postcode": "7310216",
    "prefecture": "広島県",
    "prefecture_kana": "ヒロシマケン",
    "prefecture_code": 34,
    "city": "広島市安佐北区",
    "city_kana": "ヒロシマシアサキタク",
    "town": "可部町上町屋",
    "town_kana": "カベチョウカミマチヤ",
    "street": null,
    "office_name": null,
    "office_name_kana": null
  },
  "0217": {
    "postcode": "7310217",
    "prefecture": "広島県",
    "prefecture_kana": "ヒロシマケン",
    "prefecture_code": 34,
    "city": "広島市安佐北区",
    "city_kana": "ヒロシマシアサキタク",
    "town": "可部町下町屋",
    "town_kana": "カベチョウシモマチヤ",
    "street": null,
    "office_name": null,
    "office_name_kana": null
  },
  "0221": {
    "postcode": "7310221",
    "prefecture": "広島県",
    "prefecture_kana": "ヒロシマケン",
    "prefecture_code": 34,
    "city": "広島市安佐北区",
    "city_kana": "ヒロシマシアサキタク",
    "town": "可部",
    "town_kana": "カベ",
    "street": null,
    "office_name": null,
    "office_name_kana": null
  },
  "0222": {
    "postcode": "7310222",
    "prefecture": "広島県",
    "prefecture_kana": "ヒロシマケン",
    "prefecture_code": 34,
    "city": "広島市安佐北区",
    "city_kana": "ヒロシマシアサキタク",
    "town": "可部東",
    "town_kana": "カベヒガシ",
    "street": null,
    "office_name": null,
    "office_name_kana": null
  },
  "0223": {
    "postcode": "7310223",
    "prefecture": "広島県",
    "prefecture_kana": "ヒロシマケン",
    "prefecture_code": 34,
    "city": "広島市安佐北区",
    "city_kana": "ヒロシマシアサキタク",
    "town": "可部南",
    "town_kana": "カベミナミ",
    "street": null,
    "office_name": null,
    "office_name_kana": null
  },
  "0224": {
    "postcode": "7310224",
    "prefecture": "広島県",
    "prefecture_kana": "ヒロシマケン",
    "prefecture_code": 34,
    "city": "広島市安佐北区",
    "city_kana": "ヒロシマシアサキタク",
    "town": "可部町中島",
    "town_kana": "カベチョウナカシマ",
    "street": null,
    "office_name": null,
    "office_name_kana": null
  },
  "0225": {
    "postcode": "7310225",
    "prefecture": "広島県",
    "prefecture_kana": "ヒロシマケン",
    "prefecture_code": 34,
    "city": "広島市安佐北区",
    "city_kana": "ヒロシマシアサキタク",
    "town": "可部町上原",
    "town_kana": "カベチョウウエバラ",
    "street": null,
    "office_name": null,
    "office_name_kana": null
  },
  "0231": {
    "postcode": "7310231",
    "prefecture": "広島県",
    "prefecture_kana": "ヒロシマケン",
    "prefecture_code": 34,
    "city": "広島市安佐北区",
    "city_kana": "ヒロシマシアサキタク",
    "town": "亀山",
    "town_kana": "カメヤマ",
    "street": null,
    "office_name": null,
    "office_name_kana": null
  },
  "0232": {
    "postcode": "7310232",
    "prefecture": "広島県",
    "prefecture_kana": "ヒロシマケン",
    "prefecture_code": 34,
    "city": "広島市安佐北区",
    "city_kana": "ヒロシマシアサキタク",
    "town": "亀山南",
    "town_kana": "カメヤマミナミ",
    "street": null,
    "office_name": null,
    "office_name_kana": null
  },
  "0233": {
    "postcode": "7310233",
    "prefecture": "広島県",
    "prefecture_kana": "ヒロシマケン",
    "prefecture_code": 34,
    "city": "広島市安佐北区",
    "city_kana": "ヒロシマシアサキタク",
    "town": "亀山西",
    "town_kana": "カメヤマニシ",
    "street": null,
    "office_name": null,
    "office_name_kana": null
  },
  "0234": {
    "postcode": "7310234",
    "prefecture": "広島県",
    "prefecture_kana": "ヒロシマケン",
    "prefecture_code": 34,
    "city": "広島市安佐北区",
    "city_kana": "ヒロシマシアサキタク",
    "town": "可部町今井田",
    "town_kana": "カベチョウイマイダ",
    "street": null,
    "office_name": null,
    "office_name_kana": null
  },
  "0235": {
    "postcode": "7310235",
    "prefecture": "広島県",
    "prefecture_kana": "ヒロシマケン",
    "prefecture_code": 34,
    "city": "広島市安佐北区",
    "city_kana": "ヒロシマシアサキタク",
    "town": "可部町勝木",
    "town_kana": "カベチョウカツギ",
    "street": null,
    "office_name": null,
    "office_name_kana": null
  },
  "0236": {
    "postcode": "7310236",
    "prefecture": "広島県",
    "prefecture_kana": "ヒロシマケン",
    "prefecture_code": 34,
    "city": "広島市安佐北区",
    "city_kana": "ヒロシマシアサキタク",
    "town": "可部町綾ケ谷",
    "town_kana": "カベチョウアヤガタニ",
    "street": null,
    "office_name": null,
    "office_name_kana": null
  },
  "0292": {
    "postcode": "7310292",
    "prefecture": "広島県",
    "prefecture_kana": "ヒロシマケン",
    "prefecture_code": 34,
    "city": "広島市安佐北区",
    "city_kana": "ヒロシマシアサキタク",
    "town": "可部",
    "town_kana": "カベ",
    "street": "４丁目１３−１３",
    "office_name": "広島市安佐北区役所",
    "office_name_kana": "ヒロシマシアサキタクヤクシヨ"
  },
  "0293": {
    "postcode": "7310293",
    "prefecture": "広島県",
    "prefecture_kana": "ヒロシマケン",
    "prefecture_code": 34,
    "city": "広島市安佐北区",
    "city_kana": "ヒロシマシアサキタク",
    "town": "亀山南",
    "town_kana": "カメヤマミナミ",
    "street": "一丁目２番１号",
    "office_name": "広島市立北部医療センター安佐市民病院",
    "office_name_kana": "ヒロシマシリツホクブイリヨウセンタ-アサシミンビヨウイン"
  },
  "0295": {
    "postcode": "7310295",
    "prefecture": "広島県",
    "prefecture_kana": "ヒロシマケン",
    "prefecture_code": 34,
    "city": "広島市安佐北区",
    "city_kana": "ヒロシマシアサキタク",
    "town": "可部東",
    "town_kana": "カベヒガシ",
    "street": "一丁目２番１号",
    "office_name": "広島文教大学",
    "office_name_kana": "ヒロシマブンキヨウダイガク"
  },
  "0301": {
    "postcode": "7310301",
    "prefecture": "広島県",
    "prefecture_kana": "ヒロシマケン",
    "prefecture_code": 34,
    "city": "安芸高田市",
    "city_kana": "アキタカタシ",
    "town": "八千代町土師",
    "town_kana": "ヤチヨチョウハジ",
    "street": null,
    "office_name": null,
    "office_name_kana": null
  },
  "0302": {
    "postcode": "7310302",
    "prefecture": "広島県",
    "prefecture_kana": "ヒロシマケン",
    "prefecture_code": 34,
    "city": "安芸高田市",
    "city_kana": "アキタカタシ",
    "town": "八千代町勝田",
    "town_kana": "ヤチヨチョウカッタ",
    "street": null,
    "office_name": null,
    "office_name_kana": null
  },
  "0303": {
    "postcode": "7310303",
    "prefecture": "広島県",
    "prefecture_kana": "ヒロシマケン",
    "prefecture_code": 34,
    "city": "安芸高田市",
    "city_kana": "アキタカタシ",
    "town": "八千代町佐々井",
    "town_kana": "ヤチヨチョウササイ",
    "street": null,
    "office_name": null,
    "office_name_kana": null
  },
  "0304": {
    "postcode": "7310304",
    "prefecture": "広島県",
    "prefecture_kana": "ヒロシマケン",
    "prefecture_code": 34,
    "city": "安芸高田市",
    "city_kana": "アキタカタシ",
    "town": "八千代町下根",
    "town_kana": "ヤチヨチョウシモネ",
    "street": null,
    "office_name": null,
    "office_name_kana": null
  },
  "0305": {
    "postcode": "7310305",
    "prefecture": "広島県",
    "prefecture_kana": "ヒロシマケン",
    "prefecture_code": 34,
    "city": "安芸高田市",
    "city_kana": "アキタカタシ",
    "town": "八千代町上根",
    "town_kana": "ヤチヨチョウカミネ",
    "street": null,
    "office_name": null,
    "office_name_kana": null
  },
  "0306": {
    "postcode": "7310306",
    "prefecture": "広島県",
    "prefecture_kana": "ヒロシマケン",
    "prefecture_code": 34,
    "city": "安芸高田市",
    "city_kana": "アキタカタシ",
    "town": "八千代町向山",
    "town_kana": "ヤチヨチョウムカイヤマ",
    "street": null,
    "office_name": null,
    "office_name_kana": null
  },
  "0500": {
    "postcode": "7310500",
    "prefecture": "広島県",
    "prefecture_kana": "ヒロシマケン",
    "prefecture_code": 34,
    "city": "安芸高田市",
    "city_kana": "アキタカタシ",
    "town": "",
    "town_kana": "",
    "street": null,
    "office_name": null,
    "office_name_kana": null
  },
  "0501": {
    "postcode": "7310501",
    "prefecture": "広島県",
    "prefecture_kana": "ヒロシマケン",
    "prefecture_code": 34,
    "city": "安芸高田市",
    "city_kana": "アキタカタシ",
    "town": "吉田町吉田",
    "town_kana": "ヨシダチョウヨシダ",
    "street": null,
    "office_name": null,
    "office_name_kana": null
  },
  "0502": {
    "postcode": "7310502",
    "prefecture": "広島県",
    "prefecture_kana": "ヒロシマケン",
    "prefecture_code": 34,
    "city": "安芸高田市",
    "city_kana": "アキタカタシ",
    "town": "吉田町国司",
    "town_kana": "ヨシダチョウクニシ",
    "street": null,
    "office_name": null,
    "office_name_kana": null
  },
  "0511": {
    "postcode": "7310511",
    "prefecture": "広島県",
    "prefecture_kana": "ヒロシマケン",
    "prefecture_code": 34,
    "city": "安芸高田市",
    "city_kana": "アキタカタシ",
    "town": "吉田町竹原",
    "town_kana": "ヨシダチョウタケハラ",
    "street": null,
    "office_name": null,
    "office_name_kana": null
  },
  "0512": {
    "postcode": "7310512",
    "prefecture": "広島県",
    "prefecture_kana": "ヒロシマケン",
    "prefecture_code": 34,
    "city": "安芸高田市",
    "city_kana": "アキタカタシ",
    "town": "吉田町小山",
    "town_kana": "ヨシダチョウオヤマ",
    "street": null,
    "office_name": null,
    "office_name_kana": null
  },
  "0513": {
    "postcode": "7310513",
    "prefecture": "広島県",
    "prefecture_kana": "ヒロシマケン",
    "prefecture_code": 34,
    "city": "安芸高田市",
    "city_kana": "アキタカタシ",
    "town": "吉田町福原",
    "town_kana": "ヨシダチョウフクバラ",
    "street": null,
    "office_name": null,
    "office_name_kana": null
  },
  "0521": {
    "postcode": "7310521",
    "prefecture": "広島県",
    "prefecture_kana": "ヒロシマケン",
    "prefecture_code": 34,
    "city": "安芸高田市",
    "city_kana": "アキタカタシ",
    "town": "吉田町常友",
    "town_kana": "ヨシダチョウツネトモ",
    "street": null,
    "office_name": null,
    "office_name_kana": null
  },
  "0522": {
    "postcode": "7310522",
    "prefecture": "広島県",
    "prefecture_kana": "ヒロシマケン",
    "prefecture_code": 34,
    "city": "安芸高田市",
    "city_kana": "アキタカタシ",
    "town": "吉田町常楽寺",
    "town_kana": "ヨシダチョウジョウラクジ",
    "street": null,
    "office_name": null,
    "office_name_kana": null
  },
  "0523": {
    "postcode": "7310523",
    "prefecture": "広島県",
    "prefecture_kana": "ヒロシマケン",
    "prefecture_code": 34,
    "city": "安芸高田市",
    "city_kana": "アキタカタシ",
    "town": "吉田町山手",
    "town_kana": "ヨシダチョウヤマテ",
    "street": null,
    "office_name": null,
    "office_name_kana": null
  },
  "0524": {
    "postcode": "7310524",
    "prefecture": "広島県",
    "prefecture_kana": "ヒロシマケン",
    "prefecture_code": 34,
    "city": "安芸高田市",
    "city_kana": "アキタカタシ",
    "town": "吉田町川本",
    "town_kana": "ヨシダチョウカワモト",
    "street": null,
    "office_name": null,
    "office_name_kana": null
  },
  "0525": {
    "postcode": "7310525",
    "prefecture": "広島県",
    "prefecture_kana": "ヒロシマケン",
    "prefecture_code": 34,
    "city": "安芸高田市",
    "city_kana": "アキタカタシ",
    "town": "吉田町中馬",
    "town_kana": "ヨシダチョウチュウマ",
    "street": null,
    "office_name": null,
    "office_name_kana": null
  },
  "0531": {
    "postcode": "7310531",
    "prefecture": "広島県",
    "prefecture_kana": "ヒロシマケン",
    "prefecture_code": 34,
    "city": "安芸高田市",
    "city_kana": "アキタカタシ",
    "town": "吉田町下入江",
    "town_kana": "ヨシダチョウシモイリエ",
    "street": null,
    "office_name": null,
    "office_name_kana": null
  },
  "0532": {
    "postcode": "7310532",
    "prefecture": "広島県",
    "prefecture_kana": "ヒロシマケン",
    "prefecture_code": 34,
    "city": "安芸高田市",
    "city_kana": "アキタカタシ",
    "town": "吉田町上入江",
    "town_kana": "ヨシダチョウカミイリエ",
    "street": null,
    "office_name": null,
    "office_name_kana": null
  },
  "0533": {
    "postcode": "7310533",
    "prefecture": "広島県",
    "prefecture_kana": "ヒロシマケン",
    "prefecture_code": 34,
    "city": "安芸高田市",
    "city_kana": "アキタカタシ",
    "town": "吉田町長屋",
    "town_kana": "ヨシダチョウナガヤ",
    "street": null,
    "office_name": null,
    "office_name_kana": null
  },
  "0534": {
    "postcode": "7310534",
    "prefecture": "広島県",
    "prefecture_kana": "ヒロシマケン",
    "prefecture_code": 34,
    "city": "安芸高田市",
    "city_kana": "アキタカタシ",
    "town": "吉田町桂",
    "town_kana": "ヨシダチョウカツラ",
    "street": null,
    "office_name": null,
    "office_name_kana": null
  },
  "0535": {
    "postcode": "7310535",
    "prefecture": "広島県",
    "prefecture_kana": "ヒロシマケン",
    "prefecture_code": 34,
    "city": "安芸高田市",
    "city_kana": "アキタカタシ",
    "town": "吉田町高野",
    "town_kana": "ヨシダチョウコウヤ",
    "street": null,
    "office_name": null,
    "office_name_kana": null
  },
  "0541": {
    "postcode": "7310541",
    "prefecture": "広島県",
    "prefecture_kana": "ヒロシマケン",
    "prefecture_code": 34,
    "city": "安芸高田市",
    "city_kana": "アキタカタシ",
    "town": "吉田町山部",
    "town_kana": "ヨシダチョウヤンベ",
    "street": null,
    "office_name": null,
    "office_name_kana": null
  },
  "0542": {
    "postcode": "7310542",
    "prefecture": "広島県",
    "prefecture_kana": "ヒロシマケン",
    "prefecture_code": 34,
    "city": "安芸高田市",
    "city_kana": "アキタカタシ",
    "town": "吉田町相合",
    "town_kana": "ヨシダチョウアイオウ",
    "street": null,
    "office_name": null,
    "office_name_kana": null
  },
  "0543": {
    "postcode": "7310543",
    "prefecture": "広島県",
    "prefecture_kana": "ヒロシマケン",
    "prefecture_code": 34,
    "city": "安芸高田市",
    "city_kana": "アキタカタシ",
    "town": "吉田町西浦",
    "town_kana": "ヨシダチョウニシウラ",
    "street": null,
    "office_name": null,
    "office_name_kana": null
  },
  "0544": {
    "postcode": "7310544",
    "prefecture": "広島県",
    "prefecture_kana": "ヒロシマケン",
    "prefecture_code": 34,
    "city": "安芸高田市",
    "city_kana": "アキタカタシ",
    "town": "吉田町多治比",
    "town_kana": "ヨシダチョウタジヒ",
    "street": null,
    "office_name": null,
    "office_name_kana": null
  },
  "0592": {
    "postcode": "7310592",
    "prefecture": "広島県",
    "prefecture_kana": "ヒロシマケン",
    "prefecture_code": 34,
    "city": "安芸高田市",
    "city_kana": "アキタカタシ",
    "town": "吉田町吉田",
    "town_kana": "ヨシダチョウヨシダ",
    "street": "７９１",
    "office_name": "安芸高田市役所",
    "office_name_kana": "アキタカタシヤクシヨ"
  },
  "0593": {
    "postcode": "7310593",
    "prefecture": "広島県",
    "prefecture_kana": "ヒロシマケン",
    "prefecture_code": 34,
    "city": "安芸高田市",
    "city_kana": "アキタカタシ",
    "town": "吉田町吉田",
    "town_kana": "ヨシダチョウヨシダ",
    "street": "３６０４",
    "office_name": "吉田町税務署",
    "office_name_kana": "ヨシダチヨウゼイムシヨ"
  },
  "0595": {
    "postcode": "7310595",
    "prefecture": "広島県",
    "prefecture_kana": "ヒロシマケン",
    "prefecture_code": 34,
    "city": "安芸高田市",
    "city_kana": "アキタカタシ",
    "town": "吉田町吉田",
    "town_kana": "ヨシダチョウヨシダ",
    "street": "３６６６",
    "office_name": "吉田総合病院",
    "office_name_kana": "ヨシダソウゴウビヨウイン"
  },
  "0611": {
    "postcode": "7310611",
    "prefecture": "広島県",
    "prefecture_kana": "ヒロシマケン",
    "prefecture_code": 34,
    "city": "安芸高田市",
    "city_kana": "アキタカタシ",
    "town": "美土里町横田",
    "town_kana": "ミドリチョウヨコタ",
    "street": null,
    "office_name": null,
    "office_name_kana": null
  },
  "0612": {
    "postcode": "7310612",
    "prefecture": "広島県",
    "prefecture_kana": "ヒロシマケン",
    "prefecture_code": 34,
    "city": "安芸高田市",
    "city_kana": "アキタカタシ",
    "town": "美土里町本郷",
    "town_kana": "ミドリチョウホンゴウ",
    "street": null,
    "office_name": null,
    "office_name_kana": null
  },
  "0692": {
    "postcode": "7310692",
    "prefecture": "広島県",
    "prefecture_kana": "ヒロシマケン",
    "prefecture_code": 34,
    "city": "安芸高田市",
    "city_kana": "アキタカタシ",
    "town": "美土里町本郷",
    "town_kana": "ミドリチョウホンゴウ",
    "street": "１７５５",
    "office_name": "安芸高田市役所　美土里支所",
    "office_name_kana": "アキタカタシヤクシヨ ミドリシシヨ"
  },
  "0701": {
    "postcode": "7310701",
    "prefecture": "広島県",
    "prefecture_kana": "ヒロシマケン",
    "prefecture_code": 34,
    "city": "安芸高田市",
    "city_kana": "アキタカタシ",
    "town": "美土里町北",
    "town_kana": "ミドリチョウキタ",
    "street": null,
    "office_name": null,
    "office_name_kana": null
  },
  "0702": {
    "postcode": "7310702",
    "prefecture": "広島県",
    "prefecture_kana": "ヒロシマケン",
    "prefecture_code": 34,
    "city": "安芸高田市",
    "city_kana": "アキタカタシ",
    "town": "美土里町桑田",
    "town_kana": "ミドリチョウクワタ",
    "street": null,
    "office_name": null,
    "office_name_kana": null
  },
  "0703": {
    "postcode": "7310703",
    "prefecture": "広島県",
    "prefecture_kana": "ヒロシマケン",
    "prefecture_code": 34,
    "city": "安芸高田市",
    "city_kana": "アキタカタシ",
    "town": "美土里町生田",
    "town_kana": "ミドリチョウイケダ",
    "street": null,
    "office_name": null,
    "office_name_kana": null
  },
  "1141": {
    "postcode": "7311141",
    "prefecture": "広島県",
    "prefecture_kana": "ヒロシマケン",
    "prefecture_code": 34,
    "city": "広島市安佐北区",
    "city_kana": "ヒロシマシアサキタク",
    "town": "安佐町鈴張",
    "town_kana": "アサチョウスズハリ",
    "street": null,
    "office_name": null,
    "office_name_kana": null
  },
  "1142": {
    "postcode": "7311142",
    "prefecture": "広島県",
    "prefecture_kana": "ヒロシマケン",
    "prefecture_code": 34,
    "city": "広島市安佐北区",
    "city_kana": "ヒロシマシアサキタク",
    "town": "安佐町飯室",
    "town_kana": "アサチョウイムロ",
    "street": null,
    "office_name": null,
    "office_name_kana": null
  },
  "1171": {
    "postcode": "7311171",
    "prefecture": "広島県",
    "prefecture_kana": "ヒロシマケン",
    "prefecture_code": 34,
    "city": "広島市安佐北区",
    "city_kana": "ヒロシマシアサキタク",
    "town": "安佐町小河内",
    "town_kana": "アサチョウオガウチ",
    "street": null,
    "office_name": null,
    "office_name_kana": null
  },
  "1221": {
    "postcode": "7311221",
    "prefecture": "広島県",
    "prefecture_kana": "ヒロシマケン",
    "prefecture_code": 34,
    "city": "山県郡北広島町",
    "city_kana": "ヤマガタグンキタヒロシマチョウ",
    "town": "今吉田",
    "town_kana": "イマヨシダ",
    "street": null,
    "office_name": null,
    "office_name_kana": null
  },
  "1222": {
    "postcode": "7311222",
    "prefecture": "広島県",
    "prefecture_kana": "ヒロシマケン",
    "prefecture_code": 34,
    "city": "山県郡北広島町",
    "city_kana": "ヤマガタグンキタヒロシマチョウ",
    "town": "阿坂",
    "town_kana": "アザカ",
    "street": null,
    "office_name": null,
    "office_name_kana": null
  },
  "1223": {
    "postcode": "7311223",
    "prefecture": "広島県",
    "prefecture_kana": "ヒロシマケン",
    "prefecture_code": 34,
    "city": "山県郡北広島町",
    "city_kana": "ヤマガタグンキタヒロシマチョウ",
    "town": "吉木",
    "town_kana": "ヨシキ",
    "street": null,
    "office_name": null,
    "office_name_kana": null
  },
  "1500": {
    "postcode": "7311500",
    "prefecture": "広島県",
    "prefecture_kana": "ヒロシマケン",
    "prefecture_code": 34,
    "city": "山県郡北広島町",
    "city_kana": "ヤマガタグンキタヒロシマチョウ",
    "town": "",
    "town_kana": "",
    "street": null,
    "office_name": null,
    "office_name_kana": null
  },
  "1501": {
    "postcode": "7311501",
    "prefecture": "広島県",
    "prefecture_kana": "ヒロシマケン",
    "prefecture_code": 34,
    "city": "山県郡北広島町",
    "city_kana": "ヤマガタグンキタヒロシマチョウ",
    "town": "川戸",
    "town_kana": "カワド",
    "street": null,
    "office_name": null,
    "office_name_kana": null
  },
  "1502": {
    "postcode": "7311502",
    "prefecture": "広島県",
    "prefecture_kana": "ヒロシマケン",
    "prefecture_code": 34,
    "city": "山県郡北広島町",
    "city_kana": "ヤマガタグンキタヒロシマチョウ",
    "town": "蔵迫",
    "town_kana": "クラザコ",
    "street": null,
    "office_name": null,
    "office_name_kana": null
  },
  "1503": {
    "postcode": "7311503",
    "prefecture": "広島県",
    "prefecture_kana": "ヒロシマケン",
    "prefecture_code": 34,
    "city": "山県郡北広島町",
    "city_kana": "ヤマガタグンキタヒロシマチョウ",
    "town": "有間",
    "town_kana": "アリマ",
    "street": null,
    "office_name": null,
    "office_name_kana": null
  },
  "1504": {
    "postcode": "7311504",
    "prefecture": "広島県",
    "prefecture_kana": "ヒロシマケン",
    "prefecture_code": 34,
    "city": "山県郡北広島町",
    "city_kana": "ヤマガタグンキタヒロシマチョウ",
    "town": "寺原",
    "town_kana": "テラバラ",
    "street": null,
    "office_name": null,
    "office_name_kana": null
  },
  "1505": {
    "postcode": "7311505",
    "prefecture": "広島県",
    "prefecture_kana": "ヒロシマケン",
    "prefecture_code": 34,
    "city": "山県郡北広島町",
    "city_kana": "ヤマガタグンキタヒロシマチョウ",
    "town": "舞綱",
    "town_kana": "モウツナ",
    "street": null,
    "office_name": null,
    "office_name_kana": null
  },
  "1506": {
    "postcode": "7311506",
    "prefecture": "広島県",
    "prefecture_kana": "ヒロシマケン",
    "prefecture_code": 34,
    "city": "山県郡北広島町",
    "city_kana": "ヤマガタグンキタヒロシマチョウ",
    "town": "中山",
    "town_kana": "ナカヤマ",
    "street": null,
    "office_name": null,
    "office_name_kana": null
  },
  "1511": {
    "postcode": "7311511",
    "prefecture": "広島県",
    "prefecture_kana": "ヒロシマケン",
    "prefecture_code": 34,
    "city": "山県郡北広島町",
    "city_kana": "ヤマガタグンキタヒロシマチョウ",
    "town": "惣森",
    "town_kana": "ソウモリ",
    "street": null,
    "office_name": null,
    "office_name_kana": null
  },
  "1512": {
    "postcode": "7311512",
    "prefecture": "広島県",
    "prefecture_kana": "ヒロシマケン",
    "prefecture_code": 34,
    "city": "山県郡北広島町",
    "city_kana": "ヤマガタグンキタヒロシマチョウ",
    "town": "川東",
    "town_kana": "カワヒガシ",
    "street": null,
    "office_name": null,
    "office_name_kana": null
  },
  "1513": {
    "postcode": "7311513",
    "prefecture": "広島県",
    "prefecture_kana": "ヒロシマケン",
    "prefecture_code": 34,
    "city": "山県郡北広島町",
    "city_kana": "ヤマガタグンキタヒロシマチョウ",
    "town": "川井",
    "town_kana": "カワイ",
    "street": null,
    "office_name": null,
    "office_name_kana": null
  },
  "1514": {
    "postcode": "7311514",
    "prefecture": "広島県",
    "prefecture_kana": "ヒロシマケン",
    "prefecture_code": 34,
    "city": "山県郡北広島町",
    "city_kana": "ヤマガタグンキタヒロシマチョウ",
    "town": "新氏神",
    "town_kana": "シンウジガミ",
    "street": null,
    "office_name": null,
    "office_name_kana": null
  },
  "1515": {
    "postcode": "7311515",
    "prefecture": "広島県",
    "prefecture_kana": "ヒロシマケン",
    "prefecture_code": 34,
    "city": "山県郡北広島町",
    "city_kana": "ヤマガタグンキタヒロシマチョウ",
    "town": "壬生",
    "town_kana": "ミブ",
    "street": null,
    "office_name": null,
    "office_name_kana": null
  },
  "1516": {
    "postcode": "7311516",
    "prefecture": "広島県",
    "prefecture_kana": "ヒロシマケン",
    "prefecture_code": 34,
    "city": "山県郡北広島町",
    "city_kana": "ヤマガタグンキタヒロシマチョウ",
    "town": "川西",
    "town_kana": "カワニシ",
    "street": null,
    "office_name": null,
    "office_name_kana": null
  },
  "1521": {
    "postcode": "7311521",
    "prefecture": "広島県",
    "prefecture_kana": "ヒロシマケン",
    "prefecture_code": 34,
    "city": "山県郡北広島町",
    "city_kana": "ヤマガタグンキタヒロシマチョウ",
    "town": "丁保余原",
    "town_kana": "ヨオロホヨバラ",
    "street": null,
    "office_name": null,
    "office_name_kana": null
  },
  "1522": {
    "postcode": "7311522",
    "prefecture": "広島県",
    "prefecture_kana": "ヒロシマケン",
    "prefecture_code": 34,
    "city": "山県郡北広島町",
    "city_kana": "ヤマガタグンキタヒロシマチョウ",
    "town": "新郷",
    "town_kana": "シンゴウ",
    "street": null,
    "office_name": null,
    "office_name_kana": null
  },
  "1523": {
    "postcode": "7311523",
    "prefecture": "広島県",
    "prefecture_kana": "ヒロシマケン",
    "prefecture_code": 34,
    "city": "山県郡北広島町",
    "city_kana": "ヤマガタグンキタヒロシマチョウ",
    "town": "南方",
    "town_kana": "ミナミガタ",
    "street": null,
    "office_name": null,
    "office_name_kana": null
  },
  "1524": {
    "postcode": "7311524",
    "prefecture": "広島県",
    "prefecture_kana": "ヒロシマケン",
    "prefecture_code": 34,
    "city": "山県郡北広島町",
    "city_kana": "ヤマガタグンキタヒロシマチョウ",
    "town": "木次",
    "town_kana": "キツギ",
    "street": null,
    "office_name": null,
    "office_name_kana": null
  },
  "1525": {
    "postcode": "7311525",
    "prefecture": "広島県",
    "prefecture_kana": "ヒロシマケン",
    "prefecture_code": 34,
    "city": "山県郡北広島町",
    "city_kana": "ヤマガタグンキタヒロシマチョウ",
    "town": "石井谷",
    "town_kana": "イシイダニ",
    "street": null,
    "office_name": null,
    "office_name_kana": null
  },
  "1526": {
    "postcode": "7311526",
    "prefecture": "広島県",
    "prefecture_kana": "ヒロシマケン",
    "prefecture_code": 34,
    "city": "山県郡北広島町",
    "city_kana": "ヤマガタグンキタヒロシマチョウ",
    "town": "本地",
    "town_kana": "ホンジ",
    "street": null,
    "office_name": null,
    "office_name_kana": null
  },
  "1531": {
    "postcode": "7311531",
    "prefecture": "広島県",
    "prefecture_kana": "ヒロシマケン",
    "prefecture_code": 34,
    "city": "山県郡北広島町",
    "city_kana": "ヤマガタグンキタヒロシマチョウ",
    "town": "春木",
    "town_kana": "ハルキ",
    "street": null,
    "office_name": null,
    "office_name_kana": null
  },
  "1532": {
    "postcode": "7311532",
    "prefecture": "広島県",
    "prefecture_kana": "ヒロシマケン",
    "prefecture_code": 34,
    "city": "山県郡北広島町",
    "city_kana": "ヤマガタグンキタヒロシマチョウ",
    "town": "古保利",
    "town_kana": "コホリ",
    "street": null,
    "office_name": null,
    "office_name_kana": null
  },
  "1533": {
    "postcode": "7311533",
    "prefecture": "広島県",
    "prefecture_kana": "ヒロシマケン",
    "prefecture_code": 34,
    "city": "山県郡北広島町",
    "city_kana": "ヤマガタグンキタヒロシマチョウ",
    "town": "有田",
    "town_kana": "アリダ",
    "street": null,
    "office_name": null,
    "office_name_kana": null
  },
  "1534": {
    "postcode": "7311534",
    "prefecture": "広島県",
    "prefecture_kana": "ヒロシマケン",
    "prefecture_code": 34,
    "city": "山県郡北広島町",
    "city_kana": "ヤマガタグンキタヒロシマチョウ",
    "town": "後有田",
    "town_kana": "ウシロアリダ",
    "street": null,
    "office_name": null,
    "office_name_kana": null
  },
  "1535": {
    "postcode": "7311535",
    "prefecture": "広島県",
    "prefecture_kana": "ヒロシマケン",
    "prefecture_code": 34,
    "city": "山県郡北広島町",
    "city_kana": "ヤマガタグンキタヒロシマチョウ",
    "town": "今田",
    "town_kana": "イマダ",
    "street": null,
    "office_name": null,
    "office_name_kana": null
  },
  "1595": {
    "postcode": "7311595",
    "prefecture": "広島県",
    "prefecture_kana": "ヒロシマケン",
    "prefecture_code": 34,
    "city": "山県郡北広島町",
    "city_kana": "ヤマガタグンキタヒロシマチョウ",
    "town": "有田",
    "town_kana": "アリダ",
    "street": "１２３４",
    "office_name": "北広島町役場",
    "office_name_kana": "キタヒロシマチヨウヤクバ"
  },
  "1597": {
    "postcode": "7311597",
    "prefecture": "広島県",
    "prefecture_kana": "ヒロシマケン",
    "prefecture_code": 34,
    "city": "山県郡北広島町",
    "city_kana": "ヤマガタグンキタヒロシマチョウ",
    "town": "新氏神",
    "town_kana": "シンウジガミ",
    "street": "３５",
    "office_name": "株式会社　やまびこ　広島事業所",
    "office_name_kana": "カブシキガイシヤ ヤマビコ ヒロシマジギヨウシヨ"
  },
  "1701": {
    "postcode": "7311701",
    "prefecture": "広島県",
    "prefecture_kana": "ヒロシマケン",
    "prefecture_code": 34,
    "city": "山県郡北広島町",
    "city_kana": "ヤマガタグンキタヒロシマチョウ",
    "town": "志路原",
    "town_kana": "シジハラ",
    "street": null,
    "office_name": null,
    "office_name_kana": null
  },
  "1702": {
    "postcode": "7311702",
    "prefecture": "広島県",
    "prefecture_kana": "ヒロシマケン",
    "prefecture_code": 34,
    "city": "山県郡北広島町",
    "city_kana": "ヤマガタグンキタヒロシマチョウ",
    "town": "上石",
    "town_kana": "カミイシ",
    "street": null,
    "office_name": null,
    "office_name_kana": null
  },
  "1703": {
    "postcode": "7311703",
    "prefecture": "広島県",
    "prefecture_kana": "ヒロシマケン",
    "prefecture_code": 34,
    "city": "山県郡北広島町",
    "city_kana": "ヤマガタグンキタヒロシマチョウ",
    "town": "海応寺",
    "town_kana": "カイオウジ",
    "street": null,
    "office_name": null,
    "office_name_kana": null
  },
  "1704": {
    "postcode": "7311704",
    "prefecture": "広島県",
    "prefecture_kana": "ヒロシマケン",
    "prefecture_code": 34,
    "city": "山県郡北広島町",
    "city_kana": "ヤマガタグンキタヒロシマチョウ",
    "town": "下石",
    "town_kana": "シモイシ",
    "street": null,
    "office_name": null,
    "office_name_kana": null
  },
  "1705": {
    "postcode": "7311705",
    "prefecture": "広島県",
    "prefecture_kana": "ヒロシマケン",
    "prefecture_code": 34,
    "city": "山県郡北広島町",
    "city_kana": "ヤマガタグンキタヒロシマチョウ",
    "town": "西宗",
    "town_kana": "ニシムネ",
    "street": null,
    "office_name": null,
    "office_name_kana": null
  },
  "1706": {
    "postcode": "7311706",
    "prefecture": "広島県",
    "prefecture_kana": "ヒロシマケン",
    "prefecture_code": 34,
    "city": "山県郡北広島町",
    "city_kana": "ヤマガタグンキタヒロシマチョウ",
    "town": "中原",
    "town_kana": "ナカバラ",
    "street": null,
    "office_name": null,
    "office_name_kana": null
  },
  "1711": {
    "postcode": "7311711",
    "prefecture": "広島県",
    "prefecture_kana": "ヒロシマケン",
    "prefecture_code": 34,
    "city": "山県郡北広島町",
    "city_kana": "ヤマガタグンキタヒロシマチョウ",
    "town": "戸谷",
    "town_kana": "トダニ",
    "street": null,
    "office_name": null,
    "office_name_kana": null
  },
  "1712": {
    "postcode": "7311712",
    "prefecture": "広島県",
    "prefecture_kana": "ヒロシマケン",
    "prefecture_code": 34,
    "city": "山県郡北広島町",
    "city_kana": "ヤマガタグンキタヒロシマチョウ",
    "town": "都志見",
    "town_kana": "ツシミ",
    "street": null,
    "office_name": null,
    "office_name_kana": null
  },
  "1713": {
    "postcode": "7311713",
    "prefecture": "広島県",
    "prefecture_kana": "ヒロシマケン",
    "prefecture_code": 34,
    "city": "山県郡北広島町",
    "city_kana": "ヤマガタグンキタヒロシマチョウ",
    "town": "長笹",
    "town_kana": "ナガササ",
    "street": null,
    "office_name": null,
    "office_name_kana": null
  },
  "1714": [
    {
      "postcode": "7311714",
      "prefecture": "広島県",
      "prefecture_kana": "ヒロシマケン",
      "prefecture_code": 34,
      "city": "山県郡北広島町",
      "city_kana": "ヤマガタグンキタヒロシマチョウ",
      "town": "吉木",
      "town_kana": "ヨシキ",
      "street": null,
      "office_name": null,
      "office_name_kana": null
    },
    {
      "postcode": "7311714",
      "prefecture": "広島県",
      "prefecture_kana": "ヒロシマケン",
      "prefecture_code": 34,
      "city": "山県郡北広島町",
      "city_kana": "ヤマガタグンキタヒロシマチョウ",
      "town": "吉木水根",
      "town_kana": "ヨシキミノネ",
      "street": null,
      "office_name": null,
      "office_name_kana": null
    }
  ],
  "1795": {
    "postcode": "7311795",
    "prefecture": "広島県",
    "prefecture_kana": "ヒロシマケン",
    "prefecture_code": 34,
    "city": "山県郡北広島町",
    "city_kana": "ヤマガタグンキタヒロシマチョウ",
    "town": "戸谷",
    "town_kana": "トダニ",
    "street": "１０８８−１",
    "office_name": "北広島町役場　豊平支所",
    "office_name_kana": "キタヒロシマチヨウヤクバ トヨヒラシシヨ"
  },
  "2101": {
    "postcode": "7312101",
    "prefecture": "広島県",
    "prefecture_kana": "ヒロシマケン",
    "prefecture_code": 34,
    "city": "山県郡北広島町",
    "city_kana": "ヤマガタグンキタヒロシマチョウ",
    "town": "宮迫",
    "town_kana": "ミヤザコ",
    "street": null,
    "office_name": null,
    "office_name_kana": null
  },
  "2102": {
    "postcode": "7312102",
    "prefecture": "広島県",
    "prefecture_kana": "ヒロシマケン",
    "prefecture_code": 34,
    "city": "山県郡北広島町",
    "city_kana": "ヤマガタグンキタヒロシマチョウ",
    "town": "岩戸",
    "town_kana": "イワド",
    "street": null,
    "office_name": null,
    "office_name_kana": null
  },
  "2103": {
    "postcode": "7312103",
    "prefecture": "広島県",
    "prefecture_kana": "ヒロシマケン",
    "prefecture_code": 34,
    "city": "山県郡北広島町",
    "city_kana": "ヤマガタグンキタヒロシマチョウ",
    "town": "新庄",
    "town_kana": "シンジョウ",
    "street": null,
    "office_name": null,
    "office_name_kana": null
  },
  "2104": {
    "postcode": "7312104",
    "prefecture": "広島県",
    "prefecture_kana": "ヒロシマケン",
    "prefecture_code": 34,
    "city": "山県郡北広島町",
    "city_kana": "ヤマガタグンキタヒロシマチョウ",
    "town": "大朝",
    "town_kana": "オオアサ",
    "street": null,
    "office_name": null,
    "office_name_kana": null
  },
  "2105": {
    "postcode": "7312105",
    "prefecture": "広島県",
    "prefecture_kana": "ヒロシマケン",
    "prefecture_code": 34,
    "city": "山県郡北広島町",
    "city_kana": "ヤマガタグンキタヒロシマチョウ",
    "town": "田原",
    "town_kana": "タワラ",
    "street": null,
    "office_name": null,
    "office_name_kana": null
  },
  "2106": {
    "postcode": "7312106",
    "prefecture": "広島県",
    "prefecture_kana": "ヒロシマケン",
    "prefecture_code": 34,
    "city": "山県郡北広島町",
    "city_kana": "ヤマガタグンキタヒロシマチョウ",
    "town": "筏津",
    "town_kana": "イカダツ",
    "street": null,
    "office_name": null,
    "office_name_kana": null
  },
  "2107": {
    "postcode": "7312107",
    "prefecture": "広島県",
    "prefecture_kana": "ヒロシマケン",
    "prefecture_code": 34,
    "city": "山県郡北広島町",
    "city_kana": "ヤマガタグンキタヒロシマチョウ",
    "town": "大塚",
    "town_kana": "オオツカ",
    "street": null,
    "office_name": null,
    "office_name_kana": null
  },
  "2195": {
    "postcode": "7312195",
    "prefecture": "広島県",
    "prefecture_kana": "ヒロシマケン",
    "prefecture_code": 34,
    "city": "山県郡北広島町",
    "city_kana": "ヤマガタグンキタヒロシマチョウ",
    "town": "大朝",
    "town_kana": "オオアサ",
    "street": "２４９３",
    "office_name": "北広島町役場　大朝支所",
    "office_name_kana": "キタヒロシマチヨウヤクバ オオアサシシヨ"
  },
  "2198": {
    "postcode": "7312198",
    "prefecture": "広島県",
    "prefecture_kana": "ヒロシマケン",
    "prefecture_code": 34,
    "city": "山県郡北広島町",
    "city_kana": "ヤマガタグンキタヒロシマチョウ",
    "town": "新庄",
    "town_kana": "シンジョウ",
    "street": "８４８",
    "office_name": "学校法人　広島県新庄学園",
    "office_name_kana": "ガツコウホウジン ヒロシマケンシンジヨウガクエン"
  },
  "2201": {
    "postcode": "7312201",
    "prefecture": "広島県",
    "prefecture_kana": "ヒロシマケン",
    "prefecture_code": 34,
    "city": "山県郡北広島町",
    "city_kana": "ヤマガタグンキタヒロシマチョウ",
    "town": "高野",
    "town_kana": "タカノ",
    "street": null,
    "office_name": null,
    "office_name_kana": null
  },
  "2202": {
    "postcode": "7312202",
    "prefecture": "広島県",
    "prefecture_kana": "ヒロシマケン",
    "prefecture_code": 34,
    "city": "山県郡北広島町",
    "city_kana": "ヤマガタグンキタヒロシマチョウ",
    "town": "溝口",
    "town_kana": "ミゾグチ",
    "street": null,
    "office_name": null,
    "office_name_kana": null
  },
  "2203": {
    "postcode": "7312203",
    "prefecture": "広島県",
    "prefecture_kana": "ヒロシマケン",
    "prefecture_code": 34,
    "city": "山県郡北広島町",
    "city_kana": "ヤマガタグンキタヒロシマチョウ",
    "town": "小原",
    "town_kana": "コバラ",
    "street": null,
    "office_name": null,
    "office_name_kana": null
  },
  "2204": {
    "postcode": "7312204",
    "prefecture": "広島県",
    "prefecture_kana": "ヒロシマケン",
    "prefecture_code": 34,
    "city": "山県郡北広島町",
    "city_kana": "ヤマガタグンキタヒロシマチョウ",
    "town": "大暮",
    "town_kana": "オオグレ",
    "street": null,
    "office_name": null,
    "office_name_kana": null
  },
  "2205": {
    "postcode": "7312205",
    "prefecture": "広島県",
    "prefecture_kana": "ヒロシマケン",
    "prefecture_code": 34,
    "city": "山県郡北広島町",
    "city_kana": "ヤマガタグンキタヒロシマチョウ",
    "town": "米沢",
    "town_kana": "ヨネザワ",
    "street": null,
    "office_name": null,
    "office_name_kana": null
  },
  "2206": {
    "postcode": "7312206",
    "prefecture": "広島県",
    "prefecture_kana": "ヒロシマケン",
    "prefecture_code": 34,
    "city": "山県郡北広島町",
    "city_kana": "ヤマガタグンキタヒロシマチョウ",
    "town": "移原",
    "town_kana": "ウツノハラ",
    "street": null,
    "office_name": null,
    "office_name_kana": null
  },
  "2311": {
    "postcode": "7312311",
    "prefecture": "広島県",
    "prefecture_kana": "ヒロシマケン",
    "prefecture_code": 34,
    "city": "山県郡北広島町",
    "city_kana": "ヤマガタグンキタヒロシマチョウ",
    "town": "土橋",
    "town_kana": "ツチハシ",
    "street": null,
    "office_name": null,
    "office_name_kana": null
  },
  "2312": {
    "postcode": "7312312",
    "prefecture": "広島県",
    "prefecture_kana": "ヒロシマケン",
    "prefecture_code": 34,
    "city": "山県郡北広島町",
    "city_kana": "ヤマガタグンキタヒロシマチョウ",
    "town": "奥原",
    "town_kana": "オクハラ",
    "street": null,
    "office_name": null,
    "office_name_kana": null
  },
  "2313": {
    "postcode": "7312313",
    "prefecture": "広島県",
    "prefecture_kana": "ヒロシマケン",
    "prefecture_code": 34,
    "city": "山県郡北広島町",
    "city_kana": "ヤマガタグンキタヒロシマチョウ",
    "town": "草安",
    "town_kana": "クサヤス",
    "street": null,
    "office_name": null,
    "office_name_kana": null
  },
  "2314": {
    "postcode": "7312314",
    "prefecture": "広島県",
    "prefecture_kana": "ヒロシマケン",
    "prefecture_code": 34,
    "city": "山県郡北広島町",
    "city_kana": "ヤマガタグンキタヒロシマチョウ",
    "town": "才乙",
    "town_kana": "サヨオト",
    "street": null,
    "office_name": null,
    "office_name_kana": null
  },
  "2315": {
    "postcode": "7312315",
    "prefecture": "広島県",
    "prefecture_kana": "ヒロシマケン",
    "prefecture_code": 34,
    "city": "山県郡北広島町",
    "city_kana": "ヤマガタグンキタヒロシマチョウ",
    "town": "大利原",
    "town_kana": "オオトシバラ",
    "street": null,
    "office_name": null,
    "office_name_kana": null
  },
  "2316": {
    "postcode": "7312316",
    "prefecture": "広島県",
    "prefecture_kana": "ヒロシマケン",
    "prefecture_code": 34,
    "city": "山県郡北広島町",
    "city_kana": "ヤマガタグンキタヒロシマチョウ",
    "town": "南門原",
    "town_kana": "ナモンバラ",
    "street": null,
    "office_name": null,
    "office_name_kana": null
  },
  "2317": {
    "postcode": "7312317",
    "prefecture": "広島県",
    "prefecture_kana": "ヒロシマケン",
    "prefecture_code": 34,
    "city": "山県郡北広島町",
    "city_kana": "ヤマガタグンキタヒロシマチョウ",
    "town": "苅屋形",
    "town_kana": "カリヤガタ",
    "street": null,
    "office_name": null,
    "office_name_kana": null
  },
  "2321": {
    "postcode": "7312321",
    "prefecture": "広島県",
    "prefecture_kana": "ヒロシマケン",
    "prefecture_code": 34,
    "city": "山県郡北広島町",
    "city_kana": "ヤマガタグンキタヒロシマチョウ",
    "town": "板村",
    "town_kana": "イタムラ",
    "street": null,
    "office_name": null,
    "office_name_kana": null
  },
  "2322": {
    "postcode": "7312322",
    "prefecture": "広島県",
    "prefecture_kana": "ヒロシマケン",
    "prefecture_code": 34,
    "city": "山県郡北広島町",
    "city_kana": "ヤマガタグンキタヒロシマチョウ",
    "town": "細見",
    "town_kana": "ホソミ",
    "street": null,
    "office_name": null,
    "office_name_kana": null
  },
  "2323": {
    "postcode": "7312323",
    "prefecture": "広島県",
    "prefecture_kana": "ヒロシマケン",
    "prefecture_code": 34,
    "city": "山県郡北広島町",
    "city_kana": "ヤマガタグンキタヒロシマチョウ",
    "town": "川小田",
    "town_kana": "カワコダ",
    "street": null,
    "office_name": null,
    "office_name_kana": null
  },
  "2324": {
    "postcode": "7312324",
    "prefecture": "広島県",
    "prefecture_kana": "ヒロシマケン",
    "prefecture_code": 34,
    "city": "山県郡北広島町",
    "city_kana": "ヤマガタグンキタヒロシマチョウ",
    "town": "奥中原",
    "town_kana": "オクナカバラ",
    "street": null,
    "office_name": null,
    "office_name_kana": null
  },
  "2431": {
    "postcode": "7312431",
    "prefecture": "広島県",
    "prefecture_kana": "ヒロシマケン",
    "prefecture_code": 34,
    "city": "山県郡北広島町",
    "city_kana": "ヤマガタグンキタヒロシマチョウ",
    "town": "荒神原",
    "town_kana": "コウジンバラ",
    "street": null,
    "office_name": null,
    "office_name_kana": null
  },
  "2432": {
    "postcode": "7312432",
    "prefecture": "広島県",
    "prefecture_kana": "ヒロシマケン",
    "prefecture_code": 34,
    "city": "山県郡北広島町",
    "city_kana": "ヤマガタグンキタヒロシマチョウ",
    "town": "中祖",
    "town_kana": "ナカソ",
    "street": null,
    "office_name": null,
    "office_name_kana": null
  },
  "2433": {
    "postcode": "7312433",
    "prefecture": "広島県",
    "prefecture_kana": "ヒロシマケン",
    "prefecture_code": 34,
    "city": "山県郡北広島町",
    "city_kana": "ヤマガタグンキタヒロシマチョウ",
    "town": "吉見坂",
    "town_kana": "ヨシミザカ",
    "street": null,
    "office_name": null,
    "office_name_kana": null
  },
  "2434": {
    "postcode": "7312434",
    "prefecture": "広島県",
    "prefecture_kana": "ヒロシマケン",
    "prefecture_code": 34,
    "city": "山県郡北広島町",
    "city_kana": "ヤマガタグンキタヒロシマチョウ",
    "town": "橋山",
    "town_kana": "ハシヤマ",
    "street": null,
    "office_name": null,
    "office_name_kana": null
  },
  "2435": {
    "postcode": "7312435",
    "prefecture": "広島県",
    "prefecture_kana": "ヒロシマケン",
    "prefecture_code": 34,
    "city": "山県郡北広島町",
    "city_kana": "ヤマガタグンキタヒロシマチョウ",
    "town": "空城",
    "town_kana": "ソラジョウ",
    "street": null,
    "office_name": null,
    "office_name_kana": null
  },
  "2436": {
    "postcode": "7312436",
    "prefecture": "広島県",
    "prefecture_kana": "ヒロシマケン",
    "prefecture_code": 34,
    "city": "山県郡北広島町",
    "city_kana": "ヤマガタグンキタヒロシマチョウ",
    "town": "政所",
    "town_kana": "マンドコロ",
    "street": null,
    "office_name": null,
    "office_name_kana": null
  },
  "2437": {
    "postcode": "7312437",
    "prefecture": "広島県",
    "prefecture_kana": "ヒロシマケン",
    "prefecture_code": 34,
    "city": "山県郡北広島町",
    "city_kana": "ヤマガタグンキタヒロシマチョウ",
    "town": "大元",
    "town_kana": "オオモト",
    "street": null,
    "office_name": null,
    "office_name_kana": null
  },
  "2441": {
    "postcode": "7312441",
    "prefecture": "広島県",
    "prefecture_kana": "ヒロシマケン",
    "prefecture_code": 34,
    "city": "山県郡北広島町",
    "city_kana": "ヤマガタグンキタヒロシマチョウ",
    "town": "宮地",
    "town_kana": "ミヤジ",
    "street": null,
    "office_name": null,
    "office_name_kana": null
  },
  "2442": {
    "postcode": "7312442",
    "prefecture": "広島県",
    "prefecture_kana": "ヒロシマケン",
    "prefecture_code": 34,
    "city": "山県郡北広島町",
    "city_kana": "ヤマガタグンキタヒロシマチョウ",
    "town": "雲耕",
    "town_kana": "ウズノウ",
    "street": null,
    "office_name": null,
    "office_name_kana": null
  },
  "2551": {
    "postcode": "7312551",
    "prefecture": "広島県",
    "prefecture_kana": "ヒロシマケン",
    "prefecture_code": 34,
    "city": "山県郡北広島町",
    "city_kana": "ヤマガタグンキタヒロシマチョウ",
    "town": "東八幡原",
    "town_kana": "ヒガシヤワタハラ",
    "street": null,
    "office_name": null,
    "office_name_kana": null
  },
  "2552": {
    "postcode": "7312552",
    "prefecture": "広島県",
    "prefecture_kana": "ヒロシマケン",
    "prefecture_code": 34,
    "city": "山県郡北広島町",
    "city_kana": "ヤマガタグンキタヒロシマチョウ",
    "town": "西八幡原",
    "town_kana": "ニシヤワタハラ",
    "street": null,
    "office_name": null,
    "office_name_kana": null
  },
  "3161": {
    "postcode": "7313161",
    "prefecture": "広島県",
    "prefecture_kana": "ヒロシマケン",
    "prefecture_code": 34,
    "city": "広島市安佐南区",
    "city_kana": "ヒロシマシアサミナミク",
    "town": "沼田町伴",
    "town_kana": "ヌマタチョウトモ",
    "street": null,
    "office_name": null,
    "office_name_kana": null
  },
  "3163": {
    "postcode": "7313163",
    "prefecture": "広島県",
    "prefecture_kana": "ヒロシマケン",
    "prefecture_code": 34,
    "city": "広島市安佐南区",
    "city_kana": "ヒロシマシアサミナミク",
    "town": "伴北",
    "town_kana": "トモキタ",
    "street": null,
    "office_name": null,
    "office_name_kana": null
  },
  "3164": {
    "postcode": "7313164",
    "prefecture": "広島県",
    "prefecture_kana": "ヒロシマケン",
    "prefecture_code": 34,
    "city": "広島市安佐南区",
    "city_kana": "ヒロシマシアサミナミク",
    "town": "伴東",
    "town_kana": "トモヒガシ",
    "street": null,
    "office_name": null,
    "office_name_kana": null
  },
  "3165": {
    "postcode": "7313165",
    "prefecture": "広島県",
    "prefecture_kana": "ヒロシマケン",
    "prefecture_code": 34,
    "city": "広島市安佐南区",
    "city_kana": "ヒロシマシアサミナミク",
    "town": "伴中央",
    "town_kana": "トモチュウオウ",
    "street": null,
    "office_name": null,
    "office_name_kana": null
  },
  "3166": {
    "postcode": "7313166",
    "prefecture": "広島県",
    "prefecture_kana": "ヒロシマケン",
    "prefecture_code": 34,
    "city": "広島市安佐南区",
    "city_kana": "ヒロシマシアサミナミク",
    "town": "大塚東",
    "town_kana": "オオヅカヒガシ",
    "street": null,
    "office_name": null,
    "office_name_kana": null
  },
  "3167": {
    "postcode": "7313167",
    "prefecture": "広島県",
    "prefecture_kana": "ヒロシマケン",
    "prefecture_code": 34,
    "city": "広島市安佐南区",
    "city_kana": "ヒロシマシアサミナミク",
    "town": "大塚西",
    "town_kana": "オオヅカニシ",
    "street": null,
    "office_name": null,
    "office_name_kana": null
  },
  "3168": {
    "postcode": "7313168",
    "prefecture": "広島県",
    "prefecture_kana": "ヒロシマケン",
    "prefecture_code": 34,
    "city": "広島市安佐南区",
    "city_kana": "ヒロシマシアサミナミク",
    "town": "伴南",
    "town_kana": "トモミナミ",
    "street": null,
    "office_name": null,
    "office_name_kana": null
  },
  "3169": {
    "postcode": "7313169",
    "prefecture": "広島県",
    "prefecture_kana": "ヒロシマケン",
    "prefecture_code": 34,
    "city": "広島市安佐南区",
    "city_kana": "ヒロシマシアサミナミク",
    "town": "伴西",
    "town_kana": "トモニシ",
    "street": null,
    "office_name": null,
    "office_name_kana": null
  },
  "3171": {
    "postcode": "7313171",
    "prefecture": "広島県",
    "prefecture_kana": "ヒロシマケン",
    "prefecture_code": 34,
    "city": "広島市安佐南区",
    "city_kana": "ヒロシマシアサミナミク",
    "town": "伴北町",
    "town_kana": "トモキタマチ",
    "street": null,
    "office_name": null,
    "office_name_kana": null
  },
  "3172": {
    "postcode": "7313172",
    "prefecture": "広島県",
    "prefecture_kana": "ヒロシマケン",
    "prefecture_code": 34,
    "city": "広島市安佐南区",
    "city_kana": "ヒロシマシアサミナミク",
    "town": "伴東町",
    "town_kana": "トモヒガシマチ",
    "street": null,
    "office_name": null,
    "office_name_kana": null
  },
  "3173": {
    "postcode": "7313173",
    "prefecture": "広島県",
    "prefecture_kana": "ヒロシマケン",
    "prefecture_code": 34,
    "city": "広島市安佐南区",
    "city_kana": "ヒロシマシアサミナミク",
    "town": "大塚東町",
    "town_kana": "オオヅカヒガシマチ",
    "street": null,
    "office_name": null,
    "office_name_kana": null
  },
  "3174": {
    "postcode": "7313174",
    "prefecture": "広島県",
    "prefecture_kana": "ヒロシマケン",
    "prefecture_code": 34,
    "city": "広島市安佐南区",
    "city_kana": "ヒロシマシアサミナミク",
    "town": "大塚西町",
    "town_kana": "オオヅカニシマチ",
    "street": null,
    "office_name": null,
    "office_name_kana": null
  },
  "3175": {
    "postcode": "7313175",
    "prefecture": "広島県",
    "prefecture_kana": "ヒロシマケン",
    "prefecture_code": 34,
    "city": "広島市安佐南区",
    "city_kana": "ヒロシマシアサミナミク",
    "town": "伴西町",
    "town_kana": "トモニシマチ",
    "street": null,
    "office_name": null,
    "office_name_kana": null
  },
  "3192": {
    "postcode": "7313192",
    "prefecture": "広島県",
    "prefecture_kana": "ヒロシマケン",
    "prefecture_code": 34,
    "city": "広島市安佐南区",
    "city_kana": "ヒロシマシアサミナミク",
    "town": "伴西",
    "town_kana": "トモニシ",
    "street": "１丁目１−１",
    "office_name": "沼田自動車学校",
    "office_name_kana": "ヌマタジドウシヤガツコウ"
  },
  "3193": {
    "postcode": "7313193",
    "prefecture": "広島県",
    "prefecture_kana": "ヒロシマケン",
    "prefecture_code": 34,
    "city": "広島市安佐南区",
    "city_kana": "ヒロシマシアサミナミク",
    "town": "沼田町大字伴",
    "town_kana": null,
    "street": "１６４",
    "office_name": "山星屋",
    "office_name_kana": "ヤマホシヤ"
  },
  "3194": {
    "postcode": "7313194",
    "prefecture": "広島県",
    "prefecture_kana": "ヒロシマケン",
    "prefecture_code": 34,
    "city": "広島市安佐南区",
    "city_kana": "ヒロシマシアサミナミク",
    "town": "大塚東",
    "town_kana": "オオヅカヒガシ",
    "street": "３丁目４−１",
    "office_name": "広島市立大学",
    "office_name_kana": "ヒロシマシリツダイガク"
  },
  "3195": {
    "postcode": "7313195",
    "prefecture": "広島県",
    "prefecture_kana": "ヒロシマケン",
    "prefecture_code": 34,
    "city": "広島市安佐南区",
    "city_kana": "ヒロシマシアサミナミク",
    "town": "大塚東",
    "town_kana": "オオヅカヒガシ",
    "street": "１丁目１−１",
    "office_name": "広島修道大学",
    "office_name_kana": "ヒロシマシユウドウダイガク"
  },
  "3196": {
    "postcode": "7313196",
    "prefecture": "広島県",
    "prefecture_kana": "ヒロシマケン",
    "prefecture_code": 34,
    "city": "広島市安佐南区",
    "city_kana": "ヒロシマシアサミナミク",
    "town": "沼田町大字伴",
    "town_kana": null,
    "street": "７９−２",
    "office_name": "株式会社　山豊",
    "office_name_kana": "カブシキガイシヤ ヤマトヨ"
  },
  "3198": {
    "postcode": "7313198",
    "prefecture": "広島県",
    "prefecture_kana": "ヒロシマケン",
    "prefecture_code": 34,
    "city": "広島市安佐南区",
    "city_kana": "ヒロシマシアサミナミク",
    "town": "伴西",
    "town_kana": "トモニシ",
    "street": "３丁目３番２−２階",
    "office_name": "株式会社　中国シジシー",
    "office_name_kana": "カブシキガイシヤ チユウゴクシジシ-"
  },
  "3271": {
    "postcode": "7313271",
    "prefecture": "広島県",
    "prefecture_kana": "ヒロシマケン",
    "prefecture_code": 34,
    "city": "広島市安佐南区",
    "city_kana": "ヒロシマシアサミナミク",
    "town": "沼田町阿戸",
    "town_kana": "ヌマタチョウアト",
    "street": null,
    "office_name": null,
    "office_name_kana": null
  },
  "3272": {
    "postcode": "7313272",
    "prefecture": "広島県",
    "prefecture_kana": "ヒロシマケン",
    "prefecture_code": 34,
    "city": "広島市安佐南区",
    "city_kana": "ヒロシマシアサミナミク",
    "town": "沼田町吉山",
    "town_kana": "ヌマタチョウヨシヤマ",
    "street": null,
    "office_name": null,
    "office_name_kana": null
  },
  "3351": {
    "postcode": "7313351",
    "prefecture": "広島県",
    "prefecture_kana": "ヒロシマケン",
    "prefecture_code": 34,
    "city": "広島市安佐北区",
    "city_kana": "ヒロシマシアサキタク",
    "town": "安佐町毛木",
    "town_kana": "アサチョウケギ",
    "street": null,
    "office_name": null,
    "office_name_kana": null
  },
  "3352": {
    "postcode": "7313352",
    "prefecture": "広島県",
    "prefecture_kana": "ヒロシマケン",
    "prefecture_code": 34,
    "city": "広島市安佐北区",
    "city_kana": "ヒロシマシアサキタク",
    "town": "安佐町後山",
    "town_kana": "アサチョウウシロヤマ",
    "street": null,
    "office_name": null,
    "office_name_kana": null
  },
  "3353": {
    "postcode": "7313353",
    "prefecture": "広島県",
    "prefecture_kana": "ヒロシマケン",
    "prefecture_code": 34,
    "city": "広島市安佐北区",
    "city_kana": "ヒロシマシアサキタク",
    "town": "安佐町宮野",
    "town_kana": "アサチョウミヤノ",
    "street": null,
    "office_name": null,
    "office_name_kana": null
  },
  "3354": {
    "postcode": "7313354",
    "prefecture": "広島県",
    "prefecture_kana": "ヒロシマケン",
    "prefecture_code": 34,
    "city": "広島市安佐北区",
    "city_kana": "ヒロシマシアサキタク",
    "town": "安佐町筒瀬",
    "town_kana": "アサチョウツツセ",
    "street": null,
    "office_name": null,
    "office_name_kana": null
  },
  "3355": {
    "postcode": "7313355",
    "prefecture": "広島県",
    "prefecture_kana": "ヒロシマケン",
    "prefecture_code": 34,
    "city": "広島市安佐北区",
    "city_kana": "ヒロシマシアサキタク",
    "town": "安佐町動物園",
    "town_kana": "アサチョウドウブツエン",
    "street": null,
    "office_name": null,
    "office_name_kana": null
  },
  "3361": {
    "postcode": "7313361",
    "prefecture": "広島県",
    "prefecture_kana": "ヒロシマケン",
    "prefecture_code": 34,
    "city": "広島市安佐北区",
    "city_kana": "ヒロシマシアサキタク",
    "town": "あさひが丘",
    "town_kana": "アサヒガオカ",
    "street": null,
    "office_name": null,
    "office_name_kana": null
  },
  "3362": {
    "postcode": "7313362",
    "prefecture": "広島県",
    "prefecture_kana": "ヒロシマケン",
    "prefecture_code": 34,
    "city": "広島市安佐北区",
    "city_kana": "ヒロシマシアサキタク",
    "town": "安佐町久地",
    "town_kana": "アサチョウクチ",
    "street": null,
    "office_name": null,
    "office_name_kana": null
  },
  "3363": {
    "postcode": "7313363",
    "prefecture": "広島県",
    "prefecture_kana": "ヒロシマケン",
    "prefecture_code": 34,
    "city": "広島市安佐北区",
    "city_kana": "ヒロシマシアサキタク",
    "town": "安佐町くすの木台",
    "town_kana": "アサチョウクスノキダイ",
    "street": null,
    "office_name": null,
    "office_name_kana": null
  },
  "3393": {
    "postcode": "7313393",
    "prefecture": "広島県",
    "prefecture_kana": "ヒロシマケン",
    "prefecture_code": 34,
    "city": "広島市安佐北区",
    "city_kana": "ヒロシマシアサキタク",
    "town": "安佐町大字久地",
    "town_kana": null,
    "street": "２０２９−５",
    "office_name": "株式会社　ユーメックス",
    "office_name_kana": "カブシキガイシヤ ユ-メツクス"
  },
  "3395": {
    "postcode": "7313395",
    "prefecture": "広島県",
    "prefecture_kana": "ヒロシマケン",
    "prefecture_code": 34,
    "city": "広島市安佐北区",
    "city_kana": "ヒロシマシアサキタク",
    "town": "安佐町大字久地",
    "town_kana": null,
    "street": "６６５−１",
    "office_name": "株式会社　ポプラ",
    "office_name_kana": "カブシキガイシヤ ポプラ"
  },
  "3398": {
    "postcode": "7313398",
    "prefecture": "広島県",
    "prefecture_kana": "ヒロシマケン",
    "prefecture_code": 34,
    "city": "広島市安佐北区",
    "city_kana": "ヒロシマシアサキタク",
    "town": "安佐町大字後山",
    "town_kana": null,
    "street": "２４１５−６",
    "office_name": "ＩＧＬ健康福祉専門学校",
    "office_name_kana": "アイジイエルケンコウフクシセンモンガツコウ"
  },
  "3411": {
    "postcode": "7313411",
    "prefecture": "広島県",
    "prefecture_kana": "ヒロシマケン",
    "prefecture_code": 34,
    "city": "山県郡安芸太田町",
    "city_kana": "ヤマガタグンアキオオタチョウ",
    "town": "穴",
    "town_kana": "アナ",
    "street": null,
    "office_name": null,
    "office_name_kana": null
  },
  "3412": {
    "postcode": "7313412",
    "prefecture": "広島県",
    "prefecture_kana": "ヒロシマケン",
    "prefecture_code": 34,
    "city": "山県郡安芸太田町",
    "city_kana": "ヤマガタグンアキオオタチョウ",
    "town": "坪野",
    "town_kana": "ツボノ",
    "street": null,
    "office_name": null,
    "office_name_kana": null
  },
  "3500": {
    "postcode": "7313500",
    "prefecture": "広島県",
    "prefecture_kana": "ヒロシマケン",
    "prefecture_code": 34,
    "city": "山県郡安芸太田町",
    "city_kana": "ヤマガタグンアキオオタチョウ",
    "town": "",
    "town_kana": "",
    "street": null,
    "office_name": null,
    "office_name_kana": null
  },
  "3501": {
    "postcode": "7313501",
    "prefecture": "広島県",
    "prefecture_kana": "ヒロシマケン",
    "prefecture_code": 34,
    "city": "山県郡安芸太田町",
    "city_kana": "ヤマガタグンアキオオタチョウ",
    "town": "加計",
    "town_kana": "カケ",
    "street": null,
    "office_name": null,
    "office_name_kana": null
  },
  "3502": {
    "postcode": "7313502",
    "prefecture": "広島県",
    "prefecture_kana": "ヒロシマケン",
    "prefecture_code": 34,
    "city": "山県郡安芸太田町",
    "city_kana": "ヤマガタグンアキオオタチョウ",
    "town": "津浪",
    "town_kana": "ツナミ",
    "street": null,
    "office_name": null,
    "office_name_kana": null
  },
  "3503": {
    "postcode": "7313503",
    "prefecture": "広島県",
    "prefecture_kana": "ヒロシマケン",
    "prefecture_code": 34,
    "city": "山県郡安芸太田町",
    "city_kana": "ヤマガタグンアキオオタチョウ",
    "town": "観音",
    "town_kana": "カンノン",
    "street": null,
    "office_name": null,
    "office_name_kana": null
  },
  "3551": {
    "postcode": "7313551",
    "prefecture": "広島県",
    "prefecture_kana": "ヒロシマケン",
    "prefecture_code": 34,
    "city": "山県郡安芸太田町",
    "city_kana": "ヤマガタグンアキオオタチョウ",
    "town": "猪山",
    "town_kana": "イノシヤマ",
    "street": null,
    "office_name": null,
    "office_name_kana": null
  },
  "3552": {
    "postcode": "7313552",
    "prefecture": "広島県",
    "prefecture_kana": "ヒロシマケン",
    "prefecture_code": 34,
    "city": "山県郡安芸太田町",
    "city_kana": "ヤマガタグンアキオオタチョウ",
    "town": "平見谷",
    "town_kana": "ヒラミダニ",
    "street": null,
    "office_name": null,
    "office_name_kana": null
  },
  "3561": [
    {
      "postcode": "7313561",
      "prefecture": "広島県",
      "prefecture_kana": "ヒロシマケン",
      "prefecture_code": 34,
      "city": "山県郡北広島町",
      "city_kana": "ヤマガタグンキタヒロシマチョウ",
      "town": "細見",
      "town_kana": "ホソミ",
      "street": null,
      "office_name": null,
      "office_name_kana": null
    },
    {
      "postcode": "7313561",
      "prefecture": "広島県",
      "prefecture_kana": "ヒロシマケン",
      "prefecture_code": 34,
      "city": "山県郡北広島町",
      "city_kana": "ヤマガタグンキタヒロシマチョウ",
      "town": "細見下山",
      "town_kana": "ホソミシモヤマ",
      "street": null,
      "office_name": null,
      "office_name_kana": null
    }
  ],
  "3595": {
    "postcode": "7313595",
    "prefecture": "広島県",
    "prefecture_kana": "ヒロシマケン",
    "prefecture_code": 34,
    "city": "山県郡安芸太田町",
    "city_kana": "ヤマガタグンアキオオタチョウ",
    "town": "大字加計",
    "town_kana": null,
    "street": "３５０５−４",
    "office_name": "安芸太田町役場　加計支所",
    "office_name_kana": "アキオオタチヨウヤクバ カケシシヨ"
  },
  "3621": {
    "postcode": "7313621",
    "prefecture": "広島県",
    "prefecture_kana": "ヒロシマケン",
    "prefecture_code": 34,
    "city": "山県郡安芸太田町",
    "city_kana": "ヤマガタグンアキオオタチョウ",
    "town": "下筒賀",
    "town_kana": "シモツツガ",
    "street": null,
    "office_name": null,
    "office_name_kana": null
  },
  "3622": {
    "postcode": "7313622",
    "prefecture": "広島県",
    "prefecture_kana": "ヒロシマケン",
    "prefecture_code": 34,
    "city": "山県郡安芸太田町",
    "city_kana": "ヤマガタグンアキオオタチョウ",
    "town": "下殿河内",
    "town_kana": "シモトノゴウチ",
    "street": null,
    "office_name": null,
    "office_name_kana": null
  },
  "3664": {
    "postcode": "7313664",
    "prefecture": "広島県",
    "prefecture_kana": "ヒロシマケン",
    "prefecture_code": 34,
    "city": "山県郡安芸太田町",
    "city_kana": "ヤマガタグンアキオオタチョウ",
    "town": "上殿",
    "town_kana": "カミトノ",
    "street": null,
    "office_name": null,
    "office_name_kana": null
  },
  "3701": {
    "postcode": "7313701",
    "prefecture": "広島県",
    "prefecture_kana": "ヒロシマケン",
    "prefecture_code": 34,
    "city": "山県郡安芸太田町",
    "city_kana": "ヤマガタグンアキオオタチョウ",
    "town": "上筒賀",
    "town_kana": "カミツツガ",
    "street": null,
    "office_name": null,
    "office_name_kana": null
  },
  "3702": {
    "postcode": "7313702",
    "prefecture": "広島県",
    "prefecture_kana": "ヒロシマケン",
    "prefecture_code": 34,
    "city": "山県郡安芸太田町",
    "city_kana": "ヤマガタグンアキオオタチョウ",
    "town": "中筒賀",
    "town_kana": "ナカツツガ",
    "street": null,
    "office_name": null,
    "office_name_kana": null
  },
  "3801": {
    "postcode": "7313801",
    "prefecture": "広島県",
    "prefecture_kana": "ヒロシマケン",
    "prefecture_code": 34,
    "city": "山県郡安芸太田町",
    "city_kana": "ヤマガタグンアキオオタチョウ",
    "town": "横川",
    "town_kana": "ヨコゴウ",
    "street": null,
    "office_name": null,
    "office_name_kana": null
  },
  "3810": {
    "postcode": "7313810",
    "prefecture": "広島県",
    "prefecture_kana": "ヒロシマケン",
    "prefecture_code": 34,
    "city": "山県郡安芸太田町",
    "city_kana": "ヤマガタグンアキオオタチョウ",
    "town": "戸河内",
    "town_kana": "トゴウチ",
    "street": null,
    "office_name": null,
    "office_name_kana": null
  },
  "3812": {
    "postcode": "7313812",
    "prefecture": "広島県",
    "prefecture_kana": "ヒロシマケン",
    "prefecture_code": 34,
    "city": "山県郡安芸太田町",
    "city_kana": "ヤマガタグンアキオオタチョウ",
    "town": "遊谷",
    "town_kana": "アゾウダニ",
    "street": null,
    "office_name": null,
    "office_name_kana": null
  },
  "3813": {
    "postcode": "7313813",
    "prefecture": "広島県",
    "prefecture_kana": "ヒロシマケン",
    "prefecture_code": 34,
    "city": "山県郡安芸太田町",
    "city_kana": "ヤマガタグンアキオオタチョウ",
    "town": "柴木",
    "town_kana": "シワギ",
    "street": null,
    "office_name": null,
    "office_name_kana": null
  },
  "3821": {
    "postcode": "7313821",
    "prefecture": "広島県",
    "prefecture_kana": "ヒロシマケン",
    "prefecture_code": 34,
    "city": "山県郡安芸太田町",
    "city_kana": "ヤマガタグンアキオオタチョウ",
    "town": "土居",
    "town_kana": "ドイ",
    "street": null,
    "office_name": null,
    "office_name_kana": null
  },
  "3824": {
    "postcode": "7313824",
    "prefecture": "広島県",
    "prefecture_kana": "ヒロシマケン",
    "prefecture_code": 34,
    "city": "山県郡安芸太田町",
    "city_kana": "ヤマガタグンアキオオタチョウ",
    "town": "寺領",
    "town_kana": "ジリョウ",
    "street": null,
    "office_name": null,
    "office_name_kana": null
  },
  "3831": {
    "postcode": "7313831",
    "prefecture": "広島県",
    "prefecture_kana": "ヒロシマケン",
    "prefecture_code": 34,
    "city": "山県郡安芸太田町",
    "city_kana": "ヤマガタグンアキオオタチョウ",
    "town": "川手",
    "town_kana": "カワテ",
    "street": null,
    "office_name": null,
    "office_name_kana": null
  },
  "3832": {
    "postcode": "7313832",
    "prefecture": "広島県",
    "prefecture_kana": "ヒロシマケン",
    "prefecture_code": 34,
    "city": "山県郡安芸太田町",
    "city_kana": "ヤマガタグンアキオオタチョウ",
    "town": "梶ノ木",
    "town_kana": "カジノキ",
    "street": null,
    "office_name": null,
    "office_name_kana": null
  },
  "3833": {
    "postcode": "7313833",
    "prefecture": "広島県",
    "prefecture_kana": "ヒロシマケン",
    "prefecture_code": 34,
    "city": "山県郡安芸太田町",
    "city_kana": "ヤマガタグンアキオオタチョウ",
    "town": "板ケ谷",
    "town_kana": "イタガタニ",
    "street": null,
    "office_name": null,
    "office_name_kana": null
  },
  "3834": {
    "postcode": "7313834",
    "prefecture": "広島県",
    "prefecture_kana": "ヒロシマケン",
    "prefecture_code": 34,
    "city": "山県郡安芸太田町",
    "city_kana": "ヤマガタグンアキオオタチョウ",
    "town": "松原",
    "town_kana": "マツバラ",
    "street": null,
    "office_name": null,
    "office_name_kana": null
  },
  "3835": {
    "postcode": "7313835",
    "prefecture": "広島県",
    "prefecture_kana": "ヒロシマケン",
    "prefecture_code": 34,
    "city": "山県郡安芸太田町",
    "city_kana": "ヤマガタグンアキオオタチョウ",
    "town": "小板",
    "town_kana": "コイタ",
    "street": null,
    "office_name": null,
    "office_name_kana": null
  },
  "3842": {
    "postcode": "7313842",
    "prefecture": "広島県",
    "prefecture_kana": "ヒロシマケン",
    "prefecture_code": 34,
    "city": "山県郡安芸太田町",
    "city_kana": "ヤマガタグンアキオオタチョウ",
    "town": "田吹",
    "town_kana": "タブキ",
    "street": null,
    "office_name": null,
    "office_name_kana": null
  },
  "3843": {
    "postcode": "7313843",
    "prefecture": "広島県",
    "prefecture_kana": "ヒロシマケン",
    "prefecture_code": 34,
    "city": "山県郡安芸太田町",
    "city_kana": "ヤマガタグンアキオオタチョウ",
    "town": "吉和郷",
    "town_kana": "ヨシワゴウ",
    "street": null,
    "office_name": null,
    "office_name_kana": null
  },
  "3844": {
    "postcode": "7313844",
    "prefecture": "広島県",
    "prefecture_kana": "ヒロシマケン",
    "prefecture_code": 34,
    "city": "山県郡安芸太田町",
    "city_kana": "ヤマガタグンアキオオタチョウ",
    "town": "打梨",
    "town_kana": "ウツナシ",
    "street": null,
    "office_name": null,
    "office_name_kana": null
  },
  "3845": {
    "postcode": "7313845",
    "prefecture": "広島県",
    "prefecture_kana": "ヒロシマケン",
    "prefecture_code": 34,
    "city": "山県郡安芸太田町",
    "city_kana": "ヤマガタグンアキオオタチョウ",
    "town": "那須",
    "town_kana": "ナス",
    "street": null,
    "office_name": null,
    "office_name_kana": null
  },
  "4200": {
    "postcode": "7314200",
    "prefecture": "広島県",
    "prefecture_kana": "ヒロシマケン",
    "prefecture_code": 34,
    "city": "安芸郡熊野町",
    "city_kana": "アキグンクマノチョウ",
    "town": "",
    "town_kana": "",
    "street": null,
    "office_name": null,
    "office_name_kana": null
  },
  "4211": {
    "postcode": "7314211",
    "prefecture": "広島県",
    "prefecture_kana": "ヒロシマケン",
    "prefecture_code": 34,
    "city": "安芸郡熊野町",
    "city_kana": "アキグンクマノチョウ",
    "town": "新宮",
    "town_kana": "シングウ",
    "street": null,
    "office_name": null,
    "office_name_kana": null
  },
  "4212": {
    "postcode": "7314212",
    "prefecture": "広島県",
    "prefecture_kana": "ヒロシマケン",
    "prefecture_code": 34,
    "city": "安芸郡熊野町",
    "city_kana": "アキグンクマノチョウ",
    "town": "初神",
    "town_kana": "ハツカミ",
    "street": null,
    "office_name": null,
    "office_name_kana": null
  },
  "4213": {
    "postcode": "7314213",
    "prefecture": "広島県",
    "prefecture_kana": "ヒロシマケン",
    "prefecture_code": 34,
    "city": "安芸郡熊野町",
    "city_kana": "アキグンクマノチョウ",
    "town": "萩原",
    "town_kana": "ハギワラ",
    "street": null,
    "office_name": null,
    "office_name_kana": null
  },
  "4214": {
    "postcode": "7314214",
    "prefecture": "広島県",
    "prefecture_kana": "ヒロシマケン",
    "prefecture_code": 34,
    "city": "安芸郡熊野町",
    "city_kana": "アキグンクマノチョウ",
    "town": "中溝",
    "town_kana": "ナカミゾ",
    "street": null,
    "office_name": null,
    "office_name_kana": null
  },
  "4215": {
    "postcode": "7314215",
    "prefecture": "広島県",
    "prefecture_kana": "ヒロシマケン",
    "prefecture_code": 34,
    "city": "安芸郡熊野町",
    "city_kana": "アキグンクマノチョウ",
    "town": "城之堀",
    "town_kana": "ジョウノホリ",
    "street": null,
    "office_name": null,
    "office_name_kana": null
  },
  "4221": {
    "postcode": "7314221",
    "prefecture": "広島県",
    "prefecture_kana": "ヒロシマケン",
    "prefecture_code": 34,
    "city": "安芸郡熊野町",
    "city_kana": "アキグンクマノチョウ",
    "town": "出来庭",
    "town_kana": "デキニワ",
    "street": null,
    "office_name": null,
    "office_name_kana": null
  },
  "4222": {
    "postcode": "7314222",
    "prefecture": "広島県",
    "prefecture_kana": "ヒロシマケン",
    "prefecture_code": 34,
    "city": "安芸郡熊野町",
    "city_kana": "アキグンクマノチョウ",
    "town": "呉地",
    "town_kana": "クレジ",
    "street": null,
    "office_name": null,
    "office_name_kana": null
  },
  "4223": {
    "postcode": "7314223",
    "prefecture": "広島県",
    "prefecture_kana": "ヒロシマケン",
    "prefecture_code": 34,
    "city": "安芸郡熊野町",
    "city_kana": "アキグンクマノチョウ",
    "town": "川角",
    "town_kana": "カワスミ",
    "street": null,
    "office_name": null,
    "office_name_kana": null
  },
  "4224": {
    "postcode": "7314224",
    "prefecture": "広島県",
    "prefecture_kana": "ヒロシマケン",
    "prefecture_code": 34,
    "city": "安芸郡熊野町",
    "city_kana": "アキグンクマノチョウ",
    "town": "神田",
    "town_kana": "カンダ",
    "street": null,
    "office_name": null,
    "office_name_kana": null
  },
  "4225": {
    "postcode": "7314225",
    "prefecture": "広島県",
    "prefecture_kana": "ヒロシマケン",
    "prefecture_code": 34,
    "city": "安芸郡熊野町",
    "city_kana": "アキグンクマノチョウ",
    "town": "石神",
    "town_kana": "イシガミ",
    "street": null,
    "office_name": null,
    "office_name_kana": null
  },
  "4226": {
    "postcode": "7314226",
    "prefecture": "広島県",
    "prefecture_kana": "ヒロシマケン",
    "prefecture_code": 34,
    "city": "安芸郡熊野町",
    "city_kana": "アキグンクマノチョウ",
    "town": "東山",
    "town_kana": "ヒガシヤマ",
    "street": null,
    "office_name": null,
    "office_name_kana": null
  },
  "4227": {
    "postcode": "7314227",
    "prefecture": "広島県",
    "prefecture_kana": "ヒロシマケン",
    "prefecture_code": 34,
    "city": "安芸郡熊野町",
    "city_kana": "アキグンクマノチョウ",
    "town": "貴船",
    "town_kana": "キフネ",
    "street": null,
    "office_name": null,
    "office_name_kana": null
  },
  "4228": {
    "postcode": "7314228",
    "prefecture": "広島県",
    "prefecture_kana": "ヒロシマケン",
    "prefecture_code": 34,
    "city": "安芸郡熊野町",
    "city_kana": "アキグンクマノチョウ",
    "town": "柿迫",
    "town_kana": "カキサコ",
    "street": null,
    "office_name": null,
    "office_name_kana": null
  },
  "4229": {
    "postcode": "7314229",
    "prefecture": "広島県",
    "prefecture_kana": "ヒロシマケン",
    "prefecture_code": 34,
    "city": "安芸郡熊野町",
    "city_kana": "アキグンクマノチョウ",
    "town": "平谷",
    "town_kana": "ヒラダニ",
    "street": null,
    "office_name": null,
    "office_name_kana": null
  },
  "4231": {
    "postcode": "7314231",
    "prefecture": "広島県",
    "prefecture_kana": "ヒロシマケン",
    "prefecture_code": 34,
    "city": "広島市安芸区",
    "city_kana": "ヒロシマシアキク",
    "town": "阿戸町",
    "town_kana": "アトチョウ",
    "street": null,
    "office_name": null,
    "office_name_kana": null
  },
  "4292": {
    "postcode": "7314292",
    "prefecture": "広島県",
    "prefecture_kana": "ヒロシマケン",
    "prefecture_code": 34,
    "city": "安芸郡熊野町",
    "city_kana": "アキグンクマノチョウ",
    "town": "中溝",
    "town_kana": "ナカミゾ",
    "street": "一丁目１番１号",
    "office_name": "熊野町役場",
    "office_name_kana": "クマノチヨウヤクバ"
  },
  "4293": {
    "postcode": "7314293",
    "prefecture": "広島県",
    "prefecture_kana": "ヒロシマケン",
    "prefecture_code": 34,
    "city": "安芸郡熊野町",
    "city_kana": "アキグンクマノチョウ",
    "town": "中溝",
    "town_kana": "ナカミゾ",
    "street": "五丁目１７番１号",
    "office_name": "筆の里工房",
    "office_name_kana": "フデノサトコウボウ"
  },
  "4300": {
    "postcode": "7314300",
    "prefecture": "広島県",
    "prefecture_kana": "ヒロシマケン",
    "prefecture_code": 34,
    "city": "安芸郡坂町",
    "city_kana": "アキグンサカチョウ",
    "town": "",
    "town_kana": "",
    "street": null,
    "office_name": null,
    "office_name_kana": null
  },
  "4301": {
    "postcode": "7314301",
    "prefecture": "広島県",
    "prefecture_kana": "ヒロシマケン",
    "prefecture_code": 34,
    "city": "安芸郡坂町",
    "city_kana": "アキグンサカチョウ",
    "town": "",
    "town_kana": "",
    "street": null,
    "office_name": null,
    "office_name_kana": null
  },
  "4311": {
    "postcode": "7314311",
    "prefecture": "広島県",
    "prefecture_kana": "ヒロシマケン",
    "prefecture_code": 34,
    "city": "安芸郡坂町",
    "city_kana": "アキグンサカチョウ",
    "town": "北新地",
    "town_kana": "キタシンチ",
    "street": null,
    "office_name": null,
    "office_name_kana": null
  },
  "4312": {
    "postcode": "7314312",
    "prefecture": "広島県",
    "prefecture_kana": "ヒロシマケン",
    "prefecture_code": 34,
    "city": "安芸郡坂町",
    "city_kana": "アキグンサカチョウ",
    "town": "平成ケ浜",
    "town_kana": "ヘイセイガハマ",
    "street": null,
    "office_name": null,
    "office_name_kana": null
  },
  "4313": {
    "postcode": "7314313",
    "prefecture": "広島県",
    "prefecture_kana": "ヒロシマケン",
    "prefecture_code": 34,
    "city": "安芸郡坂町",
    "city_kana": "アキグンサカチョウ",
    "town": "坂東",
    "town_kana": "サカヒガシ",
    "street": null,
    "office_name": null,
    "office_name_kana": null
  },
  "4314": {
    "postcode": "7314314",
    "prefecture": "広島県",
    "prefecture_kana": "ヒロシマケン",
    "prefecture_code": 34,
    "city": "安芸郡坂町",
    "city_kana": "アキグンサカチョウ",
    "town": "坂西",
    "town_kana": "サカニシ",
    "street": null,
    "office_name": null,
    "office_name_kana": null
  },
  "4321": {
    "postcode": "7314321",
    "prefecture": "広島県",
    "prefecture_kana": "ヒロシマケン",
    "prefecture_code": 34,
    "city": "安芸郡坂町",
    "city_kana": "アキグンサカチョウ",
    "town": "植田",
    "town_kana": "ウエダ",
    "street": null,
    "office_name": null,
    "office_name_kana": null
  },
  "4322": {
    "postcode": "7314322",
    "prefecture": "広島県",
    "prefecture_kana": "ヒロシマケン",
    "prefecture_code": 34,
    "city": "安芸郡坂町",
    "city_kana": "アキグンサカチョウ",
    "town": "横浜東",
    "town_kana": "ヨコハマヒガシ",
    "street": null,
    "office_name": null,
    "office_name_kana": null
  },
  "4323": {
    "postcode": "7314323",
    "prefecture": "広島県",
    "prefecture_kana": "ヒロシマケン",
    "prefecture_code": 34,
    "city": "安芸郡坂町",
    "city_kana": "アキグンサカチョウ",
    "town": "横浜中央",
    "town_kana": "ヨコハマチュウオウ",
    "street": null,
    "office_name": null,
    "office_name_kana": null
  },
  "4324": {
    "postcode": "7314324",
    "prefecture": "広島県",
    "prefecture_kana": "ヒロシマケン",
    "prefecture_code": 34,
    "city": "安芸郡坂町",
    "city_kana": "アキグンサカチョウ",
    "town": "横浜西",
    "town_kana": "ヨコハマニシ",
    "street": null,
    "office_name": null,
    "office_name_kana": null
  },
  "4325": {
    "postcode": "7314325",
    "prefecture": "広島県",
    "prefecture_kana": "ヒロシマケン",
    "prefecture_code": 34,
    "city": "安芸郡坂町",
    "city_kana": "アキグンサカチョウ",
    "town": "鯛尾",
    "town_kana": "タイビ",
    "street": null,
    "office_name": null,
    "office_name_kana": null
  },
  "4331": {
    "postcode": "7314331",
    "prefecture": "広島県",
    "prefecture_kana": "ヒロシマケン",
    "prefecture_code": 34,
    "city": "安芸郡坂町",
    "city_kana": "アキグンサカチョウ",
    "town": "小屋浦",
    "town_kana": "コヤウラ",
    "street": null,
    "office_name": null,
    "office_name_kana": null
  },
  "4392": {
    "postcode": "7314392",
    "prefecture": "広島県",
    "prefecture_kana": "ヒロシマケン",
    "prefecture_code": 34,
    "city": "安芸郡坂町",
    "city_kana": "アキグンサカチョウ",
    "town": "北新地",
    "town_kana": "キタシンチ",
    "street": "１丁目４−７９",
    "office_name": "三菱ふそうトラック・バス　株式会社　広島ふそう",
    "office_name_kana": "ミツビシフソウトラツク・バス カブシキガイシヤ ヒロシマフソウ"
  },
  "4393": {
    "postcode": "7314393",
    "prefecture": "広島県",
    "prefecture_kana": "ヒロシマケン",
    "prefecture_code": 34,
    "city": "安芸郡坂町",
    "city_kana": "アキグンサカチョウ",
    "town": "平成ケ浜",
    "town_kana": "ヘイセイガハマ",
    "street": "１丁目１−１",
    "office_name": "広島県安芸郡坂町役場",
    "office_name_kana": "ヒロシマケンアキグンサカチヨウヤクバ"
  },
  "4396": {
    "postcode": "7314396",
    "prefecture": "広島県",
    "prefecture_kana": "ヒロシマケン",
    "prefecture_code": 34,
    "city": "安芸郡坂町",
    "city_kana": "アキグンサカチョウ",
    "town": "北新地",
    "town_kana": "キタシンチ",
    "street": "４丁目２−５８",
    "office_name": "株式会社　クラタクリエイト",
    "office_name_kana": "カブシキガイシヤ クラタクリエイト"
  },
  "4397": {
    "postcode": "7314397",
    "prefecture": "広島県",
    "prefecture_kana": "ヒロシマケン",
    "prefecture_code": 34,
    "city": "安芸郡坂町",
    "city_kana": "アキグンサカチョウ",
    "town": "北新地",
    "town_kana": "キタシンチ",
    "street": "１丁目２番５９号",
    "office_name": "広島日野自動車　株式会社　坂支店",
    "office_name_kana": "ヒロシマヒノジドウシヤ カブシキガイシヤ サカシテン"
  },
  "4398": {
    "postcode": "7314398",
    "prefecture": "広島県",
    "prefecture_kana": "ヒロシマケン",
    "prefecture_code": 34,
    "city": "安芸郡坂町",
    "city_kana": "アキグンサカチョウ",
    "town": "北新地",
    "town_kana": "キタシンチ",
    "street": "１丁目４−１０７",
    "office_name": "株式会社　電通資材",
    "office_name_kana": "カブシキガイシヤ デンツウシザイ"
  },
  "5100": {
    "postcode": "7315100",
    "prefecture": "広島県",
    "prefecture_kana": "ヒロシマケン",
    "prefecture_code": 34,
    "city": "広島市佐伯区",
    "city_kana": "ヒロシマシサエキク",
    "town": "",
    "town_kana": "",
    "street": null,
    "office_name": null,
    "office_name_kana": null
  },
  "5101": {
    "postcode": "7315101",
    "prefecture": "広島県",
    "prefecture_kana": "ヒロシマケン",
    "prefecture_code": 34,
    "city": "広島市佐伯区",
    "city_kana": "ヒロシマシサエキク",
    "town": "五月が丘",
    "town_kana": "サツキガオカ",
    "street": null,
    "office_name": null,
    "office_name_kana": null
  },
  "5102": {
    "postcode": "7315102",
    "prefecture": "広島県",
    "prefecture_kana": "ヒロシマケン",
    "prefecture_code": 34,
    "city": "広島市佐伯区",
    "city_kana": "ヒロシマシサエキク",
    "town": "五日市町石内",
    "town_kana": "イツカイチチョウイシウチ",
    "street": null,
    "office_name": null,
    "office_name_kana": null
  },
  "5103": {
    "postcode": "7315103",
    "prefecture": "広島県",
    "prefecture_kana": "ヒロシマケン",
    "prefecture_code": 34,
    "city": "広島市佐伯区",
    "city_kana": "ヒロシマシサエキク",
    "town": "藤の木",
    "town_kana": "フジノキ",
    "street": null,
    "office_name": null,
    "office_name_kana": null
  },
  "5104": {
    "postcode": "7315104",
    "prefecture": "広島県",
    "prefecture_kana": "ヒロシマケン",
    "prefecture_code": 34,
    "city": "広島市佐伯区",
    "city_kana": "ヒロシマシサエキク",
    "town": "五日市町上小深川",
    "town_kana": "イツカイチチョウカミコブカワ",
    "street": null,
    "office_name": null,
    "office_name_kana": null
  },
  "5105": {
    "postcode": "7315105",
    "prefecture": "広島県",
    "prefecture_kana": "ヒロシマケン",
    "prefecture_code": 34,
    "city": "広島市佐伯区",
    "city_kana": "ヒロシマシサエキク",
    "town": "五日市町下小深川",
    "town_kana": "イツカイチチョウシモコブカワ",
    "street": null,
    "office_name": null,
    "office_name_kana": null
  },
  "5106": {
    "postcode": "7315106",
    "prefecture": "広島県",
    "prefecture_kana": "ヒロシマケン",
    "prefecture_code": 34,
    "city": "広島市佐伯区",
    "city_kana": "ヒロシマシサエキク",
    "town": "利松",
    "town_kana": "トシマツ",
    "street": null,
    "office_name": null,
    "office_name_kana": null
  },
  "5107": {
    "postcode": "7315107",
    "prefecture": "広島県",
    "prefecture_kana": "ヒロシマケン",
    "prefecture_code": 34,
    "city": "広島市佐伯区",
    "city_kana": "ヒロシマシサエキク",
    "town": "石内上",
    "town_kana": "イシウチカミ",
    "street": null,
    "office_name": null,
    "office_name_kana": null
  },
  "5108": {
    "postcode": "7315108",
    "prefecture": "広島県",
    "prefecture_kana": "ヒロシマケン",
    "prefecture_code": 34,
    "city": "広島市佐伯区",
    "city_kana": "ヒロシマシサエキク",
    "town": "石内南",
    "town_kana": "イシウチミナミ",
    "street": null,
    "office_name": null,
    "office_name_kana": null
  },
  "5109": {
    "postcode": "7315109",
    "prefecture": "広島県",
    "prefecture_kana": "ヒロシマケン",
    "prefecture_code": 34,
    "city": "広島市佐伯区",
    "city_kana": "ヒロシマシサエキク",
    "town": "石内北",
    "town_kana": "イシウチキタ",
    "street": null,
    "office_name": null,
    "office_name_kana": null
  },
  "5111": {
    "postcode": "7315111",
    "prefecture": "広島県",
    "prefecture_kana": "ヒロシマケン",
    "prefecture_code": 34,
    "city": "広島市佐伯区",
    "city_kana": "ヒロシマシサエキク",
    "town": "美鈴が丘東",
    "town_kana": "ミスズガオカヒガシ",
    "street": null,
    "office_name": null,
    "office_name_kana": null
  },
  "5112": {
    "postcode": "7315112",
    "prefecture": "広島県",
    "prefecture_kana": "ヒロシマケン",
    "prefecture_code": 34,
    "city": "広島市佐伯区",
    "city_kana": "ヒロシマシサエキク",
    "town": "美鈴が丘南",
    "town_kana": "ミスズガオカミナミ",
    "street": null,
    "office_name": null,
    "office_name_kana": null
  },
  "5113": {
    "postcode": "7315113",
    "prefecture": "広島県",
    "prefecture_kana": "ヒロシマケン",
    "prefecture_code": 34,
    "city": "広島市佐伯区",
    "city_kana": "ヒロシマシサエキク",
    "town": "美鈴が丘緑",
    "town_kana": "ミスズガオカミドリ",
    "street": null,
    "office_name": null,
    "office_name_kana": null
  },
  "5114": {
    "postcode": "7315114",
    "prefecture": "広島県",
    "prefecture_kana": "ヒロシマケン",
    "prefecture_code": 34,
    "city": "広島市佐伯区",
    "city_kana": "ヒロシマシサエキク",
    "town": "美鈴が丘西",
    "town_kana": "ミスズガオカニシ",
    "street": null,
    "office_name": null,
    "office_name_kana": null
  },
  "5115": {
    "postcode": "7315115",
    "prefecture": "広島県",
    "prefecture_kana": "ヒロシマケン",
    "prefecture_code": 34,
    "city": "広島市佐伯区",
    "city_kana": "ヒロシマシサエキク",
    "town": "八幡東",
    "town_kana": "ヤハタヒガシ",
    "street": null,
    "office_name": null,
    "office_name_kana": null
  },
  "5116": {
    "postcode": "7315116",
    "prefecture": "広島県",
    "prefecture_kana": "ヒロシマケン",
    "prefecture_code": 34,
    "city": "広島市佐伯区",
    "city_kana": "ヒロシマシサエキク",
    "town": "八幡",
    "town_kana": "ヤハタ",
    "street": null,
    "office_name": null,
    "office_name_kana": null
  },
  "5117": {
    "postcode": "7315117",
    "prefecture": "広島県",
    "prefecture_kana": "ヒロシマケン",
    "prefecture_code": 34,
    "city": "広島市佐伯区",
    "city_kana": "ヒロシマシサエキク",
    "town": "八幡が丘",
    "town_kana": "ヤハタガオカ",
    "street": null,
    "office_name": null,
    "office_name_kana": null
  },
  "5121": {
    "postcode": "7315121",
    "prefecture": "広島県",
    "prefecture_kana": "ヒロシマケン",
    "prefecture_code": 34,
    "city": "広島市佐伯区",
    "city_kana": "ヒロシマシサエキク",
    "town": "五日市町美鈴園",
    "town_kana": "イツカイチチョウミスズエン",
    "street": null,
    "office_name": null,
    "office_name_kana": null
  },
  "5122": {
    "postcode": "7315122",
    "prefecture": "広島県",
    "prefecture_kana": "ヒロシマケン",
    "prefecture_code": 34,
    "city": "広島市佐伯区",
    "city_kana": "ヒロシマシサエキク",
    "town": "五日市町皆賀",
    "town_kana": "イツカイチチョウミナガ",
    "street": null,
    "office_name": null,
    "office_name_kana": null
  },
  "5123": {
    "postcode": "7315123",
    "prefecture": "広島県",
    "prefecture_kana": "ヒロシマケン",
    "prefecture_code": 34,
    "city": "広島市佐伯区",
    "city_kana": "ヒロシマシサエキク",
    "town": "五日市町昭和台",
    "town_kana": "イツカイチチョウショウワダイ",
    "street": null,
    "office_name": null,
    "office_name_kana": null
  },
  "5124": {
    "postcode": "7315124",
    "prefecture": "広島県",
    "prefecture_kana": "ヒロシマケン",
    "prefecture_code": 34,
    "city": "広島市佐伯区",
    "city_kana": "ヒロシマシサエキク",
    "town": "皆賀",
    "town_kana": "ミナガ",
    "street": null,
    "office_name": null,
    "office_name_kana": null
  },
  "5125": {
    "postcode": "7315125",
    "prefecture": "広島県",
    "prefecture_kana": "ヒロシマケン",
    "prefecture_code": 34,
    "city": "広島市佐伯区",
    "city_kana": "ヒロシマシサエキク",
    "town": "五日市駅前",
    "town_kana": "イツカイチエキマエ",
    "street": null,
    "office_name": null,
    "office_name_kana": null
  },
  "5126": {
    "postcode": "7315126",
    "prefecture": "広島県",
    "prefecture_kana": "ヒロシマケン",
    "prefecture_code": 34,
    "city": "広島市佐伯区",
    "city_kana": "ヒロシマシサエキク",
    "town": "新宮苑",
    "town_kana": "シングウエン",
    "street": null,
    "office_name": null,
    "office_name_kana": null
  },
  "5127": {
    "postcode": "7315127",
    "prefecture": "広島県",
    "prefecture_kana": "ヒロシマケン",
    "prefecture_code": 34,
    "city": "広島市佐伯区",
    "city_kana": "ヒロシマシサエキク",
    "town": "五日市",
    "town_kana": "イツカイチ",
    "street": null,
    "office_name": null,
    "office_name_kana": null
  },
  "5128": {
    "postcode": "7315128",
    "prefecture": "広島県",
    "prefecture_kana": "ヒロシマケン",
    "prefecture_code": 34,
    "city": "広島市佐伯区",
    "city_kana": "ヒロシマシサエキク",
    "town": "五日市中央",
    "town_kana": "イツカイチチュウオウ",
    "street": null,
    "office_name": null,
    "office_name_kana": null
  },
  "5131": {
    "postcode": "7315131",
    "prefecture": "広島県",
    "prefecture_kana": "ヒロシマケン",
    "prefecture_code": 34,
    "city": "広島市佐伯区",
    "city_kana": "ヒロシマシサエキク",
    "town": "藤垂園",
    "town_kana": "トウスイエン",
    "street": null,
    "office_name": null,
    "office_name_kana": null
  },
  "5132": {
    "postcode": "7315132",
    "prefecture": "広島県",
    "prefecture_kana": "ヒロシマケン",
    "prefecture_code": 34,
    "city": "広島市佐伯区",
    "city_kana": "ヒロシマシサエキク",
    "town": "吉見園",
    "town_kana": "ヨシミエン",
    "street": null,
    "office_name": null,
    "office_name_kana": null
  },
  "5133": {
    "postcode": "7315133",
    "prefecture": "広島県",
    "prefecture_kana": "ヒロシマケン",
    "prefecture_code": 34,
    "city": "広島市佐伯区",
    "city_kana": "ヒロシマシサエキク",
    "town": "旭園",
    "town_kana": "アサヒエン",
    "street": null,
    "office_name": null,
    "office_name_kana": null
  },
  "5134": {
    "postcode": "7315134",
    "prefecture": "広島県",
    "prefecture_kana": "ヒロシマケン",
    "prefecture_code": 34,
    "city": "広島市佐伯区",
    "city_kana": "ヒロシマシサエキク",
    "town": "海老山町",
    "town_kana": "カイロウヤマチョウ",
    "street": null,
    "office_name": null,
    "office_name_kana": null
  },
  "5135": {
    "postcode": "7315135",
    "prefecture": "広島県",
    "prefecture_kana": "ヒロシマケン",
    "prefecture_code": 34,
    "city": "広島市佐伯区",
    "city_kana": "ヒロシマシサエキク",
    "town": "海老園",
    "town_kana": "カイロウエン",
    "street": null,
    "office_name": null,
    "office_name_kana": null
  },
  "5136": {
    "postcode": "7315136",
    "prefecture": "広島県",
    "prefecture_kana": "ヒロシマケン",
    "prefecture_code": 34,
    "city": "広島市佐伯区",
    "city_kana": "ヒロシマシサエキク",
    "town": "楽々園",
    "town_kana": "ラクラクエン",
    "street": null,
    "office_name": null,
    "office_name_kana": null
  },
  "5137": {
    "postcode": "7315137",
    "prefecture": "広島県",
    "prefecture_kana": "ヒロシマケン",
    "prefecture_code": 34,
    "city": "広島市佐伯区",
    "city_kana": "ヒロシマシサエキク",
    "town": "美の里",
    "town_kana": "ミノリ",
    "street": null,
    "office_name": null,
    "office_name_kana": null
  },
  "5138": {
    "postcode": "7315138",
    "prefecture": "広島県",
    "prefecture_kana": "ヒロシマケン",
    "prefecture_code": 34,
    "city": "広島市佐伯区",
    "city_kana": "ヒロシマシサエキク",
    "town": "海老山南",
    "town_kana": "カイロウヤマミナミ",
    "street": null,
    "office_name": null,
    "office_name_kana": null
  },
  "5141": {
    "postcode": "7315141",
    "prefecture": "広島県",
    "prefecture_kana": "ヒロシマケン",
    "prefecture_code": 34,
    "city": "広島市佐伯区",
    "city_kana": "ヒロシマシサエキク",
    "town": "千同",
    "town_kana": "センドウ",
    "street": null,
    "office_name": null,
    "office_name_kana": null
  },
  "5142": [
    {
      "postcode": "7315142",
      "prefecture": "広島県",
      "prefecture_kana": "ヒロシマケン",
      "prefecture_code": 34,
      "city": "広島市佐伯区",
      "city_kana": "ヒロシマシサエキク",
      "town": "坪井",
      "town_kana": "ツボイ",
      "street": null,
      "office_name": null,
      "office_name_kana": null
    },
    {
      "postcode": "7315142",
      "prefecture": "広島県",
      "prefecture_kana": "ヒロシマケン",
      "prefecture_code": 34,
      "city": "広島市佐伯区",
      "city_kana": "ヒロシマシサエキク",
      "town": "坪井町",
      "town_kana": "ツボイチョウ",
      "street": null,
      "office_name": null,
      "office_name_kana": null
    }
  ],
  "5143": [
    {
      "postcode": "7315143",
      "prefecture": "広島県",
      "prefecture_kana": "ヒロシマケン",
      "prefecture_code": 34,
      "city": "広島市佐伯区",
      "city_kana": "ヒロシマシサエキク",
      "town": "三宅",
      "town_kana": "ミヤケ",
      "street": null,
      "office_name": null,
      "office_name_kana": null
    },
    {
      "postcode": "7315143",
      "prefecture": "広島県",
      "prefecture_kana": "ヒロシマケン",
      "prefecture_code": 34,
      "city": "広島市佐伯区",
      "city_kana": "ヒロシマシサエキク",
      "town": "三宅町",
      "town_kana": "ミヤケチョウ",
      "street": null,
      "office_name": null,
      "office_name_kana": null
    }
  ],
  "5144": {
    "postcode": "7315144",
    "prefecture": "広島県",
    "prefecture_kana": "ヒロシマケン",
    "prefecture_code": 34,
    "city": "広島市佐伯区",
    "city_kana": "ヒロシマシサエキク",
    "town": "三筋",
    "town_kana": "ミスジ",
    "street": null,
    "office_name": null,
    "office_name_kana": null
  },
  "5145": {
    "postcode": "7315145",
    "prefecture": "広島県",
    "prefecture_kana": "ヒロシマケン",
    "prefecture_code": 34,
    "city": "広島市佐伯区",
    "city_kana": "ヒロシマシサエキク",
    "town": "隅の浜",
    "town_kana": "スミノハマ",
    "street": null,
    "office_name": null,
    "office_name_kana": null
  },
  "5146": {
    "postcode": "7315146",
    "prefecture": "広島県",
    "prefecture_kana": "ヒロシマケン",
    "prefecture_code": 34,
    "city": "広島市佐伯区",
    "city_kana": "ヒロシマシサエキク",
    "town": "屋代",
    "town_kana": "ヤシロ",
    "street": null,
    "office_name": null,
    "office_name_kana": null
  },
  "5147": {
    "postcode": "7315147",
    "prefecture": "広島県",
    "prefecture_kana": "ヒロシマケン",
    "prefecture_code": 34,
    "city": "広島市佐伯区",
    "city_kana": "ヒロシマシサエキク",
    "town": "屋代町",
    "town_kana": "ヤシロチョウ",
    "street": null,
    "office_name": null,
    "office_name_kana": null
  },
  "5151": {
    "postcode": "7315151",
    "prefecture": "広島県",
    "prefecture_kana": "ヒロシマケン",
    "prefecture_code": 34,
    "city": "広島市佐伯区",
    "city_kana": "ヒロシマシサエキク",
    "town": "五日市町上河内",
    "town_kana": "イツカイチチョウカミゴウチ",
    "street": null,
    "office_name": null,
    "office_name_kana": null
  },
  "5152": {
    "postcode": "7315152",
    "prefecture": "広島県",
    "prefecture_kana": "ヒロシマケン",
    "prefecture_code": 34,
    "city": "広島市佐伯区",
    "city_kana": "ヒロシマシサエキク",
    "town": "五日市町下河内",
    "town_kana": "イツカイチチョウシモゴウチ",
    "street": null,
    "office_name": null,
    "office_name_kana": null
  },
  "5153": {
    "postcode": "7315153",
    "prefecture": "広島県",
    "prefecture_kana": "ヒロシマケン",
    "prefecture_code": 34,
    "city": "広島市佐伯区",
    "city_kana": "ヒロシマシサエキク",
    "town": "河内南",
    "town_kana": "コウチミナミ",
    "street": null,
    "office_name": null,
    "office_name_kana": null
  },
  "5154": {
    "postcode": "7315154",
    "prefecture": "広島県",
    "prefecture_kana": "ヒロシマケン",
    "prefecture_code": 34,
    "city": "広島市佐伯区",
    "city_kana": "ヒロシマシサエキク",
    "town": "薬師が丘",
    "town_kana": "ヤクシガオカ",
    "street": null,
    "office_name": null,
    "office_name_kana": null
  },
  "5155": {
    "postcode": "7315155",
    "prefecture": "広島県",
    "prefecture_kana": "ヒロシマケン",
    "prefecture_code": 34,
    "city": "広島市佐伯区",
    "city_kana": "ヒロシマシサエキク",
    "town": "城山",
    "town_kana": "ジョウヤマ",
    "street": null,
    "office_name": null,
    "office_name_kana": null
  },
  "5156": {
    "postcode": "7315156",
    "prefecture": "広島県",
    "prefecture_kana": "ヒロシマケン",
    "prefecture_code": 34,
    "city": "広島市佐伯区",
    "city_kana": "ヒロシマシサエキク",
    "town": "倉重",
    "town_kana": "クラシゲ",
    "street": null,
    "office_name": null,
    "office_name_kana": null
  },
  "5157": {
    "postcode": "7315157",
    "prefecture": "広島県",
    "prefecture_kana": "ヒロシマケン",
    "prefecture_code": 34,
    "city": "広島市佐伯区",
    "city_kana": "ヒロシマシサエキク",
    "town": "観音台",
    "town_kana": "カンノンダイ",
    "street": null,
    "office_name": null,
    "office_name_kana": null
  },
  "5161": {
    "postcode": "7315161",
    "prefecture": "広島県",
    "prefecture_kana": "ヒロシマケン",
    "prefecture_code": 34,
    "city": "広島市佐伯区",
    "city_kana": "ヒロシマシサエキク",
    "town": "五日市港",
    "town_kana": "イツカイチコウ",
    "street": null,
    "office_name": null,
    "office_name_kana": null
  },
  "5162": {
    "postcode": "7315162",
    "prefecture": "広島県",
    "prefecture_kana": "ヒロシマケン",
    "prefecture_code": 34,
    "city": "広島市佐伯区",
    "city_kana": "ヒロシマシサエキク",
    "town": "石内東",
    "town_kana": "イシウチヒガシ",
    "street": null,
    "office_name": null,
    "office_name_kana": null
  },
  "5193": {
    "postcode": "7315193",
    "prefecture": "広島県",
    "prefecture_kana": "ヒロシマケン",
    "prefecture_code": 34,
    "city": "広島市佐伯区",
    "city_kana": "ヒロシマシサエキク",
    "town": "三宅",
    "town_kana": "ミヤケ",
    "street": "２丁目１−１",
    "office_name": "広島工業大学",
    "office_name_kana": "ヒロシマコウギヨウダイガク"
  },
  "5195": {
    "postcode": "7315195",
    "prefecture": "広島県",
    "prefecture_kana": "ヒロシマケン",
    "prefecture_code": 34,
    "city": "広島市佐伯区",
    "city_kana": "ヒロシマシサエキク",
    "town": "海老園",
    "town_kana": "カイロウエン",
    "street": "２丁目５−２８",
    "office_name": "佐伯区役所",
    "office_name_kana": "サエキクヤクシヨ"
  },
  "5196": {
    "postcode": "7315196",
    "prefecture": "広島県",
    "prefecture_kana": "ヒロシマケン",
    "prefecture_code": 34,
    "city": "広島市佐伯区",
    "city_kana": "ヒロシマシサエキク",
    "town": "石内東",
    "town_kana": "イシウチヒガシ",
    "street": "四丁目１番１号",
    "office_name": "イオンモール　株式会社　ＴＨＥ　ＯＵＴＬＥＴＳ　ＨＩＲＯＳＨＩＭＡ",
    "office_name_kana": "イオンモ-ル カブシキガイシヤ THE OUTLETS HIROSHIMA"
  },
  "5197": {
    "postcode": "7315197",
    "prefecture": "広島県",
    "prefecture_kana": "ヒロシマケン",
    "prefecture_code": 34,
    "city": "広島市佐伯区",
    "city_kana": "ヒロシマシサエキク",
    "town": "石内南",
    "town_kana": "イシウチミナミ",
    "street": "５丁目２−１",
    "office_name": "株式会社　ヒロテック",
    "office_name_kana": "カブシキガイシヤ ヒロテツク"
  },
  "5198": {
    "postcode": "7315198",
    "prefecture": "広島県",
    "prefecture_kana": "ヒロシマケン",
    "prefecture_code": 34,
    "city": "広島市佐伯区",
    "city_kana": "ヒロシマシサエキク",
    "town": "石内南",
    "town_kana": "イシウチミナミ",
    "street": "３丁目１−１",
    "office_name": "広島県　運転免許センター",
    "office_name_kana": "ヒロシマケン ウンテンメンキヨセンタ-"
  }
}