{
  "0000": {
    "postcode": "7320000",
    "prefecture": "広島県",
    "prefecture_kana": "ヒロシマケン",
    "prefecture_code": 34,
    "city": "広島市東区",
    "city_kana": "ヒロシマシヒガシク",
    "town": "",
    "town_kana": "",
    "street": null,
    "office_name": null,
    "office_name_kana": null
  },
  "0001": {
    "postcode": "7320001",
    "prefecture": "広島県",
    "prefecture_kana": "ヒロシマケン",
    "prefecture_code": 34,
    "city": "広島市東区",
    "city_kana": "ヒロシマシヒガシク",
    "town": "戸坂惣田",
    "town_kana": "ヘサカソウダ",
    "street": null,
    "office_name": null,
    "office_name_kana": null
  },
  "0002": {
    "postcode": "7320002",
    "prefecture": "広島県",
    "prefecture_kana": "ヒロシマケン",
    "prefecture_code": 34,
    "city": "広島市東区",
    "city_kana": "ヒロシマシヒガシク",
    "town": "戸坂山根",
    "town_kana": "ヘサカヤマネ",
    "street": null,
    "office_name": null,
    "office_name_kana": null
  },
  "0003": {
    "postcode": "7320003",
    "prefecture": "広島県",
    "prefecture_kana": "ヒロシマケン",
    "prefecture_code": 34,
    "city": "広島市東区",
    "city_kana": "ヒロシマシヒガシク",
    "town": "戸坂中町",
    "town_kana": "ヘサカナカマチ",
    "street": null,
    "office_name": null,
    "office_name_kana": null
  },
  "0004": {
    "postcode": "7320004",
    "prefecture": "広島県",
    "prefecture_kana": "ヒロシマケン",
    "prefecture_code": 34,
    "city": "広島市東区",
    "city_kana": "ヒロシマシヒガシク",
    "town": "戸坂山崎町",
    "town_kana": "ヘサカヤマサキチョウ",
    "street": null,
    "office_name": null,
    "office_name_kana": null
  },
  "0005": {
    "postcode": "7320005",
    "prefecture": "広島県",
    "prefecture_kana": "ヒロシマケン",
    "prefecture_code": 34,
    "city": "広島市東区",
    "city_kana": "ヒロシマシヒガシク",
    "town": "戸坂桜東町",
    "town_kana": "ヘサカサクラヒガシマチ",
    "street": null,
    "office_name": null,
    "office_name_kana": null
  },
  "0006": {
    "postcode": "7320006",
    "prefecture": "広島県",
    "prefecture_kana": "ヒロシマケン",
    "prefecture_code": 34,
    "city": "広島市東区",
    "city_kana": "ヒロシマシヒガシク",
    "town": "戸坂桜西町",
    "town_kana": "ヘサカサクラニシマチ",
    "street": null,
    "office_name": null,
    "office_name_kana": null
  },
  "0007": {
    "postcode": "7320007",
    "prefecture": "広島県",
    "prefecture_kana": "ヒロシマケン",
    "prefecture_code": 34,
    "city": "広島市東区",
    "city_kana": "ヒロシマシヒガシク",
    "town": "戸坂桜上町",
    "town_kana": "ヘサカサクラウエマチ",
    "street": null,
    "office_name": null,
    "office_name_kana": null
  },
  "0008": {
    "postcode": "7320008",
    "prefecture": "広島県",
    "prefecture_kana": "ヒロシマケン",
    "prefecture_code": 34,
    "city": "広島市東区",
    "city_kana": "ヒロシマシヒガシク",
    "town": "戸坂くるめ木",
    "town_kana": "ヘサカクルメギ",
    "street": null,
    "office_name": null,
    "office_name_kana": null
  },
  "0009": {
    "postcode": "7320009",
    "prefecture": "広島県",
    "prefecture_kana": "ヒロシマケン",
    "prefecture_code": 34,
    "city": "広島市東区",
    "city_kana": "ヒロシマシヒガシク",
    "town": "戸坂千足",
    "town_kana": "ヘサカセンゾク",
    "street": null,
    "office_name": null,
    "office_name_kana": null
  },
  "0011": {
    "postcode": "7320011",
    "prefecture": "広島県",
    "prefecture_kana": "ヒロシマケン",
    "prefecture_code": 34,
    "city": "広島市東区",
    "city_kana": "ヒロシマシヒガシク",
    "town": "戸坂町",
    "town_kana": "ヘサカチョウ",
    "street": null,
    "office_name": null,
    "office_name_kana": null
  },
  "0012": {
    "postcode": "7320012",
    "prefecture": "広島県",
    "prefecture_kana": "ヒロシマケン",
    "prefecture_code": 34,
    "city": "広島市東区",
    "city_kana": "ヒロシマシヒガシク",
    "town": "戸坂新町",
    "town_kana": "ヘサカシンマチ",
    "street": null,
    "office_name": null,
    "office_name_kana": null
  },
  "0013": {
    "postcode": "7320013",
    "prefecture": "広島県",
    "prefecture_kana": "ヒロシマケン",
    "prefecture_code": 34,
    "city": "広島市東区",
    "city_kana": "ヒロシマシヒガシク",
    "town": "戸坂南",
    "town_kana": "ヘサカミナミ",
    "street": null,
    "office_name": null,
    "office_name_kana": null
  },
  "0014": {
    "postcode": "7320014",
    "prefecture": "広島県",
    "prefecture_kana": "ヒロシマケン",
    "prefecture_code": 34,
    "city": "広島市東区",
    "city_kana": "ヒロシマシヒガシク",
    "town": "戸坂大上",
    "town_kana": "ヘサカオオアゲ",
    "street": null,
    "office_name": null,
    "office_name_kana": null
  },
  "0015": {
    "postcode": "7320015",
    "prefecture": "広島県",
    "prefecture_kana": "ヒロシマケン",
    "prefecture_code": 34,
    "city": "広島市東区",
    "city_kana": "ヒロシマシヒガシク",
    "town": "戸坂城山町",
    "town_kana": "ヘサカシロヤマチョウ",
    "street": null,
    "office_name": null,
    "office_name_kana": null
  },
  "0016": {
    "postcode": "7320016",
    "prefecture": "広島県",
    "prefecture_kana": "ヒロシマケン",
    "prefecture_code": 34,
    "city": "広島市東区",
    "city_kana": "ヒロシマシヒガシク",
    "town": "戸坂出江",
    "town_kana": "ヘサカイヅエ",
    "street": null,
    "office_name": null,
    "office_name_kana": null
  },
  "0017": {
    "postcode": "7320017",
    "prefecture": "広島県",
    "prefecture_kana": "ヒロシマケン",
    "prefecture_code": 34,
    "city": "広島市東区",
    "city_kana": "ヒロシマシヒガシク",
    "town": "戸坂数甲",
    "town_kana": "ヘサカカズコウ",
    "street": null,
    "office_name": null,
    "office_name_kana": null
  },
  "0018": {
    "postcode": "7320018",
    "prefecture": "広島県",
    "prefecture_kana": "ヒロシマケン",
    "prefecture_code": 34,
    "city": "広島市東区",
    "city_kana": "ヒロシマシヒガシク",
    "town": "戸坂長尾台",
    "town_kana": "ヘサカナガオダイ",
    "street": null,
    "office_name": null,
    "office_name_kana": null
  },
  "0021": {
    "postcode": "7320021",
    "prefecture": "広島県",
    "prefecture_kana": "ヒロシマケン",
    "prefecture_code": 34,
    "city": "広島市東区",
    "city_kana": "ヒロシマシヒガシク",
    "town": "中山新町",
    "town_kana": "ナカヤマシンマチ",
    "street": null,
    "office_name": null,
    "office_name_kana": null
  },
  "0022": {
    "postcode": "7320022",
    "prefecture": "広島県",
    "prefecture_kana": "ヒロシマケン",
    "prefecture_code": 34,
    "city": "広島市東区",
    "city_kana": "ヒロシマシヒガシク",
    "town": "中山鏡が丘",
    "town_kana": "ナカヤマカガミガオカ",
    "street": null,
    "office_name": null,
    "office_name_kana": null
  },
  "0023": {
    "postcode": "7320023",
    "prefecture": "広島県",
    "prefecture_kana": "ヒロシマケン",
    "prefecture_code": 34,
    "city": "広島市東区",
    "city_kana": "ヒロシマシヒガシク",
    "town": "中山東",
    "town_kana": "ナカヤマヒガシ",
    "street": null,
    "office_name": null,
    "office_name_kana": null
  },
  "0024": {
    "postcode": "7320024",
    "prefecture": "広島県",
    "prefecture_kana": "ヒロシマケン",
    "prefecture_code": 34,
    "city": "広島市東区",
    "city_kana": "ヒロシマシヒガシク",
    "town": "中山南",
    "town_kana": "ナカヤマミナミ",
    "street": null,
    "office_name": null,
    "office_name_kana": null
  },
  "0025": {
    "postcode": "7320025",
    "prefecture": "広島県",
    "prefecture_kana": "ヒロシマケン",
    "prefecture_code": 34,
    "city": "広島市東区",
    "city_kana": "ヒロシマシヒガシク",
    "town": "中山西",
    "town_kana": "ナカヤマニシ",
    "street": null,
    "office_name": null,
    "office_name_kana": null
  },
  "0026": {
    "postcode": "7320026",
    "prefecture": "広島県",
    "prefecture_kana": "ヒロシマケン",
    "prefecture_code": 34,
    "city": "広島市東区",
    "city_kana": "ヒロシマシヒガシク",
    "town": "中山中町",
    "town_kana": "ナカヤマナカマチ",
    "street": null,
    "office_name": null,
    "office_name_kana": null
  },
  "0027": {
    "postcode": "7320027",
    "prefecture": "広島県",
    "prefecture_kana": "ヒロシマケン",
    "prefecture_code": 34,
    "city": "広島市東区",
    "city_kana": "ヒロシマシヒガシク",
    "town": "中山上",
    "town_kana": "ナカヤマカミ",
    "street": null,
    "office_name": null,
    "office_name_kana": null
  },
  "0028": {
    "postcode": "7320028",
    "prefecture": "広島県",
    "prefecture_kana": "ヒロシマケン",
    "prefecture_code": 34,
    "city": "広島市東区",
    "city_kana": "ヒロシマシヒガシク",
    "town": "中山北町",
    "town_kana": "ナカヤマキタマチ",
    "street": null,
    "office_name": null,
    "office_name_kana": null
  },
  "0029": {
    "postcode": "7320029",
    "prefecture": "広島県",
    "prefecture_kana": "ヒロシマケン",
    "prefecture_code": 34,
    "city": "広島市東区",
    "city_kana": "ヒロシマシヒガシク",
    "town": "福田",
    "town_kana": "フクダ",
    "street": null,
    "office_name": null,
    "office_name_kana": null
  },
  "0031": {
    "postcode": "7320031",
    "prefecture": "広島県",
    "prefecture_kana": "ヒロシマケン",
    "prefecture_code": 34,
    "city": "広島市東区",
    "city_kana": "ヒロシマシヒガシク",
    "town": "馬木",
    "town_kana": "ウマキ",
    "street": null,
    "office_name": null,
    "office_name_kana": null
  },
  "0032": {
    "postcode": "7320032",
    "prefecture": "広島県",
    "prefecture_kana": "ヒロシマケン",
    "prefecture_code": 34,
    "city": "広島市東区",
    "city_kana": "ヒロシマシヒガシク",
    "town": "上温品",
    "town_kana": "カミヌクシナ",
    "street": null,
    "office_name": null,
    "office_name_kana": null
  },
  "0033": {
    "postcode": "7320033",
    "prefecture": "広島県",
    "prefecture_kana": "ヒロシマケン",
    "prefecture_code": 34,
    "city": "広島市東区",
    "city_kana": "ヒロシマシヒガシク",
    "town": "温品",
    "town_kana": "ヌクシナ",
    "street": null,
    "office_name": null,
    "office_name_kana": null
  },
  "0034": {
    "postcode": "7320034",
    "prefecture": "広島県",
    "prefecture_kana": "ヒロシマケン",
    "prefecture_code": 34,
    "city": "広島市東区",
    "city_kana": "ヒロシマシヒガシク",
    "town": "温品町",
    "town_kana": "ヌクシナチョウ",
    "street": null,
    "office_name": null,
    "office_name_kana": null
  },
  "0035": {
    "postcode": "7320035",
    "prefecture": "広島県",
    "prefecture_kana": "ヒロシマケン",
    "prefecture_code": 34,
    "city": "広島市東区",
    "city_kana": "ヒロシマシヒガシク",
    "town": "馬木町",
    "town_kana": "ウマキチョウ",
    "street": null,
    "office_name": null,
    "office_name_kana": null
  },
  "0036": {
    "postcode": "7320036",
    "prefecture": "広島県",
    "prefecture_kana": "ヒロシマケン",
    "prefecture_code": 34,
    "city": "広島市東区",
    "city_kana": "ヒロシマシヒガシク",
    "town": "福田町",
    "town_kana": "フクダチョウ",
    "street": null,
    "office_name": null,
    "office_name_kana": null
  },
  "0041": {
    "postcode": "7320041",
    "prefecture": "広島県",
    "prefecture_kana": "ヒロシマケン",
    "prefecture_code": 34,
    "city": "広島市東区",
    "city_kana": "ヒロシマシヒガシク",
    "town": "矢賀町",
    "town_kana": "ヤガマチ",
    "street": null,
    "office_name": null,
    "office_name_kana": null
  },
  "0042": {
    "postcode": "7320042",
    "prefecture": "広島県",
    "prefecture_kana": "ヒロシマケン",
    "prefecture_code": 34,
    "city": "広島市東区",
    "city_kana": "ヒロシマシヒガシク",
    "town": "矢賀",
    "town_kana": "ヤガ",
    "street": null,
    "office_name": null,
    "office_name_kana": null
  },
  "0043": {
    "postcode": "7320043",
    "prefecture": "広島県",
    "prefecture_kana": "ヒロシマケン",
    "prefecture_code": 34,
    "city": "広島市東区",
    "city_kana": "ヒロシマシヒガシク",
    "town": "東山町",
    "town_kana": "ヒガシヤマチョウ",
    "street": null,
    "office_name": null,
    "office_name_kana": null
  },
  "0044": {
    "postcode": "7320044",
    "prefecture": "広島県",
    "prefecture_kana": "ヒロシマケン",
    "prefecture_code": 34,
    "city": "広島市東区",
    "city_kana": "ヒロシマシヒガシク",
    "town": "矢賀新町",
    "town_kana": "ヤガシンマチ",
    "street": null,
    "office_name": null,
    "office_name_kana": null
  },
  "0045": {
    "postcode": "7320045",
    "prefecture": "広島県",
    "prefecture_kana": "ヒロシマケン",
    "prefecture_code": 34,
    "city": "広島市東区",
    "city_kana": "ヒロシマシヒガシク",
    "town": "曙",
    "town_kana": "アケボノ",
    "street": null,
    "office_name": null,
    "office_name_kana": null
  },
  "0046": {
    "postcode": "7320046",
    "prefecture": "広島県",
    "prefecture_kana": "ヒロシマケン",
    "prefecture_code": 34,
    "city": "広島市東区",
    "city_kana": "ヒロシマシヒガシク",
    "town": "尾長東",
    "town_kana": "オナガヒガシ",
    "street": null,
    "office_name": null,
    "office_name_kana": null
  },
  "0047": {
    "postcode": "7320047",
    "prefecture": "広島県",
    "prefecture_kana": "ヒロシマケン",
    "prefecture_code": 34,
    "city": "広島市東区",
    "city_kana": "ヒロシマシヒガシク",
    "town": "尾長西",
    "town_kana": "オナガニシ",
    "street": null,
    "office_name": null,
    "office_name_kana": null
  },
  "0048": {
    "postcode": "7320048",
    "prefecture": "広島県",
    "prefecture_kana": "ヒロシマケン",
    "prefecture_code": 34,
    "city": "広島市東区",
    "city_kana": "ヒロシマシヒガシク",
    "town": "山根町",
    "town_kana": "ヤマネチョウ",
    "street": null,
    "office_name": null,
    "office_name_kana": null
  },
  "0049": {
    "postcode": "7320049",
    "prefecture": "広島県",
    "prefecture_kana": "ヒロシマケン",
    "prefecture_code": 34,
    "city": "広島市東区",
    "city_kana": "ヒロシマシヒガシク",
    "town": "尾長町",
    "town_kana": "オナガマチ",
    "street": null,
    "office_name": null,
    "office_name_kana": null
  },
  "0051": {
    "postcode": "7320051",
    "prefecture": "広島県",
    "prefecture_kana": "ヒロシマケン",
    "prefecture_code": 34,
    "city": "広島市東区",
    "city_kana": "ヒロシマシヒガシク",
    "town": "光が丘",
    "town_kana": "ヒカリガオカ",
    "street": null,
    "office_name": null,
    "office_name_kana": null
  },
  "0052": {
    "postcode": "7320052",
    "prefecture": "広島県",
    "prefecture_kana": "ヒロシマケン",
    "prefecture_code": 34,
    "city": "広島市東区",
    "city_kana": "ヒロシマシヒガシク",
    "town": "光町",
    "town_kana": "ヒカリマチ",
    "street": null,
    "office_name": null,
    "office_name_kana": null
  },
  "0053": {
    "postcode": "7320053",
    "prefecture": "広島県",
    "prefecture_kana": "ヒロシマケン",
    "prefecture_code": 34,
    "city": "広島市東区",
    "city_kana": "ヒロシマシヒガシク",
    "town": "若草町",
    "town_kana": "ワカクサチョウ",
    "street": null,
    "office_name": null,
    "office_name_kana": null
  },
  "0054": {
    "postcode": "7320054",
    "prefecture": "広島県",
    "prefecture_kana": "ヒロシマケン",
    "prefecture_code": 34,
    "city": "広島市東区",
    "city_kana": "ヒロシマシヒガシク",
    "town": "愛宕町",
    "town_kana": "アタゴマチ",
    "street": null,
    "office_name": null,
    "office_name_kana": null
  },
  "0055": {
    "postcode": "7320055",
    "prefecture": "広島県",
    "prefecture_kana": "ヒロシマケン",
    "prefecture_code": 34,
    "city": "広島市東区",
    "city_kana": "ヒロシマシヒガシク",
    "town": "東蟹屋町",
    "town_kana": "ヒガシカニヤチョウ",
    "street": null,
    "office_name": null,
    "office_name_kana": null
  },
  "0056": {
    "postcode": "7320056",
    "prefecture": "広島県",
    "prefecture_kana": "ヒロシマケン",
    "prefecture_code": 34,
    "city": "広島市東区",
    "city_kana": "ヒロシマシヒガシク",
    "town": "上大須賀町",
    "town_kana": "カミオオスガチョウ",
    "street": null,
    "office_name": null,
    "office_name_kana": null
  },
  "0057": {
    "postcode": "7320057",
    "prefecture": "広島県",
    "prefecture_kana": "ヒロシマケン",
    "prefecture_code": 34,
    "city": "広島市東区",
    "city_kana": "ヒロシマシヒガシク",
    "town": "二葉の里",
    "town_kana": "フタバノサト",
    "street": null,
    "office_name": null,
    "office_name_kana": null
  },
  "0061": {
    "postcode": "7320061",
    "prefecture": "広島県",
    "prefecture_kana": "ヒロシマケン",
    "prefecture_code": 34,
    "city": "広島市東区",
    "city_kana": "ヒロシマシヒガシク",
    "town": "牛田山",
    "town_kana": "ウシタヤマ",
    "street": null,
    "office_name": null,
    "office_name_kana": null
  },
  "0062": {
    "postcode": "7320062",
    "prefecture": "広島県",
    "prefecture_kana": "ヒロシマケン",
    "prefecture_code": 34,
    "city": "広島市東区",
    "city_kana": "ヒロシマシヒガシク",
    "town": "牛田早稲田",
    "town_kana": "ウシタワセダ",
    "street": null,
    "office_name": null,
    "office_name_kana": null
  },
  "0063": {
    "postcode": "7320063",
    "prefecture": "広島県",
    "prefecture_kana": "ヒロシマケン",
    "prefecture_code": 34,
    "city": "広島市東区",
    "city_kana": "ヒロシマシヒガシク",
    "town": "牛田東",
    "town_kana": "ウシタヒガシ",
    "street": null,
    "office_name": null,
    "office_name_kana": null
  },
  "0064": {
    "postcode": "7320064",
    "prefecture": "広島県",
    "prefecture_kana": "ヒロシマケン",
    "prefecture_code": 34,
    "city": "広島市東区",
    "city_kana": "ヒロシマシヒガシク",
    "town": "牛田南",
    "town_kana": "ウシタミナミ",
    "street": null,
    "office_name": null,
    "office_name_kana": null
  },
  "0065": {
    "postcode": "7320065",
    "prefecture": "広島県",
    "prefecture_kana": "ヒロシマケン",
    "prefecture_code": 34,
    "city": "広島市東区",
    "city_kana": "ヒロシマシヒガシク",
    "town": "牛田中",
    "town_kana": "ウシタナカ",
    "street": null,
    "office_name": null,
    "office_name_kana": null
  },
  "0066": {
    "postcode": "7320066",
    "prefecture": "広島県",
    "prefecture_kana": "ヒロシマケン",
    "prefecture_code": 34,
    "city": "広島市東区",
    "city_kana": "ヒロシマシヒガシク",
    "town": "牛田本町",
    "town_kana": "ウシタホンマチ",
    "street": null,
    "office_name": null,
    "office_name_kana": null
  },
  "0067": {
    "postcode": "7320067",
    "prefecture": "広島県",
    "prefecture_kana": "ヒロシマケン",
    "prefecture_code": 34,
    "city": "広島市東区",
    "city_kana": "ヒロシマシヒガシク",
    "town": "牛田旭",
    "town_kana": "ウシタアサヒ",
    "street": null,
    "office_name": null,
    "office_name_kana": null
  },
  "0068": {
    "postcode": "7320068",
    "prefecture": "広島県",
    "prefecture_kana": "ヒロシマケン",
    "prefecture_code": 34,
    "city": "広島市東区",
    "city_kana": "ヒロシマシヒガシク",
    "town": "牛田新町",
    "town_kana": "ウシタシンマチ",
    "street": null,
    "office_name": null,
    "office_name_kana": null
  },
  "0801": {
    "postcode": "7320801",
    "prefecture": "広島県",
    "prefecture_kana": "ヒロシマケン",
    "prefecture_code": 34,
    "city": "広島市南区",
    "city_kana": "ヒロシマシミナミク",
    "town": "東駅町",
    "town_kana": "ヒガシエキマチ",
    "street": null,
    "office_name": null,
    "office_name_kana": null
  },
  "0802": {
    "postcode": "7320802",
    "prefecture": "広島県",
    "prefecture_kana": "ヒロシマケン",
    "prefecture_code": 34,
    "city": "広島市南区",
    "city_kana": "ヒロシマシミナミク",
    "town": "大州",
    "town_kana": "オオズ",
    "street": null,
    "office_name": null,
    "office_name_kana": null
  },
  "0803": {
    "postcode": "7320803",
    "prefecture": "広島県",
    "prefecture_kana": "ヒロシマケン",
    "prefecture_code": 34,
    "city": "広島市南区",
    "city_kana": "ヒロシマシミナミク",
    "town": "南蟹屋",
    "town_kana": "ミナミカニヤ",
    "street": null,
    "office_name": null,
    "office_name_kana": null
  },
  "0804": {
    "postcode": "7320804",
    "prefecture": "広島県",
    "prefecture_kana": "ヒロシマケン",
    "prefecture_code": 34,
    "city": "広島市南区",
    "city_kana": "ヒロシマシミナミク",
    "town": "西蟹屋",
    "town_kana": "ニシカニヤ",
    "street": null,
    "office_name": null,
    "office_name_kana": null
  },
  "0805": {
    "postcode": "7320805",
    "prefecture": "広島県",
    "prefecture_kana": "ヒロシマケン",
    "prefecture_code": 34,
    "city": "広島市南区",
    "city_kana": "ヒロシマシミナミク",
    "town": "東荒神町",
    "town_kana": "ヒガシコウジンマチ",
    "street": null,
    "office_name": null,
    "office_name_kana": null
  },
  "0806": {
    "postcode": "7320806",
    "prefecture": "広島県",
    "prefecture_kana": "ヒロシマケン",
    "prefecture_code": 34,
    "city": "広島市南区",
    "city_kana": "ヒロシマシミナミク",
    "town": "西荒神町",
    "town_kana": "ニシコウジンマチ",
    "street": null,
    "office_name": null,
    "office_name_kana": null
  },
  "0807": {
    "postcode": "7320807",
    "prefecture": "広島県",
    "prefecture_kana": "ヒロシマケン",
    "prefecture_code": 34,
    "city": "広島市南区",
    "city_kana": "ヒロシマシミナミク",
    "town": "荒神町",
    "town_kana": "コウジンマチ",
    "street": null,
    "office_name": null,
    "office_name_kana": null
  },
  "0811": {
    "postcode": "7320811",
    "prefecture": "広島県",
    "prefecture_kana": "ヒロシマケン",
    "prefecture_code": 34,
    "city": "広島市南区",
    "city_kana": "ヒロシマシミナミク",
    "town": "段原",
    "town_kana": "ダンバラ",
    "street": null,
    "office_name": null,
    "office_name_kana": null
  },
  "0814": {
    "postcode": "7320814",
    "prefecture": "広島県",
    "prefecture_kana": "ヒロシマケン",
    "prefecture_code": 34,
    "city": "広島市南区",
    "city_kana": "ヒロシマシミナミク",
    "town": "段原南",
    "town_kana": "ダンバラミナミ",
    "street": null,
    "office_name": null,
    "office_name_kana": null
  },
  "0815": {
    "postcode": "7320815",
    "prefecture": "広島県",
    "prefecture_kana": "ヒロシマケン",
    "prefecture_code": 34,
    "city": "広島市南区",
    "city_kana": "ヒロシマシミナミク",
    "town": "比治山公園",
    "town_kana": "ヒジヤマコウエン",
    "street": null,
    "office_name": null,
    "office_name_kana": null
  },
  "0816": {
    "postcode": "7320816",
    "prefecture": "広島県",
    "prefecture_kana": "ヒロシマケン",
    "prefecture_code": 34,
    "city": "広島市南区",
    "city_kana": "ヒロシマシミナミク",
    "town": "比治山本町",
    "town_kana": "ヒジヤマホンマチ",
    "street": null,
    "office_name": null,
    "office_name_kana": null
  },
  "0817": {
    "postcode": "7320817",
    "prefecture": "広島県",
    "prefecture_kana": "ヒロシマケン",
    "prefecture_code": 34,
    "city": "広島市南区",
    "city_kana": "ヒロシマシミナミク",
    "town": "比治山町",
    "town_kana": "ヒジヤマチョウ",
    "street": null,
    "office_name": null,
    "office_name_kana": null
  },
  "0818": {
    "postcode": "7320818",
    "prefecture": "広島県",
    "prefecture_kana": "ヒロシマケン",
    "prefecture_code": 34,
    "city": "広島市南区",
    "city_kana": "ヒロシマシミナミク",
    "town": "段原日出",
    "town_kana": "ダンバラヒノデ",
    "street": null,
    "office_name": null,
    "office_name_kana": null
  },
  "0819": {
    "postcode": "7320819",
    "prefecture": "広島県",
    "prefecture_kana": "ヒロシマケン",
    "prefecture_code": 34,
    "city": "広島市南区",
    "city_kana": "ヒロシマシミナミク",
    "town": "段原山崎",
    "town_kana": "ダンバラヤマサキ",
    "street": null,
    "office_name": null,
    "office_name_kana": null
  },
  "0821": {
    "postcode": "7320821",
    "prefecture": "広島県",
    "prefecture_kana": "ヒロシマケン",
    "prefecture_code": 34,
    "city": "広島市南区",
    "city_kana": "ヒロシマシミナミク",
    "town": "大須賀町",
    "town_kana": "オオスガチョウ",
    "street": null,
    "office_name": null,
    "office_name_kana": null
  },
  "0822": {
    "postcode": "7320822",
    "prefecture": "広島県",
    "prefecture_kana": "ヒロシマケン",
    "prefecture_code": 34,
    "city": "広島市南区",
    "city_kana": "ヒロシマシミナミク",
    "town": "松原町",
    "town_kana": "マツバラチョウ",
    "street": null,
    "office_name": null,
    "office_name_kana": null
  },
  "0823": {
    "postcode": "7320823",
    "prefecture": "広島県",
    "prefecture_kana": "ヒロシマケン",
    "prefecture_code": 34,
    "city": "広島市南区",
    "city_kana": "ヒロシマシミナミク",
    "town": "猿猴橋町",
    "town_kana": "エンコウバシチョウ",
    "street": null,
    "office_name": null,
    "office_name_kana": null
  },
  "0824": {
    "postcode": "7320824",
    "prefecture": "広島県",
    "prefecture_kana": "ヒロシマケン",
    "prefecture_code": 34,
    "city": "広島市南区",
    "city_kana": "ヒロシマシミナミク",
    "town": "的場町",
    "town_kana": "マトバチョウ",
    "street": null,
    "office_name": null,
    "office_name_kana": null
  },
  "0825": {
    "postcode": "7320825",
    "prefecture": "広島県",
    "prefecture_kana": "ヒロシマケン",
    "prefecture_code": 34,
    "city": "広島市南区",
    "city_kana": "ヒロシマシミナミク",
    "town": "金屋町",
    "town_kana": "キンヤチョウ",
    "street": null,
    "office_name": null,
    "office_name_kana": null
  },
  "0826": {
    "postcode": "7320826",
    "prefecture": "広島県",
    "prefecture_kana": "ヒロシマケン",
    "prefecture_code": 34,
    "city": "広島市南区",
    "city_kana": "ヒロシマシミナミク",
    "town": "松川町",
    "town_kana": "マツカワチョウ",
    "street": null,
    "office_name": null,
    "office_name_kana": null
  },
  "0827": {
    "postcode": "7320827",
    "prefecture": "広島県",
    "prefecture_kana": "ヒロシマケン",
    "prefecture_code": 34,
    "city": "広島市南区",
    "city_kana": "ヒロシマシミナミク",
    "town": "稲荷町",
    "town_kana": "イナリマチ",
    "street": null,
    "office_name": null,
    "office_name_kana": null
  },
  "0828": {
    "postcode": "7320828",
    "prefecture": "広島県",
    "prefecture_kana": "ヒロシマケン",
    "prefecture_code": 34,
    "city": "広島市南区",
    "city_kana": "ヒロシマシミナミク",
    "town": "京橋町",
    "town_kana": "キョウバシチョウ",
    "street": null,
    "office_name": null,
    "office_name_kana": null
  },
  "8501": {
    "postcode": "7328501",
    "prefecture": "広島県",
    "prefecture_kana": "ヒロシマケン",
    "prefecture_code": 34,
    "city": "広島市南区",
    "city_kana": "ヒロシマシミナミク",
    "town": "南蟹屋",
    "town_kana": "ミナミカニヤ",
    "street": "２丁目３番１号",
    "office_name": "株式会社　広島東洋カープ",
    "office_name_kana": "カブシキガイシヤ ヒロシマトウヨウカ-プ"
  },
  "8503": {
    "postcode": "7328503",
    "prefecture": "広島県",
    "prefecture_kana": "ヒロシマケン",
    "prefecture_code": 34,
    "city": "広島市東区",
    "city_kana": "ヒロシマシヒガシク",
    "town": "温品",
    "town_kana": "ヌクシナ",
    "street": "１丁目３−１",
    "office_name": "株式会社　ヒロテック　温品工場",
    "office_name_kana": "カブシキガイシヤ ヒロテツク ヌクシナコウジヨウ"
  },
  "8504": {
    "postcode": "7328504",
    "prefecture": "広島県",
    "prefecture_kana": "ヒロシマケン",
    "prefecture_code": 34,
    "city": "広島市東区",
    "city_kana": "ヒロシマシヒガシク",
    "town": "二葉の里",
    "town_kana": "フタバノサト",
    "street": "１−１−４６",
    "office_name": "生活協同組合連合会　コープ中国四国事業連合",
    "office_name_kana": "セイカツキヨウドウクミアイレンゴウカイ コ-プチユウゴクシコクジギヨウレンゴウ"
  },
  "8505": {
    "postcode": "7328505",
    "prefecture": "広島県",
    "prefecture_kana": "ヒロシマケン",
    "prefecture_code": 34,
    "city": "広島市東区",
    "city_kana": "ヒロシマシヒガシク",
    "town": "曙",
    "town_kana": "アケボノ",
    "street": "４丁目１−２８",
    "office_name": "全労済広島県本部",
    "office_name_kana": "ゼンロウサイヒロシマケンホンブ"
  },
  "8507": {
    "postcode": "7328507",
    "prefecture": "広島県",
    "prefecture_kana": "ヒロシマケン",
    "prefecture_code": 34,
    "city": "広島市東区",
    "city_kana": "ヒロシマシヒガシク",
    "town": "光町",
    "town_kana": "ヒカリマチ",
    "street": "２丁目８−３２",
    "office_name": "広島県　学校生活協同組合",
    "office_name_kana": "ヒロシマケン ガツコウセイカツキヨウドウクミアイ"
  },
  "8508": {
    "postcode": "7328508",
    "prefecture": "広島県",
    "prefecture_kana": "ヒロシマケン",
    "prefecture_code": 34,
    "city": "広島市東区",
    "city_kana": "ヒロシマシヒガシク",
    "town": "光町",
    "town_kana": "ヒカリマチ",
    "street": "１丁目１５−３９",
    "office_name": "創価学会　広島池田平和記念会館",
    "office_name_kana": "ソウカガツカイ ヒロシマイケダヘイワキネンカイカン"
  },
  "8509": {
    "postcode": "7328509",
    "prefecture": "広島県",
    "prefecture_kana": "ヒロシマケン",
    "prefecture_code": 34,
    "city": "広島市東区",
    "city_kana": "ヒロシマシヒガシク",
    "town": "牛田新町",
    "town_kana": "ウシタシンマチ",
    "street": "４丁目１−１",
    "office_name": "比治山大学・比治山大学短期大学部",
    "office_name_kana": "ヒジヤマダイガク・ヒジヤマダイガクタンキダイガクブ"
  },
  "8510": {
    "postcode": "7328510",
    "prefecture": "広島県",
    "prefecture_kana": "ヒロシマケン",
    "prefecture_code": 34,
    "city": "広島市東区",
    "city_kana": "ヒロシマシヒガシク",
    "town": "東蟹屋町",
    "town_kana": "ヒガシカニヤチョウ",
    "street": "９番３８号",
    "office_name": "広島市東区役所",
    "office_name_kana": "ヒロシマシヒガシクヤクシヨ"
  },
  "8511": {
    "postcode": "7328511",
    "prefecture": "広島県",
    "prefecture_kana": "ヒロシマケン",
    "prefecture_code": 34,
    "city": "広島市南区",
    "city_kana": "ヒロシマシミナミク",
    "town": "松原町",
    "town_kana": "マツバラチョウ",
    "street": "９−１",
    "office_name": "株式会社　福屋　広島駅前店",
    "office_name_kana": "カブシキガイシヤ フクヤ ヒロシマエキマエテン"
  },
  "8512": {
    "postcode": "7328512",
    "prefecture": "広島県",
    "prefecture_kana": "ヒロシマケン",
    "prefecture_code": 34,
    "city": "広島市東区",
    "city_kana": "ヒロシマシヒガシク",
    "town": "光町",
    "town_kana": "ヒカリマチ",
    "street": "１丁目１０−１９",
    "office_name": "全国健康保険協会　広島支部",
    "office_name_kana": "ゼンコクケンコウホケンキヨウカイ ヒロシマシブ"
  },
  "8555": {
    "postcode": "7328555",
    "prefecture": "広島県",
    "prefecture_kana": "ヒロシマケン",
    "prefecture_code": 34,
    "city": "広島市東区",
    "city_kana": "ヒロシマシヒガシク",
    "town": "二葉の里",
    "town_kana": "フタバノサト",
    "street": "３丁目３−１",
    "office_name": "株式会社　イズミ",
    "office_name_kana": "カブシキガイシヤ イズミ"
  },
  "8564": {
    "postcode": "7328564",
    "prefecture": "広島県",
    "prefecture_kana": "ヒロシマケン",
    "prefecture_code": 34,
    "city": "広島市南区",
    "city_kana": "ヒロシマシミナミク",
    "town": "大州",
    "town_kana": "オオズ",
    "street": "４丁目４−３２",
    "office_name": "中国電機製造　株式会社",
    "office_name_kana": "チユウゴクデンキセイゾウ カブシキガイシヤ"
  },
  "8565": {
    "postcode": "7328565",
    "prefecture": "広島県",
    "prefecture_kana": "ヒロシマケン",
    "prefecture_code": 34,
    "city": "広島市南区",
    "city_kana": "ヒロシマシミナミク",
    "town": "金屋町",
    "town_kana": "キンヤチョウ",
    "street": "９−８",
    "office_name": "株式会社　京屋",
    "office_name_kana": "カブシキガイシヤ キヨウヤ"
  },
  "8566": {
    "postcode": "7328566",
    "prefecture": "広島県",
    "prefecture_kana": "ヒロシマケン",
    "prefecture_code": 34,
    "city": "広島市南区",
    "city_kana": "ヒロシマシミナミク",
    "town": "稲荷町",
    "town_kana": "イナリマチ",
    "street": "１番１４号",
    "office_name": "中国労働金庫",
    "office_name_kana": "チユウゴクロウドウキンコ"
  },
  "8570": {
    "postcode": "7328570",
    "prefecture": "広島県",
    "prefecture_kana": "ヒロシマケン",
    "prefecture_code": 34,
    "city": "広島市東区",
    "city_kana": "ヒロシマシヒガシク",
    "town": "二葉の里",
    "town_kana": "フタバノサト",
    "street": "３丁目３−１",
    "office_name": "株式会社　ゆめカード",
    "office_name_kana": "カブシキガイシヤ ユメカ-ド"
  },
  "8575": {
    "postcode": "7328575",
    "prefecture": "広島県",
    "prefecture_kana": "ヒロシマケン",
    "prefecture_code": 34,
    "city": "広島市東区",
    "city_kana": "ヒロシマシヒガシク",
    "town": "二葉の里",
    "town_kana": "フタバノサト",
    "street": "３丁目５番４号",
    "office_name": "広島テレビ放送　株式会社",
    "office_name_kana": "ヒロシマテレビホウソウ カブシキカイシヤ"
  },
  "8580": {
    "postcode": "7328580",
    "prefecture": "広島県",
    "prefecture_kana": "ヒロシマケン",
    "prefecture_code": 34,
    "city": "広島市東区",
    "city_kana": "ヒロシマシヒガシク",
    "town": "二葉の里",
    "town_kana": "フタバノサト",
    "street": "３丁目３番１号",
    "office_name": "株式会社　ユアーズ",
    "office_name_kana": "カブシキカイシヤ ユア-ズ"
  },
  "8652": {
    "postcode": "7328652",
    "prefecture": "広島県",
    "prefecture_kana": "ヒロシマケン",
    "prefecture_code": 34,
    "city": "広島市東区",
    "city_kana": "ヒロシマシヒガシク",
    "town": "光町",
    "town_kana": "ヒカリマチ",
    "street": "２丁目４−１７（広島東郵便局私書箱第７７号）",
    "office_name": "大正製薬　株式会社　広島支店",
    "office_name_kana": "タイシヨウセイヤク カブシキガイシヤ ヒロシマシテン"
  },
  "8765": {
    "postcode": "7328765",
    "prefecture": "広島県",
    "prefecture_kana": "ヒロシマケン",
    "prefecture_code": 34,
    "city": "広島市南区",
    "city_kana": "ヒロシマシミナミク",
    "town": "大州",
    "town_kana": "オオズ",
    "street": "３丁目４−１",
    "office_name": "ＤＮＴ山陽ケミカル　株式会社",
    "office_name_kana": "デイ-エヌテイ-サンヨウケミカル カブシキガイシヤ"
  }
}