{
  "0000": {
    "postcode": "7340000",
    "prefecture": "広島県",
    "prefecture_kana": "ヒロシマケン",
    "prefecture_code": 34,
    "city": "広島市南区",
    "city_kana": "ヒロシマシミナミク",
    "town": "",
    "town_kana": "",
    "street": null,
    "office_name": null,
    "office_name_kana": null
  },
  "0001": {
    "postcode": "7340001",
    "prefecture": "広島県",
    "prefecture_kana": "ヒロシマケン",
    "prefecture_code": 34,
    "city": "広島市南区",
    "city_kana": "ヒロシマシミナミク",
    "town": "出汐",
    "town_kana": "デシオ",
    "street": null,
    "office_name": null,
    "office_name_kana": null
  },
  "0002": {
    "postcode": "7340002",
    "prefecture": "広島県",
    "prefecture_kana": "ヒロシマケン",
    "prefecture_code": 34,
    "city": "広島市南区",
    "city_kana": "ヒロシマシミナミク",
    "town": "西旭町",
    "town_kana": "ニシアサヒマチ",
    "street": null,
    "office_name": null,
    "office_name_kana": null
  },
  "0003": {
    "postcode": "7340003",
    "prefecture": "広島県",
    "prefecture_kana": "ヒロシマケン",
    "prefecture_code": 34,
    "city": "広島市南区",
    "city_kana": "ヒロシマシミナミク",
    "town": "宇品東",
    "town_kana": "ウジナヒガシ",
    "street": null,
    "office_name": null,
    "office_name_kana": null
  },
  "0004": {
    "postcode": "7340004",
    "prefecture": "広島県",
    "prefecture_kana": "ヒロシマケン",
    "prefecture_code": 34,
    "city": "広島市南区",
    "city_kana": "ヒロシマシミナミク",
    "town": "宇品神田",
    "town_kana": "ウジナカンダ",
    "street": null,
    "office_name": null,
    "office_name_kana": null
  },
  "0005": {
    "postcode": "7340005",
    "prefecture": "広島県",
    "prefecture_kana": "ヒロシマケン",
    "prefecture_code": 34,
    "city": "広島市南区",
    "city_kana": "ヒロシマシミナミク",
    "town": "翠",
    "town_kana": "ミドリ",
    "street": null,
    "office_name": null,
    "office_name_kana": null
  },
  "0006": {
    "postcode": "7340006",
    "prefecture": "広島県",
    "prefecture_kana": "ヒロシマケン",
    "prefecture_code": 34,
    "city": "広島市南区",
    "city_kana": "ヒロシマシミナミク",
    "town": "西翠町",
    "town_kana": "ニシミドリマチ",
    "street": null,
    "office_name": null,
    "office_name_kana": null
  },
  "0007": {
    "postcode": "7340007",
    "prefecture": "広島県",
    "prefecture_kana": "ヒロシマケン",
    "prefecture_code": 34,
    "city": "広島市南区",
    "city_kana": "ヒロシマシミナミク",
    "town": "皆実町",
    "town_kana": "ミナミマチ",
    "street": null,
    "office_name": null,
    "office_name_kana": null
  },
  "0011": {
    "postcode": "7340011",
    "prefecture": "広島県",
    "prefecture_kana": "ヒロシマケン",
    "prefecture_code": 34,
    "city": "広島市南区",
    "city_kana": "ヒロシマシミナミク",
    "town": "宇品海岸",
    "town_kana": "ウジナカイガン",
    "street": null,
    "office_name": null,
    "office_name_kana": null
  },
  "0012": {
    "postcode": "7340012",
    "prefecture": "広島県",
    "prefecture_kana": "ヒロシマケン",
    "prefecture_code": 34,
    "city": "広島市南区",
    "city_kana": "ヒロシマシミナミク",
    "town": "元宇品町",
    "town_kana": "モトウジナマチ",
    "street": null,
    "office_name": null,
    "office_name_kana": null
  },
  "0013": {
    "postcode": "7340013",
    "prefecture": "広島県",
    "prefecture_kana": "ヒロシマケン",
    "prefecture_code": 34,
    "city": "広島市南区",
    "city_kana": "ヒロシマシミナミク",
    "town": "出島",
    "town_kana": "デジマ",
    "street": null,
    "office_name": null,
    "office_name_kana": null
  },
  "0014": {
    "postcode": "7340014",
    "prefecture": "広島県",
    "prefecture_kana": "ヒロシマケン",
    "prefecture_code": 34,
    "city": "広島市南区",
    "city_kana": "ヒロシマシミナミク",
    "town": "宇品西",
    "town_kana": "ウジナニシ",
    "street": null,
    "office_name": null,
    "office_name_kana": null
  },
  "0015": {
    "postcode": "7340015",
    "prefecture": "広島県",
    "prefecture_kana": "ヒロシマケン",
    "prefecture_code": 34,
    "city": "広島市南区",
    "city_kana": "ヒロシマシミナミク",
    "town": "宇品御幸",
    "town_kana": "ウジナミユキ",
    "street": null,
    "office_name": null,
    "office_name_kana": null
  },
  "0016": {
    "postcode": "7340016",
    "prefecture": "広島県",
    "prefecture_kana": "ヒロシマケン",
    "prefecture_code": 34,
    "city": "広島市南区",
    "city_kana": "ヒロシマシミナミク",
    "town": "宇品町",
    "town_kana": "ウジナマチ",
    "street": null,
    "office_name": null,
    "office_name_kana": null
  },
  "0017": {
    "postcode": "7340017",
    "prefecture": "広島県",
    "prefecture_kana": "ヒロシマケン",
    "prefecture_code": 34,
    "city": "広島市南区",
    "city_kana": "ヒロシマシミナミク",
    "town": "似島町",
    "town_kana": "ニノシマチョウ",
    "street": null,
    "office_name": null,
    "office_name_kana": null
  },
  "0021": {
    "postcode": "7340021",
    "prefecture": "広島県",
    "prefecture_kana": "ヒロシマケン",
    "prefecture_code": 34,
    "city": "広島市南区",
    "city_kana": "ヒロシマシミナミク",
    "town": "上東雲町",
    "town_kana": "カミシノノメチョウ",
    "street": null,
    "office_name": null,
    "office_name_kana": null
  },
  "0022": {
    "postcode": "7340022",
    "prefecture": "広島県",
    "prefecture_kana": "ヒロシマケン",
    "prefecture_code": 34,
    "city": "広島市南区",
    "city_kana": "ヒロシマシミナミク",
    "town": "東雲",
    "town_kana": "シノノメ",
    "street": null,
    "office_name": null,
    "office_name_kana": null
  },
  "0023": {
    "postcode": "7340023",
    "prefecture": "広島県",
    "prefecture_kana": "ヒロシマケン",
    "prefecture_code": 34,
    "city": "広島市南区",
    "city_kana": "ヒロシマシミナミク",
    "town": "東雲本町",
    "town_kana": "シノノメホンマチ",
    "street": null,
    "office_name": null,
    "office_name_kana": null
  },
  "0024": {
    "postcode": "7340024",
    "prefecture": "広島県",
    "prefecture_kana": "ヒロシマケン",
    "prefecture_code": 34,
    "city": "広島市南区",
    "city_kana": "ヒロシマシミナミク",
    "town": "仁保新町",
    "town_kana": "ニホシンマチ",
    "street": null,
    "office_name": null,
    "office_name_kana": null
  },
  "0025": {
    "postcode": "7340025",
    "prefecture": "広島県",
    "prefecture_kana": "ヒロシマケン",
    "prefecture_code": 34,
    "city": "広島市南区",
    "city_kana": "ヒロシマシミナミク",
    "town": "東本浦町",
    "town_kana": "ヒガシホンウラチョウ",
    "street": null,
    "office_name": null,
    "office_name_kana": null
  },
  "0026": {
    "postcode": "7340026",
    "prefecture": "広島県",
    "prefecture_kana": "ヒロシマケン",
    "prefecture_code": 34,
    "city": "広島市南区",
    "city_kana": "ヒロシマシミナミク",
    "town": "仁保",
    "town_kana": "ニホ",
    "street": null,
    "office_name": null,
    "office_name_kana": null
  },
  "0027": {
    "postcode": "7340027",
    "prefecture": "広島県",
    "prefecture_kana": "ヒロシマケン",
    "prefecture_code": 34,
    "city": "広島市南区",
    "city_kana": "ヒロシマシミナミク",
    "town": "仁保南",
    "town_kana": "ニホミナミ",
    "street": null,
    "office_name": null,
    "office_name_kana": null
  },
  "0031": {
    "postcode": "7340031",
    "prefecture": "広島県",
    "prefecture_kana": "ヒロシマケン",
    "prefecture_code": 34,
    "city": "広島市南区",
    "city_kana": "ヒロシマシミナミク",
    "town": "日宇那町",
    "town_kana": "ヒウナチョウ",
    "street": null,
    "office_name": null,
    "office_name_kana": null
  },
  "0032": {
    "postcode": "7340032",
    "prefecture": "広島県",
    "prefecture_kana": "ヒロシマケン",
    "prefecture_code": 34,
    "city": "広島市南区",
    "city_kana": "ヒロシマシミナミク",
    "town": "楠那町",
    "town_kana": "クスナチョウ",
    "street": null,
    "office_name": null,
    "office_name_kana": null
  },
  "0033": {
    "postcode": "7340033",
    "prefecture": "広島県",
    "prefecture_kana": "ヒロシマケン",
    "prefecture_code": 34,
    "city": "広島市南区",
    "city_kana": "ヒロシマシミナミク",
    "town": "丹那新町",
    "town_kana": "タンナシンマチ",
    "street": null,
    "office_name": null,
    "office_name_kana": null
  },
  "0034": {
    "postcode": "7340034",
    "prefecture": "広島県",
    "prefecture_kana": "ヒロシマケン",
    "prefecture_code": 34,
    "city": "広島市南区",
    "city_kana": "ヒロシマシミナミク",
    "town": "丹那町",
    "town_kana": "タンナチョウ",
    "street": null,
    "office_name": null,
    "office_name_kana": null
  },
  "0035": {
    "postcode": "7340035",
    "prefecture": "広島県",
    "prefecture_kana": "ヒロシマケン",
    "prefecture_code": 34,
    "city": "広島市南区",
    "city_kana": "ヒロシマシミナミク",
    "town": "山城町",
    "town_kana": "ヤマシロチョウ",
    "street": null,
    "office_name": null,
    "office_name_kana": null
  },
  "0036": {
    "postcode": "7340036",
    "prefecture": "広島県",
    "prefecture_kana": "ヒロシマケン",
    "prefecture_code": 34,
    "city": "広島市南区",
    "city_kana": "ヒロシマシミナミク",
    "town": "旭",
    "town_kana": "アサヒ",
    "street": null,
    "office_name": null,
    "office_name_kana": null
  },
  "0037": {
    "postcode": "7340037",
    "prefecture": "広島県",
    "prefecture_kana": "ヒロシマケン",
    "prefecture_code": 34,
    "city": "広島市南区",
    "city_kana": "ヒロシマシミナミク",
    "town": "霞",
    "town_kana": "カスミ",
    "street": null,
    "office_name": null,
    "office_name_kana": null
  },
  "0041": {
    "postcode": "7340041",
    "prefecture": "広島県",
    "prefecture_kana": "ヒロシマケン",
    "prefecture_code": 34,
    "city": "広島市南区",
    "city_kana": "ヒロシマシミナミク",
    "town": "黄金山町",
    "town_kana": "オウゴンザンチョウ",
    "street": null,
    "office_name": null,
    "office_name_kana": null
  },
  "0042": {
    "postcode": "7340042",
    "prefecture": "広島県",
    "prefecture_kana": "ヒロシマケン",
    "prefecture_code": 34,
    "city": "広島市南区",
    "city_kana": "ヒロシマシミナミク",
    "town": "北大河町",
    "town_kana": "キタオオコウチョウ",
    "street": null,
    "office_name": null,
    "office_name_kana": null
  },
  "0043": {
    "postcode": "7340043",
    "prefecture": "広島県",
    "prefecture_kana": "ヒロシマケン",
    "prefecture_code": 34,
    "city": "広島市南区",
    "city_kana": "ヒロシマシミナミク",
    "town": "南大河町",
    "town_kana": "ミナミオオコウチョウ",
    "street": null,
    "office_name": null,
    "office_name_kana": null
  },
  "0044": {
    "postcode": "7340044",
    "prefecture": "広島県",
    "prefecture_kana": "ヒロシマケン",
    "prefecture_code": 34,
    "city": "広島市南区",
    "city_kana": "ヒロシマシミナミク",
    "town": "西霞町",
    "town_kana": "ニシカスミチョウ",
    "street": null,
    "office_name": null,
    "office_name_kana": null
  },
  "0045": {
    "postcode": "7340045",
    "prefecture": "広島県",
    "prefecture_kana": "ヒロシマケン",
    "prefecture_code": 34,
    "city": "広島市南区",
    "city_kana": "ヒロシマシミナミク",
    "town": "西本浦町",
    "town_kana": "ニシホンウラチョウ",
    "street": null,
    "office_name": null,
    "office_name_kana": null
  },
  "0046": {
    "postcode": "7340046",
    "prefecture": "広島県",
    "prefecture_kana": "ヒロシマケン",
    "prefecture_code": 34,
    "city": "広島市南区",
    "city_kana": "ヒロシマシミナミク",
    "town": "東霞町",
    "town_kana": "ヒガシカスミチョウ",
    "street": null,
    "office_name": null,
    "office_name_kana": null
  },
  "0047": {
    "postcode": "7340047",
    "prefecture": "広島県",
    "prefecture_kana": "ヒロシマケン",
    "prefecture_code": 34,
    "city": "広島市南区",
    "city_kana": "ヒロシマシミナミク",
    "town": "本浦町",
    "town_kana": "ホンウラチョウ",
    "street": null,
    "office_name": null,
    "office_name_kana": null
  },
  "0051": {
    "postcode": "7340051",
    "prefecture": "広島県",
    "prefecture_kana": "ヒロシマケン",
    "prefecture_code": 34,
    "city": "広島市南区",
    "city_kana": "ヒロシマシミナミク",
    "town": "東青崎町",
    "town_kana": "ヒガシアオサキチョウ",
    "street": null,
    "office_name": null,
    "office_name_kana": null
  },
  "0052": {
    "postcode": "7340052",
    "prefecture": "広島県",
    "prefecture_kana": "ヒロシマケン",
    "prefecture_code": 34,
    "city": "広島市南区",
    "city_kana": "ヒロシマシミナミク",
    "town": "堀越",
    "town_kana": "ホリコシ",
    "street": null,
    "office_name": null,
    "office_name_kana": null
  },
  "0053": {
    "postcode": "7340053",
    "prefecture": "広島県",
    "prefecture_kana": "ヒロシマケン",
    "prefecture_code": 34,
    "city": "広島市南区",
    "city_kana": "ヒロシマシミナミク",
    "town": "青崎",
    "town_kana": "アオサキ",
    "street": null,
    "office_name": null,
    "office_name_kana": null
  },
  "0054": {
    "postcode": "7340054",
    "prefecture": "広島県",
    "prefecture_kana": "ヒロシマケン",
    "prefecture_code": 34,
    "city": "広島市南区",
    "city_kana": "ヒロシマシミナミク",
    "town": "月見町",
    "town_kana": "ツキミチョウ",
    "street": null,
    "office_name": null,
    "office_name_kana": null
  },
  "0055": {
    "postcode": "7340055",
    "prefecture": "広島県",
    "prefecture_kana": "ヒロシマケン",
    "prefecture_code": 34,
    "city": "広島市南区",
    "city_kana": "ヒロシマシミナミク",
    "town": "向洋新町",
    "town_kana": "ムカイナダシンマチ",
    "street": null,
    "office_name": null,
    "office_name_kana": null
  },
  "0056": {
    "postcode": "7340056",
    "prefecture": "広島県",
    "prefecture_kana": "ヒロシマケン",
    "prefecture_code": 34,
    "city": "広島市南区",
    "city_kana": "ヒロシマシミナミク",
    "town": "向洋沖町",
    "town_kana": "ムカイナダオキマチ",
    "street": null,
    "office_name": null,
    "office_name_kana": null
  },
  "0057": {
    "postcode": "7340057",
    "prefecture": "広島県",
    "prefecture_kana": "ヒロシマケン",
    "prefecture_code": 34,
    "city": "広島市南区",
    "city_kana": "ヒロシマシミナミク",
    "town": "仁保沖町",
    "town_kana": "ニホオキマチ",
    "street": null,
    "office_name": null,
    "office_name_kana": null
  },
  "0061": {
    "postcode": "7340061",
    "prefecture": "広島県",
    "prefecture_kana": "ヒロシマケン",
    "prefecture_code": 34,
    "city": "広島市南区",
    "city_kana": "ヒロシマシミナミク",
    "town": "向洋中町",
    "town_kana": "ムカイナダナカマチ",
    "street": null,
    "office_name": null,
    "office_name_kana": null
  },
  "0062": {
    "postcode": "7340062",
    "prefecture": "広島県",
    "prefecture_kana": "ヒロシマケン",
    "prefecture_code": 34,
    "city": "広島市南区",
    "city_kana": "ヒロシマシミナミク",
    "town": "向洋本町",
    "town_kana": "ムカイナダホンマチ",
    "street": null,
    "office_name": null,
    "office_name_kana": null
  },
  "0063": {
    "postcode": "7340063",
    "prefecture": "広島県",
    "prefecture_kana": "ヒロシマケン",
    "prefecture_code": 34,
    "city": "広島市南区",
    "city_kana": "ヒロシマシミナミク",
    "town": "向洋大原町",
    "town_kana": "ムカイナダオオハラチョウ",
    "street": null,
    "office_name": null,
    "office_name_kana": null
  },
  "0064": {
    "postcode": "7340064",
    "prefecture": "広島県",
    "prefecture_kana": "ヒロシマケン",
    "prefecture_code": 34,
    "city": "広島市南区",
    "city_kana": "ヒロシマシミナミク",
    "town": "小磯町",
    "town_kana": "コイソチョウ",
    "street": null,
    "office_name": null,
    "office_name_kana": null
  },
  "0101": {
    "postcode": "7340101",
    "prefecture": "広島県",
    "prefecture_kana": "ヒロシマケン",
    "prefecture_code": 34,
    "city": "呉市",
    "city_kana": "クレシ",
    "town": "豊浜町豊島",
    "town_kana": "トヨハマチョウトヨシマ",
    "street": null,
    "office_name": null,
    "office_name_kana": null
  },
  "0102": {
    "postcode": "7340102",
    "prefecture": "広島県",
    "prefecture_kana": "ヒロシマケン",
    "prefecture_code": 34,
    "city": "呉市",
    "city_kana": "クレシ",
    "town": "豊浜町大浜",
    "town_kana": "トヨハマチョウオオハマ",
    "street": null,
    "office_name": null,
    "office_name_kana": null
  },
  "0103": {
    "postcode": "7340103",
    "prefecture": "広島県",
    "prefecture_kana": "ヒロシマケン",
    "prefecture_code": 34,
    "city": "呉市",
    "city_kana": "クレシ",
    "town": "豊浜町斎島",
    "town_kana": "トヨハマチョウイツキシマ",
    "street": null,
    "office_name": null,
    "office_name_kana": null
  },
  "0301": {
    "postcode": "7340301",
    "prefecture": "広島県",
    "prefecture_kana": "ヒロシマケン",
    "prefecture_code": 34,
    "city": "呉市",
    "city_kana": "クレシ",
    "town": "豊町大長",
    "town_kana": "ユタカマチオオチョウ",
    "street": null,
    "office_name": null,
    "office_name_kana": null
  },
  "0302": {
    "postcode": "7340302",
    "prefecture": "広島県",
    "prefecture_kana": "ヒロシマケン",
    "prefecture_code": 34,
    "city": "呉市",
    "city_kana": "クレシ",
    "town": "豊町御手洗",
    "town_kana": "ユタカマチミタライ",
    "street": null,
    "office_name": null,
    "office_name_kana": null
  },
  "0303": {
    "postcode": "7340303",
    "prefecture": "広島県",
    "prefecture_kana": "ヒロシマケン",
    "prefecture_code": 34,
    "city": "呉市",
    "city_kana": "クレシ",
    "town": "豊町沖友",
    "town_kana": "ユタカマチオキトモ",
    "street": null,
    "office_name": null,
    "office_name_kana": null
  },
  "0304": {
    "postcode": "7340304",
    "prefecture": "広島県",
    "prefecture_kana": "ヒロシマケン",
    "prefecture_code": 34,
    "city": "呉市",
    "city_kana": "クレシ",
    "town": "豊町久比",
    "town_kana": "ユタカマチクビ",
    "street": null,
    "office_name": null,
    "office_name_kana": null
  },
  "8510": {
    "postcode": "7348510",
    "prefecture": "広島県",
    "prefecture_kana": "ヒロシマケン",
    "prefecture_code": 34,
    "city": "広島市南区",
    "city_kana": "ヒロシマシミナミク",
    "town": "出汐",
    "town_kana": "デシオ",
    "street": "２丁目３−３０",
    "office_name": "中電技術コンサルタント　株式会社",
    "office_name_kana": "チユウデンギジユツコンサルタント カブシキガイシヤ"
  },
  "8513": {
    "postcode": "7348513",
    "prefecture": "広島県",
    "prefecture_kana": "ヒロシマケン",
    "prefecture_code": 34,
    "city": "広島市南区",
    "city_kana": "ヒロシマシミナミク",
    "town": "出島",
    "town_kana": "デジマ",
    "street": "２丁目４番１４号",
    "office_name": "岡部　株式会社　中四国支店",
    "office_name_kana": "オカベ カブシキガイシヤ チユウシコクシテン"
  },
  "8515": {
    "postcode": "7348515",
    "prefecture": "広島県",
    "prefecture_kana": "ヒロシマケン",
    "prefecture_code": 34,
    "city": "広島市南区",
    "city_kana": "ヒロシマシミナミク",
    "town": "宇品海岸",
    "town_kana": "ウジナカイガン",
    "street": "１丁目１３番１３号",
    "office_name": "瀬戸内海汽船　株式会社",
    "office_name_kana": "セトナイカイキセン カブシキガイシヤ"
  },
  "8522": {
    "postcode": "7348522",
    "prefecture": "広島県",
    "prefecture_kana": "ヒロシマケン",
    "prefecture_code": 34,
    "city": "広島市南区",
    "city_kana": "ヒロシマシミナミク",
    "town": "皆実町",
    "town_kana": "ミナミマチ",
    "street": "１丁目５番４４号",
    "office_name": "広島市南区役所",
    "office_name_kana": "ヒロシマシミナミクヤクシヨ"
  },
  "8530": {
    "postcode": "7348530",
    "prefecture": "広島県",
    "prefecture_kana": "ヒロシマケン",
    "prefecture_code": 34,
    "city": "広島市南区",
    "city_kana": "ヒロシマシミナミク",
    "town": "宇品神田",
    "town_kana": "ウジナカンダ",
    "street": "１丁目５−４４",
    "office_name": "広島県立　広島病院",
    "office_name_kana": "ヒロシマケンリツ ヒロシマビヨウイン"
  },
  "8543": {
    "postcode": "7348543",
    "prefecture": "広島県",
    "prefecture_kana": "ヒロシマケン",
    "prefecture_code": 34,
    "city": "広島市南区",
    "city_kana": "ヒロシマシミナミク",
    "town": "元宇品町",
    "town_kana": "モトウジナマチ",
    "street": "２３−１",
    "office_name": "広島プリンスホテル",
    "office_name_kana": "ヒロシマプリンスホテル"
  },
  "8558": {
    "postcode": "7348558",
    "prefecture": "広島県",
    "prefecture_kana": "ヒロシマケン",
    "prefecture_code": 34,
    "city": "広島市南区",
    "city_kana": "ヒロシマシミナミク",
    "town": "宇品東",
    "town_kana": "ウジナヒガシ",
    "street": "１丁目１−７１",
    "office_name": "県立広島大学",
    "office_name_kana": "ケンリツヒロシマダイガク"
  },
  "8560": {
    "postcode": "7348560",
    "prefecture": "広島県",
    "prefecture_kana": "ヒロシマケン",
    "prefecture_code": 34,
    "city": "広島市南区",
    "city_kana": "ヒロシマシミナミク",
    "town": "宇品海岸",
    "town_kana": "ウジナカイガン",
    "street": "３丁目１０−１７",
    "office_name": "第六管区海上保安本部",
    "office_name_kana": "ダイロクカンクカイジヨウホアンホンブ"
  },
  "8567": {
    "postcode": "7348567",
    "prefecture": "広島県",
    "prefecture_kana": "ヒロシマケン",
    "prefecture_code": 34,
    "city": "広島市南区",
    "city_kana": "ヒロシマシミナミク",
    "town": "宇品東",
    "town_kana": "ウジナヒガシ",
    "street": "二丁目１番４２号",
    "office_name": "株式会社　熊平製作所",
    "office_name_kana": "カブシキガイシヤ クマヒラセイサクシヨ"
  },
  "8570": {
    "postcode": "7348570",
    "prefecture": "広島県",
    "prefecture_kana": "ヒロシマケン",
    "prefecture_code": 34,
    "city": "広島市南区",
    "city_kana": "ヒロシマシミナミク",
    "town": "出島",
    "town_kana": "デジマ",
    "street": "１丁目２１−１５",
    "office_name": "山根木材　株式会社",
    "office_name_kana": "ヤマネモクザイ カブシキガイシヤ"
  },
  "8585": {
    "postcode": "7348585",
    "prefecture": "広島県",
    "prefecture_kana": "ヒロシマケン",
    "prefecture_code": 34,
    "city": "広島市南区",
    "city_kana": "ヒロシマシミナミク",
    "town": "出汐",
    "town_kana": "デシオ",
    "street": "二丁目３番１９号",
    "office_name": "株式会社　テレビ新広島",
    "office_name_kana": "カブシキガイシヤ テレビシンヒロシマ"
  },
  "8798": {
    "postcode": "7348798",
    "prefecture": "広島県",
    "prefecture_kana": "ヒロシマケン",
    "prefecture_code": 34,
    "city": "広島市南区",
    "city_kana": "ヒロシマシミナミク",
    "town": "宇品東",
    "town_kana": "ウジナヒガシ",
    "street": "６丁目２−５０",
    "office_name": "中国郵政研修センター",
    "office_name_kana": "チユウゴクユウセイケンシユウセンタ-"
  }
}