{
  "0000": [
    {
      "postcode": "7400000",
      "prefecture": "山口県",
      "prefecture_kana": "ヤマグチケン",
      "prefecture_code": 35,
      "city": "岩国市",
      "city_kana": "イワクニシ",
      "town": "",
      "town_kana": "",
      "street": null,
      "office_name": null,
      "office_name_kana": null
    },
    {
      "postcode": "7400000",
      "prefecture": "山口県",
      "prefecture_kana": "ヤマグチケン",
      "prefecture_code": 35,
      "city": "玖珂郡和木町",
      "city_kana": "クガグンワキチョウ",
      "town": "",
      "town_kana": "",
      "street": null,
      "office_name": null,
      "office_name_kana": null
    }
  ],
  "0001": {
    "postcode": "7400001",
    "prefecture": "山口県",
    "prefecture_kana": "ヤマグチケン",
    "prefecture_code": 35,
    "city": "岩国市",
    "city_kana": "イワクニシ",
    "town": "装束町",
    "town_kana": "ショウゾクマチ",
    "street": null,
    "office_name": null,
    "office_name_kana": null
  },
  "0002": {
    "postcode": "7400002",
    "prefecture": "山口県",
    "prefecture_kana": "ヤマグチケン",
    "prefecture_code": 35,
    "city": "岩国市",
    "city_kana": "イワクニシ",
    "town": "新港町",
    "town_kana": "シンミナトマチ",
    "street": null,
    "office_name": null,
    "office_name_kana": null
  },
  "0003": {
    "postcode": "7400003",
    "prefecture": "山口県",
    "prefecture_kana": "ヤマグチケン",
    "prefecture_code": 35,
    "city": "岩国市",
    "city_kana": "イワクニシ",
    "town": "飯田町",
    "town_kana": "イイダマチ",
    "street": null,
    "office_name": null,
    "office_name_kana": null
  },
  "0004": {
    "postcode": "7400004",
    "prefecture": "山口県",
    "prefecture_kana": "ヤマグチケン",
    "prefecture_code": 35,
    "city": "岩国市",
    "city_kana": "イワクニシ",
    "town": "昭和町",
    "town_kana": "ショウワマチ",
    "street": null,
    "office_name": null,
    "office_name_kana": null
  },
  "0011": {
    "postcode": "7400011",
    "prefecture": "山口県",
    "prefecture_kana": "ヤマグチケン",
    "prefecture_code": 35,
    "city": "岩国市",
    "city_kana": "イワクニシ",
    "town": "立石町",
    "town_kana": "タテイシマチ",
    "street": null,
    "office_name": null,
    "office_name_kana": null
  },
  "0012": {
    "postcode": "7400012",
    "prefecture": "山口県",
    "prefecture_kana": "ヤマグチケン",
    "prefecture_code": 35,
    "city": "岩国市",
    "city_kana": "イワクニシ",
    "town": "元町",
    "town_kana": "モトマチ",
    "street": null,
    "office_name": null,
    "office_name_kana": null
  },
  "0013": {
    "postcode": "7400013",
    "prefecture": "山口県",
    "prefecture_kana": "ヤマグチケン",
    "prefecture_code": 35,
    "city": "岩国市",
    "city_kana": "イワクニシ",
    "town": "桂町",
    "town_kana": "カツラマチ",
    "street": null,
    "office_name": null,
    "office_name_kana": null
  },
  "0014": {
    "postcode": "7400014",
    "prefecture": "山口県",
    "prefecture_kana": "ヤマグチケン",
    "prefecture_code": 35,
    "city": "岩国市",
    "city_kana": "イワクニシ",
    "town": "日の出町",
    "town_kana": "ヒノデマチ",
    "street": null,
    "office_name": null,
    "office_name_kana": null
  },
  "0015": {
    "postcode": "7400015",
    "prefecture": "山口県",
    "prefecture_kana": "ヤマグチケン",
    "prefecture_code": 35,
    "city": "岩国市",
    "city_kana": "イワクニシ",
    "town": "川口町",
    "town_kana": "カワグチマチ",
    "street": null,
    "office_name": null,
    "office_name_kana": null
  },
  "0016": {
    "postcode": "7400016",
    "prefecture": "山口県",
    "prefecture_kana": "ヤマグチケン",
    "prefecture_code": 35,
    "city": "岩国市",
    "city_kana": "イワクニシ",
    "town": "三笠町",
    "town_kana": "ミカサマチ",
    "street": null,
    "office_name": null,
    "office_name_kana": null
  },
  "0017": {
    "postcode": "7400017",
    "prefecture": "山口県",
    "prefecture_kana": "ヤマグチケン",
    "prefecture_code": 35,
    "city": "岩国市",
    "city_kana": "イワクニシ",
    "town": "今津町",
    "town_kana": "イマヅマチ",
    "street": null,
    "office_name": null,
    "office_name_kana": null
  },
  "0018": {
    "postcode": "7400018",
    "prefecture": "山口県",
    "prefecture_kana": "ヤマグチケン",
    "prefecture_code": 35,
    "city": "岩国市",
    "city_kana": "イワクニシ",
    "town": "麻里布町",
    "town_kana": "マリフマチ",
    "street": null,
    "office_name": null,
    "office_name_kana": null
  },
  "0019": {
    "postcode": "7400019",
    "prefecture": "山口県",
    "prefecture_kana": "ヤマグチケン",
    "prefecture_code": 35,
    "city": "岩国市",
    "city_kana": "イワクニシ",
    "town": "砂山町",
    "town_kana": "スナヤママチ",
    "street": null,
    "office_name": null,
    "office_name_kana": null
  },
  "0021": {
    "postcode": "7400021",
    "prefecture": "山口県",
    "prefecture_kana": "ヤマグチケン",
    "prefecture_code": 35,
    "city": "岩国市",
    "city_kana": "イワクニシ",
    "town": "室の木町",
    "town_kana": "ムロノキマチ",
    "street": null,
    "office_name": null,
    "office_name_kana": null
  },
  "0022": {
    "postcode": "7400022",
    "prefecture": "山口県",
    "prefecture_kana": "ヤマグチケン",
    "prefecture_code": 35,
    "city": "岩国市",
    "city_kana": "イワクニシ",
    "town": "山手町",
    "town_kana": "ヤマテマチ",
    "street": null,
    "office_name": null,
    "office_name_kana": null
  },
  "0023": {
    "postcode": "7400023",
    "prefecture": "山口県",
    "prefecture_kana": "ヤマグチケン",
    "prefecture_code": 35,
    "city": "岩国市",
    "city_kana": "イワクニシ",
    "town": "川下町",
    "town_kana": "カワシモマチ",
    "street": null,
    "office_name": null,
    "office_name_kana": null
  },
  "0024": {
    "postcode": "7400024",
    "prefecture": "山口県",
    "prefecture_kana": "ヤマグチケン",
    "prefecture_code": 35,
    "city": "岩国市",
    "city_kana": "イワクニシ",
    "town": "旭町",
    "town_kana": "アサヒマチ",
    "street": null,
    "office_name": null,
    "office_name_kana": null
  },
  "0025": {
    "postcode": "7400025",
    "prefecture": "山口県",
    "prefecture_kana": "ヤマグチケン",
    "prefecture_code": 35,
    "city": "岩国市",
    "city_kana": "イワクニシ",
    "town": "三角町",
    "town_kana": "ミスミマチ",
    "street": null,
    "office_name": null,
    "office_name_kana": null
  },
  "0026": {
    "postcode": "7400026",
    "prefecture": "山口県",
    "prefecture_kana": "ヤマグチケン",
    "prefecture_code": 35,
    "city": "岩国市",
    "city_kana": "イワクニシ",
    "town": "車町",
    "town_kana": "クルママチ",
    "street": null,
    "office_name": null,
    "office_name_kana": null
  },
  "0027": {
    "postcode": "7400027",
    "prefecture": "山口県",
    "prefecture_kana": "ヤマグチケン",
    "prefecture_code": 35,
    "city": "岩国市",
    "city_kana": "イワクニシ",
    "town": "中津町",
    "town_kana": "ナカヅマチ",
    "street": null,
    "office_name": null,
    "office_name_kana": null
  },
  "0028": {
    "postcode": "7400028",
    "prefecture": "山口県",
    "prefecture_kana": "ヤマグチケン",
    "prefecture_code": 35,
    "city": "岩国市",
    "city_kana": "イワクニシ",
    "town": "楠町",
    "town_kana": "クスノキマチ",
    "street": null,
    "office_name": null,
    "office_name_kana": null
  },
  "0031": {
    "postcode": "7400031",
    "prefecture": "山口県",
    "prefecture_kana": "ヤマグチケン",
    "prefecture_code": 35,
    "city": "岩国市",
    "city_kana": "イワクニシ",
    "town": "門前町",
    "town_kana": "モンゼンマチ",
    "street": null,
    "office_name": null,
    "office_name_kana": null
  },
  "0032": {
    "postcode": "7400032",
    "prefecture": "山口県",
    "prefecture_kana": "ヤマグチケン",
    "prefecture_code": 35,
    "city": "岩国市",
    "city_kana": "イワクニシ",
    "town": "尾津町",
    "town_kana": "オヅマチ",
    "street": null,
    "office_name": null,
    "office_name_kana": null
  },
  "0033": {
    "postcode": "7400033",
    "prefecture": "山口県",
    "prefecture_kana": "ヤマグチケン",
    "prefecture_code": 35,
    "city": "岩国市",
    "city_kana": "イワクニシ",
    "town": "灘町",
    "town_kana": "ナダマチ",
    "street": null,
    "office_name": null,
    "office_name_kana": null
  },
  "0034": {
    "postcode": "7400034",
    "prefecture": "山口県",
    "prefecture_kana": "ヤマグチケン",
    "prefecture_code": 35,
    "city": "岩国市",
    "city_kana": "イワクニシ",
    "town": "南岩国町",
    "town_kana": "ミナミイワクニマチ",
    "street": null,
    "office_name": null,
    "office_name_kana": null
  },
  "0035": {
    "postcode": "7400035",
    "prefecture": "山口県",
    "prefecture_kana": "ヤマグチケン",
    "prefecture_code": 35,
    "city": "岩国市",
    "city_kana": "イワクニシ",
    "town": "海土路町",
    "town_kana": "ミドロマチ",
    "street": null,
    "office_name": null,
    "office_name_kana": null
  },
  "0036": {
    "postcode": "7400036",
    "prefecture": "山口県",
    "prefecture_kana": "ヤマグチケン",
    "prefecture_code": 35,
    "city": "岩国市",
    "city_kana": "イワクニシ",
    "town": "藤生町",
    "town_kana": "フジュウマチ",
    "street": null,
    "office_name": null,
    "office_name_kana": null
  },
  "0037": {
    "postcode": "7400037",
    "prefecture": "山口県",
    "prefecture_kana": "ヤマグチケン",
    "prefecture_code": 35,
    "city": "岩国市",
    "city_kana": "イワクニシ",
    "town": "愛宕町",
    "town_kana": "アタゴマチ",
    "street": null,
    "office_name": null,
    "office_name_kana": null
  },
  "0041": {
    "postcode": "7400041",
    "prefecture": "山口県",
    "prefecture_kana": "ヤマグチケン",
    "prefecture_code": 35,
    "city": "岩国市",
    "city_kana": "イワクニシ",
    "town": "黒磯町",
    "town_kana": "クロイソマチ",
    "street": null,
    "office_name": null,
    "office_name_kana": null
  },
  "0042": {
    "postcode": "7400042",
    "prefecture": "山口県",
    "prefecture_kana": "ヤマグチケン",
    "prefecture_code": 35,
    "city": "岩国市",
    "city_kana": "イワクニシ",
    "town": "青木町",
    "town_kana": "オオギマチ",
    "street": null,
    "office_name": null,
    "office_name_kana": null
  },
  "0043": {
    "postcode": "7400043",
    "prefecture": "山口県",
    "prefecture_kana": "ヤマグチケン",
    "prefecture_code": 35,
    "city": "岩国市",
    "city_kana": "イワクニシ",
    "town": "保津町",
    "town_kana": "ホウヅマチ",
    "street": null,
    "office_name": null,
    "office_name_kana": null
  },
  "0044": {
    "postcode": "7400044",
    "prefecture": "山口県",
    "prefecture_kana": "ヤマグチケン",
    "prefecture_code": 35,
    "city": "岩国市",
    "city_kana": "イワクニシ",
    "town": "通津",
    "town_kana": "ツヅ",
    "street": null,
    "office_name": null,
    "office_name_kana": null
  },
  "0045": {
    "postcode": "7400045",
    "prefecture": "山口県",
    "prefecture_kana": "ヤマグチケン",
    "prefecture_code": 35,
    "city": "岩国市",
    "city_kana": "イワクニシ",
    "town": "長野",
    "town_kana": "ナガノ",
    "street": null,
    "office_name": null,
    "office_name_kana": null
  },
  "0051": {
    "postcode": "7400051",
    "prefecture": "山口県",
    "prefecture_kana": "ヤマグチケン",
    "prefecture_code": 35,
    "city": "岩国市",
    "city_kana": "イワクニシ",
    "town": "柱島",
    "town_kana": "ハシラジマ",
    "street": null,
    "office_name": null,
    "office_name_kana": null
  },
  "0061": {
    "postcode": "7400061",
    "prefecture": "山口県",
    "prefecture_kana": "ヤマグチケン",
    "prefecture_code": 35,
    "city": "玖珂郡和木町",
    "city_kana": "クガグンワキチョウ",
    "town": "和木",
    "town_kana": "ワキ",
    "street": null,
    "office_name": null,
    "office_name_kana": null
  },
  "0062": {
    "postcode": "7400062",
    "prefecture": "山口県",
    "prefecture_kana": "ヤマグチケン",
    "prefecture_code": 35,
    "city": "玖珂郡和木町",
    "city_kana": "クガグンワキチョウ",
    "town": "瀬田",
    "town_kana": "セタ",
    "street": null,
    "office_name": null,
    "office_name_kana": null
  },
  "0063": {
    "postcode": "7400063",
    "prefecture": "山口県",
    "prefecture_kana": "ヤマグチケン",
    "prefecture_code": 35,
    "city": "玖珂郡和木町",
    "city_kana": "クガグンワキチョウ",
    "town": "関ケ浜",
    "town_kana": "セキガハマ",
    "street": null,
    "office_name": null,
    "office_name_kana": null
  },
  "0301": {
    "postcode": "7400301",
    "prefecture": "山口県",
    "prefecture_kana": "ヤマグチケン",
    "prefecture_code": 35,
    "city": "岩国市",
    "city_kana": "イワクニシ",
    "town": "行波",
    "town_kana": "ユカバ",
    "street": null,
    "office_name": null,
    "office_name_kana": null
  },
  "0302": {
    "postcode": "7400302",
    "prefecture": "山口県",
    "prefecture_kana": "ヤマグチケン",
    "prefecture_code": 35,
    "city": "岩国市",
    "city_kana": "イワクニシ",
    "town": "下",
    "town_kana": "シモ",
    "street": null,
    "office_name": null,
    "office_name_kana": null
  },
  "0303": {
    "postcode": "7400303",
    "prefecture": "山口県",
    "prefecture_kana": "ヤマグチケン",
    "prefecture_code": 35,
    "city": "岩国市",
    "city_kana": "イワクニシ",
    "town": "杭名",
    "town_kana": "クイナ",
    "street": null,
    "office_name": null,
    "office_name_kana": null
  },
  "0304": {
    "postcode": "7400304",
    "prefecture": "山口県",
    "prefecture_kana": "ヤマグチケン",
    "prefecture_code": 35,
    "city": "岩国市",
    "city_kana": "イワクニシ",
    "town": "相ノ谷",
    "town_kana": "アイノタニ",
    "street": null,
    "office_name": null,
    "office_name_kana": null
  },
  "0305": {
    "postcode": "7400305",
    "prefecture": "山口県",
    "prefecture_kana": "ヤマグチケン",
    "prefecture_code": 35,
    "city": "岩国市",
    "city_kana": "イワクニシ",
    "town": "二鹿",
    "town_kana": "フタシカ",
    "street": null,
    "office_name": null,
    "office_name_kana": null
  },
  "0306": {
    "postcode": "7400306",
    "prefecture": "山口県",
    "prefecture_kana": "ヤマグチケン",
    "prefecture_code": 35,
    "city": "岩国市",
    "city_kana": "イワクニシ",
    "town": "天尾",
    "town_kana": "テンノオ",
    "street": null,
    "office_name": null,
    "office_name_kana": null
  },
  "0311": {
    "postcode": "7400311",
    "prefecture": "山口県",
    "prefecture_kana": "ヤマグチケン",
    "prefecture_code": 35,
    "city": "岩国市",
    "city_kana": "イワクニシ",
    "town": "瓦谷",
    "town_kana": "カワラダニ",
    "street": null,
    "office_name": null,
    "office_name_kana": null
  },
  "0312": {
    "postcode": "7400312",
    "prefecture": "山口県",
    "prefecture_kana": "ヤマグチケン",
    "prefecture_code": 35,
    "city": "岩国市",
    "city_kana": "イワクニシ",
    "town": "守内",
    "town_kana": "シュウチ",
    "street": null,
    "office_name": null,
    "office_name_kana": null
  },
  "0313": {
    "postcode": "7400313",
    "prefecture": "山口県",
    "prefecture_kana": "ヤマグチケン",
    "prefecture_code": 35,
    "city": "岩国市",
    "city_kana": "イワクニシ",
    "town": "保木",
    "town_kana": "ホウキ",
    "street": null,
    "office_name": null,
    "office_name_kana": null
  },
  "0314": {
    "postcode": "7400314",
    "prefecture": "山口県",
    "prefecture_kana": "ヤマグチケン",
    "prefecture_code": 35,
    "city": "岩国市",
    "city_kana": "イワクニシ",
    "town": "寺山",
    "town_kana": "テラヤマ",
    "street": null,
    "office_name": null,
    "office_name_kana": null
  },
  "0315": {
    "postcode": "7400315",
    "prefecture": "山口県",
    "prefecture_kana": "ヤマグチケン",
    "prefecture_code": 35,
    "city": "岩国市",
    "city_kana": "イワクニシ",
    "town": "近延",
    "town_kana": "チカノブ",
    "street": null,
    "office_name": null,
    "office_name_kana": null
  },
  "0316": {
    "postcode": "7400316",
    "prefecture": "山口県",
    "prefecture_kana": "ヤマグチケン",
    "prefecture_code": 35,
    "city": "岩国市",
    "city_kana": "イワクニシ",
    "town": "行正",
    "town_kana": "ユキマサ",
    "street": null,
    "office_name": null,
    "office_name_kana": null
  },
  "0317": {
    "postcode": "7400317",
    "prefecture": "山口県",
    "prefecture_kana": "ヤマグチケン",
    "prefecture_code": 35,
    "city": "岩国市",
    "city_kana": "イワクニシ",
    "town": "上田",
    "town_kana": "ウエダ",
    "street": null,
    "office_name": null,
    "office_name_kana": null
  },
  "0321": {
    "postcode": "7400321",
    "prefecture": "山口県",
    "prefecture_kana": "ヤマグチケン",
    "prefecture_code": 35,
    "city": "岩国市",
    "city_kana": "イワクニシ",
    "town": "入野",
    "town_kana": "イリノ",
    "street": null,
    "office_name": null,
    "office_name_kana": null
  },
  "0322": {
    "postcode": "7400322",
    "prefecture": "山口県",
    "prefecture_kana": "ヤマグチケン",
    "prefecture_code": 35,
    "city": "岩国市",
    "city_kana": "イワクニシ",
    "town": "廿木",
    "town_kana": "ハタキ",
    "street": null,
    "office_name": null,
    "office_name_kana": null
  },
  "0323": {
    "postcode": "7400323",
    "prefecture": "山口県",
    "prefecture_kana": "ヤマグチケン",
    "prefecture_code": 35,
    "city": "岩国市",
    "city_kana": "イワクニシ",
    "town": "大山",
    "town_kana": "オオヤマ",
    "street": null,
    "office_name": null,
    "office_name_kana": null
  },
  "0324": {
    "postcode": "7400324",
    "prefecture": "山口県",
    "prefecture_kana": "ヤマグチケン",
    "prefecture_code": 35,
    "city": "岩国市",
    "city_kana": "イワクニシ",
    "town": "伊房",
    "town_kana": "イフサ",
    "street": null,
    "office_name": null,
    "office_name_kana": null
  },
  "0325": {
    "postcode": "7400325",
    "prefecture": "山口県",
    "prefecture_kana": "ヤマグチケン",
    "prefecture_code": 35,
    "city": "岩国市",
    "city_kana": "イワクニシ",
    "town": "竹安",
    "town_kana": "タケヤス",
    "street": null,
    "office_name": null,
    "office_name_kana": null
  },
  "0326": {
    "postcode": "7400326",
    "prefecture": "山口県",
    "prefecture_kana": "ヤマグチケン",
    "prefecture_code": 35,
    "city": "岩国市",
    "city_kana": "イワクニシ",
    "town": "土生",
    "town_kana": "ハブ",
    "street": null,
    "office_name": null,
    "office_name_kana": null
  },
  "0327": {
    "postcode": "7400327",
    "prefecture": "山口県",
    "prefecture_kana": "ヤマグチケン",
    "prefecture_code": 35,
    "city": "岩国市",
    "city_kana": "イワクニシ",
    "town": "角",
    "town_kana": "スミ",
    "street": null,
    "office_name": null,
    "office_name_kana": null
  },
  "0501": {
    "postcode": "7400501",
    "prefecture": "山口県",
    "prefecture_kana": "ヤマグチケン",
    "prefecture_code": 35,
    "city": "岩国市",
    "city_kana": "イワクニシ",
    "town": "美川町小川",
    "town_kana": "ミカワマチコガワ",
    "street": null,
    "office_name": null,
    "office_name_kana": null
  },
  "0502": {
    "postcode": "7400502",
    "prefecture": "山口県",
    "prefecture_kana": "ヤマグチケン",
    "prefecture_code": 35,
    "city": "岩国市",
    "city_kana": "イワクニシ",
    "town": "美川町四馬神",
    "town_kana": "ミカワマチシメガミ",
    "street": null,
    "office_name": null,
    "office_name_kana": null
  },
  "0503": {
    "postcode": "7400503",
    "prefecture": "山口県",
    "prefecture_kana": "ヤマグチケン",
    "prefecture_code": 35,
    "city": "岩国市",
    "city_kana": "イワクニシ",
    "town": "美川町添谷",
    "town_kana": "ミカワマチソエダニ",
    "street": null,
    "office_name": null,
    "office_name_kana": null
  },
  "0504": {
    "postcode": "7400504",
    "prefecture": "山口県",
    "prefecture_kana": "ヤマグチケン",
    "prefecture_code": 35,
    "city": "岩国市",
    "city_kana": "イワクニシ",
    "town": "美川町南桑",
    "town_kana": "ミカワマチナグワ",
    "street": null,
    "office_name": null,
    "office_name_kana": null
  },
  "0505": {
    "postcode": "7400505",
    "prefecture": "山口県",
    "prefecture_kana": "ヤマグチケン",
    "prefecture_code": 35,
    "city": "岩国市",
    "city_kana": "イワクニシ",
    "town": "美川町根笠",
    "town_kana": "ミカワマチネカサ",
    "street": null,
    "office_name": null,
    "office_name_kana": null
  },
  "0601": {
    "postcode": "7400601",
    "prefecture": "山口県",
    "prefecture_kana": "ヤマグチケン",
    "prefecture_code": 35,
    "city": "岩国市",
    "city_kana": "イワクニシ",
    "town": "本郷町本谷",
    "town_kana": "ホンゴウマチホンダニ",
    "street": null,
    "office_name": null,
    "office_name_kana": null
  },
  "0602": {
    "postcode": "7400602",
    "prefecture": "山口県",
    "prefecture_kana": "ヤマグチケン",
    "prefecture_code": 35,
    "city": "岩国市",
    "city_kana": "イワクニシ",
    "town": "本郷町本郷",
    "town_kana": "ホンゴウマチホンゴウ",
    "street": null,
    "office_name": null,
    "office_name_kana": null
  },
  "0603": {
    "postcode": "7400603",
    "prefecture": "山口県",
    "prefecture_kana": "ヤマグチケン",
    "prefecture_code": 35,
    "city": "岩国市",
    "city_kana": "イワクニシ",
    "town": "本郷町波野",
    "town_kana": "ホンゴウマチハノ",
    "street": null,
    "office_name": null,
    "office_name_kana": null
  },
  "0604": {
    "postcode": "7400604",
    "prefecture": "山口県",
    "prefecture_kana": "ヤマグチケン",
    "prefecture_code": 35,
    "city": "岩国市",
    "city_kana": "イワクニシ",
    "town": "本郷町宇塚",
    "town_kana": "ホンゴウマチウヅカ",
    "street": null,
    "office_name": null,
    "office_name_kana": null
  },
  "0605": {
    "postcode": "7400605",
    "prefecture": "山口県",
    "prefecture_kana": "ヤマグチケン",
    "prefecture_code": 35,
    "city": "岩国市",
    "city_kana": "イワクニシ",
    "town": "本郷町西黒沢",
    "town_kana": "ホンゴウマチニシクロザワ",
    "street": null,
    "office_name": null,
    "office_name_kana": null
  },
  "0721": {
    "postcode": "7400721",
    "prefecture": "山口県",
    "prefecture_kana": "ヤマグチケン",
    "prefecture_code": 35,
    "city": "岩国市",
    "city_kana": "イワクニシ",
    "town": "錦町大野",
    "town_kana": "ニシキマチオオノ",
    "street": null,
    "office_name": null,
    "office_name_kana": null
  },
  "0722": {
    "postcode": "7400722",
    "prefecture": "山口県",
    "prefecture_kana": "ヤマグチケン",
    "prefecture_code": 35,
    "city": "岩国市",
    "city_kana": "イワクニシ",
    "town": "錦町中ノ瀬",
    "town_kana": "ニシキマチナカノセ",
    "street": null,
    "office_name": null,
    "office_name_kana": null
  },
  "0723": {
    "postcode": "7400723",
    "prefecture": "山口県",
    "prefecture_kana": "ヤマグチケン",
    "prefecture_code": 35,
    "city": "岩国市",
    "city_kana": "イワクニシ",
    "town": "錦町府谷",
    "town_kana": "ニシキマチフノタニ",
    "street": null,
    "office_name": null,
    "office_name_kana": null
  },
  "0724": {
    "postcode": "7400724",
    "prefecture": "山口県",
    "prefecture_kana": "ヤマグチケン",
    "prefecture_code": 35,
    "city": "岩国市",
    "city_kana": "イワクニシ",
    "town": "錦町広瀬",
    "town_kana": "ニシキマチヒロセ",
    "street": null,
    "office_name": null,
    "office_name_kana": null
  },
  "0725": {
    "postcode": "7400725",
    "prefecture": "山口県",
    "prefecture_kana": "ヤマグチケン",
    "prefecture_code": 35,
    "city": "岩国市",
    "city_kana": "イワクニシ",
    "town": "錦町野谷",
    "town_kana": "ニシキマチノタニ",
    "street": null,
    "office_name": null,
    "office_name_kana": null
  },
  "0811": {
    "postcode": "7400811",
    "prefecture": "山口県",
    "prefecture_kana": "ヤマグチケン",
    "prefecture_code": 35,
    "city": "岩国市",
    "city_kana": "イワクニシ",
    "town": "錦町須川",
    "town_kana": "ニシキマチスガワ",
    "street": null,
    "office_name": null,
    "office_name_kana": null
  },
  "0812": {
    "postcode": "7400812",
    "prefecture": "山口県",
    "prefecture_kana": "ヤマグチケン",
    "prefecture_code": 35,
    "city": "岩国市",
    "city_kana": "イワクニシ",
    "town": "錦町深川",
    "town_kana": "ニシキマチフカガワ",
    "street": null,
    "office_name": null,
    "office_name_kana": null
  },
  "0901": {
    "postcode": "7400901",
    "prefecture": "山口県",
    "prefecture_kana": "ヤマグチケン",
    "prefecture_code": 35,
    "city": "岩国市",
    "city_kana": "イワクニシ",
    "town": "錦町宇佐",
    "town_kana": "ニシキマチウサ",
    "street": null,
    "office_name": null,
    "office_name_kana": null
  },
  "0902": {
    "postcode": "7400902",
    "prefecture": "山口県",
    "prefecture_kana": "ヤマグチケン",
    "prefecture_code": 35,
    "city": "岩国市",
    "city_kana": "イワクニシ",
    "town": "錦町宇佐郷",
    "town_kana": "ニシキマチウサゴウ",
    "street": null,
    "office_name": null,
    "office_name_kana": null
  },
  "0903": {
    "postcode": "7400903",
    "prefecture": "山口県",
    "prefecture_kana": "ヤマグチケン",
    "prefecture_code": 35,
    "city": "岩国市",
    "city_kana": "イワクニシ",
    "town": "錦町大原",
    "town_kana": "ニシキマチオオハラ",
    "street": null,
    "office_name": null,
    "office_name_kana": null
  },
  "0904": [
    {
      "postcode": "7400904",
      "prefecture": "山口県",
      "prefecture_kana": "ヤマグチケン",
      "prefecture_code": 35,
      "city": "岩国市",
      "city_kana": "イワクニシ",
      "town": "錦町宇佐郷",
      "town_kana": "ニシキマチウサゴウ",
      "street": null,
      "office_name": null,
      "office_name_kana": null
    },
    {
      "postcode": "7400904",
      "prefecture": "山口県",
      "prefecture_kana": "ヤマグチケン",
      "prefecture_code": 35,
      "city": "岩国市",
      "city_kana": "イワクニシ",
      "town": "錦町宇佐郷向峠",
      "town_kana": "ニシキマチウサゴウムカタオ",
      "street": null,
      "office_name": null,
      "office_name_kana": null
    }
  ],
  "1201": {
    "postcode": "7401201",
    "prefecture": "山口県",
    "prefecture_kana": "ヤマグチケン",
    "prefecture_code": 35,
    "city": "岩国市",
    "city_kana": "イワクニシ",
    "town": "美和町秋掛",
    "town_kana": "ミワマチアキガケ",
    "street": null,
    "office_name": null,
    "office_name_kana": null
  },
  "1202": {
    "postcode": "7401202",
    "prefecture": "山口県",
    "prefecture_kana": "ヤマグチケン",
    "prefecture_code": 35,
    "city": "岩国市",
    "city_kana": "イワクニシ",
    "town": "美和町北中山",
    "town_kana": "ミワマチキタナカヤマ",
    "street": null,
    "office_name": null,
    "office_name_kana": null
  },
  "1211": {
    "postcode": "7401211",
    "prefecture": "山口県",
    "prefecture_kana": "ヤマグチケン",
    "prefecture_code": 35,
    "city": "岩国市",
    "city_kana": "イワクニシ",
    "town": "美和町釜ケ原",
    "town_kana": "ミワマチカマガハラ",
    "street": null,
    "office_name": null,
    "office_name_kana": null
  },
  "1212": {
    "postcode": "7401212",
    "prefecture": "山口県",
    "prefecture_kana": "ヤマグチケン",
    "prefecture_code": 35,
    "city": "岩国市",
    "city_kana": "イワクニシ",
    "town": "美和町黒沢",
    "town_kana": "ミワマチクロサワ",
    "street": null,
    "office_name": null,
    "office_name_kana": null
  },
  "1213": {
    "postcode": "7401213",
    "prefecture": "山口県",
    "prefecture_kana": "ヤマグチケン",
    "prefecture_code": 35,
    "city": "岩国市",
    "city_kana": "イワクニシ",
    "town": "美和町岸根",
    "town_kana": "ミワマチガンネ",
    "street": null,
    "office_name": null,
    "office_name_kana": null
  },
  "1214": {
    "postcode": "7401214",
    "prefecture": "山口県",
    "prefecture_kana": "ヤマグチケン",
    "prefecture_code": 35,
    "city": "岩国市",
    "city_kana": "イワクニシ",
    "town": "美和町百合谷",
    "town_kana": "ミワマチユリタニ",
    "street": null,
    "office_name": null,
    "office_name_kana": null
  },
  "1215": {
    "postcode": "7401215",
    "prefecture": "山口県",
    "prefecture_kana": "ヤマグチケン",
    "prefecture_code": 35,
    "city": "岩国市",
    "city_kana": "イワクニシ",
    "town": "美和町長谷",
    "town_kana": "ミワマチナガタニ",
    "street": null,
    "office_name": null,
    "office_name_kana": null
  },
  "1216": {
    "postcode": "7401216",
    "prefecture": "山口県",
    "prefecture_kana": "ヤマグチケン",
    "prefecture_code": 35,
    "city": "岩国市",
    "city_kana": "イワクニシ",
    "town": "美和町日宛",
    "town_kana": "ミワマチヒナタ",
    "street": null,
    "office_name": null,
    "office_name_kana": null
  },
  "1217": {
    "postcode": "7401217",
    "prefecture": "山口県",
    "prefecture_kana": "ヤマグチケン",
    "prefecture_code": 35,
    "city": "岩国市",
    "city_kana": "イワクニシ",
    "town": "美和町大根川",
    "town_kana": "ミワマチオオネガワ",
    "street": null,
    "office_name": null,
    "office_name_kana": null
  },
  "1218": {
    "postcode": "7401218",
    "prefecture": "山口県",
    "prefecture_kana": "ヤマグチケン",
    "prefecture_code": 35,
    "city": "岩国市",
    "city_kana": "イワクニシ",
    "town": "美和町中垣内",
    "town_kana": "ミワマチナカガウチ",
    "street": null,
    "office_name": null,
    "office_name_kana": null
  },
  "1219": {
    "postcode": "7401219",
    "prefecture": "山口県",
    "prefecture_kana": "ヤマグチケン",
    "prefecture_code": 35,
    "city": "岩国市",
    "city_kana": "イワクニシ",
    "town": "美和町瀬戸ノ内",
    "town_kana": "ミワマチセトノウチ",
    "street": null,
    "office_name": null,
    "office_name_kana": null
  },
  "1221": {
    "postcode": "7401221",
    "prefecture": "山口県",
    "prefecture_kana": "ヤマグチケン",
    "prefecture_code": 35,
    "city": "岩国市",
    "city_kana": "イワクニシ",
    "town": "美和町上駄床",
    "town_kana": "ミワマチカミダトコ",
    "street": null,
    "office_name": null,
    "office_name_kana": null
  },
  "1222": {
    "postcode": "7401222",
    "prefecture": "山口県",
    "prefecture_kana": "ヤマグチケン",
    "prefecture_code": 35,
    "city": "岩国市",
    "city_kana": "イワクニシ",
    "town": "美和町田ノ口",
    "town_kana": "ミワマチタノクチ",
    "street": null,
    "office_name": null,
    "office_name_kana": null
  },
  "1223": {
    "postcode": "7401223",
    "prefecture": "山口県",
    "prefecture_kana": "ヤマグチケン",
    "prefecture_code": 35,
    "city": "岩国市",
    "city_kana": "イワクニシ",
    "town": "美和町滑",
    "town_kana": "ミワマチナメラ",
    "street": null,
    "office_name": null,
    "office_name_kana": null
  },
  "1224": {
    "postcode": "7401224",
    "prefecture": "山口県",
    "prefecture_kana": "ヤマグチケン",
    "prefecture_code": 35,
    "city": "岩国市",
    "city_kana": "イワクニシ",
    "town": "美和町佐坂",
    "town_kana": "ミワマチサザカ",
    "street": null,
    "office_name": null,
    "office_name_kana": null
  },
  "1225": {
    "postcode": "7401225",
    "prefecture": "山口県",
    "prefecture_kana": "ヤマグチケン",
    "prefecture_code": 35,
    "city": "岩国市",
    "city_kana": "イワクニシ",
    "town": "美和町渋前",
    "town_kana": "ミワマチシブクマ",
    "street": null,
    "office_name": null,
    "office_name_kana": null
  },
  "1231": {
    "postcode": "7401231",
    "prefecture": "山口県",
    "prefecture_kana": "ヤマグチケン",
    "prefecture_code": 35,
    "city": "岩国市",
    "city_kana": "イワクニシ",
    "town": "美和町生見",
    "town_kana": "ミワマチイキミ",
    "street": null,
    "office_name": null,
    "office_name_kana": null
  },
  "1232": {
    "postcode": "7401232",
    "prefecture": "山口県",
    "prefecture_kana": "ヤマグチケン",
    "prefecture_code": 35,
    "city": "岩国市",
    "city_kana": "イワクニシ",
    "town": "美和町西畑",
    "town_kana": "ミワマチニシバタ",
    "street": null,
    "office_name": null,
    "office_name_kana": null
  },
  "1241": {
    "postcode": "7401241",
    "prefecture": "山口県",
    "prefecture_kana": "ヤマグチケン",
    "prefecture_code": 35,
    "city": "岩国市",
    "city_kana": "イワクニシ",
    "town": "美和町阿賀",
    "town_kana": "ミワマチアカ",
    "street": null,
    "office_name": null,
    "office_name_kana": null
  },
  "1242": {
    "postcode": "7401242",
    "prefecture": "山口県",
    "prefecture_kana": "ヤマグチケン",
    "prefecture_code": 35,
    "city": "岩国市",
    "city_kana": "イワクニシ",
    "town": "美和町下畑",
    "town_kana": "ミワマチシモバタ",
    "street": null,
    "office_name": null,
    "office_name_kana": null
  },
  "1401": [
    {
      "postcode": "7401401",
      "prefecture": "山口県",
      "prefecture_kana": "ヤマグチケン",
      "prefecture_code": 35,
      "city": "岩国市",
      "city_kana": "イワクニシ",
      "town": "由宇町",
      "town_kana": "ユウマチ",
      "street": null,
      "office_name": null,
      "office_name_kana": null
    },
    {
      "postcode": "7401401",
      "prefecture": "山口県",
      "prefecture_kana": "ヤマグチケン",
      "prefecture_code": 35,
      "city": "岩国市",
      "city_kana": "イワクニシ",
      "town": "由宇町寺迫",
      "town_kana": "ユウマチテラザコ",
      "street": null,
      "office_name": null,
      "office_name_kana": null
    }
  ],
  "1402": [
    {
      "postcode": "7401402",
      "prefecture": "山口県",
      "prefecture_kana": "ヤマグチケン",
      "prefecture_code": 35,
      "city": "岩国市",
      "city_kana": "イワクニシ",
      "town": "由宇町",
      "town_kana": "ユウマチ",
      "street": null,
      "office_name": null,
      "office_name_kana": null
    },
    {
      "postcode": "7401402",
      "prefecture": "山口県",
      "prefecture_kana": "ヤマグチケン",
      "prefecture_code": 35,
      "city": "岩国市",
      "city_kana": "イワクニシ",
      "town": "由宇町小槇",
      "town_kana": "ユウマチショウシン",
      "street": null,
      "office_name": null,
      "office_name_kana": null
    }
  ],
  "1403": [
    {
      "postcode": "7401403",
      "prefecture": "山口県",
      "prefecture_kana": "ヤマグチケン",
      "prefecture_code": 35,
      "city": "岩国市",
      "city_kana": "イワクニシ",
      "town": "由宇町",
      "town_kana": "ユウマチ",
      "street": null,
      "office_name": null,
      "office_name_kana": null
    },
    {
      "postcode": "7401403",
      "prefecture": "山口県",
      "prefecture_kana": "ヤマグチケン",
      "prefecture_code": 35,
      "city": "岩国市",
      "city_kana": "イワクニシ",
      "town": "由宇町中倉",
      "town_kana": "ユウマチナカクラ",
      "street": null,
      "office_name": null,
      "office_name_kana": null
    }
  ],
  "1404": [
    {
      "postcode": "7401404",
      "prefecture": "山口県",
      "prefecture_kana": "ヤマグチケン",
      "prefecture_code": 35,
      "city": "岩国市",
      "city_kana": "イワクニシ",
      "town": "由宇町",
      "town_kana": "ユウマチ",
      "street": null,
      "office_name": null,
      "office_name_kana": null
    },
    {
      "postcode": "7401404",
      "prefecture": "山口県",
      "prefecture_kana": "ヤマグチケン",
      "prefecture_code": 35,
      "city": "岩国市",
      "city_kana": "イワクニシ",
      "town": "由宇町西区",
      "town_kana": "ユウマチニシク",
      "street": null,
      "office_name": null,
      "office_name_kana": null
    }
  ],
  "1405": [
    {
      "postcode": "7401405",
      "prefecture": "山口県",
      "prefecture_kana": "ヤマグチケン",
      "prefecture_code": 35,
      "city": "岩国市",
      "city_kana": "イワクニシ",
      "town": "由宇町",
      "town_kana": "ユウマチ",
      "street": null,
      "office_name": null,
      "office_name_kana": null
    },
    {
      "postcode": "7401405",
      "prefecture": "山口県",
      "prefecture_kana": "ヤマグチケン",
      "prefecture_code": 35,
      "city": "岩国市",
      "city_kana": "イワクニシ",
      "town": "由宇町笠塚",
      "town_kana": "ユウマチカサヅカ",
      "street": null,
      "office_name": null,
      "office_name_kana": null
    }
  ],
  "1406": [
    {
      "postcode": "7401406",
      "prefecture": "山口県",
      "prefecture_kana": "ヤマグチケン",
      "prefecture_code": 35,
      "city": "岩国市",
      "city_kana": "イワクニシ",
      "town": "由宇町",
      "town_kana": "ユウマチ",
      "street": null,
      "office_name": null,
      "office_name_kana": null
    },
    {
      "postcode": "7401406",
      "prefecture": "山口県",
      "prefecture_kana": "ヤマグチケン",
      "prefecture_code": 35,
      "city": "岩国市",
      "city_kana": "イワクニシ",
      "town": "由宇町峇清",
      "town_kana": "ユウマチゴウセイ",
      "street": null,
      "office_name": null,
      "office_name_kana": null
    }
  ],
  "1407": [
    {
      "postcode": "7401407",
      "prefecture": "山口県",
      "prefecture_kana": "ヤマグチケン",
      "prefecture_code": 35,
      "city": "岩国市",
      "city_kana": "イワクニシ",
      "town": "由宇町",
      "town_kana": "ユウマチ",
      "street": null,
      "office_name": null,
      "office_name_kana": null
    },
    {
      "postcode": "7401407",
      "prefecture": "山口県",
      "prefecture_kana": "ヤマグチケン",
      "prefecture_code": 35,
      "city": "岩国市",
      "city_kana": "イワクニシ",
      "town": "由宇町横道",
      "town_kana": "ユウマチヨコミチ",
      "street": null,
      "office_name": null,
      "office_name_kana": null
    }
  ],
  "1411": [
    {
      "postcode": "7401411",
      "prefecture": "山口県",
      "prefecture_kana": "ヤマグチケン",
      "prefecture_code": 35,
      "city": "岩国市",
      "city_kana": "イワクニシ",
      "town": "由宇町",
      "town_kana": "ユウマチ",
      "street": null,
      "office_name": null,
      "office_name_kana": null
    },
    {
      "postcode": "7401411",
      "prefecture": "山口県",
      "prefecture_kana": "ヤマグチケン",
      "prefecture_code": 35,
      "city": "岩国市",
      "city_kana": "イワクニシ",
      "town": "由宇町清水",
      "town_kana": "ユウマチシミズ",
      "street": null,
      "office_name": null,
      "office_name_kana": null
    }
  ],
  "1412": [
    {
      "postcode": "7401412",
      "prefecture": "山口県",
      "prefecture_kana": "ヤマグチケン",
      "prefecture_code": 35,
      "city": "岩国市",
      "city_kana": "イワクニシ",
      "town": "由宇町",
      "town_kana": "ユウマチ",
      "street": null,
      "office_name": null,
      "office_name_kana": null
    },
    {
      "postcode": "7401412",
      "prefecture": "山口県",
      "prefecture_kana": "ヤマグチケン",
      "prefecture_code": 35,
      "city": "岩国市",
      "city_kana": "イワクニシ",
      "town": "由宇町中村",
      "town_kana": "ユウマチナカムラ",
      "street": null,
      "office_name": null,
      "office_name_kana": null
    }
  ],
  "1413": [
    {
      "postcode": "7401413",
      "prefecture": "山口県",
      "prefecture_kana": "ヤマグチケン",
      "prefecture_code": 35,
      "city": "岩国市",
      "city_kana": "イワクニシ",
      "town": "由宇町",
      "town_kana": "ユウマチ",
      "street": null,
      "office_name": null,
      "office_name_kana": null
    },
    {
      "postcode": "7401413",
      "prefecture": "山口県",
      "prefecture_kana": "ヤマグチケン",
      "prefecture_code": 35,
      "city": "岩国市",
      "city_kana": "イワクニシ",
      "town": "由宇町上北",
      "town_kana": "ユウマチカミキタ",
      "street": null,
      "office_name": null,
      "office_name_kana": null
    }
  ],
  "1424": {
    "postcode": "7401424",
    "prefecture": "山口県",
    "prefecture_kana": "ヤマグチケン",
    "prefecture_code": 35,
    "city": "岩国市",
    "city_kana": "イワクニシ",
    "town": "由宇町港",
    "town_kana": "ユウマチミナト",
    "street": null,
    "office_name": null,
    "office_name_kana": null
  },
  "1425": {
    "postcode": "7401425",
    "prefecture": "山口県",
    "prefecture_kana": "ヤマグチケン",
    "prefecture_code": 35,
    "city": "岩国市",
    "city_kana": "イワクニシ",
    "town": "由宇町南沖",
    "town_kana": "ユウマチミナミオキ",
    "street": null,
    "office_name": null,
    "office_name_kana": null
  },
  "1426": {
    "postcode": "7401426",
    "prefecture": "山口県",
    "prefecture_kana": "ヤマグチケン",
    "prefecture_code": 35,
    "city": "岩国市",
    "city_kana": "イワクニシ",
    "town": "由宇町由宇崎",
    "town_kana": "ユウマチユウサキ",
    "street": null,
    "office_name": null,
    "office_name_kana": null
  },
  "1428": {
    "postcode": "7401428",
    "prefecture": "山口県",
    "prefecture_kana": "ヤマグチケン",
    "prefecture_code": 35,
    "city": "岩国市",
    "city_kana": "イワクニシ",
    "town": "由宇町中央",
    "town_kana": "ユウマチチュウオウ",
    "street": null,
    "office_name": null,
    "office_name_kana": null
  },
  "1431": [
    {
      "postcode": "7401431",
      "prefecture": "山口県",
      "prefecture_kana": "ヤマグチケン",
      "prefecture_code": 35,
      "city": "岩国市",
      "city_kana": "イワクニシ",
      "town": "由宇町",
      "town_kana": "ユウマチ",
      "street": null,
      "office_name": null,
      "office_name_kana": null
    },
    {
      "postcode": "7401431",
      "prefecture": "山口県",
      "prefecture_kana": "ヤマグチケン",
      "prefecture_code": 35,
      "city": "岩国市",
      "city_kana": "イワクニシ",
      "town": "由宇町有家",
      "town_kana": "ユウマチアラケ",
      "street": null,
      "office_name": null,
      "office_name_kana": null
    }
  ],
  "1432": {
    "postcode": "7401432",
    "prefecture": "山口県",
    "prefecture_kana": "ヤマグチケン",
    "prefecture_code": 35,
    "city": "岩国市",
    "city_kana": "イワクニシ",
    "town": "由宇町神東",
    "town_kana": "ユウマチシントウ",
    "street": null,
    "office_name": null,
    "office_name_kana": null
  },
  "1441": {
    "postcode": "7401441",
    "prefecture": "山口県",
    "prefecture_kana": "ヤマグチケン",
    "prefecture_code": 35,
    "city": "岩国市",
    "city_kana": "イワクニシ",
    "town": "由宇町千鳥ケ丘",
    "town_kana": "ユウマチチドリガオカ",
    "street": null,
    "office_name": null,
    "office_name_kana": null
  },
  "1451": {
    "postcode": "7401451",
    "prefecture": "山口県",
    "prefecture_kana": "ヤマグチケン",
    "prefecture_code": 35,
    "city": "岩国市",
    "city_kana": "イワクニシ",
    "town": "由宇町南",
    "town_kana": "ユウマチミナミ",
    "street": null,
    "office_name": null,
    "office_name_kana": null
  },
  "1452": [
    {
      "postcode": "7401452",
      "prefecture": "山口県",
      "prefecture_kana": "ヤマグチケン",
      "prefecture_code": 35,
      "city": "岩国市",
      "city_kana": "イワクニシ",
      "town": "由宇町",
      "town_kana": "ユウマチ",
      "street": null,
      "office_name": null,
      "office_name_kana": null
    },
    {
      "postcode": "7401452",
      "prefecture": "山口県",
      "prefecture_kana": "ヤマグチケン",
      "prefecture_code": 35,
      "city": "岩国市",
      "city_kana": "イワクニシ",
      "town": "由宇町正南",
      "town_kana": "ユウマチセイナン",
      "street": null,
      "office_name": null,
      "office_name_kana": null
    }
  ],
  "1454": {
    "postcode": "7401454",
    "prefecture": "山口県",
    "prefecture_kana": "ヤマグチケン",
    "prefecture_code": 35,
    "city": "岩国市",
    "city_kana": "イワクニシ",
    "town": "由宇町西",
    "town_kana": "ユウマチニシ",
    "street": null,
    "office_name": null,
    "office_name_kana": null
  },
  "1455": {
    "postcode": "7401455",
    "prefecture": "山口県",
    "prefecture_kana": "ヤマグチケン",
    "prefecture_code": 35,
    "city": "岩国市",
    "city_kana": "イワクニシ",
    "town": "由宇町北",
    "town_kana": "ユウマチキタ",
    "street": null,
    "office_name": null,
    "office_name_kana": null
  },
  "1488": {
    "postcode": "7401488",
    "prefecture": "山口県",
    "prefecture_kana": "ヤマグチケン",
    "prefecture_code": 35,
    "city": "岩国市",
    "city_kana": "イワクニシ",
    "town": "由宇町",
    "town_kana": "ユウマチ",
    "street": null,
    "office_name": null,
    "office_name_kana": null
  },
  "8501": {
    "postcode": "7408501",
    "prefecture": "山口県",
    "prefecture_kana": "ヤマグチケン",
    "prefecture_code": 35,
    "city": "玖珂郡和木町",
    "city_kana": "クガグンワキチョウ",
    "town": "和木",
    "town_kana": "ワキ",
    "street": "１丁目１−１",
    "office_name": "和木町役場",
    "office_name_kana": "ワキチヨウヤクバ"
  },
  "8510": {
    "postcode": "7408510",
    "prefecture": "山口県",
    "prefecture_kana": "ヤマグチケン",
    "prefecture_code": 35,
    "city": "岩国市",
    "city_kana": "イワクニシ",
    "town": "愛宕町",
    "town_kana": "アタゴマチ",
    "street": "一丁目１番１号",
    "office_name": "独立行政法人　国立病院機構　岩国医療センター",
    "office_name_kana": "ドクリツギヨウセイホウジン コクリツビヨウインキコウ イワクニイリヨウセンタ-"
  },
  "8511": {
    "postcode": "7408511",
    "prefecture": "山口県",
    "prefecture_kana": "ヤマグチケン",
    "prefecture_code": 35,
    "city": "岩国市",
    "city_kana": "イワクニシ",
    "town": "日の出町",
    "town_kana": "ヒノデマチ",
    "street": "２−１",
    "office_name": "帝人　株式会社　岩国事業所",
    "office_name_kana": "テイジン カブシキガイシヤ イワクニジギヨウシヨ"
  },
  "8516": {
    "postcode": "7408516",
    "prefecture": "山口県",
    "prefecture_kana": "ヤマグチケン",
    "prefecture_code": 35,
    "city": "岩国市",
    "city_kana": "イワクニシ",
    "town": "三笠町",
    "town_kana": "ミカサマチ",
    "street": "１丁目１−１",
    "office_name": "山口県　岩国県税事務所",
    "office_name_kana": "ヤマグチケン イワクニケンゼイジムシヨ"
  },
  "8535": {
    "postcode": "7408535",
    "prefecture": "山口県",
    "prefecture_kana": "ヤマグチケン",
    "prefecture_code": 35,
    "city": "岩国市",
    "city_kana": "イワクニシ",
    "town": "室の木町",
    "town_kana": "ムロノキマチ",
    "street": "１丁目４番５５号",
    "office_name": "三晃特殊金属工業　株式会社",
    "office_name_kana": "サンコウトクシユキンゾクコウギヨウ カブシキガイシヤ"
  },
  "8555": {
    "postcode": "7408555",
    "prefecture": "山口県",
    "prefecture_kana": "ヤマグチケン",
    "prefecture_code": 35,
    "city": "岩国市",
    "city_kana": "イワクニシ",
    "town": "三角町",
    "town_kana": "ミスミマチ",
    "street": "２丁目官有地",
    "office_name": "海上自衛隊　岩国航空基地隊",
    "office_name_kana": "カイジヨウジエイタイ イワクニコウクウキチタイ"
  },
  "8567": {
    "postcode": "7408567",
    "prefecture": "山口県",
    "prefecture_kana": "ヤマグチケン",
    "prefecture_code": 35,
    "city": "岩国市",
    "city_kana": "イワクニシ",
    "town": "灘町",
    "town_kana": "ナダマチ",
    "street": "１−１",
    "office_name": "東洋紡　株式会社　岩国工場",
    "office_name_kana": "トウヨウボウ カブシキカイシヤ イワクニコウジヨウ"
  },
  "8585": {
    "postcode": "7408585",
    "prefecture": "山口県",
    "prefecture_kana": "ヤマグチケン",
    "prefecture_code": 35,
    "city": "岩国市",
    "city_kana": "イワクニシ",
    "town": "今津町",
    "town_kana": "イマヅマチ",
    "street": "１丁目１４−５１",
    "office_name": "岩国市役所",
    "office_name_kana": "イワクニシヤクシヨ"
  },
  "8611": {
    "postcode": "7408611",
    "prefecture": "山口県",
    "prefecture_kana": "ヤマグチケン",
    "prefecture_code": 35,
    "city": "岩国市",
    "city_kana": "イワクニシ",
    "town": "麻里布町",
    "town_kana": "マリフマチ",
    "street": "７丁目９−３７（岩国郵便局私書箱第６４号）",
    "office_name": "岩国　税務署",
    "office_name_kana": "イワクニ ゼイムシヨ"
  },
  "8639": {
    "postcode": "7408639",
    "prefecture": "山口県",
    "prefecture_kana": "ヤマグチケン",
    "prefecture_code": 35,
    "city": "岩国市",
    "city_kana": "イワクニシ",
    "town": "三笠町",
    "town_kana": "ミカサマチ",
    "street": "１−１−１",
    "office_name": "岩国商工会議所",
    "office_name_kana": "イワクニシヨウコウカイギシヨ"
  },
  "8642": {
    "postcode": "7408642",
    "prefecture": "山口県",
    "prefecture_kana": "ヤマグチケン",
    "prefecture_code": 35,
    "city": "岩国市",
    "city_kana": "イワクニシ",
    "town": "南岩国町",
    "town_kana": "ミナミイワクニマチ",
    "street": "１丁目１６−６",
    "office_name": "中国電力　株式会社　岩国営業所",
    "office_name_kana": "チユウゴクデンリヨク カブシキガイシヤ イワクニエイギヨウシヨ"
  },
  "8646": {
    "postcode": "7408646",
    "prefecture": "山口県",
    "prefecture_kana": "ヤマグチケン",
    "prefecture_code": 35,
    "city": "岩国市",
    "city_kana": "イワクニシ",
    "town": "麻里布町",
    "town_kana": "マリフマチ",
    "street": "１丁目３−１５",
    "office_name": "有限会社　詩仙堂",
    "office_name_kana": "ユウゲンガイシヤ シセンドウ"
  },
  "8686": {
    "postcode": "7408686",
    "prefecture": "山口県",
    "prefecture_kana": "ヤマグチケン",
    "prefecture_code": 35,
    "city": "岩国市",
    "city_kana": "イワクニシ",
    "town": "立石町",
    "town_kana": "タテイシマチ",
    "street": "１丁目８−７",
    "office_name": "日本年金機構　岩国年金事務所",
    "office_name_kana": "ニツポンネンキンキコウ イワクニネンキンジムシヨ"
  }
}