{
  "0000": {
    "postcode": "7450000",
    "prefecture": "山口県",
    "prefecture_kana": "ヤマグチケン",
    "prefecture_code": 35,
    "city": "周南市",
    "city_kana": "シュウナンシ",
    "town": "",
    "town_kana": "",
    "street": null,
    "office_name": null,
    "office_name_kana": null
  },
  "0001": {
    "postcode": "7450001",
    "prefecture": "山口県",
    "prefecture_kana": "ヤマグチケン",
    "prefecture_code": 35,
    "city": "周南市",
    "city_kana": "シュウナンシ",
    "town": "辻町",
    "town_kana": "ツジマチ",
    "street": null,
    "office_name": null,
    "office_name_kana": null
  },
  "0002": {
    "postcode": "7450002",
    "prefecture": "山口県",
    "prefecture_kana": "ヤマグチケン",
    "prefecture_code": 35,
    "city": "周南市",
    "city_kana": "シュウナンシ",
    "town": "二番町",
    "town_kana": "ニバンチョウ",
    "street": null,
    "office_name": null,
    "office_name_kana": null
  },
  "0003": {
    "postcode": "7450003",
    "prefecture": "山口県",
    "prefecture_kana": "ヤマグチケン",
    "prefecture_code": 35,
    "city": "周南市",
    "city_kana": "シュウナンシ",
    "town": "三番町",
    "town_kana": "サンバンチョウ",
    "street": null,
    "office_name": null,
    "office_name_kana": null
  },
  "0004": {
    "postcode": "7450004",
    "prefecture": "山口県",
    "prefecture_kana": "ヤマグチケン",
    "prefecture_code": 35,
    "city": "周南市",
    "city_kana": "シュウナンシ",
    "town": "毛利町",
    "town_kana": "モウリチョウ",
    "street": null,
    "office_name": null,
    "office_name_kana": null
  },
  "0005": {
    "postcode": "7450005",
    "prefecture": "山口県",
    "prefecture_kana": "ヤマグチケン",
    "prefecture_code": 35,
    "city": "周南市",
    "city_kana": "シュウナンシ",
    "town": "児玉町",
    "town_kana": "コダマチョウ",
    "street": null,
    "office_name": null,
    "office_name_kana": null
  },
  "0006": {
    "postcode": "7450006",
    "prefecture": "山口県",
    "prefecture_kana": "ヤマグチケン",
    "prefecture_code": 35,
    "city": "周南市",
    "city_kana": "シュウナンシ",
    "town": "花畠町",
    "town_kana": "ハナバタケチョウ",
    "street": null,
    "office_name": null,
    "office_name_kana": null
  },
  "0007": {
    "postcode": "7450007",
    "prefecture": "山口県",
    "prefecture_kana": "ヤマグチケン",
    "prefecture_code": 35,
    "city": "周南市",
    "city_kana": "シュウナンシ",
    "town": "岐南町",
    "town_kana": "キナンチョウ",
    "street": null,
    "office_name": null,
    "office_name_kana": null
  },
  "0011": {
    "postcode": "7450011",
    "prefecture": "山口県",
    "prefecture_kana": "ヤマグチケン",
    "prefecture_code": 35,
    "city": "周南市",
    "city_kana": "シュウナンシ",
    "town": "桜馬場通り",
    "town_kana": "サクラババドオリ",
    "street": null,
    "office_name": null,
    "office_name_kana": null
  },
  "0012": {
    "postcode": "7450012",
    "prefecture": "山口県",
    "prefecture_kana": "ヤマグチケン",
    "prefecture_code": 35,
    "city": "周南市",
    "city_kana": "シュウナンシ",
    "town": "川端町",
    "town_kana": "カワバタチョウ",
    "street": null,
    "office_name": null,
    "office_name_kana": null
  },
  "0013": {
    "postcode": "7450013",
    "prefecture": "山口県",
    "prefecture_kana": "ヤマグチケン",
    "prefecture_code": 35,
    "city": "周南市",
    "city_kana": "シュウナンシ",
    "town": "昭和通り",
    "town_kana": "ショウワドオリ",
    "street": null,
    "office_name": null,
    "office_name_kana": null
  },
  "0014": {
    "postcode": "7450014",
    "prefecture": "山口県",
    "prefecture_kana": "ヤマグチケン",
    "prefecture_code": 35,
    "city": "周南市",
    "city_kana": "シュウナンシ",
    "town": "飯島町",
    "town_kana": "イイジマチョウ",
    "street": null,
    "office_name": null,
    "office_name_kana": null
  },
  "0015": {
    "postcode": "7450015",
    "prefecture": "山口県",
    "prefecture_kana": "ヤマグチケン",
    "prefecture_code": 35,
    "city": "周南市",
    "city_kana": "シュウナンシ",
    "town": "平和通り",
    "town_kana": "ヘイワドオリ",
    "street": null,
    "office_name": null,
    "office_name_kana": null
  },
  "0016": {
    "postcode": "7450016",
    "prefecture": "山口県",
    "prefecture_kana": "ヤマグチケン",
    "prefecture_code": 35,
    "city": "周南市",
    "city_kana": "シュウナンシ",
    "town": "若宮町",
    "town_kana": "ワカミヤチョウ",
    "street": null,
    "office_name": null,
    "office_name_kana": null
  },
  "0017": {
    "postcode": "7450017",
    "prefecture": "山口県",
    "prefecture_kana": "ヤマグチケン",
    "prefecture_code": 35,
    "city": "周南市",
    "city_kana": "シュウナンシ",
    "town": "新町",
    "town_kana": "シンマチ",
    "street": null,
    "office_name": null,
    "office_name_kana": null
  },
  "0021": {
    "postcode": "7450021",
    "prefecture": "山口県",
    "prefecture_kana": "ヤマグチケン",
    "prefecture_code": 35,
    "city": "周南市",
    "city_kana": "シュウナンシ",
    "town": "柳町",
    "town_kana": "ヤナギマチ",
    "street": null,
    "office_name": null,
    "office_name_kana": null
  },
  "0022": {
    "postcode": "7450022",
    "prefecture": "山口県",
    "prefecture_kana": "ヤマグチケン",
    "prefecture_code": 35,
    "city": "周南市",
    "city_kana": "シュウナンシ",
    "town": "橋本町",
    "town_kana": "ハシモトチョウ",
    "street": null,
    "office_name": null,
    "office_name_kana": null
  },
  "0023": {
    "postcode": "7450023",
    "prefecture": "山口県",
    "prefecture_kana": "ヤマグチケン",
    "prefecture_code": 35,
    "city": "周南市",
    "city_kana": "シュウナンシ",
    "town": "那智町",
    "town_kana": "ナチチョウ",
    "street": null,
    "office_name": null,
    "office_name_kana": null
  },
  "0024": {
    "postcode": "7450024",
    "prefecture": "山口県",
    "prefecture_kana": "ヤマグチケン",
    "prefecture_code": 35,
    "city": "周南市",
    "city_kana": "シュウナンシ",
    "town": "晴海町",
    "town_kana": "ハルミチョウ",
    "street": null,
    "office_name": null,
    "office_name_kana": null
  },
  "0025": {
    "postcode": "7450025",
    "prefecture": "山口県",
    "prefecture_kana": "ヤマグチケン",
    "prefecture_code": 35,
    "city": "周南市",
    "city_kana": "シュウナンシ",
    "town": "築港町",
    "town_kana": "チッコウチョウ",
    "street": null,
    "office_name": null,
    "office_name_kana": null
  },
  "0026": {
    "postcode": "7450026",
    "prefecture": "山口県",
    "prefecture_kana": "ヤマグチケン",
    "prefecture_code": 35,
    "city": "周南市",
    "city_kana": "シュウナンシ",
    "town": "住崎町",
    "town_kana": "スミザキチョウ",
    "street": null,
    "office_name": null,
    "office_name_kana": null
  },
  "0027": {
    "postcode": "7450027",
    "prefecture": "山口県",
    "prefecture_kana": "ヤマグチケン",
    "prefecture_code": 35,
    "city": "周南市",
    "city_kana": "シュウナンシ",
    "town": "糀町",
    "town_kana": "コウジマチ",
    "street": null,
    "office_name": null,
    "office_name_kana": null
  },
  "0031": {
    "postcode": "7450031",
    "prefecture": "山口県",
    "prefecture_kana": "ヤマグチケン",
    "prefecture_code": 35,
    "city": "周南市",
    "city_kana": "シュウナンシ",
    "town": "銀南街",
    "town_kana": "ギンナンガイ",
    "street": null,
    "office_name": null,
    "office_name_kana": null
  },
  "0032": {
    "postcode": "7450032",
    "prefecture": "山口県",
    "prefecture_kana": "ヤマグチケン",
    "prefecture_code": 35,
    "city": "周南市",
    "city_kana": "シュウナンシ",
    "town": "銀座",
    "town_kana": "ギンザ",
    "street": null,
    "office_name": null,
    "office_name_kana": null
  },
  "0033": {
    "postcode": "7450033",
    "prefecture": "山口県",
    "prefecture_kana": "ヤマグチケン",
    "prefecture_code": 35,
    "city": "周南市",
    "city_kana": "シュウナンシ",
    "town": "みなみ銀座",
    "town_kana": "ミナミギンザ",
    "street": null,
    "office_name": null,
    "office_name_kana": null
  },
  "0034": {
    "postcode": "7450034",
    "prefecture": "山口県",
    "prefecture_kana": "ヤマグチケン",
    "prefecture_code": 35,
    "city": "周南市",
    "city_kana": "シュウナンシ",
    "town": "御幸通り",
    "town_kana": "ミユキドオリ",
    "street": null,
    "office_name": null,
    "office_name_kana": null
  },
  "0035": {
    "postcode": "7450035",
    "prefecture": "山口県",
    "prefecture_kana": "ヤマグチケン",
    "prefecture_code": 35,
    "city": "周南市",
    "city_kana": "シュウナンシ",
    "town": "有楽町",
    "town_kana": "ユウラクチョウ",
    "street": null,
    "office_name": null,
    "office_name_kana": null
  },
  "0036": {
    "postcode": "7450036",
    "prefecture": "山口県",
    "prefecture_kana": "ヤマグチケン",
    "prefecture_code": 35,
    "city": "周南市",
    "city_kana": "シュウナンシ",
    "town": "本町",
    "town_kana": "ホンマチ",
    "street": null,
    "office_name": null,
    "office_name_kana": null
  },
  "0037": {
    "postcode": "7450037",
    "prefecture": "山口県",
    "prefecture_kana": "ヤマグチケン",
    "prefecture_code": 35,
    "city": "周南市",
    "city_kana": "シュウナンシ",
    "town": "栄町",
    "town_kana": "サカエマチ",
    "street": null,
    "office_name": null,
    "office_name_kana": null
  },
  "0041": {
    "postcode": "7450041",
    "prefecture": "山口県",
    "prefecture_kana": "ヤマグチケン",
    "prefecture_code": 35,
    "city": "周南市",
    "city_kana": "シュウナンシ",
    "town": "戎町",
    "town_kana": "エビスマチ",
    "street": null,
    "office_name": null,
    "office_name_kana": null
  },
  "0042": {
    "postcode": "7450042",
    "prefecture": "山口県",
    "prefecture_kana": "ヤマグチケン",
    "prefecture_code": 35,
    "city": "周南市",
    "city_kana": "シュウナンシ",
    "town": "野上町",
    "town_kana": "ノガミチョウ",
    "street": null,
    "office_name": null,
    "office_name_kana": null
  },
  "0043": {
    "postcode": "7450043",
    "prefecture": "山口県",
    "prefecture_kana": "ヤマグチケン",
    "prefecture_code": 35,
    "city": "周南市",
    "city_kana": "シュウナンシ",
    "town": "都町",
    "town_kana": "ミヤコマチ",
    "street": null,
    "office_name": null,
    "office_name_kana": null
  },
  "0044": {
    "postcode": "7450044",
    "prefecture": "山口県",
    "prefecture_kana": "ヤマグチケン",
    "prefecture_code": 35,
    "city": "周南市",
    "city_kana": "シュウナンシ",
    "town": "千代田町",
    "town_kana": "チヨダチョウ",
    "street": null,
    "office_name": null,
    "office_name_kana": null
  },
  "0045": {
    "postcode": "7450045",
    "prefecture": "山口県",
    "prefecture_kana": "ヤマグチケン",
    "prefecture_code": 35,
    "city": "周南市",
    "city_kana": "シュウナンシ",
    "town": "徳山港町",
    "town_kana": "トクヤマミナトマチ",
    "street": null,
    "office_name": null,
    "office_name_kana": null
  },
  "0046": {
    "postcode": "7450046",
    "prefecture": "山口県",
    "prefecture_kana": "ヤマグチケン",
    "prefecture_code": 35,
    "city": "周南市",
    "city_kana": "シュウナンシ",
    "town": "権現町",
    "town_kana": "ゴンゲンチョウ",
    "street": null,
    "office_name": null,
    "office_name_kana": null
  },
  "0047": {
    "postcode": "7450047",
    "prefecture": "山口県",
    "prefecture_kana": "ヤマグチケン",
    "prefecture_code": 35,
    "city": "周南市",
    "city_kana": "シュウナンシ",
    "town": "入船町",
    "town_kana": "イリフネチョウ",
    "street": null,
    "office_name": null,
    "office_name_kana": null
  },
  "0051": {
    "postcode": "7450051",
    "prefecture": "山口県",
    "prefecture_kana": "ヤマグチケン",
    "prefecture_code": 35,
    "city": "周南市",
    "city_kana": "シュウナンシ",
    "town": "沖見町",
    "town_kana": "オキミチョウ",
    "street": null,
    "office_name": null,
    "office_name_kana": null
  },
  "0052": {
    "postcode": "7450052",
    "prefecture": "山口県",
    "prefecture_kana": "ヤマグチケン",
    "prefecture_code": 35,
    "city": "周南市",
    "city_kana": "シュウナンシ",
    "town": "初音町",
    "town_kana": "ハツネチョウ",
    "street": null,
    "office_name": null,
    "office_name_kana": null
  },
  "0053": {
    "postcode": "7450053",
    "prefecture": "山口県",
    "prefecture_kana": "ヤマグチケン",
    "prefecture_code": 35,
    "city": "周南市",
    "city_kana": "シュウナンシ",
    "town": "御影町",
    "town_kana": "ミカゲチョウ",
    "street": null,
    "office_name": null,
    "office_name_kana": null
  },
  "0054": {
    "postcode": "7450054",
    "prefecture": "山口県",
    "prefecture_kana": "ヤマグチケン",
    "prefecture_code": 35,
    "city": "周南市",
    "city_kana": "シュウナンシ",
    "town": "西松原",
    "town_kana": "ニシマツバラ",
    "street": null,
    "office_name": null,
    "office_name_kana": null
  },
  "0055": {
    "postcode": "7450055",
    "prefecture": "山口県",
    "prefecture_kana": "ヤマグチケン",
    "prefecture_code": 35,
    "city": "周南市",
    "city_kana": "シュウナンシ",
    "town": "相生町",
    "town_kana": "アイオイチョウ",
    "street": null,
    "office_name": null,
    "office_name_kana": null
  },
  "0056": {
    "postcode": "7450056",
    "prefecture": "山口県",
    "prefecture_kana": "ヤマグチケン",
    "prefecture_code": 35,
    "city": "周南市",
    "city_kana": "シュウナンシ",
    "town": "新宿通",
    "town_kana": "シンジュクドオリ",
    "street": null,
    "office_name": null,
    "office_name_kana": null
  },
  "0057": {
    "postcode": "7450057",
    "prefecture": "山口県",
    "prefecture_kana": "ヤマグチケン",
    "prefecture_code": 35,
    "city": "周南市",
    "city_kana": "シュウナンシ",
    "town": "大津島",
    "town_kana": "オオヅシマ",
    "street": null,
    "office_name": null,
    "office_name_kana": null
  },
  "0061": {
    "postcode": "7450061",
    "prefecture": "山口県",
    "prefecture_kana": "ヤマグチケン",
    "prefecture_code": 35,
    "city": "周南市",
    "city_kana": "シュウナンシ",
    "town": "鐘楼町",
    "town_kana": "ショウロウチョウ",
    "street": null,
    "office_name": null,
    "office_name_kana": null
  },
  "0062": {
    "postcode": "7450062",
    "prefecture": "山口県",
    "prefecture_kana": "ヤマグチケン",
    "prefecture_code": 35,
    "city": "周南市",
    "city_kana": "シュウナンシ",
    "town": "月丘町",
    "town_kana": "ツキオカチョウ",
    "street": null,
    "office_name": null,
    "office_name_kana": null
  },
  "0063": {
    "postcode": "7450063",
    "prefecture": "山口県",
    "prefecture_kana": "ヤマグチケン",
    "prefecture_code": 35,
    "city": "周南市",
    "city_kana": "シュウナンシ",
    "town": "今住町",
    "town_kana": "イマズミチョウ",
    "street": null,
    "office_name": null,
    "office_name_kana": null
  },
  "0064": {
    "postcode": "7450064",
    "prefecture": "山口県",
    "prefecture_kana": "ヤマグチケン",
    "prefecture_code": 35,
    "city": "周南市",
    "city_kana": "シュウナンシ",
    "town": "住吉町",
    "town_kana": "スミヨシチョウ",
    "street": null,
    "office_name": null,
    "office_name_kana": null
  },
  "0065": {
    "postcode": "7450065",
    "prefecture": "山口県",
    "prefecture_kana": "ヤマグチケン",
    "prefecture_code": 35,
    "city": "周南市",
    "city_kana": "シュウナンシ",
    "town": "原宿町",
    "town_kana": "ハラジュクチョウ",
    "street": null,
    "office_name": null,
    "office_name_kana": null
  },
  "0066": {
    "postcode": "7450066",
    "prefecture": "山口県",
    "prefecture_kana": "ヤマグチケン",
    "prefecture_code": 35,
    "city": "周南市",
    "city_kana": "シュウナンシ",
    "town": "岡田町",
    "town_kana": "オカダチョウ",
    "street": null,
    "office_name": null,
    "office_name_kana": null
  },
  "0071": {
    "postcode": "7450071",
    "prefecture": "山口県",
    "prefecture_kana": "ヤマグチケン",
    "prefecture_code": 35,
    "city": "周南市",
    "city_kana": "シュウナンシ",
    "town": "岐山通り",
    "town_kana": "キサンドオリ",
    "street": null,
    "office_name": null,
    "office_name_kana": null
  },
  "0072": {
    "postcode": "7450072",
    "prefecture": "山口県",
    "prefecture_kana": "ヤマグチケン",
    "prefecture_code": 35,
    "city": "周南市",
    "city_kana": "シュウナンシ",
    "town": "弥生町",
    "town_kana": "ヤヨイチョウ",
    "street": null,
    "office_name": null,
    "office_name_kana": null
  },
  "0073": {
    "postcode": "7450073",
    "prefecture": "山口県",
    "prefecture_kana": "ヤマグチケン",
    "prefecture_code": 35,
    "city": "周南市",
    "city_kana": "シュウナンシ",
    "town": "代々木通り",
    "town_kana": "ヨヨギドオリ",
    "street": null,
    "office_name": null,
    "office_name_kana": null
  },
  "0074": {
    "postcode": "7450074",
    "prefecture": "山口県",
    "prefecture_kana": "ヤマグチケン",
    "prefecture_code": 35,
    "city": "周南市",
    "city_kana": "シュウナンシ",
    "town": "今宿町",
    "town_kana": "イマジュクチョウ",
    "street": null,
    "office_name": null,
    "office_name_kana": null
  },
  "0075": {
    "postcode": "7450075",
    "prefecture": "山口県",
    "prefecture_kana": "ヤマグチケン",
    "prefecture_code": 35,
    "city": "周南市",
    "city_kana": "シュウナンシ",
    "town": "緑町",
    "town_kana": "ミドリマチ",
    "street": null,
    "office_name": null,
    "office_name_kana": null
  },
  "0076": {
    "postcode": "7450076",
    "prefecture": "山口県",
    "prefecture_kana": "ヤマグチケン",
    "prefecture_code": 35,
    "city": "周南市",
    "city_kana": "シュウナンシ",
    "town": "梅園町",
    "town_kana": "ウメゾノチョウ",
    "street": null,
    "office_name": null,
    "office_name_kana": null
  },
  "0121": {
    "postcode": "7450121",
    "prefecture": "山口県",
    "prefecture_kana": "ヤマグチケン",
    "prefecture_code": 35,
    "city": "周南市",
    "city_kana": "シュウナンシ",
    "town": "須々万奥",
    "town_kana": "ススマオク",
    "street": null,
    "office_name": null,
    "office_name_kana": null
  },
  "0122": {
    "postcode": "7450122",
    "prefecture": "山口県",
    "prefecture_kana": "ヤマグチケン",
    "prefecture_code": 35,
    "city": "周南市",
    "city_kana": "シュウナンシ",
    "town": "須々万本郷",
    "town_kana": "ススマホンゴウ",
    "street": null,
    "office_name": null,
    "office_name_kana": null
  },
  "0123": [
    {
      "postcode": "7450123",
      "prefecture": "山口県",
      "prefecture_kana": "ヤマグチケン",
      "prefecture_code": 35,
      "city": "周南市",
      "city_kana": "シュウナンシ",
      "town": "徳山",
      "town_kana": "トクヤマ",
      "street": null,
      "office_name": null,
      "office_name_kana": null
    },
    {
      "postcode": "7450123",
      "prefecture": "山口県",
      "prefecture_kana": "ヤマグチケン",
      "prefecture_code": 35,
      "city": "周南市",
      "city_kana": "シュウナンシ",
      "town": "徳山杉ケ峠",
      "town_kana": "トクヤマスギガトウゲ",
      "street": null,
      "office_name": null,
      "office_name_kana": null
    }
  ],
  "0124": {
    "postcode": "7450124",
    "prefecture": "山口県",
    "prefecture_kana": "ヤマグチケン",
    "prefecture_code": 35,
    "city": "周南市",
    "city_kana": "シュウナンシ",
    "town": "莇地",
    "town_kana": "アドウジ",
    "street": null,
    "office_name": null,
    "office_name_kana": null
  },
  "0125": {
    "postcode": "7450125",
    "prefecture": "山口県",
    "prefecture_kana": "ヤマグチケン",
    "prefecture_code": 35,
    "city": "周南市",
    "city_kana": "シュウナンシ",
    "town": "長穂",
    "town_kana": "ナガホ",
    "street": null,
    "office_name": null,
    "office_name_kana": null
  },
  "0241": {
    "postcode": "7450241",
    "prefecture": "山口県",
    "prefecture_kana": "ヤマグチケン",
    "prefecture_code": 35,
    "city": "周南市",
    "city_kana": "シュウナンシ",
    "town": "大向",
    "town_kana": "オオムカイ",
    "street": null,
    "office_name": null,
    "office_name_kana": null
  },
  "0242": {
    "postcode": "7450242",
    "prefecture": "山口県",
    "prefecture_kana": "ヤマグチケン",
    "prefecture_code": 35,
    "city": "周南市",
    "city_kana": "シュウナンシ",
    "town": "大道理",
    "town_kana": "オオドウリ",
    "street": null,
    "office_name": null,
    "office_name_kana": null
  },
  "0301": {
    "postcode": "7450301",
    "prefecture": "山口県",
    "prefecture_kana": "ヤマグチケン",
    "prefecture_code": 35,
    "city": "周南市",
    "city_kana": "シュウナンシ",
    "town": "大潮",
    "town_kana": "オオシオ",
    "street": null,
    "office_name": null,
    "office_name_kana": null
  },
  "0302": {
    "postcode": "7450302",
    "prefecture": "山口県",
    "prefecture_kana": "ヤマグチケン",
    "prefecture_code": 35,
    "city": "周南市",
    "city_kana": "シュウナンシ",
    "town": "鹿野上",
    "town_kana": "カノカミ",
    "street": null,
    "office_name": null,
    "office_name_kana": null
  },
  "0303": {
    "postcode": "7450303",
    "prefecture": "山口県",
    "prefecture_kana": "ヤマグチケン",
    "prefecture_code": 35,
    "city": "周南市",
    "city_kana": "シュウナンシ",
    "town": "鹿野中",
    "town_kana": "カノナカ",
    "street": null,
    "office_name": null,
    "office_name_kana": null
  },
  "0304": {
    "postcode": "7450304",
    "prefecture": "山口県",
    "prefecture_kana": "ヤマグチケン",
    "prefecture_code": 35,
    "city": "周南市",
    "city_kana": "シュウナンシ",
    "town": "鹿野下",
    "town_kana": "カノシモ",
    "street": null,
    "office_name": null,
    "office_name_kana": null
  },
  "0401": {
    "postcode": "7450401",
    "prefecture": "山口県",
    "prefecture_kana": "ヤマグチケン",
    "prefecture_code": 35,
    "city": "周南市",
    "city_kana": "シュウナンシ",
    "town": "須万",
    "town_kana": "スマ",
    "street": null,
    "office_name": null,
    "office_name_kana": null
  },
  "0402": {
    "postcode": "7450402",
    "prefecture": "山口県",
    "prefecture_kana": "ヤマグチケン",
    "prefecture_code": 35,
    "city": "周南市",
    "city_kana": "シュウナンシ",
    "town": "金峰",
    "town_kana": "ミタケ",
    "street": null,
    "office_name": null,
    "office_name_kana": null
  },
  "0501": {
    "postcode": "7450501",
    "prefecture": "山口県",
    "prefecture_kana": "ヤマグチケン",
    "prefecture_code": 35,
    "city": "周南市",
    "city_kana": "シュウナンシ",
    "town": "八代",
    "town_kana": "ヤシロ",
    "street": null,
    "office_name": null,
    "office_name_kana": null
  },
  "0511": {
    "postcode": "7450511",
    "prefecture": "山口県",
    "prefecture_kana": "ヤマグチケン",
    "prefecture_code": 35,
    "city": "周南市",
    "city_kana": "シュウナンシ",
    "town": "中須北",
    "town_kana": "ナカズキタ",
    "street": null,
    "office_name": null,
    "office_name_kana": null
  },
  "0512": {
    "postcode": "7450512",
    "prefecture": "山口県",
    "prefecture_kana": "ヤマグチケン",
    "prefecture_code": 35,
    "city": "周南市",
    "city_kana": "シュウナンシ",
    "town": "中須南",
    "town_kana": "ナカズミナミ",
    "street": null,
    "office_name": null,
    "office_name_kana": null
  },
  "0611": {
    "postcode": "7450611",
    "prefecture": "山口県",
    "prefecture_kana": "ヤマグチケン",
    "prefecture_code": 35,
    "city": "周南市",
    "city_kana": "シュウナンシ",
    "town": "奥関屋",
    "town_kana": "オクセキヤ",
    "street": null,
    "office_name": null,
    "office_name_kana": null
  },
  "0612": {
    "postcode": "7450612",
    "prefecture": "山口県",
    "prefecture_kana": "ヤマグチケン",
    "prefecture_code": 35,
    "city": "周南市",
    "city_kana": "シュウナンシ",
    "town": "呼坂",
    "town_kana": "ヨビサカ",
    "street": null,
    "office_name": null,
    "office_name_kana": null
  },
  "0613": {
    "postcode": "7450613",
    "prefecture": "山口県",
    "prefecture_kana": "ヤマグチケン",
    "prefecture_code": 35,
    "city": "周南市",
    "city_kana": "シュウナンシ",
    "town": "夢ケ丘",
    "town_kana": "ユメガオカ",
    "street": null,
    "office_name": null,
    "office_name_kana": null
  },
  "0614": {
    "postcode": "7450614",
    "prefecture": "山口県",
    "prefecture_kana": "ヤマグチケン",
    "prefecture_code": 35,
    "city": "周南市",
    "city_kana": "シュウナンシ",
    "town": "御所尾原",
    "town_kana": "ゴショオバラ",
    "street": null,
    "office_name": null,
    "office_name_kana": null
  },
  "0615": {
    "postcode": "7450615",
    "prefecture": "山口県",
    "prefecture_kana": "ヤマグチケン",
    "prefecture_code": 35,
    "city": "周南市",
    "city_kana": "シュウナンシ",
    "town": "勝間ヶ丘",
    "town_kana": "カツマガオカ",
    "street": null,
    "office_name": null,
    "office_name_kana": null
  },
  "0616": {
    "postcode": "7450616",
    "prefecture": "山口県",
    "prefecture_kana": "ヤマグチケン",
    "prefecture_code": 35,
    "city": "周南市",
    "city_kana": "シュウナンシ",
    "town": "緑ケ丘",
    "town_kana": "ミドリガオカ",
    "street": null,
    "office_name": null,
    "office_name_kana": null
  },
  "0617": {
    "postcode": "7450617",
    "prefecture": "山口県",
    "prefecture_kana": "ヤマグチケン",
    "prefecture_code": 35,
    "city": "周南市",
    "city_kana": "シュウナンシ",
    "town": "勝間原",
    "town_kana": "カツマバラ",
    "street": null,
    "office_name": null,
    "office_name_kana": null
  },
  "0618": {
    "postcode": "7450618",
    "prefecture": "山口県",
    "prefecture_kana": "ヤマグチケン",
    "prefecture_code": 35,
    "city": "周南市",
    "city_kana": "シュウナンシ",
    "town": "藤ヶ台",
    "town_kana": "フジガダイ",
    "street": null,
    "office_name": null,
    "office_name_kana": null
  },
  "0621": {
    "postcode": "7450621",
    "prefecture": "山口県",
    "prefecture_kana": "ヤマグチケン",
    "prefecture_code": 35,
    "city": "周南市",
    "city_kana": "シュウナンシ",
    "town": "原",
    "town_kana": "ハラ",
    "street": null,
    "office_name": null,
    "office_name_kana": null
  },
  "0622": {
    "postcode": "7450622",
    "prefecture": "山口県",
    "prefecture_kana": "ヤマグチケン",
    "prefecture_code": 35,
    "city": "周南市",
    "city_kana": "シュウナンシ",
    "town": "樋口",
    "town_kana": "ヒグチ",
    "street": null,
    "office_name": null,
    "office_name_kana": null
  },
  "0623": {
    "postcode": "7450623",
    "prefecture": "山口県",
    "prefecture_kana": "ヤマグチケン",
    "prefecture_code": 35,
    "city": "周南市",
    "city_kana": "シュウナンシ",
    "town": "清尾",
    "town_kana": "セイノオ",
    "street": null,
    "office_name": null,
    "office_name_kana": null
  },
  "0631": {
    "postcode": "7450631",
    "prefecture": "山口県",
    "prefecture_kana": "ヤマグチケン",
    "prefecture_code": 35,
    "city": "周南市",
    "city_kana": "シュウナンシ",
    "town": "安田",
    "town_kana": "ヤスダ",
    "street": null,
    "office_name": null,
    "office_name_kana": null
  },
  "0632": {
    "postcode": "7450632",
    "prefecture": "山口県",
    "prefecture_kana": "ヤマグチケン",
    "prefecture_code": 35,
    "city": "周南市",
    "city_kana": "シュウナンシ",
    "town": "鶴見台",
    "town_kana": "ツルミダイ",
    "street": null,
    "office_name": null,
    "office_name_kana": null
  },
  "0641": {
    "postcode": "7450641",
    "prefecture": "山口県",
    "prefecture_kana": "ヤマグチケン",
    "prefecture_code": 35,
    "city": "周南市",
    "city_kana": "シュウナンシ",
    "town": "小松原",
    "town_kana": "コマツバラ",
    "street": null,
    "office_name": null,
    "office_name_kana": null
  },
  "0642": {
    "postcode": "7450642",
    "prefecture": "山口県",
    "prefecture_kana": "ヤマグチケン",
    "prefecture_code": 35,
    "city": "周南市",
    "city_kana": "シュウナンシ",
    "town": "中村",
    "town_kana": "ナカムラ",
    "street": null,
    "office_name": null,
    "office_name_kana": null
  },
  "0643": {
    "postcode": "7450643",
    "prefecture": "山口県",
    "prefecture_kana": "ヤマグチケン",
    "prefecture_code": 35,
    "city": "周南市",
    "city_kana": "シュウナンシ",
    "town": "新清光台",
    "town_kana": "シンセイコウダイ",
    "street": null,
    "office_name": null,
    "office_name_kana": null
  },
  "0651": {
    "postcode": "7450651",
    "prefecture": "山口県",
    "prefecture_kana": "ヤマグチケン",
    "prefecture_code": 35,
    "city": "周南市",
    "city_kana": "シュウナンシ",
    "town": "大河内",
    "town_kana": "オオカワチ",
    "street": null,
    "office_name": null,
    "office_name_kana": null
  },
  "0652": {
    "postcode": "7450652",
    "prefecture": "山口県",
    "prefecture_kana": "ヤマグチケン",
    "prefecture_code": 35,
    "city": "周南市",
    "city_kana": "シュウナンシ",
    "town": "幸ケ丘",
    "town_kana": "サチガオカ",
    "street": null,
    "office_name": null,
    "office_name_kana": null
  },
  "0653": {
    "postcode": "7450653",
    "prefecture": "山口県",
    "prefecture_kana": "ヤマグチケン",
    "prefecture_code": 35,
    "city": "周南市",
    "city_kana": "シュウナンシ",
    "town": "清光台町",
    "town_kana": "セイコウダイチョウ",
    "street": null,
    "office_name": null,
    "office_name_kana": null
  },
  "0654": {
    "postcode": "7450654",
    "prefecture": "山口県",
    "prefecture_kana": "ヤマグチケン",
    "prefecture_code": 35,
    "city": "周南市",
    "city_kana": "シュウナンシ",
    "town": "自由ケ丘",
    "town_kana": "ジユウガオカ",
    "street": null,
    "office_name": null,
    "office_name_kana": null
  },
  "0661": {
    "postcode": "7450661",
    "prefecture": "山口県",
    "prefecture_kana": "ヤマグチケン",
    "prefecture_code": 35,
    "city": "周南市",
    "city_kana": "シュウナンシ",
    "town": "呼坂本町",
    "town_kana": "ヨビサカホンマチ",
    "street": null,
    "office_name": null,
    "office_name_kana": null
  },
  "0662": {
    "postcode": "7450662",
    "prefecture": "山口県",
    "prefecture_kana": "ヤマグチケン",
    "prefecture_code": 35,
    "city": "周南市",
    "city_kana": "シュウナンシ",
    "town": "高水原",
    "town_kana": "タカミズハラ",
    "street": null,
    "office_name": null,
    "office_name_kana": null
  },
  "0663": {
    "postcode": "7450663",
    "prefecture": "山口県",
    "prefecture_kana": "ヤマグチケン",
    "prefecture_code": 35,
    "city": "周南市",
    "city_kana": "シュウナンシ",
    "town": "熊毛中央町",
    "town_kana": "クマゲチュウオウチョウ",
    "street": null,
    "office_name": null,
    "office_name_kana": null
  },
  "0696": {
    "postcode": "7450696",
    "prefecture": "山口県",
    "prefecture_kana": "ヤマグチケン",
    "prefecture_code": 35,
    "city": "周南市",
    "city_kana": "シュウナンシ",
    "town": "大字大河内",
    "town_kana": null,
    "street": "５１８−５",
    "office_name": "株式会社　新光",
    "office_name_kana": "カブシキガイシヤ シンコウ"
  },
  "0698": {
    "postcode": "7450698",
    "prefecture": "山口県",
    "prefecture_kana": "ヤマグチケン",
    "prefecture_code": 35,
    "city": "周南市",
    "city_kana": "シュウナンシ",
    "town": "大字呼坂",
    "town_kana": null,
    "street": "２−２",
    "office_name": "周南市役所　熊毛総合支所",
    "office_name_kana": "シユウナンシヤクシヨ クマゲソウゴウシシヨ"
  },
  "0801": {
    "postcode": "7450801",
    "prefecture": "山口県",
    "prefecture_kana": "ヤマグチケン",
    "prefecture_code": 35,
    "city": "周南市",
    "city_kana": "シュウナンシ",
    "town": "久米",
    "town_kana": "クメ",
    "street": null,
    "office_name": null,
    "office_name_kana": null
  },
  "0802": {
    "postcode": "7450802",
    "prefecture": "山口県",
    "prefecture_kana": "ヤマグチケン",
    "prefecture_code": 35,
    "city": "周南市",
    "city_kana": "シュウナンシ",
    "town": "栗屋",
    "town_kana": "クリヤ",
    "street": null,
    "office_name": null,
    "office_name_kana": null
  },
  "0803": {
    "postcode": "7450803",
    "prefecture": "山口県",
    "prefecture_kana": "ヤマグチケン",
    "prefecture_code": 35,
    "city": "周南市",
    "city_kana": "シュウナンシ",
    "town": "大島",
    "town_kana": "オオシマ",
    "street": null,
    "office_name": null,
    "office_name_kana": null
  },
  "0804": {
    "postcode": "7450804",
    "prefecture": "山口県",
    "prefecture_kana": "ヤマグチケン",
    "prefecture_code": 35,
    "city": "周南市",
    "city_kana": "シュウナンシ",
    "town": "粭島",
    "town_kana": "スクモジマ",
    "street": null,
    "office_name": null,
    "office_name_kana": null
  },
  "0805": {
    "postcode": "7450805",
    "prefecture": "山口県",
    "prefecture_kana": "ヤマグチケン",
    "prefecture_code": 35,
    "city": "周南市",
    "city_kana": "シュウナンシ",
    "town": "櫛ヶ浜",
    "town_kana": "クシガハマ",
    "street": null,
    "office_name": null,
    "office_name_kana": null
  },
  "0806": {
    "postcode": "7450806",
    "prefecture": "山口県",
    "prefecture_kana": "ヤマグチケン",
    "prefecture_code": 35,
    "city": "周南市",
    "city_kana": "シュウナンシ",
    "town": "桜木",
    "town_kana": "サクラギ",
    "street": null,
    "office_name": null,
    "office_name_kana": null
  },
  "0807": {
    "postcode": "7450807",
    "prefecture": "山口県",
    "prefecture_kana": "ヤマグチケン",
    "prefecture_code": 35,
    "city": "周南市",
    "city_kana": "シュウナンシ",
    "town": "城ケ丘",
    "town_kana": "ジョウガオカ",
    "street": null,
    "office_name": null,
    "office_name_kana": null
  },
  "0808": {
    "postcode": "7450808",
    "prefecture": "山口県",
    "prefecture_kana": "ヤマグチケン",
    "prefecture_code": 35,
    "city": "周南市",
    "city_kana": "シュウナンシ",
    "town": "平原町",
    "town_kana": "ヒラバラチョウ",
    "street": null,
    "office_name": null,
    "office_name_kana": null
  },
  "0809": {
    "postcode": "7450809",
    "prefecture": "山口県",
    "prefecture_kana": "ヤマグチケン",
    "prefecture_code": 35,
    "city": "周南市",
    "city_kana": "シュウナンシ",
    "town": "久米中央",
    "town_kana": "クメチュウオウ",
    "street": null,
    "office_name": null,
    "office_name_kana": null
  },
  "0811": {
    "postcode": "7450811",
    "prefecture": "山口県",
    "prefecture_kana": "ヤマグチケン",
    "prefecture_code": 35,
    "city": "周南市",
    "city_kana": "シュウナンシ",
    "town": "五月町",
    "town_kana": "サツキチョウ",
    "street": null,
    "office_name": null,
    "office_name_kana": null
  },
  "0812": {
    "postcode": "7450812",
    "prefecture": "山口県",
    "prefecture_kana": "ヤマグチケン",
    "prefecture_code": 35,
    "city": "周南市",
    "city_kana": "シュウナンシ",
    "town": "横浜町",
    "town_kana": "ヨコハマチョウ",
    "street": null,
    "office_name": null,
    "office_name_kana": null
  },
  "0813": {
    "postcode": "7450813",
    "prefecture": "山口県",
    "prefecture_kana": "ヤマグチケン",
    "prefecture_code": 35,
    "city": "周南市",
    "city_kana": "シュウナンシ",
    "town": "由加町",
    "town_kana": "ユカチョウ",
    "street": null,
    "office_name": null,
    "office_name_kana": null
  },
  "0814": {
    "postcode": "7450814",
    "prefecture": "山口県",
    "prefecture_kana": "ヤマグチケン",
    "prefecture_code": 35,
    "city": "周南市",
    "city_kana": "シュウナンシ",
    "town": "鼓海",
    "town_kana": "コカイ",
    "street": null,
    "office_name": null,
    "office_name_kana": null
  },
  "0815": {
    "postcode": "7450815",
    "prefecture": "山口県",
    "prefecture_kana": "ヤマグチケン",
    "prefecture_code": 35,
    "city": "周南市",
    "city_kana": "シュウナンシ",
    "town": "宮前町",
    "town_kana": "ミヤマエチョウ",
    "street": null,
    "office_name": null,
    "office_name_kana": null
  },
  "0816": {
    "postcode": "7450816",
    "prefecture": "山口県",
    "prefecture_kana": "ヤマグチケン",
    "prefecture_code": 35,
    "city": "周南市",
    "city_kana": "シュウナンシ",
    "town": "遠石",
    "town_kana": "トイシ",
    "street": null,
    "office_name": null,
    "office_name_kana": null
  },
  "0817": {
    "postcode": "7450817",
    "prefecture": "山口県",
    "prefecture_kana": "ヤマグチケン",
    "prefecture_code": 35,
    "city": "周南市",
    "city_kana": "シュウナンシ",
    "town": "上遠石町",
    "town_kana": "カミトイシチョウ",
    "street": null,
    "office_name": null,
    "office_name_kana": null
  },
  "0821": {
    "postcode": "7450821",
    "prefecture": "山口県",
    "prefecture_kana": "ヤマグチケン",
    "prefecture_code": 35,
    "city": "周南市",
    "city_kana": "シュウナンシ",
    "town": "曙町",
    "town_kana": "アケボノチョウ",
    "street": null,
    "office_name": null,
    "office_name_kana": null
  },
  "0822": {
    "postcode": "7450822",
    "prefecture": "山口県",
    "prefecture_kana": "ヤマグチケン",
    "prefecture_code": 35,
    "city": "周南市",
    "city_kana": "シュウナンシ",
    "town": "孝田町",
    "town_kana": "コウダチョウ",
    "street": null,
    "office_name": null,
    "office_name_kana": null
  },
  "0823": {
    "postcode": "7450823",
    "prefecture": "山口県",
    "prefecture_kana": "ヤマグチケン",
    "prefecture_code": 35,
    "city": "周南市",
    "city_kana": "シュウナンシ",
    "town": "周陽",
    "town_kana": "シュウヨウ",
    "street": null,
    "office_name": null,
    "office_name_kana": null
  },
  "0824": {
    "postcode": "7450824",
    "prefecture": "山口県",
    "prefecture_kana": "ヤマグチケン",
    "prefecture_code": 35,
    "city": "周南市",
    "city_kana": "シュウナンシ",
    "town": "大内町",
    "town_kana": "オオウチチョウ",
    "street": null,
    "office_name": null,
    "office_name_kana": null
  },
  "0825": {
    "postcode": "7450825",
    "prefecture": "山口県",
    "prefecture_kana": "ヤマグチケン",
    "prefecture_code": 35,
    "city": "周南市",
    "city_kana": "シュウナンシ",
    "town": "秋月",
    "town_kana": "アキヅキ",
    "street": null,
    "office_name": null,
    "office_name_kana": null
  },
  "0826": {
    "postcode": "7450826",
    "prefecture": "山口県",
    "prefecture_kana": "ヤマグチケン",
    "prefecture_code": 35,
    "city": "周南市",
    "city_kana": "シュウナンシ",
    "town": "江の宮町",
    "town_kana": "エノミヤチョウ",
    "street": null,
    "office_name": null,
    "office_name_kana": null
  },
  "0827": {
    "postcode": "7450827",
    "prefecture": "山口県",
    "prefecture_kana": "ヤマグチケン",
    "prefecture_code": 35,
    "city": "周南市",
    "city_kana": "シュウナンシ",
    "town": "瀬戸見町",
    "town_kana": "セトミチョウ",
    "street": null,
    "office_name": null,
    "office_name_kana": null
  },
  "0831": {
    "postcode": "7450831",
    "prefecture": "山口県",
    "prefecture_kana": "ヤマグチケン",
    "prefecture_code": 35,
    "city": "周南市",
    "city_kana": "シュウナンシ",
    "town": "楠木",
    "town_kana": "クスノキ",
    "street": null,
    "office_name": null,
    "office_name_kana": null
  },
  "0832": {
    "postcode": "7450832",
    "prefecture": "山口県",
    "prefecture_kana": "ヤマグチケン",
    "prefecture_code": 35,
    "city": "周南市",
    "city_kana": "シュウナンシ",
    "town": "扇町",
    "town_kana": "オウギチョウ",
    "street": null,
    "office_name": null,
    "office_name_kana": null
  },
  "0833": {
    "postcode": "7450833",
    "prefecture": "山口県",
    "prefecture_kana": "ヤマグチケン",
    "prefecture_code": 35,
    "city": "周南市",
    "city_kana": "シュウナンシ",
    "town": "泉原町",
    "town_kana": "イズミバラチョウ",
    "street": null,
    "office_name": null,
    "office_name_kana": null
  },
  "0834": {
    "postcode": "7450834",
    "prefecture": "山口県",
    "prefecture_kana": "ヤマグチケン",
    "prefecture_code": 35,
    "city": "周南市",
    "city_kana": "シュウナンシ",
    "town": "清水町",
    "town_kana": "シミズチョウ",
    "street": null,
    "office_name": null,
    "office_name_kana": null
  },
  "0835": {
    "postcode": "7450835",
    "prefecture": "山口県",
    "prefecture_kana": "ヤマグチケン",
    "prefecture_code": 35,
    "city": "周南市",
    "city_kana": "シュウナンシ",
    "town": "舞車町",
    "town_kana": "マイグルマチョウ",
    "street": null,
    "office_name": null,
    "office_name_kana": null
  },
  "0836": {
    "postcode": "7450836",
    "prefecture": "山口県",
    "prefecture_kana": "ヤマグチケン",
    "prefecture_code": 35,
    "city": "周南市",
    "city_kana": "シュウナンシ",
    "town": "慶万町",
    "town_kana": "ケイマンチョウ",
    "street": null,
    "office_name": null,
    "office_name_kana": null
  },
  "0837": {
    "postcode": "7450837",
    "prefecture": "山口県",
    "prefecture_kana": "ヤマグチケン",
    "prefecture_code": 35,
    "city": "周南市",
    "city_kana": "シュウナンシ",
    "town": "譲羽",
    "town_kana": "ユズリハ",
    "street": null,
    "office_name": null,
    "office_name_kana": null
  },
  "0841": {
    "postcode": "7450841",
    "prefecture": "山口県",
    "prefecture_kana": "ヤマグチケン",
    "prefecture_code": 35,
    "city": "周南市",
    "city_kana": "シュウナンシ",
    "town": "若草町",
    "town_kana": "ワカクサチョウ",
    "street": null,
    "office_name": null,
    "office_name_kana": null
  },
  "0842": {
    "postcode": "7450842",
    "prefecture": "山口県",
    "prefecture_kana": "ヤマグチケン",
    "prefecture_code": 35,
    "city": "周南市",
    "city_kana": "シュウナンシ",
    "town": "青山町",
    "town_kana": "アオヤマチョウ",
    "street": null,
    "office_name": null,
    "office_name_kana": null
  },
  "0843": {
    "postcode": "7450843",
    "prefecture": "山口県",
    "prefecture_kana": "ヤマグチケン",
    "prefecture_code": 35,
    "city": "周南市",
    "city_kana": "シュウナンシ",
    "town": "新宮町",
    "town_kana": "シングウチョウ",
    "street": null,
    "office_name": null,
    "office_name_kana": null
  },
  "0844": {
    "postcode": "7450844",
    "prefecture": "山口県",
    "prefecture_kana": "ヤマグチケン",
    "prefecture_code": 35,
    "city": "周南市",
    "city_kana": "シュウナンシ",
    "town": "速玉町",
    "town_kana": "ハヤタマチョウ",
    "street": null,
    "office_name": null,
    "office_name_kana": null
  },
  "0845": {
    "postcode": "7450845",
    "prefecture": "山口県",
    "prefecture_kana": "ヤマグチケン",
    "prefecture_code": 35,
    "city": "周南市",
    "city_kana": "シュウナンシ",
    "town": "河東町",
    "town_kana": "カワヒガシチョウ",
    "street": null,
    "office_name": null,
    "office_name_kana": null
  },
  "0846": {
    "postcode": "7450846",
    "prefecture": "山口県",
    "prefecture_kana": "ヤマグチケン",
    "prefecture_code": 35,
    "city": "周南市",
    "city_kana": "シュウナンシ",
    "town": "東山町",
    "town_kana": "ヒガシヤマチョウ",
    "street": null,
    "office_name": null,
    "office_name_kana": null
  },
  "0847": {
    "postcode": "7450847",
    "prefecture": "山口県",
    "prefecture_kana": "ヤマグチケン",
    "prefecture_code": 35,
    "city": "周南市",
    "city_kana": "シュウナンシ",
    "town": "松保町",
    "town_kana": "マツホチョウ",
    "street": null,
    "office_name": null,
    "office_name_kana": null
  },
  "0851": {
    "postcode": "7450851",
    "prefecture": "山口県",
    "prefecture_kana": "ヤマグチケン",
    "prefecture_code": 35,
    "city": "周南市",
    "city_kana": "シュウナンシ",
    "town": "徳山",
    "town_kana": "トクヤマ",
    "street": null,
    "office_name": null,
    "office_name_kana": null
  },
  "0852": {
    "postcode": "7450852",
    "prefecture": "山口県",
    "prefecture_kana": "ヤマグチケン",
    "prefecture_code": 35,
    "city": "周南市",
    "city_kana": "シュウナンシ",
    "town": "川曲",
    "town_kana": "カワマガリ",
    "street": null,
    "office_name": null,
    "office_name_kana": null
  },
  "0853": {
    "postcode": "7450853",
    "prefecture": "山口県",
    "prefecture_kana": "ヤマグチケン",
    "prefecture_code": 35,
    "city": "周南市",
    "city_kana": "シュウナンシ",
    "town": "上村",
    "town_kana": "ジョウソン",
    "street": null,
    "office_name": null,
    "office_name_kana": null
  },
  "0854": {
    "postcode": "7450854",
    "prefecture": "山口県",
    "prefecture_kana": "ヤマグチケン",
    "prefecture_code": 35,
    "city": "周南市",
    "city_kana": "シュウナンシ",
    "town": "中野",
    "town_kana": "ナカノ",
    "street": null,
    "office_name": null,
    "office_name_kana": null
  },
  "0855": {
    "postcode": "7450855",
    "prefecture": "山口県",
    "prefecture_kana": "ヤマグチケン",
    "prefecture_code": 35,
    "city": "周南市",
    "city_kana": "シュウナンシ",
    "town": "川上",
    "town_kana": "カワカミ",
    "street": null,
    "office_name": null,
    "office_name_kana": null
  },
  "0856": {
    "postcode": "7450856",
    "prefecture": "山口県",
    "prefecture_kana": "ヤマグチケン",
    "prefecture_code": 35,
    "city": "周南市",
    "city_kana": "シュウナンシ",
    "town": "浦山",
    "town_kana": "ウラヤマ",
    "street": null,
    "office_name": null,
    "office_name_kana": null
  },
  "0857": {
    "postcode": "7450857",
    "prefecture": "山口県",
    "prefecture_kana": "ヤマグチケン",
    "prefecture_code": 35,
    "city": "周南市",
    "city_kana": "シュウナンシ",
    "town": "浦山開作",
    "town_kana": "ウラヤマカイサク",
    "street": null,
    "office_name": null,
    "office_name_kana": null
  },
  "0858": {
    "postcode": "7450858",
    "prefecture": "山口県",
    "prefecture_kana": "ヤマグチケン",
    "prefecture_code": 35,
    "city": "周南市",
    "city_kana": "シュウナンシ",
    "town": "花陽",
    "town_kana": "カヨウ",
    "street": null,
    "office_name": null,
    "office_name_kana": null
  },
  "0861": {
    "postcode": "7450861",
    "prefecture": "山口県",
    "prefecture_kana": "ヤマグチケン",
    "prefecture_code": 35,
    "city": "周南市",
    "city_kana": "シュウナンシ",
    "town": "新地",
    "town_kana": "シンチ",
    "street": null,
    "office_name": null,
    "office_name_kana": null
  },
  "0862": {
    "postcode": "7450862",
    "prefecture": "山口県",
    "prefecture_kana": "ヤマグチケン",
    "prefecture_code": 35,
    "city": "周南市",
    "city_kana": "シュウナンシ",
    "town": "江口",
    "town_kana": "エグチ",
    "street": null,
    "office_name": null,
    "office_name_kana": null
  },
  "0863": {
    "postcode": "7450863",
    "prefecture": "山口県",
    "prefecture_kana": "ヤマグチケン",
    "prefecture_code": 35,
    "city": "周南市",
    "city_kana": "シュウナンシ",
    "town": "御山町",
    "town_kana": "ミヤマチョウ",
    "street": null,
    "office_name": null,
    "office_name_kana": null
  },
  "0864": {
    "postcode": "7450864",
    "prefecture": "山口県",
    "prefecture_kana": "ヤマグチケン",
    "prefecture_code": 35,
    "city": "周南市",
    "city_kana": "シュウナンシ",
    "town": "北山",
    "town_kana": "キタヤマ",
    "street": null,
    "office_name": null,
    "office_name_kana": null
  },
  "0865": {
    "postcode": "7450865",
    "prefecture": "山口県",
    "prefecture_kana": "ヤマグチケン",
    "prefecture_code": 35,
    "city": "周南市",
    "city_kana": "シュウナンシ",
    "town": "蓮ヶ浴",
    "town_kana": "ハスガエキ",
    "street": null,
    "office_name": null,
    "office_name_kana": null
  },
  "0866": {
    "postcode": "7450866",
    "prefecture": "山口県",
    "prefecture_kana": "ヤマグチケン",
    "prefecture_code": 35,
    "city": "周南市",
    "city_kana": "シュウナンシ",
    "town": "土越",
    "town_kana": "ヒジコシ",
    "street": null,
    "office_name": null,
    "office_name_kana": null
  },
  "0867": {
    "postcode": "7450867",
    "prefecture": "山口県",
    "prefecture_kana": "ヤマグチケン",
    "prefecture_code": 35,
    "city": "周南市",
    "city_kana": "シュウナンシ",
    "town": "新堀",
    "town_kana": "シンボリ",
    "street": null,
    "office_name": null,
    "office_name_kana": null
  },
  "0868": {
    "postcode": "7450868",
    "prefecture": "山口県",
    "prefecture_kana": "ヤマグチケン",
    "prefecture_code": 35,
    "city": "周南市",
    "city_kana": "シュウナンシ",
    "town": "南浦山町",
    "town_kana": "ミナミウラヤマチョウ",
    "street": null,
    "office_name": null,
    "office_name_kana": null
  },
  "0869": {
    "postcode": "7450869",
    "prefecture": "山口県",
    "prefecture_kana": "ヤマグチケン",
    "prefecture_code": 35,
    "city": "周南市",
    "city_kana": "シュウナンシ",
    "town": "東北山",
    "town_kana": "ヒガシキタヤマ",
    "street": null,
    "office_name": null,
    "office_name_kana": null
  },
  "0871": {
    "postcode": "7450871",
    "prefecture": "山口県",
    "prefecture_kana": "ヤマグチケン",
    "prefecture_code": 35,
    "city": "周南市",
    "city_kana": "シュウナンシ",
    "town": "御弓町",
    "town_kana": "オユミチョウ",
    "street": null,
    "office_name": null,
    "office_name_kana": null
  },
  "0872": {
    "postcode": "7450872",
    "prefecture": "山口県",
    "prefecture_kana": "ヤマグチケン",
    "prefecture_code": 35,
    "city": "周南市",
    "city_kana": "シュウナンシ",
    "town": "一番丁",
    "town_kana": "イチバンチョウ",
    "street": null,
    "office_name": null,
    "office_name_kana": null
  },
  "0873": {
    "postcode": "7450873",
    "prefecture": "山口県",
    "prefecture_kana": "ヤマグチケン",
    "prefecture_code": 35,
    "city": "周南市",
    "city_kana": "シュウナンシ",
    "town": "三田川",
    "town_kana": "ミタガワ",
    "street": null,
    "office_name": null,
    "office_name_kana": null
  },
  "0874": {
    "postcode": "7450874",
    "prefecture": "山口県",
    "prefecture_kana": "ヤマグチケン",
    "prefecture_code": 35,
    "city": "周南市",
    "city_kana": "シュウナンシ",
    "town": "公園区",
    "town_kana": "コウエンク",
    "street": null,
    "office_name": null,
    "office_name_kana": null
  },
  "0875": {
    "postcode": "7450875",
    "prefecture": "山口県",
    "prefecture_kana": "ヤマグチケン",
    "prefecture_code": 35,
    "city": "周南市",
    "city_kana": "シュウナンシ",
    "town": "西金剛山",
    "town_kana": "ニシコンゴウザン",
    "street": null,
    "office_name": null,
    "office_name_kana": null
  },
  "0876": {
    "postcode": "7450876",
    "prefecture": "山口県",
    "prefecture_kana": "ヤマグチケン",
    "prefecture_code": 35,
    "city": "周南市",
    "city_kana": "シュウナンシ",
    "town": "中金剛山",
    "town_kana": "ナカコンゴウザン",
    "street": null,
    "office_name": null,
    "office_name_kana": null
  },
  "0877": {
    "postcode": "7450877",
    "prefecture": "山口県",
    "prefecture_kana": "ヤマグチケン",
    "prefecture_code": 35,
    "city": "周南市",
    "city_kana": "シュウナンシ",
    "town": "東金剛山",
    "town_kana": "ヒガシコンゴウザン",
    "street": null,
    "office_name": null,
    "office_name_kana": null
  },
  "0878": {
    "postcode": "7450878",
    "prefecture": "山口県",
    "prefecture_kana": "ヤマグチケン",
    "prefecture_code": 35,
    "city": "周南市",
    "city_kana": "シュウナンシ",
    "town": "幸の台",
    "town_kana": "コウノダイ",
    "street": null,
    "office_name": null,
    "office_name_kana": null
  },
  "0881": {
    "postcode": "7450881",
    "prefecture": "山口県",
    "prefecture_kana": "ヤマグチケン",
    "prefecture_code": 35,
    "city": "周南市",
    "city_kana": "シュウナンシ",
    "town": "東辻",
    "town_kana": "ヒガシツジ",
    "street": null,
    "office_name": null,
    "office_name_kana": null
  },
  "0882": {
    "postcode": "7450882",
    "prefecture": "山口県",
    "prefecture_kana": "ヤマグチケン",
    "prefecture_code": 35,
    "city": "周南市",
    "city_kana": "シュウナンシ",
    "town": "一ノ井手",
    "town_kana": "イチノイデ",
    "street": null,
    "office_name": null,
    "office_name_kana": null
  },
  "0883": {
    "postcode": "7450883",
    "prefecture": "山口県",
    "prefecture_kana": "ヤマグチケン",
    "prefecture_code": 35,
    "city": "周南市",
    "city_kana": "シュウナンシ",
    "town": "栄谷",
    "town_kana": "サカエダニ",
    "street": null,
    "office_name": null,
    "office_name_kana": null
  },
  "0884": {
    "postcode": "7450884",
    "prefecture": "山口県",
    "prefecture_kana": "ヤマグチケン",
    "prefecture_code": 35,
    "city": "周南市",
    "city_kana": "シュウナンシ",
    "town": "二ノ井手",
    "town_kana": "ニノイデ",
    "street": null,
    "office_name": null,
    "office_name_kana": null
  },
  "0885": {
    "postcode": "7450885",
    "prefecture": "山口県",
    "prefecture_kana": "ヤマグチケン",
    "prefecture_code": 35,
    "city": "周南市",
    "city_kana": "シュウナンシ",
    "town": "高尾団地",
    "town_kana": "タカオダンチ",
    "street": null,
    "office_name": null,
    "office_name_kana": null
  },
  "0886": {
    "postcode": "7450886",
    "prefecture": "山口県",
    "prefecture_kana": "ヤマグチケン",
    "prefecture_code": 35,
    "city": "周南市",
    "city_kana": "シュウナンシ",
    "town": "黒岩町",
    "town_kana": "クロイワチョウ",
    "street": null,
    "office_name": null,
    "office_name_kana": null
  },
  "0887": {
    "postcode": "7450887",
    "prefecture": "山口県",
    "prefecture_kana": "ヤマグチケン",
    "prefecture_code": 35,
    "city": "周南市",
    "city_kana": "シュウナンシ",
    "town": "馬屋",
    "town_kana": "ウマヤ",
    "street": null,
    "office_name": null,
    "office_name_kana": null
  },
  "1131": {
    "postcode": "7451131",
    "prefecture": "山口県",
    "prefecture_kana": "ヤマグチケン",
    "prefecture_code": 35,
    "city": "周南市",
    "city_kana": "シュウナンシ",
    "town": "戸田",
    "town_kana": "ヘタ",
    "street": null,
    "office_name": null,
    "office_name_kana": null
  },
  "1132": {
    "postcode": "7451132",
    "prefecture": "山口県",
    "prefecture_kana": "ヤマグチケン",
    "prefecture_code": 35,
    "city": "周南市",
    "city_kana": "シュウナンシ",
    "town": "湯野",
    "town_kana": "ユノ",
    "street": null,
    "office_name": null,
    "office_name_kana": null
  },
  "8510": {
    "postcode": "7458510",
    "prefecture": "山口県",
    "prefecture_kana": "ヤマグチケン",
    "prefecture_code": 35,
    "city": "周南市",
    "city_kana": "シュウナンシ",
    "town": "慶万町",
    "town_kana": "ケイマンチョウ",
    "street": "１０−１",
    "office_name": "オープンシステム総合病院　徳山医師会病院",
    "office_name_kana": "オ-プンシステムソウゴウビヨウイン トクヤマイシカイビヨウイン"
  },
  "8522": {
    "postcode": "7458522",
    "prefecture": "山口県",
    "prefecture_kana": "ヤマグチケン",
    "prefecture_code": 35,
    "city": "周南市",
    "city_kana": "シュウナンシ",
    "town": "孝田町",
    "town_kana": "コウダチョウ",
    "street": "１−１",
    "office_name": "総合病院社会保険　徳山中央病院",
    "office_name_kana": "ソウゴウビヨウインシヤカイホケン トクヤマチユウオウビヨウイン"
  },
  "8529": {
    "postcode": "7458529",
    "prefecture": "山口県",
    "prefecture_kana": "ヤマグチケン",
    "prefecture_code": 35,
    "city": "周南市",
    "city_kana": "シュウナンシ",
    "town": "速玉町",
    "town_kana": "ハヤタマチョウ",
    "street": "３−１７",
    "office_name": "周南市社会福祉協議会",
    "office_name_kana": "シユウナンシシヤカイフクシキヨウギカイ"
  },
  "8547": {
    "postcode": "7458547",
    "prefecture": "山口県",
    "prefecture_kana": "ヤマグチケン",
    "prefecture_code": 35,
    "city": "周南市",
    "city_kana": "シュウナンシ",
    "town": "松保町",
    "town_kana": "マツホチョウ",
    "street": "７−９",
    "office_name": "防長交通　株式会社",
    "office_name_kana": "ボウチヨウコウツウ カブシキガイシヤ"
  },
  "8566": {
    "postcode": "7458566",
    "prefecture": "山口県",
    "prefecture_kana": "ヤマグチケン",
    "prefecture_code": 35,
    "city": "周南市",
    "city_kana": "シュウナンシ",
    "town": "学園台",
    "town_kana": null,
    "street": "８４３−４−２",
    "office_name": "周南公立大学",
    "office_name_kana": "シユウナンコウリツダイガク"
  },
  "8567": {
    "postcode": "7458567",
    "prefecture": "山口県",
    "prefecture_kana": "ヤマグチケン",
    "prefecture_code": 35,
    "city": "周南市",
    "city_kana": "シュウナンシ",
    "town": "銀座",
    "town_kana": "ギンザ",
    "street": "２丁目１４",
    "office_name": "株式会社　近鉄松下百貨店",
    "office_name_kana": "カブシキガイシヤ キンテツマツシタヒヤツカテン"
  },
  "8585": {
    "postcode": "7458585",
    "prefecture": "山口県",
    "prefecture_kana": "ヤマグチケン",
    "prefecture_code": 35,
    "city": "周南市",
    "city_kana": "シュウナンシ",
    "town": "大字久米",
    "town_kana": null,
    "street": "高城３５３８",
    "office_name": "徳山工業高等専門学校",
    "office_name_kana": "トクヤマコウギヨウコウトウセンモンガツコウ"
  },
  "8601": {
    "postcode": "7458601",
    "prefecture": "山口県",
    "prefecture_kana": "ヤマグチケン",
    "prefecture_code": 35,
    "city": "周南市",
    "city_kana": "シュウナンシ",
    "town": "平和通",
    "town_kana": null,
    "street": "１丁目１０−２",
    "office_name": "株式会社　西京銀行",
    "office_name_kana": "カブシキガイシヤ サイキヨウギンコウ"
  },
  "8611": {
    "postcode": "7458611",
    "prefecture": "山口県",
    "prefecture_kana": "ヤマグチケン",
    "prefecture_code": 35,
    "city": "周南市",
    "city_kana": "シュウナンシ",
    "town": "みなみ銀座",
    "town_kana": "ミナミギンザ",
    "street": "１丁目１（徳山郵便局私書箱第１１１号）",
    "office_name": "大和証券　株式会社　徳山支店",
    "office_name_kana": "ダイワシヨウケン カブシキガイシヤ トクヤマシテン"
  },
  "8613": {
    "postcode": "7458613",
    "prefecture": "山口県",
    "prefecture_kana": "ヤマグチケン",
    "prefecture_code": 35,
    "city": "周南市",
    "city_kana": "シュウナンシ",
    "town": "新宮町",
    "town_kana": "シングウチョウ",
    "street": "１−１（徳山郵便局私書箱第３０号）",
    "office_name": "出光興産　株式会社　徳山製油所",
    "office_name_kana": "イデミツコウサン カブシキガイシヤ トクヤマセイユシヨ"
  },
  "8622": {
    "postcode": "7458622",
    "prefecture": "山口県",
    "prefecture_kana": "ヤマグチケン",
    "prefecture_code": 35,
    "city": "周南市",
    "city_kana": "シュウナンシ",
    "town": "今宿町",
    "town_kana": "イマジュクチョウ",
    "street": "２丁目３５（徳山郵便局私書箱第２３号）",
    "office_name": "徳山　税務署",
    "office_name_kana": "トクヤマ ゼイムシヨ"
  },
  "8648": {
    "postcode": "7458648",
    "prefecture": "山口県",
    "prefecture_kana": "ヤマグチケン",
    "prefecture_code": 35,
    "city": "周南市",
    "city_kana": "シュウナンシ",
    "town": "御影町",
    "town_kana": "ミカゲチョウ",
    "street": "１−１（徳山郵便局私書箱第８３号）",
    "office_name": "株式会社　トクヤマ",
    "office_name_kana": "カブシキガイシヤ トクヤマ"
  },
  "8655": {
    "postcode": "7458655",
    "prefecture": "山口県",
    "prefecture_kana": "ヤマグチケン",
    "prefecture_code": 35,
    "city": "周南市",
    "city_kana": "シュウナンシ",
    "town": "岐山通",
    "town_kana": null,
    "street": "１丁目１",
    "office_name": "周南市役所",
    "office_name_kana": "シユウナンシヤクシヨ"
  },
  "8656": {
    "postcode": "7458656",
    "prefecture": "山口県",
    "prefecture_kana": "ヤマグチケン",
    "prefecture_code": 35,
    "city": "周南市",
    "city_kana": "シュウナンシ",
    "town": "御幸通",
    "town_kana": null,
    "street": "１丁目１０（徳山郵便局私書箱第５６号）",
    "office_name": "商工組合中央金庫　徳山支店",
    "office_name_kana": "シヨウコウクミアイチユウオウキンコ トクヤマシテン"
  },
  "8666": {
    "postcode": "7458666",
    "prefecture": "山口県",
    "prefecture_kana": "ヤマグチケン",
    "prefecture_code": 35,
    "city": "周南市",
    "city_kana": "シュウナンシ",
    "town": "新宿通",
    "town_kana": "シンジュクドオリ",
    "street": "５丁目１−８（徳山郵便局私書箱第７８号）",
    "office_name": "徳山社会保険事務所",
    "office_name_kana": "トクヤマシヤカイホケンジムシヨ"
  },
  "8686": {
    "postcode": "7458686",
    "prefecture": "山口県",
    "prefecture_kana": "ヤマグチケン",
    "prefecture_code": 35,
    "city": "周南市",
    "city_kana": "シュウナンシ",
    "town": "大字徳山",
    "town_kana": null,
    "street": "字公園区（徳山郵便局私書箱第３７号）",
    "office_name": "山口放送　株式会社",
    "office_name_kana": "ヤマグチホウソウ カブシキガイシヤ"
  }
}