{
  "0000": {
    "postcode": "7500000",
    "prefecture": "山口県",
    "prefecture_kana": "ヤマグチケン",
    "prefecture_code": 35,
    "city": "下関市",
    "city_kana": "シモノセキシ",
    "town": "",
    "town_kana": "",
    "street": null,
    "office_name": null,
    "office_name_kana": null
  },
  "0001": {
    "postcode": "7500001",
    "prefecture": "山口県",
    "prefecture_kana": "ヤマグチケン",
    "prefecture_code": 35,
    "city": "下関市",
    "city_kana": "シモノセキシ",
    "town": "幸町",
    "town_kana": "サイワイマチ",
    "street": null,
    "office_name": null,
    "office_name_kana": null
  },
  "0002": {
    "postcode": "7500002",
    "prefecture": "山口県",
    "prefecture_kana": "ヤマグチケン",
    "prefecture_code": 35,
    "city": "下関市",
    "city_kana": "シモノセキシ",
    "town": "宮田町",
    "town_kana": "ミヤダマチ",
    "street": null,
    "office_name": null,
    "office_name_kana": null
  },
  "0003": {
    "postcode": "7500003",
    "prefecture": "山口県",
    "prefecture_kana": "ヤマグチケン",
    "prefecture_code": 35,
    "city": "下関市",
    "city_kana": "シモノセキシ",
    "town": "阿弥陀寺町",
    "town_kana": "アミダイジチョウ",
    "street": null,
    "office_name": null,
    "office_name_kana": null
  },
  "0004": {
    "postcode": "7500004",
    "prefecture": "山口県",
    "prefecture_kana": "ヤマグチケン",
    "prefecture_code": 35,
    "city": "下関市",
    "city_kana": "シモノセキシ",
    "town": "中之町",
    "town_kana": "ナカノチョウ",
    "street": null,
    "office_name": null,
    "office_name_kana": null
  },
  "0005": {
    "postcode": "7500005",
    "prefecture": "山口県",
    "prefecture_kana": "ヤマグチケン",
    "prefecture_code": 35,
    "city": "下関市",
    "city_kana": "シモノセキシ",
    "town": "唐戸町",
    "town_kana": "カラトチョウ",
    "street": null,
    "office_name": null,
    "office_name_kana": null
  },
  "0006": {
    "postcode": "7500006",
    "prefecture": "山口県",
    "prefecture_kana": "ヤマグチケン",
    "prefecture_code": 35,
    "city": "下関市",
    "city_kana": "シモノセキシ",
    "town": "南部町",
    "town_kana": "ナベチョウ",
    "street": null,
    "office_name": null,
    "office_name_kana": null
  },
  "0007": {
    "postcode": "7500007",
    "prefecture": "山口県",
    "prefecture_kana": "ヤマグチケン",
    "prefecture_code": 35,
    "city": "下関市",
    "city_kana": "シモノセキシ",
    "town": "赤間町",
    "town_kana": "アカマチョウ",
    "street": null,
    "office_name": null,
    "office_name_kana": null
  },
  "0008": {
    "postcode": "7500008",
    "prefecture": "山口県",
    "prefecture_kana": "ヤマグチケン",
    "prefecture_code": 35,
    "city": "下関市",
    "city_kana": "シモノセキシ",
    "town": "田中町",
    "town_kana": "タナカマチ",
    "street": null,
    "office_name": null,
    "office_name_kana": null
  },
  "0009": {
    "postcode": "7500009",
    "prefecture": "山口県",
    "prefecture_kana": "ヤマグチケン",
    "prefecture_code": 35,
    "city": "下関市",
    "city_kana": "シモノセキシ",
    "town": "上田中町",
    "town_kana": "カミタナカマチ",
    "street": null,
    "office_name": null,
    "office_name_kana": null
  },
  "0011": {
    "postcode": "7500011",
    "prefecture": "山口県",
    "prefecture_kana": "ヤマグチケン",
    "prefecture_code": 35,
    "city": "下関市",
    "city_kana": "シモノセキシ",
    "town": "名池町",
    "town_kana": "メイチチョウ",
    "street": null,
    "office_name": null,
    "office_name_kana": null
  },
  "0012": {
    "postcode": "7500012",
    "prefecture": "山口県",
    "prefecture_kana": "ヤマグチケン",
    "prefecture_code": 35,
    "city": "下関市",
    "city_kana": "シモノセキシ",
    "town": "観音崎町",
    "town_kana": "カンノンザキチョウ",
    "street": null,
    "office_name": null,
    "office_name_kana": null
  },
  "0013": {
    "postcode": "7500013",
    "prefecture": "山口県",
    "prefecture_kana": "ヤマグチケン",
    "prefecture_code": 35,
    "city": "下関市",
    "city_kana": "シモノセキシ",
    "town": "入江町",
    "town_kana": "イリエチョウ",
    "street": null,
    "office_name": null,
    "office_name_kana": null
  },
  "0014": {
    "postcode": "7500014",
    "prefecture": "山口県",
    "prefecture_kana": "ヤマグチケン",
    "prefecture_code": 35,
    "city": "下関市",
    "city_kana": "シモノセキシ",
    "town": "岬之町",
    "town_kana": "ハナノチョウ",
    "street": null,
    "office_name": null,
    "office_name_kana": null
  },
  "0015": {
    "postcode": "7500015",
    "prefecture": "山口県",
    "prefecture_kana": "ヤマグチケン",
    "prefecture_code": 35,
    "city": "下関市",
    "city_kana": "シモノセキシ",
    "town": "西入江町",
    "town_kana": "ニシイリエチョウ",
    "street": null,
    "office_name": null,
    "office_name_kana": null
  },
  "0016": {
    "postcode": "7500016",
    "prefecture": "山口県",
    "prefecture_kana": "ヤマグチケン",
    "prefecture_code": 35,
    "city": "下関市",
    "city_kana": "シモノセキシ",
    "town": "細江町",
    "town_kana": "ホソエチョウ",
    "street": null,
    "office_name": null,
    "office_name_kana": null
  },
  "0017": {
    "postcode": "7500017",
    "prefecture": "山口県",
    "prefecture_kana": "ヤマグチケン",
    "prefecture_code": 35,
    "city": "下関市",
    "city_kana": "シモノセキシ",
    "town": "細江新町",
    "town_kana": "ホソエシンマチ",
    "street": null,
    "office_name": null,
    "office_name_kana": null
  },
  "0018": {
    "postcode": "7500018",
    "prefecture": "山口県",
    "prefecture_kana": "ヤマグチケン",
    "prefecture_code": 35,
    "city": "下関市",
    "city_kana": "シモノセキシ",
    "town": "豊前田町",
    "town_kana": "ブゼンダチョウ",
    "street": null,
    "office_name": null,
    "office_name_kana": null
  },
  "0019": {
    "postcode": "7500019",
    "prefecture": "山口県",
    "prefecture_kana": "ヤマグチケン",
    "prefecture_code": 35,
    "city": "下関市",
    "city_kana": "シモノセキシ",
    "town": "丸山町",
    "town_kana": "マルヤマチョウ",
    "street": null,
    "office_name": null,
    "office_name_kana": null
  },
  "0021": {
    "postcode": "7500021",
    "prefecture": "山口県",
    "prefecture_kana": "ヤマグチケン",
    "prefecture_code": 35,
    "city": "下関市",
    "city_kana": "シモノセキシ",
    "town": "長崎中央町",
    "town_kana": "ナガサキチュウオウチョウ",
    "street": null,
    "office_name": null,
    "office_name_kana": null
  },
  "0022": {
    "postcode": "7500022",
    "prefecture": "山口県",
    "prefecture_kana": "ヤマグチケン",
    "prefecture_code": 35,
    "city": "下関市",
    "city_kana": "シモノセキシ",
    "town": "関西本町",
    "town_kana": "カンセイホンマチ",
    "street": null,
    "office_name": null,
    "office_name_kana": null
  },
  "0023": {
    "postcode": "7500023",
    "prefecture": "山口県",
    "prefecture_kana": "ヤマグチケン",
    "prefecture_code": 35,
    "city": "下関市",
    "city_kana": "シモノセキシ",
    "town": "長崎新町",
    "town_kana": "ナガサキシンマチ",
    "street": null,
    "office_name": null,
    "office_name_kana": null
  },
  "0024": {
    "postcode": "7500024",
    "prefecture": "山口県",
    "prefecture_kana": "ヤマグチケン",
    "prefecture_code": 35,
    "city": "下関市",
    "city_kana": "シモノセキシ",
    "town": "笹山町",
    "town_kana": "ササヤマチョウ",
    "street": null,
    "office_name": null,
    "office_name_kana": null
  },
  "0025": {
    "postcode": "7500025",
    "prefecture": "山口県",
    "prefecture_kana": "ヤマグチケン",
    "prefecture_code": 35,
    "city": "下関市",
    "city_kana": "シモノセキシ",
    "town": "竹崎町",
    "town_kana": "タケザキチョウ",
    "street": null,
    "office_name": null,
    "office_name_kana": null
  },
  "0026": {
    "postcode": "7500026",
    "prefecture": "山口県",
    "prefecture_kana": "ヤマグチケン",
    "prefecture_code": 35,
    "city": "下関市",
    "city_kana": "シモノセキシ",
    "town": "長門町",
    "town_kana": "ナガトマチ",
    "street": null,
    "office_name": null,
    "office_name_kana": null
  },
  "0027": {
    "postcode": "7500027",
    "prefecture": "山口県",
    "prefecture_kana": "ヤマグチケン",
    "prefecture_code": 35,
    "city": "下関市",
    "city_kana": "シモノセキシ",
    "town": "上条町",
    "town_kana": "ウエジョウチョウ",
    "street": null,
    "office_name": null,
    "office_name_kana": null
  },
  "0028": {
    "postcode": "7500028",
    "prefecture": "山口県",
    "prefecture_kana": "ヤマグチケン",
    "prefecture_code": 35,
    "city": "下関市",
    "city_kana": "シモノセキシ",
    "town": "長崎本町",
    "town_kana": "ナガサキホンマチ",
    "street": null,
    "office_name": null,
    "office_name_kana": null
  },
  "0029": {
    "postcode": "7500029",
    "prefecture": "山口県",
    "prefecture_kana": "ヤマグチケン",
    "prefecture_code": 35,
    "city": "下関市",
    "city_kana": "シモノセキシ",
    "town": "長崎町",
    "town_kana": "ナガサキチョウ",
    "street": null,
    "office_name": null,
    "office_name_kana": null
  },
  "0031": {
    "postcode": "7500031",
    "prefecture": "山口県",
    "prefecture_kana": "ヤマグチケン",
    "prefecture_code": 35,
    "city": "下関市",
    "city_kana": "シモノセキシ",
    "town": "春日町",
    "town_kana": "カスガチョウ",
    "street": null,
    "office_name": null,
    "office_name_kana": null
  },
  "0032": {
    "postcode": "7500032",
    "prefecture": "山口県",
    "prefecture_kana": "ヤマグチケン",
    "prefecture_code": 35,
    "city": "下関市",
    "city_kana": "シモノセキシ",
    "town": "関西町",
    "town_kana": "カンセイチョウ",
    "street": null,
    "office_name": null,
    "office_name_kana": null
  },
  "0033": {
    "postcode": "7500033",
    "prefecture": "山口県",
    "prefecture_kana": "ヤマグチケン",
    "prefecture_code": 35,
    "city": "下関市",
    "city_kana": "シモノセキシ",
    "town": "山手町",
    "town_kana": "ヤマテチョウ",
    "street": null,
    "office_name": null,
    "office_name_kana": null
  },
  "0034": {
    "postcode": "7500034",
    "prefecture": "山口県",
    "prefecture_kana": "ヤマグチケン",
    "prefecture_code": 35,
    "city": "下関市",
    "city_kana": "シモノセキシ",
    "town": "西神田町",
    "town_kana": "ニシカンダチョウ",
    "street": null,
    "office_name": null,
    "office_name_kana": null
  },
  "0035": {
    "postcode": "7500035",
    "prefecture": "山口県",
    "prefecture_kana": "ヤマグチケン",
    "prefecture_code": 35,
    "city": "下関市",
    "city_kana": "シモノセキシ",
    "town": "桜山町",
    "town_kana": "サクラヤマチョウ",
    "street": null,
    "office_name": null,
    "office_name_kana": null
  },
  "0036": {
    "postcode": "7500036",
    "prefecture": "山口県",
    "prefecture_kana": "ヤマグチケン",
    "prefecture_code": 35,
    "city": "下関市",
    "city_kana": "シモノセキシ",
    "town": "あるかぽーと",
    "town_kana": "アルカポート",
    "street": null,
    "office_name": null,
    "office_name_kana": null
  },
  "0041": {
    "postcode": "7500041",
    "prefecture": "山口県",
    "prefecture_kana": "ヤマグチケン",
    "prefecture_code": 35,
    "city": "下関市",
    "city_kana": "シモノセキシ",
    "town": "向洋町",
    "town_kana": "コウヨウチョウ",
    "street": null,
    "office_name": null,
    "office_name_kana": null
  },
  "0042": {
    "postcode": "7500042",
    "prefecture": "山口県",
    "prefecture_kana": "ヤマグチケン",
    "prefecture_code": 35,
    "city": "下関市",
    "city_kana": "シモノセキシ",
    "town": "中央町",
    "town_kana": "チュウオウチョウ",
    "street": null,
    "office_name": null,
    "office_name_kana": null
  },
  "0043": {
    "postcode": "7500043",
    "prefecture": "山口県",
    "prefecture_kana": "ヤマグチケン",
    "prefecture_code": 35,
    "city": "下関市",
    "city_kana": "シモノセキシ",
    "town": "東神田町",
    "town_kana": "ヒガシカンダチョウ",
    "street": null,
    "office_name": null,
    "office_name_kana": null
  },
  "0044": {
    "postcode": "7500044",
    "prefecture": "山口県",
    "prefecture_kana": "ヤマグチケン",
    "prefecture_code": 35,
    "city": "下関市",
    "city_kana": "シモノセキシ",
    "town": "神田町",
    "town_kana": "カンダチョウ",
    "street": null,
    "office_name": null,
    "office_name_kana": null
  },
  "0045": {
    "postcode": "7500045",
    "prefecture": "山口県",
    "prefecture_kana": "ヤマグチケン",
    "prefecture_code": 35,
    "city": "下関市",
    "city_kana": "シモノセキシ",
    "town": "元町",
    "town_kana": "モトマチ",
    "street": null,
    "office_name": null,
    "office_name_kana": null
  },
  "0046": {
    "postcode": "7500046",
    "prefecture": "山口県",
    "prefecture_kana": "ヤマグチケン",
    "prefecture_code": 35,
    "city": "下関市",
    "city_kana": "シモノセキシ",
    "town": "羽山町",
    "town_kana": "ハヤマチョウ",
    "street": null,
    "office_name": null,
    "office_name_kana": null
  },
  "0047": {
    "postcode": "7500047",
    "prefecture": "山口県",
    "prefecture_kana": "ヤマグチケン",
    "prefecture_code": 35,
    "city": "下関市",
    "city_kana": "シモノセキシ",
    "town": "向山町",
    "town_kana": "ムカイヤマチョウ",
    "street": null,
    "office_name": null,
    "office_name_kana": null
  },
  "0048": {
    "postcode": "7500048",
    "prefecture": "山口県",
    "prefecture_kana": "ヤマグチケン",
    "prefecture_code": 35,
    "city": "下関市",
    "city_kana": "シモノセキシ",
    "town": "東向山町",
    "town_kana": "ヒガシムカイヤマチョウ",
    "street": null,
    "office_name": null,
    "office_name_kana": null
  },
  "0049": {
    "postcode": "7500049",
    "prefecture": "山口県",
    "prefecture_kana": "ヤマグチケン",
    "prefecture_code": 35,
    "city": "下関市",
    "city_kana": "シモノセキシ",
    "town": "栄町",
    "town_kana": "サカエマチ",
    "street": null,
    "office_name": null,
    "office_name_kana": null
  },
  "0051": {
    "postcode": "7500051",
    "prefecture": "山口県",
    "prefecture_kana": "ヤマグチケン",
    "prefecture_code": 35,
    "city": "下関市",
    "city_kana": "シモノセキシ",
    "town": "大坪本町",
    "town_kana": "オオツボホンマチ",
    "street": null,
    "office_name": null,
    "office_name_kana": null
  },
  "0052": {
    "postcode": "7500052",
    "prefecture": "山口県",
    "prefecture_kana": "ヤマグチケン",
    "prefecture_code": 35,
    "city": "下関市",
    "city_kana": "シモノセキシ",
    "town": "藤附町",
    "town_kana": "フジツクチョウ",
    "street": null,
    "office_name": null,
    "office_name_kana": null
  },
  "0053": {
    "postcode": "7500053",
    "prefecture": "山口県",
    "prefecture_kana": "ヤマグチケン",
    "prefecture_code": 35,
    "city": "下関市",
    "city_kana": "シモノセキシ",
    "town": "大平町",
    "town_kana": "タイヘイチョウ",
    "street": null,
    "office_name": null,
    "office_name_kana": null
  },
  "0054": {
    "postcode": "7500054",
    "prefecture": "山口県",
    "prefecture_kana": "ヤマグチケン",
    "prefecture_code": 35,
    "city": "下関市",
    "city_kana": "シモノセキシ",
    "town": "西大坪町",
    "town_kana": "ニシオオツボチョウ",
    "street": null,
    "office_name": null,
    "office_name_kana": null
  },
  "0055": {
    "postcode": "7500055",
    "prefecture": "山口県",
    "prefecture_kana": "ヤマグチケン",
    "prefecture_code": 35,
    "city": "下関市",
    "city_kana": "シモノセキシ",
    "town": "南大坪町",
    "town_kana": "ミナミオオツボチョウ",
    "street": null,
    "office_name": null,
    "office_name_kana": null
  },
  "0056": {
    "postcode": "7500056",
    "prefecture": "山口県",
    "prefecture_kana": "ヤマグチケン",
    "prefecture_code": 35,
    "city": "下関市",
    "city_kana": "シモノセキシ",
    "town": "筋ケ浜町",
    "town_kana": "スジガハマチョウ",
    "street": null,
    "office_name": null,
    "office_name_kana": null
  },
  "0057": {
    "postcode": "7500057",
    "prefecture": "山口県",
    "prefecture_kana": "ヤマグチケン",
    "prefecture_code": 35,
    "city": "下関市",
    "city_kana": "シモノセキシ",
    "town": "筋川町",
    "town_kana": "スジカワチョウ",
    "street": null,
    "office_name": null,
    "office_name_kana": null
  },
  "0058": {
    "postcode": "7500058",
    "prefecture": "山口県",
    "prefecture_kana": "ヤマグチケン",
    "prefecture_code": 35,
    "city": "下関市",
    "city_kana": "シモノセキシ",
    "town": "金比羅町",
    "town_kana": "コンピラチョウ",
    "street": null,
    "office_name": null,
    "office_name_kana": null
  },
  "0059": {
    "postcode": "7500059",
    "prefecture": "山口県",
    "prefecture_kana": "ヤマグチケン",
    "prefecture_code": 35,
    "city": "下関市",
    "city_kana": "シモノセキシ",
    "town": "汐入町",
    "town_kana": "シオイリチョウ",
    "street": null,
    "office_name": null,
    "office_name_kana": null
  },
  "0061": {
    "postcode": "7500061",
    "prefecture": "山口県",
    "prefecture_kana": "ヤマグチケン",
    "prefecture_code": 35,
    "city": "下関市",
    "city_kana": "シモノセキシ",
    "town": "上新地町",
    "town_kana": "カミシンチチョウ",
    "street": null,
    "office_name": null,
    "office_name_kana": null
  },
  "0062": {
    "postcode": "7500062",
    "prefecture": "山口県",
    "prefecture_kana": "ヤマグチケン",
    "prefecture_code": 35,
    "city": "下関市",
    "city_kana": "シモノセキシ",
    "town": "新地西町",
    "town_kana": "シンチニシマチ",
    "street": null,
    "office_name": null,
    "office_name_kana": null
  },
  "0063": {
    "postcode": "7500063",
    "prefecture": "山口県",
    "prefecture_kana": "ヤマグチケン",
    "prefecture_code": 35,
    "city": "下関市",
    "city_kana": "シモノセキシ",
    "town": "新地町",
    "town_kana": "シンチチョウ",
    "street": null,
    "office_name": null,
    "office_name_kana": null
  },
  "0064": {
    "postcode": "7500064",
    "prefecture": "山口県",
    "prefecture_kana": "ヤマグチケン",
    "prefecture_code": 35,
    "city": "下関市",
    "city_kana": "シモノセキシ",
    "town": "今浦町",
    "town_kana": "イマウラチョウ",
    "street": null,
    "office_name": null,
    "office_name_kana": null
  },
  "0065": {
    "postcode": "7500065",
    "prefecture": "山口県",
    "prefecture_kana": "ヤマグチケン",
    "prefecture_code": 35,
    "city": "下関市",
    "city_kana": "シモノセキシ",
    "town": "伊崎町",
    "town_kana": "イザキチョウ",
    "street": null,
    "office_name": null,
    "office_name_kana": null
  },
  "0066": {
    "postcode": "7500066",
    "prefecture": "山口県",
    "prefecture_kana": "ヤマグチケン",
    "prefecture_code": 35,
    "city": "下関市",
    "city_kana": "シモノセキシ",
    "town": "東大和町",
    "town_kana": "ヒガシヤマトマチ",
    "street": null,
    "office_name": null,
    "office_name_kana": null
  },
  "0067": {
    "postcode": "7500067",
    "prefecture": "山口県",
    "prefecture_kana": "ヤマグチケン",
    "prefecture_code": 35,
    "city": "下関市",
    "city_kana": "シモノセキシ",
    "town": "大和町",
    "town_kana": "ヤマトマチ",
    "street": null,
    "office_name": null,
    "office_name_kana": null
  },
  "0071": {
    "postcode": "7500071",
    "prefecture": "山口県",
    "prefecture_kana": "ヤマグチケン",
    "prefecture_code": 35,
    "city": "下関市",
    "city_kana": "シモノセキシ",
    "town": "彦島海士郷町",
    "town_kana": "ヒコシマアマノゴウチョウ",
    "street": null,
    "office_name": null,
    "office_name_kana": null
  },
  "0072": {
    "postcode": "7500072",
    "prefecture": "山口県",
    "prefecture_kana": "ヤマグチケン",
    "prefecture_code": 35,
    "city": "下関市",
    "city_kana": "シモノセキシ",
    "town": "彦島老町",
    "town_kana": "ヒコシマオイマチ",
    "street": null,
    "office_name": null,
    "office_name_kana": null
  },
  "0073": {
    "postcode": "7500073",
    "prefecture": "山口県",
    "prefecture_kana": "ヤマグチケン",
    "prefecture_code": 35,
    "city": "下関市",
    "city_kana": "シモノセキシ",
    "town": "彦島老の山公園",
    "town_kana": "ヒコシマオイノヤマコウエン",
    "street": null,
    "office_name": null,
    "office_name_kana": null
  },
  "0074": {
    "postcode": "7500074",
    "prefecture": "山口県",
    "prefecture_kana": "ヤマグチケン",
    "prefecture_code": 35,
    "city": "下関市",
    "city_kana": "シモノセキシ",
    "town": "彦島本村町",
    "town_kana": "ヒコシマホンムラチョウ",
    "street": null,
    "office_name": null,
    "office_name_kana": null
  },
  "0075": {
    "postcode": "7500075",
    "prefecture": "山口県",
    "prefecture_kana": "ヤマグチケン",
    "prefecture_code": 35,
    "city": "下関市",
    "city_kana": "シモノセキシ",
    "town": "彦島江の浦町",
    "town_kana": "ヒコシマエノウラチョウ",
    "street": null,
    "office_name": null,
    "office_name_kana": null
  },
  "0076": {
    "postcode": "7500076",
    "prefecture": "山口県",
    "prefecture_kana": "ヤマグチケン",
    "prefecture_code": 35,
    "city": "下関市",
    "city_kana": "シモノセキシ",
    "town": "彦島弟子待町",
    "town_kana": "ヒコシマデシマツチョウ",
    "street": null,
    "office_name": null,
    "office_name_kana": null
  },
  "0077": {
    "postcode": "7500077",
    "prefecture": "山口県",
    "prefecture_kana": "ヤマグチケン",
    "prefecture_code": 35,
    "city": "下関市",
    "city_kana": "シモノセキシ",
    "town": "彦島弟子待東町",
    "town_kana": "ヒコシマデシマツヒガシマチ",
    "street": null,
    "office_name": null,
    "office_name_kana": null
  },
  "0078": {
    "postcode": "7500078",
    "prefecture": "山口県",
    "prefecture_kana": "ヤマグチケン",
    "prefecture_code": 35,
    "city": "下関市",
    "city_kana": "シモノセキシ",
    "town": "彦島杉田町",
    "town_kana": "ヒコシマスギタチョウ",
    "street": null,
    "office_name": null,
    "office_name_kana": null
  },
  "0081": {
    "postcode": "7500081",
    "prefecture": "山口県",
    "prefecture_kana": "ヤマグチケン",
    "prefecture_code": 35,
    "city": "下関市",
    "city_kana": "シモノセキシ",
    "town": "彦島角倉町",
    "town_kana": "ヒコシマスマクラチョウ",
    "street": null,
    "office_name": null,
    "office_name_kana": null
  },
  "0082": {
    "postcode": "7500082",
    "prefecture": "山口県",
    "prefecture_kana": "ヤマグチケン",
    "prefecture_code": 35,
    "city": "下関市",
    "city_kana": "シモノセキシ",
    "town": "彦島山中町",
    "town_kana": "ヒコシマヤマナカチョウ",
    "street": null,
    "office_name": null,
    "office_name_kana": null
  },
  "0083": {
    "postcode": "7500083",
    "prefecture": "山口県",
    "prefecture_kana": "ヤマグチケン",
    "prefecture_code": 35,
    "city": "下関市",
    "city_kana": "シモノセキシ",
    "town": "彦島桜ケ丘町",
    "town_kana": "ヒコシマサクラガオカチョウ",
    "street": null,
    "office_name": null,
    "office_name_kana": null
  },
  "0084": {
    "postcode": "7500084",
    "prefecture": "山口県",
    "prefecture_kana": "ヤマグチケン",
    "prefecture_code": 35,
    "city": "下関市",
    "city_kana": "シモノセキシ",
    "town": "彦島向井町",
    "town_kana": "ヒコシマムカイチョウ",
    "street": null,
    "office_name": null,
    "office_name_kana": null
  },
  "0085": {
    "postcode": "7500085",
    "prefecture": "山口県",
    "prefecture_kana": "ヤマグチケン",
    "prefecture_code": 35,
    "city": "下関市",
    "city_kana": "シモノセキシ",
    "town": "彦島田の首町",
    "town_kana": "ヒコシマタノクビチョウ",
    "street": null,
    "office_name": null,
    "office_name_kana": null
  },
  "0086": {
    "postcode": "7500086",
    "prefecture": "山口県",
    "prefecture_kana": "ヤマグチケン",
    "prefecture_code": 35,
    "city": "下関市",
    "city_kana": "シモノセキシ",
    "town": "彦島塩浜町",
    "town_kana": "ヒコシマシオハマチョウ",
    "street": null,
    "office_name": null,
    "office_name_kana": null
  },
  "0087": {
    "postcode": "7500087",
    "prefecture": "山口県",
    "prefecture_kana": "ヤマグチケン",
    "prefecture_code": 35,
    "city": "下関市",
    "city_kana": "シモノセキシ",
    "town": "彦島福浦町",
    "town_kana": "ヒコシマフクウラチョウ",
    "street": null,
    "office_name": null,
    "office_name_kana": null
  },
  "0091": {
    "postcode": "7500091",
    "prefecture": "山口県",
    "prefecture_kana": "ヤマグチケン",
    "prefecture_code": 35,
    "city": "下関市",
    "city_kana": "シモノセキシ",
    "town": "彦島緑町",
    "town_kana": "ヒコシマミドリチョウ",
    "street": null,
    "office_name": null,
    "office_name_kana": null
  },
  "0092": {
    "postcode": "7500092",
    "prefecture": "山口県",
    "prefecture_kana": "ヤマグチケン",
    "prefecture_code": 35,
    "city": "下関市",
    "city_kana": "シモノセキシ",
    "town": "彦島迫町",
    "town_kana": "ヒコシマサコマチ",
    "street": null,
    "office_name": null,
    "office_name_kana": null
  },
  "0093": {
    "postcode": "7500093",
    "prefecture": "山口県",
    "prefecture_kana": "ヤマグチケン",
    "prefecture_code": 35,
    "city": "下関市",
    "city_kana": "シモノセキシ",
    "town": "彦島西山町",
    "town_kana": "ヒコシマニシヤマチョウ",
    "street": null,
    "office_name": null,
    "office_name_kana": null
  },
  "0094": {
    "postcode": "7500094",
    "prefecture": "山口県",
    "prefecture_kana": "ヤマグチケン",
    "prefecture_code": 35,
    "city": "下関市",
    "city_kana": "シモノセキシ",
    "town": "彦島竹ノ子島町",
    "town_kana": "ヒコシマタケノコジマチョウ",
    "street": null,
    "office_name": null,
    "office_name_kana": null
  },
  "0095": {
    "postcode": "7500095",
    "prefecture": "山口県",
    "prefecture_kana": "ヤマグチケン",
    "prefecture_code": 35,
    "city": "下関市",
    "city_kana": "シモノセキシ",
    "town": "六連島",
    "town_kana": "ムツレジマ",
    "street": null,
    "office_name": null,
    "office_name_kana": null
  },
  "0251": {
    "postcode": "7500251",
    "prefecture": "山口県",
    "prefecture_kana": "ヤマグチケン",
    "prefecture_code": 35,
    "city": "下関市",
    "city_kana": "シモノセキシ",
    "town": "植田",
    "town_kana": "ウエダ",
    "street": null,
    "office_name": null,
    "office_name_kana": null
  },
  "0252": {
    "postcode": "7500252",
    "prefecture": "山口県",
    "prefecture_kana": "ヤマグチケン",
    "prefecture_code": 35,
    "city": "下関市",
    "city_kana": "シモノセキシ",
    "town": "内日上",
    "town_kana": "ウツイカミ",
    "street": null,
    "office_name": null,
    "office_name_kana": null
  },
  "0253": {
    "postcode": "7500253",
    "prefecture": "山口県",
    "prefecture_kana": "ヤマグチケン",
    "prefecture_code": 35,
    "city": "下関市",
    "city_kana": "シモノセキシ",
    "town": "内日下",
    "town_kana": "ウツイシモ",
    "street": null,
    "office_name": null,
    "office_name_kana": null
  },
  "0301": {
    "postcode": "7500301",
    "prefecture": "山口県",
    "prefecture_kana": "ヤマグチケン",
    "prefecture_code": 35,
    "city": "下関市",
    "city_kana": "シモノセキシ",
    "town": "菊川町西中山",
    "town_kana": "キクガワチョウニシナカヤマ",
    "street": null,
    "office_name": null,
    "office_name_kana": null
  },
  "0302": {
    "postcode": "7500302",
    "prefecture": "山口県",
    "prefecture_kana": "ヤマグチケン",
    "prefecture_code": 35,
    "city": "下関市",
    "city_kana": "シモノセキシ",
    "town": "菊川町東中山",
    "town_kana": "キクガワチョウヒガシナカヤマ",
    "street": null,
    "office_name": null,
    "office_name_kana": null
  },
  "0303": {
    "postcode": "7500303",
    "prefecture": "山口県",
    "prefecture_kana": "ヤマグチケン",
    "prefecture_code": 35,
    "city": "下関市",
    "city_kana": "シモノセキシ",
    "town": "菊川町樅ノ木",
    "town_kana": "キクガワチョウモミノキ",
    "street": null,
    "office_name": null,
    "office_name_kana": null
  },
  "0304": {
    "postcode": "7500304",
    "prefecture": "山口県",
    "prefecture_kana": "ヤマグチケン",
    "prefecture_code": 35,
    "city": "下関市",
    "city_kana": "シモノセキシ",
    "town": "菊川町道市",
    "town_kana": "キクガワチョウミチイチ",
    "street": null,
    "office_name": null,
    "office_name_kana": null
  },
  "0305": {
    "postcode": "7500305",
    "prefecture": "山口県",
    "prefecture_kana": "ヤマグチケン",
    "prefecture_code": 35,
    "city": "下関市",
    "city_kana": "シモノセキシ",
    "town": "菊川町轡井",
    "town_kana": "キクガワチョウクツワイ",
    "street": null,
    "office_name": null,
    "office_name_kana": null
  },
  "0306": {
    "postcode": "7500306",
    "prefecture": "山口県",
    "prefecture_kana": "ヤマグチケン",
    "prefecture_code": 35,
    "city": "下関市",
    "city_kana": "シモノセキシ",
    "town": "菊川町下保木",
    "town_kana": "キクガワチョウシモホキ",
    "street": null,
    "office_name": null,
    "office_name_kana": null
  },
  "0307": {
    "postcode": "7500307",
    "prefecture": "山口県",
    "prefecture_kana": "ヤマグチケン",
    "prefecture_code": 35,
    "city": "下関市",
    "city_kana": "シモノセキシ",
    "town": "菊川町上保木",
    "town_kana": "キクガワチョウカミホキ",
    "street": null,
    "office_name": null,
    "office_name_kana": null
  },
  "0311": {
    "postcode": "7500311",
    "prefecture": "山口県",
    "prefecture_kana": "ヤマグチケン",
    "prefecture_code": 35,
    "city": "下関市",
    "city_kana": "シモノセキシ",
    "town": "菊川町上大野",
    "town_kana": "キクガワチョウカミオオノ",
    "street": null,
    "office_name": null,
    "office_name_kana": null
  },
  "0312": {
    "postcode": "7500312",
    "prefecture": "山口県",
    "prefecture_kana": "ヤマグチケン",
    "prefecture_code": 35,
    "city": "下関市",
    "city_kana": "シモノセキシ",
    "town": "菊川町下大野",
    "town_kana": "キクガワチョウシモオオノ",
    "street": null,
    "office_name": null,
    "office_name_kana": null
  },
  "0313": {
    "postcode": "7500313",
    "prefecture": "山口県",
    "prefecture_kana": "ヤマグチケン",
    "prefecture_code": 35,
    "city": "下関市",
    "city_kana": "シモノセキシ",
    "town": "菊川町田部",
    "town_kana": "キクガワチョウタベ",
    "street": null,
    "office_name": null,
    "office_name_kana": null
  },
  "0314": {
    "postcode": "7500314",
    "prefecture": "山口県",
    "prefecture_kana": "ヤマグチケン",
    "prefecture_code": 35,
    "city": "下関市",
    "city_kana": "シモノセキシ",
    "town": "菊川町上田部",
    "town_kana": "キクガワチョウカミタベ",
    "street": null,
    "office_name": null,
    "office_name_kana": null
  },
  "0315": {
    "postcode": "7500315",
    "prefecture": "山口県",
    "prefecture_kana": "ヤマグチケン",
    "prefecture_code": 35,
    "city": "下関市",
    "city_kana": "シモノセキシ",
    "town": "菊川町七見",
    "town_kana": "キクガワチョウナナミ",
    "street": null,
    "office_name": null,
    "office_name_kana": null
  },
  "0316": {
    "postcode": "7500316",
    "prefecture": "山口県",
    "prefecture_kana": "ヤマグチケン",
    "prefecture_code": 35,
    "city": "下関市",
    "city_kana": "シモノセキシ",
    "town": "菊川町吉賀",
    "town_kana": "キクガワチョウヨシカ",
    "street": null,
    "office_name": null,
    "office_name_kana": null
  },
  "0317": {
    "postcode": "7500317",
    "prefecture": "山口県",
    "prefecture_kana": "ヤマグチケン",
    "prefecture_code": 35,
    "city": "下関市",
    "city_kana": "シモノセキシ",
    "town": "菊川町下岡枝",
    "town_kana": "キクガワチョウシモオカエダ",
    "street": null,
    "office_name": null,
    "office_name_kana": null
  },
  "0321": {
    "postcode": "7500321",
    "prefecture": "山口県",
    "prefecture_kana": "ヤマグチケン",
    "prefecture_code": 35,
    "city": "下関市",
    "city_kana": "シモノセキシ",
    "town": "菊川町上岡枝",
    "town_kana": "キクガワチョウカミオカエダ",
    "street": null,
    "office_name": null,
    "office_name_kana": null
  },
  "0322": {
    "postcode": "7500322",
    "prefecture": "山口県",
    "prefecture_kana": "ヤマグチケン",
    "prefecture_code": 35,
    "city": "下関市",
    "city_kana": "シモノセキシ",
    "town": "菊川町楢崎",
    "town_kana": "キクガワチョウナラザキ",
    "street": null,
    "office_name": null,
    "office_name_kana": null
  },
  "0323": {
    "postcode": "7500323",
    "prefecture": "山口県",
    "prefecture_kana": "ヤマグチケン",
    "prefecture_code": 35,
    "city": "下関市",
    "city_kana": "シモノセキシ",
    "town": "菊川町日新",
    "town_kana": "キクガワチョウニッシン",
    "street": null,
    "office_name": null,
    "office_name_kana": null
  },
  "0324": {
    "postcode": "7500324",
    "prefecture": "山口県",
    "prefecture_kana": "ヤマグチケン",
    "prefecture_code": 35,
    "city": "下関市",
    "city_kana": "シモノセキシ",
    "town": "菊川町久野",
    "town_kana": "キクガワチョウクノ",
    "street": null,
    "office_name": null,
    "office_name_kana": null
  },
  "0325": {
    "postcode": "7500325",
    "prefecture": "山口県",
    "prefecture_kana": "ヤマグチケン",
    "prefecture_code": 35,
    "city": "下関市",
    "city_kana": "シモノセキシ",
    "town": "菊川町貴飯",
    "town_kana": "キクガワチョウキバ",
    "street": null,
    "office_name": null,
    "office_name_kana": null
  },
  "0401": {
    "postcode": "7500401",
    "prefecture": "山口県",
    "prefecture_kana": "ヤマグチケン",
    "prefecture_code": 35,
    "city": "下関市",
    "city_kana": "シモノセキシ",
    "town": "豊田町殿居",
    "town_kana": "トヨタチョウトノイ",
    "street": null,
    "office_name": null,
    "office_name_kana": null
  },
  "0402": {
    "postcode": "7500402",
    "prefecture": "山口県",
    "prefecture_kana": "ヤマグチケン",
    "prefecture_code": 35,
    "city": "下関市",
    "city_kana": "シモノセキシ",
    "town": "豊田町佐野",
    "town_kana": "トヨタチョウサノ",
    "street": null,
    "office_name": null,
    "office_name_kana": null
  },
  "0403": {
    "postcode": "7500403",
    "prefecture": "山口県",
    "prefecture_kana": "ヤマグチケン",
    "prefecture_code": 35,
    "city": "下関市",
    "city_kana": "シモノセキシ",
    "town": "豊田町一ノ俣",
    "town_kana": "トヨタチョウイチノマタ",
    "street": null,
    "office_name": null,
    "office_name_kana": null
  },
  "0404": {
    "postcode": "7500404",
    "prefecture": "山口県",
    "prefecture_kana": "ヤマグチケン",
    "prefecture_code": 35,
    "city": "下関市",
    "city_kana": "シモノセキシ",
    "town": "豊田町荒木",
    "town_kana": "トヨタチョウアラキ",
    "street": null,
    "office_name": null,
    "office_name_kana": null
  },
  "0405": {
    "postcode": "7500405",
    "prefecture": "山口県",
    "prefecture_kana": "ヤマグチケン",
    "prefecture_code": 35,
    "city": "下関市",
    "city_kana": "シモノセキシ",
    "town": "豊田町杢路子",
    "town_kana": "トヨタチョウムクロウジ",
    "street": null,
    "office_name": null,
    "office_name_kana": null
  },
  "0411": {
    "postcode": "7500411",
    "prefecture": "山口県",
    "prefecture_kana": "ヤマグチケン",
    "prefecture_code": 35,
    "city": "下関市",
    "city_kana": "シモノセキシ",
    "town": "豊田町宇内",
    "town_kana": "トヨタチョウウナイ",
    "street": null,
    "office_name": null,
    "office_name_kana": null
  },
  "0412": {
    "postcode": "7500412",
    "prefecture": "山口県",
    "prefecture_kana": "ヤマグチケン",
    "prefecture_code": 35,
    "city": "下関市",
    "city_kana": "シモノセキシ",
    "town": "豊田町稲見",
    "town_kana": "トヨタチョウイナミ",
    "street": null,
    "office_name": null,
    "office_name_kana": null
  },
  "0413": {
    "postcode": "7500413",
    "prefecture": "山口県",
    "prefecture_kana": "ヤマグチケン",
    "prefecture_code": 35,
    "city": "下関市",
    "city_kana": "シモノセキシ",
    "town": "豊田町金道",
    "town_kana": "トヨタチョウキンドウ",
    "street": null,
    "office_name": null,
    "office_name_kana": null
  },
  "0414": {
    "postcode": "7500414",
    "prefecture": "山口県",
    "prefecture_kana": "ヤマグチケン",
    "prefecture_code": 35,
    "city": "下関市",
    "city_kana": "シモノセキシ",
    "town": "豊田町八道",
    "town_kana": "トヨタチョウヤジ",
    "street": null,
    "office_name": null,
    "office_name_kana": null
  },
  "0415": {
    "postcode": "7500415",
    "prefecture": "山口県",
    "prefecture_kana": "ヤマグチケン",
    "prefecture_code": 35,
    "city": "下関市",
    "city_kana": "シモノセキシ",
    "town": "豊田町浮石",
    "town_kana": "トヨタチョウウキイシ",
    "street": null,
    "office_name": null,
    "office_name_kana": null
  },
  "0416": {
    "postcode": "7500416",
    "prefecture": "山口県",
    "prefecture_kana": "ヤマグチケン",
    "prefecture_code": 35,
    "city": "下関市",
    "city_kana": "シモノセキシ",
    "town": "豊田町鷹子",
    "town_kana": "トヨタチョウタカノコ",
    "street": null,
    "office_name": null,
    "office_name_kana": null
  },
  "0421": {
    "postcode": "7500421",
    "prefecture": "山口県",
    "prefecture_kana": "ヤマグチケン",
    "prefecture_code": 35,
    "city": "下関市",
    "city_kana": "シモノセキシ",
    "town": "豊田町殿敷",
    "town_kana": "トヨタチョウトノシキ",
    "street": null,
    "office_name": null,
    "office_name_kana": null
  },
  "0422": {
    "postcode": "7500422",
    "prefecture": "山口県",
    "prefecture_kana": "ヤマグチケン",
    "prefecture_code": 35,
    "city": "下関市",
    "city_kana": "シモノセキシ",
    "town": "豊田町楢原",
    "town_kana": "トヨタチョウナラワラ",
    "street": null,
    "office_name": null,
    "office_name_kana": null
  },
  "0423": {
    "postcode": "7500423",
    "prefecture": "山口県",
    "prefecture_kana": "ヤマグチケン",
    "prefecture_code": 35,
    "city": "下関市",
    "city_kana": "シモノセキシ",
    "town": "豊田町西市",
    "town_kana": "トヨタチョウニシイチ",
    "street": null,
    "office_name": null,
    "office_name_kana": null
  },
  "0424": {
    "postcode": "7500424",
    "prefecture": "山口県",
    "prefecture_kana": "ヤマグチケン",
    "prefecture_code": 35,
    "city": "下関市",
    "city_kana": "シモノセキシ",
    "town": "豊田町矢田",
    "town_kana": "トヨタチョウヤタ",
    "street": null,
    "office_name": null,
    "office_name_kana": null
  },
  "0425": {
    "postcode": "7500425",
    "prefecture": "山口県",
    "prefecture_kana": "ヤマグチケン",
    "prefecture_code": 35,
    "city": "下関市",
    "city_kana": "シモノセキシ",
    "town": "豊田町庭田",
    "town_kana": "トヨタチョウニワタ",
    "street": null,
    "office_name": null,
    "office_name_kana": null
  },
  "0431": {
    "postcode": "7500431",
    "prefecture": "山口県",
    "prefecture_kana": "ヤマグチケン",
    "prefecture_code": 35,
    "city": "下関市",
    "city_kana": "シモノセキシ",
    "town": "豊田町今出",
    "town_kana": "トヨタチョウイマデ",
    "street": null,
    "office_name": null,
    "office_name_kana": null
  },
  "0432": {
    "postcode": "7500432",
    "prefecture": "山口県",
    "prefecture_kana": "ヤマグチケン",
    "prefecture_code": 35,
    "city": "下関市",
    "city_kana": "シモノセキシ",
    "town": "豊田町地吉",
    "town_kana": "トヨタチョウジヨシ",
    "street": null,
    "office_name": null,
    "office_name_kana": null
  },
  "0433": {
    "postcode": "7500433",
    "prefecture": "山口県",
    "prefecture_kana": "ヤマグチケン",
    "prefecture_code": 35,
    "city": "下関市",
    "city_kana": "シモノセキシ",
    "town": "豊田町大河内",
    "town_kana": "トヨタチョウオオカワチ",
    "street": null,
    "office_name": null,
    "office_name_kana": null
  },
  "0441": {
    "postcode": "7500441",
    "prefecture": "山口県",
    "prefecture_kana": "ヤマグチケン",
    "prefecture_code": 35,
    "city": "下関市",
    "city_kana": "シモノセキシ",
    "town": "豊田町中村",
    "town_kana": "トヨタチョウナカムラ",
    "street": null,
    "office_name": null,
    "office_name_kana": null
  },
  "0442": {
    "postcode": "7500442",
    "prefecture": "山口県",
    "prefecture_kana": "ヤマグチケン",
    "prefecture_code": 35,
    "city": "下関市",
    "city_kana": "シモノセキシ",
    "town": "豊田町稲光",
    "town_kana": "トヨタチョウイナミツ",
    "street": null,
    "office_name": null,
    "office_name_kana": null
  },
  "0443": {
    "postcode": "7500443",
    "prefecture": "山口県",
    "prefecture_kana": "ヤマグチケン",
    "prefecture_code": 35,
    "city": "下関市",
    "city_kana": "シモノセキシ",
    "town": "豊田町日野",
    "town_kana": "トヨタチョウヒノ",
    "street": null,
    "office_name": null,
    "office_name_kana": null
  },
  "0444": {
    "postcode": "7500444",
    "prefecture": "山口県",
    "prefecture_kana": "ヤマグチケン",
    "prefecture_code": 35,
    "city": "下関市",
    "city_kana": "シモノセキシ",
    "town": "豊田町萩原",
    "town_kana": "トヨタチョウハギワラ",
    "street": null,
    "office_name": null,
    "office_name_kana": null
  },
  "0445": {
    "postcode": "7500445",
    "prefecture": "山口県",
    "prefecture_kana": "ヤマグチケン",
    "prefecture_code": 35,
    "city": "下関市",
    "city_kana": "シモノセキシ",
    "town": "豊田町東長野",
    "town_kana": "トヨタチョウヒガシナガノ",
    "street": null,
    "office_name": null,
    "office_name_kana": null
  },
  "0446": {
    "postcode": "7500446",
    "prefecture": "山口県",
    "prefecture_kana": "ヤマグチケン",
    "prefecture_code": 35,
    "city": "下関市",
    "city_kana": "シモノセキシ",
    "town": "豊田町高山",
    "town_kana": "トヨタチョウタカヤマ",
    "street": null,
    "office_name": null,
    "office_name_kana": null
  },
  "0451": {
    "postcode": "7500451",
    "prefecture": "山口県",
    "prefecture_kana": "ヤマグチケン",
    "prefecture_code": 35,
    "city": "下関市",
    "city_kana": "シモノセキシ",
    "town": "豊田町阿座上",
    "town_kana": "トヨタチョウアザカミ",
    "street": null,
    "office_name": null,
    "office_name_kana": null
  },
  "0452": {
    "postcode": "7500452",
    "prefecture": "山口県",
    "prefecture_kana": "ヤマグチケン",
    "prefecture_code": 35,
    "city": "下関市",
    "city_kana": "シモノセキシ",
    "town": "豊田町江良",
    "town_kana": "トヨタチョウエラ",
    "street": null,
    "office_name": null,
    "office_name_kana": null
  },
  "0453": {
    "postcode": "7500453",
    "prefecture": "山口県",
    "prefecture_kana": "ヤマグチケン",
    "prefecture_code": 35,
    "city": "下関市",
    "city_kana": "シモノセキシ",
    "town": "豊田町手洗",
    "town_kana": "トヨタチョウタライ",
    "street": null,
    "office_name": null,
    "office_name_kana": null
  },
  "0454": {
    "postcode": "7500454",
    "prefecture": "山口県",
    "prefecture_kana": "ヤマグチケン",
    "prefecture_code": 35,
    "city": "下関市",
    "city_kana": "シモノセキシ",
    "town": "豊田町西長野",
    "town_kana": "トヨタチョウニシナガノ",
    "street": null,
    "office_name": null,
    "office_name_kana": null
  },
  "0455": {
    "postcode": "7500455",
    "prefecture": "山口県",
    "prefecture_kana": "ヤマグチケン",
    "prefecture_code": 35,
    "city": "下関市",
    "city_kana": "シモノセキシ",
    "town": "豊田町城戸",
    "town_kana": "トヨタチョウキド",
    "street": null,
    "office_name": null,
    "office_name_kana": null
  },
  "0601": {
    "postcode": "7500601",
    "prefecture": "山口県",
    "prefecture_kana": "ヤマグチケン",
    "prefecture_code": 35,
    "city": "美祢市",
    "city_kana": "ミネシ",
    "town": "豊田前町麻生上",
    "town_kana": "トヨタマエチョウアソウカミ",
    "street": null,
    "office_name": null,
    "office_name_kana": null
  },
  "0602": {
    "postcode": "7500602",
    "prefecture": "山口県",
    "prefecture_kana": "ヤマグチケン",
    "prefecture_code": 35,
    "city": "美祢市",
    "city_kana": "ミネシ",
    "town": "豊田前町麻生下",
    "town_kana": "トヨタマエチョウアソウシモ",
    "street": null,
    "office_name": null,
    "office_name_kana": null
  },
  "0603": {
    "postcode": "7500603",
    "prefecture": "山口県",
    "prefecture_kana": "ヤマグチケン",
    "prefecture_code": 35,
    "city": "美祢市",
    "city_kana": "ミネシ",
    "town": "豊田前町今山",
    "town_kana": "トヨタマエチョウイマヤマ",
    "street": null,
    "office_name": null,
    "office_name_kana": null
  },
  "0604": {
    "postcode": "7500604",
    "prefecture": "山口県",
    "prefecture_kana": "ヤマグチケン",
    "prefecture_code": 35,
    "city": "美祢市",
    "city_kana": "ミネシ",
    "town": "豊田前町保々",
    "town_kana": "トヨタマエチョウホウホウ",
    "street": null,
    "office_name": null,
    "office_name_kana": null
  },
  "0605": {
    "postcode": "7500605",
    "prefecture": "山口県",
    "prefecture_kana": "ヤマグチケン",
    "prefecture_code": 35,
    "city": "美祢市",
    "city_kana": "ミネシ",
    "town": "豊田前町古烏帽子",
    "town_kana": "トヨタマエチョウフルエボシ",
    "street": null,
    "office_name": null,
    "office_name_kana": null
  },
  "0606": {
    "postcode": "7500606",
    "prefecture": "山口県",
    "prefecture_kana": "ヤマグチケン",
    "prefecture_code": 35,
    "city": "美祢市",
    "city_kana": "ミネシ",
    "town": "豊田前町嶽",
    "town_kana": "トヨタマエチョウダケ",
    "street": null,
    "office_name": null,
    "office_name_kana": null
  },
  "0692": {
    "postcode": "7500692",
    "prefecture": "山口県",
    "prefecture_kana": "ヤマグチケン",
    "prefecture_code": 35,
    "city": "美祢市",
    "city_kana": "ミネシ",
    "town": "豊田前町麻生下",
    "town_kana": "トヨタマエチョウアソウシモ",
    "street": "１０番地７",
    "office_name": "美祢社会復帰促進センター宿舎",
    "office_name_kana": "ミネシヤカイフツキソクシンセンタ-シユクシヤ"
  },
  "0693": {
    "postcode": "7500693",
    "prefecture": "山口県",
    "prefecture_kana": "ヤマグチケン",
    "prefecture_code": 35,
    "city": "美祢市",
    "city_kana": "ミネシ",
    "town": "豊田前町麻生下",
    "town_kana": "トヨタマエチョウアソウシモ",
    "street": "１０番地",
    "office_name": "美祢社会復帰促進センター",
    "office_name_kana": "ミネシヤカイフツキソクシンセンタ-"
  },
  "1101": {
    "postcode": "7501101",
    "prefecture": "山口県",
    "prefecture_kana": "ヤマグチケン",
    "prefecture_code": 35,
    "city": "下関市",
    "city_kana": "シモノセキシ",
    "town": "吉田",
    "town_kana": "ヨシダ",
    "street": null,
    "office_name": null,
    "office_name_kana": null
  },
  "1102": {
    "postcode": "7501102",
    "prefecture": "山口県",
    "prefecture_kana": "ヤマグチケン",
    "prefecture_code": 35,
    "city": "下関市",
    "city_kana": "シモノセキシ",
    "town": "吉田地方",
    "town_kana": "ヨシダジカタ",
    "street": null,
    "office_name": null,
    "office_name_kana": null
  },
  "1111": {
    "postcode": "7501111",
    "prefecture": "山口県",
    "prefecture_kana": "ヤマグチケン",
    "prefecture_code": 35,
    "city": "下関市",
    "city_kana": "シモノセキシ",
    "town": "宇津井",
    "town_kana": "ウヅイ",
    "street": null,
    "office_name": null,
    "office_name_kana": null
  },
  "1112": {
    "postcode": "7501112",
    "prefecture": "山口県",
    "prefecture_kana": "ヤマグチケン",
    "prefecture_code": 35,
    "city": "下関市",
    "city_kana": "シモノセキシ",
    "town": "木屋川本町",
    "town_kana": "コヤガワホンマチ",
    "street": null,
    "office_name": null,
    "office_name_kana": null
  },
  "1113": {
    "postcode": "7501113",
    "prefecture": "山口県",
    "prefecture_kana": "ヤマグチケン",
    "prefecture_code": 35,
    "city": "下関市",
    "city_kana": "シモノセキシ",
    "town": "木屋川南町",
    "town_kana": "コヤガワミナミマチ",
    "street": null,
    "office_name": null,
    "office_name_kana": null
  },
  "1114": {
    "postcode": "7501114",
    "prefecture": "山口県",
    "prefecture_kana": "ヤマグチケン",
    "prefecture_code": 35,
    "city": "下関市",
    "city_kana": "シモノセキシ",
    "town": "王喜本町",
    "town_kana": "オウキホンマチ",
    "street": null,
    "office_name": null,
    "office_name_kana": null
  },
  "1115": {
    "postcode": "7501115",
    "prefecture": "山口県",
    "prefecture_kana": "ヤマグチケン",
    "prefecture_code": 35,
    "city": "下関市",
    "city_kana": "シモノセキシ",
    "town": "王喜宇津井",
    "town_kana": "オウキウヅイ",
    "street": null,
    "office_name": null,
    "office_name_kana": null
  },
  "1116": {
    "postcode": "7501116",
    "prefecture": "山口県",
    "prefecture_kana": "ヤマグチケン",
    "prefecture_code": 35,
    "city": "下関市",
    "city_kana": "シモノセキシ",
    "town": "白崎",
    "town_kana": "シラサキ",
    "street": null,
    "office_name": null,
    "office_name_kana": null
  },
  "1121": {
    "postcode": "7501121",
    "prefecture": "山口県",
    "prefecture_kana": "ヤマグチケン",
    "prefecture_code": 35,
    "city": "下関市",
    "city_kana": "シモノセキシ",
    "town": "松屋",
    "town_kana": "マツヤ",
    "street": null,
    "office_name": null,
    "office_name_kana": null
  },
  "1122": {
    "postcode": "7501122",
    "prefecture": "山口県",
    "prefecture_kana": "ヤマグチケン",
    "prefecture_code": 35,
    "city": "下関市",
    "city_kana": "シモノセキシ",
    "town": "松屋上町",
    "town_kana": "マツヤカミマチ",
    "street": null,
    "office_name": null,
    "office_name_kana": null
  },
  "1123": {
    "postcode": "7501123",
    "prefecture": "山口県",
    "prefecture_kana": "ヤマグチケン",
    "prefecture_code": 35,
    "city": "下関市",
    "city_kana": "シモノセキシ",
    "town": "松屋東町",
    "town_kana": "マツヤヒガシマチ",
    "street": null,
    "office_name": null,
    "office_name_kana": null
  },
  "1124": {
    "postcode": "7501124",
    "prefecture": "山口県",
    "prefecture_kana": "ヤマグチケン",
    "prefecture_code": 35,
    "city": "下関市",
    "city_kana": "シモノセキシ",
    "town": "松屋本町",
    "town_kana": "マツヤホンマチ",
    "street": null,
    "office_name": null,
    "office_name_kana": null
  },
  "1131": {
    "postcode": "7501131",
    "prefecture": "山口県",
    "prefecture_kana": "ヤマグチケン",
    "prefecture_code": 35,
    "city": "下関市",
    "city_kana": "シモノセキシ",
    "town": "小月町",
    "town_kana": "オヅキチョウ",
    "street": null,
    "office_name": null,
    "office_name_kana": null
  },
  "1132": {
    "postcode": "7501132",
    "prefecture": "山口県",
    "prefecture_kana": "ヤマグチケン",
    "prefecture_code": 35,
    "city": "下関市",
    "city_kana": "シモノセキシ",
    "town": "小月宮の町",
    "town_kana": "オヅキミヤノマチ",
    "street": null,
    "office_name": null,
    "office_name_kana": null
  },
  "1133": {
    "postcode": "7501133",
    "prefecture": "山口県",
    "prefecture_kana": "ヤマグチケン",
    "prefecture_code": 35,
    "city": "下関市",
    "city_kana": "シモノセキシ",
    "town": "小月高雄町",
    "town_kana": "オヅキタカオチョウ",
    "street": null,
    "office_name": null,
    "office_name_kana": null
  },
  "1134": {
    "postcode": "7501134",
    "prefecture": "山口県",
    "prefecture_kana": "ヤマグチケン",
    "prefecture_code": 35,
    "city": "下関市",
    "city_kana": "シモノセキシ",
    "town": "小月京泊",
    "town_kana": "オヅキキョウドマリ",
    "street": null,
    "office_name": null,
    "office_name_kana": null
  },
  "1135": {
    "postcode": "7501135",
    "prefecture": "山口県",
    "prefecture_kana": "ヤマグチケン",
    "prefecture_code": 35,
    "city": "下関市",
    "city_kana": "シモノセキシ",
    "town": "小月西の台",
    "town_kana": "オヅキニシノダイ",
    "street": null,
    "office_name": null,
    "office_name_kana": null
  },
  "1136": {
    "postcode": "7501136",
    "prefecture": "山口県",
    "prefecture_kana": "ヤマグチケン",
    "prefecture_code": 35,
    "city": "下関市",
    "city_kana": "シモノセキシ",
    "town": "小月小島",
    "town_kana": "オヅキコジマ",
    "street": null,
    "office_name": null,
    "office_name_kana": null
  },
  "1137": {
    "postcode": "7501137",
    "prefecture": "山口県",
    "prefecture_kana": "ヤマグチケン",
    "prefecture_code": 35,
    "city": "下関市",
    "city_kana": "シモノセキシ",
    "town": "小月南町",
    "town_kana": "オヅキミナミマチ",
    "street": null,
    "office_name": null,
    "office_name_kana": null
  },
  "1141": {
    "postcode": "7501141",
    "prefecture": "山口県",
    "prefecture_kana": "ヤマグチケン",
    "prefecture_code": 35,
    "city": "下関市",
    "city_kana": "シモノセキシ",
    "town": "小月幸町",
    "town_kana": "オヅキサイワイマチ",
    "street": null,
    "office_name": null,
    "office_name_kana": null
  },
  "1142": {
    "postcode": "7501142",
    "prefecture": "山口県",
    "prefecture_kana": "ヤマグチケン",
    "prefecture_code": 35,
    "city": "下関市",
    "city_kana": "シモノセキシ",
    "town": "小月本町",
    "town_kana": "オヅキホンマチ",
    "street": null,
    "office_name": null,
    "office_name_kana": null
  },
  "1143": {
    "postcode": "7501143",
    "prefecture": "山口県",
    "prefecture_kana": "ヤマグチケン",
    "prefecture_code": 35,
    "city": "下関市",
    "city_kana": "シモノセキシ",
    "town": "小月駅前",
    "town_kana": "オヅキエキマエ",
    "street": null,
    "office_name": null,
    "office_name_kana": null
  },
  "1144": {
    "postcode": "7501144",
    "prefecture": "山口県",
    "prefecture_kana": "ヤマグチケン",
    "prefecture_code": 35,
    "city": "下関市",
    "city_kana": "シモノセキシ",
    "town": "小月茶屋",
    "town_kana": "オヅキチャヤ",
    "street": null,
    "office_name": null,
    "office_name_kana": null
  },
  "1145": {
    "postcode": "7501145",
    "prefecture": "山口県",
    "prefecture_kana": "ヤマグチケン",
    "prefecture_code": 35,
    "city": "下関市",
    "city_kana": "シモノセキシ",
    "town": "小月杉迫",
    "town_kana": "オヅキスギサコ",
    "street": null,
    "office_name": null,
    "office_name_kana": null
  },
  "1146": {
    "postcode": "7501146",
    "prefecture": "山口県",
    "prefecture_kana": "ヤマグチケン",
    "prefecture_code": 35,
    "city": "下関市",
    "city_kana": "シモノセキシ",
    "town": "小月公園町",
    "town_kana": "オヅキコウエンチョウ",
    "street": null,
    "office_name": null,
    "office_name_kana": null
  },
  "1147": {
    "postcode": "7501147",
    "prefecture": "山口県",
    "prefecture_kana": "ヤマグチケン",
    "prefecture_code": 35,
    "city": "下関市",
    "city_kana": "シモノセキシ",
    "town": "小月市原町",
    "town_kana": "オヅキイチハラチョウ",
    "street": null,
    "office_name": null,
    "office_name_kana": null
  },
  "1151": {
    "postcode": "7501151",
    "prefecture": "山口県",
    "prefecture_kana": "ヤマグチケン",
    "prefecture_code": 35,
    "city": "下関市",
    "city_kana": "シモノセキシ",
    "town": "清末",
    "town_kana": "キヨスエ",
    "street": null,
    "office_name": null,
    "office_name_kana": null
  },
  "1152": {
    "postcode": "7501152",
    "prefecture": "山口県",
    "prefecture_kana": "ヤマグチケン",
    "prefecture_code": 35,
    "city": "下関市",
    "city_kana": "シモノセキシ",
    "town": "清末陣屋",
    "town_kana": "キヨスエジンヤ",
    "street": null,
    "office_name": null,
    "office_name_kana": null
  },
  "1153": {
    "postcode": "7501153",
    "prefecture": "山口県",
    "prefecture_kana": "ヤマグチケン",
    "prefecture_code": 35,
    "city": "下関市",
    "city_kana": "シモノセキシ",
    "town": "清末鞍馬",
    "town_kana": "キヨスエクラマ",
    "street": null,
    "office_name": null,
    "office_name_kana": null
  },
  "1154": {
    "postcode": "7501154",
    "prefecture": "山口県",
    "prefecture_kana": "ヤマグチケン",
    "prefecture_code": 35,
    "city": "下関市",
    "city_kana": "シモノセキシ",
    "town": "清末本町",
    "town_kana": "キヨスエホンマチ",
    "street": null,
    "office_name": null,
    "office_name_kana": null
  },
  "1155": {
    "postcode": "7501155",
    "prefecture": "山口県",
    "prefecture_kana": "ヤマグチケン",
    "prefecture_code": 35,
    "city": "下関市",
    "city_kana": "シモノセキシ",
    "town": "清末中町",
    "town_kana": "キヨスエナカマチ",
    "street": null,
    "office_name": null,
    "office_name_kana": null
  },
  "1156": {
    "postcode": "7501156",
    "prefecture": "山口県",
    "prefecture_kana": "ヤマグチケン",
    "prefecture_code": 35,
    "city": "下関市",
    "city_kana": "シモノセキシ",
    "town": "清末東町",
    "town_kana": "キヨスエヒガシマチ",
    "street": null,
    "office_name": null,
    "office_name_kana": null
  },
  "1161": {
    "postcode": "7501161",
    "prefecture": "山口県",
    "prefecture_kana": "ヤマグチケン",
    "prefecture_code": 35,
    "city": "下関市",
    "city_kana": "シモノセキシ",
    "town": "清末西町",
    "town_kana": "キヨスエニシマチ",
    "street": null,
    "office_name": null,
    "office_name_kana": null
  },
  "1162": {
    "postcode": "7501162",
    "prefecture": "山口県",
    "prefecture_kana": "ヤマグチケン",
    "prefecture_code": 35,
    "city": "下関市",
    "city_kana": "シモノセキシ",
    "town": "清末五毛",
    "town_kana": "キヨスエゴモウ",
    "street": null,
    "office_name": null,
    "office_name_kana": null
  },
  "1163": {
    "postcode": "7501163",
    "prefecture": "山口県",
    "prefecture_kana": "ヤマグチケン",
    "prefecture_code": 35,
    "city": "下関市",
    "city_kana": "シモノセキシ",
    "town": "清末千房",
    "town_kana": "キヨスエセンボウ",
    "street": null,
    "office_name": null,
    "office_name_kana": null
  },
  "1164": {
    "postcode": "7501164",
    "prefecture": "山口県",
    "prefecture_kana": "ヤマグチケン",
    "prefecture_code": 35,
    "city": "下関市",
    "city_kana": "シモノセキシ",
    "town": "清末大門",
    "town_kana": "キヨスエダイモン",
    "street": null,
    "office_name": null,
    "office_name_kana": null
  },
  "1171": {
    "postcode": "7501171",
    "prefecture": "山口県",
    "prefecture_kana": "ヤマグチケン",
    "prefecture_code": 35,
    "city": "下関市",
    "city_kana": "シモノセキシ",
    "town": "阿内",
    "town_kana": "オウチ",
    "street": null,
    "office_name": null,
    "office_name_kana": null
  },
  "1192": {
    "postcode": "7501192",
    "prefecture": "山口県",
    "prefecture_kana": "ヤマグチケン",
    "prefecture_code": 35,
    "city": "下関市",
    "city_kana": "シモノセキシ",
    "town": "小月小島",
    "town_kana": "オヅキコジマ",
    "street": "１丁目４番７号",
    "office_name": "株式会社　シマノ　下関工場",
    "office_name_kana": "カブシキガイシヤ シマノ シモノセキコウジヨウ"
  },
  "1193": {
    "postcode": "7501193",
    "prefecture": "山口県",
    "prefecture_kana": "ヤマグチケン",
    "prefecture_code": 35,
    "city": "下関市",
    "city_kana": "シモノセキシ",
    "town": "王喜本町",
    "town_kana": "オウキホンマチ",
    "street": "６丁目４−５０",
    "office_name": "日本セレモニー",
    "office_name_kana": "ニホンセレモニ-"
  },
  "8501": {
    "postcode": "7508501",
    "prefecture": "山口県",
    "prefecture_kana": "ヤマグチケン",
    "prefecture_code": 35,
    "city": "下関市",
    "city_kana": "シモノセキシ",
    "town": "彦島西山町",
    "town_kana": "ヒコシマニシヤマチョウ",
    "street": "４丁目１３−３３",
    "office_name": "前田海産　株式会社",
    "office_name_kana": "マエダカイサン カブシキガイシヤ"
  },
  "8502": {
    "postcode": "7508502",
    "prefecture": "山口県",
    "prefecture_kana": "ヤマグチケン",
    "prefecture_code": 35,
    "city": "下関市",
    "city_kana": "シモノセキシ",
    "town": "細江町",
    "town_kana": "ホソエチョウ",
    "street": "１丁目２−７",
    "office_name": "住友生命保険　相互会社　山口支社",
    "office_name_kana": "スミトモセイメイホケン ソウゴガイシヤ ヤマグチシシヤ"
  },
  "8503": {
    "postcode": "7508503",
    "prefecture": "山口県",
    "prefecture_kana": "ヤマグチケン",
    "prefecture_code": 35,
    "city": "下関市",
    "city_kana": "シモノセキシ",
    "town": "竹崎町",
    "town_kana": "タケザキチョウ",
    "street": "４丁目４−１０",
    "office_name": "株式会社　大丸松坂屋百貨店　大丸下関店",
    "office_name_kana": "カブシキガイシヤ ダイマルマツザカヤヒヤツカテン ダイマルシモノセキミセ"
  },
  "8505": {
    "postcode": "7508505",
    "prefecture": "山口県",
    "prefecture_kana": "ヤマグチケン",
    "prefecture_code": 35,
    "city": "下関市",
    "city_kana": "シモノセキシ",
    "town": "彦島江の浦町",
    "town_kana": "ヒコシマエノウラチョウ",
    "street": "６丁目１６−１",
    "office_name": "三菱重工業　株式会社　下関造船所",
    "office_name_kana": "ミツビシジユウコウギヨウ カブシキガイシヤ シモノセキゾウセンシヨ"
  },
  "8506": {
    "postcode": "7508506",
    "prefecture": "山口県",
    "prefecture_kana": "ヤマグチケン",
    "prefecture_code": 35,
    "city": "下関市",
    "city_kana": "シモノセキシ",
    "town": "東大和町",
    "town_kana": "ヒガシヤマトマチ",
    "street": "１丁目１−７",
    "office_name": "株式会社　みなと山口合同新聞社",
    "office_name_kana": "カブシキガイシヤ ミナトヤマグチゴウドウシンブンシヤ"
  },
  "8507": {
    "postcode": "7508507",
    "prefecture": "山口県",
    "prefecture_kana": "ヤマグチケン",
    "prefecture_code": 35,
    "city": "下関市",
    "city_kana": "シモノセキシ",
    "town": "上田中町",
    "town_kana": "カミタナカマチ",
    "street": "８丁目２−２",
    "office_name": "山口地方裁判所　下関支部",
    "office_name_kana": "ヤマグチチホウサイバンシヨ シモノセキシブ"
  },
  "8508": {
    "postcode": "7508508",
    "prefecture": "山口県",
    "prefecture_kana": "ヤマグチケン",
    "prefecture_code": 35,
    "city": "下関市",
    "city_kana": "シモノセキシ",
    "town": "桜山町",
    "town_kana": "サクラヤマチョウ",
    "street": "１−１",
    "office_name": "学校法人　河野学園",
    "office_name_kana": "ガツコウホウジン コウノガクエン"
  },
  "8510": {
    "postcode": "7508510",
    "prefecture": "山口県",
    "prefecture_kana": "ヤマグチケン",
    "prefecture_code": 35,
    "city": "下関市",
    "city_kana": "シモノセキシ",
    "town": "羽山町",
    "town_kana": "ハヤマチョウ",
    "street": "３−３",
    "office_name": "サンデン交通　株式会社",
    "office_name_kana": "サンデンコウツウ カブシキガイシヤ"
  },
  "8511": {
    "postcode": "7508511",
    "prefecture": "山口県",
    "prefecture_kana": "ヤマグチケン",
    "prefecture_code": 35,
    "city": "下関市",
    "city_kana": "シモノセキシ",
    "town": "向洋町",
    "town_kana": "コウヨウチョウ",
    "street": "１丁目１番１号",
    "office_name": "学校法人　梅光学院",
    "office_name_kana": "ガツコウホウジン バイコウガクイン"
  },
  "8512": {
    "postcode": "7508512",
    "prefecture": "山口県",
    "prefecture_kana": "ヤマグチケン",
    "prefecture_code": 35,
    "city": "下関市",
    "city_kana": "シモノセキシ",
    "town": "東大和町",
    "town_kana": "ヒガシヤマトマチ",
    "street": "１丁目１０−１２",
    "office_name": "株式会社　松岡",
    "office_name_kana": "カブシキガイシヤ マツオカ"
  },
  "8513": {
    "postcode": "7508513",
    "prefecture": "山口県",
    "prefecture_kana": "ヤマグチケン",
    "prefecture_code": 35,
    "city": "下関市",
    "city_kana": "シモノセキシ",
    "town": "南部町",
    "town_kana": "ナベチョウ",
    "street": "２１−１９",
    "office_name": "下関商工会議所",
    "office_name_kana": "シモノセキシヨウコウカイギシヨ"
  },
  "8515": {
    "postcode": "7508515",
    "prefecture": "山口県",
    "prefecture_kana": "ヤマグチケン",
    "prefecture_code": 35,
    "city": "下関市",
    "city_kana": "シモノセキシ",
    "town": "東大和町",
    "town_kana": "ヒガシヤマトマチ",
    "street": "１丁目２−１４",
    "office_name": "株式会社　日本無線電機サービス社",
    "office_name_kana": "カブシキガイシヤ ニホンムセンデンキサ-ビスシヤ"
  },
  "8517": {
    "postcode": "7508517",
    "prefecture": "山口県",
    "prefecture_kana": "ヤマグチケン",
    "prefecture_code": 35,
    "city": "下関市",
    "city_kana": "シモノセキシ",
    "town": "東大和町",
    "town_kana": "ヒガシヤマトマチ",
    "street": "２丁目１０−３",
    "office_name": "林兼産業　株式会社　飼料事業部",
    "office_name_kana": "ハヤシカネサンギヨウ カブシキガイシヤシリヨウジギヨウブ"
  },
  "8518": {
    "postcode": "7508518",
    "prefecture": "山口県",
    "prefecture_kana": "ヤマグチケン",
    "prefecture_code": 35,
    "city": "下関市",
    "city_kana": "シモノセキシ",
    "town": "東大和町",
    "town_kana": "ヒガシヤマトマチ",
    "street": "２丁目１１−１",
    "office_name": "山口ダイハツ販売　株式会社",
    "office_name_kana": "ヤマグチダイハツハンバイ カブシキガイシヤ"
  },
  "8520": {
    "postcode": "7508520",
    "prefecture": "山口県",
    "prefecture_kana": "ヤマグチケン",
    "prefecture_code": 35,
    "city": "下関市",
    "city_kana": "シモノセキシ",
    "town": "向洋町",
    "town_kana": "コウヨウチョウ",
    "street": "１丁目１３−１",
    "office_name": "下関市立市民病院",
    "office_name_kana": "シモノセキシリツシミンビヨウイン"
  },
  "8521": {
    "postcode": "7508521",
    "prefecture": "山口県",
    "prefecture_kana": "ヤマグチケン",
    "prefecture_code": 35,
    "city": "下関市",
    "city_kana": "シモノセキシ",
    "town": "南部町",
    "town_kana": "ナベチョウ",
    "street": "１−１",
    "office_name": "下関市役所",
    "office_name_kana": "シモノセキシヤクシヨ"
  },
  "8524": {
    "postcode": "7508524",
    "prefecture": "山口県",
    "prefecture_kana": "ヤマグチケン",
    "prefecture_code": 35,
    "city": "下関市",
    "city_kana": "シモノセキシ",
    "town": "上田中町",
    "town_kana": "カミタナカマチ",
    "street": "８丁目３−１",
    "office_name": "早鞆高等学校",
    "office_name_kana": "ハヤトモコウトウガツコウ"
  },
  "8525": {
    "postcode": "7508525",
    "prefecture": "山口県",
    "prefecture_kana": "ヤマグチケン",
    "prefecture_code": 35,
    "city": "下関市",
    "city_kana": "シモノセキシ",
    "town": "春日町",
    "town_kana": "カスガチョウ",
    "street": "７−３２",
    "office_name": "下関市水道局",
    "office_name_kana": "シモノセキシスイドウキヨク"
  },
  "8601": {
    "postcode": "7508601",
    "prefecture": "山口県",
    "prefecture_kana": "ヤマグチケン",
    "prefecture_code": 35,
    "city": "下関市",
    "city_kana": "シモノセキシ",
    "town": "岬之町",
    "town_kana": "ハナノチョウ",
    "street": "７−１（下関郵便局私書箱第６０号）",
    "office_name": "日本銀行　下関支店",
    "office_name_kana": "ニツポンギンコウ シモノセキシテン"
  },
  "8602": {
    "postcode": "7508602",
    "prefecture": "山口県",
    "prefecture_kana": "ヤマグチケン",
    "prefecture_code": 35,
    "city": "下関市",
    "city_kana": "シモノセキシ",
    "town": "南部町",
    "town_kana": "ナベチョウ",
    "street": "１９−１０（下関南部町郵便局私書箱第３号）",
    "office_name": "日本生命保険　相互会社　山口支社",
    "office_name_kana": "ニホンセイメイホケン ソウゴガイシヤ ヤマグチシシヤ"
  },
  "8603": {
    "postcode": "7508603",
    "prefecture": "山口県",
    "prefecture_kana": "ヤマグチケン",
    "prefecture_code": 35,
    "city": "下関市",
    "city_kana": "シモノセキシ",
    "town": "竹崎町",
    "town_kana": "タケザキチョウ",
    "street": "４丁目２−３６（下関郵便局私書箱第２４号）",
    "office_name": "株式会社　山口銀行",
    "office_name_kana": "カブシキガイシヤ ヤマグチギンコウ"
  },
  "8607": {
    "postcode": "7508607",
    "prefecture": "山口県",
    "prefecture_kana": "ヤマグチケン",
    "prefecture_code": 35,
    "city": "下関市",
    "city_kana": "シモノセキシ",
    "town": "上新地町",
    "town_kana": "カミシンチチョウ",
    "street": "３丁目４−５（下関郵便局私書箱第７３号）",
    "office_name": "下関社会保険事務所",
    "office_name_kana": "シモノセキシヤカイホケンジムシヨ"
  },
  "8608": {
    "postcode": "7508608",
    "prefecture": "山口県",
    "prefecture_kana": "ヤマグチケン",
    "prefecture_code": 35,
    "city": "下関市",
    "city_kana": "シモノセキシ",
    "town": "大和町",
    "town_kana": "ヤマトマチ",
    "street": "２丁目４−８（下関郵便局私書箱第５号）",
    "office_name": "林兼産業　株式会社",
    "office_name_kana": "ハヤシカネサンギヨウ カブシキガイシヤ"
  },
  "8610": {
    "postcode": "7508610",
    "prefecture": "山口県",
    "prefecture_kana": "ヤマグチケン",
    "prefecture_code": 35,
    "city": "下関市",
    "city_kana": "シモノセキシ",
    "town": "竹崎町",
    "town_kana": "タケザキチョウ",
    "street": "３丁目８−１３",
    "office_name": "中国電力ネットワーク　株式会社　下関ネットワークセンター",
    "office_name_kana": "チユウゴクデンリヨクネツトワ-ク カブシキガイシヤ シモノセキネツトワ-クセンタ-"
  }
}