{
  "0000": {
    "postcode": "7530000",
    "prefecture": "山口県",
    "prefecture_kana": "ヤマグチケン",
    "prefecture_code": 35,
    "city": "山口市",
    "city_kana": "ヤマグチシ",
    "town": "",
    "town_kana": "",
    "street": null,
    "office_name": null,
    "office_name_kana": null
  },
  "0001": {
    "postcode": "7530001",
    "prefecture": "山口県",
    "prefecture_kana": "ヤマグチケン",
    "prefecture_code": 35,
    "city": "山口市",
    "city_kana": "ヤマグチシ",
    "town": "宮野上",
    "town_kana": "ミヤノカミ",
    "street": null,
    "office_name": null,
    "office_name_kana": null
  },
  "0011": {
    "postcode": "7530011",
    "prefecture": "山口県",
    "prefecture_kana": "ヤマグチケン",
    "prefecture_code": 35,
    "city": "山口市",
    "city_kana": "ヤマグチシ",
    "town": "宮野下",
    "town_kana": "ミヤノシモ",
    "street": null,
    "office_name": null,
    "office_name_kana": null
  },
  "0012": {
    "postcode": "7530012",
    "prefecture": "山口県",
    "prefecture_kana": "ヤマグチケン",
    "prefecture_code": 35,
    "city": "山口市",
    "city_kana": "ヤマグチシ",
    "town": "青葉台",
    "town_kana": "アオバダイ",
    "street": null,
    "office_name": null,
    "office_name_kana": null
  },
  "0015": {
    "postcode": "7530015",
    "prefecture": "山口県",
    "prefecture_kana": "ヤマグチケン",
    "prefecture_code": 35,
    "city": "山口市",
    "city_kana": "ヤマグチシ",
    "town": "平野",
    "town_kana": "ヒラノ",
    "street": null,
    "office_name": null,
    "office_name_kana": null
  },
  "0016": {
    "postcode": "7530016",
    "prefecture": "山口県",
    "prefecture_kana": "ヤマグチケン",
    "prefecture_code": 35,
    "city": "山口市",
    "city_kana": "ヤマグチシ",
    "town": "緑ヶ丘",
    "town_kana": "ミドリガオカ",
    "street": null,
    "office_name": null,
    "office_name_kana": null
  },
  "0017": {
    "postcode": "7530017",
    "prefecture": "山口県",
    "prefecture_kana": "ヤマグチケン",
    "prefecture_code": 35,
    "city": "山口市",
    "city_kana": "ヤマグチシ",
    "town": "江良",
    "town_kana": "エラ",
    "street": null,
    "office_name": null,
    "office_name_kana": null
  },
  "0018": {
    "postcode": "7530018",
    "prefecture": "山口県",
    "prefecture_kana": "ヤマグチケン",
    "prefecture_code": 35,
    "city": "山口市",
    "city_kana": "ヤマグチシ",
    "town": "七尾台",
    "town_kana": "ナナオダイ",
    "street": null,
    "office_name": null,
    "office_name_kana": null
  },
  "0021": {
    "postcode": "7530021",
    "prefecture": "山口県",
    "prefecture_kana": "ヤマグチケン",
    "prefecture_code": 35,
    "city": "山口市",
    "city_kana": "ヤマグチシ",
    "town": "桜畠",
    "town_kana": "サクラバタケ",
    "street": null,
    "office_name": null,
    "office_name_kana": null
  },
  "0022": {
    "postcode": "7530022",
    "prefecture": "山口県",
    "prefecture_kana": "ヤマグチケン",
    "prefecture_code": 35,
    "city": "山口市",
    "city_kana": "ヤマグチシ",
    "town": "折本",
    "town_kana": "オリモト",
    "street": null,
    "office_name": null,
    "office_name_kana": null
  },
  "0023": {
    "postcode": "7530023",
    "prefecture": "山口県",
    "prefecture_kana": "ヤマグチケン",
    "prefecture_code": 35,
    "city": "山口市",
    "city_kana": "ヤマグチシ",
    "town": "三の宮",
    "town_kana": "サンノミヤ",
    "street": null,
    "office_name": null,
    "office_name_kana": null
  },
  "0024": {
    "postcode": "7530024",
    "prefecture": "山口県",
    "prefecture_kana": "ヤマグチケン",
    "prefecture_code": 35,
    "city": "山口市",
    "city_kana": "ヤマグチシ",
    "town": "金古曽町",
    "town_kana": "カナコソチョウ",
    "street": null,
    "office_name": null,
    "office_name_kana": null
  },
  "0025": {
    "postcode": "7530025",
    "prefecture": "山口県",
    "prefecture_kana": "ヤマグチケン",
    "prefecture_code": 35,
    "city": "山口市",
    "city_kana": "ヤマグチシ",
    "town": "芝崎町",
    "town_kana": "シバサキチョウ",
    "street": null,
    "office_name": null,
    "office_name_kana": null
  },
  "0031": {
    "postcode": "7530031",
    "prefecture": "山口県",
    "prefecture_kana": "ヤマグチケン",
    "prefecture_code": 35,
    "city": "山口市",
    "city_kana": "ヤマグチシ",
    "town": "古熊",
    "town_kana": "フルクマ",
    "street": null,
    "office_name": null,
    "office_name_kana": null
  },
  "0032": {
    "postcode": "7530032",
    "prefecture": "山口県",
    "prefecture_kana": "ヤマグチケン",
    "prefecture_code": 35,
    "city": "山口市",
    "city_kana": "ヤマグチシ",
    "town": "堂の前町",
    "town_kana": "ドウノマエチョウ",
    "street": null,
    "office_name": null,
    "office_name_kana": null
  },
  "0033": {
    "postcode": "7530033",
    "prefecture": "山口県",
    "prefecture_kana": "ヤマグチケン",
    "prefecture_code": 35,
    "city": "山口市",
    "city_kana": "ヤマグチシ",
    "town": "大市町",
    "town_kana": "オオイチチョウ",
    "street": null,
    "office_name": null,
    "office_name_kana": null
  },
  "0034": {
    "postcode": "7530034",
    "prefecture": "山口県",
    "prefecture_kana": "ヤマグチケン",
    "prefecture_code": 35,
    "city": "山口市",
    "city_kana": "ヤマグチシ",
    "town": "下竪小路",
    "town_kana": "シモタテコウジ",
    "street": null,
    "office_name": null,
    "office_name_kana": null
  },
  "0035": {
    "postcode": "7530035",
    "prefecture": "山口県",
    "prefecture_kana": "ヤマグチケン",
    "prefecture_code": 35,
    "city": "山口市",
    "city_kana": "ヤマグチシ",
    "town": "上竪小路",
    "town_kana": "カミタテコウジ",
    "street": null,
    "office_name": null,
    "office_name_kana": null
  },
  "0036": [
    {
      "postcode": "7530036",
      "prefecture": "山口県",
      "prefecture_kana": "ヤマグチケン",
      "prefecture_code": 35,
      "city": "山口市",
      "city_kana": "ヤマグチシ",
      "town": "円政寺",
      "town_kana": "エンセイジ",
      "street": null,
      "office_name": null,
      "office_name_kana": null
    },
    {
      "postcode": "7530036",
      "prefecture": "山口県",
      "prefecture_kana": "ヤマグチケン",
      "prefecture_code": 35,
      "city": "山口市",
      "city_kana": "ヤマグチシ",
      "town": "円政寺町",
      "town_kana": "エンセイジチョウ",
      "street": null,
      "office_name": null,
      "office_name_kana": null
    }
  ],
  "0037": {
    "postcode": "7530037",
    "prefecture": "山口県",
    "prefecture_kana": "ヤマグチケン",
    "prefecture_code": 35,
    "city": "山口市",
    "city_kana": "ヤマグチシ",
    "town": "道祖町",
    "town_kana": "ドウソチョウ",
    "street": null,
    "office_name": null,
    "office_name_kana": null
  },
  "0038": {
    "postcode": "7530038",
    "prefecture": "山口県",
    "prefecture_kana": "ヤマグチケン",
    "prefecture_code": 35,
    "city": "山口市",
    "city_kana": "ヤマグチシ",
    "town": "石観音町",
    "town_kana": "イシガンノンチョウ",
    "street": null,
    "office_name": null,
    "office_name_kana": null
  },
  "0041": {
    "postcode": "7530041",
    "prefecture": "山口県",
    "prefecture_kana": "ヤマグチケン",
    "prefecture_code": 35,
    "city": "山口市",
    "city_kana": "ヤマグチシ",
    "town": "東山",
    "town_kana": "ヒガシヤマ",
    "street": null,
    "office_name": null,
    "office_name_kana": null
  },
  "0042": {
    "postcode": "7530042",
    "prefecture": "山口県",
    "prefecture_kana": "ヤマグチケン",
    "prefecture_code": 35,
    "city": "山口市",
    "city_kana": "ヤマグチシ",
    "town": "惣太夫町",
    "town_kana": "ソウダユウチョウ",
    "street": null,
    "office_name": null,
    "office_name_kana": null
  },
  "0043": {
    "postcode": "7530043",
    "prefecture": "山口県",
    "prefecture_kana": "ヤマグチケン",
    "prefecture_code": 35,
    "city": "山口市",
    "city_kana": "ヤマグチシ",
    "town": "宮島町",
    "town_kana": "ミヤジマチョウ",
    "street": null,
    "office_name": null,
    "office_name_kana": null
  },
  "0044": {
    "postcode": "7530044",
    "prefecture": "山口県",
    "prefecture_kana": "ヤマグチケン",
    "prefecture_code": 35,
    "city": "山口市",
    "city_kana": "ヤマグチシ",
    "town": "鰐石町",
    "town_kana": "ワニイシチョウ",
    "street": null,
    "office_name": null,
    "office_name_kana": null
  },
  "0045": {
    "postcode": "7530045",
    "prefecture": "山口県",
    "prefecture_kana": "ヤマグチケン",
    "prefecture_code": 35,
    "city": "山口市",
    "city_kana": "ヤマグチシ",
    "town": "黄金町",
    "town_kana": "コガネチョウ",
    "street": null,
    "office_name": null,
    "office_name_kana": null
  },
  "0046": {
    "postcode": "7530046",
    "prefecture": "山口県",
    "prefecture_kana": "ヤマグチケン",
    "prefecture_code": 35,
    "city": "山口市",
    "city_kana": "ヤマグチシ",
    "town": "本町",
    "town_kana": "ホンマチ",
    "street": null,
    "office_name": null,
    "office_name_kana": null
  },
  "0047": {
    "postcode": "7530047",
    "prefecture": "山口県",
    "prefecture_kana": "ヤマグチケン",
    "prefecture_code": 35,
    "city": "山口市",
    "city_kana": "ヤマグチシ",
    "town": "道場門前",
    "town_kana": "ドウジョウモンゼン",
    "street": null,
    "office_name": null,
    "office_name_kana": null
  },
  "0048": {
    "postcode": "7530048",
    "prefecture": "山口県",
    "prefecture_kana": "ヤマグチケン",
    "prefecture_code": 35,
    "city": "山口市",
    "city_kana": "ヤマグチシ",
    "town": "駅通り",
    "town_kana": "エキドオリ",
    "street": null,
    "office_name": null,
    "office_name_kana": null
  },
  "0051": {
    "postcode": "7530051",
    "prefecture": "山口県",
    "prefecture_kana": "ヤマグチケン",
    "prefecture_code": 35,
    "city": "山口市",
    "city_kana": "ヤマグチシ",
    "town": "旭通り",
    "town_kana": "アサヒドオリ",
    "street": null,
    "office_name": null,
    "office_name_kana": null
  },
  "0052": {
    "postcode": "7530052",
    "prefecture": "山口県",
    "prefecture_kana": "ヤマグチケン",
    "prefecture_code": 35,
    "city": "山口市",
    "city_kana": "ヤマグチシ",
    "town": "三和町",
    "town_kana": "サンワチョウ",
    "street": null,
    "office_name": null,
    "office_name_kana": null
  },
  "0053": {
    "postcode": "7530053",
    "prefecture": "山口県",
    "prefecture_kana": "ヤマグチケン",
    "prefecture_code": 35,
    "city": "山口市",
    "city_kana": "ヤマグチシ",
    "town": "松美町",
    "town_kana": "マツミチョウ",
    "street": null,
    "office_name": null,
    "office_name_kana": null
  },
  "0054": {
    "postcode": "7530054",
    "prefecture": "山口県",
    "prefecture_kana": "ヤマグチケン",
    "prefecture_code": 35,
    "city": "山口市",
    "city_kana": "ヤマグチシ",
    "town": "富田原町",
    "town_kana": "トミタバラチョウ",
    "street": null,
    "office_name": null,
    "office_name_kana": null
  },
  "0055": {
    "postcode": "7530055",
    "prefecture": "山口県",
    "prefecture_kana": "ヤマグチケン",
    "prefecture_code": 35,
    "city": "山口市",
    "city_kana": "ヤマグチシ",
    "town": "今井町",
    "town_kana": "イマイチョウ",
    "street": null,
    "office_name": null,
    "office_name_kana": null
  },
  "0056": {
    "postcode": "7530056",
    "prefecture": "山口県",
    "prefecture_kana": "ヤマグチケン",
    "prefecture_code": 35,
    "city": "山口市",
    "city_kana": "ヤマグチシ",
    "town": "湯田温泉",
    "town_kana": "ユダオンセン",
    "street": null,
    "office_name": null,
    "office_name_kana": null
  },
  "0057": {
    "postcode": "7530057",
    "prefecture": "山口県",
    "prefecture_kana": "ヤマグチケン",
    "prefecture_code": 35,
    "city": "山口市",
    "city_kana": "ヤマグチシ",
    "town": "前町",
    "town_kana": "マエマチ",
    "street": null,
    "office_name": null,
    "office_name_kana": null
  },
  "0058": {
    "postcode": "7530058",
    "prefecture": "山口県",
    "prefecture_kana": "ヤマグチケン",
    "prefecture_code": 35,
    "city": "山口市",
    "city_kana": "ヤマグチシ",
    "town": "下市町",
    "town_kana": "シモイチチョウ",
    "street": null,
    "office_name": null,
    "office_name_kana": null
  },
  "0061": {
    "postcode": "7530061",
    "prefecture": "山口県",
    "prefecture_kana": "ヤマグチケン",
    "prefecture_code": 35,
    "city": "山口市",
    "city_kana": "ヤマグチシ",
    "town": "朝倉町",
    "town_kana": "アサクラチョウ",
    "street": null,
    "office_name": null,
    "office_name_kana": null
  },
  "0062": {
    "postcode": "7530062",
    "prefecture": "山口県",
    "prefecture_kana": "ヤマグチケン",
    "prefecture_code": 35,
    "city": "山口市",
    "city_kana": "ヤマグチシ",
    "town": "荻町",
    "town_kana": "オギチョウ",
    "street": null,
    "office_name": null,
    "office_name_kana": null
  },
  "0063": {
    "postcode": "7530063",
    "prefecture": "山口県",
    "prefecture_kana": "ヤマグチケン",
    "prefecture_code": 35,
    "city": "山口市",
    "city_kana": "ヤマグチシ",
    "town": "元町",
    "town_kana": "モトマチ",
    "street": null,
    "office_name": null,
    "office_name_kana": null
  },
  "0064": {
    "postcode": "7530064",
    "prefecture": "山口県",
    "prefecture_kana": "ヤマグチケン",
    "prefecture_code": 35,
    "city": "山口市",
    "city_kana": "ヤマグチシ",
    "town": "神田町",
    "town_kana": "カンダチョウ",
    "street": null,
    "office_name": null,
    "office_name_kana": null
  },
  "0065": {
    "postcode": "7530065",
    "prefecture": "山口県",
    "prefecture_kana": "ヤマグチケン",
    "prefecture_code": 35,
    "city": "山口市",
    "city_kana": "ヤマグチシ",
    "town": "楠木町",
    "town_kana": "クスノキチョウ",
    "street": null,
    "office_name": null,
    "office_name_kana": null
  },
  "0066": {
    "postcode": "7530066",
    "prefecture": "山口県",
    "prefecture_kana": "ヤマグチケン",
    "prefecture_code": 35,
    "city": "山口市",
    "city_kana": "ヤマグチシ",
    "town": "泉町",
    "town_kana": "イズミチョウ",
    "street": null,
    "office_name": null,
    "office_name_kana": null
  },
  "0067": {
    "postcode": "7530067",
    "prefecture": "山口県",
    "prefecture_kana": "ヤマグチケン",
    "prefecture_code": 35,
    "city": "山口市",
    "city_kana": "ヤマグチシ",
    "town": "赤妻町",
    "town_kana": "アカヅマチョウ",
    "street": null,
    "office_name": null,
    "office_name_kana": null
  },
  "0068": {
    "postcode": "7530068",
    "prefecture": "山口県",
    "prefecture_kana": "ヤマグチケン",
    "prefecture_code": 35,
    "city": "山口市",
    "city_kana": "ヤマグチシ",
    "town": "錦町",
    "town_kana": "ニシキチョウ",
    "street": null,
    "office_name": null,
    "office_name_kana": null
  },
  "0070": {
    "postcode": "7530070",
    "prefecture": "山口県",
    "prefecture_kana": "ヤマグチケン",
    "prefecture_code": 35,
    "city": "山口市",
    "city_kana": "ヤマグチシ",
    "town": "白石",
    "town_kana": "シライシ",
    "street": null,
    "office_name": null,
    "office_name_kana": null
  },
  "0071": {
    "postcode": "7530071",
    "prefecture": "山口県",
    "prefecture_kana": "ヤマグチケン",
    "prefecture_code": 35,
    "city": "山口市",
    "city_kana": "ヤマグチシ",
    "town": "滝町",
    "town_kana": "タキマチ",
    "street": null,
    "office_name": null,
    "office_name_kana": null
  },
  "0072": {
    "postcode": "7530072",
    "prefecture": "山口県",
    "prefecture_kana": "ヤマグチケン",
    "prefecture_code": 35,
    "city": "山口市",
    "city_kana": "ヤマグチシ",
    "town": "大手町",
    "town_kana": "オオテマチ",
    "street": null,
    "office_name": null,
    "office_name_kana": null
  },
  "0073": {
    "postcode": "7530073",
    "prefecture": "山口県",
    "prefecture_kana": "ヤマグチケン",
    "prefecture_code": 35,
    "city": "山口市",
    "city_kana": "ヤマグチシ",
    "town": "春日町",
    "town_kana": "カスガチョウ",
    "street": null,
    "office_name": null,
    "office_name_kana": null
  },
  "0074": {
    "postcode": "7530074",
    "prefecture": "山口県",
    "prefecture_kana": "ヤマグチケン",
    "prefecture_code": 35,
    "city": "山口市",
    "city_kana": "ヤマグチシ",
    "town": "中央",
    "town_kana": "チュウオウ",
    "street": null,
    "office_name": null,
    "office_name_kana": null
  },
  "0075": {
    "postcode": "7530075",
    "prefecture": "山口県",
    "prefecture_kana": "ヤマグチケン",
    "prefecture_code": 35,
    "city": "山口市",
    "city_kana": "ヤマグチシ",
    "town": "中園町",
    "town_kana": "ナカゾノチョウ",
    "street": null,
    "office_name": null,
    "office_name_kana": null
  },
  "0076": {
    "postcode": "7530076",
    "prefecture": "山口県",
    "prefecture_kana": "ヤマグチケン",
    "prefecture_code": 35,
    "city": "山口市",
    "city_kana": "ヤマグチシ",
    "town": "泉都町",
    "town_kana": "セントチョウ",
    "street": null,
    "office_name": null,
    "office_name_kana": null
  },
  "0077": {
    "postcode": "7530077",
    "prefecture": "山口県",
    "prefecture_kana": "ヤマグチケン",
    "prefecture_code": 35,
    "city": "山口市",
    "city_kana": "ヤマグチシ",
    "town": "熊野町",
    "town_kana": "クマノチョウ",
    "street": null,
    "office_name": null,
    "office_name_kana": null
  },
  "0078": {
    "postcode": "7530078",
    "prefecture": "山口県",
    "prefecture_kana": "ヤマグチケン",
    "prefecture_code": 35,
    "city": "山口市",
    "city_kana": "ヤマグチシ",
    "town": "緑町",
    "town_kana": "ミドリチョウ",
    "street": null,
    "office_name": null,
    "office_name_kana": null
  },
  "0079": {
    "postcode": "7530079",
    "prefecture": "山口県",
    "prefecture_kana": "ヤマグチケン",
    "prefecture_code": 35,
    "city": "山口市",
    "city_kana": "ヤマグチシ",
    "town": "糸米",
    "town_kana": "イトヨネ",
    "street": null,
    "office_name": null,
    "office_name_kana": null
  },
  "0081": {
    "postcode": "7530081",
    "prefecture": "山口県",
    "prefecture_kana": "ヤマグチケン",
    "prefecture_code": 35,
    "city": "山口市",
    "city_kana": "ヤマグチシ",
    "town": "香山町",
    "town_kana": "コウザンチョウ",
    "street": null,
    "office_name": null,
    "office_name_kana": null
  },
  "0082": {
    "postcode": "7530082",
    "prefecture": "山口県",
    "prefecture_kana": "ヤマグチケン",
    "prefecture_code": 35,
    "city": "山口市",
    "city_kana": "ヤマグチシ",
    "town": "水の上町",
    "town_kana": "ミズノウエチョウ",
    "street": null,
    "office_name": null,
    "office_name_kana": null
  },
  "0083": {
    "postcode": "7530083",
    "prefecture": "山口県",
    "prefecture_kana": "ヤマグチケン",
    "prefecture_code": 35,
    "city": "山口市",
    "city_kana": "ヤマグチシ",
    "town": "後河原",
    "town_kana": "ウシロガワラ",
    "street": null,
    "office_name": null,
    "office_name_kana": null
  },
  "0084": [
    {
      "postcode": "7530084",
      "prefecture": "山口県",
      "prefecture_kana": "ヤマグチケン",
      "prefecture_code": 35,
      "city": "山口市",
      "city_kana": "ヤマグチシ",
      "town": "久保小路",
      "town_kana": "クボショウジ",
      "street": null,
      "office_name": null,
      "office_name_kana": null
    },
    {
      "postcode": "7530084",
      "prefecture": "山口県",
      "prefecture_kana": "ヤマグチケン",
      "prefecture_code": 35,
      "city": "山口市",
      "city_kana": "ヤマグチシ",
      "town": "諸願小路",
      "town_kana": "ショガンショウジ",
      "street": null,
      "office_name": null,
      "office_name_kana": null
    },
    {
      "postcode": "7530084",
      "prefecture": "山口県",
      "prefecture_kana": "ヤマグチケン",
      "prefecture_code": 35,
      "city": "山口市",
      "city_kana": "ヤマグチシ",
      "town": "銭湯小路",
      "town_kana": "セントウショウジ",
      "street": null,
      "office_name": null,
      "office_name_kana": null
    }
  ],
  "0085": {
    "postcode": "7530085",
    "prefecture": "山口県",
    "prefecture_kana": "ヤマグチケン",
    "prefecture_code": 35,
    "city": "山口市",
    "city_kana": "ヤマグチシ",
    "town": "新馬場",
    "town_kana": "シンババ",
    "street": null,
    "office_name": null,
    "office_name_kana": null
  },
  "0086": {
    "postcode": "7530086",
    "prefecture": "山口県",
    "prefecture_kana": "ヤマグチケン",
    "prefecture_code": 35,
    "city": "山口市",
    "city_kana": "ヤマグチシ",
    "town": "中市町",
    "town_kana": "ナカイチチョウ",
    "street": null,
    "office_name": null,
    "office_name_kana": null
  },
  "0087": {
    "postcode": "7530087",
    "prefecture": "山口県",
    "prefecture_kana": "ヤマグチケン",
    "prefecture_code": 35,
    "city": "山口市",
    "city_kana": "ヤマグチシ",
    "town": "米屋町",
    "town_kana": "コメヤチョウ",
    "street": null,
    "office_name": null,
    "office_name_kana": null
  },
  "0088": [
    {
      "postcode": "7530088",
      "prefecture": "山口県",
      "prefecture_kana": "ヤマグチケン",
      "prefecture_code": 35,
      "city": "山口市",
      "city_kana": "ヤマグチシ",
      "town": "中河原",
      "town_kana": "ナカガワラ",
      "street": null,
      "office_name": null,
      "office_name_kana": null
    },
    {
      "postcode": "7530088",
      "prefecture": "山口県",
      "prefecture_kana": "ヤマグチケン",
      "prefecture_code": 35,
      "city": "山口市",
      "city_kana": "ヤマグチシ",
      "town": "中河原町",
      "town_kana": "ナカガワラチョウ",
      "street": null,
      "office_name": null,
      "office_name_kana": null
    }
  ],
  "0089": {
    "postcode": "7530089",
    "prefecture": "山口県",
    "prefecture_kana": "ヤマグチケン",
    "prefecture_code": 35,
    "city": "山口市",
    "city_kana": "ヤマグチシ",
    "town": "亀山町",
    "town_kana": "カメヤマチョウ",
    "street": null,
    "office_name": null,
    "office_name_kana": null
  },
  "0091": [
    {
      "postcode": "7530091",
      "prefecture": "山口県",
      "prefecture_kana": "ヤマグチケン",
      "prefecture_code": 35,
      "city": "山口市",
      "city_kana": "ヤマグチシ",
      "town": "上宇野令",
      "town_kana": "カミウノレイ",
      "street": null,
      "office_name": null,
      "office_name_kana": null
    },
    {
      "postcode": "7530091",
      "prefecture": "山口県",
      "prefecture_kana": "ヤマグチケン",
      "prefecture_code": 35,
      "city": "山口市",
      "city_kana": "ヤマグチシ",
      "town": "天花",
      "town_kana": "テンゲ",
      "street": null,
      "office_name": null,
      "office_name_kana": null
    }
  ],
  "0092": {
    "postcode": "7530092",
    "prefecture": "山口県",
    "prefecture_kana": "ヤマグチケン",
    "prefecture_code": 35,
    "city": "山口市",
    "city_kana": "ヤマグチシ",
    "town": "八幡馬場",
    "town_kana": "ヤワタノババ",
    "street": null,
    "office_name": null,
    "office_name_kana": null
  },
  "0093": {
    "postcode": "7530093",
    "prefecture": "山口県",
    "prefecture_kana": "ヤマグチケン",
    "prefecture_code": 35,
    "city": "山口市",
    "city_kana": "ヤマグチシ",
    "town": "大殿大路",
    "town_kana": "オオドノオオジ",
    "street": null,
    "office_name": null,
    "office_name_kana": null
  },
  "0094": {
    "postcode": "7530094",
    "prefecture": "山口県",
    "prefecture_kana": "ヤマグチケン",
    "prefecture_code": 35,
    "city": "山口市",
    "city_kana": "ヤマグチシ",
    "town": "野田",
    "town_kana": "ノダ",
    "street": null,
    "office_name": null,
    "office_name_kana": null
  },
  "0095": {
    "postcode": "7530095",
    "prefecture": "山口県",
    "prefecture_kana": "ヤマグチケン",
    "prefecture_code": 35,
    "city": "山口市",
    "city_kana": "ヤマグチシ",
    "town": "木町",
    "town_kana": "キマチ",
    "street": null,
    "office_name": null,
    "office_name_kana": null
  },
  "0101": {
    "postcode": "7530101",
    "prefecture": "山口県",
    "prefecture_kana": "ヤマグチケン",
    "prefecture_code": 35,
    "city": "萩市",
    "city_kana": "ハギシ",
    "town": "佐々並",
    "town_kana": "ササナミ",
    "street": null,
    "office_name": null,
    "office_name_kana": null
  },
  "0211": {
    "postcode": "7530211",
    "prefecture": "山口県",
    "prefecture_kana": "ヤマグチケン",
    "prefecture_code": 35,
    "city": "山口市",
    "city_kana": "ヤマグチシ",
    "town": "大内長野",
    "town_kana": "オオウチナガノ",
    "street": null,
    "office_name": null,
    "office_name_kana": null
  },
  "0212": {
    "postcode": "7530212",
    "prefecture": "山口県",
    "prefecture_kana": "ヤマグチケン",
    "prefecture_code": 35,
    "city": "山口市",
    "city_kana": "ヤマグチシ",
    "town": "下小鯖",
    "town_kana": "シモオサバ",
    "street": null,
    "office_name": null,
    "office_name_kana": null
  },
  "0213": {
    "postcode": "7530213",
    "prefecture": "山口県",
    "prefecture_kana": "ヤマグチケン",
    "prefecture_code": 35,
    "city": "山口市",
    "city_kana": "ヤマグチシ",
    "town": "上小鯖",
    "town_kana": "カミオサバ",
    "street": null,
    "office_name": null,
    "office_name_kana": null
  },
  "0214": {
    "postcode": "7530214",
    "prefecture": "山口県",
    "prefecture_kana": "ヤマグチケン",
    "prefecture_code": 35,
    "city": "山口市",
    "city_kana": "ヤマグチシ",
    "town": "大内御堀",
    "town_kana": "オオウチミホリ",
    "street": null,
    "office_name": null,
    "office_name_kana": null
  },
  "0215": {
    "postcode": "7530215",
    "prefecture": "山口県",
    "prefecture_kana": "ヤマグチケン",
    "prefecture_code": 35,
    "city": "山口市",
    "city_kana": "ヤマグチシ",
    "town": "大内矢田",
    "town_kana": "オオウチヤタ",
    "street": null,
    "office_name": null,
    "office_name_kana": null
  },
  "0221": {
    "postcode": "7530221",
    "prefecture": "山口県",
    "prefecture_kana": "ヤマグチケン",
    "prefecture_code": 35,
    "city": "山口市",
    "city_kana": "ヤマグチシ",
    "town": "大内矢田北",
    "town_kana": "オオウチヤタキタ",
    "street": null,
    "office_name": null,
    "office_name_kana": null
  },
  "0222": {
    "postcode": "7530222",
    "prefecture": "山口県",
    "prefecture_kana": "ヤマグチケン",
    "prefecture_code": 35,
    "city": "山口市",
    "city_kana": "ヤマグチシ",
    "town": "大内矢田南",
    "town_kana": "オオウチヤタミナミ",
    "street": null,
    "office_name": null,
    "office_name_kana": null
  },
  "0231": {
    "postcode": "7530231",
    "prefecture": "山口県",
    "prefecture_kana": "ヤマグチケン",
    "prefecture_code": 35,
    "city": "山口市",
    "city_kana": "ヤマグチシ",
    "town": "大内氷上",
    "town_kana": "オオウチヒカミ",
    "street": null,
    "office_name": null,
    "office_name_kana": null
  },
  "0241": {
    "postcode": "7530241",
    "prefecture": "山口県",
    "prefecture_kana": "ヤマグチケン",
    "prefecture_code": 35,
    "city": "山口市",
    "city_kana": "ヤマグチシ",
    "town": "大内問田",
    "town_kana": "オオウチトイダ",
    "street": null,
    "office_name": null,
    "office_name_kana": null
  },
  "0242": {
    "postcode": "7530242",
    "prefecture": "山口県",
    "prefecture_kana": "ヤマグチケン",
    "prefecture_code": 35,
    "city": "山口市",
    "city_kana": "ヤマグチシ",
    "town": "大内小京都",
    "town_kana": "オオウチショウキョウト",
    "street": null,
    "office_name": null,
    "office_name_kana": null
  },
  "0243": {
    "postcode": "7530243",
    "prefecture": "山口県",
    "prefecture_kana": "ヤマグチケン",
    "prefecture_code": 35,
    "city": "山口市",
    "city_kana": "ヤマグチシ",
    "town": "大内姫山台",
    "town_kana": "オオウチヒメヤマダイ",
    "street": null,
    "office_name": null,
    "office_name_kana": null
  },
  "0251": {
    "postcode": "7530251",
    "prefecture": "山口県",
    "prefecture_kana": "ヤマグチケン",
    "prefecture_code": 35,
    "city": "山口市",
    "city_kana": "ヤマグチシ",
    "town": "大内千坊",
    "town_kana": "オオウチセンボウ",
    "street": null,
    "office_name": null,
    "office_name_kana": null
  },
  "0252": {
    "postcode": "7530252",
    "prefecture": "山口県",
    "prefecture_kana": "ヤマグチケン",
    "prefecture_code": 35,
    "city": "山口市",
    "city_kana": "ヤマグチシ",
    "town": "大内中央",
    "town_kana": "オオウチチュウオウ",
    "street": null,
    "office_name": null,
    "office_name_kana": null
  },
  "0292": {
    "postcode": "7530292",
    "prefecture": "山口県",
    "prefecture_kana": "ヤマグチケン",
    "prefecture_code": 35,
    "city": "山口市",
    "city_kana": "ヤマグチシ",
    "town": "大内千坊",
    "town_kana": "オオウチセンボウ",
    "street": "６丁目７番１号",
    "office_name": "テレビ山口　株式会社　（ＴＹＳ）",
    "office_name_kana": "テレビヤマグチ カブシキガイシヤ (テイワイエス)"
  },
  "0293": {
    "postcode": "7530293",
    "prefecture": "山口県",
    "prefecture_kana": "ヤマグチケン",
    "prefecture_code": 35,
    "city": "山口市",
    "city_kana": "ヤマグチシ",
    "town": "大内長野",
    "town_kana": "オオウチナガノ",
    "street": "５１１",
    "office_name": "ＴＹＳハウジングプラザ山口「サエラ」",
    "office_name_kana": "テイワイエスハウジングプラザヤマグチ<サエラ>"
  },
  "0301": {
    "postcode": "7530301",
    "prefecture": "山口県",
    "prefecture_kana": "ヤマグチケン",
    "prefecture_code": 35,
    "city": "山口市",
    "city_kana": "ヤマグチシ",
    "town": "仁保上郷",
    "town_kana": "ニホカミゴウ",
    "street": null,
    "office_name": null,
    "office_name_kana": null
  },
  "0302": {
    "postcode": "7530302",
    "prefecture": "山口県",
    "prefecture_kana": "ヤマグチケン",
    "prefecture_code": 35,
    "city": "山口市",
    "city_kana": "ヤマグチシ",
    "town": "仁保中郷",
    "town_kana": "ニホナカゴウ",
    "street": null,
    "office_name": null,
    "office_name_kana": null
  },
  "0303": {
    "postcode": "7530303",
    "prefecture": "山口県",
    "prefecture_kana": "ヤマグチケン",
    "prefecture_code": 35,
    "city": "山口市",
    "city_kana": "ヤマグチシ",
    "town": "仁保下郷",
    "town_kana": "ニホシモゴウ",
    "street": null,
    "office_name": null,
    "office_name_kana": null
  },
  "0801": {
    "postcode": "7530801",
    "prefecture": "山口県",
    "prefecture_kana": "ヤマグチケン",
    "prefecture_code": 35,
    "city": "山口市",
    "city_kana": "ヤマグチシ",
    "town": "中尾",
    "town_kana": "ナカオ",
    "street": null,
    "office_name": null,
    "office_name_kana": null
  },
  "0811": {
    "postcode": "7530811",
    "prefecture": "山口県",
    "prefecture_kana": "ヤマグチケン",
    "prefecture_code": 35,
    "city": "山口市",
    "city_kana": "ヤマグチシ",
    "town": "吉敷",
    "town_kana": "ヨシキ",
    "street": null,
    "office_name": null,
    "office_name_kana": null
  },
  "0812": {
    "postcode": "7530812",
    "prefecture": "山口県",
    "prefecture_kana": "ヤマグチケン",
    "prefecture_code": 35,
    "city": "山口市",
    "city_kana": "ヤマグチシ",
    "town": "宝町",
    "town_kana": "タカラチョウ",
    "street": null,
    "office_name": null,
    "office_name_kana": null
  },
  "0813": {
    "postcode": "7530813",
    "prefecture": "山口県",
    "prefecture_kana": "ヤマグチケン",
    "prefecture_code": 35,
    "city": "山口市",
    "city_kana": "ヤマグチシ",
    "town": "吉敷中東",
    "town_kana": "ヨシキナカヒガシ",
    "street": null,
    "office_name": null,
    "office_name_kana": null
  },
  "0814": {
    "postcode": "7530814",
    "prefecture": "山口県",
    "prefecture_kana": "ヤマグチケン",
    "prefecture_code": 35,
    "city": "山口市",
    "city_kana": "ヤマグチシ",
    "town": "吉敷下東",
    "town_kana": "ヨシキシモヒガシ",
    "street": null,
    "office_name": null,
    "office_name_kana": null
  },
  "0815": {
    "postcode": "7530815",
    "prefecture": "山口県",
    "prefecture_kana": "ヤマグチケン",
    "prefecture_code": 35,
    "city": "山口市",
    "city_kana": "ヤマグチシ",
    "town": "維新公園",
    "town_kana": "イシンコウエン",
    "street": null,
    "office_name": null,
    "office_name_kana": null
  },
  "0816": {
    "postcode": "7530816",
    "prefecture": "山口県",
    "prefecture_kana": "ヤマグチケン",
    "prefecture_code": 35,
    "city": "山口市",
    "city_kana": "ヤマグチシ",
    "town": "吉敷佐畑",
    "town_kana": "ヨシキサバタ",
    "street": null,
    "office_name": null,
    "office_name_kana": null
  },
  "0817": {
    "postcode": "7530817",
    "prefecture": "山口県",
    "prefecture_kana": "ヤマグチケン",
    "prefecture_code": 35,
    "city": "山口市",
    "city_kana": "ヤマグチシ",
    "town": "吉敷赤田",
    "town_kana": "ヨシキアカダ",
    "street": null,
    "office_name": null,
    "office_name_kana": null
  },
  "0818": {
    "postcode": "7530818",
    "prefecture": "山口県",
    "prefecture_kana": "ヤマグチケン",
    "prefecture_code": 35,
    "city": "山口市",
    "city_kana": "ヤマグチシ",
    "town": "吉敷上東",
    "town_kana": "ヨシキカミヒガシ",
    "street": null,
    "office_name": null,
    "office_name_kana": null
  },
  "0821": {
    "postcode": "7530821",
    "prefecture": "山口県",
    "prefecture_kana": "ヤマグチケン",
    "prefecture_code": 35,
    "city": "山口市",
    "city_kana": "ヤマグチシ",
    "town": "葵",
    "town_kana": "アオイ",
    "street": null,
    "office_name": null,
    "office_name_kana": null
  },
  "0822": {
    "postcode": "7530822",
    "prefecture": "山口県",
    "prefecture_kana": "ヤマグチケン",
    "prefecture_code": 35,
    "city": "山口市",
    "city_kana": "ヤマグチシ",
    "town": "周布町",
    "town_kana": "スフチョウ",
    "street": null,
    "office_name": null,
    "office_name_kana": null
  },
  "0823": {
    "postcode": "7530823",
    "prefecture": "山口県",
    "prefecture_kana": "ヤマグチケン",
    "prefecture_code": 35,
    "city": "山口市",
    "city_kana": "ヤマグチシ",
    "town": "若宮町",
    "town_kana": "ワカミヤチョウ",
    "street": null,
    "office_name": null,
    "office_name_kana": null
  },
  "0824": {
    "postcode": "7530824",
    "prefecture": "山口県",
    "prefecture_kana": "ヤマグチケン",
    "prefecture_code": 35,
    "city": "山口市",
    "city_kana": "ヤマグチシ",
    "town": "穂積町",
    "town_kana": "ホヅミチョウ",
    "street": null,
    "office_name": null,
    "office_name_kana": null
  },
  "0825": {
    "postcode": "7530825",
    "prefecture": "山口県",
    "prefecture_kana": "ヤマグチケン",
    "prefecture_code": 35,
    "city": "山口市",
    "city_kana": "ヤマグチシ",
    "town": "矢原町",
    "town_kana": "ヤバラチョウ",
    "street": null,
    "office_name": null,
    "office_name_kana": null
  },
  "0826": {
    "postcode": "7530826",
    "prefecture": "山口県",
    "prefecture_kana": "ヤマグチケン",
    "prefecture_code": 35,
    "city": "山口市",
    "city_kana": "ヤマグチシ",
    "town": "幸町",
    "town_kana": "サイワイチョウ",
    "street": null,
    "office_name": null,
    "office_name_kana": null
  },
  "0831": {
    "postcode": "7530831",
    "prefecture": "山口県",
    "prefecture_kana": "ヤマグチケン",
    "prefecture_code": 35,
    "city": "山口市",
    "city_kana": "ヤマグチシ",
    "town": "平井",
    "town_kana": "ヒライ",
    "street": null,
    "office_name": null,
    "office_name_kana": null
  },
  "0841": {
    "postcode": "7530841",
    "prefecture": "山口県",
    "prefecture_kana": "ヤマグチケン",
    "prefecture_code": 35,
    "city": "山口市",
    "city_kana": "ヤマグチシ",
    "town": "吉田",
    "town_kana": "ヨシダ",
    "street": null,
    "office_name": null,
    "office_name_kana": null
  },
  "0851": {
    "postcode": "7530851",
    "prefecture": "山口県",
    "prefecture_kana": "ヤマグチケン",
    "prefecture_code": 35,
    "city": "山口市",
    "city_kana": "ヤマグチシ",
    "town": "黒川",
    "town_kana": "クロカワ",
    "street": null,
    "office_name": null,
    "office_name_kana": null
  },
  "0861": {
    "postcode": "7530861",
    "prefecture": "山口県",
    "prefecture_kana": "ヤマグチケン",
    "prefecture_code": 35,
    "city": "山口市",
    "city_kana": "ヤマグチシ",
    "town": "矢原",
    "town_kana": "ヤバラ",
    "street": null,
    "office_name": null,
    "office_name_kana": null
  },
  "0871": {
    "postcode": "7530871",
    "prefecture": "山口県",
    "prefecture_kana": "ヤマグチケン",
    "prefecture_code": 35,
    "city": "山口市",
    "city_kana": "ヤマグチシ",
    "town": "朝田",
    "town_kana": "アサダ",
    "street": null,
    "office_name": null,
    "office_name_kana": null
  },
  "0872": [
    {
      "postcode": "7530872",
      "prefecture": "山口県",
      "prefecture_kana": "ヤマグチケン",
      "prefecture_code": 35,
      "city": "山口市",
      "city_kana": "ヤマグチシ",
      "town": "朝田流通センター",
      "town_kana": "アサダリュウツウセンター",
      "street": null,
      "office_name": null,
      "office_name_kana": null
    },
    {
      "postcode": "7530872",
      "prefecture": "山口県",
      "prefecture_kana": "ヤマグチケン",
      "prefecture_code": 35,
      "city": "山口市",
      "city_kana": "ヤマグチシ",
      "town": "小郡上郷流通センター",
      "town_kana": "オゴオリカミゴウリュウツウセンター",
      "street": null,
      "office_name": null,
      "office_name_kana": null
    },
    {
      "postcode": "7530872",
      "prefecture": "山口県",
      "prefecture_kana": "ヤマグチケン",
      "prefecture_code": 35,
      "city": "山口市",
      "city_kana": "ヤマグチシ",
      "town": "山口県流通センター",
      "town_kana": "ヤマグチケンリュウツウセンター",
      "street": null,
      "office_name": null,
      "office_name_kana": null
    }
  ],
  "0891": {
    "postcode": "7530891",
    "prefecture": "山口県",
    "prefecture_kana": "ヤマグチケン",
    "prefecture_code": 35,
    "city": "山口市",
    "city_kana": "ヤマグチシ",
    "town": "上天花町",
    "town_kana": "カミテンゲマチ",
    "street": null,
    "office_name": null,
    "office_name_kana": null
  },
  "8501": {
    "postcode": "7538501",
    "prefecture": "山口県",
    "prefecture_kana": "ヤマグチケン",
    "prefecture_code": 35,
    "city": "山口市",
    "city_kana": "ヤマグチシ",
    "town": "滝町",
    "town_kana": "タキマチ",
    "street": "１−１",
    "office_name": "山口県庁",
    "office_name_kana": "ヤマグチケンチヨウ"
  },
  "8502": {
    "postcode": "7538502",
    "prefecture": "山口県",
    "prefecture_kana": "ヤマグチケン",
    "prefecture_code": 35,
    "city": "山口市",
    "city_kana": "ヤマグチシ",
    "town": "桜畠",
    "town_kana": "サクラバタケ",
    "street": "６丁目２番１号",
    "office_name": "公立大学法人　山口県立大学",
    "office_name_kana": "コウリツダイガクホウジン ヤマグチケンリツダイガク"
  },
  "8503": {
    "postcode": "7538503",
    "prefecture": "山口県",
    "prefecture_kana": "ヤマグチケン",
    "prefecture_code": 35,
    "city": "山口市",
    "city_kana": "ヤマグチシ",
    "town": "上宇野令",
    "town_kana": "カミウノレイ",
    "street": "７８４",
    "office_name": "陸上自衛隊　山口駐屯地　業務隊",
    "office_name_kana": "リクジヨウジエイタイ ヤマグチチユウトンチ ギヨウムタイ"
  },
  "8504": {
    "postcode": "7538504",
    "prefecture": "山口県",
    "prefecture_kana": "ヤマグチケン",
    "prefecture_code": 35,
    "city": "山口市",
    "city_kana": "ヤマグチシ",
    "town": "滝町",
    "town_kana": "タキマチ",
    "street": "１−１",
    "office_name": "山口県警察　本部",
    "office_name_kana": "ヤマグチケンケイサツ ホンブ"
  },
  "8506": {
    "postcode": "7538506",
    "prefecture": "山口県",
    "prefecture_kana": "ヤマグチケン",
    "prefecture_code": 35,
    "city": "山口市",
    "city_kana": "ヤマグチシ",
    "town": "中央",
    "town_kana": "チュウオウ",
    "street": "２丁目３−１",
    "office_name": "中国電力　株式会社　山口支社",
    "office_name_kana": "チユウゴクデンリヨク カブシキガイシヤ ヤマグチシシヤ"
  },
  "8508": {
    "postcode": "7538508",
    "prefecture": "山口県",
    "prefecture_kana": "ヤマグチケン",
    "prefecture_code": 35,
    "city": "山口市",
    "city_kana": "ヤマグチシ",
    "town": "糸米",
    "town_kana": "イトヨネ",
    "street": "１丁目９−１",
    "office_name": "山口県立　山口高等学校",
    "office_name_kana": "ヤマグチケンリツ ヤマグチコウトウガツコウ"
  },
  "8509": {
    "postcode": "7538509",
    "prefecture": "山口県",
    "prefecture_kana": "ヤマグチケン",
    "prefecture_code": 35,
    "city": "山口市",
    "city_kana": "ヤマグチシ",
    "town": "中河原町",
    "town_kana": "ナカガワラチョウ",
    "street": "６−１６山口地方合同庁舎２号館",
    "office_name": "山口税務署",
    "office_name_kana": "ヤマグチゼイムシヨ"
  },
  "8510": {
    "postcode": "7538510",
    "prefecture": "山口県",
    "prefecture_kana": "ヤマグチケン",
    "prefecture_code": 35,
    "city": "山口市",
    "city_kana": "ヤマグチシ",
    "town": "中河原町",
    "town_kana": "ナカガワラチョウ",
    "street": "６−１６山口地方合同庁舎２号館",
    "office_name": "山口労働局",
    "office_name_kana": "ヤマグチロウドウキヨク"
  },
  "8511": {
    "postcode": "7538511",
    "prefecture": "山口県",
    "prefecture_kana": "ヤマグチケン",
    "prefecture_code": 35,
    "city": "山口市",
    "city_kana": "ヤマグチシ",
    "town": "吉田",
    "town_kana": "ヨシダ",
    "street": "１６７７−１",
    "office_name": "国立大学法人　山口大学　本部",
    "office_name_kana": "コクリツダイガクホウジン ヤマグチダイガク ホンブ"
  },
  "8517": {
    "postcode": "7538517",
    "prefecture": "山口県",
    "prefecture_kana": "ヤマグチケン",
    "prefecture_code": 35,
    "city": "山口市",
    "city_kana": "ヤマグチシ",
    "town": "緑町",
    "town_kana": "ミドリチョウ",
    "street": "２−１１",
    "office_name": "済生会　山口総合病院",
    "office_name_kana": "サイセイカイ ヤマグチソウゴウビヨウイン"
  },
  "8518": {
    "postcode": "7538518",
    "prefecture": "山口県",
    "prefecture_kana": "ヤマグチケン",
    "prefecture_code": 35,
    "city": "山口市",
    "city_kana": "ヤマグチシ",
    "town": "中央",
    "town_kana": "チュウオウ",
    "street": "２丁目３−１",
    "office_name": "中国電力ネットワーク　株式会社　山口ネットワークセンター",
    "office_name_kana": "チユウゴクデンリヨクネツトワ-ク カブシキガイシヤ ヤマグチネツトワ-クセンタ-"
  },
  "8519": {
    "postcode": "7538519",
    "prefecture": "山口県",
    "prefecture_kana": "ヤマグチケン",
    "prefecture_code": 35,
    "city": "山口市",
    "city_kana": "ヤマグチシ",
    "town": "八幡馬場",
    "town_kana": "ヤワタノババ",
    "street": "５３−１",
    "office_name": "綜合病院　山口赤十字病院",
    "office_name_kana": "ソウゴウビヨウイン ヤマグチセキジユウジビヨウイン"
  },
  "8520": {
    "postcode": "7538520",
    "prefecture": "山口県",
    "prefecture_kana": "ヤマグチケン",
    "prefecture_code": 35,
    "city": "山口市",
    "city_kana": "ヤマグチシ",
    "town": "朝田",
    "town_kana": "アサダ",
    "street": "１９８０番地７",
    "office_name": "山口県　国民健康保険団体連合会",
    "office_name_kana": "ヤマグチケン コクミンケンコウホケンダンタイレンゴウカイ"
  },
  "8521": {
    "postcode": "7538521",
    "prefecture": "山口県",
    "prefecture_kana": "ヤマグチケン",
    "prefecture_code": 35,
    "city": "山口市",
    "city_kana": "ヤマグチシ",
    "town": "緑町",
    "town_kana": "ミドリチョウ",
    "street": "３−３１",
    "office_name": "株式会社　ＦＭ山口",
    "office_name_kana": "カブシキガイシヤ エフエムヤマグチ"
  },
  "8522": {
    "postcode": "7538522",
    "prefecture": "山口県",
    "prefecture_kana": "ヤマグチケン",
    "prefecture_code": 35,
    "city": "山口市",
    "city_kana": "ヤマグチシ",
    "town": "葵",
    "town_kana": "アオイ",
    "street": "１丁目３−３８",
    "office_name": "山口県社会保険診療報酬支払基金",
    "office_name_kana": "ヤマグチケンシヤカイホケンシンリヨウホウシユウシハライキキン"
  },
  "8525": {
    "postcode": "7538525",
    "prefecture": "山口県",
    "prefecture_kana": "ヤマグチケン",
    "prefecture_code": 35,
    "city": "山口市",
    "city_kana": "ヤマグチシ",
    "town": "松美町",
    "town_kana": "マツミチョウ",
    "street": "３−７５",
    "office_name": "山口刑務所",
    "office_name_kana": "ヤマグチケイムシヨ"
  },
  "8526": {
    "postcode": "7538526",
    "prefecture": "山口県",
    "prefecture_kana": "ヤマグチケン",
    "prefecture_code": 35,
    "city": "山口市",
    "city_kana": "ヤマグチシ",
    "town": "中河原町",
    "town_kana": "ナカガワラチョウ",
    "street": "６−１６山口地方合同庁舎",
    "office_name": "中国財務局　山口財務事務所",
    "office_name_kana": "チユウゴクザイムキヨク ヤマグチザイムジムシヨ"
  },
  "8528": {
    "postcode": "7538528",
    "prefecture": "山口県",
    "prefecture_kana": "ヤマグチケン",
    "prefecture_code": 35,
    "city": "山口市",
    "city_kana": "ヤマグチシ",
    "town": "大手町",
    "town_kana": "オオテマチ",
    "street": "９−１１山口県自治会館",
    "office_name": "山口県　町村会",
    "office_name_kana": "ヤマグチケン チヨウソンカイ"
  },
  "8529": {
    "postcode": "7538529",
    "prefecture": "山口県",
    "prefecture_kana": "ヤマグチケン",
    "prefecture_code": 35,
    "city": "山口市",
    "city_kana": "ヤマグチシ",
    "town": "大手町",
    "town_kana": "オオテマチ",
    "street": "９−１１山口県自治会館",
    "office_name": "山口県市町村職員　共済組合",
    "office_name_kana": "ヤマグチケンシチヨウソンシヨクイン キヨウサイクミアイ"
  },
  "8530": {
    "postcode": "7538530",
    "prefecture": "山口県",
    "prefecture_kana": "ヤマグチケン",
    "prefecture_code": 35,
    "city": "山口市",
    "city_kana": "ヤマグチシ",
    "town": "駅通り",
    "town_kana": "エキドオリ",
    "street": "１丁目１−１",
    "office_name": "山口中村学園　中村女子高等学校",
    "office_name_kana": "ヤマグチナカムラガクエン ナカムラジヨシコウトウガツコウ"
  },
  "8531": {
    "postcode": "7538531",
    "prefecture": "山口県",
    "prefecture_kana": "ヤマグチケン",
    "prefecture_code": 35,
    "city": "山口市",
    "city_kana": "ヤマグチシ",
    "town": "黒川",
    "town_kana": "クロカワ",
    "street": "２５８０−１",
    "office_name": "山口県立　西京高等学校",
    "office_name_kana": "ヤマグチケンリツ サイキヨウコウトウガツコウ"
  },
  "8533": {
    "postcode": "7538533",
    "prefecture": "山口県",
    "prefecture_kana": "ヤマグチケン",
    "prefecture_code": 35,
    "city": "山口市",
    "city_kana": "ヤマグチシ",
    "town": "道場門前",
    "town_kana": "ドウジョウモンゼン",
    "street": "１丁目３−１１",
    "office_name": "株式会社　文栄堂",
    "office_name_kana": "カブシキガイシヤ ブンエイドウ"
  },
  "8534": {
    "postcode": "7538534",
    "prefecture": "山口県",
    "prefecture_kana": "ヤマグチケン",
    "prefecture_code": 35,
    "city": "山口市",
    "city_kana": "ヤマグチシ",
    "town": "野田",
    "town_kana": "ノダ",
    "street": "１７２−５",
    "office_name": "山口県赤十字血液センター",
    "office_name_kana": "ヤマグチケンセキジユウジケツエキセンタ-"
  },
  "8535": {
    "postcode": "7538535",
    "prefecture": "山口県",
    "prefecture_kana": "ヤマグチケン",
    "prefecture_code": 35,
    "city": "山口市",
    "city_kana": "ヤマグチシ",
    "town": "天花",
    "town_kana": "テンゲ",
    "street": "一丁目５番２２号",
    "office_name": "自由民主党　山口県支部連合会",
    "office_name_kana": "ジユウミンシユトウ ヤマグチケンシブレンゴウカイ"
  },
  "8536": {
    "postcode": "7538536",
    "prefecture": "山口県",
    "prefecture_kana": "ヤマグチケン",
    "prefecture_code": 35,
    "city": "山口市",
    "city_kana": "ヤマグチシ",
    "town": "朝田",
    "town_kana": "アサダ",
    "street": "１２８５",
    "office_name": "パナソニックエレクトロニックデバイスジャパン　株式会社　アルミキャパシタディビジョン",
    "office_name_kana": "パナソニツクエレクトロニツクデバイスジヤパン カブシキカイシヤ アルミキヤパシタデイビジヨン"
  },
  "8537": {
    "postcode": "7538537",
    "prefecture": "山口県",
    "prefecture_kana": "ヤマグチケン",
    "prefecture_code": 35,
    "city": "山口市",
    "city_kana": "ヤマグチシ",
    "town": "維新公園",
    "town_kana": "イシンコウエン",
    "street": "３丁目１１番１号",
    "office_name": "山口県農業協同組合　山口統括本部",
    "office_name_kana": "ヤマグチケンノウギヨウキヨウドウクミアイ ヤマグチトウカツホンブ"
  },
  "8538": {
    "postcode": "7538538",
    "prefecture": "山口県",
    "prefecture_kana": "ヤマグチケン",
    "prefecture_code": 35,
    "city": "山口市",
    "city_kana": "ヤマグチシ",
    "town": "中園町",
    "town_kana": "ナカゾノチョウ",
    "street": "７−４０",
    "office_name": "山口ケーブルビジョン　株式会社",
    "office_name_kana": "ヤマグチケ-ブルビジヨン カブシキガイシヤ"
  },
  "8555": {
    "postcode": "7538555",
    "prefecture": "山口県",
    "prefecture_kana": "ヤマグチケン",
    "prefecture_code": 35,
    "city": "山口市",
    "city_kana": "ヤマグチシ",
    "town": "大手町",
    "town_kana": "オオテマチ",
    "street": "９−６山口県社会福祉会館",
    "office_name": "山口県社会福祉事業団",
    "office_name_kana": "ヤマグチケンシヤカイフクシジギヨウダン"
  },
  "8558": {
    "postcode": "7538558",
    "prefecture": "山口県",
    "prefecture_kana": "ヤマグチケン",
    "prefecture_code": 35,
    "city": "山口市",
    "city_kana": "ヤマグチシ",
    "town": "黒川",
    "town_kana": "クロカワ",
    "street": "３３８０",
    "office_name": "医療法人　和同会　山口リハビリテーション病院",
    "office_name_kana": "イリヨウホウジン ワドウカイ ヤマグチリハビリテ-シヨンビヨウイン"
  },
  "8570": {
    "postcode": "7538570",
    "prefecture": "山口県",
    "prefecture_kana": "ヤマグチケン",
    "prefecture_code": 35,
    "city": "山口市",
    "city_kana": "ヤマグチシ",
    "town": "中央",
    "town_kana": "チュウオウ",
    "street": "３丁目５−２５",
    "office_name": "ＹＡＢ　山口朝日放送",
    "office_name_kana": "ワイエ-ビ- ヤマグチアサヒホウソウ"
  },
  "8577": {
    "postcode": "7538577",
    "prefecture": "山口県",
    "prefecture_kana": "ヤマグチケン",
    "prefecture_code": 35,
    "city": "山口市",
    "city_kana": "ヤマグチシ",
    "town": "中河原町",
    "town_kana": "ナカガワラチョウ",
    "street": "６−１６山口地方合同庁舎",
    "office_name": "山口地方法務局",
    "office_name_kana": "ヤマグチチホウホウムキヨク"
  },
  "8588": {
    "postcode": "7538588",
    "prefecture": "山口県",
    "prefecture_kana": "ヤマグチケン",
    "prefecture_code": 35,
    "city": "山口市",
    "city_kana": "ヤマグチシ",
    "town": "吉敷下東",
    "town_kana": "ヨシキシモヒガシ",
    "street": "３丁目１−１",
    "office_name": "山口県　山口健康福祉センター",
    "office_name_kana": "ヤマグチケン ヤマグチケンコウフクシセンタ-"
  },
  "8650": {
    "postcode": "7538650",
    "prefecture": "山口県",
    "prefecture_kana": "ヤマグチケン",
    "prefecture_code": 35,
    "city": "山口市",
    "city_kana": "ヤマグチシ",
    "town": "亀山町",
    "town_kana": "カメヤマチョウ",
    "street": "２−１（山口中央郵便局私書箱第７４号）",
    "office_name": "山口市役所",
    "office_name_kana": "ヤマグチシヤクシヨ"
  },
  "8653": {
    "postcode": "7538653",
    "prefecture": "山口県",
    "prefecture_kana": "ヤマグチケン",
    "prefecture_code": 35,
    "city": "山口市",
    "city_kana": "ヤマグチシ",
    "town": "駅通り",
    "town_kana": "エキドオリ",
    "street": "２丁目５−５（山口中央郵便局私書箱第２号）",
    "office_name": "山口銀行　山口支店",
    "office_name_kana": "ヤマグチギンコウ ヤマグチシテン"
  },
  "8654": {
    "postcode": "7538654",
    "prefecture": "山口県",
    "prefecture_kana": "ヤマグチケン",
    "prefecture_code": 35,
    "city": "山口市",
    "city_kana": "ヤマグチシ",
    "town": "中央",
    "town_kana": "チュウオウ",
    "street": "４丁目５−１６（山口中央郵便局私書箱第２０号）",
    "office_name": "山口県　信用保証協会",
    "office_name_kana": "ヤマグチケン シンヨウホシヨウキヨウカイ"
  }
}