{
  "0000": {
    "postcode": "7600000",
    "prefecture": "香川県",
    "prefecture_kana": "カガワケン",
    "prefecture_code": 37,
    "city": "高松市",
    "city_kana": "タカマツシ",
    "town": "",
    "town_kana": "",
    "street": null,
    "office_name": null,
    "office_name_kana": null
  },
  "0001": {
    "postcode": "7600001",
    "prefecture": "香川県",
    "prefecture_kana": "カガワケン",
    "prefecture_code": 37,
    "city": "高松市",
    "city_kana": "タカマツシ",
    "town": "新北町",
    "town_kana": "シンキタマチ",
    "street": null,
    "office_name": null,
    "office_name_kana": null
  },
  "0002": {
    "postcode": "7600002",
    "prefecture": "香川県",
    "prefecture_kana": "カガワケン",
    "prefecture_code": 37,
    "city": "高松市",
    "city_kana": "タカマツシ",
    "town": "茜町",
    "town_kana": "アカネチョウ",
    "street": null,
    "office_name": null,
    "office_name_kana": null
  },
  "0003": {
    "postcode": "7600003",
    "prefecture": "香川県",
    "prefecture_kana": "カガワケン",
    "prefecture_code": 37,
    "city": "高松市",
    "city_kana": "タカマツシ",
    "town": "西町",
    "town_kana": "ニシマチ",
    "street": null,
    "office_name": null,
    "office_name_kana": null
  },
  "0004": {
    "postcode": "7600004",
    "prefecture": "香川県",
    "prefecture_kana": "カガワケン",
    "prefecture_code": 37,
    "city": "高松市",
    "city_kana": "タカマツシ",
    "town": "西宝町",
    "town_kana": "サイホウチョウ",
    "street": null,
    "office_name": null,
    "office_name_kana": null
  },
  "0005": {
    "postcode": "7600005",
    "prefecture": "香川県",
    "prefecture_kana": "カガワケン",
    "prefecture_code": 37,
    "city": "高松市",
    "city_kana": "タカマツシ",
    "town": "宮脇町",
    "town_kana": "ミヤワキチョウ",
    "street": null,
    "office_name": null,
    "office_name_kana": null
  },
  "0006": {
    "postcode": "7600006",
    "prefecture": "香川県",
    "prefecture_kana": "カガワケン",
    "prefecture_code": 37,
    "city": "高松市",
    "city_kana": "タカマツシ",
    "town": "亀岡町",
    "town_kana": "カメオカチョウ",
    "street": null,
    "office_name": null,
    "office_name_kana": null
  },
  "0007": {
    "postcode": "7600007",
    "prefecture": "香川県",
    "prefecture_kana": "カガワケン",
    "prefecture_code": 37,
    "city": "高松市",
    "city_kana": "タカマツシ",
    "town": "中央町",
    "town_kana": "チュウオウチョウ",
    "street": null,
    "office_name": null,
    "office_name_kana": null
  },
  "0008": {
    "postcode": "7600008",
    "prefecture": "香川県",
    "prefecture_kana": "カガワケン",
    "prefecture_code": 37,
    "city": "高松市",
    "city_kana": "タカマツシ",
    "town": "中野町",
    "town_kana": "ナカノチョウ",
    "street": null,
    "office_name": null,
    "office_name_kana": null
  },
  "0009": {
    "postcode": "7600009",
    "prefecture": "香川県",
    "prefecture_kana": "カガワケン",
    "prefecture_code": 37,
    "city": "高松市",
    "city_kana": "タカマツシ",
    "town": "峰山町",
    "town_kana": "ミネヤマチョウ",
    "street": null,
    "office_name": null,
    "office_name_kana": null
  },
  "0011": {
    "postcode": "7600011",
    "prefecture": "香川県",
    "prefecture_kana": "カガワケン",
    "prefecture_code": 37,
    "city": "高松市",
    "city_kana": "タカマツシ",
    "town": "浜ノ町",
    "town_kana": "ハマノチョウ",
    "street": null,
    "office_name": null,
    "office_name_kana": null
  },
  "0012": {
    "postcode": "7600012",
    "prefecture": "香川県",
    "prefecture_kana": "カガワケン",
    "prefecture_code": 37,
    "city": "高松市",
    "city_kana": "タカマツシ",
    "town": "瀬戸内町",
    "town_kana": "セトウチチョウ",
    "street": null,
    "office_name": null,
    "office_name_kana": null
  },
  "0013": {
    "postcode": "7600013",
    "prefecture": "香川県",
    "prefecture_kana": "カガワケン",
    "prefecture_code": 37,
    "city": "高松市",
    "city_kana": "タカマツシ",
    "town": "扇町",
    "town_kana": "オウギマチ",
    "street": null,
    "office_name": null,
    "office_name_kana": null
  },
  "0014": {
    "postcode": "7600014",
    "prefecture": "香川県",
    "prefecture_kana": "カガワケン",
    "prefecture_code": 37,
    "city": "高松市",
    "city_kana": "タカマツシ",
    "town": "昭和町",
    "town_kana": "ショウワチョウ",
    "street": null,
    "office_name": null,
    "office_name_kana": null
  },
  "0015": {
    "postcode": "7600015",
    "prefecture": "香川県",
    "prefecture_kana": "カガワケン",
    "prefecture_code": 37,
    "city": "高松市",
    "city_kana": "タカマツシ",
    "town": "紫雲町",
    "town_kana": "シウンチョウ",
    "street": null,
    "office_name": null,
    "office_name_kana": null
  },
  "0016": {
    "postcode": "7600016",
    "prefecture": "香川県",
    "prefecture_kana": "カガワケン",
    "prefecture_code": 37,
    "city": "高松市",
    "city_kana": "タカマツシ",
    "town": "幸町",
    "town_kana": "サイワイチョウ",
    "street": null,
    "office_name": null,
    "office_name_kana": null
  },
  "0017": {
    "postcode": "7600017",
    "prefecture": "香川県",
    "prefecture_kana": "カガワケン",
    "prefecture_code": 37,
    "city": "高松市",
    "city_kana": "タカマツシ",
    "town": "番町",
    "town_kana": "バンチョウ",
    "street": null,
    "office_name": null,
    "office_name_kana": null
  },
  "0018": {
    "postcode": "7600018",
    "prefecture": "香川県",
    "prefecture_kana": "カガワケン",
    "prefecture_code": 37,
    "city": "高松市",
    "city_kana": "タカマツシ",
    "town": "天神前",
    "town_kana": "テンジンマエ",
    "street": null,
    "office_name": null,
    "office_name_kana": null
  },
  "0019": {
    "postcode": "7600019",
    "prefecture": "香川県",
    "prefecture_kana": "カガワケン",
    "prefecture_code": 37,
    "city": "高松市",
    "city_kana": "タカマツシ",
    "town": "サンポート",
    "town_kana": "サンポート",
    "street": null,
    "office_name": null,
    "office_name_kana": null
  },
  "0020": {
    "postcode": "7600020",
    "prefecture": "香川県",
    "prefecture_kana": "カガワケン",
    "prefecture_code": 37,
    "city": "高松市",
    "city_kana": "タカマツシ",
    "town": "錦町",
    "town_kana": "ニシキマチ",
    "street": null,
    "office_name": null,
    "office_name_kana": null
  },
  "0021": {
    "postcode": "7600021",
    "prefecture": "香川県",
    "prefecture_kana": "カガワケン",
    "prefecture_code": 37,
    "city": "高松市",
    "city_kana": "タカマツシ",
    "town": "西の丸町",
    "town_kana": "ニシノマルチョウ",
    "street": null,
    "office_name": null,
    "office_name_kana": null
  },
  "0022": {
    "postcode": "7600022",
    "prefecture": "香川県",
    "prefecture_kana": "カガワケン",
    "prefecture_code": 37,
    "city": "高松市",
    "city_kana": "タカマツシ",
    "town": "西内町",
    "town_kana": "ニシウチマチ",
    "street": null,
    "office_name": null,
    "office_name_kana": null
  },
  "0023": {
    "postcode": "7600023",
    "prefecture": "香川県",
    "prefecture_kana": "カガワケン",
    "prefecture_code": 37,
    "city": "高松市",
    "city_kana": "タカマツシ",
    "town": "寿町",
    "town_kana": "コトブキチョウ",
    "street": null,
    "office_name": null,
    "office_name_kana": null
  },
  "0024": {
    "postcode": "7600024",
    "prefecture": "香川県",
    "prefecture_kana": "カガワケン",
    "prefecture_code": 37,
    "city": "高松市",
    "city_kana": "タカマツシ",
    "town": "兵庫町",
    "town_kana": "ヒョウゴマチ",
    "street": null,
    "office_name": null,
    "office_name_kana": null
  },
  "0025": {
    "postcode": "7600025",
    "prefecture": "香川県",
    "prefecture_kana": "カガワケン",
    "prefecture_code": 37,
    "city": "高松市",
    "city_kana": "タカマツシ",
    "town": "古新町",
    "town_kana": "フルジンマチ",
    "street": null,
    "office_name": null,
    "office_name_kana": null
  },
  "0026": {
    "postcode": "7600026",
    "prefecture": "香川県",
    "prefecture_kana": "カガワケン",
    "prefecture_code": 37,
    "city": "高松市",
    "city_kana": "タカマツシ",
    "town": "磨屋町",
    "town_kana": "トギヤマチ",
    "street": null,
    "office_name": null,
    "office_name_kana": null
  },
  "0027": {
    "postcode": "7600027",
    "prefecture": "香川県",
    "prefecture_kana": "カガワケン",
    "prefecture_code": 37,
    "city": "高松市",
    "city_kana": "タカマツシ",
    "town": "紺屋町",
    "town_kana": "コンヤマチ",
    "street": null,
    "office_name": null,
    "office_name_kana": null
  },
  "0028": {
    "postcode": "7600028",
    "prefecture": "香川県",
    "prefecture_kana": "カガワケン",
    "prefecture_code": 37,
    "city": "高松市",
    "city_kana": "タカマツシ",
    "town": "鍛冶屋町",
    "town_kana": "カジヤマチ",
    "street": null,
    "office_name": null,
    "office_name_kana": null
  },
  "0029": {
    "postcode": "7600029",
    "prefecture": "香川県",
    "prefecture_kana": "カガワケン",
    "prefecture_code": 37,
    "city": "高松市",
    "city_kana": "タカマツシ",
    "town": "丸亀町",
    "town_kana": "マルガメマチ",
    "street": null,
    "office_name": null,
    "office_name_kana": null
  },
  "0030": {
    "postcode": "7600030",
    "prefecture": "香川県",
    "prefecture_kana": "カガワケン",
    "prefecture_code": 37,
    "city": "高松市",
    "city_kana": "タカマツシ",
    "town": "玉藻町",
    "town_kana": "タマモチョウ",
    "street": null,
    "office_name": null,
    "office_name_kana": null
  },
  "0031": {
    "postcode": "7600031",
    "prefecture": "香川県",
    "prefecture_kana": "カガワケン",
    "prefecture_code": 37,
    "city": "高松市",
    "city_kana": "タカマツシ",
    "town": "北浜町",
    "town_kana": "キタハマチョウ",
    "street": null,
    "office_name": null,
    "office_name_kana": null
  },
  "0032": {
    "postcode": "7600032",
    "prefecture": "香川県",
    "prefecture_kana": "カガワケン",
    "prefecture_code": 37,
    "city": "高松市",
    "city_kana": "タカマツシ",
    "town": "本町",
    "town_kana": "ホンマチ",
    "street": null,
    "office_name": null,
    "office_name_kana": null
  },
  "0033": {
    "postcode": "7600033",
    "prefecture": "香川県",
    "prefecture_kana": "カガワケン",
    "prefecture_code": 37,
    "city": "高松市",
    "city_kana": "タカマツシ",
    "town": "丸の内",
    "town_kana": "マルノウチ",
    "street": null,
    "office_name": null,
    "office_name_kana": null
  },
  "0034": {
    "postcode": "7600034",
    "prefecture": "香川県",
    "prefecture_kana": "カガワケン",
    "prefecture_code": 37,
    "city": "高松市",
    "city_kana": "タカマツシ",
    "town": "内町",
    "town_kana": "ウチマチ",
    "street": null,
    "office_name": null,
    "office_name_kana": null
  },
  "0035": {
    "postcode": "7600035",
    "prefecture": "香川県",
    "prefecture_kana": "カガワケン",
    "prefecture_code": 37,
    "city": "高松市",
    "city_kana": "タカマツシ",
    "town": "鶴屋町",
    "town_kana": "ツルヤマチ",
    "street": null,
    "office_name": null,
    "office_name_kana": null
  },
  "0036": {
    "postcode": "7600036",
    "prefecture": "香川県",
    "prefecture_kana": "カガワケン",
    "prefecture_code": 37,
    "city": "高松市",
    "city_kana": "タカマツシ",
    "town": "城東町",
    "town_kana": "ジョウトウチョウ",
    "street": null,
    "office_name": null,
    "office_name_kana": null
  },
  "0037": {
    "postcode": "7600037",
    "prefecture": "香川県",
    "prefecture_kana": "カガワケン",
    "prefecture_code": 37,
    "city": "高松市",
    "city_kana": "タカマツシ",
    "town": "東浜町",
    "town_kana": "ヒガシハマチョウ",
    "street": null,
    "office_name": null,
    "office_name_kana": null
  },
  "0038": {
    "postcode": "7600038",
    "prefecture": "香川県",
    "prefecture_kana": "カガワケン",
    "prefecture_code": 37,
    "city": "高松市",
    "city_kana": "タカマツシ",
    "town": "井口町",
    "town_kana": "イグチマチ",
    "street": null,
    "office_name": null,
    "office_name_kana": null
  },
  "0040": {
    "postcode": "7600040",
    "prefecture": "香川県",
    "prefecture_kana": "カガワケン",
    "prefecture_code": 37,
    "city": "高松市",
    "city_kana": "タカマツシ",
    "town": "片原町",
    "town_kana": "カタハラマチ",
    "street": null,
    "office_name": null,
    "office_name_kana": null
  },
  "0041": {
    "postcode": "7600041",
    "prefecture": "香川県",
    "prefecture_kana": "カガワケン",
    "prefecture_code": 37,
    "city": "高松市",
    "city_kana": "タカマツシ",
    "town": "百間町",
    "town_kana": "ヒャッケンマチ",
    "street": null,
    "office_name": null,
    "office_name_kana": null
  },
  "0042": {
    "postcode": "7600042",
    "prefecture": "香川県",
    "prefecture_kana": "カガワケン",
    "prefecture_code": 37,
    "city": "高松市",
    "city_kana": "タカマツシ",
    "town": "大工町",
    "town_kana": "ダイクマチ",
    "street": null,
    "office_name": null,
    "office_name_kana": null
  },
  "0043": {
    "postcode": "7600043",
    "prefecture": "香川県",
    "prefecture_kana": "カガワケン",
    "prefecture_code": 37,
    "city": "高松市",
    "city_kana": "タカマツシ",
    "town": "今新町",
    "town_kana": "イマジンマチ",
    "street": null,
    "office_name": null,
    "office_name_kana": null
  },
  "0044": {
    "postcode": "7600044",
    "prefecture": "香川県",
    "prefecture_kana": "カガワケン",
    "prefecture_code": 37,
    "city": "高松市",
    "city_kana": "タカマツシ",
    "town": "御坊町",
    "town_kana": "ゴボウマチ",
    "street": null,
    "office_name": null,
    "office_name_kana": null
  },
  "0045": {
    "postcode": "7600045",
    "prefecture": "香川県",
    "prefecture_kana": "カガワケン",
    "prefecture_code": 37,
    "city": "高松市",
    "city_kana": "タカマツシ",
    "town": "古馬場町",
    "town_kana": "フルババチョウ",
    "street": null,
    "office_name": null,
    "office_name_kana": null
  },
  "0046": {
    "postcode": "7600046",
    "prefecture": "香川県",
    "prefecture_kana": "カガワケン",
    "prefecture_code": 37,
    "city": "高松市",
    "city_kana": "タカマツシ",
    "town": "通町",
    "town_kana": "トオリマチ",
    "street": null,
    "office_name": null,
    "office_name_kana": null
  },
  "0047": {
    "postcode": "7600047",
    "prefecture": "香川県",
    "prefecture_kana": "カガワケン",
    "prefecture_code": 37,
    "city": "高松市",
    "city_kana": "タカマツシ",
    "town": "塩屋町",
    "town_kana": "シオヤマチ",
    "street": null,
    "office_name": null,
    "office_name_kana": null
  },
  "0048": {
    "postcode": "7600048",
    "prefecture": "香川県",
    "prefecture_kana": "カガワケン",
    "prefecture_code": 37,
    "city": "高松市",
    "city_kana": "タカマツシ",
    "town": "福田町",
    "town_kana": "フクダマチ",
    "street": null,
    "office_name": null,
    "office_name_kana": null
  },
  "0049": {
    "postcode": "7600049",
    "prefecture": "香川県",
    "prefecture_kana": "カガワケン",
    "prefecture_code": 37,
    "city": "高松市",
    "city_kana": "タカマツシ",
    "town": "八坂町",
    "town_kana": "ヤサカマチ",
    "street": null,
    "office_name": null,
    "office_name_kana": null
  },
  "0050": {
    "postcode": "7600050",
    "prefecture": "香川県",
    "prefecture_kana": "カガワケン",
    "prefecture_code": 37,
    "city": "高松市",
    "city_kana": "タカマツシ",
    "town": "亀井町",
    "town_kana": "カメイチョウ",
    "street": null,
    "office_name": null,
    "office_name_kana": null
  },
  "0051": {
    "postcode": "7600051",
    "prefecture": "香川県",
    "prefecture_kana": "カガワケン",
    "prefecture_code": 37,
    "city": "高松市",
    "city_kana": "タカマツシ",
    "town": "南新町",
    "town_kana": "ミナミシンマチ",
    "street": null,
    "office_name": null,
    "office_name_kana": null
  },
  "0052": {
    "postcode": "7600052",
    "prefecture": "香川県",
    "prefecture_kana": "カガワケン",
    "prefecture_code": 37,
    "city": "高松市",
    "city_kana": "タカマツシ",
    "town": "瓦町",
    "town_kana": "カワラマチ",
    "street": null,
    "office_name": null,
    "office_name_kana": null
  },
  "0053": {
    "postcode": "7600053",
    "prefecture": "香川県",
    "prefecture_kana": "カガワケン",
    "prefecture_code": 37,
    "city": "高松市",
    "city_kana": "タカマツシ",
    "town": "田町",
    "town_kana": "タマチ",
    "street": null,
    "office_name": null,
    "office_name_kana": null
  },
  "0054": {
    "postcode": "7600054",
    "prefecture": "香川県",
    "prefecture_kana": "カガワケン",
    "prefecture_code": 37,
    "city": "高松市",
    "city_kana": "タカマツシ",
    "town": "常磐町",
    "town_kana": "トキワチョウ",
    "street": null,
    "office_name": null,
    "office_name_kana": null
  },
  "0055": {
    "postcode": "7600055",
    "prefecture": "香川県",
    "prefecture_kana": "カガワケン",
    "prefecture_code": 37,
    "city": "高松市",
    "city_kana": "タカマツシ",
    "town": "観光通",
    "town_kana": "カンコウドオリ",
    "street": null,
    "office_name": null,
    "office_name_kana": null
  },
  "0056": {
    "postcode": "7600056",
    "prefecture": "香川県",
    "prefecture_kana": "カガワケン",
    "prefecture_code": 37,
    "city": "高松市",
    "city_kana": "タカマツシ",
    "town": "中新町",
    "town_kana": "ナカジンチョウ",
    "street": null,
    "office_name": null,
    "office_name_kana": null
  },
  "0057": {
    "postcode": "7600057",
    "prefecture": "香川県",
    "prefecture_kana": "カガワケン",
    "prefecture_code": 37,
    "city": "高松市",
    "city_kana": "タカマツシ",
    "town": "旅籠町",
    "town_kana": "ハタゴマチ",
    "street": null,
    "office_name": null,
    "office_name_kana": null
  },
  "0058": {
    "postcode": "7600058",
    "prefecture": "香川県",
    "prefecture_kana": "カガワケン",
    "prefecture_code": 37,
    "city": "高松市",
    "city_kana": "タカマツシ",
    "town": "東田町",
    "town_kana": "ヒガシタマチ",
    "street": null,
    "office_name": null,
    "office_name_kana": null
  },
  "0060": {
    "postcode": "7600060",
    "prefecture": "香川県",
    "prefecture_kana": "カガワケン",
    "prefecture_code": 37,
    "city": "高松市",
    "city_kana": "タカマツシ",
    "town": "末広町",
    "town_kana": "スエヒロチョウ",
    "street": null,
    "office_name": null,
    "office_name_kana": null
  },
  "0061": {
    "postcode": "7600061",
    "prefecture": "香川県",
    "prefecture_kana": "カガワケン",
    "prefecture_code": 37,
    "city": "高松市",
    "city_kana": "タカマツシ",
    "town": "築地町",
    "town_kana": "ツキジチョウ",
    "street": null,
    "office_name": null,
    "office_name_kana": null
  },
  "0062": {
    "postcode": "7600062",
    "prefecture": "香川県",
    "prefecture_kana": "カガワケン",
    "prefecture_code": 37,
    "city": "高松市",
    "city_kana": "タカマツシ",
    "town": "塩上町",
    "town_kana": "シオガミチョウ",
    "street": null,
    "office_name": null,
    "office_name_kana": null
  },
  "0063": {
    "postcode": "7600063",
    "prefecture": "香川県",
    "prefecture_kana": "カガワケン",
    "prefecture_code": 37,
    "city": "高松市",
    "city_kana": "タカマツシ",
    "town": "多賀町",
    "town_kana": "タガチョウ",
    "street": null,
    "office_name": null,
    "office_name_kana": null
  },
  "0064": {
    "postcode": "7600064",
    "prefecture": "香川県",
    "prefecture_kana": "カガワケン",
    "prefecture_code": 37,
    "city": "高松市",
    "city_kana": "タカマツシ",
    "town": "朝日新町",
    "town_kana": "アサヒシンマチ",
    "street": null,
    "office_name": null,
    "office_name_kana": null
  },
  "0065": {
    "postcode": "7600065",
    "prefecture": "香川県",
    "prefecture_kana": "カガワケン",
    "prefecture_code": 37,
    "city": "高松市",
    "city_kana": "タカマツシ",
    "town": "朝日町",
    "town_kana": "アサヒマチ",
    "street": null,
    "office_name": null,
    "office_name_kana": null
  },
  "0066": {
    "postcode": "7600066",
    "prefecture": "香川県",
    "prefecture_kana": "カガワケン",
    "prefecture_code": 37,
    "city": "高松市",
    "city_kana": "タカマツシ",
    "town": "福岡町",
    "town_kana": "フクオカチョウ",
    "street": null,
    "office_name": null,
    "office_name_kana": null
  },
  "0067": {
    "postcode": "7600067",
    "prefecture": "香川県",
    "prefecture_kana": "カガワケン",
    "prefecture_code": 37,
    "city": "高松市",
    "city_kana": "タカマツシ",
    "town": "松福町",
    "town_kana": "マツフクチョウ",
    "street": null,
    "office_name": null,
    "office_name_kana": null
  },
  "0068": {
    "postcode": "7600068",
    "prefecture": "香川県",
    "prefecture_kana": "カガワケン",
    "prefecture_code": 37,
    "city": "高松市",
    "city_kana": "タカマツシ",
    "town": "松島町",
    "town_kana": "マツシマチョウ",
    "street": null,
    "office_name": null,
    "office_name_kana": null
  },
  "0071": {
    "postcode": "7600071",
    "prefecture": "香川県",
    "prefecture_kana": "カガワケン",
    "prefecture_code": 37,
    "city": "高松市",
    "city_kana": "タカマツシ",
    "town": "藤塚町",
    "town_kana": "フジヅカチョウ",
    "street": null,
    "office_name": null,
    "office_name_kana": null
  },
  "0072": {
    "postcode": "7600072",
    "prefecture": "香川県",
    "prefecture_kana": "カガワケン",
    "prefecture_code": 37,
    "city": "高松市",
    "city_kana": "タカマツシ",
    "town": "花園町",
    "town_kana": "ハナゾノチョウ",
    "street": null,
    "office_name": null,
    "office_name_kana": null
  },
  "0073": {
    "postcode": "7600073",
    "prefecture": "香川県",
    "prefecture_kana": "カガワケン",
    "prefecture_code": 37,
    "city": "高松市",
    "city_kana": "タカマツシ",
    "town": "栗林町",
    "town_kana": "リツリンチョウ",
    "street": null,
    "office_name": null,
    "office_name_kana": null
  },
  "0074": {
    "postcode": "7600074",
    "prefecture": "香川県",
    "prefecture_kana": "カガワケン",
    "prefecture_code": 37,
    "city": "高松市",
    "city_kana": "タカマツシ",
    "town": "桜町",
    "town_kana": "サクラマチ",
    "street": null,
    "office_name": null,
    "office_name_kana": null
  },
  "0075": {
    "postcode": "7600075",
    "prefecture": "香川県",
    "prefecture_kana": "カガワケン",
    "prefecture_code": 37,
    "city": "高松市",
    "city_kana": "タカマツシ",
    "town": "楠上町",
    "town_kana": "クスガミチョウ",
    "street": null,
    "office_name": null,
    "office_name_kana": null
  },
  "0076": {
    "postcode": "7600076",
    "prefecture": "香川県",
    "prefecture_kana": "カガワケン",
    "prefecture_code": 37,
    "city": "高松市",
    "city_kana": "タカマツシ",
    "town": "観光町",
    "town_kana": "カンコウチョウ",
    "street": null,
    "office_name": null,
    "office_name_kana": null
  },
  "0077": {
    "postcode": "7600077",
    "prefecture": "香川県",
    "prefecture_kana": "カガワケン",
    "prefecture_code": 37,
    "city": "高松市",
    "city_kana": "タカマツシ",
    "town": "上福岡町",
    "town_kana": "カミフクオカチョウ",
    "street": null,
    "office_name": null,
    "office_name_kana": null
  },
  "0078": {
    "postcode": "7600078",
    "prefecture": "香川県",
    "prefecture_kana": "カガワケン",
    "prefecture_code": 37,
    "city": "高松市",
    "city_kana": "タカマツシ",
    "town": "今里町",
    "town_kana": "イマザトチョウ",
    "street": null,
    "office_name": null,
    "office_name_kana": null
  },
  "0079": {
    "postcode": "7600079",
    "prefecture": "香川県",
    "prefecture_kana": "カガワケン",
    "prefecture_code": 37,
    "city": "高松市",
    "city_kana": "タカマツシ",
    "town": "松縄町",
    "town_kana": "マツナワチョウ",
    "street": null,
    "office_name": null,
    "office_name_kana": null
  },
  "0080": {
    "postcode": "7600080",
    "prefecture": "香川県",
    "prefecture_kana": "カガワケン",
    "prefecture_code": 37,
    "city": "高松市",
    "city_kana": "タカマツシ",
    "town": "木太町",
    "town_kana": "キタチョウ",
    "street": null,
    "office_name": null,
    "office_name_kana": null
  },
  "0091": {
    "postcode": "7600091",
    "prefecture": "香川県",
    "prefecture_kana": "カガワケン",
    "prefecture_code": 37,
    "city": "高松市",
    "city_kana": "タカマツシ",
    "town": "男木町",
    "town_kana": "オギチョウ",
    "street": null,
    "office_name": null,
    "office_name_kana": null
  },
  "0092": {
    "postcode": "7600092",
    "prefecture": "香川県",
    "prefecture_kana": "カガワケン",
    "prefecture_code": 37,
    "city": "高松市",
    "city_kana": "タカマツシ",
    "town": "女木町",
    "town_kana": "メギチョウ",
    "street": null,
    "office_name": null,
    "office_name_kana": null
  },
  "0093": [
    {
      "postcode": "7600093",
      "prefecture": "香川県",
      "prefecture_kana": "カガワケン",
      "prefecture_code": 37,
      "city": "高松市",
      "city_kana": "タカマツシ",
      "town": "鶴市町",
      "town_kana": "ツルイチチョウ",
      "street": null,
      "office_name": null,
      "office_name_kana": null
    },
    {
      "postcode": "7600093",
      "prefecture": "香川県",
      "prefecture_kana": "カガワケン",
      "prefecture_code": 37,
      "city": "高松市",
      "city_kana": "タカマツシ",
      "town": "鶴市町台山",
      "town_kana": "ツルイチチョウダイヤマ",
      "street": null,
      "office_name": null,
      "office_name_kana": null
    }
  ],
  "8502": {
    "postcode": "7608502",
    "prefecture": "香川県",
    "prefecture_kana": "カガワケン",
    "prefecture_code": 37,
    "city": "高松市",
    "city_kana": "タカマツシ",
    "town": "扇町",
    "town_kana": "オウギマチ",
    "street": "２丁目７−２０",
    "office_name": "セーラー広告　株式会社",
    "office_name_kana": "セ-ラ-コウコク カブシキガイシヤ"
  },
  "8503": {
    "postcode": "7608503",
    "prefecture": "香川県",
    "prefecture_kana": "カガワケン",
    "prefecture_code": 37,
    "city": "高松市",
    "city_kana": "タカマツシ",
    "town": "番町",
    "town_kana": "バンチョウ",
    "street": "３丁目８−１１",
    "office_name": "西松建設　（株）　四国支店",
    "office_name_kana": "ニシマツケンセツ カブシキガイシヤ シコクシテン"
  },
  "8504": {
    "postcode": "7608504",
    "prefecture": "香川県",
    "prefecture_kana": "カガワケン",
    "prefecture_code": 37,
    "city": "高松市",
    "city_kana": "タカマツシ",
    "town": "新北町",
    "town_kana": "シンキタマチ",
    "street": "１４−２７",
    "office_name": "生活協同組合　コープかがわ",
    "office_name_kana": "セイカツキヨウドウクミアイ コ-プカガワ"
  },
  "8505": {
    "postcode": "7608505",
    "prefecture": "香川県",
    "prefecture_kana": "カガワケン",
    "prefecture_code": 37,
    "city": "高松市",
    "city_kana": "タカマツシ",
    "town": "塩屋町",
    "town_kana": "シオヤマチ",
    "street": "１−７",
    "office_name": "株式会社ニシやマー",
    "office_name_kana": "カブシキガイシヤニシヤマ-"
  },
  "8507": {
    "postcode": "7608507",
    "prefecture": "香川県",
    "prefecture_kana": "カガワケン",
    "prefecture_code": 37,
    "city": "高松市",
    "city_kana": "タカマツシ",
    "town": "古新町",
    "town_kana": "フルジンマチ",
    "street": "３−１東明ビル",
    "office_name": "日立キャピタル　株式会社　高松支店",
    "office_name_kana": "ヒタチキヤピタル カブシキガイシヤ タカマツシテン"
  },
  "8508": {
    "postcode": "7608508",
    "prefecture": "香川県",
    "prefecture_kana": "カガワケン",
    "prefecture_code": 37,
    "city": "高松市",
    "city_kana": "タカマツシ",
    "town": "丸の内",
    "town_kana": "マルノウチ",
    "street": "１−１",
    "office_name": "高松法務局",
    "office_name_kana": "タカマツホウムキヨク"
  },
  "8511": {
    "postcode": "7608511",
    "prefecture": "香川県",
    "prefecture_kana": "カガワケン",
    "prefecture_code": 37,
    "city": "高松市",
    "city_kana": "タカマツシ",
    "town": "西内町",
    "town_kana": "ニシウチマチ",
    "street": "２−３０",
    "office_name": "高松北警察署",
    "office_name_kana": "タカマツキタケイサツシヨ"
  },
  "8512": {
    "postcode": "7608512",
    "prefecture": "香川県",
    "prefecture_kana": "カガワケン",
    "prefecture_code": 37,
    "city": "高松市",
    "city_kana": "タカマツシ",
    "town": "サンポート",
    "town_kana": "サンポート",
    "street": "３−３３",
    "office_name": "四国経済産業局",
    "office_name_kana": "シコクケイザイサンギヨウキヨク"
  },
  "8513": {
    "postcode": "7608513",
    "prefecture": "香川県",
    "prefecture_kana": "カガワケン",
    "prefecture_code": 37,
    "city": "高松市",
    "city_kana": "タカマツシ",
    "town": "栗林町",
    "town_kana": "リツリンチョウ",
    "street": "１丁目１２−２７",
    "office_name": "ナイスタウン出版　株式会社",
    "office_name_kana": "ナイスタウンシユツパン カブシキガイシヤ"
  },
  "8514": {
    "postcode": "7608514",
    "prefecture": "香川県",
    "prefecture_kana": "カガワケン",
    "prefecture_code": 37,
    "city": "高松市",
    "city_kana": "タカマツシ",
    "town": "番町",
    "town_kana": "バンチョウ",
    "street": "１丁目８−１５",
    "office_name": "香川県広域水道企業団",
    "office_name_kana": "カガワケンコウイキスイドウキギヨウダン"
  },
  "8515": {
    "postcode": "7608515",
    "prefecture": "香川県",
    "prefecture_kana": "カガワケン",
    "prefecture_code": 37,
    "city": "高松市",
    "city_kana": "タカマツシ",
    "town": "番町",
    "town_kana": "バンチョウ",
    "street": "２丁目２−２",
    "office_name": "高松商工会議所",
    "office_name_kana": "タカマツシヨウコウカイギシヨ"
  },
  "8516": {
    "postcode": "7608516",
    "prefecture": "香川県",
    "prefecture_kana": "カガワケン",
    "prefecture_code": 37,
    "city": "高松市",
    "city_kana": "タカマツシ",
    "town": "常磐町",
    "town_kana": "トキワチョウ",
    "street": "１丁目３−１",
    "office_name": "株式会社　高松天満屋",
    "office_name_kana": "カブシキカイシヤ タカマツテンマヤ"
  },
  "8517": {
    "postcode": "7608517",
    "prefecture": "香川県",
    "prefecture_kana": "カガワケン",
    "prefecture_code": 37,
    "city": "高松市",
    "city_kana": "タカマツシ",
    "town": "亀井町",
    "town_kana": "カメイチョウ",
    "street": "２−１朝日生命ビル７階",
    "office_name": "豊田通商　株式会社　高松営業所",
    "office_name_kana": "トヨタツウシヨウ カブシキガイシヤ タカマツエイギヨウシヨ"
  },
  "8518": {
    "postcode": "7608518",
    "prefecture": "香川県",
    "prefecture_kana": "カガワケン",
    "prefecture_code": 37,
    "city": "高松市",
    "city_kana": "タカマツシ",
    "town": "観光通",
    "town_kana": "カンコウドオリ",
    "street": "２丁目２−１５",
    "office_name": "四国機器　株式会社",
    "office_name_kana": "シコクキキ カブシキガイシヤ"
  },
  "8520": {
    "postcode": "7608520",
    "prefecture": "香川県",
    "prefecture_kana": "カガワケン",
    "prefecture_code": 37,
    "city": "高松市",
    "city_kana": "タカマツシ",
    "town": "藤塚町",
    "town_kana": "フジヅカチョウ",
    "street": "１−１１−２２",
    "office_name": "株式会社　穴吹工務店",
    "office_name_kana": "カブシキガイシヤ アナブキコウムテン"
  },
  "8521": {
    "postcode": "7608521",
    "prefecture": "香川県",
    "prefecture_kana": "カガワケン",
    "prefecture_code": 37,
    "city": "高松市",
    "city_kana": "タカマツシ",
    "town": "幸町",
    "town_kana": "サイワイチョウ",
    "street": "１−１",
    "office_name": "国立大学法人　香川大学　事務局",
    "office_name_kana": "コクリツダイガクホウジン カガワダイガク ジムキヨク"
  },
  "8522": {
    "postcode": "7608522",
    "prefecture": "香川県",
    "prefecture_kana": "カガワケン",
    "prefecture_code": 37,
    "city": "高松市",
    "city_kana": "タカマツシ",
    "town": "幸町",
    "town_kana": "サイワイチョウ",
    "street": "１−１",
    "office_name": "国立大学法人　香川大学　教育学部",
    "office_name_kana": "コクリツダイガクホウジン カガワダイガク キヨウイクガクブ"
  },
  "8523": {
    "postcode": "7608523",
    "prefecture": "香川県",
    "prefecture_kana": "カガワケン",
    "prefecture_code": 37,
    "city": "高松市",
    "city_kana": "タカマツシ",
    "town": "幸町",
    "town_kana": "サイワイチョウ",
    "street": "２−１",
    "office_name": "国立大学法人　香川大学　法学部・経済学部",
    "office_name_kana": "コクリツダイガクホウジン カガワダイガク ホウガクブ・ケイザイガクブ"
  },
  "8524": {
    "postcode": "7608524",
    "prefecture": "香川県",
    "prefecture_kana": "カガワケン",
    "prefecture_code": 37,
    "city": "高松市",
    "city_kana": "タカマツシ",
    "town": "番町",
    "town_kana": "バンチョウ",
    "street": "２丁目１６番地３号",
    "office_name": "日本年金機構　高松広域事務センター",
    "office_name_kana": "ニツポンネンキンキコウ タカマツコウイキジムセンタ-"
  },
  "8525": {
    "postcode": "7608525",
    "prefecture": "香川県",
    "prefecture_kana": "カガワケン",
    "prefecture_code": 37,
    "city": "高松市",
    "city_kana": "タカマツシ",
    "town": "幸町",
    "town_kana": "サイワイチョウ",
    "street": "１−１",
    "office_name": "国立大学法人　香川大学　附属図書館",
    "office_name_kana": "コクリツダイガクホウジン カガワダイガク フゾクトシヨカン"
  },
  "8527": {
    "postcode": "7608527",
    "prefecture": "香川県",
    "prefecture_kana": "カガワケン",
    "prefecture_code": 37,
    "city": "高松市",
    "city_kana": "タカマツシ",
    "town": "古新町",
    "town_kana": "フルジンマチ",
    "street": "３番地１東明ビル１２Ｆ",
    "office_name": "東京海上日動火災保険　株式会社　高松支店",
    "office_name_kana": "トウキヨウカイジヨウニチドウカサイホケン カブシキガイシヤ タカマツシテン"
  },
  "8530": {
    "postcode": "7608530",
    "prefecture": "香川県",
    "prefecture_kana": "カガワケン",
    "prefecture_code": 37,
    "city": "高松市",
    "city_kana": "タカマツシ",
    "town": "栗林町",
    "town_kana": "リツリンチョウ",
    "street": "１丁目４−１",
    "office_name": "高松平和病院",
    "office_name_kana": "タカマツヘイワビヨウイン"
  },
  "8533": {
    "postcode": "7608533",
    "prefecture": "香川県",
    "prefecture_kana": "カガワケン",
    "prefecture_code": 37,
    "city": "高松市",
    "city_kana": "タカマツシ",
    "town": "寿町",
    "town_kana": "コトブキチョウ",
    "street": "２丁目４番５号",
    "office_name": "清水建設　株式会社　四国支店",
    "office_name_kana": "シミズケンセツ カブシキガイシヤ シコクシテン"
  },
  "8534": {
    "postcode": "7608534",
    "prefecture": "香川県",
    "prefecture_kana": "カガワケン",
    "prefecture_code": 37,
    "city": "高松市",
    "city_kana": "タカマツシ",
    "town": "浜ノ町",
    "town_kana": "ハマノチョウ",
    "street": "７３番４号",
    "office_name": "社団法人　香川県医師会",
    "office_name_kana": "シヤダンホウジン カガワケンイシカイ"
  },
  "8536": {
    "postcode": "7608536",
    "prefecture": "香川県",
    "prefecture_kana": "カガワケン",
    "prefecture_code": 37,
    "city": "高松市",
    "city_kana": "タカマツシ",
    "town": "扇町",
    "town_kana": "オウギマチ",
    "street": "３丁目１４−１１",
    "office_name": "新日本法規出版　株式会社　高松支社",
    "office_name_kana": "シンニツポンホウキシユツパン カブシキガイシヤ タカマツシシヤ"
  },
  "8537": {
    "postcode": "7608537",
    "prefecture": "香川県",
    "prefecture_kana": "カガワケン",
    "prefecture_code": 37,
    "city": "高松市",
    "city_kana": "タカマツシ",
    "town": "朝日町",
    "town_kana": "アサヒマチ",
    "street": "２丁目１７−３",
    "office_name": "香川県　社会保険診療報酬支払基金",
    "office_name_kana": "カガワケン シヤカイホケンシンリヨウホウシユウシハライキキン"
  },
  "8538": {
    "postcode": "7608538",
    "prefecture": "香川県",
    "prefecture_kana": "カガワケン",
    "prefecture_code": 37,
    "city": "高松市",
    "city_kana": "タカマツシ",
    "town": "亀井町",
    "town_kana": "カメイチョウ",
    "street": "７番地９",
    "office_name": "四電ビジネス　株式会社",
    "office_name_kana": "ヨンデンビジネス カブシキガイシヤ"
  },
  "8539": {
    "postcode": "7608539",
    "prefecture": "香川県",
    "prefecture_kana": "カガワケン",
    "prefecture_code": 37,
    "city": "高松市",
    "city_kana": "タカマツシ",
    "town": "磨屋町",
    "town_kana": "トギヤマチ",
    "street": "８−１",
    "office_name": "富士火災海上保険　株式会社",
    "office_name_kana": "フジカサイカイジヨウホケン カブシキガイシヤ"
  },
  "8545": {
    "postcode": "7608545",
    "prefecture": "香川県",
    "prefecture_kana": "カガワケン",
    "prefecture_code": 37,
    "city": "高松市",
    "city_kana": "タカマツシ",
    "town": "古新町",
    "town_kana": "フルジンマチ",
    "street": "８−１高松スクエアビル２階",
    "office_name": "株式会社　高松リビング新聞社",
    "office_name_kana": "カブシキガイシヤ タカマツリビングシンブンシヤ"
  },
  "8546": {
    "postcode": "7608546",
    "prefecture": "香川県",
    "prefecture_kana": "カガワケン",
    "prefecture_code": 37,
    "city": "高松市",
    "city_kana": "タカマツシ",
    "town": "福岡町",
    "town_kana": "フクオカチョウ",
    "street": "４−２６−３２",
    "office_name": "国土交通省　香川河川国道事務所",
    "office_name_kana": "コクドコウツウシヨウ カガワカセンコクドウジムシヨ"
  },
  "8547": {
    "postcode": "7608547",
    "prefecture": "香川県",
    "prefecture_kana": "カガワケン",
    "prefecture_code": 37,
    "city": "高松市",
    "city_kana": "タカマツシ",
    "town": "サンポート",
    "town_kana": "サンポート",
    "street": "２番１号",
    "office_name": "株式会社　エヌ・ティ・ティ・ドコモ　四国支社",
    "office_name_kana": "カブシキガイシヤ エヌ・テイ・テイ・ドコモ シコクシシヤ"
  },
  "8550": {
    "postcode": "7608550",
    "prefecture": "香川県",
    "prefecture_kana": "カガワケン",
    "prefecture_code": 37,
    "city": "高松市",
    "city_kana": "タカマツシ",
    "town": "サンポート",
    "town_kana": "サンポート",
    "street": "３番３３号高松サンポート合同庁舎（南館６階７階）",
    "office_name": "四国財務局",
    "office_name_kana": "シコクザイムキヨク"
  },
  "8551": {
    "postcode": "7608551",
    "prefecture": "香川県",
    "prefecture_kana": "カガワケン",
    "prefecture_code": 37,
    "city": "高松市",
    "city_kana": "タカマツシ",
    "town": "番町",
    "town_kana": "バンチョウ",
    "street": "２丁目１６−３",
    "office_name": "扶桑建設工業　株式会社",
    "office_name_kana": "フソウケンセツコウギヨウ カブシキガイシヤ"
  },
  "8552": {
    "postcode": "7608552",
    "prefecture": "香川県",
    "prefecture_kana": "カガワケン",
    "prefecture_code": 37,
    "city": "高松市",
    "city_kana": "タカマツシ",
    "town": "丸亀町",
    "town_kana": "マルガメマチ",
    "street": "６−１",
    "office_name": "株式会社　河野",
    "office_name_kana": "カブシキガイシヤ コウノ"
  },
  "8554": {
    "postcode": "7608554",
    "prefecture": "香川県",
    "prefecture_kana": "カガワケン",
    "prefecture_code": 37,
    "city": "高松市",
    "city_kana": "タカマツシ",
    "town": "サンポート",
    "town_kana": "サンポート",
    "street": "３番３３号",
    "office_name": "四国地方整備局",
    "office_name_kana": "シコクチホウセイビキヨク"
  },
  "8555": {
    "postcode": "7608555",
    "prefecture": "香川県",
    "prefecture_kana": "カガワケン",
    "prefecture_code": 37,
    "city": "高松市",
    "city_kana": "タカマツシ",
    "town": "錦町",
    "town_kana": "ニシキマチ",
    "street": "２丁目４−８",
    "office_name": "株式会社　エヌ・ティ・ティ・ドコモ　四国支社",
    "office_name_kana": "カブシキガイシヤ エヌ・テイ・テイ・ドコモ シコクシシヤ"
  },
  "8557": {
    "postcode": "7608557",
    "prefecture": "香川県",
    "prefecture_kana": "カガワケン",
    "prefecture_code": 37,
    "city": "高松市",
    "city_kana": "タカマツシ",
    "town": "朝日町",
    "town_kana": "アサヒマチ",
    "street": "１丁目２−１",
    "office_name": "香川県立　中央病院",
    "office_name_kana": "カガワケンリツ チユウオウビヨウイン"
  },
  "8558": {
    "postcode": "7608558",
    "prefecture": "香川県",
    "prefecture_kana": "カガワケン",
    "prefecture_code": 37,
    "city": "高松市",
    "city_kana": "タカマツシ",
    "town": "福岡町",
    "town_kana": "フクオカチョウ",
    "street": "２丁目２４−１",
    "office_name": "中商事　株式会社",
    "office_name_kana": "ナカシヨウジ カブシキカイシヤ"
  },
  "8559": {
    "postcode": "7608559",
    "prefecture": "香川県",
    "prefecture_kana": "カガワケン",
    "prefecture_code": 37,
    "city": "高松市",
    "city_kana": "タカマツシ",
    "town": "丸の内",
    "town_kana": "マルノウチ",
    "street": "２−５",
    "office_name": "四電ビジネス　株式会社",
    "office_name_kana": "ヨンデンビジネス カブシキガイシヤ"
  },
  "8560": {
    "postcode": "7608560",
    "prefecture": "香川県",
    "prefecture_kana": "カガワケン",
    "prefecture_code": 37,
    "city": "高松市",
    "city_kana": "タカマツシ",
    "town": "古新町",
    "town_kana": "フルジンマチ",
    "street": "２−３",
    "office_name": "三井住友海上火災保険　株式会社",
    "office_name_kana": "ミツイスミトモカイジヨウカサイホケン カブシキガイシヤ"
  },
  "8561": {
    "postcode": "7608561",
    "prefecture": "香川県",
    "prefecture_kana": "カガワケン",
    "prefecture_code": 37,
    "city": "高松市",
    "city_kana": "タカマツシ",
    "town": "亀井町",
    "town_kana": "カメイチョウ",
    "street": "１−３",
    "office_name": "鹿島建設　株式会社　四国支店",
    "office_name_kana": "カジマケンセツ カブシキガイシヤ シコクシテン"
  },
  "8562": {
    "postcode": "7608562",
    "prefecture": "香川県",
    "prefecture_kana": "カガワケン",
    "prefecture_code": 37,
    "city": "高松市",
    "city_kana": "タカマツシ",
    "town": "福岡町",
    "town_kana": "フクオカチョウ",
    "street": "２丁目２−２−４０１",
    "office_name": "香川県　中小企業団体中央会",
    "office_name_kana": "カガワケン チユウシヨウキギヨウダンタイチユウオウカイ"
  },
  "8564": {
    "postcode": "7608564",
    "prefecture": "香川県",
    "prefecture_kana": "カガワケン",
    "prefecture_code": 37,
    "city": "高松市",
    "city_kana": "タカマツシ",
    "town": "鍛冶屋町",
    "town_kana": "カジヤマチ",
    "street": "３",
    "office_name": "全国健康保険協会　香川支部",
    "office_name_kana": "ゼンコクケンコウホケンキヨウカイ カガワシブ"
  },
  "8566": {
    "postcode": "7608566",
    "prefecture": "香川県",
    "prefecture_kana": "カガワケン",
    "prefecture_code": 37,
    "city": "高松市",
    "city_kana": "タカマツシ",
    "town": "番町",
    "town_kana": "バンチョウ",
    "street": "１丁目６−１",
    "office_name": "住友生命保険相互会社　高松支社",
    "office_name_kana": "スミトモセイメイホケンソウゴガイシヤ タカマツシシヤ"
  },
  "8567": {
    "postcode": "7608567",
    "prefecture": "香川県",
    "prefecture_kana": "カガワケン",
    "prefecture_code": 37,
    "city": "高松市",
    "city_kana": "タカマツシ",
    "town": "錦町",
    "town_kana": "ニシキマチ",
    "street": "１丁目１１−１１",
    "office_name": "四国医療器　株式会社",
    "office_name_kana": "シコクイリヨウキ カブシキガイシヤ"
  },
  "8568": {
    "postcode": "7608568",
    "prefecture": "香川県",
    "prefecture_kana": "カガワケン",
    "prefecture_code": 37,
    "city": "高松市",
    "city_kana": "タカマツシ",
    "town": "番町",
    "town_kana": "バンチョウ",
    "street": "２丁目５−１４",
    "office_name": "香川トヨタ自動車　（株）　本社",
    "office_name_kana": "カガワトヨタジドウシヤ カブシキガイシヤ ホンシヤ"
  },
  "8569": {
    "postcode": "7608569",
    "prefecture": "香川県",
    "prefecture_kana": "カガワケン",
    "prefecture_code": 37,
    "city": "高松市",
    "city_kana": "タカマツシ",
    "town": "天神前",
    "town_kana": "テンジンマエ",
    "street": "１０−１",
    "office_name": "ネスレ日本　（株）　高松支店",
    "office_name_kana": "ネスレニツポン カブシキガイシヤ タカマツシテン"
  },
  "8570": {
    "postcode": "7608570",
    "prefecture": "香川県",
    "prefecture_kana": "カガワケン",
    "prefecture_code": 37,
    "city": "高松市",
    "city_kana": "タカマツシ",
    "town": "番町",
    "town_kana": "バンチョウ",
    "street": "４丁目１−１０",
    "office_name": "香川県庁",
    "office_name_kana": "カガワケンチヨウ"
  },
  "8571": {
    "postcode": "7608571",
    "prefecture": "香川県",
    "prefecture_kana": "カガワケン",
    "prefecture_code": 37,
    "city": "高松市",
    "city_kana": "タカマツシ",
    "town": "番町",
    "town_kana": "バンチョウ",
    "street": "１丁目８−１５",
    "office_name": "高松市役所",
    "office_name_kana": "タカマツシヤクシヨ"
  },
  "8572": {
    "postcode": "7608572",
    "prefecture": "香川県",
    "prefecture_kana": "カガワケン",
    "prefecture_code": 37,
    "city": "高松市",
    "city_kana": "タカマツシ",
    "town": "中野町",
    "town_kana": "ナカノチョウ",
    "street": "１５−１",
    "office_name": "株式会社　四国新聞社",
    "office_name_kana": "カブシキガイシヤ シコクシンブンシヤ"
  },
  "8573": {
    "postcode": "7608573",
    "prefecture": "香川県",
    "prefecture_kana": "カガワケン",
    "prefecture_code": 37,
    "city": "高松市",
    "city_kana": "タカマツシ",
    "town": "丸の内",
    "town_kana": "マルノウチ",
    "street": "２−５（高松中央郵便局私書箱第６１号）",
    "office_name": "四国電力株式会社　本店",
    "office_name_kana": "シコクデンリヨクカブシキガイシヤ ホンテン"
  },
  "8574": {
    "postcode": "7608574",
    "prefecture": "香川県",
    "prefecture_kana": "カガワケン",
    "prefecture_code": 37,
    "city": "高松市",
    "city_kana": "タカマツシ",
    "town": "亀井町",
    "town_kana": "カメイチョウ",
    "street": "５−１（高松中央郵便局私書箱第２２号）",
    "office_name": "株式会社　百十四銀行",
    "office_name_kana": "カブシキガイシヤ ヒヤクジユウシギンコウ"
  },
  "8575": {
    "postcode": "7608575",
    "prefecture": "香川県",
    "prefecture_kana": "カガワケン",
    "prefecture_code": 37,
    "city": "高松市",
    "city_kana": "タカマツシ",
    "town": "丸の内",
    "town_kana": "マルノウチ",
    "street": "８−１５（高松中央郵便局私書箱第７３号）",
    "office_name": "西日本放送　株式会社",
    "office_name_kana": "ニシニツポンホウソウカブシキガイシヤ"
  },
  "8576": {
    "postcode": "7608576",
    "prefecture": "香川県",
    "prefecture_kana": "カガワケン",
    "prefecture_code": 37,
    "city": "高松市",
    "city_kana": "タカマツシ",
    "town": "亀井町",
    "town_kana": "カメイチョウ",
    "street": "６−１（高松中央郵便局私書箱第５０号）",
    "office_name": "株式会社　香川銀行",
    "office_name_kana": "カブシキガイシヤ カガワギンコウ"
  },
  "8579": {
    "postcode": "7608579",
    "prefecture": "香川県",
    "prefecture_kana": "カガワケン",
    "prefecture_code": 37,
    "city": "高松市",
    "city_kana": "タカマツシ",
    "town": "番町",
    "town_kana": "バンチョウ",
    "street": "４丁目１−１０",
    "office_name": "香川県　警察本部",
    "office_name_kana": "カガワケン ケイサツホンブ"
  },
  "8580": {
    "postcode": "7608580",
    "prefecture": "香川県",
    "prefecture_kana": "カガワケン",
    "prefecture_code": 37,
    "city": "高松市",
    "city_kana": "タカマツシ",
    "town": "浜ノ町",
    "town_kana": "ハマノチョウ",
    "street": "８−３３",
    "office_name": "四国旅客鉄道　株式会社",
    "office_name_kana": "シコクリヨカクテツドウカブシキガイシヤ"
  },
  "8582": {
    "postcode": "7608582",
    "prefecture": "香川県",
    "prefecture_kana": "カガワケン",
    "prefecture_code": 37,
    "city": "高松市",
    "city_kana": "タカマツシ",
    "town": "天神前",
    "town_kana": "テンジンマエ",
    "street": "６−１（香川県天神前分庁舎）",
    "office_name": "香川県教育委員会",
    "office_name_kana": "カガワケンキヨウイクイインカイ"
  },
  "8583": {
    "postcode": "7608583",
    "prefecture": "香川県",
    "prefecture_kana": "カガワケン",
    "prefecture_code": 37,
    "city": "高松市",
    "city_kana": "タカマツシ",
    "town": "塩屋町",
    "town_kana": "シオヤマチ",
    "street": "１２−９",
    "office_name": "ティーメックス　株式会社",
    "office_name_kana": "テイ-メツクス カブシキガイシヤ"
  },
  "8585": {
    "postcode": "7608585",
    "prefecture": "香川県",
    "prefecture_kana": "カガワケン",
    "prefecture_code": 37,
    "city": "高松市",
    "city_kana": "タカマツシ",
    "town": "丸の内",
    "town_kana": "マルノウチ",
    "street": "２−２７",
    "office_name": "高松家庭裁判所",
    "office_name_kana": "タカマツカテイサイバンシヨ"
  },
  "8586": {
    "postcode": "7608586",
    "prefecture": "香川県",
    "prefecture_kana": "カガワケン",
    "prefecture_code": 37,
    "city": "高松市",
    "city_kana": "タカマツシ",
    "town": "丸の内",
    "town_kana": "マルノウチ",
    "street": "１−３６",
    "office_name": "高松地方裁判所",
    "office_name_kana": "タカマツチホウサイバンシヨ"
  },
  "8588": {
    "postcode": "7608588",
    "prefecture": "香川県",
    "prefecture_kana": "カガワケン",
    "prefecture_code": 37,
    "city": "高松市",
    "city_kana": "タカマツシ",
    "town": "西宝町",
    "town_kana": "サイホウチョウ",
    "street": "１丁目８−２４",
    "office_name": "株式会社　四電工　香川支店",
    "office_name_kana": "カブシキガイシヤ ヨンデンコウ カガワシテン"
  },
  "8589": {
    "postcode": "7608589",
    "prefecture": "香川県",
    "prefecture_kana": "カガワケン",
    "prefecture_code": 37,
    "city": "高松市",
    "city_kana": "タカマツシ",
    "town": "内町",
    "town_kana": "ウチマチ",
    "street": "７番１号",
    "office_name": "株式会社　高松三越",
    "office_name_kana": "カ) タカマツミツコシ"
  },
  "8590": {
    "postcode": "7608590",
    "prefecture": "香川県",
    "prefecture_kana": "カガワケン",
    "prefecture_code": 37,
    "city": "高松市",
    "city_kana": "タカマツシ",
    "town": "寿町",
    "town_kana": "コトブキチョウ",
    "street": "２丁目１番１号高松第一生命ビルディング新館２階",
    "office_name": "日本年金機構　中央年金センター",
    "office_name_kana": "ニツポンネンキンキコウ チユウオウネンキンセンタ-"
  },
  "8601": {
    "postcode": "7608601",
    "prefecture": "香川県",
    "prefecture_kana": "カガワケン",
    "prefecture_code": 37,
    "city": "高松市",
    "city_kana": "タカマツシ",
    "town": "番町",
    "town_kana": "バンチョウ",
    "street": "１丁目１−５（高松中央郵便局私書箱第６６号）",
    "office_name": "日本生命保険　相互会社　高松支社",
    "office_name_kana": "ニホンセイメイホケン ソウゴガイシヤ タカマツシシヤ"
  },
  "8603": {
    "postcode": "7608603",
    "prefecture": "香川県",
    "prefecture_kana": "カガワケン",
    "prefecture_code": 37,
    "city": "高松市",
    "city_kana": "タカマツシ",
    "town": "丸亀町",
    "town_kana": "マルガメマチ",
    "street": "８−２３（高松中央郵便局私書箱第３９号）",
    "office_name": "株式会社　四国銀行　高松支店",
    "office_name_kana": "カブシキガイシヤ シコクギンコウ タカマツシテン"
  },
  "8604": {
    "postcode": "7608604",
    "prefecture": "香川県",
    "prefecture_kana": "カガワケン",
    "prefecture_code": 37,
    "city": "高松市",
    "city_kana": "タカマツシ",
    "town": "古新町",
    "town_kana": "フルジンマチ",
    "street": "１０−５（高松中央郵便局私書箱第８号）",
    "office_name": "野村證券株式会社高松支店",
    "office_name_kana": "ノムラシヨウケン カブシキガイシヤ タカマツシテン"
  },
  "8607": {
    "postcode": "7608607",
    "prefecture": "香川県",
    "prefecture_kana": "カガワケン",
    "prefecture_code": 37,
    "city": "高松市",
    "city_kana": "タカマツシ",
    "town": "磨屋町",
    "town_kana": "トギヤマチ",
    "street": "４−８（高松中央郵便局私書箱第６４号）",
    "office_name": "香川証券",
    "office_name_kana": "カガワシヨウケン"
  },
  "8608": {
    "postcode": "7608608",
    "prefecture": "香川県",
    "prefecture_kana": "カガワケン",
    "prefecture_code": 37,
    "city": "高松市",
    "city_kana": "タカマツシ",
    "town": "番町",
    "town_kana": "バンチョウ",
    "street": "１丁目１−５（高松中央郵便局私書箱第２５号）",
    "office_name": "農林中央金庫　高松支店",
    "office_name_kana": "ノウリンチユウオウキンコ タカマツシテン"
  },
  "8610": {
    "postcode": "7608610",
    "prefecture": "香川県",
    "prefecture_kana": "カガワケン",
    "prefecture_code": 37,
    "city": "高松市",
    "city_kana": "タカマツシ",
    "town": "丸の内",
    "town_kana": "マルノウチ",
    "street": "２−５（高松中央郵便局私書箱第４２号）",
    "office_name": "四国電力送配電　株式会社",
    "office_name_kana": "シコクデンリヨクソウハイデン カブシキガイシヤ"
  },
  "8614": {
    "postcode": "7608614",
    "prefecture": "香川県",
    "prefecture_kana": "カガワケン",
    "prefecture_code": 37,
    "city": "高松市",
    "city_kana": "タカマツシ",
    "town": "番町",
    "town_kana": "バンチョウ",
    "street": "１丁目７−１（高松中央郵便局私書箱第３４号）",
    "office_name": "（株）　伊予銀行　高松支店",
    "office_name_kana": "カブシキガイシヤ イヨギンコウ タカマツシテン"
  },
  "8615": {
    "postcode": "7608615",
    "prefecture": "香川県",
    "prefecture_kana": "カガワケン",
    "prefecture_code": 37,
    "city": "高松市",
    "city_kana": "タカマツシ",
    "town": "天神前",
    "town_kana": "テンジンマエ",
    "street": "２番１０号（高松中央郵便局私書箱第１２６号）",
    "office_name": "高松税務署内　土庄税務署　集中処理担当",
    "office_name_kana": "タカマツゼイムシヨナイ トノシヨウゼイムシヨ シユウチユウシヨリタントウ"
  },
  "8618": {
    "postcode": "7608618",
    "prefecture": "香川県",
    "prefecture_kana": "カガワケン",
    "prefecture_code": 37,
    "city": "高松市",
    "city_kana": "タカマツシ",
    "town": "紺屋町",
    "town_kana": "コンヤマチ",
    "street": "２−６（高松中央郵便局私書箱第２７号）",
    "office_name": "信金中央金庫　四国支店",
    "office_name_kana": "シンキンチユウオウキンコ シコクシテン"
  },
  "8620": {
    "postcode": "7608620",
    "prefecture": "香川県",
    "prefecture_kana": "カガワケン",
    "prefecture_code": 37,
    "city": "高松市",
    "city_kana": "タカマツシ",
    "town": "寿町",
    "town_kana": "コトブキチョウ",
    "street": "２丁目１−６（高松中央郵便局私書箱第２６号）",
    "office_name": "日本銀行　高松支店",
    "office_name_kana": "ニホンギンコウ タカマツシテン"
  },
  "8621": {
    "postcode": "7608621",
    "prefecture": "香川県",
    "prefecture_kana": "カガワケン",
    "prefecture_code": 37,
    "city": "高松市",
    "city_kana": "タカマツシ",
    "town": "瓦町",
    "town_kana": "カワラマチ",
    "street": "１丁目２−３（高松中央郵便局私書箱第２１号）",
    "office_name": "株式会社　愛媛銀行　高松支店",
    "office_name_kana": "カブシキガイシヤ エヒメギンコウ タカマツシテン"
  },
  "8623": {
    "postcode": "7608623",
    "prefecture": "香川県",
    "prefecture_kana": "カガワケン",
    "prefecture_code": 37,
    "city": "高松市",
    "city_kana": "タカマツシ",
    "town": "瓦町",
    "town_kana": "カワラマチ",
    "street": "１丁目３−８（高松中央郵便局私書箱第１１６号）",
    "office_name": "商工組合中央金庫　高松支店",
    "office_name_kana": "シヨウコウクミアイチユウオウキンコ タカマツシテン"
  },
  "8624": {
    "postcode": "7608624",
    "prefecture": "香川県",
    "prefecture_kana": "カガワケン",
    "prefecture_code": 37,
    "city": "高松市",
    "city_kana": "タカマツシ",
    "town": "古新町",
    "town_kana": "フルジンマチ",
    "street": "８−１四国パナソニックビル６階",
    "office_name": "日新火災海上保険　株式会社　四国統括サービス部",
    "office_name_kana": "ニツシンカサイカイジヨウホケン カブシキガイシヤ シコクトウカツサ-ビスブ"
  },
  "8625": {
    "postcode": "7608625",
    "prefecture": "香川県",
    "prefecture_kana": "カガワケン",
    "prefecture_code": 37,
    "city": "高松市",
    "city_kana": "タカマツシ",
    "town": "紺屋町",
    "town_kana": "コンヤマチ",
    "street": "２−６（高松中央郵便局私書箱第３２号）",
    "office_name": "ＳＭＢＣ日興証券　株式会社　高松支店",
    "office_name_kana": "エスエムビ-シ-ニツコウシヨウケン カブシキガイシヤ タカマツシテン"
  },
  "8626": {
    "postcode": "7608626",
    "prefecture": "香川県",
    "prefecture_kana": "カガワケン",
    "prefecture_code": 37,
    "city": "高松市",
    "city_kana": "タカマツシ",
    "town": "観光通",
    "town_kana": "カンコウドオリ",
    "street": "２丁目５−２５（高松中央郵便局私書箱第５１号）",
    "office_name": "徳島銀行　高松支店",
    "office_name_kana": "トクシマギンコウ タカマツシテン"
  },
  "8630": {
    "postcode": "7608630",
    "prefecture": "香川県",
    "prefecture_kana": "カガワケン",
    "prefecture_code": 37,
    "city": "高松市",
    "city_kana": "タカマツシ",
    "town": "鍛冶屋町",
    "town_kana": "カジヤマチ",
    "street": "２−１",
    "office_name": "株式会社　三菱東京ＵＦＪ銀行　高松支店",
    "office_name_kana": "カブシキガイシヤ ミツビシトウキヨウユ-エフジエイギンコウ タカマツシテン"
  },
  "8634": {
    "postcode": "7608634",
    "prefecture": "香川県",
    "prefecture_kana": "カガワケン",
    "prefecture_code": 37,
    "city": "高松市",
    "city_kana": "タカマツシ",
    "town": "寿町",
    "town_kana": "コトブキチョウ",
    "street": "１丁目１−８",
    "office_name": "三菱商事　株式会社　四国支店",
    "office_name_kana": "ミツビシシヨウジ カブシキガイシヤ シコクシテン"
  },
  "8636": {
    "postcode": "7608636",
    "prefecture": "香川県",
    "prefecture_kana": "カガワケン",
    "prefecture_code": 37,
    "city": "高松市",
    "city_kana": "タカマツシ",
    "town": "大工町",
    "town_kana": "ダイクマチ",
    "street": "５−１８（高松中央郵便局私書箱第３６号）",
    "office_name": "簡易保険加入者協会",
    "office_name_kana": "カンイホケンカニユウシヤキヨウカイ"
  },
  "8638": {
    "postcode": "7608638",
    "prefecture": "香川県",
    "prefecture_kana": "カガワケン",
    "prefecture_code": 37,
    "city": "高松市",
    "city_kana": "タカマツシ",
    "town": "丸亀町",
    "town_kana": "マルガメマチ",
    "street": "１５−７（高松中央郵便局私書箱第３８号）",
    "office_name": "株式会社　百十四銀行　高松支店",
    "office_name_kana": "カブシキガイシヤ ヒヤクジユウシギンコウ タカマツシテン"
  },
  "8639": {
    "postcode": "7608639",
    "prefecture": "香川県",
    "prefecture_kana": "カガワケン",
    "prefecture_code": 37,
    "city": "高松市",
    "city_kana": "タカマツシ",
    "town": "内町",
    "town_kana": "ウチマチ",
    "street": "７−１（高松中央郵便局私書箱第１５号）",
    "office_name": "株式会社　三越　高松店",
    "office_name_kana": "カブシキガイシヤ ミツコシ タカマツテン"
  },
  "8644": {
    "postcode": "7608644",
    "prefecture": "香川県",
    "prefecture_kana": "カガワケン",
    "prefecture_code": 37,
    "city": "高松市",
    "city_kana": "タカマツシ",
    "town": "寿町",
    "town_kana": "コトブキチョウ",
    "street": "１丁目３−６（高松中央郵便局私書箱第４４号）",
    "office_name": "香川県　信用農業協同組合連合会",
    "office_name_kana": "カガワケン シンヨウノウギヨウキヨウドウクミアイレンゴウカイ"
  },
  "8648": {
    "postcode": "7608648",
    "prefecture": "香川県",
    "prefecture_kana": "カガワケン",
    "prefecture_code": 37,
    "city": "高松市",
    "city_kana": "タカマツシ",
    "town": "塩屋町",
    "town_kana": "シオヤマチ",
    "street": "８−１",
    "office_name": "四国興業　株式会社",
    "office_name_kana": "シコクコウギヨウ カブシキガイシヤ"
  },
  "8650": {
    "postcode": "7608650",
    "prefecture": "香川県",
    "prefecture_kana": "カガワケン",
    "prefecture_code": 37,
    "city": "高松市",
    "city_kana": "タカマツシ",
    "town": "亀井町",
    "town_kana": "カメイチョウ",
    "street": "７−１５",
    "office_name": "百十四ワークサポート　株式会社",
    "office_name_kana": "ヒヤクジユウシワ-クサポ-ト カブシキガイシヤ"
  },
  "8655": {
    "postcode": "7608655",
    "prefecture": "香川県",
    "prefecture_kana": "カガワケン",
    "prefecture_code": 37,
    "city": "高松市",
    "city_kana": "タカマツシ",
    "town": "寿町",
    "town_kana": "コトブキチョウ",
    "street": "２丁目１−１（高松中央郵便局私書箱第２４号）",
    "office_name": "第一生命保険相互会社　高松支社",
    "office_name_kana": "ダイイチセイメイホケンソウゴガイシヤ タカマツシシヤ"
  },
  "8660": {
    "postcode": "7608660",
    "prefecture": "香川県",
    "prefecture_kana": "カガワケン",
    "prefecture_code": 37,
    "city": "高松市",
    "city_kana": "タカマツシ",
    "town": "古新町",
    "town_kana": "フルジンマチ",
    "street": "１番地７（高松中央郵便局私書箱第１２０号）",
    "office_name": "四国総合信用　株式会社",
    "office_name_kana": "シコクソウゴウシンヨウ カブシキガイシヤ"
  },
  "8661": {
    "postcode": "7608661",
    "prefecture": "香川県",
    "prefecture_kana": "カガワケン",
    "prefecture_code": 37,
    "city": "高松市",
    "city_kana": "タカマツシ",
    "town": "福岡町",
    "town_kana": "フクオカチョウ",
    "street": "２丁目２−２−１０１（高松中央郵便局私書箱第１１４号）",
    "office_name": "香川県　信用保証協会",
    "office_name_kana": "カガワケンシンヨウホシヨウキヨウカイ"
  },
  "8667": {
    "postcode": "7608667",
    "prefecture": "香川県",
    "prefecture_kana": "カガワケン",
    "prefecture_code": 37,
    "city": "高松市",
    "city_kana": "タカマツシ",
    "town": "丸亀町",
    "town_kana": "マルガメマチ",
    "street": "３−６（高松中央郵便局私書箱第７号）",
    "office_name": "株式会社　中国銀行　高松支店",
    "office_name_kana": "カブシキガイシヤ チユウゴクギンコウ タカマツシテン"
  },
  "8668": {
    "postcode": "7608668",
    "prefecture": "香川県",
    "prefecture_kana": "カガワケン",
    "prefecture_code": 37,
    "city": "高松市",
    "city_kana": "タカマツシ",
    "town": "瓦町",
    "town_kana": "カワラマチ",
    "street": "１丁目９−２（高松中央郵便局私書箱第６９号）",
    "office_name": "高松信用金庫",
    "office_name_kana": "タカマツシンヨウキンコ"
  },
  "8671": {
    "postcode": "7608671",
    "prefecture": "香川県",
    "prefecture_kana": "カガワケン",
    "prefecture_code": 37,
    "city": "高松市",
    "city_kana": "タカマツシ",
    "town": "番町",
    "town_kana": "バンチョウ",
    "street": "１丁目１−５（高松中央郵便局私書箱第５３号）",
    "office_name": "株式会社　阿波銀行　高松支店",
    "office_name_kana": "カブシキガイシヤ アワギンコウ タカマツシテン"
  },
  "8686": {
    "postcode": "7608686",
    "prefecture": "香川県",
    "prefecture_kana": "カガワケン",
    "prefecture_code": 37,
    "city": "高松市",
    "city_kana": "タカマツシ",
    "town": "錦町",
    "town_kana": "ニシキマチ",
    "street": "１丁目１２−７（高松中央郵便局私書箱第６７号）",
    "office_name": "日本放送協会　高松放送局",
    "office_name_kana": "ニホンホウソウキヨウカイ タカマツホウソウキヨク"
  },
  "8687": {
    "postcode": "7608687",
    "prefecture": "香川県",
    "prefecture_kana": "カガワケン",
    "prefecture_code": 37,
    "city": "高松市",
    "city_kana": "タカマツシ",
    "town": "錦町",
    "town_kana": "ニシキマチ",
    "street": "２丁目６−３",
    "office_name": "日本通運　（株）　四国支店",
    "office_name_kana": "ニホンツウウン カブシキガイシヤ シコクシテン"
  },
  "8688": {
    "postcode": "7608688",
    "prefecture": "香川県",
    "prefecture_kana": "カガワケン",
    "prefecture_code": 37,
    "city": "高松市",
    "city_kana": "タカマツシ",
    "town": "錦町",
    "town_kana": "ニシキマチ",
    "street": "１丁目１１−３（高松中央郵便局私書箱第１８号）",
    "office_name": "株式会社　帝国データバンク　高松支店",
    "office_name_kana": "カブシキガイシヤ テイコクデ-タバンク タカマツシテン"
  }
}