{
  "0000": {
    "postcode": "7640000",
    "prefecture": "香川県",
    "prefecture_kana": "カガワケン",
    "prefecture_code": 37,
    "city": "仲多度郡多度津町",
    "city_kana": "ナカタドグンタドツチョウ",
    "town": "",
    "town_kana": "",
    "street": null,
    "office_name": null,
    "office_name_kana": null
  },
  "0001": {
    "postcode": "7640001",
    "prefecture": "香川県",
    "prefecture_kana": "カガワケン",
    "prefecture_code": 37,
    "city": "仲多度郡多度津町",
    "city_kana": "ナカタドグンタドツチョウ",
    "town": "東新町",
    "town_kana": "ヒガシシンマチ",
    "street": null,
    "office_name": null,
    "office_name_kana": null
  },
  "0002": {
    "postcode": "7640002",
    "prefecture": "香川県",
    "prefecture_kana": "カガワケン",
    "prefecture_code": 37,
    "city": "仲多度郡多度津町",
    "city_kana": "ナカタドグンタドツチョウ",
    "town": "家中",
    "town_kana": "カチュウ",
    "street": null,
    "office_name": null,
    "office_name_kana": null
  },
  "0003": {
    "postcode": "7640003",
    "prefecture": "香川県",
    "prefecture_kana": "カガワケン",
    "prefecture_code": 37,
    "city": "仲多度郡多度津町",
    "city_kana": "ナカタドグンタドツチョウ",
    "town": "元町",
    "town_kana": "モトマチ",
    "street": null,
    "office_name": null,
    "office_name_kana": null
  },
  "0004": {
    "postcode": "7640004",
    "prefecture": "香川県",
    "prefecture_kana": "カガワケン",
    "prefecture_code": 37,
    "city": "仲多度郡多度津町",
    "city_kana": "ナカタドグンタドツチョウ",
    "town": "仲ノ町",
    "town_kana": "ナカノチョウ",
    "street": null,
    "office_name": null,
    "office_name_kana": null
  },
  "0005": {
    "postcode": "7640005",
    "prefecture": "香川県",
    "prefecture_kana": "カガワケン",
    "prefecture_code": 37,
    "city": "仲多度郡多度津町",
    "city_kana": "ナカタドグンタドツチョウ",
    "town": "大通り",
    "town_kana": "オオドオリ",
    "street": null,
    "office_name": null,
    "office_name_kana": null
  },
  "0006": {
    "postcode": "7640006",
    "prefecture": "香川県",
    "prefecture_kana": "カガワケン",
    "prefecture_code": 37,
    "city": "仲多度郡多度津町",
    "city_kana": "ナカタドグンタドツチョウ",
    "town": "日の出町",
    "town_kana": "ヒノデチョウ",
    "street": null,
    "office_name": null,
    "office_name_kana": null
  },
  "0011": {
    "postcode": "7640011",
    "prefecture": "香川県",
    "prefecture_kana": "カガワケン",
    "prefecture_code": 37,
    "city": "仲多度郡多度津町",
    "city_kana": "ナカタドグンタドツチョウ",
    "town": "栄町",
    "town_kana": "サカエマチ",
    "street": null,
    "office_name": null,
    "office_name_kana": null
  },
  "0012": {
    "postcode": "7640012",
    "prefecture": "香川県",
    "prefecture_kana": "カガワケン",
    "prefecture_code": 37,
    "city": "仲多度郡多度津町",
    "city_kana": "ナカタドグンタドツチョウ",
    "town": "桜川",
    "town_kana": "サクラガワ",
    "street": null,
    "office_name": null,
    "office_name_kana": null
  },
  "0013": {
    "postcode": "7640013",
    "prefecture": "香川県",
    "prefecture_kana": "カガワケン",
    "prefecture_code": 37,
    "city": "仲多度郡多度津町",
    "city_kana": "ナカタドグンタドツチョウ",
    "town": "京町",
    "town_kana": "キョウマチ",
    "street": null,
    "office_name": null,
    "office_name_kana": null
  },
  "0014": {
    "postcode": "7640014",
    "prefecture": "香川県",
    "prefecture_kana": "カガワケン",
    "prefecture_code": 37,
    "city": "仲多度郡多度津町",
    "city_kana": "ナカタドグンタドツチョウ",
    "town": "本通",
    "town_kana": "ホンドオリ",
    "street": null,
    "office_name": null,
    "office_name_kana": null
  },
  "0015": {
    "postcode": "7640015",
    "prefecture": "香川県",
    "prefecture_kana": "カガワケン",
    "prefecture_code": 37,
    "city": "仲多度郡多度津町",
    "city_kana": "ナカタドグンタドツチョウ",
    "town": "西浜",
    "town_kana": "ニシハマ",
    "street": null,
    "office_name": null,
    "office_name_kana": null
  },
  "0016": {
    "postcode": "7640016",
    "prefecture": "香川県",
    "prefecture_kana": "カガワケン",
    "prefecture_code": 37,
    "city": "仲多度郡多度津町",
    "city_kana": "ナカタドグンタドツチョウ",
    "town": "東浜",
    "town_kana": "ヒガシハマ",
    "street": null,
    "office_name": null,
    "office_name_kana": null
  },
  "0017": {
    "postcode": "7640017",
    "prefecture": "香川県",
    "prefecture_kana": "カガワケン",
    "prefecture_code": 37,
    "city": "仲多度郡多度津町",
    "city_kana": "ナカタドグンタドツチョウ",
    "town": "西港町",
    "town_kana": "ニシミナトマチ",
    "street": null,
    "office_name": null,
    "office_name_kana": null
  },
  "0018": {
    "postcode": "7640018",
    "prefecture": "香川県",
    "prefecture_kana": "カガワケン",
    "prefecture_code": 37,
    "city": "仲多度郡多度津町",
    "city_kana": "ナカタドグンタドツチョウ",
    "town": "東港町",
    "town_kana": "ヒガシミナトマチ",
    "street": null,
    "office_name": null,
    "office_name_kana": null
  },
  "0021": {
    "postcode": "7640021",
    "prefecture": "香川県",
    "prefecture_kana": "カガワケン",
    "prefecture_code": 37,
    "city": "仲多度郡多度津町",
    "city_kana": "ナカタドグンタドツチョウ",
    "town": "堀江",
    "town_kana": "ホリエ",
    "street": null,
    "office_name": null,
    "office_name_kana": null
  },
  "0022": {
    "postcode": "7640022",
    "prefecture": "香川県",
    "prefecture_kana": "カガワケン",
    "prefecture_code": 37,
    "city": "仲多度郡多度津町",
    "city_kana": "ナカタドグンタドツチョウ",
    "town": "北鴨",
    "town_kana": "キタガモ",
    "street": null,
    "office_name": null,
    "office_name_kana": null
  },
  "0023": {
    "postcode": "7640023",
    "prefecture": "香川県",
    "prefecture_kana": "カガワケン",
    "prefecture_code": 37,
    "city": "仲多度郡多度津町",
    "city_kana": "ナカタドグンタドツチョウ",
    "town": "若葉町",
    "town_kana": "ワカバチョウ",
    "street": null,
    "office_name": null,
    "office_name_kana": null
  },
  "0024": {
    "postcode": "7640024",
    "prefecture": "香川県",
    "prefecture_kana": "カガワケン",
    "prefecture_code": 37,
    "city": "仲多度郡多度津町",
    "city_kana": "ナカタドグンタドツチョウ",
    "town": "幸町",
    "town_kana": "サイワイチョウ",
    "street": null,
    "office_name": null,
    "office_name_kana": null
  },
  "0025": {
    "postcode": "7640025",
    "prefecture": "香川県",
    "prefecture_kana": "カガワケン",
    "prefecture_code": 37,
    "city": "仲多度郡多度津町",
    "city_kana": "ナカタドグンタドツチョウ",
    "town": "寿町",
    "town_kana": "コトブキチョウ",
    "street": null,
    "office_name": null,
    "office_name_kana": null
  },
  "0026": {
    "postcode": "7640026",
    "prefecture": "香川県",
    "prefecture_kana": "カガワケン",
    "prefecture_code": 37,
    "city": "仲多度郡多度津町",
    "city_kana": "ナカタドグンタドツチョウ",
    "town": "南鴨",
    "town_kana": "ミナミガモ",
    "street": null,
    "office_name": null,
    "office_name_kana": null
  },
  "0027": {
    "postcode": "7640027",
    "prefecture": "香川県",
    "prefecture_kana": "カガワケン",
    "prefecture_code": 37,
    "city": "仲多度郡多度津町",
    "city_kana": "ナカタドグンタドツチョウ",
    "town": "道福寺",
    "town_kana": "ドウフクジ",
    "street": null,
    "office_name": null,
    "office_name_kana": null
  },
  "0028": {
    "postcode": "7640028",
    "prefecture": "香川県",
    "prefecture_kana": "カガワケン",
    "prefecture_code": 37,
    "city": "仲多度郡多度津町",
    "city_kana": "ナカタドグンタドツチョウ",
    "town": "葛原",
    "town_kana": "カズハラ",
    "street": null,
    "office_name": null,
    "office_name_kana": null
  },
  "0031": {
    "postcode": "7640031",
    "prefecture": "香川県",
    "prefecture_kana": "カガワケン",
    "prefecture_code": 37,
    "city": "仲多度郡多度津町",
    "city_kana": "ナカタドグンタドツチョウ",
    "town": "庄",
    "town_kana": "ショウ",
    "street": null,
    "office_name": null,
    "office_name_kana": null
  },
  "0032": {
    "postcode": "7640032",
    "prefecture": "香川県",
    "prefecture_kana": "カガワケン",
    "prefecture_code": 37,
    "city": "仲多度郡多度津町",
    "city_kana": "ナカタドグンタドツチョウ",
    "town": "三井",
    "town_kana": "ミイ",
    "street": null,
    "office_name": null,
    "office_name_kana": null
  },
  "0033": {
    "postcode": "7640033",
    "prefecture": "香川県",
    "prefecture_kana": "カガワケン",
    "prefecture_code": 37,
    "city": "仲多度郡多度津町",
    "city_kana": "ナカタドグンタドツチョウ",
    "town": "青木",
    "town_kana": "オオギ",
    "street": null,
    "office_name": null,
    "office_name_kana": null
  },
  "0034": {
    "postcode": "7640034",
    "prefecture": "香川県",
    "prefecture_kana": "カガワケン",
    "prefecture_code": 37,
    "city": "仲多度郡多度津町",
    "city_kana": "ナカタドグンタドツチョウ",
    "town": "山階",
    "town_kana": "ヤマシナ",
    "street": null,
    "office_name": null,
    "office_name_kana": null
  },
  "0035": {
    "postcode": "7640035",
    "prefecture": "香川県",
    "prefecture_kana": "カガワケン",
    "prefecture_code": 37,
    "city": "仲多度郡多度津町",
    "city_kana": "ナカタドグンタドツチョウ",
    "town": "奥白方",
    "town_kana": "オクシラカタ",
    "street": null,
    "office_name": null,
    "office_name_kana": null
  },
  "0036": {
    "postcode": "7640036",
    "prefecture": "香川県",
    "prefecture_kana": "カガワケン",
    "prefecture_code": 37,
    "city": "仲多度郡多度津町",
    "city_kana": "ナカタドグンタドツチョウ",
    "town": "見立",
    "town_kana": "ミタチ",
    "street": null,
    "office_name": null,
    "office_name_kana": null
  },
  "0037": {
    "postcode": "7640037",
    "prefecture": "香川県",
    "prefecture_kana": "カガワケン",
    "prefecture_code": 37,
    "city": "仲多度郡多度津町",
    "city_kana": "ナカタドグンタドツチョウ",
    "town": "西白方",
    "town_kana": "ニシシラカタ",
    "street": null,
    "office_name": null,
    "office_name_kana": null
  },
  "0038": {
    "postcode": "7640038",
    "prefecture": "香川県",
    "prefecture_kana": "カガワケン",
    "prefecture_code": 37,
    "city": "仲多度郡多度津町",
    "city_kana": "ナカタドグンタドツチョウ",
    "town": "東白方",
    "town_kana": "ヒガシシラカタ",
    "street": null,
    "office_name": null,
    "office_name_kana": null
  },
  "0040": {
    "postcode": "7640040",
    "prefecture": "香川県",
    "prefecture_kana": "カガワケン",
    "prefecture_code": 37,
    "city": "仲多度郡多度津町",
    "city_kana": "ナカタドグンタドツチョウ",
    "town": "佐柳",
    "town_kana": "サナギ",
    "street": null,
    "office_name": null,
    "office_name_kana": null
  },
  "0050": {
    "postcode": "7640050",
    "prefecture": "香川県",
    "prefecture_kana": "カガワケン",
    "prefecture_code": 37,
    "city": "仲多度郡多度津町",
    "city_kana": "ナカタドグンタドツチョウ",
    "town": "高見",
    "town_kana": "タカミ",
    "street": null,
    "office_name": null,
    "office_name_kana": null
  },
  "8501": {
    "postcode": "7648501",
    "prefecture": "香川県",
    "prefecture_kana": "カガワケン",
    "prefecture_code": 37,
    "city": "仲多度郡多度津町",
    "city_kana": "ナカタドグンタドツチョウ",
    "town": "栄町",
    "town_kana": "サカエマチ",
    "street": "三丁目３番９５号",
    "office_name": "多度津町役場・地域交流センター",
    "office_name_kana": "タドツチヨウヤクバ・チイキコウリユウセンタ-"
  },
  "8502": {
    "postcode": "7648502",
    "prefecture": "香川県",
    "prefecture_kana": "カガワケン",
    "prefecture_code": 37,
    "city": "仲多度郡多度津町",
    "city_kana": "ナカタドグンタドツチョウ",
    "town": "",
    "town_kana": "",
    "street": "南鴨２００−１",
    "office_name": "四国計測工業　株式会社",
    "office_name_kana": "シコクケイソクコウギヨウ カブシキガイシヤ"
  },
  "8503": {
    "postcode": "7648503",
    "prefecture": "香川県",
    "prefecture_kana": "カガワケン",
    "prefecture_code": 37,
    "city": "仲多度郡多度津町",
    "city_kana": "ナカタドグンタドツチョウ",
    "town": "東港町",
    "town_kana": "ヒガシミナトマチ",
    "street": "１−１",
    "office_name": "波止浜造船　（株）",
    "office_name_kana": "ハシハマゾウセン カブシキガイシヤ"
  },
  "8505": {
    "postcode": "7648505",
    "prefecture": "香川県",
    "prefecture_kana": "カガワケン",
    "prefecture_code": 37,
    "city": "仲多度郡多度津町",
    "city_kana": "ナカタドグンタドツチョウ",
    "town": "大字山階",
    "town_kana": null,
    "street": "４５５",
    "office_name": "（株）　英弘チエン",
    "office_name_kana": "カブシキガイシヤ エイコウチエン"
  },
  "8507": {
    "postcode": "7648507",
    "prefecture": "香川県",
    "prefecture_kana": "カガワケン",
    "prefecture_code": 37,
    "city": "仲多度郡多度津町",
    "city_kana": "ナカタドグンタドツチョウ",
    "town": "桜川",
    "town_kana": "サクラガワ",
    "street": "２丁目１−９７",
    "office_name": "四変テック　（株）",
    "office_name_kana": "シヘンテツク カブシキガイシヤ"
  },
  "8508": {
    "postcode": "7648508",
    "prefecture": "香川県",
    "prefecture_kana": "カガワケン",
    "prefecture_code": 37,
    "city": "仲多度郡多度津町",
    "city_kana": "ナカタドグンタドツチョウ",
    "town": "東浜",
    "town_kana": "ヒガシハマ",
    "street": "６−３０",
    "office_name": "多度津商工会議所",
    "office_name_kana": "タドツシヨウコウカイギシヨ"
  },
  "8510": {
    "postcode": "7648510",
    "prefecture": "香川県",
    "prefecture_kana": "カガワケン",
    "prefecture_code": 37,
    "city": "仲多度郡多度津町",
    "city_kana": "ナカタドグンタドツチョウ",
    "town": "東港町",
    "town_kana": "ヒガシミナトマチ",
    "street": "７−８",
    "office_name": "株式会社　長府製作所　香川工場",
    "office_name_kana": "カブシキガイシヤ チヨウフセイサクシヨ カガワコウジヨウ"
  },
  "8511": {
    "postcode": "7648511",
    "prefecture": "香川県",
    "prefecture_kana": "カガワケン",
    "prefecture_code": 37,
    "city": "仲多度郡多度津町",
    "city_kana": "ナカタドグンタドツチョウ",
    "town": "本通",
    "town_kana": "ホンドオリ",
    "street": "３丁目１−４８（多度津郵便局私書箱第７号）",
    "office_name": "宗教法人　金剛禅総本山少林寺",
    "office_name_kana": "シユウキヨウホウジン コンゴウゼンソウホンザンシヨウリンジ"
  },
  "8520": {
    "postcode": "7648520",
    "prefecture": "香川県",
    "prefecture_kana": "カガワケン",
    "prefecture_code": 37,
    "city": "仲多度郡多度津町",
    "city_kana": "ナカタドグンタドツチョウ",
    "town": "西港町",
    "town_kana": "ニシミナトマチ",
    "street": "１７",
    "office_name": "川田工業　株式会社",
    "office_name_kana": "カワタコウギヨウ カブシキガイシヤ"
  }
}