{
  "0000": {
    "postcode": "7700000",
    "prefecture": "徳島県",
    "prefecture_kana": "トクシマケン",
    "prefecture_code": 36,
    "city": "徳島市",
    "city_kana": "トクシマシ",
    "town": "",
    "town_kana": "",
    "street": null,
    "office_name": null,
    "office_name_kana": null
  },
  "0001": {
    "postcode": "7700001",
    "prefecture": "徳島県",
    "prefecture_kana": "トクシマケン",
    "prefecture_code": 36,
    "city": "徳島市",
    "city_kana": "トクシマシ",
    "town": "春日町",
    "town_kana": "カスガチョウ",
    "street": null,
    "office_name": null,
    "office_name_kana": null
  },
  "0002": {
    "postcode": "7700002",
    "prefecture": "徳島県",
    "prefecture_kana": "トクシマケン",
    "prefecture_code": 36,
    "city": "徳島市",
    "city_kana": "トクシマシ",
    "town": "春日",
    "town_kana": "カスガ",
    "street": null,
    "office_name": null,
    "office_name_kana": null
  },
  "0003": {
    "postcode": "7700003",
    "prefecture": "徳島県",
    "prefecture_kana": "トクシマケン",
    "prefecture_code": 36,
    "city": "徳島市",
    "city_kana": "トクシマシ",
    "town": "北田宮",
    "town_kana": "キタタミヤ",
    "street": null,
    "office_name": null,
    "office_name_kana": null
  },
  "0004": {
    "postcode": "7700004",
    "prefecture": "徳島県",
    "prefecture_kana": "トクシマケン",
    "prefecture_code": 36,
    "city": "徳島市",
    "city_kana": "トクシマシ",
    "town": "南田宮",
    "town_kana": "ミナミタミヤ",
    "street": null,
    "office_name": null,
    "office_name_kana": null
  },
  "0005": {
    "postcode": "7700005",
    "prefecture": "徳島県",
    "prefecture_kana": "トクシマケン",
    "prefecture_code": 36,
    "city": "徳島市",
    "city_kana": "トクシマシ",
    "town": "南矢三町",
    "town_kana": "ミナミヤソチョウ",
    "street": null,
    "office_name": null,
    "office_name_kana": null
  },
  "0006": {
    "postcode": "7700006",
    "prefecture": "徳島県",
    "prefecture_kana": "トクシマケン",
    "prefecture_code": 36,
    "city": "徳島市",
    "city_kana": "トクシマシ",
    "town": "北矢三町",
    "town_kana": "キタヤソチョウ",
    "street": null,
    "office_name": null,
    "office_name_kana": null
  },
  "0011": {
    "postcode": "7700011",
    "prefecture": "徳島県",
    "prefecture_kana": "トクシマケン",
    "prefecture_code": 36,
    "city": "徳島市",
    "city_kana": "トクシマシ",
    "town": "北佐古一番町",
    "town_kana": "キタサコイチバンチョウ",
    "street": null,
    "office_name": null,
    "office_name_kana": null
  },
  "0012": {
    "postcode": "7700012",
    "prefecture": "徳島県",
    "prefecture_kana": "トクシマケン",
    "prefecture_code": 36,
    "city": "徳島市",
    "city_kana": "トクシマシ",
    "town": "北佐古二番町",
    "town_kana": "キタサコニバンチョウ",
    "street": null,
    "office_name": null,
    "office_name_kana": null
  },
  "0021": {
    "postcode": "7700021",
    "prefecture": "徳島県",
    "prefecture_kana": "トクシマケン",
    "prefecture_code": 36,
    "city": "徳島市",
    "city_kana": "トクシマシ",
    "town": "佐古一番町",
    "town_kana": "サコ1バンチョウ",
    "street": null,
    "office_name": null,
    "office_name_kana": null
  },
  "0022": {
    "postcode": "7700022",
    "prefecture": "徳島県",
    "prefecture_kana": "トクシマケン",
    "prefecture_code": 36,
    "city": "徳島市",
    "city_kana": "トクシマシ",
    "town": "佐古二番町",
    "town_kana": "サコ2バンチョウ",
    "street": null,
    "office_name": null,
    "office_name_kana": null
  },
  "0023": {
    "postcode": "7700023",
    "prefecture": "徳島県",
    "prefecture_kana": "トクシマケン",
    "prefecture_code": 36,
    "city": "徳島市",
    "city_kana": "トクシマシ",
    "town": "佐古三番町",
    "town_kana": "サコ3バンチョウ",
    "street": null,
    "office_name": null,
    "office_name_kana": null
  },
  "0024": {
    "postcode": "7700024",
    "prefecture": "徳島県",
    "prefecture_kana": "トクシマケン",
    "prefecture_code": 36,
    "city": "徳島市",
    "city_kana": "トクシマシ",
    "town": "佐古四番町",
    "town_kana": "サコ4バンチョウ",
    "street": null,
    "office_name": null,
    "office_name_kana": null
  },
  "0025": {
    "postcode": "7700025",
    "prefecture": "徳島県",
    "prefecture_kana": "トクシマケン",
    "prefecture_code": 36,
    "city": "徳島市",
    "city_kana": "トクシマシ",
    "town": "佐古五番町",
    "town_kana": "サコ5バンチョウ",
    "street": null,
    "office_name": null,
    "office_name_kana": null
  },
  "0026": {
    "postcode": "7700026",
    "prefecture": "徳島県",
    "prefecture_kana": "トクシマケン",
    "prefecture_code": 36,
    "city": "徳島市",
    "city_kana": "トクシマシ",
    "town": "佐古六番町",
    "town_kana": "サコ6バンチョウ",
    "street": null,
    "office_name": null,
    "office_name_kana": null
  },
  "0027": {
    "postcode": "7700027",
    "prefecture": "徳島県",
    "prefecture_kana": "トクシマケン",
    "prefecture_code": 36,
    "city": "徳島市",
    "city_kana": "トクシマシ",
    "town": "佐古七番町",
    "town_kana": "サコ7バンチョウ",
    "street": null,
    "office_name": null,
    "office_name_kana": null
  },
  "0028": {
    "postcode": "7700028",
    "prefecture": "徳島県",
    "prefecture_kana": "トクシマケン",
    "prefecture_code": 36,
    "city": "徳島市",
    "city_kana": "トクシマシ",
    "town": "佐古八番町",
    "town_kana": "サコ8バンチョウ",
    "street": null,
    "office_name": null,
    "office_name_kana": null
  },
  "0031": {
    "postcode": "7700031",
    "prefecture": "徳島県",
    "prefecture_kana": "トクシマケン",
    "prefecture_code": 36,
    "city": "徳島市",
    "city_kana": "トクシマシ",
    "town": "南佐古一番町",
    "town_kana": "ミナミサコ1バンチョウ",
    "street": null,
    "office_name": null,
    "office_name_kana": null
  },
  "0032": {
    "postcode": "7700032",
    "prefecture": "徳島県",
    "prefecture_kana": "トクシマケン",
    "prefecture_code": 36,
    "city": "徳島市",
    "city_kana": "トクシマシ",
    "town": "南佐古二番町",
    "town_kana": "ミナミサコ2バンチョウ",
    "street": null,
    "office_name": null,
    "office_name_kana": null
  },
  "0033": {
    "postcode": "7700033",
    "prefecture": "徳島県",
    "prefecture_kana": "トクシマケン",
    "prefecture_code": 36,
    "city": "徳島市",
    "city_kana": "トクシマシ",
    "town": "南佐古三番町",
    "town_kana": "ミナミサコ3バンチョウ",
    "street": null,
    "office_name": null,
    "office_name_kana": null
  },
  "0034": {
    "postcode": "7700034",
    "prefecture": "徳島県",
    "prefecture_kana": "トクシマケン",
    "prefecture_code": 36,
    "city": "徳島市",
    "city_kana": "トクシマシ",
    "town": "南佐古四番町",
    "town_kana": "ミナミサコ4バンチョウ",
    "street": null,
    "office_name": null,
    "office_name_kana": null
  },
  "0035": {
    "postcode": "7700035",
    "prefecture": "徳島県",
    "prefecture_kana": "トクシマケン",
    "prefecture_code": 36,
    "city": "徳島市",
    "city_kana": "トクシマシ",
    "town": "南佐古五番町",
    "town_kana": "ミナミサコ5バンチョウ",
    "street": null,
    "office_name": null,
    "office_name_kana": null
  },
  "0036": {
    "postcode": "7700036",
    "prefecture": "徳島県",
    "prefecture_kana": "トクシマケン",
    "prefecture_code": 36,
    "city": "徳島市",
    "city_kana": "トクシマシ",
    "town": "南佐古六番町",
    "town_kana": "ミナミサコ6バンチョウ",
    "street": null,
    "office_name": null,
    "office_name_kana": null
  },
  "0037": {
    "postcode": "7700037",
    "prefecture": "徳島県",
    "prefecture_kana": "トクシマケン",
    "prefecture_code": 36,
    "city": "徳島市",
    "city_kana": "トクシマシ",
    "town": "南佐古七番町",
    "town_kana": "ミナミサコ7バンチョウ",
    "street": null,
    "office_name": null,
    "office_name_kana": null
  },
  "0038": {
    "postcode": "7700038",
    "prefecture": "徳島県",
    "prefecture_kana": "トクシマケン",
    "prefecture_code": 36,
    "city": "徳島市",
    "city_kana": "トクシマシ",
    "town": "南佐古八番町",
    "town_kana": "ミナミサコ8バンチョウ",
    "street": null,
    "office_name": null,
    "office_name_kana": null
  },
  "0039": {
    "postcode": "7700039",
    "prefecture": "徳島県",
    "prefecture_kana": "トクシマケン",
    "prefecture_code": 36,
    "city": "徳島市",
    "city_kana": "トクシマシ",
    "town": "佐古山町",
    "town_kana": "サコヤマチョウ",
    "street": null,
    "office_name": null,
    "office_name_kana": null
  },
  "0041": {
    "postcode": "7700041",
    "prefecture": "徳島県",
    "prefecture_kana": "トクシマケン",
    "prefecture_code": 36,
    "city": "徳島市",
    "city_kana": "トクシマシ",
    "town": "蔵本元町",
    "town_kana": "クラモトモトマチ",
    "street": null,
    "office_name": null,
    "office_name_kana": null
  },
  "0042": {
    "postcode": "7700042",
    "prefecture": "徳島県",
    "prefecture_kana": "トクシマケン",
    "prefecture_code": 36,
    "city": "徳島市",
    "city_kana": "トクシマシ",
    "town": "蔵本町",
    "town_kana": "クラモトチョウ",
    "street": null,
    "office_name": null,
    "office_name_kana": null
  },
  "0043": {
    "postcode": "7700043",
    "prefecture": "徳島県",
    "prefecture_kana": "トクシマケン",
    "prefecture_code": 36,
    "city": "徳島市",
    "city_kana": "トクシマシ",
    "town": "南蔵本町",
    "town_kana": "ミナミクラモトチョウ",
    "street": null,
    "office_name": null,
    "office_name_kana": null
  },
  "0044": {
    "postcode": "7700044",
    "prefecture": "徳島県",
    "prefecture_kana": "トクシマケン",
    "prefecture_code": 36,
    "city": "徳島市",
    "city_kana": "トクシマシ",
    "town": "庄町",
    "town_kana": "ショウマチ",
    "street": null,
    "office_name": null,
    "office_name_kana": null
  },
  "0045": {
    "postcode": "7700045",
    "prefecture": "徳島県",
    "prefecture_kana": "トクシマケン",
    "prefecture_code": 36,
    "city": "徳島市",
    "city_kana": "トクシマシ",
    "town": "南庄町",
    "town_kana": "ミナミショウマチ",
    "street": null,
    "office_name": null,
    "office_name_kana": null
  },
  "0046": {
    "postcode": "7700046",
    "prefecture": "徳島県",
    "prefecture_kana": "トクシマケン",
    "prefecture_code": 36,
    "city": "徳島市",
    "city_kana": "トクシマシ",
    "town": "鮎喰町",
    "town_kana": "アクイチョウ",
    "street": null,
    "office_name": null,
    "office_name_kana": null
  },
  "0047": {
    "postcode": "7700047",
    "prefecture": "徳島県",
    "prefecture_kana": "トクシマケン",
    "prefecture_code": 36,
    "city": "徳島市",
    "city_kana": "トクシマシ",
    "town": "名東町",
    "town_kana": "ミョウドウチョウ",
    "street": null,
    "office_name": null,
    "office_name_kana": null
  },
  "0048": {
    "postcode": "7700048",
    "prefecture": "徳島県",
    "prefecture_kana": "トクシマケン",
    "prefecture_code": 36,
    "city": "徳島市",
    "city_kana": "トクシマシ",
    "town": "加茂名町",
    "town_kana": "カモナチョウ",
    "street": null,
    "office_name": null,
    "office_name_kana": null
  },
  "0051": {
    "postcode": "7700051",
    "prefecture": "徳島県",
    "prefecture_kana": "トクシマケン",
    "prefecture_code": 36,
    "city": "徳島市",
    "city_kana": "トクシマシ",
    "town": "北島田町",
    "town_kana": "キタシマダチョウ",
    "street": null,
    "office_name": null,
    "office_name_kana": null
  },
  "0052": {
    "postcode": "7700052",
    "prefecture": "徳島県",
    "prefecture_kana": "トクシマケン",
    "prefecture_code": 36,
    "city": "徳島市",
    "city_kana": "トクシマシ",
    "town": "中島田町",
    "town_kana": "ナカシマダチョウ",
    "street": null,
    "office_name": null,
    "office_name_kana": null
  },
  "0053": {
    "postcode": "7700053",
    "prefecture": "徳島県",
    "prefecture_kana": "トクシマケン",
    "prefecture_code": 36,
    "city": "徳島市",
    "city_kana": "トクシマシ",
    "town": "南島田町",
    "town_kana": "ミナミシマダチョウ",
    "street": null,
    "office_name": null,
    "office_name_kana": null
  },
  "0061": {
    "postcode": "7700061",
    "prefecture": "徳島県",
    "prefecture_kana": "トクシマケン",
    "prefecture_code": 36,
    "city": "徳島市",
    "city_kana": "トクシマシ",
    "town": "不動北町",
    "town_kana": "フドウキタマチ",
    "street": null,
    "office_name": null,
    "office_name_kana": null
  },
  "0062": {
    "postcode": "7700062",
    "prefecture": "徳島県",
    "prefecture_kana": "トクシマケン",
    "prefecture_code": 36,
    "city": "徳島市",
    "city_kana": "トクシマシ",
    "town": "不動東町",
    "town_kana": "フドウヒガシマチ",
    "street": null,
    "office_name": null,
    "office_name_kana": null
  },
  "0063": {
    "postcode": "7700063",
    "prefecture": "徳島県",
    "prefecture_kana": "トクシマケン",
    "prefecture_code": 36,
    "city": "徳島市",
    "city_kana": "トクシマシ",
    "town": "不動本町",
    "town_kana": "フドウホンチョウ",
    "street": null,
    "office_name": null,
    "office_name_kana": null
  },
  "0064": {
    "postcode": "7700064",
    "prefecture": "徳島県",
    "prefecture_kana": "トクシマケン",
    "prefecture_code": 36,
    "city": "徳島市",
    "city_kana": "トクシマシ",
    "town": "不動西町",
    "town_kana": "フドウニシマチ",
    "street": null,
    "office_name": null,
    "office_name_kana": null
  },
  "0801": {
    "postcode": "7700801",
    "prefecture": "徳島県",
    "prefecture_kana": "トクシマケン",
    "prefecture_code": 36,
    "city": "徳島市",
    "city_kana": "トクシマシ",
    "town": "上助任町",
    "town_kana": "カミスケトウチョウ",
    "street": null,
    "office_name": null,
    "office_name_kana": null
  },
  "0802": {
    "postcode": "7700802",
    "prefecture": "徳島県",
    "prefecture_kana": "トクシマケン",
    "prefecture_code": 36,
    "city": "徳島市",
    "city_kana": "トクシマシ",
    "town": "吉野本町",
    "town_kana": "ヨシノホンチョウ",
    "street": null,
    "office_name": null,
    "office_name_kana": null
  },
  "0803": {
    "postcode": "7700803",
    "prefecture": "徳島県",
    "prefecture_kana": "トクシマケン",
    "prefecture_code": 36,
    "city": "徳島市",
    "city_kana": "トクシマシ",
    "town": "上吉野町",
    "town_kana": "カミヨシノチョウ",
    "street": null,
    "office_name": null,
    "office_name_kana": null
  },
  "0804": {
    "postcode": "7700804",
    "prefecture": "徳島県",
    "prefecture_kana": "トクシマケン",
    "prefecture_code": 36,
    "city": "徳島市",
    "city_kana": "トクシマシ",
    "town": "中吉野町",
    "town_kana": "ナカヨシノチョウ",
    "street": null,
    "office_name": null,
    "office_name_kana": null
  },
  "0805": {
    "postcode": "7700805",
    "prefecture": "徳島県",
    "prefecture_kana": "トクシマケン",
    "prefecture_code": 36,
    "city": "徳島市",
    "city_kana": "トクシマシ",
    "town": "下助任町",
    "town_kana": "シモスケトウチョウ",
    "street": null,
    "office_name": null,
    "office_name_kana": null
  },
  "0806": {
    "postcode": "7700806",
    "prefecture": "徳島県",
    "prefecture_kana": "トクシマケン",
    "prefecture_code": 36,
    "city": "徳島市",
    "city_kana": "トクシマシ",
    "town": "北前川町",
    "town_kana": "キタマエガワチョウ",
    "street": null,
    "office_name": null,
    "office_name_kana": null
  },
  "0807": {
    "postcode": "7700807",
    "prefecture": "徳島県",
    "prefecture_kana": "トクシマケン",
    "prefecture_code": 36,
    "city": "徳島市",
    "city_kana": "トクシマシ",
    "town": "中前川町",
    "town_kana": "ナカマエガワチョウ",
    "street": null,
    "office_name": null,
    "office_name_kana": null
  },
  "0808": {
    "postcode": "7700808",
    "prefecture": "徳島県",
    "prefecture_kana": "トクシマケン",
    "prefecture_code": 36,
    "city": "徳島市",
    "city_kana": "トクシマシ",
    "town": "南前川町",
    "town_kana": "ミナミマエガワチョウ",
    "street": null,
    "office_name": null,
    "office_name_kana": null
  },
  "0811": {
    "postcode": "7700811",
    "prefecture": "徳島県",
    "prefecture_kana": "トクシマケン",
    "prefecture_code": 36,
    "city": "徳島市",
    "city_kana": "トクシマシ",
    "town": "東吉野町",
    "town_kana": "ヒガシヨシノチョウ",
    "street": null,
    "office_name": null,
    "office_name_kana": null
  },
  "0812": {
    "postcode": "7700812",
    "prefecture": "徳島県",
    "prefecture_kana": "トクシマケン",
    "prefecture_code": 36,
    "city": "徳島市",
    "city_kana": "トクシマシ",
    "town": "北常三島町",
    "town_kana": "キタジョウサンジマチョウ",
    "street": null,
    "office_name": null,
    "office_name_kana": null
  },
  "0813": {
    "postcode": "7700813",
    "prefecture": "徳島県",
    "prefecture_kana": "トクシマケン",
    "prefecture_code": 36,
    "city": "徳島市",
    "city_kana": "トクシマシ",
    "town": "中常三島町",
    "town_kana": "ナカジョウサンジマチョウ",
    "street": null,
    "office_name": null,
    "office_name_kana": null
  },
  "0814": {
    "postcode": "7700814",
    "prefecture": "徳島県",
    "prefecture_kana": "トクシマケン",
    "prefecture_code": 36,
    "city": "徳島市",
    "city_kana": "トクシマシ",
    "town": "南常三島町",
    "town_kana": "ミナミジョウサンジマチョウ",
    "street": null,
    "office_name": null,
    "office_name_kana": null
  },
  "0815": {
    "postcode": "7700815",
    "prefecture": "徳島県",
    "prefecture_kana": "トクシマケン",
    "prefecture_code": 36,
    "city": "徳島市",
    "city_kana": "トクシマシ",
    "town": "助任橋",
    "town_kana": "スケトウバシ",
    "street": null,
    "office_name": null,
    "office_name_kana": null
  },
  "0816": {
    "postcode": "7700816",
    "prefecture": "徳島県",
    "prefecture_kana": "トクシマケン",
    "prefecture_code": 36,
    "city": "徳島市",
    "city_kana": "トクシマシ",
    "town": "助任本町",
    "town_kana": "スケトウホンチョウ",
    "street": null,
    "office_name": null,
    "office_name_kana": null
  },
  "0821": {
    "postcode": "7700821",
    "prefecture": "徳島県",
    "prefecture_kana": "トクシマケン",
    "prefecture_code": 36,
    "city": "徳島市",
    "city_kana": "トクシマシ",
    "town": "北出来島町",
    "town_kana": "キタデキジマチョウ",
    "street": null,
    "office_name": null,
    "office_name_kana": null
  },
  "0822": {
    "postcode": "7700822",
    "prefecture": "徳島県",
    "prefecture_kana": "トクシマケン",
    "prefecture_code": 36,
    "city": "徳島市",
    "city_kana": "トクシマシ",
    "town": "東出来島町",
    "town_kana": "ヒガシデキジマチョウ",
    "street": null,
    "office_name": null,
    "office_name_kana": null
  },
  "0823": {
    "postcode": "7700823",
    "prefecture": "徳島県",
    "prefecture_kana": "トクシマケン",
    "prefecture_code": 36,
    "city": "徳島市",
    "city_kana": "トクシマシ",
    "town": "出来島本町",
    "town_kana": "デキジマホンチョウ",
    "street": null,
    "office_name": null,
    "office_name_kana": null
  },
  "0824": {
    "postcode": "7700824",
    "prefecture": "徳島県",
    "prefecture_kana": "トクシマケン",
    "prefecture_code": 36,
    "city": "徳島市",
    "city_kana": "トクシマシ",
    "town": "南出来島町",
    "town_kana": "ミナミデキジマチョウ",
    "street": null,
    "office_name": null,
    "office_name_kana": null
  },
  "0831": {
    "postcode": "7700831",
    "prefecture": "徳島県",
    "prefecture_kana": "トクシマケン",
    "prefecture_code": 36,
    "city": "徳島市",
    "city_kana": "トクシマシ",
    "town": "寺島本町西",
    "town_kana": "テラシマホンチョウニシ",
    "street": null,
    "office_name": null,
    "office_name_kana": null
  },
  "0832": {
    "postcode": "7700832",
    "prefecture": "徳島県",
    "prefecture_kana": "トクシマケン",
    "prefecture_code": 36,
    "city": "徳島市",
    "city_kana": "トクシマシ",
    "town": "寺島本町東",
    "town_kana": "テラシマホンチョウヒガシ",
    "street": null,
    "office_name": null,
    "office_name_kana": null
  },
  "0833": {
    "postcode": "7700833",
    "prefecture": "徳島県",
    "prefecture_kana": "トクシマケン",
    "prefecture_code": 36,
    "city": "徳島市",
    "city_kana": "トクシマシ",
    "town": "一番町",
    "town_kana": "イチバンチョウ",
    "street": null,
    "office_name": null,
    "office_name_kana": null
  },
  "0834": {
    "postcode": "7700834",
    "prefecture": "徳島県",
    "prefecture_kana": "トクシマケン",
    "prefecture_code": 36,
    "city": "徳島市",
    "city_kana": "トクシマシ",
    "town": "元町",
    "town_kana": "モトマチ",
    "street": null,
    "office_name": null,
    "office_name_kana": null
  },
  "0835": {
    "postcode": "7700835",
    "prefecture": "徳島県",
    "prefecture_kana": "トクシマケン",
    "prefecture_code": 36,
    "city": "徳島市",
    "city_kana": "トクシマシ",
    "town": "藍場町",
    "town_kana": "アイバチョウ",
    "street": null,
    "office_name": null,
    "office_name_kana": null
  },
  "0841": {
    "postcode": "7700841",
    "prefecture": "徳島県",
    "prefecture_kana": "トクシマケン",
    "prefecture_code": 36,
    "city": "徳島市",
    "city_kana": "トクシマシ",
    "town": "八百屋町",
    "town_kana": "ヤオヤマチ",
    "street": null,
    "office_name": null,
    "office_name_kana": null
  },
  "0842": {
    "postcode": "7700842",
    "prefecture": "徳島県",
    "prefecture_kana": "トクシマケン",
    "prefecture_code": 36,
    "city": "徳島市",
    "city_kana": "トクシマシ",
    "town": "通町",
    "town_kana": "トオリマチ",
    "street": null,
    "office_name": null,
    "office_name_kana": null
  },
  "0843": {
    "postcode": "7700843",
    "prefecture": "徳島県",
    "prefecture_kana": "トクシマケン",
    "prefecture_code": 36,
    "city": "徳島市",
    "city_kana": "トクシマシ",
    "town": "両国本町",
    "town_kana": "リョウゴクホンチョウ",
    "street": null,
    "office_name": null,
    "office_name_kana": null
  },
  "0844": {
    "postcode": "7700844",
    "prefecture": "徳島県",
    "prefecture_kana": "トクシマケン",
    "prefecture_code": 36,
    "city": "徳島市",
    "city_kana": "トクシマシ",
    "town": "中通町",
    "town_kana": "ナカトオリマチ",
    "street": null,
    "office_name": null,
    "office_name_kana": null
  },
  "0845": {
    "postcode": "7700845",
    "prefecture": "徳島県",
    "prefecture_kana": "トクシマケン",
    "prefecture_code": 36,
    "city": "徳島市",
    "city_kana": "トクシマシ",
    "town": "新内町",
    "town_kana": "シンウチマチ",
    "street": null,
    "office_name": null,
    "office_name_kana": null
  },
  "0846": {
    "postcode": "7700846",
    "prefecture": "徳島県",
    "prefecture_kana": "トクシマケン",
    "prefecture_code": 36,
    "city": "徳島市",
    "city_kana": "トクシマシ",
    "town": "南内町",
    "town_kana": "ミナミウチマチ",
    "street": null,
    "office_name": null,
    "office_name_kana": null
  },
  "0847": {
    "postcode": "7700847",
    "prefecture": "徳島県",
    "prefecture_kana": "トクシマケン",
    "prefecture_code": 36,
    "city": "徳島市",
    "city_kana": "トクシマシ",
    "town": "幸町",
    "town_kana": "サイワイチョウ",
    "street": null,
    "office_name": null,
    "office_name_kana": null
  },
  "0851": {
    "postcode": "7700851",
    "prefecture": "徳島県",
    "prefecture_kana": "トクシマケン",
    "prefecture_code": 36,
    "city": "徳島市",
    "city_kana": "トクシマシ",
    "town": "徳島町城内",
    "town_kana": "トクシマチョウジョウナイ",
    "street": null,
    "office_name": null,
    "office_name_kana": null
  },
  "0852": {
    "postcode": "7700852",
    "prefecture": "徳島県",
    "prefecture_kana": "トクシマケン",
    "prefecture_code": 36,
    "city": "徳島市",
    "city_kana": "トクシマシ",
    "town": "徳島町",
    "town_kana": "トクシマチョウ",
    "street": null,
    "office_name": null,
    "office_name_kana": null
  },
  "0853": {
    "postcode": "7700853",
    "prefecture": "徳島県",
    "prefecture_kana": "トクシマケン",
    "prefecture_code": 36,
    "city": "徳島市",
    "city_kana": "トクシマシ",
    "town": "中徳島町",
    "town_kana": "ナカトクシマチョウ",
    "street": null,
    "office_name": null,
    "office_name_kana": null
  },
  "0854": {
    "postcode": "7700854",
    "prefecture": "徳島県",
    "prefecture_kana": "トクシマケン",
    "prefecture_code": 36,
    "city": "徳島市",
    "city_kana": "トクシマシ",
    "town": "徳島本町",
    "town_kana": "トクシマホンチョウ",
    "street": null,
    "office_name": null,
    "office_name_kana": null
  },
  "0855": {
    "postcode": "7700855",
    "prefecture": "徳島県",
    "prefecture_kana": "トクシマケン",
    "prefecture_code": 36,
    "city": "徳島市",
    "city_kana": "トクシマシ",
    "town": "新蔵町",
    "town_kana": "シンクラチョウ",
    "street": null,
    "office_name": null,
    "office_name_kana": null
  },
  "0856": {
    "postcode": "7700856",
    "prefecture": "徳島県",
    "prefecture_kana": "トクシマケン",
    "prefecture_code": 36,
    "city": "徳島市",
    "city_kana": "トクシマシ",
    "town": "中洲町",
    "town_kana": "ナカズチョウ",
    "street": null,
    "office_name": null,
    "office_name_kana": null
  },
  "0861": {
    "postcode": "7700861",
    "prefecture": "徳島県",
    "prefecture_kana": "トクシマケン",
    "prefecture_code": 36,
    "city": "徳島市",
    "city_kana": "トクシマシ",
    "town": "住吉",
    "town_kana": "スミヨシ",
    "street": null,
    "office_name": null,
    "office_name_kana": null
  },
  "0862": {
    "postcode": "7700862",
    "prefecture": "徳島県",
    "prefecture_kana": "トクシマケン",
    "prefecture_code": 36,
    "city": "徳島市",
    "city_kana": "トクシマシ",
    "town": "城東町",
    "town_kana": "ジョウトウチョウ",
    "street": null,
    "office_name": null,
    "office_name_kana": null
  },
  "0863": {
    "postcode": "7700863",
    "prefecture": "徳島県",
    "prefecture_kana": "トクシマケン",
    "prefecture_code": 36,
    "city": "徳島市",
    "city_kana": "トクシマシ",
    "town": "安宅",
    "town_kana": "アタケ",
    "street": null,
    "office_name": null,
    "office_name_kana": null
  },
  "0864": {
    "postcode": "7700864",
    "prefecture": "徳島県",
    "prefecture_kana": "トクシマケン",
    "prefecture_code": 36,
    "city": "徳島市",
    "city_kana": "トクシマシ",
    "town": "大和町",
    "town_kana": "ヤマトチョウ",
    "street": null,
    "office_name": null,
    "office_name_kana": null
  },
  "0865": {
    "postcode": "7700865",
    "prefecture": "徳島県",
    "prefecture_kana": "トクシマケン",
    "prefecture_code": 36,
    "city": "徳島市",
    "city_kana": "トクシマシ",
    "town": "南末広町",
    "town_kana": "ミナミスエヒロチョウ",
    "street": null,
    "office_name": null,
    "office_name_kana": null
  },
  "0866": {
    "postcode": "7700866",
    "prefecture": "徳島県",
    "prefecture_kana": "トクシマケン",
    "prefecture_code": 36,
    "city": "徳島市",
    "city_kana": "トクシマシ",
    "town": "末広",
    "town_kana": "スエヒロ",
    "street": null,
    "office_name": null,
    "office_name_kana": null
  },
  "0867": {
    "postcode": "7700867",
    "prefecture": "徳島県",
    "prefecture_kana": "トクシマケン",
    "prefecture_code": 36,
    "city": "徳島市",
    "city_kana": "トクシマシ",
    "town": "新南福島",
    "town_kana": "シンミナミフクシマ",
    "street": null,
    "office_name": null,
    "office_name_kana": null
  },
  "0868": {
    "postcode": "7700868",
    "prefecture": "徳島県",
    "prefecture_kana": "トクシマケン",
    "prefecture_code": 36,
    "city": "徳島市",
    "city_kana": "トクシマシ",
    "town": "福島",
    "town_kana": "フクシマ",
    "street": null,
    "office_name": null,
    "office_name_kana": null
  },
  "0871": {
    "postcode": "7700871",
    "prefecture": "徳島県",
    "prefecture_kana": "トクシマケン",
    "prefecture_code": 36,
    "city": "徳島市",
    "city_kana": "トクシマシ",
    "town": "金沢",
    "town_kana": "カナザワ",
    "street": null,
    "office_name": null,
    "office_name_kana": null
  },
  "0872": {
    "postcode": "7700872",
    "prefecture": "徳島県",
    "prefecture_kana": "トクシマケン",
    "prefecture_code": 36,
    "city": "徳島市",
    "city_kana": "トクシマシ",
    "town": "北沖洲",
    "town_kana": "キタオキノス",
    "street": null,
    "office_name": null,
    "office_name_kana": null
  },
  "0873": {
    "postcode": "7700873",
    "prefecture": "徳島県",
    "prefecture_kana": "トクシマケン",
    "prefecture_code": 36,
    "city": "徳島市",
    "city_kana": "トクシマシ",
    "town": "東沖洲",
    "town_kana": "ヒガシオキノス",
    "street": null,
    "office_name": null,
    "office_name_kana": null
  },
  "0874": {
    "postcode": "7700874",
    "prefecture": "徳島県",
    "prefecture_kana": "トクシマケン",
    "prefecture_code": 36,
    "city": "徳島市",
    "city_kana": "トクシマシ",
    "town": "南沖洲",
    "town_kana": "ミナミオキノス",
    "street": null,
    "office_name": null,
    "office_name_kana": null
  },
  "0901": {
    "postcode": "7700901",
    "prefecture": "徳島県",
    "prefecture_kana": "トクシマケン",
    "prefecture_code": 36,
    "city": "徳島市",
    "city_kana": "トクシマシ",
    "town": "西船場町",
    "town_kana": "ニシセンバチョウ",
    "street": null,
    "office_name": null,
    "office_name_kana": null
  },
  "0902": {
    "postcode": "7700902",
    "prefecture": "徳島県",
    "prefecture_kana": "トクシマケン",
    "prefecture_code": 36,
    "city": "徳島市",
    "city_kana": "トクシマシ",
    "town": "西新町",
    "town_kana": "ニシシンマチ",
    "street": null,
    "office_name": null,
    "office_name_kana": null
  },
  "0903": {
    "postcode": "7700903",
    "prefecture": "徳島県",
    "prefecture_kana": "トクシマケン",
    "prefecture_code": 36,
    "city": "徳島市",
    "city_kana": "トクシマシ",
    "town": "西大工町",
    "town_kana": "ニシダイクマチ",
    "street": null,
    "office_name": null,
    "office_name_kana": null
  },
  "0904": {
    "postcode": "7700904",
    "prefecture": "徳島県",
    "prefecture_kana": "トクシマケン",
    "prefecture_code": 36,
    "city": "徳島市",
    "city_kana": "トクシマシ",
    "town": "新町橋",
    "town_kana": "シンマチバシ",
    "street": null,
    "office_name": null,
    "office_name_kana": null
  },
  "0905": {
    "postcode": "7700905",
    "prefecture": "徳島県",
    "prefecture_kana": "トクシマケン",
    "prefecture_code": 36,
    "city": "徳島市",
    "city_kana": "トクシマシ",
    "town": "東大工町",
    "town_kana": "ヒガシダイクマチ",
    "street": null,
    "office_name": null,
    "office_name_kana": null
  },
  "0906": {
    "postcode": "7700906",
    "prefecture": "徳島県",
    "prefecture_kana": "トクシマケン",
    "prefecture_code": 36,
    "city": "徳島市",
    "city_kana": "トクシマシ",
    "town": "東山手町",
    "town_kana": "ヒガシヤマテチョウ",
    "street": null,
    "office_name": null,
    "office_name_kana": null
  },
  "0907": {
    "postcode": "7700907",
    "prefecture": "徳島県",
    "prefecture_kana": "トクシマケン",
    "prefecture_code": 36,
    "city": "徳島市",
    "city_kana": "トクシマシ",
    "town": "西山手町",
    "town_kana": "ニシヤマテチョウ",
    "street": null,
    "office_name": null,
    "office_name_kana": null
  },
  "0908": {
    "postcode": "7700908",
    "prefecture": "徳島県",
    "prefecture_kana": "トクシマケン",
    "prefecture_code": 36,
    "city": "徳島市",
    "city_kana": "トクシマシ",
    "town": "眉山町",
    "town_kana": "ビザンチョウ",
    "street": null,
    "office_name": null,
    "office_name_kana": null
  },
  "0909": {
    "postcode": "7700909",
    "prefecture": "徳島県",
    "prefecture_kana": "トクシマケン",
    "prefecture_code": 36,
    "city": "徳島市",
    "city_kana": "トクシマシ",
    "town": "寺町",
    "town_kana": "テラマチ",
    "street": null,
    "office_name": null,
    "office_name_kana": null
  },
  "0911": {
    "postcode": "7700911",
    "prefecture": "徳島県",
    "prefecture_kana": "トクシマケン",
    "prefecture_code": 36,
    "city": "徳島市",
    "city_kana": "トクシマシ",
    "town": "東船場町",
    "town_kana": "ヒガシセンバチョウ",
    "street": null,
    "office_name": null,
    "office_name_kana": null
  },
  "0912": {
    "postcode": "7700912",
    "prefecture": "徳島県",
    "prefecture_kana": "トクシマケン",
    "prefecture_code": 36,
    "city": "徳島市",
    "city_kana": "トクシマシ",
    "town": "東新町",
    "town_kana": "ヒガシシンマチ",
    "street": null,
    "office_name": null,
    "office_name_kana": null
  },
  "0913": {
    "postcode": "7700913",
    "prefecture": "徳島県",
    "prefecture_kana": "トクシマケン",
    "prefecture_code": 36,
    "city": "徳島市",
    "city_kana": "トクシマシ",
    "town": "南新町",
    "town_kana": "ミナミシンマチ",
    "street": null,
    "office_name": null,
    "office_name_kana": null
  },
  "0914": {
    "postcode": "7700914",
    "prefecture": "徳島県",
    "prefecture_kana": "トクシマケン",
    "prefecture_code": 36,
    "city": "徳島市",
    "city_kana": "トクシマシ",
    "town": "籠屋町",
    "town_kana": "カゴヤマチ",
    "street": null,
    "office_name": null,
    "office_name_kana": null
  },
  "0915": {
    "postcode": "7700915",
    "prefecture": "徳島県",
    "prefecture_kana": "トクシマケン",
    "prefecture_code": 36,
    "city": "徳島市",
    "city_kana": "トクシマシ",
    "town": "富田町",
    "town_kana": "トミダマチ",
    "street": null,
    "office_name": null,
    "office_name_kana": null
  },
  "0916": {
    "postcode": "7700916",
    "prefecture": "徳島県",
    "prefecture_kana": "トクシマケン",
    "prefecture_code": 36,
    "city": "徳島市",
    "city_kana": "トクシマシ",
    "town": "銀座",
    "town_kana": "ギンザ",
    "street": null,
    "office_name": null,
    "office_name_kana": null
  },
  "0917": {
    "postcode": "7700917",
    "prefecture": "徳島県",
    "prefecture_kana": "トクシマケン",
    "prefecture_code": 36,
    "city": "徳島市",
    "city_kana": "トクシマシ",
    "town": "両国橋",
    "town_kana": "リョウゴクバシ",
    "street": null,
    "office_name": null,
    "office_name_kana": null
  },
  "0918": {
    "postcode": "7700918",
    "prefecture": "徳島県",
    "prefecture_kana": "トクシマケン",
    "prefecture_code": 36,
    "city": "徳島市",
    "city_kana": "トクシマシ",
    "town": "紺屋町",
    "town_kana": "コンヤマチ",
    "street": null,
    "office_name": null,
    "office_name_kana": null
  },
  "0921": {
    "postcode": "7700921",
    "prefecture": "徳島県",
    "prefecture_kana": "トクシマケン",
    "prefecture_code": 36,
    "city": "徳島市",
    "city_kana": "トクシマシ",
    "town": "栄町",
    "town_kana": "サカエマチ",
    "street": null,
    "office_name": null,
    "office_name_kana": null
  },
  "0922": {
    "postcode": "7700922",
    "prefecture": "徳島県",
    "prefecture_kana": "トクシマケン",
    "prefecture_code": 36,
    "city": "徳島市",
    "city_kana": "トクシマシ",
    "town": "鷹匠町",
    "town_kana": "タカジョウマチ",
    "street": null,
    "office_name": null,
    "office_name_kana": null
  },
  "0923": {
    "postcode": "7700923",
    "prefecture": "徳島県",
    "prefecture_kana": "トクシマケン",
    "prefecture_code": 36,
    "city": "徳島市",
    "city_kana": "トクシマシ",
    "town": "大道",
    "town_kana": "オオミチ",
    "street": null,
    "office_name": null,
    "office_name_kana": null
  },
  "0924": {
    "postcode": "7700924",
    "prefecture": "徳島県",
    "prefecture_kana": "トクシマケン",
    "prefecture_code": 36,
    "city": "徳島市",
    "city_kana": "トクシマシ",
    "town": "幟町",
    "town_kana": "ノボリチョウ",
    "street": null,
    "office_name": null,
    "office_name_kana": null
  },
  "0925": {
    "postcode": "7700925",
    "prefecture": "徳島県",
    "prefecture_kana": "トクシマケン",
    "prefecture_code": 36,
    "city": "徳島市",
    "city_kana": "トクシマシ",
    "town": "弓町",
    "town_kana": "ユミチョウ",
    "street": null,
    "office_name": null,
    "office_name_kana": null
  },
  "0926": {
    "postcode": "7700926",
    "prefecture": "徳島県",
    "prefecture_kana": "トクシマケン",
    "prefecture_code": 36,
    "city": "徳島市",
    "city_kana": "トクシマシ",
    "town": "伊賀町",
    "town_kana": "イガチョウ",
    "street": null,
    "office_name": null,
    "office_name_kana": null
  },
  "0927": {
    "postcode": "7700927",
    "prefecture": "徳島県",
    "prefecture_kana": "トクシマケン",
    "prefecture_code": 36,
    "city": "徳島市",
    "city_kana": "トクシマシ",
    "town": "勢見町",
    "town_kana": "セイミチョウ",
    "street": null,
    "office_name": null,
    "office_name_kana": null
  },
  "0928": {
    "postcode": "7700928",
    "prefecture": "徳島県",
    "prefecture_kana": "トクシマケン",
    "prefecture_code": 36,
    "city": "徳島市",
    "city_kana": "トクシマシ",
    "town": "二軒屋町",
    "town_kana": "ニケンヤチョウ",
    "street": null,
    "office_name": null,
    "office_name_kana": null
  },
  "0929": {
    "postcode": "7700929",
    "prefecture": "徳島県",
    "prefecture_kana": "トクシマケン",
    "prefecture_code": 36,
    "city": "徳島市",
    "city_kana": "トクシマシ",
    "town": "西富田町",
    "town_kana": "ニシトミダチョウ",
    "street": null,
    "office_name": null,
    "office_name_kana": null
  },
  "0931": {
    "postcode": "7700931",
    "prefecture": "徳島県",
    "prefecture_kana": "トクシマケン",
    "prefecture_code": 36,
    "city": "徳島市",
    "city_kana": "トクシマシ",
    "town": "富田浜",
    "town_kana": "トミダハマ",
    "street": null,
    "office_name": null,
    "office_name_kana": null
  },
  "0932": {
    "postcode": "7700932",
    "prefecture": "徳島県",
    "prefecture_kana": "トクシマケン",
    "prefecture_code": 36,
    "city": "徳島市",
    "city_kana": "トクシマシ",
    "town": "仲之町",
    "town_kana": "ナカノチョウ",
    "street": null,
    "office_name": null,
    "office_name_kana": null
  },
  "0933": {
    "postcode": "7700933",
    "prefecture": "徳島県",
    "prefecture_kana": "トクシマケン",
    "prefecture_code": 36,
    "city": "徳島市",
    "city_kana": "トクシマシ",
    "town": "南仲之町",
    "town_kana": "ミナミナカノチョウ",
    "street": null,
    "office_name": null,
    "office_name_kana": null
  },
  "0934": {
    "postcode": "7700934",
    "prefecture": "徳島県",
    "prefecture_kana": "トクシマケン",
    "prefecture_code": 36,
    "city": "徳島市",
    "city_kana": "トクシマシ",
    "town": "秋田町",
    "town_kana": "アキタマチ",
    "street": null,
    "office_name": null,
    "office_name_kana": null
  },
  "0935": {
    "postcode": "7700935",
    "prefecture": "徳島県",
    "prefecture_kana": "トクシマケン",
    "prefecture_code": 36,
    "city": "徳島市",
    "city_kana": "トクシマシ",
    "town": "伊月町",
    "town_kana": "イツキチョウ",
    "street": null,
    "office_name": null,
    "office_name_kana": null
  },
  "0936": {
    "postcode": "7700936",
    "prefecture": "徳島県",
    "prefecture_kana": "トクシマケン",
    "prefecture_code": 36,
    "city": "徳島市",
    "city_kana": "トクシマシ",
    "town": "中央通",
    "town_kana": "チュウオウドオリ",
    "street": null,
    "office_name": null,
    "office_name_kana": null
  },
  "0937": {
    "postcode": "7700937",
    "prefecture": "徳島県",
    "prefecture_kana": "トクシマケン",
    "prefecture_code": 36,
    "city": "徳島市",
    "city_kana": "トクシマシ",
    "town": "富田橋",
    "town_kana": "トミダバシ",
    "street": null,
    "office_name": null,
    "office_name_kana": null
  },
  "0938": {
    "postcode": "7700938",
    "prefecture": "徳島県",
    "prefecture_kana": "トクシマケン",
    "prefecture_code": 36,
    "city": "徳島市",
    "city_kana": "トクシマシ",
    "town": "明神町",
    "town_kana": "ミョウジンチョウ",
    "street": null,
    "office_name": null,
    "office_name_kana": null
  },
  "0939": {
    "postcode": "7700939",
    "prefecture": "徳島県",
    "prefecture_kana": "トクシマケン",
    "prefecture_code": 36,
    "city": "徳島市",
    "city_kana": "トクシマシ",
    "town": "かちどき橋",
    "town_kana": "カチドキバシ",
    "street": null,
    "office_name": null,
    "office_name_kana": null
  },
  "0941": {
    "postcode": "7700941",
    "prefecture": "徳島県",
    "prefecture_kana": "トクシマケン",
    "prefecture_code": 36,
    "city": "徳島市",
    "city_kana": "トクシマシ",
    "town": "万代町",
    "town_kana": "バンダイチョウ",
    "street": null,
    "office_name": null,
    "office_name_kana": null
  },
  "0942": {
    "postcode": "7700942",
    "prefecture": "徳島県",
    "prefecture_kana": "トクシマケン",
    "prefecture_code": 36,
    "city": "徳島市",
    "city_kana": "トクシマシ",
    "town": "昭和町",
    "town_kana": "ショウワチョウ",
    "street": null,
    "office_name": null,
    "office_name_kana": null
  },
  "0943": {
    "postcode": "7700943",
    "prefecture": "徳島県",
    "prefecture_kana": "トクシマケン",
    "prefecture_code": 36,
    "city": "徳島市",
    "city_kana": "トクシマシ",
    "town": "中昭和町",
    "town_kana": "ナカショウワチョウ",
    "street": null,
    "office_name": null,
    "office_name_kana": null
  },
  "0944": {
    "postcode": "7700944",
    "prefecture": "徳島県",
    "prefecture_kana": "トクシマケン",
    "prefecture_code": 36,
    "city": "徳島市",
    "city_kana": "トクシマシ",
    "town": "南昭和町",
    "town_kana": "ミナミショウワチョウ",
    "street": null,
    "office_name": null,
    "office_name_kana": null
  },
  "8001": {
    "postcode": "7708001",
    "prefecture": "徳島県",
    "prefecture_kana": "トクシマケン",
    "prefecture_code": 36,
    "city": "徳島市",
    "city_kana": "トクシマシ",
    "town": "津田海岸町",
    "town_kana": "ツダカイガンチョウ",
    "street": null,
    "office_name": null,
    "office_name_kana": null
  },
  "8002": {
    "postcode": "7708002",
    "prefecture": "徳島県",
    "prefecture_kana": "トクシマケン",
    "prefecture_code": 36,
    "city": "徳島市",
    "city_kana": "トクシマシ",
    "town": "津田町",
    "town_kana": "ツダチョウ",
    "street": null,
    "office_name": null,
    "office_name_kana": null
  },
  "8003": {
    "postcode": "7708003",
    "prefecture": "徳島県",
    "prefecture_kana": "トクシマケン",
    "prefecture_code": 36,
    "city": "徳島市",
    "city_kana": "トクシマシ",
    "town": "津田本町",
    "town_kana": "ツダホンチョウ",
    "street": null,
    "office_name": null,
    "office_name_kana": null
  },
  "8004": {
    "postcode": "7708004",
    "prefecture": "徳島県",
    "prefecture_kana": "トクシマケン",
    "prefecture_code": 36,
    "city": "徳島市",
    "city_kana": "トクシマシ",
    "town": "津田西町",
    "town_kana": "ツダニシマチ",
    "street": null,
    "office_name": null,
    "office_name_kana": null
  },
  "8005": {
    "postcode": "7708005",
    "prefecture": "徳島県",
    "prefecture_kana": "トクシマケン",
    "prefecture_code": 36,
    "city": "徳島市",
    "city_kana": "トクシマシ",
    "town": "津田浜之町",
    "town_kana": "ツダハマノチョウ",
    "street": null,
    "office_name": null,
    "office_name_kana": null
  },
  "8006": {
    "postcode": "7708006",
    "prefecture": "徳島県",
    "prefecture_kana": "トクシマケン",
    "prefecture_code": 36,
    "city": "徳島市",
    "city_kana": "トクシマシ",
    "town": "新浜町",
    "town_kana": "シンハマチョウ",
    "street": null,
    "office_name": null,
    "office_name_kana": null
  },
  "8007": {
    "postcode": "7708007",
    "prefecture": "徳島県",
    "prefecture_kana": "トクシマケン",
    "prefecture_code": 36,
    "city": "徳島市",
    "city_kana": "トクシマシ",
    "town": "新浜本町",
    "town_kana": "シンハマホンチョウ",
    "street": null,
    "office_name": null,
    "office_name_kana": null
  },
  "8008": {
    "postcode": "7708008",
    "prefecture": "徳島県",
    "prefecture_kana": "トクシマケン",
    "prefecture_code": 36,
    "city": "徳島市",
    "city_kana": "トクシマシ",
    "town": "西新浜町",
    "town_kana": "ニシシンハマチョウ",
    "street": null,
    "office_name": null,
    "office_name_kana": null
  },
  "8011": {
    "postcode": "7708011",
    "prefecture": "徳島県",
    "prefecture_kana": "トクシマケン",
    "prefecture_code": 36,
    "city": "徳島市",
    "city_kana": "トクシマシ",
    "town": "論田町",
    "town_kana": "ロンデンチョウ",
    "street": null,
    "office_name": null,
    "office_name_kana": null
  },
  "8012": {
    "postcode": "7708012",
    "prefecture": "徳島県",
    "prefecture_kana": "トクシマケン",
    "prefecture_code": 36,
    "city": "徳島市",
    "city_kana": "トクシマシ",
    "town": "大原町",
    "town_kana": "オオバラチョウ",
    "street": null,
    "office_name": null,
    "office_name_kana": null
  },
  "8021": {
    "postcode": "7708021",
    "prefecture": "徳島県",
    "prefecture_kana": "トクシマケン",
    "prefecture_code": 36,
    "city": "徳島市",
    "city_kana": "トクシマシ",
    "town": "雑賀町",
    "town_kana": "サイカチョウ",
    "street": null,
    "office_name": null,
    "office_name_kana": null
  },
  "8022": {
    "postcode": "7708022",
    "prefecture": "徳島県",
    "prefecture_kana": "トクシマケン",
    "prefecture_code": 36,
    "city": "徳島市",
    "city_kana": "トクシマシ",
    "town": "大松町",
    "town_kana": "オオマツチョウ",
    "street": null,
    "office_name": null,
    "office_name_kana": null
  },
  "8023": {
    "postcode": "7708023",
    "prefecture": "徳島県",
    "prefecture_kana": "トクシマケン",
    "prefecture_code": 36,
    "city": "徳島市",
    "city_kana": "トクシマシ",
    "town": "勝占町",
    "town_kana": "カツラチョウ",
    "street": null,
    "office_name": null,
    "office_name_kana": null
  },
  "8024": {
    "postcode": "7708024",
    "prefecture": "徳島県",
    "prefecture_kana": "トクシマケン",
    "prefecture_code": 36,
    "city": "徳島市",
    "city_kana": "トクシマシ",
    "town": "西須賀町",
    "town_kana": "ニシズカチョウ",
    "street": null,
    "office_name": null,
    "office_name_kana": null
  },
  "8025": {
    "postcode": "7708025",
    "prefecture": "徳島県",
    "prefecture_kana": "トクシマケン",
    "prefecture_code": 36,
    "city": "徳島市",
    "city_kana": "トクシマシ",
    "town": "三軒屋町",
    "town_kana": "サンゲンヤチョウ",
    "street": null,
    "office_name": null,
    "office_name_kana": null
  },
  "8031": {
    "postcode": "7708031",
    "prefecture": "徳島県",
    "prefecture_kana": "トクシマケン",
    "prefecture_code": 36,
    "city": "徳島市",
    "city_kana": "トクシマシ",
    "town": "大谷町",
    "town_kana": "オオタニチョウ",
    "street": null,
    "office_name": null,
    "office_name_kana": null
  },
  "8032": {
    "postcode": "7708032",
    "prefecture": "徳島県",
    "prefecture_kana": "トクシマケン",
    "prefecture_code": 36,
    "city": "徳島市",
    "city_kana": "トクシマシ",
    "town": "北山町",
    "town_kana": "キタヤマチョウ",
    "street": null,
    "office_name": null,
    "office_name_kana": null
  },
  "8033": {
    "postcode": "7708033",
    "prefecture": "徳島県",
    "prefecture_kana": "トクシマケン",
    "prefecture_code": 36,
    "city": "徳島市",
    "city_kana": "トクシマシ",
    "town": "方上町",
    "town_kana": "カタノカミチョウ",
    "street": null,
    "office_name": null,
    "office_name_kana": null
  },
  "8040": {
    "postcode": "7708040",
    "prefecture": "徳島県",
    "prefecture_kana": "トクシマケン",
    "prefecture_code": 36,
    "city": "徳島市",
    "city_kana": "トクシマシ",
    "town": "上八万町",
    "town_kana": "カミハチマンチョウ",
    "street": null,
    "office_name": null,
    "office_name_kana": null
  },
  "8041": [
    {
      "postcode": "7708041",
      "prefecture": "徳島県",
      "prefecture_kana": "トクシマケン",
      "prefecture_code": 36,
      "city": "徳島市",
      "city_kana": "トクシマシ",
      "town": "上八万町西山",
      "town_kana": "カミハチマンチョウニシヤマ",
      "street": null,
      "office_name": null,
      "office_name_kana": null
    },
    {
      "postcode": "7708041",
      "prefecture": "徳島県",
      "prefecture_kana": "トクシマケン",
      "prefecture_code": 36,
      "city": "徳島市",
      "city_kana": "トクシマシ",
      "town": "上八万町西山しらさぎ台",
      "town_kana": "カミハチマンチョウニシヤマシラサギダイ",
      "street": null,
      "office_name": null,
      "office_name_kana": null
    }
  ],
  "8051": {
    "postcode": "7708051",
    "prefecture": "徳島県",
    "prefecture_kana": "トクシマケン",
    "prefecture_code": 36,
    "city": "徳島市",
    "city_kana": "トクシマシ",
    "town": "沖浜町",
    "town_kana": "オキノハマチョウ",
    "street": null,
    "office_name": null,
    "office_name_kana": null
  },
  "8052": {
    "postcode": "7708052",
    "prefecture": "徳島県",
    "prefecture_kana": "トクシマケン",
    "prefecture_code": 36,
    "city": "徳島市",
    "city_kana": "トクシマシ",
    "town": "沖浜",
    "town_kana": "オキノハマ",
    "street": null,
    "office_name": null,
    "office_name_kana": null
  },
  "8053": {
    "postcode": "7708053",
    "prefecture": "徳島県",
    "prefecture_kana": "トクシマケン",
    "prefecture_code": 36,
    "city": "徳島市",
    "city_kana": "トクシマシ",
    "town": "沖浜東",
    "town_kana": "オキノハマヒガシ",
    "street": null,
    "office_name": null,
    "office_name_kana": null
  },
  "8054": {
    "postcode": "7708054",
    "prefecture": "徳島県",
    "prefecture_kana": "トクシマケン",
    "prefecture_code": 36,
    "city": "徳島市",
    "city_kana": "トクシマシ",
    "town": "山城西",
    "town_kana": "ヤマシロニシ",
    "street": null,
    "office_name": null,
    "office_name_kana": null
  },
  "8055": {
    "postcode": "7708055",
    "prefecture": "徳島県",
    "prefecture_kana": "トクシマケン",
    "prefecture_code": 36,
    "city": "徳島市",
    "city_kana": "トクシマシ",
    "town": "山城町",
    "town_kana": "ヤマシロチョウ",
    "street": null,
    "office_name": null,
    "office_name_kana": null
  },
  "8056": {
    "postcode": "7708056",
    "prefecture": "徳島県",
    "prefecture_kana": "トクシマケン",
    "prefecture_code": 36,
    "city": "徳島市",
    "city_kana": "トクシマシ",
    "town": "問屋町",
    "town_kana": "トイヤマチ",
    "street": null,
    "office_name": null,
    "office_name_kana": null
  },
  "8061": {
    "postcode": "7708061",
    "prefecture": "徳島県",
    "prefecture_kana": "トクシマケン",
    "prefecture_code": 36,
    "city": "徳島市",
    "city_kana": "トクシマシ",
    "town": "西二軒屋町",
    "town_kana": "ニシニケンヤチョウ",
    "street": null,
    "office_name": null,
    "office_name_kana": null
  },
  "8063": {
    "postcode": "7708063",
    "prefecture": "徳島県",
    "prefecture_kana": "トクシマケン",
    "prefecture_code": 36,
    "city": "徳島市",
    "city_kana": "トクシマシ",
    "town": "南二軒屋町",
    "town_kana": "ミナミニケンヤチョウ",
    "street": null,
    "office_name": null,
    "office_name_kana": null
  },
  "8064": {
    "postcode": "7708064",
    "prefecture": "徳島県",
    "prefecture_kana": "トクシマケン",
    "prefecture_code": 36,
    "city": "徳島市",
    "city_kana": "トクシマシ",
    "town": "城南町",
    "town_kana": "ジョウナンチョウ",
    "street": null,
    "office_name": null,
    "office_name_kana": null
  },
  "8070": {
    "postcode": "7708070",
    "prefecture": "徳島県",
    "prefecture_kana": "トクシマケン",
    "prefecture_code": 36,
    "city": "徳島市",
    "city_kana": "トクシマシ",
    "town": "八万町",
    "town_kana": "ハチマンチョウ",
    "street": null,
    "office_name": null,
    "office_name_kana": null
  },
  "8071": [
    {
      "postcode": "7708071",
      "prefecture": "徳島県",
      "prefecture_kana": "トクシマケン",
      "prefecture_code": 36,
      "city": "徳島市",
      "city_kana": "トクシマシ",
      "town": "八万町",
      "town_kana": "ハチマンチョウ",
      "street": null,
      "office_name": null,
      "office_name_kana": null
    },
    {
      "postcode": "7708071",
      "prefecture": "徳島県",
      "prefecture_kana": "トクシマケン",
      "prefecture_code": 36,
      "city": "徳島市",
      "city_kana": "トクシマシ",
      "town": "八万町中津山",
      "town_kana": "ハチマンチョウナカツヤマ",
      "street": null,
      "office_name": null,
      "office_name_kana": null
    }
  ],
  "8072": [
    {
      "postcode": "7708072",
      "prefecture": "徳島県",
      "prefecture_kana": "トクシマケン",
      "prefecture_code": 36,
      "city": "徳島市",
      "city_kana": "トクシマシ",
      "town": "八万町",
      "town_kana": "ハチマンチョウ",
      "street": null,
      "office_name": null,
      "office_name_kana": null
    },
    {
      "postcode": "7708072",
      "prefecture": "徳島県",
      "prefecture_kana": "トクシマケン",
      "prefecture_code": 36,
      "city": "徳島市",
      "city_kana": "トクシマシ",
      "town": "八万町中津浦",
      "town_kana": "ハチマンチョウナカツウラ",
      "street": null,
      "office_name": null,
      "office_name_kana": null
    }
  ],
  "8073": [
    {
      "postcode": "7708073",
      "prefecture": "徳島県",
      "prefecture_kana": "トクシマケン",
      "prefecture_code": 36,
      "city": "徳島市",
      "city_kana": "トクシマシ",
      "town": "八万町",
      "town_kana": "ハチマンチョウ",
      "street": null,
      "office_name": null,
      "office_name_kana": null
    },
    {
      "postcode": "7708073",
      "prefecture": "徳島県",
      "prefecture_kana": "トクシマケン",
      "prefecture_code": 36,
      "city": "徳島市",
      "city_kana": "トクシマシ",
      "town": "八万町上福万",
      "town_kana": "ハチマンチョウカミフクマン",
      "street": null,
      "office_name": null,
      "office_name_kana": null
    }
  ],
  "8074": [
    {
      "postcode": "7708074",
      "prefecture": "徳島県",
      "prefecture_kana": "トクシマケン",
      "prefecture_code": 36,
      "city": "徳島市",
      "city_kana": "トクシマシ",
      "town": "八万町",
      "town_kana": "ハチマンチョウ",
      "street": null,
      "office_name": null,
      "office_name_kana": null
    },
    {
      "postcode": "7708074",
      "prefecture": "徳島県",
      "prefecture_kana": "トクシマケン",
      "prefecture_code": 36,
      "city": "徳島市",
      "city_kana": "トクシマシ",
      "town": "八万町下福万",
      "town_kana": "ハチマンチョウシモフクマン",
      "street": null,
      "office_name": null,
      "office_name_kana": null
    }
  ],
  "8075": [
    {
      "postcode": "7708075",
      "prefecture": "徳島県",
      "prefecture_kana": "トクシマケン",
      "prefecture_code": 36,
      "city": "徳島市",
      "city_kana": "トクシマシ",
      "town": "八万町",
      "town_kana": "ハチマンチョウ",
      "street": null,
      "office_name": null,
      "office_name_kana": null
    },
    {
      "postcode": "7708075",
      "prefecture": "徳島県",
      "prefecture_kana": "トクシマケン",
      "prefecture_code": 36,
      "city": "徳島市",
      "city_kana": "トクシマシ",
      "town": "八万町千鳥",
      "town_kana": "ハチマンチョウチドリ",
      "street": null,
      "office_name": null,
      "office_name_kana": null
    }
  ],
  "8076": [
    {
      "postcode": "7708076",
      "prefecture": "徳島県",
      "prefecture_kana": "トクシマケン",
      "prefecture_code": 36,
      "city": "徳島市",
      "city_kana": "トクシマシ",
      "town": "八万町",
      "town_kana": "ハチマンチョウ",
      "street": null,
      "office_name": null,
      "office_name_kana": null
    },
    {
      "postcode": "7708076",
      "prefecture": "徳島県",
      "prefecture_kana": "トクシマケン",
      "prefecture_code": 36,
      "city": "徳島市",
      "city_kana": "トクシマシ",
      "town": "八万町内浜",
      "town_kana": "ハチマンチョウウチハマ",
      "street": null,
      "office_name": null,
      "office_name_kana": null
    }
  ],
  "8077": [
    {
      "postcode": "7708077",
      "prefecture": "徳島県",
      "prefecture_kana": "トクシマケン",
      "prefecture_code": 36,
      "city": "徳島市",
      "city_kana": "トクシマシ",
      "town": "八万町",
      "town_kana": "ハチマンチョウ",
      "street": null,
      "office_name": null,
      "office_name_kana": null
    },
    {
      "postcode": "7708077",
      "prefecture": "徳島県",
      "prefecture_kana": "トクシマケン",
      "prefecture_code": 36,
      "city": "徳島市",
      "city_kana": "トクシマシ",
      "town": "八万町夷山",
      "town_kana": "ハチマンチョウエビスヤマ",
      "street": null,
      "office_name": null,
      "office_name_kana": null
    }
  ],
  "8078": [
    {
      "postcode": "7708078",
      "prefecture": "徳島県",
      "prefecture_kana": "トクシマケン",
      "prefecture_code": 36,
      "city": "徳島市",
      "city_kana": "トクシマシ",
      "town": "八万町",
      "town_kana": "ハチマンチョウ",
      "street": null,
      "office_name": null,
      "office_name_kana": null
    },
    {
      "postcode": "7708078",
      "prefecture": "徳島県",
      "prefecture_kana": "トクシマケン",
      "prefecture_code": 36,
      "city": "徳島市",
      "city_kana": "トクシマシ",
      "town": "八万町橋本",
      "town_kana": "ハチマンチョウハシモト",
      "street": null,
      "office_name": null,
      "office_name_kana": null
    }
  ],
  "8079": [
    {
      "postcode": "7708079",
      "prefecture": "徳島県",
      "prefecture_kana": "トクシマケン",
      "prefecture_code": 36,
      "city": "徳島市",
      "city_kana": "トクシマシ",
      "town": "八万町",
      "town_kana": "ハチマンチョウ",
      "street": null,
      "office_name": null,
      "office_name_kana": null
    },
    {
      "postcode": "7708079",
      "prefecture": "徳島県",
      "prefecture_kana": "トクシマケン",
      "prefecture_code": 36,
      "city": "徳島市",
      "city_kana": "トクシマシ",
      "town": "八万町大坪",
      "town_kana": "ハチマンチョウオオツボ",
      "street": null,
      "office_name": null,
      "office_name_kana": null
    }
  ],
  "8081": [
    {
      "postcode": "7708081",
      "prefecture": "徳島県",
      "prefecture_kana": "トクシマケン",
      "prefecture_code": 36,
      "city": "徳島市",
      "city_kana": "トクシマシ",
      "town": "八万町",
      "town_kana": "ハチマンチョウ",
      "street": null,
      "office_name": null,
      "office_name_kana": null
    },
    {
      "postcode": "7708081",
      "prefecture": "徳島県",
      "prefecture_kana": "トクシマケン",
      "prefecture_code": 36,
      "city": "徳島市",
      "city_kana": "トクシマシ",
      "town": "八万町弐丈",
      "town_kana": "ハチマンチョウニジョウ",
      "street": null,
      "office_name": null,
      "office_name_kana": null
    }
  ],
  "8082": [
    {
      "postcode": "7708082",
      "prefecture": "徳島県",
      "prefecture_kana": "トクシマケン",
      "prefecture_code": 36,
      "city": "徳島市",
      "city_kana": "トクシマシ",
      "town": "八万町",
      "town_kana": "ハチマンチョウ",
      "street": null,
      "office_name": null,
      "office_name_kana": null
    },
    {
      "postcode": "7708082",
      "prefecture": "徳島県",
      "prefecture_kana": "トクシマケン",
      "prefecture_code": 36,
      "city": "徳島市",
      "city_kana": "トクシマシ",
      "town": "八万町川南",
      "town_kana": "ハチマンチョウカワミナミ",
      "street": null,
      "office_name": null,
      "office_name_kana": null
    }
  ],
  "8083": [
    {
      "postcode": "7708083",
      "prefecture": "徳島県",
      "prefecture_kana": "トクシマケン",
      "prefecture_code": 36,
      "city": "徳島市",
      "city_kana": "トクシマシ",
      "town": "八万町",
      "town_kana": "ハチマンチョウ",
      "street": null,
      "office_name": null,
      "office_name_kana": null
    },
    {
      "postcode": "7708083",
      "prefecture": "徳島県",
      "prefecture_kana": "トクシマケン",
      "prefecture_code": 36,
      "city": "徳島市",
      "city_kana": "トクシマシ",
      "town": "八万町法花",
      "town_kana": "ハチマンチョウホッケ",
      "street": null,
      "office_name": null,
      "office_name_kana": null
    }
  ],
  "8084": [
    {
      "postcode": "7708084",
      "prefecture": "徳島県",
      "prefecture_kana": "トクシマケン",
      "prefecture_code": 36,
      "city": "徳島市",
      "city_kana": "トクシマシ",
      "town": "八万町",
      "town_kana": "ハチマンチョウ",
      "street": null,
      "office_name": null,
      "office_name_kana": null
    },
    {
      "postcode": "7708084",
      "prefecture": "徳島県",
      "prefecture_kana": "トクシマケン",
      "prefecture_code": 36,
      "city": "徳島市",
      "city_kana": "トクシマシ",
      "town": "八万町法花谷",
      "town_kana": "ハチマンチョウホッケダニ",
      "street": null,
      "office_name": null,
      "office_name_kana": null
    }
  ],
  "8501": {
    "postcode": "7708501",
    "prefecture": "徳島県",
    "prefecture_kana": "トクシマケン",
    "prefecture_code": 36,
    "city": "徳島市",
    "city_kana": "トクシマシ",
    "town": "新蔵町",
    "town_kana": "シンクラチョウ",
    "street": "２丁目２４番地",
    "office_name": "徳島大学　事務局",
    "office_name_kana": "トクシマダイガク ジムキヨク"
  },
  "8502": {
    "postcode": "7708502",
    "prefecture": "徳島県",
    "prefecture_kana": "トクシマケン",
    "prefecture_code": 36,
    "city": "徳島市",
    "city_kana": "トクシマシ",
    "town": "南常三島町",
    "town_kana": "ミナミジョウサンジマチョウ",
    "street": "１丁目１",
    "office_name": "徳島大学　総合科学部",
    "office_name_kana": "トクシマダイガク ソウゴウカガクブ"
  },
  "8503": [
    {
      "postcode": "7708503",
      "prefecture": "徳島県",
      "prefecture_kana": "トクシマケン",
      "prefecture_code": 36,
      "city": "徳島市",
      "city_kana": "トクシマシ",
      "town": "蔵本町",
      "town_kana": "クラモトチョウ",
      "street": "３丁目１８−１５",
      "office_name": "徳島大学　医学部",
      "office_name_kana": "トクシマダイガク イガクブ"
    },
    {
      "postcode": "7708503",
      "prefecture": "徳島県",
      "prefecture_kana": "トクシマケン",
      "prefecture_code": 36,
      "city": "徳島市",
      "city_kana": "トクシマシ",
      "town": "蔵本町",
      "town_kana": "クラモトチョウ",
      "street": "３丁目１８−１５",
      "office_name": "徳島大学先端酵素学研究所",
      "office_name_kana": "トクシマダイガクセンタンコウソガクケンキユウシヨ"
    },
    {
      "postcode": "7708503",
      "prefecture": "徳島県",
      "prefecture_kana": "トクシマケン",
      "prefecture_code": 36,
      "city": "徳島市",
      "city_kana": "トクシマシ",
      "town": "蔵本町",
      "town_kana": "クラモトチョウ",
      "street": "２丁目５０−１",
      "office_name": "徳島大学病院",
      "office_name_kana": "トクシマダイガクビヨウイン"
    }
  ],
  "8504": {
    "postcode": "7708504",
    "prefecture": "徳島県",
    "prefecture_kana": "トクシマケン",
    "prefecture_code": 36,
    "city": "徳島市",
    "city_kana": "トクシマシ",
    "town": "蔵本町",
    "town_kana": "クラモトチョウ",
    "street": "３丁目１８−１５",
    "office_name": "徳島大学　歯学部",
    "office_name_kana": "トクシマダイガク シガクブ"
  },
  "8505": {
    "postcode": "7708505",
    "prefecture": "徳島県",
    "prefecture_kana": "トクシマケン",
    "prefecture_code": 36,
    "city": "徳島市",
    "city_kana": "トクシマシ",
    "town": "庄町",
    "town_kana": "ショウマチ",
    "street": "１丁目７８−１",
    "office_name": "徳島大学　薬学部",
    "office_name_kana": "トクシマダイガク ヤクガクブ"
  },
  "8506": [
    {
      "postcode": "7708506",
      "prefecture": "徳島県",
      "prefecture_kana": "トクシマケン",
      "prefecture_code": 36,
      "city": "徳島市",
      "city_kana": "トクシマシ",
      "town": "南常三島町",
      "town_kana": "ミナミジョウサンジマチョウ",
      "street": "２丁目１",
      "office_name": "徳島大学　工学部",
      "office_name_kana": "トクシマダイガク コウガクブ"
    },
    {
      "postcode": "7708506",
      "prefecture": "徳島県",
      "prefecture_kana": "トクシマケン",
      "prefecture_code": 36,
      "city": "徳島市",
      "city_kana": "トクシマシ",
      "town": "南常三島町",
      "town_kana": "ミナミジョウサンジマチョウ",
      "street": "２丁目１",
      "office_name": "徳島大学　理工学部",
      "office_name_kana": "トクシマダイガク リコウガクブ"
    }
  ],
  "8507": {
    "postcode": "7708507",
    "prefecture": "徳島県",
    "prefecture_kana": "トクシマケン",
    "prefecture_code": 36,
    "city": "徳島市",
    "city_kana": "トクシマシ",
    "town": "南常三島町",
    "town_kana": "ミナミジョウサンジマチョウ",
    "street": "２丁目１",
    "office_name": "徳島大学　附属図書館",
    "office_name_kana": "トクシマダイガク フゾクトシヨカン"
  },
  "8508": {
    "postcode": "7708508",
    "prefecture": "徳島県",
    "prefecture_kana": "トクシマケン",
    "prefecture_code": 36,
    "city": "徳島市",
    "city_kana": "トクシマシ",
    "town": "蔵本町",
    "town_kana": "クラモトチョウ",
    "street": "３丁目１８−１５",
    "office_name": "徳島大学　附属図書館　蔵本分館",
    "office_name_kana": "トクシマダイガク フゾクトシヨカン クラモトブンカン"
  },
  "8509": {
    "postcode": "7708509",
    "prefecture": "徳島県",
    "prefecture_kana": "トクシマケン",
    "prefecture_code": 36,
    "city": "徳島市",
    "city_kana": "トクシマシ",
    "town": "蔵本町",
    "town_kana": "クラモトチョウ",
    "street": "３丁目１８番地の１５",
    "office_name": "徳島大学　医学部　保健学科",
    "office_name_kana": "トクシマダイガク イガクブ ホケンガツカ"
  },
  "8510": {
    "postcode": "7708510",
    "prefecture": "徳島県",
    "prefecture_kana": "トクシマケン",
    "prefecture_code": 36,
    "city": "徳島市",
    "city_kana": "トクシマシ",
    "town": "万代町",
    "town_kana": "バンダイチョウ",
    "street": "２丁目５−１",
    "office_name": "徳島県　警察本部",
    "office_name_kana": "トクシマケン ケイサツホンブ"
  },
  "8511": {
    "postcode": "7708511",
    "prefecture": "徳島県",
    "prefecture_kana": "トクシマケン",
    "prefecture_code": 36,
    "city": "徳島市",
    "city_kana": "トクシマシ",
    "town": "寺島本町西",
    "town_kana": "テラシマホンチョウニシ",
    "street": "１丁目５",
    "office_name": "株式会社　徳島そごう",
    "office_name_kana": "カブシキガイシヤ トクシマソゴウ"
  },
  "8512": {
    "postcode": "7708512",
    "prefecture": "徳島県",
    "prefecture_kana": "トクシマケン",
    "prefecture_code": 36,
    "city": "徳島市",
    "city_kana": "トクシマシ",
    "town": "徳島町城内",
    "town_kana": "トクシマチョウジョウナイ",
    "street": "６−６",
    "office_name": "徳島地方法務局",
    "office_name_kana": "トクシマチホウホウムキヨク"
  },
  "8513": {
    "postcode": "7708513",
    "prefecture": "徳島県",
    "prefecture_kana": "トクシマケン",
    "prefecture_code": 36,
    "city": "徳島市",
    "city_kana": "トクシマシ",
    "town": "南常三島町",
    "town_kana": "ミナミジョウサンジマチョウ",
    "street": "２丁目１",
    "office_name": "徳島大学　生物資源産業学部",
    "office_name_kana": "トクシマダイガク セイブツシゲンサンギヨウガクブ"
  },
  "8514": {
    "postcode": "7708514",
    "prefecture": "徳島県",
    "prefecture_kana": "トクシマケン",
    "prefecture_code": 36,
    "city": "徳島市",
    "city_kana": "トクシマシ",
    "town": "山城町",
    "town_kana": "ヤマシロチョウ",
    "street": "西浜傍示１８０",
    "office_name": "徳島文理大学",
    "office_name_kana": "トクシマブンリダイガク"
  },
  "8515": {
    "postcode": "7708515",
    "prefecture": "徳島県",
    "prefecture_kana": "トクシマケン",
    "prefecture_code": 36,
    "city": "徳島市",
    "city_kana": "トクシマシ",
    "town": "南田宮",
    "town_kana": "ミナミタミヤ",
    "street": "２丁目６番２５号",
    "office_name": "日本年金機構　徳島事務センター",
    "office_name_kana": "ニツポンネンキンキコウ トクシマジムセンタ-"
  },
  "8516": {
    "postcode": "7708516",
    "prefecture": "徳島県",
    "prefecture_kana": "トクシマケン",
    "prefecture_code": 36,
    "city": "徳島市",
    "city_kana": "トクシマシ",
    "town": "東沖洲",
    "town_kana": "ヒガシオキノス",
    "street": "２丁目１３番地",
    "office_name": "徳島県　漁業協同組合連合会",
    "office_name_kana": "トクシマケン ギヨギヨウキヨウドウクミアイレンゴウカイ"
  },
  "8518": {
    "postcode": "7708518",
    "prefecture": "徳島県",
    "prefecture_kana": "トクシマケン",
    "prefecture_code": 36,
    "city": "徳島市",
    "city_kana": "トクシマシ",
    "town": "万代町",
    "town_kana": "バンダイチョウ",
    "street": "５丁目８",
    "office_name": "三協商事　株式会社",
    "office_name_kana": "サンキヨウシヨウジ カブシキガイシヤ"
  },
  "8520": {
    "postcode": "7708520",
    "prefecture": "徳島県",
    "prefecture_kana": "トクシマケン",
    "prefecture_code": 36,
    "city": "徳島市",
    "city_kana": "トクシマシ",
    "town": "寺島本町西",
    "town_kana": "テラシマホンチョウニシ",
    "street": "２丁目２２番地１",
    "office_name": "東京海上日動火災保険　株式会社　徳島支店",
    "office_name_kana": "トウキヨウカイジヨウニチドウカサイホケン カブシキガイシヤ トクシマシテン"
  },
  "8521": {
    "postcode": "7708521",
    "prefecture": "徳島県",
    "prefecture_kana": "トクシマケン",
    "prefecture_code": 36,
    "city": "徳島市",
    "city_kana": "トクシマシ",
    "town": "西大工町",
    "town_kana": "ニシダイクマチ",
    "street": "２丁目５−１",
    "office_name": "日本電信電話　株式会社　徳島支店",
    "office_name_kana": "ニホンデンシンデンワ カブシキガイシヤ トクシマシテン"
  },
  "8522": {
    "postcode": "7708522",
    "prefecture": "徳島県",
    "prefecture_kana": "トクシマケン",
    "prefecture_code": 36,
    "city": "徳島市",
    "city_kana": "トクシマシ",
    "town": "佐古三番町",
    "town_kana": "サコ3バンチョウ",
    "street": "１２番８号",
    "office_name": "日本年金機構　徳島北年金事務所",
    "office_name_kana": "ニツポンネンキンキコウ トクシマキタネンキンジムシヨ"
  },
  "8523": {
    "postcode": "7708523",
    "prefecture": "徳島県",
    "prefecture_kana": "トクシマケン",
    "prefecture_code": 36,
    "city": "徳島市",
    "city_kana": "トクシマシ",
    "town": "中島田町",
    "town_kana": "ナカシマダチョウ",
    "street": "１丁目１５",
    "office_name": "株式会社　新学社　徳島支社",
    "office_name_kana": "カブシキガイシヤ シンガクシヤ トクシマシシヤ"
  },
  "8524": {
    "postcode": "7708524",
    "prefecture": "徳島県",
    "prefecture_kana": "トクシマケン",
    "prefecture_code": 36,
    "city": "徳島市",
    "city_kana": "トクシマシ",
    "town": "北常三島町",
    "town_kana": "キタジョウサンジマチョウ",
    "street": "１丁目６番１",
    "office_name": "株式会社　エヌ・ティ・ティ・ドコモ四国　徳島支店",
    "office_name_kana": "カブシキガイシヤ エヌ・テイ・テイ・ドコモシコク トクシマシテン"
  },
  "8525": {
    "postcode": "7708525",
    "prefecture": "徳島県",
    "prefecture_kana": "トクシマケン",
    "prefecture_code": 36,
    "city": "徳島市",
    "city_kana": "トクシマシ",
    "town": "かちどき橋",
    "town_kana": "カチドキバシ",
    "street": "１丁目２５",
    "office_name": "損害保険ジャパン日本興亜　株式会社",
    "office_name_kana": "ソンガイホケンジヤパンニホンコウア カブシキガイシヤ"
  },
  "8526": {
    "postcode": "7708526",
    "prefecture": "徳島県",
    "prefecture_kana": "トクシマケン",
    "prefecture_code": 36,
    "city": "徳島市",
    "city_kana": "トクシマシ",
    "town": "東新町",
    "town_kana": "ヒガシシンマチ",
    "street": "１丁目２９番地（徳島中央郵便局私書箱第２４号）",
    "office_name": "阿波銀リース　株式会社",
    "office_name_kana": "アワギンリ-ス カブシキガイシヤ"
  },
  "8528": {
    "postcode": "7708528",
    "prefecture": "徳島県",
    "prefecture_kana": "トクシマケン",
    "prefecture_code": 36,
    "city": "徳島市",
    "city_kana": "トクシマシ",
    "town": "徳島町",
    "town_kana": "トクシマチョウ",
    "street": "１丁目５",
    "office_name": "徳島地方（簡易・家庭）裁判所・徳島検察審査会",
    "office_name_kana": "トクシマチホウ(カンイ・カテイ)サイバンシヨ・トクシマケンサツシンサカイ"
  },
  "8529": {
    "postcode": "7708529",
    "prefecture": "徳島県",
    "prefecture_kana": "トクシマケン",
    "prefecture_code": 36,
    "city": "徳島市",
    "city_kana": "トクシマシ",
    "town": "中徳島町",
    "town_kana": "ナカトクシマチョウ",
    "street": "２丁目５−２",
    "office_name": "株式会社　メディコム",
    "office_name_kana": "カブシキガイシヤ メデイコム"
  },
  "8530": {
    "postcode": "7708530",
    "prefecture": "徳島県",
    "prefecture_kana": "トクシマケン",
    "prefecture_code": 36,
    "city": "徳島市",
    "city_kana": "トクシマシ",
    "town": "南末広町",
    "town_kana": "ミナミスエヒロチョウ",
    "street": "５番８−８号",
    "office_name": "徳島商工会議所",
    "office_name_kana": "トクシマシヨウコウカイギシヨ"
  },
  "8531": {
    "postcode": "7708531",
    "prefecture": "徳島県",
    "prefecture_kana": "トクシマケン",
    "prefecture_code": 36,
    "city": "徳島市",
    "city_kana": "トクシマシ",
    "town": "東沖洲",
    "town_kana": "ヒガシオキノス",
    "street": "２丁目１２",
    "office_name": "株式会社　稲垣",
    "office_name_kana": "カブシキガイシヤ イナガキ"
  },
  "8532": {
    "postcode": "7708532",
    "prefecture": "徳島県",
    "prefecture_kana": "トクシマケン",
    "prefecture_code": 36,
    "city": "徳島市",
    "city_kana": "トクシマシ",
    "town": "中洲町",
    "town_kana": "ナカズチョウ",
    "street": "１丁目５８",
    "office_name": "社団法人　徳島県薬剤師会",
    "office_name_kana": "シヤダンホウジン トクシマケンヤクザイシカイ"
  },
  "8533": {
    "postcode": "7708533",
    "prefecture": "徳島県",
    "prefecture_kana": "トクシマケン",
    "prefecture_code": 36,
    "city": "徳島市",
    "city_kana": "トクシマシ",
    "town": "万代町",
    "town_kana": "バンダイチョウ",
    "street": "３丁目５徳島第２地方合同庁舎",
    "office_name": "徳島労働基準監督署",
    "office_name_kana": "トクシマロウドウキジユンカントクシヨ"
  },
  "8535": {
    "postcode": "7708535",
    "prefecture": "徳島県",
    "prefecture_kana": "トクシマケン",
    "prefecture_code": 36,
    "city": "徳島市",
    "city_kana": "トクシマシ",
    "town": "南末広町",
    "town_kana": "ミナミスエヒロチョウ",
    "street": "２−９５",
    "office_name": "株式会社　あわわ",
    "office_name_kana": "カブシキガイシヤ アワワ"
  },
  "8536": {
    "postcode": "7708536",
    "prefecture": "徳島県",
    "prefecture_kana": "トクシマケン",
    "prefecture_code": 36,
    "city": "徳島市",
    "city_kana": "トクシマシ",
    "town": "東沖洲",
    "town_kana": "ヒガシオキノス",
    "street": "２丁目４３−２",
    "office_name": "株式会社　フナコシ",
    "office_name_kana": "カブシキガイシヤ フナコシ"
  },
  "8537": {
    "postcode": "7708537",
    "prefecture": "徳島県",
    "prefecture_kana": "トクシマケン",
    "prefecture_code": 36,
    "city": "徳島市",
    "city_kana": "トクシマシ",
    "town": "北佐古一番町",
    "town_kana": "キタサコイチバンチョウ",
    "street": "５番１２号",
    "office_name": "全国農業協同組合連合会　徳島県本部",
    "office_name_kana": "ゼンコクノウギヨウキヨウドウクミアイレンゴウカイ トクシマケンホンブ"
  },
  "8538": {
    "postcode": "7708538",
    "prefecture": "徳島県",
    "prefecture_kana": "トクシマケン",
    "prefecture_code": 36,
    "city": "徳島市",
    "city_kana": "トクシマシ",
    "town": "沖浜東",
    "town_kana": "オキノハマヒガシ",
    "street": "３丁目６２",
    "office_name": "ナカイ　株式会社",
    "office_name_kana": "ナカイ カブシキガイシヤ"
  },
  "8539": {
    "postcode": "7708539",
    "prefecture": "徳島県",
    "prefecture_kana": "トクシマケン",
    "prefecture_code": 36,
    "city": "徳島市",
    "city_kana": "トクシマシ",
    "town": "蔵本町",
    "town_kana": "クラモトチョウ",
    "street": "１丁目１０−３",
    "office_name": "徳島県立　中央病院",
    "office_name_kana": "トクシマケンリツ チユウオウビヨウイン"
  },
  "8540": {
    "postcode": "7708540",
    "prefecture": "徳島県",
    "prefecture_kana": "トクシマケン",
    "prefecture_code": 36,
    "city": "徳島市",
    "city_kana": "トクシマシ",
    "town": "北佐古一番町",
    "town_kana": "キタサコイチバンチョウ",
    "street": "４−２７",
    "office_name": "株式会社　三井",
    "office_name_kana": "カブシキガイシヤ ミツイ"
  },
  "8541": {
    "postcode": "7708541",
    "prefecture": "徳島県",
    "prefecture_kana": "トクシマケン",
    "prefecture_code": 36,
    "city": "徳島市",
    "city_kana": "トクシマシ",
    "town": "八百屋町",
    "town_kana": "ヤオヤマチ",
    "street": "２丁目１１番地ニッセイ徳島ビル７階",
    "office_name": "全国健康保険協会　徳島支部",
    "office_name_kana": "ゼンコクケンコウホケンキヨウカイ トクシマシブ"
  },
  "8544": {
    "postcode": "7708544",
    "prefecture": "徳島県",
    "prefecture_kana": "トクシマケン",
    "prefecture_code": 36,
    "city": "徳島市",
    "city_kana": "トクシマシ",
    "town": "寺島本町東",
    "town_kana": "テラシマホンチョウヒガシ",
    "street": "１丁目２８番地",
    "office_name": "日本放送協会　徳島放送局",
    "office_name_kana": "ニホンホウソウキヨウカイ トクシマホウソウキヨク"
  },
  "8546": {
    "postcode": "7708546",
    "prefecture": "徳島県",
    "prefecture_kana": "トクシマケン",
    "prefecture_code": 36,
    "city": "徳島市",
    "city_kana": "トクシマシ",
    "town": "佐古六番町",
    "town_kana": "サコ6バンチョウ",
    "street": "１１−８",
    "office_name": "富士スレート　株式会社",
    "office_name_kana": "フジスレ-ト カブシキガイシヤ"
  },
  "8547": [
    {
      "postcode": "7708547",
      "prefecture": "徳島県",
      "prefecture_kana": "トクシマケン",
      "prefecture_code": 36,
      "city": "徳島市",
      "city_kana": "トクシマシ",
      "town": "下助任町",
      "town_kana": "シモスケトウチョウ",
      "street": "４丁目９番地",
      "office_name": "徳島健康生活協同組合本部",
      "office_name_kana": "トクシマケンコウセイカツキヨウドウクミアイホンブ"
    },
    {
      "postcode": "7708547",
      "prefecture": "徳島県",
      "prefecture_kana": "トクシマケン",
      "prefecture_code": 36,
      "city": "徳島市",
      "city_kana": "トクシマシ",
      "town": "下助任町",
      "town_kana": "シモスケトウチョウ",
      "street": "４丁目９",
      "office_name": "徳島健生病院",
      "office_name_kana": "トクシマケンセイビヨウイン"
    }
  ],
  "8548": {
    "postcode": "7708548",
    "prefecture": "徳島県",
    "prefecture_kana": "トクシマケン",
    "prefecture_code": 36,
    "city": "徳島市",
    "city_kana": "トクシマシ",
    "town": "北佐古一番町",
    "town_kana": "キタサコイチバンチョウ",
    "street": "６−１",
    "office_name": "社会医療法人川島会　川島病院",
    "office_name_kana": "シヤカイイリヨウホウジンカワシマカイ カワシマビヨウイン"
  },
  "8550": {
    "postcode": "7708550",
    "prefecture": "徳島県",
    "prefecture_kana": "トクシマケン",
    "prefecture_code": 36,
    "city": "徳島市",
    "city_kana": "トクシマシ",
    "town": "南末広町",
    "town_kana": "ミナミスエヒロチョウ",
    "street": "５番８−８号徳島経済産業会館",
    "office_name": "徳島県中小企業団体中央会",
    "office_name_kana": "トクシマケンチユウシヨウキギヨウダンタイチユウオウカイ"
  },
  "8551": {
    "postcode": "7708551",
    "prefecture": "徳島県",
    "prefecture_kana": "トクシマケン",
    "prefecture_code": 36,
    "city": "徳島市",
    "city_kana": "トクシマシ",
    "town": "幸町",
    "town_kana": "サイワイチョウ",
    "street": "３丁目５５番地（自治会館内）",
    "office_name": "徳島県市町村職員共済組合",
    "office_name_kana": "トクシマケンシチヨウソンシヨクインキヨウサイクミアイ"
  },
  "8552": {
    "postcode": "7708552",
    "prefecture": "徳島県",
    "prefecture_kana": "トクシマケン",
    "prefecture_code": 36,
    "city": "徳島市",
    "city_kana": "トクシマシ",
    "town": "新蔵町",
    "town_kana": "シンクラチョウ",
    "street": "１−１１",
    "office_name": "ケーブルテレビ徳島　株式会社",
    "office_name_kana": "ケ-ブルテレビトクシマ カブシキガイシヤ"
  },
  "8554": {
    "postcode": "7708554",
    "prefecture": "徳島県",
    "prefecture_kana": "トクシマケン",
    "prefecture_code": 36,
    "city": "徳島市",
    "city_kana": "トクシマシ",
    "town": "上吉野町",
    "town_kana": "カミヨシノチョウ",
    "street": "３丁目３５",
    "office_name": "国土交通省四国地方整備局　徳島河川国道事務所",
    "office_name_kana": "コクドコウツウシヨウシコクチホウセイビキヨク トクシマカセンコクドウジムシヨ"
  },
  "8555": {
    "postcode": "7708555",
    "prefecture": "徳島県",
    "prefecture_kana": "トクシマケン",
    "prefecture_code": 36,
    "city": "徳島市",
    "city_kana": "トクシマシ",
    "town": "寺島本町東",
    "town_kana": "テラシマホンチョウヒガシ",
    "street": "２丁目２９",
    "office_name": "四国電力　株式会社　徳島支店",
    "office_name_kana": "シコクデンリヨク カブシキガイシヤ トクシマシテン"
  },
  "8558": {
    "postcode": "7708558",
    "prefecture": "徳島県",
    "prefecture_kana": "トクシマケン",
    "prefecture_code": 36,
    "city": "徳島市",
    "city_kana": "トクシマシ",
    "town": "中吉野町",
    "town_kana": "ナカヨシノチョウ",
    "street": "１丁目１３",
    "office_name": "株式会社　よんやく徳島",
    "office_name_kana": "カブシキガイシヤ ヨンヤクトクシマ"
  },
  "8560": {
    "postcode": "7708560",
    "prefecture": "徳島県",
    "prefecture_kana": "トクシマケン",
    "prefecture_code": 36,
    "city": "徳島市",
    "city_kana": "トクシマシ",
    "town": "寺島本町東",
    "town_kana": "テラシマホンチョウヒガシ",
    "street": "１丁目８",
    "office_name": "学校法人　村崎学園　徳島文理大学　学園本部",
    "office_name_kana": "ガツコウホウジン ムラサキガクエン トクシマブンリダイガク ガクエンホンブ"
  },
  "8563": {
    "postcode": "7708563",
    "prefecture": "徳島県",
    "prefecture_kana": "トクシマケン",
    "prefecture_code": 36,
    "city": "徳島市",
    "city_kana": "トクシマシ",
    "town": "南二軒屋町",
    "town_kana": "ミナミニケンヤチョウ",
    "street": "３丁目１−５",
    "office_name": "徳島製粉　株式会社",
    "office_name_kana": "トクシマセイフン カブシキガイシヤ"
  },
  "8565": {
    "postcode": "7708565",
    "prefecture": "徳島県",
    "prefecture_kana": "トクシマケン",
    "prefecture_code": 36,
    "city": "徳島市",
    "city_kana": "トクシマシ",
    "town": "幸町",
    "town_kana": "サイワイチョウ",
    "street": "３丁目６１",
    "office_name": "徳島県　医師会",
    "office_name_kana": "トクシマケン イシカイ"
  },
  "8567": {
    "postcode": "7708567",
    "prefecture": "徳島県",
    "prefecture_kana": "トクシマケン",
    "prefecture_code": 36,
    "city": "徳島市",
    "city_kana": "トクシマシ",
    "town": "寺島本町西",
    "town_kana": "テラシマホンチョウニシ",
    "street": "１丁目６１番地",
    "office_name": "株式会社　エフエム徳島",
    "office_name_kana": "カブシキガイシヤ エフエムトクシマ"
  },
  "8570": {
    "postcode": "7708570",
    "prefecture": "徳島県",
    "prefecture_kana": "トクシマケン",
    "prefecture_code": 36,
    "city": "徳島市",
    "city_kana": "トクシマシ",
    "town": "万代町",
    "town_kana": "バンダイチョウ",
    "street": "１丁目",
    "office_name": "徳島県庁",
    "office_name_kana": "トクシマケンチヨウ"
  },
  "8571": {
    "postcode": "7708571",
    "prefecture": "徳島県",
    "prefecture_kana": "トクシマケン",
    "prefecture_code": 36,
    "city": "徳島市",
    "city_kana": "トクシマシ",
    "town": "幸町",
    "town_kana": "サイワイチョウ",
    "street": "２丁目５",
    "office_name": "徳島市役所",
    "office_name_kana": "トクシマシヤクシヨ"
  },
  "8572": {
    "postcode": "7708572",
    "prefecture": "徳島県",
    "prefecture_kana": "トクシマケン",
    "prefecture_code": 36,
    "city": "徳島市",
    "city_kana": "トクシマシ",
    "town": "中徳島町",
    "town_kana": "ナカトクシマチョウ",
    "street": "２丁目５−２",
    "office_name": "社団法人　徳島新聞社",
    "office_name_kana": "シヤダンホウジン トクシマシンブンシヤ"
  },
  "8573": {
    "postcode": "7708573",
    "prefecture": "徳島県",
    "prefecture_kana": "トクシマケン",
    "prefecture_code": 36,
    "city": "徳島市",
    "city_kana": "トクシマシ",
    "town": "中徳島町",
    "town_kana": "ナカトクシマチョウ",
    "street": "２丁目５−２",
    "office_name": "四国放送　株式会社",
    "office_name_kana": "シコクホウソウ カブシキガイシヤ"
  },
  "8585": {
    "postcode": "7708585",
    "prefecture": "徳島県",
    "prefecture_kana": "トクシマケン",
    "prefecture_code": 36,
    "city": "徳島市",
    "city_kana": "トクシマシ",
    "town": "山城町",
    "town_kana": "ヤマシロチョウ",
    "street": "東浜傍示１−１",
    "office_name": "株式会社　エフエムびざん",
    "office_name_kana": "カブシキガイシヤ エフエムビザン"
  },
  "8588": {
    "postcode": "7708588",
    "prefecture": "徳島県",
    "prefecture_kana": "トクシマケン",
    "prefecture_code": 36,
    "city": "徳島市",
    "city_kana": "トクシマシ",
    "town": "中通町",
    "town_kana": "ナカトオリマチ",
    "street": "２丁目１６",
    "office_name": "レディスファイブ",
    "office_name_kana": "レデイスフアイブ"
  },
  "8601": {
    "postcode": "7708601",
    "prefecture": "徳島県",
    "prefecture_kana": "トクシマケン",
    "prefecture_code": 36,
    "city": "徳島市",
    "city_kana": "トクシマシ",
    "town": "西船場町",
    "town_kana": "ニシセンバチョウ",
    "street": "２丁目２４−１（徳島中央郵便局私書箱第６号）",
    "office_name": "株式会社　阿波銀行",
    "office_name_kana": "カブシキガイシヤ アワギンコウ"
  },
  "8605": {
    "postcode": "7708605",
    "prefecture": "徳島県",
    "prefecture_kana": "トクシマケン",
    "prefecture_code": 36,
    "city": "徳島市",
    "city_kana": "トクシマシ",
    "town": "幸町",
    "town_kana": "サイワイチョウ",
    "street": "１丁目４７−３（徳島中央郵便局私書箱第１０３号）",
    "office_name": "株式会社　岡田組",
    "office_name_kana": "カブシキガイシヤ オカダグミ"
  },
  "8610": {
    "postcode": "7708610",
    "prefecture": "徳島県",
    "prefecture_kana": "トクシマケン",
    "prefecture_code": 36,
    "city": "徳島市",
    "city_kana": "トクシマシ",
    "town": "中洲町",
    "town_kana": "ナカズチョウ",
    "street": "１丁目６７（徳島中央郵便局私書箱第４７号）",
    "office_name": "株式会社　姫野組",
    "office_name_kana": "カブシキガイシヤ ヒメノグミ"
  },
  "8648": {
    "postcode": "7708648",
    "prefecture": "徳島県",
    "prefecture_kana": "トクシマケン",
    "prefecture_code": 36,
    "city": "徳島市",
    "city_kana": "トクシマシ",
    "town": "富田浜",
    "town_kana": "トミダハマ",
    "street": "１丁目１６（徳島中央郵便局私書箱第４８号）",
    "office_name": "徳島銀行　本店",
    "office_name_kana": "トクシマギンコウ ホンテン"
  },
  "8787": {
    "postcode": "7708787",
    "prefecture": "徳島県",
    "prefecture_kana": "トクシマケン",
    "prefecture_code": 36,
    "city": "徳島市",
    "city_kana": "トクシマシ",
    "town": "南前川町",
    "town_kana": "ミナミマエガワチョウ",
    "street": "２丁目５",
    "office_name": "徳島地域センター",
    "office_name_kana": "トクシマチイキセンタ-"
  },
  "8794": {
    "postcode": "7708794",
    "prefecture": "徳島県",
    "prefecture_kana": "トクシマケン",
    "prefecture_code": 36,
    "city": "徳島市",
    "city_kana": "トクシマシ",
    "town": "南前川町",
    "town_kana": "ミナミマエガワチョウ",
    "street": "２丁目５",
    "office_name": "徳島貯金事務センター",
    "office_name_kana": "トクシマチヨキンジムセンタ-"
  },
  "8798": {
    "postcode": "7708798",
    "prefecture": "徳島県",
    "prefecture_kana": "トクシマケン",
    "prefecture_code": 36,
    "city": "徳島市",
    "city_kana": "トクシマシ",
    "town": "伊賀町",
    "town_kana": "イガチョウ",
    "street": "３丁目１９−２",
    "office_name": "徳島逓信病院",
    "office_name_kana": "トクシマテイシンビヨウイン"
  }
}