{
  "0000": {
    "postcode": "7780000",
    "prefecture": "徳島県",
    "prefecture_kana": "トクシマケン",
    "prefecture_code": 36,
    "city": "三好市",
    "city_kana": "ミヨシシ",
    "town": "",
    "town_kana": "",
    "street": null,
    "office_name": null,
    "office_name_kana": null
  },
  "0001": {
    "postcode": "7780001",
    "prefecture": "徳島県",
    "prefecture_kana": "トクシマケン",
    "prefecture_code": 36,
    "city": "三好市",
    "city_kana": "ミヨシシ",
    "town": "池田町ウエノ",
    "town_kana": "イケダチョウウエノ",
    "street": null,
    "office_name": null,
    "office_name_kana": null
  },
  "0002": {
    "postcode": "7780002",
    "prefecture": "徳島県",
    "prefecture_kana": "トクシマケン",
    "prefecture_code": 36,
    "city": "三好市",
    "city_kana": "ミヨシシ",
    "town": "池田町マチ",
    "town_kana": "イケダチョウマチ",
    "street": null,
    "office_name": null,
    "office_name_kana": null
  },
  "0003": {
    "postcode": "7780003",
    "prefecture": "徳島県",
    "prefecture_kana": "トクシマケン",
    "prefecture_code": 36,
    "city": "三好市",
    "city_kana": "ミヨシシ",
    "town": "池田町サラダ",
    "town_kana": "イケダチョウサラダ",
    "street": null,
    "office_name": null,
    "office_name_kana": null
  },
  "0004": {
    "postcode": "7780004",
    "prefecture": "徳島県",
    "prefecture_kana": "トクシマケン",
    "prefecture_code": 36,
    "city": "三好市",
    "city_kana": "ミヨシシ",
    "town": "池田町シンマチ",
    "town_kana": "イケダチョウシンマチ",
    "street": null,
    "office_name": null,
    "office_name_kana": null
  },
  "0005": {
    "postcode": "7780005",
    "prefecture": "徳島県",
    "prefecture_kana": "トクシマケン",
    "prefecture_code": 36,
    "city": "三好市",
    "city_kana": "ミヨシシ",
    "town": "池田町シマ",
    "town_kana": "イケダチョウシマ",
    "street": null,
    "office_name": null,
    "office_name_kana": null
  },
  "0006": {
    "postcode": "7780006",
    "prefecture": "徳島県",
    "prefecture_kana": "トクシマケン",
    "prefecture_code": 36,
    "city": "三好市",
    "city_kana": "ミヨシシ",
    "town": "池田町トウゲ",
    "town_kana": "イケダチョウトウゲ",
    "street": null,
    "office_name": null,
    "office_name_kana": null
  },
  "0007": {
    "postcode": "7780007",
    "prefecture": "徳島県",
    "prefecture_kana": "トクシマケン",
    "prefecture_code": 36,
    "city": "三好市",
    "city_kana": "ミヨシシ",
    "town": "池田町ヤマダ",
    "town_kana": "イケダチョウヤマダ",
    "street": null,
    "office_name": null,
    "office_name_kana": null
  },
  "0008": {
    "postcode": "7780008",
    "prefecture": "徳島県",
    "prefecture_kana": "トクシマケン",
    "prefecture_code": 36,
    "city": "三好市",
    "city_kana": "ミヨシシ",
    "town": "池田町クヤウジ",
    "town_kana": "イケダチョウクヤウジ",
    "street": null,
    "office_name": null,
    "office_name_kana": null
  },
  "0009": {
    "postcode": "7780009",
    "prefecture": "徳島県",
    "prefecture_kana": "トクシマケン",
    "prefecture_code": 36,
    "city": "三好市",
    "city_kana": "ミヨシシ",
    "town": "池田町ヤサン",
    "town_kana": "イケダチョウヤサン",
    "street": null,
    "office_name": null,
    "office_name_kana": null
  },
  "0010": {
    "postcode": "7780010",
    "prefecture": "徳島県",
    "prefecture_kana": "トクシマケン",
    "prefecture_code": 36,
    "city": "三好市",
    "city_kana": "ミヨシシ",
    "town": "池田町ウエマツ",
    "town_kana": "イケダチョウウエマツ",
    "street": null,
    "office_name": null,
    "office_name_kana": null
  },
  "0011": {
    "postcode": "7780011",
    "prefecture": "徳島県",
    "prefecture_kana": "トクシマケン",
    "prefecture_code": 36,
    "city": "三好市",
    "city_kana": "ミヨシシ",
    "town": "池田町ハヤシ",
    "town_kana": "イケダチョウハヤシ",
    "street": null,
    "office_name": null,
    "office_name_kana": null
  },
  "0012": {
    "postcode": "7780012",
    "prefecture": "徳島県",
    "prefecture_kana": "トクシマケン",
    "prefecture_code": 36,
    "city": "三好市",
    "city_kana": "ミヨシシ",
    "town": "池田町イケミナミ",
    "town_kana": "イケダチョウイケミナミ",
    "street": null,
    "office_name": null,
    "office_name_kana": null
  },
  "0013": {
    "postcode": "7780013",
    "prefecture": "徳島県",
    "prefecture_kana": "トクシマケン",
    "prefecture_code": 36,
    "city": "三好市",
    "city_kana": "ミヨシシ",
    "town": "池田町シンヤマ",
    "town_kana": "イケダチョウシンヤマ",
    "street": null,
    "office_name": null,
    "office_name_kana": null
  },
  "0014": {
    "postcode": "7780014",
    "prefecture": "徳島県",
    "prefecture_kana": "トクシマケン",
    "prefecture_code": 36,
    "city": "三好市",
    "city_kana": "ミヨシシ",
    "town": "池田町イタノ",
    "town_kana": "イケダチョウイタノ",
    "street": null,
    "office_name": null,
    "office_name_kana": null
  },
  "0020": {
    "postcode": "7780020",
    "prefecture": "徳島県",
    "prefecture_kana": "トクシマケン",
    "prefecture_code": 36,
    "city": "三好市",
    "city_kana": "ミヨシシ",
    "town": "池田町州津",
    "town_kana": "イケダチョウシュウヅ",
    "street": null,
    "office_name": null,
    "office_name_kana": null
  },
  "0031": [
    {
      "postcode": "7780031",
      "prefecture": "徳島県",
      "prefecture_kana": "トクシマケン",
      "prefecture_code": 36,
      "city": "三好市",
      "city_kana": "ミヨシシ",
      "town": "池田町西山",
      "town_kana": "イケダチョウニシヤマ",
      "street": null,
      "office_name": null,
      "office_name_kana": null
    },
    {
      "postcode": "7780031",
      "prefecture": "徳島県",
      "prefecture_kana": "トクシマケン",
      "prefecture_code": 36,
      "city": "三好市",
      "city_kana": "ミヨシシ",
      "town": "池田町西山上久保",
      "town_kana": "イケダチョウニシヤマウワクボ",
      "street": null,
      "office_name": null,
      "office_name_kana": null
    },
    {
      "postcode": "7780031",
      "prefecture": "徳島県",
      "prefecture_kana": "トクシマケン",
      "prefecture_code": 36,
      "city": "三好市",
      "city_kana": "ミヨシシ",
      "town": "池田町西山落",
      "town_kana": "イケダチョウニシヤマオチ",
      "street": null,
      "office_name": null,
      "office_name_kana": null
    },
    {
      "postcode": "7780031",
      "prefecture": "徳島県",
      "prefecture_kana": "トクシマケン",
      "prefecture_code": 36,
      "city": "三好市",
      "city_kana": "ミヨシシ",
      "town": "池田町西山上中尾",
      "town_kana": "イケダチョウニシヤマカミナカオ",
      "street": null,
      "office_name": null,
      "office_name_kana": null
    },
    {
      "postcode": "7780031",
      "prefecture": "徳島県",
      "prefecture_kana": "トクシマケン",
      "prefecture_code": 36,
      "city": "三好市",
      "city_kana": "ミヨシシ",
      "town": "池田町西山谷浦",
      "town_kana": "イケダチョウニシヤマタニウラ",
      "street": null,
      "office_name": null,
      "office_name_kana": null
    },
    {
      "postcode": "7780031",
      "prefecture": "徳島県",
      "prefecture_kana": "トクシマケン",
      "prefecture_code": 36,
      "city": "三好市",
      "city_kana": "ミヨシシ",
      "town": "池田町西山津寺",
      "town_kana": "イケダチョウニシヤマツデラ",
      "street": null,
      "office_name": null,
      "office_name_kana": null
    },
    {
      "postcode": "7780031",
      "prefecture": "徳島県",
      "prefecture_kana": "トクシマケン",
      "prefecture_code": 36,
      "city": "三好市",
      "city_kana": "ミヨシシ",
      "town": "池田町西山坪尻",
      "town_kana": "イケダチョウニシヤマツボジリ",
      "street": null,
      "office_name": null,
      "office_name_kana": null
    },
    {
      "postcode": "7780031",
      "prefecture": "徳島県",
      "prefecture_kana": "トクシマケン",
      "prefecture_code": 36,
      "city": "三好市",
      "city_kana": "ミヨシシ",
      "town": "池田町西山中尾",
      "town_kana": "イケダチョウニシヤマナカオ",
      "street": null,
      "office_name": null,
      "office_name_kana": null
    },
    {
      "postcode": "7780031",
      "prefecture": "徳島県",
      "prefecture_kana": "トクシマケン",
      "prefecture_code": 36,
      "city": "三好市",
      "city_kana": "ミヨシシ",
      "town": "池田町西山西ノ岡",
      "town_kana": "イケダチョウニシヤマニシノオカ",
      "street": null,
      "office_name": null,
      "office_name_kana": null
    },
    {
      "postcode": "7780031",
      "prefecture": "徳島県",
      "prefecture_kana": "トクシマケン",
      "prefecture_code": 36,
      "city": "三好市",
      "city_kana": "ミヨシシ",
      "town": "池田町西山船原",
      "town_kana": "イケダチョウニシヤマフナバラ",
      "street": null,
      "office_name": null,
      "office_name_kana": null
    },
    {
      "postcode": "7780031",
      "prefecture": "徳島県",
      "prefecture_kana": "トクシマケン",
      "prefecture_code": 36,
      "city": "三好市",
      "city_kana": "ミヨシシ",
      "town": "池田町西山横佐古",
      "town_kana": "イケダチョウニシヤマヨコサコ",
      "street": null,
      "office_name": null,
      "office_name_kana": null
    }
  ],
  "0032": [
    {
      "postcode": "7780032",
      "prefecture": "徳島県",
      "prefecture_kana": "トクシマケン",
      "prefecture_code": 36,
      "city": "三好市",
      "city_kana": "ミヨシシ",
      "town": "池田町西山",
      "town_kana": "イケダチョウニシヤマ",
      "street": null,
      "office_name": null,
      "office_name_kana": null
    },
    {
      "postcode": "7780032",
      "prefecture": "徳島県",
      "prefecture_kana": "トクシマケン",
      "prefecture_code": 36,
      "city": "三好市",
      "city_kana": "ミヨシシ",
      "town": "池田町西山蔭",
      "town_kana": "イケダチョウニシヤマカゲ",
      "street": null,
      "office_name": null,
      "office_name_kana": null
    },
    {
      "postcode": "7780032",
      "prefecture": "徳島県",
      "prefecture_kana": "トクシマケン",
      "prefecture_code": 36,
      "city": "三好市",
      "city_kana": "ミヨシシ",
      "town": "池田町西山樫ノ下",
      "town_kana": "イケダチョウニシヤマカシノシタ",
      "street": null,
      "office_name": null,
      "office_name_kana": null
    },
    {
      "postcode": "7780032",
      "prefecture": "徳島県",
      "prefecture_kana": "トクシマケン",
      "prefecture_code": 36,
      "city": "三好市",
      "city_kana": "ミヨシシ",
      "town": "池田町西山岸ノ上",
      "town_kana": "イケダチョウニシヤマキシノウエ",
      "street": null,
      "office_name": null,
      "office_name_kana": null
    },
    {
      "postcode": "7780032",
      "prefecture": "徳島県",
      "prefecture_kana": "トクシマケン",
      "prefecture_code": 36,
      "city": "三好市",
      "city_kana": "ミヨシシ",
      "town": "池田町西山込野",
      "town_kana": "イケダチョウニシヤマコミノ",
      "street": null,
      "office_name": null,
      "office_name_kana": null
    },
    {
      "postcode": "7780032",
      "prefecture": "徳島県",
      "prefecture_kana": "トクシマケン",
      "prefecture_code": 36,
      "city": "三好市",
      "city_kana": "ミヨシシ",
      "town": "池田町西山下ノ浦",
      "town_kana": "イケダチョウニシヤマシモノウラ",
      "street": null,
      "office_name": null,
      "office_name_kana": null
    },
    {
      "postcode": "7780032",
      "prefecture": "徳島県",
      "prefecture_kana": "トクシマケン",
      "prefecture_code": 36,
      "city": "三好市",
      "city_kana": "ミヨシシ",
      "town": "池田町西山乳ノ木",
      "town_kana": "イケダチョウニシヤマチチノキ",
      "street": null,
      "office_name": null,
      "office_name_kana": null
    },
    {
      "postcode": "7780032",
      "prefecture": "徳島県",
      "prefecture_kana": "トクシマケン",
      "prefecture_code": 36,
      "city": "三好市",
      "city_kana": "ミヨシシ",
      "town": "池田町西山乳ノ木道北",
      "town_kana": "イケダチョウニシヤマチチノキミチキタ",
      "street": null,
      "office_name": null,
      "office_name_kana": null
    },
    {
      "postcode": "7780032",
      "prefecture": "徳島県",
      "prefecture_kana": "トクシマケン",
      "prefecture_code": 36,
      "city": "三好市",
      "city_kana": "ミヨシシ",
      "town": "池田町西山中塚",
      "town_kana": "イケダチョウニシヤマナカツカ",
      "street": null,
      "office_name": null,
      "office_name_kana": null
    },
    {
      "postcode": "7780032",
      "prefecture": "徳島県",
      "prefecture_kana": "トクシマケン",
      "prefecture_code": 36,
      "city": "三好市",
      "city_kana": "ミヨシシ",
      "town": "池田町西山西谷",
      "town_kana": "イケダチョウニシヤマニシタニ",
      "street": null,
      "office_name": null,
      "office_name_kana": null
    },
    {
      "postcode": "7780032",
      "prefecture": "徳島県",
      "prefecture_kana": "トクシマケン",
      "prefecture_code": 36,
      "city": "三好市",
      "city_kana": "ミヨシシ",
      "town": "池田町西山登リ尾",
      "town_kana": "イケダチョウニシヤマノボリオ",
      "street": null,
      "office_name": null,
      "office_name_kana": null
    },
    {
      "postcode": "7780032",
      "prefecture": "徳島県",
      "prefecture_kana": "トクシマケン",
      "prefecture_code": 36,
      "city": "三好市",
      "city_kana": "ミヨシシ",
      "town": "池田町西山宮ノ西",
      "town_kana": "イケダチョウニシヤマミヤノニシ",
      "street": null,
      "office_name": null,
      "office_name_kana": null
    },
    {
      "postcode": "7780032",
      "prefecture": "徳島県",
      "prefecture_kana": "トクシマケン",
      "prefecture_code": 36,
      "city": "三好市",
      "city_kana": "ミヨシシ",
      "town": "池田町西山宮ノ東",
      "town_kana": "イケダチョウニシヤマミヤノヒガシ",
      "street": null,
      "office_name": null,
      "office_name_kana": null
    }
  ],
  "0040": {
    "postcode": "7780040",
    "prefecture": "徳島県",
    "prefecture_kana": "トクシマケン",
    "prefecture_code": 36,
    "city": "三好市",
    "city_kana": "ミヨシシ",
    "town": "池田町西山",
    "town_kana": "イケダチョウニシヤマ",
    "street": null,
    "office_name": null,
    "office_name_kana": null
  },
  "0101": [
    {
      "postcode": "7780101",
      "prefecture": "徳島県",
      "prefecture_kana": "トクシマケン",
      "prefecture_code": 36,
      "city": "三好市",
      "city_kana": "ミヨシシ",
      "town": "西祖谷山村一宇",
      "town_kana": "ニシイヤヤマムライチウ",
      "street": null,
      "office_name": null,
      "office_name_kana": null
    },
    {
      "postcode": "7780101",
      "prefecture": "徳島県",
      "prefecture_kana": "トクシマケン",
      "prefecture_code": 36,
      "city": "三好市",
      "city_kana": "ミヨシシ",
      "town": "西祖谷山村尾井ノ内",
      "town_kana": "ニシイヤヤマムラオイノウチ",
      "street": null,
      "office_name": null,
      "office_name_kana": null
    },
    {
      "postcode": "7780101",
      "prefecture": "徳島県",
      "prefecture_kana": "トクシマケン",
      "prefecture_code": 36,
      "city": "三好市",
      "city_kana": "ミヨシシ",
      "town": "西祖谷山村重末",
      "town_kana": "ニシイヤヤマムラシゲスエ",
      "street": null,
      "office_name": null,
      "office_name_kana": null
    },
    {
      "postcode": "7780101",
      "prefecture": "徳島県",
      "prefecture_kana": "トクシマケン",
      "prefecture_code": 36,
      "city": "三好市",
      "city_kana": "ミヨシシ",
      "town": "西祖谷山村田ノ内",
      "town_kana": "ニシイヤヤマムラタノウチ",
      "street": null,
      "office_name": null,
      "office_name_kana": null
    },
    {
      "postcode": "7780101",
      "prefecture": "徳島県",
      "prefecture_kana": "トクシマケン",
      "prefecture_code": 36,
      "city": "三好市",
      "city_kana": "ミヨシシ",
      "town": "西祖谷山村戸ノ谷",
      "town_kana": "ニシイヤヤマムラトノタニ",
      "street": null,
      "office_name": null,
      "office_name_kana": null
    },
    {
      "postcode": "7780101",
      "prefecture": "徳島県",
      "prefecture_kana": "トクシマケン",
      "prefecture_code": 36,
      "city": "三好市",
      "city_kana": "ミヨシシ",
      "town": "西祖谷山村眠谷",
      "town_kana": "ニシイヤヤマムラネムリダニ",
      "street": null,
      "office_name": null,
      "office_name_kana": null
    },
    {
      "postcode": "7780101",
      "prefecture": "徳島県",
      "prefecture_kana": "トクシマケン",
      "prefecture_code": 36,
      "city": "三好市",
      "city_kana": "ミヨシシ",
      "town": "西祖谷山村冥地",
      "town_kana": "ニシイヤヤマムラミョウジ",
      "street": null,
      "office_name": null,
      "office_name_kana": null
    }
  ],
  "0102": [
    {
      "postcode": "7780102",
      "prefecture": "徳島県",
      "prefecture_kana": "トクシマケン",
      "prefecture_code": 36,
      "city": "三好市",
      "city_kana": "ミヨシシ",
      "town": "西祖谷山村今久保",
      "town_kana": "ニシイヤヤマムライマクボ",
      "street": null,
      "office_name": null,
      "office_name_kana": null
    },
    {
      "postcode": "7780102",
      "prefecture": "徳島県",
      "prefecture_kana": "トクシマケン",
      "prefecture_code": 36,
      "city": "三好市",
      "city_kana": "ミヨシシ",
      "town": "西祖谷山村閑定",
      "town_kana": "ニシイヤヤマムラカンジョウ",
      "street": null,
      "office_name": null,
      "office_name_kana": null
    },
    {
      "postcode": "7780102",
      "prefecture": "徳島県",
      "prefecture_kana": "トクシマケン",
      "prefecture_code": 36,
      "city": "三好市",
      "city_kana": "ミヨシシ",
      "town": "西祖谷山村善徳",
      "town_kana": "ニシイヤヤマムラゼントク",
      "street": null,
      "office_name": null,
      "office_name_kana": null
    },
    {
      "postcode": "7780102",
      "prefecture": "徳島県",
      "prefecture_kana": "トクシマケン",
      "prefecture_code": 36,
      "city": "三好市",
      "city_kana": "ミヨシシ",
      "town": "西祖谷山村中尾",
      "town_kana": "ニシイヤヤマムラナカオ",
      "street": null,
      "office_name": null,
      "office_name_kana": null
    }
  ],
  "0103": {
    "postcode": "7780103",
    "prefecture": "徳島県",
    "prefecture_kana": "トクシマケン",
    "prefecture_code": 36,
    "city": "三好市",
    "city_kana": "ミヨシシ",
    "town": "西祖谷山村有瀬",
    "town_kana": "ニシイヤヤマムラアルセ",
    "street": null,
    "office_name": null,
    "office_name_kana": null
  },
  "0104": [
    {
      "postcode": "7780104",
      "prefecture": "徳島県",
      "prefecture_kana": "トクシマケン",
      "prefecture_code": 36,
      "city": "三好市",
      "city_kana": "ミヨシシ",
      "town": "西祖谷山村吾橋",
      "town_kana": "ニシイヤヤマムラアハシ",
      "street": null,
      "office_name": null,
      "office_name_kana": null
    },
    {
      "postcode": "7780104",
      "prefecture": "徳島県",
      "prefecture_kana": "トクシマケン",
      "prefecture_code": 36,
      "city": "三好市",
      "city_kana": "ミヨシシ",
      "town": "西祖谷山村榎",
      "town_kana": "ニシイヤヤマムラエノキ",
      "street": null,
      "office_name": null,
      "office_name_kana": null
    },
    {
      "postcode": "7780104",
      "prefecture": "徳島県",
      "prefecture_kana": "トクシマケン",
      "prefecture_code": 36,
      "city": "三好市",
      "city_kana": "ミヨシシ",
      "town": "西祖谷山村上吾橋",
      "town_kana": "ニシイヤヤマムラカミアハシ",
      "street": null,
      "office_name": null,
      "office_name_kana": null
    },
    {
      "postcode": "7780104",
      "prefecture": "徳島県",
      "prefecture_kana": "トクシマケン",
      "prefecture_code": 36,
      "city": "三好市",
      "city_kana": "ミヨシシ",
      "town": "西祖谷山村下吾橋",
      "town_kana": "ニシイヤヤマムラシモアハシ",
      "street": null,
      "office_name": null,
      "office_name_kana": null
    },
    {
      "postcode": "7780104",
      "prefecture": "徳島県",
      "prefecture_kana": "トクシマケン",
      "prefecture_code": 36,
      "city": "三好市",
      "city_kana": "ミヨシシ",
      "town": "西祖谷山村土日浦",
      "town_kana": "ニシイヤヤマムラツチヒウラ",
      "street": null,
      "office_name": null,
      "office_name_kana": null
    },
    {
      "postcode": "7780104",
      "prefecture": "徳島県",
      "prefecture_kana": "トクシマケン",
      "prefecture_code": 36,
      "city": "三好市",
      "city_kana": "ミヨシシ",
      "town": "西祖谷山村東山",
      "town_kana": "ニシイヤヤマムラヒガシヤマ",
      "street": null,
      "office_name": null,
      "office_name_kana": null
    },
    {
      "postcode": "7780104",
      "prefecture": "徳島県",
      "prefecture_kana": "トクシマケン",
      "prefecture_code": 36,
      "city": "三好市",
      "city_kana": "ミヨシシ",
      "town": "西祖谷山村南山",
      "town_kana": "ニシイヤヤマムラミナミヤマ",
      "street": null,
      "office_name": null,
      "office_name_kana": null
    }
  ],
  "0105": [
    {
      "postcode": "7780105",
      "prefecture": "徳島県",
      "prefecture_kana": "トクシマケン",
      "prefecture_code": 36,
      "city": "三好市",
      "city_kana": "ミヨシシ",
      "town": "西祖谷山村後山",
      "town_kana": "ニシイヤヤマムラウシロヤマ",
      "street": null,
      "office_name": null,
      "office_name_kana": null
    },
    {
      "postcode": "7780105",
      "prefecture": "徳島県",
      "prefecture_kana": "トクシマケン",
      "prefecture_code": 36,
      "city": "三好市",
      "city_kana": "ミヨシシ",
      "town": "西祖谷山村後山西",
      "town_kana": "ニシイヤヤマムラウシロヤマニシ",
      "street": null,
      "office_name": null,
      "office_name_kana": null
    },
    {
      "postcode": "7780105",
      "prefecture": "徳島県",
      "prefecture_kana": "トクシマケン",
      "prefecture_code": 36,
      "city": "三好市",
      "city_kana": "ミヨシシ",
      "town": "西祖谷山村後山向",
      "town_kana": "ニシイヤヤマムラウシロヤマムカイ",
      "street": null,
      "office_name": null,
      "office_name_kana": null
    },
    {
      "postcode": "7780105",
      "prefecture": "徳島県",
      "prefecture_kana": "トクシマケン",
      "prefecture_code": 36,
      "city": "三好市",
      "city_kana": "ミヨシシ",
      "town": "西祖谷山村徳善",
      "town_kana": "ニシイヤヤマムラトクゼン",
      "street": null,
      "office_name": null,
      "office_name_kana": null
    },
    {
      "postcode": "7780105",
      "prefecture": "徳島県",
      "prefecture_kana": "トクシマケン",
      "prefecture_code": 36,
      "city": "三好市",
      "city_kana": "ミヨシシ",
      "town": "西祖谷山村徳善北",
      "town_kana": "ニシイヤヤマムラトクゼンキタ",
      "street": null,
      "office_name": null,
      "office_name_kana": null
    },
    {
      "postcode": "7780105",
      "prefecture": "徳島県",
      "prefecture_kana": "トクシマケン",
      "prefecture_code": 36,
      "city": "三好市",
      "city_kana": "ミヨシシ",
      "town": "西祖谷山村徳善西",
      "town_kana": "ニシイヤヤマムラトクゼンニシ",
      "street": null,
      "office_name": null,
      "office_name_kana": null
    },
    {
      "postcode": "7780105",
      "prefecture": "徳島県",
      "prefecture_kana": "トクシマケン",
      "prefecture_code": 36,
      "city": "三好市",
      "city_kana": "ミヨシシ",
      "town": "西祖谷山村西岡",
      "town_kana": "ニシイヤヤマムラニシオカ",
      "street": null,
      "office_name": null,
      "office_name_kana": null
    },
    {
      "postcode": "7780105",
      "prefecture": "徳島県",
      "prefecture_kana": "トクシマケン",
      "prefecture_code": 36,
      "city": "三好市",
      "city_kana": "ミヨシシ",
      "town": "西祖谷山村東西岡",
      "town_kana": "ニシイヤヤマムラヒガシニシオカ",
      "street": null,
      "office_name": null,
      "office_name_kana": null
    }
  ],
  "0165": [
    {
      "postcode": "7780165",
      "prefecture": "徳島県",
      "prefecture_kana": "トクシマケン",
      "prefecture_code": 36,
      "city": "三好市",
      "city_kana": "ミヨシシ",
      "town": "池田町松尾",
      "town_kana": "イケダチョウマツオ",
      "street": null,
      "office_name": null,
      "office_name_kana": null
    },
    {
      "postcode": "7780165",
      "prefecture": "徳島県",
      "prefecture_kana": "トクシマケン",
      "prefecture_code": 36,
      "city": "三好市",
      "city_kana": "ミヨシシ",
      "town": "池田町松尾祖谷温泉",
      "town_kana": "イケダチョウマツオイヤオンセン",
      "street": null,
      "office_name": null,
      "office_name_kana": null
    }
  ],
  "0195": {
    "postcode": "7780195",
    "prefecture": "徳島県",
    "prefecture_kana": "トクシマケン",
    "prefecture_code": 36,
    "city": "三好市",
    "city_kana": "ミヨシシ",
    "town": "西祖谷山村一宇",
    "town_kana": "ニシイヤヤマムライチウ",
    "street": "３４３−２",
    "office_name": "三好市役所　西祖谷総合支所",
    "office_name_kana": "ミヨシシヤクシヨ ニシイヤソウゴウシシヨ"
  },
  "0201": [
    {
      "postcode": "7780201",
      "prefecture": "徳島県",
      "prefecture_kana": "トクシマケン",
      "prefecture_code": 36,
      "city": "三好市",
      "city_kana": "ミヨシシ",
      "town": "東祖谷菅生",
      "town_kana": "ヒガシイヤスゲオイ",
      "street": null,
      "office_name": null,
      "office_name_kana": null
    },
    {
      "postcode": "7780201",
      "prefecture": "徳島県",
      "prefecture_kana": "トクシマケン",
      "prefecture_code": 36,
      "city": "三好市",
      "city_kana": "ミヨシシ",
      "town": "東祖谷見ノ越",
      "town_kana": "ヒガシイヤミノコシ",
      "street": null,
      "office_name": null,
      "office_name_kana": null
    }
  ],
  "0202": [
    {
      "postcode": "7780202",
      "prefecture": "徳島県",
      "prefecture_kana": "トクシマケン",
      "prefecture_code": 36,
      "city": "三好市",
      "city_kana": "ミヨシシ",
      "town": "東祖谷落合",
      "town_kana": "ヒガシイヤオチアイ",
      "street": null,
      "office_name": null,
      "office_name_kana": null
    },
    {
      "postcode": "7780202",
      "prefecture": "徳島県",
      "prefecture_kana": "トクシマケン",
      "prefecture_code": 36,
      "city": "三好市",
      "city_kana": "ミヨシシ",
      "town": "東祖谷久保",
      "town_kana": "ヒガシイヤクボ",
      "street": null,
      "office_name": null,
      "office_name_kana": null
    }
  ],
  "0203": [
    {
      "postcode": "7780203",
      "prefecture": "徳島県",
      "prefecture_kana": "トクシマケン",
      "prefecture_code": 36,
      "city": "三好市",
      "city_kana": "ミヨシシ",
      "town": "東祖谷奥の井",
      "town_kana": "ヒガシイヤオクノイ",
      "street": null,
      "office_name": null,
      "office_name_kana": null
    },
    {
      "postcode": "7780203",
      "prefecture": "徳島県",
      "prefecture_kana": "トクシマケン",
      "prefecture_code": 36,
      "city": "三好市",
      "city_kana": "ミヨシシ",
      "town": "東祖谷釜ケ谷",
      "town_kana": "ヒガシイヤカマガタニ",
      "street": null,
      "office_name": null,
      "office_name_kana": null
    },
    {
      "postcode": "7780203",
      "prefecture": "徳島県",
      "prefecture_kana": "トクシマケン",
      "prefecture_code": 36,
      "city": "三好市",
      "city_kana": "ミヨシシ",
      "town": "東祖谷九鬼",
      "town_kana": "ヒガシイヤクキ",
      "street": null,
      "office_name": null,
      "office_name_kana": null
    },
    {
      "postcode": "7780203",
      "prefecture": "徳島県",
      "prefecture_kana": "トクシマケン",
      "prefecture_code": 36,
      "city": "三好市",
      "city_kana": "ミヨシシ",
      "town": "東祖谷栗枝渡",
      "town_kana": "ヒガシイヤクリスド",
      "street": null,
      "office_name": null,
      "office_name_kana": null
    },
    {
      "postcode": "7780203",
      "prefecture": "徳島県",
      "prefecture_kana": "トクシマケン",
      "prefecture_code": 36,
      "city": "三好市",
      "city_kana": "ミヨシシ",
      "town": "東祖谷下瀬",
      "town_kana": "ヒガシイヤシモセ",
      "street": null,
      "office_name": null,
      "office_name_kana": null
    },
    {
      "postcode": "7780203",
      "prefecture": "徳島県",
      "prefecture_kana": "トクシマケン",
      "prefecture_code": 36,
      "city": "三好市",
      "city_kana": "ミヨシシ",
      "town": "東祖谷中上",
      "town_kana": "ヒガシイヤナカウエ",
      "street": null,
      "office_name": null,
      "office_name_kana": null
    },
    {
      "postcode": "7780203",
      "prefecture": "徳島県",
      "prefecture_kana": "トクシマケン",
      "prefecture_code": 36,
      "city": "三好市",
      "city_kana": "ミヨシシ",
      "town": "東祖谷西山",
      "town_kana": "ヒガシイヤニシヤマ",
      "street": null,
      "office_name": null,
      "office_name_kana": null
    },
    {
      "postcode": "7780203",
      "prefecture": "徳島県",
      "prefecture_kana": "トクシマケン",
      "prefecture_code": 36,
      "city": "三好市",
      "city_kana": "ミヨシシ",
      "town": "東祖谷林",
      "town_kana": "ヒガシイヤハヤシ",
      "street": null,
      "office_name": null,
      "office_name_kana": null
    }
  ],
  "0204": [
    {
      "postcode": "7780204",
      "prefecture": "徳島県",
      "prefecture_kana": "トクシマケン",
      "prefecture_code": 36,
      "city": "三好市",
      "city_kana": "ミヨシシ",
      "town": "東祖谷大枝",
      "town_kana": "ヒガシイヤオオエダ",
      "street": null,
      "office_name": null,
      "office_name_kana": null
    },
    {
      "postcode": "7780204",
      "prefecture": "徳島県",
      "prefecture_kana": "トクシマケン",
      "prefecture_code": 36,
      "city": "三好市",
      "city_kana": "ミヨシシ",
      "town": "東祖谷大西",
      "town_kana": "ヒガシイヤオオニシ",
      "street": null,
      "office_name": null,
      "office_name_kana": null
    },
    {
      "postcode": "7780204",
      "prefecture": "徳島県",
      "prefecture_kana": "トクシマケン",
      "prefecture_code": 36,
      "city": "三好市",
      "city_kana": "ミヨシシ",
      "town": "東祖谷京上",
      "town_kana": "ヒガシイヤキョウジョウ",
      "street": null,
      "office_name": null,
      "office_name_kana": null
    },
    {
      "postcode": "7780204",
      "prefecture": "徳島県",
      "prefecture_kana": "トクシマケン",
      "prefecture_code": 36,
      "city": "三好市",
      "city_kana": "ミヨシシ",
      "town": "東祖谷若林",
      "town_kana": "ヒガシイヤワカバヤシ",
      "street": null,
      "office_name": null,
      "office_name_kana": null
    }
  ],
  "0205": [
    {
      "postcode": "7780205",
      "prefecture": "徳島県",
      "prefecture_kana": "トクシマケン",
      "prefecture_code": 36,
      "city": "三好市",
      "city_kana": "ミヨシシ",
      "town": "東祖谷阿佐",
      "town_kana": "ヒガシイヤアサ",
      "street": null,
      "office_name": null,
      "office_name_kana": null
    },
    {
      "postcode": "7780205",
      "prefecture": "徳島県",
      "prefecture_kana": "トクシマケン",
      "prefecture_code": 36,
      "city": "三好市",
      "city_kana": "ミヨシシ",
      "town": "東祖谷小川",
      "town_kana": "ヒガシイヤオガワ",
      "street": null,
      "office_name": null,
      "office_name_kana": null
    },
    {
      "postcode": "7780205",
      "prefecture": "徳島県",
      "prefecture_kana": "トクシマケン",
      "prefecture_code": 36,
      "city": "三好市",
      "city_kana": "ミヨシシ",
      "town": "東祖谷樫尾",
      "town_kana": "ヒガシイヤカシオ",
      "street": null,
      "office_name": null,
      "office_name_kana": null
    },
    {
      "postcode": "7780205",
      "prefecture": "徳島県",
      "prefecture_kana": "トクシマケン",
      "prefecture_code": 36,
      "city": "三好市",
      "city_kana": "ミヨシシ",
      "town": "東祖谷古味",
      "town_kana": "ヒガシイヤコミ",
      "street": null,
      "office_name": null,
      "office_name_kana": null
    },
    {
      "postcode": "7780205",
      "prefecture": "徳島県",
      "prefecture_kana": "トクシマケン",
      "prefecture_code": 36,
      "city": "三好市",
      "city_kana": "ミヨシシ",
      "town": "東祖谷新居屋",
      "town_kana": "ヒガシイヤニイヤ",
      "street": null,
      "office_name": null,
      "office_name_kana": null
    },
    {
      "postcode": "7780205",
      "prefecture": "徳島県",
      "prefecture_kana": "トクシマケン",
      "prefecture_code": 36,
      "city": "三好市",
      "city_kana": "ミヨシシ",
      "town": "東祖谷麦生土",
      "town_kana": "ヒガシイヤムジュウト",
      "street": null,
      "office_name": null,
      "office_name_kana": null
    },
    {
      "postcode": "7780205",
      "prefecture": "徳島県",
      "prefecture_kana": "トクシマケン",
      "prefecture_code": 36,
      "city": "三好市",
      "city_kana": "ミヨシシ",
      "town": "東祖谷元井",
      "town_kana": "ヒガシイヤモットイ",
      "street": null,
      "office_name": null,
      "office_name_kana": null
    }
  ],
  "0206": [
    {
      "postcode": "7780206",
      "prefecture": "徳島県",
      "prefecture_kana": "トクシマケン",
      "prefecture_code": 36,
      "city": "三好市",
      "city_kana": "ミヨシシ",
      "town": "東祖谷今井",
      "town_kana": "ヒガシイヤイマイ",
      "street": null,
      "office_name": null,
      "office_name_kana": null
    },
    {
      "postcode": "7780206",
      "prefecture": "徳島県",
      "prefecture_kana": "トクシマケン",
      "prefecture_code": 36,
      "city": "三好市",
      "city_kana": "ミヨシシ",
      "town": "東祖谷小島",
      "town_kana": "ヒガシイヤオシマ",
      "street": null,
      "office_name": null,
      "office_name_kana": null
    },
    {
      "postcode": "7780206",
      "prefecture": "徳島県",
      "prefecture_kana": "トクシマケン",
      "prefecture_code": 36,
      "city": "三好市",
      "city_kana": "ミヨシシ",
      "town": "東祖谷佐野",
      "town_kana": "ヒガシイヤサノ",
      "street": null,
      "office_name": null,
      "office_name_kana": null
    },
    {
      "postcode": "7780206",
      "prefecture": "徳島県",
      "prefecture_kana": "トクシマケン",
      "prefecture_code": 36,
      "city": "三好市",
      "city_kana": "ミヨシシ",
      "town": "東祖谷高野",
      "town_kana": "ヒガシイヤタカノ",
      "street": null,
      "office_name": null,
      "office_name_kana": null
    },
    {
      "postcode": "7780206",
      "prefecture": "徳島県",
      "prefecture_kana": "トクシマケン",
      "prefecture_code": 36,
      "city": "三好市",
      "city_kana": "ミヨシシ",
      "town": "東祖谷釣井",
      "town_kana": "ヒガシイヤツルイ",
      "street": null,
      "office_name": null,
      "office_name_kana": null
    },
    {
      "postcode": "7780206",
      "prefecture": "徳島県",
      "prefecture_kana": "トクシマケン",
      "prefecture_code": 36,
      "city": "三好市",
      "city_kana": "ミヨシシ",
      "town": "東祖谷和田",
      "town_kana": "ヒガシイヤワダ",
      "street": null,
      "office_name": null,
      "office_name_kana": null
    }
  ],
  "0295": {
    "postcode": "7780295",
    "prefecture": "徳島県",
    "prefecture_kana": "トクシマケン",
    "prefecture_code": 36,
    "city": "三好市",
    "city_kana": "ミヨシシ",
    "town": "東祖谷京上",
    "town_kana": "ヒガシイヤキョウジョウ",
    "street": "１５７−２",
    "office_name": "三好市役所　東祖谷総合支所",
    "office_name_kana": "ミヨシシヤクシヨ ヒガシイヤソウゴウシシヨ"
  },
  "5251": {
    "postcode": "7785251",
    "prefecture": "徳島県",
    "prefecture_kana": "トクシマケン",
    "prefecture_code": 36,
    "city": "三好市",
    "city_kana": "ミヨシシ",
    "town": "池田町白地",
    "town_kana": "イケダチョウハクチ",
    "street": null,
    "office_name": null,
    "office_name_kana": null
  },
  "5252": {
    "postcode": "7785252",
    "prefecture": "徳島県",
    "prefecture_kana": "トクシマケン",
    "prefecture_code": 36,
    "city": "三好市",
    "city_kana": "ミヨシシ",
    "town": "池田町馬路",
    "town_kana": "イケダチョウウマジ",
    "street": null,
    "office_name": null,
    "office_name_kana": null
  },
  "5253": {
    "postcode": "7785253",
    "prefecture": "徳島県",
    "prefecture_kana": "トクシマケン",
    "prefecture_code": 36,
    "city": "三好市",
    "city_kana": "ミヨシシ",
    "town": "池田町佐野",
    "town_kana": "イケダチョウサノ",
    "street": null,
    "office_name": null,
    "office_name_kana": null
  },
  "5254": [
    {
      "postcode": "7785254",
      "prefecture": "徳島県",
      "prefecture_kana": "トクシマケン",
      "prefecture_code": 36,
      "city": "三好市",
      "city_kana": "ミヨシシ",
      "town": "山城町佐連",
      "town_kana": "ヤマシロチョウサレ",
      "street": null,
      "office_name": null,
      "office_name_kana": null
    },
    {
      "postcode": "7785254",
      "prefecture": "徳島県",
      "prefecture_kana": "トクシマケン",
      "prefecture_code": 36,
      "city": "三好市",
      "city_kana": "ミヨシシ",
      "town": "山城町佐連ミネ畑",
      "town_kana": "ヤマシロチョウサレミネバタ",
      "street": null,
      "office_name": null,
      "office_name_kana": null
    }
  ],
  "8501": {
    "postcode": "7788501",
    "prefecture": "徳島県",
    "prefecture_kana": "トクシマケン",
    "prefecture_code": 36,
    "city": "三好市",
    "city_kana": "ミヨシシ",
    "town": "池田町サラダ",
    "town_kana": "イケダチョウサラダ",
    "street": "１６１０番地１",
    "office_name": "三好市役所",
    "office_name_kana": "ミヨシシヤクシヨ"
  },
  "8503": {
    "postcode": "7788503",
    "prefecture": "徳島県",
    "prefecture_kana": "トクシマケン",
    "prefecture_code": 36,
    "city": "三好市",
    "city_kana": "ミヨシシ",
    "town": "池田町シマ",
    "town_kana": "イケダチョウシマ",
    "street": "８１５番地２",
    "office_name": "徳島県立　三好病院",
    "office_name_kana": "トクシマケンリツ ミヨシビヨウイン"
  },
  "8504": {
    "postcode": "7788504",
    "prefecture": "徳島県",
    "prefecture_kana": "トクシマケン",
    "prefecture_code": 36,
    "city": "三好市",
    "city_kana": "ミヨシシ",
    "town": "池田町シマ",
    "town_kana": "イケダチョウシマ",
    "street": "９３０番地３",
    "office_name": "四国電力　株式会社　池田支店",
    "office_name_kana": "シコクデンリヨク カブシキガイシヤ イケダシテン"
  },
  "8505": {
    "postcode": "7788505",
    "prefecture": "徳島県",
    "prefecture_kana": "トクシマケン",
    "prefecture_code": 36,
    "city": "三好市",
    "city_kana": "ミヨシシ",
    "town": "池田町マチ",
    "town_kana": "イケダチョウマチ",
    "street": "２１９１番地",
    "office_name": "株式会社　セイア",
    "office_name_kana": "カブシキガイシヤ セイア"
  },
  "8506": {
    "postcode": "7788506",
    "prefecture": "徳島県",
    "prefecture_kana": "トクシマケン",
    "prefecture_code": 36,
    "city": "三好市",
    "city_kana": "ミヨシシ",
    "town": "池田町ウヱノ",
    "town_kana": null,
    "street": "２８３４",
    "office_name": "徳島県立　池田高等学校",
    "office_name_kana": "トクシマケンリツ イケダコウトウガツコウ"
  },
  "8507": {
    "postcode": "7788507",
    "prefecture": "徳島県",
    "prefecture_kana": "トクシマケン",
    "prefecture_code": 36,
    "city": "三好市",
    "city_kana": "ミヨシシ",
    "town": "池田町サラダ",
    "town_kana": "イケダチョウサラダ",
    "street": "１７６８番地１",
    "office_name": "株式会社　マナベ商事",
    "office_name_kana": "カブシキガイシヤ マナベシヨウジ"
  }
}