{
  "0001": {
    "postcode": "7900001",
    "prefecture": "愛媛県",
    "prefecture_kana": "エヒメケン",
    "prefecture_code": 38,
    "city": "松山市",
    "city_kana": "マツヤマシ",
    "town": "一番町",
    "town_kana": "イチバンチョウ",
    "street": null,
    "office_name": null,
    "office_name_kana": null
  },
  "0002": {
    "postcode": "7900002",
    "prefecture": "愛媛県",
    "prefecture_kana": "エヒメケン",
    "prefecture_code": 38,
    "city": "松山市",
    "city_kana": "マツヤマシ",
    "town": "二番町",
    "town_kana": "ニバンチョウ",
    "street": null,
    "office_name": null,
    "office_name_kana": null
  },
  "0003": {
    "postcode": "7900003",
    "prefecture": "愛媛県",
    "prefecture_kana": "エヒメケン",
    "prefecture_code": 38,
    "city": "松山市",
    "city_kana": "マツヤマシ",
    "town": "三番町",
    "town_kana": "サンバンチョウ",
    "street": null,
    "office_name": null,
    "office_name_kana": null
  },
  "0004": {
    "postcode": "7900004",
    "prefecture": "愛媛県",
    "prefecture_kana": "エヒメケン",
    "prefecture_code": 38,
    "city": "松山市",
    "city_kana": "マツヤマシ",
    "town": "大街道",
    "town_kana": "オオカイドウ",
    "street": null,
    "office_name": null,
    "office_name_kana": null
  },
  "0005": {
    "postcode": "7900005",
    "prefecture": "愛媛県",
    "prefecture_kana": "エヒメケン",
    "prefecture_code": 38,
    "city": "松山市",
    "city_kana": "マツヤマシ",
    "town": "花園町",
    "town_kana": "ハナゾノマチ",
    "street": null,
    "office_name": null,
    "office_name_kana": null
  },
  "0006": {
    "postcode": "7900006",
    "prefecture": "愛媛県",
    "prefecture_kana": "エヒメケン",
    "prefecture_code": 38,
    "city": "松山市",
    "city_kana": "マツヤマシ",
    "town": "南堀端町",
    "town_kana": "ミナミホリバタチョウ",
    "street": null,
    "office_name": null,
    "office_name_kana": null
  },
  "0007": {
    "postcode": "7900007",
    "prefecture": "愛媛県",
    "prefecture_kana": "エヒメケン",
    "prefecture_code": 38,
    "city": "松山市",
    "city_kana": "マツヤマシ",
    "town": "堀之内",
    "town_kana": "ホリノウチ",
    "street": null,
    "office_name": null,
    "office_name_kana": null
  },
  "0008": {
    "postcode": "7900008",
    "prefecture": "愛媛県",
    "prefecture_kana": "エヒメケン",
    "prefecture_code": 38,
    "city": "松山市",
    "city_kana": "マツヤマシ",
    "town": "丸之内",
    "town_kana": "マルノウチ",
    "street": null,
    "office_name": null,
    "office_name_kana": null
  },
  "0011": {
    "postcode": "7900011",
    "prefecture": "愛媛県",
    "prefecture_kana": "エヒメケン",
    "prefecture_code": 38,
    "city": "松山市",
    "city_kana": "マツヤマシ",
    "town": "千舟町",
    "town_kana": "チフネマチ",
    "street": null,
    "office_name": null,
    "office_name_kana": null
  },
  "0012": {
    "postcode": "7900012",
    "prefecture": "愛媛県",
    "prefecture_kana": "エヒメケン",
    "prefecture_code": 38,
    "city": "松山市",
    "city_kana": "マツヤマシ",
    "town": "湊町",
    "town_kana": "ミナトマチ",
    "street": null,
    "office_name": null,
    "office_name_kana": null
  },
  "0013": {
    "postcode": "7900013",
    "prefecture": "愛媛県",
    "prefecture_kana": "エヒメケン",
    "prefecture_code": 38,
    "city": "松山市",
    "city_kana": "マツヤマシ",
    "town": "河原町",
    "town_kana": "カワラマチ",
    "street": null,
    "office_name": null,
    "office_name_kana": null
  },
  "0014": {
    "postcode": "7900014",
    "prefecture": "愛媛県",
    "prefecture_kana": "エヒメケン",
    "prefecture_code": 38,
    "city": "松山市",
    "city_kana": "マツヤマシ",
    "town": "柳井町",
    "town_kana": "ヤナイマチ",
    "street": null,
    "office_name": null,
    "office_name_kana": null
  },
  "0021": {
    "postcode": "7900021",
    "prefecture": "愛媛県",
    "prefecture_kana": "エヒメケン",
    "prefecture_code": 38,
    "city": "松山市",
    "city_kana": "マツヤマシ",
    "town": "真砂町",
    "town_kana": "マサゴチョウ",
    "street": null,
    "office_name": null,
    "office_name_kana": null
  },
  "0022": {
    "postcode": "7900022",
    "prefecture": "愛媛県",
    "prefecture_kana": "エヒメケン",
    "prefecture_code": 38,
    "city": "松山市",
    "city_kana": "マツヤマシ",
    "town": "永代町",
    "town_kana": "エイダイマチ",
    "street": null,
    "office_name": null,
    "office_name_kana": null
  },
  "0023": {
    "postcode": "7900023",
    "prefecture": "愛媛県",
    "prefecture_kana": "エヒメケン",
    "prefecture_code": 38,
    "city": "松山市",
    "city_kana": "マツヤマシ",
    "town": "末広町",
    "town_kana": "スエヒロマチ",
    "street": null,
    "office_name": null,
    "office_name_kana": null
  },
  "0024": {
    "postcode": "7900024",
    "prefecture": "愛媛県",
    "prefecture_kana": "エヒメケン",
    "prefecture_code": 38,
    "city": "松山市",
    "city_kana": "マツヤマシ",
    "town": "春日町",
    "town_kana": "カスガマチ",
    "street": null,
    "office_name": null,
    "office_name_kana": null
  },
  "0025": {
    "postcode": "7900025",
    "prefecture": "愛媛県",
    "prefecture_kana": "エヒメケン",
    "prefecture_code": 38,
    "city": "松山市",
    "city_kana": "マツヤマシ",
    "town": "泉町",
    "town_kana": "イズミマチ",
    "street": null,
    "office_name": null,
    "office_name_kana": null
  },
  "0026": {
    "postcode": "7900026",
    "prefecture": "愛媛県",
    "prefecture_kana": "エヒメケン",
    "prefecture_code": 38,
    "city": "松山市",
    "city_kana": "マツヤマシ",
    "town": "室町",
    "town_kana": "ムロマチ",
    "street": null,
    "office_name": null,
    "office_name_kana": null
  },
  "0031": {
    "postcode": "7900031",
    "prefecture": "愛媛県",
    "prefecture_kana": "エヒメケン",
    "prefecture_code": 38,
    "city": "松山市",
    "city_kana": "マツヤマシ",
    "town": "雄郡",
    "town_kana": "ユウグン",
    "street": null,
    "office_name": null,
    "office_name_kana": null
  },
  "0032": {
    "postcode": "7900032",
    "prefecture": "愛媛県",
    "prefecture_kana": "エヒメケン",
    "prefecture_code": 38,
    "city": "松山市",
    "city_kana": "マツヤマシ",
    "town": "土橋町",
    "town_kana": "ドバシマチ",
    "street": null,
    "office_name": null,
    "office_name_kana": null
  },
  "0033": {
    "postcode": "7900033",
    "prefecture": "愛媛県",
    "prefecture_kana": "エヒメケン",
    "prefecture_code": 38,
    "city": "松山市",
    "city_kana": "マツヤマシ",
    "town": "北藤原町",
    "town_kana": "キタフジワラマチ",
    "street": null,
    "office_name": null,
    "office_name_kana": null
  },
  "0034": {
    "postcode": "7900034",
    "prefecture": "愛媛県",
    "prefecture_kana": "エヒメケン",
    "prefecture_code": 38,
    "city": "松山市",
    "city_kana": "マツヤマシ",
    "town": "藤原町",
    "town_kana": "フジワラマチ",
    "street": null,
    "office_name": null,
    "office_name_kana": null
  },
  "0035": {
    "postcode": "7900035",
    "prefecture": "愛媛県",
    "prefecture_kana": "エヒメケン",
    "prefecture_code": 38,
    "city": "松山市",
    "city_kana": "マツヤマシ",
    "town": "藤原",
    "town_kana": "フジワラ",
    "street": null,
    "office_name": null,
    "office_name_kana": null
  },
  "0036": {
    "postcode": "7900036",
    "prefecture": "愛媛県",
    "prefecture_kana": "エヒメケン",
    "prefecture_code": 38,
    "city": "松山市",
    "city_kana": "マツヤマシ",
    "town": "小栗",
    "town_kana": "オグリ",
    "street": null,
    "office_name": null,
    "office_name_kana": null
  },
  "0037": {
    "postcode": "7900037",
    "prefecture": "愛媛県",
    "prefecture_kana": "エヒメケン",
    "prefecture_code": 38,
    "city": "松山市",
    "city_kana": "マツヤマシ",
    "town": "小栗町",
    "town_kana": "オグリマチ",
    "street": null,
    "office_name": null,
    "office_name_kana": null
  },
  "0038": {
    "postcode": "7900038",
    "prefecture": "愛媛県",
    "prefecture_kana": "エヒメケン",
    "prefecture_code": 38,
    "city": "松山市",
    "city_kana": "マツヤマシ",
    "town": "和泉北",
    "town_kana": "イヅミキタ",
    "street": null,
    "office_name": null,
    "office_name_kana": null
  },
  "0041": {
    "postcode": "7900041",
    "prefecture": "愛媛県",
    "prefecture_kana": "エヒメケン",
    "prefecture_code": 38,
    "city": "松山市",
    "city_kana": "マツヤマシ",
    "town": "保免上",
    "town_kana": "ホウメンカミ",
    "street": null,
    "office_name": null,
    "office_name_kana": null
  },
  "0042": {
    "postcode": "7900042",
    "prefecture": "愛媛県",
    "prefecture_kana": "エヒメケン",
    "prefecture_code": 38,
    "city": "松山市",
    "city_kana": "マツヤマシ",
    "town": "保免中",
    "town_kana": "ホウメンナカ",
    "street": null,
    "office_name": null,
    "office_name_kana": null
  },
  "0043": {
    "postcode": "7900043",
    "prefecture": "愛媛県",
    "prefecture_kana": "エヒメケン",
    "prefecture_code": 38,
    "city": "松山市",
    "city_kana": "マツヤマシ",
    "town": "保免西",
    "town_kana": "ホウメンニシ",
    "street": null,
    "office_name": null,
    "office_name_kana": null
  },
  "0044": {
    "postcode": "7900044",
    "prefecture": "愛媛県",
    "prefecture_kana": "エヒメケン",
    "prefecture_code": 38,
    "city": "松山市",
    "city_kana": "マツヤマシ",
    "town": "余戸東",
    "town_kana": "ヨウゴヒガシ",
    "street": null,
    "office_name": null,
    "office_name_kana": null
  },
  "0045": {
    "postcode": "7900045",
    "prefecture": "愛媛県",
    "prefecture_kana": "エヒメケン",
    "prefecture_code": 38,
    "city": "松山市",
    "city_kana": "マツヤマシ",
    "town": "余戸中",
    "town_kana": "ヨウゴナカ",
    "street": null,
    "office_name": null,
    "office_name_kana": null
  },
  "0046": {
    "postcode": "7900046",
    "prefecture": "愛媛県",
    "prefecture_kana": "エヒメケン",
    "prefecture_code": 38,
    "city": "松山市",
    "city_kana": "マツヤマシ",
    "town": "余戸西",
    "town_kana": "ヨウゴニシ",
    "street": null,
    "office_name": null,
    "office_name_kana": null
  },
  "0047": {
    "postcode": "7900047",
    "prefecture": "愛媛県",
    "prefecture_kana": "エヒメケン",
    "prefecture_code": 38,
    "city": "松山市",
    "city_kana": "マツヤマシ",
    "town": "余戸南",
    "town_kana": "ヨウゴミナミ",
    "street": null,
    "office_name": null,
    "office_name_kana": null
  },
  "0048": {
    "postcode": "7900048",
    "prefecture": "愛媛県",
    "prefecture_kana": "エヒメケン",
    "prefecture_code": 38,
    "city": "松山市",
    "city_kana": "マツヤマシ",
    "town": "出合",
    "town_kana": "デアイ",
    "street": null,
    "office_name": null,
    "office_name_kana": null
  },
  "0051": {
    "postcode": "7900051",
    "prefecture": "愛媛県",
    "prefecture_kana": "エヒメケン",
    "prefecture_code": 38,
    "city": "松山市",
    "city_kana": "マツヤマシ",
    "town": "生石町",
    "town_kana": "イクシマチ",
    "street": null,
    "office_name": null,
    "office_name_kana": null
  },
  "0052": {
    "postcode": "7900052",
    "prefecture": "愛媛県",
    "prefecture_kana": "エヒメケン",
    "prefecture_code": 38,
    "city": "松山市",
    "city_kana": "マツヤマシ",
    "town": "竹原町",
    "town_kana": "タケワラマチ",
    "street": null,
    "office_name": null,
    "office_name_kana": null
  },
  "0053": {
    "postcode": "7900053",
    "prefecture": "愛媛県",
    "prefecture_kana": "エヒメケン",
    "prefecture_code": 38,
    "city": "松山市",
    "city_kana": "マツヤマシ",
    "town": "竹原",
    "town_kana": "タケワラ",
    "street": null,
    "office_name": null,
    "office_name_kana": null
  },
  "0054": {
    "postcode": "7900054",
    "prefecture": "愛媛県",
    "prefecture_kana": "エヒメケン",
    "prefecture_code": 38,
    "city": "松山市",
    "city_kana": "マツヤマシ",
    "town": "空港通",
    "town_kana": "クウコウドオリ",
    "street": null,
    "office_name": null,
    "office_name_kana": null
  },
  "0055": {
    "postcode": "7900055",
    "prefecture": "愛媛県",
    "prefecture_kana": "エヒメケン",
    "prefecture_code": 38,
    "city": "松山市",
    "city_kana": "マツヤマシ",
    "town": "針田町",
    "town_kana": "ハリタマチ",
    "street": null,
    "office_name": null,
    "office_name_kana": null
  },
  "0056": {
    "postcode": "7900056",
    "prefecture": "愛媛県",
    "prefecture_kana": "エヒメケン",
    "prefecture_code": 38,
    "city": "松山市",
    "city_kana": "マツヤマシ",
    "town": "土居田町",
    "town_kana": "ドイダマチ",
    "street": null,
    "office_name": null,
    "office_name_kana": null
  },
  "0061": {
    "postcode": "7900061",
    "prefecture": "愛媛県",
    "prefecture_kana": "エヒメケン",
    "prefecture_code": 38,
    "city": "松山市",
    "city_kana": "マツヤマシ",
    "town": "南江戸町",
    "town_kana": "ミナミエドマチ",
    "street": null,
    "office_name": null,
    "office_name_kana": null
  },
  "0062": {
    "postcode": "7900062",
    "prefecture": "愛媛県",
    "prefecture_kana": "エヒメケン",
    "prefecture_code": 38,
    "city": "松山市",
    "city_kana": "マツヤマシ",
    "town": "南江戸",
    "town_kana": "ミナミエド",
    "street": null,
    "office_name": null,
    "office_name_kana": null
  },
  "0063": {
    "postcode": "7900063",
    "prefecture": "愛媛県",
    "prefecture_kana": "エヒメケン",
    "prefecture_code": 38,
    "city": "松山市",
    "city_kana": "マツヤマシ",
    "town": "辻町",
    "town_kana": "ツジマチ",
    "street": null,
    "office_name": null,
    "office_name_kana": null
  },
  "0064": {
    "postcode": "7900064",
    "prefecture": "愛媛県",
    "prefecture_kana": "エヒメケン",
    "prefecture_code": 38,
    "city": "松山市",
    "city_kana": "マツヤマシ",
    "town": "愛光町",
    "town_kana": "アイコウチョウ",
    "street": null,
    "office_name": null,
    "office_name_kana": null
  },
  "0065": {
    "postcode": "7900065",
    "prefecture": "愛媛県",
    "prefecture_kana": "エヒメケン",
    "prefecture_code": 38,
    "city": "松山市",
    "city_kana": "マツヤマシ",
    "town": "宮西",
    "town_kana": "ミヤニシ",
    "street": null,
    "office_name": null,
    "office_name_kana": null
  },
  "0066": {
    "postcode": "7900066",
    "prefecture": "愛媛県",
    "prefecture_kana": "エヒメケン",
    "prefecture_code": 38,
    "city": "松山市",
    "city_kana": "マツヤマシ",
    "town": "宮田町",
    "town_kana": "ミヤタマチ",
    "street": null,
    "office_name": null,
    "office_name_kana": null
  },
  "0067": {
    "postcode": "7900067",
    "prefecture": "愛媛県",
    "prefecture_kana": "エヒメケン",
    "prefecture_code": 38,
    "city": "松山市",
    "city_kana": "マツヤマシ",
    "town": "大手町",
    "town_kana": "オオテマチ",
    "street": null,
    "office_name": null,
    "office_name_kana": null
  },
  "0801": {
    "postcode": "7900801",
    "prefecture": "愛媛県",
    "prefecture_kana": "エヒメケン",
    "prefecture_code": 38,
    "city": "松山市",
    "city_kana": "マツヤマシ",
    "town": "歩行町",
    "town_kana": "カチマチ",
    "street": null,
    "office_name": null,
    "office_name_kana": null
  },
  "0802": {
    "postcode": "7900802",
    "prefecture": "愛媛県",
    "prefecture_kana": "エヒメケン",
    "prefecture_code": 38,
    "city": "松山市",
    "city_kana": "マツヤマシ",
    "town": "喜与町",
    "town_kana": "キヨマチ",
    "street": null,
    "office_name": null,
    "office_name_kana": null
  },
  "0803": {
    "postcode": "7900803",
    "prefecture": "愛媛県",
    "prefecture_kana": "エヒメケン",
    "prefecture_code": 38,
    "city": "松山市",
    "city_kana": "マツヤマシ",
    "town": "東雲町",
    "town_kana": "シノノメチョウ",
    "street": null,
    "office_name": null,
    "office_name_kana": null
  },
  "0804": {
    "postcode": "7900804",
    "prefecture": "愛媛県",
    "prefecture_kana": "エヒメケン",
    "prefecture_code": 38,
    "city": "松山市",
    "city_kana": "マツヤマシ",
    "town": "中一万町",
    "town_kana": "ナカイチマンマチ",
    "street": null,
    "office_name": null,
    "office_name_kana": null
  },
  "0805": {
    "postcode": "7900805",
    "prefecture": "愛媛県",
    "prefecture_kana": "エヒメケン",
    "prefecture_code": 38,
    "city": "松山市",
    "city_kana": "マツヤマシ",
    "town": "西一万町",
    "town_kana": "ニシイチマンマチ",
    "street": null,
    "office_name": null,
    "office_name_kana": null
  },
  "0806": {
    "postcode": "7900806",
    "prefecture": "愛媛県",
    "prefecture_kana": "エヒメケン",
    "prefecture_code": 38,
    "city": "松山市",
    "city_kana": "マツヤマシ",
    "town": "緑町",
    "town_kana": "ミドリマチ",
    "street": null,
    "office_name": null,
    "office_name_kana": null
  },
  "0807": {
    "postcode": "7900807",
    "prefecture": "愛媛県",
    "prefecture_kana": "エヒメケン",
    "prefecture_code": 38,
    "city": "松山市",
    "city_kana": "マツヤマシ",
    "town": "平和通",
    "town_kana": "ヘイワドオリ",
    "street": null,
    "office_name": null,
    "office_name_kana": null
  },
  "0808": {
    "postcode": "7900808",
    "prefecture": "愛媛県",
    "prefecture_kana": "エヒメケン",
    "prefecture_code": 38,
    "city": "松山市",
    "city_kana": "マツヤマシ",
    "town": "若草町",
    "town_kana": "ワカクサチョウ",
    "street": null,
    "office_name": null,
    "office_name_kana": null
  },
  "0811": {
    "postcode": "7900811",
    "prefecture": "愛媛県",
    "prefecture_kana": "エヒメケン",
    "prefecture_code": 38,
    "city": "松山市",
    "city_kana": "マツヤマシ",
    "town": "本町",
    "town_kana": "ホンマチ",
    "street": null,
    "office_name": null,
    "office_name_kana": null
  },
  "0812": {
    "postcode": "7900812",
    "prefecture": "愛媛県",
    "prefecture_kana": "エヒメケン",
    "prefecture_code": 38,
    "city": "松山市",
    "city_kana": "マツヤマシ",
    "town": "松前町",
    "town_kana": "マサキマチ",
    "street": null,
    "office_name": null,
    "office_name_kana": null
  },
  "0813": {
    "postcode": "7900813",
    "prefecture": "愛媛県",
    "prefecture_kana": "エヒメケン",
    "prefecture_code": 38,
    "city": "松山市",
    "city_kana": "マツヤマシ",
    "town": "萱町",
    "town_kana": "カヤマチ",
    "street": null,
    "office_name": null,
    "office_name_kana": null
  },
  "0814": {
    "postcode": "7900814",
    "prefecture": "愛媛県",
    "prefecture_kana": "エヒメケン",
    "prefecture_code": 38,
    "city": "松山市",
    "city_kana": "マツヤマシ",
    "town": "味酒町",
    "town_kana": "ミサケマチ",
    "street": null,
    "office_name": null,
    "office_name_kana": null
  },
  "0821": {
    "postcode": "7900821",
    "prefecture": "愛媛県",
    "prefecture_kana": "エヒメケン",
    "prefecture_code": 38,
    "city": "松山市",
    "city_kana": "マツヤマシ",
    "town": "木屋町",
    "town_kana": "キヤチョウ",
    "street": null,
    "office_name": null,
    "office_name_kana": null
  },
  "0822": {
    "postcode": "7900822",
    "prefecture": "愛媛県",
    "prefecture_kana": "エヒメケン",
    "prefecture_code": 38,
    "city": "松山市",
    "city_kana": "マツヤマシ",
    "town": "高砂町",
    "town_kana": "タカサゴマチ",
    "street": null,
    "office_name": null,
    "office_name_kana": null
  },
  "0823": {
    "postcode": "7900823",
    "prefecture": "愛媛県",
    "prefecture_kana": "エヒメケン",
    "prefecture_code": 38,
    "city": "松山市",
    "city_kana": "マツヤマシ",
    "town": "清水町",
    "town_kana": "シミズマチ",
    "street": null,
    "office_name": null,
    "office_name_kana": null
  },
  "0824": {
    "postcode": "7900824",
    "prefecture": "愛媛県",
    "prefecture_kana": "エヒメケン",
    "prefecture_code": 38,
    "city": "松山市",
    "city_kana": "マツヤマシ",
    "town": "御幸",
    "town_kana": "ミユキ",
    "street": null,
    "office_name": null,
    "office_name_kana": null
  },
  "0825": {
    "postcode": "7900825",
    "prefecture": "愛媛県",
    "prefecture_kana": "エヒメケン",
    "prefecture_code": 38,
    "city": "松山市",
    "city_kana": "マツヤマシ",
    "town": "道後樋又",
    "town_kana": "ドウゴヒマタ",
    "street": null,
    "office_name": null,
    "office_name_kana": null
  },
  "0826": {
    "postcode": "7900826",
    "prefecture": "愛媛県",
    "prefecture_kana": "エヒメケン",
    "prefecture_code": 38,
    "city": "松山市",
    "city_kana": "マツヤマシ",
    "town": "文京町",
    "town_kana": "ブンキョウチョウ",
    "street": null,
    "office_name": null,
    "office_name_kana": null
  },
  "0827": {
    "postcode": "7900827",
    "prefecture": "愛媛県",
    "prefecture_kana": "エヒメケン",
    "prefecture_code": 38,
    "city": "松山市",
    "city_kana": "マツヤマシ",
    "town": "鉄砲町",
    "town_kana": "テッポウチョウ",
    "street": null,
    "office_name": null,
    "office_name_kana": null
  },
  "0831": {
    "postcode": "7900831",
    "prefecture": "愛媛県",
    "prefecture_kana": "エヒメケン",
    "prefecture_code": 38,
    "city": "松山市",
    "city_kana": "マツヤマシ",
    "town": "山田町",
    "town_kana": "ヤマダチョウ",
    "street": null,
    "office_name": null,
    "office_name_kana": null
  },
  "0832": {
    "postcode": "7900832",
    "prefecture": "愛媛県",
    "prefecture_kana": "エヒメケン",
    "prefecture_code": 38,
    "city": "松山市",
    "city_kana": "マツヤマシ",
    "town": "祝谷西町",
    "town_kana": "イワイダニニシマチ",
    "street": null,
    "office_name": null,
    "office_name_kana": null
  },
  "0833": {
    "postcode": "7900833",
    "prefecture": "愛媛県",
    "prefecture_kana": "エヒメケン",
    "prefecture_code": 38,
    "city": "松山市",
    "city_kana": "マツヤマシ",
    "town": "祝谷",
    "town_kana": "イワイダニ",
    "street": null,
    "office_name": null,
    "office_name_kana": null
  },
  "0834": {
    "postcode": "7900834",
    "prefecture": "愛媛県",
    "prefecture_kana": "エヒメケン",
    "prefecture_code": 38,
    "city": "松山市",
    "city_kana": "マツヤマシ",
    "town": "祝谷町",
    "town_kana": "イワイダニマチ",
    "street": null,
    "office_name": null,
    "office_name_kana": null
  },
  "0835": {
    "postcode": "7900835",
    "prefecture": "愛媛県",
    "prefecture_kana": "エヒメケン",
    "prefecture_code": 38,
    "city": "松山市",
    "city_kana": "マツヤマシ",
    "town": "祝谷東町",
    "town_kana": "イワイダニヒガシマチ",
    "street": null,
    "office_name": null,
    "office_name_kana": null
  },
  "0836": {
    "postcode": "7900836",
    "prefecture": "愛媛県",
    "prefecture_kana": "エヒメケン",
    "prefecture_code": 38,
    "city": "松山市",
    "city_kana": "マツヤマシ",
    "town": "道後鷺谷町",
    "town_kana": "ドウゴサギダニチョウ",
    "street": null,
    "office_name": null,
    "office_name_kana": null
  },
  "0837": {
    "postcode": "7900837",
    "prefecture": "愛媛県",
    "prefecture_kana": "エヒメケン",
    "prefecture_code": 38,
    "city": "松山市",
    "city_kana": "マツヤマシ",
    "town": "道後湯月町",
    "town_kana": "ドウゴユヅキチョウ",
    "street": null,
    "office_name": null,
    "office_name_kana": null
  },
  "0838": {
    "postcode": "7900838",
    "prefecture": "愛媛県",
    "prefecture_kana": "エヒメケン",
    "prefecture_code": 38,
    "city": "松山市",
    "city_kana": "マツヤマシ",
    "town": "桜谷町",
    "town_kana": "サクラダニチョウ",
    "street": null,
    "office_name": null,
    "office_name_kana": null
  },
  "0841": {
    "postcode": "7900841",
    "prefecture": "愛媛県",
    "prefecture_kana": "エヒメケン",
    "prefecture_code": 38,
    "city": "松山市",
    "city_kana": "マツヤマシ",
    "town": "道後多幸町",
    "town_kana": "ドウゴタコウチョウ",
    "street": null,
    "office_name": null,
    "office_name_kana": null
  },
  "0842": {
    "postcode": "7900842",
    "prefecture": "愛媛県",
    "prefecture_kana": "エヒメケン",
    "prefecture_code": 38,
    "city": "松山市",
    "city_kana": "マツヤマシ",
    "town": "道後湯之町",
    "town_kana": "ドウゴユノマチ",
    "street": null,
    "office_name": null,
    "office_name_kana": null
  },
  "0843": {
    "postcode": "7900843",
    "prefecture": "愛媛県",
    "prefecture_kana": "エヒメケン",
    "prefecture_code": 38,
    "city": "松山市",
    "city_kana": "マツヤマシ",
    "town": "道後町",
    "town_kana": "ドウゴマチ",
    "street": null,
    "office_name": null,
    "office_name_kana": null
  },
  "0844": {
    "postcode": "7900844",
    "prefecture": "愛媛県",
    "prefecture_kana": "エヒメケン",
    "prefecture_code": 38,
    "city": "松山市",
    "city_kana": "マツヤマシ",
    "town": "道後一万",
    "town_kana": "ドウゴイチマン",
    "street": null,
    "office_name": null,
    "office_name_kana": null
  },
  "0845": {
    "postcode": "7900845",
    "prefecture": "愛媛県",
    "prefecture_kana": "エヒメケン",
    "prefecture_code": 38,
    "city": "松山市",
    "city_kana": "マツヤマシ",
    "town": "道後今市",
    "town_kana": "ドウゴイマイチ",
    "street": null,
    "office_name": null,
    "office_name_kana": null
  },
  "0846": {
    "postcode": "7900846",
    "prefecture": "愛媛県",
    "prefecture_kana": "エヒメケン",
    "prefecture_code": 38,
    "city": "松山市",
    "city_kana": "マツヤマシ",
    "town": "道後北代",
    "town_kana": "ドウゴキタシロ",
    "street": null,
    "office_name": null,
    "office_name_kana": null
  },
  "0847": {
    "postcode": "7900847",
    "prefecture": "愛媛県",
    "prefecture_kana": "エヒメケン",
    "prefecture_code": 38,
    "city": "松山市",
    "city_kana": "マツヤマシ",
    "town": "道後緑台",
    "town_kana": "ドウゴミドリダイ",
    "street": null,
    "office_name": null,
    "office_name_kana": null
  },
  "0848": {
    "postcode": "7900848",
    "prefecture": "愛媛県",
    "prefecture_kana": "エヒメケン",
    "prefecture_code": 38,
    "city": "松山市",
    "city_kana": "マツヤマシ",
    "town": "道後喜多町",
    "town_kana": "ドウゴキタマチ",
    "street": null,
    "office_name": null,
    "office_name_kana": null
  },
  "0851": {
    "postcode": "7900851",
    "prefecture": "愛媛県",
    "prefecture_kana": "エヒメケン",
    "prefecture_code": 38,
    "city": "松山市",
    "city_kana": "マツヤマシ",
    "town": "常光寺町",
    "town_kana": "ジョウコウジチョウ",
    "street": null,
    "office_name": null,
    "office_name_kana": null
  },
  "0852": {
    "postcode": "7900852",
    "prefecture": "愛媛県",
    "prefecture_kana": "エヒメケン",
    "prefecture_code": 38,
    "city": "松山市",
    "city_kana": "マツヤマシ",
    "town": "石手",
    "town_kana": "イシテ",
    "street": null,
    "office_name": null,
    "office_name_kana": null
  },
  "0853": {
    "postcode": "7900853",
    "prefecture": "愛媛県",
    "prefecture_kana": "エヒメケン",
    "prefecture_code": 38,
    "city": "松山市",
    "city_kana": "マツヤマシ",
    "town": "上市",
    "town_kana": "カミイチ",
    "street": null,
    "office_name": null,
    "office_name_kana": null
  },
  "0854": {
    "postcode": "7900854",
    "prefecture": "愛媛県",
    "prefecture_kana": "エヒメケン",
    "prefecture_code": 38,
    "city": "松山市",
    "city_kana": "マツヤマシ",
    "town": "岩崎町",
    "town_kana": "イワサキマチ",
    "street": null,
    "office_name": null,
    "office_name_kana": null
  },
  "0855": {
    "postcode": "7900855",
    "prefecture": "愛媛県",
    "prefecture_kana": "エヒメケン",
    "prefecture_code": 38,
    "city": "松山市",
    "city_kana": "マツヤマシ",
    "town": "持田町",
    "town_kana": "モチダマチ",
    "street": null,
    "office_name": null,
    "office_name_kana": null
  },
  "0856": {
    "postcode": "7900856",
    "prefecture": "愛媛県",
    "prefecture_kana": "エヒメケン",
    "prefecture_code": 38,
    "city": "松山市",
    "city_kana": "マツヤマシ",
    "town": "南町",
    "town_kana": "ミナミマチ",
    "street": null,
    "office_name": null,
    "office_name_kana": null
  },
  "0857": {
    "postcode": "7900857",
    "prefecture": "愛媛県",
    "prefecture_kana": "エヒメケン",
    "prefecture_code": 38,
    "city": "松山市",
    "city_kana": "マツヤマシ",
    "town": "道後公園",
    "town_kana": "ドウゴコウエン",
    "street": null,
    "office_name": null,
    "office_name_kana": null
  },
  "0858": {
    "postcode": "7900858",
    "prefecture": "愛媛県",
    "prefecture_kana": "エヒメケン",
    "prefecture_code": 38,
    "city": "松山市",
    "city_kana": "マツヤマシ",
    "town": "道後姫塚",
    "town_kana": "ドウゴヒメヅカ",
    "street": null,
    "office_name": null,
    "office_name_kana": null
  },
  "0861": {
    "postcode": "7900861",
    "prefecture": "愛媛県",
    "prefecture_kana": "エヒメケン",
    "prefecture_code": 38,
    "city": "松山市",
    "city_kana": "マツヤマシ",
    "town": "紅葉町",
    "town_kana": "モミジマチ",
    "street": null,
    "office_name": null,
    "office_name_kana": null
  },
  "0862": {
    "postcode": "7900862",
    "prefecture": "愛媛県",
    "prefecture_kana": "エヒメケン",
    "prefecture_code": 38,
    "city": "松山市",
    "city_kana": "マツヤマシ",
    "town": "湯渡町",
    "town_kana": "ユワタリマチ",
    "street": null,
    "office_name": null,
    "office_name_kana": null
  },
  "0863": {
    "postcode": "7900863",
    "prefecture": "愛媛県",
    "prefecture_kana": "エヒメケン",
    "prefecture_code": 38,
    "city": "松山市",
    "city_kana": "マツヤマシ",
    "town": "此花町",
    "town_kana": "コノハナマチ",
    "street": null,
    "office_name": null,
    "office_name_kana": null
  },
  "0864": {
    "postcode": "7900864",
    "prefecture": "愛媛県",
    "prefecture_kana": "エヒメケン",
    "prefecture_code": 38,
    "city": "松山市",
    "city_kana": "マツヤマシ",
    "town": "築山町",
    "town_kana": "ツキヤマチョウ",
    "street": null,
    "office_name": null,
    "office_name_kana": null
  },
  "0865": {
    "postcode": "7900865",
    "prefecture": "愛媛県",
    "prefecture_kana": "エヒメケン",
    "prefecture_code": 38,
    "city": "松山市",
    "city_kana": "マツヤマシ",
    "town": "新立町",
    "town_kana": "シンダテマチ",
    "street": null,
    "office_name": null,
    "office_name_kana": null
  },
  "0866": {
    "postcode": "7900866",
    "prefecture": "愛媛県",
    "prefecture_kana": "エヒメケン",
    "prefecture_code": 38,
    "city": "松山市",
    "city_kana": "マツヤマシ",
    "town": "永木町",
    "town_kana": "ナガキマチ",
    "street": null,
    "office_name": null,
    "office_name_kana": null
  },
  "0867": {
    "postcode": "7900867",
    "prefecture": "愛媛県",
    "prefecture_kana": "エヒメケン",
    "prefecture_code": 38,
    "city": "松山市",
    "city_kana": "マツヤマシ",
    "town": "北立花町",
    "town_kana": "キタタチバナマチ",
    "street": null,
    "office_name": null,
    "office_name_kana": null
  },
  "0871": {
    "postcode": "7900871",
    "prefecture": "愛媛県",
    "prefecture_kana": "エヒメケン",
    "prefecture_code": 38,
    "city": "松山市",
    "city_kana": "マツヤマシ",
    "town": "東一万町",
    "town_kana": "ヒガシイチマンマチ",
    "street": null,
    "office_name": null,
    "office_name_kana": null
  },
  "0872": {
    "postcode": "7900872",
    "prefecture": "愛媛県",
    "prefecture_kana": "エヒメケン",
    "prefecture_code": 38,
    "city": "松山市",
    "city_kana": "マツヤマシ",
    "town": "昭和町",
    "town_kana": "ショウワマチ",
    "street": null,
    "office_name": null,
    "office_name_kana": null
  },
  "0873": {
    "postcode": "7900873",
    "prefecture": "愛媛県",
    "prefecture_kana": "エヒメケン",
    "prefecture_code": 38,
    "city": "松山市",
    "city_kana": "マツヤマシ",
    "town": "北持田町",
    "town_kana": "キタモチダマチ",
    "street": null,
    "office_name": null,
    "office_name_kana": null
  },
  "0874": {
    "postcode": "7900874",
    "prefecture": "愛媛県",
    "prefecture_kana": "エヒメケン",
    "prefecture_code": 38,
    "city": "松山市",
    "city_kana": "マツヤマシ",
    "town": "南持田町",
    "town_kana": "ミナミモチダマチ",
    "street": null,
    "office_name": null,
    "office_name_kana": null
  },
  "0875": {
    "postcode": "7900875",
    "prefecture": "愛媛県",
    "prefecture_kana": "エヒメケン",
    "prefecture_code": 38,
    "city": "松山市",
    "city_kana": "マツヤマシ",
    "town": "御宝町",
    "town_kana": "ミタカラマチ",
    "street": null,
    "office_name": null,
    "office_name_kana": null
  },
  "0876": {
    "postcode": "7900876",
    "prefecture": "愛媛県",
    "prefecture_kana": "エヒメケン",
    "prefecture_code": 38,
    "city": "松山市",
    "city_kana": "マツヤマシ",
    "town": "旭町",
    "town_kana": "アサヒマチ",
    "street": null,
    "office_name": null,
    "office_name_kana": null
  },
  "0877": {
    "postcode": "7900877",
    "prefecture": "愛媛県",
    "prefecture_kana": "エヒメケン",
    "prefecture_code": 38,
    "city": "松山市",
    "city_kana": "マツヤマシ",
    "town": "錦町",
    "town_kana": "ニシキマチ",
    "street": null,
    "office_name": null,
    "office_name_kana": null
  },
  "0878": {
    "postcode": "7900878",
    "prefecture": "愛媛県",
    "prefecture_kana": "エヒメケン",
    "prefecture_code": 38,
    "city": "松山市",
    "city_kana": "マツヤマシ",
    "town": "勝山町",
    "town_kana": "カツヤマチョウ",
    "street": null,
    "office_name": null,
    "office_name_kana": null
  },
  "0901": {
    "postcode": "7900901",
    "prefecture": "愛媛県",
    "prefecture_kana": "エヒメケン",
    "prefecture_code": 38,
    "city": "松山市",
    "city_kana": "マツヤマシ",
    "town": "新石手",
    "town_kana": "シンイシテ",
    "street": null,
    "office_name": null,
    "office_name_kana": null
  },
  "0902": {
    "postcode": "7900902",
    "prefecture": "愛媛県",
    "prefecture_kana": "エヒメケン",
    "prefecture_code": 38,
    "city": "松山市",
    "city_kana": "マツヤマシ",
    "town": "石手白石",
    "town_kana": "イシテシライシ",
    "street": null,
    "office_name": null,
    "office_name_kana": null
  },
  "0903": {
    "postcode": "7900903",
    "prefecture": "愛媛県",
    "prefecture_kana": "エヒメケン",
    "prefecture_code": 38,
    "city": "松山市",
    "city_kana": "マツヤマシ",
    "town": "東野",
    "town_kana": "ヒガシノ",
    "street": null,
    "office_name": null,
    "office_name_kana": null
  },
  "0904": {
    "postcode": "7900904",
    "prefecture": "愛媛県",
    "prefecture_kana": "エヒメケン",
    "prefecture_code": 38,
    "city": "松山市",
    "city_kana": "マツヤマシ",
    "town": "正円寺",
    "town_kana": "ショウエンジ",
    "street": null,
    "office_name": null,
    "office_name_kana": null
  },
  "0905": {
    "postcode": "7900905",
    "prefecture": "愛媛県",
    "prefecture_kana": "エヒメケン",
    "prefecture_code": 38,
    "city": "松山市",
    "city_kana": "マツヤマシ",
    "town": "樽味",
    "town_kana": "タルミ",
    "street": null,
    "office_name": null,
    "office_name_kana": null
  },
  "0911": {
    "postcode": "7900911",
    "prefecture": "愛媛県",
    "prefecture_kana": "エヒメケン",
    "prefecture_code": 38,
    "city": "松山市",
    "city_kana": "マツヤマシ",
    "town": "桑原",
    "town_kana": "クワバラ",
    "street": null,
    "office_name": null,
    "office_name_kana": null
  },
  "0912": {
    "postcode": "7900912",
    "prefecture": "愛媛県",
    "prefecture_kana": "エヒメケン",
    "prefecture_code": 38,
    "city": "松山市",
    "city_kana": "マツヤマシ",
    "town": "畑寺町",
    "town_kana": "ハタデラマチ",
    "street": null,
    "office_name": null,
    "office_name_kana": null
  },
  "0913": {
    "postcode": "7900913",
    "prefecture": "愛媛県",
    "prefecture_kana": "エヒメケン",
    "prefecture_code": 38,
    "city": "松山市",
    "city_kana": "マツヤマシ",
    "town": "畑寺",
    "town_kana": "ハタデラ",
    "street": null,
    "office_name": null,
    "office_name_kana": null
  },
  "0914": {
    "postcode": "7900914",
    "prefecture": "愛媛県",
    "prefecture_kana": "エヒメケン",
    "prefecture_code": 38,
    "city": "松山市",
    "city_kana": "マツヤマシ",
    "town": "三町",
    "town_kana": "サンチョウ",
    "street": null,
    "office_name": null,
    "office_name_kana": null
  },
  "0915": {
    "postcode": "7900915",
    "prefecture": "愛媛県",
    "prefecture_kana": "エヒメケン",
    "prefecture_code": 38,
    "city": "松山市",
    "city_kana": "マツヤマシ",
    "town": "松末",
    "town_kana": "マツスエ",
    "street": null,
    "office_name": null,
    "office_name_kana": null
  },
  "0916": {
    "postcode": "7900916",
    "prefecture": "愛媛県",
    "prefecture_kana": "エヒメケン",
    "prefecture_code": 38,
    "city": "松山市",
    "city_kana": "マツヤマシ",
    "town": "束本",
    "town_kana": "ツカモト",
    "street": null,
    "office_name": null,
    "office_name_kana": null
  },
  "0921": {
    "postcode": "7900921",
    "prefecture": "愛媛県",
    "prefecture_kana": "エヒメケン",
    "prefecture_code": 38,
    "city": "松山市",
    "city_kana": "マツヤマシ",
    "town": "福音寺町",
    "town_kana": "フクオンジマチ",
    "street": null,
    "office_name": null,
    "office_name_kana": null
  },
  "0922": [
    {
      "postcode": "7900922",
      "prefecture": "愛媛県",
      "prefecture_kana": "エヒメケン",
      "prefecture_code": 38,
      "city": "松山市",
      "city_kana": "マツヤマシ",
      "town": "星岡",
      "town_kana": "ホシオカ",
      "street": null,
      "office_name": null,
      "office_name_kana": null
    },
    {
      "postcode": "7900922",
      "prefecture": "愛媛県",
      "prefecture_kana": "エヒメケン",
      "prefecture_code": 38,
      "city": "松山市",
      "city_kana": "マツヤマシ",
      "town": "星岡町",
      "town_kana": "ホシオカマチ",
      "street": null,
      "office_name": null,
      "office_name_kana": null
    }
  ],
  "0923": {
    "postcode": "7900923",
    "prefecture": "愛媛県",
    "prefecture_kana": "エヒメケン",
    "prefecture_code": 38,
    "city": "松山市",
    "city_kana": "マツヤマシ",
    "town": "北久米町",
    "town_kana": "キタクメマチ",
    "street": null,
    "office_name": null,
    "office_name_kana": null
  },
  "0924": {
    "postcode": "7900924",
    "prefecture": "愛媛県",
    "prefecture_kana": "エヒメケン",
    "prefecture_code": 38,
    "city": "松山市",
    "city_kana": "マツヤマシ",
    "town": "南久米町",
    "town_kana": "ミナミクメマチ",
    "street": null,
    "office_name": null,
    "office_name_kana": null
  },
  "0925": {
    "postcode": "7900925",
    "prefecture": "愛媛県",
    "prefecture_kana": "エヒメケン",
    "prefecture_code": 38,
    "city": "松山市",
    "city_kana": "マツヤマシ",
    "town": "鷹子町",
    "town_kana": "タカノコマチ",
    "street": null,
    "office_name": null,
    "office_name_kana": null
  },
  "0931": {
    "postcode": "7900931",
    "prefecture": "愛媛県",
    "prefecture_kana": "エヒメケン",
    "prefecture_code": 38,
    "city": "松山市",
    "city_kana": "マツヤマシ",
    "town": "西石井",
    "town_kana": "ニシイシイ",
    "street": null,
    "office_name": null,
    "office_name_kana": null
  },
  "0932": {
    "postcode": "7900932",
    "prefecture": "愛媛県",
    "prefecture_kana": "エヒメケン",
    "prefecture_code": 38,
    "city": "松山市",
    "city_kana": "マツヤマシ",
    "town": "東石井",
    "town_kana": "ヒガシイシイ",
    "street": null,
    "office_name": null,
    "office_name_kana": null
  },
  "0933": {
    "postcode": "7900933",
    "prefecture": "愛媛県",
    "prefecture_kana": "エヒメケン",
    "prefecture_code": 38,
    "city": "松山市",
    "city_kana": "マツヤマシ",
    "town": "越智",
    "town_kana": "オチ",
    "street": null,
    "office_name": null,
    "office_name_kana": null
  },
  "0934": {
    "postcode": "7900934",
    "prefecture": "愛媛県",
    "prefecture_kana": "エヒメケン",
    "prefecture_code": 38,
    "city": "松山市",
    "city_kana": "マツヤマシ",
    "town": "居相",
    "town_kana": "イアイ",
    "street": null,
    "office_name": null,
    "office_name_kana": null
  },
  "0941": {
    "postcode": "7900941",
    "prefecture": "愛媛県",
    "prefecture_kana": "エヒメケン",
    "prefecture_code": 38,
    "city": "松山市",
    "city_kana": "マツヤマシ",
    "town": "和泉南",
    "town_kana": "イヅミミナミ",
    "street": null,
    "office_name": null,
    "office_name_kana": null
  },
  "0942": {
    "postcode": "7900942",
    "prefecture": "愛媛県",
    "prefecture_kana": "エヒメケン",
    "prefecture_code": 38,
    "city": "松山市",
    "city_kana": "マツヤマシ",
    "town": "古川北",
    "town_kana": "フルカワキタ",
    "street": null,
    "office_name": null,
    "office_name_kana": null
  },
  "0943": {
    "postcode": "7900943",
    "prefecture": "愛媛県",
    "prefecture_kana": "エヒメケン",
    "prefecture_code": 38,
    "city": "松山市",
    "city_kana": "マツヤマシ",
    "town": "古川南",
    "town_kana": "フルカワミナミ",
    "street": null,
    "office_name": null,
    "office_name_kana": null
  },
  "0944": {
    "postcode": "7900944",
    "prefecture": "愛媛県",
    "prefecture_kana": "エヒメケン",
    "prefecture_code": 38,
    "city": "松山市",
    "city_kana": "マツヤマシ",
    "town": "古川西",
    "town_kana": "フルカワニシ",
    "street": null,
    "office_name": null,
    "office_name_kana": null
  },
  "0945": {
    "postcode": "7900945",
    "prefecture": "愛媛県",
    "prefecture_kana": "エヒメケン",
    "prefecture_code": 38,
    "city": "松山市",
    "city_kana": "マツヤマシ",
    "town": "古川町",
    "town_kana": "フルカワマチ",
    "street": null,
    "office_name": null,
    "office_name_kana": null
  },
  "0946": {
    "postcode": "7900946",
    "prefecture": "愛媛県",
    "prefecture_kana": "エヒメケン",
    "prefecture_code": 38,
    "city": "松山市",
    "city_kana": "マツヤマシ",
    "town": "市坪北",
    "town_kana": "イチツボキタ",
    "street": null,
    "office_name": null,
    "office_name_kana": null
  },
  "0947": {
    "postcode": "7900947",
    "prefecture": "愛媛県",
    "prefecture_kana": "エヒメケン",
    "prefecture_code": 38,
    "city": "松山市",
    "city_kana": "マツヤマシ",
    "town": "市坪南",
    "town_kana": "イチツボミナミ",
    "street": null,
    "office_name": null,
    "office_name_kana": null
  },
  "0948": {
    "postcode": "7900948",
    "prefecture": "愛媛県",
    "prefecture_kana": "エヒメケン",
    "prefecture_code": 38,
    "city": "松山市",
    "city_kana": "マツヤマシ",
    "town": "市坪西町",
    "town_kana": "イチツボニシマチ",
    "street": null,
    "office_name": null,
    "office_name_kana": null
  },
  "0951": [
    {
      "postcode": "7900951",
      "prefecture": "愛媛県",
      "prefecture_kana": "エヒメケン",
      "prefecture_code": 38,
      "city": "松山市",
      "city_kana": "マツヤマシ",
      "town": "天山",
      "town_kana": "アマヤマ",
      "street": null,
      "office_name": null,
      "office_name_kana": null
    },
    {
      "postcode": "7900951",
      "prefecture": "愛媛県",
      "prefecture_kana": "エヒメケン",
      "prefecture_code": 38,
      "city": "松山市",
      "city_kana": "マツヤマシ",
      "town": "天山町",
      "town_kana": "アマヤママチ",
      "street": null,
      "office_name": null,
      "office_name_kana": null
    }
  ],
  "0952": {
    "postcode": "7900952",
    "prefecture": "愛媛県",
    "prefecture_kana": "エヒメケン",
    "prefecture_code": 38,
    "city": "松山市",
    "city_kana": "マツヤマシ",
    "town": "朝生田町",
    "town_kana": "アソダマチ",
    "street": null,
    "office_name": null,
    "office_name_kana": null
  },
  "0961": {
    "postcode": "7900961",
    "prefecture": "愛媛県",
    "prefecture_kana": "エヒメケン",
    "prefecture_code": 38,
    "city": "松山市",
    "city_kana": "マツヤマシ",
    "town": "日の出町",
    "town_kana": "ヒノデマチ",
    "street": null,
    "office_name": null,
    "office_name_kana": null
  },
  "0962": {
    "postcode": "7900962",
    "prefecture": "愛媛県",
    "prefecture_kana": "エヒメケン",
    "prefecture_code": 38,
    "city": "松山市",
    "city_kana": "マツヤマシ",
    "town": "枝松",
    "town_kana": "エダマツ",
    "street": null,
    "office_name": null,
    "office_name_kana": null
  },
  "0963": {
    "postcode": "7900963",
    "prefecture": "愛媛県",
    "prefecture_kana": "エヒメケン",
    "prefecture_code": 38,
    "city": "松山市",
    "city_kana": "マツヤマシ",
    "town": "小坂",
    "town_kana": "コサカ",
    "street": null,
    "office_name": null,
    "office_name_kana": null
  },
  "0964": {
    "postcode": "7900964",
    "prefecture": "愛媛県",
    "prefecture_kana": "エヒメケン",
    "prefecture_code": 38,
    "city": "松山市",
    "city_kana": "マツヤマシ",
    "town": "中村",
    "town_kana": "ナカムラ",
    "street": null,
    "office_name": null,
    "office_name_kana": null
  },
  "0965": {
    "postcode": "7900965",
    "prefecture": "愛媛県",
    "prefecture_kana": "エヒメケン",
    "prefecture_code": 38,
    "city": "松山市",
    "city_kana": "マツヤマシ",
    "town": "祇園町",
    "town_kana": "ギオンマチ",
    "street": null,
    "office_name": null,
    "office_name_kana": null
  },
  "0966": {
    "postcode": "7900966",
    "prefecture": "愛媛県",
    "prefecture_kana": "エヒメケン",
    "prefecture_code": 38,
    "city": "松山市",
    "city_kana": "マツヤマシ",
    "town": "立花",
    "town_kana": "タチバナ",
    "street": null,
    "office_name": null,
    "office_name_kana": null
  },
  "0967": {
    "postcode": "7900967",
    "prefecture": "愛媛県",
    "prefecture_kana": "エヒメケン",
    "prefecture_code": 38,
    "city": "松山市",
    "city_kana": "マツヤマシ",
    "town": "拓川町",
    "town_kana": "タクセンチョウ",
    "street": null,
    "office_name": null,
    "office_name_kana": null
  },
  "2641": {
    "postcode": "7902641",
    "prefecture": "愛媛県",
    "prefecture_kana": "エヒメケン",
    "prefecture_code": 38,
    "city": "松山市",
    "city_kana": "マツヤマシ",
    "town": "柳谷町",
    "town_kana": "ヤナイダニマチ",
    "street": null,
    "office_name": null,
    "office_name_kana": null
  },
  "2642": {
    "postcode": "7902642",
    "prefecture": "愛媛県",
    "prefecture_kana": "エヒメケン",
    "prefecture_code": 38,
    "city": "松山市",
    "city_kana": "マツヤマシ",
    "town": "恩地町",
    "town_kana": "オンジマチ",
    "street": null,
    "office_name": null,
    "office_name_kana": null
  },
  "2643": {
    "postcode": "7902643",
    "prefecture": "愛媛県",
    "prefecture_kana": "エヒメケン",
    "prefecture_code": 38,
    "city": "松山市",
    "city_kana": "マツヤマシ",
    "town": "梅木町",
    "town_kana": "ウメキマチ",
    "street": null,
    "office_name": null,
    "office_name_kana": null
  },
  "2644": {
    "postcode": "7902644",
    "prefecture": "愛媛県",
    "prefecture_kana": "エヒメケン",
    "prefecture_code": 38,
    "city": "松山市",
    "city_kana": "マツヤマシ",
    "town": "上総町",
    "town_kana": "カズサマチ",
    "street": null,
    "office_name": null,
    "office_name_kana": null
  },
  "2645": {
    "postcode": "7902645",
    "prefecture": "愛媛県",
    "prefecture_kana": "エヒメケン",
    "prefecture_code": 38,
    "city": "松山市",
    "city_kana": "マツヤマシ",
    "town": "小屋町",
    "town_kana": "コヤマチ",
    "street": null,
    "office_name": null,
    "office_name_kana": null
  },
  "2646": {
    "postcode": "7902646",
    "prefecture": "愛媛県",
    "prefecture_kana": "エヒメケン",
    "prefecture_code": 38,
    "city": "松山市",
    "city_kana": "マツヤマシ",
    "town": "神次郎町",
    "town_kana": "ジンジロウマチ",
    "street": null,
    "office_name": null,
    "office_name_kana": null
  },
  "2647": {
    "postcode": "7902647",
    "prefecture": "愛媛県",
    "prefecture_kana": "エヒメケン",
    "prefecture_code": 38,
    "city": "松山市",
    "city_kana": "マツヤマシ",
    "town": "城山町",
    "town_kana": "ジョウザンマチ",
    "street": null,
    "office_name": null,
    "office_name_kana": null
  },
  "2648": {
    "postcode": "7902648",
    "prefecture": "愛媛県",
    "prefecture_kana": "エヒメケン",
    "prefecture_code": 38,
    "city": "松山市",
    "city_kana": "マツヤマシ",
    "town": "菅沢町",
    "town_kana": "スゲザワマチ",
    "street": null,
    "office_name": null,
    "office_name_kana": null
  },
  "8501": {
    "postcode": "7908501",
    "prefecture": "愛媛県",
    "prefecture_kana": "エヒメケン",
    "prefecture_code": 38,
    "city": "松山市",
    "city_kana": "マツヤマシ",
    "town": "堀之内",
    "town_kana": "ホリノウチ",
    "street": "５",
    "office_name": "日本放送協会　松山放送局",
    "office_name_kana": "ニホンホウソウキヨウカイ マツヤマホウソウキヨク"
  },
  "8502": {
    "postcode": "7908502",
    "prefecture": "愛媛県",
    "prefecture_kana": "エヒメケン",
    "prefecture_code": 38,
    "city": "松山市",
    "city_kana": "マツヤマシ",
    "town": "北持田町",
    "town_kana": "キタモチダマチ",
    "street": "１３２番地",
    "office_name": "愛媛県中予地方局",
    "office_name_kana": "エヒメケンチユウヨチホウキヨク"
  },
  "8505": {
    "postcode": "7908505",
    "prefecture": "愛媛県",
    "prefecture_kana": "エヒメケン",
    "prefecture_code": 38,
    "city": "松山市",
    "city_kana": "マツヤマシ",
    "town": "宮田町",
    "town_kana": "ミヤタマチ",
    "street": "１８８−６",
    "office_name": "松山地方法務局",
    "office_name_kana": "マツヤマチホウホウムキヨク"
  },
  "8508": {
    "postcode": "7908508",
    "prefecture": "愛媛県",
    "prefecture_kana": "エヒメケン",
    "prefecture_code": 38,
    "city": "松山市",
    "city_kana": "マツヤマシ",
    "town": "竹原",
    "town_kana": "タケワラ",
    "street": "２丁目１−１９",
    "office_name": "株式会社　二神組",
    "office_name_kana": "カブシキガイシヤ フタガミグミ"
  },
  "8509": {
    "postcode": "7908509",
    "prefecture": "愛媛県",
    "prefecture_kana": "エヒメケン",
    "prefecture_code": 38,
    "city": "松山市",
    "city_kana": "マツヤマシ",
    "town": "大手町",
    "town_kana": "オオテマチ",
    "street": "１丁目１１−４",
    "office_name": "株式会社　愛媛ＣＡＴＶ",
    "office_name_kana": "カブシキガイシヤ エヒメシ-エ-テイヴイ"
  },
  "8510": {
    "postcode": "7908510",
    "prefecture": "愛媛県",
    "prefecture_kana": "エヒメケン",
    "prefecture_code": 38,
    "city": "松山市",
    "city_kana": "マツヤマシ",
    "town": "本町",
    "town_kana": "ホンマチ",
    "street": "１丁目１−１",
    "office_name": "南海放送　株式会社",
    "office_name_kana": "ナンカイホウソウ カブシキガイシヤ"
  },
  "8511": {
    "postcode": "7908511",
    "prefecture": "愛媛県",
    "prefecture_kana": "エヒメケン",
    "prefecture_code": 38,
    "city": "松山市",
    "city_kana": "マツヤマシ",
    "town": "大手町",
    "town_kana": "オオテマチ",
    "street": "１丁目１２−１",
    "office_name": "株式会社　愛媛新聞社",
    "office_name_kana": "カブシキガイシヤ エヒメシンブンシヤ"
  },
  "8512": {
    "postcode": "7908512",
    "prefecture": "愛媛県",
    "prefecture_kana": "エヒメケン",
    "prefecture_code": 38,
    "city": "松山市",
    "city_kana": "マツヤマシ",
    "town": "南江戸",
    "town_kana": "ミナミエド",
    "street": "３丁目４−８",
    "office_name": "松山西社会保険事務所",
    "office_name_kana": "マツヤマニシシヤカイホケンジムシヨ"
  },
  "8513": {
    "postcode": "7908513",
    "prefecture": "愛媛県",
    "prefecture_kana": "エヒメケン",
    "prefecture_code": 38,
    "city": "松山市",
    "city_kana": "マツヤマシ",
    "town": "辻町",
    "town_kana": "ツジマチ",
    "street": "１番１号",
    "office_name": "こくみん共済ｃｏｏｐ愛媛推進本部",
    "office_name_kana": "コクミンキヨウサイコ-プエヒメスイシンホンブ"
  },
  "8514": {
    "postcode": "7908514",
    "prefecture": "愛媛県",
    "prefecture_kana": "エヒメケン",
    "prefecture_code": 38,
    "city": "松山市",
    "city_kana": "マツヤマシ",
    "town": "南堀端町",
    "town_kana": "ミナミホリバタチョウ",
    "street": "１",
    "office_name": "株式会社　伊予銀行",
    "office_name_kana": "カブシキガイシヤ イヨギンコウ"
  },
  "8516": {
    "postcode": "7908516",
    "prefecture": "愛媛県",
    "prefecture_kana": "エヒメケン",
    "prefecture_code": 38,
    "city": "松山市",
    "city_kana": "マツヤマシ",
    "town": "東石井",
    "town_kana": "ヒガシイシイ",
    "street": "１丁目７−１３",
    "office_name": "株式会社　一六",
    "office_name_kana": "カブシキガイシヤ イチロク"
  },
  "8519": {
    "postcode": "7908519",
    "prefecture": "愛媛県",
    "prefecture_kana": "エヒメケン",
    "prefecture_code": 38,
    "city": "松山市",
    "city_kana": "マツヤマシ",
    "town": "宮田町",
    "town_kana": "ミヤタマチ",
    "street": "１８８",
    "office_name": "中四国農政局　愛媛農政事務所",
    "office_name_kana": "チユウシコクノウセイキヨク エヒメノウセイジムシヨ"
  },
  "8520": {
    "postcode": "7908520",
    "prefecture": "愛媛県",
    "prefecture_kana": "エヒメケン",
    "prefecture_code": 38,
    "city": "松山市",
    "city_kana": "マツヤマシ",
    "town": "一番町",
    "town_kana": "イチバンチョウ",
    "street": "３丁目２−１",
    "office_name": "松山総合開発　株式会社　松山全日空ホテル",
    "office_name_kana": "マツヤマソウゴウカイハツ カブシキガイシヤ マツヤマゼンニツクウホテル"
  },
  "8524": {
    "postcode": "7908524",
    "prefecture": "愛媛県",
    "prefecture_kana": "エヒメケン",
    "prefecture_code": 38,
    "city": "松山市",
    "city_kana": "マツヤマシ",
    "town": "文京町",
    "town_kana": "ブンキョウチョウ",
    "street": "１",
    "office_name": "総合病院　松山赤十字病院",
    "office_name_kana": "ソウゴウビヨウイン マツヤマセキジユウジビヨウイン"
  },
  "8525": {
    "postcode": "7908525",
    "prefecture": "愛媛県",
    "prefecture_kana": "エヒメケン",
    "prefecture_code": 38,
    "city": "松山市",
    "city_kana": "マツヤマシ",
    "town": "和泉北",
    "town_kana": "イヅミキタ",
    "street": "１丁目１４−１１",
    "office_name": "株式会社　愛媛朝日テレビ",
    "office_name_kana": "カブシキガイシヤ エヒメアサヒテレビ"
  },
  "8528": {
    "postcode": "7908528",
    "prefecture": "愛媛県",
    "prefecture_kana": "エヒメケン",
    "prefecture_code": 38,
    "city": "松山市",
    "city_kana": "マツヤマシ",
    "town": "宮田町",
    "town_kana": "ミヤタマチ",
    "street": "８−５（松山中央郵便局私書箱第１０１号）",
    "office_name": "郵便局　株式会社　カタログ販売センター",
    "office_name_kana": "ユウビンキヨク カブシキカイシヤ カタログハンバイセンタ-"
  },
  "8529": {
    "postcode": "7908529",
    "prefecture": "愛媛県",
    "prefecture_kana": "エヒメケン",
    "prefecture_code": 38,
    "city": "松山市",
    "city_kana": "マツヤマシ",
    "town": "竹原町",
    "town_kana": "タケワラマチ",
    "street": "１丁目５−２５",
    "office_name": "株式会社　あいテレビ",
    "office_name_kana": "カブシキガイシヤ アイテレビ"
  },
  "8530": {
    "postcode": "7908530",
    "prefecture": "愛媛県",
    "prefecture_kana": "エヒメケン",
    "prefecture_code": 38,
    "city": "松山市",
    "city_kana": "マツヤマシ",
    "town": "旭町",
    "town_kana": "アサヒマチ",
    "street": "７１",
    "office_name": "愛媛県立　松山商業高等学校",
    "office_name_kana": "エヒメケンリツ マツヤマシヨウギヨウコウトウガツコウ"
  },
  "8531": {
    "postcode": "7908531",
    "prefecture": "愛媛県",
    "prefecture_kana": "エヒメケン",
    "prefecture_code": 38,
    "city": "松山市",
    "city_kana": "マツヤマシ",
    "town": "桑原",
    "town_kana": "クワバラ",
    "street": "３丁目２−１",
    "office_name": "学校法人　松山東雲学園　松山東雲女子大学　松山東雲短期大学",
    "office_name_kana": "ガツコウホウジン マツヤマシノノメガクエン マツヤマシノノメジヨシダイガク マツヤマシノノメタンキダイガク"
  },
  "8532": {
    "postcode": "7908532",
    "prefecture": "愛媛県",
    "prefecture_kana": "エヒメケン",
    "prefecture_code": 38,
    "city": "松山市",
    "city_kana": "マツヤマシ",
    "town": "一番町",
    "town_kana": "イチバンチョウ",
    "street": "３丁目１−１",
    "office_name": "株式会社　三越松山店",
    "office_name_kana": "カブシキガイシヤ ミツコシマツヤマテン"
  },
  "8533": {
    "postcode": "7908533",
    "prefecture": "愛媛県",
    "prefecture_kana": "エヒメケン",
    "prefecture_code": 38,
    "city": "松山市",
    "city_kana": "マツヤマシ",
    "town": "福音寺町",
    "town_kana": "フクオンジマチ",
    "street": "２３５−１",
    "office_name": "アカマツ　株式会社",
    "office_name_kana": "アカマツ カブシキガイシヤ"
  },
  "8534": {
    "postcode": "7908534",
    "prefecture": "愛媛県",
    "prefecture_kana": "エヒメケン",
    "prefecture_code": 38,
    "city": "松山市",
    "city_kana": "マツヤマシ",
    "town": "朝生田町",
    "town_kana": "アソダマチ",
    "street": "１丁目３−１０",
    "office_name": "医療法人仁友会　南松山病院",
    "office_name_kana": "イリヨウホウジンジンユウカイ ミナミマツヤマビヨウイン"
  },
  "8535": {
    "postcode": "7908535",
    "prefecture": "愛媛県",
    "prefecture_kana": "エヒメケン",
    "prefecture_code": 38,
    "city": "松山市",
    "city_kana": "マツヤマシ",
    "town": "福音寺町",
    "town_kana": "フクオンジマチ",
    "street": "２３５−１",
    "office_name": "（株）エイ・ビー・エム",
    "office_name_kana": "カブシキガイシヤエイ.ビ-.エム"
  },
  "8537": {
    "postcode": "7908537",
    "prefecture": "愛媛県",
    "prefecture_kana": "エヒメケン",
    "prefecture_code": 38,
    "city": "松山市",
    "city_kana": "マツヤマシ",
    "town": "真砂町",
    "town_kana": "マサゴチョウ",
    "street": "１１９",
    "office_name": "株式会社　テレビ愛媛",
    "office_name_kana": "カブシキガイシヤ テレビエヒメ"
  },
  "8539": {
    "postcode": "7908539",
    "prefecture": "愛媛県",
    "prefecture_kana": "エヒメケン",
    "prefecture_code": 38,
    "city": "松山市",
    "city_kana": "マツヤマシ",
    "town": "一番町",
    "town_kana": "イチバンチョウ",
    "street": "３丁目３−８",
    "office_name": "松山地方裁判所",
    "office_name_kana": "マツヤマチホウサイバンシヨ"
  },
  "8540": {
    "postcode": "7908540",
    "prefecture": "愛媛県",
    "prefecture_kana": "エヒメケン",
    "prefecture_code": 38,
    "city": "松山市",
    "city_kana": "マツヤマシ",
    "town": "湊町",
    "town_kana": "ミナトマチ",
    "street": "６丁目６−２",
    "office_name": "四国電力　株式会社　松山支店",
    "office_name_kana": "シコクデンリヨク カブシキガイシヤ マツヤマシテン"
  },
  "8541": {
    "postcode": "7908541",
    "prefecture": "愛媛県",
    "prefecture_kana": "エヒメケン",
    "prefecture_code": 38,
    "city": "松山市",
    "city_kana": "マツヤマシ",
    "town": "大街道",
    "town_kana": "オオカイドウ",
    "street": "３丁目２−２４",
    "office_name": "松山東雲中学校　松山東雲高等学校",
    "office_name_kana": "マツヤマシノノメチユウガツコウ マツヤマシノノメコウトウガツコウ"
  },
  "8542": {
    "postcode": "7908542",
    "prefecture": "愛媛県",
    "prefecture_kana": "エヒメケン",
    "prefecture_code": 38,
    "city": "松山市",
    "city_kana": "マツヤマシ",
    "town": "一番町",
    "town_kana": "イチバンチョウ",
    "street": "４丁目３番",
    "office_name": "西日本電信電話　株式会社　愛媛支店",
    "office_name_kana": "ニシニホンデンシンデンワ カブシキガイシヤ エヒメシテン"
  },
  "8543": {
    "postcode": "7908543",
    "prefecture": "愛媛県",
    "prefecture_kana": "エヒメケン",
    "prefecture_code": 38,
    "city": "松山市",
    "city_kana": "マツヤマシ",
    "town": "朝生田町",
    "town_kana": "アソダマチ",
    "street": "３丁目１−１２",
    "office_name": "生活協同組合　コープえひめ",
    "office_name_kana": "セイカツキヨウドウクミアイ コ-プエヒメ"
  },
  "8545": {
    "postcode": "7908545",
    "prefecture": "愛媛県",
    "prefecture_kana": "エヒメケン",
    "prefecture_code": 38,
    "city": "松山市",
    "city_kana": "マツヤマシ",
    "town": "祝谷町",
    "town_kana": "イワイダニマチ",
    "street": "１丁目５−３３",
    "office_name": "財団法人　愛媛県教育会",
    "office_name_kana": "ザイダンホウジン エヒメケンキヨウイクカイ"
  },
  "8546": {
    "postcode": "7908546",
    "prefecture": "愛媛県",
    "prefecture_kana": "エヒメケン",
    "prefecture_code": 38,
    "city": "松山市",
    "city_kana": "マツヤマシ",
    "town": "千舟町",
    "town_kana": "チフネマチ",
    "street": "４丁目６−３アヴァンサ千舟",
    "office_name": "全国健康保険協会　愛媛支部",
    "office_name_kana": "ゼンコクケンコウホケンキヨウカイ エヒメシブ"
  },
  "8551": {
    "postcode": "7908551",
    "prefecture": "愛媛県",
    "prefecture_kana": "エヒメケン",
    "prefecture_code": 38,
    "city": "松山市",
    "city_kana": "マツヤマシ",
    "town": "勝山町",
    "town_kana": "カツヤマチョウ",
    "street": "２丁目１３−２",
    "office_name": "松山東警察署",
    "office_name_kana": "マツヤマヒガシケイサツシヨ"
  },
  "8553": {
    "postcode": "7908553",
    "prefecture": "愛媛県",
    "prefecture_kana": "エヒメケン",
    "prefecture_code": 38,
    "city": "松山市",
    "city_kana": "マツヤマシ",
    "town": "持田町",
    "town_kana": "モチダマチ",
    "street": "３丁目８−１５",
    "office_name": "社会福祉法人　愛媛県社会福祉協議会",
    "office_name_kana": "シヤカイフクシホウジン エヒメケンシヤカイフクシキヨウギカイ"
  },
  "8554": {
    "postcode": "7908554",
    "prefecture": "愛媛県",
    "prefecture_kana": "エヒメケン",
    "prefecture_code": 38,
    "city": "松山市",
    "city_kana": "マツヤマシ",
    "town": "南堀端町",
    "town_kana": "ミナミホリバタチョウ",
    "street": "２−３",
    "office_name": "県農えひめ　果実販売課",
    "office_name_kana": "ケンノウエヒメ カジツハンバイカ"
  },
  "8555": {
    "postcode": "7908555",
    "prefecture": "愛媛県",
    "prefecture_kana": "エヒメケン",
    "prefecture_code": 38,
    "city": "松山市",
    "city_kana": "マツヤマシ",
    "town": "南堀端町",
    "town_kana": "ミナミホリバタチョウ",
    "street": "２−３",
    "office_name": "ＪＡ愛媛",
    "office_name_kana": "ジエイエイエヒメ"
  },
  "8556": {
    "postcode": "7908556",
    "prefecture": "愛媛県",
    "prefecture_kana": "エヒメケン",
    "prefecture_code": 38,
    "city": "松山市",
    "city_kana": "マツヤマシ",
    "town": "南江戸",
    "town_kana": "ミナミエド",
    "street": "４丁目３−３７",
    "office_name": "株式会社　レディ薬局",
    "office_name_kana": "カブシキガイシヤ レデイヤツキヨク"
  },
  "8557": {
    "postcode": "7908557",
    "prefecture": "愛媛県",
    "prefecture_kana": "エヒメケン",
    "prefecture_code": 38,
    "city": "松山市",
    "city_kana": "マツヤマシ",
    "town": "藤原町",
    "town_kana": "フジワラマチ",
    "street": "４６８",
    "office_name": "聖カタリナ女子高等学校",
    "office_name_kana": "セイカタリナジヨシコウトウガツコウ"
  },
  "8560": {
    "postcode": "7908560",
    "prefecture": "愛媛県",
    "prefecture_kana": "エヒメケン",
    "prefecture_code": 38,
    "city": "松山市",
    "city_kana": "マツヤマシ",
    "town": "湊町",
    "town_kana": "ミナトマチ",
    "street": "７丁目９−１",
    "office_name": "学校法人　済美学園",
    "office_name_kana": "ガツコウホウジン サイビガクエン"
  },
  "8561": {
    "postcode": "7908561",
    "prefecture": "愛媛県",
    "prefecture_kana": "エヒメケン",
    "prefecture_code": 38,
    "city": "松山市",
    "city_kana": "マツヤマシ",
    "town": "本町",
    "town_kana": "ホンマチ",
    "street": "２丁目１−７",
    "office_name": "東京海上日動火災保険　株式会社　愛媛支店",
    "office_name_kana": "トウキヨウカイジヨウニチドウカサイホケン カブシキガイシヤ エヒメシテン"
  },
  "8565": {
    "postcode": "7908565",
    "prefecture": "愛媛県",
    "prefecture_kana": "エヒメケン",
    "prefecture_code": 38,
    "city": "松山市",
    "city_kana": "マツヤマシ",
    "town": "竹原町",
    "town_kana": "タケワラマチ",
    "street": "１−１０−７",
    "office_name": "株式会社　エフエム愛媛",
    "office_name_kana": "カブシキガイシヤ エフエムエヒメ"
  },
  "8566": {
    "postcode": "7908566",
    "prefecture": "愛媛県",
    "prefecture_kana": "エヒメケン",
    "prefecture_code": 38,
    "city": "松山市",
    "city_kana": "マツヤマシ",
    "town": "樽味",
    "town_kana": "タルミ",
    "street": "３丁目５−７",
    "office_name": "愛媛大学　農学部",
    "office_name_kana": "エヒメダイガク ノウガクブ"
  },
  "8567": {
    "postcode": "7908567",
    "prefecture": "愛媛県",
    "prefecture_kana": "エヒメケン",
    "prefecture_code": 38,
    "city": "松山市",
    "city_kana": "マツヤマシ",
    "town": "宮西",
    "town_kana": "ミヤニシ",
    "street": "１丁目２−１",
    "office_name": "株式会社　フジ",
    "office_name_kana": "カブシキガイシヤ フジ"
  },
  "8570": {
    "postcode": "7908570",
    "prefecture": "愛媛県",
    "prefecture_kana": "エヒメケン",
    "prefecture_code": 38,
    "city": "松山市",
    "city_kana": "マツヤマシ",
    "town": "一番町",
    "town_kana": "イチバンチョウ",
    "street": "４丁目４−２",
    "office_name": "愛媛県庁",
    "office_name_kana": "エヒメケンチヨウ"
  },
  "8571": {
    "postcode": "7908571",
    "prefecture": "愛媛県",
    "prefecture_kana": "エヒメケン",
    "prefecture_code": 38,
    "city": "松山市",
    "city_kana": "マツヤマシ",
    "town": "二番町",
    "town_kana": "ニバンチョウ",
    "street": "４丁目７−２",
    "office_name": "松山市役所",
    "office_name_kana": "マツヤマシヤクシヨ"
  },
  "8573": {
    "postcode": "7908573",
    "prefecture": "愛媛県",
    "prefecture_kana": "エヒメケン",
    "prefecture_code": 38,
    "city": "松山市",
    "city_kana": "マツヤマシ",
    "town": "南堀端町",
    "town_kana": "ミナミホリバタチョウ",
    "street": "２−２",
    "office_name": "愛媛県　警察本部",
    "office_name_kana": "エヒメケン ケイサツホンブ"
  },
  "8574": {
    "postcode": "7908574",
    "prefecture": "愛媛県",
    "prefecture_kana": "エヒメケン",
    "prefecture_code": 38,
    "city": "松山市",
    "city_kana": "マツヤマシ",
    "town": "土居田町",
    "town_kana": "ドイダマチ",
    "street": "７９７−２",
    "office_name": "国土交通省　四国地方整備局　松山河川国道事務所",
    "office_name_kana": "コクドコウツウシヨウ シコクチホウセイビキヨク マツヤマカセンコクドウジムシヨ"
  },
  "8575": {
    "postcode": "7908575",
    "prefecture": "愛媛県",
    "prefecture_kana": "エヒメケン",
    "prefecture_code": 38,
    "city": "松山市",
    "city_kana": "マツヤマシ",
    "town": "一番町",
    "town_kana": "イチバンチョウ",
    "street": "４丁目４−１",
    "office_name": "松山地方検察庁",
    "office_name_kana": "マツヤマチホウケンサツチヨウ"
  },
  "8577": {
    "postcode": "7908577",
    "prefecture": "愛媛県",
    "prefecture_kana": "エヒメケン",
    "prefecture_code": 38,
    "city": "松山市",
    "city_kana": "マツヤマシ",
    "town": "文京町",
    "town_kana": "ブンキョウチョウ",
    "street": "３",
    "office_name": "愛媛大学",
    "office_name_kana": "エヒメダイガク"
  },
  "8578": {
    "postcode": "7908578",
    "prefecture": "愛媛県",
    "prefecture_kana": "エヒメケン",
    "prefecture_code": 38,
    "city": "松山市",
    "city_kana": "マツヤマシ",
    "town": "文京町",
    "town_kana": "ブンキョウチョウ",
    "street": "４−２",
    "office_name": "学校法人　松山大学",
    "office_name_kana": "ガツコウホウジン マツヤマダイガク"
  },
  "8580": {
    "postcode": "7908580",
    "prefecture": "愛媛県",
    "prefecture_kana": "エヒメケン",
    "prefecture_code": 38,
    "city": "松山市",
    "city_kana": "マツヤマシ",
    "town": "勝山町",
    "town_kana": "カツヤマチョウ",
    "street": "２丁目１（松山中央郵便局私書箱第７７号）",
    "office_name": "株式会社　愛媛銀行",
    "office_name_kana": "カブシキガイシヤ エヒメギンコウ"
  },
  "8581": {
    "postcode": "7908581",
    "prefecture": "愛媛県",
    "prefecture_kana": "エヒメケン",
    "prefecture_code": 38,
    "city": "松山市",
    "city_kana": "マツヤマシ",
    "town": "三番町",
    "town_kana": "サンバンチョウ",
    "street": "６丁目４−１０",
    "office_name": "愛媛建材　株式會社",
    "office_name_kana": "エヒメケンザイ カブシキガイシヤ"
  },
  "8583": {
    "postcode": "7908583",
    "prefecture": "愛媛県",
    "prefecture_kana": "エヒメケン",
    "prefecture_code": 38,
    "city": "松山市",
    "city_kana": "マツヤマシ",
    "town": "千舟町",
    "town_kana": "チフネマチ",
    "street": "７丁目２−８",
    "office_name": "株式会社　えひめリビング新聞社",
    "office_name_kana": "カブシキガイシヤ エヒメリビングシンブンシヤ"
  },
  "8584": {
    "postcode": "7908584",
    "prefecture": "愛媛県",
    "prefecture_kana": "エヒメケン",
    "prefecture_code": 38,
    "city": "松山市",
    "city_kana": "マツヤマシ",
    "town": "千舟町",
    "town_kana": "チフネマチ",
    "street": "５丁目７−６",
    "office_name": "株式会社　ニッシン",
    "office_name_kana": "カブシキガイシヤ ニツシン"
  },
  "8585": {
    "postcode": "7908585",
    "prefecture": "愛媛県",
    "prefecture_kana": "エヒメケン",
    "prefecture_code": 38,
    "city": "松山市",
    "city_kana": "マツヤマシ",
    "town": "三番町",
    "town_kana": "サンバンチョウ",
    "street": "４丁目５−３",
    "office_name": "愛媛県　医師会",
    "office_name_kana": "エヒメケン イシカイ"
  },
  "8586": {
    "postcode": "7908586",
    "prefecture": "愛媛県",
    "prefecture_kana": "エヒメケン",
    "prefecture_code": 38,
    "city": "松山市",
    "city_kana": "マツヤマシ",
    "town": "湊町",
    "town_kana": "ミナトマチ",
    "street": "７丁目３−５",
    "office_name": "株式会社　エス・ピー・シー",
    "office_name_kana": "カブシキガイシヤ エス・ピ-・シ-"
  },
  "8587": {
    "postcode": "7908587",
    "prefecture": "愛媛県",
    "prefecture_kana": "エヒメケン",
    "prefecture_code": 38,
    "city": "松山市",
    "city_kana": "マツヤマシ",
    "town": "湊町",
    "town_kana": "ミナトマチ",
    "street": "５丁目１−１",
    "office_name": "株式会社　伊予鉄　高島屋",
    "office_name_kana": "カブシキガイシヤ イヨテツ タカシマヤ"
  },
  "8588": {
    "postcode": "7908588",
    "prefecture": "愛媛県",
    "prefecture_kana": "エヒメケン",
    "prefecture_code": 38,
    "city": "松山市",
    "city_kana": "マツヤマシ",
    "town": "千舟町",
    "town_kana": "チフネマチ",
    "street": "３丁目３−８",
    "office_name": "株式会社　えるく",
    "office_name_kana": "カブシキガイシヤ エルク"
  },
  "8589": {
    "postcode": "7908589",
    "prefecture": "愛媛県",
    "prefecture_kana": "エヒメケン",
    "prefecture_code": 38,
    "city": "松山市",
    "city_kana": "マツヤマシ",
    "town": "生石町",
    "town_kana": "イクシマチ",
    "street": "１３０−１",
    "office_name": "積水ハウス　株式会社　松山支店",
    "office_name_kana": "セキスイハウス カブシキガイシヤ マツヤマシテン"
  },
  "8590": {
    "postcode": "7908590",
    "prefecture": "愛媛県",
    "prefecture_kana": "エヒメケン",
    "prefecture_code": 38,
    "city": "松山市",
    "city_kana": "マツヤマシ",
    "town": "二番町",
    "town_kana": "ニバンチョウ",
    "street": "４丁目４番地６",
    "office_name": "松山市公営企業局",
    "office_name_kana": "マツヤマシコウエイキギヨウキヨク"
  },
  "8595": {
    "postcode": "7908595",
    "prefecture": "愛媛県",
    "prefecture_kana": "エヒメケン",
    "prefecture_code": 38,
    "city": "松山市",
    "city_kana": "マツヤマシ",
    "town": "味酒町",
    "town_kana": "ミサケマチ",
    "street": "１丁目３番地",
    "office_name": "ＮＥＣ松山テクノセンター",
    "office_name_kana": "エヌイ-シ-マツヤマテクノセンタ-"
  },
  "8601": {
    "postcode": "7908601",
    "prefecture": "愛媛県",
    "prefecture_kana": "エヒメケン",
    "prefecture_code": 38,
    "city": "松山市",
    "city_kana": "マツヤマシ",
    "town": "藤原",
    "town_kana": "フジワラ",
    "street": "二丁目４番７０号",
    "office_name": "一般社団法人　松山市医師会",
    "office_name_kana": "イツパンシヤダンホウジン マツヤマシイシカイ"
  },
  "8632": {
    "postcode": "7908632",
    "prefecture": "愛媛県",
    "prefecture_kana": "エヒメケン",
    "prefecture_code": 38,
    "city": "松山市",
    "city_kana": "マツヤマシ",
    "town": "宮西",
    "town_kana": "ミヤニシ",
    "street": "２丁目８−２７",
    "office_name": "株式会社　日産サティオ愛媛",
    "office_name_kana": "カブシキガイシヤ ニツサンサテイオエヒメ"
  },
  "8650": {
    "postcode": "7908650",
    "prefecture": "愛媛県",
    "prefecture_kana": "エヒメケン",
    "prefecture_code": 38,
    "city": "松山市",
    "city_kana": "マツヤマシ",
    "town": "三番町",
    "town_kana": "サンバンチョウ",
    "street": "３丁目９−１０（松山中央郵便局私書箱第２４号）",
    "office_name": "大和證券　株式会社　松山支店",
    "office_name_kana": "ダイワシヨウケン カブシキガイシヤ マツヤマシテン"
  },
  "8651": {
    "postcode": "7908651",
    "prefecture": "愛媛県",
    "prefecture_kana": "エヒメケン",
    "prefecture_code": 38,
    "city": "松山市",
    "city_kana": "マツヤマシ",
    "town": "千舟町",
    "town_kana": "チフネマチ",
    "street": "３丁目３−８（松山中央郵便局私書箱第９３号）",
    "office_name": "愛媛県　信用保証協会",
    "office_name_kana": "エヒメケン シンヨウホシヨウキヨウカイ"
  },
  "8652": {
    "postcode": "7908652",
    "prefecture": "愛媛県",
    "prefecture_kana": "エヒメケン",
    "prefecture_code": 38,
    "city": "松山市",
    "city_kana": "マツヤマシ",
    "town": "二番町",
    "town_kana": "ニバンチョウ",
    "street": "４丁目２−１１（松山中央郵便局私書箱第７１号）",
    "office_name": "愛媛信用金庫",
    "office_name_kana": "エヒメシンヨウキンコ"
  },
  "8653": {
    "postcode": "7908653",
    "prefecture": "愛媛県",
    "prefecture_kana": "エヒメケン",
    "prefecture_code": 38,
    "city": "松山市",
    "city_kana": "マツヤマシ",
    "town": "宮田町",
    "town_kana": "ミヤタマチ",
    "street": "１３１−１（松山中央郵便局私書箱第７８号）",
    "office_name": "メルファム　四国",
    "office_name_kana": "メルフアム シコク"
  },
  "8655": {
    "postcode": "7908655",
    "prefecture": "愛媛県",
    "prefecture_kana": "エヒメケン",
    "prefecture_code": 38,
    "city": "松山市",
    "city_kana": "マツヤマシ",
    "town": "二番町",
    "town_kana": "ニバンチョウ",
    "street": "４丁目１−２（松山中央郵便局私書箱第９８号）",
    "office_name": "株式会社　ぎょうせい四国支社",
    "office_name_kana": "カブシキガイシヤ ギヨウセイシコクシシヤ"
  },
  "8656": {
    "postcode": "7908656",
    "prefecture": "愛媛県",
    "prefecture_kana": "エヒメケン",
    "prefecture_code": 38,
    "city": "松山市",
    "city_kana": "マツヤマシ",
    "town": "湊町",
    "town_kana": "ミナトマチ",
    "street": "４丁目７−２（松山中央郵便局私書箱第５６号）",
    "office_name": "株式会社　明屋書店",
    "office_name_kana": "カブシキガイシヤ ハルヤシヨテン"
  },
  "8658": {
    "postcode": "7908658",
    "prefecture": "愛媛県",
    "prefecture_kana": "エヒメケン",
    "prefecture_code": 38,
    "city": "松山市",
    "city_kana": "マツヤマシ",
    "town": "三番町",
    "town_kana": "サンバンチョウ",
    "street": "４丁目８−３",
    "office_name": "株式会社　阿波銀行　松山支店",
    "office_name_kana": "カブシキガイシヤ アワギンコウ マツヤマシテン"
  },
  "8659": {
    "postcode": "7908659",
    "prefecture": "愛媛県",
    "prefecture_kana": "エヒメケン",
    "prefecture_code": 38,
    "city": "松山市",
    "city_kana": "マツヤマシ",
    "town": "千舟町",
    "town_kana": "チフネマチ",
    "street": "４丁目５−４（松山中央郵便局私書箱第４２号）",
    "office_name": "株式会社　帝国データバンク　松山支店",
    "office_name_kana": "カブシキガイシヤ テイコクデ-タバンク マツヤマシテン"
  },
  "8660": {
    "postcode": "7908660",
    "prefecture": "愛媛県",
    "prefecture_kana": "エヒメケン",
    "prefecture_code": 38,
    "city": "松山市",
    "city_kana": "マツヤマシ",
    "town": "千舟町",
    "town_kana": "チフネマチ",
    "street": "３丁目３−１（松山中央郵便局私書箱第１６号）",
    "office_name": "みずほ銀行　松山支店",
    "office_name_kana": "ミズホギンコウ マツヤマシテン"
  },
  "8661": {
    "postcode": "7908661",
    "prefecture": "愛媛県",
    "prefecture_kana": "エヒメケン",
    "prefecture_code": 38,
    "city": "松山市",
    "city_kana": "マツヤマシ",
    "town": "三番町",
    "town_kana": "サンバンチョウ",
    "street": "４丁目７−１４（松山中央郵便局私書箱第１３号）",
    "office_name": "損害保険ジャパン　株式会社　松山支店",
    "office_name_kana": "ソンガイホケンジヤパン カブシキガイシヤ マツヤマシテン"
  },
  "8665": {
    "postcode": "7908665",
    "prefecture": "愛媛県",
    "prefecture_kana": "エヒメケン",
    "prefecture_code": 38,
    "city": "松山市",
    "city_kana": "マツヤマシ",
    "town": "一番町",
    "town_kana": "イチバンチョウ",
    "street": "２丁目６−４（松山中央郵便局私書箱第１０９号）",
    "office_name": "商工組合中央金庫　松山支店",
    "office_name_kana": "シヨウコウクミアイチユウオウキンコ マツヤマシテン"
  },
  "8666": {
    "postcode": "7908666",
    "prefecture": "愛媛県",
    "prefecture_kana": "エヒメケン",
    "prefecture_code": 38,
    "city": "松山市",
    "city_kana": "マツヤマシ",
    "town": "三番町",
    "town_kana": "サンバンチョウ",
    "street": "３丁目８−４（松山中央郵便局私書箱第１５号）",
    "office_name": "ＳＭＢＣ日興証券　株式会社　松山支店",
    "office_name_kana": "エスエムビ-シ-ニツコウシヨウケン カブシキガイシヤ マツヤマシテン"
  },
  "8667": {
    "postcode": "7908667",
    "prefecture": "愛媛県",
    "prefecture_kana": "エヒメケン",
    "prefecture_code": 38,
    "city": "松山市",
    "city_kana": "マツヤマシ",
    "town": "千舟町",
    "town_kana": "チフネマチ",
    "street": "３丁目４−１（松山中央郵便局私書箱第１４号）",
    "office_name": "株式会社　百十四銀行　松山支店",
    "office_name_kana": "カブシキガイシヤ ヒヤクジユウシギンコウ マツヤマシテン"
  },
  "8677": {
    "postcode": "7908677",
    "prefecture": "愛媛県",
    "prefecture_kana": "エヒメケン",
    "prefecture_code": 38,
    "city": "松山市",
    "city_kana": "マツヤマシ",
    "town": "大街道",
    "town_kana": "オオカイドウ",
    "street": "２丁目６−１（松山中央郵便局私書箱第７号）",
    "office_name": "二浪証券　株式会社",
    "office_name_kana": "フタナミシヨウケン カブシキガイシヤ"
  },
  "8678": {
    "postcode": "7908678",
    "prefecture": "愛媛県",
    "prefecture_kana": "エヒメケン",
    "prefecture_code": 38,
    "city": "松山市",
    "city_kana": "マツヤマシ",
    "town": "三番町",
    "town_kana": "サンバンチョウ",
    "street": "５丁目１３−１（松山中央郵便局私書箱第２９号）",
    "office_name": "愛媛県市町村職員共済組合",
    "office_name_kana": "エヒメケンシチヨウソンシヨクインキヨウサイクミアイ"
  },
  "8686": {
    "postcode": "7908686",
    "prefecture": "愛媛県",
    "prefecture_kana": "エヒメケン",
    "prefecture_code": 38,
    "city": "松山市",
    "city_kana": "マツヤマシ",
    "town": "湊町",
    "town_kana": "ミナトマチ",
    "street": "７丁目７−１（松山中央郵便局私書箱第１１号）",
    "office_name": "セキ　株式会社",
    "office_name_kana": "セキ カブシキガイシヤ"
  },
  "8688": {
    "postcode": "7908688",
    "prefecture": "愛媛県",
    "prefecture_kana": "エヒメケン",
    "prefecture_code": 38,
    "city": "松山市",
    "city_kana": "マツヤマシ",
    "town": "二番町",
    "town_kana": "ニバンチョウ",
    "street": "３丁目６−１（松山中央郵便局私書箱第８６号）",
    "office_name": "株式会社　香川銀行　松山支店",
    "office_name_kana": "カブシキガイシヤ カガワギンコウ マツヤマシテン"
  },
  "8787": {
    "postcode": "7908787",
    "prefecture": "愛媛県",
    "prefecture_kana": "エヒメケン",
    "prefecture_code": 38,
    "city": "松山市",
    "city_kana": "マツヤマシ",
    "town": "宮西",
    "town_kana": "ミヤニシ",
    "street": "１丁目３−４４",
    "office_name": "愛媛地域センター",
    "office_name_kana": "エヒメチイキセンタ-"
  },
  "8791": {
    "postcode": "7908791",
    "prefecture": "愛媛県",
    "prefecture_kana": "エヒメケン",
    "prefecture_code": 38,
    "city": "松山市",
    "city_kana": "マツヤマシ",
    "town": "三番町",
    "town_kana": "サンバンチョウ",
    "street": "３丁目５−２",
    "office_name": "共通事務センター",
    "office_name_kana": "キヨウツウジムセンタ-"
  },
  "8793": {
    "postcode": "7908793",
    "prefecture": "愛媛県",
    "prefecture_kana": "エヒメケン",
    "prefecture_code": 38,
    "city": "松山市",
    "city_kana": "マツヤマシ",
    "town": "宮田町",
    "town_kana": "ミヤタマチ",
    "street": "８−５",
    "office_name": "日本郵便　株式会社　四国支社　郵便事業本部　（三種）",
    "office_name_kana": "ニホンユウビン カブシキガイシヤ シコクシシヤ ユウビンジギヨウホンブ (サンシユ)"
  },
  "8795": {
    "postcode": "7908795",
    "prefecture": "愛媛県",
    "prefecture_kana": "エヒメケン",
    "prefecture_code": 38,
    "city": "松山市",
    "city_kana": "マツヤマシ",
    "town": "味酒町",
    "town_kana": "ミサケマチ",
    "street": "２−１４−４",
    "office_name": "四国総合通信局",
    "office_name_kana": "シコクソウゴウツウシンキヨク"
  },
  "8796": {
    "postcode": "7908796",
    "prefecture": "愛媛県",
    "prefecture_kana": "エヒメケン",
    "prefecture_code": 38,
    "city": "松山市",
    "city_kana": "マツヤマシ",
    "town": "宮田町",
    "town_kana": "ミヤタマチ",
    "street": "８−５",
    "office_name": "愛媛監査室",
    "office_name_kana": "エヒメカンサシツ"
  },
  "8797": [
    {
      "postcode": "7908797",
      "prefecture": "愛媛県",
      "prefecture_kana": "エヒメケン",
      "prefecture_code": 38,
      "city": "松山市",
      "city_kana": "マツヤマシ",
      "town": "宮田町",
      "town_kana": "ミヤタマチ",
      "street": "８−５",
      "office_name": "株式会社　かんぽ生命　松山支店",
      "office_name_kana": "カブシキガイシヤ カンポセイメイ マツヤマシテン"
    },
    {
      "postcode": "7908797",
      "prefecture": "愛媛県",
      "prefecture_kana": "エヒメケン",
      "prefecture_code": 38,
      "city": "松山市",
      "city_kana": "マツヤマシ",
      "town": "宮田町",
      "town_kana": "ミヤタマチ",
      "street": "８−５",
      "office_name": "株式会社　ゆうちょ銀行　四国エリア本部",
      "office_name_kana": "カブシキガイシヤ ユウチヨギンコウ シコクエリアホンブ"
    },
    {
      "postcode": "7908797",
      "prefecture": "愛媛県",
      "prefecture_kana": "エヒメケン",
      "prefecture_code": 38,
      "city": "松山市",
      "city_kana": "マツヤマシ",
      "town": "宮田町",
      "town_kana": "ミヤタマチ",
      "street": "８−５",
      "office_name": "日本郵便　株式会社　四国支社",
      "office_name_kana": "ニホンユウビン カブシキガイシヤ シコクシシヤ"
    }
  ]
}