{
  "0000": {
    "postcode": "7910000",
    "prefecture": "愛媛県",
    "prefecture_kana": "エヒメケン",
    "prefecture_code": 38,
    "city": "松山市",
    "city_kana": "マツヤマシ",
    "town": "",
    "town_kana": "",
    "street": null,
    "office_name": null,
    "office_name_kana": null
  },
  "0054": {
    "postcode": "7910054",
    "prefecture": "愛媛県",
    "prefecture_kana": "エヒメケン",
    "prefecture_code": 38,
    "city": "松山市",
    "city_kana": "マツヤマシ",
    "town": "空港通",
    "town_kana": "クウコウドオリ",
    "street": null,
    "office_name": null,
    "office_name_kana": null
  },
  "0101": {
    "postcode": "7910101",
    "prefecture": "愛媛県",
    "prefecture_kana": "エヒメケン",
    "prefecture_code": 38,
    "city": "松山市",
    "city_kana": "マツヤマシ",
    "town": "溝辺町",
    "town_kana": "ミゾノベマチ",
    "street": null,
    "office_name": null,
    "office_name_kana": null
  },
  "0102": {
    "postcode": "7910102",
    "prefecture": "愛媛県",
    "prefecture_kana": "エヒメケン",
    "prefecture_code": 38,
    "city": "松山市",
    "city_kana": "マツヤマシ",
    "town": "高野町",
    "town_kana": "タカノマチ",
    "street": null,
    "office_name": null,
    "office_name_kana": null
  },
  "0103": {
    "postcode": "7910103",
    "prefecture": "愛媛県",
    "prefecture_kana": "エヒメケン",
    "prefecture_code": 38,
    "city": "松山市",
    "city_kana": "マツヤマシ",
    "town": "上高野町",
    "town_kana": "カミタカノマチ",
    "street": null,
    "office_name": null,
    "office_name_kana": null
  },
  "0104": {
    "postcode": "7910104",
    "prefecture": "愛媛県",
    "prefecture_kana": "エヒメケン",
    "prefecture_code": 38,
    "city": "松山市",
    "city_kana": "マツヤマシ",
    "town": "食場町",
    "town_kana": "ジキバマチ",
    "street": null,
    "office_name": null,
    "office_name_kana": null
  },
  "0105": {
    "postcode": "7910105",
    "prefecture": "愛媛県",
    "prefecture_kana": "エヒメケン",
    "prefecture_code": 38,
    "city": "松山市",
    "city_kana": "マツヤマシ",
    "town": "杉立町",
    "town_kana": "スギタテマチ",
    "street": null,
    "office_name": null,
    "office_name_kana": null
  },
  "0111": {
    "postcode": "7910111",
    "prefecture": "愛媛県",
    "prefecture_kana": "エヒメケン",
    "prefecture_code": 38,
    "city": "松山市",
    "city_kana": "マツヤマシ",
    "town": "上伊台町",
    "town_kana": "カミイダイマチ",
    "street": null,
    "office_name": null,
    "office_name_kana": null
  },
  "0112": {
    "postcode": "7910112",
    "prefecture": "愛媛県",
    "prefecture_kana": "エヒメケン",
    "prefecture_code": 38,
    "city": "松山市",
    "city_kana": "マツヤマシ",
    "town": "下伊台町",
    "town_kana": "シモイダイマチ",
    "street": null,
    "office_name": null,
    "office_name_kana": null
  },
  "0113": {
    "postcode": "7910113",
    "prefecture": "愛媛県",
    "prefecture_kana": "エヒメケン",
    "prefecture_code": 38,
    "city": "松山市",
    "city_kana": "マツヤマシ",
    "town": "白水台",
    "town_kana": "ハクスイダイ",
    "street": null,
    "office_name": null,
    "office_name_kana": null
  },
  "0114": {
    "postcode": "7910114",
    "prefecture": "愛媛県",
    "prefecture_kana": "エヒメケン",
    "prefecture_code": 38,
    "city": "松山市",
    "city_kana": "マツヤマシ",
    "town": "南白水",
    "town_kana": "ミナミハクスイ",
    "street": null,
    "office_name": null,
    "office_name_kana": null
  },
  "0120": {
    "postcode": "7910120",
    "prefecture": "愛媛県",
    "prefecture_kana": "エヒメケン",
    "prefecture_code": 38,
    "city": "松山市",
    "city_kana": "マツヤマシ",
    "town": "湯の山東",
    "town_kana": "ユノヤマヒガシ",
    "street": null,
    "office_name": null,
    "office_name_kana": null
  },
  "0121": {
    "postcode": "7910121",
    "prefecture": "愛媛県",
    "prefecture_kana": "エヒメケン",
    "prefecture_code": 38,
    "city": "松山市",
    "city_kana": "マツヤマシ",
    "town": "湯の山",
    "town_kana": "ユノヤマ",
    "street": null,
    "office_name": null,
    "office_name_kana": null
  },
  "0122": {
    "postcode": "7910122",
    "prefecture": "愛媛県",
    "prefecture_kana": "エヒメケン",
    "prefecture_code": 38,
    "city": "松山市",
    "city_kana": "マツヤマシ",
    "town": "末町",
    "town_kana": "スエマチ",
    "street": null,
    "office_name": null,
    "office_name_kana": null
  },
  "0123": {
    "postcode": "7910123",
    "prefecture": "愛媛県",
    "prefecture_kana": "エヒメケン",
    "prefecture_code": 38,
    "city": "松山市",
    "city_kana": "マツヤマシ",
    "town": "宿野町",
    "town_kana": "シュクノマチ",
    "street": null,
    "office_name": null,
    "office_name_kana": null
  },
  "0124": {
    "postcode": "7910124",
    "prefecture": "愛媛県",
    "prefecture_kana": "エヒメケン",
    "prefecture_code": 38,
    "city": "松山市",
    "city_kana": "マツヤマシ",
    "town": "青波町",
    "town_kana": "アオナミマチ",
    "street": null,
    "office_name": null,
    "office_name_kana": null
  },
  "0125": {
    "postcode": "7910125",
    "prefecture": "愛媛県",
    "prefecture_kana": "エヒメケン",
    "prefecture_code": 38,
    "city": "松山市",
    "city_kana": "マツヤマシ",
    "town": "湯山柳",
    "town_kana": "ユヤマヤナギ",
    "street": null,
    "office_name": null,
    "office_name_kana": null
  },
  "0126": {
    "postcode": "7910126",
    "prefecture": "愛媛県",
    "prefecture_kana": "エヒメケン",
    "prefecture_code": 38,
    "city": "松山市",
    "city_kana": "マツヤマシ",
    "town": "玉谷町",
    "town_kana": "タマタニマチ",
    "street": null,
    "office_name": null,
    "office_name_kana": null
  },
  "0127": {
    "postcode": "7910127",
    "prefecture": "愛媛県",
    "prefecture_kana": "エヒメケン",
    "prefecture_code": 38,
    "city": "松山市",
    "city_kana": "マツヤマシ",
    "town": "藤野町",
    "town_kana": "フジノマチ",
    "street": null,
    "office_name": null,
    "office_name_kana": null
  },
  "0128": {
    "postcode": "7910128",
    "prefecture": "愛媛県",
    "prefecture_kana": "エヒメケン",
    "prefecture_code": 38,
    "city": "松山市",
    "city_kana": "マツヤマシ",
    "town": "福見川町",
    "town_kana": "フクミガワマチ",
    "street": null,
    "office_name": null,
    "office_name_kana": null
  },
  "0129": {
    "postcode": "7910129",
    "prefecture": "愛媛県",
    "prefecture_kana": "エヒメケン",
    "prefecture_code": 38,
    "city": "松山市",
    "city_kana": "マツヤマシ",
    "town": "川の郷町",
    "town_kana": "カワノゴウマチ",
    "street": null,
    "office_name": null,
    "office_name_kana": null
  },
  "0131": {
    "postcode": "7910131",
    "prefecture": "愛媛県",
    "prefecture_kana": "エヒメケン",
    "prefecture_code": 38,
    "city": "松山市",
    "city_kana": "マツヤマシ",
    "town": "水口町",
    "town_kana": "ミナクチマチ",
    "street": null,
    "office_name": null,
    "office_name_kana": null
  },
  "0132": {
    "postcode": "7910132",
    "prefecture": "愛媛県",
    "prefecture_kana": "エヒメケン",
    "prefecture_code": 38,
    "city": "松山市",
    "city_kana": "マツヤマシ",
    "town": "河中町",
    "town_kana": "カワナカマチ",
    "street": null,
    "office_name": null,
    "office_name_kana": null
  },
  "0133": {
    "postcode": "7910133",
    "prefecture": "愛媛県",
    "prefecture_kana": "エヒメケン",
    "prefecture_code": 38,
    "city": "松山市",
    "city_kana": "マツヤマシ",
    "town": "東川町",
    "town_kana": "ヒガシガワマチ",
    "street": null,
    "office_name": null,
    "office_name_kana": null
  },
  "0134": {
    "postcode": "7910134",
    "prefecture": "愛媛県",
    "prefecture_kana": "エヒメケン",
    "prefecture_code": 38,
    "city": "松山市",
    "city_kana": "マツヤマシ",
    "town": "大井野町",
    "town_kana": "オオイノマチ",
    "street": null,
    "office_name": null,
    "office_name_kana": null
  },
  "0135": {
    "postcode": "7910135",
    "prefecture": "愛媛県",
    "prefecture_kana": "エヒメケン",
    "prefecture_code": 38,
    "city": "松山市",
    "city_kana": "マツヤマシ",
    "town": "米野町",
    "town_kana": "コメノマチ",
    "street": null,
    "office_name": null,
    "office_name_kana": null
  },
  "0150": {
    "postcode": "7910150",
    "prefecture": "愛媛県",
    "prefecture_kana": "エヒメケン",
    "prefecture_code": 38,
    "city": "松山市",
    "city_kana": "マツヤマシ",
    "town": "九川",
    "town_kana": "クガワ",
    "street": null,
    "office_name": null,
    "office_name_kana": null
  },
  "0200": {
    "postcode": "7910200",
    "prefecture": "愛媛県",
    "prefecture_kana": "エヒメケン",
    "prefecture_code": 38,
    "city": "東温市",
    "city_kana": "トウオンシ",
    "town": "",
    "town_kana": "",
    "street": null,
    "office_name": null,
    "office_name_kana": null
  },
  "0201": {
    "postcode": "7910201",
    "prefecture": "愛媛県",
    "prefecture_kana": "エヒメケン",
    "prefecture_code": 38,
    "city": "東温市",
    "city_kana": "トウオンシ",
    "town": "山之内",
    "town_kana": "ヤマノウチ",
    "street": null,
    "office_name": null,
    "office_name_kana": null
  },
  "0202": {
    "postcode": "7910202",
    "prefecture": "愛媛県",
    "prefecture_kana": "エヒメケン",
    "prefecture_code": 38,
    "city": "東温市",
    "city_kana": "トウオンシ",
    "town": "樋口",
    "town_kana": "ヒノクチ",
    "street": null,
    "office_name": null,
    "office_name_kana": null
  },
  "0203": {
    "postcode": "7910203",
    "prefecture": "愛媛県",
    "prefecture_kana": "エヒメケン",
    "prefecture_code": 38,
    "city": "東温市",
    "city_kana": "トウオンシ",
    "town": "横河原",
    "town_kana": "ヨコガワラ",
    "street": null,
    "office_name": null,
    "office_name_kana": null
  },
  "0204": {
    "postcode": "7910204",
    "prefecture": "愛媛県",
    "prefecture_kana": "エヒメケン",
    "prefecture_code": 38,
    "city": "東温市",
    "city_kana": "トウオンシ",
    "town": "志津川",
    "town_kana": "シツカワ",
    "street": null,
    "office_name": null,
    "office_name_kana": null
  },
  "0205": {
    "postcode": "7910205",
    "prefecture": "愛媛県",
    "prefecture_kana": "エヒメケン",
    "prefecture_code": 38,
    "city": "東温市",
    "city_kana": "トウオンシ",
    "town": "西岡",
    "town_kana": "ニシオカ",
    "street": null,
    "office_name": null,
    "office_name_kana": null
  },
  "0206": {
    "postcode": "7910206",
    "prefecture": "愛媛県",
    "prefecture_kana": "エヒメケン",
    "prefecture_code": 38,
    "city": "東温市",
    "city_kana": "トウオンシ",
    "town": "志津川南",
    "town_kana": "シツカワミナミ",
    "street": null,
    "office_name": null,
    "office_name_kana": null
  },
  "0211": {
    "postcode": "7910211",
    "prefecture": "愛媛県",
    "prefecture_kana": "エヒメケン",
    "prefecture_code": 38,
    "city": "東温市",
    "city_kana": "トウオンシ",
    "town": "見奈良",
    "town_kana": "ミナラ",
    "street": null,
    "office_name": null,
    "office_name_kana": null
  },
  "0212": {
    "postcode": "7910212",
    "prefecture": "愛媛県",
    "prefecture_kana": "エヒメケン",
    "prefecture_code": 38,
    "city": "東温市",
    "city_kana": "トウオンシ",
    "town": "田窪",
    "town_kana": "タノクボ",
    "street": null,
    "office_name": null,
    "office_name_kana": null
  },
  "0213": {
    "postcode": "7910213",
    "prefecture": "愛媛県",
    "prefecture_kana": "エヒメケン",
    "prefecture_code": 38,
    "city": "東温市",
    "city_kana": "トウオンシ",
    "town": "牛渕",
    "town_kana": "ウシブチ",
    "street": null,
    "office_name": null,
    "office_name_kana": null
  },
  "0214": {
    "postcode": "7910214",
    "prefecture": "愛媛県",
    "prefecture_kana": "エヒメケン",
    "prefecture_code": 38,
    "city": "東温市",
    "city_kana": "トウオンシ",
    "town": "南野田",
    "town_kana": "ミナミノダ",
    "street": null,
    "office_name": null,
    "office_name_kana": null
  },
  "0215": {
    "postcode": "7910215",
    "prefecture": "愛媛県",
    "prefecture_kana": "エヒメケン",
    "prefecture_code": 38,
    "city": "東温市",
    "city_kana": "トウオンシ",
    "town": "北野田",
    "town_kana": "キタノダ",
    "street": null,
    "office_name": null,
    "office_name_kana": null
  },
  "0216": {
    "postcode": "7910216",
    "prefecture": "愛媛県",
    "prefecture_kana": "エヒメケン",
    "prefecture_code": 38,
    "city": "東温市",
    "city_kana": "トウオンシ",
    "town": "野田",
    "town_kana": "ノダ",
    "street": null,
    "office_name": null,
    "office_name_kana": null
  },
  "0221": {
    "postcode": "7910221",
    "prefecture": "愛媛県",
    "prefecture_kana": "エヒメケン",
    "prefecture_code": 38,
    "city": "東温市",
    "city_kana": "トウオンシ",
    "town": "上村",
    "town_kana": "ウエムラ",
    "street": null,
    "office_name": null,
    "office_name_kana": null
  },
  "0222": {
    "postcode": "7910222",
    "prefecture": "愛媛県",
    "prefecture_kana": "エヒメケン",
    "prefecture_code": 38,
    "city": "東温市",
    "city_kana": "トウオンシ",
    "town": "下林",
    "town_kana": "シモバヤシ",
    "street": null,
    "office_name": null,
    "office_name_kana": null
  },
  "0223": {
    "postcode": "7910223",
    "prefecture": "愛媛県",
    "prefecture_kana": "エヒメケン",
    "prefecture_code": 38,
    "city": "東温市",
    "city_kana": "トウオンシ",
    "town": "上林",
    "town_kana": "カミバヤシ",
    "street": null,
    "office_name": null,
    "office_name_kana": null
  },
  "0241": {
    "postcode": "7910241",
    "prefecture": "愛媛県",
    "prefecture_kana": "エヒメケン",
    "prefecture_code": 38,
    "city": "松山市",
    "city_kana": "マツヤマシ",
    "town": "小野町",
    "town_kana": "オノマチ",
    "street": null,
    "office_name": null,
    "office_name_kana": null
  },
  "0242": {
    "postcode": "7910242",
    "prefecture": "愛媛県",
    "prefecture_kana": "エヒメケン",
    "prefecture_code": 38,
    "city": "松山市",
    "city_kana": "マツヤマシ",
    "town": "北梅本町",
    "town_kana": "キタウメモトマチ",
    "street": null,
    "office_name": null,
    "office_name_kana": null
  },
  "0243": {
    "postcode": "7910243",
    "prefecture": "愛媛県",
    "prefecture_kana": "エヒメケン",
    "prefecture_code": 38,
    "city": "松山市",
    "city_kana": "マツヤマシ",
    "town": "平井町",
    "town_kana": "ヒライマチ",
    "street": null,
    "office_name": null,
    "office_name_kana": null
  },
  "0244": {
    "postcode": "7910244",
    "prefecture": "愛媛県",
    "prefecture_kana": "エヒメケン",
    "prefecture_code": 38,
    "city": "松山市",
    "city_kana": "マツヤマシ",
    "town": "水泥町",
    "town_kana": "ミドロマチ",
    "street": null,
    "office_name": null,
    "office_name_kana": null
  },
  "0245": {
    "postcode": "7910245",
    "prefecture": "愛媛県",
    "prefecture_kana": "エヒメケン",
    "prefecture_code": 38,
    "city": "松山市",
    "city_kana": "マツヤマシ",
    "town": "南梅本町",
    "town_kana": "ミナミウメモトマチ",
    "street": null,
    "office_name": null,
    "office_name_kana": null
  },
  "0280": {
    "postcode": "7910280",
    "prefecture": "愛媛県",
    "prefecture_kana": "エヒメケン",
    "prefecture_code": 38,
    "city": "松山市",
    "city_kana": "マツヤマシ",
    "town": "南梅本町",
    "town_kana": "ミナミウメモトマチ",
    "street": "甲１６０",
    "office_name": "四国がんセンター",
    "office_name_kana": "シコクガンセンタ-"
  },
  "0281": {
    "postcode": "7910281",
    "prefecture": "愛媛県",
    "prefecture_kana": "エヒメケン",
    "prefecture_code": 38,
    "city": "東温市",
    "city_kana": "トウオンシ",
    "town": "横河原",
    "town_kana": "ヨコガワラ",
    "street": "３６６",
    "office_name": "独立行政法人　国立病院機構　愛媛病院",
    "office_name_kana": "ドクリツギヨウセイホウジン コクリツビヨウインキコウ エヒメビヨウイン"
  },
  "0288": {
    "postcode": "7910288",
    "prefecture": "愛媛県",
    "prefecture_kana": "エヒメケン",
    "prefecture_code": 38,
    "city": "東温市",
    "city_kana": "トウオンシ",
    "town": "上村",
    "town_kana": "ウエムラ",
    "street": "字斉院ノ木甲９８０",
    "office_name": "四国西濃運輸　株式会社",
    "office_name_kana": "シコクセイノウウンユ カブシキガイシヤ"
  },
  "0292": {
    "postcode": "7910292",
    "prefecture": "愛媛県",
    "prefecture_kana": "エヒメケン",
    "prefecture_code": 38,
    "city": "東温市",
    "city_kana": "トウオンシ",
    "town": "見奈良",
    "town_kana": "ミナラ",
    "street": "５３０−１",
    "office_name": "東温市役所",
    "office_name_kana": "トウオンシヤクシヨ"
  },
  "0295": {
    "postcode": "7910295",
    "prefecture": "愛媛県",
    "prefecture_kana": "エヒメケン",
    "prefecture_code": 38,
    "city": "東温市",
    "city_kana": "トウオンシ",
    "town": "志津川",
    "town_kana": "シツカワ",
    "street": "４５４",
    "office_name": "愛媛大学　医学部",
    "office_name_kana": "エヒメダイガク イガクブ"
  },
  "0297": {
    "postcode": "7910297",
    "prefecture": "愛媛県",
    "prefecture_kana": "エヒメケン",
    "prefecture_code": 38,
    "city": "東温市",
    "city_kana": "トウオンシ",
    "town": "南野田",
    "town_kana": "ミナミノダ",
    "street": "４１８−４",
    "office_name": "株式会社　ヒカリ",
    "office_name_kana": "カブシキガイシヤ ヒカリ"
  },
  "0301": {
    "postcode": "7910301",
    "prefecture": "愛媛県",
    "prefecture_kana": "エヒメケン",
    "prefecture_code": 38,
    "city": "東温市",
    "city_kana": "トウオンシ",
    "town": "南方",
    "town_kana": "ミナミガタ",
    "street": null,
    "office_name": null,
    "office_name_kana": null
  },
  "0302": {
    "postcode": "7910302",
    "prefecture": "愛媛県",
    "prefecture_kana": "エヒメケン",
    "prefecture_code": 38,
    "city": "東温市",
    "city_kana": "トウオンシ",
    "town": "吉久",
    "town_kana": "ヨシヒサ",
    "street": null,
    "office_name": null,
    "office_name_kana": null
  },
  "0303": {
    "postcode": "7910303",
    "prefecture": "愛媛県",
    "prefecture_kana": "エヒメケン",
    "prefecture_code": 38,
    "city": "東温市",
    "city_kana": "トウオンシ",
    "town": "北方",
    "town_kana": "キタガタ",
    "street": null,
    "office_name": null,
    "office_name_kana": null
  },
  "0311": {
    "postcode": "7910311",
    "prefecture": "愛媛県",
    "prefecture_kana": "エヒメケン",
    "prefecture_code": 38,
    "city": "東温市",
    "city_kana": "トウオンシ",
    "town": "則之内甲",
    "town_kana": "スノウチコウ",
    "street": null,
    "office_name": null,
    "office_name_kana": null
  },
  "0312": {
    "postcode": "7910312",
    "prefecture": "愛媛県",
    "prefecture_kana": "エヒメケン",
    "prefecture_code": 38,
    "city": "東温市",
    "city_kana": "トウオンシ",
    "town": "則之内乙",
    "town_kana": "スノウチオツ",
    "street": null,
    "office_name": null,
    "office_name_kana": null
  },
  "0313": {
    "postcode": "7910313",
    "prefecture": "愛媛県",
    "prefecture_kana": "エヒメケン",
    "prefecture_code": 38,
    "city": "東温市",
    "city_kana": "トウオンシ",
    "town": "則之内丙",
    "town_kana": "スノウチヘイ",
    "street": null,
    "office_name": null,
    "office_name_kana": null
  },
  "0314": {
    "postcode": "7910314",
    "prefecture": "愛媛県",
    "prefecture_kana": "エヒメケン",
    "prefecture_code": 38,
    "city": "東温市",
    "city_kana": "トウオンシ",
    "town": "松瀬川",
    "town_kana": "マセカワ",
    "street": null,
    "office_name": null,
    "office_name_kana": null
  },
  "0315": {
    "postcode": "7910315",
    "prefecture": "愛媛県",
    "prefecture_kana": "エヒメケン",
    "prefecture_code": 38,
    "city": "東温市",
    "city_kana": "トウオンシ",
    "town": "井内",
    "town_kana": "イウチ",
    "street": null,
    "office_name": null,
    "office_name_kana": null
  },
  "0321": {
    "postcode": "7910321",
    "prefecture": "愛媛県",
    "prefecture_kana": "エヒメケン",
    "prefecture_code": 38,
    "city": "東温市",
    "city_kana": "トウオンシ",
    "town": "河之内",
    "town_kana": "カワノウチ",
    "street": null,
    "office_name": null,
    "office_name_kana": null
  },
  "0322": {
    "postcode": "7910322",
    "prefecture": "愛媛県",
    "prefecture_kana": "エヒメケン",
    "prefecture_code": 38,
    "city": "東温市",
    "city_kana": "トウオンシ",
    "town": "滑川",
    "town_kana": "ナメガワ",
    "street": null,
    "office_name": null,
    "office_name_kana": null
  },
  "0323": {
    "postcode": "7910323",
    "prefecture": "愛媛県",
    "prefecture_kana": "エヒメケン",
    "prefecture_code": 38,
    "city": "東温市",
    "city_kana": "トウオンシ",
    "town": "明河",
    "town_kana": "ミョウガ",
    "street": null,
    "office_name": null,
    "office_name_kana": null
  },
  "0385": {
    "postcode": "7910385",
    "prefecture": "愛媛県",
    "prefecture_kana": "エヒメケン",
    "prefecture_code": 38,
    "city": "東温市",
    "city_kana": "トウオンシ",
    "town": "南方",
    "town_kana": "ミナミガタ",
    "street": "５６１",
    "office_name": "財団法人　積善会　愛媛十全医療学院",
    "office_name_kana": "ザイダンホウジン セキゼンカイ エヒメジユウゼンイリヨウガクイン"
  },
  "0392": {
    "postcode": "7910392",
    "prefecture": "愛媛県",
    "prefecture_kana": "エヒメケン",
    "prefecture_code": 38,
    "city": "東温市",
    "city_kana": "トウオンシ",
    "town": "南方",
    "town_kana": "ミナミガタ",
    "street": "２２５０−２",
    "office_name": "（株）　レジャーライフ",
    "office_name_kana": "カブシキガイシヤ レジヤ-ライフ"
  },
  "0393": {
    "postcode": "7910393",
    "prefecture": "愛媛県",
    "prefecture_kana": "エヒメケン",
    "prefecture_code": 38,
    "city": "東温市",
    "city_kana": "トウオンシ",
    "town": "南方",
    "town_kana": "ミナミガタ",
    "street": "２８６",
    "office_name": "東温市　川内支所",
    "office_name_kana": "トウオンシ カワウチシシヨ"
  },
  "0394": {
    "postcode": "7910394",
    "prefecture": "愛媛県",
    "prefecture_kana": "エヒメケン",
    "prefecture_code": 38,
    "city": "東温市",
    "city_kana": "トウオンシ",
    "town": "南方",
    "town_kana": "ミナミガタ",
    "street": "２８８２番地",
    "office_name": "フジ四国物流センター",
    "office_name_kana": "フジシコクブツリユウセンタ-"
  },
  "0395": {
    "postcode": "7910395",
    "prefecture": "愛媛県",
    "prefecture_kana": "エヒメケン",
    "prefecture_code": 38,
    "city": "東温市",
    "city_kana": "トウオンシ",
    "town": "南方",
    "town_kana": "ミナミガタ",
    "street": "２１３１−１",
    "office_name": "ＰＨＣ　株式会社",
    "office_name_kana": "ピ-エイチシ- カブシキガイシヤ"
  },
  "0397": {
    "postcode": "7910397",
    "prefecture": "愛媛県",
    "prefecture_kana": "エヒメケン",
    "prefecture_code": 38,
    "city": "東温市",
    "city_kana": "トウオンシ",
    "town": "南方",
    "town_kana": "ミナミガタ",
    "street": "９５５−１",
    "office_name": "四国乳業　（株）",
    "office_name_kana": "シコクニユウギヨウ カブシキガイシヤ"
  },
  "0398": {
    "postcode": "7910398",
    "prefecture": "愛媛県",
    "prefecture_kana": "エヒメケン",
    "prefecture_code": 38,
    "city": "東温市",
    "city_kana": "トウオンシ",
    "town": "則之内",
    "town_kana": null,
    "street": "甲２２２５−１",
    "office_name": "遠赤青汁　（株）",
    "office_name_kana": "エンセキアオジル カブシキガイシヤ"
  },
  "0501": {
    "postcode": "7910501",
    "prefecture": "愛媛県",
    "prefecture_kana": "エヒメケン",
    "prefecture_code": 38,
    "city": "西条市",
    "city_kana": "サイジョウシ",
    "town": "丹原町徳能出作",
    "town_kana": "タンバラチョウトクノデサク",
    "street": null,
    "office_name": null,
    "office_name_kana": null
  },
  "0502": {
    "postcode": "7910502",
    "prefecture": "愛媛県",
    "prefecture_kana": "エヒメケン",
    "prefecture_code": 38,
    "city": "西条市",
    "city_kana": "サイジョウシ",
    "town": "丹原町願連寺",
    "town_kana": "タンバラチョウガンレンジ",
    "street": null,
    "office_name": null,
    "office_name_kana": null
  },
  "0503": {
    "postcode": "7910503",
    "prefecture": "愛媛県",
    "prefecture_kana": "エヒメケン",
    "prefecture_code": 38,
    "city": "西条市",
    "city_kana": "サイジョウシ",
    "town": "丹原町今井",
    "town_kana": "タンバラチョウイマイ",
    "street": null,
    "office_name": null,
    "office_name_kana": null
  },
  "0504": {
    "postcode": "7910504",
    "prefecture": "愛媛県",
    "prefecture_kana": "エヒメケン",
    "prefecture_code": 38,
    "city": "西条市",
    "city_kana": "サイジョウシ",
    "town": "丹原町久妙寺",
    "town_kana": "タンバラチョウクミョウジ",
    "street": null,
    "office_name": null,
    "office_name_kana": null
  },
  "0505": {
    "postcode": "7910505",
    "prefecture": "愛媛県",
    "prefecture_kana": "エヒメケン",
    "prefecture_code": 38,
    "city": "西条市",
    "city_kana": "サイジョウシ",
    "town": "丹原町古田",
    "town_kana": "タンバラチョウコタ",
    "street": null,
    "office_name": null,
    "office_name_kana": null
  },
  "0506": {
    "postcode": "7910506",
    "prefecture": "愛媛県",
    "prefecture_kana": "エヒメケン",
    "prefecture_code": 38,
    "city": "西条市",
    "city_kana": "サイジョウシ",
    "town": "丹原町徳能",
    "town_kana": "タンバラチョウトクノウ",
    "street": null,
    "office_name": null,
    "office_name_kana": null
  },
  "0507": {
    "postcode": "7910507",
    "prefecture": "愛媛県",
    "prefecture_kana": "エヒメケン",
    "prefecture_code": 38,
    "city": "西条市",
    "city_kana": "サイジョウシ",
    "town": "丹原町高知",
    "town_kana": "タンバラチョウコウチ",
    "street": null,
    "office_name": null,
    "office_name_kana": null
  },
  "0508": {
    "postcode": "7910508",
    "prefecture": "愛媛県",
    "prefecture_kana": "エヒメケン",
    "prefecture_code": 38,
    "city": "西条市",
    "city_kana": "サイジョウシ",
    "town": "丹原町池田",
    "town_kana": "タンバラチョウイケダ",
    "street": null,
    "office_name": null,
    "office_name_kana": null
  },
  "0510": {
    "postcode": "7910510",
    "prefecture": "愛媛県",
    "prefecture_kana": "エヒメケン",
    "prefecture_code": 38,
    "city": "西条市",
    "city_kana": "サイジョウシ",
    "town": "丹原町丹原",
    "town_kana": "タンバラチョウタンバラ",
    "street": null,
    "office_name": null,
    "office_name_kana": null
  },
  "0521": {
    "postcode": "7910521",
    "prefecture": "愛媛県",
    "prefecture_kana": "エヒメケン",
    "prefecture_code": 38,
    "city": "西条市",
    "city_kana": "サイジョウシ",
    "town": "丹原町長野",
    "town_kana": "タンバラチョウナガノ",
    "street": null,
    "office_name": null,
    "office_name_kana": null
  },
  "0522": {
    "postcode": "7910522",
    "prefecture": "愛媛県",
    "prefecture_kana": "エヒメケン",
    "prefecture_code": 38,
    "city": "西条市",
    "city_kana": "サイジョウシ",
    "town": "丹原町田野上方",
    "town_kana": "タンバラチョウタノウワガタ",
    "street": null,
    "office_name": null,
    "office_name_kana": null
  },
  "0523": {
    "postcode": "7910523",
    "prefecture": "愛媛県",
    "prefecture_kana": "エヒメケン",
    "prefecture_code": 38,
    "city": "西条市",
    "city_kana": "サイジョウシ",
    "town": "丹原町北田野",
    "town_kana": "タンバラチョウキタタノ",
    "street": null,
    "office_name": null,
    "office_name_kana": null
  },
  "0524": {
    "postcode": "7910524",
    "prefecture": "愛媛県",
    "prefecture_kana": "エヒメケン",
    "prefecture_code": 38,
    "city": "西条市",
    "city_kana": "サイジョウシ",
    "town": "丹原町高松",
    "town_kana": "タンバラチョウタカマツ",
    "street": null,
    "office_name": null,
    "office_name_kana": null
  },
  "0525": {
    "postcode": "7910525",
    "prefecture": "愛媛県",
    "prefecture_kana": "エヒメケン",
    "prefecture_code": 38,
    "city": "西条市",
    "city_kana": "サイジョウシ",
    "town": "丹原町川根",
    "town_kana": "タンバラチョウカワネ",
    "street": null,
    "office_name": null,
    "office_name_kana": null
  },
  "0526": {
    "postcode": "7910526",
    "prefecture": "愛媛県",
    "prefecture_kana": "エヒメケン",
    "prefecture_code": 38,
    "city": "西条市",
    "city_kana": "サイジョウシ",
    "town": "丹原町田滝",
    "town_kana": "タンバラチョウタタキ",
    "street": null,
    "office_name": null,
    "office_name_kana": null
  },
  "0527": {
    "postcode": "7910527",
    "prefecture": "愛媛県",
    "prefecture_kana": "エヒメケン",
    "prefecture_code": 38,
    "city": "西条市",
    "city_kana": "サイジョウシ",
    "town": "丹原町関屋",
    "town_kana": "タンバラチョウセキヤ",
    "street": null,
    "office_name": null,
    "office_name_kana": null
  },
  "0531": {
    "postcode": "7910531",
    "prefecture": "愛媛県",
    "prefecture_kana": "エヒメケン",
    "prefecture_code": 38,
    "city": "西条市",
    "city_kana": "サイジョウシ",
    "town": "丹原町来見",
    "town_kana": "タンバラチョウクルミ",
    "street": null,
    "office_name": null,
    "office_name_kana": null
  },
  "0532": {
    "postcode": "7910532",
    "prefecture": "愛媛県",
    "prefecture_kana": "エヒメケン",
    "prefecture_code": 38,
    "city": "西条市",
    "city_kana": "サイジョウシ",
    "town": "丹原町石経",
    "town_kana": "タンバラチョウイシキョウ",
    "street": null,
    "office_name": null,
    "office_name_kana": null
  },
  "0533": {
    "postcode": "7910533",
    "prefecture": "愛媛県",
    "prefecture_kana": "エヒメケン",
    "prefecture_code": 38,
    "city": "西条市",
    "city_kana": "サイジョウシ",
    "town": "丹原町明穂",
    "town_kana": "タンバラチョウアカオ",
    "street": null,
    "office_name": null,
    "office_name_kana": null
  },
  "0534": {
    "postcode": "7910534",
    "prefecture": "愛媛県",
    "prefecture_kana": "エヒメケン",
    "prefecture_code": 38,
    "city": "西条市",
    "city_kana": "サイジョウシ",
    "town": "丹原町寺尾",
    "town_kana": "タンバラチョウテラオ",
    "street": null,
    "office_name": null,
    "office_name_kana": null
  },
  "0535": {
    "postcode": "7910535",
    "prefecture": "愛媛県",
    "prefecture_kana": "エヒメケン",
    "prefecture_code": 38,
    "city": "西条市",
    "city_kana": "サイジョウシ",
    "town": "丹原町志川",
    "town_kana": "タンバラチョウシカワ",
    "street": null,
    "office_name": null,
    "office_name_kana": null
  },
  "0536": {
    "postcode": "7910536",
    "prefecture": "愛媛県",
    "prefecture_kana": "エヒメケン",
    "prefecture_code": 38,
    "city": "西条市",
    "city_kana": "サイジョウシ",
    "town": "丹原町湯谷口",
    "town_kana": "タンバラチョウユヤグチ",
    "street": null,
    "office_name": null,
    "office_name_kana": null
  },
  "0537": {
    "postcode": "7910537",
    "prefecture": "愛媛県",
    "prefecture_kana": "エヒメケン",
    "prefecture_code": 38,
    "city": "西条市",
    "city_kana": "サイジョウシ",
    "town": "丹原町臼坂",
    "town_kana": "タンバラチョウウスザカ",
    "street": null,
    "office_name": null,
    "office_name_kana": null
  },
  "0538": {
    "postcode": "7910538",
    "prefecture": "愛媛県",
    "prefecture_kana": "エヒメケン",
    "prefecture_code": 38,
    "city": "西条市",
    "city_kana": "サイジョウシ",
    "town": "丹原町千原",
    "town_kana": "タンバラチョウチハラ",
    "street": null,
    "office_name": null,
    "office_name_kana": null
  },
  "0541": {
    "postcode": "7910541",
    "prefecture": "愛媛県",
    "prefecture_kana": "エヒメケン",
    "prefecture_code": 38,
    "city": "西条市",
    "city_kana": "サイジョウシ",
    "town": "丹原町鞍瀬",
    "town_kana": "タンバラチョウクラセ",
    "street": null,
    "office_name": null,
    "office_name_kana": null
  },
  "0542": {
    "postcode": "7910542",
    "prefecture": "愛媛県",
    "prefecture_kana": "エヒメケン",
    "prefecture_code": 38,
    "city": "西条市",
    "city_kana": "サイジョウシ",
    "town": "丹原町楠窪",
    "town_kana": "タンバラチョウクスクボ",
    "street": null,
    "office_name": null,
    "office_name_kana": null
  },
  "0543": {
    "postcode": "7910543",
    "prefecture": "愛媛県",
    "prefecture_kana": "エヒメケン",
    "prefecture_code": 38,
    "city": "西条市",
    "city_kana": "サイジョウシ",
    "town": "丹原町明河",
    "town_kana": "タンバラチョウミョウガ",
    "street": null,
    "office_name": null,
    "office_name_kana": null
  },
  "0562": [
    {
      "postcode": "7910562",
      "prefecture": "愛媛県",
      "prefecture_kana": "エヒメケン",
      "prefecture_code": 38,
      "city": "西条市",
      "city_kana": "サイジョウシ",
      "town": "小松町石鎚",
      "town_kana": "コマツチョウイシヅチ",
      "street": null,
      "office_name": null,
      "office_name_kana": null
    },
    {
      "postcode": "7910562",
      "prefecture": "愛媛県",
      "prefecture_kana": "エヒメケン",
      "prefecture_code": 38,
      "city": "西条市",
      "city_kana": "サイジョウシ",
      "town": "小松町石鎚上戸石",
      "town_kana": "コマツチョウイシヅチカミトイシ",
      "street": null,
      "office_name": null,
      "office_name_kana": null
    }
  ],
  "0593": {
    "postcode": "7910593",
    "prefecture": "愛媛県",
    "prefecture_kana": "エヒメケン",
    "prefecture_code": 38,
    "city": "西条市",
    "city_kana": "サイジョウシ",
    "town": "丹原町池田",
    "town_kana": "タンバラチョウイケダ",
    "street": "１７０１−１（丹原郵便局私書箱第７号）",
    "office_name": "周桑農協",
    "office_name_kana": "シユウソウノウキヨウ"
  },
  "0594": {
    "postcode": "7910594",
    "prefecture": "愛媛県",
    "prefecture_kana": "エヒメケン",
    "prefecture_code": 38,
    "city": "西条市",
    "city_kana": "サイジョウシ",
    "town": "丹原町今井",
    "town_kana": "タンバラチョウイマイ",
    "street": "４３１",
    "office_name": "東予園芸",
    "office_name_kana": "トウヨエンゲイ"
  },
  "1101": {
    "postcode": "7911101",
    "prefecture": "愛媛県",
    "prefecture_kana": "エヒメケン",
    "prefecture_code": 38,
    "city": "松山市",
    "city_kana": "マツヤマシ",
    "town": "久米窪田町",
    "town_kana": "クメクボタマチ",
    "street": null,
    "office_name": null,
    "office_name_kana": null
  },
  "1102": {
    "postcode": "7911102",
    "prefecture": "愛媛県",
    "prefecture_kana": "エヒメケン",
    "prefecture_code": 38,
    "city": "松山市",
    "city_kana": "マツヤマシ",
    "town": "来住町",
    "town_kana": "キシマチ",
    "street": null,
    "office_name": null,
    "office_name_kana": null
  },
  "1103": {
    "postcode": "7911103",
    "prefecture": "愛媛県",
    "prefecture_kana": "エヒメケン",
    "prefecture_code": 38,
    "city": "松山市",
    "city_kana": "マツヤマシ",
    "town": "今在家町",
    "town_kana": "イマザイケマチ",
    "street": null,
    "office_name": null,
    "office_name_kana": null
  },
  "1104": {
    "postcode": "7911104",
    "prefecture": "愛媛県",
    "prefecture_kana": "エヒメケン",
    "prefecture_code": 38,
    "city": "松山市",
    "city_kana": "マツヤマシ",
    "town": "北土居",
    "town_kana": "キタドイ",
    "street": null,
    "office_name": null,
    "office_name_kana": null
  },
  "1105": {
    "postcode": "7911105",
    "prefecture": "愛媛県",
    "prefecture_kana": "エヒメケン",
    "prefecture_code": 38,
    "city": "松山市",
    "city_kana": "マツヤマシ",
    "town": "北井門",
    "town_kana": "キタイド",
    "street": null,
    "office_name": null,
    "office_name_kana": null
  },
  "1106": {
    "postcode": "7911106",
    "prefecture": "愛媛県",
    "prefecture_kana": "エヒメケン",
    "prefecture_code": 38,
    "city": "松山市",
    "city_kana": "マツヤマシ",
    "town": "今在家",
    "town_kana": "イマザイケ",
    "street": null,
    "office_name": null,
    "office_name_kana": null
  },
  "1111": {
    "postcode": "7911111",
    "prefecture": "愛媛県",
    "prefecture_kana": "エヒメケン",
    "prefecture_code": 38,
    "city": "松山市",
    "city_kana": "マツヤマシ",
    "town": "高井町",
    "town_kana": "タカイマチ",
    "street": null,
    "office_name": null,
    "office_name_kana": null
  },
  "1112": {
    "postcode": "7911112",
    "prefecture": "愛媛県",
    "prefecture_kana": "エヒメケン",
    "prefecture_code": 38,
    "city": "松山市",
    "city_kana": "マツヤマシ",
    "town": "南高井町",
    "town_kana": "ミナミタカイマチ",
    "street": null,
    "office_name": null,
    "office_name_kana": null
  },
  "1113": {
    "postcode": "7911113",
    "prefecture": "愛媛県",
    "prefecture_kana": "エヒメケン",
    "prefecture_code": 38,
    "city": "松山市",
    "city_kana": "マツヤマシ",
    "town": "森松町",
    "town_kana": "モリマツマチ",
    "street": null,
    "office_name": null,
    "office_name_kana": null
  },
  "1114": {
    "postcode": "7911114",
    "prefecture": "愛媛県",
    "prefecture_kana": "エヒメケン",
    "prefecture_code": 38,
    "city": "松山市",
    "city_kana": "マツヤマシ",
    "town": "井門町",
    "town_kana": "イドマチ",
    "street": null,
    "office_name": null,
    "office_name_kana": null
  },
  "1115": {
    "postcode": "7911115",
    "prefecture": "愛媛県",
    "prefecture_kana": "エヒメケン",
    "prefecture_code": 38,
    "city": "松山市",
    "city_kana": "マツヤマシ",
    "town": "土居町",
    "town_kana": "ドイマチ",
    "street": null,
    "office_name": null,
    "office_name_kana": null
  },
  "1116": {
    "postcode": "7911116",
    "prefecture": "愛媛県",
    "prefecture_kana": "エヒメケン",
    "prefecture_code": 38,
    "city": "松山市",
    "city_kana": "マツヤマシ",
    "town": "南土居町",
    "town_kana": "ミナミドイマチ",
    "street": null,
    "office_name": null,
    "office_name_kana": null
  },
  "1121": {
    "postcode": "7911121",
    "prefecture": "愛媛県",
    "prefecture_kana": "エヒメケン",
    "prefecture_code": 38,
    "city": "松山市",
    "city_kana": "マツヤマシ",
    "town": "中野町",
    "town_kana": "ナカノマチ",
    "street": null,
    "office_name": null,
    "office_name_kana": null
  },
  "1122": {
    "postcode": "7911122",
    "prefecture": "愛媛県",
    "prefecture_kana": "エヒメケン",
    "prefecture_code": 38,
    "city": "松山市",
    "city_kana": "マツヤマシ",
    "town": "津吉町",
    "town_kana": "ツヨシマチ",
    "street": null,
    "office_name": null,
    "office_name_kana": null
  },
  "1123": {
    "postcode": "7911123",
    "prefecture": "愛媛県",
    "prefecture_kana": "エヒメケン",
    "prefecture_code": 38,
    "city": "松山市",
    "city_kana": "マツヤマシ",
    "town": "東方町",
    "town_kana": "ヒガシガタマチ",
    "street": null,
    "office_name": null,
    "office_name_kana": null
  },
  "1124": {
    "postcode": "7911124",
    "prefecture": "愛媛県",
    "prefecture_kana": "エヒメケン",
    "prefecture_code": 38,
    "city": "松山市",
    "city_kana": "マツヤマシ",
    "town": "上川原町",
    "town_kana": "カミガワラマチ",
    "street": null,
    "office_name": null,
    "office_name_kana": null
  },
  "1125": {
    "postcode": "7911125",
    "prefecture": "愛媛県",
    "prefecture_kana": "エヒメケン",
    "prefecture_code": 38,
    "city": "松山市",
    "city_kana": "マツヤマシ",
    "town": "小村町",
    "town_kana": "コムラマチ",
    "street": null,
    "office_name": null,
    "office_name_kana": null
  },
  "1126": {
    "postcode": "7911126",
    "prefecture": "愛媛県",
    "prefecture_kana": "エヒメケン",
    "prefecture_code": 38,
    "city": "松山市",
    "city_kana": "マツヤマシ",
    "town": "大橋町",
    "town_kana": "オオハシマチ",
    "street": null,
    "office_name": null,
    "office_name_kana": null
  },
  "1131": {
    "postcode": "7911131",
    "prefecture": "愛媛県",
    "prefecture_kana": "エヒメケン",
    "prefecture_code": 38,
    "city": "松山市",
    "city_kana": "マツヤマシ",
    "town": "窪野町",
    "town_kana": "クボノマチ",
    "street": null,
    "office_name": null,
    "office_name_kana": null
  },
  "1132": {
    "postcode": "7911132",
    "prefecture": "愛媛県",
    "prefecture_kana": "エヒメケン",
    "prefecture_code": 38,
    "city": "松山市",
    "city_kana": "マツヤマシ",
    "town": "久谷町",
    "town_kana": "クタニマチ",
    "street": null,
    "office_name": null,
    "office_name_kana": null
  },
  "1133": {
    "postcode": "7911133",
    "prefecture": "愛媛県",
    "prefecture_kana": "エヒメケン",
    "prefecture_code": 38,
    "city": "松山市",
    "city_kana": "マツヤマシ",
    "town": "浄瑠璃町",
    "town_kana": "ジョウルリマチ",
    "street": null,
    "office_name": null,
    "office_name_kana": null
  },
  "1134": {
    "postcode": "7911134",
    "prefecture": "愛媛県",
    "prefecture_kana": "エヒメケン",
    "prefecture_code": 38,
    "city": "松山市",
    "city_kana": "マツヤマシ",
    "town": "恵原町",
    "town_kana": "エバラマチ",
    "street": null,
    "office_name": null,
    "office_name_kana": null
  },
  "1135": {
    "postcode": "7911135",
    "prefecture": "愛媛県",
    "prefecture_kana": "エヒメケン",
    "prefecture_code": 38,
    "city": "松山市",
    "city_kana": "マツヤマシ",
    "town": "西野町",
    "town_kana": "ニシノマチ",
    "street": null,
    "office_name": null,
    "office_name_kana": null
  },
  "1136": {
    "postcode": "7911136",
    "prefecture": "愛媛県",
    "prefecture_kana": "エヒメケン",
    "prefecture_code": 38,
    "city": "松山市",
    "city_kana": "マツヤマシ",
    "town": "上野町",
    "town_kana": "ウエノマチ",
    "street": null,
    "office_name": null,
    "office_name_kana": null
  },
  "1192": {
    "postcode": "7911192",
    "prefecture": "愛媛県",
    "prefecture_kana": "エヒメケン",
    "prefecture_code": 38,
    "city": "松山市",
    "city_kana": "マツヤマシ",
    "town": "中野町",
    "town_kana": "ナカノマチ",
    "street": "甲１４９−４",
    "office_name": "加藤産業　（株）　松山支店",
    "office_name_kana": "カトウサンギヨウ カブシキガイシヤ マツヤマシテン"
  },
  "1200": {
    "postcode": "7911200",
    "prefecture": "愛媛県",
    "prefecture_kana": "エヒメケン",
    "prefecture_code": 38,
    "city": "上浮穴郡久万高原町",
    "city_kana": "カミウケナグンクマコウゲンチョウ",
    "town": "",
    "town_kana": "",
    "street": null,
    "office_name": null,
    "office_name_kana": null
  },
  "1201": {
    "postcode": "7911201",
    "prefecture": "愛媛県",
    "prefecture_kana": "エヒメケン",
    "prefecture_code": 38,
    "city": "上浮穴郡久万高原町",
    "city_kana": "カミウケナグンクマコウゲンチョウ",
    "town": "久万",
    "town_kana": "クマ",
    "street": null,
    "office_name": null,
    "office_name_kana": null
  },
  "1202": {
    "postcode": "7911202",
    "prefecture": "愛媛県",
    "prefecture_kana": "エヒメケン",
    "prefecture_code": 38,
    "city": "上浮穴郡久万高原町",
    "city_kana": "カミウケナグンクマコウゲンチョウ",
    "town": "入野",
    "town_kana": "イリノ",
    "street": null,
    "office_name": null,
    "office_name_kana": null
  },
  "1203": {
    "postcode": "7911203",
    "prefecture": "愛媛県",
    "prefecture_kana": "エヒメケン",
    "prefecture_code": 38,
    "city": "上浮穴郡久万高原町",
    "city_kana": "カミウケナグンクマコウゲンチョウ",
    "town": "西明神",
    "town_kana": "ニシミョウジン",
    "street": null,
    "office_name": null,
    "office_name_kana": null
  },
  "1204": {
    "postcode": "7911204",
    "prefecture": "愛媛県",
    "prefecture_kana": "エヒメケン",
    "prefecture_code": 38,
    "city": "上浮穴郡久万高原町",
    "city_kana": "カミウケナグンクマコウゲンチョウ",
    "town": "東明神",
    "town_kana": "ヒガシミョウジン",
    "street": null,
    "office_name": null,
    "office_name_kana": null
  },
  "1205": {
    "postcode": "7911205",
    "prefecture": "愛媛県",
    "prefecture_kana": "エヒメケン",
    "prefecture_code": 38,
    "city": "上浮穴郡久万高原町",
    "city_kana": "カミウケナグンクマコウゲンチョウ",
    "town": "菅生",
    "town_kana": "スゴウ",
    "street": null,
    "office_name": null,
    "office_name_kana": null
  },
  "1206": {
    "postcode": "7911206",
    "prefecture": "愛媛県",
    "prefecture_kana": "エヒメケン",
    "prefecture_code": 38,
    "city": "上浮穴郡久万高原町",
    "city_kana": "カミウケナグンクマコウゲンチョウ",
    "town": "上野尻",
    "town_kana": "カミノジリ",
    "street": null,
    "office_name": null,
    "office_name_kana": null
  },
  "1207": {
    "postcode": "7911207",
    "prefecture": "愛媛県",
    "prefecture_kana": "エヒメケン",
    "prefecture_code": 38,
    "city": "上浮穴郡久万高原町",
    "city_kana": "カミウケナグンクマコウゲンチョウ",
    "town": "下野尻",
    "town_kana": "シモノジリ",
    "street": null,
    "office_name": null,
    "office_name_kana": null
  },
  "1211": {
    "postcode": "7911211",
    "prefecture": "愛媛県",
    "prefecture_kana": "エヒメケン",
    "prefecture_code": 38,
    "city": "上浮穴郡久万高原町",
    "city_kana": "カミウケナグンクマコウゲンチョウ",
    "town": "上畑野川",
    "town_kana": "カミハタノカワ",
    "street": null,
    "office_name": null,
    "office_name_kana": null
  },
  "1212": {
    "postcode": "7911212",
    "prefecture": "愛媛県",
    "prefecture_kana": "エヒメケン",
    "prefecture_code": 38,
    "city": "上浮穴郡久万高原町",
    "city_kana": "カミウケナグンクマコウゲンチョウ",
    "town": "下畑野川",
    "town_kana": "シモハタノカワ",
    "street": null,
    "office_name": null,
    "office_name_kana": null
  },
  "1213": {
    "postcode": "7911213",
    "prefecture": "愛媛県",
    "prefecture_kana": "エヒメケン",
    "prefecture_code": 38,
    "city": "上浮穴郡久万高原町",
    "city_kana": "カミウケナグンクマコウゲンチョウ",
    "town": "直瀬",
    "town_kana": "ナオセ",
    "street": null,
    "office_name": null,
    "office_name_kana": null
  },
  "1221": {
    "postcode": "7911221",
    "prefecture": "愛媛県",
    "prefecture_kana": "エヒメケン",
    "prefecture_code": 38,
    "city": "上浮穴郡久万高原町",
    "city_kana": "カミウケナグンクマコウゲンチョウ",
    "town": "露峰",
    "town_kana": "ツユミネ",
    "street": null,
    "office_name": null,
    "office_name_kana": null
  },
  "1222": {
    "postcode": "7911222",
    "prefecture": "愛媛県",
    "prefecture_kana": "エヒメケン",
    "prefecture_code": 38,
    "city": "上浮穴郡久万高原町",
    "city_kana": "カミウケナグンクマコウゲンチョウ",
    "town": "二名",
    "town_kana": "ニミョウ",
    "street": null,
    "office_name": null,
    "office_name_kana": null
  },
  "1223": {
    "postcode": "7911223",
    "prefecture": "愛媛県",
    "prefecture_kana": "エヒメケン",
    "prefecture_code": 38,
    "city": "上浮穴郡久万高原町",
    "city_kana": "カミウケナグンクマコウゲンチョウ",
    "town": "父野川",
    "town_kana": "チチノカワ",
    "street": null,
    "office_name": null,
    "office_name_kana": null
  },
  "1501": {
    "postcode": "7911501",
    "prefecture": "愛媛県",
    "prefecture_kana": "エヒメケン",
    "prefecture_code": 38,
    "city": "上浮穴郡久万高原町",
    "city_kana": "カミウケナグンクマコウゲンチョウ",
    "town": "上黒岩",
    "town_kana": "カミクロイワ",
    "street": null,
    "office_name": null,
    "office_name_kana": null
  },
  "1502": {
    "postcode": "7911502",
    "prefecture": "愛媛県",
    "prefecture_kana": "エヒメケン",
    "prefecture_code": 38,
    "city": "上浮穴郡久万高原町",
    "city_kana": "カミウケナグンクマコウゲンチョウ",
    "town": "中黒岩",
    "town_kana": "ナカクロイワ",
    "street": null,
    "office_name": null,
    "office_name_kana": null
  },
  "1503": {
    "postcode": "7911503",
    "prefecture": "愛媛県",
    "prefecture_kana": "エヒメケン",
    "prefecture_code": 38,
    "city": "上浮穴郡久万高原町",
    "city_kana": "カミウケナグンクマコウゲンチョウ",
    "town": "日野浦",
    "town_kana": "ヒノウラ",
    "street": null,
    "office_name": null,
    "office_name_kana": null
  },
  "1504": {
    "postcode": "7911504",
    "prefecture": "愛媛県",
    "prefecture_kana": "エヒメケン",
    "prefecture_code": 38,
    "city": "上浮穴郡久万高原町",
    "city_kana": "カミウケナグンクマコウゲンチョウ",
    "town": "大川",
    "town_kana": "オオガワ",
    "street": null,
    "office_name": null,
    "office_name_kana": null
  },
  "1505": {
    "postcode": "7911505",
    "prefecture": "愛媛県",
    "prefecture_kana": "エヒメケン",
    "prefecture_code": 38,
    "city": "上浮穴郡久万高原町",
    "city_kana": "カミウケナグンクマコウゲンチョウ",
    "town": "有枝",
    "town_kana": "アリエダ",
    "street": null,
    "office_name": null,
    "office_name_kana": null
  },
  "1511": {
    "postcode": "7911511",
    "prefecture": "愛媛県",
    "prefecture_kana": "エヒメケン",
    "prefecture_code": 38,
    "city": "上浮穴郡久万高原町",
    "city_kana": "カミウケナグンクマコウゲンチョウ",
    "town": "七鳥",
    "town_kana": "ナナトリ",
    "street": null,
    "office_name": null,
    "office_name_kana": null
  },
  "1512": {
    "postcode": "7911512",
    "prefecture": "愛媛県",
    "prefecture_kana": "エヒメケン",
    "prefecture_code": 38,
    "city": "上浮穴郡久万高原町",
    "city_kana": "カミウケナグンクマコウゲンチョウ",
    "town": "東川",
    "town_kana": "ヒガシガワ",
    "street": null,
    "office_name": null,
    "office_name_kana": null
  },
  "1513": {
    "postcode": "7911513",
    "prefecture": "愛媛県",
    "prefecture_kana": "エヒメケン",
    "prefecture_code": 38,
    "city": "上浮穴郡久万高原町",
    "city_kana": "カミウケナグンクマコウゲンチョウ",
    "town": "仕出",
    "town_kana": "シデ",
    "street": null,
    "office_name": null,
    "office_name_kana": null
  },
  "1514": {
    "postcode": "7911514",
    "prefecture": "愛媛県",
    "prefecture_kana": "エヒメケン",
    "prefecture_code": 38,
    "city": "上浮穴郡久万高原町",
    "city_kana": "カミウケナグンクマコウゲンチョウ",
    "town": "沢渡",
    "town_kana": "サワタリ",
    "street": null,
    "office_name": null,
    "office_name_kana": null
  },
  "1515": {
    "postcode": "7911515",
    "prefecture": "愛媛県",
    "prefecture_kana": "エヒメケン",
    "prefecture_code": 38,
    "city": "上浮穴郡久万高原町",
    "city_kana": "カミウケナグンクマコウゲンチョウ",
    "town": "黒藤川",
    "town_kana": "クロフジガワ",
    "street": null,
    "office_name": null,
    "office_name_kana": null
  },
  "1701": {
    "postcode": "7911701",
    "prefecture": "愛媛県",
    "prefecture_kana": "エヒメケン",
    "prefecture_code": 38,
    "city": "上浮穴郡久万高原町",
    "city_kana": "カミウケナグンクマコウゲンチョウ",
    "town": "渋草",
    "town_kana": "シブクサ",
    "street": null,
    "office_name": null,
    "office_name_kana": null
  },
  "1702": {
    "postcode": "7911702",
    "prefecture": "愛媛県",
    "prefecture_kana": "エヒメケン",
    "prefecture_code": 38,
    "city": "上浮穴郡久万高原町",
    "city_kana": "カミウケナグンクマコウゲンチョウ",
    "town": "大成",
    "town_kana": "オオナル",
    "street": null,
    "office_name": null,
    "office_name_kana": null
  },
  "1703": {
    "postcode": "7911703",
    "prefecture": "愛媛県",
    "prefecture_kana": "エヒメケン",
    "prefecture_code": 38,
    "city": "上浮穴郡久万高原町",
    "city_kana": "カミウケナグンクマコウゲンチョウ",
    "town": "笠方",
    "town_kana": "カサガタ",
    "street": null,
    "office_name": null,
    "office_name_kana": null
  },
  "1704": {
    "postcode": "7911704",
    "prefecture": "愛媛県",
    "prefecture_kana": "エヒメケン",
    "prefecture_code": 38,
    "city": "上浮穴郡久万高原町",
    "city_kana": "カミウケナグンクマコウゲンチョウ",
    "town": "前組",
    "town_kana": "マエグミ",
    "street": null,
    "office_name": null,
    "office_name_kana": null
  },
  "1705": {
    "postcode": "7911705",
    "prefecture": "愛媛県",
    "prefecture_kana": "エヒメケン",
    "prefecture_code": 38,
    "city": "上浮穴郡久万高原町",
    "city_kana": "カミウケナグンクマコウゲンチョウ",
    "town": "相の峰",
    "town_kana": "アイノミネ",
    "street": null,
    "office_name": null,
    "office_name_kana": null
  },
  "1706": {
    "postcode": "7911706",
    "prefecture": "愛媛県",
    "prefecture_kana": "エヒメケン",
    "prefecture_code": 38,
    "city": "上浮穴郡久万高原町",
    "city_kana": "カミウケナグンクマコウゲンチョウ",
    "town": "本組",
    "town_kana": "ホングミ",
    "street": null,
    "office_name": null,
    "office_name_kana": null
  },
  "1707": {
    "postcode": "7911707",
    "prefecture": "愛媛県",
    "prefecture_kana": "エヒメケン",
    "prefecture_code": 38,
    "city": "上浮穴郡久万高原町",
    "city_kana": "カミウケナグンクマコウゲンチョウ",
    "town": "中組",
    "town_kana": "ナカグミ",
    "street": null,
    "office_name": null,
    "office_name_kana": null
  },
  "1708": {
    "postcode": "7911708",
    "prefecture": "愛媛県",
    "prefecture_kana": "エヒメケン",
    "prefecture_code": 38,
    "city": "上浮穴郡久万高原町",
    "city_kana": "カミウケナグンクマコウゲンチョウ",
    "town": "河の子",
    "town_kana": "コウノコ",
    "street": null,
    "office_name": null,
    "office_name_kana": null
  },
  "1709": {
    "postcode": "7911709",
    "prefecture": "愛媛県",
    "prefecture_kana": "エヒメケン",
    "prefecture_code": 38,
    "city": "上浮穴郡久万高原町",
    "city_kana": "カミウケナグンクマコウゲンチョウ",
    "town": "相の木",
    "town_kana": "アイノキ",
    "street": null,
    "office_name": null,
    "office_name_kana": null
  },
  "1710": {
    "postcode": "7911710",
    "prefecture": "愛媛県",
    "prefecture_kana": "エヒメケン",
    "prefecture_code": 38,
    "city": "上浮穴郡久万高原町",
    "city_kana": "カミウケナグンクマコウゲンチョウ",
    "town": "若山",
    "town_kana": "ワカヤマ",
    "street": null,
    "office_name": null,
    "office_name_kana": null
  },
  "1792": {
    "postcode": "7911792",
    "prefecture": "愛媛県",
    "prefecture_kana": "エヒメケン",
    "prefecture_code": 38,
    "city": "上浮穴郡久万高原町",
    "city_kana": "カミウケナグンクマコウゲンチョウ",
    "town": "渋草",
    "town_kana": "シブクサ",
    "street": "２４３１",
    "office_name": "久万高原町役場　面河支所",
    "office_name_kana": "クマコウゲンチヨウヤクバ オモゴシシヨ"
  },
  "1801": {
    "postcode": "7911801",
    "prefecture": "愛媛県",
    "prefecture_kana": "エヒメケン",
    "prefecture_code": 38,
    "city": "上浮穴郡久万高原町",
    "city_kana": "カミウケナグンクマコウゲンチョウ",
    "town": "柳井川",
    "town_kana": "ヤナイガワ",
    "street": null,
    "office_name": null,
    "office_name_kana": null
  },
  "1802": {
    "postcode": "7911802",
    "prefecture": "愛媛県",
    "prefecture_kana": "エヒメケン",
    "prefecture_code": 38,
    "city": "上浮穴郡久万高原町",
    "city_kana": "カミウケナグンクマコウゲンチョウ",
    "town": "西谷",
    "town_kana": "ニシダニ",
    "street": null,
    "office_name": null,
    "office_name_kana": null
  },
  "1803": {
    "postcode": "7911803",
    "prefecture": "愛媛県",
    "prefecture_kana": "エヒメケン",
    "prefecture_code": 38,
    "city": "上浮穴郡久万高原町",
    "city_kana": "カミウケナグンクマコウゲンチョウ",
    "town": "中津",
    "town_kana": "ナカツ",
    "street": null,
    "office_name": null,
    "office_name_kana": null
  },
  "2100": {
    "postcode": "7912100",
    "prefecture": "愛媛県",
    "prefecture_kana": "エヒメケン",
    "prefecture_code": 38,
    "city": "伊予郡砥部町",
    "city_kana": "イヨグントベチョウ",
    "town": "",
    "town_kana": "",
    "street": null,
    "office_name": null,
    "office_name_kana": null
  },
  "2101": {
    "postcode": "7912101",
    "prefecture": "愛媛県",
    "prefecture_kana": "エヒメケン",
    "prefecture_code": 38,
    "city": "伊予郡砥部町",
    "city_kana": "イヨグントベチョウ",
    "town": "高尾田",
    "town_kana": "タコオダ",
    "street": null,
    "office_name": null,
    "office_name_kana": null
  },
  "2102": [
    {
      "postcode": "7912102",
      "prefecture": "愛媛県",
      "prefecture_kana": "エヒメケン",
      "prefecture_code": 38,
      "city": "伊予郡砥部町",
      "city_kana": "イヨグントベチョウ",
      "town": "高尾田",
      "town_kana": "タコオダ",
      "street": null,
      "office_name": null,
      "office_name_kana": null
    },
    {
      "postcode": "7912102",
      "prefecture": "愛媛県",
      "prefecture_kana": "エヒメケン",
      "prefecture_code": 38,
      "city": "伊予郡砥部町",
      "city_kana": "イヨグントベチョウ",
      "town": "高尾田砥部団地",
      "town_kana": "タコオダトベダンチ",
      "street": null,
      "office_name": null,
      "office_name_kana": null
    }
  ],
  "2103": [
    {
      "postcode": "7912103",
      "prefecture": "愛媛県",
      "prefecture_kana": "エヒメケン",
      "prefecture_code": 38,
      "city": "伊予郡砥部町",
      "city_kana": "イヨグントベチョウ",
      "town": "高尾田",
      "town_kana": "タコオダ",
      "street": null,
      "office_name": null,
      "office_name_kana": null
    },
    {
      "postcode": "7912103",
      "prefecture": "愛媛県",
      "prefecture_kana": "エヒメケン",
      "prefecture_code": 38,
      "city": "伊予郡砥部町",
      "city_kana": "イヨグントベチョウ",
      "town": "高尾田上野団地",
      "town_kana": "タコオダウエノダンチ",
      "street": null,
      "office_name": null,
      "office_name_kana": null
    }
  ],
  "2111": {
    "postcode": "7912111",
    "prefecture": "愛媛県",
    "prefecture_kana": "エヒメケン",
    "prefecture_code": 38,
    "city": "伊予郡砥部町",
    "city_kana": "イヨグントベチョウ",
    "town": "八倉",
    "town_kana": "ヤクラ",
    "street": null,
    "office_name": null,
    "office_name_kana": null
  },
  "2112": {
    "postcode": "7912112",
    "prefecture": "愛媛県",
    "prefecture_kana": "エヒメケン",
    "prefecture_code": 38,
    "city": "伊予郡砥部町",
    "city_kana": "イヨグントベチョウ",
    "town": "重光",
    "town_kana": "シゲミツ",
    "street": null,
    "office_name": null,
    "office_name_kana": null
  },
  "2113": {
    "postcode": "7912113",
    "prefecture": "愛媛県",
    "prefecture_kana": "エヒメケン",
    "prefecture_code": 38,
    "city": "伊予郡砥部町",
    "city_kana": "イヨグントベチョウ",
    "town": "拾町",
    "town_kana": "ジツチョウ",
    "street": null,
    "office_name": null,
    "office_name_kana": null
  },
  "2114": {
    "postcode": "7912114",
    "prefecture": "愛媛県",
    "prefecture_kana": "エヒメケン",
    "prefecture_code": 38,
    "city": "伊予郡砥部町",
    "city_kana": "イヨグントベチョウ",
    "town": "麻生",
    "town_kana": "アソウ",
    "street": null,
    "office_name": null,
    "office_name_kana": null
  },
  "2115": {
    "postcode": "7912115",
    "prefecture": "愛媛県",
    "prefecture_kana": "エヒメケン",
    "prefecture_code": 38,
    "city": "伊予郡砥部町",
    "city_kana": "イヨグントベチョウ",
    "town": "三角",
    "town_kana": "ミョウカ",
    "street": null,
    "office_name": null,
    "office_name_kana": null
  },
  "2116": {
    "postcode": "7912116",
    "prefecture": "愛媛県",
    "prefecture_kana": "エヒメケン",
    "prefecture_code": 38,
    "city": "伊予郡砥部町",
    "city_kana": "イヨグントベチョウ",
    "town": "原町",
    "town_kana": "ハラマチ",
    "street": null,
    "office_name": null,
    "office_name_kana": null
  },
  "2117": {
    "postcode": "7912117",
    "prefecture": "愛媛県",
    "prefecture_kana": "エヒメケン",
    "prefecture_code": 38,
    "city": "伊予郡砥部町",
    "city_kana": "イヨグントベチョウ",
    "town": "上原町",
    "town_kana": "カミハラマチ",
    "street": null,
    "office_name": null,
    "office_name_kana": null
  },
  "2120": {
    "postcode": "7912120",
    "prefecture": "愛媛県",
    "prefecture_kana": "エヒメケン",
    "prefecture_code": 38,
    "city": "伊予郡砥部町",
    "city_kana": "イヨグントベチョウ",
    "town": "宮内",
    "town_kana": "ミヤウチ",
    "street": null,
    "office_name": null,
    "office_name_kana": null
  },
  "2121": [
    {
      "postcode": "7912121",
      "prefecture": "愛媛県",
      "prefecture_kana": "エヒメケン",
      "prefecture_code": 38,
      "city": "伊予郡砥部町",
      "city_kana": "イヨグントベチョウ",
      "town": "宮内",
      "town_kana": "ミヤウチ",
      "street": null,
      "office_name": null,
      "office_name_kana": null
    },
    {
      "postcode": "7912121",
      "prefecture": "愛媛県",
      "prefecture_kana": "エヒメケン",
      "prefecture_code": 38,
      "city": "伊予郡砥部町",
      "city_kana": "イヨグントベチョウ",
      "town": "宮内山並",
      "town_kana": "ミヤウチヤマナミ",
      "street": null,
      "office_name": null,
      "office_name_kana": null
    }
  ],
  "2122": {
    "postcode": "7912122",
    "prefecture": "愛媛県",
    "prefecture_kana": "エヒメケン",
    "prefecture_code": 38,
    "city": "伊予郡砥部町",
    "city_kana": "イヨグントベチョウ",
    "town": "千足",
    "town_kana": "センゾク",
    "street": null,
    "office_name": null,
    "office_name_kana": null
  },
  "2123": {
    "postcode": "7912123",
    "prefecture": "愛媛県",
    "prefecture_kana": "エヒメケン",
    "prefecture_code": 38,
    "city": "伊予郡砥部町",
    "city_kana": "イヨグントベチョウ",
    "town": "川井",
    "town_kana": "カワイ",
    "street": null,
    "office_name": null,
    "office_name_kana": null
  },
  "2124": {
    "postcode": "7912124",
    "prefecture": "愛媛県",
    "prefecture_kana": "エヒメケン",
    "prefecture_code": 38,
    "city": "伊予郡砥部町",
    "city_kana": "イヨグントベチョウ",
    "town": "田ノ浦",
    "town_kana": "タノウラ",
    "street": null,
    "office_name": null,
    "office_name_kana": null
  },
  "2125": {
    "postcode": "7912125",
    "prefecture": "愛媛県",
    "prefecture_kana": "エヒメケン",
    "prefecture_code": 38,
    "city": "伊予郡砥部町",
    "city_kana": "イヨグントベチョウ",
    "town": "七折",
    "town_kana": "ナナオレ",
    "street": null,
    "office_name": null,
    "office_name_kana": null
  },
  "2126": {
    "postcode": "7912126",
    "prefecture": "愛媛県",
    "prefecture_kana": "エヒメケン",
    "prefecture_code": 38,
    "city": "伊予郡砥部町",
    "city_kana": "イヨグントベチョウ",
    "town": "大角蔵",
    "town_kana": "オオカクラ",
    "street": null,
    "office_name": null,
    "office_name_kana": null
  },
  "2131": {
    "postcode": "7912131",
    "prefecture": "愛媛県",
    "prefecture_kana": "エヒメケン",
    "prefecture_code": 38,
    "city": "伊予郡砥部町",
    "city_kana": "イヨグントベチョウ",
    "town": "北川毛",
    "town_kana": "キタカワゲ",
    "street": null,
    "office_name": null,
    "office_name_kana": null
  },
  "2132": {
    "postcode": "7912132",
    "prefecture": "愛媛県",
    "prefecture_kana": "エヒメケン",
    "prefecture_code": 38,
    "city": "伊予郡砥部町",
    "city_kana": "イヨグントベチョウ",
    "town": "大南",
    "town_kana": "オオミナミ",
    "street": null,
    "office_name": null,
    "office_name_kana": null
  },
  "2133": {
    "postcode": "7912133",
    "prefecture": "愛媛県",
    "prefecture_kana": "エヒメケン",
    "prefecture_code": 38,
    "city": "伊予郡砥部町",
    "city_kana": "イヨグントベチョウ",
    "town": "五本松",
    "town_kana": "ゴホンマツ",
    "street": null,
    "office_name": null,
    "office_name_kana": null
  },
  "2134": {
    "postcode": "7912134",
    "prefecture": "愛媛県",
    "prefecture_kana": "エヒメケン",
    "prefecture_code": 38,
    "city": "伊予郡砥部町",
    "city_kana": "イヨグントベチョウ",
    "town": "外山",
    "town_kana": "トヤマ",
    "street": null,
    "office_name": null,
    "office_name_kana": null
  },
  "2135": {
    "postcode": "7912135",
    "prefecture": "愛媛県",
    "prefecture_kana": "エヒメケン",
    "prefecture_code": 38,
    "city": "伊予郡砥部町",
    "city_kana": "イヨグントベチョウ",
    "town": "鵜ノ崎",
    "town_kana": "ウノサキ",
    "street": null,
    "office_name": null,
    "office_name_kana": null
  },
  "2141": {
    "postcode": "7912141",
    "prefecture": "愛媛県",
    "prefecture_kana": "エヒメケン",
    "prefecture_code": 38,
    "city": "伊予郡砥部町",
    "city_kana": "イヨグントベチョウ",
    "town": "岩谷口",
    "town_kana": "イワヤグチ",
    "street": null,
    "office_name": null,
    "office_name_kana": null
  },
  "2142": {
    "postcode": "7912142",
    "prefecture": "愛媛県",
    "prefecture_kana": "エヒメケン",
    "prefecture_code": 38,
    "city": "伊予郡砥部町",
    "city_kana": "イヨグントベチョウ",
    "town": "岩谷",
    "town_kana": "イワヤ",
    "street": null,
    "office_name": null,
    "office_name_kana": null
  },
  "2143": {
    "postcode": "7912143",
    "prefecture": "愛媛県",
    "prefecture_kana": "エヒメケン",
    "prefecture_code": 38,
    "city": "伊予郡砥部町",
    "city_kana": "イヨグントベチョウ",
    "town": "川登",
    "town_kana": "カワノボリ",
    "street": null,
    "office_name": null,
    "office_name_kana": null
  },
  "2144": {
    "postcode": "7912144",
    "prefecture": "愛媛県",
    "prefecture_kana": "エヒメケン",
    "prefecture_code": 38,
    "city": "伊予郡砥部町",
    "city_kana": "イヨグントベチョウ",
    "town": "万年",
    "town_kana": "マンネン",
    "street": null,
    "office_name": null,
    "office_name_kana": null
  },
  "2145": {
    "postcode": "7912145",
    "prefecture": "愛媛県",
    "prefecture_kana": "エヒメケン",
    "prefecture_code": 38,
    "city": "伊予郡砥部町",
    "city_kana": "イヨグントベチョウ",
    "town": "大平",
    "town_kana": "オオヒラ",
    "street": null,
    "office_name": null,
    "office_name_kana": null
  },
  "2191": {
    "postcode": "7912191",
    "prefecture": "愛媛県",
    "prefecture_kana": "エヒメケン",
    "prefecture_code": 38,
    "city": "伊予郡砥部町",
    "city_kana": "イヨグントベチョウ",
    "town": "上原町",
    "town_kana": "カミハラマチ",
    "street": "２４０",
    "office_name": "愛媛県立　とべ動物園",
    "office_name_kana": "エヒメケンリツ トベドウブツエン"
  },
  "2193": {
    "postcode": "7912193",
    "prefecture": "愛媛県",
    "prefecture_kana": "エヒメケン",
    "prefecture_code": 38,
    "city": "伊予郡砥部町",
    "city_kana": "イヨグントベチョウ",
    "town": "八倉",
    "town_kana": "ヤクラ",
    "street": "１",
    "office_name": "井関農機",
    "office_name_kana": "イセキノウキ"
  },
  "2195": {
    "postcode": "7912195",
    "prefecture": "愛媛県",
    "prefecture_kana": "エヒメケン",
    "prefecture_code": 38,
    "city": "伊予郡砥部町",
    "city_kana": "イヨグントベチョウ",
    "town": "宮内",
    "town_kana": "ミヤウチ",
    "street": "１３９２",
    "office_name": "砥部町役場",
    "office_name_kana": "トベチヨウヤクバ"
  },
  "2201": {
    "postcode": "7912201",
    "prefecture": "愛媛県",
    "prefecture_kana": "エヒメケン",
    "prefecture_code": 38,
    "city": "伊予郡砥部町",
    "city_kana": "イヨグントベチョウ",
    "town": "満穂",
    "town_kana": "ミツホ",
    "street": null,
    "office_name": null,
    "office_name_kana": null
  },
  "2202": {
    "postcode": "7912202",
    "prefecture": "愛媛県",
    "prefecture_kana": "エヒメケン",
    "prefecture_code": 38,
    "city": "伊予郡砥部町",
    "city_kana": "イヨグントベチョウ",
    "town": "玉谷",
    "town_kana": "タマタニ",
    "street": null,
    "office_name": null,
    "office_name_kana": null
  },
  "2203": {
    "postcode": "7912203",
    "prefecture": "愛媛県",
    "prefecture_kana": "エヒメケン",
    "prefecture_code": 38,
    "city": "伊予郡砥部町",
    "city_kana": "イヨグントベチョウ",
    "town": "中野川",
    "town_kana": "ナカノカワ",
    "street": null,
    "office_name": null,
    "office_name_kana": null
  },
  "2204": {
    "postcode": "7912204",
    "prefecture": "愛媛県",
    "prefecture_kana": "エヒメケン",
    "prefecture_code": 38,
    "city": "伊予郡砥部町",
    "city_kana": "イヨグントベチョウ",
    "town": "高市",
    "town_kana": "タカイチ",
    "street": null,
    "office_name": null,
    "office_name_kana": null
  },
  "2205": {
    "postcode": "7912205",
    "prefecture": "愛媛県",
    "prefecture_kana": "エヒメケン",
    "prefecture_code": 38,
    "city": "伊予郡砥部町",
    "city_kana": "イヨグントベチョウ",
    "town": "総津",
    "town_kana": "ソウヅ",
    "street": null,
    "office_name": null,
    "office_name_kana": null
  },
  "2206": {
    "postcode": "7912206",
    "prefecture": "愛媛県",
    "prefecture_kana": "エヒメケン",
    "prefecture_code": 38,
    "city": "伊予郡砥部町",
    "city_kana": "イヨグントベチョウ",
    "town": "多居谷",
    "town_kana": "オオイダニ",
    "street": null,
    "office_name": null,
    "office_name_kana": null
  },
  "2207": {
    "postcode": "7912207",
    "prefecture": "愛媛県",
    "prefecture_kana": "エヒメケン",
    "prefecture_code": 38,
    "city": "伊予郡砥部町",
    "city_kana": "イヨグントベチョウ",
    "town": "仙波",
    "town_kana": "センバ",
    "street": null,
    "office_name": null,
    "office_name_kana": null
  },
  "3100": {
    "postcode": "7913100",
    "prefecture": "愛媛県",
    "prefecture_kana": "エヒメケン",
    "prefecture_code": 38,
    "city": "伊予郡松前町",
    "city_kana": "イヨグンマサキチョウ",
    "town": "",
    "town_kana": "",
    "street": null,
    "office_name": null,
    "office_name_kana": null
  },
  "3101": {
    "postcode": "7913101",
    "prefecture": "愛媛県",
    "prefecture_kana": "エヒメケン",
    "prefecture_code": 38,
    "city": "伊予郡松前町",
    "city_kana": "イヨグンマサキチョウ",
    "town": "南黒田",
    "town_kana": "ミナミクロダ",
    "street": null,
    "office_name": null,
    "office_name_kana": null
  },
  "3102": {
    "postcode": "7913102",
    "prefecture": "愛媛県",
    "prefecture_kana": "エヒメケン",
    "prefecture_code": 38,
    "city": "伊予郡松前町",
    "city_kana": "イヨグンマサキチョウ",
    "town": "北黒田",
    "town_kana": "キタクロダ",
    "street": null,
    "office_name": null,
    "office_name_kana": null
  },
  "3110": {
    "postcode": "7913110",
    "prefecture": "愛媛県",
    "prefecture_kana": "エヒメケン",
    "prefecture_code": 38,
    "city": "伊予郡松前町",
    "city_kana": "イヨグンマサキチョウ",
    "town": "浜",
    "town_kana": "ハマ",
    "street": null,
    "office_name": null,
    "office_name_kana": null
  },
  "3120": {
    "postcode": "7913120",
    "prefecture": "愛媛県",
    "prefecture_kana": "エヒメケン",
    "prefecture_code": 38,
    "city": "伊予郡松前町",
    "city_kana": "イヨグンマサキチョウ",
    "town": "筒井",
    "town_kana": "ツツイ",
    "street": null,
    "office_name": null,
    "office_name_kana": null
  },
  "3131": {
    "postcode": "7913131",
    "prefecture": "愛媛県",
    "prefecture_kana": "エヒメケン",
    "prefecture_code": 38,
    "city": "伊予郡松前町",
    "city_kana": "イヨグンマサキチョウ",
    "town": "北川原",
    "town_kana": "キタガワラ",
    "street": null,
    "office_name": null,
    "office_name_kana": null
  },
  "3132": {
    "postcode": "7913132",
    "prefecture": "愛媛県",
    "prefecture_kana": "エヒメケン",
    "prefecture_code": 38,
    "city": "伊予郡松前町",
    "city_kana": "イヨグンマサキチョウ",
    "town": "西高柳",
    "town_kana": "ニシタカヤナギ",
    "street": null,
    "office_name": null,
    "office_name_kana": null
  },
  "3133": {
    "postcode": "7913133",
    "prefecture": "愛媛県",
    "prefecture_kana": "エヒメケン",
    "prefecture_code": 38,
    "city": "伊予郡松前町",
    "city_kana": "イヨグンマサキチョウ",
    "town": "昌農内",
    "town_kana": "ショウノウチ",
    "street": null,
    "office_name": null,
    "office_name_kana": null
  },
  "3134": {
    "postcode": "7913134",
    "prefecture": "愛媛県",
    "prefecture_kana": "エヒメケン",
    "prefecture_code": 38,
    "city": "伊予郡松前町",
    "city_kana": "イヨグンマサキチョウ",
    "town": "西古泉",
    "town_kana": "ニシコイズミ",
    "street": null,
    "office_name": null,
    "office_name_kana": null
  },
  "3141": {
    "postcode": "7913141",
    "prefecture": "愛媛県",
    "prefecture_kana": "エヒメケン",
    "prefecture_code": 38,
    "city": "伊予郡松前町",
    "city_kana": "イヨグンマサキチョウ",
    "town": "恵久美",
    "town_kana": "エクビ",
    "street": null,
    "office_name": null,
    "office_name_kana": null
  },
  "3142": {
    "postcode": "7913142",
    "prefecture": "愛媛県",
    "prefecture_kana": "エヒメケン",
    "prefecture_code": 38,
    "city": "伊予郡松前町",
    "city_kana": "イヨグンマサキチョウ",
    "town": "上高柳",
    "town_kana": "カミタカヤナギ",
    "street": null,
    "office_name": null,
    "office_name_kana": null
  },
  "3143": {
    "postcode": "7913143",
    "prefecture": "愛媛県",
    "prefecture_kana": "エヒメケン",
    "prefecture_code": 38,
    "city": "伊予郡松前町",
    "city_kana": "イヨグンマサキチョウ",
    "town": "大間",
    "town_kana": "ダイマ",
    "street": null,
    "office_name": null,
    "office_name_kana": null
  },
  "3151": {
    "postcode": "7913151",
    "prefecture": "愛媛県",
    "prefecture_kana": "エヒメケン",
    "prefecture_code": 38,
    "city": "伊予郡松前町",
    "city_kana": "イヨグンマサキチョウ",
    "town": "東古泉",
    "town_kana": "ヒガシコイズミ",
    "street": null,
    "office_name": null,
    "office_name_kana": null
  },
  "3152": {
    "postcode": "7913152",
    "prefecture": "愛媛県",
    "prefecture_kana": "エヒメケン",
    "prefecture_code": 38,
    "city": "伊予郡松前町",
    "city_kana": "イヨグンマサキチョウ",
    "town": "永田",
    "town_kana": "ナガタ",
    "street": null,
    "office_name": null,
    "office_name_kana": null
  },
  "3153": {
    "postcode": "7913153",
    "prefecture": "愛媛県",
    "prefecture_kana": "エヒメケン",
    "prefecture_code": 38,
    "city": "伊予郡松前町",
    "city_kana": "イヨグンマサキチョウ",
    "town": "大溝",
    "town_kana": "オオミゾ",
    "street": null,
    "office_name": null,
    "office_name_kana": null
  },
  "3154": {
    "postcode": "7913154",
    "prefecture": "愛媛県",
    "prefecture_kana": "エヒメケン",
    "prefecture_code": 38,
    "city": "伊予郡松前町",
    "city_kana": "イヨグンマサキチョウ",
    "town": "横田",
    "town_kana": "ヨコタ",
    "street": null,
    "office_name": null,
    "office_name_kana": null
  },
  "3155": {
    "postcode": "7913155",
    "prefecture": "愛媛県",
    "prefecture_kana": "エヒメケン",
    "prefecture_code": 38,
    "city": "伊予郡松前町",
    "city_kana": "イヨグンマサキチョウ",
    "town": "鶴吉",
    "town_kana": "ツルヨシ",
    "street": null,
    "office_name": null,
    "office_name_kana": null
  },
  "3161": {
    "postcode": "7913161",
    "prefecture": "愛媛県",
    "prefecture_kana": "エヒメケン",
    "prefecture_code": 38,
    "city": "伊予郡松前町",
    "city_kana": "イヨグンマサキチョウ",
    "town": "神崎",
    "town_kana": "カンザキ",
    "street": null,
    "office_name": null,
    "office_name_kana": null
  },
  "3162": {
    "postcode": "7913162",
    "prefecture": "愛媛県",
    "prefecture_kana": "エヒメケン",
    "prefecture_code": 38,
    "city": "伊予郡松前町",
    "city_kana": "イヨグンマサキチョウ",
    "town": "出作",
    "town_kana": "シュツサク",
    "street": null,
    "office_name": null,
    "office_name_kana": null
  },
  "3163": {
    "postcode": "7913163",
    "prefecture": "愛媛県",
    "prefecture_kana": "エヒメケン",
    "prefecture_code": 38,
    "city": "伊予郡松前町",
    "city_kana": "イヨグンマサキチョウ",
    "town": "徳丸",
    "town_kana": "トクマル",
    "street": null,
    "office_name": null,
    "office_name_kana": null
  },
  "3164": {
    "postcode": "7913164",
    "prefecture": "愛媛県",
    "prefecture_kana": "エヒメケン",
    "prefecture_code": 38,
    "city": "伊予郡松前町",
    "city_kana": "イヨグンマサキチョウ",
    "town": "中川原",
    "town_kana": "ナカガワラ",
    "street": null,
    "office_name": null,
    "office_name_kana": null
  },
  "3192": {
    "postcode": "7913192",
    "prefecture": "愛媛県",
    "prefecture_kana": "エヒメケン",
    "prefecture_code": 38,
    "city": "伊予郡松前町",
    "city_kana": "イヨグンマサキチョウ",
    "town": "大字筒井",
    "town_kana": null,
    "street": "６３１",
    "office_name": "松前町役場",
    "office_name_kana": "マサキチヨウヤクバ"
  },
  "3193": {
    "postcode": "7913193",
    "prefecture": "愛媛県",
    "prefecture_kana": "エヒメケン",
    "prefecture_code": 38,
    "city": "伊予郡松前町",
    "city_kana": "イヨグンマサキチョウ",
    "town": "大字筒井",
    "town_kana": null,
    "street": "１５１５",
    "office_name": "東レ　株式会社　愛媛工場",
    "office_name_kana": "トウレ カブシキガイシヤ エヒメコウジヨウ"
  },
  "3194": {
    "postcode": "7913194",
    "prefecture": "愛媛県",
    "prefecture_kana": "エヒメケン",
    "prefecture_code": 38,
    "city": "伊予郡松前町",
    "city_kana": "イヨグンマサキチョウ",
    "town": "大字北川原",
    "town_kana": null,
    "street": "塩屋西１２０５−１",
    "office_name": "サンタ　株式会社",
    "office_name_kana": "サンタ カブシキガイシヤ"
  },
  "3195": {
    "postcode": "7913195",
    "prefecture": "愛媛県",
    "prefecture_kana": "エヒメケン",
    "prefecture_code": 38,
    "city": "伊予郡松前町",
    "city_kana": "イヨグンマサキチョウ",
    "town": "永田",
    "town_kana": "ナガタ",
    "street": "３４５−１",
    "office_name": "義農味噌　（株）",
    "office_name_kana": "ギノウミソ (カブ)"
  },
  "3196": {
    "postcode": "7913196",
    "prefecture": "愛媛県",
    "prefecture_kana": "エヒメケン",
    "prefecture_code": 38,
    "city": "伊予郡松前町",
    "city_kana": "イヨグンマサキチョウ",
    "town": "大字北黒田",
    "town_kana": null,
    "street": "５７１",
    "office_name": "扇屋食品　株式会社",
    "office_name_kana": "オオギヤシヨクヒン カブシキガイシヤ"
  },
  "3197": {
    "postcode": "7913197",
    "prefecture": "愛媛県",
    "prefecture_kana": "エヒメケン",
    "prefecture_code": 38,
    "city": "伊予郡松前町",
    "city_kana": "イヨグンマサキチョウ",
    "town": "大字筒井",
    "town_kana": null,
    "street": "１２６６−１",
    "office_name": "愛媛日商プロパン　株式会社",
    "office_name_kana": "エヒメニツシヨウプロパン カブシキガイシヤ"
  },
  "3198": {
    "postcode": "7913198",
    "prefecture": "愛媛県",
    "prefecture_kana": "エヒメケン",
    "prefecture_code": 38,
    "city": "伊予郡松前町",
    "city_kana": "イヨグンマサキチョウ",
    "town": "大字西高柳",
    "town_kana": null,
    "street": "２５１",
    "office_name": "増永食品　株式会社",
    "office_name_kana": "マスナガシヨクヒン カブシキガイシヤ"
  },
  "3201": {
    "postcode": "7913201",
    "prefecture": "愛媛県",
    "prefecture_kana": "エヒメケン",
    "prefecture_code": 38,
    "city": "伊予市",
    "city_kana": "イヨシ",
    "town": "中山町佐礼谷",
    "town_kana": "ナカヤマチョウサレタニ",
    "street": null,
    "office_name": null,
    "office_name_kana": null
  },
  "3202": {
    "postcode": "7913202",
    "prefecture": "愛媛県",
    "prefecture_kana": "エヒメケン",
    "prefecture_code": 38,
    "city": "伊予市",
    "city_kana": "イヨシ",
    "town": "中山町栗田",
    "town_kana": "ナカヤマチョウクリダ",
    "street": null,
    "office_name": null,
    "office_name_kana": null
  },
  "3203": {
    "postcode": "7913203",
    "prefecture": "愛媛県",
    "prefecture_kana": "エヒメケン",
    "prefecture_code": 38,
    "city": "伊予市",
    "city_kana": "イヨシ",
    "town": "中山町出渕",
    "town_kana": "ナカヤマチョウイズブチ",
    "street": null,
    "office_name": null,
    "office_name_kana": null
  },
  "3204": {
    "postcode": "7913204",
    "prefecture": "愛媛県",
    "prefecture_kana": "エヒメケン",
    "prefecture_code": 38,
    "city": "伊予市",
    "city_kana": "イヨシ",
    "town": "中山町出渕",
    "town_kana": "ナカヤマチョウイズブチ",
    "street": null,
    "office_name": null,
    "office_name_kana": null
  },
  "3205": [
    {
      "postcode": "7913205",
      "prefecture": "愛媛県",
      "prefecture_kana": "エヒメケン",
      "prefecture_code": 38,
      "city": "伊予市",
      "city_kana": "イヨシ",
      "town": "中山町中山",
      "town_kana": "ナカヤマチョウナカヤマ",
      "street": null,
      "office_name": null,
      "office_name_kana": null
    },
    {
      "postcode": "7913205",
      "prefecture": "愛媛県",
      "prefecture_kana": "エヒメケン",
      "prefecture_code": 38,
      "city": "伊予市",
      "city_kana": "イヨシ",
      "town": "中山町中山泉町",
      "town_kana": "ナカヤマチョウナカヤマイズミマチ",
      "street": null,
      "office_name": null,
      "office_name_kana": null
    }
  ],
  "3206": {
    "postcode": "7913206",
    "prefecture": "愛媛県",
    "prefecture_kana": "エヒメケン",
    "prefecture_code": 38,
    "city": "伊予市",
    "city_kana": "イヨシ",
    "town": "中山町中山",
    "town_kana": "ナカヤマチョウナカヤマ",
    "street": null,
    "office_name": null,
    "office_name_kana": null
  },
  "3292": {
    "postcode": "7913292",
    "prefecture": "愛媛県",
    "prefecture_kana": "エヒメケン",
    "prefecture_code": 38,
    "city": "伊予市",
    "city_kana": "イヨシ",
    "town": "中山町出渕",
    "town_kana": "ナカヤマチョウイズブチ",
    "street": "２番耕地１２０",
    "office_name": "伊予市役所　中山地域事務所",
    "office_name_kana": "イヨシヤクシヨ ナカヤマチイキジムシヨ"
  },
  "3293": {
    "postcode": "7913293",
    "prefecture": "愛媛県",
    "prefecture_kana": "エヒメケン",
    "prefecture_code": 38,
    "city": "伊予市",
    "city_kana": "イヨシ",
    "town": "中山町出渕",
    "town_kana": "ナカヤマチョウイズブチ",
    "street": "２番耕地１４５−３",
    "office_name": "伊予中山農業協同組合",
    "office_name_kana": "イヨナカヤマノウギヨウキヨウドウクミアイ"
  },
  "3295": {
    "postcode": "7913295",
    "prefecture": "愛媛県",
    "prefecture_kana": "エヒメケン",
    "prefecture_code": 38,
    "city": "伊予市",
    "city_kana": "イヨシ",
    "town": "中山町出渕",
    "town_kana": "ナカヤマチョウイズブチ",
    "street": "２番耕地１０５−１０",
    "office_name": "中山高等学校",
    "office_name_kana": "ナカヤマコウトウガツコウ"
  },
  "3300": {
    "postcode": "7913300",
    "prefecture": "愛媛県",
    "prefecture_kana": "エヒメケン",
    "prefecture_code": 38,
    "city": "喜多郡内子町",
    "city_kana": "キタグンウチコチョウ",
    "town": "",
    "town_kana": "",
    "street": null,
    "office_name": null,
    "office_name_kana": null
  },
  "3301": {
    "postcode": "7913301",
    "prefecture": "愛媛県",
    "prefecture_kana": "エヒメケン",
    "prefecture_code": 38,
    "city": "喜多郡内子町",
    "city_kana": "キタグンウチコチョウ",
    "town": "内子",
    "town_kana": "ウチコ",
    "street": null,
    "office_name": null,
    "office_name_kana": null
  },
  "3310": {
    "postcode": "7913310",
    "prefecture": "愛媛県",
    "prefecture_kana": "エヒメケン",
    "prefecture_code": 38,
    "city": "喜多郡内子町",
    "city_kana": "キタグンウチコチョウ",
    "town": "城廻",
    "town_kana": "シロマワリ",
    "street": null,
    "office_name": null,
    "office_name_kana": null
  },
  "3321": {
    "postcode": "7913321",
    "prefecture": "愛媛県",
    "prefecture_kana": "エヒメケン",
    "prefecture_code": 38,
    "city": "喜多郡内子町",
    "city_kana": "キタグンウチコチョウ",
    "town": "川中",
    "town_kana": "カワナカ",
    "street": null,
    "office_name": null,
    "office_name_kana": null
  },
  "3322": {
    "postcode": "7913322",
    "prefecture": "愛媛県",
    "prefecture_kana": "エヒメケン",
    "prefecture_code": 38,
    "city": "喜多郡内子町",
    "city_kana": "キタグンウチコチョウ",
    "town": "知清",
    "town_kana": "チセイ",
    "street": null,
    "office_name": null,
    "office_name_kana": null
  },
  "3331": {
    "postcode": "7913331",
    "prefecture": "愛媛県",
    "prefecture_kana": "エヒメケン",
    "prefecture_code": 38,
    "city": "喜多郡内子町",
    "city_kana": "キタグンウチコチョウ",
    "town": "立山",
    "town_kana": "タチヤマ",
    "street": null,
    "office_name": null,
    "office_name_kana": null
  },
  "3332": {
    "postcode": "7913332",
    "prefecture": "愛媛県",
    "prefecture_kana": "エヒメケン",
    "prefecture_code": 38,
    "city": "喜多郡内子町",
    "city_kana": "キタグンウチコチョウ",
    "town": "袋口",
    "town_kana": "フロク",
    "street": null,
    "office_name": null,
    "office_name_kana": null
  },
  "3341": {
    "postcode": "7913341",
    "prefecture": "愛媛県",
    "prefecture_kana": "エヒメケン",
    "prefecture_code": 38,
    "city": "喜多郡内子町",
    "city_kana": "キタグンウチコチョウ",
    "town": "論田",
    "town_kana": "ロンデン",
    "street": null,
    "office_name": null,
    "office_name_kana": null
  },
  "3342": {
    "postcode": "7913342",
    "prefecture": "愛媛県",
    "prefecture_kana": "エヒメケン",
    "prefecture_code": 38,
    "city": "喜多郡内子町",
    "city_kana": "キタグンウチコチョウ",
    "town": "河内",
    "town_kana": "カワノウチ",
    "street": null,
    "office_name": null,
    "office_name_kana": null
  },
  "3343": {
    "postcode": "7913343",
    "prefecture": "愛媛県",
    "prefecture_kana": "エヒメケン",
    "prefecture_code": 38,
    "city": "喜多郡内子町",
    "city_kana": "キタグンウチコチョウ",
    "town": "石畳",
    "town_kana": "イシダタミ",
    "street": null,
    "office_name": null,
    "office_name_kana": null
  },
  "3351": {
    "postcode": "7913351",
    "prefecture": "愛媛県",
    "prefecture_kana": "エヒメケン",
    "prefecture_code": 38,
    "city": "喜多郡内子町",
    "city_kana": "キタグンウチコチョウ",
    "town": "五百木",
    "town_kana": "イヨキ",
    "street": null,
    "office_name": null,
    "office_name_kana": null
  },
  "3352": {
    "postcode": "7913352",
    "prefecture": "愛媛県",
    "prefecture_kana": "エヒメケン",
    "prefecture_code": 38,
    "city": "喜多郡内子町",
    "city_kana": "キタグンウチコチョウ",
    "town": "村前",
    "town_kana": "ムラサキ",
    "street": null,
    "office_name": null,
    "office_name_kana": null
  },
  "3360": {
    "postcode": "7913360",
    "prefecture": "愛媛県",
    "prefecture_kana": "エヒメケン",
    "prefecture_code": 38,
    "city": "喜多郡内子町",
    "city_kana": "キタグンウチコチョウ",
    "town": "大瀬",
    "town_kana": "オオセ",
    "street": null,
    "office_name": null,
    "office_name_kana": null
  },
  "3361": [
    {
      "postcode": "7913361",
      "prefecture": "愛媛県",
      "prefecture_kana": "エヒメケン",
      "prefecture_code": 38,
      "city": "喜多郡内子町",
      "city_kana": "キタグンウチコチョウ",
      "town": "大瀬中央",
      "town_kana": "オオセチュウオウ",
      "street": null,
      "office_name": null,
      "office_name_kana": null
    },
    {
      "postcode": "7913361",
      "prefecture": "愛媛県",
      "prefecture_kana": "エヒメケン",
      "prefecture_code": 38,
      "city": "喜多郡内子町",
      "city_kana": "キタグンウチコチョウ",
      "town": "大瀬中央鵜川",
      "town_kana": "オオセチュウオウウカワ",
      "street": null,
      "office_name": null,
      "office_name_kana": null
    },
    {
      "postcode": "7913361",
      "prefecture": "愛媛県",
      "prefecture_kana": "エヒメケン",
      "prefecture_code": 38,
      "city": "喜多郡内子町",
      "city_kana": "キタグンウチコチョウ",
      "town": "大瀬中央大久保",
      "town_kana": "オオセチュウオウオオクボ",
      "street": null,
      "office_name": null,
      "office_name_kana": null
    },
    {
      "postcode": "7913361",
      "prefecture": "愛媛県",
      "prefecture_kana": "エヒメケン",
      "prefecture_code": 38,
      "city": "喜多郡内子町",
      "city_kana": "キタグンウチコチョウ",
      "town": "大瀬中央乙成",
      "town_kana": "オオセチュウオウオツナリ",
      "street": null,
      "office_name": null,
      "office_name_kana": null
    },
    {
      "postcode": "7913361",
      "prefecture": "愛媛県",
      "prefecture_kana": "エヒメケン",
      "prefecture_code": 38,
      "city": "喜多郡内子町",
      "city_kana": "キタグンウチコチョウ",
      "town": "大瀬中央中野",
      "town_kana": "オオセチュウオウナカノ",
      "street": null,
      "office_name": null,
      "office_name_kana": null
    }
  ],
  "3362": [
    {
      "postcode": "7913362",
      "prefecture": "愛媛県",
      "prefecture_kana": "エヒメケン",
      "prefecture_code": 38,
      "city": "喜多郡内子町",
      "city_kana": "キタグンウチコチョウ",
      "town": "大瀬北",
      "town_kana": "オオセキタ",
      "street": null,
      "office_name": null,
      "office_name_kana": null
    },
    {
      "postcode": "7913362",
      "prefecture": "愛媛県",
      "prefecture_kana": "エヒメケン",
      "prefecture_code": 38,
      "city": "喜多郡内子町",
      "city_kana": "キタグンウチコチョウ",
      "town": "大瀬北乙影山",
      "town_kana": "オオセキタオツカゲヤマ",
      "street": null,
      "office_name": null,
      "office_name_kana": null
    },
    {
      "postcode": "7913362",
      "prefecture": "愛媛県",
      "prefecture_kana": "エヒメケン",
      "prefecture_code": 38,
      "city": "喜多郡内子町",
      "city_kana": "キタグンウチコチョウ",
      "town": "大瀬北熊の滝",
      "town_kana": "オオセキタクマノタキ",
      "street": null,
      "office_name": null,
      "office_name_kana": null
    },
    {
      "postcode": "7913362",
      "prefecture": "愛媛県",
      "prefecture_kana": "エヒメケン",
      "prefecture_code": 38,
      "city": "喜多郡内子町",
      "city_kana": "キタグンウチコチョウ",
      "town": "大瀬北甲影山",
      "town_kana": "オオセキタコウガケヤマ",
      "street": null,
      "office_name": null,
      "office_name_kana": null
    },
    {
      "postcode": "7913362",
      "prefecture": "愛媛県",
      "prefecture_kana": "エヒメケン",
      "prefecture_code": 38,
      "city": "喜多郡内子町",
      "city_kana": "キタグンウチコチョウ",
      "town": "大瀬北程内",
      "town_kana": "オオセキタホドウチ",
      "street": null,
      "office_name": null,
      "office_name_kana": null
    }
  ],
  "3363": {
    "postcode": "7913363",
    "prefecture": "愛媛県",
    "prefecture_kana": "エヒメケン",
    "prefecture_code": 38,
    "city": "喜多郡内子町",
    "city_kana": "キタグンウチコチョウ",
    "town": "大瀬東",
    "town_kana": "オオセヒガシ",
    "street": null,
    "office_name": null,
    "office_name_kana": null
  },
  "3364": {
    "postcode": "7913364",
    "prefecture": "愛媛県",
    "prefecture_kana": "エヒメケン",
    "prefecture_code": 38,
    "city": "喜多郡内子町",
    "city_kana": "キタグンウチコチョウ",
    "town": "大瀬南",
    "town_kana": "オオセミナミ",
    "street": null,
    "office_name": null,
    "office_name_kana": null
  },
  "3392": {
    "postcode": "7913392",
    "prefecture": "愛媛県",
    "prefecture_kana": "エヒメケン",
    "prefecture_code": 38,
    "city": "喜多郡内子町",
    "city_kana": "キタグンウチコチョウ",
    "town": "内子",
    "town_kana": "ウチコ",
    "street": "１５１５（内子郵便局私書箱第６号）",
    "office_name": "内子町役場　内子分庁舎",
    "office_name_kana": "ウチコチヨウヤクバ ウチコブンチヨウシヤ"
  },
  "3501": {
    "postcode": "7913501",
    "prefecture": "愛媛県",
    "prefecture_kana": "エヒメケン",
    "prefecture_code": 38,
    "city": "喜多郡内子町",
    "city_kana": "キタグンウチコチョウ",
    "town": "小田",
    "town_kana": "オダ",
    "street": null,
    "office_name": null,
    "office_name_kana": null
  },
  "3502": {
    "postcode": "7913502",
    "prefecture": "愛媛県",
    "prefecture_kana": "エヒメケン",
    "prefecture_code": 38,
    "city": "喜多郡内子町",
    "city_kana": "キタグンウチコチョウ",
    "town": "寺村",
    "town_kana": "テラムラ",
    "street": null,
    "office_name": null,
    "office_name_kana": null
  },
  "3503": {
    "postcode": "7913503",
    "prefecture": "愛媛県",
    "prefecture_kana": "エヒメケン",
    "prefecture_code": 38,
    "city": "喜多郡内子町",
    "city_kana": "キタグンウチコチョウ",
    "town": "日野川",
    "town_kana": "ヒノカワ",
    "street": null,
    "office_name": null,
    "office_name_kana": null
  },
  "3504": {
    "postcode": "7913504",
    "prefecture": "愛媛県",
    "prefecture_kana": "エヒメケン",
    "prefecture_code": 38,
    "city": "喜多郡内子町",
    "city_kana": "キタグンウチコチョウ",
    "town": "大平",
    "town_kana": "オオヒラ",
    "street": null,
    "office_name": null,
    "office_name_kana": null
  },
  "3505": {
    "postcode": "7913505",
    "prefecture": "愛媛県",
    "prefecture_kana": "エヒメケン",
    "prefecture_code": 38,
    "city": "喜多郡内子町",
    "city_kana": "キタグンウチコチョウ",
    "town": "立石",
    "town_kana": "タテイシ",
    "street": null,
    "office_name": null,
    "office_name_kana": null
  },
  "3506": {
    "postcode": "7913506",
    "prefecture": "愛媛県",
    "prefecture_kana": "エヒメケン",
    "prefecture_code": 38,
    "city": "喜多郡内子町",
    "city_kana": "キタグンウチコチョウ",
    "town": "南山",
    "town_kana": "ミナミヤマ",
    "street": null,
    "office_name": null,
    "office_name_kana": null
  },
  "3511": {
    "postcode": "7913511",
    "prefecture": "愛媛県",
    "prefecture_kana": "エヒメケン",
    "prefecture_code": 38,
    "city": "喜多郡内子町",
    "city_kana": "キタグンウチコチョウ",
    "town": "吉野川",
    "town_kana": "ヨシノカワ",
    "street": null,
    "office_name": null,
    "office_name_kana": null
  },
  "3512": {
    "postcode": "7913512",
    "prefecture": "愛媛県",
    "prefecture_kana": "エヒメケン",
    "prefecture_code": 38,
    "city": "喜多郡内子町",
    "city_kana": "キタグンウチコチョウ",
    "town": "中田渡",
    "town_kana": "ナカタド",
    "street": null,
    "office_name": null,
    "office_name_kana": null
  },
  "3513": {
    "postcode": "7913513",
    "prefecture": "愛媛県",
    "prefecture_kana": "エヒメケン",
    "prefecture_code": 38,
    "city": "喜多郡内子町",
    "city_kana": "キタグンウチコチョウ",
    "town": "上田渡",
    "town_kana": "カミタド",
    "street": null,
    "office_name": null,
    "office_name_kana": null
  },
  "3514": {
    "postcode": "7913514",
    "prefecture": "愛媛県",
    "prefecture_kana": "エヒメケン",
    "prefecture_code": 38,
    "city": "喜多郡内子町",
    "city_kana": "キタグンウチコチョウ",
    "town": "臼杵",
    "town_kana": "ウスキ",
    "street": null,
    "office_name": null,
    "office_name_kana": null
  },
  "3521": {
    "postcode": "7913521",
    "prefecture": "愛媛県",
    "prefecture_kana": "エヒメケン",
    "prefecture_code": 38,
    "city": "喜多郡内子町",
    "city_kana": "キタグンウチコチョウ",
    "town": "本川",
    "town_kana": "ホンガワ",
    "street": null,
    "office_name": null,
    "office_name_kana": null
  },
  "3522": {
    "postcode": "7913522",
    "prefecture": "愛媛県",
    "prefecture_kana": "エヒメケン",
    "prefecture_code": 38,
    "city": "喜多郡内子町",
    "city_kana": "キタグンウチコチョウ",
    "town": "中川",
    "town_kana": "ナカガワ",
    "street": null,
    "office_name": null,
    "office_name_kana": null
  },
  "3523": {
    "postcode": "7913523",
    "prefecture": "愛媛県",
    "prefecture_kana": "エヒメケン",
    "prefecture_code": 38,
    "city": "喜多郡内子町",
    "city_kana": "キタグンウチコチョウ",
    "town": "上川",
    "town_kana": "カミガワ",
    "street": null,
    "office_name": null,
    "office_name_kana": null
  },
  "3524": {
    "postcode": "7913524",
    "prefecture": "愛媛県",
    "prefecture_kana": "エヒメケン",
    "prefecture_code": 38,
    "city": "喜多郡内子町",
    "city_kana": "キタグンウチコチョウ",
    "town": "小田深山",
    "town_kana": "オダミヤマ",
    "street": null,
    "office_name": null,
    "office_name_kana": null
  },
  "3592": {
    "postcode": "7913592",
    "prefecture": "愛媛県",
    "prefecture_kana": "エヒメケン",
    "prefecture_code": 38,
    "city": "喜多郡内子町",
    "city_kana": "キタグンウチコチョウ",
    "town": "小田",
    "town_kana": "オダ",
    "street": "８２",
    "office_name": "内子町役場　小田支所",
    "office_name_kana": "ウチコチヨウヤクバ オダシシヨ"
  },
  "4321": {
    "postcode": "7914321",
    "prefecture": "愛媛県",
    "prefecture_kana": "エヒメケン",
    "prefecture_code": 38,
    "city": "松山市",
    "city_kana": "マツヤマシ",
    "town": "元怒和",
    "town_kana": "モトヌワ",
    "street": null,
    "office_name": null,
    "office_name_kana": null
  },
  "4322": {
    "postcode": "7914322",
    "prefecture": "愛媛県",
    "prefecture_kana": "エヒメケン",
    "prefecture_code": 38,
    "city": "松山市",
    "city_kana": "マツヤマシ",
    "town": "上怒和",
    "town_kana": "カミヌワ",
    "street": null,
    "office_name": null,
    "office_name_kana": null
  },
  "4323": {
    "postcode": "7914323",
    "prefecture": "愛媛県",
    "prefecture_kana": "エヒメケン",
    "prefecture_code": 38,
    "city": "松山市",
    "city_kana": "マツヤマシ",
    "town": "二神",
    "town_kana": "フタガミ",
    "street": null,
    "office_name": null,
    "office_name_kana": null
  },
  "4324": {
    "postcode": "7914324",
    "prefecture": "愛媛県",
    "prefecture_kana": "エヒメケン",
    "prefecture_code": 38,
    "city": "松山市",
    "city_kana": "マツヤマシ",
    "town": "津和地",
    "town_kana": "ツワジ",
    "street": null,
    "office_name": null,
    "office_name_kana": null
  },
  "4431": {
    "postcode": "7914431",
    "prefecture": "愛媛県",
    "prefecture_kana": "エヒメケン",
    "prefecture_code": 38,
    "city": "松山市",
    "city_kana": "マツヤマシ",
    "town": "睦月",
    "town_kana": "ムヅキ",
    "street": null,
    "office_name": null,
    "office_name_kana": null
  },
  "4432": {
    "postcode": "7914432",
    "prefecture": "愛媛県",
    "prefecture_kana": "エヒメケン",
    "prefecture_code": 38,
    "city": "松山市",
    "city_kana": "マツヤマシ",
    "town": "野忽那",
    "town_kana": "ノグツナ",
    "street": null,
    "office_name": null,
    "office_name_kana": null
  },
  "4501": {
    "postcode": "7914501",
    "prefecture": "愛媛県",
    "prefecture_kana": "エヒメケン",
    "prefecture_code": 38,
    "city": "松山市",
    "city_kana": "マツヤマシ",
    "town": "中島大浦",
    "town_kana": "ナカジマオオウラ",
    "street": null,
    "office_name": null,
    "office_name_kana": null
  },
  "4502": {
    "postcode": "7914502",
    "prefecture": "愛媛県",
    "prefecture_kana": "エヒメケン",
    "prefecture_code": 38,
    "city": "松山市",
    "city_kana": "マツヤマシ",
    "town": "小浜",
    "town_kana": "オバマ",
    "street": null,
    "office_name": null,
    "office_name_kana": null
  },
  "4503": {
    "postcode": "7914503",
    "prefecture": "愛媛県",
    "prefecture_kana": "エヒメケン",
    "prefecture_code": 38,
    "city": "松山市",
    "city_kana": "マツヤマシ",
    "town": "長師",
    "town_kana": "ナガシ",
    "street": null,
    "office_name": null,
    "office_name_kana": null
  },
  "4504": {
    "postcode": "7914504",
    "prefecture": "愛媛県",
    "prefecture_kana": "エヒメケン",
    "prefecture_code": 38,
    "city": "松山市",
    "city_kana": "マツヤマシ",
    "town": "宮野",
    "town_kana": "ミヤノ",
    "street": null,
    "office_name": null,
    "office_name_kana": null
  },
  "4505": {
    "postcode": "7914505",
    "prefecture": "愛媛県",
    "prefecture_kana": "エヒメケン",
    "prefecture_code": 38,
    "city": "松山市",
    "city_kana": "マツヤマシ",
    "town": "神浦",
    "town_kana": "コウノウラ",
    "street": null,
    "office_name": null,
    "office_name_kana": null
  },
  "4506": {
    "postcode": "7914506",
    "prefecture": "愛媛県",
    "prefecture_kana": "エヒメケン",
    "prefecture_code": 38,
    "city": "松山市",
    "city_kana": "マツヤマシ",
    "town": "宇和間",
    "town_kana": "ウワマ",
    "street": null,
    "office_name": null,
    "office_name_kana": null
  },
  "4507": {
    "postcode": "7914507",
    "prefecture": "愛媛県",
    "prefecture_kana": "エヒメケン",
    "prefecture_code": 38,
    "city": "松山市",
    "city_kana": "マツヤマシ",
    "town": "熊田",
    "town_kana": "クマタ",
    "street": null,
    "office_name": null,
    "office_name_kana": null
  },
  "4508": {
    "postcode": "7914508",
    "prefecture": "愛媛県",
    "prefecture_kana": "エヒメケン",
    "prefecture_code": 38,
    "city": "松山市",
    "city_kana": "マツヤマシ",
    "town": "吉木",
    "town_kana": "ヨシキ",
    "street": null,
    "office_name": null,
    "office_name_kana": null
  },
  "4509": {
    "postcode": "7914509",
    "prefecture": "愛媛県",
    "prefecture_kana": "エヒメケン",
    "prefecture_code": 38,
    "city": "松山市",
    "city_kana": "マツヤマシ",
    "town": "饒",
    "town_kana": "ニョウ",
    "street": null,
    "office_name": null,
    "office_name_kana": null
  },
  "4510": {
    "postcode": "7914510",
    "prefecture": "愛媛県",
    "prefecture_kana": "エヒメケン",
    "prefecture_code": 38,
    "city": "松山市",
    "city_kana": "マツヤマシ",
    "town": "畑里",
    "town_kana": "ハタリ",
    "street": null,
    "office_name": null,
    "office_name_kana": null
  },
  "4511": {
    "postcode": "7914511",
    "prefecture": "愛媛県",
    "prefecture_kana": "エヒメケン",
    "prefecture_code": 38,
    "city": "松山市",
    "city_kana": "マツヤマシ",
    "town": "中島粟井",
    "town_kana": "ナカジマアワイ",
    "street": null,
    "office_name": null,
    "office_name_kana": null
  },
  "4592": {
    "postcode": "7914592",
    "prefecture": "愛媛県",
    "prefecture_kana": "エヒメケン",
    "prefecture_code": 38,
    "city": "松山市",
    "city_kana": "マツヤマシ",
    "town": "中島大浦",
    "town_kana": "ナカジマオオウラ",
    "street": "１６２６",
    "office_name": "松山市　中島支所",
    "office_name_kana": "マツヤマシヤクシヨ ナカジマシシヨ"
  },
  "8001": {
    "postcode": "7918001",
    "prefecture": "愛媛県",
    "prefecture_kana": "エヒメケン",
    "prefecture_code": 38,
    "city": "松山市",
    "city_kana": "マツヤマシ",
    "town": "平田町",
    "town_kana": "ヒラタマチ",
    "street": null,
    "office_name": null,
    "office_name_kana": null
  },
  "8002": {
    "postcode": "7918002",
    "prefecture": "愛媛県",
    "prefecture_kana": "エヒメケン",
    "prefecture_code": 38,
    "city": "松山市",
    "city_kana": "マツヤマシ",
    "town": "谷町",
    "town_kana": "タニマチ",
    "street": null,
    "office_name": null,
    "office_name_kana": null
  },
  "8003": {
    "postcode": "7918003",
    "prefecture": "愛媛県",
    "prefecture_kana": "エヒメケン",
    "prefecture_code": 38,
    "city": "松山市",
    "city_kana": "マツヤマシ",
    "town": "志津川町",
    "town_kana": "シツカワマチ",
    "street": null,
    "office_name": null,
    "office_name_kana": null
  },
  "8004": {
    "postcode": "7918004",
    "prefecture": "愛媛県",
    "prefecture_kana": "エヒメケン",
    "prefecture_code": 38,
    "city": "松山市",
    "city_kana": "マツヤマシ",
    "town": "鴨川",
    "town_kana": "カモガワ",
    "street": null,
    "office_name": null,
    "office_name_kana": null
  },
  "8005": {
    "postcode": "7918005",
    "prefecture": "愛媛県",
    "prefecture_kana": "エヒメケン",
    "prefecture_code": 38,
    "city": "松山市",
    "city_kana": "マツヤマシ",
    "town": "東長戸",
    "town_kana": "ヒガシナガト",
    "street": null,
    "office_name": null,
    "office_name_kana": null
  },
  "8006": {
    "postcode": "7918006",
    "prefecture": "愛媛県",
    "prefecture_kana": "エヒメケン",
    "prefecture_code": 38,
    "city": "松山市",
    "city_kana": "マツヤマシ",
    "town": "安城寺町",
    "town_kana": "アンジョウジマチ",
    "street": null,
    "office_name": null,
    "office_name_kana": null
  },
  "8007": {
    "postcode": "7918007",
    "prefecture": "愛媛県",
    "prefecture_kana": "エヒメケン",
    "prefecture_code": 38,
    "city": "松山市",
    "city_kana": "マツヤマシ",
    "town": "高木町",
    "town_kana": "タカギチョウ",
    "street": null,
    "office_name": null,
    "office_name_kana": null
  },
  "8011": {
    "postcode": "7918011",
    "prefecture": "愛媛県",
    "prefecture_kana": "エヒメケン",
    "prefecture_code": 38,
    "city": "松山市",
    "city_kana": "マツヤマシ",
    "town": "吉藤",
    "town_kana": "ヨシフジ",
    "street": null,
    "office_name": null,
    "office_name_kana": null
  },
  "8012": {
    "postcode": "7918012",
    "prefecture": "愛媛県",
    "prefecture_kana": "エヒメケン",
    "prefecture_code": 38,
    "city": "松山市",
    "city_kana": "マツヤマシ",
    "town": "姫原",
    "town_kana": "ヒメバラ",
    "street": null,
    "office_name": null,
    "office_name_kana": null
  },
  "8013": {
    "postcode": "7918013",
    "prefecture": "愛媛県",
    "prefecture_kana": "エヒメケン",
    "prefecture_code": 38,
    "city": "松山市",
    "city_kana": "マツヤマシ",
    "town": "山越",
    "town_kana": "ヤマゴエ",
    "street": null,
    "office_name": null,
    "office_name_kana": null
  },
  "8014": {
    "postcode": "7918014",
    "prefecture": "愛媛県",
    "prefecture_kana": "エヒメケン",
    "prefecture_code": 38,
    "city": "松山市",
    "city_kana": "マツヤマシ",
    "town": "山越町",
    "town_kana": "ヤマゴエマチ",
    "street": null,
    "office_name": null,
    "office_name_kana": null
  },
  "8015": {
    "postcode": "7918015",
    "prefecture": "愛媛県",
    "prefecture_kana": "エヒメケン",
    "prefecture_code": 38,
    "city": "松山市",
    "city_kana": "マツヤマシ",
    "town": "中央",
    "town_kana": "チュウオウ",
    "street": null,
    "office_name": null,
    "office_name_kana": null
  },
  "8016": {
    "postcode": "7918016",
    "prefecture": "愛媛県",
    "prefecture_kana": "エヒメケン",
    "prefecture_code": 38,
    "city": "松山市",
    "city_kana": "マツヤマシ",
    "town": "久万ノ台",
    "town_kana": "クマノダイ",
    "street": null,
    "office_name": null,
    "office_name_kana": null
  },
  "8017": {
    "postcode": "7918017",
    "prefecture": "愛媛県",
    "prefecture_kana": "エヒメケン",
    "prefecture_code": 38,
    "city": "松山市",
    "city_kana": "マツヤマシ",
    "town": "西長戸町",
    "town_kana": "ニシナガトチョウ",
    "street": null,
    "office_name": null,
    "office_name_kana": null
  },
  "8018": {
    "postcode": "7918018",
    "prefecture": "愛媛県",
    "prefecture_kana": "エヒメケン",
    "prefecture_code": 38,
    "city": "松山市",
    "city_kana": "マツヤマシ",
    "town": "問屋町",
    "town_kana": "トイヤチョウ",
    "street": null,
    "office_name": null,
    "office_name_kana": null
  },
  "8019": {
    "postcode": "7918019",
    "prefecture": "愛媛県",
    "prefecture_kana": "エヒメケン",
    "prefecture_code": 38,
    "city": "松山市",
    "city_kana": "マツヤマシ",
    "town": "青葉台",
    "town_kana": "アオバダイ",
    "street": null,
    "office_name": null,
    "office_name_kana": null
  },
  "8021": {
    "postcode": "7918021",
    "prefecture": "愛媛県",
    "prefecture_kana": "エヒメケン",
    "prefecture_code": 38,
    "city": "松山市",
    "city_kana": "マツヤマシ",
    "town": "六軒家町",
    "town_kana": "ロッケンヤチョウ",
    "street": null,
    "office_name": null,
    "office_name_kana": null
  },
  "8022": {
    "postcode": "7918022",
    "prefecture": "愛媛県",
    "prefecture_kana": "エヒメケン",
    "prefecture_code": 38,
    "city": "松山市",
    "city_kana": "マツヤマシ",
    "town": "美沢",
    "town_kana": "ミサワ",
    "street": null,
    "office_name": null,
    "office_name_kana": null
  },
  "8023": {
    "postcode": "7918023",
    "prefecture": "愛媛県",
    "prefecture_kana": "エヒメケン",
    "prefecture_code": 38,
    "city": "松山市",
    "city_kana": "マツヤマシ",
    "town": "朝美",
    "town_kana": "アサミ",
    "street": null,
    "office_name": null,
    "office_name_kana": null
  },
  "8024": {
    "postcode": "7918024",
    "prefecture": "愛媛県",
    "prefecture_kana": "エヒメケン",
    "prefecture_code": 38,
    "city": "松山市",
    "city_kana": "マツヤマシ",
    "town": "朝日ケ丘",
    "town_kana": "アサヒガオカ",
    "street": null,
    "office_name": null,
    "office_name_kana": null
  },
  "8025": {
    "postcode": "7918025",
    "prefecture": "愛媛県",
    "prefecture_kana": "エヒメケン",
    "prefecture_code": 38,
    "city": "松山市",
    "city_kana": "マツヤマシ",
    "town": "衣山",
    "town_kana": "キヌヤマ",
    "street": null,
    "office_name": null,
    "office_name_kana": null
  },
  "8026": {
    "postcode": "7918026",
    "prefecture": "愛媛県",
    "prefecture_kana": "エヒメケン",
    "prefecture_code": 38,
    "city": "松山市",
    "city_kana": "マツヤマシ",
    "town": "山西町",
    "town_kana": "ヤマニシチョウ",
    "street": null,
    "office_name": null,
    "office_name_kana": null
  },
  "8027": {
    "postcode": "7918027",
    "prefecture": "愛媛県",
    "prefecture_kana": "エヒメケン",
    "prefecture_code": 38,
    "city": "松山市",
    "city_kana": "マツヤマシ",
    "town": "明神丘",
    "town_kana": "ミョウジンオカ",
    "street": null,
    "office_name": null,
    "office_name_kana": null
  },
  "8031": {
    "postcode": "7918031",
    "prefecture": "愛媛県",
    "prefecture_kana": "エヒメケン",
    "prefecture_code": 38,
    "city": "松山市",
    "city_kana": "マツヤマシ",
    "town": "北斎院町",
    "town_kana": "キタサヤチョウ",
    "street": null,
    "office_name": null,
    "office_name_kana": null
  },
  "8032": {
    "postcode": "7918032",
    "prefecture": "愛媛県",
    "prefecture_kana": "エヒメケン",
    "prefecture_code": 38,
    "city": "松山市",
    "city_kana": "マツヤマシ",
    "town": "南斎院町",
    "town_kana": "ミナミサヤチョウ",
    "street": null,
    "office_name": null,
    "office_name_kana": null
  },
  "8034": {
    "postcode": "7918034",
    "prefecture": "愛媛県",
    "prefecture_kana": "エヒメケン",
    "prefecture_code": 38,
    "city": "松山市",
    "city_kana": "マツヤマシ",
    "town": "富久町",
    "town_kana": "トミヒサマチ",
    "street": null,
    "office_name": null,
    "office_name_kana": null
  },
  "8035": {
    "postcode": "7918035",
    "prefecture": "愛媛県",
    "prefecture_kana": "エヒメケン",
    "prefecture_code": 38,
    "city": "松山市",
    "city_kana": "マツヤマシ",
    "town": "久保田町",
    "town_kana": "クボタマチ",
    "street": null,
    "office_name": null,
    "office_name_kana": null
  },
  "8036": {
    "postcode": "7918036",
    "prefecture": "愛媛県",
    "prefecture_kana": "エヒメケン",
    "prefecture_code": 38,
    "city": "松山市",
    "city_kana": "マツヤマシ",
    "town": "高岡町",
    "town_kana": "タカオカマチ",
    "street": null,
    "office_name": null,
    "office_name_kana": null
  },
  "8041": {
    "postcode": "7918041",
    "prefecture": "愛媛県",
    "prefecture_kana": "エヒメケン",
    "prefecture_code": 38,
    "city": "松山市",
    "city_kana": "マツヤマシ",
    "town": "北吉田町",
    "town_kana": "キタヨシダマチ",
    "street": null,
    "office_name": null,
    "office_name_kana": null
  },
  "8042": {
    "postcode": "7918042",
    "prefecture": "愛媛県",
    "prefecture_kana": "エヒメケン",
    "prefecture_code": 38,
    "city": "松山市",
    "city_kana": "マツヤマシ",
    "town": "南吉田町",
    "town_kana": "ミナミヨシダマチ",
    "street": null,
    "office_name": null,
    "office_name_kana": null
  },
  "8043": {
    "postcode": "7918043",
    "prefecture": "愛媛県",
    "prefecture_kana": "エヒメケン",
    "prefecture_code": 38,
    "city": "松山市",
    "city_kana": "マツヤマシ",
    "town": "東垣生町",
    "town_kana": "ヒガシハブマチ",
    "street": null,
    "office_name": null,
    "office_name_kana": null
  },
  "8044": {
    "postcode": "7918044",
    "prefecture": "愛媛県",
    "prefecture_kana": "エヒメケン",
    "prefecture_code": 38,
    "city": "松山市",
    "city_kana": "マツヤマシ",
    "town": "西垣生町",
    "town_kana": "ニシハブマチ",
    "street": null,
    "office_name": null,
    "office_name_kana": null
  },
  "8051": {
    "postcode": "7918051",
    "prefecture": "愛媛県",
    "prefecture_kana": "エヒメケン",
    "prefecture_code": 38,
    "city": "松山市",
    "city_kana": "マツヤマシ",
    "town": "梅田町",
    "town_kana": "ウメダマチ",
    "street": null,
    "office_name": null,
    "office_name_kana": null
  },
  "8052": {
    "postcode": "7918052",
    "prefecture": "愛媛県",
    "prefecture_kana": "エヒメケン",
    "prefecture_code": 38,
    "city": "松山市",
    "city_kana": "マツヤマシ",
    "town": "須賀町",
    "town_kana": "スガマチ",
    "street": null,
    "office_name": null,
    "office_name_kana": null
  },
  "8053": {
    "postcode": "7918053",
    "prefecture": "愛媛県",
    "prefecture_kana": "エヒメケン",
    "prefecture_code": 38,
    "city": "松山市",
    "city_kana": "マツヤマシ",
    "town": "若葉町",
    "town_kana": "ワカバチョウ",
    "street": null,
    "office_name": null,
    "office_name_kana": null
  },
  "8054": {
    "postcode": "7918054",
    "prefecture": "愛媛県",
    "prefecture_kana": "エヒメケン",
    "prefecture_code": 38,
    "city": "松山市",
    "city_kana": "マツヤマシ",
    "town": "松江町",
    "town_kana": "マツエチョウ",
    "street": null,
    "office_name": null,
    "office_name_kana": null
  },
  "8055": {
    "postcode": "7918055",
    "prefecture": "愛媛県",
    "prefecture_kana": "エヒメケン",
    "prefecture_code": 38,
    "city": "松山市",
    "city_kana": "マツヤマシ",
    "town": "清住",
    "town_kana": "キヨスミ",
    "street": null,
    "office_name": null,
    "office_name_kana": null
  },
  "8056": {
    "postcode": "7918056",
    "prefecture": "愛媛県",
    "prefecture_kana": "エヒメケン",
    "prefecture_code": 38,
    "city": "松山市",
    "city_kana": "マツヤマシ",
    "town": "別府町",
    "town_kana": "ベフチョウ",
    "street": null,
    "office_name": null,
    "office_name_kana": null
  },
  "8057": {
    "postcode": "7918057",
    "prefecture": "愛媛県",
    "prefecture_kana": "エヒメケン",
    "prefecture_code": 38,
    "city": "松山市",
    "city_kana": "マツヤマシ",
    "town": "大可賀",
    "town_kana": "オオカガ",
    "street": null,
    "office_name": null,
    "office_name_kana": null
  },
  "8058": {
    "postcode": "7918058",
    "prefecture": "愛媛県",
    "prefecture_kana": "エヒメケン",
    "prefecture_code": 38,
    "city": "松山市",
    "city_kana": "マツヤマシ",
    "town": "海岸通",
    "town_kana": "カイガンドオリ",
    "street": null,
    "office_name": null,
    "office_name_kana": null
  },
  "8060": {
    "postcode": "7918060",
    "prefecture": "愛媛県",
    "prefecture_kana": "エヒメケン",
    "prefecture_code": 38,
    "city": "松山市",
    "city_kana": "マツヤマシ",
    "town": "三津ふ頭",
    "town_kana": "ミツフトウ",
    "street": null,
    "office_name": null,
    "office_name_kana": null
  },
  "8061": {
    "postcode": "7918061",
    "prefecture": "愛媛県",
    "prefecture_kana": "エヒメケン",
    "prefecture_code": 38,
    "city": "松山市",
    "city_kana": "マツヤマシ",
    "town": "三津",
    "town_kana": "ミツ",
    "street": null,
    "office_name": null,
    "office_name_kana": null
  },
  "8062": {
    "postcode": "7918062",
    "prefecture": "愛媛県",
    "prefecture_kana": "エヒメケン",
    "prefecture_code": 38,
    "city": "松山市",
    "city_kana": "マツヤマシ",
    "town": "住吉",
    "town_kana": "スミヨシ",
    "street": null,
    "office_name": null,
    "office_name_kana": null
  },
  "8063": {
    "postcode": "7918063",
    "prefecture": "愛媛県",
    "prefecture_kana": "エヒメケン",
    "prefecture_code": 38,
    "city": "松山市",
    "city_kana": "マツヤマシ",
    "town": "神田町",
    "town_kana": "カンダマチ",
    "street": null,
    "office_name": null,
    "office_name_kana": null
  },
  "8064": {
    "postcode": "7918064",
    "prefecture": "愛媛県",
    "prefecture_kana": "エヒメケン",
    "prefecture_code": 38,
    "city": "松山市",
    "city_kana": "マツヤマシ",
    "town": "元町",
    "town_kana": "モトマチ",
    "street": null,
    "office_name": null,
    "office_name_kana": null
  },
  "8065": {
    "postcode": "7918065",
    "prefecture": "愛媛県",
    "prefecture_kana": "エヒメケン",
    "prefecture_code": 38,
    "city": "松山市",
    "city_kana": "マツヤマシ",
    "town": "三杉町",
    "town_kana": "ミスギマチ",
    "street": null,
    "office_name": null,
    "office_name_kana": null
  },
  "8066": {
    "postcode": "7918066",
    "prefecture": "愛媛県",
    "prefecture_kana": "エヒメケン",
    "prefecture_code": 38,
    "city": "松山市",
    "city_kana": "マツヤマシ",
    "town": "祓川",
    "town_kana": "ハライカワ",
    "street": null,
    "office_name": null,
    "office_name_kana": null
  },
  "8067": [
    {
      "postcode": "7918067",
      "prefecture": "愛媛県",
      "prefecture_kana": "エヒメケン",
      "prefecture_code": 38,
      "city": "松山市",
      "city_kana": "マツヤマシ",
      "town": "古三津",
      "town_kana": "フルミツ",
      "street": null,
      "office_name": null,
      "office_name_kana": null
    },
    {
      "postcode": "7918067",
      "prefecture": "愛媛県",
      "prefecture_kana": "エヒメケン",
      "prefecture_code": 38,
      "city": "松山市",
      "city_kana": "マツヤマシ",
      "town": "古三津町",
      "town_kana": "フルミツマチ",
      "street": null,
      "office_name": null,
      "office_name_kana": null
    }
  ],
  "8068": {
    "postcode": "7918068",
    "prefecture": "愛媛県",
    "prefecture_kana": "エヒメケン",
    "prefecture_code": 38,
    "city": "松山市",
    "city_kana": "マツヤマシ",
    "town": "みどりケ丘",
    "town_kana": "ミドリガオカ",
    "street": null,
    "office_name": null,
    "office_name_kana": null
  },
  "8069": {
    "postcode": "7918069",
    "prefecture": "愛媛県",
    "prefecture_kana": "エヒメケン",
    "prefecture_code": 38,
    "city": "松山市",
    "city_kana": "マツヤマシ",
    "town": "吉野町",
    "town_kana": "ヨシノチョウ",
    "street": null,
    "office_name": null,
    "office_name_kana": null
  },
  "8071": {
    "postcode": "7918071",
    "prefecture": "愛媛県",
    "prefecture_kana": "エヒメケン",
    "prefecture_code": 38,
    "city": "松山市",
    "city_kana": "マツヤマシ",
    "town": "松ノ木",
    "town_kana": "マツノキ",
    "street": null,
    "office_name": null,
    "office_name_kana": null
  },
  "8072": {
    "postcode": "7918072",
    "prefecture": "愛媛県",
    "prefecture_kana": "エヒメケン",
    "prefecture_code": 38,
    "city": "松山市",
    "city_kana": "マツヤマシ",
    "town": "桜ケ丘",
    "town_kana": "サクラガオカ",
    "street": null,
    "office_name": null,
    "office_name_kana": null
  },
  "8073": {
    "postcode": "7918073",
    "prefecture": "愛媛県",
    "prefecture_kana": "エヒメケン",
    "prefecture_code": 38,
    "city": "松山市",
    "city_kana": "マツヤマシ",
    "town": "船ケ谷町",
    "town_kana": "フネガタニチョウ",
    "street": null,
    "office_name": null,
    "office_name_kana": null
  },
  "8074": {
    "postcode": "7918074",
    "prefecture": "愛媛県",
    "prefecture_kana": "エヒメケン",
    "prefecture_code": 38,
    "city": "松山市",
    "city_kana": "マツヤマシ",
    "town": "東山町",
    "town_kana": "ヒガシヤママチ",
    "street": null,
    "office_name": null,
    "office_name_kana": null
  },
  "8075": {
    "postcode": "7918075",
    "prefecture": "愛媛県",
    "prefecture_kana": "エヒメケン",
    "prefecture_code": 38,
    "city": "松山市",
    "city_kana": "マツヤマシ",
    "town": "ひばりケ丘",
    "town_kana": "ヒバリガオカ",
    "street": null,
    "office_name": null,
    "office_name_kana": null
  },
  "8076": {
    "postcode": "7918076",
    "prefecture": "愛媛県",
    "prefecture_kana": "エヒメケン",
    "prefecture_code": 38,
    "city": "松山市",
    "city_kana": "マツヤマシ",
    "town": "会津町",
    "town_kana": "アイヅマチ",
    "street": null,
    "office_name": null,
    "office_name_kana": null
  },
  "8077": {
    "postcode": "7918077",
    "prefecture": "愛媛県",
    "prefecture_kana": "エヒメケン",
    "prefecture_code": 38,
    "city": "松山市",
    "city_kana": "マツヤマシ",
    "town": "内浜町",
    "town_kana": "ウチハマチョウ",
    "street": null,
    "office_name": null,
    "office_name_kana": null
  },
  "8078": {
    "postcode": "7918078",
    "prefecture": "愛媛県",
    "prefecture_kana": "エヒメケン",
    "prefecture_code": 38,
    "city": "松山市",
    "city_kana": "マツヤマシ",
    "town": "中須賀",
    "town_kana": "ナカスガ",
    "street": null,
    "office_name": null,
    "office_name_kana": null
  },
  "8079": {
    "postcode": "7918079",
    "prefecture": "愛媛県",
    "prefecture_kana": "エヒメケン",
    "prefecture_code": 38,
    "city": "松山市",
    "city_kana": "マツヤマシ",
    "town": "高山町",
    "town_kana": "タカヤマチョウ",
    "street": null,
    "office_name": null,
    "office_name_kana": null
  },
  "8081": {
    "postcode": "7918081",
    "prefecture": "愛媛県",
    "prefecture_kana": "エヒメケン",
    "prefecture_code": 38,
    "city": "松山市",
    "city_kana": "マツヤマシ",
    "town": "高浜町",
    "town_kana": "タカハママチ",
    "street": null,
    "office_name": null,
    "office_name_kana": null
  },
  "8082": {
    "postcode": "7918082",
    "prefecture": "愛媛県",
    "prefecture_kana": "エヒメケン",
    "prefecture_code": 38,
    "city": "松山市",
    "city_kana": "マツヤマシ",
    "town": "梅津寺町",
    "town_kana": "バイシンジマチ",
    "street": null,
    "office_name": null,
    "office_name_kana": null
  },
  "8083": {
    "postcode": "7918083",
    "prefecture": "愛媛県",
    "prefecture_kana": "エヒメケン",
    "prefecture_code": 38,
    "city": "松山市",
    "city_kana": "マツヤマシ",
    "town": "新浜町",
    "town_kana": "シンハママチ",
    "street": null,
    "office_name": null,
    "office_name_kana": null
  },
  "8084": {
    "postcode": "7918084",
    "prefecture": "愛媛県",
    "prefecture_kana": "エヒメケン",
    "prefecture_code": 38,
    "city": "松山市",
    "city_kana": "マツヤマシ",
    "town": "石風呂町",
    "town_kana": "イシフロマチ",
    "street": null,
    "office_name": null,
    "office_name_kana": null
  },
  "8085": {
    "postcode": "7918085",
    "prefecture": "愛媛県",
    "prefecture_kana": "エヒメケン",
    "prefecture_code": 38,
    "city": "松山市",
    "city_kana": "マツヤマシ",
    "town": "港山町",
    "town_kana": "ミナトヤママチ",
    "street": null,
    "office_name": null,
    "office_name_kana": null
  },
  "8086": {
    "postcode": "7918086",
    "prefecture": "愛媛県",
    "prefecture_kana": "エヒメケン",
    "prefecture_code": 38,
    "city": "松山市",
    "city_kana": "マツヤマシ",
    "town": "辰巳町",
    "town_kana": "タツミチョウ",
    "street": null,
    "office_name": null,
    "office_name_kana": null
  },
  "8087": {
    "postcode": "7918087",
    "prefecture": "愛媛県",
    "prefecture_kana": "エヒメケン",
    "prefecture_code": 38,
    "city": "松山市",
    "city_kana": "マツヤマシ",
    "town": "春美町",
    "town_kana": "ハルミチョウ",
    "street": null,
    "office_name": null,
    "office_name_kana": null
  },
  "8091": {
    "postcode": "7918091",
    "prefecture": "愛媛県",
    "prefecture_kana": "エヒメケン",
    "prefecture_code": 38,
    "city": "松山市",
    "city_kana": "マツヤマシ",
    "town": "門田町",
    "town_kana": "カドタマチ",
    "street": null,
    "office_name": null,
    "office_name_kana": null
  },
  "8092": {
    "postcode": "7918092",
    "prefecture": "愛媛県",
    "prefecture_kana": "エヒメケン",
    "prefecture_code": 38,
    "city": "松山市",
    "city_kana": "マツヤマシ",
    "town": "由良町",
    "town_kana": "ユラマチ",
    "street": null,
    "office_name": null,
    "office_name_kana": null
  },
  "8093": {
    "postcode": "7918093",
    "prefecture": "愛媛県",
    "prefecture_kana": "エヒメケン",
    "prefecture_code": 38,
    "city": "松山市",
    "city_kana": "マツヤマシ",
    "town": "泊町",
    "town_kana": "トマリマチ",
    "street": null,
    "office_name": null,
    "office_name_kana": null
  },
  "8501": {
    "postcode": "7918501",
    "prefecture": "愛媛県",
    "prefecture_kana": "エヒメケン",
    "prefecture_code": 38,
    "city": "松山市",
    "city_kana": "マツヤマシ",
    "town": "衣山",
    "town_kana": "キヌヤマ",
    "street": "５丁目１６１０−１",
    "office_name": "学校法人　愛光学園",
    "office_name_kana": "ガツコウホウジン アイコウガクエン"
  },
  "8502": {
    "postcode": "7918502",
    "prefecture": "愛媛県",
    "prefecture_kana": "エヒメケン",
    "prefecture_code": 38,
    "city": "松山市",
    "city_kana": "マツヤマシ",
    "town": "久万ノ台",
    "town_kana": "クマノダイ",
    "street": "１０６８番４",
    "office_name": "トラスコ中山　株式会社　松山営業所",
    "office_name_kana": "トラスコナカヤマ カブシキガイシヤ マツヤマエイギヨウシヨ"
  },
  "8505": {
    "postcode": "7918505",
    "prefecture": "愛媛県",
    "prefecture_kana": "エヒメケン",
    "prefecture_code": 38,
    "city": "松山市",
    "city_kana": "マツヤマシ",
    "town": "大可賀",
    "town_kana": "オオカガ",
    "street": "３丁目１５０番地８",
    "office_name": "株式会社　ハート",
    "office_name_kana": "カブシキガイシヤ ハ-ト"
  },
  "8506": {
    "postcode": "7918506",
    "prefecture": "愛媛県",
    "prefecture_kana": "エヒメケン",
    "prefecture_code": 38,
    "city": "松山市",
    "city_kana": "マツヤマシ",
    "town": "空港通",
    "town_kana": "クウコウドオリ",
    "street": "５丁目９−１",
    "office_name": "東芝ファイナンス　（株）　愛媛営業所",
    "office_name_kana": "トウシバフアイナンス カブシキガイシヤ エヒメエイギヨウシヨ"
  },
  "8507": {
    "postcode": "7918507",
    "prefecture": "愛媛県",
    "prefecture_kana": "エヒメケン",
    "prefecture_code": 38,
    "city": "松山市",
    "city_kana": "マツヤマシ",
    "town": "久万ノ台",
    "town_kana": "クマノダイ",
    "street": "６８９",
    "office_name": "（株）　パステムマツザワ",
    "office_name_kana": "カブシキガイシヤ パステムマツザワ"
  },
  "8508": {
    "postcode": "7918508",
    "prefecture": "愛媛県",
    "prefecture_kana": "エヒメケン",
    "prefecture_code": 38,
    "city": "松山市",
    "city_kana": "マツヤマシ",
    "town": "南斎院町",
    "town_kana": "ミナミサヤチョウ",
    "street": "３４５",
    "office_name": "北四国商事　（株）",
    "office_name_kana": "キタシコクシヨウジ カブシキガイシヤ"
  },
  "8510": {
    "postcode": "7918510",
    "prefecture": "愛媛県",
    "prefecture_kana": "エヒメケン",
    "prefecture_code": 38,
    "city": "松山市",
    "city_kana": "マツヤマシ",
    "town": "空港通",
    "town_kana": "クウコウドオリ",
    "street": "４丁目５番５号",
    "office_name": "四国名鉄運輸　株式会社",
    "office_name_kana": "シコクメイテツウンユ カブシキガイシヤ"
  },
  "8511": {
    "postcode": "7918511",
    "prefecture": "愛媛県",
    "prefecture_kana": "エヒメケン",
    "prefecture_code": 38,
    "city": "松山市",
    "city_kana": "マツヤマシ",
    "town": "中央",
    "town_kana": "チュウオウ",
    "street": "１丁目１６−５",
    "office_name": "トヨタカローラ愛媛　（株）",
    "office_name_kana": "トヨタカロ-ラエヒメ カブシキガイシヤ"
  },
  "8512": {
    "postcode": "7918512",
    "prefecture": "愛媛県",
    "prefecture_kana": "エヒメケン",
    "prefecture_code": 38,
    "city": "松山市",
    "city_kana": "マツヤマシ",
    "town": "空港通",
    "town_kana": "クウコウドオリ",
    "street": "５丁目７−９",
    "office_name": "愛媛トヨペット　株式会社",
    "office_name_kana": "エヒメトヨペツト カブシキガイシヤ"
  },
  "8513": {
    "postcode": "7918513",
    "prefecture": "愛媛県",
    "prefecture_kana": "エヒメケン",
    "prefecture_code": 38,
    "city": "松山市",
    "city_kana": "マツヤマシ",
    "town": "北吉田町",
    "town_kana": "キタヨシダマチ",
    "street": "７７番地",
    "office_name": "ＴＭＴマシナリー　株式会社　松山工場",
    "office_name_kana": "テイ-エムテイ-マシナリ- カブシキガイシヤ マツヤマコウジヨウ"
  },
  "8516": {
    "postcode": "7918516",
    "prefecture": "愛媛県",
    "prefecture_kana": "エヒメケン",
    "prefecture_code": 38,
    "city": "松山市",
    "city_kana": "マツヤマシ",
    "town": "大可賀",
    "town_kana": "オオカガ",
    "street": "３丁目５８０",
    "office_name": "コスモ松山石油　（株）",
    "office_name_kana": "コスモマツヤマセキユ カブシキガイシヤ"
  },
  "8517": {
    "postcode": "7918517",
    "prefecture": "愛媛県",
    "prefecture_kana": "エヒメケン",
    "prefecture_code": 38,
    "city": "松山市",
    "city_kana": "マツヤマシ",
    "town": "美沢",
    "town_kana": "ミサワ",
    "street": "１丁目９−１",
    "office_name": "ＤＣＭ　株式会社",
    "office_name_kana": "デイ-シ-エム カブシキガイシヤ"
  },
  "8518": {
    "postcode": "7918518",
    "prefecture": "愛媛県",
    "prefecture_kana": "エヒメケン",
    "prefecture_code": 38,
    "city": "松山市",
    "city_kana": "マツヤマシ",
    "town": "古三津",
    "town_kana": "フルミツ",
    "street": "２丁目１６−３",
    "office_name": "フジケンエンジニアリング　（株）",
    "office_name_kana": "フジケンエンジニアリング カブシキガイシヤ"
  },
  "8523": {
    "postcode": "7918523",
    "prefecture": "愛媛県",
    "prefecture_kana": "エヒメケン",
    "prefecture_code": 38,
    "city": "松山市",
    "city_kana": "マツヤマシ",
    "town": "六軒家町",
    "town_kana": "ロッケンヤチョウ",
    "street": "３−２７",
    "office_name": "松山労働基準監督署",
    "office_name_kana": "マツヤマロウドウキジユンカントクシヨ"
  },
  "8524": {
    "postcode": "7918524",
    "prefecture": "愛媛県",
    "prefecture_kana": "エヒメケン",
    "prefecture_code": 38,
    "city": "松山市",
    "city_kana": "マツヤマシ",
    "town": "衣山",
    "town_kana": "キヌヤマ",
    "street": "１丁目２−５",
    "office_name": "（株）　アテックス",
    "office_name_kana": "カブシキガイシヤ アテツクス"
  },
  "8525": {
    "postcode": "7918525",
    "prefecture": "愛媛県",
    "prefecture_kana": "エヒメケン",
    "prefecture_code": 38,
    "city": "松山市",
    "city_kana": "マツヤマシ",
    "town": "北吉田町",
    "town_kana": "キタヨシダマチ",
    "street": "７７番地",
    "office_name": "株式会社　大阪ソーダ　松山工場",
    "office_name_kana": "カブシキガイシヤ オオサカソ-ダ マツヤマコウジヨウ"
  },
  "8527": {
    "postcode": "7918527",
    "prefecture": "愛媛県",
    "prefecture_kana": "エヒメケン",
    "prefecture_code": 38,
    "city": "松山市",
    "city_kana": "マツヤマシ",
    "town": "久万ノ台",
    "town_kana": "クマノダイ",
    "street": "５７７−１",
    "office_name": "尾家産業　（株）　松山営業所",
    "office_name_kana": "オイエサンギヨウ カブシキガイシヤ マツヤマエイギヨウシヨ"
  },
  "8528": {
    "postcode": "7918528",
    "prefecture": "愛媛県",
    "prefecture_kana": "エヒメケン",
    "prefecture_code": 38,
    "city": "松山市",
    "city_kana": "マツヤマシ",
    "town": "中央",
    "town_kana": "チュウオウ",
    "street": "１丁目４−２",
    "office_name": "（株）日本文具",
    "office_name_kana": "カブシキガイシヤ ニホンブング"
  },
  "8530": {
    "postcode": "7918530",
    "prefecture": "愛媛県",
    "prefecture_kana": "エヒメケン",
    "prefecture_code": 38,
    "city": "松山市",
    "city_kana": "マツヤマシ",
    "town": "北吉田町",
    "town_kana": "キタヨシダマチ",
    "street": "７７",
    "office_name": "帝人　（株）　松山事業所",
    "office_name_kana": "テイジン カブシキガイシヤ マツヤマジギヨウシヨ"
  },
  "8531": {
    "postcode": "7918531",
    "prefecture": "愛媛県",
    "prefecture_kana": "エヒメケン",
    "prefecture_code": 38,
    "city": "松山市",
    "city_kana": "マツヤマシ",
    "town": "安城寺町",
    "town_kana": "アンジョウジマチ",
    "street": "５７１",
    "office_name": "ダイヤアルミ　（株）",
    "office_name_kana": "ダイヤアルミ カブシキガイシヤ"
  },
  "8535": {
    "postcode": "7918535",
    "prefecture": "愛媛県",
    "prefecture_kana": "エヒメケン",
    "prefecture_code": 38,
    "city": "松山市",
    "city_kana": "マツヤマシ",
    "town": "高岡町",
    "town_kana": "タカオカマチ",
    "street": "１５１",
    "office_name": "コマツカスタマーサポート　株式会社",
    "office_name_kana": "コマツカスタマ-サポ-ト カブシキガイシヤ"
  },
  "8536": {
    "postcode": "7918536",
    "prefecture": "愛媛県",
    "prefecture_kana": "エヒメケン",
    "prefecture_code": 38,
    "city": "松山市",
    "city_kana": "マツヤマシ",
    "town": "西垣生町",
    "town_kana": "ニシハブマチ",
    "street": "２−３−４５",
    "office_name": "帝人株式会社　松山事業所",
    "office_name_kana": "テイジンカブシキカイシヤ マツヤマジギヨウシヨ"
  },
  "8538": {
    "postcode": "7918538",
    "prefecture": "愛媛県",
    "prefecture_kana": "エヒメケン",
    "prefecture_code": 38,
    "city": "松山市",
    "city_kana": "マツヤマシ",
    "town": "富久町",
    "town_kana": "トミヒサマチ",
    "street": "４２２−７",
    "office_name": "（株）　城西",
    "office_name_kana": "カブシキガイシヤ ジヨウセイ"
  },
  "8550": {
    "postcode": "7918550",
    "prefecture": "愛媛県",
    "prefecture_kana": "エヒメケン",
    "prefecture_code": 38,
    "city": "松山市",
    "city_kana": "マツヤマシ",
    "town": "高岡町",
    "town_kana": "タカオカマチ",
    "street": "１０１番地１",
    "office_name": "愛媛県国民健康保険団体連合会",
    "office_name_kana": "エヒメケンコクミンケンコウホケンダンタイレンゴウカイ"
  },
  "8551": {
    "postcode": "7918551",
    "prefecture": "愛媛県",
    "prefecture_kana": "エヒメケン",
    "prefecture_code": 38,
    "city": "松山市",
    "city_kana": "マツヤマシ",
    "town": "山西町",
    "town_kana": "ヤマニシチョウ",
    "street": "６００番地１",
    "office_name": "新田青雲中等教育学校",
    "office_name_kana": "ニツタセイウンチユウトウキヨウイクガツコウ"
  },
  "8555": {
    "postcode": "7918555",
    "prefecture": "愛媛県",
    "prefecture_kana": "エヒメケン",
    "prefecture_code": 38,
    "city": "松山市",
    "city_kana": "マツヤマシ",
    "town": "六軒家町",
    "town_kana": "ロッケンヤチョウ",
    "street": "４−２０",
    "office_name": "おおぞら病院",
    "office_name_kana": "オオゾラビヨウイン"
  },
  "8603": {
    "postcode": "7918603",
    "prefecture": "愛媛県",
    "prefecture_kana": "エヒメケン",
    "prefecture_code": 38,
    "city": "松山市",
    "city_kana": "マツヤマシ",
    "town": "安城寺町",
    "town_kana": "アンジョウジマチ",
    "street": "４７８（松山西郵便局私書箱第１２号）",
    "office_name": "株式会社　えひめ飲料",
    "office_name_kana": "カブシキガイシヤ エヒメインリヨウ"
  },
  "8604": {
    "postcode": "7918604",
    "prefecture": "愛媛県",
    "prefecture_kana": "エヒメケン",
    "prefecture_code": 38,
    "city": "松山市",
    "city_kana": "マツヤマシ",
    "town": "山西町",
    "town_kana": "ヤマニシチョウ",
    "street": "６６３",
    "office_name": "新田高等学校",
    "office_name_kana": "ニツタコウトウガツコウ"
  },
  "8671": {
    "postcode": "7918671",
    "prefecture": "愛媛県",
    "prefecture_kana": "エヒメケン",
    "prefecture_code": 38,
    "city": "松山市",
    "city_kana": "マツヤマシ",
    "town": "問屋町",
    "town_kana": "トイヤチョウ",
    "street": "４−２８（松山問屋町郵便局私書箱第１号）",
    "office_name": "（株）　一色本店",
    "office_name_kana": "カブシキガイシヤ イツシキホンテン"
  },
  "8672": {
    "postcode": "7918672",
    "prefecture": "愛媛県",
    "prefecture_kana": "エヒメケン",
    "prefecture_code": 38,
    "city": "松山市",
    "city_kana": "マツヤマシ",
    "town": "姫原",
    "town_kana": "ヒメバラ",
    "street": "３丁目５番１１号",
    "office_name": "株式会社　カナックス",
    "office_name_kana": "カブシキガイシヤ カナツクス"
  },
  "8675": {
    "postcode": "7918675",
    "prefecture": "愛媛県",
    "prefecture_kana": "エヒメケン",
    "prefecture_code": 38,
    "city": "松山市",
    "city_kana": "マツヤマシ",
    "town": "問屋町",
    "town_kana": "トイヤチョウ",
    "street": "６−２６（松山問屋町郵便局私書箱第２６号）",
    "office_name": "株式会社　松宮",
    "office_name_kana": "カブシキカイシヤ マツミヤ"
  },
  "8677": {
    "postcode": "7918677",
    "prefecture": "愛媛県",
    "prefecture_kana": "エヒメケン",
    "prefecture_code": 38,
    "city": "松山市",
    "city_kana": "マツヤマシ",
    "town": "久万ノ台",
    "town_kana": "クマノダイ",
    "street": "３４８−１",
    "office_name": "丸温松山中央青果　株式会社",
    "office_name_kana": "マルオンマツヤマチユウオウセイカ カブシキガイシヤ"
  }
}