{
  "0000": {
    "postcode": "7920000",
    "prefecture": "愛媛県",
    "prefecture_kana": "エヒメケン",
    "prefecture_code": 38,
    "city": "新居浜市",
    "city_kana": "ニイハマシ",
    "town": "",
    "town_kana": "",
    "street": null,
    "office_name": null,
    "office_name_kana": null
  },
  "0001": {
    "postcode": "7920001",
    "prefecture": "愛媛県",
    "prefecture_kana": "エヒメケン",
    "prefecture_code": 38,
    "city": "新居浜市",
    "city_kana": "ニイハマシ",
    "town": "惣開町",
    "town_kana": "ソウビラキチョウ",
    "street": null,
    "office_name": null,
    "office_name_kana": null
  },
  "0002": {
    "postcode": "7920002",
    "prefecture": "愛媛県",
    "prefecture_kana": "エヒメケン",
    "prefecture_code": 38,
    "city": "新居浜市",
    "city_kana": "ニイハマシ",
    "town": "磯浦町",
    "town_kana": "イソウラチョウ",
    "street": null,
    "office_name": null,
    "office_name_kana": null
  },
  "0003": {
    "postcode": "7920003",
    "prefecture": "愛媛県",
    "prefecture_kana": "エヒメケン",
    "prefecture_code": 38,
    "city": "新居浜市",
    "city_kana": "ニイハマシ",
    "town": "新田町",
    "town_kana": "シンデンチョウ",
    "street": null,
    "office_name": null,
    "office_name_kana": null
  },
  "0004": {
    "postcode": "7920004",
    "prefecture": "愛媛県",
    "prefecture_kana": "エヒメケン",
    "prefecture_code": 38,
    "city": "新居浜市",
    "city_kana": "ニイハマシ",
    "town": "北新町",
    "town_kana": "キタシンマチ",
    "street": null,
    "office_name": null,
    "office_name_kana": null
  },
  "0005": {
    "postcode": "7920005",
    "prefecture": "愛媛県",
    "prefecture_kana": "エヒメケン",
    "prefecture_code": 38,
    "city": "新居浜市",
    "city_kana": "ニイハマシ",
    "town": "江口町",
    "town_kana": "エグチチョウ",
    "street": null,
    "office_name": null,
    "office_name_kana": null
  },
  "0006": {
    "postcode": "7920006",
    "prefecture": "愛媛県",
    "prefecture_kana": "エヒメケン",
    "prefecture_code": 38,
    "city": "新居浜市",
    "city_kana": "ニイハマシ",
    "town": "河内町",
    "town_kana": "コウチチョウ",
    "street": null,
    "office_name": null,
    "office_name_kana": null
  },
  "0007": {
    "postcode": "7920007",
    "prefecture": "愛媛県",
    "prefecture_kana": "エヒメケン",
    "prefecture_code": 38,
    "city": "新居浜市",
    "city_kana": "ニイハマシ",
    "town": "前田町",
    "town_kana": "マエダチョウ",
    "street": null,
    "office_name": null,
    "office_name_kana": null
  },
  "0008": {
    "postcode": "7920008",
    "prefecture": "愛媛県",
    "prefecture_kana": "エヒメケン",
    "prefecture_code": 38,
    "city": "新居浜市",
    "city_kana": "ニイハマシ",
    "town": "王子町",
    "town_kana": "オウジチョウ",
    "street": null,
    "office_name": null,
    "office_name_kana": null
  },
  "0009": {
    "postcode": "7920009",
    "prefecture": "愛媛県",
    "prefecture_kana": "エヒメケン",
    "prefecture_code": 38,
    "city": "新居浜市",
    "city_kana": "ニイハマシ",
    "town": "星越町",
    "town_kana": "ホシゴエチョウ",
    "street": null,
    "office_name": null,
    "office_name_kana": null
  },
  "0011": {
    "postcode": "7920011",
    "prefecture": "愛媛県",
    "prefecture_kana": "エヒメケン",
    "prefecture_code": 38,
    "city": "新居浜市",
    "city_kana": "ニイハマシ",
    "town": "西原町",
    "town_kana": "ニシバラチョウ",
    "street": null,
    "office_name": null,
    "office_name_kana": null
  },
  "0012": {
    "postcode": "7920012",
    "prefecture": "愛媛県",
    "prefecture_kana": "エヒメケン",
    "prefecture_code": 38,
    "city": "新居浜市",
    "city_kana": "ニイハマシ",
    "town": "中須賀町",
    "town_kana": "ナカスカチョウ",
    "street": null,
    "office_name": null,
    "office_name_kana": null
  },
  "0013": {
    "postcode": "7920013",
    "prefecture": "愛媛県",
    "prefecture_kana": "エヒメケン",
    "prefecture_code": 38,
    "city": "新居浜市",
    "city_kana": "ニイハマシ",
    "town": "泉池町",
    "town_kana": "イズミイケチョウ",
    "street": null,
    "office_name": null,
    "office_name_kana": null
  },
  "0014": {
    "postcode": "7920014",
    "prefecture": "愛媛県",
    "prefecture_kana": "エヒメケン",
    "prefecture_code": 38,
    "city": "新居浜市",
    "city_kana": "ニイハマシ",
    "town": "西町",
    "town_kana": "ニシマチ",
    "street": null,
    "office_name": null,
    "office_name_kana": null
  },
  "0015": {
    "postcode": "7920015",
    "prefecture": "愛媛県",
    "prefecture_kana": "エヒメケン",
    "prefecture_code": 38,
    "city": "新居浜市",
    "city_kana": "ニイハマシ",
    "town": "大江町",
    "town_kana": "オオエチョウ",
    "street": null,
    "office_name": null,
    "office_name_kana": null
  },
  "0016": {
    "postcode": "7920016",
    "prefecture": "愛媛県",
    "prefecture_kana": "エヒメケン",
    "prefecture_code": 38,
    "city": "新居浜市",
    "city_kana": "ニイハマシ",
    "town": "港町",
    "town_kana": "ミナトマチ",
    "street": null,
    "office_name": null,
    "office_name_kana": null
  },
  "0017": {
    "postcode": "7920017",
    "prefecture": "愛媛県",
    "prefecture_kana": "エヒメケン",
    "prefecture_code": 38,
    "city": "新居浜市",
    "city_kana": "ニイハマシ",
    "town": "若水町",
    "town_kana": "ワカミズチョウ",
    "street": null,
    "office_name": null,
    "office_name_kana": null
  },
  "0021": {
    "postcode": "7920021",
    "prefecture": "愛媛県",
    "prefecture_kana": "エヒメケン",
    "prefecture_code": 38,
    "city": "新居浜市",
    "city_kana": "ニイハマシ",
    "town": "泉宮町",
    "town_kana": "イズミミヤチョウ",
    "street": null,
    "office_name": null,
    "office_name_kana": null
  },
  "0022": {
    "postcode": "7920022",
    "prefecture": "愛媛県",
    "prefecture_kana": "エヒメケン",
    "prefecture_code": 38,
    "city": "新居浜市",
    "city_kana": "ニイハマシ",
    "town": "徳常町",
    "town_kana": "トクツネチョウ",
    "street": null,
    "office_name": null,
    "office_name_kana": null
  },
  "0023": {
    "postcode": "7920023",
    "prefecture": "愛媛県",
    "prefecture_kana": "エヒメケン",
    "prefecture_code": 38,
    "city": "新居浜市",
    "city_kana": "ニイハマシ",
    "town": "繁本町",
    "town_kana": "シゲモトチョウ",
    "street": null,
    "office_name": null,
    "office_name_kana": null
  },
  "0024": {
    "postcode": "7920024",
    "prefecture": "愛媛県",
    "prefecture_kana": "エヒメケン",
    "prefecture_code": 38,
    "city": "新居浜市",
    "city_kana": "ニイハマシ",
    "town": "宮西町",
    "town_kana": "ミヤニシチョウ",
    "street": null,
    "office_name": null,
    "office_name_kana": null
  },
  "0025": {
    "postcode": "7920025",
    "prefecture": "愛媛県",
    "prefecture_kana": "エヒメケン",
    "prefecture_code": 38,
    "city": "新居浜市",
    "city_kana": "ニイハマシ",
    "town": "一宮町",
    "town_kana": "イックチョウ",
    "street": null,
    "office_name": null,
    "office_name_kana": null
  },
  "0026": {
    "postcode": "7920026",
    "prefecture": "愛媛県",
    "prefecture_kana": "エヒメケン",
    "prefecture_code": 38,
    "city": "新居浜市",
    "city_kana": "ニイハマシ",
    "town": "久保田町",
    "town_kana": "クボタチョウ",
    "street": null,
    "office_name": null,
    "office_name_kana": null
  },
  "0031": {
    "postcode": "7920031",
    "prefecture": "愛媛県",
    "prefecture_kana": "エヒメケン",
    "prefecture_code": 38,
    "city": "新居浜市",
    "city_kana": "ニイハマシ",
    "town": "高木町",
    "town_kana": "タカギチョウ",
    "street": null,
    "office_name": null,
    "office_name_kana": null
  },
  "0032": {
    "postcode": "7920032",
    "prefecture": "愛媛県",
    "prefecture_kana": "エヒメケン",
    "prefecture_code": 38,
    "city": "新居浜市",
    "city_kana": "ニイハマシ",
    "town": "政枝町",
    "town_kana": "マサエダチョウ",
    "street": null,
    "office_name": null,
    "office_name_kana": null
  },
  "0033": {
    "postcode": "7920033",
    "prefecture": "愛媛県",
    "prefecture_kana": "エヒメケン",
    "prefecture_code": 38,
    "city": "新居浜市",
    "city_kana": "ニイハマシ",
    "town": "横水町",
    "town_kana": "ヨコズイチョウ",
    "street": null,
    "office_name": null,
    "office_name_kana": null
  },
  "0034": {
    "postcode": "7920034",
    "prefecture": "愛媛県",
    "prefecture_kana": "エヒメケン",
    "prefecture_code": 38,
    "city": "新居浜市",
    "city_kana": "ニイハマシ",
    "town": "滝の宮町",
    "town_kana": "タキノミヤチョウ",
    "street": null,
    "office_name": null,
    "office_name_kana": null
  },
  "0035": {
    "postcode": "7920035",
    "prefecture": "愛媛県",
    "prefecture_kana": "エヒメケン",
    "prefecture_code": 38,
    "city": "新居浜市",
    "city_kana": "ニイハマシ",
    "town": "西の土居町",
    "town_kana": "ニシノドイチョウ",
    "street": null,
    "office_name": null,
    "office_name_kana": null
  },
  "0041": {
    "postcode": "7920041",
    "prefecture": "愛媛県",
    "prefecture_kana": "エヒメケン",
    "prefecture_code": 38,
    "city": "新居浜市",
    "city_kana": "ニイハマシ",
    "town": "中村松木",
    "town_kana": "ナカムラマツギ",
    "street": null,
    "office_name": null,
    "office_name_kana": null
  },
  "0042": {
    "postcode": "7920042",
    "prefecture": "愛媛県",
    "prefecture_kana": "エヒメケン",
    "prefecture_code": 38,
    "city": "新居浜市",
    "city_kana": "ニイハマシ",
    "town": "本郷",
    "town_kana": "ホンゴウ",
    "street": null,
    "office_name": null,
    "office_name_kana": null
  },
  "0043": {
    "postcode": "7920043",
    "prefecture": "愛媛県",
    "prefecture_kana": "エヒメケン",
    "prefecture_code": 38,
    "city": "新居浜市",
    "city_kana": "ニイハマシ",
    "town": "土橋",
    "town_kana": "ツチハシ",
    "street": null,
    "office_name": null,
    "office_name_kana": null
  },
  "0044": {
    "postcode": "7920044",
    "prefecture": "愛媛県",
    "prefecture_kana": "エヒメケン",
    "prefecture_code": 38,
    "city": "新居浜市",
    "city_kana": "ニイハマシ",
    "town": "中村",
    "town_kana": "ナカムラ",
    "street": null,
    "office_name": null,
    "office_name_kana": null
  },
  "0045": {
    "postcode": "7920045",
    "prefecture": "愛媛県",
    "prefecture_kana": "エヒメケン",
    "prefecture_code": 38,
    "city": "新居浜市",
    "city_kana": "ニイハマシ",
    "town": "中萩町",
    "town_kana": "ナカハギチョウ",
    "street": null,
    "office_name": null,
    "office_name_kana": null
  },
  "0046": {
    "postcode": "7920046",
    "prefecture": "愛媛県",
    "prefecture_kana": "エヒメケン",
    "prefecture_code": 38,
    "city": "新居浜市",
    "city_kana": "ニイハマシ",
    "town": "上原",
    "town_kana": "ウワバラ",
    "street": null,
    "office_name": null,
    "office_name_kana": null
  },
  "0047": {
    "postcode": "7920047",
    "prefecture": "愛媛県",
    "prefecture_kana": "エヒメケン",
    "prefecture_code": 38,
    "city": "新居浜市",
    "city_kana": "ニイハマシ",
    "town": "御蔵町",
    "town_kana": "オクラチョウ",
    "street": null,
    "office_name": null,
    "office_name_kana": null
  },
  "0050": {
    "postcode": "7920050",
    "prefecture": "愛媛県",
    "prefecture_kana": "エヒメケン",
    "prefecture_code": 38,
    "city": "新居浜市",
    "city_kana": "ニイハマシ",
    "town": "萩生",
    "town_kana": "ハギュウ",
    "street": null,
    "office_name": null,
    "office_name_kana": null
  },
  "0060": {
    "postcode": "7920060",
    "prefecture": "愛媛県",
    "prefecture_kana": "エヒメケン",
    "prefecture_code": 38,
    "city": "新居浜市",
    "city_kana": "ニイハマシ",
    "town": "大生院",
    "town_kana": "オオジョウイン",
    "street": null,
    "office_name": null,
    "office_name_kana": null
  },
  "0071": {
    "postcode": "7920071",
    "prefecture": "愛媛県",
    "prefecture_kana": "エヒメケン",
    "prefecture_code": 38,
    "city": "新居浜市",
    "city_kana": "ニイハマシ",
    "town": "金子丙",
    "town_kana": "カネコヘイ",
    "street": null,
    "office_name": null,
    "office_name_kana": null
  },
  "0072": {
    "postcode": "7920072",
    "prefecture": "愛媛県",
    "prefecture_kana": "エヒメケン",
    "prefecture_code": 38,
    "city": "新居浜市",
    "city_kana": "ニイハマシ",
    "town": "新居浜乙",
    "town_kana": "ニイハマオツ",
    "street": null,
    "office_name": null,
    "office_name_kana": null
  },
  "0080": {
    "postcode": "7920080",
    "prefecture": "愛媛県",
    "prefecture_kana": "エヒメケン",
    "prefecture_code": 38,
    "city": "今治市",
    "city_kana": "イマバリシ",
    "town": "宮窪町四阪島",
    "town_kana": "ミヤクボチョウシサカジマ",
    "street": null,
    "office_name": null,
    "office_name_kana": null
  },
  "0801": {
    "postcode": "7920801",
    "prefecture": "愛媛県",
    "prefecture_kana": "エヒメケン",
    "prefecture_code": 38,
    "city": "新居浜市",
    "city_kana": "ニイハマシ",
    "town": "菊本町",
    "town_kana": "キクモトチョウ",
    "street": null,
    "office_name": null,
    "office_name_kana": null
  },
  "0802": {
    "postcode": "7920802",
    "prefecture": "愛媛県",
    "prefecture_kana": "エヒメケン",
    "prefecture_code": 38,
    "city": "新居浜市",
    "city_kana": "ニイハマシ",
    "town": "新須賀町",
    "town_kana": "シンスカチョウ",
    "street": null,
    "office_name": null,
    "office_name_kana": null
  },
  "0803": {
    "postcode": "7920803",
    "prefecture": "愛媛県",
    "prefecture_kana": "エヒメケン",
    "prefecture_code": 38,
    "city": "新居浜市",
    "city_kana": "ニイハマシ",
    "town": "平形町",
    "town_kana": "ヒラカタチョウ",
    "street": null,
    "office_name": null,
    "office_name_kana": null
  },
  "0804": {
    "postcode": "7920804",
    "prefecture": "愛媛県",
    "prefecture_kana": "エヒメケン",
    "prefecture_code": 38,
    "city": "新居浜市",
    "city_kana": "ニイハマシ",
    "town": "田所町",
    "town_kana": "タドコロチョウ",
    "street": null,
    "office_name": null,
    "office_name_kana": null
  },
  "0805": {
    "postcode": "7920805",
    "prefecture": "愛媛県",
    "prefecture_kana": "エヒメケン",
    "prefecture_code": 38,
    "city": "新居浜市",
    "city_kana": "ニイハマシ",
    "town": "八雲町",
    "town_kana": "ヤグモチョウ",
    "street": null,
    "office_name": null,
    "office_name_kana": null
  },
  "0811": {
    "postcode": "7920811",
    "prefecture": "愛媛県",
    "prefecture_kana": "エヒメケン",
    "prefecture_code": 38,
    "city": "新居浜市",
    "city_kana": "ニイハマシ",
    "town": "庄内町",
    "town_kana": "ショウナイチョウ",
    "street": null,
    "office_name": null,
    "office_name_kana": null
  },
  "0812": {
    "postcode": "7920812",
    "prefecture": "愛媛県",
    "prefecture_kana": "エヒメケン",
    "prefecture_code": 38,
    "city": "新居浜市",
    "city_kana": "ニイハマシ",
    "town": "坂井町",
    "town_kana": "サカイチョウ",
    "street": null,
    "office_name": null,
    "office_name_kana": null
  },
  "0813": {
    "postcode": "7920813",
    "prefecture": "愛媛県",
    "prefecture_kana": "エヒメケン",
    "prefecture_code": 38,
    "city": "新居浜市",
    "city_kana": "ニイハマシ",
    "town": "下泉町",
    "town_kana": "シモイズミチョウ",
    "street": null,
    "office_name": null,
    "office_name_kana": null
  },
  "0814": {
    "postcode": "7920814",
    "prefecture": "愛媛県",
    "prefecture_kana": "エヒメケン",
    "prefecture_code": 38,
    "city": "新居浜市",
    "city_kana": "ニイハマシ",
    "town": "城下町",
    "town_kana": "シロシタチョウ",
    "street": null,
    "office_name": null,
    "office_name_kana": null
  },
  "0815": {
    "postcode": "7920815",
    "prefecture": "愛媛県",
    "prefecture_kana": "エヒメケン",
    "prefecture_code": 38,
    "city": "新居浜市",
    "city_kana": "ニイハマシ",
    "town": "岸の上町",
    "town_kana": "キシノウエチョウ",
    "street": null,
    "office_name": null,
    "office_name_kana": null
  },
  "0821": {
    "postcode": "7920821",
    "prefecture": "愛媛県",
    "prefecture_kana": "エヒメケン",
    "prefecture_code": 38,
    "city": "新居浜市",
    "city_kana": "ニイハマシ",
    "town": "瀬戸町",
    "town_kana": "セトチョウ",
    "street": null,
    "office_name": null,
    "office_name_kana": null
  },
  "0822": {
    "postcode": "7920822",
    "prefecture": "愛媛県",
    "prefecture_kana": "エヒメケン",
    "prefecture_code": 38,
    "city": "新居浜市",
    "city_kana": "ニイハマシ",
    "town": "寿町",
    "town_kana": "コトブキチョウ",
    "street": null,
    "office_name": null,
    "office_name_kana": null
  },
  "0823": {
    "postcode": "7920823",
    "prefecture": "愛媛県",
    "prefecture_kana": "エヒメケン",
    "prefecture_code": 38,
    "city": "新居浜市",
    "city_kana": "ニイハマシ",
    "town": "外山町",
    "town_kana": "トヤマチョウ",
    "street": null,
    "office_name": null,
    "office_name_kana": null
  },
  "0824": {
    "postcode": "7920824",
    "prefecture": "愛媛県",
    "prefecture_kana": "エヒメケン",
    "prefecture_code": 38,
    "city": "新居浜市",
    "city_kana": "ニイハマシ",
    "town": "上泉町",
    "town_kana": "カミイズミチョウ",
    "street": null,
    "office_name": null,
    "office_name_kana": null
  },
  "0825": {
    "postcode": "7920825",
    "prefecture": "愛媛県",
    "prefecture_kana": "エヒメケン",
    "prefecture_code": 38,
    "city": "新居浜市",
    "city_kana": "ニイハマシ",
    "town": "星原町",
    "town_kana": "ホシバラチョウ",
    "street": null,
    "office_name": null,
    "office_name_kana": null
  },
  "0826": {
    "postcode": "7920826",
    "prefecture": "愛媛県",
    "prefecture_kana": "エヒメケン",
    "prefecture_code": 38,
    "city": "新居浜市",
    "city_kana": "ニイハマシ",
    "town": "喜光地町",
    "town_kana": "キコウジチョウ",
    "street": null,
    "office_name": null,
    "office_name_kana": null
  },
  "0827": {
    "postcode": "7920827",
    "prefecture": "愛媛県",
    "prefecture_kana": "エヒメケン",
    "prefecture_code": 38,
    "city": "新居浜市",
    "city_kana": "ニイハマシ",
    "town": "西喜光地町",
    "town_kana": "ニシキコウジチョウ",
    "street": null,
    "office_name": null,
    "office_name_kana": null
  },
  "0828": {
    "postcode": "7920828",
    "prefecture": "愛媛県",
    "prefecture_kana": "エヒメケン",
    "prefecture_code": 38,
    "city": "新居浜市",
    "city_kana": "ニイハマシ",
    "town": "松原町",
    "town_kana": "マツバラチョウ",
    "street": null,
    "office_name": null,
    "office_name_kana": null
  },
  "0829": {
    "postcode": "7920829",
    "prefecture": "愛媛県",
    "prefecture_kana": "エヒメケン",
    "prefecture_code": 38,
    "city": "新居浜市",
    "city_kana": "ニイハマシ",
    "town": "松木町",
    "town_kana": "マツギチョウ",
    "street": null,
    "office_name": null,
    "office_name_kana": null
  },
  "0831": {
    "postcode": "7920831",
    "prefecture": "愛媛県",
    "prefecture_kana": "エヒメケン",
    "prefecture_code": 38,
    "city": "新居浜市",
    "city_kana": "ニイハマシ",
    "town": "西連寺町",
    "town_kana": "サイレンジチョウ",
    "street": null,
    "office_name": null,
    "office_name_kana": null
  },
  "0832": {
    "postcode": "7920832",
    "prefecture": "愛媛県",
    "prefecture_kana": "エヒメケン",
    "prefecture_code": 38,
    "city": "新居浜市",
    "city_kana": "ニイハマシ",
    "town": "西泉町",
    "town_kana": "ニシイズミチョウ",
    "street": null,
    "office_name": null,
    "office_name_kana": null
  },
  "0833": {
    "postcode": "7920833",
    "prefecture": "愛媛県",
    "prefecture_kana": "エヒメケン",
    "prefecture_code": 38,
    "city": "新居浜市",
    "city_kana": "ニイハマシ",
    "town": "宮原町",
    "town_kana": "ミヤバラチョウ",
    "street": null,
    "office_name": null,
    "office_name_kana": null
  },
  "0834": {
    "postcode": "7920834",
    "prefecture": "愛媛県",
    "prefecture_kana": "エヒメケン",
    "prefecture_code": 38,
    "city": "新居浜市",
    "city_kana": "ニイハマシ",
    "town": "中西町",
    "town_kana": "ナカニシチョウ",
    "street": null,
    "office_name": null,
    "office_name_kana": null
  },
  "0835": {
    "postcode": "7920835",
    "prefecture": "愛媛県",
    "prefecture_kana": "エヒメケン",
    "prefecture_code": 38,
    "city": "新居浜市",
    "city_kana": "ニイハマシ",
    "town": "山根町",
    "town_kana": "ヤマネチョウ",
    "street": null,
    "office_name": null,
    "office_name_kana": null
  },
  "0836": {
    "postcode": "7920836",
    "prefecture": "愛媛県",
    "prefecture_kana": "エヒメケン",
    "prefecture_code": 38,
    "city": "新居浜市",
    "city_kana": "ニイハマシ",
    "town": "篠場町",
    "town_kana": "シノバチョウ",
    "street": null,
    "office_name": null,
    "office_name_kana": null
  },
  "0837": {
    "postcode": "7920837",
    "prefecture": "愛媛県",
    "prefecture_kana": "エヒメケン",
    "prefecture_code": 38,
    "city": "新居浜市",
    "city_kana": "ニイハマシ",
    "town": "山田町",
    "town_kana": "ヤマダチョウ",
    "street": null,
    "office_name": null,
    "office_name_kana": null
  },
  "0841": {
    "postcode": "7920841",
    "prefecture": "愛媛県",
    "prefecture_kana": "エヒメケン",
    "prefecture_code": 38,
    "city": "新居浜市",
    "city_kana": "ニイハマシ",
    "town": "中筋町",
    "town_kana": "ナカスジチョウ",
    "street": null,
    "office_name": null,
    "office_name_kana": null
  },
  "0842": {
    "postcode": "7920842",
    "prefecture": "愛媛県",
    "prefecture_kana": "エヒメケン",
    "prefecture_code": 38,
    "city": "新居浜市",
    "city_kana": "ニイハマシ",
    "town": "北内町",
    "town_kana": "キタウチチョウ",
    "street": null,
    "office_name": null,
    "office_name_kana": null
  },
  "0843": {
    "postcode": "7920843",
    "prefecture": "愛媛県",
    "prefecture_kana": "エヒメケン",
    "prefecture_code": 38,
    "city": "新居浜市",
    "city_kana": "ニイハマシ",
    "town": "吉岡町",
    "town_kana": "ヨシオカチョウ",
    "street": null,
    "office_name": null,
    "office_name_kana": null
  },
  "0844": {
    "postcode": "7920844",
    "prefecture": "愛媛県",
    "prefecture_kana": "エヒメケン",
    "prefecture_code": 38,
    "city": "新居浜市",
    "city_kana": "ニイハマシ",
    "town": "角野新田町",
    "town_kana": "スミノシンデンチョウ",
    "street": null,
    "office_name": null,
    "office_name_kana": null
  },
  "0845": {
    "postcode": "7920845",
    "prefecture": "愛媛県",
    "prefecture_kana": "エヒメケン",
    "prefecture_code": 38,
    "city": "新居浜市",
    "city_kana": "ニイハマシ",
    "town": "種子川町",
    "town_kana": "タネガワチョウ",
    "street": null,
    "office_name": null,
    "office_name_kana": null
  },
  "0846": {
    "postcode": "7920846",
    "prefecture": "愛媛県",
    "prefecture_kana": "エヒメケン",
    "prefecture_code": 38,
    "city": "新居浜市",
    "city_kana": "ニイハマシ",
    "town": "立川町",
    "town_kana": "タツカワチョウ",
    "street": null,
    "office_name": null,
    "office_name_kana": null
  },
  "0847": {
    "postcode": "7920847",
    "prefecture": "愛媛県",
    "prefecture_kana": "エヒメケン",
    "prefecture_code": 38,
    "city": "新居浜市",
    "city_kana": "ニイハマシ",
    "town": "大永山",
    "town_kana": "ダイエイヤマ",
    "street": null,
    "office_name": null,
    "office_name_kana": null
  },
  "0848": {
    "postcode": "7920848",
    "prefecture": "愛媛県",
    "prefecture_kana": "エヒメケン",
    "prefecture_code": 38,
    "city": "新居浜市",
    "city_kana": "ニイハマシ",
    "town": "種子川山",
    "town_kana": "タネガワヤマ",
    "street": null,
    "office_name": null,
    "office_name_kana": null
  },
  "0851": {
    "postcode": "7920851",
    "prefecture": "愛媛県",
    "prefecture_kana": "エヒメケン",
    "prefecture_code": 38,
    "city": "新居浜市",
    "city_kana": "ニイハマシ",
    "town": "観音原町",
    "town_kana": "カンノンバラチョウ",
    "street": null,
    "office_name": null,
    "office_name_kana": null
  },
  "0852": {
    "postcode": "7920852",
    "prefecture": "愛媛県",
    "prefecture_kana": "エヒメケン",
    "prefecture_code": 38,
    "city": "新居浜市",
    "city_kana": "ニイハマシ",
    "town": "東田",
    "town_kana": "トウダ",
    "street": null,
    "office_name": null,
    "office_name_kana": null
  },
  "0853": {
    "postcode": "7920853",
    "prefecture": "愛媛県",
    "prefecture_kana": "エヒメケン",
    "prefecture_code": 38,
    "city": "新居浜市",
    "city_kana": "ニイハマシ",
    "town": "光明寺",
    "town_kana": "コウミョウジ",
    "street": null,
    "office_name": null,
    "office_name_kana": null
  },
  "0854": {
    "postcode": "7920854",
    "prefecture": "愛媛県",
    "prefecture_kana": "エヒメケン",
    "prefecture_code": 38,
    "city": "新居浜市",
    "city_kana": "ニイハマシ",
    "town": "国領",
    "town_kana": "コクリョウ",
    "street": null,
    "office_name": null,
    "office_name_kana": null
  },
  "0855": {
    "postcode": "7920855",
    "prefecture": "愛媛県",
    "prefecture_kana": "エヒメケン",
    "prefecture_code": 38,
    "city": "新居浜市",
    "city_kana": "ニイハマシ",
    "town": "七宝台町",
    "town_kana": "シッポウダイチョウ",
    "street": null,
    "office_name": null,
    "office_name_kana": null
  },
  "0856": {
    "postcode": "7920856",
    "prefecture": "愛媛県",
    "prefecture_kana": "エヒメケン",
    "prefecture_code": 38,
    "city": "新居浜市",
    "city_kana": "ニイハマシ",
    "town": "船木",
    "town_kana": "フナキ",
    "street": null,
    "office_name": null,
    "office_name_kana": null
  },
  "0857": {
    "postcode": "7920857",
    "prefecture": "愛媛県",
    "prefecture_kana": "エヒメケン",
    "prefecture_code": 38,
    "city": "新居浜市",
    "city_kana": "ニイハマシ",
    "town": "角野",
    "town_kana": "スミノ",
    "street": null,
    "office_name": null,
    "office_name_kana": null
  },
  "0861": {
    "postcode": "7920861",
    "prefecture": "愛媛県",
    "prefecture_kana": "エヒメケン",
    "prefecture_code": 38,
    "city": "新居浜市",
    "city_kana": "ニイハマシ",
    "town": "清水町",
    "town_kana": "シミズチョウ",
    "street": null,
    "office_name": null,
    "office_name_kana": null
  },
  "0862": {
    "postcode": "7920862",
    "prefecture": "愛媛県",
    "prefecture_kana": "エヒメケン",
    "prefecture_code": 38,
    "city": "新居浜市",
    "city_kana": "ニイハマシ",
    "town": "沢津町",
    "town_kana": "サワヅチョウ",
    "street": null,
    "office_name": null,
    "office_name_kana": null
  },
  "0863": {
    "postcode": "7920863",
    "prefecture": "愛媛県",
    "prefecture_kana": "エヒメケン",
    "prefecture_code": 38,
    "city": "新居浜市",
    "city_kana": "ニイハマシ",
    "town": "南小松原町",
    "town_kana": "ミナミコマツバラチョウ",
    "street": null,
    "office_name": null,
    "office_name_kana": null
  },
  "0864": {
    "postcode": "7920864",
    "prefecture": "愛媛県",
    "prefecture_kana": "エヒメケン",
    "prefecture_code": 38,
    "city": "新居浜市",
    "city_kana": "ニイハマシ",
    "town": "東雲町",
    "town_kana": "シノノメチョウ",
    "street": null,
    "office_name": null,
    "office_name_kana": null
  },
  "0865": {
    "postcode": "7920865",
    "prefecture": "愛媛県",
    "prefecture_kana": "エヒメケン",
    "prefecture_code": 38,
    "city": "新居浜市",
    "city_kana": "ニイハマシ",
    "town": "桜木町",
    "town_kana": "サクラギチョウ",
    "street": null,
    "office_name": null,
    "office_name_kana": null
  },
  "0866": {
    "postcode": "7920866",
    "prefecture": "愛媛県",
    "prefecture_kana": "エヒメケン",
    "prefecture_code": 38,
    "city": "新居浜市",
    "city_kana": "ニイハマシ",
    "town": "宇高町",
    "town_kana": "ウダカチョウ",
    "street": null,
    "office_name": null,
    "office_name_kana": null
  },
  "0867": {
    "postcode": "7920867",
    "prefecture": "愛媛県",
    "prefecture_kana": "エヒメケン",
    "prefecture_code": 38,
    "city": "新居浜市",
    "city_kana": "ニイハマシ",
    "town": "高津町",
    "town_kana": "タカツチョウ",
    "street": null,
    "office_name": null,
    "office_name_kana": null
  },
  "0868": {
    "postcode": "7920868",
    "prefecture": "愛媛県",
    "prefecture_kana": "エヒメケン",
    "prefecture_code": 38,
    "city": "新居浜市",
    "city_kana": "ニイハマシ",
    "town": "松の木町",
    "town_kana": "マツノキチョウ",
    "street": null,
    "office_name": null,
    "office_name_kana": null
  },
  "0871": {
    "postcode": "7920871",
    "prefecture": "愛媛県",
    "prefecture_kana": "エヒメケン",
    "prefecture_code": 38,
    "city": "新居浜市",
    "city_kana": "ニイハマシ",
    "town": "八幡",
    "town_kana": "ハチマン",
    "street": null,
    "office_name": null,
    "office_name_kana": null
  },
  "0872": {
    "postcode": "7920872",
    "prefecture": "愛媛県",
    "prefecture_kana": "エヒメケン",
    "prefecture_code": 38,
    "city": "新居浜市",
    "city_kana": "ニイハマシ",
    "town": "垣生",
    "town_kana": "ハブ",
    "street": null,
    "office_name": null,
    "office_name_kana": null
  },
  "0873": {
    "postcode": "7920873",
    "prefecture": "愛媛県",
    "prefecture_kana": "エヒメケン",
    "prefecture_code": 38,
    "city": "新居浜市",
    "city_kana": "ニイハマシ",
    "town": "垣生",
    "town_kana": "ハブ",
    "street": null,
    "office_name": null,
    "office_name_kana": null
  },
  "0874": {
    "postcode": "7920874",
    "prefecture": "愛媛県",
    "prefecture_kana": "エヒメケン",
    "prefecture_code": 38,
    "city": "新居浜市",
    "city_kana": "ニイハマシ",
    "town": "長岩町",
    "town_kana": "ナガイワチョウ",
    "street": null,
    "office_name": null,
    "office_name_kana": null
  },
  "0881": {
    "postcode": "7920881",
    "prefecture": "愛媛県",
    "prefecture_kana": "エヒメケン",
    "prefecture_code": 38,
    "city": "新居浜市",
    "city_kana": "ニイハマシ",
    "town": "松神子",
    "town_kana": "マツミコ",
    "street": null,
    "office_name": null,
    "office_name_kana": null
  },
  "0882": {
    "postcode": "7920882",
    "prefecture": "愛媛県",
    "prefecture_kana": "エヒメケン",
    "prefecture_code": 38,
    "city": "新居浜市",
    "city_kana": "ニイハマシ",
    "town": "又野",
    "town_kana": "マタノ",
    "street": null,
    "office_name": null,
    "office_name_kana": null
  },
  "0883": {
    "postcode": "7920883",
    "prefecture": "愛媛県",
    "prefecture_kana": "エヒメケン",
    "prefecture_code": 38,
    "city": "新居浜市",
    "city_kana": "ニイハマシ",
    "town": "落神町",
    "town_kana": "オチガミチョウ",
    "street": null,
    "office_name": null,
    "office_name_kana": null
  },
  "0884": {
    "postcode": "7920884",
    "prefecture": "愛媛県",
    "prefecture_kana": "エヒメケン",
    "prefecture_code": 38,
    "city": "新居浜市",
    "city_kana": "ニイハマシ",
    "town": "神郷",
    "town_kana": "コウザト",
    "street": null,
    "office_name": null,
    "office_name_kana": null
  },
  "0885": {
    "postcode": "7920885",
    "prefecture": "愛媛県",
    "prefecture_kana": "エヒメケン",
    "prefecture_code": 38,
    "city": "新居浜市",
    "city_kana": "ニイハマシ",
    "town": "清住町",
    "town_kana": "キヨズミチョウ",
    "street": null,
    "office_name": null,
    "office_name_kana": null
  },
  "0886": {
    "postcode": "7920886",
    "prefecture": "愛媛県",
    "prefecture_kana": "エヒメケン",
    "prefecture_code": 38,
    "city": "新居浜市",
    "city_kana": "ニイハマシ",
    "town": "郷",
    "town_kana": "ゴウ",
    "street": null,
    "office_name": null,
    "office_name_kana": null
  },
  "0887": {
    "postcode": "7920887",
    "prefecture": "愛媛県",
    "prefecture_kana": "エヒメケン",
    "prefecture_code": 38,
    "city": "新居浜市",
    "city_kana": "ニイハマシ",
    "town": "高田",
    "town_kana": "タカタ",
    "street": null,
    "office_name": null,
    "office_name_kana": null
  },
  "0888": {
    "postcode": "7920888",
    "prefecture": "愛媛県",
    "prefecture_kana": "エヒメケン",
    "prefecture_code": 38,
    "city": "新居浜市",
    "city_kana": "ニイハマシ",
    "town": "田の上",
    "town_kana": "タノウエ",
    "street": null,
    "office_name": null,
    "office_name_kana": null
  },
  "0890": {
    "postcode": "7920890",
    "prefecture": "愛媛県",
    "prefecture_kana": "エヒメケン",
    "prefecture_code": 38,
    "city": "新居浜市",
    "city_kana": "ニイハマシ",
    "town": "楠崎",
    "town_kana": "クッサキ",
    "street": null,
    "office_name": null,
    "office_name_kana": null
  },
  "0891": {
    "postcode": "7920891",
    "prefecture": "愛媛県",
    "prefecture_kana": "エヒメケン",
    "prefecture_code": 38,
    "city": "新居浜市",
    "city_kana": "ニイハマシ",
    "town": "大島",
    "town_kana": "オオシマ",
    "street": null,
    "office_name": null,
    "office_name_kana": null
  },
  "0892": {
    "postcode": "7920892",
    "prefecture": "愛媛県",
    "prefecture_kana": "エヒメケン",
    "prefecture_code": 38,
    "city": "新居浜市",
    "city_kana": "ニイハマシ",
    "town": "黒島",
    "town_kana": "クロシマ",
    "street": null,
    "office_name": null,
    "office_name_kana": null
  },
  "0893": {
    "postcode": "7920893",
    "prefecture": "愛媛県",
    "prefecture_kana": "エヒメケン",
    "prefecture_code": 38,
    "city": "新居浜市",
    "city_kana": "ニイハマシ",
    "town": "多喜浜",
    "town_kana": "タキハマ",
    "street": null,
    "office_name": null,
    "office_name_kana": null
  },
  "0894": {
    "postcode": "7920894",
    "prefecture": "愛媛県",
    "prefecture_kana": "エヒメケン",
    "prefecture_code": 38,
    "city": "新居浜市",
    "city_kana": "ニイハマシ",
    "town": "郷",
    "town_kana": "ゴウ",
    "street": null,
    "office_name": null,
    "office_name_kana": null
  },
  "0895": {
    "postcode": "7920895",
    "prefecture": "愛媛県",
    "prefecture_kana": "エヒメケン",
    "prefecture_code": 38,
    "city": "新居浜市",
    "city_kana": "ニイハマシ",
    "town": "郷乙",
    "town_kana": "ゴウオツ",
    "street": null,
    "office_name": null,
    "office_name_kana": null
  },
  "0896": {
    "postcode": "7920896",
    "prefecture": "愛媛県",
    "prefecture_kana": "エヒメケン",
    "prefecture_code": 38,
    "city": "新居浜市",
    "city_kana": "ニイハマシ",
    "town": "阿島",
    "town_kana": "アシマ",
    "street": null,
    "office_name": null,
    "office_name_kana": null
  },
  "0897": {
    "postcode": "7920897",
    "prefecture": "愛媛県",
    "prefecture_kana": "エヒメケン",
    "prefecture_code": 38,
    "city": "新居浜市",
    "city_kana": "ニイハマシ",
    "town": "阿島乙",
    "town_kana": "アシマオツ",
    "street": null,
    "office_name": null,
    "office_name_kana": null
  },
  "0898": {
    "postcode": "7920898",
    "prefecture": "愛媛県",
    "prefecture_kana": "エヒメケン",
    "prefecture_code": 38,
    "city": "新居浜市",
    "city_kana": "ニイハマシ",
    "town": "荷内町",
    "town_kana": "ニナイチョウ",
    "street": null,
    "office_name": null,
    "office_name_kana": null
  },
  "8505": {
    "postcode": "7928505",
    "prefecture": "愛媛県",
    "prefecture_kana": "エヒメケン",
    "prefecture_code": 38,
    "city": "新居浜市",
    "city_kana": "ニイハマシ",
    "town": "惣開町",
    "town_kana": "ソウビラキチョウ",
    "street": "２−１３",
    "office_name": "森実運輸　株式会社",
    "office_name_kana": "モリザネウンユ カブシキガイシヤ"
  },
  "8510": {
    "postcode": "7928510",
    "prefecture": "愛媛県",
    "prefecture_kana": "エヒメケン",
    "prefecture_code": 38,
    "city": "新居浜市",
    "city_kana": "ニイハマシ",
    "town": "黒島",
    "town_kana": "クロシマ",
    "street": "９３０−３",
    "office_name": "旭食品　株式会社　新居浜支店",
    "office_name_kana": "アサヒシヨクヒン カブシキガイシヤ ニイハマシテン"
  },
  "8511": {
    "postcode": "7928511",
    "prefecture": "愛媛県",
    "prefecture_kana": "エヒメケン",
    "prefecture_code": 38,
    "city": "新居浜市",
    "city_kana": "ニイハマシ",
    "town": "繁本町",
    "town_kana": "シゲモトチョウ",
    "street": "２−２",
    "office_name": "ＮＴＴ　新居浜支店",
    "office_name_kana": "エヌテイテイ ニイハマシテン"
  },
  "8518": {
    "postcode": "7928518",
    "prefecture": "愛媛県",
    "prefecture_kana": "エヒメケン",
    "prefecture_code": 38,
    "city": "新居浜市",
    "city_kana": "ニイハマシ",
    "town": "多喜浜",
    "town_kana": "タキハマ",
    "street": "６７−１７３",
    "office_name": "株式会社　エイワ",
    "office_name_kana": "カブシキガイシヤ エイワ"
  },
  "8520": {
    "postcode": "7928520",
    "prefecture": "愛媛県",
    "prefecture_kana": "エヒメケン",
    "prefecture_code": 38,
    "city": "新居浜市",
    "city_kana": "ニイハマシ",
    "town": "磯浦町",
    "town_kana": "イソウラチョウ",
    "street": "２−１",
    "office_name": "住友共同電力株式会社",
    "office_name_kana": "スミトモキヨウドウデンリヨク カブシキガイシヤ"
  },
  "8521": {
    "postcode": "7928521",
    "prefecture": "愛媛県",
    "prefecture_kana": "エヒメケン",
    "prefecture_code": 38,
    "city": "新居浜市",
    "city_kana": "ニイハマシ",
    "town": "惣開町",
    "town_kana": "ソウビラキチョウ",
    "street": "５−１",
    "office_name": "住友化学工業　株式会社　愛媛工場",
    "office_name_kana": "スミトモカガクコウギヨウ カブシキガイシヤ エヒメコウジヨウ"
  },
  "8543": {
    "postcode": "7928543",
    "prefecture": "愛媛県",
    "prefecture_kana": "エヒメケン",
    "prefecture_code": 38,
    "city": "新居浜市",
    "city_kana": "ニイハマシ",
    "town": "王子町",
    "town_kana": "オウジチョウ",
    "street": "３−１",
    "office_name": "住友別子病院",
    "office_name_kana": "スミトモベツシビヨウイン"
  },
  "8550": {
    "postcode": "7928550",
    "prefecture": "愛媛県",
    "prefecture_kana": "エヒメケン",
    "prefecture_code": 38,
    "city": "新居浜市",
    "city_kana": "ニイハマシ",
    "town": "南小松原町",
    "town_kana": "ミナミコマツバラチョウ",
    "street": "１３−２７",
    "office_name": "愛媛労災病院",
    "office_name_kana": "エヒメロウサイビヨウイン"
  },
  "8555": {
    "postcode": "7928555",
    "prefecture": "愛媛県",
    "prefecture_kana": "エヒメケン",
    "prefecture_code": 38,
    "city": "新居浜市",
    "city_kana": "ニイハマシ",
    "town": "西原町",
    "town_kana": "ニシバラチョウ",
    "street": "３丁目５−３",
    "office_name": "住友金属鉱山　株式会社　別子事業所",
    "office_name_kana": "スミトモキンゾクコウザン カブシキガイシヤ ベツシジギヨウシヨ"
  },
  "8567": {
    "postcode": "7928567",
    "prefecture": "愛媛県",
    "prefecture_kana": "エヒメケン",
    "prefecture_code": 38,
    "city": "新居浜市",
    "city_kana": "ニイハマシ",
    "town": "磯浦町",
    "town_kana": "イソウラチョウ",
    "street": "１６−６",
    "office_name": "住友建設　株式会社　四国支店",
    "office_name_kana": "スミトモケンセツ カブシキガイシヤ シコクシテン"
  },
  "8580": {
    "postcode": "7928580",
    "prefecture": "愛媛県",
    "prefecture_kana": "エヒメケン",
    "prefecture_code": 38,
    "city": "新居浜市",
    "city_kana": "ニイハマシ",
    "town": "八雲町",
    "town_kana": "ヤグモチョウ",
    "street": "７−１",
    "office_name": "新居浜工業高等専門学校",
    "office_name_kana": "ニイハマコウギヨウコウトウセンモンガツコウ"
  },
  "8585": {
    "postcode": "7928585",
    "prefecture": "愛媛県",
    "prefecture_kana": "エヒメケン",
    "prefecture_code": 38,
    "city": "新居浜市",
    "city_kana": "ニイハマシ",
    "town": "一宮町",
    "town_kana": "イックチョウ",
    "street": "１丁目５−１",
    "office_name": "新居浜市役所",
    "office_name_kana": "ニイハマシヤクシヨ"
  },
  "8586": {
    "postcode": "7928586",
    "prefecture": "愛媛県",
    "prefecture_kana": "エヒメケン",
    "prefecture_code": 38,
    "city": "新居浜市",
    "city_kana": "ニイハマシ",
    "town": "北新町",
    "town_kana": "キタシンマチ",
    "street": "１−５",
    "office_name": "財団法人　積善会附属十全総合病院",
    "office_name_kana": "ザイダンホウジン セキゼンカイフゾクジユウゼンソウゴウビヨウイン"
  },
  "8588": {
    "postcode": "7928588",
    "prefecture": "愛媛県",
    "prefecture_kana": "エヒメケン",
    "prefecture_code": 38,
    "city": "新居浜市",
    "city_kana": "ニイハマシ",
    "town": "惣開町",
    "town_kana": "ソウビラキチョウ",
    "street": "５−２",
    "office_name": "住友重機械工業　株式会社",
    "office_name_kana": "スミトモジユウキカイコウギヨウ カブシキガイシヤ"
  },
  "8614": {
    "postcode": "7928614",
    "prefecture": "愛媛県",
    "prefecture_kana": "エヒメケン",
    "prefecture_code": 38,
    "city": "新居浜市",
    "city_kana": "ニイハマシ",
    "town": "繁本町",
    "town_kana": "シゲモトチョウ",
    "street": "５−２０（新居浜郵便局私書箱第６号）",
    "office_name": "株式会社　伊予銀行　新居浜支店",
    "office_name_kana": "カブシキガイシヤ イヨギンコウ ニイハマシテン"
  },
  "8670": {
    "postcode": "7928670",
    "prefecture": "愛媛県",
    "prefecture_kana": "エヒメケン",
    "prefecture_code": 38,
    "city": "新居浜市",
    "city_kana": "ニイハマシ",
    "town": "中須賀町",
    "town_kana": "ナカスカチョウ",
    "street": "１丁目６−３７（新居浜郵便局私書箱第１４号）",
    "office_name": "東予信用金庫",
    "office_name_kana": "トウヨシンヨウキンコ"
  },
  "8686": {
    "postcode": "7928686",
    "prefecture": "愛媛県",
    "prefecture_kana": "エヒメケン",
    "prefecture_code": 38,
    "city": "新居浜市",
    "city_kana": "ニイハマシ",
    "town": "庄内町",
    "town_kana": "ショウナイチョウ",
    "street": "１丁目９−７",
    "office_name": "新居浜社会保険事務所",
    "office_name_kana": "ニイハマシヤカイホケンジムシヨ"
  }
}