{
  "0000": {
    "postcode": "7940000",
    "prefecture": "愛媛県",
    "prefecture_kana": "エヒメケン",
    "prefecture_code": 38,
    "city": "今治市",
    "city_kana": "イマバリシ",
    "town": "",
    "town_kana": "",
    "street": null,
    "office_name": null,
    "office_name_kana": null
  },
  "0001": {
    "postcode": "7940001",
    "prefecture": "愛媛県",
    "prefecture_kana": "エヒメケン",
    "prefecture_code": 38,
    "city": "今治市",
    "city_kana": "イマバリシ",
    "town": "砂場町",
    "town_kana": "スナバチョウ",
    "street": null,
    "office_name": null,
    "office_name_kana": null
  },
  "0002": {
    "postcode": "7940002",
    "prefecture": "愛媛県",
    "prefecture_kana": "エヒメケン",
    "prefecture_code": 38,
    "city": "今治市",
    "city_kana": "イマバリシ",
    "town": "大浜町",
    "town_kana": "オオハマチョウ",
    "street": null,
    "office_name": null,
    "office_name_kana": null
  },
  "0003": {
    "postcode": "7940003",
    "prefecture": "愛媛県",
    "prefecture_kana": "エヒメケン",
    "prefecture_code": 38,
    "city": "今治市",
    "city_kana": "イマバリシ",
    "town": "湊町",
    "town_kana": "ミナトチョウ",
    "street": null,
    "office_name": null,
    "office_name_kana": null
  },
  "0004": {
    "postcode": "7940004",
    "prefecture": "愛媛県",
    "prefecture_kana": "エヒメケン",
    "prefecture_code": 38,
    "city": "今治市",
    "city_kana": "イマバリシ",
    "town": "鐘場町",
    "town_kana": "カネバチョウ",
    "street": null,
    "office_name": null,
    "office_name_kana": null
  },
  "0005": {
    "postcode": "7940005",
    "prefecture": "愛媛県",
    "prefecture_kana": "エヒメケン",
    "prefecture_code": 38,
    "city": "今治市",
    "city_kana": "イマバリシ",
    "town": "大新田町",
    "town_kana": "オオシンデンチョウ",
    "street": null,
    "office_name": null,
    "office_name_kana": null
  },
  "0006": {
    "postcode": "7940006",
    "prefecture": "愛媛県",
    "prefecture_kana": "エヒメケン",
    "prefecture_code": 38,
    "city": "今治市",
    "city_kana": "イマバリシ",
    "town": "石井町",
    "town_kana": "イシイチョウ",
    "street": null,
    "office_name": null,
    "office_name_kana": null
  },
  "0007": {
    "postcode": "7940007",
    "prefecture": "愛媛県",
    "prefecture_kana": "エヒメケン",
    "prefecture_code": 38,
    "city": "今治市",
    "city_kana": "イマバリシ",
    "town": "近見町",
    "town_kana": "チカミチョウ",
    "street": null,
    "office_name": null,
    "office_name_kana": null
  },
  "0011": {
    "postcode": "7940011",
    "prefecture": "愛媛県",
    "prefecture_kana": "エヒメケン",
    "prefecture_code": 38,
    "city": "今治市",
    "city_kana": "イマバリシ",
    "town": "北浜町",
    "town_kana": "キタハマチョウ",
    "street": null,
    "office_name": null,
    "office_name_kana": null
  },
  "0012": {
    "postcode": "7940012",
    "prefecture": "愛媛県",
    "prefecture_kana": "エヒメケン",
    "prefecture_code": 38,
    "city": "今治市",
    "city_kana": "イマバリシ",
    "town": "美保町",
    "town_kana": "ミホチョウ",
    "street": null,
    "office_name": null,
    "office_name_kana": null
  },
  "0013": {
    "postcode": "7940013",
    "prefecture": "愛媛県",
    "prefecture_kana": "エヒメケン",
    "prefecture_code": 38,
    "city": "今治市",
    "city_kana": "イマバリシ",
    "town": "片原町",
    "town_kana": "カタハラチョウ",
    "street": null,
    "office_name": null,
    "office_name_kana": null
  },
  "0014": [
    {
      "postcode": "7940014",
      "prefecture": "愛媛県",
      "prefecture_kana": "エヒメケン",
      "prefecture_code": 38,
      "city": "今治市",
      "city_kana": "イマバリシ",
      "town": "今治村",
      "town_kana": "イマバリムラ",
      "street": null,
      "office_name": null,
      "office_name_kana": null
    },
    {
      "postcode": "7940014",
      "prefecture": "愛媛県",
      "prefecture_kana": "エヒメケン",
      "prefecture_code": 38,
      "city": "今治市",
      "city_kana": "イマバリシ",
      "town": "今治村比岐島",
      "town_kana": "イマバリムラヒキジマ",
      "street": null,
      "office_name": null,
      "office_name_kana": null
    }
  ],
  "0015": {
    "postcode": "7940015",
    "prefecture": "愛媛県",
    "prefecture_kana": "エヒメケン",
    "prefecture_code": 38,
    "city": "今治市",
    "city_kana": "イマバリシ",
    "town": "常盤町",
    "town_kana": "トキワチョウ",
    "street": null,
    "office_name": null,
    "office_name_kana": null
  },
  "0016": {
    "postcode": "7940016",
    "prefecture": "愛媛県",
    "prefecture_kana": "エヒメケン",
    "prefecture_code": 38,
    "city": "今治市",
    "city_kana": "イマバリシ",
    "town": "中浜町",
    "town_kana": "ナカバマチョウ",
    "street": null,
    "office_name": null,
    "office_name_kana": null
  },
  "0017": {
    "postcode": "7940017",
    "prefecture": "愛媛県",
    "prefecture_kana": "エヒメケン",
    "prefecture_code": 38,
    "city": "今治市",
    "city_kana": "イマバリシ",
    "town": "風早町",
    "town_kana": "カザハヤチョウ",
    "street": null,
    "office_name": null,
    "office_name_kana": null
  },
  "0018": {
    "postcode": "7940018",
    "prefecture": "愛媛県",
    "prefecture_kana": "エヒメケン",
    "prefecture_code": 38,
    "city": "今治市",
    "city_kana": "イマバリシ",
    "town": "本町",
    "town_kana": "ホンマチ",
    "street": null,
    "office_name": null,
    "office_name_kana": null
  },
  "0021": {
    "postcode": "7940021",
    "prefecture": "愛媛県",
    "prefecture_kana": "エヒメケン",
    "prefecture_code": 38,
    "city": "今治市",
    "city_kana": "イマバリシ",
    "town": "米屋町",
    "town_kana": "コメヤマチ",
    "street": null,
    "office_name": null,
    "office_name_kana": null
  },
  "0022": {
    "postcode": "7940022",
    "prefecture": "愛媛県",
    "prefecture_kana": "エヒメケン",
    "prefecture_code": 38,
    "city": "今治市",
    "city_kana": "イマバリシ",
    "town": "室屋町",
    "town_kana": "ムロヤチョウ",
    "street": null,
    "office_name": null,
    "office_name_kana": null
  },
  "0023": {
    "postcode": "7940023",
    "prefecture": "愛媛県",
    "prefecture_kana": "エヒメケン",
    "prefecture_code": 38,
    "city": "今治市",
    "city_kana": "イマバリシ",
    "town": "栄町",
    "town_kana": "サカエマチ",
    "street": null,
    "office_name": null,
    "office_name_kana": null
  },
  "0024": {
    "postcode": "7940024",
    "prefecture": "愛媛県",
    "prefecture_kana": "エヒメケン",
    "prefecture_code": 38,
    "city": "今治市",
    "city_kana": "イマバリシ",
    "town": "共栄町",
    "town_kana": "キョウエイチョウ",
    "street": null,
    "office_name": null,
    "office_name_kana": null
  },
  "0025": {
    "postcode": "7940025",
    "prefecture": "愛媛県",
    "prefecture_kana": "エヒメケン",
    "prefecture_code": 38,
    "city": "今治市",
    "city_kana": "イマバリシ",
    "town": "大正町",
    "town_kana": "タイショウチョウ",
    "street": null,
    "office_name": null,
    "office_name_kana": null
  },
  "0026": {
    "postcode": "7940026",
    "prefecture": "愛媛県",
    "prefecture_kana": "エヒメケン",
    "prefecture_code": 38,
    "city": "今治市",
    "city_kana": "イマバリシ",
    "town": "別宮町",
    "town_kana": "ベックチョウ",
    "street": null,
    "office_name": null,
    "office_name_kana": null
  },
  "0027": {
    "postcode": "7940027",
    "prefecture": "愛媛県",
    "prefecture_kana": "エヒメケン",
    "prefecture_code": 38,
    "city": "今治市",
    "city_kana": "イマバリシ",
    "town": "南大門町",
    "town_kana": "ミナミダイモンチョウ",
    "street": null,
    "office_name": null,
    "office_name_kana": null
  },
  "0028": {
    "postcode": "7940028",
    "prefecture": "愛媛県",
    "prefecture_kana": "エヒメケン",
    "prefecture_code": 38,
    "city": "今治市",
    "city_kana": "イマバリシ",
    "town": "北宝来町",
    "town_kana": "キタホウライチョウ",
    "street": null,
    "office_name": null,
    "office_name_kana": null
  },
  "0031": {
    "postcode": "7940031",
    "prefecture": "愛媛県",
    "prefecture_kana": "エヒメケン",
    "prefecture_code": 38,
    "city": "今治市",
    "city_kana": "イマバリシ",
    "town": "恵美須町",
    "town_kana": "エビスチョウ",
    "street": null,
    "office_name": null,
    "office_name_kana": null
  },
  "0032": {
    "postcode": "7940032",
    "prefecture": "愛媛県",
    "prefecture_kana": "エヒメケン",
    "prefecture_code": 38,
    "city": "今治市",
    "city_kana": "イマバリシ",
    "town": "天保山町",
    "town_kana": "テンポウザンチョウ",
    "street": null,
    "office_name": null,
    "office_name_kana": null
  },
  "0033": {
    "postcode": "7940033",
    "prefecture": "愛媛県",
    "prefecture_kana": "エヒメケン",
    "prefecture_code": 38,
    "city": "今治市",
    "city_kana": "イマバリシ",
    "town": "東門町",
    "town_kana": "ヒガシモンチョウ",
    "street": null,
    "office_name": null,
    "office_name_kana": null
  },
  "0034": {
    "postcode": "7940034",
    "prefecture": "愛媛県",
    "prefecture_kana": "エヒメケン",
    "prefecture_code": 38,
    "city": "今治市",
    "city_kana": "イマバリシ",
    "town": "美須賀町",
    "town_kana": "ミスカチョウ",
    "street": null,
    "office_name": null,
    "office_name_kana": null
  },
  "0035": {
    "postcode": "7940035",
    "prefecture": "愛媛県",
    "prefecture_kana": "エヒメケン",
    "prefecture_code": 38,
    "city": "今治市",
    "city_kana": "イマバリシ",
    "town": "枝堀町",
    "town_kana": "エダボリチョウ",
    "street": null,
    "office_name": null,
    "office_name_kana": null
  },
  "0036": {
    "postcode": "7940036",
    "prefecture": "愛媛県",
    "prefecture_kana": "エヒメケン",
    "prefecture_code": 38,
    "city": "今治市",
    "city_kana": "イマバリシ",
    "town": "通町",
    "town_kana": "トオリチョウ",
    "street": null,
    "office_name": null,
    "office_name_kana": null
  },
  "0037": {
    "postcode": "7940037",
    "prefecture": "愛媛県",
    "prefecture_kana": "エヒメケン",
    "prefecture_code": 38,
    "city": "今治市",
    "city_kana": "イマバリシ",
    "town": "黄金町",
    "town_kana": "コガネチョウ",
    "street": null,
    "office_name": null,
    "office_name_kana": null
  },
  "0038": {
    "postcode": "7940038",
    "prefecture": "愛媛県",
    "prefecture_kana": "エヒメケン",
    "prefecture_code": 38,
    "city": "今治市",
    "city_kana": "イマバリシ",
    "town": "末広町",
    "town_kana": "スエヒロチョウ",
    "street": null,
    "office_name": null,
    "office_name_kana": null
  },
  "0041": {
    "postcode": "7940041",
    "prefecture": "愛媛県",
    "prefecture_kana": "エヒメケン",
    "prefecture_code": 38,
    "city": "今治市",
    "city_kana": "イマバリシ",
    "town": "松本町",
    "town_kana": "マツモトチョウ",
    "street": null,
    "office_name": null,
    "office_name_kana": null
  },
  "0042": {
    "postcode": "7940042",
    "prefecture": "愛媛県",
    "prefecture_kana": "エヒメケン",
    "prefecture_code": 38,
    "city": "今治市",
    "city_kana": "イマバリシ",
    "town": "旭町",
    "town_kana": "アサヒマチ",
    "street": null,
    "office_name": null,
    "office_name_kana": null
  },
  "0043": {
    "postcode": "7940043",
    "prefecture": "愛媛県",
    "prefecture_kana": "エヒメケン",
    "prefecture_code": 38,
    "city": "今治市",
    "city_kana": "イマバリシ",
    "town": "南宝来町",
    "town_kana": "ミナミホウライチョウ",
    "street": null,
    "office_name": null,
    "office_name_kana": null
  },
  "0044": {
    "postcode": "7940044",
    "prefecture": "愛媛県",
    "prefecture_kana": "エヒメケン",
    "prefecture_code": 38,
    "city": "今治市",
    "city_kana": "イマバリシ",
    "town": "蔵敷町",
    "town_kana": "クラシキチョウ",
    "street": null,
    "office_name": null,
    "office_name_kana": null
  },
  "0051": {
    "postcode": "7940051",
    "prefecture": "愛媛県",
    "prefecture_kana": "エヒメケン",
    "prefecture_code": 38,
    "city": "今治市",
    "city_kana": "イマバリシ",
    "town": "高地町",
    "town_kana": "コウチチョウ",
    "street": null,
    "office_name": null,
    "office_name_kana": null
  },
  "0052": {
    "postcode": "7940052",
    "prefecture": "愛媛県",
    "prefecture_kana": "エヒメケン",
    "prefecture_code": 38,
    "city": "今治市",
    "city_kana": "イマバリシ",
    "town": "宮下町",
    "town_kana": "ミヤシタチョウ",
    "street": null,
    "office_name": null,
    "office_name_kana": null
  },
  "0053": {
    "postcode": "7940053",
    "prefecture": "愛媛県",
    "prefecture_kana": "エヒメケン",
    "prefecture_code": 38,
    "city": "今治市",
    "city_kana": "イマバリシ",
    "town": "山方町",
    "town_kana": "ヤマカタチョウ",
    "street": null,
    "office_name": null,
    "office_name_kana": null
  },
  "0054": {
    "postcode": "7940054",
    "prefecture": "愛媛県",
    "prefecture_kana": "エヒメケン",
    "prefecture_code": 38,
    "city": "今治市",
    "city_kana": "イマバリシ",
    "town": "北日吉町",
    "town_kana": "キタヒヨシチョウ",
    "street": null,
    "office_name": null,
    "office_name_kana": null
  },
  "0055": {
    "postcode": "7940055",
    "prefecture": "愛媛県",
    "prefecture_kana": "エヒメケン",
    "prefecture_code": 38,
    "city": "今治市",
    "city_kana": "イマバリシ",
    "town": "中日吉町",
    "town_kana": "ナカヒヨシチョウ",
    "street": null,
    "office_name": null,
    "office_name_kana": null
  },
  "0056": {
    "postcode": "7940056",
    "prefecture": "愛媛県",
    "prefecture_kana": "エヒメケン",
    "prefecture_code": 38,
    "city": "今治市",
    "city_kana": "イマバリシ",
    "town": "南日吉町",
    "town_kana": "ミナミヒヨシチョウ",
    "street": null,
    "office_name": null,
    "office_name_kana": null
  },
  "0057": {
    "postcode": "7940057",
    "prefecture": "愛媛県",
    "prefecture_kana": "エヒメケン",
    "prefecture_code": 38,
    "city": "今治市",
    "city_kana": "イマバリシ",
    "town": "泉川町",
    "town_kana": "イズミガワチョウ",
    "street": null,
    "office_name": null,
    "office_name_kana": null
  },
  "0058": {
    "postcode": "7940058",
    "prefecture": "愛媛県",
    "prefecture_kana": "エヒメケン",
    "prefecture_code": 38,
    "city": "今治市",
    "city_kana": "イマバリシ",
    "town": "蒼社町",
    "town_kana": "ソウシャチョウ",
    "street": null,
    "office_name": null,
    "office_name_kana": null
  },
  "0059": {
    "postcode": "7940059",
    "prefecture": "愛媛県",
    "prefecture_kana": "エヒメケン",
    "prefecture_code": 38,
    "city": "今治市",
    "city_kana": "イマバリシ",
    "town": "鯉池町",
    "town_kana": "コイケチョウ",
    "street": null,
    "office_name": null,
    "office_name_kana": null
  },
  "0061": {
    "postcode": "7940061",
    "prefecture": "愛媛県",
    "prefecture_kana": "エヒメケン",
    "prefecture_code": 38,
    "city": "今治市",
    "city_kana": "イマバリシ",
    "town": "馬越二番耕地",
    "town_kana": "ウマゴエニバンコウチ",
    "street": null,
    "office_name": null,
    "office_name_kana": null
  },
  "0062": {
    "postcode": "7940062",
    "prefecture": "愛媛県",
    "prefecture_kana": "エヒメケン",
    "prefecture_code": 38,
    "city": "今治市",
    "city_kana": "イマバリシ",
    "town": "馬越町",
    "town_kana": "ウマゴエチョウ",
    "street": null,
    "office_name": null,
    "office_name_kana": null
  },
  "0063": {
    "postcode": "7940063",
    "prefecture": "愛媛県",
    "prefecture_kana": "エヒメケン",
    "prefecture_code": 38,
    "city": "今治市",
    "city_kana": "イマバリシ",
    "town": "片山",
    "town_kana": "カタヤマ",
    "street": null,
    "office_name": null,
    "office_name_kana": null
  },
  "0064": {
    "postcode": "7940064",
    "prefecture": "愛媛県",
    "prefecture_kana": "エヒメケン",
    "prefecture_code": 38,
    "city": "今治市",
    "city_kana": "イマバリシ",
    "town": "小泉",
    "town_kana": "コイズミ",
    "street": null,
    "office_name": null,
    "office_name_kana": null
  },
  "0065": {
    "postcode": "7940065",
    "prefecture": "愛媛県",
    "prefecture_kana": "エヒメケン",
    "prefecture_code": 38,
    "city": "今治市",
    "city_kana": "イマバリシ",
    "town": "別名",
    "town_kana": "ベツミョウ",
    "street": null,
    "office_name": null,
    "office_name_kana": null
  },
  "0066": {
    "postcode": "7940066",
    "prefecture": "愛媛県",
    "prefecture_kana": "エヒメケン",
    "prefecture_code": 38,
    "city": "今治市",
    "city_kana": "イマバリシ",
    "town": "高橋",
    "town_kana": "タカハシ",
    "street": null,
    "office_name": null,
    "office_name_kana": null
  },
  "0067": {
    "postcode": "7940067",
    "prefecture": "愛媛県",
    "prefecture_kana": "エヒメケン",
    "prefecture_code": 38,
    "city": "今治市",
    "city_kana": "イマバリシ",
    "town": "高橋ふれあいの丘",
    "town_kana": "タカハシフレアイノオカ",
    "street": null,
    "office_name": null,
    "office_name_kana": null
  },
  "0068": {
    "postcode": "7940068",
    "prefecture": "愛媛県",
    "prefecture_kana": "エヒメケン",
    "prefecture_code": 38,
    "city": "今治市",
    "city_kana": "イマバリシ",
    "town": "にぎわい広場",
    "town_kana": "ニギワイヒロバ",
    "street": null,
    "office_name": null,
    "office_name_kana": null
  },
  "0069": {
    "postcode": "7940069",
    "prefecture": "愛媛県",
    "prefecture_kana": "エヒメケン",
    "prefecture_code": 38,
    "city": "今治市",
    "city_kana": "イマバリシ",
    "town": "クリエイティブヒルズ",
    "town_kana": "クリエイティブヒルズ",
    "street": null,
    "office_name": null,
    "office_name_kana": null
  },
  "0071": {
    "postcode": "7940071",
    "prefecture": "愛媛県",
    "prefecture_kana": "エヒメケン",
    "prefecture_code": 38,
    "city": "今治市",
    "city_kana": "イマバリシ",
    "town": "山路町",
    "town_kana": "ヤマジチョウ",
    "street": null,
    "office_name": null,
    "office_name_kana": null
  },
  "0072": {
    "postcode": "7940072",
    "prefecture": "愛媛県",
    "prefecture_kana": "エヒメケン",
    "prefecture_code": 38,
    "city": "今治市",
    "city_kana": "イマバリシ",
    "town": "山路",
    "town_kana": "ヤマジ",
    "street": null,
    "office_name": null,
    "office_name_kana": null
  },
  "0073": {
    "postcode": "7940073",
    "prefecture": "愛媛県",
    "prefecture_kana": "エヒメケン",
    "prefecture_code": 38,
    "city": "今治市",
    "city_kana": "イマバリシ",
    "town": "矢田",
    "town_kana": "ヤタ",
    "street": null,
    "office_name": null,
    "office_name_kana": null
  },
  "0074": {
    "postcode": "7940074",
    "prefecture": "愛媛県",
    "prefecture_kana": "エヒメケン",
    "prefecture_code": 38,
    "city": "今治市",
    "city_kana": "イマバリシ",
    "town": "神宮",
    "town_kana": "カンノミヤ",
    "street": null,
    "office_name": null,
    "office_name_kana": null
  },
  "0081": {
    "postcode": "7940081",
    "prefecture": "愛媛県",
    "prefecture_kana": "エヒメケン",
    "prefecture_code": 38,
    "city": "今治市",
    "city_kana": "イマバリシ",
    "town": "阿方",
    "town_kana": "アガタ",
    "street": null,
    "office_name": null,
    "office_name_kana": null
  },
  "0082": {
    "postcode": "7940082",
    "prefecture": "愛媛県",
    "prefecture_kana": "エヒメケン",
    "prefecture_code": 38,
    "city": "今治市",
    "city_kana": "イマバリシ",
    "town": "野間",
    "town_kana": "ノマ",
    "street": null,
    "office_name": null,
    "office_name_kana": null
  },
  "0083": {
    "postcode": "7940083",
    "prefecture": "愛媛県",
    "prefecture_kana": "エヒメケン",
    "prefecture_code": 38,
    "city": "今治市",
    "city_kana": "イマバリシ",
    "town": "宅間",
    "town_kana": "タクマ",
    "street": null,
    "office_name": null,
    "office_name_kana": null
  },
  "0084": {
    "postcode": "7940084",
    "prefecture": "愛媛県",
    "prefecture_kana": "エヒメケン",
    "prefecture_code": 38,
    "city": "今治市",
    "city_kana": "イマバリシ",
    "town": "延喜",
    "town_kana": "エンギ",
    "street": null,
    "office_name": null,
    "office_name_kana": null
  },
  "0085": {
    "postcode": "7940085",
    "prefecture": "愛媛県",
    "prefecture_kana": "エヒメケン",
    "prefecture_code": 38,
    "city": "今治市",
    "city_kana": "イマバリシ",
    "town": "いこいの丘",
    "town_kana": "イコイノオカ",
    "street": null,
    "office_name": null,
    "office_name_kana": null
  },
  "0086": {
    "postcode": "7940086",
    "prefecture": "愛媛県",
    "prefecture_kana": "エヒメケン",
    "prefecture_code": 38,
    "city": "今治市",
    "city_kana": "イマバリシ",
    "town": "しまなみの杜",
    "town_kana": "シマナミノモリ",
    "street": null,
    "office_name": null,
    "office_name_kana": null
  },
  "0087": {
    "postcode": "7940087",
    "prefecture": "愛媛県",
    "prefecture_kana": "エヒメケン",
    "prefecture_code": 38,
    "city": "今治市",
    "city_kana": "イマバリシ",
    "town": "しまなみヒルズ",
    "town_kana": "シマナミヒルズ",
    "street": null,
    "office_name": null,
    "office_name_kana": null
  },
  "0101": {
    "postcode": "7940101",
    "prefecture": "愛媛県",
    "prefecture_kana": "エヒメケン",
    "prefecture_code": 38,
    "city": "今治市",
    "city_kana": "イマバリシ",
    "town": "玉川町三反地",
    "town_kana": "タマガワチョウサンダンジ",
    "street": null,
    "office_name": null,
    "office_name_kana": null
  },
  "0102": {
    "postcode": "7940102",
    "prefecture": "愛媛県",
    "prefecture_kana": "エヒメケン",
    "prefecture_code": 38,
    "city": "今治市",
    "city_kana": "イマバリシ",
    "town": "玉川町大野",
    "town_kana": "タマガワチョウオオノ",
    "street": null,
    "office_name": null,
    "office_name_kana": null
  },
  "0103": {
    "postcode": "7940103",
    "prefecture": "愛媛県",
    "prefecture_kana": "エヒメケン",
    "prefecture_code": 38,
    "city": "今治市",
    "city_kana": "イマバリシ",
    "town": "玉川町法界寺",
    "town_kana": "タマガワチョウホウカイジ",
    "street": null,
    "office_name": null,
    "office_name_kana": null
  },
  "0104": {
    "postcode": "7940104",
    "prefecture": "愛媛県",
    "prefecture_kana": "エヒメケン",
    "prefecture_code": 38,
    "city": "今治市",
    "city_kana": "イマバリシ",
    "town": "玉川町摺木",
    "town_kana": "タマガワチョウスルギ",
    "street": null,
    "office_name": null,
    "office_name_kana": null
  },
  "0105": {
    "postcode": "7940105",
    "prefecture": "愛媛県",
    "prefecture_kana": "エヒメケン",
    "prefecture_code": 38,
    "city": "今治市",
    "city_kana": "イマバリシ",
    "town": "玉川町與和木",
    "town_kana": "タマガワチョウヨワギ",
    "street": null,
    "office_name": null,
    "office_name_kana": null
  },
  "0106": {
    "postcode": "7940106",
    "prefecture": "愛媛県",
    "prefecture_kana": "エヒメケン",
    "prefecture_code": 38,
    "city": "今治市",
    "city_kana": "イマバリシ",
    "town": "玉川町鍋地",
    "town_kana": "タマガワチョウナベジ",
    "street": null,
    "office_name": null,
    "office_name_kana": null
  },
  "0107": {
    "postcode": "7940107",
    "prefecture": "愛媛県",
    "prefecture_kana": "エヒメケン",
    "prefecture_code": 38,
    "city": "今治市",
    "city_kana": "イマバリシ",
    "town": "玉川町桂",
    "town_kana": "タマガワチョウカツラ",
    "street": null,
    "office_name": null,
    "office_name_kana": null
  },
  "0108": {
    "postcode": "7940108",
    "prefecture": "愛媛県",
    "prefecture_kana": "エヒメケン",
    "prefecture_code": 38,
    "city": "今治市",
    "city_kana": "イマバリシ",
    "town": "玉川町御厩",
    "town_kana": "タマガワチョウミマヤ",
    "street": null,
    "office_name": null,
    "office_name_kana": null
  },
  "0109": {
    "postcode": "7940109",
    "prefecture": "愛媛県",
    "prefecture_kana": "エヒメケン",
    "prefecture_code": 38,
    "city": "今治市",
    "city_kana": "イマバリシ",
    "town": "玉川町長谷",
    "town_kana": "タマガワチョウナガタニ",
    "street": null,
    "office_name": null,
    "office_name_kana": null
  },
  "0111": {
    "postcode": "7940111",
    "prefecture": "愛媛県",
    "prefecture_kana": "エヒメケン",
    "prefecture_code": 38,
    "city": "今治市",
    "city_kana": "イマバリシ",
    "town": "玉川町中村",
    "town_kana": "タマガワチョウナカムラ",
    "street": null,
    "office_name": null,
    "office_name_kana": null
  },
  "0112": {
    "postcode": "7940112",
    "prefecture": "愛媛県",
    "prefecture_kana": "エヒメケン",
    "prefecture_code": 38,
    "city": "今治市",
    "city_kana": "イマバリシ",
    "town": "玉川町小鴨部",
    "town_kana": "タマガワチョウコカンベ",
    "street": null,
    "office_name": null,
    "office_name_kana": null
  },
  "0113": {
    "postcode": "7940113",
    "prefecture": "愛媛県",
    "prefecture_kana": "エヒメケン",
    "prefecture_code": 38,
    "city": "今治市",
    "city_kana": "イマバリシ",
    "town": "玉川町別所",
    "town_kana": "タマガワチョウベッショ",
    "street": null,
    "office_name": null,
    "office_name_kana": null
  },
  "0114": {
    "postcode": "7940114",
    "prefecture": "愛媛県",
    "prefecture_kana": "エヒメケン",
    "prefecture_code": 38,
    "city": "今治市",
    "city_kana": "イマバリシ",
    "town": "玉川町八幡",
    "town_kana": "タマガワチョウヤワタ",
    "street": null,
    "office_name": null,
    "office_name_kana": null
  },
  "0115": {
    "postcode": "7940115",
    "prefecture": "愛媛県",
    "prefecture_kana": "エヒメケン",
    "prefecture_code": 38,
    "city": "今治市",
    "city_kana": "イマバリシ",
    "town": "玉川町高野",
    "town_kana": "タマガワチョウコウヤ",
    "street": null,
    "office_name": null,
    "office_name_kana": null
  },
  "0116": {
    "postcode": "7940116",
    "prefecture": "愛媛県",
    "prefecture_kana": "エヒメケン",
    "prefecture_code": 38,
    "city": "今治市",
    "city_kana": "イマバリシ",
    "town": "玉川町畑寺",
    "town_kana": "タマガワチョウハタデラ",
    "street": null,
    "office_name": null,
    "office_name_kana": null
  },
  "0117": {
    "postcode": "7940117",
    "prefecture": "愛媛県",
    "prefecture_kana": "エヒメケン",
    "prefecture_code": 38,
    "city": "今治市",
    "city_kana": "イマバリシ",
    "town": "玉川町鬼原",
    "town_kana": "タマガワチョウオニバラ",
    "street": null,
    "office_name": null,
    "office_name_kana": null
  },
  "0121": {
    "postcode": "7940121",
    "prefecture": "愛媛県",
    "prefecture_kana": "エヒメケン",
    "prefecture_code": 38,
    "city": "今治市",
    "city_kana": "イマバリシ",
    "town": "玉川町鈍川",
    "town_kana": "タマガワチョウニブカワ",
    "street": null,
    "office_name": null,
    "office_name_kana": null
  },
  "0122": {
    "postcode": "7940122",
    "prefecture": "愛媛県",
    "prefecture_kana": "エヒメケン",
    "prefecture_code": 38,
    "city": "今治市",
    "city_kana": "イマバリシ",
    "town": "玉川町木地",
    "town_kana": "タマガワチョウキジ",
    "street": null,
    "office_name": null,
    "office_name_kana": null
  },
  "0123": {
    "postcode": "7940123",
    "prefecture": "愛媛県",
    "prefecture_kana": "エヒメケン",
    "prefecture_code": 38,
    "city": "今治市",
    "city_kana": "イマバリシ",
    "town": "玉川町龍岡下",
    "town_kana": "タマガワチョウリュウオカシモ",
    "street": null,
    "office_name": null,
    "office_name_kana": null
  },
  "0124": {
    "postcode": "7940124",
    "prefecture": "愛媛県",
    "prefecture_kana": "エヒメケン",
    "prefecture_code": 38,
    "city": "今治市",
    "city_kana": "イマバリシ",
    "town": "玉川町龍岡上",
    "town_kana": "タマガワチョウリュウオカカミ",
    "street": null,
    "office_name": null,
    "office_name_kana": null
  },
  "0125": {
    "postcode": "7940125",
    "prefecture": "愛媛県",
    "prefecture_kana": "エヒメケン",
    "prefecture_code": 38,
    "city": "今治市",
    "city_kana": "イマバリシ",
    "town": "玉川町葛谷",
    "town_kana": "タマガワチョウカズラタニ",
    "street": null,
    "office_name": null,
    "office_name_kana": null
  },
  "0192": {
    "postcode": "7940192",
    "prefecture": "愛媛県",
    "prefecture_kana": "エヒメケン",
    "prefecture_code": 38,
    "city": "今治市",
    "city_kana": "イマバリシ",
    "town": "玉川町三反地",
    "town_kana": "タマガワチョウサンダンジ",
    "street": "甲１０−１",
    "office_name": "今治市役所　玉川支所",
    "office_name_kana": "イマバリシヤクシヨ タマガワシシヨ"
  },
  "0193": {
    "postcode": "7940193",
    "prefecture": "愛媛県",
    "prefecture_kana": "エヒメケン",
    "prefecture_code": 38,
    "city": "今治市",
    "city_kana": "イマバリシ",
    "town": "玉川町大野",
    "town_kana": "タマガワチョウオオノ",
    "street": "甲１５１",
    "office_name": "越智今治農業協同組合　玉川支所",
    "office_name_kana": "オチイマバリノウギヨウキヨウドウクミアイ タマガワシシヨ"
  },
  "0801": {
    "postcode": "7940801",
    "prefecture": "愛媛県",
    "prefecture_kana": "エヒメケン",
    "prefecture_code": 38,
    "city": "今治市",
    "city_kana": "イマバリシ",
    "town": "東鳥生町",
    "town_kana": "ヒガシトリウチョウ",
    "street": null,
    "office_name": null,
    "office_name_kana": null
  },
  "0802": {
    "postcode": "7940802",
    "prefecture": "愛媛県",
    "prefecture_kana": "エヒメケン",
    "prefecture_code": 38,
    "city": "今治市",
    "city_kana": "イマバリシ",
    "town": "南鳥生町",
    "town_kana": "ミナミトリウチョウ",
    "street": null,
    "office_name": null,
    "office_name_kana": null
  },
  "0803": {
    "postcode": "7940803",
    "prefecture": "愛媛県",
    "prefecture_kana": "エヒメケン",
    "prefecture_code": 38,
    "city": "今治市",
    "city_kana": "イマバリシ",
    "town": "北鳥生町",
    "town_kana": "キタトリウチョウ",
    "street": null,
    "office_name": null,
    "office_name_kana": null
  },
  "0804": {
    "postcode": "7940804",
    "prefecture": "愛媛県",
    "prefecture_kana": "エヒメケン",
    "prefecture_code": 38,
    "city": "今治市",
    "city_kana": "イマバリシ",
    "town": "祇園町",
    "town_kana": "ギオンチョウ",
    "street": null,
    "office_name": null,
    "office_name_kana": null
  },
  "0805": {
    "postcode": "7940805",
    "prefecture": "愛媛県",
    "prefecture_kana": "エヒメケン",
    "prefecture_code": 38,
    "city": "今治市",
    "city_kana": "イマバリシ",
    "town": "広紹寺町",
    "town_kana": "コウジョウジチョウ",
    "street": null,
    "office_name": null,
    "office_name_kana": null
  },
  "0811": {
    "postcode": "7940811",
    "prefecture": "愛媛県",
    "prefecture_kana": "エヒメケン",
    "prefecture_code": 38,
    "city": "今治市",
    "city_kana": "イマバリシ",
    "town": "南高下町",
    "town_kana": "ミナミコウゲチョウ",
    "street": null,
    "office_name": null,
    "office_name_kana": null
  },
  "0812": {
    "postcode": "7940812",
    "prefecture": "愛媛県",
    "prefecture_kana": "エヒメケン",
    "prefecture_code": 38,
    "city": "今治市",
    "city_kana": "イマバリシ",
    "town": "北高下町",
    "town_kana": "キタコウゲチョウ",
    "street": null,
    "office_name": null,
    "office_name_kana": null
  },
  "0813": {
    "postcode": "7940813",
    "prefecture": "愛媛県",
    "prefecture_kana": "エヒメケン",
    "prefecture_code": 38,
    "city": "今治市",
    "city_kana": "イマバリシ",
    "town": "衣干町",
    "town_kana": "キヌボシチョウ",
    "street": null,
    "office_name": null,
    "office_name_kana": null
  },
  "0814": {
    "postcode": "7940814",
    "prefecture": "愛媛県",
    "prefecture_kana": "エヒメケン",
    "prefecture_code": 38,
    "city": "今治市",
    "city_kana": "イマバリシ",
    "town": "横田町",
    "town_kana": "ヨコタチョウ",
    "street": null,
    "office_name": null,
    "office_name_kana": null
  },
  "0815": {
    "postcode": "7940815",
    "prefecture": "愛媛県",
    "prefecture_kana": "エヒメケン",
    "prefecture_code": 38,
    "city": "今治市",
    "city_kana": "イマバリシ",
    "town": "土橋町",
    "town_kana": "ツチバシチョウ",
    "street": null,
    "office_name": null,
    "office_name_kana": null
  },
  "0821": {
    "postcode": "7940821",
    "prefecture": "愛媛県",
    "prefecture_kana": "エヒメケン",
    "prefecture_code": 38,
    "city": "今治市",
    "city_kana": "イマバリシ",
    "town": "立花町",
    "town_kana": "タチバナチョウ",
    "street": null,
    "office_name": null,
    "office_name_kana": null
  },
  "0822": {
    "postcode": "7940822",
    "prefecture": "愛媛県",
    "prefecture_kana": "エヒメケン",
    "prefecture_code": 38,
    "city": "今治市",
    "city_kana": "イマバリシ",
    "town": "河南町",
    "town_kana": "カナンチョウ",
    "street": null,
    "office_name": null,
    "office_name_kana": null
  },
  "0823": {
    "postcode": "7940823",
    "prefecture": "愛媛県",
    "prefecture_kana": "エヒメケン",
    "prefecture_code": 38,
    "city": "今治市",
    "city_kana": "イマバリシ",
    "town": "郷本町",
    "town_kana": "ゴウホンチョウ",
    "street": null,
    "office_name": null,
    "office_name_kana": null
  },
  "0824": {
    "postcode": "7940824",
    "prefecture": "愛媛県",
    "prefecture_kana": "エヒメケン",
    "prefecture_code": 38,
    "city": "今治市",
    "city_kana": "イマバリシ",
    "town": "石橋町",
    "town_kana": "イシバシチョウ",
    "street": null,
    "office_name": null,
    "office_name_kana": null
  },
  "0825": {
    "postcode": "7940825",
    "prefecture": "愛媛県",
    "prefecture_kana": "エヒメケン",
    "prefecture_code": 38,
    "city": "今治市",
    "city_kana": "イマバリシ",
    "town": "郷六ケ内町",
    "town_kana": "ゴウロクガウチチョウ",
    "street": null,
    "office_name": null,
    "office_name_kana": null
  },
  "0826": {
    "postcode": "7940826",
    "prefecture": "愛媛県",
    "prefecture_kana": "エヒメケン",
    "prefecture_code": 38,
    "city": "今治市",
    "city_kana": "イマバリシ",
    "town": "郷新屋敷町",
    "town_kana": "ゴウシンヤシキチョウ",
    "street": null,
    "office_name": null,
    "office_name_kana": null
  },
  "0827": {
    "postcode": "7940827",
    "prefecture": "愛媛県",
    "prefecture_kana": "エヒメケン",
    "prefecture_code": 38,
    "city": "今治市",
    "city_kana": "イマバリシ",
    "town": "辻堂",
    "town_kana": "ツジドウ",
    "street": null,
    "office_name": null,
    "office_name_kana": null
  },
  "0831": {
    "postcode": "7940831",
    "prefecture": "愛媛県",
    "prefecture_kana": "エヒメケン",
    "prefecture_code": 38,
    "city": "今治市",
    "city_kana": "イマバリシ",
    "town": "八町東",
    "town_kana": "ハッチョウヒガシ",
    "street": null,
    "office_name": null,
    "office_name_kana": null
  },
  "0832": {
    "postcode": "7940832",
    "prefecture": "愛媛県",
    "prefecture_kana": "エヒメケン",
    "prefecture_code": 38,
    "city": "今治市",
    "city_kana": "イマバリシ",
    "town": "八町西",
    "town_kana": "ハッチョウニシ",
    "street": null,
    "office_name": null,
    "office_name_kana": null
  },
  "0840": {
    "postcode": "7940840",
    "prefecture": "愛媛県",
    "prefecture_kana": "エヒメケン",
    "prefecture_code": 38,
    "city": "今治市",
    "city_kana": "イマバリシ",
    "town": "中寺",
    "town_kana": "ナカデラ",
    "street": null,
    "office_name": null,
    "office_name_kana": null
  },
  "0850": {
    "postcode": "7940850",
    "prefecture": "愛媛県",
    "prefecture_kana": "エヒメケン",
    "prefecture_code": 38,
    "city": "今治市",
    "city_kana": "イマバリシ",
    "town": "新谷",
    "town_kana": "ニヤ",
    "street": null,
    "office_name": null,
    "office_name_kana": null
  },
  "0861": {
    "postcode": "7940861",
    "prefecture": "愛媛県",
    "prefecture_kana": "エヒメケン",
    "prefecture_code": 38,
    "city": "今治市",
    "city_kana": "イマバリシ",
    "town": "五十嵐",
    "town_kana": "イカナシ",
    "street": null,
    "office_name": null,
    "office_name_kana": null
  },
  "0862": {
    "postcode": "7940862",
    "prefecture": "愛媛県",
    "prefecture_kana": "エヒメケン",
    "prefecture_code": 38,
    "city": "今治市",
    "city_kana": "イマバリシ",
    "town": "四村",
    "town_kana": "ヨムラ",
    "street": null,
    "office_name": null,
    "office_name_kana": null
  },
  "0863": {
    "postcode": "7940863",
    "prefecture": "愛媛県",
    "prefecture_kana": "エヒメケン",
    "prefecture_code": 38,
    "city": "今治市",
    "city_kana": "イマバリシ",
    "town": "徳重",
    "town_kana": "トクシゲ",
    "street": null,
    "office_name": null,
    "office_name_kana": null
  },
  "1101": {
    "postcode": "7941101",
    "prefecture": "愛媛県",
    "prefecture_kana": "エヒメケン",
    "prefecture_code": 38,
    "city": "今治市",
    "city_kana": "イマバリシ",
    "town": "関前岡村",
    "town_kana": "セキゼンオカムラ",
    "street": null,
    "office_name": null,
    "office_name_kana": null
  },
  "1102": {
    "postcode": "7941102",
    "prefecture": "愛媛県",
    "prefecture_kana": "エヒメケン",
    "prefecture_code": 38,
    "city": "今治市",
    "city_kana": "イマバリシ",
    "town": "関前小大下",
    "town_kana": "セキゼンコオゲ",
    "street": null,
    "office_name": null,
    "office_name_kana": null
  },
  "1103": {
    "postcode": "7941103",
    "prefecture": "愛媛県",
    "prefecture_kana": "エヒメケン",
    "prefecture_code": 38,
    "city": "今治市",
    "city_kana": "イマバリシ",
    "town": "関前大下",
    "town_kana": "セキゼンオオゲ",
    "street": null,
    "office_name": null,
    "office_name_kana": null
  },
  "1192": {
    "postcode": "7941192",
    "prefecture": "愛媛県",
    "prefecture_kana": "エヒメケン",
    "prefecture_code": 38,
    "city": "今治市",
    "city_kana": "イマバリシ",
    "town": "関前岡村",
    "town_kana": "セキゼンオカムラ",
    "street": "甲７３２番地",
    "office_name": "今治市役所　関前支所",
    "office_name_kana": "イマバリシヤクシヨ セキゼンシシヨ"
  },
  "1301": {
    "postcode": "7941301",
    "prefecture": "愛媛県",
    "prefecture_kana": "エヒメケン",
    "prefecture_code": 38,
    "city": "今治市",
    "city_kana": "イマバリシ",
    "town": "大三島町肥海",
    "town_kana": "オオミシマチョウヒガイ",
    "street": null,
    "office_name": null,
    "office_name_kana": null
  },
  "1302": {
    "postcode": "7941302",
    "prefecture": "愛媛県",
    "prefecture_kana": "エヒメケン",
    "prefecture_code": 38,
    "city": "今治市",
    "city_kana": "イマバリシ",
    "town": "大三島町大見",
    "town_kana": "オオミシマチョウオオミ",
    "street": null,
    "office_name": null,
    "office_name_kana": null
  },
  "1303": {
    "postcode": "7941303",
    "prefecture": "愛媛県",
    "prefecture_kana": "エヒメケン",
    "prefecture_code": 38,
    "city": "今治市",
    "city_kana": "イマバリシ",
    "town": "大三島町明日",
    "town_kana": "オオミシマチョウアケビ",
    "street": null,
    "office_name": null,
    "office_name_kana": null
  },
  "1304": {
    "postcode": "7941304",
    "prefecture": "愛媛県",
    "prefecture_kana": "エヒメケン",
    "prefecture_code": 38,
    "city": "今治市",
    "city_kana": "イマバリシ",
    "town": "大三島町宮浦",
    "town_kana": "オオミシマチョウミヤウラ",
    "street": null,
    "office_name": null,
    "office_name_kana": null
  },
  "1305": {
    "postcode": "7941305",
    "prefecture": "愛媛県",
    "prefecture_kana": "エヒメケン",
    "prefecture_code": 38,
    "city": "今治市",
    "city_kana": "イマバリシ",
    "town": "大三島町台",
    "town_kana": "オオミシマチョウウテナ",
    "street": null,
    "office_name": null,
    "office_name_kana": null
  },
  "1306": {
    "postcode": "7941306",
    "prefecture": "愛媛県",
    "prefecture_kana": "エヒメケン",
    "prefecture_code": 38,
    "city": "今治市",
    "city_kana": "イマバリシ",
    "town": "大三島町野々江",
    "town_kana": "オオミシマチョウノノエ",
    "street": null,
    "office_name": null,
    "office_name_kana": null
  },
  "1307": {
    "postcode": "7941307",
    "prefecture": "愛媛県",
    "prefecture_kana": "エヒメケン",
    "prefecture_code": 38,
    "city": "今治市",
    "city_kana": "イマバリシ",
    "town": "大三島町口総",
    "town_kana": "オオミシマチョウクチスボ",
    "street": null,
    "office_name": null,
    "office_name_kana": null
  },
  "1308": {
    "postcode": "7941308",
    "prefecture": "愛媛県",
    "prefecture_kana": "エヒメケン",
    "prefecture_code": 38,
    "city": "今治市",
    "city_kana": "イマバリシ",
    "town": "大三島町浦戸",
    "town_kana": "オオミシマチョウウラド",
    "street": null,
    "office_name": null,
    "office_name_kana": null
  },
  "1309": {
    "postcode": "7941309",
    "prefecture": "愛媛県",
    "prefecture_kana": "エヒメケン",
    "prefecture_code": 38,
    "city": "今治市",
    "city_kana": "イマバリシ",
    "town": "大三島町宗方",
    "town_kana": "オオミシマチョウムナガタ",
    "street": null,
    "office_name": null,
    "office_name_kana": null
  },
  "1392": {
    "postcode": "7941392",
    "prefecture": "愛媛県",
    "prefecture_kana": "エヒメケン",
    "prefecture_code": 38,
    "city": "今治市",
    "city_kana": "イマバリシ",
    "town": "大三島町宮浦",
    "town_kana": "オオミシマチョウミヤウラ",
    "street": "５７０８番地",
    "office_name": "今治市役所　大三島支所",
    "office_name_kana": "イマバリシヤクシヨ オオミシマシシヨ"
  },
  "1393": {
    "postcode": "7941393",
    "prefecture": "愛媛県",
    "prefecture_kana": "エヒメケン",
    "prefecture_code": 38,
    "city": "今治市",
    "city_kana": "イマバリシ",
    "town": "大三島町宮浦",
    "town_kana": "オオミシマチョウミヤウラ",
    "street": "３３２７",
    "office_name": "大山祇神社社務所",
    "office_name_kana": "オオヤマヅミジンジヤシヤムシヨ"
  },
  "1401": {
    "postcode": "7941401",
    "prefecture": "愛媛県",
    "prefecture_kana": "エヒメケン",
    "prefecture_code": 38,
    "city": "今治市",
    "city_kana": "イマバリシ",
    "town": "上浦町盛",
    "town_kana": "カミウラチョウサカリ",
    "street": null,
    "office_name": null,
    "office_name_kana": null
  },
  "1402": {
    "postcode": "7941402",
    "prefecture": "愛媛県",
    "prefecture_kana": "エヒメケン",
    "prefecture_code": 38,
    "city": "今治市",
    "city_kana": "イマバリシ",
    "town": "上浦町井口",
    "town_kana": "カミウラチョウイノクチ",
    "street": null,
    "office_name": null,
    "office_name_kana": null
  },
  "1403": {
    "postcode": "7941403",
    "prefecture": "愛媛県",
    "prefecture_kana": "エヒメケン",
    "prefecture_code": 38,
    "city": "今治市",
    "city_kana": "イマバリシ",
    "town": "上浦町甘崎",
    "town_kana": "カミウラチョウアマザキ",
    "street": null,
    "office_name": null,
    "office_name_kana": null
  },
  "1404": {
    "postcode": "7941404",
    "prefecture": "愛媛県",
    "prefecture_kana": "エヒメケン",
    "prefecture_code": 38,
    "city": "今治市",
    "city_kana": "イマバリシ",
    "town": "上浦町瀬戸",
    "town_kana": "カミウラチョウセト",
    "street": null,
    "office_name": null,
    "office_name_kana": null
  },
  "1492": {
    "postcode": "7941492",
    "prefecture": "愛媛県",
    "prefecture_kana": "エヒメケン",
    "prefecture_code": 38,
    "city": "今治市",
    "city_kana": "イマバリシ",
    "town": "上浦町井口",
    "town_kana": "カミウラチョウイノクチ",
    "street": "６６０５",
    "office_name": "今治市役所　上浦支所",
    "office_name_kana": "イマバリシヤクシヨ カミウラシシヨ"
  },
  "2101": {
    "postcode": "7942101",
    "prefecture": "愛媛県",
    "prefecture_kana": "エヒメケン",
    "prefecture_code": 38,
    "city": "今治市",
    "city_kana": "イマバリシ",
    "town": "吉海町田浦",
    "town_kana": "ヨシウミチョウタノウラ",
    "street": null,
    "office_name": null,
    "office_name_kana": null
  },
  "2102": {
    "postcode": "7942102",
    "prefecture": "愛媛県",
    "prefecture_kana": "エヒメケン",
    "prefecture_code": 38,
    "city": "今治市",
    "city_kana": "イマバリシ",
    "town": "吉海町泊",
    "town_kana": "ヨシウミチョウトマリ",
    "street": null,
    "office_name": null,
    "office_name_kana": null
  },
  "2103": {
    "postcode": "7942103",
    "prefecture": "愛媛県",
    "prefecture_kana": "エヒメケン",
    "prefecture_code": 38,
    "city": "今治市",
    "city_kana": "イマバリシ",
    "town": "吉海町福田",
    "town_kana": "ヨシウミチョウフクダ",
    "street": null,
    "office_name": null,
    "office_name_kana": null
  },
  "2104": {
    "postcode": "7942104",
    "prefecture": "愛媛県",
    "prefecture_kana": "エヒメケン",
    "prefecture_code": 38,
    "city": "今治市",
    "city_kana": "イマバリシ",
    "town": "吉海町仁江",
    "town_kana": "ヨシウミチョウニエ",
    "street": null,
    "office_name": null,
    "office_name_kana": null
  },
  "2110": {
    "postcode": "7942110",
    "prefecture": "愛媛県",
    "prefecture_kana": "エヒメケン",
    "prefecture_code": 38,
    "city": "今治市",
    "city_kana": "イマバリシ",
    "town": "吉海町八幡",
    "town_kana": "ヨシウミチョウヤワタ",
    "street": null,
    "office_name": null,
    "office_name_kana": null
  },
  "2111": {
    "postcode": "7942111",
    "prefecture": "愛媛県",
    "prefecture_kana": "エヒメケン",
    "prefecture_code": 38,
    "city": "今治市",
    "city_kana": "イマバリシ",
    "town": "吉海町幸新田",
    "town_kana": "ヨシウミチョウサイワイシンデン",
    "street": null,
    "office_name": null,
    "office_name_kana": null
  },
  "2112": {
    "postcode": "7942112",
    "prefecture": "愛媛県",
    "prefecture_kana": "エヒメケン",
    "prefecture_code": 38,
    "city": "今治市",
    "city_kana": "イマバリシ",
    "town": "吉海町本庄",
    "town_kana": "ヨシウミチョウホンジョウ",
    "street": null,
    "office_name": null,
    "office_name_kana": null
  },
  "2113": {
    "postcode": "7942113",
    "prefecture": "愛媛県",
    "prefecture_kana": "エヒメケン",
    "prefecture_code": 38,
    "city": "今治市",
    "city_kana": "イマバリシ",
    "town": "吉海町椋名",
    "town_kana": "ヨシウミチョウムクナ",
    "street": null,
    "office_name": null,
    "office_name_kana": null
  },
  "2114": {
    "postcode": "7942114",
    "prefecture": "愛媛県",
    "prefecture_kana": "エヒメケン",
    "prefecture_code": 38,
    "city": "今治市",
    "city_kana": "イマバリシ",
    "town": "吉海町名",
    "town_kana": "ヨシウミチョウミョウ",
    "street": null,
    "office_name": null,
    "office_name_kana": null
  },
  "2115": {
    "postcode": "7942115",
    "prefecture": "愛媛県",
    "prefecture_kana": "エヒメケン",
    "prefecture_code": 38,
    "city": "今治市",
    "city_kana": "イマバリシ",
    "town": "吉海町南浦",
    "town_kana": "ヨシウミチョウミナミウラ",
    "street": null,
    "office_name": null,
    "office_name_kana": null
  },
  "2116": {
    "postcode": "7942116",
    "prefecture": "愛媛県",
    "prefecture_kana": "エヒメケン",
    "prefecture_code": 38,
    "city": "今治市",
    "city_kana": "イマバリシ",
    "town": "吉海町名駒",
    "town_kana": "ヨシウミチョウナゴマ",
    "street": null,
    "office_name": null,
    "office_name_kana": null
  },
  "2117": {
    "postcode": "7942117",
    "prefecture": "愛媛県",
    "prefecture_kana": "エヒメケン",
    "prefecture_code": 38,
    "city": "今治市",
    "city_kana": "イマバリシ",
    "town": "吉海町正味",
    "town_kana": "ヨシウミチョウショウミ",
    "street": null,
    "office_name": null,
    "office_name_kana": null
  },
  "2118": {
    "postcode": "7942118",
    "prefecture": "愛媛県",
    "prefecture_kana": "エヒメケン",
    "prefecture_code": 38,
    "city": "今治市",
    "city_kana": "イマバリシ",
    "town": "吉海町臥間",
    "town_kana": "ヨシウミチョウフスマ",
    "street": null,
    "office_name": null,
    "office_name_kana": null
  },
  "2119": {
    "postcode": "7942119",
    "prefecture": "愛媛県",
    "prefecture_kana": "エヒメケン",
    "prefecture_code": 38,
    "city": "今治市",
    "city_kana": "イマバリシ",
    "town": "吉海町津島",
    "town_kana": "ヨシウミチョウツシマ",
    "street": null,
    "office_name": null,
    "office_name_kana": null
  },
  "2192": {
    "postcode": "7942192",
    "prefecture": "愛媛県",
    "prefecture_kana": "エヒメケン",
    "prefecture_code": 38,
    "city": "今治市",
    "city_kana": "イマバリシ",
    "town": "吉海町八幡",
    "town_kana": "ヨシウミチョウヤワタ",
    "street": "１３７番地",
    "office_name": "今治市役所　吉海支所",
    "office_name_kana": "イマバリシヤクシヨ ヨシウミシシヨ"
  },
  "2201": {
    "postcode": "7942201",
    "prefecture": "愛媛県",
    "prefecture_kana": "エヒメケン",
    "prefecture_code": 38,
    "city": "今治市",
    "city_kana": "イマバリシ",
    "town": "宮窪町早川",
    "town_kana": "ミヤクボチョウハヤカワ",
    "street": null,
    "office_name": null,
    "office_name_kana": null
  },
  "2202": {
    "postcode": "7942202",
    "prefecture": "愛媛県",
    "prefecture_kana": "エヒメケン",
    "prefecture_code": 38,
    "city": "今治市",
    "city_kana": "イマバリシ",
    "town": "宮窪町余所国",
    "town_kana": "ミヤクボチョウヨソクニ",
    "street": null,
    "office_name": null,
    "office_name_kana": null
  },
  "2203": {
    "postcode": "7942203",
    "prefecture": "愛媛県",
    "prefecture_kana": "エヒメケン",
    "prefecture_code": 38,
    "city": "今治市",
    "city_kana": "イマバリシ",
    "town": "宮窪町宮窪",
    "town_kana": "ミヤクボチョウミヤクボ",
    "street": null,
    "office_name": null,
    "office_name_kana": null
  },
  "2204": {
    "postcode": "7942204",
    "prefecture": "愛媛県",
    "prefecture_kana": "エヒメケン",
    "prefecture_code": 38,
    "city": "今治市",
    "city_kana": "イマバリシ",
    "town": "宮窪町友浦",
    "town_kana": "ミヤクボチョウトモウラ",
    "street": null,
    "office_name": null,
    "office_name_kana": null
  },
  "2292": {
    "postcode": "7942292",
    "prefecture": "愛媛県",
    "prefecture_kana": "エヒメケン",
    "prefecture_code": 38,
    "city": "今治市",
    "city_kana": "イマバリシ",
    "town": "宮窪町宮窪",
    "town_kana": "ミヤクボチョウミヤクボ",
    "street": "２６６８",
    "office_name": "今治市役所　宮窪支所",
    "office_name_kana": "イマバリシヤクシヨ ミヤクボシシヨ"
  },
  "2301": {
    "postcode": "7942301",
    "prefecture": "愛媛県",
    "prefecture_kana": "エヒメケン",
    "prefecture_code": 38,
    "city": "今治市",
    "city_kana": "イマバリシ",
    "town": "伯方町有津",
    "town_kana": "ハカタチョウアロウヅ",
    "street": null,
    "office_name": null,
    "office_name_kana": null
  },
  "2302": {
    "postcode": "7942302",
    "prefecture": "愛媛県",
    "prefecture_kana": "エヒメケン",
    "prefecture_code": 38,
    "city": "今治市",
    "city_kana": "イマバリシ",
    "town": "伯方町叶浦",
    "town_kana": "ハカタチョウカノウラ",
    "street": null,
    "office_name": null,
    "office_name_kana": null
  },
  "2303": {
    "postcode": "7942303",
    "prefecture": "愛媛県",
    "prefecture_kana": "エヒメケン",
    "prefecture_code": 38,
    "city": "今治市",
    "city_kana": "イマバリシ",
    "town": "伯方町伊方",
    "town_kana": "ハカタチョウイカタ",
    "street": null,
    "office_name": null,
    "office_name_kana": null
  },
  "2304": {
    "postcode": "7942304",
    "prefecture": "愛媛県",
    "prefecture_kana": "エヒメケン",
    "prefecture_code": 38,
    "city": "今治市",
    "city_kana": "イマバリシ",
    "town": "伯方町北浦",
    "town_kana": "ハカタチョウキタウラ",
    "street": null,
    "office_name": null,
    "office_name_kana": null
  },
  "2305": {
    "postcode": "7942305",
    "prefecture": "愛媛県",
    "prefecture_kana": "エヒメケン",
    "prefecture_code": 38,
    "city": "今治市",
    "city_kana": "イマバリシ",
    "town": "伯方町木浦",
    "town_kana": "ハカタチョウキノウラ",
    "street": null,
    "office_name": null,
    "office_name_kana": null
  },
  "2392": {
    "postcode": "7942392",
    "prefecture": "愛媛県",
    "prefecture_kana": "エヒメケン",
    "prefecture_code": 38,
    "city": "今治市",
    "city_kana": "イマバリシ",
    "town": "伯方町木浦",
    "town_kana": "ハカタチョウキノウラ",
    "street": "甲１２３５",
    "office_name": "今治市役所　伯方支所",
    "office_name_kana": "イマバリシヤクシヨ ハカタシシヨ"
  },
  "2395": {
    "postcode": "7942395",
    "prefecture": "愛媛県",
    "prefecture_kana": "エヒメケン",
    "prefecture_code": 38,
    "city": "今治市",
    "city_kana": "イマバリシ",
    "town": "伯方町木浦",
    "town_kana": "ハカタチョウキノウラ",
    "street": "甲５３５番地の内第２（伯方郵便局私書箱第１号）",
    "office_name": "伯方造船　株式会社",
    "office_name_kana": "ハカタゾウセン カブシキガイシヤ"
  },
  "2410": {
    "postcode": "7942410",
    "prefecture": "愛媛県",
    "prefecture_kana": "エヒメケン",
    "prefecture_code": 38,
    "city": "越智郡上島町",
    "city_kana": "オチグンカミジマチョウ",
    "town": "岩城",
    "town_kana": "イワギ",
    "street": null,
    "office_name": null,
    "office_name_kana": null
  },
  "2492": {
    "postcode": "7942492",
    "prefecture": "愛媛県",
    "prefecture_kana": "エヒメケン",
    "prefecture_code": 38,
    "city": "越智郡上島町",
    "city_kana": "オチグンカミジマチョウ",
    "town": "岩城",
    "town_kana": "イワギ",
    "street": "１４２７−２",
    "office_name": "上島町役場　岩城総合支所",
    "office_name_kana": "カミジマチヨウヤククバ イワギソウゴウシシヨ"
  },
  "2500": {
    "postcode": "7942500",
    "prefecture": "愛媛県",
    "prefecture_kana": "エヒメケン",
    "prefecture_code": 38,
    "city": "越智郡上島町",
    "city_kana": "オチグンカミジマチョウ",
    "town": "",
    "town_kana": "",
    "street": null,
    "office_name": null,
    "office_name_kana": null
  },
  "2501": {
    "postcode": "7942501",
    "prefecture": "愛媛県",
    "prefecture_kana": "エヒメケン",
    "prefecture_code": 38,
    "city": "越智郡上島町",
    "city_kana": "オチグンカミジマチョウ",
    "town": "弓削久司浦",
    "town_kana": "ユゲクジウラ",
    "street": null,
    "office_name": null,
    "office_name_kana": null
  },
  "2502": {
    "postcode": "7942502",
    "prefecture": "愛媛県",
    "prefecture_kana": "エヒメケン",
    "prefecture_code": 38,
    "city": "越智郡上島町",
    "city_kana": "オチグンカミジマチョウ",
    "town": "弓削沢津",
    "town_kana": "ユゲサワヅ",
    "street": null,
    "office_name": null,
    "office_name_kana": null
  },
  "2503": [
    {
      "postcode": "7942503",
      "prefecture": "愛媛県",
      "prefecture_kana": "エヒメケン",
      "prefecture_code": 38,
      "city": "越智郡上島町",
      "city_kana": "オチグンカミジマチョウ",
      "town": "弓削上弓削",
      "town_kana": "ユゲカミユゲ",
      "street": null,
      "office_name": null,
      "office_name_kana": null
    },
    {
      "postcode": "7942503",
      "prefecture": "愛媛県",
      "prefecture_kana": "エヒメケン",
      "prefecture_code": 38,
      "city": "越智郡上島町",
      "city_kana": "オチグンカミジマチョウ",
      "town": "弓削百貫",
      "town_kana": "ユゲヒャッカン",
      "street": null,
      "office_name": null,
      "office_name_kana": null
    }
  ],
  "2504": {
    "postcode": "7942504",
    "prefecture": "愛媛県",
    "prefecture_kana": "エヒメケン",
    "prefecture_code": 38,
    "city": "越智郡上島町",
    "city_kana": "オチグンカミジマチョウ",
    "town": "弓削引野",
    "town_kana": "ユゲヒキノ",
    "street": null,
    "office_name": null,
    "office_name_kana": null
  },
  "2505": {
    "postcode": "7942505",
    "prefecture": "愛媛県",
    "prefecture_kana": "エヒメケン",
    "prefecture_code": 38,
    "city": "越智郡上島町",
    "city_kana": "オチグンカミジマチョウ",
    "town": "弓削明神",
    "town_kana": "ユゲミョウジン",
    "street": null,
    "office_name": null,
    "office_name_kana": null
  },
  "2506": {
    "postcode": "7942506",
    "prefecture": "愛媛県",
    "prefecture_kana": "エヒメケン",
    "prefecture_code": 38,
    "city": "越智郡上島町",
    "city_kana": "オチグンカミジマチョウ",
    "town": "弓削下弓削",
    "town_kana": "ユゲシモユゲ",
    "street": null,
    "office_name": null,
    "office_name_kana": null
  },
  "2507": {
    "postcode": "7942507",
    "prefecture": "愛媛県",
    "prefecture_kana": "エヒメケン",
    "prefecture_code": 38,
    "city": "越智郡上島町",
    "city_kana": "オチグンカミジマチョウ",
    "town": "弓削藤谷",
    "town_kana": "ユゲフジタニ",
    "street": null,
    "office_name": null,
    "office_name_kana": null
  },
  "2508": {
    "postcode": "7942508",
    "prefecture": "愛媛県",
    "prefecture_kana": "エヒメケン",
    "prefecture_code": 38,
    "city": "越智郡上島町",
    "city_kana": "オチグンカミジマチョウ",
    "town": "弓削太田",
    "town_kana": "ユゲオオタ",
    "street": null,
    "office_name": null,
    "office_name_kana": null
  },
  "2509": {
    "postcode": "7942509",
    "prefecture": "愛媛県",
    "prefecture_kana": "エヒメケン",
    "prefecture_code": 38,
    "city": "越智郡上島町",
    "city_kana": "オチグンカミジマチョウ",
    "town": "弓削土生",
    "town_kana": "ユゲハブ",
    "street": null,
    "office_name": null,
    "office_name_kana": null
  },
  "2510": {
    "postcode": "7942510",
    "prefecture": "愛媛県",
    "prefecture_kana": "エヒメケン",
    "prefecture_code": 38,
    "city": "越智郡上島町",
    "city_kana": "オチグンカミジマチョウ",
    "town": "弓削鎌田",
    "town_kana": "ユゲカマダ",
    "street": null,
    "office_name": null,
    "office_name_kana": null
  },
  "2511": {
    "postcode": "7942511",
    "prefecture": "愛媛県",
    "prefecture_kana": "エヒメケン",
    "prefecture_code": 38,
    "city": "越智郡上島町",
    "city_kana": "オチグンカミジマチョウ",
    "town": "弓削日比",
    "town_kana": "ユゲヒビ",
    "street": null,
    "office_name": null,
    "office_name_kana": null
  },
  "2512": {
    "postcode": "7942512",
    "prefecture": "愛媛県",
    "prefecture_kana": "エヒメケン",
    "prefecture_code": 38,
    "city": "越智郡上島町",
    "city_kana": "オチグンカミジマチョウ",
    "town": "弓削狩尾",
    "town_kana": "ユゲカリオ",
    "street": null,
    "office_name": null,
    "office_name_kana": null
  },
  "2513": {
    "postcode": "7942513",
    "prefecture": "愛媛県",
    "prefecture_kana": "エヒメケン",
    "prefecture_code": 38,
    "city": "越智郡上島町",
    "city_kana": "オチグンカミジマチョウ",
    "town": "弓削大谷",
    "town_kana": "ユゲオオタニ",
    "street": null,
    "office_name": null,
    "office_name_kana": null
  },
  "2520": {
    "postcode": "7942520",
    "prefecture": "愛媛県",
    "prefecture_kana": "エヒメケン",
    "prefecture_code": 38,
    "city": "越智郡上島町",
    "city_kana": "オチグンカミジマチョウ",
    "town": "弓削佐島",
    "town_kana": "ユゲサシマ",
    "street": null,
    "office_name": null,
    "office_name_kana": null
  },
  "2530": {
    "postcode": "7942530",
    "prefecture": "愛媛県",
    "prefecture_kana": "エヒメケン",
    "prefecture_code": 38,
    "city": "越智郡上島町",
    "city_kana": "オチグンカミジマチョウ",
    "town": "弓削豊島",
    "town_kana": "ユゲトヨシマ",
    "street": null,
    "office_name": null,
    "office_name_kana": null
  },
  "2540": {
    "postcode": "7942540",
    "prefecture": "愛媛県",
    "prefecture_kana": "エヒメケン",
    "prefecture_code": 38,
    "city": "越智郡上島町",
    "city_kana": "オチグンカミジマチョウ",
    "town": "魚島一番耕地",
    "town_kana": "ウオシマイチバンコウチ",
    "street": null,
    "office_name": null,
    "office_name_kana": null
  },
  "2541": {
    "postcode": "7942541",
    "prefecture": "愛媛県",
    "prefecture_kana": "エヒメケン",
    "prefecture_code": 38,
    "city": "越智郡上島町",
    "city_kana": "オチグンカミジマチョウ",
    "town": "魚島二番耕地",
    "town_kana": "ウオシマニバンコウチ",
    "street": null,
    "office_name": null,
    "office_name_kana": null
  },
  "2542": {
    "postcode": "7942542",
    "prefecture": "愛媛県",
    "prefecture_kana": "エヒメケン",
    "prefecture_code": 38,
    "city": "越智郡上島町",
    "city_kana": "オチグンカミジマチョウ",
    "town": "魚島三番耕地",
    "town_kana": "ウオシマサンバンコウチ",
    "street": null,
    "office_name": null,
    "office_name_kana": null
  },
  "2550": {
    "postcode": "7942550",
    "prefecture": "愛媛県",
    "prefecture_kana": "エヒメケン",
    "prefecture_code": 38,
    "city": "越智郡上島町",
    "city_kana": "オチグンカミジマチョウ",
    "town": "生名",
    "town_kana": "イキナ",
    "street": null,
    "office_name": null,
    "office_name_kana": null
  },
  "2592": {
    "postcode": "7942592",
    "prefecture": "愛媛県",
    "prefecture_kana": "エヒメケン",
    "prefecture_code": 38,
    "city": "越智郡上島町",
    "city_kana": "オチグンカミジマチョウ",
    "town": "弓削下弓削",
    "town_kana": "ユゲシモユゲ",
    "street": "２１０（弓削郵便局私書箱第２号）",
    "office_name": "上島町役場",
    "office_name_kana": "カミジマチヨウヤクバ"
  },
  "2593": {
    "postcode": "7942593",
    "prefecture": "愛媛県",
    "prefecture_kana": "エヒメケン",
    "prefecture_code": 38,
    "city": "越智郡上島町",
    "city_kana": "オチグンカミジマチョウ",
    "town": "弓削下弓削",
    "town_kana": "ユゲシモユゲ",
    "street": "１０００",
    "office_name": "弓削商船高等専門学校",
    "office_name_kana": "ユゲシヨウセンコウトウセンモンガツコウ"
  },
  "8502": {
    "postcode": "7948502",
    "prefecture": "愛媛県",
    "prefecture_kana": "エヒメケン",
    "prefecture_code": 38,
    "city": "今治市",
    "city_kana": "イマバリシ",
    "town": "旭町",
    "town_kana": "アサヒマチ",
    "street": "１丁目４−９",
    "office_name": "今治地方局",
    "office_name_kana": "イマバリチホウキヨク"
  },
  "8508": {
    "postcode": "7948508",
    "prefecture": "愛媛県",
    "prefecture_kana": "エヒメケン",
    "prefecture_code": 38,
    "city": "今治市",
    "city_kana": "イマバリシ",
    "town": "常盤町",
    "town_kana": "トキワチョウ",
    "street": "４丁目５−４",
    "office_name": "今治（地方・簡易・家庭）裁判所",
    "office_name_kana": "イマバリ(チホウ・カンイ・カテイ)サイバンシヨ"
  },
  "8510": {
    "postcode": "7948510",
    "prefecture": "愛媛県",
    "prefecture_kana": "エヒメケン",
    "prefecture_code": 38,
    "city": "今治市",
    "city_kana": "イマバリシ",
    "town": "旭町",
    "town_kana": "アサヒマチ",
    "street": "５−２−１",
    "office_name": "東芝ライテック　株式会社　今治事業所",
    "office_name_kana": "トウシバライテツク カブシキガイシヤ イマバリジギヨウシヨ"
  },
  "8511": {
    "postcode": "7948511",
    "prefecture": "愛媛県",
    "prefecture_kana": "エヒメケン",
    "prefecture_code": 38,
    "city": "今治市",
    "city_kana": "イマバリシ",
    "town": "別宮町",
    "town_kana": "ベックチョウ",
    "street": "１丁目４−１",
    "office_name": "今治市役所",
    "office_name_kana": "イマバリシヤクシヨ"
  },
  "8518": {
    "postcode": "7948518",
    "prefecture": "愛媛県",
    "prefecture_kana": "エヒメケン",
    "prefecture_code": 38,
    "city": "今治市",
    "city_kana": "イマバリシ",
    "town": "東鳥生町",
    "town_kana": "ヒガシトリウチョウ",
    "street": "５丁目３５",
    "office_name": "日本食研　（株）",
    "office_name_kana": "ニホンシヨツケン カブシキガイシヤ"
  },
  "8555": {
    "postcode": "7948555",
    "prefecture": "愛媛県",
    "prefecture_kana": "エヒメケン",
    "prefecture_code": 38,
    "city": "今治市",
    "city_kana": "イマバリシ",
    "town": "いこいの丘",
    "town_kana": "イコイノオカ",
    "street": "１−３",
    "office_name": "岡山理科大学　今治キャンパス",
    "office_name_kana": "オカヤマリカダイガク イマバリキヤンパス"
  },
  "8565": {
    "postcode": "7948565",
    "prefecture": "愛媛県",
    "prefecture_kana": "エヒメケン",
    "prefecture_code": 38,
    "city": "今治市",
    "city_kana": "イマバリシ",
    "town": "クリエイティブヒルズ",
    "town_kana": "クリエイティブヒルズ",
    "street": "２番地１",
    "office_name": "日本食研製造　株式会社　シェーンブルン宮殿工場／日本食研スマイルパートナーズ　株式会社　愛媛事業所",
    "office_name_kana": "ニホンシヨツケンセイゾウ カブシキガイシヤ シエ-ンブルンキユウデンコウジヨウ/ニホンシヨツケンスマイルパ-トナ-ズ カブシキガイシヤ エヒメジギヨウシヨ"
  },
  "8582": {
    "postcode": "7948582",
    "prefecture": "愛媛県",
    "prefecture_kana": "エヒメケン",
    "prefecture_code": 38,
    "city": "今治市",
    "city_kana": "イマバリシ",
    "town": "野間",
    "town_kana": "ノマ",
    "street": "甲１０５番地",
    "office_name": "渦潮電機　株式会社　みらい工場",
    "office_name_kana": "ウズシオデンキ カブシキガイシヤ ミライコウジヨウ"
  },
  "8601": {
    "postcode": "7948601",
    "prefecture": "愛媛県",
    "prefecture_kana": "エヒメケン",
    "prefecture_code": 38,
    "city": "今治市",
    "city_kana": "イマバリシ",
    "town": "南大門町",
    "town_kana": "ミナミダイモンチョウ",
    "street": "１丁目１−１５（今治郵便局私書箱第１号）",
    "office_name": "四国通建　（株）　本社",
    "office_name_kana": "シコクツウケン カブシキガイシヤ ホンシヤ"
  },
  "8602": {
    "postcode": "7948602",
    "prefecture": "愛媛県",
    "prefecture_kana": "エヒメケン",
    "prefecture_code": 38,
    "city": "今治市",
    "city_kana": "イマバリシ",
    "town": "常盤町",
    "town_kana": "トキワチョウ",
    "street": "４丁目５−１（今治郵便局私書箱第５４号）",
    "office_name": "今治税務署",
    "office_name_kana": "イマバリゼイムシヨ"
  },
  "8611": {
    "postcode": "7948611",
    "prefecture": "愛媛県",
    "prefecture_kana": "エヒメケン",
    "prefecture_code": 38,
    "city": "今治市",
    "city_kana": "イマバリシ",
    "town": "南大門町",
    "town_kana": "ミナミダイモンチョウ",
    "street": "２丁目２−４（今治郵便局私書箱第７号）",
    "office_name": "四国ガス　（株）　本店",
    "office_name_kana": "シコクガス カブシキガイシヤ ホンテン"
  },
  "8614": {
    "postcode": "7948614",
    "prefecture": "愛媛県",
    "prefecture_kana": "エヒメケン",
    "prefecture_code": 38,
    "city": "今治市",
    "city_kana": "イマバリシ",
    "town": "常盤町",
    "town_kana": "トキワチョウ",
    "street": "４丁目２−１（今治郵便局私書箱第９号）",
    "office_name": "株式会社　伊予銀行　今治支店",
    "office_name_kana": "カブシキガイシヤ イヨギンコウ イマバリシテン"
  }
}