{
  "0000": {
    "postcode": "8000000",
    "prefecture": "福岡県",
    "prefecture_kana": "フクオカケン",
    "prefecture_code": 40,
    "city": "北九州市門司区",
    "city_kana": "キタキュウシュウシモジク",
    "town": "",
    "town_kana": "",
    "street": null,
    "office_name": null,
    "office_name_kana": null
  },
  "0001": {
    "postcode": "8000001",
    "prefecture": "福岡県",
    "prefecture_kana": "フクオカケン",
    "prefecture_code": 40,
    "city": "北九州市門司区",
    "city_kana": "キタキュウシュウシモジク",
    "town": "風師",
    "town_kana": "カザシ",
    "street": null,
    "office_name": null,
    "office_name_kana": null
  },
  "0002": {
    "postcode": "8000002",
    "prefecture": "福岡県",
    "prefecture_kana": "フクオカケン",
    "prefecture_code": 40,
    "city": "北九州市門司区",
    "city_kana": "キタキュウシュウシモジク",
    "town": "二タ松町",
    "town_kana": "フタマツチョウ",
    "street": null,
    "office_name": null,
    "office_name_kana": null
  },
  "0003": {
    "postcode": "8000003",
    "prefecture": "福岡県",
    "prefecture_kana": "フクオカケン",
    "prefecture_code": 40,
    "city": "北九州市門司区",
    "city_kana": "キタキュウシュウシモジク",
    "town": "片上町",
    "town_kana": "カタガミマチ",
    "street": null,
    "office_name": null,
    "office_name_kana": null
  },
  "0004": {
    "postcode": "8000004",
    "prefecture": "福岡県",
    "prefecture_kana": "フクオカケン",
    "prefecture_code": 40,
    "city": "北九州市門司区",
    "city_kana": "キタキュウシュウシモジク",
    "town": "北川町",
    "town_kana": "キタガワマチ",
    "street": null,
    "office_name": null,
    "office_name_kana": null
  },
  "0005": {
    "postcode": "8000005",
    "prefecture": "福岡県",
    "prefecture_kana": "フクオカケン",
    "prefecture_code": 40,
    "city": "北九州市門司区",
    "city_kana": "キタキュウシュウシモジク",
    "town": "羽山",
    "town_kana": "ハヤマ",
    "street": null,
    "office_name": null,
    "office_name_kana": null
  },
  "0006": {
    "postcode": "8000006",
    "prefecture": "福岡県",
    "prefecture_kana": "フクオカケン",
    "prefecture_code": 40,
    "city": "北九州市門司区",
    "city_kana": "キタキュウシュウシモジク",
    "town": "矢筈町",
    "town_kana": "ヤハズマチ",
    "street": null,
    "office_name": null,
    "office_name_kana": null
  },
  "0007": {
    "postcode": "8000007",
    "prefecture": "福岡県",
    "prefecture_kana": "フクオカケン",
    "prefecture_code": 40,
    "city": "北九州市門司区",
    "city_kana": "キタキュウシュウシモジク",
    "town": "小森江",
    "town_kana": "コモリエ",
    "street": null,
    "office_name": null,
    "office_name_kana": null
  },
  "0008": {
    "postcode": "8000008",
    "prefecture": "福岡県",
    "prefecture_kana": "フクオカケン",
    "prefecture_code": 40,
    "city": "北九州市門司区",
    "city_kana": "キタキュウシュウシモジク",
    "town": "葛葉",
    "town_kana": "クズハ",
    "street": null,
    "office_name": null,
    "office_name_kana": null
  },
  "0011": {
    "postcode": "8000011",
    "prefecture": "福岡県",
    "prefecture_kana": "フクオカケン",
    "prefecture_code": 40,
    "city": "北九州市門司区",
    "city_kana": "キタキュウシュウシモジク",
    "town": "奥田",
    "town_kana": "オクダ",
    "street": null,
    "office_name": null,
    "office_name_kana": null
  },
  "0012": {
    "postcode": "8000012",
    "prefecture": "福岡県",
    "prefecture_kana": "フクオカケン",
    "prefecture_code": 40,
    "city": "北九州市門司区",
    "city_kana": "キタキュウシュウシモジク",
    "town": "松崎町",
    "town_kana": "マツザキチョウ",
    "street": null,
    "office_name": null,
    "office_name_kana": null
  },
  "0013": {
    "postcode": "8000013",
    "prefecture": "福岡県",
    "prefecture_kana": "フクオカケン",
    "prefecture_code": 40,
    "city": "北九州市門司区",
    "city_kana": "キタキュウシュウシモジク",
    "town": "城山町",
    "town_kana": "シロヤマチョウ",
    "street": null,
    "office_name": null,
    "office_name_kana": null
  },
  "0014": {
    "postcode": "8000014",
    "prefecture": "福岡県",
    "prefecture_kana": "フクオカケン",
    "prefecture_code": 40,
    "city": "北九州市門司区",
    "city_kana": "キタキュウシュウシモジク",
    "town": "大里",
    "town_kana": "ダイリ",
    "street": null,
    "office_name": null,
    "office_name_kana": null
  },
  "0015": {
    "postcode": "8000015",
    "prefecture": "福岡県",
    "prefecture_kana": "フクオカケン",
    "prefecture_code": 40,
    "city": "北九州市門司区",
    "city_kana": "キタキュウシュウシモジク",
    "town": "寺内",
    "town_kana": "ジナイ",
    "street": null,
    "office_name": null,
    "office_name_kana": null
  },
  "0016": {
    "postcode": "8000016",
    "prefecture": "福岡県",
    "prefecture_kana": "フクオカケン",
    "prefecture_code": 40,
    "city": "北九州市門司区",
    "city_kana": "キタキュウシュウシモジク",
    "town": "上二十町",
    "town_kana": "カミニジッチョウ",
    "street": null,
    "office_name": null,
    "office_name_kana": null
  },
  "0017": {
    "postcode": "8000017",
    "prefecture": "福岡県",
    "prefecture_kana": "フクオカケン",
    "prefecture_code": 40,
    "city": "北九州市門司区",
    "city_kana": "キタキュウシュウシモジク",
    "town": "永黒",
    "town_kana": "ナガグロ",
    "street": null,
    "office_name": null,
    "office_name_kana": null
  },
  "0018": {
    "postcode": "8000018",
    "prefecture": "福岡県",
    "prefecture_kana": "フクオカケン",
    "prefecture_code": 40,
    "city": "北九州市門司区",
    "city_kana": "キタキュウシュウシモジク",
    "town": "大里桜ケ丘",
    "town_kana": "ダイリサクラガオカ",
    "street": null,
    "office_name": null,
    "office_name_kana": null
  },
  "0021": {
    "postcode": "8000021",
    "prefecture": "福岡県",
    "prefecture_kana": "フクオカケン",
    "prefecture_code": 40,
    "city": "北九州市門司区",
    "city_kana": "キタキュウシュウシモジク",
    "town": "南本町",
    "town_kana": "ミナミホンマチ",
    "street": null,
    "office_name": null,
    "office_name_kana": null
  },
  "0022": {
    "postcode": "8000022",
    "prefecture": "福岡県",
    "prefecture_kana": "フクオカケン",
    "prefecture_code": 40,
    "city": "北九州市門司区",
    "city_kana": "キタキュウシュウシモジク",
    "town": "大里東",
    "town_kana": "ダイリヒガシ",
    "street": null,
    "office_name": null,
    "office_name_kana": null
  },
  "0023": {
    "postcode": "8000023",
    "prefecture": "福岡県",
    "prefecture_kana": "フクオカケン",
    "prefecture_code": 40,
    "city": "北九州市門司区",
    "city_kana": "キタキュウシュウシモジク",
    "town": "中二十町",
    "town_kana": "ナカニジッチョウ",
    "street": null,
    "office_name": null,
    "office_name_kana": null
  },
  "0024": {
    "postcode": "8000024",
    "prefecture": "福岡県",
    "prefecture_kana": "フクオカケン",
    "prefecture_code": 40,
    "city": "北九州市門司区",
    "city_kana": "キタキュウシュウシモジク",
    "town": "大里戸ノ上",
    "town_kana": "ダイリトノウエ",
    "street": null,
    "office_name": null,
    "office_name_kana": null
  },
  "0025": {
    "postcode": "8000025",
    "prefecture": "福岡県",
    "prefecture_kana": "フクオカケン",
    "prefecture_code": 40,
    "city": "北九州市門司区",
    "city_kana": "キタキュウシュウシモジク",
    "town": "柳町",
    "town_kana": "ヤナギマチ",
    "street": null,
    "office_name": null,
    "office_name_kana": null
  },
  "0026": {
    "postcode": "8000026",
    "prefecture": "福岡県",
    "prefecture_kana": "フクオカケン",
    "prefecture_code": 40,
    "city": "北九州市門司区",
    "city_kana": "キタキュウシュウシモジク",
    "town": "梅ノ木町",
    "town_kana": "ウメノキチョウ",
    "street": null,
    "office_name": null,
    "office_name_kana": null
  },
  "0027": {
    "postcode": "8000027",
    "prefecture": "福岡県",
    "prefecture_kana": "フクオカケン",
    "prefecture_code": 40,
    "city": "北九州市門司区",
    "city_kana": "キタキュウシュウシモジク",
    "town": "黄金町",
    "town_kana": "コガネマチ",
    "street": null,
    "office_name": null,
    "office_name_kana": null
  },
  "0028": {
    "postcode": "8000028",
    "prefecture": "福岡県",
    "prefecture_kana": "フクオカケン",
    "prefecture_code": 40,
    "city": "北九州市門司区",
    "city_kana": "キタキュウシュウシモジク",
    "town": "下二十町",
    "town_kana": "シモニジッチョウ",
    "street": null,
    "office_name": null,
    "office_name_kana": null
  },
  "0029": {
    "postcode": "8000029",
    "prefecture": "福岡県",
    "prefecture_kana": "フクオカケン",
    "prefecture_code": 40,
    "city": "北九州市門司区",
    "city_kana": "キタキュウシュウシモジク",
    "town": "大里東口",
    "town_kana": "ダイリヒガシグチ",
    "street": null,
    "office_name": null,
    "office_name_kana": null
  },
  "0030": {
    "postcode": "8000030",
    "prefecture": "福岡県",
    "prefecture_kana": "フクオカケン",
    "prefecture_code": 40,
    "city": "北九州市門司区",
    "city_kana": "キタキュウシュウシモジク",
    "town": "桃山台",
    "town_kana": "モモヤマダイ",
    "street": null,
    "office_name": null,
    "office_name_kana": null
  },
  "0031": {
    "postcode": "8000031",
    "prefecture": "福岡県",
    "prefecture_kana": "フクオカケン",
    "prefecture_code": 40,
    "city": "北九州市門司区",
    "city_kana": "キタキュウシュウシモジク",
    "town": "高田",
    "town_kana": "タカダ",
    "street": null,
    "office_name": null,
    "office_name_kana": null
  },
  "0032": {
    "postcode": "8000032",
    "prefecture": "福岡県",
    "prefecture_kana": "フクオカケン",
    "prefecture_code": 40,
    "city": "北九州市門司区",
    "city_kana": "キタキュウシュウシモジク",
    "town": "不老町",
    "town_kana": "フロウチョウ",
    "street": null,
    "office_name": null,
    "office_name_kana": null
  },
  "0033": {
    "postcode": "8000033",
    "prefecture": "福岡県",
    "prefecture_kana": "フクオカケン",
    "prefecture_code": 40,
    "city": "北九州市門司区",
    "city_kana": "キタキュウシュウシモジク",
    "town": "大里桃山町",
    "town_kana": "ダイリモモヤマチョウ",
    "street": null,
    "office_name": null,
    "office_name_kana": null
  },
  "0034": {
    "postcode": "8000034",
    "prefecture": "福岡県",
    "prefecture_kana": "フクオカケン",
    "prefecture_code": 40,
    "city": "北九州市門司区",
    "city_kana": "キタキュウシュウシモジク",
    "town": "小松町",
    "town_kana": "コマツチョウ",
    "street": null,
    "office_name": null,
    "office_name_kana": null
  },
  "0035": {
    "postcode": "8000035",
    "prefecture": "福岡県",
    "prefecture_kana": "フクオカケン",
    "prefecture_code": 40,
    "city": "北九州市門司区",
    "city_kana": "キタキュウシュウシモジク",
    "town": "別院",
    "town_kana": "ベツイン",
    "street": null,
    "office_name": null,
    "office_name_kana": null
  },
  "0036": {
    "postcode": "8000036",
    "prefecture": "福岡県",
    "prefecture_kana": "フクオカケン",
    "prefecture_code": 40,
    "city": "北九州市門司区",
    "city_kana": "キタキュウシュウシモジク",
    "town": "柳原町",
    "town_kana": "ヤナギハラマチ",
    "street": null,
    "office_name": null,
    "office_name_kana": null
  },
  "0037": {
    "postcode": "8000037",
    "prefecture": "福岡県",
    "prefecture_kana": "フクオカケン",
    "prefecture_code": 40,
    "city": "北九州市門司区",
    "city_kana": "キタキュウシュウシモジク",
    "town": "原町別院",
    "town_kana": "ハラマチベツイン",
    "street": null,
    "office_name": null,
    "office_name_kana": null
  },
  "0038": {
    "postcode": "8000038",
    "prefecture": "福岡県",
    "prefecture_kana": "フクオカケン",
    "prefecture_code": 40,
    "city": "北九州市門司区",
    "city_kana": "キタキュウシュウシモジク",
    "town": "大里原町",
    "town_kana": "ダイリハラマチ",
    "street": null,
    "office_name": null,
    "office_name_kana": null
  },
  "0039": {
    "postcode": "8000039",
    "prefecture": "福岡県",
    "prefecture_kana": "フクオカケン",
    "prefecture_code": 40,
    "city": "北九州市門司区",
    "city_kana": "キタキュウシュウシモジク",
    "town": "中町",
    "town_kana": "ナカマチ",
    "street": null,
    "office_name": null,
    "office_name_kana": null
  },
  "0041": {
    "postcode": "8000041",
    "prefecture": "福岡県",
    "prefecture_kana": "フクオカケン",
    "prefecture_code": 40,
    "city": "北九州市門司区",
    "city_kana": "キタキュウシュウシモジク",
    "town": "泉ケ丘",
    "town_kana": "イズミガオカ",
    "street": null,
    "office_name": null,
    "office_name_kana": null
  },
  "0042": {
    "postcode": "8000042",
    "prefecture": "福岡県",
    "prefecture_kana": "フクオカケン",
    "prefecture_code": 40,
    "city": "北九州市門司区",
    "city_kana": "キタキュウシュウシモジク",
    "town": "上馬寄",
    "town_kana": "カミマイソウ",
    "street": null,
    "office_name": null,
    "office_name_kana": null
  },
  "0043": {
    "postcode": "8000043",
    "prefecture": "福岡県",
    "prefecture_kana": "フクオカケン",
    "prefecture_code": 40,
    "city": "北九州市門司区",
    "city_kana": "キタキュウシュウシモジク",
    "town": "緑ケ丘",
    "town_kana": "ミドリガオカ",
    "street": null,
    "office_name": null,
    "office_name_kana": null
  },
  "0044": {
    "postcode": "8000044",
    "prefecture": "福岡県",
    "prefecture_kana": "フクオカケン",
    "prefecture_code": 40,
    "city": "北九州市門司区",
    "city_kana": "キタキュウシュウシモジク",
    "town": "上藤松",
    "town_kana": "カミフジマツ",
    "street": null,
    "office_name": null,
    "office_name_kana": null
  },
  "0045": {
    "postcode": "8000045",
    "prefecture": "福岡県",
    "prefecture_kana": "フクオカケン",
    "prefecture_code": 40,
    "city": "北九州市門司区",
    "city_kana": "キタキュウシュウシモジク",
    "town": "青葉台",
    "town_kana": "アオバダイ",
    "street": null,
    "office_name": null,
    "office_name_kana": null
  },
  "0046": {
    "postcode": "8000046",
    "prefecture": "福岡県",
    "prefecture_kana": "フクオカケン",
    "prefecture_code": 40,
    "city": "北九州市門司区",
    "city_kana": "キタキュウシュウシモジク",
    "town": "光町",
    "town_kana": "ヒカリマチ",
    "street": null,
    "office_name": null,
    "office_name_kana": null
  },
  "0047": {
    "postcode": "8000047",
    "prefecture": "福岡県",
    "prefecture_kana": "フクオカケン",
    "prefecture_code": 40,
    "city": "北九州市門司区",
    "city_kana": "キタキュウシュウシモジク",
    "town": "藤松",
    "town_kana": "フジマツ",
    "street": null,
    "office_name": null,
    "office_name_kana": null
  },
  "0048": {
    "postcode": "8000048",
    "prefecture": "福岡県",
    "prefecture_kana": "フクオカケン",
    "prefecture_code": 40,
    "city": "北九州市門司区",
    "city_kana": "キタキュウシュウシモジク",
    "town": "稲積",
    "town_kana": "イナヅミ",
    "street": null,
    "office_name": null,
    "office_name_kana": null
  },
  "0051": {
    "postcode": "8000051",
    "prefecture": "福岡県",
    "prefecture_kana": "フクオカケン",
    "prefecture_code": 40,
    "city": "北九州市門司区",
    "city_kana": "キタキュウシュウシモジク",
    "town": "下馬寄",
    "town_kana": "シモマイソウ",
    "street": null,
    "office_name": null,
    "office_name_kana": null
  },
  "0052": {
    "postcode": "8000052",
    "prefecture": "福岡県",
    "prefecture_kana": "フクオカケン",
    "prefecture_code": 40,
    "city": "北九州市門司区",
    "city_kana": "キタキュウシュウシモジク",
    "town": "東馬寄",
    "town_kana": "ヒガシマイソウ",
    "street": null,
    "office_name": null,
    "office_name_kana": null
  },
  "0053": {
    "postcode": "8000053",
    "prefecture": "福岡県",
    "prefecture_kana": "フクオカケン",
    "prefecture_code": 40,
    "city": "北九州市門司区",
    "city_kana": "キタキュウシュウシモジク",
    "town": "新原町",
    "town_kana": "シンハラマチ",
    "street": null,
    "office_name": null,
    "office_name_kana": null
  },
  "0054": {
    "postcode": "8000054",
    "prefecture": "福岡県",
    "prefecture_kana": "フクオカケン",
    "prefecture_code": 40,
    "city": "北九州市門司区",
    "city_kana": "キタキュウシュウシモジク",
    "town": "社ノ木",
    "town_kana": "シャノキ",
    "street": null,
    "office_name": null,
    "office_name_kana": null
  },
  "0055": {
    "postcode": "8000055",
    "prefecture": "福岡県",
    "prefecture_kana": "フクオカケン",
    "prefecture_code": 40,
    "city": "北九州市門司区",
    "city_kana": "キタキュウシュウシモジク",
    "town": "東新町",
    "town_kana": "ヒガシシンマチ",
    "street": null,
    "office_name": null,
    "office_name_kana": null
  },
  "0056": {
    "postcode": "8000056",
    "prefecture": "福岡県",
    "prefecture_kana": "フクオカケン",
    "prefecture_code": 40,
    "city": "北九州市門司区",
    "city_kana": "キタキュウシュウシモジク",
    "town": "西新町",
    "town_kana": "ニシシンマチ",
    "street": null,
    "office_name": null,
    "office_name_kana": null
  },
  "0057": {
    "postcode": "8000057",
    "prefecture": "福岡県",
    "prefecture_kana": "フクオカケン",
    "prefecture_code": 40,
    "city": "北九州市門司区",
    "city_kana": "キタキュウシュウシモジク",
    "town": "大里新町",
    "town_kana": "ダイリシンマチ",
    "street": null,
    "office_name": null,
    "office_name_kana": null
  },
  "0061": {
    "postcode": "8000061",
    "prefecture": "福岡県",
    "prefecture_kana": "フクオカケン",
    "prefecture_code": 40,
    "city": "北九州市門司区",
    "city_kana": "キタキュウシュウシモジク",
    "town": "片上海岸",
    "town_kana": "カタガミカイガン",
    "street": null,
    "office_name": null,
    "office_name_kana": null
  },
  "0062": {
    "postcode": "8000062",
    "prefecture": "福岡県",
    "prefecture_kana": "フクオカケン",
    "prefecture_code": 40,
    "city": "北九州市門司区",
    "city_kana": "キタキュウシュウシモジク",
    "town": "大里元町",
    "town_kana": "ダイリモトマチ",
    "street": null,
    "office_name": null,
    "office_name_kana": null
  },
  "0063": {
    "postcode": "8000063",
    "prefecture": "福岡県",
    "prefecture_kana": "フクオカケン",
    "prefecture_code": 40,
    "city": "北九州市門司区",
    "city_kana": "キタキュウシュウシモジク",
    "town": "大里本町",
    "town_kana": "ダイリホンマチ",
    "street": null,
    "office_name": null,
    "office_name_kana": null
  },
  "0064": {
    "postcode": "8000064",
    "prefecture": "福岡県",
    "prefecture_kana": "フクオカケン",
    "prefecture_code": 40,
    "city": "北九州市門司区",
    "city_kana": "キタキュウシュウシモジク",
    "town": "松原",
    "town_kana": "マツバラ",
    "street": null,
    "office_name": null,
    "office_name_kana": null
  },
  "0101": {
    "postcode": "8000101",
    "prefecture": "福岡県",
    "prefecture_kana": "フクオカケン",
    "prefecture_code": 40,
    "city": "北九州市門司区",
    "city_kana": "キタキュウシュウシモジク",
    "town": "伊川",
    "town_kana": "イカワ",
    "street": null,
    "office_name": null,
    "office_name_kana": null
  },
  "0102": {
    "postcode": "8000102",
    "prefecture": "福岡県",
    "prefecture_kana": "フクオカケン",
    "prefecture_code": 40,
    "city": "北九州市門司区",
    "city_kana": "キタキュウシュウシモジク",
    "town": "猿喰",
    "town_kana": "サルハミ",
    "street": null,
    "office_name": null,
    "office_name_kana": null
  },
  "0111": {
    "postcode": "8000111",
    "prefecture": "福岡県",
    "prefecture_kana": "フクオカケン",
    "prefecture_code": 40,
    "city": "北九州市門司区",
    "city_kana": "キタキュウシュウシモジク",
    "town": "今津",
    "town_kana": "イマヅ",
    "street": null,
    "office_name": null,
    "office_name_kana": null
  },
  "0112": {
    "postcode": "8000112",
    "prefecture": "福岡県",
    "prefecture_kana": "フクオカケン",
    "prefecture_code": 40,
    "city": "北九州市門司区",
    "city_kana": "キタキュウシュウシモジク",
    "town": "畑",
    "town_kana": "ハタ",
    "street": null,
    "office_name": null,
    "office_name_kana": null
  },
  "0113": {
    "postcode": "8000113",
    "prefecture": "福岡県",
    "prefecture_kana": "フクオカケン",
    "prefecture_code": 40,
    "city": "北九州市門司区",
    "city_kana": "キタキュウシュウシモジク",
    "town": "新門司北",
    "town_kana": "シンモジキタ",
    "street": null,
    "office_name": null,
    "office_name_kana": null
  },
  "0114": {
    "postcode": "8000114",
    "prefecture": "福岡県",
    "prefecture_kana": "フクオカケン",
    "prefecture_code": 40,
    "city": "北九州市門司区",
    "city_kana": "キタキュウシュウシモジク",
    "town": "吉志",
    "town_kana": "キシ",
    "street": null,
    "office_name": null,
    "office_name_kana": null
  },
  "0115": {
    "postcode": "8000115",
    "prefecture": "福岡県",
    "prefecture_kana": "フクオカケン",
    "prefecture_code": 40,
    "city": "北九州市門司区",
    "city_kana": "キタキュウシュウシモジク",
    "town": "新門司",
    "town_kana": "シンモジ",
    "street": null,
    "office_name": null,
    "office_name_kana": null
  },
  "0116": {
    "postcode": "8000116",
    "prefecture": "福岡県",
    "prefecture_kana": "フクオカケン",
    "prefecture_code": 40,
    "city": "北九州市門司区",
    "city_kana": "キタキュウシュウシモジク",
    "town": "恒見町",
    "town_kana": "ツネミマチ",
    "street": null,
    "office_name": null,
    "office_name_kana": null
  },
  "0117": {
    "postcode": "8000117",
    "prefecture": "福岡県",
    "prefecture_kana": "フクオカケン",
    "prefecture_code": 40,
    "city": "北九州市門司区",
    "city_kana": "キタキュウシュウシモジク",
    "town": "恒見",
    "town_kana": "ツネミ",
    "street": null,
    "office_name": null,
    "office_name_kana": null
  },
  "0118": {
    "postcode": "8000118",
    "prefecture": "福岡県",
    "prefecture_kana": "フクオカケン",
    "prefecture_code": 40,
    "city": "北九州市門司区",
    "city_kana": "キタキュウシュウシモジク",
    "town": "吉志新町",
    "town_kana": "キシシンマチ",
    "street": null,
    "office_name": null,
    "office_name_kana": null
  },
  "0201": {
    "postcode": "8000201",
    "prefecture": "福岡県",
    "prefecture_kana": "フクオカケン",
    "prefecture_code": 40,
    "city": "北九州市小倉南区",
    "city_kana": "キタキュウシュウシコクラミナミク",
    "town": "上吉田",
    "town_kana": "カミヨシダ",
    "street": null,
    "office_name": null,
    "office_name_kana": null
  },
  "0202": {
    "postcode": "8000202",
    "prefecture": "福岡県",
    "prefecture_kana": "フクオカケン",
    "prefecture_code": 40,
    "city": "北九州市小倉南区",
    "city_kana": "キタキュウシュウシコクラミナミク",
    "town": "吉田",
    "town_kana": "ヨシダ",
    "street": null,
    "office_name": null,
    "office_name_kana": null
  },
  "0203": {
    "postcode": "8000203",
    "prefecture": "福岡県",
    "prefecture_kana": "フクオカケン",
    "prefecture_code": 40,
    "city": "北九州市小倉南区",
    "city_kana": "キタキュウシュウシコクラミナミク",
    "town": "下吉田",
    "town_kana": "シモヨシダ",
    "street": null,
    "office_name": null,
    "office_name_kana": null
  },
  "0204": {
    "postcode": "8000204",
    "prefecture": "福岡県",
    "prefecture_kana": "フクオカケン",
    "prefecture_code": 40,
    "city": "北九州市小倉南区",
    "city_kana": "キタキュウシュウシコクラミナミク",
    "town": "中吉田",
    "town_kana": "ナカヨシダ",
    "street": null,
    "office_name": null,
    "office_name_kana": null
  },
  "0205": {
    "postcode": "8000205",
    "prefecture": "福岡県",
    "prefecture_kana": "フクオカケン",
    "prefecture_code": 40,
    "city": "北九州市小倉南区",
    "city_kana": "キタキュウシュウシコクラミナミク",
    "town": "沼南町",
    "town_kana": "ヌマミナミマチ",
    "street": null,
    "office_name": null,
    "office_name_kana": null
  },
  "0206": {
    "postcode": "8000206",
    "prefecture": "福岡県",
    "prefecture_kana": "フクオカケン",
    "prefecture_code": 40,
    "city": "北九州市小倉南区",
    "city_kana": "キタキュウシュウシコクラミナミク",
    "town": "葛原東",
    "town_kana": "クズハラヒガシ",
    "street": null,
    "office_name": null,
    "office_name_kana": null
  },
  "0207": {
    "postcode": "8000207",
    "prefecture": "福岡県",
    "prefecture_kana": "フクオカケン",
    "prefecture_code": 40,
    "city": "北九州市小倉南区",
    "city_kana": "キタキュウシュウシコクラミナミク",
    "town": "沼緑町",
    "town_kana": "ヌマミドリマチ",
    "street": null,
    "office_name": null,
    "office_name_kana": null
  },
  "0208": {
    "postcode": "8000208",
    "prefecture": "福岡県",
    "prefecture_kana": "フクオカケン",
    "prefecture_code": 40,
    "city": "北九州市小倉南区",
    "city_kana": "キタキュウシュウシコクラミナミク",
    "town": "沼本町",
    "town_kana": "ヌマホンマチ",
    "street": null,
    "office_name": null,
    "office_name_kana": null
  },
  "0209": {
    "postcode": "8000209",
    "prefecture": "福岡県",
    "prefecture_kana": "フクオカケン",
    "prefecture_code": 40,
    "city": "北九州市小倉南区",
    "city_kana": "キタキュウシュウシコクラミナミク",
    "town": "沼",
    "town_kana": "ヌマ",
    "street": null,
    "office_name": null,
    "office_name_kana": null
  },
  "0210": {
    "postcode": "8000210",
    "prefecture": "福岡県",
    "prefecture_kana": "フクオカケン",
    "prefecture_code": 40,
    "city": "北九州市小倉南区",
    "city_kana": "キタキュウシュウシコクラミナミク",
    "town": "吉田にれの木坂",
    "town_kana": "ヨシダニレノキザカ",
    "street": null,
    "office_name": null,
    "office_name_kana": null
  },
  "0211": {
    "postcode": "8000211",
    "prefecture": "福岡県",
    "prefecture_kana": "フクオカケン",
    "prefecture_code": 40,
    "city": "北九州市小倉南区",
    "city_kana": "キタキュウシュウシコクラミナミク",
    "town": "新曽根",
    "town_kana": "シンソネ",
    "street": null,
    "office_name": null,
    "office_name_kana": null
  },
  "0212": {
    "postcode": "8000212",
    "prefecture": "福岡県",
    "prefecture_kana": "フクオカケン",
    "prefecture_code": 40,
    "city": "北九州市小倉南区",
    "city_kana": "キタキュウシュウシコクラミナミク",
    "town": "曽根",
    "town_kana": "ソネ",
    "street": null,
    "office_name": null,
    "office_name_kana": null
  },
  "0213": {
    "postcode": "8000213",
    "prefecture": "福岡県",
    "prefecture_kana": "フクオカケン",
    "prefecture_code": 40,
    "city": "北九州市小倉南区",
    "city_kana": "キタキュウシュウシコクラミナミク",
    "town": "中曽根東",
    "town_kana": "ナカソネヒガシ",
    "street": null,
    "office_name": null,
    "office_name_kana": null
  },
  "0214": {
    "postcode": "8000214",
    "prefecture": "福岡県",
    "prefecture_kana": "フクオカケン",
    "prefecture_code": 40,
    "city": "北九州市小倉南区",
    "city_kana": "キタキュウシュウシコクラミナミク",
    "town": "曽根新田",
    "town_kana": "ソネシンデン",
    "street": null,
    "office_name": null,
    "office_name_kana": null
  },
  "0215": {
    "postcode": "8000215",
    "prefecture": "福岡県",
    "prefecture_kana": "フクオカケン",
    "prefecture_code": 40,
    "city": "北九州市小倉南区",
    "city_kana": "キタキュウシュウシコクラミナミク",
    "town": "上曽根新町",
    "town_kana": "カミソネシンマチ",
    "street": null,
    "office_name": null,
    "office_name_kana": null
  },
  "0216": {
    "postcode": "8000216",
    "prefecture": "福岡県",
    "prefecture_kana": "フクオカケン",
    "prefecture_code": 40,
    "city": "北九州市小倉南区",
    "city_kana": "キタキュウシュウシコクラミナミク",
    "town": "中曽根新町",
    "town_kana": "ナカソネシンマチ",
    "street": null,
    "office_name": null,
    "office_name_kana": null
  },
  "0217": {
    "postcode": "8000217",
    "prefecture": "福岡県",
    "prefecture_kana": "フクオカケン",
    "prefecture_code": 40,
    "city": "北九州市小倉南区",
    "city_kana": "キタキュウシュウシコクラミナミク",
    "town": "下曽根",
    "town_kana": "シモソネ",
    "street": null,
    "office_name": null,
    "office_name_kana": null
  },
  "0218": {
    "postcode": "8000218",
    "prefecture": "福岡県",
    "prefecture_kana": "フクオカケン",
    "prefecture_code": 40,
    "city": "北九州市小倉南区",
    "city_kana": "キタキュウシュウシコクラミナミク",
    "town": "沼新町",
    "town_kana": "ヌマシンマチ",
    "street": null,
    "office_name": null,
    "office_name_kana": null
  },
  "0219": {
    "postcode": "8000219",
    "prefecture": "福岡県",
    "prefecture_kana": "フクオカケン",
    "prefecture_code": 40,
    "city": "北九州市小倉南区",
    "city_kana": "キタキュウシュウシコクラミナミク",
    "town": "曽根新田北",
    "town_kana": "ソネシンデンキタ",
    "street": null,
    "office_name": null,
    "office_name_kana": null
  },
  "0220": {
    "postcode": "8000220",
    "prefecture": "福岡県",
    "prefecture_kana": "フクオカケン",
    "prefecture_code": 40,
    "city": "北九州市小倉南区",
    "city_kana": "キタキュウシュウシコクラミナミク",
    "town": "曽根新田南",
    "town_kana": "ソネシンデンミナミ",
    "street": null,
    "office_name": null,
    "office_name_kana": null
  },
  "0221": {
    "postcode": "8000221",
    "prefecture": "福岡県",
    "prefecture_kana": "フクオカケン",
    "prefecture_code": 40,
    "city": "北九州市小倉南区",
    "city_kana": "キタキュウシュウシコクラミナミク",
    "town": "下曽根新町",
    "town_kana": "シモソネシンマチ",
    "street": null,
    "office_name": null,
    "office_name_kana": null
  },
  "0222": {
    "postcode": "8000222",
    "prefecture": "福岡県",
    "prefecture_kana": "フクオカケン",
    "prefecture_code": 40,
    "city": "北九州市小倉南区",
    "city_kana": "キタキュウシュウシコクラミナミク",
    "town": "中曽根",
    "town_kana": "ナカソネ",
    "street": null,
    "office_name": null,
    "office_name_kana": null
  },
  "0223": {
    "postcode": "8000223",
    "prefecture": "福岡県",
    "prefecture_kana": "フクオカケン",
    "prefecture_code": 40,
    "city": "北九州市小倉南区",
    "city_kana": "キタキュウシュウシコクラミナミク",
    "town": "上曽根",
    "town_kana": "カミソネ",
    "street": null,
    "office_name": null,
    "office_name_kana": null
  },
  "0224": {
    "postcode": "8000224",
    "prefecture": "福岡県",
    "prefecture_kana": "フクオカケン",
    "prefecture_code": 40,
    "city": "北九州市小倉南区",
    "city_kana": "キタキュウシュウシコクラミナミク",
    "town": "東貫",
    "town_kana": "ヒガシヌキ",
    "street": null,
    "office_name": null,
    "office_name_kana": null
  },
  "0225": {
    "postcode": "8000225",
    "prefecture": "福岡県",
    "prefecture_kana": "フクオカケン",
    "prefecture_code": 40,
    "city": "北九州市小倉南区",
    "city_kana": "キタキュウシュウシコクラミナミク",
    "town": "田原",
    "town_kana": "タハラ",
    "street": null,
    "office_name": null,
    "office_name_kana": null
  },
  "0226": {
    "postcode": "8000226",
    "prefecture": "福岡県",
    "prefecture_kana": "フクオカケン",
    "prefecture_code": 40,
    "city": "北九州市小倉南区",
    "city_kana": "キタキュウシュウシコクラミナミク",
    "town": "田原新町",
    "town_kana": "タハラシンマチ",
    "street": null,
    "office_name": null,
    "office_name_kana": null
  },
  "0227": {
    "postcode": "8000227",
    "prefecture": "福岡県",
    "prefecture_kana": "フクオカケン",
    "prefecture_code": 40,
    "city": "北九州市小倉南区",
    "city_kana": "キタキュウシュウシコクラミナミク",
    "town": "津田新町",
    "town_kana": "ツダシンマチ",
    "street": null,
    "office_name": null,
    "office_name_kana": null
  },
  "0228": {
    "postcode": "8000228",
    "prefecture": "福岡県",
    "prefecture_kana": "フクオカケン",
    "prefecture_code": 40,
    "city": "北九州市小倉南区",
    "city_kana": "キタキュウシュウシコクラミナミク",
    "town": "長野",
    "town_kana": "ナガノ",
    "street": null,
    "office_name": null,
    "office_name_kana": null
  },
  "0229": {
    "postcode": "8000229",
    "prefecture": "福岡県",
    "prefecture_kana": "フクオカケン",
    "prefecture_code": 40,
    "city": "北九州市小倉南区",
    "city_kana": "キタキュウシュウシコクラミナミク",
    "town": "曽根北町",
    "town_kana": "ソネキタマチ",
    "street": null,
    "office_name": null,
    "office_name_kana": null
  },
  "0231": {
    "postcode": "8000231",
    "prefecture": "福岡県",
    "prefecture_kana": "フクオカケン",
    "prefecture_code": 40,
    "city": "北九州市小倉南区",
    "city_kana": "キタキュウシュウシコクラミナミク",
    "town": "朽網",
    "town_kana": "クサミ",
    "street": null,
    "office_name": null,
    "office_name_kana": null
  },
  "0232": {
    "postcode": "8000232",
    "prefecture": "福岡県",
    "prefecture_kana": "フクオカケン",
    "prefecture_code": 40,
    "city": "北九州市小倉南区",
    "city_kana": "キタキュウシュウシコクラミナミク",
    "town": "朽網東",
    "town_kana": "クサミヒガシ",
    "street": null,
    "office_name": null,
    "office_name_kana": null
  },
  "0233": {
    "postcode": "8000233",
    "prefecture": "福岡県",
    "prefecture_kana": "フクオカケン",
    "prefecture_code": 40,
    "city": "北九州市小倉南区",
    "city_kana": "キタキュウシュウシコクラミナミク",
    "town": "朽網西",
    "town_kana": "クサミニシ",
    "street": null,
    "office_name": null,
    "office_name_kana": null
  },
  "0234": {
    "postcode": "8000234",
    "prefecture": "福岡県",
    "prefecture_kana": "フクオカケン",
    "prefecture_code": 40,
    "city": "北九州市小倉南区",
    "city_kana": "キタキュウシュウシコクラミナミク",
    "town": "貫弥生が丘",
    "town_kana": "ヌキヤヨイガオカ",
    "street": null,
    "office_name": null,
    "office_name_kana": null
  },
  "0235": {
    "postcode": "8000235",
    "prefecture": "福岡県",
    "prefecture_kana": "フクオカケン",
    "prefecture_code": 40,
    "city": "北九州市小倉南区",
    "city_kana": "キタキュウシュウシコクラミナミク",
    "town": "中貫本町",
    "town_kana": "ナカヌキホンマチ",
    "street": null,
    "office_name": null,
    "office_name_kana": null
  },
  "0236": {
    "postcode": "8000236",
    "prefecture": "福岡県",
    "prefecture_kana": "フクオカケン",
    "prefecture_code": 40,
    "city": "北九州市小倉南区",
    "city_kana": "キタキュウシュウシコクラミナミク",
    "town": "下貫",
    "town_kana": "シモヌキ",
    "street": null,
    "office_name": null,
    "office_name_kana": null
  },
  "0237": {
    "postcode": "8000237",
    "prefecture": "福岡県",
    "prefecture_kana": "フクオカケン",
    "prefecture_code": 40,
    "city": "北九州市小倉南区",
    "city_kana": "キタキュウシュウシコクラミナミク",
    "town": "中貫",
    "town_kana": "ナカヌキ",
    "street": null,
    "office_name": null,
    "office_name_kana": null
  },
  "0241": {
    "postcode": "8000241",
    "prefecture": "福岡県",
    "prefecture_kana": "フクオカケン",
    "prefecture_code": 40,
    "city": "北九州市小倉南区",
    "city_kana": "キタキュウシュウシコクラミナミク",
    "town": "長野本町",
    "town_kana": "ナガノホンマチ",
    "street": null,
    "office_name": null,
    "office_name_kana": null
  },
  "0242": {
    "postcode": "8000242",
    "prefecture": "福岡県",
    "prefecture_kana": "フクオカケン",
    "prefecture_code": 40,
    "city": "北九州市小倉南区",
    "city_kana": "キタキュウシュウシコクラミナミク",
    "town": "津田",
    "town_kana": "ツダ",
    "street": null,
    "office_name": null,
    "office_name_kana": null
  },
  "0243": {
    "postcode": "8000243",
    "prefecture": "福岡県",
    "prefecture_kana": "フクオカケン",
    "prefecture_code": 40,
    "city": "北九州市小倉南区",
    "city_kana": "キタキュウシュウシコクラミナミク",
    "town": "西貫",
    "town_kana": "ニシヌキ",
    "street": null,
    "office_name": null,
    "office_name_kana": null
  },
  "0244": {
    "postcode": "8000244",
    "prefecture": "福岡県",
    "prefecture_kana": "フクオカケン",
    "prefecture_code": 40,
    "city": "北九州市小倉南区",
    "city_kana": "キタキュウシュウシコクラミナミク",
    "town": "上貫",
    "town_kana": "カミヌキ",
    "street": null,
    "office_name": null,
    "office_name_kana": null
  },
  "0245": {
    "postcode": "8000245",
    "prefecture": "福岡県",
    "prefecture_kana": "フクオカケン",
    "prefecture_code": 40,
    "city": "北九州市小倉南区",
    "city_kana": "キタキュウシュウシコクラミナミク",
    "town": "貫",
    "town_kana": "ヌキ",
    "street": null,
    "office_name": null,
    "office_name_kana": null
  },
  "0246": {
    "postcode": "8000246",
    "prefecture": "福岡県",
    "prefecture_kana": "フクオカケン",
    "prefecture_code": 40,
    "city": "北九州市小倉南区",
    "city_kana": "キタキュウシュウシコクラミナミク",
    "town": "長野",
    "town_kana": "ナガノ",
    "street": null,
    "office_name": null,
    "office_name_kana": null
  },
  "0247": {
    "postcode": "8000247",
    "prefecture": "福岡県",
    "prefecture_kana": "フクオカケン",
    "prefecture_code": 40,
    "city": "北九州市小倉南区",
    "city_kana": "キタキュウシュウシコクラミナミク",
    "town": "長野東町",
    "town_kana": "ナガノヒガシマチ",
    "street": null,
    "office_name": null,
    "office_name_kana": null
  },
  "0248": {
    "postcode": "8000248",
    "prefecture": "福岡県",
    "prefecture_kana": "フクオカケン",
    "prefecture_code": 40,
    "city": "北九州市小倉南区",
    "city_kana": "キタキュウシュウシコクラミナミク",
    "town": "津田南町",
    "town_kana": "ツダミナミマチ",
    "street": null,
    "office_name": null,
    "office_name_kana": null
  },
  "0251": {
    "postcode": "8000251",
    "prefecture": "福岡県",
    "prefecture_kana": "フクオカケン",
    "prefecture_code": 40,
    "city": "北九州市小倉南区",
    "city_kana": "キタキュウシュウシコクラミナミク",
    "town": "葛原",
    "town_kana": "クズハラ",
    "street": null,
    "office_name": null,
    "office_name_kana": null
  },
  "0252": {
    "postcode": "8000252",
    "prefecture": "福岡県",
    "prefecture_kana": "フクオカケン",
    "prefecture_code": 40,
    "city": "北九州市小倉南区",
    "city_kana": "キタキュウシュウシコクラミナミク",
    "town": "葛原高松",
    "town_kana": "クズハラタカマツ",
    "street": null,
    "office_name": null,
    "office_name_kana": null
  },
  "0253": {
    "postcode": "8000253",
    "prefecture": "福岡県",
    "prefecture_kana": "フクオカケン",
    "prefecture_code": 40,
    "city": "北九州市小倉南区",
    "city_kana": "キタキュウシュウシコクラミナミク",
    "town": "葛原本町",
    "town_kana": "クズハラホンマチ",
    "street": null,
    "office_name": null,
    "office_name_kana": null
  },
  "0254": {
    "postcode": "8000254",
    "prefecture": "福岡県",
    "prefecture_kana": "フクオカケン",
    "prefecture_code": 40,
    "city": "北九州市小倉南区",
    "city_kana": "キタキュウシュウシコクラミナミク",
    "town": "葛原元町",
    "town_kana": "クズハラモトマチ",
    "street": null,
    "office_name": null,
    "office_name_kana": null
  },
  "0255": {
    "postcode": "8000255",
    "prefecture": "福岡県",
    "prefecture_kana": "フクオカケン",
    "prefecture_code": 40,
    "city": "北九州市小倉南区",
    "city_kana": "キタキュウシュウシコクラミナミク",
    "town": "上葛原",
    "town_kana": "カミクズハラ",
    "street": null,
    "office_name": null,
    "office_name_kana": null
  },
  "0256": {
    "postcode": "8000256",
    "prefecture": "福岡県",
    "prefecture_kana": "フクオカケン",
    "prefecture_code": 40,
    "city": "北九州市小倉南区",
    "city_kana": "キタキュウシュウシコクラミナミク",
    "town": "湯川新町",
    "town_kana": "ユガワシンマチ",
    "street": null,
    "office_name": null,
    "office_name_kana": null
  },
  "0257": {
    "postcode": "8000257",
    "prefecture": "福岡県",
    "prefecture_kana": "フクオカケン",
    "prefecture_code": 40,
    "city": "北九州市小倉南区",
    "city_kana": "キタキュウシュウシコクラミナミク",
    "town": "湯川",
    "town_kana": "ユガワ",
    "street": null,
    "office_name": null,
    "office_name_kana": null
  },
  "0258": {
    "postcode": "8000258",
    "prefecture": "福岡県",
    "prefecture_kana": "フクオカケン",
    "prefecture_code": 40,
    "city": "北九州市小倉南区",
    "city_kana": "キタキュウシュウシコクラミナミク",
    "town": "安部山",
    "town_kana": "アベヤマ",
    "street": null,
    "office_name": null,
    "office_name_kana": null
  },
  "0281": {
    "postcode": "8000281",
    "prefecture": "福岡県",
    "prefecture_kana": "フクオカケン",
    "prefecture_code": 40,
    "city": "北九州市小倉南区",
    "city_kana": "キタキュウシュウシコクラミナミク",
    "town": "中曽根東",
    "town_kana": "ナカソネヒガシ",
    "street": "１丁目３−１１",
    "office_name": "クラレイ　株式会社",
    "office_name_kana": "クラレイ カブシキガイシヤ"
  },
  "0282": {
    "postcode": "8000282",
    "prefecture": "福岡県",
    "prefecture_kana": "フクオカケン",
    "prefecture_code": 40,
    "city": "北九州市小倉南区",
    "city_kana": "キタキュウシュウシコクラミナミク",
    "town": "上葛原",
    "town_kana": "カミクズハラ",
    "street": "１丁目１８番１号",
    "office_name": "明治屋商事　株式会社　北九州店",
    "office_name_kana": "メイジヤシヨウジ カブシキガイシヤ キタキユウシユウテン"
  },
  "0285": {
    "postcode": "8000285",
    "prefecture": "福岡県",
    "prefecture_kana": "フクオカケン",
    "prefecture_code": 40,
    "city": "北九州市小倉南区",
    "city_kana": "キタキュウシュウシコクラミナミク",
    "town": "下曽根新町",
    "town_kana": "シモソネシンマチ",
    "street": "１０−１",
    "office_name": "サニーサイドモール　小倉",
    "office_name_kana": "サニ-サイドモ-ル コクラ"
  },
  "0286": {
    "postcode": "8000286",
    "prefecture": "福岡県",
    "prefecture_kana": "フクオカケン",
    "prefecture_code": 40,
    "city": "北九州市小倉南区",
    "city_kana": "キタキュウシュウシコクラミナミク",
    "town": "葛原",
    "town_kana": "クズハラ",
    "street": "５丁目３−３",
    "office_name": "サンデー北九州",
    "office_name_kana": "サンデ-キタキユウシユウ"
  },
  "0288": {
    "postcode": "8000288",
    "prefecture": "福岡県",
    "prefecture_kana": "フクオカケン",
    "prefecture_code": 40,
    "city": "北九州市小倉南区",
    "city_kana": "キタキュウシュウシコクラミナミク",
    "town": "上葛原",
    "town_kana": "カミクズハラ",
    "street": "２丁目１４番１号",
    "office_name": "株式会社　サンリブサンリブシティ　小倉",
    "office_name_kana": "カブシキガイシヤ サンリブサンリブシテイ コクラ"
  },
  "0292": {
    "postcode": "8000292",
    "prefecture": "福岡県",
    "prefecture_kana": "フクオカケン",
    "prefecture_code": 40,
    "city": "北九州市小倉南区",
    "city_kana": "キタキュウシュウシコクラミナミク",
    "town": "下曽根新町",
    "town_kana": "シモソネシンマチ",
    "street": "１３−１",
    "office_name": "株式会社　アステム",
    "office_name_kana": "カブシキガイシヤ アステム"
  },
  "0293": {
    "postcode": "8000293",
    "prefecture": "福岡県",
    "prefecture_kana": "フクオカケン",
    "prefecture_code": 40,
    "city": "北九州市小倉南区",
    "city_kana": "キタキュウシュウシコクラミナミク",
    "town": "朽網東",
    "town_kana": "クサミヒガシ",
    "street": "５丁目１−１",
    "office_name": "ＴＯＴＯ　株式会社　小倉第二工場",
    "office_name_kana": "ト-ト- カブシキガイシヤ コクラダイニコウジヨウ"
  },
  "0294": {
    "postcode": "8000294",
    "prefecture": "福岡県",
    "prefecture_kana": "フクオカケン",
    "prefecture_code": 40,
    "city": "北九州市小倉南区",
    "city_kana": "キタキュウシュウシコクラミナミク",
    "town": "下曽根",
    "town_kana": "シモソネ",
    "street": "１丁目８−６",
    "office_name": "小倉南社会保険事務所",
    "office_name_kana": "コクラミナミシヤカイホケンジムシヨ"
  },
  "0296": {
    "postcode": "8000296",
    "prefecture": "福岡県",
    "prefecture_kana": "フクオカケン",
    "prefecture_code": 40,
    "city": "北九州市小倉南区",
    "city_kana": "キタキュウシュウシコクラミナミク",
    "town": "曽根北町",
    "town_kana": "ソネキタマチ",
    "street": "１番１号",
    "office_name": "九州労災病院",
    "office_name_kana": "キユウシユウロウサイビヨウイン"
  },
  "0297": {
    "postcode": "8000297",
    "prefecture": "福岡県",
    "prefecture_kana": "フクオカケン",
    "prefecture_code": 40,
    "city": "北九州市小倉南区",
    "city_kana": "キタキュウシュウシコクラミナミク",
    "town": "葛原",
    "town_kana": "クズハラ",
    "street": "１丁目８−４",
    "office_name": "株式会社　七尾製菓",
    "office_name_kana": "カブシキガイシヤ ナナオセイカ"
  },
  "0298": {
    "postcode": "8000298",
    "prefecture": "福岡県",
    "prefecture_kana": "フクオカケン",
    "prefecture_code": 40,
    "city": "北九州市小倉南区",
    "city_kana": "キタキュウシュウシコクラミナミク",
    "town": "葛原高松",
    "town_kana": "クズハラタカマツ",
    "street": "１丁目５番１号",
    "office_name": "九州栄養福祉大学　小倉南区キャンパス",
    "office_name_kana": "キユウシユウエイヨウフクシダイガク コクラミナミクキヤンパス"
  },
  "0300": {
    "postcode": "8000300",
    "prefecture": "福岡県",
    "prefecture_kana": "フクオカケン",
    "prefecture_code": 40,
    "city": "京都郡苅田町",
    "city_kana": "ミヤコグンカンダマチ",
    "town": "",
    "town_kana": "",
    "street": null,
    "office_name": null,
    "office_name_kana": null
  },
  "0301": {
    "postcode": "8000301",
    "prefecture": "福岡県",
    "prefecture_kana": "フクオカケン",
    "prefecture_code": 40,
    "city": "京都郡苅田町",
    "city_kana": "ミヤコグンカンダマチ",
    "town": "松原町",
    "town_kana": "マツバラチョウ",
    "street": null,
    "office_name": null,
    "office_name_kana": null
  },
  "0302": {
    "postcode": "8000302",
    "prefecture": "福岡県",
    "prefecture_kana": "フクオカケン",
    "prefecture_code": 40,
    "city": "京都郡苅田町",
    "city_kana": "ミヤコグンカンダマチ",
    "town": "若久町",
    "town_kana": "ワカヒサチョウ",
    "street": null,
    "office_name": null,
    "office_name_kana": null
  },
  "0303": {
    "postcode": "8000303",
    "prefecture": "福岡県",
    "prefecture_kana": "フクオカケン",
    "prefecture_code": 40,
    "city": "京都郡苅田町",
    "city_kana": "ミヤコグンカンダマチ",
    "town": "松山",
    "town_kana": "マツヤマ",
    "street": null,
    "office_name": null,
    "office_name_kana": null
  },
  "0304": {
    "postcode": "8000304",
    "prefecture": "福岡県",
    "prefecture_kana": "フクオカケン",
    "prefecture_code": 40,
    "city": "京都郡苅田町",
    "city_kana": "ミヤコグンカンダマチ",
    "town": "鳥越町",
    "town_kana": "トリゴエチョウ",
    "street": null,
    "office_name": null,
    "office_name_kana": null
  },
  "0305": {
    "postcode": "8000305",
    "prefecture": "福岡県",
    "prefecture_kana": "フクオカケン",
    "prefecture_code": 40,
    "city": "京都郡苅田町",
    "city_kana": "ミヤコグンカンダマチ",
    "town": "空港南町",
    "town_kana": "クウコウミナミマチ",
    "street": null,
    "office_name": null,
    "office_name_kana": null
  },
  "0306": {
    "postcode": "8000306",
    "prefecture": "福岡県",
    "prefecture_kana": "フクオカケン",
    "prefecture_code": 40,
    "city": "北九州市小倉南区",
    "city_kana": "キタキュウシュウシコクラミナミク",
    "town": "空港北町",
    "town_kana": "クウコウキタマチ",
    "street": null,
    "office_name": null,
    "office_name_kana": null
  },
  "0307": {
    "postcode": "8000307",
    "prefecture": "福岡県",
    "prefecture_kana": "フクオカケン",
    "prefecture_code": 40,
    "city": "京都郡苅田町",
    "city_kana": "ミヤコグンカンダマチ",
    "town": "新松山",
    "town_kana": "シンマツヤマ",
    "street": null,
    "office_name": null,
    "office_name_kana": null
  },
  "0311": {
    "postcode": "8000311",
    "prefecture": "福岡県",
    "prefecture_kana": "フクオカケン",
    "prefecture_code": 40,
    "city": "京都郡苅田町",
    "city_kana": "ミヤコグンカンダマチ",
    "town": "長浜町",
    "town_kana": "ナガハマチョウ",
    "street": null,
    "office_name": null,
    "office_name_kana": null
  },
  "0312": {
    "postcode": "8000312",
    "prefecture": "福岡県",
    "prefecture_kana": "フクオカケン",
    "prefecture_code": 40,
    "city": "京都郡苅田町",
    "city_kana": "ミヤコグンカンダマチ",
    "town": "殿川町",
    "town_kana": "トノガワチョウ",
    "street": null,
    "office_name": null,
    "office_name_kana": null
  },
  "0313": {
    "postcode": "8000313",
    "prefecture": "福岡県",
    "prefecture_kana": "フクオカケン",
    "prefecture_code": 40,
    "city": "京都郡苅田町",
    "city_kana": "ミヤコグンカンダマチ",
    "town": "磯浜町",
    "town_kana": "イソハマチョウ",
    "street": null,
    "office_name": null,
    "office_name_kana": null
  },
  "0314": {
    "postcode": "8000314",
    "prefecture": "福岡県",
    "prefecture_kana": "フクオカケン",
    "prefecture_code": 40,
    "city": "京都郡苅田町",
    "city_kana": "ミヤコグンカンダマチ",
    "town": "幸町",
    "town_kana": "サイワイマチ",
    "street": null,
    "office_name": null,
    "office_name_kana": null
  },
  "0315": {
    "postcode": "8000315",
    "prefecture": "福岡県",
    "prefecture_kana": "フクオカケン",
    "prefecture_code": 40,
    "city": "京都郡苅田町",
    "city_kana": "ミヤコグンカンダマチ",
    "town": "港町",
    "town_kana": "ミナトマチ",
    "street": null,
    "office_name": null,
    "office_name_kana": null
  },
  "0321": {
    "postcode": "8000321",
    "prefecture": "福岡県",
    "prefecture_kana": "フクオカケン",
    "prefecture_code": 40,
    "city": "京都郡苅田町",
    "city_kana": "ミヤコグンカンダマチ",
    "town": "新浜町",
    "town_kana": "シンハマチョウ",
    "street": null,
    "office_name": null,
    "office_name_kana": null
  },
  "0322": {
    "postcode": "8000322",
    "prefecture": "福岡県",
    "prefecture_kana": "フクオカケン",
    "prefecture_code": 40,
    "city": "京都郡苅田町",
    "city_kana": "ミヤコグンカンダマチ",
    "town": "二崎",
    "town_kana": "フタザキ",
    "street": null,
    "office_name": null,
    "office_name_kana": null
  },
  "0323": {
    "postcode": "8000323",
    "prefecture": "福岡県",
    "prefecture_kana": "フクオカケン",
    "prefecture_code": 40,
    "city": "京都郡苅田町",
    "city_kana": "ミヤコグンカンダマチ",
    "town": "与原",
    "town_kana": "ヨバル",
    "street": null,
    "office_name": null,
    "office_name_kana": null
  },
  "0324": {
    "postcode": "8000324",
    "prefecture": "福岡県",
    "prefecture_kana": "フクオカケン",
    "prefecture_code": 40,
    "city": "京都郡苅田町",
    "city_kana": "ミヤコグンカンダマチ",
    "town": "浜町",
    "town_kana": "ハママチ",
    "street": null,
    "office_name": null,
    "office_name_kana": null
  },
  "0331": {
    "postcode": "8000331",
    "prefecture": "福岡県",
    "prefecture_kana": "フクオカケン",
    "prefecture_code": 40,
    "city": "京都郡苅田町",
    "city_kana": "ミヤコグンカンダマチ",
    "town": "岡崎",
    "town_kana": "オカザキ",
    "street": null,
    "office_name": null,
    "office_name_kana": null
  },
  "0332": {
    "postcode": "8000332",
    "prefecture": "福岡県",
    "prefecture_kana": "フクオカケン",
    "prefecture_code": 40,
    "city": "京都郡苅田町",
    "city_kana": "ミヤコグンカンダマチ",
    "town": "鋤崎",
    "town_kana": "スキザキ",
    "street": null,
    "office_name": null,
    "office_name_kana": null
  },
  "0333": {
    "postcode": "8000333",
    "prefecture": "福岡県",
    "prefecture_kana": "フクオカケン",
    "prefecture_code": 40,
    "city": "京都郡苅田町",
    "city_kana": "ミヤコグンカンダマチ",
    "town": "黒添",
    "town_kana": "クロゾエ",
    "street": null,
    "office_name": null,
    "office_name_kana": null
  },
  "0334": {
    "postcode": "8000334",
    "prefecture": "福岡県",
    "prefecture_kana": "フクオカケン",
    "prefecture_code": 40,
    "city": "京都郡苅田町",
    "city_kana": "ミヤコグンカンダマチ",
    "town": "法正寺",
    "town_kana": "ホウショウジ",
    "street": null,
    "office_name": null,
    "office_name_kana": null
  },
  "0335": {
    "postcode": "8000335",
    "prefecture": "福岡県",
    "prefecture_kana": "フクオカケン",
    "prefecture_code": 40,
    "city": "京都郡苅田町",
    "city_kana": "ミヤコグンカンダマチ",
    "town": "谷",
    "town_kana": "タニ",
    "street": null,
    "office_name": null,
    "office_name_kana": null
  },
  "0336": {
    "postcode": "8000336",
    "prefecture": "福岡県",
    "prefecture_kana": "フクオカケン",
    "prefecture_code": 40,
    "city": "京都郡苅田町",
    "city_kana": "ミヤコグンカンダマチ",
    "town": "山口",
    "town_kana": "ヤマグチ",
    "street": null,
    "office_name": null,
    "office_name_kana": null
  },
  "0337": {
    "postcode": "8000337",
    "prefecture": "福岡県",
    "prefecture_kana": "フクオカケン",
    "prefecture_code": 40,
    "city": "京都郡苅田町",
    "city_kana": "ミヤコグンカンダマチ",
    "town": "稲光",
    "town_kana": "イナミツ",
    "street": null,
    "office_name": null,
    "office_name_kana": null
  },
  "0338": {
    "postcode": "8000338",
    "prefecture": "福岡県",
    "prefecture_kana": "フクオカケン",
    "prefecture_code": 40,
    "city": "京都郡苅田町",
    "city_kana": "ミヤコグンカンダマチ",
    "town": "葛川",
    "town_kana": "クズガワ",
    "street": null,
    "office_name": null,
    "office_name_kana": null
  },
  "0341": {
    "postcode": "8000341",
    "prefecture": "福岡県",
    "prefecture_kana": "フクオカケン",
    "prefecture_code": 40,
    "city": "京都郡苅田町",
    "city_kana": "ミヤコグンカンダマチ",
    "town": "下新津",
    "town_kana": "シモアラツ",
    "street": null,
    "office_name": null,
    "office_name_kana": null
  },
  "0342": {
    "postcode": "8000342",
    "prefecture": "福岡県",
    "prefecture_kana": "フクオカケン",
    "prefecture_code": 40,
    "city": "京都郡苅田町",
    "city_kana": "ミヤコグンカンダマチ",
    "town": "下片島",
    "town_kana": "シモカタシマ",
    "street": null,
    "office_name": null,
    "office_name_kana": null
  },
  "0343": {
    "postcode": "8000343",
    "prefecture": "福岡県",
    "prefecture_kana": "フクオカケン",
    "prefecture_code": 40,
    "city": "京都郡苅田町",
    "city_kana": "ミヤコグンカンダマチ",
    "town": "上片島",
    "town_kana": "カミカタシマ",
    "street": null,
    "office_name": null,
    "office_name_kana": null
  },
  "0344": {
    "postcode": "8000344",
    "prefecture": "福岡県",
    "prefecture_kana": "フクオカケン",
    "prefecture_code": 40,
    "city": "京都郡苅田町",
    "city_kana": "ミヤコグンカンダマチ",
    "town": "新津",
    "town_kana": "アラツ",
    "street": null,
    "office_name": null,
    "office_name_kana": null
  },
  "0345": {
    "postcode": "8000345",
    "prefecture": "福岡県",
    "prefecture_kana": "フクオカケン",
    "prefecture_code": 40,
    "city": "京都郡苅田町",
    "city_kana": "ミヤコグンカンダマチ",
    "town": "小波瀬",
    "town_kana": "オバセ",
    "street": null,
    "office_name": null,
    "office_name_kana": null
  },
  "0351": {
    "postcode": "8000351",
    "prefecture": "福岡県",
    "prefecture_kana": "フクオカケン",
    "prefecture_code": 40,
    "city": "京都郡苅田町",
    "city_kana": "ミヤコグンカンダマチ",
    "town": "京町",
    "town_kana": "キョウマチ",
    "street": null,
    "office_name": null,
    "office_name_kana": null
  },
  "0352": {
    "postcode": "8000352",
    "prefecture": "福岡県",
    "prefecture_kana": "フクオカケン",
    "prefecture_code": 40,
    "city": "京都郡苅田町",
    "city_kana": "ミヤコグンカンダマチ",
    "town": "富久町",
    "town_kana": "トミヒサチョウ",
    "street": null,
    "office_name": null,
    "office_name_kana": null
  },
  "0353": {
    "postcode": "8000353",
    "prefecture": "福岡県",
    "prefecture_kana": "フクオカケン",
    "prefecture_code": 40,
    "city": "京都郡苅田町",
    "city_kana": "ミヤコグンカンダマチ",
    "town": "尾倉",
    "town_kana": "オグラ",
    "street": null,
    "office_name": null,
    "office_name_kana": null
  },
  "0354": {
    "postcode": "8000354",
    "prefecture": "福岡県",
    "prefecture_kana": "フクオカケン",
    "prefecture_code": 40,
    "city": "京都郡苅田町",
    "city_kana": "ミヤコグンカンダマチ",
    "town": "集",
    "town_kana": "アツマリ",
    "street": null,
    "office_name": null,
    "office_name_kana": null
  },
  "0355": {
    "postcode": "8000355",
    "prefecture": "福岡県",
    "prefecture_kana": "フクオカケン",
    "prefecture_code": 40,
    "city": "京都郡苅田町",
    "city_kana": "ミヤコグンカンダマチ",
    "town": "南原",
    "town_kana": "ミナミバル",
    "street": null,
    "office_name": null,
    "office_name_kana": null
  },
  "0356": {
    "postcode": "8000356",
    "prefecture": "福岡県",
    "prefecture_kana": "フクオカケン",
    "prefecture_code": 40,
    "city": "京都郡苅田町",
    "city_kana": "ミヤコグンカンダマチ",
    "town": "近衛ケ丘",
    "town_kana": "コノエガオカ",
    "street": null,
    "office_name": null,
    "office_name_kana": null
  },
  "0357": {
    "postcode": "8000357",
    "prefecture": "福岡県",
    "prefecture_kana": "フクオカケン",
    "prefecture_code": 40,
    "city": "京都郡苅田町",
    "city_kana": "ミヤコグンカンダマチ",
    "town": "桜ケ丘",
    "town_kana": "サクラガオカ",
    "street": null,
    "office_name": null,
    "office_name_kana": null
  },
  "0361": {
    "postcode": "8000361",
    "prefecture": "福岡県",
    "prefecture_kana": "フクオカケン",
    "prefecture_code": 40,
    "city": "京都郡苅田町",
    "city_kana": "ミヤコグンカンダマチ",
    "town": "神田町",
    "town_kana": "ジンデンチョウ",
    "street": null,
    "office_name": null,
    "office_name_kana": null
  },
  "0362": {
    "postcode": "8000362",
    "prefecture": "福岡県",
    "prefecture_kana": "フクオカケン",
    "prefecture_code": 40,
    "city": "京都郡苅田町",
    "city_kana": "ミヤコグンカンダマチ",
    "town": "馬場",
    "town_kana": "ババ",
    "street": null,
    "office_name": null,
    "office_name_kana": null
  },
  "0363": {
    "postcode": "8000363",
    "prefecture": "福岡県",
    "prefecture_kana": "フクオカケン",
    "prefecture_code": 40,
    "city": "京都郡苅田町",
    "city_kana": "ミヤコグンカンダマチ",
    "town": "光国",
    "town_kana": "ミツクニ",
    "street": null,
    "office_name": null,
    "office_name_kana": null
  },
  "0364": {
    "postcode": "8000364",
    "prefecture": "福岡県",
    "prefecture_kana": "フクオカケン",
    "prefecture_code": 40,
    "city": "京都郡苅田町",
    "city_kana": "ミヤコグンカンダマチ",
    "town": "提",
    "town_kana": "ヒサゲ",
    "street": null,
    "office_name": null,
    "office_name_kana": null
  },
  "0365": {
    "postcode": "8000365",
    "prefecture": "福岡県",
    "prefecture_kana": "フクオカケン",
    "prefecture_code": 40,
    "city": "京都郡苅田町",
    "city_kana": "ミヤコグンカンダマチ",
    "town": "苅田",
    "town_kana": "カンダ",
    "street": null,
    "office_name": null,
    "office_name_kana": null
  },
  "0366": {
    "postcode": "8000366",
    "prefecture": "福岡県",
    "prefecture_kana": "フクオカケン",
    "prefecture_code": 40,
    "city": "京都郡苅田町",
    "city_kana": "ミヤコグンカンダマチ",
    "town": "雨窪",
    "town_kana": "アマクボ",
    "street": null,
    "office_name": null,
    "office_name_kana": null
  },
  "0392": {
    "postcode": "8000392",
    "prefecture": "福岡県",
    "prefecture_kana": "フクオカケン",
    "prefecture_code": 40,
    "city": "京都郡苅田町",
    "city_kana": "ミヤコグンカンダマチ",
    "town": "富久町",
    "town_kana": "トミヒサチョウ",
    "street": "１丁目１９−１",
    "office_name": "苅田町役場",
    "office_name_kana": "カンダマチヤクバ"
  },
  "0393": {
    "postcode": "8000393",
    "prefecture": "福岡県",
    "prefecture_kana": "フクオカケン",
    "prefecture_code": 40,
    "city": "京都郡苅田町",
    "city_kana": "ミヤコグンカンダマチ",
    "town": "長浜町",
    "town_kana": "ナガハマチョウ",
    "street": "３５",
    "office_name": "日立金属　株式会社　九州工場",
    "office_name_kana": "ヒタチキンゾク カブシキガイシヤ キユウシユウコウジヨウ"
  },
  "0394": {
    "postcode": "8000394",
    "prefecture": "福岡県",
    "prefecture_kana": "フクオカケン",
    "prefecture_code": 40,
    "city": "京都郡苅田町",
    "city_kana": "ミヤコグンカンダマチ",
    "town": "大字新津",
    "town_kana": null,
    "street": "１−１１",
    "office_name": "西日本工業大学",
    "office_name_kana": "ニシニツポンコウギヨウダイガク"
  },
  "0395": {
    "postcode": "8000395",
    "prefecture": "福岡県",
    "prefecture_kana": "フクオカケン",
    "prefecture_code": 40,
    "city": "京都郡苅田町",
    "city_kana": "ミヤコグンカンダマチ",
    "town": "新浜町",
    "town_kana": "シンハマチョウ",
    "street": "１−３",
    "office_name": "日産自動車　株式会社　九州工場",
    "office_name_kana": "ニツサンジドウシヤ カブシキガイシヤ キユウシユウコウジヨウ"
  },
  "0396": {
    "postcode": "8000396",
    "prefecture": "福岡県",
    "prefecture_kana": "フクオカケン",
    "prefecture_code": 40,
    "city": "京都郡苅田町",
    "city_kana": "ミヤコグンカンダマチ",
    "town": "松原町",
    "town_kana": "マツバラチョウ",
    "street": "１２番地",
    "office_name": "三菱マテリアル　株式会社　九州工場",
    "office_name_kana": "ミツビシマテリアル カブシキガイシヤ キユウシユウコウジヨウ"
  },
  "8510": {
    "postcode": "8008510",
    "prefecture": "福岡県",
    "prefecture_kana": "フクオカケン",
    "prefecture_code": 40,
    "city": "北九州市門司区",
    "city_kana": "キタキュウシュウシモジク",
    "town": "大里本町",
    "town_kana": "ダイリホンマチ",
    "street": "２丁目２−５",
    "office_name": "池田興業　株式会社",
    "office_name_kana": "イケダコウギヨウ カブシキガイシヤ"
  },
  "8550": {
    "postcode": "8008550",
    "prefecture": "福岡県",
    "prefecture_kana": "フクオカケン",
    "prefecture_code": 40,
    "city": "北九州市門司区",
    "city_kana": "キタキュウシュウシモジク",
    "town": "東新町",
    "town_kana": "ヒガシシンマチ",
    "street": "１丁目１−３０（門司郵便局私書箱第２４号）",
    "office_name": "高藤建設　株式会社",
    "office_name_kana": "タカフジケンセツ カブシキガイシヤ"
  },
  "8555": {
    "postcode": "8008555",
    "prefecture": "福岡県",
    "prefecture_kana": "フクオカケン",
    "prefecture_code": 40,
    "city": "北九州市門司区",
    "city_kana": "キタキュウシュウシモジク",
    "town": "社ノ木",
    "town_kana": "シャノキ",
    "street": "１丁目２−１",
    "office_name": "株式会社　マツモト",
    "office_name_kana": "カブシキガイシヤ マツモト"
  },
  "8585": {
    "postcode": "8008585",
    "prefecture": "福岡県",
    "prefecture_kana": "フクオカケン",
    "prefecture_code": 40,
    "city": "北九州市門司区",
    "city_kana": "キタキュウシュウシモジク",
    "town": "大里元町",
    "town_kana": "ダイリモトマチ",
    "street": "２番１号",
    "office_name": "ニッカウヰスキー　株式会社　門司工場",
    "office_name_kana": "ニツカウイスキ- カブシキガイシヤ モジコウジヨウ"
  },
  "8601": {
    "postcode": "8008601",
    "prefecture": "福岡県",
    "prefecture_kana": "フクオカケン",
    "prefecture_code": 40,
    "city": "北九州市門司区",
    "city_kana": "キタキュウシュウシモジク",
    "town": "中町",
    "town_kana": "ナカマチ",
    "street": "１−１４（門司郵便局私書箱第１１号）",
    "office_name": "岡野バルブ製造　株式会社",
    "office_name_kana": "オカノバルブセイゾウ カブシキカイシヤ"
  },
  "8603": {
    "postcode": "8008603",
    "prefecture": "福岡県",
    "prefecture_kana": "フクオカケン",
    "prefecture_code": 40,
    "city": "北九州市門司区",
    "city_kana": "キタキュウシュウシモジク",
    "town": "高田",
    "town_kana": "タカダ",
    "street": "１丁目１−２０（門司郵便局私書箱第２０号）",
    "office_name": "株式会社　福岡銀行　門司駅前支店",
    "office_name_kana": "カブシキガイシヤ フクオカギンコウ モジエキマエシテン"
  },
  "8611": {
    "postcode": "8008611",
    "prefecture": "福岡県",
    "prefecture_kana": "フクオカケン",
    "prefecture_code": 40,
    "city": "北九州市門司区",
    "city_kana": "キタキュウシュウシモジク",
    "town": "中町",
    "town_kana": "ナカマチ",
    "street": "１番地２５号（門司郵便局私書箱第２９号）",
    "office_name": "株式会社　西日本シティ銀行　門司駅前支店",
    "office_name_kana": "カブシキガイシヤ ニシニツポンシテイギンコウ モジエキマエシテン"
  },
  "8686": {
    "postcode": "8008686",
    "prefecture": "福岡県",
    "prefecture_kana": "フクオカケン",
    "prefecture_code": 40,
    "city": "北九州市門司区",
    "city_kana": "キタキュウシュウシモジク",
    "town": "柳町",
    "town_kana": "ヤナギマチ",
    "street": "１丁目３−２５（門司郵便局私書箱第２号）",
    "office_name": "大分銀行　門司駅前支店",
    "office_name_kana": "オオイタギンコウ モジエキマエシテン"
  }
}