{
  "0000": {
    "postcode": "8180000",
    "prefecture": "福岡県",
    "prefecture_kana": "フクオカケン",
    "prefecture_code": 40,
    "city": "筑紫野市",
    "city_kana": "チクシノシ",
    "town": "",
    "town_kana": "",
    "street": null,
    "office_name": null,
    "office_name_kana": null
  },
  "0001": {
    "postcode": "8180001",
    "prefecture": "福岡県",
    "prefecture_kana": "フクオカケン",
    "prefecture_code": 40,
    "city": "筑紫野市",
    "city_kana": "チクシノシ",
    "town": "柚須原",
    "town_kana": "ユスバル",
    "street": null,
    "office_name": null,
    "office_name_kana": null
  },
  "0002": {
    "postcode": "8180002",
    "prefecture": "福岡県",
    "prefecture_kana": "フクオカケン",
    "prefecture_code": 40,
    "city": "筑紫野市",
    "city_kana": "チクシノシ",
    "town": "香園",
    "town_kana": "コウゾノ",
    "street": null,
    "office_name": null,
    "office_name_kana": null
  },
  "0003": {
    "postcode": "8180003",
    "prefecture": "福岡県",
    "prefecture_kana": "フクオカケン",
    "prefecture_code": 40,
    "city": "筑紫野市",
    "city_kana": "チクシノシ",
    "town": "山家",
    "town_kana": "ヤマエ",
    "street": null,
    "office_name": null,
    "office_name_kana": null
  },
  "0004": {
    "postcode": "8180004",
    "prefecture": "福岡県",
    "prefecture_kana": "フクオカケン",
    "prefecture_code": 40,
    "city": "筑紫野市",
    "city_kana": "チクシノシ",
    "town": "吉木",
    "town_kana": "ヨシキ",
    "street": null,
    "office_name": null,
    "office_name_kana": null
  },
  "0005": {
    "postcode": "8180005",
    "prefecture": "福岡県",
    "prefecture_kana": "フクオカケン",
    "prefecture_code": 40,
    "city": "筑紫野市",
    "city_kana": "チクシノシ",
    "town": "原",
    "town_kana": "ハル",
    "street": null,
    "office_name": null,
    "office_name_kana": null
  },
  "0006": {
    "postcode": "8180006",
    "prefecture": "福岡県",
    "prefecture_kana": "フクオカケン",
    "prefecture_code": 40,
    "city": "筑紫野市",
    "city_kana": "チクシノシ",
    "town": "大石",
    "town_kana": "オオイシ",
    "street": null,
    "office_name": null,
    "office_name_kana": null
  },
  "0007": {
    "postcode": "8180007",
    "prefecture": "福岡県",
    "prefecture_kana": "フクオカケン",
    "prefecture_code": 40,
    "city": "筑紫野市",
    "city_kana": "チクシノシ",
    "town": "本道寺",
    "town_kana": "ホンドウジ",
    "street": null,
    "office_name": null,
    "office_name_kana": null
  },
  "0011": {
    "postcode": "8180011",
    "prefecture": "福岡県",
    "prefecture_kana": "フクオカケン",
    "prefecture_code": 40,
    "city": "筑紫野市",
    "city_kana": "チクシノシ",
    "town": "阿志岐",
    "town_kana": "アシキ",
    "street": null,
    "office_name": null,
    "office_name_kana": null
  },
  "0012": {
    "postcode": "8180012",
    "prefecture": "福岡県",
    "prefecture_kana": "フクオカケン",
    "prefecture_code": 40,
    "city": "筑紫野市",
    "city_kana": "チクシノシ",
    "town": "天山",
    "town_kana": "アマヤマ",
    "street": null,
    "office_name": null,
    "office_name_kana": null
  },
  "0013": {
    "postcode": "8180013",
    "prefecture": "福岡県",
    "prefecture_kana": "フクオカケン",
    "prefecture_code": 40,
    "city": "筑紫野市",
    "city_kana": "チクシノシ",
    "town": "岡田",
    "town_kana": "オカダ",
    "street": null,
    "office_name": null,
    "office_name_kana": null
  },
  "0014": {
    "postcode": "8180014",
    "prefecture": "福岡県",
    "prefecture_kana": "フクオカケン",
    "prefecture_code": 40,
    "city": "筑紫野市",
    "city_kana": "チクシノシ",
    "town": "牛島",
    "town_kana": "ウシジマ",
    "street": null,
    "office_name": null,
    "office_name_kana": null
  },
  "0021": {
    "postcode": "8180021",
    "prefecture": "福岡県",
    "prefecture_kana": "フクオカケン",
    "prefecture_code": 40,
    "city": "筑紫野市",
    "city_kana": "チクシノシ",
    "town": "下見",
    "town_kana": "シタミ",
    "street": null,
    "office_name": null,
    "office_name_kana": null
  },
  "0022": {
    "postcode": "8180022",
    "prefecture": "福岡県",
    "prefecture_kana": "フクオカケン",
    "prefecture_code": 40,
    "city": "筑紫野市",
    "city_kana": "チクシノシ",
    "town": "筑紫駅前通",
    "town_kana": "チクシエキマエドオリ",
    "street": null,
    "office_name": null,
    "office_name_kana": null
  },
  "0023": {
    "postcode": "8180023",
    "prefecture": "福岡県",
    "prefecture_kana": "フクオカケン",
    "prefecture_code": 40,
    "city": "筑紫野市",
    "city_kana": "チクシノシ",
    "town": "若江",
    "town_kana": "ワカエ",
    "street": null,
    "office_name": null,
    "office_name_kana": null
  },
  "0024": {
    "postcode": "8180024",
    "prefecture": "福岡県",
    "prefecture_kana": "フクオカケン",
    "prefecture_code": 40,
    "city": "筑紫野市",
    "city_kana": "チクシノシ",
    "town": "原田",
    "town_kana": "ハルダ",
    "street": null,
    "office_name": null,
    "office_name_kana": null
  },
  "0025": {
    "postcode": "8180025",
    "prefecture": "福岡県",
    "prefecture_kana": "フクオカケン",
    "prefecture_code": 40,
    "city": "筑紫野市",
    "city_kana": "チクシノシ",
    "town": "筑紫",
    "town_kana": "チクシ",
    "street": null,
    "office_name": null,
    "office_name_kana": null
  },
  "0026": {
    "postcode": "8180026",
    "prefecture": "福岡県",
    "prefecture_kana": "フクオカケン",
    "prefecture_code": 40,
    "city": "筑紫野市",
    "city_kana": "チクシノシ",
    "town": "美咲",
    "town_kana": "ミサキ",
    "street": null,
    "office_name": null,
    "office_name_kana": null
  },
  "0031": {
    "postcode": "8180031",
    "prefecture": "福岡県",
    "prefecture_kana": "フクオカケン",
    "prefecture_code": 40,
    "city": "筑紫野市",
    "city_kana": "チクシノシ",
    "town": "隈",
    "town_kana": "クマ",
    "street": null,
    "office_name": null,
    "office_name_kana": null
  },
  "0032": {
    "postcode": "8180032",
    "prefecture": "福岡県",
    "prefecture_kana": "フクオカケン",
    "prefecture_code": 40,
    "city": "筑紫野市",
    "city_kana": "チクシノシ",
    "town": "西小田",
    "town_kana": "ニシオダ",
    "street": null,
    "office_name": null,
    "office_name_kana": null
  },
  "0034": {
    "postcode": "8180034",
    "prefecture": "福岡県",
    "prefecture_kana": "フクオカケン",
    "prefecture_code": 40,
    "city": "筑紫野市",
    "city_kana": "チクシノシ",
    "town": "美しが丘南",
    "town_kana": "ウツクシガオカミナミ",
    "street": null,
    "office_name": null,
    "office_name_kana": null
  },
  "0035": {
    "postcode": "8180035",
    "prefecture": "福岡県",
    "prefecture_kana": "フクオカケン",
    "prefecture_code": 40,
    "city": "筑紫野市",
    "city_kana": "チクシノシ",
    "town": "美しが丘北",
    "town_kana": "ウツクシガオカキタ",
    "street": null,
    "office_name": null,
    "office_name_kana": null
  },
  "0036": {
    "postcode": "8180036",
    "prefecture": "福岡県",
    "prefecture_kana": "フクオカケン",
    "prefecture_code": 40,
    "city": "筑紫野市",
    "city_kana": "チクシノシ",
    "town": "光が丘",
    "town_kana": "ヒカリガオカ",
    "street": null,
    "office_name": null,
    "office_name_kana": null
  },
  "0041": {
    "postcode": "8180041",
    "prefecture": "福岡県",
    "prefecture_kana": "フクオカケン",
    "prefecture_code": 40,
    "city": "筑紫野市",
    "city_kana": "チクシノシ",
    "town": "上古賀",
    "town_kana": "カミコガ",
    "street": null,
    "office_name": null,
    "office_name_kana": null
  },
  "0042": {
    "postcode": "8180042",
    "prefecture": "福岡県",
    "prefecture_kana": "フクオカケン",
    "prefecture_code": 40,
    "city": "筑紫野市",
    "city_kana": "チクシノシ",
    "town": "立明寺",
    "town_kana": "リュウミョウジ",
    "street": null,
    "office_name": null,
    "office_name_kana": null
  },
  "0043": {
    "postcode": "8180043",
    "prefecture": "福岡県",
    "prefecture_kana": "フクオカケン",
    "prefecture_code": 40,
    "city": "筑紫野市",
    "city_kana": "チクシノシ",
    "town": "むさしケ丘",
    "town_kana": "ムサシガオカ",
    "street": null,
    "office_name": null,
    "office_name_kana": null
  },
  "0044": {
    "postcode": "8180044",
    "prefecture": "福岡県",
    "prefecture_kana": "フクオカケン",
    "prefecture_code": 40,
    "city": "筑紫野市",
    "city_kana": "チクシノシ",
    "town": "萩原",
    "town_kana": "ハギワラ",
    "street": null,
    "office_name": null,
    "office_name_kana": null
  },
  "0045": {
    "postcode": "8180045",
    "prefecture": "福岡県",
    "prefecture_kana": "フクオカケン",
    "prefecture_code": 40,
    "city": "筑紫野市",
    "city_kana": "チクシノシ",
    "town": "平等寺",
    "town_kana": "ビョウドウジ",
    "street": null,
    "office_name": null,
    "office_name_kana": null
  },
  "0046": {
    "postcode": "8180046",
    "prefecture": "福岡県",
    "prefecture_kana": "フクオカケン",
    "prefecture_code": 40,
    "city": "筑紫野市",
    "city_kana": "チクシノシ",
    "town": "山口",
    "town_kana": "ヤマグチ",
    "street": null,
    "office_name": null,
    "office_name_kana": null
  },
  "0047": {
    "postcode": "8180047",
    "prefecture": "福岡県",
    "prefecture_kana": "フクオカケン",
    "prefecture_code": 40,
    "city": "筑紫野市",
    "city_kana": "チクシノシ",
    "town": "古賀",
    "town_kana": "コガ",
    "street": null,
    "office_name": null,
    "office_name_kana": null
  },
  "0052": {
    "postcode": "8180052",
    "prefecture": "福岡県",
    "prefecture_kana": "フクオカケン",
    "prefecture_code": 40,
    "city": "筑紫野市",
    "city_kana": "チクシノシ",
    "town": "武藏",
    "town_kana": "ムサシ",
    "street": null,
    "office_name": null,
    "office_name_kana": null
  },
  "0053": {
    "postcode": "8180053",
    "prefecture": "福岡県",
    "prefecture_kana": "フクオカケン",
    "prefecture_code": 40,
    "city": "筑紫野市",
    "city_kana": "チクシノシ",
    "town": "天拝坂",
    "town_kana": "テンパイザカ",
    "street": null,
    "office_name": null,
    "office_name_kana": null
  },
  "0054": {
    "postcode": "8180054",
    "prefecture": "福岡県",
    "prefecture_kana": "フクオカケン",
    "prefecture_code": 40,
    "city": "筑紫野市",
    "city_kana": "チクシノシ",
    "town": "杉塚",
    "town_kana": "スギヅカ",
    "street": null,
    "office_name": null,
    "office_name_kana": null
  },
  "0056": {
    "postcode": "8180056",
    "prefecture": "福岡県",
    "prefecture_kana": "フクオカケン",
    "prefecture_code": 40,
    "city": "筑紫野市",
    "city_kana": "チクシノシ",
    "town": "二日市北",
    "town_kana": "フツカイチキタ",
    "street": null,
    "office_name": null,
    "office_name_kana": null
  },
  "0057": {
    "postcode": "8180057",
    "prefecture": "福岡県",
    "prefecture_kana": "フクオカケン",
    "prefecture_code": 40,
    "city": "筑紫野市",
    "city_kana": "チクシノシ",
    "town": "二日市南",
    "town_kana": "フツカイチミナミ",
    "street": null,
    "office_name": null,
    "office_name_kana": null
  },
  "0058": {
    "postcode": "8180058",
    "prefecture": "福岡県",
    "prefecture_kana": "フクオカケン",
    "prefecture_code": 40,
    "city": "筑紫野市",
    "city_kana": "チクシノシ",
    "town": "湯町",
    "town_kana": "ユマチ",
    "street": null,
    "office_name": null,
    "office_name_kana": null
  },
  "0059": {
    "postcode": "8180059",
    "prefecture": "福岡県",
    "prefecture_kana": "フクオカケン",
    "prefecture_code": 40,
    "city": "筑紫野市",
    "city_kana": "チクシノシ",
    "town": "塔原東",
    "town_kana": "トウノハルヒガシ",
    "street": null,
    "office_name": null,
    "office_name_kana": null
  },
  "0061": {
    "postcode": "8180061",
    "prefecture": "福岡県",
    "prefecture_kana": "フクオカケン",
    "prefecture_code": 40,
    "city": "筑紫野市",
    "city_kana": "チクシノシ",
    "town": "紫",
    "town_kana": "ムラサキ",
    "street": null,
    "office_name": null,
    "office_name_kana": null
  },
  "0063": {
    "postcode": "8180063",
    "prefecture": "福岡県",
    "prefecture_kana": "フクオカケン",
    "prefecture_code": 40,
    "city": "筑紫野市",
    "city_kana": "チクシノシ",
    "town": "桜台",
    "town_kana": "サクラダイ",
    "street": null,
    "office_name": null,
    "office_name_kana": null
  },
  "0064": {
    "postcode": "8180064",
    "prefecture": "福岡県",
    "prefecture_kana": "フクオカケン",
    "prefecture_code": 40,
    "city": "筑紫野市",
    "city_kana": "チクシノシ",
    "town": "常松",
    "town_kana": "ツネマツ",
    "street": null,
    "office_name": null,
    "office_name_kana": null
  },
  "0065": {
    "postcode": "8180065",
    "prefecture": "福岡県",
    "prefecture_kana": "フクオカケン",
    "prefecture_code": 40,
    "city": "筑紫野市",
    "city_kana": "チクシノシ",
    "town": "諸田",
    "town_kana": "モロタ",
    "street": null,
    "office_name": null,
    "office_name_kana": null
  },
  "0066": {
    "postcode": "8180066",
    "prefecture": "福岡県",
    "prefecture_kana": "フクオカケン",
    "prefecture_code": 40,
    "city": "筑紫野市",
    "city_kana": "チクシノシ",
    "town": "永岡",
    "town_kana": "ナガオカ",
    "street": null,
    "office_name": null,
    "office_name_kana": null
  },
  "0067": {
    "postcode": "8180067",
    "prefecture": "福岡県",
    "prefecture_kana": "フクオカケン",
    "prefecture_code": 40,
    "city": "筑紫野市",
    "city_kana": "チクシノシ",
    "town": "俗明院",
    "town_kana": "ゾクミョウイン",
    "street": null,
    "office_name": null,
    "office_name_kana": null
  },
  "0068": {
    "postcode": "8180068",
    "prefecture": "福岡県",
    "prefecture_kana": "フクオカケン",
    "prefecture_code": 40,
    "city": "筑紫野市",
    "city_kana": "チクシノシ",
    "town": "石崎",
    "town_kana": "イシザキ",
    "street": null,
    "office_name": null,
    "office_name_kana": null
  },
  "0071": {
    "postcode": "8180071",
    "prefecture": "福岡県",
    "prefecture_kana": "フクオカケン",
    "prefecture_code": 40,
    "city": "筑紫野市",
    "city_kana": "チクシノシ",
    "town": "二日市西",
    "town_kana": "フツカイチニシ",
    "street": null,
    "office_name": null,
    "office_name_kana": null
  },
  "0072": {
    "postcode": "8180072",
    "prefecture": "福岡県",
    "prefecture_kana": "フクオカケン",
    "prefecture_code": 40,
    "city": "筑紫野市",
    "city_kana": "チクシノシ",
    "town": "二日市中央",
    "town_kana": "フツカイチチュウオウ",
    "street": null,
    "office_name": null,
    "office_name_kana": null
  },
  "0073": {
    "postcode": "8180073",
    "prefecture": "福岡県",
    "prefecture_kana": "フクオカケン",
    "prefecture_code": 40,
    "city": "筑紫野市",
    "city_kana": "チクシノシ",
    "town": "塔原西",
    "town_kana": "トウノハルニシ",
    "street": null,
    "office_name": null,
    "office_name_kana": null
  },
  "0074": {
    "postcode": "8180074",
    "prefecture": "福岡県",
    "prefecture_kana": "フクオカケン",
    "prefecture_code": 40,
    "city": "筑紫野市",
    "city_kana": "チクシノシ",
    "town": "塔原南",
    "town_kana": "トウノハルミナミ",
    "street": null,
    "office_name": null,
    "office_name_kana": null
  },
  "0081": {
    "postcode": "8180081",
    "prefecture": "福岡県",
    "prefecture_kana": "フクオカケン",
    "prefecture_code": 40,
    "city": "筑紫野市",
    "city_kana": "チクシノシ",
    "town": "針摺東",
    "town_kana": "ハリスリヒガシ",
    "street": null,
    "office_name": null,
    "office_name_kana": null
  },
  "0082": {
    "postcode": "8180082",
    "prefecture": "福岡県",
    "prefecture_kana": "フクオカケン",
    "prefecture_code": 40,
    "city": "筑紫野市",
    "city_kana": "チクシノシ",
    "town": "針摺南",
    "town_kana": "ハリスリミナミ",
    "street": null,
    "office_name": null,
    "office_name_kana": null
  },
  "0083": {
    "postcode": "8180083",
    "prefecture": "福岡県",
    "prefecture_kana": "フクオカケン",
    "prefecture_code": 40,
    "city": "筑紫野市",
    "city_kana": "チクシノシ",
    "town": "針摺中央",
    "town_kana": "ハリスリチュウオウ",
    "street": null,
    "office_name": null,
    "office_name_kana": null
  },
  "0084": {
    "postcode": "8180084",
    "prefecture": "福岡県",
    "prefecture_kana": "フクオカケン",
    "prefecture_code": 40,
    "city": "筑紫野市",
    "city_kana": "チクシノシ",
    "town": "針摺西",
    "town_kana": "ハリスリニシ",
    "street": null,
    "office_name": null,
    "office_name_kana": null
  },
  "0085": {
    "postcode": "8180085",
    "prefecture": "福岡県",
    "prefecture_kana": "フクオカケン",
    "prefecture_code": 40,
    "city": "筑紫野市",
    "city_kana": "チクシノシ",
    "town": "針摺北",
    "town_kana": "ハリスリキタ",
    "street": null,
    "office_name": null,
    "office_name_kana": null
  },
  "0100": {
    "postcode": "8180100",
    "prefecture": "福岡県",
    "prefecture_kana": "フクオカケン",
    "prefecture_code": 40,
    "city": "太宰府市",
    "city_kana": "ダザイフシ",
    "town": "",
    "town_kana": "",
    "street": null,
    "office_name": null,
    "office_name_kana": null
  },
  "0101": {
    "postcode": "8180101",
    "prefecture": "福岡県",
    "prefecture_kana": "フクオカケン",
    "prefecture_code": 40,
    "city": "太宰府市",
    "city_kana": "ダザイフシ",
    "town": "観世音寺",
    "town_kana": "カンゼオンジ",
    "street": null,
    "office_name": null,
    "office_name_kana": null
  },
  "0102": {
    "postcode": "8180102",
    "prefecture": "福岡県",
    "prefecture_kana": "フクオカケン",
    "prefecture_code": 40,
    "city": "太宰府市",
    "city_kana": "ダザイフシ",
    "town": "白川",
    "town_kana": "シラカワ",
    "street": null,
    "office_name": null,
    "office_name_kana": null
  },
  "0103": {
    "postcode": "8180103",
    "prefecture": "福岡県",
    "prefecture_kana": "フクオカケン",
    "prefecture_code": 40,
    "city": "太宰府市",
    "city_kana": "ダザイフシ",
    "town": "朱雀",
    "town_kana": "スザク",
    "street": null,
    "office_name": null,
    "office_name_kana": null
  },
  "0104": {
    "postcode": "8180104",
    "prefecture": "福岡県",
    "prefecture_kana": "フクオカケン",
    "prefecture_code": 40,
    "city": "太宰府市",
    "city_kana": "ダザイフシ",
    "town": "通古賀",
    "town_kana": "トオノコガ",
    "street": null,
    "office_name": null,
    "office_name_kana": null
  },
  "0105": {
    "postcode": "8180105",
    "prefecture": "福岡県",
    "prefecture_kana": "フクオカケン",
    "prefecture_code": 40,
    "city": "太宰府市",
    "city_kana": "ダザイフシ",
    "town": "都府楼南",
    "town_kana": "トフロウミナミ",
    "street": null,
    "office_name": null,
    "office_name_kana": null
  },
  "0110": {
    "postcode": "8180110",
    "prefecture": "福岡県",
    "prefecture_kana": "フクオカケン",
    "prefecture_code": 40,
    "city": "太宰府市",
    "city_kana": "ダザイフシ",
    "town": "御笠",
    "town_kana": "ミカサ",
    "street": null,
    "office_name": null,
    "office_name_kana": null
  },
  "0111": {
    "postcode": "8180111",
    "prefecture": "福岡県",
    "prefecture_kana": "フクオカケン",
    "prefecture_code": 40,
    "city": "太宰府市",
    "city_kana": "ダザイフシ",
    "town": "三条",
    "town_kana": "サンジョウ",
    "street": null,
    "office_name": null,
    "office_name_kana": null
  },
  "0114": {
    "postcode": "8180114",
    "prefecture": "福岡県",
    "prefecture_kana": "フクオカケン",
    "prefecture_code": 40,
    "city": "太宰府市",
    "city_kana": "ダザイフシ",
    "town": "北谷",
    "town_kana": "キタダニ",
    "street": null,
    "office_name": null,
    "office_name_kana": null
  },
  "0115": {
    "postcode": "8180115",
    "prefecture": "福岡県",
    "prefecture_kana": "フクオカケン",
    "prefecture_code": 40,
    "city": "太宰府市",
    "city_kana": "ダザイフシ",
    "town": "内山",
    "town_kana": "ウチヤマ",
    "street": null,
    "office_name": null,
    "office_name_kana": null
  },
  "0117": {
    "postcode": "8180117",
    "prefecture": "福岡県",
    "prefecture_kana": "フクオカケン",
    "prefecture_code": 40,
    "city": "太宰府市",
    "city_kana": "ダザイフシ",
    "town": "宰府",
    "town_kana": "サイフ",
    "street": null,
    "office_name": null,
    "office_name_kana": null
  },
  "0118": {
    "postcode": "8180118",
    "prefecture": "福岡県",
    "prefecture_kana": "フクオカケン",
    "prefecture_code": 40,
    "city": "太宰府市",
    "city_kana": "ダザイフシ",
    "town": "石坂",
    "town_kana": "イシザカ",
    "street": null,
    "office_name": null,
    "office_name_kana": null
  },
  "0119": {
    "postcode": "8180119",
    "prefecture": "福岡県",
    "prefecture_kana": "フクオカケン",
    "prefecture_code": 40,
    "city": "太宰府市",
    "city_kana": "ダザイフシ",
    "town": "連歌屋",
    "town_kana": "レンガヤ",
    "street": null,
    "office_name": null,
    "office_name_kana": null
  },
  "0121": {
    "postcode": "8180121",
    "prefecture": "福岡県",
    "prefecture_kana": "フクオカケン",
    "prefecture_code": 40,
    "city": "太宰府市",
    "city_kana": "ダザイフシ",
    "town": "青山",
    "town_kana": "アオヤマ",
    "street": null,
    "office_name": null,
    "office_name_kana": null
  },
  "0122": {
    "postcode": "8180122",
    "prefecture": "福岡県",
    "prefecture_kana": "フクオカケン",
    "prefecture_code": 40,
    "city": "太宰府市",
    "city_kana": "ダザイフシ",
    "town": "高雄",
    "town_kana": "タカオ",
    "street": null,
    "office_name": null,
    "office_name_kana": null
  },
  "0123": {
    "postcode": "8180123",
    "prefecture": "福岡県",
    "prefecture_kana": "フクオカケン",
    "prefecture_code": 40,
    "city": "太宰府市",
    "city_kana": "ダザイフシ",
    "town": "梅ケ丘",
    "town_kana": "ウメガオカ",
    "street": null,
    "office_name": null,
    "office_name_kana": null
  },
  "0124": {
    "postcode": "8180124",
    "prefecture": "福岡県",
    "prefecture_kana": "フクオカケン",
    "prefecture_code": 40,
    "city": "太宰府市",
    "city_kana": "ダザイフシ",
    "town": "梅香苑",
    "town_kana": "バイコウエン",
    "street": null,
    "office_name": null,
    "office_name_kana": null
  },
  "0125": {
    "postcode": "8180125",
    "prefecture": "福岡県",
    "prefecture_kana": "フクオカケン",
    "prefecture_code": 40,
    "city": "太宰府市",
    "city_kana": "ダザイフシ",
    "town": "五条",
    "town_kana": "ゴジョウ",
    "street": null,
    "office_name": null,
    "office_name_kana": null
  },
  "0131": {
    "postcode": "8180131",
    "prefecture": "福岡県",
    "prefecture_kana": "フクオカケン",
    "prefecture_code": 40,
    "city": "太宰府市",
    "city_kana": "ダザイフシ",
    "town": "水城",
    "town_kana": "ミズキ",
    "street": null,
    "office_name": null,
    "office_name_kana": null
  },
  "0132": {
    "postcode": "8180132",
    "prefecture": "福岡県",
    "prefecture_kana": "フクオカケン",
    "prefecture_code": 40,
    "city": "太宰府市",
    "city_kana": "ダザイフシ",
    "town": "国分",
    "town_kana": "コクブ",
    "street": null,
    "office_name": null,
    "office_name_kana": null
  },
  "0133": {
    "postcode": "8180133",
    "prefecture": "福岡県",
    "prefecture_kana": "フクオカケン",
    "prefecture_code": 40,
    "city": "太宰府市",
    "city_kana": "ダザイフシ",
    "town": "坂本",
    "town_kana": "サカモト",
    "street": null,
    "office_name": null,
    "office_name_kana": null
  },
  "0134": {
    "postcode": "8180134",
    "prefecture": "福岡県",
    "prefecture_kana": "フクオカケン",
    "prefecture_code": 40,
    "city": "太宰府市",
    "city_kana": "ダザイフシ",
    "town": "大佐野",
    "town_kana": "オオザノ",
    "street": null,
    "office_name": null,
    "office_name_kana": null
  },
  "0135": {
    "postcode": "8180135",
    "prefecture": "福岡県",
    "prefecture_kana": "フクオカケン",
    "prefecture_code": 40,
    "city": "太宰府市",
    "city_kana": "ダザイフシ",
    "town": "向佐野",
    "town_kana": "ムカイザノ",
    "street": null,
    "office_name": null,
    "office_name_kana": null
  },
  "0136": {
    "postcode": "8180136",
    "prefecture": "福岡県",
    "prefecture_kana": "フクオカケン",
    "prefecture_code": 40,
    "city": "太宰府市",
    "city_kana": "ダザイフシ",
    "town": "長浦台",
    "town_kana": "ナガウラダイ",
    "street": null,
    "office_name": null,
    "office_name_kana": null
  },
  "0137": {
    "postcode": "8180137",
    "prefecture": "福岡県",
    "prefecture_kana": "フクオカケン",
    "prefecture_code": 40,
    "city": "太宰府市",
    "city_kana": "ダザイフシ",
    "town": "青葉台",
    "town_kana": "アオバダイ",
    "street": null,
    "office_name": null,
    "office_name_kana": null
  },
  "0138": {
    "postcode": "8180138",
    "prefecture": "福岡県",
    "prefecture_kana": "フクオカケン",
    "prefecture_code": 40,
    "city": "太宰府市",
    "city_kana": "ダザイフシ",
    "town": "吉松",
    "town_kana": "ヨシマツ",
    "street": null,
    "office_name": null,
    "office_name_kana": null
  },
  "0139": {
    "postcode": "8180139",
    "prefecture": "福岡県",
    "prefecture_kana": "フクオカケン",
    "prefecture_code": 40,
    "city": "太宰府市",
    "city_kana": "ダザイフシ",
    "town": "宰都",
    "town_kana": "サイト",
    "street": null,
    "office_name": null,
    "office_name_kana": null
  },
  "0192": {
    "postcode": "8180192",
    "prefecture": "福岡県",
    "prefecture_kana": "フクオカケン",
    "prefecture_code": 40,
    "city": "太宰府市",
    "city_kana": "ダザイフシ",
    "town": "石坂",
    "town_kana": "イシザカ",
    "street": "２丁目１２−１",
    "office_name": "筑紫女学園大学　筑紫女学園短期大学",
    "office_name_kana": "チクシジヨガクエンダイガク チクシジヨガクエンタンキダイガク"
  },
  "0193": {
    "postcode": "8180193",
    "prefecture": "福岡県",
    "prefecture_kana": "フクオカケン",
    "prefecture_code": 40,
    "city": "太宰府市",
    "city_kana": "ダザイフシ",
    "town": "五条",
    "town_kana": "ゴジョウ",
    "street": "４丁目１６−１",
    "office_name": "学校法人　九州学園　福岡女子短期大学",
    "office_name_kana": "ガツコウホウジン キユウシユウガクエン フクオカジヨシタンキダイガク"
  },
  "0194": {
    "postcode": "8180194",
    "prefecture": "福岡県",
    "prefecture_kana": "フクオカケン",
    "prefecture_code": 40,
    "city": "太宰府市",
    "city_kana": "ダザイフシ",
    "town": "五条",
    "town_kana": "ゴジョウ",
    "street": "３丁目１０−１０",
    "office_name": "第一福祉大学",
    "office_name_kana": "ダイイチフクシダイガク"
  },
  "0195": {
    "postcode": "8180195",
    "prefecture": "福岡県",
    "prefecture_kana": "フクオカケン",
    "prefecture_code": 40,
    "city": "太宰府市",
    "city_kana": "ダザイフシ",
    "town": "宰府",
    "town_kana": "サイフ",
    "street": "４丁目７−１（太宰府郵便局私書箱第１号）",
    "office_name": "太宰府天満宮",
    "office_name_kana": "ダザイフテンマングウ"
  },
  "0197": {
    "postcode": "8180197",
    "prefecture": "福岡県",
    "prefecture_kana": "フクオカケン",
    "prefecture_code": 40,
    "city": "太宰府市",
    "city_kana": "ダザイフシ",
    "town": "五条",
    "town_kana": "ゴジョウ",
    "street": "３丁目１１−２５（筑紫野郵便局私書箱第１７号）",
    "office_name": "日本経済大学・福岡こども短期大学",
    "office_name_kana": "ニホンケイザイダイガク・フクオカコドモタンキダイガク"
  },
  "0198": {
    "postcode": "8180198",
    "prefecture": "福岡県",
    "prefecture_kana": "フクオカケン",
    "prefecture_code": 40,
    "city": "太宰府市",
    "city_kana": "ダザイフシ",
    "town": "観世音寺",
    "town_kana": "カンゼオンジ",
    "street": "１丁目１−１（太宰府郵便局私書箱第３号）",
    "office_name": "太宰府市役所",
    "office_name_kana": "ダザイフシヤクシヨ"
  },
  "8501": {
    "postcode": "8188501",
    "prefecture": "福岡県",
    "prefecture_kana": "フクオカケン",
    "prefecture_code": 40,
    "city": "筑紫野市",
    "city_kana": "チクシノシ",
    "town": "上古賀",
    "town_kana": "カミコガ",
    "street": "２丁目１−１",
    "office_name": "日本たばこ産業　株式会社　九州工場",
    "office_name_kana": "ニホンタバコサンギヨウ カブシキガイシヤ キユウシユウコウジヨウ"
  },
  "8502": {
    "postcode": "8188502",
    "prefecture": "福岡県",
    "prefecture_kana": "フクオカケン",
    "prefecture_code": 40,
    "city": "筑紫野市",
    "city_kana": "チクシノシ",
    "town": "俗明院",
    "town_kana": "ゾクミョウイン",
    "street": "１丁目１−１",
    "office_name": "福岡大学　筑紫病院",
    "office_name_kana": "フクオカダイガク チクシビヨウイン"
  },
  "8503": {
    "postcode": "8188503",
    "prefecture": "福岡県",
    "prefecture_kana": "フクオカケン",
    "prefecture_code": 40,
    "city": "筑紫野市",
    "city_kana": "チクシノシ",
    "town": "二日市西",
    "town_kana": "フツカイチニシ",
    "street": "１丁目６−５",
    "office_name": "九州電力　株式会社　二日市営業所",
    "office_name_kana": "キユウシユウデンリヨク カブシキガイシヤ フツカイチエイギヨウシヨ"
  },
  "8516": {
    "postcode": "8188516",
    "prefecture": "福岡県",
    "prefecture_kana": "フクオカケン",
    "prefecture_code": 40,
    "city": "筑紫野市",
    "city_kana": "チクシノシ",
    "town": "湯町",
    "town_kana": "ユマチ",
    "street": "３丁目１３−１",
    "office_name": "福岡県済生会　二日市病院",
    "office_name_kana": "フクオカケンサイセイカイ フツカイチビヨウイン"
  },
  "8540": {
    "postcode": "8188540",
    "prefecture": "福岡県",
    "prefecture_kana": "フクオカケン",
    "prefecture_code": 40,
    "city": "筑紫野市",
    "city_kana": "チクシノシ",
    "town": "上古賀",
    "town_kana": "カミコガ",
    "street": "３丁目２−１",
    "office_name": "福岡県　工業技術センター",
    "office_name_kana": "フクオカケン コウギヨウギジユツセンタ-"
  },
  "8549": {
    "postcode": "8188549",
    "prefecture": "福岡県",
    "prefecture_kana": "フクオカケン",
    "prefecture_code": 40,
    "city": "筑紫野市",
    "city_kana": "チクシノシ",
    "town": "大字吉木",
    "town_kana": null,
    "street": "５８７",
    "office_name": "福岡県　農林業総合試験場",
    "office_name_kana": "フクオカケン ノウリンギヨウソウゴウシケンジヨウ"
  },
  "8555": {
    "postcode": "8188555",
    "prefecture": "福岡県",
    "prefecture_kana": "フクオカケン",
    "prefecture_code": 40,
    "city": "筑紫野市",
    "city_kana": "チクシノシ",
    "town": "大字牛島",
    "town_kana": null,
    "street": "４７２−３",
    "office_name": "国際経営　株式会社",
    "office_name_kana": "コクサイケイエイ カブシキガイシヤ"
  },
  "8567": {
    "postcode": "8188567",
    "prefecture": "福岡県",
    "prefecture_kana": "フクオカケン",
    "prefecture_code": 40,
    "city": "筑紫野市",
    "city_kana": "チクシノシ",
    "town": "二日市中央",
    "town_kana": "フツカイチチュウオウ",
    "street": "５丁目１４−７",
    "office_name": "福岡法務局　筑紫支局",
    "office_name_kana": "フクオカホウムキヨク チクシシキヨク"
  },
  "8571": {
    "postcode": "8188571",
    "prefecture": "福岡県",
    "prefecture_kana": "フクオカケン",
    "prefecture_code": 40,
    "city": "筑紫野市",
    "city_kana": "チクシノシ",
    "town": "針摺東",
    "town_kana": "ハリスリヒガシ",
    "street": "３丁目３−１",
    "office_name": "株式会社　イズミ　ゆめタウン筑紫野",
    "office_name_kana": "カブシキガイシヤ イズミ ユメタウンチクシノ"
  },
  "8577": {
    "postcode": "8188577",
    "prefecture": "福岡県",
    "prefecture_kana": "フクオカケン",
    "prefecture_code": 40,
    "city": "筑紫野市",
    "city_kana": "チクシノシ",
    "town": "湯町",
    "town_kana": "ユマチ",
    "street": "３丁目２−５",
    "office_name": "筑紫野市商工会",
    "office_name_kana": "チクシノシシヨウコウカイ"
  },
  "8578": {
    "postcode": "8188578",
    "prefecture": "福岡県",
    "prefecture_kana": "フクオカケン",
    "prefecture_code": 40,
    "city": "筑紫野市",
    "city_kana": "チクシノシ",
    "town": "大字諸田",
    "town_kana": null,
    "street": "３２６−１",
    "office_name": "株式会社　ダイエー福岡プロセスセンター",
    "office_name_kana": "カブシキガイシヤ ダイエ-フクオカプロセスセンタ-"
  },
  "8585": {
    "postcode": "8188585",
    "prefecture": "福岡県",
    "prefecture_kana": "フクオカケン",
    "prefecture_code": 40,
    "city": "筑紫野市",
    "city_kana": "チクシノシ",
    "town": "紫",
    "town_kana": "ムラサキ",
    "street": "２丁目５−１",
    "office_name": "九州産業大学付属　九州産業高等学校",
    "office_name_kana": "キユウシユウサンギヨウダイガクフゾク キユウシユウサンギヨウコウトウガツコウ"
  },
  "8588": {
    "postcode": "8188588",
    "prefecture": "福岡県",
    "prefecture_kana": "フクオカケン",
    "prefecture_code": 40,
    "city": "筑紫野市",
    "city_kana": "チクシノシ",
    "town": "上古賀",
    "town_kana": "カミコガ",
    "street": "１丁目２−１",
    "office_name": "福岡県　赤十字血液センター",
    "office_name_kana": "フクオカケン セキジユウジケツエキセンタ-"
  },
  "8642": {
    "postcode": "8188642",
    "prefecture": "福岡県",
    "prefecture_kana": "フクオカケン",
    "prefecture_code": 40,
    "city": "筑紫野市",
    "city_kana": "チクシノシ",
    "town": "杉塚",
    "town_kana": "スギヅカ",
    "street": "３丁目３−１０（筑紫野郵便局私書箱第１４号）",
    "office_name": "筑紫農業協同組合　本店",
    "office_name_kana": "チクシノウギヨウキヨウドウクミアイ ホンテン"
  },
  "8666": {
    "postcode": "8188666",
    "prefecture": "福岡県",
    "prefecture_kana": "フクオカケン",
    "prefecture_code": 40,
    "city": "筑紫野市",
    "city_kana": "チクシノシ",
    "town": "針摺西",
    "town_kana": "ハリスリニシ",
    "street": "１丁目１−８",
    "office_name": "筑紫税務署",
    "office_name_kana": "チクシゼイムシヨ"
  },
  "8668": {
    "postcode": "8188668",
    "prefecture": "福岡県",
    "prefecture_kana": "フクオカケン",
    "prefecture_code": 40,
    "city": "筑紫野市",
    "city_kana": "チクシノシ",
    "town": "針摺東",
    "town_kana": "ハリスリヒガシ",
    "street": "５丁目３−１",
    "office_name": "株式会社　薬師堂",
    "office_name_kana": "カブシキガイシヤ ヤクシドウ"
  },
  "8686": {
    "postcode": "8188686",
    "prefecture": "福岡県",
    "prefecture_kana": "フクオカケン",
    "prefecture_code": 40,
    "city": "筑紫野市",
    "city_kana": "チクシノシ",
    "town": "石崎",
    "town_kana": "イシザキ",
    "street": "一丁目１番１号",
    "office_name": "筑紫野市役所",
    "office_name_kana": "チクシノシヤクシヨ"
  }
}