{
  "0001": {
    "postcode": "8300001",
    "prefecture": "福岡県",
    "prefecture_kana": "フクオカケン",
    "prefecture_code": 40,
    "city": "久留米市",
    "city_kana": "クルメシ",
    "town": "小森野",
    "town_kana": "コモリノ",
    "street": null,
    "office_name": null,
    "office_name_kana": null
  },
  "0002": {
    "postcode": "8300002",
    "prefecture": "福岡県",
    "prefecture_kana": "フクオカケン",
    "prefecture_code": 40,
    "city": "久留米市",
    "city_kana": "クルメシ",
    "town": "高野",
    "town_kana": "タカノ",
    "street": null,
    "office_name": null,
    "office_name_kana": null
  },
  "0003": {
    "postcode": "8300003",
    "prefecture": "福岡県",
    "prefecture_kana": "フクオカケン",
    "prefecture_code": 40,
    "city": "久留米市",
    "city_kana": "クルメシ",
    "town": "東櫛原町",
    "town_kana": "ヒガシクシハラマチ",
    "street": null,
    "office_name": null,
    "office_name_kana": null
  },
  "0004": {
    "postcode": "8300004",
    "prefecture": "福岡県",
    "prefecture_kana": "フクオカケン",
    "prefecture_code": 40,
    "city": "久留米市",
    "city_kana": "クルメシ",
    "town": "南薫町",
    "town_kana": "ナンクンマチ",
    "street": null,
    "office_name": null,
    "office_name_kana": null
  },
  "0005": {
    "postcode": "8300005",
    "prefecture": "福岡県",
    "prefecture_kana": "フクオカケン",
    "prefecture_code": 40,
    "city": "久留米市",
    "city_kana": "クルメシ",
    "town": "通外町",
    "town_kana": "トオリホカマチ",
    "street": null,
    "office_name": null,
    "office_name_kana": null
  },
  "0006": {
    "postcode": "8300006",
    "prefecture": "福岡県",
    "prefecture_kana": "フクオカケン",
    "prefecture_code": 40,
    "city": "久留米市",
    "city_kana": "クルメシ",
    "town": "南薫西町",
    "town_kana": "ナンクンニシマチ",
    "street": null,
    "office_name": null,
    "office_name_kana": null
  },
  "0011": {
    "postcode": "8300011",
    "prefecture": "福岡県",
    "prefecture_kana": "フクオカケン",
    "prefecture_code": 40,
    "city": "久留米市",
    "city_kana": "クルメシ",
    "town": "旭町",
    "town_kana": "アサヒマチ",
    "street": null,
    "office_name": null,
    "office_name_kana": null
  },
  "0012": {
    "postcode": "8300012",
    "prefecture": "福岡県",
    "prefecture_kana": "フクオカケン",
    "prefecture_code": 40,
    "city": "久留米市",
    "city_kana": "クルメシ",
    "town": "日ノ出町",
    "town_kana": "ヒノデマチ",
    "street": null,
    "office_name": null,
    "office_name_kana": null
  },
  "0013": {
    "postcode": "8300013",
    "prefecture": "福岡県",
    "prefecture_kana": "フクオカケン",
    "prefecture_code": 40,
    "city": "久留米市",
    "city_kana": "クルメシ",
    "town": "櫛原町",
    "town_kana": "クシハラマチ",
    "street": null,
    "office_name": null,
    "office_name_kana": null
  },
  "0014": {
    "postcode": "8300014",
    "prefecture": "福岡県",
    "prefecture_kana": "フクオカケン",
    "prefecture_code": 40,
    "city": "久留米市",
    "city_kana": "クルメシ",
    "town": "寺町",
    "town_kana": "テラマチ",
    "street": null,
    "office_name": null,
    "office_name_kana": null
  },
  "0015": {
    "postcode": "8300015",
    "prefecture": "福岡県",
    "prefecture_kana": "フクオカケン",
    "prefecture_code": 40,
    "city": "久留米市",
    "city_kana": "クルメシ",
    "town": "螢川町",
    "town_kana": "ホタルガワマチ",
    "street": null,
    "office_name": null,
    "office_name_kana": null
  },
  "0016": {
    "postcode": "8300016",
    "prefecture": "福岡県",
    "prefecture_kana": "フクオカケン",
    "prefecture_code": 40,
    "city": "久留米市",
    "city_kana": "クルメシ",
    "town": "通東町",
    "town_kana": "トオリヒガシマチ",
    "street": null,
    "office_name": null,
    "office_name_kana": null
  },
  "0017": {
    "postcode": "8300017",
    "prefecture": "福岡県",
    "prefecture_kana": "フクオカケン",
    "prefecture_code": 40,
    "city": "久留米市",
    "city_kana": "クルメシ",
    "town": "日吉町",
    "town_kana": "ヒヨシマチ",
    "street": null,
    "office_name": null,
    "office_name_kana": null
  },
  "0018": {
    "postcode": "8300018",
    "prefecture": "福岡県",
    "prefecture_kana": "フクオカケン",
    "prefecture_code": 40,
    "city": "久留米市",
    "city_kana": "クルメシ",
    "town": "通町",
    "town_kana": "トオリマチ",
    "street": null,
    "office_name": null,
    "office_name_kana": null
  },
  "0019": {
    "postcode": "8300019",
    "prefecture": "福岡県",
    "prefecture_kana": "フクオカケン",
    "prefecture_code": 40,
    "city": "久留米市",
    "city_kana": "クルメシ",
    "town": "小森野町",
    "town_kana": "コモリノマチ",
    "street": null,
    "office_name": null,
    "office_name_kana": null
  },
  "0021": {
    "postcode": "8300021",
    "prefecture": "福岡県",
    "prefecture_kana": "フクオカケン",
    "prefecture_code": 40,
    "city": "久留米市",
    "city_kana": "クルメシ",
    "town": "篠山町",
    "town_kana": "ササヤママチ",
    "street": null,
    "office_name": null,
    "office_name_kana": null
  },
  "0022": {
    "postcode": "8300022",
    "prefecture": "福岡県",
    "prefecture_kana": "フクオカケン",
    "prefecture_code": 40,
    "city": "久留米市",
    "city_kana": "クルメシ",
    "town": "城南町",
    "town_kana": "ジョウナンマチ",
    "street": null,
    "office_name": null,
    "office_name_kana": null
  },
  "0023": {
    "postcode": "8300023",
    "prefecture": "福岡県",
    "prefecture_kana": "フクオカケン",
    "prefecture_code": 40,
    "city": "久留米市",
    "city_kana": "クルメシ",
    "town": "中央町",
    "town_kana": "チュウオウマチ",
    "street": null,
    "office_name": null,
    "office_name_kana": null
  },
  "0024": {
    "postcode": "8300024",
    "prefecture": "福岡県",
    "prefecture_kana": "フクオカケン",
    "prefecture_code": 40,
    "city": "久留米市",
    "city_kana": "クルメシ",
    "town": "縄手町",
    "town_kana": "ナワテマチ",
    "street": null,
    "office_name": null,
    "office_name_kana": null
  },
  "0025": {
    "postcode": "8300025",
    "prefecture": "福岡県",
    "prefecture_kana": "フクオカケン",
    "prefecture_code": 40,
    "city": "久留米市",
    "city_kana": "クルメシ",
    "town": "瀬下町",
    "town_kana": "セノシタマチ",
    "street": null,
    "office_name": null,
    "office_name_kana": null
  },
  "0026": {
    "postcode": "8300026",
    "prefecture": "福岡県",
    "prefecture_kana": "フクオカケン",
    "prefecture_code": 40,
    "city": "久留米市",
    "city_kana": "クルメシ",
    "town": "長門石町",
    "town_kana": "ナガトイシマチ",
    "street": null,
    "office_name": null,
    "office_name_kana": null
  },
  "0027": {
    "postcode": "8300027",
    "prefecture": "福岡県",
    "prefecture_kana": "フクオカケン",
    "prefecture_code": 40,
    "city": "久留米市",
    "city_kana": "クルメシ",
    "town": "長門石",
    "town_kana": "ナガトイシ",
    "street": null,
    "office_name": null,
    "office_name_kana": null
  },
  "0028": {
    "postcode": "8300028",
    "prefecture": "福岡県",
    "prefecture_kana": "フクオカケン",
    "prefecture_code": 40,
    "city": "久留米市",
    "city_kana": "クルメシ",
    "town": "京町",
    "town_kana": "キョウマチ",
    "street": null,
    "office_name": null,
    "office_name_kana": null
  },
  "0029": {
    "postcode": "8300029",
    "prefecture": "福岡県",
    "prefecture_kana": "フクオカケン",
    "prefecture_code": 40,
    "city": "久留米市",
    "city_kana": "クルメシ",
    "town": "洗町",
    "town_kana": "アライマチ",
    "street": null,
    "office_name": null,
    "office_name_kana": null
  },
  "0031": {
    "postcode": "8300031",
    "prefecture": "福岡県",
    "prefecture_kana": "フクオカケン",
    "prefecture_code": 40,
    "city": "久留米市",
    "city_kana": "クルメシ",
    "town": "六ツ門町",
    "town_kana": "ムツモンマチ",
    "street": null,
    "office_name": null,
    "office_name_kana": null
  },
  "0032": {
    "postcode": "8300032",
    "prefecture": "福岡県",
    "prefecture_kana": "フクオカケン",
    "prefecture_code": 40,
    "city": "久留米市",
    "city_kana": "クルメシ",
    "town": "東町",
    "town_kana": "ヒガシマチ",
    "street": null,
    "office_name": null,
    "office_name_kana": null
  },
  "0033": {
    "postcode": "8300033",
    "prefecture": "福岡県",
    "prefecture_kana": "フクオカケン",
    "prefecture_code": 40,
    "city": "久留米市",
    "city_kana": "クルメシ",
    "town": "天神町",
    "town_kana": "テンジンマチ",
    "street": null,
    "office_name": null,
    "office_name_kana": null
  },
  "0034": {
    "postcode": "8300034",
    "prefecture": "福岡県",
    "prefecture_kana": "フクオカケン",
    "prefecture_code": 40,
    "city": "久留米市",
    "city_kana": "クルメシ",
    "town": "大手町",
    "town_kana": "オオテマチ",
    "street": null,
    "office_name": null,
    "office_name_kana": null
  },
  "0035": {
    "postcode": "8300035",
    "prefecture": "福岡県",
    "prefecture_kana": "フクオカケン",
    "prefecture_code": 40,
    "city": "久留米市",
    "city_kana": "クルメシ",
    "town": "東和町",
    "town_kana": "トウワマチ",
    "street": null,
    "office_name": null,
    "office_name_kana": null
  },
  "0036": {
    "postcode": "8300036",
    "prefecture": "福岡県",
    "prefecture_kana": "フクオカケン",
    "prefecture_code": 40,
    "city": "久留米市",
    "city_kana": "クルメシ",
    "town": "篠原町",
    "town_kana": "シノハラマチ",
    "street": null,
    "office_name": null,
    "office_name_kana": null
  },
  "0037": {
    "postcode": "8300037",
    "prefecture": "福岡県",
    "prefecture_kana": "フクオカケン",
    "prefecture_code": 40,
    "city": "久留米市",
    "city_kana": "クルメシ",
    "town": "諏訪野町",
    "town_kana": "スワノマチ",
    "street": null,
    "office_name": null,
    "office_name_kana": null
  },
  "0038": {
    "postcode": "8300038",
    "prefecture": "福岡県",
    "prefecture_kana": "フクオカケン",
    "prefecture_code": 40,
    "city": "久留米市",
    "city_kana": "クルメシ",
    "town": "西町",
    "town_kana": "ニシマチ",
    "street": null,
    "office_name": null,
    "office_name_kana": null
  },
  "0039": {
    "postcode": "8300039",
    "prefecture": "福岡県",
    "prefecture_kana": "フクオカケン",
    "prefecture_code": 40,
    "city": "久留米市",
    "city_kana": "クルメシ",
    "town": "花畑",
    "town_kana": "ハナバタケ",
    "street": null,
    "office_name": null,
    "office_name_kana": null
  },
  "0041": {
    "postcode": "8300041",
    "prefecture": "福岡県",
    "prefecture_kana": "フクオカケン",
    "prefecture_code": 40,
    "city": "久留米市",
    "city_kana": "クルメシ",
    "town": "白山町",
    "town_kana": "シラヤママチ",
    "street": null,
    "office_name": null,
    "office_name_kana": null
  },
  "0042": {
    "postcode": "8300042",
    "prefecture": "福岡県",
    "prefecture_kana": "フクオカケン",
    "prefecture_code": 40,
    "city": "久留米市",
    "city_kana": "クルメシ",
    "town": "荘島町",
    "town_kana": "ショウジママチ",
    "street": null,
    "office_name": null,
    "office_name_kana": null
  },
  "0043": {
    "postcode": "8300043",
    "prefecture": "福岡県",
    "prefecture_kana": "フクオカケン",
    "prefecture_code": 40,
    "city": "久留米市",
    "city_kana": "クルメシ",
    "town": "松ケ枝町",
    "town_kana": "マツガエマチ",
    "street": null,
    "office_name": null,
    "office_name_kana": null
  },
  "0044": {
    "postcode": "8300044",
    "prefecture": "福岡県",
    "prefecture_kana": "フクオカケン",
    "prefecture_code": 40,
    "city": "久留米市",
    "city_kana": "クルメシ",
    "town": "本町",
    "town_kana": "ホンマチ",
    "street": null,
    "office_name": null,
    "office_name_kana": null
  },
  "0045": {
    "postcode": "8300045",
    "prefecture": "福岡県",
    "prefecture_kana": "フクオカケン",
    "prefecture_code": 40,
    "city": "久留米市",
    "city_kana": "クルメシ",
    "town": "小頭町",
    "town_kana": "コガシラマチ",
    "street": null,
    "office_name": null,
    "office_name_kana": null
  },
  "0046": {
    "postcode": "8300046",
    "prefecture": "福岡県",
    "prefecture_kana": "フクオカケン",
    "prefecture_code": 40,
    "city": "久留米市",
    "city_kana": "クルメシ",
    "town": "原古賀町",
    "town_kana": "ハランコガマチ",
    "street": null,
    "office_name": null,
    "office_name_kana": null
  },
  "0047": {
    "postcode": "8300047",
    "prefecture": "福岡県",
    "prefecture_kana": "フクオカケン",
    "prefecture_code": 40,
    "city": "久留米市",
    "city_kana": "クルメシ",
    "town": "津福本町",
    "town_kana": "ツブクホンマチ",
    "street": null,
    "office_name": null,
    "office_name_kana": null
  },
  "0048": {
    "postcode": "8300048",
    "prefecture": "福岡県",
    "prefecture_kana": "フクオカケン",
    "prefecture_code": 40,
    "city": "久留米市",
    "city_kana": "クルメシ",
    "town": "梅満町",
    "town_kana": "ウメミツマチ",
    "street": null,
    "office_name": null,
    "office_name_kana": null
  },
  "0049": {
    "postcode": "8300049",
    "prefecture": "福岡県",
    "prefecture_kana": "フクオカケン",
    "prefecture_code": 40,
    "city": "久留米市",
    "city_kana": "クルメシ",
    "town": "大石町",
    "town_kana": "オオイシマチ",
    "street": null,
    "office_name": null,
    "office_name_kana": null
  },
  "0051": {
    "postcode": "8300051",
    "prefecture": "福岡県",
    "prefecture_kana": "フクオカケン",
    "prefecture_code": 40,
    "city": "久留米市",
    "city_kana": "クルメシ",
    "town": "南",
    "town_kana": "ミナミ",
    "street": null,
    "office_name": null,
    "office_name_kana": null
  },
  "0052": {
    "postcode": "8300052",
    "prefecture": "福岡県",
    "prefecture_kana": "フクオカケン",
    "prefecture_code": 40,
    "city": "久留米市",
    "city_kana": "クルメシ",
    "town": "上津町",
    "town_kana": "カミツマチ",
    "street": null,
    "office_name": null,
    "office_name_kana": null
  },
  "0053": {
    "postcode": "8300053",
    "prefecture": "福岡県",
    "prefecture_kana": "フクオカケン",
    "prefecture_code": 40,
    "city": "久留米市",
    "city_kana": "クルメシ",
    "town": "藤山町",
    "town_kana": "フジヤママチ",
    "street": null,
    "office_name": null,
    "office_name_kana": null
  },
  "0054": {
    "postcode": "8300054",
    "prefecture": "福岡県",
    "prefecture_kana": "フクオカケン",
    "prefecture_code": 40,
    "city": "久留米市",
    "city_kana": "クルメシ",
    "town": "藤光町",
    "town_kana": "フジミツマチ",
    "street": null,
    "office_name": null,
    "office_name_kana": null
  },
  "0055": {
    "postcode": "8300055",
    "prefecture": "福岡県",
    "prefecture_kana": "フクオカケン",
    "prefecture_code": 40,
    "city": "久留米市",
    "city_kana": "クルメシ",
    "town": "上津",
    "town_kana": "カミツ",
    "street": null,
    "office_name": null,
    "office_name_kana": null
  },
  "0056": {
    "postcode": "8300056",
    "prefecture": "福岡県",
    "prefecture_kana": "フクオカケン",
    "prefecture_code": 40,
    "city": "久留米市",
    "city_kana": "クルメシ",
    "town": "本山",
    "town_kana": "モトヤマ",
    "street": null,
    "office_name": null,
    "office_name_kana": null
  },
  "0057": {
    "postcode": "8300057",
    "prefecture": "福岡県",
    "prefecture_kana": "フクオカケン",
    "prefecture_code": 40,
    "city": "久留米市",
    "city_kana": "クルメシ",
    "town": "藤光",
    "town_kana": "フジミツ",
    "street": null,
    "office_name": null,
    "office_name_kana": null
  },
  "0058": {
    "postcode": "8300058",
    "prefecture": "福岡県",
    "prefecture_kana": "フクオカケン",
    "prefecture_code": 40,
    "city": "久留米市",
    "city_kana": "クルメシ",
    "town": "野伏間",
    "town_kana": "ノブスマ",
    "street": null,
    "office_name": null,
    "office_name_kana": null
  },
  "0059": {
    "postcode": "8300059",
    "prefecture": "福岡県",
    "prefecture_kana": "フクオカケン",
    "prefecture_code": 40,
    "city": "久留米市",
    "city_kana": "クルメシ",
    "town": "江戸屋敷",
    "town_kana": "エドヤシキ",
    "street": null,
    "office_name": null,
    "office_name_kana": null
  },
  "0061": {
    "postcode": "8300061",
    "prefecture": "福岡県",
    "prefecture_kana": "フクオカケン",
    "prefecture_code": 40,
    "city": "久留米市",
    "city_kana": "クルメシ",
    "town": "津福今町",
    "town_kana": "ツブクイママチ",
    "street": null,
    "office_name": null,
    "office_name_kana": null
  },
  "0062": {
    "postcode": "8300062",
    "prefecture": "福岡県",
    "prefecture_kana": "フクオカケン",
    "prefecture_code": 40,
    "city": "久留米市",
    "city_kana": "クルメシ",
    "town": "荒木町白口",
    "town_kana": "アラキマチシラクチ",
    "street": null,
    "office_name": null,
    "office_name_kana": null
  },
  "0063": {
    "postcode": "8300063",
    "prefecture": "福岡県",
    "prefecture_kana": "フクオカケン",
    "prefecture_code": 40,
    "city": "久留米市",
    "city_kana": "クルメシ",
    "town": "荒木町荒木",
    "town_kana": "アラキマチアラキ",
    "street": null,
    "office_name": null,
    "office_name_kana": null
  },
  "0064": {
    "postcode": "8300064",
    "prefecture": "福岡県",
    "prefecture_kana": "フクオカケン",
    "prefecture_code": 40,
    "city": "久留米市",
    "city_kana": "クルメシ",
    "town": "荒木町藤田",
    "town_kana": "アラキマチフジタ",
    "street": null,
    "office_name": null,
    "office_name_kana": null
  },
  "0065": {
    "postcode": "8300065",
    "prefecture": "福岡県",
    "prefecture_kana": "フクオカケン",
    "prefecture_code": 40,
    "city": "久留米市",
    "city_kana": "クルメシ",
    "town": "荒木町今",
    "town_kana": "アラキマチイマ",
    "street": null,
    "office_name": null,
    "office_name_kana": null
  },
  "0066": {
    "postcode": "8300066",
    "prefecture": "福岡県",
    "prefecture_kana": "フクオカケン",
    "prefecture_code": 40,
    "city": "久留米市",
    "city_kana": "クルメシ",
    "town": "荒木町下荒木",
    "town_kana": "アラキマチシモアラキ",
    "street": null,
    "office_name": null,
    "office_name_kana": null
  },
  "0070": {
    "postcode": "8300070",
    "prefecture": "福岡県",
    "prefecture_kana": "フクオカケン",
    "prefecture_code": 40,
    "city": "久留米市",
    "city_kana": "クルメシ",
    "town": "大善寺南",
    "town_kana": "ダイゼンジミナミ",
    "street": null,
    "office_name": null,
    "office_name_kana": null
  },
  "0071": {
    "postcode": "8300071",
    "prefecture": "福岡県",
    "prefecture_kana": "フクオカケン",
    "prefecture_code": 40,
    "city": "久留米市",
    "city_kana": "クルメシ",
    "town": "安武町武島",
    "town_kana": "ヤスタケマチタケシマ",
    "street": null,
    "office_name": null,
    "office_name_kana": null
  },
  "0072": {
    "postcode": "8300072",
    "prefecture": "福岡県",
    "prefecture_kana": "フクオカケン",
    "prefecture_code": 40,
    "city": "久留米市",
    "city_kana": "クルメシ",
    "town": "安武町安武本",
    "town_kana": "ヤスタケマチヤスタケホン",
    "street": null,
    "office_name": null,
    "office_name_kana": null
  },
  "0073": {
    "postcode": "8300073",
    "prefecture": "福岡県",
    "prefecture_kana": "フクオカケン",
    "prefecture_code": 40,
    "city": "久留米市",
    "city_kana": "クルメシ",
    "town": "大善寺町宮本",
    "town_kana": "ダイゼンジマチミヤモト",
    "street": null,
    "office_name": null,
    "office_name_kana": null
  },
  "0074": {
    "postcode": "8300074",
    "prefecture": "福岡県",
    "prefecture_kana": "フクオカケン",
    "prefecture_code": 40,
    "city": "久留米市",
    "city_kana": "クルメシ",
    "town": "大善寺町夜明",
    "town_kana": "ダイゼンジマチヨアケ",
    "street": null,
    "office_name": null,
    "office_name_kana": null
  },
  "0075": {
    "postcode": "8300075",
    "prefecture": "福岡県",
    "prefecture_kana": "フクオカケン",
    "prefecture_code": 40,
    "city": "久留米市",
    "city_kana": "クルメシ",
    "town": "大善寺町黒田",
    "town_kana": "ダイゼンジマチクロダ",
    "street": null,
    "office_name": null,
    "office_name_kana": null
  },
  "0076": {
    "postcode": "8300076",
    "prefecture": "福岡県",
    "prefecture_kana": "フクオカケン",
    "prefecture_code": 40,
    "city": "久留米市",
    "city_kana": "クルメシ",
    "town": "大善寺町藤吉",
    "town_kana": "ダイゼンジマチフジヨシ",
    "street": null,
    "office_name": null,
    "office_name_kana": null
  },
  "0077": {
    "postcode": "8300077",
    "prefecture": "福岡県",
    "prefecture_kana": "フクオカケン",
    "prefecture_code": 40,
    "city": "久留米市",
    "city_kana": "クルメシ",
    "town": "大善寺町中津",
    "town_kana": "ダイゼンジマチナカツ",
    "street": null,
    "office_name": null,
    "office_name_kana": null
  },
  "0078": {
    "postcode": "8300078",
    "prefecture": "福岡県",
    "prefecture_kana": "フクオカケン",
    "prefecture_code": 40,
    "city": "久留米市",
    "city_kana": "クルメシ",
    "town": "安武町住吉",
    "town_kana": "ヤスタケマチスミヨシ",
    "street": null,
    "office_name": null,
    "office_name_kana": null
  },
  "0079": {
    "postcode": "8300079",
    "prefecture": "福岡県",
    "prefecture_kana": "フクオカケン",
    "prefecture_code": 40,
    "city": "久留米市",
    "city_kana": "クルメシ",
    "town": "大善寺大橋",
    "town_kana": "ダイゼンジオオハシ",
    "street": null,
    "office_name": null,
    "office_name_kana": null
  },
  "0101": {
    "postcode": "8300101",
    "prefecture": "福岡県",
    "prefecture_kana": "フクオカケン",
    "prefecture_code": 40,
    "city": "久留米市",
    "city_kana": "クルメシ",
    "town": "三潴町早津崎",
    "town_kana": "ミヅママチハヤツザキ",
    "street": null,
    "office_name": null,
    "office_name_kana": null
  },
  "0102": {
    "postcode": "8300102",
    "prefecture": "福岡県",
    "prefecture_kana": "フクオカケン",
    "prefecture_code": 40,
    "city": "久留米市",
    "city_kana": "クルメシ",
    "town": "三潴町田川",
    "town_kana": "ミヅママチタガワ",
    "street": null,
    "office_name": null,
    "office_name_kana": null
  },
  "0103": {
    "postcode": "8300103",
    "prefecture": "福岡県",
    "prefecture_kana": "フクオカケン",
    "prefecture_code": 40,
    "city": "久留米市",
    "city_kana": "クルメシ",
    "town": "三潴町高三潴",
    "town_kana": "ミヅママチタカミズマ",
    "street": null,
    "office_name": null,
    "office_name_kana": null
  },
  "0104": {
    "postcode": "8300104",
    "prefecture": "福岡県",
    "prefecture_kana": "フクオカケン",
    "prefecture_code": 40,
    "city": "久留米市",
    "city_kana": "クルメシ",
    "town": "三潴町原田",
    "town_kana": "ミヅママチハルダ",
    "street": null,
    "office_name": null,
    "office_name_kana": null
  },
  "0105": {
    "postcode": "8300105",
    "prefecture": "福岡県",
    "prefecture_kana": "フクオカケン",
    "prefecture_code": 40,
    "city": "久留米市",
    "city_kana": "クルメシ",
    "town": "三潴町草場",
    "town_kana": "ミヅママチクサバ",
    "street": null,
    "office_name": null,
    "office_name_kana": null
  },
  "0111": {
    "postcode": "8300111",
    "prefecture": "福岡県",
    "prefecture_kana": "フクオカケン",
    "prefecture_code": 40,
    "city": "久留米市",
    "city_kana": "クルメシ",
    "town": "三潴町西牟田",
    "town_kana": "ミヅママチニシムタ",
    "street": null,
    "office_name": null,
    "office_name_kana": null
  },
  "0112": {
    "postcode": "8300112",
    "prefecture": "福岡県",
    "prefecture_kana": "フクオカケン",
    "prefecture_code": 40,
    "city": "久留米市",
    "city_kana": "クルメシ",
    "town": "三潴町玉満",
    "town_kana": "ミヅママチタマミツ",
    "street": null,
    "office_name": null,
    "office_name_kana": null
  },
  "0113": {
    "postcode": "8300113",
    "prefecture": "福岡県",
    "prefecture_kana": "フクオカケン",
    "prefecture_code": 40,
    "city": "久留米市",
    "city_kana": "クルメシ",
    "town": "三潴町生岩",
    "town_kana": "ミヅママチイキイワ",
    "street": null,
    "office_name": null,
    "office_name_kana": null
  },
  "0114": {
    "postcode": "8300114",
    "prefecture": "福岡県",
    "prefecture_kana": "フクオカケン",
    "prefecture_code": 40,
    "city": "久留米市",
    "city_kana": "クルメシ",
    "town": "三潴町福光",
    "town_kana": "ミヅママチフクミツ",
    "street": null,
    "office_name": null,
    "office_name_kana": null
  },
  "0115": {
    "postcode": "8300115",
    "prefecture": "福岡県",
    "prefecture_kana": "フクオカケン",
    "prefecture_code": 40,
    "city": "久留米市",
    "city_kana": "クルメシ",
    "town": "三潴町壱町原",
    "town_kana": "ミヅママチイッチョウバル",
    "street": null,
    "office_name": null,
    "office_name_kana": null
  },
  "0116": {
    "postcode": "8300116",
    "prefecture": "福岡県",
    "prefecture_kana": "フクオカケン",
    "prefecture_code": 40,
    "city": "久留米市",
    "city_kana": "クルメシ",
    "town": "三潴町清松",
    "town_kana": "ミヅママチキヨマツ",
    "street": null,
    "office_name": null,
    "office_name_kana": null
  },
  "0192": {
    "postcode": "8300192",
    "prefecture": "福岡県",
    "prefecture_kana": "フクオカケン",
    "prefecture_code": 40,
    "city": "久留米市",
    "city_kana": "クルメシ",
    "town": "三潴町玉満",
    "town_kana": "ミヅママチタマミツ",
    "street": "２７７９−１",
    "office_name": "久留米市　三潴総合支所",
    "office_name_kana": "クルメシ ミヅマソウゴウシシヨ"
  },
  "0201": {
    "postcode": "8300201",
    "prefecture": "福岡県",
    "prefecture_kana": "フクオカケン",
    "prefecture_code": 40,
    "city": "久留米市",
    "city_kana": "クルメシ",
    "town": "城島町芦塚",
    "town_kana": "ジョウジママチアシヅカ",
    "street": null,
    "office_name": null,
    "office_name_kana": null
  },
  "0202": {
    "postcode": "8300202",
    "prefecture": "福岡県",
    "prefecture_kana": "フクオカケン",
    "prefecture_code": 40,
    "city": "久留米市",
    "city_kana": "クルメシ",
    "town": "城島町下田",
    "town_kana": "ジョウジママチシモダ",
    "street": null,
    "office_name": null,
    "office_name_kana": null
  },
  "0203": {
    "postcode": "8300203",
    "prefecture": "福岡県",
    "prefecture_kana": "フクオカケン",
    "prefecture_code": 40,
    "city": "久留米市",
    "city_kana": "クルメシ",
    "town": "城島町浜",
    "town_kana": "ジョウジママチハマ",
    "street": null,
    "office_name": null,
    "office_name_kana": null
  },
  "0204": {
    "postcode": "8300204",
    "prefecture": "福岡県",
    "prefecture_kana": "フクオカケン",
    "prefecture_code": 40,
    "city": "久留米市",
    "city_kana": "クルメシ",
    "town": "城島町内野",
    "town_kana": "ジョウジママチウチノ",
    "street": null,
    "office_name": null,
    "office_name_kana": null
  },
  "0205": {
    "postcode": "8300205",
    "prefecture": "福岡県",
    "prefecture_kana": "フクオカケン",
    "prefecture_code": 40,
    "city": "久留米市",
    "city_kana": "クルメシ",
    "town": "城島町大依",
    "town_kana": "ジョウジママチオオヨリ",
    "street": null,
    "office_name": null,
    "office_name_kana": null
  },
  "0206": {
    "postcode": "8300206",
    "prefecture": "福岡県",
    "prefecture_kana": "フクオカケン",
    "prefecture_code": 40,
    "city": "久留米市",
    "city_kana": "クルメシ",
    "town": "城島町六町原",
    "town_kana": "ジョウジママチロクチョウバル",
    "street": null,
    "office_name": null,
    "office_name_kana": null
  },
  "0207": {
    "postcode": "8300207",
    "prefecture": "福岡県",
    "prefecture_kana": "フクオカケン",
    "prefecture_code": 40,
    "city": "久留米市",
    "city_kana": "クルメシ",
    "town": "城島町城島",
    "town_kana": "ジョウジママチジョウジマ",
    "street": null,
    "office_name": null,
    "office_name_kana": null
  },
  "0211": {
    "postcode": "8300211",
    "prefecture": "福岡県",
    "prefecture_kana": "フクオカケン",
    "prefecture_code": 40,
    "city": "久留米市",
    "city_kana": "クルメシ",
    "town": "城島町楢津",
    "town_kana": "ジョウジママチナラツ",
    "street": null,
    "office_name": null,
    "office_name_kana": null
  },
  "0212": {
    "postcode": "8300212",
    "prefecture": "福岡県",
    "prefecture_kana": "フクオカケン",
    "prefecture_code": 40,
    "city": "久留米市",
    "city_kana": "クルメシ",
    "town": "城島町江上上",
    "town_kana": "ジョウジママチエガミカミ",
    "street": null,
    "office_name": null,
    "office_name_kana": null
  },
  "0213": {
    "postcode": "8300213",
    "prefecture": "福岡県",
    "prefecture_kana": "フクオカケン",
    "prefecture_code": 40,
    "city": "久留米市",
    "city_kana": "クルメシ",
    "town": "城島町江上",
    "town_kana": "ジョウジママチエガミ",
    "street": null,
    "office_name": null,
    "office_name_kana": null
  },
  "0214": {
    "postcode": "8300214",
    "prefecture": "福岡県",
    "prefecture_kana": "フクオカケン",
    "prefecture_code": 40,
    "city": "久留米市",
    "city_kana": "クルメシ",
    "town": "城島町江上本",
    "town_kana": "ジョウジママチエガミホン",
    "street": null,
    "office_name": null,
    "office_name_kana": null
  },
  "0215": {
    "postcode": "8300215",
    "prefecture": "福岡県",
    "prefecture_kana": "フクオカケン",
    "prefecture_code": 40,
    "city": "久留米市",
    "city_kana": "クルメシ",
    "town": "城島町原中牟田",
    "town_kana": "ジョウジママチハラナカムタ",
    "street": null,
    "office_name": null,
    "office_name_kana": null
  },
  "0216": {
    "postcode": "8300216",
    "prefecture": "福岡県",
    "prefecture_kana": "フクオカケン",
    "prefecture_code": 40,
    "city": "久留米市",
    "city_kana": "クルメシ",
    "town": "城島町江島",
    "town_kana": "ジョウジママチエシマ",
    "street": null,
    "office_name": null,
    "office_name_kana": null
  },
  "0221": {
    "postcode": "8300221",
    "prefecture": "福岡県",
    "prefecture_kana": "フクオカケン",
    "prefecture_code": 40,
    "city": "久留米市",
    "city_kana": "クルメシ",
    "town": "城島町浮島",
    "town_kana": "ジョウジママチウキシマ",
    "street": null,
    "office_name": null,
    "office_name_kana": null
  },
  "0222": {
    "postcode": "8300222",
    "prefecture": "福岡県",
    "prefecture_kana": "フクオカケン",
    "prefecture_code": 40,
    "city": "久留米市",
    "city_kana": "クルメシ",
    "town": "城島町青木島",
    "town_kana": "ジョウジママチアオキシマ",
    "street": null,
    "office_name": null,
    "office_name_kana": null
  },
  "0223": {
    "postcode": "8300223",
    "prefecture": "福岡県",
    "prefecture_kana": "フクオカケン",
    "prefecture_code": 40,
    "city": "久留米市",
    "city_kana": "クルメシ",
    "town": "城島町四郎丸",
    "town_kana": "ジョウジママチシロウマル",
    "street": null,
    "office_name": null,
    "office_name_kana": null
  },
  "0224": {
    "postcode": "8300224",
    "prefecture": "福岡県",
    "prefecture_kana": "フクオカケン",
    "prefecture_code": 40,
    "city": "久留米市",
    "city_kana": "クルメシ",
    "town": "城島町上青木",
    "town_kana": "ジョウジママチカミアオキ",
    "street": null,
    "office_name": null,
    "office_name_kana": null
  },
  "0225": {
    "postcode": "8300225",
    "prefecture": "福岡県",
    "prefecture_kana": "フクオカケン",
    "prefecture_code": 40,
    "city": "久留米市",
    "city_kana": "クルメシ",
    "town": "城島町下青木",
    "town_kana": "ジョウジママチシモアオキ",
    "street": null,
    "office_name": null,
    "office_name_kana": null
  },
  "0226": {
    "postcode": "8300226",
    "prefecture": "福岡県",
    "prefecture_kana": "フクオカケン",
    "prefecture_code": 40,
    "city": "久留米市",
    "city_kana": "クルメシ",
    "town": "城島町西青木",
    "town_kana": "ジョウジママチニシアオキ",
    "street": null,
    "office_name": null,
    "office_name_kana": null
  },
  "0292": {
    "postcode": "8300292",
    "prefecture": "福岡県",
    "prefecture_kana": "フクオカケン",
    "prefecture_code": 40,
    "city": "久留米市",
    "city_kana": "クルメシ",
    "town": "城島町楢津",
    "town_kana": "ジョウジママチナラツ",
    "street": "７４３−２",
    "office_name": "久留米市　城島総合支所",
    "office_name_kana": "クルメシ ジヨウジマソウゴウシシヨ"
  },
  "0400": {
    "postcode": "8300400",
    "prefecture": "福岡県",
    "prefecture_kana": "フクオカケン",
    "prefecture_code": 40,
    "city": "三潴郡大木町",
    "city_kana": "ミズマグンオオキマチ",
    "town": "",
    "town_kana": "",
    "street": null,
    "office_name": null,
    "office_name_kana": null
  },
  "0401": {
    "postcode": "8300401",
    "prefecture": "福岡県",
    "prefecture_kana": "フクオカケン",
    "prefecture_code": 40,
    "city": "三潴郡大木町",
    "city_kana": "ミズマグンオオキマチ",
    "town": "笹渕",
    "town_kana": "ササブチ",
    "street": null,
    "office_name": null,
    "office_name_kana": null
  },
  "0402": {
    "postcode": "8300402",
    "prefecture": "福岡県",
    "prefecture_kana": "フクオカケン",
    "prefecture_code": 40,
    "city": "三潴郡大木町",
    "city_kana": "ミズマグンオオキマチ",
    "town": "福土",
    "town_kana": "フクド",
    "street": null,
    "office_name": null,
    "office_name_kana": null
  },
  "0403": {
    "postcode": "8300403",
    "prefecture": "福岡県",
    "prefecture_kana": "フクオカケン",
    "prefecture_code": 40,
    "city": "三潴郡大木町",
    "city_kana": "ミズマグンオオキマチ",
    "town": "大角",
    "town_kana": "オオズミ",
    "street": null,
    "office_name": null,
    "office_name_kana": null
  },
  "0404": {
    "postcode": "8300404",
    "prefecture": "福岡県",
    "prefecture_kana": "フクオカケン",
    "prefecture_code": 40,
    "city": "三潴郡大木町",
    "city_kana": "ミズマグンオオキマチ",
    "town": "上白垣",
    "town_kana": "カミシラカキ",
    "street": null,
    "office_name": null,
    "office_name_kana": null
  },
  "0405": {
    "postcode": "8300405",
    "prefecture": "福岡県",
    "prefecture_kana": "フクオカケン",
    "prefecture_code": 40,
    "city": "三潴郡大木町",
    "city_kana": "ミズマグンオオキマチ",
    "town": "横溝",
    "town_kana": "ヨコミゾ",
    "street": null,
    "office_name": null,
    "office_name_kana": null
  },
  "0406": {
    "postcode": "8300406",
    "prefecture": "福岡県",
    "prefecture_kana": "フクオカケン",
    "prefecture_code": 40,
    "city": "三潴郡大木町",
    "city_kana": "ミズマグンオオキマチ",
    "town": "前牟田",
    "town_kana": "マエムタ",
    "street": null,
    "office_name": null,
    "office_name_kana": null
  },
  "0411": {
    "postcode": "8300411",
    "prefecture": "福岡県",
    "prefecture_kana": "フクオカケン",
    "prefecture_code": 40,
    "city": "三潴郡大木町",
    "city_kana": "ミズマグンオオキマチ",
    "town": "蛭池",
    "town_kana": "ヒルイケ",
    "street": null,
    "office_name": null,
    "office_name_kana": null
  },
  "0412": {
    "postcode": "8300412",
    "prefecture": "福岡県",
    "prefecture_kana": "フクオカケン",
    "prefecture_code": 40,
    "city": "三潴郡大木町",
    "city_kana": "ミズマグンオオキマチ",
    "town": "侍島",
    "town_kana": "サムライジマ",
    "street": null,
    "office_name": null,
    "office_name_kana": null
  },
  "0413": {
    "postcode": "8300413",
    "prefecture": "福岡県",
    "prefecture_kana": "フクオカケン",
    "prefecture_code": 40,
    "city": "三潴郡大木町",
    "city_kana": "ミズマグンオオキマチ",
    "town": "上牟田口",
    "town_kana": "カミムタグチ",
    "street": null,
    "office_name": null,
    "office_name_kana": null
  },
  "0414": {
    "postcode": "8300414",
    "prefecture": "福岡県",
    "prefecture_kana": "フクオカケン",
    "prefecture_code": 40,
    "city": "三潴郡大木町",
    "city_kana": "ミズマグンオオキマチ",
    "town": "上木佐木",
    "town_kana": "カミキサキ",
    "street": null,
    "office_name": null,
    "office_name_kana": null
  },
  "0415": {
    "postcode": "8300415",
    "prefecture": "福岡県",
    "prefecture_kana": "フクオカケン",
    "prefecture_code": 40,
    "city": "三潴郡大木町",
    "city_kana": "ミズマグンオオキマチ",
    "town": "絵下古賀",
    "town_kana": "エゲコガ",
    "street": null,
    "office_name": null,
    "office_name_kana": null
  },
  "0416": {
    "postcode": "8300416",
    "prefecture": "福岡県",
    "prefecture_kana": "フクオカケン",
    "prefecture_code": 40,
    "city": "三潴郡大木町",
    "city_kana": "ミズマグンオオキマチ",
    "town": "八町牟田",
    "town_kana": "ハッチョウムタ",
    "street": null,
    "office_name": null,
    "office_name_kana": null
  },
  "0417": {
    "postcode": "8300417",
    "prefecture": "福岡県",
    "prefecture_kana": "フクオカケン",
    "prefecture_code": 40,
    "city": "三潴郡大木町",
    "city_kana": "ミズマグンオオキマチ",
    "town": "上八院",
    "town_kana": "カミハチイン",
    "street": null,
    "office_name": null,
    "office_name_kana": null
  },
  "0421": {
    "postcode": "8300421",
    "prefecture": "福岡県",
    "prefecture_kana": "フクオカケン",
    "prefecture_code": 40,
    "city": "三潴郡大木町",
    "city_kana": "ミズマグンオオキマチ",
    "town": "奥牟田",
    "town_kana": "オクムタ",
    "street": null,
    "office_name": null,
    "office_name_kana": null
  },
  "0422": {
    "postcode": "8300422",
    "prefecture": "福岡県",
    "prefecture_kana": "フクオカケン",
    "prefecture_code": 40,
    "city": "三潴郡大木町",
    "city_kana": "ミズマグンオオキマチ",
    "town": "高橋",
    "town_kana": "タカハシ",
    "street": null,
    "office_name": null,
    "office_name_kana": null
  },
  "0423": {
    "postcode": "8300423",
    "prefecture": "福岡県",
    "prefecture_kana": "フクオカケン",
    "prefecture_code": 40,
    "city": "三潴郡大木町",
    "city_kana": "ミズマグンオオキマチ",
    "town": "大藪",
    "town_kana": "オオヤブ",
    "street": null,
    "office_name": null,
    "office_name_kana": null
  },
  "0424": {
    "postcode": "8300424",
    "prefecture": "福岡県",
    "prefecture_kana": "フクオカケン",
    "prefecture_code": 40,
    "city": "三潴郡大木町",
    "city_kana": "ミズマグンオオキマチ",
    "town": "三八松",
    "town_kana": "ミヤマツ",
    "street": null,
    "office_name": null,
    "office_name_kana": null
  },
  "0425": {
    "postcode": "8300425",
    "prefecture": "福岡県",
    "prefecture_kana": "フクオカケン",
    "prefecture_code": 40,
    "city": "三潴郡大木町",
    "city_kana": "ミズマグンオオキマチ",
    "town": "筏溝",
    "town_kana": "イカダミゾ",
    "street": null,
    "office_name": null,
    "office_name_kana": null
  },
  "1101": {
    "postcode": "8301101",
    "prefecture": "福岡県",
    "prefecture_kana": "フクオカケン",
    "prefecture_code": 40,
    "city": "久留米市",
    "city_kana": "クルメシ",
    "town": "北野町中川",
    "town_kana": "キタノマチナカガワ",
    "street": null,
    "office_name": null,
    "office_name_kana": null
  },
  "1102": {
    "postcode": "8301102",
    "prefecture": "福岡県",
    "prefecture_kana": "フクオカケン",
    "prefecture_code": 40,
    "city": "久留米市",
    "city_kana": "クルメシ",
    "town": "北野町八重亀",
    "town_kana": "キタノマチヤエガメ",
    "street": null,
    "office_name": null,
    "office_name_kana": null
  },
  "1103": {
    "postcode": "8301103",
    "prefecture": "福岡県",
    "prefecture_kana": "フクオカケン",
    "prefecture_code": 40,
    "city": "久留米市",
    "city_kana": "クルメシ",
    "town": "北野町金島",
    "town_kana": "キタノマチカネシマ",
    "street": null,
    "office_name": null,
    "office_name_kana": null
  },
  "1104": {
    "postcode": "8301104",
    "prefecture": "福岡県",
    "prefecture_kana": "フクオカケン",
    "prefecture_code": 40,
    "city": "久留米市",
    "city_kana": "クルメシ",
    "town": "北野町大城",
    "town_kana": "キタノマチオオキ",
    "street": null,
    "office_name": null,
    "office_name_kana": null
  },
  "1105": {
    "postcode": "8301105",
    "prefecture": "福岡県",
    "prefecture_kana": "フクオカケン",
    "prefecture_code": 40,
    "city": "久留米市",
    "city_kana": "クルメシ",
    "town": "北野町中島",
    "town_kana": "キタノマチナカシマ",
    "street": null,
    "office_name": null,
    "office_name_kana": null
  },
  "1106": {
    "postcode": "8301106",
    "prefecture": "福岡県",
    "prefecture_kana": "フクオカケン",
    "prefecture_code": 40,
    "city": "久留米市",
    "city_kana": "クルメシ",
    "town": "北野町仁王丸",
    "town_kana": "キタノマチニオウマル",
    "street": null,
    "office_name": null,
    "office_name_kana": null
  },
  "1107": {
    "postcode": "8301107",
    "prefecture": "福岡県",
    "prefecture_kana": "フクオカケン",
    "prefecture_code": 40,
    "city": "久留米市",
    "city_kana": "クルメシ",
    "town": "北野町塚島",
    "town_kana": "キタノマチツカジマ",
    "street": null,
    "office_name": null,
    "office_name_kana": null
  },
  "1111": {
    "postcode": "8301111",
    "prefecture": "福岡県",
    "prefecture_kana": "フクオカケン",
    "prefecture_code": 40,
    "city": "久留米市",
    "city_kana": "クルメシ",
    "town": "北野町千代島",
    "town_kana": "キタノマチチヨジマ",
    "street": null,
    "office_name": null,
    "office_name_kana": null
  },
  "1112": {
    "postcode": "8301112",
    "prefecture": "福岡県",
    "prefecture_kana": "フクオカケン",
    "prefecture_code": 40,
    "city": "久留米市",
    "city_kana": "クルメシ",
    "town": "北野町陣屋",
    "town_kana": "キタノマチジンヤ",
    "street": null,
    "office_name": null,
    "office_name_kana": null
  },
  "1113": {
    "postcode": "8301113",
    "prefecture": "福岡県",
    "prefecture_kana": "フクオカケン",
    "prefecture_code": 40,
    "city": "久留米市",
    "city_kana": "クルメシ",
    "town": "北野町中",
    "town_kana": "キタノマチナカ",
    "street": null,
    "office_name": null,
    "office_name_kana": null
  },
  "1114": {
    "postcode": "8301114",
    "prefecture": "福岡県",
    "prefecture_kana": "フクオカケン",
    "prefecture_code": 40,
    "city": "久留米市",
    "city_kana": "クルメシ",
    "town": "北野町高良",
    "town_kana": "キタノマチコウラ",
    "street": null,
    "office_name": null,
    "office_name_kana": null
  },
  "1115": {
    "postcode": "8301115",
    "prefecture": "福岡県",
    "prefecture_kana": "フクオカケン",
    "prefecture_code": 40,
    "city": "久留米市",
    "city_kana": "クルメシ",
    "town": "北野町鳥巣",
    "town_kana": "キタノマチトリス",
    "street": null,
    "office_name": null,
    "office_name_kana": null
  },
  "1116": {
    "postcode": "8301116",
    "prefecture": "福岡県",
    "prefecture_kana": "フクオカケン",
    "prefecture_code": 40,
    "city": "久留米市",
    "city_kana": "クルメシ",
    "town": "北野町石崎",
    "town_kana": "キタノマチイシザキ",
    "street": null,
    "office_name": null,
    "office_name_kana": null
  },
  "1117": {
    "postcode": "8301117",
    "prefecture": "福岡県",
    "prefecture_kana": "フクオカケン",
    "prefecture_code": 40,
    "city": "久留米市",
    "city_kana": "クルメシ",
    "town": "北野町上弓削",
    "town_kana": "キタノマチカミユゲ",
    "street": null,
    "office_name": null,
    "office_name_kana": null
  },
  "1121": {
    "postcode": "8301121",
    "prefecture": "福岡県",
    "prefecture_kana": "フクオカケン",
    "prefecture_code": 40,
    "city": "久留米市",
    "city_kana": "クルメシ",
    "town": "北野町十郎丸",
    "town_kana": "キタノマチジュウロウマル",
    "street": null,
    "office_name": null,
    "office_name_kana": null
  },
  "1122": {
    "postcode": "8301122",
    "prefecture": "福岡県",
    "prefecture_kana": "フクオカケン",
    "prefecture_code": 40,
    "city": "久留米市",
    "city_kana": "クルメシ",
    "town": "北野町今山",
    "town_kana": "キタノマチイマヤマ",
    "street": null,
    "office_name": null,
    "office_name_kana": null
  },
  "1123": {
    "postcode": "8301123",
    "prefecture": "福岡県",
    "prefecture_kana": "フクオカケン",
    "prefecture_code": 40,
    "city": "久留米市",
    "city_kana": "クルメシ",
    "town": "北野町冨多",
    "town_kana": "キタノマチトミタ",
    "street": null,
    "office_name": null,
    "office_name_kana": null
  },
  "1124": {
    "postcode": "8301124",
    "prefecture": "福岡県",
    "prefecture_kana": "フクオカケン",
    "prefecture_code": 40,
    "city": "久留米市",
    "city_kana": "クルメシ",
    "town": "北野町乙吉",
    "town_kana": "キタノマチオトヨシ",
    "street": null,
    "office_name": null,
    "office_name_kana": null
  },
  "1125": {
    "postcode": "8301125",
    "prefecture": "福岡県",
    "prefecture_kana": "フクオカケン",
    "prefecture_code": 40,
    "city": "久留米市",
    "city_kana": "クルメシ",
    "town": "北野町乙丸",
    "town_kana": "キタノマチオトマル",
    "street": null,
    "office_name": null,
    "office_name_kana": null
  },
  "1126": {
    "postcode": "8301126",
    "prefecture": "福岡県",
    "prefecture_kana": "フクオカケン",
    "prefecture_code": 40,
    "city": "久留米市",
    "city_kana": "クルメシ",
    "town": "北野町稲数",
    "town_kana": "キタノマチイナカズ",
    "street": null,
    "office_name": null,
    "office_name_kana": null
  },
  "1127": {
    "postcode": "8301127",
    "prefecture": "福岡県",
    "prefecture_kana": "フクオカケン",
    "prefecture_code": 40,
    "city": "久留米市",
    "city_kana": "クルメシ",
    "town": "北野町赤司",
    "town_kana": "キタノマチアカシ",
    "street": null,
    "office_name": null,
    "office_name_kana": null
  },
  "1192": {
    "postcode": "8301192",
    "prefecture": "福岡県",
    "prefecture_kana": "フクオカケン",
    "prefecture_code": 40,
    "city": "久留米市",
    "city_kana": "クルメシ",
    "town": "北野町中",
    "town_kana": "キタノマチナカ",
    "street": "３２４５番地３",
    "office_name": "久留米市　北野総合支所",
    "office_name_kana": "クルメシ キタノソウゴウシシヨ"
  },
  "1193": {
    "postcode": "8301193",
    "prefecture": "福岡県",
    "prefecture_kana": "フクオカケン",
    "prefecture_code": 40,
    "city": "久留米市",
    "city_kana": "クルメシ",
    "town": "北野町中",
    "town_kana": "キタノマチナカ",
    "street": "１９５６−１",
    "office_name": "トラスコ中山　（株）　久留米営業所",
    "office_name_kana": "トラスコナカヤマ (カブ) クルメエイギヨウシヨ"
  },
  "1195": {
    "postcode": "8301195",
    "prefecture": "福岡県",
    "prefecture_kana": "フクオカケン",
    "prefecture_code": 40,
    "city": "久留米市",
    "city_kana": "クルメシ",
    "town": "北野町今山",
    "town_kana": "キタノマチイマヤマ",
    "street": "５３４−１",
    "office_name": "合名会社　山口酒造場",
    "office_name_kana": "ゴウメイガイシヤ ヤマグチシユゾウジヨウ"
  },
  "1196": {
    "postcode": "8301196",
    "prefecture": "福岡県",
    "prefecture_kana": "フクオカケン",
    "prefecture_code": 40,
    "city": "久留米市",
    "city_kana": "クルメシ",
    "town": "北野町中",
    "town_kana": "キタノマチナカ",
    "street": "１４２３",
    "office_name": "柏鉄工　株式会社",
    "office_name_kana": "カシワテツコウ カブシキガイシヤ"
  },
  "1200": {
    "postcode": "8301200",
    "prefecture": "福岡県",
    "prefecture_kana": "フクオカケン",
    "prefecture_code": 40,
    "city": "三井郡大刀洗町",
    "city_kana": "ミイグンタチアライマチ",
    "town": "",
    "town_kana": "",
    "street": null,
    "office_name": null,
    "office_name_kana": null
  },
  "1201": {
    "postcode": "8301201",
    "prefecture": "福岡県",
    "prefecture_kana": "フクオカケン",
    "prefecture_code": 40,
    "city": "三井郡大刀洗町",
    "city_kana": "ミイグンタチアライマチ",
    "town": "冨多",
    "town_kana": "トミタ",
    "street": null,
    "office_name": null,
    "office_name_kana": null
  },
  "1202": {
    "postcode": "8301202",
    "prefecture": "福岡県",
    "prefecture_kana": "フクオカケン",
    "prefecture_code": 40,
    "city": "三井郡大刀洗町",
    "city_kana": "ミイグンタチアライマチ",
    "town": "菅野",
    "town_kana": "スガノ",
    "street": null,
    "office_name": null,
    "office_name_kana": null
  },
  "1203": {
    "postcode": "8301203",
    "prefecture": "福岡県",
    "prefecture_kana": "フクオカケン",
    "prefecture_code": 40,
    "city": "三井郡大刀洗町",
    "city_kana": "ミイグンタチアライマチ",
    "town": "三川",
    "town_kana": "ミカワ",
    "street": null,
    "office_name": null,
    "office_name_kana": null
  },
  "1204": {
    "postcode": "8301204",
    "prefecture": "福岡県",
    "prefecture_kana": "フクオカケン",
    "prefecture_code": 40,
    "city": "三井郡大刀洗町",
    "city_kana": "ミイグンタチアライマチ",
    "town": "西原",
    "town_kana": "ニシバル",
    "street": null,
    "office_name": null,
    "office_name_kana": null
  },
  "1205": {
    "postcode": "8301205",
    "prefecture": "福岡県",
    "prefecture_kana": "フクオカケン",
    "prefecture_code": 40,
    "city": "三井郡大刀洗町",
    "city_kana": "ミイグンタチアライマチ",
    "town": "守部",
    "town_kana": "モルベ",
    "street": null,
    "office_name": null,
    "office_name_kana": null
  },
  "1206": {
    "postcode": "8301206",
    "prefecture": "福岡県",
    "prefecture_kana": "フクオカケン",
    "prefecture_code": 40,
    "city": "三井郡大刀洗町",
    "city_kana": "ミイグンタチアライマチ",
    "town": "中川",
    "town_kana": "ナカガワ",
    "street": null,
    "office_name": null,
    "office_name_kana": null
  },
  "1211": {
    "postcode": "8301211",
    "prefecture": "福岡県",
    "prefecture_kana": "フクオカケン",
    "prefecture_code": 40,
    "city": "三井郡大刀洗町",
    "city_kana": "ミイグンタチアライマチ",
    "town": "本郷",
    "town_kana": "ホンゴウ",
    "street": null,
    "office_name": null,
    "office_name_kana": null
  },
  "1212": {
    "postcode": "8301212",
    "prefecture": "福岡県",
    "prefecture_kana": "フクオカケン",
    "prefecture_code": 40,
    "city": "三井郡大刀洗町",
    "city_kana": "ミイグンタチアライマチ",
    "town": "甲条",
    "town_kana": "コウチョウ",
    "street": null,
    "office_name": null,
    "office_name_kana": null
  },
  "1213": {
    "postcode": "8301213",
    "prefecture": "福岡県",
    "prefecture_kana": "フクオカケン",
    "prefecture_code": 40,
    "city": "三井郡大刀洗町",
    "city_kana": "ミイグンタチアライマチ",
    "town": "春日",
    "town_kana": "カスガ",
    "street": null,
    "office_name": null,
    "office_name_kana": null
  },
  "1214": {
    "postcode": "8301214",
    "prefecture": "福岡県",
    "prefecture_kana": "フクオカケン",
    "prefecture_code": 40,
    "city": "三井郡大刀洗町",
    "city_kana": "ミイグンタチアライマチ",
    "town": "栄田",
    "town_kana": "サカエダ",
    "street": null,
    "office_name": null,
    "office_name_kana": null
  },
  "1221": {
    "postcode": "8301221",
    "prefecture": "福岡県",
    "prefecture_kana": "フクオカケン",
    "prefecture_code": 40,
    "city": "三井郡大刀洗町",
    "city_kana": "ミイグンタチアライマチ",
    "town": "高樋",
    "town_kana": "タカエ",
    "street": null,
    "office_name": null,
    "office_name_kana": null
  },
  "1222": {
    "postcode": "8301222",
    "prefecture": "福岡県",
    "prefecture_kana": "フクオカケン",
    "prefecture_code": 40,
    "city": "三井郡大刀洗町",
    "city_kana": "ミイグンタチアライマチ",
    "town": "上高橋",
    "town_kana": "カミタカハシ",
    "street": null,
    "office_name": null,
    "office_name_kana": null
  },
  "1223": {
    "postcode": "8301223",
    "prefecture": "福岡県",
    "prefecture_kana": "フクオカケン",
    "prefecture_code": 40,
    "city": "三井郡大刀洗町",
    "city_kana": "ミイグンタチアライマチ",
    "town": "今",
    "town_kana": "イマ",
    "street": null,
    "office_name": null,
    "office_name_kana": null
  },
  "1224": {
    "postcode": "8301224",
    "prefecture": "福岡県",
    "prefecture_kana": "フクオカケン",
    "prefecture_code": 40,
    "city": "三井郡大刀洗町",
    "city_kana": "ミイグンタチアライマチ",
    "town": "鵜木",
    "town_kana": "ウノキ",
    "street": null,
    "office_name": null,
    "office_name_kana": null
  },
  "1225": {
    "postcode": "8301225",
    "prefecture": "福岡県",
    "prefecture_kana": "フクオカケン",
    "prefecture_code": 40,
    "city": "三井郡大刀洗町",
    "city_kana": "ミイグンタチアライマチ",
    "town": "下高橋",
    "town_kana": "シモタカハシ",
    "street": null,
    "office_name": null,
    "office_name_kana": null
  },
  "1226": {
    "postcode": "8301226",
    "prefecture": "福岡県",
    "prefecture_kana": "フクオカケン",
    "prefecture_code": 40,
    "city": "三井郡大刀洗町",
    "city_kana": "ミイグンタチアライマチ",
    "town": "山隈",
    "town_kana": "ヤマグマ",
    "street": null,
    "office_name": null,
    "office_name_kana": null
  },
  "1298": {
    "postcode": "8301298",
    "prefecture": "福岡県",
    "prefecture_kana": "フクオカケン",
    "prefecture_code": 40,
    "city": "三井郡大刀洗町",
    "city_kana": "ミイグンタチアライマチ",
    "town": "大字富多",
    "town_kana": null,
    "street": "８１９",
    "office_name": "大刀洗町役場",
    "office_name_kana": "タチアライマチヤクバ"
  },
  "6528": {
    "postcode": "8306528",
    "prefecture": "福岡県",
    "prefecture_kana": "フクオカケン",
    "prefecture_code": 40,
    "city": "久留米市",
    "city_kana": "クルメシ",
    "town": "荒木町藤田",
    "town_kana": "アラキマチフジタ",
    "street": "（荒木駅前郵便局私書箱第３号）",
    "office_name": "航空自衛隊　高良台分屯基地",
    "office_name_kana": "コウクウジエイタイ コウラダイブントンキチ"
  },
  "6587": {
    "postcode": "8306587",
    "prefecture": "福岡県",
    "prefecture_kana": "フクオカケン",
    "prefecture_code": 40,
    "city": "久留米市",
    "city_kana": "クルメシ",
    "town": "荒木町荒木",
    "town_kana": "アラキマチアラキ",
    "street": "（荒木駅前郵便局私書箱第７号）",
    "office_name": "株式会社　原武商店",
    "office_name_kana": "カブシキガイシヤ ハラタケシヨウテン"
  },
  "8501": {
    "postcode": "8308501",
    "prefecture": "福岡県",
    "prefecture_kana": "フクオカケン",
    "prefecture_code": 40,
    "city": "久留米市",
    "city_kana": "クルメシ",
    "town": "諏訪野町",
    "town_kana": "スワノマチ",
    "street": "２４０１",
    "office_name": "久留米社会保険事務所",
    "office_name_kana": "クルメシヤカイホケンジムシヨ"
  },
  "8503": {
    "postcode": "8308503",
    "prefecture": "福岡県",
    "prefecture_kana": "フクオカケン",
    "prefecture_code": 40,
    "city": "久留米市",
    "city_kana": "クルメシ",
    "town": "日吉町",
    "town_kana": "ヒヨシマチ",
    "street": "２３−３（久留米郵便局私書箱第１０２号）",
    "office_name": "株式会社　月刊くるめ",
    "office_name_kana": "カブシキガイシヤ ゲツカンクルメ"
  },
  "8505": {
    "postcode": "8308505",
    "prefecture": "福岡県",
    "prefecture_kana": "フクオカケン",
    "prefecture_code": 40,
    "city": "久留米市",
    "city_kana": "クルメシ",
    "town": "諏訪野町",
    "town_kana": "スワノマチ",
    "street": "２４０１",
    "office_name": "久留米公共職業安定所",
    "office_name_kana": "クルメコウキヨウシヨクギヨウアンテイシヨ"
  },
  "8510": {
    "postcode": "8308510",
    "prefecture": "福岡県",
    "prefecture_kana": "フクオカケン",
    "prefecture_code": 40,
    "city": "久留米市",
    "city_kana": "クルメシ",
    "town": "天神町",
    "town_kana": "テンジンマチ",
    "street": "１−１",
    "office_name": "株式会社　岩田屋三越　久留米店",
    "office_name_kana": "カブシキガイシヤ イワタヤミツコシ クルメテン"
  },
  "8511": {
    "postcode": "8308511",
    "prefecture": "福岡県",
    "prefecture_kana": "フクオカケン",
    "prefecture_code": 40,
    "city": "久留米市",
    "city_kana": "クルメシ",
    "town": "南",
    "town_kana": "ミナミ",
    "street": "２丁目１５−１",
    "office_name": "大電　株式会社",
    "office_name_kana": "ダイデン カブシキガイシヤ"
  },
  "8512": {
    "postcode": "8308512",
    "prefecture": "福岡県",
    "prefecture_kana": "フクオカケン",
    "prefecture_code": 40,
    "city": "久留米市",
    "city_kana": "クルメシ",
    "town": "篠山町",
    "town_kana": "ササヤママチ",
    "street": "２１番地",
    "office_name": "福岡家庭裁判所　久留米支部",
    "office_name_kana": "フクオカカテイサイバンシヨ クルメシブ"
  },
  "8515": {
    "postcode": "8308515",
    "prefecture": "福岡県",
    "prefecture_kana": "フクオカケン",
    "prefecture_code": 40,
    "city": "久留米市",
    "city_kana": "クルメシ",
    "town": "荒木町下荒木",
    "town_kana": "アラキマチシモアラキ",
    "street": "８７６−１",
    "office_name": "株式会社　ケンコントロールズ",
    "office_name_kana": "カブシキガイシヤ ケンコントロ-ルズ"
  },
  "8520": {
    "postcode": "8308520",
    "prefecture": "福岡県",
    "prefecture_kana": "フクオカケン",
    "prefecture_code": 40,
    "city": "久留米市",
    "city_kana": "クルメシ",
    "town": "城南町",
    "town_kana": "ジョウナンマチ",
    "street": "１５番地の３",
    "office_name": "久留米市役所",
    "office_name_kana": "クルメシヤクシヨ"
  },
  "8521": {
    "postcode": "8308521",
    "prefecture": "福岡県",
    "prefecture_kana": "フクオカケン",
    "prefecture_code": 40,
    "city": "久留米市",
    "city_kana": "クルメシ",
    "town": "櫛原町",
    "town_kana": "クシハラマチ",
    "street": "２１番地",
    "office_name": "社会保険　久留米第一病院",
    "office_name_kana": "シヤカイホケン クルメダイイチビヨウイン"
  },
  "8522": {
    "postcode": "8308522",
    "prefecture": "福岡県",
    "prefecture_kana": "フクオカケン",
    "prefecture_code": 40,
    "city": "久留米市",
    "city_kana": "クルメシ",
    "town": "天神町",
    "town_kana": "テンジンマチ",
    "street": "１０６番地１",
    "office_name": "社会医療法人　天神会　新古賀クリニック",
    "office_name_kana": "シヤカイイリヨウホウジン テンジンカイ シンコガクリニツク"
  },
  "8530": {
    "postcode": "8308530",
    "prefecture": "福岡県",
    "prefecture_kana": "フクオカケン",
    "prefecture_code": 40,
    "city": "久留米市",
    "city_kana": "クルメシ",
    "town": "篠山町",
    "town_kana": "ササヤママチ",
    "street": "２１番地",
    "office_name": "福岡地方裁判所　久留米支部",
    "office_name_kana": "フクオカチホウサイバンシヨ クルメシブ"
  },
  "8533": {
    "postcode": "8308533",
    "prefecture": "福岡県",
    "prefecture_kana": "フクオカケン",
    "prefecture_code": 40,
    "city": "久留米市",
    "city_kana": "クルメシ",
    "town": "本町",
    "town_kana": "ホンマチ",
    "street": "１６１三洋久留米ビル２Ｆ",
    "office_name": "三洋信販　株式会社　久留米帳票チーム",
    "office_name_kana": "サンヨウシンパン カブシキガイシヤ クルメチヨ-ヒヨ-チ-ム"
  },
  "8540": {
    "postcode": "8308540",
    "prefecture": "福岡県",
    "prefecture_kana": "フクオカケン",
    "prefecture_code": 40,
    "city": "久留米市",
    "city_kana": "クルメシ",
    "town": "日吉町",
    "town_kana": "ヒヨシマチ",
    "street": "１４−３３",
    "office_name": "住友生命保険　相互会社　久留米支社",
    "office_name_kana": "スミトモセイメイホケン ソウゴガイシヤ クルメシシヤ"
  },
  "8541": {
    "postcode": "8308541",
    "prefecture": "福岡県",
    "prefecture_kana": "フクオカケン",
    "prefecture_code": 40,
    "city": "久留米市",
    "city_kana": "クルメシ",
    "town": "上津町",
    "town_kana": "カミツマチ",
    "street": "２２０３−１７３",
    "office_name": "株式会社　野田清商店",
    "office_name_kana": "カブシキガイシヤ ノダキヨシシヨウテン"
  },
  "8543": {
    "postcode": "8308543",
    "prefecture": "福岡県",
    "prefecture_kana": "フクオカケン",
    "prefecture_code": 40,
    "city": "久留米市",
    "city_kana": "クルメシ",
    "town": "津福本町",
    "town_kana": "ツブクホンマチ",
    "street": "４２２",
    "office_name": "医療法人　雪ノ聖母会　聖マリア病院",
    "office_name_kana": "イリヨウホウジン ユキノセイボカイ セイマリアビヨウイン"
  },
  "8555": {
    "postcode": "8308555",
    "prefecture": "福岡県",
    "prefecture_kana": "フクオカケン",
    "prefecture_code": 40,
    "city": "久留米市",
    "city_kana": "クルメシ",
    "town": "小森野",
    "town_kana": "コモリノ",
    "street": "１丁目１−１",
    "office_name": "国立　久留米工業高等専門学校",
    "office_name_kana": "コクリツ クルメコウギヨウコウトウセンモンガツコウ"
  },
  "8558": {
    "postcode": "8308558",
    "prefecture": "福岡県",
    "prefecture_kana": "フクオカケン",
    "prefecture_code": 40,
    "city": "久留米市",
    "city_kana": "クルメシ",
    "town": "津福本町",
    "town_kana": "ツブクホンマチ",
    "street": "４２２",
    "office_name": "学校法人聖マリア学院",
    "office_name_kana": "ガツコウホウジンセイマリアガクイン"
  },
  "8567": {
    "postcode": "8308567",
    "prefecture": "福岡県",
    "prefecture_kana": "フクオカケン",
    "prefecture_code": 40,
    "city": "久留米市",
    "city_kana": "クルメシ",
    "town": "高野",
    "town_kana": "タカノ",
    "street": "１丁目２−１",
    "office_name": "筑後川河川事務所",
    "office_name_kana": "チクゴガワカセンジムシヨ"
  },
  "8570": {
    "postcode": "8308570",
    "prefecture": "福岡県",
    "prefecture_kana": "フクオカケン",
    "prefecture_code": 40,
    "city": "久留米市",
    "city_kana": "クルメシ",
    "town": "高野",
    "town_kana": "タカノ",
    "street": "１丁目３−１",
    "office_name": "九州地方整備局　九州技術事務所",
    "office_name_kana": "キユウシユウチホウセイビキヨク キユウシユウギジユツジムシヨ"
  },
  "8577": {
    "postcode": "8308577",
    "prefecture": "福岡県",
    "prefecture_kana": "フクオカケン",
    "prefecture_code": 40,
    "city": "久留米市",
    "city_kana": "クルメシ",
    "town": "天神町",
    "town_kana": "テンジンマチ",
    "street": "１２０番地",
    "office_name": "社会医療法人　天神会　新古賀病院",
    "office_name_kana": "シヤカイイリヨウホウジン テンジンカイ シンコガビヨウイン"
  },
  "8585": {
    "postcode": "8308585",
    "prefecture": "福岡県",
    "prefecture_kana": "フクオカケン",
    "prefecture_code": 40,
    "city": "久留米市",
    "city_kana": "クルメシ",
    "town": "日吉町",
    "town_kana": "ヒヨシマチ",
    "street": "２３−３メディアビル２Ｆ",
    "office_name": "ＮＴＴマーケティングアクト九州　久留米支店",
    "office_name_kana": "エヌテイテイマ-ケテイングアクトキユウシユウ クルメシテン"
  },
  "8588": {
    "postcode": "8308588",
    "prefecture": "福岡県",
    "prefecture_kana": "フクオカケン",
    "prefecture_code": 40,
    "city": "久留米市",
    "city_kana": "クルメシ",
    "town": "東町",
    "town_kana": "ヒガシマチ",
    "street": "３０−４",
    "office_name": "有限会社　マルハ",
    "office_name_kana": "ユウゲンガイシヤ マルハ"
  },
  "8601": {
    "postcode": "8308601",
    "prefecture": "福岡県",
    "prefecture_kana": "フクオカケン",
    "prefecture_code": 40,
    "city": "久留米市",
    "city_kana": "クルメシ",
    "town": "日吉町",
    "town_kana": "ヒヨシマチ",
    "street": "２４−２（久留米郵便局私書箱第４９号）",
    "office_name": "モデルクレジット　株式会社",
    "office_name_kana": "モデルクレジツト カブシキガイシヤ"
  },
  "8602": {
    "postcode": "8308602",
    "prefecture": "福岡県",
    "prefecture_kana": "フクオカケン",
    "prefecture_code": 40,
    "city": "久留米市",
    "city_kana": "クルメシ",
    "town": "日吉町",
    "town_kana": "ヒヨシマチ",
    "street": "１６−１９（久留米郵便局私書箱第５６号）",
    "office_name": "株式会社　西日本シティ銀行　久留米営業部",
    "office_name_kana": "カブシキガイシヤ ニシニツポンシテイギンコウ クルメエイギヨウブ"
  },
  "8603": {
    "postcode": "8308603",
    "prefecture": "福岡県",
    "prefecture_kana": "フクオカケン",
    "prefecture_code": 40,
    "city": "久留米市",
    "city_kana": "クルメシ",
    "town": "日吉町",
    "town_kana": "ヒヨシマチ",
    "street": "２５番地の１（久留米郵便局私書箱第３０号）",
    "office_name": "株式会社　りそな銀行　久留米支店",
    "office_name_kana": "カブシキカイシヤ リソナギンコウ クルメシテン"
  },
  "8606": {
    "postcode": "8308606",
    "prefecture": "福岡県",
    "prefecture_kana": "フクオカケン",
    "prefecture_code": 40,
    "city": "久留米市",
    "city_kana": "クルメシ",
    "town": "中央町",
    "town_kana": "チュウオウマチ",
    "street": "１２−９（久留米郵便局私書箱第６号）",
    "office_name": "喜多村石油　株式会社",
    "office_name_kana": "キタムラセキユ カブシキガイシヤ"
  },
  "8611": {
    "postcode": "8308611",
    "prefecture": "福岡県",
    "prefecture_kana": "フクオカケン",
    "prefecture_code": 40,
    "city": "久留米市",
    "city_kana": "クルメシ",
    "town": "東櫛原町",
    "town_kana": "ヒガシクシハラマチ",
    "street": "１０２５（久留米郵便局私書箱第７１号）",
    "office_name": "株式会社　稲屋",
    "office_name_kana": "カブシキガイシヤイナヤ"
  },
  "8612": {
    "postcode": "8308612",
    "prefecture": "福岡県",
    "prefecture_kana": "フクオカケン",
    "prefecture_code": 40,
    "city": "久留米市",
    "city_kana": "クルメシ",
    "town": "東櫛原町",
    "town_kana": "ヒガシクシハラマチ",
    "street": "３５３（久留米郵便局私書箱第５３号）",
    "office_name": "久留米運送　株式会社",
    "office_name_kana": "クルメウンソウ カブシキガイシヤ"
  },
  "8622": {
    "postcode": "8308622",
    "prefecture": "福岡県",
    "prefecture_kana": "フクオカケン",
    "prefecture_code": 40,
    "city": "久留米市",
    "city_kana": "クルメシ",
    "town": "白山町",
    "town_kana": "シラヤママチ",
    "street": "６０",
    "office_name": "株式会社　ムーンスター",
    "office_name_kana": "カブシキカイシヤ ム-ンスタ-"
  },
  "8629": {
    "postcode": "8308629",
    "prefecture": "福岡県",
    "prefecture_kana": "フクオカケン",
    "prefecture_code": 40,
    "city": "久留米市",
    "city_kana": "クルメシ",
    "town": "洗町",
    "town_kana": "アライマチ",
    "street": "１",
    "office_name": "アサヒシューズ　株式会社",
    "office_name_kana": "アサヒシユ-ズ カブシキガイシヤ"
  },
  "8630": {
    "postcode": "8308630",
    "prefecture": "福岡県",
    "prefecture_kana": "フクオカケン",
    "prefecture_code": 40,
    "city": "久留米市",
    "city_kana": "クルメシ",
    "town": "通町",
    "town_kana": "トオリマチ",
    "street": "８−６（久留米郵便局私書箱第２６号）",
    "office_name": "株式会社　赤ちゃんの城",
    "office_name_kana": "カブシキガイシヤ アカチヤンノシロ"
  },
  "8631": {
    "postcode": "8308631",
    "prefecture": "福岡県",
    "prefecture_kana": "フクオカケン",
    "prefecture_code": 40,
    "city": "久留米市",
    "city_kana": "クルメシ",
    "town": "日吉町",
    "town_kana": "ヒヨシマチ",
    "street": "１７−２２（久留米郵便局私書箱第１００号）",
    "office_name": "佐藤　株式会社",
    "office_name_kana": "サトウ カブシキガイシヤ"
  },
  "8666": {
    "postcode": "8308666",
    "prefecture": "福岡県",
    "prefecture_kana": "フクオカケン",
    "prefecture_code": 40,
    "city": "久留米市",
    "city_kana": "クルメシ",
    "town": "櫛原町",
    "town_kana": "クシハラマチ",
    "street": "４７−１６中村ビル２Ｆ",
    "office_name": "財団法人　簡易保険加入者協会　九州地方本部　久留米出張所",
    "office_name_kana": "ザイダンホウジン カンイホケンカニユウシヤキヨウカイ キユウシユウチホウホンブ クルメシユツチヨウシヨ"
  },
  "8667": {
    "postcode": "8308667",
    "prefecture": "福岡県",
    "prefecture_kana": "フクオカケン",
    "prefecture_code": 40,
    "city": "久留米市",
    "city_kana": "クルメシ",
    "town": "東町",
    "town_kana": "ヒガシマチ",
    "street": "４２−２１（久留米郵便局私書箱第１０７号）",
    "office_name": "商工組合中央金庫　久留米支店",
    "office_name_kana": "シヨウコウクミアイチユウオウキンコ クルメシテン"
  },
  "8668": {
    "postcode": "8308668",
    "prefecture": "福岡県",
    "prefecture_kana": "フクオカケン",
    "prefecture_code": 40,
    "city": "久留米市",
    "city_kana": "クルメシ",
    "town": "瀬下町",
    "town_kana": "セノシタマチ",
    "street": "９３（久留米郵便局私書箱第８８号）",
    "office_name": "田中藍　株式会社",
    "office_name_kana": "タナカアイ カブシキガイシヤ"
  },
  "8677": {
    "postcode": "8308677",
    "prefecture": "福岡県",
    "prefecture_kana": "フクオカケン",
    "prefecture_code": 40,
    "city": "久留米市",
    "city_kana": "クルメシ",
    "town": "諏訪野町",
    "town_kana": "スワノマチ",
    "street": "２４５６−１（久留米郵便局私書箱第４３号）",
    "office_name": "株式会社　筑邦銀行",
    "office_name_kana": "カブシキガイシヤ チクホウギンコウ"
  },
  "8686": {
    "postcode": "8308686",
    "prefecture": "福岡県",
    "prefecture_kana": "フクオカケン",
    "prefecture_code": 40,
    "city": "久留米市",
    "city_kana": "クルメシ",
    "town": "日吉町",
    "town_kana": "ヒヨシマチ",
    "street": "１５−６０ニッセイ久留米ビル（久留米郵便局私書箱第３８号）",
    "office_name": "日本生命保険　相互会社　久留米支社",
    "office_name_kana": "ニホンセイメイホケン ソウゴガイシヤ クルメシシヤ"
  },
  "8688": {
    "postcode": "8308688",
    "prefecture": "福岡県",
    "prefecture_kana": "フクオカケン",
    "prefecture_code": 40,
    "city": "久留米市",
    "city_kana": "クルメシ",
    "town": "諏訪野町",
    "town_kana": "スワノマチ",
    "street": "２４０１−１０（久留米郵便局私書箱第３６号）",
    "office_name": "久留米税務署",
    "office_name_kana": "クルメゼイムシヨ"
  }
}