{
  "0000": {
    "postcode": "8490000",
    "prefecture": "佐賀県",
    "prefecture_kana": "サガケン",
    "prefecture_code": 41,
    "city": "佐賀市",
    "city_kana": "サガシ",
    "town": "",
    "town_kana": "",
    "street": null,
    "office_name": null,
    "office_name_kana": null
  },
  "0100": [
    {
      "postcode": "8490100",
      "prefecture": "佐賀県",
      "prefecture_kana": "サガケン",
      "prefecture_code": 41,
      "city": "三養基郡上峰町",
      "city_kana": "ミヤキグンカミミネチョウ",
      "town": "",
      "town_kana": "",
      "street": null,
      "office_name": null,
      "office_name_kana": null
    },
    {
      "postcode": "8490100",
      "prefecture": "佐賀県",
      "prefecture_kana": "サガケン",
      "prefecture_code": 41,
      "city": "三養基郡みやき町",
      "city_kana": "ミヤキグンミヤキチョウ",
      "town": "",
      "town_kana": "",
      "street": null,
      "office_name": null,
      "office_name_kana": null
    }
  ],
  "0101": {
    "postcode": "8490101",
    "prefecture": "佐賀県",
    "prefecture_kana": "サガケン",
    "prefecture_code": 41,
    "city": "三養基郡みやき町",
    "city_kana": "ミヤキグンミヤキチョウ",
    "town": "原古賀",
    "town_kana": "ハルコガ",
    "street": null,
    "office_name": null,
    "office_name_kana": null
  },
  "0102": {
    "postcode": "8490102",
    "prefecture": "佐賀県",
    "prefecture_kana": "サガケン",
    "prefecture_code": 41,
    "city": "三養基郡みやき町",
    "city_kana": "ミヤキグンミヤキチョウ",
    "town": "簑原",
    "town_kana": "ミノバル",
    "street": null,
    "office_name": null,
    "office_name_kana": null
  },
  "0111": {
    "postcode": "8490111",
    "prefecture": "佐賀県",
    "prefecture_kana": "サガケン",
    "prefecture_code": 41,
    "city": "三養基郡みやき町",
    "city_kana": "ミヤキグンミヤキチョウ",
    "town": "白壁",
    "town_kana": "シラカベ",
    "street": null,
    "office_name": null,
    "office_name_kana": null
  },
  "0112": {
    "postcode": "8490112",
    "prefecture": "佐賀県",
    "prefecture_kana": "サガケン",
    "prefecture_code": 41,
    "city": "三養基郡みやき町",
    "city_kana": "ミヤキグンミヤキチョウ",
    "town": "江口",
    "town_kana": "エグチ",
    "street": null,
    "office_name": null,
    "office_name_kana": null
  },
  "0113": {
    "postcode": "8490113",
    "prefecture": "佐賀県",
    "prefecture_kana": "サガケン",
    "prefecture_code": 41,
    "city": "三養基郡みやき町",
    "city_kana": "ミヤキグンミヤキチョウ",
    "town": "東尾",
    "town_kana": "ヒガシオ",
    "street": null,
    "office_name": null,
    "office_name_kana": null
  },
  "0114": {
    "postcode": "8490114",
    "prefecture": "佐賀県",
    "prefecture_kana": "サガケン",
    "prefecture_code": 41,
    "city": "三養基郡みやき町",
    "city_kana": "ミヤキグンミヤキチョウ",
    "town": "中津隈",
    "town_kana": "ナカツクマ",
    "street": null,
    "office_name": null,
    "office_name_kana": null
  },
  "0121": {
    "postcode": "8490121",
    "prefecture": "佐賀県",
    "prefecture_kana": "サガケン",
    "prefecture_code": 41,
    "city": "三養基郡上峰町",
    "city_kana": "ミヤキグンカミミネチョウ",
    "town": "江迎",
    "town_kana": "エムカイ",
    "street": null,
    "office_name": null,
    "office_name_kana": null
  },
  "0122": {
    "postcode": "8490122",
    "prefecture": "佐賀県",
    "prefecture_kana": "サガケン",
    "prefecture_code": 41,
    "city": "三養基郡上峰町",
    "city_kana": "ミヤキグンカミミネチョウ",
    "town": "前牟田",
    "town_kana": "マエムタ",
    "street": null,
    "office_name": null,
    "office_name_kana": null
  },
  "0123": {
    "postcode": "8490123",
    "prefecture": "佐賀県",
    "prefecture_kana": "サガケン",
    "prefecture_code": 41,
    "city": "三養基郡上峰町",
    "city_kana": "ミヤキグンカミミネチョウ",
    "town": "坊所",
    "town_kana": "ボウジョ",
    "street": null,
    "office_name": null,
    "office_name_kana": null
  },
  "0124": {
    "postcode": "8490124",
    "prefecture": "佐賀県",
    "prefecture_kana": "サガケン",
    "prefecture_code": 41,
    "city": "三養基郡上峰町",
    "city_kana": "ミヤキグンカミミネチョウ",
    "town": "堤",
    "town_kana": "ツツミ",
    "street": null,
    "office_name": null,
    "office_name_kana": null
  },
  "0201": {
    "postcode": "8490201",
    "prefecture": "佐賀県",
    "prefecture_kana": "サガケン",
    "prefecture_code": 41,
    "city": "佐賀市",
    "city_kana": "サガシ",
    "town": "久保田町徳万",
    "town_kana": "クボタチョウトクマン",
    "street": null,
    "office_name": null,
    "office_name_kana": null
  },
  "0202": {
    "postcode": "8490202",
    "prefecture": "佐賀県",
    "prefecture_kana": "サガケン",
    "prefecture_code": 41,
    "city": "佐賀市",
    "city_kana": "サガシ",
    "town": "久保田町久富",
    "town_kana": "クボタチョウヒサドミ",
    "street": null,
    "office_name": null,
    "office_name_kana": null
  },
  "0203": {
    "postcode": "8490203",
    "prefecture": "佐賀県",
    "prefecture_kana": "サガケン",
    "prefecture_code": 41,
    "city": "佐賀市",
    "city_kana": "サガシ",
    "town": "久保田町新田",
    "town_kana": "クボタチョウシンデン",
    "street": null,
    "office_name": null,
    "office_name_kana": null
  },
  "0204": {
    "postcode": "8490204",
    "prefecture": "佐賀県",
    "prefecture_kana": "サガケン",
    "prefecture_code": 41,
    "city": "佐賀市",
    "city_kana": "サガシ",
    "town": "久保田町久保田",
    "town_kana": "クボタチョウクボタ",
    "street": null,
    "office_name": null,
    "office_name_kana": null
  },
  "0205": {
    "postcode": "8490205",
    "prefecture": "佐賀県",
    "prefecture_kana": "サガケン",
    "prefecture_code": 41,
    "city": "佐賀市",
    "city_kana": "サガシ",
    "town": "久保田町江戸",
    "town_kana": "クボタチョウエド",
    "street": null,
    "office_name": null,
    "office_name_kana": null
  },
  "0301": {
    "postcode": "8490301",
    "prefecture": "佐賀県",
    "prefecture_kana": "サガケン",
    "prefecture_code": 41,
    "city": "小城市",
    "city_kana": "オギシ",
    "town": "牛津町乙柳",
    "town_kana": "ウシヅチョウオトヤナギ",
    "street": null,
    "office_name": null,
    "office_name_kana": null
  },
  "0302": {
    "postcode": "8490302",
    "prefecture": "佐賀県",
    "prefecture_kana": "サガケン",
    "prefecture_code": 41,
    "city": "小城市",
    "city_kana": "オギシ",
    "town": "牛津町柿樋瀬",
    "town_kana": "ウシヅチョウカキヒセ",
    "street": null,
    "office_name": null,
    "office_name_kana": null
  },
  "0303": {
    "postcode": "8490303",
    "prefecture": "佐賀県",
    "prefecture_kana": "サガケン",
    "prefecture_code": 41,
    "city": "小城市",
    "city_kana": "オギシ",
    "town": "牛津町牛津",
    "town_kana": "ウシヅチョウウシヅ",
    "street": null,
    "office_name": null,
    "office_name_kana": null
  },
  "0304": {
    "postcode": "8490304",
    "prefecture": "佐賀県",
    "prefecture_kana": "サガケン",
    "prefecture_code": 41,
    "city": "小城市",
    "city_kana": "オギシ",
    "town": "牛津町下砥川",
    "town_kana": "ウシヅチョウシモトガワ",
    "street": null,
    "office_name": null,
    "office_name_kana": null
  },
  "0305": {
    "postcode": "8490305",
    "prefecture": "佐賀県",
    "prefecture_kana": "サガケン",
    "prefecture_code": 41,
    "city": "小城市",
    "city_kana": "オギシ",
    "town": "牛津町上砥川",
    "town_kana": "ウシヅチョウカミトガワ",
    "street": null,
    "office_name": null,
    "office_name_kana": null
  },
  "0306": {
    "postcode": "8490306",
    "prefecture": "佐賀県",
    "prefecture_kana": "サガケン",
    "prefecture_code": 41,
    "city": "小城市",
    "city_kana": "オギシ",
    "town": "牛津町勝",
    "town_kana": "ウシヅチョウカツ",
    "street": null,
    "office_name": null,
    "office_name_kana": null
  },
  "0311": {
    "postcode": "8490311",
    "prefecture": "佐賀県",
    "prefecture_kana": "サガケン",
    "prefecture_code": 41,
    "city": "小城市",
    "city_kana": "オギシ",
    "town": "芦刈町芦溝",
    "town_kana": "アシカリチョウアシミゾ",
    "street": null,
    "office_name": null,
    "office_name_kana": null
  },
  "0312": {
    "postcode": "8490312",
    "prefecture": "佐賀県",
    "prefecture_kana": "サガケン",
    "prefecture_code": 41,
    "city": "小城市",
    "city_kana": "オギシ",
    "town": "芦刈町下古賀",
    "town_kana": "アシカリチョウシモコガ",
    "street": null,
    "office_name": null,
    "office_name_kana": null
  },
  "0313": {
    "postcode": "8490313",
    "prefecture": "佐賀県",
    "prefecture_kana": "サガケン",
    "prefecture_code": 41,
    "city": "小城市",
    "city_kana": "オギシ",
    "town": "芦刈町永田",
    "town_kana": "アシカリチョウナガタ",
    "street": null,
    "office_name": null,
    "office_name_kana": null
  },
  "0314": {
    "postcode": "8490314",
    "prefecture": "佐賀県",
    "prefecture_kana": "サガケン",
    "prefecture_code": 41,
    "city": "小城市",
    "city_kana": "オギシ",
    "town": "芦刈町三王崎",
    "town_kana": "アシカリチョウミオウザキ",
    "street": null,
    "office_name": null,
    "office_name_kana": null
  },
  "0315": {
    "postcode": "8490315",
    "prefecture": "佐賀県",
    "prefecture_kana": "サガケン",
    "prefecture_code": 41,
    "city": "小城市",
    "city_kana": "オギシ",
    "town": "芦刈町浜枝川",
    "town_kana": "アシカリチョウハマエダガワ",
    "street": null,
    "office_name": null,
    "office_name_kana": null
  },
  "0316": {
    "postcode": "8490316",
    "prefecture": "佐賀県",
    "prefecture_kana": "サガケン",
    "prefecture_code": 41,
    "city": "小城市",
    "city_kana": "オギシ",
    "town": "芦刈町道免",
    "town_kana": "アシカリチョウドウメ",
    "street": null,
    "office_name": null,
    "office_name_kana": null
  },
  "0401": {
    "postcode": "8490401",
    "prefecture": "佐賀県",
    "prefecture_kana": "サガケン",
    "prefecture_code": 41,
    "city": "杵島郡白石町",
    "city_kana": "キシマグンシロイシチョウ",
    "town": "福富",
    "town_kana": "フクドミ",
    "street": null,
    "office_name": null,
    "office_name_kana": null
  },
  "0402": {
    "postcode": "8490402",
    "prefecture": "佐賀県",
    "prefecture_kana": "サガケン",
    "prefecture_code": 41,
    "city": "杵島郡白石町",
    "city_kana": "キシマグンシロイシチョウ",
    "town": "福富下分",
    "town_kana": "フクドミシモブン",
    "street": null,
    "office_name": null,
    "office_name_kana": null
  },
  "0403": {
    "postcode": "8490403",
    "prefecture": "佐賀県",
    "prefecture_kana": "サガケン",
    "prefecture_code": 41,
    "city": "杵島郡白石町",
    "city_kana": "キシマグンシロイシチョウ",
    "town": "八平",
    "town_kana": "ハチヘイ",
    "street": null,
    "office_name": null,
    "office_name_kana": null
  },
  "0500": {
    "postcode": "8490500",
    "prefecture": "佐賀県",
    "prefecture_kana": "サガケン",
    "prefecture_code": 41,
    "city": "杵島郡江北町",
    "city_kana": "キシマグンコウホクマチ",
    "town": "",
    "town_kana": "",
    "street": null,
    "office_name": null,
    "office_name_kana": null
  },
  "0501": {
    "postcode": "8490501",
    "prefecture": "佐賀県",
    "prefecture_kana": "サガケン",
    "prefecture_code": 41,
    "city": "杵島郡江北町",
    "city_kana": "キシマグンコウホクマチ",
    "town": "山口",
    "town_kana": "ヤマグチ",
    "street": null,
    "office_name": null,
    "office_name_kana": null
  },
  "0502": {
    "postcode": "8490502",
    "prefecture": "佐賀県",
    "prefecture_kana": "サガケン",
    "prefecture_code": 41,
    "city": "杵島郡江北町",
    "city_kana": "キシマグンコウホクマチ",
    "town": "佐留志",
    "town_kana": "サルシ",
    "street": null,
    "office_name": null,
    "office_name_kana": null
  },
  "0503": {
    "postcode": "8490503",
    "prefecture": "佐賀県",
    "prefecture_kana": "サガケン",
    "prefecture_code": 41,
    "city": "杵島郡江北町",
    "city_kana": "キシマグンコウホクマチ",
    "town": "惣領分",
    "town_kana": "ソウリョウブン",
    "street": null,
    "office_name": null,
    "office_name_kana": null
  },
  "0504": {
    "postcode": "8490504",
    "prefecture": "佐賀県",
    "prefecture_kana": "サガケン",
    "prefecture_code": 41,
    "city": "杵島郡江北町",
    "city_kana": "キシマグンコウホクマチ",
    "town": "八町",
    "town_kana": "ハッチョウ",
    "street": null,
    "office_name": null,
    "office_name_kana": null
  },
  "0505": {
    "postcode": "8490505",
    "prefecture": "佐賀県",
    "prefecture_kana": "サガケン",
    "prefecture_code": 41,
    "city": "杵島郡江北町",
    "city_kana": "キシマグンコウホクマチ",
    "town": "下小田",
    "town_kana": "シモオダ",
    "street": null,
    "office_name": null,
    "office_name_kana": null
  },
  "0506": {
    "postcode": "8490506",
    "prefecture": "佐賀県",
    "prefecture_kana": "サガケン",
    "prefecture_code": 41,
    "city": "杵島郡江北町",
    "city_kana": "キシマグンコウホクマチ",
    "town": "上小田",
    "town_kana": "カミオダ",
    "street": null,
    "office_name": null,
    "office_name_kana": null
  },
  "0592": {
    "postcode": "8490592",
    "prefecture": "佐賀県",
    "prefecture_kana": "サガケン",
    "prefecture_code": 41,
    "city": "杵島郡江北町",
    "city_kana": "キシマグンコウホクマチ",
    "town": "大字山口",
    "town_kana": null,
    "street": "１６５１−１",
    "office_name": "江北町役場",
    "office_name_kana": "コウホクマチヤクバ"
  },
  "0597": {
    "postcode": "8490597",
    "prefecture": "佐賀県",
    "prefecture_kana": "サガケン",
    "prefecture_code": 41,
    "city": "杵島郡江北町",
    "city_kana": "キシマグンコウホクマチ",
    "town": "大字上小田",
    "town_kana": null,
    "street": "２２０１",
    "office_name": "株式会社　ＳＵＭＣＯ",
    "office_name_kana": "カブシキガイシヤ サムコ"
  },
  "0901": {
    "postcode": "8490901",
    "prefecture": "佐賀県",
    "prefecture_kana": "サガケン",
    "prefecture_code": 41,
    "city": "佐賀市",
    "city_kana": "サガシ",
    "town": "久保泉町川久保",
    "town_kana": "クボイズミマチカワクボ",
    "street": null,
    "office_name": null,
    "office_name_kana": null
  },
  "0902": {
    "postcode": "8490902",
    "prefecture": "佐賀県",
    "prefecture_kana": "サガケン",
    "prefecture_code": 41,
    "city": "佐賀市",
    "city_kana": "サガシ",
    "town": "久保泉町上和泉",
    "town_kana": "クボイズミマチカミイズミ",
    "street": null,
    "office_name": null,
    "office_name_kana": null
  },
  "0903": {
    "postcode": "8490903",
    "prefecture": "佐賀県",
    "prefecture_kana": "サガケン",
    "prefecture_code": 41,
    "city": "佐賀市",
    "city_kana": "サガシ",
    "town": "久保泉町下和泉",
    "town_kana": "クボイズミマチシモイズミ",
    "street": null,
    "office_name": null,
    "office_name_kana": null
  },
  "0904": {
    "postcode": "8490904",
    "prefecture": "佐賀県",
    "prefecture_kana": "サガケン",
    "prefecture_code": 41,
    "city": "佐賀市",
    "city_kana": "サガシ",
    "town": "金立町薬師丸",
    "town_kana": "キンリュウマチヤクシマル",
    "street": null,
    "office_name": null,
    "office_name_kana": null
  },
  "0905": {
    "postcode": "8490905",
    "prefecture": "佐賀県",
    "prefecture_kana": "サガケン",
    "prefecture_code": 41,
    "city": "佐賀市",
    "city_kana": "サガシ",
    "town": "金立町千布",
    "town_kana": "キンリュウマチチフ",
    "street": null,
    "office_name": null,
    "office_name_kana": null
  },
  "0906": {
    "postcode": "8490906",
    "prefecture": "佐賀県",
    "prefecture_kana": "サガケン",
    "prefecture_code": 41,
    "city": "佐賀市",
    "city_kana": "サガシ",
    "town": "金立町金立",
    "town_kana": "キンリュウマチキンリュウ",
    "street": null,
    "office_name": null,
    "office_name_kana": null
  },
  "0911": {
    "postcode": "8490911",
    "prefecture": "佐賀県",
    "prefecture_kana": "サガケン",
    "prefecture_code": 41,
    "city": "佐賀市",
    "city_kana": "サガシ",
    "town": "兵庫町若宮",
    "town_kana": "ヒョウゴマチワカミヤ",
    "street": null,
    "office_name": null,
    "office_name_kana": null
  },
  "0912": {
    "postcode": "8490912",
    "prefecture": "佐賀県",
    "prefecture_kana": "サガケン",
    "prefecture_code": 41,
    "city": "佐賀市",
    "city_kana": "サガシ",
    "town": "兵庫町瓦町",
    "town_kana": "ヒョウゴマチカワラマチ",
    "street": null,
    "office_name": null,
    "office_name_kana": null
  },
  "0913": {
    "postcode": "8490913",
    "prefecture": "佐賀県",
    "prefecture_kana": "サガケン",
    "prefecture_code": 41,
    "city": "佐賀市",
    "city_kana": "サガシ",
    "town": "兵庫町渕",
    "town_kana": "ヒョウゴマチフチ",
    "street": null,
    "office_name": null,
    "office_name_kana": null
  },
  "0914": {
    "postcode": "8490914",
    "prefecture": "佐賀県",
    "prefecture_kana": "サガケン",
    "prefecture_code": 41,
    "city": "佐賀市",
    "city_kana": "サガシ",
    "town": "兵庫町西渕",
    "town_kana": "ヒョウゴマチニシブチ",
    "street": null,
    "office_name": null,
    "office_name_kana": null
  },
  "0915": {
    "postcode": "8490915",
    "prefecture": "佐賀県",
    "prefecture_kana": "サガケン",
    "prefecture_code": 41,
    "city": "佐賀市",
    "city_kana": "サガシ",
    "town": "兵庫町藤木",
    "town_kana": "ヒョウゴマチフジノキ",
    "street": null,
    "office_name": null,
    "office_name_kana": null
  },
  "0916": {
    "postcode": "8490916",
    "prefecture": "佐賀県",
    "prefecture_kana": "サガケン",
    "prefecture_code": 41,
    "city": "佐賀市",
    "city_kana": "サガシ",
    "town": "高木瀬町東高木",
    "town_kana": "タカキセマチヒガシタカギ",
    "street": null,
    "office_name": null,
    "office_name_kana": null
  },
  "0917": {
    "postcode": "8490917",
    "prefecture": "佐賀県",
    "prefecture_kana": "サガケン",
    "prefecture_code": 41,
    "city": "佐賀市",
    "city_kana": "サガシ",
    "town": "高木瀬町長瀬",
    "town_kana": "タカキセマチナガセ",
    "street": null,
    "office_name": null,
    "office_name_kana": null
  },
  "0918": {
    "postcode": "8490918",
    "prefecture": "佐賀県",
    "prefecture_kana": "サガケン",
    "prefecture_code": 41,
    "city": "佐賀市",
    "city_kana": "サガシ",
    "town": "兵庫南",
    "town_kana": "ヒョウゴミナミ",
    "street": null,
    "office_name": null,
    "office_name_kana": null
  },
  "0919": {
    "postcode": "8490919",
    "prefecture": "佐賀県",
    "prefecture_kana": "サガケン",
    "prefecture_code": 41,
    "city": "佐賀市",
    "city_kana": "サガシ",
    "town": "兵庫北",
    "town_kana": "ヒョウゴキタ",
    "street": null,
    "office_name": null,
    "office_name_kana": null
  },
  "0921": {
    "postcode": "8490921",
    "prefecture": "佐賀県",
    "prefecture_kana": "サガケン",
    "prefecture_code": 41,
    "city": "佐賀市",
    "city_kana": "サガシ",
    "town": "高木瀬西",
    "town_kana": "タカキセニシ",
    "street": null,
    "office_name": null,
    "office_name_kana": null
  },
  "0922": {
    "postcode": "8490922",
    "prefecture": "佐賀県",
    "prefecture_kana": "サガケン",
    "prefecture_code": 41,
    "city": "佐賀市",
    "city_kana": "サガシ",
    "town": "高木瀬東",
    "town_kana": "タカキセヒガシ",
    "street": null,
    "office_name": null,
    "office_name_kana": null
  },
  "0923": {
    "postcode": "8490923",
    "prefecture": "佐賀県",
    "prefecture_kana": "サガケン",
    "prefecture_code": 41,
    "city": "佐賀市",
    "city_kana": "サガシ",
    "town": "日の出",
    "town_kana": "ヒノデ",
    "street": null,
    "office_name": null,
    "office_name_kana": null
  },
  "0924": {
    "postcode": "8490924",
    "prefecture": "佐賀県",
    "prefecture_kana": "サガケン",
    "prefecture_code": 41,
    "city": "佐賀市",
    "city_kana": "サガシ",
    "town": "新中町",
    "town_kana": "シンナカマチ",
    "street": null,
    "office_name": null,
    "office_name_kana": null
  },
  "0925": {
    "postcode": "8490925",
    "prefecture": "佐賀県",
    "prefecture_kana": "サガケン",
    "prefecture_code": 41,
    "city": "佐賀市",
    "city_kana": "サガシ",
    "town": "八丁畷町",
    "town_kana": "ハッチョウナワテマチ",
    "street": null,
    "office_name": null,
    "office_name_kana": null
  },
  "0926": {
    "postcode": "8490926",
    "prefecture": "佐賀県",
    "prefecture_kana": "サガケン",
    "prefecture_code": 41,
    "city": "佐賀市",
    "city_kana": "サガシ",
    "town": "若宮",
    "town_kana": "ワカミヤ",
    "street": null,
    "office_name": null,
    "office_name_kana": null
  },
  "0927": {
    "postcode": "8490927",
    "prefecture": "佐賀県",
    "prefecture_kana": "サガケン",
    "prefecture_code": 41,
    "city": "佐賀市",
    "city_kana": "サガシ",
    "town": "高木瀬団地",
    "town_kana": "タカキセダンチ",
    "street": null,
    "office_name": null,
    "office_name_kana": null
  },
  "0928": {
    "postcode": "8490928",
    "prefecture": "佐賀県",
    "prefecture_kana": "サガケン",
    "prefecture_code": 41,
    "city": "佐賀市",
    "city_kana": "サガシ",
    "town": "若楠",
    "town_kana": "ワカクス",
    "street": null,
    "office_name": null,
    "office_name_kana": null
  },
  "0931": {
    "postcode": "8490931",
    "prefecture": "佐賀県",
    "prefecture_kana": "サガケン",
    "prefecture_code": 41,
    "city": "佐賀市",
    "city_kana": "サガシ",
    "town": "鍋島町蛎久",
    "town_kana": "ナベシママチカキヒサ",
    "street": null,
    "office_name": null,
    "office_name_kana": null
  },
  "0932": {
    "postcode": "8490932",
    "prefecture": "佐賀県",
    "prefecture_kana": "サガケン",
    "prefecture_code": 41,
    "city": "佐賀市",
    "city_kana": "サガシ",
    "town": "鍋島町八戸溝",
    "town_kana": "ナベシママチヤエミゾ",
    "street": null,
    "office_name": null,
    "office_name_kana": null
  },
  "0933": {
    "postcode": "8490933",
    "prefecture": "佐賀県",
    "prefecture_kana": "サガケン",
    "prefecture_code": 41,
    "city": "佐賀市",
    "city_kana": "サガシ",
    "town": "卸本町",
    "town_kana": "オロシホンマチ",
    "street": null,
    "office_name": null,
    "office_name_kana": null
  },
  "0934": {
    "postcode": "8490934",
    "prefecture": "佐賀県",
    "prefecture_kana": "サガケン",
    "prefecture_code": 41,
    "city": "佐賀市",
    "city_kana": "サガシ",
    "town": "開成",
    "town_kana": "カイセイ",
    "street": null,
    "office_name": null,
    "office_name_kana": null
  },
  "0935": {
    "postcode": "8490935",
    "prefecture": "佐賀県",
    "prefecture_kana": "サガケン",
    "prefecture_code": 41,
    "city": "佐賀市",
    "city_kana": "サガシ",
    "town": "八戸溝",
    "town_kana": "ヤエミゾ",
    "street": null,
    "office_name": null,
    "office_name_kana": null
  },
  "0936": {
    "postcode": "8490936",
    "prefecture": "佐賀県",
    "prefecture_kana": "サガケン",
    "prefecture_code": 41,
    "city": "佐賀市",
    "city_kana": "サガシ",
    "town": "鍋島町森田",
    "town_kana": "ナベシママチモリタ",
    "street": null,
    "office_name": null,
    "office_name_kana": null
  },
  "0937": {
    "postcode": "8490937",
    "prefecture": "佐賀県",
    "prefecture_kana": "サガケン",
    "prefecture_code": 41,
    "city": "佐賀市",
    "city_kana": "サガシ",
    "town": "鍋島",
    "town_kana": "ナベシマ",
    "street": null,
    "office_name": null,
    "office_name_kana": null
  },
  "0938": {
    "postcode": "8490938",
    "prefecture": "佐賀県",
    "prefecture_kana": "サガケン",
    "prefecture_code": 41,
    "city": "佐賀市",
    "city_kana": "サガシ",
    "town": "鍋島町鍋島",
    "town_kana": "ナベシママチナベシマ",
    "street": null,
    "office_name": null,
    "office_name_kana": null
  },
  "1100": {
    "postcode": "8491100",
    "prefecture": "佐賀県",
    "prefecture_kana": "サガケン",
    "prefecture_code": 41,
    "city": "杵島郡白石町",
    "city_kana": "キシマグンシロイシチョウ",
    "town": "",
    "town_kana": "",
    "street": null,
    "office_name": null,
    "office_name_kana": null
  },
  "1101": {
    "postcode": "8491101",
    "prefecture": "佐賀県",
    "prefecture_kana": "サガケン",
    "prefecture_code": 41,
    "city": "杵島郡白石町",
    "city_kana": "キシマグンシロイシチョウ",
    "town": "今泉",
    "town_kana": "イマイズミ",
    "street": null,
    "office_name": null,
    "office_name_kana": null
  },
  "1102": {
    "postcode": "8491102",
    "prefecture": "佐賀県",
    "prefecture_kana": "サガケン",
    "prefecture_code": 41,
    "city": "杵島郡白石町",
    "city_kana": "キシマグンシロイシチョウ",
    "town": "大渡",
    "town_kana": "オオワタリ",
    "street": null,
    "office_name": null,
    "office_name_kana": null
  },
  "1103": {
    "postcode": "8491103",
    "prefecture": "佐賀県",
    "prefecture_kana": "サガケン",
    "prefecture_code": 41,
    "city": "杵島郡白石町",
    "city_kana": "キシマグンシロイシチョウ",
    "town": "築切",
    "town_kana": "ツイキリ",
    "street": null,
    "office_name": null,
    "office_name_kana": null
  },
  "1104": {
    "postcode": "8491104",
    "prefecture": "佐賀県",
    "prefecture_kana": "サガケン",
    "prefecture_code": 41,
    "city": "杵島郡白石町",
    "city_kana": "キシマグンシロイシチョウ",
    "town": "堤",
    "town_kana": "ツツミ",
    "street": null,
    "office_name": null,
    "office_name_kana": null
  },
  "1105": {
    "postcode": "8491105",
    "prefecture": "佐賀県",
    "prefecture_kana": "サガケン",
    "prefecture_code": 41,
    "city": "杵島郡白石町",
    "city_kana": "キシマグンシロイシチョウ",
    "town": "遠江",
    "town_kana": "トオノエ",
    "street": null,
    "office_name": null,
    "office_name_kana": null
  },
  "1106": {
    "postcode": "8491106",
    "prefecture": "佐賀県",
    "prefecture_kana": "サガケン",
    "prefecture_code": 41,
    "city": "杵島郡白石町",
    "city_kana": "キシマグンシロイシチョウ",
    "town": "廿治",
    "town_kana": "ハタチ",
    "street": null,
    "office_name": null,
    "office_name_kana": null
  },
  "1111": {
    "postcode": "8491111",
    "prefecture": "佐賀県",
    "prefecture_kana": "サガケン",
    "prefecture_code": 41,
    "city": "杵島郡白石町",
    "city_kana": "キシマグンシロイシチョウ",
    "town": "東郷",
    "town_kana": "ヒガシゴウ",
    "street": null,
    "office_name": null,
    "office_name_kana": null
  },
  "1112": {
    "postcode": "8491112",
    "prefecture": "佐賀県",
    "prefecture_kana": "サガケン",
    "prefecture_code": 41,
    "city": "杵島郡白石町",
    "city_kana": "キシマグンシロイシチョウ",
    "town": "福田",
    "town_kana": "フクタ",
    "street": null,
    "office_name": null,
    "office_name_kana": null
  },
  "1113": {
    "postcode": "8491113",
    "prefecture": "佐賀県",
    "prefecture_kana": "サガケン",
    "prefecture_code": 41,
    "city": "杵島郡白石町",
    "city_kana": "キシマグンシロイシチョウ",
    "town": "福吉",
    "town_kana": "フクヨシ",
    "street": null,
    "office_name": null,
    "office_name_kana": null
  },
  "1114": {
    "postcode": "8491114",
    "prefecture": "佐賀県",
    "prefecture_kana": "サガケン",
    "prefecture_code": 41,
    "city": "杵島郡白石町",
    "city_kana": "キシマグンシロイシチョウ",
    "town": "馬洗",
    "town_kana": "モウライ",
    "street": null,
    "office_name": null,
    "office_name_kana": null
  },
  "1115": {
    "postcode": "8491115",
    "prefecture": "佐賀県",
    "prefecture_kana": "サガケン",
    "prefecture_code": 41,
    "city": "杵島郡白石町",
    "city_kana": "キシマグンシロイシチョウ",
    "town": "湯崎",
    "town_kana": "ユザキ",
    "street": null,
    "office_name": null,
    "office_name_kana": null
  },
  "1116": {
    "postcode": "8491116",
    "prefecture": "佐賀県",
    "prefecture_kana": "サガケン",
    "prefecture_code": 41,
    "city": "杵島郡白石町",
    "city_kana": "キシマグンシロイシチョウ",
    "town": "横手",
    "town_kana": "ヨコテ",
    "street": null,
    "office_name": null,
    "office_name_kana": null
  },
  "1192": {
    "postcode": "8491192",
    "prefecture": "佐賀県",
    "prefecture_kana": "サガケン",
    "prefecture_code": 41,
    "city": "杵島郡白石町",
    "city_kana": "キシマグンシロイシチョウ",
    "town": "大字福田",
    "town_kana": null,
    "street": "１２４７番地１",
    "office_name": "白石町役場",
    "office_name_kana": "シロイシチヨウヤクバ"
  },
  "1201": {
    "postcode": "8491201",
    "prefecture": "佐賀県",
    "prefecture_kana": "サガケン",
    "prefecture_code": 41,
    "city": "杵島郡白石町",
    "city_kana": "キシマグンシロイシチョウ",
    "town": "牛屋",
    "town_kana": "ウシヤ",
    "street": null,
    "office_name": null,
    "office_name_kana": null
  },
  "1202": {
    "postcode": "8491202",
    "prefecture": "佐賀県",
    "prefecture_kana": "サガケン",
    "prefecture_code": 41,
    "city": "杵島郡白石町",
    "city_kana": "キシマグンシロイシチョウ",
    "town": "新明",
    "town_kana": "シンメイ",
    "street": null,
    "office_name": null,
    "office_name_kana": null
  },
  "1203": {
    "postcode": "8491203",
    "prefecture": "佐賀県",
    "prefecture_kana": "サガケン",
    "prefecture_code": 41,
    "city": "杵島郡白石町",
    "city_kana": "キシマグンシロイシチョウ",
    "town": "戸ケ里",
    "town_kana": "トガリ",
    "street": null,
    "office_name": null,
    "office_name_kana": null
  },
  "1204": {
    "postcode": "8491204",
    "prefecture": "佐賀県",
    "prefecture_kana": "サガケン",
    "prefecture_code": 41,
    "city": "杵島郡白石町",
    "city_kana": "キシマグンシロイシチョウ",
    "town": "坂田",
    "town_kana": "サカタ",
    "street": null,
    "office_name": null,
    "office_name_kana": null
  },
  "1205": {
    "postcode": "8491205",
    "prefecture": "佐賀県",
    "prefecture_kana": "サガケン",
    "prefecture_code": 41,
    "city": "杵島郡白石町",
    "city_kana": "キシマグンシロイシチョウ",
    "town": "田野上",
    "town_kana": "タノウエ",
    "street": null,
    "office_name": null,
    "office_name_kana": null
  },
  "1206": {
    "postcode": "8491206",
    "prefecture": "佐賀県",
    "prefecture_kana": "サガケン",
    "prefecture_code": 41,
    "city": "杵島郡白石町",
    "city_kana": "キシマグンシロイシチョウ",
    "town": "辺田",
    "town_kana": "ヘタ",
    "street": null,
    "office_name": null,
    "office_name_kana": null
  },
  "1207": {
    "postcode": "8491207",
    "prefecture": "佐賀県",
    "prefecture_kana": "サガケン",
    "prefecture_code": 41,
    "city": "杵島郡白石町",
    "city_kana": "キシマグンシロイシチョウ",
    "town": "深浦",
    "town_kana": "フカウラ",
    "street": null,
    "office_name": null,
    "office_name_kana": null
  },
  "1208": {
    "postcode": "8491208",
    "prefecture": "佐賀県",
    "prefecture_kana": "サガケン",
    "prefecture_code": 41,
    "city": "杵島郡白石町",
    "city_kana": "キシマグンシロイシチョウ",
    "town": "新開",
    "town_kana": "シンカイ",
    "street": null,
    "office_name": null,
    "office_name_kana": null
  },
  "1221": {
    "postcode": "8491221",
    "prefecture": "佐賀県",
    "prefecture_kana": "サガケン",
    "prefecture_code": 41,
    "city": "杵島郡白石町",
    "city_kana": "キシマグンシロイシチョウ",
    "town": "新拓",
    "town_kana": "シンタク",
    "street": null,
    "office_name": null,
    "office_name_kana": null
  },
  "1300": {
    "postcode": "8491300",
    "prefecture": "佐賀県",
    "prefecture_kana": "サガケン",
    "prefecture_code": 41,
    "city": "鹿島市",
    "city_kana": "カシマシ",
    "town": "",
    "town_kana": "",
    "street": null,
    "office_name": null,
    "office_name_kana": null
  },
  "1301": {
    "postcode": "8491301",
    "prefecture": "佐賀県",
    "prefecture_kana": "サガケン",
    "prefecture_code": 41,
    "city": "鹿島市",
    "city_kana": "カシマシ",
    "town": "常広",
    "town_kana": "ツネヒロ",
    "street": null,
    "office_name": null,
    "office_name_kana": null
  },
  "1302": {
    "postcode": "8491302",
    "prefecture": "佐賀県",
    "prefecture_kana": "サガケン",
    "prefecture_code": 41,
    "city": "鹿島市",
    "city_kana": "カシマシ",
    "town": "井手",
    "town_kana": "イデ",
    "street": null,
    "office_name": null,
    "office_name_kana": null
  },
  "1303": {
    "postcode": "8491303",
    "prefecture": "佐賀県",
    "prefecture_kana": "サガケン",
    "prefecture_code": 41,
    "city": "鹿島市",
    "city_kana": "カシマシ",
    "town": "森",
    "town_kana": "モリ",
    "street": null,
    "office_name": null,
    "office_name_kana": null
  },
  "1304": {
    "postcode": "8491304",
    "prefecture": "佐賀県",
    "prefecture_kana": "サガケン",
    "prefecture_code": 41,
    "city": "鹿島市",
    "city_kana": "カシマシ",
    "town": "中村",
    "town_kana": "ナカムラ",
    "street": null,
    "office_name": null,
    "office_name_kana": null
  },
  "1311": {
    "postcode": "8491311",
    "prefecture": "佐賀県",
    "prefecture_kana": "サガケン",
    "prefecture_code": 41,
    "city": "鹿島市",
    "city_kana": "カシマシ",
    "town": "高津原",
    "town_kana": "タカツハラ",
    "street": null,
    "office_name": null,
    "office_name_kana": null
  },
  "1312": {
    "postcode": "8491312",
    "prefecture": "佐賀県",
    "prefecture_kana": "サガケン",
    "prefecture_code": 41,
    "city": "鹿島市",
    "city_kana": "カシマシ",
    "town": "納富分",
    "town_kana": "ノウドミブン",
    "street": null,
    "office_name": null,
    "office_name_kana": null
  },
  "1313": {
    "postcode": "8491313",
    "prefecture": "佐賀県",
    "prefecture_kana": "サガケン",
    "prefecture_code": 41,
    "city": "鹿島市",
    "city_kana": "カシマシ",
    "town": "重ノ木",
    "town_kana": "ジュウノキ",
    "street": null,
    "office_name": null,
    "office_name_kana": null
  },
  "1314": {
    "postcode": "8491314",
    "prefecture": "佐賀県",
    "prefecture_kana": "サガケン",
    "prefecture_code": 41,
    "city": "鹿島市",
    "city_kana": "カシマシ",
    "town": "山浦",
    "town_kana": "ヤマウラ",
    "street": null,
    "office_name": null,
    "office_name_kana": null
  },
  "1315": {
    "postcode": "8491315",
    "prefecture": "佐賀県",
    "prefecture_kana": "サガケン",
    "prefecture_code": 41,
    "city": "鹿島市",
    "city_kana": "カシマシ",
    "town": "三河内",
    "town_kana": "ミカワチ",
    "street": null,
    "office_name": null,
    "office_name_kana": null
  },
  "1321": {
    "postcode": "8491321",
    "prefecture": "佐賀県",
    "prefecture_kana": "サガケン",
    "prefecture_code": 41,
    "city": "鹿島市",
    "city_kana": "カシマシ",
    "town": "古枝",
    "town_kana": "フルエダ",
    "street": null,
    "office_name": null,
    "office_name_kana": null
  },
  "1322": {
    "postcode": "8491322",
    "prefecture": "佐賀県",
    "prefecture_kana": "サガケン",
    "prefecture_code": 41,
    "city": "鹿島市",
    "city_kana": "カシマシ",
    "town": "浜町",
    "town_kana": "ハママチ",
    "street": null,
    "office_name": null,
    "office_name_kana": null
  },
  "1323": {
    "postcode": "8491323",
    "prefecture": "佐賀県",
    "prefecture_kana": "サガケン",
    "prefecture_code": 41,
    "city": "鹿島市",
    "city_kana": "カシマシ",
    "town": "音成",
    "town_kana": "オトナリ",
    "street": null,
    "office_name": null,
    "office_name_kana": null
  },
  "1324": {
    "postcode": "8491324",
    "prefecture": "佐賀県",
    "prefecture_kana": "サガケン",
    "prefecture_code": 41,
    "city": "鹿島市",
    "city_kana": "カシマシ",
    "town": "飯田",
    "town_kana": "イイダ",
    "street": null,
    "office_name": null,
    "office_name_kana": null
  },
  "1392": {
    "postcode": "8491392",
    "prefecture": "佐賀県",
    "prefecture_kana": "サガケン",
    "prefecture_code": 41,
    "city": "鹿島市",
    "city_kana": "カシマシ",
    "town": "大字高津原",
    "town_kana": null,
    "street": "４３０６番地",
    "office_name": "医療法人　祐愛会　織田病院",
    "office_name_kana": "イリヨウホウジン ユウアイカイ オダビヨウイン"
  },
  "1393": {
    "postcode": "8491393",
    "prefecture": "佐賀県",
    "prefecture_kana": "サガケン",
    "prefecture_code": 41,
    "city": "鹿島市",
    "city_kana": "カシマシ",
    "town": "大字納富分",
    "town_kana": null,
    "street": "２５９６番地１（鹿島郵便局私書箱第８号）",
    "office_name": "祐徳薬品工業　株式会社",
    "office_name_kana": "ユウトクヤクヒンコウギヨウ カブシキガイシヤ"
  },
  "1394": {
    "postcode": "8491394",
    "prefecture": "佐賀県",
    "prefecture_kana": "サガケン",
    "prefecture_code": 41,
    "city": "鹿島市",
    "city_kana": "カシマシ",
    "town": "古枝",
    "town_kana": "フルエダ",
    "street": "乙１８５５",
    "office_name": "祐徳稲荷神社",
    "office_name_kana": "ユウトクイナリジンジヤ"
  },
  "1401": {
    "postcode": "8491401",
    "prefecture": "佐賀県",
    "prefecture_kana": "サガケン",
    "prefecture_code": 41,
    "city": "嬉野市",
    "city_kana": "ウレシノシ",
    "town": "塩田町久間甲",
    "town_kana": "シオタチョウクマコウ",
    "street": null,
    "office_name": null,
    "office_name_kana": null
  },
  "1402": {
    "postcode": "8491402",
    "prefecture": "佐賀県",
    "prefecture_kana": "サガケン",
    "prefecture_code": 41,
    "city": "嬉野市",
    "city_kana": "ウレシノシ",
    "town": "塩田町久間乙",
    "town_kana": "シオタチョウクマオツ",
    "street": null,
    "office_name": null,
    "office_name_kana": null
  },
  "1403": {
    "postcode": "8491403",
    "prefecture": "佐賀県",
    "prefecture_kana": "サガケン",
    "prefecture_code": 41,
    "city": "嬉野市",
    "city_kana": "ウレシノシ",
    "town": "塩田町久間丙",
    "town_kana": "シオタチョウクマヘイ",
    "street": null,
    "office_name": null,
    "office_name_kana": null
  },
  "1404": {
    "postcode": "8491404",
    "prefecture": "佐賀県",
    "prefecture_kana": "サガケン",
    "prefecture_code": 41,
    "city": "嬉野市",
    "city_kana": "ウレシノシ",
    "town": "塩田町久間丁",
    "town_kana": "シオタチョウクマテイ",
    "street": null,
    "office_name": null,
    "office_name_kana": null
  },
  "1411": {
    "postcode": "8491411",
    "prefecture": "佐賀県",
    "prefecture_kana": "サガケン",
    "prefecture_code": 41,
    "city": "嬉野市",
    "city_kana": "ウレシノシ",
    "town": "塩田町馬場下甲",
    "town_kana": "シオタチョウババシタコウ",
    "street": null,
    "office_name": null,
    "office_name_kana": null
  },
  "1412": {
    "postcode": "8491412",
    "prefecture": "佐賀県",
    "prefecture_kana": "サガケン",
    "prefecture_code": 41,
    "city": "嬉野市",
    "city_kana": "ウレシノシ",
    "town": "塩田町馬場下乙",
    "town_kana": "シオタチョウババシタオツ",
    "street": null,
    "office_name": null,
    "office_name_kana": null
  },
  "1413": {
    "postcode": "8491413",
    "prefecture": "佐賀県",
    "prefecture_kana": "サガケン",
    "prefecture_code": 41,
    "city": "嬉野市",
    "city_kana": "ウレシノシ",
    "town": "塩田町馬場下丙",
    "town_kana": "シオタチョウババシタヘイ",
    "street": null,
    "office_name": null,
    "office_name_kana": null
  },
  "1414": {
    "postcode": "8491414",
    "prefecture": "佐賀県",
    "prefecture_kana": "サガケン",
    "prefecture_code": 41,
    "city": "嬉野市",
    "city_kana": "ウレシノシ",
    "town": "塩田町大草野甲",
    "town_kana": "シオタチョウオオクサノコウ",
    "street": null,
    "office_name": null,
    "office_name_kana": null
  },
  "1415": {
    "postcode": "8491415",
    "prefecture": "佐賀県",
    "prefecture_kana": "サガケン",
    "prefecture_code": 41,
    "city": "嬉野市",
    "city_kana": "ウレシノシ",
    "town": "塩田町大草野丙",
    "town_kana": "シオタチョウオオクサノヘイ",
    "street": null,
    "office_name": null,
    "office_name_kana": null
  },
  "1416": {
    "postcode": "8491416",
    "prefecture": "佐賀県",
    "prefecture_kana": "サガケン",
    "prefecture_code": 41,
    "city": "嬉野市",
    "city_kana": "ウレシノシ",
    "town": "塩田町大草野乙",
    "town_kana": "シオタチョウオオクサノオツ",
    "street": null,
    "office_name": null,
    "office_name_kana": null
  },
  "1421": {
    "postcode": "8491421",
    "prefecture": "佐賀県",
    "prefecture_kana": "サガケン",
    "prefecture_code": 41,
    "city": "嬉野市",
    "city_kana": "ウレシノシ",
    "town": "塩田町真崎",
    "town_kana": "シオタチョウマツサキ",
    "street": null,
    "office_name": null,
    "office_name_kana": null
  },
  "1422": {
    "postcode": "8491422",
    "prefecture": "佐賀県",
    "prefecture_kana": "サガケン",
    "prefecture_code": 41,
    "city": "嬉野市",
    "city_kana": "ウレシノシ",
    "town": "塩田町谷所甲",
    "town_kana": "シオタチョウタニドコロコウ",
    "street": null,
    "office_name": null,
    "office_name_kana": null
  },
  "1423": {
    "postcode": "8491423",
    "prefecture": "佐賀県",
    "prefecture_kana": "サガケン",
    "prefecture_code": 41,
    "city": "嬉野市",
    "city_kana": "ウレシノシ",
    "town": "塩田町谷所乙",
    "town_kana": "シオタチョウタニドコロオツ",
    "street": null,
    "office_name": null,
    "office_name_kana": null
  },
  "1424": {
    "postcode": "8491424",
    "prefecture": "佐賀県",
    "prefecture_kana": "サガケン",
    "prefecture_code": 41,
    "city": "嬉野市",
    "city_kana": "ウレシノシ",
    "town": "塩田町谷所丙",
    "town_kana": "シオタチョウタニドコロヘイ",
    "street": null,
    "office_name": null,
    "office_name_kana": null
  },
  "1425": {
    "postcode": "8491425",
    "prefecture": "佐賀県",
    "prefecture_kana": "サガケン",
    "prefecture_code": 41,
    "city": "嬉野市",
    "city_kana": "ウレシノシ",
    "town": "塩田町五町田甲",
    "town_kana": "シオタチョウゴチョウダコウ",
    "street": null,
    "office_name": null,
    "office_name_kana": null
  },
  "1426": {
    "postcode": "8491426",
    "prefecture": "佐賀県",
    "prefecture_kana": "サガケン",
    "prefecture_code": 41,
    "city": "嬉野市",
    "city_kana": "ウレシノシ",
    "town": "塩田町五町田乙",
    "town_kana": "シオタチョウゴチョウダオツ",
    "street": null,
    "office_name": null,
    "office_name_kana": null
  },
  "1492": {
    "postcode": "8491492",
    "prefecture": "佐賀県",
    "prefecture_kana": "サガケン",
    "prefecture_code": 41,
    "city": "嬉野市",
    "city_kana": "ウレシノシ",
    "town": "塩田町大字馬場下",
    "town_kana": null,
    "street": "甲１７６９",
    "office_name": "嬉野市役所",
    "office_name_kana": "ウレシノシヤクシヨ"
  },
  "1600": {
    "postcode": "8491600",
    "prefecture": "佐賀県",
    "prefecture_kana": "サガケン",
    "prefecture_code": 41,
    "city": "藤津郡太良町",
    "city_kana": "フジツグンタラチョウ",
    "town": "",
    "town_kana": "",
    "street": null,
    "office_name": null,
    "office_name_kana": null
  },
  "1601": {
    "postcode": "8491601",
    "prefecture": "佐賀県",
    "prefecture_kana": "サガケン",
    "prefecture_code": 41,
    "city": "藤津郡太良町",
    "city_kana": "フジツグンタラチョウ",
    "town": "伊福甲",
    "town_kana": "イフクコウ",
    "street": null,
    "office_name": null,
    "office_name_kana": null
  },
  "1602": {
    "postcode": "8491602",
    "prefecture": "佐賀県",
    "prefecture_kana": "サガケン",
    "prefecture_code": 41,
    "city": "藤津郡太良町",
    "city_kana": "フジツグンタラチョウ",
    "town": "多良",
    "town_kana": "タラ",
    "street": null,
    "office_name": null,
    "office_name_kana": null
  },
  "1603": {
    "postcode": "8491603",
    "prefecture": "佐賀県",
    "prefecture_kana": "サガケン",
    "prefecture_code": 41,
    "city": "藤津郡太良町",
    "city_kana": "フジツグンタラチョウ",
    "town": "糸岐",
    "town_kana": "イトキ",
    "street": null,
    "office_name": null,
    "office_name_kana": null
  },
  "1611": {
    "postcode": "8491611",
    "prefecture": "佐賀県",
    "prefecture_kana": "サガケン",
    "prefecture_code": 41,
    "city": "藤津郡太良町",
    "city_kana": "フジツグンタラチョウ",
    "town": "大浦戊",
    "town_kana": "オオウラボ",
    "street": null,
    "office_name": null,
    "office_name_kana": null
  },
  "1612": {
    "postcode": "8491612",
    "prefecture": "佐賀県",
    "prefecture_kana": "サガケン",
    "prefecture_code": 41,
    "city": "藤津郡太良町",
    "city_kana": "フジツグンタラチョウ",
    "town": "大浦丁",
    "town_kana": "オオウラテイ",
    "street": null,
    "office_name": null,
    "office_name_kana": null
  },
  "1613": {
    "postcode": "8491613",
    "prefecture": "佐賀県",
    "prefecture_kana": "サガケン",
    "prefecture_code": 41,
    "city": "藤津郡太良町",
    "city_kana": "フジツグンタラチョウ",
    "town": "大浦丙",
    "town_kana": "オオウラヘイ",
    "street": null,
    "office_name": null,
    "office_name_kana": null
  },
  "1614": {
    "postcode": "8491614",
    "prefecture": "佐賀県",
    "prefecture_kana": "サガケン",
    "prefecture_code": 41,
    "city": "藤津郡太良町",
    "city_kana": "フジツグンタラチョウ",
    "town": "大浦甲",
    "town_kana": "オオウラコウ",
    "street": null,
    "office_name": null,
    "office_name_kana": null
  },
  "1615": {
    "postcode": "8491615",
    "prefecture": "佐賀県",
    "prefecture_kana": "サガケン",
    "prefecture_code": 41,
    "city": "藤津郡太良町",
    "city_kana": "フジツグンタラチョウ",
    "town": "大浦乙",
    "town_kana": "オオウラオツ",
    "street": null,
    "office_name": null,
    "office_name_kana": null
  },
  "1616": {
    "postcode": "8491616",
    "prefecture": "佐賀県",
    "prefecture_kana": "サガケン",
    "prefecture_code": 41,
    "city": "藤津郡太良町",
    "city_kana": "フジツグンタラチョウ",
    "town": "大浦己",
    "town_kana": "オオウラキ",
    "street": null,
    "office_name": null,
    "office_name_kana": null
  },
  "1698": {
    "postcode": "8491698",
    "prefecture": "佐賀県",
    "prefecture_kana": "サガケン",
    "prefecture_code": 41,
    "city": "藤津郡太良町",
    "city_kana": "フジツグンタラチョウ",
    "town": "大字多良",
    "town_kana": null,
    "street": "１−６",
    "office_name": "太良町役場",
    "office_name_kana": "タラチヨウヤクバ"
  },
  "2100": {
    "postcode": "8492100",
    "prefecture": "佐賀県",
    "prefecture_kana": "サガケン",
    "prefecture_code": 41,
    "city": "杵島郡大町町",
    "city_kana": "キシマグンオオマチチョウ",
    "town": "",
    "town_kana": "",
    "street": null,
    "office_name": null,
    "office_name_kana": null
  },
  "2101": {
    "postcode": "8492101",
    "prefecture": "佐賀県",
    "prefecture_kana": "サガケン",
    "prefecture_code": 41,
    "city": "杵島郡大町町",
    "city_kana": "キシマグンオオマチチョウ",
    "town": "大町",
    "town_kana": "オオマチ",
    "street": null,
    "office_name": null,
    "office_name_kana": null
  },
  "2102": {
    "postcode": "8492102",
    "prefecture": "佐賀県",
    "prefecture_kana": "サガケン",
    "prefecture_code": 41,
    "city": "杵島郡大町町",
    "city_kana": "キシマグンオオマチチョウ",
    "town": "福母",
    "town_kana": "フクモ",
    "street": null,
    "office_name": null,
    "office_name_kana": null
  },
  "2201": {
    "postcode": "8492201",
    "prefecture": "佐賀県",
    "prefecture_kana": "サガケン",
    "prefecture_code": 41,
    "city": "武雄市",
    "city_kana": "タケオシ",
    "town": "北方町志久",
    "town_kana": "キタガタチョウシク",
    "street": null,
    "office_name": null,
    "office_name_kana": null
  },
  "2202": {
    "postcode": "8492202",
    "prefecture": "佐賀県",
    "prefecture_kana": "サガケン",
    "prefecture_code": 41,
    "city": "武雄市",
    "city_kana": "タケオシ",
    "town": "北方町大渡",
    "town_kana": "キタガタチョウオオワタリ",
    "street": null,
    "office_name": null,
    "office_name_kana": null
  },
  "2203": {
    "postcode": "8492203",
    "prefecture": "佐賀県",
    "prefecture_kana": "サガケン",
    "prefecture_code": 41,
    "city": "武雄市",
    "city_kana": "タケオシ",
    "town": "北方町芦原",
    "town_kana": "キタガタチョウアシハラ",
    "street": null,
    "office_name": null,
    "office_name_kana": null
  },
  "2204": {
    "postcode": "8492204",
    "prefecture": "佐賀県",
    "prefecture_kana": "サガケン",
    "prefecture_code": 41,
    "city": "武雄市",
    "city_kana": "タケオシ",
    "town": "北方町大崎",
    "town_kana": "キタガタチョウオオサキ",
    "street": null,
    "office_name": null,
    "office_name_kana": null
  },
  "2301": {
    "postcode": "8492301",
    "prefecture": "佐賀県",
    "prefecture_kana": "サガケン",
    "prefecture_code": 41,
    "city": "武雄市",
    "city_kana": "タケオシ",
    "town": "山内町犬走",
    "town_kana": "ヤマウチチョウイヌバシリ",
    "street": null,
    "office_name": null,
    "office_name_kana": null
  },
  "2302": {
    "postcode": "8492302",
    "prefecture": "佐賀県",
    "prefecture_kana": "サガケン",
    "prefecture_code": 41,
    "city": "武雄市",
    "city_kana": "タケオシ",
    "town": "山内町鳥海",
    "town_kana": "ヤマウチチョウトノミ",
    "street": null,
    "office_name": null,
    "office_name_kana": null
  },
  "2303": {
    "postcode": "8492303",
    "prefecture": "佐賀県",
    "prefecture_kana": "サガケン",
    "prefecture_code": 41,
    "city": "武雄市",
    "city_kana": "タケオシ",
    "town": "山内町三間坂",
    "town_kana": "ヤマウチチョウミマサカ",
    "street": null,
    "office_name": null,
    "office_name_kana": null
  },
  "2304": {
    "postcode": "8492304",
    "prefecture": "佐賀県",
    "prefecture_kana": "サガケン",
    "prefecture_code": 41,
    "city": "武雄市",
    "city_kana": "タケオシ",
    "town": "山内町大野",
    "town_kana": "ヤマウチチョウオオノ",
    "street": null,
    "office_name": null,
    "office_name_kana": null
  },
  "2305": {
    "postcode": "8492305",
    "prefecture": "佐賀県",
    "prefecture_kana": "サガケン",
    "prefecture_code": 41,
    "city": "武雄市",
    "city_kana": "タケオシ",
    "town": "山内町宮野",
    "town_kana": "ヤマウチチョウミヤノ",
    "street": null,
    "office_name": null,
    "office_name_kana": null
  },
  "2341": {
    "postcode": "8492341",
    "prefecture": "佐賀県",
    "prefecture_kana": "サガケン",
    "prefecture_code": 41,
    "city": "武雄市",
    "city_kana": "タケオシ",
    "town": "武内町梅野",
    "town_kana": "タケウチチョウウメノ",
    "street": null,
    "office_name": null,
    "office_name_kana": null
  },
  "2342": {
    "postcode": "8492342",
    "prefecture": "佐賀県",
    "prefecture_kana": "サガケン",
    "prefecture_code": 41,
    "city": "武雄市",
    "city_kana": "タケオシ",
    "town": "武内町真手野",
    "town_kana": "タケウチチョウマテノ",
    "street": null,
    "office_name": null,
    "office_name_kana": null
  },
  "2392": {
    "postcode": "8492392",
    "prefecture": "佐賀県",
    "prefecture_kana": "サガケン",
    "prefecture_code": 41,
    "city": "武雄市",
    "city_kana": "タケオシ",
    "town": "山内町大字鳥海",
    "town_kana": null,
    "street": "１１１２５番地",
    "office_name": "九州製鋼　株式会社　佐賀工場",
    "office_name_kana": "キユウシユウセイコウ カブシキガイシヤ サガコウジヨウ"
  },
  "2393": {
    "postcode": "8492393",
    "prefecture": "佐賀県",
    "prefecture_kana": "サガケン",
    "prefecture_code": 41,
    "city": "武雄市",
    "city_kana": "タケオシ",
    "town": "山内町大字三間坂",
    "town_kana": null,
    "street": "甲１３８００",
    "office_name": "武雄市役所　山内支所",
    "office_name_kana": "タケオシヤクシヨ ヤマウチシシヨ"
  },
  "2395": {
    "postcode": "8492395",
    "prefecture": "佐賀県",
    "prefecture_kana": "サガケン",
    "prefecture_code": 41,
    "city": "武雄市",
    "city_kana": "タケオシ",
    "town": "山内町大字鳥海",
    "town_kana": null,
    "street": "字椿原１１１２５",
    "office_name": "清本鉄工　株式会社　佐賀支社",
    "office_name_kana": "キヨモトテツコウ カブシキガイシヤ サガシシヤ"
  },
  "3101": {
    "postcode": "8493101",
    "prefecture": "佐賀県",
    "prefecture_kana": "サガケン",
    "prefecture_code": 41,
    "city": "唐津市",
    "city_kana": "カラツシ",
    "town": "厳木町天川",
    "town_kana": "キュウラギマチアマガワ",
    "street": null,
    "office_name": null,
    "office_name_kana": null
  },
  "3102": {
    "postcode": "8493102",
    "prefecture": "佐賀県",
    "prefecture_kana": "サガケン",
    "prefecture_code": 41,
    "city": "唐津市",
    "city_kana": "カラツシ",
    "town": "厳木町鳥越",
    "town_kana": "キュウラギマチトリゴエ",
    "street": null,
    "office_name": null,
    "office_name_kana": null
  },
  "3103": {
    "postcode": "8493103",
    "prefecture": "佐賀県",
    "prefecture_kana": "サガケン",
    "prefecture_code": 41,
    "city": "唐津市",
    "city_kana": "カラツシ",
    "town": "厳木町広川",
    "town_kana": "キュウラギマチヒロカワ",
    "street": null,
    "office_name": null,
    "office_name_kana": null
  },
  "3104": {
    "postcode": "8493104",
    "prefecture": "佐賀県",
    "prefecture_kana": "サガケン",
    "prefecture_code": 41,
    "city": "唐津市",
    "city_kana": "カラツシ",
    "town": "厳木町星領",
    "town_kana": "キュウラギマチホシリョウ",
    "street": null,
    "office_name": null,
    "office_name_kana": null
  },
  "3111": {
    "postcode": "8493111",
    "prefecture": "佐賀県",
    "prefecture_kana": "サガケン",
    "prefecture_code": 41,
    "city": "唐津市",
    "city_kana": "カラツシ",
    "town": "厳木町広瀬",
    "town_kana": "キュウラギマチヒロセ",
    "street": null,
    "office_name": null,
    "office_name_kana": null
  },
  "3112": {
    "postcode": "8493112",
    "prefecture": "佐賀県",
    "prefecture_kana": "サガケン",
    "prefecture_code": 41,
    "city": "唐津市",
    "city_kana": "カラツシ",
    "town": "厳木町中島",
    "town_kana": "キュウラギマチナカシマ",
    "street": null,
    "office_name": null,
    "office_name_kana": null
  },
  "3113": {
    "postcode": "8493113",
    "prefecture": "佐賀県",
    "prefecture_kana": "サガケン",
    "prefecture_code": 41,
    "city": "唐津市",
    "city_kana": "カラツシ",
    "town": "厳木町牧瀬",
    "town_kana": "キュウラギマチマキセ",
    "street": null,
    "office_name": null,
    "office_name_kana": null
  },
  "3114": {
    "postcode": "8493114",
    "prefecture": "佐賀県",
    "prefecture_kana": "サガケン",
    "prefecture_code": 41,
    "city": "唐津市",
    "city_kana": "カラツシ",
    "town": "厳木町浦川内",
    "town_kana": "キュウラギマチウラガワチ",
    "street": null,
    "office_name": null,
    "office_name_kana": null
  },
  "3115": {
    "postcode": "8493115",
    "prefecture": "佐賀県",
    "prefecture_kana": "サガケン",
    "prefecture_code": 41,
    "city": "唐津市",
    "city_kana": "カラツシ",
    "town": "厳木町平之",
    "town_kana": "キュウラギマチヒラノ",
    "street": null,
    "office_name": null,
    "office_name_kana": null
  },
  "3121": {
    "postcode": "8493121",
    "prefecture": "佐賀県",
    "prefecture_kana": "サガケン",
    "prefecture_code": 41,
    "city": "唐津市",
    "city_kana": "カラツシ",
    "town": "厳木町瀬戸木場",
    "town_kana": "キュウラギマチセトコバ",
    "street": null,
    "office_name": null,
    "office_name_kana": null
  },
  "3122": {
    "postcode": "8493122",
    "prefecture": "佐賀県",
    "prefecture_kana": "サガケン",
    "prefecture_code": 41,
    "city": "唐津市",
    "city_kana": "カラツシ",
    "town": "厳木町浪瀬",
    "town_kana": "キュウラギマチナミセ",
    "street": null,
    "office_name": null,
    "office_name_kana": null
  },
  "3123": {
    "postcode": "8493123",
    "prefecture": "佐賀県",
    "prefecture_kana": "サガケン",
    "prefecture_code": 41,
    "city": "唐津市",
    "city_kana": "カラツシ",
    "town": "厳木町岩屋",
    "town_kana": "キュウラギマチイワヤ",
    "street": null,
    "office_name": null,
    "office_name_kana": null
  },
  "3131": {
    "postcode": "8493131",
    "prefecture": "佐賀県",
    "prefecture_kana": "サガケン",
    "prefecture_code": 41,
    "city": "唐津市",
    "city_kana": "カラツシ",
    "town": "厳木町厳木",
    "town_kana": "キュウラギマチキュウラギ",
    "street": null,
    "office_name": null,
    "office_name_kana": null
  },
  "3132": {
    "postcode": "8493132",
    "prefecture": "佐賀県",
    "prefecture_kana": "サガケン",
    "prefecture_code": 41,
    "city": "唐津市",
    "city_kana": "カラツシ",
    "town": "厳木町うつぼ木",
    "town_kana": "キュウラギマチウツボキ",
    "street": null,
    "office_name": null,
    "office_name_kana": null
  },
  "3133": {
    "postcode": "8493133",
    "prefecture": "佐賀県",
    "prefecture_kana": "サガケン",
    "prefecture_code": 41,
    "city": "唐津市",
    "city_kana": "カラツシ",
    "town": "厳木町本山",
    "town_kana": "キュウラギマチモトヤマ",
    "street": null,
    "office_name": null,
    "office_name_kana": null
  },
  "3192": {
    "postcode": "8493192",
    "prefecture": "佐賀県",
    "prefecture_kana": "サガケン",
    "prefecture_code": 41,
    "city": "唐津市",
    "city_kana": "カラツシ",
    "town": "厳木町厳木",
    "town_kana": "キュウラギマチキュウラギ",
    "street": "９９７",
    "office_name": "唐津市役所　厳木支所",
    "office_name_kana": "カラツシヤクシヨ キユウラギシシヨ"
  },
  "3193": {
    "postcode": "8493193",
    "prefecture": "佐賀県",
    "prefecture_kana": "サガケン",
    "prefecture_code": 41,
    "city": "唐津市",
    "city_kana": "カラツシ",
    "town": "厳木町厳木",
    "town_kana": "キュウラギマチキュウラギ",
    "street": "７２７",
    "office_name": "佐賀県立　厳木高等学校",
    "office_name_kana": "サガケンリツ キユウラギコウトウガツコウ"
  },
  "3201": {
    "postcode": "8493201",
    "prefecture": "佐賀県",
    "prefecture_kana": "サガケン",
    "prefecture_code": 41,
    "city": "唐津市",
    "city_kana": "カラツシ",
    "town": "相知町相知",
    "town_kana": "オウチチョウオウチ",
    "street": null,
    "office_name": null,
    "office_name_kana": null
  },
  "3202": {
    "postcode": "8493202",
    "prefecture": "佐賀県",
    "prefecture_kana": "サガケン",
    "prefecture_code": 41,
    "city": "唐津市",
    "city_kana": "カラツシ",
    "town": "相知町平山下",
    "town_kana": "オウチチョウヒラヤマシモ",
    "street": null,
    "office_name": null,
    "office_name_kana": null
  },
  "3203": {
    "postcode": "8493203",
    "prefecture": "佐賀県",
    "prefecture_kana": "サガケン",
    "prefecture_code": 41,
    "city": "唐津市",
    "city_kana": "カラツシ",
    "town": "相知町平山上",
    "town_kana": "オウチチョウヒラヤマカミ",
    "street": null,
    "office_name": null,
    "office_name_kana": null
  },
  "3211": {
    "postcode": "8493211",
    "prefecture": "佐賀県",
    "prefecture_kana": "サガケン",
    "prefecture_code": 41,
    "city": "唐津市",
    "city_kana": "カラツシ",
    "town": "相知町千束",
    "town_kana": "オウチチョウセンゾク",
    "street": null,
    "office_name": null,
    "office_name_kana": null
  },
  "3212": {
    "postcode": "8493212",
    "prefecture": "佐賀県",
    "prefecture_kana": "サガケン",
    "prefecture_code": 41,
    "city": "唐津市",
    "city_kana": "カラツシ",
    "town": "相知町横枕",
    "town_kana": "オウチチョウヨコマクラ",
    "street": null,
    "office_name": null,
    "office_name_kana": null
  },
  "3213": {
    "postcode": "8493213",
    "prefecture": "佐賀県",
    "prefecture_kana": "サガケン",
    "prefecture_code": 41,
    "city": "唐津市",
    "city_kana": "カラツシ",
    "town": "相知町湯屋",
    "town_kana": "オウチチョウユヤ",
    "street": null,
    "office_name": null,
    "office_name_kana": null
  },
  "3214": {
    "postcode": "8493214",
    "prefecture": "佐賀県",
    "prefecture_kana": "サガケン",
    "prefecture_code": 41,
    "city": "唐津市",
    "city_kana": "カラツシ",
    "town": "相知町田頭",
    "town_kana": "オウチチョウタガシラ",
    "street": null,
    "office_name": null,
    "office_name_kana": null
  },
  "3215": {
    "postcode": "8493215",
    "prefecture": "佐賀県",
    "prefecture_kana": "サガケン",
    "prefecture_code": 41,
    "city": "唐津市",
    "city_kana": "カラツシ",
    "town": "相知町楠",
    "town_kana": "オウチチョウクス",
    "street": null,
    "office_name": null,
    "office_name_kana": null
  },
  "3216": {
    "postcode": "8493216",
    "prefecture": "佐賀県",
    "prefecture_kana": "サガケン",
    "prefecture_code": 41,
    "city": "唐津市",
    "city_kana": "カラツシ",
    "town": "相知町町切",
    "town_kana": "オウチチョウチョウギリ",
    "street": null,
    "office_name": null,
    "office_name_kana": null
  },
  "3217": {
    "postcode": "8493217",
    "prefecture": "佐賀県",
    "prefecture_kana": "サガケン",
    "prefecture_code": 41,
    "city": "唐津市",
    "city_kana": "カラツシ",
    "town": "相知町長部田",
    "town_kana": "オウチチョウナガヘタ",
    "street": null,
    "office_name": null,
    "office_name_kana": null
  },
  "3218": {
    "postcode": "8493218",
    "prefecture": "佐賀県",
    "prefecture_kana": "サガケン",
    "prefecture_code": 41,
    "city": "唐津市",
    "city_kana": "カラツシ",
    "town": "相知町中山",
    "town_kana": "オウチチョウナカヤマ",
    "street": null,
    "office_name": null,
    "office_name_kana": null
  },
  "3219": {
    "postcode": "8493219",
    "prefecture": "佐賀県",
    "prefecture_kana": "サガケン",
    "prefecture_code": 41,
    "city": "唐津市",
    "city_kana": "カラツシ",
    "town": "相知町鷹取",
    "town_kana": "オウチチョウタカトリ",
    "street": null,
    "office_name": null,
    "office_name_kana": null
  },
  "3221": {
    "postcode": "8493221",
    "prefecture": "佐賀県",
    "prefecture_kana": "サガケン",
    "prefecture_code": 41,
    "city": "唐津市",
    "city_kana": "カラツシ",
    "town": "相知町大野",
    "town_kana": "オウチチョウオオノ",
    "street": null,
    "office_name": null,
    "office_name_kana": null
  },
  "3222": {
    "postcode": "8493222",
    "prefecture": "佐賀県",
    "prefecture_kana": "サガケン",
    "prefecture_code": 41,
    "city": "唐津市",
    "city_kana": "カラツシ",
    "town": "相知町黒岩",
    "town_kana": "オウチチョウクロイワ",
    "street": null,
    "office_name": null,
    "office_name_kana": null
  },
  "3223": {
    "postcode": "8493223",
    "prefecture": "佐賀県",
    "prefecture_kana": "サガケン",
    "prefecture_code": 41,
    "city": "唐津市",
    "city_kana": "カラツシ",
    "town": "相知町伊岐佐",
    "town_kana": "オウチチョウイキサ",
    "street": null,
    "office_name": null,
    "office_name_kana": null
  },
  "3224": {
    "postcode": "8493224",
    "prefecture": "佐賀県",
    "prefecture_kana": "サガケン",
    "prefecture_code": 41,
    "city": "唐津市",
    "city_kana": "カラツシ",
    "town": "相知町山崎",
    "town_kana": "オウチチョウヤマサキ",
    "street": null,
    "office_name": null,
    "office_name_kana": null
  },
  "3231": {
    "postcode": "8493231",
    "prefecture": "佐賀県",
    "prefecture_kana": "サガケン",
    "prefecture_code": 41,
    "city": "唐津市",
    "city_kana": "カラツシ",
    "town": "相知町牟田部",
    "town_kana": "オウチチョウムタベ",
    "street": null,
    "office_name": null,
    "office_name_kana": null
  },
  "3232": {
    "postcode": "8493232",
    "prefecture": "佐賀県",
    "prefecture_kana": "サガケン",
    "prefecture_code": 41,
    "city": "唐津市",
    "city_kana": "カラツシ",
    "town": "相知町久保",
    "town_kana": "オウチチョウクボ",
    "street": null,
    "office_name": null,
    "office_name_kana": null
  },
  "3233": {
    "postcode": "8493233",
    "prefecture": "佐賀県",
    "prefecture_kana": "サガケン",
    "prefecture_code": 41,
    "city": "唐津市",
    "city_kana": "カラツシ",
    "town": "相知町佐里",
    "town_kana": "オウチチョウサリ",
    "street": null,
    "office_name": null,
    "office_name_kana": null
  },
  "3292": {
    "postcode": "8493292",
    "prefecture": "佐賀県",
    "prefecture_kana": "サガケン",
    "prefecture_code": 41,
    "city": "唐津市",
    "city_kana": "カラツシ",
    "town": "相知町相知",
    "town_kana": "オウチチョウオウチ",
    "street": "２０５５−１",
    "office_name": "唐津市役所　相知支所",
    "office_name_kana": "カラツシヤクシヨ オウチシシヨ"
  },
  "3293": {
    "postcode": "8493293",
    "prefecture": "佐賀県",
    "prefecture_kana": "サガケン",
    "prefecture_code": 41,
    "city": "唐津市",
    "city_kana": "カラツシ",
    "town": "相知町中山",
    "town_kana": "オウチチョウナカヤマ",
    "street": "３５２３",
    "office_name": "佐賀松浦　農業協同組合",
    "office_name_kana": "サガマツウラ ノウギヨウキヨウドウクミアイ"
  },
  "4141": {
    "postcode": "8494141",
    "prefecture": "佐賀県",
    "prefecture_kana": "サガケン",
    "prefecture_code": 41,
    "city": "西松浦郡有田町",
    "city_kana": "ニシマツウラグンアリタチョウ",
    "town": "二ノ瀬",
    "town_kana": "ニノセ",
    "street": null,
    "office_name": null,
    "office_name_kana": null
  },
  "4142": {
    "postcode": "8494142",
    "prefecture": "佐賀県",
    "prefecture_kana": "サガケン",
    "prefecture_code": 41,
    "city": "西松浦郡有田町",
    "city_kana": "ニシマツウラグンアリタチョウ",
    "town": "山谷牧",
    "town_kana": "ヤマダニマキ",
    "street": null,
    "office_name": null,
    "office_name_kana": null
  },
  "4143": {
    "postcode": "8494143",
    "prefecture": "佐賀県",
    "prefecture_kana": "サガケン",
    "prefecture_code": 41,
    "city": "西松浦郡有田町",
    "city_kana": "ニシマツウラグンアリタチョウ",
    "town": "下山谷",
    "town_kana": "シモヤマダニ",
    "street": null,
    "office_name": null,
    "office_name_kana": null
  },
  "4144": {
    "postcode": "8494144",
    "prefecture": "佐賀県",
    "prefecture_kana": "サガケン",
    "prefecture_code": 41,
    "city": "西松浦郡有田町",
    "city_kana": "ニシマツウラグンアリタチョウ",
    "town": "上山谷",
    "town_kana": "カミヤマダニ",
    "street": null,
    "office_name": null,
    "office_name_kana": null
  },
  "4145": {
    "postcode": "8494145",
    "prefecture": "佐賀県",
    "prefecture_kana": "サガケン",
    "prefecture_code": 41,
    "city": "西松浦郡有田町",
    "city_kana": "ニシマツウラグンアリタチョウ",
    "town": "山谷切口",
    "town_kana": "ヤマダニキリグチ",
    "street": null,
    "office_name": null,
    "office_name_kana": null
  },
  "4146": {
    "postcode": "8494146",
    "prefecture": "佐賀県",
    "prefecture_kana": "サガケン",
    "prefecture_code": 41,
    "city": "西松浦郡有田町",
    "city_kana": "ニシマツウラグンアリタチョウ",
    "town": "岳",
    "town_kana": "タケ",
    "street": null,
    "office_name": null,
    "office_name_kana": null
  },
  "4151": {
    "postcode": "8494151",
    "prefecture": "佐賀県",
    "prefecture_kana": "サガケン",
    "prefecture_code": 41,
    "city": "西松浦郡有田町",
    "city_kana": "ニシマツウラグンアリタチョウ",
    "town": "広瀬山",
    "town_kana": "ヒロセヤマ",
    "street": null,
    "office_name": null,
    "office_name_kana": null
  },
  "4152": {
    "postcode": "8494152",
    "prefecture": "佐賀県",
    "prefecture_kana": "サガケン",
    "prefecture_code": 41,
    "city": "西松浦郡有田町",
    "city_kana": "ニシマツウラグンアリタチョウ",
    "town": "広瀬",
    "town_kana": "ヒロセ",
    "street": null,
    "office_name": null,
    "office_name_kana": null
  },
  "4153": {
    "postcode": "8494153",
    "prefecture": "佐賀県",
    "prefecture_kana": "サガケン",
    "prefecture_code": 41,
    "city": "西松浦郡有田町",
    "city_kana": "ニシマツウラグンアリタチョウ",
    "town": "立部",
    "town_kana": "タチベ",
    "street": null,
    "office_name": null,
    "office_name_kana": null
  },
  "4154": {
    "postcode": "8494154",
    "prefecture": "佐賀県",
    "prefecture_kana": "サガケン",
    "prefecture_code": 41,
    "city": "西松浦郡有田町",
    "city_kana": "ニシマツウラグンアリタチョウ",
    "town": "大木宿",
    "town_kana": "オオギシュク",
    "street": null,
    "office_name": null,
    "office_name_kana": null
  },
  "4155": {
    "postcode": "8494155",
    "prefecture": "佐賀県",
    "prefecture_kana": "サガケン",
    "prefecture_code": 41,
    "city": "西松浦郡有田町",
    "city_kana": "ニシマツウラグンアリタチョウ",
    "town": "山本",
    "town_kana": "ヤマモト",
    "street": null,
    "office_name": null,
    "office_name_kana": null
  },
  "4156": {
    "postcode": "8494156",
    "prefecture": "佐賀県",
    "prefecture_kana": "サガケン",
    "prefecture_code": 41,
    "city": "西松浦郡有田町",
    "city_kana": "ニシマツウラグンアリタチョウ",
    "town": "桑木原",
    "town_kana": "クワノキバル",
    "street": null,
    "office_name": null,
    "office_name_kana": null
  },
  "4161": {
    "postcode": "8494161",
    "prefecture": "佐賀県",
    "prefecture_kana": "サガケン",
    "prefecture_code": 41,
    "city": "西松浦郡有田町",
    "city_kana": "ニシマツウラグンアリタチョウ",
    "town": "蔵宿",
    "town_kana": "ゾウシュク",
    "street": null,
    "office_name": null,
    "office_name_kana": null
  },
  "4162": {
    "postcode": "8494162",
    "prefecture": "佐賀県",
    "prefecture_kana": "サガケン",
    "prefecture_code": 41,
    "city": "西松浦郡有田町",
    "city_kana": "ニシマツウラグンアリタチョウ",
    "town": "上内野",
    "town_kana": "カミウチノ",
    "street": null,
    "office_name": null,
    "office_name_kana": null
  },
  "4163": {
    "postcode": "8494163",
    "prefecture": "佐賀県",
    "prefecture_kana": "サガケン",
    "prefecture_code": 41,
    "city": "西松浦郡有田町",
    "city_kana": "ニシマツウラグンアリタチョウ",
    "town": "下内野",
    "town_kana": "シモウチノ",
    "street": null,
    "office_name": null,
    "office_name_kana": null
  },
  "4164": {
    "postcode": "8494164",
    "prefecture": "佐賀県",
    "prefecture_kana": "サガケン",
    "prefecture_code": 41,
    "city": "西松浦郡有田町",
    "city_kana": "ニシマツウラグンアリタチョウ",
    "town": "仏ノ原",
    "town_kana": "ホトケノハラ",
    "street": null,
    "office_name": null,
    "office_name_kana": null
  },
  "4165": {
    "postcode": "8494165",
    "prefecture": "佐賀県",
    "prefecture_kana": "サガケン",
    "prefecture_code": 41,
    "city": "西松浦郡有田町",
    "city_kana": "ニシマツウラグンアリタチョウ",
    "town": "黒川",
    "town_kana": "クロゴウ",
    "street": null,
    "office_name": null,
    "office_name_kana": null
  },
  "4166": {
    "postcode": "8494166",
    "prefecture": "佐賀県",
    "prefecture_kana": "サガケン",
    "prefecture_code": 41,
    "city": "西松浦郡有田町",
    "city_kana": "ニシマツウラグンアリタチョウ",
    "town": "北ノ川内",
    "town_kana": "キタノカワチ",
    "street": null,
    "office_name": null,
    "office_name_kana": null
  },
  "4171": {
    "postcode": "8494171",
    "prefecture": "佐賀県",
    "prefecture_kana": "サガケン",
    "prefecture_code": 41,
    "city": "西松浦郡有田町",
    "city_kana": "ニシマツウラグンアリタチョウ",
    "town": "代々木",
    "town_kana": "ヨヨギ",
    "street": null,
    "office_name": null,
    "office_name_kana": null
  },
  "4172": {
    "postcode": "8494172",
    "prefecture": "佐賀県",
    "prefecture_kana": "サガケン",
    "prefecture_code": 41,
    "city": "西松浦郡有田町",
    "city_kana": "ニシマツウラグンアリタチョウ",
    "town": "下本",
    "town_kana": "シモホン",
    "street": null,
    "office_name": null,
    "office_name_kana": null
  },
  "4173": {
    "postcode": "8494173",
    "prefecture": "佐賀県",
    "prefecture_kana": "サガケン",
    "prefecture_code": 41,
    "city": "西松浦郡有田町",
    "city_kana": "ニシマツウラグンアリタチョウ",
    "town": "舞原",
    "town_kana": "マイバル",
    "street": null,
    "office_name": null,
    "office_name_kana": null
  },
  "4174": {
    "postcode": "8494174",
    "prefecture": "佐賀県",
    "prefecture_kana": "サガケン",
    "prefecture_code": 41,
    "city": "西松浦郡有田町",
    "city_kana": "ニシマツウラグンアリタチョウ",
    "town": "上本",
    "town_kana": "カミホン",
    "street": null,
    "office_name": null,
    "office_name_kana": null
  },
  "4175": {
    "postcode": "8494175",
    "prefecture": "佐賀県",
    "prefecture_kana": "サガケン",
    "prefecture_code": 41,
    "city": "西松浦郡有田町",
    "city_kana": "ニシマツウラグンアリタチョウ",
    "town": "楠木原",
    "town_kana": "クスノキバル",
    "street": null,
    "office_name": null,
    "office_name_kana": null
  },
  "4176": {
    "postcode": "8494176",
    "prefecture": "佐賀県",
    "prefecture_kana": "サガケン",
    "prefecture_code": 41,
    "city": "西松浦郡有田町",
    "city_kana": "ニシマツウラグンアリタチョウ",
    "town": "原明",
    "town_kana": "ハラアケ",
    "street": null,
    "office_name": null,
    "office_name_kana": null
  },
  "4192": {
    "postcode": "8494192",
    "prefecture": "佐賀県",
    "prefecture_kana": "サガケン",
    "prefecture_code": 41,
    "city": "西松浦郡有田町",
    "city_kana": "ニシマツウラグンアリタチョウ",
    "town": "立部",
    "town_kana": "タチベ",
    "street": "乙２２０２",
    "office_name": "有田町庁舎",
    "office_name_kana": "アリタチヨウチヨウシヤ"
  },
  "4193": {
    "postcode": "8494193",
    "prefecture": "佐賀県",
    "prefecture_kana": "サガケン",
    "prefecture_code": 41,
    "city": "西松浦郡有田町",
    "city_kana": "ニシマツウラグンアリタチョウ",
    "town": "二ノ瀬",
    "town_kana": "ニノセ",
    "street": "甲８６０",
    "office_name": "伊万里有田共立病院",
    "office_name_kana": "イマリアリタキヨウリツビヨウイン"
  },
  "4194": {
    "postcode": "8494194",
    "prefecture": "佐賀県",
    "prefecture_kana": "サガケン",
    "prefecture_code": 41,
    "city": "西松浦郡有田町",
    "city_kana": "ニシマツウラグンアリタチョウ",
    "town": "原明",
    "town_kana": "ハラアケ",
    "street": "乙１１１",
    "office_name": "深川製磁　株式会社　営業本部　西有田工場",
    "office_name_kana": "フカガワセイジ カブシキガイシヤ エイギヨウホンブ ニシアリタコウジヨウ"
  },
  "4195": {
    "postcode": "8494195",
    "prefecture": "佐賀県",
    "prefecture_kana": "サガケン",
    "prefecture_code": 41,
    "city": "西松浦郡有田町",
    "city_kana": "ニシマツウラグンアリタチョウ",
    "town": "原明",
    "town_kana": "ハラアケ",
    "street": "乙１１１",
    "office_name": "深川製磁　株式会社　チャイナ・オン・ザ・パーク",
    "office_name_kana": "フカガワセイジ カブシキガイシヤ チヤイナ・オン・ザ・パ-ク"
  },
  "4251": {
    "postcode": "8494251",
    "prefecture": "佐賀県",
    "prefecture_kana": "サガケン",
    "prefecture_code": 41,
    "city": "伊万里市",
    "city_kana": "イマリシ",
    "town": "山代町楠久",
    "town_kana": "ヤマシロチョウクスク",
    "street": null,
    "office_name": null,
    "office_name_kana": null
  },
  "4252": {
    "postcode": "8494252",
    "prefecture": "佐賀県",
    "prefecture_kana": "サガケン",
    "prefecture_code": 41,
    "city": "伊万里市",
    "city_kana": "イマリシ",
    "town": "山代町楠久津",
    "town_kana": "ヤマシロチョウクスクツ",
    "street": null,
    "office_name": null,
    "office_name_kana": null
  },
  "4253": {
    "postcode": "8494253",
    "prefecture": "佐賀県",
    "prefecture_kana": "サガケン",
    "prefecture_code": 41,
    "city": "伊万里市",
    "city_kana": "イマリシ",
    "town": "山代町峰",
    "town_kana": "ヤマシロチョウミネ",
    "street": null,
    "office_name": null,
    "office_name_kana": null
  },
  "4254": {
    "postcode": "8494254",
    "prefecture": "佐賀県",
    "prefecture_kana": "サガケン",
    "prefecture_code": 41,
    "city": "伊万里市",
    "city_kana": "イマリシ",
    "town": "山代町城",
    "town_kana": "ヤマシロチョウジョウ",
    "street": null,
    "office_name": null,
    "office_name_kana": null
  },
  "4255": {
    "postcode": "8494255",
    "prefecture": "佐賀県",
    "prefecture_kana": "サガケン",
    "prefecture_code": 41,
    "city": "伊万里市",
    "city_kana": "イマリシ",
    "town": "山代町福川内",
    "town_kana": "ヤマシロチョウフクガワチ",
    "street": null,
    "office_name": null,
    "office_name_kana": null
  },
  "4256": {
    "postcode": "8494256",
    "prefecture": "佐賀県",
    "prefecture_kana": "サガケン",
    "prefecture_code": 41,
    "city": "伊万里市",
    "city_kana": "イマリシ",
    "town": "山代町久原",
    "town_kana": "ヤマシロチョウクバラ",
    "street": null,
    "office_name": null,
    "office_name_kana": null
  },
  "4261": {
    "postcode": "8494261",
    "prefecture": "佐賀県",
    "prefecture_kana": "サガケン",
    "prefecture_code": 41,
    "city": "伊万里市",
    "city_kana": "イマリシ",
    "town": "山代町立岩",
    "town_kana": "ヤマシロチョウタチイワ",
    "street": null,
    "office_name": null,
    "office_name_kana": null
  },
  "4262": {
    "postcode": "8494262",
    "prefecture": "佐賀県",
    "prefecture_kana": "サガケン",
    "prefecture_code": 41,
    "city": "伊万里市",
    "city_kana": "イマリシ",
    "town": "山代町西分",
    "town_kana": "ヤマシロチョウニシブン",
    "street": null,
    "office_name": null,
    "office_name_kana": null
  },
  "4263": {
    "postcode": "8494263",
    "prefecture": "佐賀県",
    "prefecture_kana": "サガケン",
    "prefecture_code": 41,
    "city": "伊万里市",
    "city_kana": "イマリシ",
    "town": "山代町西大久保",
    "town_kana": "ヤマシロチョウニシオオクボ",
    "street": null,
    "office_name": null,
    "office_name_kana": null
  },
  "4264": {
    "postcode": "8494264",
    "prefecture": "佐賀県",
    "prefecture_kana": "サガケン",
    "prefecture_code": 41,
    "city": "伊万里市",
    "city_kana": "イマリシ",
    "town": "山代町東分",
    "town_kana": "ヤマシロチョウヒガシブン",
    "street": null,
    "office_name": null,
    "office_name_kana": null
  },
  "4271": {
    "postcode": "8494271",
    "prefecture": "佐賀県",
    "prefecture_kana": "サガケン",
    "prefecture_code": 41,
    "city": "伊万里市",
    "city_kana": "イマリシ",
    "town": "東山代町長浜",
    "town_kana": "ヒガシヤマシロチョウナガハマ",
    "street": null,
    "office_name": null,
    "office_name_kana": null
  },
  "4272": {
    "postcode": "8494272",
    "prefecture": "佐賀県",
    "prefecture_kana": "サガケン",
    "prefecture_code": 41,
    "city": "伊万里市",
    "city_kana": "イマリシ",
    "town": "東山代町日尾",
    "town_kana": "ヒガシヤマシロチョウヒオ",
    "street": null,
    "office_name": null,
    "office_name_kana": null
  },
  "4273": {
    "postcode": "8494273",
    "prefecture": "佐賀県",
    "prefecture_kana": "サガケン",
    "prefecture_code": 41,
    "city": "伊万里市",
    "city_kana": "イマリシ",
    "town": "東山代町天神",
    "town_kana": "ヒガシヤマシロチョウテンジン",
    "street": null,
    "office_name": null,
    "office_name_kana": null
  },
  "4274": {
    "postcode": "8494274",
    "prefecture": "佐賀県",
    "prefecture_kana": "サガケン",
    "prefecture_code": 41,
    "city": "伊万里市",
    "city_kana": "イマリシ",
    "town": "東山代町脇野",
    "town_kana": "ヒガシヤマシロチョウワキノ",
    "street": null,
    "office_name": null,
    "office_name_kana": null
  },
  "4281": {
    "postcode": "8494281",
    "prefecture": "佐賀県",
    "prefecture_kana": "サガケン",
    "prefecture_code": 41,
    "city": "伊万里市",
    "city_kana": "イマリシ",
    "town": "東山代町大久保",
    "town_kana": "ヒガシヤマシロチョウオオクボ",
    "street": null,
    "office_name": null,
    "office_name_kana": null
  },
  "4282": {
    "postcode": "8494282",
    "prefecture": "佐賀県",
    "prefecture_kana": "サガケン",
    "prefecture_code": 41,
    "city": "伊万里市",
    "city_kana": "イマリシ",
    "town": "東山代町里",
    "town_kana": "ヒガシヤマシロチョウサト",
    "street": null,
    "office_name": null,
    "office_name_kana": null
  },
  "4283": {
    "postcode": "8494283",
    "prefecture": "佐賀県",
    "prefecture_kana": "サガケン",
    "prefecture_code": 41,
    "city": "伊万里市",
    "city_kana": "イマリシ",
    "town": "東山代町東大久保",
    "town_kana": "ヒガシヤマシロチョウヒガシオオクボ",
    "street": null,
    "office_name": null,
    "office_name_kana": null
  },
  "4284": {
    "postcode": "8494284",
    "prefecture": "佐賀県",
    "prefecture_kana": "サガケン",
    "prefecture_code": 41,
    "city": "伊万里市",
    "city_kana": "イマリシ",
    "town": "東山代町浦川内",
    "town_kana": "ヒガシヤマシロチョウウラガワチ",
    "street": null,
    "office_name": null,
    "office_name_kana": null
  },
  "4285": {
    "postcode": "8494285",
    "prefecture": "佐賀県",
    "prefecture_kana": "サガケン",
    "prefecture_code": 41,
    "city": "伊万里市",
    "city_kana": "イマリシ",
    "town": "東山代町滝川内",
    "town_kana": "ヒガシヤマシロチョウタキガワチ",
    "street": null,
    "office_name": null,
    "office_name_kana": null
  },
  "4286": {
    "postcode": "8494286",
    "prefecture": "佐賀県",
    "prefecture_kana": "サガケン",
    "prefecture_code": 41,
    "city": "伊万里市",
    "city_kana": "イマリシ",
    "town": "東山代町川内野",
    "town_kana": "ヒガシヤマシロチョウカワチノ",
    "street": null,
    "office_name": null,
    "office_name_kana": null
  },
  "5101": {
    "postcode": "8495101",
    "prefecture": "佐賀県",
    "prefecture_kana": "サガケン",
    "prefecture_code": 41,
    "city": "唐津市",
    "city_kana": "カラツシ",
    "town": "浜玉町岡口",
    "town_kana": "ハマタママチオカグチ",
    "street": null,
    "office_name": null,
    "office_name_kana": null
  },
  "5102": {
    "postcode": "8495102",
    "prefecture": "佐賀県",
    "prefecture_kana": "サガケン",
    "prefecture_code": 41,
    "city": "唐津市",
    "city_kana": "カラツシ",
    "town": "浜玉町五反田",
    "town_kana": "ハマタママチゴタンダ",
    "street": null,
    "office_name": null,
    "office_name_kana": null
  },
  "5103": {
    "postcode": "8495103",
    "prefecture": "佐賀県",
    "prefecture_kana": "サガケン",
    "prefecture_code": 41,
    "city": "唐津市",
    "city_kana": "カラツシ",
    "town": "浜玉町大江",
    "town_kana": "ハマタママチオオエ",
    "street": null,
    "office_name": null,
    "office_name_kana": null
  },
  "5104": {
    "postcode": "8495104",
    "prefecture": "佐賀県",
    "prefecture_kana": "サガケン",
    "prefecture_code": 41,
    "city": "唐津市",
    "city_kana": "カラツシ",
    "town": "浜玉町渕上",
    "town_kana": "ハマタママチフチノウエ",
    "street": null,
    "office_name": null,
    "office_name_kana": null
  },
  "5105": {
    "postcode": "8495105",
    "prefecture": "佐賀県",
    "prefecture_kana": "サガケン",
    "prefecture_code": 41,
    "city": "唐津市",
    "city_kana": "カラツシ",
    "town": "浜玉町谷口",
    "town_kana": "ハマタママチタニグチ",
    "street": null,
    "office_name": null,
    "office_name_kana": null
  },
  "5111": {
    "postcode": "8495111",
    "prefecture": "佐賀県",
    "prefecture_kana": "サガケン",
    "prefecture_code": 41,
    "city": "唐津市",
    "city_kana": "カラツシ",
    "town": "浜玉町南山",
    "town_kana": "ハマタママチミナミヤマ",
    "street": null,
    "office_name": null,
    "office_name_kana": null
  },
  "5112": {
    "postcode": "8495112",
    "prefecture": "佐賀県",
    "prefecture_kana": "サガケン",
    "prefecture_code": 41,
    "city": "唐津市",
    "city_kana": "カラツシ",
    "town": "浜玉町平原",
    "town_kana": "ハマタママチヒラバル",
    "street": null,
    "office_name": null,
    "office_name_kana": null
  },
  "5113": {
    "postcode": "8495113",
    "prefecture": "佐賀県",
    "prefecture_kana": "サガケン",
    "prefecture_code": 41,
    "city": "唐津市",
    "city_kana": "カラツシ",
    "town": "浜玉町鳥巣",
    "town_kana": "ハマタママチトリス",
    "street": null,
    "office_name": null,
    "office_name_kana": null
  },
  "5121": {
    "postcode": "8495121",
    "prefecture": "佐賀県",
    "prefecture_kana": "サガケン",
    "prefecture_code": 41,
    "city": "唐津市",
    "city_kana": "カラツシ",
    "town": "浜玉町横田上",
    "town_kana": "ハマタママチヨコタカミ",
    "street": null,
    "office_name": null,
    "office_name_kana": null
  },
  "5122": {
    "postcode": "8495122",
    "prefecture": "佐賀県",
    "prefecture_kana": "サガケン",
    "prefecture_code": 41,
    "city": "唐津市",
    "city_kana": "カラツシ",
    "town": "浜玉町横田下",
    "town_kana": "ハマタママチヨコタシモ",
    "street": null,
    "office_name": null,
    "office_name_kana": null
  },
  "5123": {
    "postcode": "8495123",
    "prefecture": "佐賀県",
    "prefecture_kana": "サガケン",
    "prefecture_code": 41,
    "city": "唐津市",
    "city_kana": "カラツシ",
    "town": "浜玉町東山田",
    "town_kana": "ハマタママチヒガシヤマダ",
    "street": null,
    "office_name": null,
    "office_name_kana": null
  },
  "5124": {
    "postcode": "8495124",
    "prefecture": "佐賀県",
    "prefecture_kana": "サガケン",
    "prefecture_code": 41,
    "city": "唐津市",
    "city_kana": "カラツシ",
    "town": "浜玉町山瀬",
    "town_kana": "ハマタママチヤマセ",
    "street": null,
    "office_name": null,
    "office_name_kana": null
  },
  "5131": {
    "postcode": "8495131",
    "prefecture": "佐賀県",
    "prefecture_kana": "サガケン",
    "prefecture_code": 41,
    "city": "唐津市",
    "city_kana": "カラツシ",
    "town": "浜玉町浜崎",
    "town_kana": "ハマタママチハマサキ",
    "street": null,
    "office_name": null,
    "office_name_kana": null
  },
  "5192": {
    "postcode": "8495192",
    "prefecture": "佐賀県",
    "prefecture_kana": "サガケン",
    "prefecture_code": 41,
    "city": "唐津市",
    "city_kana": "カラツシ",
    "town": "浜玉町浜崎",
    "town_kana": "ハマタママチハマサキ",
    "street": "１４４５−１",
    "office_name": "唐津市役所　浜玉支所",
    "office_name_kana": "カラツシヤクシヨ ハマタマシシヨ"
  },
  "5193": {
    "postcode": "8495193",
    "prefecture": "佐賀県",
    "prefecture_kana": "サガケン",
    "prefecture_code": 41,
    "city": "唐津市",
    "city_kana": "カラツシ",
    "town": "浜玉町浜崎",
    "town_kana": "ハマタママチハマサキ",
    "street": "５９８番地１",
    "office_name": "唐津農業共同組合",
    "office_name_kana": "カラツノウギヨウキヨウドウクミアイ"
  },
  "5198": {
    "postcode": "8495198",
    "prefecture": "佐賀県",
    "prefecture_kana": "サガケン",
    "prefecture_code": 41,
    "city": "唐津市",
    "city_kana": "カラツシ",
    "town": "浜玉町南山",
    "town_kana": "ハマタママチミナミヤマ",
    "street": "２３６３",
    "office_name": "株式会社　吉森",
    "office_name_kana": "カブシキガイシヤ ヨシモリ"
  },
  "5251": {
    "postcode": "8495251",
    "prefecture": "佐賀県",
    "prefecture_kana": "サガケン",
    "prefecture_code": 41,
    "city": "伊万里市",
    "city_kana": "イマリシ",
    "town": "大川町大川野",
    "town_kana": "オオカワチョウオオカワノ",
    "street": null,
    "office_name": null,
    "office_name_kana": null
  },
  "5252": {
    "postcode": "8495252",
    "prefecture": "佐賀県",
    "prefecture_kana": "サガケン",
    "prefecture_code": 41,
    "city": "伊万里市",
    "city_kana": "イマリシ",
    "town": "大川町川西",
    "town_kana": "オオカワチョウカワニシ",
    "street": null,
    "office_name": null,
    "office_name_kana": null
  },
  "5253": {
    "postcode": "8495253",
    "prefecture": "佐賀県",
    "prefecture_kana": "サガケン",
    "prefecture_code": 41,
    "city": "伊万里市",
    "city_kana": "イマリシ",
    "town": "大川町駒鳴",
    "town_kana": "オオカワチョウコマナキ",
    "street": null,
    "office_name": null,
    "office_name_kana": null
  },
  "5254": {
    "postcode": "8495254",
    "prefecture": "佐賀県",
    "prefecture_kana": "サガケン",
    "prefecture_code": 41,
    "city": "伊万里市",
    "city_kana": "イマリシ",
    "town": "大川町立川",
    "town_kana": "オオカワチョウタツガワ",
    "street": null,
    "office_name": null,
    "office_name_kana": null
  },
  "5255": {
    "postcode": "8495255",
    "prefecture": "佐賀県",
    "prefecture_kana": "サガケン",
    "prefecture_code": 41,
    "city": "伊万里市",
    "city_kana": "イマリシ",
    "town": "大川町山口",
    "town_kana": "オオカワチョウヤマグチ",
    "street": null,
    "office_name": null,
    "office_name_kana": null
  },
  "5256": {
    "postcode": "8495256",
    "prefecture": "佐賀県",
    "prefecture_kana": "サガケン",
    "prefecture_code": 41,
    "city": "伊万里市",
    "city_kana": "イマリシ",
    "town": "大川町東田代",
    "town_kana": "オオカワチョウヒガシタシロ",
    "street": null,
    "office_name": null,
    "office_name_kana": null
  },
  "5257": {
    "postcode": "8495257",
    "prefecture": "佐賀県",
    "prefecture_kana": "サガケン",
    "prefecture_code": 41,
    "city": "伊万里市",
    "city_kana": "イマリシ",
    "town": "大川町川原",
    "town_kana": "オオカワチョウカワバル",
    "street": null,
    "office_name": null,
    "office_name_kana": null
  },
  "5261": {
    "postcode": "8495261",
    "prefecture": "佐賀県",
    "prefecture_kana": "サガケン",
    "prefecture_code": 41,
    "city": "伊万里市",
    "city_kana": "イマリシ",
    "town": "松浦町桃川",
    "town_kana": "マツウラチョウモモノカワ",
    "street": null,
    "office_name": null,
    "office_name_kana": null
  },
  "5262": {
    "postcode": "8495262",
    "prefecture": "佐賀県",
    "prefecture_kana": "サガケン",
    "prefecture_code": 41,
    "city": "伊万里市",
    "city_kana": "イマリシ",
    "town": "松浦町中野原",
    "town_kana": "マツウラチョウナカノハラ",
    "street": null,
    "office_name": null,
    "office_name_kana": null
  },
  "5263": {
    "postcode": "8495263",
    "prefecture": "佐賀県",
    "prefecture_kana": "サガケン",
    "prefecture_code": 41,
    "city": "伊万里市",
    "city_kana": "イマリシ",
    "town": "松浦町山形",
    "town_kana": "マツウラチョウヤマガタ",
    "street": null,
    "office_name": null,
    "office_name_kana": null
  },
  "5264": {
    "postcode": "8495264",
    "prefecture": "佐賀県",
    "prefecture_kana": "サガケン",
    "prefecture_code": 41,
    "city": "伊万里市",
    "city_kana": "イマリシ",
    "town": "松浦町提川",
    "town_kana": "マツウラチョウサゲノカワ",
    "street": null,
    "office_name": null,
    "office_name_kana": null
  },
  "8501": {
    "postcode": "8498501",
    "prefecture": "佐賀県",
    "prefecture_kana": "サガケン",
    "prefecture_code": 41,
    "city": "佐賀市",
    "city_kana": "サガシ",
    "town": "鍋島",
    "town_kana": "ナベシマ",
    "street": "５丁目１−１",
    "office_name": "佐賀大学　医学部",
    "office_name_kana": "サガダイガク イガクブ"
  },
  "8502": {
    "postcode": "8498502",
    "prefecture": "佐賀県",
    "prefecture_kana": "サガケン",
    "prefecture_code": 41,
    "city": "佐賀市",
    "city_kana": "サガシ",
    "town": "高木瀬町大字東高木",
    "town_kana": null,
    "street": "２３４番地１",
    "office_name": "佐賀北警察署",
    "office_name_kana": "サガキタケイサツシヨ"
  },
  "8503": {
    "postcode": "8498503",
    "prefecture": "佐賀県",
    "prefecture_kana": "サガケン",
    "prefecture_code": 41,
    "city": "佐賀市",
    "city_kana": "サガシ",
    "town": "八丁畷町",
    "town_kana": "ハッチョウナワテマチ",
    "street": "１−３２",
    "office_name": "佐賀社会保険事務所",
    "office_name_kana": "サガシヤカイホケンジムシヨ"
  },
  "8514": {
    "postcode": "8498514",
    "prefecture": "佐賀県",
    "prefecture_kana": "サガケン",
    "prefecture_code": 41,
    "city": "佐賀市",
    "city_kana": "サガシ",
    "town": "新中町",
    "town_kana": "シンナカマチ",
    "street": "２−１５",
    "office_name": "佐賀県医師会",
    "office_name_kana": "サガケンイシカイ"
  },
  "8522": {
    "postcode": "8498522",
    "prefecture": "佐賀県",
    "prefecture_kana": "サガケン",
    "prefecture_code": 41,
    "city": "佐賀市",
    "city_kana": "サガシ",
    "town": "兵庫南",
    "town_kana": "ヒョウゴミナミ",
    "street": "３丁目８−１",
    "office_name": "社団法人　全国社会保険協会連合会　佐賀社会保険病院",
    "office_name_kana": "シヤダンホウジン ゼンコクシヤカイホケンキヨウカイレンゴウカイ サガシヤカイホケンビヨウイン"
  },
  "8555": {
    "postcode": "8498555",
    "prefecture": "佐賀県",
    "prefecture_kana": "サガケン",
    "prefecture_code": 41,
    "city": "佐賀市",
    "city_kana": "サガシ",
    "town": "八丁畷町",
    "town_kana": "ハッチョウナワテマチ",
    "street": "８−１",
    "office_name": "佐賀県税事務所",
    "office_name_kana": "サガケンゼイジムシヨ"
  },
  "8558": {
    "postcode": "8498558",
    "prefecture": "佐賀県",
    "prefecture_kana": "サガケン",
    "prefecture_code": 41,
    "city": "佐賀市",
    "city_kana": "サガシ",
    "town": "若宮",
    "town_kana": "ワカミヤ",
    "street": "３丁目６−６０",
    "office_name": "佐賀市水道局",
    "office_name_kana": "サガシスイドウキヨク"
  },
  "8577": {
    "postcode": "8498577",
    "prefecture": "佐賀県",
    "prefecture_kana": "サガケン",
    "prefecture_code": 41,
    "city": "佐賀市",
    "city_kana": "サガシ",
    "town": "日の出",
    "town_kana": "ヒノデ",
    "street": "１丁目２０−１",
    "office_name": "独立行政法人　国立病院機構　佐賀病院",
    "office_name_kana": "ドクリツギヨウセイホウジン コクリツビヨウインキコウ サガビヨウイン"
  },
  "8585": {
    "postcode": "8498585",
    "prefecture": "佐賀県",
    "prefecture_kana": "サガケン",
    "prefecture_code": 41,
    "city": "佐賀市",
    "city_kana": "サガシ",
    "town": "八丁畷町",
    "town_kana": "ハッチョウナワテマチ",
    "street": "１−２０",
    "office_name": "佐賀県　佐賀中部保健所",
    "office_name_kana": "サガケン サガチユウブホケンジヨ"
  },
  "8588": {
    "postcode": "8498588",
    "prefecture": "佐賀県",
    "prefecture_kana": "サガケン",
    "prefecture_code": 41,
    "city": "佐賀市",
    "city_kana": "サガシ",
    "town": "高木瀬町東高木",
    "town_kana": "タカキセマチヒガシタカギ",
    "street": "２３２−１",
    "office_name": "株式会社　鈴花",
    "office_name_kana": "カブシキガイシヤ スズハナ"
  }
}