{
  "0000": {
    "postcode": "8530000",
    "prefecture": "長崎県",
    "prefecture_kana": "ナガサキケン",
    "prefecture_code": 42,
    "city": "五島市",
    "city_kana": "ゴトウシ",
    "town": "",
    "town_kana": "",
    "street": null,
    "office_name": null,
    "office_name_kana": null
  },
  "0001": {
    "postcode": "8530001",
    "prefecture": "長崎県",
    "prefecture_kana": "ナガサキケン",
    "prefecture_code": 42,
    "city": "五島市",
    "city_kana": "ゴトウシ",
    "town": "栄町",
    "town_kana": "サカエマチ",
    "street": null,
    "office_name": null,
    "office_name_kana": null
  },
  "0002": {
    "postcode": "8530002",
    "prefecture": "長崎県",
    "prefecture_kana": "ナガサキケン",
    "prefecture_code": 42,
    "city": "五島市",
    "city_kana": "ゴトウシ",
    "town": "中央町",
    "town_kana": "チュウオウマチ",
    "street": null,
    "office_name": null,
    "office_name_kana": null
  },
  "0003": {
    "postcode": "8530003",
    "prefecture": "長崎県",
    "prefecture_kana": "ナガサキケン",
    "prefecture_code": 42,
    "city": "五島市",
    "city_kana": "ゴトウシ",
    "town": "錦町",
    "town_kana": "ニシキマチ",
    "street": null,
    "office_name": null,
    "office_name_kana": null
  },
  "0004": {
    "postcode": "8530004",
    "prefecture": "長崎県",
    "prefecture_kana": "ナガサキケン",
    "prefecture_code": 42,
    "city": "五島市",
    "city_kana": "ゴトウシ",
    "town": "幸町",
    "town_kana": "サイワイマチ",
    "street": null,
    "office_name": null,
    "office_name_kana": null
  },
  "0005": {
    "postcode": "8530005",
    "prefecture": "長崎県",
    "prefecture_kana": "ナガサキケン",
    "prefecture_code": 42,
    "city": "五島市",
    "city_kana": "ゴトウシ",
    "town": "末広町",
    "town_kana": "スエヒロマチ",
    "street": null,
    "office_name": null,
    "office_name_kana": null
  },
  "0006": {
    "postcode": "8530006",
    "prefecture": "長崎県",
    "prefecture_kana": "ナガサキケン",
    "prefecture_code": 42,
    "city": "五島市",
    "city_kana": "ゴトウシ",
    "town": "江川町",
    "town_kana": "エガワマチ",
    "street": null,
    "office_name": null,
    "office_name_kana": null
  },
  "0007": {
    "postcode": "8530007",
    "prefecture": "長崎県",
    "prefecture_kana": "ナガサキケン",
    "prefecture_code": 42,
    "city": "五島市",
    "city_kana": "ゴトウシ",
    "town": "福江町",
    "town_kana": "フクエチョウ",
    "street": null,
    "office_name": null,
    "office_name_kana": null
  },
  "0011": {
    "postcode": "8530011",
    "prefecture": "長崎県",
    "prefecture_kana": "ナガサキケン",
    "prefecture_code": 42,
    "city": "五島市",
    "city_kana": "ゴトウシ",
    "town": "下大津町",
    "town_kana": "シモオオヅチョウ",
    "street": null,
    "office_name": null,
    "office_name_kana": null
  },
  "0012": {
    "postcode": "8530012",
    "prefecture": "長崎県",
    "prefecture_kana": "ナガサキケン",
    "prefecture_code": 42,
    "city": "五島市",
    "city_kana": "ゴトウシ",
    "town": "長手町",
    "town_kana": "ナガテチョウ",
    "street": null,
    "office_name": null,
    "office_name_kana": null
  },
  "0013": {
    "postcode": "8530013",
    "prefecture": "長崎県",
    "prefecture_kana": "ナガサキケン",
    "prefecture_code": 42,
    "city": "五島市",
    "city_kana": "ゴトウシ",
    "town": "上大津町",
    "town_kana": "カミオオヅチョウ",
    "street": null,
    "office_name": null,
    "office_name_kana": null
  },
  "0014": {
    "postcode": "8530014",
    "prefecture": "長崎県",
    "prefecture_kana": "ナガサキケン",
    "prefecture_code": 42,
    "city": "五島市",
    "city_kana": "ゴトウシ",
    "town": "三尾野町",
    "town_kana": "ミオノチョウ",
    "street": null,
    "office_name": null,
    "office_name_kana": null
  },
  "0015": {
    "postcode": "8530015",
    "prefecture": "長崎県",
    "prefecture_kana": "ナガサキケン",
    "prefecture_code": 42,
    "city": "五島市",
    "city_kana": "ゴトウシ",
    "town": "東浜町",
    "town_kana": "ヒガシハママチ",
    "street": null,
    "office_name": null,
    "office_name_kana": null
  },
  "0016": {
    "postcode": "8530016",
    "prefecture": "長崎県",
    "prefecture_kana": "ナガサキケン",
    "prefecture_code": 42,
    "city": "五島市",
    "city_kana": "ゴトウシ",
    "town": "紺屋町",
    "town_kana": "コンヤマチ",
    "street": null,
    "office_name": null,
    "office_name_kana": null
  },
  "0017": {
    "postcode": "8530017",
    "prefecture": "長崎県",
    "prefecture_kana": "ナガサキケン",
    "prefecture_code": 42,
    "city": "五島市",
    "city_kana": "ゴトウシ",
    "town": "武家屋敷",
    "town_kana": "ブケヤシキ",
    "street": null,
    "office_name": null,
    "office_name_kana": null
  },
  "0018": {
    "postcode": "8530018",
    "prefecture": "長崎県",
    "prefecture_kana": "ナガサキケン",
    "prefecture_code": 42,
    "city": "五島市",
    "city_kana": "ゴトウシ",
    "town": "池田町",
    "town_kana": "イケダマチ",
    "street": null,
    "office_name": null,
    "office_name_kana": null
  },
  "0021": {
    "postcode": "8530021",
    "prefecture": "長崎県",
    "prefecture_kana": "ナガサキケン",
    "prefecture_code": 42,
    "city": "五島市",
    "city_kana": "ゴトウシ",
    "town": "下崎山町",
    "town_kana": "シモサキヤマチョウ",
    "street": null,
    "office_name": null,
    "office_name_kana": null
  },
  "0022": {
    "postcode": "8530022",
    "prefecture": "長崎県",
    "prefecture_kana": "ナガサキケン",
    "prefecture_code": 42,
    "city": "五島市",
    "city_kana": "ゴトウシ",
    "town": "向町",
    "town_kana": "ムカエチョウ",
    "street": null,
    "office_name": null,
    "office_name_kana": null
  },
  "0023": {
    "postcode": "8530023",
    "prefecture": "長崎県",
    "prefecture_kana": "ナガサキケン",
    "prefecture_code": 42,
    "city": "五島市",
    "city_kana": "ゴトウシ",
    "town": "上崎山町",
    "town_kana": "カミサキヤマチョウ",
    "street": null,
    "office_name": null,
    "office_name_kana": null
  },
  "0024": {
    "postcode": "8530024",
    "prefecture": "長崎県",
    "prefecture_kana": "ナガサキケン",
    "prefecture_code": 42,
    "city": "五島市",
    "city_kana": "ゴトウシ",
    "town": "野々切町",
    "town_kana": "ノノキレチョウ",
    "street": null,
    "office_name": null,
    "office_name_kana": null
  },
  "0025": {
    "postcode": "8530025",
    "prefecture": "長崎県",
    "prefecture_kana": "ナガサキケン",
    "prefecture_code": 42,
    "city": "五島市",
    "city_kana": "ゴトウシ",
    "town": "小泊町",
    "town_kana": "オドマリチョウ",
    "street": null,
    "office_name": null,
    "office_name_kana": null
  },
  "0026": {
    "postcode": "8530026",
    "prefecture": "長崎県",
    "prefecture_kana": "ナガサキケン",
    "prefecture_code": 42,
    "city": "五島市",
    "city_kana": "ゴトウシ",
    "town": "浜町",
    "town_kana": "ハマチョウ",
    "street": null,
    "office_name": null,
    "office_name_kana": null
  },
  "0027": {
    "postcode": "8530027",
    "prefecture": "長崎県",
    "prefecture_kana": "ナガサキケン",
    "prefecture_code": 42,
    "city": "五島市",
    "city_kana": "ゴトウシ",
    "town": "増田町",
    "town_kana": "マスダチョウ",
    "street": null,
    "office_name": null,
    "office_name_kana": null
  },
  "0031": {
    "postcode": "8530031",
    "prefecture": "長崎県",
    "prefecture_kana": "ナガサキケン",
    "prefecture_code": 42,
    "city": "五島市",
    "city_kana": "ゴトウシ",
    "town": "吉久木町",
    "town_kana": "ヨシクギチョウ",
    "street": null,
    "office_name": null,
    "office_name_kana": null
  },
  "0032": {
    "postcode": "8530032",
    "prefecture": "長崎県",
    "prefecture_kana": "ナガサキケン",
    "prefecture_code": 42,
    "city": "五島市",
    "city_kana": "ゴトウシ",
    "town": "大荒町",
    "town_kana": "オオアレチョウ",
    "street": null,
    "office_name": null,
    "office_name_kana": null
  },
  "0033": {
    "postcode": "8530033",
    "prefecture": "長崎県",
    "prefecture_kana": "ナガサキケン",
    "prefecture_code": 42,
    "city": "五島市",
    "city_kana": "ゴトウシ",
    "town": "木場町",
    "town_kana": "コバチョウ",
    "street": null,
    "office_name": null,
    "office_name_kana": null
  },
  "0041": {
    "postcode": "8530041",
    "prefecture": "長崎県",
    "prefecture_kana": "ナガサキケン",
    "prefecture_code": 42,
    "city": "五島市",
    "city_kana": "ゴトウシ",
    "town": "籠淵町",
    "town_kana": "コモリブチチョウ",
    "street": null,
    "office_name": null,
    "office_name_kana": null
  },
  "0042": {
    "postcode": "8530042",
    "prefecture": "長崎県",
    "prefecture_kana": "ナガサキケン",
    "prefecture_code": 42,
    "city": "五島市",
    "city_kana": "ゴトウシ",
    "town": "吉田町",
    "town_kana": "ヨシダチョウ",
    "street": null,
    "office_name": null,
    "office_name_kana": null
  },
  "0043": {
    "postcode": "8530043",
    "prefecture": "長崎県",
    "prefecture_kana": "ナガサキケン",
    "prefecture_code": 42,
    "city": "五島市",
    "city_kana": "ゴトウシ",
    "town": "高田町",
    "town_kana": "コウダチョウ",
    "street": null,
    "office_name": null,
    "office_name_kana": null
  },
  "0044": {
    "postcode": "8530044",
    "prefecture": "長崎県",
    "prefecture_kana": "ナガサキケン",
    "prefecture_code": 42,
    "city": "五島市",
    "city_kana": "ゴトウシ",
    "town": "堤町",
    "town_kana": "ツツミチョウ",
    "street": null,
    "office_name": null,
    "office_name_kana": null
  },
  "0051": {
    "postcode": "8530051",
    "prefecture": "長崎県",
    "prefecture_kana": "ナガサキケン",
    "prefecture_code": 42,
    "city": "五島市",
    "city_kana": "ゴトウシ",
    "town": "平蔵町",
    "town_kana": "ヒラゾウチョウ",
    "street": null,
    "office_name": null,
    "office_name_kana": null
  },
  "0052": {
    "postcode": "8530052",
    "prefecture": "長崎県",
    "prefecture_kana": "ナガサキケン",
    "prefecture_code": 42,
    "city": "五島市",
    "city_kana": "ゴトウシ",
    "town": "松山町",
    "town_kana": "マツヤマチョウ",
    "street": null,
    "office_name": null,
    "office_name_kana": null
  },
  "0053": {
    "postcode": "8530053",
    "prefecture": "長崎県",
    "prefecture_kana": "ナガサキケン",
    "prefecture_code": 42,
    "city": "五島市",
    "city_kana": "ゴトウシ",
    "town": "奥浦町",
    "town_kana": "オクウラチョウ",
    "street": null,
    "office_name": null,
    "office_name_kana": null
  },
  "0054": {
    "postcode": "8530054",
    "prefecture": "長崎県",
    "prefecture_kana": "ナガサキケン",
    "prefecture_code": 42,
    "city": "五島市",
    "city_kana": "ゴトウシ",
    "town": "戸岐町",
    "town_kana": "トギチョウ",
    "street": null,
    "office_name": null,
    "office_name_kana": null
  },
  "0061": {
    "postcode": "8530061",
    "prefecture": "長崎県",
    "prefecture_kana": "ナガサキケン",
    "prefecture_code": 42,
    "city": "五島市",
    "city_kana": "ゴトウシ",
    "town": "黄島町",
    "town_kana": "オウシマチョウ",
    "street": null,
    "office_name": null,
    "office_name_kana": null
  },
  "0062": {
    "postcode": "8530062",
    "prefecture": "長崎県",
    "prefecture_kana": "ナガサキケン",
    "prefecture_code": 42,
    "city": "五島市",
    "city_kana": "ゴトウシ",
    "town": "赤島町",
    "town_kana": "アカシマチョウ",
    "street": null,
    "office_name": null,
    "office_name_kana": null
  },
  "0063": {
    "postcode": "8530063",
    "prefecture": "長崎県",
    "prefecture_kana": "ナガサキケン",
    "prefecture_code": 42,
    "city": "五島市",
    "city_kana": "ゴトウシ",
    "town": "新港町",
    "town_kana": "シンミナトマチ",
    "street": null,
    "office_name": null,
    "office_name_kana": null
  },
  "0064": {
    "postcode": "8530064",
    "prefecture": "長崎県",
    "prefecture_kana": "ナガサキケン",
    "prefecture_code": 42,
    "city": "五島市",
    "city_kana": "ゴトウシ",
    "town": "三尾野",
    "town_kana": "ミオノ",
    "street": null,
    "office_name": null,
    "office_name_kana": null
  },
  "0065": {
    "postcode": "8530065",
    "prefecture": "長崎県",
    "prefecture_kana": "ナガサキケン",
    "prefecture_code": 42,
    "city": "五島市",
    "city_kana": "ゴトウシ",
    "town": "坂の上",
    "town_kana": "サカノウエ",
    "street": null,
    "office_name": null,
    "office_name_kana": null
  },
  "0066": {
    "postcode": "8530066",
    "prefecture": "長崎県",
    "prefecture_kana": "ナガサキケン",
    "prefecture_code": 42,
    "city": "五島市",
    "city_kana": "ゴトウシ",
    "town": "大円寺町",
    "town_kana": "ダイエンジチョウ",
    "street": null,
    "office_name": null,
    "office_name_kana": null
  },
  "0201": {
    "postcode": "8530201",
    "prefecture": "長崎県",
    "prefecture_kana": "ナガサキケン",
    "prefecture_code": 42,
    "city": "五島市",
    "city_kana": "ゴトウシ",
    "town": "富江町富江",
    "town_kana": "トミエマチトミエ",
    "street": null,
    "office_name": null,
    "office_name_kana": null
  },
  "0202": {
    "postcode": "8530202",
    "prefecture": "長崎県",
    "prefecture_kana": "ナガサキケン",
    "prefecture_code": 42,
    "city": "五島市",
    "city_kana": "ゴトウシ",
    "town": "富江町松尾",
    "town_kana": "トミエマチマツオ",
    "street": null,
    "office_name": null,
    "office_name_kana": null
  },
  "0203": {
    "postcode": "8530203",
    "prefecture": "長崎県",
    "prefecture_kana": "ナガサキケン",
    "prefecture_code": 42,
    "city": "五島市",
    "city_kana": "ゴトウシ",
    "town": "富江町田尾",
    "town_kana": "トミエマチタオ",
    "street": null,
    "office_name": null,
    "office_name_kana": null
  },
  "0204": {
    "postcode": "8530204",
    "prefecture": "長崎県",
    "prefecture_kana": "ナガサキケン",
    "prefecture_code": 42,
    "city": "五島市",
    "city_kana": "ゴトウシ",
    "town": "富江町繁敷",
    "town_kana": "トミエマチシゲジキ",
    "street": null,
    "office_name": null,
    "office_name_kana": null
  },
  "0205": {
    "postcode": "8530205",
    "prefecture": "長崎県",
    "prefecture_kana": "ナガサキケン",
    "prefecture_code": 42,
    "city": "五島市",
    "city_kana": "ゴトウシ",
    "town": "富江町狩立",
    "town_kana": "トミエマチカリタテ",
    "street": null,
    "office_name": null,
    "office_name_kana": null
  },
  "0206": {
    "postcode": "8530206",
    "prefecture": "長崎県",
    "prefecture_kana": "ナガサキケン",
    "prefecture_code": 42,
    "city": "五島市",
    "city_kana": "ゴトウシ",
    "town": "富江町山手",
    "town_kana": "トミエマチヤマテ",
    "street": null,
    "office_name": null,
    "office_name_kana": null
  },
  "0207": {
    "postcode": "8530207",
    "prefecture": "長崎県",
    "prefecture_kana": "ナガサキケン",
    "prefecture_code": 42,
    "city": "五島市",
    "city_kana": "ゴトウシ",
    "town": "富江町長峰",
    "town_kana": "トミエマチナガミネ",
    "street": null,
    "office_name": null,
    "office_name_kana": null
  },
  "0208": {
    "postcode": "8530208",
    "prefecture": "長崎県",
    "prefecture_kana": "ナガサキケン",
    "prefecture_code": 42,
    "city": "五島市",
    "city_kana": "ゴトウシ",
    "town": "富江町黒島",
    "town_kana": "トミエマチクロシマ",
    "street": null,
    "office_name": null,
    "office_name_kana": null
  },
  "0211": {
    "postcode": "8530211",
    "prefecture": "長崎県",
    "prefecture_kana": "ナガサキケン",
    "prefecture_code": 42,
    "city": "五島市",
    "city_kana": "ゴトウシ",
    "town": "富江町黒瀬",
    "town_kana": "トミエマチクロセ",
    "street": null,
    "office_name": null,
    "office_name_kana": null
  },
  "0212": {
    "postcode": "8530212",
    "prefecture": "長崎県",
    "prefecture_kana": "ナガサキケン",
    "prefecture_code": 42,
    "city": "五島市",
    "city_kana": "ゴトウシ",
    "town": "富江町山下",
    "town_kana": "トミエマチヤマシタ",
    "street": null,
    "office_name": null,
    "office_name_kana": null
  },
  "0213": {
    "postcode": "8530213",
    "prefecture": "長崎県",
    "prefecture_kana": "ナガサキケン",
    "prefecture_code": 42,
    "city": "五島市",
    "city_kana": "ゴトウシ",
    "town": "富江町岳",
    "town_kana": "トミエマチタケ",
    "street": null,
    "office_name": null,
    "office_name_kana": null
  },
  "0214": {
    "postcode": "8530214",
    "prefecture": "長崎県",
    "prefecture_kana": "ナガサキケン",
    "prefecture_code": 42,
    "city": "五島市",
    "city_kana": "ゴトウシ",
    "town": "富江町土取",
    "town_kana": "トミエマチツチトリ",
    "street": null,
    "office_name": null,
    "office_name_kana": null
  },
  "0215": {
    "postcode": "8530215",
    "prefecture": "長崎県",
    "prefecture_kana": "ナガサキケン",
    "prefecture_code": 42,
    "city": "五島市",
    "city_kana": "ゴトウシ",
    "town": "富江町職人",
    "town_kana": "トミエマチショクニン",
    "street": null,
    "office_name": null,
    "office_name_kana": null
  },
  "0311": {
    "postcode": "8530311",
    "prefecture": "長崎県",
    "prefecture_kana": "ナガサキケン",
    "prefecture_code": 42,
    "city": "五島市",
    "city_kana": "ゴトウシ",
    "town": "岐宿町二本楠",
    "town_kana": "キシクマチニホングス",
    "street": null,
    "office_name": null,
    "office_name_kana": null
  },
  "0312": {
    "postcode": "8530312",
    "prefecture": "長崎県",
    "prefecture_kana": "ナガサキケン",
    "prefecture_code": 42,
    "city": "五島市",
    "city_kana": "ゴトウシ",
    "town": "岐宿町中嶽",
    "town_kana": "キシクマチナカダケ",
    "street": null,
    "office_name": null,
    "office_name_kana": null
  },
  "0313": {
    "postcode": "8530313",
    "prefecture": "長崎県",
    "prefecture_kana": "ナガサキケン",
    "prefecture_code": 42,
    "city": "五島市",
    "city_kana": "ゴトウシ",
    "town": "岐宿町松山",
    "town_kana": "キシクマチマツヤマ",
    "street": null,
    "office_name": null,
    "office_name_kana": null
  },
  "0411": {
    "postcode": "8530411",
    "prefecture": "長崎県",
    "prefecture_kana": "ナガサキケン",
    "prefecture_code": 42,
    "city": "五島市",
    "city_kana": "ゴトウシ",
    "town": "玉之浦町玉之浦",
    "town_kana": "タマノウラマチタマノウラ",
    "street": null,
    "office_name": null,
    "office_name_kana": null
  },
  "0412": {
    "postcode": "8530412",
    "prefecture": "長崎県",
    "prefecture_kana": "ナガサキケン",
    "prefecture_code": 42,
    "city": "五島市",
    "city_kana": "ゴトウシ",
    "town": "玉之浦町立谷",
    "town_kana": "タマノウラマチタチヤ",
    "street": null,
    "office_name": null,
    "office_name_kana": null
  },
  "0413": {
    "postcode": "8530413",
    "prefecture": "長崎県",
    "prefecture_kana": "ナガサキケン",
    "prefecture_code": 42,
    "city": "五島市",
    "city_kana": "ゴトウシ",
    "town": "玉之浦町大宝",
    "town_kana": "タマノウラマチダイホウ",
    "street": null,
    "office_name": null,
    "office_name_kana": null
  },
  "0501": {
    "postcode": "8530501",
    "prefecture": "長崎県",
    "prefecture_kana": "ナガサキケン",
    "prefecture_code": 42,
    "city": "五島市",
    "city_kana": "ゴトウシ",
    "town": "玉之浦町荒川",
    "town_kana": "タマノウラマチアラカワ",
    "street": null,
    "office_name": null,
    "office_name_kana": null
  },
  "0502": {
    "postcode": "8530502",
    "prefecture": "長崎県",
    "prefecture_kana": "ナガサキケン",
    "prefecture_code": 42,
    "city": "五島市",
    "city_kana": "ゴトウシ",
    "town": "玉之浦町幾久山",
    "town_kana": "タマノウラマチイツクヤマ",
    "street": null,
    "office_name": null,
    "office_name_kana": null
  },
  "0503": {
    "postcode": "8530503",
    "prefecture": "長崎県",
    "prefecture_kana": "ナガサキケン",
    "prefecture_code": 42,
    "city": "五島市",
    "city_kana": "ゴトウシ",
    "town": "玉之浦町小川",
    "town_kana": "タマノウラマチオガワ",
    "street": null,
    "office_name": null,
    "office_name_kana": null
  },
  "0504": {
    "postcode": "8530504",
    "prefecture": "長崎県",
    "prefecture_kana": "ナガサキケン",
    "prefecture_code": 42,
    "city": "五島市",
    "city_kana": "ゴトウシ",
    "town": "玉之浦町丹奈",
    "town_kana": "タマノウラマチタンナ",
    "street": null,
    "office_name": null,
    "office_name_kana": null
  },
  "0505": {
    "postcode": "8530505",
    "prefecture": "長崎県",
    "prefecture_kana": "ナガサキケン",
    "prefecture_code": 42,
    "city": "五島市",
    "city_kana": "ゴトウシ",
    "town": "玉之浦町中須",
    "town_kana": "タマノウラマチナカス",
    "street": null,
    "office_name": null,
    "office_name_kana": null
  },
  "0506": {
    "postcode": "8530506",
    "prefecture": "長崎県",
    "prefecture_kana": "ナガサキケン",
    "prefecture_code": 42,
    "city": "五島市",
    "city_kana": "ゴトウシ",
    "town": "玉之浦町上の平",
    "town_kana": "タマノウラマチカミノヒラ",
    "street": null,
    "office_name": null,
    "office_name_kana": null
  },
  "0507": {
    "postcode": "8530507",
    "prefecture": "長崎県",
    "prefecture_kana": "ナガサキケン",
    "prefecture_code": 42,
    "city": "五島市",
    "city_kana": "ゴトウシ",
    "town": "玉之浦町頓泊",
    "town_kana": "タマノウラマチトントマリ",
    "street": null,
    "office_name": null,
    "office_name_kana": null
  },
  "0508": {
    "postcode": "8530508",
    "prefecture": "長崎県",
    "prefecture_kana": "ナガサキケン",
    "prefecture_code": 42,
    "city": "五島市",
    "city_kana": "ゴトウシ",
    "town": "玉之浦町布浦",
    "town_kana": "タマノウラマチヌノウラ",
    "street": null,
    "office_name": null,
    "office_name_kana": null
  },
  "0601": {
    "postcode": "8530601",
    "prefecture": "長崎県",
    "prefecture_kana": "ナガサキケン",
    "prefecture_code": 42,
    "city": "五島市",
    "city_kana": "ゴトウシ",
    "town": "三井楽町濱ノ畔",
    "town_kana": "ミイラクマチハマノクリ",
    "street": null,
    "office_name": null,
    "office_name_kana": null
  },
  "0602": {
    "postcode": "8530602",
    "prefecture": "長崎県",
    "prefecture_kana": "ナガサキケン",
    "prefecture_code": 42,
    "city": "五島市",
    "city_kana": "ゴトウシ",
    "town": "三井楽町大川",
    "town_kana": "ミイラクマチオオカワ",
    "street": null,
    "office_name": null,
    "office_name_kana": null
  },
  "0603": {
    "postcode": "8530603",
    "prefecture": "長崎県",
    "prefecture_kana": "ナガサキケン",
    "prefecture_code": 42,
    "city": "五島市",
    "city_kana": "ゴトウシ",
    "town": "三井楽町柏",
    "town_kana": "ミイラクマチカシワ",
    "street": null,
    "office_name": null,
    "office_name_kana": null
  },
  "0604": {
    "postcode": "8530604",
    "prefecture": "長崎県",
    "prefecture_kana": "ナガサキケン",
    "prefecture_code": 42,
    "city": "五島市",
    "city_kana": "ゴトウシ",
    "town": "三井楽町貝津",
    "town_kana": "ミイラクマチカイツ",
    "street": null,
    "office_name": null,
    "office_name_kana": null
  },
  "0605": {
    "postcode": "8530605",
    "prefecture": "長崎県",
    "prefecture_kana": "ナガサキケン",
    "prefecture_code": 42,
    "city": "五島市",
    "city_kana": "ゴトウシ",
    "town": "三井楽町濱窄",
    "town_kana": "ミイラクマチハマサコ",
    "street": null,
    "office_name": null,
    "office_name_kana": null
  },
  "0606": {
    "postcode": "8530606",
    "prefecture": "長崎県",
    "prefecture_kana": "ナガサキケン",
    "prefecture_code": 42,
    "city": "五島市",
    "city_kana": "ゴトウシ",
    "town": "三井楽町丑ノ浦",
    "town_kana": "ミイラクマチウシノウラ",
    "street": null,
    "office_name": null,
    "office_name_kana": null
  },
  "0607": {
    "postcode": "8530607",
    "prefecture": "長崎県",
    "prefecture_kana": "ナガサキケン",
    "prefecture_code": 42,
    "city": "五島市",
    "city_kana": "ゴトウシ",
    "town": "三井楽町嶽",
    "town_kana": "ミイラクマチタケ",
    "street": null,
    "office_name": null,
    "office_name_kana": null
  },
  "0608": {
    "postcode": "8530608",
    "prefecture": "長崎県",
    "prefecture_kana": "ナガサキケン",
    "prefecture_code": 42,
    "city": "五島市",
    "city_kana": "ゴトウシ",
    "town": "三井楽町波砂間",
    "town_kana": "ミイラクマチハサマ",
    "street": null,
    "office_name": null,
    "office_name_kana": null
  },
  "0609": {
    "postcode": "8530609",
    "prefecture": "長崎県",
    "prefecture_kana": "ナガサキケン",
    "prefecture_code": 42,
    "city": "五島市",
    "city_kana": "ゴトウシ",
    "town": "三井楽町渕ノ元",
    "town_kana": "ミイラクマチフチノモト",
    "street": null,
    "office_name": null,
    "office_name_kana": null
  },
  "0611": {
    "postcode": "8530611",
    "prefecture": "長崎県",
    "prefecture_kana": "ナガサキケン",
    "prefecture_code": 42,
    "city": "五島市",
    "city_kana": "ゴトウシ",
    "town": "三井楽町嵯峨島",
    "town_kana": "ミイラクマチサガノシマ",
    "street": null,
    "office_name": null,
    "office_name_kana": null
  },
  "0612": {
    "postcode": "8530612",
    "prefecture": "長崎県",
    "prefecture_kana": "ナガサキケン",
    "prefecture_code": 42,
    "city": "五島市",
    "city_kana": "ゴトウシ",
    "town": "三井楽町高崎",
    "town_kana": "ミイラクマチタカサキ",
    "street": null,
    "office_name": null,
    "office_name_kana": null
  },
  "0613": {
    "postcode": "8530613",
    "prefecture": "長崎県",
    "prefecture_kana": "ナガサキケン",
    "prefecture_code": 42,
    "city": "五島市",
    "city_kana": "ゴトウシ",
    "town": "三井楽町塩水",
    "town_kana": "ミイラクマチシオミズ",
    "street": null,
    "office_name": null,
    "office_name_kana": null
  },
  "0692": {
    "postcode": "8530692",
    "prefecture": "長崎県",
    "prefecture_kana": "ナガサキケン",
    "prefecture_code": 42,
    "city": "五島市",
    "city_kana": "ゴトウシ",
    "town": "三井楽町濱ノ畔",
    "town_kana": "ミイラクマチハマノクリ",
    "street": "１４７３−１",
    "office_name": "五島市　三井楽支所",
    "office_name_kana": "ゴトウシ ミイラクシシヨ"
  },
  "0701": {
    "postcode": "8530701",
    "prefecture": "長崎県",
    "prefecture_kana": "ナガサキケン",
    "prefecture_code": 42,
    "city": "五島市",
    "city_kana": "ゴトウシ",
    "town": "岐宿町岐宿",
    "town_kana": "キシクマチキシク",
    "street": null,
    "office_name": null,
    "office_name_kana": null
  },
  "0702": {
    "postcode": "8530702",
    "prefecture": "長崎県",
    "prefecture_kana": "ナガサキケン",
    "prefecture_code": 42,
    "city": "五島市",
    "city_kana": "ゴトウシ",
    "town": "岐宿町川原",
    "town_kana": "キシクマチカワラ",
    "street": null,
    "office_name": null,
    "office_name_kana": null
  },
  "0703": {
    "postcode": "8530703",
    "prefecture": "長崎県",
    "prefecture_kana": "ナガサキケン",
    "prefecture_code": 42,
    "city": "五島市",
    "city_kana": "ゴトウシ",
    "town": "岐宿町楠原",
    "town_kana": "キシクマチクスハラ",
    "street": null,
    "office_name": null,
    "office_name_kana": null
  },
  "0704": {
    "postcode": "8530704",
    "prefecture": "長崎県",
    "prefecture_kana": "ナガサキケン",
    "prefecture_code": 42,
    "city": "五島市",
    "city_kana": "ゴトウシ",
    "town": "岐宿町河務",
    "town_kana": "キシクマチコウム",
    "street": null,
    "office_name": null,
    "office_name_kana": null
  },
  "0705": {
    "postcode": "8530705",
    "prefecture": "長崎県",
    "prefecture_kana": "ナガサキケン",
    "prefecture_code": 42,
    "city": "五島市",
    "city_kana": "ゴトウシ",
    "town": "岐宿町戸岐ノ首",
    "town_kana": "キシクマチトギノクビ",
    "street": null,
    "office_name": null,
    "office_name_kana": null
  },
  "0706": {
    "postcode": "8530706",
    "prefecture": "長崎県",
    "prefecture_kana": "ナガサキケン",
    "prefecture_code": 42,
    "city": "五島市",
    "city_kana": "ゴトウシ",
    "town": "岐宿町唐船ノ浦",
    "town_kana": "キシクマチトウセンノウラ",
    "street": null,
    "office_name": null,
    "office_name_kana": null
  },
  "2171": {
    "postcode": "8532171",
    "prefecture": "長崎県",
    "prefecture_kana": "ナガサキケン",
    "prefecture_code": 42,
    "city": "五島市",
    "city_kana": "ゴトウシ",
    "town": "久賀町",
    "town_kana": "ヒサカチョウ",
    "street": null,
    "office_name": null,
    "office_name_kana": null
  },
  "2172": {
    "postcode": "8532172",
    "prefecture": "長崎県",
    "prefecture_kana": "ナガサキケン",
    "prefecture_code": 42,
    "city": "五島市",
    "city_kana": "ゴトウシ",
    "town": "蕨町",
    "town_kana": "ワラビチョウ",
    "street": null,
    "office_name": null,
    "office_name_kana": null
  },
  "2173": {
    "postcode": "8532173",
    "prefecture": "長崎県",
    "prefecture_kana": "ナガサキケン",
    "prefecture_code": 42,
    "city": "五島市",
    "city_kana": "ゴトウシ",
    "town": "田ノ浦町",
    "town_kana": "タノウラチョウ",
    "street": null,
    "office_name": null,
    "office_name_kana": null
  },
  "2174": {
    "postcode": "8532174",
    "prefecture": "長崎県",
    "prefecture_kana": "ナガサキケン",
    "prefecture_code": 42,
    "city": "五島市",
    "city_kana": "ゴトウシ",
    "town": "猪之木町",
    "town_kana": "イノキチョウ",
    "street": null,
    "office_name": null,
    "office_name_kana": null
  },
  "2201": {
    "postcode": "8532201",
    "prefecture": "長崎県",
    "prefecture_kana": "ナガサキケン",
    "prefecture_code": 42,
    "city": "五島市",
    "city_kana": "ゴトウシ",
    "town": "奈留町浦",
    "town_kana": "ナルマチウラ",
    "street": null,
    "office_name": null,
    "office_name_kana": null
  },
  "2202": {
    "postcode": "8532202",
    "prefecture": "長崎県",
    "prefecture_kana": "ナガサキケン",
    "prefecture_code": 42,
    "city": "五島市",
    "city_kana": "ゴトウシ",
    "town": "奈留町大串",
    "town_kana": "ナルマチオオクシ",
    "street": null,
    "office_name": null,
    "office_name_kana": null
  },
  "2203": {
    "postcode": "8532203",
    "prefecture": "長崎県",
    "prefecture_kana": "ナガサキケン",
    "prefecture_code": 42,
    "city": "五島市",
    "city_kana": "ゴトウシ",
    "town": "奈留町泊",
    "town_kana": "ナルマチトマリ",
    "street": null,
    "office_name": null,
    "office_name_kana": null
  },
  "2204": {
    "postcode": "8532204",
    "prefecture": "長崎県",
    "prefecture_kana": "ナガサキケン",
    "prefecture_code": 42,
    "city": "五島市",
    "city_kana": "ゴトウシ",
    "town": "奈留町船廻",
    "town_kana": "ナルマチフナマワリ",
    "street": null,
    "office_name": null,
    "office_name_kana": null
  },
  "2292": {
    "postcode": "8532292",
    "prefecture": "長崎県",
    "prefecture_kana": "ナガサキケン",
    "prefecture_code": 42,
    "city": "五島市",
    "city_kana": "ゴトウシ",
    "town": "奈留町浦",
    "town_kana": "ナルマチウラ",
    "street": "１８１８−１",
    "office_name": "五島市　奈留支所",
    "office_name_kana": "ゴトウシ ナルシシヨ"
  },
  "2301": {
    "postcode": "8532301",
    "prefecture": "長崎県",
    "prefecture_kana": "ナガサキケン",
    "prefecture_code": 42,
    "city": "南松浦郡新上五島町",
    "city_kana": "ミナミマツウラグンシンカミゴトウチョウ",
    "town": "若松郷",
    "town_kana": "ワカマツゴウ",
    "street": null,
    "office_name": null,
    "office_name_kana": null
  },
  "2302": {
    "postcode": "8532302",
    "prefecture": "長崎県",
    "prefecture_kana": "ナガサキケン",
    "prefecture_code": 42,
    "city": "南松浦郡新上五島町",
    "city_kana": "ミナミマツウラグンシンカミゴトウチョウ",
    "town": "桐古里郷",
    "town_kana": "キリフルサトゴウ",
    "street": null,
    "office_name": null,
    "office_name_kana": null
  },
  "2303": {
    "postcode": "8532303",
    "prefecture": "長崎県",
    "prefecture_kana": "ナガサキケン",
    "prefecture_code": 42,
    "city": "南松浦郡新上五島町",
    "city_kana": "ミナミマツウラグンシンカミゴトウチョウ",
    "town": "宿ノ浦郷",
    "town_kana": "シュクノウラゴウ",
    "street": null,
    "office_name": null,
    "office_name_kana": null
  },
  "2304": {
    "postcode": "8532304",
    "prefecture": "長崎県",
    "prefecture_kana": "ナガサキケン",
    "prefecture_code": 42,
    "city": "南松浦郡新上五島町",
    "city_kana": "ミナミマツウラグンシンカミゴトウチョウ",
    "town": "荒川郷",
    "town_kana": "アラカワゴウ",
    "street": null,
    "office_name": null,
    "office_name_kana": null
  },
  "2305": {
    "postcode": "8532305",
    "prefecture": "長崎県",
    "prefecture_kana": "ナガサキケン",
    "prefecture_code": 42,
    "city": "南松浦郡新上五島町",
    "city_kana": "ミナミマツウラグンシンカミゴトウチョウ",
    "town": "西神ノ浦郷",
    "town_kana": "ニシコウノウラゴウ",
    "street": null,
    "office_name": null,
    "office_name_kana": null
  },
  "2311": {
    "postcode": "8532311",
    "prefecture": "長崎県",
    "prefecture_kana": "ナガサキケン",
    "prefecture_code": 42,
    "city": "南松浦郡新上五島町",
    "city_kana": "ミナミマツウラグンシンカミゴトウチョウ",
    "town": "榊ノ浦郷",
    "town_kana": "サカキノウラゴウ",
    "street": null,
    "office_name": null,
    "office_name_kana": null
  },
  "2312": {
    "postcode": "8532312",
    "prefecture": "長崎県",
    "prefecture_kana": "ナガサキケン",
    "prefecture_code": 42,
    "city": "南松浦郡新上五島町",
    "city_kana": "ミナミマツウラグンシンカミゴトウチョウ",
    "town": "日島郷",
    "town_kana": "ヒノシマゴウ",
    "street": null,
    "office_name": null,
    "office_name_kana": null
  },
  "2313": {
    "postcode": "8532313",
    "prefecture": "長崎県",
    "prefecture_kana": "ナガサキケン",
    "prefecture_code": 42,
    "city": "南松浦郡新上五島町",
    "city_kana": "ミナミマツウラグンシンカミゴトウチョウ",
    "town": "有福郷",
    "town_kana": "アリフクゴウ",
    "street": null,
    "office_name": null,
    "office_name_kana": null
  },
  "2314": {
    "postcode": "8532314",
    "prefecture": "長崎県",
    "prefecture_kana": "ナガサキケン",
    "prefecture_code": 42,
    "city": "南松浦郡新上五島町",
    "city_kana": "ミナミマツウラグンシンカミゴトウチョウ",
    "town": "漁生浦郷",
    "town_kana": "リョウセウラゴウ",
    "street": null,
    "office_name": null,
    "office_name_kana": null
  },
  "2315": {
    "postcode": "8532315",
    "prefecture": "長崎県",
    "prefecture_kana": "ナガサキケン",
    "prefecture_code": 42,
    "city": "南松浦郡新上五島町",
    "city_kana": "ミナミマツウラグンシンカミゴトウチョウ",
    "town": "間伏郷",
    "town_kana": "マブシゴウ",
    "street": null,
    "office_name": null,
    "office_name_kana": null
  },
  "2392": {
    "postcode": "8532392",
    "prefecture": "長崎県",
    "prefecture_kana": "ナガサキケン",
    "prefecture_code": 42,
    "city": "南松浦郡新上五島町",
    "city_kana": "ミナミマツウラグンシンカミゴトウチョウ",
    "town": "若松郷",
    "town_kana": "ワカマツゴウ",
    "street": "２７７−７",
    "office_name": "新上五島町役場　若松支所",
    "office_name_kana": "シンカミゴトウチヨウヤクバ ワカマツシシヨ"
  },
  "2481": {
    "postcode": "8532481",
    "prefecture": "長崎県",
    "prefecture_kana": "ナガサキケン",
    "prefecture_code": 42,
    "city": "五島市",
    "city_kana": "ゴトウシ",
    "town": "伊福貴町",
    "town_kana": "イフキチョウ",
    "street": null,
    "office_name": null,
    "office_name_kana": null
  },
  "2482": {
    "postcode": "8532482",
    "prefecture": "長崎県",
    "prefecture_kana": "ナガサキケン",
    "prefecture_code": 42,
    "city": "五島市",
    "city_kana": "ゴトウシ",
    "town": "本窯町",
    "town_kana": "モトガマチョウ",
    "street": null,
    "office_name": null,
    "office_name_kana": null
  },
  "3101": {
    "postcode": "8533101",
    "prefecture": "長崎県",
    "prefecture_kana": "ナガサキケン",
    "prefecture_code": 42,
    "city": "南松浦郡新上五島町",
    "city_kana": "ミナミマツウラグンシンカミゴトウチョウ",
    "town": "奈良尾郷",
    "town_kana": "ナラオゴウ",
    "street": null,
    "office_name": null,
    "office_name_kana": null
  },
  "3102": {
    "postcode": "8533102",
    "prefecture": "長崎県",
    "prefecture_kana": "ナガサキケン",
    "prefecture_code": 42,
    "city": "南松浦郡新上五島町",
    "city_kana": "ミナミマツウラグンシンカミゴトウチョウ",
    "town": "岩瀬浦郷",
    "town_kana": "イワセウラゴウ",
    "street": null,
    "office_name": null,
    "office_name_kana": null
  },
  "3192": {
    "postcode": "8533192",
    "prefecture": "長崎県",
    "prefecture_kana": "ナガサキケン",
    "prefecture_code": 42,
    "city": "南松浦郡新上五島町",
    "city_kana": "ミナミマツウラグンシンカミゴトウチョウ",
    "town": "奈良尾郷",
    "town_kana": "ナラオゴウ",
    "street": "３８０番地１",
    "office_name": "新上五島町役場　奈良尾支所",
    "office_name_kana": "シンカミゴトウチヨウヤクバ ナラオシシヨ"
  },
  "3321": {
    "postcode": "8533321",
    "prefecture": "長崎県",
    "prefecture_kana": "ナガサキケン",
    "prefecture_code": 42,
    "city": "南松浦郡新上五島町",
    "city_kana": "ミナミマツウラグンシンカミゴトウチョウ",
    "town": "鯛ノ浦郷",
    "town_kana": "タイノウラゴウ",
    "street": null,
    "office_name": null,
    "office_name_kana": null
  },
  "3322": {
    "postcode": "8533322",
    "prefecture": "長崎県",
    "prefecture_kana": "ナガサキケン",
    "prefecture_code": 42,
    "city": "南松浦郡新上五島町",
    "city_kana": "ミナミマツウラグンシンカミゴトウチョウ",
    "town": "阿瀬津郷",
    "town_kana": "アゼツゴウ",
    "street": null,
    "office_name": null,
    "office_name_kana": null
  },
  "3323": {
    "postcode": "8533323",
    "prefecture": "長崎県",
    "prefecture_kana": "ナガサキケン",
    "prefecture_code": 42,
    "city": "南松浦郡新上五島町",
    "city_kana": "ミナミマツウラグンシンカミゴトウチョウ",
    "town": "東神ノ浦郷",
    "town_kana": "ヒガシコウノウラゴウ",
    "street": null,
    "office_name": null,
    "office_name_kana": null
  },
  "8501": {
    "postcode": "8538501",
    "prefecture": "長崎県",
    "prefecture_kana": "ナガサキケン",
    "prefecture_code": 42,
    "city": "五島市",
    "city_kana": "ゴトウシ",
    "town": "福江町",
    "town_kana": "フクエチョウ",
    "street": "４７８",
    "office_name": "五島市役所",
    "office_name_kana": "ゴトウシヤクシヨ"
  },
  "8502": {
    "postcode": "8538502",
    "prefecture": "長崎県",
    "prefecture_kana": "ナガサキケン",
    "prefecture_code": 42,
    "city": "五島市",
    "city_kana": "ゴトウシ",
    "town": "福江町",
    "town_kana": "フクエチョウ",
    "street": "５０４",
    "office_name": "長崎県　五島支庁",
    "office_name_kana": "ナガサキケン ゴトウシチヨウ"
  },
  "8601": {
    "postcode": "8538601",
    "prefecture": "長崎県",
    "prefecture_kana": "ナガサキケン",
    "prefecture_code": 42,
    "city": "五島市",
    "city_kana": "ゴトウシ",
    "town": "福江町",
    "town_kana": "フクエチョウ",
    "street": "７",
    "office_name": "長崎県立　五島高等学校",
    "office_name_kana": "ナガサキケンリツ ゴトウコウトウガツコウ"
  }
}