{
  "0101": {
    "postcode": "8590101",
    "prefecture": "長崎県",
    "prefecture_kana": "ナガサキケン",
    "prefecture_code": 42,
    "city": "諫早市",
    "city_kana": "イサハヤシ",
    "town": "高来町大戸",
    "town_kana": "タカキチョウオオト",
    "street": null,
    "office_name": null,
    "office_name_kana": null
  },
  "0102": {
    "postcode": "8590102",
    "prefecture": "長崎県",
    "prefecture_kana": "ナガサキケン",
    "prefecture_code": 42,
    "city": "諫早市",
    "city_kana": "イサハヤシ",
    "town": "高来町折山",
    "town_kana": "タカキチョウオリヤマ",
    "street": null,
    "office_name": null,
    "office_name_kana": null
  },
  "0103": {
    "postcode": "8590103",
    "prefecture": "長崎県",
    "prefecture_kana": "ナガサキケン",
    "prefecture_code": 42,
    "city": "諫早市",
    "city_kana": "イサハヤシ",
    "town": "高来町古場",
    "town_kana": "タカキチョウコバ",
    "street": null,
    "office_name": null,
    "office_name_kana": null
  },
  "0104": {
    "postcode": "8590104",
    "prefecture": "長崎県",
    "prefecture_kana": "ナガサキケン",
    "prefecture_code": 42,
    "city": "諫早市",
    "city_kana": "イサハヤシ",
    "town": "高来町建山",
    "town_kana": "タカキチョウタチヤマ",
    "street": null,
    "office_name": null,
    "office_name_kana": null
  },
  "0105": {
    "postcode": "8590105",
    "prefecture": "長崎県",
    "prefecture_kana": "ナガサキケン",
    "prefecture_code": 42,
    "city": "諫早市",
    "city_kana": "イサハヤシ",
    "town": "高来町船津",
    "town_kana": "タカキチョウフナツ",
    "street": null,
    "office_name": null,
    "office_name_kana": null
  },
  "0106": {
    "postcode": "8590106",
    "prefecture": "長崎県",
    "prefecture_kana": "ナガサキケン",
    "prefecture_code": 42,
    "city": "諫早市",
    "city_kana": "イサハヤシ",
    "town": "高来町冨地戸",
    "town_kana": "タカキチョウフジト",
    "street": null,
    "office_name": null,
    "office_name_kana": null
  },
  "0111": {
    "postcode": "8590111",
    "prefecture": "長崎県",
    "prefecture_kana": "ナガサキケン",
    "prefecture_code": 42,
    "city": "諫早市",
    "city_kana": "イサハヤシ",
    "town": "高来町上与",
    "town_kana": "タカキチョウウワグミ",
    "street": null,
    "office_name": null,
    "office_name_kana": null
  },
  "0112": {
    "postcode": "8590112",
    "prefecture": "長崎県",
    "prefecture_kana": "ナガサキケン",
    "prefecture_code": 42,
    "city": "諫早市",
    "city_kana": "イサハヤシ",
    "town": "高来町小船津",
    "town_kana": "タカキチョウコブナツ",
    "street": null,
    "office_name": null,
    "office_name_kana": null
  },
  "0113": {
    "postcode": "8590113",
    "prefecture": "長崎県",
    "prefecture_kana": "ナガサキケン",
    "prefecture_code": 42,
    "city": "諫早市",
    "city_kana": "イサハヤシ",
    "town": "高来町下与",
    "town_kana": "タカキチョウシタグミ",
    "street": null,
    "office_name": null,
    "office_name_kana": null
  },
  "0114": {
    "postcode": "8590114",
    "prefecture": "長崎県",
    "prefecture_kana": "ナガサキケン",
    "prefecture_code": 42,
    "city": "諫早市",
    "city_kana": "イサハヤシ",
    "town": "高来町西平原",
    "town_kana": "タカキチョウニシヒラバル",
    "street": null,
    "office_name": null,
    "office_name_kana": null
  },
  "0115": {
    "postcode": "8590115",
    "prefecture": "長崎県",
    "prefecture_kana": "ナガサキケン",
    "prefecture_code": 42,
    "city": "諫早市",
    "city_kana": "イサハヤシ",
    "town": "高来町西尾",
    "town_kana": "タカキチョウニシノオ",
    "street": null,
    "office_name": null,
    "office_name_kana": null
  },
  "0116": {
    "postcode": "8590116",
    "prefecture": "長崎県",
    "prefecture_kana": "ナガサキケン",
    "prefecture_code": 42,
    "city": "諫早市",
    "city_kana": "イサハヤシ",
    "town": "高来町平田",
    "town_kana": "タカキチョウヒラタ",
    "street": null,
    "office_name": null,
    "office_name_kana": null
  },
  "0117": {
    "postcode": "8590117",
    "prefecture": "長崎県",
    "prefecture_kana": "ナガサキケン",
    "prefecture_code": 42,
    "city": "諫早市",
    "city_kana": "イサハヤシ",
    "town": "高来町峰",
    "town_kana": "タカキチョウミネ",
    "street": null,
    "office_name": null,
    "office_name_kana": null
  },
  "0121": {
    "postcode": "8590121",
    "prefecture": "長崎県",
    "prefecture_kana": "ナガサキケン",
    "prefecture_code": 42,
    "city": "諫早市",
    "city_kana": "イサハヤシ",
    "town": "高来町泉",
    "town_kana": "タカキチョウイズミ",
    "street": null,
    "office_name": null,
    "office_name_kana": null
  },
  "0122": {
    "postcode": "8590122",
    "prefecture": "長崎県",
    "prefecture_kana": "ナガサキケン",
    "prefecture_code": 42,
    "city": "諫早市",
    "city_kana": "イサハヤシ",
    "town": "高来町黒崎",
    "town_kana": "タカキチョウクロサキ",
    "street": null,
    "office_name": null,
    "office_name_kana": null
  },
  "0123": {
    "postcode": "8590123",
    "prefecture": "長崎県",
    "prefecture_kana": "ナガサキケン",
    "prefecture_code": 42,
    "city": "諫早市",
    "city_kana": "イサハヤシ",
    "town": "高来町小峰",
    "town_kana": "タカキチョウコミネ",
    "street": null,
    "office_name": null,
    "office_name_kana": null
  },
  "0124": {
    "postcode": "8590124",
    "prefecture": "長崎県",
    "prefecture_kana": "ナガサキケン",
    "prefecture_code": 42,
    "city": "諫早市",
    "city_kana": "イサハヤシ",
    "town": "高来町里",
    "town_kana": "タカキチョウサト",
    "street": null,
    "office_name": null,
    "office_name_kana": null
  },
  "0125": {
    "postcode": "8590125",
    "prefecture": "長崎県",
    "prefecture_kana": "ナガサキケン",
    "prefecture_code": 42,
    "city": "諫早市",
    "city_kana": "イサハヤシ",
    "town": "高来町善住寺",
    "town_kana": "タカキチョウゼンジュウジ",
    "street": null,
    "office_name": null,
    "office_name_kana": null
  },
  "0126": {
    "postcode": "8590126",
    "prefecture": "長崎県",
    "prefecture_kana": "ナガサキケン",
    "prefecture_code": 42,
    "city": "諫早市",
    "city_kana": "イサハヤシ",
    "town": "高来町法川",
    "town_kana": "タカキチョウノリガワ",
    "street": null,
    "office_name": null,
    "office_name_kana": null
  },
  "0127": {
    "postcode": "8590127",
    "prefecture": "長崎県",
    "prefecture_kana": "ナガサキケン",
    "prefecture_code": 42,
    "city": "諫早市",
    "city_kana": "イサハヤシ",
    "town": "高来町町名",
    "town_kana": "タカキチョウマチミョウ",
    "street": null,
    "office_name": null,
    "office_name_kana": null
  },
  "0131": {
    "postcode": "8590131",
    "prefecture": "長崎県",
    "prefecture_kana": "ナガサキケン",
    "prefecture_code": 42,
    "city": "諫早市",
    "city_kana": "イサハヤシ",
    "town": "高来町神津倉",
    "town_kana": "タカキチョウコウヅクラ",
    "street": null,
    "office_name": null,
    "office_name_kana": null
  },
  "0132": {
    "postcode": "8590132",
    "prefecture": "長崎県",
    "prefecture_kana": "ナガサキケン",
    "prefecture_code": 42,
    "city": "諫早市",
    "city_kana": "イサハヤシ",
    "town": "高来町三部壱",
    "town_kana": "タカキチョウサンブイチ",
    "street": null,
    "office_name": null,
    "office_name_kana": null
  },
  "0133": {
    "postcode": "8590133",
    "prefecture": "長崎県",
    "prefecture_kana": "ナガサキケン",
    "prefecture_code": 42,
    "city": "諫早市",
    "city_kana": "イサハヤシ",
    "town": "高来町東平原",
    "town_kana": "タカキチョウヒガシヒラバル",
    "street": null,
    "office_name": null,
    "office_name_kana": null
  },
  "0141": {
    "postcode": "8590141",
    "prefecture": "長崎県",
    "prefecture_kana": "ナガサキケン",
    "prefecture_code": 42,
    "city": "諫早市",
    "city_kana": "イサハヤシ",
    "town": "高来町汲水",
    "town_kana": "タカキチョウクミズ",
    "street": null,
    "office_name": null,
    "office_name_kana": null
  },
  "0142": {
    "postcode": "8590142",
    "prefecture": "長崎県",
    "prefecture_kana": "ナガサキケン",
    "prefecture_code": 42,
    "city": "諫早市",
    "city_kana": "イサハヤシ",
    "town": "高来町黒新田",
    "town_kana": "タカキチョウクロニタ",
    "street": null,
    "office_name": null,
    "office_name_kana": null
  },
  "0143": {
    "postcode": "8590143",
    "prefecture": "長崎県",
    "prefecture_kana": "ナガサキケン",
    "prefecture_code": 42,
    "city": "諫早市",
    "city_kana": "イサハヤシ",
    "town": "高来町坂元",
    "town_kana": "タカキチョウサカモト",
    "street": null,
    "office_name": null,
    "office_name_kana": null
  },
  "0144": {
    "postcode": "8590144",
    "prefecture": "長崎県",
    "prefecture_kana": "ナガサキケン",
    "prefecture_code": 42,
    "city": "諫早市",
    "city_kana": "イサハヤシ",
    "town": "高来町溝口",
    "town_kana": "タカキチョウミゾグチ",
    "street": null,
    "office_name": null,
    "office_name_kana": null
  },
  "0145": {
    "postcode": "8590145",
    "prefecture": "長崎県",
    "prefecture_kana": "ナガサキケン",
    "prefecture_code": 42,
    "city": "諫早市",
    "city_kana": "イサハヤシ",
    "town": "高来町山道",
    "town_kana": "タカキチョウヤマミチ",
    "street": null,
    "office_name": null,
    "office_name_kana": null
  },
  "0146": {
    "postcode": "8590146",
    "prefecture": "長崎県",
    "prefecture_kana": "ナガサキケン",
    "prefecture_code": 42,
    "city": "諫早市",
    "city_kana": "イサハヤシ",
    "town": "高来町金崎",
    "town_kana": "タカキチョウカナサキ",
    "street": null,
    "office_name": null,
    "office_name_kana": null
  },
  "0147": {
    "postcode": "8590147",
    "prefecture": "長崎県",
    "prefecture_kana": "ナガサキケン",
    "prefecture_code": 42,
    "city": "諫早市",
    "city_kana": "イサハヤシ",
    "town": "高来町水ノ浦",
    "town_kana": "タカキチョウミズノウラ",
    "street": null,
    "office_name": null,
    "office_name_kana": null
  },
  "0151": {
    "postcode": "8590151",
    "prefecture": "長崎県",
    "prefecture_kana": "ナガサキケン",
    "prefecture_code": 42,
    "city": "諫早市",
    "city_kana": "イサハヤシ",
    "town": "小長井町打越",
    "town_kana": "コナガイチョウウチコシ",
    "street": null,
    "office_name": null,
    "office_name_kana": null
  },
  "0152": {
    "postcode": "8590152",
    "prefecture": "長崎県",
    "prefecture_kana": "ナガサキケン",
    "prefecture_code": 42,
    "city": "諫早市",
    "city_kana": "イサハヤシ",
    "town": "小長井町大搦",
    "town_kana": "コナガイチョウオオガラミ",
    "street": null,
    "office_name": null,
    "office_name_kana": null
  },
  "0153": {
    "postcode": "8590153",
    "prefecture": "長崎県",
    "prefecture_kana": "ナガサキケン",
    "prefecture_code": 42,
    "city": "諫早市",
    "city_kana": "イサハヤシ",
    "town": "小長井町大峰",
    "town_kana": "コナガイチョウオオミネ",
    "street": null,
    "office_name": null,
    "office_name_kana": null
  },
  "0154": {
    "postcode": "8590154",
    "prefecture": "長崎県",
    "prefecture_kana": "ナガサキケン",
    "prefecture_code": 42,
    "city": "諫早市",
    "city_kana": "イサハヤシ",
    "town": "小長井町川内",
    "town_kana": "コナガイチョウコウチ",
    "street": null,
    "office_name": null,
    "office_name_kana": null
  },
  "0161": {
    "postcode": "8590161",
    "prefecture": "長崎県",
    "prefecture_kana": "ナガサキケン",
    "prefecture_code": 42,
    "city": "諫早市",
    "city_kana": "イサハヤシ",
    "town": "小長井町古場",
    "town_kana": "コナガイチョウコバ",
    "street": null,
    "office_name": null,
    "office_name_kana": null
  },
  "0162": {
    "postcode": "8590162",
    "prefecture": "長崎県",
    "prefecture_kana": "ナガサキケン",
    "prefecture_code": 42,
    "city": "諫早市",
    "city_kana": "イサハヤシ",
    "town": "小長井町新田原",
    "town_kana": "コナガイチョウシンタバル",
    "street": null,
    "office_name": null,
    "office_name_kana": null
  },
  "0163": {
    "postcode": "8590163",
    "prefecture": "長崎県",
    "prefecture_kana": "ナガサキケン",
    "prefecture_code": 42,
    "city": "諫早市",
    "city_kana": "イサハヤシ",
    "town": "小長井町田原",
    "town_kana": "コナガイチョウタバル",
    "street": null,
    "office_name": null,
    "office_name_kana": null
  },
  "0164": {
    "postcode": "8590164",
    "prefecture": "長崎県",
    "prefecture_kana": "ナガサキケン",
    "prefecture_code": 42,
    "city": "諫早市",
    "city_kana": "イサハヤシ",
    "town": "小長井町牧",
    "town_kana": "コナガイチョウマキ",
    "street": null,
    "office_name": null,
    "office_name_kana": null
  },
  "0165": {
    "postcode": "8590165",
    "prefecture": "長崎県",
    "prefecture_kana": "ナガサキケン",
    "prefecture_code": 42,
    "city": "諫早市",
    "city_kana": "イサハヤシ",
    "town": "小長井町小川原浦",
    "town_kana": "コナガイチョウオガワハラウラ",
    "street": null,
    "office_name": null,
    "office_name_kana": null
  },
  "0166": {
    "postcode": "8590166",
    "prefecture": "長崎県",
    "prefecture_kana": "ナガサキケン",
    "prefecture_code": 42,
    "city": "諫早市",
    "city_kana": "イサハヤシ",
    "town": "小長井町井崎",
    "town_kana": "コナガイチョウイザキ",
    "street": null,
    "office_name": null,
    "office_name_kana": null
  },
  "0167": {
    "postcode": "8590167",
    "prefecture": "長崎県",
    "prefecture_kana": "ナガサキケン",
    "prefecture_code": 42,
    "city": "諫早市",
    "city_kana": "イサハヤシ",
    "town": "小長井町遠竹",
    "town_kana": "コナガイチョウトオダケ",
    "street": null,
    "office_name": null,
    "office_name_kana": null
  },
  "0171": {
    "postcode": "8590171",
    "prefecture": "長崎県",
    "prefecture_kana": "ナガサキケン",
    "prefecture_code": 42,
    "city": "諫早市",
    "city_kana": "イサハヤシ",
    "town": "高来町小江干拓",
    "town_kana": "タカキチョウオエカンタク",
    "street": null,
    "office_name": null,
    "office_name_kana": null
  },
  "0192": {
    "postcode": "8590192",
    "prefecture": "長崎県",
    "prefecture_kana": "ナガサキケン",
    "prefecture_code": 42,
    "city": "諫早市",
    "city_kana": "イサハヤシ",
    "town": "高来町三部壱",
    "town_kana": "タカキチョウサンブイチ",
    "street": "５２８",
    "office_name": "諫早市役所　高来支所",
    "office_name_kana": "イサハヤシヤクシヨ タカキシシヨ"
  },
  "0193": {
    "postcode": "8590193",
    "prefecture": "長崎県",
    "prefecture_kana": "ナガサキケン",
    "prefecture_code": 42,
    "city": "諫早市",
    "city_kana": "イサハヤシ",
    "town": "小長井町遠竹",
    "town_kana": "コナガイチョウトオダケ",
    "street": "２７４７−６",
    "office_name": "社会福祉法人　聖家族会　みさかえの園",
    "office_name_kana": "シヤカイフクシホウジン セイカゾクカイ ミサカエノソノ"
  },
  "0301": {
    "postcode": "8590301",
    "prefecture": "長崎県",
    "prefecture_kana": "ナガサキケン",
    "prefecture_code": 42,
    "city": "諫早市",
    "city_kana": "イサハヤシ",
    "town": "長田町",
    "town_kana": "ナガタマチ",
    "street": null,
    "office_name": null,
    "office_name_kana": null
  },
  "0302": {
    "postcode": "8590302",
    "prefecture": "長崎県",
    "prefecture_kana": "ナガサキケン",
    "prefecture_code": 42,
    "city": "諫早市",
    "city_kana": "イサハヤシ",
    "town": "正久寺町",
    "town_kana": "ショウキュウジマチ",
    "street": null,
    "office_name": null,
    "office_name_kana": null
  },
  "0303": {
    "postcode": "8590303",
    "prefecture": "長崎県",
    "prefecture_kana": "ナガサキケン",
    "prefecture_code": 42,
    "city": "諫早市",
    "city_kana": "イサハヤシ",
    "town": "高天町",
    "town_kana": "コウテンマチ",
    "street": null,
    "office_name": null,
    "office_name_kana": null
  },
  "0304": {
    "postcode": "8590304",
    "prefecture": "長崎県",
    "prefecture_kana": "ナガサキケン",
    "prefecture_code": 42,
    "city": "諫早市",
    "city_kana": "イサハヤシ",
    "town": "白浜町",
    "town_kana": "シラハママチ",
    "street": null,
    "office_name": null,
    "office_name_kana": null
  },
  "0305": {
    "postcode": "8590305",
    "prefecture": "長崎県",
    "prefecture_kana": "ナガサキケン",
    "prefecture_code": 42,
    "city": "諫早市",
    "city_kana": "イサハヤシ",
    "town": "猿崎町",
    "town_kana": "サルザキマチ",
    "street": null,
    "office_name": null,
    "office_name_kana": null
  },
  "0306": {
    "postcode": "8590306",
    "prefecture": "長崎県",
    "prefecture_kana": "ナガサキケン",
    "prefecture_code": 42,
    "city": "諫早市",
    "city_kana": "イサハヤシ",
    "town": "白原町",
    "town_kana": "シラハラマチ",
    "street": null,
    "office_name": null,
    "office_name_kana": null
  },
  "0307": {
    "postcode": "8590307",
    "prefecture": "長崎県",
    "prefecture_kana": "ナガサキケン",
    "prefecture_code": 42,
    "city": "諫早市",
    "city_kana": "イサハヤシ",
    "town": "白木峰町",
    "town_kana": "シラキミネマチ",
    "street": null,
    "office_name": null,
    "office_name_kana": null
  },
  "0311": {
    "postcode": "8590311",
    "prefecture": "長崎県",
    "prefecture_kana": "ナガサキケン",
    "prefecture_code": 42,
    "city": "諫早市",
    "city_kana": "イサハヤシ",
    "town": "小豆崎町",
    "town_kana": "アズキサキマチ",
    "street": null,
    "office_name": null,
    "office_name_kana": null
  },
  "0312": {
    "postcode": "8590312",
    "prefecture": "長崎県",
    "prefecture_kana": "ナガサキケン",
    "prefecture_code": 42,
    "city": "諫早市",
    "city_kana": "イサハヤシ",
    "town": "西里町",
    "town_kana": "ニシザトマチ",
    "street": null,
    "office_name": null,
    "office_name_kana": null
  },
  "0313": {
    "postcode": "8590313",
    "prefecture": "長崎県",
    "prefecture_kana": "ナガサキケン",
    "prefecture_code": 42,
    "city": "諫早市",
    "city_kana": "イサハヤシ",
    "town": "中田町",
    "town_kana": "ナカダマチ",
    "street": null,
    "office_name": null,
    "office_name_kana": null
  },
  "0314": {
    "postcode": "8590314",
    "prefecture": "長崎県",
    "prefecture_kana": "ナガサキケン",
    "prefecture_code": 42,
    "city": "諫早市",
    "city_kana": "イサハヤシ",
    "town": "御手水町",
    "town_kana": "オチョウズマチ",
    "street": null,
    "office_name": null,
    "office_name_kana": null
  },
  "0315": {
    "postcode": "8590315",
    "prefecture": "長崎県",
    "prefecture_kana": "ナガサキケン",
    "prefecture_code": 42,
    "city": "諫早市",
    "city_kana": "イサハヤシ",
    "town": "大場町",
    "town_kana": "オオバマチ",
    "street": null,
    "office_name": null,
    "office_name_kana": null
  },
  "0401": {
    "postcode": "8590401",
    "prefecture": "長崎県",
    "prefecture_kana": "ナガサキケン",
    "prefecture_code": 42,
    "city": "諫早市",
    "city_kana": "イサハヤシ",
    "town": "多良見町化屋",
    "town_kana": "タラミチョウケヤ",
    "street": null,
    "office_name": null,
    "office_name_kana": null
  },
  "0402": {
    "postcode": "8590402",
    "prefecture": "長崎県",
    "prefecture_kana": "ナガサキケン",
    "prefecture_code": 42,
    "city": "諫早市",
    "city_kana": "イサハヤシ",
    "town": "多良見町囲",
    "town_kana": "タラミチョウカコイ",
    "street": null,
    "office_name": null,
    "office_name_kana": null
  },
  "0403": {
    "postcode": "8590403",
    "prefecture": "長崎県",
    "prefecture_kana": "ナガサキケン",
    "prefecture_code": 42,
    "city": "諫早市",
    "city_kana": "イサハヤシ",
    "town": "多良見町市布",
    "town_kana": "タラミチョウイチヌノ",
    "street": null,
    "office_name": null,
    "office_name_kana": null
  },
  "0404": {
    "postcode": "8590404",
    "prefecture": "長崎県",
    "prefecture_kana": "ナガサキケン",
    "prefecture_code": 42,
    "city": "諫早市",
    "city_kana": "イサハヤシ",
    "town": "多良見町西川内",
    "town_kana": "タラミチョウニシカワウチ",
    "street": null,
    "office_name": null,
    "office_name_kana": null
  },
  "0405": {
    "postcode": "8590405",
    "prefecture": "長崎県",
    "prefecture_kana": "ナガサキケン",
    "prefecture_code": 42,
    "city": "諫早市",
    "city_kana": "イサハヤシ",
    "town": "多良見町中里",
    "town_kana": "タラミチョウナカザト",
    "street": null,
    "office_name": null,
    "office_name_kana": null
  },
  "0406": {
    "postcode": "8590406",
    "prefecture": "長崎県",
    "prefecture_kana": "ナガサキケン",
    "prefecture_code": 42,
    "city": "諫早市",
    "city_kana": "イサハヤシ",
    "town": "多良見町木床",
    "town_kana": "タラミチョウキドコ",
    "street": null,
    "office_name": null,
    "office_name_kana": null
  },
  "0407": {
    "postcode": "8590407",
    "prefecture": "長崎県",
    "prefecture_kana": "ナガサキケン",
    "prefecture_code": 42,
    "city": "諫早市",
    "city_kana": "イサハヤシ",
    "town": "多良見町シーサイド",
    "town_kana": "タラミチョウシーサイド",
    "street": null,
    "office_name": null,
    "office_name_kana": null
  },
  "0411": {
    "postcode": "8590411",
    "prefecture": "長崎県",
    "prefecture_kana": "ナガサキケン",
    "prefecture_code": 42,
    "city": "諫早市",
    "city_kana": "イサハヤシ",
    "town": "多良見町東園",
    "town_kana": "タラミチョウヒガシゾノ",
    "street": null,
    "office_name": null,
    "office_name_kana": null
  },
  "0412": {
    "postcode": "8590412",
    "prefecture": "長崎県",
    "prefecture_kana": "ナガサキケン",
    "prefecture_code": 42,
    "city": "諫早市",
    "city_kana": "イサハヤシ",
    "town": "多良見町西園",
    "town_kana": "タラミチョウニシゾノ",
    "street": null,
    "office_name": null,
    "office_name_kana": null
  },
  "0413": {
    "postcode": "8590413",
    "prefecture": "長崎県",
    "prefecture_kana": "ナガサキケン",
    "prefecture_code": 42,
    "city": "諫早市",
    "city_kana": "イサハヤシ",
    "town": "多良見町野副",
    "town_kana": "タラミチョウノゾエ",
    "street": null,
    "office_name": null,
    "office_name_kana": null
  },
  "0414": {
    "postcode": "8590414",
    "prefecture": "長崎県",
    "prefecture_kana": "ナガサキケン",
    "prefecture_code": 42,
    "city": "諫早市",
    "city_kana": "イサハヤシ",
    "town": "多良見町元釜",
    "town_kana": "タラミチョウモトガマ",
    "street": null,
    "office_name": null,
    "office_name_kana": null
  },
  "0415": {
    "postcode": "8590415",
    "prefecture": "長崎県",
    "prefecture_kana": "ナガサキケン",
    "prefecture_code": 42,
    "city": "諫早市",
    "city_kana": "イサハヤシ",
    "town": "多良見町山川内",
    "town_kana": "タラミチョウヤマガワウチ",
    "street": null,
    "office_name": null,
    "office_name_kana": null
  },
  "0416": {
    "postcode": "8590416",
    "prefecture": "長崎県",
    "prefecture_kana": "ナガサキケン",
    "prefecture_code": 42,
    "city": "諫早市",
    "city_kana": "イサハヤシ",
    "town": "多良見町野川内",
    "town_kana": "タラミチョウノガワウチ",
    "street": null,
    "office_name": null,
    "office_name_kana": null
  },
  "0417": {
    "postcode": "8590417",
    "prefecture": "長崎県",
    "prefecture_kana": "ナガサキケン",
    "prefecture_code": 42,
    "city": "諫早市",
    "city_kana": "イサハヤシ",
    "town": "多良見町舟津",
    "town_kana": "タラミチョウフナツ",
    "street": null,
    "office_name": null,
    "office_name_kana": null
  },
  "0418": {
    "postcode": "8590418",
    "prefecture": "長崎県",
    "prefecture_kana": "ナガサキケン",
    "prefecture_code": 42,
    "city": "諫早市",
    "city_kana": "イサハヤシ",
    "town": "多良見町佐瀬",
    "town_kana": "タラミチョウサセ",
    "street": null,
    "office_name": null,
    "office_name_kana": null
  },
  "0492": {
    "postcode": "8590492",
    "prefecture": "長崎県",
    "prefecture_kana": "ナガサキケン",
    "prefecture_code": 42,
    "city": "諫早市",
    "city_kana": "イサハヤシ",
    "town": "多良見町化屋",
    "town_kana": "タラミチョウケヤ",
    "street": "１８６３−１",
    "office_name": "長崎県　学校生活協同組合",
    "office_name_kana": "ナガサキケン ガツコウセイカツキヨウドウクミアイ"
  },
  "0495": {
    "postcode": "8590495",
    "prefecture": "長崎県",
    "prefecture_kana": "ナガサキケン",
    "prefecture_code": 42,
    "city": "諫早市",
    "city_kana": "イサハヤシ",
    "town": "多良見町化屋",
    "town_kana": "タラミチョウケヤ",
    "street": "１８００",
    "office_name": "諫早市役所　多良見支所",
    "office_name_kana": "イサハヤシヤクシヨ タラミシシヨ"
  },
  "0497": {
    "postcode": "8590497",
    "prefecture": "長崎県",
    "prefecture_kana": "ナガサキケン",
    "prefecture_code": 42,
    "city": "諫早市",
    "city_kana": "イサハヤシ",
    "town": "多良見町化屋",
    "town_kana": "タラミチョウケヤ",
    "street": "９８６−２",
    "office_name": "日本赤十字社　長崎原爆　諫早病院",
    "office_name_kana": "ニホンセキジユウジシヤ ナガサキゲンバク イサハヤビヨウイン"
  },
  "0498": {
    "postcode": "8590498",
    "prefecture": "長崎県",
    "prefecture_kana": "ナガサキケン",
    "prefecture_code": 42,
    "city": "諫早市",
    "city_kana": "イサハヤシ",
    "town": "多良見町中里",
    "town_kana": "タラミチョウナカザト",
    "street": "１２４",
    "office_name": "加藤産業　株式会社　長崎支店",
    "office_name_kana": "カトウサンギヨウ カブシキガイシヤ ナガサキシテン"
  },
  "1101": {
    "postcode": "8591101",
    "prefecture": "長崎県",
    "prefecture_kana": "ナガサキケン",
    "prefecture_code": 42,
    "city": "雲仙市",
    "city_kana": "ウンゼンシ",
    "town": "吾妻町本村名",
    "town_kana": "アヅマチョウモトムラミョウ",
    "street": null,
    "office_name": null,
    "office_name_kana": null
  },
  "1102": {
    "postcode": "8591102",
    "prefecture": "長崎県",
    "prefecture_kana": "ナガサキケン",
    "prefecture_code": 42,
    "city": "雲仙市",
    "city_kana": "ウンゼンシ",
    "town": "吾妻町木場名",
    "town_kana": "アヅマチョウコバミョウ",
    "street": null,
    "office_name": null,
    "office_name_kana": null
  },
  "1103": {
    "postcode": "8591103",
    "prefecture": "長崎県",
    "prefecture_kana": "ナガサキケン",
    "prefecture_code": 42,
    "city": "雲仙市",
    "city_kana": "ウンゼンシ",
    "town": "吾妻町平江名",
    "town_kana": "アヅマチョウヒラエミョウ",
    "street": null,
    "office_name": null,
    "office_name_kana": null
  },
  "1104": {
    "postcode": "8591104",
    "prefecture": "長崎県",
    "prefecture_kana": "ナガサキケン",
    "prefecture_code": 42,
    "city": "雲仙市",
    "city_kana": "ウンゼンシ",
    "town": "吾妻町古城名",
    "town_kana": "アヅマチョウフルシロミョウ",
    "street": null,
    "office_name": null,
    "office_name_kana": null
  },
  "1105": {
    "postcode": "8591105",
    "prefecture": "長崎県",
    "prefecture_kana": "ナガサキケン",
    "prefecture_code": 42,
    "city": "雲仙市",
    "city_kana": "ウンゼンシ",
    "town": "吾妻町田之平名",
    "town_kana": "アヅマチョウタノヒラミョウ",
    "street": null,
    "office_name": null,
    "office_name_kana": null
  },
  "1106": {
    "postcode": "8591106",
    "prefecture": "長崎県",
    "prefecture_kana": "ナガサキケン",
    "prefecture_code": 42,
    "city": "雲仙市",
    "city_kana": "ウンゼンシ",
    "town": "吾妻町大木場名",
    "town_kana": "アヅマチョウオオコバミョウ",
    "street": null,
    "office_name": null,
    "office_name_kana": null
  },
  "1107": {
    "postcode": "8591107",
    "prefecture": "長崎県",
    "prefecture_kana": "ナガサキケン",
    "prefecture_code": 42,
    "city": "雲仙市",
    "city_kana": "ウンゼンシ",
    "town": "吾妻町牛口名",
    "town_kana": "アヅマチョウウシグチミョウ",
    "street": null,
    "office_name": null,
    "office_name_kana": null
  },
  "1111": {
    "postcode": "8591111",
    "prefecture": "長崎県",
    "prefecture_kana": "ナガサキケン",
    "prefecture_code": 42,
    "city": "雲仙市",
    "city_kana": "ウンゼンシ",
    "town": "吾妻町馬場名",
    "town_kana": "アヅマチョウババミョウ",
    "street": null,
    "office_name": null,
    "office_name_kana": null
  },
  "1112": {
    "postcode": "8591112",
    "prefecture": "長崎県",
    "prefecture_kana": "ナガサキケン",
    "prefecture_code": 42,
    "city": "雲仙市",
    "city_kana": "ウンゼンシ",
    "town": "吾妻町栗林名",
    "town_kana": "アヅマチョウクリバヤシミョウ",
    "street": null,
    "office_name": null,
    "office_name_kana": null
  },
  "1113": {
    "postcode": "8591113",
    "prefecture": "長崎県",
    "prefecture_kana": "ナガサキケン",
    "prefecture_code": 42,
    "city": "雲仙市",
    "city_kana": "ウンゼンシ",
    "town": "吾妻町布江名",
    "town_kana": "アヅマチョウヌノエミョウ",
    "street": null,
    "office_name": null,
    "office_name_kana": null
  },
  "1114": {
    "postcode": "8591114",
    "prefecture": "長崎県",
    "prefecture_kana": "ナガサキケン",
    "prefecture_code": 42,
    "city": "雲仙市",
    "city_kana": "ウンゼンシ",
    "town": "吾妻町川床名",
    "town_kana": "アヅマチョウカワトコミョウ",
    "street": null,
    "office_name": null,
    "office_name_kana": null
  },
  "1115": {
    "postcode": "8591115",
    "prefecture": "長崎県",
    "prefecture_kana": "ナガサキケン",
    "prefecture_code": 42,
    "city": "雲仙市",
    "city_kana": "ウンゼンシ",
    "town": "吾妻町永中名",
    "town_kana": "アヅマチョウエイチュウミョウ",
    "street": null,
    "office_name": null,
    "office_name_kana": null
  },
  "1116": {
    "postcode": "8591116",
    "prefecture": "長崎県",
    "prefecture_kana": "ナガサキケン",
    "prefecture_code": 42,
    "city": "雲仙市",
    "city_kana": "ウンゼンシ",
    "town": "吾妻町阿母名",
    "town_kana": "アヅマチョウアボミョウ",
    "street": null,
    "office_name": null,
    "office_name_kana": null
  },
  "1201": {
    "postcode": "8591201",
    "prefecture": "長崎県",
    "prefecture_kana": "ナガサキケン",
    "prefecture_code": 42,
    "city": "雲仙市",
    "city_kana": "ウンゼンシ",
    "town": "瑞穂町西郷庚",
    "town_kana": "ミズホチョウサイゴウコウ",
    "street": null,
    "office_name": null,
    "office_name_kana": null
  },
  "1202": {
    "postcode": "8591202",
    "prefecture": "長崎県",
    "prefecture_kana": "ナガサキケン",
    "prefecture_code": 42,
    "city": "雲仙市",
    "city_kana": "ウンゼンシ",
    "town": "瑞穂町西郷甲",
    "town_kana": "ミズホチョウサイゴウコウ",
    "street": null,
    "office_name": null,
    "office_name_kana": null
  },
  "1203": {
    "postcode": "8591203",
    "prefecture": "長崎県",
    "prefecture_kana": "ナガサキケン",
    "prefecture_code": 42,
    "city": "雲仙市",
    "city_kana": "ウンゼンシ",
    "town": "瑞穂町西郷乙",
    "town_kana": "ミズホチョウサイゴウオツ",
    "street": null,
    "office_name": null,
    "office_name_kana": null
  },
  "1204": {
    "postcode": "8591204",
    "prefecture": "長崎県",
    "prefecture_kana": "ナガサキケン",
    "prefecture_code": 42,
    "city": "雲仙市",
    "city_kana": "ウンゼンシ",
    "town": "瑞穂町西郷丙",
    "town_kana": "ミズホチョウサイゴウヘイ",
    "street": null,
    "office_name": null,
    "office_name_kana": null
  },
  "1205": {
    "postcode": "8591205",
    "prefecture": "長崎県",
    "prefecture_kana": "ナガサキケン",
    "prefecture_code": 42,
    "city": "雲仙市",
    "city_kana": "ウンゼンシ",
    "town": "瑞穂町西郷丁",
    "town_kana": "ミズホチョウサイゴウテイ",
    "street": null,
    "office_name": null,
    "office_name_kana": null
  },
  "1206": {
    "postcode": "8591206",
    "prefecture": "長崎県",
    "prefecture_kana": "ナガサキケン",
    "prefecture_code": 42,
    "city": "雲仙市",
    "city_kana": "ウンゼンシ",
    "town": "瑞穂町西郷辛",
    "town_kana": "ミズホチョウサイゴウシン",
    "street": null,
    "office_name": null,
    "office_name_kana": null
  },
  "1211": {
    "postcode": "8591211",
    "prefecture": "長崎県",
    "prefecture_kana": "ナガサキケン",
    "prefecture_code": 42,
    "city": "雲仙市",
    "city_kana": "ウンゼンシ",
    "town": "瑞穂町西郷戊",
    "town_kana": "ミズホチョウサイゴウボ",
    "street": null,
    "office_name": null,
    "office_name_kana": null
  },
  "1212": {
    "postcode": "8591212",
    "prefecture": "長崎県",
    "prefecture_kana": "ナガサキケン",
    "prefecture_code": 42,
    "city": "雲仙市",
    "city_kana": "ウンゼンシ",
    "town": "瑞穂町西郷己",
    "town_kana": "ミズホチョウサイゴウキ",
    "street": null,
    "office_name": null,
    "office_name_kana": null
  },
  "1213": {
    "postcode": "8591213",
    "prefecture": "長崎県",
    "prefecture_kana": "ナガサキケン",
    "prefecture_code": 42,
    "city": "雲仙市",
    "city_kana": "ウンゼンシ",
    "town": "瑞穂町伊福甲",
    "town_kana": "ミズホチョウイフクコウ",
    "street": null,
    "office_name": null,
    "office_name_kana": null
  },
  "1214": {
    "postcode": "8591214",
    "prefecture": "長崎県",
    "prefecture_kana": "ナガサキケン",
    "prefecture_code": 42,
    "city": "雲仙市",
    "city_kana": "ウンゼンシ",
    "town": "瑞穂町伊福乙",
    "town_kana": "ミズホチョウイフクオツ",
    "street": null,
    "office_name": null,
    "office_name_kana": null
  },
  "1215": {
    "postcode": "8591215",
    "prefecture": "長崎県",
    "prefecture_kana": "ナガサキケン",
    "prefecture_code": 42,
    "city": "雲仙市",
    "city_kana": "ウンゼンシ",
    "town": "瑞穂町古部甲",
    "town_kana": "ミズホチョウコベコウ",
    "street": null,
    "office_name": null,
    "office_name_kana": null
  },
  "1216": {
    "postcode": "8591216",
    "prefecture": "長崎県",
    "prefecture_kana": "ナガサキケン",
    "prefecture_code": 42,
    "city": "雲仙市",
    "city_kana": "ウンゼンシ",
    "town": "瑞穂町古部乙",
    "town_kana": "ミズホチョウコベオツ",
    "street": null,
    "office_name": null,
    "office_name_kana": null
  },
  "1292": {
    "postcode": "8591292",
    "prefecture": "長崎県",
    "prefecture_kana": "ナガサキケン",
    "prefecture_code": 42,
    "city": "雲仙市",
    "city_kana": "ウンゼンシ",
    "town": "瑞穂町西郷辛",
    "town_kana": "ミズホチョウサイゴウシン",
    "street": "１２８５番地",
    "office_name": "雲仙市　瑞穂総合支所",
    "office_name_kana": "ウンゼンシ ミズホソウゴウシシヨ"
  },
  "1301": {
    "postcode": "8591301",
    "prefecture": "長崎県",
    "prefecture_kana": "ナガサキケン",
    "prefecture_code": 42,
    "city": "雲仙市",
    "city_kana": "ウンゼンシ",
    "town": "国見町神代甲",
    "town_kana": "クニミチョウコウジロコウ",
    "street": null,
    "office_name": null,
    "office_name_kana": null
  },
  "1302": {
    "postcode": "8591302",
    "prefecture": "長崎県",
    "prefecture_kana": "ナガサキケン",
    "prefecture_code": 42,
    "city": "雲仙市",
    "city_kana": "ウンゼンシ",
    "town": "国見町神代乙",
    "town_kana": "クニミチョウコウジロオツ",
    "street": null,
    "office_name": null,
    "office_name_kana": null
  },
  "1303": {
    "postcode": "8591303",
    "prefecture": "長崎県",
    "prefecture_kana": "ナガサキケン",
    "prefecture_code": 42,
    "city": "雲仙市",
    "city_kana": "ウンゼンシ",
    "town": "国見町神代丙",
    "town_kana": "クニミチョウコウジロヘイ",
    "street": null,
    "office_name": null,
    "office_name_kana": null
  },
  "1304": {
    "postcode": "8591304",
    "prefecture": "長崎県",
    "prefecture_kana": "ナガサキケン",
    "prefecture_code": 42,
    "city": "雲仙市",
    "city_kana": "ウンゼンシ",
    "town": "国見町神代丁",
    "town_kana": "クニミチョウコウジロテイ",
    "street": null,
    "office_name": null,
    "office_name_kana": null
  },
  "1305": {
    "postcode": "8591305",
    "prefecture": "長崎県",
    "prefecture_kana": "ナガサキケン",
    "prefecture_code": 42,
    "city": "雲仙市",
    "city_kana": "ウンゼンシ",
    "town": "国見町神代戊",
    "town_kana": "クニミチョウコウジロボ",
    "street": null,
    "office_name": null,
    "office_name_kana": null
  },
  "1306": {
    "postcode": "8591306",
    "prefecture": "長崎県",
    "prefecture_kana": "ナガサキケン",
    "prefecture_code": 42,
    "city": "雲仙市",
    "city_kana": "ウンゼンシ",
    "town": "国見町神代己",
    "town_kana": "クニミチョウコウジロキ",
    "street": null,
    "office_name": null,
    "office_name_kana": null
  },
  "1307": {
    "postcode": "8591307",
    "prefecture": "長崎県",
    "prefecture_kana": "ナガサキケン",
    "prefecture_code": 42,
    "city": "雲仙市",
    "city_kana": "ウンゼンシ",
    "town": "国見町神代庚",
    "town_kana": "クニミチョウコウジロコウ",
    "street": null,
    "office_name": null,
    "office_name_kana": null
  },
  "1308": {
    "postcode": "8591308",
    "prefecture": "長崎県",
    "prefecture_kana": "ナガサキケン",
    "prefecture_code": 42,
    "city": "雲仙市",
    "city_kana": "ウンゼンシ",
    "town": "国見町神代辛",
    "town_kana": "クニミチョウコウジロシン",
    "street": null,
    "office_name": null,
    "office_name_kana": null
  },
  "1311": {
    "postcode": "8591311",
    "prefecture": "長崎県",
    "prefecture_kana": "ナガサキケン",
    "prefecture_code": 42,
    "city": "雲仙市",
    "city_kana": "ウンゼンシ",
    "town": "国見町土黒甲",
    "town_kana": "クニミチョウヒジクロコウ",
    "street": null,
    "office_name": null,
    "office_name_kana": null
  },
  "1312": {
    "postcode": "8591312",
    "prefecture": "長崎県",
    "prefecture_kana": "ナガサキケン",
    "prefecture_code": 42,
    "city": "雲仙市",
    "city_kana": "ウンゼンシ",
    "town": "国見町土黒乙",
    "town_kana": "クニミチョウヒジクロオツ",
    "street": null,
    "office_name": null,
    "office_name_kana": null
  },
  "1313": {
    "postcode": "8591313",
    "prefecture": "長崎県",
    "prefecture_kana": "ナガサキケン",
    "prefecture_code": 42,
    "city": "雲仙市",
    "city_kana": "ウンゼンシ",
    "town": "国見町土黒丙",
    "town_kana": "クニミチョウヒジクロヘイ",
    "street": null,
    "office_name": null,
    "office_name_kana": null
  },
  "1314": {
    "postcode": "8591314",
    "prefecture": "長崎県",
    "prefecture_kana": "ナガサキケン",
    "prefecture_code": 42,
    "city": "雲仙市",
    "city_kana": "ウンゼンシ",
    "town": "国見町土黒丁",
    "town_kana": "クニミチョウヒジクロテイ",
    "street": null,
    "office_name": null,
    "office_name_kana": null
  },
  "1315": {
    "postcode": "8591315",
    "prefecture": "長崎県",
    "prefecture_kana": "ナガサキケン",
    "prefecture_code": 42,
    "city": "雲仙市",
    "city_kana": "ウンゼンシ",
    "town": "国見町土黒戊",
    "town_kana": "クニミチョウヒジクロボ",
    "street": null,
    "office_name": null,
    "office_name_kana": null
  },
  "1316": {
    "postcode": "8591316",
    "prefecture": "長崎県",
    "prefecture_kana": "ナガサキケン",
    "prefecture_code": 42,
    "city": "雲仙市",
    "city_kana": "ウンゼンシ",
    "town": "国見町土黒己",
    "town_kana": "クニミチョウヒジクロキ",
    "street": null,
    "office_name": null,
    "office_name_kana": null
  },
  "1317": {
    "postcode": "8591317",
    "prefecture": "長崎県",
    "prefecture_kana": "ナガサキケン",
    "prefecture_code": 42,
    "city": "雲仙市",
    "city_kana": "ウンゼンシ",
    "town": "国見町土黒庚",
    "town_kana": "クニミチョウヒジクロコウ",
    "street": null,
    "office_name": null,
    "office_name_kana": null
  },
  "1321": {
    "postcode": "8591321",
    "prefecture": "長崎県",
    "prefecture_kana": "ナガサキケン",
    "prefecture_code": 42,
    "city": "雲仙市",
    "city_kana": "ウンゼンシ",
    "town": "国見町多比良甲",
    "town_kana": "クニミチョウタイラコウ",
    "street": null,
    "office_name": null,
    "office_name_kana": null
  },
  "1322": {
    "postcode": "8591322",
    "prefecture": "長崎県",
    "prefecture_kana": "ナガサキケン",
    "prefecture_code": 42,
    "city": "雲仙市",
    "city_kana": "ウンゼンシ",
    "town": "国見町多比良乙",
    "town_kana": "クニミチョウタイラオツ",
    "street": null,
    "office_name": null,
    "office_name_kana": null
  },
  "1323": {
    "postcode": "8591323",
    "prefecture": "長崎県",
    "prefecture_kana": "ナガサキケン",
    "prefecture_code": 42,
    "city": "雲仙市",
    "city_kana": "ウンゼンシ",
    "town": "国見町多比良丙",
    "town_kana": "クニミチョウタイラヘイ",
    "street": null,
    "office_name": null,
    "office_name_kana": null
  },
  "1324": {
    "postcode": "8591324",
    "prefecture": "長崎県",
    "prefecture_kana": "ナガサキケン",
    "prefecture_code": 42,
    "city": "雲仙市",
    "city_kana": "ウンゼンシ",
    "town": "国見町多比良丁",
    "town_kana": "クニミチョウタイラテイ",
    "street": null,
    "office_name": null,
    "office_name_kana": null
  },
  "1325": {
    "postcode": "8591325",
    "prefecture": "長崎県",
    "prefecture_kana": "ナガサキケン",
    "prefecture_code": 42,
    "city": "雲仙市",
    "city_kana": "ウンゼンシ",
    "town": "国見町多比良戊",
    "town_kana": "クニミチョウタイラボ",
    "street": null,
    "office_name": null,
    "office_name_kana": null
  },
  "1392": {
    "postcode": "8591392",
    "prefecture": "長崎県",
    "prefecture_kana": "ナガサキケン",
    "prefecture_code": 42,
    "city": "雲仙市",
    "city_kana": "ウンゼンシ",
    "town": "国見町土黒甲",
    "town_kana": "クニミチョウヒジクロコウ",
    "street": "１１００",
    "office_name": "雲仙市　国見総合支所",
    "office_name_kana": "ウンゼンシ クニミソウゴウシシヨ"
  },
  "1401": {
    "postcode": "8591401",
    "prefecture": "長崎県",
    "prefecture_kana": "ナガサキケン",
    "prefecture_code": 42,
    "city": "島原市",
    "city_kana": "シマバラシ",
    "town": "有明町湯江甲",
    "town_kana": "アリアケチョウユエコウ",
    "street": null,
    "office_name": null,
    "office_name_kana": null
  },
  "1402": {
    "postcode": "8591402",
    "prefecture": "長崎県",
    "prefecture_kana": "ナガサキケン",
    "prefecture_code": 42,
    "city": "島原市",
    "city_kana": "シマバラシ",
    "town": "有明町湯江乙",
    "town_kana": "アリアケチョウユエオツ",
    "street": null,
    "office_name": null,
    "office_name_kana": null
  },
  "1403": {
    "postcode": "8591403",
    "prefecture": "長崎県",
    "prefecture_kana": "ナガサキケン",
    "prefecture_code": 42,
    "city": "島原市",
    "city_kana": "シマバラシ",
    "town": "有明町湯江丙",
    "town_kana": "アリアケチョウユエヘイ",
    "street": null,
    "office_name": null,
    "office_name_kana": null
  },
  "1404": {
    "postcode": "8591404",
    "prefecture": "長崎県",
    "prefecture_kana": "ナガサキケン",
    "prefecture_code": 42,
    "city": "島原市",
    "city_kana": "シマバラシ",
    "town": "有明町湯江丁",
    "town_kana": "アリアケチョウユエテイ",
    "street": null,
    "office_name": null,
    "office_name_kana": null
  },
  "1411": {
    "postcode": "8591411",
    "prefecture": "長崎県",
    "prefecture_kana": "ナガサキケン",
    "prefecture_code": 42,
    "city": "島原市",
    "city_kana": "シマバラシ",
    "town": "有明町大三東甲",
    "town_kana": "アリアケチョウオオミサキコウ",
    "street": null,
    "office_name": null,
    "office_name_kana": null
  },
  "1412": {
    "postcode": "8591412",
    "prefecture": "長崎県",
    "prefecture_kana": "ナガサキケン",
    "prefecture_code": 42,
    "city": "島原市",
    "city_kana": "シマバラシ",
    "town": "有明町大三東乙",
    "town_kana": "アリアケチョウオオミサキオツ",
    "street": null,
    "office_name": null,
    "office_name_kana": null
  },
  "1413": {
    "postcode": "8591413",
    "prefecture": "長崎県",
    "prefecture_kana": "ナガサキケン",
    "prefecture_code": 42,
    "city": "島原市",
    "city_kana": "シマバラシ",
    "town": "有明町大三東丙",
    "town_kana": "アリアケチョウオオミサキヘイ",
    "street": null,
    "office_name": null,
    "office_name_kana": null
  },
  "1414": {
    "postcode": "8591414",
    "prefecture": "長崎県",
    "prefecture_kana": "ナガサキケン",
    "prefecture_code": 42,
    "city": "島原市",
    "city_kana": "シマバラシ",
    "town": "有明町大三東丁",
    "town_kana": "アリアケチョウオオミサキテイ",
    "street": null,
    "office_name": null,
    "office_name_kana": null
  },
  "1415": {
    "postcode": "8591415",
    "prefecture": "長崎県",
    "prefecture_kana": "ナガサキケン",
    "prefecture_code": 42,
    "city": "島原市",
    "city_kana": "シマバラシ",
    "town": "有明町大三東戊",
    "town_kana": "アリアケチョウオオミサキボ",
    "street": null,
    "office_name": null,
    "office_name_kana": null
  },
  "1492": {
    "postcode": "8591492",
    "prefecture": "長崎県",
    "prefecture_kana": "ナガサキケン",
    "prefecture_code": 42,
    "city": "島原市",
    "city_kana": "シマバラシ",
    "town": "有明町大三東戊",
    "town_kana": "アリアケチョウオオミサキボ",
    "street": "１３２７",
    "office_name": "島原市役所　有明支所",
    "office_name_kana": "シマバラシヤクシヨ アリアケシシヨ"
  },
  "1501": {
    "postcode": "8591501",
    "prefecture": "長崎県",
    "prefecture_kana": "ナガサキケン",
    "prefecture_code": 42,
    "city": "南島原市",
    "city_kana": "ミナミシマバラシ",
    "town": "深江町甲",
    "town_kana": "フカエチョウコウ",
    "street": null,
    "office_name": null,
    "office_name_kana": null
  },
  "1502": {
    "postcode": "8591502",
    "prefecture": "長崎県",
    "prefecture_kana": "ナガサキケン",
    "prefecture_code": 42,
    "city": "南島原市",
    "city_kana": "ミナミシマバラシ",
    "town": "深江町乙",
    "town_kana": "フカエチョウオツ",
    "street": null,
    "office_name": null,
    "office_name_kana": null
  },
  "1503": {
    "postcode": "8591503",
    "prefecture": "長崎県",
    "prefecture_kana": "ナガサキケン",
    "prefecture_code": 42,
    "city": "南島原市",
    "city_kana": "ミナミシマバラシ",
    "town": "深江町丙",
    "town_kana": "フカエチョウヘイ",
    "street": null,
    "office_name": null,
    "office_name_kana": null
  },
  "1504": {
    "postcode": "8591504",
    "prefecture": "長崎県",
    "prefecture_kana": "ナガサキケン",
    "prefecture_code": 42,
    "city": "南島原市",
    "city_kana": "ミナミシマバラシ",
    "town": "深江町丁",
    "town_kana": "フカエチョウテイ",
    "street": null,
    "office_name": null,
    "office_name_kana": null
  },
  "1505": {
    "postcode": "8591505",
    "prefecture": "長崎県",
    "prefecture_kana": "ナガサキケン",
    "prefecture_code": 42,
    "city": "南島原市",
    "city_kana": "ミナミシマバラシ",
    "town": "深江町戊",
    "town_kana": "フカエチョウボ",
    "street": null,
    "office_name": null,
    "office_name_kana": null
  },
  "1592": {
    "postcode": "8591592",
    "prefecture": "長崎県",
    "prefecture_kana": "ナガサキケン",
    "prefecture_code": 42,
    "city": "南島原市",
    "city_kana": "ミナミシマバラシ",
    "town": "深江町丁",
    "town_kana": "フカエチョウテイ",
    "street": "２１５０南島原市深江庁舎２Ｆ",
    "office_name": "日本トータルテレマーケティング　株式会社",
    "office_name_kana": "ニホント-タルテレマ-ケテイング カブシキガイシヤ"
  },
  "2111": {
    "postcode": "8592111",
    "prefecture": "長崎県",
    "prefecture_kana": "ナガサキケン",
    "prefecture_code": 42,
    "city": "南島原市",
    "city_kana": "ミナミシマバラシ",
    "town": "布津町甲",
    "town_kana": "フツチョウコウ",
    "street": null,
    "office_name": null,
    "office_name_kana": null
  },
  "2112": {
    "postcode": "8592112",
    "prefecture": "長崎県",
    "prefecture_kana": "ナガサキケン",
    "prefecture_code": 42,
    "city": "南島原市",
    "city_kana": "ミナミシマバラシ",
    "town": "布津町乙",
    "town_kana": "フツチョウオツ",
    "street": null,
    "office_name": null,
    "office_name_kana": null
  },
  "2113": {
    "postcode": "8592113",
    "prefecture": "長崎県",
    "prefecture_kana": "ナガサキケン",
    "prefecture_code": 42,
    "city": "南島原市",
    "city_kana": "ミナミシマバラシ",
    "town": "布津町丙",
    "town_kana": "フツチョウヘイ",
    "street": null,
    "office_name": null,
    "office_name_kana": null
  },
  "2121": {
    "postcode": "8592121",
    "prefecture": "長崎県",
    "prefecture_kana": "ナガサキケン",
    "prefecture_code": 42,
    "city": "南島原市",
    "city_kana": "ミナミシマバラシ",
    "town": "有家町石田",
    "town_kana": "アリエチョウイシダ",
    "street": null,
    "office_name": null,
    "office_name_kana": null
  },
  "2122": {
    "postcode": "8592122",
    "prefecture": "長崎県",
    "prefecture_kana": "ナガサキケン",
    "prefecture_code": 42,
    "city": "南島原市",
    "city_kana": "ミナミシマバラシ",
    "town": "有家町大苑",
    "town_kana": "アリエチョウオオゾノ",
    "street": null,
    "office_name": null,
    "office_name_kana": null
  },
  "2123": {
    "postcode": "8592123",
    "prefecture": "長崎県",
    "prefecture_kana": "ナガサキケン",
    "prefecture_code": 42,
    "city": "南島原市",
    "city_kana": "ミナミシマバラシ",
    "town": "有家町原尾",
    "town_kana": "アリエチョウハラオ",
    "street": null,
    "office_name": null,
    "office_name_kana": null
  },
  "2201": {
    "postcode": "8592201",
    "prefecture": "長崎県",
    "prefecture_kana": "ナガサキケン",
    "prefecture_code": 42,
    "city": "南島原市",
    "city_kana": "ミナミシマバラシ",
    "town": "有家町久保",
    "town_kana": "アリエチョウクボ",
    "street": null,
    "office_name": null,
    "office_name_kana": null
  },
  "2202": {
    "postcode": "8592202",
    "prefecture": "長崎県",
    "prefecture_kana": "ナガサキケン",
    "prefecture_code": 42,
    "city": "南島原市",
    "city_kana": "ミナミシマバラシ",
    "town": "有家町山川",
    "town_kana": "アリエチョウヤマガワ",
    "street": null,
    "office_name": null,
    "office_name_kana": null
  },
  "2203": {
    "postcode": "8592203",
    "prefecture": "長崎県",
    "prefecture_kana": "ナガサキケン",
    "prefecture_code": 42,
    "city": "南島原市",
    "city_kana": "ミナミシマバラシ",
    "town": "有家町尾上",
    "town_kana": "アリエチョウオノウエ",
    "street": null,
    "office_name": null,
    "office_name_kana": null
  },
  "2204": {
    "postcode": "8592204",
    "prefecture": "長崎県",
    "prefecture_kana": "ナガサキケン",
    "prefecture_code": 42,
    "city": "南島原市",
    "city_kana": "ミナミシマバラシ",
    "town": "有家町蒲河",
    "town_kana": "アリエチョウカマガ",
    "street": null,
    "office_name": null,
    "office_name_kana": null
  },
  "2205": {
    "postcode": "8592205",
    "prefecture": "長崎県",
    "prefecture_kana": "ナガサキケン",
    "prefecture_code": 42,
    "city": "南島原市",
    "city_kana": "ミナミシマバラシ",
    "town": "有家町小川",
    "town_kana": "アリエチョウコガワ",
    "street": null,
    "office_name": null,
    "office_name_kana": null
  },
  "2206": {
    "postcode": "8592206",
    "prefecture": "長崎県",
    "prefecture_kana": "ナガサキケン",
    "prefecture_code": 42,
    "city": "南島原市",
    "city_kana": "ミナミシマバラシ",
    "town": "有家町中須川",
    "town_kana": "アリエチョウナカスカワ",
    "street": null,
    "office_name": null,
    "office_name_kana": null
  },
  "2211": {
    "postcode": "8592211",
    "prefecture": "長崎県",
    "prefecture_kana": "ナガサキケン",
    "prefecture_code": 42,
    "city": "南島原市",
    "city_kana": "ミナミシマバラシ",
    "town": "西有家町里坊",
    "town_kana": "ニシアリエチョウサトボウ",
    "street": null,
    "office_name": null,
    "office_name_kana": null
  },
  "2212": {
    "postcode": "8592212",
    "prefecture": "長崎県",
    "prefecture_kana": "ナガサキケン",
    "prefecture_code": 42,
    "city": "南島原市",
    "city_kana": "ミナミシマバラシ",
    "town": "西有家町須川",
    "town_kana": "ニシアリエチョウスカワ",
    "street": null,
    "office_name": null,
    "office_name_kana": null
  },
  "2213": {
    "postcode": "8592213",
    "prefecture": "長崎県",
    "prefecture_kana": "ナガサキケン",
    "prefecture_code": 42,
    "city": "南島原市",
    "city_kana": "ミナミシマバラシ",
    "town": "西有家町見岳",
    "town_kana": "ニシアリエチョウミダケ",
    "street": null,
    "office_name": null,
    "office_name_kana": null
  },
  "2214": {
    "postcode": "8592214",
    "prefecture": "長崎県",
    "prefecture_kana": "ナガサキケン",
    "prefecture_code": 42,
    "city": "南島原市",
    "city_kana": "ミナミシマバラシ",
    "town": "西有家町慈恩寺",
    "town_kana": "ニシアリエチョウジオンジ",
    "street": null,
    "office_name": null,
    "office_name_kana": null
  },
  "2215": {
    "postcode": "8592215",
    "prefecture": "長崎県",
    "prefecture_kana": "ナガサキケン",
    "prefecture_code": 42,
    "city": "南島原市",
    "city_kana": "ミナミシマバラシ",
    "town": "西有家町長野",
    "town_kana": "ニシアリエチョウナガノ",
    "street": null,
    "office_name": null,
    "office_name_kana": null
  },
  "2216": {
    "postcode": "8592216",
    "prefecture": "長崎県",
    "prefecture_kana": "ナガサキケン",
    "prefecture_code": 42,
    "city": "南島原市",
    "city_kana": "ミナミシマバラシ",
    "town": "西有家町龍石",
    "town_kana": "ニシアリエチョウタツイシ",
    "street": null,
    "office_name": null,
    "office_name_kana": null
  },
  "2301": {
    "postcode": "8592301",
    "prefecture": "長崎県",
    "prefecture_kana": "ナガサキケン",
    "prefecture_code": 42,
    "city": "南島原市",
    "city_kana": "ミナミシマバラシ",
    "town": "北有馬町甲",
    "town_kana": "キタアリマチョウコウ",
    "street": null,
    "office_name": null,
    "office_name_kana": null
  },
  "2302": {
    "postcode": "8592302",
    "prefecture": "長崎県",
    "prefecture_kana": "ナガサキケン",
    "prefecture_code": 42,
    "city": "南島原市",
    "city_kana": "ミナミシマバラシ",
    "town": "北有馬町乙",
    "town_kana": "キタアリマチョウオツ",
    "street": null,
    "office_name": null,
    "office_name_kana": null
  },
  "2303": {
    "postcode": "8592303",
    "prefecture": "長崎県",
    "prefecture_kana": "ナガサキケン",
    "prefecture_code": 42,
    "city": "南島原市",
    "city_kana": "ミナミシマバラシ",
    "town": "北有馬町丙",
    "town_kana": "キタアリマチョウヘイ",
    "street": null,
    "office_name": null,
    "office_name_kana": null
  },
  "2304": {
    "postcode": "8592304",
    "prefecture": "長崎県",
    "prefecture_kana": "ナガサキケン",
    "prefecture_code": 42,
    "city": "南島原市",
    "city_kana": "ミナミシマバラシ",
    "town": "北有馬町丁",
    "town_kana": "キタアリマチョウテイ",
    "street": null,
    "office_name": null,
    "office_name_kana": null
  },
  "2305": {
    "postcode": "8592305",
    "prefecture": "長崎県",
    "prefecture_kana": "ナガサキケン",
    "prefecture_code": 42,
    "city": "南島原市",
    "city_kana": "ミナミシマバラシ",
    "town": "北有馬町戊",
    "town_kana": "キタアリマチョウボ",
    "street": null,
    "office_name": null,
    "office_name_kana": null
  },
  "2306": {
    "postcode": "8592306",
    "prefecture": "長崎県",
    "prefecture_kana": "ナガサキケン",
    "prefecture_code": 42,
    "city": "南島原市",
    "city_kana": "ミナミシマバラシ",
    "town": "北有馬町己",
    "town_kana": "キタアリマチョウキ",
    "street": null,
    "office_name": null,
    "office_name_kana": null
  },
  "2316": [
    {
      "postcode": "8592316",
      "prefecture": "長崎県",
      "prefecture_kana": "ナガサキケン",
      "prefecture_code": 42,
      "city": "南島原市",
      "city_kana": "ミナミシマバラシ",
      "town": "南有馬町己",
      "town_kana": "ミナミアリマチョウキ",
      "street": null,
      "office_name": null,
      "office_name_kana": null
    },
    {
      "postcode": "8592316",
      "prefecture": "長崎県",
      "prefecture_kana": "ナガサキケン",
      "prefecture_code": 42,
      "city": "南島原市",
      "city_kana": "ミナミシマバラシ",
      "town": "南有馬町己古園轟河",
      "town_kana": "ミナミアリマチョウキフルゾノトロツゴ",
      "street": null,
      "office_name": null,
      "office_name_kana": null
    }
  ],
  "2411": {
    "postcode": "8592411",
    "prefecture": "長崎県",
    "prefecture_kana": "ナガサキケン",
    "prefecture_code": 42,
    "city": "南島原市",
    "city_kana": "ミナミシマバラシ",
    "town": "南有馬町甲",
    "town_kana": "ミナミアリマチョウコウ",
    "street": null,
    "office_name": null,
    "office_name_kana": null
  },
  "2412": {
    "postcode": "8592412",
    "prefecture": "長崎県",
    "prefecture_kana": "ナガサキケン",
    "prefecture_code": 42,
    "city": "南島原市",
    "city_kana": "ミナミシマバラシ",
    "town": "南有馬町乙",
    "town_kana": "ミナミアリマチョウオツ",
    "street": null,
    "office_name": null,
    "office_name_kana": null
  },
  "2413": {
    "postcode": "8592413",
    "prefecture": "長崎県",
    "prefecture_kana": "ナガサキケン",
    "prefecture_code": 42,
    "city": "南島原市",
    "city_kana": "ミナミシマバラシ",
    "town": "南有馬町丙",
    "town_kana": "ミナミアリマチョウヘイ",
    "street": null,
    "office_name": null,
    "office_name_kana": null
  },
  "2414": {
    "postcode": "8592414",
    "prefecture": "長崎県",
    "prefecture_kana": "ナガサキケン",
    "prefecture_code": 42,
    "city": "南島原市",
    "city_kana": "ミナミシマバラシ",
    "town": "南有馬町丁",
    "town_kana": "ミナミアリマチョウテイ",
    "street": null,
    "office_name": null,
    "office_name_kana": null
  },
  "2415": {
    "postcode": "8592415",
    "prefecture": "長崎県",
    "prefecture_kana": "ナガサキケン",
    "prefecture_code": 42,
    "city": "南島原市",
    "city_kana": "ミナミシマバラシ",
    "town": "南有馬町戊",
    "town_kana": "ミナミアリマチョウボ",
    "street": null,
    "office_name": null,
    "office_name_kana": null
  },
  "2416": {
    "postcode": "8592416",
    "prefecture": "長崎県",
    "prefecture_kana": "ナガサキケン",
    "prefecture_code": 42,
    "city": "南島原市",
    "city_kana": "ミナミシマバラシ",
    "town": "南有馬町己",
    "town_kana": "ミナミアリマチョウキ",
    "street": null,
    "office_name": null,
    "office_name_kana": null
  },
  "2501": {
    "postcode": "8592501",
    "prefecture": "長崎県",
    "prefecture_kana": "ナガサキケン",
    "prefecture_code": 42,
    "city": "南島原市",
    "city_kana": "ミナミシマバラシ",
    "town": "口之津町乙",
    "town_kana": "クチノツチョウオツ",
    "street": null,
    "office_name": null,
    "office_name_kana": null
  },
  "2502": {
    "postcode": "8592502",
    "prefecture": "長崎県",
    "prefecture_kana": "ナガサキケン",
    "prefecture_code": 42,
    "city": "南島原市",
    "city_kana": "ミナミシマバラシ",
    "town": "口之津町甲",
    "town_kana": "クチノツチョウコウ",
    "street": null,
    "office_name": null,
    "office_name_kana": null
  },
  "2503": {
    "postcode": "8592503",
    "prefecture": "長崎県",
    "prefecture_kana": "ナガサキケン",
    "prefecture_code": 42,
    "city": "南島原市",
    "city_kana": "ミナミシマバラシ",
    "town": "口之津町丁",
    "town_kana": "クチノツチョウテイ",
    "street": null,
    "office_name": null,
    "office_name_kana": null
  },
  "2504": {
    "postcode": "8592504",
    "prefecture": "長崎県",
    "prefecture_kana": "ナガサキケン",
    "prefecture_code": 42,
    "city": "南島原市",
    "city_kana": "ミナミシマバラシ",
    "town": "口之津町丙",
    "town_kana": "クチノツチョウヘイ",
    "street": null,
    "office_name": null,
    "office_name_kana": null
  },
  "2600": {
    "postcode": "8592600",
    "prefecture": "長崎県",
    "prefecture_kana": "ナガサキケン",
    "prefecture_code": 42,
    "city": "南島原市",
    "city_kana": "ミナミシマバラシ",
    "town": "",
    "town_kana": "",
    "street": null,
    "office_name": null,
    "office_name_kana": null
  },
  "2601": {
    "postcode": "8592601",
    "prefecture": "長崎県",
    "prefecture_kana": "ナガサキケン",
    "prefecture_code": 42,
    "city": "南島原市",
    "city_kana": "ミナミシマバラシ",
    "town": "加津佐町己",
    "town_kana": "カヅサチョウキ",
    "street": null,
    "office_name": null,
    "office_name_kana": null
  },
  "2602": {
    "postcode": "8592602",
    "prefecture": "長崎県",
    "prefecture_kana": "ナガサキケン",
    "prefecture_code": 42,
    "city": "南島原市",
    "city_kana": "ミナミシマバラシ",
    "town": "加津佐町戊",
    "town_kana": "カヅサチョウボ",
    "street": null,
    "office_name": null,
    "office_name_kana": null
  },
  "2603": {
    "postcode": "8592603",
    "prefecture": "長崎県",
    "prefecture_kana": "ナガサキケン",
    "prefecture_code": 42,
    "city": "南島原市",
    "city_kana": "ミナミシマバラシ",
    "town": "加津佐町丁",
    "town_kana": "カヅサチョウテイ",
    "street": null,
    "office_name": null,
    "office_name_kana": null
  },
  "2604": {
    "postcode": "8592604",
    "prefecture": "長崎県",
    "prefecture_kana": "ナガサキケン",
    "prefecture_code": 42,
    "city": "南島原市",
    "city_kana": "ミナミシマバラシ",
    "town": "加津佐町丙",
    "town_kana": "カヅサチョウヘイ",
    "street": null,
    "office_name": null,
    "office_name_kana": null
  },
  "2605": {
    "postcode": "8592605",
    "prefecture": "長崎県",
    "prefecture_kana": "ナガサキケン",
    "prefecture_code": 42,
    "city": "南島原市",
    "city_kana": "ミナミシマバラシ",
    "town": "加津佐町乙",
    "town_kana": "カヅサチョウオツ",
    "street": null,
    "office_name": null,
    "office_name_kana": null
  },
  "2606": {
    "postcode": "8592606",
    "prefecture": "長崎県",
    "prefecture_kana": "ナガサキケン",
    "prefecture_code": 42,
    "city": "南島原市",
    "city_kana": "ミナミシマバラシ",
    "town": "加津佐町甲",
    "town_kana": "カヅサチョウコウ",
    "street": null,
    "office_name": null,
    "office_name_kana": null
  },
  "3151": {
    "postcode": "8593151",
    "prefecture": "長崎県",
    "prefecture_kana": "ナガサキケン",
    "prefecture_code": 42,
    "city": "佐世保市",
    "city_kana": "サセボシ",
    "town": "三川内本町",
    "town_kana": "ミカワチホンマチ",
    "street": null,
    "office_name": null,
    "office_name_kana": null
  },
  "3152": {
    "postcode": "8593152",
    "prefecture": "長崎県",
    "prefecture_kana": "ナガサキケン",
    "prefecture_code": 42,
    "city": "佐世保市",
    "city_kana": "サセボシ",
    "town": "新行江町",
    "town_kana": "シンギョウエチョウ",
    "street": null,
    "office_name": null,
    "office_name_kana": null
  },
  "3153": {
    "postcode": "8593153",
    "prefecture": "長崎県",
    "prefecture_kana": "ナガサキケン",
    "prefecture_code": 42,
    "city": "佐世保市",
    "city_kana": "サセボシ",
    "town": "三川内新町",
    "town_kana": "ミカワチシンマチ",
    "street": null,
    "office_name": null,
    "office_name_kana": null
  },
  "3154": {
    "postcode": "8593154",
    "prefecture": "長崎県",
    "prefecture_kana": "ナガサキケン",
    "prefecture_code": 42,
    "city": "佐世保市",
    "city_kana": "サセボシ",
    "town": "塩浸町",
    "town_kana": "シオヒタシチョウ",
    "street": null,
    "office_name": null,
    "office_name_kana": null
  },
  "3155": {
    "postcode": "8593155",
    "prefecture": "長崎県",
    "prefecture_kana": "ナガサキケン",
    "prefecture_code": 42,
    "city": "佐世保市",
    "city_kana": "サセボシ",
    "town": "三川内町",
    "town_kana": "ミカワチチョウ",
    "street": null,
    "office_name": null,
    "office_name_kana": null
  },
  "3156": {
    "postcode": "8593156",
    "prefecture": "長崎県",
    "prefecture_kana": "ナガサキケン",
    "prefecture_code": 42,
    "city": "佐世保市",
    "city_kana": "サセボシ",
    "town": "下の原町",
    "town_kana": "シモノハルチョウ",
    "street": null,
    "office_name": null,
    "office_name_kana": null
  },
  "3157": {
    "postcode": "8593157",
    "prefecture": "長崎県",
    "prefecture_kana": "ナガサキケン",
    "prefecture_code": 42,
    "city": "佐世保市",
    "city_kana": "サセボシ",
    "town": "桑木場町",
    "town_kana": "クワコバチョウ",
    "street": null,
    "office_name": null,
    "office_name_kana": null
  },
  "3158": {
    "postcode": "8593158",
    "prefecture": "長崎県",
    "prefecture_kana": "ナガサキケン",
    "prefecture_code": 42,
    "city": "佐世保市",
    "city_kana": "サセボシ",
    "town": "新替町",
    "town_kana": "シンガエチョウ",
    "street": null,
    "office_name": null,
    "office_name_kana": null
  },
  "3161": {
    "postcode": "8593161",
    "prefecture": "長崎県",
    "prefecture_kana": "ナガサキケン",
    "prefecture_code": 42,
    "city": "佐世保市",
    "city_kana": "サセボシ",
    "town": "口の尾町",
    "town_kana": "クチノオチョウ",
    "street": null,
    "office_name": null,
    "office_name_kana": null
  },
  "3162": {
    "postcode": "8593162",
    "prefecture": "長崎県",
    "prefecture_kana": "ナガサキケン",
    "prefecture_code": 42,
    "city": "佐世保市",
    "city_kana": "サセボシ",
    "town": "吉福町",
    "town_kana": "ヨシフクチョウ",
    "street": null,
    "office_name": null,
    "office_name_kana": null
  },
  "3163": {
    "postcode": "8593163",
    "prefecture": "長崎県",
    "prefecture_kana": "ナガサキケン",
    "prefecture_code": 42,
    "city": "佐世保市",
    "city_kana": "サセボシ",
    "town": "横手町",
    "town_kana": "ヨコテチョウ",
    "street": null,
    "office_name": null,
    "office_name_kana": null
  },
  "3164": {
    "postcode": "8593164",
    "prefecture": "長崎県",
    "prefecture_kana": "ナガサキケン",
    "prefecture_code": 42,
    "city": "佐世保市",
    "city_kana": "サセボシ",
    "town": "心野町",
    "town_kana": "ココンノチョウ",
    "street": null,
    "office_name": null,
    "office_name_kana": null
  },
  "3165": {
    "postcode": "8593165",
    "prefecture": "長崎県",
    "prefecture_kana": "ナガサキケン",
    "prefecture_code": 42,
    "city": "佐世保市",
    "city_kana": "サセボシ",
    "town": "江永町",
    "town_kana": "エナガチョウ",
    "street": null,
    "office_name": null,
    "office_name_kana": null
  },
  "3166": {
    "postcode": "8593166",
    "prefecture": "長崎県",
    "prefecture_kana": "ナガサキケン",
    "prefecture_code": 42,
    "city": "佐世保市",
    "city_kana": "サセボシ",
    "town": "木原町",
    "town_kana": "キハラチョウ",
    "street": null,
    "office_name": null,
    "office_name_kana": null
  },
  "3201": {
    "postcode": "8593201",
    "prefecture": "長崎県",
    "prefecture_kana": "ナガサキケン",
    "prefecture_code": 42,
    "city": "佐世保市",
    "city_kana": "サセボシ",
    "town": "平松町",
    "town_kana": "ヒラマツチョウ",
    "street": null,
    "office_name": null,
    "office_name_kana": null
  },
  "3202": {
    "postcode": "8593202",
    "prefecture": "長崎県",
    "prefecture_kana": "ナガサキケン",
    "prefecture_code": 42,
    "city": "佐世保市",
    "city_kana": "サセボシ",
    "town": "上原町",
    "town_kana": "ウワバルチョウ",
    "street": null,
    "office_name": null,
    "office_name_kana": null
  },
  "3203": {
    "postcode": "8593203",
    "prefecture": "長崎県",
    "prefecture_kana": "ナガサキケン",
    "prefecture_code": 42,
    "city": "佐世保市",
    "city_kana": "サセボシ",
    "town": "陣の内町",
    "town_kana": "ジンノウチチョウ",
    "street": null,
    "office_name": null,
    "office_name_kana": null
  },
  "3204": {
    "postcode": "8593204",
    "prefecture": "長崎県",
    "prefecture_kana": "ナガサキケン",
    "prefecture_code": 42,
    "city": "佐世保市",
    "city_kana": "サセボシ",
    "town": "若竹台町",
    "town_kana": "ワカタケダイマチ",
    "street": null,
    "office_name": null,
    "office_name_kana": null
  },
  "3205": {
    "postcode": "8593205",
    "prefecture": "長崎県",
    "prefecture_kana": "ナガサキケン",
    "prefecture_code": 42,
    "city": "佐世保市",
    "city_kana": "サセボシ",
    "town": "田の浦町",
    "town_kana": "タノウラチョウ",
    "street": null,
    "office_name": null,
    "office_name_kana": null
  },
  "3211": {
    "postcode": "8593211",
    "prefecture": "長崎県",
    "prefecture_kana": "ナガサキケン",
    "prefecture_code": 42,
    "city": "佐世保市",
    "city_kana": "サセボシ",
    "town": "早苗町",
    "town_kana": "サナエチョウ",
    "street": null,
    "office_name": null,
    "office_name_kana": null
  },
  "3212": {
    "postcode": "8593212",
    "prefecture": "長崎県",
    "prefecture_kana": "ナガサキケン",
    "prefecture_code": 42,
    "city": "佐世保市",
    "city_kana": "サセボシ",
    "town": "花高",
    "town_kana": "ハナタカ",
    "street": null,
    "office_name": null,
    "office_name_kana": null
  },
  "3213": {
    "postcode": "8593213",
    "prefecture": "長崎県",
    "prefecture_kana": "ナガサキケン",
    "prefecture_code": 42,
    "city": "佐世保市",
    "city_kana": "サセボシ",
    "town": "権常寺町",
    "town_kana": "ゴンジョウジチョウ",
    "street": null,
    "office_name": null,
    "office_name_kana": null
  },
  "3214": {
    "postcode": "8593214",
    "prefecture": "長崎県",
    "prefecture_kana": "ナガサキケン",
    "prefecture_code": 42,
    "city": "佐世保市",
    "city_kana": "サセボシ",
    "town": "権常寺",
    "town_kana": "ゴンジョウジ",
    "street": null,
    "office_name": null,
    "office_name_kana": null
  },
  "3215": {
    "postcode": "8593215",
    "prefecture": "長崎県",
    "prefecture_kana": "ナガサキケン",
    "prefecture_code": 42,
    "city": "佐世保市",
    "city_kana": "サセボシ",
    "town": "早岐",
    "town_kana": "ハイキ",
    "street": null,
    "office_name": null,
    "office_name_kana": null
  },
  "3216": {
    "postcode": "8593216",
    "prefecture": "長崎県",
    "prefecture_kana": "ナガサキケン",
    "prefecture_code": 42,
    "city": "佐世保市",
    "city_kana": "サセボシ",
    "town": "勝海町",
    "town_kana": "カツウミチョウ",
    "street": null,
    "office_name": null,
    "office_name_kana": null
  },
  "3221": {
    "postcode": "8593221",
    "prefecture": "長崎県",
    "prefecture_kana": "ナガサキケン",
    "prefecture_code": 42,
    "city": "佐世保市",
    "city_kana": "サセボシ",
    "town": "中原町",
    "town_kana": "ナカハラチョウ",
    "street": null,
    "office_name": null,
    "office_name_kana": null
  },
  "3222": {
    "postcode": "8593222",
    "prefecture": "長崎県",
    "prefecture_kana": "ナガサキケン",
    "prefecture_code": 42,
    "city": "佐世保市",
    "city_kana": "サセボシ",
    "town": "広田町",
    "town_kana": "ヒロダチョウ",
    "street": null,
    "office_name": null,
    "office_name_kana": null
  },
  "3223": {
    "postcode": "8593223",
    "prefecture": "長崎県",
    "prefecture_kana": "ナガサキケン",
    "prefecture_code": 42,
    "city": "佐世保市",
    "city_kana": "サセボシ",
    "town": "広田",
    "town_kana": "ヒロタ",
    "street": null,
    "office_name": null,
    "office_name_kana": null
  },
  "3224": {
    "postcode": "8593224",
    "prefecture": "長崎県",
    "prefecture_kana": "ナガサキケン",
    "prefecture_code": 42,
    "city": "佐世保市",
    "city_kana": "サセボシ",
    "town": "重尾町",
    "town_kana": "シゲオチョウ",
    "street": null,
    "office_name": null,
    "office_name_kana": null
  },
  "3225": {
    "postcode": "8593225",
    "prefecture": "長崎県",
    "prefecture_kana": "ナガサキケン",
    "prefecture_code": 42,
    "city": "佐世保市",
    "city_kana": "サセボシ",
    "town": "浦川内町",
    "town_kana": "ウラガワチチョウ",
    "street": null,
    "office_name": null,
    "office_name_kana": null
  },
  "3226": {
    "postcode": "8593226",
    "prefecture": "長崎県",
    "prefecture_kana": "ナガサキケン",
    "prefecture_code": 42,
    "city": "佐世保市",
    "city_kana": "サセボシ",
    "town": "崎岡町",
    "town_kana": "サキオカチョウ",
    "street": null,
    "office_name": null,
    "office_name_kana": null
  },
  "3231": {
    "postcode": "8593231",
    "prefecture": "長崎県",
    "prefecture_kana": "ナガサキケン",
    "prefecture_code": 42,
    "city": "佐世保市",
    "city_kana": "サセボシ",
    "town": "瀬道町",
    "town_kana": "セドウチョウ",
    "street": null,
    "office_name": null,
    "office_name_kana": null
  },
  "3232": {
    "postcode": "8593232",
    "prefecture": "長崎県",
    "prefecture_kana": "ナガサキケン",
    "prefecture_code": 42,
    "city": "佐世保市",
    "city_kana": "サセボシ",
    "town": "萩坂町",
    "town_kana": "ハギサカチョウ",
    "street": null,
    "office_name": null,
    "office_name_kana": null
  },
  "3233": {
    "postcode": "8593233",
    "prefecture": "長崎県",
    "prefecture_kana": "ナガサキケン",
    "prefecture_code": 42,
    "city": "佐世保市",
    "city_kana": "サセボシ",
    "town": "奥山町",
    "town_kana": "オクヤマチョウ",
    "street": null,
    "office_name": null,
    "office_name_kana": null
  },
  "3234": {
    "postcode": "8593234",
    "prefecture": "長崎県",
    "prefecture_kana": "ナガサキケン",
    "prefecture_code": 42,
    "city": "佐世保市",
    "city_kana": "サセボシ",
    "town": "長畑町",
    "town_kana": "ナガハタチョウ",
    "street": null,
    "office_name": null,
    "office_name_kana": null
  },
  "3235": {
    "postcode": "8593235",
    "prefecture": "長崎県",
    "prefecture_kana": "ナガサキケン",
    "prefecture_code": 42,
    "city": "佐世保市",
    "city_kana": "サセボシ",
    "town": "宮津町",
    "town_kana": "ミヤヅチョウ",
    "street": null,
    "office_name": null,
    "office_name_kana": null
  },
  "3236": {
    "postcode": "8593236",
    "prefecture": "長崎県",
    "prefecture_kana": "ナガサキケン",
    "prefecture_code": 42,
    "city": "佐世保市",
    "city_kana": "サセボシ",
    "town": "南風崎町",
    "town_kana": "ハエノサキチョウ",
    "street": null,
    "office_name": null,
    "office_name_kana": null
  },
  "3237": {
    "postcode": "8593237",
    "prefecture": "長崎県",
    "prefecture_kana": "ナガサキケン",
    "prefecture_code": 42,
    "city": "佐世保市",
    "city_kana": "サセボシ",
    "town": "城間町",
    "town_kana": "ジョウマチョウ",
    "street": null,
    "office_name": null,
    "office_name_kana": null
  },
  "3241": {
    "postcode": "8593241",
    "prefecture": "長崎県",
    "prefecture_kana": "ナガサキケン",
    "prefecture_code": 42,
    "city": "佐世保市",
    "city_kana": "サセボシ",
    "town": "有福町",
    "town_kana": "アリフクチョウ",
    "street": null,
    "office_name": null,
    "office_name_kana": null
  },
  "3242": {
    "postcode": "8593242",
    "prefecture": "長崎県",
    "prefecture_kana": "ナガサキケン",
    "prefecture_code": 42,
    "city": "佐世保市",
    "city_kana": "サセボシ",
    "town": "指方町",
    "town_kana": "サシカタチョウ",
    "street": null,
    "office_name": null,
    "office_name_kana": null
  },
  "3243": {
    "postcode": "8593243",
    "prefecture": "長崎県",
    "prefecture_kana": "ナガサキケン",
    "prefecture_code": 42,
    "city": "佐世保市",
    "city_kana": "サセボシ",
    "town": "ハウステンボス町",
    "town_kana": "ハウステンボスマチ",
    "street": null,
    "office_name": null,
    "office_name_kana": null
  },
  "3244": {
    "postcode": "8593244",
    "prefecture": "長崎県",
    "prefecture_kana": "ナガサキケン",
    "prefecture_code": 42,
    "city": "佐世保市",
    "city_kana": "サセボシ",
    "town": "江上町",
    "town_kana": "エガミチョウ",
    "street": null,
    "office_name": null,
    "office_name_kana": null
  },
  "3292": {
    "postcode": "8593292",
    "prefecture": "長崎県",
    "prefecture_kana": "ナガサキケン",
    "prefecture_code": 42,
    "city": "佐世保市",
    "city_kana": "サセボシ",
    "town": "ハウステンボス町",
    "town_kana": "ハウステンボスマチ",
    "street": "１−１",
    "office_name": "ハウステンボス　株式会社",
    "office_name_kana": "ハウステンボス カブシキガイシヤ"
  },
  "3293": {
    "postcode": "8593293",
    "prefecture": "長崎県",
    "prefecture_kana": "ナガサキケン",
    "prefecture_code": 42,
    "city": "佐世保市",
    "city_kana": "サセボシ",
    "town": "ハウステンボス町",
    "town_kana": "ハウステンボスマチ",
    "street": "７−７",
    "office_name": "ハウステンボス　株式会社　ホテル本部",
    "office_name_kana": "ハウステンボス カブシキガイシヤ ホテルホンブ"
  },
  "3298": {
    "postcode": "8593298",
    "prefecture": "長崎県",
    "prefecture_kana": "ナガサキケン",
    "prefecture_code": 42,
    "city": "佐世保市",
    "city_kana": "サセボシ",
    "town": "ハウステンボス町",
    "town_kana": "ハウステンボスマチ",
    "street": "２８２５−７",
    "office_name": "長崎国際大学",
    "office_name_kana": "ナガサキコクサイダイガク"
  },
  "3451": {
    "postcode": "8593451",
    "prefecture": "長崎県",
    "prefecture_kana": "ナガサキケン",
    "prefecture_code": 42,
    "city": "佐世保市",
    "city_kana": "サセボシ",
    "town": "針尾東町",
    "town_kana": "ハリオヒガシマチ",
    "street": null,
    "office_name": null,
    "office_name_kana": null
  },
  "3452": {
    "postcode": "8593452",
    "prefecture": "長崎県",
    "prefecture_kana": "ナガサキケン",
    "prefecture_code": 42,
    "city": "佐世保市",
    "city_kana": "サセボシ",
    "town": "針尾中町",
    "town_kana": "ハリオナカマチ",
    "street": null,
    "office_name": null,
    "office_name_kana": null
  },
  "3453": {
    "postcode": "8593453",
    "prefecture": "長崎県",
    "prefecture_kana": "ナガサキケン",
    "prefecture_code": 42,
    "city": "佐世保市",
    "city_kana": "サセボシ",
    "town": "針尾西町",
    "town_kana": "ハリオニシマチ",
    "street": null,
    "office_name": null,
    "office_name_kana": null
  },
  "3454": {
    "postcode": "8593454",
    "prefecture": "長崎県",
    "prefecture_kana": "ナガサキケン",
    "prefecture_code": 42,
    "city": "佐世保市",
    "city_kana": "サセボシ",
    "town": "針尾北町",
    "town_kana": "ハリオキタマチ",
    "street": null,
    "office_name": null,
    "office_name_kana": null
  },
  "3600": {
    "postcode": "8593600",
    "prefecture": "長崎県",
    "prefecture_kana": "ナガサキケン",
    "prefecture_code": 42,
    "city": "東彼杵郡川棚町",
    "city_kana": "ヒガシソノギグンカワタナチョウ",
    "town": "",
    "town_kana": "",
    "street": null,
    "office_name": null,
    "office_name_kana": null
  },
  "3601": {
    "postcode": "8593601",
    "prefecture": "長崎県",
    "prefecture_kana": "ナガサキケン",
    "prefecture_code": 42,
    "city": "東彼杵郡川棚町",
    "city_kana": "ヒガシソノギグンカワタナチョウ",
    "town": "猪乗川内郷",
    "town_kana": "イノリゴウチゴウ",
    "street": null,
    "office_name": null,
    "office_name_kana": null
  },
  "3602": {
    "postcode": "8593602",
    "prefecture": "長崎県",
    "prefecture_kana": "ナガサキケン",
    "prefecture_code": 42,
    "city": "東彼杵郡川棚町",
    "city_kana": "ヒガシソノギグンカワタナチョウ",
    "town": "木場郷",
    "town_kana": "コバゴウ",
    "street": null,
    "office_name": null,
    "office_name_kana": null
  },
  "3603": {
    "postcode": "8593603",
    "prefecture": "長崎県",
    "prefecture_kana": "ナガサキケン",
    "prefecture_code": 42,
    "city": "東彼杵郡川棚町",
    "city_kana": "ヒガシソノギグンカワタナチョウ",
    "town": "岩屋郷",
    "town_kana": "イワヤゴウ",
    "street": null,
    "office_name": null,
    "office_name_kana": null
  },
  "3604": {
    "postcode": "8593604",
    "prefecture": "長崎県",
    "prefecture_kana": "ナガサキケン",
    "prefecture_code": 42,
    "city": "東彼杵郡川棚町",
    "city_kana": "ヒガシソノギグンカワタナチョウ",
    "town": "石木郷",
    "town_kana": "イシキゴウ",
    "street": null,
    "office_name": null,
    "office_name_kana": null
  },
  "3605": {
    "postcode": "8593605",
    "prefecture": "長崎県",
    "prefecture_kana": "ナガサキケン",
    "prefecture_code": 42,
    "city": "東彼杵郡川棚町",
    "city_kana": "ヒガシソノギグンカワタナチョウ",
    "town": "百津郷",
    "town_kana": "モモヅゴウ",
    "street": null,
    "office_name": null,
    "office_name_kana": null
  },
  "3606": {
    "postcode": "8593606",
    "prefecture": "長崎県",
    "prefecture_kana": "ナガサキケン",
    "prefecture_code": 42,
    "city": "東彼杵郡川棚町",
    "city_kana": "ヒガシソノギグンカワタナチョウ",
    "town": "小音琴郷",
    "town_kana": "コネゴトゴウ",
    "street": null,
    "office_name": null,
    "office_name_kana": null
  },
  "3607": {
    "postcode": "8593607",
    "prefecture": "長崎県",
    "prefecture_kana": "ナガサキケン",
    "prefecture_code": 42,
    "city": "東彼杵郡川棚町",
    "city_kana": "ヒガシソノギグンカワタナチョウ",
    "town": "城山町",
    "town_kana": "シロヤマチョウ",
    "street": null,
    "office_name": null,
    "office_name_kana": null
  },
  "3608": {
    "postcode": "8593608",
    "prefecture": "長崎県",
    "prefecture_kana": "ナガサキケン",
    "prefecture_code": 42,
    "city": "東彼杵郡川棚町",
    "city_kana": "ヒガシソノギグンカワタナチョウ",
    "town": "栄町",
    "town_kana": "サカエマチ",
    "street": null,
    "office_name": null,
    "office_name_kana": null
  },
  "3611": {
    "postcode": "8593611",
    "prefecture": "長崎県",
    "prefecture_kana": "ナガサキケン",
    "prefecture_code": 42,
    "city": "東彼杵郡川棚町",
    "city_kana": "ヒガシソノギグンカワタナチョウ",
    "town": "中山郷",
    "town_kana": "ナカヤマゴウ",
    "street": null,
    "office_name": null,
    "office_name_kana": null
  },
  "3612": {
    "postcode": "8593612",
    "prefecture": "長崎県",
    "prefecture_kana": "ナガサキケン",
    "prefecture_code": 42,
    "city": "東彼杵郡川棚町",
    "city_kana": "ヒガシソノギグンカワタナチョウ",
    "town": "五反田郷",
    "town_kana": "ゴタンダゴウ",
    "street": null,
    "office_name": null,
    "office_name_kana": null
  },
  "3613": {
    "postcode": "8593613",
    "prefecture": "長崎県",
    "prefecture_kana": "ナガサキケン",
    "prefecture_code": 42,
    "city": "東彼杵郡川棚町",
    "city_kana": "ヒガシソノギグンカワタナチョウ",
    "town": "上組郷",
    "town_kana": "カミグミゴウ",
    "street": null,
    "office_name": null,
    "office_name_kana": null
  },
  "3614": {
    "postcode": "8593614",
    "prefecture": "長崎県",
    "prefecture_kana": "ナガサキケン",
    "prefecture_code": 42,
    "city": "東彼杵郡川棚町",
    "city_kana": "ヒガシソノギグンカワタナチョウ",
    "town": "中組郷",
    "town_kana": "ナカグミゴウ",
    "street": null,
    "office_name": null,
    "office_name_kana": null
  },
  "3615": {
    "postcode": "8593615",
    "prefecture": "長崎県",
    "prefecture_kana": "ナガサキケン",
    "prefecture_code": 42,
    "city": "東彼杵郡川棚町",
    "city_kana": "ヒガシソノギグンカワタナチョウ",
    "town": "下組郷",
    "town_kana": "シモグミゴウ",
    "street": null,
    "office_name": null,
    "office_name_kana": null
  },
  "3616": {
    "postcode": "8593616",
    "prefecture": "長崎県",
    "prefecture_kana": "ナガサキケン",
    "prefecture_code": 42,
    "city": "東彼杵郡川棚町",
    "city_kana": "ヒガシソノギグンカワタナチョウ",
    "town": "白石郷",
    "town_kana": "シロイシゴウ",
    "street": null,
    "office_name": null,
    "office_name_kana": null
  },
  "3617": {
    "postcode": "8593617",
    "prefecture": "長崎県",
    "prefecture_kana": "ナガサキケン",
    "prefecture_code": 42,
    "city": "東彼杵郡川棚町",
    "city_kana": "ヒガシソノギグンカワタナチョウ",
    "town": "三越郷",
    "town_kana": "ミツゴエゴウ",
    "street": null,
    "office_name": null,
    "office_name_kana": null
  },
  "3618": {
    "postcode": "8593618",
    "prefecture": "長崎県",
    "prefecture_kana": "ナガサキケン",
    "prefecture_code": 42,
    "city": "東彼杵郡川棚町",
    "city_kana": "ヒガシソノギグンカワタナチョウ",
    "town": "小串郷",
    "town_kana": "オグシゴウ",
    "street": null,
    "office_name": null,
    "office_name_kana": null
  },
  "3619": {
    "postcode": "8593619",
    "prefecture": "長崎県",
    "prefecture_kana": "ナガサキケン",
    "prefecture_code": 42,
    "city": "東彼杵郡川棚町",
    "city_kana": "ヒガシソノギグンカワタナチョウ",
    "town": "新谷郷",
    "town_kana": "シンガエゴウ",
    "street": null,
    "office_name": null,
    "office_name_kana": null
  },
  "3692": {
    "postcode": "8593692",
    "prefecture": "長崎県",
    "prefecture_kana": "ナガサキケン",
    "prefecture_code": 42,
    "city": "東彼杵郡川棚町",
    "city_kana": "ヒガシソノギグンカワタナチョウ",
    "town": "中組郷",
    "town_kana": "ナカグミゴウ",
    "street": "１５１８−１（川棚郵便局私書箱第１号）",
    "office_name": "川棚町役場",
    "office_name_kana": "カワタナチヨウヤクバ"
  },
  "3700": {
    "postcode": "8593700",
    "prefecture": "長崎県",
    "prefecture_kana": "ナガサキケン",
    "prefecture_code": 42,
    "city": "東彼杵郡波佐見町",
    "city_kana": "ヒガシソノギグンハサミチョウ",
    "town": "",
    "town_kana": "",
    "street": null,
    "office_name": null,
    "office_name_kana": null
  },
  "3701": {
    "postcode": "8593701",
    "prefecture": "長崎県",
    "prefecture_kana": "ナガサキケン",
    "prefecture_code": 42,
    "city": "東彼杵郡波佐見町",
    "city_kana": "ヒガシソノギグンハサミチョウ",
    "town": "折敷瀬郷",
    "town_kana": "オリシキセゴウ",
    "street": null,
    "office_name": null,
    "office_name_kana": null
  },
  "3702": {
    "postcode": "8593702",
    "prefecture": "長崎県",
    "prefecture_kana": "ナガサキケン",
    "prefecture_code": 42,
    "city": "東彼杵郡波佐見町",
    "city_kana": "ヒガシソノギグンハサミチョウ",
    "town": "湯無田郷",
    "town_kana": "ユムタゴウ",
    "street": null,
    "office_name": null,
    "office_name_kana": null
  },
  "3703": {
    "postcode": "8593703",
    "prefecture": "長崎県",
    "prefecture_kana": "ナガサキケン",
    "prefecture_code": 42,
    "city": "東彼杵郡波佐見町",
    "city_kana": "ヒガシソノギグンハサミチョウ",
    "town": "野々川郷",
    "town_kana": "ノノカワゴウ",
    "street": null,
    "office_name": null,
    "office_name_kana": null
  },
  "3704": {
    "postcode": "8593704",
    "prefecture": "長崎県",
    "prefecture_kana": "ナガサキケン",
    "prefecture_code": 42,
    "city": "東彼杵郡波佐見町",
    "city_kana": "ヒガシソノギグンハサミチョウ",
    "town": "小樽郷",
    "town_kana": "コダルゴウ",
    "street": null,
    "office_name": null,
    "office_name_kana": null
  },
  "3705": {
    "postcode": "8593705",
    "prefecture": "長崎県",
    "prefecture_kana": "ナガサキケン",
    "prefecture_code": 42,
    "city": "東彼杵郡波佐見町",
    "city_kana": "ヒガシソノギグンハサミチョウ",
    "town": "永尾郷",
    "town_kana": "ナガオゴウ",
    "street": null,
    "office_name": null,
    "office_name_kana": null
  },
  "3706": {
    "postcode": "8593706",
    "prefecture": "長崎県",
    "prefecture_kana": "ナガサキケン",
    "prefecture_code": 42,
    "city": "東彼杵郡波佐見町",
    "city_kana": "ヒガシソノギグンハサミチョウ",
    "town": "三股郷",
    "town_kana": "ミツマタゴウ",
    "street": null,
    "office_name": null,
    "office_name_kana": null
  },
  "3711": {
    "postcode": "8593711",
    "prefecture": "長崎県",
    "prefecture_kana": "ナガサキケン",
    "prefecture_code": 42,
    "city": "東彼杵郡波佐見町",
    "city_kana": "ヒガシソノギグンハサミチョウ",
    "town": "井石郷",
    "town_kana": "イセキゴウ",
    "street": null,
    "office_name": null,
    "office_name_kana": null
  },
  "3712": {
    "postcode": "8593712",
    "prefecture": "長崎県",
    "prefecture_kana": "ナガサキケン",
    "prefecture_code": 42,
    "city": "東彼杵郡波佐見町",
    "city_kana": "ヒガシソノギグンハサミチョウ",
    "town": "中尾郷",
    "town_kana": "ナカオゴウ",
    "street": null,
    "office_name": null,
    "office_name_kana": null
  },
  "3713": {
    "postcode": "8593713",
    "prefecture": "長崎県",
    "prefecture_kana": "ナガサキケン",
    "prefecture_code": 42,
    "city": "東彼杵郡波佐見町",
    "city_kana": "ヒガシソノギグンハサミチョウ",
    "town": "鬼木郷",
    "town_kana": "オニギゴウ",
    "street": null,
    "office_name": null,
    "office_name_kana": null
  },
  "3714": {
    "postcode": "8593714",
    "prefecture": "長崎県",
    "prefecture_kana": "ナガサキケン",
    "prefecture_code": 42,
    "city": "東彼杵郡波佐見町",
    "city_kana": "ヒガシソノギグンハサミチョウ",
    "town": "金屋郷",
    "town_kana": "カナヤゴウ",
    "street": null,
    "office_name": null,
    "office_name_kana": null
  },
  "3715": {
    "postcode": "8593715",
    "prefecture": "長崎県",
    "prefecture_kana": "ナガサキケン",
    "prefecture_code": 42,
    "city": "東彼杵郡波佐見町",
    "city_kana": "ヒガシソノギグンハサミチョウ",
    "town": "宿郷",
    "town_kana": "シュクゴウ",
    "street": null,
    "office_name": null,
    "office_name_kana": null
  },
  "3716": {
    "postcode": "8593716",
    "prefecture": "長崎県",
    "prefecture_kana": "ナガサキケン",
    "prefecture_code": 42,
    "city": "東彼杵郡波佐見町",
    "city_kana": "ヒガシソノギグンハサミチョウ",
    "town": "田ノ頭郷",
    "town_kana": "タノカシラゴウ",
    "street": null,
    "office_name": null,
    "office_name_kana": null
  },
  "3721": {
    "postcode": "8593721",
    "prefecture": "長崎県",
    "prefecture_kana": "ナガサキケン",
    "prefecture_code": 42,
    "city": "東彼杵郡波佐見町",
    "city_kana": "ヒガシソノギグンハサミチョウ",
    "town": "川内郷",
    "town_kana": "カワチゴウ",
    "street": null,
    "office_name": null,
    "office_name_kana": null
  },
  "3722": {
    "postcode": "8593722",
    "prefecture": "長崎県",
    "prefecture_kana": "ナガサキケン",
    "prefecture_code": 42,
    "city": "東彼杵郡波佐見町",
    "city_kana": "ヒガシソノギグンハサミチョウ",
    "town": "岳辺田郷",
    "town_kana": "タケベタゴウ",
    "street": null,
    "office_name": null,
    "office_name_kana": null
  },
  "3723": {
    "postcode": "8593723",
    "prefecture": "長崎県",
    "prefecture_kana": "ナガサキケン",
    "prefecture_code": 42,
    "city": "東彼杵郡波佐見町",
    "city_kana": "ヒガシソノギグンハサミチョウ",
    "town": "平野郷",
    "town_kana": "ヒラノゴウ",
    "street": null,
    "office_name": null,
    "office_name_kana": null
  },
  "3724": {
    "postcode": "8593724",
    "prefecture": "長崎県",
    "prefecture_kana": "ナガサキケン",
    "prefecture_code": 42,
    "city": "東彼杵郡波佐見町",
    "city_kana": "ヒガシソノギグンハサミチョウ",
    "town": "志折郷",
    "town_kana": "シオリゴウ",
    "street": null,
    "office_name": null,
    "office_name_kana": null
  },
  "3725": {
    "postcode": "8593725",
    "prefecture": "長崎県",
    "prefecture_kana": "ナガサキケン",
    "prefecture_code": 42,
    "city": "東彼杵郡波佐見町",
    "city_kana": "ヒガシソノギグンハサミチョウ",
    "town": "長野郷",
    "town_kana": "ナガノゴウ",
    "street": null,
    "office_name": null,
    "office_name_kana": null
  },
  "3726": {
    "postcode": "8593726",
    "prefecture": "長崎県",
    "prefecture_kana": "ナガサキケン",
    "prefecture_code": 42,
    "city": "東彼杵郡波佐見町",
    "city_kana": "ヒガシソノギグンハサミチョウ",
    "town": "稗木場郷",
    "town_kana": "ヒエコバゴウ",
    "street": null,
    "office_name": null,
    "office_name_kana": null
  },
  "3727": {
    "postcode": "8593727",
    "prefecture": "長崎県",
    "prefecture_kana": "ナガサキケン",
    "prefecture_code": 42,
    "city": "東彼杵郡波佐見町",
    "city_kana": "ヒガシソノギグンハサミチョウ",
    "town": "皿山郷",
    "town_kana": "サラヤマゴウ",
    "street": null,
    "office_name": null,
    "office_name_kana": null
  },
  "3728": {
    "postcode": "8593728",
    "prefecture": "長崎県",
    "prefecture_kana": "ナガサキケン",
    "prefecture_code": 42,
    "city": "東彼杵郡波佐見町",
    "city_kana": "ヒガシソノギグンハサミチョウ",
    "town": "村木郷",
    "town_kana": "ムラギゴウ",
    "street": null,
    "office_name": null,
    "office_name_kana": null
  },
  "3792": {
    "postcode": "8593792",
    "prefecture": "長崎県",
    "prefecture_kana": "ナガサキケン",
    "prefecture_code": 42,
    "city": "東彼杵郡波佐見町",
    "city_kana": "ヒガシソノギグンハサミチョウ",
    "town": "湯無田郷",
    "town_kana": "ユムタゴウ",
    "street": "８３０",
    "office_name": "西日本陶器　株式会社",
    "office_name_kana": "ニシニホントウキ カブシキガイシヤ"
  },
  "3793": {
    "postcode": "8593793",
    "prefecture": "長崎県",
    "prefecture_kana": "ナガサキケン",
    "prefecture_code": 42,
    "city": "東彼杵郡波佐見町",
    "city_kana": "ヒガシソノギグンハサミチョウ",
    "town": "折敷瀬郷",
    "town_kana": "オリシキセゴウ",
    "street": "９２５番地１",
    "office_name": "長崎キヤノン　株式会社",
    "office_name_kana": "ナガサキキヤノン カブシキガイシヤ"
  },
  "3797": {
    "postcode": "8593797",
    "prefecture": "長崎県",
    "prefecture_kana": "ナガサキケン",
    "prefecture_code": 42,
    "city": "東彼杵郡波佐見町",
    "city_kana": "ヒガシソノギグンハサミチョウ",
    "town": "長野郷",
    "town_kana": "ナガノゴウ",
    "street": "３１２−５",
    "office_name": "長崎県立　波佐見高等学校",
    "office_name_kana": "ナガサキケンリツ ハサミコウトウガツコウ"
  },
  "3798": {
    "postcode": "8593798",
    "prefecture": "長崎県",
    "prefecture_kana": "ナガサキケン",
    "prefecture_code": 42,
    "city": "東彼杵郡波佐見町",
    "city_kana": "ヒガシソノギグンハサミチョウ",
    "town": "折敷瀬郷",
    "town_kana": "オリシキセゴウ",
    "street": "２１２４",
    "office_name": "西海陶器　株式会社",
    "office_name_kana": "サイカイトウキ カブシキガイシヤ"
  },
  "3800": {
    "postcode": "8593800",
    "prefecture": "長崎県",
    "prefecture_kana": "ナガサキケン",
    "prefecture_code": 42,
    "city": "東彼杵郡東彼杵町",
    "city_kana": "ヒガシソノギグンヒガシソノギチョウ",
    "town": "",
    "town_kana": "",
    "street": null,
    "office_name": null,
    "office_name_kana": null
  },
  "3801": {
    "postcode": "8593801",
    "prefecture": "長崎県",
    "prefecture_kana": "ナガサキケン",
    "prefecture_code": 42,
    "city": "東彼杵郡東彼杵町",
    "city_kana": "ヒガシソノギグンヒガシソノギチョウ",
    "town": "中尾郷",
    "town_kana": "ナカオゴウ",
    "street": null,
    "office_name": null,
    "office_name_kana": null
  },
  "3802": {
    "postcode": "8593802",
    "prefecture": "長崎県",
    "prefecture_kana": "ナガサキケン",
    "prefecture_code": 42,
    "city": "東彼杵郡東彼杵町",
    "city_kana": "ヒガシソノギグンヒガシソノギチョウ",
    "town": "坂本郷",
    "town_kana": "サカモトゴウ",
    "street": null,
    "office_name": null,
    "office_name_kana": null
  },
  "3803": {
    "postcode": "8593803",
    "prefecture": "長崎県",
    "prefecture_kana": "ナガサキケン",
    "prefecture_code": 42,
    "city": "東彼杵郡東彼杵町",
    "city_kana": "ヒガシソノギグンヒガシソノギチョウ",
    "town": "菅無田郷",
    "town_kana": "スガムタゴウ",
    "street": null,
    "office_name": null,
    "office_name_kana": null
  },
  "3804": {
    "postcode": "8593804",
    "prefecture": "長崎県",
    "prefecture_kana": "ナガサキケン",
    "prefecture_code": 42,
    "city": "東彼杵郡東彼杵町",
    "city_kana": "ヒガシソノギグンヒガシソノギチョウ",
    "town": "法音寺郷",
    "town_kana": "ホウオンジゴウ",
    "street": null,
    "office_name": null,
    "office_name_kana": null
  },
  "3805": {
    "postcode": "8593805",
    "prefecture": "長崎県",
    "prefecture_kana": "ナガサキケン",
    "prefecture_code": 42,
    "city": "東彼杵郡東彼杵町",
    "city_kana": "ヒガシソノギグンヒガシソノギチョウ",
    "town": "川内郷",
    "town_kana": "カワチゴウ",
    "street": null,
    "office_name": null,
    "office_name_kana": null
  },
  "3806": {
    "postcode": "8593806",
    "prefecture": "長崎県",
    "prefecture_kana": "ナガサキケン",
    "prefecture_code": 42,
    "city": "東彼杵郡東彼杵町",
    "city_kana": "ヒガシソノギグンヒガシソノギチョウ",
    "town": "三根郷",
    "town_kana": "ミネゴウ",
    "street": null,
    "office_name": null,
    "office_name_kana": null
  },
  "3807": {
    "postcode": "8593807",
    "prefecture": "長崎県",
    "prefecture_kana": "ナガサキケン",
    "prefecture_code": 42,
    "city": "東彼杵郡東彼杵町",
    "city_kana": "ヒガシソノギグンヒガシソノギチョウ",
    "town": "彼杵宿郷",
    "town_kana": "ソノギシュクゴウ",
    "street": null,
    "office_name": null,
    "office_name_kana": null
  },
  "3808": {
    "postcode": "8593808",
    "prefecture": "長崎県",
    "prefecture_kana": "ナガサキケン",
    "prefecture_code": 42,
    "city": "東彼杵郡東彼杵町",
    "city_kana": "ヒガシソノギグンヒガシソノギチョウ",
    "town": "蔵本郷",
    "town_kana": "クラモトゴウ",
    "street": null,
    "office_name": null,
    "office_name_kana": null
  },
  "3809": {
    "postcode": "8593809",
    "prefecture": "長崎県",
    "prefecture_kana": "ナガサキケン",
    "prefecture_code": 42,
    "city": "東彼杵郡東彼杵町",
    "city_kana": "ヒガシソノギグンヒガシソノギチョウ",
    "town": "口木田郷",
    "town_kana": "クチキダゴウ",
    "street": null,
    "office_name": null,
    "office_name_kana": null
  },
  "3811": {
    "postcode": "8593811",
    "prefecture": "長崎県",
    "prefecture_kana": "ナガサキケン",
    "prefecture_code": 42,
    "city": "東彼杵郡東彼杵町",
    "city_kana": "ヒガシソノギグンヒガシソノギチョウ",
    "town": "大音琴郷",
    "town_kana": "オオネゴトゴウ",
    "street": null,
    "office_name": null,
    "office_name_kana": null
  },
  "3812": {
    "postcode": "8593812",
    "prefecture": "長崎県",
    "prefecture_kana": "ナガサキケン",
    "prefecture_code": 42,
    "city": "東彼杵郡東彼杵町",
    "city_kana": "ヒガシソノギグンヒガシソノギチョウ",
    "town": "小音琴郷",
    "town_kana": "コネゴトゴウ",
    "street": null,
    "office_name": null,
    "office_name_kana": null
  },
  "3921": {
    "postcode": "8593921",
    "prefecture": "長崎県",
    "prefecture_kana": "ナガサキケン",
    "prefecture_code": 42,
    "city": "東彼杵郡東彼杵町",
    "city_kana": "ヒガシソノギグンヒガシソノギチョウ",
    "town": "千綿宿郷",
    "town_kana": "チワタシュクゴウ",
    "street": null,
    "office_name": null,
    "office_name_kana": null
  },
  "3922": {
    "postcode": "8593922",
    "prefecture": "長崎県",
    "prefecture_kana": "ナガサキケン",
    "prefecture_code": 42,
    "city": "東彼杵郡東彼杵町",
    "city_kana": "ヒガシソノギグンヒガシソノギチョウ",
    "town": "八反田郷",
    "town_kana": "ハチタンダゴウ",
    "street": null,
    "office_name": null,
    "office_name_kana": null
  },
  "3923": {
    "postcode": "8593923",
    "prefecture": "長崎県",
    "prefecture_kana": "ナガサキケン",
    "prefecture_code": 42,
    "city": "東彼杵郡東彼杵町",
    "city_kana": "ヒガシソノギグンヒガシソノギチョウ",
    "town": "瀬戸郷",
    "town_kana": "セトゴウ",
    "street": null,
    "office_name": null,
    "office_name_kana": null
  },
  "3924": {
    "postcode": "8593924",
    "prefecture": "長崎県",
    "prefecture_kana": "ナガサキケン",
    "prefecture_code": 42,
    "city": "東彼杵郡東彼杵町",
    "city_kana": "ヒガシソノギグンヒガシソノギチョウ",
    "town": "太ノ浦郷",
    "town_kana": "タノウラゴウ",
    "street": null,
    "office_name": null,
    "office_name_kana": null
  },
  "3925": {
    "postcode": "8593925",
    "prefecture": "長崎県",
    "prefecture_kana": "ナガサキケン",
    "prefecture_code": 42,
    "city": "東彼杵郡東彼杵町",
    "city_kana": "ヒガシソノギグンヒガシソノギチョウ",
    "town": "中岳郷",
    "town_kana": "ナカタケゴウ",
    "street": null,
    "office_name": null,
    "office_name_kana": null
  },
  "3926": {
    "postcode": "8593926",
    "prefecture": "長崎県",
    "prefecture_kana": "ナガサキケン",
    "prefecture_code": 42,
    "city": "東彼杵郡東彼杵町",
    "city_kana": "ヒガシソノギグンヒガシソノギチョウ",
    "town": "蕪郷",
    "town_kana": "カブラゴウ",
    "street": null,
    "office_name": null,
    "office_name_kana": null
  },
  "3927": {
    "postcode": "8593927",
    "prefecture": "長崎県",
    "prefecture_kana": "ナガサキケン",
    "prefecture_code": 42,
    "city": "東彼杵郡東彼杵町",
    "city_kana": "ヒガシソノギグンヒガシソノギチョウ",
    "town": "駄地郷",
    "town_kana": "ダジゴウ",
    "street": null,
    "office_name": null,
    "office_name_kana": null
  },
  "3928": {
    "postcode": "8593928",
    "prefecture": "長崎県",
    "prefecture_kana": "ナガサキケン",
    "prefecture_code": 42,
    "city": "東彼杵郡東彼杵町",
    "city_kana": "ヒガシソノギグンヒガシソノギチョウ",
    "town": "平似田郷",
    "town_kana": "ヒラニタゴウ",
    "street": null,
    "office_name": null,
    "office_name_kana": null
  },
  "3929": {
    "postcode": "8593929",
    "prefecture": "長崎県",
    "prefecture_kana": "ナガサキケン",
    "prefecture_code": 42,
    "city": "東彼杵郡東彼杵町",
    "city_kana": "ヒガシソノギグンヒガシソノギチョウ",
    "town": "里郷",
    "town_kana": "サトゴウ",
    "street": null,
    "office_name": null,
    "office_name_kana": null
  },
  "3931": {
    "postcode": "8593931",
    "prefecture": "長崎県",
    "prefecture_kana": "ナガサキケン",
    "prefecture_code": 42,
    "city": "東彼杵郡東彼杵町",
    "city_kana": "ヒガシソノギグンヒガシソノギチョウ",
    "town": "木場郷",
    "town_kana": "コバゴウ",
    "street": null,
    "office_name": null,
    "office_name_kana": null
  },
  "3932": {
    "postcode": "8593932",
    "prefecture": "長崎県",
    "prefecture_kana": "ナガサキケン",
    "prefecture_code": 42,
    "city": "東彼杵郡東彼杵町",
    "city_kana": "ヒガシソノギグンヒガシソノギチョウ",
    "town": "遠目郷",
    "town_kana": "トオメゴウ",
    "street": null,
    "office_name": null,
    "office_name_kana": null
  },
  "3933": {
    "postcode": "8593933",
    "prefecture": "長崎県",
    "prefecture_kana": "ナガサキケン",
    "prefecture_code": 42,
    "city": "東彼杵郡東彼杵町",
    "city_kana": "ヒガシソノギグンヒガシソノギチョウ",
    "town": "一ッ石郷",
    "town_kana": "ヒトツイシゴウ",
    "street": null,
    "office_name": null,
    "office_name_kana": null
  },
  "4301": {
    "postcode": "8594301",
    "prefecture": "長崎県",
    "prefecture_kana": "ナガサキケン",
    "prefecture_code": 42,
    "city": "松浦市",
    "city_kana": "マツウラシ",
    "town": "鷹島町阿翁浦免",
    "town_kana": "タカシマチョウアオウウラメン",
    "street": null,
    "office_name": null,
    "office_name_kana": null
  },
  "4302": {
    "postcode": "8594302",
    "prefecture": "長崎県",
    "prefecture_kana": "ナガサキケン",
    "prefecture_code": 42,
    "city": "松浦市",
    "city_kana": "マツウラシ",
    "town": "鷹島町阿翁免",
    "town_kana": "タカシマチョウアオウメン",
    "street": null,
    "office_name": null,
    "office_name_kana": null
  },
  "4303": {
    "postcode": "8594303",
    "prefecture": "長崎県",
    "prefecture_kana": "ナガサキケン",
    "prefecture_code": 42,
    "city": "松浦市",
    "city_kana": "マツウラシ",
    "town": "鷹島町神崎免",
    "town_kana": "タカシマチョウコウザキメン",
    "street": null,
    "office_name": null,
    "office_name_kana": null
  },
  "4304": {
    "postcode": "8594304",
    "prefecture": "長崎県",
    "prefecture_kana": "ナガサキケン",
    "prefecture_code": 42,
    "city": "松浦市",
    "city_kana": "マツウラシ",
    "town": "鷹島町里免",
    "town_kana": "タカシマチョウサトメン",
    "street": null,
    "office_name": null,
    "office_name_kana": null
  },
  "4305": {
    "postcode": "8594305",
    "prefecture": "長崎県",
    "prefecture_kana": "ナガサキケン",
    "prefecture_code": 42,
    "city": "松浦市",
    "city_kana": "マツウラシ",
    "town": "鷹島町中通免",
    "town_kana": "タカシマチョウナカドオリメン",
    "street": null,
    "office_name": null,
    "office_name_kana": null
  },
  "4306": {
    "postcode": "8594306",
    "prefecture": "長崎県",
    "prefecture_kana": "ナガサキケン",
    "prefecture_code": 42,
    "city": "松浦市",
    "city_kana": "マツウラシ",
    "town": "鷹島町原免",
    "town_kana": "タカシマチョウハルメン",
    "street": null,
    "office_name": null,
    "office_name_kana": null
  },
  "4307": {
    "postcode": "8594307",
    "prefecture": "長崎県",
    "prefecture_kana": "ナガサキケン",
    "prefecture_code": 42,
    "city": "松浦市",
    "city_kana": "マツウラシ",
    "town": "鷹島町三里免",
    "town_kana": "タカシマチョウサンリメン",
    "street": null,
    "office_name": null,
    "office_name_kana": null
  },
  "4308": {
    "postcode": "8594308",
    "prefecture": "長崎県",
    "prefecture_kana": "ナガサキケン",
    "prefecture_code": 42,
    "city": "松浦市",
    "city_kana": "マツウラシ",
    "town": "鷹島町船唐津免",
    "town_kana": "タカシマチョウフナトウヅメン",
    "street": null,
    "office_name": null,
    "office_name_kana": null
  },
  "4309": {
    "postcode": "8594309",
    "prefecture": "長崎県",
    "prefecture_kana": "ナガサキケン",
    "prefecture_code": 42,
    "city": "松浦市",
    "city_kana": "マツウラシ",
    "town": "鷹島町黒島免",
    "town_kana": "タカシマチョウクロシマメン",
    "street": null,
    "office_name": null,
    "office_name_kana": null
  },
  "4500": {
    "postcode": "8594500",
    "prefecture": "長崎県",
    "prefecture_kana": "ナガサキケン",
    "prefecture_code": 42,
    "city": "松浦市",
    "city_kana": "マツウラシ",
    "town": "",
    "town_kana": "",
    "street": null,
    "office_name": null,
    "office_name_kana": null
  },
  "4501": {
    "postcode": "8594501",
    "prefecture": "長崎県",
    "prefecture_kana": "ナガサキケン",
    "prefecture_code": 42,
    "city": "松浦市",
    "city_kana": "マツウラシ",
    "town": "志佐町浦免",
    "town_kana": "シサチョウウラメン",
    "street": null,
    "office_name": null,
    "office_name_kana": null
  },
  "4502": {
    "postcode": "8594502",
    "prefecture": "長崎県",
    "prefecture_kana": "ナガサキケン",
    "prefecture_code": 42,
    "city": "松浦市",
    "city_kana": "マツウラシ",
    "town": "志佐町里免",
    "town_kana": "シサチョウサトメン",
    "street": null,
    "office_name": null,
    "office_name_kana": null
  },
  "4503": {
    "postcode": "8594503",
    "prefecture": "長崎県",
    "prefecture_kana": "ナガサキケン",
    "prefecture_code": 42,
    "city": "松浦市",
    "city_kana": "マツウラシ",
    "town": "志佐町高野免",
    "town_kana": "シサチョウタカノメン",
    "street": null,
    "office_name": null,
    "office_name_kana": null
  },
  "4504": {
    "postcode": "8594504",
    "prefecture": "長崎県",
    "prefecture_kana": "ナガサキケン",
    "prefecture_code": 42,
    "city": "松浦市",
    "city_kana": "マツウラシ",
    "town": "志佐町栢木免",
    "town_kana": "シサチョウカヤノキメン",
    "street": null,
    "office_name": null,
    "office_name_kana": null
  },
  "4505": {
    "postcode": "8594505",
    "prefecture": "長崎県",
    "prefecture_kana": "ナガサキケン",
    "prefecture_code": 42,
    "city": "松浦市",
    "city_kana": "マツウラシ",
    "town": "志佐町西山免",
    "town_kana": "シサチョウニシヤマメン",
    "street": null,
    "office_name": null,
    "office_name_kana": null
  },
  "4506": {
    "postcode": "8594506",
    "prefecture": "長崎県",
    "prefecture_kana": "ナガサキケン",
    "prefecture_code": 42,
    "city": "松浦市",
    "city_kana": "マツウラシ",
    "town": "志佐町白浜免",
    "town_kana": "シサチョウシラハマメン",
    "street": null,
    "office_name": null,
    "office_name_kana": null
  },
  "4507": {
    "postcode": "8594507",
    "prefecture": "長崎県",
    "prefecture_kana": "ナガサキケン",
    "prefecture_code": 42,
    "city": "松浦市",
    "city_kana": "マツウラシ",
    "town": "志佐町庄野免",
    "town_kana": "シサチョウショウノメン",
    "street": null,
    "office_name": null,
    "office_name_kana": null
  },
  "4511": {
    "postcode": "8594511",
    "prefecture": "長崎県",
    "prefecture_kana": "ナガサキケン",
    "prefecture_code": 42,
    "city": "松浦市",
    "city_kana": "マツウラシ",
    "town": "志佐町赤木免",
    "town_kana": "シサチョウアカギメン",
    "street": null,
    "office_name": null,
    "office_name_kana": null
  },
  "4512": {
    "postcode": "8594512",
    "prefecture": "長崎県",
    "prefecture_kana": "ナガサキケン",
    "prefecture_code": 42,
    "city": "松浦市",
    "city_kana": "マツウラシ",
    "town": "志佐町笛吹免",
    "town_kana": "シサチョウフエフキメン",
    "street": null,
    "office_name": null,
    "office_name_kana": null
  },
  "4513": {
    "postcode": "8594513",
    "prefecture": "長崎県",
    "prefecture_kana": "ナガサキケン",
    "prefecture_code": 42,
    "city": "松浦市",
    "city_kana": "マツウラシ",
    "town": "志佐町田ノ平免",
    "town_kana": "シサチョウタノヒラメン",
    "street": null,
    "office_name": null,
    "office_name_kana": null
  },
  "4514": {
    "postcode": "8594514",
    "prefecture": "長崎県",
    "prefecture_kana": "ナガサキケン",
    "prefecture_code": 42,
    "city": "松浦市",
    "city_kana": "マツウラシ",
    "town": "志佐町柚木川内免",
    "town_kana": "シサチョウユノキガワチメン",
    "street": null,
    "office_name": null,
    "office_name_kana": null
  },
  "4515": {
    "postcode": "8594515",
    "prefecture": "長崎県",
    "prefecture_kana": "ナガサキケン",
    "prefecture_code": 42,
    "city": "松浦市",
    "city_kana": "マツウラシ",
    "town": "志佐町稗木場免",
    "town_kana": "シサチョウヒエコバメン",
    "street": null,
    "office_name": null,
    "office_name_kana": null
  },
  "4516": {
    "postcode": "8594516",
    "prefecture": "長崎県",
    "prefecture_kana": "ナガサキケン",
    "prefecture_code": 42,
    "city": "松浦市",
    "city_kana": "マツウラシ",
    "town": "志佐町長野免",
    "town_kana": "シサチョウナガノメン",
    "street": null,
    "office_name": null,
    "office_name_kana": null
  },
  "4517": {
    "postcode": "8594517",
    "prefecture": "長崎県",
    "prefecture_kana": "ナガサキケン",
    "prefecture_code": 42,
    "city": "松浦市",
    "city_kana": "マツウラシ",
    "town": "志佐町横辺田免",
    "town_kana": "シサチョウヨコベタメン",
    "street": null,
    "office_name": null,
    "office_name_kana": null
  },
  "4518": {
    "postcode": "8594518",
    "prefecture": "長崎県",
    "prefecture_kana": "ナガサキケン",
    "prefecture_code": 42,
    "city": "松浦市",
    "city_kana": "マツウラシ",
    "town": "志佐町池成免",
    "town_kana": "シサチョウイケナリメン",
    "street": null,
    "office_name": null,
    "office_name_kana": null
  },
  "4521": {
    "postcode": "8594521",
    "prefecture": "長崎県",
    "prefecture_kana": "ナガサキケン",
    "prefecture_code": 42,
    "city": "松浦市",
    "city_kana": "マツウラシ",
    "town": "今福町北免",
    "town_kana": "イマフクチョウキタメン",
    "street": null,
    "office_name": null,
    "office_name_kana": null
  },
  "4522": {
    "postcode": "8594522",
    "prefecture": "長崎県",
    "prefecture_kana": "ナガサキケン",
    "prefecture_code": 42,
    "city": "松浦市",
    "city_kana": "マツウラシ",
    "town": "今福町東免",
    "town_kana": "イマフクチョウヒガシメン",
    "street": null,
    "office_name": null,
    "office_name_kana": null
  },
  "4523": {
    "postcode": "8594523",
    "prefecture": "長崎県",
    "prefecture_kana": "ナガサキケン",
    "prefecture_code": 42,
    "city": "松浦市",
    "city_kana": "マツウラシ",
    "town": "今福町滑栄免",
    "town_kana": "イマフクチョウナベルバエメン",
    "street": null,
    "office_name": null,
    "office_name_kana": null
  },
  "4524": {
    "postcode": "8594524",
    "prefecture": "長崎県",
    "prefecture_kana": "ナガサキケン",
    "prefecture_code": 42,
    "city": "松浦市",
    "city_kana": "マツウラシ",
    "town": "今福町木場免",
    "town_kana": "イマフクチョウコバメン",
    "street": null,
    "office_name": null,
    "office_name_kana": null
  },
  "4525": {
    "postcode": "8594525",
    "prefecture": "長崎県",
    "prefecture_kana": "ナガサキケン",
    "prefecture_code": 42,
    "city": "松浦市",
    "city_kana": "マツウラシ",
    "town": "今福町寺上免",
    "town_kana": "イマフクチョウテラゲメン",
    "street": null,
    "office_name": null,
    "office_name_kana": null
  },
  "4526": {
    "postcode": "8594526",
    "prefecture": "長崎県",
    "prefecture_kana": "ナガサキケン",
    "prefecture_code": 42,
    "city": "松浦市",
    "city_kana": "マツウラシ",
    "town": "今福町坂野免",
    "town_kana": "イマフクチョウサカノメン",
    "street": null,
    "office_name": null,
    "office_name_kana": null
  },
  "4527": {
    "postcode": "8594527",
    "prefecture": "長崎県",
    "prefecture_kana": "ナガサキケン",
    "prefecture_code": 42,
    "city": "松浦市",
    "city_kana": "マツウラシ",
    "town": "今福町仏坂免",
    "town_kana": "イマフクチョウホトケザカメン",
    "street": null,
    "office_name": null,
    "office_name_kana": null
  },
  "4528": {
    "postcode": "8594528",
    "prefecture": "長崎県",
    "prefecture_kana": "ナガサキケン",
    "prefecture_code": 42,
    "city": "松浦市",
    "city_kana": "マツウラシ",
    "town": "今福町浦免",
    "town_kana": "イマフクチョウウラメン",
    "street": null,
    "office_name": null,
    "office_name_kana": null
  },
  "4529": {
    "postcode": "8594529",
    "prefecture": "長崎県",
    "prefecture_kana": "ナガサキケン",
    "prefecture_code": 42,
    "city": "松浦市",
    "city_kana": "マツウラシ",
    "town": "今福町飛島免",
    "town_kana": "イマフクチョウトビシマメン",
    "street": null,
    "office_name": null,
    "office_name_kana": null
  },
  "4531": {
    "postcode": "8594531",
    "prefecture": "長崎県",
    "prefecture_kana": "ナガサキケン",
    "prefecture_code": 42,
    "city": "松浦市",
    "city_kana": "マツウラシ",
    "town": "調川町平尾免",
    "town_kana": "ツキノカワチョウヒラオメン",
    "street": null,
    "office_name": null,
    "office_name_kana": null
  },
  "4532": {
    "postcode": "8594532",
    "prefecture": "長崎県",
    "prefecture_kana": "ナガサキケン",
    "prefecture_code": 42,
    "city": "松浦市",
    "city_kana": "マツウラシ",
    "town": "調川町中免",
    "town_kana": "ツキノカワチョウナカメン",
    "street": null,
    "office_name": null,
    "office_name_kana": null
  },
  "4533": {
    "postcode": "8594533",
    "prefecture": "長崎県",
    "prefecture_kana": "ナガサキケン",
    "prefecture_code": 42,
    "city": "松浦市",
    "city_kana": "マツウラシ",
    "town": "調川町上免",
    "town_kana": "ツキノカワチョウカミメン",
    "street": null,
    "office_name": null,
    "office_name_kana": null
  },
  "4534": {
    "postcode": "8594534",
    "prefecture": "長崎県",
    "prefecture_kana": "ナガサキケン",
    "prefecture_code": 42,
    "city": "松浦市",
    "city_kana": "マツウラシ",
    "town": "調川町白井免",
    "town_kana": "ツキノカワチョウシライメン",
    "street": null,
    "office_name": null,
    "office_name_kana": null
  },
  "4535": {
    "postcode": "8594535",
    "prefecture": "長崎県",
    "prefecture_kana": "ナガサキケン",
    "prefecture_code": 42,
    "city": "松浦市",
    "city_kana": "マツウラシ",
    "town": "調川町松山田免",
    "town_kana": "ツキノカワチョウマツヤマダメン",
    "street": null,
    "office_name": null,
    "office_name_kana": null
  },
  "4536": {
    "postcode": "8594536",
    "prefecture": "長崎県",
    "prefecture_kana": "ナガサキケン",
    "prefecture_code": 42,
    "city": "松浦市",
    "city_kana": "マツウラシ",
    "town": "調川町下免",
    "town_kana": "ツキノカワチョウシモメン",
    "street": null,
    "office_name": null,
    "office_name_kana": null
  },
  "4595": {
    "postcode": "8594595",
    "prefecture": "長崎県",
    "prefecture_kana": "ナガサキケン",
    "prefecture_code": 42,
    "city": "松浦市",
    "city_kana": "マツウラシ",
    "town": "志佐町",
    "town_kana": null,
    "street": "白浜免字瀬崎４５８−１",
    "office_name": "電源開発　株式会社　松浦火力発電所",
    "office_name_kana": "デンゲンカイハツ カブシキガイシヤ マツウラカリヨクハツデンシヨ"
  },
  "4596": {
    "postcode": "8594596",
    "prefecture": "長崎県",
    "prefecture_kana": "ナガサキケン",
    "prefecture_code": 42,
    "city": "松浦市",
    "city_kana": "マツウラシ",
    "town": "志佐町",
    "town_kana": null,
    "street": "白浜免字開発２０９１−１",
    "office_name": "九州電力　株式会社　松浦発電所",
    "office_name_kana": "キユウシユウデンリヨク カブシキガイシヤ マツウラハツデンシヨ"
  },
  "4597": {
    "postcode": "8594597",
    "prefecture": "長崎県",
    "prefecture_kana": "ナガサキケン",
    "prefecture_code": 42,
    "city": "松浦市",
    "city_kana": "マツウラシ",
    "town": "志佐町",
    "town_kana": null,
    "street": "浦免９２８",
    "office_name": "ながさき西海　農業協同組合　松浦営農経済センター",
    "office_name_kana": "ナガサキサイカイ ノウギヨウキヨウドウクミアイ マツウラエイノウケイザイセンタ-"
  },
  "4598": {
    "postcode": "8594598",
    "prefecture": "長崎県",
    "prefecture_kana": "ナガサキケン",
    "prefecture_code": 42,
    "city": "松浦市",
    "city_kana": "マツウラシ",
    "town": "志佐町",
    "town_kana": null,
    "street": "里免３６５",
    "office_name": "松浦市役所",
    "office_name_kana": "マツウラシヤクシヨ"
  },
  "4741": {
    "postcode": "8594741",
    "prefecture": "長崎県",
    "prefecture_kana": "ナガサキケン",
    "prefecture_code": 42,
    "city": "松浦市",
    "city_kana": "マツウラシ",
    "town": "星鹿町北久保免",
    "town_kana": "ホシカチョウキタクボメン",
    "street": null,
    "office_name": null,
    "office_name_kana": null
  },
  "4742": {
    "postcode": "8594742",
    "prefecture": "長崎県",
    "prefecture_kana": "ナガサキケン",
    "prefecture_code": 42,
    "city": "松浦市",
    "city_kana": "マツウラシ",
    "town": "星鹿町牟田免",
    "town_kana": "ホシカチョウムタメン",
    "street": null,
    "office_name": null,
    "office_name_kana": null
  },
  "4743": {
    "postcode": "8594743",
    "prefecture": "長崎県",
    "prefecture_kana": "ナガサキケン",
    "prefecture_code": 42,
    "city": "松浦市",
    "city_kana": "マツウラシ",
    "town": "星鹿町下田免",
    "town_kana": "ホシカチョウシモダメン",
    "street": null,
    "office_name": null,
    "office_name_kana": null
  },
  "4744": {
    "postcode": "8594744",
    "prefecture": "長崎県",
    "prefecture_kana": "ナガサキケン",
    "prefecture_code": 42,
    "city": "松浦市",
    "city_kana": "マツウラシ",
    "town": "星鹿町岳崎免",
    "town_kana": "ホシカチョウタケザキメン",
    "street": null,
    "office_name": null,
    "office_name_kana": null
  },
  "4745": {
    "postcode": "8594745",
    "prefecture": "長崎県",
    "prefecture_kana": "ナガサキケン",
    "prefecture_code": 42,
    "city": "松浦市",
    "city_kana": "マツウラシ",
    "town": "星鹿町青島免",
    "town_kana": "ホシカチョウアオシマメン",
    "street": null,
    "office_name": null,
    "office_name_kana": null
  },
  "4751": {
    "postcode": "8594751",
    "prefecture": "長崎県",
    "prefecture_kana": "ナガサキケン",
    "prefecture_code": 42,
    "city": "松浦市",
    "city_kana": "マツウラシ",
    "town": "御厨町池田免",
    "town_kana": "ミクリヤチョウイケダメン",
    "street": null,
    "office_name": null,
    "office_name_kana": null
  },
  "4752": {
    "postcode": "8594752",
    "prefecture": "長崎県",
    "prefecture_kana": "ナガサキケン",
    "prefecture_code": 42,
    "city": "松浦市",
    "city_kana": "マツウラシ",
    "town": "御厨町里免",
    "town_kana": "ミクリヤチョウサトメン",
    "street": null,
    "office_name": null,
    "office_name_kana": null
  },
  "4753": {
    "postcode": "8594753",
    "prefecture": "長崎県",
    "prefecture_kana": "ナガサキケン",
    "prefecture_code": 42,
    "city": "松浦市",
    "city_kana": "マツウラシ",
    "town": "御厨町中野免",
    "town_kana": "ミクリヤチョウナカノメン",
    "street": null,
    "office_name": null,
    "office_name_kana": null
  },
  "4754": {
    "postcode": "8594754",
    "prefecture": "長崎県",
    "prefecture_kana": "ナガサキケン",
    "prefecture_code": 42,
    "city": "松浦市",
    "city_kana": "マツウラシ",
    "town": "御厨町北平免",
    "town_kana": "ミクリヤチョウキタビラメン",
    "street": null,
    "office_name": null,
    "office_name_kana": null
  },
  "4755": {
    "postcode": "8594755",
    "prefecture": "長崎県",
    "prefecture_kana": "ナガサキケン",
    "prefecture_code": 42,
    "city": "松浦市",
    "city_kana": "マツウラシ",
    "town": "御厨町横久保免",
    "town_kana": "ミクリヤチョウヨコクボメン",
    "street": null,
    "office_name": null,
    "office_name_kana": null
  },
  "4756": {
    "postcode": "8594756",
    "prefecture": "長崎県",
    "prefecture_kana": "ナガサキケン",
    "prefecture_code": 42,
    "city": "松浦市",
    "city_kana": "マツウラシ",
    "town": "御厨町前田免",
    "town_kana": "ミクリヤチョウマエダメン",
    "street": null,
    "office_name": null,
    "office_name_kana": null
  },
  "4757": {
    "postcode": "8594757",
    "prefecture": "長崎県",
    "prefecture_kana": "ナガサキケン",
    "prefecture_code": 42,
    "city": "松浦市",
    "city_kana": "マツウラシ",
    "town": "御厨町高野免",
    "town_kana": "ミクリヤチョウタカノメン",
    "street": null,
    "office_name": null,
    "office_name_kana": null
  },
  "4758": {
    "postcode": "8594758",
    "prefecture": "長崎県",
    "prefecture_kana": "ナガサキケン",
    "prefecture_code": 42,
    "city": "松浦市",
    "city_kana": "マツウラシ",
    "town": "御厨町大崎免",
    "town_kana": "ミクリヤチョウオオサキメン",
    "street": null,
    "office_name": null,
    "office_name_kana": null
  },
  "4761": [
    {
      "postcode": "8594761",
      "prefecture": "長崎県",
      "prefecture_kana": "ナガサキケン",
      "prefecture_code": 42,
      "city": "松浦市",
      "city_kana": "マツウラシ",
      "town": "御厨町相坂免",
      "town_kana": "ミクリヤチョウアイサカメン",
      "street": null,
      "office_name": null,
      "office_name_kana": null
    },
    {
      "postcode": "8594761",
      "prefecture": "長崎県",
      "prefecture_kana": "ナガサキケン",
      "prefecture_code": 42,
      "city": "松浦市",
      "city_kana": "マツウラシ",
      "town": "御厨町田原免",
      "town_kana": "ミクリヤチョウタバルメン",
      "street": null,
      "office_name": null,
      "office_name_kana": null
    }
  ],
  "4762": {
    "postcode": "8594762",
    "prefecture": "長崎県",
    "prefecture_kana": "ナガサキケン",
    "prefecture_code": 42,
    "city": "松浦市",
    "city_kana": "マツウラシ",
    "town": "御厨町小船免",
    "town_kana": "ミクリヤチョウコブネメン",
    "street": null,
    "office_name": null,
    "office_name_kana": null
  },
  "4763": {
    "postcode": "8594763",
    "prefecture": "長崎県",
    "prefecture_kana": "ナガサキケン",
    "prefecture_code": 42,
    "city": "松浦市",
    "city_kana": "マツウラシ",
    "town": "御厨町山根免",
    "town_kana": "ミクリヤチョウヤマネメン",
    "street": null,
    "office_name": null,
    "office_name_kana": null
  },
  "4764": {
    "postcode": "8594764",
    "prefecture": "長崎県",
    "prefecture_kana": "ナガサキケン",
    "prefecture_code": 42,
    "city": "松浦市",
    "city_kana": "マツウラシ",
    "town": "御厨町狩原免",
    "town_kana": "ミクリヤチョウカリハラメン",
    "street": null,
    "office_name": null,
    "office_name_kana": null
  },
  "4765": {
    "postcode": "8594765",
    "prefecture": "長崎県",
    "prefecture_kana": "ナガサキケン",
    "prefecture_code": 42,
    "city": "松浦市",
    "city_kana": "マツウラシ",
    "town": "御厨町米ノ山免",
    "town_kana": "ミクリヤチョウコメノヤマメン",
    "street": null,
    "office_name": null,
    "office_name_kana": null
  },
  "4766": {
    "postcode": "8594766",
    "prefecture": "長崎県",
    "prefecture_kana": "ナガサキケン",
    "prefecture_code": 42,
    "city": "松浦市",
    "city_kana": "マツウラシ",
    "town": "御厨町普住免",
    "town_kana": "ミクリヤチョウフジュウメン",
    "street": null,
    "office_name": null,
    "office_name_kana": null
  },
  "4767": {
    "postcode": "8594767",
    "prefecture": "長崎県",
    "prefecture_kana": "ナガサキケン",
    "prefecture_code": 42,
    "city": "松浦市",
    "city_kana": "マツウラシ",
    "town": "御厨町川内免",
    "town_kana": "ミクリヤチョウカワチメン",
    "street": null,
    "office_name": null,
    "office_name_kana": null
  },
  "4768": {
    "postcode": "8594768",
    "prefecture": "長崎県",
    "prefecture_kana": "ナガサキケン",
    "prefecture_code": 42,
    "city": "松浦市",
    "city_kana": "マツウラシ",
    "town": "御厨町西田免",
    "town_kana": "ミクリヤチョウニシダメン",
    "street": null,
    "office_name": null,
    "office_name_kana": null
  },
  "4769": {
    "postcode": "8594769",
    "prefecture": "長崎県",
    "prefecture_kana": "ナガサキケン",
    "prefecture_code": 42,
    "city": "松浦市",
    "city_kana": "マツウラシ",
    "town": "御厨町西木場免",
    "town_kana": "ミクリヤチョウニシコバメン",
    "street": null,
    "office_name": null,
    "office_name_kana": null
  },
  "4771": {
    "postcode": "8594771",
    "prefecture": "長崎県",
    "prefecture_kana": "ナガサキケン",
    "prefecture_code": 42,
    "city": "松浦市",
    "city_kana": "マツウラシ",
    "town": "御厨町下登木免",
    "town_kana": "ミクリヤチョウシモノボリキメン",
    "street": null,
    "office_name": null,
    "office_name_kana": null
  },
  "4772": {
    "postcode": "8594772",
    "prefecture": "長崎県",
    "prefecture_kana": "ナガサキケン",
    "prefecture_code": 42,
    "city": "松浦市",
    "city_kana": "マツウラシ",
    "town": "御厨町寺ノ尾免",
    "town_kana": "ミクリヤチョウテラノオメン",
    "street": null,
    "office_name": null,
    "office_name_kana": null
  },
  "4773": {
    "postcode": "8594773",
    "prefecture": "長崎県",
    "prefecture_kana": "ナガサキケン",
    "prefecture_code": 42,
    "city": "松浦市",
    "city_kana": "マツウラシ",
    "town": "御厨町上登木免",
    "town_kana": "ミクリヤチョウカミノボリキメン",
    "street": null,
    "office_name": null,
    "office_name_kana": null
  },
  "4774": {
    "postcode": "8594774",
    "prefecture": "長崎県",
    "prefecture_kana": "ナガサキケン",
    "prefecture_code": 42,
    "city": "松浦市",
    "city_kana": "マツウラシ",
    "town": "御厨町立木免",
    "town_kana": "ミクリヤチョウタチキメン",
    "street": null,
    "office_name": null,
    "office_name_kana": null
  },
  "4775": {
    "postcode": "8594775",
    "prefecture": "長崎県",
    "prefecture_kana": "ナガサキケン",
    "prefecture_code": 42,
    "city": "松浦市",
    "city_kana": "マツウラシ",
    "town": "御厨町郭公尾免",
    "town_kana": "ミクリヤチョウコッコウノオメン",
    "street": null,
    "office_name": null,
    "office_name_kana": null
  },
  "4776": {
    "postcode": "8594776",
    "prefecture": "長崎県",
    "prefecture_kana": "ナガサキケン",
    "prefecture_code": 42,
    "city": "松浦市",
    "city_kana": "マツウラシ",
    "town": "御厨町木場免",
    "town_kana": "ミクリヤチョウコバメン",
    "street": null,
    "office_name": null,
    "office_name_kana": null
  },
  "4777": {
    "postcode": "8594777",
    "prefecture": "長崎県",
    "prefecture_kana": "ナガサキケン",
    "prefecture_code": 42,
    "city": "松浦市",
    "city_kana": "マツウラシ",
    "town": "御厨町板橋免",
    "town_kana": "ミクリヤチョウイタバシメン",
    "street": null,
    "office_name": null,
    "office_name_kana": null
  },
  "4778": {
    "postcode": "8594778",
    "prefecture": "長崎県",
    "prefecture_kana": "ナガサキケン",
    "prefecture_code": 42,
    "city": "松浦市",
    "city_kana": "マツウラシ",
    "town": "御厨町田代免",
    "town_kana": "ミクリヤチョウタシロメン",
    "street": null,
    "office_name": null,
    "office_name_kana": null
  },
  "4801": {
    "postcode": "8594801",
    "prefecture": "長崎県",
    "prefecture_kana": "ナガサキケン",
    "prefecture_code": 42,
    "city": "平戸市",
    "city_kana": "ヒラドシ",
    "town": "田平町岳崎免",
    "town_kana": "タビラチョウタケザキメン",
    "street": null,
    "office_name": null,
    "office_name_kana": null
  },
  "4802": {
    "postcode": "8594802",
    "prefecture": "長崎県",
    "prefecture_kana": "ナガサキケン",
    "prefecture_code": 42,
    "city": "平戸市",
    "city_kana": "ヒラドシ",
    "town": "田平町福崎免",
    "town_kana": "タビラチョウフクザキメン",
    "street": null,
    "office_name": null,
    "office_name_kana": null
  },
  "4803": {
    "postcode": "8594803",
    "prefecture": "長崎県",
    "prefecture_kana": "ナガサキケン",
    "prefecture_code": 42,
    "city": "平戸市",
    "city_kana": "ヒラドシ",
    "town": "田平町小崎免",
    "town_kana": "タビラチョウコザキメン",
    "street": null,
    "office_name": null,
    "office_name_kana": null
  },
  "4804": {
    "postcode": "8594804",
    "prefecture": "長崎県",
    "prefecture_kana": "ナガサキケン",
    "prefecture_code": 42,
    "city": "平戸市",
    "city_kana": "ヒラドシ",
    "town": "田平町上亀免",
    "town_kana": "タビラチョウカミガメメン",
    "street": null,
    "office_name": null,
    "office_name_kana": null
  },
  "4805": {
    "postcode": "8594805",
    "prefecture": "長崎県",
    "prefecture_kana": "ナガサキケン",
    "prefecture_code": 42,
    "city": "平戸市",
    "city_kana": "ヒラドシ",
    "town": "田平町本山免",
    "town_kana": "タビラチョウモトヤマメン",
    "street": null,
    "office_name": null,
    "office_name_kana": null
  },
  "4806": {
    "postcode": "8594806",
    "prefecture": "長崎県",
    "prefecture_kana": "ナガサキケン",
    "prefecture_code": 42,
    "city": "平戸市",
    "city_kana": "ヒラドシ",
    "town": "田平町下亀免",
    "town_kana": "タビラチョウシモガメメン",
    "street": null,
    "office_name": null,
    "office_name_kana": null
  },
  "4807": {
    "postcode": "8594807",
    "prefecture": "長崎県",
    "prefecture_kana": "ナガサキケン",
    "prefecture_code": 42,
    "city": "平戸市",
    "city_kana": "ヒラドシ",
    "town": "田平町里免",
    "town_kana": "タビラチョウサトメン",
    "street": null,
    "office_name": null,
    "office_name_kana": null
  },
  "4811": {
    "postcode": "8594811",
    "prefecture": "長崎県",
    "prefecture_kana": "ナガサキケン",
    "prefecture_code": 42,
    "city": "平戸市",
    "city_kana": "ヒラドシ",
    "town": "田平町古梶免",
    "town_kana": "タビラチョウフルカジメン",
    "street": null,
    "office_name": null,
    "office_name_kana": null
  },
  "4812": {
    "postcode": "8594812",
    "prefecture": "長崎県",
    "prefecture_kana": "ナガサキケン",
    "prefecture_code": 42,
    "city": "平戸市",
    "city_kana": "ヒラドシ",
    "town": "田平町田代免",
    "town_kana": "タビラチョウタシロメン",
    "street": null,
    "office_name": null,
    "office_name_kana": null
  },
  "4813": {
    "postcode": "8594813",
    "prefecture": "長崎県",
    "prefecture_kana": "ナガサキケン",
    "prefecture_code": 42,
    "city": "平戸市",
    "city_kana": "ヒラドシ",
    "town": "田平町深月免",
    "town_kana": "タビラチョウフカツキメン",
    "street": null,
    "office_name": null,
    "office_name_kana": null
  },
  "4814": {
    "postcode": "8594814",
    "prefecture": "長崎県",
    "prefecture_kana": "ナガサキケン",
    "prefecture_code": 42,
    "city": "平戸市",
    "city_kana": "ヒラドシ",
    "town": "田平町以善免",
    "town_kana": "タビラチョウイヨシメン",
    "street": null,
    "office_name": null,
    "office_name_kana": null
  },
  "4815": {
    "postcode": "8594815",
    "prefecture": "長崎県",
    "prefecture_kana": "ナガサキケン",
    "prefecture_code": 42,
    "city": "平戸市",
    "city_kana": "ヒラドシ",
    "town": "田平町下寺免",
    "town_kana": "タビラチョウシモデラメン",
    "street": null,
    "office_name": null,
    "office_name_kana": null
  },
  "4821": {
    "postcode": "8594821",
    "prefecture": "長崎県",
    "prefecture_kana": "ナガサキケン",
    "prefecture_code": 42,
    "city": "平戸市",
    "city_kana": "ヒラドシ",
    "town": "田平町大久保免",
    "town_kana": "タビラチョウオオクボメン",
    "street": null,
    "office_name": null,
    "office_name_kana": null
  },
  "4822": {
    "postcode": "8594822",
    "prefecture": "長崎県",
    "prefecture_kana": "ナガサキケン",
    "prefecture_code": 42,
    "city": "平戸市",
    "city_kana": "ヒラドシ",
    "town": "田平町一関免",
    "town_kana": "タビラチョウイッセキメン",
    "street": null,
    "office_name": null,
    "office_name_kana": null
  },
  "4823": {
    "postcode": "8594823",
    "prefecture": "長崎県",
    "prefecture_kana": "ナガサキケン",
    "prefecture_code": 42,
    "city": "平戸市",
    "city_kana": "ヒラドシ",
    "town": "田平町荻田免",
    "town_kana": "タビラチョウオギタメン",
    "street": null,
    "office_name": null,
    "office_name_kana": null
  },
  "4824": {
    "postcode": "8594824",
    "prefecture": "長崎県",
    "prefecture_kana": "ナガサキケン",
    "prefecture_code": 42,
    "city": "平戸市",
    "city_kana": "ヒラドシ",
    "town": "田平町小手田免",
    "town_kana": "タビラチョウコテダメン",
    "street": null,
    "office_name": null,
    "office_name_kana": null
  },
  "4825": {
    "postcode": "8594825",
    "prefecture": "長崎県",
    "prefecture_kana": "ナガサキケン",
    "prefecture_code": 42,
    "city": "平戸市",
    "city_kana": "ヒラドシ",
    "town": "田平町山内免",
    "town_kana": "タビラチョウヤマウチメン",
    "street": null,
    "office_name": null,
    "office_name_kana": null
  },
  "4826": {
    "postcode": "8594826",
    "prefecture": "長崎県",
    "prefecture_kana": "ナガサキケン",
    "prefecture_code": 42,
    "city": "平戸市",
    "city_kana": "ヒラドシ",
    "town": "田平町野田免",
    "town_kana": "タビラチョウノダメン",
    "street": null,
    "office_name": null,
    "office_name_kana": null
  },
  "4827": {
    "postcode": "8594827",
    "prefecture": "長崎県",
    "prefecture_kana": "ナガサキケン",
    "prefecture_code": 42,
    "city": "平戸市",
    "city_kana": "ヒラドシ",
    "town": "田平町横島免",
    "town_kana": "タビラチョウヨコシマメン",
    "street": null,
    "office_name": null,
    "office_name_kana": null
  },
  "4892": {
    "postcode": "8594892",
    "prefecture": "長崎県",
    "prefecture_kana": "ナガサキケン",
    "prefecture_code": 42,
    "city": "平戸市",
    "city_kana": "ヒラドシ",
    "town": "田平町里免",
    "town_kana": "タビラチョウサトメン",
    "street": "２７−１",
    "office_name": "平戸市役所　田平支所",
    "office_name_kana": "ヒラドシヤクシヨ タビラシシヨ"
  },
  "5100": {
    "postcode": "8595100",
    "prefecture": "長崎県",
    "prefecture_kana": "ナガサキケン",
    "prefecture_code": 42,
    "city": "平戸市",
    "city_kana": "ヒラドシ",
    "town": "",
    "town_kana": "",
    "street": null,
    "office_name": null,
    "office_name_kana": null
  },
  "5101": {
    "postcode": "8595101",
    "prefecture": "長崎県",
    "prefecture_kana": "ナガサキケン",
    "prefecture_code": 42,
    "city": "平戸市",
    "city_kana": "ヒラドシ",
    "town": "度島町",
    "town_kana": "タクシマチョウ",
    "street": null,
    "office_name": null,
    "office_name_kana": null
  },
  "5102": {
    "postcode": "8595102",
    "prefecture": "長崎県",
    "prefecture_kana": "ナガサキケン",
    "prefecture_code": 42,
    "city": "平戸市",
    "city_kana": "ヒラドシ",
    "town": "大久保町",
    "town_kana": "オオクボチョウ",
    "street": null,
    "office_name": null,
    "office_name_kana": null
  },
  "5103": {
    "postcode": "8595103",
    "prefecture": "長崎県",
    "prefecture_kana": "ナガサキケン",
    "prefecture_code": 42,
    "city": "平戸市",
    "city_kana": "ヒラドシ",
    "town": "田助町",
    "town_kana": "タスケチョウ",
    "street": null,
    "office_name": null,
    "office_name_kana": null
  },
  "5104": {
    "postcode": "8595104",
    "prefecture": "長崎県",
    "prefecture_kana": "ナガサキケン",
    "prefecture_code": 42,
    "city": "平戸市",
    "city_kana": "ヒラドシ",
    "town": "崎方町",
    "town_kana": "サキガタチョウ",
    "street": null,
    "office_name": null,
    "office_name_kana": null
  },
  "5111": {
    "postcode": "8595111",
    "prefecture": "長崎県",
    "prefecture_kana": "ナガサキケン",
    "prefecture_code": 42,
    "city": "平戸市",
    "city_kana": "ヒラドシ",
    "town": "浦の町",
    "town_kana": "ウラノチョウ",
    "street": null,
    "office_name": null,
    "office_name_kana": null
  },
  "5112": {
    "postcode": "8595112",
    "prefecture": "長崎県",
    "prefecture_kana": "ナガサキケン",
    "prefecture_code": 42,
    "city": "平戸市",
    "city_kana": "ヒラドシ",
    "town": "宮の町",
    "town_kana": "ミヤノチョウ",
    "street": null,
    "office_name": null,
    "office_name_kana": null
  },
  "5113": {
    "postcode": "8595113",
    "prefecture": "長崎県",
    "prefecture_kana": "ナガサキケン",
    "prefecture_code": 42,
    "city": "平戸市",
    "city_kana": "ヒラドシ",
    "town": "木引田町",
    "town_kana": "キヒキダチョウ",
    "street": null,
    "office_name": null,
    "office_name_kana": null
  },
  "5114": {
    "postcode": "8595114",
    "prefecture": "長崎県",
    "prefecture_kana": "ナガサキケン",
    "prefecture_code": 42,
    "city": "平戸市",
    "city_kana": "ヒラドシ",
    "town": "築地町",
    "town_kana": "ツキジチョウ",
    "street": null,
    "office_name": null,
    "office_name_kana": null
  },
  "5115": {
    "postcode": "8595115",
    "prefecture": "長崎県",
    "prefecture_kana": "ナガサキケン",
    "prefecture_code": 42,
    "city": "平戸市",
    "city_kana": "ヒラドシ",
    "town": "新町",
    "town_kana": "シンマチ",
    "street": null,
    "office_name": null,
    "office_name_kana": null
  },
  "5116": {
    "postcode": "8595116",
    "prefecture": "長崎県",
    "prefecture_kana": "ナガサキケン",
    "prefecture_code": 42,
    "city": "平戸市",
    "city_kana": "ヒラドシ",
    "town": "職人町",
    "town_kana": "ショクニンチョウ",
    "street": null,
    "office_name": null,
    "office_name_kana": null
  },
  "5117": {
    "postcode": "8595117",
    "prefecture": "長崎県",
    "prefecture_kana": "ナガサキケン",
    "prefecture_code": 42,
    "city": "平戸市",
    "city_kana": "ヒラドシ",
    "town": "魚の棚町",
    "town_kana": "ウオノタナチョウ",
    "street": null,
    "office_name": null,
    "office_name_kana": null
  },
  "5118": {
    "postcode": "8595118",
    "prefecture": "長崎県",
    "prefecture_kana": "ナガサキケン",
    "prefecture_code": 42,
    "city": "平戸市",
    "city_kana": "ヒラドシ",
    "town": "紺屋町",
    "town_kana": "コウヤマチ",
    "street": null,
    "office_name": null,
    "office_name_kana": null
  },
  "5121": {
    "postcode": "8595121",
    "prefecture": "長崎県",
    "prefecture_kana": "ナガサキケン",
    "prefecture_code": 42,
    "city": "平戸市",
    "city_kana": "ヒラドシ",
    "town": "岩の上町",
    "town_kana": "イワノウエチョウ",
    "street": null,
    "office_name": null,
    "office_name_kana": null
  },
  "5122": {
    "postcode": "8595122",
    "prefecture": "長崎県",
    "prefecture_kana": "ナガサキケン",
    "prefecture_code": 42,
    "city": "平戸市",
    "city_kana": "ヒラドシ",
    "town": "明の川内町",
    "town_kana": "アケノカワチチョウ",
    "street": null,
    "office_name": null,
    "office_name_kana": null
  },
  "5123": {
    "postcode": "8595123",
    "prefecture": "長崎県",
    "prefecture_kana": "ナガサキケン",
    "prefecture_code": 42,
    "city": "平戸市",
    "city_kana": "ヒラドシ",
    "town": "大野町",
    "town_kana": "オオノチョウ",
    "street": null,
    "office_name": null,
    "office_name_kana": null
  },
  "5131": {
    "postcode": "8595131",
    "prefecture": "長崎県",
    "prefecture_kana": "ナガサキケン",
    "prefecture_code": 42,
    "city": "平戸市",
    "city_kana": "ヒラドシ",
    "town": "大山町",
    "town_kana": "オオヤマチョウ",
    "street": null,
    "office_name": null,
    "office_name_kana": null
  },
  "5132": {
    "postcode": "8595132",
    "prefecture": "長崎県",
    "prefecture_kana": "ナガサキケン",
    "prefecture_code": 42,
    "city": "平戸市",
    "city_kana": "ヒラドシ",
    "town": "川内町",
    "town_kana": "カワチチョウ",
    "street": null,
    "office_name": null,
    "office_name_kana": null
  },
  "5133": {
    "postcode": "8595133",
    "prefecture": "長崎県",
    "prefecture_kana": "ナガサキケン",
    "prefecture_code": 42,
    "city": "平戸市",
    "city_kana": "ヒラドシ",
    "town": "中野大久保町",
    "town_kana": "ナカノオオクボチョウ",
    "street": null,
    "office_name": null,
    "office_name_kana": null
  },
  "5134": {
    "postcode": "8595134",
    "prefecture": "長崎県",
    "prefecture_kana": "ナガサキケン",
    "prefecture_code": 42,
    "city": "平戸市",
    "city_kana": "ヒラドシ",
    "town": "水垂町",
    "town_kana": "ミズタリチョウ",
    "street": null,
    "office_name": null,
    "office_name_kana": null
  },
  "5141": {
    "postcode": "8595141",
    "prefecture": "長崎県",
    "prefecture_kana": "ナガサキケン",
    "prefecture_code": 42,
    "city": "平戸市",
    "city_kana": "ヒラドシ",
    "town": "山中町",
    "town_kana": "ヤマナカチョウ",
    "street": null,
    "office_name": null,
    "office_name_kana": null
  },
  "5142": {
    "postcode": "8595142",
    "prefecture": "長崎県",
    "prefecture_kana": "ナガサキケン",
    "prefecture_code": 42,
    "city": "平戸市",
    "city_kana": "ヒラドシ",
    "town": "主師町",
    "town_kana": "シュウシチョウ",
    "street": null,
    "office_name": null,
    "office_name_kana": null
  },
  "5143": {
    "postcode": "8595143",
    "prefecture": "長崎県",
    "prefecture_kana": "ナガサキケン",
    "prefecture_code": 42,
    "city": "平戸市",
    "city_kana": "ヒラドシ",
    "town": "坊方町",
    "town_kana": "ボウガタチョウ",
    "street": null,
    "office_name": null,
    "office_name_kana": null
  },
  "5144": {
    "postcode": "8595144",
    "prefecture": "長崎県",
    "prefecture_kana": "ナガサキケン",
    "prefecture_code": 42,
    "city": "平戸市",
    "city_kana": "ヒラドシ",
    "town": "下中野町",
    "town_kana": "シモナカノチョウ",
    "street": null,
    "office_name": null,
    "office_name_kana": null
  },
  "5145": {
    "postcode": "8595145",
    "prefecture": "長崎県",
    "prefecture_kana": "ナガサキケン",
    "prefecture_code": 42,
    "city": "平戸市",
    "city_kana": "ヒラドシ",
    "town": "古江町",
    "town_kana": "フルエチョウ",
    "street": null,
    "office_name": null,
    "office_name_kana": null
  },
  "5151": {
    "postcode": "8595151",
    "prefecture": "長崎県",
    "prefecture_kana": "ナガサキケン",
    "prefecture_code": 42,
    "city": "平戸市",
    "city_kana": "ヒラドシ",
    "town": "木引町",
    "town_kana": "コヒキチョウ",
    "street": null,
    "office_name": null,
    "office_name_kana": null
  },
  "5152": {
    "postcode": "8595152",
    "prefecture": "長崎県",
    "prefecture_kana": "ナガサキケン",
    "prefecture_code": 42,
    "city": "平戸市",
    "city_kana": "ヒラドシ",
    "town": "鏡川町",
    "town_kana": "カガミガワチョウ",
    "street": null,
    "office_name": null,
    "office_name_kana": null
  },
  "5153": {
    "postcode": "8595153",
    "prefecture": "長崎県",
    "prefecture_kana": "ナガサキケン",
    "prefecture_code": 42,
    "city": "平戸市",
    "city_kana": "ヒラドシ",
    "town": "戸石川町",
    "town_kana": "トイシガワチョウ",
    "street": null,
    "office_name": null,
    "office_name_kana": null
  },
  "5192": {
    "postcode": "8595192",
    "prefecture": "長崎県",
    "prefecture_kana": "ナガサキケン",
    "prefecture_code": 42,
    "city": "平戸市",
    "city_kana": "ヒラドシ",
    "town": "岩の上町",
    "town_kana": "イワノウエチョウ",
    "street": "１５０８−３",
    "office_name": "平戸市役所",
    "office_name_kana": "ヒラドシヤクシヨ"
  },
  "5361": {
    "postcode": "8595361",
    "prefecture": "長崎県",
    "prefecture_kana": "ナガサキケン",
    "prefecture_code": 42,
    "city": "平戸市",
    "city_kana": "ヒラドシ",
    "town": "紐差町",
    "town_kana": "ヒモサシチョウ",
    "street": null,
    "office_name": null,
    "office_name_kana": null
  },
  "5362": {
    "postcode": "8595362",
    "prefecture": "長崎県",
    "prefecture_kana": "ナガサキケン",
    "prefecture_code": 42,
    "city": "平戸市",
    "city_kana": "ヒラドシ",
    "town": "木ケ津町",
    "town_kana": "キガツチョウ",
    "street": null,
    "office_name": null,
    "office_name_kana": null
  },
  "5363": {
    "postcode": "8595363",
    "prefecture": "長崎県",
    "prefecture_kana": "ナガサキケン",
    "prefecture_code": 42,
    "city": "平戸市",
    "city_kana": "ヒラドシ",
    "town": "草積町",
    "town_kana": "クサヅミチョウ",
    "street": null,
    "office_name": null,
    "office_name_kana": null
  },
  "5364": {
    "postcode": "8595364",
    "prefecture": "長崎県",
    "prefecture_kana": "ナガサキケン",
    "prefecture_code": 42,
    "city": "平戸市",
    "city_kana": "ヒラドシ",
    "town": "迎紐差町",
    "town_kana": "ムカエヒモサシチョウ",
    "street": null,
    "office_name": null,
    "office_name_kana": null
  },
  "5365": {
    "postcode": "8595365",
    "prefecture": "長崎県",
    "prefecture_kana": "ナガサキケン",
    "prefecture_code": 42,
    "city": "平戸市",
    "city_kana": "ヒラドシ",
    "town": "木場町",
    "town_kana": "コバチョウ",
    "street": null,
    "office_name": null,
    "office_name_kana": null
  },
  "5366": {
    "postcode": "8595366",
    "prefecture": "長崎県",
    "prefecture_kana": "ナガサキケン",
    "prefecture_code": 42,
    "city": "平戸市",
    "city_kana": "ヒラドシ",
    "town": "宝亀町",
    "town_kana": "ホウキチョウ",
    "street": null,
    "office_name": null,
    "office_name_kana": null
  },
  "5371": {
    "postcode": "8595371",
    "prefecture": "長崎県",
    "prefecture_kana": "ナガサキケン",
    "prefecture_code": 42,
    "city": "平戸市",
    "city_kana": "ヒラドシ",
    "town": "獅子町",
    "town_kana": "シシチョウ",
    "street": null,
    "office_name": null,
    "office_name_kana": null
  },
  "5372": {
    "postcode": "8595372",
    "prefecture": "長崎県",
    "prefecture_kana": "ナガサキケン",
    "prefecture_code": 42,
    "city": "平戸市",
    "city_kana": "ヒラドシ",
    "town": "高越町",
    "town_kana": "タカゴエチョウ",
    "street": null,
    "office_name": null,
    "office_name_kana": null
  },
  "5373": {
    "postcode": "8595373",
    "prefecture": "長崎県",
    "prefecture_kana": "ナガサキケン",
    "prefecture_code": 42,
    "city": "平戸市",
    "city_kana": "ヒラドシ",
    "town": "春日町",
    "town_kana": "カスガチョウ",
    "street": null,
    "office_name": null,
    "office_name_kana": null
  },
  "5374": {
    "postcode": "8595374",
    "prefecture": "長崎県",
    "prefecture_kana": "ナガサキケン",
    "prefecture_code": 42,
    "city": "平戸市",
    "city_kana": "ヒラドシ",
    "town": "深川町",
    "town_kana": "フカガワチョウ",
    "street": null,
    "office_name": null,
    "office_name_kana": null
  },
  "5375": {
    "postcode": "8595375",
    "prefecture": "長崎県",
    "prefecture_kana": "ナガサキケン",
    "prefecture_code": 42,
    "city": "平戸市",
    "city_kana": "ヒラドシ",
    "town": "朶の原町",
    "town_kana": "ヘゴノハラチョウ",
    "street": null,
    "office_name": null,
    "office_name_kana": null
  },
  "5376": {
    "postcode": "8595376",
    "prefecture": "長崎県",
    "prefecture_kana": "ナガサキケン",
    "prefecture_code": 42,
    "city": "平戸市",
    "city_kana": "ヒラドシ",
    "town": "大石脇町",
    "town_kana": "オオイシワキチョウ",
    "street": null,
    "office_name": null,
    "office_name_kana": null
  },
  "5381": {
    "postcode": "8595381",
    "prefecture": "長崎県",
    "prefecture_kana": "ナガサキケン",
    "prefecture_code": 42,
    "city": "平戸市",
    "city_kana": "ヒラドシ",
    "town": "根獅子町",
    "town_kana": "ネシコチョウ",
    "street": null,
    "office_name": null,
    "office_name_kana": null
  },
  "5382": {
    "postcode": "8595382",
    "prefecture": "長崎県",
    "prefecture_kana": "ナガサキケン",
    "prefecture_code": 42,
    "city": "平戸市",
    "city_kana": "ヒラドシ",
    "town": "飯良町",
    "town_kana": "イイラチョウ",
    "street": null,
    "office_name": null,
    "office_name_kana": null
  },
  "5383": {
    "postcode": "8595383",
    "prefecture": "長崎県",
    "prefecture_kana": "ナガサキケン",
    "prefecture_code": 42,
    "city": "平戸市",
    "city_kana": "ヒラドシ",
    "town": "大川原町",
    "town_kana": "オオカワラチョウ",
    "street": null,
    "office_name": null,
    "office_name_kana": null
  },
  "5384": {
    "postcode": "8595384",
    "prefecture": "長崎県",
    "prefecture_kana": "ナガサキケン",
    "prefecture_code": 42,
    "city": "平戸市",
    "city_kana": "ヒラドシ",
    "town": "赤松町",
    "town_kana": "アカマツチョウ",
    "street": null,
    "office_name": null,
    "office_name_kana": null
  },
  "5392": {
    "postcode": "8595392",
    "prefecture": "長崎県",
    "prefecture_kana": "ナガサキケン",
    "prefecture_code": 42,
    "city": "平戸市",
    "city_kana": "ヒラドシ",
    "town": "草積町",
    "town_kana": "クサヅミチョウ",
    "street": "２６１",
    "office_name": "長崎県立　平戸高等学校",
    "office_name_kana": "ナガサキケンリツ ヒラドコウトウガツコウ"
  },
  "5393": {
    "postcode": "8595393",
    "prefecture": "長崎県",
    "prefecture_kana": "ナガサキケン",
    "prefecture_code": 42,
    "city": "平戸市",
    "city_kana": "ヒラドシ",
    "town": "草積町",
    "town_kana": "クサヅミチョウ",
    "street": "１１２５番地１２",
    "office_name": "国民健康保険　平戸市民病院",
    "office_name_kana": "コクミンケンコウホケン ヒラドシミンビヨウイン"
  },
  "5501": {
    "postcode": "8595501",
    "prefecture": "長崎県",
    "prefecture_kana": "ナガサキケン",
    "prefecture_code": 42,
    "city": "平戸市",
    "city_kana": "ヒラドシ",
    "town": "堤町",
    "town_kana": "ツツミチョウ",
    "street": null,
    "office_name": null,
    "office_name_kana": null
  },
  "5502": {
    "postcode": "8595502",
    "prefecture": "長崎県",
    "prefecture_kana": "ナガサキケン",
    "prefecture_code": 42,
    "city": "平戸市",
    "city_kana": "ヒラドシ",
    "town": "猪渡谷町",
    "town_kana": "イトヤチョウ",
    "street": null,
    "office_name": null,
    "office_name_kana": null
  },
  "5503": {
    "postcode": "8595503",
    "prefecture": "長崎県",
    "prefecture_kana": "ナガサキケン",
    "prefecture_code": 42,
    "city": "平戸市",
    "city_kana": "ヒラドシ",
    "town": "上中津良町",
    "town_kana": "カミナカツラチョウ",
    "street": null,
    "office_name": null,
    "office_name_kana": null
  },
  "5504": {
    "postcode": "8595504",
    "prefecture": "長崎県",
    "prefecture_kana": "ナガサキケン",
    "prefecture_code": 42,
    "city": "平戸市",
    "city_kana": "ヒラドシ",
    "town": "下中津良町",
    "town_kana": "シモナカツラチョウ",
    "street": null,
    "office_name": null,
    "office_name_kana": null
  },
  "5505": {
    "postcode": "8595505",
    "prefecture": "長崎県",
    "prefecture_kana": "ナガサキケン",
    "prefecture_code": 42,
    "city": "平戸市",
    "city_kana": "ヒラドシ",
    "town": "敷佐町",
    "town_kana": "シキサチョウ",
    "street": null,
    "office_name": null,
    "office_name_kana": null
  },
  "5511": {
    "postcode": "8595511",
    "prefecture": "長崎県",
    "prefecture_kana": "ナガサキケン",
    "prefecture_code": 42,
    "city": "平戸市",
    "city_kana": "ヒラドシ",
    "town": "神船町",
    "town_kana": "シブネチョウ",
    "street": null,
    "office_name": null,
    "office_name_kana": null
  },
  "5512": {
    "postcode": "8595512",
    "prefecture": "長崎県",
    "prefecture_kana": "ナガサキケン",
    "prefecture_code": 42,
    "city": "平戸市",
    "city_kana": "ヒラドシ",
    "town": "津吉町",
    "town_kana": "ツヨシチョウ",
    "street": null,
    "office_name": null,
    "office_name_kana": null
  },
  "5513": {
    "postcode": "8595513",
    "prefecture": "長崎県",
    "prefecture_kana": "ナガサキケン",
    "prefecture_code": 42,
    "city": "平戸市",
    "city_kana": "ヒラドシ",
    "town": "辻町",
    "town_kana": "ツジチョウ",
    "street": null,
    "office_name": null,
    "office_name_kana": null
  },
  "5514": {
    "postcode": "8595514",
    "prefecture": "長崎県",
    "prefecture_kana": "ナガサキケン",
    "prefecture_code": 42,
    "city": "平戸市",
    "city_kana": "ヒラドシ",
    "town": "無代寺町",
    "town_kana": "ブダイジチョウ",
    "street": null,
    "office_name": null,
    "office_name_kana": null
  },
  "5515": {
    "postcode": "8595515",
    "prefecture": "長崎県",
    "prefecture_kana": "ナガサキケン",
    "prefecture_code": 42,
    "city": "平戸市",
    "city_kana": "ヒラドシ",
    "town": "鮎川町",
    "town_kana": "アユカワチョウ",
    "street": null,
    "office_name": null,
    "office_name_kana": null
  },
  "5516": {
    "postcode": "8595516",
    "prefecture": "長崎県",
    "prefecture_kana": "ナガサキケン",
    "prefecture_code": 42,
    "city": "平戸市",
    "city_kana": "ヒラドシ",
    "town": "大佐志町",
    "town_kana": "オオサシチョウ",
    "street": null,
    "office_name": null,
    "office_name_kana": null
  },
  "5521": {
    "postcode": "8595521",
    "prefecture": "長崎県",
    "prefecture_kana": "ナガサキケン",
    "prefecture_code": 42,
    "city": "平戸市",
    "city_kana": "ヒラドシ",
    "town": "船木町",
    "town_kana": "フナギチョウ",
    "street": null,
    "office_name": null,
    "office_name_kana": null
  },
  "5522": {
    "postcode": "8595522",
    "prefecture": "長崎県",
    "prefecture_kana": "ナガサキケン",
    "prefecture_code": 42,
    "city": "平戸市",
    "city_kana": "ヒラドシ",
    "town": "神ノ川町",
    "town_kana": "コウノカワチョウ",
    "street": null,
    "office_name": null,
    "office_name_kana": null
  },
  "5523": {
    "postcode": "8595523",
    "prefecture": "長崎県",
    "prefecture_kana": "ナガサキケン",
    "prefecture_code": 42,
    "city": "平戸市",
    "city_kana": "ヒラドシ",
    "town": "前津吉町",
    "town_kana": "マエツヨシチョウ",
    "street": null,
    "office_name": null,
    "office_name_kana": null
  },
  "5524": {
    "postcode": "8595524",
    "prefecture": "長崎県",
    "prefecture_kana": "ナガサキケン",
    "prefecture_code": 42,
    "city": "平戸市",
    "city_kana": "ヒラドシ",
    "town": "神上町",
    "town_kana": "カミアゲチョウ",
    "street": null,
    "office_name": null,
    "office_name_kana": null
  },
  "5525": {
    "postcode": "8595525",
    "prefecture": "長崎県",
    "prefecture_kana": "ナガサキケン",
    "prefecture_code": 42,
    "city": "平戸市",
    "city_kana": "ヒラドシ",
    "town": "東中山町",
    "town_kana": "ヒガシナカヤマチョウ",
    "street": null,
    "office_name": null,
    "office_name_kana": null
  },
  "5526": {
    "postcode": "8595526",
    "prefecture": "長崎県",
    "prefecture_kana": "ナガサキケン",
    "prefecture_code": 42,
    "city": "平戸市",
    "city_kana": "ヒラドシ",
    "town": "西中山町",
    "town_kana": "ニシナカヤマチョウ",
    "street": null,
    "office_name": null,
    "office_name_kana": null
  },
  "5527": {
    "postcode": "8595527",
    "prefecture": "長崎県",
    "prefecture_kana": "ナガサキケン",
    "prefecture_code": 42,
    "city": "平戸市",
    "city_kana": "ヒラドシ",
    "town": "田代町",
    "town_kana": "タシロチョウ",
    "street": null,
    "office_name": null,
    "office_name_kana": null
  },
  "5531": {
    "postcode": "8595531",
    "prefecture": "長崎県",
    "prefecture_kana": "ナガサキケン",
    "prefecture_code": 42,
    "city": "平戸市",
    "city_kana": "ヒラドシ",
    "town": "早福町",
    "town_kana": "ハイフクチョウ",
    "street": null,
    "office_name": null,
    "office_name_kana": null
  },
  "5532": {
    "postcode": "8595532",
    "prefecture": "長崎県",
    "prefecture_kana": "ナガサキケン",
    "prefecture_code": 42,
    "city": "平戸市",
    "city_kana": "ヒラドシ",
    "town": "大志々伎町",
    "town_kana": "オオシジキチョウ",
    "street": null,
    "office_name": null,
    "office_name_kana": null
  },
  "5533": {
    "postcode": "8595533",
    "prefecture": "長崎県",
    "prefecture_kana": "ナガサキケン",
    "prefecture_code": 42,
    "city": "平戸市",
    "city_kana": "ヒラドシ",
    "town": "志々伎町",
    "town_kana": "シジキチョウ",
    "street": null,
    "office_name": null,
    "office_name_kana": null
  },
  "5534": {
    "postcode": "8595534",
    "prefecture": "長崎県",
    "prefecture_kana": "ナガサキケン",
    "prefecture_code": 42,
    "city": "平戸市",
    "city_kana": "ヒラドシ",
    "town": "小田町",
    "town_kana": "オダチョウ",
    "street": null,
    "office_name": null,
    "office_name_kana": null
  },
  "5535": {
    "postcode": "8595535",
    "prefecture": "長崎県",
    "prefecture_kana": "ナガサキケン",
    "prefecture_code": 42,
    "city": "平戸市",
    "city_kana": "ヒラドシ",
    "town": "野子町",
    "town_kana": "ノコチョウ",
    "street": null,
    "office_name": null,
    "office_name_kana": null
  },
  "5701": {
    "postcode": "8595701",
    "prefecture": "長崎県",
    "prefecture_kana": "ナガサキケン",
    "prefecture_code": 42,
    "city": "平戸市",
    "city_kana": "ヒラドシ",
    "town": "生月町壱部",
    "town_kana": "イキツキチョウイチブ",
    "street": null,
    "office_name": null,
    "office_name_kana": null
  },
  "5702": {
    "postcode": "8595702",
    "prefecture": "長崎県",
    "prefecture_kana": "ナガサキケン",
    "prefecture_code": 42,
    "city": "平戸市",
    "city_kana": "ヒラドシ",
    "town": "生月町壱部浦",
    "town_kana": "イキツキチョウイチブウラ",
    "street": null,
    "office_name": null,
    "office_name_kana": null
  },
  "5703": {
    "postcode": "8595703",
    "prefecture": "長崎県",
    "prefecture_kana": "ナガサキケン",
    "prefecture_code": 42,
    "city": "平戸市",
    "city_kana": "ヒラドシ",
    "town": "生月町里免",
    "town_kana": "イキツキチョウサトメン",
    "street": null,
    "office_name": null,
    "office_name_kana": null
  },
  "5704": {
    "postcode": "8595704",
    "prefecture": "長崎県",
    "prefecture_kana": "ナガサキケン",
    "prefecture_code": 42,
    "city": "平戸市",
    "city_kana": "ヒラドシ",
    "town": "生月町山田免",
    "town_kana": "イキツキチョウヤマダメン",
    "street": null,
    "office_name": null,
    "office_name_kana": null
  },
  "5705": {
    "postcode": "8595705",
    "prefecture": "長崎県",
    "prefecture_kana": "ナガサキケン",
    "prefecture_code": 42,
    "city": "平戸市",
    "city_kana": "ヒラドシ",
    "town": "生月町舘浦",
    "town_kana": "イキツキチョウタチウラ",
    "street": null,
    "office_name": null,
    "office_name_kana": null
  },
  "5706": {
    "postcode": "8595706",
    "prefecture": "長崎県",
    "prefecture_kana": "ナガサキケン",
    "prefecture_code": 42,
    "city": "平戸市",
    "city_kana": "ヒラドシ",
    "town": "生月町南免",
    "town_kana": "イキツキチョウミナミメン",
    "street": null,
    "office_name": null,
    "office_name_kana": null
  },
  "5707": {
    "postcode": "8595707",
    "prefecture": "長崎県",
    "prefecture_kana": "ナガサキケン",
    "prefecture_code": 42,
    "city": "平戸市",
    "city_kana": "ヒラドシ",
    "town": "生月町御崎",
    "town_kana": "イキツキチョウミサキ",
    "street": null,
    "office_name": null,
    "office_name_kana": null
  },
  "5801": {
    "postcode": "8595801",
    "prefecture": "長崎県",
    "prefecture_kana": "ナガサキケン",
    "prefecture_code": 42,
    "city": "平戸市",
    "city_kana": "ヒラドシ",
    "town": "大島村神浦",
    "town_kana": "オオシマムラコウノウラ",
    "street": null,
    "office_name": null,
    "office_name_kana": null
  },
  "5802": {
    "postcode": "8595802",
    "prefecture": "長崎県",
    "prefecture_kana": "ナガサキケン",
    "prefecture_code": 42,
    "city": "平戸市",
    "city_kana": "ヒラドシ",
    "town": "大島村前平",
    "town_kana": "オオシマムラマエビラ",
    "street": null,
    "office_name": null,
    "office_name_kana": null
  },
  "5803": {
    "postcode": "8595803",
    "prefecture": "長崎県",
    "prefecture_kana": "ナガサキケン",
    "prefecture_code": 42,
    "city": "平戸市",
    "city_kana": "ヒラドシ",
    "town": "大島村西宇戸",
    "town_kana": "オオシマムラニシウド",
    "street": null,
    "office_name": null,
    "office_name_kana": null
  },
  "5804": {
    "postcode": "8595804",
    "prefecture": "長崎県",
    "prefecture_kana": "ナガサキケン",
    "prefecture_code": 42,
    "city": "平戸市",
    "city_kana": "ヒラドシ",
    "town": "大島村大根坂",
    "town_kana": "オオシマムラオオネザカ",
    "street": null,
    "office_name": null,
    "office_name_kana": null
  },
  "5805": {
    "postcode": "8595805",
    "prefecture": "長崎県",
    "prefecture_kana": "ナガサキケン",
    "prefecture_code": 42,
    "city": "平戸市",
    "city_kana": "ヒラドシ",
    "town": "大島村的山川内",
    "town_kana": "オオシマムラアヅチカワチ",
    "street": null,
    "office_name": null,
    "office_name_kana": null
  },
  "5806": {
    "postcode": "8595806",
    "prefecture": "長崎県",
    "prefecture_kana": "ナガサキケン",
    "prefecture_code": 42,
    "city": "平戸市",
    "city_kana": "ヒラドシ",
    "town": "大島村的山戸田",
    "town_kana": "オオシマムラアヅチトダ",
    "street": null,
    "office_name": null,
    "office_name_kana": null
  },
  "6101": {
    "postcode": "8596101",
    "prefecture": "長崎県",
    "prefecture_kana": "ナガサキケン",
    "prefecture_code": 42,
    "city": "佐世保市",
    "city_kana": "サセボシ",
    "town": "江迎町長坂",
    "town_kana": "エムカエチョウナガサカ",
    "street": null,
    "office_name": null,
    "office_name_kana": null
  },
  "6102": {
    "postcode": "8596102",
    "prefecture": "長崎県",
    "prefecture_kana": "ナガサキケン",
    "prefecture_code": 42,
    "city": "佐世保市",
    "city_kana": "サセボシ",
    "town": "江迎町上川内",
    "town_kana": "エムカエチョウカミガワチ",
    "street": null,
    "office_name": null,
    "office_name_kana": null
  },
  "6103": {
    "postcode": "8596103",
    "prefecture": "長崎県",
    "prefecture_kana": "ナガサキケン",
    "prefecture_code": 42,
    "city": "佐世保市",
    "city_kana": "サセボシ",
    "town": "江迎町埋立",
    "town_kana": "エムカエチョウウメタテ",
    "street": null,
    "office_name": null,
    "office_name_kana": null
  },
  "6104": {
    "postcode": "8596104",
    "prefecture": "長崎県",
    "prefecture_kana": "ナガサキケン",
    "prefecture_code": 42,
    "city": "佐世保市",
    "city_kana": "サセボシ",
    "town": "江迎町末橘",
    "town_kana": "エムカエチョウスエタチバナ",
    "street": null,
    "office_name": null,
    "office_name_kana": null
  },
  "6105": {
    "postcode": "8596105",
    "prefecture": "長崎県",
    "prefecture_kana": "ナガサキケン",
    "prefecture_code": 42,
    "city": "佐世保市",
    "city_kana": "サセボシ",
    "town": "江迎町梶ノ村",
    "town_kana": "エムカエチョウカジノムラ",
    "street": null,
    "office_name": null,
    "office_name_kana": null
  },
  "6106": {
    "postcode": "8596106",
    "prefecture": "長崎県",
    "prefecture_kana": "ナガサキケン",
    "prefecture_code": 42,
    "city": "佐世保市",
    "city_kana": "サセボシ",
    "town": "江迎町北田",
    "town_kana": "エムカエチョウキタダ",
    "street": null,
    "office_name": null,
    "office_name_kana": null
  },
  "6111": {
    "postcode": "8596111",
    "prefecture": "長崎県",
    "prefecture_kana": "ナガサキケン",
    "prefecture_code": 42,
    "city": "佐世保市",
    "city_kana": "サセボシ",
    "town": "江迎町飯良坂",
    "town_kana": "エムカエチョウイイラザカ",
    "street": null,
    "office_name": null,
    "office_name_kana": null
  },
  "6112": {
    "postcode": "8596112",
    "prefecture": "長崎県",
    "prefecture_kana": "ナガサキケン",
    "prefecture_code": 42,
    "city": "佐世保市",
    "city_kana": "サセボシ",
    "town": "江迎町根引",
    "town_kana": "エムカエチョウネビキ",
    "street": null,
    "office_name": null,
    "office_name_kana": null
  },
  "6113": {
    "postcode": "8596113",
    "prefecture": "長崎県",
    "prefecture_kana": "ナガサキケン",
    "prefecture_code": 42,
    "city": "佐世保市",
    "city_kana": "サセボシ",
    "town": "江迎町栗越",
    "town_kana": "エムカエチョウクリコシ",
    "street": null,
    "office_name": null,
    "office_name_kana": null
  },
  "6114": {
    "postcode": "8596114",
    "prefecture": "長崎県",
    "prefecture_kana": "ナガサキケン",
    "prefecture_code": 42,
    "city": "佐世保市",
    "city_kana": "サセボシ",
    "town": "江迎町箙尾",
    "town_kana": "エムカエチョウエビラオ",
    "street": null,
    "office_name": null,
    "office_name_kana": null
  },
  "6115": {
    "postcode": "8596115",
    "prefecture": "長崎県",
    "prefecture_kana": "ナガサキケン",
    "prefecture_code": 42,
    "city": "佐世保市",
    "city_kana": "サセボシ",
    "town": "江迎町中尾",
    "town_kana": "エムカエチョウナカオ",
    "street": null,
    "office_name": null,
    "office_name_kana": null
  },
  "6121": {
    "postcode": "8596121",
    "prefecture": "長崎県",
    "prefecture_kana": "ナガサキケン",
    "prefecture_code": 42,
    "city": "佐世保市",
    "city_kana": "サセボシ",
    "town": "江迎町奥川内",
    "town_kana": "エムカエチョウオクガワチ",
    "street": null,
    "office_name": null,
    "office_name_kana": null
  },
  "6122": {
    "postcode": "8596122",
    "prefecture": "長崎県",
    "prefecture_kana": "ナガサキケン",
    "prefecture_code": 42,
    "city": "佐世保市",
    "city_kana": "サセボシ",
    "town": "江迎町七腕",
    "town_kana": "エムカエチョウナナカイ",
    "street": null,
    "office_name": null,
    "office_name_kana": null
  },
  "6123": {
    "postcode": "8596123",
    "prefecture": "長崎県",
    "prefecture_kana": "ナガサキケン",
    "prefecture_code": 42,
    "city": "佐世保市",
    "city_kana": "サセボシ",
    "town": "江迎町小川内",
    "town_kana": "エムカエチョウコガワチ",
    "street": null,
    "office_name": null,
    "office_name_kana": null
  },
  "6124": {
    "postcode": "8596124",
    "prefecture": "長崎県",
    "prefecture_kana": "ナガサキケン",
    "prefecture_code": 42,
    "city": "佐世保市",
    "city_kana": "サセボシ",
    "town": "江迎町乱橋",
    "town_kana": "エムカエチョウミダレバシ",
    "street": null,
    "office_name": null,
    "office_name_kana": null
  },
  "6125": {
    "postcode": "8596125",
    "prefecture": "長崎県",
    "prefecture_kana": "ナガサキケン",
    "prefecture_code": 42,
    "city": "佐世保市",
    "city_kana": "サセボシ",
    "town": "江迎町三浦",
    "town_kana": "エムカエチョウミウラ",
    "street": null,
    "office_name": null,
    "office_name_kana": null
  },
  "6126": {
    "postcode": "8596126",
    "prefecture": "長崎県",
    "prefecture_kana": "ナガサキケン",
    "prefecture_code": 42,
    "city": "佐世保市",
    "city_kana": "サセボシ",
    "town": "江迎町北平",
    "town_kana": "エムカエチョウキタヒラ",
    "street": null,
    "office_name": null,
    "office_name_kana": null
  },
  "6131": {
    "postcode": "8596131",
    "prefecture": "長崎県",
    "prefecture_kana": "ナガサキケン",
    "prefecture_code": 42,
    "city": "佐世保市",
    "city_kana": "サセボシ",
    "town": "江迎町赤坂",
    "town_kana": "エムカエチョウアカサカ",
    "street": null,
    "office_name": null,
    "office_name_kana": null
  },
  "6132": {
    "postcode": "8596132",
    "prefecture": "長崎県",
    "prefecture_kana": "ナガサキケン",
    "prefecture_code": 42,
    "city": "佐世保市",
    "city_kana": "サセボシ",
    "town": "江迎町志戸氏",
    "town_kana": "エムカエチョウシトノウジ",
    "street": null,
    "office_name": null,
    "office_name_kana": null
  },
  "6133": {
    "postcode": "8596133",
    "prefecture": "長崎県",
    "prefecture_kana": "ナガサキケン",
    "prefecture_code": 42,
    "city": "佐世保市",
    "city_kana": "サセボシ",
    "town": "江迎町猪調",
    "town_kana": "エムカエチョウイノツキ",
    "street": null,
    "office_name": null,
    "office_name_kana": null
  },
  "6134": {
    "postcode": "8596134",
    "prefecture": "長崎県",
    "prefecture_kana": "ナガサキケン",
    "prefecture_code": 42,
    "city": "佐世保市",
    "city_kana": "サセボシ",
    "town": "江迎町田ノ元",
    "town_kana": "エムカエチョウタノモト",
    "street": null,
    "office_name": null,
    "office_name_kana": null
  },
  "6141": {
    "postcode": "8596141",
    "prefecture": "長崎県",
    "prefecture_kana": "ナガサキケン",
    "prefecture_code": 42,
    "city": "佐世保市",
    "city_kana": "サセボシ",
    "town": "鹿町町新深江",
    "town_kana": "シカマチチョウシンフカエ",
    "street": null,
    "office_name": null,
    "office_name_kana": null
  },
  "6142": {
    "postcode": "8596142",
    "prefecture": "長崎県",
    "prefecture_kana": "ナガサキケン",
    "prefecture_code": 42,
    "city": "佐世保市",
    "city_kana": "サセボシ",
    "town": "鹿町町深江",
    "town_kana": "シカマチチョウフカエ",
    "street": null,
    "office_name": null,
    "office_name_kana": null
  },
  "6143": {
    "postcode": "8596143",
    "prefecture": "長崎県",
    "prefecture_kana": "ナガサキケン",
    "prefecture_code": 42,
    "city": "佐世保市",
    "city_kana": "サセボシ",
    "town": "鹿町町深江潟",
    "town_kana": "シカマチチョウフカエガタ",
    "street": null,
    "office_name": null,
    "office_name_kana": null
  },
  "6144": {
    "postcode": "8596144",
    "prefecture": "長崎県",
    "prefecture_kana": "ナガサキケン",
    "prefecture_code": 42,
    "city": "佐世保市",
    "city_kana": "サセボシ",
    "town": "鹿町町鹿町",
    "town_kana": "シカマチチョウシカマチ",
    "street": null,
    "office_name": null,
    "office_name_kana": null
  },
  "6145": {
    "postcode": "8596145",
    "prefecture": "長崎県",
    "prefecture_kana": "ナガサキケン",
    "prefecture_code": 42,
    "city": "佐世保市",
    "city_kana": "サセボシ",
    "town": "鹿町町土肥ノ浦",
    "town_kana": "シカマチチョウドイノウラ",
    "street": null,
    "office_name": null,
    "office_name_kana": null
  },
  "6201": {
    "postcode": "8596201",
    "prefecture": "長崎県",
    "prefecture_kana": "ナガサキケン",
    "prefecture_code": 42,
    "city": "佐世保市",
    "city_kana": "サセボシ",
    "town": "鹿町町大屋",
    "town_kana": "シカマチチョウオオヤ",
    "street": null,
    "office_name": null,
    "office_name_kana": null
  },
  "6202": {
    "postcode": "8596202",
    "prefecture": "長崎県",
    "prefecture_kana": "ナガサキケン",
    "prefecture_code": 42,
    "city": "佐世保市",
    "city_kana": "サセボシ",
    "town": "鹿町町上歌ヶ浦",
    "town_kana": "シカマチチョウカミウタガウラ",
    "street": null,
    "office_name": null,
    "office_name_kana": null
  },
  "6203": {
    "postcode": "8596203",
    "prefecture": "長崎県",
    "prefecture_kana": "ナガサキケン",
    "prefecture_code": 42,
    "city": "佐世保市",
    "city_kana": "サセボシ",
    "town": "鹿町町口ノ里",
    "town_kana": "シカマチチョウクチノサト",
    "street": null,
    "office_name": null,
    "office_name_kana": null
  },
  "6204": {
    "postcode": "8596204",
    "prefecture": "長崎県",
    "prefecture_kana": "ナガサキケン",
    "prefecture_code": 42,
    "city": "佐世保市",
    "city_kana": "サセボシ",
    "town": "鹿町町下歌ヶ浦",
    "town_kana": "シカマチチョウシモウタガウラ",
    "street": null,
    "office_name": null,
    "office_name_kana": null
  },
  "6205": {
    "postcode": "8596205",
    "prefecture": "長崎県",
    "prefecture_kana": "ナガサキケン",
    "prefecture_code": 42,
    "city": "佐世保市",
    "city_kana": "サセボシ",
    "town": "鹿町町中野",
    "town_kana": "シカマチチョウナカノ",
    "street": null,
    "office_name": null,
    "office_name_kana": null
  },
  "6206": {
    "postcode": "8596206",
    "prefecture": "長崎県",
    "prefecture_kana": "ナガサキケン",
    "prefecture_code": 42,
    "city": "佐世保市",
    "city_kana": "サセボシ",
    "town": "鹿町町長串",
    "town_kana": "シカマチチョウナグシ",
    "street": null,
    "office_name": null,
    "office_name_kana": null
  },
  "6207": {
    "postcode": "8596207",
    "prefecture": "長崎県",
    "prefecture_kana": "ナガサキケン",
    "prefecture_code": 42,
    "city": "佐世保市",
    "city_kana": "サセボシ",
    "town": "鹿町町船ノ村",
    "town_kana": "シカマチチョウフネノムラ",
    "street": null,
    "office_name": null,
    "office_name_kana": null
  },
  "6292": {
    "postcode": "8596292",
    "prefecture": "長崎県",
    "prefecture_kana": "ナガサキケン",
    "prefecture_code": 42,
    "city": "佐世保市",
    "city_kana": "サセボシ",
    "town": "鹿町町下歌ヶ浦",
    "town_kana": "シカマチチョウシモウタガウラ",
    "street": "２９０−２",
    "office_name": "佐世保市役所　鹿町行政センター",
    "office_name_kana": "サセボシヤクシヨ シカマチギヨウセイセンタ-"
  },
  "6301": {
    "postcode": "8596301",
    "prefecture": "長崎県",
    "prefecture_kana": "ナガサキケン",
    "prefecture_code": 42,
    "city": "佐世保市",
    "city_kana": "サセボシ",
    "town": "吉井町草ノ尾",
    "town_kana": "ヨシイチョウソウノオ",
    "street": null,
    "office_name": null,
    "office_name_kana": null
  },
  "6302": {
    "postcode": "8596302",
    "prefecture": "長崎県",
    "prefecture_kana": "ナガサキケン",
    "prefecture_code": 42,
    "city": "佐世保市",
    "city_kana": "サセボシ",
    "town": "吉井町福井",
    "town_kana": "ヨシイチョウフクイ",
    "street": null,
    "office_name": null,
    "office_name_kana": null
  },
  "6303": {
    "postcode": "8596303",
    "prefecture": "長崎県",
    "prefecture_kana": "ナガサキケン",
    "prefecture_code": 42,
    "city": "佐世保市",
    "city_kana": "サセボシ",
    "town": "吉井町板樋",
    "town_kana": "ヨシイチョウイタビ",
    "street": null,
    "office_name": null,
    "office_name_kana": null
  },
  "6304": {
    "postcode": "8596304",
    "prefecture": "長崎県",
    "prefecture_kana": "ナガサキケン",
    "prefecture_code": 42,
    "city": "佐世保市",
    "city_kana": "サセボシ",
    "town": "吉井町梶木場",
    "town_kana": "ヨシイチョウカジコバ",
    "street": null,
    "office_name": null,
    "office_name_kana": null
  },
  "6305": {
    "postcode": "8596305",
    "prefecture": "長崎県",
    "prefecture_kana": "ナガサキケン",
    "prefecture_code": 42,
    "city": "佐世保市",
    "city_kana": "サセボシ",
    "town": "吉井町直谷",
    "town_kana": "ヨシイチョウナオヤ",
    "street": null,
    "office_name": null,
    "office_name_kana": null
  },
  "6311": {
    "postcode": "8596311",
    "prefecture": "長崎県",
    "prefecture_kana": "ナガサキケン",
    "prefecture_code": 42,
    "city": "佐世保市",
    "city_kana": "サセボシ",
    "town": "吉井町橋川内",
    "town_kana": "ヨシイチョウハシカワチ",
    "street": null,
    "office_name": null,
    "office_name_kana": null
  },
  "6312": {
    "postcode": "8596312",
    "prefecture": "長崎県",
    "prefecture_kana": "ナガサキケン",
    "prefecture_code": 42,
    "city": "佐世保市",
    "city_kana": "サセボシ",
    "town": "吉井町橋口",
    "town_kana": "ヨシイチョウハシグチ",
    "street": null,
    "office_name": null,
    "office_name_kana": null
  },
  "6313": {
    "postcode": "8596313",
    "prefecture": "長崎県",
    "prefecture_kana": "ナガサキケン",
    "prefecture_code": 42,
    "city": "佐世保市",
    "city_kana": "サセボシ",
    "town": "吉井町上吉田",
    "town_kana": "ヨシイチョウカミヨシダ",
    "street": null,
    "office_name": null,
    "office_name_kana": null
  },
  "6314": {
    "postcode": "8596314",
    "prefecture": "長崎県",
    "prefecture_kana": "ナガサキケン",
    "prefecture_code": 42,
    "city": "佐世保市",
    "city_kana": "サセボシ",
    "town": "吉井町田原",
    "town_kana": "ヨシイチョウタバル",
    "street": null,
    "office_name": null,
    "office_name_kana": null
  },
  "6315": {
    "postcode": "8596315",
    "prefecture": "長崎県",
    "prefecture_kana": "ナガサキケン",
    "prefecture_code": 42,
    "city": "佐世保市",
    "city_kana": "サセボシ",
    "town": "吉井町下原",
    "town_kana": "ヨシイチョウシモバル",
    "street": null,
    "office_name": null,
    "office_name_kana": null
  },
  "6316": {
    "postcode": "8596316",
    "prefecture": "長崎県",
    "prefecture_kana": "ナガサキケン",
    "prefecture_code": 42,
    "city": "佐世保市",
    "city_kana": "サセボシ",
    "town": "吉井町乙石尾",
    "town_kana": "ヨシイチョウオツイシオ",
    "street": null,
    "office_name": null,
    "office_name_kana": null
  },
  "6317": {
    "postcode": "8596317",
    "prefecture": "長崎県",
    "prefecture_kana": "ナガサキケン",
    "prefecture_code": 42,
    "city": "佐世保市",
    "city_kana": "サセボシ",
    "town": "吉井町高峰",
    "town_kana": "ヨシイチョウタカミネ",
    "street": null,
    "office_name": null,
    "office_name_kana": null
  },
  "6321": {
    "postcode": "8596321",
    "prefecture": "長崎県",
    "prefecture_kana": "ナガサキケン",
    "prefecture_code": 42,
    "city": "佐世保市",
    "city_kana": "サセボシ",
    "town": "吉井町前岳",
    "town_kana": "ヨシイチョウマエダケ",
    "street": null,
    "office_name": null,
    "office_name_kana": null
  },
  "6322": {
    "postcode": "8596322",
    "prefecture": "長崎県",
    "prefecture_kana": "ナガサキケン",
    "prefecture_code": 42,
    "city": "佐世保市",
    "city_kana": "サセボシ",
    "town": "吉井町踊瀬",
    "town_kana": "ヨシイチョウオドリゼ",
    "street": null,
    "office_name": null,
    "office_name_kana": null
  },
  "6323": {
    "postcode": "8596323",
    "prefecture": "長崎県",
    "prefecture_kana": "ナガサキケン",
    "prefecture_code": 42,
    "city": "佐世保市",
    "city_kana": "サセボシ",
    "town": "吉井町春明",
    "town_kana": "ヨシイチョウハルアケ",
    "street": null,
    "office_name": null,
    "office_name_kana": null
  },
  "6324": {
    "postcode": "8596324",
    "prefecture": "長崎県",
    "prefecture_kana": "ナガサキケン",
    "prefecture_code": 42,
    "city": "佐世保市",
    "city_kana": "サセボシ",
    "town": "吉井町吉元",
    "town_kana": "ヨシイチョウヨシモト",
    "street": null,
    "office_name": null,
    "office_name_kana": null
  },
  "6325": {
    "postcode": "8596325",
    "prefecture": "長崎県",
    "prefecture_kana": "ナガサキケン",
    "prefecture_code": 42,
    "city": "佐世保市",
    "city_kana": "サセボシ",
    "town": "吉井町大渡",
    "town_kana": "ヨシイチョウオオワタリ",
    "street": null,
    "office_name": null,
    "office_name_kana": null
  },
  "6326": {
    "postcode": "8596326",
    "prefecture": "長崎県",
    "prefecture_kana": "ナガサキケン",
    "prefecture_code": 42,
    "city": "佐世保市",
    "city_kana": "サセボシ",
    "town": "吉井町立石",
    "town_kana": "ヨシイチョウタテイシ",
    "street": null,
    "office_name": null,
    "office_name_kana": null
  },
  "6401": {
    "postcode": "8596401",
    "prefecture": "長崎県",
    "prefecture_kana": "ナガサキケン",
    "prefecture_code": 42,
    "city": "佐世保市",
    "city_kana": "サセボシ",
    "town": "世知原町赤木場",
    "town_kana": "セチバルチョウアカコバ",
    "street": null,
    "office_name": null,
    "office_name_kana": null
  },
  "6402": {
    "postcode": "8596402",
    "prefecture": "長崎県",
    "prefecture_kana": "ナガサキケン",
    "prefecture_code": 42,
    "city": "佐世保市",
    "city_kana": "サセボシ",
    "town": "世知原町岩谷口",
    "town_kana": "セチバルチョウイワヤグチ",
    "street": null,
    "office_name": null,
    "office_name_kana": null
  },
  "6403": {
    "postcode": "8596403",
    "prefecture": "長崎県",
    "prefecture_kana": "ナガサキケン",
    "prefecture_code": 42,
    "city": "佐世保市",
    "city_kana": "サセボシ",
    "town": "世知原町上野原",
    "town_kana": "セチバルチョウウエノハラ",
    "street": null,
    "office_name": null,
    "office_name_kana": null
  },
  "6404": {
    "postcode": "8596404",
    "prefecture": "長崎県",
    "prefecture_kana": "ナガサキケン",
    "prefecture_code": 42,
    "city": "佐世保市",
    "city_kana": "サセボシ",
    "town": "世知原町太田",
    "town_kana": "セチバルチョウオオタ",
    "street": null,
    "office_name": null,
    "office_name_kana": null
  },
  "6405": {
    "postcode": "8596405",
    "prefecture": "長崎県",
    "prefecture_kana": "ナガサキケン",
    "prefecture_code": 42,
    "city": "佐世保市",
    "city_kana": "サセボシ",
    "town": "世知原町開作",
    "town_kana": "セチバルチョウカイサク",
    "street": null,
    "office_name": null,
    "office_name_kana": null
  },
  "6406": {
    "postcode": "8596406",
    "prefecture": "長崎県",
    "prefecture_kana": "ナガサキケン",
    "prefecture_code": 42,
    "city": "佐世保市",
    "city_kana": "サセボシ",
    "town": "世知原町木浦原",
    "town_kana": "セチバルチョウキウラバル",
    "street": null,
    "office_name": null,
    "office_name_kana": null
  },
  "6407": {
    "postcode": "8596407",
    "prefecture": "長崎県",
    "prefecture_kana": "ナガサキケン",
    "prefecture_code": 42,
    "city": "佐世保市",
    "city_kana": "サセボシ",
    "town": "世知原町北川内",
    "town_kana": "セチバルチョウキタガワチ",
    "street": null,
    "office_name": null,
    "office_name_kana": null
  },
  "6408": {
    "postcode": "8596408",
    "prefecture": "長崎県",
    "prefecture_kana": "ナガサキケン",
    "prefecture_code": 42,
    "city": "佐世保市",
    "city_kana": "サセボシ",
    "town": "世知原町栗迎",
    "town_kana": "セチバルチョウクリムカエ",
    "street": null,
    "office_name": null,
    "office_name_kana": null
  },
  "6409": {
    "postcode": "8596409",
    "prefecture": "長崎県",
    "prefecture_kana": "ナガサキケン",
    "prefecture_code": 42,
    "city": "佐世保市",
    "city_kana": "サセボシ",
    "town": "世知原町中通",
    "town_kana": "セチバルチョウナカドオリ",
    "street": null,
    "office_name": null,
    "office_name_kana": null
  },
  "6411": {
    "postcode": "8596411",
    "prefecture": "長崎県",
    "prefecture_kana": "ナガサキケン",
    "prefecture_code": 42,
    "city": "佐世保市",
    "city_kana": "サセボシ",
    "town": "世知原町長田代",
    "town_kana": "セチバルチョウナガタシロ",
    "street": null,
    "office_name": null,
    "office_name_kana": null
  },
  "6412": {
    "postcode": "8596412",
    "prefecture": "長崎県",
    "prefecture_kana": "ナガサキケン",
    "prefecture_code": 42,
    "city": "佐世保市",
    "city_kana": "サセボシ",
    "town": "世知原町西ノ岳",
    "town_kana": "セチバルチョウニシノタケ",
    "street": null,
    "office_name": null,
    "office_name_kana": null
  },
  "6413": {
    "postcode": "8596413",
    "prefecture": "長崎県",
    "prefecture_kana": "ナガサキケン",
    "prefecture_code": 42,
    "city": "佐世保市",
    "city_kana": "サセボシ",
    "town": "世知原町笥瀬",
    "town_kana": "セチバルチョウヤナゼ",
    "street": null,
    "office_name": null,
    "office_name_kana": null
  },
  "6414": {
    "postcode": "8596414",
    "prefecture": "長崎県",
    "prefecture_kana": "ナガサキケン",
    "prefecture_code": 42,
    "city": "佐世保市",
    "city_kana": "サセボシ",
    "town": "世知原町矢櫃",
    "town_kana": "セチバルチョウヤビツ",
    "street": null,
    "office_name": null,
    "office_name_kana": null
  },
  "6415": {
    "postcode": "8596415",
    "prefecture": "長崎県",
    "prefecture_kana": "ナガサキケン",
    "prefecture_code": 42,
    "city": "佐世保市",
    "city_kana": "サセボシ",
    "town": "世知原町槍巻",
    "town_kana": "セチバルチョウヤリマキ",
    "street": null,
    "office_name": null,
    "office_name_kana": null
  },
  "6492": {
    "postcode": "8596492",
    "prefecture": "長崎県",
    "prefecture_kana": "ナガサキケン",
    "prefecture_code": 42,
    "city": "佐世保市",
    "city_kana": "サセボシ",
    "town": "世知原町栗迎",
    "town_kana": "セチバルチョウクリムカエ",
    "street": "２４６−１",
    "office_name": "佐世保市役所　世知原行政センター",
    "office_name_kana": "サセボシヤクシヨ セチバルギヨウセイセンタ-"
  }
}