{
  "0001": {
    "postcode": "8600001",
    "prefecture": "熊本県",
    "prefecture_kana": "クマモトケン",
    "prefecture_code": 43,
    "city": "熊本市中央区",
    "city_kana": "クマモトシチュウオウク",
    "town": "千葉城町",
    "town_kana": "チバジョウマチ",
    "street": null,
    "office_name": null,
    "office_name_kana": null
  },
  "0002": {
    "postcode": "8600002",
    "prefecture": "熊本県",
    "prefecture_kana": "クマモトケン",
    "prefecture_code": 43,
    "city": "熊本市中央区",
    "city_kana": "クマモトシチュウオウク",
    "town": "本丸",
    "town_kana": "ホンマル",
    "street": null,
    "office_name": null,
    "office_name_kana": null
  },
  "0003": {
    "postcode": "8600003",
    "prefecture": "熊本県",
    "prefecture_kana": "クマモトケン",
    "prefecture_code": 43,
    "city": "熊本市中央区",
    "city_kana": "クマモトシチュウオウク",
    "town": "古城町",
    "town_kana": "コジョウマチ",
    "street": null,
    "office_name": null,
    "office_name_kana": null
  },
  "0004": {
    "postcode": "8600004",
    "prefecture": "熊本県",
    "prefecture_kana": "クマモトケン",
    "prefecture_code": 43,
    "city": "熊本市中央区",
    "city_kana": "クマモトシチュウオウク",
    "town": "新町",
    "town_kana": "シンマチ",
    "street": null,
    "office_name": null,
    "office_name_kana": null
  },
  "0005": {
    "postcode": "8600005",
    "prefecture": "熊本県",
    "prefecture_kana": "クマモトケン",
    "prefecture_code": 43,
    "city": "熊本市中央区",
    "city_kana": "クマモトシチュウオウク",
    "town": "宮内",
    "town_kana": "ミヤウチ",
    "street": null,
    "office_name": null,
    "office_name_kana": null
  },
  "0006": {
    "postcode": "8600006",
    "prefecture": "熊本県",
    "prefecture_kana": "クマモトケン",
    "prefecture_code": 43,
    "city": "熊本市中央区",
    "city_kana": "クマモトシチュウオウク",
    "town": "段山本町",
    "town_kana": "ダニヤマホンマチ",
    "street": null,
    "office_name": null,
    "office_name_kana": null
  },
  "0007": {
    "postcode": "8600007",
    "prefecture": "熊本県",
    "prefecture_kana": "クマモトケン",
    "prefecture_code": 43,
    "city": "熊本市中央区",
    "city_kana": "クマモトシチュウオウク",
    "town": "古京町",
    "town_kana": "フルキョウマチ",
    "street": null,
    "office_name": null,
    "office_name_kana": null
  },
  "0008": {
    "postcode": "8600008",
    "prefecture": "熊本県",
    "prefecture_kana": "クマモトケン",
    "prefecture_code": 43,
    "city": "熊本市中央区",
    "city_kana": "クマモトシチュウオウク",
    "town": "二の丸",
    "town_kana": "ニノマル",
    "street": null,
    "office_name": null,
    "office_name_kana": null
  },
  "0011": {
    "postcode": "8600011",
    "prefecture": "熊本県",
    "prefecture_kana": "クマモトケン",
    "prefecture_code": 43,
    "city": "熊本市中央区",
    "city_kana": "クマモトシチュウオウク",
    "town": "新鍛冶屋町",
    "town_kana": "シンカジヤマチ",
    "street": null,
    "office_name": null,
    "office_name_kana": null
  },
  "0012": {
    "postcode": "8600012",
    "prefecture": "熊本県",
    "prefecture_kana": "クマモトケン",
    "prefecture_code": 43,
    "city": "熊本市中央区",
    "city_kana": "クマモトシチュウオウク",
    "town": "紺屋今町",
    "town_kana": "コウヤイママチ",
    "street": null,
    "office_name": null,
    "office_name_kana": null
  },
  "0013": {
    "postcode": "8600013",
    "prefecture": "熊本県",
    "prefecture_kana": "クマモトケン",
    "prefecture_code": 43,
    "city": "熊本市中央区",
    "city_kana": "クマモトシチュウオウク",
    "town": "通町",
    "town_kana": "トオリチョウ",
    "street": null,
    "office_name": null,
    "office_name_kana": null
  },
  "0014": {
    "postcode": "8600014",
    "prefecture": "熊本県",
    "prefecture_kana": "クマモトケン",
    "prefecture_code": 43,
    "city": "熊本市中央区",
    "city_kana": "クマモトシチュウオウク",
    "town": "慶徳堀町",
    "town_kana": "ケイトクボリマチ",
    "street": null,
    "office_name": null,
    "office_name_kana": null
  },
  "0015": {
    "postcode": "8600015",
    "prefecture": "熊本県",
    "prefecture_kana": "クマモトケン",
    "prefecture_code": 43,
    "city": "熊本市中央区",
    "city_kana": "クマモトシチュウオウク",
    "town": "古川町",
    "town_kana": "フルカワマチ",
    "street": null,
    "office_name": null,
    "office_name_kana": null
  },
  "0016": {
    "postcode": "8600016",
    "prefecture": "熊本県",
    "prefecture_kana": "クマモトケン",
    "prefecture_code": 43,
    "city": "熊本市中央区",
    "city_kana": "クマモトシチュウオウク",
    "town": "山崎町",
    "town_kana": "ヤマサキマチ",
    "street": null,
    "office_name": null,
    "office_name_kana": null
  },
  "0017": {
    "postcode": "8600017",
    "prefecture": "熊本県",
    "prefecture_kana": "クマモトケン",
    "prefecture_code": 43,
    "city": "熊本市中央区",
    "city_kana": "クマモトシチュウオウク",
    "town": "練兵町",
    "town_kana": "レンペイチョウ",
    "street": null,
    "office_name": null,
    "office_name_kana": null
  },
  "0018": {
    "postcode": "8600018",
    "prefecture": "熊本県",
    "prefecture_kana": "クマモトケン",
    "prefecture_code": 43,
    "city": "熊本市中央区",
    "city_kana": "クマモトシチュウオウク",
    "town": "船場町下",
    "town_kana": "センバマチシモ",
    "street": null,
    "office_name": null,
    "office_name_kana": null
  },
  "0019": {
    "postcode": "8600019",
    "prefecture": "熊本県",
    "prefecture_kana": "クマモトケン",
    "prefecture_code": 43,
    "city": "熊本市中央区",
    "city_kana": "クマモトシチュウオウク",
    "town": "船場町",
    "town_kana": "センバマチ",
    "street": null,
    "office_name": null,
    "office_name_kana": null
  },
  "0021": {
    "postcode": "8600021",
    "prefecture": "熊本県",
    "prefecture_kana": "クマモトケン",
    "prefecture_code": 43,
    "city": "熊本市中央区",
    "city_kana": "クマモトシチュウオウク",
    "town": "上鍛冶屋町",
    "town_kana": "カミカジヤマチ",
    "street": null,
    "office_name": null,
    "office_name_kana": null
  },
  "0022": {
    "postcode": "8600022",
    "prefecture": "熊本県",
    "prefecture_kana": "クマモトケン",
    "prefecture_code": 43,
    "city": "熊本市中央区",
    "city_kana": "クマモトシチュウオウク",
    "town": "横紺屋町",
    "town_kana": "ヨココウヤマチ",
    "street": null,
    "office_name": null,
    "office_name_kana": null
  },
  "0023": {
    "postcode": "8600023",
    "prefecture": "熊本県",
    "prefecture_kana": "クマモトケン",
    "prefecture_code": 43,
    "city": "熊本市中央区",
    "city_kana": "クマモトシチュウオウク",
    "town": "河原町",
    "town_kana": "カワラマチ",
    "street": null,
    "office_name": null,
    "office_name_kana": null
  },
  "0024": {
    "postcode": "8600024",
    "prefecture": "熊本県",
    "prefecture_kana": "クマモトケン",
    "prefecture_code": 43,
    "city": "熊本市中央区",
    "city_kana": "クマモトシチュウオウク",
    "town": "松原町",
    "town_kana": "マツバラマチ",
    "street": null,
    "office_name": null,
    "office_name_kana": null
  },
  "0025": {
    "postcode": "8600025",
    "prefecture": "熊本県",
    "prefecture_kana": "クマモトケン",
    "prefecture_code": 43,
    "city": "熊本市中央区",
    "city_kana": "クマモトシチュウオウク",
    "town": "紺屋町",
    "town_kana": "コウヤマチ",
    "street": null,
    "office_name": null,
    "office_name_kana": null
  },
  "0026": {
    "postcode": "8600026",
    "prefecture": "熊本県",
    "prefecture_kana": "クマモトケン",
    "prefecture_code": 43,
    "city": "熊本市中央区",
    "city_kana": "クマモトシチュウオウク",
    "town": "鍛冶屋町",
    "town_kana": "カジヤマチ",
    "street": null,
    "office_name": null,
    "office_name_kana": null
  },
  "0027": {
    "postcode": "8600027",
    "prefecture": "熊本県",
    "prefecture_kana": "クマモトケン",
    "prefecture_code": 43,
    "city": "熊本市中央区",
    "city_kana": "クマモトシチュウオウク",
    "town": "西唐人町",
    "town_kana": "ニシトウジンマチ",
    "street": null,
    "office_name": null,
    "office_name_kana": null
  },
  "0028": {
    "postcode": "8600028",
    "prefecture": "熊本県",
    "prefecture_kana": "クマモトケン",
    "prefecture_code": 43,
    "city": "熊本市中央区",
    "city_kana": "クマモトシチュウオウク",
    "town": "中唐人町",
    "town_kana": "ナカトウジンマチ",
    "street": null,
    "office_name": null,
    "office_name_kana": null
  },
  "0029": {
    "postcode": "8600029",
    "prefecture": "熊本県",
    "prefecture_kana": "クマモトケン",
    "prefecture_code": 43,
    "city": "熊本市中央区",
    "city_kana": "クマモトシチュウオウク",
    "town": "米屋町",
    "town_kana": "コメヤマチ",
    "street": null,
    "office_name": null,
    "office_name_kana": null
  },
  "0031": {
    "postcode": "8600031",
    "prefecture": "熊本県",
    "prefecture_kana": "クマモトケン",
    "prefecture_code": 43,
    "city": "熊本市中央区",
    "city_kana": "クマモトシチュウオウク",
    "town": "魚屋町",
    "town_kana": "ウオヤマチ",
    "street": null,
    "office_name": null,
    "office_name_kana": null
  },
  "0032": {
    "postcode": "8600032",
    "prefecture": "熊本県",
    "prefecture_kana": "クマモトケン",
    "prefecture_code": 43,
    "city": "熊本市中央区",
    "city_kana": "クマモトシチュウオウク",
    "town": "万町",
    "town_kana": "ヨロズマチ",
    "street": null,
    "office_name": null,
    "office_name_kana": null
  },
  "0033": {
    "postcode": "8600033",
    "prefecture": "熊本県",
    "prefecture_kana": "クマモトケン",
    "prefecture_code": 43,
    "city": "熊本市中央区",
    "city_kana": "クマモトシチュウオウク",
    "town": "紺屋阿弥陀寺町",
    "town_kana": "コウヤアミダジマチ",
    "street": null,
    "office_name": null,
    "office_name_kana": null
  },
  "0034": {
    "postcode": "8600034",
    "prefecture": "熊本県",
    "prefecture_kana": "クマモトケン",
    "prefecture_code": 43,
    "city": "熊本市中央区",
    "city_kana": "クマモトシチュウオウク",
    "town": "東阿弥陀寺町",
    "town_kana": "ヒガシアミダジマチ",
    "street": null,
    "office_name": null,
    "office_name_kana": null
  },
  "0035": {
    "postcode": "8600035",
    "prefecture": "熊本県",
    "prefecture_kana": "クマモトケン",
    "prefecture_code": 43,
    "city": "熊本市中央区",
    "city_kana": "クマモトシチュウオウク",
    "town": "呉服町",
    "town_kana": "ゴフクマチ",
    "street": null,
    "office_name": null,
    "office_name_kana": null
  },
  "0036": {
    "postcode": "8600036",
    "prefecture": "熊本県",
    "prefecture_kana": "クマモトケン",
    "prefecture_code": 43,
    "city": "熊本市中央区",
    "city_kana": "クマモトシチュウオウク",
    "town": "古大工町",
    "town_kana": "フルダイクマチ",
    "street": null,
    "office_name": null,
    "office_name_kana": null
  },
  "0037": {
    "postcode": "8600037",
    "prefecture": "熊本県",
    "prefecture_kana": "クマモトケン",
    "prefecture_code": 43,
    "city": "熊本市中央区",
    "city_kana": "クマモトシチュウオウク",
    "town": "西阿弥陀寺町",
    "town_kana": "ニシアミダジマチ",
    "street": null,
    "office_name": null,
    "office_name_kana": null
  },
  "0038": {
    "postcode": "8600038",
    "prefecture": "熊本県",
    "prefecture_kana": "クマモトケン",
    "prefecture_code": 43,
    "city": "熊本市中央区",
    "city_kana": "クマモトシチュウオウク",
    "town": "古桶屋町",
    "town_kana": "フルオケヤマチ",
    "street": null,
    "office_name": null,
    "office_name_kana": null
  },
  "0039": {
    "postcode": "8600039",
    "prefecture": "熊本県",
    "prefecture_kana": "クマモトケン",
    "prefecture_code": 43,
    "city": "熊本市中央区",
    "city_kana": "クマモトシチュウオウク",
    "town": "川端町",
    "town_kana": "カワバタマチ",
    "street": null,
    "office_name": null,
    "office_name_kana": null
  },
  "0041": {
    "postcode": "8600041",
    "prefecture": "熊本県",
    "prefecture_kana": "クマモトケン",
    "prefecture_code": 43,
    "city": "熊本市中央区",
    "city_kana": "クマモトシチュウオウク",
    "town": "細工町",
    "town_kana": "サイクマチ",
    "street": null,
    "office_name": null,
    "office_name_kana": null
  },
  "0042": {
    "postcode": "8600042",
    "prefecture": "熊本県",
    "prefecture_kana": "クマモトケン",
    "prefecture_code": 43,
    "city": "熊本市中央区",
    "city_kana": "クマモトシチュウオウク",
    "town": "小沢町",
    "town_kana": "コザワマチ",
    "street": null,
    "office_name": null,
    "office_name_kana": null
  },
  "0043": {
    "postcode": "8600043",
    "prefecture": "熊本県",
    "prefecture_kana": "クマモトケン",
    "prefecture_code": 43,
    "city": "熊本市中央区",
    "city_kana": "クマモトシチュウオウク",
    "town": "板屋町",
    "town_kana": "イタヤマチ",
    "street": null,
    "office_name": null,
    "office_name_kana": null
  },
  "0044": {
    "postcode": "8600044",
    "prefecture": "熊本県",
    "prefecture_kana": "クマモトケン",
    "prefecture_code": 43,
    "city": "熊本市西区",
    "city_kana": "クマモトシニシク",
    "town": "谷尾崎町",
    "town_kana": "タニオザキマチ",
    "street": null,
    "office_name": null,
    "office_name_kana": null
  },
  "0045": {
    "postcode": "8600045",
    "prefecture": "熊本県",
    "prefecture_kana": "クマモトケン",
    "prefecture_code": 43,
    "city": "熊本市西区",
    "city_kana": "クマモトシニシク",
    "town": "戸坂町",
    "town_kana": "トサカマチ",
    "street": null,
    "office_name": null,
    "office_name_kana": null
  },
  "0046": [
    {
      "postcode": "8600046",
      "prefecture": "熊本県",
      "prefecture_kana": "クマモトケン",
      "prefecture_code": 43,
      "city": "熊本市中央区",
      "city_kana": "クマモトシチュウオウク",
      "town": "横手",
      "town_kana": "ヨコテ",
      "street": null,
      "office_name": null,
      "office_name_kana": null
    },
    {
      "postcode": "8600046",
      "prefecture": "熊本県",
      "prefecture_kana": "クマモトケン",
      "prefecture_code": 43,
      "city": "熊本市西区",
      "city_kana": "クマモトシニシク",
      "town": "横手",
      "town_kana": "ヨコテ",
      "street": null,
      "office_name": null,
      "office_name_kana": null
    }
  ],
  "0047": {
    "postcode": "8600047",
    "prefecture": "熊本県",
    "prefecture_kana": "クマモトケン",
    "prefecture_code": 43,
    "city": "熊本市西区",
    "city_kana": "クマモトシニシク",
    "town": "春日",
    "town_kana": "カスガ",
    "street": null,
    "office_name": null,
    "office_name_kana": null
  },
  "0048": {
    "postcode": "8600048",
    "prefecture": "熊本県",
    "prefecture_kana": "クマモトケン",
    "prefecture_code": 43,
    "city": "熊本市西区",
    "city_kana": "クマモトシニシク",
    "town": "池上町",
    "town_kana": "イケノウエマチ",
    "street": null,
    "office_name": null,
    "office_name_kana": null
  },
  "0051": {
    "postcode": "8600051",
    "prefecture": "熊本県",
    "prefecture_kana": "クマモトケン",
    "prefecture_code": 43,
    "city": "熊本市西区",
    "city_kana": "クマモトシニシク",
    "town": "二本木",
    "town_kana": "ニホンギ",
    "street": null,
    "office_name": null,
    "office_name_kana": null
  },
  "0052": {
    "postcode": "8600052",
    "prefecture": "熊本県",
    "prefecture_kana": "クマモトケン",
    "prefecture_code": 43,
    "city": "熊本市西区",
    "city_kana": "クマモトシニシク",
    "town": "田崎本町",
    "town_kana": "タサキホンマチ",
    "street": null,
    "office_name": null,
    "office_name_kana": null
  },
  "0053": {
    "postcode": "8600053",
    "prefecture": "熊本県",
    "prefecture_kana": "クマモトケン",
    "prefecture_code": 43,
    "city": "熊本市西区",
    "city_kana": "クマモトシニシク",
    "town": "田崎",
    "town_kana": "タサキ",
    "street": null,
    "office_name": null,
    "office_name_kana": null
  },
  "0054": {
    "postcode": "8600054",
    "prefecture": "熊本県",
    "prefecture_kana": "クマモトケン",
    "prefecture_code": 43,
    "city": "熊本市西区",
    "city_kana": "クマモトシニシク",
    "town": "八島",
    "town_kana": "ヤシマ",
    "street": null,
    "office_name": null,
    "office_name_kana": null
  },
  "0055": {
    "postcode": "8600055",
    "prefecture": "熊本県",
    "prefecture_kana": "クマモトケン",
    "prefecture_code": 43,
    "city": "熊本市西区",
    "city_kana": "クマモトシニシク",
    "town": "蓮台寺",
    "town_kana": "レンダイジ",
    "street": null,
    "office_name": null,
    "office_name_kana": null
  },
  "0056": {
    "postcode": "8600056",
    "prefecture": "熊本県",
    "prefecture_kana": "クマモトケン",
    "prefecture_code": 43,
    "city": "熊本市西区",
    "city_kana": "クマモトシニシク",
    "town": "新土河原",
    "town_kana": "シントガワラ",
    "street": null,
    "office_name": null,
    "office_name_kana": null
  },
  "0057": {
    "postcode": "8600057",
    "prefecture": "熊本県",
    "prefecture_kana": "クマモトケン",
    "prefecture_code": 43,
    "city": "熊本市西区",
    "city_kana": "クマモトシニシク",
    "town": "八島町",
    "town_kana": "ヤシママチ",
    "street": null,
    "office_name": null,
    "office_name_kana": null
  },
  "0058": {
    "postcode": "8600058",
    "prefecture": "熊本県",
    "prefecture_kana": "クマモトケン",
    "prefecture_code": 43,
    "city": "熊本市西区",
    "city_kana": "クマモトシニシク",
    "town": "田崎町",
    "town_kana": "タサキマチ",
    "street": null,
    "office_name": null,
    "office_name_kana": null
  },
  "0059": {
    "postcode": "8600059",
    "prefecture": "熊本県",
    "prefecture_kana": "クマモトケン",
    "prefecture_code": 43,
    "city": "熊本市西区",
    "city_kana": "クマモトシニシク",
    "town": "野中",
    "town_kana": "ノナカ",
    "street": null,
    "office_name": null,
    "office_name_kana": null
  },
  "0061": {
    "postcode": "8600061",
    "prefecture": "熊本県",
    "prefecture_kana": "クマモトケン",
    "prefecture_code": 43,
    "city": "熊本市西区",
    "city_kana": "クマモトシニシク",
    "town": "上高橋",
    "town_kana": "カミタカハシ",
    "street": null,
    "office_name": null,
    "office_name_kana": null
  },
  "0062": {
    "postcode": "8600062",
    "prefecture": "熊本県",
    "prefecture_kana": "クマモトケン",
    "prefecture_code": 43,
    "city": "熊本市西区",
    "city_kana": "クマモトシニシク",
    "town": "高橋町",
    "town_kana": "タカハシマチ",
    "street": null,
    "office_name": null,
    "office_name_kana": null
  },
  "0063": {
    "postcode": "8600063",
    "prefecture": "熊本県",
    "prefecture_kana": "クマモトケン",
    "prefecture_code": 43,
    "city": "熊本市西区",
    "city_kana": "クマモトシニシク",
    "town": "城山上代町",
    "town_kana": "ジョウザンカミダイマチ",
    "street": null,
    "office_name": null,
    "office_name_kana": null
  },
  "0064": {
    "postcode": "8600064",
    "prefecture": "熊本県",
    "prefecture_kana": "クマモトケン",
    "prefecture_code": 43,
    "city": "熊本市西区",
    "city_kana": "クマモトシニシク",
    "town": "城山半田",
    "town_kana": "ジョウザンハンダ",
    "street": null,
    "office_name": null,
    "office_name_kana": null
  },
  "0065": {
    "postcode": "8600065",
    "prefecture": "熊本県",
    "prefecture_kana": "クマモトケン",
    "prefecture_code": 43,
    "city": "熊本市西区",
    "city_kana": "クマモトシニシク",
    "town": "城山薬師",
    "town_kana": "ジョウザンヤクシ",
    "street": null,
    "office_name": null,
    "office_name_kana": null
  },
  "0066": {
    "postcode": "8600066",
    "prefecture": "熊本県",
    "prefecture_kana": "クマモトケン",
    "prefecture_code": 43,
    "city": "熊本市西区",
    "city_kana": "クマモトシニシク",
    "town": "城山下代",
    "town_kana": "ジョウザンシモダイ",
    "street": null,
    "office_name": null,
    "office_name_kana": null
  },
  "0067": {
    "postcode": "8600067",
    "prefecture": "熊本県",
    "prefecture_kana": "クマモトケン",
    "prefecture_code": 43,
    "city": "熊本市西区",
    "city_kana": "クマモトシニシク",
    "town": "城山大塘",
    "town_kana": "ジョウザンオオドモ",
    "street": null,
    "office_name": null,
    "office_name_kana": null
  },
  "0068": {
    "postcode": "8600068",
    "prefecture": "熊本県",
    "prefecture_kana": "クマモトケン",
    "prefecture_code": 43,
    "city": "熊本市西区",
    "city_kana": "クマモトシニシク",
    "town": "上代",
    "town_kana": "カミダイ",
    "street": null,
    "office_name": null,
    "office_name_kana": null
  },
  "0071": {
    "postcode": "8600071",
    "prefecture": "熊本県",
    "prefecture_kana": "クマモトケン",
    "prefecture_code": 43,
    "city": "熊本市西区",
    "city_kana": "クマモトシニシク",
    "town": "池亀町",
    "town_kana": "イケガメマチ",
    "street": null,
    "office_name": null,
    "office_name_kana": null
  },
  "0072": {
    "postcode": "8600072",
    "prefecture": "熊本県",
    "prefecture_kana": "クマモトケン",
    "prefecture_code": 43,
    "city": "熊本市西区",
    "city_kana": "クマモトシニシク",
    "town": "花園",
    "town_kana": "ハナゾノ",
    "street": null,
    "office_name": null,
    "office_name_kana": null
  },
  "0073": [
    {
      "postcode": "8600073",
      "prefecture": "熊本県",
      "prefecture_kana": "クマモトケン",
      "prefecture_code": 43,
      "city": "熊本市中央区",
      "city_kana": "クマモトシチュウオウク",
      "town": "島崎",
      "town_kana": "シマサキ",
      "street": null,
      "office_name": null,
      "office_name_kana": null
    },
    {
      "postcode": "8600073",
      "prefecture": "熊本県",
      "prefecture_kana": "クマモトケン",
      "prefecture_code": 43,
      "city": "熊本市西区",
      "city_kana": "クマモトシニシク",
      "town": "島崎",
      "town_kana": "シマサキ",
      "street": null,
      "office_name": null,
      "office_name_kana": null
    }
  ],
  "0074": {
    "postcode": "8600074",
    "prefecture": "熊本県",
    "prefecture_kana": "クマモトケン",
    "prefecture_code": 43,
    "city": "熊本市西区",
    "city_kana": "クマモトシニシク",
    "town": "出町",
    "town_kana": "デマチ",
    "street": null,
    "office_name": null,
    "office_name_kana": null
  },
  "0075": {
    "postcode": "8600075",
    "prefecture": "熊本県",
    "prefecture_kana": "クマモトケン",
    "prefecture_code": 43,
    "city": "熊本市西区",
    "city_kana": "クマモトシニシク",
    "town": "稗田町",
    "town_kana": "ヒエダマチ",
    "street": null,
    "office_name": null,
    "office_name_kana": null
  },
  "0076": {
    "postcode": "8600076",
    "prefecture": "熊本県",
    "prefecture_kana": "クマモトケン",
    "prefecture_code": 43,
    "city": "熊本市中央区",
    "city_kana": "クマモトシチュウオウク",
    "town": "壺川",
    "town_kana": "コセン",
    "street": null,
    "office_name": null,
    "office_name_kana": null
  },
  "0077": {
    "postcode": "8600077",
    "prefecture": "熊本県",
    "prefecture_kana": "クマモトケン",
    "prefecture_code": 43,
    "city": "熊本市中央区",
    "city_kana": "クマモトシチュウオウク",
    "town": "内坪井町",
    "town_kana": "ウチツボイマチ",
    "street": null,
    "office_name": null,
    "office_name_kana": null
  },
  "0078": {
    "postcode": "8600078",
    "prefecture": "熊本県",
    "prefecture_kana": "クマモトケン",
    "prefecture_code": 43,
    "city": "熊本市中央区",
    "city_kana": "クマモトシチュウオウク",
    "town": "京町",
    "town_kana": "キョウマチ",
    "street": null,
    "office_name": null,
    "office_name_kana": null
  },
  "0079": {
    "postcode": "8600079",
    "prefecture": "熊本県",
    "prefecture_kana": "クマモトケン",
    "prefecture_code": 43,
    "city": "熊本市西区",
    "city_kana": "クマモトシニシク",
    "town": "上熊本",
    "town_kana": "カミクマモト",
    "street": null,
    "office_name": null,
    "office_name_kana": null
  },
  "0081": [
    {
      "postcode": "8600081",
      "prefecture": "熊本県",
      "prefecture_kana": "クマモトケン",
      "prefecture_code": 43,
      "city": "熊本市中央区",
      "city_kana": "クマモトシチュウオウク",
      "town": "京町本丁",
      "town_kana": "キョウマチホンチョウ",
      "street": null,
      "office_name": null,
      "office_name_kana": null
    },
    {
      "postcode": "8600081",
      "prefecture": "熊本県",
      "prefecture_kana": "クマモトケン",
      "prefecture_code": 43,
      "city": "熊本市西区",
      "city_kana": "クマモトシニシク",
      "town": "京町本丁",
      "town_kana": "キョウマチホンチョウ",
      "street": null,
      "office_name": null,
      "office_name_kana": null
    }
  ],
  "0082": [
    {
      "postcode": "8600082",
      "prefecture": "熊本県",
      "prefecture_kana": "クマモトケン",
      "prefecture_code": 43,
      "city": "熊本市西区",
      "city_kana": "クマモトシニシク",
      "town": "池田",
      "town_kana": "イケダ",
      "street": null,
      "office_name": null,
      "office_name_kana": null
    },
    {
      "postcode": "8600082",
      "prefecture": "熊本県",
      "prefecture_kana": "クマモトケン",
      "prefecture_code": 43,
      "city": "熊本市北区",
      "city_kana": "クマモトシキタク",
      "town": "池田",
      "town_kana": "イケダ",
      "street": null,
      "office_name": null,
      "office_name_kana": null
    }
  ],
  "0083": {
    "postcode": "8600083",
    "prefecture": "熊本県",
    "prefecture_kana": "クマモトケン",
    "prefecture_code": 43,
    "city": "熊本市北区",
    "city_kana": "クマモトシキタク",
    "town": "大窪",
    "town_kana": "オオクボ",
    "street": null,
    "office_name": null,
    "office_name_kana": null
  },
  "0084": {
    "postcode": "8600084",
    "prefecture": "熊本県",
    "prefecture_kana": "クマモトケン",
    "prefecture_code": 43,
    "city": "熊本市北区",
    "city_kana": "クマモトシキタク",
    "town": "山室",
    "town_kana": "ヤマムロ",
    "street": null,
    "office_name": null,
    "office_name_kana": null
  },
  "0085": {
    "postcode": "8600085",
    "prefecture": "熊本県",
    "prefecture_kana": "クマモトケン",
    "prefecture_code": 43,
    "city": "熊本市北区",
    "city_kana": "クマモトシキタク",
    "town": "高平",
    "town_kana": "タカヒラ",
    "street": null,
    "office_name": null,
    "office_name_kana": null
  },
  "0086": {
    "postcode": "8600086",
    "prefecture": "熊本県",
    "prefecture_kana": "クマモトケン",
    "prefecture_code": 43,
    "city": "熊本市北区",
    "city_kana": "クマモトシキタク",
    "town": "打越町",
    "town_kana": "ウチゴシマチ",
    "street": null,
    "office_name": null,
    "office_name_kana": null
  },
  "0087": {
    "postcode": "8600087",
    "prefecture": "熊本県",
    "prefecture_kana": "クマモトケン",
    "prefecture_code": 43,
    "city": "熊本市北区",
    "city_kana": "クマモトシキタク",
    "town": "清水町打越",
    "town_kana": "シミズマチウチゴシ",
    "street": null,
    "office_name": null,
    "office_name_kana": null
  },
  "0088": [
    {
      "postcode": "8600088",
      "prefecture": "熊本県",
      "prefecture_kana": "クマモトケン",
      "prefecture_code": 43,
      "city": "熊本市西区",
      "city_kana": "クマモトシニシク",
      "town": "津浦町",
      "town_kana": "ツノウラマチ",
      "street": null,
      "office_name": null,
      "office_name_kana": null
    },
    {
      "postcode": "8600088",
      "prefecture": "熊本県",
      "prefecture_kana": "クマモトケン",
      "prefecture_code": 43,
      "city": "熊本市北区",
      "city_kana": "クマモトシキタク",
      "town": "津浦町",
      "town_kana": "ツノウラマチ",
      "street": null,
      "office_name": null,
      "office_name_kana": null
    }
  ],
  "0801": {
    "postcode": "8600801",
    "prefecture": "熊本県",
    "prefecture_kana": "クマモトケン",
    "prefecture_code": 43,
    "city": "熊本市中央区",
    "city_kana": "クマモトシチュウオウク",
    "town": "安政町",
    "town_kana": "アンセイマチ",
    "street": null,
    "office_name": null,
    "office_name_kana": null
  },
  "0802": {
    "postcode": "8600802",
    "prefecture": "熊本県",
    "prefecture_kana": "クマモトケン",
    "prefecture_code": 43,
    "city": "熊本市中央区",
    "city_kana": "クマモトシチュウオウク",
    "town": "中央街",
    "town_kana": "チュウオウガイ",
    "street": null,
    "office_name": null,
    "office_name_kana": null
  },
  "0803": {
    "postcode": "8600803",
    "prefecture": "熊本県",
    "prefecture_kana": "クマモトケン",
    "prefecture_code": 43,
    "city": "熊本市中央区",
    "city_kana": "クマモトシチュウオウク",
    "town": "新市街",
    "town_kana": "シンシガイ",
    "street": null,
    "office_name": null,
    "office_name_kana": null
  },
  "0804": {
    "postcode": "8600804",
    "prefecture": "熊本県",
    "prefecture_kana": "クマモトケン",
    "prefecture_code": 43,
    "city": "熊本市中央区",
    "city_kana": "クマモトシチュウオウク",
    "town": "辛島町",
    "town_kana": "カラシマチョウ",
    "street": null,
    "office_name": null,
    "office_name_kana": null
  },
  "0805": {
    "postcode": "8600805",
    "prefecture": "熊本県",
    "prefecture_kana": "クマモトケン",
    "prefecture_code": 43,
    "city": "熊本市中央区",
    "city_kana": "クマモトシチュウオウク",
    "town": "桜町",
    "town_kana": "サクラマチ",
    "street": null,
    "office_name": null,
    "office_name_kana": null
  },
  "0806": {
    "postcode": "8600806",
    "prefecture": "熊本県",
    "prefecture_kana": "クマモトケン",
    "prefecture_code": 43,
    "city": "熊本市中央区",
    "city_kana": "クマモトシチュウオウク",
    "town": "花畑町",
    "town_kana": "ハナバタチョウ",
    "street": null,
    "office_name": null,
    "office_name_kana": null
  },
  "0807": {
    "postcode": "8600807",
    "prefecture": "熊本県",
    "prefecture_kana": "クマモトケン",
    "prefecture_code": 43,
    "city": "熊本市中央区",
    "city_kana": "クマモトシチュウオウク",
    "town": "下通",
    "town_kana": "シモトオリ",
    "street": null,
    "office_name": null,
    "office_name_kana": null
  },
  "0808": {
    "postcode": "8600808",
    "prefecture": "熊本県",
    "prefecture_kana": "クマモトケン",
    "prefecture_code": 43,
    "city": "熊本市中央区",
    "city_kana": "クマモトシチュウオウク",
    "town": "手取本町",
    "town_kana": "テトリホンチョウ",
    "street": null,
    "office_name": null,
    "office_name_kana": null
  },
  "0811": {
    "postcode": "8600811",
    "prefecture": "熊本県",
    "prefecture_kana": "クマモトケン",
    "prefecture_code": 43,
    "city": "熊本市中央区",
    "city_kana": "クマモトシチュウオウク",
    "town": "本荘",
    "town_kana": "ホンジョウ",
    "street": null,
    "office_name": null,
    "office_name_kana": null
  },
  "0812": {
    "postcode": "8600812",
    "prefecture": "熊本県",
    "prefecture_kana": "クマモトケン",
    "prefecture_code": 43,
    "city": "熊本市中央区",
    "city_kana": "クマモトシチュウオウク",
    "town": "南熊本",
    "town_kana": "ミナミクマモト",
    "street": null,
    "office_name": null,
    "office_name_kana": null
  },
  "0813": {
    "postcode": "8600813",
    "prefecture": "熊本県",
    "prefecture_kana": "クマモトケン",
    "prefecture_code": 43,
    "city": "熊本市中央区",
    "city_kana": "クマモトシチュウオウク",
    "town": "琴平",
    "town_kana": "コトヒラ",
    "street": null,
    "office_name": null,
    "office_name_kana": null
  },
  "0814": {
    "postcode": "8600814",
    "prefecture": "熊本県",
    "prefecture_kana": "クマモトケン",
    "prefecture_code": 43,
    "city": "熊本市中央区",
    "city_kana": "クマモトシチュウオウク",
    "town": "琴平本町",
    "town_kana": "コトヒラホンマチ",
    "street": null,
    "office_name": null,
    "office_name_kana": null
  },
  "0815": {
    "postcode": "8600815",
    "prefecture": "熊本県",
    "prefecture_kana": "クマモトケン",
    "prefecture_code": 43,
    "city": "熊本市中央区",
    "city_kana": "クマモトシチュウオウク",
    "town": "春竹町",
    "town_kana": "ハルタケマチ",
    "street": null,
    "office_name": null,
    "office_name_kana": null
  },
  "0816": {
    "postcode": "8600816",
    "prefecture": "熊本県",
    "prefecture_kana": "クマモトケン",
    "prefecture_code": 43,
    "city": "熊本市中央区",
    "city_kana": "クマモトシチュウオウク",
    "town": "本荘町",
    "town_kana": "ホンジョウマチ",
    "street": null,
    "office_name": null,
    "office_name_kana": null
  },
  "0817": {
    "postcode": "8600817",
    "prefecture": "熊本県",
    "prefecture_kana": "クマモトケン",
    "prefecture_code": 43,
    "city": "熊本市中央区",
    "city_kana": "クマモトシチュウオウク",
    "town": "迎町",
    "town_kana": "ムカエマチ",
    "street": null,
    "office_name": null,
    "office_name_kana": null
  },
  "0818": {
    "postcode": "8600818",
    "prefecture": "熊本県",
    "prefecture_kana": "クマモトケン",
    "prefecture_code": 43,
    "city": "熊本市中央区",
    "city_kana": "クマモトシチュウオウク",
    "town": "弥生町",
    "town_kana": "ヤヨイチョウ",
    "street": null,
    "office_name": null,
    "office_name_kana": null
  },
  "0821": {
    "postcode": "8600821",
    "prefecture": "熊本県",
    "prefecture_kana": "クマモトケン",
    "prefecture_code": 43,
    "city": "熊本市中央区",
    "city_kana": "クマモトシチュウオウク",
    "town": "本山",
    "town_kana": "モトヤマ",
    "street": null,
    "office_name": null,
    "office_name_kana": null
  },
  "0822": {
    "postcode": "8600822",
    "prefecture": "熊本県",
    "prefecture_kana": "クマモトケン",
    "prefecture_code": 43,
    "city": "熊本市中央区",
    "city_kana": "クマモトシチュウオウク",
    "town": "本山町",
    "town_kana": "モトヤママチ",
    "street": null,
    "office_name": null,
    "office_name_kana": null
  },
  "0823": {
    "postcode": "8600823",
    "prefecture": "熊本県",
    "prefecture_kana": "クマモトケン",
    "prefecture_code": 43,
    "city": "熊本市中央区",
    "city_kana": "クマモトシチュウオウク",
    "town": "世安町",
    "town_kana": "ヨヤスマチ",
    "street": null,
    "office_name": null,
    "office_name_kana": null
  },
  "0824": [
    {
      "postcode": "8600824",
      "prefecture": "熊本県",
      "prefecture_kana": "クマモトケン",
      "prefecture_code": 43,
      "city": "熊本市中央区",
      "city_kana": "クマモトシチュウオウク",
      "town": "十禅寺",
      "town_kana": "ジュウゼンジ",
      "street": null,
      "office_name": null,
      "office_name_kana": null
    },
    {
      "postcode": "8600824",
      "prefecture": "熊本県",
      "prefecture_kana": "クマモトケン",
      "prefecture_code": 43,
      "city": "熊本市南区",
      "city_kana": "クマモトシミナミク",
      "town": "十禅寺",
      "town_kana": "ジュウゼンジ",
      "street": null,
      "office_name": null,
      "office_name_kana": null
    }
  ],
  "0826": {
    "postcode": "8600826",
    "prefecture": "熊本県",
    "prefecture_kana": "クマモトケン",
    "prefecture_code": 43,
    "city": "熊本市南区",
    "city_kana": "クマモトシミナミク",
    "town": "平田",
    "town_kana": "ヒラタ",
    "street": null,
    "office_name": null,
    "office_name_kana": null
  },
  "0827": {
    "postcode": "8600827",
    "prefecture": "熊本県",
    "prefecture_kana": "クマモトケン",
    "prefecture_code": 43,
    "city": "熊本市中央区",
    "city_kana": "クマモトシチュウオウク",
    "town": "世安",
    "town_kana": "ヨヤス",
    "street": null,
    "office_name": null,
    "office_name_kana": null
  },
  "0831": [
    {
      "postcode": "8600831",
      "prefecture": "熊本県",
      "prefecture_kana": "クマモトケン",
      "prefecture_code": 43,
      "city": "熊本市中央区",
      "city_kana": "クマモトシチュウオウク",
      "town": "八王寺町",
      "town_kana": "ハチオウジマチ",
      "street": null,
      "office_name": null,
      "office_name_kana": null
    },
    {
      "postcode": "8600831",
      "prefecture": "熊本県",
      "prefecture_kana": "クマモトケン",
      "prefecture_code": 43,
      "city": "熊本市南区",
      "city_kana": "クマモトシミナミク",
      "town": "八王寺町",
      "town_kana": "ハチオウジマチ",
      "street": null,
      "office_name": null,
      "office_name_kana": null
    }
  ],
  "0832": {
    "postcode": "8600832",
    "prefecture": "熊本県",
    "prefecture_kana": "クマモトケン",
    "prefecture_code": 43,
    "city": "熊本市中央区",
    "city_kana": "クマモトシチュウオウク",
    "town": "萩原町",
    "town_kana": "ハギワラマチ",
    "street": null,
    "office_name": null,
    "office_name_kana": null
  },
  "0833": [
    {
      "postcode": "8600833",
      "prefecture": "熊本県",
      "prefecture_kana": "クマモトケン",
      "prefecture_code": 43,
      "city": "熊本市中央区",
      "city_kana": "クマモトシチュウオウク",
      "town": "平成",
      "town_kana": "ヘイセイ",
      "street": null,
      "office_name": null,
      "office_name_kana": null
    },
    {
      "postcode": "8600833",
      "prefecture": "熊本県",
      "prefecture_kana": "クマモトケン",
      "prefecture_code": 43,
      "city": "熊本市南区",
      "city_kana": "クマモトシミナミク",
      "town": "平成",
      "town_kana": "ヘイセイ",
      "street": null,
      "office_name": null,
      "office_name_kana": null
    }
  ],
  "0834": {
    "postcode": "8600834",
    "prefecture": "熊本県",
    "prefecture_kana": "クマモトケン",
    "prefecture_code": 43,
    "city": "熊本市南区",
    "city_kana": "クマモトシミナミク",
    "town": "江越",
    "town_kana": "エゴエ",
    "street": null,
    "office_name": null,
    "office_name_kana": null
  },
  "0841": {
    "postcode": "8600841",
    "prefecture": "熊本県",
    "prefecture_kana": "クマモトケン",
    "prefecture_code": 43,
    "city": "熊本市中央区",
    "city_kana": "クマモトシチュウオウク",
    "town": "井川淵町",
    "town_kana": "イガワブチマチ",
    "street": null,
    "office_name": null,
    "office_name_kana": null
  },
  "0842": {
    "postcode": "8600842",
    "prefecture": "熊本県",
    "prefecture_kana": "クマモトケン",
    "prefecture_code": 43,
    "city": "熊本市中央区",
    "city_kana": "クマモトシチュウオウク",
    "town": "南千反畑町",
    "town_kana": "ミナミセンダンバタマチ",
    "street": null,
    "office_name": null,
    "office_name_kana": null
  },
  "0843": {
    "postcode": "8600843",
    "prefecture": "熊本県",
    "prefecture_kana": "クマモトケン",
    "prefecture_code": 43,
    "city": "熊本市中央区",
    "city_kana": "クマモトシチュウオウク",
    "town": "草葉町",
    "town_kana": "クサバチョウ",
    "street": null,
    "office_name": null,
    "office_name_kana": null
  },
  "0844": {
    "postcode": "8600844",
    "prefecture": "熊本県",
    "prefecture_kana": "クマモトケン",
    "prefecture_code": 43,
    "city": "熊本市中央区",
    "city_kana": "クマモトシチュウオウク",
    "town": "水道町",
    "town_kana": "スイドウチョウ",
    "street": null,
    "office_name": null,
    "office_name_kana": null
  },
  "0845": {
    "postcode": "8600845",
    "prefecture": "熊本県",
    "prefecture_kana": "クマモトケン",
    "prefecture_code": 43,
    "city": "熊本市中央区",
    "city_kana": "クマモトシチュウオウク",
    "town": "上通町",
    "town_kana": "カミトオリチョウ",
    "street": null,
    "office_name": null,
    "office_name_kana": null
  },
  "0846": {
    "postcode": "8600846",
    "prefecture": "熊本県",
    "prefecture_kana": "クマモトケン",
    "prefecture_code": 43,
    "city": "熊本市中央区",
    "city_kana": "クマモトシチュウオウク",
    "town": "城東町",
    "town_kana": "ジョウトウマチ",
    "street": null,
    "office_name": null,
    "office_name_kana": null
  },
  "0847": {
    "postcode": "8600847",
    "prefecture": "熊本県",
    "prefecture_kana": "クマモトケン",
    "prefecture_code": 43,
    "city": "熊本市中央区",
    "city_kana": "クマモトシチュウオウク",
    "town": "上林町",
    "town_kana": "カミバヤシマチ",
    "street": null,
    "office_name": null,
    "office_name_kana": null
  },
  "0848": {
    "postcode": "8600848",
    "prefecture": "熊本県",
    "prefecture_kana": "クマモトケン",
    "prefecture_code": 43,
    "city": "熊本市中央区",
    "city_kana": "クマモトシチュウオウク",
    "town": "南坪井町",
    "town_kana": "ミナミツボイマチ",
    "street": null,
    "office_name": null,
    "office_name_kana": null
  },
  "0851": {
    "postcode": "8600851",
    "prefecture": "熊本県",
    "prefecture_kana": "クマモトケン",
    "prefecture_code": 43,
    "city": "熊本市中央区",
    "city_kana": "クマモトシチュウオウク",
    "town": "子飼本町",
    "town_kana": "コカイホンマチ",
    "street": null,
    "office_name": null,
    "office_name_kana": null
  },
  "0852": {
    "postcode": "8600852",
    "prefecture": "熊本県",
    "prefecture_kana": "クマモトケン",
    "prefecture_code": 43,
    "city": "熊本市中央区",
    "city_kana": "クマモトシチュウオウク",
    "town": "薬園町",
    "town_kana": "ヤクエンチョウ",
    "street": null,
    "office_name": null,
    "office_name_kana": null
  },
  "0853": {
    "postcode": "8600853",
    "prefecture": "熊本県",
    "prefecture_kana": "クマモトケン",
    "prefecture_code": 43,
    "city": "熊本市中央区",
    "city_kana": "クマモトシチュウオウク",
    "town": "西子飼町",
    "town_kana": "ニシコカイマチ",
    "street": null,
    "office_name": null,
    "office_name_kana": null
  },
  "0854": {
    "postcode": "8600854",
    "prefecture": "熊本県",
    "prefecture_kana": "クマモトケン",
    "prefecture_code": 43,
    "city": "熊本市中央区",
    "city_kana": "クマモトシチュウオウク",
    "town": "東子飼町",
    "town_kana": "ヒガシコカイマチ",
    "street": null,
    "office_name": null,
    "office_name_kana": null
  },
  "0855": {
    "postcode": "8600855",
    "prefecture": "熊本県",
    "prefecture_kana": "クマモトケン",
    "prefecture_code": 43,
    "city": "熊本市中央区",
    "city_kana": "クマモトシチュウオウク",
    "town": "北千反畑町",
    "town_kana": "キタセンダンバタマチ",
    "street": null,
    "office_name": null,
    "office_name_kana": null
  },
  "0856": {
    "postcode": "8600856",
    "prefecture": "熊本県",
    "prefecture_kana": "クマモトケン",
    "prefecture_code": 43,
    "city": "熊本市中央区",
    "city_kana": "クマモトシチュウオウク",
    "town": "妙体寺町",
    "town_kana": "ミョウタイジマチ",
    "street": null,
    "office_name": null,
    "office_name_kana": null
  },
  "0861": {
    "postcode": "8600861",
    "prefecture": "熊本県",
    "prefecture_kana": "クマモトケン",
    "prefecture_code": 43,
    "city": "熊本市北区",
    "city_kana": "クマモトシキタク",
    "town": "黒髪町坪井",
    "town_kana": "クロカミマチツボイ",
    "street": null,
    "office_name": null,
    "office_name_kana": null
  },
  "0862": [
    {
      "postcode": "8600862",
      "prefecture": "熊本県",
      "prefecture_kana": "クマモトケン",
      "prefecture_code": 43,
      "city": "熊本市中央区",
      "city_kana": "クマモトシチュウオウク",
      "town": "黒髪",
      "town_kana": "クロカミ",
      "street": null,
      "office_name": null,
      "office_name_kana": null
    },
    {
      "postcode": "8600862",
      "prefecture": "熊本県",
      "prefecture_kana": "クマモトケン",
      "prefecture_code": 43,
      "city": "熊本市北区",
      "city_kana": "クマモトシキタク",
      "town": "黒髪",
      "town_kana": "クロカミ",
      "street": null,
      "office_name": null,
      "office_name_kana": null
    }
  ],
  "0863": {
    "postcode": "8600863",
    "prefecture": "熊本県",
    "prefecture_kana": "クマモトケン",
    "prefecture_code": 43,
    "city": "熊本市中央区",
    "city_kana": "クマモトシチュウオウク",
    "town": "坪井",
    "town_kana": "ツボイ",
    "street": null,
    "office_name": null,
    "office_name_kana": null
  },
  "8501": {
    "postcode": "8608501",
    "prefecture": "熊本県",
    "prefecture_kana": "クマモトケン",
    "prefecture_code": 43,
    "city": "熊本市中央区",
    "city_kana": "クマモトシチュウオウク",
    "town": "山崎町",
    "town_kana": "ヤマサキマチ",
    "street": "４４",
    "office_name": "株式会社　熊本銀行　中央支店",
    "office_name_kana": "カブシキガイシヤ クマモトギンコウ チユウオウシテン"
  },
  "8502": {
    "postcode": "8608502",
    "prefecture": "熊本県",
    "prefecture_kana": "クマモトケン",
    "prefecture_code": 43,
    "city": "熊本市中央区",
    "city_kana": "クマモトシチュウオウク",
    "town": "辛島町",
    "town_kana": "カラシマチョウ",
    "street": "５−１日本生命熊本ビル１０階",
    "office_name": "全国健康保険協会　熊本支部",
    "office_name_kana": "ゼンコクケンコウホケンキヨウカイ クマモトシブ"
  },
  "8503": {
    "postcode": "8608503",
    "prefecture": "熊本県",
    "prefecture_kana": "クマモトケン",
    "prefecture_code": 43,
    "city": "熊本市中央区",
    "city_kana": "クマモトシチュウオウク",
    "town": "南熊本",
    "town_kana": "ミナミクマモト",
    "street": "１丁目７−２６",
    "office_name": "熊本市農業協同組合",
    "office_name_kana": "クマモトシノウギヨウキヨウドウクミアイ"
  },
  "8504": {
    "postcode": "8608504",
    "prefecture": "熊本県",
    "prefecture_kana": "クマモトケン",
    "prefecture_code": 43,
    "city": "熊本市中央区",
    "city_kana": "クマモトシチュウオウク",
    "town": "南熊本",
    "town_kana": "ミナミクマモト",
    "street": "５丁目１−１",
    "office_name": "テルウェル西日本　（株）　九州支店　中九州営業支店",
    "office_name_kana": "テルウエルニシニホン (カブ) キユウシユウシテン ナカキユウシユウエイギヨウシテン"
  },
  "8505": {
    "postcode": "8608505",
    "prefecture": "熊本県",
    "prefecture_kana": "クマモトケン",
    "prefecture_code": 43,
    "city": "熊本市西区",
    "city_kana": "クマモトシニシク",
    "town": "春日",
    "town_kana": "カスガ",
    "street": "１丁目１２−１０",
    "office_name": "日本郵政コーポレートサービス　株式会社",
    "office_name_kana": "ニツポンユウセイコ-ポレ-トサ-ビス カブシキガイシヤ"
  },
  "8506": {
    "postcode": "8608506",
    "prefecture": "熊本県",
    "prefecture_kana": "クマモトケン",
    "prefecture_code": 43,
    "city": "熊本市中央区",
    "city_kana": "クマモトシチュウオウク",
    "town": "世安",
    "town_kana": "ヨヤス",
    "street": "１丁目５番１号",
    "office_name": "株式会社　熊本日日新聞社",
    "office_name_kana": "カブシキカイシヤ クマモトニチニチシンブンシヤ"
  },
  "8507": {
    "postcode": "8608507",
    "prefecture": "熊本県",
    "prefecture_kana": "クマモトケン",
    "prefecture_code": 43,
    "city": "熊本市中央区",
    "city_kana": "クマモトシチュウオウク",
    "town": "世安町",
    "town_kana": "ヨヤスマチ",
    "street": "３４０−２",
    "office_name": "熊本酒井物産　株式会社　熊本営業所",
    "office_name_kana": "クマモトサカイブツサン カブシキガイシヤ クマモトエイギヨウシヨ"
  },
  "8508": {
    "postcode": "8608508",
    "prefecture": "熊本県",
    "prefecture_kana": "クマモトケン",
    "prefecture_code": 43,
    "city": "熊本市西区",
    "city_kana": "クマモトシニシク",
    "town": "上熊本",
    "town_kana": "カミクマモト",
    "street": "３丁目８−１",
    "office_name": "金剛　株式会社",
    "office_name_kana": "コンゴウ カブシキカイシヤ"
  },
  "8509": {
    "postcode": "8608509",
    "prefecture": "熊本県",
    "prefecture_kana": "クマモトケン",
    "prefecture_code": 43,
    "city": "熊本市中央区",
    "city_kana": "クマモトシチュウオウク",
    "town": "世安町",
    "town_kana": "ヨヤスマチ",
    "street": "３７８−４",
    "office_name": "株式会社　紙弘",
    "office_name_kana": "カブシキガイシヤ カミヒロ"
  },
  "8511": {
    "postcode": "8608511",
    "prefecture": "熊本県",
    "prefecture_kana": "クマモトケン",
    "prefecture_code": 43,
    "city": "熊本市中央区",
    "city_kana": "クマモトシチュウオウク",
    "town": "新市街",
    "town_kana": "シンシガイ",
    "street": "７−２０ヴィレラ辛島２Ｆ",
    "office_name": "株式会社　熊本リビング新聞社",
    "office_name_kana": "カブシキガイシヤ クマモトリビングシンブンシヤ"
  },
  "8512": {
    "postcode": "8608512",
    "prefecture": "熊本県",
    "prefecture_kana": "クマモトケン",
    "prefecture_code": 43,
    "city": "熊本市中央区",
    "city_kana": "クマモトシチュウオウク",
    "town": "花畑町",
    "town_kana": "ハナバタチョウ",
    "street": "１２−２８日本生命熊本第２ビル４Ｆ",
    "office_name": "楽天ＫＣ　株式会社　熊本支店",
    "office_name_kana": "ラクテンケイシ- カブシキガイシヤ クマモトシテン"
  },
  "8513": {
    "postcode": "8608513",
    "prefecture": "熊本県",
    "prefecture_kana": "クマモトケン",
    "prefecture_code": 43,
    "city": "熊本市中央区",
    "city_kana": "クマモトシチュウオウク",
    "town": "京町",
    "town_kana": "キョウマチ",
    "street": "１丁目１３−１１",
    "office_name": "熊本地方裁判所",
    "office_name_kana": "クマモトチホウサイバンシヨ"
  },
  "8514": {
    "postcode": "8608514",
    "prefecture": "熊本県",
    "prefecture_kana": "クマモトケン",
    "prefecture_code": 43,
    "city": "熊本市西区",
    "city_kana": "クマモトシニシク",
    "town": "春日",
    "town_kana": "カスガ",
    "street": "２丁目１０番１号熊本地方合同庁舎９階",
    "office_name": "熊本労働局",
    "office_name_kana": "クマモトロウドウキヨク"
  },
  "8515": {
    "postcode": "8608515",
    "prefecture": "熊本県",
    "prefecture_kana": "クマモトケン",
    "prefecture_code": 43,
    "city": "熊本市西区",
    "city_kana": "クマモトシニシク",
    "town": "島崎",
    "town_kana": "シマサキ",
    "street": "２丁目２２−１５",
    "office_name": "医療法人　金澤会　青磁野リハビリテーション病院",
    "office_name_kana": "イリヨウホウジン カナザワカイ セイジノリハビリテ-シヨンビヨウイン"
  },
  "8516": {
    "postcode": "8608516",
    "prefecture": "熊本県",
    "prefecture_kana": "クマモトケン",
    "prefecture_code": 43,
    "city": "熊本市西区",
    "city_kana": "クマモトシニシク",
    "town": "二本木",
    "town_kana": "ニホンギ",
    "street": "１丁目５番１２号",
    "office_name": "熊本朝日放送　株式会社",
    "office_name_kana": "クマモトアサヒホウソウ カブシキガイシヤ"
  },
  "8517": {
    "postcode": "8608517",
    "prefecture": "熊本県",
    "prefecture_kana": "クマモトケン",
    "prefecture_code": 43,
    "city": "熊本市中央区",
    "city_kana": "クマモトシチュウオウク",
    "town": "水道町",
    "town_kana": "スイドウチョウ",
    "street": "１４−１",
    "office_name": "ホテルメルパルク熊本",
    "office_name_kana": "ホテルメルパルククマモト"
  },
  "8518": {
    "postcode": "8608518",
    "prefecture": "熊本県",
    "prefecture_kana": "クマモトケン",
    "prefecture_code": 43,
    "city": "熊本市北区",
    "city_kana": "クマモトシキタク",
    "town": "山室",
    "town_kana": "ヤマムロ",
    "street": "６−８−１",
    "office_name": "社会医療法人　寿量会（熊本機能病院／介護老人保健施設　清雅苑／熊本健康・体力づくりセンター）",
    "office_name_kana": "シヤカイイリヨウホウジン ジユリヨウカイ(クマモトキノウビヨウイン/カイゴロウジンホケンシセツ セイガエン/クマモトケンコウ・タイリヨクヅクリセンタ-)"
  },
  "8519": {
    "postcode": "8608519",
    "prefecture": "熊本県",
    "prefecture_kana": "クマモトケン",
    "prefecture_code": 43,
    "city": "熊本市中央区",
    "city_kana": "クマモトシチュウオウク",
    "town": "桜町",
    "town_kana": "サクラマチ",
    "street": "３−１",
    "office_name": "ＮＴＴ西日本　熊本支店",
    "office_name_kana": "エヌテイテイニシニホン クマモトシテン"
  },
  "8520": {
    "postcode": "8608520",
    "prefecture": "熊本県",
    "prefecture_kana": "クマモトケン",
    "prefecture_code": 43,
    "city": "熊本市中央区",
    "city_kana": "クマモトシチュウオウク",
    "town": "黒髪",
    "town_kana": "クロカミ",
    "street": "３丁目１２−１６",
    "office_name": "学校法人　九州ルーテル学院",
    "office_name_kana": "ガツコウホウジン キユウシユウル-テルガクイン"
  },
  "8521": {
    "postcode": "8608521",
    "prefecture": "熊本県",
    "prefecture_kana": "クマモトケン",
    "prefecture_code": 43,
    "city": "熊本市中央区",
    "city_kana": "クマモトシチュウオウク",
    "town": "世安町",
    "town_kana": "ヨヤスマチ",
    "street": "３５６",
    "office_name": "鶴原吉井　株式会社",
    "office_name_kana": "ツルハラヨシイ カブシキガイシヤ"
  },
  "8522": {
    "postcode": "8608522",
    "prefecture": "熊本県",
    "prefecture_kana": "クマモトケン",
    "prefecture_code": 43,
    "city": "熊本市中央区",
    "city_kana": "クマモトシチュウオウク",
    "town": "世安町",
    "town_kana": "ヨヤスマチ",
    "street": "７",
    "office_name": "株式会社　熊本県民テレビ",
    "office_name_kana": "カブシキガイシヤ クマモトケンミンテレビ"
  },
  "8523": {
    "postcode": "8608523",
    "prefecture": "熊本県",
    "prefecture_kana": "クマモトケン",
    "prefecture_code": 43,
    "city": "熊本市西区",
    "city_kana": "クマモトシニシク",
    "town": "上熊本",
    "town_kana": "カミクマモト",
    "street": "１丁目２−６",
    "office_name": "株式会社　レイメイ藤井",
    "office_name_kana": "カブシキガイシヤ レイメイフジイ"
  },
  "8524": {
    "postcode": "8608524",
    "prefecture": "熊本県",
    "prefecture_kana": "クマモトケン",
    "prefecture_code": 43,
    "city": "熊本市中央区",
    "city_kana": "クマモトシチュウオウク",
    "town": "辛島町",
    "town_kana": "カラシマチョウ",
    "street": "６−７いちご熊本ビル",
    "office_name": "公益財団法人　日本無線協会　九州支部",
    "office_name_kana": "コウエキザイダンホウジン ニホンムセンキヨウカイ キユウシユウシブ"
  },
  "8525": {
    "postcode": "8608525",
    "prefecture": "熊本県",
    "prefecture_kana": "クマモトケン",
    "prefecture_code": 43,
    "city": "熊本市中央区",
    "city_kana": "クマモトシチュウオウク",
    "town": "八王寺町",
    "town_kana": "ハチオウジマチ",
    "street": "３３−５７",
    "office_name": "株式会社　アステム　熊本営業部",
    "office_name_kana": "カブシキガイシヤ アステム クマモトエイギヨウブ"
  },
  "8526": {
    "postcode": "8608526",
    "prefecture": "熊本県",
    "prefecture_kana": "クマモトケン",
    "prefecture_code": 43,
    "city": "熊本市中央区",
    "city_kana": "クマモトシチュウオウク",
    "town": "花畑町",
    "town_kana": "ハナバタチョウ",
    "street": "１０−２６",
    "office_name": "損害保険ジャパン日本興亜　株式会社",
    "office_name_kana": "ソンガイホケンジヤパンニツポンコウア カブシキカイシヤ"
  },
  "8527": {
    "postcode": "8608527",
    "prefecture": "熊本県",
    "prefecture_kana": "クマモトケン",
    "prefecture_code": 43,
    "city": "熊本市西区",
    "city_kana": "クマモトシニシク",
    "town": "春日",
    "town_kana": "カスガ",
    "street": "２丁目１０番１号",
    "office_name": "九州農政局",
    "office_name_kana": "キユウシユウノウセイキヨク"
  },
  "8528": {
    "postcode": "8608528",
    "prefecture": "熊本県",
    "prefecture_kana": "クマモトケン",
    "prefecture_code": 43,
    "city": "熊本市中央区",
    "city_kana": "クマモトシチュウオウク",
    "town": "南千反畑町",
    "town_kana": "ミナミセンダンバタマチ",
    "street": "３番１号",
    "office_name": "熊本県　経済農業協同組合連合会",
    "office_name_kana": "クマモトケン ケイザイノウギヨウキヨウドウクミアイレンゴウカイ"
  },
  "8530": {
    "postcode": "8608530",
    "prefecture": "熊本県",
    "prefecture_kana": "クマモトケン",
    "prefecture_code": 43,
    "city": "熊本市中央区",
    "city_kana": "クマモトシチュウオウク",
    "town": "平成",
    "town_kana": "ヘイセイ",
    "street": "３丁目２３−３０",
    "office_name": "サンリブシティくまなん",
    "office_name_kana": "サンリブシテイクマナン"
  },
  "8531": {
    "postcode": "8608531",
    "prefecture": "熊本県",
    "prefecture_kana": "クマモトケン",
    "prefecture_code": 43,
    "city": "熊本市中央区",
    "city_kana": "クマモトシチュウオウク",
    "town": "京町",
    "town_kana": "キョウマチ",
    "street": "１丁目１３−１１",
    "office_name": "熊本簡易裁判所",
    "office_name_kana": "クマモトカンイサイバンシヨ"
  },
  "8533": {
    "postcode": "8608533",
    "prefecture": "熊本県",
    "prefecture_kana": "クマモトケン",
    "prefecture_code": 43,
    "city": "熊本市中央区",
    "city_kana": "クマモトシチュウオウク",
    "town": "本荘町",
    "town_kana": "ホンジョウマチ",
    "street": "６６７−１",
    "office_name": "熊本県社会保険診療報酬支払基金",
    "office_name_kana": "クマモトケンシヤカイホケンシンリヨウホウシユウシハライキキン"
  },
  "8534": {
    "postcode": "8608534",
    "prefecture": "熊本県",
    "prefecture_kana": "クマモトケン",
    "prefecture_code": 43,
    "city": "熊本市中央区",
    "city_kana": "クマモトシチュウオウク",
    "town": "千葉城町",
    "town_kana": "チバジョウマチ",
    "street": "２−３７",
    "office_name": "熊本西年金事務所",
    "office_name_kana": "クマモトニシネンキンジムシヨ"
  },
  "8536": {
    "postcode": "8608536",
    "prefecture": "熊本県",
    "prefecture_kana": "クマモトケン",
    "prefecture_code": 43,
    "city": "熊本市中央区",
    "city_kana": "クマモトシチュウオウク",
    "town": "上通町",
    "town_kana": "カミトオリチョウ",
    "street": "２番３３号",
    "office_name": "株式会社　熊日会館",
    "office_name_kana": "カブシキカイシヤ クマニチカイカン"
  },
  "8539": {
    "postcode": "8608539",
    "prefecture": "熊本県",
    "prefecture_kana": "クマモトケン",
    "prefecture_code": 43,
    "city": "熊本市中央区",
    "city_kana": "クマモトシチュウオウク",
    "town": "妙体寺町",
    "town_kana": "ミョウタイジマチ",
    "street": "５番４号",
    "office_name": "株式会社　トリニティ",
    "office_name_kana": "カブシキカイシヤ トリニテイ"
  },
  "8540": {
    "postcode": "8608540",
    "prefecture": "熊本県",
    "prefecture_kana": "クマモトケン",
    "prefecture_code": 43,
    "city": "熊本市北区",
    "city_kana": "クマモトシキタク",
    "town": "高平",
    "town_kana": "タカヒラ",
    "street": "３丁目４１−１３",
    "office_name": "コマツ西日本　株式会社",
    "office_name_kana": "コマツニシニホン カブシキガイシヤ"
  },
  "8541": {
    "postcode": "8608541",
    "prefecture": "熊本県",
    "prefecture_kana": "クマモトケン",
    "prefecture_code": 43,
    "city": "熊本市中央区",
    "city_kana": "クマモトシチュウオウク",
    "town": "練兵町",
    "town_kana": "レンペイチョウ",
    "street": "６３",
    "office_name": "株式会社　帝国データバンク　熊本支店",
    "office_name_kana": "カブシキガイシヤ テイコクデ-タバンク クマモトシテン"
  },
  "8543": {
    "postcode": "8608543",
    "prefecture": "熊本県",
    "prefecture_kana": "クマモトケン",
    "prefecture_code": 43,
    "city": "熊本市中央区",
    "city_kana": "クマモトシチュウオウク",
    "town": "花畑町",
    "town_kana": "ハナバタチョウ",
    "street": "４−１太陽生命熊本第２ビル７Ｆ",
    "office_name": "ＮＴＴファイナンス　株式会社　南九州支店",
    "office_name_kana": "エヌ・テイ・テイフアイナンス カブシキガイシヤ ミナミキユウシユウシテン"
  },
  "8545": {
    "postcode": "8608545",
    "prefecture": "熊本県",
    "prefecture_kana": "クマモトケン",
    "prefecture_code": 43,
    "city": "熊本市中央区",
    "city_kana": "クマモトシチュウオウク",
    "town": "水道町",
    "town_kana": "スイドウチョウ",
    "street": "８番６号朝日生命熊本ビル６Ｆ",
    "office_name": "株式会社　ユニマットライフ　ユニマットレディス　熊本店",
    "office_name_kana": "カブシキガイシヤ ユニマツトライフ ユニマツトレデイス クマモトテン"
  },
  "8547": {
    "postcode": "8608547",
    "prefecture": "熊本県",
    "prefecture_kana": "クマモトケン",
    "prefecture_code": 43,
    "city": "熊本市中央区",
    "city_kana": "クマモトシチュウオウク",
    "town": "横紺屋町",
    "town_kana": "ヨココウヤマチ",
    "street": "１０番地",
    "office_name": "熊本商工会議所",
    "office_name_kana": "クマモトシヨウコウカイギシヨ"
  },
  "8550": {
    "postcode": "8608550",
    "prefecture": "熊本県",
    "prefecture_kana": "クマモトケン",
    "prefecture_code": 43,
    "city": "熊本市南区",
    "city_kana": "クマモトシミナミク",
    "town": "江越",
    "town_kana": "エゴエ",
    "street": "２丁目６−３",
    "office_name": "木村医療器　株式会社",
    "office_name_kana": "キムライリヨウキ カブシキガイシヤ"
  },
  "8551": {
    "postcode": "8608551",
    "prefecture": "熊本県",
    "prefecture_kana": "クマモトケン",
    "prefecture_code": 43,
    "city": "熊本市中央区",
    "city_kana": "クマモトシチュウオウク",
    "town": "南熊本",
    "town_kana": "ミナミクマモト",
    "street": "４丁目１番１号",
    "office_name": "熊本県信用保証協会",
    "office_name_kana": "クマモトケンシンヨウホシヨウキヨウカイ"
  },
  "8552": {
    "postcode": "8608552",
    "prefecture": "熊本県",
    "prefecture_kana": "クマモトケン",
    "prefecture_code": 43,
    "city": "熊本市中央区",
    "city_kana": "クマモトシチュウオウク",
    "town": "紺屋町",
    "town_kana": "コウヤマチ",
    "street": "１丁目２−２",
    "office_name": "くまもと経済",
    "office_name_kana": "クマモトケイザイ"
  },
  "8554": {
    "postcode": "8608554",
    "prefecture": "熊本県",
    "prefecture_kana": "クマモトケン",
    "prefecture_code": 43,
    "city": "熊本市中央区",
    "city_kana": "クマモトシチュウオウク",
    "town": "手取本町",
    "town_kana": "テトリホンチョウ",
    "street": "８番９号テトリア熊本ビル９階・１０階",
    "office_name": "くまもと県民交流館　パレア",
    "office_name_kana": "クマモトケンミンコウリユウカン パレア"
  },
  "8555": {
    "postcode": "8608555",
    "prefecture": "熊本県",
    "prefecture_kana": "クマモトケン",
    "prefecture_code": 43,
    "city": "熊本市中央区",
    "city_kana": "クマモトシチュウオウク",
    "town": "黒髪",
    "town_kana": "クロカミ",
    "street": "２丁目３９−１",
    "office_name": "熊本大学",
    "office_name_kana": "クマモトダイガク"
  },
  "8556": {
    "postcode": "8608556",
    "prefecture": "熊本県",
    "prefecture_kana": "クマモトケン",
    "prefecture_code": 43,
    "city": "熊本市中央区",
    "city_kana": "クマモトシチュウオウク",
    "town": "本荘",
    "town_kana": "ホンジョウ",
    "street": "１丁目１−１",
    "office_name": "熊本大学医学部附属病院",
    "office_name_kana": "クマモトダイガクイガクブフゾクビヨウイン"
  },
  "8557": {
    "postcode": "8608557",
    "prefecture": "熊本県",
    "prefecture_kana": "クマモトケン",
    "prefecture_code": 43,
    "city": "熊本市中央区",
    "city_kana": "クマモトシチュウオウク",
    "town": "上林町",
    "town_kana": "カミバヤシマチ",
    "street": "３番１８号",
    "office_name": "学校法人　熊本信愛女学院",
    "office_name_kana": "ガツコウホウジン クマモトシンアイジヨガクイン"
  },
  "8558": {
    "postcode": "8608558",
    "prefecture": "熊本県",
    "prefecture_kana": "クマモトケン",
    "prefecture_code": 43,
    "city": "熊本市中央区",
    "city_kana": "クマモトシチュウオウク",
    "town": "内坪井町",
    "town_kana": "ウチツボイマチ",
    "street": "４番８号",
    "office_name": "学校法人　加寿美学園　熊本中央高等学校",
    "office_name_kana": "ガツコウホウジン カスミガクエン クマモトチユウオウコウトウガツコウ"
  },
  "8565": {
    "postcode": "8608565",
    "prefecture": "熊本県",
    "prefecture_kana": "クマモトケン",
    "prefecture_code": 43,
    "city": "熊本市中央区",
    "city_kana": "クマモトシチュウオウク",
    "town": "城東町",
    "town_kana": "ジョウトウマチ",
    "street": "４番２号",
    "office_name": "株式会社　熊本ホテルキャッスル",
    "office_name_kana": "カブシキガイシヤ クマモトホテルキヤツスル"
  },
  "8566": {
    "postcode": "8608566",
    "prefecture": "熊本県",
    "prefecture_kana": "クマモトケン",
    "prefecture_code": 43,
    "city": "熊本市西区",
    "city_kana": "クマモトシニシク",
    "town": "上熊本",
    "town_kana": "カミクマモト",
    "street": "２丁目１２−１０",
    "office_name": "九州電力　株式会社　熊本西営業所",
    "office_name_kana": "キユウシユウデンリヨク カブシキガイシヤ クマモトニシエイギヨウシヨ"
  },
  "8567": {
    "postcode": "8608567",
    "prefecture": "熊本県",
    "prefecture_kana": "クマモトケン",
    "prefecture_code": 43,
    "city": "熊本市中央区",
    "city_kana": "クマモトシチュウオウク",
    "town": "世安町",
    "town_kana": "ヨヤスマチ",
    "street": "１５５",
    "office_name": "株式会社　セルモ",
    "office_name_kana": "カブシキガイシヤ セルモ"
  },
  "8568": {
    "postcode": "8608568",
    "prefecture": "熊本県",
    "prefecture_kana": "クマモトケン",
    "prefecture_code": 43,
    "city": "熊本市北区",
    "city_kana": "クマモトシキタク",
    "town": "大窪",
    "town_kana": "オオクボ",
    "street": "１丁目６−１",
    "office_name": "ＫＭバイオロジクス　株式会社",
    "office_name_kana": "ケイエムバイオロジクス カブシキガイシヤ"
  },
  "8570": {
    "postcode": "8608570",
    "prefecture": "熊本県",
    "prefecture_kana": "クマモトケン",
    "prefecture_code": 43,
    "city": "熊本市中央区",
    "city_kana": "クマモトシチュウオウク",
    "town": "南千反畑町",
    "town_kana": "ミナミセンダンバタマチ",
    "street": "４−３３",
    "office_name": "熊本県熊本総合庁舎",
    "office_name_kana": "クマモトケンクマモトソウゴウチヨウシヤ"
  },
  "8575": {
    "postcode": "8608575",
    "prefecture": "熊本県",
    "prefecture_kana": "クマモトケン",
    "prefecture_code": 43,
    "city": "熊本市中央区",
    "city_kana": "クマモトシチュウオウク",
    "town": "東阿弥陀寺町",
    "town_kana": "ヒガシアミダジマチ",
    "street": "２",
    "office_name": "株式会社　ニュースカイホテル",
    "office_name_kana": "カブシキガイシヤ ニユ-スカイホテル"
  },
  "8577": {
    "postcode": "8608577",
    "prefecture": "熊本県",
    "prefecture_kana": "クマモトケン",
    "prefecture_code": 43,
    "city": "熊本市中央区",
    "city_kana": "クマモトシチュウオウク",
    "town": "桜町",
    "town_kana": "サクラマチ",
    "street": "３番１０号",
    "office_name": "熊本交通センター",
    "office_name_kana": "クマモトコウツウセンタ-"
  },
  "8580": {
    "postcode": "8608580",
    "prefecture": "熊本県",
    "prefecture_kana": "クマモトケン",
    "prefecture_code": 43,
    "city": "熊本市中央区",
    "city_kana": "クマモトシチュウオウク",
    "town": "本荘",
    "town_kana": "ホンジョウ",
    "street": "５丁目１０−２６",
    "office_name": "株式会社　八尾日進堂",
    "office_name_kana": "カブシキガイシヤ ヤオニツシンドウ"
  },
  "8581": {
    "postcode": "8608581",
    "prefecture": "熊本県",
    "prefecture_kana": "クマモトケン",
    "prefecture_code": 43,
    "city": "熊本市中央区",
    "city_kana": "クマモトシチュウオウク",
    "town": "辛島町",
    "town_kana": "カラシマチョウ",
    "street": "５番１号日本生命熊本ビル９階",
    "office_name": "日清医療食品　株式会社　南九州支店",
    "office_name_kana": "ニツシンイリヨウシヨクヒン カブシキカイシヤ ミナミキユウシユウシテン"
  },
  "8584": {
    "postcode": "8608584",
    "prefecture": "熊本県",
    "prefecture_kana": "クマモトケン",
    "prefecture_code": 43,
    "city": "熊本市中央区",
    "city_kana": "クマモトシチュウオウク",
    "town": "手取本町",
    "town_kana": "テトリホンチョウ",
    "street": "５番１号",
    "office_name": "株式会社　パルコ",
    "office_name_kana": "カブシキガイシヤ パルコ"
  },
  "8585": {
    "postcode": "8608585",
    "prefecture": "熊本県",
    "prefecture_kana": "クマモトケン",
    "prefecture_code": 43,
    "city": "熊本市西区",
    "city_kana": "クマモトシニシク",
    "town": "春日",
    "town_kana": "カスガ",
    "street": "２丁目１０番１号",
    "office_name": "九州財務局",
    "office_name_kana": "キユウシユウザイムキヨク"
  },
  "8586": {
    "postcode": "8608586",
    "prefecture": "熊本県",
    "prefecture_kana": "クマモトケン",
    "prefecture_code": 43,
    "city": "熊本市中央区",
    "city_kana": "クマモトシチュウオウク",
    "town": "手取本町",
    "town_kana": "テトリホンチョウ",
    "street": "６番１号",
    "office_name": "株式会社　鶴屋百貨店",
    "office_name_kana": "カブシキガイシヤ ツルヤヒヤツカテン"
  },
  "8587": {
    "postcode": "8608587",
    "prefecture": "熊本県",
    "prefecture_kana": "クマモトケン",
    "prefecture_code": 43,
    "city": "熊本市中央区",
    "city_kana": "クマモトシチュウオウク",
    "town": "花畑町",
    "town_kana": "ハナバタチョウ",
    "street": "９番２４号",
    "office_name": "住友生命保険　相互会社　熊本支社",
    "office_name_kana": "スミトモセイメイホケン ソウゴガイシヤ クマモトシシヤ"
  },
  "8588": {
    "postcode": "8608588",
    "prefecture": "熊本県",
    "prefecture_kana": "クマモトケン",
    "prefecture_code": 43,
    "city": "熊本市中央区",
    "city_kana": "クマモトシチュウオウク",
    "town": "安政町",
    "town_kana": "アンセイマチ",
    "street": "１番２号",
    "office_name": "株式会社　カリーノ",
    "office_name_kana": "カブシキガイシヤ カリ-ノ"
  },
  "8601": {
    "postcode": "8608601",
    "prefecture": "熊本県",
    "prefecture_kana": "クマモトケン",
    "prefecture_code": 43,
    "city": "熊本市中央区",
    "city_kana": "クマモトシチュウオウク",
    "town": "手取本町",
    "town_kana": "テトリホンチョウ",
    "street": "１−１（熊本中央郵便局私書箱第１１０号）",
    "office_name": "熊本市役所",
    "office_name_kana": "クマモトシヤクシヨ"
  },
  "8602": {
    "postcode": "8608602",
    "prefecture": "熊本県",
    "prefecture_kana": "クマモトケン",
    "prefecture_code": 43,
    "city": "熊本市中央区",
    "city_kana": "クマモトシチュウオウク",
    "town": "花畑町",
    "town_kana": "ハナバタチョウ",
    "street": "５−１",
    "office_name": "日本放送協会　熊本放送局",
    "office_name_kana": "ニツポンホウソウキヨウカイ クマモトホウソウキヨク"
  },
  "8603": {
    "postcode": "8608603",
    "prefecture": "熊本県",
    "prefecture_kana": "クマモトケン",
    "prefecture_code": 43,
    "city": "熊本市西区",
    "city_kana": "クマモトシニシク",
    "town": "春日",
    "town_kana": "カスガ",
    "street": "２丁目１０番１号熊本地方合同庁舎Ｂ棟（熊本中央郵便局私書箱第１０１号）",
    "office_name": "熊本国税局",
    "office_name_kana": "クマモトコクゼイキヨク"
  },
  "8604": {
    "postcode": "8608604",
    "prefecture": "熊本県",
    "prefecture_kana": "クマモトケン",
    "prefecture_code": 43,
    "city": "熊本市中央区",
    "city_kana": "クマモトシチュウオウク",
    "town": "花畑町",
    "town_kana": "ハナバタチョウ",
    "street": "１２−３０（熊本中央郵便局私書箱第８１号）",
    "office_name": "野村證券　株式会社　熊本支店",
    "office_name_kana": "ノムラシヨウケン カブシキガイシヤ クマモトシテン"
  },
  "8605": {
    "postcode": "8608605",
    "prefecture": "熊本県",
    "prefecture_kana": "クマモトケン",
    "prefecture_code": 43,
    "city": "熊本市中央区",
    "city_kana": "クマモトシチュウオウク",
    "town": "中央街",
    "town_kana": "チュウオウガイ",
    "street": "２−１１（熊本中央郵便局私書箱第１６号）",
    "office_name": "日本生命保険　相互会社　熊本支社",
    "office_name_kana": "ニホンセイメイホケン ソウゴガイシヤ クマモトシシヤ"
  },
  "8606": {
    "postcode": "8608606",
    "prefecture": "熊本県",
    "prefecture_kana": "クマモトケン",
    "prefecture_code": 43,
    "city": "熊本市中央区",
    "city_kana": "クマモトシチュウオウク",
    "town": "花畑町",
    "town_kana": "ハナバタチョウ",
    "street": "１２−３（熊本中央郵便局私書箱第８４号）",
    "office_name": "株式会社　福岡銀行　熊本支店",
    "office_name_kana": "カブシキガイシヤ フクオカギンコウ クマモトシテン"
  },
  "8608": {
    "postcode": "8608608",
    "prefecture": "熊本県",
    "prefecture_kana": "クマモトケン",
    "prefecture_code": 43,
    "city": "熊本市中央区",
    "city_kana": "クマモトシチュウオウク",
    "town": "古川町",
    "town_kana": "フルカワマチ",
    "street": "１３番地",
    "office_name": "株式会社　古荘本店",
    "office_name_kana": "カブシキガイシヤ フルシヨウホンテン"
  },
  "8611": {
    "postcode": "8608611",
    "prefecture": "熊本県",
    "prefecture_kana": "クマモトケン",
    "prefecture_code": 43,
    "city": "熊本市中央区",
    "city_kana": "クマモトシチュウオウク",
    "town": "山崎町",
    "town_kana": "ヤマサキマチ",
    "street": "３０（熊本中央郵便局私書箱第８７号）",
    "office_name": "株式会社　熊本放送",
    "office_name_kana": "カブシキガイシヤ クマモトホウソウ"
  },
  "8615": {
    "postcode": "8608615",
    "prefecture": "熊本県",
    "prefecture_kana": "クマモトケン",
    "prefecture_code": 43,
    "city": "熊本市中央区",
    "city_kana": "クマモトシチュウオウク",
    "town": "練兵町",
    "town_kana": "レンペイチョウ",
    "street": "１番地（熊本中央郵便局私書箱第８号）",
    "office_name": "株式会社　肥後銀行",
    "office_name_kana": "カブシキガイシヤ ヒゴギンコウ"
  },
  "8618": {
    "postcode": "8608618",
    "prefecture": "熊本県",
    "prefecture_kana": "クマモトケン",
    "prefecture_code": 43,
    "city": "熊本市中央区",
    "city_kana": "クマモトシチュウオウク",
    "town": "手取本町",
    "town_kana": "テトリホンチョウ",
    "street": "１番１号",
    "office_name": "中央区役所",
    "office_name_kana": "チユオウクヤクシヨ"
  },
  "8619": {
    "postcode": "8608619",
    "prefecture": "熊本県",
    "prefecture_kana": "クマモトケン",
    "prefecture_code": 43,
    "city": "熊本市中央区",
    "city_kana": "クマモトシチュウオウク",
    "town": "草葉町",
    "town_kana": "クサバチョウ",
    "street": "４番２０号熊本富士火災熊本ビル（熊本中央郵便局私書箱第１２９号）",
    "office_name": "株式会社　九州しんきんクレジットサービス",
    "office_name_kana": "カブシキガイシヤ キユウシユウシンキンクレジツトサ-ビス"
  },
  "8622": {
    "postcode": "8608622",
    "prefecture": "熊本県",
    "prefecture_kana": "クマモトケン",
    "prefecture_code": 43,
    "city": "熊本市中央区",
    "city_kana": "クマモトシチュウオウク",
    "town": "坪井",
    "town_kana": "ツボイ",
    "street": "２丁目２−４２（熊本中央郵便局私書箱第１５７号）",
    "office_name": "株式会社　エヌシーくまもと",
    "office_name_kana": "カブシキガイシヤ エヌシ-クマモト"
  },
  "8624": {
    "postcode": "8608624",
    "prefecture": "熊本県",
    "prefecture_kana": "クマモトケン",
    "prefecture_code": 43,
    "city": "熊本市中央区",
    "city_kana": "クマモトシチュウオウク",
    "town": "二の丸",
    "town_kana": "ニノマル",
    "street": "１−４（熊本中央郵便局私書箱第５７号）",
    "office_name": "熊本西税務署",
    "office_name_kana": "クマモトニシゼイムシヨ"
  },
  "8625": {
    "postcode": "8608625",
    "prefecture": "熊本県",
    "prefecture_kana": "クマモトケン",
    "prefecture_code": 43,
    "city": "熊本市西区",
    "city_kana": "クマモトシニシク",
    "town": "花園",
    "town_kana": "ハナゾノ",
    "street": "１丁目２５−１（熊本中央郵便局私書箱第９６号）",
    "office_name": "熊本製粉　株式会社",
    "office_name_kana": "クマモトセイフン カブシキガイシヤ"
  },
  "8650": {
    "postcode": "8608650",
    "prefecture": "熊本県",
    "prefecture_kana": "クマモトケン",
    "prefecture_code": 43,
    "city": "熊本市中央区",
    "city_kana": "クマモトシチュウオウク",
    "town": "水道町",
    "town_kana": "スイドウチョウ",
    "street": "３−３７九特会館２階",
    "office_name": "財団法人　簡易保険加入者協会　九州地方本部",
    "office_name_kana": "ザイダンホウジン カンイホケンカニユウシヤキヨウカイ キユウシユウチホウホンブ"
  },
  "8655": {
    "postcode": "8608655",
    "prefecture": "熊本県",
    "prefecture_kana": "クマモトケン",
    "prefecture_code": 43,
    "city": "熊本市中央区",
    "city_kana": "クマモトシチュウオウク",
    "town": "手取本町",
    "town_kana": "テトリホンチョウ",
    "street": "２−１（熊本中央郵便局私書箱第２８号）",
    "office_name": "熊本信用金庫",
    "office_name_kana": "クマモトシンヨウキンコ"
  },
  "8660": {
    "postcode": "8608660",
    "prefecture": "熊本県",
    "prefecture_kana": "クマモトケン",
    "prefecture_code": 43,
    "city": "熊本市中央区",
    "city_kana": "クマモトシチュウオウク",
    "town": "城東町",
    "town_kana": "ジョウトウマチ",
    "street": "２−２３（熊本中央郵便局私書箱第１７号）",
    "office_name": "商工組合中央金庫　熊本支店",
    "office_name_kana": "シヨウコウクミアイチユウオウキンコ クマモトシテン"
  },
  "8668": {
    "postcode": "8608668",
    "prefecture": "熊本県",
    "prefecture_kana": "クマモトケン",
    "prefecture_code": 43,
    "city": "熊本市中央区",
    "city_kana": "クマモトシチュウオウク",
    "town": "桜町",
    "town_kana": "サクラマチ",
    "street": "３番２２号",
    "office_name": "株式会社　県民百貨店",
    "office_name_kana": "カブシキガイシヤ ケンミンヒヤツカテン"
  },
  "8681": {
    "postcode": "8608681",
    "prefecture": "熊本県",
    "prefecture_kana": "クマモトケン",
    "prefecture_code": 43,
    "city": "熊本市中央区",
    "city_kana": "クマモトシチュウオウク",
    "town": "花畑町",
    "town_kana": "ハナバタチョウ",
    "street": "１０−２９（熊本中央郵便局私書箱第７１号）",
    "office_name": "熊本第一信用金庫",
    "office_name_kana": "クマモトダイイチシンヨウキンコ"
  },
  "8686": {
    "postcode": "8608686",
    "prefecture": "熊本県",
    "prefecture_kana": "クマモトケン",
    "prefecture_code": 43,
    "city": "熊本市中央区",
    "city_kana": "クマモトシチュウオウク",
    "town": "安政町",
    "town_kana": "アンセイマチ",
    "street": "６−５（熊本中央郵便局私書箱第１３９号）",
    "office_name": "株式会社　日専連ファイナンス",
    "office_name_kana": "カブシキガイシヤ ニツセンレンフアイナンス"
  },
  "8688": {
    "postcode": "8608688",
    "prefecture": "熊本県",
    "prefecture_kana": "クマモトケン",
    "prefecture_code": 43,
    "city": "熊本市中央区",
    "city_kana": "クマモトシチュウオウク",
    "town": "辛島町",
    "town_kana": "カラシマチョウ",
    "street": "５−１（熊本中央郵便局私書箱第１２０号）",
    "office_name": "大和証券　株式会社　熊本支店",
    "office_name_kana": "ダイワシヨウケン カブシキガイシヤ クマモトシテン"
  },
  "8739": {
    "postcode": "8608739",
    "prefecture": "熊本県",
    "prefecture_kana": "クマモトケン",
    "prefecture_code": 43,
    "city": "熊本市中央区",
    "city_kana": "クマモトシチュウオウク",
    "town": "段山本町",
    "town_kana": "ダニヤマホンマチ",
    "street": "４−１",
    "office_name": "熊本ＹＭＣＡ",
    "office_name_kana": "クマモトワイエムシ-エ-"
  },
  "8792": {
    "postcode": "8608792",
    "prefecture": "熊本県",
    "prefecture_kana": "クマモトケン",
    "prefecture_code": 43,
    "city": "熊本市西区",
    "city_kana": "クマモトシニシク",
    "town": "春日",
    "town_kana": "カスガ",
    "street": "５丁目１７番９号",
    "office_name": "九州物流センター",
    "office_name_kana": "キユウシユウブツリユウセンタ-"
  },
  "8795": {
    "postcode": "8608795",
    "prefecture": "熊本県",
    "prefecture_kana": "クマモトケン",
    "prefecture_code": 43,
    "city": "熊本市西区",
    "city_kana": "クマモトシニシク",
    "town": "春日",
    "town_kana": "カスガ",
    "street": "２丁目１０番１号",
    "office_name": "総務省　九州総合通信局",
    "office_name_kana": "ソウムシヨウ キユウシユウソウゴウツウシンキヨク"
  },
  "8796": {
    "postcode": "8608796",
    "prefecture": "熊本県",
    "prefecture_kana": "クマモトケン",
    "prefecture_code": 43,
    "city": "熊本市中央区",
    "city_kana": "クマモトシチュウオウク",
    "town": "城東町",
    "town_kana": "ジョウトウマチ",
    "street": "１−１",
    "office_name": "熊本監査室",
    "office_name_kana": "クマモトカンサシツ"
  },
  "8797": [
    {
      "postcode": "8608797",
      "prefecture": "熊本県",
      "prefecture_kana": "クマモトケン",
      "prefecture_code": 43,
      "city": "熊本市中央区",
      "city_kana": "クマモトシチュウオウク",
      "town": "城東町",
      "town_kana": "ジョウトウマチ",
      "street": "１番１号",
      "office_name": "株式会社　ゆうちょ銀行　熊本支店",
      "office_name_kana": "カブシキカイシヤ ユウチヨギンコウ クマモトシテン"
    },
    {
      "postcode": "8608797",
      "prefecture": "熊本県",
      "prefecture_kana": "クマモトケン",
      "prefecture_code": 43,
      "city": "熊本市中央区",
      "city_kana": "クマモトシチュウオウク",
      "town": "城東町",
      "town_kana": "ジョウトウマチ",
      "street": "１番１号",
      "office_name": "株式会社　かんぽ生命　熊本支店",
      "office_name_kana": "カブシキガイシヤ カンポセイメイ クマモトシテン"
    },
    {
      "postcode": "8608797",
      "prefecture": "熊本県",
      "prefecture_kana": "クマモトケン",
      "prefecture_code": 43,
      "city": "熊本市中央区",
      "city_kana": "クマモトシチュウオウク",
      "town": "城東町",
      "town_kana": "ジョウトウマチ",
      "street": "１−１",
      "office_name": "日本郵便　株式会社　九州支社",
      "office_name_kana": "ニホンユウビン カブシキガイシヤ キユウシユウシシヤ"
    }
  ]
}