{
  "0001": {
    "postcode": "8700001",
    "prefecture": "大分県",
    "prefecture_kana": "オオイタケン",
    "prefecture_code": 44,
    "city": "大分市",
    "city_kana": "オオイタシ",
    "town": "生石港町",
    "town_kana": "イクシミナトマチ",
    "street": null,
    "office_name": null,
    "office_name_kana": null
  },
  "0002": {
    "postcode": "8700002",
    "prefecture": "大分県",
    "prefecture_kana": "オオイタケン",
    "prefecture_code": 44,
    "city": "大分市",
    "city_kana": "オオイタシ",
    "town": "浜の市",
    "town_kana": "ハマノイチ",
    "street": null,
    "office_name": null,
    "office_name_kana": null
  },
  "0003": {
    "postcode": "8700003",
    "prefecture": "大分県",
    "prefecture_kana": "オオイタケン",
    "prefecture_code": 44,
    "city": "大分市",
    "city_kana": "オオイタシ",
    "town": "生石",
    "town_kana": "イクシ",
    "street": null,
    "office_name": null,
    "office_name_kana": null
  },
  "0004": {
    "postcode": "8700004",
    "prefecture": "大分県",
    "prefecture_kana": "オオイタケン",
    "prefecture_code": 44,
    "city": "大分市",
    "city_kana": "オオイタシ",
    "town": "王子港町",
    "town_kana": "オウジミナトマチ",
    "street": null,
    "office_name": null,
    "office_name_kana": null
  },
  "0005": {
    "postcode": "8700005",
    "prefecture": "大分県",
    "prefecture_kana": "オオイタケン",
    "prefecture_code": 44,
    "city": "大分市",
    "city_kana": "オオイタシ",
    "town": "王子北町",
    "town_kana": "オウジキタマチ",
    "street": null,
    "office_name": null,
    "office_name_kana": null
  },
  "0006": {
    "postcode": "8700006",
    "prefecture": "大分県",
    "prefecture_kana": "オオイタケン",
    "prefecture_code": 44,
    "city": "大分市",
    "city_kana": "オオイタシ",
    "town": "王子中町",
    "town_kana": "オウジナカマチ",
    "street": null,
    "office_name": null,
    "office_name_kana": null
  },
  "0007": {
    "postcode": "8700007",
    "prefecture": "大分県",
    "prefecture_kana": "オオイタケン",
    "prefecture_code": 44,
    "city": "大分市",
    "city_kana": "オオイタシ",
    "town": "王子南町",
    "town_kana": "オウジミナミマチ",
    "street": null,
    "office_name": null,
    "office_name_kana": null
  },
  "0008": {
    "postcode": "8700008",
    "prefecture": "大分県",
    "prefecture_kana": "オオイタケン",
    "prefecture_code": 44,
    "city": "大分市",
    "city_kana": "オオイタシ",
    "town": "王子西町",
    "town_kana": "オウジニシマチ",
    "street": null,
    "office_name": null,
    "office_name_kana": null
  },
  "0009": {
    "postcode": "8700009",
    "prefecture": "大分県",
    "prefecture_kana": "オオイタケン",
    "prefecture_code": 44,
    "city": "大分市",
    "city_kana": "オオイタシ",
    "town": "王子町",
    "town_kana": "オウジマチ",
    "street": null,
    "office_name": null,
    "office_name_kana": null
  },
  "0011": {
    "postcode": "8700011",
    "prefecture": "大分県",
    "prefecture_kana": "オオイタケン",
    "prefecture_code": 44,
    "city": "大分市",
    "city_kana": "オオイタシ",
    "town": "春日浦",
    "town_kana": "カスガウラ",
    "street": null,
    "office_name": null,
    "office_name_kana": null
  },
  "0012": {
    "postcode": "8700012",
    "prefecture": "大分県",
    "prefecture_kana": "オオイタケン",
    "prefecture_code": 44,
    "city": "大分市",
    "city_kana": "オオイタシ",
    "town": "浜町北",
    "town_kana": "ハママチキタ",
    "street": null,
    "office_name": null,
    "office_name_kana": null
  },
  "0013": {
    "postcode": "8700013",
    "prefecture": "大分県",
    "prefecture_kana": "オオイタケン",
    "prefecture_code": 44,
    "city": "大分市",
    "city_kana": "オオイタシ",
    "town": "浜町東",
    "town_kana": "ハママチヒガシ",
    "street": null,
    "office_name": null,
    "office_name_kana": null
  },
  "0014": {
    "postcode": "8700014",
    "prefecture": "大分県",
    "prefecture_kana": "オオイタケン",
    "prefecture_code": 44,
    "city": "大分市",
    "city_kana": "オオイタシ",
    "town": "芦崎",
    "town_kana": "アシザキ",
    "street": null,
    "office_name": null,
    "office_name_kana": null
  },
  "0015": {
    "postcode": "8700015",
    "prefecture": "大分県",
    "prefecture_kana": "オオイタケン",
    "prefecture_code": 44,
    "city": "大分市",
    "city_kana": "オオイタシ",
    "town": "新川西",
    "town_kana": "シンカワニシ",
    "street": null,
    "office_name": null,
    "office_name_kana": null
  },
  "0016": {
    "postcode": "8700016",
    "prefecture": "大分県",
    "prefecture_kana": "オオイタケン",
    "prefecture_code": 44,
    "city": "大分市",
    "city_kana": "オオイタシ",
    "town": "新川町",
    "town_kana": "シンカワマチ",
    "street": null,
    "office_name": null,
    "office_name_kana": null
  },
  "0017": {
    "postcode": "8700017",
    "prefecture": "大分県",
    "prefecture_kana": "オオイタケン",
    "prefecture_code": 44,
    "city": "大分市",
    "city_kana": "オオイタシ",
    "town": "弁天",
    "town_kana": "ベンテン",
    "street": null,
    "office_name": null,
    "office_name_kana": null
  },
  "0018": {
    "postcode": "8700018",
    "prefecture": "大分県",
    "prefecture_kana": "オオイタケン",
    "prefecture_code": 44,
    "city": "大分市",
    "city_kana": "オオイタシ",
    "town": "豊海",
    "town_kana": "トヨミ",
    "street": null,
    "office_name": null,
    "office_name_kana": null
  },
  "0021": {
    "postcode": "8700021",
    "prefecture": "大分県",
    "prefecture_kana": "オオイタケン",
    "prefecture_code": 44,
    "city": "大分市",
    "city_kana": "オオイタシ",
    "town": "府内町",
    "town_kana": "フナイマチ",
    "street": null,
    "office_name": null,
    "office_name_kana": null
  },
  "0022": {
    "postcode": "8700022",
    "prefecture": "大分県",
    "prefecture_kana": "オオイタケン",
    "prefecture_code": 44,
    "city": "大分市",
    "city_kana": "オオイタシ",
    "town": "大手町",
    "town_kana": "オオテマチ",
    "street": null,
    "office_name": null,
    "office_name_kana": null
  },
  "0023": {
    "postcode": "8700023",
    "prefecture": "大分県",
    "prefecture_kana": "オオイタケン",
    "prefecture_code": 44,
    "city": "大分市",
    "city_kana": "オオイタシ",
    "town": "長浜町",
    "town_kana": "ナガハママチ",
    "street": null,
    "office_name": null,
    "office_name_kana": null
  },
  "0024": {
    "postcode": "8700024",
    "prefecture": "大分県",
    "prefecture_kana": "オオイタケン",
    "prefecture_code": 44,
    "city": "大分市",
    "city_kana": "オオイタシ",
    "town": "錦町",
    "town_kana": "ニシキマチ",
    "street": null,
    "office_name": null,
    "office_name_kana": null
  },
  "0025": {
    "postcode": "8700025",
    "prefecture": "大分県",
    "prefecture_kana": "オオイタケン",
    "prefecture_code": 44,
    "city": "大分市",
    "city_kana": "オオイタシ",
    "town": "顕徳町",
    "town_kana": "ケントクマチ",
    "street": null,
    "office_name": null,
    "office_name_kana": null
  },
  "0026": {
    "postcode": "8700026",
    "prefecture": "大分県",
    "prefecture_kana": "オオイタケン",
    "prefecture_code": 44,
    "city": "大分市",
    "city_kana": "オオイタシ",
    "town": "金池町",
    "town_kana": "カナイケマチ",
    "street": null,
    "office_name": null,
    "office_name_kana": null
  },
  "0027": {
    "postcode": "8700027",
    "prefecture": "大分県",
    "prefecture_kana": "オオイタケン",
    "prefecture_code": 44,
    "city": "大分市",
    "city_kana": "オオイタシ",
    "town": "末広町",
    "town_kana": "スエヒロマチ",
    "street": null,
    "office_name": null,
    "office_name_kana": null
  },
  "0028": {
    "postcode": "8700028",
    "prefecture": "大分県",
    "prefecture_kana": "オオイタケン",
    "prefecture_code": 44,
    "city": "大分市",
    "city_kana": "オオイタシ",
    "town": "新町",
    "town_kana": "シンマチ",
    "street": null,
    "office_name": null,
    "office_name_kana": null
  },
  "0029": {
    "postcode": "8700029",
    "prefecture": "大分県",
    "prefecture_kana": "オオイタケン",
    "prefecture_code": 44,
    "city": "大分市",
    "city_kana": "オオイタシ",
    "town": "高砂町",
    "town_kana": "タカサゴマチ",
    "street": null,
    "office_name": null,
    "office_name_kana": null
  },
  "0030": {
    "postcode": "8700030",
    "prefecture": "大分県",
    "prefecture_kana": "オオイタケン",
    "prefecture_code": 44,
    "city": "大分市",
    "city_kana": "オオイタシ",
    "town": "三芳",
    "town_kana": "ミヨシ",
    "street": null,
    "office_name": null,
    "office_name_kana": null
  },
  "0031": {
    "postcode": "8700031",
    "prefecture": "大分県",
    "prefecture_kana": "オオイタケン",
    "prefecture_code": 44,
    "city": "大分市",
    "city_kana": "オオイタシ",
    "town": "勢家町",
    "town_kana": "セイケマチ",
    "street": null,
    "office_name": null,
    "office_name_kana": null
  },
  "0032": {
    "postcode": "8700032",
    "prefecture": "大分県",
    "prefecture_kana": "オオイタケン",
    "prefecture_code": 44,
    "city": "大分市",
    "city_kana": "オオイタシ",
    "town": "住吉町",
    "town_kana": "スミヨシマチ",
    "street": null,
    "office_name": null,
    "office_name_kana": null
  },
  "0033": {
    "postcode": "8700033",
    "prefecture": "大分県",
    "prefecture_kana": "オオイタケン",
    "prefecture_code": 44,
    "city": "大分市",
    "city_kana": "オオイタシ",
    "town": "千代町",
    "town_kana": "チヨマチ",
    "street": null,
    "office_name": null,
    "office_name_kana": null
  },
  "0034": {
    "postcode": "8700034",
    "prefecture": "大分県",
    "prefecture_kana": "オオイタケン",
    "prefecture_code": 44,
    "city": "大分市",
    "city_kana": "オオイタシ",
    "town": "都町",
    "town_kana": "ミヤコマチ",
    "street": null,
    "office_name": null,
    "office_name_kana": null
  },
  "0035": {
    "postcode": "8700035",
    "prefecture": "大分県",
    "prefecture_kana": "オオイタケン",
    "prefecture_code": 44,
    "city": "大分市",
    "city_kana": "オオイタシ",
    "town": "中央町",
    "town_kana": "チュウオウマチ",
    "street": null,
    "office_name": null,
    "office_name_kana": null
  },
  "0036": {
    "postcode": "8700036",
    "prefecture": "大分県",
    "prefecture_kana": "オオイタケン",
    "prefecture_code": 44,
    "city": "大分市",
    "city_kana": "オオイタシ",
    "town": "寿町",
    "town_kana": "コトブキマチ",
    "street": null,
    "office_name": null,
    "office_name_kana": null
  },
  "0037": {
    "postcode": "8700037",
    "prefecture": "大分県",
    "prefecture_kana": "オオイタケン",
    "prefecture_code": 44,
    "city": "大分市",
    "city_kana": "オオイタシ",
    "town": "東春日町",
    "town_kana": "ヒガシカスガマチ",
    "street": null,
    "office_name": null,
    "office_name_kana": null
  },
  "0038": {
    "postcode": "8700038",
    "prefecture": "大分県",
    "prefecture_kana": "オオイタケン",
    "prefecture_code": 44,
    "city": "大分市",
    "city_kana": "オオイタシ",
    "town": "西春日町",
    "town_kana": "ニシカスガマチ",
    "street": null,
    "office_name": null,
    "office_name_kana": null
  },
  "0039": {
    "postcode": "8700039",
    "prefecture": "大分県",
    "prefecture_kana": "オオイタケン",
    "prefecture_code": 44,
    "city": "大分市",
    "city_kana": "オオイタシ",
    "town": "中春日町",
    "town_kana": "ナカカスガマチ",
    "street": null,
    "office_name": null,
    "office_name_kana": null
  },
  "0041": {
    "postcode": "8700041",
    "prefecture": "大分県",
    "prefecture_kana": "オオイタケン",
    "prefecture_code": 44,
    "city": "大分市",
    "city_kana": "オオイタシ",
    "town": "泉町",
    "town_kana": "イズミマチ",
    "street": null,
    "office_name": null,
    "office_name_kana": null
  },
  "0042": {
    "postcode": "8700042",
    "prefecture": "大分県",
    "prefecture_kana": "オオイタケン",
    "prefecture_code": 44,
    "city": "大分市",
    "city_kana": "オオイタシ",
    "town": "豊町",
    "town_kana": "ユタカマチ",
    "street": null,
    "office_name": null,
    "office_name_kana": null
  },
  "0043": {
    "postcode": "8700043",
    "prefecture": "大分県",
    "prefecture_kana": "オオイタケン",
    "prefecture_code": 44,
    "city": "大分市",
    "city_kana": "オオイタシ",
    "town": "中島東",
    "town_kana": "ナカシマヒガシ",
    "street": null,
    "office_name": null,
    "office_name_kana": null
  },
  "0044": {
    "postcode": "8700044",
    "prefecture": "大分県",
    "prefecture_kana": "オオイタケン",
    "prefecture_code": 44,
    "city": "大分市",
    "city_kana": "オオイタシ",
    "town": "舞鶴町",
    "town_kana": "マイヅルマチ",
    "street": null,
    "office_name": null,
    "office_name_kana": null
  },
  "0045": {
    "postcode": "8700045",
    "prefecture": "大分県",
    "prefecture_kana": "オオイタケン",
    "prefecture_code": 44,
    "city": "大分市",
    "city_kana": "オオイタシ",
    "town": "城崎町",
    "town_kana": "シロサキマチ",
    "street": null,
    "office_name": null,
    "office_name_kana": null
  },
  "0046": {
    "postcode": "8700046",
    "prefecture": "大分県",
    "prefecture_kana": "オオイタケン",
    "prefecture_code": 44,
    "city": "大分市",
    "city_kana": "オオイタシ",
    "town": "荷揚町",
    "town_kana": "ニアゲマチ",
    "street": null,
    "office_name": null,
    "office_name_kana": null
  },
  "0047": {
    "postcode": "8700047",
    "prefecture": "大分県",
    "prefecture_kana": "オオイタケン",
    "prefecture_code": 44,
    "city": "大分市",
    "city_kana": "オオイタシ",
    "town": "中島西",
    "town_kana": "ナカシマニシ",
    "street": null,
    "office_name": null,
    "office_name_kana": null
  },
  "0048": {
    "postcode": "8700048",
    "prefecture": "大分県",
    "prefecture_kana": "オオイタケン",
    "prefecture_code": 44,
    "city": "大分市",
    "city_kana": "オオイタシ",
    "town": "碩田町",
    "town_kana": "セキデンマチ",
    "street": null,
    "office_name": null,
    "office_name_kana": null
  },
  "0049": {
    "postcode": "8700049",
    "prefecture": "大分県",
    "prefecture_kana": "オオイタケン",
    "prefecture_code": 44,
    "city": "大分市",
    "city_kana": "オオイタシ",
    "town": "中島中央",
    "town_kana": "ナカシマチュウオウ",
    "street": null,
    "office_name": null,
    "office_name_kana": null
  },
  "0100": {
    "postcode": "8700100",
    "prefecture": "大分県",
    "prefecture_kana": "オオイタケン",
    "prefecture_code": 44,
    "city": "大分市",
    "city_kana": "オオイタシ",
    "town": "",
    "town_kana": "",
    "street": null,
    "office_name": null,
    "office_name_kana": null
  },
  "0101": {
    "postcode": "8700101",
    "prefecture": "大分県",
    "prefecture_kana": "オオイタケン",
    "prefecture_code": 44,
    "city": "大分市",
    "city_kana": "オオイタシ",
    "town": "中鶴崎",
    "town_kana": "ナカツルサキ",
    "street": null,
    "office_name": null,
    "office_name_kana": null
  },
  "0102": {
    "postcode": "8700102",
    "prefecture": "大分県",
    "prefecture_kana": "オオイタケン",
    "prefecture_code": 44,
    "city": "大分市",
    "city_kana": "オオイタシ",
    "town": "北鶴崎",
    "town_kana": "キタツルサキ",
    "street": null,
    "office_name": null,
    "office_name_kana": null
  },
  "0103": {
    "postcode": "8700103",
    "prefecture": "大分県",
    "prefecture_kana": "オオイタケン",
    "prefecture_code": 44,
    "city": "大分市",
    "city_kana": "オオイタシ",
    "town": "東鶴崎",
    "town_kana": "ヒガシツルサキ",
    "street": null,
    "office_name": null,
    "office_name_kana": null
  },
  "0104": {
    "postcode": "8700104",
    "prefecture": "大分県",
    "prefecture_kana": "オオイタケン",
    "prefecture_code": 44,
    "city": "大分市",
    "city_kana": "オオイタシ",
    "town": "南鶴崎",
    "town_kana": "ミナミツルサキ",
    "street": null,
    "office_name": null,
    "office_name_kana": null
  },
  "0105": {
    "postcode": "8700105",
    "prefecture": "大分県",
    "prefecture_kana": "オオイタケン",
    "prefecture_code": 44,
    "city": "大分市",
    "city_kana": "オオイタシ",
    "town": "西鶴崎",
    "town_kana": "ニシツルサキ",
    "street": null,
    "office_name": null,
    "office_name_kana": null
  },
  "0106": {
    "postcode": "8700106",
    "prefecture": "大分県",
    "prefecture_kana": "オオイタケン",
    "prefecture_code": 44,
    "city": "大分市",
    "city_kana": "オオイタシ",
    "town": "鶴崎",
    "town_kana": "ツルサキ",
    "street": null,
    "office_name": null,
    "office_name_kana": null
  },
  "0107": {
    "postcode": "8700107",
    "prefecture": "大分県",
    "prefecture_kana": "オオイタケン",
    "prefecture_code": 44,
    "city": "大分市",
    "city_kana": "オオイタシ",
    "town": "海原",
    "town_kana": "カイワラ",
    "street": null,
    "office_name": null,
    "office_name_kana": null
  },
  "0108": {
    "postcode": "8700108",
    "prefecture": "大分県",
    "prefecture_kana": "オオイタケン",
    "prefecture_code": 44,
    "city": "大分市",
    "city_kana": "オオイタシ",
    "town": "三佐",
    "town_kana": "ミサ",
    "street": null,
    "office_name": null,
    "office_name_kana": null
  },
  "0109": {
    "postcode": "8700109",
    "prefecture": "大分県",
    "prefecture_kana": "オオイタケン",
    "prefecture_code": 44,
    "city": "大分市",
    "city_kana": "オオイタシ",
    "town": "徳島",
    "town_kana": "トクシマ",
    "street": null,
    "office_name": null,
    "office_name_kana": null
  },
  "0111": {
    "postcode": "8700111",
    "prefecture": "大分県",
    "prefecture_kana": "オオイタケン",
    "prefecture_code": 44,
    "city": "大分市",
    "city_kana": "オオイタシ",
    "town": "中ノ洲",
    "town_kana": "ナカノス",
    "street": null,
    "office_name": null,
    "office_name_kana": null
  },
  "0112": {
    "postcode": "8700112",
    "prefecture": "大分県",
    "prefecture_kana": "オオイタケン",
    "prefecture_code": 44,
    "city": "大分市",
    "city_kana": "オオイタシ",
    "town": "一の洲",
    "town_kana": "イチノス",
    "street": null,
    "office_name": null,
    "office_name_kana": null
  },
  "0113": {
    "postcode": "8700113",
    "prefecture": "大分県",
    "prefecture_kana": "オオイタケン",
    "prefecture_code": 44,
    "city": "大分市",
    "city_kana": "オオイタシ",
    "town": "家島",
    "town_kana": "イエジマ",
    "street": null,
    "office_name": null,
    "office_name_kana": null
  },
  "0114": {
    "postcode": "8700114",
    "prefecture": "大分県",
    "prefecture_kana": "オオイタケン",
    "prefecture_code": 44,
    "city": "大分市",
    "city_kana": "オオイタシ",
    "town": "小中島",
    "town_kana": "オナカシマ",
    "street": null,
    "office_name": null,
    "office_name_kana": null
  },
  "0115": {
    "postcode": "8700115",
    "prefecture": "大分県",
    "prefecture_kana": "オオイタケン",
    "prefecture_code": 44,
    "city": "大分市",
    "city_kana": "オオイタシ",
    "town": "関園",
    "town_kana": "セキゾノ",
    "street": null,
    "office_name": null,
    "office_name_kana": null
  },
  "0116": {
    "postcode": "8700116",
    "prefecture": "大分県",
    "prefecture_kana": "オオイタケン",
    "prefecture_code": 44,
    "city": "大分市",
    "city_kana": "オオイタシ",
    "town": "常行",
    "town_kana": "ツネユキ",
    "street": null,
    "office_name": null,
    "office_name_kana": null
  },
  "0117": {
    "postcode": "8700117",
    "prefecture": "大分県",
    "prefecture_kana": "オオイタケン",
    "prefecture_code": 44,
    "city": "大分市",
    "city_kana": "オオイタシ",
    "town": "南",
    "town_kana": "ミナミ",
    "street": null,
    "office_name": null,
    "office_name_kana": null
  },
  "0118": {
    "postcode": "8700118",
    "prefecture": "大分県",
    "prefecture_kana": "オオイタケン",
    "prefecture_code": 44,
    "city": "大分市",
    "city_kana": "オオイタシ",
    "town": "下徳丸",
    "town_kana": "シモトクマル",
    "street": null,
    "office_name": null,
    "office_name_kana": null
  },
  "0120": {
    "postcode": "8700120",
    "prefecture": "大分県",
    "prefecture_kana": "オオイタケン",
    "prefecture_code": 44,
    "city": "大分市",
    "city_kana": "オオイタシ",
    "town": "鶴崎コスモス団地",
    "town_kana": "ツルサキコスモスダンチ",
    "street": null,
    "office_name": null,
    "office_name_kana": null
  },
  "0121": {
    "postcode": "8700121",
    "prefecture": "大分県",
    "prefecture_kana": "オオイタケン",
    "prefecture_code": 44,
    "city": "大分市",
    "city_kana": "オオイタシ",
    "town": "鶴瀬",
    "town_kana": "ツルセ",
    "street": null,
    "office_name": null,
    "office_name_kana": null
  },
  "0122": {
    "postcode": "8700122",
    "prefecture": "大分県",
    "prefecture_kana": "オオイタケン",
    "prefecture_code": 44,
    "city": "大分市",
    "city_kana": "オオイタシ",
    "town": "丸亀",
    "town_kana": "マルガメ",
    "street": null,
    "office_name": null,
    "office_name_kana": null
  },
  "0123": {
    "postcode": "8700123",
    "prefecture": "大分県",
    "prefecture_kana": "オオイタケン",
    "prefecture_code": 44,
    "city": "大分市",
    "city_kana": "オオイタシ",
    "town": "大津留",
    "town_kana": "オオツル",
    "street": null,
    "office_name": null,
    "office_name_kana": null
  },
  "0124": {
    "postcode": "8700124",
    "prefecture": "大分県",
    "prefecture_kana": "オオイタケン",
    "prefecture_code": 44,
    "city": "大分市",
    "city_kana": "オオイタシ",
    "town": "毛井",
    "town_kana": "ケイ",
    "street": null,
    "office_name": null,
    "office_name_kana": null
  },
  "0125": {
    "postcode": "8700125",
    "prefecture": "大分県",
    "prefecture_kana": "オオイタケン",
    "prefecture_code": 44,
    "city": "大分市",
    "city_kana": "オオイタシ",
    "town": "松岡",
    "town_kana": "マツオカ",
    "street": null,
    "office_name": null,
    "office_name_kana": null
  },
  "0126": {
    "postcode": "8700126",
    "prefecture": "大分県",
    "prefecture_kana": "オオイタケン",
    "prefecture_code": 44,
    "city": "大分市",
    "city_kana": "オオイタシ",
    "town": "横尾",
    "town_kana": "ヨコオ",
    "street": null,
    "office_name": null,
    "office_name_kana": null
  },
  "0127": {
    "postcode": "8700127",
    "prefecture": "大分県",
    "prefecture_kana": "オオイタケン",
    "prefecture_code": 44,
    "city": "大分市",
    "city_kana": "オオイタシ",
    "town": "森町",
    "town_kana": "モリマチ",
    "street": null,
    "office_name": null,
    "office_name_kana": null
  },
  "0128": {
    "postcode": "8700128",
    "prefecture": "大分県",
    "prefecture_kana": "オオイタケン",
    "prefecture_code": 44,
    "city": "大分市",
    "city_kana": "オオイタシ",
    "town": "森",
    "town_kana": "モリ",
    "street": null,
    "office_name": null,
    "office_name_kana": null
  },
  "0129": {
    "postcode": "8700129",
    "prefecture": "大分県",
    "prefecture_kana": "オオイタケン",
    "prefecture_code": 44,
    "city": "大分市",
    "city_kana": "オオイタシ",
    "town": "京が丘南",
    "town_kana": "キョウガオカミナミ",
    "street": null,
    "office_name": null,
    "office_name_kana": null
  },
  "0130": {
    "postcode": "8700130",
    "prefecture": "大分県",
    "prefecture_kana": "オオイタケン",
    "prefecture_code": 44,
    "city": "大分市",
    "city_kana": "オオイタシ",
    "town": "横尾東町",
    "town_kana": "ヨコオヒガシマチ",
    "street": null,
    "office_name": null,
    "office_name_kana": null
  },
  "0131": {
    "postcode": "8700131",
    "prefecture": "大分県",
    "prefecture_kana": "オオイタケン",
    "prefecture_code": 44,
    "city": "大分市",
    "city_kana": "オオイタシ",
    "town": "皆春",
    "town_kana": "ミナハル",
    "street": null,
    "office_name": null,
    "office_name_kana": null
  },
  "0132": {
    "postcode": "8700132",
    "prefecture": "大分県",
    "prefecture_kana": "オオイタケン",
    "prefecture_code": 44,
    "city": "大分市",
    "city_kana": "オオイタシ",
    "town": "千歳",
    "town_kana": "センザイ",
    "street": null,
    "office_name": null,
    "office_name_kana": null
  },
  "0133": {
    "postcode": "8700133",
    "prefecture": "大分県",
    "prefecture_kana": "オオイタケン",
    "prefecture_code": 44,
    "city": "大分市",
    "city_kana": "オオイタシ",
    "town": "葛木",
    "town_kana": "カツラギ",
    "street": null,
    "office_name": null,
    "office_name_kana": null
  },
  "0134": {
    "postcode": "8700134",
    "prefecture": "大分県",
    "prefecture_kana": "オオイタケン",
    "prefecture_code": 44,
    "city": "大分市",
    "city_kana": "オオイタシ",
    "town": "猪野",
    "town_kana": "イノ",
    "street": null,
    "office_name": null,
    "office_name_kana": null
  },
  "0135": {
    "postcode": "8700135",
    "prefecture": "大分県",
    "prefecture_kana": "オオイタケン",
    "prefecture_code": 44,
    "city": "大分市",
    "city_kana": "オオイタシ",
    "town": "仲西町",
    "town_kana": "ナカニシマチ",
    "street": null,
    "office_name": null,
    "office_name_kana": null
  },
  "0136": {
    "postcode": "8700136",
    "prefecture": "大分県",
    "prefecture_kana": "オオイタケン",
    "prefecture_code": 44,
    "city": "大分市",
    "city_kana": "オオイタシ",
    "town": "山津町",
    "town_kana": "ヤマヅマチ",
    "street": null,
    "office_name": null,
    "office_name_kana": null
  },
  "0137": {
    "postcode": "8700137",
    "prefecture": "大分県",
    "prefecture_kana": "オオイタケン",
    "prefecture_code": 44,
    "city": "大分市",
    "city_kana": "オオイタシ",
    "town": "寺崎町",
    "town_kana": "テラサキマチ",
    "street": null,
    "office_name": null,
    "office_name_kana": null
  },
  "0138": {
    "postcode": "8700138",
    "prefecture": "大分県",
    "prefecture_kana": "オオイタケン",
    "prefecture_code": 44,
    "city": "大分市",
    "city_kana": "オオイタシ",
    "town": "原川",
    "town_kana": "ハルカワ",
    "street": null,
    "office_name": null,
    "office_name_kana": null
  },
  "0139": {
    "postcode": "8700139",
    "prefecture": "大分県",
    "prefecture_kana": "オオイタケン",
    "prefecture_code": 44,
    "city": "大分市",
    "city_kana": "オオイタシ",
    "town": "桃園団地",
    "town_kana": "モモゾノダンチ",
    "street": null,
    "office_name": null,
    "office_name_kana": null
  },
  "0140": {
    "postcode": "8700140",
    "prefecture": "大分県",
    "prefecture_kana": "オオイタケン",
    "prefecture_code": 44,
    "city": "大分市",
    "city_kana": "オオイタシ",
    "town": "森町西",
    "town_kana": "モリマチニシ",
    "street": null,
    "office_name": null,
    "office_name_kana": null
  },
  "0141": {
    "postcode": "8700141",
    "prefecture": "大分県",
    "prefecture_kana": "オオイタケン",
    "prefecture_code": 44,
    "city": "大分市",
    "city_kana": "オオイタシ",
    "town": "三川新町",
    "town_kana": "ミツガワシンマチ",
    "street": null,
    "office_name": null,
    "office_name_kana": null
  },
  "0142": {
    "postcode": "8700142",
    "prefecture": "大分県",
    "prefecture_kana": "オオイタケン",
    "prefecture_code": 44,
    "city": "大分市",
    "city_kana": "オオイタシ",
    "town": "三川下",
    "town_kana": "ミツガワシモ",
    "street": null,
    "office_name": null,
    "office_name_kana": null
  },
  "0143": {
    "postcode": "8700143",
    "prefecture": "大分県",
    "prefecture_kana": "オオイタケン",
    "prefecture_code": 44,
    "city": "大分市",
    "city_kana": "オオイタシ",
    "town": "三川上",
    "town_kana": "ミツガワカミ",
    "street": null,
    "office_name": null,
    "office_name_kana": null
  },
  "0144": {
    "postcode": "8700144",
    "prefecture": "大分県",
    "prefecture_kana": "オオイタケン",
    "prefecture_code": 44,
    "city": "大分市",
    "city_kana": "オオイタシ",
    "town": "乙津",
    "town_kana": "オトヅ",
    "street": null,
    "office_name": null,
    "office_name_kana": null
  },
  "0145": {
    "postcode": "8700145",
    "prefecture": "大分県",
    "prefecture_kana": "オオイタケン",
    "prefecture_code": 44,
    "city": "大分市",
    "city_kana": "オオイタシ",
    "town": "乙津町",
    "town_kana": "オトヅマチ",
    "street": null,
    "office_name": null,
    "office_name_kana": null
  },
  "0146": {
    "postcode": "8700146",
    "prefecture": "大分県",
    "prefecture_kana": "オオイタケン",
    "prefecture_code": 44,
    "city": "大分市",
    "city_kana": "オオイタシ",
    "town": "乙津港町",
    "town_kana": "オトヅミナトマチ",
    "street": null,
    "office_name": null,
    "office_name_kana": null
  },
  "0147": {
    "postcode": "8700147",
    "prefecture": "大分県",
    "prefecture_kana": "オオイタケン",
    "prefecture_code": 44,
    "city": "大分市",
    "city_kana": "オオイタシ",
    "town": "小池原",
    "town_kana": "コイケバル",
    "street": null,
    "office_name": null,
    "office_name_kana": null
  },
  "0148": {
    "postcode": "8700148",
    "prefecture": "大分県",
    "prefecture_kana": "オオイタケン",
    "prefecture_code": 44,
    "city": "大分市",
    "city_kana": "オオイタシ",
    "town": "高城台",
    "town_kana": "タカジョウダイ",
    "street": null,
    "office_name": null,
    "office_name_kana": null
  },
  "0149": {
    "postcode": "8700149",
    "prefecture": "大分県",
    "prefecture_kana": "オオイタケン",
    "prefecture_code": 44,
    "city": "大分市",
    "city_kana": "オオイタシ",
    "town": "高城団地",
    "town_kana": "タカジョウダンチ",
    "street": null,
    "office_name": null,
    "office_name_kana": null
  },
  "0150": {
    "postcode": "8700150",
    "prefecture": "大分県",
    "prefecture_kana": "オオイタケン",
    "prefecture_code": 44,
    "city": "大分市",
    "city_kana": "オオイタシ",
    "town": "東原",
    "town_kana": "ヒガシバル",
    "street": null,
    "office_name": null,
    "office_name_kana": null
  },
  "0151": {
    "postcode": "8700151",
    "prefecture": "大分県",
    "prefecture_kana": "オオイタケン",
    "prefecture_code": 44,
    "city": "大分市",
    "city_kana": "オオイタシ",
    "town": "東明野",
    "town_kana": "ヒガシアケノ",
    "street": null,
    "office_name": null,
    "office_name_kana": null
  },
  "0152": {
    "postcode": "8700152",
    "prefecture": "大分県",
    "prefecture_kana": "オオイタケン",
    "prefecture_code": 44,
    "city": "大分市",
    "city_kana": "オオイタシ",
    "town": "牧",
    "town_kana": "マキ",
    "street": null,
    "office_name": null,
    "office_name_kana": null
  },
  "0153": {
    "postcode": "8700153",
    "prefecture": "大分県",
    "prefecture_kana": "オオイタケン",
    "prefecture_code": 44,
    "city": "大分市",
    "city_kana": "オオイタシ",
    "town": "城東町",
    "town_kana": "ジョウトウマチ",
    "street": null,
    "office_name": null,
    "office_name_kana": null
  },
  "0154": {
    "postcode": "8700154",
    "prefecture": "大分県",
    "prefecture_kana": "オオイタケン",
    "prefecture_code": 44,
    "city": "大分市",
    "city_kana": "オオイタシ",
    "town": "高城西町",
    "town_kana": "タカジョウニシマチ",
    "street": null,
    "office_name": null,
    "office_name_kana": null
  },
  "0155": {
    "postcode": "8700155",
    "prefecture": "大分県",
    "prefecture_kana": "オオイタケン",
    "prefecture_code": 44,
    "city": "大分市",
    "city_kana": "オオイタシ",
    "town": "高城南町",
    "town_kana": "タカジョウミナミマチ",
    "street": null,
    "office_name": null,
    "office_name_kana": null
  },
  "0156": {
    "postcode": "8700156",
    "prefecture": "大分県",
    "prefecture_kana": "オオイタケン",
    "prefecture_code": 44,
    "city": "大分市",
    "city_kana": "オオイタシ",
    "town": "高城新町",
    "town_kana": "タカジョウシンマチ",
    "street": null,
    "office_name": null,
    "office_name_kana": null
  },
  "0157": {
    "postcode": "8700157",
    "prefecture": "大分県",
    "prefecture_kana": "オオイタケン",
    "prefecture_code": 44,
    "city": "大分市",
    "city_kana": "オオイタシ",
    "town": "高城本町",
    "town_kana": "タカジョウホンマチ",
    "street": null,
    "office_name": null,
    "office_name_kana": null
  },
  "0158": {
    "postcode": "8700158",
    "prefecture": "大分県",
    "prefecture_kana": "オオイタケン",
    "prefecture_code": 44,
    "city": "大分市",
    "city_kana": "オオイタシ",
    "town": "岡",
    "town_kana": "オカ",
    "street": null,
    "office_name": null,
    "office_name_kana": null
  },
  "0159": {
    "postcode": "8700159",
    "prefecture": "大分県",
    "prefecture_kana": "オオイタケン",
    "prefecture_code": 44,
    "city": "大分市",
    "city_kana": "オオイタシ",
    "town": "岡新町",
    "town_kana": "オカシンマチ",
    "street": null,
    "office_name": null,
    "office_name_kana": null
  },
  "0161": {
    "postcode": "8700161",
    "prefecture": "大分県",
    "prefecture_kana": "オオイタケン",
    "prefecture_code": 44,
    "city": "大分市",
    "city_kana": "オオイタシ",
    "town": "明野東",
    "town_kana": "アケノヒガシ",
    "street": null,
    "office_name": null,
    "office_name_kana": null
  },
  "0162": {
    "postcode": "8700162",
    "prefecture": "大分県",
    "prefecture_kana": "オオイタケン",
    "prefecture_code": 44,
    "city": "大分市",
    "city_kana": "オオイタシ",
    "town": "明野高尾",
    "town_kana": "アケノタカオ",
    "street": null,
    "office_name": null,
    "office_name_kana": null
  },
  "0163": {
    "postcode": "8700163",
    "prefecture": "大分県",
    "prefecture_kana": "オオイタケン",
    "prefecture_code": 44,
    "city": "大分市",
    "city_kana": "オオイタシ",
    "town": "明野南",
    "town_kana": "アケノミナミ",
    "street": null,
    "office_name": null,
    "office_name_kana": null
  },
  "0164": {
    "postcode": "8700164",
    "prefecture": "大分県",
    "prefecture_kana": "オオイタケン",
    "prefecture_code": 44,
    "city": "大分市",
    "city_kana": "オオイタシ",
    "town": "明野西",
    "town_kana": "アケノニシ",
    "street": null,
    "office_name": null,
    "office_name_kana": null
  },
  "0165": {
    "postcode": "8700165",
    "prefecture": "大分県",
    "prefecture_kana": "オオイタケン",
    "prefecture_code": 44,
    "city": "大分市",
    "city_kana": "オオイタシ",
    "town": "明野北",
    "town_kana": "アケノキタ",
    "street": null,
    "office_name": null,
    "office_name_kana": null
  },
  "0166": {
    "postcode": "8700166",
    "prefecture": "大分県",
    "prefecture_kana": "オオイタケン",
    "prefecture_code": 44,
    "city": "大分市",
    "city_kana": "オオイタシ",
    "town": "明野北町",
    "town_kana": "アケノキタマチ",
    "street": null,
    "office_name": null,
    "office_name_kana": null
  },
  "0167": {
    "postcode": "8700167",
    "prefecture": "大分県",
    "prefecture_kana": "オオイタケン",
    "prefecture_code": 44,
    "city": "大分市",
    "city_kana": "オオイタシ",
    "town": "明野紅陽台",
    "town_kana": "アケノコウヨウダイ",
    "street": null,
    "office_name": null,
    "office_name_kana": null
  },
  "0168": {
    "postcode": "8700168",
    "prefecture": "大分県",
    "prefecture_kana": "オオイタケン",
    "prefecture_code": 44,
    "city": "大分市",
    "city_kana": "オオイタシ",
    "town": "明野ハイツ",
    "town_kana": "アケノハイツ",
    "street": null,
    "office_name": null,
    "office_name_kana": null
  },
  "0171": {
    "postcode": "8700171",
    "prefecture": "大分県",
    "prefecture_kana": "オオイタケン",
    "prefecture_code": 44,
    "city": "大分市",
    "city_kana": "オオイタシ",
    "town": "法勝台",
    "town_kana": "ホウショウダイ",
    "street": null,
    "office_name": null,
    "office_name_kana": null
  },
  "0172": {
    "postcode": "8700172",
    "prefecture": "大分県",
    "prefecture_kana": "オオイタケン",
    "prefecture_code": 44,
    "city": "大分市",
    "city_kana": "オオイタシ",
    "town": "新明治",
    "town_kana": "シンメイジ",
    "street": null,
    "office_name": null,
    "office_name_kana": null
  },
  "0173": {
    "postcode": "8700173",
    "prefecture": "大分県",
    "prefecture_kana": "オオイタケン",
    "prefecture_code": 44,
    "city": "大分市",
    "city_kana": "オオイタシ",
    "town": "公園通り",
    "town_kana": "コウエンドオリ",
    "street": null,
    "office_name": null,
    "office_name_kana": null
  },
  "0174": {
    "postcode": "8700174",
    "prefecture": "大分県",
    "prefecture_kana": "オオイタケン",
    "prefecture_code": 44,
    "city": "大分市",
    "city_kana": "オオイタシ",
    "town": "公園通り西",
    "town_kana": "コウエンドオリニシ",
    "street": null,
    "office_name": null,
    "office_name_kana": null
  },
  "0189": {
    "postcode": "8700189",
    "prefecture": "大分県",
    "prefecture_kana": "オオイタケン",
    "prefecture_code": 44,
    "city": "大分市",
    "city_kana": "オオイタシ",
    "town": "大字中ノ洲",
    "town_kana": null,
    "street": "２",
    "office_name": "昭和電工　株式会社　大分事務所",
    "office_name_kana": "シヨウワデンコウ カブシキガイシヤ オオイタジムシヨ"
  },
  "0192": {
    "postcode": "8700192",
    "prefecture": "大分県",
    "prefecture_kana": "オオイタケン",
    "prefecture_code": 44,
    "city": "大分市",
    "city_kana": "オオイタシ",
    "town": "西鶴崎",
    "town_kana": "ニシツルサキ",
    "street": "３丁目７−１１",
    "office_name": "医療法人　敬和会　大分岡病院",
    "office_name_kana": "イリヨウホウジン ケイワカイ オオイタオカビヨウイン"
  },
  "0193": {
    "postcode": "8700193",
    "prefecture": "大分県",
    "prefecture_kana": "オオイタケン",
    "prefecture_code": 44,
    "city": "大分市",
    "city_kana": "オオイタシ",
    "town": "高城南町",
    "town_kana": "タカジョウミナミマチ",
    "street": "１１−７",
    "office_name": "（財）　西日本産業衛生会　大分労働衛生管理センター",
    "office_name_kana": "(ザイ) ニシニホンサンギヨウエイセイカイ オオイタロウドウエイセイカンリセンタ-"
  },
  "0194": {
    "postcode": "8700194",
    "prefecture": "大分県",
    "prefecture_kana": "オオイタケン",
    "prefecture_code": 44,
    "city": "大分市",
    "city_kana": "オオイタシ",
    "town": "大字鶴崎",
    "town_kana": null,
    "street": "２２００",
    "office_name": "住友化学工業　株式会社　大分工場",
    "office_name_kana": "スミトモカガクコウギヨウ カブシキガイシヤ オオイタコウジヨウ"
  },
  "0195": {
    "postcode": "8700195",
    "prefecture": "大分県",
    "prefecture_kana": "オオイタケン",
    "prefecture_code": 44,
    "city": "大分市",
    "city_kana": "オオイタシ",
    "town": "大字小中島",
    "town_kana": null,
    "street": "８７２−１",
    "office_name": "王子製紙　（株）　大分工場",
    "office_name_kana": "オオジセイシ (カブ) オオイタコウジヨウ"
  },
  "0196": {
    "postcode": "8700196",
    "prefecture": "大分県",
    "prefecture_kana": "オオイタケン",
    "prefecture_code": 44,
    "city": "大分市",
    "city_kana": "オオイタシ",
    "town": "大字三佐",
    "town_kana": null,
    "street": "１０００",
    "office_name": "鶴崎海陸運輸　株式会社",
    "office_name_kana": "ツルサキカイリクウンユ カブシキガイシヤ"
  },
  "0197": {
    "postcode": "8700197",
    "prefecture": "大分県",
    "prefecture_kana": "オオイタケン",
    "prefecture_code": 44,
    "city": "大分市",
    "city_kana": "オオイタシ",
    "town": "大字松岡",
    "town_kana": null,
    "street": "３５００",
    "office_name": "株式会社　ジャパンセミコンダクター　大分事業所",
    "office_name_kana": "カブシキガイシヤ ジヤパンセミコンダクタ- オオイタジギヨウシヨ"
  },
  "0198": {
    "postcode": "8700198",
    "prefecture": "大分県",
    "prefecture_kana": "オオイタケン",
    "prefecture_code": 44,
    "city": "大分市",
    "city_kana": "オオイタシ",
    "town": "乙津町",
    "town_kana": "オトヅマチ",
    "street": "１番１６号",
    "office_name": "江藤酸素　株式会社",
    "office_name_kana": "エトウサンソ カブシキガイシヤ"
  },
  "0241": {
    "postcode": "8700241",
    "prefecture": "大分県",
    "prefecture_kana": "オオイタケン",
    "prefecture_code": 44,
    "city": "大分市",
    "city_kana": "オオイタシ",
    "town": "庄境",
    "town_kana": "ショウザカイ",
    "street": null,
    "office_name": null,
    "office_name_kana": null
  },
  "0242": {
    "postcode": "8700242",
    "prefecture": "大分県",
    "prefecture_kana": "オオイタケン",
    "prefecture_code": 44,
    "city": "大分市",
    "city_kana": "オオイタシ",
    "town": "角子南",
    "town_kana": "ツノゴミナミ",
    "street": null,
    "office_name": null,
    "office_name_kana": null
  },
  "0243": {
    "postcode": "8700243",
    "prefecture": "大分県",
    "prefecture_kana": "オオイタケン",
    "prefecture_code": 44,
    "city": "大分市",
    "city_kana": "オオイタシ",
    "town": "花江川",
    "town_kana": "ハナエガワ",
    "street": null,
    "office_name": null,
    "office_name_kana": null
  },
  "0244": {
    "postcode": "8700244",
    "prefecture": "大分県",
    "prefecture_kana": "オオイタケン",
    "prefecture_code": 44,
    "city": "大分市",
    "city_kana": "オオイタシ",
    "town": "須賀",
    "town_kana": "スガ",
    "street": null,
    "office_name": null,
    "office_name_kana": null
  },
  "0245": {
    "postcode": "8700245",
    "prefecture": "大分県",
    "prefecture_kana": "オオイタケン",
    "prefecture_code": 44,
    "city": "大分市",
    "city_kana": "オオイタシ",
    "town": "大在北",
    "town_kana": "オオザイキタ",
    "street": null,
    "office_name": null,
    "office_name_kana": null
  },
  "0251": {
    "postcode": "8700251",
    "prefecture": "大分県",
    "prefecture_kana": "オオイタケン",
    "prefecture_code": 44,
    "city": "大分市",
    "city_kana": "オオイタシ",
    "town": "大在中央",
    "town_kana": "オオザイチュウオウ",
    "street": null,
    "office_name": null,
    "office_name_kana": null
  },
  "0252": {
    "postcode": "8700252",
    "prefecture": "大分県",
    "prefecture_kana": "オオイタケン",
    "prefecture_code": 44,
    "city": "大分市",
    "city_kana": "オオイタシ",
    "town": "大在浜",
    "town_kana": "オオザイハマ",
    "street": null,
    "office_name": null,
    "office_name_kana": null
  },
  "0253": {
    "postcode": "8700253",
    "prefecture": "大分県",
    "prefecture_kana": "オオイタケン",
    "prefecture_code": 44,
    "city": "大分市",
    "city_kana": "オオイタシ",
    "town": "汐見",
    "town_kana": "シオミ",
    "street": null,
    "office_name": null,
    "office_name_kana": null
  },
  "0254": {
    "postcode": "8700254",
    "prefecture": "大分県",
    "prefecture_kana": "オオイタケン",
    "prefecture_code": 44,
    "city": "大分市",
    "city_kana": "オオイタシ",
    "town": "横塚",
    "town_kana": "ヨコヅカ",
    "street": null,
    "office_name": null,
    "office_name_kana": null
  },
  "0261": {
    "postcode": "8700261",
    "prefecture": "大分県",
    "prefecture_kana": "オオイタケン",
    "prefecture_code": 44,
    "city": "大分市",
    "city_kana": "オオイタシ",
    "town": "志村",
    "town_kana": "シムラ",
    "street": null,
    "office_name": null,
    "office_name_kana": null
  },
  "0263": {
    "postcode": "8700263",
    "prefecture": "大分県",
    "prefecture_kana": "オオイタケン",
    "prefecture_code": 44,
    "city": "大分市",
    "city_kana": "オオイタシ",
    "town": "横田",
    "town_kana": "ヨコタ",
    "street": null,
    "office_name": null,
    "office_name_kana": null
  },
  "0265": {
    "postcode": "8700265",
    "prefecture": "大分県",
    "prefecture_kana": "オオイタケン",
    "prefecture_code": 44,
    "city": "大分市",
    "city_kana": "オオイタシ",
    "town": "竹下",
    "town_kana": "タケシタ",
    "street": null,
    "office_name": null,
    "office_name_kana": null
  },
  "0266": {
    "postcode": "8700266",
    "prefecture": "大分県",
    "prefecture_kana": "オオイタケン",
    "prefecture_code": 44,
    "city": "大分市",
    "city_kana": "オオイタシ",
    "town": "大在",
    "town_kana": "オオザイ",
    "street": null,
    "office_name": null,
    "office_name_kana": null
  },
  "0267": {
    "postcode": "8700267",
    "prefecture": "大分県",
    "prefecture_kana": "オオイタケン",
    "prefecture_code": 44,
    "city": "大分市",
    "city_kana": "オオイタシ",
    "town": "城原",
    "town_kana": "ジョウハル",
    "street": null,
    "office_name": null,
    "office_name_kana": null
  },
  "0268": {
    "postcode": "8700268",
    "prefecture": "大分県",
    "prefecture_kana": "オオイタケン",
    "prefecture_code": 44,
    "city": "大分市",
    "city_kana": "オオイタシ",
    "town": "政所",
    "town_kana": "マドコロ",
    "street": null,
    "office_name": null,
    "office_name_kana": null
  },
  "0270": {
    "postcode": "8700270",
    "prefecture": "大分県",
    "prefecture_kana": "オオイタケン",
    "prefecture_code": 44,
    "city": "大分市",
    "city_kana": "オオイタシ",
    "town": "望みが丘",
    "town_kana": "ノゾミガオカ",
    "street": null,
    "office_name": null,
    "office_name_kana": null
  },
  "0271": {
    "postcode": "8700271",
    "prefecture": "大分県",
    "prefecture_kana": "オオイタケン",
    "prefecture_code": 44,
    "city": "大分市",
    "city_kana": "オオイタシ",
    "town": "角子原",
    "town_kana": "ツノコバル",
    "street": null,
    "office_name": null,
    "office_name_kana": null
  },
  "0272": {
    "postcode": "8700272",
    "prefecture": "大分県",
    "prefecture_kana": "オオイタケン",
    "prefecture_code": 44,
    "city": "大分市",
    "city_kana": "オオイタシ",
    "town": "迫",
    "town_kana": "サコ",
    "street": null,
    "office_name": null,
    "office_name_kana": null
  },
  "0273": {
    "postcode": "8700273",
    "prefecture": "大分県",
    "prefecture_kana": "オオイタケン",
    "prefecture_code": 44,
    "city": "大分市",
    "city_kana": "オオイタシ",
    "town": "曙台",
    "town_kana": "アケボノダイ",
    "street": null,
    "office_name": null,
    "office_name_kana": null
  },
  "0274": {
    "postcode": "8700274",
    "prefecture": "大分県",
    "prefecture_kana": "オオイタケン",
    "prefecture_code": 44,
    "city": "大分市",
    "city_kana": "オオイタシ",
    "town": "種具",
    "town_kana": "タネグ",
    "street": null,
    "office_name": null,
    "office_name_kana": null
  },
  "0275": {
    "postcode": "8700275",
    "prefecture": "大分県",
    "prefecture_kana": "オオイタケン",
    "prefecture_code": 44,
    "city": "大分市",
    "city_kana": "オオイタシ",
    "town": "宮河内ハイランド",
    "town_kana": "ミヤカワウチハイランド",
    "street": null,
    "office_name": null,
    "office_name_kana": null
  },
  "0276": {
    "postcode": "8700276",
    "prefecture": "大分県",
    "prefecture_kana": "オオイタケン",
    "prefecture_code": 44,
    "city": "大分市",
    "city_kana": "オオイタシ",
    "town": "宮河内",
    "town_kana": "ミヤカワウチ",
    "street": null,
    "office_name": null,
    "office_name_kana": null
  },
  "0277": {
    "postcode": "8700277",
    "prefecture": "大分県",
    "prefecture_kana": "オオイタケン",
    "prefecture_code": 44,
    "city": "大分市",
    "city_kana": "オオイタシ",
    "town": "広内",
    "town_kana": "ヒロウチ",
    "street": null,
    "office_name": null,
    "office_name_kana": null
  },
  "0278": {
    "postcode": "8700278",
    "prefecture": "大分県",
    "prefecture_kana": "オオイタケン",
    "prefecture_code": 44,
    "city": "大分市",
    "city_kana": "オオイタシ",
    "town": "青崎",
    "town_kana": "アオサキ",
    "street": null,
    "office_name": null,
    "office_name_kana": null
  },
  "0279": {
    "postcode": "8700279",
    "prefecture": "大分県",
    "prefecture_kana": "オオイタケン",
    "prefecture_code": 44,
    "city": "大分市",
    "city_kana": "オオイタシ",
    "town": "つるさき陽光台",
    "town_kana": "ツルサキヨウコウダイ",
    "street": null,
    "office_name": null,
    "office_name_kana": null
  },
  "0292": {
    "postcode": "8700292",
    "prefecture": "大分県",
    "prefecture_kana": "オオイタケン",
    "prefecture_code": 44,
    "city": "大分市",
    "city_kana": "オオイタシ",
    "town": "大字迫",
    "town_kana": null,
    "street": "５６４−１",
    "office_name": "大分キヤノン　株式会社　大分事業所",
    "office_name_kana": "オオイタキヤノン カブシキガイシヤ オオイタジギヨウシヨ"
  },
  "0301": {
    "postcode": "8700301",
    "prefecture": "大分県",
    "prefecture_kana": "オオイタケン",
    "prefecture_code": 44,
    "city": "大分市",
    "city_kana": "オオイタシ",
    "town": "日吉原",
    "town_kana": "ヒヨシバル",
    "street": null,
    "office_name": null,
    "office_name_kana": null
  },
  "0302": {
    "postcode": "8700302",
    "prefecture": "大分県",
    "prefecture_kana": "オオイタケン",
    "prefecture_code": 44,
    "city": "大分市",
    "city_kana": "オオイタシ",
    "town": "坂ノ市",
    "town_kana": "サカノイチ",
    "street": null,
    "office_name": null,
    "office_name_kana": null
  },
  "0303": {
    "postcode": "8700303",
    "prefecture": "大分県",
    "prefecture_kana": "オオイタケン",
    "prefecture_code": 44,
    "city": "大分市",
    "city_kana": "オオイタシ",
    "town": "里",
    "town_kana": "サト",
    "street": null,
    "office_name": null,
    "office_name_kana": null
  },
  "0304": {
    "postcode": "8700304",
    "prefecture": "大分県",
    "prefecture_kana": "オオイタケン",
    "prefecture_code": 44,
    "city": "大分市",
    "city_kana": "オオイタシ",
    "town": "久原",
    "town_kana": "クバル",
    "street": null,
    "office_name": null,
    "office_name_kana": null
  },
  "0305": {
    "postcode": "8700305",
    "prefecture": "大分県",
    "prefecture_kana": "オオイタケン",
    "prefecture_code": 44,
    "city": "大分市",
    "city_kana": "オオイタシ",
    "town": "細",
    "town_kana": "ホソ",
    "street": null,
    "office_name": null,
    "office_name_kana": null
  },
  "0306": {
    "postcode": "8700306",
    "prefecture": "大分県",
    "prefecture_kana": "オオイタケン",
    "prefecture_code": 44,
    "city": "大分市",
    "city_kana": "オオイタシ",
    "town": "東上野",
    "town_kana": "ヒガシウエノ",
    "street": null,
    "office_name": null,
    "office_name_kana": null
  },
  "0307": {
    "postcode": "8700307",
    "prefecture": "大分県",
    "prefecture_kana": "オオイタケン",
    "prefecture_code": 44,
    "city": "大分市",
    "city_kana": "オオイタシ",
    "town": "坂ノ市中央",
    "town_kana": "サカノイチチュウオウ",
    "street": null,
    "office_name": null,
    "office_name_kana": null
  },
  "0308": {
    "postcode": "8700308",
    "prefecture": "大分県",
    "prefecture_kana": "オオイタケン",
    "prefecture_code": 44,
    "city": "大分市",
    "city_kana": "オオイタシ",
    "town": "坂ノ市南",
    "town_kana": "サカノイチミナミ",
    "street": null,
    "office_name": null,
    "office_name_kana": null
  },
  "0309": {
    "postcode": "8700309",
    "prefecture": "大分県",
    "prefecture_kana": "オオイタケン",
    "prefecture_code": 44,
    "city": "大分市",
    "city_kana": "オオイタシ",
    "town": "坂ノ市西",
    "town_kana": "サカノイチニシ",
    "street": null,
    "office_name": null,
    "office_name_kana": null
  },
  "0311": {
    "postcode": "8700311",
    "prefecture": "大分県",
    "prefecture_kana": "オオイタケン",
    "prefecture_code": 44,
    "city": "大分市",
    "city_kana": "オオイタシ",
    "town": "木田",
    "town_kana": "キダ",
    "street": null,
    "office_name": null,
    "office_name_kana": null
  },
  "0312": {
    "postcode": "8700312",
    "prefecture": "大分県",
    "prefecture_kana": "オオイタケン",
    "prefecture_code": 44,
    "city": "大分市",
    "city_kana": "オオイタシ",
    "town": "市尾",
    "town_kana": "イチノオ",
    "street": null,
    "office_name": null,
    "office_name_kana": null
  },
  "0313": {
    "postcode": "8700313",
    "prefecture": "大分県",
    "prefecture_kana": "オオイタケン",
    "prefecture_code": 44,
    "city": "大分市",
    "city_kana": "オオイタシ",
    "town": "屋山",
    "town_kana": "ヤヤマ",
    "street": null,
    "office_name": null,
    "office_name_kana": null
  },
  "0314": {
    "postcode": "8700314",
    "prefecture": "大分県",
    "prefecture_kana": "オオイタケン",
    "prefecture_code": 44,
    "city": "大分市",
    "city_kana": "オオイタシ",
    "town": "久土",
    "town_kana": "クド",
    "street": null,
    "office_name": null,
    "office_name_kana": null
  },
  "0315": {
    "postcode": "8700315",
    "prefecture": "大分県",
    "prefecture_kana": "オオイタケン",
    "prefecture_code": 44,
    "city": "大分市",
    "city_kana": "オオイタシ",
    "town": "佐野",
    "town_kana": "サノ",
    "street": null,
    "office_name": null,
    "office_name_kana": null
  },
  "0316": {
    "postcode": "8700316",
    "prefecture": "大分県",
    "prefecture_kana": "オオイタケン",
    "prefecture_code": 44,
    "city": "大分市",
    "city_kana": "オオイタシ",
    "town": "一木",
    "town_kana": "イチギ",
    "street": null,
    "office_name": null,
    "office_name_kana": null
  },
  "0317": {
    "postcode": "8700317",
    "prefecture": "大分県",
    "prefecture_kana": "オオイタケン",
    "prefecture_code": 44,
    "city": "大分市",
    "city_kana": "オオイタシ",
    "town": "丹川",
    "town_kana": "アカガワ",
    "street": null,
    "office_name": null,
    "office_name_kana": null
  },
  "0318": {
    "postcode": "8700318",
    "prefecture": "大分県",
    "prefecture_kana": "オオイタケン",
    "prefecture_code": 44,
    "city": "大分市",
    "city_kana": "オオイタシ",
    "town": "丹生",
    "town_kana": "ニュウ",
    "street": null,
    "office_name": null,
    "office_name_kana": null
  },
  "0319": {
    "postcode": "8700319",
    "prefecture": "大分県",
    "prefecture_kana": "オオイタケン",
    "prefecture_code": 44,
    "city": "大分市",
    "city_kana": "オオイタシ",
    "town": "大分流通業務団地",
    "town_kana": "オオイタリュウツウギョウムダンチ",
    "street": null,
    "office_name": null,
    "office_name_kana": null
  },
  "0321": {
    "postcode": "8700321",
    "prefecture": "大分県",
    "prefecture_kana": "オオイタケン",
    "prefecture_code": 44,
    "city": "大分市",
    "city_kana": "オオイタシ",
    "town": "王ノ瀬",
    "town_kana": "オウノセ",
    "street": null,
    "office_name": null,
    "office_name_kana": null
  },
  "0322": {
    "postcode": "8700322",
    "prefecture": "大分県",
    "prefecture_kana": "オオイタケン",
    "prefecture_code": 44,
    "city": "大分市",
    "city_kana": "オオイタシ",
    "town": "恵比寿町",
    "town_kana": "エビスマチ",
    "street": null,
    "office_name": null,
    "office_name_kana": null
  },
  "0323": {
    "postcode": "8700323",
    "prefecture": "大分県",
    "prefecture_kana": "オオイタケン",
    "prefecture_code": 44,
    "city": "大分市",
    "city_kana": "オオイタシ",
    "town": "浜中",
    "town_kana": "ハマナカ",
    "street": null,
    "office_name": null,
    "office_name_kana": null
  },
  "0324": {
    "postcode": "8700324",
    "prefecture": "大分県",
    "prefecture_kana": "オオイタケン",
    "prefecture_code": 44,
    "city": "大分市",
    "city_kana": "オオイタシ",
    "town": "久原北",
    "town_kana": "クバルキタ",
    "street": null,
    "office_name": null,
    "office_name_kana": null
  },
  "0325": {
    "postcode": "8700325",
    "prefecture": "大分県",
    "prefecture_kana": "オオイタケン",
    "prefecture_code": 44,
    "city": "大分市",
    "city_kana": "オオイタシ",
    "town": "久原中央",
    "town_kana": "クバルチュウオウ",
    "street": null,
    "office_name": null,
    "office_name_kana": null
  },
  "0326": {
    "postcode": "8700326",
    "prefecture": "大分県",
    "prefecture_kana": "オオイタケン",
    "prefecture_code": 44,
    "city": "大分市",
    "city_kana": "オオイタシ",
    "town": "久原南",
    "town_kana": "クバルミナミ",
    "street": null,
    "office_name": null,
    "office_name_kana": null
  },
  "0327": {
    "postcode": "8700327",
    "prefecture": "大分県",
    "prefecture_kana": "オオイタケン",
    "prefecture_code": 44,
    "city": "大分市",
    "city_kana": "オオイタシ",
    "town": "小佐井",
    "town_kana": "コザイ",
    "street": null,
    "office_name": null,
    "office_name_kana": null
  },
  "0392": {
    "postcode": "8700392",
    "prefecture": "大分県",
    "prefecture_kana": "オオイタケン",
    "prefecture_code": 44,
    "city": "大分市",
    "city_kana": "オオイタシ",
    "town": "大字里",
    "town_kana": null,
    "street": "２６２０",
    "office_name": "旭化成工業　株式会社　大分工場",
    "office_name_kana": "アサヒカセイコウギヨウ カブシキガイシヤ オオイタコウジヨウ"
  },
  "0393": {
    "postcode": "8700393",
    "prefecture": "大分県",
    "prefecture_kana": "オオイタケン",
    "prefecture_code": 44,
    "city": "大分市",
    "city_kana": "オオイタシ",
    "town": "大字屋山",
    "town_kana": null,
    "street": "２００９",
    "office_name": "大分県立　大分東高等学校",
    "office_name_kana": "オオイタケンリツ オオイタヒガシコウトウガツコウ"
  },
  "0395": {
    "postcode": "8700395",
    "prefecture": "大分県",
    "prefecture_kana": "オオイタケン",
    "prefecture_code": 44,
    "city": "大分市",
    "city_kana": "オオイタシ",
    "town": "大字日吉原",
    "town_kana": null,
    "street": "３番地",
    "office_name": "株式会社　三井Ｅ＆Ｓ　大分事業場",
    "office_name_kana": "カブシキガイシヤ ミツイイ-アンドエス オオイタジギヨウバ"
  },
  "0396": {
    "postcode": "8700396",
    "prefecture": "大分県",
    "prefecture_kana": "オオイタケン",
    "prefecture_code": 44,
    "city": "大分市",
    "city_kana": "オオイタシ",
    "town": "大字里",
    "town_kana": null,
    "street": "２１１１−２",
    "office_name": "旭化成メディカルＭＴ　株式会社",
    "office_name_kana": "アサヒカセイメデイカルエムテイ- カブシキガイシヤ"
  },
  "0397": {
    "postcode": "8700397",
    "prefecture": "大分県",
    "prefecture_kana": "オオイタケン",
    "prefecture_code": 44,
    "city": "大分市",
    "city_kana": "オオイタシ",
    "town": "大字一木",
    "town_kana": null,
    "street": "１７２７−１６２",
    "office_name": "日本文理大学",
    "office_name_kana": "ニホンブンリダイガク"
  },
  "0398": {
    "postcode": "8700398",
    "prefecture": "大分県",
    "prefecture_kana": "オオイタケン",
    "prefecture_code": 44,
    "city": "大分市",
    "city_kana": "オオイタシ",
    "town": "大字屋山",
    "town_kana": null,
    "street": "３００",
    "office_name": "ＴＯＴＯ　株式会社　大分工場",
    "office_name_kana": "ト-ト- カブシキガイシヤ オオイタコウジヨウ"
  },
  "0401": {
    "postcode": "8700401",
    "prefecture": "大分県",
    "prefecture_kana": "オオイタケン",
    "prefecture_code": 44,
    "city": "大分市",
    "city_kana": "オオイタシ",
    "town": "大字松岡",
    "town_kana": null,
    "street": "６６８７",
    "office_name": "大分県運転免許センター",
    "office_name_kana": "オオイタケンウンテンメンキヨセンタ-"
  },
  "0801": {
    "postcode": "8700801",
    "prefecture": "大分県",
    "prefecture_kana": "オオイタケン",
    "prefecture_code": 44,
    "city": "大分市",
    "city_kana": "オオイタシ",
    "town": "鳴川",
    "town_kana": "ナルカワ",
    "street": null,
    "office_name": null,
    "office_name_kana": null
  },
  "0802": {
    "postcode": "8700802",
    "prefecture": "大分県",
    "prefecture_kana": "オオイタケン",
    "prefecture_code": 44,
    "city": "大分市",
    "city_kana": "オオイタシ",
    "town": "田ノ浦",
    "town_kana": "タノウラ",
    "street": null,
    "office_name": null,
    "office_name_kana": null
  },
  "0803": {
    "postcode": "8700803",
    "prefecture": "大分県",
    "prefecture_kana": "オオイタケン",
    "prefecture_code": 44,
    "city": "大分市",
    "city_kana": "オオイタシ",
    "town": "下白木",
    "town_kana": "シモシラキ",
    "street": null,
    "office_name": null,
    "office_name_kana": null
  },
  "0804": {
    "postcode": "8700804",
    "prefecture": "大分県",
    "prefecture_kana": "オオイタケン",
    "prefecture_code": 44,
    "city": "大分市",
    "city_kana": "オオイタシ",
    "town": "御幸町",
    "town_kana": "ミユキ",
    "street": null,
    "office_name": null,
    "office_name_kana": null
  },
  "0805": {
    "postcode": "8700805",
    "prefecture": "大分県",
    "prefecture_kana": "オオイタケン",
    "prefecture_code": 44,
    "city": "大分市",
    "city_kana": "オオイタシ",
    "town": "上白木",
    "town_kana": "カミシラキ",
    "street": null,
    "office_name": null,
    "office_name_kana": null
  },
  "0806": {
    "postcode": "8700806",
    "prefecture": "大分県",
    "prefecture_kana": "オオイタケン",
    "prefecture_code": 44,
    "city": "大分市",
    "city_kana": "オオイタシ",
    "town": "大久保",
    "town_kana": "オオクボ",
    "street": null,
    "office_name": null,
    "office_name_kana": null
  },
  "0807": {
    "postcode": "8700807",
    "prefecture": "大分県",
    "prefecture_kana": "オオイタケン",
    "prefecture_code": 44,
    "city": "大分市",
    "city_kana": "オオイタシ",
    "town": "下八幡",
    "town_kana": "シモヤハタ",
    "street": null,
    "office_name": null,
    "office_name_kana": null
  },
  "0808": {
    "postcode": "8700808",
    "prefecture": "大分県",
    "prefecture_kana": "オオイタケン",
    "prefecture_code": 44,
    "city": "大分市",
    "city_kana": "オオイタシ",
    "town": "上八幡",
    "town_kana": "カミヤハタ",
    "street": null,
    "office_name": null,
    "office_name_kana": null
  },
  "0809": {
    "postcode": "8700809",
    "prefecture": "大分県",
    "prefecture_kana": "オオイタケン",
    "prefecture_code": 44,
    "city": "大分市",
    "city_kana": "オオイタシ",
    "town": "机張原",
    "town_kana": "キチョウバル",
    "street": null,
    "office_name": null,
    "office_name_kana": null
  },
  "0811": {
    "postcode": "8700811",
    "prefecture": "大分県",
    "prefecture_kana": "オオイタケン",
    "prefecture_code": 44,
    "city": "大分市",
    "city_kana": "オオイタシ",
    "town": "南生石西",
    "town_kana": "ミナミイクシニシ",
    "street": null,
    "office_name": null,
    "office_name_kana": null
  },
  "0812": {
    "postcode": "8700812",
    "prefecture": "大分県",
    "prefecture_kana": "オオイタケン",
    "prefecture_code": 44,
    "city": "大分市",
    "city_kana": "オオイタシ",
    "town": "南生石東",
    "town_kana": "ミナミイクシヒガシ",
    "street": null,
    "office_name": null,
    "office_name_kana": null
  },
  "0813": {
    "postcode": "8700813",
    "prefecture": "大分県",
    "prefecture_kana": "オオイタケン",
    "prefecture_code": 44,
    "city": "大分市",
    "city_kana": "オオイタシ",
    "town": "王子山の手町",
    "town_kana": "オウジヤマノテマチ",
    "street": null,
    "office_name": null,
    "office_name_kana": null
  },
  "0815": {
    "postcode": "8700815",
    "prefecture": "大分県",
    "prefecture_kana": "オオイタケン",
    "prefecture_code": 44,
    "city": "大分市",
    "city_kana": "オオイタシ",
    "town": "南春日町",
    "town_kana": "ミナミカスガマチ",
    "street": null,
    "office_name": null,
    "office_name_kana": null
  },
  "0816": {
    "postcode": "8700816",
    "prefecture": "大分県",
    "prefecture_kana": "オオイタケン",
    "prefecture_code": 44,
    "city": "大分市",
    "city_kana": "オオイタシ",
    "town": "田室町",
    "town_kana": "タムロマチ",
    "street": null,
    "office_name": null,
    "office_name_kana": null
  },
  "0817": {
    "postcode": "8700817",
    "prefecture": "大分県",
    "prefecture_kana": "オオイタケン",
    "prefecture_code": 44,
    "city": "大分市",
    "city_kana": "オオイタシ",
    "town": "上春日町",
    "town_kana": "カミカスガマチ",
    "street": null,
    "office_name": null,
    "office_name_kana": null
  },
  "0818": {
    "postcode": "8700818",
    "prefecture": "大分県",
    "prefecture_kana": "オオイタケン",
    "prefecture_code": 44,
    "city": "大分市",
    "city_kana": "オオイタシ",
    "town": "新春日町",
    "town_kana": "シンカスガマチ",
    "street": null,
    "office_name": null,
    "office_name_kana": null
  },
  "0819": {
    "postcode": "8700819",
    "prefecture": "大分県",
    "prefecture_kana": "オオイタケン",
    "prefecture_code": 44,
    "city": "大分市",
    "city_kana": "オオイタシ",
    "town": "王子新町",
    "town_kana": "オウジシンマチ",
    "street": null,
    "office_name": null,
    "office_name_kana": null
  },
  "0820": {
    "postcode": "8700820",
    "prefecture": "大分県",
    "prefecture_kana": "オオイタケン",
    "prefecture_code": 44,
    "city": "大分市",
    "city_kana": "オオイタシ",
    "town": "西大道",
    "town_kana": "ニシオオミチ",
    "street": null,
    "office_name": null,
    "office_name_kana": null
  },
  "0821": {
    "postcode": "8700821",
    "prefecture": "大分県",
    "prefecture_kana": "オオイタケン",
    "prefecture_code": 44,
    "city": "大分市",
    "city_kana": "オオイタシ",
    "town": "志手",
    "town_kana": "シテ",
    "street": null,
    "office_name": null,
    "office_name_kana": null
  },
  "0822": {
    "postcode": "8700822",
    "prefecture": "大分県",
    "prefecture_kana": "オオイタケン",
    "prefecture_code": 44,
    "city": "大分市",
    "city_kana": "オオイタシ",
    "town": "大道町",
    "town_kana": "オオミチマチ",
    "street": null,
    "office_name": null,
    "office_name_kana": null
  },
  "0823": {
    "postcode": "8700823",
    "prefecture": "大分県",
    "prefecture_kana": "オオイタケン",
    "prefecture_code": 44,
    "city": "大分市",
    "city_kana": "オオイタシ",
    "town": "東大道",
    "town_kana": "ヒガシオオミチ",
    "street": null,
    "office_name": null,
    "office_name_kana": null
  },
  "0824": {
    "postcode": "8700824",
    "prefecture": "大分県",
    "prefecture_kana": "オオイタケン",
    "prefecture_code": 44,
    "city": "大分市",
    "city_kana": "オオイタシ",
    "town": "城南東",
    "town_kana": "ジョウナンヒガシ",
    "street": null,
    "office_name": null,
    "office_name_kana": null
  },
  "0825": {
    "postcode": "8700825",
    "prefecture": "大分県",
    "prefecture_kana": "オオイタケン",
    "prefecture_code": 44,
    "city": "大分市",
    "city_kana": "オオイタシ",
    "town": "城南南",
    "town_kana": "ジョウナンミナミ",
    "street": null,
    "office_name": null,
    "office_name_kana": null
  },
  "0826": {
    "postcode": "8700826",
    "prefecture": "大分県",
    "prefecture_kana": "オオイタケン",
    "prefecture_code": 44,
    "city": "大分市",
    "city_kana": "オオイタシ",
    "town": "城南西",
    "town_kana": "ジョウナンニシ",
    "street": null,
    "office_name": null,
    "office_name_kana": null
  },
  "0827": {
    "postcode": "8700827",
    "prefecture": "大分県",
    "prefecture_kana": "オオイタケン",
    "prefecture_code": 44,
    "city": "大分市",
    "city_kana": "オオイタシ",
    "town": "城南北",
    "town_kana": "ジョウナンキタ",
    "street": null,
    "office_name": null,
    "office_name_kana": null
  },
  "0828": {
    "postcode": "8700828",
    "prefecture": "大分県",
    "prefecture_kana": "オオイタケン",
    "prefecture_code": 44,
    "city": "大分市",
    "city_kana": "オオイタシ",
    "town": "城南山手台",
    "town_kana": "ジョウナンヤマテダイ",
    "street": null,
    "office_name": null,
    "office_name_kana": null
  },
  "0829": {
    "postcode": "8700829",
    "prefecture": "大分県",
    "prefecture_kana": "オオイタケン",
    "prefecture_code": 44,
    "city": "大分市",
    "city_kana": "オオイタシ",
    "town": "椎迫",
    "town_kana": "シイザコ",
    "street": null,
    "office_name": null,
    "office_name_kana": null
  },
  "0831": {
    "postcode": "8700831",
    "prefecture": "大分県",
    "prefecture_kana": "オオイタケン",
    "prefecture_code": 44,
    "city": "大分市",
    "city_kana": "オオイタシ",
    "town": "要町",
    "town_kana": "カナメマチ",
    "street": null,
    "office_name": null,
    "office_name_kana": null
  },
  "0832": {
    "postcode": "8700832",
    "prefecture": "大分県",
    "prefecture_kana": "オオイタケン",
    "prefecture_code": 44,
    "city": "大分市",
    "city_kana": "オオイタシ",
    "town": "上野町",
    "town_kana": "ウエノマチ",
    "street": null,
    "office_name": null,
    "office_name_kana": null
  },
  "0833": {
    "postcode": "8700833",
    "prefecture": "大分県",
    "prefecture_kana": "オオイタケン",
    "prefecture_code": 44,
    "city": "大分市",
    "city_kana": "オオイタシ",
    "town": "上野丘東",
    "town_kana": "ウエノガオカヒガシ",
    "street": null,
    "office_name": null,
    "office_name_kana": null
  },
  "0834": {
    "postcode": "8700834",
    "prefecture": "大分県",
    "prefecture_kana": "オオイタケン",
    "prefecture_code": 44,
    "city": "大分市",
    "city_kana": "オオイタシ",
    "town": "上野丘西",
    "town_kana": "ウエノガオカニシ",
    "street": null,
    "office_name": null,
    "office_name_kana": null
  },
  "0835": {
    "postcode": "8700835",
    "prefecture": "大分県",
    "prefecture_kana": "オオイタケン",
    "prefecture_code": 44,
    "city": "大分市",
    "city_kana": "オオイタシ",
    "town": "上野丘",
    "town_kana": "ウエノガオカ",
    "street": null,
    "office_name": null,
    "office_name_kana": null
  },
  "0837": {
    "postcode": "8700837",
    "prefecture": "大分県",
    "prefecture_kana": "オオイタケン",
    "prefecture_code": 44,
    "city": "大分市",
    "city_kana": "オオイタシ",
    "town": "太平町",
    "town_kana": "タイヘイマチ",
    "street": null,
    "office_name": null,
    "office_name_kana": null
  },
  "0838": {
    "postcode": "8700838",
    "prefecture": "大分県",
    "prefecture_kana": "オオイタケン",
    "prefecture_code": 44,
    "city": "大分市",
    "city_kana": "オオイタシ",
    "town": "桜ケ丘",
    "town_kana": "サクラガオカ",
    "street": null,
    "office_name": null,
    "office_name_kana": null
  },
  "0839": {
    "postcode": "8700839",
    "prefecture": "大分県",
    "prefecture_kana": "オオイタケン",
    "prefecture_code": 44,
    "city": "大分市",
    "city_kana": "オオイタシ",
    "town": "金池南",
    "town_kana": "カナイケミナミ",
    "street": null,
    "office_name": null,
    "office_name_kana": null
  },
  "0841": {
    "postcode": "8700841",
    "prefecture": "大分県",
    "prefecture_kana": "オオイタケン",
    "prefecture_code": 44,
    "city": "大分市",
    "city_kana": "オオイタシ",
    "town": "六坊北町",
    "town_kana": "ロクボウキタマチ",
    "street": null,
    "office_name": null,
    "office_name_kana": null
  },
  "0842": {
    "postcode": "8700842",
    "prefecture": "大分県",
    "prefecture_kana": "オオイタケン",
    "prefecture_code": 44,
    "city": "大分市",
    "city_kana": "オオイタシ",
    "town": "六坊南町",
    "town_kana": "ロクボウミナミマチ",
    "street": null,
    "office_name": null,
    "office_name_kana": null
  },
  "0843": {
    "postcode": "8700843",
    "prefecture": "大分県",
    "prefecture_kana": "オオイタケン",
    "prefecture_code": 44,
    "city": "大分市",
    "city_kana": "オオイタシ",
    "town": "元町",
    "town_kana": "モトマチ",
    "street": null,
    "office_name": null,
    "office_name_kana": null
  },
  "0844": {
    "postcode": "8700844",
    "prefecture": "大分県",
    "prefecture_kana": "オオイタケン",
    "prefecture_code": 44,
    "city": "大分市",
    "city_kana": "オオイタシ",
    "town": "古国府",
    "town_kana": "フルゴウ",
    "street": null,
    "office_name": null,
    "office_name_kana": null
  },
  "0846": {
    "postcode": "8700846",
    "prefecture": "大分県",
    "prefecture_kana": "オオイタケン",
    "prefecture_code": 44,
    "city": "大分市",
    "city_kana": "オオイタシ",
    "town": "花園",
    "town_kana": "ハナゾノ",
    "street": null,
    "office_name": null,
    "office_name_kana": null
  },
  "0847": {
    "postcode": "8700847",
    "prefecture": "大分県",
    "prefecture_kana": "オオイタケン",
    "prefecture_code": 44,
    "city": "大分市",
    "city_kana": "オオイタシ",
    "town": "広瀬町",
    "town_kana": "ヒロセマチ",
    "street": null,
    "office_name": null,
    "office_name_kana": null
  },
  "0848": {
    "postcode": "8700848",
    "prefecture": "大分県",
    "prefecture_kana": "オオイタケン",
    "prefecture_code": 44,
    "city": "大分市",
    "city_kana": "オオイタシ",
    "town": "賀来北",
    "town_kana": "カクキタ",
    "street": null,
    "office_name": null,
    "office_name_kana": null
  },
  "0849": {
    "postcode": "8700849",
    "prefecture": "大分県",
    "prefecture_kana": "オオイタケン",
    "prefecture_code": 44,
    "city": "大分市",
    "city_kana": "オオイタシ",
    "town": "賀来南",
    "town_kana": "カクミナミ",
    "street": null,
    "office_name": null,
    "office_name_kana": null
  },
  "0850": {
    "postcode": "8700850",
    "prefecture": "大分県",
    "prefecture_kana": "オオイタケン",
    "prefecture_code": 44,
    "city": "大分市",
    "city_kana": "オオイタシ",
    "town": "賀来西",
    "town_kana": "カクニシ",
    "street": null,
    "office_name": null,
    "office_name_kana": null
  },
  "0851": {
    "postcode": "8700851",
    "prefecture": "大分県",
    "prefecture_kana": "オオイタケン",
    "prefecture_code": 44,
    "city": "大分市",
    "city_kana": "オオイタシ",
    "town": "大石町",
    "town_kana": "オオイシマチ",
    "street": null,
    "office_name": null,
    "office_name_kana": null
  },
  "0852": {
    "postcode": "8700852",
    "prefecture": "大分県",
    "prefecture_kana": "オオイタケン",
    "prefecture_code": 44,
    "city": "大分市",
    "city_kana": "オオイタシ",
    "town": "田中町",
    "town_kana": "タナカマチ",
    "street": null,
    "office_name": null,
    "office_name_kana": null
  },
  "0853": {
    "postcode": "8700853",
    "prefecture": "大分県",
    "prefecture_kana": "オオイタケン",
    "prefecture_code": 44,
    "city": "大分市",
    "city_kana": "オオイタシ",
    "town": "羽屋新町",
    "town_kana": "ハヤシンマチ",
    "street": null,
    "office_name": null,
    "office_name_kana": null
  },
  "0854": {
    "postcode": "8700854",
    "prefecture": "大分県",
    "prefecture_kana": "オオイタケン",
    "prefecture_code": 44,
    "city": "大分市",
    "city_kana": "オオイタシ",
    "town": "羽屋",
    "town_kana": "ハヤ",
    "street": null,
    "office_name": null,
    "office_name_kana": null
  },
  "0855": {
    "postcode": "8700855",
    "prefecture": "大分県",
    "prefecture_kana": "オオイタケン",
    "prefecture_code": 44,
    "city": "大分市",
    "city_kana": "オオイタシ",
    "town": "豊饒",
    "town_kana": "ブニョウ",
    "street": null,
    "office_name": null,
    "office_name_kana": null
  },
  "0856": {
    "postcode": "8700856",
    "prefecture": "大分県",
    "prefecture_kana": "オオイタケン",
    "prefecture_code": 44,
    "city": "大分市",
    "city_kana": "オオイタシ",
    "town": "畑中",
    "town_kana": "ハタケナカ",
    "street": null,
    "office_name": null,
    "office_name_kana": null
  },
  "0857": {
    "postcode": "8700857",
    "prefecture": "大分県",
    "prefecture_kana": "オオイタケン",
    "prefecture_code": 44,
    "city": "大分市",
    "city_kana": "オオイタシ",
    "town": "明磧",
    "town_kana": "アケガワラ",
    "street": null,
    "office_name": null,
    "office_name_kana": null
  },
  "0858": {
    "postcode": "8700858",
    "prefecture": "大分県",
    "prefecture_kana": "オオイタケン",
    "prefecture_code": 44,
    "city": "大分市",
    "city_kana": "オオイタシ",
    "town": "尼が瀬",
    "town_kana": "アマガセ",
    "street": null,
    "office_name": null,
    "office_name_kana": null
  },
  "0859": {
    "postcode": "8700859",
    "prefecture": "大分県",
    "prefecture_kana": "オオイタケン",
    "prefecture_code": 44,
    "city": "大分市",
    "city_kana": "オオイタシ",
    "town": "中の瀬町",
    "town_kana": "ナカノセマチ",
    "street": null,
    "office_name": null,
    "office_name_kana": null
  },
  "0860": {
    "postcode": "8700860",
    "prefecture": "大分県",
    "prefecture_kana": "オオイタケン",
    "prefecture_code": 44,
    "city": "大分市",
    "city_kana": "オオイタシ",
    "town": "明磧町",
    "town_kana": "アケガワラマチ",
    "street": null,
    "office_name": null,
    "office_name_kana": null
  },
  "0861": {
    "postcode": "8700861",
    "prefecture": "大分県",
    "prefecture_kana": "オオイタケン",
    "prefecture_code": 44,
    "city": "大分市",
    "city_kana": "オオイタシ",
    "town": "東院",
    "town_kana": "トイ",
    "street": null,
    "office_name": null,
    "office_name_kana": null
  },
  "0862": {
    "postcode": "8700862",
    "prefecture": "大分県",
    "prefecture_kana": "オオイタケン",
    "prefecture_code": 44,
    "city": "大分市",
    "city_kana": "オオイタシ",
    "town": "中尾",
    "town_kana": "ナカオ",
    "street": null,
    "office_name": null,
    "office_name_kana": null
  },
  "0863": {
    "postcode": "8700863",
    "prefecture": "大分県",
    "prefecture_kana": "オオイタケン",
    "prefecture_code": 44,
    "city": "大分市",
    "city_kana": "オオイタシ",
    "town": "国分台",
    "town_kana": "コクブダイ",
    "street": null,
    "office_name": null,
    "office_name_kana": null
  },
  "0864": {
    "postcode": "8700864",
    "prefecture": "大分県",
    "prefecture_kana": "オオイタケン",
    "prefecture_code": 44,
    "city": "大分市",
    "city_kana": "オオイタシ",
    "town": "国分",
    "town_kana": "コクブ",
    "street": null,
    "office_name": null,
    "office_name_kana": null
  },
  "0865": {
    "postcode": "8700865",
    "prefecture": "大分県",
    "prefecture_kana": "オオイタケン",
    "prefecture_code": 44,
    "city": "大分市",
    "city_kana": "オオイタシ",
    "town": "国分団地",
    "town_kana": "コクブダンチ",
    "street": null,
    "office_name": null,
    "office_name_kana": null
  },
  "0866": {
    "postcode": "8700866",
    "prefecture": "大分県",
    "prefecture_kana": "オオイタケン",
    "prefecture_code": 44,
    "city": "大分市",
    "city_kana": "オオイタシ",
    "town": "平横瀬",
    "town_kana": "ヒラヨコセ",
    "street": null,
    "office_name": null,
    "office_name_kana": null
  },
  "0867": {
    "postcode": "8700867",
    "prefecture": "大分県",
    "prefecture_kana": "オオイタケン",
    "prefecture_code": 44,
    "city": "大分市",
    "city_kana": "オオイタシ",
    "town": "東野台",
    "town_kana": "トウノダイ",
    "street": null,
    "office_name": null,
    "office_name_kana": null
  },
  "0868": {
    "postcode": "8700868",
    "prefecture": "大分県",
    "prefecture_kana": "オオイタケン",
    "prefecture_code": 44,
    "city": "大分市",
    "city_kana": "オオイタシ",
    "town": "野田",
    "town_kana": "ノダ",
    "street": null,
    "office_name": null,
    "office_name_kana": null
  },
  "0869": {
    "postcode": "8700869",
    "prefecture": "大分県",
    "prefecture_kana": "オオイタケン",
    "prefecture_code": 44,
    "city": "大分市",
    "city_kana": "オオイタシ",
    "town": "国分新町",
    "town_kana": "コクブシンマチ",
    "street": null,
    "office_name": null,
    "office_name_kana": null
  },
  "0870": {
    "postcode": "8700870",
    "prefecture": "大分県",
    "prefecture_kana": "オオイタケン",
    "prefecture_code": 44,
    "city": "大分市",
    "city_kana": "オオイタシ",
    "town": "季の坂",
    "town_kana": "キノサカ",
    "street": null,
    "office_name": null,
    "office_name_kana": null
  },
  "0871": {
    "postcode": "8700871",
    "prefecture": "大分県",
    "prefecture_kana": "オオイタケン",
    "prefecture_code": 44,
    "city": "大分市",
    "city_kana": "オオイタシ",
    "town": "東八幡",
    "town_kana": "ヒガシヤハタ",
    "street": null,
    "office_name": null,
    "office_name_kana": null
  },
  "0872": {
    "postcode": "8700872",
    "prefecture": "大分県",
    "prefecture_kana": "オオイタケン",
    "prefecture_code": 44,
    "city": "大分市",
    "city_kana": "オオイタシ",
    "town": "高崎",
    "town_kana": "タカサキ",
    "street": null,
    "office_name": null,
    "office_name_kana": null
  },
  "0873": {
    "postcode": "8700873",
    "prefecture": "大分県",
    "prefecture_kana": "オオイタケン",
    "prefecture_code": 44,
    "city": "大分市",
    "city_kana": "オオイタシ",
    "town": "高尾台",
    "town_kana": "タカオダイ",
    "street": null,
    "office_name": null,
    "office_name_kana": null
  },
  "0874": {
    "postcode": "8700874",
    "prefecture": "大分県",
    "prefecture_kana": "オオイタケン",
    "prefecture_code": 44,
    "city": "大分市",
    "city_kana": "オオイタシ",
    "town": "にじが丘",
    "town_kana": "ニジガオカ",
    "street": null,
    "office_name": null,
    "office_name_kana": null
  },
  "0875": {
    "postcode": "8700875",
    "prefecture": "大分県",
    "prefecture_kana": "オオイタケン",
    "prefecture_code": 44,
    "city": "大分市",
    "city_kana": "オオイタシ",
    "town": "青葉台",
    "town_kana": "アオバダイ",
    "street": null,
    "office_name": null,
    "office_name_kana": null
  },
  "0876": {
    "postcode": "8700876",
    "prefecture": "大分県",
    "prefecture_kana": "オオイタケン",
    "prefecture_code": 44,
    "city": "大分市",
    "city_kana": "オオイタシ",
    "town": "庄の原",
    "town_kana": "ショウノハル",
    "street": null,
    "office_name": null,
    "office_name_kana": null
  },
  "0877": {
    "postcode": "8700877",
    "prefecture": "大分県",
    "prefecture_kana": "オオイタケン",
    "prefecture_code": 44,
    "city": "大分市",
    "city_kana": "オオイタシ",
    "town": "賀来",
    "town_kana": "カク",
    "street": null,
    "office_name": null,
    "office_name_kana": null
  },
  "0878": {
    "postcode": "8700878",
    "prefecture": "大分県",
    "prefecture_kana": "オオイタケン",
    "prefecture_code": 44,
    "city": "大分市",
    "city_kana": "オオイタシ",
    "town": "宮苑",
    "town_kana": "ミヤゾノ",
    "street": null,
    "office_name": null,
    "office_name_kana": null
  },
  "0879": {
    "postcode": "8700879",
    "prefecture": "大分県",
    "prefecture_kana": "オオイタケン",
    "prefecture_code": 44,
    "city": "大分市",
    "city_kana": "オオイタシ",
    "town": "金谷迫",
    "town_kana": "カナヤザコ",
    "street": null,
    "office_name": null,
    "office_name_kana": null
  },
  "0880": {
    "postcode": "8700880",
    "prefecture": "大分県",
    "prefecture_kana": "オオイタケン",
    "prefecture_code": 44,
    "city": "大分市",
    "city_kana": "オオイタシ",
    "town": "はなの森",
    "town_kana": "ハナノモリ",
    "street": null,
    "office_name": null,
    "office_name_kana": null
  },
  "0881": {
    "postcode": "8700881",
    "prefecture": "大分県",
    "prefecture_kana": "オオイタケン",
    "prefecture_code": 44,
    "city": "大分市",
    "city_kana": "オオイタシ",
    "town": "深河内",
    "town_kana": "フカガワウチ",
    "street": null,
    "office_name": null,
    "office_name_kana": null
  },
  "0882": {
    "postcode": "8700882",
    "prefecture": "大分県",
    "prefecture_kana": "オオイタケン",
    "prefecture_code": 44,
    "city": "大分市",
    "city_kana": "オオイタシ",
    "town": "竹の上",
    "town_kana": "タケノウエ",
    "street": null,
    "office_name": null,
    "office_name_kana": null
  },
  "0883": {
    "postcode": "8700883",
    "prefecture": "大分県",
    "prefecture_kana": "オオイタケン",
    "prefecture_code": 44,
    "city": "大分市",
    "city_kana": "オオイタシ",
    "town": "永興",
    "town_kana": "リョウゴ",
    "street": null,
    "office_name": null,
    "office_name_kana": null
  },
  "0884": {
    "postcode": "8700884",
    "prefecture": "大分県",
    "prefecture_kana": "オオイタケン",
    "prefecture_code": 44,
    "city": "大分市",
    "city_kana": "オオイタシ",
    "town": "旭町",
    "town_kana": "アサヒマチ",
    "street": null,
    "office_name": null,
    "office_name_kana": null
  },
  "0885": {
    "postcode": "8700885",
    "prefecture": "大分県",
    "prefecture_kana": "オオイタケン",
    "prefecture_code": 44,
    "city": "大分市",
    "city_kana": "オオイタシ",
    "town": "南太平寺",
    "town_kana": "ミナミタイヘイジ",
    "street": null,
    "office_name": null,
    "office_name_kana": null
  },
  "0886": {
    "postcode": "8700886",
    "prefecture": "大分県",
    "prefecture_kana": "オオイタケン",
    "prefecture_code": 44,
    "city": "大分市",
    "city_kana": "オオイタシ",
    "town": "上田町",
    "town_kana": "ウエダマチ",
    "street": null,
    "office_name": null,
    "office_name_kana": null
  },
  "0887": {
    "postcode": "8700887",
    "prefecture": "大分県",
    "prefecture_kana": "オオイタケン",
    "prefecture_code": 44,
    "city": "大分市",
    "city_kana": "オオイタシ",
    "town": "二又町",
    "town_kana": "フタマタマチ",
    "street": null,
    "office_name": null,
    "office_name_kana": null
  },
  "0888": {
    "postcode": "8700888",
    "prefecture": "大分県",
    "prefecture_kana": "オオイタケン",
    "prefecture_code": 44,
    "city": "大分市",
    "city_kana": "オオイタシ",
    "town": "三ケ田町",
    "town_kana": "ミケタマチ",
    "street": null,
    "office_name": null,
    "office_name_kana": null
  },
  "0889": {
    "postcode": "8700889",
    "prefecture": "大分県",
    "prefecture_kana": "オオイタケン",
    "prefecture_code": 44,
    "city": "大分市",
    "city_kana": "オオイタシ",
    "town": "荏隈",
    "town_kana": "エノクマ",
    "street": null,
    "office_name": null,
    "office_name_kana": null
  },
  "0891": {
    "postcode": "8700891",
    "prefecture": "大分県",
    "prefecture_kana": "オオイタケン",
    "prefecture_code": 44,
    "city": "大分市",
    "city_kana": "オオイタシ",
    "town": "荏隈町",
    "town_kana": "エノクママチ",
    "street": null,
    "office_name": null,
    "office_name_kana": null
  },
  "0892": {
    "postcode": "8700892",
    "prefecture": "大分県",
    "prefecture_kana": "オオイタケン",
    "prefecture_code": 44,
    "city": "大分市",
    "city_kana": "オオイタシ",
    "town": "賀来新川",
    "town_kana": "カクシンカワ",
    "street": null,
    "office_name": null,
    "office_name_kana": null
  },
  "0901": {
    "postcode": "8700901",
    "prefecture": "大分県",
    "prefecture_kana": "オオイタケン",
    "prefecture_code": 44,
    "city": "大分市",
    "city_kana": "オオイタシ",
    "town": "西新地",
    "town_kana": "ニシシンチ",
    "street": null,
    "office_name": null,
    "office_name_kana": null
  },
  "0902": {
    "postcode": "8700902",
    "prefecture": "大分県",
    "prefecture_kana": "オオイタケン",
    "prefecture_code": 44,
    "city": "大分市",
    "city_kana": "オオイタシ",
    "town": "西ノ洲",
    "town_kana": "ニシノス",
    "street": null,
    "office_name": null,
    "office_name_kana": null
  },
  "0903": {
    "postcode": "8700903",
    "prefecture": "大分県",
    "prefecture_kana": "オオイタケン",
    "prefecture_code": 44,
    "city": "大分市",
    "city_kana": "オオイタシ",
    "town": "向原沖",
    "town_kana": "ムカイバルオキ",
    "street": null,
    "office_name": null,
    "office_name_kana": null
  },
  "0904": {
    "postcode": "8700904",
    "prefecture": "大分県",
    "prefecture_kana": "オオイタケン",
    "prefecture_code": 44,
    "city": "大分市",
    "city_kana": "オオイタシ",
    "town": "向原東",
    "town_kana": "ムカイバルヒガシ",
    "street": null,
    "office_name": null,
    "office_name_kana": null
  },
  "0905": {
    "postcode": "8700905",
    "prefecture": "大分県",
    "prefecture_kana": "オオイタケン",
    "prefecture_code": 44,
    "city": "大分市",
    "city_kana": "オオイタシ",
    "town": "向原西",
    "town_kana": "ムカイバルニシ",
    "street": null,
    "office_name": null,
    "office_name_kana": null
  },
  "0906": {
    "postcode": "8700906",
    "prefecture": "大分県",
    "prefecture_kana": "オオイタケン",
    "prefecture_code": 44,
    "city": "大分市",
    "city_kana": "オオイタシ",
    "town": "大州浜",
    "town_kana": "オオスハマ",
    "street": null,
    "office_name": null,
    "office_name_kana": null
  },
  "0907": {
    "postcode": "8700907",
    "prefecture": "大分県",
    "prefecture_kana": "オオイタケン",
    "prefecture_code": 44,
    "city": "大分市",
    "city_kana": "オオイタシ",
    "town": "大津町",
    "town_kana": "オオツマチ",
    "street": null,
    "office_name": null,
    "office_name_kana": null
  },
  "0908": {
    "postcode": "8700908",
    "prefecture": "大分県",
    "prefecture_kana": "オオイタケン",
    "prefecture_code": 44,
    "city": "大分市",
    "city_kana": "オオイタシ",
    "town": "青葉町",
    "town_kana": "アオバマチ",
    "street": null,
    "office_name": null,
    "office_name_kana": null
  },
  "0911": {
    "postcode": "8700911",
    "prefecture": "大分県",
    "prefecture_kana": "オオイタケン",
    "prefecture_code": 44,
    "city": "大分市",
    "city_kana": "オオイタシ",
    "town": "新貝",
    "town_kana": "シンガイ",
    "street": null,
    "office_name": null,
    "office_name_kana": null
  },
  "0912": {
    "postcode": "8700912",
    "prefecture": "大分県",
    "prefecture_kana": "オオイタケン",
    "prefecture_code": 44,
    "city": "大分市",
    "city_kana": "オオイタシ",
    "town": "原新町",
    "town_kana": "ハルシンマチ",
    "street": null,
    "office_name": null,
    "office_name_kana": null
  },
  "0913": {
    "postcode": "8700913",
    "prefecture": "大分県",
    "prefecture_kana": "オオイタケン",
    "prefecture_code": 44,
    "city": "大分市",
    "city_kana": "オオイタシ",
    "town": "松原町",
    "town_kana": "マツバラマチ",
    "street": null,
    "office_name": null,
    "office_name_kana": null
  },
  "0914": {
    "postcode": "8700914",
    "prefecture": "大分県",
    "prefecture_kana": "オオイタケン",
    "prefecture_code": 44,
    "city": "大分市",
    "city_kana": "オオイタシ",
    "town": "日岡",
    "town_kana": "ヒオカ",
    "street": null,
    "office_name": null,
    "office_name_kana": null
  },
  "0915": {
    "postcode": "8700915",
    "prefecture": "大分県",
    "prefecture_kana": "オオイタケン",
    "prefecture_code": 44,
    "city": "大分市",
    "city_kana": "オオイタシ",
    "town": "花高松",
    "town_kana": "ハナタカマツ",
    "street": null,
    "office_name": null,
    "office_name_kana": null
  },
  "0916": {
    "postcode": "8700916",
    "prefecture": "大分県",
    "prefecture_kana": "オオイタケン",
    "prefecture_code": 44,
    "city": "大分市",
    "city_kana": "オオイタシ",
    "town": "高松東",
    "town_kana": "タカマツヒガシ",
    "street": null,
    "office_name": null,
    "office_name_kana": null
  },
  "0917": {
    "postcode": "8700917",
    "prefecture": "大分県",
    "prefecture_kana": "オオイタケン",
    "prefecture_code": 44,
    "city": "大分市",
    "city_kana": "オオイタシ",
    "town": "高松",
    "town_kana": "タカマツ",
    "street": null,
    "office_name": null,
    "office_name_kana": null
  },
  "0918": {
    "postcode": "8700918",
    "prefecture": "大分県",
    "prefecture_kana": "オオイタケン",
    "prefecture_code": 44,
    "city": "大分市",
    "city_kana": "オオイタシ",
    "town": "日吉町",
    "town_kana": "ヒヨシマチ",
    "street": null,
    "office_name": null,
    "office_name_kana": null
  },
  "0919": {
    "postcode": "8700919",
    "prefecture": "大分県",
    "prefecture_kana": "オオイタケン",
    "prefecture_code": 44,
    "city": "大分市",
    "city_kana": "オオイタシ",
    "town": "新栄町",
    "town_kana": "シンサカエマチ",
    "street": null,
    "office_name": null,
    "office_name_kana": null
  },
  "0921": {
    "postcode": "8700921",
    "prefecture": "大分県",
    "prefecture_kana": "オオイタケン",
    "prefecture_code": 44,
    "city": "大分市",
    "city_kana": "オオイタシ",
    "town": "萩原",
    "town_kana": "ハギワラ",
    "street": null,
    "office_name": null,
    "office_name_kana": null
  },
  "0922": {
    "postcode": "8700922",
    "prefecture": "大分県",
    "prefecture_kana": "オオイタケン",
    "prefecture_code": 44,
    "city": "大分市",
    "city_kana": "オオイタシ",
    "town": "城東町",
    "town_kana": "ジョウトウマチ",
    "street": null,
    "office_name": null,
    "office_name_kana": null
  },
  "0923": {
    "postcode": "8700923",
    "prefecture": "大分県",
    "prefecture_kana": "オオイタケン",
    "prefecture_code": 44,
    "city": "大分市",
    "city_kana": "オオイタシ",
    "town": "高城西町",
    "town_kana": "タカジョウニシマチ",
    "street": null,
    "office_name": null,
    "office_name_kana": null
  },
  "0924": [
    {
      "postcode": "8700924",
      "prefecture": "大分県",
      "prefecture_kana": "オオイタケン",
      "prefecture_code": 44,
      "city": "大分市",
      "city_kana": "オオイタシ",
      "town": "牧",
      "town_kana": "マキ",
      "street": null,
      "office_name": null,
      "office_name_kana": null
    },
    {
      "postcode": "8700924",
      "prefecture": "大分県",
      "prefecture_kana": "オオイタケン",
      "prefecture_code": 44,
      "city": "大分市",
      "city_kana": "オオイタシ",
      "town": "牧高見",
      "town_kana": "マキタカミ",
      "street": null,
      "office_name": null,
      "office_name_kana": null
    }
  ],
  "0925": {
    "postcode": "8700925",
    "prefecture": "大分県",
    "prefecture_kana": "オオイタケン",
    "prefecture_code": 44,
    "city": "大分市",
    "city_kana": "オオイタシ",
    "town": "牧上町",
    "town_kana": "マキカミマチ",
    "street": null,
    "office_name": null,
    "office_name_kana": null
  },
  "0926": {
    "postcode": "8700926",
    "prefecture": "大分県",
    "prefecture_kana": "オオイタケン",
    "prefecture_code": 44,
    "city": "大分市",
    "city_kana": "オオイタシ",
    "town": "加納",
    "town_kana": "カノウ",
    "street": null,
    "office_name": null,
    "office_name_kana": null
  },
  "0927": {
    "postcode": "8700927",
    "prefecture": "大分県",
    "prefecture_kana": "オオイタケン",
    "prefecture_code": 44,
    "city": "大分市",
    "city_kana": "オオイタシ",
    "town": "北下郡",
    "town_kana": "キタシモゴオリ",
    "street": null,
    "office_name": null,
    "office_name_kana": null
  },
  "0928": {
    "postcode": "8700928",
    "prefecture": "大分県",
    "prefecture_kana": "オオイタケン",
    "prefecture_code": 44,
    "city": "大分市",
    "city_kana": "オオイタシ",
    "town": "南下郡",
    "town_kana": "ミナミシモゴオリ",
    "street": null,
    "office_name": null,
    "office_name_kana": null
  },
  "0929": {
    "postcode": "8700929",
    "prefecture": "大分県",
    "prefecture_kana": "オオイタケン",
    "prefecture_code": 44,
    "city": "大分市",
    "city_kana": "オオイタシ",
    "town": "長谷町",
    "town_kana": "ナガタニマチ",
    "street": null,
    "office_name": null,
    "office_name_kana": null
  },
  "0930": {
    "postcode": "8700930",
    "prefecture": "大分県",
    "prefecture_kana": "オオイタケン",
    "prefecture_code": 44,
    "city": "大分市",
    "city_kana": "オオイタシ",
    "town": "津留",
    "town_kana": "ツル",
    "street": null,
    "office_name": null,
    "office_name_kana": null
  },
  "0931": {
    "postcode": "8700931",
    "prefecture": "大分県",
    "prefecture_kana": "オオイタケン",
    "prefecture_code": 44,
    "city": "大分市",
    "city_kana": "オオイタシ",
    "town": "西浜",
    "town_kana": "ニシハマ",
    "street": null,
    "office_name": null,
    "office_name_kana": null
  },
  "0932": {
    "postcode": "8700932",
    "prefecture": "大分県",
    "prefecture_kana": "オオイタケン",
    "prefecture_code": 44,
    "city": "大分市",
    "city_kana": "オオイタシ",
    "town": "東浜",
    "town_kana": "ヒガシハマ",
    "street": null,
    "office_name": null,
    "office_name_kana": null
  },
  "0933": {
    "postcode": "8700933",
    "prefecture": "大分県",
    "prefecture_kana": "オオイタケン",
    "prefecture_code": 44,
    "city": "大分市",
    "city_kana": "オオイタシ",
    "town": "花津留",
    "town_kana": "ハナヅル",
    "street": null,
    "office_name": null,
    "office_name_kana": null
  },
  "0934": {
    "postcode": "8700934",
    "prefecture": "大分県",
    "prefecture_kana": "オオイタケン",
    "prefecture_code": 44,
    "city": "大分市",
    "city_kana": "オオイタシ",
    "town": "東津留",
    "town_kana": "ヒガシヅル",
    "street": null,
    "office_name": null,
    "office_name_kana": null
  },
  "0935": {
    "postcode": "8700935",
    "prefecture": "大分県",
    "prefecture_kana": "オオイタケン",
    "prefecture_code": 44,
    "city": "大分市",
    "city_kana": "オオイタシ",
    "town": "古ケ鶴",
    "town_kana": "コガヅル",
    "street": null,
    "office_name": null,
    "office_name_kana": null
  },
  "0936": {
    "postcode": "8700936",
    "prefecture": "大分県",
    "prefecture_kana": "オオイタケン",
    "prefecture_code": 44,
    "city": "大分市",
    "city_kana": "オオイタシ",
    "town": "岩田町",
    "town_kana": "イワタマチ",
    "street": null,
    "office_name": null,
    "office_name_kana": null
  },
  "0937": {
    "postcode": "8700937",
    "prefecture": "大分県",
    "prefecture_kana": "オオイタケン",
    "prefecture_code": 44,
    "city": "大分市",
    "city_kana": "オオイタシ",
    "town": "南津留",
    "town_kana": "ミナミヅル",
    "street": null,
    "office_name": null,
    "office_name_kana": null
  },
  "0938": {
    "postcode": "8700938",
    "prefecture": "大分県",
    "prefecture_kana": "オオイタケン",
    "prefecture_code": 44,
    "city": "大分市",
    "city_kana": "オオイタシ",
    "town": "今津留",
    "town_kana": "イマヅル",
    "street": null,
    "office_name": null,
    "office_name_kana": null
  },
  "0939": {
    "postcode": "8700939",
    "prefecture": "大分県",
    "prefecture_kana": "オオイタケン",
    "prefecture_code": 44,
    "city": "大分市",
    "city_kana": "オオイタシ",
    "town": "中津留",
    "town_kana": "ナカヅル",
    "street": null,
    "office_name": null,
    "office_name_kana": null
  },
  "0941": {
    "postcode": "8700941",
    "prefecture": "大分県",
    "prefecture_kana": "オオイタケン",
    "prefecture_code": 44,
    "city": "大分市",
    "city_kana": "オオイタシ",
    "town": "下郡工業団地",
    "town_kana": "シモゴオリコウギョウダンチ",
    "street": null,
    "office_name": null,
    "office_name_kana": null
  },
  "0942": {
    "postcode": "8700942",
    "prefecture": "大分県",
    "prefecture_kana": "オオイタケン",
    "prefecture_code": 44,
    "city": "大分市",
    "city_kana": "オオイタシ",
    "town": "羽田",
    "town_kana": "ハダ",
    "street": null,
    "office_name": null,
    "office_name_kana": null
  },
  "0943": {
    "postcode": "8700943",
    "prefecture": "大分県",
    "prefecture_kana": "オオイタケン",
    "prefecture_code": 44,
    "city": "大分市",
    "city_kana": "オオイタシ",
    "town": "片島",
    "town_kana": "カタシマ",
    "street": null,
    "office_name": null,
    "office_name_kana": null
  },
  "0944": {
    "postcode": "8700944",
    "prefecture": "大分県",
    "prefecture_kana": "オオイタケン",
    "prefecture_code": 44,
    "city": "大分市",
    "city_kana": "オオイタシ",
    "town": "米良",
    "town_kana": "メラ",
    "street": null,
    "office_name": null,
    "office_name_kana": null
  },
  "0945": {
    "postcode": "8700945",
    "prefecture": "大分県",
    "prefecture_kana": "オオイタケン",
    "prefecture_code": 44,
    "city": "大分市",
    "city_kana": "オオイタシ",
    "town": "津守",
    "town_kana": "ツモリ",
    "street": null,
    "office_name": null,
    "office_name_kana": null
  },
  "0946": {
    "postcode": "8700946",
    "prefecture": "大分県",
    "prefecture_kana": "オオイタケン",
    "prefecture_code": 44,
    "city": "大分市",
    "city_kana": "オオイタシ",
    "town": "曲",
    "town_kana": "マガリ",
    "street": null,
    "office_name": null,
    "office_name_kana": null
  },
  "0947": {
    "postcode": "8700947",
    "prefecture": "大分県",
    "prefecture_kana": "オオイタケン",
    "prefecture_code": 44,
    "city": "大分市",
    "city_kana": "オオイタシ",
    "town": "富岡",
    "town_kana": "トミオカ",
    "street": null,
    "office_name": null,
    "office_name_kana": null
  },
  "0948": {
    "postcode": "8700948",
    "prefecture": "大分県",
    "prefecture_kana": "オオイタケン",
    "prefecture_code": 44,
    "city": "大分市",
    "city_kana": "オオイタシ",
    "town": "芳河原台",
    "town_kana": "ホウガワラダイ",
    "street": null,
    "office_name": null,
    "office_name_kana": null
  },
  "0949": {
    "postcode": "8700949",
    "prefecture": "大分県",
    "prefecture_kana": "オオイタケン",
    "prefecture_code": 44,
    "city": "大分市",
    "city_kana": "オオイタシ",
    "town": "かたしま台",
    "town_kana": "カタシマダイ",
    "street": null,
    "office_name": null,
    "office_name_kana": null
  },
  "0951": {
    "postcode": "8700951",
    "prefecture": "大分県",
    "prefecture_kana": "オオイタケン",
    "prefecture_code": 44,
    "city": "大分市",
    "city_kana": "オオイタシ",
    "town": "下郡",
    "town_kana": "シモゴオリ",
    "street": null,
    "office_name": null,
    "office_name_kana": null
  },
  "0952": {
    "postcode": "8700952",
    "prefecture": "大分県",
    "prefecture_kana": "オオイタケン",
    "prefecture_code": 44,
    "city": "大分市",
    "city_kana": "オオイタシ",
    "town": "下郡北",
    "town_kana": "シモゴウリキタ",
    "street": null,
    "office_name": null,
    "office_name_kana": null
  },
  "0953": {
    "postcode": "8700953",
    "prefecture": "大分県",
    "prefecture_kana": "オオイタケン",
    "prefecture_code": 44,
    "city": "大分市",
    "city_kana": "オオイタシ",
    "town": "下郡東",
    "town_kana": "シモゴウリヒガシ",
    "street": null,
    "office_name": null,
    "office_name_kana": null
  },
  "0954": {
    "postcode": "8700954",
    "prefecture": "大分県",
    "prefecture_kana": "オオイタケン",
    "prefecture_code": 44,
    "city": "大分市",
    "city_kana": "オオイタシ",
    "town": "下郡中央",
    "town_kana": "シモゴウリチュウオウ",
    "street": null,
    "office_name": null,
    "office_name_kana": null
  },
  "0955": {
    "postcode": "8700955",
    "prefecture": "大分県",
    "prefecture_kana": "オオイタケン",
    "prefecture_code": 44,
    "city": "大分市",
    "city_kana": "オオイタシ",
    "town": "下郡南",
    "town_kana": "シモゴウリミナミ",
    "street": null,
    "office_name": null,
    "office_name_kana": null
  },
  "0956": {
    "postcode": "8700956",
    "prefecture": "大分県",
    "prefecture_kana": "オオイタケン",
    "prefecture_code": 44,
    "city": "大分市",
    "city_kana": "オオイタシ",
    "town": "裏川団地",
    "town_kana": "ウラカワダンチ",
    "street": null,
    "office_name": null,
    "office_name_kana": null
  },
  "0957": {
    "postcode": "8700957",
    "prefecture": "大分県",
    "prefecture_kana": "オオイタケン",
    "prefecture_code": 44,
    "city": "大分市",
    "city_kana": "オオイタシ",
    "town": "藤の台",
    "town_kana": "フジノダイ",
    "street": null,
    "office_name": null,
    "office_name_kana": null
  },
  "0958": {
    "postcode": "8700958",
    "prefecture": "大分県",
    "prefecture_kana": "オオイタケン",
    "prefecture_code": 44,
    "city": "大分市",
    "city_kana": "オオイタシ",
    "town": "ゆめが丘",
    "town_kana": "ユメガオカ",
    "street": null,
    "office_name": null,
    "office_name_kana": null
  },
  "0959": {
    "postcode": "8700959",
    "prefecture": "大分県",
    "prefecture_kana": "オオイタケン",
    "prefecture_code": 44,
    "city": "大分市",
    "city_kana": "オオイタシ",
    "town": "希望が丘",
    "town_kana": "キボウガオカ",
    "street": null,
    "office_name": null,
    "office_name_kana": null
  },
  "0961": {
    "postcode": "8700961",
    "prefecture": "大分県",
    "prefecture_kana": "オオイタケン",
    "prefecture_code": 44,
    "city": "大分市",
    "city_kana": "オオイタシ",
    "town": "下郡山の手",
    "town_kana": "シモゴウリヤマノテ",
    "street": null,
    "office_name": null,
    "office_name_kana": null
  },
  "0992": {
    "postcode": "8700992",
    "prefecture": "大分県",
    "prefecture_kana": "オオイタケン",
    "prefecture_code": 44,
    "city": "大分市",
    "city_kana": "オオイタシ",
    "town": "西ノ洲",
    "town_kana": "ニシノス",
    "street": "一番地",
    "office_name": "日本製鉄　株式会社　九州製鉄所大分地区",
    "office_name_kana": "ニツポンセイテツ カブシキカイシヤ キユウシユウセイテツシヨオオイタチク"
  },
  "1101": {
    "postcode": "8701101",
    "prefecture": "大分県",
    "prefecture_kana": "オオイタケン",
    "prefecture_code": 44,
    "city": "大分市",
    "city_kana": "オオイタシ",
    "town": "敷戸北町",
    "town_kana": "シキドキタマチ",
    "street": null,
    "office_name": null,
    "office_name_kana": null
  },
  "1102": {
    "postcode": "8701102",
    "prefecture": "大分県",
    "prefecture_kana": "オオイタケン",
    "prefecture_code": 44,
    "city": "大分市",
    "city_kana": "オオイタシ",
    "town": "敷戸新町",
    "town_kana": "シキドシンマチ",
    "street": null,
    "office_name": null,
    "office_name_kana": null
  },
  "1103": {
    "postcode": "8701103",
    "prefecture": "大分県",
    "prefecture_kana": "オオイタケン",
    "prefecture_code": 44,
    "city": "大分市",
    "city_kana": "オオイタシ",
    "town": "敷戸西町",
    "town_kana": "シキドニシマチ",
    "street": null,
    "office_name": null,
    "office_name_kana": null
  },
  "1104": {
    "postcode": "8701104",
    "prefecture": "大分県",
    "prefecture_kana": "オオイタケン",
    "prefecture_code": 44,
    "city": "大分市",
    "city_kana": "オオイタシ",
    "town": "敷戸東町",
    "town_kana": "シキドヒガシマチ",
    "street": null,
    "office_name": null,
    "office_name_kana": null
  },
  "1105": {
    "postcode": "8701105",
    "prefecture": "大分県",
    "prefecture_kana": "オオイタケン",
    "prefecture_code": 44,
    "city": "大分市",
    "city_kana": "オオイタシ",
    "town": "敷戸南町",
    "town_kana": "シキドミナミマチ",
    "street": null,
    "office_name": null,
    "office_name_kana": null
  },
  "1106": {
    "postcode": "8701106",
    "prefecture": "大分県",
    "prefecture_kana": "オオイタケン",
    "prefecture_code": 44,
    "city": "大分市",
    "city_kana": "オオイタシ",
    "town": "敷戸台",
    "town_kana": "シキドダイ",
    "street": null,
    "office_name": null,
    "office_name_kana": null
  },
  "1107": {
    "postcode": "8701107",
    "prefecture": "大分県",
    "prefecture_kana": "オオイタケン",
    "prefecture_code": 44,
    "city": "大分市",
    "city_kana": "オオイタシ",
    "town": "敷戸駅北町",
    "town_kana": "シキドエキキタマチ",
    "street": null,
    "office_name": null,
    "office_name_kana": null
  },
  "1108": {
    "postcode": "8701108",
    "prefecture": "大分県",
    "prefecture_kana": "オオイタケン",
    "prefecture_code": 44,
    "city": "大分市",
    "city_kana": "オオイタシ",
    "town": "判田台東",
    "town_kana": "ハンダダイヒガシ",
    "street": null,
    "office_name": null,
    "office_name_kana": null
  },
  "1109": {
    "postcode": "8701109",
    "prefecture": "大分県",
    "prefecture_kana": "オオイタケン",
    "prefecture_code": 44,
    "city": "大分市",
    "city_kana": "オオイタシ",
    "town": "判田台南",
    "town_kana": "ハンダダイミナミ",
    "street": null,
    "office_name": null,
    "office_name_kana": null
  },
  "1110": {
    "postcode": "8701110",
    "prefecture": "大分県",
    "prefecture_kana": "オオイタケン",
    "prefecture_code": 44,
    "city": "大分市",
    "city_kana": "オオイタシ",
    "town": "判田台",
    "town_kana": "ハンダダイ",
    "street": null,
    "office_name": null,
    "office_name_kana": null
  },
  "1111": {
    "postcode": "8701111",
    "prefecture": "大分県",
    "prefecture_kana": "オオイタケン",
    "prefecture_code": 44,
    "city": "大分市",
    "city_kana": "オオイタシ",
    "town": "上判田",
    "town_kana": "カミハンダ",
    "street": null,
    "office_name": null,
    "office_name_kana": null
  },
  "1112": {
    "postcode": "8701112",
    "prefecture": "大分県",
    "prefecture_kana": "オオイタケン",
    "prefecture_code": 44,
    "city": "大分市",
    "city_kana": "オオイタシ",
    "town": "下判田",
    "town_kana": "シモハンダ",
    "street": null,
    "office_name": null,
    "office_name_kana": null
  },
  "1113": {
    "postcode": "8701113",
    "prefecture": "大分県",
    "prefecture_kana": "オオイタケン",
    "prefecture_code": 44,
    "city": "大分市",
    "city_kana": "オオイタシ",
    "town": "中判田",
    "town_kana": "ナカハンダ",
    "street": null,
    "office_name": null,
    "office_name_kana": null
  },
  "1114": {
    "postcode": "8701114",
    "prefecture": "大分県",
    "prefecture_kana": "オオイタケン",
    "prefecture_code": 44,
    "city": "大分市",
    "city_kana": "オオイタシ",
    "town": "星和台",
    "town_kana": "セイワダイ",
    "street": null,
    "office_name": null,
    "office_name_kana": null
  },
  "1115": {
    "postcode": "8701115",
    "prefecture": "大分県",
    "prefecture_kana": "オオイタケン",
    "prefecture_code": 44,
    "city": "大分市",
    "city_kana": "オオイタシ",
    "town": "ひばりケ丘",
    "town_kana": "ヒバリガオカ",
    "street": null,
    "office_name": null,
    "office_name_kana": null
  },
  "1116": {
    "postcode": "8701116",
    "prefecture": "大分県",
    "prefecture_kana": "オオイタケン",
    "prefecture_code": 44,
    "city": "大分市",
    "city_kana": "オオイタシ",
    "town": "高江中央",
    "town_kana": "タカエチュウオウ",
    "street": null,
    "office_name": null,
    "office_name_kana": null
  },
  "1117": {
    "postcode": "8701117",
    "prefecture": "大分県",
    "prefecture_kana": "オオイタケン",
    "prefecture_code": 44,
    "city": "大分市",
    "city_kana": "オオイタシ",
    "town": "高江西",
    "town_kana": "タカエニシ",
    "street": null,
    "office_name": null,
    "office_name_kana": null
  },
  "1118": {
    "postcode": "8701118",
    "prefecture": "大分県",
    "prefecture_kana": "オオイタケン",
    "prefecture_code": 44,
    "city": "大分市",
    "city_kana": "オオイタシ",
    "town": "高江南",
    "town_kana": "タカエミナミ",
    "street": null,
    "office_name": null,
    "office_name_kana": null
  },
  "1119": {
    "postcode": "8701119",
    "prefecture": "大分県",
    "prefecture_kana": "オオイタケン",
    "prefecture_code": 44,
    "city": "大分市",
    "city_kana": "オオイタシ",
    "town": "高江北",
    "town_kana": "タカエキタ",
    "street": null,
    "office_name": null,
    "office_name_kana": null
  },
  "1120": {
    "postcode": "8701120",
    "prefecture": "大分県",
    "prefecture_kana": "オオイタケン",
    "prefecture_code": 44,
    "city": "大分市",
    "city_kana": "オオイタシ",
    "town": "サンシャインしきど",
    "town_kana": "サンシャインシキド",
    "street": null,
    "office_name": null,
    "office_name_kana": null
  },
  "1121": {
    "postcode": "8701121",
    "prefecture": "大分県",
    "prefecture_kana": "オオイタケン",
    "prefecture_code": 44,
    "city": "大分市",
    "city_kana": "オオイタシ",
    "town": "鴛野",
    "town_kana": "オシノ",
    "street": null,
    "office_name": null,
    "office_name_kana": null
  },
  "1122": {
    "postcode": "8701122",
    "prefecture": "大分県",
    "prefecture_kana": "オオイタケン",
    "prefecture_code": 44,
    "city": "大分市",
    "city_kana": "オオイタシ",
    "town": "敷戸",
    "town_kana": "シキド",
    "street": null,
    "office_name": null,
    "office_name_kana": null
  },
  "1123": {
    "postcode": "8701123",
    "prefecture": "大分県",
    "prefecture_kana": "オオイタケン",
    "prefecture_code": 44,
    "city": "大分市",
    "city_kana": "オオイタシ",
    "town": "寒田",
    "town_kana": "ソウダ",
    "street": null,
    "office_name": null,
    "office_name_kana": null
  },
  "1124": {
    "postcode": "8701124",
    "prefecture": "大分県",
    "prefecture_kana": "オオイタケン",
    "prefecture_code": 44,
    "city": "大分市",
    "city_kana": "オオイタシ",
    "town": "旦野原",
    "town_kana": "ダンノハル",
    "street": null,
    "office_name": null,
    "office_name_kana": null
  },
  "1125": {
    "postcode": "8701125",
    "prefecture": "大分県",
    "prefecture_kana": "オオイタケン",
    "prefecture_code": 44,
    "city": "大分市",
    "city_kana": "オオイタシ",
    "town": "大園団地",
    "town_kana": "オオゾノダンチ",
    "street": null,
    "office_name": null,
    "office_name_kana": null
  },
  "1126": {
    "postcode": "8701126",
    "prefecture": "大分県",
    "prefecture_kana": "オオイタケン",
    "prefecture_code": 44,
    "city": "大分市",
    "city_kana": "オオイタシ",
    "town": "判田台北",
    "town_kana": "ハンダダイキタ",
    "street": null,
    "office_name": null,
    "office_name_kana": null
  },
  "1127": {
    "postcode": "8701127",
    "prefecture": "大分県",
    "prefecture_kana": "オオイタケン",
    "prefecture_code": 44,
    "city": "大分市",
    "city_kana": "オオイタシ",
    "town": "寒田わかば台",
    "town_kana": "ソウダワカバダイ",
    "street": null,
    "office_name": null,
    "office_name_kana": null
  },
  "1128": {
    "postcode": "8701128",
    "prefecture": "大分県",
    "prefecture_kana": "オオイタケン",
    "prefecture_code": 44,
    "city": "大分市",
    "city_kana": "オオイタシ",
    "town": "花の木坂",
    "town_kana": "ハナノキザカ",
    "street": null,
    "office_name": null,
    "office_name_kana": null
  },
  "1130": {
    "postcode": "8701130",
    "prefecture": "大分県",
    "prefecture_kana": "オオイタケン",
    "prefecture_code": 44,
    "city": "大分市",
    "city_kana": "オオイタシ",
    "town": "田尻中央",
    "town_kana": "タジリチュウオウ",
    "street": null,
    "office_name": null,
    "office_name_kana": null
  },
  "1131": {
    "postcode": "8701131",
    "prefecture": "大分県",
    "prefecture_kana": "オオイタケン",
    "prefecture_code": 44,
    "city": "大分市",
    "city_kana": "オオイタシ",
    "town": "岡川",
    "town_kana": "オカガワ",
    "street": null,
    "office_name": null,
    "office_name_kana": null
  },
  "1132": {
    "postcode": "8701132",
    "prefecture": "大分県",
    "prefecture_kana": "オオイタケン",
    "prefecture_code": 44,
    "city": "大分市",
    "city_kana": "オオイタシ",
    "town": "光吉",
    "town_kana": "ミツヨシ",
    "street": null,
    "office_name": null,
    "office_name_kana": null
  },
  "1133": {
    "postcode": "8701133",
    "prefecture": "大分県",
    "prefecture_kana": "オオイタケン",
    "prefecture_code": 44,
    "city": "大分市",
    "city_kana": "オオイタシ",
    "town": "宮崎",
    "town_kana": "ミヤザキ",
    "street": null,
    "office_name": null,
    "office_name_kana": null
  },
  "1134": {
    "postcode": "8701134",
    "prefecture": "大分県",
    "prefecture_kana": "オオイタケン",
    "prefecture_code": 44,
    "city": "大分市",
    "city_kana": "オオイタシ",
    "town": "小原団地",
    "town_kana": "コバルダンチ",
    "street": null,
    "office_name": null,
    "office_name_kana": null
  },
  "1135": {
    "postcode": "8701135",
    "prefecture": "大分県",
    "prefecture_kana": "オオイタケン",
    "prefecture_code": 44,
    "city": "大分市",
    "city_kana": "オオイタシ",
    "town": "光吉新町",
    "town_kana": "ミツヨシシンマチ",
    "street": null,
    "office_name": null,
    "office_name_kana": null
  },
  "1136": {
    "postcode": "8701136",
    "prefecture": "大分県",
    "prefecture_kana": "オオイタケン",
    "prefecture_code": 44,
    "city": "大分市",
    "city_kana": "オオイタシ",
    "town": "光吉台",
    "town_kana": "ミツヨシダイ",
    "street": null,
    "office_name": null,
    "office_name_kana": null
  },
  "1137": {
    "postcode": "8701137",
    "prefecture": "大分県",
    "prefecture_kana": "オオイタケン",
    "prefecture_code": 44,
    "city": "大分市",
    "city_kana": "オオイタシ",
    "town": "宮崎台",
    "town_kana": "ミヤザキダイ",
    "street": null,
    "office_name": null,
    "office_name_kana": null
  },
  "1138": {
    "postcode": "8701138",
    "prefecture": "大分県",
    "prefecture_kana": "オオイタケン",
    "prefecture_code": 44,
    "city": "大分市",
    "city_kana": "オオイタシ",
    "town": "寒田北町",
    "town_kana": "ソウダキタマチ",
    "street": null,
    "office_name": null,
    "office_name_kana": null
  },
  "1139": {
    "postcode": "8701139",
    "prefecture": "大分県",
    "prefecture_kana": "オオイタケン",
    "prefecture_code": 44,
    "city": "大分市",
    "city_kana": "オオイタシ",
    "town": "寒田南町",
    "town_kana": "ソウダミナミマチ",
    "street": null,
    "office_name": null,
    "office_name_kana": null
  },
  "1140": {
    "postcode": "8701140",
    "prefecture": "大分県",
    "prefecture_kana": "オオイタケン",
    "prefecture_code": 44,
    "city": "大分市",
    "city_kana": "オオイタシ",
    "town": "田尻北",
    "town_kana": "タジリキタ",
    "street": null,
    "office_name": null,
    "office_name_kana": null
  },
  "1141": {
    "postcode": "8701141",
    "prefecture": "大分県",
    "prefecture_kana": "オオイタケン",
    "prefecture_code": 44,
    "city": "大分市",
    "city_kana": "オオイタシ",
    "town": "下宗方",
    "town_kana": "シモムナカタ",
    "street": null,
    "office_name": null,
    "office_name_kana": null
  },
  "1142": {
    "postcode": "8701142",
    "prefecture": "大分県",
    "prefecture_kana": "オオイタケン",
    "prefecture_code": 44,
    "city": "大分市",
    "city_kana": "オオイタシ",
    "town": "高瀬",
    "town_kana": "タカセ",
    "street": null,
    "office_name": null,
    "office_name_kana": null
  },
  "1143": {
    "postcode": "8701143",
    "prefecture": "大分県",
    "prefecture_kana": "オオイタケン",
    "prefecture_code": 44,
    "city": "大分市",
    "city_kana": "オオイタシ",
    "town": "田尻",
    "town_kana": "タジリ",
    "street": null,
    "office_name": null,
    "office_name_kana": null
  },
  "1144": {
    "postcode": "8701144",
    "prefecture": "大分県",
    "prefecture_kana": "オオイタケン",
    "prefecture_code": 44,
    "city": "大分市",
    "city_kana": "オオイタシ",
    "town": "田尻西",
    "town_kana": "タジリニシ",
    "street": null,
    "office_name": null,
    "office_name_kana": null
  },
  "1145": {
    "postcode": "8701145",
    "prefecture": "大分県",
    "prefecture_kana": "オオイタケン",
    "prefecture_code": 44,
    "city": "大分市",
    "city_kana": "オオイタシ",
    "town": "田尻南",
    "town_kana": "タジリミナミ",
    "street": null,
    "office_name": null,
    "office_name_kana": null
  },
  "1146": {
    "postcode": "8701146",
    "prefecture": "大分県",
    "prefecture_kana": "オオイタケン",
    "prefecture_code": 44,
    "city": "大分市",
    "city_kana": "オオイタシ",
    "town": "曲",
    "town_kana": "マガリ",
    "street": null,
    "office_name": null,
    "office_name_kana": null
  },
  "1147": {
    "postcode": "8701147",
    "prefecture": "大分県",
    "prefecture_kana": "オオイタケン",
    "prefecture_code": 44,
    "city": "大分市",
    "city_kana": "オオイタシ",
    "town": "ふじが丘",
    "town_kana": "フジガオカ",
    "street": null,
    "office_name": null,
    "office_name_kana": null
  },
  "1148": {
    "postcode": "8701148",
    "prefecture": "大分県",
    "prefecture_kana": "オオイタケン",
    "prefecture_code": 44,
    "city": "大分市",
    "city_kana": "オオイタシ",
    "town": "天領ハイツ",
    "town_kana": "テンリョウハイツ",
    "street": null,
    "office_name": null,
    "office_name_kana": null
  },
  "1149": {
    "postcode": "8701149",
    "prefecture": "大分県",
    "prefecture_kana": "オオイタケン",
    "prefecture_code": 44,
    "city": "大分市",
    "city_kana": "オオイタシ",
    "town": "田尻東",
    "town_kana": "タジリヒガシ",
    "street": null,
    "office_name": null,
    "office_name_kana": null
  },
  "1150": {
    "postcode": "8701150",
    "prefecture": "大分県",
    "prefecture_kana": "オオイタケン",
    "prefecture_code": 44,
    "city": "大分市",
    "city_kana": "オオイタシ",
    "town": "小野鶴南",
    "town_kana": "オノツルミナミ",
    "street": null,
    "office_name": null,
    "office_name_kana": null
  },
  "1151": {
    "postcode": "8701151",
    "prefecture": "大分県",
    "prefecture_kana": "オオイタケン",
    "prefecture_code": 44,
    "city": "大分市",
    "city_kana": "オオイタシ",
    "town": "市",
    "town_kana": "イチ",
    "street": null,
    "office_name": null,
    "office_name_kana": null
  },
  "1152": {
    "postcode": "8701152",
    "prefecture": "大分県",
    "prefecture_kana": "オオイタケン",
    "prefecture_code": 44,
    "city": "大分市",
    "city_kana": "オオイタシ",
    "town": "上宗方",
    "town_kana": "カミムナカタ",
    "street": null,
    "office_name": null,
    "office_name_kana": null
  },
  "1153": {
    "postcode": "8701153",
    "prefecture": "大分県",
    "prefecture_kana": "オオイタケン",
    "prefecture_code": 44,
    "city": "大分市",
    "city_kana": "オオイタシ",
    "town": "小野鶴",
    "town_kana": "オノヅル",
    "street": null,
    "office_name": null,
    "office_name_kana": null
  },
  "1154": {
    "postcode": "8701154",
    "prefecture": "大分県",
    "prefecture_kana": "オオイタケン",
    "prefecture_code": 44,
    "city": "大分市",
    "city_kana": "オオイタシ",
    "town": "田原",
    "town_kana": "タバル",
    "street": null,
    "office_name": null,
    "office_name_kana": null
  },
  "1155": {
    "postcode": "8701155",
    "prefecture": "大分県",
    "prefecture_kana": "オオイタケン",
    "prefecture_code": 44,
    "city": "大分市",
    "city_kana": "オオイタシ",
    "town": "玉沢",
    "town_kana": "タマザワ",
    "street": null,
    "office_name": null,
    "office_name_kana": null
  },
  "1156": {
    "postcode": "8701156",
    "prefecture": "大分県",
    "prefecture_kana": "オオイタケン",
    "prefecture_code": 44,
    "city": "大分市",
    "city_kana": "オオイタシ",
    "town": "小野鶴新町",
    "town_kana": "オノツルシンマチ",
    "street": null,
    "office_name": null,
    "office_name_kana": null
  },
  "1157": {
    "postcode": "8701157",
    "prefecture": "大分県",
    "prefecture_kana": "オオイタケン",
    "prefecture_code": 44,
    "city": "大分市",
    "city_kana": "オオイタシ",
    "town": "宗方台東",
    "town_kana": "ムナカタダイヒガシ",
    "street": null,
    "office_name": null,
    "office_name_kana": null
  },
  "1158": {
    "postcode": "8701158",
    "prefecture": "大分県",
    "prefecture_kana": "オオイタケン",
    "prefecture_code": 44,
    "city": "大分市",
    "city_kana": "オオイタシ",
    "town": "宗方台西",
    "town_kana": "ムナカタダイニシ",
    "street": null,
    "office_name": null,
    "office_name_kana": null
  },
  "1159": {
    "postcode": "8701159",
    "prefecture": "大分県",
    "prefecture_kana": "オオイタケン",
    "prefecture_code": 44,
    "city": "大分市",
    "city_kana": "オオイタシ",
    "town": "宗方台北",
    "town_kana": "ムナカタダイキタ",
    "street": null,
    "office_name": null,
    "office_name_kana": null
  },
  "1161": {
    "postcode": "8701161",
    "prefecture": "大分県",
    "prefecture_kana": "オオイタケン",
    "prefecture_code": 44,
    "city": "大分市",
    "city_kana": "オオイタシ",
    "town": "木上",
    "town_kana": "キノウエ",
    "street": null,
    "office_name": null,
    "office_name_kana": null
  },
  "1162": {
    "postcode": "8701162",
    "prefecture": "大分県",
    "prefecture_kana": "オオイタケン",
    "prefecture_code": 44,
    "city": "大分市",
    "city_kana": "オオイタシ",
    "town": "口戸",
    "town_kana": "クチド",
    "street": null,
    "office_name": null,
    "office_name_kana": null
  },
  "1163": {
    "postcode": "8701163",
    "prefecture": "大分県",
    "prefecture_kana": "オオイタケン",
    "prefecture_code": 44,
    "city": "大分市",
    "city_kana": "オオイタシ",
    "town": "廻栖野",
    "town_kana": "メグスノ",
    "street": null,
    "office_name": null,
    "office_name_kana": null
  },
  "1164": {
    "postcode": "8701164",
    "prefecture": "大分県",
    "prefecture_kana": "オオイタケン",
    "prefecture_code": 44,
    "city": "大分市",
    "city_kana": "オオイタシ",
    "town": "雄城台中央",
    "town_kana": "オギノダイチュウオウ",
    "street": null,
    "office_name": null,
    "office_name_kana": null
  },
  "1165": {
    "postcode": "8701165",
    "prefecture": "大分県",
    "prefecture_kana": "オオイタケン",
    "prefecture_code": 44,
    "city": "大分市",
    "city_kana": "オオイタシ",
    "town": "雄城台",
    "town_kana": "オギノダイ",
    "street": null,
    "office_name": null,
    "office_name_kana": null
  },
  "1166": {
    "postcode": "8701166",
    "prefecture": "大分県",
    "prefecture_kana": "オオイタケン",
    "prefecture_code": 44,
    "city": "大分市",
    "city_kana": "オオイタシ",
    "town": "椿が丘",
    "town_kana": "ツバキガオカ",
    "street": null,
    "office_name": null,
    "office_name_kana": null
  },
  "1167": {
    "postcode": "8701167",
    "prefecture": "大分県",
    "prefecture_kana": "オオイタケン",
    "prefecture_code": 44,
    "city": "大分市",
    "city_kana": "オオイタシ",
    "town": "上宗方南",
    "town_kana": "カミムナカタミナミ",
    "street": null,
    "office_name": null,
    "office_name_kana": null
  },
  "1168": {
    "postcode": "8701168",
    "prefecture": "大分県",
    "prefecture_kana": "オオイタケン",
    "prefecture_code": 44,
    "city": "大分市",
    "city_kana": "オオイタシ",
    "town": "松が丘",
    "town_kana": "マツガオカ",
    "street": null,
    "office_name": null,
    "office_name_kana": null
  },
  "1169": {
    "postcode": "8701169",
    "prefecture": "大分県",
    "prefecture_kana": "オオイタケン",
    "prefecture_code": 44,
    "city": "大分市",
    "city_kana": "オオイタシ",
    "town": "木上台",
    "town_kana": "キノウエダイ",
    "street": null,
    "office_name": null,
    "office_name_kana": null
  },
  "1171": {
    "postcode": "8701171",
    "prefecture": "大分県",
    "prefecture_kana": "オオイタケン",
    "prefecture_code": 44,
    "city": "大分市",
    "city_kana": "オオイタシ",
    "town": "鬼崎",
    "town_kana": "オニザキ",
    "street": null,
    "office_name": null,
    "office_name_kana": null
  },
  "1172": {
    "postcode": "8701172",
    "prefecture": "大分県",
    "prefecture_kana": "オオイタケン",
    "prefecture_code": 44,
    "city": "大分市",
    "city_kana": "オオイタシ",
    "town": "緑が丘",
    "town_kana": "ミドリガオカ",
    "street": null,
    "office_name": null,
    "office_name_kana": null
  },
  "1173": {
    "postcode": "8701173",
    "prefecture": "大分県",
    "prefecture_kana": "オオイタケン",
    "prefecture_code": 44,
    "city": "大分市",
    "city_kana": "オオイタシ",
    "town": "横瀬",
    "town_kana": "ヨコセ",
    "street": null,
    "office_name": null,
    "office_name_kana": null
  },
  "1174": {
    "postcode": "8701174",
    "prefecture": "大分県",
    "prefecture_kana": "オオイタケン",
    "prefecture_code": 44,
    "city": "大分市",
    "city_kana": "オオイタシ",
    "town": "萌葱台",
    "town_kana": "モエギダイ",
    "street": null,
    "office_name": null,
    "office_name_kana": null
  },
  "1176": {
    "postcode": "8701176",
    "prefecture": "大分県",
    "prefecture_kana": "オオイタケン",
    "prefecture_code": 44,
    "city": "大分市",
    "city_kana": "オオイタシ",
    "town": "富士見が丘東",
    "town_kana": "フジミガオカヒガシ",
    "street": null,
    "office_name": null,
    "office_name_kana": null
  },
  "1177": {
    "postcode": "8701177",
    "prefecture": "大分県",
    "prefecture_kana": "オオイタケン",
    "prefecture_code": 44,
    "city": "大分市",
    "city_kana": "オオイタシ",
    "town": "富士見が丘西",
    "town_kana": "フジミガオカニシ",
    "street": null,
    "office_name": null,
    "office_name_kana": null
  },
  "1181": {
    "postcode": "8701181",
    "prefecture": "大分県",
    "prefecture_kana": "オオイタケン",
    "prefecture_code": 44,
    "city": "大分市",
    "city_kana": "オオイタシ",
    "town": "ふじが丘北",
    "town_kana": "フジガオカキタ",
    "street": null,
    "office_name": null,
    "office_name_kana": null
  },
  "1182": {
    "postcode": "8701182",
    "prefecture": "大分県",
    "prefecture_kana": "オオイタケン",
    "prefecture_code": 44,
    "city": "大分市",
    "city_kana": "オオイタシ",
    "town": "ふじが丘東",
    "town_kana": "フジガオカヒガシ",
    "street": null,
    "office_name": null,
    "office_name_kana": null
  },
  "1183": {
    "postcode": "8701183",
    "prefecture": "大分県",
    "prefecture_kana": "オオイタケン",
    "prefecture_code": 44,
    "city": "大分市",
    "city_kana": "オオイタシ",
    "town": "ふじが丘南",
    "town_kana": "フジガオカミナミ",
    "street": null,
    "office_name": null,
    "office_name_kana": null
  },
  "1184": {
    "postcode": "8701184",
    "prefecture": "大分県",
    "prefecture_kana": "オオイタケン",
    "prefecture_code": 44,
    "city": "大分市",
    "city_kana": "オオイタシ",
    "town": "ふじが丘山手",
    "town_kana": "フジガオカヤマテ",
    "street": null,
    "office_name": null,
    "office_name_kana": null
  },
  "1185": {
    "postcode": "8701185",
    "prefecture": "大分県",
    "prefecture_kana": "オオイタケン",
    "prefecture_code": 44,
    "city": "大分市",
    "city_kana": "オオイタシ",
    "town": "ふじが丘西",
    "town_kana": "フジガオカニシ",
    "street": null,
    "office_name": null,
    "office_name_kana": null
  },
  "1192": {
    "postcode": "8701192",
    "prefecture": "大分県",
    "prefecture_kana": "オオイタケン",
    "prefecture_code": 44,
    "city": "大分市",
    "city_kana": "オオイタシ",
    "town": "大字旦野原",
    "town_kana": null,
    "street": "７００",
    "office_name": "大分大学",
    "office_name_kana": "オオイタダイガク"
  },
  "1195": {
    "postcode": "8701195",
    "prefecture": "大分県",
    "prefecture_kana": "オオイタケン",
    "prefecture_code": 44,
    "city": "大分市",
    "city_kana": "オオイタシ",
    "town": "大字宮崎",
    "town_kana": null,
    "street": "１５０９−２",
    "office_name": "大分市医師会立　アルメイダ病院",
    "office_name_kana": "オオイタシイシカイリツ アルメイダビヨウイン"
  },
  "1198": {
    "postcode": "8701198",
    "prefecture": "大分県",
    "prefecture_kana": "オオイタケン",
    "prefecture_code": 44,
    "city": "大分市",
    "city_kana": "オオイタシ",
    "town": "大字玉沢",
    "town_kana": null,
    "street": "字楠本７５５−１",
    "office_name": "株式会社　トキハ稙田店",
    "office_name_kana": "カブシキガイシヤ トキハワサダテン"
  },
  "1201": {
    "postcode": "8701201",
    "prefecture": "大分県",
    "prefecture_kana": "オオイタケン",
    "prefecture_code": 44,
    "city": "大分市",
    "city_kana": "オオイタシ",
    "town": "廻栖野",
    "town_kana": "メグスノ",
    "street": null,
    "office_name": null,
    "office_name_kana": null
  },
  "1202": {
    "postcode": "8701202",
    "prefecture": "大分県",
    "prefecture_kana": "オオイタケン",
    "prefecture_code": 44,
    "city": "大分市",
    "city_kana": "オオイタシ",
    "town": "入蔵",
    "town_kana": "イリクラ",
    "street": null,
    "office_name": null,
    "office_name_kana": null
  },
  "1203": {
    "postcode": "8701203",
    "prefecture": "大分県",
    "prefecture_kana": "オオイタケン",
    "prefecture_code": 44,
    "city": "大分市",
    "city_kana": "オオイタシ",
    "town": "野津原",
    "town_kana": "ノツハル",
    "street": null,
    "office_name": null,
    "office_name_kana": null
  },
  "1204": {
    "postcode": "8701204",
    "prefecture": "大分県",
    "prefecture_kana": "オオイタケン",
    "prefecture_code": 44,
    "city": "大分市",
    "city_kana": "オオイタシ",
    "town": "辻原",
    "town_kana": "ツジハル",
    "street": null,
    "office_name": null,
    "office_name_kana": null
  },
  "1205": {
    "postcode": "8701205",
    "prefecture": "大分県",
    "prefecture_kana": "オオイタケン",
    "prefecture_code": 44,
    "city": "大分市",
    "city_kana": "オオイタシ",
    "town": "福宗",
    "town_kana": "フクムネ",
    "street": null,
    "office_name": null,
    "office_name_kana": null
  },
  "1211": {
    "postcode": "8701211",
    "prefecture": "大分県",
    "prefecture_kana": "オオイタケン",
    "prefecture_code": 44,
    "city": "大分市",
    "city_kana": "オオイタシ",
    "town": "竹矢",
    "town_kana": "タケヤ",
    "street": null,
    "office_name": null,
    "office_name_kana": null
  },
  "1212": {
    "postcode": "8701212",
    "prefecture": "大分県",
    "prefecture_kana": "オオイタケン",
    "prefecture_code": 44,
    "city": "大分市",
    "city_kana": "オオイタシ",
    "town": "沢田",
    "town_kana": "サワタ",
    "street": null,
    "office_name": null,
    "office_name_kana": null
  },
  "1213": {
    "postcode": "8701213",
    "prefecture": "大分県",
    "prefecture_kana": "オオイタケン",
    "prefecture_code": 44,
    "city": "大分市",
    "city_kana": "オオイタシ",
    "town": "下原",
    "town_kana": "シモハラ",
    "street": null,
    "office_name": null,
    "office_name_kana": null
  },
  "1214": {
    "postcode": "8701214",
    "prefecture": "大分県",
    "prefecture_kana": "オオイタケン",
    "prefecture_code": 44,
    "city": "大分市",
    "city_kana": "オオイタシ",
    "town": "太田",
    "town_kana": "オオタ",
    "street": null,
    "office_name": null,
    "office_name_kana": null
  },
  "1215": {
    "postcode": "8701215",
    "prefecture": "大分県",
    "prefecture_kana": "オオイタケン",
    "prefecture_code": 44,
    "city": "大分市",
    "city_kana": "オオイタシ",
    "town": "上詰",
    "town_kana": "カミツメ",
    "street": null,
    "office_name": null,
    "office_name_kana": null
  },
  "1221": {
    "postcode": "8701221",
    "prefecture": "大分県",
    "prefecture_kana": "オオイタケン",
    "prefecture_code": 44,
    "city": "大分市",
    "city_kana": "オオイタシ",
    "town": "荷尾杵",
    "town_kana": "ニオキ",
    "street": null,
    "office_name": null,
    "office_name_kana": null
  },
  "1222": {
    "postcode": "8701222",
    "prefecture": "大分県",
    "prefecture_kana": "オオイタケン",
    "prefecture_code": 44,
    "city": "大分市",
    "city_kana": "オオイタシ",
    "town": "高原",
    "town_kana": "タカハラ",
    "street": null,
    "office_name": null,
    "office_name_kana": null
  },
  "1223": {
    "postcode": "8701223",
    "prefecture": "大分県",
    "prefecture_kana": "オオイタケン",
    "prefecture_code": 44,
    "city": "大分市",
    "city_kana": "オオイタシ",
    "town": "今市",
    "town_kana": "イマイチ",
    "street": null,
    "office_name": null,
    "office_name_kana": null
  },
  "1292": {
    "postcode": "8701292",
    "prefecture": "大分県",
    "prefecture_kana": "オオイタケン",
    "prefecture_code": 44,
    "city": "大分市",
    "city_kana": "オオイタシ",
    "town": "大字野津原",
    "town_kana": null,
    "street": "８００",
    "office_name": "大分市役所　野津原支所",
    "office_name_kana": "オオイタシヤクシヨ ノツハルシシヨ"
  },
  "8501": {
    "postcode": "8708501",
    "prefecture": "大分県",
    "prefecture_kana": "オオイタケン",
    "prefecture_code": 44,
    "city": "大分市",
    "city_kana": "オオイタシ",
    "town": "大手町",
    "town_kana": "オオテマチ",
    "street": "３丁目１−１",
    "office_name": "大分県庁",
    "office_name_kana": "オオイタケンチヨウ"
  },
  "8502": {
    "postcode": "8708502",
    "prefecture": "大分県",
    "prefecture_kana": "オオイタケン",
    "prefecture_code": 44,
    "city": "大分市",
    "city_kana": "オオイタシ",
    "town": "大手町",
    "town_kana": "オオテマチ",
    "street": "３丁目１−１",
    "office_name": "大分県　警察本部",
    "office_name_kana": "オオイタケン ケイサツホンブ"
  },
  "8503": {
    "postcode": "8708503",
    "prefecture": "大分県",
    "prefecture_kana": "オオイタケン",
    "prefecture_code": 44,
    "city": "大分市",
    "city_kana": "オオイタシ",
    "town": "府内町",
    "town_kana": "フナイマチ",
    "street": "３丁目１０−１",
    "office_name": "大分県　教育庁",
    "office_name_kana": "オオイタケン キヨウイクチヨウ"
  },
  "8504": {
    "postcode": "8708504",
    "prefecture": "大分県",
    "prefecture_kana": "オオイタケン",
    "prefecture_code": 44,
    "city": "大分市",
    "city_kana": "オオイタシ",
    "town": "荷揚町",
    "town_kana": "ニアゲマチ",
    "street": "２−３１",
    "office_name": "大分市役所",
    "office_name_kana": "オオイタシヤクシヨ"
  },
  "8506": {
    "postcode": "8708506",
    "prefecture": "大分県",
    "prefecture_kana": "オオイタケン",
    "prefecture_code": 44,
    "city": "大分市",
    "city_kana": "オオイタシ",
    "town": "荷揚町",
    "town_kana": "ニアゲマチ",
    "street": "６番１号",
    "office_name": "大分市保健所",
    "office_name_kana": "オオイタシホケンシヨ"
  },
  "8510": {
    "postcode": "8708510",
    "prefecture": "大分県",
    "prefecture_kana": "オオイタケン",
    "prefecture_code": 44,
    "city": "大分市",
    "city_kana": "オオイタシ",
    "town": "荷揚町",
    "town_kana": "ニアゲマチ",
    "street": "７番５号",
    "office_name": "大分地方検察庁",
    "office_name_kana": "オオイタチホウケンサツチヨウ"
  },
  "8511": {
    "postcode": "8708511",
    "prefecture": "大分県",
    "prefecture_kana": "オオイタケン",
    "prefecture_code": 44,
    "city": "大分市",
    "city_kana": "オオイタシ",
    "town": "大字豊饒",
    "town_kana": null,
    "street": "４７６",
    "office_name": "大分県立病院",
    "office_name_kana": "オオイタケンリツビヨウイン"
  },
  "8513": {
    "postcode": "8708513",
    "prefecture": "大分県",
    "prefecture_kana": "オオイタケン",
    "prefecture_code": 44,
    "city": "大分市",
    "city_kana": "オオイタシ",
    "town": "荷揚町",
    "town_kana": "ニアゲマチ",
    "street": "７番５号",
    "office_name": "大分地方法務局",
    "office_name_kana": "オオイタチホウホウムキヨク"
  },
  "8521": {
    "postcode": "8708521",
    "prefecture": "大分県",
    "prefecture_kana": "オオイタケン",
    "prefecture_code": 44,
    "city": "大分市",
    "city_kana": "オオイタシ",
    "town": "荷揚町",
    "town_kana": "ニアゲマチ",
    "street": "７番５号",
    "office_name": "福岡入国管理局　大分出張所",
    "office_name_kana": "フクオカニユウコクカンリキヨク オオイタシユツチヨウシヨ"
  },
  "8523": {
    "postcode": "8708523",
    "prefecture": "大分県",
    "prefecture_kana": "オオイタケン",
    "prefecture_code": 44,
    "city": "大分市",
    "city_kana": "オオイタシ",
    "town": "荷揚町",
    "town_kana": "ニアゲマチ",
    "street": "７番５号大分法務総合庁舎",
    "office_name": "大分保護観察所",
    "office_name_kana": "オオイタホゴカンサツシヨ"
  },
  "8524": {
    "postcode": "8708524",
    "prefecture": "大分県",
    "prefecture_kana": "オオイタケン",
    "prefecture_code": 44,
    "city": "大分市",
    "city_kana": "オオイタシ",
    "town": "新川西",
    "town_kana": "シンカワニシ",
    "street": "１２",
    "office_name": "大分朝日放送　株式会社",
    "office_name_kana": "オオイタアサヒホウソウ カブシキガイシヤ"
  },
  "8525": {
    "postcode": "8708525",
    "prefecture": "大分県",
    "prefecture_kana": "オオイタケン",
    "prefecture_code": 44,
    "city": "大分市",
    "city_kana": "オオイタシ",
    "town": "上野丘",
    "town_kana": "ウエノガオカ",
    "street": "１丁目１１番１４号",
    "office_name": "大分県立　爽風館高等学校",
    "office_name_kana": "オオイタケンリツ ソウフウカンコウトウガツコウ"
  },
  "8535": {
    "postcode": "8708535",
    "prefecture": "大分県",
    "prefecture_kana": "オオイタケン",
    "prefecture_code": 44,
    "city": "大分市",
    "city_kana": "オオイタシ",
    "town": "東春日町",
    "town_kana": "ヒガシカスガマチ",
    "street": "１３−１１",
    "office_name": "株式会社　マルショク",
    "office_name_kana": "カブシキガイシヤ マルシヨク"
  },
  "8538": {
    "postcode": "8708538",
    "prefecture": "大分県",
    "prefecture_kana": "オオイタケン",
    "prefecture_code": 44,
    "city": "大分市",
    "city_kana": "オオイタシ",
    "town": "王子南町",
    "town_kana": "オウジミナミマチ",
    "street": "８−２１",
    "office_name": "大分トヨペット　株式会社",
    "office_name_kana": "オオイタトヨペツト カブシキガイシヤ"
  },
  "8541": {
    "postcode": "8708541",
    "prefecture": "大分県",
    "prefecture_kana": "オオイタケン",
    "prefecture_code": 44,
    "city": "大分市",
    "city_kana": "オオイタシ",
    "town": "大字生石",
    "town_kana": null,
    "street": "９６１番地",
    "office_name": "フジボウファイバー　株式会社　大分工場",
    "office_name_kana": "フジボウフアイバ- カブシキガイシヤ オオイタコウジヨウ"
  },
  "8544": {
    "postcode": "8708544",
    "prefecture": "大分県",
    "prefecture_kana": "オオイタケン",
    "prefecture_code": 44,
    "city": "大分市",
    "city_kana": "オオイタシ",
    "town": "新川町",
    "town_kana": "シンカワマチ",
    "street": "２丁目５番１７号",
    "office_name": "社会保険診療報酬支払基金　大分支部",
    "office_name_kana": "シヤカイホケンシンリヨウホウシユウシハライキキン オオイタシブ"
  },
  "8550": {
    "postcode": "8708550",
    "prefecture": "大分県",
    "prefecture_kana": "オオイタケン",
    "prefecture_code": 44,
    "city": "大分市",
    "city_kana": "オオイタシ",
    "town": "要町",
    "town_kana": "カナメマチ",
    "street": "１番１４号",
    "office_name": "ＪＲおおいたシティ",
    "office_name_kana": "ジエイア-ルオオイタシテイ"
  },
  "8551": {
    "postcode": "8708551",
    "prefecture": "大分県",
    "prefecture_kana": "オオイタケン",
    "prefecture_code": 44,
    "city": "大分市",
    "city_kana": "オオイタシ",
    "town": "東春日町",
    "town_kana": "ヒガシカスガマチ",
    "street": "１７−５８",
    "office_name": "富士通　（株）　Ｏｉｔａ　Ｈｕｂ",
    "office_name_kana": "フジツウ カブシキカイシヤ オオイタハブ"
  },
  "8555": {
    "postcode": "8708555",
    "prefecture": "大分県",
    "prefecture_kana": "オオイタケン",
    "prefecture_code": 44,
    "city": "大分市",
    "city_kana": "オオイタシ",
    "town": "都町",
    "town_kana": "ミヤコマチ",
    "street": "４丁目１−２０",
    "office_name": "大分公共職業安定所　（ハローワーク大分）",
    "office_name_kana": "オオイタコウキヨウシヨクギヨウアンテイシヨ (ハロ-ワ-クオオイタ)"
  },
  "8558": {
    "postcode": "8708558",
    "prefecture": "大分県",
    "prefecture_kana": "オオイタケン",
    "prefecture_code": 44,
    "city": "大分市",
    "city_kana": "オオイタシ",
    "town": "府内町",
    "town_kana": "フナイマチ",
    "street": "３丁目８番８号ハニカムプラザ４階",
    "office_name": "株式会社　エフエム大分",
    "office_name_kana": "カブシキガイシヤ エフエムオオイタ"
  },
  "8560": {
    "postcode": "8708560",
    "prefecture": "大分県",
    "prefecture_kana": "オオイタケン",
    "prefecture_code": 44,
    "city": "大分市",
    "city_kana": "オオイタシ",
    "town": "新春日町",
    "town_kana": "シンカスガマチ",
    "street": "２丁目１−１",
    "office_name": "大分県立　大分西高等学校",
    "office_name_kana": "オオイタケンリツ オオイタニシコウトウガツコウ"
  },
  "8562": {
    "postcode": "8708562",
    "prefecture": "大分県",
    "prefecture_kana": "オオイタケン",
    "prefecture_code": 44,
    "city": "大分市",
    "city_kana": "オオイタシ",
    "town": "荷揚町",
    "town_kana": "ニアゲマチ",
    "street": "３番６号大分東京海上日動ビルディング",
    "office_name": "東京海上日動火災保険　株式会社　大分支店",
    "office_name_kana": "トウキヨウカイジヨウニチドウカサイホケン カブシキガイシヤ オオイタシテン"
  },
  "8563": {
    "postcode": "8708563",
    "prefecture": "大分県",
    "prefecture_kana": "オオイタケン",
    "prefecture_code": 44,
    "city": "大分市",
    "city_kana": "オオイタシ",
    "town": "大字駄原",
    "town_kana": null,
    "street": "２８９２−１",
    "office_name": "大分県医師会",
    "office_name_kana": "オオイタケンイシカイ"
  },
  "8564": {
    "postcode": "8708564",
    "prefecture": "大分県",
    "prefecture_kana": "オオイタケン",
    "prefecture_code": 44,
    "city": "大分市",
    "city_kana": "オオイタシ",
    "town": "荷揚町",
    "town_kana": "ニアゲマチ",
    "street": "７−１５",
    "office_name": "大分地方裁判所",
    "office_name_kana": "オオイタチホウサイバンシヨ"
  },
  "8570": {
    "postcode": "8708570",
    "prefecture": "大分県",
    "prefecture_kana": "オオイタケン",
    "prefecture_code": 44,
    "city": "大分市",
    "city_kana": "オオイタシ",
    "town": "金池南",
    "town_kana": "カナイケミナミ",
    "street": "１−５−１ホルトホール大分（ＭＮＣタウン２階）",
    "office_name": "全国健康保険協会　大分支部",
    "office_name_kana": "ゼンコクケンコウホケンキヨウカイ オオイタシブ"
  },
  "8585": {
    "postcode": "8708585",
    "prefecture": "大分県",
    "prefecture_kana": "オオイタケン",
    "prefecture_code": 44,
    "city": "大分市",
    "city_kana": "オオイタシ",
    "town": "中島中央",
    "town_kana": "ナカシマチュウオウ",
    "street": "３丁目４−１８",
    "office_name": "ヤマキ　株式会社",
    "office_name_kana": "ヤマキ カブシキガイシヤ"
  },
  "8588": {
    "postcode": "8708588",
    "prefecture": "大分県",
    "prefecture_kana": "オオイタケン",
    "prefecture_code": 44,
    "city": "大分市",
    "city_kana": "オオイタシ",
    "town": "畑中",
    "town_kana": "ハタケナカ",
    "street": "五丁目４番地１号",
    "office_name": "大分刑務所",
    "office_name_kana": "オオイタケイムシヨ"
  },
  "8601": {
    "postcode": "8708601",
    "prefecture": "大分県",
    "prefecture_kana": "オオイタケン",
    "prefecture_code": 44,
    "city": "大分市",
    "city_kana": "オオイタシ",
    "town": "府内町",
    "town_kana": "フナイマチ",
    "street": "３丁目４−１（大分中央郵便局私書箱第１号）",
    "office_name": "株式会社　大分銀行",
    "office_name_kana": "カブシキガイシヤ オオイタギンコウ"
  },
  "8602": {
    "postcode": "8708602",
    "prefecture": "大分県",
    "prefecture_kana": "オオイタケン",
    "prefecture_code": 44,
    "city": "大分市",
    "city_kana": "オオイタシ",
    "town": "西大道",
    "town_kana": "ニシオオミチ",
    "street": "二丁目３番８号",
    "office_name": "株式会社　アステム",
    "office_name_kana": "カブシキガイシヤ アステム"
  },
  "8605": {
    "postcode": "8708605",
    "prefecture": "大分県",
    "prefecture_kana": "オオイタケン",
    "prefecture_code": 44,
    "city": "大分市",
    "city_kana": "オオイタシ",
    "town": "府内町",
    "town_kana": "フナイマチ",
    "street": "３丁目９−１５（大分中央郵便局私書箱第５号）",
    "office_name": "大分合同新聞社",
    "office_name_kana": "オオイタゴウドウシンブンシヤ"
  },
  "8611": {
    "postcode": "8708611",
    "prefecture": "大分県",
    "prefecture_kana": "オオイタケン",
    "prefecture_code": 44,
    "city": "大分市",
    "city_kana": "オオイタシ",
    "town": "中島西",
    "town_kana": "ナカシマニシ",
    "street": "３丁目５−１（大分中央郵便局私書箱第１１号）",
    "office_name": "株式会社　佐伯建設",
    "office_name_kana": "カブシキガイシヤ サイキケンセツ"
  },
  "8616": {
    "postcode": "8708616",
    "prefecture": "大分県",
    "prefecture_kana": "オオイタケン",
    "prefecture_code": 44,
    "city": "大分市",
    "city_kana": "オオイタシ",
    "town": "中島西",
    "town_kana": "ナカシマニシ",
    "street": "１丁目１−３２（大分中央郵便局私書箱第１６号）",
    "office_name": "大分税務署",
    "office_name_kana": "オオイタゼイムシヨ"
  },
  "8619": {
    "postcode": "8708619",
    "prefecture": "大分県",
    "prefecture_kana": "オオイタケン",
    "prefecture_code": 44,
    "city": "大分市",
    "city_kana": "オオイタシ",
    "town": "碩田町",
    "town_kana": "セキデンマチ",
    "street": "３丁目１−４１（大分中央郵便局私書箱第１９号）",
    "office_name": "大分県酒類卸　株式会社",
    "office_name_kana": "オオイタケンシユルイオロシカブシキガイシヤ"
  },
  "8620": {
    "postcode": "8708620",
    "prefecture": "大分県",
    "prefecture_kana": "オオイタケン",
    "prefecture_code": 44,
    "city": "大分市",
    "city_kana": "オオイタシ",
    "town": "今津留",
    "town_kana": "イマヅル",
    "street": "３丁目１−１（大分中央郵便局私書箱第２０号）",
    "office_name": "株式会社　大分放送",
    "office_name_kana": "カブシキガイシヤ オオイタホウソウ"
  },
  "8627": {
    "postcode": "8708627",
    "prefecture": "大分県",
    "prefecture_kana": "オオイタケン",
    "prefecture_code": 44,
    "city": "大分市",
    "city_kana": "オオイタシ",
    "town": "城崎町",
    "town_kana": "シロサキマチ",
    "street": "２丁目６−３１（大分中央郵便局私書箱第２７号）",
    "office_name": "株式会社　大分銀行事務センター",
    "office_name_kana": "カブシキガイシヤ オオイタギンコウジムセンタ-"
  },
  "8634": {
    "postcode": "8708634",
    "prefecture": "大分県",
    "prefecture_kana": "オオイタケン",
    "prefecture_code": 44,
    "city": "大分市",
    "city_kana": "オオイタシ",
    "town": "舞鶴町",
    "town_kana": "マイヅルマチ",
    "street": "１丁目４−１５（大分中央郵便局私書箱第３４号）",
    "office_name": "大分県　信用農業協同組合連合会",
    "office_name_kana": "オオイタケン シンヨウノウギヨウキヨウドウクミアイレンゴウカイ"
  },
  "8635": {
    "postcode": "8708635",
    "prefecture": "大分県",
    "prefecture_kana": "オオイタケン",
    "prefecture_code": 44,
    "city": "大分市",
    "city_kana": "オオイタシ",
    "town": "大字古国府",
    "town_kana": null,
    "street": "１２２０（大分中央郵便局私書箱第３５号）",
    "office_name": "全国農業協同組合連合会　大分県本部",
    "office_name_kana": "ゼンコクノウギヨウキヨウドウクミアイレンゴウカイ オオイタケンホンブ"
  },
  "8636": {
    "postcode": "8708636",
    "prefecture": "大分県",
    "prefecture_kana": "オオイタケン",
    "prefecture_code": 44,
    "city": "大分市",
    "city_kana": "オオイタシ",
    "town": "",
    "town_kana": "",
    "street": "春日浦８４３−２５（大分中央郵便局私書箱第１５８号）",
    "office_name": "株式会社　テレビ大分",
    "office_name_kana": "カブシキガイシヤ テレビオオイタ"
  },
  "8646": {
    "postcode": "8708646",
    "prefecture": "大分県",
    "prefecture_kana": "オオイタケン",
    "prefecture_code": 44,
    "city": "大分市",
    "city_kana": "オオイタシ",
    "town": "大道町",
    "town_kana": "オオミチマチ",
    "street": "３丁目４−４２（大分中央郵便局私書箱第４６号）",
    "office_name": "大分信用金庫",
    "office_name_kana": "オオイタシンヨウキンコ"
  },
  "8658": {
    "postcode": "8708658",
    "prefecture": "大分県",
    "prefecture_kana": "オオイタケン",
    "prefecture_code": 44,
    "city": "大分市",
    "city_kana": "オオイタシ",
    "town": "千代町",
    "town_kana": "チヨマチ",
    "street": "２丁目４−４（大分中央郵便局私書箱第５８号）",
    "office_name": "学校法人　平松学園",
    "office_name_kana": "ガツコウホウジン ヒラマツガクエン"
  },
  "8660": {
    "postcode": "8708660",
    "prefecture": "大分県",
    "prefecture_kana": "オオイタケン",
    "prefecture_code": 44,
    "city": "大分市",
    "city_kana": "オオイタシ",
    "town": "高砂町",
    "town_kana": "タカサゴマチ",
    "street": "２−３６（大分中央郵便局私書箱第６０号）",
    "office_name": "ＮＨＫ　大分放送局",
    "office_name_kana": "エヌエイチケ- オオイタホウソウキヨク"
  },
  "8665": {
    "postcode": "8708665",
    "prefecture": "大分県",
    "prefecture_kana": "オオイタケン",
    "prefecture_code": 44,
    "city": "大分市",
    "city_kana": "オオイタシ",
    "town": "末広町",
    "town_kana": "スエヒロマチ",
    "street": "２丁目３−２８（大分中央郵便局私書箱第６５号）",
    "office_name": "株式会社　オーシー",
    "office_name_kana": "カブシキガイシヤ オ-シ-"
  },
  "8676": {
    "postcode": "8708676",
    "prefecture": "大分県",
    "prefecture_kana": "オオイタケン",
    "prefecture_code": 44,
    "city": "大分市",
    "city_kana": "オオイタシ",
    "town": "西大道",
    "town_kana": "ニシオオミチ",
    "street": "２丁目３番２８号",
    "office_name": "株式会社　サン・ダイコー",
    "office_name_kana": "カブシキカイシヤ サン・ダイコ-"
  },
  "8677": {
    "postcode": "8708677",
    "prefecture": "大分県",
    "prefecture_kana": "オオイタケン",
    "prefecture_code": 44,
    "city": "大分市",
    "city_kana": "オオイタシ",
    "town": "舞鶴町",
    "town_kana": "マイヅルマチ",
    "street": "１丁目４−３５大分三井ビル（大分中央郵便局私書箱第８６号）",
    "office_name": "梅林建設　株式会社",
    "office_name_kana": "ウメバヤシケンセツ カブシキガイシヤ"
  },
  "8686": {
    "postcode": "8708686",
    "prefecture": "大分県",
    "prefecture_kana": "オオイタケン",
    "prefecture_code": 44,
    "city": "大分市",
    "city_kana": "オオイタシ",
    "town": "王子中町",
    "town_kana": "オウジナカマチ",
    "street": "４−１０（大分中央郵便局私書箱第５３号）",
    "office_name": "株式会社　豊和銀行",
    "office_name_kana": "カブシキガイシヤ ホウワギンコウ"
  },
  "8687": {
    "postcode": "8708687",
    "prefecture": "大分県",
    "prefecture_kana": "オオイタケン",
    "prefecture_code": 44,
    "city": "大分市",
    "city_kana": "オオイタシ",
    "town": "中島西",
    "town_kana": "ナカシマニシ",
    "street": "２丁目４−１（大分中央郵便局私書箱第１０２号）",
    "office_name": "大分県信用組合",
    "office_name_kana": "オオイタケンシンヨウクミアイ"
  },
  "8688": {
    "postcode": "8708688",
    "prefecture": "大分県",
    "prefecture_kana": "オオイタケン",
    "prefecture_code": 44,
    "city": "大分市",
    "city_kana": "オオイタシ",
    "town": "府内町",
    "town_kana": "フナイマチ",
    "street": "２丁目１−４（大分中央郵便局私書箱第３号）",
    "office_name": "株式会社　トキハ　（大分店）",
    "office_name_kana": "カブシキガイシヤ トキワ (オオイタテン)"
  }
}