{
  "0000": [
    {
      "postcode": "8710000",
      "prefecture": "福岡県",
      "prefecture_kana": "フクオカケン",
      "prefecture_code": 40,
      "city": "築上郡吉富町",
      "city_kana": "チクジョウグンヨシトミマチ",
      "town": "",
      "town_kana": "",
      "street": null,
      "office_name": null,
      "office_name_kana": null
    },
    {
      "postcode": "8710000",
      "prefecture": "大分県",
      "prefecture_kana": "オオイタケン",
      "prefecture_code": 44,
      "city": "中津市",
      "city_kana": "ナカツシ",
      "town": "",
      "town_kana": "",
      "street": null,
      "office_name": null,
      "office_name_kana": null
    }
  ],
  "0001": {
    "postcode": "8710001",
    "prefecture": "大分県",
    "prefecture_kana": "オオイタケン",
    "prefecture_code": 44,
    "city": "中津市",
    "city_kana": "ナカツシ",
    "town": "大新田",
    "town_kana": "オオシンデン",
    "street": null,
    "office_name": null,
    "office_name_kana": null
  },
  "0002": {
    "postcode": "8710002",
    "prefecture": "大分県",
    "prefecture_kana": "オオイタケン",
    "prefecture_code": 44,
    "city": "中津市",
    "city_kana": "ナカツシ",
    "town": "全徳",
    "town_kana": "ゼントク",
    "street": null,
    "office_name": null,
    "office_name_kana": null
  },
  "0003": {
    "postcode": "8710003",
    "prefecture": "大分県",
    "prefecture_kana": "オオイタケン",
    "prefecture_code": 44,
    "city": "中津市",
    "city_kana": "ナカツシ",
    "town": "是則",
    "town_kana": "コレノリ",
    "street": null,
    "office_name": null,
    "office_name_kana": null
  },
  "0004": {
    "postcode": "8710004",
    "prefecture": "大分県",
    "prefecture_kana": "オオイタケン",
    "prefecture_code": 44,
    "city": "中津市",
    "city_kana": "ナカツシ",
    "town": "上如水",
    "town_kana": "カミジョスイ",
    "street": null,
    "office_name": null,
    "office_name_kana": null
  },
  "0005": {
    "postcode": "8710005",
    "prefecture": "大分県",
    "prefecture_kana": "オオイタケン",
    "prefecture_code": 44,
    "city": "中津市",
    "city_kana": "ナカツシ",
    "town": "合馬",
    "town_kana": "オウマ",
    "street": null,
    "office_name": null,
    "office_name_kana": null
  },
  "0006": {
    "postcode": "8710006",
    "prefecture": "大分県",
    "prefecture_kana": "オオイタケン",
    "prefecture_code": 44,
    "city": "中津市",
    "city_kana": "ナカツシ",
    "town": "東浜",
    "town_kana": "ヒガシハマ",
    "street": null,
    "office_name": null,
    "office_name_kana": null
  },
  "0007": {
    "postcode": "8710007",
    "prefecture": "大分県",
    "prefecture_kana": "オオイタケン",
    "prefecture_code": 44,
    "city": "中津市",
    "city_kana": "ナカツシ",
    "town": "蛎瀬",
    "town_kana": "カキゼ",
    "street": null,
    "office_name": null,
    "office_name_kana": null
  },
  "0008": {
    "postcode": "8710008",
    "prefecture": "大分県",
    "prefecture_kana": "オオイタケン",
    "prefecture_code": 44,
    "city": "中津市",
    "city_kana": "ナカツシ",
    "town": "大塚",
    "town_kana": "オオツカ",
    "street": null,
    "office_name": null,
    "office_name_kana": null
  },
  "0009": {
    "postcode": "8710009",
    "prefecture": "大分県",
    "prefecture_kana": "オオイタケン",
    "prefecture_code": 44,
    "city": "中津市",
    "city_kana": "ナカツシ",
    "town": "新大塚町",
    "town_kana": "シンオオツカマチ",
    "street": null,
    "office_name": null,
    "office_name_kana": null
  },
  "0011": {
    "postcode": "8710011",
    "prefecture": "大分県",
    "prefecture_kana": "オオイタケン",
    "prefecture_code": 44,
    "city": "中津市",
    "city_kana": "ナカツシ",
    "town": "下池永",
    "town_kana": "シモイケナガ",
    "street": null,
    "office_name": null,
    "office_name_kana": null
  },
  "0012": {
    "postcode": "8710012",
    "prefecture": "大分県",
    "prefecture_kana": "オオイタケン",
    "prefecture_code": 44,
    "city": "中津市",
    "city_kana": "ナカツシ",
    "town": "宮夫",
    "town_kana": "ミヤブ",
    "street": null,
    "office_name": null,
    "office_name_kana": null
  },
  "0013": {
    "postcode": "8710013",
    "prefecture": "大分県",
    "prefecture_kana": "オオイタケン",
    "prefecture_code": 44,
    "city": "中津市",
    "city_kana": "ナカツシ",
    "town": "金手",
    "town_kana": "カナテ",
    "street": null,
    "office_name": null,
    "office_name_kana": null
  },
  "0014": {
    "postcode": "8710014",
    "prefecture": "大分県",
    "prefecture_kana": "オオイタケン",
    "prefecture_code": 44,
    "city": "中津市",
    "city_kana": "ナカツシ",
    "town": "一ツ松",
    "town_kana": "ヒトツマツ",
    "street": null,
    "office_name": null,
    "office_name_kana": null
  },
  "0015": {
    "postcode": "8710015",
    "prefecture": "大分県",
    "prefecture_kana": "オオイタケン",
    "prefecture_code": 44,
    "city": "中津市",
    "city_kana": "ナカツシ",
    "town": "牛神",
    "town_kana": "ウシガミ",
    "street": null,
    "office_name": null,
    "office_name_kana": null
  },
  "0016": {
    "postcode": "8710016",
    "prefecture": "大分県",
    "prefecture_kana": "オオイタケン",
    "prefecture_code": 44,
    "city": "中津市",
    "city_kana": "ナカツシ",
    "town": "牛神町",
    "town_kana": "ウシガミマチ",
    "street": null,
    "office_name": null,
    "office_name_kana": null
  },
  "0021": {
    "postcode": "8710021",
    "prefecture": "大分県",
    "prefecture_kana": "オオイタケン",
    "prefecture_code": 44,
    "city": "中津市",
    "city_kana": "ナカツシ",
    "town": "沖代町",
    "town_kana": "オキダイマチ",
    "street": null,
    "office_name": null,
    "office_name_kana": null
  },
  "0022": {
    "postcode": "8710022",
    "prefecture": "大分県",
    "prefecture_kana": "オオイタケン",
    "prefecture_code": 44,
    "city": "中津市",
    "city_kana": "ナカツシ",
    "town": "相原",
    "town_kana": "アイハラ",
    "street": null,
    "office_name": null,
    "office_name_kana": null
  },
  "0023": {
    "postcode": "8710023",
    "prefecture": "大分県",
    "prefecture_kana": "オオイタケン",
    "prefecture_code": 44,
    "city": "中津市",
    "city_kana": "ナカツシ",
    "town": "湯屋",
    "town_kana": "ユヤ",
    "street": null,
    "office_name": null,
    "office_name_kana": null
  },
  "0024": {
    "postcode": "8710024",
    "prefecture": "大分県",
    "prefecture_kana": "オオイタケン",
    "prefecture_code": 44,
    "city": "中津市",
    "city_kana": "ナカツシ",
    "town": "中央町",
    "town_kana": "チュウオウマチ",
    "street": null,
    "office_name": null,
    "office_name_kana": null
  },
  "0025": {
    "postcode": "8710025",
    "prefecture": "大分県",
    "prefecture_kana": "オオイタケン",
    "prefecture_code": 44,
    "city": "中津市",
    "city_kana": "ナカツシ",
    "town": "万田",
    "town_kana": "マンダ",
    "street": null,
    "office_name": null,
    "office_name_kana": null
  },
  "0026": {
    "postcode": "8710026",
    "prefecture": "大分県",
    "prefecture_kana": "オオイタケン",
    "prefecture_code": 44,
    "city": "中津市",
    "city_kana": "ナカツシ",
    "town": "高瀬",
    "town_kana": "タカセ",
    "street": null,
    "office_name": null,
    "office_name_kana": null
  },
  "0027": {
    "postcode": "8710027",
    "prefecture": "大分県",
    "prefecture_kana": "オオイタケン",
    "prefecture_code": 44,
    "city": "中津市",
    "city_kana": "ナカツシ",
    "town": "上宮永",
    "town_kana": "カミミヤナガ",
    "street": null,
    "office_name": null,
    "office_name_kana": null
  },
  "0028": {
    "postcode": "8710028",
    "prefecture": "大分県",
    "prefecture_kana": "オオイタケン",
    "prefecture_code": 44,
    "city": "中津市",
    "city_kana": "ナカツシ",
    "town": "角木町",
    "town_kana": "ツノギマチ",
    "street": null,
    "office_name": null,
    "office_name_kana": null
  },
  "0029": {
    "postcode": "8710029",
    "prefecture": "大分県",
    "prefecture_kana": "オオイタケン",
    "prefecture_code": 44,
    "city": "中津市",
    "city_kana": "ナカツシ",
    "town": "下宮永",
    "town_kana": "シモミヤナガ",
    "street": null,
    "office_name": null,
    "office_name_kana": null
  },
  "0030": {
    "postcode": "8710030",
    "prefecture": "大分県",
    "prefecture_kana": "オオイタケン",
    "prefecture_code": 44,
    "city": "中津市",
    "city_kana": "ナカツシ",
    "town": "中殿町",
    "town_kana": "ナカドノマチ",
    "street": null,
    "office_name": null,
    "office_name_kana": null
  },
  "0031": {
    "postcode": "8710031",
    "prefecture": "大分県",
    "prefecture_kana": "オオイタケン",
    "prefecture_code": 44,
    "city": "中津市",
    "city_kana": "ナカツシ",
    "town": "中殿",
    "town_kana": "ナカドノ",
    "street": null,
    "office_name": null,
    "office_name_kana": null
  },
  "0032": {
    "postcode": "8710032",
    "prefecture": "大分県",
    "prefecture_kana": "オオイタケン",
    "prefecture_code": 44,
    "city": "中津市",
    "city_kana": "ナカツシ",
    "town": "東本町",
    "town_kana": "ヒガシホンマチ",
    "street": null,
    "office_name": null,
    "office_name_kana": null
  },
  "0033": {
    "postcode": "8710033",
    "prefecture": "大分県",
    "prefecture_kana": "オオイタケン",
    "prefecture_code": 44,
    "city": "中津市",
    "city_kana": "ナカツシ",
    "town": "島田",
    "town_kana": "シマタ",
    "street": null,
    "office_name": null,
    "office_name_kana": null
  },
  "0034": {
    "postcode": "8710034",
    "prefecture": "大分県",
    "prefecture_kana": "オオイタケン",
    "prefecture_code": 44,
    "city": "中津市",
    "city_kana": "ナカツシ",
    "town": "日ノ出町",
    "town_kana": "ヒノデマチ",
    "street": null,
    "office_name": null,
    "office_name_kana": null
  },
  "0035": {
    "postcode": "8710035",
    "prefecture": "大分県",
    "prefecture_kana": "オオイタケン",
    "prefecture_code": 44,
    "city": "中津市",
    "city_kana": "ナカツシ",
    "town": "島田仲町",
    "town_kana": "シマタナカマチ",
    "street": null,
    "office_name": null,
    "office_name_kana": null
  },
  "0036": {
    "postcode": "8710036",
    "prefecture": "大分県",
    "prefecture_kana": "オオイタケン",
    "prefecture_code": 44,
    "city": "中津市",
    "city_kana": "ナカツシ",
    "town": "島田本町",
    "town_kana": "シマタホンマチ",
    "street": null,
    "office_name": null,
    "office_name_kana": null
  },
  "0037": {
    "postcode": "8710037",
    "prefecture": "大分県",
    "prefecture_kana": "オオイタケン",
    "prefecture_code": 44,
    "city": "中津市",
    "city_kana": "ナカツシ",
    "town": "宮島町",
    "town_kana": "ミヤジママチ",
    "street": null,
    "office_name": null,
    "office_name_kana": null
  },
  "0038": {
    "postcode": "8710038",
    "prefecture": "大分県",
    "prefecture_kana": "オオイタケン",
    "prefecture_code": 44,
    "city": "中津市",
    "city_kana": "ナカツシ",
    "town": "枝町",
    "town_kana": "エダマチ",
    "street": null,
    "office_name": null,
    "office_name_kana": null
  },
  "0039": [
    {
      "postcode": "8710039",
      "prefecture": "大分県",
      "prefecture_kana": "オオイタケン",
      "prefecture_code": 44,
      "city": "中津市",
      "city_kana": "ナカツシ",
      "town": "新天神町",
      "town_kana": "シンテンジンマチ",
      "street": null,
      "office_name": null,
      "office_name_kana": null
    },
    {
      "postcode": "8710039",
      "prefecture": "大分県",
      "prefecture_kana": "オオイタケン",
      "prefecture_code": 44,
      "city": "中津市",
      "city_kana": "ナカツシ",
      "town": "天神町",
      "town_kana": "テンジンマチ",
      "street": null,
      "office_name": null,
      "office_name_kana": null
    }
  ],
  "0041": {
    "postcode": "8710041",
    "prefecture": "大分県",
    "prefecture_kana": "オオイタケン",
    "prefecture_code": 44,
    "city": "中津市",
    "city_kana": "ナカツシ",
    "town": "新博多町",
    "town_kana": "シンハカタマチ",
    "street": null,
    "office_name": null,
    "office_name_kana": null
  },
  "0042": {
    "postcode": "8710042",
    "prefecture": "大分県",
    "prefecture_kana": "オオイタケン",
    "prefecture_code": 44,
    "city": "中津市",
    "city_kana": "ナカツシ",
    "town": "上博多町",
    "town_kana": "カミハカタマチ",
    "street": null,
    "office_name": null,
    "office_name_kana": null
  },
  "0043": {
    "postcode": "8710043",
    "prefecture": "大分県",
    "prefecture_kana": "オオイタケン",
    "prefecture_code": 44,
    "city": "中津市",
    "city_kana": "ナカツシ",
    "town": "栄町",
    "town_kana": "サカエマチ",
    "street": null,
    "office_name": null,
    "office_name_kana": null
  },
  "0044": {
    "postcode": "8710044",
    "prefecture": "大分県",
    "prefecture_kana": "オオイタケン",
    "prefecture_code": 44,
    "city": "中津市",
    "city_kana": "ナカツシ",
    "town": "江三竹町",
    "town_kana": "エミタケマチ",
    "street": null,
    "office_name": null,
    "office_name_kana": null
  },
  "0045": {
    "postcode": "8710045",
    "prefecture": "大分県",
    "prefecture_kana": "オオイタケン",
    "prefecture_code": 44,
    "city": "中津市",
    "city_kana": "ナカツシ",
    "town": "萱津町",
    "town_kana": "カイヅマチ",
    "street": null,
    "office_name": null,
    "office_name_kana": null
  },
  "0046": [
    {
      "postcode": "8710046",
      "prefecture": "大分県",
      "prefecture_kana": "オオイタケン",
      "prefecture_code": 44,
      "city": "中津市",
      "city_kana": "ナカツシ",
      "town": "金谷",
      "town_kana": "カナヤ",
      "street": null,
      "office_name": null,
      "office_name_kana": null
    },
    {
      "postcode": "8710046",
      "prefecture": "大分県",
      "prefecture_kana": "オオイタケン",
      "prefecture_code": 44,
      "city": "中津市",
      "city_kana": "ナカツシ",
      "town": "金谷上ノ丁",
      "town_kana": "カナヤウエノチョウ",
      "street": null,
      "office_name": null,
      "office_name_kana": null
    },
    {
      "postcode": "8710046",
      "prefecture": "大分県",
      "prefecture_kana": "オオイタケン",
      "prefecture_code": 44,
      "city": "中津市",
      "city_kana": "ナカツシ",
      "town": "金谷中ノ丁",
      "town_kana": "カナヤナカノチョウ",
      "street": null,
      "office_name": null,
      "office_name_kana": null
    },
    {
      "postcode": "8710046",
      "prefecture": "大分県",
      "prefecture_kana": "オオイタケン",
      "prefecture_code": 44,
      "city": "中津市",
      "city_kana": "ナカツシ",
      "town": "金谷西ノ丁",
      "town_kana": "カナヤニシノチョウ",
      "street": null,
      "office_name": null,
      "office_name_kana": null
    },
    {
      "postcode": "8710046",
      "prefecture": "大分県",
      "prefecture_kana": "オオイタケン",
      "prefecture_code": 44,
      "city": "中津市",
      "city_kana": "ナカツシ",
      "town": "金谷本町",
      "town_kana": "カナヤホンマチ",
      "street": null,
      "office_name": null,
      "office_name_kana": null
    },
    {
      "postcode": "8710046",
      "prefecture": "大分県",
      "prefecture_kana": "オオイタケン",
      "prefecture_code": 44,
      "city": "中津市",
      "city_kana": "ナカツシ",
      "town": "金谷南ノ丁",
      "town_kana": "カナヤミナミノチョウ",
      "street": null,
      "office_name": null,
      "office_name_kana": null
    },
    {
      "postcode": "8710046",
      "prefecture": "大分県",
      "prefecture_kana": "オオイタケン",
      "prefecture_code": 44,
      "city": "中津市",
      "city_kana": "ナカツシ",
      "town": "金谷森ノ丁",
      "town_kana": "カナヤモリノチョウ",
      "street": null,
      "office_name": null,
      "office_name_kana": null
    },
    {
      "postcode": "8710046",
      "prefecture": "大分県",
      "prefecture_kana": "オオイタケン",
      "prefecture_code": 44,
      "city": "中津市",
      "city_kana": "ナカツシ",
      "town": "金谷山ノ神",
      "town_kana": "カナヤヤマノカミ",
      "street": null,
      "office_name": null,
      "office_name_kana": null
    },
    {
      "postcode": "8710046",
      "prefecture": "大分県",
      "prefecture_kana": "オオイタケン",
      "prefecture_code": 44,
      "city": "中津市",
      "city_kana": "ナカツシ",
      "town": "西堀端",
      "town_kana": "ニシホリバタ",
      "street": null,
      "office_name": null,
      "office_name_kana": null
    },
    {
      "postcode": "8710046",
      "prefecture": "大分県",
      "prefecture_kana": "オオイタケン",
      "prefecture_code": 44,
      "city": "中津市",
      "city_kana": "ナカツシ",
      "town": "東堀端",
      "town_kana": "ヒガシホリバタ",
      "street": null,
      "office_name": null,
      "office_name_kana": null
    },
    {
      "postcode": "8710046",
      "prefecture": "大分県",
      "prefecture_kana": "オオイタケン",
      "prefecture_code": 44,
      "city": "中津市",
      "city_kana": "ナカツシ",
      "town": "古金谷",
      "town_kana": "フルカナヤ",
      "street": null,
      "office_name": null,
      "office_name_kana": null
    }
  ],
  "0047": {
    "postcode": "8710047",
    "prefecture": "大分県",
    "prefecture_kana": "オオイタケン",
    "prefecture_code": 44,
    "city": "中津市",
    "city_kana": "ナカツシ",
    "town": "丸山町",
    "town_kana": "マルヤマチョウ",
    "street": null,
    "office_name": null,
    "office_name_kana": null
  },
  "0048": {
    "postcode": "8710048",
    "prefecture": "大分県",
    "prefecture_kana": "オオイタケン",
    "prefecture_code": 44,
    "city": "中津市",
    "city_kana": "ナカツシ",
    "town": "新魚町",
    "town_kana": "シンウオマチ",
    "street": null,
    "office_name": null,
    "office_name_kana": null
  },
  "0049": {
    "postcode": "8710049",
    "prefecture": "大分県",
    "prefecture_kana": "オオイタケン",
    "prefecture_code": 44,
    "city": "中津市",
    "city_kana": "ナカツシ",
    "town": "諸町",
    "town_kana": "モロマチ",
    "street": null,
    "office_name": null,
    "office_name_kana": null
  },
  "0050": {
    "postcode": "8710050",
    "prefecture": "大分県",
    "prefecture_kana": "オオイタケン",
    "prefecture_code": 44,
    "city": "中津市",
    "city_kana": "ナカツシ",
    "town": "二ノ丁",
    "town_kana": "ニノチョウ",
    "street": null,
    "office_name": null,
    "office_name_kana": null
  },
  "0051": {
    "postcode": "8710051",
    "prefecture": "大分県",
    "prefecture_kana": "オオイタケン",
    "prefecture_code": 44,
    "city": "中津市",
    "city_kana": "ナカツシ",
    "town": "古博多町",
    "town_kana": "フルハカタマチ",
    "street": null,
    "office_name": null,
    "office_name_kana": null
  },
  "0053": {
    "postcode": "8710053",
    "prefecture": "大分県",
    "prefecture_kana": "オオイタケン",
    "prefecture_code": 44,
    "city": "中津市",
    "city_kana": "ナカツシ",
    "town": "古魚町",
    "town_kana": "フルウオマチ",
    "street": null,
    "office_name": null,
    "office_name_kana": null
  },
  "0054": {
    "postcode": "8710054",
    "prefecture": "大分県",
    "prefecture_kana": "オオイタケン",
    "prefecture_code": 44,
    "city": "中津市",
    "city_kana": "ナカツシ",
    "town": "京町",
    "town_kana": "キョウマチ",
    "street": null,
    "office_name": null,
    "office_name_kana": null
  },
  "0055": {
    "postcode": "8710055",
    "prefecture": "大分県",
    "prefecture_kana": "オオイタケン",
    "prefecture_code": 44,
    "city": "中津市",
    "city_kana": "ナカツシ",
    "town": "殿町",
    "town_kana": "トノマチ",
    "street": null,
    "office_name": null,
    "office_name_kana": null
  },
  "0056": {
    "postcode": "8710056",
    "prefecture": "大分県",
    "prefecture_kana": "オオイタケン",
    "prefecture_code": 44,
    "city": "中津市",
    "city_kana": "ナカツシ",
    "town": "片端町",
    "town_kana": "カタハマチ",
    "street": null,
    "office_name": null,
    "office_name_kana": null
  },
  "0057": {
    "postcode": "8710057",
    "prefecture": "大分県",
    "prefecture_kana": "オオイタケン",
    "prefecture_code": 44,
    "city": "中津市",
    "city_kana": "ナカツシ",
    "town": "三ノ丁",
    "town_kana": "サンノチョウ",
    "street": null,
    "office_name": null,
    "office_name_kana": null
  },
  "0058": {
    "postcode": "8710058",
    "prefecture": "大分県",
    "prefecture_kana": "オオイタケン",
    "prefecture_code": 44,
    "city": "中津市",
    "city_kana": "ナカツシ",
    "town": "豊田町",
    "town_kana": "トヨダマチ",
    "street": null,
    "office_name": null,
    "office_name_kana": null
  },
  "0059": {
    "postcode": "8710059",
    "prefecture": "大分県",
    "prefecture_kana": "オオイタケン",
    "prefecture_code": 44,
    "city": "中津市",
    "city_kana": "ナカツシ",
    "town": "外馬場",
    "town_kana": "ソトババ",
    "street": null,
    "office_name": null,
    "office_name_kana": null
  },
  "0060": {
    "postcode": "8710060",
    "prefecture": "大分県",
    "prefecture_kana": "オオイタケン",
    "prefecture_code": 44,
    "city": "中津市",
    "city_kana": "ナカツシ",
    "town": "北稲堀",
    "town_kana": "キタイナボリ",
    "street": null,
    "office_name": null,
    "office_name_kana": null
  },
  "0061": {
    "postcode": "8710061",
    "prefecture": "大分県",
    "prefecture_kana": "オオイタケン",
    "prefecture_code": 44,
    "city": "中津市",
    "city_kana": "ナカツシ",
    "town": "南稲堀",
    "town_kana": "ミナミイナボリ",
    "street": null,
    "office_name": null,
    "office_name_kana": null
  },
  "0062": {
    "postcode": "8710062",
    "prefecture": "大分県",
    "prefecture_kana": "オオイタケン",
    "prefecture_code": 44,
    "city": "中津市",
    "city_kana": "ナカツシ",
    "town": "山下",
    "town_kana": "ヤマシタ",
    "street": null,
    "office_name": null,
    "office_name_kana": null
  },
  "0063": {
    "postcode": "8710063",
    "prefecture": "大分県",
    "prefecture_kana": "オオイタケン",
    "prefecture_code": 44,
    "city": "中津市",
    "city_kana": "ナカツシ",
    "town": "袋町",
    "town_kana": "フクロマチ",
    "street": null,
    "office_name": null,
    "office_name_kana": null
  },
  "0064": {
    "postcode": "8710064",
    "prefecture": "大分県",
    "prefecture_kana": "オオイタケン",
    "prefecture_code": 44,
    "city": "中津市",
    "city_kana": "ナカツシ",
    "town": "餌指町",
    "town_kana": "エサシマチ",
    "street": null,
    "office_name": null,
    "office_name_kana": null
  },
  "0065": {
    "postcode": "8710065",
    "prefecture": "大分県",
    "prefecture_kana": "オオイタケン",
    "prefecture_code": 44,
    "city": "中津市",
    "city_kana": "ナカツシ",
    "town": "蛭子町",
    "town_kana": "エビスマチ",
    "street": null,
    "office_name": null,
    "office_name_kana": null
  },
  "0066": {
    "postcode": "8710066",
    "prefecture": "大分県",
    "prefecture_kana": "オオイタケン",
    "prefecture_code": 44,
    "city": "中津市",
    "city_kana": "ナカツシ",
    "town": "鷹匠町",
    "town_kana": "タカジョウマチ",
    "street": null,
    "office_name": null,
    "office_name_kana": null
  },
  "0067": {
    "postcode": "8710067",
    "prefecture": "大分県",
    "prefecture_kana": "オオイタケン",
    "prefecture_code": 44,
    "city": "中津市",
    "city_kana": "ナカツシ",
    "town": "仲間町",
    "town_kana": "チュウゲンマチ",
    "street": null,
    "office_name": null,
    "office_name_kana": null
  },
  "0068": {
    "postcode": "8710068",
    "prefecture": "大分県",
    "prefecture_kana": "オオイタケン",
    "prefecture_code": 44,
    "city": "中津市",
    "city_kana": "ナカツシ",
    "town": "豊後町",
    "town_kana": "ブンゴマチ",
    "street": null,
    "office_name": null,
    "office_name_kana": null
  },
  "0069": {
    "postcode": "8710069",
    "prefecture": "大分県",
    "prefecture_kana": "オオイタケン",
    "prefecture_code": 44,
    "city": "中津市",
    "city_kana": "ナカツシ",
    "town": "新堀",
    "town_kana": "シンボリ",
    "street": null,
    "office_name": null,
    "office_name_kana": null
  },
  "0071": {
    "postcode": "8710071",
    "prefecture": "大分県",
    "prefecture_kana": "オオイタケン",
    "prefecture_code": 44,
    "city": "中津市",
    "city_kana": "ナカツシ",
    "town": "鷹部屋",
    "town_kana": "タカベヤ",
    "street": null,
    "office_name": null,
    "office_name_kana": null
  },
  "0072": {
    "postcode": "8710072",
    "prefecture": "大分県",
    "prefecture_kana": "オオイタケン",
    "prefecture_code": 44,
    "city": "中津市",
    "city_kana": "ナカツシ",
    "town": "船町",
    "town_kana": "フナマチ",
    "street": null,
    "office_name": null,
    "office_name_kana": null
  },
  "0073": {
    "postcode": "8710073",
    "prefecture": "大分県",
    "prefecture_kana": "オオイタケン",
    "prefecture_code": 44,
    "city": "中津市",
    "city_kana": "ナカツシ",
    "town": "塩町",
    "town_kana": "シオマチ",
    "street": null,
    "office_name": null,
    "office_name_kana": null
  },
  "0074": {
    "postcode": "8710074",
    "prefecture": "大分県",
    "prefecture_kana": "オオイタケン",
    "prefecture_code": 44,
    "city": "中津市",
    "city_kana": "ナカツシ",
    "town": "桜町",
    "town_kana": "サクラマチ",
    "street": null,
    "office_name": null,
    "office_name_kana": null
  },
  "0075": {
    "postcode": "8710075",
    "prefecture": "大分県",
    "prefecture_kana": "オオイタケン",
    "prefecture_code": 44,
    "city": "中津市",
    "city_kana": "ナカツシ",
    "town": "寺町",
    "town_kana": "テラマチ",
    "street": null,
    "office_name": null,
    "office_name_kana": null
  },
  "0076": {
    "postcode": "8710076",
    "prefecture": "大分県",
    "prefecture_kana": "オオイタケン",
    "prefecture_code": 44,
    "city": "中津市",
    "city_kana": "ナカツシ",
    "town": "米町",
    "town_kana": "コメマチ",
    "street": null,
    "office_name": null,
    "office_name_kana": null
  },
  "0077": {
    "postcode": "8710077",
    "prefecture": "大分県",
    "prefecture_kana": "オオイタケン",
    "prefecture_code": 44,
    "city": "中津市",
    "city_kana": "ナカツシ",
    "town": "姫路町",
    "town_kana": "ヒメジマチ",
    "street": null,
    "office_name": null,
    "office_name_kana": null
  },
  "0078": [
    {
      "postcode": "8710078",
      "prefecture": "大分県",
      "prefecture_kana": "オオイタケン",
      "prefecture_code": 44,
      "city": "中津市",
      "city_kana": "ナカツシ",
      "town": "小祝",
      "town_kana": "コイワイ",
      "street": null,
      "office_name": null,
      "office_name_kana": null
    },
    {
      "postcode": "8710078",
      "prefecture": "大分県",
      "prefecture_kana": "オオイタケン",
      "prefecture_code": 44,
      "city": "中津市",
      "city_kana": "ナカツシ",
      "town": "小祝上方町",
      "town_kana": "コイワイカミカタマチ",
      "street": null,
      "office_name": null,
      "office_name_kana": null
    },
    {
      "postcode": "8710078",
      "prefecture": "大分県",
      "prefecture_kana": "オオイタケン",
      "prefecture_code": 44,
      "city": "中津市",
      "city_kana": "ナカツシ",
      "town": "小祝中島町",
      "town_kana": "コイワイナカシママチ",
      "street": null,
      "office_name": null,
      "office_name_kana": null
    },
    {
      "postcode": "8710078",
      "prefecture": "大分県",
      "prefecture_kana": "オオイタケン",
      "prefecture_code": 44,
      "city": "中津市",
      "city_kana": "ナカツシ",
      "town": "小祝本町",
      "town_kana": "コイワイホンマチ",
      "street": null,
      "office_name": null,
      "office_name_kana": null
    },
    {
      "postcode": "8710078",
      "prefecture": "大分県",
      "prefecture_kana": "オオイタケン",
      "prefecture_code": 44,
      "city": "中津市",
      "city_kana": "ナカツシ",
      "town": "小祝港町",
      "town_kana": "コイワイミナトマチ",
      "street": null,
      "office_name": null,
      "office_name_kana": null
    }
  ],
  "0079": {
    "postcode": "8710079",
    "prefecture": "大分県",
    "prefecture_kana": "オオイタケン",
    "prefecture_code": 44,
    "city": "中津市",
    "city_kana": "ナカツシ",
    "town": "北門通",
    "town_kana": "キタモンドオリ",
    "street": null,
    "office_name": null,
    "office_name_kana": null
  },
  "0080": {
    "postcode": "8710080",
    "prefecture": "大分県",
    "prefecture_kana": "オオイタケン",
    "prefecture_code": 44,
    "city": "中津市",
    "city_kana": "ナカツシ",
    "town": "小祝新町",
    "town_kana": "コイワイシンマチ",
    "street": null,
    "office_name": null,
    "office_name_kana": null
  },
  "0081": {
    "postcode": "8710081",
    "prefecture": "大分県",
    "prefecture_kana": "オオイタケン",
    "prefecture_code": 44,
    "city": "中津市",
    "city_kana": "ナカツシ",
    "town": "北堀川町",
    "town_kana": "キタホリカワマチ",
    "street": null,
    "office_name": null,
    "office_name_kana": null
  },
  "0082": {
    "postcode": "8710082",
    "prefecture": "大分県",
    "prefecture_kana": "オオイタケン",
    "prefecture_code": 44,
    "city": "中津市",
    "city_kana": "ナカツシ",
    "town": "水主町",
    "town_kana": "カコマチ",
    "street": null,
    "office_name": null,
    "office_name_kana": null
  },
  "0083": {
    "postcode": "8710083",
    "prefecture": "大分県",
    "prefecture_kana": "オオイタケン",
    "prefecture_code": 44,
    "city": "中津市",
    "city_kana": "ナカツシ",
    "town": "矢場",
    "town_kana": "ヤバ",
    "street": null,
    "office_name": null,
    "office_name_kana": null
  },
  "0084": {
    "postcode": "8710084",
    "prefecture": "大分県",
    "prefecture_kana": "オオイタケン",
    "prefecture_code": 44,
    "city": "中津市",
    "city_kana": "ナカツシ",
    "town": "小堀",
    "town_kana": "コボリ",
    "street": null,
    "office_name": null,
    "office_name_kana": null
  },
  "0085": {
    "postcode": "8710085",
    "prefecture": "大分県",
    "prefecture_kana": "オオイタケン",
    "prefecture_code": 44,
    "city": "中津市",
    "city_kana": "ナカツシ",
    "town": "弓町",
    "town_kana": "ユミチョウ",
    "street": null,
    "office_name": null,
    "office_name_kana": null
  },
  "0086": {
    "postcode": "8710086",
    "prefecture": "大分県",
    "prefecture_kana": "オオイタケン",
    "prefecture_code": 44,
    "city": "中津市",
    "city_kana": "ナカツシ",
    "town": "船頭町",
    "town_kana": "センドマチ",
    "street": null,
    "office_name": null,
    "office_name_kana": null
  },
  "0087": {
    "postcode": "8710087",
    "prefecture": "大分県",
    "prefecture_kana": "オオイタケン",
    "prefecture_code": 44,
    "city": "中津市",
    "city_kana": "ナカツシ",
    "town": "南堀川町",
    "town_kana": "ミナミホリカワマチ",
    "street": null,
    "office_name": null,
    "office_name_kana": null
  },
  "0088": {
    "postcode": "8710088",
    "prefecture": "大分県",
    "prefecture_kana": "オオイタケン",
    "prefecture_code": 44,
    "city": "中津市",
    "city_kana": "ナカツシ",
    "town": "留守居町",
    "town_kana": "ルスイマチ",
    "street": null,
    "office_name": null,
    "office_name_kana": null
  },
  "0089": {
    "postcode": "8710089",
    "prefecture": "大分県",
    "prefecture_kana": "オオイタケン",
    "prefecture_code": 44,
    "city": "中津市",
    "city_kana": "ナカツシ",
    "town": "船場町",
    "town_kana": "センバマチ",
    "street": null,
    "office_name": null,
    "office_name_kana": null
  },
  "0090": {
    "postcode": "8710090",
    "prefecture": "大分県",
    "prefecture_kana": "オオイタケン",
    "prefecture_code": 44,
    "city": "中津市",
    "city_kana": "ナカツシ",
    "town": "北新地",
    "town_kana": "キタシンチ",
    "street": null,
    "office_name": null,
    "office_name_kana": null
  },
  "0091": [
    {
      "postcode": "8710091",
      "prefecture": "大分県",
      "prefecture_kana": "オオイタケン",
      "prefecture_code": 44,
      "city": "中津市",
      "city_kana": "ナカツシ",
      "town": "闇無町",
      "town_kana": "クラナシマチ",
      "street": null,
      "office_name": null,
      "office_name_kana": null
    },
    {
      "postcode": "8710091",
      "prefecture": "大分県",
      "prefecture_kana": "オオイタケン",
      "prefecture_code": 44,
      "city": "中津市",
      "city_kana": "ナカツシ",
      "town": "角木",
      "town_kana": "ツノギ",
      "street": null,
      "office_name": null,
      "office_name_kana": null
    }
  ],
  "0092": {
    "postcode": "8710092",
    "prefecture": "大分県",
    "prefecture_kana": "オオイタケン",
    "prefecture_code": 44,
    "city": "中津市",
    "city_kana": "ナカツシ",
    "town": "南新地",
    "town_kana": "ミナミシンチ",
    "street": null,
    "office_name": null,
    "office_name_kana": null
  },
  "0093": {
    "postcode": "8710093",
    "prefecture": "大分県",
    "prefecture_kana": "オオイタケン",
    "prefecture_code": 44,
    "city": "中津市",
    "city_kana": "ナカツシ",
    "town": "浦町",
    "town_kana": "ウラマチ",
    "street": null,
    "office_name": null,
    "office_name_kana": null
  },
  "0094": {
    "postcode": "8710094",
    "prefecture": "大分県",
    "prefecture_kana": "オオイタケン",
    "prefecture_code": 44,
    "city": "中津市",
    "city_kana": "ナカツシ",
    "town": "北浦町",
    "town_kana": "キタウラマチ",
    "street": null,
    "office_name": null,
    "office_name_kana": null
  },
  "0095": {
    "postcode": "8710095",
    "prefecture": "大分県",
    "prefecture_kana": "オオイタケン",
    "prefecture_code": 44,
    "city": "中津市",
    "city_kana": "ナカツシ",
    "town": "角木新町",
    "town_kana": "ツノギシンマチ",
    "street": null,
    "office_name": null,
    "office_name_kana": null
  },
  "0096": {
    "postcode": "8710096",
    "prefecture": "大分県",
    "prefecture_kana": "オオイタケン",
    "prefecture_code": 44,
    "city": "中津市",
    "city_kana": "ナカツシ",
    "town": "竜王町",
    "town_kana": "リュウオウマチ",
    "street": null,
    "office_name": null,
    "office_name_kana": null
  },
  "0097": {
    "postcode": "8710097",
    "prefecture": "大分県",
    "prefecture_kana": "オオイタケン",
    "prefecture_code": 44,
    "city": "中津市",
    "city_kana": "ナカツシ",
    "town": "下正路",
    "town_kana": "シモショウジ",
    "street": null,
    "office_name": null,
    "office_name_kana": null
  },
  "0098": {
    "postcode": "8710098",
    "prefecture": "大分県",
    "prefecture_kana": "オオイタケン",
    "prefecture_code": 44,
    "city": "中津市",
    "city_kana": "ナカツシ",
    "town": "市場",
    "town_kana": "イチバ",
    "street": null,
    "office_name": null,
    "office_name_kana": null
  },
  "0099": {
    "postcode": "8710099",
    "prefecture": "大分県",
    "prefecture_kana": "オオイタケン",
    "prefecture_code": 44,
    "city": "中津市",
    "city_kana": "ナカツシ",
    "town": "",
    "town_kana": "",
    "street": null,
    "office_name": null,
    "office_name_kana": null
  },
  "0101": {
    "postcode": "8710101",
    "prefecture": "大分県",
    "prefecture_kana": "オオイタケン",
    "prefecture_code": 44,
    "city": "中津市",
    "city_kana": "ナカツシ",
    "town": "三光森山",
    "town_kana": "サンコウモリヤマ",
    "street": null,
    "office_name": null,
    "office_name_kana": null
  },
  "0102": {
    "postcode": "8710102",
    "prefecture": "大分県",
    "prefecture_kana": "オオイタケン",
    "prefecture_code": 44,
    "city": "中津市",
    "city_kana": "ナカツシ",
    "town": "三光成恒",
    "town_kana": "サンコウナリツネ",
    "street": null,
    "office_name": null,
    "office_name_kana": null
  },
  "0103": {
    "postcode": "8710103",
    "prefecture": "大分県",
    "prefecture_kana": "オオイタケン",
    "prefecture_code": 44,
    "city": "中津市",
    "city_kana": "ナカツシ",
    "town": "三光田口",
    "town_kana": "サンコウタグチ",
    "street": null,
    "office_name": null,
    "office_name_kana": null
  },
  "0104": {
    "postcode": "8710104",
    "prefecture": "大分県",
    "prefecture_kana": "オオイタケン",
    "prefecture_code": 44,
    "city": "中津市",
    "city_kana": "ナカツシ",
    "town": "三光諫山",
    "town_kana": "サンコウイサヤマ",
    "street": null,
    "office_name": null,
    "office_name_kana": null
  },
  "0105": {
    "postcode": "8710105",
    "prefecture": "大分県",
    "prefecture_kana": "オオイタケン",
    "prefecture_code": 44,
    "city": "中津市",
    "city_kana": "ナカツシ",
    "town": "三光原口",
    "town_kana": "サンコウハラグチ",
    "street": null,
    "office_name": null,
    "office_name_kana": null
  },
  "0111": {
    "postcode": "8710111",
    "prefecture": "大分県",
    "prefecture_kana": "オオイタケン",
    "prefecture_code": 44,
    "city": "中津市",
    "city_kana": "ナカツシ",
    "town": "三光佐知",
    "town_kana": "サンコウサチ",
    "street": null,
    "office_name": null,
    "office_name_kana": null
  },
  "0112": {
    "postcode": "8710112",
    "prefecture": "大分県",
    "prefecture_kana": "オオイタケン",
    "prefecture_code": 44,
    "city": "中津市",
    "city_kana": "ナカツシ",
    "town": "三光臼木",
    "town_kana": "サンコウウスギ",
    "street": null,
    "office_name": null,
    "office_name_kana": null
  },
  "0113": {
    "postcode": "8710113",
    "prefecture": "大分県",
    "prefecture_kana": "オオイタケン",
    "prefecture_code": 44,
    "city": "中津市",
    "city_kana": "ナカツシ",
    "town": "三光土田",
    "town_kana": "サンコウツチダ",
    "street": null,
    "office_name": null,
    "office_name_kana": null
  },
  "0114": {
    "postcode": "8710114",
    "prefecture": "大分県",
    "prefecture_kana": "オオイタケン",
    "prefecture_code": 44,
    "city": "中津市",
    "city_kana": "ナカツシ",
    "town": "三光小袋",
    "town_kana": "サンコウオブクロ",
    "street": null,
    "office_name": null,
    "office_name_kana": null
  },
  "0122": {
    "postcode": "8710122",
    "prefecture": "大分県",
    "prefecture_kana": "オオイタケン",
    "prefecture_code": 44,
    "city": "中津市",
    "city_kana": "ナカツシ",
    "town": "相原",
    "town_kana": "アイハラ",
    "street": null,
    "office_name": null,
    "office_name_kana": null
  },
  "0151": {
    "postcode": "8710151",
    "prefecture": "大分県",
    "prefecture_kana": "オオイタケン",
    "prefecture_code": 44,
    "city": "中津市",
    "city_kana": "ナカツシ",
    "town": "大悟法",
    "town_kana": "ダイゴボウ",
    "street": null,
    "office_name": null,
    "office_name_kana": null
  },
  "0152": {
    "postcode": "8710152",
    "prefecture": "大分県",
    "prefecture_kana": "オオイタケン",
    "prefecture_code": 44,
    "city": "中津市",
    "city_kana": "ナカツシ",
    "town": "加来",
    "town_kana": "カク",
    "street": null,
    "office_name": null,
    "office_name_kana": null
  },
  "0153": {
    "postcode": "8710153",
    "prefecture": "大分県",
    "prefecture_kana": "オオイタケン",
    "prefecture_code": 44,
    "city": "中津市",
    "city_kana": "ナカツシ",
    "town": "大貞",
    "town_kana": "オオサダ",
    "street": null,
    "office_name": null,
    "office_name_kana": null
  },
  "0154": {
    "postcode": "8710154",
    "prefecture": "大分県",
    "prefecture_kana": "オオイタケン",
    "prefecture_code": 44,
    "city": "中津市",
    "city_kana": "ナカツシ",
    "town": "古城",
    "town_kana": "コジョウ",
    "street": null,
    "office_name": null,
    "office_name_kana": null
  },
  "0155": {
    "postcode": "8710155",
    "prefecture": "大分県",
    "prefecture_kana": "オオイタケン",
    "prefecture_code": 44,
    "city": "中津市",
    "city_kana": "ナカツシ",
    "town": "八幡町",
    "town_kana": "ハチマンチョウ",
    "street": null,
    "office_name": null,
    "office_name_kana": null
  },
  "0156": {
    "postcode": "8710156",
    "prefecture": "大分県",
    "prefecture_kana": "オオイタケン",
    "prefecture_code": 44,
    "city": "中津市",
    "city_kana": "ナカツシ",
    "town": "榊原町",
    "town_kana": "サカキバラチョウ",
    "street": null,
    "office_name": null,
    "office_name_kana": null
  },
  "0157": {
    "postcode": "8710157",
    "prefecture": "大分県",
    "prefecture_kana": "オオイタケン",
    "prefecture_code": 44,
    "city": "中津市",
    "city_kana": "ナカツシ",
    "town": "中原",
    "town_kana": "ナカバル",
    "street": null,
    "office_name": null,
    "office_name_kana": null
  },
  "0161": {
    "postcode": "8710161",
    "prefecture": "大分県",
    "prefecture_kana": "オオイタケン",
    "prefecture_code": 44,
    "city": "中津市",
    "city_kana": "ナカツシ",
    "town": "上池永",
    "town_kana": "カミイケナガ",
    "street": null,
    "office_name": null,
    "office_name_kana": null
  },
  "0162": {
    "postcode": "8710162",
    "prefecture": "大分県",
    "prefecture_kana": "オオイタケン",
    "prefecture_code": 44,
    "city": "中津市",
    "city_kana": "ナカツシ",
    "town": "永添",
    "town_kana": "ナガソエ",
    "street": null,
    "office_name": null,
    "office_name_kana": null
  },
  "0163": {
    "postcode": "8710163",
    "prefecture": "大分県",
    "prefecture_kana": "オオイタケン",
    "prefecture_code": 44,
    "city": "中津市",
    "city_kana": "ナカツシ",
    "town": "西永添",
    "town_kana": "ニシナガソイ",
    "street": null,
    "office_name": null,
    "office_name_kana": null
  },
  "0164": {
    "postcode": "8710164",
    "prefecture": "大分県",
    "prefecture_kana": "オオイタケン",
    "prefecture_code": 44,
    "city": "中津市",
    "city_kana": "ナカツシ",
    "town": "下永添",
    "town_kana": "シモナガソイ",
    "street": null,
    "office_name": null,
    "office_name_kana": null
  },
  "0192": {
    "postcode": "8710192",
    "prefecture": "大分県",
    "prefecture_kana": "オオイタケン",
    "prefecture_code": 44,
    "city": "中津市",
    "city_kana": "ナカツシ",
    "town": "三光原口",
    "town_kana": "サンコウハラグチ",
    "street": "６４４−７",
    "office_name": "中津市役所　三光支所",
    "office_name_kana": "ナカツシヤクシヨ サンコウシシヨ"
  },
  "0201": {
    "postcode": "8710201",
    "prefecture": "大分県",
    "prefecture_kana": "オオイタケン",
    "prefecture_code": 44,
    "city": "中津市",
    "city_kana": "ナカツシ",
    "town": "本耶馬渓町樋田",
    "town_kana": "ホンヤバケイマチヒダ",
    "street": null,
    "office_name": null,
    "office_name_kana": null
  },
  "0202": {
    "postcode": "8710202",
    "prefecture": "大分県",
    "prefecture_kana": "オオイタケン",
    "prefecture_code": 44,
    "city": "中津市",
    "city_kana": "ナカツシ",
    "town": "本耶馬渓町曽木",
    "town_kana": "ホンヤバケイマチソギ",
    "street": null,
    "office_name": null,
    "office_name_kana": null
  },
  "0203": {
    "postcode": "8710203",
    "prefecture": "大分県",
    "prefecture_kana": "オオイタケン",
    "prefecture_code": 44,
    "city": "中津市",
    "city_kana": "ナカツシ",
    "town": "本耶馬渓町多志田",
    "town_kana": "ホンヤバケイマチタシダ",
    "street": null,
    "office_name": null,
    "office_name_kana": null
  },
  "0204": {
    "postcode": "8710204",
    "prefecture": "大分県",
    "prefecture_kana": "オオイタケン",
    "prefecture_code": 44,
    "city": "中津市",
    "city_kana": "ナカツシ",
    "town": "本耶馬渓町冠石野",
    "town_kana": "ホンヤバケイマチカブシノ",
    "street": null,
    "office_name": null,
    "office_name_kana": null
  },
  "0205": {
    "postcode": "8710205",
    "prefecture": "大分県",
    "prefecture_kana": "オオイタケン",
    "prefecture_code": 44,
    "city": "中津市",
    "city_kana": "ナカツシ",
    "town": "本耶馬渓町下屋形",
    "town_kana": "ホンヤバケイマチシモヤカタ",
    "street": null,
    "office_name": null,
    "office_name_kana": null
  },
  "0206": {
    "postcode": "8710206",
    "prefecture": "大分県",
    "prefecture_kana": "オオイタケン",
    "prefecture_code": 44,
    "city": "中津市",
    "city_kana": "ナカツシ",
    "town": "本耶馬渓町今行",
    "town_kana": "ホンヤバケイマチイマユク",
    "street": null,
    "office_name": null,
    "office_name_kana": null
  },
  "0207": {
    "postcode": "8710207",
    "prefecture": "大分県",
    "prefecture_kana": "オオイタケン",
    "prefecture_code": 44,
    "city": "中津市",
    "city_kana": "ナカツシ",
    "town": "本耶馬渓町東屋形",
    "town_kana": "ホンヤバケイマチヒガシヤカタ",
    "street": null,
    "office_name": null,
    "office_name_kana": null
  },
  "0208": {
    "postcode": "8710208",
    "prefecture": "大分県",
    "prefecture_kana": "オオイタケン",
    "prefecture_code": 44,
    "city": "中津市",
    "city_kana": "ナカツシ",
    "town": "本耶馬渓町西屋形",
    "town_kana": "ホンヤバケイマチニシヤカタ",
    "street": null,
    "office_name": null,
    "office_name_kana": null
  },
  "0226": [
    {
      "postcode": "8710226",
      "prefecture": "福岡県",
      "prefecture_kana": "フクオカケン",
      "prefecture_code": 40,
      "city": "築上郡上毛町",
      "city_kana": "チクジョウグンコウゲマチ",
      "town": "原井",
      "town_kana": "ハライ",
      "street": null,
      "office_name": null,
      "office_name_kana": null
    },
    {
      "postcode": "8710226",
      "prefecture": "福岡県",
      "prefecture_kana": "フクオカケン",
      "prefecture_code": 40,
      "city": "築上郡上毛町",
      "city_kana": "チクジョウグンコウゲマチ",
      "town": "原井有野",
      "town_kana": "ハライアリノ",
      "street": null,
      "office_name": null,
      "office_name_kana": null
    }
  ],
  "0295": {
    "postcode": "8710295",
    "prefecture": "大分県",
    "prefecture_kana": "オオイタケン",
    "prefecture_code": 44,
    "city": "中津市",
    "city_kana": "ナカツシ",
    "town": "本耶馬渓町曽木",
    "town_kana": "ホンヤバケイマチソギ",
    "street": "１８００",
    "office_name": "中津市役所　本耶馬溪支所",
    "office_name_kana": "ナカツシヤクシヨ ホンヤバケイシシヨ"
  },
  "0311": {
    "postcode": "8710311",
    "prefecture": "大分県",
    "prefecture_kana": "オオイタケン",
    "prefecture_code": 44,
    "city": "中津市",
    "city_kana": "ナカツシ",
    "town": "本耶馬渓町跡田",
    "town_kana": "ホンヤバケイマチアトダ",
    "street": null,
    "office_name": null,
    "office_name_kana": null
  },
  "0312": {
    "postcode": "8710312",
    "prefecture": "大分県",
    "prefecture_kana": "オオイタケン",
    "prefecture_code": 44,
    "city": "中津市",
    "city_kana": "ナカツシ",
    "town": "本耶馬渓町折元",
    "town_kana": "ホンヤバケイマチオリモト",
    "street": null,
    "office_name": null,
    "office_name_kana": null
  },
  "0313": {
    "postcode": "8710313",
    "prefecture": "大分県",
    "prefecture_kana": "オオイタケン",
    "prefecture_code": 44,
    "city": "中津市",
    "city_kana": "ナカツシ",
    "town": "本耶馬渓町落合",
    "town_kana": "ホンヤバケイマチオチアイ",
    "street": null,
    "office_name": null,
    "office_name_kana": null
  },
  "0314": {
    "postcode": "8710314",
    "prefecture": "大分県",
    "prefecture_kana": "オオイタケン",
    "prefecture_code": 44,
    "city": "中津市",
    "city_kana": "ナカツシ",
    "town": "本耶馬渓町西谷",
    "town_kana": "ホンヤバケイマチニシタニ",
    "street": null,
    "office_name": null,
    "office_name_kana": null
  },
  "0315": {
    "postcode": "8710315",
    "prefecture": "大分県",
    "prefecture_kana": "オオイタケン",
    "prefecture_code": 44,
    "city": "中津市",
    "city_kana": "ナカツシ",
    "town": "本耶馬渓町東谷",
    "town_kana": "ホンヤバケイマチヒガシタニ",
    "street": null,
    "office_name": null,
    "office_name_kana": null
  },
  "0401": {
    "postcode": "8710401",
    "prefecture": "大分県",
    "prefecture_kana": "オオイタケン",
    "prefecture_code": 44,
    "city": "中津市",
    "city_kana": "ナカツシ",
    "town": "耶馬溪町平田",
    "town_kana": "ヤバケイマチヒラタ",
    "street": null,
    "office_name": null,
    "office_name_kana": null
  },
  "0402": {
    "postcode": "8710402",
    "prefecture": "大分県",
    "prefecture_kana": "オオイタケン",
    "prefecture_code": 44,
    "city": "中津市",
    "city_kana": "ナカツシ",
    "town": "耶馬溪町冠石野",
    "town_kana": "ヤバケイマチカブシノ",
    "street": null,
    "office_name": null,
    "office_name_kana": null
  },
  "0403": {
    "postcode": "8710403",
    "prefecture": "大分県",
    "prefecture_kana": "オオイタケン",
    "prefecture_code": 44,
    "city": "中津市",
    "city_kana": "ナカツシ",
    "town": "耶馬溪町多志田",
    "town_kana": "ヤバケイマチタシダ",
    "street": null,
    "office_name": null,
    "office_name_kana": null
  },
  "0404": {
    "postcode": "8710404",
    "prefecture": "大分県",
    "prefecture_kana": "オオイタケン",
    "prefecture_code": 44,
    "city": "中津市",
    "city_kana": "ナカツシ",
    "town": "耶馬溪町戸原",
    "town_kana": "ヤバケイマチトバル",
    "street": null,
    "office_name": null,
    "office_name_kana": null
  },
  "0405": {
    "postcode": "8710405",
    "prefecture": "大分県",
    "prefecture_kana": "オオイタケン",
    "prefecture_code": 44,
    "city": "中津市",
    "city_kana": "ナカツシ",
    "town": "耶馬溪町柿坂",
    "town_kana": "ヤバケイマチカキサカ",
    "street": null,
    "office_name": null,
    "office_name_kana": null
  },
  "0406": {
    "postcode": "8710406",
    "prefecture": "大分県",
    "prefecture_kana": "オオイタケン",
    "prefecture_code": 44,
    "city": "中津市",
    "city_kana": "ナカツシ",
    "town": "耶馬溪町小友田",
    "town_kana": "ヤバケイマチオトモダ",
    "street": null,
    "office_name": null,
    "office_name_kana": null
  },
  "0407": {
    "postcode": "8710407",
    "prefecture": "大分県",
    "prefecture_kana": "オオイタケン",
    "prefecture_code": 44,
    "city": "中津市",
    "city_kana": "ナカツシ",
    "town": "耶馬溪町三尾母",
    "town_kana": "ヤバケイマチミオモ",
    "street": null,
    "office_name": null,
    "office_name_kana": null
  },
  "0408": {
    "postcode": "8710408",
    "prefecture": "大分県",
    "prefecture_kana": "オオイタケン",
    "prefecture_code": 44,
    "city": "中津市",
    "city_kana": "ナカツシ",
    "town": "耶馬溪町福土",
    "town_kana": "ヤバケイマチフクツチ",
    "street": null,
    "office_name": null,
    "office_name_kana": null
  },
  "0411": {
    "postcode": "8710411",
    "prefecture": "大分県",
    "prefecture_kana": "オオイタケン",
    "prefecture_code": 44,
    "city": "中津市",
    "city_kana": "ナカツシ",
    "town": "耶馬溪町中畑",
    "town_kana": "ヤバケイマチナカハタ",
    "street": null,
    "office_name": null,
    "office_name_kana": null
  },
  "0412": {
    "postcode": "8710412",
    "prefecture": "大分県",
    "prefecture_kana": "オオイタケン",
    "prefecture_code": 44,
    "city": "中津市",
    "city_kana": "ナカツシ",
    "town": "耶馬溪町栃木",
    "town_kana": "ヤバケイマチトチギ",
    "street": null,
    "office_name": null,
    "office_name_kana": null
  },
  "0413": {
    "postcode": "8710413",
    "prefecture": "大分県",
    "prefecture_kana": "オオイタケン",
    "prefecture_code": 44,
    "city": "中津市",
    "city_kana": "ナカツシ",
    "town": "耶馬溪町大野",
    "town_kana": "ヤバケイマチオオノ",
    "street": null,
    "office_name": null,
    "office_name_kana": null
  },
  "0414": {
    "postcode": "8710414",
    "prefecture": "大分県",
    "prefecture_kana": "オオイタケン",
    "prefecture_code": 44,
    "city": "中津市",
    "city_kana": "ナカツシ",
    "town": "耶馬溪町川原口",
    "town_kana": "ヤバケイマチカワラグチ",
    "street": null,
    "office_name": null,
    "office_name_kana": null
  },
  "0421": {
    "postcode": "8710421",
    "prefecture": "大分県",
    "prefecture_kana": "オオイタケン",
    "prefecture_code": 44,
    "city": "中津市",
    "city_kana": "ナカツシ",
    "town": "耶馬溪町山移",
    "town_kana": "ヤバケイマチヤマウツリ",
    "street": null,
    "office_name": null,
    "office_name_kana": null
  },
  "0422": {
    "postcode": "8710422",
    "prefecture": "大分県",
    "prefecture_kana": "オオイタケン",
    "prefecture_code": 44,
    "city": "中津市",
    "city_kana": "ナカツシ",
    "town": "耶馬溪町深耶馬",
    "town_kana": "ヤバケイマチシンヤバ",
    "street": null,
    "office_name": null,
    "office_name_kana": null
  },
  "0431": {
    "postcode": "8710431",
    "prefecture": "大分県",
    "prefecture_kana": "オオイタケン",
    "prefecture_code": 44,
    "city": "中津市",
    "city_kana": "ナカツシ",
    "town": "耶馬溪町大島",
    "town_kana": "ヤバケイマチオオシマ",
    "street": null,
    "office_name": null,
    "office_name_kana": null
  },
  "0432": {
    "postcode": "8710432",
    "prefecture": "大分県",
    "prefecture_kana": "オオイタケン",
    "prefecture_code": 44,
    "city": "中津市",
    "city_kana": "ナカツシ",
    "town": "耶馬溪町金吉",
    "town_kana": "ヤバケイマチカナヨシ",
    "street": null,
    "office_name": null,
    "office_name_kana": null
  },
  "0433": {
    "postcode": "8710433",
    "prefecture": "大分県",
    "prefecture_kana": "オオイタケン",
    "prefecture_code": 44,
    "city": "中津市",
    "city_kana": "ナカツシ",
    "town": "耶馬溪町宮園",
    "town_kana": "ヤバケイマチミヤソノ",
    "street": null,
    "office_name": null,
    "office_name_kana": null
  },
  "0434": {
    "postcode": "8710434",
    "prefecture": "大分県",
    "prefecture_kana": "オオイタケン",
    "prefecture_code": 44,
    "city": "中津市",
    "city_kana": "ナカツシ",
    "town": "耶馬溪町樋山路",
    "town_kana": "ヤバケイマチヒヤマジ",
    "street": null,
    "office_name": null,
    "office_name_kana": null
  },
  "0701": {
    "postcode": "8710701",
    "prefecture": "大分県",
    "prefecture_kana": "オオイタケン",
    "prefecture_code": 44,
    "city": "中津市",
    "city_kana": "ナカツシ",
    "town": "山国町槻木",
    "town_kana": "ヤマクニマチツキノキ",
    "street": null,
    "office_name": null,
    "office_name_kana": null
  },
  "0702": {
    "postcode": "8710702",
    "prefecture": "大分県",
    "prefecture_kana": "オオイタケン",
    "prefecture_code": 44,
    "city": "中津市",
    "city_kana": "ナカツシ",
    "town": "山国町草本",
    "town_kana": "ヤマクニマチクサモト",
    "street": null,
    "office_name": null,
    "office_name_kana": null
  },
  "0703": {
    "postcode": "8710703",
    "prefecture": "大分県",
    "prefecture_kana": "オオイタケン",
    "prefecture_code": 44,
    "city": "中津市",
    "city_kana": "ナカツシ",
    "town": "山国町小屋川",
    "town_kana": "ヤマクニマチコヤガワ",
    "street": null,
    "office_name": null,
    "office_name_kana": null
  },
  "0704": {
    "postcode": "8710704",
    "prefecture": "大分県",
    "prefecture_kana": "オオイタケン",
    "prefecture_code": 44,
    "city": "中津市",
    "city_kana": "ナカツシ",
    "town": "山国町吉野",
    "town_kana": "ヤマクニマチヨシノ",
    "street": null,
    "office_name": null,
    "office_name_kana": null
  },
  "0711": {
    "postcode": "8710711",
    "prefecture": "大分県",
    "prefecture_kana": "オオイタケン",
    "prefecture_code": 44,
    "city": "中津市",
    "city_kana": "ナカツシ",
    "town": "山国町平小野",
    "town_kana": "ヤマクニマチヒラオノ",
    "street": null,
    "office_name": null,
    "office_name_kana": null
  },
  "0712": {
    "postcode": "8710712",
    "prefecture": "大分県",
    "prefecture_kana": "オオイタケン",
    "prefecture_code": 44,
    "city": "中津市",
    "city_kana": "ナカツシ",
    "town": "山国町守実",
    "town_kana": "ヤマクニマチモリザネ",
    "street": null,
    "office_name": null,
    "office_name_kana": null
  },
  "0713": {
    "postcode": "8710713",
    "prefecture": "大分県",
    "prefecture_kana": "オオイタケン",
    "prefecture_code": 44,
    "city": "中津市",
    "city_kana": "ナカツシ",
    "town": "山国町藤野木",
    "town_kana": "ヤマクニマチフジノキ",
    "street": null,
    "office_name": null,
    "office_name_kana": null
  },
  "0714": {
    "postcode": "8710714",
    "prefecture": "大分県",
    "prefecture_kana": "オオイタケン",
    "prefecture_code": 44,
    "city": "中津市",
    "city_kana": "ナカツシ",
    "town": "山国町長尾野",
    "town_kana": "ヤマクニマチナガオノ",
    "street": null,
    "office_name": null,
    "office_name_kana": null
  },
  "0715": {
    "postcode": "8710715",
    "prefecture": "大分県",
    "prefecture_kana": "オオイタケン",
    "prefecture_code": 44,
    "city": "中津市",
    "city_kana": "ナカツシ",
    "town": "山国町宇曽",
    "town_kana": "ヤマクニマチウソ",
    "street": null,
    "office_name": null,
    "office_name_kana": null
  },
  "0716": {
    "postcode": "8710716",
    "prefecture": "大分県",
    "prefecture_kana": "オオイタケン",
    "prefecture_code": 44,
    "city": "中津市",
    "city_kana": "ナカツシ",
    "town": "山国町中摩",
    "town_kana": "ヤマクニマチナカマ",
    "street": null,
    "office_name": null,
    "office_name_kana": null
  },
  "0795": {
    "postcode": "8710795",
    "prefecture": "大分県",
    "prefecture_kana": "オオイタケン",
    "prefecture_code": 44,
    "city": "中津市",
    "city_kana": "ナカツシ",
    "town": "山国町守実",
    "town_kana": "ヤマクニマチモリザネ",
    "street": "１３０番地",
    "office_name": "中津市役所　山国支所",
    "office_name_kana": "ナカツシヤクシヨ ヤマクニシシヨ"
  },
  "0801": {
    "postcode": "8710801",
    "prefecture": "福岡県",
    "prefecture_kana": "フクオカケン",
    "prefecture_code": 40,
    "city": "築上郡吉富町",
    "city_kana": "チクジョウグンヨシトミマチ",
    "town": "小祝",
    "town_kana": "コイワイ",
    "street": null,
    "office_name": null,
    "office_name_kana": null
  },
  "0802": {
    "postcode": "8710802",
    "prefecture": "福岡県",
    "prefecture_kana": "フクオカケン",
    "prefecture_code": 40,
    "city": "築上郡吉富町",
    "city_kana": "チクジョウグンヨシトミマチ",
    "town": "小犬丸",
    "town_kana": "コイヌマル",
    "street": null,
    "office_name": null,
    "office_name_kana": null
  },
  "0811": {
    "postcode": "8710811",
    "prefecture": "福岡県",
    "prefecture_kana": "フクオカケン",
    "prefecture_code": 40,
    "city": "築上郡吉富町",
    "city_kana": "チクジョウグンヨシトミマチ",
    "town": "広津",
    "town_kana": "ヒロツ",
    "street": null,
    "office_name": null,
    "office_name_kana": null
  },
  "0821": {
    "postcode": "8710821",
    "prefecture": "福岡県",
    "prefecture_kana": "フクオカケン",
    "prefecture_code": 40,
    "city": "築上郡吉富町",
    "city_kana": "チクジョウグンヨシトミマチ",
    "town": "幸子",
    "town_kana": "コウジ",
    "street": null,
    "office_name": null,
    "office_name_kana": null
  },
  "0822": {
    "postcode": "8710822",
    "prefecture": "福岡県",
    "prefecture_kana": "フクオカケン",
    "prefecture_code": 40,
    "city": "築上郡吉富町",
    "city_kana": "チクジョウグンヨシトミマチ",
    "town": "今吉",
    "town_kana": "イマヨシ",
    "street": null,
    "office_name": null,
    "office_name_kana": null
  },
  "0823": {
    "postcode": "8710823",
    "prefecture": "福岡県",
    "prefecture_kana": "フクオカケン",
    "prefecture_code": 40,
    "city": "築上郡吉富町",
    "city_kana": "チクジョウグンヨシトミマチ",
    "town": "別府",
    "town_kana": "ビョウ",
    "street": null,
    "office_name": null,
    "office_name_kana": null
  },
  "0831": {
    "postcode": "8710831",
    "prefecture": "福岡県",
    "prefecture_kana": "フクオカケン",
    "prefecture_code": 40,
    "city": "築上郡吉富町",
    "city_kana": "チクジョウグンヨシトミマチ",
    "town": "直江",
    "town_kana": "ナオエ",
    "street": null,
    "office_name": null,
    "office_name_kana": null
  },
  "0832": {
    "postcode": "8710832",
    "prefecture": "福岡県",
    "prefecture_kana": "フクオカケン",
    "prefecture_code": 40,
    "city": "築上郡吉富町",
    "city_kana": "チクジョウグンヨシトミマチ",
    "town": "鈴熊",
    "town_kana": "スズクマ",
    "street": null,
    "office_name": null,
    "office_name_kana": null
  },
  "0833": {
    "postcode": "8710833",
    "prefecture": "福岡県",
    "prefecture_kana": "フクオカケン",
    "prefecture_code": 40,
    "city": "築上郡吉富町",
    "city_kana": "チクジョウグンヨシトミマチ",
    "town": "楡生",
    "town_kana": "ニリョウ",
    "street": null,
    "office_name": null,
    "office_name_kana": null
  },
  "0834": {
    "postcode": "8710834",
    "prefecture": "福岡県",
    "prefecture_kana": "フクオカケン",
    "prefecture_code": 40,
    "city": "築上郡吉富町",
    "city_kana": "チクジョウグンヨシトミマチ",
    "town": "土屋",
    "town_kana": "ツチヤ",
    "street": null,
    "office_name": null,
    "office_name_kana": null
  },
  "0900": {
    "postcode": "8710900",
    "prefecture": "福岡県",
    "prefecture_kana": "フクオカケン",
    "prefecture_code": 40,
    "city": "築上郡上毛町",
    "city_kana": "チクジョウグンコウゲマチ",
    "town": "",
    "town_kana": "",
    "street": null,
    "office_name": null,
    "office_name_kana": null
  },
  "0901": {
    "postcode": "8710901",
    "prefecture": "福岡県",
    "prefecture_kana": "フクオカケン",
    "prefecture_code": 40,
    "city": "築上郡上毛町",
    "city_kana": "チクジョウグンコウゲマチ",
    "town": "成恒",
    "town_kana": "ナリツネ",
    "street": null,
    "office_name": null,
    "office_name_kana": null
  },
  "0902": {
    "postcode": "8710902",
    "prefecture": "福岡県",
    "prefecture_kana": "フクオカケン",
    "prefecture_code": 40,
    "city": "築上郡上毛町",
    "city_kana": "チクジョウグンコウゲマチ",
    "town": "大ノ瀬",
    "town_kana": "ダイノセ",
    "street": null,
    "office_name": null,
    "office_name_kana": null
  },
  "0903": {
    "postcode": "8710903",
    "prefecture": "福岡県",
    "prefecture_kana": "フクオカケン",
    "prefecture_code": 40,
    "city": "築上郡上毛町",
    "city_kana": "チクジョウグンコウゲマチ",
    "town": "八ツ並",
    "town_kana": "ヤツナミ",
    "street": null,
    "office_name": null,
    "office_name_kana": null
  },
  "0904": {
    "postcode": "8710904",
    "prefecture": "福岡県",
    "prefecture_kana": "フクオカケン",
    "prefecture_code": 40,
    "city": "築上郡上毛町",
    "city_kana": "チクジョウグンコウゲマチ",
    "town": "安雲",
    "town_kana": "アクモ",
    "street": null,
    "office_name": null,
    "office_name_kana": null
  },
  "0905": {
    "postcode": "8710905",
    "prefecture": "福岡県",
    "prefecture_kana": "フクオカケン",
    "prefecture_code": 40,
    "city": "築上郡上毛町",
    "city_kana": "チクジョウグンコウゲマチ",
    "town": "尻高",
    "town_kana": "シダカ",
    "street": null,
    "office_name": null,
    "office_name_kana": null
  },
  "0906": {
    "postcode": "8710906",
    "prefecture": "福岡県",
    "prefecture_kana": "フクオカケン",
    "prefecture_code": 40,
    "city": "築上郡上毛町",
    "city_kana": "チクジョウグンコウゲマチ",
    "town": "矢方",
    "town_kana": "ヤカタ",
    "street": null,
    "office_name": null,
    "office_name_kana": null
  },
  "0907": {
    "postcode": "8710907",
    "prefecture": "福岡県",
    "prefecture_kana": "フクオカケン",
    "prefecture_code": 40,
    "city": "築上郡上毛町",
    "city_kana": "チクジョウグンコウゲマチ",
    "town": "緒方",
    "town_kana": "オガタ",
    "street": null,
    "office_name": null,
    "office_name_kana": null
  },
  "0911": {
    "postcode": "8710911",
    "prefecture": "福岡県",
    "prefecture_kana": "フクオカケン",
    "prefecture_code": 40,
    "city": "築上郡上毛町",
    "city_kana": "チクジョウグンコウゲマチ",
    "town": "中村",
    "town_kana": "ナカムラ",
    "street": null,
    "office_name": null,
    "office_name_kana": null
  },
  "0912": {
    "postcode": "8710912",
    "prefecture": "福岡県",
    "prefecture_kana": "フクオカケン",
    "prefecture_code": 40,
    "city": "築上郡上毛町",
    "city_kana": "チクジョウグンコウゲマチ",
    "town": "吉岡",
    "town_kana": "ヨシオカ",
    "street": null,
    "office_name": null,
    "office_name_kana": null
  },
  "0913": {
    "postcode": "8710913",
    "prefecture": "福岡県",
    "prefecture_kana": "フクオカケン",
    "prefecture_code": 40,
    "city": "築上郡上毛町",
    "city_kana": "チクジョウグンコウゲマチ",
    "town": "垂水",
    "town_kana": "タルミ",
    "street": null,
    "office_name": null,
    "office_name_kana": null
  },
  "0914": {
    "postcode": "8710914",
    "prefecture": "福岡県",
    "prefecture_kana": "フクオカケン",
    "prefecture_code": 40,
    "city": "築上郡上毛町",
    "city_kana": "チクジョウグンコウゲマチ",
    "town": "宇野",
    "town_kana": "ウノ",
    "street": null,
    "office_name": null,
    "office_name_kana": null
  },
  "0921": {
    "postcode": "8710921",
    "prefecture": "福岡県",
    "prefecture_kana": "フクオカケン",
    "prefecture_code": 40,
    "city": "築上郡上毛町",
    "city_kana": "チクジョウグンコウゲマチ",
    "town": "土佐井",
    "town_kana": "ツチサイ",
    "street": null,
    "office_name": null,
    "office_name_kana": null
  },
  "0922": {
    "postcode": "8710922",
    "prefecture": "福岡県",
    "prefecture_kana": "フクオカケン",
    "prefecture_code": 40,
    "city": "築上郡上毛町",
    "city_kana": "チクジョウグンコウゲマチ",
    "town": "東下",
    "town_kana": "ヒガシシモ",
    "street": null,
    "office_name": null,
    "office_name_kana": null
  },
  "0923": {
    "postcode": "8710923",
    "prefecture": "福岡県",
    "prefecture_kana": "フクオカケン",
    "prefecture_code": 40,
    "city": "築上郡上毛町",
    "city_kana": "チクジョウグンコウゲマチ",
    "town": "下唐原",
    "town_kana": "シモトウバル",
    "street": null,
    "office_name": null,
    "office_name_kana": null
  },
  "0924": {
    "postcode": "8710924",
    "prefecture": "福岡県",
    "prefecture_kana": "フクオカケン",
    "prefecture_code": 40,
    "city": "築上郡上毛町",
    "city_kana": "チクジョウグンコウゲマチ",
    "town": "上唐原",
    "town_kana": "カミトウバル",
    "street": null,
    "office_name": null,
    "office_name_kana": null
  },
  "0925": {
    "postcode": "8710925",
    "prefecture": "福岡県",
    "prefecture_kana": "フクオカケン",
    "prefecture_code": 40,
    "city": "築上郡上毛町",
    "city_kana": "チクジョウグンコウゲマチ",
    "town": "百留",
    "town_kana": "ヒャクドミ",
    "street": null,
    "office_name": null,
    "office_name_kana": null
  },
  "0926": {
    "postcode": "8710926",
    "prefecture": "福岡県",
    "prefecture_kana": "フクオカケン",
    "prefecture_code": 40,
    "city": "築上郡上毛町",
    "city_kana": "チクジョウグンコウゲマチ",
    "town": "原井",
    "town_kana": "ハライ",
    "street": null,
    "office_name": null,
    "office_name_kana": null
  },
  "0927": {
    "postcode": "8710927",
    "prefecture": "福岡県",
    "prefecture_kana": "フクオカケン",
    "prefecture_code": 40,
    "city": "築上郡上毛町",
    "city_kana": "チクジョウグンコウゲマチ",
    "town": "東上",
    "town_kana": "ヒガシカミ",
    "street": null,
    "office_name": null,
    "office_name_kana": null
  },
  "0928": {
    "postcode": "8710928",
    "prefecture": "福岡県",
    "prefecture_kana": "フクオカケン",
    "prefecture_code": 40,
    "city": "築上郡上毛町",
    "city_kana": "チクジョウグンコウゲマチ",
    "town": "西友枝",
    "town_kana": "ニシトモエダ",
    "street": null,
    "office_name": null,
    "office_name_kana": null
  },
  "0992": {
    "postcode": "8710992",
    "prefecture": "福岡県",
    "prefecture_kana": "フクオカケン",
    "prefecture_code": 40,
    "city": "築上郡上毛町",
    "city_kana": "チクジョウグンコウゲマチ",
    "town": "大字垂水",
    "town_kana": null,
    "street": "１３２１−１",
    "office_name": "上毛町役場",
    "office_name_kana": "コウゲマチヤクバ"
  },
  "0993": {
    "postcode": "8710993",
    "prefecture": "福岡県",
    "prefecture_kana": "フクオカケン",
    "prefecture_code": 40,
    "city": "築上郡上毛町",
    "city_kana": "チクジョウグンコウゲマチ",
    "town": "大字東下",
    "town_kana": null,
    "street": "１５１２",
    "office_name": "上毛町　大平支所",
    "office_name_kana": "コウゲマチ タイヘイシシヨ"
  },
  "8501": {
    "postcode": "8718501",
    "prefecture": "大分県",
    "prefecture_kana": "オオイタケン",
    "prefecture_code": 44,
    "city": "中津市",
    "city_kana": "ナカツシ",
    "town": "豊田町",
    "town_kana": "トヨダマチ",
    "street": "１４−３",
    "office_name": "中津市役所",
    "office_name_kana": "ナカツシヤクシヨ"
  },
  "8502": {
    "postcode": "8718502",
    "prefecture": "大分県",
    "prefecture_kana": "オオイタケン",
    "prefecture_code": 44,
    "city": "中津市",
    "city_kana": "ナカツシ",
    "town": "中央町",
    "town_kana": "チュウオウマチ",
    "street": "１丁目２−５",
    "office_name": "九州電力　中津営業所",
    "office_name_kana": "キユウシユウデンリヨク ナカツエイギヨウシヨ"
  },
  "8510": {
    "postcode": "8718510",
    "prefecture": "大分県",
    "prefecture_kana": "オオイタケン",
    "prefecture_code": 44,
    "city": "中津市",
    "city_kana": "ナカツシ",
    "town": "殿町",
    "town_kana": "トノマチ",
    "street": "１３８３−１",
    "office_name": "中津市商工会議所",
    "office_name_kana": "ナカツシシヨウコウカイギシヨ"
  },
  "8511": {
    "postcode": "8718511",
    "prefecture": "大分県",
    "prefecture_kana": "オオイタケン",
    "prefecture_code": 44,
    "city": "中津市",
    "city_kana": "ナカツシ",
    "town": "大字下池永",
    "town_kana": null,
    "street": "１７３",
    "office_name": "中津市民病院",
    "office_name_kana": "ナカツシミンビヨウイン"
  },
  "8521": {
    "postcode": "8718521",
    "prefecture": "大分県",
    "prefecture_kana": "オオイタケン",
    "prefecture_code": 44,
    "city": "中津市",
    "city_kana": "ナカツシ",
    "town": "大字島田",
    "town_kana": null,
    "street": "１３４番地の１",
    "office_name": "株式会社　井筒屋　中津店",
    "office_name_kana": "カブシキガイシヤ イヅツヤ ナカツテン"
  },
  "8555": {
    "postcode": "8718555",
    "prefecture": "大分県",
    "prefecture_kana": "オオイタケン",
    "prefecture_code": 44,
    "city": "中津市",
    "city_kana": "ナカツシ",
    "town": "大字是則",
    "town_kana": null,
    "street": "７００番地",
    "office_name": "ＴＯＴＯサニテクノ　株式会社",
    "office_name_kana": "ト-ト-サニテクノ カブシキガイシヤ"
  },
  "8577": {
    "postcode": "8718577",
    "prefecture": "大分県",
    "prefecture_kana": "オオイタケン",
    "prefecture_code": 44,
    "city": "中津市",
    "city_kana": "ナカツシ",
    "town": "豊田町",
    "town_kana": "トヨダマチ",
    "street": "９−１０",
    "office_name": "サンリブ中津",
    "office_name_kana": "サンリブナカツ"
  },
  "8585": {
    "postcode": "8718585",
    "prefecture": "福岡県",
    "prefecture_kana": "フクオカケン",
    "prefecture_code": 40,
    "city": "築上郡吉富町",
    "city_kana": "チクジョウグンヨシトミマチ",
    "town": "大字広津",
    "town_kana": null,
    "street": "２２６−１",
    "office_name": "吉富町役場",
    "office_name_kana": "ヨシトミマチヤクバ"
  },
  "8609": {
    "postcode": "8718609",
    "prefecture": "大分県",
    "prefecture_kana": "オオイタケン",
    "prefecture_code": 44,
    "city": "中津市",
    "city_kana": "ナカツシ",
    "town": "大字中殿",
    "town_kana": null,
    "street": "５５０番地の２１",
    "office_name": "中津公共職業安定所",
    "office_name_kana": "ナカツコウキヨウシヨクギヨウアンテイシヨ"
  },
  "8629": {
    "postcode": "8718629",
    "prefecture": "大分県",
    "prefecture_kana": "オオイタケン",
    "prefecture_code": 44,
    "city": "中津市",
    "city_kana": "ナカツシ",
    "town": "豊田町",
    "town_kana": "トヨダマチ",
    "street": "２番地１０（中津郵便局私書箱第７号）",
    "office_name": "株式会社　大分銀行　中津支店",
    "office_name_kana": "カブシキガイシヤ オオイタギンコウ ナカツシテン"
  },
  "8642": {
    "postcode": "8718642",
    "prefecture": "大分県",
    "prefecture_kana": "オオイタケン",
    "prefecture_code": 44,
    "city": "中津市",
    "city_kana": "ナカツシ",
    "town": "大字中殿",
    "town_kana": null,
    "street": "５５０番地の２０（中津郵便局私書箱第６号）",
    "office_name": "中津税務署",
    "office_name_kana": "ナカツゼイムシヨ"
  },
  "8666": {
    "postcode": "8718666",
    "prefecture": "大分県",
    "prefecture_kana": "オオイタケン",
    "prefecture_code": 44,
    "city": "中津市",
    "city_kana": "ナカツシ",
    "town": "大字上如水",
    "town_kana": null,
    "street": "１８２５−１０（中津郵便局私書箱第２８号）",
    "office_name": "株式会社　中野産業機械",
    "office_name_kana": "カブシキガイシヤ ナカノサンギヨウキカイ"
  },
  "8686": {
    "postcode": "8718686",
    "prefecture": "大分県",
    "prefecture_kana": "オオイタケン",
    "prefecture_code": 44,
    "city": "中津市",
    "city_kana": "ナカツシ",
    "town": "大字東浜",
    "town_kana": null,
    "street": "３３２（中津郵便局私書箱第４３号）",
    "office_name": "中津鋼管工業　株式会社",
    "office_name_kana": "ナカツコウカンコウギヨウ カブシキガイシヤ"
  },
  "8688": {
    "postcode": "8718688",
    "prefecture": "大分県",
    "prefecture_kana": "オオイタケン",
    "prefecture_code": 44,
    "city": "中津市",
    "city_kana": "ナカツシ",
    "town": "大字是則",
    "town_kana": null,
    "street": "１１３６（中津郵便局私書箱第２３号）",
    "office_name": "八光産業　株式会社　中津工場",
    "office_name_kana": "ハツコウサンギヨウ カブシキガイシヤ ナカツコウジヨウ"
  }
}