{
  "0000": {
    "postcode": "8760000",
    "prefecture": "大分県",
    "prefecture_kana": "オオイタケン",
    "prefecture_code": 44,
    "city": "佐伯市",
    "city_kana": "サイキシ",
    "town": "",
    "town_kana": "",
    "street": null,
    "office_name": null,
    "office_name_kana": null
  },
  "0001": {
    "postcode": "8760001",
    "prefecture": "大分県",
    "prefecture_kana": "オオイタケン",
    "prefecture_code": 44,
    "city": "佐伯市",
    "city_kana": "サイキシ",
    "town": "高松浦",
    "town_kana": "タカマツウラ",
    "street": null,
    "office_name": null,
    "office_name_kana": null
  },
  "0002": {
    "postcode": "8760002",
    "prefecture": "大分県",
    "prefecture_kana": "オオイタケン",
    "prefecture_code": 44,
    "city": "佐伯市",
    "city_kana": "サイキシ",
    "town": "日向泊浦",
    "town_kana": "ヒュウガドマリウラ",
    "street": null,
    "office_name": null,
    "office_name_kana": null
  },
  "0003": {
    "postcode": "8760003",
    "prefecture": "大分県",
    "prefecture_kana": "オオイタケン",
    "prefecture_code": 44,
    "city": "佐伯市",
    "city_kana": "サイキシ",
    "town": "塩内浦",
    "town_kana": "シウチウラ",
    "street": null,
    "office_name": null,
    "office_name_kana": null
  },
  "0004": {
    "postcode": "8760004",
    "prefecture": "大分県",
    "prefecture_kana": "オオイタケン",
    "prefecture_code": 44,
    "city": "佐伯市",
    "city_kana": "サイキシ",
    "town": "荒網代浦",
    "town_kana": "アラジロウラ",
    "street": null,
    "office_name": null,
    "office_name_kana": null
  },
  "0005": {
    "postcode": "8760005",
    "prefecture": "大分県",
    "prefecture_kana": "オオイタケン",
    "prefecture_code": 44,
    "city": "佐伯市",
    "city_kana": "サイキシ",
    "town": "石間浦",
    "town_kana": "イシマウラ",
    "street": null,
    "office_name": null,
    "office_name_kana": null
  },
  "0006": {
    "postcode": "8760006",
    "prefecture": "大分県",
    "prefecture_kana": "オオイタケン",
    "prefecture_code": 44,
    "city": "佐伯市",
    "city_kana": "サイキシ",
    "town": "守後浦",
    "town_kana": "モリゴウラ",
    "street": null,
    "office_name": null,
    "office_name_kana": null
  },
  "0007": {
    "postcode": "8760007",
    "prefecture": "大分県",
    "prefecture_kana": "オオイタケン",
    "prefecture_code": 44,
    "city": "佐伯市",
    "city_kana": "サイキシ",
    "town": "久保浦",
    "town_kana": "クボウラ",
    "street": null,
    "office_name": null,
    "office_name_kana": null
  },
  "0008": {
    "postcode": "8760008",
    "prefecture": "大分県",
    "prefecture_kana": "オオイタケン",
    "prefecture_code": 44,
    "city": "佐伯市",
    "city_kana": "サイキシ",
    "town": "片神浦",
    "town_kana": "カタガミウラ",
    "street": null,
    "office_name": null,
    "office_name_kana": null
  },
  "0011": {
    "postcode": "8760011",
    "prefecture": "大分県",
    "prefecture_kana": "オオイタケン",
    "prefecture_code": 44,
    "city": "佐伯市",
    "city_kana": "サイキシ",
    "town": "坂の浦",
    "town_kana": "サカノウラ",
    "street": null,
    "office_name": null,
    "office_name_kana": null
  },
  "0012": {
    "postcode": "8760012",
    "prefecture": "大分県",
    "prefecture_kana": "オオイタケン",
    "prefecture_code": 44,
    "city": "佐伯市",
    "city_kana": "サイキシ",
    "town": "鶴望",
    "town_kana": "ツルミ",
    "street": null,
    "office_name": null,
    "office_name_kana": null
  },
  "0013": {
    "postcode": "8760013",
    "prefecture": "大分県",
    "prefecture_kana": "オオイタケン",
    "prefecture_code": 44,
    "city": "佐伯市",
    "city_kana": "サイキシ",
    "town": "若宮町",
    "town_kana": "ワカミヤマチ",
    "street": null,
    "office_name": null,
    "office_name_kana": null
  },
  "0014": {
    "postcode": "8760014",
    "prefecture": "大分県",
    "prefecture_kana": "オオイタケン",
    "prefecture_code": 44,
    "city": "佐伯市",
    "city_kana": "サイキシ",
    "town": "白方",
    "town_kana": "シラカタ",
    "street": null,
    "office_name": null,
    "office_name_kana": null
  },
  "0015": {
    "postcode": "8760015",
    "prefecture": "大分県",
    "prefecture_kana": "オオイタケン",
    "prefecture_code": 44,
    "city": "佐伯市",
    "city_kana": "サイキシ",
    "town": "百谷",
    "town_kana": "モモタニ",
    "street": null,
    "office_name": null,
    "office_name_kana": null
  },
  "0016": {
    "postcode": "8760016",
    "prefecture": "大分県",
    "prefecture_kana": "オオイタケン",
    "prefecture_code": 44,
    "city": "佐伯市",
    "city_kana": "サイキシ",
    "town": "王子丸",
    "town_kana": "オウジマル",
    "street": null,
    "office_name": null,
    "office_name_kana": null
  },
  "0017": {
    "postcode": "8760017",
    "prefecture": "大分県",
    "prefecture_kana": "オオイタケン",
    "prefecture_code": 44,
    "city": "佐伯市",
    "city_kana": "サイキシ",
    "town": "野口",
    "town_kana": "ノグチ",
    "street": null,
    "office_name": null,
    "office_name_kana": null
  },
  "0018": {
    "postcode": "8760018",
    "prefecture": "大分県",
    "prefecture_kana": "オオイタケン",
    "prefecture_code": 44,
    "city": "佐伯市",
    "city_kana": "サイキシ",
    "town": "平",
    "town_kana": "ヒラ",
    "street": null,
    "office_name": null,
    "office_name_kana": null
  },
  "0021": {
    "postcode": "8760021",
    "prefecture": "大分県",
    "prefecture_kana": "オオイタケン",
    "prefecture_code": 44,
    "city": "佐伯市",
    "city_kana": "サイキシ",
    "town": "東灘",
    "town_kana": "ヒガシナダ",
    "street": null,
    "office_name": null,
    "office_name_kana": null
  },
  "0022": {
    "postcode": "8760022",
    "prefecture": "大分県",
    "prefecture_kana": "オオイタケン",
    "prefecture_code": 44,
    "city": "佐伯市",
    "city_kana": "サイキシ",
    "town": "上灘",
    "town_kana": "カミナダ",
    "street": null,
    "office_name": null,
    "office_name_kana": null
  },
  "0023": {
    "postcode": "8760023",
    "prefecture": "大分県",
    "prefecture_kana": "オオイタケン",
    "prefecture_code": 44,
    "city": "佐伯市",
    "city_kana": "サイキシ",
    "town": "蛇崎",
    "town_kana": "ヘビザキ",
    "street": null,
    "office_name": null,
    "office_name_kana": null
  },
  "0024": {
    "postcode": "8760024",
    "prefecture": "大分県",
    "prefecture_kana": "オオイタケン",
    "prefecture_code": 44,
    "city": "佐伯市",
    "city_kana": "サイキシ",
    "town": "下久部",
    "town_kana": "シモクベ",
    "street": null,
    "office_name": null,
    "office_name_kana": null
  },
  "0025": {
    "postcode": "8760025",
    "prefecture": "大分県",
    "prefecture_kana": "オオイタケン",
    "prefecture_code": 44,
    "city": "佐伯市",
    "city_kana": "サイキシ",
    "town": "池田",
    "town_kana": "イケダ",
    "street": null,
    "office_name": null,
    "office_name_kana": null
  },
  "0026": {
    "postcode": "8760026",
    "prefecture": "大分県",
    "prefecture_kana": "オオイタケン",
    "prefecture_code": 44,
    "city": "佐伯市",
    "city_kana": "サイキシ",
    "town": "匠南",
    "town_kana": "ショウナン",
    "street": null,
    "office_name": null,
    "office_name_kana": null
  },
  "0027": {
    "postcode": "8760027",
    "prefecture": "大分県",
    "prefecture_kana": "オオイタケン",
    "prefecture_code": 44,
    "city": "佐伯市",
    "city_kana": "サイキシ",
    "town": "上久部",
    "town_kana": "カミクベ",
    "street": null,
    "office_name": null,
    "office_name_kana": null
  },
  "0031": {
    "postcode": "8760031",
    "prefecture": "大分県",
    "prefecture_kana": "オオイタケン",
    "prefecture_code": 44,
    "city": "佐伯市",
    "city_kana": "サイキシ",
    "town": "川原",
    "town_kana": "カワバル",
    "street": null,
    "office_name": null,
    "office_name_kana": null
  },
  "0032": {
    "postcode": "8760032",
    "prefecture": "大分県",
    "prefecture_kana": "オオイタケン",
    "prefecture_code": 44,
    "city": "佐伯市",
    "city_kana": "サイキシ",
    "town": "中山",
    "town_kana": "ナカヤマ",
    "street": null,
    "office_name": null,
    "office_name_kana": null
  },
  "0033": {
    "postcode": "8760033",
    "prefecture": "大分県",
    "prefecture_kana": "オオイタケン",
    "prefecture_code": 44,
    "city": "佐伯市",
    "city_kana": "サイキシ",
    "town": "下城",
    "town_kana": "シモジョウ",
    "street": null,
    "office_name": null,
    "office_name_kana": null
  },
  "0034": {
    "postcode": "8760034",
    "prefecture": "大分県",
    "prefecture_kana": "オオイタケン",
    "prefecture_code": 44,
    "city": "佐伯市",
    "city_kana": "サイキシ",
    "town": "上城",
    "town_kana": "カミジョウ",
    "street": null,
    "office_name": null,
    "office_name_kana": null
  },
  "0035": {
    "postcode": "8760035",
    "prefecture": "大分県",
    "prefecture_kana": "オオイタケン",
    "prefecture_code": 44,
    "city": "佐伯市",
    "city_kana": "サイキシ",
    "town": "岸河内",
    "town_kana": "キシガワチ",
    "street": null,
    "office_name": null,
    "office_name_kana": null
  },
  "0036": {
    "postcode": "8760036",
    "prefecture": "大分県",
    "prefecture_kana": "オオイタケン",
    "prefecture_code": 44,
    "city": "佐伯市",
    "city_kana": "サイキシ",
    "town": "大越",
    "town_kana": "オオコエ",
    "street": null,
    "office_name": null,
    "office_name_kana": null
  },
  "0037": {
    "postcode": "8760037",
    "prefecture": "大分県",
    "prefecture_kana": "オオイタケン",
    "prefecture_code": 44,
    "city": "佐伯市",
    "city_kana": "サイキシ",
    "town": "長谷",
    "town_kana": "ハセ",
    "street": null,
    "office_name": null,
    "office_name_kana": null
  },
  "0041": {
    "postcode": "8760041",
    "prefecture": "大分県",
    "prefecture_kana": "オオイタケン",
    "prefecture_code": 44,
    "city": "佐伯市",
    "city_kana": "サイキシ",
    "town": "長瀬",
    "town_kana": "ナガセ",
    "street": null,
    "office_name": null,
    "office_name_kana": null
  },
  "0042": {
    "postcode": "8760042",
    "prefecture": "大分県",
    "prefecture_kana": "オオイタケン",
    "prefecture_code": 44,
    "city": "佐伯市",
    "city_kana": "サイキシ",
    "town": "稲垣",
    "town_kana": "イナガキ",
    "street": null,
    "office_name": null,
    "office_name_kana": null
  },
  "0043": {
    "postcode": "8760043",
    "prefecture": "大分県",
    "prefecture_kana": "オオイタケン",
    "prefecture_code": 44,
    "city": "佐伯市",
    "city_kana": "サイキシ",
    "town": "樫野",
    "town_kana": "カシノ",
    "street": null,
    "office_name": null,
    "office_name_kana": null
  },
  "0044": {
    "postcode": "8760044",
    "prefecture": "大分県",
    "prefecture_kana": "オオイタケン",
    "prefecture_code": 44,
    "city": "佐伯市",
    "city_kana": "サイキシ",
    "town": "高畠",
    "town_kana": "タカバタ",
    "street": null,
    "office_name": null,
    "office_name_kana": null
  },
  "0045": {
    "postcode": "8760045",
    "prefecture": "大分県",
    "prefecture_kana": "オオイタケン",
    "prefecture_code": 44,
    "city": "佐伯市",
    "city_kana": "サイキシ",
    "town": "上岡",
    "town_kana": "カミオカ",
    "street": null,
    "office_name": null,
    "office_name_kana": null
  },
  "0046": {
    "postcode": "8760046",
    "prefecture": "大分県",
    "prefecture_kana": "オオイタケン",
    "prefecture_code": 44,
    "city": "佐伯市",
    "city_kana": "サイキシ",
    "town": "脇",
    "town_kana": "ワキ",
    "street": null,
    "office_name": null,
    "office_name_kana": null
  },
  "0047": {
    "postcode": "8760047",
    "prefecture": "大分県",
    "prefecture_kana": "オオイタケン",
    "prefecture_code": 44,
    "city": "佐伯市",
    "city_kana": "サイキシ",
    "town": "鶴岡西町",
    "town_kana": "ツルオカニシマチ",
    "street": null,
    "office_name": null,
    "office_name_kana": null
  },
  "0051": {
    "postcode": "8760051",
    "prefecture": "大分県",
    "prefecture_kana": "オオイタケン",
    "prefecture_code": 44,
    "city": "佐伯市",
    "city_kana": "サイキシ",
    "town": "寺田",
    "town_kana": "テラダ",
    "street": null,
    "office_name": null,
    "office_name_kana": null
  },
  "0052": {
    "postcode": "8760052",
    "prefecture": "大分県",
    "prefecture_kana": "オオイタケン",
    "prefecture_code": 44,
    "city": "佐伯市",
    "city_kana": "サイキシ",
    "town": "坂山",
    "town_kana": "サカヤマ",
    "street": null,
    "office_name": null,
    "office_name_kana": null
  },
  "0053": {
    "postcode": "8760053",
    "prefecture": "大分県",
    "prefecture_kana": "オオイタケン",
    "prefecture_code": 44,
    "city": "佐伯市",
    "city_kana": "サイキシ",
    "town": "高畑",
    "town_kana": "タカバタケ",
    "street": null,
    "office_name": null,
    "office_name_kana": null
  },
  "0061": {
    "postcode": "8760061",
    "prefecture": "大分県",
    "prefecture_kana": "オオイタケン",
    "prefecture_code": 44,
    "city": "佐伯市",
    "city_kana": "サイキシ",
    "town": "門前",
    "town_kana": "モンゼ",
    "street": null,
    "office_name": null,
    "office_name_kana": null
  },
  "0062": {
    "postcode": "8760062",
    "prefecture": "大分県",
    "prefecture_kana": "オオイタケン",
    "prefecture_code": 44,
    "city": "佐伯市",
    "city_kana": "サイキシ",
    "town": "古市",
    "town_kana": "フルイチ",
    "street": null,
    "office_name": null,
    "office_name_kana": null
  },
  "0063": {
    "postcode": "8760063",
    "prefecture": "大分県",
    "prefecture_kana": "オオイタケン",
    "prefecture_code": 44,
    "city": "佐伯市",
    "city_kana": "サイキシ",
    "town": "城西区",
    "town_kana": "ジョウセイク",
    "street": null,
    "office_name": null,
    "office_name_kana": null
  },
  "0064": {
    "postcode": "8760064",
    "prefecture": "大分県",
    "prefecture_kana": "オオイタケン",
    "prefecture_code": 44,
    "city": "佐伯市",
    "city_kana": "サイキシ",
    "town": "八迫区",
    "town_kana": "ヤサコク",
    "street": null,
    "office_name": null,
    "office_name_kana": null
  },
  "0101": {
    "postcode": "8760101",
    "prefecture": "大分県",
    "prefecture_kana": "オオイタケン",
    "prefecture_code": 44,
    "city": "佐伯市",
    "city_kana": "サイキシ",
    "town": "弥生大坂本",
    "town_kana": "ヤヨイオオサカモト",
    "street": null,
    "office_name": null,
    "office_name_kana": null
  },
  "0102": {
    "postcode": "8760102",
    "prefecture": "大分県",
    "prefecture_kana": "オオイタケン",
    "prefecture_code": 44,
    "city": "佐伯市",
    "city_kana": "サイキシ",
    "town": "弥生尺間",
    "town_kana": "ヤヨイシャクマ",
    "street": null,
    "office_name": null,
    "office_name_kana": null
  },
  "0103": {
    "postcode": "8760103",
    "prefecture": "大分県",
    "prefecture_kana": "オオイタケン",
    "prefecture_code": 44,
    "city": "佐伯市",
    "city_kana": "サイキシ",
    "town": "弥生床木",
    "town_kana": "ヤヨイユカギ",
    "street": null,
    "office_name": null,
    "office_name_kana": null
  },
  "0111": {
    "postcode": "8760111",
    "prefecture": "大分県",
    "prefecture_kana": "オオイタケン",
    "prefecture_code": 44,
    "city": "佐伯市",
    "city_kana": "サイキシ",
    "town": "弥生井崎",
    "town_kana": "ヤヨイイサキ",
    "street": null,
    "office_name": null,
    "office_name_kana": null
  },
  "0112": {
    "postcode": "8760112",
    "prefecture": "大分県",
    "prefecture_kana": "オオイタケン",
    "prefecture_code": 44,
    "city": "佐伯市",
    "city_kana": "サイキシ",
    "town": "弥生上小倉",
    "town_kana": "ヤヨイカミオグラ",
    "street": null,
    "office_name": null,
    "office_name_kana": null
  },
  "0113": {
    "postcode": "8760113",
    "prefecture": "大分県",
    "prefecture_kana": "オオイタケン",
    "prefecture_code": 44,
    "city": "佐伯市",
    "city_kana": "サイキシ",
    "town": "弥生山梨子",
    "town_kana": "ヤヨイヤマナシ",
    "street": null,
    "office_name": null,
    "office_name_kana": null
  },
  "0121": {
    "postcode": "8760121",
    "prefecture": "大分県",
    "prefecture_kana": "オオイタケン",
    "prefecture_code": 44,
    "city": "佐伯市",
    "city_kana": "サイキシ",
    "town": "弥生小田",
    "town_kana": "ヤヨイコダ",
    "street": null,
    "office_name": null,
    "office_name_kana": null
  },
  "0122": {
    "postcode": "8760122",
    "prefecture": "大分県",
    "prefecture_kana": "オオイタケン",
    "prefecture_code": 44,
    "city": "佐伯市",
    "city_kana": "サイキシ",
    "town": "弥生門田",
    "town_kana": "ヤヨイカンタ",
    "street": null,
    "office_name": null,
    "office_name_kana": null
  },
  "0123": {
    "postcode": "8760123",
    "prefecture": "大分県",
    "prefecture_kana": "オオイタケン",
    "prefecture_code": 44,
    "city": "佐伯市",
    "city_kana": "サイキシ",
    "town": "弥生平井",
    "town_kana": "ヤヨイヒライ",
    "street": null,
    "office_name": null,
    "office_name_kana": null
  },
  "0124": {
    "postcode": "8760124",
    "prefecture": "大分県",
    "prefecture_kana": "オオイタケン",
    "prefecture_code": 44,
    "city": "佐伯市",
    "city_kana": "サイキシ",
    "town": "弥生細田",
    "town_kana": "ヤヨイサイタ",
    "street": null,
    "office_name": null,
    "office_name_kana": null
  },
  "0125": {
    "postcode": "8760125",
    "prefecture": "大分県",
    "prefecture_kana": "オオイタケン",
    "prefecture_code": 44,
    "city": "佐伯市",
    "city_kana": "サイキシ",
    "town": "弥生江良",
    "town_kana": "ヤヨイエラ",
    "street": null,
    "office_name": null,
    "office_name_kana": null
  },
  "0126": {
    "postcode": "8760126",
    "prefecture": "大分県",
    "prefecture_kana": "オオイタケン",
    "prefecture_code": 44,
    "city": "佐伯市",
    "city_kana": "サイキシ",
    "town": "弥生提内",
    "town_kana": "ヤヨイヒサギウチ",
    "street": null,
    "office_name": null,
    "office_name_kana": null
  },
  "0201": {
    "postcode": "8760201",
    "prefecture": "大分県",
    "prefecture_kana": "オオイタケン",
    "prefecture_code": 44,
    "city": "佐伯市",
    "city_kana": "サイキシ",
    "town": "本匠風戸",
    "town_kana": "ホンジョウカザト",
    "street": null,
    "office_name": null,
    "office_name_kana": null
  },
  "0202": {
    "postcode": "8760202",
    "prefecture": "大分県",
    "prefecture_kana": "オオイタケン",
    "prefecture_code": 44,
    "city": "佐伯市",
    "city_kana": "サイキシ",
    "town": "本匠笠掛",
    "town_kana": "ホンジョウカサカケ",
    "street": null,
    "office_name": null,
    "office_name_kana": null
  },
  "0203": {
    "postcode": "8760203",
    "prefecture": "大分県",
    "prefecture_kana": "オオイタケン",
    "prefecture_code": 44,
    "city": "佐伯市",
    "city_kana": "サイキシ",
    "town": "本匠三股",
    "town_kana": "ホンジョウミマタ",
    "street": null,
    "office_name": null,
    "office_name_kana": null
  },
  "0204": {
    "postcode": "8760204",
    "prefecture": "大分県",
    "prefecture_kana": "オオイタケン",
    "prefecture_code": 44,
    "city": "佐伯市",
    "city_kana": "サイキシ",
    "town": "本匠宇津々",
    "town_kana": "ホンジョウウツツ",
    "street": null,
    "office_name": null,
    "office_name_kana": null
  },
  "0205": {
    "postcode": "8760205",
    "prefecture": "大分県",
    "prefecture_kana": "オオイタケン",
    "prefecture_code": 44,
    "city": "佐伯市",
    "city_kana": "サイキシ",
    "town": "本匠波寄",
    "town_kana": "ホンジョウハキ",
    "street": null,
    "office_name": null,
    "office_name_kana": null
  },
  "0206": {
    "postcode": "8760206",
    "prefecture": "大分県",
    "prefecture_kana": "オオイタケン",
    "prefecture_code": 44,
    "city": "佐伯市",
    "city_kana": "サイキシ",
    "town": "本匠小川",
    "town_kana": "ホンジョウオガワ",
    "street": null,
    "office_name": null,
    "office_name_kana": null
  },
  "0211": {
    "postcode": "8760211",
    "prefecture": "大分県",
    "prefecture_kana": "オオイタケン",
    "prefecture_code": 44,
    "city": "佐伯市",
    "city_kana": "サイキシ",
    "town": "本匠井ノ上",
    "town_kana": "ホンジョウイノウエ",
    "street": null,
    "office_name": null,
    "office_name_kana": null
  },
  "0212": {
    "postcode": "8760212",
    "prefecture": "大分県",
    "prefecture_kana": "オオイタケン",
    "prefecture_code": 44,
    "city": "佐伯市",
    "city_kana": "サイキシ",
    "town": "本匠因尾",
    "town_kana": "ホンジョウインビ",
    "street": null,
    "office_name": null,
    "office_name_kana": null
  },
  "0213": {
    "postcode": "8760213",
    "prefecture": "大分県",
    "prefecture_kana": "オオイタケン",
    "prefecture_code": 44,
    "city": "佐伯市",
    "city_kana": "サイキシ",
    "town": "本匠堂ノ間",
    "town_kana": "ホンジョウドウノマ",
    "street": null,
    "office_name": null,
    "office_name_kana": null
  },
  "0214": {
    "postcode": "8760214",
    "prefecture": "大分県",
    "prefecture_kana": "オオイタケン",
    "prefecture_code": 44,
    "city": "佐伯市",
    "city_kana": "サイキシ",
    "town": "本匠上津川",
    "town_kana": "ホンジョウコウヅガワ",
    "street": null,
    "office_name": null,
    "office_name_kana": null
  },
  "0215": {
    "postcode": "8760215",
    "prefecture": "大分県",
    "prefecture_kana": "オオイタケン",
    "prefecture_code": 44,
    "city": "佐伯市",
    "city_kana": "サイキシ",
    "town": "本匠小半",
    "town_kana": "ホンジョウオナガラ",
    "street": null,
    "office_name": null,
    "office_name_kana": null
  },
  "0216": {
    "postcode": "8760216",
    "prefecture": "大分県",
    "prefecture_kana": "オオイタケン",
    "prefecture_code": 44,
    "city": "佐伯市",
    "city_kana": "サイキシ",
    "town": "本匠山部",
    "town_kana": "ホンジョウヤマブ",
    "street": null,
    "office_name": null,
    "office_name_kana": null
  },
  "0801": {
    "postcode": "8760801",
    "prefecture": "大分県",
    "prefecture_kana": "オオイタケン",
    "prefecture_code": 44,
    "city": "佐伯市",
    "city_kana": "サイキシ",
    "town": "葛港",
    "town_kana": "カヅラミナト",
    "street": null,
    "office_name": null,
    "office_name_kana": null
  },
  "0802": {
    "postcode": "8760802",
    "prefecture": "大分県",
    "prefecture_kana": "オオイタケン",
    "prefecture_code": 44,
    "city": "佐伯市",
    "city_kana": "サイキシ",
    "town": "日の出町",
    "town_kana": "ヒノデマチ",
    "street": null,
    "office_name": null,
    "office_name_kana": null
  },
  "0803": {
    "postcode": "8760803",
    "prefecture": "大分県",
    "prefecture_kana": "オオイタケン",
    "prefecture_code": 44,
    "city": "佐伯市",
    "city_kana": "サイキシ",
    "town": "駅前",
    "town_kana": "エキマエ",
    "street": null,
    "office_name": null,
    "office_name_kana": null
  },
  "0804": {
    "postcode": "8760804",
    "prefecture": "大分県",
    "prefecture_kana": "オオイタケン",
    "prefecture_code": 44,
    "city": "佐伯市",
    "city_kana": "サイキシ",
    "town": "蟹田",
    "town_kana": "ガンダ",
    "street": null,
    "office_name": null,
    "office_name_kana": null
  },
  "0805": {
    "postcode": "8760805",
    "prefecture": "大分県",
    "prefecture_kana": "オオイタケン",
    "prefecture_code": 44,
    "city": "佐伯市",
    "city_kana": "サイキシ",
    "town": "平野町",
    "town_kana": "ヒラノマチ",
    "street": null,
    "office_name": null,
    "office_name_kana": null
  },
  "0806": {
    "postcode": "8760806",
    "prefecture": "大分県",
    "prefecture_kana": "オオイタケン",
    "prefecture_code": 44,
    "city": "佐伯市",
    "city_kana": "サイキシ",
    "town": "春日町",
    "town_kana": "カスガマチ",
    "street": null,
    "office_name": null,
    "office_name_kana": null
  },
  "0807": {
    "postcode": "8760807",
    "prefecture": "大分県",
    "prefecture_kana": "オオイタケン",
    "prefecture_code": 44,
    "city": "佐伯市",
    "city_kana": "サイキシ",
    "town": "田の浦町",
    "town_kana": "タノウラマチ",
    "street": null,
    "office_name": null,
    "office_name_kana": null
  },
  "0811": {
    "postcode": "8760811",
    "prefecture": "大分県",
    "prefecture_kana": "オオイタケン",
    "prefecture_code": 44,
    "city": "佐伯市",
    "city_kana": "サイキシ",
    "town": "鶴谷町",
    "town_kana": "ツルヤマチ",
    "street": null,
    "office_name": null,
    "office_name_kana": null
  },
  "0812": {
    "postcode": "8760812",
    "prefecture": "大分県",
    "prefecture_kana": "オオイタケン",
    "prefecture_code": 44,
    "city": "佐伯市",
    "city_kana": "サイキシ",
    "town": "中江町",
    "town_kana": "ナカエマチ",
    "street": null,
    "office_name": null,
    "office_name_kana": null
  },
  "0813": {
    "postcode": "8760813",
    "prefecture": "大分県",
    "prefecture_kana": "オオイタケン",
    "prefecture_code": 44,
    "city": "佐伯市",
    "city_kana": "サイキシ",
    "town": "長島町",
    "town_kana": "ナガシママチ",
    "street": null,
    "office_name": null,
    "office_name_kana": null
  },
  "0814": {
    "postcode": "8760814",
    "prefecture": "大分県",
    "prefecture_kana": "オオイタケン",
    "prefecture_code": 44,
    "city": "佐伯市",
    "city_kana": "サイキシ",
    "town": "東町",
    "town_kana": "ヒガシマチ",
    "street": null,
    "office_name": null,
    "office_name_kana": null
  },
  "0815": {
    "postcode": "8760815",
    "prefecture": "大分県",
    "prefecture_kana": "オオイタケン",
    "prefecture_code": 44,
    "city": "佐伯市",
    "city_kana": "サイキシ",
    "town": "野岡町",
    "town_kana": "ノオカマチ",
    "street": null,
    "office_name": null,
    "office_name_kana": null
  },
  "0821": {
    "postcode": "8760821",
    "prefecture": "大分県",
    "prefecture_kana": "オオイタケン",
    "prefecture_code": 44,
    "city": "佐伯市",
    "city_kana": "サイキシ",
    "town": "東浜",
    "town_kana": "ヒガシハマ",
    "street": null,
    "office_name": null,
    "office_name_kana": null
  },
  "0822": {
    "postcode": "8760822",
    "prefecture": "大分県",
    "prefecture_kana": "オオイタケン",
    "prefecture_code": 44,
    "city": "佐伯市",
    "city_kana": "サイキシ",
    "town": "西浜",
    "town_kana": "ニシハマ",
    "street": null,
    "office_name": null,
    "office_name_kana": null
  },
  "0823": {
    "postcode": "8760823",
    "prefecture": "大分県",
    "prefecture_kana": "オオイタケン",
    "prefecture_code": 44,
    "city": "佐伯市",
    "city_kana": "サイキシ",
    "town": "女島",
    "town_kana": "メジマ",
    "street": null,
    "office_name": null,
    "office_name_kana": null
  },
  "0824": {
    "postcode": "8760824",
    "prefecture": "大分県",
    "prefecture_kana": "オオイタケン",
    "prefecture_code": 44,
    "city": "佐伯市",
    "city_kana": "サイキシ",
    "town": "新女島",
    "town_kana": "シンメジマ",
    "street": null,
    "office_name": null,
    "office_name_kana": null
  },
  "0825": {
    "postcode": "8760825",
    "prefecture": "大分県",
    "prefecture_kana": "オオイタケン",
    "prefecture_code": 44,
    "city": "佐伯市",
    "city_kana": "サイキシ",
    "town": "女島団地",
    "town_kana": "メジマダンチ",
    "street": null,
    "office_name": null,
    "office_name_kana": null
  },
  "0831": {
    "postcode": "8760831",
    "prefecture": "大分県",
    "prefecture_kana": "オオイタケン",
    "prefecture_code": 44,
    "city": "佐伯市",
    "city_kana": "サイキシ",
    "town": "大手町",
    "town_kana": "オオテマチ",
    "street": null,
    "office_name": null,
    "office_name_kana": null
  },
  "0832": {
    "postcode": "8760832",
    "prefecture": "大分県",
    "prefecture_kana": "オオイタケン",
    "prefecture_code": 44,
    "city": "佐伯市",
    "city_kana": "サイキシ",
    "town": "船頭町",
    "town_kana": "センドウマチ",
    "street": null,
    "office_name": null,
    "office_name_kana": null
  },
  "0833": {
    "postcode": "8760833",
    "prefecture": "大分県",
    "prefecture_kana": "オオイタケン",
    "prefecture_code": 44,
    "city": "佐伯市",
    "city_kana": "サイキシ",
    "town": "池船町",
    "town_kana": "イケフネマチ",
    "street": null,
    "office_name": null,
    "office_name_kana": null
  },
  "0834": {
    "postcode": "8760834",
    "prefecture": "大分県",
    "prefecture_kana": "オオイタケン",
    "prefecture_code": 44,
    "city": "佐伯市",
    "city_kana": "サイキシ",
    "town": "城南町",
    "town_kana": "ジョウナンマチ",
    "street": null,
    "office_name": null,
    "office_name_kana": null
  },
  "0835": {
    "postcode": "8760835",
    "prefecture": "大分県",
    "prefecture_kana": "オオイタケン",
    "prefecture_code": 44,
    "city": "佐伯市",
    "city_kana": "サイキシ",
    "town": "鶴岡町",
    "town_kana": "ツルオカマチ",
    "street": null,
    "office_name": null,
    "office_name_kana": null
  },
  "0836": {
    "postcode": "8760836",
    "prefecture": "大分県",
    "prefecture_kana": "オオイタケン",
    "prefecture_code": 44,
    "city": "佐伯市",
    "city_kana": "サイキシ",
    "town": "西谷町",
    "town_kana": "ニシダニマチ",
    "street": null,
    "office_name": null,
    "office_name_kana": null
  },
  "0841": {
    "postcode": "8760841",
    "prefecture": "大分県",
    "prefecture_kana": "オオイタケン",
    "prefecture_code": 44,
    "city": "佐伯市",
    "city_kana": "サイキシ",
    "town": "来島町",
    "town_kana": "クルシママチ",
    "street": null,
    "office_name": null,
    "office_name_kana": null
  },
  "0842": {
    "postcode": "8760842",
    "prefecture": "大分県",
    "prefecture_kana": "オオイタケン",
    "prefecture_code": 44,
    "city": "佐伯市",
    "city_kana": "サイキシ",
    "town": "中ノ島東町",
    "town_kana": "ナカノシマヒガシマチ",
    "street": null,
    "office_name": null,
    "office_name_kana": null
  },
  "0843": {
    "postcode": "8760843",
    "prefecture": "大分県",
    "prefecture_kana": "オオイタケン",
    "prefecture_code": 44,
    "city": "佐伯市",
    "city_kana": "サイキシ",
    "town": "中の島",
    "town_kana": "ナカノシマ",
    "street": null,
    "office_name": null,
    "office_name_kana": null
  },
  "0844": {
    "postcode": "8760844",
    "prefecture": "大分県",
    "prefecture_kana": "オオイタケン",
    "prefecture_code": 44,
    "city": "佐伯市",
    "city_kana": "サイキシ",
    "town": "向島",
    "town_kana": "ホウジマ",
    "street": null,
    "office_name": null,
    "office_name_kana": null
  },
  "0845": {
    "postcode": "8760845",
    "prefecture": "大分県",
    "prefecture_kana": "オオイタケン",
    "prefecture_code": 44,
    "city": "佐伯市",
    "city_kana": "サイキシ",
    "town": "内町",
    "town_kana": "ウチマチ",
    "street": null,
    "office_name": null,
    "office_name_kana": null
  },
  "0846": {
    "postcode": "8760846",
    "prefecture": "大分県",
    "prefecture_kana": "オオイタケン",
    "prefecture_code": 44,
    "city": "佐伯市",
    "city_kana": "サイキシ",
    "town": "城東町",
    "town_kana": "ジョウトウマチ",
    "street": null,
    "office_name": null,
    "office_name_kana": null
  },
  "0847": {
    "postcode": "8760847",
    "prefecture": "大分県",
    "prefecture_kana": "オオイタケン",
    "prefecture_code": 44,
    "city": "佐伯市",
    "city_kana": "サイキシ",
    "town": "城下西町",
    "town_kana": "ジョウカニシマチ",
    "street": null,
    "office_name": null,
    "office_name_kana": null
  },
  "0848": {
    "postcode": "8760848",
    "prefecture": "大分県",
    "prefecture_kana": "オオイタケン",
    "prefecture_code": 44,
    "city": "佐伯市",
    "city_kana": "サイキシ",
    "town": "城下東町",
    "town_kana": "ジョウカヒガシマチ",
    "street": null,
    "office_name": null,
    "office_name_kana": null
  },
  "0849": {
    "postcode": "8760849",
    "prefecture": "大分県",
    "prefecture_kana": "オオイタケン",
    "prefecture_code": 44,
    "city": "佐伯市",
    "city_kana": "サイキシ",
    "town": "臼坪",
    "town_kana": "ウスツボ",
    "street": null,
    "office_name": null,
    "office_name_kana": null
  },
  "0851": {
    "postcode": "8760851",
    "prefecture": "大分県",
    "prefecture_kana": "オオイタケン",
    "prefecture_code": 44,
    "city": "佐伯市",
    "city_kana": "サイキシ",
    "town": "常盤東町",
    "town_kana": "トキワヒガシマチ",
    "street": null,
    "office_name": null,
    "office_name_kana": null
  },
  "0852": {
    "postcode": "8760852",
    "prefecture": "大分県",
    "prefecture_kana": "オオイタケン",
    "prefecture_code": 44,
    "city": "佐伯市",
    "city_kana": "サイキシ",
    "town": "常盤南町",
    "town_kana": "トキワミナミマチ",
    "street": null,
    "office_name": null,
    "office_name_kana": null
  },
  "0853": {
    "postcode": "8760853",
    "prefecture": "大分県",
    "prefecture_kana": "オオイタケン",
    "prefecture_code": 44,
    "city": "佐伯市",
    "city_kana": "サイキシ",
    "town": "中村東町",
    "town_kana": "ナカムラヒガシマチ",
    "street": null,
    "office_name": null,
    "office_name_kana": null
  },
  "0854": {
    "postcode": "8760854",
    "prefecture": "大分県",
    "prefecture_kana": "オオイタケン",
    "prefecture_code": 44,
    "city": "佐伯市",
    "city_kana": "サイキシ",
    "town": "中村南町",
    "town_kana": "ナカムラミナミマチ",
    "street": null,
    "office_name": null,
    "office_name_kana": null
  },
  "0855": {
    "postcode": "8760855",
    "prefecture": "大分県",
    "prefecture_kana": "オオイタケン",
    "prefecture_code": 44,
    "city": "佐伯市",
    "city_kana": "サイキシ",
    "town": "中村西町",
    "town_kana": "ナカムラニシマチ",
    "street": null,
    "office_name": null,
    "office_name_kana": null
  },
  "0856": {
    "postcode": "8760856",
    "prefecture": "大分県",
    "prefecture_kana": "オオイタケン",
    "prefecture_code": 44,
    "city": "佐伯市",
    "city_kana": "サイキシ",
    "town": "中村北町",
    "town_kana": "ナカムラキタマチ",
    "street": null,
    "office_name": null,
    "office_name_kana": null
  },
  "0857": {
    "postcode": "8760857",
    "prefecture": "大分県",
    "prefecture_kana": "オオイタケン",
    "prefecture_code": 44,
    "city": "佐伯市",
    "city_kana": "サイキシ",
    "town": "常盤西町",
    "town_kana": "トキワニシマチ",
    "street": null,
    "office_name": null,
    "office_name_kana": null
  },
  "1101": {
    "postcode": "8761101",
    "prefecture": "大分県",
    "prefecture_kana": "オオイタケン",
    "prefecture_code": 44,
    "city": "佐伯市",
    "city_kana": "サイキシ",
    "town": "狩生",
    "town_kana": "カリウ",
    "street": null,
    "office_name": null,
    "office_name_kana": null
  },
  "1102": {
    "postcode": "8761102",
    "prefecture": "大分県",
    "prefecture_kana": "オオイタケン",
    "prefecture_code": 44,
    "city": "佐伯市",
    "city_kana": "サイキシ",
    "town": "二栄",
    "town_kana": "フタバエ",
    "street": null,
    "office_name": null,
    "office_name_kana": null
  },
  "1103": {
    "postcode": "8761103",
    "prefecture": "大分県",
    "prefecture_kana": "オオイタケン",
    "prefecture_code": 44,
    "city": "佐伯市",
    "city_kana": "サイキシ",
    "town": "護江",
    "town_kana": "モリエ",
    "street": null,
    "office_name": null,
    "office_name_kana": null
  },
  "1104": {
    "postcode": "8761104",
    "prefecture": "大分県",
    "prefecture_kana": "オオイタケン",
    "prefecture_code": 44,
    "city": "佐伯市",
    "city_kana": "サイキシ",
    "town": "霞ケ浦",
    "town_kana": "カスミガウラ",
    "street": null,
    "office_name": null,
    "office_name_kana": null
  },
  "1105": {
    "postcode": "8761105",
    "prefecture": "大分県",
    "prefecture_kana": "オオイタケン",
    "prefecture_code": 44,
    "city": "佐伯市",
    "city_kana": "サイキシ",
    "town": "海崎",
    "town_kana": "カイザキ",
    "street": null,
    "office_name": null,
    "office_name_kana": null
  },
  "1106": {
    "postcode": "8761106",
    "prefecture": "大分県",
    "prefecture_kana": "オオイタケン",
    "prefecture_code": 44,
    "city": "佐伯市",
    "city_kana": "サイキシ",
    "town": "戸穴",
    "town_kana": "ヒアナ",
    "street": null,
    "office_name": null,
    "office_name_kana": null
  },
  "1201": {
    "postcode": "8761201",
    "prefecture": "大分県",
    "prefecture_kana": "オオイタケン",
    "prefecture_code": 44,
    "city": "佐伯市",
    "city_kana": "サイキシ",
    "town": "鶴見吹浦",
    "town_kana": "ツルミフキウラ",
    "street": null,
    "office_name": null,
    "office_name_kana": null
  },
  "1202": {
    "postcode": "8761202",
    "prefecture": "大分県",
    "prefecture_kana": "オオイタケン",
    "prefecture_code": 44,
    "city": "佐伯市",
    "city_kana": "サイキシ",
    "town": "鶴見地松浦",
    "town_kana": "ツルミジマツウラ",
    "street": null,
    "office_name": null,
    "office_name_kana": null
  },
  "1203": {
    "postcode": "8761203",
    "prefecture": "大分県",
    "prefecture_kana": "オオイタケン",
    "prefecture_code": 44,
    "city": "佐伯市",
    "city_kana": "サイキシ",
    "town": "鶴見沖松浦",
    "town_kana": "ツルミオキマツウラ",
    "street": null,
    "office_name": null,
    "office_name_kana": null
  },
  "1204": {
    "postcode": "8761204",
    "prefecture": "大分県",
    "prefecture_kana": "オオイタケン",
    "prefecture_code": 44,
    "city": "佐伯市",
    "city_kana": "サイキシ",
    "town": "鶴見有明浦",
    "town_kana": "ツルミアリアケウラ",
    "street": null,
    "office_name": null,
    "office_name_kana": null
  },
  "1205": {
    "postcode": "8761205",
    "prefecture": "大分県",
    "prefecture_kana": "オオイタケン",
    "prefecture_code": 44,
    "city": "佐伯市",
    "city_kana": "サイキシ",
    "town": "鶴見羽出浦",
    "town_kana": "ツルミハイデウラ",
    "street": null,
    "office_name": null,
    "office_name_kana": null
  },
  "1206": {
    "postcode": "8761206",
    "prefecture": "大分県",
    "prefecture_kana": "オオイタケン",
    "prefecture_code": 44,
    "city": "佐伯市",
    "city_kana": "サイキシ",
    "town": "鶴見中越浦",
    "town_kana": "ツルミナカゴシウラ",
    "street": null,
    "office_name": null,
    "office_name_kana": null
  },
  "1301": [
    {
      "postcode": "8761301",
      "prefecture": "大分県",
      "prefecture_kana": "オオイタケン",
      "prefecture_code": 44,
      "city": "佐伯市",
      "city_kana": "サイキシ",
      "town": "米水津浦代浦",
      "town_kana": "ヨノウヅウラシロウラ",
      "street": null,
      "office_name": null,
      "office_name_kana": null
    },
    {
      "postcode": "8761301",
      "prefecture": "大分県",
      "prefecture_kana": "オオイタケン",
      "prefecture_code": 44,
      "city": "佐伯市",
      "city_kana": "サイキシ",
      "town": "米水津浦代浦間越",
      "town_kana": "ヨノウヅウラシロウラハザコ",
      "street": null,
      "office_name": null,
      "office_name_kana": null
    },
    {
      "postcode": "8761301",
      "prefecture": "大分県",
      "prefecture_kana": "オオイタケン",
      "prefecture_code": 44,
      "city": "佐伯市",
      "city_kana": "サイキシ",
      "town": "米水津浦代浦芳ケ浦",
      "town_kana": "ヨノウヅウラシロウラヨシガウラ",
      "street": null,
      "office_name": null,
      "office_name_kana": null
    }
  ],
  "1306": [
    {
      "postcode": "8761306",
      "prefecture": "大分県",
      "prefecture_kana": "オオイタケン",
      "prefecture_code": 44,
      "city": "佐伯市",
      "city_kana": "サイキシ",
      "town": "鶴見中越浦",
      "town_kana": "ツルミナカゴシウラ",
      "street": null,
      "office_name": null,
      "office_name_kana": null
    },
    {
      "postcode": "8761306",
      "prefecture": "大分県",
      "prefecture_kana": "オオイタケン",
      "prefecture_code": 44,
      "city": "佐伯市",
      "city_kana": "サイキシ",
      "town": "鶴見中越浦猿戸",
      "town_kana": "ツルミナカゴシウラサルト",
      "street": null,
      "office_name": null,
      "office_name_kana": null
    },
    {
      "postcode": "8761306",
      "prefecture": "大分県",
      "prefecture_kana": "オオイタケン",
      "prefecture_code": 44,
      "city": "佐伯市",
      "city_kana": "サイキシ",
      "town": "鶴見中越浦広浦",
      "town_kana": "ツルミナカゴシウラヒロウラ",
      "street": null,
      "office_name": null,
      "office_name_kana": null
    }
  ],
  "1311": {
    "postcode": "8761311",
    "prefecture": "大分県",
    "prefecture_kana": "オオイタケン",
    "prefecture_code": 44,
    "city": "佐伯市",
    "city_kana": "サイキシ",
    "town": "鶴見丹賀浦",
    "town_kana": "ツルミタンガウラ",
    "street": null,
    "office_name": null,
    "office_name_kana": null
  },
  "1312": {
    "postcode": "8761312",
    "prefecture": "大分県",
    "prefecture_kana": "オオイタケン",
    "prefecture_code": 44,
    "city": "佐伯市",
    "city_kana": "サイキシ",
    "town": "鶴見梶寄浦",
    "town_kana": "ツルミカジヨセウラ",
    "street": null,
    "office_name": null,
    "office_name_kana": null
  },
  "1313": {
    "postcode": "8761313",
    "prefecture": "大分県",
    "prefecture_kana": "オオイタケン",
    "prefecture_code": 44,
    "city": "佐伯市",
    "city_kana": "サイキシ",
    "town": "鶴見大島",
    "town_kana": "ツルミオオシマ",
    "street": null,
    "office_name": null,
    "office_name_kana": null
  },
  "1401": {
    "postcode": "8761401",
    "prefecture": "大分県",
    "prefecture_kana": "オオイタケン",
    "prefecture_code": 44,
    "city": "佐伯市",
    "city_kana": "サイキシ",
    "town": "米水津浦代浦",
    "town_kana": "ヨノウヅウラシロウラ",
    "street": null,
    "office_name": null,
    "office_name_kana": null
  },
  "1402": {
    "postcode": "8761402",
    "prefecture": "大分県",
    "prefecture_kana": "オオイタケン",
    "prefecture_code": 44,
    "city": "佐伯市",
    "city_kana": "サイキシ",
    "town": "米水津色利浦",
    "town_kana": "ヨノウヅイロリウラ",
    "street": null,
    "office_name": null,
    "office_name_kana": null
  },
  "1403": {
    "postcode": "8761403",
    "prefecture": "大分県",
    "prefecture_kana": "オオイタケン",
    "prefecture_code": 44,
    "city": "佐伯市",
    "city_kana": "サイキシ",
    "town": "米水津宮野浦",
    "town_kana": "ヨノウヅミヤノウラ",
    "street": null,
    "office_name": null,
    "office_name_kana": null
  },
  "1404": {
    "postcode": "8761404",
    "prefecture": "大分県",
    "prefecture_kana": "オオイタケン",
    "prefecture_code": 44,
    "city": "佐伯市",
    "city_kana": "サイキシ",
    "town": "米水津小浦",
    "town_kana": "ヨノウヅコウラ",
    "street": null,
    "office_name": null,
    "office_name_kana": null
  },
  "1405": {
    "postcode": "8761405",
    "prefecture": "大分県",
    "prefecture_kana": "オオイタケン",
    "prefecture_code": 44,
    "city": "佐伯市",
    "city_kana": "サイキシ",
    "town": "米水津竹野浦",
    "town_kana": "ヨノウヅタケノウラ",
    "street": null,
    "office_name": null,
    "office_name_kana": null
  },
  "1511": {
    "postcode": "8761511",
    "prefecture": "大分県",
    "prefecture_kana": "オオイタケン",
    "prefecture_code": 44,
    "city": "佐伯市",
    "city_kana": "サイキシ",
    "town": "長良",
    "town_kana": "ナガラ",
    "street": null,
    "office_name": null,
    "office_name_kana": null
  },
  "1512": {
    "postcode": "8761512",
    "prefecture": "大分県",
    "prefecture_kana": "オオイタケン",
    "prefecture_code": 44,
    "city": "佐伯市",
    "city_kana": "サイキシ",
    "town": "堅田",
    "town_kana": "カタタ",
    "street": null,
    "office_name": null,
    "office_name_kana": null
  },
  "1513": {
    "postcode": "8761513",
    "prefecture": "大分県",
    "prefecture_kana": "オオイタケン",
    "prefecture_code": 44,
    "city": "佐伯市",
    "city_kana": "サイキシ",
    "town": "青山",
    "town_kana": "アオヤマ",
    "street": null,
    "office_name": null,
    "office_name_kana": null
  },
  "2121": {
    "postcode": "8762121",
    "prefecture": "大分県",
    "prefecture_kana": "オオイタケン",
    "prefecture_code": 44,
    "city": "佐伯市",
    "city_kana": "サイキシ",
    "town": "木立",
    "town_kana": "キタチ",
    "street": null,
    "office_name": null,
    "office_name_kana": null
  },
  "2201": {
    "postcode": "8762201",
    "prefecture": "大分県",
    "prefecture_kana": "オオイタケン",
    "prefecture_code": 44,
    "city": "佐伯市",
    "city_kana": "サイキシ",
    "town": "蒲江畑野浦",
    "town_kana": "カマエハタノウラ",
    "street": null,
    "office_name": null,
    "office_name_kana": null
  },
  "2202": {
    "postcode": "8762202",
    "prefecture": "大分県",
    "prefecture_kana": "オオイタケン",
    "prefecture_code": 44,
    "city": "佐伯市",
    "city_kana": "サイキシ",
    "town": "蒲江尾浦",
    "town_kana": "カマエオウラ",
    "street": null,
    "office_name": null,
    "office_name_kana": null
  },
  "2203": {
    "postcode": "8762203",
    "prefecture": "大分県",
    "prefecture_kana": "オオイタケン",
    "prefecture_code": 44,
    "city": "佐伯市",
    "city_kana": "サイキシ",
    "town": "蒲江楠本浦",
    "town_kana": "カマエクスモトウラ",
    "street": null,
    "office_name": null,
    "office_name_kana": null
  },
  "2301": {
    "postcode": "8762301",
    "prefecture": "大分県",
    "prefecture_kana": "オオイタケン",
    "prefecture_code": 44,
    "city": "佐伯市",
    "city_kana": "サイキシ",
    "town": "蒲江竹野浦河内",
    "town_kana": "カマエタケノウラゴウチ",
    "street": null,
    "office_name": null,
    "office_name_kana": null
  },
  "2302": {
    "postcode": "8762302",
    "prefecture": "大分県",
    "prefecture_kana": "オオイタケン",
    "prefecture_code": 44,
    "city": "佐伯市",
    "city_kana": "サイキシ",
    "town": "蒲江西野浦",
    "town_kana": "カマエニシノウラ",
    "street": null,
    "office_name": null,
    "office_name_kana": null
  },
  "2401": {
    "postcode": "8762401",
    "prefecture": "大分県",
    "prefecture_kana": "オオイタケン",
    "prefecture_code": 44,
    "city": "佐伯市",
    "city_kana": "サイキシ",
    "town": "蒲江蒲江浦",
    "town_kana": "カマエカマエウラ",
    "street": null,
    "office_name": null,
    "office_name_kana": null
  },
  "2402": {
    "postcode": "8762402",
    "prefecture": "大分県",
    "prefecture_kana": "オオイタケン",
    "prefecture_code": 44,
    "city": "佐伯市",
    "city_kana": "サイキシ",
    "town": "蒲江猪串浦",
    "town_kana": "カマエイノクシウラ",
    "street": null,
    "office_name": null,
    "office_name_kana": null
  },
  "2403": {
    "postcode": "8762403",
    "prefecture": "大分県",
    "prefecture_kana": "オオイタケン",
    "prefecture_code": 44,
    "city": "佐伯市",
    "city_kana": "サイキシ",
    "town": "蒲江野々河内浦",
    "town_kana": "カマエノノカワチウラ",
    "street": null,
    "office_name": null,
    "office_name_kana": null
  },
  "2404": {
    "postcode": "8762404",
    "prefecture": "大分県",
    "prefecture_kana": "オオイタケン",
    "prefecture_code": 44,
    "city": "佐伯市",
    "city_kana": "サイキシ",
    "town": "蒲江森崎浦",
    "town_kana": "カマエモリザキウラ",
    "street": null,
    "office_name": null,
    "office_name_kana": null
  },
  "2405": {
    "postcode": "8762405",
    "prefecture": "大分県",
    "prefecture_kana": "オオイタケン",
    "prefecture_code": 44,
    "city": "佐伯市",
    "city_kana": "サイキシ",
    "town": "蒲江丸市尾浦",
    "town_kana": "カマエマルイチビウラ",
    "street": null,
    "office_name": null,
    "office_name_kana": null
  },
  "2406": {
    "postcode": "8762406",
    "prefecture": "大分県",
    "prefecture_kana": "オオイタケン",
    "prefecture_code": 44,
    "city": "佐伯市",
    "city_kana": "サイキシ",
    "town": "蒲江葛原浦",
    "town_kana": "カマエカズラハラウラ",
    "street": null,
    "office_name": null,
    "office_name_kana": null
  },
  "2407": {
    "postcode": "8762407",
    "prefecture": "大分県",
    "prefecture_kana": "オオイタケン",
    "prefecture_code": 44,
    "city": "佐伯市",
    "city_kana": "サイキシ",
    "town": "蒲江波当津浦",
    "town_kana": "カマエハトウヅウラ",
    "street": null,
    "office_name": null,
    "office_name_kana": null
  },
  "2492": {
    "postcode": "8762492",
    "prefecture": "大分県",
    "prefecture_kana": "オオイタケン",
    "prefecture_code": 44,
    "city": "佐伯市",
    "city_kana": "サイキシ",
    "town": "蒲江大字蒲江浦",
    "town_kana": null,
    "street": "３２８３",
    "office_name": "佐伯市　蒲江振興局",
    "office_name_kana": "サイキシ カマエシンコウキヨク"
  },
  "8555": {
    "postcode": "8768555",
    "prefecture": "大分県",
    "prefecture_kana": "オオイタケン",
    "prefecture_code": 44,
    "city": "佐伯市",
    "city_kana": "サイキシ",
    "town": "蟹田",
    "town_kana": "ガンダ",
    "street": "７−８",
    "office_name": "九州電力　株式会社　佐伯営業所",
    "office_name_kana": "キユウシユウデンリヨク カブシキガイシヤ サイキエイギヨウシヨ"
  },
  "8580": {
    "postcode": "8768580",
    "prefecture": "大分県",
    "prefecture_kana": "オオイタケン",
    "prefecture_code": 44,
    "city": "佐伯市",
    "city_kana": "サイキシ",
    "town": "東浜",
    "town_kana": "ヒガシハマ",
    "street": "１−６",
    "office_name": "株式会社　興人　佐伯工場",
    "office_name_kana": "カブシキガイシヤ コウジン サイキコウジヨウ"
  },
  "8585": {
    "postcode": "8768585",
    "prefecture": "大分県",
    "prefecture_kana": "オオイタケン",
    "prefecture_code": 44,
    "city": "佐伯市",
    "city_kana": "サイキシ",
    "town": "中村南町",
    "town_kana": "ナカムラミナミマチ",
    "street": "１−１",
    "office_name": "佐伯市役所",
    "office_name_kana": "サイキシヤクシヨ"
  },
  "8601": {
    "postcode": "8768601",
    "prefecture": "大分県",
    "prefecture_kana": "オオイタケン",
    "prefecture_code": 44,
    "city": "佐伯市",
    "city_kana": "サイキシ",
    "town": "蟹田",
    "town_kana": "ガンダ",
    "street": "９−５（佐伯郵便局私書箱第２号）",
    "office_name": "佐伯税務署",
    "office_name_kana": "サイキゼイムシヨ"
  },
  "8666": {
    "postcode": "8768666",
    "prefecture": "大分県",
    "prefecture_kana": "オオイタケン",
    "prefecture_code": 44,
    "city": "佐伯市",
    "city_kana": "サイキシ",
    "town": "中村東町",
    "town_kana": "ナカムラヒガシマチ",
    "street": "６−１０（佐伯郵便局私書箱第１５号）",
    "office_name": "佐伯信用金庫",
    "office_name_kana": "サイキシンヨウキンコ"
  }
}