{
  "0000": [
    {
      "postcode": "8900000",
      "prefecture": "鹿児島県",
      "prefecture_kana": "カゴシマケン",
      "prefecture_code": 46,
      "city": "鹿児島市",
      "city_kana": "カゴシマシ",
      "town": "",
      "town_kana": "",
      "street": null,
      "office_name": null,
      "office_name_kana": null
    },
    {
      "postcode": "8900000",
      "prefecture": "鹿児島県",
      "prefecture_kana": "カゴシマケン",
      "prefecture_code": 46,
      "city": "鹿児島郡三島村",
      "city_kana": "カゴシマグンミシマムラ",
      "town": "",
      "town_kana": "",
      "street": null,
      "office_name": null,
      "office_name_kana": null
    }
  ],
  "0001": {
    "postcode": "8900001",
    "prefecture": "鹿児島県",
    "prefecture_kana": "カゴシマケン",
    "prefecture_code": 46,
    "city": "鹿児島市",
    "city_kana": "カゴシマシ",
    "town": "千年",
    "town_kana": "センネン",
    "street": null,
    "office_name": null,
    "office_name_kana": null
  },
  "0002": {
    "postcode": "8900002",
    "prefecture": "鹿児島県",
    "prefecture_kana": "カゴシマケン",
    "prefecture_code": 46,
    "city": "鹿児島市",
    "city_kana": "カゴシマシ",
    "town": "西伊敷",
    "town_kana": "ニシイシキ",
    "street": null,
    "office_name": null,
    "office_name_kana": null
  },
  "0003": {
    "postcode": "8900003",
    "prefecture": "鹿児島県",
    "prefecture_kana": "カゴシマケン",
    "prefecture_code": 46,
    "city": "鹿児島市",
    "city_kana": "カゴシマシ",
    "town": "伊敷町",
    "town_kana": "イシキチョウ",
    "street": null,
    "office_name": null,
    "office_name_kana": null
  },
  "0004": {
    "postcode": "8900004",
    "prefecture": "鹿児島県",
    "prefecture_kana": "カゴシマケン",
    "prefecture_code": 46,
    "city": "鹿児島市",
    "city_kana": "カゴシマシ",
    "town": "下伊敷町",
    "town_kana": "シモイシキチョウ",
    "street": null,
    "office_name": null,
    "office_name_kana": null
  },
  "0005": {
    "postcode": "8900005",
    "prefecture": "鹿児島県",
    "prefecture_kana": "カゴシマケン",
    "prefecture_code": 46,
    "city": "鹿児島市",
    "city_kana": "カゴシマシ",
    "town": "下伊敷",
    "town_kana": "シモイシキ",
    "street": null,
    "office_name": null,
    "office_name_kana": null
  },
  "0006": {
    "postcode": "8900006",
    "prefecture": "鹿児島県",
    "prefecture_kana": "カゴシマケン",
    "prefecture_code": 46,
    "city": "鹿児島市",
    "city_kana": "カゴシマシ",
    "town": "若葉町",
    "town_kana": "ワカバチョウ",
    "street": null,
    "office_name": null,
    "office_name_kana": null
  },
  "0007": {
    "postcode": "8900007",
    "prefecture": "鹿児島県",
    "prefecture_kana": "カゴシマケン",
    "prefecture_code": 46,
    "city": "鹿児島市",
    "city_kana": "カゴシマシ",
    "town": "伊敷台",
    "town_kana": "イシキダイ",
    "street": null,
    "office_name": null,
    "office_name_kana": null
  },
  "0008": {
    "postcode": "8900008",
    "prefecture": "鹿児島県",
    "prefecture_kana": "カゴシマケン",
    "prefecture_code": 46,
    "city": "鹿児島市",
    "city_kana": "カゴシマシ",
    "town": "伊敷",
    "town_kana": "イシキ",
    "street": null,
    "office_name": null,
    "office_name_kana": null
  },
  "0011": {
    "postcode": "8900011",
    "prefecture": "鹿児島県",
    "prefecture_kana": "カゴシマケン",
    "prefecture_code": 46,
    "city": "鹿児島市",
    "city_kana": "カゴシマシ",
    "town": "玉里団地",
    "town_kana": "タマザトダンチ",
    "street": null,
    "office_name": null,
    "office_name_kana": null
  },
  "0012": {
    "postcode": "8900012",
    "prefecture": "鹿児島県",
    "prefecture_kana": "カゴシマケン",
    "prefecture_code": 46,
    "city": "鹿児島市",
    "city_kana": "カゴシマシ",
    "town": "玉里町",
    "town_kana": "タマザトチョウ",
    "street": null,
    "office_name": null,
    "office_name_kana": null
  },
  "0013": {
    "postcode": "8900013",
    "prefecture": "鹿児島県",
    "prefecture_kana": "カゴシマケン",
    "prefecture_code": 46,
    "city": "鹿児島市",
    "city_kana": "カゴシマシ",
    "town": "城山",
    "town_kana": "シロヤマ",
    "street": null,
    "office_name": null,
    "office_name_kana": null
  },
  "0014": {
    "postcode": "8900014",
    "prefecture": "鹿児島県",
    "prefecture_kana": "カゴシマケン",
    "prefecture_code": 46,
    "city": "鹿児島市",
    "city_kana": "カゴシマシ",
    "town": "草牟田",
    "town_kana": "ソウムタ",
    "street": null,
    "office_name": null,
    "office_name_kana": null
  },
  "0015": {
    "postcode": "8900015",
    "prefecture": "鹿児島県",
    "prefecture_kana": "カゴシマケン",
    "prefecture_code": 46,
    "city": "鹿児島市",
    "city_kana": "カゴシマシ",
    "town": "草牟田町",
    "town_kana": "ソウムタチョウ",
    "street": null,
    "office_name": null,
    "office_name_kana": null
  },
  "0016": {
    "postcode": "8900016",
    "prefecture": "鹿児島県",
    "prefecture_kana": "カゴシマケン",
    "prefecture_code": 46,
    "city": "鹿児島市",
    "city_kana": "カゴシマシ",
    "town": "新照院町",
    "town_kana": "シンショウインチョウ",
    "street": null,
    "office_name": null,
    "office_name_kana": null
  },
  "0021": {
    "postcode": "8900021",
    "prefecture": "鹿児島県",
    "prefecture_kana": "カゴシマケン",
    "prefecture_code": 46,
    "city": "鹿児島市",
    "city_kana": "カゴシマシ",
    "town": "小野",
    "town_kana": "オノ",
    "street": null,
    "office_name": null,
    "office_name_kana": null
  },
  "0022": {
    "postcode": "8900022",
    "prefecture": "鹿児島県",
    "prefecture_kana": "カゴシマケン",
    "prefecture_code": 46,
    "city": "鹿児島市",
    "city_kana": "カゴシマシ",
    "town": "小野町",
    "town_kana": "オノチョウ",
    "street": null,
    "office_name": null,
    "office_name_kana": null
  },
  "0023": {
    "postcode": "8900023",
    "prefecture": "鹿児島県",
    "prefecture_kana": "カゴシマケン",
    "prefecture_code": 46,
    "city": "鹿児島市",
    "city_kana": "カゴシマシ",
    "town": "永吉",
    "town_kana": "ナガヨシ",
    "street": null,
    "office_name": null,
    "office_name_kana": null
  },
  "0024": {
    "postcode": "8900024",
    "prefecture": "鹿児島県",
    "prefecture_kana": "カゴシマケン",
    "prefecture_code": 46,
    "city": "鹿児島市",
    "city_kana": "カゴシマシ",
    "town": "明和",
    "town_kana": "メイワ",
    "street": null,
    "office_name": null,
    "office_name_kana": null
  },
  "0025": {
    "postcode": "8900025",
    "prefecture": "鹿児島県",
    "prefecture_kana": "カゴシマケン",
    "prefecture_code": 46,
    "city": "鹿児島市",
    "city_kana": "カゴシマシ",
    "town": "原良町",
    "town_kana": "ハララチョウ",
    "street": null,
    "office_name": null,
    "office_name_kana": null
  },
  "0026": {
    "postcode": "8900026",
    "prefecture": "鹿児島県",
    "prefecture_kana": "カゴシマケン",
    "prefecture_code": 46,
    "city": "鹿児島市",
    "city_kana": "カゴシマシ",
    "town": "原良",
    "town_kana": "ハララ",
    "street": null,
    "office_name": null,
    "office_name_kana": null
  },
  "0031": {
    "postcode": "8900031",
    "prefecture": "鹿児島県",
    "prefecture_kana": "カゴシマケン",
    "prefecture_code": 46,
    "city": "鹿児島市",
    "city_kana": "カゴシマシ",
    "town": "武岡",
    "town_kana": "タケオカ",
    "street": null,
    "office_name": null,
    "office_name_kana": null
  },
  "0032": {
    "postcode": "8900032",
    "prefecture": "鹿児島県",
    "prefecture_kana": "カゴシマケン",
    "prefecture_code": 46,
    "city": "鹿児島市",
    "city_kana": "カゴシマシ",
    "town": "西陵",
    "town_kana": "セイリョウ",
    "street": null,
    "office_name": null,
    "office_name_kana": null
  },
  "0033": {
    "postcode": "8900033",
    "prefecture": "鹿児島県",
    "prefecture_kana": "カゴシマケン",
    "prefecture_code": 46,
    "city": "鹿児島市",
    "city_kana": "カゴシマシ",
    "town": "西別府町",
    "town_kana": "ニシベップチョウ",
    "street": null,
    "office_name": null,
    "office_name_kana": null
  },
  "0034": {
    "postcode": "8900034",
    "prefecture": "鹿児島県",
    "prefecture_kana": "カゴシマケン",
    "prefecture_code": 46,
    "city": "鹿児島市",
    "city_kana": "カゴシマシ",
    "town": "田上",
    "town_kana": "タガミ",
    "street": null,
    "office_name": null,
    "office_name_kana": null
  },
  "0035": {
    "postcode": "8900035",
    "prefecture": "鹿児島県",
    "prefecture_kana": "カゴシマケン",
    "prefecture_code": 46,
    "city": "鹿児島市",
    "city_kana": "カゴシマシ",
    "town": "田上町",
    "town_kana": "タガミチョウ",
    "street": null,
    "office_name": null,
    "office_name_kana": null
  },
  "0036": {
    "postcode": "8900036",
    "prefecture": "鹿児島県",
    "prefecture_kana": "カゴシマケン",
    "prefecture_code": 46,
    "city": "鹿児島市",
    "city_kana": "カゴシマシ",
    "town": "田上台",
    "town_kana": "タガミダイ",
    "street": null,
    "office_name": null,
    "office_name_kana": null
  },
  "0037": {
    "postcode": "8900037",
    "prefecture": "鹿児島県",
    "prefecture_kana": "カゴシマケン",
    "prefecture_code": 46,
    "city": "鹿児島市",
    "city_kana": "カゴシマシ",
    "town": "広木",
    "town_kana": "ヒロキ",
    "street": null,
    "office_name": null,
    "office_name_kana": null
  },
  "0038": {
    "postcode": "8900038",
    "prefecture": "鹿児島県",
    "prefecture_kana": "カゴシマケン",
    "prefecture_code": 46,
    "city": "鹿児島市",
    "city_kana": "カゴシマシ",
    "town": "向陽",
    "town_kana": "コウヨウ",
    "street": null,
    "office_name": null,
    "office_name_kana": null
  },
  "0041": {
    "postcode": "8900041",
    "prefecture": "鹿児島県",
    "prefecture_kana": "カゴシマケン",
    "prefecture_code": 46,
    "city": "鹿児島市",
    "city_kana": "カゴシマシ",
    "town": "城西",
    "town_kana": "ジョウセイ",
    "street": null,
    "office_name": null,
    "office_name_kana": null
  },
  "0042": {
    "postcode": "8900042",
    "prefecture": "鹿児島県",
    "prefecture_kana": "カゴシマケン",
    "prefecture_code": 46,
    "city": "鹿児島市",
    "city_kana": "カゴシマシ",
    "town": "薬師",
    "town_kana": "ヤクシ",
    "street": null,
    "office_name": null,
    "office_name_kana": null
  },
  "0043": {
    "postcode": "8900043",
    "prefecture": "鹿児島県",
    "prefecture_kana": "カゴシマケン",
    "prefecture_code": 46,
    "city": "鹿児島市",
    "city_kana": "カゴシマシ",
    "town": "鷹師",
    "town_kana": "タカシ",
    "street": null,
    "office_name": null,
    "office_name_kana": null
  },
  "0044": {
    "postcode": "8900044",
    "prefecture": "鹿児島県",
    "prefecture_kana": "カゴシマケン",
    "prefecture_code": 46,
    "city": "鹿児島市",
    "city_kana": "カゴシマシ",
    "town": "常盤町",
    "town_kana": "トキワチョウ",
    "street": null,
    "office_name": null,
    "office_name_kana": null
  },
  "0045": {
    "postcode": "8900045",
    "prefecture": "鹿児島県",
    "prefecture_kana": "カゴシマケン",
    "prefecture_code": 46,
    "city": "鹿児島市",
    "city_kana": "カゴシマシ",
    "town": "武",
    "town_kana": "タケ",
    "street": null,
    "office_name": null,
    "office_name_kana": null
  },
  "0046": {
    "postcode": "8900046",
    "prefecture": "鹿児島県",
    "prefecture_kana": "カゴシマケン",
    "prefecture_code": 46,
    "city": "鹿児島市",
    "city_kana": "カゴシマシ",
    "town": "西田",
    "town_kana": "ニシダ",
    "street": null,
    "office_name": null,
    "office_name_kana": null
  },
  "0047": {
    "postcode": "8900047",
    "prefecture": "鹿児島県",
    "prefecture_kana": "カゴシマケン",
    "prefecture_code": 46,
    "city": "鹿児島市",
    "city_kana": "カゴシマシ",
    "town": "常盤",
    "town_kana": "トキワ",
    "street": null,
    "office_name": null,
    "office_name_kana": null
  },
  "0051": {
    "postcode": "8900051",
    "prefecture": "鹿児島県",
    "prefecture_kana": "カゴシマケン",
    "prefecture_code": 46,
    "city": "鹿児島市",
    "city_kana": "カゴシマシ",
    "town": "高麗町",
    "town_kana": "コウライチョウ",
    "street": null,
    "office_name": null,
    "office_name_kana": null
  },
  "0052": {
    "postcode": "8900052",
    "prefecture": "鹿児島県",
    "prefecture_kana": "カゴシマケン",
    "prefecture_code": 46,
    "city": "鹿児島市",
    "city_kana": "カゴシマシ",
    "town": "上之園町",
    "town_kana": "ウエノソノチョウ",
    "street": null,
    "office_name": null,
    "office_name_kana": null
  },
  "0053": {
    "postcode": "8900053",
    "prefecture": "鹿児島県",
    "prefecture_kana": "カゴシマケン",
    "prefecture_code": 46,
    "city": "鹿児島市",
    "city_kana": "カゴシマシ",
    "town": "中央町",
    "town_kana": "チュウオウチョウ",
    "street": null,
    "office_name": null,
    "office_name_kana": null
  },
  "0054": {
    "postcode": "8900054",
    "prefecture": "鹿児島県",
    "prefecture_kana": "カゴシマケン",
    "prefecture_code": 46,
    "city": "鹿児島市",
    "city_kana": "カゴシマシ",
    "town": "荒田",
    "town_kana": "アラタ",
    "street": null,
    "office_name": null,
    "office_name_kana": null
  },
  "0055": {
    "postcode": "8900055",
    "prefecture": "鹿児島県",
    "prefecture_kana": "カゴシマケン",
    "prefecture_code": 46,
    "city": "鹿児島市",
    "city_kana": "カゴシマシ",
    "town": "上荒田町",
    "town_kana": "ウエアラタチョウ",
    "street": null,
    "office_name": null,
    "office_name_kana": null
  },
  "0056": {
    "postcode": "8900056",
    "prefecture": "鹿児島県",
    "prefecture_kana": "カゴシマケン",
    "prefecture_code": 46,
    "city": "鹿児島市",
    "city_kana": "カゴシマシ",
    "town": "下荒田",
    "town_kana": "シモアラタ",
    "street": null,
    "office_name": null,
    "office_name_kana": null
  },
  "0061": {
    "postcode": "8900061",
    "prefecture": "鹿児島県",
    "prefecture_kana": "カゴシマケン",
    "prefecture_code": 46,
    "city": "鹿児島市",
    "city_kana": "カゴシマシ",
    "town": "天保山町",
    "town_kana": "テンポザンチョウ",
    "street": null,
    "office_name": null,
    "office_name_kana": null
  },
  "0062": {
    "postcode": "8900062",
    "prefecture": "鹿児島県",
    "prefecture_kana": "カゴシマケン",
    "prefecture_code": 46,
    "city": "鹿児島市",
    "city_kana": "カゴシマシ",
    "town": "与次郎",
    "town_kana": "ヨジロウ",
    "street": null,
    "office_name": null,
    "office_name_kana": null
  },
  "0063": {
    "postcode": "8900063",
    "prefecture": "鹿児島県",
    "prefecture_kana": "カゴシマケン",
    "prefecture_code": 46,
    "city": "鹿児島市",
    "city_kana": "カゴシマシ",
    "town": "鴨池",
    "town_kana": "カモイケ",
    "street": null,
    "office_name": null,
    "office_name_kana": null
  },
  "0064": {
    "postcode": "8900064",
    "prefecture": "鹿児島県",
    "prefecture_kana": "カゴシマケン",
    "prefecture_code": 46,
    "city": "鹿児島市",
    "city_kana": "カゴシマシ",
    "town": "鴨池新町",
    "town_kana": "カモイケシンマチ",
    "street": null,
    "office_name": null,
    "office_name_kana": null
  },
  "0065": {
    "postcode": "8900065",
    "prefecture": "鹿児島県",
    "prefecture_kana": "カゴシマケン",
    "prefecture_code": 46,
    "city": "鹿児島市",
    "city_kana": "カゴシマシ",
    "town": "郡元",
    "town_kana": "コオリモト",
    "street": null,
    "office_name": null,
    "office_name_kana": null
  },
  "0066": {
    "postcode": "8900066",
    "prefecture": "鹿児島県",
    "prefecture_kana": "カゴシマケン",
    "prefecture_code": 46,
    "city": "鹿児島市",
    "city_kana": "カゴシマシ",
    "town": "真砂町",
    "town_kana": "マサゴチョウ",
    "street": null,
    "office_name": null,
    "office_name_kana": null
  },
  "0067": {
    "postcode": "8900067",
    "prefecture": "鹿児島県",
    "prefecture_kana": "カゴシマケン",
    "prefecture_code": 46,
    "city": "鹿児島市",
    "city_kana": "カゴシマシ",
    "town": "真砂本町",
    "town_kana": "マサゴホンマチ",
    "street": null,
    "office_name": null,
    "office_name_kana": null
  },
  "0068": {
    "postcode": "8900068",
    "prefecture": "鹿児島県",
    "prefecture_kana": "カゴシマケン",
    "prefecture_code": 46,
    "city": "鹿児島市",
    "city_kana": "カゴシマシ",
    "town": "東郡元町",
    "town_kana": "ヒガシコオリモトチョウ",
    "street": null,
    "office_name": null,
    "office_name_kana": null
  },
  "0069": {
    "postcode": "8900069",
    "prefecture": "鹿児島県",
    "prefecture_kana": "カゴシマケン",
    "prefecture_code": 46,
    "city": "鹿児島市",
    "city_kana": "カゴシマシ",
    "town": "南郡元町",
    "town_kana": "ミナミコオリモトチョウ",
    "street": null,
    "office_name": null,
    "office_name_kana": null
  },
  "0071": {
    "postcode": "8900071",
    "prefecture": "鹿児島県",
    "prefecture_kana": "カゴシマケン",
    "prefecture_code": 46,
    "city": "鹿児島市",
    "city_kana": "カゴシマシ",
    "town": "三和町",
    "town_kana": "サンワチョウ",
    "street": null,
    "office_name": null,
    "office_name_kana": null
  },
  "0072": {
    "postcode": "8900072",
    "prefecture": "鹿児島県",
    "prefecture_kana": "カゴシマケン",
    "prefecture_code": 46,
    "city": "鹿児島市",
    "city_kana": "カゴシマシ",
    "town": "新栄町",
    "town_kana": "シンエイチョウ",
    "street": null,
    "office_name": null,
    "office_name_kana": null
  },
  "0073": {
    "postcode": "8900073",
    "prefecture": "鹿児島県",
    "prefecture_kana": "カゴシマケン",
    "prefecture_code": 46,
    "city": "鹿児島市",
    "city_kana": "カゴシマシ",
    "town": "宇宿",
    "town_kana": "ウスキ",
    "street": null,
    "office_name": null,
    "office_name_kana": null
  },
  "0074": {
    "postcode": "8900074",
    "prefecture": "鹿児島県",
    "prefecture_kana": "カゴシマケン",
    "prefecture_code": 46,
    "city": "鹿児島市",
    "city_kana": "カゴシマシ",
    "town": "宇宿町",
    "town_kana": "ウスキチョウ",
    "street": null,
    "office_name": null,
    "office_name_kana": null
  },
  "0075": {
    "postcode": "8900075",
    "prefecture": "鹿児島県",
    "prefecture_kana": "カゴシマケン",
    "prefecture_code": 46,
    "city": "鹿児島市",
    "city_kana": "カゴシマシ",
    "town": "桜ケ丘",
    "town_kana": "サクラガオカ",
    "street": null,
    "office_name": null,
    "office_name_kana": null
  },
  "0076": {
    "postcode": "8900076",
    "prefecture": "鹿児島県",
    "prefecture_kana": "カゴシマケン",
    "prefecture_code": 46,
    "city": "鹿児島市",
    "city_kana": "カゴシマシ",
    "town": "中央港新町",
    "town_kana": "チュウオウコウシンマチ",
    "street": null,
    "office_name": null,
    "office_name_kana": null
  },
  "0081": {
    "postcode": "8900081",
    "prefecture": "鹿児島県",
    "prefecture_kana": "カゴシマケン",
    "prefecture_code": 46,
    "city": "鹿児島市",
    "city_kana": "カゴシマシ",
    "town": "唐湊",
    "town_kana": "トソ",
    "street": null,
    "office_name": null,
    "office_name_kana": null
  },
  "0082": {
    "postcode": "8900082",
    "prefecture": "鹿児島県",
    "prefecture_kana": "カゴシマケン",
    "prefecture_code": 46,
    "city": "鹿児島市",
    "city_kana": "カゴシマシ",
    "town": "紫原",
    "town_kana": "ムラサキバル",
    "street": null,
    "office_name": null,
    "office_name_kana": null
  },
  "0083": {
    "postcode": "8900083",
    "prefecture": "鹿児島県",
    "prefecture_kana": "カゴシマケン",
    "prefecture_code": 46,
    "city": "鹿児島市",
    "city_kana": "カゴシマシ",
    "town": "西紫原町",
    "town_kana": "ニシムラサキバルチョウ",
    "street": null,
    "office_name": null,
    "office_name_kana": null
  },
  "0084": {
    "postcode": "8900084",
    "prefecture": "鹿児島県",
    "prefecture_kana": "カゴシマケン",
    "prefecture_code": 46,
    "city": "鹿児島市",
    "city_kana": "カゴシマシ",
    "town": "郡元町",
    "town_kana": "コオリモトチョウ",
    "street": null,
    "office_name": null,
    "office_name_kana": null
  },
  "0085": {
    "postcode": "8900085",
    "prefecture": "鹿児島県",
    "prefecture_kana": "カゴシマケン",
    "prefecture_code": 46,
    "city": "鹿児島市",
    "city_kana": "カゴシマシ",
    "town": "南新町",
    "town_kana": "ミナミシンマチ",
    "street": null,
    "office_name": null,
    "office_name_kana": null
  },
  "0086": {
    "postcode": "8900086",
    "prefecture": "鹿児島県",
    "prefecture_kana": "カゴシマケン",
    "prefecture_code": 46,
    "city": "鹿児島市",
    "city_kana": "カゴシマシ",
    "town": "日之出町",
    "town_kana": "ヒノデチョウ",
    "street": null,
    "office_name": null,
    "office_name_kana": null
  },
  "0901": {
    "postcode": "8900901",
    "prefecture": "鹿児島県",
    "prefecture_kana": "カゴシマケン",
    "prefecture_code": 46,
    "city": "鹿児島郡三島村",
    "city_kana": "カゴシマグンミシマムラ",
    "town": "硫黄島",
    "town_kana": "イオウジマ",
    "street": null,
    "office_name": null,
    "office_name_kana": null
  },
  "0902": {
    "postcode": "8900902",
    "prefecture": "鹿児島県",
    "prefecture_kana": "カゴシマケン",
    "prefecture_code": 46,
    "city": "鹿児島郡三島村",
    "city_kana": "カゴシマグンミシマムラ",
    "town": "黒島",
    "town_kana": "クロシマ",
    "street": null,
    "office_name": null,
    "office_name_kana": null
  },
  "0903": {
    "postcode": "8900903",
    "prefecture": "鹿児島県",
    "prefecture_kana": "カゴシマケン",
    "prefecture_code": 46,
    "city": "鹿児島郡三島村",
    "city_kana": "カゴシマグンミシマムラ",
    "town": "竹島",
    "town_kana": "タケシマ",
    "street": null,
    "office_name": null,
    "office_name_kana": null
  },
  "8501": {
    "postcode": "8908501",
    "prefecture": "鹿児島県",
    "prefecture_kana": "カゴシマケン",
    "prefecture_code": 46,
    "city": "鹿児島市",
    "city_kana": "カゴシマシ",
    "town": "中央町",
    "town_kana": "チュウオウチョウ",
    "street": "８−２",
    "office_name": "日本ガス　株式会社",
    "office_name_kana": "ニホンガス カブシキガイシヤ"
  },
  "8502": {
    "postcode": "8908502",
    "prefecture": "鹿児島県",
    "prefecture_kana": "カゴシマケン",
    "prefecture_code": 46,
    "city": "鹿児島市",
    "city_kana": "カゴシマシ",
    "town": "薬師",
    "town_kana": "ヤクシ",
    "street": "２丁目１−１",
    "office_name": "鹿児島県立　鶴丸高等学校",
    "office_name_kana": "カゴシマケンリツ ツルマルコウトウガツコウ"
  },
  "8503": {
    "postcode": "8908503",
    "prefecture": "鹿児島県",
    "prefecture_kana": "カゴシマケン",
    "prefecture_code": 46,
    "city": "鹿児島市",
    "city_kana": "カゴシマシ",
    "town": "鴨池",
    "town_kana": "カモイケ",
    "street": "２丁目２９−１",
    "office_name": "鹿児島銀行　業務集中部",
    "office_name_kana": "カゴシマギンコウ ギヨウムシユウチユウブ"
  },
  "8504": {
    "postcode": "8908504",
    "prefecture": "鹿児島県",
    "prefecture_kana": "カゴシマケン",
    "prefecture_code": 46,
    "city": "鹿児島市",
    "city_kana": "カゴシマシ",
    "town": "紫原",
    "town_kana": "ムラサキバル",
    "street": "１丁目５９−１",
    "office_name": "志學館大学",
    "office_name_kana": "シガクカンダイガク"
  },
  "8505": {
    "postcode": "8908505",
    "prefecture": "鹿児島県",
    "prefecture_kana": "カゴシマケン",
    "prefecture_code": 46,
    "city": "鹿児島市",
    "city_kana": "カゴシマシ",
    "town": "田上",
    "town_kana": "タガミ",
    "street": "６丁目８−２５",
    "office_name": "竹下清蔵商店　株式会社",
    "office_name_kana": "タケシタセイゾウシヨウテン カブシキガイシヤ"
  },
  "8506": {
    "postcode": "8908506",
    "prefecture": "鹿児島県",
    "prefecture_kana": "カゴシマケン",
    "prefecture_code": 46,
    "city": "鹿児島市",
    "city_kana": "カゴシマシ",
    "town": "桜ケ丘",
    "town_kana": "サクラガオカ",
    "street": "８丁目３５−１",
    "office_name": "鹿児島大学医療技術短期大学",
    "office_name_kana": "カゴシマダイガクイリヨウギジユツタンキダイガク"
  },
  "8507": {
    "postcode": "8908507",
    "prefecture": "鹿児島県",
    "prefecture_kana": "カゴシマケン",
    "prefecture_code": 46,
    "city": "鹿児島市",
    "city_kana": "カゴシマシ",
    "town": "与次郎",
    "town_kana": "ヨジロウ",
    "street": "２丁目４番３５号ＫＳＣ鴨池ビル２Ｆ",
    "office_name": "日本たばこ産業　株式会社　南九州支社",
    "office_name_kana": "ニホンタバコサンギヨウ カブシキガイシヤ ミナミキユウシユウシシヤ"
  },
  "8508": {
    "postcode": "8908508",
    "prefecture": "鹿児島県",
    "prefecture_kana": "カゴシマケン",
    "prefecture_code": 46,
    "city": "鹿児島市",
    "city_kana": "カゴシマシ",
    "town": "与次郎",
    "town_kana": "ヨジロウ",
    "street": "１丁目６番３３号",
    "office_name": "鹿児島綜合警備保障　株式会社",
    "office_name_kana": "カゴシマソウゴウケイビホシヨウ カブシキガイシヤ"
  },
  "8509": {
    "postcode": "8908509",
    "prefecture": "鹿児島県",
    "prefecture_kana": "カゴシマケン",
    "prefecture_code": 46,
    "city": "鹿児島市",
    "city_kana": "カゴシマシ",
    "town": "鴨池新町",
    "town_kana": "カモイケシンマチ",
    "street": "６番２号",
    "office_name": "ＮＴＴ西日本　加入権センタ鹿児島",
    "office_name_kana": "エヌテイテイニシニホン カニユウケンセンタカゴシマ"
  },
  "8510": {
    "postcode": "8908510",
    "prefecture": "鹿児島県",
    "prefecture_kana": "カゴシマケン",
    "prefecture_code": 46,
    "city": "鹿児島市",
    "city_kana": "カゴシマシ",
    "town": "東郡元町",
    "town_kana": "ヒガシコオリモトチョウ",
    "street": "４−１",
    "office_name": "第十管区海上保安本部",
    "office_name_kana": "ダイジユウカンクカイジヨウホアンホンブ"
  },
  "8511": {
    "postcode": "8908511",
    "prefecture": "鹿児島県",
    "prefecture_kana": "カゴシマケン",
    "prefecture_code": 46,
    "city": "鹿児島市",
    "city_kana": "カゴシマシ",
    "town": "下伊敷",
    "town_kana": "シモイシキ",
    "street": "３丁目１−７",
    "office_name": "鹿児島県民総合保健センター",
    "office_name_kana": "カゴシマケンミンソウゴウホケンセンタ-"
  },
  "8512": {
    "postcode": "8908512",
    "prefecture": "鹿児島県",
    "prefecture_kana": "カゴシマケン",
    "prefecture_code": 46,
    "city": "鹿児島市",
    "city_kana": "カゴシマシ",
    "town": "鴨池新町",
    "town_kana": "カモイケシンマチ",
    "street": "６−１０",
    "office_name": "株式会社　鹿児島県建設センター",
    "office_name_kana": "カブシキガイシヤ カゴシマケンケンセツセンタ-"
  },
  "8515": {
    "postcode": "8908515",
    "prefecture": "鹿児島県",
    "prefecture_kana": "カゴシマケン",
    "prefecture_code": 46,
    "city": "鹿児島市",
    "city_kana": "カゴシマシ",
    "town": "鴨池新町",
    "town_kana": "カモイケシンマチ",
    "street": "１５",
    "office_name": "ＪＡ鹿児島県中央会・信連・経済連・共済連・鹿児島県農業協同組合中央会",
    "office_name_kana": "ジエイエイカゴシマケンチユウオウカイ.シンレン.ケイザイレン.キヨウサイレン.カゴシマケンノウギヨウキヨウドウクミアイチユウオウカイ"
  },
  "8517": {
    "postcode": "8908517",
    "prefecture": "鹿児島県",
    "prefecture_kana": "カゴシマケン",
    "prefecture_code": 46,
    "city": "鹿児島市",
    "city_kana": "カゴシマシ",
    "town": "鴨池新町",
    "town_kana": "カモイケシンマチ",
    "street": "１−７",
    "office_name": "鹿児島県　社会福祉協議会",
    "office_name_kana": "カゴシマケン シヤカイフクシキヨウギカイ"
  },
  "8520": {
    "postcode": "8908520",
    "prefecture": "鹿児島県",
    "prefecture_kana": "カゴシマケン",
    "prefecture_code": 46,
    "city": "鹿児島市",
    "city_kana": "カゴシマシ",
    "town": "桜ケ丘",
    "town_kana": "サクラガオカ",
    "street": "８丁目３５−１",
    "office_name": "鹿児島大学医学部医学部附属病院",
    "office_name_kana": "カゴシマダイガクイガクブ イガクブフゾクビヨウイン"
  },
  "8521": {
    "postcode": "8908521",
    "prefecture": "鹿児島県",
    "prefecture_kana": "カゴシマケン",
    "prefecture_code": 46,
    "city": "鹿児島市",
    "city_kana": "カゴシマシ",
    "town": "中央町",
    "town_kana": "チュウオウチョウ",
    "street": "１１−５（鹿児島中央郵便局私書箱第１０号）",
    "office_name": "日本生命保険　相互会社　鹿児島支社",
    "office_name_kana": "ニホンセイメイホケン ソウゴガイシヤ カゴシマシシヤ"
  },
  "8522": {
    "postcode": "8908522",
    "prefecture": "鹿児島県",
    "prefecture_kana": "カゴシマケン",
    "prefecture_code": 46,
    "city": "鹿児島市",
    "city_kana": "カゴシマシ",
    "town": "唐湊",
    "town_kana": "トソ",
    "street": "４丁目２２−２",
    "office_name": "鹿児島純心女子中学校・高等学校",
    "office_name_kana": "カゴシマジユンシンジヨシチユウガツコウ・コウトウガツコウ"
  },
  "8523": {
    "postcode": "8908523",
    "prefecture": "鹿児島県",
    "prefecture_kana": "カゴシマケン",
    "prefecture_code": 46,
    "city": "鹿児島市",
    "city_kana": "カゴシマシ",
    "town": "草牟田",
    "town_kana": "ソウムタ",
    "street": "２丁目４５−３５",
    "office_name": "日進包装　株式会社",
    "office_name_kana": "ニツシンホウソウ カブシキガイシヤ"
  },
  "8524": {
    "postcode": "8908524",
    "prefecture": "鹿児島県",
    "prefecture_kana": "カゴシマケン",
    "prefecture_code": 46,
    "city": "鹿児島市",
    "city_kana": "カゴシマシ",
    "town": "下伊敷",
    "town_kana": "シモイシキ",
    "street": "１丁目１０−３",
    "office_name": "鹿児島県立鹿児島西高等学校",
    "office_name_kana": "カゴシマケンリツカゴシマニシコウトウガツコウ"
  },
  "8525": {
    "postcode": "8908525",
    "prefecture": "鹿児島県",
    "prefecture_kana": "カゴシマケン",
    "prefecture_code": 46,
    "city": "鹿児島市",
    "city_kana": "カゴシマシ",
    "town": "唐湊",
    "town_kana": "トソ",
    "street": "４丁目２２−１",
    "office_name": "鹿児島純心女子短期大学",
    "office_name_kana": "カゴシマジユンシンジヨシタンキダイガク"
  },
  "8527": {
    "postcode": "8908527",
    "prefecture": "鹿児島県",
    "prefecture_kana": "カゴシマケン",
    "prefecture_code": 46,
    "city": "鹿児島市",
    "city_kana": "カゴシマシ",
    "town": "与次郎",
    "town_kana": "ヨジロウ",
    "street": "２丁目８番８号マリンパレスかごしま",
    "office_name": "鹿児島県市町村職員共済組合",
    "office_name_kana": "カゴシマケンシチヨウソンシヨクインキヨウサイクミアイ"
  },
  "8530": {
    "postcode": "8908530",
    "prefecture": "鹿児島県",
    "prefecture_kana": "カゴシマケン",
    "prefecture_code": 46,
    "city": "鹿児島市",
    "city_kana": "カゴシマシ",
    "town": "上荒田町",
    "town_kana": "ウエアラタチョウ",
    "street": "２９−２２",
    "office_name": "株式会社　渕紙",
    "office_name_kana": "カブシキガイシヤ フチカミ"
  },
  "8531": {
    "postcode": "8908531",
    "prefecture": "鹿児島県",
    "prefecture_kana": "カゴシマケン",
    "prefecture_code": 46,
    "city": "鹿児島市",
    "city_kana": "カゴシマシ",
    "town": "西別府町",
    "town_kana": "ニシベップチョウ",
    "street": "３２００−７",
    "office_name": "セイカ食品　株式会社",
    "office_name_kana": "セイカシヨクヒン カブシキガイシヤ"
  },
  "8532": {
    "postcode": "8908532",
    "prefecture": "鹿児島県",
    "prefecture_kana": "カゴシマケン",
    "prefecture_code": 46,
    "city": "鹿児島市",
    "city_kana": "カゴシマシ",
    "town": "桜ケ丘",
    "town_kana": "サクラガオカ",
    "street": "８丁目３５−１",
    "office_name": "鹿児島大学附属図書館　桜ヶ丘分館",
    "office_name_kana": "カゴシマダイガクフゾクトシヨカン サクラガオカブンカン"
  },
  "8533": {
    "postcode": "8908533",
    "prefecture": "鹿児島県",
    "prefecture_kana": "カゴシマケン",
    "prefecture_code": 46,
    "city": "鹿児島市",
    "city_kana": "カゴシマシ",
    "town": "鴨池新町",
    "town_kana": "カモイケシンマチ",
    "street": "５番２５号",
    "office_name": "日本年金機構　鹿児島南年金事務所",
    "office_name_kana": "ニツポンネンキンキコウ カゴシマミナミネンキンジムシヨ"
  },
  "8535": {
    "postcode": "8908535",
    "prefecture": "鹿児島県",
    "prefecture_kana": "カゴシマケン",
    "prefecture_code": 46,
    "city": "鹿児島市",
    "city_kana": "カゴシマシ",
    "town": "西別府町",
    "town_kana": "ニシベップチョウ",
    "street": "３２００−６",
    "office_name": "株式会社　加根又本店住器建材鹿児島支店",
    "office_name_kana": "カブシキガイシヤ カネマタホンテンジユウキケンザイ カゴシマシテン"
  },
  "8540": {
    "postcode": "8908540",
    "prefecture": "鹿児島県",
    "prefecture_kana": "カゴシマケン",
    "prefecture_code": 46,
    "city": "鹿児島市",
    "city_kana": "カゴシマシ",
    "town": "鴨池新町",
    "town_kana": "カモイケシンマチ",
    "street": "１１−１",
    "office_name": "鹿児島県　信用漁業協同組合連合会",
    "office_name_kana": "カゴシマケン シンヨウギヨギヨウキヨウドウクミアイレンゴウカイ"
  },
  "8541": {
    "postcode": "8908541",
    "prefecture": "鹿児島県",
    "prefecture_kana": "カゴシマケン",
    "prefecture_code": 46,
    "city": "鹿児島市",
    "city_kana": "カゴシマシ",
    "town": "東郡元町",
    "town_kana": "ヒガシコオリモトチョウ",
    "street": "４番１号鹿児島第２地方合同庁舎内",
    "office_name": "自衛隊　鹿児島地方協力本部",
    "office_name_kana": "ジエイタイ カゴシマチホウキヨウリヨクホンブ"
  },
  "8543": {
    "postcode": "8908543",
    "prefecture": "鹿児島県",
    "prefecture_kana": "カゴシマケン",
    "prefecture_code": 46,
    "city": "鹿児島市",
    "city_kana": "カゴシマシ",
    "town": "鴨池",
    "town_kana": "カモイケ",
    "street": "２丁目２５−１−１１",
    "office_name": "鹿児島市中央保健所",
    "office_name_kana": "カゴシマシチユウオウホケンジヨ"
  },
  "8544": {
    "postcode": "8908544",
    "prefecture": "鹿児島県",
    "prefecture_kana": "カゴシマケン",
    "prefecture_code": 46,
    "city": "鹿児島市",
    "city_kana": "カゴシマシ",
    "town": "桜ケ丘",
    "town_kana": "サクラガオカ",
    "street": "８丁目３５−１",
    "office_name": "鹿児島大学　歯学部",
    "office_name_kana": "カゴシマダイガク シガクブ"
  },
  "8545": {
    "postcode": "8908545",
    "prefecture": "鹿児島県",
    "prefecture_kana": "カゴシマケン",
    "prefecture_code": 46,
    "city": "鹿児島市",
    "city_kana": "カゴシマシ",
    "town": "薬師",
    "town_kana": "ヤクシ",
    "street": "１丁目６番３号",
    "office_name": "鹿児島労働基準監督署",
    "office_name_kana": "カゴシマロウドウキジユンカントクシヨ"
  },
  "8550": {
    "postcode": "8908550",
    "prefecture": "鹿児島県",
    "prefecture_kana": "カゴシマケン",
    "prefecture_code": 46,
    "city": "鹿児島市",
    "city_kana": "カゴシマシ",
    "town": "与次郎",
    "town_kana": "ヨジロウ",
    "street": "１丁目９−１７",
    "office_name": "株式会社　迫田",
    "office_name_kana": "カブシキガイシヤ サコダ"
  },
  "8552": {
    "postcode": "8908552",
    "prefecture": "鹿児島県",
    "prefecture_kana": "カゴシマケン",
    "prefecture_code": 46,
    "city": "鹿児島市",
    "city_kana": "カゴシマシ",
    "town": "宇宿",
    "town_kana": "ウスキ",
    "street": "１丁目５２−１２",
    "office_name": "鹿児島県　社会保険診療報酬支払基金",
    "office_name_kana": "カゴシマケン シヤカイホケンシンリヨウホウシユウシハライキキン"
  },
  "8555": {
    "postcode": "8908555",
    "prefecture": "鹿児島県",
    "prefecture_kana": "カゴシマケン",
    "prefecture_code": 46,
    "city": "鹿児島市",
    "city_kana": "カゴシマシ",
    "town": "下荒田",
    "town_kana": "シモアラタ",
    "street": "１丁目４３−２８",
    "office_name": "鹿児島公共職業安定所",
    "office_name_kana": "カゴシマコウキヨウシヨクギヨウアンテイシヨ"
  },
  "8558": {
    "postcode": "8908558",
    "prefecture": "鹿児島県",
    "prefecture_kana": "カゴシマケン",
    "prefecture_code": 46,
    "city": "鹿児島市",
    "city_kana": "カゴシマシ",
    "town": "与次郎",
    "town_kana": "ヨジロウ",
    "street": "２丁目６−１６",
    "office_name": "九州電力　株式会社　鹿児島支店",
    "office_name_kana": "キユウシユウデンリヨク カブシキガイシヤ カゴシマシテン"
  },
  "8560": {
    "postcode": "8908560",
    "prefecture": "鹿児島県",
    "prefecture_kana": "カゴシマケン",
    "prefecture_code": 46,
    "city": "鹿児島市",
    "city_kana": "カゴシマシ",
    "town": "新栄町",
    "town_kana": "シンエイチョウ",
    "street": "２０−２１",
    "office_name": "株式会社　アリマコーポレーション",
    "office_name_kana": "カブシキガイシヤ アリマコ-ポレ-シヨン"
  },
  "8565": {
    "postcode": "8908565",
    "prefecture": "鹿児島県",
    "prefecture_kana": "カゴシマケン",
    "prefecture_code": 46,
    "city": "鹿児島市",
    "city_kana": "カゴシマシ",
    "town": "高麗町",
    "town_kana": "コウライチョウ",
    "street": "６番９号",
    "office_name": "鹿児島女子短期大学",
    "office_name_kana": "カゴシマジヨシタンキダイガク"
  },
  "8566": {
    "postcode": "8908566",
    "prefecture": "鹿児島県",
    "prefecture_kana": "カゴシマケン",
    "prefecture_code": 46,
    "city": "鹿児島市",
    "city_kana": "カゴシマシ",
    "town": "鴨池新町",
    "town_kana": "カモイケシンマチ",
    "street": "１０−１",
    "office_name": "鹿児島県　警察本部",
    "office_name_kana": "カゴシマケン ケイサツホンブ"
  },
  "8567": {
    "postcode": "8908567",
    "prefecture": "鹿児島県",
    "prefecture_kana": "カゴシマケン",
    "prefecture_code": 46,
    "city": "鹿児島市",
    "city_kana": "カゴシマシ",
    "town": "鴨池新町",
    "town_kana": "カモイケシンマチ",
    "street": "６−６",
    "office_name": "南国殖産株式会社　鴨池事業所",
    "office_name_kana": "ナンゴクシヨクサンカブシキガイシヤ カモイケジギヨウシヨ"
  },
  "8570": {
    "postcode": "8908570",
    "prefecture": "鹿児島県",
    "prefecture_kana": "カゴシマケン",
    "prefecture_code": 46,
    "city": "鹿児島市",
    "city_kana": "カゴシマシ",
    "town": "高麗町",
    "town_kana": "コウライチョウ",
    "street": "５−２５",
    "office_name": "株式会社　南日本放送",
    "office_name_kana": "カブシキガイシヤ ミナミニホンホウソウ"
  },
  "8571": {
    "postcode": "8908571",
    "prefecture": "鹿児島県",
    "prefecture_kana": "カゴシマケン",
    "prefecture_code": 46,
    "city": "鹿児島市",
    "city_kana": "カゴシマシ",
    "town": "与次郎",
    "town_kana": "ヨジロウ",
    "street": "２丁目５−１２",
    "office_name": "株式会社　鹿児島放送",
    "office_name_kana": "カブシキガイシヤ カゴシマホウソウ"
  },
  "8574": {
    "postcode": "8908574",
    "prefecture": "鹿児島県",
    "prefecture_kana": "カゴシマケン",
    "prefecture_code": 46,
    "city": "鹿児島市",
    "city_kana": "カゴシマシ",
    "town": "与次郎",
    "town_kana": "ヨジロウ",
    "street": "１丁目９−３４",
    "office_name": "株式会社　鹿児島讀賣テレビ",
    "office_name_kana": "カブシキガイシヤ カゴシマヨミウリテレビ"
  },
  "8575": {
    "postcode": "8908575",
    "prefecture": "鹿児島県",
    "prefecture_kana": "カゴシマケン",
    "prefecture_code": 46,
    "city": "鹿児島市",
    "city_kana": "カゴシマシ",
    "town": "新栄町",
    "town_kana": "シンエイチョウ",
    "street": "２−４",
    "office_name": "かごしま電工　株式会社",
    "office_name_kana": "カゴシマデンコウ カブシキガイシヤ"
  },
  "8577": {
    "postcode": "8908577",
    "prefecture": "鹿児島県",
    "prefecture_kana": "カゴシマケン",
    "prefecture_code": 46,
    "city": "鹿児島市",
    "city_kana": "カゴシマシ",
    "town": "鴨池新町",
    "town_kana": "カモイケシンマチ",
    "street": "１０−１",
    "office_name": "鹿児島県庁",
    "office_name_kana": "カゴシマケンチヨウ"
  },
  "8578": {
    "postcode": "8908578",
    "prefecture": "鹿児島県",
    "prefecture_kana": "カゴシマケン",
    "prefecture_code": 46,
    "city": "鹿児島市",
    "city_kana": "カゴシマシ",
    "town": "与次郎",
    "town_kana": "ヨジロウ",
    "street": "１丁目２−３",
    "office_name": "協立商事株式会社　（贈りもののデパート協立）",
    "office_name_kana": "キヨウリツシヨウジカブシキガイシヤ (オクリモノノデパ-トキヨウリツ)"
  },
  "8580": {
    "postcode": "8908580",
    "prefecture": "鹿児島県",
    "prefecture_kana": "カゴシマケン",
    "prefecture_code": 46,
    "city": "鹿児島市",
    "city_kana": "カゴシマシ",
    "town": "郡元",
    "town_kana": "コオリモト",
    "street": "１丁目２１−２４",
    "office_name": "鹿児島大学　本部",
    "office_name_kana": "カゴシマダイガク ホンブ"
  },
  "8581": {
    "postcode": "8908581",
    "prefecture": "鹿児島県",
    "prefecture_kana": "カゴシマケン",
    "prefecture_code": 46,
    "city": "鹿児島市",
    "city_kana": "カゴシマシ",
    "town": "与次郎",
    "town_kana": "ヨジロウ",
    "street": "１丁目８−１０",
    "office_name": "鹿児島国際観光株式会社　鹿児島サンロイヤルホテル",
    "office_name_kana": "カゴシマコクサイカンコウカブシキガイシヤ カゴシマサンロイヤルホテル"
  },
  "8585": {
    "postcode": "8908585",
    "prefecture": "鹿児島県",
    "prefecture_kana": "カゴシマケン",
    "prefecture_code": 46,
    "city": "鹿児島市",
    "city_kana": "カゴシマシ",
    "town": "鴨池新町",
    "town_kana": "カモイケシンマチ",
    "street": "１−１０",
    "office_name": "鹿児島市水道局",
    "office_name_kana": "カゴシマシスイドウキヨク"
  },
  "8586": {
    "postcode": "8908586",
    "prefecture": "鹿児島県",
    "prefecture_kana": "カゴシマケン",
    "prefecture_code": 46,
    "city": "鹿児島市",
    "city_kana": "カゴシマシ",
    "town": "新照院町",
    "town_kana": "シンショウインチョウ",
    "street": "４１−１",
    "office_name": "城山観光　株式会社",
    "office_name_kana": "シロヤマカンコウ カブシキガイシヤ"
  },
  "8588": {
    "postcode": "8908588",
    "prefecture": "鹿児島県",
    "prefecture_kana": "カゴシマケン",
    "prefecture_code": 46,
    "city": "鹿児島市",
    "city_kana": "カゴシマシ",
    "town": "与次郎",
    "town_kana": "ヨジロウ",
    "street": "１丁目６−１４",
    "office_name": "長島商事　株式会社",
    "office_name_kana": "ナガシマシヨウジ カブシキガイシヤ"
  },
  "8589": {
    "postcode": "8908589",
    "prefecture": "鹿児島県",
    "prefecture_kana": "カゴシマケン",
    "prefecture_code": 46,
    "city": "鹿児島市",
    "city_kana": "カゴシマシ",
    "town": "与次郎",
    "town_kana": "ヨジロウ",
    "street": "２丁目８−１５",
    "office_name": "社団法人　鹿児島県薬剤師会",
    "office_name_kana": "シヤダンホウジン カゴシマケンヤクザイシカイ"
  },
  "8601": {
    "postcode": "8908601",
    "prefecture": "鹿児島県",
    "prefecture_kana": "カゴシマケン",
    "prefecture_code": 46,
    "city": "鹿児島市",
    "city_kana": "カゴシマシ",
    "town": "新栄町",
    "town_kana": "シンエイチョウ",
    "street": "２１−１１（鹿児島中央郵便局私書箱第７号）",
    "office_name": "株式会社　ナカムラ",
    "office_name_kana": "カブシキガイシヤ ナカムラ"
  },
  "8603": {
    "postcode": "8908603",
    "prefecture": "鹿児島県",
    "prefecture_kana": "カゴシマケン",
    "prefecture_code": 46,
    "city": "鹿児島市",
    "city_kana": "カゴシマシ",
    "town": "与次郎",
    "town_kana": "ヨジロウ",
    "street": "１丁目９番３３号（鹿児島中央郵便局私書箱第８０号）",
    "office_name": "株式会社　南日本新聞社",
    "office_name_kana": "カブシキガイシヤ ミナミニホンシンブンシヤ"
  },
  "8604": {
    "postcode": "8908604",
    "prefecture": "鹿児島県",
    "prefecture_kana": "カゴシマケン",
    "prefecture_code": 46,
    "city": "鹿児島市",
    "city_kana": "カゴシマシ",
    "town": "荒田",
    "town_kana": "アラタ",
    "street": "１丁目２４番４号",
    "office_name": "熊本国税局業務センター　鹿児島事務室",
    "office_name_kana": "クマモトコクゼイキヨクギヨウムセンタ- カゴシマジムシツ"
  },
  "8610": {
    "postcode": "8908610",
    "prefecture": "鹿児島県",
    "prefecture_kana": "カゴシマケン",
    "prefecture_code": 46,
    "city": "鹿児島市",
    "city_kana": "カゴシマシ",
    "town": "呉服町",
    "town_kana": "ゴフクマチ",
    "street": "６番５号（鹿児島中央郵便局私書箱第１１号）",
    "office_name": "株式会社　三越　鹿児島店",
    "office_name_kana": "カブシキガイシヤ ミツコシ カゴシマテン"
  },
  "8666": {
    "postcode": "8908666",
    "prefecture": "鹿児島県",
    "prefecture_kana": "カゴシマケン",
    "prefecture_code": 46,
    "city": "鹿児島市",
    "city_kana": "カゴシマシ",
    "town": "紫原",
    "town_kana": "ムラサキバル",
    "street": "６丁目１５−８（鹿児島中央郵便局私書箱第３９号）",
    "office_name": "鹿児島テレビ放送　株式会社",
    "office_name_kana": "カゴシマテレビホウソウ カブシキガイシヤ"
  },
  "8686": {
    "postcode": "8908686",
    "prefecture": "鹿児島県",
    "prefecture_kana": "カゴシマケン",
    "prefecture_code": 46,
    "city": "鹿児島市",
    "city_kana": "カゴシマシ",
    "town": "下伊敷",
    "town_kana": "シモイシキ",
    "street": "１丁目５２番２７号",
    "office_name": "鹿児島県立鹿児島聾学校",
    "office_name_kana": "カゴシマケンリツカゴシマロウガツコウ"
  },
  "8760": {
    "postcode": "8908760",
    "prefecture": "鹿児島県",
    "prefecture_kana": "カゴシマケン",
    "prefecture_code": 46,
    "city": "鹿児島市",
    "city_kana": "カゴシマシ",
    "town": "上荒田町",
    "town_kana": "ウエアラタチョウ",
    "street": "３７番１号",
    "office_name": "鹿児島市立病院",
    "office_name_kana": "カゴシマシリツビヨウイン"
  },
  "8794": {
    "postcode": "8908794",
    "prefecture": "鹿児島県",
    "prefecture_kana": "カゴシマケン",
    "prefecture_code": 46,
    "city": "鹿児島市",
    "city_kana": "カゴシマシ",
    "town": "中央町",
    "town_kana": "チュウオウチョウ",
    "street": "１−２（鹿児島中央郵便局私書箱第４５号）",
    "office_name": "鹿児島事務所",
    "office_name_kana": "カゴシマジムシヨ"
  },
  "8798": {
    "postcode": "8908798",
    "prefecture": "鹿児島県",
    "prefecture_kana": "カゴシマケン",
    "prefecture_code": 46,
    "city": "鹿児島市",
    "city_kana": "カゴシマシ",
    "town": "下伊敷",
    "town_kana": "シモイシキ",
    "street": "１丁目１２−１",
    "office_name": "鹿児島逓信病院",
    "office_name_kana": "カゴシマテイシンビヨウイン"
  }
}