{
  "0101": {
    "postcode": "8910101",
    "prefecture": "鹿児島県",
    "prefecture_kana": "カゴシマケン",
    "prefecture_code": 46,
    "city": "鹿児島市",
    "city_kana": "カゴシマシ",
    "town": "五ケ別府町",
    "town_kana": "ゴカベップチョウ",
    "street": null,
    "office_name": null,
    "office_name_kana": null
  },
  "0102": {
    "postcode": "8910102",
    "prefecture": "鹿児島県",
    "prefecture_kana": "カゴシマケン",
    "prefecture_code": 46,
    "city": "鹿児島市",
    "city_kana": "カゴシマシ",
    "town": "星ケ峯",
    "town_kana": "ホシガミネ",
    "street": null,
    "office_name": null,
    "office_name_kana": null
  },
  "0103": {
    "postcode": "8910103",
    "prefecture": "鹿児島県",
    "prefecture_kana": "カゴシマケン",
    "prefecture_code": 46,
    "city": "鹿児島市",
    "city_kana": "カゴシマシ",
    "town": "皇徳寺台",
    "town_kana": "コウトクジダイ",
    "street": null,
    "office_name": null,
    "office_name_kana": null
  },
  "0104": {
    "postcode": "8910104",
    "prefecture": "鹿児島県",
    "prefecture_kana": "カゴシマケン",
    "prefecture_code": 46,
    "city": "鹿児島市",
    "city_kana": "カゴシマシ",
    "town": "山田町",
    "town_kana": "ヤマダチョウ",
    "street": null,
    "office_name": null,
    "office_name_kana": null
  },
  "0105": {
    "postcode": "8910105",
    "prefecture": "鹿児島県",
    "prefecture_kana": "カゴシマケン",
    "prefecture_code": 46,
    "city": "鹿児島市",
    "city_kana": "カゴシマシ",
    "town": "中山町",
    "town_kana": "チュウザンチョウ",
    "street": null,
    "office_name": null,
    "office_name_kana": null
  },
  "0106": {
    "postcode": "8910106",
    "prefecture": "鹿児島県",
    "prefecture_kana": "カゴシマケン",
    "prefecture_code": 46,
    "city": "鹿児島市",
    "city_kana": "カゴシマシ",
    "town": "自由ケ丘",
    "town_kana": "ジユウガオカ",
    "street": null,
    "office_name": null,
    "office_name_kana": null
  },
  "0107": {
    "postcode": "8910107",
    "prefecture": "鹿児島県",
    "prefecture_kana": "カゴシマケン",
    "prefecture_code": 46,
    "city": "鹿児島市",
    "city_kana": "カゴシマシ",
    "town": "希望ケ丘町",
    "town_kana": "キボウガオカチョウ",
    "street": null,
    "office_name": null,
    "office_name_kana": null
  },
  "0108": {
    "postcode": "8910108",
    "prefecture": "鹿児島県",
    "prefecture_kana": "カゴシマケン",
    "prefecture_code": 46,
    "city": "鹿児島市",
    "city_kana": "カゴシマシ",
    "town": "中山",
    "town_kana": "チュウザン",
    "street": null,
    "office_name": null,
    "office_name_kana": null
  },
  "0109": {
    "postcode": "8910109",
    "prefecture": "鹿児島県",
    "prefecture_kana": "カゴシマケン",
    "prefecture_code": 46,
    "city": "鹿児島市",
    "city_kana": "カゴシマシ",
    "town": "清和",
    "town_kana": "セイワ",
    "street": null,
    "office_name": null,
    "office_name_kana": null
  },
  "0111": {
    "postcode": "8910111",
    "prefecture": "鹿児島県",
    "prefecture_kana": "カゴシマケン",
    "prefecture_code": 46,
    "city": "鹿児島市",
    "city_kana": "カゴシマシ",
    "town": "小原町",
    "town_kana": "オバラチョウ",
    "street": null,
    "office_name": null,
    "office_name_kana": null
  },
  "0112": {
    "postcode": "8910112",
    "prefecture": "鹿児島県",
    "prefecture_kana": "カゴシマケン",
    "prefecture_code": 46,
    "city": "鹿児島市",
    "city_kana": "カゴシマシ",
    "town": "魚見町",
    "town_kana": "ウオミチョウ",
    "street": null,
    "office_name": null,
    "office_name_kana": null
  },
  "0113": {
    "postcode": "8910113",
    "prefecture": "鹿児島県",
    "prefecture_kana": "カゴシマケン",
    "prefecture_code": 46,
    "city": "鹿児島市",
    "city_kana": "カゴシマシ",
    "town": "東谷山",
    "town_kana": "ヒガシタニヤマ",
    "street": null,
    "office_name": null,
    "office_name_kana": null
  },
  "0114": {
    "postcode": "8910114",
    "prefecture": "鹿児島県",
    "prefecture_kana": "カゴシマケン",
    "prefecture_code": 46,
    "city": "鹿児島市",
    "city_kana": "カゴシマシ",
    "town": "小松原",
    "town_kana": "コマツバラ",
    "street": null,
    "office_name": null,
    "office_name_kana": null
  },
  "0115": {
    "postcode": "8910115",
    "prefecture": "鹿児島県",
    "prefecture_kana": "カゴシマケン",
    "prefecture_code": 46,
    "city": "鹿児島市",
    "city_kana": "カゴシマシ",
    "town": "東開町",
    "town_kana": "トウカイチョウ",
    "street": null,
    "office_name": null,
    "office_name_kana": null
  },
  "0116": {
    "postcode": "8910116",
    "prefecture": "鹿児島県",
    "prefecture_kana": "カゴシマケン",
    "prefecture_code": 46,
    "city": "鹿児島市",
    "city_kana": "カゴシマシ",
    "town": "上福元町",
    "town_kana": "カミフクモトチョウ",
    "street": null,
    "office_name": null,
    "office_name_kana": null
  },
  "0117": {
    "postcode": "8910117",
    "prefecture": "鹿児島県",
    "prefecture_kana": "カゴシマケン",
    "prefecture_code": 46,
    "city": "鹿児島市",
    "city_kana": "カゴシマシ",
    "town": "西谷山",
    "town_kana": "ニシタニヤマ",
    "street": null,
    "office_name": null,
    "office_name_kana": null
  },
  "0122": {
    "postcode": "8910122",
    "prefecture": "鹿児島県",
    "prefecture_kana": "カゴシマケン",
    "prefecture_code": 46,
    "city": "鹿児島市",
    "city_kana": "カゴシマシ",
    "town": "南栄",
    "town_kana": "ナンエイ",
    "street": null,
    "office_name": null,
    "office_name_kana": null
  },
  "0123": {
    "postcode": "8910123",
    "prefecture": "鹿児島県",
    "prefecture_kana": "カゴシマケン",
    "prefecture_code": 46,
    "city": "鹿児島市",
    "city_kana": "カゴシマシ",
    "town": "卸本町",
    "town_kana": "オロシホンマチ",
    "street": null,
    "office_name": null,
    "office_name_kana": null
  },
  "0131": {
    "postcode": "8910131",
    "prefecture": "鹿児島県",
    "prefecture_kana": "カゴシマケン",
    "prefecture_code": 46,
    "city": "鹿児島市",
    "city_kana": "カゴシマシ",
    "town": "谷山港",
    "town_kana": "タニヤマコウ",
    "street": null,
    "office_name": null,
    "office_name_kana": null
  },
  "0132": {
    "postcode": "8910132",
    "prefecture": "鹿児島県",
    "prefecture_kana": "カゴシマケン",
    "prefecture_code": 46,
    "city": "鹿児島市",
    "city_kana": "カゴシマシ",
    "town": "七ツ島",
    "town_kana": "ナナツジマ",
    "street": null,
    "office_name": null,
    "office_name_kana": null
  },
  "0133": {
    "postcode": "8910133",
    "prefecture": "鹿児島県",
    "prefecture_kana": "カゴシマケン",
    "prefecture_code": 46,
    "city": "鹿児島市",
    "city_kana": "カゴシマシ",
    "town": "平川町",
    "town_kana": "ヒラカワチョウ",
    "street": null,
    "office_name": null,
    "office_name_kana": null
  },
  "0141": {
    "postcode": "8910141",
    "prefecture": "鹿児島県",
    "prefecture_kana": "カゴシマケン",
    "prefecture_code": 46,
    "city": "鹿児島市",
    "city_kana": "カゴシマシ",
    "town": "谷山中央",
    "town_kana": "タニヤマチュウオウ",
    "street": null,
    "office_name": null,
    "office_name_kana": null
  },
  "0143": {
    "postcode": "8910143",
    "prefecture": "鹿児島県",
    "prefecture_kana": "カゴシマケン",
    "prefecture_code": 46,
    "city": "鹿児島市",
    "city_kana": "カゴシマシ",
    "town": "和田",
    "town_kana": "ワダ",
    "street": null,
    "office_name": null,
    "office_name_kana": null
  },
  "0144": {
    "postcode": "8910144",
    "prefecture": "鹿児島県",
    "prefecture_kana": "カゴシマケン",
    "prefecture_code": 46,
    "city": "鹿児島市",
    "city_kana": "カゴシマシ",
    "town": "下福元町",
    "town_kana": "シモフクモトチョウ",
    "street": null,
    "office_name": null,
    "office_name_kana": null
  },
  "0145": {
    "postcode": "8910145",
    "prefecture": "鹿児島県",
    "prefecture_kana": "カゴシマケン",
    "prefecture_code": 46,
    "city": "鹿児島市",
    "city_kana": "カゴシマシ",
    "town": "錦江台",
    "town_kana": "キンコウダイ",
    "street": null,
    "office_name": null,
    "office_name_kana": null
  },
  "0146": {
    "postcode": "8910146",
    "prefecture": "鹿児島県",
    "prefecture_kana": "カゴシマケン",
    "prefecture_code": 46,
    "city": "鹿児島市",
    "city_kana": "カゴシマシ",
    "town": "慈眼寺町",
    "town_kana": "ジゲンジチョウ",
    "street": null,
    "office_name": null,
    "office_name_kana": null
  },
  "0150": {
    "postcode": "8910150",
    "prefecture": "鹿児島県",
    "prefecture_kana": "カゴシマケン",
    "prefecture_code": 46,
    "city": "鹿児島市",
    "city_kana": "カゴシマシ",
    "town": "坂之上",
    "town_kana": "サカノウエ",
    "street": null,
    "office_name": null,
    "office_name_kana": null
  },
  "0151": {
    "postcode": "8910151",
    "prefecture": "鹿児島県",
    "prefecture_kana": "カゴシマケン",
    "prefecture_code": 46,
    "city": "鹿児島市",
    "city_kana": "カゴシマシ",
    "town": "光山",
    "town_kana": "ヒカリヤマ",
    "street": null,
    "office_name": null,
    "office_name_kana": null
  },
  "0175": {
    "postcode": "8910175",
    "prefecture": "鹿児島県",
    "prefecture_kana": "カゴシマケン",
    "prefecture_code": 46,
    "city": "鹿児島市",
    "city_kana": "カゴシマシ",
    "town": "桜ケ丘",
    "town_kana": "サクラガオカ",
    "street": null,
    "office_name": null,
    "office_name_kana": null
  },
  "0180": {
    "postcode": "8910180",
    "prefecture": "鹿児島県",
    "prefecture_kana": "カゴシマケン",
    "prefecture_code": 46,
    "city": "鹿児島市",
    "city_kana": "カゴシマシ",
    "town": "五ケ別府町",
    "town_kana": "ゴカベップチョウ",
    "street": "３５９１−３",
    "office_name": "鹿児島実業高等学校",
    "office_name_kana": "カゴシマジツギヨウコウトウガツコウ"
  },
  "0182": {
    "postcode": "8910182",
    "prefecture": "鹿児島県",
    "prefecture_kana": "カゴシマケン",
    "prefecture_code": 46,
    "city": "鹿児島市",
    "city_kana": "カゴシマシ",
    "town": "卸本町",
    "town_kana": "オロシホンマチ",
    "street": "５−５",
    "office_name": "山形屋商事　株式会社",
    "office_name_kana": "ヤマガタヤシヨウジ カブシキガイシヤ"
  },
  "0183": {
    "postcode": "8910183",
    "prefecture": "鹿児島県",
    "prefecture_kana": "カゴシマケン",
    "prefecture_code": 46,
    "city": "鹿児島市",
    "city_kana": "カゴシマシ",
    "town": "卸本町",
    "town_kana": "オロシホンマチ",
    "street": "７−２０",
    "office_name": "株式会社　ミスミ",
    "office_name_kana": "カブシキガイシヤ ミスミ"
  },
  "0184": {
    "postcode": "8910184",
    "prefecture": "鹿児島県",
    "prefecture_kana": "カゴシマケン",
    "prefecture_code": 46,
    "city": "鹿児島市",
    "city_kana": "カゴシマシ",
    "town": "卸本町",
    "town_kana": "オロシホンマチ",
    "street": "６−１８",
    "office_name": "株式会社　レイメイ藤井　鹿児島支店",
    "office_name_kana": "カブシキガイシヤ レイメイフジイ カゴシマシテン"
  },
  "0186": {
    "postcode": "8910186",
    "prefecture": "鹿児島県",
    "prefecture_kana": "カゴシマケン",
    "prefecture_code": 46,
    "city": "鹿児島市",
    "city_kana": "カゴシマシ",
    "town": "南栄",
    "town_kana": "ナンエイ",
    "street": "５丁目１−２",
    "office_name": "財団法人　鹿児島県交通安全協会",
    "office_name_kana": "ザイダンホウジン カゴシマケンコウツウアンゼンキヨウカイ"
  },
  "0187": {
    "postcode": "8910187",
    "prefecture": "鹿児島県",
    "prefecture_kana": "カゴシマケン",
    "prefecture_code": 46,
    "city": "鹿児島市",
    "city_kana": "カゴシマシ",
    "town": "卸本町",
    "town_kana": "オロシホンマチ",
    "street": "８−２２",
    "office_name": "ヒノマル　株式会社　鹿児島支店",
    "office_name_kana": "ヒノマル カブシキガイシヤ カゴシマシテン"
  },
  "0188": {
    "postcode": "8910188",
    "prefecture": "鹿児島県",
    "prefecture_kana": "カゴシマケン",
    "prefecture_code": 46,
    "city": "鹿児島市",
    "city_kana": "カゴシマシ",
    "town": "南栄",
    "town_kana": "ナンエイ",
    "street": "４丁目１１−３",
    "office_name": "イーライフ共和　株式会社",
    "office_name_kana": "イ-ライフキヨウワ カブシキカイシヤ"
  },
  "0189": {
    "postcode": "8910189",
    "prefecture": "鹿児島県",
    "prefecture_kana": "カゴシマケン",
    "prefecture_code": 46,
    "city": "鹿児島市",
    "city_kana": "カゴシマシ",
    "town": "南栄",
    "town_kana": "ナンエイ",
    "street": "４丁目１１−２",
    "office_name": "三州産業　株式会社",
    "office_name_kana": "サンシユウサンギヨウ カブシキガイシヤ"
  },
  "0192": {
    "postcode": "8910192",
    "prefecture": "鹿児島県",
    "prefecture_kana": "カゴシマケン",
    "prefecture_code": 46,
    "city": "鹿児島市",
    "city_kana": "カゴシマシ",
    "town": "小松原",
    "town_kana": "コマツバラ",
    "street": "２丁目１０−１",
    "office_name": "ラ・サール学園",
    "office_name_kana": "ラ・サ-ルガクエン"
  },
  "0193": {
    "postcode": "8910193",
    "prefecture": "鹿児島県",
    "prefecture_kana": "カゴシマケン",
    "prefecture_code": 46,
    "city": "鹿児島市",
    "city_kana": "カゴシマシ",
    "town": "東開町",
    "town_kana": "トウカイチョウ",
    "street": "３−６７",
    "office_name": "阪東機工　株式会社",
    "office_name_kana": "バンドウキコウ カブシキガイシヤ"
  },
  "0194": {
    "postcode": "8910194",
    "prefecture": "鹿児島県",
    "prefecture_kana": "カゴシマケン",
    "prefecture_code": 46,
    "city": "鹿児島市",
    "city_kana": "カゴシマシ",
    "town": "谷山中央",
    "town_kana": "タニヤマチュウオウ",
    "street": "４丁目４９２７",
    "office_name": "鹿児島市役所　谷山支所",
    "office_name_kana": "カゴシマシヤクシヨ タニヤマシシヨ"
  },
  "0195": {
    "postcode": "8910195",
    "prefecture": "鹿児島県",
    "prefecture_kana": "カゴシマケン",
    "prefecture_code": 46,
    "city": "鹿児島市",
    "city_kana": "カゴシマシ",
    "town": "南栄",
    "town_kana": "ナンエイ",
    "street": "３丁目１４",
    "office_name": "株式会社　タイヨー",
    "office_name_kana": "カブシキガイシヤ タイヨ-"
  },
  "0196": {
    "postcode": "8910196",
    "prefecture": "鹿児島県",
    "prefecture_kana": "カゴシマケン",
    "prefecture_code": 46,
    "city": "鹿児島市",
    "city_kana": "カゴシマシ",
    "town": "南栄",
    "town_kana": "ナンエイ",
    "street": "３丁目２０番地",
    "office_name": "株式会社　サナス",
    "office_name_kana": "カブシキガイシヤ サナス"
  },
  "0197": {
    "postcode": "8910197",
    "prefecture": "鹿児島県",
    "prefecture_kana": "カゴシマケン",
    "prefecture_code": 46,
    "city": "鹿児島市",
    "city_kana": "カゴシマシ",
    "town": "坂之上",
    "town_kana": "サカノウエ",
    "street": "８丁目３４−１",
    "office_name": "鹿児島国際大学",
    "office_name_kana": "カゴシマコクサイダイガク"
  },
  "0198": {
    "postcode": "8910198",
    "prefecture": "鹿児島県",
    "prefecture_kana": "カゴシマケン",
    "prefecture_code": 46,
    "city": "鹿児島市",
    "city_kana": "カゴシマシ",
    "town": "上福元町",
    "town_kana": "カミフクモトチョウ",
    "street": "５２９６−１",
    "office_name": "鹿児島県立　開陽高等学校",
    "office_name_kana": "カゴシマケンリツ カイヨウコウトウガツコウ"
  },
  "0201": {
    "postcode": "8910201",
    "prefecture": "鹿児島県",
    "prefecture_kana": "カゴシマケン",
    "prefecture_code": 46,
    "city": "鹿児島市",
    "city_kana": "カゴシマシ",
    "town": "喜入瀬々串町",
    "town_kana": "キイレセセクシチョウ",
    "street": null,
    "office_name": null,
    "office_name_kana": null
  },
  "0202": {
    "postcode": "8910202",
    "prefecture": "鹿児島県",
    "prefecture_kana": "カゴシマケン",
    "prefecture_code": 46,
    "city": "鹿児島市",
    "city_kana": "カゴシマシ",
    "town": "喜入中名町",
    "town_kana": "キイレナカミョウチョウ",
    "street": null,
    "office_name": null,
    "office_name_kana": null
  },
  "0203": {
    "postcode": "8910203",
    "prefecture": "鹿児島県",
    "prefecture_kana": "カゴシマケン",
    "prefecture_code": 46,
    "city": "鹿児島市",
    "city_kana": "カゴシマシ",
    "town": "喜入町",
    "town_kana": "キイレチョウ",
    "street": null,
    "office_name": null,
    "office_name_kana": null
  },
  "0204": {
    "postcode": "8910204",
    "prefecture": "鹿児島県",
    "prefecture_kana": "カゴシマケン",
    "prefecture_code": 46,
    "city": "鹿児島市",
    "city_kana": "カゴシマシ",
    "town": "喜入一倉町",
    "town_kana": "キイレヒトクラチョウ",
    "street": null,
    "office_name": null,
    "office_name_kana": null
  },
  "0205": {
    "postcode": "8910205",
    "prefecture": "鹿児島県",
    "prefecture_kana": "カゴシマケン",
    "prefecture_code": 46,
    "city": "鹿児島市",
    "city_kana": "カゴシマシ",
    "town": "喜入前之浜町",
    "town_kana": "キイレマエノハマチョウ",
    "street": null,
    "office_name": null,
    "office_name_kana": null
  },
  "0206": {
    "postcode": "8910206",
    "prefecture": "鹿児島県",
    "prefecture_kana": "カゴシマケン",
    "prefecture_code": 46,
    "city": "鹿児島市",
    "city_kana": "カゴシマシ",
    "town": "喜入生見町",
    "town_kana": "キイレヌクミチョウ",
    "street": null,
    "office_name": null,
    "office_name_kana": null
  },
  "0304": {
    "postcode": "8910304",
    "prefecture": "鹿児島県",
    "prefecture_kana": "カゴシマケン",
    "prefecture_code": 46,
    "city": "指宿市",
    "city_kana": "イブスキシ",
    "town": "東方",
    "town_kana": "ヒガシカタ",
    "street": null,
    "office_name": null,
    "office_name_kana": null
  },
  "0311": {
    "postcode": "8910311",
    "prefecture": "鹿児島県",
    "prefecture_kana": "カゴシマケン",
    "prefecture_code": 46,
    "city": "指宿市",
    "city_kana": "イブスキシ",
    "town": "西方",
    "town_kana": "ニシカタ",
    "street": null,
    "office_name": null,
    "office_name_kana": null
  },
  "0312": {
    "postcode": "8910312",
    "prefecture": "鹿児島県",
    "prefecture_kana": "カゴシマケン",
    "prefecture_code": 46,
    "city": "指宿市",
    "city_kana": "イブスキシ",
    "town": "池田",
    "town_kana": "イケダ",
    "street": null,
    "office_name": null,
    "office_name_kana": null
  },
  "0313": {
    "postcode": "8910313",
    "prefecture": "鹿児島県",
    "prefecture_kana": "カゴシマケン",
    "prefecture_code": 46,
    "city": "指宿市",
    "city_kana": "イブスキシ",
    "town": "新西方",
    "town_kana": "シンニシカタ",
    "street": null,
    "office_name": null,
    "office_name_kana": null
  },
  "0314": {
    "postcode": "8910314",
    "prefecture": "鹿児島県",
    "prefecture_kana": "カゴシマケン",
    "prefecture_code": 46,
    "city": "指宿市",
    "city_kana": "イブスキシ",
    "town": "小牧",
    "town_kana": "コマキ",
    "street": null,
    "office_name": null,
    "office_name_kana": null
  },
  "0315": {
    "postcode": "8910315",
    "prefecture": "鹿児島県",
    "prefecture_kana": "カゴシマケン",
    "prefecture_code": 46,
    "city": "指宿市",
    "city_kana": "イブスキシ",
    "town": "岩本",
    "town_kana": "イワモト",
    "street": null,
    "office_name": null,
    "office_name_kana": null
  },
  "0400": {
    "postcode": "8910400",
    "prefecture": "鹿児島県",
    "prefecture_kana": "カゴシマケン",
    "prefecture_code": 46,
    "city": "指宿市",
    "city_kana": "イブスキシ",
    "town": "",
    "town_kana": "",
    "street": null,
    "office_name": null,
    "office_name_kana": null
  },
  "0401": {
    "postcode": "8910401",
    "prefecture": "鹿児島県",
    "prefecture_kana": "カゴシマケン",
    "prefecture_code": 46,
    "city": "指宿市",
    "city_kana": "イブスキシ",
    "town": "大牟礼",
    "town_kana": "オオムレ",
    "street": null,
    "office_name": null,
    "office_name_kana": null
  },
  "0402": {
    "postcode": "8910402",
    "prefecture": "鹿児島県",
    "prefecture_kana": "カゴシマケン",
    "prefecture_code": 46,
    "city": "指宿市",
    "city_kana": "イブスキシ",
    "town": "十町",
    "town_kana": "ジュッチョウ",
    "street": null,
    "office_name": null,
    "office_name_kana": null
  },
  "0403": {
    "postcode": "8910403",
    "prefecture": "鹿児島県",
    "prefecture_kana": "カゴシマケン",
    "prefecture_code": 46,
    "city": "指宿市",
    "city_kana": "イブスキシ",
    "town": "十二町",
    "town_kana": "ジュウニチョウ",
    "street": null,
    "office_name": null,
    "office_name_kana": null
  },
  "0404": {
    "postcode": "8910404",
    "prefecture": "鹿児島県",
    "prefecture_kana": "カゴシマケン",
    "prefecture_code": 46,
    "city": "指宿市",
    "city_kana": "イブスキシ",
    "town": "東方",
    "town_kana": "ヒガシカタ",
    "street": null,
    "office_name": null,
    "office_name_kana": null
  },
  "0405": {
    "postcode": "8910405",
    "prefecture": "鹿児島県",
    "prefecture_kana": "カゴシマケン",
    "prefecture_code": 46,
    "city": "指宿市",
    "city_kana": "イブスキシ",
    "town": "湊",
    "town_kana": "ミナト",
    "street": null,
    "office_name": null,
    "office_name_kana": null
  },
  "0406": {
    "postcode": "8910406",
    "prefecture": "鹿児島県",
    "prefecture_kana": "カゴシマケン",
    "prefecture_code": 46,
    "city": "指宿市",
    "city_kana": "イブスキシ",
    "town": "湯の浜",
    "town_kana": "ユノハマ",
    "street": null,
    "office_name": null,
    "office_name_kana": null
  },
  "0493": {
    "postcode": "8910493",
    "prefecture": "鹿児島県",
    "prefecture_kana": "カゴシマケン",
    "prefecture_code": 46,
    "city": "指宿市",
    "city_kana": "イブスキシ",
    "town": "十二町",
    "town_kana": "ジュウニチョウ",
    "street": "３７５５",
    "office_name": "いわさきホテルズ　株式会社",
    "office_name_kana": "イワサキホテルズ カブシキガイシヤ"
  },
  "0497": {
    "postcode": "8910497",
    "prefecture": "鹿児島県",
    "prefecture_kana": "カゴシマケン",
    "prefecture_code": 46,
    "city": "指宿市",
    "city_kana": "イブスキシ",
    "town": "十町",
    "town_kana": "ジュッチョウ",
    "street": "２４２４",
    "office_name": "指宿市役所",
    "office_name_kana": "イブスキシヤクシヨ"
  },
  "0498": {
    "postcode": "8910498",
    "prefecture": "鹿児島県",
    "prefecture_kana": "カゴシマケン",
    "prefecture_code": 46,
    "city": "指宿市",
    "city_kana": "イブスキシ",
    "town": "十二町",
    "town_kana": "ジュウニチョウ",
    "street": "４１４５",
    "office_name": "独立行政法人　国立病院機構　指宿病院",
    "office_name_kana": "ドクリツギヨウセイホウジン コクリツビヨウインキコウ イブスキビヨウイン"
  },
  "0501": {
    "postcode": "8910501",
    "prefecture": "鹿児島県",
    "prefecture_kana": "カゴシマケン",
    "prefecture_code": 46,
    "city": "指宿市",
    "city_kana": "イブスキシ",
    "town": "山川新栄町",
    "town_kana": "ヤマガワシンエイチョウ",
    "street": null,
    "office_name": null,
    "office_name_kana": null
  },
  "0502": {
    "postcode": "8910502",
    "prefecture": "鹿児島県",
    "prefecture_kana": "カゴシマケン",
    "prefecture_code": 46,
    "city": "指宿市",
    "city_kana": "イブスキシ",
    "town": "山川朝日町",
    "town_kana": "ヤマガワアサヒチョウ",
    "street": null,
    "office_name": null,
    "office_name_kana": null
  },
  "0503": {
    "postcode": "8910503",
    "prefecture": "鹿児島県",
    "prefecture_kana": "カゴシマケン",
    "prefecture_code": 46,
    "city": "指宿市",
    "city_kana": "イブスキシ",
    "town": "山川潮見町",
    "town_kana": "ヤマガワシオミチョウ",
    "street": null,
    "office_name": null,
    "office_name_kana": null
  },
  "0504": {
    "postcode": "8910504",
    "prefecture": "鹿児島県",
    "prefecture_kana": "カゴシマケン",
    "prefecture_code": 46,
    "city": "指宿市",
    "city_kana": "イブスキシ",
    "town": "山川新生町",
    "town_kana": "ヤマガワシンセイチョウ",
    "street": null,
    "office_name": null,
    "office_name_kana": null
  },
  "0505": {
    "postcode": "8910505",
    "prefecture": "鹿児島県",
    "prefecture_kana": "カゴシマケン",
    "prefecture_code": 46,
    "city": "指宿市",
    "city_kana": "イブスキシ",
    "town": "山川山下町",
    "town_kana": "ヤマガワヤマシタチョウ",
    "street": null,
    "office_name": null,
    "office_name_kana": null
  },
  "0506": {
    "postcode": "8910506",
    "prefecture": "鹿児島県",
    "prefecture_kana": "カゴシマケン",
    "prefecture_code": 46,
    "city": "指宿市",
    "city_kana": "イブスキシ",
    "town": "山川金生町",
    "town_kana": "ヤマガワキンセイチョウ",
    "street": null,
    "office_name": null,
    "office_name_kana": null
  },
  "0507": {
    "postcode": "8910507",
    "prefecture": "鹿児島県",
    "prefecture_kana": "カゴシマケン",
    "prefecture_code": 46,
    "city": "指宿市",
    "city_kana": "イブスキシ",
    "town": "山川入船町",
    "town_kana": "ヤマガワイリフネチョウ",
    "street": null,
    "office_name": null,
    "office_name_kana": null
  },
  "0511": {
    "postcode": "8910511",
    "prefecture": "鹿児島県",
    "prefecture_kana": "カゴシマケン",
    "prefecture_code": 46,
    "city": "指宿市",
    "city_kana": "イブスキシ",
    "town": "山川福元",
    "town_kana": "ヤマガワフクモト",
    "street": null,
    "office_name": null,
    "office_name_kana": null
  },
  "0512": {
    "postcode": "8910512",
    "prefecture": "鹿児島県",
    "prefecture_kana": "カゴシマケン",
    "prefecture_code": 46,
    "city": "指宿市",
    "city_kana": "イブスキシ",
    "town": "山川浜児ケ水",
    "town_kana": "ヤマガワハマチヨガミズ",
    "street": null,
    "office_name": null,
    "office_name_kana": null
  },
  "0513": {
    "postcode": "8910513",
    "prefecture": "鹿児島県",
    "prefecture_kana": "カゴシマケン",
    "prefecture_code": 46,
    "city": "指宿市",
    "city_kana": "イブスキシ",
    "town": "山川岡児ケ水",
    "town_kana": "ヤマガワオカチヨガミズ",
    "street": null,
    "office_name": null,
    "office_name_kana": null
  },
  "0514": {
    "postcode": "8910514",
    "prefecture": "鹿児島県",
    "prefecture_kana": "カゴシマケン",
    "prefecture_code": 46,
    "city": "指宿市",
    "city_kana": "イブスキシ",
    "town": "山川大山",
    "town_kana": "ヤマガワオオヤマ",
    "street": null,
    "office_name": null,
    "office_name_kana": null
  },
  "0515": {
    "postcode": "8910515",
    "prefecture": "鹿児島県",
    "prefecture_kana": "カゴシマケン",
    "prefecture_code": 46,
    "city": "指宿市",
    "city_kana": "イブスキシ",
    "town": "山川小川",
    "town_kana": "ヤマガワオガワ",
    "street": null,
    "office_name": null,
    "office_name_kana": null
  },
  "0516": {
    "postcode": "8910516",
    "prefecture": "鹿児島県",
    "prefecture_kana": "カゴシマケン",
    "prefecture_code": 46,
    "city": "指宿市",
    "city_kana": "イブスキシ",
    "town": "山川成川",
    "town_kana": "ヤマガワナリカワ",
    "street": null,
    "office_name": null,
    "office_name_kana": null
  },
  "0601": {
    "postcode": "8910601",
    "prefecture": "鹿児島県",
    "prefecture_kana": "カゴシマケン",
    "prefecture_code": 46,
    "city": "指宿市",
    "city_kana": "イブスキシ",
    "town": "開聞上野",
    "town_kana": "カイモンウエノ",
    "street": null,
    "office_name": null,
    "office_name_kana": null
  },
  "0602": {
    "postcode": "8910602",
    "prefecture": "鹿児島県",
    "prefecture_kana": "カゴシマケン",
    "prefecture_code": 46,
    "city": "指宿市",
    "city_kana": "イブスキシ",
    "town": "開聞川尻",
    "town_kana": "カイモンカワシリ",
    "street": null,
    "office_name": null,
    "office_name_kana": null
  },
  "0603": {
    "postcode": "8910603",
    "prefecture": "鹿児島県",
    "prefecture_kana": "カゴシマケン",
    "prefecture_code": 46,
    "city": "指宿市",
    "city_kana": "イブスキシ",
    "town": "開聞十町",
    "town_kana": "カイモンジュッチョウ",
    "street": null,
    "office_name": null,
    "office_name_kana": null
  },
  "0604": {
    "postcode": "8910604",
    "prefecture": "鹿児島県",
    "prefecture_kana": "カゴシマケン",
    "prefecture_code": 46,
    "city": "指宿市",
    "city_kana": "イブスキシ",
    "town": "開聞仙田",
    "town_kana": "カイモンセンタ",
    "street": null,
    "office_name": null,
    "office_name_kana": null
  },
  "0614": {
    "postcode": "8910614",
    "prefecture": "鹿児島県",
    "prefecture_kana": "カゴシマケン",
    "prefecture_code": 46,
    "city": "指宿市",
    "city_kana": "イブスキシ",
    "town": "山川大山",
    "town_kana": "ヤマガワオオヤマ",
    "street": null,
    "office_name": null,
    "office_name_kana": null
  },
  "0621": {
    "postcode": "8910621",
    "prefecture": "鹿児島県",
    "prefecture_kana": "カゴシマケン",
    "prefecture_code": 46,
    "city": "指宿市",
    "city_kana": "イブスキシ",
    "town": "山川利永",
    "town_kana": "ヤマガワトシナガ",
    "street": null,
    "office_name": null,
    "office_name_kana": null
  },
  "0692": {
    "postcode": "8910692",
    "prefecture": "鹿児島県",
    "prefecture_kana": "カゴシマケン",
    "prefecture_code": 46,
    "city": "指宿市",
    "city_kana": "イブスキシ",
    "town": "開聞十町",
    "town_kana": "カイモンジュッチョウ",
    "street": "２８６７",
    "office_name": "指宿市役所　開聞支所",
    "office_name_kana": "イブスキシヤクシヨ カイモンシシヨ"
  },
  "0701": {
    "postcode": "8910701",
    "prefecture": "鹿児島県",
    "prefecture_kana": "カゴシマケン",
    "prefecture_code": 46,
    "city": "南九州市",
    "city_kana": "ミナミキュウシュウシ",
    "town": "頴娃町郡",
    "town_kana": "エイチョウコオリ",
    "street": null,
    "office_name": null,
    "office_name_kana": null
  },
  "0702": {
    "postcode": "8910702",
    "prefecture": "鹿児島県",
    "prefecture_kana": "カゴシマケン",
    "prefecture_code": 46,
    "city": "南九州市",
    "city_kana": "ミナミキュウシュウシ",
    "town": "頴娃町牧之内",
    "town_kana": "エイチョウマキノウチ",
    "street": null,
    "office_name": null,
    "office_name_kana": null
  },
  "0703": {
    "postcode": "8910703",
    "prefecture": "鹿児島県",
    "prefecture_kana": "カゴシマケン",
    "prefecture_code": 46,
    "city": "南九州市",
    "city_kana": "ミナミキュウシュウシ",
    "town": "頴娃町御領",
    "town_kana": "エイチョウゴリョウ",
    "street": null,
    "office_name": null,
    "office_name_kana": null
  },
  "0704": {
    "postcode": "8910704",
    "prefecture": "鹿児島県",
    "prefecture_kana": "カゴシマケン",
    "prefecture_code": 46,
    "city": "南九州市",
    "city_kana": "ミナミキュウシュウシ",
    "town": "頴娃町別府",
    "town_kana": "エイチョウベップ",
    "street": null,
    "office_name": null,
    "office_name_kana": null
  },
  "0705": {
    "postcode": "8910705",
    "prefecture": "鹿児島県",
    "prefecture_kana": "カゴシマケン",
    "prefecture_code": 46,
    "city": "南九州市",
    "city_kana": "ミナミキュウシュウシ",
    "town": "頴娃町上別府",
    "town_kana": "エイチョウカミベップ",
    "street": null,
    "office_name": null,
    "office_name_kana": null
  },
  "0792": {
    "postcode": "8910792",
    "prefecture": "鹿児島県",
    "prefecture_kana": "カゴシマケン",
    "prefecture_code": 46,
    "city": "南九州市",
    "city_kana": "ミナミキュウシュウシ",
    "town": "頴娃町牧之内",
    "town_kana": "エイチョウマキノウチ",
    "street": "２８３０",
    "office_name": "南九州市役所　頴娃支所",
    "office_name_kana": "ミナミキユウシユウシヤクシヨ エイシシヨ"
  },
  "0911": {
    "postcode": "8910911",
    "prefecture": "鹿児島県",
    "prefecture_kana": "カゴシマケン",
    "prefecture_code": 46,
    "city": "南九州市",
    "city_kana": "ミナミキュウシュウシ",
    "town": "知覧町塩屋",
    "town_kana": "チランチョウシオヤ",
    "street": null,
    "office_name": null,
    "office_name_kana": null
  },
  "0912": {
    "postcode": "8910912",
    "prefecture": "鹿児島県",
    "prefecture_kana": "カゴシマケン",
    "prefecture_code": 46,
    "city": "南九州市",
    "city_kana": "ミナミキュウシュウシ",
    "town": "知覧町南別府",
    "town_kana": "チランチョウミナミベップ",
    "street": null,
    "office_name": null,
    "office_name_kana": null
  },
  "1101": {
    "postcode": "8911101",
    "prefecture": "鹿児島県",
    "prefecture_kana": "カゴシマケン",
    "prefecture_code": 46,
    "city": "鹿児島市",
    "city_kana": "カゴシマシ",
    "town": "花尾町",
    "town_kana": "ハナオマチ",
    "street": null,
    "office_name": null,
    "office_name_kana": null
  },
  "1102": {
    "postcode": "8911102",
    "prefecture": "鹿児島県",
    "prefecture_kana": "カゴシマケン",
    "prefecture_code": 46,
    "city": "鹿児島市",
    "city_kana": "カゴシマシ",
    "town": "東俣町",
    "town_kana": "ヒガシマタチョウ",
    "street": null,
    "office_name": null,
    "office_name_kana": null
  },
  "1103": {
    "postcode": "8911103",
    "prefecture": "鹿児島県",
    "prefecture_kana": "カゴシマケン",
    "prefecture_code": 46,
    "city": "鹿児島市",
    "city_kana": "カゴシマシ",
    "town": "川田町",
    "town_kana": "カワダチョウ",
    "street": null,
    "office_name": null,
    "office_name_kana": null
  },
  "1104": {
    "postcode": "8911104",
    "prefecture": "鹿児島県",
    "prefecture_kana": "カゴシマケン",
    "prefecture_code": 46,
    "city": "鹿児島市",
    "city_kana": "カゴシマシ",
    "town": "油須木町",
    "town_kana": "ユスキチョウ",
    "street": null,
    "office_name": null,
    "office_name_kana": null
  },
  "1105": {
    "postcode": "8911105",
    "prefecture": "鹿児島県",
    "prefecture_kana": "カゴシマケン",
    "prefecture_code": 46,
    "city": "鹿児島市",
    "city_kana": "カゴシマシ",
    "town": "郡山町",
    "town_kana": "コオリヤマチョウ",
    "street": null,
    "office_name": null,
    "office_name_kana": null
  },
  "1106": {
    "postcode": "8911106",
    "prefecture": "鹿児島県",
    "prefecture_kana": "カゴシマケン",
    "prefecture_code": 46,
    "city": "鹿児島市",
    "city_kana": "カゴシマシ",
    "town": "西俣町",
    "town_kana": "ニシマタチョウ",
    "street": null,
    "office_name": null,
    "office_name_kana": null
  },
  "1107": {
    "postcode": "8911107",
    "prefecture": "鹿児島県",
    "prefecture_kana": "カゴシマケン",
    "prefecture_code": 46,
    "city": "鹿児島市",
    "city_kana": "カゴシマシ",
    "town": "有屋田町",
    "town_kana": "アリヤダチョウ",
    "street": null,
    "office_name": null,
    "office_name_kana": null
  },
  "1108": {
    "postcode": "8911108",
    "prefecture": "鹿児島県",
    "prefecture_kana": "カゴシマケン",
    "prefecture_code": 46,
    "city": "鹿児島市",
    "city_kana": "カゴシマシ",
    "town": "郡山岳町",
    "town_kana": "コオリヤマタケマチ",
    "street": null,
    "office_name": null,
    "office_name_kana": null
  },
  "1192": {
    "postcode": "8911192",
    "prefecture": "鹿児島県",
    "prefecture_kana": "カゴシマケン",
    "prefecture_code": 46,
    "city": "鹿児島市",
    "city_kana": "カゴシマシ",
    "town": "郡山町",
    "town_kana": "コオリヤマチョウ",
    "street": "１４１番地",
    "office_name": "鹿児島市郡山支所",
    "office_name_kana": "カゴシマシ コオリヤマシシヨ"
  },
  "1201": {
    "postcode": "8911201",
    "prefecture": "鹿児島県",
    "prefecture_kana": "カゴシマケン",
    "prefecture_code": 46,
    "city": "鹿児島市",
    "city_kana": "カゴシマシ",
    "town": "岡之原町",
    "town_kana": "オカノハラチョウ",
    "street": null,
    "office_name": null,
    "office_name_kana": null
  },
  "1202": {
    "postcode": "8911202",
    "prefecture": "鹿児島県",
    "prefecture_kana": "カゴシマケン",
    "prefecture_code": 46,
    "city": "鹿児島市",
    "city_kana": "カゴシマシ",
    "town": "西伊敷",
    "town_kana": "ニシイシキ",
    "street": null,
    "office_name": null,
    "office_name_kana": null
  },
  "1203": {
    "postcode": "8911203",
    "prefecture": "鹿児島県",
    "prefecture_kana": "カゴシマケン",
    "prefecture_code": 46,
    "city": "鹿児島市",
    "city_kana": "カゴシマシ",
    "town": "伊敷町",
    "town_kana": "イシキチョウ",
    "street": null,
    "office_name": null,
    "office_name_kana": null
  },
  "1204": {
    "postcode": "8911204",
    "prefecture": "鹿児島県",
    "prefecture_kana": "カゴシマケン",
    "prefecture_code": 46,
    "city": "鹿児島市",
    "city_kana": "カゴシマシ",
    "town": "花野光ケ丘",
    "town_kana": "ケノヒカリガオカ",
    "street": null,
    "office_name": null,
    "office_name_kana": null
  },
  "1205": {
    "postcode": "8911205",
    "prefecture": "鹿児島県",
    "prefecture_kana": "カゴシマケン",
    "prefecture_code": 46,
    "city": "鹿児島市",
    "city_kana": "カゴシマシ",
    "town": "犬迫町",
    "town_kana": "イヌザコチョウ",
    "street": null,
    "office_name": null,
    "office_name_kana": null
  },
  "1206": {
    "postcode": "8911206",
    "prefecture": "鹿児島県",
    "prefecture_kana": "カゴシマケン",
    "prefecture_code": 46,
    "city": "鹿児島市",
    "city_kana": "カゴシマシ",
    "town": "皆与志町",
    "town_kana": "ミナヨシチョウ",
    "street": null,
    "office_name": null,
    "office_name_kana": null
  },
  "1222": {
    "postcode": "8911222",
    "prefecture": "鹿児島県",
    "prefecture_kana": "カゴシマケン",
    "prefecture_code": 46,
    "city": "鹿児島市",
    "city_kana": "カゴシマシ",
    "town": "小野町",
    "town_kana": "オノチョウ",
    "street": null,
    "office_name": null,
    "office_name_kana": null
  },
  "1231": {
    "postcode": "8911231",
    "prefecture": "鹿児島県",
    "prefecture_kana": "カゴシマケン",
    "prefecture_code": 46,
    "city": "鹿児島市",
    "city_kana": "カゴシマシ",
    "town": "小山田町",
    "town_kana": "コヤマダチョウ",
    "street": null,
    "office_name": null,
    "office_name_kana": null
  },
  "1274": {
    "postcode": "8911274",
    "prefecture": "鹿児島県",
    "prefecture_kana": "カゴシマケン",
    "prefecture_code": 46,
    "city": "鹿児島市",
    "city_kana": "カゴシマシ",
    "town": "緑ヶ丘町",
    "town_kana": "ミドリガオカチョウ",
    "street": null,
    "office_name": null,
    "office_name_kana": null
  },
  "1275": {
    "postcode": "8911275",
    "prefecture": "鹿児島県",
    "prefecture_kana": "カゴシマケン",
    "prefecture_code": 46,
    "city": "鹿児島市",
    "city_kana": "カゴシマシ",
    "town": "川上町",
    "town_kana": "カワカミチョウ",
    "street": null,
    "office_name": null,
    "office_name_kana": null
  },
  "1301": {
    "postcode": "8911301",
    "prefecture": "鹿児島県",
    "prefecture_kana": "カゴシマケン",
    "prefecture_code": 46,
    "city": "鹿児島市",
    "city_kana": "カゴシマシ",
    "town": "西佐多町",
    "town_kana": "ニシサタチョウ",
    "street": null,
    "office_name": null,
    "office_name_kana": null
  },
  "1302": {
    "postcode": "8911302",
    "prefecture": "鹿児島県",
    "prefecture_kana": "カゴシマケン",
    "prefecture_code": 46,
    "city": "鹿児島市",
    "city_kana": "カゴシマシ",
    "town": "東佐多町",
    "town_kana": "ヒガシサタチョウ",
    "street": null,
    "office_name": null,
    "office_name_kana": null
  },
  "1303": {
    "postcode": "8911303",
    "prefecture": "鹿児島県",
    "prefecture_kana": "カゴシマケン",
    "prefecture_code": 46,
    "city": "鹿児島市",
    "city_kana": "カゴシマシ",
    "town": "本城町",
    "town_kana": "ホンジョウチョウ",
    "street": null,
    "office_name": null,
    "office_name_kana": null
  },
  "1304": {
    "postcode": "8911304",
    "prefecture": "鹿児島県",
    "prefecture_kana": "カゴシマケン",
    "prefecture_code": 46,
    "city": "鹿児島市",
    "city_kana": "カゴシマシ",
    "town": "本名町",
    "town_kana": "ホンミョウチョウ",
    "street": null,
    "office_name": null,
    "office_name_kana": null
  },
  "1305": {
    "postcode": "8911305",
    "prefecture": "鹿児島県",
    "prefecture_kana": "カゴシマケン",
    "prefecture_code": 46,
    "city": "鹿児島市",
    "city_kana": "カゴシマシ",
    "town": "宮之浦町",
    "town_kana": "ミヤノウラチョウ",
    "street": null,
    "office_name": null,
    "office_name_kana": null
  },
  "1306": {
    "postcode": "8911306",
    "prefecture": "鹿児島県",
    "prefecture_kana": "カゴシマケン",
    "prefecture_code": 46,
    "city": "鹿児島市",
    "city_kana": "カゴシマシ",
    "town": "牟礼岡",
    "town_kana": "ムレガオカ",
    "street": null,
    "office_name": null,
    "office_name_kana": null
  },
  "1392": {
    "postcode": "8911392",
    "prefecture": "鹿児島県",
    "prefecture_kana": "カゴシマケン",
    "prefecture_code": 46,
    "city": "鹿児島市",
    "city_kana": "カゴシマシ",
    "town": "本城町",
    "town_kana": "ホンジョウチョウ",
    "street": "１６９６",
    "office_name": "鹿児島市役所　吉田支所",
    "office_name_kana": "カゴシマシヤクシヨ ヨシダシシヨ"
  },
  "1393": {
    "postcode": "8911393",
    "prefecture": "鹿児島県",
    "prefecture_kana": "カゴシマケン",
    "prefecture_code": 46,
    "city": "鹿児島市",
    "city_kana": "カゴシマシ",
    "town": "宮之浦町",
    "town_kana": "ミヤノウラチョウ",
    "street": "８６２",
    "office_name": "鹿児島県　総合教育センター",
    "office_name_kana": "カゴシマケン ソウゴウキヨウイクセンタ-"
  },
  "1394": {
    "postcode": "8911394",
    "prefecture": "鹿児島県",
    "prefecture_kana": "カゴシマケン",
    "prefecture_code": 46,
    "city": "鹿児島市",
    "city_kana": "カゴシマシ",
    "town": "宮之浦町",
    "town_kana": "ミヤノウラチョウ",
    "street": "２４３８",
    "office_name": "株式会社　新日本科学",
    "office_name_kana": "カブシキガイシヤ シンニホンカガク"
  },
  "1395": {
    "postcode": "8911395",
    "prefecture": "鹿児島県",
    "prefecture_kana": "カゴシマケン",
    "prefecture_code": 46,
    "city": "鹿児島市",
    "city_kana": "カゴシマシ",
    "town": "宮之浦町",
    "town_kana": "ミヤノウラチョウ",
    "street": "３９２６−２",
    "office_name": "南九州国分　株式会社",
    "office_name_kana": "ミナミキユウシユウコクブ カブシキガイシヤ"
  },
  "1401": {
    "postcode": "8911401",
    "prefecture": "鹿児島県",
    "prefecture_kana": "カゴシマケン",
    "prefecture_code": 46,
    "city": "鹿児島市",
    "city_kana": "カゴシマシ",
    "town": "黒神町",
    "town_kana": "クロカミチョウ",
    "street": null,
    "office_name": null,
    "office_name_kana": null
  },
  "1402": {
    "postcode": "8911402",
    "prefecture": "鹿児島県",
    "prefecture_kana": "カゴシマケン",
    "prefecture_code": 46,
    "city": "鹿児島市",
    "city_kana": "カゴシマシ",
    "town": "高免町",
    "town_kana": "コウメンチョウ",
    "street": null,
    "office_name": null,
    "office_name_kana": null
  },
  "1403": {
    "postcode": "8911403",
    "prefecture": "鹿児島県",
    "prefecture_kana": "カゴシマケン",
    "prefecture_code": 46,
    "city": "鹿児島市",
    "city_kana": "カゴシマシ",
    "town": "新島町",
    "town_kana": "シンジマチョウ",
    "street": null,
    "office_name": null,
    "office_name_kana": null
  },
  "1411": {
    "postcode": "8911411",
    "prefecture": "鹿児島県",
    "prefecture_kana": "カゴシマケン",
    "prefecture_code": 46,
    "city": "鹿児島市",
    "city_kana": "カゴシマシ",
    "town": "桜島白浜町",
    "town_kana": "サクラジマシラハマチョウ",
    "street": null,
    "office_name": null,
    "office_name_kana": null
  },
  "1412": {
    "postcode": "8911412",
    "prefecture": "鹿児島県",
    "prefecture_kana": "カゴシマケン",
    "prefecture_code": 46,
    "city": "鹿児島市",
    "city_kana": "カゴシマシ",
    "town": "桜島二俣町",
    "town_kana": "サクラジマフタマタチョウ",
    "street": null,
    "office_name": null,
    "office_name_kana": null
  },
  "1413": {
    "postcode": "8911413",
    "prefecture": "鹿児島県",
    "prefecture_kana": "カゴシマケン",
    "prefecture_code": 46,
    "city": "鹿児島市",
    "city_kana": "カゴシマシ",
    "town": "桜島松浦町",
    "town_kana": "サクラジママツウラチョウ",
    "street": null,
    "office_name": null,
    "office_name_kana": null
  },
  "1414": {
    "postcode": "8911414",
    "prefecture": "鹿児島県",
    "prefecture_kana": "カゴシマケン",
    "prefecture_code": 46,
    "city": "鹿児島市",
    "city_kana": "カゴシマシ",
    "town": "桜島西道町",
    "town_kana": "サクラジマサイドウチョウ",
    "street": null,
    "office_name": null,
    "office_name_kana": null
  },
  "1415": {
    "postcode": "8911415",
    "prefecture": "鹿児島県",
    "prefecture_kana": "カゴシマケン",
    "prefecture_code": 46,
    "city": "鹿児島市",
    "city_kana": "カゴシマシ",
    "town": "桜島藤野町",
    "town_kana": "サクラジマフジノチョウ",
    "street": null,
    "office_name": null,
    "office_name_kana": null
  },
  "1416": {
    "postcode": "8911416",
    "prefecture": "鹿児島県",
    "prefecture_kana": "カゴシマケン",
    "prefecture_code": 46,
    "city": "鹿児島市",
    "city_kana": "カゴシマシ",
    "town": "桜島武町",
    "town_kana": "サクラジマタケチョウ",
    "street": null,
    "office_name": null,
    "office_name_kana": null
  },
  "1417": {
    "postcode": "8911417",
    "prefecture": "鹿児島県",
    "prefecture_kana": "カゴシマケン",
    "prefecture_code": 46,
    "city": "鹿児島市",
    "city_kana": "カゴシマシ",
    "town": "桜島赤生原町",
    "town_kana": "サクラジマアコウバルチョウ",
    "street": null,
    "office_name": null,
    "office_name_kana": null
  },
  "1418": {
    "postcode": "8911418",
    "prefecture": "鹿児島県",
    "prefecture_kana": "カゴシマケン",
    "prefecture_code": 46,
    "city": "鹿児島市",
    "city_kana": "カゴシマシ",
    "town": "桜島小池町",
    "town_kana": "サクラジマコイケチョウ",
    "street": null,
    "office_name": null,
    "office_name_kana": null
  },
  "1419": {
    "postcode": "8911419",
    "prefecture": "鹿児島県",
    "prefecture_kana": "カゴシマケン",
    "prefecture_code": 46,
    "city": "鹿児島市",
    "city_kana": "カゴシマシ",
    "town": "桜島横山町",
    "town_kana": "サクラジマヨコヤマチョウ",
    "street": null,
    "office_name": null,
    "office_name_kana": null
  },
  "1420": {
    "postcode": "8911420",
    "prefecture": "鹿児島県",
    "prefecture_kana": "カゴシマケン",
    "prefecture_code": 46,
    "city": "鹿児島市",
    "city_kana": "カゴシマシ",
    "town": "桜島赤水町",
    "town_kana": "サクラジマアカミズチョウ",
    "street": null,
    "office_name": null,
    "office_name_kana": null
  },
  "1501": [
    {
      "postcode": "8911501",
      "prefecture": "鹿児島県",
      "prefecture_kana": "カゴシマケン",
      "prefecture_code": 46,
      "city": "鹿児島市",
      "city_kana": "カゴシマシ",
      "town": "黒神町",
      "town_kana": "クロカミチョウ",
      "street": null,
      "office_name": null,
      "office_name_kana": null
    },
    {
      "postcode": "8911501",
      "prefecture": "鹿児島県",
      "prefecture_kana": "カゴシマケン",
      "prefecture_code": 46,
      "city": "鹿児島市",
      "city_kana": "カゴシマシ",
      "town": "黒神町枦ノ木ケ谷",
      "town_kana": "クロカミチョウハゼノキガダニ",
      "street": null,
      "office_name": null,
      "office_name_kana": null
    }
  ],
  "1541": {
    "postcode": "8911541",
    "prefecture": "鹿児島県",
    "prefecture_kana": "カゴシマケン",
    "prefecture_code": 46,
    "city": "鹿児島市",
    "city_kana": "カゴシマシ",
    "town": "野尻町",
    "town_kana": "ノジリチョウ",
    "street": null,
    "office_name": null,
    "office_name_kana": null
  },
  "1542": {
    "postcode": "8911542",
    "prefecture": "鹿児島県",
    "prefecture_kana": "カゴシマケン",
    "prefecture_code": 46,
    "city": "鹿児島市",
    "city_kana": "カゴシマシ",
    "town": "持木町",
    "town_kana": "モチキチョウ",
    "street": null,
    "office_name": null,
    "office_name_kana": null
  },
  "1543": {
    "postcode": "8911543",
    "prefecture": "鹿児島県",
    "prefecture_kana": "カゴシマケン",
    "prefecture_code": 46,
    "city": "鹿児島市",
    "city_kana": "カゴシマシ",
    "town": "東桜島町",
    "town_kana": "ヒガシサクラジマチョウ",
    "street": null,
    "office_name": null,
    "office_name_kana": null
  },
  "1544": {
    "postcode": "8911544",
    "prefecture": "鹿児島県",
    "prefecture_kana": "カゴシマケン",
    "prefecture_code": 46,
    "city": "鹿児島市",
    "city_kana": "カゴシマシ",
    "town": "古里町",
    "town_kana": "フルサトチョウ",
    "street": null,
    "office_name": null,
    "office_name_kana": null
  },
  "1545": {
    "postcode": "8911545",
    "prefecture": "鹿児島県",
    "prefecture_kana": "カゴシマケン",
    "prefecture_code": 46,
    "city": "鹿児島市",
    "city_kana": "カゴシマシ",
    "town": "有村町",
    "town_kana": "アリムラチョウ",
    "street": null,
    "office_name": null,
    "office_name_kana": null
  },
  "1592": {
    "postcode": "8911592",
    "prefecture": "鹿児島県",
    "prefecture_kana": "カゴシマケン",
    "prefecture_code": 46,
    "city": "鹿児島市",
    "city_kana": "カゴシマシ",
    "town": "古里町",
    "town_kana": "フルサトチョウ",
    "street": "１０７６−１",
    "office_name": "ふるさと観光ホテル",
    "office_name_kana": "フルサトカンコウホテル"
  },
  "2100": {
    "postcode": "8912100",
    "prefecture": "鹿児島県",
    "prefecture_kana": "カゴシマケン",
    "prefecture_code": 46,
    "city": "垂水市",
    "city_kana": "タルミズシ",
    "town": "",
    "town_kana": "",
    "street": null,
    "office_name": null,
    "office_name_kana": null
  },
  "2101": {
    "postcode": "8912101",
    "prefecture": "鹿児島県",
    "prefecture_kana": "カゴシマケン",
    "prefecture_code": 46,
    "city": "垂水市",
    "city_kana": "タルミズシ",
    "town": "海潟",
    "town_kana": "カイガタ",
    "street": null,
    "office_name": null,
    "office_name_kana": null
  },
  "2102": {
    "postcode": "8912102",
    "prefecture": "鹿児島県",
    "prefecture_kana": "カゴシマケン",
    "prefecture_code": 46,
    "city": "垂水市",
    "city_kana": "タルミズシ",
    "town": "中俣",
    "town_kana": "ナカマタ",
    "street": null,
    "office_name": null,
    "office_name_kana": null
  },
  "2103": {
    "postcode": "8912103",
    "prefecture": "鹿児島県",
    "prefecture_kana": "カゴシマケン",
    "prefecture_code": 46,
    "city": "垂水市",
    "city_kana": "タルミズシ",
    "town": "市木",
    "town_kana": "イチキ",
    "street": null,
    "office_name": null,
    "office_name_kana": null
  },
  "2104": {
    "postcode": "8912104",
    "prefecture": "鹿児島県",
    "prefecture_kana": "カゴシマケン",
    "prefecture_code": 46,
    "city": "垂水市",
    "city_kana": "タルミズシ",
    "town": "田神",
    "town_kana": "タガミ",
    "street": null,
    "office_name": null,
    "office_name_kana": null
  },
  "2105": {
    "postcode": "8912105",
    "prefecture": "鹿児島県",
    "prefecture_kana": "カゴシマケン",
    "prefecture_code": 46,
    "city": "垂水市",
    "city_kana": "タルミズシ",
    "town": "松原町",
    "town_kana": "マツバラチョウ",
    "street": null,
    "office_name": null,
    "office_name_kana": null
  },
  "2106": {
    "postcode": "8912106",
    "prefecture": "鹿児島県",
    "prefecture_kana": "カゴシマケン",
    "prefecture_code": 46,
    "city": "垂水市",
    "city_kana": "タルミズシ",
    "town": "中央町",
    "town_kana": "チュウオウチョウ",
    "street": null,
    "office_name": null,
    "office_name_kana": null
  },
  "2111": {
    "postcode": "8912111",
    "prefecture": "鹿児島県",
    "prefecture_kana": "カゴシマケン",
    "prefecture_code": 46,
    "city": "垂水市",
    "city_kana": "タルミズシ",
    "town": "新御堂",
    "town_kana": "シンミドウ",
    "street": null,
    "office_name": null,
    "office_name_kana": null
  },
  "2112": {
    "postcode": "8912112",
    "prefecture": "鹿児島県",
    "prefecture_kana": "カゴシマケン",
    "prefecture_code": 46,
    "city": "垂水市",
    "city_kana": "タルミズシ",
    "town": "本城",
    "town_kana": "ホンジョウ",
    "street": null,
    "office_name": null,
    "office_name_kana": null
  },
  "2113": {
    "postcode": "8912113",
    "prefecture": "鹿児島県",
    "prefecture_kana": "カゴシマケン",
    "prefecture_code": 46,
    "city": "垂水市",
    "city_kana": "タルミズシ",
    "town": "高城",
    "town_kana": "タカジョウ",
    "street": null,
    "office_name": null,
    "office_name_kana": null
  },
  "2114": {
    "postcode": "8912114",
    "prefecture": "鹿児島県",
    "prefecture_kana": "カゴシマケン",
    "prefecture_code": 46,
    "city": "垂水市",
    "city_kana": "タルミズシ",
    "town": "新城",
    "town_kana": "シンジョウ",
    "street": null,
    "office_name": null,
    "office_name_kana": null
  },
  "2115": {
    "postcode": "8912115",
    "prefecture": "鹿児島県",
    "prefecture_kana": "カゴシマケン",
    "prefecture_code": 46,
    "city": "垂水市",
    "city_kana": "タルミズシ",
    "town": "浜平",
    "town_kana": "ハマビラ",
    "street": null,
    "office_name": null,
    "office_name_kana": null
  },
  "2116": {
    "postcode": "8912116",
    "prefecture": "鹿児島県",
    "prefecture_kana": "カゴシマケン",
    "prefecture_code": 46,
    "city": "垂水市",
    "city_kana": "タルミズシ",
    "town": "柊原",
    "town_kana": "クヌギバル",
    "street": null,
    "office_name": null,
    "office_name_kana": null
  },
  "2117": {
    "postcode": "8912117",
    "prefecture": "鹿児島県",
    "prefecture_kana": "カゴシマケン",
    "prefecture_code": 46,
    "city": "垂水市",
    "city_kana": "タルミズシ",
    "town": "潮彩町",
    "town_kana": "シオサイチョウ",
    "street": null,
    "office_name": null,
    "office_name_kana": null
  },
  "2121": {
    "postcode": "8912121",
    "prefecture": "鹿児島県",
    "prefecture_kana": "カゴシマケン",
    "prefecture_code": 46,
    "city": "垂水市",
    "city_kana": "タルミズシ",
    "town": "栄町",
    "town_kana": "サカエマチ",
    "street": null,
    "office_name": null,
    "office_name_kana": null
  },
  "2122": {
    "postcode": "8912122",
    "prefecture": "鹿児島県",
    "prefecture_kana": "カゴシマケン",
    "prefecture_code": 46,
    "city": "垂水市",
    "city_kana": "タルミズシ",
    "town": "上町",
    "town_kana": "カンマチ",
    "street": null,
    "office_name": null,
    "office_name_kana": null
  },
  "2123": {
    "postcode": "8912123",
    "prefecture": "鹿児島県",
    "prefecture_kana": "カゴシマケン",
    "prefecture_code": 46,
    "city": "垂水市",
    "city_kana": "タルミズシ",
    "town": "本町",
    "town_kana": "ホンマチ",
    "street": null,
    "office_name": null,
    "office_name_kana": null
  },
  "2124": {
    "postcode": "8912124",
    "prefecture": "鹿児島県",
    "prefecture_kana": "カゴシマケン",
    "prefecture_code": 46,
    "city": "垂水市",
    "city_kana": "タルミズシ",
    "town": "錦江町",
    "town_kana": "キンコウチョウ",
    "street": null,
    "office_name": null,
    "office_name_kana": null
  },
  "2125": {
    "postcode": "8912125",
    "prefecture": "鹿児島県",
    "prefecture_kana": "カゴシマケン",
    "prefecture_code": 46,
    "city": "垂水市",
    "city_kana": "タルミズシ",
    "town": "旭町",
    "town_kana": "アサヒマチ",
    "street": null,
    "office_name": null,
    "office_name_kana": null
  },
  "2126": {
    "postcode": "8912126",
    "prefecture": "鹿児島県",
    "prefecture_kana": "カゴシマケン",
    "prefecture_code": 46,
    "city": "垂水市",
    "city_kana": "タルミズシ",
    "town": "南松原町",
    "town_kana": "ミナミマツバラチョウ",
    "street": null,
    "office_name": null,
    "office_name_kana": null
  },
  "2127": {
    "postcode": "8912127",
    "prefecture": "鹿児島県",
    "prefecture_kana": "カゴシマケン",
    "prefecture_code": 46,
    "city": "垂水市",
    "city_kana": "タルミズシ",
    "town": "下宮町",
    "town_kana": "シモミヤチョウ",
    "street": null,
    "office_name": null,
    "office_name_kana": null
  },
  "2192": {
    "postcode": "8912192",
    "prefecture": "鹿児島県",
    "prefecture_kana": "カゴシマケン",
    "prefecture_code": 46,
    "city": "垂水市",
    "city_kana": "タルミズシ",
    "town": "上町",
    "town_kana": "カンマチ",
    "street": "１１４",
    "office_name": "垂水市役所",
    "office_name_kana": "タルミズシヤクシヨ"
  },
  "2301": {
    "postcode": "8912301",
    "prefecture": "鹿児島県",
    "prefecture_kana": "カゴシマケン",
    "prefecture_code": 46,
    "city": "鹿屋市",
    "city_kana": "カノヤシ",
    "town": "有武町",
    "town_kana": "アリタケチョウ",
    "street": null,
    "office_name": null,
    "office_name_kana": null
  },
  "2302": {
    "postcode": "8912302",
    "prefecture": "鹿児島県",
    "prefecture_kana": "カゴシマケン",
    "prefecture_code": 46,
    "city": "鹿屋市",
    "city_kana": "カノヤシ",
    "town": "小薄町",
    "town_kana": "オスキチョウ",
    "street": null,
    "office_name": null,
    "office_name_kana": null
  },
  "2303": {
    "postcode": "8912303",
    "prefecture": "鹿児島県",
    "prefecture_kana": "カゴシマケン",
    "prefecture_code": 46,
    "city": "鹿屋市",
    "city_kana": "カノヤシ",
    "town": "海道町",
    "town_kana": "カイドウチョウ",
    "street": null,
    "office_name": null,
    "office_name_kana": null
  },
  "2304": {
    "postcode": "8912304",
    "prefecture": "鹿児島県",
    "prefecture_kana": "カゴシマケン",
    "prefecture_code": 46,
    "city": "鹿屋市",
    "city_kana": "カノヤシ",
    "town": "花岡町",
    "town_kana": "ハナオカチョウ",
    "street": null,
    "office_name": null,
    "office_name_kana": null
  },
  "2305": {
    "postcode": "8912305",
    "prefecture": "鹿児島県",
    "prefecture_kana": "カゴシマケン",
    "prefecture_code": 46,
    "city": "鹿屋市",
    "city_kana": "カノヤシ",
    "town": "根木原町",
    "town_kana": "ネギバルチョウ",
    "street": null,
    "office_name": null,
    "office_name_kana": null
  },
  "2306": {
    "postcode": "8912306",
    "prefecture": "鹿児島県",
    "prefecture_kana": "カゴシマケン",
    "prefecture_code": 46,
    "city": "鹿屋市",
    "city_kana": "カノヤシ",
    "town": "花里町",
    "town_kana": "ハナザトチョウ",
    "street": null,
    "office_name": null,
    "office_name_kana": null
  },
  "2311": {
    "postcode": "8912311",
    "prefecture": "鹿児島県",
    "prefecture_kana": "カゴシマケン",
    "prefecture_code": 46,
    "city": "鹿屋市",
    "city_kana": "カノヤシ",
    "town": "白水町",
    "town_kana": "シロミズチョウ",
    "street": null,
    "office_name": null,
    "office_name_kana": null
  },
  "2312": {
    "postcode": "8912312",
    "prefecture": "鹿児島県",
    "prefecture_kana": "カゴシマケン",
    "prefecture_code": 46,
    "city": "鹿屋市",
    "city_kana": "カノヤシ",
    "town": "小野原町",
    "town_kana": "オノバルチョウ",
    "street": null,
    "office_name": null,
    "office_name_kana": null
  },
  "2313": {
    "postcode": "8912313",
    "prefecture": "鹿児島県",
    "prefecture_kana": "カゴシマケン",
    "prefecture_code": 46,
    "city": "鹿屋市",
    "city_kana": "カノヤシ",
    "town": "天神町",
    "town_kana": "テンジンチョウ",
    "street": null,
    "office_name": null,
    "office_name_kana": null
  },
  "2314": {
    "postcode": "8912314",
    "prefecture": "鹿児島県",
    "prefecture_kana": "カゴシマケン",
    "prefecture_code": 46,
    "city": "鹿屋市",
    "city_kana": "カノヤシ",
    "town": "船間町",
    "town_kana": "フナマチョウ",
    "street": null,
    "office_name": null,
    "office_name_kana": null
  },
  "2321": {
    "postcode": "8912321",
    "prefecture": "鹿児島県",
    "prefecture_kana": "カゴシマケン",
    "prefecture_code": 46,
    "city": "鹿屋市",
    "city_kana": "カノヤシ",
    "town": "古江町",
    "town_kana": "フルエチョウ",
    "street": null,
    "office_name": null,
    "office_name_kana": null
  },
  "2322": {
    "postcode": "8912322",
    "prefecture": "鹿児島県",
    "prefecture_kana": "カゴシマケン",
    "prefecture_code": 46,
    "city": "鹿屋市",
    "city_kana": "カノヤシ",
    "town": "古里町",
    "town_kana": "フルサトチョウ",
    "street": null,
    "office_name": null,
    "office_name_kana": null
  },
  "2393": {
    "postcode": "8912393",
    "prefecture": "鹿児島県",
    "prefecture_kana": "カゴシマケン",
    "prefecture_code": 46,
    "city": "鹿屋市",
    "city_kana": "カノヤシ",
    "town": "白水町",
    "town_kana": "シロミズチョウ",
    "street": "１",
    "office_name": "鹿屋体育大学",
    "office_name_kana": "カノヤタイイクダイガク"
  },
  "2396": {
    "postcode": "8912396",
    "prefecture": "鹿児島県",
    "prefecture_kana": "カゴシマケン",
    "prefecture_code": 46,
    "city": "鹿屋市",
    "city_kana": "カノヤシ",
    "town": "花里町",
    "town_kana": "ハナザトチョウ",
    "street": "赤崩",
    "office_name": "国立　大隅少年自然の家",
    "office_name_kana": "コクリツ オオスミシヨウネンシゼンノイエ"
  },
  "3100": {
    "postcode": "8913100",
    "prefecture": "鹿児島県",
    "prefecture_kana": "カゴシマケン",
    "prefecture_code": 46,
    "city": "西之表市",
    "city_kana": "ニシノオモテシ",
    "town": "",
    "town_kana": "",
    "street": null,
    "office_name": null,
    "office_name_kana": null
  },
  "3101": {
    "postcode": "8913101",
    "prefecture": "鹿児島県",
    "prefecture_kana": "カゴシマケン",
    "prefecture_code": 46,
    "city": "西之表市",
    "city_kana": "ニシノオモテシ",
    "town": "西之表",
    "town_kana": "ニシノオモテ",
    "street": null,
    "office_name": null,
    "office_name_kana": null
  },
  "3102": {
    "postcode": "8913102",
    "prefecture": "鹿児島県",
    "prefecture_kana": "カゴシマケン",
    "prefecture_code": 46,
    "city": "西之表市",
    "city_kana": "ニシノオモテシ",
    "town": "安納",
    "town_kana": "アンノウ",
    "street": null,
    "office_name": null,
    "office_name_kana": null
  },
  "3103": {
    "postcode": "8913103",
    "prefecture": "鹿児島県",
    "prefecture_kana": "カゴシマケン",
    "prefecture_code": 46,
    "city": "西之表市",
    "city_kana": "ニシノオモテシ",
    "town": "現和",
    "town_kana": "ゲンナ",
    "street": null,
    "office_name": null,
    "office_name_kana": null
  },
  "3104": {
    "postcode": "8913104",
    "prefecture": "鹿児島県",
    "prefecture_kana": "カゴシマケン",
    "prefecture_code": 46,
    "city": "西之表市",
    "city_kana": "ニシノオモテシ",
    "town": "住吉",
    "town_kana": "スミヨシ",
    "street": null,
    "office_name": null,
    "office_name_kana": null
  },
  "3111": {
    "postcode": "8913111",
    "prefecture": "鹿児島県",
    "prefecture_kana": "カゴシマケン",
    "prefecture_code": 46,
    "city": "西之表市",
    "city_kana": "ニシノオモテシ",
    "town": "西町",
    "town_kana": "ニシマチ",
    "street": null,
    "office_name": null,
    "office_name_kana": null
  },
  "3112": {
    "postcode": "8913112",
    "prefecture": "鹿児島県",
    "prefecture_kana": "カゴシマケン",
    "prefecture_code": 46,
    "city": "西之表市",
    "city_kana": "ニシノオモテシ",
    "town": "栄町",
    "town_kana": "サカエマチ",
    "street": null,
    "office_name": null,
    "office_name_kana": null
  },
  "3113": {
    "postcode": "8913113",
    "prefecture": "鹿児島県",
    "prefecture_kana": "カゴシマケン",
    "prefecture_code": 46,
    "city": "西之表市",
    "city_kana": "ニシノオモテシ",
    "town": "東町",
    "town_kana": "ヒガシマチ",
    "street": null,
    "office_name": null,
    "office_name_kana": null
  },
  "3114": {
    "postcode": "8913114",
    "prefecture": "鹿児島県",
    "prefecture_kana": "カゴシマケン",
    "prefecture_code": 46,
    "city": "西之表市",
    "city_kana": "ニシノオモテシ",
    "town": "池田",
    "town_kana": "イケダ",
    "street": null,
    "office_name": null,
    "office_name_kana": null
  },
  "3115": {
    "postcode": "8913115",
    "prefecture": "鹿児島県",
    "prefecture_kana": "カゴシマケン",
    "prefecture_code": 46,
    "city": "西之表市",
    "city_kana": "ニシノオモテシ",
    "town": "天神町",
    "town_kana": "テンジンチョウ",
    "street": null,
    "office_name": null,
    "office_name_kana": null
  },
  "3116": {
    "postcode": "8913116",
    "prefecture": "鹿児島県",
    "prefecture_kana": "カゴシマケン",
    "prefecture_code": 46,
    "city": "西之表市",
    "city_kana": "ニシノオモテシ",
    "town": "鴨女町",
    "town_kana": "カモメチョウ",
    "street": null,
    "office_name": null,
    "office_name_kana": null
  },
  "3117": {
    "postcode": "8913117",
    "prefecture": "鹿児島県",
    "prefecture_kana": "カゴシマケン",
    "prefecture_code": 46,
    "city": "西之表市",
    "city_kana": "ニシノオモテシ",
    "town": "桜が丘",
    "town_kana": "サクラガオカ",
    "street": null,
    "office_name": null,
    "office_name_kana": null
  },
  "3118": {
    "postcode": "8913118",
    "prefecture": "鹿児島県",
    "prefecture_kana": "カゴシマケン",
    "prefecture_code": 46,
    "city": "西之表市",
    "city_kana": "ニシノオモテシ",
    "town": "馬毛島",
    "town_kana": "マゲシマ",
    "street": null,
    "office_name": null,
    "office_name_kana": null
  },
  "3192": {
    "postcode": "8913192",
    "prefecture": "鹿児島県",
    "prefecture_kana": "カゴシマケン",
    "prefecture_code": 46,
    "city": "西之表市",
    "city_kana": "ニシノオモテシ",
    "town": "西之表",
    "town_kana": "ニシノオモテ",
    "street": "７５９０",
    "office_name": "鹿児島県庁　熊毛支庁",
    "office_name_kana": "カゴシマケンチヨウ クマゲシチヨウ"
  },
  "3193": {
    "postcode": "8913193",
    "prefecture": "鹿児島県",
    "prefecture_kana": "カゴシマケン",
    "prefecture_code": 46,
    "city": "西之表市",
    "city_kana": "ニシノオモテシ",
    "town": "西之表",
    "town_kana": "ニシノオモテ",
    "street": "７６１２",
    "office_name": "西之表市役所",
    "office_name_kana": "ニシノオモテシヤクシヨ"
  },
  "3194": {
    "postcode": "8913194",
    "prefecture": "鹿児島県",
    "prefecture_kana": "カゴシマケン",
    "prefecture_code": 46,
    "city": "西之表市",
    "city_kana": "ニシノオモテシ",
    "town": "西之表",
    "town_kana": "ニシノオモテ",
    "street": "９７８６（種子島郵便局私書箱第１号）",
    "office_name": "種子島　税務署",
    "office_name_kana": "タネガシマ ゼイムシヨ"
  },
  "3195": {
    "postcode": "8913195",
    "prefecture": "鹿児島県",
    "prefecture_kana": "カゴシマケン",
    "prefecture_code": 46,
    "city": "西之表市",
    "city_kana": "ニシノオモテシ",
    "town": "西之表",
    "town_kana": "ニシノオモテ",
    "street": "７３７６",
    "office_name": "鹿児島県立　種子島高等学校",
    "office_name_kana": "カゴシマケンリツ タネガシマコウトウガツコウ"
  },
  "3196": {
    "postcode": "8913196",
    "prefecture": "鹿児島県",
    "prefecture_kana": "カゴシマケン",
    "prefecture_code": 46,
    "city": "西之表市",
    "city_kana": "ニシノオモテシ",
    "town": "西之表",
    "town_kana": "ニシノオモテ",
    "street": "９６０７−１",
    "office_name": "鹿児島県立　種子島実業高等学校",
    "office_name_kana": "カゴシマケンリツ タネガシマジツギヨウコウトウガツコウ"
  },
  "3198": {
    "postcode": "8913198",
    "prefecture": "鹿児島県",
    "prefecture_kana": "カゴシマケン",
    "prefecture_code": 46,
    "city": "西之表市",
    "city_kana": "ニシノオモテシ",
    "town": "西之表",
    "town_kana": "ニシノオモテ",
    "street": "７４６３",
    "office_name": "田上病院",
    "office_name_kana": "タノウエビヨウイン"
  },
  "3202": {
    "postcode": "8913202",
    "prefecture": "鹿児島県",
    "prefecture_kana": "カゴシマケン",
    "prefecture_code": 46,
    "city": "西之表市",
    "city_kana": "ニシノオモテシ",
    "town": "安納",
    "town_kana": "アンノウ",
    "street": null,
    "office_name": null,
    "office_name_kana": null
  },
  "3221": {
    "postcode": "8913221",
    "prefecture": "鹿児島県",
    "prefecture_kana": "カゴシマケン",
    "prefecture_code": 46,
    "city": "西之表市",
    "city_kana": "ニシノオモテシ",
    "town": "伊関",
    "town_kana": "イセキ",
    "street": null,
    "office_name": null,
    "office_name_kana": null
  },
  "3222": {
    "postcode": "8913222",
    "prefecture": "鹿児島県",
    "prefecture_kana": "カゴシマケン",
    "prefecture_code": 46,
    "city": "西之表市",
    "city_kana": "ニシノオモテシ",
    "town": "国上",
    "town_kana": "クニガミ",
    "street": null,
    "office_name": null,
    "office_name_kana": null
  },
  "3431": {
    "postcode": "8913431",
    "prefecture": "鹿児島県",
    "prefecture_kana": "カゴシマケン",
    "prefecture_code": 46,
    "city": "西之表市",
    "city_kana": "ニシノオモテシ",
    "town": "古田",
    "town_kana": "フルタ",
    "street": null,
    "office_name": null,
    "office_name_kana": null
  },
  "3432": {
    "postcode": "8913432",
    "prefecture": "鹿児島県",
    "prefecture_kana": "カゴシマケン",
    "prefecture_code": 46,
    "city": "西之表市",
    "city_kana": "ニシノオモテシ",
    "town": "安城",
    "town_kana": "アンジョウ",
    "street": null,
    "office_name": null,
    "office_name_kana": null
  },
  "3600": {
    "postcode": "8913600",
    "prefecture": "鹿児島県",
    "prefecture_kana": "カゴシマケン",
    "prefecture_code": 46,
    "city": "熊毛郡中種子町",
    "city_kana": "クマゲグンナカタネチョウ",
    "town": "",
    "town_kana": "",
    "street": null,
    "office_name": null,
    "office_name_kana": null
  },
  "3601": {
    "postcode": "8913601",
    "prefecture": "鹿児島県",
    "prefecture_kana": "カゴシマケン",
    "prefecture_code": 46,
    "city": "熊毛郡中種子町",
    "city_kana": "クマゲグンナカタネチョウ",
    "town": "納官",
    "town_kana": "ノウカン",
    "street": null,
    "office_name": null,
    "office_name_kana": null
  },
  "3602": {
    "postcode": "8913602",
    "prefecture": "鹿児島県",
    "prefecture_kana": "カゴシマケン",
    "prefecture_code": 46,
    "city": "熊毛郡中種子町",
    "city_kana": "クマゲグンナカタネチョウ",
    "town": "牧川",
    "town_kana": "マキガワ",
    "street": null,
    "office_name": null,
    "office_name_kana": null
  },
  "3603": {
    "postcode": "8913603",
    "prefecture": "鹿児島県",
    "prefecture_kana": "カゴシマケン",
    "prefecture_code": 46,
    "city": "熊毛郡中種子町",
    "city_kana": "クマゲグンナカタネチョウ",
    "town": "増田",
    "town_kana": "マスダ",
    "street": null,
    "office_name": null,
    "office_name_kana": null
  },
  "3604": {
    "postcode": "8913604",
    "prefecture": "鹿児島県",
    "prefecture_kana": "カゴシマケン",
    "prefecture_code": 46,
    "city": "熊毛郡中種子町",
    "city_kana": "クマゲグンナカタネチョウ",
    "town": "野間",
    "town_kana": "ノマ",
    "street": null,
    "office_name": null,
    "office_name_kana": null
  },
  "3605": {
    "postcode": "8913605",
    "prefecture": "鹿児島県",
    "prefecture_kana": "カゴシマケン",
    "prefecture_code": 46,
    "city": "熊毛郡中種子町",
    "city_kana": "クマゲグンナカタネチョウ",
    "town": "油久",
    "town_kana": "ユク",
    "street": null,
    "office_name": null,
    "office_name_kana": null
  },
  "3606": {
    "postcode": "8913606",
    "prefecture": "鹿児島県",
    "prefecture_kana": "カゴシマケン",
    "prefecture_code": 46,
    "city": "熊毛郡中種子町",
    "city_kana": "クマゲグンナカタネチョウ",
    "town": "坂井",
    "town_kana": "サカイ",
    "street": null,
    "office_name": null,
    "office_name_kana": null
  },
  "3607": {
    "postcode": "8913607",
    "prefecture": "鹿児島県",
    "prefecture_kana": "カゴシマケン",
    "prefecture_code": 46,
    "city": "熊毛郡中種子町",
    "city_kana": "クマゲグンナカタネチョウ",
    "town": "田島",
    "town_kana": "タシマ",
    "street": null,
    "office_name": null,
    "office_name_kana": null
  },
  "3692": {
    "postcode": "8913692",
    "prefecture": "鹿児島県",
    "prefecture_kana": "カゴシマケン",
    "prefecture_code": 46,
    "city": "熊毛郡中種子町",
    "city_kana": "クマゲグンナカタネチョウ",
    "town": "野間",
    "town_kana": "ノマ",
    "street": "５１８６",
    "office_name": "中種子町役場",
    "office_name_kana": "ナカタネチヨウヤクバ"
  },
  "3693": {
    "postcode": "8913693",
    "prefecture": "鹿児島県",
    "prefecture_kana": "カゴシマケン",
    "prefecture_code": 46,
    "city": "熊毛郡中種子町",
    "city_kana": "クマゲグンナカタネチョウ",
    "town": "野間",
    "town_kana": "ノマ",
    "street": "５２８１",
    "office_name": "鹿児島くまげ農業協同組合",
    "office_name_kana": "カゴシマクマゲノウギヨウキヨウドウクミアイ"
  },
  "3700": {
    "postcode": "8913700",
    "prefecture": "鹿児島県",
    "prefecture_kana": "カゴシマケン",
    "prefecture_code": 46,
    "city": "熊毛郡南種子町",
    "city_kana": "クマゲグンミナミタネチョウ",
    "town": "",
    "town_kana": "",
    "street": null,
    "office_name": null,
    "office_name_kana": null
  },
  "3701": {
    "postcode": "8913701",
    "prefecture": "鹿児島県",
    "prefecture_kana": "カゴシマケン",
    "prefecture_code": 46,
    "city": "熊毛郡南種子町",
    "city_kana": "クマゲグンミナミタネチョウ",
    "town": "中之上",
    "town_kana": "ナカノカミ",
    "street": null,
    "office_name": null,
    "office_name_kana": null
  },
  "3702": {
    "postcode": "8913702",
    "prefecture": "鹿児島県",
    "prefecture_kana": "カゴシマケン",
    "prefecture_code": 46,
    "city": "熊毛郡南種子町",
    "city_kana": "クマゲグンミナミタネチョウ",
    "town": "平山",
    "town_kana": "ヒラヤマ",
    "street": null,
    "office_name": null,
    "office_name_kana": null
  },
  "3703": {
    "postcode": "8913703",
    "prefecture": "鹿児島県",
    "prefecture_kana": "カゴシマケン",
    "prefecture_code": 46,
    "city": "熊毛郡南種子町",
    "city_kana": "クマゲグンミナミタネチョウ",
    "town": "茎永",
    "town_kana": "クキナガ",
    "street": null,
    "office_name": null,
    "office_name_kana": null
  },
  "3704": {
    "postcode": "8913704",
    "prefecture": "鹿児島県",
    "prefecture_kana": "カゴシマケン",
    "prefecture_code": 46,
    "city": "熊毛郡南種子町",
    "city_kana": "クマゲグンミナミタネチョウ",
    "town": "中之下",
    "town_kana": "ナカノシモ",
    "street": null,
    "office_name": null,
    "office_name_kana": null
  },
  "3705": {
    "postcode": "8913705",
    "prefecture": "鹿児島県",
    "prefecture_kana": "カゴシマケン",
    "prefecture_code": 46,
    "city": "熊毛郡南種子町",
    "city_kana": "クマゲグンミナミタネチョウ",
    "town": "西之",
    "town_kana": "ニシノ",
    "street": null,
    "office_name": null,
    "office_name_kana": null
  },
  "3706": {
    "postcode": "8913706",
    "prefecture": "鹿児島県",
    "prefecture_kana": "カゴシマケン",
    "prefecture_code": 46,
    "city": "熊毛郡南種子町",
    "city_kana": "クマゲグンミナミタネチョウ",
    "town": "島間",
    "town_kana": "シママ",
    "street": null,
    "office_name": null,
    "office_name_kana": null
  },
  "3792": {
    "postcode": "8913792",
    "prefecture": "鹿児島県",
    "prefecture_kana": "カゴシマケン",
    "prefecture_code": 46,
    "city": "熊毛郡南種子町",
    "city_kana": "クマゲグンミナミタネチョウ",
    "town": "中之上",
    "town_kana": "ナカノカミ",
    "street": "２７９３−１",
    "office_name": "南種子町役場",
    "office_name_kana": "ミナミタネチヨウヤクバ"
  },
  "3793": {
    "postcode": "8913793",
    "prefecture": "鹿児島県",
    "prefecture_kana": "カゴシマケン",
    "prefecture_code": 46,
    "city": "熊毛郡南種子町",
    "city_kana": "クマゲグンミナミタネチョウ",
    "town": "茎永",
    "town_kana": "クキナガ",
    "street": "麻津",
    "office_name": "宇宙航空研究開発機構　鹿児島宇宙センター",
    "office_name_kana": "ウチユウコウクウケンキユウカイハツキコウ カゴシマウチユウセンタ-"
  },
  "4200": {
    "postcode": "8914200",
    "prefecture": "鹿児島県",
    "prefecture_kana": "カゴシマケン",
    "prefecture_code": 46,
    "city": "熊毛郡屋久島町",
    "city_kana": "クマゲグンヤクシマチョウ",
    "town": "",
    "town_kana": "",
    "street": null,
    "office_name": null,
    "office_name_kana": null
  },
  "4201": {
    "postcode": "8914201",
    "prefecture": "鹿児島県",
    "prefecture_kana": "カゴシマケン",
    "prefecture_code": 46,
    "city": "熊毛郡屋久島町",
    "city_kana": "クマゲグンヤクシマチョウ",
    "town": "永田",
    "town_kana": "ナガタ",
    "street": null,
    "office_name": null,
    "office_name_kana": null
  },
  "4202": {
    "postcode": "8914202",
    "prefecture": "鹿児島県",
    "prefecture_kana": "カゴシマケン",
    "prefecture_code": 46,
    "city": "熊毛郡屋久島町",
    "city_kana": "クマゲグンヤクシマチョウ",
    "town": "吉田",
    "town_kana": "ヨシダ",
    "street": null,
    "office_name": null,
    "office_name_kana": null
  },
  "4203": {
    "postcode": "8914203",
    "prefecture": "鹿児島県",
    "prefecture_kana": "カゴシマケン",
    "prefecture_code": 46,
    "city": "熊毛郡屋久島町",
    "city_kana": "クマゲグンヤクシマチョウ",
    "town": "一湊",
    "town_kana": "イッソウ",
    "street": null,
    "office_name": null,
    "office_name_kana": null
  },
  "4204": {
    "postcode": "8914204",
    "prefecture": "鹿児島県",
    "prefecture_kana": "カゴシマケン",
    "prefecture_code": 46,
    "city": "熊毛郡屋久島町",
    "city_kana": "クマゲグンヤクシマチョウ",
    "town": "志戸子",
    "town_kana": "シトゴ",
    "street": null,
    "office_name": null,
    "office_name_kana": null
  },
  "4205": {
    "postcode": "8914205",
    "prefecture": "鹿児島県",
    "prefecture_kana": "カゴシマケン",
    "prefecture_code": 46,
    "city": "熊毛郡屋久島町",
    "city_kana": "クマゲグンヤクシマチョウ",
    "town": "宮之浦",
    "town_kana": "ミヤノウラ",
    "street": null,
    "office_name": null,
    "office_name_kana": null
  },
  "4206": {
    "postcode": "8914206",
    "prefecture": "鹿児島県",
    "prefecture_kana": "カゴシマケン",
    "prefecture_code": 46,
    "city": "熊毛郡屋久島町",
    "city_kana": "クマゲグンヤクシマチョウ",
    "town": "楠川",
    "town_kana": "クスガワ",
    "street": null,
    "office_name": null,
    "office_name_kana": null
  },
  "4207": {
    "postcode": "8914207",
    "prefecture": "鹿児島県",
    "prefecture_kana": "カゴシマケン",
    "prefecture_code": 46,
    "city": "熊毛郡屋久島町",
    "city_kana": "クマゲグンヤクシマチョウ",
    "town": "小瀬田",
    "town_kana": "コセダ",
    "street": null,
    "office_name": null,
    "office_name_kana": null
  },
  "4208": {
    "postcode": "8914208",
    "prefecture": "鹿児島県",
    "prefecture_kana": "カゴシマケン",
    "prefecture_code": 46,
    "city": "熊毛郡屋久島町",
    "city_kana": "クマゲグンヤクシマチョウ",
    "town": "口永良部島",
    "town_kana": "クチエラブジマ",
    "street": null,
    "office_name": null,
    "office_name_kana": null
  },
  "4292": {
    "postcode": "8914292",
    "prefecture": "鹿児島県",
    "prefecture_kana": "カゴシマケン",
    "prefecture_code": 46,
    "city": "熊毛郡屋久島町",
    "city_kana": "クマゲグンヤクシマチョウ",
    "town": "小瀬田",
    "town_kana": "コセダ",
    "street": "８４９番地２０",
    "office_name": "屋久島町役場",
    "office_name_kana": "ヤクシマチヨウヤクバ"
  },
  "4311": {
    "postcode": "8914311",
    "prefecture": "鹿児島県",
    "prefecture_kana": "カゴシマケン",
    "prefecture_code": 46,
    "city": "熊毛郡屋久島町",
    "city_kana": "クマゲグンヤクシマチョウ",
    "town": "安房",
    "town_kana": "アンボウ",
    "street": null,
    "office_name": null,
    "office_name_kana": null
  },
  "4312": {
    "postcode": "8914312",
    "prefecture": "鹿児島県",
    "prefecture_kana": "カゴシマケン",
    "prefecture_code": 46,
    "city": "熊毛郡屋久島町",
    "city_kana": "クマゲグンヤクシマチョウ",
    "town": "船行",
    "town_kana": "フナユキ",
    "street": null,
    "office_name": null,
    "office_name_kana": null
  },
  "4401": [
    {
      "postcode": "8914401",
      "prefecture": "鹿児島県",
      "prefecture_kana": "カゴシマケン",
      "prefecture_code": 46,
      "city": "熊毛郡屋久島町",
      "city_kana": "クマゲグンヤクシマチョウ",
      "town": "麦生",
      "town_kana": "ムギオ",
      "street": null,
      "office_name": null,
      "office_name_kana": null
    },
    {
      "postcode": "8914401",
      "prefecture": "鹿児島県",
      "prefecture_kana": "カゴシマケン",
      "prefecture_code": 46,
      "city": "熊毛郡屋久島町",
      "city_kana": "クマゲグンヤクシマチョウ",
      "town": "麦生高平",
      "town_kana": "ムギオタカビラ",
      "street": null,
      "office_name": null,
      "office_name_kana": null
    }
  ],
  "4402": {
    "postcode": "8914402",
    "prefecture": "鹿児島県",
    "prefecture_kana": "カゴシマケン",
    "prefecture_code": 46,
    "city": "熊毛郡屋久島町",
    "city_kana": "クマゲグンヤクシマチョウ",
    "town": "麦生",
    "town_kana": "ムギオ",
    "street": null,
    "office_name": null,
    "office_name_kana": null
  },
  "4403": {
    "postcode": "8914403",
    "prefecture": "鹿児島県",
    "prefecture_kana": "カゴシマケン",
    "prefecture_code": 46,
    "city": "熊毛郡屋久島町",
    "city_kana": "クマゲグンヤクシマチョウ",
    "town": "原",
    "town_kana": "ハラ",
    "street": null,
    "office_name": null,
    "office_name_kana": null
  },
  "4404": {
    "postcode": "8914404",
    "prefecture": "鹿児島県",
    "prefecture_kana": "カゴシマケン",
    "prefecture_code": 46,
    "city": "熊毛郡屋久島町",
    "city_kana": "クマゲグンヤクシマチョウ",
    "town": "尾之間",
    "town_kana": "オノアイダ",
    "street": null,
    "office_name": null,
    "office_name_kana": null
  },
  "4405": {
    "postcode": "8914405",
    "prefecture": "鹿児島県",
    "prefecture_kana": "カゴシマケン",
    "prefecture_code": 46,
    "city": "熊毛郡屋久島町",
    "city_kana": "クマゲグンヤクシマチョウ",
    "town": "小島",
    "town_kana": "コシマ",
    "street": null,
    "office_name": null,
    "office_name_kana": null
  },
  "4406": {
    "postcode": "8914406",
    "prefecture": "鹿児島県",
    "prefecture_kana": "カゴシマケン",
    "prefecture_code": 46,
    "city": "熊毛郡屋久島町",
    "city_kana": "クマゲグンヤクシマチョウ",
    "town": "平内",
    "town_kana": "ヒラウチ",
    "street": null,
    "office_name": null,
    "office_name_kana": null
  },
  "4407": {
    "postcode": "8914407",
    "prefecture": "鹿児島県",
    "prefecture_kana": "カゴシマケン",
    "prefecture_code": 46,
    "city": "熊毛郡屋久島町",
    "city_kana": "クマゲグンヤクシマチョウ",
    "town": "湯泊",
    "town_kana": "ユドマリ",
    "street": null,
    "office_name": null,
    "office_name_kana": null
  },
  "4408": {
    "postcode": "8914408",
    "prefecture": "鹿児島県",
    "prefecture_kana": "カゴシマケン",
    "prefecture_code": 46,
    "city": "熊毛郡屋久島町",
    "city_kana": "クマゲグンヤクシマチョウ",
    "town": "中間",
    "town_kana": "ナカマ",
    "street": null,
    "office_name": null,
    "office_name_kana": null
  },
  "4409": {
    "postcode": "8914409",
    "prefecture": "鹿児島県",
    "prefecture_kana": "カゴシマケン",
    "prefecture_code": 46,
    "city": "熊毛郡屋久島町",
    "city_kana": "クマゲグンヤクシマチョウ",
    "town": "栗生",
    "town_kana": "クリオ",
    "street": null,
    "office_name": null,
    "office_name_kana": null
  },
  "5101": {
    "postcode": "8915101",
    "prefecture": "鹿児島県",
    "prefecture_kana": "カゴシマケン",
    "prefecture_code": 46,
    "city": "鹿児島郡十島村",
    "city_kana": "カゴシマグントシマムラ",
    "town": "口之島",
    "town_kana": "クチノシマ",
    "street": null,
    "office_name": null,
    "office_name_kana": null
  },
  "5200": {
    "postcode": "8915200",
    "prefecture": "鹿児島県",
    "prefecture_kana": "カゴシマケン",
    "prefecture_code": 46,
    "city": "鹿児島郡十島村",
    "city_kana": "カゴシマグントシマムラ",
    "town": "",
    "town_kana": "",
    "street": null,
    "office_name": null,
    "office_name_kana": null
  },
  "5201": {
    "postcode": "8915201",
    "prefecture": "鹿児島県",
    "prefecture_kana": "カゴシマケン",
    "prefecture_code": 46,
    "city": "鹿児島郡十島村",
    "city_kana": "カゴシマグントシマムラ",
    "town": "中之島",
    "town_kana": "ナカノシマ",
    "street": null,
    "office_name": null,
    "office_name_kana": null
  },
  "5202": {
    "postcode": "8915202",
    "prefecture": "鹿児島県",
    "prefecture_kana": "カゴシマケン",
    "prefecture_code": 46,
    "city": "鹿児島郡十島村",
    "city_kana": "カゴシマグントシマムラ",
    "town": "平島",
    "town_kana": "タイラジマ",
    "street": null,
    "office_name": null,
    "office_name_kana": null
  },
  "5203": {
    "postcode": "8915203",
    "prefecture": "鹿児島県",
    "prefecture_kana": "カゴシマケン",
    "prefecture_code": 46,
    "city": "鹿児島郡十島村",
    "city_kana": "カゴシマグントシマムラ",
    "town": "諏訪之瀬島",
    "town_kana": "スワノセジマ",
    "street": null,
    "office_name": null,
    "office_name_kana": null
  },
  "5204": {
    "postcode": "8915204",
    "prefecture": "鹿児島県",
    "prefecture_kana": "カゴシマケン",
    "prefecture_code": 46,
    "city": "鹿児島郡十島村",
    "city_kana": "カゴシマグントシマムラ",
    "town": "悪石島",
    "town_kana": "アクセキジマ",
    "street": null,
    "office_name": null,
    "office_name_kana": null
  },
  "5205": {
    "postcode": "8915205",
    "prefecture": "鹿児島県",
    "prefecture_kana": "カゴシマケン",
    "prefecture_code": 46,
    "city": "鹿児島郡十島村",
    "city_kana": "カゴシマグントシマムラ",
    "town": "小宝島",
    "town_kana": "コダカラジマ",
    "street": null,
    "office_name": null,
    "office_name_kana": null
  },
  "5301": {
    "postcode": "8915301",
    "prefecture": "鹿児島県",
    "prefecture_kana": "カゴシマケン",
    "prefecture_code": 46,
    "city": "鹿児島郡十島村",
    "city_kana": "カゴシマグントシマムラ",
    "town": "宝島",
    "town_kana": "タカラジマ",
    "street": null,
    "office_name": null,
    "office_name_kana": null
  },
  "6141": {
    "postcode": "8916141",
    "prefecture": "鹿児島県",
    "prefecture_kana": "カゴシマケン",
    "prefecture_code": 46,
    "city": "大島郡喜界町",
    "city_kana": "オオシマグンキカイチョウ",
    "town": "伊実久",
    "town_kana": "イサネク",
    "street": null,
    "office_name": null,
    "office_name_kana": null
  },
  "6142": {
    "postcode": "8916142",
    "prefecture": "鹿児島県",
    "prefecture_kana": "カゴシマケン",
    "prefecture_code": 46,
    "city": "大島郡喜界町",
    "city_kana": "オオシマグンキカイチョウ",
    "town": "小野津",
    "town_kana": "オノツ",
    "street": null,
    "office_name": null,
    "office_name_kana": null
  },
  "6143": {
    "postcode": "8916143",
    "prefecture": "鹿児島県",
    "prefecture_kana": "カゴシマケン",
    "prefecture_code": 46,
    "city": "大島郡喜界町",
    "city_kana": "オオシマグンキカイチョウ",
    "town": "志戸桶",
    "town_kana": "シトオケ",
    "street": null,
    "office_name": null,
    "office_name_kana": null
  },
  "6144": {
    "postcode": "8916144",
    "prefecture": "鹿児島県",
    "prefecture_kana": "カゴシマケン",
    "prefecture_code": 46,
    "city": "大島郡喜界町",
    "city_kana": "オオシマグンキカイチョウ",
    "town": "佐手久",
    "town_kana": "サデク",
    "street": null,
    "office_name": null,
    "office_name_kana": null
  },
  "6151": {
    "postcode": "8916151",
    "prefecture": "鹿児島県",
    "prefecture_kana": "カゴシマケン",
    "prefecture_code": 46,
    "city": "大島郡喜界町",
    "city_kana": "オオシマグンキカイチョウ",
    "town": "塩道",
    "town_kana": "シオミチ",
    "street": null,
    "office_name": null,
    "office_name_kana": null
  },
  "6152": {
    "postcode": "8916152",
    "prefecture": "鹿児島県",
    "prefecture_kana": "カゴシマケン",
    "prefecture_code": 46,
    "city": "大島郡喜界町",
    "city_kana": "オオシマグンキカイチョウ",
    "town": "早町",
    "town_kana": "ソウマチ",
    "street": null,
    "office_name": null,
    "office_name_kana": null
  },
  "6153": {
    "postcode": "8916153",
    "prefecture": "鹿児島県",
    "prefecture_kana": "カゴシマケン",
    "prefecture_code": 46,
    "city": "大島郡喜界町",
    "city_kana": "オオシマグンキカイチョウ",
    "town": "長嶺",
    "town_kana": "ナガミネ",
    "street": null,
    "office_name": null,
    "office_name_kana": null
  },
  "6154": {
    "postcode": "8916154",
    "prefecture": "鹿児島県",
    "prefecture_kana": "カゴシマケン",
    "prefecture_code": 46,
    "city": "大島郡喜界町",
    "city_kana": "オオシマグンキカイチョウ",
    "town": "白水",
    "town_kana": "シラミズ",
    "street": null,
    "office_name": null,
    "office_name_kana": null
  },
  "6161": {
    "postcode": "8916161",
    "prefecture": "鹿児島県",
    "prefecture_kana": "カゴシマケン",
    "prefecture_code": 46,
    "city": "大島郡喜界町",
    "city_kana": "オオシマグンキカイチョウ",
    "town": "嘉鈍",
    "town_kana": "カドン",
    "street": null,
    "office_name": null,
    "office_name_kana": null
  },
  "6162": {
    "postcode": "8916162",
    "prefecture": "鹿児島県",
    "prefecture_kana": "カゴシマケン",
    "prefecture_code": 46,
    "city": "大島郡喜界町",
    "city_kana": "オオシマグンキカイチョウ",
    "town": "阿伝",
    "town_kana": "アデン",
    "street": null,
    "office_name": null,
    "office_name_kana": null
  },
  "6163": [
    {
      "postcode": "8916163",
      "prefecture": "鹿児島県",
      "prefecture_kana": "カゴシマケン",
      "prefecture_code": 46,
      "city": "大島郡喜界町",
      "city_kana": "オオシマグンキカイチョウ",
      "town": "花良治",
      "town_kana": "ケラジ",
      "street": null,
      "office_name": null,
      "office_name_kana": null
    },
    {
      "postcode": "8916163",
      "prefecture": "鹿児島県",
      "prefecture_kana": "カゴシマケン",
      "prefecture_code": 46,
      "city": "大島郡喜界町",
      "city_kana": "オオシマグンキカイチョウ",
      "town": "花良治蒲生",
      "town_kana": "ケラジガモウ",
      "street": null,
      "office_name": null,
      "office_name_kana": null
    }
  ],
  "6164": {
    "postcode": "8916164",
    "prefecture": "鹿児島県",
    "prefecture_kana": "カゴシマケン",
    "prefecture_code": 46,
    "city": "大島郡喜界町",
    "city_kana": "オオシマグンキカイチョウ",
    "town": "花良治",
    "town_kana": "ケラジ",
    "street": null,
    "office_name": null,
    "office_name_kana": null
  },
  "6200": {
    "postcode": "8916200",
    "prefecture": "鹿児島県",
    "prefecture_kana": "カゴシマケン",
    "prefecture_code": 46,
    "city": "大島郡喜界町",
    "city_kana": "オオシマグンキカイチョウ",
    "town": "",
    "town_kana": "",
    "street": null,
    "office_name": null,
    "office_name_kana": null
  },
  "6201": {
    "postcode": "8916201",
    "prefecture": "鹿児島県",
    "prefecture_kana": "カゴシマケン",
    "prefecture_code": 46,
    "city": "大島郡喜界町",
    "city_kana": "オオシマグンキカイチョウ",
    "town": "赤連",
    "town_kana": "アカレン",
    "street": null,
    "office_name": null,
    "office_name_kana": null
  },
  "6202": {
    "postcode": "8916202",
    "prefecture": "鹿児島県",
    "prefecture_kana": "カゴシマケン",
    "prefecture_code": 46,
    "city": "大島郡喜界町",
    "city_kana": "オオシマグンキカイチョウ",
    "town": "湾",
    "town_kana": "ワン",
    "street": null,
    "office_name": null,
    "office_name_kana": null
  },
  "6203": {
    "postcode": "8916203",
    "prefecture": "鹿児島県",
    "prefecture_kana": "カゴシマケン",
    "prefecture_code": 46,
    "city": "大島郡喜界町",
    "city_kana": "オオシマグンキカイチョウ",
    "town": "中里",
    "town_kana": "ナカサト",
    "street": null,
    "office_name": null,
    "office_name_kana": null
  },
  "6211": {
    "postcode": "8916211",
    "prefecture": "鹿児島県",
    "prefecture_kana": "カゴシマケン",
    "prefecture_code": 46,
    "city": "大島郡喜界町",
    "city_kana": "オオシマグンキカイチョウ",
    "town": "中間",
    "town_kana": "ナカマ",
    "street": null,
    "office_name": null,
    "office_name_kana": null
  },
  "6212": [
    {
      "postcode": "8916212",
      "prefecture": "鹿児島県",
      "prefecture_kana": "カゴシマケン",
      "prefecture_code": 46,
      "city": "大島郡喜界町",
      "city_kana": "オオシマグンキカイチョウ",
      "town": "中熊",
      "town_kana": "ナカグマ",
      "street": null,
      "office_name": null,
      "office_name_kana": null
    },
    {
      "postcode": "8916212",
      "prefecture": "鹿児島県",
      "prefecture_kana": "カゴシマケン",
      "prefecture_code": 46,
      "city": "大島郡喜界町",
      "city_kana": "オオシマグンキカイチョウ",
      "town": "中熊先内",
      "town_kana": "ナカグマサキナイ",
      "street": null,
      "office_name": null,
      "office_name_kana": null
    }
  ],
  "6213": {
    "postcode": "8916213",
    "prefecture": "鹿児島県",
    "prefecture_kana": "カゴシマケン",
    "prefecture_code": 46,
    "city": "大島郡喜界町",
    "city_kana": "オオシマグンキカイチョウ",
    "town": "大朝戸",
    "town_kana": "オオアサト",
    "street": null,
    "office_name": null,
    "office_name_kana": null
  },
  "6214": {
    "postcode": "8916214",
    "prefecture": "鹿児島県",
    "prefecture_kana": "カゴシマケン",
    "prefecture_code": 46,
    "city": "大島郡喜界町",
    "city_kana": "オオシマグンキカイチョウ",
    "town": "西目",
    "town_kana": "ニシメ",
    "street": null,
    "office_name": null,
    "office_name_kana": null
  },
  "6215": {
    "postcode": "8916215",
    "prefecture": "鹿児島県",
    "prefecture_kana": "カゴシマケン",
    "prefecture_code": 46,
    "city": "大島郡喜界町",
    "city_kana": "オオシマグンキカイチョウ",
    "town": "中熊",
    "town_kana": "ナカグマ",
    "street": null,
    "office_name": null,
    "office_name_kana": null
  },
  "6216": {
    "postcode": "8916216",
    "prefecture": "鹿児島県",
    "prefecture_kana": "カゴシマケン",
    "prefecture_code": 46,
    "city": "大島郡喜界町",
    "city_kana": "オオシマグンキカイチョウ",
    "town": "坂嶺",
    "town_kana": "サカミネ",
    "street": null,
    "office_name": null,
    "office_name_kana": null
  },
  "6217": {
    "postcode": "8916217",
    "prefecture": "鹿児島県",
    "prefecture_kana": "カゴシマケン",
    "prefecture_code": 46,
    "city": "大島郡喜界町",
    "city_kana": "オオシマグンキカイチョウ",
    "town": "伊砂",
    "town_kana": "イサゴ",
    "street": null,
    "office_name": null,
    "office_name_kana": null
  },
  "6221": {
    "postcode": "8916221",
    "prefecture": "鹿児島県",
    "prefecture_kana": "カゴシマケン",
    "prefecture_code": 46,
    "city": "大島郡喜界町",
    "city_kana": "オオシマグンキカイチョウ",
    "town": "池治",
    "town_kana": "イケジ",
    "street": null,
    "office_name": null,
    "office_name_kana": null
  },
  "6222": {
    "postcode": "8916222",
    "prefecture": "鹿児島県",
    "prefecture_kana": "カゴシマケン",
    "prefecture_code": 46,
    "city": "大島郡喜界町",
    "city_kana": "オオシマグンキカイチョウ",
    "town": "島中",
    "town_kana": "シマナカ",
    "street": null,
    "office_name": null,
    "office_name_kana": null
  },
  "6223": {
    "postcode": "8916223",
    "prefecture": "鹿児島県",
    "prefecture_kana": "カゴシマケン",
    "prefecture_code": 46,
    "city": "大島郡喜界町",
    "city_kana": "オオシマグンキカイチョウ",
    "town": "滝川",
    "town_kana": "タキガワ",
    "street": null,
    "office_name": null,
    "office_name_kana": null
  },
  "6224": {
    "postcode": "8916224",
    "prefecture": "鹿児島県",
    "prefecture_kana": "カゴシマケン",
    "prefecture_code": 46,
    "city": "大島郡喜界町",
    "city_kana": "オオシマグンキカイチョウ",
    "town": "城久",
    "town_kana": "グスク",
    "street": null,
    "office_name": null,
    "office_name_kana": null
  },
  "6225": {
    "postcode": "8916225",
    "prefecture": "鹿児島県",
    "prefecture_kana": "カゴシマケン",
    "prefecture_code": 46,
    "city": "大島郡喜界町",
    "city_kana": "オオシマグンキカイチョウ",
    "town": "山田",
    "town_kana": "ヤマダ",
    "street": null,
    "office_name": null,
    "office_name_kana": null
  },
  "6226": {
    "postcode": "8916226",
    "prefecture": "鹿児島県",
    "prefecture_kana": "カゴシマケン",
    "prefecture_code": 46,
    "city": "大島郡喜界町",
    "city_kana": "オオシマグンキカイチョウ",
    "town": "羽里",
    "town_kana": "ハサト",
    "street": null,
    "office_name": null,
    "office_name_kana": null
  },
  "6227": {
    "postcode": "8916227",
    "prefecture": "鹿児島県",
    "prefecture_kana": "カゴシマケン",
    "prefecture_code": 46,
    "city": "大島郡喜界町",
    "city_kana": "オオシマグンキカイチョウ",
    "town": "川嶺",
    "town_kana": "カワミネ",
    "street": null,
    "office_name": null,
    "office_name_kana": null
  },
  "6228": {
    "postcode": "8916228",
    "prefecture": "鹿児島県",
    "prefecture_kana": "カゴシマケン",
    "prefecture_code": 46,
    "city": "大島郡喜界町",
    "city_kana": "オオシマグンキカイチョウ",
    "town": "浦原",
    "town_kana": "ウラハラ",
    "street": null,
    "office_name": null,
    "office_name_kana": null
  },
  "6229": {
    "postcode": "8916229",
    "prefecture": "鹿児島県",
    "prefecture_kana": "カゴシマケン",
    "prefecture_code": 46,
    "city": "大島郡喜界町",
    "city_kana": "オオシマグンキカイチョウ",
    "town": "先山",
    "town_kana": "サキヤマ",
    "street": null,
    "office_name": null,
    "office_name_kana": null
  },
  "6231": {
    "postcode": "8916231",
    "prefecture": "鹿児島県",
    "prefecture_kana": "カゴシマケン",
    "prefecture_code": 46,
    "city": "大島郡喜界町",
    "city_kana": "オオシマグンキカイチョウ",
    "town": "荒木",
    "town_kana": "アラキ",
    "street": null,
    "office_name": null,
    "office_name_kana": null
  },
  "6232": {
    "postcode": "8916232",
    "prefecture": "鹿児島県",
    "prefecture_kana": "カゴシマケン",
    "prefecture_code": 46,
    "city": "大島郡喜界町",
    "city_kana": "オオシマグンキカイチョウ",
    "town": "手久津久",
    "town_kana": "テクヅク",
    "street": null,
    "office_name": null,
    "office_name_kana": null
  },
  "6233": {
    "postcode": "8916233",
    "prefecture": "鹿児島県",
    "prefecture_kana": "カゴシマケン",
    "prefecture_code": 46,
    "city": "大島郡喜界町",
    "city_kana": "オオシマグンキカイチョウ",
    "town": "上嘉鉄",
    "town_kana": "カミカテツ",
    "street": null,
    "office_name": null,
    "office_name_kana": null
  },
  "6292": {
    "postcode": "8916292",
    "prefecture": "鹿児島県",
    "prefecture_kana": "カゴシマケン",
    "prefecture_code": 46,
    "city": "大島郡喜界町",
    "city_kana": "オオシマグンキカイチョウ",
    "town": "大字湾",
    "town_kana": null,
    "street": "６１",
    "office_name": "喜界町役場",
    "office_name_kana": "キカイチヨウヤクバ"
  },
  "7100": {
    "postcode": "8917100",
    "prefecture": "鹿児島県",
    "prefecture_kana": "カゴシマケン",
    "prefecture_code": 46,
    "city": "大島郡徳之島町",
    "city_kana": "オオシマグントクノシマチョウ",
    "town": "",
    "town_kana": "",
    "street": null,
    "office_name": null,
    "office_name_kana": null
  },
  "7101": {
    "postcode": "8917101",
    "prefecture": "鹿児島県",
    "prefecture_kana": "カゴシマケン",
    "prefecture_code": 46,
    "city": "大島郡徳之島町",
    "city_kana": "オオシマグントクノシマチョウ",
    "town": "亀津",
    "town_kana": "カメツ",
    "street": null,
    "office_name": null,
    "office_name_kana": null
  },
  "7102": {
    "postcode": "8917102",
    "prefecture": "鹿児島県",
    "prefecture_kana": "カゴシマケン",
    "prefecture_code": 46,
    "city": "大島郡徳之島町",
    "city_kana": "オオシマグントクノシマチョウ",
    "town": "亀徳",
    "town_kana": "カメトク",
    "street": null,
    "office_name": null,
    "office_name_kana": null
  },
  "7103": {
    "postcode": "8917103",
    "prefecture": "鹿児島県",
    "prefecture_kana": "カゴシマケン",
    "prefecture_code": 46,
    "city": "大島郡徳之島町",
    "city_kana": "オオシマグントクノシマチョウ",
    "town": "南原",
    "town_kana": "ミナミハラ",
    "street": null,
    "office_name": null,
    "office_name_kana": null
  },
  "7104": {
    "postcode": "8917104",
    "prefecture": "鹿児島県",
    "prefecture_kana": "カゴシマケン",
    "prefecture_code": 46,
    "city": "大島郡徳之島町",
    "city_kana": "オオシマグントクノシマチョウ",
    "town": "尾母",
    "town_kana": "オモ",
    "street": null,
    "office_name": null,
    "office_name_kana": null
  },
  "7105": {
    "postcode": "8917105",
    "prefecture": "鹿児島県",
    "prefecture_kana": "カゴシマケン",
    "prefecture_code": 46,
    "city": "大島郡徳之島町",
    "city_kana": "オオシマグントクノシマチョウ",
    "town": "白井",
    "town_kana": "シライ",
    "street": null,
    "office_name": null,
    "office_name_kana": null
  },
  "7111": {
    "postcode": "8917111",
    "prefecture": "鹿児島県",
    "prefecture_kana": "カゴシマケン",
    "prefecture_code": 46,
    "city": "大島郡徳之島町",
    "city_kana": "オオシマグントクノシマチョウ",
    "town": "徳和瀬",
    "town_kana": "トクワセ",
    "street": null,
    "office_name": null,
    "office_name_kana": null
  },
  "7112": {
    "postcode": "8917112",
    "prefecture": "鹿児島県",
    "prefecture_kana": "カゴシマケン",
    "prefecture_code": 46,
    "city": "大島郡徳之島町",
    "city_kana": "オオシマグントクノシマチョウ",
    "town": "諸田",
    "town_kana": "ショダ",
    "street": null,
    "office_name": null,
    "office_name_kana": null
  },
  "7113": {
    "postcode": "8917113",
    "prefecture": "鹿児島県",
    "prefecture_kana": "カゴシマケン",
    "prefecture_code": 46,
    "city": "大島郡徳之島町",
    "city_kana": "オオシマグントクノシマチョウ",
    "town": "神之嶺",
    "town_kana": "カミノミネ",
    "street": null,
    "office_name": null,
    "office_name_kana": null
  },
  "7114": {
    "postcode": "8917114",
    "prefecture": "鹿児島県",
    "prefecture_kana": "カゴシマケン",
    "prefecture_code": 46,
    "city": "大島郡徳之島町",
    "city_kana": "オオシマグントクノシマチョウ",
    "town": "井之川",
    "town_kana": "イノカワ",
    "street": null,
    "office_name": null,
    "office_name_kana": null
  },
  "7115": {
    "postcode": "8917115",
    "prefecture": "鹿児島県",
    "prefecture_kana": "カゴシマケン",
    "prefecture_code": 46,
    "city": "大島郡徳之島町",
    "city_kana": "オオシマグントクノシマチョウ",
    "town": "下久志",
    "town_kana": "シモクシ",
    "street": null,
    "office_name": null,
    "office_name_kana": null
  },
  "7116": {
    "postcode": "8917116",
    "prefecture": "鹿児島県",
    "prefecture_kana": "カゴシマケン",
    "prefecture_code": 46,
    "city": "大島郡徳之島町",
    "city_kana": "オオシマグントクノシマチョウ",
    "town": "旭ケ丘",
    "town_kana": "アサヒガオカ",
    "street": null,
    "office_name": null,
    "office_name_kana": null
  },
  "7192": {
    "postcode": "8917192",
    "prefecture": "鹿児島県",
    "prefecture_kana": "カゴシマケン",
    "prefecture_code": 46,
    "city": "大島郡徳之島町",
    "city_kana": "オオシマグントクノシマチョウ",
    "town": "亀津",
    "town_kana": "カメツ",
    "street": "７２０３番地",
    "office_name": "徳之島町役場",
    "office_name_kana": "トクノシマチヨウヤクバ"
  },
  "7421": {
    "postcode": "8917421",
    "prefecture": "鹿児島県",
    "prefecture_kana": "カゴシマケン",
    "prefecture_code": 46,
    "city": "大島郡徳之島町",
    "city_kana": "オオシマグントクノシマチョウ",
    "town": "手々",
    "town_kana": "テテ",
    "street": null,
    "office_name": null,
    "office_name_kana": null
  },
  "7422": {
    "postcode": "8917422",
    "prefecture": "鹿児島県",
    "prefecture_kana": "カゴシマケン",
    "prefecture_code": 46,
    "city": "大島郡徳之島町",
    "city_kana": "オオシマグントクノシマチョウ",
    "town": "金見",
    "town_kana": "カナミ",
    "street": null,
    "office_name": null,
    "office_name_kana": null
  },
  "7423": {
    "postcode": "8917423",
    "prefecture": "鹿児島県",
    "prefecture_kana": "カゴシマケン",
    "prefecture_code": 46,
    "city": "大島郡徳之島町",
    "city_kana": "オオシマグントクノシマチョウ",
    "town": "山",
    "town_kana": "サン",
    "street": null,
    "office_name": null,
    "office_name_kana": null
  },
  "7424": {
    "postcode": "8917424",
    "prefecture": "鹿児島県",
    "prefecture_kana": "カゴシマケン",
    "prefecture_code": 46,
    "city": "大島郡徳之島町",
    "city_kana": "オオシマグントクノシマチョウ",
    "town": "轟木",
    "town_kana": "トドロキ",
    "street": null,
    "office_name": null,
    "office_name_kana": null
  },
  "7425": {
    "postcode": "8917425",
    "prefecture": "鹿児島県",
    "prefecture_kana": "カゴシマケン",
    "prefecture_code": 46,
    "city": "大島郡徳之島町",
    "city_kana": "オオシマグントクノシマチョウ",
    "town": "花徳",
    "town_kana": "ケドク",
    "street": null,
    "office_name": null,
    "office_name_kana": null
  },
  "7426": {
    "postcode": "8917426",
    "prefecture": "鹿児島県",
    "prefecture_kana": "カゴシマケン",
    "prefecture_code": 46,
    "city": "大島郡徳之島町",
    "city_kana": "オオシマグントクノシマチョウ",
    "town": "母間",
    "town_kana": "ボマ",
    "street": null,
    "office_name": null,
    "office_name_kana": null
  },
  "7600": {
    "postcode": "8917600",
    "prefecture": "鹿児島県",
    "prefecture_kana": "カゴシマケン",
    "prefecture_code": 46,
    "city": "大島郡天城町",
    "city_kana": "オオシマグンアマギチョウ",
    "town": "",
    "town_kana": "",
    "street": null,
    "office_name": null,
    "office_name_kana": null
  },
  "7601": {
    "postcode": "8917601",
    "prefecture": "鹿児島県",
    "prefecture_kana": "カゴシマケン",
    "prefecture_code": 46,
    "city": "大島郡天城町",
    "city_kana": "オオシマグンアマギチョウ",
    "town": "与名間",
    "town_kana": "ヨナマ",
    "street": null,
    "office_name": null,
    "office_name_kana": null
  },
  "7602": {
    "postcode": "8917602",
    "prefecture": "鹿児島県",
    "prefecture_kana": "カゴシマケン",
    "prefecture_code": 46,
    "city": "大島郡天城町",
    "city_kana": "オオシマグンアマギチョウ",
    "town": "松原",
    "town_kana": "マツバラ",
    "street": null,
    "office_name": null,
    "office_name_kana": null
  },
  "7603": {
    "postcode": "8917603",
    "prefecture": "鹿児島県",
    "prefecture_kana": "カゴシマケン",
    "prefecture_code": 46,
    "city": "大島郡天城町",
    "city_kana": "オオシマグンアマギチョウ",
    "town": "岡前",
    "town_kana": "オカゼン",
    "street": null,
    "office_name": null,
    "office_name_kana": null
  },
  "7604": {
    "postcode": "8917604",
    "prefecture": "鹿児島県",
    "prefecture_kana": "カゴシマケン",
    "prefecture_code": 46,
    "city": "大島郡天城町",
    "city_kana": "オオシマグンアマギチョウ",
    "town": "前野",
    "town_kana": "マエノ",
    "street": null,
    "office_name": null,
    "office_name_kana": null
  },
  "7605": {
    "postcode": "8917605",
    "prefecture": "鹿児島県",
    "prefecture_kana": "カゴシマケン",
    "prefecture_code": 46,
    "city": "大島郡天城町",
    "city_kana": "オオシマグンアマギチョウ",
    "town": "浅間",
    "town_kana": "アサマ",
    "street": null,
    "office_name": null,
    "office_name_kana": null
  },
  "7611": {
    "postcode": "8917611",
    "prefecture": "鹿児島県",
    "prefecture_kana": "カゴシマケン",
    "prefecture_code": 46,
    "city": "大島郡天城町",
    "city_kana": "オオシマグンアマギチョウ",
    "town": "天城",
    "town_kana": "アマギ",
    "street": null,
    "office_name": null,
    "office_name_kana": null
  },
  "7612": {
    "postcode": "8917612",
    "prefecture": "鹿児島県",
    "prefecture_kana": "カゴシマケン",
    "prefecture_code": 46,
    "city": "大島郡天城町",
    "city_kana": "オオシマグンアマギチョウ",
    "town": "平土野",
    "town_kana": "ヘトノ",
    "street": null,
    "office_name": null,
    "office_name_kana": null
  },
  "7621": {
    "postcode": "8917621",
    "prefecture": "鹿児島県",
    "prefecture_kana": "カゴシマケン",
    "prefecture_code": 46,
    "city": "大島郡天城町",
    "city_kana": "オオシマグンアマギチョウ",
    "town": "兼久",
    "town_kana": "カネク",
    "street": null,
    "office_name": null,
    "office_name_kana": null
  },
  "7622": {
    "postcode": "8917622",
    "prefecture": "鹿児島県",
    "prefecture_kana": "カゴシマケン",
    "prefecture_code": 46,
    "city": "大島郡天城町",
    "city_kana": "オオシマグンアマギチョウ",
    "town": "大津川",
    "town_kana": "オオツカワ",
    "street": null,
    "office_name": null,
    "office_name_kana": null
  },
  "7623": {
    "postcode": "8917623",
    "prefecture": "鹿児島県",
    "prefecture_kana": "カゴシマケン",
    "prefecture_code": 46,
    "city": "大島郡天城町",
    "city_kana": "オオシマグンアマギチョウ",
    "town": "瀬滝",
    "town_kana": "セタキ",
    "street": null,
    "office_name": null,
    "office_name_kana": null
  },
  "7624": {
    "postcode": "8917624",
    "prefecture": "鹿児島県",
    "prefecture_kana": "カゴシマケン",
    "prefecture_code": 46,
    "city": "大島郡天城町",
    "city_kana": "オオシマグンアマギチョウ",
    "town": "当部",
    "town_kana": "トウベ",
    "street": null,
    "office_name": null,
    "office_name_kana": null
  },
  "7692": {
    "postcode": "8917692",
    "prefecture": "鹿児島県",
    "prefecture_kana": "カゴシマケン",
    "prefecture_code": 46,
    "city": "大島郡天城町",
    "city_kana": "オオシマグンアマギチョウ",
    "town": "大字平土野",
    "town_kana": null,
    "street": "２６９１番地１",
    "office_name": "天城町役場",
    "office_name_kana": "アマギチヨウヤクバ"
  },
  "7731": {
    "postcode": "8917731",
    "prefecture": "鹿児島県",
    "prefecture_kana": "カゴシマケン",
    "prefecture_code": 46,
    "city": "大島郡天城町",
    "city_kana": "オオシマグンアマギチョウ",
    "town": "西阿木名",
    "town_kana": "ニシアギナ",
    "street": null,
    "office_name": null,
    "office_name_kana": null
  },
  "8111": {
    "postcode": "8918111",
    "prefecture": "鹿児島県",
    "prefecture_kana": "カゴシマケン",
    "prefecture_code": 46,
    "city": "大島郡伊仙町",
    "city_kana": "オオシマグンイセンチョウ",
    "town": "喜念",
    "town_kana": "キネン",
    "street": null,
    "office_name": null,
    "office_name_kana": null
  },
  "8112": {
    "postcode": "8918112",
    "prefecture": "鹿児島県",
    "prefecture_kana": "カゴシマケン",
    "prefecture_code": 46,
    "city": "大島郡伊仙町",
    "city_kana": "オオシマグンイセンチョウ",
    "town": "佐弁",
    "town_kana": "サベン",
    "street": null,
    "office_name": null,
    "office_name_kana": null
  },
  "8113": {
    "postcode": "8918113",
    "prefecture": "鹿児島県",
    "prefecture_kana": "カゴシマケン",
    "prefecture_code": 46,
    "city": "大島郡伊仙町",
    "city_kana": "オオシマグンイセンチョウ",
    "town": "目手久",
    "town_kana": "メテグ",
    "street": null,
    "office_name": null,
    "office_name_kana": null
  },
  "8114": {
    "postcode": "8918114",
    "prefecture": "鹿児島県",
    "prefecture_kana": "カゴシマケン",
    "prefecture_code": 46,
    "city": "大島郡伊仙町",
    "city_kana": "オオシマグンイセンチョウ",
    "town": "面縄",
    "town_kana": "オモナワ",
    "street": null,
    "office_name": null,
    "office_name_kana": null
  },
  "8115": {
    "postcode": "8918115",
    "prefecture": "鹿児島県",
    "prefecture_kana": "カゴシマケン",
    "prefecture_code": 46,
    "city": "大島郡伊仙町",
    "city_kana": "オオシマグンイセンチョウ",
    "town": "古里",
    "town_kana": "フルサト",
    "street": null,
    "office_name": null,
    "office_name_kana": null
  },
  "8116": {
    "postcode": "8918116",
    "prefecture": "鹿児島県",
    "prefecture_kana": "カゴシマケン",
    "prefecture_code": 46,
    "city": "大島郡伊仙町",
    "city_kana": "オオシマグンイセンチョウ",
    "town": "検福",
    "town_kana": "ケンブク",
    "street": null,
    "office_name": null,
    "office_name_kana": null
  },
  "8117": {
    "postcode": "8918117",
    "prefecture": "鹿児島県",
    "prefecture_kana": "カゴシマケン",
    "prefecture_code": 46,
    "city": "大島郡伊仙町",
    "city_kana": "オオシマグンイセンチョウ",
    "town": "中山",
    "town_kana": "ナカヤマ",
    "street": null,
    "office_name": null,
    "office_name_kana": null
  },
  "8201": {
    "postcode": "8918201",
    "prefecture": "鹿児島県",
    "prefecture_kana": "カゴシマケン",
    "prefecture_code": 46,
    "city": "大島郡伊仙町",
    "city_kana": "オオシマグンイセンチョウ",
    "town": "伊仙",
    "town_kana": "イセン",
    "street": null,
    "office_name": null,
    "office_name_kana": null
  },
  "8216": {
    "postcode": "8918216",
    "prefecture": "鹿児島県",
    "prefecture_kana": "カゴシマケン",
    "prefecture_code": 46,
    "city": "大島郡伊仙町",
    "city_kana": "オオシマグンイセンチョウ",
    "town": "検福",
    "town_kana": "ケンブク",
    "street": null,
    "office_name": null,
    "office_name_kana": null
  },
  "8221": {
    "postcode": "8918221",
    "prefecture": "鹿児島県",
    "prefecture_kana": "カゴシマケン",
    "prefecture_code": 46,
    "city": "大島郡伊仙町",
    "city_kana": "オオシマグンイセンチョウ",
    "town": "阿三",
    "town_kana": "アサン",
    "street": null,
    "office_name": null,
    "office_name_kana": null
  },
  "8293": {
    "postcode": "8918293",
    "prefecture": "鹿児島県",
    "prefecture_kana": "カゴシマケン",
    "prefecture_code": 46,
    "city": "大島郡伊仙町",
    "city_kana": "オオシマグンイセンチョウ",
    "town": "大字伊仙",
    "town_kana": null,
    "street": "１８４２",
    "office_name": "伊仙町役場",
    "office_name_kana": "イセンチヨウヤクバ"
  },
  "8300": {
    "postcode": "8918300",
    "prefecture": "鹿児島県",
    "prefecture_kana": "カゴシマケン",
    "prefecture_code": 46,
    "city": "大島郡伊仙町",
    "city_kana": "オオシマグンイセンチョウ",
    "town": "",
    "town_kana": "",
    "street": null,
    "office_name": null,
    "office_name_kana": null
  },
  "8321": {
    "postcode": "8918321",
    "prefecture": "鹿児島県",
    "prefecture_kana": "カゴシマケン",
    "prefecture_code": 46,
    "city": "大島郡伊仙町",
    "city_kana": "オオシマグンイセンチョウ",
    "town": "阿三",
    "town_kana": "アサン",
    "street": null,
    "office_name": null,
    "office_name_kana": null
  },
  "8322": {
    "postcode": "8918322",
    "prefecture": "鹿児島県",
    "prefecture_kana": "カゴシマケン",
    "prefecture_code": 46,
    "city": "大島郡伊仙町",
    "city_kana": "オオシマグンイセンチョウ",
    "town": "阿権",
    "town_kana": "アゴン",
    "street": null,
    "office_name": null,
    "office_name_kana": null
  },
  "8323": {
    "postcode": "8918323",
    "prefecture": "鹿児島県",
    "prefecture_kana": "カゴシマケン",
    "prefecture_code": 46,
    "city": "大島郡伊仙町",
    "city_kana": "オオシマグンイセンチョウ",
    "town": "木之香",
    "town_kana": "キノコ",
    "street": null,
    "office_name": null,
    "office_name_kana": null
  },
  "8324": {
    "postcode": "8918324",
    "prefecture": "鹿児島県",
    "prefecture_kana": "カゴシマケン",
    "prefecture_code": 46,
    "city": "大島郡伊仙町",
    "city_kana": "オオシマグンイセンチョウ",
    "town": "糸木名",
    "town_kana": "イトキナ",
    "street": null,
    "office_name": null,
    "office_name_kana": null
  },
  "8325": {
    "postcode": "8918325",
    "prefecture": "鹿児島県",
    "prefecture_kana": "カゴシマケン",
    "prefecture_code": 46,
    "city": "大島郡伊仙町",
    "city_kana": "オオシマグンイセンチョウ",
    "town": "八重竿",
    "town_kana": "ヤエザオ",
    "street": null,
    "office_name": null,
    "office_name_kana": null
  },
  "8326": {
    "postcode": "8918326",
    "prefecture": "鹿児島県",
    "prefecture_kana": "カゴシマケン",
    "prefecture_code": 46,
    "city": "大島郡伊仙町",
    "city_kana": "オオシマグンイセンチョウ",
    "town": "馬根",
    "town_kana": "バネ",
    "street": null,
    "office_name": null,
    "office_name_kana": null
  },
  "8327": {
    "postcode": "8918327",
    "prefecture": "鹿児島県",
    "prefecture_kana": "カゴシマケン",
    "prefecture_code": 46,
    "city": "大島郡伊仙町",
    "city_kana": "オオシマグンイセンチョウ",
    "town": "犬田布",
    "town_kana": "イヌタブ",
    "street": null,
    "office_name": null,
    "office_name_kana": null
  },
  "8328": {
    "postcode": "8918328",
    "prefecture": "鹿児島県",
    "prefecture_kana": "カゴシマケン",
    "prefecture_code": 46,
    "city": "大島郡伊仙町",
    "city_kana": "オオシマグンイセンチョウ",
    "town": "崎原",
    "town_kana": "サキバル",
    "street": null,
    "office_name": null,
    "office_name_kana": null
  },
  "8329": {
    "postcode": "8918329",
    "prefecture": "鹿児島県",
    "prefecture_kana": "カゴシマケン",
    "prefecture_code": 46,
    "city": "大島郡伊仙町",
    "city_kana": "オオシマグンイセンチョウ",
    "town": "小島",
    "town_kana": "コジマ",
    "street": null,
    "office_name": null,
    "office_name_kana": null
  },
  "9100": {
    "postcode": "8919100",
    "prefecture": "鹿児島県",
    "prefecture_kana": "カゴシマケン",
    "prefecture_code": 46,
    "city": "大島郡和泊町",
    "city_kana": "オオシマグンワドマリチョウ",
    "town": "",
    "town_kana": "",
    "street": null,
    "office_name": null,
    "office_name_kana": null
  },
  "9101": {
    "postcode": "8919101",
    "prefecture": "鹿児島県",
    "prefecture_kana": "カゴシマケン",
    "prefecture_code": 46,
    "city": "大島郡和泊町",
    "city_kana": "オオシマグンワドマリチョウ",
    "town": "国頭",
    "town_kana": "クニガミ",
    "street": null,
    "office_name": null,
    "office_name_kana": null
  },
  "9102": {
    "postcode": "8919102",
    "prefecture": "鹿児島県",
    "prefecture_kana": "カゴシマケン",
    "prefecture_code": 46,
    "city": "大島郡和泊町",
    "city_kana": "オオシマグンワドマリチョウ",
    "town": "喜美留",
    "town_kana": "キビル",
    "street": null,
    "office_name": null,
    "office_name_kana": null
  },
  "9103": {
    "postcode": "8919103",
    "prefecture": "鹿児島県",
    "prefecture_kana": "カゴシマケン",
    "prefecture_code": 46,
    "city": "大島郡和泊町",
    "city_kana": "オオシマグンワドマリチョウ",
    "town": "出花",
    "town_kana": "デギ",
    "street": null,
    "office_name": null,
    "office_name_kana": null
  },
  "9104": {
    "postcode": "8919104",
    "prefecture": "鹿児島県",
    "prefecture_kana": "カゴシマケン",
    "prefecture_code": 46,
    "city": "大島郡和泊町",
    "city_kana": "オオシマグンワドマリチョウ",
    "town": "西原",
    "town_kana": "ニシバル",
    "street": null,
    "office_name": null,
    "office_name_kana": null
  },
  "9111": {
    "postcode": "8919111",
    "prefecture": "鹿児島県",
    "prefecture_kana": "カゴシマケン",
    "prefecture_code": 46,
    "city": "大島郡和泊町",
    "city_kana": "オオシマグンワドマリチョウ",
    "town": "手々知名",
    "town_kana": "テデチナ",
    "street": null,
    "office_name": null,
    "office_name_kana": null
  },
  "9112": {
    "postcode": "8919112",
    "prefecture": "鹿児島県",
    "prefecture_kana": "カゴシマケン",
    "prefecture_code": 46,
    "city": "大島郡和泊町",
    "city_kana": "オオシマグンワドマリチョウ",
    "town": "和泊",
    "town_kana": "ワドマリ",
    "street": null,
    "office_name": null,
    "office_name_kana": null
  },
  "9113": {
    "postcode": "8919113",
    "prefecture": "鹿児島県",
    "prefecture_kana": "カゴシマケン",
    "prefecture_code": 46,
    "city": "大島郡和泊町",
    "city_kana": "オオシマグンワドマリチョウ",
    "town": "和",
    "town_kana": "ワ",
    "street": null,
    "office_name": null,
    "office_name_kana": null
  },
  "9114": {
    "postcode": "8919114",
    "prefecture": "鹿児島県",
    "prefecture_kana": "カゴシマケン",
    "prefecture_code": 46,
    "city": "大島郡和泊町",
    "city_kana": "オオシマグンワドマリチョウ",
    "town": "畦布",
    "town_kana": "アゼフ",
    "street": null,
    "office_name": null,
    "office_name_kana": null
  },
  "9115": {
    "postcode": "8919115",
    "prefecture": "鹿児島県",
    "prefecture_kana": "カゴシマケン",
    "prefecture_code": 46,
    "city": "大島郡和泊町",
    "city_kana": "オオシマグンワドマリチョウ",
    "town": "伊延",
    "town_kana": "イノベ",
    "street": null,
    "office_name": null,
    "office_name_kana": null
  },
  "9116": {
    "postcode": "8919116",
    "prefecture": "鹿児島県",
    "prefecture_kana": "カゴシマケン",
    "prefecture_code": 46,
    "city": "大島郡和泊町",
    "city_kana": "オオシマグンワドマリチョウ",
    "town": "上手々知名",
    "town_kana": "ウエテテチナ",
    "street": null,
    "office_name": null,
    "office_name_kana": null
  },
  "9121": {
    "postcode": "8919121",
    "prefecture": "鹿児島県",
    "prefecture_kana": "カゴシマケン",
    "prefecture_code": 46,
    "city": "大島郡和泊町",
    "city_kana": "オオシマグンワドマリチョウ",
    "town": "根折",
    "town_kana": "ネオリ",
    "street": null,
    "office_name": null,
    "office_name_kana": null
  },
  "9122": {
    "postcode": "8919122",
    "prefecture": "鹿児島県",
    "prefecture_kana": "カゴシマケン",
    "prefecture_code": 46,
    "city": "大島郡和泊町",
    "city_kana": "オオシマグンワドマリチョウ",
    "town": "玉城",
    "town_kana": "タマジロ",
    "street": null,
    "office_name": null,
    "office_name_kana": null
  },
  "9123": {
    "postcode": "8919123",
    "prefecture": "鹿児島県",
    "prefecture_kana": "カゴシマケン",
    "prefecture_code": 46,
    "city": "大島郡和泊町",
    "city_kana": "オオシマグンワドマリチョウ",
    "town": "皆川",
    "town_kana": "ミナカワ",
    "street": null,
    "office_name": null,
    "office_name_kana": null
  },
  "9124": {
    "postcode": "8919124",
    "prefecture": "鹿児島県",
    "prefecture_kana": "カゴシマケン",
    "prefecture_code": 46,
    "city": "大島郡和泊町",
    "city_kana": "オオシマグンワドマリチョウ",
    "town": "古里",
    "town_kana": "フルサト",
    "street": null,
    "office_name": null,
    "office_name_kana": null
  },
  "9125": {
    "postcode": "8919125",
    "prefecture": "鹿児島県",
    "prefecture_kana": "カゴシマケン",
    "prefecture_code": 46,
    "city": "大島郡和泊町",
    "city_kana": "オオシマグンワドマリチョウ",
    "town": "大城",
    "town_kana": "オオジロ",
    "street": null,
    "office_name": null,
    "office_name_kana": null
  },
  "9131": {
    "postcode": "8919131",
    "prefecture": "鹿児島県",
    "prefecture_kana": "カゴシマケン",
    "prefecture_code": 46,
    "city": "大島郡和泊町",
    "city_kana": "オオシマグンワドマリチョウ",
    "town": "内城",
    "town_kana": "ウチジロ",
    "street": null,
    "office_name": null,
    "office_name_kana": null
  },
  "9132": {
    "postcode": "8919132",
    "prefecture": "鹿児島県",
    "prefecture_kana": "カゴシマケン",
    "prefecture_code": 46,
    "city": "大島郡和泊町",
    "city_kana": "オオシマグンワドマリチョウ",
    "town": "後蘭",
    "town_kana": "ゴラン",
    "street": null,
    "office_name": null,
    "office_name_kana": null
  },
  "9133": {
    "postcode": "8919133",
    "prefecture": "鹿児島県",
    "prefecture_kana": "カゴシマケン",
    "prefecture_code": 46,
    "city": "大島郡和泊町",
    "city_kana": "オオシマグンワドマリチョウ",
    "town": "谷山",
    "town_kana": "タニヤマ",
    "street": null,
    "office_name": null,
    "office_name_kana": null
  },
  "9134": {
    "postcode": "8919134",
    "prefecture": "鹿児島県",
    "prefecture_kana": "カゴシマケン",
    "prefecture_code": 46,
    "city": "大島郡和泊町",
    "city_kana": "オオシマグンワドマリチョウ",
    "town": "仁志",
    "town_kana": "ニシ",
    "street": null,
    "office_name": null,
    "office_name_kana": null
  },
  "9135": {
    "postcode": "8919135",
    "prefecture": "鹿児島県",
    "prefecture_kana": "カゴシマケン",
    "prefecture_code": 46,
    "city": "大島郡和泊町",
    "city_kana": "オオシマグンワドマリチョウ",
    "town": "永嶺",
    "town_kana": "ナガミネ",
    "street": null,
    "office_name": null,
    "office_name_kana": null
  },
  "9136": {
    "postcode": "8919136",
    "prefecture": "鹿児島県",
    "prefecture_kana": "カゴシマケン",
    "prefecture_code": 46,
    "city": "大島郡和泊町",
    "city_kana": "オオシマグンワドマリチョウ",
    "town": "瀬名",
    "town_kana": "セナ",
    "street": null,
    "office_name": null,
    "office_name_kana": null
  },
  "9192": {
    "postcode": "8919192",
    "prefecture": "鹿児島県",
    "prefecture_kana": "カゴシマケン",
    "prefecture_code": 46,
    "city": "大島郡和泊町",
    "city_kana": "オオシマグンワドマリチョウ",
    "town": "大字和泊",
    "town_kana": null,
    "street": "１０",
    "office_name": "和泊町役場",
    "office_name_kana": "ワドマリチヨウヤクバ"
  },
  "9200": {
    "postcode": "8919200",
    "prefecture": "鹿児島県",
    "prefecture_kana": "カゴシマケン",
    "prefecture_code": 46,
    "city": "大島郡知名町",
    "city_kana": "オオシマグンチナチョウ",
    "town": "",
    "town_kana": "",
    "street": null,
    "office_name": null,
    "office_name_kana": null
  },
  "9201": {
    "postcode": "8919201",
    "prefecture": "鹿児島県",
    "prefecture_kana": "カゴシマケン",
    "prefecture_code": 46,
    "city": "大島郡知名町",
    "city_kana": "オオシマグンチナチョウ",
    "town": "余多",
    "town_kana": "アマタ",
    "street": null,
    "office_name": null,
    "office_name_kana": null
  },
  "9202": {
    "postcode": "8919202",
    "prefecture": "鹿児島県",
    "prefecture_kana": "カゴシマケン",
    "prefecture_code": 46,
    "city": "大島郡知名町",
    "city_kana": "オオシマグンチナチョウ",
    "town": "屋者",
    "town_kana": "ヤジャ",
    "street": null,
    "office_name": null,
    "office_name_kana": null
  },
  "9203": {
    "postcode": "8919203",
    "prefecture": "鹿児島県",
    "prefecture_kana": "カゴシマケン",
    "prefecture_code": 46,
    "city": "大島郡知名町",
    "city_kana": "オオシマグンチナチョウ",
    "town": "下平川",
    "town_kana": "シモヒラカワ",
    "street": null,
    "office_name": null,
    "office_name_kana": null
  },
  "9204": {
    "postcode": "8919204",
    "prefecture": "鹿児島県",
    "prefecture_kana": "カゴシマケン",
    "prefecture_code": 46,
    "city": "大島郡知名町",
    "city_kana": "オオシマグンチナチョウ",
    "town": "上平川",
    "town_kana": "カミヒラカワ",
    "street": null,
    "office_name": null,
    "office_name_kana": null
  },
  "9205": {
    "postcode": "8919205",
    "prefecture": "鹿児島県",
    "prefecture_kana": "カゴシマケン",
    "prefecture_code": 46,
    "city": "大島郡知名町",
    "city_kana": "オオシマグンチナチョウ",
    "town": "久志検",
    "town_kana": "グシケン",
    "street": null,
    "office_name": null,
    "office_name_kana": null
  },
  "9206": {
    "postcode": "8919206",
    "prefecture": "鹿児島県",
    "prefecture_kana": "カゴシマケン",
    "prefecture_code": 46,
    "city": "大島郡知名町",
    "city_kana": "オオシマグンチナチョウ",
    "town": "赤嶺",
    "town_kana": "アカミネ",
    "street": null,
    "office_name": null,
    "office_name_kana": null
  },
  "9207": {
    "postcode": "8919207",
    "prefecture": "鹿児島県",
    "prefecture_kana": "カゴシマケン",
    "prefecture_code": 46,
    "city": "大島郡知名町",
    "city_kana": "オオシマグンチナチョウ",
    "town": "竿津",
    "town_kana": "サオヅ",
    "street": null,
    "office_name": null,
    "office_name_kana": null
  },
  "9211": {
    "postcode": "8919211",
    "prefecture": "鹿児島県",
    "prefecture_kana": "カゴシマケン",
    "prefecture_code": 46,
    "city": "大島郡知名町",
    "city_kana": "オオシマグンチナチョウ",
    "town": "芦清良",
    "town_kana": "アシキヨウラ",
    "street": null,
    "office_name": null,
    "office_name_kana": null
  },
  "9212": {
    "postcode": "8919212",
    "prefecture": "鹿児島県",
    "prefecture_kana": "カゴシマケン",
    "prefecture_code": 46,
    "city": "大島郡知名町",
    "city_kana": "オオシマグンチナチョウ",
    "town": "黒貫",
    "town_kana": "クロヌキ",
    "street": null,
    "office_name": null,
    "office_name_kana": null
  },
  "9213": {
    "postcode": "8919213",
    "prefecture": "鹿児島県",
    "prefecture_kana": "カゴシマケン",
    "prefecture_code": 46,
    "city": "大島郡知名町",
    "city_kana": "オオシマグンチナチョウ",
    "town": "瀬利覚",
    "town_kana": "セリカク",
    "street": null,
    "office_name": null,
    "office_name_kana": null
  },
  "9214": {
    "postcode": "8919214",
    "prefecture": "鹿児島県",
    "prefecture_kana": "カゴシマケン",
    "prefecture_code": 46,
    "city": "大島郡知名町",
    "city_kana": "オオシマグンチナチョウ",
    "town": "知名",
    "town_kana": "チナ",
    "street": null,
    "office_name": null,
    "office_name_kana": null
  },
  "9215": {
    "postcode": "8919215",
    "prefecture": "鹿児島県",
    "prefecture_kana": "カゴシマケン",
    "prefecture_code": 46,
    "city": "大島郡知名町",
    "city_kana": "オオシマグンチナチョウ",
    "town": "屋子母",
    "town_kana": "ヤコモ",
    "street": null,
    "office_name": null,
    "office_name_kana": null
  },
  "9221": {
    "postcode": "8919221",
    "prefecture": "鹿児島県",
    "prefecture_kana": "カゴシマケン",
    "prefecture_code": 46,
    "city": "大島郡知名町",
    "city_kana": "オオシマグンチナチョウ",
    "town": "大津勘",
    "town_kana": "オオツカン",
    "street": null,
    "office_name": null,
    "office_name_kana": null
  },
  "9222": {
    "postcode": "8919222",
    "prefecture": "鹿児島県",
    "prefecture_kana": "カゴシマケン",
    "prefecture_code": 46,
    "city": "大島郡知名町",
    "city_kana": "オオシマグンチナチョウ",
    "town": "徳時",
    "town_kana": "トクドキ",
    "street": null,
    "office_name": null,
    "office_name_kana": null
  },
  "9223": {
    "postcode": "8919223",
    "prefecture": "鹿児島県",
    "prefecture_kana": "カゴシマケン",
    "prefecture_code": 46,
    "city": "大島郡知名町",
    "city_kana": "オオシマグンチナチョウ",
    "town": "住吉",
    "town_kana": "スミヨシ",
    "street": null,
    "office_name": null,
    "office_name_kana": null
  },
  "9224": {
    "postcode": "8919224",
    "prefecture": "鹿児島県",
    "prefecture_kana": "カゴシマケン",
    "prefecture_code": 46,
    "city": "大島郡知名町",
    "city_kana": "オオシマグンチナチョウ",
    "town": "正名",
    "town_kana": "マサナ",
    "street": null,
    "office_name": null,
    "office_name_kana": null
  },
  "9231": {
    "postcode": "8919231",
    "prefecture": "鹿児島県",
    "prefecture_kana": "カゴシマケン",
    "prefecture_code": 46,
    "city": "大島郡知名町",
    "city_kana": "オオシマグンチナチョウ",
    "town": "田皆",
    "town_kana": "タミナ",
    "street": null,
    "office_name": null,
    "office_name_kana": null
  },
  "9232": {
    "postcode": "8919232",
    "prefecture": "鹿児島県",
    "prefecture_kana": "カゴシマケン",
    "prefecture_code": 46,
    "city": "大島郡知名町",
    "city_kana": "オオシマグンチナチョウ",
    "town": "新城",
    "town_kana": "シンジョウ",
    "street": null,
    "office_name": null,
    "office_name_kana": null
  },
  "9233": {
    "postcode": "8919233",
    "prefecture": "鹿児島県",
    "prefecture_kana": "カゴシマケン",
    "prefecture_code": 46,
    "city": "大島郡知名町",
    "city_kana": "オオシマグンチナチョウ",
    "town": "下城",
    "town_kana": "シモジロ",
    "street": null,
    "office_name": null,
    "office_name_kana": null
  },
  "9234": {
    "postcode": "8919234",
    "prefecture": "鹿児島県",
    "prefecture_kana": "カゴシマケン",
    "prefecture_code": 46,
    "city": "大島郡知名町",
    "city_kana": "オオシマグンチナチョウ",
    "town": "上城",
    "town_kana": "カミシロ",
    "street": null,
    "office_name": null,
    "office_name_kana": null
  },
  "9292": {
    "postcode": "8919292",
    "prefecture": "鹿児島県",
    "prefecture_kana": "カゴシマケン",
    "prefecture_code": 46,
    "city": "大島郡知名町",
    "city_kana": "オオシマグンチナチョウ",
    "town": "大字瀬利覚",
    "town_kana": null,
    "street": "３１９６−１",
    "office_name": "航空自衛隊第５５警戒隊",
    "office_name_kana": "コウクウジエイタイダイ55ケイカイタイ"
  },
  "9293": {
    "postcode": "8919293",
    "prefecture": "鹿児島県",
    "prefecture_kana": "カゴシマケン",
    "prefecture_code": 46,
    "city": "大島郡知名町",
    "city_kana": "オオシマグンチナチョウ",
    "town": "大字余多",
    "town_kana": null,
    "street": "２４１",
    "office_name": "鹿児島県立　沖永良部高等学校",
    "office_name_kana": "カゴシマケンリツ オキエラブコウトウガツコウ"
  },
  "9294": {
    "postcode": "8919294",
    "prefecture": "鹿児島県",
    "prefecture_kana": "カゴシマケン",
    "prefecture_code": 46,
    "city": "大島郡知名町",
    "city_kana": "オオシマグンチナチョウ",
    "town": "大字瀬利覚",
    "town_kana": null,
    "street": "２１１７",
    "office_name": "あまみ農業協同組合　知名事業本部",
    "office_name_kana": "アマミノウギヨウキヨウドウクミアイ チナジギヨウホンブ"
  },
  "9295": {
    "postcode": "8919295",
    "prefecture": "鹿児島県",
    "prefecture_kana": "カゴシマケン",
    "prefecture_code": 46,
    "city": "大島郡知名町",
    "city_kana": "オオシマグンチナチョウ",
    "town": "知名",
    "town_kana": "チナ",
    "street": "１１００番地",
    "office_name": "知名町役場",
    "office_name_kana": "チナチヨウヤクバ"
  },
  "9296": {
    "postcode": "8919296",
    "prefecture": "鹿児島県",
    "prefecture_kana": "カゴシマケン",
    "prefecture_code": 46,
    "city": "大島郡知名町",
    "city_kana": "オオシマグンチナチョウ",
    "town": "大字瀬利覚",
    "town_kana": null,
    "street": "２２０８",
    "office_name": "沖永良部徳洲会病院",
    "office_name_kana": "オキエラブトクシユウカイビヨウイン"
  },
  "9300": {
    "postcode": "8919300",
    "prefecture": "鹿児島県",
    "prefecture_kana": "カゴシマケン",
    "prefecture_code": 46,
    "city": "大島郡与論町",
    "city_kana": "オオシマグンヨロンチョウ",
    "town": "",
    "town_kana": "",
    "street": null,
    "office_name": null,
    "office_name_kana": null
  },
  "9301": {
    "postcode": "8919301",
    "prefecture": "鹿児島県",
    "prefecture_kana": "カゴシマケン",
    "prefecture_code": 46,
    "city": "大島郡与論町",
    "city_kana": "オオシマグンヨロンチョウ",
    "town": "茶花",
    "town_kana": "チャバナ",
    "street": null,
    "office_name": null,
    "office_name_kana": null
  },
  "9302": {
    "postcode": "8919302",
    "prefecture": "鹿児島県",
    "prefecture_kana": "カゴシマケン",
    "prefecture_code": 46,
    "city": "大島郡与論町",
    "city_kana": "オオシマグンヨロンチョウ",
    "town": "立長",
    "town_kana": "リッチョウ",
    "street": null,
    "office_name": null,
    "office_name_kana": null
  },
  "9303": {
    "postcode": "8919303",
    "prefecture": "鹿児島県",
    "prefecture_kana": "カゴシマケン",
    "prefecture_code": 46,
    "city": "大島郡与論町",
    "city_kana": "オオシマグンヨロンチョウ",
    "town": "城",
    "town_kana": "グスク",
    "street": null,
    "office_name": null,
    "office_name_kana": null
  },
  "9304": {
    "postcode": "8919304",
    "prefecture": "鹿児島県",
    "prefecture_kana": "カゴシマケン",
    "prefecture_code": 46,
    "city": "大島郡与論町",
    "city_kana": "オオシマグンヨロンチョウ",
    "town": "朝戸",
    "town_kana": "アサト",
    "street": null,
    "office_name": null,
    "office_name_kana": null
  },
  "9305": {
    "postcode": "8919305",
    "prefecture": "鹿児島県",
    "prefecture_kana": "カゴシマケン",
    "prefecture_code": 46,
    "city": "大島郡与論町",
    "city_kana": "オオシマグンヨロンチョウ",
    "town": "西区",
    "town_kana": "ニシク",
    "street": null,
    "office_name": null,
    "office_name_kana": null
  },
  "9306": {
    "postcode": "8919306",
    "prefecture": "鹿児島県",
    "prefecture_kana": "カゴシマケン",
    "prefecture_code": 46,
    "city": "大島郡与論町",
    "city_kana": "オオシマグンヨロンチョウ",
    "town": "東区",
    "town_kana": "ヒガシク",
    "street": null,
    "office_name": null,
    "office_name_kana": null
  },
  "9307": {
    "postcode": "8919307",
    "prefecture": "鹿児島県",
    "prefecture_kana": "カゴシマケン",
    "prefecture_code": 46,
    "city": "大島郡与論町",
    "city_kana": "オオシマグンヨロンチョウ",
    "town": "古里",
    "town_kana": "フルサト",
    "street": null,
    "office_name": null,
    "office_name_kana": null
  },
  "9308": {
    "postcode": "8919308",
    "prefecture": "鹿児島県",
    "prefecture_kana": "カゴシマケン",
    "prefecture_code": 46,
    "city": "大島郡与論町",
    "city_kana": "オオシマグンヨロンチョウ",
    "town": "那間",
    "town_kana": "ナマ",
    "street": null,
    "office_name": null,
    "office_name_kana": null
  },
  "9309": {
    "postcode": "8919309",
    "prefecture": "鹿児島県",
    "prefecture_kana": "カゴシマケン",
    "prefecture_code": 46,
    "city": "大島郡与論町",
    "city_kana": "オオシマグンヨロンチョウ",
    "town": "叶",
    "town_kana": "カノウ",
    "street": null,
    "office_name": null,
    "office_name_kana": null
  }
}