{
  "0000": {
    "postcode": "8950000",
    "prefecture": "鹿児島県",
    "prefecture_kana": "カゴシマケン",
    "prefecture_code": 46,
    "city": "薩摩川内市",
    "city_kana": "サツマセンダイシ",
    "town": "",
    "town_kana": "",
    "street": null,
    "office_name": null,
    "office_name_kana": null
  },
  "0001": {
    "postcode": "8950001",
    "prefecture": "鹿児島県",
    "prefecture_kana": "カゴシマケン",
    "prefecture_code": 46,
    "city": "薩摩川内市",
    "city_kana": "サツマセンダイシ",
    "town": "白浜町",
    "town_kana": "シラハマチョウ",
    "street": null,
    "office_name": null,
    "office_name_kana": null
  },
  "0002": {
    "postcode": "8950002",
    "prefecture": "鹿児島県",
    "prefecture_kana": "カゴシマケン",
    "prefecture_code": 46,
    "city": "薩摩川内市",
    "city_kana": "サツマセンダイシ",
    "town": "楠元町",
    "town_kana": "クスモトチョウ",
    "street": null,
    "office_name": null,
    "office_name_kana": null
  },
  "0003": {
    "postcode": "8950003",
    "prefecture": "鹿児島県",
    "prefecture_kana": "カゴシマケン",
    "prefecture_code": 46,
    "city": "薩摩川内市",
    "city_kana": "サツマセンダイシ",
    "town": "中村町",
    "town_kana": "ナカムラチョウ",
    "street": null,
    "office_name": null,
    "office_name_kana": null
  },
  "0004": {
    "postcode": "8950004",
    "prefecture": "鹿児島県",
    "prefecture_kana": "カゴシマケン",
    "prefecture_code": 46,
    "city": "薩摩川内市",
    "city_kana": "サツマセンダイシ",
    "town": "久住町",
    "town_kana": "クジュウチョウ",
    "street": null,
    "office_name": null,
    "office_name_kana": null
  },
  "0005": {
    "postcode": "8950005",
    "prefecture": "鹿児島県",
    "prefecture_kana": "カゴシマケン",
    "prefecture_code": 46,
    "city": "薩摩川内市",
    "city_kana": "サツマセンダイシ",
    "town": "永利町",
    "town_kana": "ナガトシチョウ",
    "street": null,
    "office_name": null,
    "office_name_kana": null
  },
  "0006": {
    "postcode": "8950006",
    "prefecture": "鹿児島県",
    "prefecture_kana": "カゴシマケン",
    "prefecture_code": 46,
    "city": "薩摩川内市",
    "city_kana": "サツマセンダイシ",
    "town": "田崎町",
    "town_kana": "タサキチョウ",
    "street": null,
    "office_name": null,
    "office_name_kana": null
  },
  "0007": {
    "postcode": "8950007",
    "prefecture": "鹿児島県",
    "prefecture_kana": "カゴシマケン",
    "prefecture_code": 46,
    "city": "薩摩川内市",
    "city_kana": "サツマセンダイシ",
    "town": "百次町",
    "town_kana": "モモツギチョウ",
    "street": null,
    "office_name": null,
    "office_name_kana": null
  },
  "0011": {
    "postcode": "8950011",
    "prefecture": "鹿児島県",
    "prefecture_kana": "カゴシマケン",
    "prefecture_code": 46,
    "city": "薩摩川内市",
    "city_kana": "サツマセンダイシ",
    "town": "天辰町",
    "town_kana": "アマタツチョウ",
    "street": null,
    "office_name": null,
    "office_name_kana": null
  },
  "0012": [
    {
      "postcode": "8950012",
      "prefecture": "鹿児島県",
      "prefecture_kana": "カゴシマケン",
      "prefecture_code": 46,
      "city": "薩摩川内市",
      "city_kana": "サツマセンダイシ",
      "town": "平佐",
      "town_kana": "ヒラサ",
      "street": null,
      "office_name": null,
      "office_name_kana": null
    },
    {
      "postcode": "8950012",
      "prefecture": "鹿児島県",
      "prefecture_kana": "カゴシマケン",
      "prefecture_code": 46,
      "city": "薩摩川内市",
      "city_kana": "サツマセンダイシ",
      "town": "平佐町",
      "town_kana": "ヒラサチョウ",
      "street": null,
      "office_name": null,
      "office_name_kana": null
    }
  ],
  "0013": {
    "postcode": "8950013",
    "prefecture": "鹿児島県",
    "prefecture_kana": "カゴシマケン",
    "prefecture_code": 46,
    "city": "薩摩川内市",
    "city_kana": "サツマセンダイシ",
    "town": "宮崎町",
    "town_kana": "ミヤザキチョウ",
    "street": null,
    "office_name": null,
    "office_name_kana": null
  },
  "0021": {
    "postcode": "8950021",
    "prefecture": "鹿児島県",
    "prefecture_kana": "カゴシマケン",
    "prefecture_code": 46,
    "city": "薩摩川内市",
    "city_kana": "サツマセンダイシ",
    "town": "向田本町",
    "town_kana": "ムコウダホンマチ",
    "street": null,
    "office_name": null,
    "office_name_kana": null
  },
  "0022": {
    "postcode": "8950022",
    "prefecture": "鹿児島県",
    "prefecture_kana": "カゴシマケン",
    "prefecture_code": 46,
    "city": "薩摩川内市",
    "city_kana": "サツマセンダイシ",
    "town": "白和町",
    "town_kana": "シラワチョウ",
    "street": null,
    "office_name": null,
    "office_name_kana": null
  },
  "0023": {
    "postcode": "8950023",
    "prefecture": "鹿児島県",
    "prefecture_kana": "カゴシマケン",
    "prefecture_code": 46,
    "city": "薩摩川内市",
    "city_kana": "サツマセンダイシ",
    "town": "横馬場町",
    "town_kana": "ヨコババチョウ",
    "street": null,
    "office_name": null,
    "office_name_kana": null
  },
  "0024": {
    "postcode": "8950024",
    "prefecture": "鹿児島県",
    "prefecture_kana": "カゴシマケン",
    "prefecture_code": 46,
    "city": "薩摩川内市",
    "city_kana": "サツマセンダイシ",
    "town": "鳥追町",
    "town_kana": "トリオイチョウ",
    "street": null,
    "office_name": null,
    "office_name_kana": null
  },
  "0025": {
    "postcode": "8950025",
    "prefecture": "鹿児島県",
    "prefecture_kana": "カゴシマケン",
    "prefecture_code": 46,
    "city": "薩摩川内市",
    "city_kana": "サツマセンダイシ",
    "town": "向田町",
    "town_kana": "ムコウダチョウ",
    "street": null,
    "office_name": null,
    "office_name_kana": null
  },
  "0026": {
    "postcode": "8950026",
    "prefecture": "鹿児島県",
    "prefecture_kana": "カゴシマケン",
    "prefecture_code": 46,
    "city": "薩摩川内市",
    "city_kana": "サツマセンダイシ",
    "town": "東向田町",
    "town_kana": "ヒガシムコウダチョウ",
    "street": null,
    "office_name": null,
    "office_name_kana": null
  },
  "0027": {
    "postcode": "8950027",
    "prefecture": "鹿児島県",
    "prefecture_kana": "カゴシマケン",
    "prefecture_code": 46,
    "city": "薩摩川内市",
    "city_kana": "サツマセンダイシ",
    "town": "西向田町",
    "town_kana": "ニシムコウダチョウ",
    "street": null,
    "office_name": null,
    "office_name_kana": null
  },
  "0031": {
    "postcode": "8950031",
    "prefecture": "鹿児島県",
    "prefecture_kana": "カゴシマケン",
    "prefecture_code": 46,
    "city": "薩摩川内市",
    "city_kana": "サツマセンダイシ",
    "town": "勝目町",
    "town_kana": "カチメチョウ",
    "street": null,
    "office_name": null,
    "office_name_kana": null
  },
  "0032": {
    "postcode": "8950032",
    "prefecture": "鹿児島県",
    "prefecture_kana": "カゴシマケン",
    "prefecture_code": 46,
    "city": "薩摩川内市",
    "city_kana": "サツマセンダイシ",
    "town": "山之口町",
    "town_kana": "ヤマノクチチョウ",
    "street": null,
    "office_name": null,
    "office_name_kana": null
  },
  "0033": {
    "postcode": "8950033",
    "prefecture": "鹿児島県",
    "prefecture_kana": "カゴシマケン",
    "prefecture_code": 46,
    "city": "薩摩川内市",
    "city_kana": "サツマセンダイシ",
    "town": "川永野町",
    "town_kana": "カワナガノチョウ",
    "street": null,
    "office_name": null,
    "office_name_kana": null
  },
  "0034": {
    "postcode": "8950034",
    "prefecture": "鹿児島県",
    "prefecture_kana": "カゴシマケン",
    "prefecture_code": 46,
    "city": "薩摩川内市",
    "city_kana": "サツマセンダイシ",
    "town": "木場茶屋町",
    "town_kana": "コバンチャヤチョウ",
    "street": null,
    "office_name": null,
    "office_name_kana": null
  },
  "0035": {
    "postcode": "8950035",
    "prefecture": "鹿児島県",
    "prefecture_kana": "カゴシマケン",
    "prefecture_code": 46,
    "city": "薩摩川内市",
    "city_kana": "サツマセンダイシ",
    "town": "尾白江町",
    "town_kana": "オジロエチョウ",
    "street": null,
    "office_name": null,
    "office_name_kana": null
  },
  "0036": {
    "postcode": "8950036",
    "prefecture": "鹿児島県",
    "prefecture_kana": "カゴシマケン",
    "prefecture_code": 46,
    "city": "薩摩川内市",
    "city_kana": "サツマセンダイシ",
    "town": "矢倉町",
    "town_kana": "ヤグラチョウ",
    "street": null,
    "office_name": null,
    "office_name_kana": null
  },
  "0041": {
    "postcode": "8950041",
    "prefecture": "鹿児島県",
    "prefecture_kana": "カゴシマケン",
    "prefecture_code": 46,
    "city": "薩摩川内市",
    "city_kana": "サツマセンダイシ",
    "town": "隈之城町",
    "town_kana": "クマノジョウチョウ",
    "street": null,
    "office_name": null,
    "office_name_kana": null
  },
  "0042": {
    "postcode": "8950042",
    "prefecture": "鹿児島県",
    "prefecture_kana": "カゴシマケン",
    "prefecture_code": 46,
    "city": "薩摩川内市",
    "city_kana": "サツマセンダイシ",
    "town": "中福良町",
    "town_kana": "ナカフクラチョウ",
    "street": null,
    "office_name": null,
    "office_name_kana": null
  },
  "0043": {
    "postcode": "8950043",
    "prefecture": "鹿児島県",
    "prefecture_kana": "カゴシマケン",
    "prefecture_code": 46,
    "city": "薩摩川内市",
    "city_kana": "サツマセンダイシ",
    "town": "都町",
    "town_kana": "ミヤコチョウ",
    "street": null,
    "office_name": null,
    "office_name_kana": null
  },
  "0044": {
    "postcode": "8950044",
    "prefecture": "鹿児島県",
    "prefecture_kana": "カゴシマケン",
    "prefecture_code": 46,
    "city": "薩摩川内市",
    "city_kana": "サツマセンダイシ",
    "town": "青山町",
    "town_kana": "アオヤマチョウ",
    "street": null,
    "office_name": null,
    "office_name_kana": null
  },
  "0051": {
    "postcode": "8950051",
    "prefecture": "鹿児島県",
    "prefecture_kana": "カゴシマケン",
    "prefecture_code": 46,
    "city": "薩摩川内市",
    "city_kana": "サツマセンダイシ",
    "town": "東開聞町",
    "town_kana": "ヒガシカイモンチョウ",
    "street": null,
    "office_name": null,
    "office_name_kana": null
  },
  "0052": {
    "postcode": "8950052",
    "prefecture": "鹿児島県",
    "prefecture_kana": "カゴシマケン",
    "prefecture_code": 46,
    "city": "薩摩川内市",
    "city_kana": "サツマセンダイシ",
    "town": "神田町",
    "town_kana": "カンダチョウ",
    "street": null,
    "office_name": null,
    "office_name_kana": null
  },
  "0053": {
    "postcode": "8950053",
    "prefecture": "鹿児島県",
    "prefecture_kana": "カゴシマケン",
    "prefecture_code": 46,
    "city": "薩摩川内市",
    "city_kana": "サツマセンダイシ",
    "town": "冷水町",
    "town_kana": "ヒヤミズチョウ",
    "street": null,
    "office_name": null,
    "office_name_kana": null
  },
  "0054": {
    "postcode": "8950054",
    "prefecture": "鹿児島県",
    "prefecture_kana": "カゴシマケン",
    "prefecture_code": 46,
    "city": "薩摩川内市",
    "city_kana": "サツマセンダイシ",
    "town": "若松町",
    "town_kana": "ワカマツチョウ",
    "street": null,
    "office_name": null,
    "office_name_kana": null
  },
  "0055": {
    "postcode": "8950055",
    "prefecture": "鹿児島県",
    "prefecture_kana": "カゴシマケン",
    "prefecture_code": 46,
    "city": "薩摩川内市",
    "city_kana": "サツマセンダイシ",
    "town": "西開聞町",
    "town_kana": "ニシカイモンチョウ",
    "street": null,
    "office_name": null,
    "office_name_kana": null
  },
  "0056": {
    "postcode": "8950056",
    "prefecture": "鹿児島県",
    "prefecture_kana": "カゴシマケン",
    "prefecture_code": 46,
    "city": "薩摩川内市",
    "city_kana": "サツマセンダイシ",
    "town": "宮里町",
    "town_kana": "ミヤザトチョウ",
    "street": null,
    "office_name": null,
    "office_name_kana": null
  },
  "0061": {
    "postcode": "8950061",
    "prefecture": "鹿児島県",
    "prefecture_kana": "カゴシマケン",
    "prefecture_code": 46,
    "city": "薩摩川内市",
    "city_kana": "サツマセンダイシ",
    "town": "御陵下町",
    "town_kana": "ゴリョウシタチョウ",
    "street": null,
    "office_name": null,
    "office_name_kana": null
  },
  "0062": {
    "postcode": "8950062",
    "prefecture": "鹿児島県",
    "prefecture_kana": "カゴシマケン",
    "prefecture_code": 46,
    "city": "薩摩川内市",
    "city_kana": "サツマセンダイシ",
    "town": "大王町",
    "town_kana": "ダイオウチョウ",
    "street": null,
    "office_name": null,
    "office_name_kana": null
  },
  "0063": {
    "postcode": "8950063",
    "prefecture": "鹿児島県",
    "prefecture_kana": "カゴシマケン",
    "prefecture_code": 46,
    "city": "薩摩川内市",
    "city_kana": "サツマセンダイシ",
    "town": "若葉町",
    "town_kana": "ワカバチョウ",
    "street": null,
    "office_name": null,
    "office_name_kana": null
  },
  "0064": {
    "postcode": "8950064",
    "prefecture": "鹿児島県",
    "prefecture_kana": "カゴシマケン",
    "prefecture_code": 46,
    "city": "薩摩川内市",
    "city_kana": "サツマセンダイシ",
    "town": "花木町",
    "town_kana": "ハナキチョウ",
    "street": null,
    "office_name": null,
    "office_name_kana": null
  },
  "0065": {
    "postcode": "8950065",
    "prefecture": "鹿児島県",
    "prefecture_kana": "カゴシマケン",
    "prefecture_code": 46,
    "city": "薩摩川内市",
    "city_kana": "サツマセンダイシ",
    "town": "宮内町",
    "town_kana": "ミヤウチチョウ",
    "street": null,
    "office_name": null,
    "office_name_kana": null
  },
  "0066": {
    "postcode": "8950066",
    "prefecture": "鹿児島県",
    "prefecture_kana": "カゴシマケン",
    "prefecture_code": 46,
    "city": "薩摩川内市",
    "city_kana": "サツマセンダイシ",
    "town": "五代町",
    "town_kana": "ゴダイチョウ",
    "street": null,
    "office_name": null,
    "office_name_kana": null
  },
  "0067": {
    "postcode": "8950067",
    "prefecture": "鹿児島県",
    "prefecture_kana": "カゴシマケン",
    "prefecture_code": 46,
    "city": "薩摩川内市",
    "city_kana": "サツマセンダイシ",
    "town": "上川内町",
    "town_kana": "カミセンダイチョウ",
    "street": null,
    "office_name": null,
    "office_name_kana": null
  },
  "0071": {
    "postcode": "8950071",
    "prefecture": "鹿児島県",
    "prefecture_kana": "カゴシマケン",
    "prefecture_code": 46,
    "city": "薩摩川内市",
    "city_kana": "サツマセンダイシ",
    "town": "田海町",
    "town_kana": "タウミチョウ",
    "street": null,
    "office_name": null,
    "office_name_kana": null
  },
  "0072": [
    {
      "postcode": "8950072",
      "prefecture": "鹿児島県",
      "prefecture_kana": "カゴシマケン",
      "prefecture_code": 46,
      "city": "薩摩川内市",
      "city_kana": "サツマセンダイシ",
      "town": "中郷",
      "town_kana": "チュウゴウ",
      "street": null,
      "office_name": null,
      "office_name_kana": null
    },
    {
      "postcode": "8950072",
      "prefecture": "鹿児島県",
      "prefecture_kana": "カゴシマケン",
      "prefecture_code": 46,
      "city": "薩摩川内市",
      "city_kana": "サツマセンダイシ",
      "town": "中郷町",
      "town_kana": "チュウゴウチョウ",
      "street": null,
      "office_name": null,
      "office_name_kana": null
    }
  ],
  "0073": {
    "postcode": "8950073",
    "prefecture": "鹿児島県",
    "prefecture_kana": "カゴシマケン",
    "prefecture_code": 46,
    "city": "薩摩川内市",
    "city_kana": "サツマセンダイシ",
    "town": "国分寺町",
    "town_kana": "コクブンジチョウ",
    "street": null,
    "office_name": null,
    "office_name_kana": null
  },
  "0074": {
    "postcode": "8950074",
    "prefecture": "鹿児島県",
    "prefecture_kana": "カゴシマケン",
    "prefecture_code": 46,
    "city": "薩摩川内市",
    "city_kana": "サツマセンダイシ",
    "town": "原田町",
    "town_kana": "ハラダチョウ",
    "street": null,
    "office_name": null,
    "office_name_kana": null
  },
  "0075": {
    "postcode": "8950075",
    "prefecture": "鹿児島県",
    "prefecture_kana": "カゴシマケン",
    "prefecture_code": 46,
    "city": "薩摩川内市",
    "city_kana": "サツマセンダイシ",
    "town": "東大小路町",
    "town_kana": "ヒガシオオショウジチョウ",
    "street": null,
    "office_name": null,
    "office_name_kana": null
  },
  "0076": {
    "postcode": "8950076",
    "prefecture": "鹿児島県",
    "prefecture_kana": "カゴシマケン",
    "prefecture_code": 46,
    "city": "薩摩川内市",
    "city_kana": "サツマセンダイシ",
    "town": "大小路町",
    "town_kana": "オオショウジチョウ",
    "street": null,
    "office_name": null,
    "office_name_kana": null
  },
  "0077": {
    "postcode": "8950077",
    "prefecture": "鹿児島県",
    "prefecture_kana": "カゴシマケン",
    "prefecture_code": 46,
    "city": "薩摩川内市",
    "city_kana": "サツマセンダイシ",
    "town": "運動公園町",
    "town_kana": "ウンドウコウエンチョウ",
    "street": null,
    "office_name": null,
    "office_name_kana": null
  },
  "0131": {
    "postcode": "8950131",
    "prefecture": "鹿児島県",
    "prefecture_kana": "カゴシマケン",
    "prefecture_code": 46,
    "city": "薩摩川内市",
    "city_kana": "サツマセンダイシ",
    "town": "高江町",
    "town_kana": "タカエチョウ",
    "street": null,
    "office_name": null,
    "office_name_kana": null
  },
  "0132": {
    "postcode": "8950132",
    "prefecture": "鹿児島県",
    "prefecture_kana": "カゴシマケン",
    "prefecture_code": 46,
    "city": "薩摩川内市",
    "city_kana": "サツマセンダイシ",
    "town": "久見崎町",
    "town_kana": "グミサキチョウ",
    "street": null,
    "office_name": null,
    "office_name_kana": null
  },
  "0133": {
    "postcode": "8950133",
    "prefecture": "鹿児島県",
    "prefecture_kana": "カゴシマケン",
    "prefecture_code": 46,
    "city": "薩摩川内市",
    "city_kana": "サツマセンダイシ",
    "town": "寄田町",
    "town_kana": "ヨリタチョウ",
    "street": null,
    "office_name": null,
    "office_name_kana": null
  },
  "0211": {
    "postcode": "8950211",
    "prefecture": "鹿児島県",
    "prefecture_kana": "カゴシマケン",
    "prefecture_code": 46,
    "city": "薩摩川内市",
    "city_kana": "サツマセンダイシ",
    "town": "高城町",
    "town_kana": "タキチョウ",
    "street": null,
    "office_name": null,
    "office_name_kana": null
  },
  "0212": {
    "postcode": "8950212",
    "prefecture": "鹿児島県",
    "prefecture_kana": "カゴシマケン",
    "prefecture_code": 46,
    "city": "薩摩川内市",
    "city_kana": "サツマセンダイシ",
    "town": "陽成町",
    "town_kana": "ヨウゼイチョウ",
    "street": null,
    "office_name": null,
    "office_name_kana": null
  },
  "0213": {
    "postcode": "8950213",
    "prefecture": "鹿児島県",
    "prefecture_kana": "カゴシマケン",
    "prefecture_code": 46,
    "city": "薩摩川内市",
    "city_kana": "サツマセンダイシ",
    "town": "城上町",
    "town_kana": "ジョウカミチョウ",
    "street": null,
    "office_name": null,
    "office_name_kana": null
  },
  "0214": {
    "postcode": "8950214",
    "prefecture": "鹿児島県",
    "prefecture_kana": "カゴシマケン",
    "prefecture_code": 46,
    "city": "薩摩川内市",
    "city_kana": "サツマセンダイシ",
    "town": "運動公園町",
    "town_kana": "ウンドウコウエンチョウ",
    "street": null,
    "office_name": null,
    "office_name_kana": null
  },
  "0292": {
    "postcode": "8950292",
    "prefecture": "鹿児島県",
    "prefecture_kana": "カゴシマケン",
    "prefecture_code": 46,
    "city": "薩摩川内市",
    "city_kana": "サツマセンダイシ",
    "town": "高城町",
    "town_kana": "タキチョウ",
    "street": "１８１０",
    "office_name": "京セラ　株式会社　鹿児島川内工場",
    "office_name_kana": "キヨウセラ カブシキガイシヤ カゴシマセンダイコウジヨウ"
  },
  "1101": {
    "postcode": "8951101",
    "prefecture": "鹿児島県",
    "prefecture_kana": "カゴシマケン",
    "prefecture_code": 46,
    "city": "薩摩川内市",
    "city_kana": "サツマセンダイシ",
    "town": "東郷町宍野",
    "town_kana": "トウゴウチョウシシノ",
    "street": null,
    "office_name": null,
    "office_name_kana": null
  },
  "1102": {
    "postcode": "8951102",
    "prefecture": "鹿児島県",
    "prefecture_kana": "カゴシマケン",
    "prefecture_code": 46,
    "city": "薩摩川内市",
    "city_kana": "サツマセンダイシ",
    "town": "東郷町藤川",
    "town_kana": "トウゴウチョウフジカワ",
    "street": null,
    "office_name": null,
    "office_name_kana": null
  },
  "1103": {
    "postcode": "8951103",
    "prefecture": "鹿児島県",
    "prefecture_kana": "カゴシマケン",
    "prefecture_code": 46,
    "city": "薩摩川内市",
    "city_kana": "サツマセンダイシ",
    "town": "東郷町鳥丸",
    "town_kana": "トウゴウチョウトリマル",
    "street": null,
    "office_name": null,
    "office_name_kana": null
  },
  "1104": {
    "postcode": "8951104",
    "prefecture": "鹿児島県",
    "prefecture_kana": "カゴシマケン",
    "prefecture_code": 46,
    "city": "薩摩川内市",
    "city_kana": "サツマセンダイシ",
    "town": "東郷町山田",
    "town_kana": "トウゴウチョウヤマダ",
    "street": null,
    "office_name": null,
    "office_name_kana": null
  },
  "1105": {
    "postcode": "8951105",
    "prefecture": "鹿児島県",
    "prefecture_kana": "カゴシマケン",
    "prefecture_code": 46,
    "city": "薩摩川内市",
    "city_kana": "サツマセンダイシ",
    "town": "東郷町南瀬",
    "town_kana": "トウゴウチョウノウゼ",
    "street": null,
    "office_name": null,
    "office_name_kana": null
  },
  "1106": {
    "postcode": "8951106",
    "prefecture": "鹿児島県",
    "prefecture_kana": "カゴシマケン",
    "prefecture_code": 46,
    "city": "薩摩川内市",
    "city_kana": "サツマセンダイシ",
    "town": "東郷町斧渕",
    "town_kana": "トウゴウチョウオノブチ",
    "street": null,
    "office_name": null,
    "office_name_kana": null
  },
  "1201": {
    "postcode": "8951201",
    "prefecture": "鹿児島県",
    "prefecture_kana": "カゴシマケン",
    "prefecture_code": 46,
    "city": "薩摩川内市",
    "city_kana": "サツマセンダイシ",
    "town": "樋脇町倉野",
    "town_kana": "ヒワキチョウクラノ",
    "street": null,
    "office_name": null,
    "office_name_kana": null
  },
  "1202": {
    "postcode": "8951202",
    "prefecture": "鹿児島県",
    "prefecture_kana": "カゴシマケン",
    "prefecture_code": 46,
    "city": "薩摩川内市",
    "city_kana": "サツマセンダイシ",
    "town": "樋脇町塔之原",
    "town_kana": "ヒワキチョウトウノハラ",
    "street": null,
    "office_name": null,
    "office_name_kana": null
  },
  "1203": {
    "postcode": "8951203",
    "prefecture": "鹿児島県",
    "prefecture_kana": "カゴシマケン",
    "prefecture_code": 46,
    "city": "薩摩川内市",
    "city_kana": "サツマセンダイシ",
    "town": "樋脇町市比野",
    "town_kana": "ヒワキチョウイチヒノ",
    "street": null,
    "office_name": null,
    "office_name_kana": null
  },
  "1292": {
    "postcode": "8951292",
    "prefecture": "鹿児島県",
    "prefecture_kana": "カゴシマケン",
    "prefecture_code": 46,
    "city": "薩摩川内市",
    "city_kana": "サツマセンダイシ",
    "town": "樋脇町塔之原",
    "town_kana": "ヒワキチョウトウノハラ",
    "street": "１１７３",
    "office_name": "薩摩川内市樋脇支所",
    "office_name_kana": "サツマセンダイシ ヒワキシシヨ"
  },
  "1293": {
    "postcode": "8951293",
    "prefecture": "鹿児島県",
    "prefecture_kana": "カゴシマケン",
    "prefecture_code": 46,
    "city": "薩摩川内市",
    "city_kana": "サツマセンダイシ",
    "town": "樋脇町塔之原",
    "town_kana": "ヒワキチョウトウノハラ",
    "street": "３６２４−１",
    "office_name": "薩摩川内市樋脇教育事務所",
    "office_name_kana": "サツマセンダイシ ヒワキキヨウイクジムシヨ"
  },
  "1295": {
    "postcode": "8951295",
    "prefecture": "鹿児島県",
    "prefecture_kana": "カゴシマケン",
    "prefecture_code": 46,
    "city": "薩摩川内市",
    "city_kana": "サツマセンダイシ",
    "town": "樋脇町塔之原",
    "town_kana": "ヒワキチョウトウノハラ",
    "street": "１１３５６−１",
    "office_name": "田苑酒造　株式会社",
    "office_name_kana": "デンエンシユゾウ カブシキガイシヤ"
  },
  "1296": {
    "postcode": "8951296",
    "prefecture": "鹿児島県",
    "prefecture_kana": "カゴシマケン",
    "prefecture_code": 46,
    "city": "薩摩川内市",
    "city_kana": "サツマセンダイシ",
    "town": "樋脇町市比野",
    "town_kana": "ヒワキチョウイチヒノ",
    "street": "２５０",
    "office_name": "ホテルグリーンヒル、グリーンヒルカントリークラブ",
    "office_name_kana": "ホテルグリ-ンヒル、グリ-ンヒルカントリ-クラブ"
  },
  "1401": {
    "postcode": "8951401",
    "prefecture": "鹿児島県",
    "prefecture_kana": "カゴシマケン",
    "prefecture_code": 46,
    "city": "薩摩川内市",
    "city_kana": "サツマセンダイシ",
    "town": "入来町副田",
    "town_kana": "イリキチョウソエダ",
    "street": null,
    "office_name": null,
    "office_name_kana": null
  },
  "1402": {
    "postcode": "8951402",
    "prefecture": "鹿児島県",
    "prefecture_kana": "カゴシマケン",
    "prefecture_code": 46,
    "city": "薩摩川内市",
    "city_kana": "サツマセンダイシ",
    "town": "入来町浦之名",
    "town_kana": "イリキチョウウラノミョウ",
    "street": null,
    "office_name": null,
    "office_name_kana": null
  },
  "1492": {
    "postcode": "8951492",
    "prefecture": "鹿児島県",
    "prefecture_kana": "カゴシマケン",
    "prefecture_code": 46,
    "city": "薩摩川内市",
    "city_kana": "サツマセンダイシ",
    "town": "入来町浦之名",
    "town_kana": "イリキチョウウラノミョウ",
    "street": "３３",
    "office_name": "薩摩川内市　入来支所",
    "office_name_kana": "サツマセンダイシ イリキシシヨ"
  },
  "1501": {
    "postcode": "8951501",
    "prefecture": "鹿児島県",
    "prefecture_kana": "カゴシマケン",
    "prefecture_code": 46,
    "city": "薩摩川内市",
    "city_kana": "サツマセンダイシ",
    "town": "祁答院町下手",
    "town_kana": "ケドウインチョウシモデ",
    "street": null,
    "office_name": null,
    "office_name_kana": null
  },
  "1502": {
    "postcode": "8951502",
    "prefecture": "鹿児島県",
    "prefecture_kana": "カゴシマケン",
    "prefecture_code": 46,
    "city": "薩摩川内市",
    "city_kana": "サツマセンダイシ",
    "town": "祁答院町藺牟田",
    "town_kana": "ケドウインチョウイムタ",
    "street": null,
    "office_name": null,
    "office_name_kana": null
  },
  "1503": {
    "postcode": "8951503",
    "prefecture": "鹿児島県",
    "prefecture_kana": "カゴシマケン",
    "prefecture_code": 46,
    "city": "薩摩川内市",
    "city_kana": "サツマセンダイシ",
    "town": "祁答院町上手",
    "town_kana": "ケドウインチョウカミデ",
    "street": null,
    "office_name": null,
    "office_name_kana": null
  },
  "1504": {
    "postcode": "8951504",
    "prefecture": "鹿児島県",
    "prefecture_kana": "カゴシマケン",
    "prefecture_code": 46,
    "city": "薩摩川内市",
    "city_kana": "サツマセンダイシ",
    "town": "祁答院町黒木",
    "town_kana": "ケドウインチョウクロキ",
    "street": null,
    "office_name": null,
    "office_name_kana": null
  },
  "1595": {
    "postcode": "8951595",
    "prefecture": "鹿児島県",
    "prefecture_kana": "カゴシマケン",
    "prefecture_code": 46,
    "city": "薩摩川内市",
    "city_kana": "サツマセンダイシ",
    "town": "祁答院町下手",
    "town_kana": "ケドウインチョウシモデ",
    "street": "６７",
    "office_name": "薩摩川内市　祁答院支所",
    "office_name_kana": "サツマセンダイシ ケドウインシシヨ"
  },
  "1721": {
    "postcode": "8951721",
    "prefecture": "鹿児島県",
    "prefecture_kana": "カゴシマケン",
    "prefecture_code": 46,
    "city": "薩摩郡さつま町",
    "city_kana": "サツマグンサツマチョウ",
    "town": "山崎",
    "town_kana": "ヤマサキ",
    "street": null,
    "office_name": null,
    "office_name_kana": null
  },
  "1722": {
    "postcode": "8951722",
    "prefecture": "鹿児島県",
    "prefecture_kana": "カゴシマケン",
    "prefecture_code": 46,
    "city": "薩摩郡さつま町",
    "city_kana": "サツマグンサツマチョウ",
    "town": "久富木",
    "town_kana": "クブキ",
    "street": null,
    "office_name": null,
    "office_name_kana": null
  },
  "1723": {
    "postcode": "8951723",
    "prefecture": "鹿児島県",
    "prefecture_kana": "カゴシマケン",
    "prefecture_code": 46,
    "city": "薩摩郡さつま町",
    "city_kana": "サツマグンサツマチョウ",
    "town": "二渡",
    "town_kana": "フタワタリ",
    "street": null,
    "office_name": null,
    "office_name_kana": null
  },
  "1800": {
    "postcode": "8951800",
    "prefecture": "鹿児島県",
    "prefecture_kana": "カゴシマケン",
    "prefecture_code": 46,
    "city": "薩摩郡さつま町",
    "city_kana": "サツマグンサツマチョウ",
    "town": "",
    "town_kana": "",
    "street": null,
    "office_name": null,
    "office_name_kana": null
  },
  "1801": {
    "postcode": "8951801",
    "prefecture": "鹿児島県",
    "prefecture_kana": "カゴシマケン",
    "prefecture_code": 46,
    "city": "薩摩郡さつま町",
    "city_kana": "サツマグンサツマチョウ",
    "town": "広瀬",
    "town_kana": "ヒロセ",
    "street": null,
    "office_name": null,
    "office_name_kana": null
  },
  "1802": {
    "postcode": "8951802",
    "prefecture": "鹿児島県",
    "prefecture_kana": "カゴシマケン",
    "prefecture_code": 46,
    "city": "薩摩郡さつま町",
    "city_kana": "サツマグンサツマチョウ",
    "town": "田原",
    "town_kana": "タバル",
    "street": null,
    "office_name": null,
    "office_name_kana": null
  },
  "1803": {
    "postcode": "8951803",
    "prefecture": "鹿児島県",
    "prefecture_kana": "カゴシマケン",
    "prefecture_code": 46,
    "city": "薩摩郡さつま町",
    "city_kana": "サツマグンサツマチョウ",
    "town": "宮之城屋地",
    "town_kana": "ミヤノジョウヤチ",
    "street": null,
    "office_name": null,
    "office_name_kana": null
  },
  "1804": {
    "postcode": "8951804",
    "prefecture": "鹿児島県",
    "prefecture_kana": "カゴシマケン",
    "prefecture_code": 46,
    "city": "薩摩郡さつま町",
    "city_kana": "サツマグンサツマチョウ",
    "town": "船木",
    "town_kana": "フナキ",
    "street": null,
    "office_name": null,
    "office_name_kana": null
  },
  "1805": {
    "postcode": "8951805",
    "prefecture": "鹿児島県",
    "prefecture_kana": "カゴシマケン",
    "prefecture_code": 46,
    "city": "薩摩郡さつま町",
    "city_kana": "サツマグンサツマチョウ",
    "town": "白男川",
    "town_kana": "シラオガワ",
    "street": null,
    "office_name": null,
    "office_name_kana": null
  },
  "1806": {
    "postcode": "8951806",
    "prefecture": "鹿児島県",
    "prefecture_kana": "カゴシマケン",
    "prefecture_code": 46,
    "city": "薩摩郡さつま町",
    "city_kana": "サツマグンサツマチョウ",
    "town": "泊野",
    "town_kana": "トマリノ",
    "street": null,
    "office_name": null,
    "office_name_kana": null
  },
  "1807": {
    "postcode": "8951807",
    "prefecture": "鹿児島県",
    "prefecture_kana": "カゴシマケン",
    "prefecture_code": 46,
    "city": "薩摩郡さつま町",
    "city_kana": "サツマグンサツマチョウ",
    "town": "平川",
    "town_kana": "ヒラカワ",
    "street": null,
    "office_name": null,
    "office_name_kana": null
  },
  "1811": {
    "postcode": "8951811",
    "prefecture": "鹿児島県",
    "prefecture_kana": "カゴシマケン",
    "prefecture_code": 46,
    "city": "薩摩郡さつま町",
    "city_kana": "サツマグンサツマチョウ",
    "town": "虎居",
    "town_kana": "トライ",
    "street": null,
    "office_name": null,
    "office_name_kana": null
  },
  "1812": {
    "postcode": "8951812",
    "prefecture": "鹿児島県",
    "prefecture_kana": "カゴシマケン",
    "prefecture_code": 46,
    "city": "薩摩郡さつま町",
    "city_kana": "サツマグンサツマチョウ",
    "town": "虎居町",
    "town_kana": "トライマチ",
    "street": null,
    "office_name": null,
    "office_name_kana": null
  },
  "1813": {
    "postcode": "8951813",
    "prefecture": "鹿児島県",
    "prefecture_kana": "カゴシマケン",
    "prefecture_code": 46,
    "city": "薩摩郡さつま町",
    "city_kana": "サツマグンサツマチョウ",
    "town": "轟町",
    "town_kana": "トドロマチ",
    "street": null,
    "office_name": null,
    "office_name_kana": null
  },
  "1814": {
    "postcode": "8951814",
    "prefecture": "鹿児島県",
    "prefecture_kana": "カゴシマケン",
    "prefecture_code": 46,
    "city": "薩摩郡さつま町",
    "city_kana": "サツマグンサツマチョウ",
    "town": "旭町",
    "town_kana": "アサヒマチ",
    "street": null,
    "office_name": null,
    "office_name_kana": null
  },
  "1815": {
    "postcode": "8951815",
    "prefecture": "鹿児島県",
    "prefecture_kana": "カゴシマケン",
    "prefecture_code": 46,
    "city": "薩摩郡さつま町",
    "city_kana": "サツマグンサツマチョウ",
    "town": "西新町",
    "town_kana": "ニシシンマチ",
    "street": null,
    "office_name": null,
    "office_name_kana": null
  },
  "1816": {
    "postcode": "8951816",
    "prefecture": "鹿児島県",
    "prefecture_kana": "カゴシマケン",
    "prefecture_code": 46,
    "city": "薩摩郡さつま町",
    "city_kana": "サツマグンサツマチョウ",
    "town": "時吉",
    "town_kana": "トキヨシ",
    "street": null,
    "office_name": null,
    "office_name_kana": null
  },
  "1817": {
    "postcode": "8951817",
    "prefecture": "鹿児島県",
    "prefecture_kana": "カゴシマケン",
    "prefecture_code": 46,
    "city": "薩摩郡さつま町",
    "city_kana": "サツマグンサツマチョウ",
    "town": "湯田",
    "town_kana": "ユダ",
    "street": null,
    "office_name": null,
    "office_name_kana": null
  },
  "2101": {
    "postcode": "8952101",
    "prefecture": "鹿児島県",
    "prefecture_kana": "カゴシマケン",
    "prefecture_code": 46,
    "city": "薩摩郡さつま町",
    "city_kana": "サツマグンサツマチョウ",
    "town": "鶴田",
    "town_kana": "ツルダ",
    "street": null,
    "office_name": null,
    "office_name_kana": null
  },
  "2102": {
    "postcode": "8952102",
    "prefecture": "鹿児島県",
    "prefecture_kana": "カゴシマケン",
    "prefecture_code": 46,
    "city": "薩摩郡さつま町",
    "city_kana": "サツマグンサツマチョウ",
    "town": "神子",
    "town_kana": "コウシ",
    "street": null,
    "office_name": null,
    "office_name_kana": null
  },
  "2103": {
    "postcode": "8952103",
    "prefecture": "鹿児島県",
    "prefecture_kana": "カゴシマケン",
    "prefecture_code": 46,
    "city": "薩摩郡さつま町",
    "city_kana": "サツマグンサツマチョウ",
    "town": "紫尾",
    "town_kana": "シビ",
    "street": null,
    "office_name": null,
    "office_name_kana": null
  },
  "2104": {
    "postcode": "8952104",
    "prefecture": "鹿児島県",
    "prefecture_kana": "カゴシマケン",
    "prefecture_code": 46,
    "city": "薩摩郡さつま町",
    "city_kana": "サツマグンサツマチョウ",
    "town": "柏原",
    "town_kana": "カシワバル",
    "street": null,
    "office_name": null,
    "office_name_kana": null
  },
  "2131": {
    "postcode": "8952131",
    "prefecture": "鹿児島県",
    "prefecture_kana": "カゴシマケン",
    "prefecture_code": 46,
    "city": "薩摩郡さつま町",
    "city_kana": "サツマグンサツマチョウ",
    "town": "柊野",
    "town_kana": "クキノ",
    "street": null,
    "office_name": null,
    "office_name_kana": null
  },
  "2201": {
    "postcode": "8952201",
    "prefecture": "鹿児島県",
    "prefecture_kana": "カゴシマケン",
    "prefecture_code": 46,
    "city": "薩摩郡さつま町",
    "city_kana": "サツマグンサツマチョウ",
    "town": "求名",
    "town_kana": "グミョウ",
    "street": null,
    "office_name": null,
    "office_name_kana": null
  },
  "2202": {
    "postcode": "8952202",
    "prefecture": "鹿児島県",
    "prefecture_kana": "カゴシマケン",
    "prefecture_code": 46,
    "city": "薩摩郡さつま町",
    "city_kana": "サツマグンサツマチョウ",
    "town": "中津川",
    "town_kana": "ナカツガワ",
    "street": null,
    "office_name": null,
    "office_name_kana": null
  },
  "2203": {
    "postcode": "8952203",
    "prefecture": "鹿児島県",
    "prefecture_kana": "カゴシマケン",
    "prefecture_code": 46,
    "city": "薩摩郡さつま町",
    "city_kana": "サツマグンサツマチョウ",
    "town": "永野",
    "town_kana": "ナガノ",
    "street": null,
    "office_name": null,
    "office_name_kana": null
  },
  "2292": {
    "postcode": "8952292",
    "prefecture": "鹿児島県",
    "prefecture_kana": "カゴシマケン",
    "prefecture_code": 46,
    "city": "薩摩郡さつま町",
    "city_kana": "サツマグンサツマチョウ",
    "town": "求名",
    "town_kana": "グミョウ",
    "street": "１２８３７",
    "office_name": "さつま町　薩摩総合支所",
    "office_name_kana": "サツマチヨウ サツマソウゴウシシヨ"
  },
  "2298": {
    "postcode": "8952298",
    "prefecture": "鹿児島県",
    "prefecture_kana": "カゴシマケン",
    "prefecture_code": 46,
    "city": "薩摩郡さつま町",
    "city_kana": "サツマグンサツマチョウ",
    "town": "求名",
    "town_kana": "グミョウ",
    "street": "６１２２",
    "office_name": "インターナショナルゴルフリゾート　京セラ",
    "office_name_kana": "インタ-ナシヨナルゴルフリゾ-ト キヨウセラ"
  },
  "2441": {
    "postcode": "8952441",
    "prefecture": "鹿児島県",
    "prefecture_kana": "カゴシマケン",
    "prefecture_code": 46,
    "city": "伊佐市",
    "city_kana": "イサシ",
    "town": "大口曽木",
    "town_kana": "オオクチソギ",
    "street": null,
    "office_name": null,
    "office_name_kana": null
  },
  "2442": {
    "postcode": "8952442",
    "prefecture": "鹿児島県",
    "prefecture_kana": "カゴシマケン",
    "prefecture_code": 46,
    "city": "伊佐市",
    "city_kana": "イサシ",
    "town": "大口針持",
    "town_kana": "オオクチハリモチ",
    "street": null,
    "office_name": null,
    "office_name_kana": null
  },
  "2500": {
    "postcode": "8952500",
    "prefecture": "鹿児島県",
    "prefecture_kana": "カゴシマケン",
    "prefecture_code": 46,
    "city": "伊佐市",
    "city_kana": "イサシ",
    "town": "",
    "town_kana": "",
    "street": null,
    "office_name": null,
    "office_name_kana": null
  },
  "2501": {
    "postcode": "8952501",
    "prefecture": "鹿児島県",
    "prefecture_kana": "カゴシマケン",
    "prefecture_code": 46,
    "city": "伊佐市",
    "city_kana": "イサシ",
    "town": "大口牛尾",
    "town_kana": "オオクチウシオ",
    "street": null,
    "office_name": null,
    "office_name_kana": null
  },
  "2502": {
    "postcode": "8952502",
    "prefecture": "鹿児島県",
    "prefecture_kana": "カゴシマケン",
    "prefecture_code": 46,
    "city": "伊佐市",
    "city_kana": "イサシ",
    "town": "大口木ノ氏",
    "town_kana": "オオクチキノウジ",
    "street": null,
    "office_name": null,
    "office_name_kana": null
  },
  "2503": {
    "postcode": "8952503",
    "prefecture": "鹿児島県",
    "prefecture_kana": "カゴシマケン",
    "prefecture_code": 46,
    "city": "伊佐市",
    "city_kana": "イサシ",
    "town": "大口篠原",
    "town_kana": "オオクチシノハラ",
    "street": null,
    "office_name": null,
    "office_name_kana": null
  },
  "2504": {
    "postcode": "8952504",
    "prefecture": "鹿児島県",
    "prefecture_kana": "カゴシマケン",
    "prefecture_code": 46,
    "city": "伊佐市",
    "city_kana": "イサシ",
    "town": "大口青木",
    "town_kana": "オオクチアオキ",
    "street": null,
    "office_name": null,
    "office_name_kana": null
  },
  "2505": {
    "postcode": "8952505",
    "prefecture": "鹿児島県",
    "prefecture_kana": "カゴシマケン",
    "prefecture_code": 46,
    "city": "伊佐市",
    "city_kana": "イサシ",
    "town": "大口目丸",
    "town_kana": "オオクチメマル",
    "street": null,
    "office_name": null,
    "office_name_kana": null
  },
  "2506": {
    "postcode": "8952506",
    "prefecture": "鹿児島県",
    "prefecture_kana": "カゴシマケン",
    "prefecture_code": 46,
    "city": "伊佐市",
    "city_kana": "イサシ",
    "town": "大口原田",
    "town_kana": "オオクチハラダ",
    "street": null,
    "office_name": null,
    "office_name_kana": null
  },
  "2507": {
    "postcode": "8952507",
    "prefecture": "鹿児島県",
    "prefecture_kana": "カゴシマケン",
    "prefecture_code": 46,
    "city": "伊佐市",
    "city_kana": "イサシ",
    "town": "大口大田",
    "town_kana": "オオクチオオタ",
    "street": null,
    "office_name": null,
    "office_name_kana": null
  },
  "2511": {
    "postcode": "8952511",
    "prefecture": "鹿児島県",
    "prefecture_kana": "カゴシマケン",
    "prefecture_code": 46,
    "city": "伊佐市",
    "city_kana": "イサシ",
    "town": "大口里",
    "town_kana": "オオクチサト",
    "street": null,
    "office_name": null,
    "office_name_kana": null
  },
  "2512": {
    "postcode": "8952512",
    "prefecture": "鹿児島県",
    "prefecture_kana": "カゴシマケン",
    "prefecture_code": 46,
    "city": "伊佐市",
    "city_kana": "イサシ",
    "town": "大口元町",
    "town_kana": "オオクチモトマチ",
    "street": null,
    "office_name": null,
    "office_name_kana": null
  },
  "2513": {
    "postcode": "8952513",
    "prefecture": "鹿児島県",
    "prefecture_kana": "カゴシマケン",
    "prefecture_code": 46,
    "city": "伊佐市",
    "city_kana": "イサシ",
    "town": "大口上町",
    "town_kana": "オオクチカミマチ",
    "street": null,
    "office_name": null,
    "office_name_kana": null
  },
  "2521": {
    "postcode": "8952521",
    "prefecture": "鹿児島県",
    "prefecture_kana": "カゴシマケン",
    "prefecture_code": 46,
    "city": "伊佐市",
    "city_kana": "イサシ",
    "town": "大口鳥巣",
    "town_kana": "オオクチトリス",
    "street": null,
    "office_name": null,
    "office_name_kana": null
  },
  "2522": {
    "postcode": "8952522",
    "prefecture": "鹿児島県",
    "prefecture_kana": "カゴシマケン",
    "prefecture_code": 46,
    "city": "伊佐市",
    "city_kana": "イサシ",
    "town": "大口大島",
    "town_kana": "オオクチオオシマ",
    "street": null,
    "office_name": null,
    "office_name_kana": null
  },
  "2523": {
    "postcode": "8952523",
    "prefecture": "鹿児島県",
    "prefecture_kana": "カゴシマケン",
    "prefecture_code": 46,
    "city": "伊佐市",
    "city_kana": "イサシ",
    "town": "大口金波田",
    "town_kana": "オオクチカナハダ",
    "street": null,
    "office_name": null,
    "office_name_kana": null
  },
  "2524": {
    "postcode": "8952524",
    "prefecture": "鹿児島県",
    "prefecture_kana": "カゴシマケン",
    "prefecture_code": 46,
    "city": "伊佐市",
    "city_kana": "イサシ",
    "town": "大口堂崎",
    "town_kana": "オオクチドウザキ",
    "street": null,
    "office_name": null,
    "office_name_kana": null
  },
  "2525": {
    "postcode": "8952525",
    "prefecture": "鹿児島県",
    "prefecture_kana": "カゴシマケン",
    "prefecture_code": 46,
    "city": "伊佐市",
    "city_kana": "イサシ",
    "town": "大口下殿",
    "town_kana": "オオクチシモトノ",
    "street": null,
    "office_name": null,
    "office_name_kana": null
  },
  "2526": {
    "postcode": "8952526",
    "prefecture": "鹿児島県",
    "prefecture_kana": "カゴシマケン",
    "prefecture_code": 46,
    "city": "伊佐市",
    "city_kana": "イサシ",
    "town": "大口宮人",
    "town_kana": "オオクチミヤヒト",
    "street": null,
    "office_name": null,
    "office_name_kana": null
  },
  "2527": {
    "postcode": "8952527",
    "prefecture": "鹿児島県",
    "prefecture_kana": "カゴシマケン",
    "prefecture_code": 46,
    "city": "伊佐市",
    "city_kana": "イサシ",
    "town": "大口田代",
    "town_kana": "オオクチタシロ",
    "street": null,
    "office_name": null,
    "office_name_kana": null
  },
  "2528": {
    "postcode": "8952528",
    "prefecture": "鹿児島県",
    "prefecture_kana": "カゴシマケン",
    "prefecture_code": 46,
    "city": "伊佐市",
    "city_kana": "イサシ",
    "town": "大口川岩瀬",
    "town_kana": "オオクチカワイワゼ",
    "street": null,
    "office_name": null,
    "office_name_kana": null
  },
  "2529": {
    "postcode": "8952529",
    "prefecture": "鹿児島県",
    "prefecture_kana": "カゴシマケン",
    "prefecture_code": 46,
    "city": "伊佐市",
    "city_kana": "イサシ",
    "town": "大口白木",
    "town_kana": "オオクチシラキ",
    "street": null,
    "office_name": null,
    "office_name_kana": null
  },
  "2631": {
    "postcode": "8952631",
    "prefecture": "鹿児島県",
    "prefecture_kana": "カゴシマケン",
    "prefecture_code": 46,
    "city": "伊佐市",
    "city_kana": "イサシ",
    "town": "大口小木原",
    "town_kana": "オオクチコギハラ",
    "street": null,
    "office_name": null,
    "office_name_kana": null
  },
  "2632": {
    "postcode": "8952632",
    "prefecture": "鹿児島県",
    "prefecture_kana": "カゴシマケン",
    "prefecture_code": 46,
    "city": "伊佐市",
    "city_kana": "イサシ",
    "town": "大口渕辺",
    "town_kana": "オオクチフチベ",
    "street": null,
    "office_name": null,
    "office_name_kana": null
  },
  "2633": {
    "postcode": "8952633",
    "prefecture": "鹿児島県",
    "prefecture_kana": "カゴシマケン",
    "prefecture_code": 46,
    "city": "伊佐市",
    "city_kana": "イサシ",
    "town": "大口平出水",
    "town_kana": "オオクチヒライズミ",
    "street": null,
    "office_name": null,
    "office_name_kana": null
  },
  "2634": {
    "postcode": "8952634",
    "prefecture": "鹿児島県",
    "prefecture_kana": "カゴシマケン",
    "prefecture_code": 46,
    "city": "伊佐市",
    "city_kana": "イサシ",
    "town": "大口小川内",
    "town_kana": "オオクチコガワウチ",
    "street": null,
    "office_name": null,
    "office_name_kana": null
  },
  "2635": {
    "postcode": "8952635",
    "prefecture": "鹿児島県",
    "prefecture_kana": "カゴシマケン",
    "prefecture_code": 46,
    "city": "伊佐市",
    "city_kana": "イサシ",
    "town": "大口山野",
    "town_kana": "オオクチヤマノ",
    "street": null,
    "office_name": null,
    "office_name_kana": null
  },
  "2701": {
    "postcode": "8952701",
    "prefecture": "鹿児島県",
    "prefecture_kana": "カゴシマケン",
    "prefecture_code": 46,
    "city": "伊佐市",
    "city_kana": "イサシ",
    "town": "菱刈前目",
    "town_kana": "ヒシカリマエメ",
    "street": null,
    "office_name": null,
    "office_name_kana": null
  },
  "2702": {
    "postcode": "8952702",
    "prefecture": "鹿児島県",
    "prefecture_kana": "カゴシマケン",
    "prefecture_code": 46,
    "city": "伊佐市",
    "city_kana": "イサシ",
    "town": "菱刈下手",
    "town_kana": "ヒシカリシモデ",
    "street": null,
    "office_name": null,
    "office_name_kana": null
  },
  "2703": {
    "postcode": "8952703",
    "prefecture": "鹿児島県",
    "prefecture_kana": "カゴシマケン",
    "prefecture_code": 46,
    "city": "伊佐市",
    "city_kana": "イサシ",
    "town": "菱刈花北",
    "town_kana": "ヒシカリハナキタ",
    "street": null,
    "office_name": null,
    "office_name_kana": null
  },
  "2704": {
    "postcode": "8952704",
    "prefecture": "鹿児島県",
    "prefecture_kana": "カゴシマケン",
    "prefecture_code": 46,
    "city": "伊佐市",
    "city_kana": "イサシ",
    "town": "菱刈市山",
    "town_kana": "ヒシカリイチヤマ",
    "street": null,
    "office_name": null,
    "office_name_kana": null
  },
  "2705": {
    "postcode": "8952705",
    "prefecture": "鹿児島県",
    "prefecture_kana": "カゴシマケン",
    "prefecture_code": 46,
    "city": "伊佐市",
    "city_kana": "イサシ",
    "town": "菱刈重留",
    "town_kana": "ヒシカリシゲトメ",
    "street": null,
    "office_name": null,
    "office_name_kana": null
  },
  "2706": {
    "postcode": "8952706",
    "prefecture": "鹿児島県",
    "prefecture_kana": "カゴシマケン",
    "prefecture_code": 46,
    "city": "伊佐市",
    "city_kana": "イサシ",
    "town": "菱刈田中",
    "town_kana": "ヒシカリタナカ",
    "street": null,
    "office_name": null,
    "office_name_kana": null
  },
  "2707": {
    "postcode": "8952707",
    "prefecture": "鹿児島県",
    "prefecture_kana": "カゴシマケン",
    "prefecture_code": 46,
    "city": "伊佐市",
    "city_kana": "イサシ",
    "town": "菱刈徳辺",
    "town_kana": "ヒシカリトクベ",
    "street": null,
    "office_name": null,
    "office_name_kana": null
  },
  "2708": {
    "postcode": "8952708",
    "prefecture": "鹿児島県",
    "prefecture_kana": "カゴシマケン",
    "prefecture_code": 46,
    "city": "伊佐市",
    "city_kana": "イサシ",
    "town": "菱刈川北",
    "town_kana": "ヒシカリカワキタ",
    "street": null,
    "office_name": null,
    "office_name_kana": null
  },
  "2811": {
    "postcode": "8952811",
    "prefecture": "鹿児島県",
    "prefecture_kana": "カゴシマケン",
    "prefecture_code": 46,
    "city": "伊佐市",
    "city_kana": "イサシ",
    "town": "菱刈荒田",
    "town_kana": "ヒシカリアラタ",
    "street": null,
    "office_name": null,
    "office_name_kana": null
  },
  "2812": {
    "postcode": "8952812",
    "prefecture": "鹿児島県",
    "prefecture_kana": "カゴシマケン",
    "prefecture_code": 46,
    "city": "伊佐市",
    "city_kana": "イサシ",
    "town": "菱刈川南",
    "town_kana": "ヒシカリカワミナミ",
    "street": null,
    "office_name": null,
    "office_name_kana": null
  },
  "2813": {
    "postcode": "8952813",
    "prefecture": "鹿児島県",
    "prefecture_kana": "カゴシマケン",
    "prefecture_code": 46,
    "city": "伊佐市",
    "city_kana": "イサシ",
    "town": "菱刈南浦",
    "town_kana": "ヒシカリミナミウラ",
    "street": null,
    "office_name": null,
    "office_name_kana": null
  },
  "8501": {
    "postcode": "8958501",
    "prefecture": "鹿児島県",
    "prefecture_kana": "カゴシマケン",
    "prefecture_code": 46,
    "city": "薩摩川内市",
    "city_kana": "サツマセンダイシ",
    "town": "神田町",
    "town_kana": "カンダチョウ",
    "street": "１−２２",
    "office_name": "川内総務事務所",
    "office_name_kana": "センダイソウムジムシヨ"
  },
  "8502": {
    "postcode": "8958502",
    "prefecture": "鹿児島県",
    "prefecture_kana": "カゴシマケン",
    "prefecture_code": 46,
    "city": "薩摩川内市",
    "city_kana": "サツマセンダイシ",
    "town": "神田町",
    "town_kana": "カンダチョウ",
    "street": "１−２２",
    "office_name": "北薩福祉事務所",
    "office_name_kana": "ホクサツフクシジムシヨ"
  },
  "8503": {
    "postcode": "8958503",
    "prefecture": "鹿児島県",
    "prefecture_kana": "カゴシマケン",
    "prefecture_code": 46,
    "city": "薩摩川内市",
    "city_kana": "サツマセンダイシ",
    "town": "神田町",
    "town_kana": "カンダチョウ",
    "street": "１−２２",
    "office_name": "川薩農林事務所",
    "office_name_kana": "センサツノウリンジムシヨ"
  },
  "8504": {
    "postcode": "8958504",
    "prefecture": "鹿児島県",
    "prefecture_kana": "カゴシマケン",
    "prefecture_code": 46,
    "city": "薩摩川内市",
    "city_kana": "サツマセンダイシ",
    "town": "神田町",
    "town_kana": "カンダチョウ",
    "street": "１−２２",
    "office_name": "川薩耕地事務所",
    "office_name_kana": "センサツコウチジムシヨ"
  },
  "8505": {
    "postcode": "8958505",
    "prefecture": "鹿児島県",
    "prefecture_kana": "カゴシマケン",
    "prefecture_code": 46,
    "city": "薩摩川内市",
    "city_kana": "サツマセンダイシ",
    "town": "神田町",
    "town_kana": "カンダチョウ",
    "street": "１−２２",
    "office_name": "川内土木事務所",
    "office_name_kana": "センダイドボクジムシヨ"
  },
  "8506": {
    "postcode": "8958506",
    "prefecture": "鹿児島県",
    "prefecture_kana": "カゴシマケン",
    "prefecture_code": 46,
    "city": "薩摩川内市",
    "city_kana": "サツマセンダイシ",
    "town": "神田町",
    "town_kana": "カンダチョウ",
    "street": "１−２２",
    "office_name": "北薩教育事務所",
    "office_name_kana": "ホクサツキヨウイクジムシヨ"
  },
  "8515": {
    "postcode": "8958515",
    "prefecture": "鹿児島県",
    "prefecture_kana": "カゴシマケン",
    "prefecture_code": 46,
    "city": "薩摩川内市",
    "city_kana": "サツマセンダイシ",
    "town": "隈之城町",
    "town_kana": "クマノジョウチョウ",
    "street": "１００１",
    "office_name": "学校法人　川内純心女子学園",
    "office_name_kana": "ガツコウホウジンセンダイジユンシンジヨシガクエン"
  },
  "8519": {
    "postcode": "8958519",
    "prefecture": "鹿児島県",
    "prefecture_kana": "カゴシマケン",
    "prefecture_code": 46,
    "city": "薩摩川内市",
    "city_kana": "サツマセンダイシ",
    "town": "向田本町",
    "town_kana": "ムコウダホンマチ",
    "street": "１６−１２",
    "office_name": "西日本電信電話　株式会社　川内支店",
    "office_name_kana": "ニシニホンデンシンデンワ カブシキガイシヤ センダイシテン"
  },
  "8540": {
    "postcode": "8958540",
    "prefecture": "鹿児島県",
    "prefecture_kana": "カゴシマケン",
    "prefecture_code": 46,
    "city": "薩摩川内市",
    "city_kana": "サツマセンダイシ",
    "town": "宮内町",
    "town_kana": "ミヤウチチョウ",
    "street": "１−２６",
    "office_name": "中越パルプ工業株式会社　川内工場",
    "office_name_kana": "チユウエツパルプコウギヨウカブシキガイシヤ センダイコウジヨウ"
  },
  "8555": {
    "postcode": "8958555",
    "prefecture": "鹿児島県",
    "prefecture_kana": "カゴシマケン",
    "prefecture_code": 46,
    "city": "薩摩川内市",
    "city_kana": "サツマセンダイシ",
    "town": "神田町",
    "town_kana": "カンダチョウ",
    "street": "１０−１２",
    "office_name": "株式会社　大和",
    "office_name_kana": "カブシキガイシヤ ダイワ"
  },
  "8588": {
    "postcode": "8958588",
    "prefecture": "鹿児島県",
    "prefecture_kana": "カゴシマケン",
    "prefecture_code": 46,
    "city": "薩摩川内市",
    "city_kana": "サツマセンダイシ",
    "town": "西向田町",
    "town_kana": "ニシムコウダチョウ",
    "street": "５−１１",
    "office_name": "株式会社　植村組",
    "office_name_kana": "カブシキガイシヤ ウエムラグミ"
  },
  "8601": {
    "postcode": "8958601",
    "prefecture": "鹿児島県",
    "prefecture_kana": "カゴシマケン",
    "prefecture_code": 46,
    "city": "薩摩川内市",
    "city_kana": "サツマセンダイシ",
    "town": "若葉町",
    "town_kana": "ワカバチョウ",
    "street": "１−２５（川内郵便局私書箱第４号）",
    "office_name": "川内税務署",
    "office_name_kana": "センダイゼイムシヨ"
  },
  "8650": {
    "postcode": "8958650",
    "prefecture": "鹿児島県",
    "prefecture_kana": "カゴシマケン",
    "prefecture_code": 46,
    "city": "薩摩川内市",
    "city_kana": "サツマセンダイシ",
    "town": "神田町",
    "town_kana": "カンダチョウ",
    "street": "３−２２（川内郵便局私書箱第２２号）",
    "office_name": "薩摩川内市役所",
    "office_name_kana": "サツマセンダイシヤクシヨ"
  },
  "8686": {
    "postcode": "8958686",
    "prefecture": "鹿児島県",
    "prefecture_kana": "カゴシマケン",
    "prefecture_code": 46,
    "city": "薩摩川内市",
    "city_kana": "サツマセンダイシ",
    "town": "若松町",
    "town_kana": "ワカマツチョウ",
    "street": "３番３３号",
    "office_name": "九州電力　株式会社　川内営業所",
    "office_name_kana": "キユウシユウデンリヨク カブシキガイシヤ センダイエイギヨウシヨ"
  }
}