{
  "0121": {
    "postcode": "8990121",
    "prefecture": "鹿児島県",
    "prefecture_kana": "カゴシマケン",
    "prefecture_code": 46,
    "city": "出水市",
    "city_kana": "イズミシ",
    "town": "米ノ津町",
    "town_kana": "コメノツマチ",
    "street": null,
    "office_name": null,
    "office_name_kana": null
  },
  "0122": {
    "postcode": "8990122",
    "prefecture": "鹿児島県",
    "prefecture_kana": "カゴシマケン",
    "prefecture_code": 46,
    "city": "出水市",
    "city_kana": "イズミシ",
    "town": "境町",
    "town_kana": "サカイチョウ",
    "street": null,
    "office_name": null,
    "office_name_kana": null
  },
  "0123": {
    "postcode": "8990123",
    "prefecture": "鹿児島県",
    "prefecture_kana": "カゴシマケン",
    "prefecture_code": 46,
    "city": "出水市",
    "city_kana": "イズミシ",
    "town": "下鯖町",
    "town_kana": "シモサバチョウ",
    "street": null,
    "office_name": null,
    "office_name_kana": null
  },
  "0124": {
    "postcode": "8990124",
    "prefecture": "鹿児島県",
    "prefecture_kana": "カゴシマケン",
    "prefecture_code": 46,
    "city": "出水市",
    "city_kana": "イズミシ",
    "town": "美原町",
    "town_kana": "ミハラチョウ",
    "street": null,
    "office_name": null,
    "office_name_kana": null
  },
  "0125": {
    "postcode": "8990125",
    "prefecture": "鹿児島県",
    "prefecture_kana": "カゴシマケン",
    "prefecture_code": 46,
    "city": "出水市",
    "city_kana": "イズミシ",
    "town": "黄金町",
    "town_kana": "コガネマチ",
    "street": null,
    "office_name": null,
    "office_name_kana": null
  },
  "0126": {
    "postcode": "8990126",
    "prefecture": "鹿児島県",
    "prefecture_kana": "カゴシマケン",
    "prefecture_code": 46,
    "city": "出水市",
    "city_kana": "イズミシ",
    "town": "六月田町",
    "town_kana": "ロクガツダマチ",
    "street": null,
    "office_name": null,
    "office_name_kana": null
  },
  "0131": {
    "postcode": "8990131",
    "prefecture": "鹿児島県",
    "prefecture_kana": "カゴシマケン",
    "prefecture_code": 46,
    "city": "出水市",
    "city_kana": "イズミシ",
    "town": "明神町",
    "town_kana": "ミョウジンチョウ",
    "street": null,
    "office_name": null,
    "office_name_kana": null
  },
  "0132": {
    "postcode": "8990132",
    "prefecture": "鹿児島県",
    "prefecture_kana": "カゴシマケン",
    "prefecture_code": 46,
    "city": "出水市",
    "city_kana": "イズミシ",
    "town": "下知識町",
    "town_kana": "シモチシキチョウ",
    "street": null,
    "office_name": null,
    "office_name_kana": null
  },
  "0133": {
    "postcode": "8990133",
    "prefecture": "鹿児島県",
    "prefecture_kana": "カゴシマケン",
    "prefecture_code": 46,
    "city": "出水市",
    "city_kana": "イズミシ",
    "town": "福ノ江町",
    "town_kana": "フクノエチョウ",
    "street": null,
    "office_name": null,
    "office_name_kana": null
  },
  "0134": {
    "postcode": "8990134",
    "prefecture": "鹿児島県",
    "prefecture_kana": "カゴシマケン",
    "prefecture_code": 46,
    "city": "出水市",
    "city_kana": "イズミシ",
    "town": "浦田町",
    "town_kana": "ウラタチョウ",
    "street": null,
    "office_name": null,
    "office_name_kana": null
  },
  "0136": {
    "postcode": "8990136",
    "prefecture": "鹿児島県",
    "prefecture_kana": "カゴシマケン",
    "prefecture_code": 46,
    "city": "出水市",
    "city_kana": "イズミシ",
    "town": "汐見町",
    "town_kana": "シオミチョウ",
    "street": null,
    "office_name": null,
    "office_name_kana": null
  },
  "0137": {
    "postcode": "8990137",
    "prefecture": "鹿児島県",
    "prefecture_kana": "カゴシマケン",
    "prefecture_code": 46,
    "city": "出水市",
    "city_kana": "イズミシ",
    "town": "今釜町",
    "town_kana": "イマガマチョウ",
    "street": null,
    "office_name": null,
    "office_name_kana": null
  },
  "0138": {
    "postcode": "8990138",
    "prefecture": "鹿児島県",
    "prefecture_kana": "カゴシマケン",
    "prefecture_code": 46,
    "city": "出水市",
    "city_kana": "イズミシ",
    "town": "住吉町",
    "town_kana": "スミヨシチョウ",
    "street": null,
    "office_name": null,
    "office_name_kana": null
  },
  "0200": {
    "postcode": "8990200",
    "prefecture": "鹿児島県",
    "prefecture_kana": "カゴシマケン",
    "prefecture_code": 46,
    "city": "出水市",
    "city_kana": "イズミシ",
    "town": "",
    "town_kana": "",
    "street": null,
    "office_name": null,
    "office_name_kana": null
  },
  "0201": {
    "postcode": "8990201",
    "prefecture": "鹿児島県",
    "prefecture_kana": "カゴシマケン",
    "prefecture_code": 46,
    "city": "出水市",
    "city_kana": "イズミシ",
    "town": "緑町",
    "town_kana": "ミドリマチ",
    "street": null,
    "office_name": null,
    "office_name_kana": null
  },
  "0202": {
    "postcode": "8990202",
    "prefecture": "鹿児島県",
    "prefecture_kana": "カゴシマケン",
    "prefecture_code": 46,
    "city": "出水市",
    "city_kana": "イズミシ",
    "town": "昭和町",
    "town_kana": "ショウワマチ",
    "street": null,
    "office_name": null,
    "office_name_kana": null
  },
  "0203": {
    "postcode": "8990203",
    "prefecture": "鹿児島県",
    "prefecture_kana": "カゴシマケン",
    "prefecture_code": 46,
    "city": "出水市",
    "city_kana": "イズミシ",
    "town": "上鯖渕",
    "town_kana": "カミサバブチ",
    "street": null,
    "office_name": null,
    "office_name_kana": null
  },
  "0204": {
    "postcode": "8990204",
    "prefecture": "鹿児島県",
    "prefecture_kana": "カゴシマケン",
    "prefecture_code": 46,
    "city": "出水市",
    "city_kana": "イズミシ",
    "town": "麓町",
    "town_kana": "フモトチョウ",
    "street": null,
    "office_name": null,
    "office_name_kana": null
  },
  "0205": {
    "postcode": "8990205",
    "prefecture": "鹿児島県",
    "prefecture_kana": "カゴシマケン",
    "prefecture_code": 46,
    "city": "出水市",
    "city_kana": "イズミシ",
    "town": "本町",
    "town_kana": "ホンマチ",
    "street": null,
    "office_name": null,
    "office_name_kana": null
  },
  "0206": {
    "postcode": "8990206",
    "prefecture": "鹿児島県",
    "prefecture_kana": "カゴシマケン",
    "prefecture_code": 46,
    "city": "出水市",
    "city_kana": "イズミシ",
    "town": "向江町",
    "town_kana": "ムカエマチ",
    "street": null,
    "office_name": null,
    "office_name_kana": null
  },
  "0207": {
    "postcode": "8990207",
    "prefecture": "鹿児島県",
    "prefecture_kana": "カゴシマケン",
    "prefecture_code": 46,
    "city": "出水市",
    "city_kana": "イズミシ",
    "town": "中央町",
    "town_kana": "チュウオウチョウ",
    "street": null,
    "office_name": null,
    "office_name_kana": null
  },
  "0208": {
    "postcode": "8990208",
    "prefecture": "鹿児島県",
    "prefecture_kana": "カゴシマケン",
    "prefecture_code": 46,
    "city": "出水市",
    "city_kana": "イズミシ",
    "town": "文化町",
    "town_kana": "ブンカチョウ",
    "street": null,
    "office_name": null,
    "office_name_kana": null
  },
  "0211": {
    "postcode": "8990211",
    "prefecture": "鹿児島県",
    "prefecture_kana": "カゴシマケン",
    "prefecture_code": 46,
    "city": "出水市",
    "city_kana": "イズミシ",
    "town": "知識町",
    "town_kana": "チシキチョウ",
    "street": null,
    "office_name": null,
    "office_name_kana": null
  },
  "0212": {
    "postcode": "8990212",
    "prefecture": "鹿児島県",
    "prefecture_kana": "カゴシマケン",
    "prefecture_code": 46,
    "city": "出水市",
    "city_kana": "イズミシ",
    "town": "上知識町",
    "town_kana": "カミチシキチョウ",
    "street": null,
    "office_name": null,
    "office_name_kana": null
  },
  "0213": {
    "postcode": "8990213",
    "prefecture": "鹿児島県",
    "prefecture_kana": "カゴシマケン",
    "prefecture_code": 46,
    "city": "出水市",
    "city_kana": "イズミシ",
    "town": "西出水町",
    "town_kana": "ニシイズミチョウ",
    "street": null,
    "office_name": null,
    "office_name_kana": null
  },
  "0214": {
    "postcode": "8990214",
    "prefecture": "鹿児島県",
    "prefecture_kana": "カゴシマケン",
    "prefecture_code": 46,
    "city": "出水市",
    "city_kana": "イズミシ",
    "town": "五万石町",
    "town_kana": "ゴマンゴクチョウ",
    "street": null,
    "office_name": null,
    "office_name_kana": null
  },
  "0215": {
    "postcode": "8990215",
    "prefecture": "鹿児島県",
    "prefecture_kana": "カゴシマケン",
    "prefecture_code": 46,
    "city": "出水市",
    "city_kana": "イズミシ",
    "town": "武本",
    "town_kana": "タケモト",
    "street": null,
    "office_name": null,
    "office_name_kana": null
  },
  "0216": {
    "postcode": "8990216",
    "prefecture": "鹿児島県",
    "prefecture_kana": "カゴシマケン",
    "prefecture_code": 46,
    "city": "出水市",
    "city_kana": "イズミシ",
    "town": "大野原町",
    "town_kana": "オオノハラチョウ",
    "street": null,
    "office_name": null,
    "office_name_kana": null
  },
  "0217": {
    "postcode": "8990217",
    "prefecture": "鹿児島県",
    "prefecture_kana": "カゴシマケン",
    "prefecture_code": 46,
    "city": "出水市",
    "city_kana": "イズミシ",
    "town": "平和町",
    "town_kana": "ヘイワチョウ",
    "street": null,
    "office_name": null,
    "office_name_kana": null
  },
  "0292": {
    "postcode": "8990292",
    "prefecture": "鹿児島県",
    "prefecture_kana": "カゴシマケン",
    "prefecture_code": 46,
    "city": "出水市",
    "city_kana": "イズミシ",
    "town": "緑町",
    "town_kana": "ミドリマチ",
    "street": "１−３",
    "office_name": "出水市役所",
    "office_name_kana": "イズミシヤクシヨ"
  },
  "0293": {
    "postcode": "8990293",
    "prefecture": "鹿児島県",
    "prefecture_kana": "カゴシマケン",
    "prefecture_code": 46,
    "city": "出水市",
    "city_kana": "イズミシ",
    "town": "大野原町",
    "town_kana": "オオノハラチョウ",
    "street": "２０８０",
    "office_name": "ＮＥＣ液晶テクノロジー　株式会社　鹿児島工場",
    "office_name_kana": "エヌイ-シ-エキシヨウテクノロジ- カブシキカイシヤ カゴシマコウジヨウ"
  },
  "0295": {
    "postcode": "8990295",
    "prefecture": "鹿児島県",
    "prefecture_kana": "カゴシマケン",
    "prefecture_code": 46,
    "city": "出水市",
    "city_kana": "イズミシ",
    "town": "上知識町",
    "town_kana": "カミチシキチョウ",
    "street": "４８５番地",
    "office_name": "住化積水フィルム　株式会社　出水工場",
    "office_name_kana": "スミカセキスイフイルム カブシキガイシヤ イズミコウジヨウ"
  },
  "0297": {
    "postcode": "8990297",
    "prefecture": "鹿児島県",
    "prefecture_kana": "カゴシマケン",
    "prefecture_code": 46,
    "city": "出水市",
    "city_kana": "イズミシ",
    "town": "平和町",
    "town_kana": "ヘイワチョウ",
    "street": "２２５（出水郵便局私書箱第５号）",
    "office_name": "マルイ事業協同組合",
    "office_name_kana": "マルイジギヨウキヨウドウクミアイ"
  },
  "0298": {
    "postcode": "8990298",
    "prefecture": "鹿児島県",
    "prefecture_kana": "カゴシマケン",
    "prefecture_code": 46,
    "city": "出水市",
    "city_kana": "イズミシ",
    "town": "昭和町",
    "town_kana": "ショウワマチ",
    "street": "２２−１３（出水郵便局私書箱第４号）",
    "office_name": "出水　税務署",
    "office_name_kana": "イズミ ゼイムシヨ"
  },
  "0341": {
    "postcode": "8990341",
    "prefecture": "鹿児島県",
    "prefecture_kana": "カゴシマケン",
    "prefecture_code": 46,
    "city": "出水市",
    "city_kana": "イズミシ",
    "town": "上大川内",
    "town_kana": "カミオオカワウチ",
    "street": null,
    "office_name": null,
    "office_name_kana": null
  },
  "0342": {
    "postcode": "8990342",
    "prefecture": "鹿児島県",
    "prefecture_kana": "カゴシマケン",
    "prefecture_code": 46,
    "city": "出水市",
    "city_kana": "イズミシ",
    "town": "下大川内",
    "town_kana": "シモオオカワウチ",
    "street": null,
    "office_name": null,
    "office_name_kana": null
  },
  "0401": {
    "postcode": "8990401",
    "prefecture": "鹿児島県",
    "prefecture_kana": "カゴシマケン",
    "prefecture_code": 46,
    "city": "出水市",
    "city_kana": "イズミシ",
    "town": "高尾野町大久保",
    "town_kana": "タカオノマチオオクボ",
    "street": null,
    "office_name": null,
    "office_name_kana": null
  },
  "0402": {
    "postcode": "8990402",
    "prefecture": "鹿児島県",
    "prefecture_kana": "カゴシマケン",
    "prefecture_code": 46,
    "city": "出水市",
    "city_kana": "イズミシ",
    "town": "高尾野町柴引",
    "town_kana": "タカオノマチシバヒキ",
    "street": null,
    "office_name": null,
    "office_name_kana": null
  },
  "0403": {
    "postcode": "8990403",
    "prefecture": "鹿児島県",
    "prefecture_kana": "カゴシマケン",
    "prefecture_code": 46,
    "city": "出水市",
    "city_kana": "イズミシ",
    "town": "高尾野町唐笠木",
    "town_kana": "タカオノマチカラガサキ",
    "street": null,
    "office_name": null,
    "office_name_kana": null
  },
  "0404": {
    "postcode": "8990404",
    "prefecture": "鹿児島県",
    "prefecture_kana": "カゴシマケン",
    "prefecture_code": 46,
    "city": "出水市",
    "city_kana": "イズミシ",
    "town": "高尾野町下高尾野",
    "town_kana": "タカオノマチシモタカオノ",
    "street": null,
    "office_name": null,
    "office_name_kana": null
  },
  "0405": {
    "postcode": "8990405",
    "prefecture": "鹿児島県",
    "prefecture_kana": "カゴシマケン",
    "prefecture_code": 46,
    "city": "出水市",
    "city_kana": "イズミシ",
    "town": "高尾野町下水流",
    "town_kana": "タカオノマチシモズル",
    "street": null,
    "office_name": null,
    "office_name_kana": null
  },
  "0406": {
    "postcode": "8990406",
    "prefecture": "鹿児島県",
    "prefecture_kana": "カゴシマケン",
    "prefecture_code": 46,
    "city": "出水市",
    "city_kana": "イズミシ",
    "town": "高尾野町上水流",
    "town_kana": "タカオノマチカミズル",
    "street": null,
    "office_name": null,
    "office_name_kana": null
  },
  "0407": {
    "postcode": "8990407",
    "prefecture": "鹿児島県",
    "prefecture_kana": "カゴシマケン",
    "prefecture_code": 46,
    "city": "出水市",
    "city_kana": "イズミシ",
    "town": "高尾野町江内",
    "town_kana": "タカオノマチエウチ",
    "street": null,
    "office_name": null,
    "office_name_kana": null
  },
  "0435": {
    "postcode": "8990435",
    "prefecture": "鹿児島県",
    "prefecture_kana": "カゴシマケン",
    "prefecture_code": 46,
    "city": "出水市",
    "city_kana": "イズミシ",
    "town": "荘",
    "town_kana": "ショウ",
    "street": null,
    "office_name": null,
    "office_name_kana": null
  },
  "0492": {
    "postcode": "8990492",
    "prefecture": "鹿児島県",
    "prefecture_kana": "カゴシマケン",
    "prefecture_code": 46,
    "city": "出水市",
    "city_kana": "イズミシ",
    "town": "高尾野町大久保",
    "town_kana": "タカオノマチオオクボ",
    "street": "７",
    "office_name": "出水市役所　高尾野支所",
    "office_name_kana": "イズミシヤクシヨ タカオノシシヨ"
  },
  "0501": {
    "postcode": "8990501",
    "prefecture": "鹿児島県",
    "prefecture_kana": "カゴシマケン",
    "prefecture_code": 46,
    "city": "出水市",
    "city_kana": "イズミシ",
    "town": "野田町上名",
    "town_kana": "ノダチョウカミミョウ",
    "street": null,
    "office_name": null,
    "office_name_kana": null
  },
  "0502": {
    "postcode": "8990502",
    "prefecture": "鹿児島県",
    "prefecture_kana": "カゴシマケン",
    "prefecture_code": 46,
    "city": "出水市",
    "city_kana": "イズミシ",
    "town": "野田町下名",
    "town_kana": "ノダチョウシモミョウ",
    "street": null,
    "office_name": null,
    "office_name_kana": null
  },
  "1131": {
    "postcode": "8991131",
    "prefecture": "鹿児島県",
    "prefecture_kana": "カゴシマケン",
    "prefecture_code": 46,
    "city": "阿久根市",
    "city_kana": "アクネシ",
    "town": "脇本",
    "town_kana": "ワキモト",
    "street": null,
    "office_name": null,
    "office_name_kana": null
  },
  "1211": {
    "postcode": "8991211",
    "prefecture": "鹿児島県",
    "prefecture_kana": "カゴシマケン",
    "prefecture_code": 46,
    "city": "出水郡長島町",
    "city_kana": "イズミグンナガシマチョウ",
    "town": "山門野",
    "town_kana": "ヤマドノ",
    "street": null,
    "office_name": null,
    "office_name_kana": null
  },
  "1212": {
    "postcode": "8991212",
    "prefecture": "鹿児島県",
    "prefecture_kana": "カゴシマケン",
    "prefecture_code": 46,
    "city": "出水郡長島町",
    "city_kana": "イズミグンナガシマチョウ",
    "town": "川床",
    "town_kana": "カワトコ",
    "street": null,
    "office_name": null,
    "office_name_kana": null
  },
  "1301": {
    "postcode": "8991301",
    "prefecture": "鹿児島県",
    "prefecture_kana": "カゴシマケン",
    "prefecture_code": 46,
    "city": "出水郡長島町",
    "city_kana": "イズミグンナガシマチョウ",
    "town": "蔵之元",
    "town_kana": "クラノモト",
    "street": null,
    "office_name": null,
    "office_name_kana": null
  },
  "1302": {
    "postcode": "8991302",
    "prefecture": "鹿児島県",
    "prefecture_kana": "カゴシマケン",
    "prefecture_code": 46,
    "city": "出水郡長島町",
    "city_kana": "イズミグンナガシマチョウ",
    "town": "平尾",
    "town_kana": "ヒラオ",
    "street": null,
    "office_name": null,
    "office_name_kana": null
  },
  "1303": {
    "postcode": "8991303",
    "prefecture": "鹿児島県",
    "prefecture_kana": "カゴシマケン",
    "prefecture_code": 46,
    "city": "出水郡長島町",
    "city_kana": "イズミグンナガシマチョウ",
    "town": "指江",
    "town_kana": "サスエ",
    "street": null,
    "office_name": null,
    "office_name_kana": null
  },
  "1304": {
    "postcode": "8991304",
    "prefecture": "鹿児島県",
    "prefecture_kana": "カゴシマケン",
    "prefecture_code": 46,
    "city": "出水郡長島町",
    "city_kana": "イズミグンナガシマチョウ",
    "town": "城川内",
    "town_kana": "ジョウカワウチ",
    "street": null,
    "office_name": null,
    "office_name_kana": null
  },
  "1321": {
    "postcode": "8991321",
    "prefecture": "鹿児島県",
    "prefecture_kana": "カゴシマケン",
    "prefecture_code": 46,
    "city": "出水郡長島町",
    "city_kana": "イズミグンナガシマチョウ",
    "town": "下山門野",
    "town_kana": "シモヤマドノ",
    "street": null,
    "office_name": null,
    "office_name_kana": null
  },
  "1395": {
    "postcode": "8991395",
    "prefecture": "鹿児島県",
    "prefecture_kana": "カゴシマケン",
    "prefecture_code": 46,
    "city": "出水郡長島町",
    "city_kana": "イズミグンナガシマチョウ",
    "town": "指江",
    "town_kana": "サスエ",
    "street": "７８７",
    "office_name": "長島町役場　指江庁舎",
    "office_name_kana": "ナガシマチヨウヤクバ サスエチヨウシヤ"
  },
  "1400": {
    "postcode": "8991400",
    "prefecture": "鹿児島県",
    "prefecture_kana": "カゴシマケン",
    "prefecture_code": 46,
    "city": "出水郡長島町",
    "city_kana": "イズミグンナガシマチョウ",
    "town": "",
    "town_kana": "",
    "street": null,
    "office_name": null,
    "office_name_kana": null
  },
  "1401": {
    "postcode": "8991401",
    "prefecture": "鹿児島県",
    "prefecture_kana": "カゴシマケン",
    "prefecture_code": 46,
    "city": "出水郡長島町",
    "city_kana": "イズミグンナガシマチョウ",
    "town": "鷹巣",
    "town_kana": "タカノス",
    "street": null,
    "office_name": null,
    "office_name_kana": null
  },
  "1402": {
    "postcode": "8991402",
    "prefecture": "鹿児島県",
    "prefecture_kana": "カゴシマケン",
    "prefecture_code": 46,
    "city": "出水郡長島町",
    "city_kana": "イズミグンナガシマチョウ",
    "town": "浦底",
    "town_kana": "ウラソコ",
    "street": null,
    "office_name": null,
    "office_name_kana": null
  },
  "1403": {
    "postcode": "8991403",
    "prefecture": "鹿児島県",
    "prefecture_kana": "カゴシマケン",
    "prefecture_code": 46,
    "city": "出水郡長島町",
    "city_kana": "イズミグンナガシマチョウ",
    "town": "諸浦",
    "town_kana": "ショウラ",
    "street": null,
    "office_name": null,
    "office_name_kana": null
  },
  "1498": {
    "postcode": "8991498",
    "prefecture": "鹿児島県",
    "prefecture_kana": "カゴシマケン",
    "prefecture_code": 46,
    "city": "出水郡長島町",
    "city_kana": "イズミグンナガシマチョウ",
    "town": "鷹巣",
    "town_kana": "タカノス",
    "street": "１８７５−１",
    "office_name": "長島町役場",
    "office_name_kana": "ナガシマチヨウヤクバ"
  },
  "1501": {
    "postcode": "8991501",
    "prefecture": "鹿児島県",
    "prefecture_kana": "カゴシマケン",
    "prefecture_code": 46,
    "city": "出水郡長島町",
    "city_kana": "イズミグンナガシマチョウ",
    "town": "獅子島",
    "town_kana": "シシジマ",
    "street": null,
    "office_name": null,
    "office_name_kana": null
  },
  "1600": {
    "postcode": "8991600",
    "prefecture": "鹿児島県",
    "prefecture_kana": "カゴシマケン",
    "prefecture_code": 46,
    "city": "阿久根市",
    "city_kana": "アクネシ",
    "town": "",
    "town_kana": "",
    "street": null,
    "office_name": null,
    "office_name_kana": null
  },
  "1601": {
    "postcode": "8991601",
    "prefecture": "鹿児島県",
    "prefecture_kana": "カゴシマケン",
    "prefecture_code": 46,
    "city": "阿久根市",
    "city_kana": "アクネシ",
    "town": "折口",
    "town_kana": "オリグチ",
    "street": null,
    "office_name": null,
    "office_name_kana": null
  },
  "1602": {
    "postcode": "8991602",
    "prefecture": "鹿児島県",
    "prefecture_kana": "カゴシマケン",
    "prefecture_code": 46,
    "city": "阿久根市",
    "city_kana": "アクネシ",
    "town": "多田",
    "town_kana": "タダ",
    "street": null,
    "office_name": null,
    "office_name_kana": null
  },
  "1603": {
    "postcode": "8991603",
    "prefecture": "鹿児島県",
    "prefecture_kana": "カゴシマケン",
    "prefecture_code": 46,
    "city": "阿久根市",
    "city_kana": "アクネシ",
    "town": "鶴川内",
    "town_kana": "ツルガワウチ",
    "street": null,
    "office_name": null,
    "office_name_kana": null
  },
  "1604": {
    "postcode": "8991604",
    "prefecture": "鹿児島県",
    "prefecture_kana": "カゴシマケン",
    "prefecture_code": 46,
    "city": "阿久根市",
    "city_kana": "アクネシ",
    "town": "山下",
    "town_kana": "ヤマシタ",
    "street": null,
    "office_name": null,
    "office_name_kana": null
  },
  "1611": {
    "postcode": "8991611",
    "prefecture": "鹿児島県",
    "prefecture_kana": "カゴシマケン",
    "prefecture_code": 46,
    "city": "阿久根市",
    "city_kana": "アクネシ",
    "town": "赤瀬川",
    "town_kana": "アカセガワ",
    "street": null,
    "office_name": null,
    "office_name_kana": null
  },
  "1612": {
    "postcode": "8991612",
    "prefecture": "鹿児島県",
    "prefecture_kana": "カゴシマケン",
    "prefecture_code": 46,
    "city": "阿久根市",
    "city_kana": "アクネシ",
    "town": "丸尾町",
    "town_kana": "マルオチョウ",
    "street": null,
    "office_name": null,
    "office_name_kana": null
  },
  "1613": {
    "postcode": "8991613",
    "prefecture": "鹿児島県",
    "prefecture_kana": "カゴシマケン",
    "prefecture_code": 46,
    "city": "阿久根市",
    "city_kana": "アクネシ",
    "town": "新町",
    "town_kana": "シンマチ",
    "street": null,
    "office_name": null,
    "office_name_kana": null
  },
  "1614": {
    "postcode": "8991614",
    "prefecture": "鹿児島県",
    "prefecture_kana": "カゴシマケン",
    "prefecture_code": 46,
    "city": "阿久根市",
    "city_kana": "アクネシ",
    "town": "晴海町",
    "town_kana": "ハルミチョウ",
    "street": null,
    "office_name": null,
    "office_name_kana": null
  },
  "1615": {
    "postcode": "8991615",
    "prefecture": "鹿児島県",
    "prefecture_kana": "カゴシマケン",
    "prefecture_code": 46,
    "city": "阿久根市",
    "city_kana": "アクネシ",
    "town": "琴平町",
    "town_kana": "コトヒラチョウ",
    "street": null,
    "office_name": null,
    "office_name_kana": null
  },
  "1616": {
    "postcode": "8991616",
    "prefecture": "鹿児島県",
    "prefecture_kana": "カゴシマケン",
    "prefecture_code": 46,
    "city": "阿久根市",
    "city_kana": "アクネシ",
    "town": "栄町",
    "town_kana": "サカエマチ",
    "street": null,
    "office_name": null,
    "office_name_kana": null
  },
  "1617": {
    "postcode": "8991617",
    "prefecture": "鹿児島県",
    "prefecture_kana": "カゴシマケン",
    "prefecture_code": 46,
    "city": "阿久根市",
    "city_kana": "アクネシ",
    "town": "浜町",
    "town_kana": "ハママチ",
    "street": null,
    "office_name": null,
    "office_name_kana": null
  },
  "1621": {
    "postcode": "8991621",
    "prefecture": "鹿児島県",
    "prefecture_kana": "カゴシマケン",
    "prefecture_code": 46,
    "city": "阿久根市",
    "city_kana": "アクネシ",
    "town": "本町",
    "town_kana": "ホンマチ",
    "street": null,
    "office_name": null,
    "office_name_kana": null
  },
  "1622": {
    "postcode": "8991622",
    "prefecture": "鹿児島県",
    "prefecture_kana": "カゴシマケン",
    "prefecture_code": 46,
    "city": "阿久根市",
    "city_kana": "アクネシ",
    "town": "高松町",
    "town_kana": "タカマツチョウ",
    "street": null,
    "office_name": null,
    "office_name_kana": null
  },
  "1623": {
    "postcode": "8991623",
    "prefecture": "鹿児島県",
    "prefecture_kana": "カゴシマケン",
    "prefecture_code": 46,
    "city": "阿久根市",
    "city_kana": "アクネシ",
    "town": "港町",
    "town_kana": "ミナトマチ",
    "street": null,
    "office_name": null,
    "office_name_kana": null
  },
  "1624": {
    "postcode": "8991624",
    "prefecture": "鹿児島県",
    "prefecture_kana": "カゴシマケン",
    "prefecture_code": 46,
    "city": "阿久根市",
    "city_kana": "アクネシ",
    "town": "大丸町",
    "town_kana": "オオマルチョウ",
    "street": null,
    "office_name": null,
    "office_name_kana": null
  },
  "1625": {
    "postcode": "8991625",
    "prefecture": "鹿児島県",
    "prefecture_kana": "カゴシマケン",
    "prefecture_code": 46,
    "city": "阿久根市",
    "city_kana": "アクネシ",
    "town": "波留",
    "town_kana": "ハル",
    "street": null,
    "office_name": null,
    "office_name_kana": null
  },
  "1626": {
    "postcode": "8991626",
    "prefecture": "鹿児島県",
    "prefecture_kana": "カゴシマケン",
    "prefecture_code": 46,
    "city": "阿久根市",
    "city_kana": "アクネシ",
    "town": "鶴見町",
    "town_kana": "ツルミチョウ",
    "street": null,
    "office_name": null,
    "office_name_kana": null
  },
  "1627": {
    "postcode": "8991627",
    "prefecture": "鹿児島県",
    "prefecture_kana": "カゴシマケン",
    "prefecture_code": 46,
    "city": "阿久根市",
    "city_kana": "アクネシ",
    "town": "西目",
    "town_kana": "ニシメ",
    "street": null,
    "office_name": null,
    "office_name_kana": null
  },
  "1628": {
    "postcode": "8991628",
    "prefecture": "鹿児島県",
    "prefecture_kana": "カゴシマケン",
    "prefecture_code": 46,
    "city": "阿久根市",
    "city_kana": "アクネシ",
    "town": "塩鶴町",
    "town_kana": "シオツルチョウ",
    "street": null,
    "office_name": null,
    "office_name_kana": null
  },
  "1629": {
    "postcode": "8991629",
    "prefecture": "鹿児島県",
    "prefecture_kana": "カゴシマケン",
    "prefecture_code": 46,
    "city": "阿久根市",
    "city_kana": "アクネシ",
    "town": "塩浜町",
    "town_kana": "シオハマチョウ",
    "street": null,
    "office_name": null,
    "office_name_kana": null
  },
  "1696": {
    "postcode": "8991696",
    "prefecture": "鹿児島県",
    "prefecture_kana": "カゴシマケン",
    "prefecture_code": 46,
    "city": "阿久根市",
    "city_kana": "アクネシ",
    "town": "鶴見町",
    "town_kana": "ツルミチョウ",
    "street": "２００（阿久根郵便局私書箱第１号）",
    "office_name": "阿久根市役所",
    "office_name_kana": "アクネシヤクシヨ"
  },
  "1741": {
    "postcode": "8991741",
    "prefecture": "鹿児島県",
    "prefecture_kana": "カゴシマケン",
    "prefecture_code": 46,
    "city": "阿久根市",
    "city_kana": "アクネシ",
    "town": "大川",
    "town_kana": "オオカワ",
    "street": null,
    "office_name": null,
    "office_name_kana": null
  },
  "1801": {
    "postcode": "8991801",
    "prefecture": "鹿児島県",
    "prefecture_kana": "カゴシマケン",
    "prefecture_code": 46,
    "city": "薩摩川内市",
    "city_kana": "サツマセンダイシ",
    "town": "西方町",
    "town_kana": "ニシカタチョウ",
    "street": null,
    "office_name": null,
    "office_name_kana": null
  },
  "1802": {
    "postcode": "8991802",
    "prefecture": "鹿児島県",
    "prefecture_kana": "カゴシマケン",
    "prefecture_code": 46,
    "city": "薩摩川内市",
    "city_kana": "サツマセンダイシ",
    "town": "湯田町",
    "town_kana": "ユダチョウ",
    "street": null,
    "office_name": null,
    "office_name_kana": null
  },
  "1921": {
    "postcode": "8991921",
    "prefecture": "鹿児島県",
    "prefecture_kana": "カゴシマケン",
    "prefecture_code": 46,
    "city": "薩摩川内市",
    "city_kana": "サツマセンダイシ",
    "town": "水引町",
    "town_kana": "ミズヒキチョウ",
    "street": null,
    "office_name": null,
    "office_name_kana": null
  },
  "1922": {
    "postcode": "8991922",
    "prefecture": "鹿児島県",
    "prefecture_kana": "カゴシマケン",
    "prefecture_code": 46,
    "city": "薩摩川内市",
    "city_kana": "サツマセンダイシ",
    "town": "小倉町",
    "town_kana": "コクラチョウ",
    "street": null,
    "office_name": null,
    "office_name_kana": null
  },
  "1923": {
    "postcode": "8991923",
    "prefecture": "鹿児島県",
    "prefecture_kana": "カゴシマケン",
    "prefecture_code": 46,
    "city": "薩摩川内市",
    "city_kana": "サツマセンダイシ",
    "town": "湯島町",
    "town_kana": "ユシマチョウ",
    "street": null,
    "office_name": null,
    "office_name_kana": null
  },
  "1924": {
    "postcode": "8991924",
    "prefecture": "鹿児島県",
    "prefecture_kana": "カゴシマケン",
    "prefecture_code": 46,
    "city": "薩摩川内市",
    "city_kana": "サツマセンダイシ",
    "town": "港町",
    "town_kana": "ミナトチョウ",
    "street": null,
    "office_name": null,
    "office_name_kana": null
  },
  "1925": {
    "postcode": "8991925",
    "prefecture": "鹿児島県",
    "prefecture_kana": "カゴシマケン",
    "prefecture_code": 46,
    "city": "薩摩川内市",
    "city_kana": "サツマセンダイシ",
    "town": "網津町",
    "town_kana": "オウヅチョウ",
    "street": null,
    "office_name": null,
    "office_name_kana": null
  },
  "1926": {
    "postcode": "8991926",
    "prefecture": "鹿児島県",
    "prefecture_kana": "カゴシマケン",
    "prefecture_code": 46,
    "city": "薩摩川内市",
    "city_kana": "サツマセンダイシ",
    "town": "サーキュラーパーク",
    "town_kana": "サーキュラーパーク",
    "street": null,
    "office_name": null,
    "office_name_kana": null
  },
  "2101": {
    "postcode": "8992101",
    "prefecture": "鹿児島県",
    "prefecture_kana": "カゴシマケン",
    "prefecture_code": 46,
    "city": "いちき串木野市",
    "city_kana": "イチキクシキノシ",
    "town": "湊町",
    "town_kana": "ミナトマチ",
    "street": null,
    "office_name": null,
    "office_name_kana": null
  },
  "2102": {
    "postcode": "8992102",
    "prefecture": "鹿児島県",
    "prefecture_kana": "カゴシマケン",
    "prefecture_code": 46,
    "city": "いちき串木野市",
    "city_kana": "イチキクシキノシ",
    "town": "川上",
    "town_kana": "カワカミ",
    "street": null,
    "office_name": null,
    "office_name_kana": null
  },
  "2103": {
    "postcode": "8992103",
    "prefecture": "鹿児島県",
    "prefecture_kana": "カゴシマケン",
    "prefecture_code": 46,
    "city": "いちき串木野市",
    "city_kana": "イチキクシキノシ",
    "town": "大里",
    "town_kana": "オオザト",
    "street": null,
    "office_name": null,
    "office_name_kana": null
  },
  "2192": {
    "postcode": "8992192",
    "prefecture": "鹿児島県",
    "prefecture_kana": "カゴシマケン",
    "prefecture_code": 46,
    "city": "いちき串木野市",
    "city_kana": "イチキクシキノシ",
    "town": "湊町",
    "town_kana": "ミナトマチ",
    "street": "３３０５",
    "office_name": "いちき串木野市役所　市来庁舎",
    "office_name_kana": "イチキクシキノシヤクシヨ イチキチヨウシヤ"
  },
  "2201": {
    "postcode": "8992201",
    "prefecture": "鹿児島県",
    "prefecture_kana": "カゴシマケン",
    "prefecture_code": 46,
    "city": "日置市",
    "city_kana": "ヒオキシ",
    "town": "東市来町湯田",
    "town_kana": "ヒガシイチキチョウユダ",
    "street": null,
    "office_name": null,
    "office_name_kana": null
  },
  "2202": {
    "postcode": "8992202",
    "prefecture": "鹿児島県",
    "prefecture_kana": "カゴシマケン",
    "prefecture_code": 46,
    "city": "日置市",
    "city_kana": "ヒオキシ",
    "town": "東市来町長里",
    "town_kana": "ヒガシイチキチョウナガサト",
    "street": null,
    "office_name": null,
    "office_name_kana": null
  },
  "2203": {
    "postcode": "8992203",
    "prefecture": "鹿児島県",
    "prefecture_kana": "カゴシマケン",
    "prefecture_code": 46,
    "city": "日置市",
    "city_kana": "ヒオキシ",
    "town": "東市来町伊作田",
    "town_kana": "ヒガシイチキチョウイザクダ",
    "street": null,
    "office_name": null,
    "office_name_kana": null
  },
  "2204": {
    "postcode": "8992204",
    "prefecture": "鹿児島県",
    "prefecture_kana": "カゴシマケン",
    "prefecture_code": 46,
    "city": "日置市",
    "city_kana": "ヒオキシ",
    "town": "東市来町神之川",
    "town_kana": "ヒガシイチキチョウカミノカワ",
    "street": null,
    "office_name": null,
    "office_name_kana": null
  },
  "2292": {
    "postcode": "8992292",
    "prefecture": "鹿児島県",
    "prefecture_kana": "カゴシマケン",
    "prefecture_code": 46,
    "city": "日置市",
    "city_kana": "ヒオキシ",
    "town": "東市来町長里",
    "town_kana": "ヒガシイチキチョウナガサト",
    "street": "８７−１",
    "office_name": "日置市役所　東市来支所",
    "office_name_kana": "ヒオキシヤクシヨ ヒガシイチキシシヨ"
  },
  "2311": {
    "postcode": "8992311",
    "prefecture": "鹿児島県",
    "prefecture_kana": "カゴシマケン",
    "prefecture_code": 46,
    "city": "日置市",
    "city_kana": "ヒオキシ",
    "town": "東市来町養母",
    "town_kana": "ヒガシイチキチョウヨウボ",
    "street": null,
    "office_name": null,
    "office_name_kana": null
  },
  "2421": {
    "postcode": "8992421",
    "prefecture": "鹿児島県",
    "prefecture_kana": "カゴシマケン",
    "prefecture_code": 46,
    "city": "日置市",
    "city_kana": "ヒオキシ",
    "town": "日吉町神之川",
    "town_kana": "ヒヨシチョウカミノカワ",
    "street": null,
    "office_name": null,
    "office_name_kana": null
  },
  "2431": {
    "postcode": "8992431",
    "prefecture": "鹿児島県",
    "prefecture_kana": "カゴシマケン",
    "prefecture_code": 46,
    "city": "日置市",
    "city_kana": "ヒオキシ",
    "town": "東市来町美山",
    "town_kana": "ヒガシイチキチョウミヤマ",
    "street": null,
    "office_name": null,
    "office_name_kana": null
  },
  "2432": {
    "postcode": "8992432",
    "prefecture": "鹿児島県",
    "prefecture_kana": "カゴシマケン",
    "prefecture_code": 46,
    "city": "日置市",
    "city_kana": "ヒオキシ",
    "town": "東市来町寺脇",
    "town_kana": "ヒガシイチキチョウテラワキ",
    "street": null,
    "office_name": null,
    "office_name_kana": null
  },
  "2433": {
    "postcode": "8992433",
    "prefecture": "鹿児島県",
    "prefecture_kana": "カゴシマケン",
    "prefecture_code": 46,
    "city": "日置市",
    "city_kana": "ヒオキシ",
    "town": "東市来町宮田",
    "town_kana": "ヒガシイチキチョウミヤタ",
    "street": null,
    "office_name": null,
    "office_name_kana": null
  },
  "2434": {
    "postcode": "8992434",
    "prefecture": "鹿児島県",
    "prefecture_kana": "カゴシマケン",
    "prefecture_code": 46,
    "city": "日置市",
    "city_kana": "ヒオキシ",
    "town": "東市来町南神之川",
    "town_kana": "ヒガシイチキチョウミナミカミノカワ",
    "street": null,
    "office_name": null,
    "office_name_kana": null
  },
  "2441": {
    "postcode": "8992441",
    "prefecture": "鹿児島県",
    "prefecture_kana": "カゴシマケン",
    "prefecture_code": 46,
    "city": "日置市",
    "city_kana": "ヒオキシ",
    "town": "伊集院町桑畑",
    "town_kana": "イジュウインチョウクワバタ",
    "street": null,
    "office_name": null,
    "office_name_kana": null
  },
  "2442": {
    "postcode": "8992442",
    "prefecture": "鹿児島県",
    "prefecture_kana": "カゴシマケン",
    "prefecture_code": 46,
    "city": "日置市",
    "city_kana": "ヒオキシ",
    "town": "伊集院町野田",
    "town_kana": "イジュウインチョウノダ",
    "street": null,
    "office_name": null,
    "office_name_kana": null
  },
  "2443": {
    "postcode": "8992443",
    "prefecture": "鹿児島県",
    "prefecture_kana": "カゴシマケン",
    "prefecture_code": 46,
    "city": "日置市",
    "city_kana": "ヒオキシ",
    "town": "伊集院町寺脇",
    "town_kana": "イジュウインチョウテラワキ",
    "street": null,
    "office_name": null,
    "office_name_kana": null
  },
  "2500": {
    "postcode": "8992500",
    "prefecture": "鹿児島県",
    "prefecture_kana": "カゴシマケン",
    "prefecture_code": 46,
    "city": "日置市",
    "city_kana": "ヒオキシ",
    "town": "",
    "town_kana": "",
    "street": null,
    "office_name": null,
    "office_name_kana": null
  },
  "2501": {
    "postcode": "8992501",
    "prefecture": "鹿児島県",
    "prefecture_kana": "カゴシマケン",
    "prefecture_code": 46,
    "city": "日置市",
    "city_kana": "ヒオキシ",
    "town": "伊集院町下谷口",
    "town_kana": "イジュウインチョウシモタニグチ",
    "street": null,
    "office_name": null,
    "office_name_kana": null
  },
  "2502": {
    "postcode": "8992502",
    "prefecture": "鹿児島県",
    "prefecture_kana": "カゴシマケン",
    "prefecture_code": 46,
    "city": "日置市",
    "city_kana": "ヒオキシ",
    "town": "伊集院町徳重",
    "town_kana": "イジュウインチョウトクシゲ",
    "street": null,
    "office_name": null,
    "office_name_kana": null
  },
  "2503": {
    "postcode": "8992503",
    "prefecture": "鹿児島県",
    "prefecture_kana": "カゴシマケン",
    "prefecture_code": 46,
    "city": "日置市",
    "city_kana": "ヒオキシ",
    "town": "伊集院町妙円寺",
    "town_kana": "イジュウインチョウミョウエンジ",
    "street": null,
    "office_name": null,
    "office_name_kana": null
  },
  "2504": {
    "postcode": "8992504",
    "prefecture": "鹿児島県",
    "prefecture_kana": "カゴシマケン",
    "prefecture_code": 46,
    "city": "日置市",
    "city_kana": "ヒオキシ",
    "town": "伊集院町郡",
    "town_kana": "イジュウインチョウコオリ",
    "street": null,
    "office_name": null,
    "office_name_kana": null
  },
  "2505": {
    "postcode": "8992505",
    "prefecture": "鹿児島県",
    "prefecture_kana": "カゴシマケン",
    "prefecture_code": 46,
    "city": "日置市",
    "city_kana": "ヒオキシ",
    "town": "伊集院町猪鹿倉",
    "town_kana": "イジュウインチョウイガクラ",
    "street": null,
    "office_name": null,
    "office_name_kana": null
  },
  "2506": {
    "postcode": "8992506",
    "prefecture": "鹿児島県",
    "prefecture_kana": "カゴシマケン",
    "prefecture_code": 46,
    "city": "日置市",
    "city_kana": "ヒオキシ",
    "town": "伊集院町清藤",
    "town_kana": "イジュウインチョウキヨフジ",
    "street": null,
    "office_name": null,
    "office_name_kana": null
  },
  "2511": {
    "postcode": "8992511",
    "prefecture": "鹿児島県",
    "prefecture_kana": "カゴシマケン",
    "prefecture_code": 46,
    "city": "日置市",
    "city_kana": "ヒオキシ",
    "town": "伊集院町下神殿",
    "town_kana": "イジュウインチョウシモコウドノ",
    "street": null,
    "office_name": null,
    "office_name_kana": null
  },
  "2512": {
    "postcode": "8992512",
    "prefecture": "鹿児島県",
    "prefecture_kana": "カゴシマケン",
    "prefecture_code": 46,
    "city": "日置市",
    "city_kana": "ヒオキシ",
    "town": "伊集院町上神殿",
    "town_kana": "イジュウインチョウカミコウドノ",
    "street": null,
    "office_name": null,
    "office_name_kana": null
  },
  "2513": {
    "postcode": "8992513",
    "prefecture": "鹿児島県",
    "prefecture_kana": "カゴシマケン",
    "prefecture_code": 46,
    "city": "日置市",
    "city_kana": "ヒオキシ",
    "town": "伊集院町麦生田",
    "town_kana": "イジュウインチョウムギウダ",
    "street": null,
    "office_name": null,
    "office_name_kana": null
  },
  "2514": {
    "postcode": "8992514",
    "prefecture": "鹿児島県",
    "prefecture_kana": "カゴシマケン",
    "prefecture_code": 46,
    "city": "日置市",
    "city_kana": "ヒオキシ",
    "town": "伊集院町中川",
    "town_kana": "イジュウインチョウナカガワ",
    "street": null,
    "office_name": null,
    "office_name_kana": null
  },
  "2515": {
    "postcode": "8992515",
    "prefecture": "鹿児島県",
    "prefecture_kana": "カゴシマケン",
    "prefecture_code": 46,
    "city": "日置市",
    "city_kana": "ヒオキシ",
    "town": "伊集院町竹之山",
    "town_kana": "イジュウインチョウタケノヤマ",
    "street": null,
    "office_name": null,
    "office_name_kana": null
  },
  "2516": {
    "postcode": "8992516",
    "prefecture": "鹿児島県",
    "prefecture_kana": "カゴシマケン",
    "prefecture_code": 46,
    "city": "日置市",
    "city_kana": "ヒオキシ",
    "town": "伊集院町土橋",
    "town_kana": "イジュウインチョウツチバシ",
    "street": null,
    "office_name": null,
    "office_name_kana": null
  },
  "2521": {
    "postcode": "8992521",
    "prefecture": "鹿児島県",
    "prefecture_kana": "カゴシマケン",
    "prefecture_code": 46,
    "city": "日置市",
    "city_kana": "ヒオキシ",
    "town": "伊集院町大田",
    "town_kana": "イジュウインチョウオオタ",
    "street": null,
    "office_name": null,
    "office_name_kana": null
  },
  "2522": {
    "postcode": "8992522",
    "prefecture": "鹿児島県",
    "prefecture_kana": "カゴシマケン",
    "prefecture_code": 46,
    "city": "日置市",
    "city_kana": "ヒオキシ",
    "town": "伊集院町飯牟礼",
    "town_kana": "イジュウインチョウイイムレ",
    "street": null,
    "office_name": null,
    "office_name_kana": null
  },
  "2523": {
    "postcode": "8992523",
    "prefecture": "鹿児島県",
    "prefecture_kana": "カゴシマケン",
    "prefecture_code": 46,
    "city": "日置市",
    "city_kana": "ヒオキシ",
    "town": "伊集院町古城",
    "town_kana": "イジュウインチョウフルジョウ",
    "street": null,
    "office_name": null,
    "office_name_kana": null
  },
  "2524": {
    "postcode": "8992524",
    "prefecture": "鹿児島県",
    "prefecture_kana": "カゴシマケン",
    "prefecture_code": 46,
    "city": "日置市",
    "city_kana": "ヒオキシ",
    "town": "伊集院町恋之原",
    "town_kana": "イジュウインチョウコイノハラ",
    "street": null,
    "office_name": null,
    "office_name_kana": null
  },
  "2531": {
    "postcode": "8992531",
    "prefecture": "鹿児島県",
    "prefecture_kana": "カゴシマケン",
    "prefecture_code": 46,
    "city": "鹿児島市",
    "city_kana": "カゴシマシ",
    "town": "小山田町",
    "town_kana": "コヤマダチョウ",
    "street": null,
    "office_name": null,
    "office_name_kana": null
  },
  "2592": {
    "postcode": "8992592",
    "prefecture": "鹿児島県",
    "prefecture_kana": "カゴシマケン",
    "prefecture_code": 46,
    "city": "日置市",
    "city_kana": "ヒオキシ",
    "town": "伊集院町郡",
    "town_kana": "イジュウインチョウコオリ",
    "street": "１丁目１００",
    "office_name": "日置市役所",
    "office_name_kana": "ヒオキシヤクシヨ"
  },
  "2593": {
    "postcode": "8992593",
    "prefecture": "鹿児島県",
    "prefecture_kana": "カゴシマケン",
    "prefecture_code": 46,
    "city": "日置市",
    "city_kana": "ヒオキシ",
    "town": "伊集院町清藤",
    "town_kana": "イジュウインチョウキヨフジ",
    "street": "１９３８",
    "office_name": "鹿児島　城西高等学校",
    "office_name_kana": "カゴシマ ジヨウセイコウトウガツコウ"
  },
  "2594": {
    "postcode": "8992594",
    "prefecture": "鹿児島県",
    "prefecture_kana": "カゴシマケン",
    "prefecture_code": 46,
    "city": "日置市",
    "city_kana": "ヒオキシ",
    "town": "伊集院町猪鹿倉",
    "town_kana": "イジュウインチョウイガクラ",
    "street": "２０",
    "office_name": "株式会社　ヒガシマル",
    "office_name_kana": "カブシキガイシヤ ヒガシマル"
  },
  "2595": {
    "postcode": "8992595",
    "prefecture": "鹿児島県",
    "prefecture_kana": "カゴシマケン",
    "prefecture_code": 46,
    "city": "日置市",
    "city_kana": "ヒオキシ",
    "town": "伊集院町徳重",
    "town_kana": "イジュウインチョウトクシゲ",
    "street": "１７８６番地６",
    "office_name": "パナソニック　デバイスオプティカルセミコンダクター　株式会社",
    "office_name_kana": "パナソニツク デバイスオプテイカルセミコンダクタ- カブシキカイシヤ"
  },
  "2596": {
    "postcode": "8992596",
    "prefecture": "鹿児島県",
    "prefecture_kana": "カゴシマケン",
    "prefecture_code": 46,
    "city": "日置市",
    "city_kana": "ヒオキシ",
    "town": "伊集院町下谷口",
    "town_kana": "イジュウインチョウシモタニグチ",
    "street": "１８１０",
    "office_name": "さつま日置　農業協同組合",
    "office_name_kana": "サツマヒオキ ノウギヨウキヨウドウクミアイ"
  },
  "2701": {
    "postcode": "8992701",
    "prefecture": "鹿児島県",
    "prefecture_kana": "カゴシマケン",
    "prefecture_code": 46,
    "city": "鹿児島市",
    "city_kana": "カゴシマシ",
    "town": "石谷町",
    "town_kana": "イシダニチョウ",
    "street": null,
    "office_name": null,
    "office_name_kana": null
  },
  "2702": {
    "postcode": "8992702",
    "prefecture": "鹿児島県",
    "prefecture_kana": "カゴシマケン",
    "prefecture_code": 46,
    "city": "鹿児島市",
    "city_kana": "カゴシマシ",
    "town": "福山町",
    "town_kana": "フクヤマチョウ",
    "street": null,
    "office_name": null,
    "office_name_kana": null
  },
  "2703": {
    "postcode": "8992703",
    "prefecture": "鹿児島県",
    "prefecture_kana": "カゴシマケン",
    "prefecture_code": 46,
    "city": "鹿児島市",
    "city_kana": "カゴシマシ",
    "town": "上谷口町",
    "town_kana": "カミタニグチチョウ",
    "street": null,
    "office_name": null,
    "office_name_kana": null
  },
  "2704": {
    "postcode": "8992704",
    "prefecture": "鹿児島県",
    "prefecture_kana": "カゴシマケン",
    "prefecture_code": 46,
    "city": "鹿児島市",
    "city_kana": "カゴシマシ",
    "town": "春山町",
    "town_kana": "ハルヤマチョウ",
    "street": null,
    "office_name": null,
    "office_name_kana": null
  },
  "2705": {
    "postcode": "8992705",
    "prefecture": "鹿児島県",
    "prefecture_kana": "カゴシマケン",
    "prefecture_code": 46,
    "city": "鹿児島市",
    "city_kana": "カゴシマシ",
    "town": "直木町",
    "town_kana": "ナオキチョウ",
    "street": null,
    "office_name": null,
    "office_name_kana": null
  },
  "2706": {
    "postcode": "8992706",
    "prefecture": "鹿児島県",
    "prefecture_kana": "カゴシマケン",
    "prefecture_code": 46,
    "city": "鹿児島市",
    "city_kana": "カゴシマシ",
    "town": "入佐町",
    "town_kana": "イリサチョウ",
    "street": null,
    "office_name": null,
    "office_name_kana": null
  },
  "2707": {
    "postcode": "8992707",
    "prefecture": "鹿児島県",
    "prefecture_kana": "カゴシマケン",
    "prefecture_code": 46,
    "city": "鹿児島市",
    "city_kana": "カゴシマシ",
    "town": "松陽台町",
    "town_kana": "ショウヨウダイチョウ",
    "street": null,
    "office_name": null,
    "office_name_kana": null
  },
  "2708": {
    "postcode": "8992708",
    "prefecture": "鹿児島県",
    "prefecture_kana": "カゴシマケン",
    "prefecture_code": 46,
    "city": "鹿児島市",
    "city_kana": "カゴシマシ",
    "town": "四元町",
    "town_kana": "ヨツモトチョウ",
    "street": null,
    "office_name": null,
    "office_name_kana": null
  },
  "2709": {
    "postcode": "8992709",
    "prefecture": "鹿児島県",
    "prefecture_kana": "カゴシマケン",
    "prefecture_code": 46,
    "city": "鹿児島市",
    "city_kana": "カゴシマシ",
    "town": "平田町",
    "town_kana": "ヒラタチョウ",
    "street": null,
    "office_name": null,
    "office_name_kana": null
  },
  "2792": {
    "postcode": "8992792",
    "prefecture": "鹿児島県",
    "prefecture_kana": "カゴシマケン",
    "prefecture_code": 46,
    "city": "鹿児島市",
    "city_kana": "カゴシマシ",
    "town": "上谷口町",
    "town_kana": "カミタニグチチョウ",
    "street": "２８８３",
    "office_name": "鹿児島市役所松元支所",
    "office_name_kana": "カゴシマシヤクシヨ マツモトシシヨ"
  },
  "3101": {
    "postcode": "8993101",
    "prefecture": "鹿児島県",
    "prefecture_kana": "カゴシマケン",
    "prefecture_code": 46,
    "city": "日置市",
    "city_kana": "ヒオキシ",
    "town": "日吉町日置",
    "town_kana": "ヒヨシチョウヒオキ",
    "street": null,
    "office_name": null,
    "office_name_kana": null
  },
  "3102": {
    "postcode": "8993102",
    "prefecture": "鹿児島県",
    "prefecture_kana": "カゴシマケン",
    "prefecture_code": 46,
    "city": "日置市",
    "city_kana": "ヒオキシ",
    "town": "日吉町山田",
    "town_kana": "ヒヨシチョウヤマダ",
    "street": null,
    "office_name": null,
    "office_name_kana": null
  },
  "3103": {
    "postcode": "8993103",
    "prefecture": "鹿児島県",
    "prefecture_kana": "カゴシマケン",
    "prefecture_code": 46,
    "city": "日置市",
    "city_kana": "ヒオキシ",
    "town": "日吉町吉利",
    "town_kana": "ヒヨシチョウヨシトシ",
    "street": null,
    "office_name": null,
    "office_name_kana": null
  },
  "3121": [
    {
      "postcode": "8993121",
      "prefecture": "鹿児島県",
      "prefecture_kana": "カゴシマケン",
      "prefecture_code": 46,
      "city": "日置市",
      "city_kana": "ヒオキシ",
      "town": "伊集院町大田",
      "town_kana": "イジュウインチョウオオタ",
      "street": null,
      "office_name": null,
      "office_name_kana": null
    },
    {
      "postcode": "8993121",
      "prefecture": "鹿児島県",
      "prefecture_kana": "カゴシマケン",
      "prefecture_code": 46,
      "city": "日置市",
      "city_kana": "ヒオキシ",
      "town": "伊集院町大田久木野々石塚",
      "town_kana": "イジュウインチョウオオタクキノノイシヅカ",
      "street": null,
      "office_name": null,
      "office_name_kana": null
    }
  ],
  "3192": {
    "postcode": "8993192",
    "prefecture": "鹿児島県",
    "prefecture_kana": "カゴシマケン",
    "prefecture_code": 46,
    "city": "日置市",
    "city_kana": "ヒオキシ",
    "town": "日吉町日置",
    "town_kana": "ヒヨシチョウヒオキ",
    "street": "３７７",
    "office_name": "日置市役所　日吉支所",
    "office_name_kana": "ヒオキシヤクシヨ ヒヨシシシヨ"
  },
  "3203": {
    "postcode": "8993203",
    "prefecture": "鹿児島県",
    "prefecture_kana": "カゴシマケン",
    "prefecture_code": 46,
    "city": "日置市",
    "city_kana": "ヒオキシ",
    "town": "日吉町吉利",
    "town_kana": "ヒヨシチョウヨシトシ",
    "street": null,
    "office_name": null,
    "office_name_kana": null
  },
  "3206": {
    "postcode": "8993206",
    "prefecture": "鹿児島県",
    "prefecture_kana": "カゴシマケン",
    "prefecture_code": 46,
    "city": "鹿児島市",
    "city_kana": "カゴシマシ",
    "town": "入佐町",
    "town_kana": "イリサチョウ",
    "street": null,
    "office_name": null,
    "office_name_kana": null
  },
  "3221": {
    "postcode": "8993221",
    "prefecture": "鹿児島県",
    "prefecture_kana": "カゴシマケン",
    "prefecture_code": 46,
    "city": "日置市",
    "city_kana": "ヒオキシ",
    "town": "吹上町永吉",
    "town_kana": "フキアゲチョウナガヨシ",
    "street": null,
    "office_name": null,
    "office_name_kana": null
  },
  "3301": {
    "postcode": "8993301",
    "prefecture": "鹿児島県",
    "prefecture_kana": "カゴシマケン",
    "prefecture_code": 46,
    "city": "日置市",
    "city_kana": "ヒオキシ",
    "town": "吹上町中原",
    "town_kana": "フキアゲチョウナカハラ",
    "street": null,
    "office_name": null,
    "office_name_kana": null
  },
  "3302": {
    "postcode": "8993302",
    "prefecture": "鹿児島県",
    "prefecture_kana": "カゴシマケン",
    "prefecture_code": 46,
    "city": "日置市",
    "city_kana": "ヒオキシ",
    "town": "吹上町中之里",
    "town_kana": "フキアゲチョウナカノサト",
    "street": null,
    "office_name": null,
    "office_name_kana": null
  },
  "3303": {
    "postcode": "8993303",
    "prefecture": "鹿児島県",
    "prefecture_kana": "カゴシマケン",
    "prefecture_code": 46,
    "city": "日置市",
    "city_kana": "ヒオキシ",
    "town": "吹上町湯之浦",
    "town_kana": "フキアゲチョウユノウラ",
    "street": null,
    "office_name": null,
    "office_name_kana": null
  },
  "3304": {
    "postcode": "8993304",
    "prefecture": "鹿児島県",
    "prefecture_kana": "カゴシマケン",
    "prefecture_code": 46,
    "city": "日置市",
    "city_kana": "ヒオキシ",
    "town": "吹上町入来",
    "town_kana": "フキアゲチョウイリキ",
    "street": null,
    "office_name": null,
    "office_name_kana": null
  },
  "3305": {
    "postcode": "8993305",
    "prefecture": "鹿児島県",
    "prefecture_kana": "カゴシマケン",
    "prefecture_code": 46,
    "city": "日置市",
    "city_kana": "ヒオキシ",
    "town": "吹上町今田",
    "town_kana": "フキアゲチョウイマダ",
    "street": null,
    "office_name": null,
    "office_name_kana": null
  },
  "3306": {
    "postcode": "8993306",
    "prefecture": "鹿児島県",
    "prefecture_kana": "カゴシマケン",
    "prefecture_code": 46,
    "city": "日置市",
    "city_kana": "ヒオキシ",
    "town": "吹上町小野",
    "town_kana": "フキアゲチョウオノ",
    "street": null,
    "office_name": null,
    "office_name_kana": null
  },
  "3307": {
    "postcode": "8993307",
    "prefecture": "鹿児島県",
    "prefecture_kana": "カゴシマケン",
    "prefecture_code": 46,
    "city": "日置市",
    "city_kana": "ヒオキシ",
    "town": "吹上町花熟里",
    "town_kana": "フキアゲチョウケジュクリ",
    "street": null,
    "office_name": null,
    "office_name_kana": null
  },
  "3308": {
    "postcode": "8993308",
    "prefecture": "鹿児島県",
    "prefecture_kana": "カゴシマケン",
    "prefecture_code": 46,
    "city": "日置市",
    "city_kana": "ヒオキシ",
    "town": "吹上町田尻",
    "town_kana": "フキアゲチョウタジリ",
    "street": null,
    "office_name": null,
    "office_name_kana": null
  },
  "3309": {
    "postcode": "8993309",
    "prefecture": "鹿児島県",
    "prefecture_kana": "カゴシマケン",
    "prefecture_code": 46,
    "city": "日置市",
    "city_kana": "ヒオキシ",
    "town": "吹上町与倉",
    "town_kana": "フキアゲチョウヨクラ",
    "street": null,
    "office_name": null,
    "office_name_kana": null
  },
  "3311": {
    "postcode": "8993311",
    "prefecture": "鹿児島県",
    "prefecture_kana": "カゴシマケン",
    "prefecture_code": 46,
    "city": "日置市",
    "city_kana": "ヒオキシ",
    "town": "吹上町和田",
    "town_kana": "フキアゲチョウワダ",
    "street": null,
    "office_name": null,
    "office_name_kana": null
  },
  "3401": {
    "postcode": "8993401",
    "prefecture": "鹿児島県",
    "prefecture_kana": "カゴシマケン",
    "prefecture_code": 46,
    "city": "南さつま市",
    "city_kana": "ミナミサツマシ",
    "town": "金峰町大野",
    "town_kana": "キンポウチョウオオノ",
    "street": null,
    "office_name": null,
    "office_name_kana": null
  },
  "3402": {
    "postcode": "8993402",
    "prefecture": "鹿児島県",
    "prefecture_kana": "カゴシマケン",
    "prefecture_code": 46,
    "city": "南さつま市",
    "city_kana": "ミナミサツマシ",
    "town": "金峰町大坂",
    "town_kana": "キンポウチョウダイザカ",
    "street": null,
    "office_name": null,
    "office_name_kana": null
  },
  "3403": {
    "postcode": "8993403",
    "prefecture": "鹿児島県",
    "prefecture_kana": "カゴシマケン",
    "prefecture_code": 46,
    "city": "南さつま市",
    "city_kana": "ミナミサツマシ",
    "town": "金峰町尾下",
    "town_kana": "キンポウチョウオクダリ",
    "street": null,
    "office_name": null,
    "office_name_kana": null
  },
  "3404": {
    "postcode": "8993404",
    "prefecture": "鹿児島県",
    "prefecture_kana": "カゴシマケン",
    "prefecture_code": 46,
    "city": "南さつま市",
    "city_kana": "ミナミサツマシ",
    "town": "金峰町高橋",
    "town_kana": "キンポウチョウタカハシ",
    "street": null,
    "office_name": null,
    "office_name_kana": null
  },
  "3405": {
    "postcode": "8993405",
    "prefecture": "鹿児島県",
    "prefecture_kana": "カゴシマケン",
    "prefecture_code": 46,
    "city": "南さつま市",
    "city_kana": "ミナミサツマシ",
    "town": "金峰町池辺",
    "town_kana": "キンポウチョウイケベ",
    "street": null,
    "office_name": null,
    "office_name_kana": null
  },
  "3492": {
    "postcode": "8993492",
    "prefecture": "鹿児島県",
    "prefecture_kana": "カゴシマケン",
    "prefecture_code": 46,
    "city": "南さつま市",
    "city_kana": "ミナミサツマシ",
    "town": "金峰町尾下",
    "town_kana": "キンポウチョウオクダリ",
    "street": "１６７９",
    "office_name": "南さつま市　金峰支所",
    "office_name_kana": "ミナミサツマシ キンポウシシヨ"
  },
  "3511": {
    "postcode": "8993511",
    "prefecture": "鹿児島県",
    "prefecture_kana": "カゴシマケン",
    "prefecture_code": 46,
    "city": "南さつま市",
    "city_kana": "ミナミサツマシ",
    "town": "金峰町宮崎",
    "town_kana": "キンポウチョウミヤザキ",
    "street": null,
    "office_name": null,
    "office_name_kana": null
  },
  "3512": {
    "postcode": "8993512",
    "prefecture": "鹿児島県",
    "prefecture_kana": "カゴシマケン",
    "prefecture_code": 46,
    "city": "南さつま市",
    "city_kana": "ミナミサツマシ",
    "town": "金峰町花瀬",
    "town_kana": "キンポウチョウハナゼ",
    "street": null,
    "office_name": null,
    "office_name_kana": null
  },
  "3513": {
    "postcode": "8993513",
    "prefecture": "鹿児島県",
    "prefecture_kana": "カゴシマケン",
    "prefecture_code": 46,
    "city": "南さつま市",
    "city_kana": "ミナミサツマシ",
    "town": "金峰町白川",
    "town_kana": "キンポウチョウシラカワ",
    "street": null,
    "office_name": null,
    "office_name_kana": null
  },
  "3514": {
    "postcode": "8993514",
    "prefecture": "鹿児島県",
    "prefecture_kana": "カゴシマケン",
    "prefecture_code": 46,
    "city": "南さつま市",
    "city_kana": "ミナミサツマシ",
    "town": "金峰町新山",
    "town_kana": "キンポウチョウニイヤマ",
    "street": null,
    "office_name": null,
    "office_name_kana": null
  },
  "3515": {
    "postcode": "8993515",
    "prefecture": "鹿児島県",
    "prefecture_kana": "カゴシマケン",
    "prefecture_code": 46,
    "city": "南さつま市",
    "city_kana": "ミナミサツマシ",
    "town": "金峰町中津野",
    "town_kana": "キンポウチョウナカツノ",
    "street": null,
    "office_name": null,
    "office_name_kana": null
  },
  "3516": {
    "postcode": "8993516",
    "prefecture": "鹿児島県",
    "prefecture_kana": "カゴシマケン",
    "prefecture_code": 46,
    "city": "南さつま市",
    "city_kana": "ミナミサツマシ",
    "town": "金峰町浦之名",
    "town_kana": "キンポウチョウウラノミョウ",
    "street": null,
    "office_name": null,
    "office_name_kana": null
  },
  "3611": {
    "postcode": "8993611",
    "prefecture": "鹿児島県",
    "prefecture_kana": "カゴシマケン",
    "prefecture_code": 46,
    "city": "南さつま市",
    "city_kana": "ミナミサツマシ",
    "town": "加世田津貫",
    "town_kana": "カセダツヌキ",
    "street": null,
    "office_name": null,
    "office_name_kana": null
  },
  "4101": {
    "postcode": "8994101",
    "prefecture": "鹿児島県",
    "prefecture_kana": "カゴシマケン",
    "prefecture_code": 46,
    "city": "曽於市",
    "city_kana": "ソオシ",
    "town": "財部町南俣",
    "town_kana": "タカラベチョウミナミマタ",
    "street": null,
    "office_name": null,
    "office_name_kana": null
  },
  "4102": {
    "postcode": "8994102",
    "prefecture": "鹿児島県",
    "prefecture_kana": "カゴシマケン",
    "prefecture_code": 46,
    "city": "曽於市",
    "city_kana": "ソオシ",
    "town": "財部町北俣",
    "town_kana": "タカラベチョウキタマタ",
    "street": null,
    "office_name": null,
    "office_name_kana": null
  },
  "4103": {
    "postcode": "8994103",
    "prefecture": "鹿児島県",
    "prefecture_kana": "カゴシマケン",
    "prefecture_code": 46,
    "city": "曽於市",
    "city_kana": "ソオシ",
    "town": "財部町下財部",
    "town_kana": "タカラベチョウシモタカラベ",
    "street": null,
    "office_name": null,
    "office_name_kana": null
  },
  "4192": {
    "postcode": "8994192",
    "prefecture": "鹿児島県",
    "prefecture_kana": "カゴシマケン",
    "prefecture_code": 46,
    "city": "曽於市",
    "city_kana": "ソオシ",
    "town": "財部町南俣",
    "town_kana": "タカラベチョウミナミマタ",
    "street": "１１２７５",
    "office_name": "曽於市役所　財部支所",
    "office_name_kana": "ソオシヤクシヨ タカラベシシヨ"
  },
  "4201": {
    "postcode": "8994201",
    "prefecture": "鹿児島県",
    "prefecture_kana": "カゴシマケン",
    "prefecture_code": 46,
    "city": "霧島市",
    "city_kana": "キリシマシ",
    "town": "霧島田口",
    "town_kana": "キリシマタグチ",
    "street": null,
    "office_name": null,
    "office_name_kana": null
  },
  "4202": {
    "postcode": "8994202",
    "prefecture": "鹿児島県",
    "prefecture_kana": "カゴシマケン",
    "prefecture_code": 46,
    "city": "霧島市",
    "city_kana": "キリシマシ",
    "town": "霧島永水",
    "town_kana": "キリシマナガミズ",
    "street": null,
    "office_name": null,
    "office_name_kana": null
  },
  "4203": {
    "postcode": "8994203",
    "prefecture": "鹿児島県",
    "prefecture_kana": "カゴシマケン",
    "prefecture_code": 46,
    "city": "霧島市",
    "city_kana": "キリシマシ",
    "town": "霧島大窪",
    "town_kana": "キリシマオオクボ",
    "street": null,
    "office_name": null,
    "office_name_kana": null
  },
  "4204": {
    "postcode": "8994204",
    "prefecture": "鹿児島県",
    "prefecture_kana": "カゴシマケン",
    "prefecture_code": 46,
    "city": "霧島市",
    "city_kana": "キリシマシ",
    "town": "霧島川北",
    "town_kana": "キリシマカワキタ",
    "street": null,
    "office_name": null,
    "office_name_kana": null
  },
  "4292": {
    "postcode": "8994292",
    "prefecture": "鹿児島県",
    "prefecture_kana": "カゴシマケン",
    "prefecture_code": 46,
    "city": "霧島市",
    "city_kana": "キリシマシ",
    "town": "霧島田口",
    "town_kana": "キリシマタグチ",
    "street": "８−４",
    "office_name": "霧島市　霧島総合支所",
    "office_name_kana": "キリシマシ キリシマソウゴウシシヨ"
  },
  "4300": {
    "postcode": "8994300",
    "prefecture": "鹿児島県",
    "prefecture_kana": "カゴシマケン",
    "prefecture_code": 46,
    "city": "霧島市",
    "city_kana": "キリシマシ",
    "town": "",
    "town_kana": "",
    "street": null,
    "office_name": null,
    "office_name_kana": null
  },
  "4301": {
    "postcode": "8994301",
    "prefecture": "鹿児島県",
    "prefecture_kana": "カゴシマケン",
    "prefecture_code": 46,
    "city": "霧島市",
    "city_kana": "キリシマシ",
    "town": "国分重久",
    "town_kana": "コクブシゲヒサ",
    "street": null,
    "office_name": null,
    "office_name_kana": null
  },
  "4302": {
    "postcode": "8994302",
    "prefecture": "鹿児島県",
    "prefecture_kana": "カゴシマケン",
    "prefecture_code": 46,
    "city": "霧島市",
    "city_kana": "キリシマシ",
    "town": "国分台明寺",
    "town_kana": "コクブダイミョウジ",
    "street": null,
    "office_name": null,
    "office_name_kana": null
  },
  "4303": {
    "postcode": "8994303",
    "prefecture": "鹿児島県",
    "prefecture_kana": "カゴシマケン",
    "prefecture_code": 46,
    "city": "霧島市",
    "city_kana": "キリシマシ",
    "town": "国分川原",
    "town_kana": "コクブカワハラ",
    "street": null,
    "office_name": null,
    "office_name_kana": null
  },
  "4304": {
    "postcode": "8994304",
    "prefecture": "鹿児島県",
    "prefecture_kana": "カゴシマケン",
    "prefecture_code": 46,
    "city": "霧島市",
    "city_kana": "キリシマシ",
    "town": "国分清水",
    "town_kana": "コクブキヨミズ",
    "street": null,
    "office_name": null,
    "office_name_kana": null
  },
  "4305": {
    "postcode": "8994305",
    "prefecture": "鹿児島県",
    "prefecture_kana": "カゴシマケン",
    "prefecture_code": 46,
    "city": "霧島市",
    "city_kana": "キリシマシ",
    "town": "国分郡田",
    "town_kana": "コクブコオリダ",
    "street": null,
    "office_name": null,
    "office_name_kana": null
  },
  "4311": {
    "postcode": "8994311",
    "prefecture": "鹿児島県",
    "prefecture_kana": "カゴシマケン",
    "prefecture_code": 46,
    "city": "霧島市",
    "city_kana": "キリシマシ",
    "town": "国分名波町",
    "town_kana": "コクブナバチョウ",
    "street": null,
    "office_name": null,
    "office_name_kana": null
  },
  "4312": {
    "postcode": "8994312",
    "prefecture": "鹿児島県",
    "prefecture_kana": "カゴシマケン",
    "prefecture_code": 46,
    "city": "霧島市",
    "city_kana": "キリシマシ",
    "town": "国分山下町",
    "town_kana": "コクブヤマシタチョウ",
    "street": null,
    "office_name": null,
    "office_name_kana": null
  },
  "4313": {
    "postcode": "8994313",
    "prefecture": "鹿児島県",
    "prefecture_kana": "カゴシマケン",
    "prefecture_code": 46,
    "city": "霧島市",
    "city_kana": "キリシマシ",
    "town": "国分上井",
    "town_kana": "コクブウワイ",
    "street": null,
    "office_name": null,
    "office_name_kana": null
  },
  "4314": {
    "postcode": "8994314",
    "prefecture": "鹿児島県",
    "prefecture_kana": "カゴシマケン",
    "prefecture_code": 46,
    "city": "霧島市",
    "city_kana": "キリシマシ",
    "town": "国分川内",
    "town_kana": "コクブカワウチ",
    "street": null,
    "office_name": null,
    "office_name_kana": null
  },
  "4315": {
    "postcode": "8994315",
    "prefecture": "鹿児島県",
    "prefecture_kana": "カゴシマケン",
    "prefecture_code": 46,
    "city": "霧島市",
    "city_kana": "キリシマシ",
    "town": "国分湊",
    "town_kana": "コクブミナト",
    "street": null,
    "office_name": null,
    "office_name_kana": null
  },
  "4316": {
    "postcode": "8994316",
    "prefecture": "鹿児島県",
    "prefecture_kana": "カゴシマケン",
    "prefecture_code": 46,
    "city": "霧島市",
    "city_kana": "キリシマシ",
    "town": "国分上小川",
    "town_kana": "コクブカミコガワ",
    "street": null,
    "office_name": null,
    "office_name_kana": null
  },
  "4317": {
    "postcode": "8994317",
    "prefecture": "鹿児島県",
    "prefecture_kana": "カゴシマケン",
    "prefecture_code": 46,
    "city": "霧島市",
    "city_kana": "キリシマシ",
    "town": "国分上野原テクノパーク",
    "town_kana": "コクブウエノハラテクノパーク",
    "street": null,
    "office_name": null,
    "office_name_kana": null
  },
  "4318": {
    "postcode": "8994318",
    "prefecture": "鹿児島県",
    "prefecture_kana": "カゴシマケン",
    "prefecture_code": 46,
    "city": "霧島市",
    "city_kana": "キリシマシ",
    "town": "国分上野原縄文の森",
    "town_kana": "コクブウエノハラジョウモンノモリ",
    "street": null,
    "office_name": null,
    "office_name_kana": null
  },
  "4321": {
    "postcode": "8994321",
    "prefecture": "鹿児島県",
    "prefecture_kana": "カゴシマケン",
    "prefecture_code": 46,
    "city": "霧島市",
    "city_kana": "キリシマシ",
    "town": "国分広瀬",
    "town_kana": "コクブヒロセ",
    "street": null,
    "office_name": null,
    "office_name_kana": null
  },
  "4322": {
    "postcode": "8994322",
    "prefecture": "鹿児島県",
    "prefecture_kana": "カゴシマケン",
    "prefecture_code": 46,
    "city": "霧島市",
    "city_kana": "キリシマシ",
    "town": "国分福島",
    "town_kana": "コクブフクシマ",
    "street": null,
    "office_name": null,
    "office_name_kana": null
  },
  "4323": {
    "postcode": "8994323",
    "prefecture": "鹿児島県",
    "prefecture_kana": "カゴシマケン",
    "prefecture_code": 46,
    "city": "霧島市",
    "city_kana": "キリシマシ",
    "town": "国分松木",
    "town_kana": "コクブマツキ",
    "street": null,
    "office_name": null,
    "office_name_kana": null
  },
  "4324": {
    "postcode": "8994324",
    "prefecture": "鹿児島県",
    "prefecture_kana": "カゴシマケン",
    "prefecture_code": 46,
    "city": "霧島市",
    "city_kana": "キリシマシ",
    "town": "国分松木東",
    "town_kana": "コクブマツキヒガシ",
    "street": null,
    "office_name": null,
    "office_name_kana": null
  },
  "4325": {
    "postcode": "8994325",
    "prefecture": "鹿児島県",
    "prefecture_kana": "カゴシマケン",
    "prefecture_code": 46,
    "city": "霧島市",
    "city_kana": "キリシマシ",
    "town": "国分松木町",
    "town_kana": "コクブマツキチョウ",
    "street": null,
    "office_name": null,
    "office_name_kana": null
  },
  "4331": {
    "postcode": "8994331",
    "prefecture": "鹿児島県",
    "prefecture_kana": "カゴシマケン",
    "prefecture_code": 46,
    "city": "霧島市",
    "city_kana": "キリシマシ",
    "town": "国分城山町",
    "town_kana": "コクブシロヤマチョウ",
    "street": null,
    "office_name": null,
    "office_name_kana": null
  },
  "4332": {
    "postcode": "8994332",
    "prefecture": "鹿児島県",
    "prefecture_kana": "カゴシマケン",
    "prefecture_code": 46,
    "city": "霧島市",
    "city_kana": "キリシマシ",
    "town": "国分中央",
    "town_kana": "コクブチュウオウ",
    "street": null,
    "office_name": null,
    "office_name_kana": null
  },
  "4341": {
    "postcode": "8994341",
    "prefecture": "鹿児島県",
    "prefecture_kana": "カゴシマケン",
    "prefecture_code": 46,
    "city": "霧島市",
    "city_kana": "キリシマシ",
    "town": "国分野口東",
    "town_kana": "コクブノグチヒガシ",
    "street": null,
    "office_name": null,
    "office_name_kana": null
  },
  "4342": {
    "postcode": "8994342",
    "prefecture": "鹿児島県",
    "prefecture_kana": "カゴシマケン",
    "prefecture_code": 46,
    "city": "霧島市",
    "city_kana": "キリシマシ",
    "town": "国分野口町",
    "town_kana": "コクブノグチチョウ",
    "street": null,
    "office_name": null,
    "office_name_kana": null
  },
  "4343": {
    "postcode": "8994343",
    "prefecture": "鹿児島県",
    "prefecture_kana": "カゴシマケン",
    "prefecture_code": 46,
    "city": "霧島市",
    "city_kana": "キリシマシ",
    "town": "国分野口西",
    "town_kana": "コクブノグチニシ",
    "street": null,
    "office_name": null,
    "office_name_kana": null
  },
  "4344": {
    "postcode": "8994344",
    "prefecture": "鹿児島県",
    "prefecture_kana": "カゴシマケン",
    "prefecture_code": 46,
    "city": "霧島市",
    "city_kana": "キリシマシ",
    "town": "国分野口北",
    "town_kana": "コクブノグチキタ",
    "street": null,
    "office_name": null,
    "office_name_kana": null
  },
  "4345": {
    "postcode": "8994345",
    "prefecture": "鹿児島県",
    "prefecture_kana": "カゴシマケン",
    "prefecture_code": 46,
    "city": "霧島市",
    "city_kana": "キリシマシ",
    "town": "国分府中",
    "town_kana": "コクブフチュウ",
    "street": null,
    "office_name": null,
    "office_name_kana": null
  },
  "4346": {
    "postcode": "8994346",
    "prefecture": "鹿児島県",
    "prefecture_kana": "カゴシマケン",
    "prefecture_code": 46,
    "city": "霧島市",
    "city_kana": "キリシマシ",
    "town": "国分府中町",
    "town_kana": "コクブフチュウチョウ",
    "street": null,
    "office_name": null,
    "office_name_kana": null
  },
  "4351": {
    "postcode": "8994351",
    "prefecture": "鹿児島県",
    "prefecture_kana": "カゴシマケン",
    "prefecture_code": 46,
    "city": "霧島市",
    "city_kana": "キリシマシ",
    "town": "国分新町",
    "town_kana": "コクブシンマチ",
    "street": null,
    "office_name": null,
    "office_name_kana": null
  },
  "4352": {
    "postcode": "8994352",
    "prefecture": "鹿児島県",
    "prefecture_kana": "カゴシマケン",
    "prefecture_code": 46,
    "city": "霧島市",
    "city_kana": "キリシマシ",
    "town": "国分向花",
    "town_kana": "コクブムケ",
    "street": null,
    "office_name": null,
    "office_name_kana": null
  },
  "4353": {
    "postcode": "8994353",
    "prefecture": "鹿児島県",
    "prefecture_kana": "カゴシマケン",
    "prefecture_code": 46,
    "city": "霧島市",
    "city_kana": "キリシマシ",
    "town": "国分向花町",
    "town_kana": "コクブムケチョウ",
    "street": null,
    "office_name": null,
    "office_name_kana": null
  },
  "4354": {
    "postcode": "8994354",
    "prefecture": "鹿児島県",
    "prefecture_kana": "カゴシマケン",
    "prefecture_code": 46,
    "city": "霧島市",
    "city_kana": "キリシマシ",
    "town": "国分姫城",
    "town_kana": "コクブヒメギ",
    "street": null,
    "office_name": null,
    "office_name_kana": null
  },
  "4355": {
    "postcode": "8994355",
    "prefecture": "鹿児島県",
    "prefecture_kana": "カゴシマケン",
    "prefecture_code": 46,
    "city": "霧島市",
    "city_kana": "キリシマシ",
    "town": "国分剣之宇都町",
    "town_kana": "コクブケンノウトチョウ",
    "street": null,
    "office_name": null,
    "office_name_kana": null
  },
  "4356": {
    "postcode": "8994356",
    "prefecture": "鹿児島県",
    "prefecture_kana": "カゴシマケン",
    "prefecture_code": 46,
    "city": "霧島市",
    "city_kana": "キリシマシ",
    "town": "国分姫城南",
    "town_kana": "コクブヒメギミナミ",
    "street": null,
    "office_name": null,
    "office_name_kana": null
  },
  "4392": {
    "postcode": "8994392",
    "prefecture": "鹿児島県",
    "prefecture_kana": "カゴシマケン",
    "prefecture_code": 46,
    "city": "霧島市",
    "city_kana": "キリシマシ",
    "town": "国分福島",
    "town_kana": "コクブフクシマ",
    "street": "２丁目４−１４",
    "office_name": "自衛隊国分駐屯地",
    "office_name_kana": "ジエイタイコクブチユウトンチ"
  },
  "4393": {
    "postcode": "8994393",
    "prefecture": "鹿児島県",
    "prefecture_kana": "カゴシマケン",
    "prefecture_code": 46,
    "city": "霧島市",
    "city_kana": "キリシマシ",
    "town": "国分野口北",
    "town_kana": "コクブノグチキタ",
    "street": "５−１",
    "office_name": "ソニー国分　株式会社",
    "office_name_kana": "ソニ-コクブ カブシキガイシヤ"
  },
  "4394": {
    "postcode": "8994394",
    "prefecture": "鹿児島県",
    "prefecture_kana": "カゴシマケン",
    "prefecture_code": 46,
    "city": "霧島市",
    "city_kana": "キリシマシ",
    "town": "国分中央",
    "town_kana": "コクブチュウオウ",
    "street": "３丁目４５−１",
    "office_name": "霧島市役所",
    "office_name_kana": "キリシマシヤクシヨ"
  },
  "4395": {
    "postcode": "8994395",
    "prefecture": "鹿児島県",
    "prefecture_kana": "カゴシマケン",
    "prefecture_code": 46,
    "city": "霧島市",
    "city_kana": "キリシマシ",
    "town": "国分中央",
    "town_kana": "コクブチュウオウ",
    "street": "１丁目１０−２",
    "office_name": "都築教育学園　第一工業大学",
    "office_name_kana": "ツヅキキヨウイクガクエン ダイイチコウギヨウダイガク"
  },
  "4396": {
    "postcode": "8994396",
    "prefecture": "鹿児島県",
    "prefecture_kana": "カゴシマケン",
    "prefecture_code": 46,
    "city": "霧島市",
    "city_kana": "キリシマシ",
    "town": "国分山下町",
    "town_kana": "コクブヤマシタチョウ",
    "street": "１−１",
    "office_name": "京セラ　株式会社　鹿児島国分工場",
    "office_name_kana": "キヨウセラ カブシキガイシヤ カゴシマコクブコウジヨウ"
  },
  "4461": {
    "postcode": "8994461",
    "prefecture": "鹿児島県",
    "prefecture_kana": "カゴシマケン",
    "prefecture_code": 46,
    "city": "霧島市",
    "city_kana": "キリシマシ",
    "town": "国分上之段",
    "town_kana": "コクブウエノダン",
    "street": null,
    "office_name": null,
    "office_name_kana": null
  },
  "4462": {
    "postcode": "8994462",
    "prefecture": "鹿児島県",
    "prefecture_kana": "カゴシマケン",
    "prefecture_code": 46,
    "city": "霧島市",
    "city_kana": "キリシマシ",
    "town": "国分敷根",
    "town_kana": "コクブシキネ",
    "street": null,
    "office_name": null,
    "office_name_kana": null
  },
  "4463": {
    "postcode": "8994463",
    "prefecture": "鹿児島県",
    "prefecture_kana": "カゴシマケン",
    "prefecture_code": 46,
    "city": "霧島市",
    "city_kana": "キリシマシ",
    "town": "国分下井",
    "town_kana": "コクブシタイ",
    "street": null,
    "office_name": null,
    "office_name_kana": null
  },
  "4501": {
    "postcode": "8994501",
    "prefecture": "鹿児島県",
    "prefecture_kana": "カゴシマケン",
    "prefecture_code": 46,
    "city": "霧島市",
    "city_kana": "キリシマシ",
    "town": "福山町福山",
    "town_kana": "フクヤマチョウフクヤマ",
    "street": null,
    "office_name": null,
    "office_name_kana": null
  },
  "4502": {
    "postcode": "8994502",
    "prefecture": "鹿児島県",
    "prefecture_kana": "カゴシマケン",
    "prefecture_code": 46,
    "city": "霧島市",
    "city_kana": "キリシマシ",
    "town": "福山町福地",
    "town_kana": "フクヤマチョウフクチ",
    "street": null,
    "office_name": null,
    "office_name_kana": null
  },
  "4503": {
    "postcode": "8994503",
    "prefecture": "鹿児島県",
    "prefecture_kana": "カゴシマケン",
    "prefecture_code": 46,
    "city": "霧島市",
    "city_kana": "キリシマシ",
    "town": "福山町福沢",
    "town_kana": "フクヤマチョウフクザワ",
    "street": null,
    "office_name": null,
    "office_name_kana": null
  },
  "4504": {
    "postcode": "8994504",
    "prefecture": "鹿児島県",
    "prefecture_kana": "カゴシマケン",
    "prefecture_code": 46,
    "city": "霧島市",
    "city_kana": "キリシマシ",
    "town": "福山町佳例川",
    "town_kana": "フクヤマチョウカレイガワ",
    "street": null,
    "office_name": null,
    "office_name_kana": null
  },
  "4631": {
    "postcode": "8994631",
    "prefecture": "鹿児島県",
    "prefecture_kana": "カゴシマケン",
    "prefecture_code": 46,
    "city": "垂水市",
    "city_kana": "タルミズシ",
    "town": "牛根境",
    "town_kana": "ウシネサカイ",
    "street": null,
    "office_name": null,
    "office_name_kana": null
  },
  "4632": {
    "postcode": "8994632",
    "prefecture": "鹿児島県",
    "prefecture_kana": "カゴシマケン",
    "prefecture_code": 46,
    "city": "垂水市",
    "city_kana": "タルミズシ",
    "town": "牛根麓",
    "town_kana": "ウシネフモト",
    "street": null,
    "office_name": null,
    "office_name_kana": null
  },
  "4633": {
    "postcode": "8994633",
    "prefecture": "鹿児島県",
    "prefecture_kana": "カゴシマケン",
    "prefecture_code": 46,
    "city": "垂水市",
    "city_kana": "タルミズシ",
    "town": "二川",
    "town_kana": "フタガワ",
    "street": null,
    "office_name": null,
    "office_name_kana": null
  },
  "5101": {
    "postcode": "8995101",
    "prefecture": "鹿児島県",
    "prefecture_kana": "カゴシマケン",
    "prefecture_code": 46,
    "city": "霧島市",
    "city_kana": "キリシマシ",
    "town": "隼人町住吉",
    "town_kana": "ハヤトチョウスミヨシ",
    "street": null,
    "office_name": null,
    "office_name_kana": null
  },
  "5102": {
    "postcode": "8995102",
    "prefecture": "鹿児島県",
    "prefecture_kana": "カゴシマケン",
    "prefecture_code": 46,
    "city": "霧島市",
    "city_kana": "キリシマシ",
    "town": "隼人町真孝",
    "town_kana": "ハヤトチョウシンコウ",
    "street": null,
    "office_name": null,
    "office_name_kana": null
  },
  "5103": {
    "postcode": "8995103",
    "prefecture": "鹿児島県",
    "prefecture_kana": "カゴシマケン",
    "prefecture_code": 46,
    "city": "霧島市",
    "city_kana": "キリシマシ",
    "town": "隼人町小浜",
    "town_kana": "ハヤトチョウオハマ",
    "street": null,
    "office_name": null,
    "office_name_kana": null
  },
  "5104": {
    "postcode": "8995104",
    "prefecture": "鹿児島県",
    "prefecture_kana": "カゴシマケン",
    "prefecture_code": 46,
    "city": "霧島市",
    "city_kana": "キリシマシ",
    "town": "隼人町野久美田",
    "town_kana": "ハヤトチョウノクミダ",
    "street": null,
    "office_name": null,
    "office_name_kana": null
  },
  "5105": {
    "postcode": "8995105",
    "prefecture": "鹿児島県",
    "prefecture_kana": "カゴシマケン",
    "prefecture_code": 46,
    "city": "霧島市",
    "city_kana": "キリシマシ",
    "town": "隼人町小田",
    "town_kana": "ハヤトチョウオダ",
    "street": null,
    "office_name": null,
    "office_name_kana": null
  },
  "5106": {
    "postcode": "8995106",
    "prefecture": "鹿児島県",
    "prefecture_kana": "カゴシマケン",
    "prefecture_code": 46,
    "city": "霧島市",
    "city_kana": "キリシマシ",
    "town": "隼人町内山田",
    "town_kana": "ハヤトチョウウチヤマダ",
    "street": null,
    "office_name": null,
    "office_name_kana": null
  },
  "5111": {
    "postcode": "8995111",
    "prefecture": "鹿児島県",
    "prefecture_kana": "カゴシマケン",
    "prefecture_code": 46,
    "city": "霧島市",
    "city_kana": "キリシマシ",
    "town": "隼人町姫城",
    "town_kana": "ハヤトチョウヒメギ",
    "street": null,
    "office_name": null,
    "office_name_kana": null
  },
  "5112": {
    "postcode": "8995112",
    "prefecture": "鹿児島県",
    "prefecture_kana": "カゴシマケン",
    "prefecture_code": 46,
    "city": "霧島市",
    "city_kana": "キリシマシ",
    "town": "隼人町松永",
    "town_kana": "ハヤトチョウマツナガ",
    "street": null,
    "office_name": null,
    "office_name_kana": null
  },
  "5113": {
    "postcode": "8995113",
    "prefecture": "鹿児島県",
    "prefecture_kana": "カゴシマケン",
    "prefecture_code": 46,
    "city": "霧島市",
    "city_kana": "キリシマシ",
    "town": "隼人町嘉例川",
    "town_kana": "ハヤトチョウカレイガワ",
    "street": null,
    "office_name": null,
    "office_name_kana": null
  },
  "5114": {
    "postcode": "8995114",
    "prefecture": "鹿児島県",
    "prefecture_kana": "カゴシマケン",
    "prefecture_code": 46,
    "city": "霧島市",
    "city_kana": "キリシマシ",
    "town": "隼人町西光寺",
    "town_kana": "ハヤトチョウサイコウジ",
    "street": null,
    "office_name": null,
    "office_name_kana": null
  },
  "5115": {
    "postcode": "8995115",
    "prefecture": "鹿児島県",
    "prefecture_kana": "カゴシマケン",
    "prefecture_code": 46,
    "city": "霧島市",
    "city_kana": "キリシマシ",
    "town": "隼人町東郷",
    "town_kana": "ハヤトチョウトウゴウ",
    "street": null,
    "office_name": null,
    "office_name_kana": null
  },
  "5116": {
    "postcode": "8995116",
    "prefecture": "鹿児島県",
    "prefecture_kana": "カゴシマケン",
    "prefecture_code": 46,
    "city": "霧島市",
    "city_kana": "キリシマシ",
    "town": "隼人町内",
    "town_kana": "ハヤトチョウウチ",
    "street": null,
    "office_name": null,
    "office_name_kana": null
  },
  "5117": {
    "postcode": "8995117",
    "prefecture": "鹿児島県",
    "prefecture_kana": "カゴシマケン",
    "prefecture_code": 46,
    "city": "霧島市",
    "city_kana": "キリシマシ",
    "town": "隼人町見次",
    "town_kana": "ハヤトチョウミツギ",
    "street": null,
    "office_name": null,
    "office_name_kana": null
  },
  "5118": {
    "postcode": "8995118",
    "prefecture": "鹿児島県",
    "prefecture_kana": "カゴシマケン",
    "prefecture_code": 46,
    "city": "霧島市",
    "city_kana": "キリシマシ",
    "town": "隼人町朝日",
    "town_kana": "ハヤトチョウアサヒ",
    "street": null,
    "office_name": null,
    "office_name_kana": null
  },
  "5121": {
    "postcode": "8995121",
    "prefecture": "鹿児島県",
    "prefecture_kana": "カゴシマケン",
    "prefecture_code": 46,
    "city": "霧島市",
    "city_kana": "キリシマシ",
    "town": "隼人町神宮",
    "town_kana": "ハヤトチョウジングウ",
    "street": null,
    "office_name": null,
    "office_name_kana": null
  },
  "5192": {
    "postcode": "8995192",
    "prefecture": "鹿児島県",
    "prefecture_kana": "カゴシマケン",
    "prefecture_code": 46,
    "city": "霧島市",
    "city_kana": "キリシマシ",
    "town": "隼人町内山田",
    "town_kana": "ハヤトチョウウチヤマダ",
    "street": "１丁目１１−１１",
    "office_name": "霧島市　隼人総合支所",
    "office_name_kana": "キリシマシ ハヤトソウゴウシシヨ"
  },
  "5193": {
    "postcode": "8995193",
    "prefecture": "鹿児島県",
    "prefecture_kana": "カゴシマケン",
    "prefecture_code": 46,
    "city": "霧島市",
    "city_kana": "キリシマシ",
    "town": "隼人町真孝",
    "town_kana": "ハヤトチョウシンコウ",
    "street": "１４６０−１",
    "office_name": "鹿児島工業高等専門学校",
    "office_name_kana": "カゴシマコウギヨウコウトウセンモンガツコウ"
  },
  "5195": {
    "postcode": "8995195",
    "prefecture": "鹿児島県",
    "prefecture_kana": "カゴシマケン",
    "prefecture_code": 46,
    "city": "霧島市",
    "city_kana": "キリシマシ",
    "town": "隼人町内",
    "town_kana": "ハヤトチョウウチ",
    "street": "９９９−３",
    "office_name": "京セラ　株式会社　鹿児島隼人工場",
    "office_name_kana": "キヨウセラ カブシキガイシヤ カゴシマハヤトコウジヨウ"
  },
  "5201": {
    "postcode": "8995201",
    "prefecture": "鹿児島県",
    "prefecture_kana": "カゴシマケン",
    "prefecture_code": 46,
    "city": "姶良市",
    "city_kana": "アイラシ",
    "town": "加治木町西別府",
    "town_kana": "カジキチョウニシベップ",
    "street": null,
    "office_name": null,
    "office_name_kana": null
  },
  "5202": {
    "postcode": "8995202",
    "prefecture": "鹿児島県",
    "prefecture_kana": "カゴシマケン",
    "prefecture_code": 46,
    "city": "姶良市",
    "city_kana": "アイラシ",
    "town": "加治木町辺川",
    "town_kana": "カジキチョウヘガワ",
    "street": null,
    "office_name": null,
    "office_name_kana": null
  },
  "5203": {
    "postcode": "8995203",
    "prefecture": "鹿児島県",
    "prefecture_kana": "カゴシマケン",
    "prefecture_code": 46,
    "city": "姶良市",
    "city_kana": "アイラシ",
    "town": "加治木町小山田",
    "town_kana": "カジキチョウコヤマダ",
    "street": null,
    "office_name": null,
    "office_name_kana": null
  },
  "5204": {
    "postcode": "8995204",
    "prefecture": "鹿児島県",
    "prefecture_kana": "カゴシマケン",
    "prefecture_code": 46,
    "city": "姶良市",
    "city_kana": "アイラシ",
    "town": "加治木町日木山",
    "town_kana": "カジキチョウヒキヤマ",
    "street": null,
    "office_name": null,
    "office_name_kana": null
  },
  "5211": {
    "postcode": "8995211",
    "prefecture": "鹿児島県",
    "prefecture_kana": "カゴシマケン",
    "prefecture_code": 46,
    "city": "姶良市",
    "city_kana": "アイラシ",
    "town": "加治木町新富町",
    "town_kana": "カジキチョウシントミマチ",
    "street": null,
    "office_name": null,
    "office_name_kana": null
  },
  "5212": {
    "postcode": "8995212",
    "prefecture": "鹿児島県",
    "prefecture_kana": "カゴシマケン",
    "prefecture_code": 46,
    "city": "姶良市",
    "city_kana": "アイラシ",
    "town": "加治木町諏訪町",
    "town_kana": "カジキチョウスワマチ",
    "street": null,
    "office_name": null,
    "office_name_kana": null
  },
  "5213": {
    "postcode": "8995213",
    "prefecture": "鹿児島県",
    "prefecture_kana": "カゴシマケン",
    "prefecture_code": 46,
    "city": "姶良市",
    "city_kana": "アイラシ",
    "town": "加治木町朝日町",
    "town_kana": "カジキチョウアサヒマチ",
    "street": null,
    "office_name": null,
    "office_name_kana": null
  },
  "5214": {
    "postcode": "8995214",
    "prefecture": "鹿児島県",
    "prefecture_kana": "カゴシマケン",
    "prefecture_code": 46,
    "city": "姶良市",
    "city_kana": "アイラシ",
    "town": "加治木町仮屋町",
    "town_kana": "カジキチョウカリヤマチ",
    "street": null,
    "office_name": null,
    "office_name_kana": null
  },
  "5215": {
    "postcode": "8995215",
    "prefecture": "鹿児島県",
    "prefecture_kana": "カゴシマケン",
    "prefecture_code": 46,
    "city": "姶良市",
    "city_kana": "アイラシ",
    "town": "加治木町本町",
    "town_kana": "カジキチョウモトマチ",
    "street": null,
    "office_name": null,
    "office_name_kana": null
  },
  "5221": {
    "postcode": "8995221",
    "prefecture": "鹿児島県",
    "prefecture_kana": "カゴシマケン",
    "prefecture_code": 46,
    "city": "姶良市",
    "city_kana": "アイラシ",
    "town": "加治木町港町",
    "town_kana": "カジキチョウミナトマチ",
    "street": null,
    "office_name": null,
    "office_name_kana": null
  },
  "5222": {
    "postcode": "8995222",
    "prefecture": "鹿児島県",
    "prefecture_kana": "カゴシマケン",
    "prefecture_code": 46,
    "city": "姶良市",
    "city_kana": "アイラシ",
    "town": "加治木町錦江町",
    "town_kana": "カジキチョウキンコウマチ",
    "street": null,
    "office_name": null,
    "office_name_kana": null
  },
  "5223": {
    "postcode": "8995223",
    "prefecture": "鹿児島県",
    "prefecture_kana": "カゴシマケン",
    "prefecture_code": 46,
    "city": "姶良市",
    "city_kana": "アイラシ",
    "town": "加治木町新生町",
    "town_kana": "カジキチョウシンセイマチ",
    "street": null,
    "office_name": null,
    "office_name_kana": null
  },
  "5231": {
    "postcode": "8995231",
    "prefecture": "鹿児島県",
    "prefecture_kana": "カゴシマケン",
    "prefecture_code": 46,
    "city": "姶良市",
    "city_kana": "アイラシ",
    "town": "加治木町反土",
    "town_kana": "カジキチョウタンド",
    "street": null,
    "office_name": null,
    "office_name_kana": null
  },
  "5241": {
    "postcode": "8995241",
    "prefecture": "鹿児島県",
    "prefecture_kana": "カゴシマケン",
    "prefecture_code": 46,
    "city": "姶良市",
    "city_kana": "アイラシ",
    "town": "加治木町木田",
    "town_kana": "カジキチョウキダ",
    "street": null,
    "office_name": null,
    "office_name_kana": null
  },
  "5292": {
    "postcode": "8995292",
    "prefecture": "鹿児島県",
    "prefecture_kana": "カゴシマケン",
    "prefecture_code": 46,
    "city": "姶良市",
    "city_kana": "アイラシ",
    "town": "加治木町諏訪町",
    "town_kana": "カジキチョウスワマチ",
    "street": "１１３",
    "office_name": "加治木社会保険事務所",
    "office_name_kana": "カジキシヤカイホケンジムシヨ"
  },
  "5293": {
    "postcode": "8995293",
    "prefecture": "鹿児島県",
    "prefecture_kana": "カゴシマケン",
    "prefecture_code": 46,
    "city": "姶良市",
    "city_kana": "アイラシ",
    "town": "加治木町木田",
    "town_kana": "カジキチョウキダ",
    "street": "１８８２",
    "office_name": "国立療養所　南九州病院",
    "office_name_kana": "コクリツリヨウヨウシヨ ミナミキユウシユウビヨウイン"
  },
  "5294": {
    "postcode": "8995294",
    "prefecture": "鹿児島県",
    "prefecture_kana": "カゴシマケン",
    "prefecture_code": 46,
    "city": "姶良市",
    "city_kana": "アイラシ",
    "town": "加治木町本町",
    "town_kana": "カジキチョウモトマチ",
    "street": "２５３（加治木郵便局私書箱第８号）",
    "office_name": "姶良市役所　加治木総合支所",
    "office_name_kana": "アイラシヤクシヨ カジキソウゴウシシヨ"
  },
  "5301": {
    "postcode": "8995301",
    "prefecture": "鹿児島県",
    "prefecture_kana": "カゴシマケン",
    "prefecture_code": 46,
    "city": "姶良市",
    "city_kana": "アイラシ",
    "town": "蒲生町漆",
    "town_kana": "カモウチョウウルシ",
    "street": null,
    "office_name": null,
    "office_name_kana": null
  },
  "5302": {
    "postcode": "8995302",
    "prefecture": "鹿児島県",
    "prefecture_kana": "カゴシマケン",
    "prefecture_code": 46,
    "city": "姶良市",
    "city_kana": "アイラシ",
    "town": "蒲生町上久徳",
    "town_kana": "カモウチョウカミギュウトク",
    "street": null,
    "office_name": null,
    "office_name_kana": null
  },
  "5303": {
    "postcode": "8995303",
    "prefecture": "鹿児島県",
    "prefecture_kana": "カゴシマケン",
    "prefecture_code": 46,
    "city": "姶良市",
    "city_kana": "アイラシ",
    "town": "蒲生町北",
    "town_kana": "カモウチョウキタ",
    "street": null,
    "office_name": null,
    "office_name_kana": null
  },
  "5304": {
    "postcode": "8995304",
    "prefecture": "鹿児島県",
    "prefecture_kana": "カゴシマケン",
    "prefecture_code": 46,
    "city": "姶良市",
    "city_kana": "アイラシ",
    "town": "蒲生町下久徳",
    "town_kana": "カモウチョウシモギュウトク",
    "street": null,
    "office_name": null,
    "office_name_kana": null
  },
  "5305": {
    "postcode": "8995305",
    "prefecture": "鹿児島県",
    "prefecture_kana": "カゴシマケン",
    "prefecture_code": 46,
    "city": "姶良市",
    "city_kana": "アイラシ",
    "town": "蒲生町白男",
    "town_kana": "カモウチョウシラオ",
    "street": null,
    "office_name": null,
    "office_name_kana": null
  },
  "5306": {
    "postcode": "8995306",
    "prefecture": "鹿児島県",
    "prefecture_kana": "カゴシマケン",
    "prefecture_code": 46,
    "city": "姶良市",
    "city_kana": "アイラシ",
    "town": "蒲生町西浦",
    "town_kana": "カモウチョウニシウラ",
    "street": null,
    "office_name": null,
    "office_name_kana": null
  },
  "5307": {
    "postcode": "8995307",
    "prefecture": "鹿児島県",
    "prefecture_kana": "カゴシマケン",
    "prefecture_code": 46,
    "city": "姶良市",
    "city_kana": "アイラシ",
    "town": "蒲生町久末",
    "town_kana": "カモウチョウヒサスエ",
    "street": null,
    "office_name": null,
    "office_name_kana": null
  },
  "5308": {
    "postcode": "8995308",
    "prefecture": "鹿児島県",
    "prefecture_kana": "カゴシマケン",
    "prefecture_code": 46,
    "city": "姶良市",
    "city_kana": "アイラシ",
    "town": "蒲生町米丸",
    "town_kana": "カモウチョウヨネマル",
    "street": null,
    "office_name": null,
    "office_name_kana": null
  },
  "5392": {
    "postcode": "8995392",
    "prefecture": "鹿児島県",
    "prefecture_kana": "カゴシマケン",
    "prefecture_code": 46,
    "city": "姶良市",
    "city_kana": "アイラシ",
    "town": "蒲生町上久徳",
    "town_kana": "カモウチョウカミギュウトク",
    "street": "２３９９",
    "office_name": "姶良市役所　蒲生総合支所",
    "office_name_kana": "アイラシヤクシヨ カモウソウゴウシシヨ"
  },
  "5400": {
    "postcode": "8995400",
    "prefecture": "鹿児島県",
    "prefecture_kana": "カゴシマケン",
    "prefecture_code": 46,
    "city": "姶良市",
    "city_kana": "アイラシ",
    "town": "",
    "town_kana": "",
    "street": null,
    "office_name": null,
    "office_name_kana": null
  },
  "5401": {
    "postcode": "8995401",
    "prefecture": "鹿児島県",
    "prefecture_kana": "カゴシマケン",
    "prefecture_code": 46,
    "city": "姶良市",
    "city_kana": "アイラシ",
    "town": "寺師",
    "town_kana": "テラシ",
    "street": null,
    "office_name": null,
    "office_name_kana": null
  },
  "5402": {
    "postcode": "8995402",
    "prefecture": "鹿児島県",
    "prefecture_kana": "カゴシマケン",
    "prefecture_code": 46,
    "city": "姶良市",
    "city_kana": "アイラシ",
    "town": "中津野",
    "town_kana": "ナカツノ",
    "street": null,
    "office_name": null,
    "office_name_kana": null
  },
  "5403": {
    "postcode": "8995403",
    "prefecture": "鹿児島県",
    "prefecture_kana": "カゴシマケン",
    "prefecture_code": 46,
    "city": "姶良市",
    "city_kana": "アイラシ",
    "town": "増田",
    "town_kana": "マスダ",
    "street": null,
    "office_name": null,
    "office_name_kana": null
  },
  "5404": {
    "postcode": "8995404",
    "prefecture": "鹿児島県",
    "prefecture_kana": "カゴシマケン",
    "prefecture_code": 46,
    "city": "姶良市",
    "city_kana": "アイラシ",
    "town": "永瀬",
    "town_kana": "ナガセ",
    "street": null,
    "office_name": null,
    "office_name_kana": null
  },
  "5405": {
    "postcode": "8995405",
    "prefecture": "鹿児島県",
    "prefecture_kana": "カゴシマケン",
    "prefecture_code": 46,
    "city": "姶良市",
    "city_kana": "アイラシ",
    "town": "住吉",
    "town_kana": "スミヨシ",
    "street": null,
    "office_name": null,
    "office_name_kana": null
  },
  "5411": {
    "postcode": "8995411",
    "prefecture": "鹿児島県",
    "prefecture_kana": "カゴシマケン",
    "prefecture_code": 46,
    "city": "姶良市",
    "city_kana": "アイラシ",
    "town": "鍋倉",
    "town_kana": "ナベクラ",
    "street": null,
    "office_name": null,
    "office_name_kana": null
  },
  "5412": {
    "postcode": "8995412",
    "prefecture": "鹿児島県",
    "prefecture_kana": "カゴシマケン",
    "prefecture_code": 46,
    "city": "姶良市",
    "city_kana": "アイラシ",
    "town": "三拾町",
    "town_kana": "サンジュッチョウ",
    "street": null,
    "office_name": null,
    "office_name_kana": null
  },
  "5413": {
    "postcode": "8995413",
    "prefecture": "鹿児島県",
    "prefecture_kana": "カゴシマケン",
    "prefecture_code": 46,
    "city": "姶良市",
    "city_kana": "アイラシ",
    "town": "豊留",
    "town_kana": "トヨドメ",
    "street": null,
    "office_name": null,
    "office_name_kana": null
  },
  "5414": {
    "postcode": "8995414",
    "prefecture": "鹿児島県",
    "prefecture_kana": "カゴシマケン",
    "prefecture_code": 46,
    "city": "姶良市",
    "city_kana": "アイラシ",
    "town": "深水",
    "town_kana": "フカミズ",
    "street": null,
    "office_name": null,
    "office_name_kana": null
  },
  "5421": {
    "postcode": "8995421",
    "prefecture": "鹿児島県",
    "prefecture_kana": "カゴシマケン",
    "prefecture_code": 46,
    "city": "姶良市",
    "city_kana": "アイラシ",
    "town": "東餠田",
    "town_kana": "ヒガシモチダ",
    "street": null,
    "office_name": null,
    "office_name_kana": null
  },
  "5422": {
    "postcode": "8995422",
    "prefecture": "鹿児島県",
    "prefecture_kana": "カゴシマケン",
    "prefecture_code": 46,
    "city": "姶良市",
    "city_kana": "アイラシ",
    "town": "松原町",
    "town_kana": "マツバラマチ",
    "street": null,
    "office_name": null,
    "office_name_kana": null
  },
  "5431": {
    "postcode": "8995431",
    "prefecture": "鹿児島県",
    "prefecture_kana": "カゴシマケン",
    "prefecture_code": 46,
    "city": "姶良市",
    "city_kana": "アイラシ",
    "town": "西餠田",
    "town_kana": "ニシモチダ",
    "street": null,
    "office_name": null,
    "office_name_kana": null
  },
  "5432": {
    "postcode": "8995432",
    "prefecture": "鹿児島県",
    "prefecture_kana": "カゴシマケン",
    "prefecture_code": 46,
    "city": "姶良市",
    "city_kana": "アイラシ",
    "town": "宮島町",
    "town_kana": "ミヤジママチ",
    "street": null,
    "office_name": null,
    "office_name_kana": null
  },
  "5433": {
    "postcode": "8995433",
    "prefecture": "鹿児島県",
    "prefecture_kana": "カゴシマケン",
    "prefecture_code": 46,
    "city": "姶良市",
    "city_kana": "アイラシ",
    "town": "西宮島町",
    "town_kana": "ニシミヤジママチ",
    "street": null,
    "office_name": null,
    "office_name_kana": null
  },
  "5492": {
    "postcode": "8995492",
    "prefecture": "鹿児島県",
    "prefecture_kana": "カゴシマケン",
    "prefecture_code": 46,
    "city": "姶良市",
    "city_kana": "アイラシ",
    "town": "宮島町",
    "town_kana": "ミヤジママチ",
    "street": "２５",
    "office_name": "姶良市役所",
    "office_name_kana": "アイラシヤクシヨ"
  },
  "5495": {
    "postcode": "8995495",
    "prefecture": "鹿児島県",
    "prefecture_kana": "カゴシマケン",
    "prefecture_code": 46,
    "city": "姶良市",
    "city_kana": "アイラシ",
    "town": "東餅田",
    "town_kana": null,
    "street": "３３６",
    "office_name": "株式会社　マイカル南九州サンシティリブレ",
    "office_name_kana": "カブシキガイシヤ マイカルミナミキユウシユウサンシテイリブレ"
  },
  "5541": {
    "postcode": "8995541",
    "prefecture": "鹿児島県",
    "prefecture_kana": "カゴシマケン",
    "prefecture_code": 46,
    "city": "姶良市",
    "city_kana": "アイラシ",
    "town": "北山",
    "town_kana": "キタヤマ",
    "street": null,
    "office_name": null,
    "office_name_kana": null
  },
  "5542": {
    "postcode": "8995542",
    "prefecture": "鹿児島県",
    "prefecture_kana": "カゴシマケン",
    "prefecture_code": 46,
    "city": "姶良市",
    "city_kana": "アイラシ",
    "town": "上名",
    "town_kana": "カミミョウ",
    "street": null,
    "office_name": null,
    "office_name_kana": null
  },
  "5543": {
    "postcode": "8995543",
    "prefecture": "鹿児島県",
    "prefecture_kana": "カゴシマケン",
    "prefecture_code": 46,
    "city": "姶良市",
    "city_kana": "アイラシ",
    "town": "下名",
    "town_kana": "シモミョウ",
    "street": null,
    "office_name": null,
    "office_name_kana": null
  },
  "5544": {
    "postcode": "8995544",
    "prefecture": "鹿児島県",
    "prefecture_kana": "カゴシマケン",
    "prefecture_code": 46,
    "city": "姶良市",
    "city_kana": "アイラシ",
    "town": "大山",
    "town_kana": "オオヤマ",
    "street": null,
    "office_name": null,
    "office_name_kana": null
  },
  "5545": {
    "postcode": "8995545",
    "prefecture": "鹿児島県",
    "prefecture_kana": "カゴシマケン",
    "prefecture_code": 46,
    "city": "姶良市",
    "city_kana": "アイラシ",
    "town": "木津志",
    "town_kana": "キヅシ",
    "street": null,
    "office_name": null,
    "office_name_kana": null
  },
  "5651": {
    "postcode": "8995651",
    "prefecture": "鹿児島県",
    "prefecture_kana": "カゴシマケン",
    "prefecture_code": 46,
    "city": "姶良市",
    "city_kana": "アイラシ",
    "town": "脇元",
    "town_kana": "ワキモト",
    "street": null,
    "office_name": null,
    "office_name_kana": null
  },
  "5652": {
    "postcode": "8995652",
    "prefecture": "鹿児島県",
    "prefecture_kana": "カゴシマケン",
    "prefecture_code": 46,
    "city": "姶良市",
    "city_kana": "アイラシ",
    "town": "平松",
    "town_kana": "ヒラマツ",
    "street": null,
    "office_name": null,
    "office_name_kana": null
  },
  "5653": {
    "postcode": "8995653",
    "prefecture": "鹿児島県",
    "prefecture_kana": "カゴシマケン",
    "prefecture_code": 46,
    "city": "姶良市",
    "city_kana": "アイラシ",
    "town": "池島町",
    "town_kana": "イケジママチ",
    "street": null,
    "office_name": null,
    "office_name_kana": null
  },
  "5654": {
    "postcode": "8995654",
    "prefecture": "鹿児島県",
    "prefecture_kana": "カゴシマケン",
    "prefecture_code": 46,
    "city": "姶良市",
    "city_kana": "アイラシ",
    "town": "永池町",
    "town_kana": "ナガイケマチ",
    "street": null,
    "office_name": null,
    "office_name_kana": null
  },
  "5655": {
    "postcode": "8995655",
    "prefecture": "鹿児島県",
    "prefecture_kana": "カゴシマケン",
    "prefecture_code": 46,
    "city": "姶良市",
    "city_kana": "アイラシ",
    "town": "船津",
    "town_kana": "フナツ",
    "street": null,
    "office_name": null,
    "office_name_kana": null
  },
  "5656": {
    "postcode": "8995656",
    "prefecture": "鹿児島県",
    "prefecture_kana": "カゴシマケン",
    "prefecture_code": 46,
    "city": "姶良市",
    "city_kana": "アイラシ",
    "town": "西姶良",
    "town_kana": "ニシアイラ",
    "street": null,
    "office_name": null,
    "office_name_kana": null
  },
  "5693": {
    "postcode": "8995693",
    "prefecture": "鹿児島県",
    "prefecture_kana": "カゴシマケン",
    "prefecture_code": 46,
    "city": "姶良市",
    "city_kana": "アイラシ",
    "town": "池島町",
    "town_kana": "イケジママチ",
    "street": "３０番地１５号",
    "office_name": "医療法人　青雲病院",
    "office_name_kana": "イリヨウホウジン セイウンビヨウイン"
  },
  "5694": {
    "postcode": "8995694",
    "prefecture": "鹿児島県",
    "prefecture_kana": "カゴシマケン",
    "prefecture_code": 46,
    "city": "姶良市",
    "city_kana": "アイラシ",
    "town": "平松",
    "town_kana": "ヒラマツ",
    "street": "７２３３",
    "office_name": "株式会社　ランドアート",
    "office_name_kana": "カブシキガイシヤ ランドア-ト"
  },
  "5698": {
    "postcode": "8995698",
    "prefecture": "鹿児島県",
    "prefecture_kana": "カゴシマケン",
    "prefecture_code": 46,
    "city": "姶良市",
    "city_kana": "アイラシ",
    "town": "平松",
    "town_kana": "ヒラマツ",
    "street": "５０００番地",
    "office_name": "株式会社　イケダパン",
    "office_name_kana": "カブシキガイシヤ イケダパン"
  },
  "6101": {
    "postcode": "8996101",
    "prefecture": "鹿児島県",
    "prefecture_kana": "カゴシマケン",
    "prefecture_code": 46,
    "city": "姶良郡湧水町",
    "city_kana": "アイラグンユウスイチョウ",
    "town": "鶴丸",
    "town_kana": "ツルマル",
    "street": null,
    "office_name": null,
    "office_name_kana": null
  },
  "6102": {
    "postcode": "8996102",
    "prefecture": "鹿児島県",
    "prefecture_kana": "カゴシマケン",
    "prefecture_code": 46,
    "city": "姶良郡湧水町",
    "city_kana": "アイラグンユウスイチョウ",
    "town": "中津川",
    "town_kana": "ナカツガワ",
    "street": null,
    "office_name": null,
    "office_name_kana": null
  },
  "6103": {
    "postcode": "8996103",
    "prefecture": "鹿児島県",
    "prefecture_kana": "カゴシマケン",
    "prefecture_code": 46,
    "city": "姶良郡湧水町",
    "city_kana": "アイラグンユウスイチョウ",
    "town": "川添",
    "town_kana": "カワソエ",
    "street": null,
    "office_name": null,
    "office_name_kana": null
  },
  "6104": {
    "postcode": "8996104",
    "prefecture": "鹿児島県",
    "prefecture_kana": "カゴシマケン",
    "prefecture_code": 46,
    "city": "姶良郡湧水町",
    "city_kana": "アイラグンユウスイチョウ",
    "town": "川西",
    "town_kana": "カワニシ",
    "street": null,
    "office_name": null,
    "office_name_kana": null
  },
  "6105": {
    "postcode": "8996105",
    "prefecture": "鹿児島県",
    "prefecture_kana": "カゴシマケン",
    "prefecture_code": 46,
    "city": "姶良郡湧水町",
    "city_kana": "アイラグンユウスイチョウ",
    "town": "般若寺",
    "town_kana": "ハンニャジ",
    "street": null,
    "office_name": null,
    "office_name_kana": null
  },
  "6192": {
    "postcode": "8996192",
    "prefecture": "鹿児島県",
    "prefecture_kana": "カゴシマケン",
    "prefecture_code": 46,
    "city": "姶良郡湧水町",
    "city_kana": "アイラグンユウスイチョウ",
    "town": "中津川",
    "town_kana": "ナカツガワ",
    "street": "６０３",
    "office_name": "湧水町役場　吉松庁舎",
    "office_name_kana": "ユウスイチヨウヤクバ ヨシマツチヨウシヤ"
  },
  "6193": {
    "postcode": "8996193",
    "prefecture": "鹿児島県",
    "prefecture_kana": "カゴシマケン",
    "prefecture_code": 46,
    "city": "姶良郡湧水町",
    "city_kana": "アイラグンユウスイチョウ",
    "town": "中津川",
    "town_kana": "ナカツガワ",
    "street": "１７３３",
    "office_name": "鹿児島刑務所",
    "office_name_kana": "カゴシマケイムシヨ"
  },
  "6200": {
    "postcode": "8996200",
    "prefecture": "鹿児島県",
    "prefecture_kana": "カゴシマケン",
    "prefecture_code": 46,
    "city": "姶良郡湧水町",
    "city_kana": "アイラグンユウスイチョウ",
    "town": "",
    "town_kana": "",
    "street": null,
    "office_name": null,
    "office_name_kana": null
  },
  "6201": {
    "postcode": "8996201",
    "prefecture": "鹿児島県",
    "prefecture_kana": "カゴシマケン",
    "prefecture_code": 46,
    "city": "姶良郡湧水町",
    "city_kana": "アイラグンユウスイチョウ",
    "town": "木場",
    "town_kana": "コバ",
    "street": null,
    "office_name": null,
    "office_name_kana": null
  },
  "6202": {
    "postcode": "8996202",
    "prefecture": "鹿児島県",
    "prefecture_kana": "カゴシマケン",
    "prefecture_code": 46,
    "city": "姶良郡湧水町",
    "city_kana": "アイラグンユウスイチョウ",
    "town": "北方",
    "town_kana": "キタカタ",
    "street": null,
    "office_name": null,
    "office_name_kana": null
  },
  "6203": {
    "postcode": "8996203",
    "prefecture": "鹿児島県",
    "prefecture_kana": "カゴシマケン",
    "prefecture_code": 46,
    "city": "姶良郡湧水町",
    "city_kana": "アイラグンユウスイチョウ",
    "town": "田尾原",
    "town_kana": "タオバル",
    "street": null,
    "office_name": null,
    "office_name_kana": null
  },
  "6204": {
    "postcode": "8996204",
    "prefecture": "鹿児島県",
    "prefecture_kana": "カゴシマケン",
    "prefecture_code": 46,
    "city": "姶良郡湧水町",
    "city_kana": "アイラグンユウスイチョウ",
    "town": "稲葉崎",
    "town_kana": "イナバサキ",
    "street": null,
    "office_name": null,
    "office_name_kana": null
  },
  "6205": {
    "postcode": "8996205",
    "prefecture": "鹿児島県",
    "prefecture_kana": "カゴシマケン",
    "prefecture_code": 46,
    "city": "姶良郡湧水町",
    "city_kana": "アイラグンユウスイチョウ",
    "town": "幸田",
    "town_kana": "コウダ",
    "street": null,
    "office_name": null,
    "office_name_kana": null
  },
  "6206": {
    "postcode": "8996206",
    "prefecture": "鹿児島県",
    "prefecture_kana": "カゴシマケン",
    "prefecture_code": 46,
    "city": "姶良郡湧水町",
    "city_kana": "アイラグンユウスイチョウ",
    "town": "恒次",
    "town_kana": "ツネツグ",
    "street": null,
    "office_name": null,
    "office_name_kana": null
  },
  "6207": {
    "postcode": "8996207",
    "prefecture": "鹿児島県",
    "prefecture_kana": "カゴシマケン",
    "prefecture_code": 46,
    "city": "姶良郡湧水町",
    "city_kana": "アイラグンユウスイチョウ",
    "town": "米永",
    "town_kana": "ヨネナガ",
    "street": null,
    "office_name": null,
    "office_name_kana": null
  },
  "6292": {
    "postcode": "8996292",
    "prefecture": "鹿児島県",
    "prefecture_kana": "カゴシマケン",
    "prefecture_code": 46,
    "city": "姶良郡湧水町",
    "city_kana": "アイラグンユウスイチョウ",
    "town": "木場",
    "town_kana": "コバ",
    "street": "２２２",
    "office_name": "湧水町役場",
    "office_name_kana": "ユウスイチヨウヤクバ"
  },
  "6293": {
    "postcode": "8996293",
    "prefecture": "鹿児島県",
    "prefecture_kana": "カゴシマケン",
    "prefecture_code": 46,
    "city": "姶良郡湧水町",
    "city_kana": "アイラグンユウスイチョウ",
    "town": "北方",
    "town_kana": "キタカタ",
    "street": "１８００",
    "office_name": "ヤマハ鹿児島　セミコンダクタ　株式会社",
    "office_name_kana": "ヤマハカゴシマ セミコンダクタ カブシキガイシヤ"
  },
  "6301": {
    "postcode": "8996301",
    "prefecture": "鹿児島県",
    "prefecture_kana": "カゴシマケン",
    "prefecture_code": 46,
    "city": "霧島市",
    "city_kana": "キリシマシ",
    "town": "横川町上ノ",
    "town_kana": "ヨコガワチョウカミノ",
    "street": null,
    "office_name": null,
    "office_name_kana": null
  },
  "6302": {
    "postcode": "8996302",
    "prefecture": "鹿児島県",
    "prefecture_kana": "カゴシマケン",
    "prefecture_code": 46,
    "city": "霧島市",
    "city_kana": "キリシマシ",
    "town": "横川町下ノ",
    "town_kana": "ヨコガワチョウシモノ",
    "street": null,
    "office_name": null,
    "office_name_kana": null
  },
  "6303": {
    "postcode": "8996303",
    "prefecture": "鹿児島県",
    "prefecture_kana": "カゴシマケン",
    "prefecture_code": 46,
    "city": "霧島市",
    "city_kana": "キリシマシ",
    "town": "横川町中ノ",
    "town_kana": "ヨコガワチョウナカノ",
    "street": null,
    "office_name": null,
    "office_name_kana": null
  },
  "6401": {
    "postcode": "8996401",
    "prefecture": "鹿児島県",
    "prefecture_kana": "カゴシマケン",
    "prefecture_code": 46,
    "city": "霧島市",
    "city_kana": "キリシマシ",
    "town": "溝辺町有川",
    "town_kana": "ミゾベチョウアリカワ",
    "street": null,
    "office_name": null,
    "office_name_kana": null
  },
  "6402": {
    "postcode": "8996402",
    "prefecture": "鹿児島県",
    "prefecture_kana": "カゴシマケン",
    "prefecture_code": 46,
    "city": "霧島市",
    "city_kana": "キリシマシ",
    "town": "溝辺町竹子",
    "town_kana": "ミゾベチョウタカゼ",
    "street": null,
    "office_name": null,
    "office_name_kana": null
  },
  "6403": {
    "postcode": "8996403",
    "prefecture": "鹿児島県",
    "prefecture_kana": "カゴシマケン",
    "prefecture_code": 46,
    "city": "霧島市",
    "city_kana": "キリシマシ",
    "town": "溝辺町三縄",
    "town_kana": "ミゾベチョウミナワ",
    "street": null,
    "office_name": null,
    "office_name_kana": null
  },
  "6404": {
    "postcode": "8996404",
    "prefecture": "鹿児島県",
    "prefecture_kana": "カゴシマケン",
    "prefecture_code": 46,
    "city": "霧島市",
    "city_kana": "キリシマシ",
    "town": "溝辺町麓",
    "town_kana": "ミゾベチョウフモト",
    "street": null,
    "office_name": null,
    "office_name_kana": null
  },
  "6405": {
    "postcode": "8996405",
    "prefecture": "鹿児島県",
    "prefecture_kana": "カゴシマケン",
    "prefecture_code": 46,
    "city": "霧島市",
    "city_kana": "キリシマシ",
    "town": "溝辺町崎森",
    "town_kana": "ミゾベチョウサキモリ",
    "street": null,
    "office_name": null,
    "office_name_kana": null
  },
  "6492": {
    "postcode": "8996492",
    "prefecture": "鹿児島県",
    "prefecture_kana": "カゴシマケン",
    "prefecture_code": 46,
    "city": "霧島市",
    "city_kana": "キリシマシ",
    "town": "溝辺町麓",
    "town_kana": "ミゾベチョウフモト",
    "street": "８３８",
    "office_name": "国土交通省　大阪航空局　鹿児島空港事務所",
    "office_name_kana": "コクドコウツウシヨウ オオサカコウクウキヨク カゴシマクウコウジムシヨ"
  },
  "6493": {
    "postcode": "8996493",
    "prefecture": "鹿児島県",
    "prefecture_kana": "カゴシマケン",
    "prefecture_code": 46,
    "city": "霧島市",
    "city_kana": "キリシマシ",
    "town": "溝辺町有川",
    "town_kana": "ミゾベチョウアリカワ",
    "street": "３４１",
    "office_name": "霧島市　溝辺総合支所",
    "office_name_kana": "キリシマシ ミゾベソウゴウシシヨ"
  },
  "6494": {
    "postcode": "8996494",
    "prefecture": "鹿児島県",
    "prefecture_kana": "カゴシマケン",
    "prefecture_code": 46,
    "city": "霧島市",
    "city_kana": "キリシマシ",
    "town": "溝辺町麓",
    "town_kana": "ミゾベチョウフモト",
    "street": "８２２",
    "office_name": "鹿児島空港ビルディング　株式会社",
    "office_name_kana": "カゴシマクウコウビルデイング カブシキガイシヤ"
  },
  "6495": {
    "postcode": "8996495",
    "prefecture": "鹿児島県",
    "prefecture_kana": "カゴシマケン",
    "prefecture_code": 46,
    "city": "霧島市",
    "city_kana": "キリシマシ",
    "town": "溝辺町麓",
    "town_kana": "ミゾベチョウフモト",
    "street": "７８７−４",
    "office_name": "日本エアコミューター　株式会社",
    "office_name_kana": "ニホンエアコミユ-タ- カブシキガイシヤ"
  },
  "6501": {
    "postcode": "8996501",
    "prefecture": "鹿児島県",
    "prefecture_kana": "カゴシマケン",
    "prefecture_code": 46,
    "city": "霧島市",
    "city_kana": "キリシマシ",
    "town": "牧園町万膳",
    "town_kana": "マキゾノチョウマンゼン",
    "street": null,
    "office_name": null,
    "office_name_kana": null
  },
  "6502": {
    "postcode": "8996502",
    "prefecture": "鹿児島県",
    "prefecture_kana": "カゴシマケン",
    "prefecture_code": 46,
    "city": "霧島市",
    "city_kana": "キリシマシ",
    "town": "牧園町三体堂",
    "town_kana": "マキゾノチョウサンタイドウ",
    "street": null,
    "office_name": null,
    "office_name_kana": null
  },
  "6503": {
    "postcode": "8996503",
    "prefecture": "鹿児島県",
    "prefecture_kana": "カゴシマケン",
    "prefecture_code": 46,
    "city": "霧島市",
    "city_kana": "キリシマシ",
    "town": "牧園町高千穂",
    "town_kana": "マキゾノチョウタカチホ",
    "street": null,
    "office_name": null,
    "office_name_kana": null
  },
  "6504": {
    "postcode": "8996504",
    "prefecture": "鹿児島県",
    "prefecture_kana": "カゴシマケン",
    "prefecture_code": 46,
    "city": "霧島市",
    "city_kana": "キリシマシ",
    "town": "牧園町上中津川",
    "town_kana": "マキゾノチョウカミナカツガワ",
    "street": null,
    "office_name": null,
    "office_name_kana": null
  },
  "6505": {
    "postcode": "8996505",
    "prefecture": "鹿児島県",
    "prefecture_kana": "カゴシマケン",
    "prefecture_code": 46,
    "city": "霧島市",
    "city_kana": "キリシマシ",
    "town": "牧園町持松",
    "town_kana": "マキゾノチョウモチマツ",
    "street": null,
    "office_name": null,
    "office_name_kana": null
  },
  "6506": {
    "postcode": "8996506",
    "prefecture": "鹿児島県",
    "prefecture_kana": "カゴシマケン",
    "prefecture_code": 46,
    "city": "霧島市",
    "city_kana": "キリシマシ",
    "town": "牧園町下中津川",
    "town_kana": "マキゾノチョウシモナカツガワ",
    "street": null,
    "office_name": null,
    "office_name_kana": null
  },
  "6507": {
    "postcode": "8996507",
    "prefecture": "鹿児島県",
    "prefecture_kana": "カゴシマケン",
    "prefecture_code": 46,
    "city": "霧島市",
    "city_kana": "キリシマシ",
    "town": "牧園町宿窪田",
    "town_kana": "マキゾノチョウシュククボタ",
    "street": null,
    "office_name": null,
    "office_name_kana": null
  },
  "6592": {
    "postcode": "8996592",
    "prefecture": "鹿児島県",
    "prefecture_kana": "カゴシマケン",
    "prefecture_code": 46,
    "city": "霧島市",
    "city_kana": "キリシマシ",
    "town": "牧園町宿窪田",
    "town_kana": "マキゾノチョウシュククボタ",
    "street": "２６４７",
    "office_name": "霧島市　牧園総合支所",
    "office_name_kana": "キリシマシ マキゾノソウゴウシシヨ"
  },
  "6601": {
    "postcode": "8996601",
    "prefecture": "鹿児島県",
    "prefecture_kana": "カゴシマケン",
    "prefecture_code": 46,
    "city": "霧島市",
    "city_kana": "キリシマシ",
    "town": "牧園町万膳",
    "town_kana": "マキゾノチョウマンゼン",
    "street": null,
    "office_name": null,
    "office_name_kana": null
  },
  "6602": {
    "postcode": "8996602",
    "prefecture": "鹿児島県",
    "prefecture_kana": "カゴシマケン",
    "prefecture_code": 46,
    "city": "霧島市",
    "city_kana": "キリシマシ",
    "town": "牧園町三体堂",
    "town_kana": "マキゾノチョウサンタイドウ",
    "street": null,
    "office_name": null,
    "office_name_kana": null
  },
  "6603": {
    "postcode": "8996603",
    "prefecture": "鹿児島県",
    "prefecture_kana": "カゴシマケン",
    "prefecture_code": 46,
    "city": "霧島市",
    "city_kana": "キリシマシ",
    "town": "牧園町高千穂",
    "town_kana": "マキゾノチョウタカチホ",
    "street": null,
    "office_name": null,
    "office_name_kana": null
  },
  "6604": {
    "postcode": "8996604",
    "prefecture": "鹿児島県",
    "prefecture_kana": "カゴシマケン",
    "prefecture_code": 46,
    "city": "霧島市",
    "city_kana": "キリシマシ",
    "town": "牧園町上中津川",
    "town_kana": "マキゾノチョウカミナカツガワ",
    "street": null,
    "office_name": null,
    "office_name_kana": null
  },
  "7100": {
    "postcode": "8997100",
    "prefecture": "鹿児島県",
    "prefecture_kana": "カゴシマケン",
    "prefecture_code": 46,
    "city": "志布志市",
    "city_kana": "シブシシ",
    "town": "",
    "town_kana": "",
    "street": null,
    "office_name": null,
    "office_name_kana": null
  },
  "7101": {
    "postcode": "8997101",
    "prefecture": "鹿児島県",
    "prefecture_kana": "カゴシマケン",
    "prefecture_code": 46,
    "city": "志布志市",
    "city_kana": "シブシシ",
    "town": "志布志町夏井",
    "town_kana": "シブシチョウナツイ",
    "street": null,
    "office_name": null,
    "office_name_kana": null
  },
  "7102": {
    "postcode": "8997102",
    "prefecture": "鹿児島県",
    "prefecture_kana": "カゴシマケン",
    "prefecture_code": 46,
    "city": "志布志市",
    "city_kana": "シブシシ",
    "town": "志布志町帖",
    "town_kana": "シブシチョウチョウ",
    "street": null,
    "office_name": null,
    "office_name_kana": null
  },
  "7103": {
    "postcode": "8997103",
    "prefecture": "鹿児島県",
    "prefecture_kana": "カゴシマケン",
    "prefecture_code": 46,
    "city": "志布志市",
    "city_kana": "シブシシ",
    "town": "志布志町志布志",
    "town_kana": "シブシチョウシブシ",
    "street": null,
    "office_name": null,
    "office_name_kana": null
  },
  "7104": {
    "postcode": "8997104",
    "prefecture": "鹿児島県",
    "prefecture_kana": "カゴシマケン",
    "prefecture_code": 46,
    "city": "志布志市",
    "city_kana": "シブシシ",
    "town": "志布志町安楽",
    "town_kana": "シブシチョウアンラク",
    "street": null,
    "office_name": null,
    "office_name_kana": null
  },
  "7192": {
    "postcode": "8997192",
    "prefecture": "鹿児島県",
    "prefecture_kana": "カゴシマケン",
    "prefecture_code": 46,
    "city": "志布志市",
    "city_kana": "シブシシ",
    "town": "志布志町志布志",
    "town_kana": "シブシチョウシブシ",
    "street": "２丁目１−１",
    "office_name": "志布志市役所　志布志支所",
    "office_name_kana": "シブシシヤクシヨ シブシシシヨ"
  },
  "7211": {
    "postcode": "8997211",
    "prefecture": "鹿児島県",
    "prefecture_kana": "カゴシマケン",
    "prefecture_code": 46,
    "city": "志布志市",
    "city_kana": "シブシシ",
    "town": "志布志町内之倉",
    "town_kana": "シブシチョウウチノクラ",
    "street": null,
    "office_name": null,
    "office_name_kana": null
  },
  "7212": {
    "postcode": "8997212",
    "prefecture": "鹿児島県",
    "prefecture_kana": "カゴシマケン",
    "prefecture_code": 46,
    "city": "志布志市",
    "city_kana": "シブシシ",
    "town": "志布志町田之浦",
    "town_kana": "シブシチョウタノウラ",
    "street": null,
    "office_name": null,
    "office_name_kana": null
  },
  "7300": {
    "postcode": "8997300",
    "prefecture": "鹿児島県",
    "prefecture_kana": "カゴシマケン",
    "prefecture_code": 46,
    "city": "曽於郡大崎町",
    "city_kana": "ソオグンオオサキチョウ",
    "town": "",
    "town_kana": "",
    "street": null,
    "office_name": null,
    "office_name_kana": null
  },
  "7301": {
    "postcode": "8997301",
    "prefecture": "鹿児島県",
    "prefecture_kana": "カゴシマケン",
    "prefecture_code": 46,
    "city": "曽於郡大崎町",
    "city_kana": "ソオグンオオサキチョウ",
    "town": "菱田",
    "town_kana": "ヒシダ",
    "street": null,
    "office_name": null,
    "office_name_kana": null
  },
  "7302": {
    "postcode": "8997302",
    "prefecture": "鹿児島県",
    "prefecture_kana": "カゴシマケン",
    "prefecture_code": 46,
    "city": "曽於郡大崎町",
    "city_kana": "ソオグンオオサキチョウ",
    "town": "神領",
    "town_kana": "ジンリョウ",
    "street": null,
    "office_name": null,
    "office_name_kana": null
  },
  "7303": {
    "postcode": "8997303",
    "prefecture": "鹿児島県",
    "prefecture_kana": "カゴシマケン",
    "prefecture_code": 46,
    "city": "曽於郡大崎町",
    "city_kana": "ソオグンオオサキチョウ",
    "town": "益丸",
    "town_kana": "マスマル",
    "street": null,
    "office_name": null,
    "office_name_kana": null
  },
  "7304": {
    "postcode": "8997304",
    "prefecture": "鹿児島県",
    "prefecture_kana": "カゴシマケン",
    "prefecture_code": 46,
    "city": "曽於郡大崎町",
    "city_kana": "ソオグンオオサキチョウ",
    "town": "横瀬",
    "town_kana": "ヨコセ",
    "street": null,
    "office_name": null,
    "office_name_kana": null
  },
  "7305": {
    "postcode": "8997305",
    "prefecture": "鹿児島県",
    "prefecture_kana": "カゴシマケン",
    "prefecture_code": 46,
    "city": "曽於郡大崎町",
    "city_kana": "ソオグンオオサキチョウ",
    "town": "假宿",
    "town_kana": "カリジュク",
    "street": null,
    "office_name": null,
    "office_name_kana": null
  },
  "7306": {
    "postcode": "8997306",
    "prefecture": "鹿児島県",
    "prefecture_kana": "カゴシマケン",
    "prefecture_code": 46,
    "city": "曽於郡大崎町",
    "city_kana": "ソオグンオオサキチョウ",
    "town": "永吉",
    "town_kana": "ナガヨシ",
    "street": null,
    "office_name": null,
    "office_name_kana": null
  },
  "7307": {
    "postcode": "8997307",
    "prefecture": "鹿児島県",
    "prefecture_kana": "カゴシマケン",
    "prefecture_code": 46,
    "city": "曽於郡大崎町",
    "city_kana": "ソオグンオオサキチョウ",
    "town": "持留",
    "town_kana": "モチドメ",
    "street": null,
    "office_name": null,
    "office_name_kana": null
  },
  "7308": {
    "postcode": "8997308",
    "prefecture": "鹿児島県",
    "prefecture_kana": "カゴシマケン",
    "prefecture_code": 46,
    "city": "曽於郡大崎町",
    "city_kana": "ソオグンオオサキチョウ",
    "town": "岡別府",
    "town_kana": "オカベップ",
    "street": null,
    "office_name": null,
    "office_name_kana": null
  },
  "7309": {
    "postcode": "8997309",
    "prefecture": "鹿児島県",
    "prefecture_kana": "カゴシマケン",
    "prefecture_code": 46,
    "city": "曽於郡大崎町",
    "city_kana": "ソオグンオオサキチョウ",
    "town": "井俣",
    "town_kana": "イマタ",
    "street": null,
    "office_name": null,
    "office_name_kana": null
  },
  "7401": {
    "postcode": "8997401",
    "prefecture": "鹿児島県",
    "prefecture_kana": "カゴシマケン",
    "prefecture_code": 46,
    "city": "志布志市",
    "city_kana": "シブシシ",
    "town": "有明町伊崎田",
    "town_kana": "アリアケチョウイサキダ",
    "street": null,
    "office_name": null,
    "office_name_kana": null
  },
  "7402": {
    "postcode": "8997402",
    "prefecture": "鹿児島県",
    "prefecture_kana": "カゴシマケン",
    "prefecture_code": 46,
    "city": "志布志市",
    "city_kana": "シブシシ",
    "town": "有明町野井倉",
    "town_kana": "アリアケチョウノイクラ",
    "street": null,
    "office_name": null,
    "office_name_kana": null
  },
  "7403": [
    {
      "postcode": "8997403",
      "prefecture": "鹿児島県",
      "prefecture_kana": "カゴシマケン",
      "prefecture_code": 46,
      "city": "志布志市",
      "city_kana": "シブシシ",
      "town": "有明町蓬原",
      "town_kana": "アリアケチョウフツハラ",
      "street": null,
      "office_name": null,
      "office_name_kana": null
    },
    {
      "postcode": "8997403",
      "prefecture": "鹿児島県",
      "prefecture_kana": "カゴシマケン",
      "prefecture_code": 46,
      "city": "志布志市",
      "city_kana": "シブシシ",
      "town": "有明町蓬原春日",
      "town_kana": "アリアケチョウフツハラカスガ",
      "street": null,
      "office_name": null,
      "office_name_kana": null
    }
  ],
  "7492": {
    "postcode": "8997492",
    "prefecture": "鹿児島県",
    "prefecture_kana": "カゴシマケン",
    "prefecture_code": 46,
    "city": "志布志市",
    "city_kana": "シブシシ",
    "town": "有明町野井倉",
    "town_kana": "アリアケチョウノイクラ",
    "street": "１７５６",
    "office_name": "志布志市役所",
    "office_name_kana": "シブシシヤクシヨ"
  },
  "7503": {
    "postcode": "8997503",
    "prefecture": "鹿児島県",
    "prefecture_kana": "カゴシマケン",
    "prefecture_code": 46,
    "city": "志布志市",
    "city_kana": "シブシシ",
    "town": "有明町蓬原",
    "town_kana": "アリアケチョウフツハラ",
    "street": null,
    "office_name": null,
    "office_name_kana": null
  },
  "7511": {
    "postcode": "8997511",
    "prefecture": "鹿児島県",
    "prefecture_kana": "カゴシマケン",
    "prefecture_code": 46,
    "city": "志布志市",
    "city_kana": "シブシシ",
    "town": "有明町原田",
    "town_kana": "アリアケチョウハラダ",
    "street": null,
    "office_name": null,
    "office_name_kana": null
  },
  "7512": {
    "postcode": "8997512",
    "prefecture": "鹿児島県",
    "prefecture_kana": "カゴシマケン",
    "prefecture_code": 46,
    "city": "志布志市",
    "city_kana": "シブシシ",
    "town": "有明町野神",
    "town_kana": "アリアケチョウノガミ",
    "street": null,
    "office_name": null,
    "office_name_kana": null
  },
  "7513": {
    "postcode": "8997513",
    "prefecture": "鹿児島県",
    "prefecture_kana": "カゴシマケン",
    "prefecture_code": 46,
    "city": "志布志市",
    "city_kana": "シブシシ",
    "town": "有明町山重",
    "town_kana": "アリアケチョウヤマシゲ",
    "street": null,
    "office_name": null,
    "office_name_kana": null
  },
  "7601": {
    "postcode": "8997601",
    "prefecture": "鹿児島県",
    "prefecture_kana": "カゴシマケン",
    "prefecture_code": 46,
    "city": "志布志市",
    "city_kana": "シブシシ",
    "town": "松山町新橋",
    "town_kana": "マツヤマチョウシンバシ",
    "street": null,
    "office_name": null,
    "office_name_kana": null
  },
  "7602": {
    "postcode": "8997602",
    "prefecture": "鹿児島県",
    "prefecture_kana": "カゴシマケン",
    "prefecture_code": 46,
    "city": "志布志市",
    "city_kana": "シブシシ",
    "town": "松山町泰野",
    "town_kana": "マツヤマチョウタイノ",
    "street": null,
    "office_name": null,
    "office_name_kana": null
  },
  "7603": {
    "postcode": "8997603",
    "prefecture": "鹿児島県",
    "prefecture_kana": "カゴシマケン",
    "prefecture_code": 46,
    "city": "志布志市",
    "city_kana": "シブシシ",
    "town": "松山町尾野見",
    "town_kana": "マツヤマチョウオノミ",
    "street": null,
    "office_name": null,
    "office_name_kana": null
  },
  "7692": {
    "postcode": "8997692",
    "prefecture": "鹿児島県",
    "prefecture_kana": "カゴシマケン",
    "prefecture_code": 46,
    "city": "志布志市",
    "city_kana": "シブシシ",
    "town": "松山町新橋",
    "town_kana": "マツヤマチョウシンバシ",
    "street": "２６８",
    "office_name": "志布志市役所　松山支所",
    "office_name_kana": "シブシシヤクシヨ マツヤマシシヨ"
  },
  "8101": [
    {
      "postcode": "8998101",
      "prefecture": "鹿児島県",
      "prefecture_kana": "カゴシマケン",
      "prefecture_code": 46,
      "city": "曽於市",
      "city_kana": "ソオシ",
      "town": "末吉町岩崎",
      "town_kana": "スエヨシチョウイワサキ",
      "street": null,
      "office_name": null,
      "office_name_kana": null
    },
    {
      "postcode": "8998101",
      "prefecture": "鹿児島県",
      "prefecture_kana": "カゴシマケン",
      "prefecture_code": 46,
      "city": "曽於市",
      "city_kana": "ソオシ",
      "town": "末吉町岩崎池原",
      "town_kana": "スエヨシチョウイワサキイケハラ",
      "street": null,
      "office_name": null,
      "office_name_kana": null
    },
    {
      "postcode": "8998101",
      "prefecture": "鹿児島県",
      "prefecture_kana": "カゴシマケン",
      "prefecture_code": 46,
      "city": "曽於市",
      "city_kana": "ソオシ",
      "town": "末吉町岩崎岩之上",
      "town_kana": "スエヨシチョウイワサキイワノウエ",
      "street": null,
      "office_name": null,
      "office_name_kana": null
    },
    {
      "postcode": "8998101",
      "prefecture": "鹿児島県",
      "prefecture_kana": "カゴシマケン",
      "prefecture_code": 46,
      "city": "曽於市",
      "city_kana": "ソオシ",
      "town": "末吉町岩崎岩南",
      "town_kana": "スエヨシチョウイワサキイワミナミ",
      "street": null,
      "office_name": null,
      "office_name_kana": null
    },
    {
      "postcode": "8998101",
      "prefecture": "鹿児島県",
      "prefecture_kana": "カゴシマケン",
      "prefecture_code": 46,
      "city": "曽於市",
      "city_kana": "ソオシ",
      "town": "末吉町岩崎前田",
      "town_kana": "スエヨシチョウイワサキマエダ",
      "street": null,
      "office_name": null,
      "office_name_kana": null
    },
    {
      "postcode": "8998101",
      "prefecture": "鹿児島県",
      "prefecture_kana": "カゴシマケン",
      "prefecture_code": 46,
      "city": "曽於市",
      "city_kana": "ソオシ",
      "town": "末吉町岩崎牧原",
      "town_kana": "スエヨシチョウイワサキマキハラ",
      "street": null,
      "office_name": null,
      "office_name_kana": null
    },
    {
      "postcode": "8998101",
      "prefecture": "鹿児島県",
      "prefecture_kana": "カゴシマケン",
      "prefecture_code": 46,
      "city": "曽於市",
      "city_kana": "ソオシ",
      "town": "末吉町岩崎道添",
      "town_kana": "スエヨシチョウイワサキミチゾイ",
      "street": null,
      "office_name": null,
      "office_name_kana": null
    },
    {
      "postcode": "8998101",
      "prefecture": "鹿児島県",
      "prefecture_kana": "カゴシマケン",
      "prefecture_code": 46,
      "city": "曽於市",
      "city_kana": "ソオシ",
      "town": "末吉町岩崎宮原",
      "town_kana": "スエヨシチョウイワサキミヤバル",
      "street": null,
      "office_name": null,
      "office_name_kana": null
    }
  ],
  "8102": {
    "postcode": "8998102",
    "prefecture": "鹿児島県",
    "prefecture_kana": "カゴシマケン",
    "prefecture_code": 46,
    "city": "曽於市",
    "city_kana": "ソオシ",
    "town": "大隅町岩川",
    "town_kana": "オオスミチョウイワガワ",
    "street": null,
    "office_name": null,
    "office_name_kana": null
  },
  "8103": {
    "postcode": "8998103",
    "prefecture": "鹿児島県",
    "prefecture_kana": "カゴシマケン",
    "prefecture_code": 46,
    "city": "曽於市",
    "city_kana": "ソオシ",
    "town": "大隅町中之内",
    "town_kana": "オオスミチョウナカノウチ",
    "street": null,
    "office_name": null,
    "office_name_kana": null
  },
  "8104": {
    "postcode": "8998104",
    "prefecture": "鹿児島県",
    "prefecture_kana": "カゴシマケン",
    "prefecture_code": 46,
    "city": "曽於市",
    "city_kana": "ソオシ",
    "town": "大隅町鳴神町",
    "town_kana": "オオスミチョウナルガミマチ",
    "street": null,
    "office_name": null,
    "office_name_kana": null
  },
  "8105": {
    "postcode": "8998105",
    "prefecture": "鹿児島県",
    "prefecture_kana": "カゴシマケン",
    "prefecture_code": 46,
    "city": "曽於市",
    "city_kana": "ソオシ",
    "town": "大隅町段中町",
    "town_kana": "オオスミチョウダンナカマチ",
    "street": null,
    "office_name": null,
    "office_name_kana": null
  },
  "8106": {
    "postcode": "8998106",
    "prefecture": "鹿児島県",
    "prefecture_kana": "カゴシマケン",
    "prefecture_code": 46,
    "city": "曽於市",
    "city_kana": "ソオシ",
    "town": "大隅町下窪町",
    "town_kana": "オオスミチョウシモクボマチ",
    "street": null,
    "office_name": null,
    "office_name_kana": null
  },
  "8192": {
    "postcode": "8998192",
    "prefecture": "鹿児島県",
    "prefecture_kana": "カゴシマケン",
    "prefecture_code": 46,
    "city": "曽於市",
    "city_kana": "ソオシ",
    "town": "大隅町岩川",
    "town_kana": "オオスミチョウイワガワ",
    "street": "６４９１番地−２（岩川郵便局私書箱第１号）",
    "office_name": "大隅税務署",
    "office_name_kana": "オオスミゼイムシヨ"
  },
  "8193": {
    "postcode": "8998193",
    "prefecture": "鹿児島県",
    "prefecture_kana": "カゴシマケン",
    "prefecture_code": 46,
    "city": "曽於市",
    "city_kana": "ソオシ",
    "town": "大隅町岩川",
    "town_kana": "オオスミチョウイワガワ",
    "street": "５６２９番地",
    "office_name": "曽於市役所　大隅支所",
    "office_name_kana": "ソオシヤクシヨ オオスミシシヨ"
  },
  "8211": [
    {
      "postcode": "8998211",
      "prefecture": "鹿児島県",
      "prefecture_kana": "カゴシマケン",
      "prefecture_code": 46,
      "city": "曽於市",
      "city_kana": "ソオシ",
      "town": "大隅町荒谷",
      "town_kana": "オオスミチョウアラタニ",
      "street": null,
      "office_name": null,
      "office_name_kana": null
    },
    {
      "postcode": "8998211",
      "prefecture": "鹿児島県",
      "prefecture_kana": "カゴシマケン",
      "prefecture_code": 46,
      "city": "曽於市",
      "city_kana": "ソオシ",
      "town": "大隅町荒谷荒谷",
      "town_kana": "オオスミチョウアラタニアラタニ",
      "street": null,
      "office_name": null,
      "office_name_kana": null
    },
    {
      "postcode": "8998211",
      "prefecture": "鹿児島県",
      "prefecture_kana": "カゴシマケン",
      "prefecture_code": 46,
      "city": "曽於市",
      "city_kana": "ソオシ",
      "town": "大隅町荒谷大迫",
      "town_kana": "オオスミチョウアラタニオオサコ",
      "street": null,
      "office_name": null,
      "office_name_kana": null
    },
    {
      "postcode": "8998211",
      "prefecture": "鹿児島県",
      "prefecture_kana": "カゴシマケン",
      "prefecture_code": 46,
      "city": "曽於市",
      "city_kana": "ソオシ",
      "town": "大隅町荒谷中大迫",
      "town_kana": "オオスミチョウアラタニナカオオサコ",
      "street": null,
      "office_name": null,
      "office_name_kana": null
    }
  ],
  "8212": {
    "postcode": "8998212",
    "prefecture": "鹿児島県",
    "prefecture_kana": "カゴシマケン",
    "prefecture_code": 46,
    "city": "曽於市",
    "city_kana": "ソオシ",
    "town": "大隅町月野",
    "town_kana": "オオスミチョウツキノ",
    "street": null,
    "office_name": null,
    "office_name_kana": null
  },
  "8213": {
    "postcode": "8998213",
    "prefecture": "鹿児島県",
    "prefecture_kana": "カゴシマケン",
    "prefecture_code": 46,
    "city": "曽於市",
    "city_kana": "ソオシ",
    "town": "大隅町境木町",
    "town_kana": "オオスミチョウサカイギマチ",
    "street": null,
    "office_name": null,
    "office_name_kana": null
  },
  "8311": {
    "postcode": "8998311",
    "prefecture": "鹿児島県",
    "prefecture_kana": "カゴシマケン",
    "prefecture_code": 46,
    "city": "曽於市",
    "city_kana": "ソオシ",
    "town": "大隅町荒谷",
    "town_kana": "オオスミチョウアラタニ",
    "street": null,
    "office_name": null,
    "office_name_kana": null
  },
  "8312": [
    {
      "postcode": "8998312",
      "prefecture": "鹿児島県",
      "prefecture_kana": "カゴシマケン",
      "prefecture_code": 46,
      "city": "志布志市",
      "city_kana": "シブシシ",
      "town": "有明町野神",
      "town_kana": "アリアケチョウノガミ",
      "street": null,
      "office_name": null,
      "office_name_kana": null
    },
    {
      "postcode": "8998312",
      "prefecture": "鹿児島県",
      "prefecture_kana": "カゴシマケン",
      "prefecture_code": 46,
      "city": "志布志市",
      "city_kana": "シブシシ",
      "town": "有明町野神抜谷",
      "town_kana": "アリアケチョウノガミヌキダニ",
      "street": null,
      "office_name": null,
      "office_name_kana": null
    },
    {
      "postcode": "8998312",
      "prefecture": "鹿児島県",
      "prefecture_kana": "カゴシマケン",
      "prefecture_code": 46,
      "city": "志布志市",
      "city_kana": "シブシシ",
      "town": "有明町野神塗木",
      "town_kana": "アリアケチョウノガミヌルキ",
      "street": null,
      "office_name": null,
      "office_name_kana": null
    },
    {
      "postcode": "8998312",
      "prefecture": "鹿児島県",
      "prefecture_kana": "カゴシマケン",
      "prefecture_code": 46,
      "city": "志布志市",
      "city_kana": "シブシシ",
      "town": "有明町野神本地",
      "town_kana": "アリアケチョウノガミホンジ",
      "street": null,
      "office_name": null,
      "office_name_kana": null
    },
    {
      "postcode": "8998312",
      "prefecture": "鹿児島県",
      "prefecture_kana": "カゴシマケン",
      "prefecture_code": 46,
      "city": "志布志市",
      "city_kana": "シブシシ",
      "town": "有明町野神曲",
      "town_kana": "アリアケチョウノガミマガリ",
      "street": null,
      "office_name": null,
      "office_name_kana": null
    },
    {
      "postcode": "8998312",
      "prefecture": "鹿児島県",
      "prefecture_kana": "カゴシマケン",
      "prefecture_code": 46,
      "city": "志布志市",
      "city_kana": "シブシシ",
      "town": "有明町野神水ノ谷",
      "town_kana": "アリアケチョウノガミミズノタニ",
      "street": null,
      "office_name": null,
      "office_name_kana": null
    }
  ],
  "8313": {
    "postcode": "8998313",
    "prefecture": "鹿児島県",
    "prefecture_kana": "カゴシマケン",
    "prefecture_code": 46,
    "city": "曽於郡大崎町",
    "city_kana": "ソオグンオオサキチョウ",
    "town": "野方",
    "town_kana": "ノガタ",
    "street": null,
    "office_name": null,
    "office_name_kana": null
  },
  "8421": {
    "postcode": "8998421",
    "prefecture": "鹿児島県",
    "prefecture_kana": "カゴシマケン",
    "prefecture_code": 46,
    "city": "曽於市",
    "city_kana": "ソオシ",
    "town": "大隅町大谷",
    "town_kana": "オオスミチョウオオタニ",
    "street": null,
    "office_name": null,
    "office_name_kana": null
  },
  "8422": {
    "postcode": "8998422",
    "prefecture": "鹿児島県",
    "prefecture_kana": "カゴシマケン",
    "prefecture_code": 46,
    "city": "曽於市",
    "city_kana": "ソオシ",
    "town": "大隅町坂元",
    "town_kana": "オオスミチョウサカモト",
    "street": null,
    "office_name": null,
    "office_name_kana": null
  },
  "8423": {
    "postcode": "8998423",
    "prefecture": "鹿児島県",
    "prefecture_kana": "カゴシマケン",
    "prefecture_code": 46,
    "city": "曽於市",
    "city_kana": "ソオシ",
    "town": "大隅町須田木",
    "town_kana": "オオスミチョウスダキ",
    "street": null,
    "office_name": null,
    "office_name_kana": null
  },
  "8424": {
    "postcode": "8998424",
    "prefecture": "鹿児島県",
    "prefecture_kana": "カゴシマケン",
    "prefecture_code": 46,
    "city": "曽於市",
    "city_kana": "ソオシ",
    "town": "大隅町恒吉",
    "town_kana": "オオスミチョウツネヨシ",
    "street": null,
    "office_name": null,
    "office_name_kana": null
  },
  "8511": {
    "postcode": "8998511",
    "prefecture": "鹿児島県",
    "prefecture_kana": "カゴシマケン",
    "prefecture_code": 46,
    "city": "鹿屋市",
    "city_kana": "カノヤシ",
    "town": "輝北町市成",
    "town_kana": "キホクチョウイチナリ",
    "street": null,
    "office_name": null,
    "office_name_kana": null
  },
  "8512": {
    "postcode": "8998512",
    "prefecture": "鹿児島県",
    "prefecture_kana": "カゴシマケン",
    "prefecture_code": 46,
    "city": "鹿屋市",
    "city_kana": "カノヤシ",
    "town": "輝北町諏訪原",
    "town_kana": "キホクチョウスワバラ",
    "street": null,
    "office_name": null,
    "office_name_kana": null
  },
  "8600": {
    "postcode": "8998600",
    "prefecture": "鹿児島県",
    "prefecture_kana": "カゴシマケン",
    "prefecture_code": 46,
    "city": "曽於市",
    "city_kana": "ソオシ",
    "town": "",
    "town_kana": "",
    "street": null,
    "office_name": null,
    "office_name_kana": null
  },
  "8601": {
    "postcode": "8998601",
    "prefecture": "鹿児島県",
    "prefecture_kana": "カゴシマケン",
    "prefecture_code": 46,
    "city": "曽於市",
    "city_kana": "ソオシ",
    "town": "末吉町岩崎",
    "town_kana": "スエヨシチョウイワサキ",
    "street": null,
    "office_name": null,
    "office_name_kana": null
  },
  "8602": {
    "postcode": "8998602",
    "prefecture": "鹿児島県",
    "prefecture_kana": "カゴシマケン",
    "prefecture_code": 46,
    "city": "曽於市",
    "city_kana": "ソオシ",
    "town": "末吉町栄町",
    "town_kana": "スエヨシチョウサカエマチ",
    "street": null,
    "office_name": null,
    "office_name_kana": null
  },
  "8603": {
    "postcode": "8998603",
    "prefecture": "鹿児島県",
    "prefecture_kana": "カゴシマケン",
    "prefecture_code": 46,
    "city": "曽於市",
    "city_kana": "ソオシ",
    "town": "末吉町新町",
    "town_kana": "スエヨシチョウシンマチ",
    "street": null,
    "office_name": null,
    "office_name_kana": null
  },
  "8604": {
    "postcode": "8998604",
    "prefecture": "鹿児島県",
    "prefecture_kana": "カゴシマケン",
    "prefecture_code": 46,
    "city": "曽於市",
    "city_kana": "ソオシ",
    "town": "末吉町諏訪方",
    "town_kana": "スエヨシチョウスワカタ",
    "street": null,
    "office_name": null,
    "office_name_kana": null
  },
  "8605": {
    "postcode": "8998605",
    "prefecture": "鹿児島県",
    "prefecture_kana": "カゴシマケン",
    "prefecture_code": 46,
    "city": "曽於市",
    "city_kana": "ソオシ",
    "town": "末吉町二之方",
    "town_kana": "スエヨシチョウニノカタ",
    "street": null,
    "office_name": null,
    "office_name_kana": null
  },
  "8606": {
    "postcode": "8998606",
    "prefecture": "鹿児島県",
    "prefecture_kana": "カゴシマケン",
    "prefecture_code": 46,
    "city": "曽於市",
    "city_kana": "ソオシ",
    "town": "末吉町深川",
    "town_kana": "スエヨシチョウフカガワ",
    "street": null,
    "office_name": null,
    "office_name_kana": null
  },
  "8607": {
    "postcode": "8998607",
    "prefecture": "鹿児島県",
    "prefecture_kana": "カゴシマケン",
    "prefecture_code": 46,
    "city": "曽於市",
    "city_kana": "ソオシ",
    "town": "末吉町本町",
    "town_kana": "スエヨシチョウホンマチ",
    "street": null,
    "office_name": null,
    "office_name_kana": null
  },
  "8608": {
    "postcode": "8998608",
    "prefecture": "鹿児島県",
    "prefecture_kana": "カゴシマケン",
    "prefecture_code": 46,
    "city": "曽於市",
    "city_kana": "ソオシ",
    "town": "末吉町南之郷",
    "town_kana": "スエヨシチョウミナミノゴウ",
    "street": null,
    "office_name": null,
    "office_name_kana": null
  },
  "8609": {
    "postcode": "8998609",
    "prefecture": "鹿児島県",
    "prefecture_kana": "カゴシマケン",
    "prefecture_code": 46,
    "city": "曽於市",
    "city_kana": "ソオシ",
    "town": "末吉町上町",
    "town_kana": "スエヨシチョウカミマチ",
    "street": null,
    "office_name": null,
    "office_name_kana": null
  },
  "8692": {
    "postcode": "8998692",
    "prefecture": "鹿児島県",
    "prefecture_kana": "カゴシマケン",
    "prefecture_code": 46,
    "city": "曽於市",
    "city_kana": "ソオシ",
    "town": "末吉町二之方",
    "town_kana": "スエヨシチョウニノカタ",
    "street": "１９８０",
    "office_name": "曽於市役所",
    "office_name_kana": "ソオシヤクシヨ"
  }
}