{
  "0000": {
    "postcode": "9000000",
    "prefecture": "沖縄県",
    "prefecture_kana": "オキナワケン",
    "prefecture_code": 47,
    "city": "那覇市",
    "city_kana": "ナハシ",
    "town": "",
    "town_kana": "",
    "street": null,
    "office_name": null,
    "office_name_kana": null
  },
  "0001": {
    "postcode": "9000001",
    "prefecture": "沖縄県",
    "prefecture_kana": "オキナワケン",
    "prefecture_code": 47,
    "city": "那覇市",
    "city_kana": "ナハシ",
    "town": "港町",
    "town_kana": "ミナトマチ",
    "street": null,
    "office_name": null,
    "office_name_kana": null
  },
  "0002": {
    "postcode": "9000002",
    "prefecture": "沖縄県",
    "prefecture_kana": "オキナワケン",
    "prefecture_code": 47,
    "city": "那覇市",
    "city_kana": "ナハシ",
    "town": "曙",
    "town_kana": "アケボノ",
    "street": null,
    "office_name": null,
    "office_name_kana": null
  },
  "0003": {
    "postcode": "9000003",
    "prefecture": "沖縄県",
    "prefecture_kana": "オキナワケン",
    "prefecture_code": 47,
    "city": "那覇市",
    "city_kana": "ナハシ",
    "town": "安謝",
    "town_kana": "アジャ",
    "street": null,
    "office_name": null,
    "office_name_kana": null
  },
  "0004": {
    "postcode": "9000004",
    "prefecture": "沖縄県",
    "prefecture_kana": "オキナワケン",
    "prefecture_code": 47,
    "city": "那覇市",
    "city_kana": "ナハシ",
    "town": "銘苅",
    "town_kana": "メカル",
    "street": null,
    "office_name": null,
    "office_name_kana": null
  },
  "0005": {
    "postcode": "9000005",
    "prefecture": "沖縄県",
    "prefecture_kana": "オキナワケン",
    "prefecture_code": 47,
    "city": "那覇市",
    "city_kana": "ナハシ",
    "town": "天久",
    "town_kana": "アメク",
    "street": null,
    "office_name": null,
    "office_name_kana": null
  },
  "0006": {
    "postcode": "9000006",
    "prefecture": "沖縄県",
    "prefecture_kana": "オキナワケン",
    "prefecture_code": 47,
    "city": "那覇市",
    "city_kana": "ナハシ",
    "town": "おもろまち",
    "town_kana": "オモロマチ",
    "street": null,
    "office_name": null,
    "office_name_kana": null
  },
  "0011": {
    "postcode": "9000011",
    "prefecture": "沖縄県",
    "prefecture_kana": "オキナワケン",
    "prefecture_code": 47,
    "city": "那覇市",
    "city_kana": "ナハシ",
    "town": "上之屋",
    "town_kana": "ウエノヤ",
    "street": null,
    "office_name": null,
    "office_name_kana": null
  },
  "0012": {
    "postcode": "9000012",
    "prefecture": "沖縄県",
    "prefecture_kana": "オキナワケン",
    "prefecture_code": 47,
    "city": "那覇市",
    "city_kana": "ナハシ",
    "town": "泊",
    "town_kana": "トマリ",
    "street": null,
    "office_name": null,
    "office_name_kana": null
  },
  "0013": {
    "postcode": "9000013",
    "prefecture": "沖縄県",
    "prefecture_kana": "オキナワケン",
    "prefecture_code": 47,
    "city": "那覇市",
    "city_kana": "ナハシ",
    "town": "牧志",
    "town_kana": "マキシ",
    "street": null,
    "office_name": null,
    "office_name_kana": null
  },
  "0014": {
    "postcode": "9000014",
    "prefecture": "沖縄県",
    "prefecture_kana": "オキナワケン",
    "prefecture_code": 47,
    "city": "那覇市",
    "city_kana": "ナハシ",
    "town": "松尾",
    "town_kana": "マツオ",
    "street": null,
    "office_name": null,
    "office_name_kana": null
  },
  "0015": {
    "postcode": "9000015",
    "prefecture": "沖縄県",
    "prefecture_kana": "オキナワケン",
    "prefecture_code": 47,
    "city": "那覇市",
    "city_kana": "ナハシ",
    "town": "久茂地",
    "town_kana": "クモジ",
    "street": null,
    "office_name": null,
    "office_name_kana": null
  },
  "0016": {
    "postcode": "9000016",
    "prefecture": "沖縄県",
    "prefecture_kana": "オキナワケン",
    "prefecture_code": 47,
    "city": "那覇市",
    "city_kana": "ナハシ",
    "town": "前島",
    "town_kana": "マエジマ",
    "street": null,
    "office_name": null,
    "office_name_kana": null
  },
  "0021": {
    "postcode": "9000021",
    "prefecture": "沖縄県",
    "prefecture_kana": "オキナワケン",
    "prefecture_code": 47,
    "city": "那覇市",
    "city_kana": "ナハシ",
    "town": "泉崎",
    "town_kana": "イズミザキ",
    "street": null,
    "office_name": null,
    "office_name_kana": null
  },
  "0022": {
    "postcode": "9000022",
    "prefecture": "沖縄県",
    "prefecture_kana": "オキナワケン",
    "prefecture_code": 47,
    "city": "那覇市",
    "city_kana": "ナハシ",
    "town": "樋川",
    "town_kana": "ヒガワ",
    "street": null,
    "office_name": null,
    "office_name_kana": null
  },
  "0023": {
    "postcode": "9000023",
    "prefecture": "沖縄県",
    "prefecture_kana": "オキナワケン",
    "prefecture_code": 47,
    "city": "那覇市",
    "city_kana": "ナハシ",
    "town": "楚辺",
    "town_kana": "ソベ",
    "street": null,
    "office_name": null,
    "office_name_kana": null
  },
  "0024": {
    "postcode": "9000024",
    "prefecture": "沖縄県",
    "prefecture_kana": "オキナワケン",
    "prefecture_code": 47,
    "city": "那覇市",
    "city_kana": "ナハシ",
    "town": "古波蔵",
    "town_kana": "コハグラ",
    "street": null,
    "office_name": null,
    "office_name_kana": null
  },
  "0025": {
    "postcode": "9000025",
    "prefecture": "沖縄県",
    "prefecture_kana": "オキナワケン",
    "prefecture_code": 47,
    "city": "那覇市",
    "city_kana": "ナハシ",
    "town": "壺川",
    "town_kana": "ツボガワ",
    "street": null,
    "office_name": null,
    "office_name_kana": null
  },
  "0026": {
    "postcode": "9000026",
    "prefecture": "沖縄県",
    "prefecture_kana": "オキナワケン",
    "prefecture_code": 47,
    "city": "那覇市",
    "city_kana": "ナハシ",
    "town": "奥武山町",
    "town_kana": "オオノヤマチョウ",
    "street": null,
    "office_name": null,
    "office_name_kana": null
  },
  "0027": {
    "postcode": "9000027",
    "prefecture": "沖縄県",
    "prefecture_kana": "オキナワケン",
    "prefecture_code": 47,
    "city": "那覇市",
    "city_kana": "ナハシ",
    "town": "山下町",
    "town_kana": "ヤマシタチョウ",
    "street": null,
    "office_name": null,
    "office_name_kana": null
  },
  "0028": {
    "postcode": "9000028",
    "prefecture": "沖縄県",
    "prefecture_kana": "オキナワケン",
    "prefecture_code": 47,
    "city": "那覇市",
    "city_kana": "ナハシ",
    "town": "垣花町",
    "town_kana": "カキノハナチョウ",
    "street": null,
    "office_name": null,
    "office_name_kana": null
  },
  "0029": {
    "postcode": "9000029",
    "prefecture": "沖縄県",
    "prefecture_kana": "オキナワケン",
    "prefecture_code": 47,
    "city": "那覇市",
    "city_kana": "ナハシ",
    "town": "旭町",
    "town_kana": "アサヒマチ",
    "street": null,
    "office_name": null,
    "office_name_kana": null
  },
  "0031": {
    "postcode": "9000031",
    "prefecture": "沖縄県",
    "prefecture_kana": "オキナワケン",
    "prefecture_code": 47,
    "city": "那覇市",
    "city_kana": "ナハシ",
    "town": "若狭",
    "town_kana": "ワカサ",
    "street": null,
    "office_name": null,
    "office_name_kana": null
  },
  "0032": {
    "postcode": "9000032",
    "prefecture": "沖縄県",
    "prefecture_kana": "オキナワケン",
    "prefecture_code": 47,
    "city": "那覇市",
    "city_kana": "ナハシ",
    "town": "松山",
    "town_kana": "マツヤマ",
    "street": null,
    "office_name": null,
    "office_name_kana": null
  },
  "0033": {
    "postcode": "9000033",
    "prefecture": "沖縄県",
    "prefecture_kana": "オキナワケン",
    "prefecture_code": 47,
    "city": "那覇市",
    "city_kana": "ナハシ",
    "town": "久米",
    "town_kana": "クメ",
    "street": null,
    "office_name": null,
    "office_name_kana": null
  },
  "0034": {
    "postcode": "9000034",
    "prefecture": "沖縄県",
    "prefecture_kana": "オキナワケン",
    "prefecture_code": 47,
    "city": "那覇市",
    "city_kana": "ナハシ",
    "town": "東町",
    "town_kana": "ヒガシマチ",
    "street": null,
    "office_name": null,
    "office_name_kana": null
  },
  "0035": {
    "postcode": "9000035",
    "prefecture": "沖縄県",
    "prefecture_kana": "オキナワケン",
    "prefecture_code": 47,
    "city": "那覇市",
    "city_kana": "ナハシ",
    "town": "通堂町",
    "town_kana": "トンドウチョウ",
    "street": null,
    "office_name": null,
    "office_name_kana": null
  },
  "0036": {
    "postcode": "9000036",
    "prefecture": "沖縄県",
    "prefecture_kana": "オキナワケン",
    "prefecture_code": 47,
    "city": "那覇市",
    "city_kana": "ナハシ",
    "town": "西",
    "town_kana": "ニシ",
    "street": null,
    "office_name": null,
    "office_name_kana": null
  },
  "0037": {
    "postcode": "9000037",
    "prefecture": "沖縄県",
    "prefecture_kana": "オキナワケン",
    "prefecture_code": 47,
    "city": "那覇市",
    "city_kana": "ナハシ",
    "town": "辻",
    "town_kana": "ツジ",
    "street": null,
    "office_name": null,
    "office_name_kana": null
  },
  "8501": {
    "postcode": "9008501",
    "prefecture": "沖縄県",
    "prefecture_kana": "オキナワケン",
    "prefecture_code": 47,
    "city": "那覇市",
    "city_kana": "ナハシ",
    "town": "泉崎",
    "town_kana": "イズミザキ",
    "street": "１丁目２−３",
    "office_name": "沖縄県議会事務局",
    "office_name_kana": "オキナワケンギカイジムキヨク"
  },
  "8503": {
    "postcode": "9008503",
    "prefecture": "沖縄県",
    "prefecture_kana": "オキナワケン",
    "prefecture_code": 47,
    "city": "那覇市",
    "city_kana": "ナハシ",
    "town": "久茂地",
    "town_kana": "クモジ",
    "street": "１丁目１−１",
    "office_name": "株式会社　リウボウインダストリー",
    "office_name_kana": "カブシキガイシヤ リウボウインダストリ-"
  },
  "8504": {
    "postcode": "9008504",
    "prefecture": "沖縄県",
    "prefecture_kana": "オキナワケン",
    "prefecture_code": 47,
    "city": "那覇市",
    "city_kana": "ナハシ",
    "town": "久茂地",
    "town_kana": "クモジ",
    "street": "３丁目２１番１号",
    "office_name": "ザ・テラスホテルズ　株式会社　コクワ流通サービスカンパニー",
    "office_name_kana": "ザ・テラスホテルズ カブシキカイシヤ コクワリユウツウサ-ビスカンパニ-"
  },
  "8505": {
    "postcode": "9008505",
    "prefecture": "沖縄県",
    "prefecture_kana": "オキナワケン",
    "prefecture_code": 47,
    "city": "那覇市",
    "city_kana": "ナハシ",
    "town": "久茂地",
    "town_kana": "クモジ",
    "street": "３丁目２１−１",
    "office_name": "株式会社　國場組",
    "office_name_kana": "カブシキガイシヤ コクバグミ"
  },
  "8510": {
    "postcode": "9008510",
    "prefecture": "沖縄県",
    "prefecture_kana": "オキナワケン",
    "prefecture_code": 47,
    "city": "那覇市",
    "city_kana": "ナハシ",
    "town": "久茂地",
    "town_kana": "クモジ",
    "street": "２丁目３−１",
    "office_name": "琉球朝日放送　株式会社",
    "office_name_kana": "リユウキユウアサヒホウソウ カブシキガイシヤ"
  },
  "8512": {
    "postcode": "9008512",
    "prefecture": "沖縄県",
    "prefecture_kana": "オキナワケン",
    "prefecture_code": 47,
    "city": "那覇市",
    "city_kana": "ナハシ",
    "town": "旭町",
    "town_kana": "アサヒマチ",
    "street": "１１４−４おきでん那覇ビル",
    "office_name": "全国健康保険協会　沖縄支部",
    "office_name_kana": "ゼンコクケンコウホケンキヨウカイ オキナワシブ"
  },
  "8513": {
    "postcode": "9008513",
    "prefecture": "沖縄県",
    "prefecture_kana": "オキナワケン",
    "prefecture_code": 47,
    "city": "那覇市",
    "city_kana": "ナハシ",
    "town": "久茂地",
    "town_kana": "クモジ",
    "street": "２−９−７住友生命那覇久茂地ビル４階",
    "office_name": "住友生命保険　相互会社　沖縄支社",
    "office_name_kana": "スミトモセイメイホケン ソウゴガイシヤ オキナワシシヤ"
  },
  "8514": {
    "postcode": "9008514",
    "prefecture": "沖縄県",
    "prefecture_kana": "オキナワケン",
    "prefecture_code": 47,
    "city": "那覇市",
    "city_kana": "ナハシ",
    "town": "赤嶺",
    "town_kana": "アカミネ",
    "street": "２丁目１３−１",
    "office_name": "株式会社　トヨタレンタリース沖縄",
    "office_name_kana": "カブシキガイシヤ トヨタレンタリ-スオキナワ"
  },
  "8516": {
    "postcode": "9008516",
    "prefecture": "沖縄県",
    "prefecture_kana": "オキナワケン",
    "prefecture_code": 47,
    "city": "那覇市",
    "city_kana": "ナハシ",
    "town": "西",
    "town_kana": "ニシ",
    "street": "１丁目２−１６",
    "office_name": "株式会社　琉球光和",
    "office_name_kana": "カブシキガイシヤ リユウキユウコウワ"
  },
  "8517": {
    "postcode": "9008517",
    "prefecture": "沖縄県",
    "prefecture_kana": "オキナワケン",
    "prefecture_code": 47,
    "city": "那覇市",
    "city_kana": "ナハシ",
    "town": "おもろまち",
    "town_kana": "オモロマチ",
    "street": "２丁目１−１那覇第２地方合同庁舎３号館８階",
    "office_name": "沖縄気象台",
    "office_name_kana": "オキナワキシヨウダイ"
  },
  "8520": {
    "postcode": "9008520",
    "prefecture": "沖縄県",
    "prefecture_kana": "オキナワケン",
    "prefecture_code": 47,
    "city": "那覇市",
    "city_kana": "ナハシ",
    "town": "おもろまち",
    "town_kana": "オモロマチ",
    "street": "１丁目２−２６",
    "office_name": "沖縄振興開発金融公庫",
    "office_name_kana": "オキナワシンコウカイハツキンユウコウコ"
  },
  "8522": {
    "postcode": "9008522",
    "prefecture": "沖縄県",
    "prefecture_kana": "オキナワケン",
    "prefecture_code": 47,
    "city": "那覇市",
    "city_kana": "ナハシ",
    "town": "旭町",
    "town_kana": "アサヒマチ",
    "street": "１１４−４",
    "office_name": "沖縄電力　株式会社　那覇支店",
    "office_name_kana": "オキナワデンリヨク カブシキガイシヤ ナハシテン"
  },
  "8524": {
    "postcode": "9008524",
    "prefecture": "沖縄県",
    "prefecture_kana": "オキナワケン",
    "prefecture_code": 47,
    "city": "那覇市",
    "city_kana": "ナハシ",
    "town": "久茂地",
    "town_kana": "クモジ",
    "street": "１丁目７−１",
    "office_name": "富士ゼロックス　株式会社　沖縄営業所",
    "office_name_kana": "フジゼロツクス カブシキガイシヤ オキナワエイギヨウシヨ"
  },
  "8525": {
    "postcode": "9008525",
    "prefecture": "沖縄県",
    "prefecture_kana": "オキナワケン",
    "prefecture_code": 47,
    "city": "那覇市",
    "city_kana": "ナハシ",
    "town": "泉崎",
    "town_kana": "イズミザキ",
    "street": "１−１０−３",
    "office_name": "株式会社　琉球新報社",
    "office_name_kana": "カブシキガイシヤ リユウキユウシンポウシヤ"
  },
  "8527": {
    "postcode": "9008527",
    "prefecture": "沖縄県",
    "prefecture_kana": "オキナワケン",
    "prefecture_code": 47,
    "city": "那覇市",
    "city_kana": "ナハシ",
    "town": "旭町",
    "town_kana": "アサヒマチ",
    "street": "１１２−１",
    "office_name": "金秀建設　株式会社",
    "office_name_kana": "カネヒデケンセツ カブシキガイシヤ"
  },
  "8530": {
    "postcode": "9008530",
    "prefecture": "沖縄県",
    "prefecture_kana": "オキナワケン",
    "prefecture_code": 47,
    "city": "那覇市",
    "city_kana": "ナハシ",
    "town": "おもろまち",
    "town_kana": "オモロマチ",
    "street": "２丁目１番１号那覇第２地方合同庁舎２号館",
    "office_name": "内閣府沖縄総合事務局",
    "office_name_kana": "ナイカクフオキナワソウゴウジムキヨク"
  },
  "8531": {
    "postcode": "9008531",
    "prefecture": "沖縄県",
    "prefecture_kana": "オキナワケン",
    "prefecture_code": 47,
    "city": "那覇市",
    "city_kana": "ナハシ",
    "town": "旭町",
    "town_kana": "アサヒマチ",
    "street": "１１６−３７",
    "office_name": "沖縄県町村会",
    "office_name_kana": "オキナワケンチヨウソンカイ"
  },
  "8533": {
    "postcode": "9008533",
    "prefecture": "沖縄県",
    "prefecture_kana": "オキナワケン",
    "prefecture_code": 47,
    "city": "糸満市",
    "city_kana": "イトマンシ",
    "town": "西崎町",
    "town_kana": "ニシザキチョウ",
    "street": "４−７",
    "office_name": "株式会社　ざまみ",
    "office_name_kana": "カブシキガイシヤ ザマミ"
  },
  "8534": {
    "postcode": "9008534",
    "prefecture": "沖縄県",
    "prefecture_kana": "オキナワケン",
    "prefecture_code": 47,
    "city": "那覇市",
    "city_kana": "ナハシ",
    "town": "泉崎",
    "town_kana": "イズミザキ",
    "street": "１丁目１０−３",
    "office_name": "株式会社　おきぎんジェーシービー",
    "office_name_kana": "カブシキガイシヤ オキギンジエ-シ-ビ-"
  },
  "8535": {
    "postcode": "9008535",
    "prefecture": "沖縄県",
    "prefecture_kana": "オキナワケン",
    "prefecture_code": 47,
    "city": "那覇市",
    "city_kana": "ナハシ",
    "town": "おもろまち",
    "town_kana": "オモロマチ",
    "street": "２丁目６−２１",
    "office_name": "ＮＨＫ沖縄放送局",
    "office_name_kana": "エヌエイチケイオキナワホウソウキヨク"
  },
  "8540": {
    "postcode": "9008540",
    "prefecture": "沖縄県",
    "prefecture_kana": "オキナワケン",
    "prefecture_code": 47,
    "city": "那覇市",
    "city_kana": "ナハシ",
    "town": "松山",
    "town_kana": "マツヤマ",
    "street": "１丁目２番１号",
    "office_name": "沖縄セルラー電話　株式会社",
    "office_name_kana": "オキナワセルラ-デンワ カブシキカイシヤ"
  },
  "8543": {
    "postcode": "9008543",
    "prefecture": "沖縄県",
    "prefecture_kana": "オキナワケン",
    "prefecture_code": 47,
    "city": "那覇市",
    "city_kana": "ナハシ",
    "town": "旭町",
    "town_kana": "アサヒマチ",
    "street": "９",
    "office_name": "那覇税務署",
    "office_name_kana": "ナハゼイムシヨ"
  },
  "8544": {
    "postcode": "9008544",
    "prefecture": "沖縄県",
    "prefecture_kana": "オキナワケン",
    "prefecture_code": 47,
    "city": "那覇市",
    "city_kana": "ナハシ",
    "town": "樋川",
    "town_kana": "ヒガワ",
    "street": "１丁目１５−１５",
    "office_name": "那覇地方法務局",
    "office_name_kana": "ナハチホウホウムキヨク"
  },
  "8545": {
    "postcode": "9008545",
    "prefecture": "沖縄県",
    "prefecture_kana": "オキナワケン",
    "prefecture_code": 47,
    "city": "那覇市",
    "city_kana": "ナハシ",
    "town": "楚辺",
    "town_kana": "ソベ",
    "street": "１丁目１４−１６楚辺ビル",
    "office_name": "ＮＴＴ　沖縄支店",
    "office_name_kana": "エヌテイテイ オキナワシテン"
  },
  "8547": {
    "postcode": "9008547",
    "prefecture": "沖縄県",
    "prefecture_kana": "オキナワケン",
    "prefecture_code": 47,
    "city": "那覇市",
    "city_kana": "ナハシ",
    "town": "港町",
    "town_kana": "ミナトマチ",
    "street": "２丁目１１−１",
    "office_name": "第１１管区　海上保安本部",
    "office_name_kana": "ダイジユウイチカンク カイジヨウホアンホンブ"
  },
  "8548": {
    "postcode": "9008548",
    "prefecture": "沖縄県",
    "prefecture_kana": "オキナワケン",
    "prefecture_code": 47,
    "city": "那覇市",
    "city_kana": "ナハシ",
    "town": "港町",
    "town_kana": "ミナトマチ",
    "street": "２−１１−１那覇港湾合同庁舎２階",
    "office_name": "那覇海上保安部",
    "office_name_kana": "ナハカイジヨウホアンブ"
  },
  "8550": {
    "postcode": "9008550",
    "prefecture": "沖縄県",
    "prefecture_kana": "オキナワケン",
    "prefecture_code": 47,
    "city": "那覇市",
    "city_kana": "ナハシ",
    "town": "久茂地",
    "town_kana": "クモジ",
    "street": "１丁目７−１",
    "office_name": "株式会社　琉球リース",
    "office_name_kana": "カブシキガイシヤ リユウキユウリ-ス"
  },
  "8551": {
    "postcode": "9008551",
    "prefecture": "沖縄県",
    "prefecture_kana": "オキナワケン",
    "prefecture_code": 47,
    "city": "那覇市",
    "city_kana": "ナハシ",
    "town": "東町",
    "town_kana": "ヒガシマチ",
    "street": "４−１",
    "office_name": "ＫＤＤＩ沖縄　株式会社",
    "office_name_kana": "ケイデイデイアイオキナワ カブシキガイシヤ"
  },
  "8552": {
    "postcode": "9008552",
    "prefecture": "沖縄県",
    "prefecture_kana": "オキナワケン",
    "prefecture_code": 47,
    "city": "那覇市",
    "city_kana": "ナハシ",
    "town": "西",
    "town_kana": "ニシ",
    "street": "３丁目７−６",
    "office_name": "財団法人　沖縄県交通安全協会連合会",
    "office_name_kana": "ザイダンホウジン オキナワケンコウツウアンゼンキヨウカイレンゴウカイ"
  },
  "8553": {
    "postcode": "9008553",
    "prefecture": "沖縄県",
    "prefecture_kana": "オキナワケン",
    "prefecture_code": 47,
    "city": "那覇市",
    "city_kana": "ナハシ",
    "town": "泉崎",
    "town_kana": "イズミザキ",
    "street": "１−１−１−１１階",
    "office_name": "那覇市教育委員会",
    "office_name_kana": "ナハシキヨウイクイインカイ"
  },
  "8554": {
    "postcode": "9008554",
    "prefecture": "沖縄県",
    "prefecture_kana": "オキナワケン",
    "prefecture_code": 47,
    "city": "那覇市",
    "city_kana": "ナハシ",
    "town": "旭町",
    "town_kana": "アサヒマチ",
    "street": "９",
    "office_name": "沖縄国税事務所",
    "office_name_kana": "オキナワコクゼイジムシヨ"
  },
  "8555": {
    "postcode": "9008555",
    "prefecture": "沖縄県",
    "prefecture_kana": "オキナワケン",
    "prefecture_code": 47,
    "city": "那覇市",
    "city_kana": "ナハシ",
    "town": "松尾",
    "town_kana": "マツオ",
    "street": "１丁目２１−４４",
    "office_name": "沖縄県立那覇高等学校",
    "office_name_kana": "オキナワケンリツナハコウトウガツコウ"
  },
  "8556": {
    "postcode": "9008556",
    "prefecture": "沖縄県",
    "prefecture_kana": "オキナワケン",
    "prefecture_code": 47,
    "city": "那覇市",
    "city_kana": "ナハシ",
    "town": "上之屋",
    "town_kana": "ウエノヤ",
    "street": "１丁目３−１",
    "office_name": "医療法人　祥杏会　おもろまちメディカルセンター",
    "office_name_kana": "イリヨウホウジン シヨウアンカイ オモロマチメデイカルセンタ-"
  },
  "8557": {
    "postcode": "9008557",
    "prefecture": "沖縄県",
    "prefecture_kana": "オキナワケン",
    "prefecture_code": 47,
    "city": "那覇市",
    "city_kana": "ナハシ",
    "town": "松山",
    "town_kana": "マツヤマ",
    "street": "１丁目１６−１",
    "office_name": "沖縄県立　那覇商業高等学校",
    "office_name_kana": "オキナワケンリツ ナハシヨウギヨウコウトウガツコウ"
  },
  "8558": {
    "postcode": "9008558",
    "prefecture": "沖縄県",
    "prefecture_kana": "オキナワケン",
    "prefecture_code": 47,
    "city": "那覇市",
    "city_kana": "ナハシ",
    "town": "古波蔵",
    "town_kana": "コハグラ",
    "street": "４丁目１０番５５号",
    "office_name": "沖縄協同病院",
    "office_name_kana": "オキナワキヨウドウビヨウイン"
  },
  "8559": {
    "postcode": "9008559",
    "prefecture": "沖縄県",
    "prefecture_kana": "オキナワケン",
    "prefecture_code": 47,
    "city": "那覇市",
    "city_kana": "ナハシ",
    "town": "西",
    "town_kana": "ニシ",
    "street": "３丁目１４−１８",
    "office_name": "沖縄県国民健康保険団体連合会",
    "office_name_kana": "オキナワケンコクミンケンコウホケンダンタイレンゴウカイ"
  },
  "8560": {
    "postcode": "9008560",
    "prefecture": "沖縄県",
    "prefecture_kana": "オキナワケン",
    "prefecture_code": 47,
    "city": "那覇市",
    "city_kana": "ナハシ",
    "town": "おもろまち",
    "town_kana": "オモロマチ",
    "street": "４丁目７番７号ＵＲビル２Ｆ",
    "office_name": "上原労務管理事務所",
    "office_name_kana": "ウエハラロウムカンリジムシヨ"
  },
  "8567": {
    "postcode": "9008567",
    "prefecture": "沖縄県",
    "prefecture_kana": "オキナワケン",
    "prefecture_code": 47,
    "city": "那覇市",
    "city_kana": "ナハシ",
    "town": "樋川",
    "town_kana": "ヒガワ",
    "street": "１丁目１４−１",
    "office_name": "那覇地方裁判所　総務課",
    "office_name_kana": "ナハチホウサイバンシヨ ソウムカ"
  },
  "8570": {
    "postcode": "9008570",
    "prefecture": "沖縄県",
    "prefecture_kana": "オキナワケン",
    "prefecture_code": 47,
    "city": "那覇市",
    "city_kana": "ナハシ",
    "town": "泉崎",
    "town_kana": "イズミザキ",
    "street": "１丁目２−２",
    "office_name": "沖縄県庁",
    "office_name_kana": "オキナワケンチヨウ"
  },
  "8571": {
    "postcode": "9008571",
    "prefecture": "沖縄県",
    "prefecture_kana": "オキナワケン",
    "prefecture_code": 47,
    "city": "那覇市",
    "city_kana": "ナハシ",
    "town": "泉崎",
    "town_kana": "イズミザキ",
    "street": "１丁目２−２",
    "office_name": "沖縄県　教育委員会",
    "office_name_kana": "オキナワケン キヨウイクイインカイ"
  },
  "8575": {
    "postcode": "9008575",
    "prefecture": "沖縄県",
    "prefecture_kana": "オキナワケン",
    "prefecture_code": 47,
    "city": "那覇市",
    "city_kana": "ナハシ",
    "town": "旭町",
    "town_kana": "アサヒマチ",
    "street": "１１６番地３７カフーナ旭橋Ｃ街区オフィスコート４Ｆ（株）エプコ内",
    "office_name": "パナホーム　株式会社　カスタマー受付センター",
    "office_name_kana": "パナホ-ム カブシキガイシヤ カスタマ-ウケツケセンタ-"
  },
  "8577": {
    "postcode": "9008577",
    "prefecture": "沖縄県",
    "prefecture_kana": "オキナワケン",
    "prefecture_code": 47,
    "city": "那覇市",
    "city_kana": "ナハシ",
    "town": "山下町",
    "town_kana": "ヤマシタチョウ",
    "street": "１８−２６",
    "office_name": "沖縄県　住宅供給公社",
    "office_name_kana": "オキナワケン ジユウタクキヨウキユウコウシヤ"
  },
  "8578": {
    "postcode": "9008578",
    "prefecture": "沖縄県",
    "prefecture_kana": "オキナワケン",
    "prefecture_code": 47,
    "city": "那覇市",
    "city_kana": "ナハシ",
    "town": "樋川",
    "town_kana": "ヒガワ",
    "street": "１丁目１５−１５",
    "office_name": "那覇地方検察庁",
    "office_name_kana": "ナハチホウケンサツチヨウ"
  },
  "8581": {
    "postcode": "9008581",
    "prefecture": "沖縄県",
    "prefecture_kana": "オキナワケン",
    "prefecture_code": 47,
    "city": "那覇市",
    "city_kana": "ナハシ",
    "town": "松山",
    "town_kana": "マツヤマ",
    "street": "１丁目３２−７",
    "office_name": "財団法人　ポスタルサービスセンター　沖縄地方本部",
    "office_name_kana": "ザイダンホウジン ポスタルサ-ビスセンタ- オキナワチホウホンブ"
  },
  "8585": {
    "postcode": "9008585",
    "prefecture": "沖縄県",
    "prefecture_kana": "オキナワケン",
    "prefecture_code": 47,
    "city": "那覇市",
    "city_kana": "ナハシ",
    "town": "泉崎",
    "town_kana": "イズミザキ",
    "street": "１丁目１−１",
    "office_name": "那覇市役所",
    "office_name_kana": "ナハシヤクシヨ"
  },
  "8586": {
    "postcode": "9008586",
    "prefecture": "沖縄県",
    "prefecture_kana": "オキナワケン",
    "prefecture_code": 47,
    "city": "那覇市",
    "city_kana": "ナハシ",
    "town": "久茂地",
    "town_kana": "クモジ",
    "street": "１丁目１２−１",
    "office_name": "大同火災海上保険　株式会社",
    "office_name_kana": "ダイドウカサイカイジヨウホケン カブシキガイシヤ"
  },
  "8588": {
    "postcode": "9008588",
    "prefecture": "沖縄県",
    "prefecture_kana": "オキナワケン",
    "prefecture_code": 47,
    "city": "那覇市",
    "city_kana": "ナハシ",
    "town": "久茂地",
    "town_kana": "クモジ",
    "street": "１丁目２−２０",
    "office_name": "沖縄テレビ放送　株式会社",
    "office_name_kana": "オキナワテレビホウソウ カブシキガイシヤ"
  },
  "8601": {
    "postcode": "9008601",
    "prefecture": "沖縄県",
    "prefecture_kana": "オキナワケン",
    "prefecture_code": 47,
    "city": "那覇市",
    "city_kana": "ナハシ",
    "town": "おもろまち",
    "town_kana": "オモロマチ",
    "street": "１丁目３−２５",
    "office_name": "那覇公共職業安定所",
    "office_name_kana": "ナハコウキヨウシヨクギヨウアンテイシヨ"
  },
  "8602": {
    "postcode": "9008602",
    "prefecture": "沖縄県",
    "prefecture_kana": "オキナワケン",
    "prefecture_code": 47,
    "city": "那覇市",
    "city_kana": "ナハシ",
    "town": "松尾",
    "town_kana": "マツオ",
    "street": "１丁目２−３",
    "office_name": "沖縄ツーリスト　株式会社",
    "office_name_kana": "オキナワツ-リスト カブシキガイシヤ"
  },
  "8603": {
    "postcode": "9008603",
    "prefecture": "沖縄県",
    "prefecture_kana": "オキナワケン",
    "prefecture_code": 47,
    "city": "那覇市",
    "city_kana": "ナハシ",
    "town": "樋川",
    "town_kana": "ヒガワ",
    "street": "１丁目１４−１０",
    "office_name": "那覇家庭裁判所　総務課",
    "office_name_kana": "ナハカテイサイバンシヨ ソウムカ"
  },
  "8604": {
    "postcode": "9008604",
    "prefecture": "沖縄県",
    "prefecture_kana": "オキナワケン",
    "prefecture_code": 47,
    "city": "那覇市",
    "city_kana": "ナハシ",
    "town": "西",
    "town_kana": "ニシ",
    "street": "１丁目４−８",
    "office_name": "株式会社　ラジオ沖縄",
    "office_name_kana": "カブシキガイシヤ ラジオオキナワ"
  },
  "8605": {
    "postcode": "9008605",
    "prefecture": "沖縄県",
    "prefecture_kana": "オキナワケン",
    "prefecture_code": 47,
    "city": "那覇市",
    "city_kana": "ナハシ",
    "town": "西",
    "town_kana": "ニシ",
    "street": "３丁目１３番２号",
    "office_name": "沖縄ガス　株式会社",
    "office_name_kana": "オキナワガス カブシキガイシヤ"
  },
  "8608": {
    "postcode": "9008608",
    "prefecture": "沖縄県",
    "prefecture_kana": "オキナワケン",
    "prefecture_code": 47,
    "city": "那覇市",
    "city_kana": "ナハシ",
    "town": "天久",
    "town_kana": "アメク",
    "street": "９０５番地琉球新報天久ビル９階",
    "office_name": "全保連　株式会社",
    "office_name_kana": "ゼンホレン カブシキガイシヤ"
  },
  "8609": {
    "postcode": "9008609",
    "prefecture": "沖縄県",
    "prefecture_kana": "オキナワケン",
    "prefecture_code": 47,
    "city": "那覇市",
    "city_kana": "ナハシ",
    "town": "松山",
    "town_kana": "マツヤマ",
    "street": "２丁目３−１０",
    "office_name": "㈱　ＯＣＳ",
    "office_name_kana": "カブシキガイシヤ オ-クス"
  },
  "8610": {
    "postcode": "9008610",
    "prefecture": "沖縄県",
    "prefecture_kana": "オキナワケン",
    "prefecture_code": 47,
    "city": "那覇市",
    "city_kana": "ナハシ",
    "town": "泊",
    "town_kana": "トマリ",
    "street": "３丁目１９−２",
    "office_name": "沖縄県立泊高等学校",
    "office_name_kana": "オキナワケンリツトマリコウトウガツコウ"
  },
  "8650": {
    "postcode": "9008650",
    "prefecture": "沖縄県",
    "prefecture_kana": "オキナワケン",
    "prefecture_code": 47,
    "city": "那覇市",
    "city_kana": "ナハシ",
    "town": "楚辺",
    "town_kana": "ソベ",
    "street": "２丁目３３−１８（那覇中央郵便局私書箱第４２９号）",
    "office_name": "沖縄県信用農業　協同組合連合会",
    "office_name_kana": "オキナワケンシンヨウノウギヨウ キヨウドウクミアイレンゴウカイ"
  },
  "8651": {
    "postcode": "9008651",
    "prefecture": "沖縄県",
    "prefecture_kana": "オキナワケン",
    "prefecture_code": 47,
    "city": "那覇市",
    "city_kana": "ナハシ",
    "town": "久茂地",
    "town_kana": "クモジ",
    "street": "３丁目１０−１（那覇中央郵便局私書箱第３２０号）",
    "office_name": "株式会社　沖縄銀行",
    "office_name_kana": "カブシキガイシヤ オキナワギンコウ"
  },
  "8654": {
    "postcode": "9008654",
    "prefecture": "沖縄県",
    "prefecture_kana": "オキナワケン",
    "prefecture_code": 47,
    "city": "那覇市",
    "city_kana": "ナハシ",
    "town": "牧志",
    "town_kana": "マキシ",
    "street": "２丁目２−３０（那覇中央郵便局私書箱第３９０号）",
    "office_name": "株式会社　沖縄三越",
    "office_name_kana": "カブシキガイシヤ オキナワミツコシ"
  },
  "8666": {
    "postcode": "9008666",
    "prefecture": "沖縄県",
    "prefecture_kana": "オキナワケン",
    "prefecture_code": 47,
    "city": "那覇市",
    "city_kana": "ナハシ",
    "town": "おもろまち",
    "town_kana": "オモロマチ",
    "street": "１−２−１（那覇中央郵便局私書箱第４３６号）",
    "office_name": "日本銀行　那覇支店",
    "office_name_kana": "ニホンギンコウ ナハシテン"
  },
  "8678": {
    "postcode": "9008678",
    "prefecture": "沖縄県",
    "prefecture_kana": "オキナワケン",
    "prefecture_code": 47,
    "city": "那覇市",
    "city_kana": "ナハシ",
    "town": "久茂地",
    "town_kana": "クモジ",
    "street": "２−２−２（那覇中央郵便局私書箱第２９３号）",
    "office_name": "株式会社　沖縄タイムス",
    "office_name_kana": "カブシキガイシヤ オキナワタイムス"
  },
  "8686": {
    "postcode": "9008686",
    "prefecture": "沖縄県",
    "prefecture_kana": "オキナワケン",
    "prefecture_code": 47,
    "city": "那覇市",
    "city_kana": "ナハシ",
    "town": "前島",
    "town_kana": "マエジマ",
    "street": "２−２１−７（那覇中央郵便局私書箱第４３２号）",
    "office_name": "沖縄海邦銀行",
    "office_name_kana": "オキナワカイホウギンコウ"
  },
  "8688": {
    "postcode": "9008688",
    "prefecture": "沖縄県",
    "prefecture_kana": "オキナワケン",
    "prefecture_code": 47,
    "city": "那覇市",
    "city_kana": "ナハシ",
    "town": "久茂地",
    "town_kana": "クモジ",
    "street": "１丁目１１−１（那覇中央郵便局私書箱第３１０号）",
    "office_name": "株式会社　琉球銀行",
    "office_name_kana": "カブシキガイシヤ リユウキユウギンコウ"
  },
  "8701": {
    "postcode": "9008701",
    "prefecture": "沖縄県",
    "prefecture_kana": "オキナワケン",
    "prefecture_code": 47,
    "city": "那覇市",
    "city_kana": "ナハシ",
    "town": "久茂地",
    "town_kana": "クモジ",
    "street": "２丁目２２−１０（那覇中央郵便局私書箱第４２７号）",
    "office_name": "商工組合中央金庫　那覇支店",
    "office_name_kana": "シヨウコウクミアイチユウオウキンコ ナハシテン"
  },
  "8711": {
    "postcode": "9008711",
    "prefecture": "沖縄県",
    "prefecture_kana": "オキナワケン",
    "prefecture_code": 47,
    "city": "那覇市",
    "city_kana": "ナハシ",
    "town": "久茂地",
    "town_kana": "クモジ",
    "street": "２丁目３−１（那覇中央郵便局私書箱第１８６号）",
    "office_name": "琉球放送　株式会社",
    "office_name_kana": "リユウキユウホウソウ カブシキガイシヤ"
  },
  "8735": {
    "postcode": "9008735",
    "prefecture": "沖縄県",
    "prefecture_kana": "オキナワケン",
    "prefecture_code": 47,
    "city": "那覇市",
    "city_kana": "ナハシ",
    "town": "辻",
    "town_kana": "ツジ",
    "street": "２丁目４−１７クリエイツビル３階",
    "office_name": "ヘリオス酒造　株式会社",
    "office_name_kana": "ヘリオスシユゾウ カブシキガイシヤ"
  },
  "8794": {
    "postcode": "9008794",
    "prefecture": "沖縄県",
    "prefecture_kana": "オキナワケン",
    "prefecture_code": 47,
    "city": "那覇市",
    "city_kana": "ナハシ",
    "town": "東町",
    "town_kana": "ヒガシマチ",
    "street": "２６−２９",
    "office_name": "ゆうちょ銀行　那覇支店　貯金事務管理部",
    "office_name_kana": "ユウチヨギンコウ ナハシテン チヨキンジムカンリブ"
  },
  "8795": {
    "postcode": "9008795",
    "prefecture": "沖縄県",
    "prefecture_kana": "オキナワケン",
    "prefecture_code": 47,
    "city": "那覇市",
    "city_kana": "ナハシ",
    "town": "おもろまち",
    "town_kana": "オモロマチ",
    "street": "２−１−１那覇第２地方合同庁舎３号館４階",
    "office_name": "総務省　沖縄総合通信事務所",
    "office_name_kana": "ソウムシヨウ オキナワソウゴウツウシンジムシヨ"
  },
  "8796": {
    "postcode": "9008796",
    "prefecture": "沖縄県",
    "prefecture_kana": "オキナワケン",
    "prefecture_code": 47,
    "city": "那覇市",
    "city_kana": "ナハシ",
    "town": "東町",
    "town_kana": "ヒガシマチ",
    "street": "２６−２９（４Ｆ）",
    "office_name": "沖縄監査室",
    "office_name_kana": "オキナワカンサシツ"
  },
  "8797": [
    {
      "postcode": "9008797",
      "prefecture": "沖縄県",
      "prefecture_kana": "オキナワケン",
      "prefecture_code": 47,
      "city": "那覇市",
      "city_kana": "ナハシ",
      "town": "東町",
      "town_kana": "ヒガシマチ",
      "street": "２６−２９",
      "office_name": "株式会社　ゆうちょ銀行　那覇支店",
      "office_name_kana": "カブシキカイシヤ ユウチヨギンコウ ナハシテン"
    },
    {
      "postcode": "9008797",
      "prefecture": "沖縄県",
      "prefecture_kana": "オキナワケン",
      "prefecture_code": 47,
      "city": "那覇市",
      "city_kana": "ナハシ",
      "town": "東町",
      "town_kana": "ヒガシマチ",
      "street": "２６−２９",
      "office_name": "株式会社　かんぽ生命　那覇支店",
      "office_name_kana": "カブシキガイシヤ カンポセイメイ ナハシテン"
    },
    {
      "postcode": "9008797",
      "prefecture": "沖縄県",
      "prefecture_kana": "オキナワケン",
      "prefecture_code": 47,
      "city": "那覇市",
      "city_kana": "ナハシ",
      "town": "東町",
      "town_kana": "ヒガシマチ",
      "street": "２６−２９",
      "office_name": "日本郵便　株式会社　沖縄支社",
      "office_name_kana": "ニホンユウビン カブシキガイシヤ オキナワシシヤ"
    }
  ]
}