{
  "0000": {
    "postcode": "9040000",
    "prefecture": "沖縄県",
    "prefecture_kana": "オキナワケン",
    "prefecture_code": 47,
    "city": "沖縄市",
    "city_kana": "オキナワシ",
    "town": "",
    "town_kana": "",
    "street": null,
    "office_name": null,
    "office_name_kana": null
  },
  "0001": {
    "postcode": "9040001",
    "prefecture": "沖縄県",
    "prefecture_kana": "オキナワケン",
    "prefecture_code": 47,
    "city": "沖縄市",
    "city_kana": "オキナワシ",
    "town": "越来",
    "town_kana": "ゴエク",
    "street": null,
    "office_name": null,
    "office_name_kana": null
  },
  "0002": {
    "postcode": "9040002",
    "prefecture": "沖縄県",
    "prefecture_kana": "オキナワケン",
    "prefecture_code": 47,
    "city": "沖縄市",
    "city_kana": "オキナワシ",
    "town": "城前町",
    "town_kana": "シロマエチョウ",
    "street": null,
    "office_name": null,
    "office_name_kana": null
  },
  "0003": {
    "postcode": "9040003",
    "prefecture": "沖縄県",
    "prefecture_kana": "オキナワケン",
    "prefecture_code": 47,
    "city": "沖縄市",
    "city_kana": "オキナワシ",
    "town": "住吉",
    "town_kana": "スミヨシ",
    "street": null,
    "office_name": null,
    "office_name_kana": null
  },
  "0004": {
    "postcode": "9040004",
    "prefecture": "沖縄県",
    "prefecture_kana": "オキナワケン",
    "prefecture_code": 47,
    "city": "沖縄市",
    "city_kana": "オキナワシ",
    "town": "中央",
    "town_kana": "チュウオウ",
    "street": null,
    "office_name": null,
    "office_name_kana": null
  },
  "0005": {
    "postcode": "9040005",
    "prefecture": "沖縄県",
    "prefecture_kana": "オキナワケン",
    "prefecture_code": 47,
    "city": "沖縄市",
    "city_kana": "オキナワシ",
    "town": "嘉間良",
    "town_kana": "カマラ",
    "street": null,
    "office_name": null,
    "office_name_kana": null
  },
  "0006": {
    "postcode": "9040006",
    "prefecture": "沖縄県",
    "prefecture_kana": "オキナワケン",
    "prefecture_code": 47,
    "city": "沖縄市",
    "city_kana": "オキナワシ",
    "town": "八重島",
    "town_kana": "ヤエシマ",
    "street": null,
    "office_name": null,
    "office_name_kana": null
  },
  "0011": {
    "postcode": "9040011",
    "prefecture": "沖縄県",
    "prefecture_kana": "オキナワケン",
    "prefecture_code": 47,
    "city": "沖縄市",
    "city_kana": "オキナワシ",
    "town": "照屋",
    "town_kana": "テルヤ",
    "street": null,
    "office_name": null,
    "office_name_kana": null
  },
  "0012": {
    "postcode": "9040012",
    "prefecture": "沖縄県",
    "prefecture_kana": "オキナワケン",
    "prefecture_code": 47,
    "city": "沖縄市",
    "city_kana": "オキナワシ",
    "town": "安慶田",
    "town_kana": "アゲダ",
    "street": null,
    "office_name": null,
    "office_name_kana": null
  },
  "0013": {
    "postcode": "9040013",
    "prefecture": "沖縄県",
    "prefecture_kana": "オキナワケン",
    "prefecture_code": 47,
    "city": "沖縄市",
    "city_kana": "オキナワシ",
    "town": "室川",
    "town_kana": "ムロカワ",
    "street": null,
    "office_name": null,
    "office_name_kana": null
  },
  "0014": {
    "postcode": "9040014",
    "prefecture": "沖縄県",
    "prefecture_kana": "オキナワケン",
    "prefecture_code": 47,
    "city": "沖縄市",
    "city_kana": "オキナワシ",
    "town": "仲宗根町",
    "town_kana": "ナカソネチョウ",
    "street": null,
    "office_name": null,
    "office_name_kana": null
  },
  "0021": {
    "postcode": "9040021",
    "prefecture": "沖縄県",
    "prefecture_kana": "オキナワケン",
    "prefecture_code": 47,
    "city": "沖縄市",
    "city_kana": "オキナワシ",
    "town": "胡屋",
    "town_kana": "ゴヤ",
    "street": null,
    "office_name": null,
    "office_name_kana": null
  },
  "0022": {
    "postcode": "9040022",
    "prefecture": "沖縄県",
    "prefecture_kana": "オキナワケン",
    "prefecture_code": 47,
    "city": "沖縄市",
    "city_kana": "オキナワシ",
    "town": "園田",
    "town_kana": "ソノダ",
    "street": null,
    "office_name": null,
    "office_name_kana": null
  },
  "0023": {
    "postcode": "9040023",
    "prefecture": "沖縄県",
    "prefecture_kana": "オキナワケン",
    "prefecture_code": 47,
    "city": "沖縄市",
    "city_kana": "オキナワシ",
    "town": "久保田",
    "town_kana": "クボタ",
    "street": null,
    "office_name": null,
    "office_name_kana": null
  },
  "0031": {
    "postcode": "9040031",
    "prefecture": "沖縄県",
    "prefecture_kana": "オキナワケン",
    "prefecture_code": 47,
    "city": "沖縄市",
    "city_kana": "オキナワシ",
    "town": "上地",
    "town_kana": "ウエチ",
    "street": null,
    "office_name": null,
    "office_name_kana": null
  },
  "0032": {
    "postcode": "9040032",
    "prefecture": "沖縄県",
    "prefecture_kana": "オキナワケン",
    "prefecture_code": 47,
    "city": "沖縄市",
    "city_kana": "オキナワシ",
    "town": "諸見里",
    "town_kana": "モロミザト",
    "street": null,
    "office_name": null,
    "office_name_kana": null
  },
  "0033": {
    "postcode": "9040033",
    "prefecture": "沖縄県",
    "prefecture_kana": "オキナワケン",
    "prefecture_code": 47,
    "city": "沖縄市",
    "city_kana": "オキナワシ",
    "town": "山里",
    "town_kana": "ヤマザト",
    "street": null,
    "office_name": null,
    "office_name_kana": null
  },
  "0034": {
    "postcode": "9040034",
    "prefecture": "沖縄県",
    "prefecture_kana": "オキナワケン",
    "prefecture_code": 47,
    "city": "沖縄市",
    "city_kana": "オキナワシ",
    "town": "山内",
    "town_kana": "ヤマウチ",
    "street": null,
    "office_name": null,
    "office_name_kana": null
  },
  "0035": {
    "postcode": "9040035",
    "prefecture": "沖縄県",
    "prefecture_kana": "オキナワケン",
    "prefecture_code": 47,
    "city": "沖縄市",
    "city_kana": "オキナワシ",
    "town": "南桃原",
    "town_kana": "ミナミトウバル",
    "street": null,
    "office_name": null,
    "office_name_kana": null
  },
  "0100": {
    "postcode": "9040100",
    "prefecture": "沖縄県",
    "prefecture_kana": "オキナワケン",
    "prefecture_code": 47,
    "city": "中頭郡北谷町",
    "city_kana": "ナカガミグンチャタンチョウ",
    "town": "",
    "town_kana": "",
    "street": null,
    "office_name": null,
    "office_name_kana": null
  },
  "0101": {
    "postcode": "9040101",
    "prefecture": "沖縄県",
    "prefecture_kana": "オキナワケン",
    "prefecture_code": 47,
    "city": "中頭郡北谷町",
    "city_kana": "ナカガミグンチャタンチョウ",
    "town": "上勢頭",
    "town_kana": "カミセド",
    "street": null,
    "office_name": null,
    "office_name_kana": null
  },
  "0102": {
    "postcode": "9040102",
    "prefecture": "沖縄県",
    "prefecture_kana": "オキナワケン",
    "prefecture_code": 47,
    "city": "中頭郡北谷町",
    "city_kana": "ナカガミグンチャタンチョウ",
    "town": "伊平",
    "town_kana": "イヘイ",
    "street": null,
    "office_name": null,
    "office_name_kana": null
  },
  "0103": {
    "postcode": "9040103",
    "prefecture": "沖縄県",
    "prefecture_kana": "オキナワケン",
    "prefecture_code": 47,
    "city": "中頭郡北谷町",
    "city_kana": "ナカガミグンチャタンチョウ",
    "town": "桑江",
    "town_kana": "クワエ",
    "street": null,
    "office_name": null,
    "office_name_kana": null
  },
  "0104": {
    "postcode": "9040104",
    "prefecture": "沖縄県",
    "prefecture_kana": "オキナワケン",
    "prefecture_code": 47,
    "city": "中頭郡北谷町",
    "city_kana": "ナカガミグンチャタンチョウ",
    "town": "桃原",
    "town_kana": "トウバル",
    "street": null,
    "office_name": null,
    "office_name_kana": null
  },
  "0105": {
    "postcode": "9040105",
    "prefecture": "沖縄県",
    "prefecture_kana": "オキナワケン",
    "prefecture_code": 47,
    "city": "中頭郡北谷町",
    "city_kana": "ナカガミグンチャタンチョウ",
    "town": "吉原",
    "town_kana": "ヨシハラ",
    "street": null,
    "office_name": null,
    "office_name_kana": null
  },
  "0106": {
    "postcode": "9040106",
    "prefecture": "沖縄県",
    "prefecture_kana": "オキナワケン",
    "prefecture_code": 47,
    "city": "中頭郡北谷町",
    "city_kana": "ナカガミグンチャタンチョウ",
    "town": "玉上",
    "town_kana": "タマガミ",
    "street": null,
    "office_name": null,
    "office_name_kana": null
  },
  "0107": {
    "postcode": "9040107",
    "prefecture": "沖縄県",
    "prefecture_kana": "オキナワケン",
    "prefecture_code": 47,
    "city": "中頭郡北谷町",
    "city_kana": "ナカガミグンチャタンチョウ",
    "town": "大村",
    "town_kana": "オオムラ",
    "street": null,
    "office_name": null,
    "office_name_kana": null
  },
  "0111": {
    "postcode": "9040111",
    "prefecture": "沖縄県",
    "prefecture_kana": "オキナワケン",
    "prefecture_code": 47,
    "city": "中頭郡北谷町",
    "city_kana": "ナカガミグンチャタンチョウ",
    "town": "砂辺",
    "town_kana": "スナベ",
    "street": null,
    "office_name": null,
    "office_name_kana": null
  },
  "0112": {
    "postcode": "9040112",
    "prefecture": "沖縄県",
    "prefecture_kana": "オキナワケン",
    "prefecture_code": 47,
    "city": "中頭郡北谷町",
    "city_kana": "ナカガミグンチャタンチョウ",
    "town": "浜川",
    "town_kana": "ハマガワ",
    "street": null,
    "office_name": null,
    "office_name_kana": null
  },
  "0113": {
    "postcode": "9040113",
    "prefecture": "沖縄県",
    "prefecture_kana": "オキナワケン",
    "prefecture_code": 47,
    "city": "中頭郡北谷町",
    "city_kana": "ナカガミグンチャタンチョウ",
    "town": "宮城",
    "town_kana": "ミヤギ",
    "street": null,
    "office_name": null,
    "office_name_kana": null
  },
  "0114": {
    "postcode": "9040114",
    "prefecture": "沖縄県",
    "prefecture_kana": "オキナワケン",
    "prefecture_code": 47,
    "city": "中頭郡北谷町",
    "city_kana": "ナカガミグンチャタンチョウ",
    "town": "港",
    "town_kana": "ミナト",
    "street": null,
    "office_name": null,
    "office_name_kana": null
  },
  "0115": {
    "postcode": "9040115",
    "prefecture": "沖縄県",
    "prefecture_kana": "オキナワケン",
    "prefecture_code": 47,
    "city": "中頭郡北谷町",
    "city_kana": "ナカガミグンチャタンチョウ",
    "town": "美浜",
    "town_kana": "ミハマ",
    "street": null,
    "office_name": null,
    "office_name_kana": null
  },
  "0116": {
    "postcode": "9040116",
    "prefecture": "沖縄県",
    "prefecture_kana": "オキナワケン",
    "prefecture_code": 47,
    "city": "中頭郡北谷町",
    "city_kana": "ナカガミグンチャタンチョウ",
    "town": "北谷",
    "town_kana": "チャタン",
    "street": null,
    "office_name": null,
    "office_name_kana": null
  },
  "0117": {
    "postcode": "9040117",
    "prefecture": "沖縄県",
    "prefecture_kana": "オキナワケン",
    "prefecture_code": 47,
    "city": "中頭郡北谷町",
    "city_kana": "ナカガミグンチャタンチョウ",
    "town": "北前",
    "town_kana": "キタマエ",
    "street": null,
    "office_name": null,
    "office_name_kana": null
  },
  "0192": {
    "postcode": "9040192",
    "prefecture": "沖縄県",
    "prefecture_kana": "オキナワケン",
    "prefecture_code": 47,
    "city": "中頭郡北谷町",
    "city_kana": "ナカガミグンチャタンチョウ",
    "town": "字桑江",
    "town_kana": null,
    "street": "２２６",
    "office_name": "北谷町役場",
    "office_name_kana": "チヤタンチヨウヤクバ"
  },
  "0193": {
    "postcode": "9040193",
    "prefecture": "沖縄県",
    "prefecture_kana": "オキナワケン",
    "prefecture_code": 47,
    "city": "中頭郡北谷町",
    "city_kana": "ナカガミグンチャタンチョウ",
    "town": "字桑江",
    "town_kana": null,
    "street": "２２６",
    "office_name": "北谷町水道課",
    "office_name_kana": "チヤタンチヨウスイドウカ"
  },
  "0194": {
    "postcode": "9040194",
    "prefecture": "沖縄県",
    "prefecture_kana": "オキナワケン",
    "prefecture_code": 47,
    "city": "中頭郡北谷町",
    "city_kana": "ナカガミグンチャタンチョウ",
    "town": "字桑江",
    "town_kana": null,
    "street": "４６７−１",
    "office_name": "ちゃたんニライセンター生涯学習プラザ",
    "office_name_kana": "チヤタンニライセンタ-シヨウガイガクシユウプラザ"
  },
  "0195": {
    "postcode": "9040195",
    "prefecture": "沖縄県",
    "prefecture_kana": "オキナワケン",
    "prefecture_code": 47,
    "city": "中頭郡北谷町",
    "city_kana": "ナカガミグンチャタンチョウ",
    "town": "字桑江",
    "town_kana": null,
    "street": "４７３−１",
    "office_name": "北谷町消防本部",
    "office_name_kana": "チヤタンチヨウシヨウボウホンブ"
  },
  "0200": {
    "postcode": "9040200",
    "prefecture": "沖縄県",
    "prefecture_kana": "オキナワケン",
    "prefecture_code": 47,
    "city": "中頭郡嘉手納町",
    "city_kana": "ナカガミグンカデナチョウ",
    "town": "",
    "town_kana": "",
    "street": null,
    "office_name": null,
    "office_name_kana": null
  },
  "0201": {
    "postcode": "9040201",
    "prefecture": "沖縄県",
    "prefecture_kana": "オキナワケン",
    "prefecture_code": 47,
    "city": "中頭郡嘉手納町",
    "city_kana": "ナカガミグンカデナチョウ",
    "town": "久得",
    "town_kana": "クドク",
    "street": null,
    "office_name": null,
    "office_name_kana": null
  },
  "0202": {
    "postcode": "9040202",
    "prefecture": "沖縄県",
    "prefecture_kana": "オキナワケン",
    "prefecture_code": 47,
    "city": "中頭郡嘉手納町",
    "city_kana": "ナカガミグンカデナチョウ",
    "town": "屋良",
    "town_kana": "ヤラ",
    "street": null,
    "office_name": null,
    "office_name_kana": null
  },
  "0203": {
    "postcode": "9040203",
    "prefecture": "沖縄県",
    "prefecture_kana": "オキナワケン",
    "prefecture_code": 47,
    "city": "中頭郡嘉手納町",
    "city_kana": "ナカガミグンカデナチョウ",
    "town": "嘉手納",
    "town_kana": "カデナ",
    "street": null,
    "office_name": null,
    "office_name_kana": null
  },
  "0204": {
    "postcode": "9040204",
    "prefecture": "沖縄県",
    "prefecture_kana": "オキナワケン",
    "prefecture_code": 47,
    "city": "中頭郡嘉手納町",
    "city_kana": "ナカガミグンカデナチョウ",
    "town": "水釜",
    "town_kana": "ミズガマ",
    "street": null,
    "office_name": null,
    "office_name_kana": null
  },
  "0205": {
    "postcode": "9040205",
    "prefecture": "沖縄県",
    "prefecture_kana": "オキナワケン",
    "prefecture_code": 47,
    "city": "中頭郡嘉手納町",
    "city_kana": "ナカガミグンカデナチョウ",
    "town": "兼久",
    "town_kana": "カネク",
    "street": null,
    "office_name": null,
    "office_name_kana": null
  },
  "0293": {
    "postcode": "9040293",
    "prefecture": "沖縄県",
    "prefecture_kana": "オキナワケン",
    "prefecture_code": 47,
    "city": "中頭郡嘉手納町",
    "city_kana": "ナカガミグンカデナチョウ",
    "town": "字嘉手納",
    "town_kana": null,
    "street": "５８８",
    "office_name": "嘉手納町役場",
    "office_name_kana": "カデナチヨウヤクバ"
  },
  "0295": {
    "postcode": "9040295",
    "prefecture": "沖縄県",
    "prefecture_kana": "オキナワケン",
    "prefecture_code": 47,
    "city": "中頭郡嘉手納町",
    "city_kana": "ナカガミグンカデナチョウ",
    "town": "字嘉手納",
    "town_kana": null,
    "street": "２９０−９",
    "office_name": "沖縄防衛局",
    "office_name_kana": "オキナワボウエイキヨク"
  },
  "0300": {
    "postcode": "9040300",
    "prefecture": "沖縄県",
    "prefecture_kana": "オキナワケン",
    "prefecture_code": 47,
    "city": "中頭郡読谷村",
    "city_kana": "ナカガミグンヨミタンソン",
    "town": "",
    "town_kana": "",
    "street": null,
    "office_name": null,
    "office_name_kana": null
  },
  "0301": {
    "postcode": "9040301",
    "prefecture": "沖縄県",
    "prefecture_kana": "オキナワケン",
    "prefecture_code": 47,
    "city": "中頭郡読谷村",
    "city_kana": "ナカガミグンヨミタンソン",
    "town": "座喜味",
    "town_kana": "ザキミ",
    "street": null,
    "office_name": null,
    "office_name_kana": null
  },
  "0302": {
    "postcode": "9040302",
    "prefecture": "沖縄県",
    "prefecture_kana": "オキナワケン",
    "prefecture_code": 47,
    "city": "中頭郡読谷村",
    "city_kana": "ナカガミグンヨミタンソン",
    "town": "喜名",
    "town_kana": "キナ",
    "street": null,
    "office_name": null,
    "office_name_kana": null
  },
  "0303": {
    "postcode": "9040303",
    "prefecture": "沖縄県",
    "prefecture_kana": "オキナワケン",
    "prefecture_code": 47,
    "city": "中頭郡読谷村",
    "city_kana": "ナカガミグンヨミタンソン",
    "town": "伊良皆",
    "town_kana": "イラミナ",
    "street": null,
    "office_name": null,
    "office_name_kana": null
  },
  "0304": {
    "postcode": "9040304",
    "prefecture": "沖縄県",
    "prefecture_kana": "オキナワケン",
    "prefecture_code": 47,
    "city": "中頭郡読谷村",
    "city_kana": "ナカガミグンヨミタンソン",
    "town": "楚辺",
    "town_kana": "ソベ",
    "street": null,
    "office_name": null,
    "office_name_kana": null
  },
  "0305": {
    "postcode": "9040305",
    "prefecture": "沖縄県",
    "prefecture_kana": "オキナワケン",
    "prefecture_code": 47,
    "city": "中頭郡読谷村",
    "city_kana": "ナカガミグンヨミタンソン",
    "town": "都屋",
    "town_kana": "トヤ",
    "street": null,
    "office_name": null,
    "office_name_kana": null
  },
  "0311": {
    "postcode": "9040311",
    "prefecture": "沖縄県",
    "prefecture_kana": "オキナワケン",
    "prefecture_code": 47,
    "city": "中頭郡読谷村",
    "city_kana": "ナカガミグンヨミタンソン",
    "town": "比謝",
    "town_kana": "ヒジャ",
    "street": null,
    "office_name": null,
    "office_name_kana": null
  },
  "0312": {
    "postcode": "9040312",
    "prefecture": "沖縄県",
    "prefecture_kana": "オキナワケン",
    "prefecture_code": 47,
    "city": "中頭郡読谷村",
    "city_kana": "ナカガミグンヨミタンソン",
    "town": "比謝矼",
    "town_kana": "ヒジャバシ",
    "street": null,
    "office_name": null,
    "office_name_kana": null
  },
  "0313": {
    "postcode": "9040313",
    "prefecture": "沖縄県",
    "prefecture_kana": "オキナワケン",
    "prefecture_code": 47,
    "city": "中頭郡読谷村",
    "city_kana": "ナカガミグンヨミタンソン",
    "town": "大湾",
    "town_kana": "オオワン",
    "street": null,
    "office_name": null,
    "office_name_kana": null
  },
  "0314": {
    "postcode": "9040314",
    "prefecture": "沖縄県",
    "prefecture_kana": "オキナワケン",
    "prefecture_code": 47,
    "city": "中頭郡読谷村",
    "city_kana": "ナカガミグンヨミタンソン",
    "town": "古堅",
    "town_kana": "フルゲン",
    "street": null,
    "office_name": null,
    "office_name_kana": null
  },
  "0315": {
    "postcode": "9040315",
    "prefecture": "沖縄県",
    "prefecture_kana": "オキナワケン",
    "prefecture_code": 47,
    "city": "中頭郡読谷村",
    "city_kana": "ナカガミグンヨミタンソン",
    "town": "渡具知",
    "town_kana": "トグチ",
    "street": null,
    "office_name": null,
    "office_name_kana": null
  },
  "0316": {
    "postcode": "9040316",
    "prefecture": "沖縄県",
    "prefecture_kana": "オキナワケン",
    "prefecture_code": 47,
    "city": "中頭郡読谷村",
    "city_kana": "ナカガミグンヨミタンソン",
    "town": "大木",
    "town_kana": "オオキ",
    "street": null,
    "office_name": null,
    "office_name_kana": null
  },
  "0321": {
    "postcode": "9040321",
    "prefecture": "沖縄県",
    "prefecture_kana": "オキナワケン",
    "prefecture_code": 47,
    "city": "中頭郡読谷村",
    "city_kana": "ナカガミグンヨミタンソン",
    "town": "上地",
    "town_kana": "ウエチ",
    "street": null,
    "office_name": null,
    "office_name_kana": null
  },
  "0322": {
    "postcode": "9040322",
    "prefecture": "沖縄県",
    "prefecture_kana": "オキナワケン",
    "prefecture_code": 47,
    "city": "中頭郡読谷村",
    "city_kana": "ナカガミグンヨミタンソン",
    "town": "波平",
    "town_kana": "ナミヒラ",
    "street": null,
    "office_name": null,
    "office_name_kana": null
  },
  "0323": {
    "postcode": "9040323",
    "prefecture": "沖縄県",
    "prefecture_kana": "オキナワケン",
    "prefecture_code": 47,
    "city": "中頭郡読谷村",
    "city_kana": "ナカガミグンヨミタンソン",
    "town": "高志保",
    "town_kana": "タカシホ",
    "street": null,
    "office_name": null,
    "office_name_kana": null
  },
  "0324": {
    "postcode": "9040324",
    "prefecture": "沖縄県",
    "prefecture_kana": "オキナワケン",
    "prefecture_code": 47,
    "city": "中頭郡読谷村",
    "city_kana": "ナカガミグンヨミタンソン",
    "town": "長浜",
    "town_kana": "ナガハマ",
    "street": null,
    "office_name": null,
    "office_name_kana": null
  },
  "0325": {
    "postcode": "9040325",
    "prefecture": "沖縄県",
    "prefecture_kana": "オキナワケン",
    "prefecture_code": 47,
    "city": "中頭郡読谷村",
    "city_kana": "ナカガミグンヨミタンソン",
    "town": "瀬名波",
    "town_kana": "セナハ",
    "street": null,
    "office_name": null,
    "office_name_kana": null
  },
  "0326": {
    "postcode": "9040326",
    "prefecture": "沖縄県",
    "prefecture_kana": "オキナワケン",
    "prefecture_code": 47,
    "city": "中頭郡読谷村",
    "city_kana": "ナカガミグンヨミタンソン",
    "town": "渡慶次",
    "town_kana": "トケシ",
    "street": null,
    "office_name": null,
    "office_name_kana": null
  },
  "0327": {
    "postcode": "9040327",
    "prefecture": "沖縄県",
    "prefecture_kana": "オキナワケン",
    "prefecture_code": 47,
    "city": "中頭郡読谷村",
    "city_kana": "ナカガミグンヨミタンソン",
    "town": "儀間",
    "town_kana": "ギマ",
    "street": null,
    "office_name": null,
    "office_name_kana": null
  },
  "0328": {
    "postcode": "9040328",
    "prefecture": "沖縄県",
    "prefecture_kana": "オキナワケン",
    "prefecture_code": 47,
    "city": "中頭郡読谷村",
    "city_kana": "ナカガミグンヨミタンソン",
    "town": "宇座",
    "town_kana": "ウザ",
    "street": null,
    "office_name": null,
    "office_name_kana": null
  },
  "0392": {
    "postcode": "9040392",
    "prefecture": "沖縄県",
    "prefecture_kana": "オキナワケン",
    "prefecture_code": 47,
    "city": "中頭郡読谷村",
    "city_kana": "ナカガミグンヨミタンソン",
    "town": "字座喜味",
    "town_kana": null,
    "street": "２９０１",
    "office_name": "読谷村役場",
    "office_name_kana": "ヨミタンソンヤクバ"
  },
  "0393": {
    "postcode": "9040393",
    "prefecture": "沖縄県",
    "prefecture_kana": "オキナワケン",
    "prefecture_code": 47,
    "city": "中頭郡読谷村",
    "city_kana": "ナカガミグンヨミタンソン",
    "town": "字儀間",
    "town_kana": null,
    "street": "６００",
    "office_name": "ホテル日航アリビラ",
    "office_name_kana": "ホテルニツコウアリビラ"
  },
  "0394": {
    "postcode": "9040394",
    "prefecture": "沖縄県",
    "prefecture_kana": "オキナワケン",
    "prefecture_code": 47,
    "city": "中頭郡読谷村",
    "city_kana": "ナカガミグンヨミタンソン",
    "town": "字宇座",
    "town_kana": null,
    "street": "１５７５",
    "office_name": "沖縄残波岬ロイヤルホテル",
    "office_name_kana": "オキナワザンパミサキロイヤルホテル"
  },
  "0395": {
    "postcode": "9040395",
    "prefecture": "沖縄県",
    "prefecture_kana": "オキナワケン",
    "prefecture_code": 47,
    "city": "中頭郡読谷村",
    "city_kana": "ナカガミグンヨミタンソン",
    "town": "字伊良皆",
    "town_kana": null,
    "street": "１９８",
    "office_name": "読谷高等学校",
    "office_name_kana": "ヨミタンコウトウガツコウ"
  },
  "0398": {
    "postcode": "9040398",
    "prefecture": "沖縄県",
    "prefecture_kana": "オキナワケン",
    "prefecture_code": 47,
    "city": "中頭郡読谷村",
    "city_kana": "ナカガミグンヨミタンソン",
    "town": "字比謝矼",
    "town_kana": null,
    "street": "５５番地",
    "office_name": "沖縄県介護保険広域連合",
    "office_name_kana": "オキナワケンカイゴホケンコウイキレンゴウ"
  },
  "0400": {
    "postcode": "9040400",
    "prefecture": "沖縄県",
    "prefecture_kana": "オキナワケン",
    "prefecture_code": 47,
    "city": "国頭郡恩納村",
    "city_kana": "クニガミグンオンナソン",
    "town": "",
    "town_kana": "",
    "street": null,
    "office_name": null,
    "office_name_kana": null
  },
  "0401": {
    "postcode": "9040401",
    "prefecture": "沖縄県",
    "prefecture_kana": "オキナワケン",
    "prefecture_code": 47,
    "city": "国頭郡恩納村",
    "city_kana": "クニガミグンオンナソン",
    "town": "名嘉真",
    "town_kana": "ナカマ",
    "street": null,
    "office_name": null,
    "office_name_kana": null
  },
  "0402": {
    "postcode": "9040402",
    "prefecture": "沖縄県",
    "prefecture_kana": "オキナワケン",
    "prefecture_code": 47,
    "city": "国頭郡恩納村",
    "city_kana": "クニガミグンオンナソン",
    "town": "安富祖",
    "town_kana": "アフソ",
    "street": null,
    "office_name": null,
    "office_name_kana": null
  },
  "0403": {
    "postcode": "9040403",
    "prefecture": "沖縄県",
    "prefecture_kana": "オキナワケン",
    "prefecture_code": 47,
    "city": "国頭郡恩納村",
    "city_kana": "クニガミグンオンナソン",
    "town": "喜瀬武原",
    "town_kana": "キセンバル",
    "street": null,
    "office_name": null,
    "office_name_kana": null
  },
  "0404": {
    "postcode": "9040404",
    "prefecture": "沖縄県",
    "prefecture_kana": "オキナワケン",
    "prefecture_code": 47,
    "city": "国頭郡恩納村",
    "city_kana": "クニガミグンオンナソン",
    "town": "瀬良垣",
    "town_kana": "セラカキ",
    "street": null,
    "office_name": null,
    "office_name_kana": null
  },
  "0411": {
    "postcode": "9040411",
    "prefecture": "沖縄県",
    "prefecture_kana": "オキナワケン",
    "prefecture_code": 47,
    "city": "国頭郡恩納村",
    "city_kana": "クニガミグンオンナソン",
    "town": "恩納",
    "town_kana": "オンナ",
    "street": null,
    "office_name": null,
    "office_name_kana": null
  },
  "0412": {
    "postcode": "9040412",
    "prefecture": "沖縄県",
    "prefecture_kana": "オキナワケン",
    "prefecture_code": 47,
    "city": "国頭郡恩納村",
    "city_kana": "クニガミグンオンナソン",
    "town": "谷茶",
    "town_kana": "タンチャ",
    "street": null,
    "office_name": null,
    "office_name_kana": null
  },
  "0413": {
    "postcode": "9040413",
    "prefecture": "沖縄県",
    "prefecture_kana": "オキナワケン",
    "prefecture_code": 47,
    "city": "国頭郡恩納村",
    "city_kana": "クニガミグンオンナソン",
    "town": "冨着",
    "town_kana": "フチャク",
    "street": null,
    "office_name": null,
    "office_name_kana": null
  },
  "0414": {
    "postcode": "9040414",
    "prefecture": "沖縄県",
    "prefecture_kana": "オキナワケン",
    "prefecture_code": 47,
    "city": "国頭郡恩納村",
    "city_kana": "クニガミグンオンナソン",
    "town": "前兼久",
    "town_kana": "マエガネク",
    "street": null,
    "office_name": null,
    "office_name_kana": null
  },
  "0415": {
    "postcode": "9040415",
    "prefecture": "沖縄県",
    "prefecture_kana": "オキナワケン",
    "prefecture_code": 47,
    "city": "国頭郡恩納村",
    "city_kana": "クニガミグンオンナソン",
    "town": "仲泊",
    "town_kana": "ナカドマリ",
    "street": null,
    "office_name": null,
    "office_name_kana": null
  },
  "0416": {
    "postcode": "9040416",
    "prefecture": "沖縄県",
    "prefecture_kana": "オキナワケン",
    "prefecture_code": 47,
    "city": "国頭郡恩納村",
    "city_kana": "クニガミグンオンナソン",
    "town": "山田",
    "town_kana": "ヤマダ",
    "street": null,
    "office_name": null,
    "office_name_kana": null
  },
  "0417": {
    "postcode": "9040417",
    "prefecture": "沖縄県",
    "prefecture_kana": "オキナワケン",
    "prefecture_code": 47,
    "city": "国頭郡恩納村",
    "city_kana": "クニガミグンオンナソン",
    "town": "真栄田",
    "town_kana": "マエダ",
    "street": null,
    "office_name": null,
    "office_name_kana": null
  },
  "0492": {
    "postcode": "9040492",
    "prefecture": "沖縄県",
    "prefecture_kana": "オキナワケン",
    "prefecture_code": 47,
    "city": "国頭郡恩納村",
    "city_kana": "クニガミグンオンナソン",
    "town": "字恩納",
    "town_kana": null,
    "street": "２４５１",
    "office_name": "恩納村役場",
    "office_name_kana": "オンナソンヤクバ"
  },
  "0493": {
    "postcode": "9040493",
    "prefecture": "沖縄県",
    "prefecture_kana": "オキナワケン",
    "prefecture_code": 47,
    "city": "国頭郡恩納村",
    "city_kana": "クニガミグンオンナソン",
    "town": "字瀬良垣",
    "town_kana": null,
    "street": "２２６０",
    "office_name": "万座ビーチホテル＆リゾート",
    "office_name_kana": "マンザビ-チホテルアンドリゾ-ト"
  },
  "0494": {
    "postcode": "9040494",
    "prefecture": "沖縄県",
    "prefecture_kana": "オキナワケン",
    "prefecture_code": 47,
    "city": "国頭郡恩納村",
    "city_kana": "クニガミグンオンナソン",
    "town": "字冨着",
    "town_kana": null,
    "street": "６６−１",
    "office_name": "サンマリーナホテル",
    "office_name_kana": "サンマリ-ナホテル"
  },
  "0495": {
    "postcode": "9040495",
    "prefecture": "沖縄県",
    "prefecture_kana": "オキナワケン",
    "prefecture_code": 47,
    "city": "国頭郡恩納村",
    "city_kana": "クニガミグンオンナソン",
    "town": "字谷茶",
    "town_kana": null,
    "street": "１９１９−１",
    "office_name": "学校法人　沖縄科学技術大学院大学学園",
    "office_name_kana": "ガツコウホウジン オキナワカガクギジユツダイガクインダイガクガクエン"
  },
  "0496": {
    "postcode": "9040496",
    "prefecture": "沖縄県",
    "prefecture_kana": "オキナワケン",
    "prefecture_code": 47,
    "city": "国頭郡恩納村",
    "city_kana": "クニガミグンオンナソン",
    "town": "字谷茶",
    "town_kana": null,
    "street": "１４９６",
    "office_name": "リザンシーパークホテル　谷茶ベイ",
    "office_name_kana": "リザンシ-パ-クホテル タンチヤベイ"
  },
  "0497": {
    "postcode": "9040497",
    "prefecture": "沖縄県",
    "prefecture_kana": "オキナワケン",
    "prefecture_code": 47,
    "city": "国頭郡恩納村",
    "city_kana": "クニガミグンオンナソン",
    "town": "字谷茶",
    "town_kana": null,
    "street": "１９１９番地１",
    "office_name": "学校法人　沖縄科学技術大学院大学学園　ＯＩＳＴ住居エリア　ＨｏｕｓｉｎｇＡｒｅａ",
    "office_name_kana": "ガツコウホウジン オキナワカガクギジユツダイガクインダイガクガクエン オイストジユウキヨエリア ハウジングエリア"
  },
  "1101": {
    "postcode": "9041101",
    "prefecture": "沖縄県",
    "prefecture_kana": "オキナワケン",
    "prefecture_code": 47,
    "city": "うるま市",
    "city_kana": "ウルマシ",
    "town": "石川東山本町",
    "town_kana": "イシカワアガリヤマモトマチ",
    "street": null,
    "office_name": null,
    "office_name_kana": null
  },
  "1102": {
    "postcode": "9041102",
    "prefecture": "沖縄県",
    "prefecture_kana": "オキナワケン",
    "prefecture_code": 47,
    "city": "うるま市",
    "city_kana": "ウルマシ",
    "town": "石川東山",
    "town_kana": "イシカワアガリヤマ",
    "street": null,
    "office_name": null,
    "office_name_kana": null
  },
  "1103": {
    "postcode": "9041103",
    "prefecture": "沖縄県",
    "prefecture_kana": "オキナワケン",
    "prefecture_code": 47,
    "city": "うるま市",
    "city_kana": "ウルマシ",
    "town": "石川赤崎",
    "town_kana": "イシカワアカサキ",
    "street": null,
    "office_name": null,
    "office_name_kana": null
  },
  "1104": {
    "postcode": "9041104",
    "prefecture": "沖縄県",
    "prefecture_kana": "オキナワケン",
    "prefecture_code": 47,
    "city": "うるま市",
    "city_kana": "ウルマシ",
    "town": "石川石崎",
    "town_kana": "イシカワイシザキ",
    "street": null,
    "office_name": null,
    "office_name_kana": null
  },
  "1105": {
    "postcode": "9041105",
    "prefecture": "沖縄県",
    "prefecture_kana": "オキナワケン",
    "prefecture_code": 47,
    "city": "うるま市",
    "city_kana": "ウルマシ",
    "town": "石川白浜",
    "town_kana": "イシカワシラハマ",
    "street": null,
    "office_name": null,
    "office_name_kana": null
  },
  "1106": {
    "postcode": "9041106",
    "prefecture": "沖縄県",
    "prefecture_kana": "オキナワケン",
    "prefecture_code": 47,
    "city": "うるま市",
    "city_kana": "ウルマシ",
    "town": "石川",
    "town_kana": "イシカワ",
    "street": null,
    "office_name": null,
    "office_name_kana": null
  },
  "1107": {
    "postcode": "9041107",
    "prefecture": "沖縄県",
    "prefecture_kana": "オキナワケン",
    "prefecture_code": 47,
    "city": "うるま市",
    "city_kana": "ウルマシ",
    "town": "石川曙",
    "town_kana": "イシカワアケボノ",
    "street": null,
    "office_name": null,
    "office_name_kana": null
  },
  "1108": {
    "postcode": "9041108",
    "prefecture": "沖縄県",
    "prefecture_kana": "オキナワケン",
    "prefecture_code": 47,
    "city": "うるま市",
    "city_kana": "ウルマシ",
    "town": "石川東恩納崎",
    "town_kana": "イシカワヒガシオンナザキ",
    "street": null,
    "office_name": null,
    "office_name_kana": null
  },
  "1111": {
    "postcode": "9041111",
    "prefecture": "沖縄県",
    "prefecture_kana": "オキナワケン",
    "prefecture_code": 47,
    "city": "うるま市",
    "city_kana": "ウルマシ",
    "town": "石川東恩納",
    "town_kana": "イシカワヒガシオンナ",
    "street": null,
    "office_name": null,
    "office_name_kana": null
  },
  "1112": {
    "postcode": "9041112",
    "prefecture": "沖縄県",
    "prefecture_kana": "オキナワケン",
    "prefecture_code": 47,
    "city": "うるま市",
    "city_kana": "ウルマシ",
    "town": "石川楚南",
    "town_kana": "イシカワソナン",
    "street": null,
    "office_name": null,
    "office_name_kana": null
  },
  "1113": {
    "postcode": "9041113",
    "prefecture": "沖縄県",
    "prefecture_kana": "オキナワケン",
    "prefecture_code": 47,
    "city": "うるま市",
    "city_kana": "ウルマシ",
    "town": "石川山城",
    "town_kana": "イシカワヤマシロ",
    "street": null,
    "office_name": null,
    "office_name_kana": null
  },
  "1114": {
    "postcode": "9041114",
    "prefecture": "沖縄県",
    "prefecture_kana": "オキナワケン",
    "prefecture_code": 47,
    "city": "うるま市",
    "city_kana": "ウルマシ",
    "town": "石川嘉手苅",
    "town_kana": "イシカワカデカル",
    "street": null,
    "office_name": null,
    "office_name_kana": null
  },
  "1115": {
    "postcode": "9041115",
    "prefecture": "沖縄県",
    "prefecture_kana": "オキナワケン",
    "prefecture_code": 47,
    "city": "うるま市",
    "city_kana": "ウルマシ",
    "town": "石川伊波",
    "town_kana": "イシカワイハ",
    "street": null,
    "office_name": null,
    "office_name_kana": null
  },
  "1192": {
    "postcode": "9041192",
    "prefecture": "沖縄県",
    "prefecture_kana": "オキナワケン",
    "prefecture_code": 47,
    "city": "うるま市",
    "city_kana": "ウルマシ",
    "town": "石川石崎",
    "town_kana": "イシカワイシザキ",
    "street": "１丁目１",
    "office_name": "うるま市役所　石川庁舎",
    "office_name_kana": "ウルマシヤクシヨ イシカワチヨウシヤ"
  },
  "1200": {
    "postcode": "9041200",
    "prefecture": "沖縄県",
    "prefecture_kana": "オキナワケン",
    "prefecture_code": 47,
    "city": "国頭郡金武町",
    "city_kana": "クニガミグンキンチョウ",
    "town": "",
    "town_kana": "",
    "street": null,
    "office_name": null,
    "office_name_kana": null
  },
  "1201": {
    "postcode": "9041201",
    "prefecture": "沖縄県",
    "prefecture_kana": "オキナワケン",
    "prefecture_code": 47,
    "city": "国頭郡金武町",
    "city_kana": "クニガミグンキンチョウ",
    "town": "金武",
    "town_kana": "キン",
    "street": null,
    "office_name": null,
    "office_name_kana": null
  },
  "1202": {
    "postcode": "9041202",
    "prefecture": "沖縄県",
    "prefecture_kana": "オキナワケン",
    "prefecture_code": 47,
    "city": "国頭郡金武町",
    "city_kana": "クニガミグンキンチョウ",
    "town": "伊芸",
    "town_kana": "イゲイ",
    "street": null,
    "office_name": null,
    "office_name_kana": null
  },
  "1203": {
    "postcode": "9041203",
    "prefecture": "沖縄県",
    "prefecture_kana": "オキナワケン",
    "prefecture_code": 47,
    "city": "国頭郡金武町",
    "city_kana": "クニガミグンキンチョウ",
    "town": "屋嘉",
    "town_kana": "ヤカ",
    "street": null,
    "office_name": null,
    "office_name_kana": null
  },
  "1292": {
    "postcode": "9041292",
    "prefecture": "沖縄県",
    "prefecture_kana": "オキナワケン",
    "prefecture_code": 47,
    "city": "国頭郡金武町",
    "city_kana": "クニガミグンキンチョウ",
    "town": "字金武",
    "town_kana": null,
    "street": "１",
    "office_name": "金武町役場",
    "office_name_kana": "キンチヨウヤクバ"
  },
  "1293": {
    "postcode": "9041293",
    "prefecture": "沖縄県",
    "prefecture_kana": "オキナワケン",
    "prefecture_code": 47,
    "city": "国頭郡金武町",
    "city_kana": "クニガミグンキンチョウ",
    "town": "字金武",
    "town_kana": null,
    "street": "４３８０",
    "office_name": "金武町教育委員会",
    "office_name_kana": "キンチヨウキヨウイクイインカイ"
  },
  "1294": {
    "postcode": "9041294",
    "prefecture": "沖縄県",
    "prefecture_kana": "オキナワケン",
    "prefecture_code": 47,
    "city": "国頭郡金武町",
    "city_kana": "クニガミグンキンチョウ",
    "town": "字金武",
    "town_kana": null,
    "street": "７７４５",
    "office_name": "金武地区消防衛生組合",
    "office_name_kana": "キンチクシヨウボウエイセイクミアイ"
  },
  "1300": {
    "postcode": "9041300",
    "prefecture": "沖縄県",
    "prefecture_kana": "オキナワケン",
    "prefecture_code": 47,
    "city": "国頭郡宜野座村",
    "city_kana": "クニガミグンギノザソン",
    "town": "",
    "town_kana": "",
    "street": null,
    "office_name": null,
    "office_name_kana": null
  },
  "1301": {
    "postcode": "9041301",
    "prefecture": "沖縄県",
    "prefecture_kana": "オキナワケン",
    "prefecture_code": 47,
    "city": "国頭郡宜野座村",
    "city_kana": "クニガミグンギノザソン",
    "town": "松田",
    "town_kana": "マツダ",
    "street": null,
    "office_name": null,
    "office_name_kana": null
  },
  "1302": {
    "postcode": "9041302",
    "prefecture": "沖縄県",
    "prefecture_kana": "オキナワケン",
    "prefecture_code": 47,
    "city": "国頭郡宜野座村",
    "city_kana": "クニガミグンギノザソン",
    "town": "宜野座",
    "town_kana": "ギノザ",
    "street": null,
    "office_name": null,
    "office_name_kana": null
  },
  "1303": {
    "postcode": "9041303",
    "prefecture": "沖縄県",
    "prefecture_kana": "オキナワケン",
    "prefecture_code": 47,
    "city": "国頭郡宜野座村",
    "city_kana": "クニガミグンギノザソン",
    "town": "惣慶",
    "town_kana": "ソケイ",
    "street": null,
    "office_name": null,
    "office_name_kana": null
  },
  "1304": {
    "postcode": "9041304",
    "prefecture": "沖縄県",
    "prefecture_kana": "オキナワケン",
    "prefecture_code": 47,
    "city": "国頭郡宜野座村",
    "city_kana": "クニガミグンギノザソン",
    "town": "漢那",
    "town_kana": "カンナ",
    "street": null,
    "office_name": null,
    "office_name_kana": null
  },
  "1392": {
    "postcode": "9041392",
    "prefecture": "沖縄県",
    "prefecture_kana": "オキナワケン",
    "prefecture_code": 47,
    "city": "国頭郡宜野座村",
    "city_kana": "クニガミグンギノザソン",
    "town": "字宜野座",
    "town_kana": null,
    "street": "２９６",
    "office_name": "宜野座村役場",
    "office_name_kana": "ギノザソンヤクバ"
  },
  "2141": {
    "postcode": "9042141",
    "prefecture": "沖縄県",
    "prefecture_kana": "オキナワケン",
    "prefecture_code": 47,
    "city": "沖縄市",
    "city_kana": "オキナワシ",
    "town": "池原",
    "town_kana": "イケハラ",
    "street": null,
    "office_name": null,
    "office_name_kana": null
  },
  "2142": {
    "postcode": "9042142",
    "prefecture": "沖縄県",
    "prefecture_kana": "オキナワケン",
    "prefecture_code": 47,
    "city": "沖縄市",
    "city_kana": "オキナワシ",
    "town": "登川",
    "town_kana": "ノボリカワ",
    "street": null,
    "office_name": null,
    "office_name_kana": null
  },
  "2143": {
    "postcode": "9042143",
    "prefecture": "沖縄県",
    "prefecture_kana": "オキナワケン",
    "prefecture_code": 47,
    "city": "沖縄市",
    "city_kana": "オキナワシ",
    "town": "知花",
    "town_kana": "チバナ",
    "street": null,
    "office_name": null,
    "office_name_kana": null
  },
  "2144": {
    "postcode": "9042144",
    "prefecture": "沖縄県",
    "prefecture_kana": "オキナワケン",
    "prefecture_code": 47,
    "city": "沖縄市",
    "city_kana": "オキナワシ",
    "town": "白川",
    "town_kana": "シラカワ",
    "street": null,
    "office_name": null,
    "office_name_kana": null
  },
  "2145": {
    "postcode": "9042145",
    "prefecture": "沖縄県",
    "prefecture_kana": "オキナワケン",
    "prefecture_code": 47,
    "city": "沖縄市",
    "city_kana": "オキナワシ",
    "town": "倉敷",
    "town_kana": "クラシキ",
    "street": null,
    "office_name": null,
    "office_name_kana": null
  },
  "2151": {
    "postcode": "9042151",
    "prefecture": "沖縄県",
    "prefecture_kana": "オキナワケン",
    "prefecture_code": 47,
    "city": "沖縄市",
    "city_kana": "オキナワシ",
    "town": "松本",
    "town_kana": "マツモト",
    "street": null,
    "office_name": null,
    "office_name_kana": null
  },
  "2152": {
    "postcode": "9042152",
    "prefecture": "沖縄県",
    "prefecture_kana": "オキナワケン",
    "prefecture_code": 47,
    "city": "沖縄市",
    "city_kana": "オキナワシ",
    "town": "明道",
    "town_kana": "アケミチ",
    "street": null,
    "office_name": null,
    "office_name_kana": null
  },
  "2153": {
    "postcode": "9042153",
    "prefecture": "沖縄県",
    "prefecture_kana": "オキナワケン",
    "prefecture_code": 47,
    "city": "沖縄市",
    "city_kana": "オキナワシ",
    "town": "美里",
    "town_kana": "ミサト",
    "street": null,
    "office_name": null,
    "office_name_kana": null
  },
  "2154": {
    "postcode": "9042154",
    "prefecture": "沖縄県",
    "prefecture_kana": "オキナワケン",
    "prefecture_code": 47,
    "city": "沖縄市",
    "city_kana": "オキナワシ",
    "town": "東",
    "town_kana": "ヒガシ",
    "street": null,
    "office_name": null,
    "office_name_kana": null
  },
  "2155": {
    "postcode": "9042155",
    "prefecture": "沖縄県",
    "prefecture_kana": "オキナワケン",
    "prefecture_code": 47,
    "city": "沖縄市",
    "city_kana": "オキナワシ",
    "town": "美原",
    "town_kana": "ミハラ",
    "street": null,
    "office_name": null,
    "office_name_kana": null
  },
  "2156": {
    "postcode": "9042156",
    "prefecture": "沖縄県",
    "prefecture_kana": "オキナワケン",
    "prefecture_code": 47,
    "city": "沖縄市",
    "city_kana": "オキナワシ",
    "town": "美里仲原町",
    "town_kana": "ミサトナカハラチョウ",
    "street": null,
    "office_name": null,
    "office_name_kana": null
  },
  "2161": {
    "postcode": "9042161",
    "prefecture": "沖縄県",
    "prefecture_kana": "オキナワケン",
    "prefecture_code": 47,
    "city": "沖縄市",
    "city_kana": "オキナワシ",
    "town": "古謝",
    "town_kana": "コジャ",
    "street": null,
    "office_name": null,
    "office_name_kana": null
  },
  "2162": [
    {
      "postcode": "9042162",
      "prefecture": "沖縄県",
      "prefecture_kana": "オキナワケン",
      "prefecture_code": 47,
      "city": "沖縄市",
      "city_kana": "オキナワシ",
      "town": "海邦",
      "town_kana": "カイホウ",
      "street": null,
      "office_name": null,
      "office_name_kana": null
    },
    {
      "postcode": "9042162",
      "prefecture": "沖縄県",
      "prefecture_kana": "オキナワケン",
      "prefecture_code": 47,
      "city": "沖縄市",
      "city_kana": "オキナワシ",
      "town": "海邦町",
      "town_kana": "カイホウチョウ",
      "street": null,
      "office_name": null,
      "office_name_kana": null
    }
  ],
  "2163": {
    "postcode": "9042163",
    "prefecture": "沖縄県",
    "prefecture_kana": "オキナワケン",
    "prefecture_code": 47,
    "city": "沖縄市",
    "city_kana": "オキナワシ",
    "town": "大里",
    "town_kana": "オオザト",
    "street": null,
    "office_name": null,
    "office_name_kana": null
  },
  "2164": {
    "postcode": "9042164",
    "prefecture": "沖縄県",
    "prefecture_kana": "オキナワケン",
    "prefecture_code": 47,
    "city": "沖縄市",
    "city_kana": "オキナワシ",
    "town": "桃原",
    "town_kana": "トウバル",
    "street": null,
    "office_name": null,
    "office_name_kana": null
  },
  "2165": {
    "postcode": "9042165",
    "prefecture": "沖縄県",
    "prefecture_kana": "オキナワケン",
    "prefecture_code": 47,
    "city": "沖縄市",
    "city_kana": "オキナワシ",
    "town": "宮里",
    "town_kana": "ミヤザト",
    "street": null,
    "office_name": null,
    "office_name_kana": null
  },
  "2166": {
    "postcode": "9042166",
    "prefecture": "沖縄県",
    "prefecture_kana": "オキナワケン",
    "prefecture_code": 47,
    "city": "沖縄市",
    "city_kana": "オキナワシ",
    "town": "古謝津嘉山町",
    "town_kana": "コジャツカザンチョウ",
    "street": null,
    "office_name": null,
    "office_name_kana": null
  },
  "2171": {
    "postcode": "9042171",
    "prefecture": "沖縄県",
    "prefecture_kana": "オキナワケン",
    "prefecture_code": 47,
    "city": "沖縄市",
    "city_kana": "オキナワシ",
    "town": "高原",
    "town_kana": "タカハラ",
    "street": null,
    "office_name": null,
    "office_name_kana": null
  },
  "2172": {
    "postcode": "9042172",
    "prefecture": "沖縄県",
    "prefecture_kana": "オキナワケン",
    "prefecture_code": 47,
    "city": "沖縄市",
    "city_kana": "オキナワシ",
    "town": "泡瀬",
    "town_kana": "アワセ",
    "street": null,
    "office_name": null,
    "office_name_kana": null
  },
  "2173": {
    "postcode": "9042173",
    "prefecture": "沖縄県",
    "prefecture_kana": "オキナワケン",
    "prefecture_code": 47,
    "city": "沖縄市",
    "city_kana": "オキナワシ",
    "town": "比屋根",
    "town_kana": "ヒヤゴン",
    "street": null,
    "office_name": null,
    "office_name_kana": null
  },
  "2174": {
    "postcode": "9042174",
    "prefecture": "沖縄県",
    "prefecture_kana": "オキナワケン",
    "prefecture_code": 47,
    "city": "沖縄市",
    "city_kana": "オキナワシ",
    "town": "与儀",
    "town_kana": "ヨギ",
    "street": null,
    "office_name": null,
    "office_name_kana": null
  },
  "2175": {
    "postcode": "9042175",
    "prefecture": "沖縄県",
    "prefecture_kana": "オキナワケン",
    "prefecture_code": 47,
    "city": "沖縄市",
    "city_kana": "オキナワシ",
    "town": "潮乃森",
    "town_kana": "シオノモリ",
    "street": null,
    "office_name": null,
    "office_name_kana": null
  },
  "2192": {
    "postcode": "9042192",
    "prefecture": "沖縄県",
    "prefecture_kana": "オキナワケン",
    "prefecture_code": 47,
    "city": "沖縄市",
    "city_kana": "オキナワシ",
    "town": "松本",
    "town_kana": "マツモト",
    "street": "６丁目２番１号",
    "office_name": "医療法人　ちゅうざん会　ちゅうざん病院",
    "office_name_kana": "イリヨウホウジン チユウザンカイ チユウザンビヨウイン"
  },
  "2193": {
    "postcode": "9042193",
    "prefecture": "沖縄県",
    "prefecture_kana": "オキナワケン",
    "prefecture_code": 47,
    "city": "沖縄市",
    "city_kana": "オキナワシ",
    "town": "東",
    "town_kana": "ヒガシ",
    "street": "２丁目１−１",
    "office_name": "沖縄税務署",
    "office_name_kana": "オキナワゼイムシヨ"
  },
  "2194": {
    "postcode": "9042194",
    "prefecture": "沖縄県",
    "prefecture_kana": "オキナワケン",
    "prefecture_code": 47,
    "city": "沖縄市",
    "city_kana": "オキナワシ",
    "town": "知花",
    "town_kana": "チバナ",
    "street": "６丁目７−７",
    "office_name": "那覇地方裁判所　沖縄支部・沖縄簡易裁判所・那覇家庭裁判所　沖縄支部",
    "office_name_kana": "ナハチホウサイバンシヨ オキナワシブ・オキナワカンイサイバンシヨ・ナハカテイサイバンシヨ オキナワシブ"
  },
  "2196": {
    "postcode": "9042196",
    "prefecture": "沖縄県",
    "prefecture_kana": "オキナワケン",
    "prefecture_code": 47,
    "city": "沖縄市",
    "city_kana": "オキナワシ",
    "town": "美里",
    "town_kana": "ミサト",
    "street": "５丁目２８−１",
    "office_name": "沖縄市水道局",
    "office_name_kana": "オキナワシスイドウキヨク"
  },
  "2200": {
    "postcode": "9042200",
    "prefecture": "沖縄県",
    "prefecture_kana": "オキナワケン",
    "prefecture_code": 47,
    "city": "うるま市",
    "city_kana": "ウルマシ",
    "town": "",
    "town_kana": "",
    "street": null,
    "office_name": null,
    "office_name_kana": null
  },
  "2201": {
    "postcode": "9042201",
    "prefecture": "沖縄県",
    "prefecture_kana": "オキナワケン",
    "prefecture_code": 47,
    "city": "うるま市",
    "city_kana": "ウルマシ",
    "town": "昆布",
    "town_kana": "コンブ",
    "street": null,
    "office_name": null,
    "office_name_kana": null
  },
  "2202": {
    "postcode": "9042202",
    "prefecture": "沖縄県",
    "prefecture_kana": "オキナワケン",
    "prefecture_code": 47,
    "city": "うるま市",
    "city_kana": "ウルマシ",
    "town": "天願",
    "town_kana": "テンガン",
    "street": null,
    "office_name": null,
    "office_name_kana": null
  },
  "2203": {
    "postcode": "9042203",
    "prefecture": "沖縄県",
    "prefecture_kana": "オキナワケン",
    "prefecture_code": 47,
    "city": "うるま市",
    "city_kana": "ウルマシ",
    "town": "川崎",
    "town_kana": "カワサキ",
    "street": null,
    "office_name": null,
    "office_name_kana": null
  },
  "2204": {
    "postcode": "9042204",
    "prefecture": "沖縄県",
    "prefecture_kana": "オキナワケン",
    "prefecture_code": 47,
    "city": "うるま市",
    "city_kana": "ウルマシ",
    "town": "西原",
    "town_kana": "イリバル",
    "street": null,
    "office_name": null,
    "office_name_kana": null
  },
  "2205": {
    "postcode": "9042205",
    "prefecture": "沖縄県",
    "prefecture_kana": "オキナワケン",
    "prefecture_code": 47,
    "city": "うるま市",
    "city_kana": "ウルマシ",
    "town": "栄野比",
    "town_kana": "エノビ",
    "street": null,
    "office_name": null,
    "office_name_kana": null
  },
  "2211": {
    "postcode": "9042211",
    "prefecture": "沖縄県",
    "prefecture_kana": "オキナワケン",
    "prefecture_code": 47,
    "city": "うるま市",
    "city_kana": "ウルマシ",
    "town": "宇堅",
    "town_kana": "ウケン",
    "street": null,
    "office_name": null,
    "office_name_kana": null
  },
  "2212": {
    "postcode": "9042212",
    "prefecture": "沖縄県",
    "prefecture_kana": "オキナワケン",
    "prefecture_code": 47,
    "city": "うるま市",
    "city_kana": "ウルマシ",
    "town": "赤野",
    "town_kana": "アカノ",
    "street": null,
    "office_name": null,
    "office_name_kana": null
  },
  "2213": {
    "postcode": "9042213",
    "prefecture": "沖縄県",
    "prefecture_kana": "オキナワケン",
    "prefecture_code": 47,
    "city": "うるま市",
    "city_kana": "ウルマシ",
    "town": "田場",
    "town_kana": "タバ",
    "street": null,
    "office_name": null,
    "office_name_kana": null
  },
  "2214": {
    "postcode": "9042214",
    "prefecture": "沖縄県",
    "prefecture_kana": "オキナワケン",
    "prefecture_code": 47,
    "city": "うるま市",
    "city_kana": "ウルマシ",
    "town": "安慶名",
    "town_kana": "アゲナ",
    "street": null,
    "office_name": null,
    "office_name_kana": null
  },
  "2215": {
    "postcode": "9042215",
    "prefecture": "沖縄県",
    "prefecture_kana": "オキナワケン",
    "prefecture_code": 47,
    "city": "うるま市",
    "city_kana": "ウルマシ",
    "town": "みどり町",
    "town_kana": "ミドリマチ",
    "street": null,
    "office_name": null,
    "office_name_kana": null
  },
  "2221": {
    "postcode": "9042221",
    "prefecture": "沖縄県",
    "prefecture_kana": "オキナワケン",
    "prefecture_code": 47,
    "city": "うるま市",
    "city_kana": "ウルマシ",
    "town": "平良川",
    "town_kana": "タイラガワ",
    "street": null,
    "office_name": null,
    "office_name_kana": null
  },
  "2222": {
    "postcode": "9042222",
    "prefecture": "沖縄県",
    "prefecture_kana": "オキナワケン",
    "prefecture_code": 47,
    "city": "うるま市",
    "city_kana": "ウルマシ",
    "town": "上江洲",
    "town_kana": "ウエズ",
    "street": null,
    "office_name": null,
    "office_name_kana": null
  },
  "2223": {
    "postcode": "9042223",
    "prefecture": "沖縄県",
    "prefecture_kana": "オキナワケン",
    "prefecture_code": 47,
    "city": "うるま市",
    "city_kana": "ウルマシ",
    "town": "具志川",
    "town_kana": "グシカワ",
    "street": null,
    "office_name": null,
    "office_name_kana": null
  },
  "2224": {
    "postcode": "9042224",
    "prefecture": "沖縄県",
    "prefecture_kana": "オキナワケン",
    "prefecture_code": 47,
    "city": "うるま市",
    "city_kana": "ウルマシ",
    "town": "大田",
    "town_kana": "オオタ",
    "street": null,
    "office_name": null,
    "office_name_kana": null
  },
  "2225": {
    "postcode": "9042225",
    "prefecture": "沖縄県",
    "prefecture_kana": "オキナワケン",
    "prefecture_code": 47,
    "city": "うるま市",
    "city_kana": "ウルマシ",
    "town": "喜屋武",
    "town_kana": "キャン",
    "street": null,
    "office_name": null,
    "office_name_kana": null
  },
  "2226": {
    "postcode": "9042226",
    "prefecture": "沖縄県",
    "prefecture_kana": "オキナワケン",
    "prefecture_code": 47,
    "city": "うるま市",
    "city_kana": "ウルマシ",
    "town": "仲嶺",
    "town_kana": "ナカミネ",
    "street": null,
    "office_name": null,
    "office_name_kana": null
  },
  "2231": {
    "postcode": "9042231",
    "prefecture": "沖縄県",
    "prefecture_kana": "オキナワケン",
    "prefecture_code": 47,
    "city": "うるま市",
    "city_kana": "ウルマシ",
    "town": "塩屋",
    "town_kana": "シオヤ",
    "street": null,
    "office_name": null,
    "office_name_kana": null
  },
  "2232": {
    "postcode": "9042232",
    "prefecture": "沖縄県",
    "prefecture_kana": "オキナワケン",
    "prefecture_code": 47,
    "city": "うるま市",
    "city_kana": "ウルマシ",
    "town": "川田",
    "town_kana": "カワタ",
    "street": null,
    "office_name": null,
    "office_name_kana": null
  },
  "2233": {
    "postcode": "9042233",
    "prefecture": "沖縄県",
    "prefecture_kana": "オキナワケン",
    "prefecture_code": 47,
    "city": "うるま市",
    "city_kana": "ウルマシ",
    "town": "豊原",
    "town_kana": "トヨハラ",
    "street": null,
    "office_name": null,
    "office_name_kana": null
  },
  "2234": {
    "postcode": "9042234",
    "prefecture": "沖縄県",
    "prefecture_kana": "オキナワケン",
    "prefecture_code": 47,
    "city": "うるま市",
    "city_kana": "ウルマシ",
    "town": "州崎",
    "town_kana": "スザキ",
    "street": null,
    "office_name": null,
    "office_name_kana": null
  },
  "2235": {
    "postcode": "9042235",
    "prefecture": "沖縄県",
    "prefecture_kana": "オキナワケン",
    "prefecture_code": 47,
    "city": "うるま市",
    "city_kana": "ウルマシ",
    "town": "前原",
    "town_kana": "マエハラ",
    "street": null,
    "office_name": null,
    "office_name_kana": null
  },
  "2236": {
    "postcode": "9042236",
    "prefecture": "沖縄県",
    "prefecture_kana": "オキナワケン",
    "prefecture_code": 47,
    "city": "うるま市",
    "city_kana": "ウルマシ",
    "town": "喜仲",
    "town_kana": "キナカ",
    "street": null,
    "office_name": null,
    "office_name_kana": null
  },
  "2241": {
    "postcode": "9042241",
    "prefecture": "沖縄県",
    "prefecture_kana": "オキナワケン",
    "prefecture_code": 47,
    "city": "うるま市",
    "city_kana": "ウルマシ",
    "town": "兼箇段",
    "town_kana": "カネカダン",
    "street": null,
    "office_name": null,
    "office_name_kana": null
  },
  "2242": {
    "postcode": "9042242",
    "prefecture": "沖縄県",
    "prefecture_kana": "オキナワケン",
    "prefecture_code": 47,
    "city": "うるま市",
    "city_kana": "ウルマシ",
    "town": "高江洲",
    "town_kana": "タカエス",
    "street": null,
    "office_name": null,
    "office_name_kana": null
  },
  "2243": {
    "postcode": "9042243",
    "prefecture": "沖縄県",
    "prefecture_kana": "オキナワケン",
    "prefecture_code": 47,
    "city": "うるま市",
    "city_kana": "ウルマシ",
    "town": "宮里",
    "town_kana": "ミヤザト",
    "street": null,
    "office_name": null,
    "office_name_kana": null
  },
  "2244": {
    "postcode": "9042244",
    "prefecture": "沖縄県",
    "prefecture_kana": "オキナワケン",
    "prefecture_code": 47,
    "city": "うるま市",
    "city_kana": "ウルマシ",
    "town": "江洲",
    "town_kana": "エス",
    "street": null,
    "office_name": null,
    "office_name_kana": null
  },
  "2245": {
    "postcode": "9042245",
    "prefecture": "沖縄県",
    "prefecture_kana": "オキナワケン",
    "prefecture_code": 47,
    "city": "うるま市",
    "city_kana": "ウルマシ",
    "town": "赤道",
    "town_kana": "アカミチ",
    "street": null,
    "office_name": null,
    "office_name_kana": null
  },
  "2292": {
    "postcode": "9042292",
    "prefecture": "沖縄県",
    "prefecture_kana": "オキナワケン",
    "prefecture_code": 47,
    "city": "うるま市",
    "city_kana": "ウルマシ",
    "town": "みどり町",
    "town_kana": "ミドリマチ",
    "street": "１丁目１−１",
    "office_name": "うるま市役所",
    "office_name_kana": "ウルマシヤクシヨ"
  },
  "2293": {
    "postcode": "9042293",
    "prefecture": "沖縄県",
    "prefecture_kana": "オキナワケン",
    "prefecture_code": 47,
    "city": "うるま市",
    "city_kana": "ウルマシ",
    "town": "字宮里",
    "town_kana": null,
    "street": "２８１",
    "office_name": "沖縄県立　中部病院",
    "office_name_kana": "オキナワケンリツ チユウブビヨウイン"
  },
  "2294": {
    "postcode": "9042294",
    "prefecture": "沖縄県",
    "prefecture_kana": "オキナワケン",
    "prefecture_code": 47,
    "city": "うるま市",
    "city_kana": "ウルマシ",
    "town": "字州崎",
    "town_kana": null,
    "street": "１４番１７沖縄ＩＴ津染パーク中核機能支援施設Ｂ棟３０１号室",
    "office_name": "株式会社　スピア",
    "office_name_kana": "カブシキガイシヤ スピア"
  },
  "2301": {
    "postcode": "9042301",
    "prefecture": "沖縄県",
    "prefecture_kana": "オキナワケン",
    "prefecture_code": 47,
    "city": "うるま市",
    "city_kana": "ウルマシ",
    "town": "与那城照間",
    "town_kana": "ヨナシロテルマ",
    "street": null,
    "office_name": null,
    "office_name_kana": null
  },
  "2302": {
    "postcode": "9042302",
    "prefecture": "沖縄県",
    "prefecture_kana": "オキナワケン",
    "prefecture_code": 47,
    "city": "うるま市",
    "city_kana": "ウルマシ",
    "town": "与那城西原",
    "town_kana": "ヨナシロニシハラ",
    "street": null,
    "office_name": null,
    "office_name_kana": null
  },
  "2303": {
    "postcode": "9042303",
    "prefecture": "沖縄県",
    "prefecture_kana": "オキナワケン",
    "prefecture_code": 47,
    "city": "うるま市",
    "city_kana": "ウルマシ",
    "town": "与那城",
    "town_kana": "ヨナシロ",
    "street": null,
    "office_name": null,
    "office_name_kana": null
  },
  "2304": {
    "postcode": "9042304",
    "prefecture": "沖縄県",
    "prefecture_kana": "オキナワケン",
    "prefecture_code": 47,
    "city": "うるま市",
    "city_kana": "ウルマシ",
    "town": "与那城屋慶名",
    "town_kana": "ヨナシロヤケナ",
    "street": null,
    "office_name": null,
    "office_name_kana": null
  },
  "2305": {
    "postcode": "9042305",
    "prefecture": "沖縄県",
    "prefecture_kana": "オキナワケン",
    "prefecture_code": 47,
    "city": "うるま市",
    "city_kana": "ウルマシ",
    "town": "与那城中央",
    "town_kana": "ヨナシロチュウオウ",
    "street": null,
    "office_name": null,
    "office_name_kana": null
  },
  "2306": {
    "postcode": "9042306",
    "prefecture": "沖縄県",
    "prefecture_kana": "オキナワケン",
    "prefecture_code": 47,
    "city": "うるま市",
    "city_kana": "ウルマシ",
    "town": "与那城安勢理",
    "town_kana": "ヨナシロアセリ",
    "street": null,
    "office_name": null,
    "office_name_kana": null
  },
  "2307": {
    "postcode": "9042307",
    "prefecture": "沖縄県",
    "prefecture_kana": "オキナワケン",
    "prefecture_code": 47,
    "city": "うるま市",
    "city_kana": "ウルマシ",
    "town": "与那城饒辺",
    "town_kana": "ヨナシロノヘン",
    "street": null,
    "office_name": null,
    "office_name_kana": null
  },
  "2311": {
    "postcode": "9042311",
    "prefecture": "沖縄県",
    "prefecture_kana": "オキナワケン",
    "prefecture_code": 47,
    "city": "うるま市",
    "city_kana": "ウルマシ",
    "town": "勝連南風原",
    "town_kana": "カツレンハエバル",
    "street": null,
    "office_name": null,
    "office_name_kana": null
  },
  "2312": {
    "postcode": "9042312",
    "prefecture": "沖縄県",
    "prefecture_kana": "オキナワケン",
    "prefecture_code": 47,
    "city": "うるま市",
    "city_kana": "ウルマシ",
    "town": "勝連平安名",
    "town_kana": "カツレンヘンナ",
    "street": null,
    "office_name": null,
    "office_name_kana": null
  },
  "2313": {
    "postcode": "9042313",
    "prefecture": "沖縄県",
    "prefecture_kana": "オキナワケン",
    "prefecture_code": 47,
    "city": "うるま市",
    "city_kana": "ウルマシ",
    "town": "勝連内間",
    "town_kana": "カツレンウチマ",
    "street": null,
    "office_name": null,
    "office_name_kana": null
  },
  "2314": {
    "postcode": "9042314",
    "prefecture": "沖縄県",
    "prefecture_kana": "オキナワケン",
    "prefecture_code": 47,
    "city": "うるま市",
    "city_kana": "ウルマシ",
    "town": "勝連平敷屋",
    "town_kana": "カツレンヘシキヤ",
    "street": null,
    "office_name": null,
    "office_name_kana": null
  },
  "2315": {
    "postcode": "9042315",
    "prefecture": "沖縄県",
    "prefecture_kana": "オキナワケン",
    "prefecture_code": 47,
    "city": "うるま市",
    "city_kana": "ウルマシ",
    "town": "勝連浜",
    "town_kana": "カツレンハマ",
    "street": null,
    "office_name": null,
    "office_name_kana": null
  },
  "2316": {
    "postcode": "9042316",
    "prefecture": "沖縄県",
    "prefecture_kana": "オキナワケン",
    "prefecture_code": 47,
    "city": "うるま市",
    "city_kana": "ウルマシ",
    "town": "勝連比嘉",
    "town_kana": "カツレンヒガ",
    "street": null,
    "office_name": null,
    "office_name_kana": null
  },
  "2317": {
    "postcode": "9042317",
    "prefecture": "沖縄県",
    "prefecture_kana": "オキナワケン",
    "prefecture_code": 47,
    "city": "うるま市",
    "city_kana": "ウルマシ",
    "town": "勝連津堅",
    "town_kana": "カツレンツケン",
    "street": null,
    "office_name": null,
    "office_name_kana": null
  },
  "2392": {
    "postcode": "9042392",
    "prefecture": "沖縄県",
    "prefecture_kana": "オキナワケン",
    "prefecture_code": 47,
    "city": "うるま市",
    "city_kana": "ウルマシ",
    "town": "勝連平安名",
    "town_kana": "カツレンヘンナ",
    "street": "３０３２",
    "office_name": "うるま市役所　勝連庁舎",
    "office_name_kana": "ウルマシヤクシヨ カツレンチヨウシヤ"
  },
  "2393": {
    "postcode": "9042393",
    "prefecture": "沖縄県",
    "prefecture_kana": "オキナワケン",
    "prefecture_code": 47,
    "city": "うるま市",
    "city_kana": "ウルマシ",
    "town": "与那城中央",
    "town_kana": "ヨナシロチュウオウ",
    "street": "１",
    "office_name": "うるま市役所　与那城庁舎",
    "office_name_kana": "ウルマシヤクシヨ ヨナシロチヨウシヤ"
  },
  "2394": {
    "postcode": "9042394",
    "prefecture": "沖縄県",
    "prefecture_kana": "オキナワケン",
    "prefecture_code": 47,
    "city": "うるま市",
    "city_kana": "ウルマシ",
    "town": "勝連平敷屋",
    "town_kana": "カツレンヘシキヤ",
    "street": "１９２０",
    "office_name": "海上自衛隊　沖縄基地隊",
    "office_name_kana": "カイジヨウジエイタイ オキナワキチタイ"
  },
  "2421": {
    "postcode": "9042421",
    "prefecture": "沖縄県",
    "prefecture_kana": "オキナワケン",
    "prefecture_code": 47,
    "city": "うるま市",
    "city_kana": "ウルマシ",
    "town": "与那城伊計",
    "town_kana": "ヨナシロイケイ",
    "street": null,
    "office_name": null,
    "office_name_kana": null
  },
  "2422": {
    "postcode": "9042422",
    "prefecture": "沖縄県",
    "prefecture_kana": "オキナワケン",
    "prefecture_code": 47,
    "city": "うるま市",
    "city_kana": "ウルマシ",
    "town": "与那城池味",
    "town_kana": "ヨナシロイケミ",
    "street": null,
    "office_name": null,
    "office_name_kana": null
  },
  "2423": {
    "postcode": "9042423",
    "prefecture": "沖縄県",
    "prefecture_kana": "オキナワケン",
    "prefecture_code": 47,
    "city": "うるま市",
    "city_kana": "ウルマシ",
    "town": "与那城宮城",
    "town_kana": "ヨナシロミヤギ",
    "street": null,
    "office_name": null,
    "office_name_kana": null
  },
  "2424": {
    "postcode": "9042424",
    "prefecture": "沖縄県",
    "prefecture_kana": "オキナワケン",
    "prefecture_code": 47,
    "city": "うるま市",
    "city_kana": "ウルマシ",
    "town": "与那城上原",
    "town_kana": "ヨナシロウエハラ",
    "street": null,
    "office_name": null,
    "office_name_kana": null
  },
  "2425": {
    "postcode": "9042425",
    "prefecture": "沖縄県",
    "prefecture_kana": "オキナワケン",
    "prefecture_code": 47,
    "city": "うるま市",
    "city_kana": "ウルマシ",
    "town": "与那城桃原",
    "town_kana": "ヨナシロトウバル",
    "street": null,
    "office_name": null,
    "office_name_kana": null
  },
  "2426": {
    "postcode": "9042426",
    "prefecture": "沖縄県",
    "prefecture_kana": "オキナワケン",
    "prefecture_code": 47,
    "city": "うるま市",
    "city_kana": "ウルマシ",
    "town": "与那城平安座",
    "town_kana": "ヨナシロヘンザ",
    "street": null,
    "office_name": null,
    "office_name_kana": null
  },
  "2427": {
    "postcode": "9042427",
    "prefecture": "沖縄県",
    "prefecture_kana": "オキナワケン",
    "prefecture_code": 47,
    "city": "うるま市",
    "city_kana": "ウルマシ",
    "town": "与那城屋平",
    "town_kana": "ヨナシロヤヒラ",
    "street": null,
    "office_name": null,
    "office_name_kana": null
  },
  "2428": {
    "postcode": "9042428",
    "prefecture": "沖縄県",
    "prefecture_kana": "オキナワケン",
    "prefecture_code": 47,
    "city": "うるま市",
    "city_kana": "ウルマシ",
    "town": "与那城平宮",
    "town_kana": "ヨナシロヒラミヤ",
    "street": null,
    "office_name": null,
    "office_name_kana": null
  },
  "8501": {
    "postcode": "9048501",
    "prefecture": "沖縄県",
    "prefecture_kana": "オキナワケン",
    "prefecture_code": 47,
    "city": "沖縄市",
    "city_kana": "オキナワシ",
    "town": "仲宗根町",
    "town_kana": "ナカソネチョウ",
    "street": "２６−１",
    "office_name": "沖縄市役所",
    "office_name_kana": "オキナワシヤクシヨ"
  },
  "8511": {
    "postcode": "9048511",
    "prefecture": "沖縄県",
    "prefecture_kana": "オキナワケン",
    "prefecture_code": 47,
    "city": "沖縄市",
    "city_kana": "オキナワシ",
    "town": "胡屋",
    "town_kana": "ゴヤ",
    "street": "１丁目５−１",
    "office_name": "ＮＴＴ　コザ営業所",
    "office_name_kana": "エヌテイテイ コザエイギヨウシヨ"
  },
  "8585": {
    "postcode": "9048585",
    "prefecture": "沖縄県",
    "prefecture_kana": "オキナワケン",
    "prefecture_code": 47,
    "city": "沖縄市",
    "city_kana": "オキナワシ",
    "town": "照屋",
    "town_kana": "テルヤ",
    "street": "３丁目２０−１",
    "office_name": "中部徳洲会",
    "office_name_kana": "チユウブトクシユウカイ"
  },
  "8686": {
    "postcode": "9048686",
    "prefecture": "沖縄県",
    "prefecture_kana": "オキナワケン",
    "prefecture_code": 47,
    "city": "沖縄市",
    "city_kana": "オキナワシ",
    "town": "胡屋",
    "town_kana": "ゴヤ",
    "street": "１−３−１０",
    "office_name": "（株）　沖縄タイムス社　中部支社",
    "office_name_kana": "(カブ) オキナワタイムスシヤ チユウブシシヤ"
  }
}