{
  "0000": {
    "postcode": "9050000",
    "prefecture": "沖縄県",
    "prefecture_kana": "オキナワケン",
    "prefecture_code": 47,
    "city": "名護市",
    "city_kana": "ナゴシ",
    "town": "",
    "town_kana": "",
    "street": null,
    "office_name": null,
    "office_name_kana": null
  },
  "0001": {
    "postcode": "9050001",
    "prefecture": "沖縄県",
    "prefecture_kana": "オキナワケン",
    "prefecture_code": 47,
    "city": "名護市",
    "city_kana": "ナゴシ",
    "town": "安和",
    "town_kana": "アワ",
    "street": null,
    "office_name": null,
    "office_name_kana": null
  },
  "0002": {
    "postcode": "9050002",
    "prefecture": "沖縄県",
    "prefecture_kana": "オキナワケン",
    "prefecture_code": 47,
    "city": "名護市",
    "city_kana": "ナゴシ",
    "town": "勝山",
    "town_kana": "カツヤマ",
    "street": null,
    "office_name": null,
    "office_name_kana": null
  },
  "0003": {
    "postcode": "9050003",
    "prefecture": "沖縄県",
    "prefecture_kana": "オキナワケン",
    "prefecture_code": 47,
    "city": "名護市",
    "city_kana": "ナゴシ",
    "town": "旭川",
    "town_kana": "アサヒカワ",
    "street": null,
    "office_name": null,
    "office_name_kana": null
  },
  "0004": {
    "postcode": "9050004",
    "prefecture": "沖縄県",
    "prefecture_kana": "オキナワケン",
    "prefecture_code": 47,
    "city": "名護市",
    "city_kana": "ナゴシ",
    "town": "中山",
    "town_kana": "ナカヤマ",
    "street": null,
    "office_name": null,
    "office_name_kana": null
  },
  "0005": {
    "postcode": "9050005",
    "prefecture": "沖縄県",
    "prefecture_kana": "オキナワケン",
    "prefecture_code": 47,
    "city": "名護市",
    "city_kana": "ナゴシ",
    "town": "為又",
    "town_kana": "ビイマタ",
    "street": null,
    "office_name": null,
    "office_name_kana": null
  },
  "0006": {
    "postcode": "9050006",
    "prefecture": "沖縄県",
    "prefecture_kana": "オキナワケン",
    "prefecture_code": 47,
    "city": "名護市",
    "city_kana": "ナゴシ",
    "town": "宇茂佐",
    "town_kana": "ウムサ",
    "street": null,
    "office_name": null,
    "office_name_kana": null
  },
  "0007": {
    "postcode": "9050007",
    "prefecture": "沖縄県",
    "prefecture_kana": "オキナワケン",
    "prefecture_code": 47,
    "city": "名護市",
    "city_kana": "ナゴシ",
    "town": "屋部",
    "town_kana": "ヤブ",
    "street": null,
    "office_name": null,
    "office_name_kana": null
  },
  "0008": {
    "postcode": "9050008",
    "prefecture": "沖縄県",
    "prefecture_kana": "オキナワケン",
    "prefecture_code": 47,
    "city": "名護市",
    "city_kana": "ナゴシ",
    "town": "山入端",
    "town_kana": "ヤマノハ",
    "street": null,
    "office_name": null,
    "office_name_kana": null
  },
  "0009": {
    "postcode": "9050009",
    "prefecture": "沖縄県",
    "prefecture_kana": "オキナワケン",
    "prefecture_code": 47,
    "city": "名護市",
    "city_kana": "ナゴシ",
    "town": "宇茂佐の森",
    "town_kana": "ウムサノモリ",
    "street": null,
    "office_name": null,
    "office_name_kana": null
  },
  "0011": {
    "postcode": "9050011",
    "prefecture": "沖縄県",
    "prefecture_kana": "オキナワケン",
    "prefecture_code": 47,
    "city": "名護市",
    "city_kana": "ナゴシ",
    "town": "宮里",
    "town_kana": "ミヤザト",
    "street": null,
    "office_name": null,
    "office_name_kana": null
  },
  "0012": {
    "postcode": "9050012",
    "prefecture": "沖縄県",
    "prefecture_kana": "オキナワケン",
    "prefecture_code": 47,
    "city": "名護市",
    "city_kana": "ナゴシ",
    "town": "名護",
    "town_kana": "ナゴ",
    "street": null,
    "office_name": null,
    "office_name_kana": null
  },
  "0013": {
    "postcode": "9050013",
    "prefecture": "沖縄県",
    "prefecture_kana": "オキナワケン",
    "prefecture_code": 47,
    "city": "名護市",
    "city_kana": "ナゴシ",
    "town": "城",
    "town_kana": "グスク",
    "street": null,
    "office_name": null,
    "office_name_kana": null
  },
  "0014": {
    "postcode": "9050014",
    "prefecture": "沖縄県",
    "prefecture_kana": "オキナワケン",
    "prefecture_code": 47,
    "city": "名護市",
    "city_kana": "ナゴシ",
    "town": "港",
    "town_kana": "ミナト",
    "street": null,
    "office_name": null,
    "office_name_kana": null
  },
  "0015": {
    "postcode": "9050015",
    "prefecture": "沖縄県",
    "prefecture_kana": "オキナワケン",
    "prefecture_code": 47,
    "city": "名護市",
    "city_kana": "ナゴシ",
    "town": "大南",
    "town_kana": "オオミナミ",
    "street": null,
    "office_name": null,
    "office_name_kana": null
  },
  "0016": {
    "postcode": "9050016",
    "prefecture": "沖縄県",
    "prefecture_kana": "オキナワケン",
    "prefecture_code": 47,
    "city": "名護市",
    "city_kana": "ナゴシ",
    "town": "大東",
    "town_kana": "オオヒガシ",
    "street": null,
    "office_name": null,
    "office_name_kana": null
  },
  "0017": {
    "postcode": "9050017",
    "prefecture": "沖縄県",
    "prefecture_kana": "オキナワケン",
    "prefecture_code": 47,
    "city": "名護市",
    "city_kana": "ナゴシ",
    "town": "大中",
    "town_kana": "オオナカ",
    "street": null,
    "office_name": null,
    "office_name_kana": null
  },
  "0018": {
    "postcode": "9050018",
    "prefecture": "沖縄県",
    "prefecture_kana": "オキナワケン",
    "prefecture_code": 47,
    "city": "名護市",
    "city_kana": "ナゴシ",
    "town": "大西",
    "town_kana": "オオニシ",
    "street": null,
    "office_name": null,
    "office_name_kana": null
  },
  "0019": {
    "postcode": "9050019",
    "prefecture": "沖縄県",
    "prefecture_kana": "オキナワケン",
    "prefecture_code": 47,
    "city": "名護市",
    "city_kana": "ナゴシ",
    "town": "大北",
    "town_kana": "オオキタ",
    "street": null,
    "office_name": null,
    "office_name_kana": null
  },
  "0021": {
    "postcode": "9050021",
    "prefecture": "沖縄県",
    "prefecture_kana": "オキナワケン",
    "prefecture_code": 47,
    "city": "名護市",
    "city_kana": "ナゴシ",
    "town": "東江",
    "town_kana": "アガリエ",
    "street": null,
    "office_name": null,
    "office_name_kana": null
  },
  "0022": {
    "postcode": "9050022",
    "prefecture": "沖縄県",
    "prefecture_kana": "オキナワケン",
    "prefecture_code": 47,
    "city": "名護市",
    "city_kana": "ナゴシ",
    "town": "世冨慶",
    "town_kana": "ヨフケ",
    "street": null,
    "office_name": null,
    "office_name_kana": null
  },
  "0023": {
    "postcode": "9050023",
    "prefecture": "沖縄県",
    "prefecture_kana": "オキナワケン",
    "prefecture_code": 47,
    "city": "名護市",
    "city_kana": "ナゴシ",
    "town": "数久田",
    "town_kana": "スクタ",
    "street": null,
    "office_name": null,
    "office_name_kana": null
  },
  "0024": {
    "postcode": "9050024",
    "prefecture": "沖縄県",
    "prefecture_kana": "オキナワケン",
    "prefecture_code": 47,
    "city": "名護市",
    "city_kana": "ナゴシ",
    "town": "許田",
    "town_kana": "キョダ",
    "street": null,
    "office_name": null,
    "office_name_kana": null
  },
  "0025": {
    "postcode": "9050025",
    "prefecture": "沖縄県",
    "prefecture_kana": "オキナワケン",
    "prefecture_code": 47,
    "city": "名護市",
    "city_kana": "ナゴシ",
    "town": "幸喜",
    "town_kana": "コウキ",
    "street": null,
    "office_name": null,
    "office_name_kana": null
  },
  "0026": {
    "postcode": "9050026",
    "prefecture": "沖縄県",
    "prefecture_kana": "オキナワケン",
    "prefecture_code": 47,
    "city": "名護市",
    "city_kana": "ナゴシ",
    "town": "喜瀬",
    "town_kana": "キセ",
    "street": null,
    "office_name": null,
    "office_name_kana": null
  },
  "0200": {
    "postcode": "9050200",
    "prefecture": "沖縄県",
    "prefecture_kana": "オキナワケン",
    "prefecture_code": 47,
    "city": "国頭郡本部町",
    "city_kana": "クニガミグンモトブチョウ",
    "town": "",
    "town_kana": "",
    "street": null,
    "office_name": null,
    "office_name_kana": null
  },
  "0201": {
    "postcode": "9050201",
    "prefecture": "沖縄県",
    "prefecture_kana": "オキナワケン",
    "prefecture_code": 47,
    "city": "国頭郡本部町",
    "city_kana": "クニガミグンモトブチョウ",
    "town": "具志堅",
    "town_kana": "グシケン",
    "street": null,
    "office_name": null,
    "office_name_kana": null
  },
  "0202": {
    "postcode": "9050202",
    "prefecture": "沖縄県",
    "prefecture_kana": "オキナワケン",
    "prefecture_code": 47,
    "city": "国頭郡本部町",
    "city_kana": "クニガミグンモトブチョウ",
    "town": "嘉津宇",
    "town_kana": "カツウ",
    "street": null,
    "office_name": null,
    "office_name_kana": null
  },
  "0203": {
    "postcode": "9050203",
    "prefecture": "沖縄県",
    "prefecture_kana": "オキナワケン",
    "prefecture_code": 47,
    "city": "国頭郡本部町",
    "city_kana": "クニガミグンモトブチョウ",
    "town": "謝花",
    "town_kana": "ジャハナ",
    "street": null,
    "office_name": null,
    "office_name_kana": null
  },
  "0204": {
    "postcode": "9050204",
    "prefecture": "沖縄県",
    "prefecture_kana": "オキナワケン",
    "prefecture_code": 47,
    "city": "国頭郡本部町",
    "city_kana": "クニガミグンモトブチョウ",
    "town": "豊原",
    "town_kana": "トヨハラ",
    "street": null,
    "office_name": null,
    "office_name_kana": null
  },
  "0205": {
    "postcode": "9050205",
    "prefecture": "沖縄県",
    "prefecture_kana": "オキナワケン",
    "prefecture_code": 47,
    "city": "国頭郡本部町",
    "city_kana": "クニガミグンモトブチョウ",
    "town": "山川",
    "town_kana": "ヤマカワ",
    "street": null,
    "office_name": null,
    "office_name_kana": null
  },
  "0206": {
    "postcode": "9050206",
    "prefecture": "沖縄県",
    "prefecture_kana": "オキナワケン",
    "prefecture_code": 47,
    "city": "国頭郡本部町",
    "city_kana": "クニガミグンモトブチョウ",
    "town": "石川",
    "town_kana": "イシカワ",
    "street": null,
    "office_name": null,
    "office_name_kana": null
  },
  "0207": {
    "postcode": "9050207",
    "prefecture": "沖縄県",
    "prefecture_kana": "オキナワケン",
    "prefecture_code": 47,
    "city": "国頭郡本部町",
    "city_kana": "クニガミグンモトブチョウ",
    "town": "備瀬",
    "town_kana": "ビセ",
    "street": null,
    "office_name": null,
    "office_name_kana": null
  },
  "0208": {
    "postcode": "9050208",
    "prefecture": "沖縄県",
    "prefecture_kana": "オキナワケン",
    "prefecture_code": 47,
    "city": "国頭郡本部町",
    "city_kana": "クニガミグンモトブチョウ",
    "town": "新里",
    "town_kana": "シンザト",
    "street": null,
    "office_name": null,
    "office_name_kana": null
  },
  "0209": {
    "postcode": "9050209",
    "prefecture": "沖縄県",
    "prefecture_kana": "オキナワケン",
    "prefecture_code": 47,
    "city": "国頭郡本部町",
    "city_kana": "クニガミグンモトブチョウ",
    "town": "北里",
    "town_kana": "キタザト",
    "street": null,
    "office_name": null,
    "office_name_kana": null
  },
  "0211": {
    "postcode": "9050211",
    "prefecture": "沖縄県",
    "prefecture_kana": "オキナワケン",
    "prefecture_code": 47,
    "city": "国頭郡本部町",
    "city_kana": "クニガミグンモトブチョウ",
    "town": "東",
    "town_kana": "ヒガシ",
    "street": null,
    "office_name": null,
    "office_name_kana": null
  },
  "0212": {
    "postcode": "9050212",
    "prefecture": "沖縄県",
    "prefecture_kana": "オキナワケン",
    "prefecture_code": 47,
    "city": "国頭郡本部町",
    "city_kana": "クニガミグンモトブチョウ",
    "town": "大浜",
    "town_kana": "オオハマ",
    "street": null,
    "office_name": null,
    "office_name_kana": null
  },
  "0213": {
    "postcode": "9050213",
    "prefecture": "沖縄県",
    "prefecture_kana": "オキナワケン",
    "prefecture_code": 47,
    "city": "国頭郡本部町",
    "city_kana": "クニガミグンモトブチョウ",
    "town": "谷茶",
    "town_kana": "タンチャ",
    "street": null,
    "office_name": null,
    "office_name_kana": null
  },
  "0214": {
    "postcode": "9050214",
    "prefecture": "沖縄県",
    "prefecture_kana": "オキナワケン",
    "prefecture_code": 47,
    "city": "国頭郡本部町",
    "city_kana": "クニガミグンモトブチョウ",
    "town": "渡久地",
    "town_kana": "トグチ",
    "street": null,
    "office_name": null,
    "office_name_kana": null
  },
  "0215": {
    "postcode": "9050215",
    "prefecture": "沖縄県",
    "prefecture_kana": "オキナワケン",
    "prefecture_code": 47,
    "city": "国頭郡本部町",
    "city_kana": "クニガミグンモトブチョウ",
    "town": "野原",
    "town_kana": "ノバル",
    "street": null,
    "office_name": null,
    "office_name_kana": null
  },
  "0216": {
    "postcode": "9050216",
    "prefecture": "沖縄県",
    "prefecture_kana": "オキナワケン",
    "prefecture_code": 47,
    "city": "国頭郡本部町",
    "city_kana": "クニガミグンモトブチョウ",
    "town": "浜元",
    "town_kana": "ハマモト",
    "street": null,
    "office_name": null,
    "office_name_kana": null
  },
  "0217": {
    "postcode": "9050217",
    "prefecture": "沖縄県",
    "prefecture_kana": "オキナワケン",
    "prefecture_code": 47,
    "city": "国頭郡本部町",
    "city_kana": "クニガミグンモトブチョウ",
    "town": "浦崎",
    "town_kana": "ウラサキ",
    "street": null,
    "office_name": null,
    "office_name_kana": null
  },
  "0218": {
    "postcode": "9050218",
    "prefecture": "沖縄県",
    "prefecture_kana": "オキナワケン",
    "prefecture_code": 47,
    "city": "国頭郡本部町",
    "city_kana": "クニガミグンモトブチョウ",
    "town": "古島",
    "town_kana": "フルジマ",
    "street": null,
    "office_name": null,
    "office_name_kana": null
  },
  "0219": {
    "postcode": "9050219",
    "prefecture": "沖縄県",
    "prefecture_kana": "オキナワケン",
    "prefecture_code": 47,
    "city": "国頭郡本部町",
    "city_kana": "クニガミグンモトブチョウ",
    "town": "山里",
    "town_kana": "ヤマザト",
    "street": null,
    "office_name": null,
    "office_name_kana": null
  },
  "0221": {
    "postcode": "9050221",
    "prefecture": "沖縄県",
    "prefecture_kana": "オキナワケン",
    "prefecture_code": 47,
    "city": "国頭郡本部町",
    "city_kana": "クニガミグンモトブチョウ",
    "town": "伊豆味",
    "town_kana": "イズミ",
    "street": null,
    "office_name": null,
    "office_name_kana": null
  },
  "0222": {
    "postcode": "9050222",
    "prefecture": "沖縄県",
    "prefecture_kana": "オキナワケン",
    "prefecture_code": 47,
    "city": "国頭郡本部町",
    "city_kana": "クニガミグンモトブチョウ",
    "town": "並里",
    "town_kana": "ナミザト",
    "street": null,
    "office_name": null,
    "office_name_kana": null
  },
  "0223": {
    "postcode": "9050223",
    "prefecture": "沖縄県",
    "prefecture_kana": "オキナワケン",
    "prefecture_code": 47,
    "city": "国頭郡本部町",
    "city_kana": "クニガミグンモトブチョウ",
    "town": "大嘉陽",
    "town_kana": "オオカヨウ",
    "street": null,
    "office_name": null,
    "office_name_kana": null
  },
  "0224": {
    "postcode": "9050224",
    "prefecture": "沖縄県",
    "prefecture_kana": "オキナワケン",
    "prefecture_code": 47,
    "city": "国頭郡本部町",
    "city_kana": "クニガミグンモトブチョウ",
    "town": "辺名地",
    "town_kana": "ヘナジ",
    "street": null,
    "office_name": null,
    "office_name_kana": null
  },
  "0225": {
    "postcode": "9050225",
    "prefecture": "沖縄県",
    "prefecture_kana": "オキナワケン",
    "prefecture_code": 47,
    "city": "国頭郡本部町",
    "city_kana": "クニガミグンモトブチョウ",
    "town": "崎本部",
    "town_kana": "サキモトブ",
    "street": null,
    "office_name": null,
    "office_name_kana": null
  },
  "0226": {
    "postcode": "9050226",
    "prefecture": "沖縄県",
    "prefecture_kana": "オキナワケン",
    "prefecture_code": 47,
    "city": "国頭郡本部町",
    "city_kana": "クニガミグンモトブチョウ",
    "town": "健堅",
    "town_kana": "ケンケン",
    "street": null,
    "office_name": null,
    "office_name_kana": null
  },
  "0227": {
    "postcode": "9050227",
    "prefecture": "沖縄県",
    "prefecture_kana": "オキナワケン",
    "prefecture_code": 47,
    "city": "国頭郡本部町",
    "city_kana": "クニガミグンモトブチョウ",
    "town": "瀬底",
    "town_kana": "セソコ",
    "street": null,
    "office_name": null,
    "office_name_kana": null
  },
  "0228": {
    "postcode": "9050228",
    "prefecture": "沖縄県",
    "prefecture_kana": "オキナワケン",
    "prefecture_code": 47,
    "city": "国頭郡本部町",
    "city_kana": "クニガミグンモトブチョウ",
    "town": "伊野波",
    "town_kana": "イノハ",
    "street": null,
    "office_name": null,
    "office_name_kana": null
  },
  "0229": {
    "postcode": "9050229",
    "prefecture": "沖縄県",
    "prefecture_kana": "オキナワケン",
    "prefecture_code": 47,
    "city": "国頭郡本部町",
    "city_kana": "クニガミグンモトブチョウ",
    "town": "大堂",
    "town_kana": "ウフドウ",
    "street": null,
    "office_name": null,
    "office_name_kana": null
  },
  "0292": {
    "postcode": "9050292",
    "prefecture": "沖縄県",
    "prefecture_kana": "オキナワケン",
    "prefecture_code": 47,
    "city": "国頭郡本部町",
    "city_kana": "クニガミグンモトブチョウ",
    "town": "字東",
    "town_kana": null,
    "street": "５",
    "office_name": "本部町役場",
    "office_name_kana": "モトブチヨウヤクバ"
  },
  "0400": {
    "postcode": "9050400",
    "prefecture": "沖縄県",
    "prefecture_kana": "オキナワケン",
    "prefecture_code": 47,
    "city": "国頭郡今帰仁村",
    "city_kana": "クニガミグンナキジンソン",
    "town": "",
    "town_kana": "",
    "street": null,
    "office_name": null,
    "office_name_kana": null
  },
  "0401": {
    "postcode": "9050401",
    "prefecture": "沖縄県",
    "prefecture_kana": "オキナワケン",
    "prefecture_code": 47,
    "city": "国頭郡今帰仁村",
    "city_kana": "クニガミグンナキジンソン",
    "town": "仲宗根",
    "town_kana": "ナカソネ",
    "street": null,
    "office_name": null,
    "office_name_kana": null
  },
  "0402": {
    "postcode": "9050402",
    "prefecture": "沖縄県",
    "prefecture_kana": "オキナワケン",
    "prefecture_code": 47,
    "city": "国頭郡今帰仁村",
    "city_kana": "クニガミグンナキジンソン",
    "town": "渡喜仁",
    "town_kana": "トキジン",
    "street": null,
    "office_name": null,
    "office_name_kana": null
  },
  "0403": {
    "postcode": "9050403",
    "prefecture": "沖縄県",
    "prefecture_kana": "オキナワケン",
    "prefecture_code": 47,
    "city": "国頭郡今帰仁村",
    "city_kana": "クニガミグンナキジンソン",
    "town": "運天",
    "town_kana": "ウンテン",
    "street": null,
    "office_name": null,
    "office_name_kana": null
  },
  "0404": {
    "postcode": "9050404",
    "prefecture": "沖縄県",
    "prefecture_kana": "オキナワケン",
    "prefecture_code": 47,
    "city": "国頭郡今帰仁村",
    "city_kana": "クニガミグンナキジンソン",
    "town": "上運天",
    "town_kana": "カミウンテン",
    "street": null,
    "office_name": null,
    "office_name_kana": null
  },
  "0405": {
    "postcode": "9050405",
    "prefecture": "沖縄県",
    "prefecture_kana": "オキナワケン",
    "prefecture_code": 47,
    "city": "国頭郡今帰仁村",
    "city_kana": "クニガミグンナキジンソン",
    "town": "勢理客",
    "town_kana": "セリキャク",
    "street": null,
    "office_name": null,
    "office_name_kana": null
  },
  "0406": {
    "postcode": "9050406",
    "prefecture": "沖縄県",
    "prefecture_kana": "オキナワケン",
    "prefecture_code": 47,
    "city": "国頭郡今帰仁村",
    "city_kana": "クニガミグンナキジンソン",
    "town": "古宇利",
    "town_kana": "コウリ",
    "street": null,
    "office_name": null,
    "office_name_kana": null
  },
  "0411": {
    "postcode": "9050411",
    "prefecture": "沖縄県",
    "prefecture_kana": "オキナワケン",
    "prefecture_code": 47,
    "city": "国頭郡今帰仁村",
    "city_kana": "クニガミグンナキジンソン",
    "town": "天底",
    "town_kana": "アメソコ",
    "street": null,
    "office_name": null,
    "office_name_kana": null
  },
  "0412": {
    "postcode": "9050412",
    "prefecture": "沖縄県",
    "prefecture_kana": "オキナワケン",
    "prefecture_code": 47,
    "city": "国頭郡今帰仁村",
    "city_kana": "クニガミグンナキジンソン",
    "town": "湧川",
    "town_kana": "ワクガワ",
    "street": null,
    "office_name": null,
    "office_name_kana": null
  },
  "0413": {
    "postcode": "9050413",
    "prefecture": "沖縄県",
    "prefecture_kana": "オキナワケン",
    "prefecture_code": 47,
    "city": "国頭郡今帰仁村",
    "city_kana": "クニガミグンナキジンソン",
    "town": "呉我山",
    "town_kana": "ゴガヤマ",
    "street": null,
    "office_name": null,
    "office_name_kana": null
  },
  "0414": {
    "postcode": "9050414",
    "prefecture": "沖縄県",
    "prefecture_kana": "オキナワケン",
    "prefecture_code": 47,
    "city": "国頭郡今帰仁村",
    "city_kana": "クニガミグンナキジンソン",
    "town": "謝名",
    "town_kana": "ジャナ",
    "street": null,
    "office_name": null,
    "office_name_kana": null
  },
  "0415": {
    "postcode": "9050415",
    "prefecture": "沖縄県",
    "prefecture_kana": "オキナワケン",
    "prefecture_code": 47,
    "city": "国頭郡今帰仁村",
    "city_kana": "クニガミグンナキジンソン",
    "town": "玉城",
    "town_kana": "タマシロ",
    "street": null,
    "office_name": null,
    "office_name_kana": null
  },
  "0421": {
    "postcode": "9050421",
    "prefecture": "沖縄県",
    "prefecture_kana": "オキナワケン",
    "prefecture_code": 47,
    "city": "国頭郡今帰仁村",
    "city_kana": "クニガミグンナキジンソン",
    "town": "越地",
    "town_kana": "コエチ",
    "street": null,
    "office_name": null,
    "office_name_kana": null
  },
  "0422": {
    "postcode": "9050422",
    "prefecture": "沖縄県",
    "prefecture_kana": "オキナワケン",
    "prefecture_code": 47,
    "city": "国頭郡今帰仁村",
    "city_kana": "クニガミグンナキジンソン",
    "town": "崎山",
    "town_kana": "サキヤマ",
    "street": null,
    "office_name": null,
    "office_name_kana": null
  },
  "0423": {
    "postcode": "9050423",
    "prefecture": "沖縄県",
    "prefecture_kana": "オキナワケン",
    "prefecture_code": 47,
    "city": "国頭郡今帰仁村",
    "city_kana": "クニガミグンナキジンソン",
    "town": "平敷",
    "town_kana": "ヘシキ",
    "street": null,
    "office_name": null,
    "office_name_kana": null
  },
  "0424": {
    "postcode": "9050424",
    "prefecture": "沖縄県",
    "prefecture_kana": "オキナワケン",
    "prefecture_code": 47,
    "city": "国頭郡今帰仁村",
    "city_kana": "クニガミグンナキジンソン",
    "town": "仲尾次",
    "town_kana": "ナカオシ",
    "street": null,
    "office_name": null,
    "office_name_kana": null
  },
  "0425": {
    "postcode": "9050425",
    "prefecture": "沖縄県",
    "prefecture_kana": "オキナワケン",
    "prefecture_code": 47,
    "city": "国頭郡今帰仁村",
    "city_kana": "クニガミグンナキジンソン",
    "town": "与那嶺",
    "town_kana": "ヨナミネ",
    "street": null,
    "office_name": null,
    "office_name_kana": null
  },
  "0426": {
    "postcode": "9050426",
    "prefecture": "沖縄県",
    "prefecture_kana": "オキナワケン",
    "prefecture_code": 47,
    "city": "国頭郡今帰仁村",
    "city_kana": "クニガミグンナキジンソン",
    "town": "諸志",
    "town_kana": "ショシ",
    "street": null,
    "office_name": null,
    "office_name_kana": null
  },
  "0427": {
    "postcode": "9050427",
    "prefecture": "沖縄県",
    "prefecture_kana": "オキナワケン",
    "prefecture_code": 47,
    "city": "国頭郡今帰仁村",
    "city_kana": "クニガミグンナキジンソン",
    "town": "兼次",
    "town_kana": "カネシ",
    "street": null,
    "office_name": null,
    "office_name_kana": null
  },
  "0428": {
    "postcode": "9050428",
    "prefecture": "沖縄県",
    "prefecture_kana": "オキナワケン",
    "prefecture_code": 47,
    "city": "国頭郡今帰仁村",
    "city_kana": "クニガミグンナキジンソン",
    "town": "今泊",
    "town_kana": "イマドマリ",
    "street": null,
    "office_name": null,
    "office_name_kana": null
  },
  "0492": {
    "postcode": "9050492",
    "prefecture": "沖縄県",
    "prefecture_kana": "オキナワケン",
    "prefecture_code": 47,
    "city": "国頭郡今帰仁村",
    "city_kana": "クニガミグンナキジンソン",
    "town": "字仲宗根",
    "town_kana": null,
    "street": "２１９",
    "office_name": "今帰仁村役場",
    "office_name_kana": "ナキジンソンヤクバ"
  },
  "0494": {
    "postcode": "9050494",
    "prefecture": "沖縄県",
    "prefecture_kana": "オキナワケン",
    "prefecture_code": 47,
    "city": "国頭郡今帰仁村",
    "city_kana": "クニガミグンナキジンソン",
    "town": "字呉我山",
    "town_kana": null,
    "street": "５５３番地１",
    "office_name": "株式会社　ジャパンエンターテイメント",
    "office_name_kana": "カブシキガイシヤ ジヤパンエンタ-テイメント"
  },
  "0500": {
    "postcode": "9050500",
    "prefecture": "沖縄県",
    "prefecture_kana": "オキナワケン",
    "prefecture_code": 47,
    "city": "国頭郡伊江村",
    "city_kana": "クニガミグンイエソン",
    "town": "",
    "town_kana": "",
    "street": null,
    "office_name": null,
    "office_name_kana": null
  },
  "0501": {
    "postcode": "9050501",
    "prefecture": "沖縄県",
    "prefecture_kana": "オキナワケン",
    "prefecture_code": 47,
    "city": "国頭郡伊江村",
    "city_kana": "クニガミグンイエソン",
    "town": "東江上",
    "town_kana": "ヒガシエウエ",
    "street": null,
    "office_name": null,
    "office_name_kana": null
  },
  "0502": {
    "postcode": "9050502",
    "prefecture": "沖縄県",
    "prefecture_kana": "オキナワケン",
    "prefecture_code": 47,
    "city": "国頭郡伊江村",
    "city_kana": "クニガミグンイエソン",
    "town": "東江前",
    "town_kana": "ヒガシエマエ",
    "street": null,
    "office_name": null,
    "office_name_kana": null
  },
  "0503": {
    "postcode": "9050503",
    "prefecture": "沖縄県",
    "prefecture_kana": "オキナワケン",
    "prefecture_code": 47,
    "city": "国頭郡伊江村",
    "city_kana": "クニガミグンイエソン",
    "town": "川平",
    "town_kana": "カワヒラ",
    "street": null,
    "office_name": null,
    "office_name_kana": null
  },
  "0504": {
    "postcode": "9050504",
    "prefecture": "沖縄県",
    "prefecture_kana": "オキナワケン",
    "prefecture_code": 47,
    "city": "国頭郡伊江村",
    "city_kana": "クニガミグンイエソン",
    "town": "西江前",
    "town_kana": "ニシエマエ",
    "street": null,
    "office_name": null,
    "office_name_kana": null
  },
  "0505": {
    "postcode": "9050505",
    "prefecture": "沖縄県",
    "prefecture_kana": "オキナワケン",
    "prefecture_code": 47,
    "city": "国頭郡伊江村",
    "city_kana": "クニガミグンイエソン",
    "town": "西江上",
    "town_kana": "ニシエウエ",
    "street": null,
    "office_name": null,
    "office_name_kana": null
  },
  "0592": {
    "postcode": "9050592",
    "prefecture": "沖縄県",
    "prefecture_kana": "オキナワケン",
    "prefecture_code": 47,
    "city": "国頭郡伊江村",
    "city_kana": "クニガミグンイエソン",
    "town": "字東江前",
    "town_kana": null,
    "street": "３８",
    "office_name": "伊江村役場",
    "office_name_kana": "イエソンヤクバ"
  },
  "0593": {
    "postcode": "9050593",
    "prefecture": "沖縄県",
    "prefecture_kana": "オキナワケン",
    "prefecture_code": 47,
    "city": "国頭郡伊江村",
    "city_kana": "クニガミグンイエソン",
    "town": "字川平",
    "town_kana": null,
    "street": "１５０−３",
    "office_name": "ＪＡ伊江村",
    "office_name_kana": "ジエイエイイエソン"
  },
  "0594": {
    "postcode": "9050594",
    "prefecture": "沖縄県",
    "prefecture_kana": "オキナワケン",
    "prefecture_code": 47,
    "city": "国頭郡伊江村",
    "city_kana": "クニガミグンイエソン",
    "town": "字西江前",
    "town_kana": null,
    "street": "１",
    "office_name": "伊江中学校",
    "office_name_kana": "イエチユウガツコウ"
  },
  "0595": {
    "postcode": "9050595",
    "prefecture": "沖縄県",
    "prefecture_kana": "オキナワケン",
    "prefecture_code": 47,
    "city": "国頭郡伊江村",
    "city_kana": "クニガミグンイエソン",
    "town": "字東江前",
    "town_kana": null,
    "street": "３６４",
    "office_name": "伊江小学校",
    "office_name_kana": "イエシヨウガツコウ"
  },
  "0596": {
    "postcode": "9050596",
    "prefecture": "沖縄県",
    "prefecture_kana": "オキナワケン",
    "prefecture_code": 47,
    "city": "国頭郡伊江村",
    "city_kana": "クニガミグンイエソン",
    "town": "字川平",
    "town_kana": null,
    "street": "６００",
    "office_name": "西小学校",
    "office_name_kana": "ニシシヨウガツコウ"
  },
  "0600": {
    "postcode": "9050600",
    "prefecture": "沖縄県",
    "prefecture_kana": "オキナワケン",
    "prefecture_code": 47,
    "city": "島尻郡伊是名村",
    "city_kana": "シマジリグンイゼナソン",
    "town": "",
    "town_kana": "",
    "street": null,
    "office_name": null,
    "office_name_kana": null
  },
  "0601": {
    "postcode": "9050601",
    "prefecture": "沖縄県",
    "prefecture_kana": "オキナワケン",
    "prefecture_code": 47,
    "city": "島尻郡伊是名村",
    "city_kana": "シマジリグンイゼナソン",
    "town": "内花",
    "town_kana": "ウチハナ",
    "street": null,
    "office_name": null,
    "office_name_kana": null
  },
  "0602": {
    "postcode": "9050602",
    "prefecture": "沖縄県",
    "prefecture_kana": "オキナワケン",
    "prefecture_code": 47,
    "city": "島尻郡伊是名村",
    "city_kana": "シマジリグンイゼナソン",
    "town": "諸見",
    "town_kana": "ショミ",
    "street": null,
    "office_name": null,
    "office_name_kana": null
  },
  "0603": {
    "postcode": "9050603",
    "prefecture": "沖縄県",
    "prefecture_kana": "オキナワケン",
    "prefecture_code": 47,
    "city": "島尻郡伊是名村",
    "city_kana": "シマジリグンイゼナソン",
    "town": "仲田",
    "town_kana": "ナカダ",
    "street": null,
    "office_name": null,
    "office_name_kana": null
  },
  "0604": {
    "postcode": "9050604",
    "prefecture": "沖縄県",
    "prefecture_kana": "オキナワケン",
    "prefecture_code": 47,
    "city": "島尻郡伊是名村",
    "city_kana": "シマジリグンイゼナソン",
    "town": "伊是名",
    "town_kana": "イゼナ",
    "street": null,
    "office_name": null,
    "office_name_kana": null
  },
  "0605": {
    "postcode": "9050605",
    "prefecture": "沖縄県",
    "prefecture_kana": "オキナワケン",
    "prefecture_code": 47,
    "city": "島尻郡伊是名村",
    "city_kana": "シマジリグンイゼナソン",
    "town": "勢理客",
    "town_kana": "セリキャク",
    "street": null,
    "office_name": null,
    "office_name_kana": null
  },
  "0695": {
    "postcode": "9050695",
    "prefecture": "沖縄県",
    "prefecture_kana": "オキナワケン",
    "prefecture_code": 47,
    "city": "島尻郡伊是名村",
    "city_kana": "シマジリグンイゼナソン",
    "town": "字仲田",
    "town_kana": null,
    "street": "１２０３",
    "office_name": "伊是名村役場",
    "office_name_kana": "イゼナソンヤクバ"
  },
  "0700": {
    "postcode": "9050700",
    "prefecture": "沖縄県",
    "prefecture_kana": "オキナワケン",
    "prefecture_code": 47,
    "city": "島尻郡伊平屋村",
    "city_kana": "シマジリグンイヘヤソン",
    "town": "",
    "town_kana": "",
    "street": null,
    "office_name": null,
    "office_name_kana": null
  },
  "0701": {
    "postcode": "9050701",
    "prefecture": "沖縄県",
    "prefecture_kana": "オキナワケン",
    "prefecture_code": 47,
    "city": "島尻郡伊平屋村",
    "city_kana": "シマジリグンイヘヤソン",
    "town": "田名",
    "town_kana": "ダナ",
    "street": null,
    "office_name": null,
    "office_name_kana": null
  },
  "0702": {
    "postcode": "9050702",
    "prefecture": "沖縄県",
    "prefecture_kana": "オキナワケン",
    "prefecture_code": 47,
    "city": "島尻郡伊平屋村",
    "city_kana": "シマジリグンイヘヤソン",
    "town": "前泊",
    "town_kana": "マエドマリ",
    "street": null,
    "office_name": null,
    "office_name_kana": null
  },
  "0703": {
    "postcode": "9050703",
    "prefecture": "沖縄県",
    "prefecture_kana": "オキナワケン",
    "prefecture_code": 47,
    "city": "島尻郡伊平屋村",
    "city_kana": "シマジリグンイヘヤソン",
    "town": "我喜屋",
    "town_kana": "ガキヤ",
    "street": null,
    "office_name": null,
    "office_name_kana": null
  },
  "0704": {
    "postcode": "9050704",
    "prefecture": "沖縄県",
    "prefecture_kana": "オキナワケン",
    "prefecture_code": 47,
    "city": "島尻郡伊平屋村",
    "city_kana": "シマジリグンイヘヤソン",
    "town": "島尻",
    "town_kana": "シマジリ",
    "street": null,
    "office_name": null,
    "office_name_kana": null
  },
  "0705": {
    "postcode": "9050705",
    "prefecture": "沖縄県",
    "prefecture_kana": "オキナワケン",
    "prefecture_code": 47,
    "city": "島尻郡伊平屋村",
    "city_kana": "シマジリグンイヘヤソン",
    "town": "野甫",
    "town_kana": "ノホ",
    "street": null,
    "office_name": null,
    "office_name_kana": null
  },
  "0792": {
    "postcode": "9050792",
    "prefecture": "沖縄県",
    "prefecture_kana": "オキナワケン",
    "prefecture_code": 47,
    "city": "島尻郡伊平屋村",
    "city_kana": "シマジリグンイヘヤソン",
    "town": "字我喜屋",
    "town_kana": null,
    "street": "２１７−３０",
    "office_name": "伊平屋村農業協同組合",
    "office_name_kana": "イヘヤソンノウギヨウキヨウドウクミアイ"
  },
  "0793": {
    "postcode": "9050793",
    "prefecture": "沖縄県",
    "prefecture_kana": "オキナワケン",
    "prefecture_code": 47,
    "city": "島尻郡伊平屋村",
    "city_kana": "シマジリグンイヘヤソン",
    "town": "字我喜屋",
    "town_kana": null,
    "street": "２５１",
    "office_name": "伊平屋村役場",
    "office_name_kana": "イヘヤソンヤクバ"
  },
  "0794": {
    "postcode": "9050794",
    "prefecture": "沖縄県",
    "prefecture_kana": "オキナワケン",
    "prefecture_code": 47,
    "city": "島尻郡伊平屋村",
    "city_kana": "シマジリグンイヘヤソン",
    "town": "字我喜屋",
    "town_kana": null,
    "street": "２５１",
    "office_name": "伊平屋村教育委員会",
    "office_name_kana": "イヘヤソンキヨウイクイインカイ"
  },
  "0795": {
    "postcode": "9050795",
    "prefecture": "沖縄県",
    "prefecture_kana": "オキナワケン",
    "prefecture_code": 47,
    "city": "島尻郡伊平屋村",
    "city_kana": "シマジリグンイヘヤソン",
    "town": "字我喜屋",
    "town_kana": null,
    "street": "２１３２",
    "office_name": "伊平屋小学校",
    "office_name_kana": "イヘヤシヨウガツコウ"
  },
  "0796": {
    "postcode": "9050796",
    "prefecture": "沖縄県",
    "prefecture_kana": "オキナワケン",
    "prefecture_code": 47,
    "city": "島尻郡伊平屋村",
    "city_kana": "シマジリグンイヘヤソン",
    "town": "字我喜屋",
    "town_kana": null,
    "street": "２４１",
    "office_name": "伊平屋中学校",
    "office_name_kana": "イヘヤチユウガツコウ"
  },
  "1141": {
    "postcode": "9051141",
    "prefecture": "沖縄県",
    "prefecture_kana": "オキナワケン",
    "prefecture_code": 47,
    "city": "名護市",
    "city_kana": "ナゴシ",
    "town": "源河",
    "town_kana": "ゲンカ",
    "street": null,
    "office_name": null,
    "office_name_kana": null
  },
  "1142": {
    "postcode": "9051142",
    "prefecture": "沖縄県",
    "prefecture_kana": "オキナワケン",
    "prefecture_code": 47,
    "city": "名護市",
    "city_kana": "ナゴシ",
    "town": "稲嶺",
    "town_kana": "イナミネ",
    "street": null,
    "office_name": null,
    "office_name_kana": null
  },
  "1143": {
    "postcode": "9051143",
    "prefecture": "沖縄県",
    "prefecture_kana": "オキナワケン",
    "prefecture_code": 47,
    "city": "名護市",
    "city_kana": "ナゴシ",
    "town": "真喜屋",
    "town_kana": "マキヤ",
    "street": null,
    "office_name": null,
    "office_name_kana": null
  },
  "1144": {
    "postcode": "9051144",
    "prefecture": "沖縄県",
    "prefecture_kana": "オキナワケン",
    "prefecture_code": 47,
    "city": "名護市",
    "city_kana": "ナゴシ",
    "town": "仲尾次",
    "town_kana": "ナカオシ",
    "street": null,
    "office_name": null,
    "office_name_kana": null
  },
  "1145": {
    "postcode": "9051145",
    "prefecture": "沖縄県",
    "prefecture_kana": "オキナワケン",
    "prefecture_code": 47,
    "city": "名護市",
    "city_kana": "ナゴシ",
    "town": "川上",
    "town_kana": "カワカミ",
    "street": null,
    "office_name": null,
    "office_name_kana": null
  },
  "1146": {
    "postcode": "9051146",
    "prefecture": "沖縄県",
    "prefecture_kana": "オキナワケン",
    "prefecture_code": 47,
    "city": "名護市",
    "city_kana": "ナゴシ",
    "town": "親川",
    "town_kana": "オヤカワ",
    "street": null,
    "office_name": null,
    "office_name_kana": null
  },
  "1147": {
    "postcode": "9051147",
    "prefecture": "沖縄県",
    "prefecture_kana": "オキナワケン",
    "prefecture_code": 47,
    "city": "名護市",
    "city_kana": "ナゴシ",
    "town": "田井等",
    "town_kana": "タイラ",
    "street": null,
    "office_name": null,
    "office_name_kana": null
  },
  "1151": {
    "postcode": "9051151",
    "prefecture": "沖縄県",
    "prefecture_kana": "オキナワケン",
    "prefecture_code": 47,
    "city": "名護市",
    "city_kana": "ナゴシ",
    "town": "振慶名",
    "town_kana": "ブリケナ",
    "street": null,
    "office_name": null,
    "office_name_kana": null
  },
  "1152": {
    "postcode": "9051152",
    "prefecture": "沖縄県",
    "prefecture_kana": "オキナワケン",
    "prefecture_code": 47,
    "city": "名護市",
    "city_kana": "ナゴシ",
    "town": "伊差川",
    "town_kana": "イサガワ",
    "street": null,
    "office_name": null,
    "office_name_kana": null
  },
  "1153": {
    "postcode": "9051153",
    "prefecture": "沖縄県",
    "prefecture_kana": "オキナワケン",
    "prefecture_code": 47,
    "city": "名護市",
    "city_kana": "ナゴシ",
    "town": "仲尾",
    "town_kana": "ナカオ",
    "street": null,
    "office_name": null,
    "office_name_kana": null
  },
  "1154": {
    "postcode": "9051154",
    "prefecture": "沖縄県",
    "prefecture_kana": "オキナワケン",
    "prefecture_code": 47,
    "city": "名護市",
    "city_kana": "ナゴシ",
    "town": "呉我",
    "town_kana": "ゴガ",
    "street": null,
    "office_name": null,
    "office_name_kana": null
  },
  "1155": {
    "postcode": "9051155",
    "prefecture": "沖縄県",
    "prefecture_kana": "オキナワケン",
    "prefecture_code": 47,
    "city": "名護市",
    "city_kana": "ナゴシ",
    "town": "我部祖河",
    "town_kana": "ガブソカ",
    "street": null,
    "office_name": null,
    "office_name_kana": null
  },
  "1156": {
    "postcode": "9051156",
    "prefecture": "沖縄県",
    "prefecture_kana": "オキナワケン",
    "prefecture_code": 47,
    "city": "名護市",
    "city_kana": "ナゴシ",
    "town": "古我知",
    "town_kana": "コガチ",
    "street": null,
    "office_name": null,
    "office_name_kana": null
  },
  "1200": {
    "postcode": "9051200",
    "prefecture": "沖縄県",
    "prefecture_kana": "オキナワケン",
    "prefecture_code": 47,
    "city": "国頭郡東村",
    "city_kana": "クニガミグンヒガシソン",
    "town": "",
    "town_kana": "",
    "street": null,
    "office_name": null,
    "office_name_kana": null
  },
  "1201": {
    "postcode": "9051201",
    "prefecture": "沖縄県",
    "prefecture_kana": "オキナワケン",
    "prefecture_code": 47,
    "city": "国頭郡東村",
    "city_kana": "クニガミグンヒガシソン",
    "town": "高江",
    "town_kana": "タカエ",
    "street": null,
    "office_name": null,
    "office_name_kana": null
  },
  "1202": {
    "postcode": "9051202",
    "prefecture": "沖縄県",
    "prefecture_kana": "オキナワケン",
    "prefecture_code": 47,
    "city": "国頭郡東村",
    "city_kana": "クニガミグンヒガシソン",
    "town": "宮城",
    "town_kana": "ミヤギ",
    "street": null,
    "office_name": null,
    "office_name_kana": null
  },
  "1203": {
    "postcode": "9051203",
    "prefecture": "沖縄県",
    "prefecture_kana": "オキナワケン",
    "prefecture_code": 47,
    "city": "国頭郡東村",
    "city_kana": "クニガミグンヒガシソン",
    "town": "川田",
    "town_kana": "カワタ",
    "street": null,
    "office_name": null,
    "office_name_kana": null
  },
  "1204": {
    "postcode": "9051204",
    "prefecture": "沖縄県",
    "prefecture_kana": "オキナワケン",
    "prefecture_code": 47,
    "city": "国頭郡東村",
    "city_kana": "クニガミグンヒガシソン",
    "town": "平良",
    "town_kana": "タイラ",
    "street": null,
    "office_name": null,
    "office_name_kana": null
  },
  "1205": {
    "postcode": "9051205",
    "prefecture": "沖縄県",
    "prefecture_kana": "オキナワケン",
    "prefecture_code": 47,
    "city": "国頭郡東村",
    "city_kana": "クニガミグンヒガシソン",
    "town": "慶佐次",
    "town_kana": "ゲサシ",
    "street": null,
    "office_name": null,
    "office_name_kana": null
  },
  "1206": {
    "postcode": "9051206",
    "prefecture": "沖縄県",
    "prefecture_kana": "オキナワケン",
    "prefecture_code": 47,
    "city": "国頭郡東村",
    "city_kana": "クニガミグンヒガシソン",
    "town": "有銘",
    "town_kana": "アルメ",
    "street": null,
    "office_name": null,
    "office_name_kana": null
  },
  "1292": {
    "postcode": "9051292",
    "prefecture": "沖縄県",
    "prefecture_kana": "オキナワケン",
    "prefecture_code": 47,
    "city": "国頭郡東村",
    "city_kana": "クニガミグンヒガシソン",
    "town": "字平良",
    "town_kana": null,
    "street": "８０４",
    "office_name": "東村役場",
    "office_name_kana": "ヒガシソンヤクバ"
  },
  "1300": {
    "postcode": "9051300",
    "prefecture": "沖縄県",
    "prefecture_kana": "オキナワケン",
    "prefecture_code": 47,
    "city": "国頭郡大宜味村",
    "city_kana": "クニガミグンオオギミソン",
    "town": "",
    "town_kana": "",
    "street": null,
    "office_name": null,
    "office_name_kana": null
  },
  "1301": {
    "postcode": "9051301",
    "prefecture": "沖縄県",
    "prefecture_kana": "オキナワケン",
    "prefecture_code": 47,
    "city": "国頭郡大宜味村",
    "city_kana": "クニガミグンオオギミソン",
    "town": "田嘉里",
    "town_kana": "タカザト",
    "street": null,
    "office_name": null,
    "office_name_kana": null
  },
  "1302": {
    "postcode": "9051302",
    "prefecture": "沖縄県",
    "prefecture_kana": "オキナワケン",
    "prefecture_code": 47,
    "city": "国頭郡大宜味村",
    "city_kana": "クニガミグンオオギミソン",
    "town": "謝名城",
    "town_kana": "ジャナグスク",
    "street": null,
    "office_name": null,
    "office_name_kana": null
  },
  "1303": {
    "postcode": "9051303",
    "prefecture": "沖縄県",
    "prefecture_kana": "オキナワケン",
    "prefecture_code": 47,
    "city": "国頭郡大宜味村",
    "city_kana": "クニガミグンオオギミソン",
    "town": "喜如嘉",
    "town_kana": "キジョカ",
    "street": null,
    "office_name": null,
    "office_name_kana": null
  },
  "1304": {
    "postcode": "9051304",
    "prefecture": "沖縄県",
    "prefecture_kana": "オキナワケン",
    "prefecture_code": 47,
    "city": "国頭郡大宜味村",
    "city_kana": "クニガミグンオオギミソン",
    "town": "饒波",
    "town_kana": "ヌウハ",
    "street": null,
    "office_name": null,
    "office_name_kana": null
  },
  "1305": {
    "postcode": "9051305",
    "prefecture": "沖縄県",
    "prefecture_kana": "オキナワケン",
    "prefecture_code": 47,
    "city": "国頭郡大宜味村",
    "city_kana": "クニガミグンオオギミソン",
    "town": "大兼久",
    "town_kana": "オオガネク",
    "street": null,
    "office_name": null,
    "office_name_kana": null
  },
  "1306": {
    "postcode": "9051306",
    "prefecture": "沖縄県",
    "prefecture_kana": "オキナワケン",
    "prefecture_code": 47,
    "city": "国頭郡大宜味村",
    "city_kana": "クニガミグンオオギミソン",
    "town": "大宜味",
    "town_kana": "オオギミ",
    "street": null,
    "office_name": null,
    "office_name_kana": null
  },
  "1307": {
    "postcode": "9051307",
    "prefecture": "沖縄県",
    "prefecture_kana": "オキナワケン",
    "prefecture_code": 47,
    "city": "国頭郡大宜味村",
    "city_kana": "クニガミグンオオギミソン",
    "town": "根路銘",
    "town_kana": "ネロメ",
    "street": null,
    "office_name": null,
    "office_name_kana": null
  },
  "1308": {
    "postcode": "9051308",
    "prefecture": "沖縄県",
    "prefecture_kana": "オキナワケン",
    "prefecture_code": 47,
    "city": "国頭郡大宜味村",
    "city_kana": "クニガミグンオオギミソン",
    "town": "上原",
    "town_kana": "ウエハラ",
    "street": null,
    "office_name": null,
    "office_name_kana": null
  },
  "1311": {
    "postcode": "9051311",
    "prefecture": "沖縄県",
    "prefecture_kana": "オキナワケン",
    "prefecture_code": 47,
    "city": "国頭郡大宜味村",
    "city_kana": "クニガミグンオオギミソン",
    "town": "塩屋",
    "town_kana": "シオヤ",
    "street": null,
    "office_name": null,
    "office_name_kana": null
  },
  "1312": {
    "postcode": "9051312",
    "prefecture": "沖縄県",
    "prefecture_kana": "オキナワケン",
    "prefecture_code": 47,
    "city": "国頭郡大宜味村",
    "city_kana": "クニガミグンオオギミソン",
    "town": "屋古",
    "town_kana": "ヤコ",
    "street": null,
    "office_name": null,
    "office_name_kana": null
  },
  "1313": {
    "postcode": "9051313",
    "prefecture": "沖縄県",
    "prefecture_kana": "オキナワケン",
    "prefecture_code": 47,
    "city": "国頭郡大宜味村",
    "city_kana": "クニガミグンオオギミソン",
    "town": "押川",
    "town_kana": "オシカワ",
    "street": null,
    "office_name": null,
    "office_name_kana": null
  },
  "1314": {
    "postcode": "9051314",
    "prefecture": "沖縄県",
    "prefecture_kana": "オキナワケン",
    "prefecture_code": 47,
    "city": "国頭郡大宜味村",
    "city_kana": "クニガミグンオオギミソン",
    "town": "田港",
    "town_kana": "タミナト",
    "street": null,
    "office_name": null,
    "office_name_kana": null
  },
  "1315": {
    "postcode": "9051315",
    "prefecture": "沖縄県",
    "prefecture_kana": "オキナワケン",
    "prefecture_code": 47,
    "city": "国頭郡大宜味村",
    "city_kana": "クニガミグンオオギミソン",
    "town": "大保",
    "town_kana": "タイホ",
    "street": null,
    "office_name": null,
    "office_name_kana": null
  },
  "1316": {
    "postcode": "9051316",
    "prefecture": "沖縄県",
    "prefecture_kana": "オキナワケン",
    "prefecture_code": 47,
    "city": "国頭郡大宜味村",
    "city_kana": "クニガミグンオオギミソン",
    "town": "白浜",
    "town_kana": "シラハマ",
    "street": null,
    "office_name": null,
    "office_name_kana": null
  },
  "1317": {
    "postcode": "9051317",
    "prefecture": "沖縄県",
    "prefecture_kana": "オキナワケン",
    "prefecture_code": 47,
    "city": "国頭郡大宜味村",
    "city_kana": "クニガミグンオオギミソン",
    "town": "江洲",
    "town_kana": "エス",
    "street": null,
    "office_name": null,
    "office_name_kana": null
  },
  "1318": {
    "postcode": "9051318",
    "prefecture": "沖縄県",
    "prefecture_kana": "オキナワケン",
    "prefecture_code": 47,
    "city": "国頭郡大宜味村",
    "city_kana": "クニガミグンオオギミソン",
    "town": "津波",
    "town_kana": "ツハ",
    "street": null,
    "office_name": null,
    "office_name_kana": null
  },
  "1319": {
    "postcode": "9051319",
    "prefecture": "沖縄県",
    "prefecture_kana": "オキナワケン",
    "prefecture_code": 47,
    "city": "国頭郡大宜味村",
    "city_kana": "クニガミグンオオギミソン",
    "town": "宮城",
    "town_kana": "ミヤギ",
    "street": null,
    "office_name": null,
    "office_name_kana": null
  },
  "1392": {
    "postcode": "9051392",
    "prefecture": "沖縄県",
    "prefecture_kana": "オキナワケン",
    "prefecture_code": 47,
    "city": "国頭郡大宜味村",
    "city_kana": "クニガミグンオオギミソン",
    "town": "字大兼久",
    "town_kana": null,
    "street": "１５７",
    "office_name": "大宜味村役場",
    "office_name_kana": "オオギミソンヤクバ"
  },
  "1400": {
    "postcode": "9051400",
    "prefecture": "沖縄県",
    "prefecture_kana": "オキナワケン",
    "prefecture_code": 47,
    "city": "国頭郡国頭村",
    "city_kana": "クニガミグンクニガミソン",
    "town": "",
    "town_kana": "",
    "street": null,
    "office_name": null,
    "office_name_kana": null
  },
  "1411": {
    "postcode": "9051411",
    "prefecture": "沖縄県",
    "prefecture_kana": "オキナワケン",
    "prefecture_code": 47,
    "city": "国頭郡国頭村",
    "city_kana": "クニガミグンクニガミソン",
    "town": "辺土名",
    "town_kana": "ヘントナ",
    "street": null,
    "office_name": null,
    "office_name_kana": null
  },
  "1412": {
    "postcode": "9051412",
    "prefecture": "沖縄県",
    "prefecture_kana": "オキナワケン",
    "prefecture_code": 47,
    "city": "国頭郡国頭村",
    "city_kana": "クニガミグンクニガミソン",
    "town": "奥間",
    "town_kana": "オクマ",
    "street": null,
    "office_name": null,
    "office_name_kana": null
  },
  "1413": {
    "postcode": "9051413",
    "prefecture": "沖縄県",
    "prefecture_kana": "オキナワケン",
    "prefecture_code": 47,
    "city": "国頭郡国頭村",
    "city_kana": "クニガミグンクニガミソン",
    "town": "比地",
    "town_kana": "ヒジ",
    "street": null,
    "office_name": null,
    "office_name_kana": null
  },
  "1414": {
    "postcode": "9051414",
    "prefecture": "沖縄県",
    "prefecture_kana": "オキナワケン",
    "prefecture_code": 47,
    "city": "国頭郡国頭村",
    "city_kana": "クニガミグンクニガミソン",
    "town": "半地",
    "town_kana": "ハンジ",
    "street": null,
    "office_name": null,
    "office_name_kana": null
  },
  "1415": {
    "postcode": "9051415",
    "prefecture": "沖縄県",
    "prefecture_kana": "オキナワケン",
    "prefecture_code": 47,
    "city": "国頭郡国頭村",
    "city_kana": "クニガミグンクニガミソン",
    "town": "浜",
    "town_kana": "ハマ",
    "street": null,
    "office_name": null,
    "office_name_kana": null
  },
  "1416": {
    "postcode": "9051416",
    "prefecture": "沖縄県",
    "prefecture_kana": "オキナワケン",
    "prefecture_code": 47,
    "city": "国頭郡国頭村",
    "city_kana": "クニガミグンクニガミソン",
    "town": "鏡地",
    "town_kana": "カガンジ",
    "street": null,
    "office_name": null,
    "office_name_kana": null
  },
  "1417": {
    "postcode": "9051417",
    "prefecture": "沖縄県",
    "prefecture_kana": "オキナワケン",
    "prefecture_code": 47,
    "city": "国頭郡国頭村",
    "city_kana": "クニガミグンクニガミソン",
    "town": "桃原",
    "town_kana": "トウバル",
    "street": null,
    "office_name": null,
    "office_name_kana": null
  },
  "1421": {
    "postcode": "9051421",
    "prefecture": "沖縄県",
    "prefecture_kana": "オキナワケン",
    "prefecture_code": 47,
    "city": "国頭郡国頭村",
    "city_kana": "クニガミグンクニガミソン",
    "town": "辺戸",
    "town_kana": "ヘド",
    "street": null,
    "office_name": null,
    "office_name_kana": null
  },
  "1422": {
    "postcode": "9051422",
    "prefecture": "沖縄県",
    "prefecture_kana": "オキナワケン",
    "prefecture_code": 47,
    "city": "国頭郡国頭村",
    "city_kana": "クニガミグンクニガミソン",
    "town": "宜名真",
    "town_kana": "ギナマ",
    "street": null,
    "office_name": null,
    "office_name_kana": null
  },
  "1423": {
    "postcode": "9051423",
    "prefecture": "沖縄県",
    "prefecture_kana": "オキナワケン",
    "prefecture_code": 47,
    "city": "国頭郡国頭村",
    "city_kana": "クニガミグンクニガミソン",
    "town": "宇嘉",
    "town_kana": "ウカ",
    "street": null,
    "office_name": null,
    "office_name_kana": null
  },
  "1424": {
    "postcode": "9051424",
    "prefecture": "沖縄県",
    "prefecture_kana": "オキナワケン",
    "prefecture_code": 47,
    "city": "国頭郡国頭村",
    "city_kana": "クニガミグンクニガミソン",
    "town": "辺野喜",
    "town_kana": "ベノキ",
    "street": null,
    "office_name": null,
    "office_name_kana": null
  },
  "1425": {
    "postcode": "9051425",
    "prefecture": "沖縄県",
    "prefecture_kana": "オキナワケン",
    "prefecture_code": 47,
    "city": "国頭郡国頭村",
    "city_kana": "クニガミグンクニガミソン",
    "town": "佐手",
    "town_kana": "サテ",
    "street": null,
    "office_name": null,
    "office_name_kana": null
  },
  "1426": {
    "postcode": "9051426",
    "prefecture": "沖縄県",
    "prefecture_kana": "オキナワケン",
    "prefecture_code": 47,
    "city": "国頭郡国頭村",
    "city_kana": "クニガミグンクニガミソン",
    "town": "謝敷",
    "town_kana": "ジャシキ",
    "street": null,
    "office_name": null,
    "office_name_kana": null
  },
  "1427": {
    "postcode": "9051427",
    "prefecture": "沖縄県",
    "prefecture_kana": "オキナワケン",
    "prefecture_code": 47,
    "city": "国頭郡国頭村",
    "city_kana": "クニガミグンクニガミソン",
    "town": "与那",
    "town_kana": "ヨナ",
    "street": null,
    "office_name": null,
    "office_name_kana": null
  },
  "1428": {
    "postcode": "9051428",
    "prefecture": "沖縄県",
    "prefecture_kana": "オキナワケン",
    "prefecture_code": 47,
    "city": "国頭郡国頭村",
    "city_kana": "クニガミグンクニガミソン",
    "town": "伊地",
    "town_kana": "イジ",
    "street": null,
    "office_name": null,
    "office_name_kana": null
  },
  "1429": {
    "postcode": "9051429",
    "prefecture": "沖縄県",
    "prefecture_kana": "オキナワケン",
    "prefecture_code": 47,
    "city": "国頭郡国頭村",
    "city_kana": "クニガミグンクニガミソン",
    "town": "宇良",
    "town_kana": "ウラ",
    "street": null,
    "office_name": null,
    "office_name_kana": null
  },
  "1495": {
    "postcode": "9051495",
    "prefecture": "沖縄県",
    "prefecture_kana": "オキナワケン",
    "prefecture_code": 47,
    "city": "国頭郡国頭村",
    "city_kana": "クニガミグンクニガミソン",
    "town": "字辺土名",
    "town_kana": null,
    "street": "１２１",
    "office_name": "国頭村役場",
    "office_name_kana": "クニガミソンヤクバ"
  },
  "1501": {
    "postcode": "9051501",
    "prefecture": "沖縄県",
    "prefecture_kana": "オキナワケン",
    "prefecture_code": 47,
    "city": "国頭郡国頭村",
    "city_kana": "クニガミグンクニガミソン",
    "town": "奥",
    "town_kana": "オク",
    "street": null,
    "office_name": null,
    "office_name_kana": null
  },
  "1502": {
    "postcode": "9051502",
    "prefecture": "沖縄県",
    "prefecture_kana": "オキナワケン",
    "prefecture_code": 47,
    "city": "国頭郡国頭村",
    "city_kana": "クニガミグンクニガミソン",
    "town": "楚洲",
    "town_kana": "ソス",
    "street": null,
    "office_name": null,
    "office_name_kana": null
  },
  "1503": {
    "postcode": "9051503",
    "prefecture": "沖縄県",
    "prefecture_kana": "オキナワケン",
    "prefecture_code": 47,
    "city": "国頭郡国頭村",
    "city_kana": "クニガミグンクニガミソン",
    "town": "安田",
    "town_kana": "アダ",
    "street": null,
    "office_name": null,
    "office_name_kana": null
  },
  "1504": {
    "postcode": "9051504",
    "prefecture": "沖縄県",
    "prefecture_kana": "オキナワケン",
    "prefecture_code": 47,
    "city": "国頭郡国頭村",
    "city_kana": "クニガミグンクニガミソン",
    "town": "安波",
    "town_kana": "アハ",
    "street": null,
    "office_name": null,
    "office_name_kana": null
  },
  "1631": {
    "postcode": "9051631",
    "prefecture": "沖縄県",
    "prefecture_kana": "オキナワケン",
    "prefecture_code": 47,
    "city": "名護市",
    "city_kana": "ナゴシ",
    "town": "屋我",
    "town_kana": "ヤガ",
    "street": null,
    "office_name": null,
    "office_name_kana": null
  },
  "1632": {
    "postcode": "9051632",
    "prefecture": "沖縄県",
    "prefecture_kana": "オキナワケン",
    "prefecture_code": 47,
    "city": "名護市",
    "city_kana": "ナゴシ",
    "town": "饒平名",
    "town_kana": "ヨヘナ",
    "street": null,
    "office_name": null,
    "office_name_kana": null
  },
  "1633": {
    "postcode": "9051633",
    "prefecture": "沖縄県",
    "prefecture_kana": "オキナワケン",
    "prefecture_code": 47,
    "city": "名護市",
    "city_kana": "ナゴシ",
    "town": "我部",
    "town_kana": "ガブ",
    "street": null,
    "office_name": null,
    "office_name_kana": null
  },
  "1634": {
    "postcode": "9051634",
    "prefecture": "沖縄県",
    "prefecture_kana": "オキナワケン",
    "prefecture_code": 47,
    "city": "名護市",
    "city_kana": "ナゴシ",
    "town": "運天原",
    "town_kana": "ウンテンバル",
    "street": null,
    "office_name": null,
    "office_name_kana": null
  },
  "1635": {
    "postcode": "9051635",
    "prefecture": "沖縄県",
    "prefecture_kana": "オキナワケン",
    "prefecture_code": 47,
    "city": "名護市",
    "city_kana": "ナゴシ",
    "town": "済井出",
    "town_kana": "スムイデ",
    "street": null,
    "office_name": null,
    "office_name_kana": null
  },
  "2171": {
    "postcode": "9052171",
    "prefecture": "沖縄県",
    "prefecture_kana": "オキナワケン",
    "prefecture_code": 47,
    "city": "名護市",
    "city_kana": "ナゴシ",
    "town": "辺野古",
    "town_kana": "ヘノコ",
    "street": null,
    "office_name": null,
    "office_name_kana": null
  },
  "2172": {
    "postcode": "9052172",
    "prefecture": "沖縄県",
    "prefecture_kana": "オキナワケン",
    "prefecture_code": 47,
    "city": "名護市",
    "city_kana": "ナゴシ",
    "town": "豊原",
    "town_kana": "トヨハラ",
    "street": null,
    "office_name": null,
    "office_name_kana": null
  },
  "2173": {
    "postcode": "9052173",
    "prefecture": "沖縄県",
    "prefecture_kana": "オキナワケン",
    "prefecture_code": 47,
    "city": "名護市",
    "city_kana": "ナゴシ",
    "town": "久志",
    "town_kana": "クシ",
    "street": null,
    "office_name": null,
    "office_name_kana": null
  },
  "2192": {
    "postcode": "9052192",
    "prefecture": "沖縄県",
    "prefecture_kana": "オキナワケン",
    "prefecture_code": 47,
    "city": "名護市",
    "city_kana": "ナゴシ",
    "town": "字辺野古",
    "town_kana": null,
    "street": "９０５番地",
    "office_name": "沖縄工業高等専門学校",
    "office_name_kana": "オキナワコウギヨウコウトウセンモンガツコウ"
  },
  "2261": {
    "postcode": "9052261",
    "prefecture": "沖縄県",
    "prefecture_kana": "オキナワケン",
    "prefecture_code": 47,
    "city": "名護市",
    "city_kana": "ナゴシ",
    "town": "天仁屋",
    "town_kana": "テニヤ",
    "street": null,
    "office_name": null,
    "office_name_kana": null
  },
  "2262": {
    "postcode": "9052262",
    "prefecture": "沖縄県",
    "prefecture_kana": "オキナワケン",
    "prefecture_code": 47,
    "city": "名護市",
    "city_kana": "ナゴシ",
    "town": "嘉陽",
    "town_kana": "カヨウ",
    "street": null,
    "office_name": null,
    "office_name_kana": null
  },
  "2263": {
    "postcode": "9052263",
    "prefecture": "沖縄県",
    "prefecture_kana": "オキナワケン",
    "prefecture_code": 47,
    "city": "名護市",
    "city_kana": "ナゴシ",
    "town": "安部",
    "town_kana": "アブ",
    "street": null,
    "office_name": null,
    "office_name_kana": null
  },
  "2264": {
    "postcode": "9052264",
    "prefecture": "沖縄県",
    "prefecture_kana": "オキナワケン",
    "prefecture_code": 47,
    "city": "名護市",
    "city_kana": "ナゴシ",
    "town": "三原",
    "town_kana": "ミハラ",
    "street": null,
    "office_name": null,
    "office_name_kana": null
  },
  "2265": {
    "postcode": "9052265",
    "prefecture": "沖縄県",
    "prefecture_kana": "オキナワケン",
    "prefecture_code": 47,
    "city": "名護市",
    "city_kana": "ナゴシ",
    "town": "汀間",
    "town_kana": "テイマ",
    "street": null,
    "office_name": null,
    "office_name_kana": null
  },
  "2266": {
    "postcode": "9052266",
    "prefecture": "沖縄県",
    "prefecture_kana": "オキナワケン",
    "prefecture_code": 47,
    "city": "名護市",
    "city_kana": "ナゴシ",
    "town": "瀬嵩",
    "town_kana": "セダケ",
    "street": null,
    "office_name": null,
    "office_name_kana": null
  },
  "2267": {
    "postcode": "9052267",
    "prefecture": "沖縄県",
    "prefecture_kana": "オキナワケン",
    "prefecture_code": 47,
    "city": "名護市",
    "city_kana": "ナゴシ",
    "town": "大浦",
    "town_kana": "オオウラ",
    "street": null,
    "office_name": null,
    "office_name_kana": null
  },
  "2268": {
    "postcode": "9052268",
    "prefecture": "沖縄県",
    "prefecture_kana": "オキナワケン",
    "prefecture_code": 47,
    "city": "名護市",
    "city_kana": "ナゴシ",
    "town": "大川",
    "town_kana": "オオカワ",
    "street": null,
    "office_name": null,
    "office_name_kana": null
  },
  "2269": {
    "postcode": "9052269",
    "prefecture": "沖縄県",
    "prefecture_kana": "オキナワケン",
    "prefecture_code": 47,
    "city": "名護市",
    "city_kana": "ナゴシ",
    "town": "二見",
    "town_kana": "フタミ",
    "street": null,
    "office_name": null,
    "office_name_kana": null
  },
  "8501": {
    "postcode": "9058501",
    "prefecture": "沖縄県",
    "prefecture_kana": "オキナワケン",
    "prefecture_code": 47,
    "city": "名護市",
    "city_kana": "ナゴシ",
    "town": "大北",
    "town_kana": "オオキタ",
    "street": "３丁目１９−８",
    "office_name": "沖縄総合事務局　北部ダム事務所",
    "office_name_kana": "オキナワソウゴウジムキヨク ホクブダムジムシヨ"
  },
  "8512": {
    "postcode": "9058512",
    "prefecture": "沖縄県",
    "prefecture_kana": "オキナワケン",
    "prefecture_code": 47,
    "city": "名護市",
    "city_kana": "ナゴシ",
    "town": "大中",
    "town_kana": "オオナカ",
    "street": "２丁目１２−３",
    "office_name": "県立　北部病院",
    "office_name_kana": "ケンリツ ホクブビヨウイン"
  },
  "8540": {
    "postcode": "9058540",
    "prefecture": "沖縄県",
    "prefecture_kana": "オキナワケン",
    "prefecture_code": 47,
    "city": "名護市",
    "city_kana": "ナゴシ",
    "town": "港",
    "town_kana": "ミナト",
    "street": "１丁目１−１",
    "office_name": "名護市役所",
    "office_name_kana": "ナゴシヤクシヨ"
  },
  "8585": {
    "postcode": "9058585",
    "prefecture": "沖縄県",
    "prefecture_kana": "オキナワケン",
    "prefecture_code": 47,
    "city": "名護市",
    "city_kana": "ナゴシ",
    "town": "字為又",
    "town_kana": null,
    "street": "１２２０−１",
    "office_name": "学校法人　名護総合学園　名桜大学",
    "office_name_kana": "ガツコウホウジン ナゴソウゴウガクエン メイオウダイガク"
  },
  "8611": {
    "postcode": "9058611",
    "prefecture": "沖縄県",
    "prefecture_kana": "オキナワケン",
    "prefecture_code": 47,
    "city": "名護市",
    "city_kana": "ナゴシ",
    "town": "字宇茂佐",
    "town_kana": null,
    "street": "１７１２−３",
    "office_name": "北部地区医師会病院",
    "office_name_kana": "ホクブチクイシカイビヨウイン"
  },
  "8668": {
    "postcode": "9058668",
    "prefecture": "沖縄県",
    "prefecture_kana": "オキナワケン",
    "prefecture_code": 47,
    "city": "名護市",
    "city_kana": "ナゴシ",
    "town": "東江",
    "town_kana": "アガリエ",
    "street": "４丁目１０−１（名護郵便局私書箱第１号）",
    "office_name": "名護税務署",
    "office_name_kana": "ナゴゼイムシヨ"
  }
}