{
  "0000": {
    "postcode": "9170000",
    "prefecture": "福井県",
    "prefecture_kana": "フクイケン",
    "prefecture_code": 18,
    "city": "小浜市",
    "city_kana": "オバマシ",
    "town": "",
    "town_kana": "",
    "street": null,
    "office_name": null,
    "office_name_kana": null
  },
  "0001": {
    "postcode": "9170001",
    "prefecture": "福井県",
    "prefecture_kana": "フクイケン",
    "prefecture_code": 18,
    "city": "小浜市",
    "city_kana": "オバマシ",
    "town": "福谷",
    "town_kana": "フクタニ",
    "street": null,
    "office_name": null,
    "office_name_kana": null
  },
  "0002": [
    {
      "postcode": "9170002",
      "prefecture": "福井県",
      "prefecture_kana": "フクイケン",
      "prefecture_code": 18,
      "city": "小浜市",
      "city_kana": "オバマシ",
      "town": "北長町",
      "town_kana": "キタナガマチ",
      "street": null,
      "office_name": null,
      "office_name_kana": null
    },
    {
      "postcode": "9170002",
      "prefecture": "福井県",
      "prefecture_kana": "フクイケン",
      "prefecture_code": 18,
      "city": "小浜市",
      "city_kana": "オバマシ",
      "town": "北塩屋",
      "town_kana": "キタシオヤ",
      "street": null,
      "office_name": null,
      "office_name_kana": null
    }
  ],
  "0003": {
    "postcode": "9170003",
    "prefecture": "福井県",
    "prefecture_kana": "フクイケン",
    "prefecture_code": 18,
    "city": "小浜市",
    "city_kana": "オバマシ",
    "town": "学園町",
    "town_kana": "ガクエンチョウ",
    "street": null,
    "office_name": null,
    "office_name_kana": null
  },
  "0004": [
    {
      "postcode": "9170004",
      "prefecture": "福井県",
      "prefecture_kana": "フクイケン",
      "prefecture_code": 18,
      "city": "小浜市",
      "city_kana": "オバマシ",
      "town": "大湊",
      "town_kana": "オオミナト",
      "street": null,
      "office_name": null,
      "office_name_kana": null
    },
    {
      "postcode": "9170004",
      "prefecture": "福井県",
      "prefecture_kana": "フクイケン",
      "prefecture_code": 18,
      "city": "小浜市",
      "city_kana": "オバマシ",
      "town": "小湊",
      "town_kana": "コミナト",
      "street": null,
      "office_name": null,
      "office_name_kana": null
    },
    {
      "postcode": "9170004",
      "prefecture": "福井県",
      "prefecture_kana": "フクイケン",
      "prefecture_code": 18,
      "city": "小浜市",
      "city_kana": "オバマシ",
      "town": "湊",
      "town_kana": "ミナト",
      "street": null,
      "office_name": null,
      "office_name_kana": null
    }
  ],
  "0005": {
    "postcode": "9170005",
    "prefecture": "福井県",
    "prefecture_kana": "フクイケン",
    "prefecture_code": 18,
    "city": "小浜市",
    "city_kana": "オバマシ",
    "town": "板屋町",
    "town_kana": "イタヤマチ",
    "street": null,
    "office_name": null,
    "office_name_kana": null
  },
  "0006": {
    "postcode": "9170006",
    "prefecture": "福井県",
    "prefecture_kana": "フクイケン",
    "prefecture_code": 18,
    "city": "小浜市",
    "city_kana": "オバマシ",
    "town": "小松原",
    "town_kana": "コマツバラ",
    "street": null,
    "office_name": null,
    "office_name_kana": null
  },
  "0007": [
    {
      "postcode": "9170007",
      "prefecture": "福井県",
      "prefecture_kana": "フクイケン",
      "prefecture_code": 18,
      "city": "小浜市",
      "city_kana": "オバマシ",
      "town": "下竹原",
      "town_kana": "シモダワラ",
      "street": null,
      "office_name": null,
      "office_name_kana": null
    },
    {
      "postcode": "9170007",
      "prefecture": "福井県",
      "prefecture_kana": "フクイケン",
      "prefecture_code": 18,
      "city": "小浜市",
      "city_kana": "オバマシ",
      "town": "西長町",
      "town_kana": "ニシナガマチ",
      "street": null,
      "office_name": null,
      "office_name_kana": null
    }
  ],
  "0008": {
    "postcode": "9170008",
    "prefecture": "福井県",
    "prefecture_kana": "フクイケン",
    "prefecture_code": 18,
    "city": "小浜市",
    "city_kana": "オバマシ",
    "town": "新小松原",
    "town_kana": "シンコマツバラ",
    "street": null,
    "office_name": null,
    "office_name_kana": null
  },
  "0011": {
    "postcode": "9170011",
    "prefecture": "福井県",
    "prefecture_kana": "フクイケン",
    "prefecture_code": 18,
    "city": "小浜市",
    "city_kana": "オバマシ",
    "town": "奈胡",
    "town_kana": "ナゴ",
    "street": null,
    "office_name": null,
    "office_name_kana": null
  },
  "0012": {
    "postcode": "9170012",
    "prefecture": "福井県",
    "prefecture_kana": "フクイケン",
    "prefecture_code": 18,
    "city": "小浜市",
    "city_kana": "オバマシ",
    "town": "熊野",
    "town_kana": "クマノ",
    "street": null,
    "office_name": null,
    "office_name_kana": null
  },
  "0013": {
    "postcode": "9170013",
    "prefecture": "福井県",
    "prefecture_kana": "フクイケン",
    "prefecture_code": 18,
    "city": "小浜市",
    "city_kana": "オバマシ",
    "town": "太良庄",
    "town_kana": "タラノショウ",
    "street": null,
    "office_name": null,
    "office_name_kana": null
  },
  "0014": [
    {
      "postcode": "9170014",
      "prefecture": "福井県",
      "prefecture_kana": "フクイケン",
      "prefecture_code": 18,
      "city": "小浜市",
      "city_kana": "オバマシ",
      "town": "北川",
      "town_kana": "キタガワ",
      "street": null,
      "office_name": null,
      "office_name_kana": null
    },
    {
      "postcode": "9170014",
      "prefecture": "福井県",
      "prefecture_kana": "フクイケン",
      "prefecture_code": 18,
      "city": "小浜市",
      "city_kana": "オバマシ",
      "town": "高塚",
      "town_kana": "タカツカ",
      "street": null,
      "office_name": null,
      "office_name_kana": null
    }
  ],
  "0015": {
    "postcode": "9170015",
    "prefecture": "福井県",
    "prefecture_kana": "フクイケン",
    "prefecture_code": 18,
    "city": "小浜市",
    "city_kana": "オバマシ",
    "town": "栗田",
    "town_kana": "クリタ",
    "street": null,
    "office_name": null,
    "office_name_kana": null
  },
  "0016": {
    "postcode": "9170016",
    "prefecture": "福井県",
    "prefecture_kana": "フクイケン",
    "prefecture_code": 18,
    "city": "小浜市",
    "city_kana": "オバマシ",
    "town": "次吉",
    "town_kana": "ツギヨシ",
    "street": null,
    "office_name": null,
    "office_name_kana": null
  },
  "0017": [
    {
      "postcode": "9170017",
      "prefecture": "福井県",
      "prefecture_kana": "フクイケン",
      "prefecture_code": 18,
      "city": "小浜市",
      "city_kana": "オバマシ",
      "town": "江古川",
      "town_kana": "エゴガワ",
      "street": null,
      "office_name": null,
      "office_name_kana": null
    },
    {
      "postcode": "9170017",
      "prefecture": "福井県",
      "prefecture_kana": "フクイケン",
      "prefecture_code": 18,
      "city": "小浜市",
      "city_kana": "オバマシ",
      "town": "羽賀",
      "town_kana": "ハガ",
      "street": null,
      "office_name": null,
      "office_name_kana": null
    }
  ],
  "0018": {
    "postcode": "9170018",
    "prefecture": "福井県",
    "prefecture_kana": "フクイケン",
    "prefecture_code": 18,
    "city": "小浜市",
    "city_kana": "オバマシ",
    "town": "松ケ崎",
    "town_kana": "マツガサキ",
    "street": null,
    "office_name": null,
    "office_name_kana": null
  },
  "0019": {
    "postcode": "9170019",
    "prefecture": "福井県",
    "prefecture_kana": "フクイケン",
    "prefecture_code": 18,
    "city": "小浜市",
    "city_kana": "オバマシ",
    "town": "山王前",
    "town_kana": "サンノウマエ",
    "street": null,
    "office_name": null,
    "office_name_kana": null
  },
  "0021": [
    {
      "postcode": "9170021",
      "prefecture": "福井県",
      "prefecture_kana": "フクイケン",
      "prefecture_code": 18,
      "city": "小浜市",
      "city_kana": "オバマシ",
      "town": "関",
      "town_kana": "セキ",
      "street": null,
      "office_name": null,
      "office_name_kana": null
    },
    {
      "postcode": "9170021",
      "prefecture": "福井県",
      "prefecture_kana": "フクイケン",
      "prefecture_code": 18,
      "city": "小浜市",
      "city_kana": "オバマシ",
      "town": "竹原",
      "town_kana": "タワラ",
      "street": null,
      "office_name": null,
      "office_name_kana": null
    }
  ],
  "0022": {
    "postcode": "9170022",
    "prefecture": "福井県",
    "prefecture_kana": "フクイケン",
    "prefecture_code": 18,
    "city": "小浜市",
    "city_kana": "オバマシ",
    "town": "上竹原",
    "town_kana": "カミタワラ",
    "street": null,
    "office_name": null,
    "office_name_kana": null
  },
  "0023": {
    "postcode": "9170023",
    "prefecture": "福井県",
    "prefecture_kana": "フクイケン",
    "prefecture_code": 18,
    "city": "小浜市",
    "city_kana": "オバマシ",
    "town": "府中",
    "town_kana": "フチュウ",
    "street": null,
    "office_name": null,
    "office_name_kana": null
  },
  "0024": {
    "postcode": "9170024",
    "prefecture": "福井県",
    "prefecture_kana": "フクイケン",
    "prefecture_code": 18,
    "city": "小浜市",
    "city_kana": "オバマシ",
    "town": "和久里",
    "town_kana": "ワクリ",
    "street": null,
    "office_name": null,
    "office_name_kana": null
  },
  "0025": {
    "postcode": "9170025",
    "prefecture": "福井県",
    "prefecture_kana": "フクイケン",
    "prefecture_code": 18,
    "city": "小浜市",
    "city_kana": "オバマシ",
    "town": "木崎",
    "town_kana": "キザキ",
    "street": null,
    "office_name": null,
    "office_name_kana": null
  },
  "0026": {
    "postcode": "9170026",
    "prefecture": "福井県",
    "prefecture_kana": "フクイケン",
    "prefecture_code": 18,
    "city": "小浜市",
    "city_kana": "オバマシ",
    "town": "多田",
    "town_kana": "タダ",
    "street": null,
    "office_name": null,
    "office_name_kana": null
  },
  "0027": [
    {
      "postcode": "9170027",
      "prefecture": "福井県",
      "prefecture_kana": "フクイケン",
      "prefecture_code": 18,
      "city": "小浜市",
      "city_kana": "オバマシ",
      "town": "生守",
      "town_kana": "イゴモリ",
      "street": null,
      "office_name": null,
      "office_name_kana": null
    },
    {
      "postcode": "9170027",
      "prefecture": "福井県",
      "prefecture_kana": "フクイケン",
      "prefecture_code": 18,
      "city": "小浜市",
      "city_kana": "オバマシ",
      "town": "生守団地",
      "town_kana": "イゴモリダンチ",
      "street": null,
      "office_name": null,
      "office_name_kana": null
    }
  ],
  "0028": {
    "postcode": "9170028",
    "prefecture": "福井県",
    "prefecture_kana": "フクイケン",
    "prefecture_code": 18,
    "city": "小浜市",
    "city_kana": "オバマシ",
    "town": "野代",
    "town_kana": "ノダイ",
    "street": null,
    "office_name": null,
    "office_name_kana": null
  },
  "0031": {
    "postcode": "9170031",
    "prefecture": "福井県",
    "prefecture_kana": "フクイケン",
    "prefecture_code": 18,
    "city": "小浜市",
    "city_kana": "オバマシ",
    "town": "谷田部",
    "town_kana": "ヤタベ",
    "street": null,
    "office_name": null,
    "office_name_kana": null
  },
  "0032": {
    "postcode": "9170032",
    "prefecture": "福井県",
    "prefecture_kana": "フクイケン",
    "prefecture_code": 18,
    "city": "小浜市",
    "city_kana": "オバマシ",
    "town": "尾崎",
    "town_kana": "オザキ",
    "street": null,
    "office_name": null,
    "office_name_kana": null
  },
  "0033": {
    "postcode": "9170033",
    "prefecture": "福井県",
    "prefecture_kana": "フクイケン",
    "prefecture_code": 18,
    "city": "小浜市",
    "city_kana": "オバマシ",
    "town": "須縄",
    "town_kana": "スノ",
    "street": null,
    "office_name": null,
    "office_name_kana": null
  },
  "0034": {
    "postcode": "9170034",
    "prefecture": "福井県",
    "prefecture_kana": "フクイケン",
    "prefecture_code": 18,
    "city": "小浜市",
    "city_kana": "オバマシ",
    "town": "奥田縄",
    "town_kana": "オクダノ",
    "street": null,
    "office_name": null,
    "office_name_kana": null
  },
  "0035": {
    "postcode": "9170035",
    "prefecture": "福井県",
    "prefecture_kana": "フクイケン",
    "prefecture_code": 18,
    "city": "小浜市",
    "city_kana": "オバマシ",
    "town": "口田縄",
    "town_kana": "クチダノ",
    "street": null,
    "office_name": null,
    "office_name_kana": null
  },
  "0036": [
    {
      "postcode": "9170036",
      "prefecture": "福井県",
      "prefecture_kana": "フクイケン",
      "prefecture_code": 18,
      "city": "小浜市",
      "city_kana": "オバマシ",
      "town": "上中井",
      "town_kana": "カミナカイ",
      "street": null,
      "office_name": null,
      "office_name_kana": null
    },
    {
      "postcode": "9170036",
      "prefecture": "福井県",
      "prefecture_kana": "フクイケン",
      "prefecture_code": 18,
      "city": "小浜市",
      "city_kana": "オバマシ",
      "town": "下中井",
      "town_kana": "シモナカイ",
      "street": null,
      "office_name": null,
      "office_name_kana": null
    },
    {
      "postcode": "9170036",
      "prefecture": "福井県",
      "prefecture_kana": "フクイケン",
      "prefecture_code": 18,
      "city": "小浜市",
      "city_kana": "オバマシ",
      "town": "新滝",
      "town_kana": "シンタキ",
      "street": null,
      "office_name": null,
      "office_name_kana": null
    },
    {
      "postcode": "9170036",
      "prefecture": "福井県",
      "prefecture_kana": "フクイケン",
      "prefecture_code": 18,
      "city": "小浜市",
      "city_kana": "オバマシ",
      "town": "滝谷",
      "town_kana": "タキダニ",
      "street": null,
      "office_name": null,
      "office_name_kana": null
    },
    {
      "postcode": "9170036",
      "prefecture": "福井県",
      "prefecture_kana": "フクイケン",
      "prefecture_code": 18,
      "city": "小浜市",
      "city_kana": "オバマシ",
      "town": "中井",
      "town_kana": "ナカイ",
      "street": null,
      "office_name": null,
      "office_name_kana": null
    }
  ],
  "0037": [
    {
      "postcode": "9170037",
      "prefecture": "福井県",
      "prefecture_kana": "フクイケン",
      "prefecture_code": 18,
      "city": "小浜市",
      "city_kana": "オバマシ",
      "town": "相生",
      "town_kana": "アイオイ",
      "street": null,
      "office_name": null,
      "office_name_kana": null
    },
    {
      "postcode": "9170037",
      "prefecture": "福井県",
      "prefecture_kana": "フクイケン",
      "prefecture_code": 18,
      "city": "小浜市",
      "city_kana": "オバマシ",
      "town": "西相生",
      "town_kana": "ニシアイオイ",
      "street": null,
      "office_name": null,
      "office_name_kana": null
    },
    {
      "postcode": "9170037",
      "prefecture": "福井県",
      "prefecture_kana": "フクイケン",
      "prefecture_code": 18,
      "city": "小浜市",
      "city_kana": "オバマシ",
      "town": "東相生",
      "town_kana": "ヒガシアイオイ",
      "street": null,
      "office_name": null,
      "office_name_kana": null
    }
  ],
  "0041": {
    "postcode": "9170041",
    "prefecture": "福井県",
    "prefecture_kana": "フクイケン",
    "prefecture_code": 18,
    "city": "小浜市",
    "city_kana": "オバマシ",
    "town": "青井",
    "town_kana": "アオイ",
    "street": null,
    "office_name": null,
    "office_name_kana": null
  },
  "0042": {
    "postcode": "9170042",
    "prefecture": "福井県",
    "prefecture_kana": "フクイケン",
    "prefecture_code": 18,
    "city": "小浜市",
    "city_kana": "オバマシ",
    "town": "東勢",
    "town_kana": "ヒガシセイ",
    "street": null,
    "office_name": null,
    "office_name_kana": null
  },
  "0043": {
    "postcode": "9170043",
    "prefecture": "福井県",
    "prefecture_kana": "フクイケン",
    "prefecture_code": 18,
    "city": "小浜市",
    "city_kana": "オバマシ",
    "town": "西勢",
    "town_kana": "ニシセイ",
    "street": null,
    "office_name": null,
    "office_name_kana": null
  },
  "0044": [
    {
      "postcode": "9170044",
      "prefecture": "福井県",
      "prefecture_kana": "フクイケン",
      "prefecture_code": 18,
      "city": "小浜市",
      "city_kana": "オバマシ",
      "town": "荒木",
      "town_kana": "アラキ",
      "street": null,
      "office_name": null,
      "office_name_kana": null
    },
    {
      "postcode": "9170044",
      "prefecture": "福井県",
      "prefecture_kana": "フクイケン",
      "prefecture_code": 18,
      "city": "小浜市",
      "city_kana": "オバマシ",
      "town": "黒駒",
      "town_kana": "クロコマ",
      "street": null,
      "office_name": null,
      "office_name_kana": null
    },
    {
      "postcode": "9170044",
      "prefecture": "福井県",
      "prefecture_kana": "フクイケン",
      "prefecture_code": 18,
      "city": "小浜市",
      "city_kana": "オバマシ",
      "town": "法海",
      "town_kana": "ノリカイ",
      "street": null,
      "office_name": null,
      "office_name_kana": null
    },
    {
      "postcode": "9170044",
      "prefecture": "福井県",
      "prefecture_kana": "フクイケン",
      "prefecture_code": 18,
      "city": "小浜市",
      "city_kana": "オバマシ",
      "town": "飯盛",
      "town_kana": "ハンセイ",
      "street": null,
      "office_name": null,
      "office_name_kana": null
    }
  ],
  "0045": [
    {
      "postcode": "9170045",
      "prefecture": "福井県",
      "prefecture_kana": "フクイケン",
      "prefecture_code": 18,
      "city": "小浜市",
      "city_kana": "オバマシ",
      "town": "加斗",
      "town_kana": "カド",
      "street": null,
      "office_name": null,
      "office_name_kana": null
    },
    {
      "postcode": "9170045",
      "prefecture": "福井県",
      "prefecture_kana": "フクイケン",
      "prefecture_code": 18,
      "city": "小浜市",
      "city_kana": "オバマシ",
      "town": "上加斗",
      "town_kana": "カミカド",
      "street": null,
      "office_name": null,
      "office_name_kana": null
    },
    {
      "postcode": "9170045",
      "prefecture": "福井県",
      "prefecture_kana": "フクイケン",
      "prefecture_code": 18,
      "city": "小浜市",
      "city_kana": "オバマシ",
      "town": "下加斗",
      "town_kana": "シモカド",
      "street": null,
      "office_name": null,
      "office_name_kana": null
    }
  ],
  "0046": {
    "postcode": "9170046",
    "prefecture": "福井県",
    "prefecture_kana": "フクイケン",
    "prefecture_code": 18,
    "city": "小浜市",
    "city_kana": "オバマシ",
    "town": "岡津",
    "town_kana": "オコヅ",
    "street": null,
    "office_name": null,
    "office_name_kana": null
  },
  "0047": {
    "postcode": "9170047",
    "prefecture": "福井県",
    "prefecture_kana": "フクイケン",
    "prefecture_code": 18,
    "city": "小浜市",
    "city_kana": "オバマシ",
    "town": "鯉川",
    "town_kana": "コイガワ",
    "street": null,
    "office_name": null,
    "office_name_kana": null
  },
  "0051": {
    "postcode": "9170051",
    "prefecture": "福井県",
    "prefecture_kana": "フクイケン",
    "prefecture_code": 18,
    "city": "小浜市",
    "city_kana": "オバマシ",
    "town": "小浜白鳥",
    "town_kana": "オバマシラトリ",
    "street": null,
    "office_name": null,
    "office_name_kana": null
  },
  "0052": {
    "postcode": "9170052",
    "prefecture": "福井県",
    "prefecture_kana": "フクイケン",
    "prefecture_code": 18,
    "city": "小浜市",
    "city_kana": "オバマシ",
    "town": "小浜男山",
    "town_kana": "オバマオトコヤマ",
    "street": null,
    "office_name": null,
    "office_name_kana": null
  },
  "0053": {
    "postcode": "9170053",
    "prefecture": "福井県",
    "prefecture_kana": "フクイケン",
    "prefecture_code": 18,
    "city": "小浜市",
    "city_kana": "オバマシ",
    "town": "小浜大宮",
    "town_kana": "オバマオオミヤ",
    "street": null,
    "office_name": null,
    "office_name_kana": null
  },
  "0054": {
    "postcode": "9170054",
    "prefecture": "福井県",
    "prefecture_kana": "フクイケン",
    "prefecture_code": 18,
    "city": "小浜市",
    "city_kana": "オバマシ",
    "town": "伏原",
    "town_kana": "フシワラ",
    "street": null,
    "office_name": null,
    "office_name_kana": null
  },
  "0055": {
    "postcode": "9170055",
    "prefecture": "福井県",
    "prefecture_kana": "フクイケン",
    "prefecture_code": 18,
    "city": "小浜市",
    "city_kana": "オバマシ",
    "town": "小浜浅間",
    "town_kana": "オバマアサマ",
    "street": null,
    "office_name": null,
    "office_name_kana": null
  },
  "0056": {
    "postcode": "9170056",
    "prefecture": "福井県",
    "prefecture_kana": "フクイケン",
    "prefecture_code": 18,
    "city": "小浜市",
    "city_kana": "オバマシ",
    "town": "小浜大原",
    "town_kana": "オバマオオハラ",
    "street": null,
    "office_name": null,
    "office_name_kana": null
  },
  "0057": {
    "postcode": "9170057",
    "prefecture": "福井県",
    "prefecture_kana": "フクイケン",
    "prefecture_code": 18,
    "city": "小浜市",
    "city_kana": "オバマシ",
    "town": "小浜飛鳥",
    "town_kana": "オバマアスカ",
    "street": null,
    "office_name": null,
    "office_name_kana": null
  },
  "0058": {
    "postcode": "9170058",
    "prefecture": "福井県",
    "prefecture_kana": "フクイケン",
    "prefecture_code": 18,
    "city": "小浜市",
    "city_kana": "オバマシ",
    "town": "小浜香取",
    "town_kana": "オバマカトリ",
    "street": null,
    "office_name": null,
    "office_name_kana": null
  },
  "0059": {
    "postcode": "9170059",
    "prefecture": "福井県",
    "prefecture_kana": "フクイケン",
    "prefecture_code": 18,
    "city": "小浜市",
    "city_kana": "オバマシ",
    "town": "小浜貴船",
    "town_kana": "オバマキフネ",
    "street": null,
    "office_name": null,
    "office_name_kana": null
  },
  "0061": {
    "postcode": "9170061",
    "prefecture": "福井県",
    "prefecture_kana": "フクイケン",
    "prefecture_code": 18,
    "city": "小浜市",
    "city_kana": "オバマシ",
    "town": "小浜玉前",
    "town_kana": "オバマタママエ",
    "street": null,
    "office_name": null,
    "office_name_kana": null
  },
  "0062": {
    "postcode": "9170062",
    "prefecture": "福井県",
    "prefecture_kana": "フクイケン",
    "prefecture_code": 18,
    "city": "小浜市",
    "city_kana": "オバマシ",
    "town": "小浜今宮",
    "town_kana": "オバマイマミヤ",
    "street": null,
    "office_name": null,
    "office_name_kana": null
  },
  "0063": {
    "postcode": "9170063",
    "prefecture": "福井県",
    "prefecture_kana": "フクイケン",
    "prefecture_code": 18,
    "city": "小浜市",
    "city_kana": "オバマシ",
    "town": "小浜酒井",
    "town_kana": "オバマサカイ",
    "street": null,
    "office_name": null,
    "office_name_kana": null
  },
  "0064": {
    "postcode": "9170064",
    "prefecture": "福井県",
    "prefecture_kana": "フクイケン",
    "prefecture_code": 18,
    "city": "小浜市",
    "city_kana": "オバマシ",
    "town": "小浜竜田",
    "town_kana": "オバマタツタ",
    "street": null,
    "office_name": null,
    "office_name_kana": null
  },
  "0065": {
    "postcode": "9170065",
    "prefecture": "福井県",
    "prefecture_kana": "フクイケン",
    "prefecture_code": 18,
    "city": "小浜市",
    "city_kana": "オバマシ",
    "town": "小浜住吉",
    "town_kana": "オバマスミヨシ",
    "street": null,
    "office_name": null,
    "office_name_kana": null
  },
  "0066": {
    "postcode": "9170066",
    "prefecture": "福井県",
    "prefecture_kana": "フクイケン",
    "prefecture_code": 18,
    "city": "小浜市",
    "city_kana": "オバマシ",
    "town": "小浜神田",
    "town_kana": "オバマカンダ",
    "street": null,
    "office_name": null,
    "office_name_kana": null
  },
  "0067": {
    "postcode": "9170067",
    "prefecture": "福井県",
    "prefecture_kana": "フクイケン",
    "prefecture_code": 18,
    "city": "小浜市",
    "city_kana": "オバマシ",
    "town": "小浜鹿島",
    "town_kana": "オバマカシマ",
    "street": null,
    "office_name": null,
    "office_name_kana": null
  },
  "0068": {
    "postcode": "9170068",
    "prefecture": "福井県",
    "prefecture_kana": "フクイケン",
    "prefecture_code": 18,
    "city": "小浜市",
    "city_kana": "オバマシ",
    "town": "小浜日吉",
    "town_kana": "オバマヒヨシ",
    "street": null,
    "office_name": null,
    "office_name_kana": null
  },
  "0069": {
    "postcode": "9170069",
    "prefecture": "福井県",
    "prefecture_kana": "フクイケン",
    "prefecture_code": 18,
    "city": "小浜市",
    "city_kana": "オバマシ",
    "town": "小浜白鬚",
    "town_kana": "オバマシラヒゲ",
    "street": null,
    "office_name": null,
    "office_name_kana": null
  },
  "0071": {
    "postcode": "9170071",
    "prefecture": "福井県",
    "prefecture_kana": "フクイケン",
    "prefecture_code": 18,
    "city": "小浜市",
    "city_kana": "オバマシ",
    "town": "一番町",
    "town_kana": "イチバンチョウ",
    "street": null,
    "office_name": null,
    "office_name_kana": null
  },
  "0072": {
    "postcode": "9170072",
    "prefecture": "福井県",
    "prefecture_kana": "フクイケン",
    "prefecture_code": 18,
    "city": "小浜市",
    "city_kana": "オバマシ",
    "town": "千種",
    "town_kana": "チグサ",
    "street": null,
    "office_name": null,
    "office_name_kana": null
  },
  "0073": {
    "postcode": "9170073",
    "prefecture": "福井県",
    "prefecture_kana": "フクイケン",
    "prefecture_code": 18,
    "city": "小浜市",
    "city_kana": "オバマシ",
    "town": "四谷町",
    "town_kana": "ヨツヤチョウ",
    "street": null,
    "office_name": null,
    "office_name_kana": null
  },
  "0074": {
    "postcode": "9170074",
    "prefecture": "福井県",
    "prefecture_kana": "フクイケン",
    "prefecture_code": 18,
    "city": "小浜市",
    "city_kana": "オバマシ",
    "town": "後瀬町",
    "town_kana": "ノチセチョウ",
    "street": null,
    "office_name": null,
    "office_name_kana": null
  },
  "0075": {
    "postcode": "9170075",
    "prefecture": "福井県",
    "prefecture_kana": "フクイケン",
    "prefecture_code": 18,
    "city": "小浜市",
    "city_kana": "オバマシ",
    "town": "南川町",
    "town_kana": "ミナミガワチョウ",
    "street": null,
    "office_name": null,
    "office_name_kana": null
  },
  "0076": {
    "postcode": "9170076",
    "prefecture": "福井県",
    "prefecture_kana": "フクイケン",
    "prefecture_code": 18,
    "city": "小浜市",
    "city_kana": "オバマシ",
    "town": "湯岡",
    "town_kana": "ユノオカ",
    "street": null,
    "office_name": null,
    "office_name_kana": null
  },
  "0077": {
    "postcode": "9170077",
    "prefecture": "福井県",
    "prefecture_kana": "フクイケン",
    "prefecture_code": 18,
    "city": "小浜市",
    "city_kana": "オバマシ",
    "town": "駅前町",
    "town_kana": "エキマエチョウ",
    "street": null,
    "office_name": null,
    "office_name_kana": null
  },
  "0078": {
    "postcode": "9170078",
    "prefecture": "福井県",
    "prefecture_kana": "フクイケン",
    "prefecture_code": 18,
    "city": "小浜市",
    "city_kana": "オバマシ",
    "town": "大手町",
    "town_kana": "オオテチョウ",
    "street": null,
    "office_name": null,
    "office_name_kana": null
  },
  "0081": {
    "postcode": "9170081",
    "prefecture": "福井県",
    "prefecture_kana": "フクイケン",
    "prefecture_code": 18,
    "city": "小浜市",
    "city_kana": "オバマシ",
    "town": "川崎",
    "town_kana": "カワサキ",
    "street": null,
    "office_name": null,
    "office_name_kana": null
  },
  "0082": {
    "postcode": "9170082",
    "prefecture": "福井県",
    "prefecture_kana": "フクイケン",
    "prefecture_code": 18,
    "city": "小浜市",
    "city_kana": "オバマシ",
    "town": "小浜津島",
    "town_kana": "オバマツシマ",
    "street": null,
    "office_name": null,
    "office_name_kana": null
  },
  "0083": {
    "postcode": "9170083",
    "prefecture": "福井県",
    "prefecture_kana": "フクイケン",
    "prefecture_code": 18,
    "city": "小浜市",
    "city_kana": "オバマシ",
    "town": "小浜清滝",
    "town_kana": "オバマキヨタキ",
    "street": null,
    "office_name": null,
    "office_name_kana": null
  },
  "0084": {
    "postcode": "9170084",
    "prefecture": "福井県",
    "prefecture_kana": "フクイケン",
    "prefecture_code": 18,
    "city": "小浜市",
    "city_kana": "オバマシ",
    "town": "小浜広峰",
    "town_kana": "オバマヒロミネ",
    "street": null,
    "office_name": null,
    "office_name_kana": null
  },
  "0085": {
    "postcode": "9170085",
    "prefecture": "福井県",
    "prefecture_kana": "フクイケン",
    "prefecture_code": 18,
    "city": "小浜市",
    "city_kana": "オバマシ",
    "town": "小浜生玉",
    "town_kana": "オバマイクダマ",
    "street": null,
    "office_name": null,
    "office_name_kana": null
  },
  "0086": {
    "postcode": "9170086",
    "prefecture": "福井県",
    "prefecture_kana": "フクイケン",
    "prefecture_code": 18,
    "city": "小浜市",
    "city_kana": "オバマシ",
    "town": "小浜塩竈",
    "town_kana": "オバマシオガマ",
    "street": null,
    "office_name": null,
    "office_name_kana": null
  },
  "0087": {
    "postcode": "9170087",
    "prefecture": "福井県",
    "prefecture_kana": "フクイケン",
    "prefecture_code": 18,
    "city": "小浜市",
    "city_kana": "オバマシ",
    "town": "小浜鈴鹿",
    "town_kana": "オバマスズカ",
    "street": null,
    "office_name": null,
    "office_name_kana": null
  },
  "0088": {
    "postcode": "9170088",
    "prefecture": "福井県",
    "prefecture_kana": "フクイケン",
    "prefecture_code": 18,
    "city": "小浜市",
    "city_kana": "オバマシ",
    "town": "小浜多賀",
    "town_kana": "オバマタガ",
    "street": null,
    "office_name": null,
    "office_name_kana": null
  },
  "0091": {
    "postcode": "9170091",
    "prefecture": "福井県",
    "prefecture_kana": "フクイケン",
    "prefecture_code": 18,
    "city": "小浜市",
    "city_kana": "オバマシ",
    "town": "西津",
    "town_kana": "ニシヅ",
    "street": null,
    "office_name": null,
    "office_name_kana": null
  },
  "0092": {
    "postcode": "9170092",
    "prefecture": "福井県",
    "prefecture_kana": "フクイケン",
    "prefecture_code": 18,
    "city": "小浜市",
    "city_kana": "オバマシ",
    "town": "山手",
    "town_kana": "ヤマテ",
    "street": null,
    "office_name": null,
    "office_name_kana": null
  },
  "0093": {
    "postcode": "9170093",
    "prefecture": "福井県",
    "prefecture_kana": "フクイケン",
    "prefecture_code": 18,
    "city": "小浜市",
    "city_kana": "オバマシ",
    "town": "水取",
    "town_kana": "ミズトリ",
    "street": null,
    "office_name": null,
    "office_name_kana": null
  },
  "0094": {
    "postcode": "9170094",
    "prefecture": "福井県",
    "prefecture_kana": "フクイケン",
    "prefecture_code": 18,
    "city": "小浜市",
    "city_kana": "オバマシ",
    "town": "丸山",
    "town_kana": "マルヤマ",
    "street": null,
    "office_name": null,
    "office_name_kana": null
  },
  "0095": {
    "postcode": "9170095",
    "prefecture": "福井県",
    "prefecture_kana": "フクイケン",
    "prefecture_code": 18,
    "city": "小浜市",
    "city_kana": "オバマシ",
    "town": "城内",
    "town_kana": "ジョウナイ",
    "street": null,
    "office_name": null,
    "office_name_kana": null
  },
  "0096": {
    "postcode": "9170096",
    "prefecture": "福井県",
    "prefecture_kana": "フクイケン",
    "prefecture_code": 18,
    "city": "小浜市",
    "city_kana": "オバマシ",
    "town": "雲浜",
    "town_kana": "ウンピン",
    "street": null,
    "office_name": null,
    "office_name_kana": null
  },
  "0097": {
    "postcode": "9170097",
    "prefecture": "福井県",
    "prefecture_kana": "フクイケン",
    "prefecture_code": 18,
    "city": "小浜市",
    "city_kana": "オバマシ",
    "town": "堀屋敷",
    "town_kana": "ホリヤシキ",
    "street": null,
    "office_name": null,
    "office_name_kana": null
  },
  "0101": {
    "postcode": "9170101",
    "prefecture": "福井県",
    "prefecture_kana": "フクイケン",
    "prefecture_code": 18,
    "city": "小浜市",
    "city_kana": "オバマシ",
    "town": "田烏",
    "town_kana": "タガラス",
    "street": null,
    "office_name": null,
    "office_name_kana": null
  },
  "0102": {
    "postcode": "9170102",
    "prefecture": "福井県",
    "prefecture_kana": "フクイケン",
    "prefecture_code": 18,
    "city": "小浜市",
    "city_kana": "オバマシ",
    "town": "矢代",
    "town_kana": "ヤシロ",
    "street": null,
    "office_name": null,
    "office_name_kana": null
  },
  "0103": {
    "postcode": "9170103",
    "prefecture": "福井県",
    "prefecture_kana": "フクイケン",
    "prefecture_code": 18,
    "city": "小浜市",
    "city_kana": "オバマシ",
    "town": "志積",
    "town_kana": "シツミ",
    "street": null,
    "office_name": null,
    "office_name_kana": null
  },
  "0104": {
    "postcode": "9170104",
    "prefecture": "福井県",
    "prefecture_kana": "フクイケン",
    "prefecture_code": 18,
    "city": "小浜市",
    "city_kana": "オバマシ",
    "town": "犬熊",
    "town_kana": "イノクマ",
    "street": null,
    "office_name": null,
    "office_name_kana": null
  },
  "0105": {
    "postcode": "9170105",
    "prefecture": "福井県",
    "prefecture_kana": "フクイケン",
    "prefecture_code": 18,
    "city": "小浜市",
    "city_kana": "オバマシ",
    "town": "阿納",
    "town_kana": "アノ",
    "street": null,
    "office_name": null,
    "office_name_kana": null
  },
  "0106": {
    "postcode": "9170106",
    "prefecture": "福井県",
    "prefecture_kana": "フクイケン",
    "prefecture_code": 18,
    "city": "小浜市",
    "city_kana": "オバマシ",
    "town": "阿納尻",
    "town_kana": "アノジリ",
    "street": null,
    "office_name": null,
    "office_name_kana": null
  },
  "0107": {
    "postcode": "9170107",
    "prefecture": "福井県",
    "prefecture_kana": "フクイケン",
    "prefecture_code": 18,
    "city": "小浜市",
    "city_kana": "オバマシ",
    "town": "甲ケ崎",
    "town_kana": "コガサキ",
    "street": null,
    "office_name": null,
    "office_name_kana": null
  },
  "0111": {
    "postcode": "9170111",
    "prefecture": "福井県",
    "prefecture_kana": "フクイケン",
    "prefecture_code": 18,
    "city": "小浜市",
    "city_kana": "オバマシ",
    "town": "西小川",
    "town_kana": "ニシオガワ",
    "street": null,
    "office_name": null,
    "office_name_kana": null
  },
  "0112": {
    "postcode": "9170112",
    "prefecture": "福井県",
    "prefecture_kana": "フクイケン",
    "prefecture_code": 18,
    "city": "小浜市",
    "city_kana": "オバマシ",
    "town": "加尾",
    "town_kana": "カオ",
    "street": null,
    "office_name": null,
    "office_name_kana": null
  },
  "0113": {
    "postcode": "9170113",
    "prefecture": "福井県",
    "prefecture_kana": "フクイケン",
    "prefecture_code": 18,
    "city": "小浜市",
    "city_kana": "オバマシ",
    "town": "宇久",
    "town_kana": "ウグ",
    "street": null,
    "office_name": null,
    "office_name_kana": null
  },
  "0114": {
    "postcode": "9170114",
    "prefecture": "福井県",
    "prefecture_kana": "フクイケン",
    "prefecture_code": 18,
    "city": "小浜市",
    "city_kana": "オバマシ",
    "town": "若狭",
    "town_kana": "ワカサ",
    "street": null,
    "office_name": null,
    "office_name_kana": null
  },
  "0115": {
    "postcode": "9170115",
    "prefecture": "福井県",
    "prefecture_kana": "フクイケン",
    "prefecture_code": 18,
    "city": "小浜市",
    "city_kana": "オバマシ",
    "town": "仏谷",
    "town_kana": "ホトケダニ",
    "street": null,
    "office_name": null,
    "office_name_kana": null
  },
  "0116": {
    "postcode": "9170116",
    "prefecture": "福井県",
    "prefecture_kana": "フクイケン",
    "prefecture_code": 18,
    "city": "小浜市",
    "city_kana": "オバマシ",
    "town": "堅海",
    "town_kana": "カツミ",
    "street": null,
    "office_name": null,
    "office_name_kana": null
  },
  "0117": {
    "postcode": "9170117",
    "prefecture": "福井県",
    "prefecture_kana": "フクイケン",
    "prefecture_code": 18,
    "city": "小浜市",
    "city_kana": "オバマシ",
    "town": "泊",
    "town_kana": "トマリ",
    "street": null,
    "office_name": null,
    "office_name_kana": null
  },
  "0198": {
    "postcode": "9170198",
    "prefecture": "福井県",
    "prefecture_kana": "フクイケン",
    "prefecture_code": 18,
    "city": "小浜市",
    "city_kana": "オバマシ",
    "town": "田烏",
    "town_kana": "タガラス",
    "street": "大浜",
    "office_name": "国立　若狭湾青少年自然の家",
    "office_name_kana": "コクリツ ワカサワンセイシヨウネンシゼンノイエ"
  },
  "0221": {
    "postcode": "9170221",
    "prefecture": "福井県",
    "prefecture_kana": "フクイケン",
    "prefecture_code": 18,
    "city": "小浜市",
    "city_kana": "オバマシ",
    "town": "大谷",
    "town_kana": "オオタニ",
    "street": null,
    "office_name": null,
    "office_name_kana": null
  },
  "0222": {
    "postcode": "9170222",
    "prefecture": "福井県",
    "prefecture_kana": "フクイケン",
    "prefecture_code": 18,
    "city": "小浜市",
    "city_kana": "オバマシ",
    "town": "新保",
    "town_kana": "シンボ",
    "street": null,
    "office_name": null,
    "office_name_kana": null
  },
  "0223": [
    {
      "postcode": "9170223",
      "prefecture": "福井県",
      "prefecture_kana": "フクイケン",
      "prefecture_code": 18,
      "city": "小浜市",
      "city_kana": "オバマシ",
      "town": "大戸",
      "town_kana": "オオド",
      "street": null,
      "office_name": null,
      "office_name_kana": null
    },
    {
      "postcode": "9170223",
      "prefecture": "福井県",
      "prefecture_kana": "フクイケン",
      "prefecture_code": 18,
      "city": "小浜市",
      "city_kana": "オバマシ",
      "town": "加茂",
      "town_kana": "カモ",
      "street": null,
      "office_name": null,
      "office_name_kana": null
    }
  ],
  "0224": {
    "postcode": "9170224",
    "prefecture": "福井県",
    "prefecture_kana": "フクイケン",
    "prefecture_code": 18,
    "city": "小浜市",
    "city_kana": "オバマシ",
    "town": "竹長",
    "town_kana": "タケナガ",
    "street": null,
    "office_name": null,
    "office_name_kana": null
  },
  "0225": {
    "postcode": "9170225",
    "prefecture": "福井県",
    "prefecture_kana": "フクイケン",
    "prefecture_code": 18,
    "city": "小浜市",
    "city_kana": "オバマシ",
    "town": "本保",
    "town_kana": "ホンボ",
    "street": null,
    "office_name": null,
    "office_name_kana": null
  },
  "0226": {
    "postcode": "9170226",
    "prefecture": "福井県",
    "prefecture_kana": "フクイケン",
    "prefecture_code": 18,
    "city": "小浜市",
    "city_kana": "オバマシ",
    "town": "平野",
    "town_kana": "ヒラノ",
    "street": null,
    "office_name": null,
    "office_name_kana": null
  },
  "0231": {
    "postcode": "9170231",
    "prefecture": "福井県",
    "prefecture_kana": "フクイケン",
    "prefecture_code": 18,
    "city": "小浜市",
    "city_kana": "オバマシ",
    "town": "国分",
    "town_kana": "コクブ",
    "street": null,
    "office_name": null,
    "office_name_kana": null
  },
  "0232": {
    "postcode": "9170232",
    "prefecture": "福井県",
    "prefecture_kana": "フクイケン",
    "prefecture_code": 18,
    "city": "小浜市",
    "city_kana": "オバマシ",
    "town": "東市場",
    "town_kana": "トイチバ",
    "street": null,
    "office_name": null,
    "office_name_kana": null
  },
  "0233": {
    "postcode": "9170233",
    "prefecture": "福井県",
    "prefecture_kana": "フクイケン",
    "prefecture_code": 18,
    "city": "小浜市",
    "city_kana": "オバマシ",
    "town": "太興寺",
    "town_kana": "タイコウジ",
    "street": null,
    "office_name": null,
    "office_name_kana": null
  },
  "0234": {
    "postcode": "9170234",
    "prefecture": "福井県",
    "prefecture_kana": "フクイケン",
    "prefecture_code": 18,
    "city": "小浜市",
    "city_kana": "オバマシ",
    "town": "上野",
    "town_kana": "ウエノ",
    "street": null,
    "office_name": null,
    "office_name_kana": null
  },
  "0235": {
    "postcode": "9170235",
    "prefecture": "福井県",
    "prefecture_kana": "フクイケン",
    "prefecture_code": 18,
    "city": "小浜市",
    "city_kana": "オバマシ",
    "town": "四分一",
    "town_kana": "シブイチ",
    "street": null,
    "office_name": null,
    "office_name_kana": null
  },
  "0236": {
    "postcode": "9170236",
    "prefecture": "福井県",
    "prefecture_kana": "フクイケン",
    "prefecture_code": 18,
    "city": "小浜市",
    "city_kana": "オバマシ",
    "town": "三分一",
    "town_kana": "サンブイチ",
    "street": null,
    "office_name": null,
    "office_name_kana": null
  },
  "0237": {
    "postcode": "9170237",
    "prefecture": "福井県",
    "prefecture_kana": "フクイケン",
    "prefecture_code": 18,
    "city": "小浜市",
    "city_kana": "オバマシ",
    "town": "門前",
    "town_kana": "モンゼン",
    "street": null,
    "office_name": null,
    "office_name_kana": null
  },
  "0238": {
    "postcode": "9170238",
    "prefecture": "福井県",
    "prefecture_kana": "フクイケン",
    "prefecture_code": 18,
    "city": "小浜市",
    "city_kana": "オバマシ",
    "town": "池河内",
    "town_kana": "イケノコウチ",
    "street": null,
    "office_name": null,
    "office_name_kana": null
  },
  "0241": [
    {
      "postcode": "9170241",
      "prefecture": "福井県",
      "prefecture_kana": "フクイケン",
      "prefecture_code": 18,
      "city": "小浜市",
      "city_kana": "オバマシ",
      "town": "池田",
      "town_kana": "イケダ",
      "street": null,
      "office_name": null,
      "office_name_kana": null
    },
    {
      "postcode": "9170241",
      "prefecture": "福井県",
      "prefecture_kana": "フクイケン",
      "prefecture_code": 18,
      "city": "小浜市",
      "city_kana": "オバマシ",
      "town": "市場",
      "town_kana": "イチバ",
      "street": null,
      "office_name": null,
      "office_name_kana": null
    },
    {
      "postcode": "9170241",
      "prefecture": "福井県",
      "prefecture_kana": "フクイケン",
      "prefecture_code": 18,
      "city": "小浜市",
      "city_kana": "オバマシ",
      "town": "遠敷",
      "town_kana": "オニュウ",
      "street": null,
      "office_name": null,
      "office_name_kana": null
    },
    {
      "postcode": "9170241",
      "prefecture": "福井県",
      "prefecture_kana": "フクイケン",
      "prefecture_code": 18,
      "city": "小浜市",
      "city_kana": "オバマシ",
      "town": "検見坂",
      "town_kana": "ケンミザカ",
      "street": null,
      "office_name": null,
      "office_name_kana": null
    },
    {
      "postcode": "9170241",
      "prefecture": "福井県",
      "prefecture_kana": "フクイケン",
      "prefecture_code": 18,
      "city": "小浜市",
      "city_kana": "オバマシ",
      "town": "島",
      "town_kana": "シマ",
      "street": null,
      "office_name": null,
      "office_name_kana": null
    },
    {
      "postcode": "9170241",
      "prefecture": "福井県",
      "prefecture_kana": "フクイケン",
      "prefecture_code": 18,
      "city": "小浜市",
      "city_kana": "オバマシ",
      "town": "中村",
      "town_kana": "ナカムラ",
      "street": null,
      "office_name": null,
      "office_name_kana": null
    }
  ],
  "0242": [
    {
      "postcode": "9170242",
      "prefecture": "福井県",
      "prefecture_kana": "フクイケン",
      "prefecture_code": 18,
      "city": "小浜市",
      "city_kana": "オバマシ",
      "town": "金屋",
      "town_kana": "カナヤ",
      "street": null,
      "office_name": null,
      "office_name_kana": null
    },
    {
      "postcode": "9170242",
      "prefecture": "福井県",
      "prefecture_kana": "フクイケン",
      "prefecture_code": 18,
      "city": "小浜市",
      "city_kana": "オバマシ",
      "town": "中の宮",
      "town_kana": "ナカノミヤ",
      "street": null,
      "office_name": null,
      "office_name_kana": null
    }
  ],
  "0243": {
    "postcode": "9170243",
    "prefecture": "福井県",
    "prefecture_kana": "フクイケン",
    "prefecture_code": 18,
    "city": "小浜市",
    "city_kana": "オバマシ",
    "town": "竜前",
    "town_kana": "リュウゼン",
    "street": null,
    "office_name": null,
    "office_name_kana": null
  },
  "0244": {
    "postcode": "9170244",
    "prefecture": "福井県",
    "prefecture_kana": "フクイケン",
    "prefecture_code": 18,
    "city": "小浜市",
    "city_kana": "オバマシ",
    "town": "神宮寺",
    "town_kana": "ジングウジ",
    "street": null,
    "office_name": null,
    "office_name_kana": null
  },
  "0245": {
    "postcode": "9170245",
    "prefecture": "福井県",
    "prefecture_kana": "フクイケン",
    "prefecture_code": 18,
    "city": "小浜市",
    "city_kana": "オバマシ",
    "town": "忠野",
    "town_kana": "チュウノ",
    "street": null,
    "office_name": null,
    "office_name_kana": null
  },
  "0246": {
    "postcode": "9170246",
    "prefecture": "福井県",
    "prefecture_kana": "フクイケン",
    "prefecture_code": 18,
    "city": "小浜市",
    "city_kana": "オバマシ",
    "town": "下根来",
    "town_kana": "シモネゴリ",
    "street": null,
    "office_name": null,
    "office_name_kana": null
  },
  "0247": {
    "postcode": "9170247",
    "prefecture": "福井県",
    "prefecture_kana": "フクイケン",
    "prefecture_code": 18,
    "city": "小浜市",
    "city_kana": "オバマシ",
    "town": "中ノ畑",
    "town_kana": "ナカノハタ",
    "street": null,
    "office_name": null,
    "office_name_kana": null
  },
  "0248": {
    "postcode": "9170248",
    "prefecture": "福井県",
    "prefecture_kana": "フクイケン",
    "prefecture_code": 18,
    "city": "小浜市",
    "city_kana": "オバマシ",
    "town": "上根来",
    "town_kana": "カミネゴリ",
    "street": null,
    "office_name": null,
    "office_name_kana": null
  },
  "0249": {
    "postcode": "9170249",
    "prefecture": "福井県",
    "prefecture_kana": "フクイケン",
    "prefecture_code": 18,
    "city": "小浜市",
    "city_kana": "オバマシ",
    "town": "宮の前",
    "town_kana": "ミヤノマエ",
    "street": null,
    "office_name": null,
    "office_name_kana": null
  },
  "0293": {
    "postcode": "9170293",
    "prefecture": "福井県",
    "prefecture_kana": "フクイケン",
    "prefecture_code": 18,
    "city": "小浜市",
    "city_kana": "オバマシ",
    "town": "金屋",
    "town_kana": "カナヤ",
    "street": "４８−２",
    "office_name": "福井県立　若狭東高等学校",
    "office_name_kana": "フクイケンリツ ワカサヒガシコウトウガツコウ"
  },
  "0297": {
    "postcode": "9170297",
    "prefecture": "福井県",
    "prefecture_kana": "フクイケン",
    "prefecture_code": 18,
    "city": "小浜市",
    "city_kana": "オバマシ",
    "town": "遠敷",
    "town_kana": "オニュウ",
    "street": "１丁目１０１",
    "office_name": "福井県　嶺南振興局",
    "office_name_kana": "フクイケン レイナンシンコウキヨク"
  },
  "0298": {
    "postcode": "9170298",
    "prefecture": "福井県",
    "prefecture_kana": "フクイケン",
    "prefecture_code": 18,
    "city": "小浜市",
    "city_kana": "オバマシ",
    "town": "竜前",
    "town_kana": "リュウゼン",
    "street": "５−１３−１",
    "office_name": "有限会社　せいわ箸店",
    "office_name_kana": "ユウゲンガイシヤ セイワハシテン"
  },
  "0351": {
    "postcode": "9170351",
    "prefecture": "福井県",
    "prefecture_kana": "フクイケン",
    "prefecture_code": 18,
    "city": "小浜市",
    "city_kana": "オバマシ",
    "town": "田茂谷",
    "town_kana": "タモタニ",
    "street": null,
    "office_name": null,
    "office_name_kana": null
  },
  "0352": {
    "postcode": "9170352",
    "prefecture": "福井県",
    "prefecture_kana": "フクイケン",
    "prefecture_code": 18,
    "city": "小浜市",
    "city_kana": "オバマシ",
    "town": "深谷",
    "town_kana": "フカタニ",
    "street": null,
    "office_name": null,
    "office_name_kana": null
  },
  "0353": {
    "postcode": "9170353",
    "prefecture": "福井県",
    "prefecture_kana": "フクイケン",
    "prefecture_code": 18,
    "city": "小浜市",
    "city_kana": "オバマシ",
    "town": "深野",
    "town_kana": "フカノ",
    "street": null,
    "office_name": null,
    "office_name_kana": null
  },
  "0354": {
    "postcode": "9170354",
    "prefecture": "福井県",
    "prefecture_kana": "フクイケン",
    "prefecture_code": 18,
    "city": "小浜市",
    "city_kana": "オバマシ",
    "town": "和多田",
    "town_kana": "ワダタ",
    "street": null,
    "office_name": null,
    "office_name_kana": null
  },
  "0355": {
    "postcode": "9170355",
    "prefecture": "福井県",
    "prefecture_kana": "フクイケン",
    "prefecture_code": 18,
    "city": "小浜市",
    "city_kana": "オバマシ",
    "town": "下田",
    "town_kana": "シモタ",
    "street": null,
    "office_name": null,
    "office_name_kana": null
  },
  "0356": {
    "postcode": "9170356",
    "prefecture": "福井県",
    "prefecture_kana": "フクイケン",
    "prefecture_code": 18,
    "city": "小浜市",
    "city_kana": "オバマシ",
    "town": "上田",
    "town_kana": "カミタ",
    "street": null,
    "office_name": null,
    "office_name_kana": null
  },
  "0357": {
    "postcode": "9170357",
    "prefecture": "福井県",
    "prefecture_kana": "フクイケン",
    "prefecture_code": 18,
    "city": "小浜市",
    "city_kana": "オバマシ",
    "town": "小屋",
    "town_kana": "オヤ",
    "street": null,
    "office_name": null,
    "office_name_kana": null
  },
  "0361": [
    {
      "postcode": "9170361",
      "prefecture": "福井県",
      "prefecture_kana": "フクイケン",
      "prefecture_code": 18,
      "city": "大飯郡おおい町",
      "city_kana": "オオイグンオオイチョウ",
      "town": "名田庄挙原",
      "town_kana": "ナタショウアゲハラ",
      "street": null,
      "office_name": null,
      "office_name_kana": null
    },
    {
      "postcode": "9170361",
      "prefecture": "福井県",
      "prefecture_kana": "フクイケン",
      "prefecture_code": 18,
      "city": "大飯郡おおい町",
      "city_kana": "オオイグンオオイチョウ",
      "town": "名田庄木谷",
      "town_kana": "ナタショウキダニ",
      "street": null,
      "office_name": null,
      "office_name_kana": null
    },
    {
      "postcode": "9170361",
      "prefecture": "福井県",
      "prefecture_kana": "フクイケン",
      "prefecture_code": 18,
      "city": "大飯郡おおい町",
      "city_kana": "オオイグンオオイチョウ",
      "town": "名田庄出合",
      "town_kana": "ナタショウデアイ",
      "street": null,
      "office_name": null,
      "office_name_kana": null
    },
    {
      "postcode": "9170361",
      "prefecture": "福井県",
      "prefecture_kana": "フクイケン",
      "prefecture_code": 18,
      "city": "大飯郡おおい町",
      "city_kana": "オオイグンオオイチョウ",
      "town": "名田庄虫谷",
      "town_kana": "ナタショウムシダニ",
      "street": null,
      "office_name": null,
      "office_name_kana": null
    }
  ],
  "0362": {
    "postcode": "9170362",
    "prefecture": "福井県",
    "prefecture_kana": "フクイケン",
    "prefecture_code": 18,
    "city": "大飯郡おおい町",
    "city_kana": "オオイグンオオイチョウ",
    "town": "名田庄永谷",
    "town_kana": "ナタショウナガタニ",
    "street": null,
    "office_name": null,
    "office_name_kana": null
  },
  "0363": {
    "postcode": "9170363",
    "prefecture": "福井県",
    "prefecture_kana": "フクイケン",
    "prefecture_code": 18,
    "city": "大飯郡おおい町",
    "city_kana": "オオイグンオオイチョウ",
    "town": "名田庄挙野",
    "town_kana": "ナタショウアゲノ",
    "street": null,
    "office_name": null,
    "office_name_kana": null
  },
  "0364": {
    "postcode": "9170364",
    "prefecture": "福井県",
    "prefecture_kana": "フクイケン",
    "prefecture_code": 18,
    "city": "大飯郡おおい町",
    "city_kana": "オオイグンオオイチョウ",
    "town": "名田庄虫鹿野",
    "town_kana": "ナタショウムシガノ",
    "street": null,
    "office_name": null,
    "office_name_kana": null
  },
  "0365": {
    "postcode": "9170365",
    "prefecture": "福井県",
    "prefecture_kana": "フクイケン",
    "prefecture_code": 18,
    "city": "大飯郡おおい町",
    "city_kana": "オオイグンオオイチョウ",
    "town": "名田庄小倉畑",
    "town_kana": "ナタショウオグラハタ",
    "street": null,
    "office_name": null,
    "office_name_kana": null
  },
  "0371": {
    "postcode": "9170371",
    "prefecture": "福井県",
    "prefecture_kana": "フクイケン",
    "prefecture_code": 18,
    "city": "大飯郡おおい町",
    "city_kana": "オオイグンオオイチョウ",
    "town": "名田庄小倉",
    "town_kana": "ナタショウオグラ",
    "street": null,
    "office_name": null,
    "office_name_kana": null
  },
  "0372": {
    "postcode": "9170372",
    "prefecture": "福井県",
    "prefecture_kana": "フクイケン",
    "prefecture_code": 18,
    "city": "大飯郡おおい町",
    "city_kana": "オオイグンオオイチョウ",
    "town": "名田庄堂本",
    "town_kana": "ナタショウドウモト",
    "street": null,
    "office_name": null,
    "office_name_kana": null
  },
  "0373": [
    {
      "postcode": "9170373",
      "prefecture": "福井県",
      "prefecture_kana": "フクイケン",
      "prefecture_code": 18,
      "city": "大飯郡おおい町",
      "city_kana": "オオイグンオオイチョウ",
      "town": "名田庄染ケ谷",
      "town_kana": "ナタショウソメガタニ",
      "street": null,
      "office_name": null,
      "office_name_kana": null
    },
    {
      "postcode": "9170373",
      "prefecture": "福井県",
      "prefecture_kana": "フクイケン",
      "prefecture_code": 18,
      "city": "大飯郡おおい町",
      "city_kana": "オオイグンオオイチョウ",
      "town": "名田庄槇谷",
      "town_kana": "ナタショウマキダニ",
      "street": null,
      "office_name": null,
      "office_name_kana": null
    }
  ],
  "0374": {
    "postcode": "9170374",
    "prefecture": "福井県",
    "prefecture_kana": "フクイケン",
    "prefecture_code": 18,
    "city": "大飯郡おおい町",
    "city_kana": "オオイグンオオイチョウ",
    "town": "名田庄中",
    "town_kana": "ナタショウナカ",
    "street": null,
    "office_name": null,
    "office_name_kana": null
  },
  "0375": {
    "postcode": "9170375",
    "prefecture": "福井県",
    "prefecture_kana": "フクイケン",
    "prefecture_code": 18,
    "city": "大飯郡おおい町",
    "city_kana": "オオイグンオオイチョウ",
    "town": "名田庄納田終",
    "town_kana": "ナタショウノタオイ",
    "street": null,
    "office_name": null,
    "office_name_kana": null
  },
  "0381": {
    "postcode": "9170381",
    "prefecture": "福井県",
    "prefecture_kana": "フクイケン",
    "prefecture_code": 18,
    "city": "大飯郡おおい町",
    "city_kana": "オオイグンオオイチョウ",
    "town": "名田庄三重",
    "town_kana": "ナタショウミエ",
    "street": null,
    "office_name": null,
    "office_name_kana": null
  },
  "0382": {
    "postcode": "9170382",
    "prefecture": "福井県",
    "prefecture_kana": "フクイケン",
    "prefecture_code": 18,
    "city": "大飯郡おおい町",
    "city_kana": "オオイグンオオイチョウ",
    "town": "名田庄久坂",
    "town_kana": "ナタショウヒササカ",
    "street": null,
    "office_name": null,
    "office_name_kana": null
  },
  "0383": {
    "postcode": "9170383",
    "prefecture": "福井県",
    "prefecture_kana": "フクイケン",
    "prefecture_code": 18,
    "city": "大飯郡おおい町",
    "city_kana": "オオイグンオオイチョウ",
    "town": "名田庄下",
    "town_kana": "ナタショウシモ",
    "street": null,
    "office_name": null,
    "office_name_kana": null
  },
  "0384": {
    "postcode": "9170384",
    "prefecture": "福井県",
    "prefecture_kana": "フクイケン",
    "prefecture_code": 18,
    "city": "大飯郡おおい町",
    "city_kana": "オオイグンオオイチョウ",
    "town": "名田庄西谷",
    "town_kana": "ナタショウニシダニ",
    "street": null,
    "office_name": null,
    "office_name_kana": null
  },
  "0385": {
    "postcode": "9170385",
    "prefecture": "福井県",
    "prefecture_kana": "フクイケン",
    "prefecture_code": 18,
    "city": "大飯郡おおい町",
    "city_kana": "オオイグンオオイチョウ",
    "town": "名田庄井上",
    "town_kana": "ナタショウイガミ",
    "street": null,
    "office_name": null,
    "office_name_kana": null
  },
  "0386": {
    "postcode": "9170386",
    "prefecture": "福井県",
    "prefecture_kana": "フクイケン",
    "prefecture_code": 18,
    "city": "大飯郡おおい町",
    "city_kana": "オオイグンオオイチョウ",
    "town": "名田庄口坂本",
    "town_kana": "ナタショウクチサカモト",
    "street": null,
    "office_name": null,
    "office_name_kana": null
  },
  "0387": {
    "postcode": "9170387",
    "prefecture": "福井県",
    "prefecture_kana": "フクイケン",
    "prefecture_code": 18,
    "city": "大飯郡おおい町",
    "city_kana": "オオイグンオオイチョウ",
    "town": "名田庄奥坂本",
    "town_kana": "ナタショウオクサカモト",
    "street": null,
    "office_name": null,
    "office_name_kana": null
  },
  "0398": {
    "postcode": "9170398",
    "prefecture": "福井県",
    "prefecture_kana": "フクイケン",
    "prefecture_code": 18,
    "city": "大飯郡おおい町",
    "city_kana": "オオイグンオオイチョウ",
    "town": "名田庄久坂",
    "town_kana": "ナタショウヒササカ",
    "street": "３−４２−１",
    "office_name": "名田庄商会",
    "office_name_kana": "ナタシヨウシヨウカイ"
  },
  "8505": {
    "postcode": "9178505",
    "prefecture": "福井県",
    "prefecture_kana": "フクイケン",
    "prefecture_code": 18,
    "city": "小浜市",
    "city_kana": "オバマシ",
    "town": "小浜今宮",
    "town_kana": "オバマイマミヤ",
    "street": "１２番地",
    "office_name": "株式会社　津田孫兵衛",
    "office_name_kana": "カブシキガイシヤ ツダマゴベエ"
  },
  "8507": {
    "postcode": "9178507",
    "prefecture": "福井県",
    "prefecture_kana": "フクイケン",
    "prefecture_code": 18,
    "city": "小浜市",
    "city_kana": "オバマシ",
    "town": "千種",
    "town_kana": "チグサ",
    "street": "１丁目６−１３",
    "office_name": "若狭高等学校",
    "office_name_kana": "ワカサコウトウガツコウ"
  },
  "8511": {
    "postcode": "9178511",
    "prefecture": "福井県",
    "prefecture_kana": "フクイケン",
    "prefecture_code": 18,
    "city": "小浜市",
    "city_kana": "オバマシ",
    "town": "後瀬町",
    "town_kana": "ノチセチョウ",
    "street": "７番１０号",
    "office_name": "小浜税務署",
    "office_name_kana": "オバマゼイムシヨ"
  },
  "8512": {
    "postcode": "9178512",
    "prefecture": "福井県",
    "prefecture_kana": "フクイケン",
    "prefecture_code": 18,
    "city": "小浜市",
    "city_kana": "オバマシ",
    "town": "四谷町",
    "town_kana": "ヨツヤチョウ",
    "street": "２０−１０",
    "office_name": "ママーストアー",
    "office_name_kana": "ママ-ストア-"
  },
  "8524": {
    "postcode": "9178524",
    "prefecture": "福井県",
    "prefecture_kana": "フクイケン",
    "prefecture_code": 18,
    "city": "小浜市",
    "city_kana": "オバマシ",
    "town": "城内",
    "town_kana": "ジョウナイ",
    "street": "１丁目１−２",
    "office_name": "小浜簡易裁判所",
    "office_name_kana": "オバマカンイサイバンシヨ"
  },
  "8533": {
    "postcode": "9178533",
    "prefecture": "福井県",
    "prefecture_kana": "フクイケン",
    "prefecture_code": 18,
    "city": "小浜市",
    "city_kana": "オバマシ",
    "town": "大手町",
    "town_kana": "オオテチョウ",
    "street": "５−３２",
    "office_name": "小浜商工会議所",
    "office_name_kana": "オバマシヨウコウカイギシヨ"
  },
  "8544": {
    "postcode": "9178544",
    "prefecture": "福井県",
    "prefecture_kana": "フクイケン",
    "prefecture_code": 18,
    "city": "小浜市",
    "city_kana": "オバマシ",
    "town": "後瀬町",
    "town_kana": "ノチセチョウ",
    "street": "７−１０",
    "office_name": "小浜公共職業安定所　（ハローワークおばま）",
    "office_name_kana": "オバマコウキヨウシヨクギヨウアンテイシヨ (ハロ-ワ-クオバマ)"
  },
  "8550": {
    "postcode": "9178550",
    "prefecture": "福井県",
    "prefecture_kana": "フクイケン",
    "prefecture_code": 18,
    "city": "小浜市",
    "city_kana": "オバマシ",
    "town": "川崎",
    "town_kana": "カワサキ",
    "street": "２丁目１−１",
    "office_name": "小浜海産物　株式会社",
    "office_name_kana": "オバマカイサンブツ カブシキガイシヤ"
  },
  "8555": {
    "postcode": "9178555",
    "prefecture": "福井県",
    "prefecture_kana": "フクイケン",
    "prefecture_code": 18,
    "city": "小浜市",
    "city_kana": "オバマシ",
    "town": "堀屋敷",
    "town_kana": "ホリヤシキ",
    "street": "２−５−２",
    "office_name": "小浜水産高等学校",
    "office_name_kana": "オバマスイサンコウトウガツコウ"
  },
  "8558": {
    "postcode": "9178558",
    "prefecture": "福井県",
    "prefecture_kana": "フクイケン",
    "prefecture_code": 18,
    "city": "小浜市",
    "city_kana": "オバマシ",
    "town": "南川町",
    "town_kana": "ミナミガワチョウ",
    "street": "１４−５３",
    "office_name": "関西電力　株式会社　小浜営業所",
    "office_name_kana": "カンサイデンリヨク カブシキガイシヤ オバマエイギヨウシヨ"
  },
  "8561": {
    "postcode": "9178561",
    "prefecture": "福井県",
    "prefecture_kana": "フクイケン",
    "prefecture_code": 18,
    "city": "小浜市",
    "city_kana": "オバマシ",
    "town": "千種",
    "town_kana": "チグサ",
    "street": "１丁目１６−５６",
    "office_name": "有限会社　宇田川印刷",
    "office_name_kana": "ユウゲンガイシヤ ウダガワインサツ"
  },
  "8567": {
    "postcode": "9178567",
    "prefecture": "福井県",
    "prefecture_kana": "フクイケン",
    "prefecture_code": 18,
    "city": "小浜市",
    "city_kana": "オバマシ",
    "town": "大手町",
    "town_kana": "オオテチョウ",
    "street": "２−２",
    "office_name": "公立小浜病院",
    "office_name_kana": "コウリツオバマビヨウイン"
  },
  "8577": {
    "postcode": "9178577",
    "prefecture": "福井県",
    "prefecture_kana": "フクイケン",
    "prefecture_code": 18,
    "city": "小浜市",
    "city_kana": "オバマシ",
    "town": "駅前町",
    "town_kana": "エキマエチョウ",
    "street": "１３−１０",
    "office_name": "芝浦ハイテック　株式会社　小浜事業所",
    "office_name_kana": "シバウラハイテツク カブシキガイシヤ オバマジギヨウシヨ"
  },
  "8580": {
    "postcode": "9178580",
    "prefecture": "福井県",
    "prefecture_kana": "フクイケン",
    "prefecture_code": 18,
    "city": "小浜市",
    "city_kana": "オバマシ",
    "town": "小浜広峰",
    "town_kana": "オバマヒロミネ",
    "street": "１４",
    "office_name": "有限会社　田村長",
    "office_name_kana": "ユウゲンガイシヤ タムラチヨウ"
  },
  "8584": {
    "postcode": "9178584",
    "prefecture": "福井県",
    "prefecture_kana": "フクイケン",
    "prefecture_code": 18,
    "city": "小浜市",
    "city_kana": "オバマシ",
    "town": "北塩屋",
    "town_kana": "キタシオヤ",
    "street": "第拾六号五番地",
    "office_name": "株式会社　マツ勘",
    "office_name_kana": "カブシキガイシヤ マツカン"
  },
  "8585": {
    "postcode": "9178585",
    "prefecture": "福井県",
    "prefecture_kana": "フクイケン",
    "prefecture_code": 18,
    "city": "小浜市",
    "city_kana": "オバマシ",
    "town": "大手町",
    "town_kana": "オオテチョウ",
    "street": "６−３",
    "office_name": "小浜市役所",
    "office_name_kana": "オバマシヤクシヨ"
  },
  "8588": {
    "postcode": "9178588",
    "prefecture": "福井県",
    "prefecture_kana": "フクイケン",
    "prefecture_code": 18,
    "city": "小浜市",
    "city_kana": "オバマシ",
    "town": "駅前町",
    "town_kana": "エキマエチョウ",
    "street": "１３番１０号",
    "office_name": "日本電産テクノモータ　株式会社",
    "office_name_kana": "ニホンデンサンテクノモ-タ カブシキガイシヤ"
  },
  "8601": {
    "postcode": "9178601",
    "prefecture": "福井県",
    "prefecture_kana": "フクイケン",
    "prefecture_code": 18,
    "city": "小浜市",
    "city_kana": "オバマシ",
    "town": "大手町",
    "town_kana": "オオテチョウ",
    "street": "９−２０（小浜郵便局私書箱第１３号）",
    "office_name": "小浜信用金庫",
    "office_name_kana": "オバマシンヨウキンコ"
  },
  "8686": {
    "postcode": "9178686",
    "prefecture": "福井県",
    "prefecture_kana": "フクイケン",
    "prefecture_code": 18,
    "city": "小浜市",
    "city_kana": "オバマシ",
    "town": "千種",
    "town_kana": "チグサ",
    "street": "１丁目２−１（小浜郵便局私書箱第１５号）",
    "office_name": "株式会社　福邦銀行　小浜支店",
    "office_name_kana": "カブシキガイシヤ フクホウギンコウ オバマシテン"
  }
}